{"objects":{"water":{"type":"GeometryCollection","geometries":[{"type":"MultiPolygon","properties":{"source":"naturalearthdata.com","kind":"ocean","area":1576712559132672,"sort_rank":200,"min_zoom":0.0,"id":1},"arcs":[[[96],[97],[98],[99],[100],[101],[102],[103],[104],[105],[106],[107],[108],[109],[110],[111],[112],[113],[114],[115],[116],[117],[118],[119],[120],[121],[122],[123],[124],[125],[126],[127],[128],[129]],[[130],[131]]]},{"type":"LineString","properties":{"source":"naturalearthdata.com","kind":"ocean","sort_rank":205,"boundary":true,"min_zoom":0.0,"id":585},"arcs":[132]},{"type":"LineString","properties":{"source":"naturalearthdata.com","kind":"ocean","sort_rank":205,"boundary":true,"min_zoom":0.0,"id":586},"arcs":[133]},{"type":"LineString","properties":{"source":"naturalearthdata.com","kind":"ocean","sort_rank":205,"boundary":true,"min_zoom":0.0,"id":587},"arcs":[134]},{"type":"LineString","properties":{"source":"naturalearthdata.com","kind":"ocean","sort_rank":205,"boundary":true,"min_zoom":0.0,"id":588},"arcs":[135]},{"type":"LineString","properties":{"source":"naturalearthdata.com","kind":"ocean","sort_rank":205,"boundary":true,"min_zoom":0.0,"id":590},"arcs":[136]},{"type":"LineString","properties":{"source":"naturalearthdata.com","kind":"ocean","sort_rank":205,"boundary":true,"min_zoom":0.0,"id":595},"arcs":[137]},{"type":"LineString","properties":{"source":"naturalearthdata.com","kind":"ocean","sort_rank":205,"boundary":true,"min_zoom":0.0,"id":607},"arcs":[138]},{"type":"MultiLineString","properties":{"source":"naturalearthdata.com","kind":"ocean","sort_rank":205,"boundary":true,"min_zoom":0.0,"id":2907},"arcs":[[139],[140]]},{"type":"LineString","properties":{"source":"naturalearthdata.com","kind":"ocean","sort_rank":205,"boundary":true,"min_zoom":0.0,"id":3390},"arcs":[141]},{"type":"LineString","properties":{"source":"naturalearthdata.com","kind":"ocean","sort_rank":205,"boundary":true,"min_zoom":0.0,"id":3393},"arcs":[142]},{"type":"LineString","properties":{"source":"naturalearthdata.com","kind":"ocean","sort_rank":205,"boundary":true,"min_zoom":0.0,"id":3703},"arcs":[143]},{"type":"LineString","properties":{"source":"naturalearthdata.com","kind":"ocean","sort_rank":205,"boundary":true,"min_zoom":0.0,"id":3704},"arcs":[144]},{"type":"LineString","properties":{"source":"naturalearthdata.com","kind":"ocean","sort_rank":205,"boundary":true,"min_zoom":0.0,"id":3705},"arcs":[145]},{"type":"LineString","properties":{"source":"naturalearthdata.com","kind":"ocean","sort_rank":205,"boundary":true,"min_zoom":0.0,"id":3706},"arcs":[146]},{"type":"LineString","properties":{"source":"naturalearthdata.com","kind":"ocean","sort_rank":205,"boundary":true,"min_zoom":0.0,"id":3707},"arcs":[147]},{"type":"LineString","properties":{"source":"naturalearthdata.com","kind":"ocean","sort_rank":205,"boundary":true,"min_zoom":0.0,"id":3708},"arcs":[148]},{"type":"LineString","properties":{"source":"naturalearthdata.com","kind":"ocean","sort_rank":205,"boundary":true,"min_zoom":0.0,"id":3709},"arcs":[149]},{"type":"LineString","properties":{"source":"naturalearthdata.com","kind":"ocean","sort_rank":205,"boundary":true,"min_zoom":0.0,"id":3710},"arcs":[150]},{"type":"LineString","properties":{"source":"naturalearthdata.com","kind":"ocean","sort_rank":205,"boundary":true,"min_zoom":0.0,"id":3711},"arcs":[151]},{"type":"LineString","properties":{"source":"naturalearthdata.com","kind":"ocean","sort_rank":205,"boundary":true,"min_zoom":0.0,"id":3713},"arcs":[152]},{"type":"MultiLineString","properties":{"source":"naturalearthdata.com","kind":"ocean","sort_rank":205,"boundary":true,"min_zoom":0.0,"id":3799},"arcs":[[153],[154]]}]},"buildings":{"type":"GeometryCollection","geometries":[]},"places":{"type":"GeometryCollection","geometries":[{"type":"Point","properties":{"name:ps":"\u06a9\u06cc\u0648\u0628\u0627","name:cy":"Ciwba","name:tr":"K\u00fcba","name:kn":"\u0c95\u0ccd\u0caf\u0cc2\u0cac\u0cbe","name:km":"\u1782\u17bb\u1799\u1794\u17b6","name:kl":"Kuba","name:cs":"Kuba","name:ki":"Kiumba","name:ku":"K\u00fbba","name:ti":"\u12a9\u1263","name:ks":"\u06a9\u06cc\u0648\u0657\u0628\u0627","name:to":"Kiupa","name:tl":"Kuba","name:sv":"Kuba","name:or":"\u0b15\u0b4d\u0b71\u0b3f\u0b2c\u0b3e","name:pl":"Kuba","name:ta":"\u0b95\u0bbf\u0baf\u0bc2\u0baa\u0bbe","name:tg":"\u041a\u0443\u0431\u0430","name:te":"\u0c15\u0c4d\u0c2f\u0c42\u0c2c\u0c3e","name:ka":"\u10d9\u10e3\u10d1\u10d0","name:hr":"Kuba","name:de":"Kuba","name:dz":"\u0f40\u0f72\u0f60\u0f74\u0f0b\u0f56\u0fb7","source":"openstreetmap.org","name:iu":"\u1582\u1439 \/ quupaa","name:lv":"Kuba","name:lt":"Kuba","name:hi":"\u0915\u094d\u092f\u0942\u092c\u093e","name:kk":"\u041a\u0443\u0431\u0430","name:he":"\u05e7\u05d5\u05d1\u05d4","kind":"country","name:ur":"\u06a9\u06cc\u0648\u0628\u0627","name:lb":"Kuba","official_name":"Rep\u00fablica de Cuba","name:uk":"\u041a\u0443\u0431\u0430","name:hy":"\u053f\u0578\u0582\u0562\u0561","min_zoom":2.0,"name:hu":"Kuba","name:ln":"Kiba","name:lo":"\u0e84\u0eb4\u0ea7\u0e9a\u0eb2","population":11451652,"name:el":"\u039a\u03bf\u03cd\u03b2\u03b1","name:eo":"Kubo","name":"Cuba","name:ee":"Kuba nutome","name:th":"\u0e1b\u0e23\u0e30\u0e40\u0e17\u0e28\u0e04\u0e34\u0e27\u0e1a\u0e32","name:gu":"\u0a95\u0acd\u0aaf\u0ac1\u0aac\u0abe","name:eu":"Kuba","name:et":"Kuuba","name:yo":"Or\u00edl\u1eb9\u0301\u00e8de K\u00fab\u00e0","name:mt":"Kuba","name:rn":"Kiba","name:az":"Kuba","name:id":"Kuba","name:mr":"\u0915\u094d\u092f\u0942\u092c\u093e","name:ar":"\u0643\u0648\u0628\u0627","name:my":"\u1000\u103b\u1030\u1038\u1018\u102c\u1038","name:io":"Kuba","name:is":"K\u00faba","name:am":"\u12a9\u1263","name:ml":"\u0d15\u0d4d\u0d2f\u0d42\u0d2c","name:ru":"\u041a\u0443\u0431\u0430","name:mn":"\u041a\u0443\u0431\u0430","id":249399313,"name:mk":"\u041a\u0443\u0431\u0430","name:af":"Kuba","name:zu":"i-Cuba","name:ha":"Kyuba","name:ff":"Kubaa","name:fi":"Kuuba","old_name:vi":"Quy Ba","name:mg":"Kiob\u00e0","name:fo":"Kuba","alt_name:vi":"Cu-ba","name:fy":"Kuba","name:vo":"Kube\u00e4n","name:zh":"\u53e4\u5df4","name:so":"Kuuba","name:sl":"Kuba","name:sk":"Kuba","name:ja":"\u30ad\u30e5\u30fc\u30d0","name:si":"\u0d9a\u0dd2\u0dba\u0dd4\u0db6\u0dcf\u0dc0","name:fa":"\u06a9\u0648\u0628\u0627","name:sg":"Kub\u00e4a","name:se":"Kuba","name:ne":"\u0915\u094d\u092f\u0941\u092c\u093e","name:br":"Kuba","name:bs":"Kuba","name:bm":"Kuba","name:bn":"\u0995\u09bf\u0989\u09ac\u09be","name:bo":"\u0f41\u0fb1\u0f74\u0f60\u0f74\u0f0b\u0f56\u0f0d","name:sw":"Kuba","name:be":"\u041a\u0443\u0431\u0430","name:bg":"\u041a\u0443\u0431\u0430","name:sr":"\u041a\u0443\u0431\u0430","name:sq":"Kub\u00eb","name:ko":"\ucfe0\ubc14","name:ga":"C\u00faba","name:gd":"C\u00f9ba","name:gv":"Yn Choobey","name:ak":"Kuba"},"coordinates":[1063,1696]},{"type":"Point","properties":{"source":"naturalearthdata.com","kind":"locality","name":"Santa Clara","population":250512,"region_capital":true,"min_zoom":6.0,"id":5206},"coordinates":[2324,724]},{"type":"Point","properties":{"source":"naturalearthdata.com","kind":"locality","name":"Cienfuegos","population":186644,"region_capital":true,"min_zoom":7.0,"id":3486},"coordinates":[1634,319]},{"type":"Point","properties":{"source":"naturalearthdata.com","kind":"locality","name":"Colon","population":63882,"min_zoom":7.0,"id":3536},"coordinates":[956,1231]},{"type":"Point","properties":{"source":"naturalearthdata.com","kind":"locality","name":"Sagua la Grande","population":62073,"min_zoom":7.0,"id":3537},"coordinates":[2172,1373]}]},"transit":{"type":"GeometryCollection","geometries":[{"type":"MultiLineString","properties":{"kind":"train","name":"Tren Habana-Holgu\u00edn","service":"long distance","sort_rank":275,"source":"openstreetmap.org","min_zoom":6.0,"operator":"Ferrocarriles de Cuba (FC)","ref":"5\/6","osm_relation":true},"arcs":[[52],[53]]},{"type":"MultiLineString","properties":{"kind":"train","name":"Tren Habana-Santiago Nro 1\/2","service":"long distance","sort_rank":275,"source":"openstreetmap.org","min_zoom":6.0,"operator":"Ferrocarriles de Cuba (FC)","ref":"1\/2","osm_relation":true},"arcs":[[54],[55]]},{"type":"MultiLineString","properties":{"kind":"train","name":"Tren Habana-Bayamo-Manzanillo","service":"long distance","sort_rank":275,"source":"openstreetmap.org","min_zoom":6.0,"operator":"Ferrocarriles de Cuba (FC)","ref":"13\/14","osm_relation":true},"arcs":[[56],[57]]},{"type":"MultiLineString","properties":{"kind":"train","name":"Tren C\u00e1rdenas Col\u00f3n","service":"local","sort_rank":275,"source":"openstreetmap.org","min_zoom":6.0,"operator":"Ferrocarriles de Cuba (FC)","ref":"C\u00e1rdenas","osm_relation":true},"arcs":[[58],[59]]},{"type":"MultiLineString","properties":{"kind":"train","name":"Tren Cienfuegos Santa Clara Santi Spiritus","service":"local","sort_rank":275,"source":"openstreetmap.org","min_zoom":6.0,"operator":"Ferrocarriles de Cuba (FC)","ref":"311\/312","osm_relation":true},"arcs":[[60],[61],[62],[63],[64],[65],[66],[67],[68],[69],[70],[71],[72],[73],[74],[75],[76]]},{"type":"MultiLineString","properties":{"kind":"train","name":"Tren Habana-Guant\u00e1namo","service":"long distance","sort_rank":275,"source":"openstreetmap.org","min_zoom":6.0,"operator":"Ferrocarriles de Cuba (FC)","ref":"15\/16","osm_relation":true},"arcs":[[77],[78]]},{"type":"LineString","properties":{"kind":"train","name":"Tren Cienfuegos Santa Clara","service":"local","sort_rank":275,"source":"openstreetmap.org","min_zoom":6.0,"operator":"Ferrocarriles de Cuba (FC)","ref":"CF-VC","id":-6532470,"osm_relation":true},"arcs":[79]},{"type":"LineString","properties":{"kind":"train","name":"Tren Habana- Cienfuegos (Linea Sur)","service":"Long Distance","sort_rank":275,"source":"openstreetmap.org","min_zoom":6.0,"operator":"Ferrocarriles de Cuba (FC)","ref":"73\/74","osm_relation":true},"arcs":[80]},{"type":"LineString","properties":{"kind":"train","name":"Tren Mor\u00f3n Santa Clara (L\u00ednea Norte)","service":"local","sort_rank":275,"source":"openstreetmap.org","min_zoom":6.0,"operator":"Ferrocarriles de Cuba (FC)","ref":"Norte","osm_relation":true},"arcs":[81]},{"type":"MultiLineString","properties":{"kind":"train","name":"Tren Habana-Sancti Spiritus","service":"long distance","sort_rank":275,"source":"openstreetmap.org","min_zoom":6.0,"operator":"Ferrocarriles de Cuba (FC)","ref":"7\/8","osm_relation":true},"arcs":[[82],[83],[84],[85],[86],[87],[88],[89],[90],[91],[92],[93]]},{"type":"MultiLineString","properties":{"kind":"train","name":"Tren Habana-Santiago Nro3\/4","service":"long distance","sort_rank":275,"source":"openstreetmap.org","min_zoom":6.0,"operator":"Ferrocarriles de Cuba (FC)","ref":"3\/4","osm_relation":true},"arcs":[[94],[95]]}]},"pois":{"type":"GeometryCollection","geometries":[{"type":"Point","properties":{"kind":"national_park","name:en":"Zapata Swamp National Park","protect_class":"2","area":5238170000,"name:de":"Nationalpark Sumpf von Zapata","source":"openstreetmap.org","min_zoom":4.61,"tier":1,"name:ru":"\u041d\u0430\u0446\u0438\u043e\u043d\u0430\u043b\u044c\u043d\u044b\u0439 \u043f\u0430\u0440\u043a \u0411\u043e\u043b\u043e\u0442\u043e \u0421\u0430\u043f\u0430\u0442\u0430","id":361290872,"name":"Parque Nacional Ci\u00e9naga de Zapata"},"coordinates":[62,413]}]},"boundaries":{"type":"GeometryCollection","geometries":[{"type":"LineString","properties":{"source":"naturalearthdata.com","kind":"region","sort_rank":256,"kind_detail":"4","min_zoom":6.0,"id":286},"arcs":[0]},{"type":"LineString","properties":{"source":"naturalearthdata.com","kind":"region","sort_rank":256,"kind_detail":"4","min_zoom":6.0,"id":287},"arcs":[1]},{"type":"MultiLineString","properties":{"source":"naturalearthdata.com","kind":"region","name":"Ciego de \u00c1vila - Sancti Sp\u00edritus","sort_rank":256,"kind_detail":"4","min_zoom":6.0,"id":2886},"arcs":[[2],[3],[4]]},{"type":"MultiLineString","properties":{"source":"naturalearthdata.com","kind":"region","name":"Villa Clara - Matanzas","sort_rank":256,"kind_detail":"4","min_zoom":6.0,"id":4253},"arcs":[[5],[6],[7],[8],[9],[10],[11]]},{"type":"MultiLineString","properties":{"source":"naturalearthdata.com","kind":"region","name":"Sancti Sp\u00edritus - Villa Clara","sort_rank":256,"kind_detail":"4","min_zoom":6.0,"id":4255},"arcs":[[12],[13],[14],[15],[16],[17],[18],[19],[20],[21],[22],[23],[24],[25],[26]]},{"type":"MultiLineString","properties":{"source":"naturalearthdata.com","kind":"region","name":"Villa Clara - Cienfuegos","sort_rank":256,"kind_detail":"4","min_zoom":6.0,"id":4256},"arcs":[[27],[28],[29],[30],[31],[32],[33],[34],[35],[36],[37],[38]]},{"type":"MultiLineString","properties":{"source":"naturalearthdata.com","kind":"region","name":"Cienfuegos - Matanzas","sort_rank":256,"kind_detail":"4","min_zoom":6.0,"id":4257},"arcs":[[39],[40],[41],[42],[43],[44],[45],[46],[47],[48],[49],[50],[51]]}]},"roads":{"type":"GeometryCollection","geometries":[{"type":"LineString","properties":{"source":"naturalearthdata.com","kind":"major_road","sort_rank":380,"kind_detail":"primary","ref":"CC","min_zoom":7.0,"id":2801},"arcs":[155]},{"type":"LineString","properties":{"source":"naturalearthdata.com","kind":"major_road","sort_rank":380,"kind_detail":"primary","ref":"CD","min_zoom":7.0,"id":2808},"arcs":[156]},{"type":"LineString","properties":{"source":"naturalearthdata.com","kind":"major_road","sort_rank":380,"kind_detail":"primary","ref":"CC","min_zoom":7.0,"id":2810},"arcs":[157]},{"type":"LineString","properties":{"source":"naturalearthdata.com","kind":"major_road","sort_rank":380,"kind_detail":"primary","ref":"CC","min_zoom":3.0,"id":2812},"arcs":[158]},{"type":"LineString","properties":{"source":"naturalearthdata.com","kind":"major_road","sort_rank":380,"kind_detail":"primary","ref":"12","min_zoom":3.0,"id":2817},"arcs":[159]},{"type":"LineString","properties":{"source":"naturalearthdata.com","kind":"highway","sort_rank":383,"kind_detail":"motorway","ref":"A1","min_zoom":3.0,"id":2819},"arcs":[160]},{"type":"LineString","properties":{"source":"naturalearthdata.com","kind":"major_road","sort_rank":380,"kind_detail":"primary","ref":"252","min_zoom":7.0,"id":2820},"arcs":[161]},{"type":"MultiLineString","properties":{"kind":"highway","sort_rank":383,"landuse_kind":"national_park","source":"naturalearthdata.com","min_zoom":3.0,"kind_detail":"motorway","ref":"A1","id":2821},"arcs":[[162],[163]]},{"type":"MultiLineString","properties":{"source":"naturalearthdata.com","kind":"highway","sort_rank":383,"kind_detail":"motorway","ref":"A1","min_zoom":3.0,"id":2821},"arcs":[[164],[165],[166]]},{"type":"LineString","properties":{"source":"naturalearthdata.com","kind":"major_road","sort_rank":380,"kind_detail":"primary","ref":"12","min_zoom":7.0,"id":2823},"arcs":[167]},{"type":"LineString","properties":{"source":"naturalearthdata.com","kind":"major_road","sort_rank":380,"kind_detail":"primary","ref":"CC","min_zoom":3.0,"id":2827},"arcs":[168]},{"type":"LineString","properties":{"source":"naturalearthdata.com","kind":"major_road","sort_rank":380,"kind_detail":"primary","ref":"12","min_zoom":7.0,"id":2836},"arcs":[169]},{"type":"LineString","properties":{"source":"naturalearthdata.com","kind":"major_road","sort_rank":380,"kind_detail":"primary","ref":"12","min_zoom":7.0,"id":4148},"arcs":[170]}]},"earth":{"type":"GeometryCollection","geometries":[{"type":"MultiPolygon","properties":{"sort_rank":10,"source":"naturalearthdata.com","min_zoom":0.0,"kind":"earth","area":93542716320},"arcs":[[[171]],[[172]],[[173]],[[174]],[[175]],[[176]],[[177]],[[178]],[[179]],[[180]],[[181]],[[182]],[[183]],[[184]],[[185]],[[186]],[[187]],[[188]],[[189]],[[190]]]}]},"landuse":{"type":"GeometryCollection","geometries":[{"type":"Polygon","properties":{"kind":"nature_reserve","protect_class":"5","area":236652000,"sort_rank":23,"operator":"Gaviota","source":"openstreetmap.org","min_zoom":6.0,"tier":2,"id":371541269},"arcs":[[191]]},{"type":"Polygon","properties":{"source":"openstreetmap.org","kind":"park","area":252287008,"tier":2,"id":361204353,"min_zoom":6.0,"sort_rank":24},"arcs":[[192]]},{"type":"MultiPolygon","properties":{"kind":"national_park","protect_class":"2","area":5238170112,"sort_rank":18,"source":"openstreetmap.org","min_zoom":3.0,"tier":1,"id":361290872},"arcs":[[[193]],[[194]]]},{"type":"MultiPolygon","properties":{"source":"naturalearthdata.com","kind":"urban_area","name":"","area":5095322453,"sort_rank":11,"min_zoom":4.0},"arcs":[[[195]]]},{"type":"MultiPolygon","properties":{"source":"openstreetmap.org","kind":"nature_reserve","tier":2,"area":1393760224,"sort_rank":23,"min_zoom":6.0},"arcs":[[[196]]]}]}},"type":"Topology","transform":{"translate":[-81.5625,21.9430455334],"scale":[0.0006866455,0.0006308812]},"arcs":[[[1412,1783]],[[1411,176]],[[3838,722],[-6,-22],[-4,-48],[-11,-12],[-13,-12],[-8,-18],[-15,-32],[-13,-51],[-15,-30],[-21,-37],[-19,-35],[-13,-37],[-19,-18],[2,-44],[-21,-51],[2,-32],[24,-21],[44,-37],[32,-16],[19,-9],[6,-28],[0,-37],[-21,-39],[-25,-39],[-8,-17]],[[3727,0],[-14,3],[-23,2]],[[3690,5],[-8,-5]],[[1412,1783],[-9,-4],[-24,-45],[-4,-36],[1,-16],[-1,-27],[-7,-12],[-10,-9],[-15,-4],[-8,-1]],[[1335,1629],[-7,1],[-13,9],[-6,3],[-5,1]],[[1304,1643],[-8,-1],[-7,-1],[-21,-8],[-6,-1]],[[1262,1632],[-36,1]],[[1226,1633],[-8,-4],[-5,-7],[-4,-15],[-1,-12],[1,-18],[6,-24],[2,-13],[-4,-23],[-8,-12],[-7,-7],[-11,-6],[-1,-6],[2,-5],[5,-3],[6,-3],[3,-6],[1,-10],[3,-7],[5,-8],[15,-16],[9,-14],[4,-8],[5,-7],[6,-5],[24,-16],[29,-26]],[[1409,1391],[11,-5],[4,-6],[6,-14],[1,-5],[7,-14],[10,-33],[22,-38],[4,-12],[-2,-8],[-8,-4],[-13,-6],[-8,-12],[-2,-9],[2,-7],[11,-11],[7,-11],[2,-11],[1,-13],[-8,-75],[1,-12],[4,-6],[7,-8],[7,-12],[3,-31],[4,-16],[7,-16],[9,-10],[21,-37]],[[1303,1352],[24,2],[10,4],[29,22],[29,11],[14,0]],[[3125,839],[-1,-1],[1,-37],[-27,-51],[17,-13],[12,-20],[49,-98],[41,-58],[1,-12],[-5,-20],[-4,-19],[1,-25],[-4,-28]],[[3206,457],[-38,6],[-36,19],[-14,3]],[[3118,485],[-18,-1],[-26,-9],[-17,-10],[-26,-27],[-8,-28],[-7,-20],[-11,-22],[-13,-17],[-13,-12],[-16,-7],[-20,-3]],[[2724,342],[-16,4],[-15,13],[-7,11],[-6,11],[-16,14],[-49,1]],[[2615,396],[-15,-15],[-4,-10],[1,-17],[9,-27],[22,-42],[6,-18],[5,-10],[5,-5],[6,-1]],[[2860,346],[-60,18],[-13,1]],[[2787,365],[-20,-2],[-20,-14],[-11,-6],[-12,-1]],[[2943,329],[-21,9],[-13,8],[-19,9]],[[2890,355],[-30,-9]],[[2658,251],[8,0],[6,-3],[6,-9],[-1,-21],[-8,-29],[-24,-49],[-29,-47],[-36,-32]],[[2650,251],[8,0]],[[2580,61],[-43,4],[-21,11],[-7,5],[-10,5],[-85,20]],[[2414,106],[-14,-1],[-15,-7],[-14,-18],[-6,-13],[-3,-13],[-4,-9],[-7,-4]],[[2351,41],[-22,1]],[[2329,42],[-10,-2],[-27,-23],[-36,-17]],[[1613,1021],[13,-1],[7,-3],[35,-29]],[[1519,949],[60,36],[18,21],[4,6],[5,5],[7,4]],[[1900,1007],[4,-4],[2,-11],[0,-28],[-3,-13],[-3,-8],[-4,-2],[-6,-2],[-5,-2],[-4,-4],[-1,-8],[2,-14],[16,-38],[5,-8],[28,-16],[4,-16],[-5,-14],[-3,-12],[1,-9],[6,-11],[11,-6],[5,-6],[4,-7],[-5,-20],[-27,-31],[0,-17],[5,-10],[9,-13],[53,-52],[18,-10],[11,-1]],[[1868,992],[9,0],[9,2],[4,2],[7,8],[3,3]],[[1704,995],[12,-2],[7,-9],[-1,-23],[-2,-15],[-8,-21],[-1,-7],[1,-4],[3,-4],[6,-2]],[[1668,988],[36,7]],[[1847,994],[21,-2]],[[1797,933],[8,0],[5,3],[2,4],[11,35],[6,11],[5,6],[5,2],[8,0]],[[1786,933],[11,0]],[[1721,908],[8,1],[16,5],[10,5],[16,11],[7,2],[8,1]],[[2057,622],[6,-1],[4,-3],[2,-6],[5,-36],[4,-14],[8,-18],[13,-23],[18,-24],[36,-17],[-16,-51],[-5,-10],[-6,-13],[-1,-14],[5,-61],[-1,-32],[1,-13],[15,-63],[8,-21],[10,-20],[27,-23],[8,-11],[4,-13],[2,-42],[-1,-24],[2,-15],[5,-13],[30,-23],[2,-4],[-1,-14]],[[2018,614],[10,0],[22,7],[7,1]],[[1519,949],[-30,-20],[-5,-6],[-32,-61],[-9,-13],[-6,-7],[-6,-1],[-12,-2],[-10,-2],[-10,-3],[-32,-15],[-9,-1]],[[1168,836],[-11,0],[-73,20],[-16,0]],[[1068,856],[-12,-2],[-12,-8],[-6,-5],[-17,-11],[-31,-15],[-9,-5],[-17,-17],[-5,-5],[-7,-7],[-18,-13],[-11,-13],[0,-3],[5,-2],[7,-2],[6,-3],[2,-3],[-1,-7],[-9,-26],[-5,-11],[-22,-37],[-4,-8],[2,-3],[3,-1]],[[1358,818],[-7,1],[-14,5],[-135,14]],[[1202,838],[-34,-2]],[[932,656],[4,0],[4,-1],[5,-3],[2,-7],[-2,-8],[-11,-17],[-5,-10],[-1,-8],[1,-6],[5,-11],[0,-8],[-2,-13],[-8,-22],[-3,-13],[-1,-12],[1,-15],[3,-8],[2,-5],[4,-3],[6,-2]],[[907,649],[6,0],[7,3],[7,3],[5,1]],[[960,487],[6,0],[3,-2],[1,-4],[1,-7],[2,-6],[2,-13],[-6,-29],[61,-44],[18,-18],[15,-24],[46,-27],[51,-21],[20,-12],[11,-4]],[[936,484],[24,3]],[[1262,293],[7,-4],[9,-9],[7,-3]],[[1191,276],[5,0],[4,4],[4,4],[4,4],[6,2],[23,1],[11,1],[14,1]],[[1350,287],[16,-1],[9,-3],[11,-12],[4,-6],[3,-8],[1,-8],[1,-27],[2,-18],[4,-10],[10,-18]],[[1285,277],[14,1],[21,6],[30,3]],[[0,1723],[43,1],[70,-59],[63,-4],[61,-67],[200,-90],[58,-91],[60,-36]],[[554,1377],[165,-31],[341,-172],[205,66],[725,-279],[190,-178],[112,-13],[57,-36],[59,13],[98,-22],[69,-63],[168,-81],[156,-180],[107,-202],[345,-118],[125,-81]],[[0,1723],[43,1],[70,-59],[63,-4],[61,-67],[200,-90],[58,-91],[60,-36]],[[554,1377],[165,-31],[341,-172],[205,66],[725,-279],[190,-178],[112,-13],[57,-36],[59,13],[98,-22],[69,-63],[168,-81],[156,-180],[107,-202],[345,-118],[125,-81]],[[0,1723],[43,1],[70,-59],[63,-4],[61,-67],[200,-90],[58,-91],[60,-36]],[[3476,0],[-125,81],[-345,118],[-107,202],[-156,180],[-168,81],[-69,63],[-98,22],[-59,-13],[-57,36],[-112,13],[-190,178],[-725,279],[-205,-66],[-341,172],[-165,31]],[[534,1741],[46,-125],[-41,-229],[180,-41],[229,-129]],[[544,1383],[11,-6]],[[1632,322],[102,194],[146,116],[184,55],[16,56],[66,53],[146,-26],[56,-36],[154,-7],[73,-65],[102,-34],[221,-225],[104,-200],[146,-62],[32,-54]],[[3084,0],[22,70],[74,17]],[[3180,87],[2,-2]],[[3182,85],[1,-1]],[[3183,84],[1,0]],[[3184,84]],[[3184,84],[1,-1]],[[3185,83],[1,0]],[[3186,83],[1,0]],[[3187,83],[2,0]],[[3189,83],[0,-1]],[[3189,82],[3,0]],[[3192,82],[1,0]],[[3193,82]],[[3193,82],[2,0]],[[3195,82],[9,-1]],[[3086,2],[0,-1],[0,1]],[[0,1723],[43,1],[70,-59],[63,-4],[61,-67],[200,-90],[58,-91],[60,-36]],[[554,1377],[165,-31],[341,-172],[205,66],[725,-279],[190,-178],[112,-13],[57,-36],[59,13],[98,-22],[69,-63],[168,-81],[156,-180],[107,-202],[345,-118],[125,-81]],[[1632,322],[101,193],[147,117],[184,55],[16,56],[57,51],[155,-24],[35,-26]],[[1632,322],[94,186],[-71,161],[-101,14],[-91,-46],[-20,46],[-141,19],[-52,-47],[-157,-5],[-147,156],[14,163],[-53,161],[-262,28],[-33,51],[-83,-10],[-52,47],[-121,-12],[-86,20],[-246,113],[-24,-1]],[[2323,748],[271,161],[59,-33],[111,-146],[137,-114],[442,-197],[216,-76],[244,-25],[-7,54],[44,22],[256,-53]],[[0,1723],[43,1],[70,-59],[63,-4],[61,-67],[200,-90],[58,-91],[60,-36]],[[554,1377],[165,-31],[341,-172],[205,66],[725,-279],[190,-178],[112,-13],[57,-36],[59,13],[98,-22],[69,-63],[167,-80],[157,-181],[102,-197],[147,-63],[32,-54]],[[3084,0],[22,70],[74,17]],[[3180,87],[2,-2]],[[3182,85],[1,-1]],[[3183,84],[1,0]],[[3184,84]],[[3184,84],[1,-1]],[[3185,83],[1,0]],[[3186,83],[1,0]],[[3187,83],[2,0]],[[3189,83],[15,-2]],[[0,1723],[43,1],[70,-59],[63,-4],[61,-67],[200,-90],[58,-91],[60,-36]],[[554,1377],[165,-31],[341,-172],[205,66],[725,-279],[190,-178],[112,-13],[57,-36],[59,13],[98,-22],[69,-63],[168,-81],[156,-180],[107,-202],[345,-118],[125,-81]],[[4096,916],[0,-308],[-6,-3],[-5,-4],[-28,92],[-7,16],[-69,-3],[-143,16],[-81,10],[-33,-1],[-28,-7],[-54,-21],[-32,-4],[-17,3],[-22,14],[-15,3],[-18,-2],[-4,-7],[-3,-10],[-16,-11],[-27,0],[-76,17],[-16,-2],[-12,-17],[-26,9],[-28,20],[-14,15],[-39,-6],[-43,20],[-109,94],[-12,10],[-7,18],[-39,61],[-17,5],[-42,0],[-21,5],[-9,7],[-37,42],[-13,23],[-20,49],[-17,25],[-16,18],[-16,13],[-18,9],[-21,8],[-1,0],[-36,161],[-13,8],[-33,-4],[-2,-4],[-6,-7],[-9,-8],[-8,-4],[-9,3],[-5,7],[-5,7],[-85,62],[-26,9],[-60,5],[-15,5],[-14,9],[-9,10],[-16,25],[19,57],[16,13],[33,-16],[27,19],[14,12],[0,12],[-13,3],[-89,-25],[-48,-45],[-30,-9],[0,3],[-1,8],[-4,8],[-10,3],[-26,-1],[-8,1],[-55,33],[-3,10],[-33,60],[-5,15],[-12,14],[-16,11],[-16,9],[-5,-38],[-29,-6],[-35,11],[-77,39],[-25,-1],[11,-38],[-87,-34],[-45,-10],[-48,2],[-25,6],[-24,9],[-23,13],[-22,20],[-18,5],[-82,0],[-27,7],[-19,17],[-15,18],[-14,13],[-22,9],[-59,11],[-23,2],[-30,21],[-53,96],[-2,4],[-41,30],[39,76],[12,12],[0,10],[-14,8],[-19,3],[-19,-2],[-19,-9],[26,-31],[-8,-30],[-27,-24],[-30,-13],[-37,-1],[-68,14],[-35,-1],[-229,-44],[-30,-10],[-33,-6],[-26,9],[-11,34],[-1,25],[-3,6],[-5,-3],[-10,0],[-61,11],[-9,-2],[-30,-7],[-17,-2],[-7,-8],[-15,-39],[-7,-13],[-22,-27],[-11,-16],[-12,-7],[-29,1],[-52,27],[-83,98],[-65,16],[0,10],[21,18],[79,49],[66,17],[40,17],[21,18],[-27,11],[-24,-7],[-64,-38],[-36,-28],[-54,-27],[-22,-7],[-68,-10],[-36,-11],[-16,-17],[-16,-7],[-123,-22],[-13,0],[-11,-4],[-12,-11],[-5,-13],[-9,-39],[-6,-8],[-22,-9],[-16,-4],[-17,2],[-18,10],[1,4],[9,6],[8,13],[8,27],[4,37],[-5,31],[-31,19],[-8,6],[0,2191],[4096,0],[0,-3149],[-18,5],[-8,-3],[0,-26],[3,-10],[13,-1],[10,4]],[[1603,3183],[3,6],[-6,-5],[-7,-9],[10,8]],[[1738,3232],[10,3],[-5,4],[-5,-7]],[[1762,3243],[-3,-8],[10,5],[-7,3]],[[1857,3272],[1,9],[-11,-6],[10,-3]],[[1903,3286],[-3,-12],[6,3],[-3,9]],[[2690,1511],[-10,17],[-8,-5],[-1,-14],[3,-10],[-18,-5],[-2,-16],[14,-15],[28,-20],[10,-3],[8,2],[5,-4],[5,-5],[0,-11],[10,-10],[22,4],[14,14],[-9,11],[-20,12],[-8,9],[-9,14],[-28,6],[-10,3],[4,26]],[[1096,1987],[16,-1],[27,3],[10,-2],[17,-5],[31,-15],[6,4],[6,10],[10,0],[11,-6],[9,3],[1,10],[-2,4],[-91,11],[-51,11],[-41,16],[-28,3],[-6,-8],[8,-5],[11,-14],[14,-4],[42,-15]],[[1249,1981],[1,-20],[5,-5],[3,11],[11,6],[16,-3],[8,2],[1,11],[5,1],[6,0],[4,11],[-3,12],[-4,5],[-13,-3],[-25,-10],[-15,-18]],[[1445,1994],[-10,-13],[-5,-22],[18,10],[6,-1],[6,-9],[25,5],[29,-8],[26,-12],[14,-2],[13,9],[11,6],[9,6],[3,12],[-4,11],[-9,1],[-10,-4],[-8,-2],[-37,-2],[-12,2],[-8,4],[-12,14],[-6,3],[-24,-2],[-15,-6]],[[1094,1936],[-14,23],[-11,0],[0,-22],[-22,21],[-7,11],[-10,-10],[6,-8],[9,-17],[5,-9],[-31,7],[-28,1],[-26,-5],[-88,-59],[-17,-18],[73,37],[35,12],[47,5],[18,-5],[15,-8],[18,-2],[24,15],[13,13],[0,7],[-9,11]],[[1619,1905],[2,-14],[-13,2],[-6,-3],[4,-11],[2,-3],[20,6],[22,9],[14,12],[38,4],[11,-1],[12,3],[3,8],[-20,3],[-17,0],[-34,-2],[-10,-1],[-21,-3],[-7,-9]],[[1830,1889],[4,-13],[10,-6],[2,-4],[3,-7],[6,-3],[22,-12],[11,-4],[6,-12],[7,-11],[10,-7],[8,1],[8,9],[2,10],[-6,11],[-4,5],[-9,12],[-21,19],[-10,12],[0,8],[-13,4],[-11,-1],[-11,-2],[-14,-9]],[[1948,1817],[61,-29],[30,-6],[29,14],[12,11],[4,6],[-7,3],[-24,1],[-20,5],[-19,12],[-16,18],[-9,20],[-11,0],[-9,-15],[-10,-12],[-8,-12],[-3,-16]],[[2148,1782],[-3,-19],[-2,-8],[-5,1],[-1,-4],[6,-9],[8,-7],[12,-2],[10,2],[6,1],[6,-7],[9,-12],[4,4],[-6,21],[-6,11],[-5,13],[-17,19],[-16,-4]],[[2241,1737],[4,-4],[7,4],[5,0],[-3,-12],[-3,-4],[-15,6],[-3,2],[-6,-12],[-1,-22],[7,-15],[10,0],[15,12],[24,33],[-3,8],[-19,15],[-9,3],[-6,-6],[-4,-8]],[[1938,1676],[-26,17],[-32,-4],[-71,-35],[-13,9],[-9,2],[-9,-4],[-9,-7],[22,-18],[147,-25],[-1,15],[-5,13],[-10,9],[-13,6],[7,5],[14,12],[8,5]],[[2324,1624],[2,-20],[8,0],[7,4],[3,4],[12,5],[3,8],[-9,13],[-18,11],[-16,0],[-3,-5],[5,-4],[6,-16]],[[2511,1625],[-33,-9],[-15,-24],[14,-7],[13,-2],[-4,-8],[-9,-7],[-4,-10],[9,-14],[17,-11],[17,3],[11,11],[-2,9],[-13,2],[-7,9],[11,12],[17,5],[9,8],[-2,11],[-11,16],[-18,6]],[[2363,1569],[15,22],[14,4],[31,-20],[16,15],[1,21],[-12,0],[-23,11],[-23,0],[-23,-8],[-21,-13],[11,-39],[14,7]],[[2497,1507],[-1,-5],[19,3],[5,4],[0,12],[-5,8],[-10,-3],[-8,-19]],[[2809,1333],[19,-1],[44,18],[27,-10],[13,-22],[7,-23],[12,-10],[7,-4],[24,-17],[5,-6],[2,-19],[5,-6],[10,-4],[33,-26],[25,-12],[27,-3],[26,9],[49,-55],[22,-19],[19,-13],[13,-6],[13,-3],[12,-4],[33,-29],[-13,28],[-24,36],[-29,31],[-59,23],[-55,45],[-67,21],[-31,26],[-76,87],[-24,11],[-30,-1],[-41,-13],[2,-29]],[[3747,1123],[8,-22],[33,18],[1,18],[-23,13],[-137,9],[-24,-4],[18,-12],[15,-6],[87,-6],[22,-8]],[[3961,891],[-6,3],[-5,-1],[-18,1],[-7,-4],[-5,-4],[-4,-10],[5,-8],[16,-1],[10,-4],[3,2],[4,-3],[9,-11],[13,-4],[6,5],[-11,22],[-10,17]],[[3757,892],[15,8],[9,6],[-9,19],[-12,-1],[-9,-6],[-2,-15],[6,-2],[-1,-5],[3,-4]],[[3519,945],[-5,9],[-3,7],[-8,4],[-9,-6],[-8,-2],[3,-4],[4,-5],[-6,-2],[-4,3],[-6,11],[-7,-15],[36,-12],[18,7],[-5,5]],[[3528,1059],[2,6],[10,0],[0,5],[-3,6],[-1,4],[-3,3],[1,6],[1,8],[-10,4],[-14,-2],[-25,-15],[0,-10],[9,-8],[13,2],[8,-3],[2,-11],[4,-3],[6,8]],[[3456,1096],[18,16],[-56,-2],[-13,-6],[12,-5],[4,-8],[0,-11],[10,0],[25,16]],[[3005,1149],[-4,3],[-4,-4],[-4,5],[0,13],[2,11],[-3,7],[-7,-2],[-3,-3],[1,-7],[-2,-4],[-5,-1],[-7,-11],[-4,-4],[-1,-6],[1,-3],[5,-8],[2,-12],[9,-12],[15,-1],[1,6],[-3,9],[6,11],[6,6],[-1,7]],[[809,2036],[17,25],[2,8],[-4,9],[-10,-3],[-11,-24],[-1,-15],[7,0]],[[979,2046],[17,-3],[11,13],[-4,14],[-7,2],[-10,0],[-40,24],[-33,-4],[-10,-9],[13,-4],[6,-7],[7,-11],[17,-7],[17,-3],[16,-5]],[[2983,2461],[-35,23],[2,-6],[28,-20],[5,3]],[[2875,2581],[-9,5],[58,-66],[3,1],[-16,21],[-36,39]],[[1683,2790],[3,7],[-15,-2],[10,-1],[2,-3],[0,-1],[-2,-2],[-5,-3],[4,-2],[3,7]],[[0,201],[0,177],[1,1],[2,4],[4,2],[17,5],[22,20],[11,5],[15,-5],[28,-20],[17,-5],[70,0],[55,-24],[32,-106],[53,-24],[18,5],[4,9],[2,11],[10,8],[12,-4],[10,-9],[12,-6],[17,8],[6,12],[-1,30],[4,13],[9,7],[41,15],[14,-12],[20,-45],[7,-50],[-21,-35],[30,-2],[11,49],[-1,192],[-20,68],[0,20],[9,16],[17,6],[19,-5],[20,-12],[38,-61],[7,-4],[-11,-68],[1,-25],[5,-15],[38,-80],[14,-25],[22,-16],[58,-11],[54,-29],[29,-10],[126,-13],[210,24],[179,-13],[181,6],[63,-24],[9,37],[-9,39],[-19,36],[-22,29],[-44,32],[-13,22],[8,34],[21,-10],[21,-2],[18,5],[10,17],[11,-19],[14,-14],[35,-21],[-21,-24],[2,-20],[18,-11],[29,-1],[-2,-20],[13,-1],[18,5],[11,-5],[1,-13],[-6,-13],[-8,-13],[-6,-14],[8,4],[22,6],[-19,-17],[-25,-8],[-26,-1],[-20,4],[0,-19],[4,-10],[16,-14],[6,-2],[17,3],[7,-1],[6,-9],[1,-9],[0,-8],[3,-7],[113,-123],[-1792,0],[0,167],[11,-7],[12,1],[-4,22],[-10,12],[-7,5],[-2,1]],[[368,145],[-10,1],[-8,-3],[-6,-5],[-7,1],[-7,3],[-9,7],[-6,11],[0,9],[2,7],[-11,19],[-5,-4],[2,-11],[-4,-3],[-6,1],[-3,5],[-5,0],[1,-11],[6,-17],[-5,-12],[-16,-5],[-14,-1],[-8,5],[-7,18],[-3,-5],[-9,1],[-28,22],[-7,10],[-4,11],[-6,5],[-6,-1],[-6,-3],[-12,10],[-5,-7],[5,-8],[17,-6],[75,-62],[17,-1],[16,7],[12,2],[8,-5],[4,-5],[5,-4],[56,19],[-3,5]],[[1989,1872],[-11,0],[-9,-15],[-10,-12],[-8,-12],[-3,-16],[61,-29],[30,-6],[29,14],[12,11],[4,6],[-7,3],[-24,1],[-20,5],[-19,12],[-16,18],[-9,20]],[[1069,1959],[0,-22],[-22,21],[-7,11],[-10,-10],[6,-8],[9,-17],[5,-9],[-31,7],[-28,1],[-26,-5],[-88,-59],[-17,-18],[73,37],[35,12],[47,5],[18,-5],[15,-8],[18,-2],[24,15],[13,13],[0,7],[-9,11],[-14,23],[-11,0]],[[2428,1611],[-23,11],[-23,0],[-23,-8],[-21,-13],[11,-39],[14,7],[15,22],[14,4],[31,-20],[16,15],[1,21],[-12,0]],[[1809,1654],[-13,9],[-9,2],[-9,-4],[-9,-7],[22,-18],[147,-25],[-1,15],[-5,13],[-10,9],[-13,6],[7,5],[14,12],[8,5],[-26,17],[-32,-4],[-71,-35]],[[1559,1981],[-37,-2],[-12,2],[-8,4],[-12,14],[-6,3],[-24,-2],[-15,-6],[-10,-13],[-5,-22],[18,10],[6,-1],[6,-9],[25,5],[29,-8],[26,-12],[14,-2],[13,9],[11,6],[9,6],[3,12],[-4,11],[-9,1],[-10,-4],[-8,-2]],[[3211,1101],[12,-4],[33,-29],[-13,28],[-24,36],[-29,31],[-59,23],[-55,45],[-67,21],[-31,26],[-76,87],[-24,11],[-30,-1],[-41,-13],[2,-29],[19,-1],[44,18],[27,-10],[13,-22],[7,-23],[12,-10],[7,-4],[24,-17],[5,-6],[2,-19],[5,-6],[10,-4],[33,-26],[25,-12],[27,-3],[26,9],[49,-55],[22,-19],[19,-13],[13,-6],[13,-3]],[[3755,1101],[33,18],[1,18],[-23,13],[-137,9],[-24,-4],[18,-12],[15,-6],[87,-6],[22,-8],[8,-22]],[[4096,608],[-6,-3],[-5,-4],[-28,92],[-7,16],[-69,-3],[-143,16],[-81,10],[-33,-1],[-28,-7],[-54,-21],[-32,-4],[-17,3],[-22,14],[-15,3],[-18,-2],[-4,-7],[-3,-10],[-16,-11],[-27,0],[-76,17],[-16,-2],[-12,-17],[-26,9],[-28,20],[-14,15],[-39,-6],[-43,20],[-109,94],[-12,10],[-7,18],[-39,61],[-17,5],[-42,0],[-21,5],[-9,7],[-37,42],[-13,23],[-20,49],[-17,25],[-16,18],[-16,13],[-18,9],[-21,8],[-1,0],[-36,161],[-13,8],[-33,-4],[-2,-4],[-6,-7],[-9,-8],[-8,-4],[-9,3],[-5,7],[-5,7],[-85,62],[-26,9],[-60,5],[-15,5],[-14,9],[-9,10],[-16,25],[19,57],[16,13],[33,-16],[27,19],[14,12],[0,12],[-13,3],[-89,-25],[-48,-45],[-30,-9],[0,3],[-1,8],[-4,8],[-10,3],[-26,-1],[-8,1],[-55,33],[-3,10],[-33,60],[-5,15],[-12,14],[-16,11],[-16,9],[-5,-38],[-29,-6],[-35,11],[-77,39],[-25,-1],[11,-38],[-87,-34],[-45,-10],[-48,2],[-25,6],[-24,9],[-23,13],[-22,20],[-18,5],[-82,0],[-27,7],[-19,17],[-15,18],[-14,13],[-22,9],[-59,11],[-23,2],[-30,21],[-53,96],[-2,4],[-41,30],[39,76],[12,12],[0,10],[-14,8],[-19,3],[-19,-2],[-19,-9],[26,-31],[-8,-30],[-27,-24],[-30,-13],[-37,-1],[-68,14],[-35,-1],[-229,-44],[-30,-10],[-33,-6],[-26,9],[-11,34],[-1,25],[-3,6],[-5,-3],[-10,0],[-61,11],[-9,-2],[-30,-7],[-17,-2],[-7,-8],[-15,-39],[-7,-13],[-22,-27],[-11,-16],[-12,-7],[-29,1],[-52,27],[-83,98],[-65,16],[0,10],[21,18],[79,49],[66,17],[40,17],[21,18],[-27,11],[-24,-7],[-64,-38],[-36,-28],[-54,-27],[-22,-7],[-68,-10],[-36,-11],[-16,-17],[-16,-7],[-123,-22],[-13,0],[-11,-4],[-12,-11],[-5,-13],[-9,-39],[-6,-8],[-22,-9],[-16,-4],[-17,2],[-18,10],[1,4],[9,6],[8,13],[8,27],[4,37],[-5,31],[-31,19],[-8,6]],[[0,378],[1,1],[2,4],[4,2],[17,5],[22,20],[11,5],[15,-5],[28,-20],[17,-5],[70,0],[55,-24],[32,-106],[53,-24],[18,5],[4,9],[2,11],[10,8],[12,-4],[10,-9],[12,-6],[17,8],[6,12],[-1,30],[4,13],[9,7],[41,15],[14,-12],[20,-45],[7,-50],[-21,-35],[30,-2],[11,49],[-1,192],[-20,68],[0,20],[9,16],[17,6],[19,-5],[20,-12],[38,-61],[7,-4],[-11,-68],[1,-25],[5,-15],[38,-80],[14,-25],[22,-16],[58,-11],[54,-29],[29,-10],[126,-13],[210,24],[179,-13],[181,6],[63,-24],[9,37],[-9,39],[-19,36],[-22,29],[-44,32],[-13,22],[8,34],[21,-10],[21,-2],[18,5],[10,17],[11,-19],[14,-14],[35,-21],[-21,-24],[2,-20],[18,-11],[29,-1],[-2,-20],[13,-1],[18,5],[11,-5],[1,-13],[-6,-13],[-8,-13],[-6,-14],[8,4],[22,6],[-19,-17],[-25,-8],[-26,-1],[-20,4],[0,-19],[4,-10],[16,-14],[6,-2],[17,3],[7,-1],[6,-9],[1,-9],[0,-8],[3,-7],[113,-123]],[[2911,2542],[-36,39],[-9,5],[58,-66],[3,1],[-16,21]],[[2983,2461],[-35,23],[2,-6],[28,-20],[5,3]],[[996,2072],[-10,0],[-40,24],[-33,-4],[-10,-9],[13,-4],[6,-7],[7,-11],[17,-7],[17,-3],[16,-5],[17,-3],[11,13],[-4,14],[-7,2]],[[1147,2003],[-51,11],[-41,16],[-28,3],[-6,-8],[8,-5],[11,-14],[14,-4],[42,-15],[16,-1],[27,3],[10,-2],[17,-5],[31,-15],[6,4],[6,10],[10,0],[11,-6],[9,3],[1,10],[-2,4],[-91,11]],[[1302,2012],[-13,-3],[-25,-10],[-15,-18],[1,-20],[5,-5],[3,11],[11,6],[16,-3],[8,2],[1,11],[5,1],[6,0],[4,11],[-3,12],[-4,5]],[[1691,1920],[-34,-2],[-10,-1],[-21,-3],[-7,-9],[2,-14],[-13,2],[-6,-3],[4,-11],[2,-3],[20,6],[22,9],[14,12],[38,4],[11,-1],[12,3],[3,8],[-20,3],[-17,0]],[[1919,1846],[-9,12],[-21,19],[-10,12],[0,8],[-13,4],[-11,-1],[-11,-2],[-14,-9],[4,-13],[10,-6],[2,-4],[3,-7],[6,-3],[22,-12],[11,-4],[6,-12],[7,-11],[10,-7],[8,1],[8,9],[2,10],[-6,11],[-4,5]],[[2186,1754],[-5,13],[-17,19],[-16,-4],[-3,-19],[-2,-8],[-5,1],[-1,-4],[6,-9],[8,-7],[12,-2],[10,2],[6,1],[6,-7],[9,-12],[4,4],[-6,21],[-6,11]],[[2529,1619],[-18,6],[-33,-9],[-15,-24],[14,-7],[13,-2],[-4,-8],[-9,-7],[-4,-10],[9,-14],[17,-11],[17,3],[11,11],[-2,9],[-13,2],[-7,9],[11,12],[17,5],[9,8],[-2,11],[-11,16]],[[2741,1453],[-8,9],[-9,14],[-28,6],[-10,3],[4,26],[-10,17],[-8,-5],[-1,-14],[3,-10],[-18,-5],[-2,-16],[14,-15],[28,-20],[10,-3],[8,2],[5,-4],[5,-5],[0,-11],[10,-10],[22,4],[14,14],[-9,11],[-20,12]],[[3405,1104],[12,-5],[4,-8],[0,-11],[10,0],[25,16],[18,16],[-56,-2],[-13,-6]],[[4096,947],[-18,5],[-8,-3],[0,-26],[3,-10],[13,-1],[10,4]],[[9,195],[-7,5],[-2,1]],[[0,167],[11,-7],[12,1],[-4,22],[-10,12]],[[986,1293],[-23,22],[-40,22],[-91,19],[-233,-17],[-86,6],[-45,22],[-31,36],[-76,154],[-48,55],[-70,44],[-107,33],[-43,8],[-93,11]],[[3095,800],[-215,8],[-222,-8],[-175,-28],[-40,-19]],[[986,1293],[159,-36],[258,-28],[213,-57],[116,-45],[111,-55],[107,-63],[88,-77],[69,-91],[43,-102]],[[2443,753],[-41,-44],[-98,-22],[-53,8],[-101,44]],[[2150,739],[-102,-82]],[[2048,657],[-245,11],[-491,-11],[-240,11]],[[986,1293],[-15,-20],[-8,-24],[-5,-72],[3,-72],[28,-151],[35,-123]],[[63,1041],[-11,7]],[[609,758],[-164,72],[-215,113],[-125,74]],[[52,1048],[-52,30]],[[105,1017],[-42,24]],[[1072,668],[-131,-3],[-84,11],[-200,61],[-48,21]],[[1072,668],[38,-50],[46,-80],[45,-38],[33,-11],[43,-6],[43,6],[73,27],[86,47],[31,-14],[30,-27],[109,-135],[25,-19],[23,-9]],[[2443,753],[53,-25],[324,-115],[60,-53],[81,-159],[147,-176],[15,-66],[4,-159]],[[1996,0],[-72,73],[-83,97],[-144,189]],[[1024,831],[48,-163]],[[4096,916],[-10,-4],[-13,1],[-3,10],[0,26],[8,3],[18,-5],[0,-31]],[[0,167],[0,34],[2,-1],[7,-5],[10,-12],[4,-22],[-12,-1],[-11,7]],[[3431,1080],[-10,0],[0,11],[-4,8],[-12,5],[13,6],[56,2],[-18,-16],[-25,-16]],[[3788,1119],[-33,-18],[-8,22],[-22,8],[-87,6],[-15,6],[-18,12],[24,4],[137,-9],[23,-13],[-1,-18]],[[2902,1365],[76,-87],[31,-26],[67,-21],[55,-45],[59,-23],[29,-31],[24,-36],[13,-28],[-33,29],[-12,4],[-13,3],[-13,6],[-19,13],[-22,19],[-49,55],[-26,-9],[-27,3],[-25,12],[-33,26],[-10,4],[-5,6],[-2,19],[-5,6],[-24,17],[-7,4],[-12,10],[-7,23],[-13,22],[-27,10],[-44,-18],[-19,1],[-2,29],[41,13],[30,1],[24,-11]],[[2741,1453],[20,-12],[9,-11],[-14,-14],[-22,-4],[-10,10],[0,11],[-5,5],[-5,4],[-8,-2],[-10,3],[-28,20],[-14,15],[2,16],[18,5],[-3,10],[1,14],[8,5],[10,-17],[-4,-26],[10,-3],[28,-6],[9,-14],[8,-9]],[[2516,1536],[-17,-3],[-17,11],[-9,14],[4,10],[9,7],[4,8],[-13,2],[-14,7],[15,24],[33,9],[18,-6],[11,-16],[2,-11],[-9,-8],[-17,-5],[-11,-12],[7,-9],[13,-2],[2,-9],[-11,-11]],[[2405,1622],[23,-11],[12,0],[-1,-21],[-16,-15],[-31,20],[-14,-4],[-15,-22],[-14,-7],[-11,39],[21,13],[23,8],[23,0]],[[1909,1654],[13,-6],[10,-9],[5,-13],[1,-15],[-147,25],[-22,18],[9,7],[9,4],[9,-2],[13,-9],[71,35],[32,4],[26,-17],[-8,-5],[-14,-12],[-7,-5]],[[946,2096],[40,-24],[10,0],[7,-2],[4,-14],[-11,-13],[-17,3],[-16,5],[-17,3],[-17,7],[-7,11],[-6,7],[-13,4],[10,9],[33,4]],[[2927,2521],[-3,-1],[-58,66],[9,-5],[36,-39],[16,-21]],[[4096,608],[0,-608],[-2304,0],[-113,123],[-3,7],[0,8],[-1,9],[-6,9],[-7,1],[-17,-3],[-6,2],[-16,14],[-4,10],[0,19],[20,-4],[26,1],[25,8],[19,17],[-22,-6],[-8,-4],[6,14],[8,13],[6,13],[-1,13],[-11,5],[-18,-5],[-13,1],[2,20],[-29,1],[-18,11],[-2,20],[21,24],[-35,21],[-14,14],[-11,19],[-10,-17],[-18,-5],[-21,2],[-21,10],[-8,-34],[13,-22],[44,-32],[22,-29],[19,-36],[9,-39],[-9,-37],[-63,24],[-181,-6],[-179,13],[-210,-24],[-126,13],[-29,10],[-54,29],[-58,11],[-22,16],[-14,25],[-38,80],[-5,15],[-1,25],[11,68],[-7,4],[-38,61],[-20,12],[-19,5],[-17,-6],[-9,-16],[0,-20],[20,-68],[1,-192],[-11,-49],[-30,2],[21,35],[-7,50],[-20,45],[-14,12],[-41,-15],[-9,-7],[-4,-13],[1,-30],[-6,-12],[-17,-8],[-12,6],[-10,9],[-12,4],[-10,-8],[-2,-11],[-4,-9],[-18,-5],[-53,24],[-32,106],[-55,24],[-70,0],[-17,5],[-28,20],[-15,5],[-11,-5],[-22,-20],[-17,-5],[-4,-2],[-2,-4],[-1,-1],[0,1527],[8,-6],[31,-19],[5,-31],[-4,-37],[-8,-27],[-8,-13],[-9,-6],[-1,-4],[18,-10],[17,-2],[16,4],[22,9],[6,8],[9,39],[5,13],[12,11],[11,4],[13,0],[123,22],[16,7],[16,17],[36,11],[68,10],[22,7],[54,27],[36,28],[64,38],[24,7],[27,-11],[-21,-18],[-40,-17],[-66,-17],[-79,-49],[-21,-18],[0,-10],[65,-16],[83,-98],[52,-27],[29,-1],[12,7],[11,16],[22,27],[7,13],[15,39],[7,8],[17,2],[30,7],[9,2],[61,-11],[10,0],[5,3],[3,-6],[1,-25],[11,-34],[26,-9],[33,6],[30,10],[229,44],[35,1],[68,-14],[37,1],[30,13],[27,24],[8,30],[-26,31],[19,9],[19,2],[19,-3],[14,-8],[0,-10],[-12,-12],[-39,-76],[41,-30],[2,-4],[53,-96],[30,-21],[23,-2],[59,-11],[22,-9],[14,-13],[15,-18],[19,-17],[27,-7],[82,0],[18,-5],[22,-20],[23,-13],[24,-9],[25,-6],[48,-2],[45,10],[87,34],[-11,38],[25,1],[77,-39],[35,-11],[29,6],[5,38],[16,-9],[16,-11],[12,-14],[5,-15],[33,-60],[3,-10],[55,-33],[8,-1],[26,1],[10,-3],[4,-8],[1,-8],[0,-3],[30,9],[48,45],[89,25],[13,-3],[0,-12],[-14,-12],[-27,-19],[-33,16],[-16,-13],[-19,-57],[16,-25],[9,-10],[14,-9],[15,-5],[60,-5],[26,-9],[85,-62],[5,-7],[5,-7],[9,-3],[8,4],[9,8],[6,7],[2,4],[33,4],[13,-8],[36,-161],[1,0],[21,-8],[18,-9],[16,-13],[16,-18],[17,-25],[20,-49],[13,-23],[37,-42],[9,-7],[21,-5],[42,0],[17,-5],[39,-61],[7,-18],[12,-10],[109,-94],[43,-20],[39,6],[14,-15],[28,-20],[26,-9],[12,17],[16,2],[76,-17],[27,0],[16,11],[3,10],[4,7],[18,2],[15,-3],[22,-14],[17,-3],[32,4],[54,21],[28,7],[33,1],[81,-10],[143,-16],[69,3],[7,-16],[28,-92],[5,4],[6,3]],[[2181,1767],[5,-13],[6,-11],[6,-21],[-4,-4],[-9,12],[-6,7],[-6,-1],[-10,-2],[-12,2],[-8,7],[-6,9],[1,4],[5,-1],[2,8],[3,19],[16,4],[17,-19]],[[2068,1796],[-29,-14],[-30,6],[-61,29],[3,16],[8,12],[10,12],[9,15],[11,0],[9,-20],[16,-18],[19,-12],[20,-5],[24,-1],[7,-3],[-4,-6],[-12,-11]],[[1919,1811],[-8,-1],[-10,7],[-7,11],[-6,12],[-11,4],[-22,12],[-6,3],[-3,7],[-2,4],[-10,6],[-4,13],[14,9],[11,2],[11,1],[13,-4],[0,-8],[10,-12],[21,-19],[9,-12],[4,-5],[6,-11],[-2,-10],[-8,-9]],[[1725,1909],[-12,-3],[-11,1],[-38,-4],[-14,-12],[-22,-9],[-20,-6],[-2,3],[-4,11],[6,3],[13,-2],[-2,14],[7,9],[21,3],[10,1],[34,2],[17,0],[20,-3],[-3,-8]],[[1047,1958],[22,-21],[0,22],[11,0],[14,-23],[9,-11],[0,-7],[-13,-13],[-24,-15],[-18,2],[-15,8],[-18,5],[-47,-5],[-35,-12],[-73,-37],[17,18],[88,59],[26,5],[28,-1],[31,-7],[-5,9],[-9,17],[-6,8],[10,10],[7,-11]],[[1510,1981],[12,-2],[37,2],[8,2],[10,4],[9,-1],[4,-11],[-3,-12],[-9,-6],[-11,-6],[-13,-9],[-14,2],[-26,12],[-29,8],[-25,-5],[-6,9],[-6,1],[-18,-10],[5,22],[10,13],[15,6],[24,2],[6,-3],[12,-14],[8,-4]],[[1309,1995],[-4,-11],[-6,0],[-5,-1],[-1,-11],[-8,-2],[-16,3],[-11,-6],[-3,-11],[-5,5],[-1,20],[15,18],[25,10],[13,3],[4,-5],[3,-12]],[[1238,1992],[2,-4],[-1,-10],[-9,-3],[-11,6],[-10,0],[-6,-10],[-6,-4],[-31,15],[-17,5],[-10,2],[-27,-3],[-16,1],[-42,15],[-14,4],[-11,14],[-8,5],[6,8],[28,-3],[41,-16],[51,-11],[91,-11]],[[2143,0],[20,68],[18,-37],[107,-20],[-145,-11]],[[3219,819],[70,24],[279,-121],[62,-13],[101,27],[67,-27],[-31,-25],[-108,14],[-14,-24],[-59,4],[-63,-51],[-43,5],[-44,52],[-24,-22],[-86,26],[-107,131]],[[0,1039],[15,-6],[61,24],[-18,-21],[33,-28],[76,47],[139,-18],[304,-277],[-89,-195],[-33,-7],[-21,73],[-37,25],[-67,-6],[-25,30],[-72,14],[-45,54],[-221,-10],[0,301]],[[0,684],[9,11],[11,-31],[66,-26],[4,-38],[217,-12],[0,-105],[76,-22],[50,10],[47,60],[31,-19],[35,-76],[-12,-101],[29,-113],[100,-222],[-544,0],[-119,97],[0,587]],[[395,1826],[-88,61],[155,44],[-60,-49],[59,-25],[-66,-31]],[[604,2036],[1,101],[228,1],[0,-50],[58,0],[38,12],[0,26],[-72,1],[0,17],[126,-1],[0,-55],[35,0],[-8,-56],[-186,0],[-29,-37],[-36,-3],[-1,45],[-154,-1]]]}