{"objects":{"water":{"type":"GeometryCollection","geometries":[{"type":"MultiPolygon","properties":{"source":"naturalearthdata.com","kind":"ocean","area":1576712559132672,"sort_rank":200,"min_zoom":0.0,"id":1},"arcs":[[[45],[46],[47],[48],[49],[50],[51],[52],[53],[54],[55],[56],[57],[58],[59],[60],[61],[62],[63],[64],[65],[66],[67],[68],[69],[70],[71],[72],[73],[74],[75],[76],[77],[78],[79],[80],[81],[82],[83],[84],[85],[86],[87],[88],[89],[90],[91],[92],[93],[94],[95],[96]],[[97]]]},{"type":"MultiLineString","properties":{"source":"naturalearthdata.com","kind":"ocean","sort_rank":205,"boundary":true,"min_zoom":0.0,"id":23},"arcs":[[98],[99],[100]]},{"type":"MultiLineString","properties":{"source":"naturalearthdata.com","kind":"ocean","sort_rank":205,"boundary":true,"min_zoom":0.0,"id":58},"arcs":[[101],[102],[103]]},{"type":"LineString","properties":{"source":"naturalearthdata.com","kind":"ocean","sort_rank":205,"boundary":true,"min_zoom":0.0,"id":122},"arcs":[104]},{"type":"LineString","properties":{"source":"naturalearthdata.com","kind":"ocean","sort_rank":205,"boundary":true,"min_zoom":0.0,"id":1778},"arcs":[105]},{"type":"LineString","properties":{"source":"naturalearthdata.com","kind":"ocean","sort_rank":205,"boundary":true,"min_zoom":0.0,"id":1801},"arcs":[106]},{"type":"LineString","properties":{"source":"naturalearthdata.com","kind":"ocean","sort_rank":205,"boundary":true,"min_zoom":0.0,"id":1802},"arcs":[107]},{"type":"LineString","properties":{"source":"naturalearthdata.com","kind":"ocean","sort_rank":205,"boundary":true,"min_zoom":0.0,"id":1803},"arcs":[108]},{"type":"LineString","properties":{"source":"naturalearthdata.com","kind":"ocean","sort_rank":205,"boundary":true,"min_zoom":0.0,"id":1843},"arcs":[109]},{"type":"LineString","properties":{"source":"naturalearthdata.com","kind":"ocean","sort_rank":205,"boundary":true,"min_zoom":0.0,"id":1844},"arcs":[110]},{"type":"LineString","properties":{"source":"naturalearthdata.com","kind":"ocean","sort_rank":205,"boundary":true,"min_zoom":0.0,"id":2707},"arcs":[111]},{"type":"LineString","properties":{"source":"naturalearthdata.com","kind":"ocean","sort_rank":205,"boundary":true,"min_zoom":0.0,"id":2708},"arcs":[112]},{"type":"LineString","properties":{"source":"naturalearthdata.com","kind":"ocean","sort_rank":205,"boundary":true,"min_zoom":0.0,"id":2709},"arcs":[113]},{"type":"LineString","properties":{"source":"naturalearthdata.com","kind":"ocean","sort_rank":205,"boundary":true,"min_zoom":0.0,"id":3347},"arcs":[114]},{"type":"LineString","properties":{"source":"naturalearthdata.com","kind":"ocean","sort_rank":205,"boundary":true,"min_zoom":0.0,"id":3546},"arcs":[115]},{"type":"LineString","properties":{"source":"naturalearthdata.com","kind":"ocean","sort_rank":205,"boundary":true,"min_zoom":0.0,"id":3547},"arcs":[116]},{"type":"LineString","properties":{"source":"naturalearthdata.com","kind":"ocean","sort_rank":205,"boundary":true,"min_zoom":0.0,"id":3548},"arcs":[117]},{"type":"LineString","properties":{"source":"naturalearthdata.com","kind":"ocean","sort_rank":205,"boundary":true,"min_zoom":0.0,"id":3944},"arcs":[118]},{"type":"LineString","properties":{"source":"naturalearthdata.com","kind":"ocean","sort_rank":205,"boundary":true,"min_zoom":0.0,"id":3946},"arcs":[119]},{"type":"LineString","properties":{"source":"naturalearthdata.com","kind":"ocean","sort_rank":205,"boundary":true,"min_zoom":0.0,"id":4071},"arcs":[120]},{"type":"LineString","properties":{"source":"naturalearthdata.com","kind":"ocean","sort_rank":205,"boundary":true,"min_zoom":0.0,"id":4072},"arcs":[121]},{"type":"LineString","properties":{"source":"naturalearthdata.com","kind":"ocean","sort_rank":205,"boundary":true,"min_zoom":0.0,"id":4073},"arcs":[122]},{"type":"LineString","properties":{"source":"naturalearthdata.com","kind":"ocean","sort_rank":205,"boundary":true,"min_zoom":0.0,"id":4074},"arcs":[123]},{"type":"LineString","properties":{"source":"naturalearthdata.com","kind":"ocean","sort_rank":205,"boundary":true,"min_zoom":0.0,"id":4075},"arcs":[124]},{"type":"LineString","properties":{"source":"naturalearthdata.com","kind":"ocean","sort_rank":205,"boundary":true,"min_zoom":0.0,"id":4076},"arcs":[125]},{"type":"LineString","properties":{"source":"naturalearthdata.com","kind":"ocean","sort_rank":205,"boundary":true,"min_zoom":0.0,"id":4079},"arcs":[126]},{"type":"LineString","properties":{"source":"naturalearthdata.com","kind":"ocean","sort_rank":205,"boundary":true,"min_zoom":0.0,"id":4080},"arcs":[127]}]},"buildings":{"type":"GeometryCollection","geometries":[]},"places":{"type":"GeometryCollection","geometries":[{"type":"Point","properties":{"name:cy":"Taiwan","name:tr":"Tayvan","name:cv":"\u0422\u0430\u0439\u0432\u0430\u043d\u044c","name:kl":"Taiwan","name:cs":"Tchaj-wan","name:ki":"Taiwani","name:tk":"Ta\u00fdwan","name:ku":"Taywan","alt_name:cs":"\u010c\u00ednsk\u00e1 republika","name:to":"Taiuani","name:tl":"Taiwan","name:tg":"\u0422\u0430\u0439\u0432\u0430\u043d","name:ca":"Taiwan","alt_name:li":"Republiek China","alt_name:lo":"\u0ec4\u0e95\u0ec9\u0eab\u0ea7\u0eb1\u0e99","alt_name:tt":"\u041a\u044b\u0442\u0430\u0439 \u0496\u04e9\u043c\u04bb\u04af\u0440\u0438\u044f\u0442\u0435","alt_name:qu":"Chunwa Republika","name:da":"Taiwan","name:de":"Taiwan","source":"openstreetmap.org","alt_name:ta":"\u0ba4\u0bc8\u0bb5\u0bbe\u0ba9\u0bcd","alt_name:te":"\u0c24\u0c48\u0c35\u0c3e\u0c28\u0c4d","alt_name:th":"\u0e44\u0e15\u0e49\u0e2b\u0e27\u0e31\u0e19","alt_name:ti":"\u1273\u12ed\u12cb\u1295","name:lv":"Taiv\u0101na","name:lt":"Taivanas","name:uz":"Tayvan","name:kk":"\u0422\u0430\u0439\u0432\u0430\u043d\u044c","name:lb":"Taiwan","name:la":"Taivania","alt_name:dv":"\u0796\u07aa\u0789\u07b0\u0780\u07ab\u0783\u07a9 \u0797\u07a6\u0787\u07a8\u0782\u07a7","name:lg":"Tayiwani","name:uk":"\u0422\u0430\u0439\u0432\u0430\u043d\u044c","alt_name:dz":"\u0f4a\u0f71\u0f60\u0f72\u0f0b\u0f5d\u0f71\u0f53","name:ln":"Taiwanin","name:eo":"Tajvano","name:en":"Taiwan","name":"\u81fa\u7063","name:ee":"Taiwan","alt_name:ur":"\u062a\u0627\u0626\u06cc\u0648\u0627\u0646","name:eu":"Taiwan","name:et":"Taiwan","alt_name:ug":"\u062a\u06d5\u064a\u06cb\u06d5\u0646","name:es":"Taiw\u00e1n","name:ia":"Taiwan","name:rm":"Taiwan","name:rn":"Tayiwani","name:az":"tayvan","name:id":"Taiwan","alt_name:be":"\u0420\u044d\u0441\u043f\u0443\u0431\u043b\u0456\u043a\u0430 \u041a\u0456\u0442\u0430\u0439","name:ar":"\u062a\u0627\u064a\u0648\u0627\u0646","name:io":"Taiwan","name:ak":"Taiwan","alt_name:bg":"\u0420\u0435\u043f\u0443\u0431\u043b\u0438\u043a\u0430 \u041a\u0438\u0442\u0430\u0439","name:am":"\u1273\u12ed\u12cb\u1295","name:it":"Taiwan","alt_name:an":"Republica de China","name:ru":"\u0422\u0430\u0439\u0432\u0430\u043d\u044c","name:rw":"Tayiwani","alt_name:za":"Cunghvaz Minzgoz","name:af":"Taiwan","name:zu":"i-Taiwan","name:no":"Taiwan","alt_name:gv":"Pobblaght ny Sheen","alt_name:jv":"R\u00e9publik Cina","name:zh":"T\u00e1iw\u0101n","name:se":"Taiwan","name:so":"Taywaan","name:sn":"Taiwan","name:sl":"Tajvan","name:sk":"Taiwan","name:ja":"\u53f0\u6e7e","name:sg":"T\u00e2iw\u00e2ni","alt_name:bn":"\u09aa\u09cd\u09b0\u099c\u09be\u09a4\u09a8\u09cd\u09a4\u09cd\u09b0\u09c0 \u099a\u09c0\u09a8","alt_name:bo":"\u0f50\u0f60\u0f7a\u0f0b\u0f5d\u0f53\u0f0d","name:br":"Taiwan","name:bs":"Tajvan","name:bm":"Tayiwani","name:bn":"\u09a4\u09be\u0987\u0993\u09af\u09bc\u09be\u09a8","name:sw":"Taiwani","name:be":"\u0422\u0430\u0439\u0432\u0430\u043d\u044c","name:bg":"\u0422\u0430\u0439\u0432\u0430\u043d","name:ss":"IThayiwani","name:sr":"\u0422\u0430\u0458\u0432\u0430\u043d","name:sq":"Tajvan","alt_name:ko":"\ub300\ub9cc","alt_name:kn":"\u0ca5\u0cc8\u0cb5\u0cbe\u0ca8\u0ccd","alt_name:km":"\u178f\u17c3\u179c\u17c9\u17b6\u1793\u17cb","alt_name:ka":"\u10e2\u10d0\u10d8\u10d5\u10d0\u10dc\u10d8","alt_name:sa":"\u0924\u0948\u0935\u093e\u0928","alt_name:sm":"Saina Taipei","alt_name:ks":"\u062a\u0627\u06cc\u0648\u0627\u0646","alt_name:si":"\u0dad\u0dcf\u0dba\u0dd2\u0dc0\u0dcf\u0db1\u0dba","alt_name:zh-min-nan":"Tiong-ho\u00e2 B\u00een-kok","alt_name:os":"\u041a\u0438\u0442\u0430\u0439\u044b \u0420\u0435\u0441\u043f\u0443\u0431\u043b\u0438\u043a\u00e6","alt_name:or":"\u0b24\u0b3e\u0b07\u0b71\u0b3e\u0b28\u0b4d","name:pt":"Taiwan","name:mt":"Tajwan","alt_name:pa":"\u0a1a\u0a40\u0a28 \u0a17\u0a23\u0a30\u0a3e\u0a1c","alt_name:oc":"Republica de China (Taiwan)","min_zoom":2.0,"name:ro":"Taiwan","name:sv":"Taiwan","name:pl":"Tajwan","alt_name:ps":"\u062f \u0686\u064a\u0646 \u062c\u0645\u0647\u0648\u0631\u064a\u062a","alt_name:gu":"\u0aa4\u0abe\u0a87\u0ab5\u0abe\u0aa8","alt_name:he":"\u05d8\u05d9\u05d9\u05d5\u05d0\u05df","alt_name:ha":"Taiwan","alt_name:hi":"\u0924\u093e\u0907\u0935\u093e\u0928","alt_name:hy":"\u0539\u0561\u0575\u057e\u0561\u0576","alt_name:ar":"\u062c\u0645\u0647\u0648\u0631\u064a\u0629 \u0627\u0644\u0635\u064a\u0646","alt_name:yi":"\u05e8\u05e2\u05e4\u05d5\u05d1\u05dc\u05d9\u05e7 \u05e4\u05d5\u05df \u05db\u05d9\u05e0\u05e2","name:hu":"Tajvan","name:hr":"Tajvan","population":23127845,"kind":"country","alt_name:io":"Republiko di Chinia","alt_name:is":"L\u00fd\u00f0veldi\u00f0 K\u00edna","alt_name:zh":"\u4e2d\u83ef\u6c11\u570b","name:yo":"Or\u00edl\u1eb9\u0301\u00e8de Taiwani","alt_name:el":"\u0394\u03b7\u03bc\u03bf\u03ba\u03c1\u03b1\u03c4\u03af\u03b1 \u03c4\u03b7\u03c2 \u039a\u03af\u03bd\u03b1\u03c2","alt_name:en":"Republic of China","name:ms":"Taiwan","alt_name:mr":"\u0924\u0948\u0935\u093e\u0928","alt_name:my":"\u1011\u102d\u102f\u1004\u103a\u101d\u1019\u103a","int_name":"Taiwan","name:mg":"Taioana","name:vi":"\u0110\u00e0i Loan","alt_name:ml":"\u0d24\u0d3e\u0d2f\u0d4d\u200c\u0d35\u0d3e\u0d7b","name:mn":"\u0422\u0430\u0439\u0432\u0430\u043d\u044c","name:mi":"Taiwana","id":432425099,"name:mk":"\u0422\u0430\u0458\u0432\u0430\u043d","name:vo":"Tayv\u00e4n","name:fa":"\u062a\u0627\u06cc\u0648\u0627\u0646","name:ff":"Taywaan","name:fi":"Taiwan","alt_name:de":"Republik China","name:fo":"Teivan","name:fr":"Ta\u00efwan","name:fy":"Taiwan","alt_name:af":"Republiek van Sjina","alt_name:zh-yue":"\u4e2d\u83ef\u6c11\u570b","name:nl":"Taiwan","name:nn":"Taiwan","alt_name:ru":"\u041a\u0438\u0442\u0430\u0439\u0441\u043a\u0430\u044f \u0420\u0435\u0441\u043f\u0443\u0431\u043b\u0438\u043a\u0430","alt_name:fa":"\u062a\u0627\u06cc\u0648\u0627\u0646","alt_name:na":"Republik Tsiene","alt_name:am":"\u12e8\u127b\u12ed\u1293 \u122a\u1350\u1265\u120a\u12ad","alt_name:az":"\u00c7in Respublikas\u0131","alt_name:ne":"\u0924\u093e\u0907\u0935\u093e\u0928","name:wo":"Taaywaan","name:ga":"An T\u00e9av\u00e1in","name:gd":"Tai-Bh\u00e0n","name:gl":"Taiw\u00e1n","alt_name:sh":"Republika Kina"},"coordinates":[2080,1626]},{"type":"Point","properties":{"source":"naturalearthdata.com","kind":"locality","name":"Taipei","country_capital":true,"population":6900273,"min_zoom":3.0,"id":7262},"coordinates":[2507,2476]},{"type":"Point","properties":{"source":"naturalearthdata.com","kind":"locality","name":"Fuzhou","population":2606000,"region_capital":true,"min_zoom":4.0,"id":7156},"coordinates":[854,3314]},{"type":"Point","properties":{"source":"naturalearthdata.com","kind":"locality","name":"Kaohsiung","population":2769072,"region_capital":true,"min_zoom":5.0,"id":7104},"coordinates":[1559,553]},{"type":"Point","properties":{"source":"naturalearthdata.com","kind":"locality","name":"Taichung","population":2629323,"region_capital":true,"min_zoom":5.0,"id":6770},"coordinates":[1862,1769]},{"type":"Point","properties":{"source":"naturalearthdata.com","kind":"locality","name":"Quanzhou","population":1463000,"min_zoom":5.0,"id":6472},"coordinates":[330,2369]},{"type":"Point","properties":{"source":"naturalearthdata.com","kind":"locality","name":"New Taipei","population":3893740,"region_capital":true,"min_zoom":6.0,"id":6168},"coordinates":[2432,2458]},{"type":"Point","properties":{"source":"naturalearthdata.com","kind":"locality","name":"Tainan","population":1876312,"region_capital":true,"min_zoom":6.0,"id":6169},"coordinates":[1511,846]},{"type":"Point","properties":{"source":"naturalearthdata.com","kind":"locality","name":"Hsinchu","population":750000,"region_capital":true,"min_zoom":6.0,"id":4865},"coordinates":[2077,2301]},{"type":"Point","properties":{"source":"naturalearthdata.com","kind":"locality","name":"Hualien","population":350468,"region_capital":true,"min_zoom":6.0,"id":6167},"coordinates":[2530,1634]},{"type":"Point","properties":{"source":"naturalearthdata.com","kind":"locality","name":"Taitung","population":175000,"region_capital":true,"min_zoom":6.0,"id":6170},"coordinates":[2195,650]},{"type":"Point","properties":{"source":"naturalearthdata.com","kind":"locality","name":"Magong","population":56435,"region_capital":true,"min_zoom":6.0,"id":6769},"coordinates":[1062,1300]}]},"transit":{"type":"GeometryCollection","geometries":[{"type":"LineString","properties":{"kind":"train","name":"\u81ea\u5f37\u865f \u9ad8\u96c4=>\u4e03\u5835","sort_rank":275,"source":"openstreetmap.org","min_zoom":6.0,"operator":"\u81fa\u7063\u9435\u8def\u7ba1\u7406\u5c40","id":-2721954,"osm_relation":true},"arcs":[0]},{"type":"MultiLineString","properties":{"osm_relation":true,"source":"openstreetmap.org","kind":"train","name":"\u57fa\u9686\u81e8\u6e2f\u7dda","sort_rank":275,"min_zoom":6.0,"operator":"\u81fa\u7063\u9435\u8def\u7ba1\u7406\u5c40"},"arcs":[[1],[2],[3],[4],[5],[6],[7],[8],[9],[10],[11],[12],[13]]},{"type":"LineString","properties":{"source":"openstreetmap.org","kind":"train","name":"\u5c4f\u6771\u7e3d\u5ee0 \u65b0\u7f6e\u652f\u7dda","sort_rank":275,"min_zoom":6.0,"osm_relation":true,"id":-6992091},"arcs":[14]},{"type":"MultiLineString","properties":{"kind":"train","name:en":"Wenfu Line","network":"CN-railway","sort_rank":275,"name:fr":"Ligne Wenzhou\u2013Fuzhou","source":"openstreetmap.org","min_zoom":6.0,"alt_name:en":"Wenzhou\u2013Fuzhou Railway","ref":"\u6e29\u798f\u9ad8\u94c1","osm_relation":true,"name":"\u6e29\u798f\u7ebf"},"arcs":[[15],[16],[17],[18],[19]]},{"type":"MultiLineString","properties":{"source":"openstreetmap.org","kind":"train","name":"\u516b\u5835 - \u83c1\u6850","sort_rank":275,"ref":"\u5e73\u6eaa\u7dda","min_zoom":6.0,"osm_relation":true},"arcs":[[20],[21],[22],[23]]},{"type":"LineString","properties":{"kind":"train","network":"\u5340\u9593","sort_rank":275,"source":"openstreetmap.org","min_zoom":6.0,"operator":"\u81fa\u7063\u9435\u8def\u7ba1\u7406\u5c40","ref":"162","id":-2958526,"osm_relation":true},"arcs":[24]},{"type":"MultiLineString","properties":{"kind":"train","name":"\u5c4f\u6771\u7e3d\u5ee0\u5c08\u7528\u7dda \u842c\u9686\u5e79\u7dda","sort_rank":275,"source":"openstreetmap.org","min_zoom":6.0,"operator":"\u53f0\u7cd6","osm_relation":true,"network":"\u5c4f\u6771\u7cd6\u9435"},"arcs":[[25],[26],[27],[28]]},{"type":"MultiLineString","properties":{"kind":"train","name:en":"Fuxia Railway (Fuzhou-Xiamen High-Speed Railway)","network":"CN-railway","sort_rank":275,"source":"openstreetmap.org","min_zoom":6.0,"ref":"\u798f\u53a6\u9ad8\u94c1","osm_relation":true,"name":"\u798f\u53a6\u94c1\u8def(CRH)"},"arcs":[[29],[30],[31],[32]]},{"type":"LineString","properties":{"kind":"train","network":"\u5c4f\u6771\u7cd6\u9435","sort_rank":275,"source":"openstreetmap.org","min_zoom":6.0,"operator":"\u53f0\u7cd6","id":-6992092,"osm_relation":true,"name":"\u5c4f\u6771\u7e3d\u5ee0 \u6797\u5f8c\u652f\u7dda"},"arcs":[33]},{"type":"LineString","properties":{"source":"openstreetmap.org","kind":"train","name":"\u5c4f\u6771\u7e3d\u5ee0\u4f73\u4f50\u652f\u7dda","sort_rank":275,"min_zoom":6.0,"osm_relation":true,"id":-6992050},"arcs":[34]},{"type":"LineString","properties":{"kind":"train","name":"\u5340\u9593\u8eca \u65b0\u7af9=>\u57fa\u9686","sort_rank":275,"source":"openstreetmap.org","min_zoom":6.0,"operator":"\u81fa\u7063\u9435\u8def\u7ba1\u7406\u5c40","id":-2719741,"osm_relation":true},"arcs":[35]},{"type":"LineString","properties":{"kind":"train","name":"\u81ea\u5f37\u865f \u4e03\u5835=>\u9ad8\u96c4","sort_rank":275,"source":"openstreetmap.org","min_zoom":6.0,"operator":"\u81fa\u7063\u9435\u8def\u7ba1\u7406\u5c40","id":-2721955,"osm_relation":true},"arcs":[36]},{"type":"LineString","properties":{"source":"openstreetmap.org","kind":"train","name":"\u5c4f\u6771\u7e3d\u5ee0 \u4e2d\u6797\u652f\u7dda","sort_rank":275,"min_zoom":6.0,"osm_relation":true,"id":-6992099},"arcs":[37]},{"type":"MultiLineString","properties":{"distance":"813","kind":"train","name:en":"Hefei-Fuzhou PDL","name":"\u5408\u798f\u5ba2\u8fd0\u4e13\u7ebf","sort_rank":275,"source":"openstreetmap.org","min_zoom":6.0,"osm_relation":true,"network":"CN-railway"},"arcs":[[38],[39],[40]]},{"type":"LineString","properties":{"kind":"train","name":"\u5340\u9593\u8eca \u57fa\u9686=>\u65b0\u7af9","sort_rank":275,"source":"openstreetmap.org","min_zoom":6.0,"operator":"\u81fa\u7063\u9435\u8def\u7ba1\u7406\u5c40","id":-2721950,"osm_relation":true},"arcs":[41]},{"type":"LineString","properties":{"sort_rank":275,"source":"openstreetmap.org","min_zoom":6.0,"kind":"train","osm_relation":true},"arcs":[42]},{"type":"MultiLineString","properties":{"source":"openstreetmap.org","kind":"train","name":"Jiji Line","sort_rank":275,"min_zoom":6.0,"osm_relation":true},"arcs":[[43],[44]]}]},"pois":{"type":"GeometryCollection","geometries":[{"type":"Point","properties":{"kind":"national_park","name:en":"Taroko National Park","tier":1,"protect_class":"2","area":1183790000,"source":"openstreetmap.org","min_zoom":5.69,"operator":"\u5167\u653f\u90e8\u71df\u5efa\u7f72\u592a\u9b6f\u95a3\u570b\u5bb6\u516c\u5712\u7ba1\u7406\u8655","id":-5240045,"osm_relation":true,"name":"\u592a\u9b6f\u95a3\u570b\u5bb6\u516c\u5712"},"coordinates":[2451,1818]},{"type":"Point","properties":{"name:ja":"\u58be\u4e01\u56fd\u5bb6\u516c\u5712","tier":1,"min_zoom":6.5,"operator":"\u5167\u653f\u90e8\u71df\u5efa\u7f72\u58be\u4e01\u570b\u5bb6\u516c\u5712\u7ba1\u7406\u8655","name:ru":"\u041d\u0430\u0446\u0438\u043e\u043d\u0430\u043b\u044c\u043d\u044b\u0439 \u043f\u0430\u0440\u043a \u041a\u044d\u043d\u044c\u0434\u0438\u043d","id":-4129686,"osm_relation":true,"name":"\u58be\u4e01\u570b\u5bb6\u516c\u5712","kind":"national_park","name:en":"Kenting National Park","protect_class":"2","area":384796000,"name:de":"Kenting-Nationalpark","source":"openstreetmap.org","name:fr":"Parc national de Kenting","name:es":"Parque nacional Kenting"},"coordinates":[1966,43]},{"type":"Point","properties":{"kind":"national_park","name:en":"Yushan National Park","tier":1,"protect_class":"2","area":1230450000,"source":"openstreetmap.org","min_zoom":5.66,"operator":"\u5167\u653f\u90e8\u71df\u5efa\u7f72\u7389\u5c71\u570b\u5bb6\u516c\u5712\u7ba1\u7406\u8655","id":-4091639,"osm_relation":true,"name":"\u7389\u5c71\u570b\u5bb6\u516c\u5712"},"coordinates":[2141,1167]},{"type":"Point","properties":{"kind":"national_park","name:en":"Taijiang National Park","tier":1,"protect_class":"2","area":436433000,"source":"openstreetmap.org","min_zoom":6.41,"operator":"\u5167\u653f\u90e8\u71df\u5efa\u7f72\u53f0\u6c5f\u570b\u5bb6\u516c\u5712\u7ba1\u7406\u8655","id":-4074850,"osm_relation":true,"name":"\u53f0\u6c5f\u570b\u5bb6\u516c\u5712"},"coordinates":[1304,924]},{"type":"Point","properties":{"kind":"national_park","tier":1,"protect_class":"2","area":420957000,"source":"openstreetmap.org","min_zoom":6.43,"operator":"\u5167\u653f\u90e8\u71df\u5efa\u7f72\u6d77\u6d0b\u570b\u5bb6\u516c\u5712\u7ba1\u7406\u8655","id":-3898969,"osm_relation":true,"name":"\u6f8e\u6e56\u5357\u65b9\u56db\u5cf6\u570b\u5bb6\u516c\u5712"},"coordinates":[1067,1068]},{"type":"Point","properties":{"kind":"national_park","name:en":"Shei-Pa National Park","tier":1,"protect_class":"2","area":932594000,"source":"openstreetmap.org","min_zoom":5.86,"operator":"\u5167\u653f\u90e8\u71df\u5efa\u7f72\u96ea\u9738\u570b\u5bb6\u516c\u5712\u7ba1\u7406\u8655","id":-3507503,"osm_relation":true,"name":"\u96ea\u9738\u570b\u5bb6\u516c\u5712"},"coordinates":[2212,1959]}]},"boundaries":{"type":"GeometryCollection","geometries":[]},"roads":{"type":"GeometryCollection","geometries":[{"type":"LineString","properties":{"source":"naturalearthdata.com","kind":"highway","kind_detail":"motorway","sort_rank":383,"landuse_kind":"urban_area","min_zoom":3.0,"id":8987},"arcs":[128]},{"type":"LineString","properties":{"source":"naturalearthdata.com","kind":"highway","sort_rank":383,"kind_detail":"motorway","min_zoom":3.0,"id":8987},"arcs":[129]},{"type":"LineString","properties":{"source":"naturalearthdata.com","kind":"highway","sort_rank":383,"kind_detail":"motorway","min_zoom":3.0,"id":8988},"arcs":[130]},{"type":"LineString","properties":{"source":"naturalearthdata.com","kind":"highway","kind_detail":"motorway","sort_rank":383,"landuse_kind":"urban_area","min_zoom":4.0,"id":8989},"arcs":[131]},{"type":"LineString","properties":{"source":"naturalearthdata.com","kind":"highway","sort_rank":383,"kind_detail":"motorway","min_zoom":4.0,"id":8989},"arcs":[132]},{"type":"LineString","properties":{"source":"naturalearthdata.com","kind":"highway","kind_detail":"motorway","sort_rank":383,"landuse_kind":"urban_area","min_zoom":4.0,"id":8990},"arcs":[133]},{"type":"LineString","properties":{"source":"naturalearthdata.com","kind":"highway","sort_rank":383,"kind_detail":"motorway","min_zoom":4.0,"id":8990},"arcs":[134]},{"type":"LineString","properties":{"source":"naturalearthdata.com","kind":"highway","kind_detail":"motorway","sort_rank":383,"landuse_kind":"urban_area","min_zoom":4.0,"id":8992},"arcs":[135]},{"type":"LineString","properties":{"source":"naturalearthdata.com","kind":"highway","kind_detail":"motorway","sort_rank":383,"landuse_kind":"urban_area","min_zoom":4.0,"id":8993},"arcs":[136]},{"type":"LineString","properties":{"source":"naturalearthdata.com","kind":"highway","kind_detail":"motorway","sort_rank":383,"landuse_kind":"urban_area","min_zoom":4.0,"id":9441},"arcs":[137]},{"type":"LineString","properties":{"source":"naturalearthdata.com","kind":"highway","sort_rank":383,"kind_detail":"motorway","min_zoom":4.0,"id":9441},"arcs":[138]},{"type":"LineString","properties":{"source":"naturalearthdata.com","kind":"highway","sort_rank":383,"kind_detail":"motorway","min_zoom":3.0,"id":9444},"arcs":[139]},{"type":"LineString","properties":{"source":"naturalearthdata.com","kind":"highway","sort_rank":383,"kind_detail":"motorway","min_zoom":3.0,"id":9445},"arcs":[140]},{"type":"LineString","properties":{"source":"naturalearthdata.com","kind":"highway","sort_rank":383,"kind_detail":"motorway","min_zoom":3.0,"id":9446},"arcs":[141]},{"type":"LineString","properties":{"source":"naturalearthdata.com","kind":"highway","sort_rank":383,"kind_detail":"motorway","min_zoom":3.0,"id":9447},"arcs":[142]},{"type":"LineString","properties":{"source":"naturalearthdata.com","kind":"highway","kind_detail":"motorway","sort_rank":383,"landuse_kind":"urban_area","min_zoom":3.0,"id":9448},"arcs":[143]},{"type":"LineString","properties":{"source":"naturalearthdata.com","kind":"highway","sort_rank":383,"kind_detail":"motorway","min_zoom":3.0,"id":9448},"arcs":[144]},{"type":"LineString","properties":{"source":"naturalearthdata.com","kind":"highway","kind_detail":"motorway","sort_rank":383,"landuse_kind":"urban_area","min_zoom":3.0,"id":9449},"arcs":[145]},{"type":"LineString","properties":{"source":"naturalearthdata.com","kind":"highway","sort_rank":383,"kind_detail":"motorway","min_zoom":3.0,"id":9449},"arcs":[146]},{"type":"LineString","properties":{"source":"naturalearthdata.com","kind":"highway","sort_rank":383,"kind_detail":"motorway","min_zoom":3.0,"id":9450},"arcs":[147]},{"type":"LineString","properties":{"source":"naturalearthdata.com","kind":"highway","kind_detail":"motorway","sort_rank":383,"landuse_kind":"urban_area","min_zoom":3.0,"id":9451},"arcs":[148]},{"type":"MultiLineString","properties":{"source":"naturalearthdata.com","kind":"highway","sort_rank":383,"kind_detail":"motorway","min_zoom":3.0,"id":9451},"arcs":[[149],[150]]},{"type":"LineString","properties":{"source":"naturalearthdata.com","kind":"highway","kind_detail":"motorway","sort_rank":383,"landuse_kind":"urban_area","min_zoom":3.0,"id":9452},"arcs":[151]},{"type":"MultiLineString","properties":{"source":"naturalearthdata.com","kind":"highway","sort_rank":383,"kind_detail":"motorway","min_zoom":3.0,"id":9452},"arcs":[[152],[153]]},{"type":"LineString","properties":{"source":"naturalearthdata.com","kind":"highway","kind_detail":"motorway","sort_rank":383,"landuse_kind":"urban_area","min_zoom":3.0,"id":9453},"arcs":[154]},{"type":"LineString","properties":{"source":"naturalearthdata.com","kind":"highway","sort_rank":383,"kind_detail":"motorway","min_zoom":3.0,"id":9453},"arcs":[155]},{"type":"LineString","properties":{"source":"naturalearthdata.com","kind":"highway","sort_rank":383,"kind_detail":"motorway","min_zoom":3.0,"id":9454},"arcs":[156]},{"type":"LineString","properties":{"source":"naturalearthdata.com","kind":"highway","kind_detail":"motorway","sort_rank":383,"landuse_kind":"urban_area","min_zoom":3.0,"id":9455},"arcs":[157]},{"type":"MultiLineString","properties":{"source":"naturalearthdata.com","kind":"highway","sort_rank":383,"kind_detail":"motorway","min_zoom":3.0,"id":9455},"arcs":[[158],[159]]},{"type":"MultiLineString","properties":{"source":"naturalearthdata.com","kind":"highway","kind_detail":"motorway","sort_rank":383,"landuse_kind":"urban_area","min_zoom":3.0,"id":9456},"arcs":[[160],[161]]},{"type":"LineString","properties":{"source":"naturalearthdata.com","kind":"highway","kind_detail":"motorway","sort_rank":383,"landuse_kind":"urban_area","min_zoom":3.0,"id":9456},"arcs":[162]},{"type":"MultiLineString","properties":{"source":"naturalearthdata.com","kind":"highway","sort_rank":383,"kind_detail":"motorway","min_zoom":3.0,"id":9456},"arcs":[[163],[164],[165]]},{"type":"LineString","properties":{"source":"naturalearthdata.com","kind":"highway","sort_rank":383,"kind_detail":"motorway","min_zoom":4.0,"id":9457},"arcs":[166]},{"type":"LineString","properties":{"source":"naturalearthdata.com","kind":"highway","sort_rank":383,"kind_detail":"motorway","min_zoom":4.0,"id":9458},"arcs":[167]},{"type":"LineString","properties":{"source":"naturalearthdata.com","kind":"highway","sort_rank":383,"kind_detail":"motorway","min_zoom":4.0,"id":9459},"arcs":[168]},{"type":"LineString","properties":{"source":"naturalearthdata.com","kind":"highway","kind_detail":"motorway","sort_rank":383,"landuse_kind":"urban_area","min_zoom":3.0,"id":9460},"arcs":[169]},{"type":"LineString","properties":{"source":"naturalearthdata.com","kind":"highway","sort_rank":383,"kind_detail":"motorway","min_zoom":3.0,"id":9460},"arcs":[170]},{"type":"LineString","properties":{"source":"naturalearthdata.com","kind":"highway","sort_rank":383,"kind_detail":"motorway","min_zoom":4.0,"id":9461},"arcs":[171]},{"type":"LineString","properties":{"source":"naturalearthdata.com","kind":"highway","sort_rank":383,"kind_detail":"motorway","min_zoom":4.0,"id":9462},"arcs":[172]},{"type":"LineString","properties":{"source":"naturalearthdata.com","kind":"highway","kind_detail":"motorway","sort_rank":383,"landuse_kind":"urban_area","min_zoom":3.0,"id":9463},"arcs":[173]},{"type":"LineString","properties":{"source":"naturalearthdata.com","kind":"highway","sort_rank":383,"kind_detail":"motorway","min_zoom":3.0,"id":9463},"arcs":[174]},{"type":"LineString","properties":{"source":"naturalearthdata.com","kind":"highway","sort_rank":383,"kind_detail":"motorway","min_zoom":4.0,"id":9464},"arcs":[175]},{"type":"LineString","properties":{"source":"naturalearthdata.com","kind":"highway","sort_rank":383,"kind_detail":"motorway","min_zoom":4.0,"id":9465},"arcs":[176]},{"type":"LineString","properties":{"source":"naturalearthdata.com","kind":"highway","kind_detail":"motorway","sort_rank":383,"landuse_kind":"urban_area","min_zoom":4.0,"id":9466},"arcs":[177]},{"type":"LineString","properties":{"source":"naturalearthdata.com","kind":"highway","sort_rank":383,"kind_detail":"motorway","min_zoom":4.0,"id":9466},"arcs":[178]},{"type":"LineString","properties":{"source":"naturalearthdata.com","kind":"highway","sort_rank":383,"kind_detail":"motorway","min_zoom":4.0,"id":9467},"arcs":[179]},{"type":"LineString","properties":{"source":"naturalearthdata.com","kind":"highway","sort_rank":383,"kind_detail":"motorway","min_zoom":4.0,"id":9468},"arcs":[180]},{"type":"LineString","properties":{"source":"naturalearthdata.com","kind":"highway","kind_detail":"motorway","sort_rank":383,"landuse_kind":"urban_area","min_zoom":4.0,"id":9469},"arcs":[181]},{"type":"LineString","properties":{"source":"naturalearthdata.com","kind":"highway","sort_rank":383,"kind_detail":"motorway","min_zoom":4.0,"id":9470},"arcs":[182]},{"type":"LineString","properties":{"source":"naturalearthdata.com","kind":"highway","sort_rank":383,"kind_detail":"motorway","min_zoom":4.0,"id":9471},"arcs":[183]},{"type":"LineString","properties":{"source":"naturalearthdata.com","kind":"highway","sort_rank":383,"kind_detail":"motorway","min_zoom":4.0,"id":9472},"arcs":[184]},{"type":"LineString","properties":{"source":"naturalearthdata.com","kind":"minor_road","sort_rank":355,"kind_detail":"tertiary","min_zoom":6.0,"id":30934},"arcs":[185]},{"type":"LineString","properties":{"source":"naturalearthdata.com","kind":"minor_road","sort_rank":355,"kind_detail":"tertiary","min_zoom":5.0,"id":30967},"arcs":[186]},{"type":"LineString","properties":{"source":"naturalearthdata.com","kind":"minor_road","sort_rank":355,"kind_detail":"tertiary","min_zoom":6.0,"id":31013},"arcs":[187]},{"type":"LineString","properties":{"source":"naturalearthdata.com","kind":"minor_road","sort_rank":355,"kind_detail":"tertiary","min_zoom":6.0,"id":31041},"arcs":[188]},{"type":"LineString","properties":{"source":"naturalearthdata.com","kind":"highway","sort_rank":383,"kind_detail":"motorway","min_zoom":4.0,"id":31153},"arcs":[189]},{"type":"LineString","properties":{"source":"naturalearthdata.com","kind":"minor_road","sort_rank":355,"kind_detail":"tertiary","min_zoom":6.0,"id":31165},"arcs":[190]},{"type":"LineString","properties":{"source":"naturalearthdata.com","kind":"minor_road","sort_rank":355,"kind_detail":"tertiary","min_zoom":5.0,"id":31760},"arcs":[191]},{"type":"LineString","properties":{"source":"naturalearthdata.com","kind":"minor_road","sort_rank":355,"kind_detail":"tertiary","min_zoom":6.0,"id":31824},"arcs":[192]},{"type":"LineString","properties":{"source":"naturalearthdata.com","kind":"minor_road","kind_detail":"tertiary","sort_rank":355,"landuse_kind":"urban_area","min_zoom":6.0,"id":31866},"arcs":[193]},{"type":"LineString","properties":{"source":"naturalearthdata.com","kind":"minor_road","sort_rank":355,"kind_detail":"tertiary","min_zoom":6.0,"id":31866},"arcs":[194]},{"type":"LineString","properties":{"source":"naturalearthdata.com","kind":"minor_road","kind_detail":"tertiary","sort_rank":355,"landuse_kind":"urban_area","min_zoom":6.0,"id":31953},"arcs":[195]},{"type":"LineString","properties":{"source":"naturalearthdata.com","kind":"minor_road","sort_rank":355,"kind_detail":"tertiary","min_zoom":6.0,"id":31953},"arcs":[196]},{"type":"LineString","properties":{"source":"naturalearthdata.com","kind":"minor_road","sort_rank":355,"kind_detail":"tertiary","min_zoom":5.0,"id":31989},"arcs":[197]},{"type":"MultiLineString","properties":{"source":"naturalearthdata.com","kind":"highway","kind_detail":"motorway","sort_rank":383,"landuse_kind":"urban_area","min_zoom":5.0,"id":32012},"arcs":[[198],[199]]},{"type":"LineString","properties":{"source":"naturalearthdata.com","kind":"highway","sort_rank":383,"kind_detail":"motorway","min_zoom":5.0,"id":32012},"arcs":[200]},{"type":"LineString","properties":{"source":"naturalearthdata.com","kind":"minor_road","kind_detail":"tertiary","sort_rank":355,"landuse_kind":"urban_area","min_zoom":5.0,"id":32032},"arcs":[201]},{"type":"LineString","properties":{"source":"naturalearthdata.com","kind":"minor_road","kind_detail":"tertiary","sort_rank":355,"landuse_kind":"urban_area","min_zoom":5.0,"id":32062},"arcs":[202]},{"type":"LineString","properties":{"source":"naturalearthdata.com","kind":"minor_road","sort_rank":355,"kind_detail":"tertiary","min_zoom":5.0,"id":32062},"arcs":[203]},{"type":"LineString","properties":{"source":"naturalearthdata.com","kind":"minor_road","kind_detail":"tertiary","sort_rank":355,"landuse_kind":"urban_area","min_zoom":6.0,"id":32088},"arcs":[204]},{"type":"LineString","properties":{"source":"naturalearthdata.com","kind":"minor_road","kind_detail":"tertiary","sort_rank":355,"landuse_kind":"urban_area","min_zoom":5.0,"id":32092},"arcs":[205]},{"type":"LineString","properties":{"source":"naturalearthdata.com","kind":"minor_road","kind_detail":"tertiary","sort_rank":355,"landuse_kind":"urban_area","min_zoom":6.0,"id":32138},"arcs":[206]},{"type":"MultiLineString","properties":{"source":"naturalearthdata.com","kind":"highway","kind_detail":"motorway","sort_rank":383,"landuse_kind":"urban_area","min_zoom":3.0,"id":32139},"arcs":[[207],[208]]},{"type":"LineString","properties":{"source":"naturalearthdata.com","kind":"highway","sort_rank":383,"kind_detail":"motorway","min_zoom":3.0,"id":32139},"arcs":[209]},{"type":"MultiLineString","properties":{"source":"naturalearthdata.com","kind":"minor_road","kind_detail":"tertiary","sort_rank":355,"landuse_kind":"urban_area","min_zoom":5.0,"id":32149},"arcs":[[210],[211]]},{"type":"LineString","properties":{"source":"naturalearthdata.com","kind":"minor_road","sort_rank":355,"kind_detail":"tertiary","min_zoom":5.0,"id":32149},"arcs":[212]},{"type":"MultiLineString","properties":{"source":"naturalearthdata.com","kind":"highway","kind_detail":"motorway","sort_rank":383,"landuse_kind":"urban_area","min_zoom":6.0,"id":32182},"arcs":[[213],[214]]},{"type":"LineString","properties":{"source":"naturalearthdata.com","kind":"highway","sort_rank":383,"kind_detail":"motorway","min_zoom":6.0,"id":32182},"arcs":[215]},{"type":"LineString","properties":{"source":"naturalearthdata.com","kind":"minor_road","kind_detail":"tertiary","sort_rank":355,"landuse_kind":"urban_area","min_zoom":5.0,"id":32218},"arcs":[216]},{"type":"LineString","properties":{"source":"naturalearthdata.com","kind":"minor_road","kind_detail":"tertiary","sort_rank":355,"landuse_kind":"urban_area","min_zoom":5.0,"id":32218},"arcs":[217]},{"type":"LineString","properties":{"source":"naturalearthdata.com","kind":"minor_road","sort_rank":355,"kind_detail":"tertiary","min_zoom":5.0,"id":32218},"arcs":[218]},{"type":"LineString","properties":{"source":"naturalearthdata.com","kind":"minor_road","kind_detail":"tertiary","sort_rank":355,"landuse_kind":"urban_area","min_zoom":5.0,"id":32304},"arcs":[219]},{"type":"LineString","properties":{"source":"naturalearthdata.com","kind":"minor_road","sort_rank":355,"kind_detail":"tertiary","min_zoom":5.0,"id":32304},"arcs":[220]},{"type":"MultiLineString","properties":{"source":"naturalearthdata.com","kind":"highway","kind_detail":"motorway","sort_rank":383,"landuse_kind":"urban_area","min_zoom":3.0,"id":32349},"arcs":[[221],[222],[223],[224]]},{"type":"MultiLineString","properties":{"source":"naturalearthdata.com","kind":"highway","sort_rank":383,"kind_detail":"motorway","min_zoom":3.0,"id":32349},"arcs":[[225],[226],[227]]},{"type":"LineString","properties":{"source":"naturalearthdata.com","kind":"highway","kind_detail":"motorway","sort_rank":383,"landuse_kind":"urban_area","min_zoom":3.0,"id":32487},"arcs":[228]},{"type":"LineString","properties":{"source":"naturalearthdata.com","kind":"highway","kind_detail":"motorway","sort_rank":383,"landuse_kind":"urban_area","min_zoom":3.0,"id":32487},"arcs":[229]},{"type":"LineString","properties":{"source":"naturalearthdata.com","kind":"highway","sort_rank":383,"kind_detail":"motorway","min_zoom":3.0,"id":32487},"arcs":[230]},{"type":"LineString","properties":{"source":"naturalearthdata.com","kind":"minor_road","kind_detail":"tertiary","sort_rank":355,"landuse_kind":"nature_reserve","min_zoom":5.0,"id":32500},"arcs":[231]},{"type":"LineString","properties":{"source":"naturalearthdata.com","kind":"minor_road","kind_detail":"tertiary","sort_rank":355,"landuse_kind":"national_park","min_zoom":5.0,"id":32500},"arcs":[232]},{"type":"LineString","properties":{"source":"naturalearthdata.com","kind":"minor_road","sort_rank":355,"kind_detail":"tertiary","min_zoom":5.0,"id":32500},"arcs":[233]},{"type":"LineString","properties":{"source":"naturalearthdata.com","kind":"minor_road","kind_detail":"tertiary","sort_rank":355,"landuse_kind":"urban_area","min_zoom":5.0,"id":32511},"arcs":[234]},{"type":"LineString","properties":{"source":"naturalearthdata.com","kind":"minor_road","sort_rank":355,"kind_detail":"tertiary","min_zoom":5.0,"id":32511},"arcs":[235]},{"type":"MultiLineString","properties":{"source":"naturalearthdata.com","kind":"minor_road","kind_detail":"tertiary","sort_rank":355,"landuse_kind":"nature_reserve","min_zoom":5.0,"id":32522},"arcs":[[236],[237],[238]]},{"type":"MultiLineString","properties":{"source":"naturalearthdata.com","kind":"minor_road","kind_detail":"tertiary","sort_rank":355,"landuse_kind":"national_park","min_zoom":5.0,"id":32522},"arcs":[[239],[240]]},{"type":"LineString","properties":{"source":"naturalearthdata.com","kind":"minor_road","kind_detail":"tertiary","sort_rank":355,"landuse_kind":"nature_reserve","min_zoom":5.0,"id":32523},"arcs":[241]},{"type":"LineString","properties":{"source":"naturalearthdata.com","kind":"minor_road","sort_rank":355,"kind_detail":"tertiary","min_zoom":5.0,"id":32523},"arcs":[242]},{"type":"MultiLineString","properties":{"source":"naturalearthdata.com","kind":"minor_road","kind_detail":"tertiary","sort_rank":355,"landuse_kind":"urban_area","min_zoom":5.0,"id":32528},"arcs":[[243],[244]]},{"type":"LineString","properties":{"source":"naturalearthdata.com","kind":"minor_road","sort_rank":355,"kind_detail":"tertiary","min_zoom":5.0,"id":32528},"arcs":[245]},{"type":"LineString","properties":{"source":"naturalearthdata.com","kind":"highway","kind_detail":"motorway","sort_rank":383,"landuse_kind":"urban_area","min_zoom":3.0,"id":32544},"arcs":[246]},{"type":"LineString","properties":{"source":"naturalearthdata.com","kind":"minor_road","kind_detail":"tertiary","sort_rank":355,"landuse_kind":"nature_reserve","min_zoom":5.0,"id":32618},"arcs":[247]},{"type":"LineString","properties":{"source":"naturalearthdata.com","kind":"minor_road","kind_detail":"tertiary","sort_rank":355,"landuse_kind":"urban_area","min_zoom":5.0,"id":32618},"arcs":[248]},{"type":"MultiLineString","properties":{"source":"naturalearthdata.com","kind":"minor_road","sort_rank":355,"kind_detail":"tertiary","min_zoom":5.0,"id":32618},"arcs":[[249],[250]]},{"type":"LineString","properties":{"source":"naturalearthdata.com","kind":"highway","kind_detail":"motorway","sort_rank":383,"landuse_kind":"urban_area","min_zoom":3.0,"id":32658},"arcs":[251]},{"type":"LineString","properties":{"source":"naturalearthdata.com","kind":"highway","kind_detail":"motorway","sort_rank":383,"landuse_kind":"urban_area","min_zoom":3.0,"id":32672},"arcs":[252]},{"type":"MultiLineString","properties":{"source":"naturalearthdata.com","kind":"highway","kind_detail":"motorway","sort_rank":383,"landuse_kind":"urban_area","min_zoom":3.0,"id":32826},"arcs":[[253],[254]]},{"type":"LineString","properties":{"source":"naturalearthdata.com","kind":"highway","sort_rank":383,"kind_detail":"motorway","min_zoom":3.0,"id":32826},"arcs":[255]},{"type":"LineString","properties":{"source":"naturalearthdata.com","kind":"minor_road","sort_rank":355,"kind_detail":"tertiary","min_zoom":5.0,"id":33046},"arcs":[256]},{"type":"LineString","properties":{"source":"naturalearthdata.com","kind":"highway","kind_detail":"motorway","sort_rank":383,"landuse_kind":"urban_area","min_zoom":3.0,"id":33070},"arcs":[257]},{"type":"LineString","properties":{"source":"naturalearthdata.com","kind":"highway","kind_detail":"motorway","sort_rank":383,"landuse_kind":"urban_area","min_zoom":3.0,"id":33094},"arcs":[258]},{"type":"LineString","properties":{"source":"naturalearthdata.com","kind":"minor_road","kind_detail":"tertiary","sort_rank":355,"landuse_kind":"urban_area","min_zoom":5.0,"id":33234},"arcs":[259]},{"type":"LineString","properties":{"source":"naturalearthdata.com","kind":"minor_road","sort_rank":355,"kind_detail":"tertiary","min_zoom":5.0,"id":33234},"arcs":[260]},{"type":"LineString","properties":{"source":"naturalearthdata.com","kind":"minor_road","kind_detail":"tertiary","sort_rank":355,"landuse_kind":"urban_area","min_zoom":5.0,"id":33248},"arcs":[261]},{"type":"LineString","properties":{"source":"naturalearthdata.com","kind":"minor_road","sort_rank":355,"kind_detail":"tertiary","min_zoom":5.0,"id":33248},"arcs":[262]},{"type":"LineString","properties":{"source":"naturalearthdata.com","kind":"minor_road","kind_detail":"tertiary","sort_rank":355,"landuse_kind":"urban_area","min_zoom":5.0,"id":33268},"arcs":[263]},{"type":"LineString","properties":{"source":"naturalearthdata.com","kind":"minor_road","sort_rank":355,"kind_detail":"tertiary","min_zoom":5.0,"id":33268},"arcs":[264]},{"type":"LineString","properties":{"source":"naturalearthdata.com","kind":"highway","kind_detail":"motorway","sort_rank":383,"landuse_kind":"urban_area","min_zoom":3.0,"id":33313},"arcs":[265]},{"type":"LineString","properties":{"source":"naturalearthdata.com","kind":"minor_road","kind_detail":"tertiary","sort_rank":355,"landuse_kind":"urban_area","min_zoom":5.0,"id":33314},"arcs":[266]},{"type":"LineString","properties":{"source":"naturalearthdata.com","kind":"minor_road","kind_detail":"tertiary","sort_rank":355,"landuse_kind":"urban_area","min_zoom":5.0,"id":33315},"arcs":[267]},{"type":"LineString","properties":{"source":"naturalearthdata.com","kind":"major_road","kind_detail":"secondary","sort_rank":379,"landuse_kind":"urban_area","min_zoom":3.0,"id":33328},"arcs":[268]},{"type":"LineString","properties":{"source":"naturalearthdata.com","kind":"major_road","sort_rank":379,"kind_detail":"secondary","min_zoom":3.0,"id":33328},"arcs":[269]},{"type":"LineString","properties":{"source":"naturalearthdata.com","kind":"minor_road","sort_rank":355,"kind_detail":"tertiary","min_zoom":5.0,"id":33501},"arcs":[270]},{"type":"LineString","properties":{"source":"naturalearthdata.com","kind":"minor_road","sort_rank":355,"kind_detail":"tertiary","min_zoom":5.0,"id":33521},"arcs":[271]},{"type":"LineString","properties":{"source":"naturalearthdata.com","kind":"minor_road","kind_detail":"tertiary","sort_rank":355,"landuse_kind":"urban_area","min_zoom":5.0,"id":33522},"arcs":[272]},{"type":"MultiLineString","properties":{"source":"naturalearthdata.com","kind":"minor_road","kind_detail":"tertiary","sort_rank":355,"landuse_kind":"urban_area","min_zoom":5.0,"id":33522},"arcs":[[273],[274]]},{"type":"MultiLineString","properties":{"source":"naturalearthdata.com","kind":"minor_road","sort_rank":355,"kind_detail":"tertiary","min_zoom":5.0,"id":33522},"arcs":[[275],[276],[277]]},{"type":"LineString","properties":{"source":"naturalearthdata.com","kind":"highway","kind_detail":"motorway","sort_rank":383,"landuse_kind":"urban_area","min_zoom":4.0,"id":48615},"arcs":[278]},{"type":"LineString","properties":{"source":"naturalearthdata.com","kind":"highway","sort_rank":383,"kind_detail":"motorway","min_zoom":4.0,"id":48616},"arcs":[279]},{"type":"LineString","properties":{"source":"naturalearthdata.com","kind":"highway","sort_rank":383,"kind_detail":"motorway","min_zoom":4.0,"id":48617},"arcs":[280]},{"type":"LineString","properties":{"source":"naturalearthdata.com","kind":"major_road","sort_rank":379,"kind_detail":"secondary","min_zoom":4.0,"id":48618},"arcs":[281]},{"type":"MultiLineString","properties":{"source":"naturalearthdata.com","kind":"highway","kind_detail":"motorway","sort_rank":383,"landuse_kind":"urban_area","min_zoom":4.0,"id":48619},"arcs":[[282],[283]]},{"type":"LineString","properties":{"source":"naturalearthdata.com","kind":"highway","sort_rank":383,"kind_detail":"motorway","min_zoom":4.0,"id":48619},"arcs":[284]},{"type":"LineString","properties":{"source":"naturalearthdata.com","kind":"highway","kind_detail":"motorway","sort_rank":383,"landuse_kind":"urban_area","min_zoom":4.0,"id":48620},"arcs":[285]},{"type":"LineString","properties":{"source":"naturalearthdata.com","kind":"highway","kind_detail":"motorway","sort_rank":383,"landuse_kind":"urban_area","min_zoom":4.0,"id":48620},"arcs":[286]},{"type":"LineString","properties":{"source":"naturalearthdata.com","kind":"highway","kind_detail":"motorway","sort_rank":383,"landuse_kind":"urban_area","min_zoom":4.0,"id":48620},"arcs":[287]},{"type":"MultiLineString","properties":{"source":"naturalearthdata.com","kind":"highway","sort_rank":383,"kind_detail":"motorway","min_zoom":4.0,"id":48620},"arcs":[[288],[289]]}]},"earth":{"type":"GeometryCollection","geometries":[{"type":"MultiPolygon","properties":{"sort_rank":10,"source":"naturalearthdata.com","min_zoom":0.0,"kind":"earth","area":1030803628905},"arcs":[[[290]],[[291]],[[292]],[[293]],[[294]],[[295]],[[296]],[[297]],[[298]],[[299]],[[300]],[[301]],[[302]],[[303]],[[304]],[[305]],[[306]],[[307]],[[308]],[[309]]]}]},"landuse":{"type":"GeometryCollection","geometries":[{"type":"Polygon","properties":{"kind":"nature_reserve","protect_class":"4","area":576350016,"sort_rank":23,"operator":"\u884c\u653f\u9662\u8fb2\u696d\u59d4\u54e1\u6703\u6797\u52d9\u5c40\u5c4f\u6771\u6797\u5340\u7ba1\u7406\u8655","source":"openstreetmap.org","min_zoom":6.0,"tier":2,"id":-7033434,"osm_relation":true},"arcs":[[310]]},{"type":"MultiPolygon","properties":{"kind":"nature_reserve","tier":2,"protect_class":"6","area":1034993761,"sort_rank":23,"source":"openstreetmap.org","min_zoom":6.0,"operator":"\u5167\u653f\u90e8\u71df\u5efa\u7f72","osm_relation":true},"arcs":[[[311]],[[312]],[[313]]]},{"type":"Polygon","properties":{"kind":"nature_reserve","protect_class":"1","area":563694016,"sort_rank":23,"operator":"\u884c\u653f\u9662\u8fb2\u696d\u59d4\u54e1\u6703\u6797\u52d9\u5c40\u53f0\u6771\u3001\u5c4f\u6771\u6797\u5340\u7ba1\u7406\u8655","source":"openstreetmap.org","min_zoom":6.0,"tier":2,"id":-7001875,"osm_relation":true},"arcs":[[314]]},{"type":"Polygon","properties":{"kind":"nature_reserve","protect_class":"6","area":378617984,"sort_rank":23,"operator":"\u5167\u653f\u90e8\u71df\u5efa\u7f72\u53f0\u6c5f\u570b\u5bb6\u516c\u5712\u7ba1\u7406\u8655","source":"openstreetmap.org","min_zoom":6.0,"tier":2,"id":-7144212,"osm_relation":true},"arcs":[[315]]},{"type":"Polygon","properties":{"kind":"national_park","protect_class":"2","area":384796000,"sort_rank":18,"operator":"\u5167\u653f\u90e8\u71df\u5efa\u7f72\u58be\u4e01\u570b\u5bb6\u516c\u5712\u7ba1\u7406\u8655","source":"openstreetmap.org","min_zoom":3.0,"tier":1,"id":-4129686,"osm_relation":true},"arcs":[[316]]},{"type":"Polygon","properties":{"kind":"nature_reserve","tier":2,"protect_class":"1","area":799537330,"sort_rank":23,"source":"openstreetmap.org","min_zoom":6.0,"operator":"\u5167\u653f\u90e8\u71df\u5efa\u7f72\u7389\u5c71\u570b\u5bb6\u516c\u5712\u7ba1\u7406\u8655","osm_relation":true},"arcs":[[317],[318],[319],[320],[321]]},{"type":"MultiPolygon","properties":{"source":"openstreetmap.org","kind":"park","tier":2,"area":238083446,"sort_rank":24,"min_zoom":6.0,"osm_relation":true},"arcs":[[[322]]]},{"type":"Polygon","properties":{"kind":"national_park","protect_class":"2","area":436432992,"sort_rank":18,"operator":"\u5167\u653f\u90e8\u71df\u5efa\u7f72\u53f0\u6c5f\u570b\u5bb6\u516c\u5712\u7ba1\u7406\u8655","source":"openstreetmap.org","min_zoom":3.0,"tier":1,"id":-4074850,"osm_relation":true},"arcs":[[323],[324]]},{"type":"Polygon","properties":{"kind":"nature_reserve","protect_class":"6","area":158204000,"sort_rank":23,"operator":"\u884c\u653f\u9662\u8fb2\u696d\u59d4\u54e1\u6703\u6797\u52d9\u5c40\u7f85\u6771\u6797\u5340\u7ba1\u7406\u8655","source":"openstreetmap.org","min_zoom":6.0,"tier":2,"id":-2695034,"osm_relation":true},"arcs":[[325]]},{"type":"Polygon","properties":{"kind":"national_park","protect_class":"2","area":1230450048,"sort_rank":18,"operator":"\u5167\u653f\u90e8\u71df\u5efa\u7f72\u7389\u5c71\u570b\u5bb6\u516c\u5712\u7ba1\u7406\u8655","source":"openstreetmap.org","min_zoom":3.0,"tier":1,"id":-4091639,"osm_relation":true},"arcs":[[326]]},{"type":"Polygon","properties":{"kind":"nature_reserve","protect_class":"4","area":679608000,"sort_rank":23,"operator":"\u884c\u653f\u9662\u8fb2\u696d\u59d4\u54e1\u6703\u6797\u52d9\u5c40\u65b0\u7af9\u3001\u7f85\u6771\u6797\u5340\u7ba1\u7406\u8655","source":"openstreetmap.org","min_zoom":6.0,"tier":2,"id":-7023522,"osm_relation":true},"arcs":[[327],[328]]},{"type":"Polygon","properties":{"kind":"nature_reserve","protect_class":"1","area":394859350,"sort_rank":23,"operator":"\u5167\u653f\u90e8\u71df\u5efa\u7f72\u96ea\u9738\u570b\u5bb6\u516c\u5712\u7ba1\u7406\u8655","source":"openstreetmap.org","min_zoom":6.0,"tier":2,"osm_relation":true},"arcs":[[329]]},{"type":"Polygon","properties":{"kind":"nature_reserve","protect_class":"2","area":194322000,"sort_rank":23,"operator":"\u5167\u653f\u90e8\u71df\u5efa\u7f72\u6d77\u6d0b\u570b\u5bb6\u516c\u5712\u7ba1\u7406\u8655","source":"openstreetmap.org","min_zoom":6.0,"tier":2,"id":-7117619,"osm_relation":true},"arcs":[[330],[331],[332],[333],[334]]},{"type":"MultiPolygon","properties":{"source":"naturalearthdata.com","kind":"urban_area","name":"","area":56453918802,"sort_rank":11,"min_zoom":4.0},"arcs":[[[335]],[[336]],[[337]],[[338]],[[339]],[[340],[341]],[[342]],[[343]],[[344]],[[345],[346],[347],[348],[349],[350]],[[351]],[[352]],[[353]],[[354]],[[355]],[[356]],[[357]],[[358]],[[359]],[[360]],[[361]],[[362]],[[363]],[[364]],[[365]],[[366]],[[367]],[[368]],[[369]],[[370]],[[371]],[[372],[373]],[[374]],[[375]],[[376]]]},{"type":"Polygon","properties":{"kind":"nature_reserve","protect_class":"6","area":1103529984,"sort_rank":23,"operator":"\u5167\u653f\u90e8\u71df\u5efa\u7f72","source":"openstreetmap.org","min_zoom":4.0,"tier":2,"id":-7073701,"osm_relation":true},"arcs":[[377],[378]]},{"type":"Polygon","properties":{"kind":"nature_reserve","protect_class":"4","area":836854976,"sort_rank":23,"operator":"\u884c\u653f\u9662\u8fb2\u696d\u59d4\u54e1\u6703\u3001\u82d7\u6817\u7e23\u653f\u5e9c\u3001\u53f0\u4e2d\u5e02\u653f\u5e9c\u3001\u5f70\u5316\u7e23\u653f\u5e9c\u3001\u96f2\u6797\u7e23\u653f\u5e9c","source":"openstreetmap.org","min_zoom":6.0,"tier":2,"id":-7057532,"osm_relation":true},"arcs":[[379]]},{"type":"Polygon","properties":{"kind":"national_park","protect_class":"2","area":1183789952,"sort_rank":18,"operator":"\u5167\u653f\u90e8\u71df\u5efa\u7f72\u592a\u9b6f\u95a3\u570b\u5bb6\u516c\u5712\u7ba1\u7406\u8655","source":"openstreetmap.org","min_zoom":3.0,"tier":1,"id":-5240045,"osm_relation":true},"arcs":[[380]]},{"type":"Polygon","properties":{"kind":"national_park","protect_class":"2","area":932593984,"sort_rank":18,"operator":"\u5167\u653f\u90e8\u71df\u5efa\u7f72\u96ea\u9738\u570b\u5bb6\u516c\u5712\u7ba1\u7406\u8655","source":"openstreetmap.org","min_zoom":3.0,"tier":1,"id":-3507503,"osm_relation":true},"arcs":[[381]]},{"type":"Polygon","properties":{"kind":"nature_reserve","protect_class":"2","area":393216992,"sort_rank":23,"operator":"\u5167\u653f\u90e8\u71df\u5efa\u7f72\u592a\u9b6f\u95a3\u570b\u5bb6\u516c\u5712\u7ba1\u7406\u8655","source":"openstreetmap.org","min_zoom":6.0,"tier":2,"id":-7238804,"osm_relation":true},"arcs":[[382],[383],[384],[385],[386],[387]]},{"type":"Polygon","properties":{"kind":"nature_reserve","protect_class":"4","area":824659968,"sort_rank":23,"operator":"\u884c\u653f\u9662\u8fb2\u696d\u59d4\u54e1\u6703\u6797\u52d9\u5c40\u53f0\u6771\u6797\u5340\u7ba1\u7406\u8655","source":"openstreetmap.org","min_zoom":6.0,"tier":2,"id":-7033251,"osm_relation":true},"arcs":[[388]]},{"type":"Polygon","properties":{"kind":"national_park","protect_class":"2","area":420956992,"sort_rank":18,"operator":"\u5167\u653f\u90e8\u71df\u5efa\u7f72\u6d77\u6d0b\u570b\u5bb6\u516c\u5712\u7ba1\u7406\u8655","source":"openstreetmap.org","min_zoom":3.0,"tier":1,"id":-3898969,"osm_relation":true},"arcs":[[389]]},{"type":"MultiPolygon","properties":{"kind":"nature_reserve","protect_class":"1","area":650201114,"sort_rank":23,"operator":"\u5167\u653f\u90e8\u71df\u5efa\u7f72\u592a\u9b6f\u95a3\u570b\u5bb6\u516c\u5712\u7ba1\u7406\u8655","source":"openstreetmap.org","min_zoom":6.0,"tier":2,"osm_relation":true},"arcs":[[[390]],[[391]]]}]}},"type":"Topology","transform":{"translate":[118.125,21.9430455334],"scale":[0.001373291,0.001249043]},"arcs":[[[2123,2366],[34,29],[65,-17],[68,51]],[[2632,2564]],[[2632,2564],[-2,5]],[[2631,2562],[0,2]],[[2631,2564],[1,0]],[[2632,2564]],[[2632,2564]],[[2631,2564],[1,0]],[[2632,2564],[0,1]],[[2631,2564],[1,0]],[[2632,2564]],[[2634,2567],[1,0]],[[2635,2567],[4,4]],[[2640,2563],[-5,4]],[[1806,476],[14,-8]],[[867,3342],[24,-9]],[[903,3299],[-12,34]],[[903,3299],[29,-20]],[[907,3286],[11,-11],[14,4]],[[932,3279],[82,48],[72,186],[-33,113],[17,248],[52,38],[291,68],[61,55],[36,61]],[[2620,2466],[37,13]],[[2657,2479],[2,2]],[[2659,2481],[1,3]],[[2663,2531],[37,-5],[-40,-42]],[[1680,1291],[-1,0],[1,-1],[0,1]],[[1765,571],[-28,3]],[[1799,548],[-32,22]],[[1798,454],[5,89]],[[1803,544],[-2,1]],[[0,2180],[37,19],[140,12],[73,90],[34,116],[103,36],[90,75],[73,135],[115,44],[76,124],[81,41],[76,87],[43,140],[-26,169]],[[915,3268],[-10,23]],[[867,3342],[31,-13],[7,-38]],[[905,3291],[14,-13],[-4,-10]],[[1765,486],[40,-11]],[[1779,500],[28,0]],[[2123,2366],[34,29],[65,-17],[68,51]],[[2285,2426],[-63,-48],[-65,17],[-34,-30]],[[1817,597],[-24,-43]],[[852,3348],[-6,1],[-2,0],[-1,0]],[[843,3349],[-116,62],[-154,37],[-153,159],[-288,98],[-58,58],[39,307],[-11,26]],[[843,3349],[7,-2]],[[2285,2426],[-63,-48],[-65,17],[-34,-30]],[[2402,2441],[0,-1],[1,0],[0,1],[-1,0]],[[1755,1413]],[[1774,1419]],[[4096,1871],[0,-1871],[-2120,0],[-2,12],[0,23],[11,11],[9,7],[7,17],[5,20],[-3,146],[-1,41],[5,46],[4,16],[26,47],[14,47],[5,34],[9,17],[22,28],[7,15],[15,37],[6,8],[7,4],[30,33],[45,30],[13,13],[13,17],[6,10],[3,9],[1,8],[-2,17],[1,8],[9,10],[39,33],[3,8],[29,42],[6,16],[8,37],[13,23],[5,17],[2,6],[6,6],[14,10],[5,6],[14,28],[3,27],[-1,28],[4,32],[6,17],[7,14],[20,26],[6,14],[13,74],[30,179],[14,27],[22,111],[17,48],[9,45],[1,18],[2,10],[11,16],[3,10],[-1,9],[-2,4],[-3,3],[-5,6],[-5,14],[0,13],[4,13],[20,30],[8,34],[8,16],[7,7],[19,14],[2,4],[-2,6],[4,6],[13,10],[17,24],[16,16],[4,6],[0,3],[-2,4],[-3,5],[-2,2],[-3,5],[1,4],[3,3],[2,5],[1,18],[2,9],[4,6],[3,7],[-1,20],[1,8],[19,23],[17,10],[7,6],[-1,8],[-5,7],[-2,9],[1,7],[16,9],[3,16],[-4,18],[-7,13],[5,4],[7,2],[9,1],[9,-1],[0,5],[-22,4],[-18,11],[-9,18],[-1,22],[4,11],[1,11],[-9,43],[-1,20],[1,21],[5,22],[6,18],[8,14],[52,62],[15,14],[58,28],[-6,7],[-10,5],[-12,3],[-10,1],[-19,-3],[-6,3],[-7,11],[-7,24],[-2,15],[1,8],[5,10],[-9,5],[-127,31],[-11,4],[-5,5],[-2,2],[-10,8],[-3,3],[0,6],[3,5],[3,4],[0,2],[-6,2],[-9,-1],[-7,-2],[-3,-2],[-10,21],[-28,39],[-13,9],[-29,4],[-31,-7],[-27,-14],[-18,-16],[-9,-16],[-5,-15],[-3,-2],[-5,-3],[-5,-4],[-2,-7],[8,-5],[16,-17],[10,-15],[-9,-4],[-5,4],[-3,8],[-5,7],[-10,3],[-8,0],[-7,-1],[-5,-3],[-17,-14],[-13,-5],[-31,-6],[-56,-10],[-25,-8],[-12,-7],[-10,-9],[-12,-8],[-51,-16],[-20,-17],[-19,-23],[-25,-39],[-6,-9],[-6,-17],[-2,-8],[1,-4],[-7,-2],[-8,-6],[-5,-8],[-3,-8],[-1,-11],[-4,-6],[-1,0],[-4,-5],[-5,-8],[3,-6],[2,-5],[0,-5],[-2,-5],[-6,-8],[-15,-31],[-4,-15],[-10,-5],[-2,-5],[-6,-16],[-10,-10],[-7,-11],[2,-15],[-20,4],[-15,-4],[-13,-10],[-11,-12],[-4,-7],[-3,-7],[-6,-6],[-18,-5],[-5,-8],[-4,-17],[-16,-29],[-7,-15],[-2,-19],[-5,-11],[-20,-22],[-37,-41],[-9,-15],[-8,-28],[-26,-45],[-7,-34],[-7,-18],[-9,-7],[-2,-9],[-1,-2],[-32,-37],[-7,-7],[-3,-8],[-1,-28],[-4,-9],[-14,-11],[-3,-7],[-2,-9],[-4,-4],[-6,-3],[-7,-4],[-9,-9],[-7,-13],[-16,-45],[-11,-21],[-8,-22],[-6,-8],[-19,-19],[-3,-8],[-5,-20],[-4,-8],[-16,-12],[-2,-4],[-3,-8],[-17,-22],[-3,-9],[-7,-24],[-3,-28],[-12,-22],[-8,-27],[-2,-34],[1,-46],[-13,-14],[0,-25],[24,2],[-11,-15],[-3,-7],[-4,-6],[-2,-5],[9,-4],[0,-5],[-6,-11],[12,-22],[10,-29],[-15,0],[-10,-1],[-7,-16],[0,-9],[7,0],[5,-1],[6,4],[3,-9],[-4,2],[-9,-5],[-11,0],[-4,-12],[10,-7],[-7,-1],[-4,-5],[-10,-25],[-1,-7],[1,-6],[-6,-7],[-4,-11],[-2,-8],[3,-9],[3,-11],[-4,-7],[-8,-3],[-7,-4],[-1,-11],[7,-9],[12,-10],[2,-8],[-21,0],[0,-5],[25,-7],[4,-4],[-2,-9],[-9,-2],[-10,-2],[-8,-4],[-4,-7],[-1,-9],[2,-10],[8,-7],[7,2],[5,8],[7,6],[11,-5],[2,-7],[-1,-19],[3,-7],[10,0],[5,7],[2,10],[4,5],[17,-2],[3,-15],[-7,-17],[-13,-10],[11,-11],[5,-10],[2,-17],[6,-39],[2,-5],[8,-14],[2,-6],[3,-4],[4,-3],[1,-3],[0,-7],[-5,-10],[0,-8],[3,-13],[13,-29],[13,-21],[8,-16],[4,-16],[-3,-12],[-6,-13],[4,-13],[10,-12],[25,-23],[15,-17],[4,-9],[6,-12],[4,-20],[-35,43],[34,-48],[36,-29],[6,0],[5,2],[4,0],[8,-3],[6,-4],[14,-12],[12,-9],[28,-13],[12,-8],[2,-4],[3,-11],[3,-2],[3,-1],[9,-5],[22,-18],[6,-8],[12,-28],[15,-19],[5,-8],[55,-146],[-2,-8],[-6,-10],[-2,-9],[0,-30],[-1,-10],[0,-5],[1,-7],[15,-26],[-3,-20],[0,-7],[5,-4],[-1880,0],[0,1857],[1,0],[-1,2],[0,132],[8,0],[13,6],[5,16],[2,12],[6,5],[7,4],[5,8],[1,8],[-5,15],[-1,10],[-13,-2],[-19,3],[-9,4],[0,57],[4,6],[5,11],[3,19],[3,1],[4,0],[5,3],[2,25],[15,-17],[5,-12],[-3,-12],[-7,-14],[10,0],[11,-3],[9,-5],[0,-9],[-8,-4],[-9,2],[-8,-3],[0,-17],[9,-16],[18,-12],[17,2],[6,26],[10,-5],[7,4],[5,8],[3,10],[17,-7],[7,-1],[6,2],[19,-6],[21,6],[18,14],[12,14],[-15,38],[8,6],[8,11],[6,5],[3,-8],[-1,-25],[-1,-11],[-3,-11],[12,-2],[22,-11],[8,-3],[11,-2],[51,-32],[5,-7],[-12,-3],[-5,-2],[-3,-6],[0,-7],[1,-7],[1,-8],[3,-1],[3,3],[3,1],[18,5],[22,14],[19,18],[11,17],[2,18],[-8,3],[-10,1],[-5,9],[1,15],[1,13],[5,12],[8,12],[9,-8],[7,-10],[7,-4],[10,8],[15,24],[9,8],[11,4],[1,3],[11,22],[0,8],[-3,5],[-12,6],[-10,-5],[-7,0],[-3,7],[1,9],[-1,7],[-3,5],[-7,4],[-3,-6],[-8,-7],[-14,-9],[-5,0],[-7,0],[-5,0],[-3,-3],[-1,-5],[-4,4],[-11,23],[0,9],[2,10],[-1,11],[-5,10],[-29,24],[17,-9],[20,-5],[20,-1],[15,6],[1,10],[-8,9],[-11,8],[-5,6],[3,7],[13,13],[4,10],[7,-13],[4,-5],[4,-4],[-3,-8],[1,-10],[3,-6],[4,2],[2,7],[-2,27],[9,-8],[10,-11],[6,-13],[0,-12],[-3,-2],[-13,-5],[-4,-4],[-3,-10],[2,-6],[4,-4],[7,-3],[15,6],[19,6],[13,8],[-2,14],[11,4],[8,-2],[7,-5],[9,-3],[9,2],[21,8],[8,-2],[15,-10],[19,-5],[20,1],[18,6],[0,4],[-1,0],[-2,0],[-2,2],[2,3],[1,2],[0,1],[-3,4],[-26,-10],[-17,17],[-7,25],[8,12],[27,3],[11,-2],[4,-9],[5,-7],[12,2],[12,8],[6,11],[-3,-2],[-12,-4],[-7,21],[-3,13],[2,5],[5,5],[5,13],[3,13],[0,8],[-5,2],[-5,-10],[-7,-23],[-10,-6],[-10,-1],[-9,3],[-9,6],[5,6],[-29,9],[-13,6],[-13,13],[-8,14],[0,10],[7,9],[7,2],[13,4],[13,-3],[13,0],[10,2],[6,4],[3,3],[1,5],[0,14],[5,12],[12,16],[2,9],[-9,8],[-11,3],[-11,-2],[-8,-5],[-5,-7],[-4,13],[3,11],[-2,6],[-19,3],[-14,6],[8,13],[15,11],[8,0],[8,5],[47,15],[32,-4],[-2,-15],[-18,-4],[-14,-8],[-8,-14],[13,-4],[34,5],[17,-2],[8,-7],[0,-10],[-7,-14],[-18,-23],[-4,-14],[12,-13],[1,15],[5,12],[8,4],[11,-9],[-4,-5],[-7,-17],[18,-9],[7,-2],[-2,3],[-2,3],[-2,3],[-4,2],[6,9],[8,-2],[9,-5],[13,-2],[11,6],[3,6],[-5,4],[-9,-5],[-4,8],[-3,6],[-4,4],[-4,10],[-7,8],[-2,11],[11,14],[19,5],[8,-11],[8,-12],[8,-12],[13,4],[14,4],[12,5],[10,-2],[9,-12],[19,3],[5,8],[-11,34],[6,8],[31,-3],[15,3],[6,13],[-4,8],[-8,3],[-9,3],[-4,3],[-16,22],[-4,8],[5,0],[-3,4],[-4,3],[-8,4],[-3,-9],[-6,-1],[-8,4],[-8,6],[-1,-14],[-5,-14],[-6,-13],[-7,-8],[-11,-8],[-4,3],[-2,10],[-9,11],[8,8],[7,6],[16,8],[-15,33],[-6,0],[-2,-13],[-7,-10],[-7,-3],[-3,7],[-2,12],[-7,11],[-34,35],[-5,11],[10,5],[9,3],[24,15],[7,7],[9,6],[23,4],[10,4],[6,5],[17,24],[6,12],[2,25],[4,10],[24,6],[8,8],[-12,13],[13,6],[15,-2],[10,-7],[-3,-12],[6,-6],[3,4],[3,2],[8,5],[-18,-33],[-2,-8],[3,-11],[7,-5],[55,-9],[5,-3],[-2,-12],[-9,-25],[1,-10],[9,-6],[4,9],[4,13],[6,7],[28,0],[2,-1],[-2,-1],[-2,-8],[-6,-7],[-3,-6],[2,-5],[3,-3],[4,-2],[1,-3],[-1,-11],[-3,-14],[-5,-13],[-6,-9],[15,2],[16,0],[14,2],[5,10],[5,12],[-2,5],[-10,2],[-5,5],[-1,12],[1,13],[2,9],[5,-2],[2,-2],[3,-2],[3,4],[4,3],[5,3],[6,1],[0,-4],[10,-16],[2,-3],[-2,-6],[-6,-5],[-3,-5],[8,-14],[8,-24],[-5,-4],[-4,-5],[-3,-6],[-3,-7],[17,2],[38,9],[-7,3],[-5,2],[-13,1],[12,10],[7,12],[-1,14],[-8,18],[-6,4],[-7,-1],[-2,2],[7,9],[3,9],[-4,6],[-8,4],[-8,1],[0,5],[3,8],[-4,1],[-19,-4],[0,5],[7,2],[4,2],[9,7],[-7,0],[-6,1],[-11,5],[7,0],[5,2],[3,3],[4,6],[-15,4],[-3,11],[8,30],[-3,-6],[-5,-7],[-7,-4],[-7,2],[-11,7],[-5,-3],[-4,-8],[-3,-4],[-18,7],[-9,12],[-1,17],[3,19],[-12,-9],[-5,15],[-3,25],[-5,19],[11,-2],[4,-1],[6,-3],[7,6],[10,2],[12,0],[4,13],[9,0],[21,-13],[2,-7],[4,-1],[5,0],[4,2],[2,2],[2,2],[2,4],[1,23],[1,8],[15,17],[3,6],[-3,4],[-5,2],[-3,1],[2,19],[0,10],[-4,4],[-14,8],[-3,17],[-1,17],[-8,8],[5,10],[7,-6],[12,-27],[12,39],[5,6],[12,1],[11,5],[8,6],[7,9],[17,37],[3,10],[-2,8],[-3,6],[-15,16],[-20,-6],[-21,7],[-38,21],[-9,-3],[-26,-1],[-11,-7],[-1,-6],[-2,-15],[-2,-7],[-5,-6],[-36,-24],[-22,-11],[-24,-7],[-22,-1],[-13,3],[-24,11],[-30,5],[-6,3],[-3,22],[-4,9],[-15,18],[-6,12],[-6,26],[-4,9],[-10,9],[-17,-6],[-15,9],[-15,17],[-17,13],[0,5],[8,-2],[12,-6],[23,-16],[6,-4],[29,-5],[11,-4],[13,-10],[20,-21],[12,-7],[36,-3],[12,-5],[22,-16],[7,-3],[16,-4],[7,-4],[5,-5],[8,-14],[2,-3],[17,1],[11,12],[15,28],[18,26],[13,26],[18,22],[28,17],[-6,16],[6,8],[10,5],[5,7],[3,10],[9,7],[11,4],[12,3],[-3,9],[3,8],[-12,6],[-13,4],[15,14],[14,7],[15,2],[18,0],[10,1],[15,8],[8,2],[9,-3],[6,-5],[5,-3],[10,6],[-11,4],[-4,1],[12,16],[18,9],[21,-1],[16,-11],[8,4],[45,37],[0,6],[-11,-1],[-19,-8],[-10,-2],[-11,4],[-18,11],[-11,1],[8,12],[-4,7],[-8,8],[-7,12],[-20,-13],[-4,-4],[-4,-7],[-1,-9],[-4,-9],[-7,-8],[-12,6],[-4,-11],[-1,-25],[-8,-4],[-29,-4],[-10,0],[1,4],[2,9],[2,3],[-17,2],[-8,13],[0,59],[-5,6],[-6,6],[-6,3],[-4,-3],[-7,-6],[-16,-3],[-16,4],[-4,13],[3,9],[6,4],[15,3],[4,0],[11,-5],[4,2],[7,7],[4,2],[4,10],[5,3],[8,-5],[18,-26],[7,-4],[15,-2],[13,-7],[11,-10],[7,-19],[7,0],[15,5],[0,3],[-1,10],[1,3],[3,1],[9,-1],[3,0],[3,9],[1,7],[0,7],[-4,10],[-8,12],[-5,6],[-7,4],[4,3],[2,2],[1,3],[3,3],[-14,4],[-10,11],[-3,13],[6,11],[3,-4],[8,-7],[-2,7],[0,4],[2,11],[-10,5],[-17,3],[-9,3],[5,8],[0,5],[-5,3],[-10,-1],[6,0],[-21,-2],[-10,2],[-9,6],[-13,-8],[-14,-8],[-14,-8],[-10,-14],[-4,0],[-5,16],[-28,20],[-7,16],[-3,17],[3,4],[10,4],[7,-2],[23,-15],[5,19],[1,11],[-2,9],[-7,7],[-9,1],[-9,-1],[-9,4],[-3,5],[-2,9],[-1,9],[1,10],[4,8],[10,6],[6,8],[-3,9],[7,5],[9,2],[6,0],[12,-8],[1,-8],[-2,-9],[4,-13],[15,3],[13,-10],[12,-15],[11,-11],[12,-7],[9,-1],[4,5],[-2,11],[-5,5],[-8,4],[-19,20],[-4,7],[-2,11],[1,7],[2,11],[5,10],[4,4],[15,-7],[10,-17],[5,-19],[-2,-11],[0,-5],[9,-5],[10,1],[7,5],[3,12],[-1,12],[-2,8],[-1,8],[4,13],[9,14],[11,11],[16,6],[19,2],[-8,-15],[-14,-6],[-13,-7],[-4,-21],[8,4],[9,2],[9,-2],[9,-4],[-21,-12],[-7,-7],[-7,-50],[0,-13],[8,5],[12,14],[7,2],[16,-20],[2,-1],[2,-28],[17,2],[16,3],[-10,22],[10,19],[16,17],[8,22],[-8,18],[1,8],[15,4],[50,-5],[38,8],[9,-3],[-1,-9],[-33,-46],[-1,-3],[1,-3],[0,-3],[-3,-2],[-8,2],[-4,2],[0,1],[-8,-10],[-11,-23],[-7,-4],[2,-4],[2,-9],[2,-4],[-12,-4],[-17,-13],[-11,-5],[-30,-7],[-14,-6],[-11,-9],[-1,-6],[2,-15],[-1,-6],[-4,-3],[-5,1],[-4,0],[-3,-9],[3,-16],[8,-6],[27,0],[37,30],[1,13],[3,13],[6,10],[8,4],[40,0],[10,4],[37,24],[5,-5],[-7,-7],[-1,-7],[4,-4],[7,4],[6,5],[26,14],[0,6],[-10,-6],[-7,12],[-5,12],[-1,11],[4,10],[8,4],[9,0],[9,3],[4,8],[-5,10],[-10,2],[-12,0],[-9,6],[-1,12],[6,11],[9,10],[7,10],[-13,2],[-10,5],[-9,7],[-6,2],[-10,2],[-11,3],[-10,5],[-7,7],[1,18],[14,13],[8,10],[-17,9],[17,0],[7,-2],[6,-4],[4,-4],[3,-1],[9,0],[5,3],[5,3],[8,5],[-5,15],[9,6],[16,2],[15,-2],[24,-9],[6,-2],[7,2],[4,3],[3,3],[6,3],[-5,11],[3,4],[4,6],[3,2],[-6,9],[-7,1],[-9,-3],[-10,-2],[-9,1],[-28,15],[32,0],[17,2],[10,4],[5,-6],[13,12],[0,17],[-10,13],[-18,2],[0,6],[11,5],[6,7],[22,0],[1,-1],[1,1],[2532,0],[0,-2175],[-1,-10],[-5,-8],[-9,-3],[-9,6],[-7,4],[-7,-10],[-5,2],[-2,1],[-3,3],[-12,-22],[12,-9],[45,-3],[3,-1]],[[1617,311],[2,-8],[0,-1],[8,7],[5,4],[1,1],[7,5],[0,2],[1,1],[-3,5],[-1,2],[-1,0],[0,1],[-2,-1],[-6,0],[-8,-10],[-3,-8]],[[1391,899],[-2,4],[-2,0],[-1,-4],[5,-11],[6,-6],[2,3],[0,3],[-6,6],[-2,5]],[[1403,980],[0,1],[-11,-38],[8,20],[1,3],[3,14],[-1,0]],[[1421,1021],[0,5],[-2,0],[-10,-28],[12,23]],[[955,1022],[-8,2],[-10,-3],[-3,-4],[4,-13],[4,-4],[5,2],[4,7],[3,3],[1,4],[0,6]],[[943,1036],[-5,8],[-8,2],[-4,-3],[1,-7],[6,-7],[6,-2],[4,9]],[[1077,1045],[2,0],[2,0],[3,0],[-1,3],[0,1],[-1,2],[-2,0],[-5,-1],[0,-1],[-1,0],[3,-4]],[[1118,1048],[1,-4],[3,5],[3,4],[-2,1],[2,3],[-7,0],[-1,1],[0,-1],[-1,-5],[2,-4]],[[1428,1084],[-2,-29],[0,-1],[1,7],[2,23],[-1,0]],[[1446,1104],[4,6],[0,3],[-2,1],[-3,-4],[-2,-7],[-7,-8],[1,-3],[5,3],[4,9]],[[1448,1131],[5,8],[1,5],[-2,-1],[-6,-10],[0,-5],[2,3]],[[1002,1135],[0,2],[3,3],[2,5],[-2,2],[-2,1],[-2,5],[0,6],[-1,2],[-2,0],[-8,11],[-4,-1],[-6,-15],[2,-6],[5,2],[3,1],[0,-11],[-4,-9],[5,-2],[8,-1],[5,2],[-2,3]],[[871,1169],[-1,3],[1,1],[-4,2],[-1,0],[-2,0],[0,-1],[-1,0],[-3,-6],[2,-2],[1,-1],[6,1],[2,3]],[[1381,1208],[-10,-15],[9,4],[12,10],[8,6],[11,11],[8,10],[12,12],[25,41],[-7,-2],[-29,-38],[-39,-39]],[[1026,1244],[-7,2],[-6,-3],[-1,-1],[-3,-1],[-1,-1],[-5,2],[-2,-1],[0,-1],[1,-5],[3,0],[0,-1],[7,3],[3,1],[2,0],[1,1],[1,1],[7,4]],[[1065,1286],[-10,-8],[-12,-4],[-11,3],[-7,9],[-4,-7],[13,-14],[14,-5],[13,2],[13,7],[2,4],[3,11],[2,4],[4,2],[8,1],[11,6],[7,-1],[8,-5],[5,-5],[2,8],[-4,11],[-13,24],[-4,-7],[-7,-1],[-8,1],[-11,-3],[1,3],[4,13],[-13,-5],[-21,-13],[-6,2],[-5,0],[0,-11],[0,-11],[3,1],[1,1],[1,3],[4,-6],[5,-5],[5,-3],[7,-2]],[[970,1297],[3,2],[4,2],[4,1],[6,0],[8,1],[1,4],[-2,6],[0,6],[8,23],[5,11],[7,4],[-12,10],[-8,-9],[-9,-29],[-1,-13],[-1,-6],[-6,-2],[-7,-1],[-6,-1],[-3,-4],[-2,-5],[11,0]],[[1066,1437],[3,-7],[1,-1],[1,2],[5,7],[6,4],[1,5],[-7,4],[-1,2],[-2,-2],[-3,-6],[-4,-4],[1,-3],[-1,-1]],[[1034,1379],[12,-13],[6,-8],[2,-9],[3,-4],[6,1],[4,7],[-2,10],[6,6],[-3,8],[-9,8],[-9,5],[-16,-11]],[[1010,1136],[2,-1],[8,5],[2,0],[2,1],[1,3],[-4,3],[-4,-1],[-2,-2],[-3,-4],[-2,-4]],[[150,1964],[11,17],[19,13],[23,2],[14,-5],[19,-12],[10,13],[3,25],[-13,35],[-19,18],[-21,-5],[-6,-15],[-3,-24],[-20,-2],[-27,18],[-21,-11],[-5,-2],[1,-6],[5,-11],[2,-12],[0,-7],[0,-6],[-2,-3],[-6,-8],[-1,-2],[3,-6],[6,-3],[8,0],[11,-6],[9,5]],[[96,2006],[-6,3],[-5,0],[-6,-1],[-4,-4],[-14,-28],[8,-3],[15,4],[3,2],[2,4],[3,3],[4,0],[4,6],[0,9],[-4,5]],[[984,2443],[-5,1],[-7,-4],[-1,-9],[3,-3],[8,4],[2,6],[0,5]],[[751,2528],[-2,2],[-6,-6],[-7,-1],[-9,-4],[-6,-5],[-3,-1],[-1,-1],[0,-3],[1,-3],[1,-2],[2,-3],[2,-4],[-3,-7],[-6,-4],[1,-3],[4,-3],[3,-4],[0,-4],[4,-3],[2,3],[-1,3],[1,2],[14,15],[-2,1],[-2,4],[1,5],[-2,3],[-1,6],[6,7],[6,4],[2,2],[1,4]],[[1046,2614],[-8,1],[-5,0],[-7,-2],[-8,1],[-8,4],[-7,6],[-4,9],[-4,8],[-3,2],[-4,1],[-4,4],[-4,1],[-9,-9],[-3,-2],[-6,-2],[-1,-5],[3,-12],[9,-9],[20,-5],[3,3],[8,3],[6,-4],[1,-6],[-2,-8],[5,-8],[8,-5],[10,0],[5,5],[-1,11],[4,8],[7,3],[3,4],[-4,3]],[[2780,2330],[-1,0],[-1,-1],[-7,-4],[-2,1],[3,-6],[1,0],[1,-1],[3,-2],[11,-1],[2,7],[-2,1],[-3,5],[-5,1]],[[3512,1999],[29,3],[8,-3],[9,6],[5,10],[-1,8],[-10,4],[-25,-3],[-9,2],[-8,-6],[-5,-9],[0,-9],[7,-3]],[[2445,555],[3,-1],[5,0],[2,0],[0,3],[-1,4],[1,5],[2,5],[3,11],[-2,5],[-3,2],[-28,-2],[-2,-2],[4,-12],[8,-14],[7,-3],[1,-1]],[[2486,60],[20,-8],[15,5],[1,7],[-5,7],[-13,10],[-3,7],[1,9],[3,6],[1,3],[0,5],[-54,0],[5,-6],[3,-6],[0,-7],[-4,-8],[11,-10],[19,-14]],[[1191,2776],[-2,9],[0,9],[10,14],[17,10],[19,4],[19,-5],[-5,14],[-25,13],[-5,16],[4,14],[10,10],[12,3],[9,-10],[11,8],[9,8],[-14,7],[-18,5],[-10,7],[12,9],[-8,8],[-6,6],[-8,1],[-8,-5],[-9,11],[-3,14],[1,14],[3,5],[-13,0],[-9,-5],[-4,-3],[-11,-2],[-12,-13],[-11,-14],[-4,-15],[7,-13],[5,6],[7,5],[6,0],[2,-8],[-9,-29],[-1,-7],[7,-9],[24,4],[14,-7],[-9,-12],[-13,-3],[-38,5],[-7,-1],[-6,-5],[-7,-11],[7,-4],[8,-2],[8,2],[7,4],[1,-1],[1,-5],[0,-5],[-1,-4],[-2,-3],[-5,-4],[-3,-3],[-3,-15],[8,-11],[13,-8],[13,-5],[13,-2],[2,4]],[[1058,2953],[5,6],[5,3],[4,3],[7,10],[1,9],[-3,-1],[-6,0],[-2,-6],[-4,-1],[-1,-4],[-6,-4],[-4,-8],[-4,4],[-1,3],[-1,-3],[-4,-1],[3,-6],[4,-1],[2,0],[2,-2],[1,-1],[2,0]],[[1159,2979],[-26,-10],[-3,3],[-5,-2],[-3,-7],[4,-4],[4,-2],[5,1],[22,2],[4,4],[0,10],[-2,5]],[[2873,2956],[1,-8],[6,4],[-7,4]],[[3941,3067],[-4,0],[-13,-4],[-2,-9],[13,3],[12,0],[-6,10]],[[4047,3184],[2,2],[-1,2],[-4,5],[-4,-4],[2,-6],[5,1]],[[1347,3209],[5,3],[6,5],[0,6],[-3,0],[0,-3],[-7,1],[-7,-15],[6,3]],[[1320,3220],[5,6],[6,3],[-8,4],[-10,-4],[7,-9]],[[1106,3311],[-4,8],[-8,15],[-10,11],[-10,6],[-18,-7],[-15,-19],[8,-13],[40,-13],[13,5],[4,7]],[[1331,3368],[8,9],[0,5],[-7,0],[-13,-7],[-2,1],[-7,2],[0,2],[0,4],[-3,0],[-3,-6],[-1,-7],[2,-7],[7,-5],[4,1],[15,8]],[[1344,3402],[4,14],[4,4],[3,1],[3,-1],[7,4],[3,-2],[4,-6],[3,-3],[0,2],[-1,3],[1,3],[1,3],[-2,3],[-2,1],[-4,6],[-7,1],[-6,-4],[-2,-2],[-7,-3],[-3,-2],[-2,-4],[-1,-12],[1,-4],[3,-2]],[[1727,3548],[2,1],[1,-1],[2,0],[3,1],[-3,3],[-2,3],[-7,4],[-6,-5],[-3,-1],[2,-4],[-3,-5],[3,-1],[2,-1],[3,-1],[1,-1],[3,5],[2,3]],[[1391,3643],[9,4],[5,0],[5,2],[3,13],[-3,6],[-3,0],[-3,-2],[-9,0],[-4,-1],[-2,-2],[0,-2],[0,-2],[0,-3],[-3,-5],[0,-6],[2,-2],[3,0]],[[1483,3710],[1,7],[1,3],[0,4],[-1,4],[-1,2],[-2,2],[-3,1],[-4,0],[-11,-19],[-13,-10],[1,-4],[8,-7],[2,0],[12,13],[4,3],[3,0],[3,1]],[[1638,4004],[-4,9],[-4,6],[-4,2],[-2,3],[-3,2],[-5,0],[-5,-1],[-8,-7],[-3,0],[-1,-3],[-2,-7],[6,-8],[19,-12],[24,9],[-1,2],[-5,2],[-2,3]],[[1590,4001],[-4,1],[-8,-2],[-5,-4],[9,-4],[11,1],[1,5],[-1,1],[-3,2]],[[1213,3738],[2,2],[-1,1],[6,-1],[5,-1],[5,8],[-6,4],[-5,1],[-1,2],[-2,0],[-6,-2],[-4,-1],[-8,-1],[-2,-2],[-5,-7],[3,-6],[6,-2],[2,-1],[8,4],[3,2]],[[1163,3769],[20,10],[4,5],[1,4],[-1,2],[-3,2],[-7,0],[-5,-2],[-2,-2],[-3,-9],[-5,0],[-3,4],[-38,2],[-5,-2],[-2,-6],[2,-8],[5,-8],[4,-1],[3,4],[4,-1],[5,-3],[7,-1],[14,3],[5,7]],[[1325,3805],[-4,1],[-9,-4],[-5,1],[-10,-1],[-1,-5],[4,-3],[10,-2],[1,-5],[1,-3],[4,1],[7,-6],[-1,6],[-4,5],[1,3],[2,4],[2,4],[2,4]],[[798,3320],[-8,7],[6,-32],[6,-9],[8,-8],[7,-9],[3,-11],[5,-9],[11,-3],[13,-2],[8,-2],[7,-5],[25,-8],[19,-4],[7,-3],[7,0],[10,8],[-3,15],[-23,14],[-46,18],[-25,5],[-10,4],[-11,8],[-16,26]],[[881,2798],[0,10],[-3,14],[3,17],[6,21],[4,23],[3,7],[-5,7],[0,4],[-2,5],[-8,-1],[-8,-8],[-2,-4],[-6,-6],[-2,-2],[-2,-3],[-1,-4],[-16,-44],[0,-15],[3,-7],[2,-9],[6,-17],[4,0],[9,6],[9,3],[6,3]],[[152,2098],[-7,5],[-13,-2],[-4,-2],[-2,-3],[2,-3],[19,-11],[4,3],[2,7],[-1,6]],[[1901,0],[1,18],[22,-5],[22,-10],[4,-3],[-49,0]],[[2753,2407],[15,14],[58,28],[-6,7],[-10,5],[-12,3],[-10,1],[-19,-3],[-6,3],[-7,11],[-7,24],[-2,15],[1,8],[5,10],[-9,5],[-127,31],[-11,4],[-5,5],[-2,2],[-10,8],[-3,3],[0,6],[3,5],[3,4],[0,2],[-6,2],[-9,-1],[-7,-2],[-3,-2],[-10,21],[-28,39],[-13,9],[-29,4],[-31,-7],[-27,-14],[-18,-16],[-9,-16],[-5,-15],[-3,-2],[-5,-3],[-5,-4],[-2,-7],[8,-5],[16,-17],[10,-15],[-9,-4],[-5,4],[-3,8],[-5,7],[-10,3],[-8,0],[-7,-1],[-5,-3],[-17,-14],[-13,-5],[-31,-6],[-56,-10],[-25,-8],[-12,-7],[-10,-9],[-12,-8],[-51,-16],[-20,-17],[-19,-23],[-25,-39],[-6,-9],[-6,-17],[-2,-8],[1,-4],[-7,-2],[-8,-6],[-5,-8],[-3,-8],[-1,-11],[-4,-6],[-1,0],[-4,-5],[-5,-8],[3,-6],[2,-5],[0,-5],[-2,-5],[-6,-8],[-15,-31],[-4,-15],[-10,-5],[-2,-5],[-6,-16],[-10,-10],[-7,-11],[2,-15],[-20,4],[-15,-4],[-13,-10],[-11,-12],[-4,-7],[-3,-7],[-6,-6],[-18,-5],[-5,-8],[-4,-17],[-16,-29],[-7,-15],[-2,-19],[-5,-11],[-20,-22],[-37,-41],[-9,-15],[-8,-28],[-26,-45],[-7,-34],[-7,-18],[-9,-7],[-2,-9],[-1,-2],[-32,-37],[-7,-7],[-3,-8],[-1,-28],[-4,-9],[-14,-11],[-3,-7],[-2,-9],[-4,-4],[-6,-3],[-7,-4],[-9,-9],[-7,-13],[-16,-45],[-11,-21],[-8,-22],[-6,-8],[-19,-19],[-3,-8],[-5,-20],[-4,-8],[-16,-12],[-2,-4],[-3,-8],[-17,-22],[-3,-9],[-7,-24],[-3,-28],[-12,-22],[-8,-27],[-2,-34],[1,-46],[-13,-14],[0,-25],[24,2],[-11,-15],[-3,-7],[-4,-6],[-2,-5],[9,-4],[0,-5],[-6,-11],[12,-22],[10,-29],[-15,0],[-10,-1],[-7,-16],[0,-9],[7,0],[5,-1],[6,4],[3,-9],[-4,2],[-9,-5],[-11,0],[-4,-12],[10,-7],[-7,-1],[-4,-5],[-10,-25],[-1,-7],[1,-6],[-6,-7],[-4,-11],[-2,-8],[3,-9],[3,-11],[-4,-7],[-8,-3],[-7,-4],[-1,-11],[7,-9],[12,-10],[2,-8],[-21,0],[0,-5],[25,-7],[4,-4],[-2,-9],[-9,-2],[-10,-2],[-8,-4],[-4,-7],[-1,-9],[2,-10],[8,-7],[7,2],[5,8],[7,6],[11,-5],[2,-7],[-1,-19],[3,-7],[10,0],[5,7],[2,10],[4,5],[17,-2],[3,-15],[-7,-17],[-13,-10],[11,-11],[5,-10],[2,-17],[6,-39],[2,-5],[8,-14],[2,-6],[3,-4],[4,-3],[1,-3],[0,-7],[-5,-10],[0,-8],[3,-13],[13,-29],[13,-21],[8,-16],[4,-16],[-3,-12],[-6,-13],[4,-13],[10,-12],[25,-23],[15,-17],[4,-9],[6,-12],[4,-20],[-35,43],[34,-48],[36,-29],[6,0],[5,2],[4,0],[8,-3],[6,-4],[14,-12],[12,-9],[28,-13],[12,-8],[2,-4],[3,-11],[3,-2],[3,-1],[9,-5],[22,-18],[6,-8],[12,-28],[15,-19],[5,-8],[55,-146],[-2,-8],[-6,-10],[-2,-9],[0,-30],[-1,-10],[0,-5],[1,-7],[15,-26],[-3,-20],[0,-7],[5,-4]],[[1901,0],[1,18],[22,-5],[22,-10],[4,-3]],[[1976,0],[-2,12],[0,23],[11,11],[9,7],[7,17],[5,20],[-3,146],[-1,41],[5,46],[4,16],[26,47],[14,47],[5,34],[9,17],[22,28],[7,15],[15,37],[6,8],[7,4],[30,33],[45,30],[13,13],[13,17],[6,10],[3,9],[1,8],[-2,17],[1,8],[9,10],[39,33],[3,8],[29,42],[6,16],[8,37],[13,23],[5,17],[2,6],[6,6],[14,10],[5,6],[14,28],[3,27],[-1,28],[4,32],[6,17],[7,14],[20,26],[6,14],[13,74],[30,179],[14,27],[22,111],[17,48],[9,45],[1,18],[2,10],[11,16],[3,10],[-1,9],[-2,4],[-3,3],[-5,6],[-5,14],[0,13],[4,13],[20,30],[8,34],[8,16],[7,7],[19,14],[2,4],[-2,6],[4,6],[13,10],[17,24],[16,16],[4,6],[0,3],[-2,4],[-3,5],[-2,2],[-3,5],[1,4],[3,3],[2,5],[1,18],[2,9],[4,6],[3,7],[-1,20],[1,8],[19,23],[17,10],[7,6],[-1,8],[-5,7],[-2,9],[1,7],[16,9],[3,16],[-4,18],[-7,13],[5,4],[7,2],[9,1],[9,-1],[0,5],[-22,4],[-18,11],[-9,18],[-1,22],[4,11],[1,11],[-9,43],[-1,20],[1,21],[5,22],[6,18],[8,14],[52,62]],[[0,1857],[1,0],[-1,2]],[[0,2137],[4,6],[5,11],[3,19],[3,1],[4,0],[5,3],[2,25],[15,-17],[5,-12],[-3,-12],[-7,-14],[10,0],[11,-3],[9,-5],[0,-9],[-8,-4],[-9,2],[-8,-3],[0,-17],[9,-16],[18,-12],[17,2],[6,26],[10,-5],[7,4],[5,8],[3,10],[17,-7],[7,-1],[6,2],[19,-6],[21,6],[18,14],[12,14],[-15,38],[8,6],[8,11],[6,5],[3,-8],[-1,-25],[-1,-11],[-3,-11],[12,-2],[22,-11],[8,-3],[11,-2],[51,-32],[5,-7],[-12,-3],[-5,-2],[-3,-6],[0,-7],[1,-7],[1,-8],[3,-1],[3,3],[3,1],[18,5],[22,14],[19,18],[11,17],[2,18],[-8,3],[-10,1],[-5,9],[1,15],[1,13],[5,12],[8,12],[9,-8],[7,-10],[7,-4],[10,8],[15,24],[9,8],[11,4],[1,3],[11,22],[0,8],[-3,5],[-12,6],[-10,-5],[-7,0],[-3,7],[1,9],[-1,7],[-3,5],[-7,4],[-3,-6],[-8,-7],[-14,-9],[-5,0],[-7,0],[-5,0],[-3,-3],[-1,-5],[-4,4],[-11,23],[0,9],[2,10],[-1,11],[-5,10],[-29,24],[17,-9],[20,-5],[20,-1],[15,6],[1,10],[-8,9],[-11,8],[-5,6],[3,7],[13,13],[4,10],[7,-13],[4,-5],[4,-4],[-3,-8],[1,-10],[3,-6],[4,2],[2,7],[-2,27],[9,-8],[10,-11],[6,-13],[0,-12],[-3,-2],[-13,-5],[-4,-4],[-3,-10],[2,-6],[4,-4],[7,-3],[15,6],[19,6],[13,8],[-2,14],[11,4],[8,-2],[7,-5],[9,-3],[9,2],[21,8],[8,-2],[15,-10],[19,-5],[20,1],[18,6],[0,4],[-1,0],[-2,0],[-2,2],[2,3],[1,2],[0,1],[-3,4],[-26,-10],[-17,17],[-7,25],[8,12],[27,3],[11,-2],[4,-9],[5,-7],[12,2],[12,8],[6,11],[-3,-2],[-12,-4],[-7,21],[-3,13],[2,5],[5,5],[5,13],[3,13],[0,8],[-5,2],[-5,-10],[-7,-23],[-10,-6],[-10,-1],[-9,3],[-9,6],[5,6],[-29,9],[-13,6],[-13,13],[-8,14],[0,10],[7,9],[7,2],[13,4],[13,-3],[13,0],[10,2],[6,4],[3,3],[1,5],[0,14],[5,12],[12,16],[2,9],[-9,8],[-11,3],[-11,-2],[-8,-5],[-5,-7],[-4,13],[3,11],[-2,6],[-19,3],[-14,6],[8,13],[15,11],[8,0],[8,5],[47,15],[32,-4],[-2,-15],[-18,-4],[-14,-8],[-8,-14],[13,-4],[34,5],[17,-2],[8,-7],[0,-10],[-7,-14],[-18,-23],[-4,-14],[12,-13],[1,15],[5,12],[8,4],[11,-9],[-4,-5],[-7,-17],[18,-9],[7,-2],[-2,3],[-2,3],[-2,3],[-4,2],[6,9],[8,-2],[9,-5],[13,-2],[11,6],[3,6],[-5,4],[-9,-5],[-4,8],[-3,6],[-4,4],[-4,10],[-7,8],[-2,11],[11,14],[19,5],[8,-11],[8,-12],[8,-12],[13,4],[14,4],[12,5],[10,-2],[9,-12],[19,3],[5,8],[-11,34],[6,8],[31,-3],[15,3],[6,13],[-4,8],[-8,3],[-9,3],[-4,3],[-16,22],[-4,8],[5,0],[-3,4],[-4,3],[-8,4],[-3,-9],[-6,-1],[-8,4],[-8,6],[-1,-14],[-5,-14],[-6,-13],[-7,-8],[-11,-8],[-4,3],[-2,10],[-9,11],[8,8],[7,6],[16,8],[-15,33],[-6,0],[-2,-13],[-7,-10],[-7,-3],[-3,7],[-2,12],[-7,11],[-34,35],[-5,11],[10,5],[9,3],[24,15],[7,7],[9,6],[23,4],[10,4],[6,5],[17,24],[6,12],[2,25],[4,10],[24,6],[8,8],[-12,13],[13,6],[15,-2],[10,-7],[-3,-12],[6,-6],[3,4],[3,2],[8,5],[-18,-33],[-2,-8],[3,-11],[7,-5],[55,-9],[5,-3],[-2,-12],[-9,-25],[1,-10],[9,-6],[4,9],[4,13],[6,7],[28,0],[2,-1],[-2,-1],[-2,-8],[-6,-7],[-3,-6],[2,-5],[3,-3],[4,-2],[1,-3],[-1,-11],[-3,-14],[-5,-13],[-6,-9],[15,2],[16,0],[14,2],[5,10],[5,12],[-2,5],[-10,2],[-5,5],[-1,12],[1,13],[2,9],[5,-2],[2,-2],[3,-2],[3,4],[4,3],[5,3],[6,1],[0,-4],[10,-16],[2,-3],[-2,-6],[-6,-5],[-3,-5],[8,-14],[8,-24],[-5,-4],[-4,-5],[-3,-6],[-3,-7],[17,2],[38,9],[-7,3],[-5,2],[-13,1],[12,10],[7,12],[-1,14],[-8,18],[-6,4],[-7,-1],[-2,2],[7,9],[3,9],[-4,6],[-8,4],[-8,1],[0,5],[3,8],[-4,1],[-19,-4],[0,5],[7,2],[4,2],[9,7],[-7,0],[-6,1],[-11,5],[7,0],[5,2],[3,3],[4,6],[-15,4],[-3,11],[8,30],[-3,-6],[-5,-7],[-7,-4],[-7,2],[-11,7],[-5,-3],[-4,-8],[-3,-4],[-18,7],[-9,12],[-1,17],[3,19],[-12,-9],[-5,15],[-3,25],[-5,19],[11,-2],[4,-1],[6,-3],[7,6],[10,2],[12,0],[4,13],[9,0],[21,-13],[2,-7],[4,-1],[5,0],[4,2],[2,2],[2,2],[2,4],[1,23],[1,8],[15,17],[3,6],[-3,4],[-5,2],[-3,1],[2,19],[0,10],[-4,4],[-14,8],[-3,17],[-1,17],[-8,8],[5,10],[7,-6],[12,-27],[12,39],[5,6],[12,1],[11,5],[8,6],[7,9],[17,37],[3,10],[-2,8],[-3,6],[-15,16],[-20,-6],[-21,7],[-38,21],[-9,-3],[-26,-1],[-11,-7],[-1,-6],[-2,-15],[-2,-7],[-5,-6],[-36,-24],[-22,-11],[-24,-7],[-22,-1],[-13,3],[-24,11],[-30,5],[-6,3],[-3,22],[-4,9],[-15,18],[-6,12],[-6,26],[-4,9],[-10,9],[-17,-6],[-15,9],[-15,17],[-17,13],[0,5],[8,-2],[12,-6],[23,-16],[6,-4],[29,-5],[11,-4],[13,-10],[20,-21],[12,-7],[36,-3],[12,-5],[22,-16],[7,-3],[16,-4],[7,-4],[5,-5],[8,-14],[2,-3],[17,1],[11,12],[15,28],[18,26],[13,26],[18,22],[28,17],[-6,16],[6,8],[10,5],[5,7],[3,10],[9,7],[11,4],[12,3],[-3,9],[3,8],[-12,6],[-13,4],[15,14],[14,7],[15,2],[18,0],[10,1],[15,8],[8,2],[9,-3],[6,-5],[5,-3],[10,6],[-11,4],[-4,1],[12,16],[18,9],[21,-1],[16,-11],[8,4],[45,37],[0,6],[-11,-1],[-19,-8],[-10,-2],[-11,4],[-18,11],[-11,1],[8,12],[-4,7],[-8,8],[-7,12],[-20,-13],[-4,-4],[-4,-7],[-1,-9],[-4,-9],[-7,-8],[-12,6],[-4,-11],[-1,-25],[-8,-4],[-29,-4],[-10,0],[1,4],[2,9],[2,3],[-17,2],[-8,13],[0,59],[-5,6],[-6,6],[-6,3],[-4,-3],[-7,-6],[-16,-3],[-16,4],[-4,13],[3,9],[6,4],[15,3],[4,0],[11,-5],[4,2],[7,7],[4,2],[4,10],[5,3],[8,-5],[18,-26],[7,-4],[15,-2],[13,-7],[11,-10],[7,-19],[7,0],[15,5],[0,3],[-1,10],[1,3],[3,1],[9,-1],[3,0],[3,9],[1,7],[0,7],[-4,10],[-8,12],[-5,6],[-7,4],[4,3],[2,2],[1,3],[3,3],[-14,4],[-10,11],[-3,13],[6,11],[3,-4],[8,-7],[-2,7],[0,4],[2,11],[-10,5],[-17,3],[-9,3],[5,8],[0,5],[-5,3],[-10,-1],[6,0],[-21,-2],[-10,2],[-9,6],[-13,-8],[-14,-8],[-14,-8],[-10,-14],[-4,0],[-5,16],[-28,20],[-7,16],[-3,17],[3,4],[10,4],[7,-2],[23,-15],[5,19],[1,11],[-2,9],[-7,7],[-9,1],[-9,-1],[-9,4],[-3,5],[-2,9],[-1,9],[1,10],[4,8],[10,6],[6,8],[-3,9],[7,5],[9,2],[6,0],[12,-8],[1,-8],[-2,-9],[4,-13],[15,3],[13,-10],[12,-15],[11,-11],[12,-7],[9,-1],[4,5],[-2,11],[-5,5],[-8,4],[-19,20],[-4,7],[-2,11],[1,7],[2,11],[5,10],[4,4],[15,-7],[10,-17],[5,-19],[-2,-11],[0,-5],[9,-5],[10,1],[7,5],[3,12],[-1,12],[-2,8],[-1,8],[4,13],[9,14],[11,11],[16,6],[19,2],[-8,-15],[-14,-6],[-13,-7],[-4,-21],[8,4],[9,2],[9,-2],[9,-4],[-21,-12],[-7,-7],[-7,-50],[0,-13],[8,5],[12,14],[7,2],[16,-20],[2,-1],[2,-28],[17,2],[16,3],[-10,22],[10,19],[16,17],[8,22],[-8,18],[1,8],[15,4],[50,-5],[38,8],[9,-3],[-1,-9],[-33,-46],[-1,-3],[1,-3],[0,-3],[-3,-2],[-8,2],[-4,2],[0,1],[-8,-10],[-11,-23],[-7,-4],[2,-4],[2,-9],[2,-4],[-12,-4],[-17,-13],[-11,-5],[-30,-7],[-14,-6],[-11,-9],[-1,-6],[2,-15],[-1,-6],[-4,-3],[-5,1],[-4,0],[-3,-9],[3,-16],[8,-6],[27,0],[37,30],[1,13],[3,13],[6,10],[8,4],[40,0],[10,4],[37,24],[5,-5],[-7,-7],[-1,-7],[4,-4],[7,4],[6,5],[26,14],[0,6],[-10,-6],[-7,12],[-5,12],[-1,11],[4,10],[8,4],[9,0],[9,3],[4,8],[-5,10],[-10,2],[-12,0],[-9,6],[-1,12],[6,11],[9,10],[7,10],[-13,2],[-10,5],[-9,7],[-6,2],[-10,2],[-11,3],[-10,5],[-7,7],[1,18],[14,13],[8,10],[-17,9],[17,0],[7,-2],[6,-4],[4,-4],[3,-1],[9,0],[5,3],[5,3],[8,5],[-5,15],[9,6],[16,2],[15,-2],[24,-9],[6,-2],[7,2],[4,3],[3,3],[6,3],[-5,11],[3,4],[4,6],[3,2],[-6,9],[-7,1],[-9,-3],[-10,-2],[-9,1],[-28,15],[32,0],[17,2],[10,4],[5,-6],[13,12],[0,17],[-10,13],[-18,2],[0,6],[11,5],[6,7]],[[1562,4096],[1,-1],[1,1]],[[860,3277],[-25,5],[-10,4],[-11,8],[-16,26],[-8,7],[6,-32],[6,-9],[8,-8],[7,-9],[3,-11],[5,-9],[11,-3],[13,-2],[8,-2],[7,-5],[25,-8],[19,-4],[7,-3],[7,0],[10,8],[-3,15],[-23,14],[-46,18]],[[1254,2877],[11,8],[9,8],[-14,7],[-18,5],[-10,7],[12,9],[-8,8],[-6,6],[-8,1],[-8,-5],[-9,11],[-3,14],[1,14],[3,5],[-13,0],[-9,-5],[-4,-3],[-11,-2],[-12,-13],[-11,-14],[-4,-15],[7,-13],[5,6],[7,5],[6,0],[2,-8],[-9,-29],[-1,-7],[7,-9],[24,4],[14,-7],[-9,-12],[-13,-3],[-38,5],[-7,-1],[-6,-5],[-7,-11],[7,-4],[8,-2],[8,2],[7,4],[1,-1],[1,-5],[0,-5],[-1,-4],[-2,-3],[-5,-4],[-3,-3],[-3,-15],[8,-11],[13,-8],[13,-5],[13,-2],[2,4],[-2,9],[0,9],[10,14],[17,10],[19,4],[19,-5],[-5,14],[-25,13],[-5,16],[4,14],[10,10],[12,3],[9,-10]],[[2504,81],[-3,7],[1,9],[3,6],[1,3],[0,5],[-54,0],[5,-6],[3,-6],[0,-7],[-4,-8],[11,-10],[19,-14],[20,-8],[15,5],[1,7],[-5,7],[-13,10]],[[0,1991],[8,0],[13,6],[5,16],[2,12],[6,5],[7,4],[5,8],[1,8],[-5,15],[-1,10],[-13,-2],[-19,3],[-9,4]],[[196,2065],[-6,-15],[-3,-24],[-20,-2],[-27,18],[-21,-11],[-5,-2],[1,-6],[5,-11],[2,-12],[0,-7],[0,-6],[-2,-3],[-6,-8],[-1,-2],[3,-6],[6,-3],[8,0],[11,-6],[9,5],[11,17],[19,13],[23,2],[14,-5],[19,-12],[10,13],[3,25],[-13,35],[-19,18],[-21,-5]],[[4096,1921],[-1,-10],[-5,-8],[-9,-3],[-9,6],[-7,4],[-7,-10],[-5,2],[-2,1],[-3,3],[-12,-22],[12,-9],[45,-3],[3,-1]],[[3552,2027],[-25,-3],[-9,2],[-8,-6],[-5,-9],[0,-9],[7,-3],[29,3],[8,-3],[9,6],[5,10],[-1,8],[-10,4]],[[1109,1329],[-4,-7],[-7,-1],[-8,1],[-11,-3],[1,3],[4,13],[-13,-5],[-21,-13],[-6,2],[-5,0],[0,-11],[0,-11],[3,1],[1,1],[1,3],[4,-6],[5,-5],[5,-3],[7,-2],[-10,-8],[-12,-4],[-11,3],[-7,9],[-4,-7],[13,-14],[14,-5],[13,2],[13,7],[2,4],[3,11],[2,4],[4,2],[8,1],[11,6],[7,-1],[8,-5],[5,-5],[2,8],[-4,11],[-13,24]],[[1054,1349],[3,-4],[6,1],[4,7],[-2,10],[6,6],[-3,8],[-9,8],[-9,5],[-16,-11],[12,-13],[6,-8],[2,-9]],[[985,1329],[-1,-13],[-1,-6],[-6,-2],[-7,-1],[-6,-1],[-3,-4],[-2,-5],[11,0],[3,2],[4,2],[4,1],[6,0],[8,1],[1,4],[-2,6],[0,6],[8,23],[5,11],[7,4],[-12,10],[-8,-9],[-9,-29]],[[2429,573],[8,-14],[7,-3],[1,-1],[3,-1],[5,0],[2,0],[0,3],[-1,4],[1,5],[2,5],[3,11],[-2,5],[-3,2],[-28,-2],[-2,-2],[4,-12]],[[1094,3334],[-10,11],[-10,6],[-18,-7],[-15,-19],[8,-13],[40,-13],[13,5],[4,7],[-4,8],[-8,15]],[[889,2901],[-2,5],[-8,-1],[-8,-8],[-2,-4],[-6,-6],[-2,-2],[-2,-3],[-1,-4],[-16,-44],[0,-15],[3,-7],[2,-9],[6,-17],[4,0],[9,6],[9,3],[6,3],[0,10],[-3,14],[3,17],[6,21],[4,23],[3,7],[-5,7],[0,4]],[[1038,2615],[-5,0],[-7,-2],[-8,1],[-8,4],[-7,6],[-4,9],[-4,8],[-3,2],[-4,1],[-4,4],[-4,1],[-9,-9],[-3,-2],[-6,-2],[-1,-5],[3,-12],[9,-9],[20,-5],[3,3],[8,3],[6,-4],[1,-6],[-2,-8],[5,-8],[8,-5],[10,0],[5,5],[-1,11],[4,8],[7,3],[3,4],[-4,3],[-8,1]],[[1381,1208],[39,39],[29,38],[7,2],[-25,-41],[-12,-12],[-8,-10],[-11,-11],[-8,-6],[-12,-10],[-9,-4],[10,15]],[[1603,4000],[-6,8],[2,7],[1,3],[3,0],[8,7],[5,1],[5,0],[3,-2],[2,-3],[4,-2],[4,-6],[4,-9],[2,-3],[5,-2],[1,-2],[-24,-9],[-19,12]],[[3991,3039],[-1,0],[-3,0],[2,5],[2,-5]],[[3983,3050],[-1,-7],[-4,6],[5,1]],[[3958,3053],[-2,-2],[-2,3],[4,-1]],[[3947,3057],[-12,0],[-13,-3],[2,9],[13,4],[4,0],[6,-10]],[[4002,3067],[-2,0],[2,0]],[[3983,3089],[0,-3],[-2,0],[2,3]],[[4040,3191],[-1,-1],[0,2],[1,-1]],[[4042,3183],[-2,6],[4,4],[4,-5],[1,-2],[-2,-2],[-5,-1]],[[193,2213],[47,51],[50,39]],[[39,2199],[40,1],[54,-10],[60,23]],[[175,2205],[-47,-15],[-41,9],[-48,0]],[[25,2195],[14,4]],[[39,2199]],[[39,2199],[-14,-4]],[[39,2199]],[[0,2186],[25,9]],[[25,2195],[-25,-10]],[[913,3169],[-22,13]],[[891,3182],[-9,6],[-8,24],[-52,16],[-38,29],[-24,46]],[[1508,4033],[1,12],[27,51]],[[1395,3965],[18,-3],[27,31],[64,27]],[[1139,3908],[27,12],[50,3],[72,16],[27,0],[57,14],[19,10]],[[1056,3830],[15,49],[27,18],[36,7]],[[1033,3772],[4,30]],[[1037,3802],[1,5],[18,23]],[[1036,3761],[-3,11]],[[1074,3712],[-33,31],[-5,18]],[[996,3292],[5,20],[40,56],[0,47]],[[1026,3646],[12,7],[4,12]],[[986,3569],[17,64],[23,13]],[[1042,3665],[11,29],[21,18]],[[1037,3428],[-1,10]],[[1036,3438],[-3,12],[-31,70],[-12,15],[-4,34]],[[1040,3417],[-3,11]],[[975,3254],[7,12]],[[982,3266],[14,26]],[[933,3214],[2,8]],[[855,3019],[3,21]],[[851,2982],[4,37]],[[858,3040],[-7,20],[9,59],[12,16],[41,30]],[[769,2822],[-34,-18]],[[816,2865],[-7,-16]],[[849,2976],[-1,-3]],[[809,2849],[-3,-7],[-37,-20]],[[848,2973],[-11,-25],[6,-24],[-27,-59]],[[851,2982],[-2,-6]],[[679,3375],[36,-21],[45,-36],[1,-13]],[[586,3404],[49,-2],[43,-25]],[[544,3400],[13,5]],[[689,2754],[19,29]],[[543,2644],[7,15],[59,29],[34,10],[11,25],[28,20],[7,11]],[[467,3392],[21,7],[20,-10]],[[413,3404],[40,-20],[14,8]],[[392,2428],[5,12]],[[397,2440],[14,33],[38,41],[53,33],[8,28],[30,42],[2,26]],[[410,3404],[-25,-7],[-37,46],[-4,34],[-48,6],[-17,10],[-13,-23],[-47,-13],[-61,21]],[[153,4015],[0,2]],[[156,4079],[6,6]],[[153,4017],[-3,56],[6,6]],[[97,3887],[24,12],[22,63],[0,45]],[[158,3478],[-44,2],[-19,27]],[[162,4088],[-1,8]],[[94,3509],[-10,24],[-14,1]],[[63,3555],[-51,52],[-12,19]],[[42,3799],[30,16],[12,17],[-1,35],[13,18]],[[130,4076],[-18,-7]],[[1094,4010],[-24,33],[-51,43],[-21,3],[-30,-7],[-18,0],[-18,10],[-30,-3],[-9,3],[-6,4]],[[1353,3957],[27,13],[30,-3],[9,20],[12,3],[12,0],[27,0],[15,-3]],[[1148,4040],[43,-14],[12,-10],[3,-19],[12,-14],[3,-19],[12,-17],[9,-7],[18,-6],[51,16],[42,7]],[[64,3822],[-12,-17],[-12,-6],[-21,-7],[-12,-7],[-6,-10],[0,-26]],[[1,3749],[-1,-4]],[[0,2858],[1,-1],[9,-6],[18,-3],[21,-10]],[[19,2745],[15,10],[15,10],[0,20],[-12,33],[12,20]],[[118,2709],[-9,-1]],[[109,2708],[-24,-2],[-9,6],[-12,-3],[-9,-13],[-15,-7],[-18,3],[-15,20],[3,17],[9,16]],[[118,2709],[-3,-5]],[[115,2704],[-18,-22],[-6,-19],[12,-30],[-3,-20],[3,-26],[-3,-17]],[[100,2570],[30,-10],[12,-23],[9,-6],[24,-7]],[[2539,2505],[-12,-4],[-54,6]],[[2629,2554],[-15,-17]],[[2614,2537],[-3,-3],[-36,-17],[-36,-12]],[[2446,2491],[18,-13]],[[178,2461],[0,-13]],[[175,2524],[9,-23],[-6,-37],[0,-3]],[[2266,2425],[93,26],[21,10],[18,10],[21,10],[27,10]],[[178,2448],[3,-13],[12,-17]],[[2266,2425],[-18,-3],[-12,-10],[-3,-23],[-6,-10],[-15,-7]],[[2334,2498],[-5,-1],[-21,-6],[-15,-10],[-39,-26],[-24,-27],[-12,-23],[-6,-33]],[[2473,2507],[-30,4],[-21,-4],[-24,-3],[-52,-5]],[[2346,2499],[-12,-1]],[[193,2418],[15,-6],[3,-2]],[[277,2378],[37,-9],[15,-13]],[[211,2410],[21,-12],[43,-19],[2,-1]],[[329,2350],[0,-18],[3,-33]],[[329,2356],[0,-1]],[[329,2355],[0,-5]],[[2638,2288],[-6,-28]],[[2464,2478],[3,-4],[12,-49],[9,-10],[18,0],[11,-2]],[[2517,2413],[7,-1],[24,-4],[12,-3],[21,0],[15,-10],[9,-20],[12,-13],[21,-10],[12,-6],[6,-33],[-18,-24],[0,-1]],[[2643,2167],[-2,20],[-6,30],[-3,43]],[[2689,2121],[-24,17],[-12,3],[-9,16],[-1,10]],[[1995,2125],[-27,-34],[-18,-39]],[[2053,2211],[-21,-31]],[[2155,2337],[-3,-1],[-27,0],[-18,10],[-9,0],[0,-10],[9,-27],[0,-16],[-9,-20],[-9,-13],[-10,-13]],[[2212,2372],[-24,-20]],[[2032,2180],[-31,-46],[-6,-9]],[[2079,2247],[-8,-10],[-18,-26]],[[2188,2352],[-12,-3],[-21,-12]],[[1901,1925],[-8,-15],[-12,-33],[-15,-23],[-24,-37]],[[1950,2052],[0,-3]],[[1950,2049],[-9,-30],[-24,-63],[-16,-31]],[[2314,1797],[3,17],[-6,10],[-1,0]],[[2310,1824],[-2,0]],[[2308,1824],[-12,3],[-12,-10],[-9,7],[-3,16]],[[1956,1844],[3,-6]],[[1959,1838],[12,-31],[15,-16],[33,0],[21,-3],[21,3],[6,6],[28,4],[21,3],[33,23],[27,3],[27,14],[36,3],[15,-7],[18,0]],[[2467,1791],[-12,0],[-39,20],[-9,3],[-6,-13],[-9,-7],[-15,3],[-3,-13],[-12,4],[-6,9],[-15,4],[-27,-4]],[[2475,1791],[-2,0]],[[2548,1774],[-45,14],[-2,0]],[[2473,1791],[-6,0]],[[2501,1788],[-16,0],[-9,3],[-1,0]],[[2548,1774],[15,7],[9,20],[24,23],[13,17]],[[2609,1841],[2,3],[15,26],[3,30],[3,13],[9,3],[15,43],[0,40],[9,20],[18,6],[6,7],[0,20],[6,16],[15,13],[-3,14],[-18,26]],[[1929,1845],[-12,2],[-21,0],[-12,-3],[-12,-17],[0,-13],[-15,-43]],[[1956,1844],[-3,-2]],[[1953,1842],[-3,-2],[-21,5]],[[1842,1817],[-30,-13],[-18,-30],[-30,-26]],[[2545,1754],[0,1],[3,19]],[[2511,1637],[10,-5],[6,20],[-2,8]],[[2470,1622],[15,-6],[12,3],[9,20],[5,-2]],[[2525,1660],[-4,12],[6,40],[9,16],[12,17],[-3,9]],[[1764,1748],[-21,-17],[-6,-6],[-15,-30],[-6,-20],[3,-49],[-12,-66],[-3,-40]],[[1704,1520],[-3,-46]],[[1660,1331],[-4,-19],[-3,-36],[-3,-30]],[[1701,1474],[-9,-66],[-11,-34]],[[1681,1374],[-1,-3],[-18,-29],[-2,-11]],[[2218,936],[36,13],[18,16],[21,40],[15,40],[24,33],[0,19],[-3,17],[9,56],[9,23],[6,27],[9,13],[6,20],[0,23],[6,36],[21,50],[6,23],[0,23],[9,23],[15,23],[3,17],[3,23],[9,33],[9,23],[18,20],[-3,23],[-3,20],[9,9]],[[1650,1246],[-6,-17],[-18,-36],[-15,-30],[-27,-46],[-27,-59],[-12,-33],[-6,-27],[0,-39],[15,-63]],[[1554,896],[0,-33]],[[2172,675],[10,-13]],[[2218,936],[-6,-20],[-12,-17],[0,-16],[-12,-17],[0,-26],[-9,-17],[6,-19],[-12,-33],[-12,0],[-6,-10],[3,-17],[0,-33],[3,-20],[11,-16]],[[2182,662],[17,-11]],[[2199,651],[4,-3]],[[2182,662],[-17,2]],[[2165,664],[-4,1],[-18,0],[-9,-13],[0,-40]],[[1554,863],[-6,-59],[3,-33],[21,-37],[15,-20],[12,-23],[15,-49],[3,-37],[-6,-26],[-9,-17],[-6,-19]],[[1596,543],[-9,0]],[[1716,579],[-15,-7],[-30,-10],[-27,-13],[-21,-6],[-27,0]],[[1596,543],[-8,-23]],[[1588,520],[-1,-4]],[[2134,612],[-3,-7],[-21,-19],[-12,-24],[-12,-36],[-22,-20],[-12,-26],[-6,-30],[-21,-63],[-24,-59],[-6,-23],[-3,-36],[-9,-14]],[[1983,255],[-12,-13],[-12,0],[-9,-6],[-6,-10],[-27,-20],[-24,6],[-24,-9]],[[1803,339],[0,9],[-3,13],[-21,17]],[[1770,526],[0,7],[-18,23],[-15,10],[-21,13]],[[1755,469],[0,11],[14,30]],[[1779,378],[-12,39],[-12,30],[0,22]],[[1769,510],[1,3],[0,13]],[[1869,203],[0,16],[-6,10],[-12,10],[-15,46],[-12,20],[-18,10],[-3,10],[0,14]],[[290,2299],[39,0]],[[557,3406],[27,0]],[[536,3402],[-27,-13]],[[61,3551],[15,-13]],[[710,2781],[2,2]],[[729,2796],[8,5]],[[712,2783],[17,13]],[[914,3168],[8,7]],[[970,3222],[2,9]],[[974,3238],[3,19]],[[922,3175],[22,19],[24,17],[2,11]],[[972,3231],[2,7]],[[1380,1197],[-9,-4],[10,15],[39,39],[29,38],[7,2],[-25,-41],[-12,-12],[-8,-10],[-11,-11],[-8,-6],[-12,-10]],[[1080,1322],[-1,-3],[11,3],[8,-1],[7,1],[4,7],[13,-24],[4,-11],[-2,-8],[-5,5],[-8,5],[-7,1],[-11,-6],[-8,-1],[-4,-2],[-2,-4],[-3,-11],[-2,-4],[-13,-7],[-13,-2],[-14,5],[-13,14],[4,7],[7,-9],[11,-3],[12,4],[10,8],[-7,2],[-5,3],[-5,5],[-4,6],[-1,-3],[-1,-1],[-3,-1],[0,11],[0,11],[5,0],[6,-2],[21,13],[13,5],[-4,-13]],[[970,1297],[-11,0],[2,5],[3,4],[6,1],[7,1],[6,2],[1,6],[1,13],[9,29],[8,9],[12,-10],[-7,-4],[-5,-11],[-8,-23],[0,-6],[2,-6],[-1,-4],[-8,-1],[-6,0],[-4,-1],[-4,-2],[-3,-2]],[[1063,1346],[-6,-1],[-3,4],[-2,9],[-6,8],[-12,13],[16,11],[9,-5],[9,-8],[3,-8],[-6,-6],[2,-10],[-4,-7]],[[2521,57],[-15,-5],[-20,8],[-19,14],[-11,10],[4,8],[0,7],[-3,6],[-5,6],[54,0],[0,-5],[-1,-3],[-3,-6],[-1,-9],[3,-7],[13,-10],[5,-7],[-1,-7]],[[2455,557],[0,-3],[-2,0],[-5,0],[-3,1],[-1,1],[-7,3],[-8,14],[-4,12],[2,2],[28,2],[3,-2],[2,-5],[-3,-11],[-2,-5],[-1,-5],[1,-4]],[[4096,1871],[-3,1],[-45,3],[-12,9],[12,22],[3,-3],[2,-1],[5,-2],[7,10],[7,-4],[9,-6],[9,3],[5,8],[1,10],[0,-50]],[[3552,2027],[10,-4],[1,-8],[-5,-10],[-9,-6],[-8,3],[-29,-3],[-7,3],[0,9],[5,9],[8,6],[9,-2],[25,3]],[[857,2786],[-4,0],[-6,17],[-2,9],[-3,7],[0,15],[16,44],[1,4],[2,3],[2,2],[6,6],[2,4],[8,8],[8,1],[2,-5],[0,-4],[5,-7],[-3,-7],[-4,-23],[-6,-21],[-3,-17],[3,-14],[0,-10],[-6,-3],[-9,-3],[-9,-6]],[[1205,2942],[9,-11],[8,5],[8,-1],[6,-6],[8,-8],[-12,-9],[10,-7],[18,-5],[14,-7],[-9,-8],[-11,-8],[-9,10],[-12,-3],[-10,-10],[-4,-14],[5,-16],[25,-13],[5,-14],[-19,5],[-19,-4],[-17,-10],[-10,-14],[0,-9],[2,-9],[-2,-4],[-13,2],[-13,5],[-13,8],[-8,11],[3,15],[3,3],[5,4],[2,3],[1,4],[0,5],[-1,5],[-1,1],[-7,-4],[-8,-2],[-8,2],[-7,4],[7,11],[6,5],[7,1],[38,-5],[13,3],[9,12],[-14,7],[-24,-4],[-7,9],[1,7],[9,29],[-2,8],[-6,0],[-7,-5],[-5,-6],[-7,13],[4,15],[11,14],[12,13],[11,2],[4,3],[9,5],[13,0],[-3,-5],[-1,-14],[3,-14]],[[236,2052],[13,-35],[-3,-25],[-10,-13],[-19,12],[-14,5],[-23,-2],[-19,-13],[-11,-17],[-9,-5],[-11,6],[-8,0],[-6,3],[-3,6],[1,2],[6,8],[2,3],[0,6],[0,7],[-2,12],[-5,11],[-1,6],[5,2],[21,11],[27,-18],[20,2],[3,24],[6,15],[21,5],[19,-18]],[[0,1991],[0,89],[9,-4],[19,-3],[13,2],[1,-10],[5,-15],[-1,-8],[-5,-8],[-7,-4],[-6,-5],[-2,-12],[-5,-16],[-13,-6],[-8,0]],[[1018,2614],[8,-1],[7,2],[5,0],[8,-1],[4,-3],[-3,-4],[-7,-3],[-4,-8],[1,-11],[-5,-5],[-10,0],[-8,5],[-5,8],[2,8],[-1,6],[-6,4],[-8,-3],[-3,-3],[-20,5],[-9,9],[-3,12],[1,5],[6,2],[3,2],[9,9],[4,-1],[4,-4],[4,-1],[3,-2],[4,-8],[4,-9],[7,-6],[8,-4]],[[1562,4096],[2,0],[-1,-1],[-1,1]],[[0,2137],[0,1959],[1540,0],[-6,-7],[-11,-5],[0,-6],[18,-2],[10,-13],[0,-17],[-13,-12],[-5,6],[-10,-4],[-17,-2],[-32,0],[28,-15],[9,-1],[10,2],[9,3],[7,-1],[6,-9],[-3,-2],[-4,-6],[-3,-4],[5,-11],[-6,-3],[-3,-3],[-4,-3],[-7,-2],[-6,2],[-24,9],[-15,2],[-16,-2],[-9,-6],[5,-15],[-8,-5],[-5,-3],[-5,-3],[-9,0],[-3,1],[-4,4],[-6,4],[-7,2],[-17,0],[17,-9],[-8,-10],[-14,-13],[-1,-18],[7,-7],[10,-5],[11,-3],[10,-2],[6,-2],[9,-7],[10,-5],[13,-2],[-7,-10],[-9,-10],[-6,-11],[1,-12],[9,-6],[12,0],[10,-2],[5,-10],[-4,-8],[-9,-3],[-9,0],[-8,-4],[-4,-10],[1,-11],[5,-12],[7,-12],[10,6],[0,-6],[-26,-14],[-6,-5],[-7,-4],[-4,4],[1,7],[7,7],[-5,5],[-37,-24],[-10,-4],[-40,0],[-8,-4],[-6,-10],[-3,-13],[-1,-13],[-37,-30],[-27,0],[-8,6],[-3,16],[3,9],[4,0],[5,-1],[4,3],[1,6],[-2,15],[1,6],[11,9],[14,6],[30,7],[11,5],[17,13],[12,4],[-2,4],[-2,9],[-2,4],[7,4],[11,23],[8,10],[0,-1],[4,-2],[8,-2],[3,2],[0,3],[-1,3],[1,3],[33,46],[1,9],[-9,3],[-38,-8],[-50,5],[-15,-4],[-1,-8],[8,-18],[-8,-22],[-16,-17],[-10,-19],[10,-22],[-16,-3],[-17,-2],[-2,28],[-2,1],[-16,20],[-7,-2],[-12,-14],[-8,-5],[0,13],[7,50],[7,7],[21,12],[-9,4],[-9,2],[-9,-2],[-8,-4],[4,21],[13,7],[14,6],[8,15],[-19,-2],[-16,-6],[-11,-11],[-9,-14],[-4,-13],[1,-8],[2,-8],[1,-12],[-3,-12],[-7,-5],[-10,-1],[-9,5],[0,5],[2,11],[-5,19],[-10,17],[-15,7],[-4,-4],[-5,-10],[-2,-11],[-1,-7],[2,-11],[4,-7],[19,-20],[8,-4],[5,-5],[2,-11],[-4,-5],[-9,1],[-12,7],[-11,11],[-12,15],[-13,10],[-15,-3],[-4,13],[2,9],[-1,8],[-12,8],[-6,0],[-9,-2],[-7,-5],[3,-9],[-6,-8],[-10,-6],[-4,-8],[-1,-10],[1,-9],[2,-9],[3,-5],[9,-4],[9,1],[9,-1],[7,-7],[2,-9],[-1,-11],[-5,-19],[-23,15],[-7,2],[-10,-4],[-3,-4],[3,-17],[7,-16],[28,-20],[5,-16],[4,0],[10,14],[14,8],[14,8],[13,8],[9,-6],[10,-2],[21,2],[-6,0],[10,1],[5,-3],[0,-5],[-5,-8],[9,-3],[17,-3],[10,-5],[-2,-11],[0,-4],[2,-7],[-8,7],[-3,4],[-6,-11],[3,-13],[10,-11],[14,-4],[-3,-3],[-1,-3],[-2,-2],[-4,-3],[7,-4],[5,-6],[8,-12],[4,-10],[0,-7],[-1,-7],[-3,-9],[-3,0],[-9,1],[-3,-1],[-1,-3],[1,-10],[0,-3],[-15,-5],[-7,0],[-7,19],[-11,10],[-13,7],[-15,2],[-7,4],[-18,26],[-8,5],[-5,-3],[-4,-10],[-4,-2],[-7,-7],[-4,-2],[-11,5],[-4,0],[-15,-3],[-6,-4],[-3,-9],[4,-13],[16,-4],[16,3],[7,6],[4,3],[6,-3],[6,-6],[5,-6],[0,-59],[8,-13],[17,-2],[-2,-3],[-2,-9],[-1,-4],[10,0],[29,4],[8,4],[1,25],[4,11],[12,-6],[7,8],[4,9],[1,9],[4,7],[4,4],[20,13],[7,-12],[8,-8],[4,-7],[-8,-12],[11,-1],[18,-11],[11,-4],[10,2],[19,8],[11,1],[0,-6],[-45,-37],[-8,-4],[-16,11],[-21,1],[-18,-9],[-12,-16],[4,-1],[11,-4],[-10,-6],[-5,3],[-6,5],[-9,3],[-8,-2],[-15,-8],[-10,-1],[-18,0],[-15,-2],[-14,-7],[-15,-14],[13,-4],[12,-6],[-3,-8],[3,-9],[-12,-3],[-11,-4],[-9,-7],[-3,-10],[-5,-7],[-10,-5],[-6,-8],[6,-16],[-28,-17],[-18,-22],[-13,-26],[-18,-26],[-15,-28],[-11,-12],[-17,-1],[-2,3],[-8,14],[-5,5],[-7,4],[-16,4],[-7,3],[-22,16],[-12,5],[-36,3],[-12,7],[-20,21],[-13,10],[-11,4],[-29,5],[-6,4],[-23,16],[-12,6],[-8,2],[0,-5],[17,-13],[15,-17],[15,-9],[17,6],[10,-9],[4,-9],[6,-26],[6,-12],[15,-18],[4,-9],[3,-22],[6,-3],[30,-5],[24,-11],[13,-3],[22,1],[24,7],[22,11],[36,24],[5,6],[2,7],[2,15],[1,6],[11,7],[26,1],[9,3],[38,-21],[21,-7],[20,6],[15,-16],[3,-6],[2,-8],[-3,-10],[-17,-37],[-7,-9],[-8,-6],[-11,-5],[-12,-1],[-5,-6],[-12,-39],[-12,27],[-7,6],[-5,-10],[8,-8],[1,-17],[3,-17],[14,-8],[4,-4],[0,-10],[-2,-19],[3,-1],[5,-2],[3,-4],[-3,-6],[-15,-17],[-1,-8],[-1,-23],[-2,-4],[-2,-2],[-2,-2],[-4,-2],[-5,0],[-4,1],[-2,7],[-21,13],[-9,0],[-4,-13],[-12,0],[-10,-2],[-7,-6],[-6,3],[-4,1],[-11,2],[5,-19],[3,-25],[5,-15],[12,9],[-3,-19],[1,-17],[9,-12],[18,-7],[3,4],[4,8],[5,3],[11,-7],[7,-2],[7,4],[5,7],[3,6],[-8,-30],[3,-11],[15,-4],[-4,-6],[-3,-3],[-5,-2],[-7,0],[11,-5],[6,-1],[7,0],[-9,-7],[-4,-2],[-7,-2],[0,-5],[19,4],[4,-1],[-3,-8],[0,-5],[8,-1],[8,-4],[4,-6],[-3,-9],[-7,-9],[2,-2],[7,1],[6,-4],[8,-18],[1,-14],[-7,-12],[-12,-10],[13,-1],[5,-2],[7,-3],[-38,-9],[-17,-2],[3,7],[3,6],[4,5],[5,4],[-8,24],[-8,14],[3,5],[6,5],[2,6],[-2,3],[-10,16],[0,4],[-6,-1],[-5,-3],[-4,-3],[-3,-4],[-3,2],[-2,2],[-5,2],[-2,-9],[-1,-13],[1,-12],[5,-5],[10,-2],[2,-5],[-5,-12],[-5,-10],[-14,-2],[-16,0],[-15,-2],[6,9],[5,13],[3,14],[1,11],[-1,3],[-4,2],[-3,3],[-2,5],[3,6],[6,7],[2,8],[2,1],[-2,1],[-28,0],[-6,-7],[-4,-13],[-4,-9],[-9,6],[-1,10],[9,25],[2,12],[-5,3],[-55,9],[-7,5],[-3,11],[2,8],[18,33],[-8,-5],[-3,-2],[-3,-4],[-6,6],[3,12],[-10,7],[-15,2],[-13,-6],[12,-13],[-8,-8],[-24,-6],[-4,-10],[-2,-25],[-6,-12],[-17,-24],[-6,-5],[-10,-4],[-23,-4],[-9,-6],[-7,-7],[-24,-15],[-9,-3],[-10,-5],[5,-11],[34,-35],[7,-11],[2,-12],[3,-7],[7,3],[7,10],[2,13],[6,0],[15,-33],[-16,-8],[-7,-6],[-8,-8],[9,-11],[2,-10],[4,-3],[11,8],[7,8],[6,13],[5,14],[1,14],[8,-6],[8,-4],[6,1],[3,9],[8,-4],[4,-3],[3,-4],[-5,0],[4,-8],[16,-22],[4,-3],[9,-3],[8,-3],[4,-8],[-6,-13],[-15,-3],[-31,3],[-6,-8],[11,-34],[-5,-8],[-19,-3],[-9,12],[-10,2],[-12,-5],[-14,-4],[-13,-4],[-8,12],[-8,12],[-8,11],[-19,-5],[-11,-14],[2,-11],[7,-8],[4,-10],[4,-4],[3,-6],[4,-8],[9,5],[5,-4],[-3,-6],[-11,-6],[-13,2],[-9,5],[-8,2],[-6,-9],[4,-2],[2,-3],[2,-3],[2,-3],[-7,2],[-18,9],[7,17],[4,5],[-11,9],[-8,-4],[-5,-12],[-1,-15],[-12,13],[4,14],[18,23],[7,14],[0,10],[-8,7],[-17,2],[-34,-5],[-13,4],[8,14],[14,8],[18,4],[2,15],[-32,4],[-47,-15],[-8,-5],[-8,0],[-15,-11],[-8,-13],[14,-6],[19,-3],[2,-6],[-3,-11],[4,-13],[5,7],[8,5],[11,2],[11,-3],[9,-8],[-2,-9],[-12,-16],[-5,-12],[0,-14],[-1,-5],[-3,-3],[-6,-4],[-10,-2],[-13,0],[-13,3],[-13,-4],[-7,-2],[-7,-9],[0,-10],[8,-14],[13,-13],[13,-6],[29,-9],[-5,-6],[9,-6],[9,-3],[10,1],[10,6],[7,23],[5,10],[5,-2],[0,-8],[-3,-13],[-5,-13],[-5,-5],[-2,-5],[3,-13],[7,-21],[12,4],[3,2],[-6,-11],[-12,-8],[-12,-2],[-5,7],[-4,9],[-11,2],[-27,-3],[-8,-12],[7,-25],[17,-17],[26,10],[3,-4],[0,-1],[-1,-2],[-2,-3],[2,-2],[2,0],[1,0],[0,-4],[-18,-6],[-20,-1],[-19,5],[-15,10],[-8,2],[-21,-8],[-9,-2],[-9,3],[-7,5],[-8,2],[-11,-4],[2,-14],[-13,-8],[-19,-6],[-15,-6],[-7,3],[-4,4],[-2,6],[3,10],[4,4],[13,5],[3,2],[0,12],[-6,13],[-10,11],[-9,8],[2,-27],[-2,-7],[-4,-2],[-3,6],[-1,10],[3,8],[-4,4],[-4,5],[-7,13],[-4,-10],[-13,-13],[-3,-7],[5,-6],[11,-8],[8,-9],[-1,-10],[-15,-6],[-20,1],[-20,5],[-17,9],[29,-24],[5,-10],[1,-11],[-2,-10],[0,-9],[11,-23],[4,-4],[1,5],[3,3],[5,0],[7,0],[5,0],[14,9],[8,7],[3,6],[7,-4],[3,-5],[1,-7],[-1,-9],[3,-7],[7,0],[10,5],[12,-6],[3,-5],[0,-8],[-11,-22],[-1,-3],[-11,-4],[-9,-8],[-15,-24],[-10,-8],[-7,4],[-7,10],[-9,8],[-8,-12],[-5,-12],[-1,-13],[-1,-15],[5,-9],[10,-1],[8,-3],[-2,-18],[-11,-17],[-19,-18],[-22,-14],[-18,-5],[-3,-1],[-3,-3],[-3,1],[-1,8],[-1,7],[0,7],[3,6],[5,2],[12,3],[-5,7],[-51,32],[-11,2],[-8,3],[-22,11],[-12,2],[3,11],[1,11],[1,25],[-3,8],[-6,-5],[-8,-11],[-8,-6],[15,-38],[-12,-14],[-18,-14],[-21,-6],[-19,6],[-6,-2],[-7,1],[-17,7],[-3,-10],[-5,-8],[-7,-4],[-10,5],[-6,-26],[-17,-2],[-18,12],[-9,16],[0,17],[8,3],[9,-2],[8,4],[0,9],[-9,5],[-11,3],[-10,0],[7,14],[3,12],[-5,12],[-15,17],[-2,-25],[-5,-3],[-4,0],[-3,-1],[-3,-19],[-5,-11],[-4,-6]],[[0,1857],[0,2],[1,-2],[-1,0]],[[2557,2626],[10,-21],[3,2],[7,2],[9,1],[6,-2],[0,-2],[-3,-4],[-3,-5],[0,-6],[3,-3],[10,-8],[2,-2],[5,-5],[11,-4],[127,-31],[9,-5],[-5,-10],[-1,-8],[2,-15],[7,-24],[7,-11],[6,-3],[19,3],[10,-1],[12,-3],[10,-5],[6,-7],[-58,-28],[-15,-14],[-52,-62],[-8,-14],[-6,-18],[-5,-22],[-1,-21],[1,-20],[9,-43],[-1,-11],[-4,-11],[1,-22],[9,-18],[18,-11],[22,-4],[0,-5],[-9,1],[-9,-1],[-7,-2],[-5,-4],[7,-13],[4,-18],[-3,-16],[-16,-9],[-1,-7],[2,-9],[5,-7],[1,-8],[-7,-6],[-17,-10],[-19,-23],[-1,-8],[1,-20],[-3,-7],[-4,-6],[-2,-9],[-1,-18],[-2,-5],[-3,-3],[-1,-4],[3,-5],[2,-2],[3,-5],[2,-4],[0,-3],[-4,-6],[-16,-16],[-17,-24],[-13,-10],[-4,-6],[2,-6],[-2,-4],[-19,-14],[-7,-7],[-8,-16],[-8,-34],[-20,-30],[-4,-13],[0,-13],[5,-14],[5,-6],[3,-3],[2,-4],[1,-9],[-3,-10],[-11,-16],[-2,-10],[-1,-18],[-9,-45],[-17,-48],[-22,-111],[-14,-27],[-30,-179],[-13,-74],[-6,-14],[-20,-26],[-7,-14],[-6,-17],[-4,-32],[1,-28],[-3,-27],[-14,-28],[-5,-6],[-14,-10],[-6,-6],[-2,-6],[-5,-17],[-13,-23],[-8,-37],[-6,-16],[-29,-42],[-3,-8],[-39,-33],[-9,-10],[-1,-8],[2,-17],[-1,-8],[-3,-9],[-6,-10],[-13,-17],[-13,-13],[-45,-30],[-30,-33],[-7,-4],[-6,-8],[-15,-37],[-7,-15],[-22,-28],[-9,-17],[-5,-34],[-14,-47],[-26,-47],[-4,-16],[-5,-46],[1,-41],[3,-146],[-5,-20],[-7,-17],[-9,-7],[-11,-11],[0,-23],[2,-12],[-26,0],[-4,3],[-22,10],[-22,5],[-1,-18],[-21,0],[-5,4],[0,7],[3,20],[-15,26],[-1,7],[0,5],[1,10],[0,30],[2,9],[6,10],[2,8],[-55,146],[-5,8],[-15,19],[-12,28],[-6,8],[-22,18],[-9,5],[-3,1],[-3,2],[-3,11],[-2,4],[-12,8],[-28,13],[-12,9],[-14,12],[-6,4],[-8,3],[-4,0],[-5,-2],[-6,0],[-36,29],[-34,48],[35,-43],[-4,20],[-6,12],[-4,9],[-15,17],[-25,23],[-10,12],[-4,13],[6,13],[3,12],[-4,16],[-8,16],[-13,21],[-13,29],[-3,13],[0,8],[5,10],[0,7],[-1,3],[-4,3],[-3,4],[-2,6],[-8,14],[-2,5],[-6,39],[-2,17],[-5,10],[-11,11],[13,10],[7,17],[-3,15],[-17,2],[-4,-5],[-2,-10],[-5,-7],[-10,0],[-3,7],[1,19],[-2,7],[-11,5],[-7,-6],[-5,-8],[-7,-2],[-8,7],[-2,10],[1,9],[4,7],[8,4],[10,2],[9,2],[2,9],[-4,4],[-25,7],[0,5],[21,0],[-2,8],[-12,10],[-7,9],[1,11],[7,4],[8,3],[4,7],[-3,11],[-3,9],[2,8],[4,11],[6,7],[-1,6],[1,7],[10,25],[4,5],[7,1],[-10,7],[4,12],[11,0],[9,5],[4,-2],[-3,9],[-6,-4],[-5,1],[-7,0],[0,9],[7,16],[10,1],[15,0],[-10,29],[-12,22],[6,11],[0,5],[-9,4],[2,5],[4,6],[3,7],[11,15],[-24,-2],[0,25],[13,14],[-1,46],[2,34],[8,27],[12,22],[3,28],[7,24],[3,9],[17,22],[3,8],[2,4],[16,12],[4,8],[5,20],[3,8],[19,19],[6,8],[8,22],[11,21],[16,45],[7,13],[9,9],[7,4],[6,3],[4,4],[2,9],[3,7],[14,11],[4,9],[1,28],[3,8],[7,7],[32,37],[1,2],[2,9],[9,7],[7,18],[7,34],[26,45],[8,28],[9,15],[37,41],[20,22],[5,11],[2,19],[7,15],[16,29],[4,17],[5,8],[18,5],[6,6],[3,7],[4,7],[11,12],[13,10],[15,4],[20,-4],[-2,15],[7,11],[10,10],[6,16],[2,5],[10,5],[4,15],[15,31],[6,8],[2,5],[0,5],[-2,5],[-3,6],[5,8],[4,5],[1,0],[4,6],[1,11],[3,8],[5,8],[8,6],[7,2],[-1,4],[2,8],[6,17],[6,9],[25,39],[19,23],[20,17],[51,16],[12,8],[10,9],[12,7],[25,8],[56,10],[31,6],[13,5],[17,14],[5,3],[7,1],[8,0],[10,-3],[5,-7],[3,-8],[5,-4],[9,4],[-10,15],[-16,17],[-8,5],[2,7],[5,4],[5,3],[3,2],[5,15],[9,16],[18,16],[27,14],[31,7],[29,-4],[13,-9],[28,-39]],[[1630,4019],[4,-6],[4,-9],[2,-3],[5,-2],[1,-2],[-24,-9],[-19,12],[-6,8],[2,7],[1,3],[3,0],[8,7],[5,1],[5,0],[3,-2],[2,-3],[4,-2]],[[922,3222],[-7,0],[-7,3],[-19,4],[-25,8],[-7,5],[-8,2],[-13,2],[-11,3],[-5,9],[-3,11],[-7,9],[-8,8],[-6,9],[-6,32],[8,-7],[16,-26],[11,-8],[10,-4],[25,-5],[46,-18],[23,-14],[3,-15],[-10,-8]],[[1102,3304],[-13,-5],[-40,13],[-8,13],[15,19],[18,7],[10,-6],[10,-11],[8,-15],[4,-8],[-4,-7]],[[1884,557],[66,95],[-39,55],[32,13],[2,51],[-28,30],[56,30],[66,-41],[1,-34],[46,-43],[-70,-54],[-9,-40],[-69,-19],[-24,-64],[-30,21]],[[1357,1051],[16,69],[74,0],[30,-23],[-15,-69],[-105,23]],[[2202,701],[114,146],[12,125],[27,-10],[15,41],[-31,-4],[108,236],[23,218],[34,42],[14,-25],[-47,-237],[-34,-137],[-54,-100],[22,-49],[-47,-26],[-82,-166],[-44,-30],[7,-44],[-27,-10],[-10,30]],[[2698,2353],[67,83],[-24,23],[-8,87],[34,5],[58,-101],[-127,-97]],[[1904,489],[34,111],[42,15],[10,-20],[26,64],[43,23],[7,-98],[-54,-16],[27,-17],[-29,-27],[14,-14],[-24,9],[12,-93],[-26,-10],[1,-35],[-46,-2],[-28,34],[-9,76]],[[1126,1007],[34,0],[0,23],[210,-124],[-8,85],[53,0],[-25,-63],[-1,-16],[-2,-10],[0,-3],[79,-54],[-18,-28],[-53,25],[-269,165]],[[1858,66],[31,25],[-14,-42],[40,-23],[1,26],[64,8],[-12,60],[58,14],[-19,-134],[-133,0],[-16,66]],[[2010,1187],[35,26],[-24,20],[35,53],[66,-62],[23,19],[4,56],[23,-1],[102,-165],[-22,13],[24,-18],[-16,-20],[-5,8],[-3,0],[-3,8],[-3,1],[14,-29],[-26,-12],[-55,22],[-103,-32],[-17,54],[-46,-2],[-3,61]],[[2130,1217],[3,-3],[-33,-23],[51,13],[-21,13]],[[2037,1191],[30,-2],[19,17],[-23,1],[2,40],[-28,-56]],[[2071,1132],[5,-11],[14,10],[-5,7],[-14,-6]],[[2107,1172],[11,-6],[2,10],[-7,0],[-6,-4]],[[4063,1867],[26,19],[-13,31],[13,-18],[7,29],[0,-64],[-33,3]],[[1126,1007],[34,0],[0,23],[210,-124],[-8,85],[54,0],[23,-53],[-36,-1],[-10,-27],[37,4],[-11,-32],[28,-11],[16,22],[-8,-19],[37,-9],[-44,-48],[-322,190]],[[1448,865],[9,-12],[5,-5],[4,-1],[-18,18]],[[2440,2020],[35,18],[-28,68],[57,-48],[75,65],[28,-7],[-38,-63],[-33,-10],[7,-26],[-33,21],[-40,-27],[-30,9]],[[1966,1106],[54,34],[-28,111],[74,57],[106,-10],[104,-170],[-33,-41],[-119,5],[-122,-67],[-36,38],[29,1],[-29,42]],[[2254,2048],[92,58],[17,51],[47,1],[52,108],[65,-26],[-36,-63],[12,-17],[-35,-10],[-110,-159],[10,-13],[53,61],[21,-27],[-30,-58],[-47,-12],[-41,59],[19,31],[-89,16]],[[2374,2115],[13,-13],[7,4],[-7,15],[-13,-6]],[[2147,1860],[87,97],[-53,27],[94,75],[68,-27],[-90,-79],[44,-21],[-23,-70],[-127,-2]],[[996,1026],[0,60],[143,0],[0,-60],[-143,0]],[[1122,1047],[5,-5],[4,14],[-8,-1],[-1,-8]],[[1008,1052],[1,-3],[4,1],[4,8],[-9,-6]],[[1080,1046],[7,-4],[3,7],[-6,0],[-4,-3]],[[1001,1066],[7,0],[0,5],[-7,0],[0,-5]],[[1912,67],[12,-10],[-4,-26],[-32,62],[24,-26]],[[2212,672],[-24,-38],[-30,18],[29,46],[25,-26]],[[1793,320],[-29,38],[19,25],[33,-21],[-23,-42]],[[2535,1606],[-32,17],[37,63],[12,-27],[-17,-53]],[[2690,2196],[6,-51],[40,-20],[-57,9],[-57,53],[-55,-3],[57,44],[-8,45],[53,37],[21,-114]],[[238,2433],[56,17],[47,-27],[91,27],[10,-36],[-27,-14],[0,-34],[-20,44],[-20,-30],[23,-33],[-72,9],[48,-91],[46,30],[45,-46],[-57,-69],[-23,22],[-10,-61],[-64,-2],[-17,62],[-32,-44],[-41,-5],[2,55],[-19,-74],[-67,-16],[52,75],[24,143],[65,26],[-3,45],[-9,-18],[-26,27],[-51,-9],[-24,53],[57,9],[16,-35]],[[292,2231],[-6,-12],[41,-9],[32,-44],[-8,53],[-43,27],[-16,-15]],[[433,2352],[13,-23],[-16,-7],[-13,13],[16,17]],[[572,2373],[43,-7],[5,-16],[-78,10],[3,42],[23,1],[4,-30]],[[0,2133],[0,111],[11,46],[49,-55],[-60,-102]],[[1978,1885],[23,-4],[-24,-53],[-42,24],[-31,-42],[16,-71],[-39,-84],[26,-32],[-23,-20],[4,-87],[-65,166],[-40,3],[40,-71],[0,-89],[-24,-26],[57,-18],[40,18],[-16,-63],[-54,15],[-19,-41],[-89,-63],[16,-151],[-48,-26],[0,-45],[-41,-35],[0,-54],[-35,-48],[28,-68],[-25,-17],[-3,-78],[19,-11],[-40,-27],[40,-35],[-8,-54],[41,-44],[-9,-80],[25,4],[52,127],[77,11],[-6,-73],[-50,-34],[16,-26],[33,11],[-9,-74],[-32,9],[24,-44],[-49,-27],[12,-89],[-139,93],[-34,48],[35,-43],[-139,363],[17,42],[-62,8],[42,93],[-15,63],[65,54],[-4,35],[-28,9],[32,71],[-24,27],[48,44],[-40,9],[-30,68],[38,21],[32,98],[41,18],[-17,26],[89,152],[-12,25],[29,60],[49,12],[14,96],[131,189],[-4,-104],[118,-61]],[[1632,1521],[33,-15],[5,28],[-25,0],[-13,-13]],[[1588,1413],[17,-7],[16,39],[-40,0],[7,-32]],[[1649,1342],[13,-12],[32,44],[-25,0],[-20,-32]],[[1542,1167],[-2,-24],[49,36],[-18,8],[-29,-20]],[[1613,1161],[3,-19],[26,0],[3,19],[-32,0]],[[1080,1322],[39,-11],[-43,-38],[-29,25],[33,24]],[[2075,1605],[-16,21],[39,6],[-1,-16],[-22,-11]],[[133,2031],[41,-7],[-26,-45],[-26,20],[-8,30],[19,2]],[[0,1999],[0,82],[9,-5],[32,-1],[5,-33],[-46,-43]],[[715,2877],[29,-21],[12,21],[74,-14],[-118,-79],[19,-25],[-32,-15],[-33,35],[-56,9],[22,48],[83,41]],[[92,2824],[-24,9],[5,12],[35,-3],[-16,-18]],[[946,3029],[36,0],[-8,-96],[-49,60],[-97,35],[17,27],[24,-26],[84,44],[-7,-44]],[[941,2899],[11,-14],[-57,-2],[19,36],[27,-20]],[[883,2952],[-12,-34],[-20,-11],[-3,69],[25,5],[10,-29]],[[131,2693],[-23,15],[7,14],[23,-5],[-7,-24]],[[1088,3267],[41,-1],[20,-30],[-27,-56],[-56,-15],[22,102]],[[910,3165],[-21,17],[36,7],[-4,-16],[-11,-8]],[[1000,3201],[-33,24],[35,38],[37,-39],[-39,-23]],[[922,3222],[-97,27],[-32,70],[-38,18],[79,15],[11,41],[72,-44],[11,-69],[63,-16],[-20,-30],[-172,82],[26,-30],[104,-41],[-7,-23]],[[1039,3402],[-24,10],[-9,26],[31,0],[2,-36]],[[1047,3633],[-24,15],[8,30],[18,-20],[-2,-25]],[[474,3705],[-18,8],[-2,21],[35,-12],[-15,-17]],[[36,3738],[-9,2],[-8,45],[38,-20],[-21,-27]],[[1050,3794],[-16,-37],[-36,19],[23,35],[29,-17]],[[118,4096],[53,0],[-2,-11],[-21,-9],[-32,20],[2,0]],[[489,2441],[-41,40],[32,41],[53,3],[4,-34],[-48,-50]],[[2448,2611],[23,-1],[-23,-49],[55,-4],[-1,-39],[41,-14],[73,26],[-16,49],[100,-30],[-173,-81],[16,-35],[-48,-36],[-42,-3],[9,30],[-113,-45],[-73,-80],[-56,5],[14,56],[-81,-13],[10,-48],[-40,-18],[48,-19],[0,-34],[-16,27],[-27,-17],[-86,17],[16,-63],[-73,-35],[16,-54],[-56,-88],[14,97],[-56,39],[88,41],[42,79],[-11,46],[68,80],[57,0],[-29,75],[209,79],[8,-64],[38,43],[48,1],[-26,52],[43,28],[-12,44],[32,16],[-10,-60]],[[2368,2423],[13,-8],[9,44],[-18,-3],[-4,-33]],[[51,2507],[33,6],[-32,-36],[-33,18],[22,29],[10,-17]],[[571,2604],[39,-2],[7,-17],[-64,8],[8,30],[10,-19]],[[658,2629],[-30,-4],[-13,4],[41,27],[2,-27]],[[1349,1239],[22,125],[24,-42],[144,298],[75,1],[-51,-96],[17,-31],[-69,-32],[-41,-120],[20,-52],[-15,-40],[39,-43],[-35,-59],[18,-11],[-20,-40],[-19,17],[9,25],[7,-19],[12,0],[-7,27],[-18,-3],[-12,-25],[-76,1],[-24,119]],[[1452,1258],[4,-20],[24,5],[-15,-2],[-1,20],[12,-2],[-20,4],[-4,-5]],[[1359,1194],[79,93],[12,185],[257,404],[180,265],[37,40],[69,34],[-101,-84],[-128,-239],[-45,-5],[16,-13],[-34,-55],[17,-14],[-79,-82],[-8,-28],[27,-5],[-41,-31],[-43,-112],[-99,-76],[22,-19],[-30,-165],[-78,-90],[-30,-3]],[[2264,1780],[36,14],[32,116],[52,41],[83,-31],[44,-70],[32,17],[27,-29],[45,3],[-50,-74],[-20,4],[-44,-90],[-57,23],[-19,45],[-39,-54],[-54,21],[-36,-20],[-22,24],[36,2],[-46,58]],[[2091,1959],[59,111],[193,-38],[-18,-103],[-51,-67],[-123,-8],[-54,58],[-6,47]],[[2264,1780],[53,51],[13,-27],[64,3],[16,26],[25,-19],[16,52],[39,-29],[-26,-18],[26,-26],[122,49],[-47,-74],[-51,-38],[-49,50],[-171,-35],[-30,35]],[[2460,1788],[11,1],[4,4],[-1,-2],[1,-3],[2,0],[2,-2],[6,-3],[25,2],[-35,9],[-15,-6]],[[2544,1781],[16,0],[7,27],[-15,-2],[-8,-25]],[[2447,1821],[7,-3],[6,1],[-4,5],[-9,-3]],[[2530,1790],[5,-6],[1,11],[-3,-3],[-3,-2]],[[2336,1798],[6,-3],[2,-3],[-1,6],[-7,0]],[[1973,831],[34,45],[-3,91],[28,70],[92,55],[76,-2],[-12,-65],[-38,5],[10,-66],[-57,45],[12,-48],[62,-46],[-26,-40],[-74,25],[-7,-161],[-97,92]],[[975,1007],[0,99],[185,0],[0,-99],[-185,0]],[[2274,1720],[35,2],[-11,33],[149,27],[66,-57],[-33,-38],[-55,62],[-48,-56],[-44,23],[-37,-20],[-22,24]],[[2318,1840],[14,70],[73,45],[62,-35],[20,-55],[-36,1],[-15,-51],[-26,18],[-16,-26],[-65,-3],[-11,36]]]}