{"objects":{"water":{"type":"GeometryCollection","geometries":[]},"buildings":{"type":"GeometryCollection","geometries":[]},"places":{"type":"GeometryCollection","geometries":[{"type":"Point","properties":{"name:pt":"Riade","name:ps":"\u0631\u064a\u0627\u0636","name:ka":"\u10d4\u10e0-\u10e0\u10d8\u10d0\u10d3\u10d8","name:ko":"\ub9ac\uc57c\ub4dc","name:kn":"\u0cb0\u0cbf\u0caf\u0cbe\u0ca7\u0ccd","name:kl":"Riyadh","name:cs":"Rij\u00e1d","name:tr":"Riyad","name:ku":"Riyad","name:tl":"Riyadh","name:be":"\u042d\u0440-\u0420\u044b\u044f\u0434","name:os":"\u042d\u0440-\u0420\u0438\u044f\u0434","name:pl":"Rijad","name:ta":"\u0bb0\u0bbf\u0baf\u0bbe\u0ba4\u0bcd","name:tg":"\u042d\u0440-\u0420\u0438\u044f\u0434","name:ca":"Al-Riyad","name:cy":"Riyadh","name:da":"Riyadh","name:de":"Riad","source":"openstreetmap.org","admin_level":"2","name:lv":"Rij\u0101da","name:lt":"Rijadas","name:uz":"Ar-Riyod","name:kk":"\u042d\u0440-\u0420\u0438\u044f\u0434","name:he":"\u05e8\u05d9\u05d0\u05d3","min_zoom":8.0,"kind":"locality","name:ur":"\u0631\u06cc\u0627\u0636","name:la":"Riadum","name:uk":"\u0415\u0440-\u0420\u0456\u044f\u0434","name:hy":"\u0537\u0580 \u054c\u056b\u0561\u0564","country_capital":true,"name:ug":"\u0631\u0649\u064a\u0627\u062f","name:hu":"Rij\u00e1d","name:hr":"Rijad","name:oc":"Riyad","population":5900000,"name:el":"\u03a1\u03b9\u03ac\u03bd\u03c4","name:eo":"Riado","name:en":"Riyadh","name":"\u0627\u0644\u0631\u064a\u0627\u0636","name:th":"\u0e23\u0e34\u0e22\u0e32\u0e14","name:yi":"\u05e8\u05d9\u05d0\u05d3","name:et":"Ar-Riy\u0101\u1e11","name:nl":"Riyad","name:es":"Riad","name:ml":"\u0d31\u0d3f\u0d2f\u0d3e\u0d26\u0d4d","name:az":"\u018fr-Riyad","name:id":"Riyadh","name:ms":"Riyadh","name:mr":"\u0930\u093f\u092f\u093e\u0927","name:is":"R\u00edad","name:am":"\u122a\u12eb\u12f5","name:it":"Riyad","name:vi":"Ri-\u00e1t","name:ru":"\u042d\u0440-\u0420\u0438\u044f\u0434","id":315358390,"name:mk":"\u0420\u0438\u0458\u0430\u0434","name:af":"Riaad","name:fa":"\u0631\u06cc\u0627\u0636","kind_detail":"city","name:hi":"\u0930\u093f\u092f\u093e\u0926","name:fo":"Riyadh","alt_name:vi":"Riyadh","name:fr":"Riyad","name:ky":"\u042d\u0440-\u0420\u0438\u044f\u0434","name:fy":"Riyad","name:vo":"Riyad","name:zh":"\u5229\u96c5\u5fb7","name:sl":"Rijad","name:sk":"Rij\u00e1d","name:ja":"\u30ea\u30e4\u30c9","name:nn":"Riyadh","name:sh":"Rijad","name:ne":"\u0930\u093f\u092f\u093e\u0926","name:br":"Riyadh","name:bs":"Rijad","name:bn":"\u09b0\u09bf\u09af\u09bc\u09be\u09a6","name:bo":"\u0f62\u0f72\u0f66\u0f0b\u0f61\u0f42","name:no":"Riyadh","name:sw":"Riyad","name:sv":"Riyadh","name:su":"Riyadh","name:bg":"\u0420\u0438\u044f\u0434","name:sr":"\u0420\u0438\u0458\u0430\u0434","name:sq":"Riadi","name:ga":"Riyadh","name:gd":"Riyadh","name:ht":"Riyad","name:yo":"Riyadh"},"coordinates":[899,337]}]},"transit":{"type":"GeometryCollection","geometries":[]},"pois":{"type":"GeometryCollection","geometries":[{"type":"Point","properties":{"source":"openstreetmap.org","kind":"military","name":"Khashm Al\"An","area":36047900,"tier":3,"min_zoom":8.0,"id":108127050},"coordinates":[1390,618]},{"type":"Point","properties":{"kind":"university","name:en":"King Saud University","name":"\u062c\u0627\u0645\u0639\u0629 \u0627\u0644\u0645\u0644\u0643 \u0633\u0639\u0648\u062f","area":10946600,"source":"openstreetmap.org","min_zoom":8.11,"tier":3,"id":133973548},"coordinates":[632,636]},{"type":"Point","properties":{"source":"openstreetmap.org","kind":"military","name":"National Guard Training Area","area":16218100,"tier":3,"min_zoom":8.0,"id":331075124},"coordinates":[1570,499]},{"type":"Point","properties":{"kind":"aerodrome","int_name":"King Khalid International,OERK,RUH, King Khalid International","tier":3,"name":"\u0645\u0637\u0627\u0631 \u0627\u0644\u0645\u0644\u0643 \u062e\u0627\u0644\u062f \u0627\u0644\u062f\u0648\u0644\u064a","area":51928100,"iata":"RUH","min_zoom":8.56,"name:de":"King Khalid International","source":"openstreetmap.org","name:fr":"King Khalid International","name:en":"King Khalid International Airport","operator":"General Authority of Civil Aviation","id":471667957},"coordinates":[888,1388]}]},"boundaries":{"type":"GeometryCollection","geometries":[{"type":"LineString","properties":{"name:right:ru":"\u042d\u0448-\u0428\u0430\u0440\u043a\u0438\u0439\u044f","min_zoom":8.0,"name:left:ru":"\u042d\u0440-\u0420\u0438\u044f\u0434","id:right":-3667294,"id":-3678409,"osm_relation":true,"name:right":"\u0627\u0644\u0645\u0646\u0637\u0642\u0629 \u0627\u0644\u0634\u0631\u0642\u064a\u0629","kind":"region","name:left:en":"Riyadh Region","sort_rank":256,"kind_detail":"4","name:left:de":"Provinz Riad","name":"\u0645\u0646\u0637\u0642\u0629 \u0627\u0644\u0631\u064a\u0627\u0636 - \u0627\u0644\u0645\u0646\u0637\u0642\u0629 \u0627\u0644\u0634\u0631\u0642\u064a\u0629","source":"openstreetmap.org","name:right:de":"\u00d6stliche Provinz","name:right:en":"Eastern Region","id:left":-3678409,"name:right:cs":"provincie Damm\u00e1m","name:left:cs":"provincie Rij\u00e1d","name:left":"\u0645\u0646\u0637\u0642\u0629 \u0627\u0644\u0631\u064a\u0627\u0636"},"arcs":[0]}]},"roads":{"type":"GeometryCollection","geometries":[{"type":"MultiLineString","properties":{"source":"openstreetmap.org","kind":"major_road","sort_rank":381,"kind_detail":"trunk","min_zoom":8.0,"name:fr":"Rue Roi Salman"},"arcs":[[1],[2],[3],[4],[5],[6]]},{"type":"MultiLineString","properties":{"source":"openstreetmap.org","kind":"major_road","name:en":"Prince Mutaib Bin Abdallah Bin Abdul Aziz Street","landuse_kind":"military","sort_rank":381,"kind_detail":"trunk","min_zoom":8.0},"arcs":[[7],[8]]},{"type":"MultiLineString","properties":{"source":"openstreetmap.org","kind":"highway","sort_rank":383,"kind_detail":"motorway","ref":"65","min_zoom":8.0},"arcs":[[9],[10]]},{"type":"LineString","properties":{"kind":"highway","name:en":"King Fahd road","sort_rank":383,"kind_detail":"motorway","source":"openstreetmap.org","min_zoom":8.0,"landuse_kind":"urban_area","ref":"65","id":40639433},"arcs":[11]},{"type":"LineString","properties":{"kind":"major_road","name:en":"Bairut Square","sort_rank":380,"landuse_kind":"urban_area","source":"openstreetmap.org","min_zoom":8.0,"kind_detail":"primary","id":35829485},"arcs":[12]},{"type":"MultiLineString","properties":{"source":"openstreetmap.org","kind":"major_road","name:en":"Sa'ad Bin Abdulrahman Al Awal Road","landuse_kind":"military","sort_rank":380,"kind_detail":"primary","min_zoom":8.0},"arcs":[[13],[14]]},{"type":"LineString","properties":{"kind":"major_road","sort_rank":380,"landuse_kind":"urban_area","name:ar":"\u0637\u0631\u064a\u0642 \u0627\u0644\u062f\u064a\u0648\u0627\u0646","source":"openstreetmap.org","min_zoom":8.0,"kind_detail":"primary","id":39332066},"arcs":[15]},{"type":"MultiLineString","properties":{"source":"openstreetmap.org","kind":"major_road","name:en":"Al Shaikh Jabir Al Ahmed Al Shaba Road","kind_detail":"trunk","sort_rank":381,"landuse_kind":"urban_area","min_zoom":8.0},"arcs":[[16],[17],[18],[19],[20],[21]]},{"type":"MultiLineString","properties":{"source":"openstreetmap.org","kind":"major_road","name:en":"Al Janadiriyah Road","sort_rank":380,"kind_detail":"primary","min_zoom":8.0},"arcs":[[22],[23],[24],[25],[26],[27],[28],[29]]},{"type":"MultiLineString","properties":{"source":"openstreetmap.org","kind":"major_road","name:en":"Al Amaria Street","sort_rank":381,"kind_detail":"trunk","ref":"5770","min_zoom":8.0},"arcs":[[30],[31]]},{"type":"MultiLineString","properties":{"source":"openstreetmap.org","kind":"major_road","name:en":"Salah Al Deen Al Aubi Street","landuse_kind":"urban_area","sort_rank":380,"kind_detail":"primary","min_zoom":8.0},"arcs":[[32],[33],[34],[35]]},{"type":"MultiLineString","properties":{"source":"openstreetmap.org","kind":"highway","name:en":"Western Ring Road","landuse_kind":"urban_area","sort_rank":383,"kind_detail":"motorway","min_zoom":8.0},"arcs":[[36],[37],[38],[39],[40],[41]]},{"type":"LineString","properties":{"kind":"major_road","name:en":"Turki Al Awal Ibin Abdelaziz Road","sort_rank":380,"landuse_kind":"university","source":"openstreetmap.org","min_zoom":8.0,"kind_detail":"primary","id":133973495},"arcs":[42]},{"type":"MultiLineString","properties":{"source":"openstreetmap.org","kind":"major_road","name:en":"Prince Mutaib Bin Abdallah Bin Abdul Aziz Street","sort_rank":381,"kind_detail":"trunk","min_zoom":8.0},"arcs":[[43],[44],[45]]},{"type":"MultiLineString","properties":{"kind":"major_road","name:en":"Al Imam Saud Ibn Abdulaziz Ibn Mohammad Road","sort_rank":380,"kind_detail":"primary","name:fr":"Rue Al Imam Saud Ibn Abdulaziz Ibn Mohammad","source":"openstreetmap.org","min_zoom":8.0,"landuse_kind":"urban_area"},"arcs":[[46],[47],[48],[49]]},{"type":"MultiLineString","properties":{"source":"openstreetmap.org","kind":"major_road","name:en":"Al Amaria Street","sort_rank":380,"kind_detail":"primary","ref":"5770","min_zoom":8.0},"arcs":[[50],[51]]},{"type":"MultiLineString","properties":{"source":"openstreetmap.org","kind":"highway","landuse_kind":"urban_area","sort_rank":383,"kind_detail":"motorway","ref":"539","min_zoom":8.0},"arcs":[[52],[53]]},{"type":"MultiLineString","properties":{"kind":"highway","name:en":"King Khalid Road","sort_rank":383,"kind_detail":"motorway","source":"openstreetmap.org","min_zoom":8.0,"landuse_kind":"military","ref":"535"},"arcs":[[54],[55]]},{"type":"MultiLineString","properties":{"source":"openstreetmap.org","kind":"major_road","name:en":"Abdul Aziz Bin Musaed Bin Julowi St.","landuse_kind":"urban_area","sort_rank":380,"kind_detail":"primary","min_zoom":8.0},"arcs":[[56],[57]]},{"type":"LineString","properties":{"source":"openstreetmap.org","kind":"highway","name:en":"King Fahd Road","sort_rank":383,"kind_detail":"motorway","min_zoom":8.0,"id":37840566},"arcs":[58]},{"type":"MultiLineString","properties":{"source":"openstreetmap.org","kind":"major_road","name:en":"Abi Bakr As Siddiq Road","landuse_kind":"urban_area","sort_rank":380,"kind_detail":"primary","min_zoom":8.0},"arcs":[[59],[60]]},{"type":"LineString","properties":{"kind":"major_road","name:en":"Olaya Road","sort_rank":380,"kind_detail":"primary","name:ar":"\u0637\u0631\u064a\u0642 \u0627\u0644\u0639\u0644\u064a\u0627 \u0627\u0644\u0639\u0627\u0645","source":"openstreetmap.org","min_zoom":8.0,"landuse_kind":"urban_area","id":38881997},"arcs":[61]},{"type":"MultiLineString","properties":{"source":"openstreetmap.org","kind":"highway","name:en":"Second Ring Road","sort_rank":383,"kind_detail":"motorway","min_zoom":8.0},"arcs":[[62],[63],[64],[65],[66],[67],[68],[69],[70],[71],[72],[73]]},{"type":"LineString","properties":{"kind":"major_road","name:en":"Al Hair Road","sort_rank":380,"landuse_kind":"urban_area","source":"openstreetmap.org","min_zoom":8.0,"kind_detail":"primary","id":482296849},"arcs":[74]},{"type":"MultiLineString","properties":{"source":"openstreetmap.org","kind":"major_road","name:en":"King Salman Road","sort_rank":381,"kind_detail":"trunk","min_zoom":8.0,"name:fr":"Rue Roi Salman"},"arcs":[[75],[76],[77],[78],[79],[80]]},{"type":"LineString","properties":{"source":"openstreetmap.org","kind":"major_road","sort_rank":381,"kind_detail":"trunk","name:ar":"\u0637\u0631\u064a\u0642 \u0627\u0644\u062e\u0631\u062c","min_zoom":8.0,"id":258309404},"arcs":[81]},{"type":"LineString","properties":{"source":"openstreetmap.org","kind":"highway","name:en":"Northern Ring Road","sort_rank":383,"kind_detail":"motorway","min_zoom":8.0,"id":328743836},"arcs":[82]},{"type":"MultiLineString","properties":{"source":"openstreetmap.org","kind":"major_road","name:en":"King Abdullah Road","sort_rank":381,"kind_detail":"trunk","name:ar":"\u0637\u0631\u064a\u0642 \u0627\u0644\u0645\u0644\u0643 \u0639\u0628\u062f \u0627\u0644\u0644\u0647","min_zoom":8.0},"arcs":[[83],[84]]},{"type":"MultiLineString","properties":{"kind":"highway","name:en":"King Fahd Road","sort_rank":383,"landuse_kind":"urban_area","source":"openstreetmap.org","min_zoom":8.0,"kind_detail":"motorway","ref":"65"},"arcs":[[85],[86],[87],[88],[89],[90]]},{"type":"LineString","properties":{"kind":"highway","name:en":"King Salman Road","sort_rank":383,"kind_detail":"motorway","name:fr":"Rue Roi Salman","source":"openstreetmap.org","min_zoom":8.0,"id":53823322},"arcs":[91]},{"type":"MultiLineString","properties":{"source":"openstreetmap.org","kind":"highway","name:en":"King Fahad road","landuse_kind":"urban_area","sort_rank":383,"kind_detail":"motorway","min_zoom":8.0},"arcs":[[92],[93]]},{"type":"MultiLineString","properties":{"source":"openstreetmap.org","kind":"major_road","name:en":"Olaya Road","landuse_kind":"urban_area","sort_rank":380,"kind_detail":"primary","min_zoom":8.0},"arcs":[[94],[95],[96]]},{"type":"LineString","properties":{"source":"openstreetmap.org","kind":"major_road","name:en":"Makkah Al Mukarramah Branch Rd","landuse_kind":"urban_area","sort_rank":380,"kind_detail":"primary","min_zoom":8.0},"arcs":[97]},{"type":"MultiLineString","properties":{"source":"openstreetmap.org","kind":"major_road","name:en":"Rihanna Bin Zaid Street","sort_rank":380,"kind_detail":"primary","min_zoom":8.0},"arcs":[[98],[99],[100],[101],[102],[103]]},{"type":"LineString","properties":{"kind":"major_road","name:en":"AL Hair Road","sort_rank":380,"landuse_kind":"urban_area","source":"openstreetmap.org","min_zoom":8.0,"kind_detail":"primary","id":482296845},"arcs":[104]},{"type":"MultiLineString","properties":{"source":"openstreetmap.org","kind":"major_road","name:en":"Olaya Road","sort_rank":380,"kind_detail":"primary","min_zoom":8.0},"arcs":[[105],[106]]},{"type":"MultiLineString","properties":{"source":"openstreetmap.org","kind":"major_road","name:en":"Al Shaikh Jabir Al Ahmed Al Shaba Road","sort_rank":381,"kind_detail":"trunk","min_zoom":8.0},"arcs":[[107],[108]]},{"type":"MultiLineString","properties":{"sort_rank":381,"source":"openstreetmap.org","min_zoom":8.0,"kind":"major_road","kind_detail":"trunk"},"arcs":[[109],[110],[111],[112],[113],[114],[115],[116]]},{"type":"MultiLineString","properties":{"source":"openstreetmap.org","kind":"highway","sort_rank":383,"kind_detail":"motorway","ref":"539","min_zoom":8.0},"arcs":[[117],[118],[119],[120]]},{"type":"MultiLineString","properties":{"source":"openstreetmap.org","kind":"highway","name:en":"Qasim Road","sort_rank":383,"kind_detail":"motorway","min_zoom":8.0},"arcs":[[121],[122]]},{"type":"MultiLineString","properties":{"source":"openstreetmap.org","kind":"major_road","name:en":"East Ring Road","landuse_kind":"urban_area","sort_rank":380,"kind_detail":"primary","min_zoom":8.0},"arcs":[[123],[124],[125],[126]]},{"type":"LineString","properties":{"kind":"major_road","sort_rank":380,"landuse_kind":"urban_area","alt_name:ar":"\u0634\u0627\u0631\u0639 \u0627\u0644\u0636\u0628\u0627\u0628","source":"openstreetmap.org","min_zoom":8.0,"kind_detail":"primary","id":53862885},"arcs":[127]},{"type":"MultiLineString","properties":{"source":"openstreetmap.org","kind":"major_road","landuse_kind":"military","sort_rank":380,"kind_detail":"primary","min_zoom":8.0},"arcs":[[128],[129]]},{"type":"LineString","properties":{"source":"openstreetmap.org","kind":"major_road","name:en":"Al Ma'ather Street","sort_rank":380,"kind_detail":"primary","min_zoom":8.0,"id":181158397},"arcs":[130]},{"type":"MultiLineString","properties":{"kind":"highway","name:en":"Northern Ring Road","sort_rank":383,"kind_detail":"motorway","source":"openstreetmap.org","min_zoom":8.0,"landuse_kind":"urban_area","ref":"40"},"arcs":[[131],[132],[133],[134]]},{"type":"MultiLineString","properties":{"source":"openstreetmap.org","kind":"major_road","name:en":"Imam Abdullah Ibn Saud Ibn Abdul Aziz Road","landuse_kind":"urban_area","sort_rank":380,"kind_detail":"primary","min_zoom":8.0},"arcs":[[135],[136],[137],[138],[139],[140],[141]]},{"type":"MultiLineString","properties":{"source":"openstreetmap.org","kind":"major_road","name:en":"King Abdulaziz Road","sort_rank":380,"kind_detail":"primary","name:ar":"\u0637\u0631\u064a\u0642 \u0627\u0644\u0645\u0644\u0643 \u0639\u0628\u062f \u0627\u0644\u0639\u0632\u064a\u0632","min_zoom":8.0},"arcs":[[142],[143],[144]]},{"type":"LineString","properties":{"source":"openstreetmap.org","kind":"major_road","name:en":"Ad Diwan Road","sort_rank":380,"kind_detail":"primary","min_zoom":8.0,"id":159100540},"arcs":[145]},{"type":"MultiLineString","properties":{"source":"openstreetmap.org","kind":"highway","name:en":"King Khalid Road","sort_rank":383,"kind_detail":"motorway","ref":"535","min_zoom":8.0},"arcs":[[146],[147],[148],[149],[150],[151]]},{"type":"MultiLineString","properties":{"source":"openstreetmap.org","kind":"major_road","name:en":"Al Kharj Road","sort_rank":381,"kind_detail":"trunk","ref":"65","min_zoom":8.0},"arcs":[[152],[153]]},{"type":"MultiLineString","properties":{"source":"openstreetmap.org","kind":"major_road","landuse_kind":"urban_area","sort_rank":380,"kind_detail":"primary","min_zoom":8.0},"arcs":[[154],[155],[156],[157],[158],[159],[160],[161],[162],[163],[164],[165],[166],[167],[168],[169],[170],[171],[172],[173],[174],[175],[176],[177],[178],[179],[180],[181],[182],[183],[184],[185],[186],[187],[188],[189],[190],[191],[192],[193],[194],[195],[196],[197],[198],[199],[200],[201],[202],[203],[204],[205],[206],[207],[208],[209],[210],[211],[212],[213],[214],[215],[216],[217],[218],[219],[220],[221],[222],[223],[224],[225],[226],[227],[228],[229],[230],[231],[232],[233],[234],[235],[236],[237],[238],[239],[240],[241],[242],[243],[244],[245],[246],[247],[248],[249],[250],[251],[252],[253],[254],[255],[256],[257],[258],[259],[260],[261],[262],[263],[264],[265],[266],[267],[268],[269],[270],[271],[272],[273],[274],[275],[276],[277],[278],[279],[280],[281],[282],[283],[284],[285],[286],[287],[288],[289],[290],[291],[292],[293],[294],[295],[296],[297],[298],[299],[300],[301],[302],[303],[304],[305],[306],[307],[308],[309],[310],[311],[312],[313],[314],[315],[316],[317],[318],[319],[320],[321],[322],[323],[324],[325],[326],[327],[328],[329],[330],[331],[332],[333],[334],[335],[336],[337],[338],[339],[340],[341],[342],[343],[344],[345],[346],[347],[348],[349],[350],[351],[352],[353],[354],[355],[356],[357],[358],[359],[360],[361],[362],[363],[364],[365],[366],[367],[368],[369],[370],[371],[372],[373],[374],[375],[376],[377],[378],[379],[380],[381],[382],[383],[384],[385],[386],[387],[388],[389],[390],[391],[392],[393],[394],[395],[396],[397],[398],[399],[400],[401],[402],[403],[404],[405],[406],[407],[408],[409],[410],[411],[412],[413],[414],[415],[416],[417],[418],[419],[420],[421],[422],[423],[424],[425],[426],[427],[428],[429],[430],[431],[432],[433],[434],[435],[436],[437],[438],[439],[440],[441],[442],[443],[444],[445],[446],[447],[448],[449],[450],[451],[452],[453],[454],[455],[456],[457],[458],[459],[460],[461],[462],[463],[464],[465],[466],[467],[468],[469],[470],[471],[472],[473],[474],[475],[476],[477],[478],[479],[480],[481],[482],[483],[484],[485],[486],[487],[488],[489],[490],[491],[492],[493],[494],[495],[496],[497],[498],[499],[500],[501],[502],[503],[504],[505],[506],[507],[508],[509],[510],[511],[512],[513],[514],[515],[516],[517],[518],[519],[520],[521],[522],[523],[524],[525],[526],[527],[528],[529],[530],[531],[532],[533],[534],[535],[536],[537],[538],[539],[540],[541],[542],[543],[544],[545],[546],[547],[548],[549],[550],[551],[552]]},{"type":"LineString","properties":{"kind":"major_road","alt_name:ar":"\u0634\u0627\u0631\u0639 \u0627\u0644\u0636\u0628\u0627\u0628","sort_rank":380,"kind_detail":"primary","name:ar":"\u0634\u0627\u0631\u0639 \u0627\u0644\u0623\u0645\u064a\u0631 \u0639\u0628\u062f\u0627\u0644\u0639\u0632\u064a\u0632 \u0628\u0646 \u0645\u0633\u0627\u0639\u062f \u0628\u0646 \u062c\u0644\u0648\u064a","source":"openstreetmap.org","min_zoom":8.0,"landuse_kind":"urban_area","id":40806537},"arcs":[553]},{"type":"MultiLineString","properties":{"source":"openstreetmap.org","kind":"highway","landuse_kind":"urban_area","sort_rank":383,"kind_detail":"motorway","min_zoom":8.0},"arcs":[[554],[555],[556],[557],[558],[559],[560],[561],[562],[563],[564],[565],[566],[567],[568],[569],[570],[571],[572],[573],[574],[575],[576],[577],[578],[579],[580]]},{"type":"MultiLineString","properties":{"source":"openstreetmap.org","kind":"highway","name:en":"Western Ring Road","sort_rank":383,"kind_detail":"motorway","ref":"40","min_zoom":8.0},"arcs":[[581],[582],[583],[584],[585],[586],[587],[588],[589],[590],[591]]},{"type":"LineString","properties":{"source":"openstreetmap.org","kind":"major_road","name:en":"Alamir Mohamed Ibn Saad Ibn Abdelaziz Road","sort_rank":380,"kind_detail":"primary","min_zoom":8.0,"id":328733359},"arcs":[592]},{"type":"MultiLineString","properties":{"source":"openstreetmap.org","kind":"major_road","name:en":"Turki Al Awal Ibin Abdelaziz Road","sort_rank":380,"kind_detail":"primary","min_zoom":8.0},"arcs":[[593],[594],[595],[596],[597],[598],[599],[600]]},{"type":"MultiLineString","properties":{"source":"openstreetmap.org","kind":"major_road","name:en":"Prince Saud lbn Muhammad lbn Muqrin Road","landuse_kind":"urban_area","sort_rank":380,"kind_detail":"primary","min_zoom":8.0},"arcs":[[601],[602],[603],[604]]},{"type":"MultiLineString","properties":{"source":"openstreetmap.org","kind":"major_road","name:en":"Amir Muhammad Ibn Abdulrahman St","landuse_kind":"urban_area","sort_rank":380,"kind_detail":"primary","min_zoom":8.0},"arcs":[[605],[606],[607],[608]]},{"type":"MultiLineString","properties":{"kind":"major_road","name:en":"King Abdulaziz Road","sort_rank":380,"kind_detail":"primary","name:ar":"\u0637\u0631\u064a\u0642 \u0627\u0644\u0645\u0644\u0643 \u0639\u0628\u062f \u0627\u0644\u0639\u0632\u064a\u0632","name:fr":"Rue Roi Abdualaziz","source":"openstreetmap.org","min_zoom":8.0,"landuse_kind":"urban_area"},"arcs":[[609],[610]]},{"type":"MultiLineString","properties":{"source":"openstreetmap.org","kind":"major_road","sort_rank":381,"kind_detail":"trunk","ref":"65","min_zoom":8.0},"arcs":[[611],[612],[613],[614],[615],[616]]},{"type":"LineString","properties":{"source":"openstreetmap.org","kind":"major_road","sort_rank":380,"kind_detail":"primary","name:ar":"\u0637\u0631\u064a\u0642 \u0627\u0644\u062f\u064a\u0648\u0627\u0646","min_zoom":8.0,"id":39332066},"arcs":[617]},{"type":"LineString","properties":{"source":"openstreetmap.org","kind":"major_road","name:en":"AL Hair Road","sort_rank":380,"kind_detail":"primary","min_zoom":8.0},"arcs":[618]},{"type":"MultiLineString","properties":{"source":"openstreetmap.org","kind":"highway","landuse_kind":"urban_area","sort_rank":383,"kind_detail":"motorway","name:ar":"\u0627\u0644\u062f\u0627\u0626\u0631\u064a \u0627\u0644\u062d\u0646\u0648\u0628\u064a","min_zoom":8.0},"arcs":[[619],[620],[621],[622]]},{"type":"MultiLineString","properties":{"source":"openstreetmap.org","kind":"highway","name:en":"South Ring Road","landuse_kind":"urban_area","sort_rank":383,"kind_detail":"motorway","min_zoom":8.0},"arcs":[[623],[624],[625],[626]]},{"type":"MultiLineString","properties":{"kind":"highway","name:en":"King Khalid Road","sort_rank":383,"landuse_kind":"university","source":"openstreetmap.org","min_zoom":8.0,"kind_detail":"motorway","ref":"535"},"arcs":[[627],[628]]},{"type":"MultiLineString","properties":{"source":"openstreetmap.org","kind":"major_road","sort_rank":380,"kind_detail":"primary","ref":"5147","min_zoom":8.0},"arcs":[[629],[630]]},{"type":"MultiLineString","properties":{"source":"openstreetmap.org","kind":"highway","kind_detail":"motorway","sort_rank":383,"landuse_kind":"aerodrome","min_zoom":8.0},"arcs":[[631],[632]]},{"type":"MultiLineString","properties":{"source":"openstreetmap.org","kind":"major_road","name:en":"Abi Obaidah BinAl Jarah Road","landuse_kind":"urban_area","sort_rank":380,"kind_detail":"primary","min_zoom":8.0},"arcs":[[633],[634]]},{"type":"MultiLineString","properties":{"source":"openstreetmap.org","kind":"highway","sort_rank":383,"kind_detail":"motorway","ref":"40","min_zoom":8.0},"arcs":[[635],[636],[637],[638],[639],[640],[641],[642],[643],[644],[645],[646],[647],[648],[649],[650],[651]]},{"type":"MultiLineString","properties":{"source":"openstreetmap.org","kind":"major_road","name:en":"Turki Al Awal Ibin Abdelaziz Road","landuse_kind":"urban_area","sort_rank":380,"kind_detail":"primary","min_zoom":8.0},"arcs":[[652],[653],[654],[655]]},{"type":"MultiLineString","properties":{"source":"openstreetmap.org","kind":"major_road","name:en":"Imam Saud Ibn Faisal Road","sort_rank":380,"kind_detail":"primary","min_zoom":8.0,"name:fr":"Avenue Imam Saoud Ibn Faisal"},"arcs":[[656],[657]]},{"type":"LineString","properties":{"kind":"major_road","name:en":"Ad Diwan Road","sort_rank":380,"landuse_kind":"urban_area","source":"openstreetmap.org","min_zoom":8.0,"kind_detail":"primary","id":159100540},"arcs":[658]},{"type":"MultiLineString","properties":{"source":"openstreetmap.org","kind":"major_road","name:en":"Abi Obaidah BinAl Jarah Road","sort_rank":380,"kind_detail":"primary","min_zoom":8.0},"arcs":[[659],[660]]},{"type":"MultiLineString","properties":{"source":"openstreetmap.org","kind":"major_road","landuse_kind":"urban_area","sort_rank":380,"kind_detail":"primary","name:ar":"\u0623\u0628\u0648 \u0628\u0643\u0631 \u0627\u0644\u0635\u062f\u064a\u0642","min_zoom":8.0},"arcs":[[661],[662],[663]]},{"type":"MultiLineString","properties":{"sort_rank":380,"kind_detail":"primary","min_zoom":8.0,"kind":"major_road","source":"openstreetmap.org"},"arcs":[[664],[665],[666],[667],[668],[669],[670],[671],[672],[673],[674],[675],[676],[677],[678],[679],[680],[681],[682],[683],[684],[685],[686],[687],[688],[689],[690],[691],[692],[693],[694],[695],[696],[697],[698],[699],[700],[701],[702],[703],[704],[705],[706],[707],[708],[709],[710],[711],[712],[713],[714],[715],[716],[717],[718],[719],[720],[721],[722],[723],[724],[725],[726],[727],[728],[729],[730],[731],[732],[733],[734],[735],[736],[737],[738],[739],[740],[741],[742],[743],[744],[745],[746],[747],[748],[749],[750],[751],[752],[753],[754],[755],[756],[757],[758],[759],[760],[761],[762],[763],[764],[765],[766],[767],[768],[769],[770],[771],[772],[773],[774],[775],[776],[777],[778],[779],[780],[781],[782],[783],[784],[785],[786],[787],[788],[789],[790],[791],[792],[793],[794],[795],[796],[797],[798],[799],[800],[801],[802],[803],[804],[805],[806],[807],[808],[809],[810],[811],[812],[813],[814],[815],[816],[817],[818],[819],[820],[821],[822],[823],[824],[825],[826],[827],[828],[829],[830],[831]]},{"type":"MultiLineString","properties":{"kind":"major_road","name:en":"Khurais Road","sort_rank":380,"kind_detail":"primary","source":"openstreetmap.org","min_zoom":8.0,"landuse_kind":"urban_area","ref":"522"},"arcs":[[832],[833]]},{"type":"MultiLineString","properties":{"source":"openstreetmap.org","kind":"major_road","sort_rank":380,"kind_detail":"primary","ref":"522","min_zoom":8.0},"arcs":[[834],[835]]},{"type":"MultiLineString","properties":{"source":"openstreetmap.org","kind":"major_road","name:en":"Prince Saud lbn Muhammad lbn Muqrin Road","sort_rank":380,"kind_detail":"primary","min_zoom":8.0,"name:fr":"Route Prince Saoud Ben Mohamed Ben Mokren"},"arcs":[[836],[837]]},{"type":"MultiLineString","properties":{"source":"openstreetmap.org","kind":"major_road","name:en":"King Khalid Road","kind_detail":"primary","sort_rank":380,"landuse_kind":"urban_area","min_zoom":8.0},"arcs":[[838],[839],[840],[841],[842]]},{"type":"MultiLineString","properties":{"source":"openstreetmap.org","kind":"major_road","name:en":"Thumamah Road","sort_rank":380,"kind_detail":"primary","min_zoom":8.0},"arcs":[[843],[844],[845],[846],[847],[848],[849],[850]]},{"type":"MultiLineString","properties":{"source":"openstreetmap.org","kind":"highway","name:en":"East Ring Road","landuse_kind":"urban_area","sort_rank":383,"kind_detail":"motorway","min_zoom":8.0},"arcs":[[851],[852],[853],[854],[855],[856]]},{"type":"LineString","properties":{"source":"openstreetmap.org","kind":"highway","name:en":"King Khalid Road","sort_rank":383,"kind_detail":"motorway","min_zoom":8.0,"id":258336576},"arcs":[857]},{"type":"MultiLineString","properties":{"source":"openstreetmap.org","kind":"highway","name:en":"Second Ring Road","kind_detail":"motorway","sort_rank":383,"landuse_kind":"urban_area","min_zoom":8.0},"arcs":[[858],[859],[860],[861],[862],[863],[864],[865],[866]]},{"type":"MultiLineString","properties":{"kind":"major_road","name:en":"King Khalid Road","sort_rank":380,"kind_detail":"primary","source":"openstreetmap.org","min_zoom":8.0,"landuse_kind":"military","ref":"535"},"arcs":[[867],[868],[869],[870],[871],[872]]},{"type":"MultiLineString","properties":{"source":"openstreetmap.org","kind":"major_road","sort_rank":381,"kind_detail":"trunk","ref":"523","min_zoom":8.0},"arcs":[[873],[874]]},{"type":"MultiLineString","properties":{"kind":"major_road","name:en":"King Abdullah Road","sort_rank":381,"landuse_kind":"urban_area","name:ar":"\u0637\u0631\u064a\u0642 \u0627\u0644\u0645\u0644\u0643 \u0639\u0628\u062f \u0627\u0644\u0644\u0647","source":"openstreetmap.org","min_zoom":8.0,"kind_detail":"trunk"},"arcs":[[875],[876]]},{"type":"MultiLineString","properties":{"source":"openstreetmap.org","kind":"highway","name:en":"Dirab Road","sort_rank":383,"kind_detail":"motorway","min_zoom":8.0},"arcs":[[877],[878]]},{"type":"MultiLineString","properties":{"source":"openstreetmap.org","kind":"major_road","name:en":"Harun Ar Rashid Road","sort_rank":380,"kind_detail":"primary","min_zoom":8.0},"arcs":[[879],[880]]},{"type":"MultiLineString","properties":{"source":"openstreetmap.org","kind":"highway","name:en":"Al Urubah Road","kind_detail":"motorway","sort_rank":383,"landuse_kind":"urban_area","min_zoom":8.0},"arcs":[[881],[882],[883],[884]]},{"type":"LineString","properties":{"kind":"highway","sort_rank":383,"landuse_kind":"aerodrome","source":"openstreetmap.org","min_zoom":8.0,"kind_detail":"motorway","ref":"539","id":258325360},"arcs":[885]},{"type":"MultiLineString","properties":{"source":"openstreetmap.org","kind":"highway","landuse_kind":"urban_area","sort_rank":383,"kind_detail":"motorway","ref":"40","min_zoom":8.0},"arcs":[[886],[887],[888],[889]]},{"type":"MultiLineString","properties":{"source":"openstreetmap.org","kind":"major_road","name:en":"Prince Saud lbn Muhammad lbn Muqrin Road","sort_rank":380,"kind_detail":"primary","min_zoom":8.0},"arcs":[[890],[891],[892],[893],[894],[895],[896],[897],[898],[899],[900],[901],[902],[903],[904],[905],[906],[907],[908],[909],[910],[911],[912],[913],[914],[915]]},{"type":"MultiLineString","properties":{"source":"openstreetmap.org","kind":"major_road","landuse_kind":"military","sort_rank":380,"kind_detail":"primary","ref":"5147","min_zoom":8.0},"arcs":[[916],[917]]},{"type":"MultiLineString","properties":{"source":"openstreetmap.org","kind":"major_road","kind_detail":"trunk","sort_rank":381,"landuse_kind":"urban_area","min_zoom":8.0},"arcs":[[918],[919],[920],[921],[922],[923],[924],[925],[926],[927],[928],[929],[930],[931],[932],[933],[934],[935]]},{"type":"MultiLineString","properties":{"source":"openstreetmap.org","kind":"major_road","kind_detail":"trunk","sort_rank":381,"landuse_kind":"urban_area","ref":"65","min_zoom":8.0},"arcs":[[936],[937],[938],[939],[940],[941]]},{"type":"MultiLineString","properties":{"source":"openstreetmap.org","kind":"major_road","name:en":"Sa'ad Bin Abdulrahman Al Awal Road","landuse_kind":"urban_area","sort_rank":380,"kind_detail":"primary","min_zoom":8.0},"arcs":[[942],[943]]},{"type":"MultiLineString","properties":{"source":"openstreetmap.org","kind":"major_road","name:en":"Al Takhassusi Road","sort_rank":380,"kind_detail":"primary","min_zoom":8.0},"arcs":[[944],[945]]},{"type":"LineString","properties":{"kind":"major_road","name:en":"Abu Dhabi Place","sort_rank":380,"landuse_kind":"urban_area","source":"openstreetmap.org","min_zoom":8.0,"kind_detail":"primary","id":35968475},"arcs":[946]},{"type":"MultiLineString","properties":{"source":"openstreetmap.org","kind":"highway","name:en":"South Ring Road","sort_rank":383,"kind_detail":"motorway","min_zoom":8.0},"arcs":[[947],[948],[949],[950],[951],[952],[953],[954],[955],[956],[957],[958],[959],[960],[961],[962]]},{"type":"MultiLineString","properties":{"source":"openstreetmap.org","kind":"highway","name:en":"Western Ring Road","sort_rank":383,"kind_detail":"motorway","ref":"500","min_zoom":8.0},"arcs":[[963],[964]]},{"type":"MultiLineString","properties":{"source":"openstreetmap.org","kind":"major_road","name:en":"Imam Abdullah Ibn Saud Ibn Abdul Aziz Road","sort_rank":380,"kind_detail":"primary","min_zoom":8.0},"arcs":[[965],[966],[967],[968],[969],[970]]},{"type":"MultiLineString","properties":{"source":"openstreetmap.org","kind":"major_road","landuse_kind":"aerodrome","sort_rank":380,"kind_detail":"primary","min_zoom":8.0},"arcs":[[971],[972],[973],[974],[975],[976],[977],[978],[979],[980],[981],[982],[983],[984],[985],[986],[987],[988],[989],[990],[991],[992]]},{"type":"LineString","properties":{"source":"openstreetmap.org","kind":"highway","landuse_kind":"urban_area","sort_rank":383,"kind_detail":"motorway","ref":"65","min_zoom":8.0},"arcs":[993]},{"type":"MultiLineString","properties":{"source":"openstreetmap.org","kind":"highway","name:en":"Khurais Road","landuse_kind":"urban_area","sort_rank":383,"kind_detail":"motorway","min_zoom":8.0},"arcs":[[994],[995],[996],[997]]},{"type":"MultiLineString","properties":{"sort_rank":383,"kind_detail":"motorway","min_zoom":8.0,"kind":"highway","source":"openstreetmap.org"},"arcs":[[998],[999],[1000],[1001],[1002],[1003],[1004],[1005],[1006],[1007],[1008],[1009],[1010],[1011],[1012],[1013],[1014],[1015],[1016],[1017],[1018],[1019],[1020],[1021],[1022],[1023],[1024],[1025],[1026],[1027],[1028],[1029],[1030],[1031],[1032],[1033],[1034],[1035],[1036],[1037],[1038],[1039],[1040],[1041],[1042],[1043],[1044],[1045],[1046],[1047],[1048],[1049],[1050],[1051],[1052],[1053],[1054],[1055],[1056]]},{"type":"MultiLineString","properties":{"source":"openstreetmap.org","kind":"highway","name:en":"Makkah Al Mukarramah Road","landuse_kind":"urban_area","sort_rank":383,"kind_detail":"motorway","min_zoom":8.0},"arcs":[[1057],[1058],[1059],[1060],[1061]]},{"type":"MultiLineString","properties":{"source":"openstreetmap.org","kind":"major_road","name:en":"Khurais Road","landuse_kind":"urban_area","sort_rank":380,"kind_detail":"primary","min_zoom":8.0},"arcs":[[1062],[1063],[1064],[1065],[1066],[1067]]},{"type":"MultiLineString","properties":{"source":"openstreetmap.org","kind":"major_road","name:en":"Khurais Road","sort_rank":380,"kind_detail":"primary","min_zoom":8.0},"arcs":[[1068],[1069],[1070]]},{"type":"MultiLineString","properties":{"source":"openstreetmap.org","kind":"highway","name:en":"Dammam Road","sort_rank":383,"kind_detail":"motorway","ref":"40","min_zoom":8.0},"arcs":[[1071],[1072]]},{"type":"MultiLineString","properties":{"source":"openstreetmap.org","kind":"major_road","name:en":"Al Suwaidy tunnel","landuse_kind":"urban_area","sort_rank":380,"kind_detail":"primary","min_zoom":8.0},"arcs":[[1073],[1074]]},{"type":"MultiLineString","properties":{"source":"openstreetmap.org","kind":"major_road","name:en":"Abi Bakr As Siddiq Road","sort_rank":380,"kind_detail":"primary","min_zoom":8.0},"arcs":[[1075],[1076],[1077],[1078],[1079],[1080],[1081],[1082],[1083],[1084],[1085],[1086],[1087],[1088]]},{"type":"MultiLineString","properties":{"source":"openstreetmap.org","kind":"highway","name:en":"King Fahad Road","sort_rank":383,"kind_detail":"motorway","min_zoom":8.0,"name:fr":"Avenue Roi Fahd"},"arcs":[[1089],[1090],[1091],[1092],[1093]]},{"type":"MultiLineString","properties":{"source":"openstreetmap.org","kind":"major_road","name:en":"Harun Ar Rashid Road","landuse_kind":"urban_area","sort_rank":380,"kind_detail":"primary","min_zoom":8.0},"arcs":[[1094],[1095]]},{"type":"MultiLineString","properties":{"source":"openstreetmap.org","kind":"highway","name:en":"Dirab Road","landuse_kind":"urban_area","sort_rank":383,"kind_detail":"motorway","min_zoom":8.0},"arcs":[[1096],[1097]]},{"type":"MultiLineString","properties":{"kind":"highway","name:en":"Makkah Al Mukarramah Road","sort_rank":383,"landuse_kind":"urban_area","source":"openstreetmap.org","min_zoom":8.0,"kind_detail":"motorway","ref":"522"},"arcs":[[1098],[1099],[1100],[1101],[1102],[1103]]},{"type":"MultiLineString","properties":{"source":"openstreetmap.org","kind":"major_road","name:en":"Turki Bin Abdelaziz (The First)","sort_rank":380,"kind_detail":"primary","min_zoom":8.0},"arcs":[[1104],[1105]]},{"type":"MultiLineString","properties":{"source":"openstreetmap.org","kind":"major_road","name:en":"Al Urubah Road","landuse_kind":"urban_area","sort_rank":380,"kind_detail":"primary","min_zoom":8.0},"arcs":[[1106],[1107],[1108],[1109]]},{"type":"MultiLineString","properties":{"kind":"major_road","name:en":"King Abdulaziz Road","sort_rank":380,"kind_detail":"primary","name:ar":"\u0637\u0631\u064a\u0642 \u0627\u0644\u0645\u0644\u0643 \u0639\u0628\u062f \u0627\u0644\u0639\u0632\u064a\u0632","name:fr":"Rue Roi Abdualaziz","source":"openstreetmap.org","min_zoom":8.0},"arcs":[[1110],[1111]]},{"type":"MultiLineString","properties":{"source":"openstreetmap.org","kind":"highway","name:en":"East Ring Road","sort_rank":383,"kind_detail":"motorway","min_zoom":8.0},"arcs":[[1112],[1113],[1114],[1115],[1116],[1117],[1118]]},{"type":"MultiLineString","properties":{"source":"openstreetmap.org","kind":"highway","name:en":"Dirab Road","sort_rank":383,"kind_detail":"motorway","ref":"505","min_zoom":8.0},"arcs":[[1119],[1120]]},{"type":"MultiLineString","properties":{"source":"openstreetmap.org","kind":"major_road","name:en":"Al Takhassusi Road","kind_detail":"primary","sort_rank":380,"landuse_kind":"urban_area","min_zoom":8.0},"arcs":[[1121],[1122],[1123],[1124],[1125],[1126],[1127]]},{"type":"LineString","properties":{"kind":"major_road","name:en":"Old Khurais Road","sort_rank":380,"kind_detail":"primary","source":"openstreetmap.org","min_zoom":8.0,"ref":"522","id":134764445},"arcs":[1128]},{"type":"LineString","properties":{"kind":"highway","name:en":"Al Kharj Road","sort_rank":383,"kind_detail":"motorway","source":"openstreetmap.org","min_zoom":8.0,"landuse_kind":"urban_area","ref":"513","id":46654594},"arcs":[1129]},{"type":"LineString","properties":{"kind":"major_road","name:en":"Al Kharj Road","sort_rank":381,"kind_detail":"trunk","source":"openstreetmap.org","min_zoom":8.0,"landuse_kind":"urban_area","ref":"65","id":258309408},"arcs":[1130]},{"type":"MultiLineString","properties":{"kind":"highway","name:en":"Dammam Road","sort_rank":383,"kind_detail":"motorway","source":"openstreetmap.org","min_zoom":8.0,"landuse_kind":"urban_area","ref":"40"},"arcs":[[1131],[1132]]},{"type":"MultiLineString","properties":{"kind":"highway","name:en":"King Fahad Road","sort_rank":383,"kind_detail":"motorway","name:fr":"Avenue Roi Fahd","source":"openstreetmap.org","min_zoom":8.0,"ref":"65"},"arcs":[[1133],[1134]]},{"type":"MultiLineString","properties":{"kind":"highway","name:en":"King Khalid Road","sort_rank":383,"landuse_kind":"urban_area","source":"openstreetmap.org","min_zoom":8.0,"kind_detail":"motorway","ref":"535"},"arcs":[[1135],[1136]]},{"type":"MultiLineString","properties":{"source":"openstreetmap.org","kind":"highway","name:en":"Western Ring Road","sort_rank":383,"kind_detail":"motorway","min_zoom":8.0},"arcs":[[1137],[1138],[1139],[1140],[1141],[1142],[1143],[1144],[1145]]},{"type":"MultiLineString","properties":{"source":"openstreetmap.org","kind":"highway","name:en":"Northern Ring Road","sort_rank":383,"kind_detail":"motorway","ref":"40","min_zoom":8.0},"arcs":[[1146],[1147],[1148],[1149]]},{"type":"MultiLineString","properties":{"source":"openstreetmap.org","kind":"major_road","name:en":"King Khalid Road","sort_rank":380,"kind_detail":"primary","ref":"535","min_zoom":8.0},"arcs":[[1150],[1151],[1152],[1153],[1154],[1155]]},{"type":"MultiLineString","properties":{"source":"openstreetmap.org","kind":"major_road","name:en":"Prince Mutaib Bin Abdallah Bin Abdul Aziz Street","kind_detail":"trunk","sort_rank":381,"landuse_kind":"urban_area","min_zoom":8.0},"arcs":[[1156],[1157]]},{"type":"MultiLineString","properties":{"source":"openstreetmap.org","kind":"highway","name:en":"King Fahd Road","landuse_kind":"urban_area","sort_rank":383,"kind_detail":"motorway","min_zoom":8.0},"arcs":[[1158],[1159],[1160],[1161],[1162],[1163],[1164],[1165]]},{"type":"MultiLineString","properties":{"kind":"highway","name:en":"Khurais Road","sort_rank":383,"landuse_kind":"urban_area","source":"openstreetmap.org","min_zoom":8.0,"kind_detail":"motorway","ref":"522"},"arcs":[[1166],[1167]]},{"type":"LineString","properties":{"kind":"major_road","name:en":"Al Ma'ather Street","sort_rank":380,"landuse_kind":"urban_area","source":"openstreetmap.org","min_zoom":8.0,"kind_detail":"primary","id":181158397},"arcs":[1168]},{"type":"MultiLineString","properties":{"kind":"major_road","name:en":"Abdulaziz Bin Musaed Bin Jalawi","sort_rank":380,"kind_detail":"primary","alt_name:ar":"\u0634\u0627\u0631\u0639 \u0627\u0644\u0636\u0628\u0627\u0628","source":"openstreetmap.org","min_zoom":8.0,"alt_name:en":"Dabab Street","landuse_kind":"urban_area"},"arcs":[[1169],[1170]]},{"type":"LineString","properties":{"kind":"highway","name:en":"East Ring Road","sort_rank":383,"kind_detail":"motorway","source":"openstreetmap.org","min_zoom":8.0,"ref":"513","id":156738148},"arcs":[1171]},{"type":"MultiLineString","properties":{"source":"openstreetmap.org","kind":"highway","name:en":"Al Kharj Road","sort_rank":383,"kind_detail":"motorway","ref":"513","min_zoom":8.0},"arcs":[[1172],[1173],[1174],[1175],[1176],[1177],[1178],[1179]]},{"type":"LineString","properties":{"kind":"major_road","sort_rank":381,"landuse_kind":"urban_area","name:ar":"\u0637\u0631\u064a\u0642 \u0627\u0644\u062e\u0631\u062c","source":"openstreetmap.org","min_zoom":8.0,"kind_detail":"trunk","id":258309404},"arcs":[1180]},{"type":"LineString","properties":{"source":"openstreetmap.org","kind":"major_road","name:en":"Al Hair Road","sort_rank":380,"kind_detail":"primary","min_zoom":8.0},"arcs":[1181]}]},"earth":{"type":"GeometryCollection","geometries":[{"type":"Polygon","properties":{"sort_rank":10,"source":"naturalearthdata.com","kind":"earth","min_zoom":0.0,"id":4716},"arcs":[[1182]]}]},"landuse":{"type":"GeometryCollection","geometries":[{"type":"Polygon","properties":{"kind":"aerodrome","area":51928100,"sort_rank":60,"operator":"General Authority of Civil Aviation","source":"openstreetmap.org","min_zoom":8.0,"tier":3,"id":471667957},"arcs":[[1183]]},{"type":"MultiPolygon","properties":{"source":"openstreetmap.org","kind":"military","tier":3,"area":851658113,"sort_rank":45,"min_zoom":8.0},"arcs":[[[1184]],[[1185]],[[1186]],[[1187]],[[1188]]]},{"type":"MultiPolygon","properties":{"source":"naturalearthdata.com","kind":"urban_area","name":"","area":841053452,"sort_rank":11,"min_zoom":4.0},"arcs":[[[1189]],[[1190]]]},{"type":"Polygon","properties":{"source":"openstreetmap.org","kind":"university","area":10946600,"tier":3,"id":133973548,"min_zoom":8.0,"sort_rank":39},"arcs":[[1191]]}]}},"type":"Topology","transform":{"translate":[46.40625,24.5271348226],"scale":[0.0003433228,0.0003107315]},"arcs":[[[4096,104],[-632,411],[-193,154],[-95,153],[-28,103],[-59,843],[23,949],[31,331],[-18,1048]],[[524,926],[-61,-57]],[[463,868],[87,69]],[[666,992],[-59,-27]],[[607,964],[59,28]],[[923,1257],[-71,-66]],[[860,1198],[52,31]],[[1416,537],[-96,148]],[[1339,656],[77,-120]],[[0,2071],[171,-167],[190,-410]],[[362,1495],[-193,415],[-86,95],[-83,80]],[[747,655],[-18,39]],[[947,542],[0,-2],[2,0],[0,2],[-2,0]],[[1350,642],[-1,-1]],[[1349,641],[1,1]],[[690,458],[4,-56]],[[1188,885],[11,-17]],[[1200,869],[-11,15]],[[1199,867],[21,-31]],[[1221,836],[-21,32]],[[1221,835],[46,-69]],[[1267,766],[-45,69]],[[992,1667],[44,-54],[37,-118]],[[1073,1495],[25,-79]],[[1098,1416],[1,-3],[162,-183],[34,-206],[-15,-77],[36,-111]],[[1175,1333],[-77,83]],[[1098,1416],[0,1],[-25,78]],[[1073,1495],[-37,119],[-44,53]],[[1292,994],[4,30],[-34,206],[-67,83],[-8,8]],[[1316,836],[-35,111],[12,44]],[[461,868],[-124,21]],[[337,889],[124,-22]],[[912,576],[10,-19]],[[923,555],[-5,19]],[[921,569],[42,-140],[118,61]],[[1081,491],[-118,-61],[-42,139]],[[522,267],[15,-33]],[[538,234],[-16,33]],[[538,232],[21,-43]],[[560,189],[-22,43]],[[560,187],[19,-28],[74,-43],[40,-7]],[[693,109],[-132,79]],[[679,650],[11,-14]],[[1416,536],[1,-5]],[[1417,531],[13,-60],[98,-122],[-6,-128],[6,128],[-96,119],[-15,63]],[[1417,531],[-1,6]],[[838,752],[-175,-82]],[[663,670],[176,82]],[[944,801],[-102,-47]],[[842,753],[102,48]],[[336,890],[-111,11],[-75,53],[-75,-25],[-10,-27]],[[66,901],[10,27],[74,26],[74,-53],[112,-12]],[[909,882],[11,-28]],[[921,854],[-12,29]],[[412,1080],[-6,23],[-26,37]],[[383,1134],[29,-54]],[[866,477],[37,-140]],[[904,337],[3,13],[1,12],[-42,115]],[[702,752]],[[810,817],[5,-11]],[[816,807],[-5,10]],[[759,652],[26,-57]],[[1312,435],[-36,-47]],[[1276,387],[36,42]],[[1316,555],[-5,-26]],[[1311,527],[1,-40]],[[1312,429],[1,3]],[[1399,219],[-4,64],[-83,146]],[[1312,529],[7,29]],[[1313,487],[-1,40]],[[1312,435],[0,51]],[[1313,432],[0,54]],[[1317,403],[-22,-3]],[[1317,403],[75,-116],[6,-68]],[[938,268],[47,-85]],[[552,940],[-28,-14]],[[550,937],[3,1]],[[607,965],[-53,-25]],[[554,939],[50,24]],[[852,1191],[-29,-121],[-155,-77]],[[668,992],[157,79],[35,127]],[[1062,267],[-3,1]],[[567,690],[7,2]],[[641,580],[-10,-12]],[[631,568],[11,9]],[[728,694],[19,-40]],[[798,542],[-26,58]],[[800,539],[62,-141]],[[862,398],[-62,141]],[[862,395],[2,-14]],[[865,381],[-2,14]],[[604,963],[3,1]],[[729,694],[-26,58]],[[772,600],[-25,55]],[[709,763],[50,-111]],[[850,461],[-141,302]],[[785,595],[48,-103],[17,-31]],[[950,793],[-6,7]],[[647,1175],[-105,-47]],[[711,1204],[-115,-53],[-54,-23]],[[543,1127],[53,23],[115,54]],[[543,1127],[53,23],[52,24]],[[710,1205],[-62,-29]],[[648,1174],[63,29]],[[986,183],[-47,85]],[[688,807],[21,-44]],[[709,763],[-19,45]],[[1108,1002],[80,-117]],[[1189,884],[-80,120]],[[463,869],[-2,-1]],[[461,867],[2,1]],[[668,993],[-2,-1]],[[666,992],[2,0]],[[3374,1989],[0,5]],[[554,940],[-2,0],[0,-2],[2,0],[0,2]],[[1107,1007],[-4,-2],[1,-4],[5,1],[-2,5]],[[3366,1997],[1,-3],[7,3],[-1,3],[-7,-3]],[[886,1197],[59,-106],[3,-63],[-35,-61]],[[914,967],[34,59],[-2,66],[-52,97],[30,72],[-20,34]],[[907,956],[-12,-41],[14,-33]],[[909,883],[-1,73]],[[678,804],[1,-1]],[[679,803],[0,1]],[[944,800],[51,-112]],[[995,683],[36,-80],[-83,-61]],[[1000,687],[-50,106]],[[1045,610],[-42,66]],[[855,502],[10,-24]],[[1409,648],[-49,-25]],[[1361,622],[48,23]],[[704,397],[-6,-2]],[[701,751],[154,73]],[[852,823],[-149,-69]],[[867,829],[53,25]],[[920,855],[-51,-24]],[[946,802],[35,16],[-33,-15]],[[948,803],[-2,-1]],[[996,828],[-48,-25]],[[948,803]],[[1046,849],[-65,-30],[59,26]],[[1135,894],[-84,-43]],[[1051,850],[84,44]],[[715,886],[3,-7]],[[718,882],[-2,5]],[[720,878],[-1,1]],[[696,377],[-1,24]],[[190,1323],[12,-57],[133,-65],[48,-67]],[[380,1140],[-45,63],[-132,64],[-12,56]],[[412,1080],[42,-183],[76,-213],[11,-21],[42,-40]],[[573,633],[-42,52],[-119,395]],[[624,579],[18,-32]],[[642,548],[-17,30]],[[1059,261],[164,-111]],[[1224,150],[-162,117]],[[390,192],[122,-10],[37,23],[2,2],[19,11]],[[570,218],[2,2]],[[573,220],[-3,-2]],[[570,218],[-19,-11],[-40,-24],[-120,10]],[[493,150],[74,2],[4,2]],[[571,154],[32,22]],[[603,176],[90,58]],[[693,234],[0,1]],[[693,235],[67,43],[14,1],[79,16],[7,4]],[[860,299]],[[860,299],[3,2]],[[863,301],[45,28]],[[908,329]],[[908,329],[3,2]],[[911,331],[37,23]],[[948,354],[-37,-23]],[[911,331],[-3,-2]],[[908,329]],[[908,329],[-45,-28]],[[863,301],[-3,-2]],[[860,299]],[[860,299],[-7,-4],[-93,-16],[-67,-44]],[[693,235]],[[693,235],[-90,-59]],[[603,176],[-32,-22]],[[571,154],[-78,-3]],[[662,670],[1,0]],[[665,277],[3,-5]],[[668,272],[1,-1]],[[669,271],[24,-36]],[[693,235],[0,-1]],[[693,234],[31,-46],[38,-57]],[[762,131],[-4,7],[-19,28],[-5,8]],[[734,174],[-1,1]],[[733,175],[-40,60]],[[693,235]],[[693,235],[-11,17],[-13,20]],[[669,272]],[[669,272],[-4,6]],[[704,487],[-14,-29]],[[693,737],[57,-91]],[[693,459],[11,28]],[[704,396],[67,15]],[[771,411],[1,0]],[[772,411],[20,5]],[[792,416],[1,0]],[[793,416],[1,1],[18,13]],[[812,430]],[[812,430],[26,20]],[[838,450],[5,3],[1,1]],[[844,454],[6,7]],[[850,461]],[[850,461],[16,16]],[[866,477]],[[866,477],[0,1],[41,53]],[[752,647],[-25,52]],[[775,203],[-42,-28]],[[733,175]],[[733,174],[1,0]],[[734,174],[42,29]],[[736,539],[1,0]],[[736,539],[1,-1]],[[737,538]],[[750,646],[1,0]],[[751,646],[3,0]],[[751,644],[69,-152],[-64,-15]],[[752,645],[-1,1]],[[751,646],[0,1]],[[756,475],[9,0]],[[757,494]],[[758,494],[-1,0]],[[758,496],[0,-1]],[[766,475],[58,5],[14,-30]],[[838,450]],[[838,450],[21,-47]],[[859,403],[1,-3]],[[860,400],[0,-1]],[[860,399],[1,-1]],[[862,9],[-91,69]],[[771,77],[90,-68]],[[898,524],[-75,-32],[-48,104]],[[814,384],[-39,-11]],[[775,373],[0,-1]],[[775,372]],[[775,372],[39,11]],[[874,250],[-9,-5]],[[865,245],[-88,-41]],[[777,204],[88,41]],[[865,245],[10,4]],[[784,507]],[[784,423],[-13,-12]],[[771,411],[-6,-5],[23,-81],[-13,47]],[[775,372],[0,1]],[[775,373],[-9,33],[6,5]],[[772,411],[13,11]],[[785,422],[7,-6]],[[792,416],[29,-26]],[[821,390],[-2,-3]],[[819,387],[-5,-3]],[[814,383],[1,1]],[[815,384],[4,3]],[[819,387],[2,3]],[[821,390],[-28,26]],[[793,416]],[[793,416],[-7,7]],[[898,524],[-32,-46]],[[866,478],[-1,0]],[[865,478],[-21,-23]],[[844,455],[0,-1],[-1,0],[-5,-4]],[[838,450],[-26,-19]],[[812,431],[0,-1]],[[812,430],[-18,-13],[-1,-1]],[[793,416]],[[810,679],[39,-77],[58,-25]],[[907,578],[-58,25],[-39,76]],[[811,431],[1,-1]],[[812,430]],[[812,430],[0,-1],[2,-3]],[[814,426],[15,-29]],[[829,397],[0,-1]],[[829,396],[2,-2]],[[831,394],[4,-8],[1,-1],[-1,-14],[-1,-13],[0,-13],[-1,-10],[0,-11]],[[833,324]],[[827,318]],[[827,318],[6,6]],[[833,324],[3,63],[-5,7]],[[831,394],[-2,2]],[[829,396],[0,1]],[[829,397],[-1,0],[-13,27],[-1,2]],[[814,426],[-2,4]],[[812,430],[0,1]],[[812,431]],[[950,443],[-36,-23],[-5,-4]],[[909,416],[-3,-2]],[[906,414],[-1,-1]],[[905,413],[-2,-1],[-1,-2]],[[902,410],[0,-1],[-1,0]],[[901,409],[-13,-4]],[[888,405],[-1,0]],[[887,405],[-5,-2]],[[882,403],[-3,-1],[-7,-2],[-12,0]],[[860,400],[-1,0]],[[859,400],[-6,0],[-15,-3],[-2,0],[-7,0]],[[829,397]],[[829,397],[-1,0],[-2,-1],[-4,-9],[-7,-3]],[[815,384],[-1,0]],[[814,383],[8,3],[1,1]],[[823,387],[0,1]],[[823,388],[1,2],[2,5],[2,1],[1,0]],[[829,396]],[[829,396],[7,1],[2,0],[5,1]],[[815,806],[1,-1],[18,-40],[3,-5],[3,-7]],[[840,753],[0,-1]],[[840,752],[4,-8],[1,-2],[14,-31]],[[817,805],[-1,2]],[[820,316],[0,-1]],[[820,315]],[[823,317],[-51,-1],[-43,-6],[-1,-3],[-59,-35]],[[669,272],[-1,0]],[[668,272],[-93,-56],[94,55]],[[669,271],[0,1]],[[669,272],[59,35],[2,3],[42,6],[2,0],[46,-1]],[[820,315],[2,0]],[[830,389],[-6,-1]],[[824,388],[-1,-1]],[[823,387]],[[823,388]],[[823,388],[1,0]],[[824,388],[10,-2]],[[833,324],[-6,-6]],[[827,318]],[[828,397],[-1,-1]],[[831,320],[6,-3]],[[837,317],[1,0]],[[1023,283],[0,-30],[-134,-64],[-23,39],[-1,17]],[[865,245]],[[865,245],[-2,52]],[[863,297],[0,1]],[[863,298],[0,3]],[[863,301]],[[863,301],[-4,98]],[[859,399],[0,1]],[[859,400],[0,3]],[[859,403],[-1,35],[-14,16]],[[844,454],[0,1]],[[844,455],[-12,14]],[[833,324],[5,-7]],[[874,292],[-11,6]],[[863,298],[-2,1]],[[861,299],[-1,0]],[[860,299]],[[860,299],[-15,8],[-8,10]],[[837,317],[-4,5]],[[845,742],[-4,11]],[[841,753],[-1,0]],[[840,753],[-5,12]],[[838,394],[5,4]],[[838,317],[22,-18]],[[860,299]],[[860,299],[1,0]],[[861,299],[2,-2]],[[863,297],[11,-9]],[[842,754],[-2,-1]],[[840,753]],[[840,753],[-2,-1]],[[839,752],[1,0]],[[840,752],[1,1]],[[841,753],[1,0]],[[843,398],[8,1],[8,0]],[[859,399],[1,0]],[[860,399],[12,1],[7,2],[3,1]],[[882,403],[5,3]],[[887,406]],[[887,406],[19,8]],[[906,414]],[[906,414],[1,1],[2,1]],[[909,416],[6,3]],[[850,461]],[[850,461],[1,-2],[36,-53]],[[887,406],[0,-1]],[[887,405]],[[887,405],[1,0]],[[888,405],[0,1],[-1,0]],[[887,406],[-35,54],[-2,1]],[[850,461]],[[854,503],[1,-1]],[[855,503]],[[865,478]],[[865,478],[1,-1]],[[866,477]],[[866,477]],[[866,477],[0,1]],[[866,478],[-1,0]],[[884,645],[37,-76]],[[921,569],[0,11],[-37,65]],[[886,649],[0,-5]],[[891,781],[0,2]],[[921,301],[-1,5]],[[920,306],[-1,3]],[[919,309],[-8,22]],[[911,331]],[[911,331],[-17,51]],[[895,406],[2,1],[2,1]],[[899,408]],[[899,408],[3,0]],[[906,416],[1,-1]],[[907,415],[-1,0]],[[906,415],[0,-1]],[[906,414],[-1,-1]],[[905,413],[-3,-3]],[[902,410],[-1,-1]],[[901,409],[-2,-1]],[[899,408]],[[899,408],[-2,-1]],[[899,359],[-2,-1]],[[906,532],[-8,-8]],[[902,410],[1,-5]],[[903,337],[5,-8]],[[908,329]],[[908,329],[1,-3],[11,-20]],[[920,306],[17,-35],[1,-2]],[[938,269],[0,-1]],[[939,268],[0,2]],[[939,270],[-1,1],[-19,38]],[[919,309],[-9,17],[-2,3]],[[908,329]],[[908,329],[-4,8]],[[904,409],[11,10]],[[906,414]],[[906,414]],[[906,414],[0,1]],[[906,415],[1,0]],[[907,415],[1,3]],[[907,531],[2,0],[0,2],[-1,0],[-1,-2]],[[907,576],[1,-1]],[[908,575],[4,1]],[[918,574],[-3,2],[-6,1]],[[946,542],[-37,-9]],[[909,531],[38,9]],[[915,419],[36,23]],[[1044,316]],[[1044,316],[-1,0]],[[1043,316],[-104,-46]],[[939,270],[-1,-1]],[[938,269],[-15,-6]],[[934,489],[-1,0]],[[933,487],[1,1]],[[946,802],[-2,-1]],[[944,801],[2,1]],[[1072,384],[-2,-1]],[[1070,383],[-32,-15],[-7,-2],[-1,-1]],[[1030,365]],[[1030,365],[-1,0],[-66,-3],[-1,0]],[[962,362]],[[962,362],[-13,-7]],[[949,541],[38,24]],[[987,565],[1,1]],[[988,566],[1,1]],[[989,567],[1,0]],[[990,567],[45,28],[67,-147]],[[1102,448]],[[1102,448],[4,-8]],[[949,354],[13,7]],[[962,361],[0,1]],[[962,362],[67,3],[1,0]],[[1030,365]],[[1030,365],[2,0],[6,2],[33,15]],[[1071,382],[2,1]],[[949,354],[0,1],[-1,-1]],[[948,354],[1,0]],[[954,392],[3,3]],[[1113,451],[-2,0],[-3,-1]],[[1108,450],[-6,-2]],[[1102,448],[-15,-6]],[[1087,442],[-9,-3]],[[1078,439],[-26,-9]],[[1052,430],[-40,-15]],[[1012,415],[-1,0]],[[1011,415],[-55,-20],[-2,-2]],[[957,396],[-3,-2]],[[955,391],[57,22]],[[1012,413]],[[1012,413],[40,16]],[[1052,429],[26,9]],[[1078,438],[24,10]],[[1102,448],[6,2]],[[1108,450],[3,1],[2,0]],[[959,372],[2,-4],[1,-6]],[[962,362],[0,-1]],[[962,361],[1,-4],[12,-40]],[[975,318],[-12,39],[-1,5]],[[962,362]],[[962,362],[-1,6],[-2,4]],[[966,214],[0,2]],[[995,688],[-21,-21],[2,1]],[[977,668],[21,13]],[[986,568],[1,-3]],[[987,565],[43,-96]],[[986,570],[2,-4]],[[988,566],[2,-6]],[[991,563],[-2,4]],[[989,567],[-2,3]],[[987,679],[1,-2]],[[1033,470],[-10,21]],[[1023,491],[-1,2]],[[1022,493],[-32,74]],[[990,567],[-1,3]],[[996,448],[15,-33]],[[1011,415],[1,-2]],[[1012,413],[4,-9],[7,-14],[7,-25]],[[1030,365]],[[1030,365],[13,-49]],[[1043,316],[3,-11]],[[1059,271],[-3,3],[-12,42]],[[1044,316],[-14,49]],[[1030,365]],[[1030,365],[-6,25],[-7,14],[-5,9]],[[1012,413],[0,2]],[[1012,415],[-16,33]],[[1003,676],[-3,10]],[[1005,544],[-2,-2]],[[1009,585],[0,-1]],[[1010,584],[-1,1]],[[1023,783],[-1,-1]],[[1024,493],[-2,0]],[[1022,493]],[[1023,491]],[[1023,491],[2,1]],[[1035,418],[-1,1]],[[1059,414],[-5,12],[-2,3]],[[1052,429],[0,1]],[[1052,430],[-18,34]],[[1038,421],[0,-2]],[[1111,442],[-3,8]],[[1108,450]],[[1108,450],[-64,158]],[[1047,850],[-1,-1]],[[1048,850],[0,-1]],[[1051,851],[0,-1]],[[1051,425],[19,-42]],[[1070,383],[1,-1]],[[1071,382],[18,-42]],[[1070,860]],[[1078,438]],[[1078,438],[0,1]],[[1078,439]],[[1091,342],[-12,27]],[[1082,491],[-1,0]],[[1081,490],[1,0]],[[1087,443],[0,-1]],[[1087,442]],[[1360,623],[-34,-17],[-2,-43]],[[1324,564],[3,42],[34,16]],[[655,513],[1,1],[-1,1],[-1,-1],[1,-1]],[[736,538],[1,0],[0,1],[0,-1]],[[737,538],[-1,0]],[[785,424],[-1,-1],[1,-1],[1,1],[-1,1]],[[976,669],[0,-1]],[[976,668],[1,0],[0,1],[-1,0]],[[865,478],[-10,25]],[[538,232],[0,2]],[[561,188],[-1,1]],[[703,752],[-1,1]],[[863,187],[2,-14]],[[868,176],[16,10]],[[870,193],[2,0]],[[941,864],[-26,4]],[[922,855],[-2,0]],[[920,854],[2,1]],[[1043,280],[-8,-18]],[[1059,295],[-17,-26]],[[1042,269],[14,20]],[[1056,289],[3,5]],[[1055,274],[-1,6],[2,9]],[[1056,289]],[[1069,540],[1,-2]],[[1070,539],[0,1]],[[1101,450],[1,-1]],[[1103,449],[-1,2]],[[1268,764],[12,18]],[[1279,781],[-5,-6]],[[1296,715],[1,-1]],[[1297,715],[0,1]],[[1326,625],[-13,-74]],[[1320,621],[-3,-16]],[[1331,630],[-2,-4]],[[1330,627],[3,5]],[[440,494],[0,-9]],[[473,555],[-33,-59]],[[450,442],[-10,52]],[[441,496],[32,58]],[[443,465],[6,-23]],[[492,572],[-17,-16]],[[475,556],[18,16]],[[510,297],[-23,54]],[[536,674],[-27,-77]],[[509,596],[28,77]],[[529,670],[-5,-8]],[[624,784],[1,-2]],[[452,1021],[24,-53]],[[477,968],[-24,53]],[[477,967],[26,-57]],[[502,915],[-25,53]],[[506,904],[17,-37]],[[524,865],[-18,39]],[[614,711],[42,-36]],[[656,676],[-41,35]],[[945,929],[30,14]],[[973,944],[-26,-12]],[[974,943],[-25,-11]],[[949,931],[25,12]],[[923,263],[-44,-12]],[[879,251],[-5,-1]],[[875,249],[4,2]],[[879,251],[165,65]],[[750,809],[60,-130]],[[810,679],[-59,130]],[[1223,150],[27,-19]],[[1250,132],[-26,18]],[[1281,109],[68,-48]],[[1349,61],[-66,47]],[[1424,8],[11,-8]],[[1436,0],[-12,8]],[[694,402],[1,-25]],[[1073,0],[-87,183]],[[537,234],[1,-2]],[[559,189],[1,-2]],[[877,188],[14,-2]],[[888,187],[-3,1]],[[885,188],[-21,3],[-24,-2],[-147,-80]],[[693,109],[184,79]],[[1042,269],[-154,-82]],[[891,186],[39,10],[30,17],[56,34],[26,22]],[[625,578],[-5,10],[-47,45]],[[583,623],[41,-44]],[[176,1312],[10,0]],[[186,1313],[-10,-1]],[[816,1447],[86,-153]],[[821,1439],[64,-114]],[[1113,451],[49,0],[109,54]],[[1277,511],[-113,-58],[-51,-2]],[[0,0],[17,0]],[[19,0],[-19,2]],[[328,128],[-232,-128]],[[98,0],[229,127]],[[440,496],[0,-2]],[[440,494],[1,2]],[[466,277],[-22,-24]],[[445,253],[46,48],[10,14],[57,87],[59,41]],[[475,556],[-2,-1]],[[473,554],[2,2]],[[501,316],[-26,-30]],[[490,345],[-3,6]],[[575,416],[-17,-14],[-6,-6],[-47,-73]],[[551,683],[-15,-9]],[[617,443],[-23,-13]],[[1291,1003],[11,9],[107,155],[247,164],[87,11],[111,31],[118,109],[321,113],[122,19],[620,263],[108,9],[247,118],[164,16],[160,121],[382,315]],[[4096,2457],[-542,-436],[-164,-16],[-246,-118],[-109,-9],[-617,-262],[-123,-20],[-324,-113],[-118,-109],[-196,-42],[-252,-166],[-113,-161]],[[656,675],[23,-25]],[[663,670],[-7,6]],[[690,636],[74,-197]],[[765,439],[-64,184]],[[736,897],[-20,-9]],[[716,887],[10,5]],[[695,401],[-2,58]],[[1271,505],[46,23]],[[1304,525],[-27,-14]],[[835,765],[-18,40]],[[884,645],[-17,48],[-22,49]],[[859,711],[25,-66]],[[0,2999],[19,0],[174,-115]],[[193,2884],[1,0],[20,-33]],[[214,2851],[160,-261],[69,-186]],[[443,2404],[-69,188],[-160,259]],[[214,2851],[-21,33]],[[193,2884],[-4,7],[-169,108],[-20,1]],[[176,1312]],[[197,1313],[-11,0]],[[186,1312],[11,1]],[[188,1460],[1,41]],[[212,1565],[-13,-2]],[[199,1563],[13,1]],[[214,1563],[21,-36]],[[235,1527],[-21,-7]],[[214,1519],[22,6]],[[294,1556],[-78,10]],[[237,1528],[-21,36]],[[216,1564],[78,-10]],[[220,2844],[42,-8],[150,92],[88,136],[98,63],[-11,146],[73,362]],[[237,1525],[10,-17]],[[312,1520],[-74,8]],[[249,1509],[-10,17]],[[239,1526],[73,-8]],[[247,1506],[-1,-15]],[[247,1491],[3,15]],[[250,1507],[68,-11],[1,0]],[[319,1496],[1,0]],[[320,1496],[35,5],[-37,3]],[[318,1504],[-2,0]],[[316,1504],[-66,4]],[[295,1553],[17,-33]],[[314,1520],[-17,34]],[[297,1554],[34,2],[-33,-1]],[[298,1555],[-2,2],[-2,-2],[2,-2],[2,2]],[[313,1517],[3,-13]],[[316,1504],[3,-8]],[[319,1496],[6,-24],[-5,24]],[[320,1496],[-2,8]],[[318,1504],[-3,13]],[[315,1518],[31,6],[-31,-4]],[[443,2404],[93,-190],[149,-175]],[[486,718],[-11,-10]],[[475,707],[12,11]],[[492,722],[-5,-3]],[[487,718],[5,4]],[[695,376],[-119,-46],[-50,26],[-37,-2]],[[490,353],[85,-23],[120,46]],[[514,730],[-3,0],[-18,-7]],[[493,722],[21,8]],[[625,1223],[-62,-23]],[[563,1199],[62,23]],[[687,1246],[-61,-22]],[[626,1223],[61,22]],[[662,3648],[28,255],[-10,193]],[[660,3640],[1,0]],[[662,3648],[-2,-5]],[[662,3643],[0,5]],[[677,731],[16,6]],[[685,2039],[306,-371],[1,-1]],[[992,1667],[-307,372]],[[695,1004],[6,4]],[[698,395],[6,1]],[[718,879],[0,-1]],[[719,878],[1,0]],[[719,1017],[1,-1]],[[719,879],[0,2]],[[720,1016],[0,1]],[[769,79],[2,-2]],[[771,78],[-2,1]],[[779,1376],[-38,66],[62,28]],[[786,1009],[3,-5]],[[789,1004],[-2,5]],[[804,1470],[-2,3],[-62,-31],[125,-219],[-13,-32]],[[878,1210],[-32,52]],[[861,9],[12,-9]],[[873,0],[-11,9]],[[1080,1057],[-100,-56]],[[981,1000],[100,56],[22,-50]],[[1071,260],[-12,11]],[[1079,369],[-6,14]],[[1073,383],[0,1]],[[1073,384],[-14,30]],[[1131,410],[-6,-2]],[[1125,408],[-3,-2]],[[1122,406],[-49,-22]],[[1073,384],[-1,0]],[[1073,383]],[[1073,383],[49,23]],[[1122,406],[3,1]],[[1125,407],[6,3]],[[1166,1146],[-11,-47],[-73,-41]],[[1106,1007],[-23,49]],[[1083,1056],[48,28]],[[1131,1084],[1,1]],[[1132,1085],[19,10],[4,4],[13,47]],[[1089,340],[10,-21]],[[1101,320],[-10,22]],[[1106,440],[16,-34]],[[1122,406]],[[1122,406],[5,-8]],[[1128,398],[-3,9]],[[1125,407],[0,1]],[[1125,408],[-14,34]],[[1121,410],[1,1]],[[1127,402],[-2,0]],[[1131,1084]],[[1131,1084],[50,-108]],[[1181,977],[-49,108]],[[1132,1085]],[[1154,179],[32,-61]],[[1186,118],[-31,61]],[[1166,1340],[0,-192]],[[1168,1148],[7,185],[12,-12]],[[1178,428]],[[1293,991],[-1,3]],[[1371,539],[-49,-10]],[[1322,529]],[[1322,529],[-3,-1]],[[1319,528],[-15,-3]],[[1320,843],[-9,-12]],[[1317,528],[2,0]],[[1319,528],[3,1]],[[1322,529]],[[1322,529],[49,10]],[[1324,563],[-2,-34]],[[1322,529]],[[1322,529],[-6,-101],[1,0]],[[1317,428],[74,-5]],[[1391,423],[32,-2],[28,23]],[[1450,445],[-27,-24],[-32,2]],[[1391,423],[-74,4],[0,1]],[[1317,428],[5,101]],[[1322,529]],[[1322,529],[2,35]],[[1409,648]],[[1409,645],[1,1]],[[1722,1329],[55,13],[3,4],[25,88],[-7,163],[103,311],[287,452],[94,93],[67,487],[-50,193],[-101,186]],[[2197,3319],[101,-186],[50,-193],[-67,-486],[-94,-94],[-286,-450],[-104,-308],[7,-172],[-23,-76],[-45,-10],[-3,-3]],[[1734,1341],[3,3]],[[1786,1367],[-6,-20],[-3,-4]],[[3511,1919],[-22,-24]],[[65,902],[-1,0],[1,-1],[1,0],[-1,1]],[[216,1565],[-2,2],[-2,-3],[2,-1],[2,2]],[[239,1527],[-2,1]],[[237,1528],[-2,-1],[2,-2],[2,2]],[[251,1508],[-3,1],[-1,-2],[2,-1],[2,2]],[[315,1519],[-2,1],[-1,-2],[1,-1],[2,2]],[[336,890],[-1,-1],[1,-1],[1,1],[-1,1]],[[475,708],[-1,0],[0,-1],[1,0],[0,1]],[[477,968],[-1,0],[1,-1],[0,1]],[[487,718],[0,1],[-1,-1],[1,0]],[[493,722],[-1,1],[0,-1],[1,0]],[[575,756],[-1,2],[-2,-2],[2,-1],[1,1]],[[628,781],[-2,1],[-2,-2],[2,-2],[2,3]],[[662,3642],[-2,1],[-1,-2],[3,-1],[0,2]],[[690,809],[-2,2],[-2,-2],[2,-2],[2,2]],[[691,941],[0,-2],[1,0],[0,1],[-1,1]],[[696,376],[-1,1],[0,-1],[1,0]],[[716,887],[-1,1],[-1,-1],[2,-1],[0,1]],[[742,834],[-2,1],[-2,-2],[3,-1],[1,2]],[[745,964],[-1,1],[-1,-1],[1,-1],[1,1]],[[767,911],[1,-1],[1,1],[-1,1],[-1,-1]],[[795,858],[-2,2],[-1,-2],[2,-1],[1,1]],[[821,936],[-2,1],[0,-2],[1,-1],[1,2]],[[847,882],[-3,1],[-1,-2],[2,-1],[2,2]],[[980,1001],[-1,-1],[1,-1],[1,1],[-1,1]],[[1083,1058],[-2,0],[0,-2],[1,0],[1,2]],[[1168,1147],[-1,1],[-1,0],[0,-2],[2,1]],[[1145,679],[-108,-75]],[[1037,604],[109,74]],[[1708,1295]],[[3138,1720],[351,175]],[[843,882],[-49,-22]],[[795,858],[49,22]],[[785,424],[-117,90],[-5,1],[-8,0]],[[656,514],[7,1]],[[677,508],[-14,13]],[[665,514],[-2,1]],[[663,515],[121,-92]],[[718,879],[-32,-78]],[[686,801],[33,77]],[[719,881],[48,29]],[[767,911],[-31,-14]],[[819,936],[-51,-24]],[[769,911],[50,24]],[[979,1000],[-158,-64]],[[821,935],[158,64]],[[920,854],[149,-314]],[[1070,540],[-149,314]],[[1070,538],[31,-88]],[[1102,451],[-32,88]],[[1102,449],[5,-9]],[[1107,440],[-4,9]],[[524,697],[-2,8]],[[1289,727],[7,-12]],[[1297,716],[-7,11]],[[1297,714],[34,-84]],[[1333,632],[-36,83]],[[1316,600],[13,23]],[[1329,623],[1,4]],[[1329,626],[0,-3]],[[1329,623],[-13,-68]],[[1319,558],[19,75]],[[41,1641],[83,-61]],[[124,1580],[32,-23]],[[156,1557],[-32,23]],[[124,1580],[-83,61]],[[176,1530],[2,-31]],[[179,1499],[-2,29]],[[3369,1992],[35,-40],[92,-29],[236,-38],[364,2]],[[4096,1888],[-364,-2],[-236,38],[-88,27],[-34,38]],[[1199,868],[-502,-247],[-56,-41]],[[642,577],[557,290]],[[770,80],[-1,-2]],[[769,78],[1,1]],[[1176,430],[108,-211]],[[1287,218],[-109,211]],[[702,562],[-47,-23]],[[655,539],[-2,-1]],[[653,538],[2,1]],[[655,539],[50,23]],[[904,1295],[-87,153]],[[327,127],[8,4],[110,122]],[[444,253],[-116,-125]],[[679,481],[-62,-38]],[[617,443],[62,38]],[[573,757],[-59,-27]],[[514,730],[59,25]],[[624,781],[-50,-23]],[[575,756],[50,23]],[[682,808],[-56,-26]],[[628,780],[58,28]],[[738,834],[-48,-25]],[[690,809],[49,23]],[[792,858],[-51,-23]],[[742,833],[50,24]],[[947,932],[-102,-49]],[[847,882],[98,47]],[[1102,1004],[-129,-60]],[[1000,956],[-26,-13]],[[974,943],[26,12]],[[975,943],[129,59]],[[1053,980],[49,23]],[[1103,1003],[-50,-23]],[[1157,1029],[-50,-23]],[[1108,1006],[49,22]],[[1109,1005],[48,23]],[[1109,1004],[48,24]],[[1285,1089],[-127,-60]],[[1285,1089],[-127,-60]],[[1158,1028],[127,60]],[[1158,1028],[128,60]],[[176,1312],[-114,-37],[-62,15]],[[0,1289],[62,-14],[114,37]],[[975,317],[23,-15]],[[998,302],[-23,16]],[[1206,859],[-6,8]],[[1200,867],[-1,1]],[[1199,868],[-5,8]],[[1195,874],[4,-6]],[[1199,868],[1,-1]],[[1200,867],[3,-5]],[[1267,766],[3,-5]],[[1275,753],[21,-39]],[[1298,716],[-15,24]],[[1373,44],[16,-12]],[[1392,31],[-19,13]],[[1199,869],[0,-1]],[[1199,868]],[[1199,868],[1,-1]],[[1200,867]],[[1200,867],[0,1],[-1,1]],[[1250,131],[31,-22]],[[1283,108],[-33,24]],[[1349,61],[24,-17]],[[1373,44],[-24,17]],[[1389,32],[35,-24]],[[1424,8],[-32,23]],[[1349,641],[-267,-150]],[[1082,490],[267,151]],[[686,801],[-4,-82]],[[682,719],[4,82]],[[908,576],[0,2],[-1,0],[0,-2],[1,0]],[[1163,335],[-8,-3],[-10,-4]],[[1145,328],[-85,-31]],[[1061,297],[83,31],[1,0]],[[1145,328],[4,3],[5,3],[4,1],[4,1]],[[1162,336],[37,16]],[[1199,352],[13,5]],[[1151,343],[-9,-15]],[[1153,341],[9,-5]],[[1162,336],[1,0]],[[1164,318],[13,23]],[[1212,358],[-13,-6]],[[1199,352],[-30,-14]],[[1264,382],[-49,-23]],[[1215,358],[49,24]],[[1276,388],[-9,-4]],[[1267,383],[9,4]],[[502,314],[16,-38]],[[519,276],[-9,21]],[[1356,895],[-87,68],[-2,0]],[[1267,963],[-30,-16]],[[1237,947],[-102,-53]],[[1135,894],[102,53]],[[1237,947],[30,16]],[[1267,963],[88,-69]],[[846,1262],[-67,114]],[[803,1470],[13,-23]],[[817,1448],[-13,22]],[[840,1419],[-17,19]],[[878,1349],[-1,1]],[[877,1350],[-5,20],[-22,38]],[[850,1408],[0,1]],[[850,1409],[-10,10]],[[873,1371],[-1,5],[-17,31],[-3,2]],[[852,1409],[-12,10]],[[854,1407],[-4,1]],[[850,1408],[-3,2],[-6,-1]],[[854,1408],[-2,1]],[[852,1409],[-2,0]],[[850,1409],[-3,1],[-2,0]],[[872,1376],[1,-5]],[[878,1349],[-1,1]],[[877,1350],[-4,21]],[[875,1351],[2,-1]],[[877,1350]],[[877,1350],[5,-1],[8,-29]],[[884,1332],[-6,17]],[[755,637],[43,-95]],[[1148,680],[-3,-1]],[[1146,678],[2,2]],[[1279,781],[-13,-17]],[[1266,764],[14,18]],[[361,1494],[11,-23]],[[373,1472],[-11,23]],[[443,468],[0,-3]],[[456,422],[3,-21]],[[470,406],[-13,16]],[[459,401],[14,-18]],[[475,286],[-9,-9]],[[472,386],[0,4]],[[472,390],[-2,15]],[[493,336],[-21,54]],[[472,390],[-1,2]],[[476,376],[17,-40]],[[486,353],[1,-2]],[[487,351],[-1,2]],[[499,324],[-2,-1]],[[505,323],[-4,-7]],[[594,430],[-19,-14]],[[699,758],[3,-6]],[[702,753],[-2,5]],[[743,42],[2,3]],[[865,1223],[43,-62]],[[894,1189],[-9,10]],[[885,1199],[-7,9]],[[902,1294],[21,-37],[-34,-39],[-3,-5],[-1,-12],[0,-2]],[[885,1199],[1,-2]],[[913,967],[-6,-11]],[[908,956],[6,11]],[[1059,294],[2,3]],[[1060,297],[-1,-2]],[[1123,408],[1,-3]],[[1124,406],[-1,2]],[[1147,353],[4,-10]],[[1160,326],[-12,4]],[[1151,346],[2,-5]],[[1164,336],[-1,-1]],[[1164,336],[0,-1]],[[1169,338],[-5,-2]],[[1197,286],[-26,17]],[[1185,346],[-5,-3]],[[1180,342],[7,3]],[[1206,353],[-1,3]],[[1215,359],[-3,-1]],[[1212,357],[3,1]],[[1221,363],[-1,-3]],[[1259,378],[-1,2]],[[1267,384],[-3,-2]],[[1264,382],[3,1]],[[1284,393],[-17,-10],[20,10]],[[1286,213],[3,-3]],[[1290,210],[-4,3]],[[1313,551],[-2,-14]],[[1311,529],[0,-2]],[[1312,527],[0,2]],[[1312,487],[0,-1]],[[1313,486],[0,1]],[[1398,219],[-29,-51]],[[1370,167],[12,15],[12,21],[5,16]],[[1401,233],[1,3]],[[517,344],[0,1],[0,1],[-1,-1],[1,-1]],[[716,477],[4,0]],[[720,478],[-4,0]],[[956,547],[-51,-16],[-5,-4]],[[901,526],[55,20]],[[1023,594],[12,8]],[[1037,604],[-3,-2]],[[1035,602],[2,2]],[[1044,608],[218,150]],[[1259,758],[-214,-148]],[[1284,788],[-5,-7]],[[1280,782],[4,6]],[[1316,836],[-32,-48]],[[1284,788],[142,210],[197,183],[111,160]],[[1733,1341],[-110,-160],[-198,-182],[-105,-156]],[[1292,1005],[-250,-94]],[[1044,911],[247,92]],[[777,204],[-2,-1]],[[776,203],[1,1]],[[615,1246],[104,-229]],[[720,1017],[-105,229]],[[720,1016],[23,-51]],[[744,965],[-24,51]],[[743,963],[24,-52]],[[768,912],[-24,52]],[[767,910],[4,-8]],[[771,902],[21,-43]],[[769,908],[2,-6]],[[771,902],[17,-45]],[[793,860],[-24,51]],[[791,862],[-22,47]],[[792,857],[18,-40]],[[811,817],[-17,40]],[[582,952],[28,0],[72,-158]],[[674,813],[4,-9]],[[679,804],[-5,10]],[[679,803],[20,-45]],[[700,758],[-21,45]],[[1135,511],[41,-81]],[[1178,429],[-42,82]],[[864,171],[-94,-91]],[[770,79],[94,91]],[[685,481],[31,-4]],[[716,478],[-30,4]],[[720,477],[73,0],[108,49]],[[900,527],[-107,-49],[-73,0]],[[1034,602],[-78,-55]],[[956,546],[67,48]],[[613,712],[1,-1]],[[615,711],[-1,1]],[[997,685],[-162,-60],[-133,-63]],[[705,562],[70,33]],[[773,595],[2,0]],[[775,595],[192,70],[30,19],[2,1]],[[739,832],[11,-23]],[[751,809],[-10,23]],[[1107,440],[16,-32]],[[1123,408],[-16,32]],[[1137,325],[26,-7]],[[1169,338],[-21,15]],[[1149,331],[3,11]],[[1163,321],[-3,5]],[[1164,335],[-3,-9]],[[769,78],[-58,-78]],[[712,0],[57,78]],[[682,719],[67,-134],[1,-3],[4,-8]],[[754,574],[30,-67]],[[812,431],[-18,41],[-2,5]],[[792,477],[-38,97]],[[754,574],[-3,8],[-2,3],[-67,134]],[[784,507],[8,-30]],[[792,477],[1,-5],[18,-41]],[[3138,1720],[-95,-55],[-222,-235],[-550,-92],[-411,-3],[-146,-40]],[[1317,199],[4,-1]],[[998,302],[61,-41]],[[1042,911],[-120,-56]],[[922,855],[122,56]],[[372,1471],[302,-658]],[[674,814],[-301,658]],[[642,547],[37,-66]],[[679,481],[-37,67]],[[440,485],[3,-17]],[[449,442],[37,-89]],[[486,353],[-36,89]],[[487,351],[15,-37]],[[509,597],[-17,-25]],[[493,572],[16,24]],[[518,276],[4,-9]],[[522,267],[-3,9]],[[530,671],[-1,-1]],[[537,673],[164,78]],[[703,754],[-152,-71]],[[869,831],[-17,-8]],[[855,824],[12,5]],[[41,1641],[-41,30]],[[0,1670],[41,-29]],[[156,1557],[20,-27]],[[177,1528],[0,13],[-21,16]],[[178,1499],[12,-176]],[[191,1323],[-12,176]],[[1320,685],[-53,81]],[[1270,761],[69,-105]],[[702,752],[26,-58]],[[747,654],[8,-17]],[[798,542],[2,-3]],[[800,539],[-2,3]],[[862,398],[0,-3]],[[863,395],[-1,3]],[[864,381],[0,-210]],[[864,170],[13,87],[-4,49],[-8,75]],[[1266,764],[-118,-84]],[[1148,680],[118,84]],[[793,416],[-89,-19]],[[880,587],[-26,-84]],[[855,503],[25,84]],[[1124,405],[27,-59]],[[1160,326],[-36,80]],[[1153,341],[11,-21]],[[1164,320],[13,-26],[109,-81]],[[1286,213],[-122,107]],[[1164,320],[-1,1]],[[1289,210],[28,-11]],[[1565,0],[-209,185],[-66,25]],[[1321,198],[244,-198]],[[1059,268],[-61,34]],[[985,183],[88,-183]],[[4096,4096],[0,-4096],[-4096,0],[0,4096],[4096,0]],[[744,1438],[96,51],[130,-52],[50,-78],[-175,-97],[-101,176]],[[1444,611],[108,-41],[42,-49],[0,-119],[-42,13],[4,64],[-112,132]],[[1288,736],[166,60],[-1,-35],[-44,0],[0,-113],[10,-41],[124,-124],[-48,-42],[3,35],[-72,45],[-138,215]],[[1485,662],[95,207],[79,55],[4,52],[231,151],[209,-1],[-29,-189],[137,-118],[43,-144],[-22,-68],[-217,-40],[-93,-43],[-25,-54],[-191,-112],[-81,-12],[-19,20],[-1,196],[-120,100]],[[363,1172],[57,36],[49,-52],[23,-104],[-63,-5],[-66,125]],[[0,1245],[0,396],[43,0],[92,-58],[52,-67],[1,-17],[-72,1],[-1,-35],[-46,1],[-2,-120],[121,-2],[-12,-33],[-176,-66]],[[1355,180],[37,-74],[55,-14],[-25,-92],[-74,0],[2,92],[-101,25],[4,47],[24,-7],[41,42],[37,-19]],[[1026,914],[194,-35],[82,-118],[80,10],[0,-143],[-129,-143],[-33,-71],[-97,35],[-64,-35],[32,-72],[-32,-36],[0,-107],[-94,-21],[-3,-158],[-174,-20],[-21,92],[-99,18],[-353,-54],[32,179],[194,36],[161,71],[9,51],[-105,56],[40,109],[-8,34],[-32,0],[129,215],[129,18],[98,125],[64,-36]],[[573,633],[56,64],[63,-59],[-59,-67],[-60,62]]]}