{"objects":{"water":{"type":"GeometryCollection","geometries":[]},"buildings":{"type":"GeometryCollection","geometries":[]},"places":{"type":"GeometryCollection","geometries":[{"type":"Point","properties":{"name:kg":"Malagasi","name:ka":"\u10db\u10d0\u10d3\u10d0\u10d2\u10d0\u10e1\u10d9\u10d0\u10e0\u10d8","name:ko":"\ub9c8\ub2e4\uac00\uc2a4\uce74\ub974","name:cv":"\u041c\u0430\u0434\u0430\u0433\u0430\u0441\u043a\u0430\u0440 \u0420\u0435\u0441\u043f\u0443\u0431\u043b\u0438\u043a\u0438","name:km":"\u1798\u17c9\u17b6\u178a\u17b6\u17a0\u17d2\u1780\u17b6\u179f\u17d2\u1780\u17b6\u179a","name:kl":"Madagaskar","name:cs":"Madagaskar","name:ki":"Bukini","name:kw":"Madagaskar","name:tk":"Madagaskar","name:ku":"Madagaskar","name:ti":"\u121b\u12f3\u130b\u1235\u12ab\u122d","name:ks":"\u0645\u06cc\u0691\u0627\u06af\u0627\u0633\u06a9\u0627\u0631","name:to":"Matakasika","name:tl":"Madagaskar","name:ce":"\u041c\u0430\u0434\u0430\u0433\u0430\u0441\u043a\u0430\u0440","name:ta":"\u0bae\u0b9f\u0b95\u0bbe\u0bb8\u0bcd\u0b95\u0bb0\u0bcd","name:tg":"\u041c\u0430\u0434\u0430\u0433\u0430\u0441\u043a\u0430\u0440","name:ky":"\u041c\u0430\u0434\u0430\u0433\u0430\u0441\u043a\u0430\u0440 \u0420\u0435\u0441\u043f\u0443\u0431\u043b\u0438\u043a\u0430\u0441\u044b","name:te":"\u0c2e\u0c3e\u0c21\u0c4d\u0c17\u0c3e\u0c38\u0c4d\u0c15\u0c3e\u0c30\u0c4d","name:hr":"Madagaskar","name:da":"Madagaskar","name:de":"Madagaskar","name:dz":"\u0f58\u0f0b\u0f51\u0f71\u0f0b\u0f42\u0f7a\u0f66\u0f0b\u0f40\u0f62","source":"openstreetmap.org","name:kn":"\u0cae\u0ca1\u0c97\u0cbe\u0cb8\u0ccd\u0c95\u0cb0\u0ccd","name:dv":"\u0789\u07a6\u0791\u07a6\u078e\u07a6\u0790\u07b0\u0786\u07a6\u0783\u07a6","name:lv":"Madagaskara","name:lt":"Madagaskaras","name:uz":"Madagaskar","name:kk":"\u041c\u0430\u0434\u0430\u0433\u0430\u0441\u043a\u0430\u0440","name:ur":"\u0645\u0688\u063a\u0627\u0633\u06a9\u0631","name:lb":"Madagaskar","name:la":"Madagascaria","name:lg":"Madagasika","name:uk":"\u041c\u0430\u0434\u0430\u0433\u0430\u0441\u043a\u0430\u0440","name:ug":"\u0645\u0627\u062f\u0627\u06af\u0627\u0633\u0643\u0627\u0631","name:li":"Madagaskar","name:ln":"Madagasikari","name:lo":"\u0ea1\u0eb2\u0e94\u0eb2\u0e81\u0eb2\u0e94\u0e81\u0ec9\u0eb2","name:el":"\u039c\u03b1\u03b4\u03b1\u03b3\u03b1\u03c3\u03ba\u03ac\u03c1\u03b7","name:eo":"Madagaskaro","name":"Madagascar","name:ee":"Madagaska nutome","name:th":"\u0e1b\u0e23\u0e30\u0e40\u0e17\u0e28\u0e21\u0e32\u0e14\u0e32\u0e01\u0e31\u0e2a\u0e01\u0e32\u0e23\u0e4c","name:eu":"Madagaskar","name:et":"Madagaskar","name:rn":"Madagasikari","name:az":"Madaqaskar","name:id":"Madagaskar","name:ar":"\u0645\u062f\u063a\u0634\u0642\u0631","name:io":"Madagaskar","name:ak":"Madagaska","name:am":"\u121b\u12f3\u130b\u1235\u12ab\u122d","name:ru":"\u041c\u0430\u0434\u0430\u0433\u0430\u0441\u043a\u0430\u0440","name:rw":"Madagasikari","name:af":"Madagaskar","name:zu":"i-Madagascar","name:zh-yue":"\u99ac\u9054\u52a0\u65af\u52a0","name:zh":"\u9a6c\u8fbe\u52a0\u65af\u52a0","name:so":"Madagaskar","name:sl":"Madagaskar","name:sk":"Madagaskar","name:ja":"\u30de\u30c0\u30ac\u30b9\u30ab\u30eb","name:si":"\u0db8\u0dd0\u0da9\u0d9c\u0dc3\u0dca\u0dad\u0dbb\u0dba","name:sh":"Madagaskar","name:sg":"Madagask\u00e4ra","name:se":"Madagaskar","name:sc":"Madagasc\u00e0r","name:br":"Madagaskar","name:bs":"Madagaskar","name:bm":"Madagasikari","name:bn":"\u09ae\u09be\u09a6\u09be\u0997\u09be\u09b8\u09cd\u0995\u09be\u09b0","name:bo":"\u0f58\u0f0b\u0f51\u0f71\u0f0b\u0f42\u0fb7\u0f66\u0f90\u0f71\u0f62\u0f0d","name:sa":"\u092e\u0921\u0917\u093e\u0938\u094d\u0915\u0930","name:sw":"Bukini","name:be":"\u041c\u0430\u0434\u0430\u0433\u0430\u0441\u043a\u0430\u0440","name:su":"Madagaskar","name:bg":"\u041c\u0430\u0434\u0430\u0433\u0430\u0441\u043a\u0430\u0440","name:ss":"IMadagasikha","name:ba":"\u041c\u0430\u0434\u0430\u0433\u0430\u0441\u043a\u0430\u0440","name:sq":"Madagaskar","name:jv":"Madagaskar","name:pt":"Madag\u00e1scar","name:ps":"\u0645\u0627\u062f\u063a\u0627\u0633\u06a9\u0631","min_zoom":2.0,"name:zh-min-nan":"Madagasikara","name:os":"\u041c\u0430\u0434\u0430\u0433\u0430\u0441\u043a\u0430\u0440","name:or":"\u0b2e\u0b3e\u0b21\u0b3e\u0b17\u0b3e\u0b38\u0b4d\u0b15\u0b30\u0b4d","name:pl":"Madagaskar","name:sr":"\u041c\u0430\u0434\u0430\u0433\u0430\u0441\u043a\u0430\u0440","name:pa":"\u0a2e\u0a3e\u0a26\u0a3e\u0a17\u0a3e\u0a38\u0a15\u0a30","name:tr":"Madagaskar","name:hi":"\u092e\u0948\u0921\u093e\u0917\u093e\u0938\u094d\u0915\u0930","name:sv":"Madagaskar","name:he":"\u05de\u05d3\u05d2\u05e1\u05e7\u05e8","name:ha":"Madagaskar","name:hy":"\u0544\u0561\u0564\u0561\u0563\u0561\u057d\u056f\u0561\u0580","name:ht":"Madagaskar","name:hu":"Madagaszk\u00e1ri K\u00f6zt\u00e1rsas\u00e1g","name:qu":"Madagaskar","population":22005222,"kind":"country","name:is":"Madagaskar","name:yi":"\u05de\u05d0\u05d3\u05d0\u05d2\u05d0\u05e1\u05e7\u05d0\u05e8","name:yo":"Or\u00edl\u1eb9\u0301\u00e8de Madasika","name:mt":"Madagaskar","name:ms":"Madagaskar","name:mr":"\u092e\u093e\u0926\u093e\u0917\u093e\u0938\u094d\u0915\u0930","name:my":"\u1019\u1012\u1002\u1010\u103a\u1005\u1000\u102c","official_name":"Repoblikan'i Madagasikara","name:mg":"Madagasikara","name:ml":"\u0d2e\u0d21\u0d17\u0d3e\u0d38\u0d4d\u0d15\u0d7c","name:mn":"\u041c\u0430\u0434\u0430\u0433\u0430\u0441\u043a\u0430\u0440","name:mi":"Marak\u0101hia","id":432425028,"name:mk":"\u041c\u0430\u0434\u0430\u0433\u0430\u0441\u043a\u0430\u0440","name:vo":"Malagase\u00e4n","name:fa":"\u0645\u0627\u062f\u0627\u06af\u0627\u0633\u06a9\u0627\u0631","name:ff":"Madagaskaar","name:fi":"Madagaskar","name:fj":"Madagasikar","name:fo":"Madagaskar","alt_name:vi":"M\u00e3 \u0110\u1ea3o","name:fy":"Madagaskar","name:nl":"Madagaskar","name:nn":"Madagaskar","name:no":"Madagaskar","name:ne":"\u092e\u0921\u093e\u0917\u093e\u0938\u094d\u0915\u0930","name:wo":"Madagaskaar","name:nv":"Mada\u02bcg\u00e9\u00e9sg\u00e1\u00e1","name:gd":"Madagasgar","name:gn":"Madagaka","name:gu":"\u0aae\u0ac7\u0aa1\u0abe\u0a97\u0abe\u0ab8\u0acd\u0a95\u0ab0","name:tt":"\u041c\u0430\u0434\u0430\u0433\u0430\u0441\u043a\u0430\u0440"},"coordinates":[103,1187]},{"type":"Point","properties":{"admin_level":"3","kind":"region","name":"Province d\u2019Antananarivo","name:lt":"Antananaryvo provincija","kind_detail":"state","min_zoom":4.0,"source":"openstreetmap.org","name:mg":"Faritany Antananarivo","id":4353436344},"coordinates":[2391,1559]},{"type":"Point","properties":{"name:az":"Antananarivu","name:ka":"\u10d0\u10dc\u10e2\u10d0\u10dc\u10d0\u10dc\u10d0\u10e0\u10d8\u10d5\u10e3","name:mr":"\u0905\u0902\u0924\u093e\u0928\u093e\u0928\u093e\u0930\u093f\u0935\u094d\u0939\u094b","name:ko":"\uc548\ud0c0\ub098\ub098\ub9ac\ubcf4","name:kn":"\u0c85\u0ca8\u0ccd\u0c9f\u0cbe\u0ca8\u0ca8\u0cb0\u0cc0\u0cb5\u0ccb","name:ar":"\u0623\u0646\u062a\u0627\u0646\u0627\u0646\u0627\u0631\u064a\u0641\u0648","name:os":"\u0410\u043d\u0442\u0430\u043d\u0430\u043d\u0430\u0440\u0438\u0432\u0443","name:is":"Antananar\u00edv\u00f3","name:am":"\u12a0\u1295\u1273\u1293\u1293\u122a\u126e","name:ml":"\u0d06\u0d28\u0d4d\u0d31\u0d28\u0d28\u0d31\u0d40\u0d35\u0d4a","loc_name":"Tana","name:ru":"\u0410\u043d\u0442\u0430\u043d\u0430\u043d\u0430\u0440\u0438\u0432\u0443","name:pl":"Antananarywa","name:ta":"\u0b85\u0ba3\u0bcd\u0b9f\u0ba9\u0bbe\u0ba9\u0bb0\u0bc0\u0bb5\u0bcb","name:tg":"\u0410\u043d\u0442\u0430\u043d\u0430\u043d\u0430\u0440\u0438\u0432\u0443","name:mk":"\u0410\u043d\u0442\u0430\u043d\u0430\u043d\u0430\u0440\u0438\u0432\u043e","name:fa":"\u0622\u0646\u062a\u0627\u0646\u0627\u0646\u0627\u0631\u06cc\u0648\u0648","kind_detail":"city","id":27565116,"source":"openstreetmap.org","name:fr":"Tananarive","name:ky":"\u0410\u043d\u0442\u0430\u043d\u0430\u043d\u0430\u0440\u0438\u0432\u0443","name:zh":"\u5854\u90a3\u90a3\u5229\u4f5b","name:hy":"\u0531\u0576\u057f\u0561\u0576\u0561\u0576\u0561\u0580\u056b\u057e\u0578\u0582","name:so":"Antananarifo","admin_level":"2","name:lv":"Antananarivu","name:ja":"\u30a2\u30f3\u30bf\u30ca\u30ca\u30ea\u30dc","name:lt":"Antananaryvas","name:hi":"\u0905\u0928\u094d\u091f\u093e\u0928\u0928\u0930\u0940\u0935\u094b","name:he":"\u05d0\u05e0\u05d8\u05e0\u05e0\u05e8\u05d9\u05d1\u05d5","name:ur":"\u0627\u06cc\u0646\u0679\u0627\u0646\u0627\u0646\u06cc\u0631\u06cc\u0648","name:bo":"\u0f68\u0f7a\u0f53\u0f0b\u0f4a\u0f0b\u0f53\u0f0b\u0f53\u0f0b\u0f62\u0f72\u0f0b\u0f56\u0f7c\u0f0d","name:uk":"\u0410\u043d\u0442\u0430\u043d\u0430\u043d\u0430\u0440\u0456\u0432\u0443","old_name":"Tananarive","country_capital":true,"name:be":"\u0410\u043d\u0442\u0430\u043d\u0430\u043d\u0430\u0440\u044b\u0432\u0443","name:bg":"\u0410\u043d\u0442\u0430\u043d\u0430\u043d\u0430\u0440\u0438\u0432\u043e","name:wo":"Antananariwo","name:sr":"\u0410\u043d\u0442\u0430\u043d\u0430\u043d\u0430\u0440\u0438\u0432\u043e","population":2000000,"name:el":"\u0391\u03bd\u03c4\u03b1\u03bd\u03b1\u03bd\u03b1\u03c1\u03af\u03b2\u03bf","kind":"locality","name":"Antananarivo","min_zoom":8.0,"name:th":"\u0e2d\u0e31\u0e19\u0e15\u0e32\u0e19\u0e32\u0e19\u0e32\u0e23\u0e34\u0e42\u0e27","alt_name:is":"Tananarive"},"coordinates":[3260,1233]}]},"transit":{"type":"GeometryCollection","geometries":[]},"pois":{"type":"GeometryCollection","geometries":[]},"boundaries":{"type":"GeometryCollection","geometries":[{"type":"LineString","properties":{"kind":"region","name":"Itasy - Bongolava","sort_rank":256,"kind_detail":"4","id:right":-6951166,"source":"openstreetmap.org","min_zoom":8.0,"id:left":-6951167,"name:left":"Itasy","id":-6951167,"osm_relation":true,"name:right":"Bongolava"},"arcs":[0]},{"type":"LineString","properties":{"kind":"region","name":"Itasy - Analamanga","sort_rank":256,"kind_detail":"4","id:right":-6951165,"source":"openstreetmap.org","min_zoom":8.0,"id:left":-6951167,"name:left":"Itasy","id":-6951167,"osm_relation":true,"name:right":"Analamanga"},"arcs":[1]},{"type":"MultiLineString","properties":{"kind":"region","name":"Itasy - Vakinankaratra","sort_rank":256,"kind_detail":"4","id:right":-3204236,"source":"openstreetmap.org","min_zoom":8.0,"id:left":-6951167,"name:left":"Itasy","id":-6951167,"osm_relation":true,"name:right":"Vakinankaratra"},"arcs":[[2],[3],[4]]},{"type":"LineString","properties":{"kind":"region","name":"Bongolava - Analamanga","sort_rank":256,"kind_detail":"4","id:right":-6951165,"source":"openstreetmap.org","min_zoom":8.0,"id:left":-6951166,"name:left":"Bongolava","id":-6951166,"osm_relation":true,"name:right":"Analamanga"},"arcs":[5]},{"type":"LineString","properties":{"kind":"region","name":"Analamanga - Vakinankaratra","sort_rank":256,"kind_detail":"4","id:right":-3204236,"source":"openstreetmap.org","min_zoom":8.0,"id:left":-6951165,"name:left":"Analamanga","id":-6951165,"osm_relation":true,"name:right":"Vakinankaratra"},"arcs":[6]}]},"roads":{"type":"GeometryCollection","geometries":[{"type":"MultiLineString","properties":{"source":"openstreetmap.org","kind":"major_road","sort_rank":380,"kind_detail":"primary","ref":"N 1","min_zoom":8.0},"arcs":[[7],[8],[9]]},{"type":"MultiLineString","properties":{"sort_rank":380,"kind_detail":"primary","min_zoom":8.0,"kind":"major_road","source":"openstreetmap.org"},"arcs":[[10],[11],[12],[13]]},{"type":"LineString","properties":{"kind":"major_road","network":null,"sort_rank":380,"kind_detail":"primary","bus_network":null,"source":"openstreetmap.org","min_zoom":8.0,"bus_shield_text":"194 B","shield_text":"2","landuse_kind":"urban_area","ref":"N 2","id":45185891},"arcs":[14]},{"type":"MultiLineString","properties":{"kind":"major_road","network":null,"sort_rank":380,"kind_detail":"primary","source":"openstreetmap.org","min_zoom":8.0,"landuse_kind":"urban_area","shield_text":"2","ref":"N 2"},"arcs":[[15],[16],[17],[18]]},{"type":"LineString","properties":{"kind":"major_road","sort_rank":380,"kind_detail":"primary","bus_network":"Urbain","source":"openstreetmap.org","min_zoom":8.0,"bus_shield_text":"147_Manga","landuse_kind":"urban_area","id":28915221},"arcs":[19]},{"type":"MultiLineString","properties":{"bus_network":null,"sort_rank":380,"kind_detail":"primary","kind":"major_road","source":"openstreetmap.org","min_zoom":8.0,"bus_shield_text":"105","landuse_kind":"urban_area","ref":"N 4"},"arcs":[[20],[21],[22],[23]]},{"type":"LineString","properties":{"bus_network":null,"sort_rank":380,"kind_detail":"primary","kind":"major_road","source":"openstreetmap.org","min_zoom":8.0,"bus_shield_text":"Ambohidratrimo","landuse_kind":"urban_area","ref":"N 58a"},"arcs":[24]},{"type":"MultiLineString","properties":{"bus_network":null,"sort_rank":380,"kind_detail":"primary","kind":"major_road","source":"openstreetmap.org","min_zoom":8.0,"bus_shield_text":"194 V","landuse_kind":"urban_area","ref":"N 7"},"arcs":[[25],[26],[27]]},{"type":"LineString","properties":{"kind":"major_road","sort_rank":380,"kind_detail":"primary","bus_network":"Urbain","source":"openstreetmap.org","name:fr":"Rue Ralaimongo","bus_shield_text":"147_Manga","min_zoom":8.0,"landuse_kind":"urban_area","ref":"N 7","id":28915127},"arcs":[28]},{"type":"LineString","properties":{"bus_network":null,"sort_rank":380,"kind_detail":"primary","kind":"major_road","source":"openstreetmap.org","min_zoom":8.0,"bus_shield_text":"105","landuse_kind":"urban_area"},"arcs":[29]},{"type":"LineString","properties":{"kind":"major_road","sort_rank":380,"kind_detail":"primary","bus_network":null,"source":"openstreetmap.org","min_zoom":8.0,"bus_shield_text":"163_67Ha","landuse_kind":"urban_area","id":28863663},"arcs":[30]},{"type":"LineString","properties":{"kind":"major_road","sort_rank":380,"kind_detail":"primary","min_zoom":8.0,"source":"openstreetmap.org","name:fr":"Avenue du 26 Juin 1960","landuse_kind":"urban_area","ref":"N 7","id":531720075},"arcs":[31]},{"type":"MultiLineString","properties":{"source":"openstreetmap.org","kind":"major_road","landuse_kind":"urban_area","sort_rank":380,"kind_detail":"primary","ref":"N 7","min_zoom":8.0},"arcs":[[32],[33],[34],[35],[36]]},{"type":"LineString","properties":{"kind":"major_road","sort_rank":380,"landuse_kind":"urban_area","min_zoom":8.0,"source":"openstreetmap.org","name:fr":"Avenue Andrianampoinimerina","kind_detail":"primary","id":528688435},"arcs":[37]},{"type":"MultiLineString","properties":{"kind":"major_road","sort_rank":380,"kind_detail":"primary","source":"openstreetmap.org","min_zoom":8.0,"landuse_kind":"urban_area","loc_name":"by-pass","ref":"N 60"},"arcs":[[38],[39],[40]]},{"type":"LineString","properties":{"bus_network":"Urbain","sort_rank":380,"kind_detail":"primary","name:fr":"Rue Mohamed V","source":"openstreetmap.org","min_zoom":8.0,"bus_shield_text":"147_Manga","landuse_kind":"urban_area","ref":"N 7","kind":"major_road"},"arcs":[41]},{"type":"LineString","properties":{"kind":"major_road","sort_rank":380,"kind_detail":"primary","bus_network":"Urbain","source":"openstreetmap.org","min_zoom":8.0,"bus_shield_text":"119","landuse_kind":"urban_area","ref":"Lalana Mohamed V","id":531720056},"arcs":[42]},{"type":"MultiLineString","properties":{"kind":"major_road","network":null,"sort_rank":380,"kind_detail":"primary","source":"openstreetmap.org","min_zoom":8.0,"shield_text":"2","ref":"N 2"},"arcs":[[43],[44],[45]]},{"type":"LineString","properties":{"kind":"major_road","sort_rank":380,"landuse_kind":"urban_area","source":"openstreetmap.org","min_zoom":8.0,"kind_detail":"primary","ref":"N 58a","id":544834865},"arcs":[46]},{"type":"LineString","properties":{"kind":"major_road","sort_rank":380,"kind_detail":"primary","bus_network":null,"source":"openstreetmap.org","min_zoom":8.0,"bus_shield_text":"194 V","loc_name":"by-pass","landuse_kind":"urban_area","ref":"N 60","id":186254006},"arcs":[47]},{"type":"LineString","properties":{"kind":"major_road","network":null,"sort_rank":380,"kind_detail":"primary","bus_network":"Urbain","source":"openstreetmap.org","name:fr":"Avenue L\u00e9nine","bus_shield_text":"147_Manga","shield_text":"2","min_zoom":8.0,"landuse_kind":"urban_area","ref":"N 2","id":45368060},"arcs":[48]},{"type":"LineString","properties":{"kind":"major_road","sort_rank":380,"kind_detail":"primary","min_zoom":8.0,"source":"openstreetmap.org","name:fr":"Route de la Digue","landuse_kind":"urban_area","ref":"N 58a","id":525162452},"arcs":[49]},{"type":"LineString","properties":{"kind":"major_road","sort_rank":380,"kind_detail":"primary","bus_network":null,"source":"openstreetmap.org","name:fr":"Rue Mohamed V","bus_shield_text":"Ligne_163_Anosy","min_zoom":8.0,"landuse_kind":"urban_area","ref":"N 7","id":45478182},"arcs":[50]},{"type":"LineString","properties":{"kind":"major_road","sort_rank":380,"kind_detail":"primary","bus_network":null,"source":"openstreetmap.org","name:fr":"Route de la Digue","bus_shield_text":"194 V","min_zoom":8.0,"landuse_kind":"urban_area","ref":"N 58A","id":28823466},"arcs":[51]},{"type":"MultiLineString","properties":{"kind":"major_road","sort_rank":380,"kind_detail":"primary","name:fr":"Avenue de l'Ind\u00e9pendance","source":"openstreetmap.org","min_zoom":8.0,"old_name":"Avenue de la Lib\u00e9ration","landuse_kind":"urban_area","ref":"N 7"},"arcs":[[52],[53],[54]]},{"type":"MultiLineString","properties":{"bus_network":null,"sort_rank":380,"kind_detail":"primary","kind":"major_road","source":"openstreetmap.org","min_zoom":8.0,"bus_shield_text":"Ligne_163_Anosy","landuse_kind":"urban_area","ref":"N 7"},"arcs":[[55],[56],[57],[58]]},{"type":"MultiLineString","properties":{"source":"openstreetmap.org","kind":"major_road","landuse_kind":"urban_area","sort_rank":380,"kind_detail":"primary","min_zoom":8.0},"arcs":[[59],[60],[61],[62],[63],[64],[65],[66],[67],[68],[69]]},{"type":"MultiLineString","properties":{"source":"openstreetmap.org","kind":"major_road","sort_rank":380,"kind_detail":"primary","loc_name":"by-pass","ref":"N 60","min_zoom":8.0},"arcs":[[70],[71],[72],[73],[74],[75]]},{"type":"LineString","properties":{"source":"openstreetmap.org","kind":"major_road","sort_rank":380,"kind_detail":"primary","ref":"N 1b","min_zoom":8.0},"arcs":[76]},{"type":"LineString","properties":{"kind":"major_road","sort_rank":380,"kind_detail":"primary","bus_network":null,"source":"openstreetmap.org","name:fr":"Rue Ravoninahitriniarivo","bus_shield_text":"163_67Ha","min_zoom":8.0,"landuse_kind":"urban_area","id":28863505},"arcs":[77]},{"type":"MultiLineString","properties":{"bus_network":null,"sort_rank":380,"kind_detail":"primary","kind":"major_road","source":"openstreetmap.org","min_zoom":8.0,"bus_shield_text":"Ligne_163_Anosy","landuse_kind":"urban_area","ref":"Lalana Mohamed V"},"arcs":[[78],[79]]},{"type":"MultiLineString","properties":{"bus_network":"Urbain","sort_rank":380,"kind_detail":"primary","kind":"major_road","source":"openstreetmap.org","min_zoom":8.0,"bus_shield_text":"119","landuse_kind":"urban_area","ref":"N 7"},"arcs":[[80],[81],[82]]},{"type":"LineString","properties":{"bus_network":null,"sort_rank":380,"kind_detail":"primary","name:fr":"Route de la Digue","source":"openstreetmap.org","min_zoom":8.0,"bus_shield_text":"Ambohidratrimo","landuse_kind":"urban_area","ref":"N 58a","kind":"major_road"},"arcs":[83]},{"type":"LineString","properties":{"kind":"major_road","sort_rank":380,"kind_detail":"primary","min_zoom":8.0,"name:de":"Pastor-Rahajason-Stra\u00dfe","source":"openstreetmap.org","name:fr":"Rue du Pasteur Rahajason","landuse_kind":"urban_area","ref":"N 1","id":430100382},"arcs":[84]},{"type":"MultiLineString","properties":{"bus_network":"Urbain","network":null,"sort_rank":380,"kind_detail":"primary","kind":"major_road","source":"openstreetmap.org","min_zoom":8.0,"bus_shield_text":"147_Manga","shield_text":"2","landuse_kind":"urban_area","ref":"N 3"},"arcs":[[85],[86]]},{"type":"MultiLineString","properties":{"source":"openstreetmap.org","kind":"major_road","landuse_kind":"urban_area","sort_rank":380,"kind_detail":"primary","ref":"N 1","min_zoom":8.0},"arcs":[[87],[88],[89],[90],[91],[92],[93],[94],[95],[96],[97],[98]]},{"type":"LineString","properties":{"kind":"major_road","sort_rank":380,"kind_detail":"primary","bus_network":"Urbain","source":"openstreetmap.org","name:fr":"Avenue Docteur Andriamanana","bus_shield_text":"147","min_zoom":8.0,"landuse_kind":"urban_area","id":28915454},"arcs":[99]},{"type":"MultiLineString","properties":{"source":"openstreetmap.org","kind":"major_road","sort_rank":380,"kind_detail":"primary","ref":"N 4","min_zoom":8.0},"arcs":[[100],[101],[102],[103],[104],[105]]},{"type":"MultiLineString","properties":{"kind":"major_road","sort_rank":380,"kind_detail":"primary","min_zoom":8.0,"source":"openstreetmap.org","name:fr":"Rue du Pasteur Rahajason","landuse_kind":"urban_area","ref":"N 1"},"arcs":[[106],[107],[108],[109],[110],[111],[112],[113]]},{"type":"LineString","properties":{"kind":"major_road","sort_rank":380,"kind_detail":"primary","bus_network":"Urbain","source":"openstreetmap.org","name:fr":"Rue Jaozandry","bus_shield_text":"147","min_zoom":8.0,"landuse_kind":"urban_area","id":28884803},"arcs":[114]},{"type":"MultiLineString","properties":{"bus_network":null,"sort_rank":380,"landuse_kind":"urban_area","name:fr":"Route de la Digue","source":"openstreetmap.org","min_zoom":8.0,"bus_shield_text":"194 V","kind_detail":"primary","ref":"N 58a","kind":"major_road"},"arcs":[[115],[116]]},{"type":"LineString","properties":{"kind":"major_road","sort_rank":380,"kind_detail":"primary","bus_network":null,"source":"openstreetmap.org","name:fr":"Avenue du 26 Juin 1960","bus_shield_text":"Ligne_163_Anosy","min_zoom":8.0,"landuse_kind":"urban_area","ref":"N 7","id":28930045},"arcs":[117]},{"type":"LineString","properties":{"kind":"major_road","sort_rank":380,"kind_detail":"primary","bus_network":null,"source":"openstreetmap.org","name:fr":"Route de la Digue","bus_shield_text":"163_67Ha","min_zoom":8.0,"landuse_kind":"urban_area","ref":"N 58a","id":414018976},"arcs":[118]},{"type":"LineString","properties":{"source":"openstreetmap.org","kind":"major_road","landuse_kind":"urban_area","sort_rank":380,"kind_detail":"primary","min_zoom":8.0,"name:fr":"Rue Rainizanabololona"},"arcs":[119]},{"type":"LineString","properties":{"kind":"major_road","sort_rank":380,"kind_detail":"primary","bus_network":null,"source":"openstreetmap.org","name:fr":"Rue Ampanjaka Toera","bus_shield_text":"105","min_zoom":8.0,"landuse_kind":"urban_area","ref":"N 4","id":28915340},"arcs":[120]},{"type":"LineString","properties":{"bus_network":null,"sort_rank":380,"kind_detail":"primary","name:fr":"Avenue Andrianampoinimerina","source":"openstreetmap.org","min_zoom":8.0,"bus_shield_text":"129","landuse_kind":"urban_area","kind":"major_road"},"arcs":[121]},{"type":"LineString","properties":{"source":"openstreetmap.org","kind":"major_road","landuse_kind":"urban_area","sort_rank":380,"kind_detail":"primary","ref":"N7","min_zoom":8.0},"arcs":[122]},{"type":"LineString","properties":{"bus_network":null,"sort_rank":380,"kind_detail":"primary","kind":"major_road","source":"openstreetmap.org","min_zoom":8.0,"bus_shield_text":"194 R","landuse_kind":"urban_area","ref":"N 4"},"arcs":[123]},{"type":"LineString","properties":{"source":"openstreetmap.org","kind":"major_road","sort_rank":380,"kind_detail":"primary","ref":"N 2","min_zoom":8.0},"arcs":[124]},{"type":"MultiLineString","properties":{"bus_network":"Urbain","network":null,"sort_rank":380,"kind_detail":"primary","kind":"major_road","source":"openstreetmap.org","min_zoom":8.0,"bus_shield_text":"147_Manga","shield_text":"2","landuse_kind":"urban_area","ref":"N 2"},"arcs":[[125],[126],[127],[128],[129],[130]]},{"type":"LineString","properties":{"kind":"major_road","cycleway_left":"1WQ","sort_rank":380,"kind_detail":"primary","is_bicycle_related":true,"source":"openstreetmap.org","min_zoom":8.0,"landuse_kind":"urban_area","ref":"N7","id":542597758},"arcs":[131]},{"type":"LineString","properties":{"kind":"major_road","sort_rank":380,"kind_detail":"primary","bus_network":"Urbain","source":"openstreetmap.org","name:fr":"Rue Ratsimba","bus_shield_text":"147","min_zoom":8.0,"landuse_kind":"urban_area","id":52733156},"arcs":[132]},{"type":"LineString","properties":{"kind":"major_road","sort_rank":380,"kind_detail":"primary","bus_network":null,"source":"openstreetmap.org","name:fr":"Avenue Andrianampoinimerina","bus_shield_text":"Ligne_163_Anosy","min_zoom":8.0,"landuse_kind":"urban_area","id":531720062},"arcs":[133]},{"type":"MultiLineString","properties":{"source":"openstreetmap.org","kind":"major_road","landuse_kind":"urban_area","sort_rank":380,"kind_detail":"primary","ref":"N 4","min_zoom":8.0},"arcs":[[134],[135]]},{"type":"MultiLineString","properties":{"bus_network":null,"sort_rank":380,"kind_detail":"primary","kind":"major_road","source":"openstreetmap.org","min_zoom":8.0,"bus_shield_text":"159","landuse_kind":"urban_area","ref":"N 7"},"arcs":[[136],[137],[138],[139],[140],[141],[142]]},{"type":"LineString","properties":{"kind":"major_road","network":null,"sort_rank":380,"kind_detail":"primary","source":"openstreetmap.org","min_zoom":8.0,"landuse_kind":"urban_area","shield_text":"2","id":414449785},"arcs":[143]},{"type":"LineString","properties":{"kind":"major_road","sort_rank":380,"kind_detail":"primary","bus_network":null,"source":"openstreetmap.org","min_zoom":8.0,"bus_shield_text":"Ambohidratrimo","ref":"N 4","id":186152657},"arcs":[144]},{"type":"LineString","properties":{"bus_network":null,"sort_rank":380,"kind_detail":"primary","kind":"major_road","source":"openstreetmap.org","min_zoom":8.0,"bus_shield_text":"Ambohidratrimo","landuse_kind":"urban_area","ref":"N 4"},"arcs":[145]},{"type":"LineString","properties":{"kind":"major_road","sort_rank":380,"kind_detail":"primary","bus_network":"Urbain","source":"openstreetmap.org","min_zoom":8.0,"bus_shield_text":"147","landuse_kind":"urban_area","id":402089596},"arcs":[146]},{"type":"LineString","properties":{"source":"openstreetmap.org","kind":"major_road","sort_rank":380,"kind_detail":"primary","ref":"N 7","min_zoom":8.0},"arcs":[147]},{"type":"LineString","properties":{"source":"openstreetmap.org","kind":"major_road","network":null,"sort_rank":380,"kind_detail":"primary","min_zoom":8.0,"shield_text":"2"},"arcs":[148]},{"type":"LineString","properties":{"kind":"major_road","sort_rank":380,"kind_detail":"primary","bus_network":"Urbain","source":"openstreetmap.org","min_zoom":8.0,"bus_shield_text":"147_Manga","landuse_kind":"urban_area","ref":"Lalana Mohamed V","id":28914917},"arcs":[149]},{"type":"LineString","properties":{"kind":"major_road","sort_rank":380,"kind_detail":"primary","bus_network":null,"source":"openstreetmap.org","name:fr":"Rue Ampanjaka Toera","bus_shield_text":"Ambohidratrimo","min_zoom":8.0,"landuse_kind":"urban_area","ref":"N 4","id":183427325},"arcs":[150]},{"type":"LineString","properties":{"bus_network":null,"sort_rank":380,"kind_detail":"primary","kind":"major_road","source":"openstreetmap.org","min_zoom":8.0,"bus_shield_text":"112","landuse_kind":"urban_area","ref":"N 4"},"arcs":[151]},{"type":"LineString","properties":{"kind":"major_road","network":null,"sort_rank":380,"kind_detail":"primary","bus_network":"Urbain","source":"openstreetmap.org","min_zoom":8.0,"bus_shield_text":"147_Manga","shield_text":"2","landuse_kind":"urban_area","ref":"N2","id":301620181},"arcs":[152]},{"type":"MultiLineString","properties":{"bus_network":null,"sort_rank":380,"kind_detail":"primary","kind":"major_road","source":"openstreetmap.org","min_zoom":8.0,"bus_shield_text":"194 V","landuse_kind":"urban_area"},"arcs":[[153],[154],[155],[156],[157],[158],[159],[160]]},{"type":"MultiLineString","properties":{"bus_network":null,"sort_rank":380,"kind_detail":"primary","name:fr":"Rue Ravoninahitriniarivo","source":"openstreetmap.org","min_zoom":8.0,"bus_shield_text":"194 R","landuse_kind":"urban_area","kind":"major_road"},"arcs":[[161],[162]]},{"type":"MultiLineString","properties":{"bus_network":"Urbain","sort_rank":380,"kind_detail":"primary","kind":"major_road","source":"openstreetmap.org","min_zoom":8.0,"bus_shield_text":"147_Manga","landuse_kind":"urban_area","ref":"N 7"},"arcs":[[163],[164],[165],[166],[167]]},{"type":"MultiLineString","properties":{"bus_network":null,"sort_rank":380,"kind_detail":"primary","kind":"major_road","source":"openstreetmap.org","min_zoom":8.0,"bus_shield_text":"194 V","landuse_kind":"urban_area","ref":"N 58a"},"arcs":[[168],[169],[170],[171],[172],[173],[174]]}]},"earth":{"type":"GeometryCollection","geometries":[{"type":"Polygon","properties":{"sort_rank":10,"source":"naturalearthdata.com","kind":"earth","min_zoom":0.0,"id":1367},"arcs":[[175]]},{"type":"Point","properties":{"label_placement":true,"kind":"island","name":"Madagascar","area":667249016832,"name:cs":"Madagaskar","source":"openstreetmap.org","min_zoom":7.0,"id":-4097321,"osm_relation":true},"coordinates":[795,1205]}]},"landuse":{"type":"GeometryCollection","geometries":[{"type":"MultiPolygon","properties":{"source":"naturalearthdata.com","kind":"urban_area","name":"","area":778379072,"sort_rank":11,"min_zoom":4.0},"arcs":[[[176]],[[177]],[[178],[179],[180]],[[181]]]},{"type":"Polygon","properties":{"source":"openstreetmap.org","kind":"park","area":55105100,"tier":2,"id":32763349,"min_zoom":8.0,"sort_rank":24},"arcs":[[182]]}]}},"type":"Topology","transform":{"translate":[46.40625,-19.3111433551],"scale":[0.0003433228,0.0003252955]},"arcs":[[[2112,1782],[-71,12],[-150,-31],[-304,128],[-72,-19],[-92,26],[-79,-22],[-96,43],[-84,-13],[-187,60],[-153,-22],[62,-136],[-62,-55],[-106,-6],[-106,-128],[-76,-295],[-105,-201],[1,-118],[-127,-163],[-18,-129],[-287,-318]],[[3140,466],[32,68],[12,133],[-70,135],[-22,208],[-53,79],[-44,150],[-135,25],[-35,48],[-39,145],[15,116],[-26,41],[-239,98],[-188,31],[-128,-32],[-108,71]],[[1111,0],[59,32],[56,119],[82,10],[75,60],[148,-31],[58,48],[349,61],[35,26],[20,-198],[106,-48],[41,-79]],[[2257,0],[117,0]],[[2739,0],[168,6],[112,27],[40,33],[57,113],[50,34],[-39,179],[13,74]],[[2112,1782],[-143,137],[-71,133],[-30,147],[-78,18],[-30,31],[-88,270],[-108,128],[-60,-27],[-97,15],[-181,98],[-31,34],[-6,91],[-89,74],[-58,227],[-190,263],[-139,553],[-64,122]],[[3140,466],[162,73],[97,-51],[-64,-152],[8,-128],[63,-208]],[[819,1074],[44,2],[40,-42],[367,97],[179,-22],[47,23],[50,-67],[-8,-54],[111,-33],[39,-39],[104,74],[55,-50],[192,2],[167,-45],[32,-36],[42,16],[69,-36],[127,55]],[[2477,919],[119,69]],[[2839,1129],[71,29],[58,-17],[35,26],[55,-7]],[[3424,1166]],[[3481,1269],[5,4]],[[3424,1162],[1,0],[0,2],[-2,-1],[1,-1]],[[3484,1270],[2,0],[0,1],[-2,0],[0,-1]],[[3319,1275],[0,-1]],[[3319,1273],[-22,-14]],[[3319,1273],[0,1]],[[3319,1274],[0,-1]],[[3385,1269],[-26,12]],[[3247,1272],[-1,0],[0,-1],[1,1]],[[3230,1285],[-29,42]],[[3230,1285],[1,-1]],[[3231,1284],[-1,1]],[[3231,1283],[1,1]],[[3121,1416],[24,-63],[-15,-28],[47,-69]],[[3250,1146],[3,-14]],[[3260,1118],[-10,28]],[[3254,1131],[6,-14]],[[3257,1220],[6,8]],[[3231,1284]],[[3231,1284]],[[3261,1238],[-2,2]],[[3248,1208],[-1,-1]],[[3256,1219]],[[3260,1117],[0,1]],[[3272,1089],[19,-117]],[[3293,967],[9,-38]],[[3257,1248],[-1,1]],[[3306,1001],[-9,-27]],[[3325,1099],[-3,-24]],[[3405,1150],[-53,-26]],[[3256,1211],[0,8]],[[3250,1208],[-2,0]],[[3481,1269],[-96,0]],[[3486,1273],[195,104],[43,-7],[19,-113]],[[3783,1236],[39,50],[62,5],[70,-33],[100,28],[42,-102]],[[3120,1419],[1,-3]],[[3352,1124],[-27,-25]],[[3262,1266],[-12,5]],[[3184,1244],[-1,4]],[[3256,1210],[0,1]],[[3187,1146],[30,-24],[35,9]],[[3248,1252],[11,-11]],[[3259,1241],[-4,5]],[[3259,1240],[0,1]],[[3256,1212],[-1,-2]],[[3255,1210],[1,0]],[[3257,1220],[-1,-1]],[[3266,1232],[-1,2]],[[3185,1149],[0,-1]],[[3185,1148],[1,0]],[[3246,1265],[-1,-1]],[[3246,1271],[1,0]],[[3247,1271],[1,0],[-1,1]],[[3270,1092],[1,-1]],[[3271,1091],[1,-2]],[[3294,972],[-3,0],[2,-2]],[[3293,970],[2,0],[0,1],[-2,1],[0,-2]],[[3293,970],[0,-3],[4,7],[-3,-2]],[[3223,1183],[1,0],[-1,0]],[[3322,1075],[-16,-74]],[[3424,1158],[-19,-8]],[[3425,1164],[-1,-1]],[[3424,1158],[1,4]],[[3424,1162],[0,-4]],[[3424,1166],[63,101]],[[819,1074],[-79,-22],[-33,-41],[-53,27],[-40,-17],[-50,19],[-184,-28],[-47,-45],[-123,13],[-45,63],[-96,45],[-69,89]],[[3252,1303],[0,-1]],[[3255,1210],[-5,-2]],[[3250,1208],[5,2]],[[3255,1210]],[[3256,1210],[-1,0]],[[3256,1219]],[[3177,1256],[7,-11]],[[3222,1181],[2,2]],[[3270,1258],[-8,8]],[[3276,1261],[-5,-3]],[[2596,988],[243,141]],[[3058,1160],[126,-12]],[[3184,1148],[1,0]],[[3185,1148],[-1,0]],[[3234,1193],[-3,-2]],[[3231,1191],[3,2]],[[3234,1193],[1,0],[-1,1]],[[3234,1194],[0,-1]],[[3247,1207],[-13,-13]],[[3235,1194],[13,12]],[[3201,1160],[1,1],[-1,0],[0,-1]],[[3212,1172],[1,0],[0,1],[-1,-1]],[[3276,1261],[-1,-4]],[[2086,3058],[56,146],[53,15],[54,-25],[14,54],[54,56],[19,98],[-20,65],[30,25],[1,79],[45,43],[-113,105],[-20,-6],[-20,105],[12,96],[-81,18],[14,37],[-59,55],[17,55],[-38,8],[-3,9]],[[2082,3035],[1,0]],[[2082,3035],[4,23]],[[2083,3036],[0,-1]],[[3072,1448],[-88,96],[-15,50],[-83,18],[-188,170],[-60,6],[-87,217],[-79,120],[-7,76],[-89,83],[-27,84],[-48,1],[-4,82],[-70,26],[-29,67],[18,73],[-27,4],[-62,106],[-12,134],[18,43],[-50,131]],[[3072,1448],[5,-2],[3,-1],[-5,2],[-3,1]],[[3201,1161],[-15,-12]],[[3186,1148],[8,6],[7,6]],[[3212,1172],[-10,-11]],[[3202,1161],[11,11]],[[3223,1183],[-10,-10]],[[3213,1172],[9,9]],[[3231,1191],[-7,-7]],[[3224,1183],[7,8]],[[3275,1257],[1,0]],[[3184,1245],[-1,-10]],[[3184,1149],[-20,37],[19,46]],[[3265,1234],[-4,4]],[[3184,1242],[0,2]],[[3247,1271],[-1,-9]],[[3232,1282],[2,-3]],[[3256,1249],[-4,4]],[[3263,1108],[8,-13]],[[3201,1327],[-73,77]],[[3743,1257],[40,-21]],[[3250,1271],[-2,0]],[[3271,1258],[-1,0]],[[3280,1259],[-4,2]],[[3297,1259],[-15,0]],[[3359,1281],[-40,-7]],[[3319,1274]],[[3263,1107],[8,-12]],[[3276,1257],[4,2]],[[3252,1253],[0,1]],[[3121,1422],[-1,-3],[1,-1]],[[3122,1416],[-1,3]],[[3248,1206],[2,-59]],[[3250,1147],[-2,61]],[[3253,1132],[1,-1]],[[3260,1117],[3,-10]],[[3263,1108],[-3,9]],[[3271,1095],[-1,-3]],[[3271,1091],[0,4]],[[3271,1257],[0,1],[0,-1]],[[3094,1438],[-14,7]],[[3121,1416],[-27,22]],[[3275,1261],[1,0]],[[3302,929],[28,-200],[-103,-149],[2,-107],[-59,-73],[-58,-192],[23,-86],[-41,-122]],[[3486,1273],[-5,-4]],[[3249,1207],[1,1]],[[3239,1273],[-4,6]],[[3128,1404],[-7,14]],[[3282,1259],[-2,0]],[[3185,1148]],[[3186,1148],[-1,1]],[[3250,1147],[0,-1]],[[3250,1146],[0,1]],[[3261,1118],[-1,0]],[[3260,1117],[1,1]],[[3325,1099],[-64,19]],[[3183,1233]],[[3252,1302]],[[3252,1302]],[[3247,1207],[2,0]],[[3256,1219],[0,1]],[[3256,1220]],[[3256,1220],[1,0]],[[3263,1228],[2,2]],[[3183,1234],[0,-1]],[[3183,1233]],[[3185,1149],[0,-1]],[[3185,1148],[1,0]],[[3252,1131],[1,0]],[[3253,1131],[1,0]],[[3253,1132],[0,-1]],[[4096,4096],[0,-4096],[-4096,0],[0,4096],[4096,0]],[[2207,219],[45,-17],[36,43],[22,-68],[-86,-37],[-102,15],[-28,90],[65,34],[48,-60]],[[3648,586],[-174,39],[-41,48],[20,84],[141,-39],[48,-44],[6,-88]],[[3367,1414],[22,-179],[32,-34],[-32,-103],[-98,-34],[33,-137],[-52,5],[-78,98],[-47,22],[-85,-47],[-29,-111],[-33,-35],[33,-136],[32,0],[-32,-69],[32,-34],[-32,-103],[32,-170],[-32,0],[-33,-96],[-32,-7],[-32,34],[-126,-114],[-69,12],[-65,102],[41,61],[89,8],[-32,205],[-65,34],[65,103],[-49,64],[-16,106],[-152,172],[-10,102],[171,43],[56,-9],[0,-34],[64,0],[33,-137],[129,0],[49,75],[10,99],[-27,236],[66,34],[64,-34],[171,115],[56,-13],[-22,-94]],[[2795,905],[-24,-54],[19,-36],[113,-24],[-23,117],[-74,19],[-11,-22]],[[2838,688],[23,-149],[46,-25],[60,58],[0,48],[-129,68]],[[3518,2499],[323,-34],[0,-45],[-290,-92],[19,-122],[-149,-100],[0,51],[64,0],[-34,57],[-160,114],[231,64],[-4,107]],[[2528,3361],[24,52],[-17,109],[29,64],[34,14],[46,165],[64,2],[-34,-89],[6,-136],[-51,-74],[41,-22],[-58,-10],[21,-57],[-53,-56],[-40,-13],[-12,51]]]}