{"objects":{"water":{"type":"GeometryCollection","geometries":[{"type":"Polygon","properties":{"source":"naturalearthdata.com","kind":"lake","area":403599616,"sort_rank":200,"min_zoom":0.0,"id":1017},"arcs":[[2]]},{"type":"LineString","properties":{"source":"naturalearthdata.com","kind":"lake","sort_rank":367,"boundary":true,"min_zoom":0.0,"id":1017},"arcs":[3]}]},"buildings":{"type":"GeometryCollection","geometries":[]},"places":{"type":"GeometryCollection","geometries":[{"type":"Point","properties":{"source":"naturalearthdata.com","kind":"locality","name":"Zhanibek","population":8212,"min_zoom":7.0,"id":4010},"coordinates":[1372,2260]},{"type":"Point","properties":{"kind":"locality","name:en":"Zhanybek","name":"\u0416\u0430\u043d\u0438\u0431\u0435\u043a","kind_detail":"town","name:kk":"\u0416\u04d9\u043d\u0456\u0431\u0435\u043a","source":"openstreetmap.org","min_zoom":8.0,"int_name":"Zhanybek","id":473372461,"population":7576},"coordinates":[1298,2239]}]},"transit":{"type":"GeometryCollection","geometries":[{"type":"LineString","properties":{"kind":"train","network":"\u0420\u0416\u0414","sort_rank":275,"name:de":"373 Machatschkala<=>Tjumen","source":"openstreetmap.org","min_zoom":6.0,"operator":"\u0424\u041f\u041a","ref":"373","osm_relation":true,"name":"\u041f\u043e\u0435\u0437\u0434 373. \u041c\u0430\u0445\u0430\u0447\u043a\u0430\u043b\u0430 \u2014 \u0422\u044e\u043c\u0435\u043d\u044c"},"arcs":[1]}]},"pois":{"type":"GeometryCollection","geometries":[]},"boundaries":{"type":"GeometryCollection","geometries":[{"type":"LineString","properties":{"name:pt":"Oblast de Volgogrado","name:az":"Volqoqrad vilay\u0259ti","name:ka":"\u10d5\u10dd\u10da\u10d2\u10dd\u10d2\u10e0\u10d0\u10d3\u10d8\u10e1 \u10dd\u10da\u10e5\u10d8","name:cv":"\u0412\u043e\u043b\u0433\u043e\u0433\u0440\u0430\u0434 \u043e\u0431\u043b\u0430\u00e7\u0115","name:tt":"\u0412\u043e\u043b\u0433\u043e\u0433\u0440\u0430\u0434 \u04e9\u043b\u043a\u04d9\u0441\u0435","name:kv":"\u0412\u043e\u043b\u0433\u043e\u0433\u0440\u0430\u0434 \u043e\u0431\u043b\u0430\u0441\u044c\u0442","min_zoom":8.0,"int_name":"Volgograd Oblast","name:it":"Oblast' di Volgograd","name:be":"\u0412\u0430\u043b\u0433\u0430\u0433\u0440\u0430\u0434\u0441\u043a\u0430\u044f \u0432\u043e\u0431\u043b\u0430\u0441\u0446\u044c","name:os":"\u0412\u043e\u043b\u0433\u043e\u0433\u0440\u0430\u0434\u044b \u043e\u0431\u043b\u00e6\u0441\u0442","name:vi":"Volgograd (t\u1ec9nh)","name:ce":"\u0412\u043e\u043b\u0433\u043e\u0433\u0440\u0430\u0434\u0430\u043d \u043e\u0431\u043b\u0430\u0441\u0442\u044c","name:de":"Oblast Wolgograd","name:pl":"Obw\u00f3d wo\u0142gogradzki","name:ca":"Prov\u00edncia de Volgograd","sort_rank":256,"kind_detail":"4","id":-77665,"source":"openstreetmap.org","name:fr":"Oblast de Volgograd","name:zh":"\u4f0f\u5c14\u52a0\u683c\u52d2\u5dde","name:sl":"Volgograjska oblast","name:ro":"Regiunea Volgograd","name:ja":"\u30f4\u30a9\u30eb\u30b4\u30b0\u30e9\u30fc\u30c9\u5dde","name:lt":"Volgogrado sritis","name:uz":"Volgograd viloyati","name:sk":"Volgogradsk\u00e1 oblas\u0165","name:uk":"\u0412\u043e\u043b\u0433\u043e\u0433\u0440\u0430\u0434\u0441\u044c\u043a\u0430 \u043e\u0431\u043b\u0430\u0441\u0442\u044c","name:hy":"\u054e\u0578\u056c\u0563\u0578\u0563\u0580\u0561\u0564\u056b \u0574\u0561\u0580\u0566","name:sv":"Volgograd oblast","osm_relation":true,"kind":"region","name:en":"Volgograd Oblast","name":"\u0412\u043e\u043b\u0433\u043e\u0433\u0440\u0430\u0434\u0441\u043a\u0430\u044f \u043e\u0431\u043b\u0430\u0441\u0442\u044c","name:nl":"Oblast Wolgograd"},"arcs":[0]}]},"roads":{"type":"GeometryCollection","geometries":[]},"earth":{"type":"GeometryCollection","geometries":[{"type":"Polygon","properties":{"sort_rank":10,"source":"naturalearthdata.com","kind":"earth","min_zoom":0.0,"id":4756},"arcs":[[4]]}]},"landuse":{"type":"GeometryCollection","geometries":[{"type":"Polygon","properties":{"kind":"residential","name:en":"El'ton","name":"\u042d\u043b\u044c\u0442\u043e\u043d","area":12954600,"sort_rank":20,"source":"openstreetmap.org","min_zoom":8.0,"tier":2,"id":274870651},"arcs":[[5]]},{"type":"Polygon","properties":{"kind":"residential","name:en":"Zhanybek","name":"\u0416\u0430\u043d\u0438\u0431\u0435\u043a","area":18873500,"sort_rank":20,"name:kk":"\u0416\u04d9\u043d\u0456\u0431\u0435\u043a","source":"openstreetmap.org","min_zoom":8.0,"int_name":"Zhanybek","tier":2,"id":188115619},"arcs":[[6]]}]}},"type":"Topology","transform":{"translate":[46.40625,48.9224992638],"scale":[0.0003433228,0.0002235066]},"arcs":[[[1039,0],[47,129],[331,138],[231,202],[165,277],[65,342],[-160,298],[-238,226],[-385,255],[137,1011],[28,0],[-5,183],[21,0],[39,165],[36,445],[74,425]],[[1303,4096],[-56,-939],[20,-1684],[-43,-318],[38,-267],[-173,-888]],[[1120,1101],[33,-70],[6,-72],[-23,-22],[-127,-162],[-230,-33],[-216,91],[-80,81],[-4,136],[25,54],[48,72],[55,64],[42,27],[104,-30],[26,-4],[26,13],[35,42],[31,15],[13,13],[16,10],[19,2],[13,-12],[21,-41],[15,-8],[14,-14],[34,-66],[12,-15],[46,-19],[46,-52]],[[1120,1101],[33,-70],[6,-72],[-23,-22],[-127,-162],[-230,-33],[-216,91],[-80,81],[-4,136],[25,54],[48,72],[55,64],[42,27],[104,-30],[26,-4],[26,13],[35,42],[31,15],[13,13],[16,10],[19,2],[13,-12],[21,-41],[15,-8],[14,-14],[34,-66],[12,-15],[46,-19],[46,-52]],[[4096,4096],[0,-4096],[-4096,0],[0,4096],[4096,0]],[[1241,963],[85,5],[11,-77],[-60,-32],[-5,-27],[-31,131]],[[1216,2249],[47,51],[46,3],[39,-85],[-35,-50],[-64,5],[-33,76]]]}