{"objects":{"water":{"type":"GeometryCollection","geometries":[{"type":"Polygon","properties":{"source":"naturalearthdata.com","kind":"ocean","area":1576712559132672,"sort_rank":200,"min_zoom":0.0,"id":1},"arcs":[[14]]},{"type":"LineString","properties":{"source":"naturalearthdata.com","kind":"ocean","sort_rank":205,"boundary":true,"min_zoom":0.0,"id":979},"arcs":[15]}]},"buildings":{"type":"GeometryCollection","geometries":[]},"places":{"type":"GeometryCollection","geometries":[{"type":"Point","properties":{"kind":"locality","name:en":"Lagan","name:nl":"Lagan","name":"\u041b\u0430\u0433\u0430\u043d\u044c","kind_detail":"town","name:de":"Lagan","source":"openstreetmap.org","min_zoom":8.0,"name:it":"Lagan'","name:mn":"\u041b\u0430\u0430\u0433\u0430\u043d \u0445\u043e\u0442","id":810728424,"population":13170},"coordinates":[2782,1261]},{"type":"Point","properties":{"kind":"locality","name:en":"Liman","name":"\u041b\u0438\u043c\u0430\u043d","kind_detail":"town","name:de":"Liman","source":"openstreetmap.org","min_zoom":8.0,"id":957992593,"population":8793},"coordinates":[2386,2890]}]},"transit":{"type":"GeometryCollection","geometries":[{"type":"LineString","properties":{"kind":"train","name":"Baku - Harkiv","sort_rank":275,"source":"openstreetmap.org","min_zoom":6.0,"name:ru":"\u0411\u0430\u043a\u0443 \u2014 \u0425\u0430\u0440\u044c\u043a\u043e\u0432","ref":"Baku - Harkiv","osm_relation":true},"arcs":[7]},{"type":"LineString","properties":{"kind":"train","name":"Baku - Kyiv","sort_rank":275,"source":"openstreetmap.org","min_zoom":6.0,"name:ru":"\u0411\u0430\u043a\u0443 \u2014 \u041a\u0438\u0435\u0432","ref":"Baku - Kyiv","osm_relation":true},"arcs":[8]},{"type":"LineString","properties":{"kind":"train","network":"\u0420\u0416\u0414","sort_rank":275,"name:de":"373 Machatschkala<=>Tjumen","source":"openstreetmap.org","min_zoom":6.0,"operator":"\u0424\u041f\u041a","ref":"373","osm_relation":true,"name":"\u041f\u043e\u0435\u0437\u0434 373. \u041c\u0430\u0445\u0430\u0447\u043a\u0430\u043b\u0430 \u2014 \u0422\u044e\u043c\u0435\u043d\u044c"},"arcs":[9]},{"type":"LineString","properties":{"kind":"train","alt_name:en":"New Eurasian Continental Bridge","network":"Eurasian Land Bridge","alt_name:de":"Zweite eurasische Kontinentalbr\u00fccke","sort_rank":275,"name:de":"Neue eurasische Kontinentalbr\u00fccke","source":"openstreetmap.org","min_zoom":6.0,"osm_relation":true,"name":"New Eurasian Land Bridge"},"arcs":[10]},{"type":"LineString","properties":{"source":"openstreetmap.org","kind":"train","name":"Baku - Sankt-Peterburg","sort_rank":275,"name:ru":"\u0411\u0430\u043a\u0443 \u2014 \u0421\u0430\u043d\u043a\u0442-\u041f\u0435\u0442\u0435\u0440\u0431\u0443\u0440\u0433","min_zoom":6.0,"osm_relation":true},"arcs":[11]},{"type":"LineString","properties":{"source":"openstreetmap.org","kind":"train","name":"Trans-Caspian Railway","sort_rank":275,"min_zoom":6.0,"osm_relation":true},"arcs":[12]},{"type":"LineString","properties":{"kind":"train","name:en":"Baku \u2014 Moscow","name":"\u0411\u0430\u043a\u0443 \u2014 \u041c\u043e\u0441\u043a\u0432\u0430","sort_rank":275,"name:de":"Baku \u2014 Moskau","source":"openstreetmap.org","min_zoom":6.0,"ref":"055","osm_relation":true},"arcs":[13]}]},"pois":{"type":"GeometryCollection","geometries":[]},"boundaries":{"type":"GeometryCollection","geometries":[{"type":"MultiLineString","properties":{"name:right:hy":"\u053f\u0561\u056c\u0574\u056b\u056f\u056b\u0561 \u0570\u0561\u0576\u0580\u0561\u057a\u0565\u057f\u0578\u0582\u0569\u0575\u0578\u0582\u0576","name:left:hi":"\u0906\u0938\u094d\u0924\u094d\u0930\u093e\u0916\u093c\u093e\u0928 \u0913\u092c\u094d\u0932\u093e\u0938\u094d\u0924","name:right:uk":"\u041a\u0430\u043b\u043c\u0438\u043a\u0456\u044f","name:left:he":"\u05de\u05d7\u05d5\u05d6 \u05d0\u05e1\u05d8\u05e8\u05d7\u05df","name:left:sw":"Astrakhan Oblast","name:left:sv":"Astrachan oblast","name:left:sr":"\u0410\u0441\u0442\u0440\u0430\u0445\u0430\u043d\u0441\u043a\u0430 \u043e\u0431\u043b\u0430\u0441\u0442","name:left:sl":"Astrahanska oblast","min_zoom":8.0,"name:left:lt":"Astrachan\u0117s sritis","name:left:sh":"Astrahanska oblast","name:left:lv":"Astraha\u0146as apgabals","name:left:hu":"Asztrah\u00e1ni ter\u00fclet","name:right:he":"\u05e7\u05dc\u05de\u05d9\u05e7\u05d9\u05d4","source":"openstreetmap.org","sort_rank":256,"name:left:is":"Astrakanfylki","name:left:ca":"Prov\u00edncia d'\u00c0strakhan","name:right:av":"\u0413\u044a\u0430\u043b\u043c\u0443\u0433\u044a","official_name:right":"\u0420\u0435\u0441\u043f\u0443\u0431\u043b\u0438\u043a\u0430 \u041a\u0430\u043b\u043c\u044b\u043a\u0438\u044f","name:left:cv":"\u0410\u00e7\u0442\u0103\u0440\u0445\u0430\u043d \u043e\u0431\u043b\u0430\u00e7\u0115","name:right:az":"Kalm\u0131kiya Respublikas\u0131","name:left:cs":"Astracha\u0148sk\u00e1 oblast","name:left":"\u0410\u0441\u0442\u0440\u0430\u0445\u0430\u043d\u0441\u043a\u0430\u044f \u043e\u0431\u043b\u0430\u0441\u0442\u044c","name:right:es":"Rep\u00fablica de Kalmukia","name:left:ka":"\u10d0\u10e1\u10e2\u10e0\u10d0\u10ee\u10d0\u10dc\u10d8\u10e1 \u10dd\u10da\u10e5\u10d8","name:right:it":"Repubblica dei Calmucchi","name:left:ro":"Regiunea Astrahan","name:left:kk":"\u0410\u0441\u0442\u0440\u0430\u0445\u0430\u043d \u043e\u0431\u043b\u044b\u0441\u044b","name:left:kv":"\u0410\u0441\u0442\u0440\u0430\u0445\u0430\u043d\u044c \u043e\u0431\u043b\u0430\u0441\u044c\u0442","name:right:ro":"Calm\u00eechia","name:right:eo":"Kalmukio","name:right:en":"Kalmykia","name:right:el":"\u0394\u03b7\u03bc\u03bf\u03ba\u03c1\u03b1\u03c4\u03af\u03b1 \u03c4\u03b7\u03c2 \u039a\u03b1\u03bb\u03bc\u03af\u03ba\u03b9\u03b1","kind":"region","name":"\u0410\u0441\u0442\u0440\u0430\u0445\u0430\u043d\u0441\u043a\u0430\u044f \u043e\u0431\u043b\u0430\u0441\u0442\u044c - \u041a\u0430\u043b\u043c\u044b\u043a\u0438\u044f","name:left:fi":"Astrahanin alue","name:left:zh":"\u963f\u65af\u7279\u62c9\u7f55\u5dde","name:left:fr":"Oblast d'Astrakhan","name:left:da":"Astrakhan oblast","name:right:cv":"\u041a\u0430\u043b\u043c\u0103\u043a \u0420\u0435\u0441\u043f\u0443\u0431\u043b\u0438\u043a\u0438","name:left:hy":"\u0531\u057d\u057f\u0580\u0561\u056d\u0561\u0576\u056b \u0574\u0561\u0580\u0566","name:left:uz":"Astraxan viloyati","name:right:fr":"R\u00e9publique de Kalmoukie","name:left:ja":"\u30a2\u30b9\u30c8\u30e9\u30cf\u30f3\u5dde","id:right":-108083,"name:left:uk":"\u0410\u0441\u0442\u0440\u0430\u0445\u0430\u043d\u0441\u044c\u043a\u0430 \u043e\u0431\u043b\u0430\u0441\u0442\u044c","name:left:nl":"Oblast Astrachan","name:left:ba":"\u04d8\u0441\u0442\u0440\u04d9\u0445\u0430\u043d \u04e9\u043b\u043a\u04d9\u04bb\u0435","name:right:sl":"Kalmikija","name:left:be":"\u0410\u0441\u0442\u0440\u0430\u0445\u0430\u043d\u0441\u043a\u0430\u044f \u0432\u043e\u0431\u043b\u0430\u0441\u0446\u044c","name:right:be":"\u041a\u0430\u043b\u043c\u044b\u043a\u0456\u044f","name:right:uz":"Qalmog\u02bbiston","id":-112819,"name:right":"\u041a\u0430\u043b\u043c\u044b\u043a\u0438\u044f","name:left:en":"Astrakhan Oblast","name:left:el":"\u03a0\u03b5\u03c1\u03b9\u03c6\u03ad\u03c1\u03b5\u03b9\u03b1 \u0386\u03c3\u03c4\u03c1\u03b1\u03c7\u03b1\u03bd","name:right:ca":"Calm\u00faquia","kind_detail":"4","name:right:ce":"\u0413\u04c0\u0430\u043b\u043c\u0430\u043a\u0445\u043e\u0439\u0447\u043e\u044c","id:left":-112819,"name:left:es":"\u00d3blast de Astrac\u00e1n","name:right:cs":"Kalmycko","name:right:kk":"\u049a\u0430\u043b\u043c\u0430\u049b\u0441\u0442\u0430\u043d \u0420\u0435\u0441\u043f\u0443\u0431\u043b\u0438\u043a\u0430\u0441\u044b","name:left:et":"Astrahani oblast","name:right:ka":"\u10e0\u10d4\u10e1\u10de\u10e3\u10d1\u10da\u10d8\u10d9\u10d0 \u10e7\u10d0\u10da\u10db\u10e3\u10ee\u10d4\u10d7\u10d8","name:right:pt":"Calm\u00faquia","name:left:pl":"Obw\u00f3d astracha\u0144ski","name:left:tr":"Astrahan Oblast\u0131","name:left:id":"Oblast Astrakhan","name:left:tt":"\u04d8\u0441\u0442\u0435\u0440\u0445\u0430\u043d \u04e9\u043b\u043a\u04d9\u0441\u0435","name:left:az":"H\u0259\u015ft\u0259rxan vilay\u0259ti","name:left:pt":"Oblast de Astrac\u00e3","name:left:it":"Oblast' di Astrachan'","name:right:pl":"Republika Ka\u0142mucji","osm_relation":true,"name:left:tg":"\u0412\u0438\u043b\u043e\u044f\u0442\u0438 \u0410\u0441\u0442\u0440\u0430\u0445\u0430\u043d","name:right:de":"Kalm\u00fcckien","name:left:de":"Oblast Astrachan","name:left:ce":"\u0410\u0441\u0442\u0440\u0430\u0445\u0430\u043d\u0430\u043d \u043e\u0431\u043b\u0430\u0441\u0442\u044c"},"arcs":[[0],[1]]},{"type":"LineString","properties":{"name:right:hy":"\u053f\u0561\u056c\u0574\u056b\u056f\u056b\u0561 \u0570\u0561\u0576\u0580\u0561\u057a\u0565\u057f\u0578\u0582\u0569\u0575\u0578\u0582\u0576","name:left:hi":"\u0906\u0938\u094d\u0924\u094d\u0930\u093e\u0916\u093c\u093e\u0928 \u0913\u092c\u094d\u0932\u093e\u0938\u094d\u0924","name:right:uk":"\u041a\u0430\u043b\u043c\u0438\u043a\u0456\u044f","name:left:he":"\u05de\u05d7\u05d5\u05d6 \u05d0\u05e1\u05d8\u05e8\u05d7\u05df","name:left:sw":"Astrakhan Oblast","name:left:sv":"Astrachan oblast","name:left:sr":"\u0410\u0441\u0442\u0440\u0430\u0445\u0430\u043d\u0441\u043a\u0430 \u043e\u0431\u043b\u0430\u0441\u0442","name:left:sl":"Astrahanska oblast","min_zoom":8.0,"name:left:lt":"Astrachan\u0117s sritis","name:left:sh":"Astrahanska oblast","name:left:lv":"Astraha\u0146as apgabals","name:left:hu":"Asztrah\u00e1ni ter\u00fclet","name:right:he":"\u05e7\u05dc\u05de\u05d9\u05e7\u05d9\u05d4","name:right:av":"\u0413\u044a\u0430\u043b\u043c\u0443\u0433\u044a","sort_rank":256,"name:right:pl":"Republika Ka\u0142mucji","name:left:ca":"Prov\u00edncia d'\u00c0strakhan","source":"openstreetmap.org","official_name:right":"\u0420\u0435\u0441\u043f\u0443\u0431\u043b\u0438\u043a\u0430 \u041a\u0430\u043b\u043c\u044b\u043a\u0438\u044f","name:left:cv":"\u0410\u00e7\u0442\u0103\u0440\u0445\u0430\u043d \u043e\u0431\u043b\u0430\u00e7\u0115","name:right:az":"Kalm\u0131kiya Respublikas\u0131","name:left:cs":"Astracha\u0148sk\u00e1 oblast","name:left":"\u0410\u0441\u0442\u0440\u0430\u0445\u0430\u043d\u0441\u043a\u0430\u044f \u043e\u0431\u043b\u0430\u0441\u0442\u044c","name:right:es":"Rep\u00fablica de Kalmukia","name:left:ka":"\u10d0\u10e1\u10e2\u10e0\u10d0\u10ee\u10d0\u10dc\u10d8\u10e1 \u10dd\u10da\u10e5\u10d8","name:right:it":"Repubblica dei Calmucchi","name:left:ro":"Regiunea Astrahan","name:left:kk":"\u0410\u0441\u0442\u0440\u0430\u0445\u0430\u043d \u043e\u0431\u043b\u044b\u0441\u044b","name:left:kv":"\u0410\u0441\u0442\u0440\u0430\u0445\u0430\u043d\u044c \u043e\u0431\u043b\u0430\u0441\u044c\u0442","name:right:ro":"Calm\u00eechia","name:right:eo":"Kalmukio","name:right:en":"Kalmykia","name:right:el":"\u0394\u03b7\u03bc\u03bf\u03ba\u03c1\u03b1\u03c4\u03af\u03b1 \u03c4\u03b7\u03c2 \u039a\u03b1\u03bb\u03bc\u03af\u03ba\u03b9\u03b1","kind":"region","name":"\u0410\u0441\u0442\u0440\u0430\u0445\u0430\u043d\u0441\u043a\u0430\u044f \u043e\u0431\u043b\u0430\u0441\u0442\u044c - \u041a\u0430\u043b\u043c\u044b\u043a\u0438\u044f","name:left:fi":"Astrahanin alue","name:left:zh":"\u963f\u65af\u7279\u62c9\u7f55\u5dde","name:left:fr":"Oblast d'Astrakhan","name:right:de":"Kalm\u00fcckien","name:left:et":"Astrahani oblast","name:left:hy":"\u0531\u057d\u057f\u0580\u0561\u056d\u0561\u0576\u056b \u0574\u0561\u0580\u0566","name:left:uz":"Astraxan viloyati","name:right:fr":"R\u00e9publique de Kalmoukie","name:left:ja":"\u30a2\u30b9\u30c8\u30e9\u30cf\u30f3\u5dde","id:right":-108083,"name:left:uk":"\u0410\u0441\u0442\u0440\u0430\u0445\u0430\u043d\u0441\u044c\u043a\u0430 \u043e\u0431\u043b\u0430\u0441\u0442\u044c","name:left:nl":"Oblast Astrachan","name:left:ba":"\u04d8\u0441\u0442\u0440\u04d9\u0445\u0430\u043d \u04e9\u043b\u043a\u04d9\u04bb\u0435","name:right:sl":"Kalmikija","name:left:be":"\u0410\u0441\u0442\u0440\u0430\u0445\u0430\u043d\u0441\u043a\u0430\u044f \u0432\u043e\u0431\u043b\u0430\u0441\u0446\u044c","name:right:be":"\u041a\u0430\u043b\u043c\u044b\u043a\u0456\u044f","name:right:uz":"Qalmog\u02bbiston","id":-112819,"name:right":"\u041a\u0430\u043b\u043c\u044b\u043a\u0438\u044f","name:left:en":"Astrakhan Oblast","name:left:el":"\u03a0\u03b5\u03c1\u03b9\u03c6\u03ad\u03c1\u03b5\u03b9\u03b1 \u0386\u03c3\u03c4\u03c1\u03b1\u03c7\u03b1\u03bd","name:right:ca":"Calm\u00faquia","kind_detail":"4","name:right:ce":"\u0413\u04c0\u0430\u043b\u043c\u0430\u043a\u0445\u043e\u0439\u0447\u043e\u044c","id:left":-112819,"name:left:es":"\u00d3blast de Astrac\u00e1n","name:right:cs":"Kalmycko","name:left:tr":"Astrahan Oblast\u0131","name:right:cv":"\u041a\u0430\u043b\u043c\u0103\u043a \u0420\u0435\u0441\u043f\u0443\u0431\u043b\u0438\u043a\u0438","name:right:ka":"\u10e0\u10d4\u10e1\u10de\u10e3\u10d1\u10da\u10d8\u10d9\u10d0 \u10e7\u10d0\u10da\u10db\u10e3\u10ee\u10d4\u10d7\u10d8","name:right:pt":"Calm\u00faquia","name:left:pl":"Obw\u00f3d astracha\u0144ski","name:right:kk":"\u049a\u0430\u043b\u043c\u0430\u049b\u0441\u0442\u0430\u043d \u0420\u0435\u0441\u043f\u0443\u0431\u043b\u0438\u043a\u0430\u0441\u044b","name:left:id":"Oblast Astrakhan","name:left:tt":"\u04d8\u0441\u0442\u0435\u0440\u0445\u0430\u043d \u04e9\u043b\u043a\u04d9\u0441\u0435","name:left:az":"H\u0259\u015ft\u0259rxan vilay\u0259ti","name:left:pt":"Oblast de Astrac\u00e3","name:left:it":"Oblast' di Astrachan'","name:left:is":"Astrakanfylki","osm_relation":true,"name:left:tg":"\u0412\u0438\u043b\u043e\u044f\u0442\u0438 \u0410\u0441\u0442\u0440\u0430\u0445\u0430\u043d","name:left:da":"Astrakhan oblast","name:left:de":"Oblast Astrachan","name:left:ce":"\u0410\u0441\u0442\u0440\u0430\u0445\u0430\u043d\u0430\u043d \u043e\u0431\u043b\u0430\u0441\u0442\u044c","maritime_boundary":true},"arcs":[2]},{"type":"MultiLineString","properties":{"name:pt":"Oblast de Astrac\u00e3","name:az":"H\u0259\u015ft\u0259rxan vilay\u0259ti","name:id":"Oblast Astrakhan","name:ka":"\u10d0\u10e1\u10e2\u10e0\u10d0\u10ee\u10d0\u10dc\u10d8\u10e1 \u10dd\u10da\u10e5\u10d8","name:tr":"Astrahan Oblast\u0131","name:cv":"\u0410\u00e7\u0442\u0103\u0440\u0445\u0430\u043d \u043e\u0431\u043b\u0430\u00e7\u0115","name:cs":"Astracha\u0148sk\u00e1 oblast","name:tt":"\u04d8\u0441\u0442\u0435\u0440\u0445\u0430\u043d \u04e9\u043b\u043a\u04d9\u0441\u0435","name:kv":"\u0410\u0441\u0442\u0440\u0430\u0445\u0430\u043d\u044c \u043e\u0431\u043b\u0430\u0441\u044c\u0442","min_zoom":8.0,"name:ro":"Regiunea Astrahan","name:it":"Oblast' di Astrachan'","name:be":"\u0410\u0441\u0442\u0440\u0430\u0445\u0430\u043d\u0441\u043a\u0430\u044f \u0432\u043e\u0431\u043b\u0430\u0441\u0446\u044c","name:lv":"Astraha\u0146as apgabals","name:ce":"\u0410\u0441\u0442\u0440\u0430\u0445\u0430\u043d\u0430\u043d \u043e\u0431\u043b\u0430\u0441\u0442\u044c","id":-112819,"name:ca":"Prov\u00edncia d'\u00c0strakhan","sort_rank":256,"kind_detail":"4","name:da":"Astrakhan oblast","name:de":"Oblast Astrachan","source":"openstreetmap.org","name:fr":"Oblast d'Astrakhan","name:hi":"\u0906\u0938\u094d\u0924\u094d\u0930\u093e\u0916\u093c\u093e\u0928 \u0913\u092c\u094d\u0932\u093e\u0938\u094d\u0924","name:tg":"\u0412\u0438\u043b\u043e\u044f\u0442\u0438 \u0410\u0441\u0442\u0440\u0430\u0445\u0430\u043d","name:sr":"\u0410\u0441\u0442\u0440\u0430\u0445\u0430\u043d\u0441\u043a\u0430 \u043e\u0431\u043b\u0430\u0441\u0442","name:sl":"Astrahanska oblast","name:nl":"Oblast Astrachan","name:ja":"\u30a2\u30b9\u30c8\u30e9\u30cf\u30f3\u5dde","name:lt":"Astrachan\u0117s sritis","name:sh":"Astrahanska oblast","name:kk":"\u0410\u0441\u0442\u0440\u0430\u0445\u0430\u043d \u043e\u0431\u043b\u044b\u0441\u044b","name:he":"\u05de\u05d7\u05d5\u05d6 \u05d0\u05e1\u05d8\u05e8\u05d7\u05df","name:uk":"\u0410\u0441\u0442\u0440\u0430\u0445\u0430\u043d\u0441\u044c\u043a\u0430 \u043e\u0431\u043b\u0430\u0441\u0442\u044c","name:hy":"\u0531\u057d\u057f\u0580\u0561\u056d\u0561\u0576\u056b \u0574\u0561\u0580\u0566","name:sw":"Astrakhan Oblast","name:sv":"Astrachan oblast","name:hu":"Asztrah\u00e1ni ter\u00fclet","name:ba":"\u04d8\u0441\u0442\u0440\u04d9\u0445\u0430\u043d \u04e9\u043b\u043a\u04d9\u04bb\u0435","osm_relation":true,"name":"\u0410\u0441\u0442\u0440\u0430\u0445\u0430\u043d\u0441\u043a\u0430\u044f \u043e\u0431\u043b\u0430\u0441\u0442\u044c","name:el":"\u03a0\u03b5\u03c1\u03b9\u03c6\u03ad\u03c1\u03b5\u03b9\u03b1 \u0386\u03c3\u03c4\u03c1\u03b1\u03c7\u03b1\u03bd","kind":"region","name:en":"Astrakhan Oblast","name:uz":"Astraxan viloyati","name:zh":"\u963f\u65af\u7279\u62c9\u7f55\u5dde","name:is":"Astrakanfylki","name:pl":"Obw\u00f3d astracha\u0144ski","name:fi":"Astrahanin alue","name:et":"Astrahani oblast","name:es":"\u00d3blast de Astrac\u00e1n"},"arcs":[[3],[4]]},{"type":"LineString","properties":{"name:pt":"Calm\u00faquia","name:az":"Kalm\u0131kiya Respublikas\u0131","name:ka":"\u10e0\u10d4\u10e1\u10de\u10e3\u10d1\u10da\u10d8\u10d9\u10d0 \u10e7\u10d0\u10da\u10db\u10e3\u10ee\u10d4\u10d7\u10d8","name:cv":"\u041a\u0430\u043b\u043c\u0103\u043a \u0420\u0435\u0441\u043f\u0443\u0431\u043b\u0438\u043a\u0438","name:cs":"Kalmycko","official_name":"\u0420\u0435\u0441\u043f\u0443\u0431\u043b\u0438\u043a\u0430 \u041a\u0430\u043b\u043c\u044b\u043a\u0438\u044f","name:av":"\u0413\u044a\u0430\u043b\u043c\u0443\u0433\u044a","min_zoom":8.0,"name:ro":"Calm\u00eechia","name:it":"Repubblica dei Calmucchi","name:ce":"\u0413\u04c0\u0430\u043b\u043c\u0430\u043a\u0445\u043e\u0439\u0447\u043e\u044c","id":-108083,"name:ca":"Calm\u00faquia","sort_rank":256,"kind_detail":"4","name:de":"Kalm\u00fcckien","source":"openstreetmap.org","name:fr":"R\u00e9publique de Kalmoukie","name:sl":"Kalmikija","name:uz":"Qalmog\u02bbiston","name:kk":"\u049a\u0430\u043b\u043c\u0430\u049b\u0441\u0442\u0430\u043d \u0420\u0435\u0441\u043f\u0443\u0431\u043b\u0438\u043a\u0430\u0441\u044b","name:he":"\u05e7\u05dc\u05de\u05d9\u05e7\u05d9\u05d4","kind":"region","name:uk":"\u041a\u0430\u043b\u043c\u0438\u043a\u0456\u044f","name:hy":"\u053f\u0561\u056c\u0574\u056b\u056f\u056b\u0561 \u0570\u0561\u0576\u0580\u0561\u057a\u0565\u057f\u0578\u0582\u0569\u0575\u0578\u0582\u0576","name:be":"\u041a\u0430\u043b\u043c\u044b\u043a\u0456\u044f","osm_relation":true,"name:el":"\u0394\u03b7\u03bc\u03bf\u03ba\u03c1\u03b1\u03c4\u03af\u03b1 \u03c4\u03b7\u03c2 \u039a\u03b1\u03bb\u03bc\u03af\u03ba\u03b9\u03b1","name:eo":"Kalmukio","name:en":"Kalmykia","name":"\u041a\u0430\u043b\u043c\u044b\u043a\u0438\u044f","name:pl":"Republika Ka\u0142mucji","name:es":"Rep\u00fablica de Kalmukia"},"arcs":[5]},{"type":"LineString","properties":{"name:pt":"Calm\u00faquia","name:az":"Kalm\u0131kiya Respublikas\u0131","name:ka":"\u10e0\u10d4\u10e1\u10de\u10e3\u10d1\u10da\u10d8\u10d9\u10d0 \u10e7\u10d0\u10da\u10db\u10e3\u10ee\u10d4\u10d7\u10d8","name:cv":"\u041a\u0430\u043b\u043c\u0103\u043a \u0420\u0435\u0441\u043f\u0443\u0431\u043b\u0438\u043a\u0438","name:cs":"Kalmycko","official_name":"\u0420\u0435\u0441\u043f\u0443\u0431\u043b\u0438\u043a\u0430 \u041a\u0430\u043b\u043c\u044b\u043a\u0438\u044f","name:av":"\u0413\u044a\u0430\u043b\u043c\u0443\u0433\u044a","min_zoom":8.0,"name:ro":"Calm\u00eechia","name:it":"Repubblica dei Calmucchi","name:ce":"\u0413\u04c0\u0430\u043b\u043c\u0430\u043a\u0445\u043e\u0439\u0447\u043e\u044c","id":-108083,"name:ca":"Calm\u00faquia","sort_rank":256,"kind_detail":"4","name:de":"Kalm\u00fcckien","source":"openstreetmap.org","name:fr":"R\u00e9publique de Kalmoukie","name:sl":"Kalmikija","name:uz":"Qalmog\u02bbiston","name:kk":"\u049a\u0430\u043b\u043c\u0430\u049b\u0441\u0442\u0430\u043d \u0420\u0435\u0441\u043f\u0443\u0431\u043b\u0438\u043a\u0430\u0441\u044b","name:he":"\u05e7\u05dc\u05de\u05d9\u05e7\u05d9\u05d4","name:eo":"Kalmukio","name:uk":"\u041a\u0430\u043b\u043c\u0438\u043a\u0456\u044f","name:hy":"\u053f\u0561\u056c\u0574\u056b\u056f\u056b\u0561 \u0570\u0561\u0576\u0580\u0561\u057a\u0565\u057f\u0578\u0582\u0569\u0575\u0578\u0582\u0576","name:be":"\u041a\u0430\u043b\u043c\u044b\u043a\u0456\u044f","osm_relation":true,"name:el":"\u0394\u03b7\u03bc\u03bf\u03ba\u03c1\u03b1\u03c4\u03af\u03b1 \u03c4\u03b7\u03c2 \u039a\u03b1\u03bb\u03bc\u03af\u03ba\u03b9\u03b1","kind":"region","name:en":"Kalmykia","name":"\u041a\u0430\u043b\u043c\u044b\u043a\u0438\u044f","maritime_boundary":true,"name:pl":"Republika Ka\u0142mucji","name:es":"Rep\u00fablica de Kalmukia"},"arcs":[6]}]},"roads":{"type":"GeometryCollection","geometries":[{"type":"LineString","properties":{"sort_rank":380,"kind_detail":"primary","min_zoom":8.0,"kind":"major_road","source":"openstreetmap.org"},"arcs":[16]},{"type":"LineString","properties":{"source":"openstreetmap.org","kind":"major_road","network":"ru:national","sort_rank":380,"kind_detail":"primary","min_zoom":8.0,"shield_text":"215"},"arcs":[17]},{"type":"LineString","properties":{"sort_rank":355,"source":"openstreetmap.org","min_zoom":8.0,"kind":"ferry"},"arcs":[18]},{"type":"MultiLineString","properties":{"kind":"major_road","network":"ru:national","sort_rank":380,"kind_detail":"primary","source":"openstreetmap.org","min_zoom":8.0,"shield_text":"215","ref":"\u0420-215"},"arcs":[[19],[20]]},{"type":"LineString","properties":{"sort_rank":355,"source":"openstreetmap.org","min_zoom":8.0,"kind":"ferry","osm_relation":true},"arcs":[21]}]},"earth":{"type":"GeometryCollection","geometries":[{"type":"Polygon","properties":{"sort_rank":10,"source":"naturalearthdata.com","min_zoom":0.0,"kind":"earth","area":94029039226},"arcs":[[22]]}]},"landuse":{"type":"GeometryCollection","geometries":[{"type":"MultiPolygon","properties":{"source":"openstreetmap.org","kind":"park","tier":2,"area":3782944339,"sort_rank":24,"min_zoom":4.0,"osm_relation":true},"arcs":[[[23]],[[24]]]},{"type":"MultiPolygon","properties":{"kind":"nature_reserve","area":1267849984,"sort_rank":23,"source":"openstreetmap.org","min_zoom":4.0,"tier":2,"id":-2816270,"osm_relation":true},"arcs":[[[25]],[[26]]]}]}},"type":"Topology","transform":{"translate":[46.40625,45.0890355648],"scale":[0.0003433228,0.000240282]},"arcs":[[[134,4096],[8,-449],[-142,-3]],[[0,3045],[17,-20],[401,-74],[-41,-169],[-169,-237],[630,-217],[-31,-120],[27,-22],[166,3],[57,-157],[131,-50],[117,15],[275,115],[59,93],[536,-37],[173,34],[88,89],[121,33],[35,122],[292,-45],[13,-46],[229,-37],[119,61],[100,-78],[29,-59],[-96,-51],[-98,12],[-19,-37],[35,-61],[-10,-98],[29,-136],[48,-87],[77,-67]],[[3340,1717],[32,-26],[9,-181],[-46,-196],[761,-562]],[[1548,2830],[137,49],[-66,-251],[-71,-6],[0,208]],[[2105,4096],[0,-18],[-36,-63],[-316,8],[-5,73]],[[110,1513],[39,126],[550,90],[40,179],[324,9],[3,-88],[327,-20],[-85,-305],[-80,-2],[-108,102],[-443,25],[-39,-173],[-140,-37],[1,55],[-389,39]],[[3300,0],[55,169],[167,320],[574,216]],[[904,0],[932,3421],[157,462],[123,213]],[[904,0],[932,3421],[157,462],[123,213]],[[904,0],[932,3421],[157,462],[123,213]],[[3869,4096],[-24,-95],[-78,-144],[-12,-124],[-190,-51],[-1,-31],[98,-123],[-125,-253],[80,-73],[-9,-49],[-170,-87],[-106,21],[-50,-37],[-27,-61],[118,-139],[103,-43],[126,-189],[167,-164],[227,-1126],[3,-125],[-279,-1203]],[[904,0],[932,3421],[157,462],[123,213]],[[3869,4096],[-24,-95],[-78,-144],[-12,-124],[-190,-51],[-1,-31],[98,-123],[-125,-253],[80,-73],[-9,-49],[-170,-87],[-106,21],[-50,-37],[-27,-61],[118,-139],[103,-43],[126,-189],[167,-164],[227,-1126],[3,-125],[-279,-1203]],[[904,0],[932,3421],[157,462],[123,213]],[[2495,0],[37,132],[32,188],[31,90],[50,38],[69,-19],[54,-29],[39,2],[28,72],[0,330],[13,72],[33,85],[81,158],[5,25],[8,14],[14,10],[46,21],[18,29],[17,38],[-3,33],[-42,14],[-144,12],[-41,25],[36,48],[74,17],[170,-17],[56,31],[6,34],[-7,97],[1,39],[14,40],[96,107],[11,1],[-5,5],[-30,72],[-76,136],[-11,32],[-9,28],[3,55],[45,36],[-3,-95],[44,-90],[54,-51],[26,21],[9,14],[39,33],[12,23],[1,33],[-6,28],[-30,103],[-21,50],[-13,43],[9,30],[-48,66],[-57,23],[-135,24],[-16,17],[-28,54],[-16,18],[-14,1],[-34,-6],[-12,5],[-22,28],[-18,31],[-4,20],[2,52],[-7,23],[-81,85],[-10,29],[15,39],[35,11],[35,-6],[15,-14],[33,-55],[162,-18],[66,-55],[-117,3],[-24,-3],[-25,-22],[-31,-38],[-9,-35],[68,-28],[49,-58],[28,-21],[135,7],[34,-19],[132,-167],[39,-74],[46,-157],[38,-47],[74,0],[-27,83],[4,55],[45,123],[-109,37],[-44,34],[12,68],[-12,18],[-7,19],[6,14],[23,6],[28,12],[0,30],[-9,39],[1,37],[9,49],[-15,17],[-24,5],[-18,13],[-5,6],[-40,92],[4,15],[-41,2],[-38,-16],[-29,10],[-12,77],[26,39],[59,-2],[67,-24],[47,-26],[39,-34],[31,-41],[14,-28],[12,-57],[14,-29],[23,-25],[18,-7],[20,-2],[26,-7],[16,0],[11,9],[11,11],[14,6],[15,-8],[20,-36],[13,-10],[88,-25],[38,-36],[16,-68],[20,-57],[103,-158],[0,-2186],[-1601,0]],[[4096,2186],[-103,158],[-20,57],[-16,68],[-38,36],[-88,25],[-13,10],[-20,36],[-15,8],[-14,-6],[-11,-11],[-11,-9],[-16,0],[-26,7],[-20,2],[-18,7],[-23,25],[-14,29],[-12,57],[-14,28],[-31,41],[-39,34],[-47,26],[-67,24],[-59,2],[-26,-39],[12,-77],[29,-10],[38,16],[41,-2],[-4,-15],[40,-92],[5,-6],[18,-13],[24,-5],[15,-17],[-9,-49],[-1,-37],[9,-39],[0,-30],[-28,-12],[-23,-6],[-6,-14],[7,-19],[12,-18],[-12,-68],[44,-34],[109,-37],[-45,-123],[-4,-55],[27,-83],[-74,0],[-38,47],[-46,157],[-39,74],[-132,167],[-34,19],[-135,-7],[-28,21],[-49,58],[-68,28],[9,35],[31,38],[25,22],[24,3],[117,-3],[-66,55],[-162,18],[-33,55],[-15,14],[-35,6],[-35,-11],[-15,-39],[10,-29],[81,-85],[7,-23],[-2,-52],[4,-20],[18,-31],[22,-28],[12,-5],[34,6],[14,-1],[16,-18],[28,-54],[16,-17],[135,-24],[57,-23],[48,-66],[-9,-30],[13,-43],[21,-50],[30,-103],[6,-28],[-1,-33],[-12,-23],[-39,-33],[-9,-14],[-26,-21],[-54,51],[-44,90],[3,95],[-45,-36],[-3,-55],[9,-28],[11,-32],[76,-136],[30,-72],[5,-5],[-11,-1],[-96,-107],[-14,-40],[-1,-39],[7,-97],[-6,-34],[-56,-31],[-170,17],[-74,-17],[-36,-48],[41,-25],[144,-12],[42,-14],[3,-33],[-17,-38],[-18,-29],[-46,-21],[-14,-10],[-8,-14],[-5,-25],[-81,-158],[-33,-85],[-13,-72],[0,-330],[-28,-72],[-39,-2],[-54,29],[-69,19],[-50,-38],[-31,-90],[-32,-188],[-37,-132]],[[2623,2931],[24,-1]],[[2549,2917],[4,1],[0,4],[-4,-2],[0,-3]],[[3720,0],[284,1237],[-131,754],[-125,500],[-146,127],[-126,189],[-103,43],[-118,139],[27,61],[50,37],[106,-21],[170,87],[9,49],[-80,73],[125,253],[-98,123],[1,31],[171,31],[129,383]],[[2549,2917],[-81,-219],[-108,-42],[-139,-168],[-68,-317]],[[3850,4096],[-10,-75],[-91,-190],[-90,-114],[-74,0],[-31,-34],[-56,-244],[16,-117],[-58,-64],[-455,36],[-13,-63],[-209,-90],[-77,-84],[-49,-106],[-100,-29]],[[3720,0],[284,1237],[-117,687],[-139,567],[-146,127],[-126,189],[-103,43],[-118,139],[27,61],[50,37],[106,-21],[170,87],[9,49],[-80,73],[125,253],[-98,123],[1,31],[190,51],[12,124],[78,144],[24,95]],[[4096,4096],[0,-1910],[-103,158],[-20,57],[-16,68],[-38,36],[-88,25],[-13,10],[-20,36],[-15,8],[-14,-6],[-11,-11],[-11,-9],[-16,0],[-26,7],[-20,2],[-18,7],[-23,25],[-14,29],[-12,57],[-14,28],[-31,41],[-39,34],[-47,26],[-67,24],[-59,2],[-26,-39],[12,-77],[29,-10],[38,16],[41,-2],[-4,-15],[40,-92],[5,-6],[18,-13],[24,-5],[15,-17],[-9,-49],[-1,-37],[9,-39],[0,-30],[-28,-12],[-23,-6],[-6,-14],[7,-19],[12,-18],[-12,-68],[44,-34],[109,-37],[-45,-123],[-4,-55],[27,-83],[-74,0],[-38,47],[-46,157],[-39,74],[-132,167],[-34,19],[-135,-7],[-28,21],[-49,58],[-68,28],[9,35],[31,38],[25,22],[24,3],[117,-3],[-66,55],[-162,18],[-33,55],[-15,14],[-35,6],[-35,-11],[-15,-39],[10,-29],[81,-85],[7,-23],[-2,-52],[4,-20],[18,-31],[22,-28],[12,-5],[34,6],[14,-1],[16,-18],[28,-54],[16,-17],[135,-24],[57,-23],[48,-66],[-9,-30],[13,-43],[21,-50],[30,-103],[6,-28],[-1,-33],[-12,-23],[-39,-33],[-9,-14],[-26,-21],[-54,51],[-44,90],[3,95],[-45,-36],[-3,-55],[9,-28],[11,-32],[76,-136],[30,-72],[5,-5],[-11,-1],[-96,-107],[-14,-40],[-1,-39],[7,-97],[-6,-34],[-56,-31],[-170,17],[-74,-17],[-36,-48],[41,-25],[144,-12],[42,-14],[3,-33],[-17,-38],[-18,-29],[-46,-21],[-14,-10],[-8,-14],[-5,-25],[-81,-158],[-33,-85],[-13,-72],[0,-330],[-28,-72],[-39,-2],[-54,29],[-69,19],[-50,-38],[-31,-90],[-32,-188],[-37,-132],[-2495,0],[0,4096],[4096,0]],[[135,4046],[32,37],[429,-8],[640,-105],[-238,-1434],[-597,223],[19,197],[-170,33],[5,104],[-108,215],[-5,339],[-142,-3],[0,436],[119,-59],[16,25]],[[0,3045],[17,-20],[401,-74],[-41,-169],[-169,-237],[-12,-133],[-111,40],[-85,61],[0,532]],[[106,4096],[3,-69],[-109,53],[0,16],[106,0]],[[0,2513],[85,-61],[111,-40],[12,133],[230,-92],[9,-31],[-79,-147],[-113,-74],[-119,16],[-136,76],[0,220]]]}