{"objects":{"water":{"type":"GeometryCollection","geometries":[{"type":"Polygon","properties":{"source":"naturalearthdata.com","kind":"ocean","area":1576712559132672,"sort_rank":200,"min_zoom":0.0,"id":1},"arcs":[[25]]},{"type":"LineString","properties":{"source":"naturalearthdata.com","kind":"ocean","sort_rank":205,"boundary":true,"min_zoom":0.0,"id":979},"arcs":[26]},{"type":"LineString","properties":{"source":"naturalearthdata.com","kind":"ocean","sort_rank":205,"boundary":true,"min_zoom":0.0,"id":3768},"arcs":[27]}]},"buildings":{"type":"GeometryCollection","geometries":[]},"places":{"type":"GeometryCollection","geometries":[{"type":"Point","properties":{"name:az":"Xasavyurt","name:lt":"Chasaviurtas","name:ar":"\u062e\u0627\u0633\u0627\u0641\u064a\u0648\u0631\u062a","min_zoom":8.0,"int_name":"Khasavyurt","name:uk":"\u0425\u0430\u0441\u0430\u0432'\u044e\u0440\u0442","name:hy":"\u053d\u0561\u057d\u0561\u057e\u0575\u0578\u0582\u0580\u057f","name:ce":"\u0425\u0430\u0441\u0443-\u042d\u0432\u043b","id":191880979,"population":138420,"kind":"locality","name:en":"Khasavyurt","name":"\u0425\u0430\u0441\u0430\u0432\u044e\u0440\u0442","kind_detail":"city","name:he":"\u05d7\u05e1\u05d5\u05d5\u05d9\u05d5\u05e8\u05d8","name:de":"Chassawjurt","source":"openstreetmap.org","name:fr":"Khassaviourt","name:pl":"Chasawjurt","name:et":"Hassavjurt","name:zh":"\u54c8\u8428\u7ef4\u5c24\u5c14\u7279"},"coordinates":[509,699]},{"type":"Point","properties":{"name:az":"Q\u0131zlar","name:ko":"\ud0a4\uc990\ub7b4\ub974","name:ar":"\u0643\u064a\u0632\u0644\u064a\u0627\u0631","name:cs":"Kizljar","name:tt":"\u041a\u0438\u0437\u043b\u04d9\u0440","name:av":"\u0413\u044a\u0438\u0437\u043b\u044f\u0440","name:tr":"Kizlyar","min_zoom":8.0,"name:ro":"Kizliar","name:it":"Kizljar","name:os":"\u0425\u044a\u044b\u0437\u043b\u0430\u0440","name:sk":"Kiz\u013ear","name:pl":"Kizlar","id":679031958,"name:ca":"Kizliar","name:fa":"\u0642\u0632\u0644\u06cc\u0627\u0631","kind_detail":"town","name:da":"Kizljar","name:de":"Kisljar","source":"openstreetmap.org","name:fr":"Kizliar","name:zh":"\u57fa\u8332\u5229\u4e9e\u723e","name:nl":"Kizljar","name:ja":"\u30ad\u30ba\u30ea\u30e3\u30eb","name:lt":"Kizliaras","kind":"locality","name:uk":"\u041a\u0456\u0437\u043b\u044f\u0440","name:sv":"Kizljar","name:hr":"Kizljar","name:sr":"\u041a\u0438\u0437\u0459\u0430\u0440","population":48237,"name:eo":"Kizlar","name:en":"Kizlyar","name":"\u041a\u0438\u0437\u043b\u044f\u0440","name:fi":"Kizljar"},"coordinates":[892,3116]},{"type":"Point","properties":{"name:sr":"\u041a\u0438\u0437\u0438\u0459\u0443\u0440\u0442","name:az":"Q\u0131z\u0131lyurd","name:ar":"\u0643\u064a\u0632\u064a\u0644\u064a\u0648\u0631\u062a","name:eo":"Kizilurt","name:tt":"\u041a\u044b\u0437\u044b\u043b\u0439\u043e\u0440\u0442","name:av":"\u0413\u044a\u0438\u0437\u0438\u043b\u044e\u0440\u0442","min_zoom":8.0,"int_name":"Kizilyurt","name:hy":"\u053f\u056b\u0566\u056b\u056c\u0575\u0578\u0582\u0580\u057f","name:be":"\u041a\u0456\u0437\u0456\u043b\u044e\u0440\u0442","id":287686736,"population":35762,"kind":"locality","name:en":"Kizilyurt","name":"\u041a\u0438\u0437\u0438\u043b\u044e\u0440\u0442","kind_detail":"town","name:de":"Kisiljurt","source":"openstreetmap.org"},"coordinates":[1355,527]},{"type":"Point","properties":{"kind":"locality","name:en":"Babayurt","name":"\u0411\u0430\u0431\u0430\u044e\u0440\u0442","kind_detail":"town","min_zoom":8.0,"name:de":"Babajurt","source":"openstreetmap.org","name:fr":"Babayourt","name:az":"Babayurd","name:hy":"\u0532\u0561\u0562\u0561\u0575\u0578\u0582\u0580\u057f","id":915304822,"population":16130},"coordinates":[1081,2137]},{"type":"Point","properties":{"kind":"locality","name:en":"Tarumovka","name:nl":"Taroemovka","name":"\u0422\u0430\u0440\u0443\u043c\u043e\u0432\u043a\u0430","kind_detail":"town","min_zoom":8.0,"name:de":"Tarumowka","source":"openstreetmap.org","name:fr":"Taroumovka","name:az":"Tarumovka","name:hy":"\u054f\u0561\u057c\u0578\u0582\u0574\u0578\u057e\u056f\u0561","id":915392873,"population":5713},"coordinates":[381,4043]}]},"transit":{"type":"GeometryCollection","geometries":[{"type":"MultiLineString","properties":{"kind":"train","name":"Baku - Harkiv","sort_rank":275,"source":"openstreetmap.org","min_zoom":6.0,"name:ru":"\u0411\u0430\u043a\u0443 \u2014 \u0425\u0430\u0440\u044c\u043a\u043e\u0432","ref":"Baku - Harkiv","osm_relation":true},"arcs":[[6],[7],[8],[9]]},{"type":"MultiLineString","properties":{"source":"openstreetmap.org","kind":"train","name":"\u0411\u0430\u043a\u0443 \u2014 \u0420\u043e\u0441\u0442\u043e\u0432-\u043d\u0430-\u0414\u043e\u043d\u0443","sort_rank":275,"ref":"Baku \u2014 Rostov-na-Donu","min_zoom":6.0,"osm_relation":true},"arcs":[[10],[11]]},{"type":"MultiLineString","properties":{"kind":"train","name":"Baku - Kyiv","sort_rank":275,"source":"openstreetmap.org","min_zoom":6.0,"name:ru":"\u0411\u0430\u043a\u0443 \u2014 \u041a\u0438\u0435\u0432","ref":"Baku - Kyiv","osm_relation":true},"arcs":[[12],[13],[14],[15]]},{"type":"MultiLineString","properties":{"kind":"train","network":"\u0420\u0416\u0414","sort_rank":275,"name:de":"373 Machatschkala<=>Tjumen","source":"openstreetmap.org","min_zoom":6.0,"operator":"\u0424\u041f\u041a","ref":"373","osm_relation":true,"name":"\u041f\u043e\u0435\u0437\u0434 373. \u041c\u0430\u0445\u0430\u0447\u043a\u0430\u043b\u0430 \u2014 \u0422\u044e\u043c\u0435\u043d\u044c"},"arcs":[[16],[17],[18]]},{"type":"MultiLineString","properties":{"source":"openstreetmap.org","kind":"train","name":"Baku - Sankt-Peterburg","sort_rank":275,"name:ru":"\u0411\u0430\u043a\u0443 \u2014 \u0421\u0430\u043d\u043a\u0442-\u041f\u0435\u0442\u0435\u0440\u0431\u0443\u0440\u0433","min_zoom":6.0,"osm_relation":true},"arcs":[[19],[20],[21]]},{"type":"MultiLineString","properties":{"kind":"train","name:en":"Baku \u2014 Moscow","name":"\u0411\u0430\u043a\u0443 \u2014 \u041c\u043e\u0441\u043a\u0432\u0430","sort_rank":275,"name:de":"Baku \u2014 Moskau","source":"openstreetmap.org","min_zoom":6.0,"ref":"055","osm_relation":true},"arcs":[[22],[23],[24]]}]},"pois":{"type":"GeometryCollection","geometries":[{"type":"Point","properties":{"kind":"nature_reserve","protect_class":"4","area":780988000,"source":"openstreetmap.org","min_zoom":7.49,"tier":2,"id":505346049,"name":"\u0410\u0433\u0440\u0430\u0445\u0430\u043d\u0441\u043a\u0438\u0439 \u0437\u0430\u043a\u0430\u0437\u043d\u0438\u043a"},"coordinates":[3391,2938]}]},"boundaries":{"type":"GeometryCollection","geometries":[{"type":"MultiLineString","properties":{"name:right:hy":"\u0534\u0561\u0572\u057d\u057f\u0561\u0576","name:left:hi":"\u091a\u0947\u091a\u0928\u094d\u092f\u093e","name:right:lb":"Dagestan","name:left:sv":"Tjetjenien","name:left:sr":"\u0427\u0435\u0447\u0435\u043d\u0438\u0458\u0430","name:right:lt":"Dagestanas","name:left:sl":"\u010ce\u010denija","min_zoom":8.0,"name:left:lt":"\u010ce\u010d\u0117nija","name:left:sh":"\u010ce\u010denija","name:left:hu":"Csecsenf\u00f6ld","name:right:he":"\u05d3\u05d0\u05d2\u05e1\u05d8\u05df","name:left:ga":"An tSeisnia","source":"openstreetmap.org","sort_rank":256,"name:left:ca":"Txetx\u00e8nia","name:right:av":"\u0414\u0430\u0433\u044a\u0438\u0441\u0442\u0430\u043d","name:right:ar":"\u062f\u0627\u063a\u0633\u062a\u0627\u0646","name:left:cv":"\u0427\u0435\u0447\u0435\u043d \u0420\u0435\u0441\u043f\u0443\u0431\u043b\u0438\u043a\u0438","name:right:az":"Da\u011f\u0131stan","name:left:cs":"\u010ce\u010densko","name:left":"\u0427\u0435\u0447\u043d\u044f","name:right:es":"Daguest\u00e1n","name:left:ka":"\u10e9\u10d4\u10e9\u10dc\u10d4\u10d7\u10d8","name:left:os":"\u0426\u00e6\u0446\u00e6\u043d","name:right:it":"Daghestan","name:left:ro":"Cecenia","name:right:id":"Dagestan","name:right:en":"Dagestan","name:right:el":"\u039d\u03c4\u03b1\u03b3\u03ba\u03b5\u03c3\u03c4\u03ac\u03bd","kind":"region","name":"\u0427\u0435\u0447\u043d\u044f - \u0414\u0430\u0433\u0435\u0441\u0442\u0430\u043d","name:left:fa":"\u0686\u0686\u0646","name:left:fo":"Kekenia","name:left:fi":"T\u0161et\u0161enia","name:left:zh":"\u8f66\u81e3\u5171\u548c\u56fd","name:left:fr":"Tch\u00e9tch\u00e9nie","name:right:de":"Dagestan","name:right:zh":"\u8fbe\u5409\u65af\u5766\u5171\u548c\u56fd","name:left:hy":"\u0549\u0565\u0579\u0576\u056b\u0561","name:right:fa":"\u062f\u0627\u063a\u0633\u062a\u0627\u0646","id:right":-109876,"name:left:nl":"Tsjetsjeni\u00eb","name:left:ba":"\u0427\u0435\u0447\u0435\u043d \u0420\u0435\u0441\u043f\u0443\u0431\u043b\u0438\u043a\u0430\u04bb\u044b","name:left:be":"\u0427\u0430\u0447\u043d\u044f","name:left:bn":"\u099a\u09c7\u099a\u09a8\u09bf\u09af\u09bc\u09be","id":-109877,"name:right":"\u0414\u0430\u0433\u0435\u0441\u0442\u0430\u043d","name:left:eo":"\u0108e\u0109enio","name:left:en":"Chechnya","name:left:el":"\u03a4\u03c3\u03b5\u03c4\u03c3\u03b5\u03bd\u03af\u03b1","name:right:ca":"Daguestan","kind_detail":"4","id:left":-109877,"name:left:ko":"\uccb4\uccb8 \uacf5\ud654\uad6d","name:left:eu":"Txetxenia","name:right:ka":"\u10d3\u10d0\u10e6\u10d4\u10e1\u10e2\u10d0\u10dc\u10d8\u10e8 \u10e0\u10d4\u10e1\u10de\u10e3\u10d1\u10da\u10d8\u10d9\u10d0","name:left:av":"\u0427\u0430\u0447\u0430\u043d\u0438\u0441\u0442\u0430\u043d","name:right:pt":"Daguest\u00e3o","name:left:ar":"\u0627\u0644\u0634\u064a\u0634\u0627\u0646","name:left:pl":"Czeczenia","name:left:tr":"\u00c7e\u00e7enistan","name:left:id":"Chechnya","name:left:az":"\u00c7e\u00e7enistan","name:right:tr":"Da\u011f\u0131stan","name:left:mn":"\u0427\u0435\u0447\u0435\u043d\u044c","name:left:af":"Tsjetsjni\u00eb","name:right:sv":"Dagestan","name:left:ab":"\u0427\u0435\u0447\u043d\u0438\u0430","name:right:tk":"Dagystan","name:right:tg":"\u0414\u043e\u0493\u0438\u0441\u0442\u043e\u043d","name:right:pl":"Republika Dagestanu","osm_relation":true,"name:left:da":"Tjetjenien","name:left:de":"Tschetschenien","name:left:ce":"\u041d\u043e\u0445\u0447\u0438\u0439\u0447\u043e\u044c","name:right:ku":"Daxistan"},"arcs":[[0],[1],[2],[3]]},{"type":"MultiLineString","properties":{"name:pt":"Daguest\u00e3o","name:az":"Da\u011f\u0131stan","name:id":"Dagestan","name:ka":"\u10d3\u10d0\u10e6\u10d4\u10e1\u10e2\u10d0\u10dc\u10d8\u10e8 \u10e0\u10d4\u10e1\u10de\u10e3\u10d1\u10da\u10d8\u10d9\u10d0","name:tr":"Da\u011f\u0131stan","name:ar":"\u062f\u0627\u063a\u0633\u062a\u0627\u0646","name:av":"\u0414\u0430\u0433\u044a\u0438\u0441\u0442\u0430\u043d","name:tk":"Dagystan","min_zoom":8.0,"name:it":"Daghestan","name:pl":"Republika Dagestanu","id":-109876,"name:ca":"Daguestan","name:fa":"\u062f\u0627\u063a\u0633\u062a\u0627\u0646","sort_rank":256,"kind_detail":"4","name:de":"Dagestan","source":"openstreetmap.org","name:tg":"\u0414\u043e\u0493\u0438\u0441\u0442\u043e\u043d","name:lt":"Dagestanas","name:he":"\u05d3\u05d0\u05d2\u05e1\u05d8\u05df","name:lb":"Dagestan","name:hy":"\u0534\u0561\u0572\u057d\u057f\u0561\u0576","name:sv":"Dagestan","osm_relation":true,"name:el":"\u039d\u03c4\u03b1\u03b3\u03ba\u03b5\u03c3\u03c4\u03ac\u03bd","kind":"region","name:en":"Dagestan","name":"\u0414\u0430\u0433\u0435\u0441\u0442\u0430\u043d","name:zh":"\u8fbe\u5409\u65af\u5766\u5171\u548c\u56fd","name:ku":"Daxistan","maritime_boundary":true,"name:es":"Daguest\u00e1n"},"arcs":[[4],[5]]}]},"roads":{"type":"GeometryCollection","geometries":[{"type":"MultiLineString","properties":{"sort_rank":380,"kind_detail":"primary","min_zoom":8.0,"kind":"major_road","source":"openstreetmap.org"},"arcs":[[28],[29],[30],[31],[32],[33],[34],[35],[36],[37]]},{"type":"MultiLineString","properties":{"sort_rank":381,"source":"openstreetmap.org","min_zoom":8.0,"kind":"major_road","kind_detail":"trunk"},"arcs":[[38],[39]]},{"type":"MultiLineString","properties":{"kind":"major_road","network":"AsianHighway","sort_rank":381,"kind_detail":"trunk","source":"openstreetmap.org","min_zoom":8.0,"landuse_kind":"residential","shield_text":"8"},"arcs":[[40],[41],[42],[43],[44],[45],[46],[47]]},{"type":"LineString","properties":{"kind":"major_road","name:en":"Kochubey-Kizlyar","network":"ru:national","sort_rank":381,"kind_detail":"trunk","name:de":"Kotschubei-Kisljar","source":"openstreetmap.org","min_zoom":8.0,"shield_text":"215","ref":"\u0420-215"},"arcs":[48]},{"type":"LineString","properties":{"kind":"major_road","sort_rank":380,"landuse_kind":"urban_area","source":"openstreetmap.org","min_zoom":8.0,"kind_detail":"primary","ref":"\u0420309","id":214165545},"arcs":[49]},{"type":"LineString","properties":{"kind":"major_road","name:en":"Mira Street","network":"ru:national","sort_rank":381,"kind_detail":"trunk","name:de":"uliza Mira","source":"openstreetmap.org","min_zoom":8.0,"shield_text":"215","ref":"\u0420-215","id":498316943},"arcs":[50]},{"type":"LineString","properties":{"kind":"major_road","network":"AsianHighway","sort_rank":381,"landuse_kind":"urban_area","source":"openstreetmap.org","min_zoom":8.0,"kind_detail":"trunk","shield_text":"8"},"arcs":[51]},{"type":"MultiLineString","properties":{"kind":"major_road","network":"ru:national","sort_rank":381,"kind_detail":"trunk","source":"openstreetmap.org","min_zoom":8.0,"shield_text":"215","ref":"\u0420-215"},"arcs":[[52],[53],[54]]},{"type":"LineString","properties":{"kind":"major_road","name:en":"Khasavyurt - Babayurt","network":"ru:regional","sort_rank":381,"landuse_kind":"urban_area","name:de":"Chassawjurt - Babajurt","source":"openstreetmap.org","min_zoom":8.0,"kind_detail":"trunk","shield_text":"82\u041a","ref":"82\u041a-003"},"arcs":[55]},{"type":"LineString","properties":{"kind":"major_road","name:en":"Groznenskaya Street","sort_rank":380,"landuse_kind":"urban_area","name:de":"Grosnenskaja uliza","source":"openstreetmap.org","min_zoom":8.0,"kind_detail":"primary"},"arcs":[56]},{"type":"LineString","properties":{"kind":"major_road","name:en":"Khasavyurt - Babayurt","network":"ru:regional","sort_rank":380,"kind_detail":"primary","name:de":"Chassawjurt - Babajurt","source":"openstreetmap.org","min_zoom":8.0,"shield_text":"82\u041a","ref":"82\u041a-003"},"arcs":[57]},{"type":"LineString","properties":{"kind":"major_road","network":"e-road","sort_rank":381,"kind_detail":"trunk","source":"openstreetmap.org","min_zoom":8.0,"landuse_kind":"urban_area","shield_text":"50","id":97707928},"arcs":[58]},{"type":"LineString","properties":{"kind":"major_road","network":"ru:national","sort_rank":381,"landuse_kind":"urban_area","source":"openstreetmap.org","min_zoom":8.0,"kind_detail":"trunk","shield_text":"215","ref":"\u0420-215"},"arcs":[59]},{"type":"LineString","properties":{"kind":"major_road","name:en":"Oktyabrskaya Street","sort_rank":380,"kind_detail":"primary","bus_network":null,"name:de":"Oktjabrskaja uliza","source":"openstreetmap.org","min_zoom":8.0,"name:uk":"\u0416\u043e\u0432\u0442\u043d\u0435\u0432\u0430 \u0432\u0443\u043b\u0438\u0446\u044f","bus_shield_text":"9","landuse_kind":"urban_area","id":187804317},"arcs":[60]},{"type":"MultiLineString","properties":{"kind":"major_road","network":"ru:national","sort_rank":381,"landuse_kind":"urban_area","source":"openstreetmap.org","min_zoom":8.0,"kind_detail":"trunk","shield_text":"217","ref":"\u0420-217"},"arcs":[[61],[62],[63],[64],[65],[66]]},{"type":"LineString","properties":{"kind":"major_road","network":"e-road","sort_rank":380,"kind_detail":"primary","source":"openstreetmap.org","min_zoom":8.0,"shield_text":"119","id":297190530},"arcs":[67]},{"type":"LineString","properties":{"source":"openstreetmap.org","kind":"major_road","network":"AsianHighway","sort_rank":381,"kind_detail":"trunk","min_zoom":8.0,"shield_text":"8"},"arcs":[68]},{"type":"LineString","properties":{"kind":"major_road","name:en":"Groznenskaya Street","sort_rank":380,"kind_detail":"primary","name:de":"Grosnenskaja uliza","source":"openstreetmap.org","min_zoom":8.0,"id":93322460},"arcs":[69]},{"type":"LineString","properties":{"kind":"major_road","name:en":"Lenina Street","network":"ru:regional","sort_rank":380,"kind_detail":"primary","name:de":"uliza Lenina","source":"openstreetmap.org","min_zoom":8.0,"shield_text":"96\u041a","name:ce":"\u041b\u0435\u043d\u0438\u043d\u0430\u043d \u0443\u0440\u0430\u043c","ref":"96\u041a-001","id":498067848},"arcs":[70]},{"type":"MultiLineString","properties":{"source":"openstreetmap.org","kind":"major_road","landuse_kind":"urban_area","sort_rank":380,"kind_detail":"primary","min_zoom":8.0},"arcs":[[71],[72],[73],[74],[75],[76]]},{"type":"MultiLineString","properties":{"kind":"major_road","network":"ru:regional","sort_rank":380,"kind_detail":"primary","source":"openstreetmap.org","min_zoom":8.0,"shield_text":"96\u041a","ref":"96\u041a-001"},"arcs":[[77],[78]]},{"type":"LineString","properties":{"kind":"major_road","network":"ru:regional","sort_rank":380,"kind_detail":"primary","source":"openstreetmap.org","min_zoom":8.0,"shield_text":"82\u041a","ref":"82\u041a-002"},"arcs":[79]},{"type":"LineString","properties":{"bus_network":null,"sort_rank":380,"kind_detail":"primary","kind":"major_road","source":"openstreetmap.org","min_zoom":8.0,"bus_shield_text":"9","landuse_kind":"urban_area"},"arcs":[80]},{"type":"LineString","properties":{"kind":"major_road","name:en":"Bammatyurtovskaya Street","network":"AsianHighway","sort_rank":381,"kind_detail":"trunk","name:de":"Bammatjurtowskaja uliza","source":"openstreetmap.org","min_zoom":8.0,"landuse_kind":"residential","shield_text":"8","id":82555531},"arcs":[81]},{"type":"MultiLineString","properties":{"kind":"major_road","network":"e-road","sort_rank":381,"kind_detail":"trunk","source":"openstreetmap.org","min_zoom":8.0,"landuse_kind":"residential","shield_text":"50"},"arcs":[[82],[83],[84]]},{"type":"LineString","properties":{"bus_network":null,"name:en":"Pobedy Street","sort_rank":380,"kind_detail":"primary","kind":"major_road","name:de":"uliza Pobedy","source":"openstreetmap.org","min_zoom":8.0,"bus_shield_text":"9","landuse_kind":"urban_area"},"arcs":[85]},{"type":"LineString","properties":{"kind":"major_road","name:en":"Khasavyurt - Babayurt","network":"ru:regional","sort_rank":381,"kind_detail":"trunk","name:de":"Chassawjurt - Babajurt","source":"openstreetmap.org","min_zoom":8.0,"landuse_kind":"residential","shield_text":"82\u041a","ref":"82\u041a-003","id":81680919},"arcs":[86]},{"type":"LineString","properties":{"kind":"major_road","name:en":"Kizlyar-Babayurt","network":"ru:national","sort_rank":381,"kind_detail":"trunk","name:de":"Kisljar-Babajurt","source":"openstreetmap.org","min_zoom":8.0,"shield_text":"215","ref":"\u0420-215","id":271879512},"arcs":[87]},{"type":"MultiLineString","properties":{"source":"openstreetmap.org","kind":"major_road","landuse_kind":"residential","sort_rank":380,"kind_detail":"primary","min_zoom":8.0},"arcs":[[88],[89],[90],[91],[92],[93],[94],[95],[96],[97],[98],[99]]},{"type":"LineString","properties":{"kind":"major_road","name:en":"Oktyabrskaya Street","sort_rank":380,"kind_detail":"primary","name:de":"Oktjabrskaja uliza","source":"openstreetmap.org","min_zoom":8.0,"name:uk":"\u0416\u043e\u0432\u0442\u043d\u0435\u0432\u0430 \u0432\u0443\u043b\u0438\u0446\u044f","landuse_kind":"urban_area","id":93321922},"arcs":[100]},{"type":"MultiLineString","properties":{"source":"openstreetmap.org","kind":"major_road","network":"e-road","sort_rank":381,"kind_detail":"trunk","min_zoom":8.0,"shield_text":"50"},"arcs":[[101],[102]]},{"type":"LineString","properties":{"kind":"major_road","name:en":"Dotsenko Street","sort_rank":380,"kind_detail":"primary","name:de":"uliza Dozenko","source":"openstreetmap.org","min_zoom":8.0,"landuse_kind":"urban_area","id":364884697},"arcs":[103]},{"type":"MultiLineString","properties":{"kind":"major_road","network":"ru:national","sort_rank":381,"kind_detail":"trunk","source":"openstreetmap.org","min_zoom":8.0,"shield_text":"217","ref":"\u0420-217"},"arcs":[[104],[105],[106],[107],[108],[109],[110],[111],[112]]},{"type":"MultiLineString","properties":{"kind":"major_road","network":"ru:national","sort_rank":381,"kind_detail":"trunk","source":"openstreetmap.org","min_zoom":8.0,"landuse_kind":"residential","shield_text":"217","ref":"\u0420-217"},"arcs":[[113],[114],[115],[116],[117],[118],[119],[120]]},{"type":"LineString","properties":{"kind":"major_road","name:en":"Pobedy Street","sort_rank":380,"kind_detail":"primary","name:de":"uliza Pobedy","source":"openstreetmap.org","min_zoom":8.0,"landuse_kind":"urban_area","id":187804316},"arcs":[121]},{"type":"LineString","properties":{"kind":"major_road","name:en":"Mira Street","network":"ru:national","sort_rank":381,"kind_detail":"trunk","name:de":"uliza Mira","source":"openstreetmap.org","min_zoom":8.0,"landuse_kind":"urban_area","shield_text":"215","ref":"\u0420-215","id":498316943},"arcs":[122]},{"type":"LineString","properties":{"source":"openstreetmap.org","kind":"major_road","landuse_kind":"residential","sort_rank":380,"kind_detail":"primary","ref":"\u0420309","min_zoom":8.0},"arcs":[123]},{"type":"LineString","properties":{"kind":"major_road","name:en":"Khasavyurt - Babayurt","network":"ru:regional","sort_rank":381,"kind_detail":"trunk","name:de":"Chassawjurt - Babajurt","source":"openstreetmap.org","min_zoom":8.0,"shield_text":"82\u041a","ref":"82\u041a-003"},"arcs":[124]}]},"earth":{"type":"GeometryCollection","geometries":[{"type":"MultiPolygon","properties":{"sort_rank":10,"source":"naturalearthdata.com","min_zoom":0.0,"kind":"earth","area":78037241807},"arcs":[[[125]],[[126]]]}]},"landuse":{"type":"GeometryCollection","geometries":[{"type":"MultiPolygon","properties":{"source":"naturalearthdata.com","kind":"urban_area","name":"","area":3309404477,"sort_rank":11,"min_zoom":4.0},"arcs":[[[127]],[[128]],[[129]],[[130]],[[131]],[[132]],[[133]]]},{"type":"Polygon","properties":{"kind":"nature_reserve","protect_class":"4","area":780988032,"sort_rank":23,"source":"openstreetmap.org","min_zoom":6.0,"tier":2,"id":505346049},"arcs":[[134]]},{"type":"MultiPolygon","properties":{"source":"openstreetmap.org","kind":"residential","tier":2,"area":446336815,"sort_rank":20,"min_zoom":8.0},"arcs":[[[135]],[[136]],[[137]],[[138]],[[139]],[[140]],[[141]]]}]}},"type":"Topology","transform":{"translate":[46.40625,43.0688877742],"scale":[0.0003433228,0.0002487054]},"arcs":[[[304,0],[-40,27],[22,42],[-40,22],[-168,-34],[-45,94],[20,55],[-53,27]],[[0,380],[89,92],[-45,19],[2,41],[-46,3]],[[0,637],[10,23],[-2,90],[43,94],[1,66],[-42,117],[-10,11]],[[0,1741],[3,1],[7,97],[69,40],[-25,63],[17,93],[-53,77],[50,44],[-9,44],[42,10],[38,51],[-22,44],[25,84],[171,168],[121,217],[88,38],[131,9],[72,93],[-23,85],[43,87],[-124,-26],[-8,82],[-34,-10],[-43,104],[-83,-9],[-65,-53],[-133,1],[4,82],[-146,-3],[27,50],[-17,115],[38,53],[-52,93],[-32,-9],[5,50],[30,10],[-32,9],[21,25],[-39,43],[37,59],[-99,8]],[[4087,0],[-93,277],[102,211]],[[4096,1297],[-55,360],[55,124]],[[760,4096],[151,-870],[-82,-120],[-80,-39],[41,-269],[31,-60]],[[825,2730],[78,-164],[-7,-168],[73,-70],[55,-113],[-66,-106],[-4,-80],[120,-489],[-10,-283],[-39,-160],[71,-405],[35,-103],[93,-27]],[[1224,562],[383,-65]],[[2603,0],[-983,492],[-106,36],[-11,2],[-279,32]],[[0,922],[48,-9],[504,-148],[287,-8],[95,-43],[176,-138],[497,-79]],[[2603,0],[-983,492],[-106,36],[-11,2],[-279,32]],[[760,4096],[151,-870],[-82,-120],[-80,-39],[41,-269],[31,-60]],[[825,2730],[78,-164],[-7,-168],[73,-70],[55,-113],[-66,-106],[-4,-80],[120,-489],[-10,-283],[-39,-160],[71,-405],[35,-103],[93,-27]],[[1224,562],[383,-65]],[[2603,0],[-983,492],[-106,36],[-11,2],[-279,32]],[[1306,553],[-146,18],[-36,31],[-98,488],[38,167],[10,283],[-121,544],[71,131],[-55,113],[-73,70],[7,168],[-112,225],[-43,270],[82,46],[81,119],[-151,870]],[[2603,0],[-983,492],[-314,61]],[[1361,546],[246,-49]],[[1224,562],[32,0],[247,-32],[11,-2],[106,-36],[983,-492]],[[1607,497],[-383,65]],[[1224,562],[-72,11],[-28,29],[-98,488],[38,167],[10,283],[-121,544],[71,131],[-55,113],[-73,70],[7,168],[-112,225],[-43,270],[82,46],[81,119],[-151,870]],[[2603,0],[-983,492],[-106,36],[-11,2],[-279,32]],[[1607,497],[-383,65]],[[1224,562],[-72,11],[-28,29],[-98,488],[38,167],[10,283],[-121,544],[71,131],[-55,113],[-73,70],[7,168],[-112,225],[-43,270],[82,46],[81,119],[-151,870]],[[3054,0],[-6,48],[7,77],[13,18],[49,55],[18,37],[-1,43],[-10,43],[-2,45],[23,48],[7,35],[-21,88],[14,42],[58,91],[33,31],[93,58],[46,42],[28,79],[18,20],[14,27],[0,51],[-9,36],[-15,35],[-20,16],[-47,-33],[-58,-20],[-72,-116],[-47,19],[-20,58],[6,75],[23,68],[-39,134],[-3,169],[25,165],[84,230],[70,432],[169,556],[123,258],[168,179],[-69,57],[-73,32],[-79,15],[-87,4],[-22,-13],[-98,-82],[-30,-50],[-7,-42],[5,-90],[-8,-111],[-21,-116],[-32,-109],[-47,-89],[-11,-47],[13,-118],[-21,-57],[-33,-41],[-20,-33],[-12,-38],[-6,-57],[-4,-145],[-26,-166],[-49,-137],[-71,-57],[-58,30],[-1,65],[3,65],[-43,30],[-30,35],[-24,80],[-15,93],[-2,72],[22,0],[11,-17],[48,-41],[42,123],[57,127],[20,20],[25,16],[23,18],[12,28],[-62,110],[31,89],[17,30],[24,35],[32,22],[76,19],[23,25],[-2,40],[-39,139],[-19,38],[-43,5],[-47,-13],[-31,-15],[12,42],[41,89],[7,34],[-20,43],[-65,21],[-15,32],[-12,96],[-33,72],[-74,123],[-84,258],[-27,44],[-43,32],[-52,74],[-64,119],[1510,0],[0,-356],[-93,-18],[-335,7],[-82,-60],[-27,-76],[14,-40],[29,-33],[37,-5],[52,32],[20,1],[11,-47],[29,-11],[46,-4],[106,-36],[49,6],[144,106],[0,-3562],[-1042,0]],[[2586,4096],[64,-119],[52,-74],[43,-32],[27,-44],[84,-258],[74,-123],[33,-72],[12,-96],[15,-32],[65,-21],[20,-43],[-7,-34],[-41,-89],[-12,-42],[31,15],[47,13],[43,-5],[19,-38],[39,-139],[2,-40],[-23,-25],[-76,-19],[-32,-22],[-24,-35],[-17,-30],[-31,-89],[62,-110],[-12,-28],[-23,-18],[-25,-16],[-20,-20],[-57,-127],[-42,-123],[-48,41],[-11,17],[-22,0],[2,-72],[15,-93],[24,-80],[30,-35],[43,-30],[-3,-65],[1,-65],[58,-30],[71,57],[49,137],[26,166],[4,145],[6,57],[12,38],[20,33],[33,41],[21,57],[-13,118],[11,47],[47,89],[32,109],[21,116],[8,111],[-5,90],[7,42],[30,50],[98,82],[22,13],[87,-4],[79,-15],[73,-32],[69,-57],[-168,-179],[-123,-258],[-169,-556],[-70,-432],[-84,-230],[-25,-165],[3,-169],[39,-134],[-23,-68],[-6,-75],[20,-58],[47,-19],[72,116],[58,20],[47,33],[20,-16],[15,-35],[9,-36],[0,-51],[-14,-27],[-18,-20],[-28,-79],[-46,-42],[-93,-58],[-33,-31],[-58,-91],[-14,-42],[21,-88],[-7,-35],[-23,-48],[2,-45],[10,-43],[1,-43],[-18,-37],[-49,-55],[-13,-18],[-7,-77],[6,-48]],[[4096,3740],[-93,-18],[-335,7],[-82,-60],[-27,-76],[14,-40],[29,-33],[37,-5],[52,32],[20,1],[11,-47],[29,-11],[46,-4],[106,-36],[49,6],[144,106]],[[620,3061],[2,0]],[[902,3036],[-50,8],[-118,-43]],[[737,3084],[-4,-6],[5,4]],[[738,3085],[0,-1]],[[739,3082],[27,-4]],[[971,3071],[-38,-40]],[[1024,2073],[9,12]],[[1060,2189],[-34,34]],[[1136,2117],[496,-122],[85,-47],[1,-429],[89,-80],[500,-137],[322,-208],[463,-222],[20,-48],[-26,-138],[28,-348],[-42,-309]],[[736,3084],[1,-2],[2,1],[-1,1],[-2,0]],[[727,566],[0,-1]],[[729,565],[0,1]],[[573,804],[3,-2]],[[576,802],[0,7],[-3,-1]],[[573,808],[-2,-2],[2,-2]],[[573,804],[2,2],[-2,2]],[[615,759],[-39,43]],[[598,636],[-2,0]],[[598,634],[0,1]],[[612,681],[1,19]],[[721,3028],[13,-27]],[[477,752],[-41,49]],[[709,3224],[0,-1]],[[613,700],[2,59]],[[391,4096],[115,-257],[59,-307],[81,-130],[63,-178]],[[710,3102],[11,-74]],[[818,2738],[88,-183],[-2,-158],[77,-86],[46,-106],[-67,-97],[-5,-75]],[[608,846],[63,67]],[[848,3107],[-72,-28]],[[958,2028],[66,45]],[[1346,441],[-52,22]],[[710,3168],[0,-66]],[[875,3131],[-20,-21]],[[108,695],[-81,4]],[[446,686],[-16,-1]],[[643,609],[4,-3]],[[1345,441],[-252,51]],[[1512,461],[-70,-20]],[[1444,441],[68,18]],[[957,2030],[3,1]],[[955,2033],[3,-5]],[[776,3079],[-10,-1]],[[537,2975],[-3,36]],[[460,796],[-24,5]],[[476,753],[0,-1]],[[855,3110],[-7,-3]],[[887,3122],[1,3]],[[933,3031],[-31,5]],[[974,3092],[-3,-21]],[[0,2229],[54,84],[37,149],[77,100],[24,113],[116,170],[229,130]],[[534,3011],[86,50]],[[622,3061],[111,17]],[[890,3120],[2,-2]],[[598,639],[14,42]],[[523,657],[3,1]],[[595,636],[0,-2]],[[1375,429],[-29,12]],[[974,3092],[-71,23]],[[576,809],[32,37]],[[734,3001],[84,-263]],[[504,787],[-44,9]],[[465,687],[-2,1]],[[476,752],[1,-3]],[[570,803],[-27,-30],[-39,11]],[[504,784],[4,-3]],[[570,803],[2,1]],[[571,806],[-1,-3]],[[1033,2085],[17,23],[30,3]],[[1080,2111],[56,6]],[[1080,2111]],[[1080,2111],[8,51],[-28,27]],[[3070,0],[2,29]],[[875,3131],[2,3]],[[696,572],[41,-6]],[[1383,425],[-8,4]],[[888,3125],[-11,9]],[[27,699],[-27,4]],[[430,685],[-322,10]],[[746,564],[-99,42]],[[1093,492],[-329,67]],[[1375,428],[8,-3],[61,16]],[[1442,441],[-59,-16]],[[1512,459],[138,-10]],[[1650,449],[-111,19],[-27,-7]],[[1650,449],[194,-109],[401,-340]],[[462,688],[-16,-2]],[[462,688],[4,-1]],[[526,656],[-60,31]],[[531,657],[-1,2]],[[593,636],[-60,23]],[[600,633],[43,-24]],[[764,559],[-18,5]],[[1345,441],[30,-13]],[[890,3120],[-3,2]],[[709,3223],[1,-55]],[[464,690],[13,62]],[[671,913],[233,234],[80,167],[39,246],[-65,279],[-55,49],[2,73],[53,67]],[[4096,3562],[-144,-106],[-49,-6],[-106,36],[-46,4],[-29,11],[-11,47],[-20,-1],[-52,-32],[-37,5],[-29,33],[-14,40],[27,76],[82,60],[335,-7],[93,18],[0,-178]],[[0,0],[0,4096],[2586,0],[64,-119],[52,-74],[43,-32],[27,-44],[84,-258],[74,-123],[33,-72],[12,-96],[15,-32],[65,-21],[20,-43],[-7,-34],[-41,-89],[-12,-42],[31,15],[47,13],[43,-5],[19,-38],[39,-139],[2,-40],[-23,-25],[-76,-19],[-32,-22],[-24,-35],[-17,-30],[-31,-89],[62,-110],[-12,-28],[-23,-18],[-25,-16],[-20,-20],[-57,-127],[-42,-123],[-48,41],[-11,17],[-22,0],[2,-72],[15,-93],[24,-80],[30,-35],[43,-30],[-3,-65],[1,-65],[58,-30],[71,57],[49,137],[26,166],[4,145],[6,57],[12,38],[20,33],[33,41],[21,57],[-13,118],[11,47],[47,89],[32,109],[21,116],[8,111],[-5,90],[7,42],[30,50],[98,82],[22,13],[87,-4],[79,-15],[73,-32],[69,-57],[-168,-179],[-123,-258],[-169,-556],[-70,-432],[-84,-230],[-25,-165],[3,-169],[39,-134],[-23,-68],[-6,-75],[20,-58],[47,-19],[72,116],[58,20],[47,33],[20,-16],[15,-35],[9,-36],[0,-51],[-14,-27],[-18,-20],[-28,-79],[-46,-42],[-93,-58],[-33,-31],[-58,-91],[-14,-42],[21,-88],[-7,-35],[-23,-48],[2,-45],[10,-43],[1,-43],[-18,-37],[-49,-55],[-13,-18],[-7,-77],[6,-48],[-3054,0]],[[3000,0],[49,37],[5,-37],[-54,0]],[[2499,0],[14,36],[67,41],[97,1],[26,-78],[-204,0]],[[1544,525],[-32,0],[0,-90],[-132,12],[-30,-12],[0,-44],[-162,0],[0,44],[-65,1],[-97,178],[63,99],[101,69],[116,29],[109,-18],[0,-45],[97,-55],[35,-64],[-3,-104]],[[0,469],[0,184],[55,95],[44,-29],[42,-120],[44,-30],[-2,-58],[-89,-11],[-66,-52],[-28,21]],[[3243,1814],[-47,-128],[-41,108],[26,83],[80,50],[-18,-113]],[[1029,3243],[30,-65],[-32,-17],[0,-90],[-65,0],[-33,-45],[-259,90],[65,179],[182,79],[36,-16],[76,-115]],[[638,569],[-323,179],[17,69],[158,243],[19,1],[0,-45],[162,-89],[12,-177],[-45,-181]],[[3007,2592],[91,239],[10,118],[-48,149],[51,139],[368,142],[309,75],[67,-4],[152,-84],[-211,-211],[-188,-339],[-163,-387],[-183,51],[5,94],[-260,18]],[[3033,0],[5,26],[31,-2],[20,30],[-11,-54],[-45,0]],[[1262,501],[19,82],[20,-1],[42,92],[58,-34],[6,-79],[56,-6],[30,-34],[-44,5],[-2,-67],[-58,7],[-17,-45],[-34,20],[24,1],[23,59],[-55,-8],[-27,27],[-22,-45],[-19,26]],[[685,363],[44,94],[-17,12],[17,96],[35,-2],[-17,-200],[-62,0]],[[388,746],[16,27],[10,-22],[65,1],[-47,104],[44,-36],[2,45],[38,24],[-5,-21],[70,-4],[-3,-45],[30,29],[-19,-44],[40,38],[-1,-64],[-38,-55],[70,-71],[-12,-44],[-20,6],[-27,-38],[-89,-7],[-52,64],[15,19],[-30,-2],[13,24],[-70,72]],[[871,690],[34,29],[-11,26],[33,48],[-31,33],[44,51],[76,-100],[-16,-22],[-57,30],[-24,-54],[67,-61],[-21,-30],[-94,50]],[[67,1219],[30,51],[70,-45],[-15,-43],[-55,-15],[-30,52]],[[1006,2123],[33,30],[-6,29],[59,16],[20,-4],[-19,-30],[35,2],[42,-44],[-113,-18],[-25,-45],[2,60],[-28,4]]]}