{"objects":{"water":{"type":"GeometryCollection","geometries":[{"type":"Polygon","properties":{"source":"naturalearthdata.com","kind":"ocean","area":1576712559132672,"sort_rank":200,"min_zoom":0.0,"id":1},"arcs":[[85]]},{"type":"LineString","properties":{"source":"naturalearthdata.com","kind":"ocean","sort_rank":205,"boundary":true,"min_zoom":0.0,"id":979},"arcs":[86]}]},"buildings":{"type":"GeometryCollection","geometries":[]},"places":{"type":"GeometryCollection","geometries":[{"type":"Point","properties":{"name:eo":"Dagestano","name:tt":"\u0414\u0430\u0433\u0441\u0442\u0430\u043d","name:av":"\u0414\u0430\u0433\u044a\u0438\u0441\u0442\u0430\u043d\u0430\u043b\u044a\u0443\u043b \u0420\u0435\u0441\u043f\u0443\u0431\u043b\u0438\u043a\u0430","min_zoom":4.0,"official_name":"\u0420\u0435\u0441\u043f\u0443\u0431\u043b\u0438\u043a\u0430 \u0414\u0430\u0433\u0435\u0441\u0442\u0430\u043d","name:hu":"Dageszt\u00e1n","id":869576948,"kind":"region","name:en":"Dagestan","name":"\u0414\u0430\u0433\u0435\u0441\u0442\u0430\u043d","kind_detail":"state","name:ku":"Daxistan","name:de":"Dagestan","source":"openstreetmap.org","name:fr":"Daguestan","name:et":"Dagestan","name:zh":"\u8fbe\u5409\u65af\u5766\u5171\u548c\u56fd"},"coordinates":[2117,4051]},{"type":"Point","properties":{"name:pt":"Mahackala","name:az":"Maha\u00e7qala","name:id":"Makhachkala","name:ka":"\u10db\u10d0\u10f0\u10d0\u10e9\u10e7\u10d0\u10da\u10d0","name:ar":"\u0645\u062d\u062c \u0642\u0644\u0639\u0629","name:cs":"Macha\u010dkala","name:av":"\u041c\u0430\u0445\u0406\u0430\u0447\u0445\u044a\u0430\u043b\u0430","min_zoom":8.0,"int_name":"Makhachkala","name:it":"Macha\u010dkala","name:nl":"Machatsjkala","name:ce":"\u0425\u04c0\u0438\u043d\u0436\u0430-\u0433\u04c0\u0430\u043b\u0430","id":191644503,"name:ca":"Makhatxkal\u00e0","name:af":"Machatsjkala","name:fa":"\u0645\u062e\u0627\u0686\u200c\u0642\u0644\u0639\u0647","kind_detail":"city","name:de":"Machatschkala","source":"openstreetmap.org","name:fr":"Makhatchkala","name:zh":"\u9a6c\u54c8\u5947\u5361\u62c9","admin_level":"4","name:ro":"Mahacikala","name:lt":"Macha\u010dkala","name:hy":"\u0544\u0561\u056d\u0561\u0579\u056f\u0561\u056c\u0561","name:sv":"Machatjkala","name:hr":"Maha\u010dkala","population":587876,"name:el":"\u039c\u03b1\u03c7\u03b1\u03c4\u03c3\u03ba\u03b1\u03bb\u03ac","kind":"locality","name:en":"Makhachkala","name":"\u041c\u0430\u0445\u0430\u0447\u043a\u0430\u043b\u0430","name:pl":"Machaczka\u0142a","name:fi":"Mahat\u0161kala","name:eu":"Makhatxkala","name:et":"Mahhat\u0161kala","name:es":"Majachkal\u00e1"},"coordinates":[3174,3727]},{"type":"Point","properties":{"name:sr":"\u041a\u0430\u0441\u043f\u0438\u0458\u0441\u043a","name:az":"Kaspiysk","int_name":"Kaspiysk","name:ko":"\uce74\uc2a4\ud53c\uc2a4\ud06c","name:ar":"\u0643\u0627\u0633\u0628\u064a\u064a\u0633\u0643","kind":"locality","name:av":"\u041a\u0430\u0441\u043f\u0438\u044f\u043b\u044a\u0443\u0445\u044a","min_zoom":8.0,"name:ro":"Kaspisk","name:uk":"\u041a\u0430\u0441\u043f\u0456\u0439\u0441\u044c\u043a","name:vi":"Kaspiysk","name:pl":"Kaspijsk","id":287660963,"name:ca":"Kaspi\u00efsk","population":110080,"name:fa":"\u06a9\u0627\u0633\u067e\u06cc\u06cc\u0633\u06a9","name:eo":"Kaspijsk","name:en":"Kaspiysk","name":"\u041a\u0430\u0441\u043f\u0438\u0439\u0441\u043a","kind_detail":"city","name:de":"Kaspijsk","source":"openstreetmap.org","name:fr":"Kaspiisk","name:zh":"\u5361\u65af\u76ae\u65af\u514b","name:es":"Kaspisk"},"coordinates":[3601,3381]},{"type":"Point","properties":{"name:az":"Buynaksk","name:ko":"\ubd80\uc774\ub099\uc2a4\ud06c","name:ar":"\u0628\u0648\u064a\u0646\u0627\u0643\u0633\u0643","name:cs":"Bujnaksk","name:av":"\u0428\u0443\u0440\u0430","min_zoom":8.0,"int_name":"Buynaksk","name:it":"Bujnaksk","name:nl":"Boejnaksk","name:pl":"Bujnaksk","id":287670803,"name:fa":"\u0628\u0648\u06cc\u0646\u0627\u06a9\u0633\u06a9","kind_detail":"town","name:no":"Bujnaksk","name:de":"Buinaksk","source":"openstreetmap.org","name:fr":"Bou\u00efnaksk","name:zh":"\u5e03\u4f0a\u7d0d\u514b\u65af\u514b","name:da":"Bujnaksk","name:ro":"Buinaksk","name:ja":"\u30d6\u30a4\u30ca\u30af\u30b9\u30af","name:lt":"Buinakskas","name:uz":"Buynaksk","kind":"locality","name:uk":"\u0411\u0443\u0439\u043d\u0430\u043a\u0441\u044c\u043a","name:sv":"Bujnaksk","name:sr":"\u0411\u0443\u0458\u043d\u0430\u043a\u0441\u043a","population":63888,"name:eo":"Bujnaksko","name:en":"Buynaksk","name":"\u0411\u0443\u0439\u043d\u0430\u043a\u0441\u043a","name:fi":"Buinaksk"},"coordinates":[2085,3136]},{"type":"Point","properties":{"kind":"locality","name:en":"Karabudakhkent","name":"\u041a\u0430\u0440\u0430\u0431\u0443\u0434\u0430\u0445\u043a\u0435\u043d\u0442","kind_detail":"town","name:de":"Karabudachkent","source":"openstreetmap.org","min_zoom":8.0,"name:az":"Qarabudaqk\u0259nd","name:hy":"\u053f\u0561\u0580\u0561\u0562\u0578\u0582\u0564\u0561\u056d\u056f\u0565\u0576\u057f","id":899119183,"population":16861},"coordinates":[3409,2679]},{"type":"Point","properties":{"kind":"locality","name:en":"Tarki","name":"\u0422\u0430\u0440\u043a\u0438","kind_detail":"town","name:de":"Tarki","source":"openstreetmap.org","min_zoom":8.0,"id":959253088,"population":15544},"coordinates":[3176,3608]},{"type":"Point","properties":{"kind":"locality","name:en":"Semender","name":"\u0421\u0435\u043c\u0435\u043d\u0434\u0435\u0440","kind_detail":"town","name:de":"Semender","source":"openstreetmap.org","min_zoom":8.0,"int_name":"Semender","id":975940834,"population":13931},"coordinates":[2887,3781]},{"type":"Point","properties":{"kind":"locality","name:en":"Levashi","name":"\u041b\u0435\u0432\u0430\u0448\u0438","kind_detail":"town","name:de":"Lewaschi","source":"openstreetmap.org","min_zoom":8.0,"int_name":"Levashi","id":904026153,"population":11026},"coordinates":[2671,1573]},{"type":"Point","properties":{"kind":"locality","name:en":"Sergokala","name":"\u0421\u0435\u0440\u0433\u043e\u043a\u0430\u043b\u0430","kind_detail":"town","name:av":"\u0421\u0435\u0440\u0433\u044a\u043e\u0445\u044a\u0430\u043b\u0430","source":"openstreetmap.org","min_zoom":8.0,"name:az":"Serqoqala","name:de":"Sergokala","id":900694358,"population":7627},"coordinates":[3667,1662]},{"type":"Point","properties":{"kind":"locality","name:en":"Tyube","name":"\u0422\u044e\u0431\u0435","kind_detail":"town","name:de":"Tjube","source":"openstreetmap.org","min_zoom":8.0,"id":915337810,"population":6999},"coordinates":[2585,4023]},{"type":"Point","properties":{"kind":"locality","name:en":"Gergebil","name":"\u0413\u0435\u0440\u0433\u0435\u0431\u0438\u043b\u044c","kind_detail":"town","name:ar":"\u062c\u0631\u062c\u0628\u064a\u0644","name:av":"\u0425\u044c\u0430\u0440\u0433\u0430\u0431\u0438","source":"openstreetmap.org","min_zoom":8.0,"name:uk":"\u0413\u0435\u0440\u0433\u0435\u0431\u0456\u043b\u044c","name:de":"Gergebil","id":904033469,"population":5464},"coordinates":[1905,1855]},{"type":"Point","properties":{"kind":"locality","name:en":"Dubki","name":"\u0414\u0443\u0431\u043a\u0438","kind_detail":"town","name:de":"Dubki","source":"openstreetmap.org","min_zoom":8.0,"name:hy":"\u0534\u0578\u0582\u0562\u056f\u056b","id":983696591,"population":5406},"coordinates":[1258,3910]},{"type":"Point","properties":{"kind":"locality","name:en":"Urkarakh","name":"\u0423\u0440\u043a\u0430\u0440\u0430\u0445","kind_detail":"town","name:av":"\u0423\u0440\u043a\u0430\u0440\u0430\u0445\u044a","source":"openstreetmap.org","min_zoom":8.0,"alt_name:en":"Urkarakh","name:az":"Urkarax","name:de":"Urkarach","id":902322589,"population":5182},"coordinates":[3566,517]},{"type":"Point","properties":{"kind":"locality","name:en":"Shamilkala","name":"\u0428\u0430\u043c\u0438\u043b\u044c\u043a\u0430\u043b\u0430","kind_detail":"town","name:ar":"\u0634\u0627\u0645\u0644 \u0642\u0644\u0639\u0629","name:av":"\u0428\u0430\u043c\u0438\u043b\u0445\u044a\u0430\u043b\u0430","source":"openstreetmap.org","min_zoom":8.0,"name:de":"Schamilkala","id":913343870,"population":4830},"coordinates":[1348,2586]},{"type":"Point","properties":{"kind":"locality","name:en":"Akusha","name":"\u0410\u043a\u0443\u0448\u0430","kind_detail":"town","name:av":"\u0413\u0406\u0430\u0445\u044a\u0443\u0448\u0430","source":"openstreetmap.org","min_zoom":8.0,"name:az":"Aqu\u015fa","name:de":"Akuscha","id":915301872,"population":4697},"coordinates":[2733,967]},{"type":"Point","properties":{"kind":"locality","name:en":"Khebda","name":"\u0425\u0435\u0431\u0434\u0430","kind_detail":"town","name:de":"Chebda","source":"openstreetmap.org","min_zoom":8.0,"id":913358321,"population":2666},"coordinates":[422,1626]},{"type":"Point","properties":{"kind":"locality","name:en":"Gunib","name":"\u0413\u0443\u043d\u0438\u0431","kind_detail":"town","name:av":"\u0413\u044a\u0443\u043d\u0438\u0431","source":"openstreetmap.org","min_zoom":8.0,"name:de":"Gunib","id":915315156,"population":2544},"coordinates":[1624,1400]},{"type":"Point","properties":{"kind":"locality","name:az":"Qumux","name:en":"Kumukh","name":"\u041a\u0443\u043c\u0443\u0445","kind_detail":"town","name:de":"Kumuch","source":"openstreetmap.org","min_zoom":8.0,"int_name":"Kumukh","name:av":"\u0413\u044a\u0443\u043c\u0435\u043a\u0438\u0431","id":904016707,"population":1930},"coordinates":[2069,543]},{"type":"Point","properties":{"kind":"locality","name:en":"Tsurib","name":"\u0426\u0443\u0440\u0438\u0431","kind_detail":"town","name:av":"\u0426I\u0443\u0440\u0438\u0431","source":"openstreetmap.org","min_zoom":8.0,"name:de":"Zurib","id":900699751,"population":1789},"coordinates":[1246,812]},{"type":"Point","properties":{"kind":"locality","name:en":"Vachi","name":"\u0412\u0430\u0447\u0438","kind_detail":"town","name:ar":"\u0641\u0627\u062a\u0634\u064a","name:de":"Watschi","source":"openstreetmap.org","min_zoom":8.0,"name:uk":"\u0412\u0430\u0447\u0456","id":904020615,"population":894},"coordinates":[2356,154]}]},"transit":{"type":"GeometryCollection","geometries":[{"type":"MultiLineString","properties":{"kind":"train","name":"Baku - Harkiv","sort_rank":275,"source":"openstreetmap.org","min_zoom":6.0,"name:ru":"\u0411\u0430\u043a\u0443 \u2014 \u0425\u0430\u0440\u044c\u043a\u043e\u0432","ref":"Baku - Harkiv","osm_relation":true},"arcs":[[2],[3]]},{"type":"MultiLineString","properties":{"source":"openstreetmap.org","kind":"train","name":"\u0411\u0430\u043a\u0443 \u2014 \u0420\u043e\u0441\u0442\u043e\u0432-\u043d\u0430-\u0414\u043e\u043d\u0443","sort_rank":275,"ref":"Baku \u2014 Rostov-na-Donu","min_zoom":6.0,"osm_relation":true},"arcs":[[4],[5]]},{"type":"MultiLineString","properties":{"kind":"train","name":"Baku - Kyiv","sort_rank":275,"source":"openstreetmap.org","min_zoom":6.0,"name:ru":"\u0411\u0430\u043a\u0443 \u2014 \u041a\u0438\u0435\u0432","ref":"Baku - Kyiv","osm_relation":true},"arcs":[[6],[7],[8],[9],[10],[11],[12],[13],[14],[15],[16],[17],[18],[19],[20],[21],[22],[23],[24],[25],[26],[27],[28],[29],[30],[31],[32],[33],[34],[35],[36],[37],[38],[39],[40],[41],[42],[43],[44],[45],[46],[47],[48],[49],[50],[51],[52],[53],[54],[55],[56],[57],[58],[59],[60],[61],[62],[63],[64],[65],[66],[67],[68],[69],[70],[71]]},{"type":"MultiLineString","properties":{"kind":"train","network":"\u0420\u0416\u0414","sort_rank":275,"name:de":"373 Machatschkala<=>Tjumen","source":"openstreetmap.org","min_zoom":6.0,"operator":"\u0424\u041f\u041a","ref":"373","osm_relation":true,"name":"\u041f\u043e\u0435\u0437\u0434 373. \u041c\u0430\u0445\u0430\u0447\u043a\u0430\u043b\u0430 \u2014 \u0422\u044e\u043c\u0435\u043d\u044c"},"arcs":[[72],[73],[74],[75],[76],[77],[78],[79]]},{"type":"MultiLineString","properties":{"source":"openstreetmap.org","kind":"train","name":"Baku - Sankt-Peterburg","sort_rank":275,"name:ru":"\u0411\u0430\u043a\u0443 \u2014 \u0421\u0430\u043d\u043a\u0442-\u041f\u0435\u0442\u0435\u0440\u0431\u0443\u0440\u0433","min_zoom":6.0,"osm_relation":true},"arcs":[[80],[81],[82]]},{"type":"MultiLineString","properties":{"kind":"train","name:en":"Baku \u2014 Moscow","name":"\u0411\u0430\u043a\u0443 \u2014 \u041c\u043e\u0441\u043a\u0432\u0430","sort_rank":275,"name:de":"Baku \u2014 Moskau","source":"openstreetmap.org","min_zoom":6.0,"ref":"055","osm_relation":true},"arcs":[[83],[84]]}]},"pois":{"type":"GeometryCollection","geometries":[]},"boundaries":{"type":"GeometryCollection","geometries":[{"type":"LineString","properties":{"name:right:hy":"\u0534\u0561\u0572\u057d\u057f\u0561\u0576","name:left:hi":"\u091a\u0947\u091a\u0928\u094d\u092f\u093e","name:right:lb":"Dagestan","name:left:sv":"Tjetjenien","name:left:sr":"\u0427\u0435\u0447\u0435\u043d\u0438\u0458\u0430","name:right:lt":"Dagestanas","name:left:sl":"\u010ce\u010denija","min_zoom":8.0,"name:left:lt":"\u010ce\u010d\u0117nija","name:left:sh":"\u010ce\u010denija","name:left:hu":"Csecsenf\u00f6ld","name:right:he":"\u05d3\u05d0\u05d2\u05e1\u05d8\u05df","name:left:ga":"An tSeisnia","source":"openstreetmap.org","sort_rank":256,"name:left:ca":"Txetx\u00e8nia","name:right:av":"\u0414\u0430\u0433\u044a\u0438\u0441\u0442\u0430\u043d","name:right:ar":"\u062f\u0627\u063a\u0633\u062a\u0627\u0646","name:left:cv":"\u0427\u0435\u0447\u0435\u043d \u0420\u0435\u0441\u043f\u0443\u0431\u043b\u0438\u043a\u0438","name:right:az":"Da\u011f\u0131stan","name:left:cs":"\u010ce\u010densko","name:left":"\u0427\u0435\u0447\u043d\u044f","name:right:es":"Daguest\u00e1n","name:left:ka":"\u10e9\u10d4\u10e9\u10dc\u10d4\u10d7\u10d8","name:left:os":"\u0426\u00e6\u0446\u00e6\u043d","name:right:it":"Daghestan","name:left:ro":"Cecenia","name:right:id":"Dagestan","name:right:en":"Dagestan","name:right:el":"\u039d\u03c4\u03b1\u03b3\u03ba\u03b5\u03c3\u03c4\u03ac\u03bd","kind":"region","name":"\u0427\u0435\u0447\u043d\u044f - \u0414\u0430\u0433\u0435\u0441\u0442\u0430\u043d","name:left:fa":"\u0686\u0686\u0646","name:left:fo":"Kekenia","name:left:fi":"T\u0161et\u0161enia","name:left:zh":"\u8f66\u81e3\u5171\u548c\u56fd","name:left:fr":"Tch\u00e9tch\u00e9nie","name:right:de":"Dagestan","name:right:zh":"\u8fbe\u5409\u65af\u5766\u5171\u548c\u56fd","name:left:hy":"\u0549\u0565\u0579\u0576\u056b\u0561","name:right:fa":"\u062f\u0627\u063a\u0633\u062a\u0627\u0646","id:right":-109876,"name:left:nl":"Tsjetsjeni\u00eb","name:left:ba":"\u0427\u0435\u0447\u0435\u043d \u0420\u0435\u0441\u043f\u0443\u0431\u043b\u0438\u043a\u0430\u04bb\u044b","name:left:be":"\u0427\u0430\u0447\u043d\u044f","name:left:bn":"\u099a\u09c7\u099a\u09a8\u09bf\u09af\u09bc\u09be","id":-109877,"name:right":"\u0414\u0430\u0433\u0435\u0441\u0442\u0430\u043d","name:left:eo":"\u0108e\u0109enio","name:left:en":"Chechnya","name:left:el":"\u03a4\u03c3\u03b5\u03c4\u03c3\u03b5\u03bd\u03af\u03b1","name:right:ca":"Daguestan","kind_detail":"4","id:left":-109877,"name:left:ko":"\uccb4\uccb8 \uacf5\ud654\uad6d","name:left:eu":"Txetxenia","name:right:ka":"\u10d3\u10d0\u10e6\u10d4\u10e1\u10e2\u10d0\u10dc\u10d8\u10e8 \u10e0\u10d4\u10e1\u10de\u10e3\u10d1\u10da\u10d8\u10d9\u10d0","name:left:av":"\u0427\u0430\u0447\u0430\u043d\u0438\u0441\u0442\u0430\u043d","name:right:pt":"Daguest\u00e3o","name:left:ar":"\u0627\u0644\u0634\u064a\u0634\u0627\u0646","name:left:pl":"Czeczenia","name:left:tr":"\u00c7e\u00e7enistan","name:left:id":"Chechnya","name:left:az":"\u00c7e\u00e7enistan","name:right:tr":"Da\u011f\u0131stan","name:left:mn":"\u0427\u0435\u0447\u0435\u043d\u044c","name:left:af":"Tsjetsjni\u00eb","name:right:sv":"Dagestan","name:left:ab":"\u0427\u0435\u0447\u043d\u0438\u0430","name:right:tk":"Dagystan","name:right:tg":"\u0414\u043e\u0493\u0438\u0441\u0442\u043e\u043d","name:right:pl":"Republika Dagestanu","osm_relation":true,"name:left:da":"Tjetjenien","name:left:de":"Tschetschenien","name:left:ce":"\u041d\u043e\u0445\u0447\u0438\u0439\u0447\u043e\u044c","name:right:ku":"Daxistan"},"arcs":[0]},{"type":"LineString","properties":{"name:pt":"Daguest\u00e3o","name:az":"Da\u011f\u0131stan","name:id":"Dagestan","name:ka":"\u10d3\u10d0\u10e6\u10d4\u10e1\u10e2\u10d0\u10dc\u10d8\u10e8 \u10e0\u10d4\u10e1\u10de\u10e3\u10d1\u10da\u10d8\u10d9\u10d0","name:tr":"Da\u011f\u0131stan","name:ar":"\u062f\u0627\u063a\u0633\u062a\u0627\u0646","name:av":"\u0414\u0430\u0433\u044a\u0438\u0441\u0442\u0430\u043d","name:tk":"Dagystan","min_zoom":8.0,"name:it":"Daghestan","name:pl":"Republika Dagestanu","id":-109876,"name:ca":"Daguestan","name:fa":"\u062f\u0627\u063a\u0633\u062a\u0627\u0646","sort_rank":256,"kind_detail":"4","name:de":"Dagestan","source":"openstreetmap.org","name:tg":"\u0414\u043e\u0493\u0438\u0441\u0442\u043e\u043d","name:lt":"Dagestanas","name:he":"\u05d3\u05d0\u05d2\u05e1\u05d8\u05df","name:lb":"Dagestan","name:hy":"\u0534\u0561\u0572\u057d\u057f\u0561\u0576","name:sv":"Dagestan","osm_relation":true,"name:el":"\u039d\u03c4\u03b1\u03b3\u03ba\u03b5\u03c3\u03c4\u03ac\u03bd","kind":"region","name:en":"Dagestan","name":"\u0414\u0430\u0433\u0435\u0441\u0442\u0430\u043d","name:zh":"\u8fbe\u5409\u65af\u5766\u5171\u548c\u56fd","name:ku":"Daxistan","maritime_boundary":true,"name:es":"Daguest\u00e1n"},"arcs":[1]}]},"roads":{"type":"GeometryCollection","geometries":[{"type":"LineString","properties":{"kind":"major_road","sort_rank":380,"kind_detail":"primary","source":"openstreetmap.org","min_zoom":8.0,"old_name":"\u0443\u043b\u0438\u0446\u0430 \u0411\u0430\u0442\u0443\u043c\u0441\u043a\u0430\u044f","landuse_kind":"urban_area","id":78035240},"arcs":[87]},{"type":"MultiLineString","properties":{"source":"openstreetmap.org","kind":"major_road","name:en":"Bulacha Street","sort_rank":380,"kind_detail":"primary","min_zoom":8.0,"name:de":"uliza Bulatscha"},"arcs":[[88],[89]]},{"type":"LineString","properties":{"bus_network":null,"int_name":"Gamidova ave.","sort_rank":380,"kind_detail":"primary","bus_shield_text":"\u2116 3 \u0430","kind":"major_road","source":"openstreetmap.org","min_zoom":8.0,"old_name":"\u043f\u0440\u043e\u0441\u043f\u0435\u043a\u0442 \u041a\u0438\u0440\u043e\u0432\u0430"},"arcs":[90]},{"type":"LineString","properties":{"source":"openstreetmap.org","kind":"major_road","old_name":"\u0443\u043b\u0438\u0446\u0430 \u0422\u0435\u0430\u0442\u0440\u0430\u043b\u044c\u043d\u0430\u044f","sort_rank":380,"kind_detail":"primary","min_zoom":8.0,"id":78028942},"arcs":[91]},{"type":"LineString","properties":{"kind":"major_road","name:en":"Buynakskogo Street","sort_rank":380,"kind_detail":"primary","name:de":"uliza Buinakskogo","source":"openstreetmap.org","min_zoom":8.0,"landuse_kind":"urban_area","id":83239648},"arcs":[92]},{"type":"MultiLineString","properties":{"source":"openstreetmap.org","kind":"major_road","int_name":"Petra Pervogo ave.","old_name":"\u043f\u0440\u043e\u0441\u043f\u0435\u043a\u0442 \u041d\u0430\u0441\u0440\u0443\u0442\u0434\u0438\u043d\u043e\u0432\u0430, \u041a\u043e\u043c\u0441\u043e\u043c\u043e\u043b\u044c\u0441\u043a\u0438\u0439","sort_rank":380,"kind_detail":"primary","min_zoom":8.0},"arcs":[[93],[94],[95]]},{"type":"MultiLineString","properties":{"source":"openstreetmap.org","kind":"major_road","old_name":"\u0443\u043b\u0438\u0446\u0430 \u041a\u0430\u0437\u0431\u0435\u043a\u043e\u0432\u0430","sort_rank":380,"kind_detail":"primary","landuse_kind":"urban_area","min_zoom":8.0},"arcs":[[96],[97]]},{"type":"LineString","properties":{"kind":"major_road","sort_rank":380,"kind_detail":"primary","source":"openstreetmap.org","min_zoom":8.0,"old_name":"\u041e\u0440\u0434\u0436\u043e\u043d\u0438\u043a\u0438\u0434\u0437\u0435","landuse_kind":"urban_area","id":84529665},"arcs":[98]},{"type":"LineString","properties":{"source":"openstreetmap.org","kind":"major_road","int_name":"Petra Pervogo ave.","sort_rank":380,"kind_detail":"primary","min_zoom":8.0},"arcs":[99]},{"type":"LineString","properties":{"kind":"major_road","network":"ru:national","sort_rank":381,"kind_detail":"trunk","source":"openstreetmap.org","min_zoom":8.0,"landuse_kind":"residential","shield_text":"217","ref":"\u0420-217","id":218448663},"arcs":[100]},{"type":"LineString","properties":{"kind":"major_road","int_name":"Imama Shamilya Ave.","sort_rank":380,"kind_detail":"primary","source":"openstreetmap.org","min_zoom":8.0,"old_name":"\u043f\u0440\u043e\u0441\u043f\u0435\u043a\u0442 \u041a\u0430\u043b\u0438\u043d\u0438\u043d\u0430","landuse_kind":"urban_area","id":493928356},"arcs":[101]},{"type":"MultiLineString","properties":{"sort_rank":381,"source":"openstreetmap.org","min_zoom":8.0,"kind":"major_road","kind_detail":"trunk"},"arcs":[[102],[103],[104]]},{"type":"LineString","properties":{"kind":"major_road","int_name":"Korkmasova st.","sort_rank":380,"kind_detail":"primary","source":"openstreetmap.org","min_zoom":8.0,"old_name":"\u0443\u043b\u0438\u0446\u0430 \u0421\u043e\u0432\u0435\u0442\u0441\u043a\u0430\u044f","landuse_kind":"urban_area","id":190018849},"arcs":[105]},{"type":"MultiLineString","properties":{"source":"openstreetmap.org","kind":"major_road","network":"e-road","sort_rank":381,"kind_detail":"trunk","min_zoom":8.0,"shield_text":"119"},"arcs":[[106],[107],[108],[109]]},{"type":"MultiLineString","properties":{"bus_network":null,"sort_rank":380,"kind_detail":"primary","kind":"major_road","source":"openstreetmap.org","min_zoom":8.0,"bus_shield_text":"\u2116 3 \u0430","landuse_kind":"urban_area"},"arcs":[[110],[111],[112]]},{"type":"MultiLineString","properties":{"kind":"major_road","network":"e-road","sort_rank":381,"landuse_kind":"urban_area","source":"openstreetmap.org","min_zoom":8.0,"kind_detail":"trunk","shield_text":"50"},"arcs":[[113],[114]]},{"type":"MultiLineString","properties":{"kind":"major_road","network":"ru:national","sort_rank":381,"landuse_kind":"urban_area","source":"openstreetmap.org","min_zoom":8.0,"kind_detail":"trunk","shield_text":"217","ref":"\u0420-217"},"arcs":[[115],[116],[117],[118],[119],[120],[121],[122],[123],[124],[125]]},{"type":"MultiLineString","properties":{"source":"openstreetmap.org","kind":"major_road","landuse_kind":"urban_area","sort_rank":380,"kind_detail":"primary","min_zoom":8.0},"arcs":[[126],[127],[128],[129],[130],[131],[132],[133],[134],[135],[136],[137],[138],[139],[140],[141],[142],[143],[144],[145],[146],[147],[148],[149],[150],[151],[152],[153],[154],[155],[156],[157],[158],[159],[160],[161],[162],[163],[164],[165],[166],[167],[168],[169],[170],[171],[172],[173],[174],[175],[176],[177],[178],[179],[180],[181],[182],[183],[184],[185],[186],[187],[188],[189],[190],[191],[192],[193],[194],[195],[196],[197],[198],[199],[200],[201],[202],[203],[204],[205],[206],[207],[208],[209],[210],[211],[212],[213],[214],[215],[216],[217],[218],[219],[220],[221],[222],[223],[224],[225]]},{"type":"LineString","properties":{"bus_network":null,"int_name":"Gamidova ave.","sort_rank":380,"kind_detail":"primary","bus_shield_text":"\u2116 3 \u0430","kind":"major_road","source":"openstreetmap.org","min_zoom":8.0,"old_name":"\u043f\u0440\u043e\u0441\u043f\u0435\u043a\u0442 \u041a\u0438\u0440\u043e\u0432\u0430","landuse_kind":"urban_area"},"arcs":[226]},{"type":"LineString","properties":{"kind":"major_road","name:en":"Emirova Street","sort_rank":380,"kind_detail":"primary","name:de":"uliza Emirowa","source":"openstreetmap.org","min_zoom":8.0,"id":78035062},"arcs":[227]},{"type":"LineString","properties":{"kind":"major_road","sort_rank":380,"kind_detail":"primary","source":"openstreetmap.org","min_zoom":8.0,"old_name":"\u0443\u043b\u0438\u0446\u0430 \u0412\u0435\u043d\u0433\u0435\u0440\u0441\u043a\u0438\u0445 \u0431\u043e\u0439\u0446\u043e\u0432","landuse_kind":"urban_area","id":193277510},"arcs":[228]},{"type":"LineString","properties":{"source":"openstreetmap.org","kind":"major_road","network":"e-road","sort_rank":381,"kind_detail":"trunk","min_zoom":8.0,"shield_text":"50"},"arcs":[229]},{"type":"LineString","properties":{"bus_network":null,"int_name":"Akushinskogo Ave.","sort_rank":380,"kind_detail":"primary","bus_shield_text":"\u2116 3 \u0430","kind":"major_road","source":"openstreetmap.org","min_zoom":8.0,"old_name":"\u043f\u0440\u043e\u0441\u043f\u0435\u043a\u0442 \u041a\u0430\u0440\u043b\u0430 \u041c\u0430\u0440\u043a\u0441\u0430","landuse_kind":"urban_area"},"arcs":[230]},{"type":"LineString","properties":{"kind":"major_road","name:en":"Nasrutdinova","sort_rank":380,"kind_detail":"primary","source":"openstreetmap.org","min_zoom":8.0,"old_name":"\u043f\u0440\u043e\u0441\u043f\u0435\u043a\u0442 \u041f\u0435\u0442\u0440\u0430 I","landuse_kind":"urban_area"},"arcs":[231]},{"type":"LineString","properties":{"kind":"major_road","int_name":"Yaragskogo st.","sort_rank":380,"kind_detail":"primary","official_name":"\u0443\u043b\u0438\u0446\u0430 \u041c\u0430\u0433\u043e\u043c\u0435\u0434\u0430 \u042f\u0440\u0430\u0433\u0441\u043a\u043e\u0433\u043e","source":"openstreetmap.org","min_zoom":8.0,"old_name":"\u0443\u043b\u0438\u0446\u0430 26 \u0411\u0430\u043a\u0438\u043d\u0441\u043a\u0438\u0445 \u041a\u043e\u043c\u0438\u0441\u0441\u0430\u0440\u043e\u0432","landuse_kind":"urban_area"},"arcs":[232]},{"type":"LineString","properties":{"source":"openstreetmap.org","kind":"major_road","name:en":"Nasrutdinova","old_name":"\u043f\u0440\u043e\u0441\u043f\u0435\u043a\u0442 \u041f\u0435\u0442\u0440\u0430 I","sort_rank":380,"kind_detail":"primary","min_zoom":8.0},"arcs":[233]},{"type":"MultiLineString","properties":{"sort_rank":380,"kind_detail":"primary","min_zoom":8.0,"kind":"major_road","source":"openstreetmap.org"},"arcs":[[234],[235],[236],[237],[238],[239],[240],[241],[242],[243],[244],[245],[246],[247],[248],[249],[250],[251]]},{"type":"LineString","properties":{"kind":"major_road","int_name":"Imama Shamilya Ave.","sort_rank":380,"kind_detail":"primary","is_bicycle_related":true,"source":"openstreetmap.org","min_zoom":8.0,"landuse_kind":"urban_area"},"arcs":[252]},{"type":"MultiLineString","properties":{"source":"openstreetmap.org","kind":"major_road","landuse_kind":"urban_area","sort_rank":380,"kind_detail":"primary","is_bicycle_related":true,"min_zoom":8.0},"arcs":[[253],[254]]},{"type":"MultiLineString","properties":{"source":"openstreetmap.org","kind":"major_road","kind_detail":"trunk","sort_rank":381,"landuse_kind":"urban_area","min_zoom":8.0},"arcs":[[255],[256],[257],[258],[259],[260],[261],[262],[263],[264]]},{"type":"LineString","properties":{"kind":"major_road","name:en":"Buynakskogo Street","sort_rank":380,"kind_detail":"primary","name:de":"uliza Buinakskogo","source":"openstreetmap.org","min_zoom":8.0,"id":83239648},"arcs":[265]},{"type":"LineString","properties":{"source":"openstreetmap.org","kind":"major_road","name:en":"Nasrutdinova","sort_rank":380,"kind_detail":"primary","min_zoom":8.0},"arcs":[266]},{"type":"MultiLineString","properties":{"bus_network":null,"name:en":"Korkmasova Street","sort_rank":380,"landuse_kind":"urban_area","bus_shield_text":"35","kind":"major_road","name:de":"uliza Korkmasowa","source":"openstreetmap.org","min_zoom":8.0,"int_name":"Korkmasova st.","old_name":"\u0443\u043b\u0438\u0446\u0430 \u0421\u043e\u0432\u0435\u0442\u0441\u043a\u0430\u044f","kind_detail":"primary"},"arcs":[[267],[268]]},{"type":"MultiLineString","properties":{"source":"openstreetmap.org","kind":"major_road","landuse_kind":"residential","sort_rank":380,"kind_detail":"primary","min_zoom":8.0},"arcs":[[269],[270],[271],[272],[273],[274],[275],[276],[277],[278],[279],[280],[281],[282],[283],[284],[285],[286],[287],[288],[289],[290],[291],[292],[293],[294],[295],[296]]},{"type":"MultiLineString","properties":{"kind":"major_road","name:en":"Bulacha Street","sort_rank":380,"landuse_kind":"urban_area","name:de":"uliza Bulatscha","source":"openstreetmap.org","min_zoom":8.0,"kind_detail":"primary"},"arcs":[[297],[298]]},{"type":"LineString","properties":{"kind":"major_road","network":"ru:regional","sort_rank":380,"kind_detail":"primary","source":"openstreetmap.org","min_zoom":8.0,"shield_text":"82\u041a","ref":"82\u041a-038"},"arcs":[299]},{"type":"LineString","properties":{"kind":"major_road","int_name":"Rasula Gamzatova Ave.","sort_rank":380,"kind_detail":"primary","old_name":"\u043f\u0440\u043e\u0441\u043f\u0435\u043a\u0442 \u041b\u0435\u043d\u0438\u043d\u0430","bus_network":null,"official_name":"\u043f\u0440\u043e\u0441\u043f\u0435\u043a\u0442 \u0420\u0430\u0441\u0443\u043b\u0430 \u0413\u0430\u043c\u0437\u0430\u0442\u043e\u0432\u0430","source":"openstreetmap.org","min_zoom":8.0,"bus_shield_text":"\u2116 3 \u0430","id":142511856},"arcs":[300]},{"type":"LineString","properties":{"kind":"major_road","sort_rank":380,"landuse_kind":"residential","is_bicycle_related":true,"source":"openstreetmap.org","min_zoom":8.0,"kind_detail":"primary","id":86260607},"arcs":[301]},{"type":"MultiLineString","properties":{"kind":"major_road","network":"e-road","sort_rank":381,"landuse_kind":"urban_area","source":"openstreetmap.org","min_zoom":8.0,"kind_detail":"trunk","shield_text":"119"},"arcs":[[302],[303],[304],[305],[306],[307],[308],[309]]},{"type":"LineString","properties":{"source":"openstreetmap.org","kind":"major_road","old_name":"\u0443\u043b\u0438\u0446\u0430 \u0411\u0430\u0442\u0443\u043c\u0441\u043a\u0430\u044f","sort_rank":380,"kind_detail":"primary","min_zoom":8.0,"id":78035240},"arcs":[310]},{"type":"LineString","properties":{"bus_network":null,"name:en":"Dakhadayeva Street","sort_rank":380,"kind_detail":"primary","kind":"major_road","name:de":"uliza Dachadajewa","source":"openstreetmap.org","min_zoom":8.0,"bus_shield_text":"\u2116 3 \u0430"},"arcs":[311]},{"type":"LineString","properties":{"kind":"major_road","sort_rank":380,"kind_detail":"primary","bus_network":null,"source":"openstreetmap.org","min_zoom":8.0,"bus_shield_text":"35","landuse_kind":"urban_area","id":164471769},"arcs":[312]},{"type":"LineString","properties":{"kind":"major_road","network":"e-road","sort_rank":381,"kind_detail":"trunk","source":"openstreetmap.org","min_zoom":8.0,"landuse_kind":"residential","shield_text":"119","id":330339797},"arcs":[313]},{"type":"LineString","properties":{"kind":"major_road","int_name":"Yaragskogo st.","sort_rank":380,"kind_detail":"primary","official_name":"\u0443\u043b\u0438\u0446\u0430 \u041c\u0430\u0433\u043e\u043c\u0435\u0434\u0430 \u042f\u0440\u0430\u0433\u0441\u043a\u043e\u0433\u043e","source":"openstreetmap.org","min_zoom":8.0,"old_name":"\u0443\u043b\u0438\u0446\u0430 26 \u0411\u0430\u043a\u0438\u043d\u0441\u043a\u0438\u0445 \u041a\u043e\u043c\u0438\u0441\u0441\u0430\u0440\u043e\u0432"},"arcs":[314]},{"type":"LineString","properties":{"bus_network":null,"int_name":"Gadzhiyeva st.","sort_rank":380,"kind_detail":"primary","kind":"major_road","source":"openstreetmap.org","min_zoom":8.0,"bus_shield_text":"\u2116 3 \u0430","landuse_kind":"urban_area"},"arcs":[315]},{"type":"LineString","properties":{"kind":"major_road","sort_rank":380,"kind_detail":"primary","source":"openstreetmap.org","min_zoom":8.0,"old_name":"\u0410\u044d\u0440\u043e\u043f\u043e\u0440\u0442\u043e\u0432\u0441\u043a\u043e\u0435 \u0448\u043e\u0441\u0441\u0435","landuse_kind":"urban_area","id":456931139},"arcs":[316]},{"type":"LineString","properties":{"kind":"major_road","int_name":"Imama Shamilya Ave.","sort_rank":380,"kind_detail":"primary","is_bicycle_related":true,"source":"openstreetmap.org","min_zoom":8.0,"old_name":"\u043f\u0440\u043e\u0441\u043f\u0435\u043a\u0442 \u041a\u0430\u043b\u0438\u043d\u0438\u043d\u0430","landuse_kind":"urban_area"},"arcs":[317]},{"type":"MultiLineString","properties":{"kind":"major_road","int_name":"Akushinskogo Ave.","sort_rank":380,"kind_detail":"primary","official_name":"\u043f\u0440\u043e\u0441\u043f\u0435\u043a\u0442 \u0410\u043b\u0438\u0433\u0430\u0434\u0436\u0438 \u0410\u043a\u0443\u0448\u0438\u043d\u0441\u043a\u043e\u0433\u043e","source":"openstreetmap.org","min_zoom":8.0,"landuse_kind":"urban_area"},"arcs":[[318],[319]]},{"type":"LineString","properties":{"bus_network":null,"int_name":"Korkmasova st.","sort_rank":380,"kind_detail":"primary","old_name":"\u0443\u043b\u0438\u0446\u0430 \u0421\u043e\u0432\u0435\u0442\u0441\u043a\u0430\u044f","kind":"major_road","source":"openstreetmap.org","min_zoom":8.0,"bus_shield_text":"35","landuse_kind":"urban_area"},"arcs":[320]},{"type":"MultiLineString","properties":{"kind":"major_road","network":"ru:national","sort_rank":381,"kind_detail":"trunk","source":"openstreetmap.org","min_zoom":8.0,"shield_text":"217","ref":"\u0420-217"},"arcs":[[321],[322],[323],[324],[325],[326],[327],[328],[329],[330],[331],[332],[333],[334],[335],[336],[337],[338]]},{"type":"LineString","properties":{"kind":"major_road","name:en":"Dakhadayeva Street","sort_rank":380,"kind_detail":"primary","bus_network":null,"name:de":"uliza Dachadajewa","source":"openstreetmap.org","min_zoom":8.0,"bus_shield_text":"\u2116 3 \u0430","landuse_kind":"urban_area","id":489545054},"arcs":[339]}]},"earth":{"type":"GeometryCollection","geometries":[{"type":"Polygon","properties":{"sort_rank":10,"source":"naturalearthdata.com","kind":"earth","min_zoom":0.0,"id":4743},"arcs":[[340]]}]},"landuse":{"type":"GeometryCollection","geometries":[{"type":"Polygon","properties":{"kind":"residential","alt_name:en":"Urkarakh","name":"\u0423\u0440\u043a\u0430\u0440\u0430\u0445","area":10356300,"sort_rank":20,"name:de":"Urkarach","source":"openstreetmap.org","min_zoom":8.0,"tier":2,"id":203470698},"arcs":[[341]]},{"type":"MultiPolygon","properties":{"source":"openstreetmap.org","kind":"park","tier":2,"area":241429888,"sort_rank":24,"min_zoom":8.0,"osm_relation":true},"arcs":[[[342]]]},{"type":"MultiPolygon","properties":{"source":"naturalearthdata.com","kind":"urban_area","name":"","area":1096661164,"sort_rank":11,"min_zoom":4.0},"arcs":[[[343]],[[344]],[[345]],[[346]]]},{"type":"Polygon","properties":{"kind":"residential","name:en":"Levashi","name":"\u041b\u0435\u0432\u0430\u0448\u0438","area":11386900,"sort_rank":20,"name:de":"Lewaschi","source":"openstreetmap.org","min_zoom":8.0,"int_name":"Levashi","tier":2,"id":299080977},"arcs":[[347]]},{"type":"MultiPolygon","properties":{"source":"openstreetmap.org","kind":"residential","tier":2,"area":166717165,"sort_rank":20,"min_zoom":8.0},"arcs":[[[348]],[[349]],[[350]],[[351]],[[352]],[[353]],[[354]],[[355]]]},{"type":"MultiPolygon","properties":{"source":"openstreetmap.org","kind":"nature_reserve","tier":2,"protect_class":"4","area":3573074757,"sort_rank":23,"min_zoom":4.0},"arcs":[[[356]],[[357]]]}]}},"type":"Topology","transform":{"translate":[46.40625,42.0329743324],"scale":[0.0003433228,0.0002529086]},"arcs":[[[0,3253],[68,9],[27,32],[-38,47],[27,-4],[7,34],[147,99],[117,24],[17,27],[-119,97],[4,109],[-82,148],[38,22],[74,-7],[5,49],[39,-21],[-50,44],[-21,-39],[-18,16],[3,46],[78,17],[17,-18],[-36,112]],[[4096,4068],[-9,28]],[[4096,2243],[-100,40],[-149,159],[-165,402],[-171,235],[-47,135],[-110,133],[-62,161],[-31,123],[-12,106],[-3,7],[-31,25],[-106,47],[-78,56],[-300,140],[-47,33],[-81,51]],[[2668,4055],[60,-42],[14,-7],[288,-134],[79,-56],[90,-42],[5,-2],[11,-3],[35,-47]],[[4096,2243],[-100,40],[-149,159],[-165,402],[-171,235],[-47,135],[-110,133],[-62,161],[-31,123],[-12,106],[-1,3],[0,1],[-2,3],[-2,2],[-2,2],[-13,8],[-11,11],[-2,1],[-1,1],[-4,2],[-6,0],[-5,2],[-19,14],[-52,22],[-20,7],[-69,50],[-5,3],[-4,3],[-300,140],[-47,33],[-81,51]],[[2668,4055],[60,-42],[14,-7],[288,-134],[79,-56],[90,-42],[5,-2],[11,-3],[35,-47]],[[4096,2243],[-100,40],[-149,159],[-165,402],[-171,235],[-47,135],[-110,133],[-62,161],[-31,123],[-12,106],[-1,3],[0,1],[-2,3],[-2,2],[-2,2],[-13,8],[-11,11],[-2,1],[-1,1],[-4,2],[-6,0],[-5,2],[-19,14],[-52,22],[-20,7],[-69,50],[-9,6],[-300,140],[-47,33],[-81,51]],[[2668,4055],[60,-42],[14,-7],[296,-139]],[[3038,3867],[2,-1]],[[3040,3866],[1,-1]],[[3041,3865],[3,-2]],[[3044,3863],[2,-1]],[[3046,3862],[3,-3]],[[3049,3859],[1,0]],[[3050,3859],[2,-2]],[[3052,3857],[4,-3]],[[3056,3854],[2,-2]],[[3058,3852],[3,-2]],[[3061,3850],[2,-1]],[[3063,3849],[2,-1]],[[3065,3848],[2,-1]],[[3067,3847],[4,-3]],[[3071,3844],[0,-1]],[[3071,3843],[3,-2]],[[3074,3841],[3,-2]],[[3077,3839],[5,-3]],[[3082,3836],[4,-3]],[[3086,3833],[11,-8]],[[3097,3825],[8,-6]],[[3105,3819],[3,-2]],[[3108,3817],[1,-1]],[[3109,3816],[1,0]],[[3110,3816],[2,-1]],[[3112,3815],[2,-1]],[[3114,3814],[3,-1]],[[3117,3813],[1,-1]],[[3118,3812],[2,0]],[[3120,3812],[7,-2]],[[3127,3810],[2,-1]],[[3129,3809],[2,-1]],[[3131,3808],[2,-1]],[[3133,3807],[2,-1]],[[3135,3806],[2,-1]],[[3137,3805],[2,-1]],[[3139,3804],[2,-1]],[[3141,3803],[3,-1]],[[3144,3802],[2,-1]],[[3146,3801],[2,-1]],[[3148,3800],[5,-1]],[[3153,3799],[2,-1]],[[3155,3798],[5,-2]],[[3160,3796],[1,-1]],[[3161,3795],[1,0]],[[3162,3795],[7,-4]],[[3169,3791],[3,-1]],[[3172,3790],[4,-2]],[[3176,3788],[2,0]],[[3178,3788],[1,-1]],[[3179,3787],[1,0]],[[3180,3787],[1,-1]],[[3181,3786],[1,0]],[[3182,3786],[0,-1]],[[3182,3785],[4,-3]],[[3186,3782],[1,-1]],[[3187,3781],[2,-1]],[[3189,3780],[2,-2]],[[3191,3778],[1,-1]],[[3192,3777],[1,-1]],[[3193,3776],[1,0]],[[3194,3776],[2,-1]],[[3196,3775],[3,-1]],[[3199,3774],[51,-52]],[[3191,3779],[-155,90]],[[3036,3869],[-433,227]],[[2668,4055],[60,-42],[14,-7],[296,-139]],[[3038,3867],[3,-2]],[[3036,3869],[2,-2]],[[3069,3845],[5,-4]],[[3074,3841],[12,-8]],[[3102,3822],[3,-2]],[[2603,4096],[81,-51],[47,-33],[300,-140],[4,-3],[5,-3],[69,-50],[20,-7],[52,-22],[10,-8]],[[2668,4055],[60,-42],[14,-7],[288,-134],[79,-56],[90,-42],[16,-5],[35,-47]],[[4096,2243],[-100,40],[-149,159],[-165,402],[-171,235],[-47,135],[-110,133],[-93,281]],[[4096,2243],[-100,40],[-149,159],[-165,402],[-171,235],[-47,135],[-110,133],[-62,161],[-31,123],[-12,106],[-3,7],[-31,25],[-106,47],[-78,56],[-300,140],[-47,33],[-81,51]],[[2668,4055],[60,-42],[14,-7],[288,-134],[79,-56],[90,-42],[5,-2],[11,-3],[35,-47]],[[4096,2298],[-177,89],[-71,103],[-34,134],[-2,157],[6,43],[13,40],[-19,0],[5,64],[-20,192],[5,41],[-11,21],[-18,95],[-10,21],[-223,150],[-47,49],[-18,57],[-28,43],[-173,77],[-199,232],[-21,190],[1042,0],[0,-1798]],[[3054,4096],[21,-190],[199,-232],[173,-77],[28,-43],[18,-57],[47,-49],[223,-150],[10,-21],[18,-95],[11,-21],[-5,-41],[20,-192],[-5,-64],[19,0],[-13,-40],[-6,-43],[2,-157],[34,-134],[71,-103],[177,-89]],[[3198,3762],[-4,-4]],[[3344,3657],[-15,-8]],[[3331,3649],[14,7]],[[3244,3709],[5,10]],[[3213,3764],[2,4]],[[3183,3778],[2,-1]],[[3343,3659],[-17,17]],[[3343,3659],[1,-2]],[[3345,3658],[-2,1]],[[3061,3808],[35,-47]],[[3061,3831],[0,-18],[0,-3],[1,18],[-1,3]],[[3183,3778],[-121,47]],[[3326,3676],[-60,40]],[[2800,3767],[23,-21]],[[3251,3630],[4,-3]],[[2680,3846],[0,-1]],[[3293,3418],[-1,-1]],[[3388,3258],[1,-2]],[[3172,3759],[-2,1]],[[2685,3843],[-84,38]],[[2882,3691],[1,0]],[[3203,3448],[14,-4]],[[3267,3426],[36,-16]],[[3106,3760],[-5,-1]],[[3154,3780],[-1,-1]],[[3170,3760],[4,6]],[[2879,3694],[3,-3]],[[2883,3691],[-4,3]],[[2486,3950],[102,-62]],[[2685,3842],[115,-75]],[[2823,3746],[56,-52]],[[3242,3441],[-26,4]],[[3280,3426],[-64,18]],[[3242,3441],[0,-2],[1,0],[0,2],[-1,0]],[[3247,3439],[-3,1]],[[3305,3410],[-4,3]],[[3307,3409],[17,-27]],[[3389,3256],[30,-50]],[[4082,2209],[14,-9]],[[2895,3696],[0,-3]],[[2928,3708],[-23,23]],[[2918,3703],[1,-1]],[[2925,3826],[48,119],[46,-19]],[[2928,3708],[0,-2]],[[2929,3705],[-1,3]],[[2943,3710]],[[3005,3729]],[[3019,3926],[2,-5]],[[3019,3926],[5,2]],[[3021,3921],[1,3]],[[3022,3924],[1,1]],[[3023,3925],[1,2],[3,7],[3,11]],[[3032,3888],[-11,33]],[[3022,3925],[0,-1]],[[3022,3924]],[[3022,3924]],[[3023,3925]],[[3023,3925],[-1,0]],[[3029,3870],[6,12]],[[3032,3888],[3,-6]],[[3058,3835],[3,-4]],[[3061,3813],[1,0]],[[3061,3810],[0,-2]],[[3094,3755],[-1,1]],[[3106,3760],[-8,-3]],[[3250,3631],[-35,21],[-3,3]],[[3212,3655],[-25,23],[-26,26],[-58,51]],[[3153,3779],[3,0]],[[3153,3781],[0,-1]],[[3154,3779],[0,1]],[[3159,3665],[1,1]],[[3159,3665],[3,2]],[[3194,3630],[-2,0],[1,-2]],[[3194,3628],[3,-3]],[[3243,3709],[-21,-37],[-10,-17]],[[3212,3655],[-4,-5],[-14,-20]],[[3194,3630],[-1,-1],[1,-1],[1,1],[-1,1]],[[3197,3625],[-1,6]],[[3197,3625],[28,-47],[18,-135]],[[3237,3716],[-10,1]],[[3243,3443],[-1,-2]],[[3244,3440],[-1,3]],[[3255,3627],[5,-1],[35,5]],[[3295,3633],[-21,-4]],[[3274,3629],[-11,-2],[-4,-1]],[[3274,3628],[0,1]],[[3274,3629],[0,1]],[[3280,3634],[1,-2]],[[3284,3632],[0,2]],[[3297,3631],[-2,2]],[[3297,3631],[63,-39],[104,-189],[8,-8],[12,-12]],[[3484,3383],[22,-19]],[[3506,3363],[-22,20]],[[3484,3383],[-12,12],[-8,8],[-5,32]],[[3459,3435]],[[3459,3435],[-2,11],[-96,146],[-63,41]],[[3301,3635]],[[3306,3639]],[[3320,3646],[0,-1]],[[3334,3646],[0,-1]],[[3335,3646],[0,1]],[[3482,3440],[-16,-5],[-6,0],[-1,0]],[[3459,3435],[-4,0],[-2,4]],[[3455,3435],[4,0]],[[3459,3435],[1,0],[6,-1],[16,5]],[[3510,3083],[63,93],[37,6]],[[3525,3438],[15,-15]],[[3540,3423],[-15,15]],[[3559,3296],[19,-34]],[[3653,3125],[-10,22],[-17,32]],[[3626,3179],[-3,5]],[[3623,3184]],[[3623,3184],[-2,4]],[[3621,3188],[-59,106]],[[3592,3238],[28,-50]],[[3620,3188],[2,-4]],[[3622,3184]],[[3622,3184],[3,-5]],[[3625,3179],[18,-32],[10,-22]],[[3608,3229],[1,0]],[[3610,3182],[12,2]],[[3622,3184],[1,0]],[[3623,3184],[3,0],[3,1],[-1,-2]],[[3631,3175],[-2,10],[-3,0],[-3,-1]],[[3623,3184],[-1,0]],[[3622,3184],[-5,-1]],[[3617,3183],[-7,-1]],[[3612,3182],[13,-3]],[[3625,3179],[1,0]],[[3626,3179],[4,-1]],[[3624,3193],[-3,-5]],[[3621,3188],[-1,0]],[[3620,3188],[-3,-5]],[[3617,3183]],[[3653,3125],[0,-1],[1,0],[-1,1]],[[3653,3124],[7,-17]],[[3660,3107],[-7,17]],[[3660,3107],[2,-4]],[[3061,3825],[0,-1],[1,0],[0,1],[-1,0]],[[3196,3631],[48,78]],[[3203,3769],[-10,5]],[[3192,3630],[-32,34]],[[2882,3691],[1,0]],[[3153,3779],[-47,-19]],[[3408,3585],[-41,47]],[[3225,3731],[-65,-65]],[[3367,3632],[-16,19]],[[3070,4094],[0,2]],[[3193,3774],[-1,-1]],[[3192,3773],[3,-5]],[[3195,3768],[5,-3]],[[3215,3768],[-12,1]],[[3213,3764],[2,-3]],[[3245,3716],[-8,0]],[[3242,3725],[1,1]],[[3249,3719],[-6,-10]],[[3246,3716],[0,-1]],[[3345,3656],[-1,0]],[[3501,3070],[-2,1]],[[3501,3070],[-1,-1]],[[3500,3068],[1,2]],[[3510,3083],[-9,-13]],[[3662,3103],[5,-16]],[[3259,3718],[3,-1],[4,-1],[-5,2],[-2,0]],[[3344,3657],[2,0]],[[3173,3691],[78,-61]],[[3098,3757],[5,-2]],[[3103,3755],[-1,3]],[[2727,3828],[1,2]],[[2882,3693],[-2,-1]],[[3316,3397],[1,0]],[[3389,3256],[2,-4]],[[3391,3252],[3,-5]],[[3394,3247],[4,-7]],[[3391,3251],[0,1]],[[3391,3252],[1,0]],[[3395,3248],[-1,-1]],[[3394,3247]],[[3185,3777],[7,-4]],[[3345,3656],[1,1]],[[3177,3755],[-5,4]],[[3227,3717],[-8,6]],[[2905,3731],[-2,35]],[[2903,3767],[22,59]],[[3030,3945],[40,149]],[[3512,3450],[-30,-10]],[[3482,3439],[32,10]],[[3545,3324],[-3,3]],[[3542,3327],[-2,2]],[[3540,3329],[-34,34]],[[3506,3364],[30,-28],[4,-7]],[[3540,3329],[2,-3]],[[3542,3326],[1,-2]],[[3543,3324],[16,-28]],[[3514,3449],[0,2],[-1,0],[0,-1],[1,-1]],[[3514,3449],[11,-11]],[[3525,3438],[-10,12]],[[3540,3423],[7,-7]],[[3547,3416],[-7,7]],[[3545,3329],[-1,-1],[-2,-1]],[[3542,3327],[0,-1]],[[3542,3326],[-1,0]],[[3543,3324]],[[3543,3324],[2,0]],[[3545,3329],[5,82]],[[3545,3324],[0,5]],[[3562,3294],[-17,30]],[[3546,3313],[2,0]],[[3550,3412],[-3,4]],[[3578,3262],[14,-24]],[[3329,3649],[-32,-16]],[[3298,3631],[33,18]],[[1233,2814],[-16,-25],[125,54],[103,-64],[5,22]],[[3249,3721],[-41,31]],[[2903,3766],[0,1]],[[2800,3767],[-115,76]],[[2879,3694],[-56,52]],[[2883,3691]],[[3217,3444],[50,-18]],[[3303,3410],[3,-1]],[[3306,3409],[1,0]],[[3322,3385],[-16,24]],[[3306,3409],[-1,1]],[[3200,3765],[-2,-3]],[[3215,3761],[-8,-10]],[[3259,3626],[-9,5]],[[2823,3746],[-23,21]],[[3229,3736],[-4,-5]],[[3194,3758],[-132,55]],[[3058,3835],[-29,35]],[[3103,3755],[70,-64]],[[3101,3759],[-218,-66]],[[2883,3692],[219,66]],[[3219,3723],[-42,32]],[[2245,4096],[241,-146]],[[2588,3888],[97,-46]],[[3216,3444],[-1,1]],[[3215,3445],[-12,3],[-255,149],[-64,93]],[[3216,3445],[-1,0]],[[3215,3445],[-1,0]],[[3301,3413],[-21,13]],[[3324,3382],[65,-126]],[[3419,3206],[211,-353],[48,-132]],[[3679,2719],[-1,0]],[[3678,2721],[0,-2]],[[3678,2719],[0,-1]],[[3679,2719],[-1,2]],[[3678,2718],[1,0]],[[3678,2718],[1,-2]],[[3679,2718],[0,1]],[[3679,2716],[0,2]],[[3679,2716],[16,-36],[52,-20],[83,-248],[252,-203]],[[3207,3751],[-39,-52]],[[3054,4096],[21,-190],[199,-232],[173,-77],[28,-43],[18,-57],[47,-49],[223,-150],[10,-21],[18,-95],[11,-21],[-5,-41],[20,-192],[-5,-64],[19,0],[-13,-40],[-6,-43],[2,-157],[34,-134],[71,-103],[177,-89],[0,-2298],[-4096,0],[0,4096],[3054,0]],[[3512,547],[38,21],[37,-18],[-14,-11],[47,-88],[-80,4],[6,45],[-23,-4],[22,28],[-33,23]],[[1357,1482],[32,48],[91,4],[128,-140],[-104,36],[-120,-2],[-27,54]],[[4096,2163],[-18,37],[18,39],[0,-76]],[[1447,2503],[-162,44],[0,88],[-129,44],[69,106],[110,-4],[93,-99],[19,-179]],[[2709,3909],[35,-8],[29,96],[155,46],[72,53],[54,0],[21,-190],[199,-232],[173,-77],[93,-149],[140,-94],[9,-197],[-41,-82],[-147,9],[-112,166],[0,132],[-65,0],[-33,44],[-64,0],[-41,74],[-122,37],[-44,36],[-48,119],[-231,-3],[-64,176],[-57,27],[-95,-10],[-43,27],[17,187],[204,0],[6,-187]],[[1977,3336],[174,-45],[105,3],[-8,-165],[-31,-46],[-58,-8],[8,-32],[89,-12],[4,-50],[-69,-170],[-105,77],[-68,132],[-118,11],[9,76],[93,49],[27,50],[-33,52],[-93,-42],[-3,78],[77,42]],[[2625,1610],[96,23],[-13,-111],[-69,25],[-14,63]],[[2642,989],[21,46],[3,-31],[30,12],[24,-16],[3,-26],[9,9],[-28,44],[12,2],[19,-37],[22,13],[-19,21],[43,-39],[-40,-27],[60,8],[-42,-60],[-30,-14],[-32,2],[31,15],[-43,50],[22,47],[-65,-19]],[[3247,2744],[106,-49],[94,0],[54,-59],[-42,-4],[-24,33],[-27,-20],[-29,14],[18,-64],[-37,-18],[-31,46],[20,36],[-65,16],[6,32],[-43,37]],[[1938,3162],[71,-40],[31,50],[89,-14],[15,17],[-2,-27],[-57,-12],[6,-39],[35,-25],[-36,-19],[50,-19],[-17,-7],[22,-67],[-82,87],[-25,-45],[-40,0],[4,34],[40,21],[-5,26],[-99,79]],[[3422,3513],[25,21],[90,-90],[23,13],[72,-100],[67,-42],[-77,-57],[-66,40],[36,-59],[-8,-40],[-84,97],[8,93],[31,12],[2,36],[-37,4],[11,-41],[-93,113]],[[1571,3700],[51,-10],[71,28],[20,-116],[-142,98]],[[2838,3779],[37,78],[85,-53],[-31,-81],[-72,25],[-19,31]],[[2722,3699],[34,74],[19,-37],[26,32],[23,-21],[-20,-35],[54,-15],[8,-27],[-78,-13],[-66,42]],[[2953,3982],[26,0],[-9,37],[55,73],[58,2],[-8,-164],[-13,72],[-32,-57],[-77,37]],[[0,37],[0,35],[32,-14],[40,-34],[-2,-24],[-70,0],[0,14],[9,7],[-9,16]],[[680,0],[-342,0],[54,60],[157,115],[151,-122],[-20,-52],[0,-1]]]}