{"objects":{"water":{"type":"GeometryCollection","geometries":[{"type":"Polygon","properties":{"kind":"lake","name":"Mingevir Reservoir","reservoir":true,"area":990142336,"sort_rank":200,"source":"naturalearthdata.com","min_zoom":0.0,"id":1042},"arcs":[[32]]},{"type":"Point","properties":{"label_placement":true,"kind":"lake","name":"Mingevir Reservoir","reservoir":true,"area":990142336,"sort_rank":200,"source":"naturalearthdata.com","min_zoom":0.0,"id":1042},"coordinates":[599,3850]},{"type":"MultiLineString","properties":{"source":"naturalearthdata.com","kind":"lake","reservoir":true,"sort_rank":367,"boundary":true,"min_zoom":0.0,"id":1042},"arcs":[[33],[34],[35]]}]},"buildings":{"type":"GeometryCollection","geometries":[]},"places":{"type":"GeometryCollection","geometries":[{"type":"Point","properties":{"name:kg":"Azerbaidjan","name:ka":"\u10d0\u10d6\u10d4\u10e0\u10d1\u10d0\u10d8\u10ef\u10d0\u10dc\u10d8","name:ko":"\uc544\uc81c\ub974\ubc14\uc774\uc794","name:cv":"\u0410\u0437\u0435\u0440\u0431\u0430\u0439\u0434\u0436\u0430\u043d","name:cu":"\u0410\ua641\u0463\u0440\u0431\u0430\u0438\u0447\u0430\u043d\u044a","name:kl":"Aserbajdsjan","name:cs":"\u00c1zerb\u00e1jd\u017e\u00e1n","name:ki":"Azabajani","name:co":"Azerbaighjan","name:kv":"\u0410\u0437\u0435\u0440\u0431\u0430\u0439\u0434\u0436\u0430\u043d","name:ku":"Azerbaycan","name:ti":"\u12a0\u12d8\u122d\u1263\u1303\u1295","name:ks":"\u0622\u0632\u064e\u0631\u0628\u0627\u062c\u0627\u0646","name:to":"\u02bbAsapaisani","name:tl":"Aserbayan","name:ce":"\u0410\u0437\u0435\u0440\u0431\u0430\u0439\u0434\u0436\u0430\u043d","name:ta":"\u0b85\u0b9a\u0bb0\u0bcd\u0baa\u0bc8\u0b9c\u0bbe\u0ba9\u0bcd","name:tg":"\u041e\u0437\u0430\u0440\u0431\u043e\u0439\u04b7\u043e\u043d","name:ca":"Azerbaidjan","name:te":"\u0c05\u0c1c\u0c30\u0c4d\u0c2c\u0c48\u0c1c\u0c3e\u0c28\u0c4d","name:cy":"Azerbaijan","name:hr":"Azerbejd\u017ean","name:da":"Aserbajdsjan","name:de":"Aserbaidschan","name:dz":"\u0f68\u0f0b\u0f5b\u0f62\u0f0b\u0f56\u0fb7\u0f60\u0f72\u0f0b\u0f47\u0f71\u0f53","source":"openstreetmap.org","name:kn":"\u0c85\u0c9c\u0cb0\u0ccd\u0cac\u0cc8\u0c9c\u0cbe\u0ca8\u0ccd","name:dv":"\u0787\u07a6\u0792\u07a6\u0783\u07aa\u0784\u07a6\u0787\u07a8\u0796\u07a7\u0782\u07b0","name:km":"\u17a2\u17b6\u17a0\u17ca\u17d2\u179f\u17c2\u179a\u1794\u17c2\u17a0\u17d2\u179f\u1784\u17cb","name:lv":"Azerbaid\u017e\u0101na","name:lt":"Azerbaid\u017eanas","name:uz":"Ozarbayjon","name:kk":"\u04d8\u0437\u0456\u0440\u0431\u0430\u0439\u0436\u0430\u043d","name:ur":"\u0622\u0630\u0631\u0628\u0627\u0626\u062c\u0627\u0646","name:lb":"Aserbaidschan","name:la":"Adrabigania","name:lg":"Azerebayijaani","name:uk":"\u0410\u0437\u0435\u0440\u0431\u0430\u0439\u0434\u0436\u0430\u043d","name:ug":"\u0626\u06d5\u0632\u06d5\u0631\u0628\u06d5\u064a\u062c\u0627\u0646","name:li":"Azerbaidzjan","name:ln":"Az\u025bl\u025bbaiz\u00e1","name:lo":"\u0ead\u0eb2\u0ec0\u0e8a\u0eb5\u0ec4\u0e9a\u0e88\u0eb1\u0e99","name:el":"\u0391\u03b6\u03b5\u03c1\u03bc\u03c0\u03b1\u03ca\u03c4\u03b6\u03ac\u03bd","name:eo":"Azerbaj\u011dano","name:en":"Azerbaijan","name":"Az\u0259rbaycan","name:tk":"Azerba\u00fdjan","name:ee":"Azerbaijan nutome","name:th":"\u0e1b\u0e23\u0e30\u0e40\u0e17\u0e28\u0e2d\u0e32\u0e40\u0e0b\u0e2d\u0e23\u0e4c\u0e44\u0e1a\u0e08\u0e32\u0e19","name:eu":"Azerbaijan","name:et":"Aserbaid\u017eaan","name:es":"Azerbaiy\u00e1n","name:ia":"Azerbaidzhan","name:rm":"Aserbaidschan","name:rn":"Azerubayijani","name:ro":"Azerbaidjan","name:ie":"Azerbaidjan","name:id":"Azerbaijan","name:ar":"\u0623\u0630\u0631\u0628\u064a\u062c\u0627\u0646","name:io":"Azerbaijan","name:av":"\u0410\u0437\u0430\u0440\u0431\u0438\u0436\u0430\u043d","name:ak":"Azebaegyan","name:am":"\u12a0\u12d8\u122d\u1263\u1303\u1295","name:it":"Azerbaigian","name:an":"Azerbaich\u00e1n","name:ru":"\u0410\u0437\u0435\u0440\u0431\u0430\u0439\u0434\u0436\u0430\u043d","name:ab":"\u0410\u0437\u0435\u0440\u0431\u0430\u0438\u045f\u044c\u0430\u043d","name:af":"Azerbeidjan","name:zu":"i-Azerbaijan","name:za":"Ahsehbaiqgyangh","name:zh-yue":"\u963f\u585e\u62dc\u7586","name:zh":"\u963f\u585e\u62dc\u7586","name:so":"Azerbajaan","name:sn":"Azabajani","name:sm":"Azerbaijin","name:sl":"Azerbajd\u017ean","name:sk":"Azerbajd\u017ean","name:ja":"\u30a2\u30bc\u30eb\u30d0\u30a4\u30b8\u30e3\u30f3","name:si":"\u0d85\u0dc3\u0dbb\u0dca\u0db6\u0dba\u0dd2\u0da2\u0dcf\u0db1\u0dba","name:sh":"Azerbejd\u017ean","name:sg":"Zerebaidy\u00e4an, Azerbaidy\u00e4an,","name:se":"Aserbai\u017ean","name:sc":"Azerbaigi\u00e1n","name:br":"Azerbaidjan","name:bs":"Azerbejd\u017ean","name:bm":"Az\u025brbayja\u014b","name:bn":"\u0986\u099c\u09be\u09b0\u09ac\u09be\u0987\u099c\u09be\u09a8","name:bo":"\u0f68\u0f5b\u0f62\u0f0b\u0f56\u0f61\u0f7a\u0f0b\u0f47\u0f53\u0f0d","name:bi":"Azerbaijan","name:sw":"Azabajani","name:be":"\u0410\u0437\u0435\u0440\u0431\u0430\u0439\u0434\u0436\u0430\u043d","name:su":"Azerbaijan","name:bg":"\u0410\u0437\u0435\u0440\u0431\u0435\u0439\u0434\u0436\u0430\u043d","name:ss":"IZebajani","name:ba":"\u04d8\u0437\u0435\u0440\u0431\u0430\u0439\u0436\u0430\u043d","name:sq":"Azerbajxhan","name:jv":"Azerbaijan","name:sa":"\u0905\u091c\u0930\u094d\u092c\u0948\u091c\u093e\u0928","name:pt":"Azerbaij\u00e3o","name:ps":"\u0622\u0632\u0631\u0628\u0627\u064a\u062c\u0627\u0646","name:oc":"Azerbaitjan","min_zoom":2.0,"int_name":"Azerbaijan","name:zh-min-nan":"Azerbaijan","name:os":"\u0410\u0437\u0435\u0440\u0431\u0430\u0439\u0434\u0436\u0430\u043d","name:or":"\u0b06\u0b1c\u0b47\u0b30\u0b2c\u0b3e\u0b07\u0b1c\u0b3e\u0b28\u0b4d","name:pl":"Azerbejd\u017can","name:sr":"\u0410\u0437\u0435\u0440\u0431\u0435\u0458\u045f\u0430\u043d","name:pa":"\u0a05\u0a1c\u0a3c\u0a30\u0a2c\u0a3e\u0a08\u0a1c\u0a3e\u0a28","name:tr":"Azerbaycan","name:hi":"\u0905\u091c\u093c\u0930\u092c\u0948\u091c\u093e\u0928","name:sv":"Azerbajdzjan","name:he":"\u05d0\u05d6\u05e8\u05d1\u05d9\u05d9\u05d2'\u05df","name:ha":"Azarbaijan","name:hy":"\u0531\u0564\u0580\u0562\u0565\u057b\u0561\u0576","name:ht":"Azerbaydjan","name:hu":"Azerbajdzs\u00e1n","name:qu":"Asarsuyu","population":9105000,"kind":"country","name:is":"Aserba\u00eddsjan","name:yi":"\u05d0\u05d6\u05e2\u05e8\u05d1\u05d9\u05d9\u05d3\u05d6\u05e9\u05d0\u05df","name:yo":"Or\u00edl\u1eb9\u0301\u00e8de As\u1eb9\u0301b\u00e1j\u00e1n\u00ec","name:mt":"A\u017cerbaj\u0121an","name:ms":"Azerbaijan","name:mr":"\u0905\u091d\u0930\u092c\u0948\u091c\u093e\u0928","name:my":"\u1021\u1007\u102c\u1018\u102d\u102f\u1004\u103a\u1002\u103b\u1014\u103a","official_name":"Az\u0259rbaycan Respublikas\u0131","name:kw":"Azerbayjan","name:mg":"Azerbaidjan","name:ml":"\u0d05\u0d38\u0d7c\u0d2c\u0d48\u0d1c\u0d3e\u0d7b","name:vi":"Azerbaijan","name:mn":"\u0410\u0437\u0435\u0440\u0431\u0430\u0439\u0436\u0430\u043d","name:mi":"Atepaih\u0101nia","id":424313675,"name:mk":"\u0410\u0437\u0435\u0440\u0431\u0435\u0458\u045f\u0430\u043d","name:vo":"Las\u00e4rb\u00e4c\u00e4n","name:fa":"\u0622\u0630\u0631\u0628\u0627\u06cc\u062c\u0627\u0646","name:rw":"Azeribayijani","name:ff":"Ajerbayjaan","name:fi":"Azerbaid\u017ean","name:ky":"\u0410\u0437\u0435\u0440\u0431\u0430\u0439\u0436\u0430\u043d","name:fo":"Aserbajdsjan","name:fr":"Azerba\u00efdjan","name:fy":"Azerbeidzjan","name:nl":"Azerbeidzjan","name:nn":"Aserbajdsjan","name:no":"Aserbajdsjan","name:na":"Aderbaidjan","name:nb":"Aserbajdsjan","name:ne":"\u0905\u091c\u0930\u092c\u0948\u091c\u093e\u0928","name:ny":"Azerbaijan","name:wo":"Aserbayjaan","name:nv":"Az\u00e9\u00e9wii Bik\u00e9yah","name:ga":"An Asarbaise\u00e1in","name:gd":"Asarbaidean","name:gn":"Aservaij\u00e3","name:gl":"Acerbaix\u00e1n","name:gv":"Yn Asserbajaan","name:gu":"\u0a85\u0a9d\u0ab0\u0aac\u0ac8\u0a9c\u0abe\u0aa8","name:tt":"\u0410\u0437\u04d9\u0440\u0431\u0430\u0439\u0497\u0430\u043d"},"coordinates":[4022,1852]},{"type":"Point","properties":{"source":"naturalearthdata.com","kind":"locality","name":"Goycay","population":35348,"min_zoom":7.0,"id":4475},"coordinates":[3887,2846]},{"type":"Point","properties":{"kind":"locality","name:en":"Mingachevir","name":"Ming\u0259\u00e7evir","name:lt":"Minge\u010devyras","kind_detail":"city","source":"openstreetmap.org","min_zoom":8.0,"int_name":"Mingachevir","name:uk":"\u041c\u0456\u043d\u0433\u0435\u0447\u0430\u0443\u0440","name:ru":"\u041c\u0438\u043d\u0433\u0435\u0447\u0435\u0432\u0438\u0440","population":99775,"id":227052744,"name:ja":"\u30df\u30f3\u30ae\u30e3\u30c1\u30a7\u30f4\u30a3\u30eb"},"coordinates":[1879,3275]},{"type":"Point","properties":{"kind":"locality","int_name":"Yevlakh","name":"Yevlax","name:lt":"Jevlachas","kind_detail":"town","source":"openstreetmap.org","min_zoom":8.0,"name:ru":"\u0415\u0432\u043b\u0430\u0445","population":56726,"id":227127401,"name:ja":"\u30a4\u30a7\u30f4\u30e9\u30d5"},"coordinates":[2164,2676]},{"type":"Point","properties":{"kind":"locality","int_name":"Barda","name":"B\u0259rd\u0259","kind_detail":"city","source":"openstreetmap.org","min_zoom":8.0,"name:uk":"\u0411\u0430\u0440\u0434\u0430","name:ru":"\u0411\u0430\u0440\u0434\u0430","population":38500,"id":229639771,"name:ja":"\u30d0\u30eb\u30c0"},"coordinates":[2085,1806]},{"type":"Point","properties":{"alt_name:ru":"\u0413\u0435\u043e\u043a\u0447\u0430\u0439","kind":"locality","int_name":"Goychay","name":"G\u00f6y\u00e7ay","kind_detail":"town","source":"openstreetmap.org","min_zoom":8.0,"name:ru":"\u0413\u0451\u0439\u0447\u0430\u0439","population":36720,"id":229488461,"name:ja":"\u30ae\u30e7\u30a4\u30c1\u30e3\u30a4"},"coordinates":[3888,2831]},{"type":"Point","properties":{"kind":"locality","name:en":"Aghjabadi","name":"A\u011fcab\u0259di","kind_detail":"town","source":"openstreetmap.org","min_zoom":8.0,"name:ru":"\u0410\u0433\u0434\u0436\u0430\u0431\u0435\u0434\u0438","population":36000,"id":229673181,"name:ja":"\u30a2\u30b0\u30b8\u30e3\u30d0\u30c7\u30a3"},"coordinates":[3067,531]},{"type":"Point","properties":{"kind":"locality","name:en":"Aghdash","name":"A\u011fda\u015f","kind_detail":"town","source":"openstreetmap.org","min_zoom":8.0,"int_name":"Aghdash","name:ru":"\u0410\u0433\u0434\u0430\u0448","population":24760,"id":232351722,"name:ja":"\u30a2\u30b0\u30c0\u30b7\u30e5"},"coordinates":[3107,2808]},{"type":"Point","properties":{"kind":"locality","int_name":"Terter","name":"T\u0259rt\u0259r","kind_detail":"town","source":"openstreetmap.org","min_zoom":8.0,"name:ru":"\u0422\u0435\u0440\u0442\u0435\u0440","population":19419,"id":234040855,"name:ja":"\u30bf\u30eb\u30bf\u30eb"},"coordinates":[1532,1658]},{"type":"Point","properties":{"kind":"locality","int_name":"Ujar","name":"Ucar","kind_detail":"town","source":"openstreetmap.org","min_zoom":8.0,"name:ru":"\u0423\u0434\u0436\u0430\u0440","population":17000,"id":229481406,"name:ja":"\u30a6\u30b8\u30e3\u30eb"},"coordinates":[3629,2307]},{"type":"Point","properties":{"kind":"locality","name:en":"Zardab","name":"Z\u0259rdab","kind_detail":"town","source":"openstreetmap.org","min_zoom":8.0,"int_name":"Zardab","name:ru":"\u0417\u0430\u0440\u0434\u043e\u0431","population":11320,"id":229679563,"name:ja":"\u30b6\u30eb\u30c0\u30d6"},"coordinates":[3794,1186]},{"type":"Point","properties":{"kind":"locality","name":"Naftalan","kind_detail":"town","source":"openstreetmap.org","min_zoom":8.0,"name:ru":"\u041d\u0430\u0444\u0442\u0430\u043b\u0430\u043d","population":9300,"id":1885045493,"name:ja":"\u30ca\u30d5\u30bf\u30e9\u30f3"},"coordinates":[1213,2277]},{"type":"Point","properties":{"kind":"locality","name":"Goranboy","kind_detail":"town","source":"openstreetmap.org","min_zoom":8.0,"name:ru":"\u0413\u0435\u0440\u0430\u043d\u0431\u043e\u0439","population":6800,"id":3713798233,"name:ja":"\u30b4\u30e9\u30f3\u30dc\u30a4"},"coordinates":[1113,2674]},{"type":"Point","properties":{"kind":"locality","name:en":"Martakert","name":"\u0544\u0561\u0580\u057f\u0561\u056f\u0565\u0580\u057f","kind_detail":"town","source":"openstreetmap.org","min_zoom":8.0,"int_name":"Martakert","name:az":"A\u011fd\u0259r\u0259","population":4214,"name:ru":"\u041c\u0430\u0440\u0442\u0430\u043a\u0435\u0440\u0442","name:hu":"Martakert","id":234061921,"name:ja":"\u30de\u30eb\u30bf\u30b1\u30eb\u30c8"},"coordinates":[1216,1156]},{"type":"Point","properties":{"admin_level":"4","kind":"locality","name:en":"Askeran","name":"\u0531\u057d\u056f\u0565\u0580\u0561\u0576 (Askeran)","kind_detail":"town","name:de":"Askeran","source":"openstreetmap.org","min_zoom":8.0,"int_name":"Askeran","name:hy":"\u0531\u057d\u056f\u0565\u0580\u0561\u0576","name:ru":"\u0410\u0441\u043a\u0435\u0440\u0430\u043d","population":2300,"id":234280798,"name:ja":"\u30a2\u30b9\u30b1\u30e9\u30f3"},"coordinates":[1242,123]}]},"transit":{"type":"GeometryCollection","geometries":[{"type":"MultiLineString","properties":{"source":"openstreetmap.org","kind":"train","name":"Tbilisi-Baku","sort_rank":275,"min_zoom":6.0,"osm_relation":true},"arcs":[[29],[30],[31]]}]},"pois":{"type":"GeometryCollection","geometries":[{"type":"Point","properties":{"source":"openstreetmap.org","kind":"military","name":"\u041f\u043e\u043b\u0438\u0433\u043e\u043d \"\u0413\u0435\u0440\u0430\u043d\u044c\" 104 \u0412\u0414\u0412","area":68460600,"tier":3,"min_zoom":8.0,"id":319830684},"coordinates":[1283,3247]}]},"boundaries":{"type":"GeometryCollection","geometries":[{"type":"LineString","properties":{"name:left":"\u015e\u0259ki rayonu","kind":"region","name:right:ja":"\u30a4\u30a7\u30f4\u30e9\u30d5\u770c","name":"\u015e\u0259ki rayonu - Yevlax rayonu","sort_rank":256,"kind_detail":"4","id:left":-3912205,"name:right:ru":"\u0415\u0432\u043b\u0430\u0445\u0441\u043a\u0438\u0439 \u0440\u0430\u0439\u043e\u043d","source":"openstreetmap.org","min_zoom":8.0,"name:left:ru":"\u0428\u0435\u043a\u0438\u043d\u0441\u043a\u0438\u0439 \u0440\u0430\u0439\u043e\u043d","id:right":-3764587,"id":-3912205,"osm_relation":true,"name:right":"Yevlax rayonu"},"arcs":[0]},{"type":"LineString","properties":{"name:left":"\u015e\u0259ki rayonu","kind":"region","name:right:ja":"\u30ac\u30d0\u30e9\u770c","name":"\u015e\u0259ki rayonu - Q\u0259b\u0259l\u0259 rayonu","sort_rank":256,"kind_detail":"4","id:left":-3912205,"name:right:ru":"\u0413\u0430\u0431\u0430\u043b\u0438\u043d\u0441\u043a\u0438\u0439 \u0440\u0430\u0439\u043e\u043d","source":"openstreetmap.org","min_zoom":8.0,"name:left:ru":"\u0428\u0435\u043a\u0438\u043d\u0441\u043a\u0438\u0439 \u0440\u0430\u0439\u043e\u043d","id:right":-3764572,"id":-3912205,"osm_relation":true,"name:right":"Q\u0259b\u0259l\u0259 rayonu"},"arcs":[1]},{"type":"LineString","properties":{"name:left":"\u015e\u0259ki rayonu","kind":"region","name:right:ja":"\u30ac\u30d5\u770c","name":"\u015e\u0259ki rayonu - Qax rayonu","sort_rank":256,"kind_detail":"4","id:left":-3912205,"name:right:ru":"\u041a\u0430\u0445\u0441\u043a\u0438\u0439 \u0440\u0430\u0439\u043e\u043d","source":"openstreetmap.org","min_zoom":8.0,"name:left:ru":"\u0428\u0435\u043a\u0438\u043d\u0441\u043a\u0438\u0439 \u0440\u0430\u0439\u043e\u043d","id:right":-3764566,"id":-3912205,"osm_relation":true,"name:right":"Qax rayonu"},"arcs":[2]},{"type":"MultiLineString","properties":{"name:left":"\u015e\u0259ki rayonu","kind":"region","name:right:ja":"\u30aa\u30b0\u30ba\u770c","name":"\u015e\u0259ki rayonu - O\u011fuz rayonu","sort_rank":256,"kind_detail":"4","id:left":-3912205,"name:right:ru":"\u041e\u0433\u0443\u0437\u0441\u043a\u0438\u0439 \u0440\u0430\u0439\u043e\u043d","source":"openstreetmap.org","min_zoom":8.0,"name:left:ru":"\u0428\u0435\u043a\u0438\u043d\u0441\u043a\u0438\u0439 \u0440\u0430\u0439\u043e\u043d","id:right":-3764564,"id":-3912205,"osm_relation":true,"name:right":"O\u011fuz rayonu"},"arcs":[[3],[4]]},{"type":"LineString","properties":{"kind":"region","name":"\u015e\u0259ki rayonu","sort_rank":256,"kind_detail":"4","source":"openstreetmap.org","min_zoom":8.0,"name:ru":"\u0428\u0435\u043a\u0438\u043d\u0441\u043a\u0438\u0439 \u0440\u0430\u0439\u043e\u043d","id":-3912205,"osm_relation":true},"arcs":[5]},{"type":"LineString","properties":{"name:right:ja":"\u30ac\u30d0\u30e9\u770c","name:left:ja":"\u30a4\u30b9\u30de\u30a4\u30eb\u770c","name:right:ru":"\u0413\u0430\u0431\u0430\u043b\u0438\u043d\u0441\u043a\u0438\u0439 \u0440\u0430\u0439\u043e\u043d","min_zoom":8.0,"name:left:ru":"\u0418\u0441\u043c\u0430\u0438\u043b\u043b\u0438\u043d\u0441\u043a\u0438\u0439 \u0440\u0430\u0439\u043e\u043d","id:right":-3764572,"id":-3764591,"osm_relation":true,"name:right":"Q\u0259b\u0259l\u0259 rayonu","kind":"region","name":"\u0130smay\u0131ll\u0131 rayonu - Q\u0259b\u0259l\u0259 rayonu","sort_rank":256,"kind_detail":"4","source":"openstreetmap.org","id:left":-3764591,"name:left":"\u0130smay\u0131ll\u0131 rayonu"},"arcs":[6]},{"type":"LineString","properties":{"name:right:ja":"\u30ae\u30e7\u30a4\u30c1\u30e3\u30a4\u770c","name:left:ja":"\u30a4\u30b9\u30de\u30a4\u30eb\u770c","name:right:ru":"\u0413\u0435\u043e\u043a\u0447\u0430\u0439\u0441\u043a\u0438\u0439 \u0440\u0430\u0439\u043e\u043d","min_zoom":8.0,"name:left:ru":"\u0418\u0441\u043c\u0430\u0438\u043b\u043b\u0438\u043d\u0441\u043a\u0438\u0439 \u0440\u0430\u0439\u043e\u043d","id:right":-3764553,"id":-3764591,"osm_relation":true,"name:right":"G\u00f6y\u00e7ay rayonu","kind":"region","name":"\u0130smay\u0131ll\u0131 rayonu - G\u00f6y\u00e7ay rayonu","sort_rank":256,"kind_detail":"4","source":"openstreetmap.org","id:left":-3764591,"name:left":"\u0130smay\u0131ll\u0131 rayonu"},"arcs":[7]},{"type":"LineString","properties":{"name:right:ja":"\u30b6\u30eb\u30c0\u30d6\u770c","name:left:ja":"\u30a4\u30df\u30b7\u30e5\u30ea\u770c","name:right:ru":"\u0417\u0435\u0440\u0434\u0430\u0431\u0441\u043a\u0438\u0439 \u0440\u0430\u0439\u043e\u043d","min_zoom":8.0,"name:left:ru":"\u0418\u043c\u0438\u0448\u043b\u0438\u043d\u0441\u043a\u0438\u0439 \u0440\u0430\u0439\u043e\u043d","id:right":-3764589,"id":-3764590,"osm_relation":true,"name:right":"Z\u0259rdab rayonu","kind":"region","name":"\u0130mi\u015fli rayonu - Z\u0259rdab rayonu","sort_rank":256,"kind_detail":"4","source":"openstreetmap.org","id:left":-3764590,"name:left":"\u0130mi\u015fli rayonu"},"arcs":[8]},{"type":"MultiLineString","properties":{"name:left":"\u0130mi\u015fli rayonu","kind":"region","name":"\u0130mi\u015fli rayonu - Beyl\u0259qan rayonu","sort_rank":256,"kind_detail":"4","name:left:ja":"\u30a4\u30df\u30b7\u30e5\u30ea\u770c","name:right:ru":"\u0411\u0435\u0439\u043b\u0430\u0433\u0430\u043d\u0441\u043a\u0438\u0439 \u0440\u0430\u0439\u043e\u043d","source":"openstreetmap.org","min_zoom":8.0,"id:left":-3764590,"name:left:ru":"\u0418\u043c\u0438\u0448\u043b\u0438\u043d\u0441\u043a\u0438\u0439 \u0440\u0430\u0439\u043e\u043d","id:right":-3764543,"id":-3764590,"osm_relation":true,"name:right":"Beyl\u0259qan rayonu"},"arcs":[[9],[10],[11]]},{"type":"LineString","properties":{"name:right:ja":"\u30a6\u30b8\u30e3\u30eb\u770c","name:left:ja":"\u30b6\u30eb\u30c0\u30d6\u770c","name:right:ru":"\u0423\u0434\u0436\u0430\u0440\u0441\u043a\u0438\u0439 \u0440\u0430\u0439\u043e\u043d","min_zoom":8.0,"name:left:ru":"\u0417\u0435\u0440\u0434\u0430\u0431\u0441\u043a\u0438\u0439 \u0440\u0430\u0439\u043e\u043d","id:right":-3764582,"id":-3764589,"osm_relation":true,"name:right":"Ucar rayonu","kind":"region","name":"Z\u0259rdab rayonu - Ucar rayonu","sort_rank":256,"kind_detail":"4","source":"openstreetmap.org","id:left":-3764589,"name:left":"Z\u0259rdab rayonu"},"arcs":[12]},{"type":"LineString","properties":{"name:left":"Z\u0259rdab rayonu","kind":"region","name":"Z\u0259rdab rayonu - Beyl\u0259qan rayonu","sort_rank":256,"kind_detail":"4","name:left:ja":"\u30b6\u30eb\u30c0\u30d6\u770c","name:right:ru":"\u0411\u0435\u0439\u043b\u0430\u0433\u0430\u043d\u0441\u043a\u0438\u0439 \u0440\u0430\u0439\u043e\u043d","source":"openstreetmap.org","min_zoom":8.0,"id:left":-3764589,"name:left:ru":"\u0417\u0435\u0440\u0434\u0430\u0431\u0441\u043a\u0438\u0439 \u0440\u0430\u0439\u043e\u043d","id:right":-3764543,"id":-3764589,"osm_relation":true,"name:right":"Beyl\u0259qan rayonu"},"arcs":[13]},{"type":"LineString","properties":{"kind":"region","name":"Z\u0259rdab rayonu","sort_rank":256,"kind_detail":"4","source":"openstreetmap.org","min_zoom":8.0,"name:ru":"\u0417\u0435\u0440\u0434\u0430\u0431\u0441\u043a\u0438\u0439 \u0440\u0430\u0439\u043e\u043d","id":-3764589,"osm_relation":true,"name:ja":"\u30b6\u30eb\u30c0\u30d6\u770c"},"arcs":[14]},{"type":"LineString","properties":{"name:right:ja":"\u30b5\u30e0\u30d5\u770c","name:left:ja":"\u30a4\u30a7\u30f4\u30e9\u30d5\u770c","name:right:ru":"\u0421\u0430\u043c\u0443\u0445\u0441\u043a\u0438\u0439 \u0440\u0430\u0439\u043e\u043d","min_zoom":8.0,"name:left:ru":"\u0415\u0432\u043b\u0430\u0445\u0441\u043a\u0438\u0439 \u0440\u0430\u0439\u043e\u043d","id:right":-3764577,"id":-3764587,"osm_relation":true,"name:right":"Samux rayonu","kind":"region","name":"Yevlax rayonu - Samux rayonu","sort_rank":256,"kind_detail":"4","source":"openstreetmap.org","id:left":-3764587,"name:left":"Yevlax rayonu"},"arcs":[15]},{"type":"LineString","properties":{"name:right:ja":"\u30ac\u30d5\u770c","name:left:ja":"\u30a4\u30a7\u30f4\u30e9\u30d5\u770c","name:right:ru":"\u041a\u0430\u0445\u0441\u043a\u0438\u0439 \u0440\u0430\u0439\u043e\u043d","min_zoom":8.0,"name:left:ru":"\u0415\u0432\u043b\u0430\u0445\u0441\u043a\u0438\u0439 \u0440\u0430\u0439\u043e\u043d","id:right":-3764566,"id":-3764587,"osm_relation":true,"name:right":"Qax rayonu","kind":"region","name":"Yevlax rayonu - Qax rayonu","sort_rank":256,"kind_detail":"4","source":"openstreetmap.org","id:left":-3764587,"name:left":"Yevlax rayonu"},"arcs":[16]},{"type":"MultiLineString","properties":{"kind":"region","name":"Yevlax rayonu","sort_rank":256,"kind_detail":"4","source":"openstreetmap.org","min_zoom":8.0,"name:ru":"\u0415\u0432\u043b\u0430\u0445\u0441\u043a\u0438\u0439 \u0440\u0430\u0439\u043e\u043d","id":-3764587,"osm_relation":true,"name:ja":"\u30a4\u30a7\u30f4\u30e9\u30d5\u770c"},"arcs":[[17],[18],[19]]},{"type":"LineString","properties":{"name:right:ja":"\u30ae\u30e7\u30a4\u30c1\u30e3\u30a4\u770c","name:left:ja":"\u30a6\u30b8\u30e3\u30eb\u770c","name:right:ru":"\u0413\u0435\u043e\u043a\u0447\u0430\u0439\u0441\u043a\u0438\u0439 \u0440\u0430\u0439\u043e\u043d","min_zoom":8.0,"name:left:ru":"\u0423\u0434\u0436\u0430\u0440\u0441\u043a\u0438\u0439 \u0440\u0430\u0439\u043e\u043d","id:right":-3764553,"id":-3764582,"osm_relation":true,"name:right":"G\u00f6y\u00e7ay rayonu","kind":"region","name":"Ucar rayonu - G\u00f6y\u00e7ay rayonu","sort_rank":256,"kind_detail":"4","source":"openstreetmap.org","id:left":-3764582,"name:left":"Ucar rayonu"},"arcs":[20]},{"type":"LineString","properties":{"kind":"region","name":"Ucar rayonu","sort_rank":256,"kind_detail":"4","source":"openstreetmap.org","min_zoom":8.0,"name:ru":"\u0423\u0434\u0436\u0430\u0440\u0441\u043a\u0438\u0439 \u0440\u0430\u0439\u043e\u043d","id":-3764582,"osm_relation":true,"name:ja":"\u30a6\u30b8\u30e3\u30eb\u770c"},"arcs":[21]},{"type":"LineString","properties":{"kind":"region","name":"Samux rayonu","sort_rank":256,"kind_detail":"4","source":"openstreetmap.org","min_zoom":8.0,"name:ru":"\u0421\u0430\u043c\u0443\u0445\u0441\u043a\u0438\u0439 \u0440\u0430\u0439\u043e\u043d","id":-3764577,"osm_relation":true,"name:ja":"\u30b5\u30e0\u30d5\u770c"},"arcs":[22]},{"type":"LineString","properties":{"name:right:ja":"\u30aa\u30b0\u30ba\u770c","name:left:ja":"\u30ac\u30d0\u30e9\u770c","name:right:ru":"\u041e\u0433\u0443\u0437\u0441\u043a\u0438\u0439 \u0440\u0430\u0439\u043e\u043d","min_zoom":8.0,"name:left:ru":"\u0413\u0430\u0431\u0430\u043b\u0438\u043d\u0441\u043a\u0438\u0439 \u0440\u0430\u0439\u043e\u043d","id:right":-3764564,"id":-3764572,"osm_relation":true,"name:right":"O\u011fuz rayonu","kind":"region","name":"Q\u0259b\u0259l\u0259 rayonu - O\u011fuz rayonu","sort_rank":256,"kind_detail":"4","source":"openstreetmap.org","id:left":-3764572,"name:left":"Q\u0259b\u0259l\u0259 rayonu"},"arcs":[23]},{"type":"LineString","properties":{"name:right:ja":"\u30ae\u30e7\u30a4\u30c1\u30e3\u30a4\u770c","name:left:ja":"\u30ac\u30d0\u30e9\u770c","name:right:ru":"\u0413\u0435\u043e\u043a\u0447\u0430\u0439\u0441\u043a\u0438\u0439 \u0440\u0430\u0439\u043e\u043d","min_zoom":8.0,"name:left:ru":"\u0413\u0430\u0431\u0430\u043b\u0438\u043d\u0441\u043a\u0438\u0439 \u0440\u0430\u0439\u043e\u043d","id:right":-3764553,"id":-3764572,"osm_relation":true,"name:right":"G\u00f6y\u00e7ay rayonu","kind":"region","name":"Q\u0259b\u0259l\u0259 rayonu - G\u00f6y\u00e7ay rayonu","sort_rank":256,"kind_detail":"4","source":"openstreetmap.org","id:left":-3764572,"name:left":"Q\u0259b\u0259l\u0259 rayonu"},"arcs":[24]},{"type":"LineString","properties":{"kind":"region","name":"Q\u0259b\u0259l\u0259 rayonu","sort_rank":256,"kind_detail":"4","source":"openstreetmap.org","min_zoom":8.0,"name:ru":"\u0413\u0430\u0431\u0430\u043b\u0438\u043d\u0441\u043a\u0438\u0439 \u0440\u0430\u0439\u043e\u043d","id":-3764572,"osm_relation":true,"name:ja":"\u30ac\u30d0\u30e9\u770c"},"arcs":[25]},{"type":"LineString","properties":{"kind":"region","name":"G\u00f6y\u00e7ay rayonu","sort_rank":256,"kind_detail":"4","source":"openstreetmap.org","min_zoom":8.0,"name:ru":"\u0413\u0435\u043e\u043a\u0447\u0430\u0439\u0441\u043a\u0438\u0439 \u0440\u0430\u0439\u043e\u043d","id":-3764553,"osm_relation":true,"name:ja":"\u30ae\u30e7\u30a4\u30c1\u30e3\u30a4\u770c"},"arcs":[26]},{"type":"MultiLineString","properties":{"kind":"region","name":"Beyl\u0259qan rayonu","sort_rank":256,"kind_detail":"4","source":"openstreetmap.org","min_zoom":8.0,"name:ru":"\u0411\u0435\u0439\u043b\u0430\u0433\u0430\u043d\u0441\u043a\u0438\u0439 \u0440\u0430\u0439\u043e\u043d","id":-3764543,"osm_relation":true},"arcs":[[27],[28]]}]},"roads":{"type":"GeometryCollection","geometries":[{"type":"LineString","properties":{"kind":"highway","network":"e-road","sort_rank":383,"kind_detail":"motorway","source":"openstreetmap.org","min_zoom":8.0,"all_networks":["e-road"],"landuse_kind":"residential","shield_text":"60","id":486311317,"all_shield_texts":["60"]},"arcs":[36]},{"type":"LineString","properties":{"kind":"major_road","sort_rank":381,"kind_detail":"trunk","source":"openstreetmap.org","min_zoom":8.0,"name:ru":"\u0415\u0432\u043b\u0430\u0445-\u0417\u0430\u0433\u0430\u0442\u0430\u043b\u0430-\u0413\u0440\u0443\u0437\u0438\u044f","ref":"M5","id":21116439},"arcs":[37]},{"type":"LineString","properties":{"kind":"major_road","name:en":"North-South highway","sort_rank":380,"kind_detail":"primary","source":"openstreetmap.org","min_zoom":8.0,"name:ru":"\u0422\u0440\u0430\u0441\u0441\u0430 \u0421\u0435\u0432\u0435\u0440-\u042e\u0433","ref":"H-H"},"arcs":[38]},{"type":"MultiLineString","properties":{"kind":"major_road","network":"e-road","sort_rank":381,"kind_detail":"trunk","source":"openstreetmap.org","min_zoom":8.0,"landuse_kind":"residential","shield_text":"60","ref":"M2"},"arcs":[[39],[40],[41],[42],[43],[44],[45],[46]]},{"type":"MultiLineString","properties":{"source":"openstreetmap.org","kind":"major_road","landuse_kind":"residential","sort_rank":380,"kind_detail":"primary","ref":"R27","min_zoom":8.0},"arcs":[[47],[48],[49]]},{"type":"LineString","properties":{"source":"openstreetmap.org","kind":"major_road","sort_rank":380,"kind_detail":"primary","ref":"R17","min_zoom":8.0,"id":266509003},"arcs":[50]},{"type":"MultiLineString","properties":{"source":"openstreetmap.org","kind":"major_road","sort_rank":381,"kind_detail":"trunk","ref":"M5","min_zoom":8.0},"arcs":[[51],[52],[53],[54],[55],[56]]},{"type":"LineString","properties":{"source":"openstreetmap.org","kind":"major_road","sort_rank":380,"kind_detail":"primary","ref":"R33","min_zoom":8.0,"id":269777982},"arcs":[57]},{"type":"LineString","properties":{"source":"openstreetmap.org","kind":"major_road","sort_rank":380,"kind_detail":"primary","ref":"M-12","min_zoom":8.0},"arcs":[58]},{"type":"LineString","properties":{"kind":"major_road","sort_rank":380,"kind_detail":"primary","source":"openstreetmap.org","min_zoom":8.0,"landuse_kind":"residential","name:ru":"\u041c\u0438\u043d\u0433\u0435\u0447\u0430\u0443\u0440\u0441\u043a\u043e\u0435 \u0448\u043e\u0441\u0441\u0435","ref":"R18"},"arcs":[59]},{"type":"MultiLineString","properties":{"kind":"major_road","network":"e-road","sort_rank":381,"kind_detail":"trunk","source":"openstreetmap.org","min_zoom":8.0,"shield_text":"60","ref":"M2"},"arcs":[[60],[61],[62],[63],[64],[65],[66],[67],[68],[69],[70],[71],[72],[73]]},{"type":"MultiLineString","properties":{"source":"openstreetmap.org","kind":"major_road","landuse_kind":"residential","sort_rank":381,"kind_detail":"trunk","ref":"R9","min_zoom":8.0},"arcs":[[74],[75]]},{"type":"MultiLineString","properties":{"source":"openstreetmap.org","kind":"major_road","network":"e-road","sort_rank":381,"kind_detail":"trunk","min_zoom":8.0,"shield_text":"60"},"arcs":[[76],[77],[78]]},{"type":"LineString","properties":{"source":"openstreetmap.org","kind":"major_road","sort_rank":381,"kind_detail":"trunk","ref":"R12","min_zoom":8.0,"id":140813082},"arcs":[79]},{"type":"LineString","properties":{"kind":"highway","network":"AsianHighway","sort_rank":383,"kind_detail":"motorway","source":"openstreetmap.org","min_zoom":8.0,"all_networks":["AsianHighway","e-road"],"shield_text":"5","ref":"M2","all_shield_texts":["5","60"]},"arcs":[80]},{"type":"MultiLineString","properties":{"sort_rank":381,"source":"openstreetmap.org","min_zoom":8.0,"kind":"major_road","kind_detail":"trunk"},"arcs":[[81],[82],[83],[84],[85],[86],[87],[88],[89],[90],[91],[92],[93],[94],[95],[96],[97],[98],[99],[100],[101],[102],[103],[104],[105],[106],[107],[108],[109],[110],[111],[112],[113],[114],[115],[116],[117],[118],[119],[120],[121],[122],[123],[124],[125],[126]]},{"type":"MultiLineString","properties":{"source":"openstreetmap.org","kind":"major_road","sort_rank":380,"kind_detail":"primary","ref":"R28","min_zoom":8.0},"arcs":[[127],[128],[129],[130]]},{"type":"MultiLineString","properties":{"source":"openstreetmap.org","kind":"major_road","sort_rank":381,"kind_detail":"trunk","ref":"M4","min_zoom":8.0},"arcs":[[131],[132],[133],[134],[135],[136],[137],[138],[139],[140],[141]]},{"type":"MultiLineString","properties":{"source":"openstreetmap.org","kind":"major_road","landuse_kind":"urban_area","sort_rank":380,"kind_detail":"primary","min_zoom":8.0},"arcs":[[142],[143],[144],[145],[146],[147],[148],[149],[150],[151],[152],[153],[154],[155],[156],[157],[158],[159],[160],[161]]},{"type":"MultiLineString","properties":{"source":"openstreetmap.org","kind":"major_road","sort_rank":381,"kind_detail":"trunk","ref":"R18","min_zoom":8.0},"arcs":[[162],[163],[164],[165]]},{"type":"LineString","properties":{"kind":"major_road","network":"e-road","sort_rank":381,"kind_detail":"trunk","source":"openstreetmap.org","min_zoom":8.0,"landuse_kind":"residential","shield_text":"60","ref":"M1","id":47289892},"arcs":[166]},{"type":"MultiLineString","properties":{"source":"openstreetmap.org","kind":"major_road","name:ru":"\u041c\u0438\u043d\u0433\u0435\u0447\u0430\u0443\u0440\u0441\u043a\u043e\u0435 \u0448\u043e\u0441\u0441\u0435","sort_rank":380,"kind_detail":"primary","ref":"R18","min_zoom":8.0},"arcs":[[167],[168]]},{"type":"LineString","properties":{"kind":"major_road","network":"e-road","sort_rank":381,"kind_detail":"trunk","source":"openstreetmap.org","min_zoom":8.0,"landuse_kind":"urban_area","shield_text":"60","ref":"M2","id":203215759},"arcs":[169]},{"type":"MultiLineString","properties":{"source":"openstreetmap.org","kind":"major_road","sort_rank":380,"kind_detail":"primary","ref":"R32","min_zoom":8.0},"arcs":[[170],[171],[172],[173],[174],[175],[176],[177],[178],[179],[180]]},{"type":"MultiLineString","properties":{"kind":"major_road","network":"e-road","sort_rank":381,"kind_detail":"trunk","source":"openstreetmap.org","min_zoom":8.0,"shield_text":"60","ref":"M 2"},"arcs":[[181],[182],[183]]},{"type":"MultiLineString","properties":{"source":"openstreetmap.org","kind":"major_road","landuse_kind":"residential","sort_rank":380,"kind_detail":"primary","is_bicycle_related":true,"min_zoom":8.0},"arcs":[[184],[185]]},{"type":"MultiLineString","properties":{"source":"openstreetmap.org","kind":"major_road","sort_rank":381,"kind_detail":"trunk","ref":"R28","min_zoom":8.0},"arcs":[[186],[187]]},{"type":"LineString","properties":{"kind":"major_road","sort_rank":380,"kind_detail":"primary","source":"openstreetmap.org","min_zoom":8.0,"name:ru":"\u0413\u044f\u043d\u0434\u0436\u0438\u043d\u0441\u043a\u0438\u0439 \u043f\u0440\u043e\u0441\u043f\u0435\u043a\u0442","ref":"R17","id":180800927},"arcs":[188]},{"type":"LineString","properties":{"source":"openstreetmap.org","kind":"major_road","name:ru":"\u041f\u0440\u043e\u0441\u043f\u0435\u043a\u0442 \u0413\u0435\u0439\u0434\u0430\u0440\u0430 \u0410\u043b\u0438\u0435\u0432\u0430","sort_rank":380,"kind_detail":"primary","min_zoom":8.0},"arcs":[189]},{"type":"MultiLineString","properties":{"sort_rank":380,"kind_detail":"primary","min_zoom":8.0,"kind":"major_road","source":"openstreetmap.org"},"arcs":[[190],[191],[192],[193],[194],[195],[196],[197],[198],[199],[200],[201],[202],[203],[204],[205],[206],[207],[208],[209],[210],[211],[212],[213],[214],[215],[216],[217],[218],[219],[220],[221],[222],[223],[224],[225],[226],[227],[228],[229],[230],[231],[232],[233],[234],[235],[236],[237],[238],[239],[240],[241],[242],[243],[244],[245],[246],[247],[248],[249],[250],[251],[252],[253],[254],[255],[256],[257],[258],[259],[260],[261],[262],[263],[264],[265],[266],[267],[268],[269],[270]]},{"type":"MultiLineString","properties":{"source":"openstreetmap.org","kind":"major_road","landuse_kind":"urban_area","sort_rank":380,"kind_detail":"primary","min_zoom":8.0,"name:ru":"\u041f\u0440\u043e\u0441\u043f\u0435\u043a\u0442 \u0413\u0435\u0439\u0434\u0430\u0440\u0430 \u0410\u043b\u0438\u0435\u0432\u0430"},"arcs":[[271],[272],[273],[274]]},{"type":"MultiLineString","properties":{"source":"openstreetmap.org","kind":"major_road","landuse_kind":"residential","sort_rank":380,"kind_detail":"primary","ref":"R 51","min_zoom":8.0},"arcs":[[275],[276],[277],[278]]},{"type":"LineString","properties":{"kind":"major_road","sort_rank":380,"kind_detail":"primary","source":"openstreetmap.org","min_zoom":8.0,"landuse_kind":"urban_area","name:ru":"\u0413\u044f\u043d\u0434\u0436\u0438\u043d\u0441\u043a\u0438\u0439 \u043f\u0440\u043e\u0441\u043f\u0435\u043a\u0442","ref":"R17","id":180800927},"arcs":[279]},{"type":"LineString","properties":{"source":"openstreetmap.org","kind":"major_road","landuse_kind":"residential","sort_rank":380,"kind_detail":"primary","ref":"R33","min_zoom":8.0},"arcs":[280]},{"type":"LineString","properties":{"kind":"major_road","network":"AsianHighway","sort_rank":381,"kind_detail":"trunk","source":"openstreetmap.org","min_zoom":8.0,"shield_text":"5","ref":"M2","id":267214427},"arcs":[281]},{"type":"LineString","properties":{"kind":"major_road","network":"e-road","sort_rank":381,"kind_detail":"trunk","source":"openstreetmap.org","min_zoom":8.0,"landuse_kind":"urban_area","shield_text":"60","id":268843397},"arcs":[282]},{"type":"MultiLineString","properties":{"source":"openstreetmap.org","kind":"major_road","sort_rank":380,"kind_detail":"primary","ref":"R13","min_zoom":8.0},"arcs":[[283],[284]]},{"type":"LineString","properties":{"kind":"major_road","network":"AsianHighway","sort_rank":381,"kind_detail":"trunk","source":"openstreetmap.org","min_zoom":8.0,"landuse_kind":"residential","shield_text":"5","ref":"M2","id":267214427},"arcs":[285]},{"type":"LineString","properties":{"kind":"major_road","sort_rank":381,"landuse_kind":"residential","source":"openstreetmap.org","min_zoom":8.0,"kind_detail":"trunk","ref":"R12","id":140813082},"arcs":[286]},{"type":"MultiLineString","properties":{"source":"openstreetmap.org","kind":"major_road","landuse_kind":"residential","sort_rank":380,"kind_detail":"primary","ref":"R32","min_zoom":8.0},"arcs":[[287],[288],[289],[290],[291],[292],[293]]},{"type":"MultiLineString","properties":{"source":"openstreetmap.org","kind":"major_road","landuse_kind":"residential","sort_rank":381,"kind_detail":"trunk","ref":"M4","min_zoom":8.0},"arcs":[[294],[295],[296],[297]]},{"type":"MultiLineString","properties":{"source":"openstreetmap.org","kind":"major_road","landuse_kind":"residential","sort_rank":380,"kind_detail":"primary","min_zoom":8.0},"arcs":[[298],[299],[300],[301],[302],[303],[304],[305],[306],[307],[308],[309],[310],[311],[312],[313],[314],[315],[316],[317],[318],[319],[320],[321],[322],[323],[324],[325],[326],[327],[328],[329],[330],[331],[332],[333],[334],[335],[336],[337],[338],[339],[340],[341],[342],[343],[344],[345],[346],[347],[348],[349],[350],[351],[352],[353],[354],[355],[356],[357],[358],[359],[360],[361],[362],[363],[364],[365],[366],[367],[368],[369],[370],[371],[372],[373],[374],[375],[376],[377],[378],[379],[380],[381],[382],[383],[384],[385],[386],[387],[388],[389],[390],[391],[392],[393],[394],[395],[396],[397],[398],[399],[400],[401],[402],[403],[404],[405],[406],[407],[408],[409],[410],[411]]},{"type":"LineString","properties":{"kind":"highway","network":"e-road","sort_rank":383,"kind_detail":"motorway","source":"openstreetmap.org","min_zoom":8.0,"all_networks":["e-road"],"shield_text":"60","id":486311317,"all_shield_texts":["60"]},"arcs":[412]},{"type":"MultiLineString","properties":{"source":"openstreetmap.org","kind":"major_road","sort_rank":380,"kind_detail":"primary","ref":"R27","min_zoom":8.0,"id":391707799},"arcs":[[413],[414],[415]]},{"type":"MultiLineString","properties":{"kind":"major_road","network":"e-road","sort_rank":381,"kind_detail":"trunk","source":"openstreetmap.org","min_zoom":8.0,"shield_text":"60","ref":"M-2"},"arcs":[[416],[417],[418],[419],[420],[421]]},{"type":"LineString","properties":{"kind":"major_road","sort_rank":380,"landuse_kind":"urban_area","source":"openstreetmap.org","min_zoom":8.0,"kind_detail":"primary","ref":"R32","id":270299432},"arcs":[422]},{"type":"LineString","properties":{"kind":"major_road","sort_rank":380,"kind_detail":"primary","source":"openstreetmap.org","min_zoom":8.0,"landuse_kind":"residential","name:ru":"\u041c\u0438\u043d\u0433\u0435\u0447\u0430\u0443\u0440\u0441\u043a\u043e\u0435 \u0448\u043e\u0441\u0441\u0435","ref":"R17","id":363111535},"arcs":[423]},{"type":"LineString","properties":{"kind":"highway","network":"e-road","sort_rank":383,"kind_detail":"motorway","source":"openstreetmap.org","min_zoom":8.0,"all_networks":["e-road"],"shield_text":"60","ref":"M2","id":267214426,"all_shield_texts":["60"]},"arcs":[424]},{"type":"LineString","properties":{"kind":"major_road","name:en":"North-South highway","sort_rank":380,"kind_detail":"primary","source":"openstreetmap.org","min_zoom":8.0,"name:ru":"\u0428\u043e\u0441\u0441\u0435 \u0421\u0435\u0432\u0435\u0440-\u042e\u0433","ref":"M-11","id":79288774},"arcs":[425]},{"type":"LineString","properties":{"source":"openstreetmap.org","kind":"major_road","kind_detail":"primary","sort_rank":380,"name:ru":"\u041c\u0438\u043d\u0433\u0435\u0447\u0430\u0443\u0440\u0441\u043a\u043e\u0435 \u0448\u043e\u0441\u0441\u0435","min_zoom":8.0,"id":339297850},"arcs":[426]},{"type":"LineString","properties":{"kind":"major_road","network":"e-road","sort_rank":381,"kind_detail":"trunk","source":"openstreetmap.org","min_zoom":8.0,"shield_text":"60","ref":"M1","id":47289892},"arcs":[427]},{"type":"MultiLineString","properties":{"source":"openstreetmap.org","kind":"major_road","sort_rank":381,"kind_detail":"trunk","ref":"R9","min_zoom":8.0},"arcs":[[428],[429],[430],[431],[432],[433]]},{"type":"LineString","properties":{"kind":"highway","network":"AsianHighway","sort_rank":383,"kind_detail":"motorway","source":"openstreetmap.org","min_zoom":8.0,"all_networks":["AsianHighway","e-road"],"landuse_kind":"residential","shield_text":"5","ref":"M2","id":513096155,"all_shield_texts":["5","60"]},"arcs":[434]},{"type":"MultiLineString","properties":{"source":"openstreetmap.org","kind":"major_road","landuse_kind":"residential","sort_rank":380,"kind_detail":"primary","ref":"R13","min_zoom":8.0},"arcs":[[435],[436],[437]]},{"type":"MultiLineString","properties":{"kind":"major_road","name:en":"North-South highway","sort_rank":380,"kind_detail":"primary","source":"openstreetmap.org","min_zoom":8.0,"name:ru":"\u0428\u043e\u0441\u0441\u0435 \u0421\u0435\u0432\u0435\u0440-\u042e\u0433","ref":"H-H"},"arcs":[[438],[439]]},{"type":"MultiLineString","properties":{"source":"openstreetmap.org","kind":"major_road","sort_rank":380,"kind_detail":"primary","ref":"R 51","min_zoom":8.0},"arcs":[[440],[441],[442],[443],[444],[445],[446],[447]]},{"type":"MultiLineString","properties":{"source":"openstreetmap.org","kind":"major_road","landuse_kind":"urban_area","sort_rank":380,"kind_detail":"primary","ref":"R28","min_zoom":8.0},"arcs":[[448],[449]]},{"type":"MultiLineString","properties":{"kind":"major_road","network":"e-road","sort_rank":381,"kind_detail":"trunk","source":"openstreetmap.org","min_zoom":8.0,"landuse_kind":"residential","shield_text":"60"},"arcs":[[450],[451],[452],[453]]},{"type":"MultiLineString","properties":{"source":"openstreetmap.org","kind":"major_road","landuse_kind":"residential","sort_rank":381,"kind_detail":"trunk","min_zoom":8.0},"arcs":[[454],[455],[456],[457],[458],[459],[460],[461],[462],[463],[464],[465],[466],[467],[468],[469],[470],[471],[472],[473],[474],[475],[476]]},{"type":"LineString","properties":{"kind":"major_road","sort_rank":381,"landuse_kind":"residential","source":"openstreetmap.org","min_zoom":8.0,"kind_detail":"trunk","ref":"R28","id":203214539},"arcs":[477]},{"type":"LineString","properties":{"kind":"major_road","name:en":"Vardenis - Martakert highway","sort_rank":380,"kind_detail":"primary","source":"openstreetmap.org","min_zoom":8.0,"name:ru":"\u0412\u0430\u0440\u0434\u0435\u043d\u0438\u0441 - \u041c\u0430\u0440\u0442\u0430\u043a\u0435\u0440\u0442 \u0448\u043e\u0441\u0441\u0435","ref":"M-11"},"arcs":[478]},{"type":"MultiLineString","properties":{"source":"openstreetmap.org","kind":"major_road","landuse_kind":"urban_area","sort_rank":380,"kind_detail":"primary","min_zoom":8.0,"name:ru":"\u0413\u044f\u043d\u0434\u0436\u0438\u043d\u0441\u043a\u0438\u0439 \u043f\u0440\u043e\u0441\u043f\u0435\u043a\u0442"},"arcs":[[479],[480],[481],[482]]},{"type":"LineString","properties":{"kind":"major_road","name:en":"Vardenis - Martakert highway","sort_rank":380,"kind_detail":"primary","source":"openstreetmap.org","min_zoom":8.0,"name:ru":"\u0412\u0430\u0440\u0434\u0435\u043d\u0438\u0441 - \u041c\u0430\u0440\u0442\u0430\u043a\u0435\u0440\u0442 \u0448\u043e\u0441\u0441\u0435","id":349318265},"arcs":[483]},{"type":"LineString","properties":{"source":"openstreetmap.org","kind":"major_road","sort_rank":380,"kind_detail":"primary","is_bicycle_related":true,"min_zoom":8.0,"id":248111370},"arcs":[484]}]},"earth":{"type":"GeometryCollection","geometries":[{"type":"Polygon","properties":{"sort_rank":10,"source":"naturalearthdata.com","kind":"earth","min_zoom":0.0,"id":4743},"arcs":[[485]]}]},"landuse":{"type":"GeometryCollection","geometries":[{"type":"Polygon","properties":{"kind":"residential","int_name":"Terter","name":"T\u0259rt\u0259r","area":14113800,"sort_rank":20,"source":"openstreetmap.org","min_zoom":8.0,"tier":2,"name:ru":"\u0422\u0435\u0440\u0442\u0435\u0440","id":344800548},"arcs":[[486]]},{"type":"Polygon","properties":{"kind":"residential","name":"Goycay","area":16149000,"sort_rank":20,"source":"openstreetmap.org","min_zoom":8.0,"tier":2,"id":164689818},"arcs":[[487]]},{"type":"MultiPolygon","properties":{"kind":"residential","name":"K\u00fc\u00e7\u0259k\u0259nd","area":11588000,"sort_rank":20,"source":"openstreetmap.org","min_zoom":8.0,"tier":2,"id":279505621},"arcs":[[[488]],[[489]]]},{"type":"Polygon","properties":{"kind":"residential","name":"L\u0259ki","area":12930000,"sort_rank":20,"source":"openstreetmap.org","min_zoom":8.0,"tier":2,"name:ru":"\u041b\u044f\u0447\u0438","id":276541103},"arcs":[[490]]},{"type":"Polygon","properties":{"kind":"residential","name":"Qazyan","area":33693100,"sort_rank":20,"source":"openstreetmap.org","min_zoom":8.0,"tier":2,"id":279418648},"arcs":[[491]]},{"type":"MultiPolygon","properties":{"kind":"residential","name:en":"Ganja","name":"G\u0259nc\u0259","area":193823008,"sort_rank":20,"id":280690654,"name:ar":"\u0643\u0646\u062c\u0647","name:de":"Gandscha","source":"openstreetmap.org","min_zoom":6.0,"int_name":"Ganja","tier":2,"name:ru":"\u0413\u044f\u043d\u0434\u0436\u0430","old_name:de":"Kirowabad"},"arcs":[[[492]],[[493]]]},{"type":"Polygon","properties":{"kind":"residential","name":"Nic","area":34553300,"sort_rank":20,"source":"openstreetmap.org","min_zoom":8.0,"tier":2,"id":273653899},"arcs":[[494]]},{"type":"Polygon","properties":{"kind":"residential","int_name":"Ujar","name":"Ucar","area":22770300,"sort_rank":20,"source":"openstreetmap.org","min_zoom":8.0,"tier":2,"name:ru":"\u0423\u0434\u0436\u0430\u0440","id":279424923},"arcs":[[495]]},{"type":"Polygon","properties":{"kind":"residential","name:en":"Aghjabadi","name":"A\u011fcab\u0259di","area":31917100,"sort_rank":20,"source":"openstreetmap.org","min_zoom":8.0,"tier":2,"name:ru":"\u0410\u0433\u0434\u0436\u0430\u0431\u0435\u0434\u0438","id":276561221,"name:ja":"\u30a2\u30b0\u30b8\u30e3\u30d0\u30c7\u30a3"},"arcs":[[496]]},{"type":"Polygon","properties":{"kind":"residential","name":"Yxar\u0131 L\u0259ki","area":16242500,"sort_rank":20,"source":"openstreetmap.org","min_zoom":8.0,"tier":2,"name:ru":"\u042e\u0445\u0430\u0440\u044b \u041b\u044f\u043a\u0438","id":278812876},"arcs":[[497]]},{"type":"Polygon","properties":{"kind":"residential","name":"Azad Qaraqoyunlu","area":11730600,"sort_rank":20,"source":"openstreetmap.org","min_zoom":8.0,"tier":2,"id":291113934},"arcs":[[498]]},{"type":"Polygon","properties":{"kind":"residential","name":"Ba\u011fman","area":10622000,"sort_rank":20,"source":"openstreetmap.org","min_zoom":8.0,"tier":2,"id":278833570},"arcs":[[499]]},{"type":"Polygon","properties":{"kind":"residential","name":"L\u0259k","area":15483000,"sort_rank":20,"source":"openstreetmap.org","min_zoom":8.0,"tier":2,"id":279413623},"arcs":[[500]]},{"type":"MultiPolygon","properties":{"source":"openstreetmap.org","kind":"military","tier":3,"area":78311405,"sort_rank":45,"min_zoom":8.0},"arcs":[[[501]]]},{"type":"MultiPolygon","properties":{"source":"naturalearthdata.com","kind":"urban_area","name":"","area":917174801,"sort_rank":11,"min_zoom":4.0},"arcs":[[[502]],[[503]],[[504]],[[505]],[[506]],[[507]],[[508]]]},{"type":"Polygon","properties":{"kind":"residential","name:en":"Zardab","name":"Z\u0259rdab","area":10336700,"sort_rank":20,"source":"openstreetmap.org","min_zoom":8.0,"int_name":"Zardab","tier":2,"name:ru":"\u0417\u0430\u0440\u0434\u043e\u0431","id":279427891},"arcs":[[509]]},{"type":"Polygon","properties":{"kind":"residential","name":"Goranboy","area":10443700,"sort_rank":20,"source":"openstreetmap.org","min_zoom":8.0,"tier":2,"name:ru":"\u0413\u0435\u0440\u0430\u043d\u0431\u043e\u0439","id":280497150},"arcs":[[510]]},{"type":"Polygon","properties":{"kind":"residential","int_name":"Yevlakh","name":"Yevlax","area":28167600,"sort_rank":20,"source":"openstreetmap.org","min_zoom":8.0,"tier":2,"name:ru":"\u0415\u0432\u043b\u0430\u0445","id":180860551,"name:ja":"\u30a4\u30a7\u30f4\u30e9\u30d5"},"arcs":[[511]]},{"type":"Polygon","properties":{"kind":"residential","int_name":"Barda","name":"B\u0259rd\u0259","area":18668100,"sort_rank":20,"source":"openstreetmap.org","min_zoom":8.0,"name:uk":"\u0411\u0430\u0440\u0434\u0430","tier":2,"name:ru":"\u0411\u0430\u0440\u0434\u0430","id":281586688},"arcs":[[512]]},{"type":"Polygon","properties":{"kind":"residential","name:en":"Aghdash","name":"A\u011fda\u015f","area":22156400,"sort_rank":20,"source":"openstreetmap.org","min_zoom":8.0,"int_name":"Aghdash","tier":2,"name:ru":"\u0410\u0433\u0434\u0430\u0448","id":284266159,"name:ja":"\u30a2\u30b0\u30c0\u30b7\u30e5"},"arcs":[[513]]},{"type":"Polygon","properties":{"kind":"residential","name":"Boyat","area":10206600,"sort_rank":20,"source":"openstreetmap.org","min_zoom":8.0,"tier":2,"id":266324758},"arcs":[[514]]},{"type":"Polygon","properties":{"kind":"residential","name":"Yuxar\u0131 \u015eilyan","area":11994200,"sort_rank":20,"source":"openstreetmap.org","min_zoom":8.0,"tier":2,"id":278829704},"arcs":[[515]]},{"type":"MultiPolygon","properties":{"source":"openstreetmap.org","kind":"residential","tier":2,"area":333616194,"sort_rank":20,"min_zoom":8.0},"arcs":[[[516]],[[517]],[[518]],[[519]],[[520]],[[521]]]}]}},"type":"Topology","transform":{"translate":[46.40625,39.9097362345],"scale":[0.0003433228,0.00026127]},"arcs":[[[1625,3858],[88,10],[321,-142],[67,-53],[86,-128],[86,-37],[64,33],[46,-45],[124,-17],[122,-69]],[[3489,3391],[-2,55]],[[1628,4096],[-3,-238]],[[2842,4096],[-35,-29],[-42,29]],[[3487,3446],[-75,29],[-34,90],[-163,41],[-312,253],[-26,38],[11,122],[-46,-8],[-5,53],[32,32]],[[2629,3410],[367,-110],[13,93],[65,-31],[51,-73],[106,15],[45,-19],[-16,50],[18,19],[160,55],[51,-18]],[[4096,3206],[-123,-156],[-21,-66]],[[3952,2984],[79,-56],[65,34]],[[4096,739],[-47,25],[7,-45]],[[4056,719],[-62,-15],[55,-172],[47,-4]],[[4096,53],[-64,34],[-57,-87]],[[4096,397],[0,-66]],[[4096,1530],[-109,17],[-77,84],[-171,-63],[-342,239],[-39,41],[19,49],[-104,59],[-22,-7],[-15,-106]],[[3963,886],[70,-15],[-41,-62],[74,33],[-53,-104],[43,-19]],[[3236,1843],[-17,-62],[-47,-13],[-99,-128],[-68,-188],[80,21],[15,-81],[100,63],[9,-39],[-120,-94],[92,-3],[-53,-35],[-1,-28],[28,19],[48,-82],[-20,-57],[65,-36],[36,-73],[-22,-57],[18,-16],[50,50],[125,19],[79,-36],[39,39],[33,-2],[18,27],[-45,1],[-6,21],[47,13],[71,-72],[24,33],[42,-11],[-11,27],[54,85],[67,-152],[79,-22],[-17,57],[62,-57],[-27,-47],[32,-17],[-33,-24]],[[1088,4096],[-147,-134]],[[1625,3858],[-381,238]],[[941,3962],[191,-102],[-71,-118],[-39,-294],[21,-98],[-122,-54],[15,-35],[244,-115],[113,21],[4,-25],[-63,-24],[-3,-136],[-109,-8],[-44,-63],[66,-128],[52,39],[10,72],[150,65],[39,-39],[-48,-89],[199,-27],[22,-43],[-21,-40],[-79,20],[-54,-28],[12,-106],[43,-66],[-6,-77],[-38,-24],[35,-58],[249,41],[-32,-154],[-70,-121],[28,-40],[-17,-54],[141,42],[92,63],[-9,49],[-48,13],[32,33],[170,-34],[-3,-53],[59,-70],[56,34],[15,145],[129,101],[36,76],[49,0],[52,70],[2,57],[116,24],[40,165],[-144,35],[45,76],[3,77],[93,139],[85,314]],[[1346,3481],[116,214],[562,-238],[38,-205],[-28,-44],[-47,33],[-45,-40],[-182,-6],[-51,6],[1,30],[-63,16],[-31,-1],[-17,-33],[7,38],[-260,230]],[[2042,2653],[4,105],[178,12],[41,-40],[-45,-119],[-47,-19],[-131,61]],[[4096,2215],[-36,22],[-15,52],[-202,71],[-50,63],[-181,-18],[-44,-61],[-55,100],[-38,-1],[-11,51]],[[3464,2494],[-43,40],[-43,-20],[-3,-69],[-137,15],[-91,-91],[-9,-70],[-65,-31],[31,-68],[-20,-91],[-53,-28],[-19,-52],[72,-114],[99,-81],[53,9]],[[0,3112],[53,-62],[110,-20],[-5,-42],[101,-16],[41,39],[4,46],[-78,109],[17,32],[112,52],[78,92],[-14,22],[43,39],[-62,35],[24,63],[517,461]],[[3623,4096],[-138,-193],[-41,-132],[43,-325]],[[3560,2895],[51,25],[179,7],[12,63],[150,-6]],[[3489,3391],[-6,-130],[-95,-75],[-75,-116],[22,-55],[140,-119],[85,-1]],[[3560,2895],[4,-241],[-25,-142],[-75,-18]],[[3963,886],[-177,-153],[-31,-182],[18,-187],[-28,-160],[-83,-204]],[[3485,0],[-39,26],[-68,-26]],[[0,3072],[13,-2],[11,-4],[52,-39],[123,-11]],[[26,3064],[35,-29],[7,-4],[8,-4],[53,-10],[8,0],[370,-5],[60,-2],[227,-102],[403,-34],[1089,-161],[41,-35],[14,-7],[474,-136],[394,-203],[10,-4],[45,-6]],[[2315,2689],[494,-152],[112,-47],[28,-12],[270,-149],[599,-44],[278,-85]],[[1558,3527],[-128,67],[-815,222],[-472,-37],[-130,-40],[-13,0],[0,163],[234,40],[108,136],[-20,18],[522,0],[75,-62],[516,-227],[123,-95],[17,-19],[13,-21],[20,-21],[29,-20],[106,-24],[72,-42],[282,-89],[49,-31],[35,-50],[13,-91],[-29,6],[-188,89],[-78,-3],[-107,-65],[-65,-15],[-20,14],[-22,35],[-18,41],[-8,30],[-12,21],[-29,27],[-60,43]],[[1558,3527],[-128,67],[-815,222],[-472,-37],[-130,-40],[-13,0]],[[0,3902],[234,40],[108,136],[-20,18]],[[844,4096],[75,-62],[516,-227],[123,-95],[17,-19],[13,-21],[20,-21],[29,-20],[106,-24],[72,-42],[282,-89],[49,-31],[35,-50],[13,-91],[-29,6],[-188,89],[-78,-3],[-107,-65],[-65,-15],[-20,14],[-22,35],[-18,41],[-8,30],[-12,21],[-29,27],[-60,43]],[[4086,2183],[-15,5]],[[2171,3946],[-72,150]],[[984,11],[0,2]],[[1657,2770],[62,-8]],[[1719,2762],[-62,9]],[[2149,2640],[-87,22]],[[2218,2625],[-67,14]],[[2901,2434],[140,-59]],[[3507,2243],[3,0]],[[3572,2238]],[[3615,2238],[64,3]],[[1944,1339],[-86,43]],[[1996,1309],[-16,13]],[[2281,594],[25,62]],[[2318,3124],[-133,15],[-166,80]],[[2171,3946],[197,-351],[-92,-143],[-18,-126],[62,-98],[2,-102]],[[2381,3043],[-16,-246],[-79,-87]],[[2326,3120],[52,-68]],[[2378,3052],[3,-9]],[[2381,3049],[-3,3]],[[2381,3043],[3,6]],[[2397,594],[318,-23]],[[1158,0],[186,254]],[[1742,2790],[-38,-28]],[[225,2975],[333,-6],[123,-83],[140,-79],[393,22]],[[679,2888],[-120,81],[-333,8]],[[1214,2829],[-393,-22]],[[1630,2774],[27,-4]],[[1657,2771],[-27,4]],[[1719,2762],[259,-35]],[[2043,2678],[-63,49],[-261,35]],[[2227,2624],[96,-13]],[[2323,2611],[23,-3]],[[2346,2608],[218,-30],[337,-144]],[[3041,2375],[286,-111],[180,-21]],[[3510,2243],[62,-5]],[[3572,2238],[43,0]],[[3679,2241],[151,-2]],[[3722,3956],[-16,33]],[[3729,3951],[-5,3]],[[681,2886],[-2,2]],[[1978,2727],[66,-52]],[[2218,2624],[18,-2]],[[4036,2267],[-65,184],[-35,330]],[[4086,2182],[10,-4]],[[2137,2506],[0,-1]],[[2220,1856],[-54,110]],[[2286,2710],[44,-105]],[[2323,3124],[-2,0]],[[2321,3122],[5,-2],[-3,4]],[[2321,3124],[0,-1],[2,0],[0,1]],[[2367,3063],[4,-5]],[[2384,3049],[-4,-1]],[[2381,3045],[2,0]],[[2726,567],[-1,1],[2,-2],[-1,1]],[[2944,503],[10,-7]],[[2988,471],[162,-177],[34,-93]],[[3154,4062],[1,0],[-2,0],[1,0]],[[3962,3705],[-43,-86],[-388,-253],[-336,-510]],[[3870,2796],[-2,0],[1,-1]],[[3870,2795],[1,0],[-1,0]],[[3962,3705],[2,6]],[[3964,3711],[0,1]],[[3964,3712],[2,5]],[[4007,3781],[-41,-64]],[[4007,3781],[4,4]],[[4011,3785],[1,1]],[[4012,3786],[4,5]],[[4012,3785],[-1,0]],[[4011,3785]],[[4012,3786]],[[4012,3786],[1,0]],[[4065,3893],[-49,-102]],[[4065,3893],[3,6]],[[4066,3899]],[[4066,3899],[0,-1]],[[4066,3898],[-1,-5]],[[4066,3899],[-1,0]],[[4065,3899],[1,-1]],[[4066,3898]],[[4065,3899],[1,0]],[[4066,3899],[1,-1]],[[4067,3898],[1,1],[0,1],[-2,-1]],[[4066,3899],[1,-1]],[[2726,567]],[[3154,4062]],[[3869,2795],[1,0],[0,1],[-1,-1]],[[3913,2781],[-1,0],[1,-1],[0,1]],[[3964,3712]],[[3964,3712],[0,-1]],[[3964,3711],[1,0],[-1,1]],[[2096,2095],[-17,-175]],[[2079,1920],[1,-6]],[[2081,1914],[-2,6]],[[2097,2108],[-1,-11]],[[2389,3048],[-5,1]],[[2384,3046],[5,2]],[[3066,2769],[-83,54],[-83,8],[-62,71],[-117,61],[-332,85]],[[3118,2758],[17,10]],[[3868,2796],[-72,37],[-165,23],[-231,-89],[-203,37]],[[3911,2781],[-40,14]],[[3912,2781],[-1,0]],[[3911,2781],[2,-1]],[[3913,2780],[2,-1]],[[3915,2779],[-2,2]],[[4096,2793],[-181,-14]],[[1840,3297],[-6,-1]],[[1841,3298],[-1,-1]],[[1840,3297],[1,0]],[[1866,3301],[-24,-3]],[[1842,3297],[24,4]],[[2037,1797],[17,3]],[[2082,1904],[0,-3],[1,-1]],[[2083,1900],[0,-1]],[[2083,1899],[-1,5]],[[2082,1899],[1,1]],[[2083,1900],[0,1]],[[2105,1856],[-22,43]],[[2130,1719],[-6,4]],[[2154,1838],[-16,-6]],[[1770,3284],[0,1],[0,-1]],[[1814,3292],[-1,0],[0,-1],[1,0],[0,1]],[[1830,3296],[-2,1],[-1,-1],[1,-1],[2,1]],[[1842,3298],[-1,-1],[1,0],[0,1]],[[1876,3294],[0,1],[0,-1]],[[1937,3254]],[[2166,1966],[-69,142]],[[2725,568],[-84,172],[-198,214],[-113,409],[-63,105],[13,106],[-60,282]],[[2727,566],[86,-117],[131,54]],[[3349,0],[-49,39],[-23,65],[-93,97]],[[2218,2625]],[[1714,3233],[-4,-47],[45,-111]],[[1755,3075],[19,-261],[-32,-24]],[[2062,2662],[-19,16]],[[2728,568],[206,-12]],[[2935,556],[43,-8]],[[3229,736],[-82,-99]],[[3316,890],[-85,-152]],[[3780,1209],[-166,-52],[-203,46],[-14,-85],[-70,-62],[34,-57]],[[3666,2231],[10,-120]],[[3700,1850],[8,-93]],[[3708,1556],[50,-82],[23,-193]],[[3708,1756],[1,-9]],[[3724,1625],[7,-47],[-22,-21]],[[3710,1745],[14,-118]],[[821,2807],[-140,79]],[[1214,2829],[416,-55]],[[1630,2775],[-416,54]],[[3000,2544],[-22,-57],[-34,-7],[16,-72]],[[3084,2757],[-7,-17]],[[2137,2505],[-40,-397]],[[2146,2601],[-9,-95]],[[1750,3265],[-36,-32]],[[1963,3243],[56,-24],[-56,24]],[[203,2980],[-3,0]],[[200,2980],[3,0]],[[231,2983],[2,-1]],[[233,2983],[-2,0]],[[1212,1180],[-64,-21],[-95,92],[-3,51],[-80,-33],[-27,-47],[-86,12],[-103,-83],[3,-29],[-24,6],[9,-35],[-22,-3],[-11,-55]],[[784,2811],[5,-10]],[[789,2801],[14,1]],[[807,2807],[-18,-6]],[[789,2801],[18,-62],[155,-172],[105,71]],[[803,2802],[14,4]],[[803,2802],[2,2]],[[805,2804],[1,1],[1,2]],[[803,2806],[2,-2]],[[805,2804]],[[1074,2643],[0,-1]],[[1283,2553],[-111,103]],[[1271,2821],[-92,-96]],[[1227,1185],[-15,-5]],[[1212,1180],[30,14]],[[1242,1194],[-15,-9]],[[1344,254],[56,164],[78,60],[-16,135],[-260,472],[25,100]],[[1231,1186]],[[1275,2351],[-39,-82]],[[1236,2269],[39,82]],[[1298,1278],[-56,-84]],[[1275,2351],[28,163]],[[1284,2553],[-1,0]],[[1283,2553],[1,-1]],[[1285,2554],[10,252]],[[1285,2554],[0,-1]],[[1285,2553],[0,1]],[[1285,2552],[2,-2]],[[1287,2550],[-2,2]],[[1303,2519],[-16,31]],[[1295,2810],[0,-4]],[[1295,2810],[2,19]],[[1297,2829],[0,2],[-1,0],[1,-2]],[[1303,2514],[1,2]],[[1303,2517],[0,-3]],[[1303,2519],[0,-2]],[[1304,2517],[-1,2]],[[1304,2516],[1,-1]],[[1304,2517],[-1,0]],[[1303,2517],[0,-1],[1,0],[0,1]],[[1305,2515],[-1,2]],[[1411,2312],[-106,203]],[[1441,2281],[-20,22]],[[1543,1711],[-9,102],[55,193],[-26,39],[20,88],[-88,92]],[[1670,1553],[-73,68]],[[1602,1673],[3,7]],[[1607,1683],[42,-7],[137,77],[251,44]],[[2102,1681],[5,-108],[-94,-194]],[[2096,2097],[0,-2]],[[2260,1644],[-130,75]],[[2144,2579],[-2,0]],[[2214,1863],[-60,-25]],[[2215,1861],[1,1]],[[2261,1637],[-12,8]],[[2321,3124],[0,-2]],[[2365,3575],[3,3]],[[2366,3579],[133,113],[9,-31],[171,-16],[165,154],[223,94],[87,167]],[[2715,571],[2,2]],[[2726,567]],[[2934,556],[1,0]],[[3001,461],[4,1]],[[3154,4060],[0,2]],[[3154,4062],[0,-2]],[[3228,736],[-42,36]],[[3231,738],[-2,-2]],[[3361,999],[-45,-109]],[[3573,2237],[0,2]],[[3709,1557],[-1,-1]],[[3709,1747],[1,-2]],[[3724,1627],[0,-2]],[[3824,2705],[1,1]],[[3853,1170],[172,-146],[38,-125],[33,-24]],[[3869,2795],[1,0]],[[1236,2269]],[[1285,2553]],[[1285,2553],[-1,-1]],[[1284,2552],[1,0],[0,1]],[[1937,3254],[-71,47]],[[1866,3301],[71,-47]],[[1937,3254],[26,-11]],[[1963,3243],[-26,11]],[[75,2968],[-75,-2]],[[0,2965],[75,2]],[[78,2967],[23,1]],[[100,2970],[-22,-2]],[[1769,3283],[-19,-18]],[[2281,594],[116,0]],[[3833,2239],[202,-43]],[[2044,2675],[19,-14]],[[3623,2376],[33,97],[69,53],[99,179]],[[3825,2706],[44,88]],[[4035,2196],[36,-8]],[[4038,2198],[16,21],[-18,48]],[[2978,548],[86,-16]],[[3100,582],[-31,-26]],[[3665,2239],[1,-8]],[[3676,2111],[24,-261]],[[3708,1757],[0,-1]],[[3787,1220],[-7,-11]],[[3781,1281],[6,-48]],[[3083,2758],[-17,11]],[[3085,2758],[33,0]],[[3135,2768],[34,41]],[[3197,2804],[-27,6]],[[75,2967],[3,0]],[[78,2968],[-3,0]],[[83,2967],[2,0]],[[1074,2642],[27,15]],[[1101,2658],[-27,-15]],[[1162,2663],[-60,-6]],[[1154,2699],[-1,-1]],[[1153,2697],[1,0]],[[1154,2698],[0,1]],[[1154,2697],[0,1]],[[1179,2725],[-25,-26]],[[1154,2697],[9,-32]],[[1163,2664],[-1,-1]],[[1162,2663],[1,0]],[[1163,2665],[0,-1]],[[1164,2664],[-1,1]],[[1163,2663],[2,-1]],[[1164,2664],[-1,0]],[[1163,2664],[0,-1]],[[1163,2663],[1,0],[0,1]],[[1165,2662],[-1,1]],[[1172,2656],[-7,6]],[[1421,2303],[-10,9]],[[1495,2225],[-54,56]],[[1544,1698],[-2,-3]],[[1544,1698],[-1,13]],[[1544,1693],[3,0]],[[1545,1695],[-1,3]],[[1547,1693],[-2,2]],[[1547,1693],[60,-10]],[[1580,1635],[2,1]],[[1582,1636],[-2,1]],[[1597,1621],[-15,15]],[[1585,1634],[17,39]],[[2013,1379],[-29,-59]],[[2054,1800],[42,-13]],[[2097,1787],[-1,0]],[[2096,1787],[1,-1]],[[2097,1786],[1,-2]],[[2098,1784],[0,2]],[[2098,1784],[1,-12]],[[2098,1784],[2,2]],[[2098,1786],[2,0]],[[2100,1786],[-2,1]],[[2099,1772],[0,-4]],[[2099,1768],[3,-87]],[[2100,1786],[20,-1],[2,38]],[[2104,1735],[-3,2]],[[2101,1735],[1,0]],[[2101,1734],[3,1]],[[2124,1723],[-20,12]],[[2120,1827],[-15,29]],[[2121,1825]],[[2121,1825],[0,-1]],[[2121,1824],[1,-1]],[[2122,1825],[-1,0]],[[2122,1823],[0,2]],[[2138,1832],[-16,-7]],[[2285,598],[6,-4]],[[2289,594],[0,1]],[[3005,462],[41,4]],[[3046,466],[2,1]],[[3047,467],[-1,-1]],[[3049,469],[-1,-1]],[[3048,467],[1,2]],[[3049,469],[0,30]],[[3049,499],[1,3]],[[3050,502],[5,1]],[[3059,546],[-5,-12]],[[3056,503]],[[3056,503],[-1,0]],[[3055,503],[1,1]],[[3056,504],[0,-1]],[[3056,503],[0,-1]],[[3056,504],[9,27]],[[3059,546],[6,1]],[[3069,554],[-10,-8]],[[3065,531],[0,1]],[[3066,533],[-1,-2]],[[3065,532],[1,1]],[[3066,545],[1,2]],[[3069,538],[-3,7]],[[3066,533],[3,3]],[[3067,547],[2,7]],[[3068,554],[1,0]],[[3069,536],[0,1]],[[3069,538],[0,-2]],[[3069,537],[0,1]],[[3084,2758]],[[3571,2293],[0,2]],[[3573,2239],[-2,51]],[[3620,2367],[2,5]],[[3787,1231],[0,2]],[[3787,1231],[1,-8]],[[3791,1223],[-4,8]],[[3788,1223],[-1,-3],[2,2]],[[3789,1222],[2,1]],[[3791,1223],[62,-53]],[[1101,2657],[0,1],[0,-1]],[[1154,2698],[-1,0],[1,0]],[[1543,1696],[-2,-1],[-1,-1],[4,-1],[-1,3]],[[1580,1636],[0,1],[-1,-1],[0,-1],[1,1]],[[2098,1786],[0,1],[-1,-1],[1,0]],[[2122,1824],[-1,1]],[[2121,1825],[0,-1]],[[2121,1824]],[[2121,1824],[1,0]],[[3048,467],[0,1]],[[3048,468],[-1,-1],[1,0]],[[3065,532]],[[3066,546]],[[3069,555]],[[3069,537]],[[3789,1223],[-1,-1],[1,0],[0,1]],[[4096,2179],[-10,4]],[[1858,1382],[-103,50],[-85,121]],[[1980,1322],[-36,17]],[[2306,656],[-34,175],[-97,158],[-112,260],[-67,60]],[[0,2771],[89,49],[3,3]],[[92,2823],[54,62]],[[146,2885],[79,90]],[[226,2977],[-80,-92]],[[146,2885],[-54,-62]],[[92,2823],[-92,-46]],[[3147,637],[-47,-55]],[[1704,2762],[1,1]],[[3830,2239],[3,0]],[[605,907],[-34,-2]],[[1755,3075]],[[2227,2624],[-9,1]],[[3153,4062],[-20,34]],[[3706,3989],[-10,23],[-61,6],[-209,-101],[-78,38],[-101,104],[-92,3]],[[4065,3899],[-185,-10],[-151,62]],[[4071,3906],[-4,-6]],[[4068,3899],[3,7]],[[4096,3932],[-25,-26]],[[4071,2188],[15,-6]],[[3571,2295],[49,72]],[[3571,2290],[0,3]],[[3622,2372],[1,4]],[[984,13],[-59,160],[8,37],[-107,74],[-16,99],[-72,39],[12,33],[-24,24],[39,49],[21,115],[49,20],[-49,57],[-138,53],[-43,134]],[[984,0],[0,11]],[[200,2980],[-100,-10]],[[101,2968],[99,12]],[[221,2983],[-18,-3]],[[203,2980],[28,3]],[[239,2986],[-18,-3]],[[231,2983],[-10,0]],[[233,2982],[4,-2]],[[237,2980],[-4,3]],[[2080,1914],[2,-10]],[[2082,1904],[-1,10]],[[2063,2661],[86,-22]],[[2150,2638],[68,-14]],[[2151,2639],[-2,1],[0,-1]],[[2149,2639],[1,-1],[1,1]],[[2143,2640]],[[2143,2640]],[[2149,2638],[1,0]],[[2954,496],[34,-25]],[[3084,2758],[-1,0],[1,0]],[[3084,2758],[1,0],[-1,0]],[[3176,2832],[-9,-25]],[[3169,2809],[1,1],[6,22]],[[3195,2856],[-19,-24]],[[3671,2241],[-2,0]],[[3669,2241],[-12,-1]],[[3657,2240],[-1,0]],[[3657,2240]],[[3657,2240]],[[3669,2241]],[[3669,2241]],[[3723,3955],[-1,1],[0,-2]],[[3723,3954],[1,0],[-1,1]],[[2201,2627]],[[3084,2758]],[[3169,2809],[-1,0],[1,0]],[[3177,2823],[0,1],[-1,-1],[1,0]],[[3722,3954],[1,0],[0,1],[-1,0],[0,-1]],[[2149,2634],[-3,-33]],[[571,905],[-41,-22],[-211,-1],[-318,-56],[-1,0]],[[1770,3284],[43,7]],[[1828,3297],[-58,-12]],[[1814,3291],[14,4]],[[1829,3295],[0,2]],[[571,905],[33,76],[39,-12],[-18,24],[33,36],[51,6]],[[3077,2740],[-77,-196]],[[0,4096],[4096,0],[0,-4096],[-4096,0],[0,4096]],[[1474,1658],[8,29],[44,-4],[24,42],[-2,-25],[60,-17],[-77,1],[78,-12],[5,-46],[-120,-32],[-20,64]],[[3819,2822],[53,26],[18,50],[50,11],[35,-96],[-9,-24],[-50,-9],[-97,42]],[[3992,2232],[16,17],[42,-32],[-34,30],[30,30],[50,-120],[-13,15],[-51,-24],[3,49],[-43,35]],[[4096,2145],[-12,-11],[-23,1],[25,18],[10,-8]],[[2912,2460],[25,-3],[-18,28],[33,23],[-5,24],[20,-21],[21,43],[13,-10],[-1,-152],[-60,25],[-28,43]],[[3636,1978],[31,42],[-14,114],[79,-80],[6,-86],[76,-39],[-8,-24],[-49,17],[38,-86],[-28,-11],[-27,34],[-49,-11],[-25,112],[-30,18]],[[0,3166]],[[0,3115],[77,-28],[-26,-39],[53,-84],[-104,-20],[0,171]],[[3551,3908],[13,28],[50,8],[-15,45],[21,18],[36,-31],[22,22],[80,-25],[-37,-27],[1,-68],[-33,-9],[-11,-54],[-34,-17],[-69,46],[10,24],[-34,40]],[[3502,2297],[68,-8],[-8,33],[11,-15],[47,70],[55,-21],[5,-26],[16,44],[7,-6],[-25,-134],[-62,-16],[-3,56],[-41,-36],[-24,40],[-41,-38],[-5,57]],[[2951,504],[54,-10],[6,28],[-40,32],[17,26],[46,0],[17,41],[31,-36],[35,21],[-17,-24],[25,-1],[26,-50],[-24,-83],[-38,-21],[-22,32],[-7,-25],[-74,38],[-18,-22],[-17,54]],[[2895,2409],[6,25],[150,-61],[-36,8],[-32,-96],[-53,-15],[-26,50],[11,48],[36,21],[-56,20]],[[1844,1436],[12,8],[65,-39],[0,-23],[57,16],[22,-34],[21,24],[-32,-68],[16,-12],[-29,3],[15,35],[-78,-11],[-63,35],[31,44],[-37,22]],[[4018,1781],[26,111],[52,31],[-31,-162],[-47,20]],[[3579,1801],[52,11],[-30,29],[31,29],[65,-42],[11,-72],[-32,-31],[-97,76]],[[1136,3375],[143,-10],[168,-79],[-89,-133],[-211,55],[-11,167]],[[3047,488],[-47,26],[54,99],[108,29],[-16,-85],[-45,-53],[-54,-16]],[[2127,1704],[-65,12],[-29,60],[29,141],[65,-12],[29,-59],[-29,-142]],[[3934,2804],[-125,91],[35,63],[69,-1],[66,-54],[24,-93],[-69,-6]],[[3550,2980],[-36,57],[21,60],[53,45],[60,8],[-2,-72],[-96,-98]],[[0,2889],[0,226],[78,-89],[-4,-38],[-74,-99]],[[1935,3347],[30,-112],[-173,7],[-63,35],[-13,47],[219,23]],[[2143,2603],[-99,61],[-15,231],[85,-10],[142,-75],[-15,-143],[-98,-64]],[[3761,1138],[25,62],[-23,35],[18,47],[78,-106],[-42,-44],[-25,19],[-12,-35],[-19,22]],[[1072,2625],[8,70],[100,43],[-6,-82],[-57,-8],[-13,-38],[-32,15]],[[2044,2712],[17,44],[200,-50],[-48,-32],[6,-55],[-50,-20],[-24,2],[0,31],[-79,21],[-22,59]],[[2052,1857],[45,11],[23,-34],[38,-5],[-52,-165],[-6,31],[-42,-2],[-6,164]],[[3024,2830],[32,46],[62,6],[24,-28],[49,33],[12,-18],[-24,-44],[25,-16],[-119,-71],[-26,6],[19,10],[-25,11],[27,9],[-56,56]],[[3873,1817],[39,95],[23,5],[7,-132],[-37,-12],[-32,44]],[[4029,1643],[67,18],[-4,-101],[-1,23],[-49,25],[-13,35]],[[2261,621],[53,42],[84,-70],[-65,-37],[-7,23],[-54,7],[-11,35]],[[3456,1986],[17,169],[37,1],[-15,47],[51,32],[9,-53],[-52,-102],[18,-32],[-41,-48],[21,-44],[-45,30]],[[1622,2696],[47,99],[95,-6],[-39,-13],[-17,-41],[21,-16],[-33,-23],[-44,18],[-30,-18]],[[1322,2365],[32,8],[5,-56],[33,-22],[-19,-37],[26,32],[10,-6],[5,56],[15,-81],[23,41],[16,-26],[32,11],[-3,-33],[51,16],[7,30],[-23,1],[22,30],[29,0],[11,-38],[-133,-88],[-3,-47],[-28,-7],[6,24],[-39,-1],[32,38],[-21,25],[15,19],[-25,26],[-31,-28],[-45,113]],[[3189,2344],[47,98],[44,19],[39,-156],[-86,22],[-3,27],[-41,-10]],[[983,2281],[57,135],[12,83],[78,-53],[-33,-32],[-39,-120],[-43,-25],[-17,6],[16,22],[-31,-16]]]}