{"objects":{"water":{"type":"GeometryCollection","geometries":[{"type":"Polygon","properties":{"source":"naturalearthdata.com","kind":"ocean","area":1576712559132672,"sort_rank":200,"min_zoom":0.0,"id":1},"arcs":[[0],[1],[2],[3],[4],[5],[6],[7],[8],[9],[10]]},{"type":"LineString","properties":{"source":"naturalearthdata.com","kind":"ocean","sort_rank":205,"boundary":true,"min_zoom":0.0,"id":1298},"arcs":[11]},{"type":"LineString","properties":{"source":"naturalearthdata.com","kind":"ocean","sort_rank":205,"boundary":true,"min_zoom":0.0,"id":1306},"arcs":[12]},{"type":"LineString","properties":{"source":"naturalearthdata.com","kind":"ocean","sort_rank":205,"boundary":true,"min_zoom":0.0,"id":1307},"arcs":[13]},{"type":"LineString","properties":{"source":"naturalearthdata.com","kind":"ocean","sort_rank":205,"boundary":true,"min_zoom":0.0,"id":1308},"arcs":[14]},{"type":"LineString","properties":{"source":"naturalearthdata.com","kind":"ocean","sort_rank":205,"boundary":true,"min_zoom":0.0,"id":1309},"arcs":[15]},{"type":"LineString","properties":{"source":"naturalearthdata.com","kind":"ocean","sort_rank":205,"boundary":true,"min_zoom":0.0,"id":1310},"arcs":[16]},{"type":"LineString","properties":{"source":"naturalearthdata.com","kind":"ocean","sort_rank":205,"boundary":true,"min_zoom":0.0,"id":3401},"arcs":[17]},{"type":"LineString","properties":{"source":"naturalearthdata.com","kind":"ocean","sort_rank":205,"boundary":true,"min_zoom":0.0,"id":3402},"arcs":[18]},{"type":"LineString","properties":{"source":"naturalearthdata.com","kind":"ocean","sort_rank":205,"boundary":true,"min_zoom":0.0,"id":3403},"arcs":[19]},{"type":"LineString","properties":{"source":"naturalearthdata.com","kind":"ocean","sort_rank":205,"boundary":true,"min_zoom":0.0,"id":3404},"arcs":[20]},{"type":"LineString","properties":{"source":"naturalearthdata.com","kind":"ocean","sort_rank":205,"boundary":true,"min_zoom":0.0,"id":3405},"arcs":[21]}]},"buildings":{"type":"GeometryCollection","geometries":[]},"places":{"type":"GeometryCollection","geometries":[{"type":"Point","properties":{"name:pt":"Ilhas Feroe","name:ka":"\u10e4\u10d0\u10e0\u10d4\u10e0\u10d8\u10e1 \u10d9\u10e3\u10dc\u10eb\u10e3\u10da\u10d4\u10d1\u10d8","alt_name:el":"\u039d\u03b7\u03c3\u03b9\u03ac \u03a6\u03b5\u03c1\u03cc\u03b5\u03c2","name:ko":"\ud398\ub85c \uc81c\ub3c4","name:kn":"\u0cab\u0cb0\u0ccb \u0ca6\u0ccd\u0cb5\u0cc0\u0caa\u0c97\u0cb3\u0cc1","name:km":"\u1780\u17c4\u17c7\u200b\u17a0\u17d2\u179c\u17b6\u179a\u17c9\u17bc","name:kl":"Savalimmiut","name:cs":"Faersk\u00e9 ostrovy","name:tt":"\u0424\u0430\u0440\u0435\u0440 \u0443\u0442\u0440\u0430\u0443\u043b\u0430\u0440\u044b","name:kw":"Ynysow Faroe","name:kv":"\u0424\u0430\u0440\u0435\u0440 \u0434\u0456\u044f\u0441","name:ku":"Girav\u00ean Faroe","name:ti":"\u12e8\u134b\u122e\u12ed \u12f0\u1234\u1276\u127d","name:to":"\u02bbOtumotu Felou","name:tl":"Kapuluang Peroe","name:zh-min-nan":"M\u00ee-i\u00fb\u207f K\u00fbn-t\u00f3","name:os":"\u0424\u0430\u0440\u0435\u0440\u0430\u0433 \u0441\u0430\u043a\u044a\u0430\u0434\u00e6\u0445\u0442\u00e6","name:or":"\u0b2b\u0b3e\u0b30\u0b4b\u0b07 \u0b26\u0b4d\u0b2c\u0b40\u0b2a\u0b2a\u0b41\u0b1e\u0b4d\u0b1c","name:ce":"\u0424\u0430\u0440\u0435\u0440\u0438\u0439\u043d \u0433\u0406\u0430\u0439\u0440\u0435\u043d\u0430\u0448","name:ta":"\u0baa\u0bb0\u0bcb\u0baf\u0bc7 \u0ba4\u0bc0\u0bb5\u0bc1\u0b95\u0bb3\u0bcd","name:tg":"\u04b6\u0430\u0437\u0438\u0440\u0430\u04b3\u043e\u0438 \u0424\u0430\u0440\u043e","name:ca":"Illes F\u00e8roe","name:te":"\u0c2b\u0c3e\u0c30\u0c4b \u0c26\u0c40\u0c35\u0c41\u0c32\u0c41","name:vi":"Qu\u1ea7n \u0111\u1ea3o Faroe","name:hu":"Fer\u00f6er","name:ro":"Insulele Feroe","name:cy":"Ynysoedd Ffaroe","name:qu":"Pharuy","name:da":"F\u00e6r\u00f8erne","name:de":"F\u00e4r\u00f6er","name:dz":"\u0f55\u0f71\u0f60\u0f7a\u0f0b\u0f62\u0f7c\u0f0b\u0f42\u0fb3\u0f72\u0f44\u0f0b\u0f5a\u0f7c\u0f58","source":"openstreetmap.org","name:yo":"\u00c0w\u1ecdn Er\u00e9k\u00f9\u1e63\u00f9 F\u00e0r\u00f3\u00e8","name:dv":"\u078a\u07a6\u0783\u07ae\u0787\u07ad \u0796\u07a6\u0792\u07a9\u0783\u07a7","name:lv":"Far\u0113ru (F\u0113ru) salas","name:lt":"Farerai","name:hi":"\u092b\u093c\u0930\u094b \u0926\u094d\u0935\u0940\u092a","name:kk":"\u0424\u0430\u0440\u0435\u0440 \u0430\u0440\u0430\u043b\u0434\u0430\u0440\u044b","name:sv":"F\u00e4r\u00f6arna","name:he":"\u05d0\u05d9\u05d9 \u05e4\u05d0\u05e8\u05d5","kind":"country","name:ur":"\u0641\u0631\u0648\u0626\u06cc \u0622\u0626\u0644\u06cc\u0646\u0688\u0632","name:la":"Insulae Faeroae","name:uk":"\u0424\u0430\u0440\u0435\u0440\u0441\u044c\u043a\u0456 \u043e\u0441\u0442\u0440\u043e\u0432\u0438","name:hy":"\u0556\u0561\u0580\u0565\u0580\u0575\u0561\u0576 \u056f\u0572\u0566\u056b\u0576\u0565\u0580","min_zoom":2.0,"name:li":"Faer\u00f6er","name:ln":"Bisanga ya F\u025br\u00f3a","name:lo":"\u0eab\u0ea1\u0eb9\u0ec8\u0ec0\u0e81\u0eb2\u0eb0\u0ec1\u0e9f\u0ec2\u0ea3","name:oc":"Illas Fer\u00f2e","population":48565,"name:el":"\u039d\u03ae\u03c3\u03bf\u03b9 \u03a6\u03b5\u03c1\u03cc\u03b5\u03c2","name:eo":"Ferooj","name:en":"Faroe Islands","name":"F\u00f8royar","name:ee":"Faroe \u0192udomekpowo nutome","name:th":"\u0e2b\u0e21\u0e39\u0e48\u0e40\u0e01\u0e32\u0e30\u0e41\u0e1f\u0e42\u0e23","name:eu":"Faroe Uharteak","name:et":"F\u00e4\u00e4ri saared","name:nl":"Faer\u00f6er","name:es":"Islas Feroe","name:ia":"Insulas Feroe","name:rm":"Inslas Feroe","name:az":"Farer adalar\u0131","name:id":"Kepulauan Faroe","name:ms":"Kepulauan Faroe","name:mr":"\u092b\u0947\u0930\u094b \u0926\u094d\u0935\u0940\u092a\u0938\u092e\u0942\u0939","name:ar":"\u062c\u0632\u0631 \u0641\u0627\u0631\u0648","name:my":"\u1016\u102c\u101b\u102d\u102f\u1038 \u1000\u103b\u103d\u1014\u103a\u1038\u1005\u102f\u1019\u103b\u102c\u1038","name:io":"Faero","int_name":"Faroe Islands","name:is":"F\u00e6reyjar","name:am":"\u134b\u122e \u12f0\u1234\u1276\u127d","name:it":"Isole F\u00e6r \u00d8er","name:an":"Islas Feroe","name:ru":"\u0424\u0430\u0440\u0435\u0440\u0441\u043a\u0438\u0435 \u041e\u0441\u0442\u0440\u043e\u0432\u0430","name:rw":"Ibirwa bya Farowe","name:mi":"Moutere Faroe","name:pl":"Wyspy Owcze","name:mk":"\u0424\u0430\u0440\u0441\u043a\u0438 \u041e\u0441\u0442\u0440\u043e\u0432\u0438","name:af":"Faro\u00ebreilande","name:zu":"i-Faroe Islands","name:mn":"\u0424\u0430\u0440\u0435\u0440\u044b\u043d \u0410\u0440\u043b\u0443\u0443\u0434","name:nn":"F\u00e6r\u00f8yane","name:fi":"F\u00e4rsaaret","name:no":"F\u00e6r\u00f8yene","id":424312044,"name:mt":"G\u017cejjer Faroe","name:fr":"\u00celes F\u00e9ro\u00e9","name:zh-yue":"\u6cd5\u7f85\u7fa4\u5cf6","name:fy":"Faer\u00f6er","name:zh":"\u6cd5\u7f57\u7fa4\u5c9b","name:gv":"Ellanyn ny Geyrragh","name:so":"Jasiiradaha Feroe","name:sl":"Ferski otoki","name:sk":"Faersk\u00e9 ostrovy","name:ja":"\u30d5\u30a7\u30ed\u30fc\u8af8\u5cf6","name:si":"\u0dc6\u0dd0\u0dbb\u0ddd \u0daf\u0dd6\u0db4\u0dad\u0dca","name:sh":"Farski Otoci","name:se":"Fearsullot","name:ne":"\u092b\u093e\u0930\u094b\u0930 \u091f\u093e\u092a\u0941","name:br":"Inizi Faero","name:bs":"Farska ostrva","name:bn":"\u09ab\u09cd\u09af\u09be\u09b0\u0993 \u09a6\u09cd\u09ac\u09c0\u09aa\u09aa\u09c1\u099e\u09cd\u099c","name:bi":"Faroe aelan","name:sw":"Visiwa vya Faroe","name:be":"\u0424\u0430\u0440\u044d\u0440\u0441\u043a\u0456\u044f \u0430\u0441\u0442\u0440\u0430\u0432\u044b","name:su":"Kapuloan Faroe","name:bg":"\u0424\u0430\u0440\u044c\u043e\u0440\u0441\u043a\u0438 \u043e\u0441\u0442\u0440\u043e\u0432\u0438","name:wo":"Duni Faarow","name:sr":"\u0424\u0430\u0440\u0441\u043a\u0430 \u041e\u0441\u0442\u0440\u0432\u0430","name:sq":"Ishujt Faroe","name:ga":"Na Scigir\u00ed","name:gd":"Na h-Eileanan F\u00e0ro","name:ml":"\u0d2b\u0d31\u0d4b\u0d2f\u0d3f \u0d26\u0d4d\u0d35\u0d40\u0d2a\u0d41\u0d15\u0d7e","name:jv":"Kapuloan Faroe","name:gl":"Illas Feroe","name:fa":"\u0641\u0627\u0631\u0648","name:tr":"Faroe Adalar\u0131","name:gu":"\u0aab\u0ac5\u0ab0\u0acb \u0a86\u0a87\u0ab2\u0ac7\u0aa8\u0acd\u0aa1\u0acd\u0ab8"},"coordinates":[2046,1372]},{"type":"Point","properties":{"source":"naturalearthdata.com","kind":"locality","name":"Tdrshavn","population":14398,"region_capital":true,"min_zoom":6.0,"id":5207},"coordinates":[2356,1326]}]},"transit":{"type":"GeometryCollection","geometries":[]},"pois":{"type":"GeometryCollection","geometries":[]},"boundaries":{"type":"GeometryCollection","geometries":[]},"roads":{"type":"GeometryCollection","geometries":[]},"earth":{"type":"GeometryCollection","geometries":[{"type":"MultiPolygon","properties":{"sort_rank":10,"source":"naturalearthdata.com","min_zoom":0.0,"kind":"earth","area":5389549128},"arcs":[[[22]],[[23]],[[24]],[[25]],[[26]],[[27]],[[28]],[[29]],[[30]],[[31]],[[32]]]}]},"landuse":{"type":"GeometryCollection","geometries":[]}},"type":"Topology","transform":{"translate":[-8.4375,61.6063963714],"scale":[0.0006866455,0.0003195402]},"arcs":[[[2148,70],[13,-47],[7,-15],[0,-8],[-2168,0],[0,4096],[4096,0],[0,-4096],[-1861,0],[54,50],[-16,-2],[-16,2],[-15,6],[-14,14],[11,9],[29,33],[-21,22],[-26,-4],[-53,-37],[6,-9],[1,-3],[3,-11],[-30,0]],[[2941,1884],[-4,54],[-28,-17],[-28,25],[-54,76],[10,23],[30,-34],[47,-21],[46,7],[27,48],[-78,48],[-62,62],[-50,88],[-41,123],[11,23],[-42,-27],[-8,-45],[12,-58],[18,-64],[3,-26],[5,-86],[-3,-27],[-5,-22],[0,-17],[-3,-12],[-11,-4],[-6,6],[-4,11],[-5,2],[-10,-19],[-7,-54],[17,-48],[49,-69],[5,-11],[3,-12],[4,-10],[14,-13],[14,-8],[10,0],[-5,23],[-14,33],[-31,106],[22,12],[23,-24],[40,-86],[22,-28],[29,-7],[30,7],[24,18],[0,21],[-10,15],[-6,18]],[[2498,1830],[27,12],[87,-12],[37,4],[19,11],[-5,20],[-61,44],[-80,29],[-14,-3],[-28,-17],[-12,-3],[-15,9],[-28,28],[-17,6],[0,23],[30,9],[26,30],[12,32],[-14,15],[-113,19],[27,20],[12,3],[-23,41],[-36,2],[-109,-38],[-6,-37],[14,-96],[-23,30],[-11,35],[-5,42],[0,52],[16,24],[33,20],[26,22],[-7,32],[-18,3],[-13,12],[-13,15],[-15,12],[-18,6],[-67,-14],[-53,-42],[-31,-14],[-16,6],[-17,13],[-15,3],[-12,-22],[2,-21],[13,-18],[17,-18],[12,-19],[51,-158],[91,-157],[18,-17],[11,-6],[30,-33],[9,-14],[16,-15],[59,4],[115,-147],[59,-49],[26,68],[-16,82],[-37,52],[-43,39],[-34,41],[40,11],[44,-41],[39,-63],[26,-57],[11,-75],[1,-78],[14,-66],[53,-37],[-6,21],[-1,15],[6,13],[12,13],[0,23],[-7,5],[-6,9],[-7,6],[17,29],[27,15],[30,4],[27,-4],[0,24],[-49,52],[-30,24],[-32,7],[0,21],[75,-34],[76,-10],[-52,55],[-178,96],[0,22]],[[2388,1519],[-22,39],[-128,-6],[17,6],[20,15],[19,20],[14,23],[9,33],[-1,27],[-13,19],[-73,23],[-84,74],[-49,16],[1,72],[-71,142],[-18,76],[-21,42],[-49,31],[-100,24],[-9,4],[-7,-1],[-7,3],[-7,15],[-19,-123],[0,-66],[28,-46],[-23,-12],[-7,-21],[-1,-33],[-8,-42],[-8,-11],[-10,-1],[-8,-8],[-4,-34],[2,-23],[5,-12],[13,-18],[13,-19],[41,-38],[16,-8],[24,13],[23,21],[20,4],[12,-38],[-23,-12],[-1,-30],[15,-29],[25,-14],[115,-19],[21,-15],[27,-26],[22,-30],[10,-29],[2,-51],[7,-36],[14,-22],[21,-7],[51,-31],[78,-135],[92,-63],[42,-65],[44,-49],[48,19],[-6,52],[7,40],[3,27],[-48,28],[-3,45],[11,51],[16,38],[-40,41],[-99,-2],[-51,23],[0,24],[85,0],[12,15],[-7,33],[-20,47]],[[1859,1381],[25,20],[24,-3],[24,-12],[26,-5],[31,15],[17,33],[14,40],[18,40],[-29,46],[-36,8],[-38,-3],[-36,13],[-15,22],[-24,52],[-16,10],[-18,5],[-57,39],[0,24],[10,0],[0,19],[-102,-26],[-26,-31],[-16,-7],[-5,-7],[-1,-14],[-4,-15],[-11,-7],[-34,-2],[-11,2],[-17,11],[-52,53],[-35,-5],[3,-62],[27,-71],[40,-34],[74,-17],[37,-20],[33,-26],[-139,0],[0,-21],[20,-2],[59,-43],[91,-19],[65,-46],[15,3],[3,27],[-14,27],[-18,21],[-12,11],[22,15],[20,-19],[17,-38],[10,-44],[-6,-11],[-13,-34],[25,22],[85,43],[-14,0],[-13,4],[-12,8],[-11,11]],[[1278,1569],[-41,23],[-42,-2],[-40,-23],[5,-23],[120,-11],[18,2],[14,6],[-14,9],[-20,19]],[[2478,2184],[29,-46],[10,-20],[15,-46],[11,-51],[21,-34],[27,-15],[22,6],[6,33],[-13,34],[-10,13],[-101,203],[-40,104],[-20,36],[-20,19],[-14,-14],[2,-44],[26,-79],[11,-26],[38,-73]],[[2754,2415],[19,-19],[14,-80],[21,-52],[35,-62],[43,-44],[47,-18],[26,13],[9,21],[7,28],[-10,31],[-11,13],[-9,7],[-18,-1],[-16,-22],[-15,-4],[-9,20],[1,22],[-9,27],[-21,30],[-17,34],[-12,46],[-14,40],[-21,24],[-34,11],[-20,-25],[14,-40]],[[3032,2145],[-25,-12],[-17,-24],[5,-35],[16,-41],[17,-32],[24,-5],[23,9],[19,12],[13,16],[7,20],[0,29],[-10,32],[43,45],[1,20],[-22,16],[-44,1],[-50,-51]],[[2606,2379],[-24,24],[-24,-25],[-5,-69],[16,-73],[40,-98],[14,-30],[29,-43],[32,-16],[22,18],[-2,46],[-7,26],[-16,47],[-62,147],[-13,46]],[[2240,900],[32,-76],[6,-55],[8,-40],[20,-22],[23,-10],[133,-25],[20,-23],[95,-203],[10,-9],[15,10],[13,22],[11,22],[7,10],[3,90],[-3,17],[-5,9],[10,22],[20,33],[-10,31],[-42,43],[-10,44],[-17,23],[-111,32],[-16,11],[-21,37],[-14,16],[-17,8],[-47,-8],[-29,6],[-62,28],[-34,7],[12,-50]],[[2767,1830],[5,-11],[3,-12],[4,-10],[14,-13],[14,-8],[10,0],[-5,23],[-14,33],[-31,106],[22,12],[23,-24],[40,-86],[22,-28],[29,-7],[30,7],[24,18],[0,21],[-10,15],[-6,18],[-4,54],[-28,-17],[-28,25],[-54,76],[10,23],[30,-34],[47,-21],[46,7],[27,48],[-78,48],[-62,62],[-50,88],[-41,123],[11,23],[-42,-27],[-8,-45],[12,-58],[18,-64],[3,-26],[5,-86],[-3,-27],[-5,-22],[0,-17],[-3,-12],[-11,-4],[-6,6],[-4,11],[-5,2],[-10,-19],[-7,-54],[17,-48],[49,-69]],[[1769,1766],[13,-19],[41,-38],[16,-8],[24,13],[23,21],[20,4],[12,-38],[-23,-12],[-1,-30],[15,-29],[25,-14],[115,-19],[21,-15],[27,-26],[22,-30],[10,-29],[2,-51],[7,-36],[14,-22],[21,-7],[51,-31],[78,-135],[92,-63],[42,-65],[44,-49],[48,19],[-6,52],[7,40],[3,27],[-48,28],[-3,45],[11,51],[16,38],[-40,41],[-99,-2],[-51,23],[0,24],[85,0],[12,15],[-7,33],[-20,47],[-22,39],[-128,-6],[17,6],[20,15],[19,20],[14,23],[9,33],[-1,27],[-13,19],[-73,23],[-84,74],[-49,16],[1,72],[-71,142],[-18,76],[-21,42],[-49,31],[-100,24],[-9,4],[-7,-1],[-7,3],[-7,15],[-19,-123],[0,-66],[28,-46],[-23,-12],[-7,-21],[-1,-33],[-8,-42],[-8,-11],[-10,-1],[-8,-8],[-4,-34],[2,-23],[5,-12],[13,-18]],[[1535,1529],[74,-17],[37,-20],[33,-26],[-139,0],[0,-21],[20,-2],[59,-43],[91,-19],[65,-46],[15,3],[3,27],[-14,27],[-18,21],[-12,11],[22,15],[20,-19],[17,-38],[10,-44],[-6,-11],[-13,-34],[25,22],[85,43],[-14,0],[-13,4],[-12,8],[-11,11],[25,20],[24,-3],[24,-12],[26,-5],[31,15],[17,33],[14,40],[18,40],[-29,46],[-36,8],[-38,-3],[-36,13],[-15,22],[-24,52],[-16,10],[-18,5],[-57,39],[0,24],[10,0],[0,19],[-102,-26],[-26,-31],[-16,-7],[-5,-7],[-1,-14],[-4,-15],[-11,-7],[-34,-2],[-11,2],[-17,11],[-52,53],[-35,-5],[3,-62],[27,-71],[40,-34]],[[2013,2140],[51,-158],[91,-157],[18,-17],[11,-6],[30,-33],[9,-14],[16,-15],[59,4],[115,-147],[59,-49],[26,68],[-16,82],[-37,52],[-43,39],[-34,41],[40,11],[44,-41],[39,-63],[26,-57],[11,-75],[1,-78],[14,-66],[53,-37],[-6,21],[-1,15],[6,13],[12,13],[0,23],[-7,5],[-6,9],[-7,6],[17,29],[27,15],[30,4],[27,-4],[0,24],[-49,52],[-30,24],[-32,7],[0,21],[75,-34],[76,-10],[-52,55],[-178,96],[0,22],[27,12],[87,-12],[37,4],[19,11],[-5,20],[-61,44],[-80,29],[-14,-3],[-28,-17],[-12,-3],[-15,9],[-28,28],[-17,6],[0,23],[30,9],[26,30],[12,32],[-14,15],[-113,19],[27,20],[12,3],[-23,41],[-36,2],[-109,-38],[-6,-37],[14,-96],[-23,30],[-11,35],[-5,42],[0,52],[16,24],[33,20],[26,22],[-7,32],[-18,3],[-13,12],[-13,15],[-15,12],[-18,6],[-67,-14],[-53,-42],[-31,-14],[-16,6],[-17,13],[-15,3],[-12,-22],[2,-21],[13,-18],[17,-18],[12,-19]],[[2235,0],[54,50],[-16,-2],[-16,2],[-15,6],[-14,14],[11,9],[29,33],[-21,22],[-26,-4],[-53,-37],[6,-9],[1,-3],[3,-11],[-30,0],[13,-47],[7,-15],[0,-8]],[[2658,672],[-10,31],[-42,43],[-10,44],[-17,23],[-111,32],[-16,11],[-21,37],[-14,16],[-17,8],[-47,-8],[-29,6],[-62,28],[-34,7],[12,-50],[32,-76],[6,-55],[8,-40],[20,-22],[23,-10],[133,-25],[20,-23],[95,-203],[10,-9],[15,10],[13,22],[11,22],[7,10],[3,90],[-3,17],[-5,9],[10,22],[20,33]],[[2954,2246],[-9,7],[-18,-1],[-16,-22],[-15,-4],[-9,20],[1,22],[-9,27],[-21,30],[-17,34],[-12,46],[-14,40],[-21,24],[-34,11],[-20,-25],[14,-40],[19,-19],[14,-80],[21,-52],[35,-62],[43,-44],[47,-18],[26,13],[9,21],[7,28],[-10,31],[-11,13]],[[2596,2058],[-101,203],[-40,104],[-20,36],[-20,19],[-14,-14],[2,-44],[26,-79],[11,-26],[38,-73],[29,-46],[10,-20],[15,-46],[11,-51],[21,-34],[27,-15],[22,6],[6,33],[-13,34],[-10,13]],[[2697,2139],[-16,47],[-62,147],[-13,46],[-24,24],[-24,-25],[-5,-69],[16,-73],[40,-98],[14,-30],[29,-43],[32,-16],[22,18],[-2,46],[-7,26]],[[3082,2196],[-50,-51],[-25,-12],[-17,-24],[5,-35],[16,-41],[17,-32],[24,-5],[23,9],[19,12],[13,16],[7,20],[0,29],[-10,32],[43,45],[1,20],[-22,16],[-44,1]],[[1278,1569],[-41,23],[-42,-2],[-40,-23],[5,-23],[120,-11],[18,2],[14,6],[-14,9],[-20,19]],[[2257,50],[16,-2],[16,2],[-54,-50],[-67,0],[0,8],[-7,15],[-13,47],[30,0],[-3,11],[-1,3],[-6,9],[53,37],[26,4],[21,-22],[-29,-33],[-11,-9],[14,-14],[15,-6]],[[2324,915],[29,-6],[47,8],[17,-8],[14,-16],[21,-37],[16,-11],[111,-32],[17,-23],[10,-44],[42,-43],[10,-31],[-20,-33],[-10,-22],[5,-9],[3,-17],[-3,-90],[-7,-10],[-11,-22],[-13,-22],[-15,-10],[-10,9],[-95,203],[-20,23],[-133,25],[-23,10],[-20,22],[-8,40],[-6,55],[-32,76],[-12,50],[34,-7],[62,-28]],[[1298,1535],[-18,-2],[-120,11],[-5,23],[40,23],[42,2],[41,-23],[20,-19],[14,-9],[-14,-6]],[[1860,1647],[24,-52],[15,-22],[36,-13],[38,3],[36,-8],[29,-46],[-18,-40],[-14,-40],[-17,-33],[-31,-15],[-26,5],[-24,12],[-24,3],[-25,-20],[11,-11],[12,-8],[13,-4],[14,0],[-85,-43],[-25,-22],[13,34],[6,11],[-10,44],[-17,38],[-20,19],[-22,-15],[12,-11],[18,-21],[14,-27],[-3,-27],[-15,-3],[-65,46],[-91,19],[-59,43],[-20,2],[0,21],[139,0],[-33,26],[-37,20],[-74,17],[-40,34],[-27,71],[-3,62],[35,5],[52,-53],[17,-11],[11,-2],[34,2],[11,7],[4,15],[1,14],[5,7],[16,7],[26,31],[102,26],[0,-19],[-10,0],[0,-24],[57,-39],[18,-5],[16,-10]],[[3075,2005],[-23,-9],[-24,5],[-17,32],[-16,41],[-5,35],[17,24],[25,12],[50,51],[44,-1],[22,-16],[-1,-20],[-43,-45],[10,-32],[0,-29],[-7,-20],[-13,-16],[-19,-12]],[[2887,2246],[9,-20],[15,4],[16,22],[18,1],[9,-7],[11,-13],[10,-31],[-7,-28],[-9,-21],[-26,-13],[-47,18],[-43,44],[-35,62],[-21,52],[-14,80],[-19,19],[-14,40],[20,25],[34,-11],[21,-24],[14,-40],[12,-46],[17,-34],[21,-30],[9,-27],[-1,-22]],[[1816,2201],[7,-3],[7,1],[9,-4],[100,-24],[49,-31],[21,-42],[18,-76],[71,-142],[-1,-72],[49,-16],[84,-74],[73,-23],[13,-19],[1,-27],[-9,-33],[-14,-23],[-19,-20],[-20,-15],[-17,-6],[128,6],[22,-39],[20,-47],[7,-33],[-12,-15],[-85,0],[0,-24],[51,-23],[99,2],[40,-41],[-16,-38],[-11,-51],[3,-45],[48,-28],[-3,-27],[-7,-40],[6,-52],[-48,-19],[-44,49],[-42,65],[-92,63],[-78,135],[-51,31],[-21,7],[-14,22],[-7,36],[-2,51],[-10,29],[-22,30],[-27,26],[-21,15],[-115,19],[-25,14],[-15,29],[1,30],[23,12],[-12,38],[-20,-4],[-23,-21],[-24,-13],[-16,8],[-41,38],[-13,19],[-13,18],[-5,12],[-2,23],[4,34],[8,8],[10,1],[8,11],[8,42],[1,33],[7,21],[23,12],[-28,46],[0,66],[19,123],[7,-15]],[[2257,2238],[7,-32],[-26,-22],[-33,-20],[-16,-24],[0,-52],[5,-42],[11,-35],[23,-30],[-14,96],[6,37],[109,38],[36,-2],[23,-41],[-12,-3],[-27,-20],[113,-19],[14,-15],[-12,-32],[-26,-30],[-30,-9],[0,-23],[17,-6],[28,-28],[15,-9],[12,3],[28,17],[14,3],[80,-29],[61,-44],[5,-20],[-19,-11],[-37,-4],[-87,12],[-27,-12],[0,-22],[178,-96],[52,-55],[-76,10],[-75,34],[0,-21],[32,-7],[30,-24],[49,-52],[0,-24],[-27,4],[-30,-4],[-27,-15],[-17,-29],[7,-6],[6,-9],[7,-5],[0,-23],[-12,-13],[-6,-13],[1,-15],[6,-21],[-53,37],[-14,66],[-1,78],[-11,75],[-26,57],[-39,63],[-44,41],[-40,-11],[34,-41],[43,-39],[37,-52],[16,-82],[-26,-68],[-59,49],[-115,147],[-59,-4],[-16,15],[-9,14],[-30,33],[-11,6],[-18,17],[-91,157],[-51,158],[-12,19],[-17,18],[-13,18],[-2,21],[12,22],[15,-3],[17,-13],[16,-6],[31,14],[53,42],[67,14],[18,-6],[15,-12],[13,-15],[13,-12],[18,-3]],[[2613,1978],[-22,-6],[-27,15],[-21,34],[-11,51],[-15,46],[-10,20],[-29,46],[-38,73],[-11,26],[-26,79],[-2,44],[14,14],[20,-19],[20,-36],[40,-104],[101,-203],[10,-13],[13,-34],[-6,-33]],[[2706,2067],[-22,-18],[-32,16],[-29,43],[-14,30],[-40,98],[-16,73],[5,69],[24,25],[24,-24],[13,-46],[62,-147],[16,-47],[7,-26],[2,-46]],[[2987,2045],[-27,-48],[-46,-7],[-47,21],[-30,34],[-10,-23],[54,-76],[28,-25],[28,17],[4,-54],[6,-18],[10,-15],[0,-21],[-24,-18],[-30,-7],[-29,7],[-22,28],[-40,86],[-23,24],[-22,-12],[31,-106],[14,-33],[5,-23],[-10,0],[-14,8],[-14,13],[-4,10],[-3,12],[-5,11],[-49,69],[-17,48],[7,54],[10,19],[5,-2],[4,-11],[6,-6],[11,4],[3,12],[0,17],[5,22],[3,27],[-5,86],[-3,26],[-18,64],[-12,58],[8,45],[42,27],[-11,-23],[41,-123],[50,-88],[62,-62],[78,-48]]]}