{"objects":{"water":{"type":"GeometryCollection","geometries":[{"type":"Polygon","properties":{"kind":"lake","name":"J. Strom Thurmond Lake","reservoir":true,"area":435212960,"sort_rank":200,"source":"naturalearthdata.com","min_zoom":0.0,"id":1128},"arcs":[[316]]},{"type":"Polygon","properties":{"kind":"lake","name":"Lake Sidney Lanier","reservoir":true,"area":385056928,"sort_rank":200,"source":"naturalearthdata.com","min_zoom":0.0,"id":1171},"arcs":[[317]]},{"type":"Polygon","properties":{"kind":"lake","name":"Kentucky Lake","reservoir":true,"area":762940032,"sort_rank":200,"source":"naturalearthdata.com","min_zoom":0.0,"id":1127},"arcs":[[318]]},{"type":"Polygon","properties":{"kind":"lake","name":"Smith Mountain Lake","reservoir":true,"area":240009552,"sort_rank":200,"source":"naturalearthdata.com","min_zoom":0.0,"id":1173},"arcs":[[319]]},{"type":"Polygon","properties":{"kind":"lake","name":"Lake Moultrie","reservoir":true,"area":289879552,"sort_rank":200,"source":"naturalearthdata.com","min_zoom":0.0,"id":1155},"arcs":[[320]]},{"type":"Polygon","properties":{"kind":"lake","name":"Mitchell Lake","reservoir":true,"area":70806640,"sort_rank":200,"source":"naturalearthdata.com","min_zoom":0.0,"id":1177},"arcs":[[321]]},{"type":"Polygon","properties":{"kind":"lake","name":"Hartwell Lake","reservoir":true,"area":329583360,"sort_rank":200,"source":"naturalearthdata.com","min_zoom":0.0,"id":1170},"arcs":[[322]]},{"type":"Polygon","properties":{"kind":"lake","name":"Wheeler Lake","reservoir":true,"area":432667136,"sort_rank":200,"source":"naturalearthdata.com","min_zoom":0.0,"id":1131},"arcs":[[323]]},{"type":"Polygon","properties":{"kind":"lake","name":"Logan Martin Lake","reservoir":true,"area":99345960,"sort_rank":200,"source":"naturalearthdata.com","min_zoom":0.0,"id":1176},"arcs":[[324]]},{"type":"Polygon","properties":{"kind":"lake","name":"John H. Kerr Reservoir","reservoir":true,"area":439808224,"sort_rank":200,"source":"naturalearthdata.com","min_zoom":0.0,"id":1144},"arcs":[[325]]},{"type":"Polygon","properties":{"kind":"lake","name":"Walter F. George Reservoir","reservoir":true,"area":263682464,"sort_rank":200,"source":"naturalearthdata.com","min_zoom":0.0,"id":1174},"arcs":[[326]]},{"type":"Polygon","properties":{"kind":"lake","name":"Lake Murray","reservoir":true,"area":216760096,"sort_rank":200,"source":"naturalearthdata.com","min_zoom":0.0,"id":1178},"arcs":[[327]]},{"type":"Polygon","properties":{"kind":"lake","name":"Lake Barkley","reservoir":true,"area":448311552,"sort_rank":200,"source":"naturalearthdata.com","min_zoom":0.0,"id":1153},"arcs":[[328]]},{"type":"Polygon","properties":{"kind":"lake","name":"Lake Marion","reservoir":true,"area":336803648,"sort_rank":200,"source":"naturalearthdata.com","min_zoom":0.0,"id":1156},"arcs":[[329]]},{"type":"MultiPolygon","properties":{"source":"naturalearthdata.com","kind":"ocean","area":1576712559132672,"sort_rank":200,"min_zoom":0.0,"id":1},"arcs":[[[330],[331]],[[332]]]},{"type":"Point","properties":{"label_placement":true,"kind":"lake","name":"Kentucky Lake","reservoir":true,"area":762940032,"sort_rank":200,"source":"naturalearthdata.com","min_zoom":0.0,"id":1127},"coordinates":[711,2055]},{"type":"Point","properties":{"label_placement":true,"kind":"lake","name":"Lake Barkley","reservoir":true,"area":448311552,"sort_rank":200,"source":"naturalearthdata.com","min_zoom":0.0,"id":1153},"coordinates":[739,2213]},{"type":"Point","properties":{"label_placement":true,"kind":"lake","name":"J. Strom Thurmond Lake","reservoir":true,"area":435212960,"sort_rank":200,"source":"naturalearthdata.com","min_zoom":0.0,"id":1128},"coordinates":[2776,851]},{"type":"Point","properties":{"label_placement":true,"kind":"lake","name":"Wheeler Lake","reservoir":true,"area":432667136,"sort_rank":200,"source":"naturalearthdata.com","min_zoom":0.0,"id":1131},"coordinates":[1051,1251]},{"type":"Point","properties":{"label_placement":true,"kind":"lake","name":"Lake Sidney Lanier","reservoir":true,"area":385056928,"sort_rank":200,"source":"naturalearthdata.com","min_zoom":0.0,"id":1171},"coordinates":[2216,1072]},{"type":"Point","properties":{"label_placement":true,"kind":"lake","name":"Lake Marion","reservoir":true,"area":336803648,"sort_rank":200,"source":"naturalearthdata.com","min_zoom":0.0,"id":1156},"coordinates":[3561,702]},{"type":"Point","properties":{"label_placement":true,"kind":"lake","name":"Hartwell Lake","reservoir":true,"area":329583360,"sort_rank":200,"source":"naturalearthdata.com","min_zoom":0.0,"id":1170},"coordinates":[2567,1148]},{"type":"Point","properties":{"label_placement":true,"kind":"lake","name":"Lake Moultrie","reservoir":true,"area":289879552,"sort_rank":200,"source":"naturalearthdata.com","min_zoom":0.0,"id":1155},"coordinates":[3619,615]},{"type":"Point","properties":{"label_placement":true,"kind":"lake","name":"Smith Mountain Lake","reservoir":true,"area":240009552,"sort_rank":200,"source":"naturalearthdata.com","min_zoom":0.0,"id":1173},"coordinates":[3777,2344]},{"type":"Point","properties":{"label_placement":true,"kind":"lake","name":"Lake Murray","reservoir":true,"area":216760096,"sort_rank":200,"source":"naturalearthdata.com","min_zoom":0.0,"id":1178},"coordinates":[3156,959]},{"type":"Point","properties":{"label_placement":true,"kind":"lake","name":"Logan Martin Lake","reservoir":true,"area":99345960,"sort_rank":200,"source":"naturalearthdata.com","min_zoom":0.0,"id":1176},"coordinates":[1357,710]},{"type":"Point","properties":{"label_placement":true,"kind":"lake","name":"Mitchell Lake","reservoir":true,"area":70806640,"sort_rank":200,"source":"naturalearthdata.com","min_zoom":0.0,"id":1177},"coordinates":[1272,443]},{"type":"MultiLineString","properties":{"source":"naturalearthdata.com","kind":"ocean","sort_rank":205,"boundary":true,"min_zoom":0.0,"id":70},"arcs":[[333],[334]]},{"type":"LineString","properties":{"source":"naturalearthdata.com","kind":"ocean","sort_rank":205,"boundary":true,"min_zoom":0.0,"id":662},"arcs":[335]},{"type":"LineString","properties":{"source":"naturalearthdata.com","kind":"lake","reservoir":true,"sort_rank":367,"boundary":true,"min_zoom":0.0,"id":1127},"arcs":[336]},{"type":"LineString","properties":{"source":"naturalearthdata.com","kind":"lake","reservoir":true,"sort_rank":367,"boundary":true,"min_zoom":0.0,"id":1128},"arcs":[337]},{"type":"LineString","properties":{"source":"naturalearthdata.com","kind":"lake","reservoir":true,"sort_rank":367,"boundary":true,"min_zoom":0.0,"id":1131},"arcs":[338]},{"type":"LineString","properties":{"source":"naturalearthdata.com","kind":"lake","reservoir":true,"sort_rank":367,"boundary":true,"min_zoom":0.0,"id":1144},"arcs":[339]},{"type":"LineString","properties":{"source":"naturalearthdata.com","kind":"lake","reservoir":true,"sort_rank":367,"boundary":true,"min_zoom":0.0,"id":1153},"arcs":[340]},{"type":"LineString","properties":{"source":"naturalearthdata.com","kind":"lake","reservoir":true,"sort_rank":367,"boundary":true,"min_zoom":0.0,"id":1155},"arcs":[341]},{"type":"LineString","properties":{"source":"naturalearthdata.com","kind":"lake","reservoir":true,"sort_rank":367,"boundary":true,"min_zoom":0.0,"id":1156},"arcs":[342]},{"type":"LineString","properties":{"source":"naturalearthdata.com","kind":"lake","reservoir":true,"sort_rank":367,"boundary":true,"min_zoom":0.0,"id":1170},"arcs":[343]},{"type":"LineString","properties":{"source":"naturalearthdata.com","kind":"lake","reservoir":true,"sort_rank":367,"boundary":true,"min_zoom":0.0,"id":1171},"arcs":[344]},{"type":"LineString","properties":{"source":"naturalearthdata.com","kind":"lake","reservoir":true,"sort_rank":367,"boundary":true,"min_zoom":0.0,"id":1173},"arcs":[345]},{"type":"LineString","properties":{"source":"naturalearthdata.com","kind":"lake","reservoir":true,"sort_rank":367,"boundary":true,"min_zoom":0.0,"id":1174},"arcs":[346]},{"type":"LineString","properties":{"source":"naturalearthdata.com","kind":"lake","reservoir":true,"sort_rank":367,"boundary":true,"min_zoom":0.0,"id":1176},"arcs":[347]},{"type":"LineString","properties":{"source":"naturalearthdata.com","kind":"lake","reservoir":true,"sort_rank":367,"boundary":true,"min_zoom":0.0,"id":1177},"arcs":[348]},{"type":"LineString","properties":{"source":"naturalearthdata.com","kind":"lake","reservoir":true,"sort_rank":367,"boundary":true,"min_zoom":0.0,"id":1178},"arcs":[349]}]},"buildings":{"type":"GeometryCollection","geometries":[]},"places":{"type":"GeometryCollection","geometries":[{"type":"Point","properties":{"source":"naturalearthdata.com","kind":"locality","name":"Atlanta","population":4506000,"region_capital":true,"min_zoom":3.0,"id":7227},"coordinates":[2038,853]},{"type":"Point","properties":{"kind":"region","name:short":"IL","name":"Illinois","kind_detail":"state","name:eo":"Ilinojso","source":"openstreetmap.org","min_zoom":4.0,"name:uk":"\u0406\u043b\u043b\u0456\u043d\u043e\u0439\u0441","name:ru":"\u0418\u043b\u043b\u0438\u043d\u043e\u0439\u0441","name:be":"\u0406\u043b\u0456\u043d\u043e\u0439\u0441","name:zh":"\u4f0a\u5229\u8bfa\u4f0a\u5dde","id":553784069,"population":12880580},"coordinates":[206,3688]},{"type":"Point","properties":{"kind":"region","name:short":"OH","name":"Ohio","kind_detail":"state","source":"openstreetmap.org","min_zoom":4.0,"name:uk":"\u041e\u0433\u0430\u0439\u043e","name:ru":"\u041e\u0433\u0430\u0439\u043e","name:be":"\u0410\u0433\u0430\u0451","name:zh":"\u4fc4\u4ea5\u4fc4\u5dde","id":316982774,"population":11594163},"coordinates":[2662,3754]},{"type":"Point","properties":{"name:short":"GA","name:lt":"D\u017eord\u017eija","name:hi":"\u091c\u0949\u0930\u094d\u091c\u093f\u092f\u093e","name:he":"\u05d2'\u05d5\u05e8\u05d2'\u05d9\u05d4","name:cs":"Georgie","name:eo":"Georgio","name:tt":"\u0414\u0436\u043e\u0440\u0434\u0436\u0438\u044f","min_zoom":4.0,"name:uk":"\u0414\u0436\u043e\u0440\u0434\u0436\u0456\u044f","name:be":"\u0414\u0436\u043e\u0440\u0434\u0436\u044b\u044f","name:ru":"\u0414\u0436\u043e\u0440\u0434\u0436\u0438\u044f","id":316949496,"population":10097343,"kind":"region","name":"Georgia","kind_detail":"state","source":"openstreetmap.org","name:fr":"G\u00e9orgie","name:zh":"\u4f50\u6cbb\u4e9a\u5dde"},"coordinates":[2507,171]},{"type":"Point","properties":{"name:pt":"Carolina do Norte","name:short":"NC","name:sk":"Severn\u00e1 Karol\u00edna","name:he":"\u05e7\u05e8\u05d5\u05dc\u05d9\u05d9\u05e0\u05d4 \u05d4\u05e6\u05e4\u05d5\u05e0\u05d9\u05ea","name:cs":"Severn\u00ed Karol\u00edna","kind":"region","name:tt":"\u0422\u04e9\u043d\u044c\u044f\u043a \u041a\u0430\u0440\u043e\u043b\u0438\u043d\u0430","min_zoom":4.0,"name:sl":"Severna Karolina","name:uk":"\u041f\u0456\u0432\u043d\u0456\u0447\u043d\u0430 \u041a\u0430\u0440\u043e\u043b\u0456\u043d\u0430","name:vi":"B\u1eafc Carolina","name:ru":"\u0421\u0435\u0432\u0435\u0440\u043d\u0430\u044f \u041a\u0430\u0440\u043e\u043b\u0438\u043d\u0430","name:pl":"Karolina P\u00f3\u0142nocna","name:hu":"\u00c9szak-Karolina","id":316979074,"name:af":"Noord-Carolina","name:eo":"Norda Karolino","name":"North Carolina","kind_detail":"state","name:de":"Nord-Carolina","source":"openstreetmap.org","name:fr":"Caroline du Nord","name:et":"P\u00f5hja-Carolina","name:fy":"Noard-Karolina","name:be":"\u041f\u0430\u045e\u043d\u043e\u0447\u043d\u0430\u044f \u041a\u0430\u0440\u0430\u043b\u0456\u043d\u0430","population":9943964,"name:zh":"\u5317\u5361\u7f57\u6765\u7eb3\u5dde","name:es":"Carolina del Norte"},"coordinates":[3991,1688]},{"type":"Point","properties":{"kind":"region","name:short":"IN","name":"Indiana","kind_detail":"state","name:eo":"Indianio","source":"openstreetmap.org","min_zoom":4.0,"name:uk":"\u0406\u043d\u0434\u0456\u0430\u043d\u0430","name:ru":"\u0418\u043d\u0434\u0438\u0430\u043d\u0430","name:be":"\u0406\u043d\u0434\u044b\u044f\u043d\u0430","name:zh":"\u5370\u7b2c\u5b89\u7eb3\u5dde","id":316954434,"population":6596855},"coordinates":[1393,3800]},{"type":"Point","properties":{"kind":"region","name:short":"TN","name":"Tennessee","kind_detail":"state","name:eo":"Tenesio","source":"openstreetmap.org","min_zoom":4.0,"name:uk":"\u0422\u0435\u043d\u043d\u0435\u0441\u0441\u0456","name:ru":"\u0422\u0435\u043d\u043d\u0435\u0441\u0441\u0438","name:be":"\u0422\u044d\u043d\u0435\u0441\u0456\u0301","name:zh":"\u7530\u7eb3\u897f\u5dde","id":316994008,"population":6549352},"coordinates":[1354,1734]},{"type":"Point","properties":{"name:pt":"Carolina do Sul","name:short":"SC","name:sk":"Ju\u017en\u00e1 Karol\u00edna","name:he":"\u05e7\u05e8\u05d5\u05dc\u05d9\u05d9\u05e0\u05d4 \u05d4\u05d3\u05e8\u05d5\u05de\u05d9\u05ea","name:cs":"Ji\u017en\u00ed Karol\u00edna","kind":"region","name:tt":"\u041a\u04e9\u043d\u044c\u044f\u043a \u041a\u0430\u0440\u043e\u043b\u0438\u043d\u0430","min_zoom":4.0,"name:sl":"Ju\u017ena Karolina","name:uk":"\u041f\u0456\u0432\u0434\u0435\u043d\u043d\u0430 \u041a\u0430\u0440\u043e\u043b\u0456\u043d\u0430","name:vi":"Nam Carolina","name:ru":"\u042e\u0436\u043d\u0430\u044f \u041a\u0430\u0440\u043e\u043b\u0438\u043d\u0430","name:pl":"Karolina Po\u0142udniowa","name:hu":"D\u00e9l-Karolina","id":316990225,"name:af":"Suid-Carolina","name:eo":"Suda Karolino","name":"South Carolina","kind_detail":"state","name:de":"S\u00fcd-Carolina","source":"openstreetmap.org","name:fr":"Caroline du Sud","name:et":"L\u00f5una-Carolina","name:fy":"S\u00fad-Karolina","name:be":"\u041f\u0430\u045e\u0434\u043d\u0451\u0432\u0430\u044f \u041a\u0430\u0440\u0430\u043b\u0456\u043d\u0430","population":4832482,"name:zh":"\u5357\u5361\u7f57\u6765\u7eb3\u5dde","name:es":"Carolina del Sur"},"coordinates":[3482,787]},{"type":"Point","properties":{"kind":"region","name:short":"AL","name":"Alabama","kind_detail":"state","name:eo":"Alabamo","source":"openstreetmap.org","min_zoom":4.0,"name:uk":"\u0410\u043b\u0430\u0431\u0430\u043c\u0430","name:ru":"\u0410\u043b\u0430\u0431\u0430\u043c\u0430","name:be":"\u0410\u043b\u0430\u0431\u0430\u043c\u0430","name:zh":"\u4e9a\u62c9\u5df4\u9a6c\u5dde","id":316647532,"population":4779736},"coordinates":[1154,593]},{"type":"Point","properties":{"kind":"region","name:short":"KY","name":"Kentucky","kind_detail":"state","name:eo":"Kentukio","source":"openstreetmap.org","min_zoom":4.0,"name:uk":"\u041a\u0435\u043d\u0442\u0443\u043a\u043a\u0456","name:ru":"\u041a\u0435\u043d\u0442\u0443\u043a\u043a\u0438","name:be":"\u041a\u0435\u043d\u0442\u0443\u043a\u0456","name:zh":"\u80af\u5854\u57fa\u5dde","id":316959037,"population":4413457},"coordinates":[1764,2550]},{"type":"Point","properties":{"name:short":"MS","name:ko":"\ubbf8\uc2dc\uc2dc\ud53c \uc8fc","name:eo":"Misisipio","min_zoom":4.0,"name:uk":"\u041c\u0456\u0441\u0441\u0456\u0441\u0456\u043f\u0456","name:be":"\u041c\u0456\u0441\u0456\u0441\u0456\u043f\u0456","name:ru":"\u041c\u0438\u0441\u0441\u0438\u0441\u0438\u043f\u0438","name:pl":"Missisipi","id":316968897,"population":2994079,"kind":"region","name":"Mississippi","kind_detail":"state","source":"openstreetmap.org","name:fy":"Mississippy","name:zh":"\u5bc6\u897f\u897f\u6bd4\u5dde","name:es":"Misisipi"},"coordinates":[97,463]},{"type":"Point","properties":{"name:short":"WV","name:sk":"Z\u00e1padn\u00e1 Virg\u00ednia","name:lt":"Vakar\u0173 Vird\u017einija","name:he":"\u05d5\u05d9\u05e8\u05d2'\u05d9\u05e0\u05d9\u05d4 \u05d4\u05de\u05e2\u05e8\u05d1\u05d9\u05ea","name:cs":"Z\u00e1padn\u00ed Virginie","kind":"region","name:tt":"\u041a\u04e9\u043d\u0431\u0430\u0442\u044b\u0448 \u0412\u0438\u0440\u0433\u0438\u043d\u0438\u044f","min_zoom":4.0,"name:sl":"Zahodna Virginija","name:uk":"\u0417\u0430\u0445\u0456\u0434\u043d\u0430 \u0412\u0456\u0440\u0434\u0436\u0438\u043d\u0456\u044f","name:vi":"T\u00e2y Virginia","name:ru":"\u0417\u0430\u043f\u0430\u0434\u043d\u0430\u044f \u0412\u0438\u0440\u0433\u0438\u043d\u0438\u044f","name:pl":"Wirginia Zachodnia","name:hu":"Nyugat-Virginia","id":317006365,"name:af":"Wes-Virgini\u00eb","name:eo":"Okcidenta Virginio","name":"West Virginia","kind_detail":"state","source":"openstreetmap.org","name:fr":"Virginie Occidentale","name:et":"L\u00e4\u00e4ne-Virginia","name:fy":"West-Firginia","name:be":"\u0417\u0430\u0445\u043e\u0434\u043d\u044f\u044f \u0412\u0456\u0440\u0434\u0436\u044b\u043d\u0456\u044f","population":1850326,"name:zh":"\u897f\u5f17\u5409\u5c3c\u4e9a\u5dde","name:es":"Virginia Occidental"},"coordinates":[3335,2960]},{"type":"Point","properties":{"source":"naturalearthdata.com","kind":"locality","name":"Pittsburgh","population":1838000,"min_zoom":5.0,"id":6801},"coordinates":[3640,3847]},{"type":"Point","properties":{"source":"naturalearthdata.com","kind":"locality","name":"Cincinnati","population":1636000,"min_zoom":5.0,"id":6795},"coordinates":[2017,3272]},{"type":"Point","properties":{"source":"naturalearthdata.com","kind":"locality","name":"Indianapolis","population":1436000,"region_capital":true,"min_zoom":5.0,"id":6249},"coordinates":[1394,3539]},{"type":"Point","properties":{"source":"naturalearthdata.com","kind":"locality","name":"Nashville","population":877000,"region_capital":true,"min_zoom":5.0,"id":6796},"coordinates":[1172,1915]},{"type":"Point","properties":{"source":"naturalearthdata.com","kind":"locality","name":"Knoxville","population":655400,"min_zoom":5.0,"id":6251},"coordinates":[2214,1823]},{"type":"Point","properties":{"source":"naturalearthdata.com","kind":"locality","name":"Columbia","population":398093,"region_capital":true,"min_zoom":5.0,"id":6248},"coordinates":[3313,947]},{"type":"Point","properties":{"source":"naturalearthdata.com","kind":"locality","name":"Montgomery","population":198325,"region_capital":true,"min_zoom":5.0,"id":6243},"coordinates":[1355,186]},{"type":"Point","properties":{"source":"naturalearthdata.com","kind":"locality","name":"Savannah","population":180187,"min_zoom":5.0,"id":6247},"coordinates":[3237,31]},{"type":"Point","properties":{"source":"naturalearthdata.com","kind":"locality","name":"Charleston","population":123799,"region_capital":true,"min_zoom":5.0,"id":6253},"coordinates":[3046,2903]}]},"transit":{"type":"GeometryCollection","geometries":[{"type":"MultiLineString","properties":{"kind":"train","name":"City of New Orleans","service":"long_distance","sort_rank":275,"colour":"#005480","source":"openstreetmap.org","min_zoom":5.0,"network":"Amtrak","operator":"Amtrak","ref":"58-59","osm_relation":true,"colour_name":"teal"},"arcs":[[222],[223],[224],[225],[226],[227],[228],[229],[230],[231],[232],[233]]},{"type":"MultiLineString","properties":{"kind":"train","network":"Amtrak Intercity","service":"long_distance","sort_rank":275,"colour":"#005480","name":"Crescent","source":"openstreetmap.org","min_zoom":5.0,"operator":"Amtrak","ref":"19-20","osm_relation":true,"colour_name":"teal"},"arcs":[[234],[235],[236],[237],[238],[239],[240]]},{"type":"MultiLineString","properties":{"kind":"train","network":"Amtrak Intercity","service":"long_distance","sort_rank":275,"colour":"#005480","name":"Silver Meteor","source":"openstreetmap.org","min_zoom":5.0,"operator":"Amtrak","ref":"97-98","osm_relation":true,"colour_name":"teal"},"arcs":[[241],[242],[243]]},{"type":"MultiLineString","properties":{"kind":"train","network":"Amtrak Intercity","service":"long_distance","sort_rank":275,"colour":"#005480","name":"Carolinian","source":"openstreetmap.org","min_zoom":5.0,"operator":"Amtrak","ref":"79-80","osm_relation":true,"colour_name":"teal"},"arcs":[[244],[245],[246],[247],[248],[249],[250],[251],[252],[253],[254],[255],[256],[257],[258],[259],[260],[261],[262]]},{"type":"MultiLineString","properties":{"kind":"train","network":"Amtrak Intercity","service":"long_distance","sort_rank":275,"colour":"#005480","name":"Silver Star","source":"openstreetmap.org","min_zoom":5.0,"operator":"Amtrak","ref":"91-92","osm_relation":true,"colour_name":"teal"},"arcs":[[263],[264],[265],[266]]},{"type":"MultiLineString","properties":{"kind":"train","network":"Amtrak Intercity","service":"long_distance","sort_rank":275,"colour":"#005480","name":"Cardinal","source":"openstreetmap.org","min_zoom":5.0,"operator":"Amtrak","ref":"50-51","osm_relation":true,"colour_name":"teal"},"arcs":[[267],[268],[269],[270],[271],[272],[273],[274],[275],[276],[277],[278],[279],[280],[281],[282],[283],[284],[285],[286],[287],[288],[289],[290],[291],[292],[293],[294],[295],[296],[297],[298],[299],[300],[301],[302],[303],[304],[305],[306],[307]]},{"type":"MultiLineString","properties":{"kind":"train","network":"Amtrak Intercity","service":"long_distance","sort_rank":275,"colour":"#005480","name":"Palmetto","source":"openstreetmap.org","min_zoom":5.0,"operator":"Amtrak","ref":"89-90","osm_relation":true,"colour_name":"teal"},"arcs":[[308],[309],[310]]},{"type":"MultiLineString","properties":{"kind":"train","name":"Texas Eagle","service":"long_distance","sort_rank":275,"colour":"#005480","source":"openstreetmap.org","min_zoom":5.0,"operator":"Amtrak","ref":"21-22;421-422","osm_relation":true,"colour_name":"teal"},"arcs":[[311],[312],[313],[314],[315]]}]},"pois":{"type":"GeometryCollection","geometries":[]},"boundaries":{"type":"GeometryCollection","geometries":[{"type":"MultiLineString","properties":{"source":"naturalearthdata.com","kind":"region","sort_rank":256,"kind_detail":"4","min_zoom":2.0,"id":7970},"arcs":[[0],[1],[2]]},{"type":"LineString","properties":{"source":"naturalearthdata.com","kind":"region","sort_rank":256,"kind_detail":"4","min_zoom":2.0,"id":7974},"arcs":[3]},{"type":"MultiLineString","properties":{"source":"naturalearthdata.com","kind":"region","sort_rank":256,"kind_detail":"4","min_zoom":2.0,"id":7985},"arcs":[[4],[5],[6],[7],[8],[9],[10],[11],[12],[13],[14],[15],[16],[17]]},{"type":"MultiLineString","properties":{"source":"naturalearthdata.com","kind":"region","sort_rank":256,"kind_detail":"4","min_zoom":2.0,"id":7987},"arcs":[[18],[19],[20],[21],[22],[23]]},{"type":"LineString","properties":{"source":"naturalearthdata.com","kind":"region","sort_rank":256,"kind_detail":"4","min_zoom":2.0,"id":7989},"arcs":[24]},{"type":"MultiLineString","properties":{"source":"naturalearthdata.com","kind":"region","sort_rank":256,"kind_detail":"4","min_zoom":2.0,"id":7992},"arcs":[[25],[26]]},{"type":"MultiLineString","properties":{"source":"naturalearthdata.com","kind":"region","sort_rank":256,"kind_detail":"4","min_zoom":2.0,"id":7995},"arcs":[[27],[28]]},{"type":"LineString","properties":{"source":"naturalearthdata.com","kind":"region","sort_rank":256,"kind_detail":"4","min_zoom":2.0,"id":7999},"arcs":[29]},{"type":"MultiLineString","properties":{"source":"naturalearthdata.com","kind":"region","sort_rank":256,"kind_detail":"4","min_zoom":2.0,"id":8002},"arcs":[[30],[31],[32],[33],[34],[35],[36],[37],[38],[39],[40],[41],[42],[43]]},{"type":"LineString","properties":{"source":"naturalearthdata.com","kind":"region","sort_rank":256,"kind_detail":"4","min_zoom":2.0,"id":8004},"arcs":[44]},{"type":"LineString","properties":{"source":"naturalearthdata.com","kind":"region","sort_rank":256,"kind_detail":"4","min_zoom":2.0,"id":8006},"arcs":[45]},{"type":"MultiLineString","properties":{"source":"naturalearthdata.com","kind":"region","sort_rank":256,"kind_detail":"4","min_zoom":2.0,"id":7986},"arcs":[[46],[47],[48],[49],[50],[51],[52],[53],[54],[55]]},{"type":"LineString","properties":{"source":"naturalearthdata.com","kind":"region","sort_rank":256,"kind_detail":"4","min_zoom":2.0,"id":7988},"arcs":[56]},{"type":"MultiLineString","properties":{"source":"naturalearthdata.com","kind":"region","sort_rank":256,"kind_detail":"4","min_zoom":2.0,"id":7973},"arcs":[[57],[58],[59]]},{"type":"MultiLineString","properties":{"source":"naturalearthdata.com","kind":"region","sort_rank":256,"kind_detail":"4","min_zoom":2.0,"id":7969},"arcs":[[60],[61],[62],[63],[64],[65]]},{"type":"LineString","properties":{"source":"naturalearthdata.com","kind":"region","sort_rank":256,"kind_detail":"4","min_zoom":2.0,"id":7984},"arcs":[66]},{"type":"MultiLineString","properties":{"source":"naturalearthdata.com","kind":"region","sort_rank":256,"kind_detail":"4","min_zoom":2.0,"id":7981},"arcs":[[67],[68]]},{"type":"MultiLineString","properties":{"source":"naturalearthdata.com","kind":"region","sort_rank":256,"kind_detail":"4","min_zoom":2.0,"id":7982},"arcs":[[69],[70]]},{"type":"MultiLineString","properties":{"source":"naturalearthdata.com","kind":"region","sort_rank":256,"kind_detail":"4","min_zoom":2.0,"id":7983},"arcs":[[71],[72],[73],[74],[75]]},{"type":"MultiLineString","properties":{"source":"naturalearthdata.com","kind":"region","sort_rank":256,"kind_detail":"4","min_zoom":2.0,"id":7990},"arcs":[[76],[77],[78],[79],[80],[81],[82],[83],[84],[85],[86],[87],[88],[89],[90],[91],[92],[93],[94],[95]]},{"type":"MultiLineString","properties":{"source":"naturalearthdata.com","kind":"region","sort_rank":256,"kind_detail":"4","min_zoom":2.0,"id":7991},"arcs":[[96],[97],[98],[99],[100]]},{"type":"MultiLineString","properties":{"source":"naturalearthdata.com","kind":"region","sort_rank":256,"kind_detail":"4","min_zoom":2.0,"id":8014},"arcs":[[101],[102]]},{"type":"LineString","properties":{"source":"naturalearthdata.com","kind":"region","sort_rank":256,"kind_detail":"4","min_zoom":2.0,"id":7996},"arcs":[103]},{"type":"MultiLineString","properties":{"source":"naturalearthdata.com","kind":"region","sort_rank":256,"kind_detail":"4","min_zoom":2.0,"id":7998},"arcs":[[104],[105],[106]]},{"type":"MultiLineString","properties":{"source":"naturalearthdata.com","kind":"region","sort_rank":256,"kind_detail":"4","min_zoom":2.0,"id":8000},"arcs":[[107],[108],[109]]},{"type":"MultiLineString","properties":{"source":"naturalearthdata.com","kind":"region","sort_rank":256,"kind_detail":"4","min_zoom":2.0,"id":8003},"arcs":[[110],[111],[112],[113],[114],[115],[116],[117],[118],[119],[120],[121],[122],[123],[124],[125],[126],[127],[128],[129],[130],[131],[132],[133],[134]]},{"type":"MultiLineString","properties":{"source":"naturalearthdata.com","kind":"region","sort_rank":256,"kind_detail":"4","min_zoom":2.0,"id":8005},"arcs":[[135],[136],[137],[138],[139],[140],[141],[142],[143],[144]]},{"type":"LineString","properties":{"source":"naturalearthdata.com","kind":"region","sort_rank":256,"kind_detail":"4","min_zoom":2.0,"id":8011},"arcs":[145]},{"type":"MultiLineString","properties":{"source":"naturalearthdata.com","kind":"region","sort_rank":256,"kind_detail":"4","min_zoom":2.0,"id":8012},"arcs":[[146],[147],[148]]},{"type":"MultiLineString","properties":{"source":"naturalearthdata.com","kind":"region","sort_rank":256,"kind_detail":"4","min_zoom":2.0,"id":8016},"arcs":[[149],[150],[151]]},{"type":"MultiLineString","properties":{"source":"naturalearthdata.com","kind":"region","sort_rank":256,"kind_detail":"4","min_zoom":2.0,"id":8013},"arcs":[[152],[153],[154],[155],[156],[157],[158],[159],[160],[161],[162],[163],[164],[165],[166],[167]]},{"type":"MultiLineString","properties":{"source":"naturalearthdata.com","kind":"region","sort_rank":256,"kind_detail":"4","min_zoom":2.0,"id":8017},"arcs":[[168],[169],[170],[171],[172],[173]]},{"type":"MultiLineString","properties":{"source":"naturalearthdata.com","kind":"region","sort_rank":256,"kind_detail":"4","min_zoom":2.0,"id":8044},"arcs":[[174],[175],[176],[177],[178]]},{"type":"LineString","properties":{"source":"naturalearthdata.com","kind":"region","sort_rank":256,"kind_detail":"4","min_zoom":2.0,"id":8048},"arcs":[179]},{"type":"MultiLineString","properties":{"source":"naturalearthdata.com","kind":"region","sort_rank":256,"kind_detail":"4","min_zoom":2.0,"id":8049},"arcs":[[180],[181],[182],[183],[184],[185],[186],[187],[188],[189],[190],[191],[192],[193],[194],[195],[196],[197],[198],[199],[200],[201],[202],[203],[204]]},{"type":"MultiLineString","properties":{"source":"naturalearthdata.com","kind":"region","sort_rank":256,"kind_detail":"4","min_zoom":2.0,"id":8052},"arcs":[[205],[206],[207],[208],[209],[210],[211],[212],[213],[214],[215],[216],[217],[218],[219],[220],[221]]}]},"roads":{"type":"GeometryCollection","geometries":[{"type":"LineString","properties":{"kind":"highway","network":"US:I","sort_rank":383,"kind_detail":"motorway","source":"naturalearthdata.com","min_zoom":5.0,"shield_text":"57","id":83},"arcs":[350]},{"type":"LineString","properties":{"kind":"highway","network":"US:I","sort_rank":383,"kind_detail":"motorway","source":"naturalearthdata.com","min_zoom":5.0,"shield_text":"57","id":84},"arcs":[351]},{"type":"LineString","properties":{"kind":"highway","network":"US:I","sort_rank":383,"kind_detail":"motorway","source":"naturalearthdata.com","min_zoom":4.0,"shield_text":"79","id":86},"arcs":[352]},{"type":"LineString","properties":{"kind":"highway","network":"US:I","sort_rank":383,"kind_detail":"motorway","source":"naturalearthdata.com","min_zoom":4.0,"shield_text":"70","id":87},"arcs":[353]},{"type":"LineString","properties":{"kind":"highway","network":"US:I","sort_rank":383,"kind_detail":"motorway","source":"naturalearthdata.com","min_zoom":4.0,"landuse_kind":"urban_area","shield_text":"20","id":129},"arcs":[354]},{"type":"LineString","properties":{"kind":"highway","network":"US:I","sort_rank":383,"kind_detail":"motorway","source":"naturalearthdata.com","min_zoom":4.0,"shield_text":"20","id":129},"arcs":[355]},{"type":"LineString","properties":{"kind":"highway","network":"US:I","sort_rank":383,"kind_detail":"motorway","source":"naturalearthdata.com","min_zoom":4.0,"landuse_kind":"urban_area","shield_text":"77","id":134},"arcs":[356]},{"type":"LineString","properties":{"kind":"highway","network":"US:I","sort_rank":383,"kind_detail":"motorway","source":"naturalearthdata.com","min_zoom":4.0,"shield_text":"77","id":134},"arcs":[357]},{"type":"LineString","properties":{"kind":"highway","network":"US:US","sort_rank":383,"kind_detail":"motorway","source":"naturalearthdata.com","min_zoom":5.0,"shield_text":"220","id":135},"arcs":[358]},{"type":"LineString","properties":{"kind":"highway","network":"US:I","sort_rank":383,"kind_detail":"motorway","source":"naturalearthdata.com","min_zoom":5.0,"shield_text":"74","id":136},"arcs":[359]},{"type":"LineString","properties":{"kind":"highway","network":"US:I","sort_rank":383,"kind_detail":"motorway","source":"naturalearthdata.com","min_zoom":3.0,"shield_text":"26","id":139},"arcs":[360]},{"type":"LineString","properties":{"kind":"highway","network":"US:I","sort_rank":383,"kind_detail":"motorway","source":"naturalearthdata.com","min_zoom":3.0,"shield_text":"81","id":140},"arcs":[361]},{"type":"LineString","properties":{"kind":"highway","network":"US:I","sort_rank":383,"kind_detail":"motorway","source":"naturalearthdata.com","min_zoom":4.0,"shield_text":"65","id":148},"arcs":[362]},{"type":"LineString","properties":{"kind":"highway","network":"US:I","sort_rank":383,"kind_detail":"motorway","source":"naturalearthdata.com","min_zoom":3.0,"landuse_kind":"urban_area","shield_text":"65","id":153},"arcs":[363]},{"type":"LineString","properties":{"kind":"highway","network":"US:I","sort_rank":383,"kind_detail":"motorway","source":"naturalearthdata.com","min_zoom":3.0,"shield_text":"65","id":153},"arcs":[364]},{"type":"LineString","properties":{"kind":"highway","network":"US:I","sort_rank":383,"kind_detail":"motorway","source":"naturalearthdata.com","min_zoom":4.0,"landuse_kind":"urban_area","shield_text":"75","id":157},"arcs":[365]},{"type":"LineString","properties":{"kind":"highway","network":"US:I","sort_rank":383,"kind_detail":"motorway","source":"naturalearthdata.com","min_zoom":4.0,"shield_text":"75","id":157},"arcs":[366]},{"type":"LineString","properties":{"kind":"highway","network":"US:I","sort_rank":383,"kind_detail":"motorway","source":"naturalearthdata.com","min_zoom":5.0,"shield_text":"57","id":209},"arcs":[367]},{"type":"LineString","properties":{"kind":"highway","network":"US:I","sort_rank":383,"kind_detail":"motorway","source":"naturalearthdata.com","min_zoom":3.0,"landuse_kind":"urban_area","shield_text":"75","id":227},"arcs":[368]},{"type":"LineString","properties":{"kind":"highway","network":"US:I","sort_rank":383,"kind_detail":"motorway","source":"naturalearthdata.com","min_zoom":3.0,"landuse_kind":"urban_area","shield_text":"75","id":227},"arcs":[369]},{"type":"LineString","properties":{"kind":"highway","network":"US:I","sort_rank":383,"kind_detail":"motorway","source":"naturalearthdata.com","min_zoom":3.0,"shield_text":"75","id":227},"arcs":[370]},{"type":"LineString","properties":{"kind":"highway","network":"US:I","sort_rank":383,"kind_detail":"motorway","source":"naturalearthdata.com","min_zoom":3.0,"shield_text":"95","id":232},"arcs":[371]},{"type":"LineString","properties":{"kind":"highway","network":"US:I","sort_rank":383,"kind_detail":"motorway","source":"naturalearthdata.com","min_zoom":3.0,"landuse_kind":"urban_area","shield_text":"95","id":233},"arcs":[372]},{"type":"MultiLineString","properties":{"kind":"highway","network":"US:I","sort_rank":383,"kind_detail":"motorway","source":"naturalearthdata.com","min_zoom":3.0,"shield_text":"95","id":233},"arcs":[[373],[374]]},{"type":"LineString","properties":{"kind":"highway","network":"US:I","sort_rank":383,"kind_detail":"motorway","source":"naturalearthdata.com","min_zoom":3.0,"shield_text":"24","id":237},"arcs":[375]},{"type":"LineString","properties":{"kind":"highway","network":"US:US","sort_rank":383,"kind_detail":"motorway","source":"naturalearthdata.com","min_zoom":5.0,"shield_text":"422","id":253},"arcs":[376]},{"type":"LineString","properties":{"kind":"highway","network":"US:I","sort_rank":383,"kind_detail":"motorway","source":"naturalearthdata.com","min_zoom":5.0,"shield_text":"68","id":257},"arcs":[377]},{"type":"LineString","properties":{"kind":"highway","network":"US:I","sort_rank":383,"kind_detail":"motorway","source":"naturalearthdata.com","min_zoom":3.0,"shield_text":"81","id":258},"arcs":[378]},{"type":"LineString","properties":{"kind":"highway","network":"US:I","sort_rank":383,"kind_detail":"motorway","source":"naturalearthdata.com","min_zoom":5.0,"landuse_kind":"urban_area","shield_text":"85","id":260},"arcs":[379]},{"type":"MultiLineString","properties":{"kind":"highway","network":"US:I","sort_rank":383,"kind_detail":"motorway","source":"naturalearthdata.com","min_zoom":5.0,"shield_text":"85","id":260},"arcs":[[380],[381]]},{"type":"LineString","properties":{"kind":"highway","network":"US:I","sort_rank":383,"kind_detail":"motorway","source":"naturalearthdata.com","min_zoom":3.0,"landuse_kind":"urban_area","shield_text":"81","id":268},"arcs":[382]},{"type":"LineString","properties":{"kind":"highway","network":"US:I","sort_rank":383,"kind_detail":"motorway","source":"naturalearthdata.com","min_zoom":3.0,"shield_text":"81","id":268},"arcs":[383]},{"type":"LineString","properties":{"kind":"highway","network":"US:I","sort_rank":383,"kind_detail":"motorway","source":"naturalearthdata.com","min_zoom":5.0,"shield_text":"68","id":275},"arcs":[384]},{"type":"LineString","properties":{"kind":"highway","network":"US:I","sort_rank":383,"kind_detail":"motorway","source":"naturalearthdata.com","min_zoom":3.0,"shield_text":"71","id":304},"arcs":[385]},{"type":"LineString","properties":{"kind":"highway","network":"US:I","sort_rank":383,"kind_detail":"motorway","source":"naturalearthdata.com","min_zoom":3.0,"shield_text":"70","id":307},"arcs":[386]},{"type":"LineString","properties":{"kind":"highway","network":"US:I","sort_rank":383,"kind_detail":"motorway","source":"naturalearthdata.com","min_zoom":3.0,"landuse_kind":"urban_area","shield_text":"85","id":310},"arcs":[387]},{"type":"LineString","properties":{"kind":"highway","network":"US:I","sort_rank":383,"kind_detail":"motorway","source":"naturalearthdata.com","min_zoom":3.0,"shield_text":"85","id":310},"arcs":[388]},{"type":"LineString","properties":{"kind":"highway","network":"US:I","sort_rank":383,"kind_detail":"motorway","source":"naturalearthdata.com","min_zoom":3.0,"landuse_kind":"urban_area","shield_text":"85","id":312},"arcs":[389]},{"type":"LineString","properties":{"kind":"highway","network":"US:I","sort_rank":383,"kind_detail":"motorway","source":"naturalearthdata.com","min_zoom":3.0,"shield_text":"85","id":312},"arcs":[390]},{"type":"LineString","properties":{"kind":"highway","network":"US:I","sort_rank":383,"kind_detail":"motorway","source":"naturalearthdata.com","min_zoom":4.0,"shield_text":"77","id":317},"arcs":[391]},{"type":"LineString","properties":{"kind":"highway","network":"US:I","sort_rank":383,"kind_detail":"motorway","source":"naturalearthdata.com","min_zoom":3.0,"landuse_kind":"urban_area","shield_text":"85","id":318},"arcs":[392]},{"type":"LineString","properties":{"kind":"highway","network":"US:I","sort_rank":383,"kind_detail":"motorway","source":"naturalearthdata.com","min_zoom":3.0,"shield_text":"85","id":318},"arcs":[393]},{"type":"LineString","properties":{"kind":"highway","network":"US:I","sort_rank":383,"kind_detail":"motorway","source":"naturalearthdata.com","min_zoom":3.0,"shield_text":"85","id":319},"arcs":[394]},{"type":"LineString","properties":{"kind":"highway","network":"US:I","sort_rank":383,"kind_detail":"motorway","source":"naturalearthdata.com","min_zoom":3.0,"shield_text":"85","id":320},"arcs":[395]},{"type":"LineString","properties":{"kind":"highway","network":"US:I","sort_rank":383,"kind_detail":"motorway","source":"naturalearthdata.com","min_zoom":5.0,"shield_text":"72","id":328},"arcs":[396]},{"type":"LineString","properties":{"kind":"highway","network":"US:I","sort_rank":383,"kind_detail":"motorway","source":"naturalearthdata.com","min_zoom":3.0,"landuse_kind":"urban_area","shield_text":"40","id":332},"arcs":[397]},{"type":"LineString","properties":{"kind":"highway","network":"US:I","sort_rank":383,"kind_detail":"motorway","source":"naturalearthdata.com","min_zoom":3.0,"shield_text":"40","id":332},"arcs":[398]},{"type":"LineString","properties":{"kind":"highway","network":"US:I","sort_rank":383,"kind_detail":"motorway","source":"naturalearthdata.com","min_zoom":3.0,"shield_text":"55","id":342},"arcs":[399]},{"type":"LineString","properties":{"kind":"highway","network":"US:I","sort_rank":383,"kind_detail":"motorway","source":"naturalearthdata.com","min_zoom":5.0,"shield_text":"75","id":387},"arcs":[400]},{"type":"LineString","properties":{"kind":"highway","network":"US:I","sort_rank":383,"kind_detail":"motorway","source":"naturalearthdata.com","min_zoom":3.0,"shield_text":"76","id":1651},"arcs":[401]},{"type":"LineString","properties":{"kind":"highway","network":"US:I","sort_rank":383,"kind_detail":"motorway","source":"naturalearthdata.com","min_zoom":3.0,"shield_text":"76","id":1669},"arcs":[402]},{"type":"LineString","properties":{"kind":"highway","network":"US:I","sort_rank":383,"kind_detail":"motorway","source":"naturalearthdata.com","min_zoom":4.0,"landuse_kind":"urban_area","shield_text":"77","id":1683},"arcs":[403]},{"type":"LineString","properties":{"kind":"highway","network":"US:I","sort_rank":383,"kind_detail":"motorway","source":"naturalearthdata.com","min_zoom":4.0,"shield_text":"77","id":1683},"arcs":[404]},{"type":"LineString","properties":{"kind":"highway","network":"US:I","sort_rank":383,"kind_detail":"motorway","source":"naturalearthdata.com","min_zoom":3.0,"landuse_kind":"urban_area","shield_text":"76","id":1704},"arcs":[405]},{"type":"MultiLineString","properties":{"kind":"highway","network":"US:I","sort_rank":383,"kind_detail":"motorway","source":"naturalearthdata.com","min_zoom":3.0,"shield_text":"76","id":1704},"arcs":[[406],[407]]},{"type":"LineString","properties":{"kind":"highway","network":"US:I","sort_rank":383,"kind_detail":"motorway","source":"naturalearthdata.com","min_zoom":3.0,"shield_text":"70","id":1713},"arcs":[408]},{"type":"LineString","properties":{"kind":"highway","network":"US:I","sort_rank":383,"kind_detail":"motorway","source":"naturalearthdata.com","min_zoom":4.0,"landuse_kind":"urban_area","shield_text":"79","id":1720},"arcs":[409]},{"type":"LineString","properties":{"kind":"highway","network":"US:I","sort_rank":383,"kind_detail":"motorway","source":"naturalearthdata.com","min_zoom":4.0,"shield_text":"79","id":1720},"arcs":[410]},{"type":"LineString","properties":{"kind":"highway","network":"US:I","sort_rank":383,"kind_detail":"motorway","source":"naturalearthdata.com","min_zoom":4.0,"shield_text":"75","id":1722},"arcs":[411]},{"type":"LineString","properties":{"kind":"highway","network":"US:I","sort_rank":383,"kind_detail":"motorway","source":"naturalearthdata.com","min_zoom":4.0,"shield_text":"70","id":1724},"arcs":[412]},{"type":"LineString","properties":{"kind":"highway","network":"US:I","sort_rank":383,"kind_detail":"motorway","source":"naturalearthdata.com","min_zoom":4.0,"shield_text":"70","id":1725},"arcs":[413]},{"type":"LineString","properties":{"kind":"highway","network":"US:I","sort_rank":383,"kind_detail":"motorway","source":"naturalearthdata.com","min_zoom":4.0,"shield_text":"70","id":1740},"arcs":[414]},{"type":"LineString","properties":{"kind":"highway","network":"US:I","sort_rank":383,"kind_detail":"motorway","source":"naturalearthdata.com","min_zoom":4.0,"landuse_kind":"urban_area","shield_text":"77","id":1762},"arcs":[415]},{"type":"LineString","properties":{"kind":"highway","network":"US:I","sort_rank":383,"kind_detail":"motorway","source":"naturalearthdata.com","min_zoom":4.0,"shield_text":"77","id":1762},"arcs":[416]},{"type":"LineString","properties":{"kind":"highway","network":"US:I","sort_rank":383,"kind_detail":"motorway","source":"naturalearthdata.com","min_zoom":4.0,"shield_text":"79","id":1765},"arcs":[417]},{"type":"LineString","properties":{"kind":"highway","network":"US:I","sort_rank":383,"kind_detail":"motorway","source":"naturalearthdata.com","min_zoom":3.0,"landuse_kind":"urban_area","shield_text":"71","id":1772},"arcs":[418]},{"type":"LineString","properties":{"kind":"highway","network":"US:I","sort_rank":383,"kind_detail":"motorway","source":"naturalearthdata.com","min_zoom":3.0,"shield_text":"71","id":1772},"arcs":[419]},{"type":"LineString","properties":{"kind":"highway","network":"US:I","sort_rank":383,"kind_detail":"motorway","source":"naturalearthdata.com","min_zoom":3.0,"landuse_kind":"urban_area","shield_text":"71","id":1792},"arcs":[420]},{"type":"LineString","properties":{"kind":"highway","network":"US:I","sort_rank":383,"kind_detail":"motorway","source":"naturalearthdata.com","min_zoom":4.0,"landuse_kind":"urban_area","shield_text":"70","id":1794},"arcs":[421]},{"type":"LineString","properties":{"kind":"highway","network":"US:I","sort_rank":383,"kind_detail":"motorway","source":"naturalearthdata.com","min_zoom":4.0,"shield_text":"70","id":1794},"arcs":[422]},{"type":"LineString","properties":{"kind":"highway","network":"US:I","sort_rank":383,"kind_detail":"motorway","source":"naturalearthdata.com","min_zoom":3.0,"landuse_kind":"urban_area","shield_text":"71","id":1795},"arcs":[423]},{"type":"LineString","properties":{"kind":"highway","network":"US:I","sort_rank":383,"kind_detail":"motorway","source":"naturalearthdata.com","min_zoom":3.0,"landuse_kind":"urban_area","shield_text":"71","id":1800},"arcs":[424]},{"type":"LineString","properties":{"kind":"highway","network":"US:I","sort_rank":383,"kind_detail":"motorway","source":"naturalearthdata.com","min_zoom":4.0,"shield_text":"79","id":1811},"arcs":[425]},{"type":"LineString","properties":{"kind":"highway","network":"US:I","sort_rank":383,"kind_detail":"motorway","source":"naturalearthdata.com","min_zoom":4.0,"shield_text":"77","id":1813},"arcs":[426]},{"type":"LineString","properties":{"kind":"highway","network":"US:I","sort_rank":383,"kind_detail":"motorway","source":"naturalearthdata.com","min_zoom":4.0,"landuse_kind":"urban_area","shield_text":"70","id":1815},"arcs":[427]},{"type":"LineString","properties":{"kind":"highway","network":"US:I","sort_rank":383,"kind_detail":"motorway","source":"naturalearthdata.com","min_zoom":4.0,"shield_text":"70","id":1815},"arcs":[428]},{"type":"LineString","properties":{"kind":"highway","network":"US:I","sort_rank":383,"kind_detail":"motorway","source":"naturalearthdata.com","min_zoom":4.0,"landuse_kind":"urban_area","shield_text":"75","id":1816},"arcs":[429]},{"type":"LineString","properties":{"kind":"highway","network":"US:I","sort_rank":383,"kind_detail":"motorway","source":"naturalearthdata.com","min_zoom":4.0,"landuse_kind":"urban_area","shield_text":"70","id":1819},"arcs":[430]},{"type":"MultiLineString","properties":{"kind":"highway","network":"US:I","sort_rank":383,"kind_detail":"motorway","source":"naturalearthdata.com","min_zoom":4.0,"shield_text":"70","id":1819},"arcs":[[431],[432]]},{"type":"LineString","properties":{"kind":"highway","network":"US:I","sort_rank":383,"kind_detail":"motorway","source":"naturalearthdata.com","min_zoom":4.0,"shield_text":"74","id":1825},"arcs":[433]},{"type":"LineString","properties":{"kind":"highway","network":"US:I","sort_rank":383,"kind_detail":"motorway","source":"naturalearthdata.com","min_zoom":4.0,"landuse_kind":"urban_area","shield_text":"69","id":1830},"arcs":[434]},{"type":"LineString","properties":{"kind":"highway","network":"US:I","sort_rank":383,"kind_detail":"motorway","source":"naturalearthdata.com","min_zoom":4.0,"shield_text":"69","id":1830},"arcs":[435]},{"type":"LineString","properties":{"kind":"highway","network":"US:I","sort_rank":383,"kind_detail":"motorway","source":"naturalearthdata.com","min_zoom":5.0,"landuse_kind":"urban_area","shield_text":"465","id":1831},"arcs":[436]},{"type":"LineString","properties":{"kind":"highway","network":"US:I","sort_rank":383,"kind_detail":"motorway","source":"naturalearthdata.com","min_zoom":4.0,"shield_text":"74","id":1833},"arcs":[437]},{"type":"LineString","properties":{"kind":"highway","network":"US:I","sort_rank":383,"kind_detail":"motorway","source":"naturalearthdata.com","min_zoom":4.0,"shield_text":"74","id":1834},"arcs":[438]},{"type":"LineString","properties":{"kind":"highway","network":"US:I","sort_rank":383,"kind_detail":"motorway","source":"naturalearthdata.com","min_zoom":3.0,"landuse_kind":"urban_area","shield_text":"65","id":1838},"arcs":[439]},{"type":"LineString","properties":{"kind":"highway","network":"US:I","sort_rank":383,"kind_detail":"motorway","source":"naturalearthdata.com","min_zoom":3.0,"shield_text":"65","id":1838},"arcs":[440]},{"type":"LineString","properties":{"kind":"highway","network":"US:I","sort_rank":383,"kind_detail":"motorway","source":"naturalearthdata.com","min_zoom":4.0,"landuse_kind":"urban_area","shield_text":"70","id":1840},"arcs":[441]},{"type":"LineString","properties":{"kind":"highway","network":"US:I","sort_rank":383,"kind_detail":"motorway","source":"naturalearthdata.com","min_zoom":4.0,"shield_text":"70","id":1840},"arcs":[442]},{"type":"LineString","properties":{"kind":"highway","network":"US:I","sort_rank":383,"kind_detail":"motorway","source":"naturalearthdata.com","min_zoom":4.0,"landuse_kind":"urban_area","shield_text":"465","id":1841},"arcs":[443]},{"type":"LineString","properties":{"kind":"highway","network":"US:I","sort_rank":383,"kind_detail":"motorway","source":"naturalearthdata.com","min_zoom":4.0,"landuse_kind":"urban_area","shield_text":"74","id":1842},"arcs":[444]},{"type":"LineString","properties":{"kind":"highway","network":"US:I","sort_rank":383,"kind_detail":"motorway","source":"naturalearthdata.com","min_zoom":4.0,"shield_text":"74","id":1842},"arcs":[445]},{"type":"LineString","properties":{"kind":"highway","network":"US:I","sort_rank":383,"kind_detail":"motorway","source":"naturalearthdata.com","min_zoom":3.0,"shield_text":"55","id":1843},"arcs":[446]},{"type":"LineString","properties":{"kind":"highway","network":"US:I","sort_rank":383,"kind_detail":"motorway","source":"naturalearthdata.com","min_zoom":3.0,"landuse_kind":"urban_area","shield_text":"70","id":1845},"arcs":[447]},{"type":"LineString","properties":{"kind":"highway","network":"US:I","sort_rank":383,"kind_detail":"motorway","source":"naturalearthdata.com","min_zoom":3.0,"landuse_kind":"urban_area","shield_text":"65","id":1846},"arcs":[448]},{"type":"LineString","properties":{"kind":"highway","network":"US:I","sort_rank":383,"kind_detail":"motorway","source":"naturalearthdata.com","min_zoom":3.0,"landuse_kind":"urban_area","shield_text":"74","id":1865},"arcs":[449]},{"type":"LineString","properties":{"kind":"highway","network":"US:I","sort_rank":383,"kind_detail":"motorway","source":"naturalearthdata.com","min_zoom":3.0,"shield_text":"74","id":1865},"arcs":[450]},{"type":"LineString","properties":{"kind":"highway","network":"US:I","sort_rank":383,"kind_detail":"motorway","source":"naturalearthdata.com","min_zoom":3.0,"shield_text":"55","id":1866},"arcs":[451]},{"type":"LineString","properties":{"kind":"highway","network":"US:I","sort_rank":383,"kind_detail":"motorway","source":"naturalearthdata.com","min_zoom":3.0,"shield_text":"74","id":1867},"arcs":[452]},{"type":"LineString","properties":{"kind":"highway","network":"US:I","sort_rank":383,"kind_detail":"motorway","source":"naturalearthdata.com","min_zoom":3.0,"landuse_kind":"urban_area","shield_text":"71","id":1870},"arcs":[453]},{"type":"LineString","properties":{"kind":"highway","network":"US:I","sort_rank":383,"kind_detail":"motorway","source":"naturalearthdata.com","min_zoom":3.0,"landuse_kind":"urban_area","shield_text":"71","id":1870},"arcs":[454]},{"type":"LineString","properties":{"kind":"highway","network":"US:I","sort_rank":383,"kind_detail":"motorway","source":"naturalearthdata.com","min_zoom":3.0,"shield_text":"71","id":1870},"arcs":[455]},{"type":"LineString","properties":{"kind":"highway","network":"US:I","sort_rank":383,"kind_detail":"motorway","source":"naturalearthdata.com","min_zoom":4.0,"landuse_kind":"urban_area","shield_text":"75","id":1871},"arcs":[456]},{"type":"LineString","properties":{"kind":"highway","network":"US:I","sort_rank":383,"kind_detail":"motorway","source":"naturalearthdata.com","min_zoom":4.0,"landuse_kind":"urban_area","shield_text":"75","id":1871},"arcs":[457]},{"type":"LineString","properties":{"kind":"highway","network":"US:I","sort_rank":383,"kind_detail":"motorway","source":"naturalearthdata.com","min_zoom":4.0,"shield_text":"75","id":1871},"arcs":[458]},{"type":"LineString","properties":{"kind":"highway","network":"US:I","sort_rank":383,"kind_detail":"motorway","source":"naturalearthdata.com","min_zoom":3.0,"landuse_kind":"urban_area","shield_text":"74","id":1872},"arcs":[459]},{"type":"LineString","properties":{"kind":"highway","network":"US:I","sort_rank":383,"kind_detail":"motorway","source":"naturalearthdata.com","min_zoom":3.0,"shield_text":"74","id":1872},"arcs":[460]},{"type":"LineString","properties":{"kind":"highway","network":"US:I","sort_rank":383,"kind_detail":"motorway","source":"naturalearthdata.com","min_zoom":3.0,"landuse_kind":"urban_area","shield_text":"55","id":1873},"arcs":[461]},{"type":"MultiLineString","properties":{"kind":"highway","network":"US:I","sort_rank":383,"kind_detail":"motorway","source":"naturalearthdata.com","min_zoom":3.0,"shield_text":"55","id":1873},"arcs":[[462],[463]]},{"type":"LineString","properties":{"kind":"highway","network":"US:I","sort_rank":383,"kind_detail":"motorway","source":"naturalearthdata.com","min_zoom":3.0,"landuse_kind":"urban_area","shield_text":"74","id":1877},"arcs":[464]},{"type":"LineString","properties":{"kind":"highway","network":"US:I","sort_rank":383,"kind_detail":"motorway","source":"naturalearthdata.com","min_zoom":3.0,"landuse_kind":"urban_area","shield_text":"74","id":1878},"arcs":[465]},{"type":"LineString","properties":{"kind":"highway","network":"US:I","sort_rank":383,"kind_detail":"motorway","source":"naturalearthdata.com","min_zoom":3.0,"shield_text":"81","id":1880},"arcs":[466]},{"type":"LineString","properties":{"kind":"highway","network":"US:I","sort_rank":383,"kind_detail":"motorway","source":"naturalearthdata.com","min_zoom":4.0,"landuse_kind":"urban_area","shield_text":"75","id":1882},"arcs":[467]},{"type":"LineString","properties":{"kind":"highway","network":"US:I","sort_rank":383,"kind_detail":"motorway","source":"naturalearthdata.com","min_zoom":4.0,"landuse_kind":"urban_area","shield_text":"75","id":1883},"arcs":[468]},{"type":"LineString","properties":{"kind":"highway","network":"US:I","sort_rank":383,"kind_detail":"motorway","source":"naturalearthdata.com","min_zoom":3.0,"landuse_kind":"urban_area","shield_text":"70","id":1884},"arcs":[469]},{"type":"LineString","properties":{"kind":"highway","network":"US:I","sort_rank":383,"kind_detail":"motorway","source":"naturalearthdata.com","min_zoom":3.0,"shield_text":"70","id":1884},"arcs":[470]},{"type":"LineString","properties":{"kind":"highway","network":"US:I","sort_rank":383,"kind_detail":"motorway","source":"naturalearthdata.com","min_zoom":3.0,"landuse_kind":"urban_area","shield_text":"70","id":1885},"arcs":[471]},{"type":"MultiLineString","properties":{"kind":"highway","network":"US:I","sort_rank":383,"kind_detail":"motorway","source":"naturalearthdata.com","min_zoom":3.0,"shield_text":"70","id":1885},"arcs":[[472],[473]]},{"type":"LineString","properties":{"kind":"highway","network":"US:I","sort_rank":383,"kind_detail":"motorway","source":"naturalearthdata.com","min_zoom":3.0,"landuse_kind":"national_park","shield_text":"64","id":1886},"arcs":[474]},{"type":"MultiLineString","properties":{"kind":"highway","network":"US:I","sort_rank":383,"kind_detail":"motorway","source":"naturalearthdata.com","min_zoom":3.0,"shield_text":"64","id":1886},"arcs":[[475],[476]]},{"type":"LineString","properties":{"kind":"highway","network":"US:I","sort_rank":383,"kind_detail":"motorway","source":"naturalearthdata.com","min_zoom":4.0,"landuse_kind":"urban_area","shield_text":null,"id":1895},"arcs":[477]},{"type":"LineString","properties":{"kind":"highway","network":"US:I","sort_rank":383,"kind_detail":"motorway","source":"naturalearthdata.com","min_zoom":4.0,"shield_text":null,"id":1895},"arcs":[478]},{"type":"LineString","properties":{"source":"naturalearthdata.com","kind":"highway","sort_rank":355,"kind_detail":"trunk","min_zoom":4.0,"id":1900},"arcs":[479]},{"type":"LineString","properties":{"kind":"highway","network":"US:I","sort_rank":383,"kind_detail":"motorway","source":"naturalearthdata.com","min_zoom":4.0,"shield_text":"77","id":1901},"arcs":[480]},{"type":"LineString","properties":{"kind":"highway","network":"US:I","sort_rank":383,"kind_detail":"motorway","source":"naturalearthdata.com","min_zoom":3.0,"landuse_kind":"urban_area","shield_text":"65","id":1907},"arcs":[481]},{"type":"LineString","properties":{"kind":"highway","network":"US:I","sort_rank":383,"kind_detail":"motorway","source":"naturalearthdata.com","min_zoom":3.0,"shield_text":"65","id":1907},"arcs":[482]},{"type":"LineString","properties":{"kind":"highway","network":"US:I","sort_rank":383,"kind_detail":"motorway","source":"naturalearthdata.com","min_zoom":3.0,"shield_text":"64","id":1921},"arcs":[483]},{"type":"LineString","properties":{"kind":"highway","network":"US:I","sort_rank":383,"kind_detail":"motorway","source":"naturalearthdata.com","min_zoom":4.0,"landuse_kind":"urban_area","shield_text":"64","id":1924},"arcs":[484]},{"type":"LineString","properties":{"kind":"highway","network":"US:I","sort_rank":383,"kind_detail":"motorway","source":"naturalearthdata.com","min_zoom":4.0,"landuse_kind":"urban_area","shield_text":"64","id":1924},"arcs":[485]},{"type":"MultiLineString","properties":{"kind":"highway","network":"US:I","sort_rank":383,"kind_detail":"motorway","source":"naturalearthdata.com","min_zoom":4.0,"shield_text":"64","id":1924},"arcs":[[486],[487],[488]]},{"type":"LineString","properties":{"kind":"highway","network":"US:I","sort_rank":383,"kind_detail":"motorway","source":"naturalearthdata.com","min_zoom":3.0,"shield_text":"70","id":1925},"arcs":[489]},{"type":"LineString","properties":{"kind":"highway","network":"US:I","sort_rank":383,"kind_detail":"motorway","source":"naturalearthdata.com","min_zoom":3.0,"shield_text":"70","id":1926},"arcs":[490]},{"type":"LineString","properties":{"kind":"highway","network":"US:I","sort_rank":383,"kind_detail":"motorway","source":"naturalearthdata.com","min_zoom":4.0,"shield_text":"64","id":1948},"arcs":[491]},{"type":"LineString","properties":{"kind":"highway","network":"US:I","sort_rank":383,"kind_detail":"motorway","source":"naturalearthdata.com","min_zoom":4.0,"shield_text":"75","id":1958},"arcs":[492]},{"type":"LineString","properties":{"kind":"highway","network":"US:I","sort_rank":383,"kind_detail":"motorway","source":"naturalearthdata.com","min_zoom":3.0,"shield_text":"70","id":1960},"arcs":[493]},{"type":"LineString","properties":{"kind":"highway","network":"US:I","sort_rank":383,"kind_detail":"motorway","source":"naturalearthdata.com","min_zoom":3.0,"shield_text":"55","id":1961},"arcs":[494]},{"type":"LineString","properties":{"kind":"highway","network":"US:I","sort_rank":383,"kind_detail":"motorway","source":"naturalearthdata.com","min_zoom":4.0,"landuse_kind":"urban_area","shield_text":"64","id":1962},"arcs":[495]},{"type":"LineString","properties":{"kind":"highway","network":"US:I","sort_rank":383,"kind_detail":"motorway","source":"naturalearthdata.com","min_zoom":4.0,"shield_text":"64","id":1962},"arcs":[496]},{"type":"LineString","properties":{"kind":"highway","network":"US:I","sort_rank":383,"kind_detail":"motorway","source":"naturalearthdata.com","min_zoom":3.0,"landuse_kind":"urban_area","shield_text":"65","id":1964},"arcs":[497]},{"type":"LineString","properties":{"kind":"highway","network":"US:I","sort_rank":383,"kind_detail":"motorway","source":"naturalearthdata.com","min_zoom":3.0,"shield_text":"65","id":1964},"arcs":[498]},{"type":"LineString","properties":{"kind":"highway","network":"US:I","sort_rank":383,"kind_detail":"motorway","source":"naturalearthdata.com","min_zoom":4.0,"landuse_kind":"urban_area","shield_text":"75","id":1965},"arcs":[499]},{"type":"MultiLineString","properties":{"kind":"highway","network":"US:I","sort_rank":383,"kind_detail":"motorway","source":"naturalearthdata.com","min_zoom":4.0,"shield_text":"75","id":1965},"arcs":[[500],[501]]},{"type":"LineString","properties":{"kind":"highway","network":"US:I","sort_rank":383,"kind_detail":"motorway","source":"naturalearthdata.com","min_zoom":4.0,"landuse_kind":"park","shield_text":"64","id":1968},"arcs":[502]},{"type":"MultiLineString","properties":{"kind":"highway","network":"US:I","sort_rank":383,"kind_detail":"motorway","source":"naturalearthdata.com","min_zoom":4.0,"shield_text":"64","id":1968},"arcs":[[503],[504]]},{"type":"LineString","properties":{"kind":"highway","network":"US:I","sort_rank":383,"kind_detail":"motorway","source":"naturalearthdata.com","min_zoom":4.0,"landuse_kind":"urban_area","shield_text":"64","id":1970},"arcs":[505]},{"type":"LineString","properties":{"kind":"highway","network":"US:I","sort_rank":383,"kind_detail":"motorway","source":"naturalearthdata.com","min_zoom":4.0,"landuse_kind":"urban_area","shield_text":"64","id":1971},"arcs":[506]},{"type":"LineString","properties":{"kind":"highway","network":"US:I","sort_rank":383,"kind_detail":"motorway","source":"naturalearthdata.com","min_zoom":4.0,"shield_text":"75","id":1972},"arcs":[507]},{"type":"LineString","properties":{"kind":"highway","network":"US:I","sort_rank":383,"kind_detail":"motorway","source":"naturalearthdata.com","min_zoom":4.0,"landuse_kind":"urban_area","shield_text":"64","id":1973},"arcs":[508]},{"type":"LineString","properties":{"kind":"highway","network":"US:I","sort_rank":383,"kind_detail":"motorway","source":"naturalearthdata.com","min_zoom":4.0,"shield_text":"64","id":1973},"arcs":[509]},{"type":"LineString","properties":{"kind":"highway","network":"US:I","sort_rank":383,"kind_detail":"motorway","source":"naturalearthdata.com","min_zoom":4.0,"shield_text":"64","id":1978},"arcs":[510]},{"type":"LineString","properties":{"kind":"highway","network":"US:I","sort_rank":383,"kind_detail":"motorway","source":"naturalearthdata.com","min_zoom":3.0,"landuse_kind":"urban_area","shield_text":"70","id":1990},"arcs":[511]},{"type":"MultiLineString","properties":{"kind":"highway","network":"US:I","sort_rank":383,"kind_detail":"motorway","source":"naturalearthdata.com","min_zoom":3.0,"shield_text":"70","id":1990},"arcs":[[512],[513]]},{"type":"LineString","properties":{"kind":"highway","network":"US:I","sort_rank":383,"kind_detail":"motorway","source":"naturalearthdata.com","min_zoom":4.0,"landuse_kind":"forest","shield_text":"77","id":2004},"arcs":[514]},{"type":"LineString","properties":{"kind":"highway","network":"US:I","sort_rank":383,"kind_detail":"motorway","source":"naturalearthdata.com","min_zoom":4.0,"shield_text":"77","id":2004},"arcs":[515]},{"type":"LineString","properties":{"kind":"highway","network":"US:I","sort_rank":383,"kind_detail":"motorway","source":"naturalearthdata.com","min_zoom":4.0,"landuse_kind":"forest","shield_text":"77","id":2006},"arcs":[516]},{"type":"LineString","properties":{"kind":"highway","network":"US:I","sort_rank":383,"kind_detail":"motorway","source":"naturalearthdata.com","min_zoom":4.0,"shield_text":"64","id":2009},"arcs":[517]},{"type":"LineString","properties":{"kind":"highway","network":"US:I","sort_rank":383,"kind_detail":"motorway","source":"naturalearthdata.com","min_zoom":4.0,"landuse_kind":"urban_area","shield_text":"64","id":2010},"arcs":[518]},{"type":"MultiLineString","properties":{"kind":"highway","network":"US:I","sort_rank":383,"kind_detail":"motorway","source":"naturalearthdata.com","min_zoom":4.0,"shield_text":"64","id":2010},"arcs":[[519],[520]]},{"type":"LineString","properties":{"kind":"highway","network":"US:I","sort_rank":383,"kind_detail":"motorway","source":"naturalearthdata.com","min_zoom":4.0,"shield_text":"64","id":2013},"arcs":[521]},{"type":"LineString","properties":{"kind":"highway","network":"US:I","sort_rank":383,"kind_detail":"motorway","source":"naturalearthdata.com","min_zoom":4.0,"shield_text":"64","id":2014},"arcs":[522]},{"type":"LineString","properties":{"kind":"highway","network":"US:I","sort_rank":383,"kind_detail":"motorway","source":"naturalearthdata.com","min_zoom":4.0,"shield_text":"64","id":2018},"arcs":[523]},{"type":"LineString","properties":{"source":"naturalearthdata.com","kind":"highway","sort_rank":355,"kind_detail":"trunk","min_zoom":4.0,"id":2019},"arcs":[524]},{"type":"MultiLineString","properties":{"kind":"highway","network":"US:I","sort_rank":383,"kind_detail":"motorway","source":"naturalearthdata.com","min_zoom":3.0,"landuse_kind":"urban_area","shield_text":"81","id":2023},"arcs":[[525],[526]]},{"type":"MultiLineString","properties":{"kind":"highway","network":"US:I","sort_rank":383,"kind_detail":"motorway","source":"naturalearthdata.com","min_zoom":3.0,"shield_text":"81","id":2023},"arcs":[[527],[528]]},{"type":"LineString","properties":{"kind":"highway","network":"US:I","sort_rank":383,"kind_detail":"motorway","source":"naturalearthdata.com","min_zoom":4.0,"landuse_kind":"forest","shield_text":"77","id":2027},"arcs":[529]},{"type":"LineString","properties":{"kind":"highway","network":"US:I","sort_rank":383,"kind_detail":"motorway","source":"naturalearthdata.com","min_zoom":4.0,"landuse_kind":"forest","shield_text":"77","id":2027},"arcs":[530]},{"type":"MultiLineString","properties":{"kind":"highway","network":"US:I","sort_rank":383,"kind_detail":"motorway","source":"naturalearthdata.com","min_zoom":4.0,"shield_text":"77","id":2027},"arcs":[[531],[532]]},{"type":"LineString","properties":{"kind":"highway","network":"US:I","sort_rank":383,"kind_detail":"motorway","source":"naturalearthdata.com","min_zoom":3.0,"shield_text":"81","id":2029},"arcs":[533]},{"type":"LineString","properties":{"kind":"highway","network":"US:I","sort_rank":383,"kind_detail":"motorway","source":"naturalearthdata.com","min_zoom":3.0,"landuse_kind":"urban_area","shield_text":"65","id":2031},"arcs":[534]},{"type":"LineString","properties":{"kind":"highway","network":"US:I","sort_rank":383,"kind_detail":"motorway","source":"naturalearthdata.com","min_zoom":3.0,"shield_text":"65","id":2031},"arcs":[535]},{"type":"LineString","properties":{"kind":"highway","network":"US:I","sort_rank":383,"kind_detail":"motorway","source":"naturalearthdata.com","min_zoom":4.0,"landuse_kind":"park","shield_text":"75","id":2045},"arcs":[536]},{"type":"MultiLineString","properties":{"kind":"highway","network":"US:I","sort_rank":383,"kind_detail":"motorway","source":"naturalearthdata.com","min_zoom":4.0,"shield_text":"75","id":2045},"arcs":[[537],[538]]},{"type":"LineString","properties":{"kind":"highway","network":"US:I","sort_rank":383,"kind_detail":"motorway","source":"naturalearthdata.com","min_zoom":4.0,"shield_text":"77","id":2049},"arcs":[539]},{"type":"LineString","properties":{"kind":"highway","network":"US:I","sort_rank":383,"kind_detail":"motorway","source":"naturalearthdata.com","min_zoom":3.0,"shield_text":"26","id":2055},"arcs":[540]},{"type":"LineString","properties":{"kind":"highway","network":"US:I","sort_rank":383,"kind_detail":"motorway","source":"naturalearthdata.com","min_zoom":3.0,"landuse_kind":"urban_area","shield_text":"40","id":2059},"arcs":[541]},{"type":"MultiLineString","properties":{"kind":"highway","network":"US:I","sort_rank":383,"kind_detail":"motorway","source":"naturalearthdata.com","min_zoom":3.0,"landuse_kind":"urban_area","shield_text":"40","id":2059},"arcs":[[542],[543]]},{"type":"MultiLineString","properties":{"kind":"highway","network":"US:I","sort_rank":383,"kind_detail":"motorway","source":"naturalearthdata.com","min_zoom":3.0,"shield_text":"40","id":2059},"arcs":[[544],[545],[546]]},{"type":"LineString","properties":{"source":"naturalearthdata.com","kind":"highway","kind_detail":"trunk","sort_rank":355,"landuse_kind":"urban_area","min_zoom":4.0,"id":2061},"arcs":[547]},{"type":"LineString","properties":{"kind":"highway","network":"US:I","sort_rank":383,"kind_detail":"motorway","source":"naturalearthdata.com","min_zoom":3.0,"shield_text":"65","id":2063},"arcs":[548]},{"type":"LineString","properties":{"kind":"highway","network":"US:I","sort_rank":383,"kind_detail":"motorway","source":"naturalearthdata.com","min_zoom":3.0,"landuse_kind":"urban_area","shield_text":"40","id":2069},"arcs":[549]},{"type":"LineString","properties":{"kind":"highway","network":"US:I","sort_rank":383,"kind_detail":"motorway","source":"naturalearthdata.com","min_zoom":3.0,"shield_text":"40","id":2069},"arcs":[550]},{"type":"LineString","properties":{"kind":"highway","network":"US:I","sort_rank":383,"kind_detail":"motorway","source":"naturalearthdata.com","min_zoom":4.0,"shield_text":"75","id":2078},"arcs":[551]},{"type":"LineString","properties":{"kind":"highway","network":"US:I","sort_rank":383,"kind_detail":"motorway","source":"naturalearthdata.com","min_zoom":3.0,"shield_text":"65","id":2079},"arcs":[552]},{"type":"LineString","properties":{"kind":"highway","network":"US:I","sort_rank":383,"kind_detail":"motorway","source":"naturalearthdata.com","min_zoom":5.0,"shield_text":"57","id":2090},"arcs":[553]},{"type":"LineString","properties":{"kind":"highway","network":"US:US","sort_rank":383,"kind_detail":"motorway","source":"naturalearthdata.com","min_zoom":5.0,"landuse_kind":"urban_area","shield_text":"220","id":2098},"arcs":[554]},{"type":"LineString","properties":{"kind":"highway","network":"US:US","sort_rank":383,"kind_detail":"motorway","source":"naturalearthdata.com","min_zoom":5.0,"shield_text":"220","id":2098},"arcs":[555]},{"type":"LineString","properties":{"kind":"highway","network":"US:I","sort_rank":383,"kind_detail":"motorway","source":"naturalearthdata.com","min_zoom":4.0,"shield_text":"77","id":2100},"arcs":[556]},{"type":"LineString","properties":{"kind":"highway","network":"US:I","sort_rank":383,"kind_detail":"motorway","source":"naturalearthdata.com","min_zoom":5.0,"shield_text":"57","id":2102},"arcs":[557]},{"type":"LineString","properties":{"kind":"highway","network":"US:I","sort_rank":383,"kind_detail":"motorway","source":"naturalearthdata.com","min_zoom":3.0,"shield_text":"65","id":2103},"arcs":[558]},{"type":"LineString","properties":{"source":"naturalearthdata.com","kind":"major_road","sort_rank":380,"kind_detail":"primary","min_zoom":5.0,"id":2113},"arcs":[559]},{"type":"LineString","properties":{"kind":"highway","network":"US:I","sort_rank":383,"kind_detail":"motorway","source":"naturalearthdata.com","min_zoom":3.0,"shield_text":"26","id":2114},"arcs":[560]},{"type":"LineString","properties":{"kind":"highway","network":"US:I","sort_rank":383,"kind_detail":"motorway","source":"naturalearthdata.com","min_zoom":5.0,"shield_text":"57","id":2116},"arcs":[561]},{"type":"LineString","properties":{"kind":"highway","network":"US:I","sort_rank":383,"kind_detail":"motorway","source":"naturalearthdata.com","min_zoom":3.0,"landuse_kind":"urban_area","shield_text":"40","id":2128},"arcs":[562]},{"type":"LineString","properties":{"kind":"highway","network":"US:I","sort_rank":383,"kind_detail":"motorway","source":"naturalearthdata.com","min_zoom":3.0,"shield_text":"40","id":2128},"arcs":[563]},{"type":"LineString","properties":{"kind":"highway","network":"US:I","sort_rank":383,"kind_detail":"motorway","source":"naturalearthdata.com","min_zoom":4.0,"landuse_kind":"urban_area","shield_text":"75","id":2129},"arcs":[564]},{"type":"LineString","properties":{"kind":"highway","network":"US:I","sort_rank":383,"kind_detail":"motorway","source":"naturalearthdata.com","min_zoom":4.0,"shield_text":"75","id":2129},"arcs":[565]},{"type":"LineString","properties":{"kind":"highway","network":"US:I","sort_rank":383,"kind_detail":"motorway","source":"naturalearthdata.com","min_zoom":4.0,"landuse_kind":"park","shield_text":"40","id":2132},"arcs":[566]},{"type":"MultiLineString","properties":{"kind":"highway","network":"US:I","sort_rank":383,"kind_detail":"motorway","source":"naturalearthdata.com","min_zoom":4.0,"shield_text":"40","id":2132},"arcs":[[567],[568],[569],[570]]},{"type":"LineString","properties":{"kind":"highway","network":"US:I","sort_rank":383,"kind_detail":"motorway","source":"naturalearthdata.com","min_zoom":3.0,"landuse_kind":"urban_area","shield_text":"40","id":2141},"arcs":[571]},{"type":"LineString","properties":{"kind":"highway","network":"US:I","sort_rank":383,"kind_detail":"motorway","source":"naturalearthdata.com","min_zoom":3.0,"shield_text":"40","id":2141},"arcs":[572]},{"type":"LineString","properties":{"kind":"highway","network":"US:I","sort_rank":383,"kind_detail":"motorway","source":"naturalearthdata.com","min_zoom":4.0,"landuse_kind":"urban_area","shield_text":"277","id":2142},"arcs":[573]},{"type":"LineString","properties":{"kind":"highway","network":"US:I","sort_rank":383,"kind_detail":"motorway","source":"naturalearthdata.com","min_zoom":3.0,"shield_text":"26","id":2148},"arcs":[574]},{"type":"LineString","properties":{"kind":"highway","network":"US:I","sort_rank":383,"kind_detail":"motorway","source":"naturalearthdata.com","min_zoom":4.0,"landuse_kind":"urban_area","shield_text":"24","id":2149},"arcs":[575]},{"type":"LineString","properties":{"kind":"highway","network":"US:I","sort_rank":383,"kind_detail":"motorway","source":"naturalearthdata.com","min_zoom":4.0,"landuse_kind":"urban_area","shield_text":"277","id":2152},"arcs":[576]},{"type":"LineString","properties":{"kind":"highway","network":"US:I","sort_rank":383,"kind_detail":"motorway","source":"naturalearthdata.com","min_zoom":3.0,"landuse_kind":"urban_area","shield_text":"65","id":2153},"arcs":[577]},{"type":"LineString","properties":{"kind":"highway","network":"US:I","sort_rank":383,"kind_detail":"motorway","source":"naturalearthdata.com","min_zoom":4.0,"shield_text":"40","id":2154},"arcs":[578]},{"type":"LineString","properties":{"source":"naturalearthdata.com","kind":"major_road","sort_rank":380,"kind_detail":"primary","min_zoom":5.0,"id":2155},"arcs":[579]},{"type":"LineString","properties":{"kind":"highway","network":"US:I","sort_rank":383,"kind_detail":"motorway","source":"naturalearthdata.com","min_zoom":4.0,"landuse_kind":"urban_area","shield_text":"277","id":2157},"arcs":[580]},{"type":"LineString","properties":{"kind":"highway","network":"US:I","sort_rank":383,"kind_detail":"motorway","source":"naturalearthdata.com","min_zoom":3.0,"landuse_kind":"urban_area","shield_text":"85","id":2159},"arcs":[581]},{"type":"LineString","properties":{"kind":"highway","network":"US:I","sort_rank":383,"kind_detail":"motorway","source":"naturalearthdata.com","min_zoom":3.0,"shield_text":"85","id":2159},"arcs":[582]},{"type":"LineString","properties":{"source":"naturalearthdata.com","kind":"major_road","kind_detail":"primary","sort_rank":380,"landuse_kind":"urban_area","min_zoom":5.0,"id":2160},"arcs":[583]},{"type":"LineString","properties":{"source":"naturalearthdata.com","kind":"major_road","sort_rank":380,"kind_detail":"primary","min_zoom":5.0,"id":2160},"arcs":[584]},{"type":"LineString","properties":{"kind":"highway","network":"US:I","sort_rank":383,"kind_detail":"motorway","source":"naturalearthdata.com","min_zoom":3.0,"shield_text":"26","id":2161},"arcs":[585]},{"type":"LineString","properties":{"kind":"highway","network":"US:I","sort_rank":383,"kind_detail":"motorway","source":"naturalearthdata.com","min_zoom":3.0,"shield_text":"26","id":2166},"arcs":[586]},{"type":"LineString","properties":{"kind":"highway","network":"US:I","sort_rank":383,"kind_detail":"motorway","source":"naturalearthdata.com","min_zoom":3.0,"shield_text":"95","id":2167},"arcs":[587]},{"type":"LineString","properties":{"kind":"highway","network":"US:I","sort_rank":383,"kind_detail":"motorway","source":"naturalearthdata.com","min_zoom":3.0,"shield_text":"55","id":2168},"arcs":[588]},{"type":"LineString","properties":{"kind":"highway","network":"US:I","sort_rank":383,"kind_detail":"motorway","source":"naturalearthdata.com","min_zoom":3.0,"landuse_kind":"urban_area","shield_text":"85","id":2180},"arcs":[589]},{"type":"LineString","properties":{"kind":"highway","network":"US:I","sort_rank":383,"kind_detail":"motorway","source":"naturalearthdata.com","min_zoom":3.0,"shield_text":"85","id":2180},"arcs":[590]},{"type":"LineString","properties":{"kind":"highway","network":"US:I","sort_rank":383,"kind_detail":"motorway","source":"naturalearthdata.com","min_zoom":3.0,"landuse_kind":"urban_area","shield_text":"26","id":2181},"arcs":[591]},{"type":"LineString","properties":{"kind":"highway","network":"US:I","sort_rank":383,"kind_detail":"motorway","source":"naturalearthdata.com","min_zoom":3.0,"shield_text":"26","id":2181},"arcs":[592]},{"type":"LineString","properties":{"kind":"highway","network":"US:I","sort_rank":383,"kind_detail":"motorway","source":"naturalearthdata.com","min_zoom":3.0,"shield_text":"55","id":2185},"arcs":[593]},{"type":"LineString","properties":{"kind":"highway","network":"US:I","sort_rank":383,"kind_detail":"motorway","source":"naturalearthdata.com","min_zoom":3.0,"landuse_kind":"urban_area","shield_text":"40","id":2199},"arcs":[594]},{"type":"LineString","properties":{"kind":"highway","network":"US:I","sort_rank":383,"kind_detail":"motorway","source":"naturalearthdata.com","min_zoom":3.0,"landuse_kind":"urban_area","shield_text":"40","id":2199},"arcs":[595]},{"type":"LineString","properties":{"kind":"highway","network":"US:I","sort_rank":383,"kind_detail":"motorway","source":"naturalearthdata.com","min_zoom":3.0,"shield_text":"40","id":2199},"arcs":[596]},{"type":"LineString","properties":{"kind":"highway","network":"US:I","sort_rank":383,"kind_detail":"motorway","source":"naturalearthdata.com","min_zoom":3.0,"shield_text":"95","id":2210},"arcs":[597]},{"type":"LineString","properties":{"kind":"highway","network":"US:I","sort_rank":383,"kind_detail":"motorway","source":"naturalearthdata.com","min_zoom":3.0,"landuse_kind":"urban_area","shield_text":"26","id":2211},"arcs":[598]},{"type":"LineString","properties":{"kind":"highway","network":"US:I","sort_rank":383,"kind_detail":"motorway","source":"naturalearthdata.com","min_zoom":3.0,"shield_text":"26","id":2211},"arcs":[599]},{"type":"LineString","properties":{"kind":"highway","network":"US:I","sort_rank":383,"kind_detail":"motorway","source":"naturalearthdata.com","min_zoom":5.0,"landuse_kind":"urban_area","shield_text":"385","id":2214},"arcs":[600]},{"type":"LineString","properties":{"kind":"highway","network":"US:I","sort_rank":383,"kind_detail":"motorway","source":"naturalearthdata.com","min_zoom":5.0,"shield_text":"385","id":2214},"arcs":[601]},{"type":"LineString","properties":{"kind":"highway","network":"US:I","sort_rank":383,"kind_detail":"motorway","source":"naturalearthdata.com","min_zoom":5.0,"landuse_kind":"urban_area","shield_text":"75","id":2216},"arcs":[602]},{"type":"LineString","properties":{"kind":"highway","network":"US:I","sort_rank":383,"kind_detail":"motorway","source":"naturalearthdata.com","min_zoom":5.0,"shield_text":"75","id":2216},"arcs":[603]},{"type":"LineString","properties":{"kind":"highway","network":"US:I","sort_rank":383,"kind_detail":"motorway","source":"naturalearthdata.com","min_zoom":3.0,"landuse_kind":"urban_area","shield_text":"24","id":2217},"arcs":[604]},{"type":"LineString","properties":{"kind":"highway","network":"US:I","sort_rank":383,"kind_detail":"motorway","source":"naturalearthdata.com","min_zoom":3.0,"shield_text":"24","id":2217},"arcs":[605]},{"type":"LineString","properties":{"kind":"highway","network":"US:I","sort_rank":383,"kind_detail":"motorway","source":"naturalearthdata.com","min_zoom":3.0,"landuse_kind":"urban_area","shield_text":"24","id":2218},"arcs":[606]},{"type":"LineString","properties":{"kind":"highway","network":"US:I","sort_rank":383,"kind_detail":"motorway","source":"naturalearthdata.com","min_zoom":3.0,"landuse_kind":"urban_area","shield_text":"24","id":2218},"arcs":[607]},{"type":"MultiLineString","properties":{"kind":"highway","network":"US:I","sort_rank":383,"kind_detail":"motorway","source":"naturalearthdata.com","min_zoom":3.0,"shield_text":"24","id":2218},"arcs":[[608],[609]]},{"type":"LineString","properties":{"kind":"highway","network":"US:I","sort_rank":383,"kind_detail":"motorway","source":"naturalearthdata.com","min_zoom":3.0,"landuse_kind":"urban_area","shield_text":"24","id":2219},"arcs":[610]},{"type":"LineString","properties":{"kind":"highway","network":"US:I","sort_rank":383,"kind_detail":"motorway","source":"naturalearthdata.com","min_zoom":3.0,"shield_text":"24","id":2219},"arcs":[611]},{"type":"LineString","properties":{"kind":"highway","network":"US:I","sort_rank":383,"kind_detail":"motorway","source":"naturalearthdata.com","min_zoom":3.0,"shield_text":"24","id":2222},"arcs":[612]},{"type":"LineString","properties":{"kind":"highway","network":"US:I","sort_rank":383,"kind_detail":"motorway","source":"naturalearthdata.com","min_zoom":3.0,"shield_text":"24","id":2223},"arcs":[613]},{"type":"LineString","properties":{"kind":"highway","network":"US:I","sort_rank":383,"kind_detail":"motorway","source":"naturalearthdata.com","min_zoom":3.0,"landuse_kind":"urban_area","shield_text":"85","id":2227},"arcs":[614]},{"type":"LineString","properties":{"kind":"highway","network":"US:I","sort_rank":383,"kind_detail":"motorway","source":"naturalearthdata.com","min_zoom":3.0,"shield_text":"85","id":2227},"arcs":[615]},{"type":"LineString","properties":{"kind":"highway","network":"US:I","sort_rank":383,"kind_detail":"motorway","source":"naturalearthdata.com","min_zoom":4.0,"landuse_kind":"urban_area","shield_text":"77","id":2232},"arcs":[616]},{"type":"LineString","properties":{"kind":"highway","network":"US:I","sort_rank":383,"kind_detail":"motorway","source":"naturalearthdata.com","min_zoom":4.0,"landuse_kind":"urban_area","shield_text":"77","id":2232},"arcs":[617]},{"type":"LineString","properties":{"kind":"highway","network":"US:I","sort_rank":383,"kind_detail":"motorway","source":"naturalearthdata.com","min_zoom":4.0,"landuse_kind":"urban_area","shield_text":"77","id":2232},"arcs":[618]},{"type":"MultiLineString","properties":{"kind":"highway","network":"US:I","sort_rank":383,"kind_detail":"motorway","source":"naturalearthdata.com","min_zoom":4.0,"shield_text":"77","id":2232},"arcs":[[619],[620]]},{"type":"LineString","properties":{"kind":"highway","network":"US:I","sort_rank":383,"kind_detail":"motorway","source":"naturalearthdata.com","min_zoom":3.0,"shield_text":"55","id":2233},"arcs":[621]},{"type":"LineString","properties":{"kind":"highway","network":"US:I","sort_rank":383,"kind_detail":"motorway","source":"naturalearthdata.com","min_zoom":4.0,"landuse_kind":"urban_area","shield_text":"65","id":2240},"arcs":[622]},{"type":"LineString","properties":{"kind":"highway","network":"US:I","sort_rank":383,"kind_detail":"motorway","source":"naturalearthdata.com","min_zoom":4.0,"shield_text":"65","id":2240},"arcs":[623]},{"type":"LineString","properties":{"kind":"highway","network":"US:I","sort_rank":383,"kind_detail":"motorway","source":"naturalearthdata.com","min_zoom":4.0,"landuse_kind":"urban_area","shield_text":"20","id":2245},"arcs":[624]},{"type":"LineString","properties":{"kind":"highway","network":"US:I","sort_rank":383,"kind_detail":"motorway","source":"naturalearthdata.com","min_zoom":3.0,"landuse_kind":"park","shield_text":"26","id":2246},"arcs":[625]},{"type":"LineString","properties":{"kind":"highway","network":"US:I","sort_rank":383,"kind_detail":"motorway","source":"naturalearthdata.com","min_zoom":3.0,"landuse_kind":"urban_area","shield_text":"26","id":2246},"arcs":[626]},{"type":"MultiLineString","properties":{"kind":"highway","network":"US:I","sort_rank":383,"kind_detail":"motorway","source":"naturalearthdata.com","min_zoom":3.0,"shield_text":"26","id":2246},"arcs":[[627],[628]]},{"type":"LineString","properties":{"kind":"highway","network":"US:I","sort_rank":383,"kind_detail":"motorway","source":"naturalearthdata.com","min_zoom":5.0,"shield_text":"59","id":2247},"arcs":[629]},{"type":"LineString","properties":{"kind":"highway","network":"US:I","sort_rank":383,"kind_detail":"motorway","source":"naturalearthdata.com","min_zoom":3.0,"landuse_kind":"urban_area","shield_text":"40","id":2252},"arcs":[630]},{"type":"LineString","properties":{"kind":"highway","network":"US:I","sort_rank":383,"kind_detail":"motorway","source":"naturalearthdata.com","min_zoom":3.0,"landuse_kind":"urban_area","shield_text":"40","id":2252},"arcs":[631]},{"type":"LineString","properties":{"kind":"highway","network":"US:I","sort_rank":383,"kind_detail":"motorway","source":"naturalearthdata.com","min_zoom":3.0,"shield_text":"40","id":2252},"arcs":[632]},{"type":"LineString","properties":{"kind":"highway","network":"US:I","sort_rank":383,"kind_detail":"motorway","source":"naturalearthdata.com","min_zoom":4.0,"shield_text":"65","id":2258},"arcs":[633]},{"type":"LineString","properties":{"kind":"highway","network":"US:I","sort_rank":383,"kind_detail":"motorway","source":"naturalearthdata.com","min_zoom":5.0,"landuse_kind":"urban_area","shield_text":"565","id":2281},"arcs":[634]},{"type":"LineString","properties":{"kind":"highway","network":"US:I","sort_rank":383,"kind_detail":"motorway","source":"naturalearthdata.com","min_zoom":5.0,"shield_text":"565","id":2281},"arcs":[635]},{"type":"LineString","properties":{"kind":"highway","network":"US:I","sort_rank":383,"kind_detail":"motorway","source":"naturalearthdata.com","min_zoom":3.0,"landuse_kind":"urban_area","shield_text":"85","id":2291},"arcs":[636]},{"type":"LineString","properties":{"kind":"highway","network":"US:I","sort_rank":383,"kind_detail":"motorway","source":"naturalearthdata.com","min_zoom":3.0,"shield_text":"85","id":2291},"arcs":[637]},{"type":"LineString","properties":{"kind":"highway","network":"US:I","sort_rank":383,"kind_detail":"motorway","source":"naturalearthdata.com","min_zoom":3.0,"shield_text":"95","id":2303},"arcs":[638]},{"type":"LineString","properties":{"kind":"highway","network":"US:I","sort_rank":383,"kind_detail":"motorway","source":"naturalearthdata.com","min_zoom":3.0,"landuse_kind":"urban_area","shield_text":"26","id":2304},"arcs":[639]},{"type":"LineString","properties":{"kind":"highway","network":"US:I","sort_rank":383,"kind_detail":"motorway","source":"naturalearthdata.com","min_zoom":3.0,"shield_text":"26","id":2304},"arcs":[640]},{"type":"LineString","properties":{"kind":"highway","network":"US:I","sort_rank":383,"kind_detail":"motorway","source":"naturalearthdata.com","min_zoom":4.0,"landuse_kind":"urban_area","shield_text":"20","id":2308},"arcs":[641]},{"type":"LineString","properties":{"kind":"highway","network":"US:I","sort_rank":383,"kind_detail":"motorway","source":"naturalearthdata.com","min_zoom":4.0,"landuse_kind":"urban_area","shield_text":"20","id":2308},"arcs":[642]},{"type":"LineString","properties":{"kind":"highway","network":"US:I","sort_rank":383,"kind_detail":"motorway","source":"naturalearthdata.com","min_zoom":4.0,"shield_text":"20","id":2308},"arcs":[643]},{"type":"LineString","properties":{"kind":"highway","network":"US:I","sort_rank":383,"kind_detail":"motorway","source":"naturalearthdata.com","min_zoom":4.0,"landuse_kind":"urban_area","shield_text":"20","id":2315},"arcs":[644]},{"type":"LineString","properties":{"kind":"highway","network":"US:I","sort_rank":383,"kind_detail":"motorway","source":"naturalearthdata.com","min_zoom":4.0,"shield_text":"20","id":2315},"arcs":[645]},{"type":"LineString","properties":{"kind":"highway","network":"US:I","sort_rank":383,"kind_detail":"motorway","source":"naturalearthdata.com","min_zoom":3.0,"landuse_kind":"urban_area","shield_text":"85","id":2316},"arcs":[646]},{"type":"LineString","properties":{"kind":"highway","network":"US:I","sort_rank":383,"kind_detail":"motorway","source":"naturalearthdata.com","min_zoom":3.0,"landuse_kind":"urban_area","shield_text":"75","id":2317},"arcs":[647]},{"type":"LineString","properties":{"kind":"highway","network":"US:I","sort_rank":383,"kind_detail":"motorway","source":"naturalearthdata.com","min_zoom":3.0,"shield_text":"75","id":2317},"arcs":[648]},{"type":"LineString","properties":{"kind":"highway","network":"US:I","sort_rank":383,"kind_detail":"motorway","source":"naturalearthdata.com","min_zoom":5.0,"shield_text":"59","id":2319},"arcs":[649]},{"type":"LineString","properties":{"kind":"highway","network":"US:I","sort_rank":383,"kind_detail":"motorway","source":"naturalearthdata.com","min_zoom":3.0,"landuse_kind":"urban_area","shield_text":"85","id":2321},"arcs":[650]},{"type":"LineString","properties":{"kind":"highway","network":"US:I","sort_rank":383,"kind_detail":"motorway","source":"naturalearthdata.com","min_zoom":3.0,"landuse_kind":"urban_area","shield_text":"85","id":2323},"arcs":[651]},{"type":"LineString","properties":{"kind":"highway","network":"US:I","sort_rank":383,"kind_detail":"motorway","source":"naturalearthdata.com","min_zoom":3.0,"landuse_kind":"urban_area","shield_text":"85","id":2324},"arcs":[652]},{"type":"LineString","properties":{"kind":"highway","network":"US:I","sort_rank":383,"kind_detail":"motorway","source":"naturalearthdata.com","min_zoom":4.0,"landuse_kind":"urban_area","shield_text":"20","id":2329},"arcs":[653]},{"type":"LineString","properties":{"kind":"highway","network":"US:I","sort_rank":383,"kind_detail":"motorway","source":"naturalearthdata.com","min_zoom":4.0,"shield_text":"20","id":2329},"arcs":[654]},{"type":"LineString","properties":{"kind":"highway","network":"US:I","sort_rank":383,"kind_detail":"motorway","source":"naturalearthdata.com","min_zoom":5.0,"landuse_kind":"urban_area","shield_text":"26","id":2332},"arcs":[655]},{"type":"LineString","properties":{"kind":"highway","network":"US:I","sort_rank":383,"kind_detail":"motorway","source":"naturalearthdata.com","min_zoom":5.0,"shield_text":"26","id":2332},"arcs":[656]},{"type":"LineString","properties":{"kind":"highway","network":"US:I","sort_rank":383,"kind_detail":"motorway","source":"naturalearthdata.com","min_zoom":3.0,"shield_text":"95","id":2350},"arcs":[657]},{"type":"LineString","properties":{"kind":"highway","network":"US:I","sort_rank":383,"kind_detail":"motorway","source":"naturalearthdata.com","min_zoom":5.0,"landuse_kind":"urban_area","shield_text":"59","id":2354},"arcs":[658]},{"type":"LineString","properties":{"kind":"highway","network":"US:I","sort_rank":383,"kind_detail":"motorway","source":"naturalearthdata.com","min_zoom":5.0,"shield_text":"59","id":2354},"arcs":[659]},{"type":"LineString","properties":{"kind":"highway","network":"US:I","sort_rank":383,"kind_detail":"motorway","source":"naturalearthdata.com","min_zoom":4.0,"landuse_kind":"urban_area","shield_text":"65","id":2357},"arcs":[660]},{"type":"LineString","properties":{"kind":"highway","network":"US:I","sort_rank":383,"kind_detail":"motorway","source":"naturalearthdata.com","min_zoom":4.0,"shield_text":"65","id":2357},"arcs":[661]},{"type":"LineString","properties":{"kind":"highway","network":"US:I","sort_rank":383,"kind_detail":"motorway","source":"naturalearthdata.com","min_zoom":4.0,"landuse_kind":"urban_area","shield_text":"65","id":2358},"arcs":[662]},{"type":"LineString","properties":{"kind":"highway","network":"US:I","sort_rank":383,"kind_detail":"motorway","source":"naturalearthdata.com","min_zoom":3.0,"landuse_kind":"urban_area","shield_text":"85","id":2366},"arcs":[663]},{"type":"LineString","properties":{"kind":"highway","network":"US:I","sort_rank":383,"kind_detail":"motorway","source":"naturalearthdata.com","min_zoom":3.0,"shield_text":"85","id":2366},"arcs":[664]},{"type":"LineString","properties":{"source":"naturalearthdata.com","kind":"highway","kind_detail":"trunk","sort_rank":355,"landuse_kind":"urban_area","min_zoom":4.0,"id":2368},"arcs":[665]},{"type":"LineString","properties":{"kind":"highway","network":"US:I","sort_rank":383,"kind_detail":"motorway","source":"naturalearthdata.com","min_zoom":3.0,"landuse_kind":"urban_area","shield_text":"55","id":2374},"arcs":[666]},{"type":"LineString","properties":{"kind":"highway","network":"US:I","sort_rank":383,"kind_detail":"motorway","source":"naturalearthdata.com","min_zoom":3.0,"shield_text":"55","id":2374},"arcs":[667]},{"type":"LineString","properties":{"kind":"highway","network":"US:I","sort_rank":383,"kind_detail":"motorway","source":"naturalearthdata.com","min_zoom":4.0,"landuse_kind":"urban_area","shield_text":"20","id":2385},"arcs":[668]},{"type":"LineString","properties":{"kind":"highway","network":"US:I","sort_rank":383,"kind_detail":"motorway","source":"naturalearthdata.com","min_zoom":4.0,"landuse_kind":"urban_area","shield_text":"20","id":2385},"arcs":[669]},{"type":"LineString","properties":{"kind":"highway","network":"US:I","sort_rank":383,"kind_detail":"motorway","source":"naturalearthdata.com","min_zoom":4.0,"shield_text":"20","id":2385},"arcs":[670]},{"type":"LineString","properties":{"kind":"highway","network":"US:I","sort_rank":383,"kind_detail":"motorway","source":"naturalearthdata.com","min_zoom":4.0,"landuse_kind":"urban_area","shield_text":"16","id":2387},"arcs":[671]},{"type":"LineString","properties":{"kind":"highway","network":"US:I","sort_rank":383,"kind_detail":"motorway","source":"naturalearthdata.com","min_zoom":4.0,"shield_text":"16","id":2387},"arcs":[672]},{"type":"LineString","properties":{"kind":"highway","network":"US:I","sort_rank":383,"kind_detail":"motorway","source":"naturalearthdata.com","min_zoom":4.0,"shield_text":"16","id":2396},"arcs":[673]},{"type":"LineString","properties":{"kind":"highway","network":"US:I","sort_rank":383,"kind_detail":"motorway","source":"naturalearthdata.com","min_zoom":4.0,"landuse_kind":"urban_area","shield_text":"16","id":2398},"arcs":[674]},{"type":"LineString","properties":{"kind":"highway","network":"US:I","sort_rank":383,"kind_detail":"motorway","source":"naturalearthdata.com","min_zoom":4.0,"shield_text":"16","id":2398},"arcs":[675]},{"type":"LineString","properties":{"kind":"highway","network":"US:I","sort_rank":383,"kind_detail":"motorway","source":"naturalearthdata.com","min_zoom":5.0,"landuse_kind":"urban_area","shield_text":"185","id":2416},"arcs":[676]},{"type":"LineString","properties":{"kind":"highway","network":"US:I","sort_rank":383,"kind_detail":"motorway","source":"naturalearthdata.com","min_zoom":5.0,"shield_text":"185","id":2416},"arcs":[677]},{"type":"LineString","properties":{"kind":"highway","network":"US:I","sort_rank":383,"kind_detail":"motorway","source":"naturalearthdata.com","min_zoom":5.0,"landuse_kind":"urban_area","shield_text":"185","id":2437},"arcs":[678]},{"type":"LineString","properties":{"kind":"highway","network":"US:I","sort_rank":383,"kind_detail":"motorway","source":"naturalearthdata.com","min_zoom":5.0,"shield_text":"185","id":2437},"arcs":[679]},{"type":"LineString","properties":{"kind":"highway","network":"US:I","sort_rank":383,"kind_detail":"motorway","source":"naturalearthdata.com","min_zoom":5.0,"landuse_kind":"urban_area","shield_text":"185","id":2438},"arcs":[680]},{"type":"LineString","properties":{"kind":"highway","network":"US:I","sort_rank":383,"kind_detail":"motorway","source":"naturalearthdata.com","min_zoom":5.0,"shield_text":"185","id":2438},"arcs":[681]},{"type":"LineString","properties":{"kind":"highway","network":"US:I","sort_rank":383,"kind_detail":"motorway","source":"naturalearthdata.com","min_zoom":3.0,"shield_text":"95","id":2442},"arcs":[682]},{"type":"LineString","properties":{"kind":"highway","network":"US:I","sort_rank":383,"kind_detail":"motorway","source":"naturalearthdata.com","min_zoom":3.0,"landuse_kind":"urban_area","shield_text":"85","id":2450},"arcs":[683]},{"type":"LineString","properties":{"kind":"highway","network":"US:I","sort_rank":383,"kind_detail":"motorway","source":"naturalearthdata.com","min_zoom":3.0,"shield_text":"85","id":2450},"arcs":[684]},{"type":"LineString","properties":{"kind":"highway","network":"US:I","sort_rank":383,"kind_detail":"motorway","source":"naturalearthdata.com","min_zoom":4.0,"landuse_kind":"urban_area","shield_text":"65","id":2451},"arcs":[685]},{"type":"LineString","properties":{"kind":"highway","network":"US:I","sort_rank":383,"kind_detail":"motorway","source":"naturalearthdata.com","min_zoom":4.0,"landuse_kind":"urban_area","shield_text":"65","id":2451},"arcs":[686]},{"type":"MultiLineString","properties":{"kind":"highway","network":"US:I","sort_rank":383,"kind_detail":"motorway","source":"naturalearthdata.com","min_zoom":4.0,"shield_text":"65","id":2451},"arcs":[[687],[688]]},{"type":"LineString","properties":{"kind":"highway","network":"US:I","sort_rank":383,"kind_detail":"motorway","source":"naturalearthdata.com","min_zoom":4.0,"landuse_kind":"urban_area","shield_text":"20","id":2454},"arcs":[689]},{"type":"LineString","properties":{"kind":"highway","network":"US:I","sort_rank":383,"kind_detail":"motorway","source":"naturalearthdata.com","min_zoom":4.0,"shield_text":"20","id":2454},"arcs":[690]},{"type":"LineString","properties":{"kind":"highway","network":"US:I","sort_rank":383,"kind_detail":"motorway","source":"naturalearthdata.com","min_zoom":4.0,"shield_text":"20","id":2457},"arcs":[691]},{"type":"LineString","properties":{"kind":"highway","network":"US:I","sort_rank":383,"kind_detail":"motorway","source":"naturalearthdata.com","min_zoom":4.0,"shield_text":"20","id":2459},"arcs":[692]},{"type":"LineString","properties":{"kind":"highway","network":"US:I","sort_rank":383,"kind_detail":"motorway","source":"naturalearthdata.com","min_zoom":4.0,"shield_text":"20","id":2461},"arcs":[693]},{"type":"LineString","properties":{"kind":"highway","network":"US:I","sort_rank":383,"kind_detail":"motorway","source":"naturalearthdata.com","min_zoom":4.0,"shield_text":"20","id":2462},"arcs":[694]},{"type":"LineString","properties":{"kind":"highway","network":"US:I","sort_rank":383,"kind_detail":"motorway","source":"naturalearthdata.com","min_zoom":3.0,"landuse_kind":"urban_area","shield_text":"75","id":2469},"arcs":[695]},{"type":"LineString","properties":{"kind":"highway","network":"US:I","sort_rank":383,"kind_detail":"motorway","source":"naturalearthdata.com","min_zoom":3.0,"shield_text":"75","id":2469},"arcs":[696]},{"type":"LineString","properties":{"kind":"highway","network":"US:I","sort_rank":383,"kind_detail":"motorway","source":"naturalearthdata.com","min_zoom":3.0,"shield_text":"55","id":2485},"arcs":[697]},{"type":"LineString","properties":{"kind":"highway","network":"US:I","sort_rank":383,"kind_detail":"motorway","source":"naturalearthdata.com","min_zoom":4.0,"landuse_kind":"park","shield_text":"20","id":2487},"arcs":[698]},{"type":"MultiLineString","properties":{"kind":"highway","network":"US:I","sort_rank":383,"kind_detail":"motorway","source":"naturalearthdata.com","min_zoom":4.0,"shield_text":"20","id":2487},"arcs":[[699],[700]]},{"type":"LineString","properties":{"kind":"highway","network":"US:I","sort_rank":383,"kind_detail":"motorway","source":"naturalearthdata.com","min_zoom":5.0,"shield_text":"59","id":2555},"arcs":[701]},{"type":"LineString","properties":{"kind":"highway","network":"US:I","sort_rank":383,"kind_detail":"motorway","source":"naturalearthdata.com","min_zoom":3.0,"shield_text":"65","id":2589},"arcs":[702]},{"type":"LineString","properties":{"kind":"highway","network":"US:I","sort_rank":383,"kind_detail":"motorway","source":"naturalearthdata.com","min_zoom":4.0,"shield_text":"39","id":3230},"arcs":[703]},{"type":"LineString","properties":{"kind":"highway","network":"US:I","sort_rank":383,"kind_detail":"motorway","source":"naturalearthdata.com","min_zoom":3.0,"shield_text":"55","id":3231},"arcs":[704]},{"type":"MultiLineString","properties":{"kind":"highway","network":"US:I","sort_rank":383,"kind_detail":"motorway","source":"naturalearthdata.com","min_zoom":3.0,"landuse_kind":"urban_area","shield_text":"85","id":3573},"arcs":[[705],[706]]},{"type":"LineString","properties":{"kind":"highway","network":"US:I","sort_rank":383,"kind_detail":"motorway","source":"naturalearthdata.com","min_zoom":3.0,"shield_text":"85","id":3573},"arcs":[707]},{"type":"MultiLineString","properties":{"kind":"highway","network":"US:I","sort_rank":383,"kind_detail":"motorway","source":"naturalearthdata.com","min_zoom":5.0,"landuse_kind":"urban_area","shield_text":"270","id":3601},"arcs":[[708],[709]]},{"type":"LineString","properties":{"kind":"highway","network":"US:I","sort_rank":383,"kind_detail":"motorway","source":"naturalearthdata.com","min_zoom":5.0,"shield_text":"270","id":3601},"arcs":[710]},{"type":"MultiLineString","properties":{"kind":"highway","network":"US:I","sort_rank":383,"kind_detail":"motorway","source":"naturalearthdata.com","min_zoom":5.0,"landuse_kind":"urban_area","shield_text":"275","id":3603},"arcs":[[711],[712],[713]]},{"type":"MultiLineString","properties":{"kind":"highway","network":"US:I","sort_rank":383,"kind_detail":"motorway","source":"naturalearthdata.com","min_zoom":5.0,"shield_text":"275","id":3603},"arcs":[[714],[715]]},{"type":"MultiLineString","properties":{"kind":"highway","network":"US:I","sort_rank":383,"kind_detail":"motorway","source":"naturalearthdata.com","min_zoom":5.0,"landuse_kind":"urban_area","shield_text":"74","id":3606},"arcs":[[716],[717]]},{"type":"LineString","properties":{"kind":"highway","network":"US:I","sort_rank":383,"kind_detail":"motorway","source":"naturalearthdata.com","min_zoom":5.0,"shield_text":"74","id":3606},"arcs":[718]},{"type":"LineString","properties":{"kind":"highway","network":"US:I","sort_rank":383,"kind_detail":"motorway","source":"naturalearthdata.com","min_zoom":5.0,"landuse_kind":"urban_area","shield_text":"465","id":3607},"arcs":[719]},{"type":"LineString","properties":{"kind":"highway","network":"US:I","sort_rank":383,"kind_detail":"motorway","source":"naturalearthdata.com","min_zoom":5.0,"landuse_kind":"urban_area","shield_text":"265","id":3608},"arcs":[720]},{"type":"LineString","properties":{"kind":"highway","network":"US:I","sort_rank":383,"kind_detail":"motorway","source":"naturalearthdata.com","min_zoom":5.0,"shield_text":"265","id":3608},"arcs":[721]},{"type":"LineString","properties":{"kind":"highway","network":"US:I","sort_rank":383,"kind_detail":"motorway","source":"naturalearthdata.com","min_zoom":5.0,"landuse_kind":"urban_area","shield_text":"264","id":3610},"arcs":[722]},{"type":"LineString","properties":{"source":"naturalearthdata.com","kind":"highway","kind_detail":"motorway","sort_rank":383,"landuse_kind":"urban_area","min_zoom":5.0,"id":3611},"arcs":[723]},{"type":"MultiLineString","properties":{"source":"naturalearthdata.com","kind":"highway","sort_rank":383,"kind_detail":"motorway","min_zoom":5.0,"id":3611},"arcs":[[724],[725]]},{"type":"LineString","properties":{"source":"naturalearthdata.com","kind":"highway","kind_detail":"motorway","sort_rank":383,"landuse_kind":"urban_area","min_zoom":5.0,"id":3612},"arcs":[726]},{"type":"LineString","properties":{"source":"naturalearthdata.com","kind":"highway","sort_rank":383,"kind_detail":"motorway","min_zoom":5.0,"id":3612},"arcs":[727]},{"type":"LineString","properties":{"source":"naturalearthdata.com","kind":"highway","kind_detail":"motorway","sort_rank":383,"landuse_kind":"urban_area","min_zoom":5.0,"id":3616},"arcs":[728]},{"type":"LineString","properties":{"source":"naturalearthdata.com","kind":"highway","sort_rank":383,"kind_detail":"motorway","min_zoom":5.0,"id":3616},"arcs":[729]},{"type":"MultiLineString","properties":{"kind":"highway","network":"US:I","sort_rank":383,"kind_detail":"motorway","source":"naturalearthdata.com","min_zoom":5.0,"landuse_kind":"urban_area","shield_text":null,"id":3617},"arcs":[[730],[731]]},{"type":"LineString","properties":{"kind":"highway","network":"US:I","sort_rank":383,"kind_detail":"motorway","source":"naturalearthdata.com","min_zoom":5.0,"shield_text":null,"id":3617},"arcs":[732]},{"type":"MultiLineString","properties":{"kind":"highway","network":"US:I","sort_rank":383,"kind_detail":"motorway","source":"naturalearthdata.com","min_zoom":5.0,"landuse_kind":"urban_area","shield_text":"77","id":3618},"arcs":[[733],[734],[735]]},{"type":"MultiLineString","properties":{"kind":"highway","network":"US:I","sort_rank":383,"kind_detail":"motorway","source":"naturalearthdata.com","min_zoom":5.0,"shield_text":"77","id":3618},"arcs":[[736],[737]]},{"type":"MultiLineString","properties":{"kind":"highway","network":"US:I","sort_rank":383,"kind_detail":"motorway","source":"naturalearthdata.com","min_zoom":5.0,"landuse_kind":"urban_area","shield_text":"485","id":3620},"arcs":[[738],[739],[740]]},{"type":"MultiLineString","properties":{"kind":"highway","network":"US:I","sort_rank":383,"kind_detail":"motorway","source":"naturalearthdata.com","min_zoom":5.0,"shield_text":"485","id":3620},"arcs":[[741],[742]]},{"type":"LineString","properties":{"kind":"highway","network":"US:I","sort_rank":383,"kind_detail":"motorway","source":"naturalearthdata.com","min_zoom":3.0,"shield_text":"26","id":3621},"arcs":[743]},{"type":"LineString","properties":{"kind":"highway","network":"US:I","sort_rank":383,"kind_detail":"motorway","source":"naturalearthdata.com","min_zoom":3.0,"shield_text":"26","id":3622},"arcs":[744]},{"type":"LineString","properties":{"kind":"highway","network":"US:I","sort_rank":383,"kind_detail":"motorway","source":"naturalearthdata.com","min_zoom":5.0,"landuse_kind":"urban_area","shield_text":"520","id":3627},"arcs":[745]},{"type":"LineString","properties":{"kind":"highway","network":"US:I","sort_rank":383,"kind_detail":"motorway","source":"naturalearthdata.com","min_zoom":5.0,"landuse_kind":"urban_area","shield_text":"285","id":3637},"arcs":[746]},{"type":"LineString","properties":{"kind":"highway","network":"US:I","sort_rank":383,"kind_detail":"motorway","source":"naturalearthdata.com","min_zoom":5.0,"landuse_kind":"urban_area","shield_text":"285","id":3638},"arcs":[747]},{"type":"LineString","properties":{"kind":"highway","network":"US:I","sort_rank":383,"kind_detail":"motorway","source":"naturalearthdata.com","min_zoom":5.0,"landuse_kind":"urban_area","shield_text":"459","id":3641},"arcs":[748]},{"type":"LineString","properties":{"kind":"highway","network":"US:I","sort_rank":383,"kind_detail":"motorway","source":"naturalearthdata.com","min_zoom":5.0,"shield_text":"459","id":3641},"arcs":[749]},{"type":"LineString","properties":{"kind":"highway","network":"US:I","sort_rank":383,"kind_detail":"motorway","source":"naturalearthdata.com","min_zoom":3.0,"landuse_kind":"urban_area","shield_text":"285","id":3642},"arcs":[750]},{"type":"LineString","properties":{"source":"naturalearthdata.com","kind":"highway","kind_detail":"motorway","sort_rank":383,"landuse_kind":"urban_area","min_zoom":5.0,"id":3663},"arcs":[751]},{"type":"LineString","properties":{"source":"naturalearthdata.com","kind":"highway","sort_rank":383,"kind_detail":"motorway","min_zoom":5.0,"id":3663},"arcs":[752]},{"type":"LineString","properties":{"kind":"highway","network":"US:I","sort_rank":383,"kind_detail":"motorway","source":"naturalearthdata.com","min_zoom":5.0,"shield_text":"270","id":3722},"arcs":[753]},{"type":"LineString","properties":{"kind":"highway","network":"US:I","sort_rank":383,"kind_detail":"motorway","source":"naturalearthdata.com","min_zoom":4.0,"shield_text":"55","id":3830},"arcs":[754]},{"type":"LineString","properties":{"source":"naturalearthdata.com","kind":"highway","kind_detail":"motorway","sort_rank":383,"landuse_kind":"urban_area","min_zoom":5.0,"id":3958},"arcs":[755]},{"type":"LineString","properties":{"source":"naturalearthdata.com","kind":"highway","sort_rank":383,"kind_detail":"motorway","min_zoom":5.0,"id":3958},"arcs":[756]},{"type":"LineString","properties":{"kind":"highway","network":"US:I","sort_rank":383,"kind_detail":"motorway","source":"naturalearthdata.com","min_zoom":4.0,"landuse_kind":"urban_area","shield_text":"20","id":4080},"arcs":[757]},{"type":"LineString","properties":{"kind":"highway","network":"US:I","sort_rank":383,"kind_detail":"motorway","source":"naturalearthdata.com","min_zoom":5.0,"landuse_kind":"urban_area","shield_text":"275","id":4091},"arcs":[758]},{"type":"LineString","properties":{"kind":"highway","network":"US:I","sort_rank":383,"kind_detail":"motorway","source":"naturalearthdata.com","min_zoom":5.0,"shield_text":"275","id":4091},"arcs":[759]},{"type":"LineString","properties":{"kind":"highway","network":"US:I","sort_rank":383,"kind_detail":"motorway","source":"naturalearthdata.com","min_zoom":5.0,"landuse_kind":"urban_area","shield_text":"275","id":4092},"arcs":[760]},{"type":"LineString","properties":{"kind":"highway","network":"US:I","sort_rank":383,"kind_detail":"motorway","source":"naturalearthdata.com","min_zoom":5.0,"shield_text":"275","id":4092},"arcs":[761]},{"type":"LineString","properties":{"source":"naturalearthdata.com","kind":"highway","kind_detail":"motorway","sort_rank":383,"landuse_kind":"urban_area","min_zoom":4.0,"id":4093},"arcs":[762]},{"type":"LineString","properties":{"source":"naturalearthdata.com","kind":"highway","kind_detail":"motorway","sort_rank":383,"landuse_kind":"urban_area","min_zoom":4.0,"id":4094},"arcs":[763]},{"type":"LineString","properties":{"source":"naturalearthdata.com","kind":"highway","sort_rank":383,"kind_detail":"motorway","min_zoom":4.0,"id":4094},"arcs":[764]},{"type":"LineString","properties":{"kind":"highway","network":"US:I","sort_rank":383,"kind_detail":"motorway","source":"naturalearthdata.com","min_zoom":4.0,"landuse_kind":"urban_area","shield_text":"75","id":4095},"arcs":[765]},{"type":"LineString","properties":{"kind":"highway","network":"US:I","sort_rank":383,"kind_detail":"motorway","source":"naturalearthdata.com","min_zoom":5.0,"landuse_kind":"urban_area","shield_text":"865","id":4096},"arcs":[766]},{"type":"LineString","properties":{"kind":"highway","network":"US:I","sort_rank":383,"kind_detail":"motorway","source":"naturalearthdata.com","min_zoom":3.0,"landuse_kind":"urban_area","shield_text":"74","id":4097},"arcs":[767]},{"type":"LineString","properties":{"kind":"highway","network":"US:I","sort_rank":383,"kind_detail":"motorway","source":"naturalearthdata.com","min_zoom":5.0,"landuse_kind":"urban_area","shield_text":"865","id":4098},"arcs":[768]},{"type":"LineString","properties":{"kind":"highway","network":"US:I","sort_rank":383,"kind_detail":"motorway","source":"naturalearthdata.com","min_zoom":5.0,"shield_text":"865","id":4098},"arcs":[769]},{"type":"LineString","properties":{"kind":"highway","network":"US:I","sort_rank":383,"kind_detail":"motorway","source":"naturalearthdata.com","min_zoom":5.0,"landuse_kind":"urban_area","shield_text":"270","id":4100},"arcs":[770]},{"type":"LineString","properties":{"kind":"highway","network":"US:I","sort_rank":383,"kind_detail":"motorway","source":"naturalearthdata.com","min_zoom":5.0,"landuse_kind":"urban_area","shield_text":"270","id":4101},"arcs":[771]},{"type":"LineString","properties":{"kind":"highway","network":"US:I","sort_rank":383,"kind_detail":"motorway","source":"naturalearthdata.com","min_zoom":5.0,"landuse_kind":"urban_area","shield_text":"270","id":4102},"arcs":[772]},{"type":"LineString","properties":{"kind":"highway","network":"US:I","sort_rank":383,"kind_detail":"motorway","source":"naturalearthdata.com","min_zoom":5.0,"landuse_kind":"urban_area","shield_text":"270","id":4103},"arcs":[773]},{"type":"LineString","properties":{"kind":"highway","network":"US:I","sort_rank":383,"kind_detail":"motorway","source":"naturalearthdata.com","min_zoom":4.0,"landuse_kind":"urban_area","shield_text":"79","id":4130},"arcs":[774]},{"type":"LineString","properties":{"kind":"highway","network":"US:I","sort_rank":383,"kind_detail":"motorway","source":"naturalearthdata.com","min_zoom":4.0,"shield_text":"79","id":4130},"arcs":[775]},{"type":"LineString","properties":{"kind":"highway","network":"US:I","sort_rank":383,"kind_detail":"motorway","source":"naturalearthdata.com","min_zoom":4.0,"landuse_kind":"urban_area","shield_text":"64","id":4131},"arcs":[776]},{"type":"LineString","properties":{"kind":"highway","network":"US:I","sort_rank":383,"kind_detail":"motorway","source":"naturalearthdata.com","min_zoom":4.0,"shield_text":"64","id":4131},"arcs":[777]},{"type":"LineString","properties":{"kind":"highway","network":"US:I","sort_rank":383,"kind_detail":"motorway","source":"naturalearthdata.com","min_zoom":4.0,"shield_text":"64","id":4132},"arcs":[778]},{"type":"LineString","properties":{"kind":"highway","network":"US:I","sort_rank":383,"kind_detail":"motorway","source":"naturalearthdata.com","min_zoom":4.0,"shield_text":"77","id":4133},"arcs":[779]},{"type":"LineString","properties":{"kind":"highway","network":"US:I","sort_rank":383,"kind_detail":"motorway","source":"naturalearthdata.com","min_zoom":4.0,"shield_text":"64","id":4134},"arcs":[780]},{"type":"LineString","properties":{"kind":"highway","network":"US:I","sort_rank":383,"kind_detail":"motorway","source":"naturalearthdata.com","min_zoom":4.0,"shield_text":"64","id":4135},"arcs":[781]},{"type":"LineString","properties":{"kind":"highway","network":"US:US","sort_rank":383,"kind_detail":"motorway","source":"naturalearthdata.com","min_zoom":5.0,"landuse_kind":"urban_area","shield_text":"1","id":4138},"arcs":[782]},{"type":"LineString","properties":{"kind":"highway","network":"US:I","sort_rank":383,"kind_detail":"motorway","source":"naturalearthdata.com","min_zoom":5.0,"landuse_kind":"urban_area","shield_text":"485","id":4139},"arcs":[783]}]},"earth":{"type":"GeometryCollection","geometries":[{"type":"MultiPolygon","properties":{"sort_rank":10,"source":"naturalearthdata.com","min_zoom":0.0,"kind":"earth","area":2310563216246},"arcs":[[[784]]]}]},"landuse":{"type":"GeometryCollection","geometries":[{"type":"Polygon","properties":{"kind":"national_park","name":"New River Gorge National River","area":469492000,"sort_rank":18,"operator":"United States National Park Service","source":"openstreetmap.org","min_zoom":3.0,"tier":1,"id":-3178915,"osm_relation":true,"protect_class":"2"},"arcs":[[785]]},{"type":"Polygon","properties":{"kind":"forest","name":"George Washington National Forest","area":2331770112,"sort_rank":31,"operator":"United States Forest Service","source":"openstreetmap.org","min_zoom":4.0,"tier":2,"id":-5549014,"osm_relation":true},"arcs":[[786]]},{"type":"MultiPolygon","properties":{"kind":"nature_reserve","name":"Wayne National Forest","area":5268657401,"sort_rank":23,"operator":"United States Forest Service","source":"openstreetmap.org","min_zoom":4.0,"tier":2,"osm_relation":true,"protect_class":"6"},"arcs":[[[787]],[[788]],[[789]]]},{"type":"Polygon","properties":{"kind":"park","name":"Holly Springs National Forest","area":2822700032,"sort_rank":24,"source":"openstreetmap.org","min_zoom":4.0,"tier":2,"id":-3501025,"osm_relation":true},"arcs":[[790]]},{"type":"MultiPolygon","properties":{"kind":"park","name":"Sumter National Forest","area":4757452153,"sort_rank":24,"source":"openstreetmap.org","min_zoom":4.0,"tier":2,"osm_relation":true},"arcs":[[[791]],[[792]]]},{"type":"Polygon","properties":{"kind":"park","name":"William B. Bankhead National Forest","area":2064930048,"sort_rank":24,"source":"openstreetmap.org","min_zoom":4.0,"tier":2,"id":-3500982,"osm_relation":true},"arcs":[[793]]},{"type":"MultiPolygon","properties":{"kind":"forest","name":"Jefferson National Forest","area":8859449621,"sort_rank":31,"operator":"United States Forest Service","source":"openstreetmap.org","min_zoom":4.0,"tier":2,"osm_relation":true,"protect_class":"6"},"arcs":[[[794]],[[795],[796]],[[797]]]},{"type":"Polygon","properties":{"kind":"park","name":"Great Smoky Mountains National Park","area":3189060096,"sort_rank":24,"source":"openstreetmap.org","min_zoom":4.0,"tier":2,"id":-2131838,"osm_relation":true},"arcs":[[798],[799],[800]]},{"type":"Polygon","properties":{"kind":"forest","name":"George Washington National Forest - North River district","area":3584039936,"sort_rank":31,"operator":"United States Forest Service","source":"openstreetmap.org","min_zoom":4.0,"tier":2,"id":-3560724,"osm_relation":true},"arcs":[[801]]},{"type":"Polygon","properties":{"kind":"forest","name":"George Washington National Forest","area":1792679936,"sort_rank":31,"operator":"United States Forest Service","source":"openstreetmap.org","min_zoom":4.0,"tier":2,"id":-949048,"osm_relation":true,"protect_class":"6"},"arcs":[[802]]},{"type":"Polygon","properties":{"kind":"national_park","name":"Mammoth Cave National Park","area":330164992,"sort_rank":18,"operator":"United States National Park Service","source":"openstreetmap.org","min_zoom":3.0,"tier":1,"id":220416402,"protect_class":"2"},"arcs":[[803]]},{"type":"Polygon","properties":{"kind":"nature_reserve","name":"Talladega National Forest (Oakmulgee Division)","area":1892850048,"sort_rank":23,"operator":"United States Forest Service","source":"openstreetmap.org","min_zoom":4.0,"tier":2,"id":-7277415,"osm_relation":true,"protect_class":"6"},"arcs":[[804]]},{"type":"Polygon","properties":{"kind":"forest","name":"Land Between the Lakes National Recreation Area","area":1104370048,"sort_rank":31,"operator":"United States Forest Service","source":"openstreetmap.org","min_zoom":4.0,"tier":2,"id":-6076065,"osm_relation":true,"protect_class":"5"},"arcs":[[805]]},{"type":"MultiPolygon","properties":{"source":"naturalearthdata.com","kind":"urban_area","name":"","area":87152430677,"sort_rank":11,"min_zoom":4.0},"arcs":[[[806]],[[807]],[[808]],[[809]],[[810]],[[811]],[[812]],[[813]],[[814]],[[815]],[[816]],[[817]],[[818]],[[819]],[[820]],[[821]],[[822]],[[823]],[[824]],[[825]],[[826]],[[827]],[[828]],[[829]],[[830]],[[831]],[[832]],[[833]],[[834]],[[835]],[[836]],[[837]],[[838]],[[839]],[[840]],[[841]],[[842]],[[843]],[[844]],[[845]],[[846]],[[847]],[[848]],[[849]],[[850]],[[851]],[[852]],[[853]],[[854]],[[855]],[[856]],[[857]]]},{"type":"Polygon","properties":{"kind":"national_park","name":"Shenandoah National Park","area":1265159936,"sort_rank":18,"operator":"United States National Park Service","source":"openstreetmap.org","min_zoom":3.0,"tier":1,"id":-5548542,"osm_relation":true},"arcs":[[858]]},{"type":"Polygon","properties":{"kind":"nature_reserve","name":"Talladega National Forest (Shoal Creek District)","area":1033020032,"sort_rank":23,"operator":"United States Forest Service","source":"openstreetmap.org","min_zoom":4.0,"tier":2,"id":-3500870,"osm_relation":true,"protect_class":"6"},"arcs":[[859]]},{"type":"Polygon","properties":{"kind":"park","name":"Francis Marion National Forest","area":2434560000,"sort_rank":24,"source":"openstreetmap.org","min_zoom":4.0,"tier":2,"id":-3746931,"osm_relation":true},"arcs":[[860]]},{"type":"Polygon","properties":{"kind":"nature_reserve","name":"Talladega National Forest (Talladega Division)","area":1440760064,"sort_rank":23,"operator":"United States Forest Service","source":"openstreetmap.org","min_zoom":4.0,"tier":2,"id":-7271895,"osm_relation":true,"protect_class":"6"},"arcs":[[861]]},{"type":"Polygon","properties":{"kind":"nature_reserve","name":"Cherokee National Forest","area":1682749952,"sort_rank":23,"source":"openstreetmap.org","min_zoom":4.0,"tier":2,"id":-1396310,"osm_relation":true,"protect_class":"6"},"arcs":[[862]]},{"type":"Polygon","properties":{"kind":"forest","name":"George Washington National Forest - Warm Springs district","area":1988140032,"sort_rank":31,"operator":"United States Forest Service","source":"openstreetmap.org","min_zoom":4.0,"tier":2,"id":-3560714,"osm_relation":true},"arcs":[[863]]},{"type":"Polygon","properties":{"kind":"park","name":"Daniel Boone National Forest","area":8461839872,"sort_rank":24,"source":"openstreetmap.org","min_zoom":4.0,"tier":2,"id":-1394850,"osm_relation":true},"arcs":[[864],[865],[866]]},{"type":"Polygon","properties":{"kind":"park","name":"Bienville National Forest","area":2204900096,"sort_rank":24,"source":"openstreetmap.org","min_zoom":4.0,"tier":2,"id":-3501068,"osm_relation":true},"arcs":[[867]]},{"type":"Polygon","properties":{"kind":"national_park","name":"Cumberland Gap National Historical Park","area":156471008,"sort_rank":18,"operator":"United States National Park Service","source":"openstreetmap.org","min_zoom":5.0,"tier":1,"id":-7192241,"osm_relation":true},"arcs":[[868]]}]}},"type":"Topology","transform":{"translate":[-90.0,31.952162238],"scale":[0.002746582,0.0022040371]},"arcs":[[[319,2281],[2,-8],[-3,-20],[1,-14],[-1,-5],[-2,-3],[-3,-4],[-3,-4],[-2,-6],[2,-9],[5,-16],[1,-10],[-3,-12],[-15,-32],[-9,-26],[-7,-12],[-10,-5]],[[272,2095],[-12,4],[-9,9],[-9,10],[-9,8]],[[233,2126],[-4,-2],[-2,-3],[-4,-8],[-5,-17],[-1,-7],[-5,-21],[-2,-5]],[[184,2064],[-24,-1]],[[1919,3264],[3,-2],[5,-6],[2,-2],[5,-3],[19,-18],[15,-2]],[[1885,3242],[20,12],[6,6],[3,3],[5,1]],[[2015,3248],[8,-4],[5,-9],[4,-8],[4,-4],[7,-1],[9,-3],[15,-8],[6,-6],[4,-7],[2,-9],[1,-8],[1,-6],[5,-5],[5,-4],[3,-5],[4,-7],[2,-8],[2,-10],[0,-11],[3,-7],[8,-6],[41,-15],[8,-1]],[[1968,3231],[31,14],[16,3]],[[2195,3102],[8,-1],[15,-7],[15,-4],[6,-7],[5,-8],[5,-7],[25,-25],[15,-9],[15,-4]],[[2162,3096],[33,6]],[[2586,3085],[4,-3],[1,-7],[0,-9],[1,-8],[9,-31],[11,-17],[16,-9],[17,-5],[13,-9],[27,-26],[3,-7],[6,-14]],[[2486,3024],[7,1],[7,4],[3,4],[4,10],[2,3],[3,3],[9,3],[5,5],[6,6],[5,6],[8,2],[9,2],[22,11],[10,1]],[[2354,3065],[8,-1],[8,-3],[7,-4],[6,-6],[3,-2]],[[2304,3030],[8,3],[6,5],[5,7],[1,9],[4,3],[26,8]],[[2399,3049],[5,-1],[10,-5],[5,-3],[3,-3],[8,-14],[5,-5],[3,-1]],[[2386,3049],[13,0]],[[2469,3027],[17,-3]],[[2438,3017],[13,3],[4,3],[6,4],[8,0]],[[848,1385],[-56,1],[-57,0],[-58,1],[-12,0]],[[665,1387],[-4,0],[2,-5]],[[1192,1378],[-58,1],[-57,2],[-57,2],[-58,1],[-57,1]],[[905,1385],[-57,0]],[[1600,1376],[-64,1],[-59,1],[-56,0],[-57,0]],[[1364,1378],[-57,0],[-58,0],[-57,0]],[[2698,2934]],[[3452,3525],[0,32],[0,31],[0,32],[0,31],[0,37],[0,36],[0,37],[0,36],[0,37],[0,36],[-1,36],[0,37],[0,1],[0,1]],[[3831,3525],[-47,0],[-48,0],[-47,0],[-48,0],[-47,0],[-47,0],[-48,0],[-47,0]],[[0,1383],[31,0],[48,0],[47,0],[47,-1],[48,0],[47,0],[47,0],[47,0],[48,0],[47,0],[47,0],[48,0],[47,0],[47,0]],[[646,1382],[13,0],[4,0]],[[1833,212],[-1,6],[-3,7],[-4,7],[-2,7],[-2,14],[-2,6],[-4,8],[-25,34],[2,6],[-3,3],[-4,3],[-2,5],[1,8],[-1,6],[-3,9],[-2,16],[-3,5],[-4,5],[-1,4],[3,4],[-2,3],[-8,9],[-2,3],[-2,3],[-1,3],[0,4],[1,13],[-12,33],[1,4],[-3,18],[0,3],[-2,7],[-2,13],[-2,16],[-4,21],[-4,24],[-4,28],[-4,31],[-6,33],[-5,36],[-6,38],[-7,39],[-6,41],[-6,37],[-7,48],[-7,42],[-6,42],[-7,44],[-7,42],[-6,40],[-8,40],[-6,38],[-6,35],[-6,34],[-5,31],[-5,27],[-3,25],[-4,20],[-2,17],[0,6],[-2,8],[0,2]],[[2507,1383],[0,-1],[-1,-5],[-2,-5],[-1,-6],[-3,-9],[-9,-4],[-9,-9],[-8,-7],[-6,-6],[-7,-4],[-6,-7],[-3,-6],[-5,-5],[-6,-3],[-5,-5],[-3,-6],[-1,-3],[-1,-3],[0,-4],[-1,-4],[-1,-3],[-6,-8],[-4,-19],[12,-17],[33,-22],[12,-7]],[[2485,1208],[2,-1],[1,-6],[3,-5],[13,-8],[8,-11],[8,-5],[6,-11],[5,-7],[12,-6]],[[2476,1205],[9,3]],[[2585,1148],[16,-10],[4,-12],[1,-12],[5,-15],[4,-4],[20,-33],[3,-10],[7,-39],[2,-6],[3,-2],[6,-9],[8,-4],[5,-4],[4,-5],[3,-5],[4,-12],[3,-7],[8,-4],[3,-5],[4,-13],[4,-11],[3,-11],[5,-6],[5,-2]],[[2543,1148],[17,0],[25,0]],[[2723,907],[5,-6],[7,-10],[8,-10],[12,-8],[11,-5],[14,-10],[16,-13],[17,-17],[10,-12],[5,-20],[6,-9],[3,-10],[5,-14],[7,-8],[9,-6],[8,-4],[17,-5],[7,-4],[8,-6],[15,-21],[8,-7],[14,-11],[5,-8],[-2,-9],[2,-3],[3,-7],[-6,-1],[-1,-3],[5,-11],[-6,-3],[3,-7],[15,-19],[3,-3]],[[2715,907],[8,0]],[[2959,621],[5,0],[4,-2],[2,-1],[0,-3],[-5,-3],[7,-5],[2,-5],[-1,-5],[-5,-4],[5,-10],[6,-6],[7,-2],[8,-1],[2,-3],[2,-18],[2,-7],[13,-11],[32,-14],[15,-9],[10,-10],[6,-4],[8,-1],[4,-4],[5,-7],[3,-10],[2,-7],[-3,-16],[0,-9],[4,-3],[18,-35],[4,-12],[1,-7],[0,-7],[2,-7],[4,-6],[2,-7],[0,-6],[-2,-4],[-1,-5],[-2,-5],[1,-2],[2,-1],[2,-3],[2,-4],[1,-3],[-2,-8],[-2,-7],[0,-7],[4,-7],[4,-5],[7,-5],[7,-4],[11,-2],[3,-2],[3,-3],[3,-2],[6,-7],[1,-2]],[[2956,617],[2,2],[1,2]],[[3180,267],[8,-5],[2,-2],[1,-4],[1,-5],[2,-4],[5,-2],[5,-3],[1,-8],[0,-14],[11,-37],[5,-2],[5,-6],[3,-8],[1,-9],[-1,-6],[-3,-6],[-1,-4],[-1,-5],[1,-12],[-1,-3],[-3,-7],[-1,-5],[1,-3],[6,-15],[0,-1],[0,-2],[-1,-3],[1,-3],[2,-2],[4,-2],[2,-2],[10,-14],[3,-2]],[[3178,266],[2,1]],[[3270,63],[7,-2],[15,-7],[3,-3],[2,-7],[6,-4],[6,-3],[8,-1]],[[3248,61],[22,2]],[[3317,36],[0,1]],[[2513,1383],[-6,0]],[[2066,1377],[28,0],[27,1],[28,0],[27,0],[28,1],[28,0],[27,1],[28,0],[27,0],[28,1],[27,0],[28,1],[27,0],[28,0],[27,1],[28,0]],[[787,2128],[-2,2],[-2,3],[-2,6],[-2,2],[-3,1],[-20,2],[-33,4],[-19,1]],[[704,2149],[-2,0],[-1,0],[0,-3],[1,-4],[7,-22],[5,-23],[0,-7],[0,-17],[-1,-10]],[[1665,2117],[-75,2],[-85,3],[-73,2],[-55,4],[-46,4],[-25,3],[-19,2],[-15,1]],[[1272,2138],[-4,-1],[-13,-2],[-15,-1],[-5,0],[-14,0],[-22,0],[-28,0],[-33,-1],[-36,0],[-40,-1],[-40,0],[-41,-1],[-39,0],[-37,-1],[-33,0],[-28,0],[-22,-1],[-13,0],[-5,0],[-15,0],[-2,-1]],[[2283,2102],[-18,1],[-11,0],[-31,1],[-48,2],[-63,2],[-74,3],[-82,3],[-89,3],[-91,3]],[[1776,2120],[-111,-3]],[[2306,2111],[-10,-5],[-13,-4]],[[524,2063],[-63,0],[-63,0],[-63,0],[-63,0],[-62,0]],[[713,2063],[-63,0],[-63,0]],[[587,2063],[-63,0]],[[3451,3945],[0,47],[0,48],[0,48],[0,8]],[[101,1837],[-1,-3],[7,-12],[9,-10],[5,-14],[-2,-8]],[[119,1790],[-6,1],[-11,9]],[[102,1800],[-8,-1],[-6,-4],[-6,-6],[-3,-8],[9,-5],[10,-7],[3,-8],[-23,-19],[-55,-25],[-5,-6],[-1,-8],[6,-11],[10,-13],[0,-6],[-7,-7],[-6,-6],[-2,-4],[1,-5],[6,-8],[5,-12],[-4,-5],[-8,-3],[-9,-1],[-9,-2]],[[12,2727],[4,-1],[12,-4],[13,-9],[20,-21],[9,-6],[22,-10],[9,-6],[9,-13],[11,-24],[8,-10],[35,-16],[10,-9],[-3,-5],[1,-8],[3,-8],[1,-8],[-1,-8],[-2,-7],[-1,-9],[2,-9],[7,-16],[10,-14],[9,-16],[3,-19],[-6,-16],[-13,-13],[-10,-13],[0,-17],[1,-2],[8,-3],[3,-1],[6,-5],[-1,-6],[1,-8],[3,-7],[8,-15],[15,-20],[5,-13],[-2,-13],[6,-7],[18,-15],[15,-7],[4,0]],[[0,2727],[12,0]],[[261,2328],[8,0],[3,-2],[1,-11],[1,-4],[4,-3],[7,-5],[3,-3],[2,-5],[1,-5],[1,-5],[4,-4],[4,-1]],[[264,2290],[2,5],[-1,7],[-3,4],[-3,3],[-3,3],[-4,11],[2,4],[7,1]],[[312,2284],[7,-3]],[[300,2280],[4,2],[4,1],[4,1]],[[2694,2940],[4,-6]],[[98,1837],[1,0],[1,0],[1,0]],[[0,1834],[46,1],[52,2]],[[184,2064],[2,6],[-5,18],[-12,6]],[[169,2094],[-12,-5],[-3,-16],[3,-6],[3,-4]],[[190,2042],[-10,2],[0,7],[3,9],[1,4]],[[160,2063],[2,-1],[3,-7],[-3,-8],[0,-7],[8,-19],[1,-10],[-4,-10],[-7,-5],[-8,-1]],[[210,2063],[-1,-3],[-9,-10],[-6,-6],[-4,-2]],[[152,1995],[-10,0]],[[142,1995],[-7,-4],[1,-8],[6,-9],[6,-7],[10,-3],[3,-3],[-1,-5],[-4,-3],[-4,-1],[-34,-1],[-7,-2],[20,-30],[10,-18],[-4,-8],[-5,-2],[-7,-4],[-6,-4],[-3,-4],[-1,-8],[-12,-19],[-2,-15]],[[3430,3932],[16,11],[5,2]],[[3423,3936],[7,-4]],[[3412,3827],[1,10],[7,18],[2,10],[-1,7],[-4,8],[-8,15],[-12,16],[-3,8],[4,9],[7,4],[9,3],[9,1]],[[3358,3614],[4,1],[3,4],[-1,5],[-1,3],[-1,3],[3,8],[3,6],[3,6],[1,10],[0,19],[1,9],[4,11],[8,16],[3,8],[3,16],[3,10],[8,18],[3,4],[10,8],[2,2],[4,14],[1,3],[0,6],[-3,10],[0,3],[1,4],[-1,3],[-1,1],[-3,1],[-2,1]],[[3413,3827],[-1,0]],[[3349,3617],[4,0],[5,-3]],[[3143,3357],[8,1],[13,12],[7,2],[8,1],[8,2],[7,3],[6,4],[10,11],[7,5],[14,6],[6,6],[8,15],[12,13],[40,31],[25,14],[1,5],[4,12],[0,2],[0,5],[0,2],[2,2],[6,5],[2,9],[-2,6],[-3,5],[-6,6],[-2,6],[3,3],[8,5],[2,5],[1,9],[1,5],[3,5],[2,4],[7,8],[1,4],[-2,4],[-2,6],[-1,4],[2,7]],[[3108,3382],[16,0],[3,-4],[4,-7],[4,-9],[8,-5]],[[3065,3323],[5,5],[2,18],[3,8],[27,25],[6,3]],[[3053,3326],[2,-3]],[[2991,3167],[8,2],[-1,5],[-3,8],[-2,7],[2,16],[-1,9],[-5,3],[-2,1],[-3,2],[-2,4],[-2,2],[-1,6],[0,2],[2,0],[18,7],[3,4],[1,11],[-1,17],[0,5],[3,7],[18,20],[5,16],[8,2],[9,0],[8,3]],[[3060,3326],[2,-1],[3,-2]],[[3055,3323],[3,2],[2,1]],[[2903,3208],[9,0],[6,-5],[6,-5],[11,-5],[5,-5],[4,-7],[2,-7],[1,-3],[1,-2],[0,-3],[-1,-3],[-2,-1],[-1,-1],[-1,-1],[-1,-6],[-2,-3],[-1,-2],[3,-5],[7,-3]],[[2834,3013],[9,1],[5,8],[0,4],[0,6],[-2,6],[-3,8],[0,5],[3,6],[-2,12],[-2,7],[-4,6],[-2,8],[1,11],[6,5],[7,5],[4,10],[5,8],[2,4],[2,19],[6,14],[10,17],[12,16],[12,9]],[[2977,3177],[4,-2],[7,-6],[3,-2]],[[2949,3141],[7,4],[7,7],[5,6],[3,11],[2,6],[4,2]],[[2817,3015],[17,-2]],[[2711,2928],[16,2],[31,10],[27,3],[7,2],[5,8],[3,8],[8,40],[4,10],[5,4]],[[2698,2934],[13,-6]],[[2841,2575],[-1,1],[-7,10],[-4,3],[-2,2],[-3,2],[-14,5],[-3,2],[-2,3],[-2,6],[-5,15],[-1,3],[0,2],[-2,5],[-5,6],[-23,24],[-1,2],[0,2],[-2,4],[-1,15],[-1,3],[-1,3],[-3,5],[-2,2],[-2,2],[-15,11],[-2,2],[0,2],[1,2],[4,7],[1,2],[0,1],[0,3],[-1,3],[-2,3],[-2,2],[-20,17],[-2,3],[-2,4],[-2,7],[-2,4],[-27,38],[-2,4],[0,3],[0,2],[0,1],[1,1],[1,1],[7,5],[2,3],[1,2],[1,2],[0,2],[0,7],[0,3],[1,2],[1,1],[2,1],[4,1],[2,1],[1,1],[0,3],[0,2],[-1,3],[0,4],[1,11],[1,5],[0,5],[-2,5],[-6,14],[-1,4],[-1,1],[1,2],[1,11],[0,6],[0,2]],[[2904,2536],[-5,1],[-29,9],[-4,3],[-3,2],[0,3],[0,2],[0,3],[-1,2],[-1,2],[-3,3],[-11,10],[-3,1]],[[2844,2577],[-2,-1],[-1,-1]],[[2925,2535],[-6,3],[-4,1]],[[2915,2539],[-11,-3]],[[3608,2081],[-26,2],[-27,1],[-27,1],[-27,2],[-26,1],[-27,1],[-27,1],[-27,2],[-25,0],[-25,0],[-25,1],[-25,0],[-25,1],[-25,0],[-25,1],[-25,0],[-18,1],[-18,2],[-17,1],[-18,2],[-18,1],[-18,1],[-18,2],[-18,1],[-8,0],[-2,1],[-2,1],[-2,5]],[[4096,2083],[-29,0],[-56,0],[-56,0],[-44,-1],[-43,0],[-43,0],[-44,0],[-43,0],[-43,0],[-43,0],[-44,-1]],[[663,1382],[6,-18],[9,-14],[12,-8],[6,-1],[0,-7],[-2,-17],[-1,-3],[-1,-12],[-2,-18],[-2,-24],[-3,-31],[-4,-36],[-5,-41],[-4,-45],[-6,-49],[-5,-53],[-6,-55],[-6,-58],[-7,-60],[-6,-62],[-7,-62],[-6,-63],[-7,-63],[-7,-63],[-6,-62],[-7,-60],[-6,-58],[-6,-55],[-5,-53],[-6,-49],[-4,-45],[-5,-41],[-3,-36],[-4,-31],[-2,-24],[-1,-5]],[[2066,1377],[-32,1]],[[2034,1378],[-34,0],[-26,0],[-15,0],[-46,0],[-45,0],[-46,-1],[-46,0],[-45,-1],[-46,-1],[-46,0]],[[1639,1375],[-39,1]],[[1833,212],[-1,-5],[-2,-6],[-2,-4],[2,-5],[-8,-9],[1,-8],[8,-8],[17,-10],[3,-4],[3,-5],[1,0],[2,-1],[1,-3],[-1,-4],[-3,-2],[-3,-2],[-3,0],[2,-6],[-1,-4],[-3,-3],[-3,-3]],[[1843,120],[-7,3]],[[1836,123],[-5,-1],[-2,-4],[6,-4],[-4,-3],[-6,-3],[-6,-2],[-5,-1],[-2,-2],[-3,-4],[-6,-15],[0,-4],[0,-11],[-1,-6],[-4,-8],[-1,-10],[3,-10],[-2,-12],[0,-1],[-3,-7],[-2,-2],[-7,-13]],[[3014,1992],[2,0],[1,2],[-1,2],[-1,2],[-5,7],[-4,8],[0,2],[0,3],[1,4],[10,19],[5,17],[0,4],[-5,11],[-1,2],[4,10],[17,28]],[[2984,2000],[19,-6],[11,-2]],[[2879,1882],[2,0],[3,2],[4,2],[6,5],[3,2],[4,3],[3,4],[36,70],[2,2],[10,8],[28,19],[2,1],[2,0]],[[2837,1909],[1,0],[2,-1],[4,-2],[2,-1],[2,0],[5,-1],[2,0],[2,-1],[2,-1],[1,-2],[1,-2],[0,-2],[1,-2],[0,-2],[1,-2],[1,-2],[2,-1],[2,-2],[2,-1],[6,-1],[3,-1]],[[2818,1898],[2,1],[11,8],[4,2],[2,0]],[[2810,1898],[8,0]],[[2709,1819],[2,1],[4,1],[16,11],[2,1],[2,1],[2,2],[3,3],[6,9],[2,3],[5,10],[3,5],[13,14],[7,5],[5,3],[4,1],[13,4],[9,5],[3,0]],[[2687,1863],[3,0],[1,-2],[6,-8],[1,-2],[0,-1],[-1,-2],[-2,-6],[-1,-3],[0,-3],[0,-2],[2,-6],[2,-2],[1,-2],[1,-2],[2,-1],[2,-1],[3,-1],[2,0]],[[2615,1806],[3,0],[2,2],[2,3],[1,3],[2,4],[4,4],[1,2],[1,3],[-1,6],[1,2],[1,1],[0,1],[25,13],[9,4],[17,9],[4,0]],[[2593,1816],[4,0],[3,0],[5,-2],[5,-4],[3,-3],[2,-1]],[[2550,1738],[2,0],[3,2],[9,12],[9,13],[2,4],[1,3],[1,4],[1,2],[4,6],[1,2],[0,3],[-3,7],[-1,2],[0,3],[0,2],[0,3],[1,2],[1,2],[1,2],[2,2],[3,1],[6,1]],[[2525,1742],[4,-1],[16,-2],[5,-1]],[[2436,1685],[3,0],[2,1],[8,11],[7,8],[2,1],[2,2],[3,2],[9,3],[3,2],[9,9],[2,2],[3,1],[13,4],[19,10],[2,1],[2,0]],[[2430,1686],[3,0],[3,-1]],[[2343,1637],[24,4],[2,2],[3,2],[8,8],[4,4],[2,2],[3,3],[20,8],[5,4],[4,5],[5,5],[3,1],[4,1]],[[2326,1643],[4,0],[3,-1],[1,-2],[2,-1],[2,-1],[2,-1],[3,0]],[[2312,1640],[3,0],[4,1],[7,2]],[[2307,1641],[3,0],[2,-1]],[[2296,1639],[2,0],[1,0],[4,1],[2,1],[2,0]],[[2284,1640],[12,-1]],[[2148,1500],[2,0],[2,2],[4,3],[7,7],[3,4],[2,4],[0,14],[1,3],[1,4],[1,3],[7,9],[1,2],[1,2],[0,3],[0,2],[-2,6],[0,2],[0,2],[1,1],[1,2],[9,10],[2,2],[4,2],[15,5],[2,2],[3,3],[2,2],[6,12],[2,2],[3,2],[6,2],[12,3],[3,1],[3,2],[6,5],[9,5],[7,3],[7,2],[3,0]],[[2100,1504],[3,0],[3,-1],[2,-3],[2,-1],[2,-1],[2,-1],[5,0]],[[2066,1377],[2,21],[2,22],[2,25],[2,17],[1,15],[1,4],[0,2],[3,4],[4,6],[6,6],[3,2],[3,1],[5,2]],[[2139,1500],[9,0]],[[2119,1497],[20,3]],[[2770,1482],[3,0],[1,-2],[1,-1],[2,-3],[1,-1],[1,-1],[2,0]],[[2674,1441],[3,0],[3,1],[12,7],[19,6],[3,1],[13,0],[3,0],[1,1],[2,2],[3,3],[2,1],[13,0],[3,1],[2,2],[2,6],[2,3],[2,2],[6,4],[2,1]],[[2808,1476],[26,-1],[4,0],[10,-1],[15,-1],[20,-1],[25,-1],[28,-2],[30,-1],[32,-2],[34,-2],[33,-1],[33,-2],[32,-2],[29,-1],[27,-2],[23,-1],[19,-1],[22,-1],[5,-1],[3,-1],[1,-2],[2,-1],[1,-2],[0,-2],[1,-2],[0,-3],[0,-2],[-1,-2],[-4,-9],[-1,-2],[0,-2],[0,-1],[0,-2],[1,-3],[1,-2],[1,-2],[3,-2],[2,0]],[[2781,1474],[27,2]],[[2670,1441],[4,0]],[[2637,1416],[2,0],[4,2],[3,3],[9,4],[4,3],[3,3],[1,5],[1,3],[3,2],[3,0]],[[3299,1434],[2,0],[1,-1],[1,-1],[14,-18],[19,-27],[16,-22],[1,-2],[1,-3],[-2,-47],[0,-3],[1,-3],[2,-2],[3,-1],[15,-1],[4,0],[11,0],[18,0],[23,-1],[28,-1],[30,0],[33,-1],[34,-1],[34,-1],[32,0],[31,-1],[27,-1],[24,0],[18,-1],[11,0],[4,0],[14,0],[11,-2],[7,-3],[12,-12],[23,-25],[24,-25],[24,-25],[24,-26],[24,-25],[24,-25],[24,-25],[24,-25],[23,-25],[24,-25],[24,-25],[24,-26],[24,-25],[7,-7]],[[3265,1410],[2,1],[30,22],[2,1]],[[2632,1422],[1,-4],[2,-1],[2,-1]],[[2513,1383],[107,37],[12,2]],[[2925,2535],[-20,-17],[-31,-27],[-23,-19],[-35,-29],[-31,-26],[-9,-6],[-26,-13],[-29,-14],[-39,-19],[-17,-13],[-7,-6],[-3,-4],[0,-3],[1,-7],[0,-11],[0,-2],[-1,-3],[-1,-2],[-1,-2],[-1,-2],[-4,-2],[-32,-16],[-9,-7],[-3,-4],[-2,-3],[-1,-8],[1,-2],[0,-5],[-1,-7],[0,-2],[-1,-3],[-1,-2],[-1,-2],[-2,-2],[-5,-3],[-22,-8],[-23,-9],[-16,0],[-2,-1],[-2,-1],[-7,-8],[-7,-14],[-3,-4],[-4,-5],[-1,-2],[0,-1],[1,-5],[0,-2],[-1,-2],[-2,-2],[-3,-1],[-38,-6],[-37,-13],[-14,-8],[-5,-4],[-3,-1],[-4,-2],[-35,-3],[-32,-12],[-2,0],[-7,-4],[-16,-13]],[[2947,2117],[25,-1],[31,-2],[34,-1]],[[2930,2107],[3,2],[8,7],[3,0],[3,1]],[[2306,2111],[38,-1],[37,0],[38,0],[38,0],[38,0],[38,-1],[38,0],[38,0],[38,0],[38,0],[38,-1],[38,0],[38,0],[38,0],[37,0],[38,0],[18,-1]],[[3873,3525],[42,0],[42,0]],[[3831,3525],[42,0]],[[3957,3525],[42,0],[42,0],[42,0],[13,0]],[[4051,3100],[2,2],[2,2],[11,15],[13,19],[11,16],[6,8]],[[4007,3128],[2,0],[11,-8],[16,-10],[12,-9],[3,-1]],[[3899,2937],[2,1],[2,1],[13,18],[9,12],[6,9],[3,4],[2,4],[5,16],[0,1],[1,2],[0,1],[1,1],[3,15],[1,3],[2,3],[3,5],[4,4],[3,3],[6,3],[3,2],[1,2],[1,2],[4,26],[1,2],[1,4],[7,9],[1,3],[1,3],[1,2],[1,4],[3,4],[15,20],[2,2]],[[3771,3013],[2,0],[31,-11],[1,-1],[1,-1],[1,-2],[14,-25],[1,-2],[0,-1],[0,-1],[0,-2],[-2,-3],[0,-2],[1,-1],[17,-5],[17,-6],[19,-6],[23,-7],[2,0]],[[3472,2484],[2,1],[2,0],[2,2],[11,9],[45,25],[1,2],[2,3],[0,5],[-2,2],[-4,3],[-1,1],[-1,2],[0,2],[-1,2],[1,3],[2,3],[4,4],[3,2],[2,2],[6,3],[7,4],[4,3],[1,3],[1,2],[0,4],[-1,3],[-2,2],[-11,5],[-4,3],[-4,4],[-1,1],[0,1],[0,2],[1,4],[13,25],[11,19],[1,3],[3,11],[1,1],[15,17],[13,15],[15,17],[20,23],[12,13],[12,23],[8,16],[9,26],[0,3],[-1,4],[0,4],[1,2],[1,2],[17,16],[8,10],[4,3],[8,5],[6,6],[2,3],[1,3],[-1,2],[0,2],[-2,5],[0,3],[1,4],[2,3],[3,5],[2,3],[2,5],[1,2],[1,2],[7,2],[4,3],[2,2],[3,14],[2,4],[6,7],[2,3],[1,3],[0,19],[1,6],[1,1],[6,10],[2,3],[1,3],[0,2],[0,2],[0,4],[1,4],[2,8],[2,4],[2,2]],[[2925,2535],[4,-4],[1,-1],[1,-2],[0,-3],[0,-2],[0,-3],[-1,-2],[-1,-1],[-8,-7],[-2,-1],[0,-2],[0,-2],[0,-2],[2,-2],[13,-8],[1,-2],[1,-1],[1,-2],[1,-2],[0,-3],[1,-2],[-1,-3],[-1,-10],[0,-3],[0,-2],[1,-3],[1,-2],[2,-1],[17,-12],[4,-3],[1,-2],[1,-2],[3,-8],[1,-2],[1,-2],[4,-3],[4,-3],[1,0],[5,-1]],[[3457,2504],[3,-1],[4,0],[1,-2],[0,-2],[1,-2],[0,-4],[0,-2],[0,-2],[1,-2],[2,-1],[1,-1],[2,-1]],[[3370,2464],[3,0],[2,1],[16,10],[16,10],[18,8],[15,7],[9,3],[8,1]],[[3336,2483],[4,0],[10,-2],[1,0],[1,-1],[1,-2],[0,-3],[1,-2],[1,-1],[7,-1],[2,-1],[1,-1],[1,-2],[1,-2],[1,-1],[1,0],[1,0]],[[3293,2423],[3,1],[24,14],[2,2],[2,3],[2,4],[0,4],[0,2],[-5,10],[-1,2],[0,3],[0,2],[1,3],[1,2],[1,2],[2,2],[3,2],[5,2],[3,0]],[[3149,2442],[3,0],[2,-2],[2,-1],[7,-11],[2,-2],[2,-1],[19,-12],[3,-3],[1,-1],[1,-2],[2,-3],[0,-2],[1,0],[1,-1]],[[3064,2383],[9,1],[2,1],[3,2],[19,20],[2,2],[3,1],[6,2],[14,1],[3,2],[3,2],[4,5],[2,4],[2,3],[3,7],[1,2],[1,2],[3,2],[5,0]],[[3283,2429],[3,-1],[5,-4],[2,-1]],[[3195,2401],[4,1],[30,15],[37,5],[4,1],[10,5],[3,1]],[[2988,2419],[8,0],[3,-1],[2,-1],[2,-2],[2,-1],[1,-2],[5,-8],[3,-3],[2,-1],[13,-7],[9,-6],[4,-2],[22,-2]],[[2983,2419],[5,0]],[[3831,3525],[-4,-232],[1,-1],[2,-1]],[[4087,3487],[2,0],[2,-3],[1,-1],[4,-4]],[[4096,3472],[-1,-1],[-1,-1],[0,-1],[-1,-2],[0,-1],[0,-2],[1,-1],[2,-3]],[[4013,3402],[3,0],[4,2],[2,1],[2,2],[4,6],[22,21],[4,6],[4,6],[1,2],[1,1],[2,2],[1,1],[2,0],[7,2],[2,0],[1,2],[-1,1],[-1,2],[0,2],[0,3],[1,2],[1,2],[5,8],[2,4],[2,3],[1,2],[1,2],[1,0]],[[3984,3417],[4,0],[6,-3],[6,-3],[7,-6],[3,-3],[3,0]],[[3830,3291],[3,2],[5,3],[40,36],[3,1],[15,2],[3,1],[2,2],[4,10],[3,4],[4,4],[11,8],[17,9],[1,1],[2,2],[4,6],[7,5],[1,1],[2,2],[1,1],[1,2],[4,11],[1,2],[2,2],[2,2],[13,7],[3,0]],[[712,2656],[-2,-6],[0,-9],[-4,-10],[-5,-6],[-21,-17],[-4,-7],[-5,-10],[-2,-10],[2,-9],[6,-12],[2,-3],[11,-11],[8,-20],[-3,-13],[-12,-7],[-67,-12],[-21,-12],[-6,-2]],[[589,2480],[-16,0]],[[573,2480],[-8,-1],[-6,-3],[-5,-5],[-4,-6],[-7,-19],[-1,-18],[3,-17],[8,-15],[11,-16],[6,-13],[0,-15],[-7,-18],[-11,-11],[-14,-2]],[[538,2321],[-14,4],[-26,17],[-100,48],[-18,4]],[[380,2394],[-17,-2],[-15,-7],[-12,-11],[-4,-4],[-13,-23],[-12,-15],[-8,-13],[1,-12],[7,-12],[12,-14]],[[1885,3242],[0,37],[0,37],[1,37],[0,37],[0,36],[1,37],[0,37],[0,37],[1,37],[0,37],[0,37],[0,37],[1,37],[0,37],[0,36],[1,37],[0,37],[0,37],[1,37],[0,37],[0,37],[1,37],[0,37],[0,5]],[[1886,3102],[5,3],[-5,15],[3,9],[5,6],[5,7],[0,7],[-8,3],[-16,1],[-5,3],[-5,5],[3,5],[13,12],[4,8],[-2,8],[-5,7],[-10,10],[-1,15],[11,12],[7,4]],[[1856,3105],[30,-3]],[[1753,3059],[15,3],[53,32],[23,10],[12,1]],[[1704,3081],[23,-1],[6,-3],[13,-14],[7,-4]],[[1544,2866],[14,5],[7,3],[13,10],[8,16],[9,40],[11,13],[7,2],[16,2],[5,4],[6,8],[5,5],[19,14],[5,7],[2,9],[-8,17],[-3,28],[-2,7],[-3,9],[0,9],[7,3],[42,4]],[[1527,2875],[5,-1],[4,-2],[2,-2],[2,-3],[4,-1]],[[1438,2730],[3,4],[4,7],[8,3],[18,4],[4,2],[4,3],[2,4],[3,4],[3,12],[4,43],[2,10],[3,10],[5,8],[6,3],[4,4],[7,19],[5,5],[4,0]],[[1317,2832],[8,0],[6,-4],[19,-14],[3,-6],[-1,-19],[1,-7],[3,-6],[6,-5],[14,-8],[6,-4],[7,-5],[19,-1],[8,-2],[14,-15],[8,-6]],[[1305,2796],[8,1],[16,7],[6,7],[-3,3],[-7,2],[-8,5],[-4,8],[4,3]],[[1288,2806],[4,0],[5,-2],[2,-2],[1,-4],[5,-2]],[[1229,2678],[8,5],[3,9],[-1,9],[3,6],[19,5],[5,4],[1,7],[-1,30],[2,9],[4,4],[8,1],[9,3],[6,5],[1,10],[-2,5],[-6,7],[-2,5],[2,4]],[[1158,2742],[6,-8],[3,-12],[8,-13],[11,-9],[13,-2]],[[1049,2648],[12,8],[6,10],[10,29],[4,7],[4,5],[5,4],[7,2],[21,3],[5,2],[8,8],[14,11],[13,5]],[[874,2733],[3,-1],[2,-3],[0,-8],[1,-4],[12,-12]],[[853,2665],[11,4],[9,10],[4,13],[-2,9],[-6,13],[-2,10],[1,6],[3,3],[3,0]],[[937,2720],[8,-2],[8,-4],[9,-6],[6,-5],[7,-5],[24,-9],[13,-9],[4,-2],[5,-1],[7,-1],[4,-1],[2,-5],[1,-5],[2,-4],[5,-8],[3,-2],[4,-3]],[[892,2705],[15,3],[15,8],[15,4]],[[761,2713],[8,-1],[7,-6],[5,-7],[6,-5],[7,-4],[8,-1]],[[746,2645],[2,3],[17,19],[-11,27],[-2,6],[3,9],[6,4]],[[842,2702],[5,-4],[1,-6],[-4,-15],[1,-7],[8,-5]],[[802,2689],[7,1],[15,5],[3,0],[3,3],[6,3],[6,1]],[[1215,2701],[7,-2],[-4,-9],[-3,-8],[5,-4],[9,0]],[[1199,2698],[16,3]],[[720,2657],[6,-2],[13,-8],[7,-2]],[[712,2656],[8,1]],[[888,3053],[5,1],[2,3],[11,33],[-5,18],[-7,18],[-5,16],[2,6],[5,7],[1,5],[0,18],[-2,6],[-11,9],[-4,5],[-3,8],[-3,17],[-3,8],[-11,11],[-6,3],[-2,3],[-3,3],[2,18],[23,22],[1,19],[-9,16],[-1,8],[3,9],[7,7],[22,10],[1,2],[0,17],[1,66],[0,65],[0,66],[0,66],[1,66],[0,65],[0,66],[0,66],[1,66],[0,65],[0,60]],[[884,3053],[4,0]],[[862,3015],[2,1],[1,1],[1,2],[1,3],[-2,9],[3,9],[6,7],[6,5],[4,1]],[[854,2970],[3,5],[0,5],[-6,9],[-2,7],[2,7],[4,5],[5,4],[4,3]],[[864,3015],[-2,0]],[[850,2972],[3,-2],[1,0]],[[781,2875],[2,2],[1,5],[1,6],[1,4],[2,5],[4,11],[3,5],[3,2],[7,2],[2,2],[6,7],[5,9],[2,9],[-5,6],[0,3],[11,4],[11,5],[3,3],[4,5],[3,2],[3,0]],[[774,2888],[1,-2],[1,-5],[1,-4],[4,-2]],[[763,2871],[3,8],[2,4],[3,3],[3,2]],[[755,2881],[0,-3],[4,-5],[4,-2]],[[723,2786],[-6,2],[9,6],[8,8],[3,3],[8,1],[3,2],[4,9],[-4,5],[-7,4],[-4,4],[-1,3],[-3,3],[-2,3],[-1,5],[1,6],[3,3],[3,2],[3,4],[3,8],[2,7],[3,6],[7,1]],[[707,2695],[6,3],[1,3],[-1,5],[-1,6],[-2,9],[0,6],[4,2],[1,3],[0,7],[-1,7],[-2,5],[5,5],[-5,11],[4,3],[6,1],[7,2],[6,4],[5,5],[-5,5]],[[735,2787],[-12,-1]],[[687,2698],[17,-3],[3,0]],[[704,2666],[6,0],[4,2],[-3,5],[-18,17],[-6,8]],[[694,2667],[10,-1]],[[712,2656],[-9,4],[-7,1],[-2,1],[-2,2],[0,2],[2,1]],[[22,1515],[-11,-12],[1,-6],[0,-4],[1,-5],[1,0],[0,-1],[-3,-45],[-11,-13]],[[404,2061],[-109,-107],[-70,-105],[-10,-88],[-193,-246]],[[22,1515],[-10,-10]],[[12,1505],[-1,0]],[[12,1505],[-1,0],[0,-1],[0,-1],[0,-1],[1,-5],[0,-4],[0,-1],[1,-4],[1,-1],[-1,-1],[-1,-5],[0,-1],[1,-6]],[[404,2061],[-38,64],[-6,106],[-62,69]],[[298,2300],[-2,0]],[[298,2300],[6,156],[-36,65],[21,52],[-13,203],[41,223],[193,187],[18,62]],[[309,2962],[2,8]],[[528,3249],[83,220],[29,234],[53,156]],[[693,3859],[65,237]],[[285,2619]],[[396,0],[65,182],[144,43],[78,111],[164,111],[43,119],[90,-19],[49,17],[107,125],[82,42],[295,43],[21,-19],[160,58],[197,-6],[40,27],[48,15],[1,0],[4,4],[2,1],[5,3],[10,-9],[1,0],[2,-1],[1,0],[3,-5],[0,-1],[1,0],[5,0],[2,0],[1,0],[1,0],[0,-1],[0,-1],[1,-1],[1,-1],[1,-1],[1,0],[2,-1],[2,-2],[1,0],[0,-1],[4,0]],[[1954,845],[25,4],[7,5],[3,2],[1,1],[1,0],[47,-22],[231,255],[118,91],[104,48],[125,15],[69,63],[230,56]],[[2915,1363]],[[2915,1363]],[[2915,1363]],[[4096,2667],[-133,-142],[-88,-214],[-20,-95],[17,-107],[-105,-99],[1,-52],[-49,-90],[-180,-121],[-121,-117],[5,-91],[-96,-55],[-162,26],[-152,-119],[-98,-28]],[[3718,1868],[1,0],[-1,0]],[[3633,438],[9,-23],[-70,-44],[-235,-31],[-128,-229],[11,-66],[-59,-45]],[[3633,438],[1,111],[100,337],[-7,133],[85,4],[237,390],[47,56]],[[3729,1020]],[[3393,1525],[-52,-33]],[[3394,1525],[30,16]],[[3424,1541],[3,21],[-1,3],[-1,2],[-2,2],[-1,1],[0,1],[0,1],[-2,3],[0,6],[-1,2],[-2,2],[0,1],[-4,16],[0,1],[0,2],[0,2],[4,8],[0,4]],[[3417,1619],[37,53]],[[3454,1672],[3,4],[2,1],[0,1],[1,1],[2,1],[7,4],[4,3],[1,1],[12,8],[9,13],[1,0],[1,1],[1,1],[2,0],[8,-1],[6,3],[15,15],[2,4],[3,8],[0,1],[1,1],[3,5],[1,1],[5,2],[4,5],[2,0],[15,8]],[[3565,1763],[23,12]],[[3588,1775],[23,8]],[[3418,1585],[-5,20]],[[3413,1605],[0,2],[4,7],[0,1],[1,1],[0,3],[-1,0]],[[3424,1541],[1,3],[1,0],[0,1],[0,1],[-1,2],[1,6],[1,5],[0,1],[0,1],[0,1],[-1,2],[0,1],[-1,1],[0,1],[-2,3],[-1,1],[-2,10],[0,1],[-1,0],[0,1],[-1,2]],[[3454,1672],[32,23]],[[3486,1695]],[[3544,1750],[-1,0],[-1,0],[-3,-2],[-1,-1],[-4,-6],[0,-1],[-2,-6],[-1,-2],[-2,-4],[0,-1],[-14,-13],[-1,-1],[-4,-2],[-1,-1],[-1,0],[-2,0],[-1,0],[-1,0],[-1,0],[-2,1],[-1,0],[-3,-1],[-1,-1],[-10,-13],[0,-1]],[[3544,1751],[0,-1]],[[3565,1763],[-21,-12]],[[4096,1743],[-26,5],[-15,74],[-88,47],[-134,19],[-65,-2],[-80,-26],[-100,-85]],[[3341,1492]],[[3718,1868],[1,0],[-1,0]],[[3847,1879]],[[3154,0],[70,56],[-46,196],[78,684],[378,260],[118,135]],[[3747,1336],[6,-3]],[[3753,1333],[9,12]],[[3762,1345],[144,158],[67,158],[107,79],[16,-2]],[[1396,3544],[-47,-11],[-8,33],[-212,105],[-12,153],[35,62],[-15,155],[-114,55]],[[1396,3544],[1,0]],[[1397,3544],[2,0]],[[1399,3544],[257,-69],[54,8]],[[1710,3483],[2,1]],[[2015,3297],[-34,80],[-144,117],[-125,-10]],[[1996,3236]],[[1996,3236],[0,2],[-1,2],[0,1],[-1,0],[0,1],[-1,0],[-1,0]],[[1996,3236]],[[1996,3236],[-7,7],[-1,4]],[[1988,3247],[0,1]],[[1988,3248]],[[1988,3248]],[[1988,3248],[-1,18],[14,12]],[[2007,3236],[-10,0]],[[1997,3236],[-1,0]],[[1999,3231],[-2,5]],[[1999,3231],[0,-1],[1,0],[1,0],[1,2],[5,3],[0,1]],[[2007,3236],[13,12],[48,-46],[38,-94],[125,-21],[42,-51],[35,-9],[51,33],[84,-47],[142,65],[21,-70],[21,-14],[25,-4],[6,-3]],[[2003,3279],[-2,-1]],[[2004,3282],[-1,-2]],[[2005,3283],[-1,-1]],[[2005,3283],[10,14]],[[2636,2993],[70,-70]],[[2707,2923],[108,7],[34,16],[111,0],[11,-25]],[[2771,2935],[36,-4]],[[3232,2797],[-27,19],[-26,-14],[-41,37],[-45,-6],[-27,54],[-95,34]],[[3269,2746],[-2,2],[-3,8],[1,8],[-6,3],[-4,-1],[-3,2],[-20,29]],[[3306,2651],[-55,29],[17,23],[-21,24],[22,19]],[[3269,2746],[-4,19],[-33,32]],[[3305,2658],[0,-1],[1,-5]],[[3306,2653],[0,-1]],[[3306,2652],[0,-1]],[[3352,2582],[-2,-1],[-1,0],[0,1],[-9,8],[-9,-4],[-10,0],[-5,5],[-10,60]],[[3613,2653],[-55,-26],[-25,22],[-136,-29],[-24,-37],[-8,3],[-9,-3],[-5,-1],[-2,-1],[0,1],[-1,2],[-2,3],[-2,1],[-2,1],[-1,0],[0,1],[-1,0],[-1,0],[-2,0],[-1,0],[-1,-1],[-4,-3],[-1,0],[-2,0],[0,1],[-1,0],[-6,-1],[-5,5]],[[3321,2586],[-2,1]],[[3622,2653],[21,-1]],[[4096,2774],[-38,-16],[-141,70],[-17,-34],[-126,-68],[-60,-66],[-68,-24],[-3,16]],[[1399,3543],[-2,1]],[[1399,3544],[0,-1]],[[1988,3247],[0,1]],[[3633,438],[9,-23],[-70,-44],[-235,-31],[-128,-229],[14,-51]],[[3633,438],[1,111],[100,337],[-7,133],[85,4],[237,390],[47,56]],[[3729,1020]],[[125,3543],[-45,-146],[-80,-129]],[[495,4048],[-51,-103],[-223,-236],[-95,-164]],[[496,4050],[33,46]],[[496,4050],[0,1]],[[40,3324]],[[2836,798],[8,-13],[1,-6],[-8,-3],[-4,1],[-2,3],[-3,3],[-4,-1],[-7,-4],[-4,-2],[0,8],[-8,2],[-10,1],[-7,-1],[-30,-16],[-13,-2],[-3,-2],[-4,-3],[-4,2],[-6,5],[-4,-1],[-6,-4],[-3,-1],[-4,0],[-6,2],[-4,1],[0,3],[17,6],[5,0],[5,-1],[6,-3],[6,-2],[5,2],[8,5],[11,3],[9,5],[3,10],[7,-2],[14,8],[9,0],[6,-6],[4,-2],[3,0],[1,5],[-2,5],[-3,5],[-2,3],[2,6],[-2,5],[-10,7],[-7,10],[-5,2],[-8,1],[0,3],[3,4],[-4,1],[-7,0],[-6,-4],[-5,-1],[-6,2],[-6,5],[-6,2],[0,3],[8,0],[7,-2],[7,-1],[8,3],[-8,6],[-36,13],[-2,2],[4,1],[4,2],[-1,3],[-10,10],[-9,-3],[-8,-8],[-4,-8],[0,-12],[-2,-5],[-3,-4],[-3,0],[1,5],[3,7],[1,4],[-2,11],[5,9],[17,11],[0,3],[-15,0],[-7,-2],[-5,-4],[-2,4],[0,3],[2,3],[5,2],[-10,10],[7,-4],[2,6],[-1,5],[-3,11],[11,-4],[1,-3],[0,-7],[1,-7],[3,-6],[4,-1],[2,6],[8,-5],[19,-24],[2,-3],[2,0],[2,-1],[2,-1],[2,-1],[3,-4],[0,-1],[8,-2],[2,-1],[2,-2],[4,-6],[2,-1],[7,-1],[-2,8],[-10,16],[-2,4],[-7,8],[-4,5],[-2,6],[-3,12],[-2,4],[9,-16],[5,-5],[3,5],[3,0],[0,-4],[0,-2],[2,-3],[1,-6],[1,-6],[2,-5],[6,-5],[4,-15],[2,-5],[14,-11],[8,-9],[4,-3],[3,3],[2,0],[0,-4],[2,-10],[4,1],[5,2],[2,-3],[-1,-14],[1,-6],[3,-7]],[[2247,1106],[8,-1],[4,-2],[-3,-2],[-7,-11],[-1,-1],[-3,-1],[-2,0],[-1,-2],[-1,-3],[0,-4],[-1,-3],[-2,-1],[-4,-2],[-4,-6],[-5,-2],[-5,0],[-4,-3],[-9,-6],[3,-4],[11,3],[6,-2],[-9,-4],[-10,-10],[-7,-12],[3,-8],[-4,-3],[-8,-5],[-4,-1],[-4,1],[-3,3],[-4,2],[-5,-3],[1,-2],[1,-5],[-9,-3],[-6,0],[-2,2],[-2,8],[-7,11],[-1,6],[5,4],[9,-4],[9,0],[2,14],[8,-3],[7,-2],[6,4],[2,12],[1,3],[3,3],[3,2],[-1,4],[-1,2],[-1,3],[0,4],[0,4],[-3,1],[-2,-1],[-2,1],[-5,7],[0,5],[1,6],[1,12],[0,18],[2,6],[6,9],[0,-12],[5,-2],[7,-2],[5,-7],[-1,0],[-1,0],[-6,0],[-4,-3],[-1,-5],[3,-7],[-7,-1],[-1,-6],[4,-4],[4,2],[9,-5],[10,-1],[10,2],[6,4],[-3,7],[-4,3],[-4,4],[-2,12],[-1,4],[-1,3],[0,4],[3,4],[2,0],[2,-3],[1,-4],[0,-8],[2,-6],[4,-4],[4,-4],[5,-3]],[[762,1915],[1,-2],[2,-5],[-1,-3],[-3,-9],[-2,-10],[-3,-4],[-6,-8],[-5,-8],[-6,-8],[-3,-6],[-2,-6],[-5,-23],[2,-8],[6,-3],[-5,-6],[-8,4],[-8,9],[-4,8],[9,3],[4,4],[2,6],[0,7],[-2,3],[-8,3],[-2,4],[2,5],[4,2],[9,3],[5,5],[12,14],[3,5],[-1,11],[-1,7],[-2,6],[-4,6],[4,17],[-6,18],[-8,17],[-5,18],[-2,6],[-12,18],[-3,0],[-2,-8],[-9,-14],[-2,-10],[3,-17],[0,-10],[-5,-7],[-5,-1],[-1,3],[1,19],[-1,4],[-3,4],[-3,0],[-3,-4],[-4,-1],[-1,5],[0,3],[2,9],[2,3],[6,7],[5,8],[2,8],[-7,7],[6,3],[6,4],[4,5],[1,8],[1,9],[2,5],[2,6],[3,7],[0,13],[-3,17],[-6,14],[-9,6],[0,3],[4,4],[3,6],[0,7],[-3,6],[-4,6],[-45,108],[-6,9],[-8,8],[-6,10],[-2,13],[7,-4],[6,-5],[6,-6],[6,-7],[2,0],[4,-9],[9,-11],[5,-8],[20,-62],[13,-30],[2,-9],[2,-5],[11,-26],[1,-21],[5,-22],[-10,-37],[3,-12],[8,-8],[10,-22],[9,-12],[6,-13],[7,-50],[2,-4],[3,-2]],[[3814,2326],[6,-6],[2,-7],[-7,-4],[-19,-1],[-5,-2],[-15,-11],[-7,-1],[5,12],[-11,0],[-15,-2],[-7,5],[6,8],[12,2],[25,0],[-10,11],[-8,17],[-9,12],[-13,0],[3,7],[2,2],[-3,5],[-3,3],[-5,1],[-5,1],[-6,2],[-2,4],[0,6],[-1,6],[4,-1],[2,-2],[3,-3],[3,-3],[3,0],[3,1],[3,0],[4,-4],[2,0],[3,-6],[3,-4],[4,-3],[18,-19],[1,-3],[5,-2],[2,-5],[0,-7],[2,-7],[5,-7],[3,3],[2,8],[2,5],[4,2],[3,-3],[2,-4],[1,-6],[3,0]],[[3611,580],[-2,5],[-3,8],[-3,5],[-3,1],[-8,1],[-3,2],[0,4],[2,9],[1,4],[1,4],[7,4],[1,5],[2,3],[8,8],[1,2],[1,7],[2,4],[1,-2],[4,-4],[16,2],[5,-3],[0,-3],[2,-3],[5,-6],[1,-2],[-1,-4],[-3,-1],[-2,-1],[-2,-2],[3,-8],[4,-5],[3,-5],[-5,-12],[-1,-7],[-1,-3],[-3,-2],[-8,-4],[-1,-2],[-3,-6],[-7,1],[-6,3],[-5,3]],[[1282,470],[-3,-5],[-5,-12],[2,-17],[8,-14],[8,-6],[3,-1],[2,-3],[2,-3],[-3,-8],[0,-4],[1,-3],[1,0],[-5,-6],[-4,3],[-4,5],[-6,-2],[1,3],[2,3],[2,3],[7,2],[0,3],[-3,3],[-2,2],[-3,7],[-8,11],[-4,6],[-4,12],[-2,15],[-1,15],[2,11],[5,-16],[5,-3],[8,4],[-1,-3],[-1,-2]],[[2621,1174],[4,-3],[6,0],[0,-3],[-5,-4],[-2,-5],[-1,-6],[-2,-6],[-4,-5],[-4,-4],[-3,-5],[1,-5],[2,1],[5,2],[-3,-5],[-2,-1],[2,-2],[0,-2],[1,-1],[2,-1],[-2,-9],[0,-8],[-1,-7],[-4,-5],[-5,-1],[-6,2],[-6,4],[-3,5],[3,1],[1,0],[1,2],[2,3],[-8,-1],[-10,-4],[-10,-1],[-4,6],[1,1],[0,1],[0,1],[1,0],[6,-3],[6,3],[6,6],[3,6],[6,-3],[4,1],[1,5],[-2,7],[-4,5],[-5,4],[-6,2],[-7,2],[-11,-2],[-11,-4],[-10,-1],[-10,7],[2,3],[-4,2],[-11,2],[-5,1],[0,4],[5,3],[-1,5],[-4,5],[-8,5],[-7,13],[-6,3],[-4,0],[-2,1],[-1,2],[-2,3],[-1,5],[4,0],[3,-3],[2,-2],[7,-2],[6,-4],[5,-6],[4,-7],[2,2],[3,2],[6,-14],[7,-9],[10,-4],[13,-2],[28,2],[12,-3],[12,-11],[1,12],[2,10],[1,10],[-4,12],[-6,7],[-9,5],[-9,3],[-9,0],[0,3],[2,3],[2,1],[1,-1],[0,-2],[0,-1],[4,2],[16,2],[3,-3],[1,-1],[1,0],[11,-13],[1,-4],[1,-5],[2,-6]],[[1122,1196],[3,-3],[4,-3],[-14,5],[-24,21],[-18,7],[-7,3],[-6,5],[-3,4],[-4,4],[-9,2],[-6,4],[1,7],[-10,9],[-7,5],[-7,2],[-9,0],[-13,-3],[-2,0],[-5,2],[-19,16],[-8,6],[-8,2],[-8,-1],[-8,-4],[-6,5],[-13,6],[-15,4],[-5,-1],[-12,-8],[-11,-5],[-24,-6],[-12,-1],[5,8],[9,4],[9,3],[8,5],[7,6],[9,5],[9,3],[17,0],[15,-7],[6,-2],[43,0],[2,-3],[3,-10],[2,-2],[2,-2],[4,-7],[4,-1],[4,0],[12,3],[15,-3],[28,-23],[16,-8],[16,-3],[8,-3],[5,-5],[2,-4],[6,-15],[4,-4],[12,-10],[2,-2],[1,-5],[0,-2]],[[1346,702],[5,6],[0,3],[-2,3],[0,3],[2,2],[4,1],[4,-2],[3,-5],[2,-5],[2,-3],[3,7],[10,9],[2,7],[-2,2],[-3,1],[-3,3],[0,5],[2,4],[2,2],[3,0],[3,-3],[1,-6],[3,-3],[5,0],[4,3],[1,-1],[0,-2],[1,-2],[0,-2],[-8,-4],[-16,-19],[-8,-7],[-5,-1],[-3,0],[-7,-5],[-1,-1],[-1,-1],[-1,-3],[1,-4],[1,-1],[3,-1],[7,-2],[3,0],[0,-3],[-5,-2],[-22,2],[3,11],[3,8],[4,6]],[[4096,2153],[-3,4],[3,-1],[0,-3]],[[1779,0],[0,2],[-2,6],[-13,17],[-1,5],[0,10],[4,-4],[11,-15],[2,-3],[3,-1],[2,-1],[3,-1],[6,5],[3,8],[1,9],[-3,6],[0,3],[4,-3],[2,-6],[-1,-16],[-2,-3],[-3,-11],[-4,-7],[-12,0]],[[3194,957],[5,-3],[0,-6],[-2,-6],[-5,-4],[-2,2],[-5,5],[-4,2],[-4,-6],[-5,2],[-9,-1],[-9,-2],[-9,-6],[-1,3],[1,7],[2,1],[3,3],[1,4],[-5,1],[-8,1],[-4,-2],[-1,-3],[-2,-5],[-3,4],[0,5],[-1,2],[-1,3],[-1,2],[-2,1],[-5,-1],[-6,4],[-9,-4],[-3,3],[-4,-1],[-7,1],[-8,2],[-6,4],[6,2],[14,-4],[6,4],[6,1],[10,-1],[8,-4],[5,-4],[-2,6],[-5,8],[-1,5],[2,0],[1,-1],[1,-1],[2,-2],[2,0],[5,-2],[6,-10],[5,-3],[4,1],[0,3],[-2,3],[-1,4],[1,4],[2,3],[2,1],[1,-2],[0,-4],[1,-4],[1,-3],[2,-3],[2,1],[9,0],[2,-1],[4,5],[2,10],[4,4],[5,-1],[6,-4],[4,-5],[-1,-7],[-8,-8],[0,-2],[8,-1]],[[745,2185],[6,-19],[20,-36],[-1,-17],[-1,-1],[-3,-4],[-1,-1],[-2,5],[0,9],[-1,5],[-3,4],[-9,13],[-2,4],[-12,15],[-4,7],[-2,8],[-1,7],[1,18],[-1,10],[-3,9],[-3,7],[-12,22],[-3,8],[-2,31],[-3,9],[-6,5],[-9,-1],[-4,-9],[-2,-10],[-3,-5],[-9,0],[-8,2],[-6,4],[-4,10],[5,-1],[8,-5],[2,-1],[5,2],[2,2],[0,4],[1,5],[5,7],[15,12],[2,-2],[5,-2],[6,-10],[2,-2],[4,0],[9,5],[3,0],[2,-5],[-2,-5],[-2,-3],[-2,-3],[1,-6],[2,-2],[2,-2],[3,-4],[2,-5],[3,-13],[2,-4],[7,-8],[1,-3],[2,-10],[4,0],[6,3],[8,-1],[4,-4],[1,-3],[-3,-2],[-2,-3],[-13,-5],[-1,-1],[-2,-4],[-2,-11],[-2,-19]],[[3574,706],[11,-36],[1,-10],[-3,-5],[-9,1],[-10,3],[-8,6],[1,9],[-17,0],[-5,-3],[2,-7],[-15,4],[-15,7],[-15,10],[-11,12],[-13,23],[-5,3],[-4,3],[-6,6],[-5,8],[-1,9],[4,-6],[14,-10],[7,-13],[5,-4],[3,0],[-1,4],[8,-5],[6,-10],[6,-8],[10,-2],[5,3],[1,3],[1,3],[3,4],[4,-5],[3,0],[0,8],[9,-6],[4,-2],[5,-1],[5,0],[9,5],[5,1],[1,2],[4,3],[4,1],[2,-8]],[[4096,832],[0,-832],[-783,0],[17,14],[7,9],[-5,9],[-6,2],[-5,0],[-4,2],[0,1],[-2,6],[0,5],[3,5],[16,21],[4,9],[1,11],[2,3],[8,9],[3,5],[1,6],[0,6],[1,6],[3,4],[1,-17],[-13,-29],[-3,-16],[31,20],[11,17],[10,11],[0,5],[-5,9],[-3,4],[-4,4],[-6,1],[-6,-3],[-12,21],[-2,4],[-6,3],[0,6],[4,11],[-3,11],[-7,17],[-5,16],[3,11],[0,3],[-3,5],[-5,13],[-4,4],[0,2],[7,1],[3,-4],[1,-6],[4,-6],[5,-3],[5,-1],[1,-2],[-5,-8],[0,-10],[4,-16],[9,-26],[25,-23],[5,-3],[4,1],[1,9],[0,4],[-4,7],[-1,4],[0,31],[2,6],[3,5],[-2,2],[0,1],[-2,-1],[-1,0],[-1,1],[-1,3],[10,0],[2,-8],[-7,-33],[2,-2],[13,6],[-5,-28],[0,-12],[2,-12],[4,-2],[14,7],[3,0],[5,-1],[4,1],[30,20],[4,7],[-6,4],[1,1],[1,0],[1,0],[-1,3],[3,0],[4,-2],[4,7],[3,11],[1,9],[-2,0],[-2,-4],[-3,-4],[-5,-5],[-5,-5],[-9,-5],[-9,-5],[-7,-1],[-1,5],[7,7],[8,7],[16,7],[2,9],[-4,8],[-9,4],[-34,3],[9,4],[10,2],[11,1],[10,-1],[0,4],[-5,2],[-9,5],[-5,2],[-4,-1],[-7,-2],[-4,0],[-32,6],[-7,-3],[0,6],[3,4],[4,2],[11,0],[26,-4],[9,1],[-2,4],[-2,5],[-1,5],[0,5],[2,0],[3,-6],[3,-3],[13,-13],[5,-1],[5,0],[6,-2],[6,-4],[3,-4],[4,-3],[6,-1],[5,2],[3,7],[2,8],[-1,8],[5,-3],[1,-5],[0,-5],[2,-5],[5,-4],[3,1],[3,3],[4,2],[27,20],[3,2],[4,2],[2,4],[2,4],[-1,1],[-2,1],[-17,16],[-4,6],[5,1],[7,-5],[12,-13],[8,-8],[6,1],[5,6],[8,2],[8,2],[17,6],[19,3],[4,4],[-3,4],[-8,6],[0,3],[3,2],[4,0],[9,-2],[9,0],[4,2],[21,16],[6,9],[1,14],[-3,0],[0,-3],[-1,0],[-5,3],[-2,4],[-4,3],[-12,4],[-6,4],[-3,6],[-2,7],[5,-5],[5,-3],[4,0],[1,6],[0,7],[-4,12],[-1,6],[2,1],[13,-9],[0,2],[0,3],[2,3],[2,2],[6,-7],[-8,-11],[-3,-7],[3,-3],[6,-3],[4,-5],[3,-6],[4,-2],[8,2],[11,4],[20,13],[6,8],[6,10],[7,9],[9,4],[2,1],[1,3],[2,4],[3,1],[3,1],[18,10],[2,4],[3,7],[-4,-1],[-3,-2],[-3,-3],[-2,-4],[-5,8],[-1,5],[0,5],[10,21],[4,6],[5,2],[12,8],[7,2],[3,-5],[1,-4],[4,-9],[2,-4],[5,3],[7,3],[8,2],[9,1],[9,2],[3,6],[0,7],[3,8],[7,7],[16,8],[5,6],[1,9],[-6,4],[-8,2],[-4,6],[8,-1],[8,-2],[6,-4],[3,-8],[2,1],[2,1],[2,2],[1,2],[-4,4],[-2,5],[0,5],[5,2],[3,-2],[3,-8],[3,-3],[3,7],[4,5],[6,3],[4,4],[-5,2],[-2,2],[-3,8],[0,5],[0,6],[-1,3],[-12,4],[-9,5],[-7,7],[-3,9],[1,10],[3,9],[4,9],[16,24],[8,8],[8,4],[0,-3],[-4,-4],[-13,-16],[-10,-21],[-3,-11],[1,-4],[15,-1],[5,-2],[4,-6],[2,-9],[0,-16],[3,-7],[2,0],[0,11],[10,53],[3,5],[-3,3],[9,19],[37,53],[34,49],[25,28],[38,34],[5,3]],[[3883,505],[-1,0],[-6,-3],[-3,-7],[-2,-8],[0,-9],[3,0],[7,18],[0,7],[1,0],[1,1],[0,1]],[[3311,0],[-20,0],[2,2],[3,2],[1,4],[3,3],[5,1],[0,-2],[1,-4],[3,-4],[2,-2]],[[3291,0],[2,2],[3,2],[1,4],[3,3],[5,1],[0,-2],[1,-4],[3,-4],[2,-2]],[[3313,0],[17,14],[7,9],[-5,9],[-6,2],[-5,0],[-4,2],[0,1],[-2,6],[0,5],[3,5],[16,21],[4,9],[1,11],[2,3],[8,9],[3,5],[1,6],[0,6],[1,6],[3,4],[1,-17],[-13,-29],[-3,-16],[31,20],[11,17],[10,11],[0,5],[-5,9],[-3,4],[-4,4],[-6,1],[-6,-3],[-12,21],[-2,4],[-6,3],[0,6],[4,11],[-3,11],[-7,17],[-5,16],[3,11],[0,3],[-3,5],[-5,13],[-4,4],[0,2],[7,1],[3,-4],[1,-6],[4,-6],[5,-3],[5,-1],[1,-2],[-5,-8],[0,-10],[4,-16],[9,-26],[25,-23],[5,-3],[4,1],[1,9],[0,4],[-4,7],[-1,4],[0,31],[2,6],[3,5],[-2,2],[0,1],[-2,-1],[-1,0],[-1,1],[-1,3],[10,0],[2,-8],[-7,-33],[2,-2],[13,6],[-5,-28],[0,-12],[2,-12],[4,-2],[14,7],[3,0],[5,-1],[4,1],[30,20],[4,7],[-6,4],[1,1],[1,0],[1,0],[-1,3],[3,0],[4,-2],[4,7],[3,11],[1,9],[-2,0],[-2,-4],[-3,-4],[-5,-5],[-5,-5],[-9,-5],[-9,-5],[-7,-1],[-1,5],[7,7],[8,7],[16,7],[2,9],[-4,8],[-9,4],[-34,3],[9,4],[10,2],[11,1],[10,-1],[0,4],[-5,2],[-9,5],[-5,2],[-4,-1],[-7,-2],[-4,0],[-32,6],[-7,-3],[0,6],[3,4],[4,2],[11,0],[26,-4],[9,1],[-2,4],[-2,5],[-1,5],[0,5],[2,0],[3,-6],[3,-3],[13,-13],[5,-1],[5,0],[6,-2],[6,-4],[3,-4],[4,-3],[6,-1],[5,2],[3,7],[2,8],[-1,8],[5,-3],[1,-5],[0,-5],[2,-5],[5,-4],[3,1],[3,3],[4,2],[27,20],[3,2],[4,2],[2,4],[2,4],[-1,1],[-2,1],[-17,16],[-4,6],[5,1],[7,-5],[12,-13],[8,-8],[6,1],[5,6],[8,2],[8,2],[17,6],[19,3],[4,4],[-3,4],[-8,6],[0,3],[3,2],[4,0],[9,-2],[9,0],[4,2],[21,16],[6,9],[1,14],[-3,0],[0,-3],[-1,0],[-5,3],[-2,4],[-4,3],[-12,4],[-6,4],[-3,6],[-2,7],[5,-5],[5,-3],[4,0],[1,6],[0,7],[-4,12],[-1,6],[2,1],[13,-9],[0,2],[0,3],[2,3],[2,2],[6,-7],[-8,-11],[-3,-7],[3,-3],[6,-3],[4,-5],[3,-6],[4,-2],[8,2],[11,4],[20,13],[6,8],[6,10],[7,9],[9,4],[2,1],[1,3],[2,4],[3,1],[3,1],[18,10],[2,4],[3,7],[-4,-1],[-3,-2],[-3,-3],[-2,-4],[-5,8],[-1,5],[0,5],[10,21],[4,6],[5,2],[12,8],[7,2],[3,-5],[1,-4],[4,-9],[2,-4],[5,3],[7,3],[8,2],[9,1],[9,2],[3,6],[0,7],[3,8],[7,7],[16,8],[5,6],[1,9],[-6,4],[-8,2],[-4,6],[8,-1],[8,-2],[6,-4],[3,-8],[2,1],[2,1],[2,2],[1,2],[-4,4],[-2,5],[0,5],[5,2],[3,-2],[3,-8],[3,-3],[3,7],[4,5],[6,3],[4,4],[-5,2],[-2,2],[-3,8],[0,5],[0,6],[-1,3],[-12,4],[-9,5],[-7,7],[-3,9],[1,10],[3,9],[4,9],[16,24],[8,8],[8,4],[0,-3],[-4,-4],[-13,-16],[-10,-21],[-3,-11],[1,-4],[15,-1],[5,-2],[4,-6],[2,-9],[0,-16],[3,-7],[2,0],[0,11],[10,53],[3,5],[-3,3],[9,19],[37,53],[34,49],[25,28],[38,34],[5,3]],[[3881,503],[1,0],[1,1],[0,1],[-1,0],[-6,-3],[-3,-7],[-2,-8],[0,-9],[3,0],[7,18],[0,7]],[[762,1915],[1,-2],[2,-5],[-1,-3],[-3,-9],[-2,-10],[-3,-4],[-6,-8],[-5,-8],[-6,-8],[-3,-6],[-2,-6],[-5,-23],[2,-8],[6,-3],[-5,-6],[-8,4],[-8,9],[-4,8],[9,3],[4,4],[2,6],[0,7],[-2,3],[-8,3],[-2,4],[2,5],[4,2],[9,3],[5,5],[12,14],[3,5],[-1,11],[-1,7],[-2,6],[-4,6],[4,17],[-6,18],[-8,17],[-5,18],[-2,6],[-12,18],[-3,0],[-2,-8],[-9,-14],[-2,-10],[3,-17],[0,-10],[-5,-7],[-5,-1],[-1,3],[1,19],[-1,4],[-3,4],[-3,0],[-3,-4],[-4,-1],[-1,5],[0,3],[2,9],[2,3],[6,7],[5,8],[2,8],[-7,7],[6,3],[6,4],[4,5],[1,8],[1,9],[2,5],[2,6],[3,7],[0,13],[-3,17],[-6,14],[-9,6],[0,3],[4,4],[3,6],[0,7],[-3,6],[-4,6],[-45,108],[-6,9],[-8,8],[-6,10],[-2,13],[7,-4],[6,-5],[6,-6],[6,-7],[2,0],[4,-9],[9,-11],[5,-8],[20,-62],[13,-30],[2,-9],[2,-5],[11,-26],[1,-21],[5,-22],[-10,-37],[3,-12],[8,-8],[10,-22],[9,-12],[6,-13],[7,-50],[2,-4],[3,-2]],[[2836,798],[8,-13],[1,-6],[-8,-3],[-4,1],[-2,3],[-3,3],[-4,-1],[-7,-4],[-4,-2],[0,8],[-8,2],[-10,1],[-7,-1],[-30,-16],[-13,-2],[-3,-2],[-4,-3],[-4,2],[-6,5],[-4,-1],[-6,-4],[-3,-1],[-4,0],[-6,2],[-4,1],[0,3],[17,6],[5,0],[5,-1],[6,-3],[6,-2],[5,2],[8,5],[11,3],[9,5],[3,10],[7,-2],[14,8],[9,0],[6,-6],[4,-2],[3,0],[1,5],[-2,5],[-3,5],[-2,3],[2,6],[-2,5],[-10,7],[-7,10],[-5,2],[-8,1],[0,3],[3,4],[-4,1],[-7,0],[-6,-4],[-5,-1],[-6,2],[-6,5],[-6,2],[0,3],[8,0],[7,-2],[7,-1],[8,3],[-8,6],[-36,13],[-2,2],[4,1],[4,2],[-1,3],[-10,10],[-9,-3],[-8,-8],[-4,-8],[0,-12],[-2,-5],[-3,-4],[-3,0],[1,5],[3,7],[1,4],[-2,11],[5,9],[17,11],[0,3],[-15,0],[-7,-2],[-5,-4],[-2,4],[0,3],[2,3],[5,2],[-10,10],[7,-4],[2,6],[-1,5],[-3,11],[11,-4],[1,-3],[0,-7],[1,-7],[3,-6],[4,-1],[2,6],[8,-5],[19,-24],[2,-3],[2,0],[2,-1],[2,-1],[2,-1],[3,-4],[0,-1],[8,-2],[2,-1],[2,-2],[4,-6],[2,-1],[7,-1],[-2,8],[-10,16],[-2,4],[-7,8],[-4,5],[-2,6],[-3,12],[-2,4],[9,-16],[5,-5],[3,5],[3,0],[0,-4],[0,-2],[2,-3],[1,-6],[1,-6],[2,-5],[6,-5],[4,-15],[2,-5],[14,-11],[8,-9],[4,-3],[3,3],[2,0],[0,-4],[2,-10],[4,1],[5,2],[2,-3],[-1,-14],[1,-6],[3,-7]],[[1122,1196],[3,-3],[4,-3],[-14,5],[-24,21],[-18,7],[-7,3],[-6,5],[-3,4],[-4,4],[-9,2],[-6,4],[1,7],[-10,9],[-7,5],[-7,2],[-9,0],[-13,-3],[-2,0],[-5,2],[-19,16],[-8,6],[-8,2],[-8,-1],[-8,-4],[-6,5],[-13,6],[-15,4],[-5,-1],[-12,-8],[-11,-5],[-24,-6],[-12,-1],[5,8],[9,4],[9,3],[8,5],[7,6],[9,5],[9,3],[17,0],[15,-7],[6,-2],[43,0],[2,-3],[3,-10],[2,-2],[2,-2],[4,-7],[4,-1],[4,0],[12,3],[15,-3],[28,-23],[16,-8],[16,-3],[8,-3],[5,-5],[2,-4],[6,-15],[4,-4],[12,-10],[2,-2],[1,-5],[0,-2]],[[4096,2153],[-3,4],[3,-1]],[[745,2185],[6,-19],[20,-36],[-1,-17],[-1,-1],[-3,-4],[-1,-1],[-2,5],[0,9],[-1,5],[-3,4],[-9,13],[-2,4],[-12,15],[-4,7],[-2,8],[-1,7],[1,18],[-1,10],[-3,9],[-3,7],[-12,22],[-3,8],[-2,31],[-3,9],[-6,5],[-9,-1],[-4,-9],[-2,-10],[-3,-5],[-9,0],[-8,2],[-6,4],[-4,10],[5,-1],[8,-5],[2,-1],[5,2],[2,2],[0,4],[1,5],[5,7],[15,12],[2,-2],[5,-2],[6,-10],[2,-2],[4,0],[9,5],[3,0],[2,-5],[-2,-5],[-2,-3],[-2,-3],[1,-6],[2,-2],[2,-2],[3,-4],[2,-5],[3,-13],[2,-4],[7,-8],[1,-3],[2,-10],[4,0],[6,3],[8,-1],[4,-4],[1,-3],[-3,-2],[-2,-3],[-13,-5],[-1,-1],[-2,-4],[-2,-11],[-2,-19]],[[3611,580],[-2,5],[-3,8],[-3,5],[-3,1],[-8,1],[-3,2],[0,4],[2,9],[1,4],[1,4],[7,4],[1,5],[2,3],[8,8],[1,2],[1,7],[2,4],[1,-2],[4,-4],[16,2],[5,-3],[0,-3],[2,-3],[5,-6],[1,-2],[-1,-4],[-3,-1],[-2,-1],[-2,-2],[3,-8],[4,-5],[3,-5],[-5,-12],[-1,-7],[-1,-3],[-3,-2],[-8,-4],[-1,-2],[-3,-6],[-7,1],[-6,3],[-5,3]],[[3574,706],[11,-36],[1,-10],[-3,-5],[-9,1],[-10,3],[-8,6],[1,9],[-17,0],[-5,-3],[2,-7],[-15,4],[-15,7],[-15,10],[-11,12],[-13,23],[-5,3],[-4,3],[-6,6],[-5,8],[-1,9],[4,-6],[14,-10],[7,-13],[5,-4],[3,0],[-1,4],[8,-5],[6,-10],[6,-8],[10,-2],[5,3],[1,3],[1,3],[3,4],[4,-5],[3,0],[0,8],[9,-6],[4,-2],[5,-1],[5,0],[9,5],[5,1],[1,2],[4,3],[4,1],[2,-8]],[[2621,1174],[4,-3],[6,0],[0,-3],[-5,-4],[-2,-5],[-1,-6],[-2,-6],[-4,-5],[-4,-4],[-3,-5],[1,-5],[2,1],[5,2],[-3,-5],[-2,-1],[2,-2],[0,-2],[1,-1],[2,-1],[-2,-9],[0,-8],[-1,-7],[-4,-5],[-5,-1],[-6,2],[-6,4],[-3,5],[3,1],[1,0],[1,2],[2,3],[-8,-1],[-10,-4],[-10,-1],[-4,6],[1,1],[0,1],[0,1],[1,0],[6,-3],[6,3],[6,6],[3,6],[6,-3],[4,1],[1,5],[-2,7],[-4,5],[-5,4],[-6,2],[-7,2],[-11,-2],[-11,-4],[-10,-1],[-10,7],[2,3],[-4,2],[-11,2],[-5,1],[0,4],[5,3],[-1,5],[-4,5],[-8,5],[-7,13],[-6,3],[-4,0],[-2,1],[-1,2],[-2,3],[-1,5],[4,0],[3,-3],[2,-2],[7,-2],[6,-4],[5,-6],[4,-7],[2,2],[3,2],[6,-14],[7,-9],[10,-4],[13,-2],[28,2],[12,-3],[12,-11],[1,12],[2,10],[1,10],[-4,12],[-6,7],[-9,5],[-9,3],[-9,0],[0,3],[2,3],[2,1],[1,-1],[0,-2],[0,-1],[4,2],[16,2],[3,-3],[1,-1],[1,0],[11,-13],[1,-4],[1,-5],[2,-6]],[[2247,1106],[8,-1],[4,-2],[-3,-2],[-7,-11],[-1,-1],[-3,-1],[-2,0],[-1,-2],[-1,-3],[0,-4],[-1,-3],[-2,-1],[-4,-2],[-4,-6],[-5,-2],[-5,0],[-4,-3],[-9,-6],[3,-4],[11,3],[6,-2],[-9,-4],[-10,-10],[-7,-12],[3,-8],[-4,-3],[-8,-5],[-4,-1],[-4,1],[-3,3],[-4,2],[-5,-3],[1,-2],[1,-5],[-9,-3],[-6,0],[-2,2],[-2,8],[-7,11],[-1,6],[5,4],[9,-4],[9,0],[2,14],[8,-3],[7,-2],[6,4],[2,12],[1,3],[3,3],[3,2],[-1,4],[-1,2],[-1,3],[0,4],[0,4],[-3,1],[-2,-1],[-2,1],[-5,7],[0,5],[1,6],[1,12],[0,18],[2,6],[6,9],[0,-12],[5,-2],[7,-2],[5,-7],[-1,0],[-1,0],[-6,0],[-4,-3],[-1,-5],[3,-7],[-7,-1],[-1,-6],[4,-4],[4,2],[9,-5],[10,-1],[10,2],[6,4],[-3,7],[-4,3],[-4,4],[-2,12],[-1,4],[-1,3],[0,4],[3,4],[2,0],[2,-3],[1,-4],[0,-8],[2,-6],[4,-4],[4,-4],[5,-3]],[[3814,2326],[6,-6],[2,-7],[-7,-4],[-19,-1],[-5,-2],[-15,-11],[-7,-1],[5,12],[-11,0],[-15,-2],[-7,5],[6,8],[12,2],[25,0],[-10,11],[-8,17],[-9,12],[-13,0],[3,7],[2,2],[-3,5],[-3,3],[-5,1],[-5,1],[-6,2],[-2,4],[0,6],[-1,6],[4,-1],[2,-2],[3,-3],[3,-3],[3,0],[3,1],[3,0],[4,-4],[2,0],[3,-6],[3,-4],[4,-3],[18,-19],[1,-3],[5,-2],[2,-5],[0,-7],[2,-7],[5,-7],[3,3],[2,8],[2,5],[4,2],[3,-3],[2,-4],[1,-6],[3,0]],[[1779,0],[0,2],[-2,6],[-13,17],[-1,5],[0,10],[4,-4],[11,-15],[2,-3],[3,-1],[2,-1],[3,-1],[6,5],[3,8],[1,9],[-3,6],[0,3],[4,-3],[2,-6],[-1,-16],[-2,-3],[-3,-11],[-4,-7]],[[1346,702],[5,6],[0,3],[-2,3],[0,3],[2,2],[4,1],[4,-2],[3,-5],[2,-5],[2,-3],[3,7],[10,9],[2,7],[-2,2],[-3,1],[-3,3],[0,5],[2,4],[2,2],[3,0],[3,-3],[1,-6],[3,-3],[5,0],[4,3],[1,-1],[0,-2],[1,-2],[0,-2],[-8,-4],[-16,-19],[-8,-7],[-5,-1],[-3,0],[-7,-5],[-1,-1],[-1,-1],[-1,-3],[1,-4],[1,-1],[3,-1],[7,-2],[3,0],[0,-3],[-5,-2],[-22,2],[3,11],[3,8],[4,6]],[[1282,470],[-3,-5],[-5,-12],[2,-17],[8,-14],[8,-6],[3,-1],[2,-3],[2,-3],[-3,-8],[0,-4],[1,-3],[1,0],[-5,-6],[-4,3],[-4,5],[-6,-2],[1,3],[2,3],[2,3],[7,2],[0,3],[-3,3],[-2,2],[-3,7],[-8,11],[-4,6],[-4,12],[-2,15],[-1,15],[2,11],[5,-16],[5,-3],[8,4],[-1,-3],[-1,-2]],[[3194,957],[5,-3],[0,-6],[-2,-6],[-5,-4],[-2,2],[-5,5],[-4,2],[-4,-6],[-5,2],[-9,-1],[-9,-2],[-9,-6],[-1,3],[1,7],[2,1],[3,3],[1,4],[-5,1],[-8,1],[-4,-2],[-1,-3],[-2,-5],[-3,4],[0,5],[-1,2],[-1,3],[-1,2],[-2,1],[-5,-1],[-6,4],[-9,-4],[-3,3],[-4,-1],[-7,1],[-8,2],[-6,4],[6,2],[14,-4],[6,4],[6,1],[10,-1],[8,-4],[5,-4],[-2,6],[-5,8],[-1,5],[2,0],[1,-1],[1,-1],[2,-2],[2,0],[5,-2],[6,-10],[5,-3],[4,1],[0,3],[-2,3],[-1,4],[1,4],[2,3],[2,1],[1,-2],[0,-4],[1,-4],[1,-3],[2,-3],[2,1],[9,0],[2,-1],[4,5],[2,10],[4,4],[5,-1],[6,-4],[4,-5],[-1,-7],[-8,-8],[0,-2],[8,-1]],[[517,3241],[-5,-43],[-3,-5],[-8,-7],[-78,-82],[-14,-9],[-17,-17],[-16,-14],[-1,-20],[6,-50],[-3,-98],[3,-16],[9,-16]],[[366,2565],[7,15],[12,60],[0,14],[-5,29],[0,14],[2,10],[7,16],[3,41],[8,55],[-1,33],[-3,7],[-6,7],[2,4],[7,0]],[[3057,2915],[9,13],[36,30],[14,9],[29,12],[21,19],[8,5],[14,3],[33,-1],[22,10],[22,2],[5,7],[8,1],[8,-4],[34,5],[21,-4],[23,1],[8,5],[1,6],[-2,7],[2,7],[13,7],[9,4],[4,6],[-1,5],[-4,5],[6,37],[-1,17],[21,24],[15,8],[8,9],[13,16],[5,14],[6,4],[8,0],[7,7],[9,3],[3,7],[-1,10],[4,7],[5,19],[14,21],[9,8],[6,12],[6,19],[3,2],[3,7]],[[3079,3650],[25,9],[24,13],[13,4],[39,-3],[40,5],[46,0],[45,8],[10,-1],[26,-9],[20,4]],[[3318,964],[-20,-2]],[[3696,1018],[-33,5],[-35,2],[-24,-6],[-20,-1],[-20,-6],[-13,4],[-102,11],[-37,0],[-13,-2],[-10,-5],[-22,-32],[-21,-17],[-12,-6],[-16,-1]],[[3334,1551],[0,-8],[-4,-37]],[[3331,1751],[-3,-7],[-1,-10],[3,-69],[-6,-52],[1,-12],[7,-26],[2,-13],[0,-11]],[[3721,1595],[3,-41],[10,-47],[6,-16]],[[3717,1361],[7,-7],[24,-15],[12,-12],[20,-10],[12,-8],[39,-36],[5,-1],[21,0],[12,2],[10,-8],[9,-14],[27,-20],[17,-9],[10,-11],[12,-7],[13,-3]],[[2848,2122],[1,-24],[-2,-14],[-6,-6],[-14,-3],[-4,-3],[-5,-13],[-34,-40],[-9,-16],[3,-6]],[[2819,2107],[-28,-24],[-17,-4],[-8,-4],[-6,-6],[-25,-15],[-25,-20],[-14,-12],[-8,-3],[-10,1],[-18,-20],[-24,-2],[-62,-38],[-43,-19],[-19,-11],[-8,-3],[-24,1],[-1,-6],[-46,-27],[-24,-27]],[[1117,1289],[0,-18],[3,-26],[5,-21],[5,-11]],[[1197,1995],[3,-17],[-2,-9],[-8,-10]],[[1247,2128],[-4,-13],[-20,-33],[-14,-33],[-7,-8],[-5,-11],[-2,-19],[2,-16]],[[2114,3590],[-1,15],[0,1]],[[2113,3606],[2,32],[-15,18],[-2,32],[6,22],[0,18],[7,15],[0,9],[5,10],[1,15],[7,23],[0,36],[3,24],[-6,43],[4,14],[11,24],[3,22],[5,6],[8,0],[5,3],[1,27],[25,20]],[[296,2335],[-5,-16],[0,-13],[-3,-7]],[[2302,407],[-20,30],[-3,2]],[[2095,706],[-5,7],[-15,13],[-28,16],[-3,4],[-5,14],[2,17],[-1,9],[-2,6],[5,19]],[[2279,439],[-15,9],[-25,28],[-28,16],[-31,34],[-19,37],[-8,29],[-10,19],[-9,33],[-6,12],[-18,19],[-13,29],[-2,2]],[[3226,135],[13,3],[16,14],[6,24],[27,63],[0,8],[10,28],[4,9],[13,16],[4,8]],[[3188,66],[3,13],[5,14]],[[3186,56],[2,10]],[[3196,93],[1,2],[14,26],[15,14]],[[1565,1402],[5,1],[16,7],[10,0],[12,-7],[23,-17],[4,-10],[10,2],[4,-2]],[[3412,4096],[0,-10]],[[3817,3492],[-19,0],[-24,8],[-27,-8],[-14,-2],[-38,9],[-10,0],[-8,-5],[-8,-17],[-12,-10],[-7,-11]],[[3255,2269],[-5,4],[-9,0],[-36,-17],[-59,-17],[-27,-12],[-12,-1],[-15,-14],[-43,-10],[-11,2],[-10,-10],[-16,1],[-17,-2],[-14,-6],[-22,-8],[-32,-24],[-19,-6],[-39,-26],[-7,-2],[-14,1]],[[4061,1843],[-6,-7],[-7,-1],[-21,13],[-15,6],[-4,0]],[[4008,1854],[-30,2],[-20,7],[-10,0]],[[4096,1888],[-9,-17],[-26,-28]],[[3651,2455],[-4,-1]],[[3868,2662],[-17,-26],[-8,-16],[-9,-14],[-41,-29],[-12,-10],[-11,-12],[-19,-26],[-8,-5],[-18,-6],[-14,-9],[-20,-14],[-26,-30],[-10,-9],[-4,-1]],[[4096,3498],[-4,-1],[-1,-3],[-12,-6],[-11,2],[-34,1],[-7,3],[-17,12],[-20,2],[-17,4],[-12,0],[-32,-3],[-36,6],[-19,-5],[-10,-6],[-8,-9],[-29,1],[-10,-3]],[[2896,4096],[-10,-4],[-44,-37],[-29,-20],[-44,-22],[-8,-8]],[[4096,3674],[-11,0],[-17,3],[-10,-8],[-12,-24],[-4,-4],[-7,-2],[-10,2],[-19,8],[-17,4]],[[3699,1843],[10,8]],[[3532,1743],[30,-3],[12,4],[18,19],[35,9],[11,6],[36,29],[6,11],[3,13],[16,12]],[[3427,1594],[-2,-6],[-19,-7],[-19,-13],[-15,-29],[-16,-25],[-12,-5],[-13,-3]],[[3534,1744],[-15,-6],[-11,-9],[-7,-11],[-13,-22],[-15,-14],[-32,-38],[-8,-19],[1,-15],[-7,-16]],[[3307,2267],[1,-7],[15,-16],[2,-20],[16,-38],[7,-8],[17,-6],[5,-4],[13,-30],[-1,-4]],[[1380,175],[-11,-4]],[[1692,314],[-21,-18],[-27,-12],[-33,-19],[-34,-30],[-12,-8],[-72,-10],[-47,-21],[-66,-21]],[[1841,503],[-9,-15],[-19,-8],[-23,-19],[-7,-10],[-12,-22],[-18,-19]],[[1753,410],[-6,-5],[-9,-21],[-17,-19],[-29,-51]],[[148,3561],[14,7],[8,9],[9,1],[72,5],[59,-5],[25,1],[6,4],[13,17],[11,7],[16,7],[21,2],[9,3],[20,25],[20,13],[26,8],[34,3],[5,3],[9,11],[37,24],[18,1],[37,-1]],[[1236,1911],[-1,0],[-19,-7],[-24,0]],[[2092,1778],[-18,-8],[-17,7],[-21,-11],[-36,15],[-10,9],[-11,2],[-9,4],[-25,-6],[-11,-6],[-11,6],[-10,-2],[-16,4],[-9,-6],[-23,6],[-23,23],[-19,7],[-50,31],[-19,4],[-21,19],[-7,13],[-8,10],[-7,1],[-12,0],[-7,-4],[-8,5],[-7,2],[-35,-3],[-44,1],[-8,-1],[-22,-12],[-15,0],[-57,20],[-26,11],[-29,-4],[-16,1],[-10,-2],[-25,9],[-9,2],[-38,-6],[-34,1],[-18,-1],[-31,-8],[-24,0]],[[167,2232],[-2,28],[2,119],[-2,5],[-7,10],[-3,5],[2,14],[-7,19],[-23,50],[-13,34],[-30,45],[-24,15],[-18,27],[-29,54],[-13,15]],[[2092,1778],[-10,-15],[-24,-21],[-16,-26],[-56,-79],[-14,-16],[-25,-22],[-20,-24],[-6,-9],[-7,-19],[-5,-7],[-25,-20],[-10,-26],[-12,-23]],[[3395,4096],[24,-15],[16,-4],[17,-13]],[[3452,4064],[30,-13],[9,-5],[11,-14],[49,-25],[10,-12],[30,-17],[16,-26]],[[3122,4071],[0,-1],[-5,-19],[12,-23],[7,-20]],[[3102,4096],[20,-25]],[[3694,3909],[11,-11],[2,-7],[9,-6],[7,-11],[6,-12],[2,-13],[5,-5]],[[3607,3952],[18,-4],[3,-3],[14,-2],[6,-11],[8,-2],[15,-8],[13,-3],[10,-10]],[[3736,3844],[5,-6],[15,-11],[2,-7],[-3,-10],[-1,-15],[2,-10],[17,-25],[12,-9]],[[3785,3751],[49,-30],[11,2],[13,-16],[8,-6],[11,5],[19,3],[20,-10],[50,-32],[14,-6],[6,-7],[3,-1]],[[3602,3845],[1,-4],[-1,-8],[2,-9],[-1,-1]],[[3603,3823],[-4,-3],[-2,-11],[-13,-14],[-4,-11],[4,-10],[-1,-3],[-18,-13],[-14,-22]],[[2183,4019],[15,9],[5,7],[20,16],[23,11],[34,25],[9,9]],[[3551,3736],[19,-12]],[[3785,3751],[-25,-5],[-24,-20],[-22,-4],[-14,-5],[-13,-7],[-12,-11],[-10,2],[-13,11],[-10,0],[-23,10],[-13,4],[-12,-5],[-8,0],[-9,6],[-7,-3]],[[3367,3680],[10,0],[24,-9],[35,11],[16,11],[9,5],[7,1],[24,1],[37,17],[15,15],[7,4]],[[3136,4008],[-1,-4]],[[3135,4004],[0,-2],[-4,-5],[-14,-42],[-6,-13],[-21,-29],[13,-39],[-3,-8],[-5,-7],[-16,-18],[-10,-28],[0,-21],[9,-13],[1,-7],[-5,-17],[0,-14],[6,-17],[-1,-10],[-9,-31],[4,-23],[5,-10]],[[3570,3724],[-4,-7],[-1,-6],[1,-9],[9,-29],[0,-22],[4,-15],[1,-16],[12,-22],[14,-34],[3,-15],[7,-15],[2,-9],[28,-51],[4,-18]],[[2565,3727],[-3,-3],[-3,-6],[-2,-17]],[[2761,4005],[-13,-22],[-32,-26],[-22,-41],[-23,-14],[-19,-26],[-37,-29],[-6,-30],[-28,-22],[-5,-7],[-3,-52],[-2,-4],[-6,-5]],[[2557,3701],[-5,-10],[0,-10],[3,-51]],[[2575,3619],[11,3],[14,1],[15,-1]],[[2615,3622],[10,-1],[16,6],[76,-2],[38,2],[58,-5],[28,6],[22,-3],[22,2],[36,4],[39,11],[24,-7],[13,4],[31,1],[7,5],[6,7],[38,-2]],[[2575,3619],[-4,3],[-4,7],[-12,1]],[[2543,3629],[2,-5],[-2,-11],[-8,-10]],[[3543,3326],[16,20],[5,36],[5,11],[21,14],[33,27],[14,0],[5,3],[3,4],[5,15]],[[3095,3319],[12,31],[7,10],[1,18],[2,6],[5,6],[-4,11],[0,12],[-6,14],[-3,30],[2,33],[-5,13],[-11,9],[-21,41],[4,11],[2,19],[5,18],[1,21],[-1,20],[-6,8]],[[2555,3630],[-10,0],[-7,-2],[-9,7],[-22,8],[-19,0]],[[2488,3643],[-10,0],[-25,-1],[-20,-8],[-43,-10],[-21,1],[-21,-3],[-42,0],[-21,-18],[-27,-3],[-20,2],[-26,-1],[-11,-4],[-17,-8],[-18,-1]],[[2114,3590],[3,-39],[-6,-12]],[[2165,3589],[-27,3],[-37,-4],[-10,2],[-18,-5],[-7,0]],[[2066,3585],[-29,-2],[-26,-6],[-80,1],[-25,-4],[-18,4]],[[2166,3589],[-1,0]],[[898,3704],[51,4],[53,1]],[[1437,3602],[14,28],[8,5],[17,7]],[[1476,3642],[15,6],[46,3],[10,14],[26,9],[29,5],[5,5],[4,15],[0,26],[4,7],[1,89],[6,26],[-2,12],[-1,58],[30,49],[28,31],[6,18],[3,6],[8,7],[1,9],[0,17],[25,42]],[[1400,3622],[19,-8],[18,-12]],[[356,3852],[3,-4],[18,-1],[24,-16],[49,-26],[36,-33],[8,-2],[11,-7],[18,-7],[41,-9],[43,-14],[7,-5],[10,-10]],[[624,3718],[8,-5],[23,0],[11,-6],[163,3],[15,-9],[8,-3],[9,1],[7,4],[30,1]],[[1342,3608],[15,-19]],[[1000,4096],[15,-27],[18,-45],[35,-55],[7,-12],[7,-6],[13,-22],[25,-30],[24,-23],[5,-27],[19,-20],[13,-27],[5,-5],[27,-19],[19,-21],[34,-46],[12,-39],[5,-4],[10,-3],[22,-23],[27,-34]],[[1475,3566],[-10,-4],[-26,-1]],[[1888,3578],[-4,0],[-7,8],[-12,8],[-11,0],[-25,-7],[-186,-2],[-13,-2],[-11,-9],[-115,-3],[-18,-2],[-11,-3]],[[1437,3602],[1,-20],[5,-8],[1,-13]],[[1330,3577],[1,-1],[8,0],[17,-12]],[[1002,3709],[30,-3],[41,-5],[40,-9],[31,-9],[8,-4],[22,-18],[26,-13],[17,-10],[22,-18],[17,-16],[17,-6],[12,2],[13,-1],[24,-18],[8,-4]],[[214,3733],[33,1],[18,20],[18,12],[3,4],[4,10],[18,15],[48,57]],[[1439,3561],[-5,2],[-21,-2],[-8,-8]],[[1357,3589],[17,-17],[8,0],[14,-8],[0,-10],[9,-1]],[[1445,3536],[1,-5],[1,-1]],[[1447,3530],[18,-25],[90,-70],[49,-41],[28,-30],[14,0],[41,-20],[45,-4],[23,-9],[15,-3],[58,2],[5,-4],[20,-3],[18,0],[2,4],[12,-8]],[[148,3561],[0,51],[11,17],[21,25],[1,7],[8,7],[24,34],[-1,22],[2,9]],[[1885,3319],[41,-26]],[[2078,3342],[-1,-1],[-9,-11],[-11,-10],[-4,-5],[-2,-15],[-5,-13],[-7,-9],[-13,-7],[-6,-7],[-6,-3]],[[2534,3602],[-2,-3]],[[2532,3599],[-6,-9],[-19,-18],[-18,-2],[-43,-24],[-59,-30],[-31,-20],[-30,-17],[-6,-6],[-32,-22],[-18,-9],[-59,-22],[-30,-18],[-21,-6],[-14,-10],[-21,-3],[-9,-8],[-16,-5],[-15,-15],[-7,-13]],[[2050,3362],[-1,-6],[-4,-5],[-14,-9],[-7,-19],[-5,-19],[-14,-27],[-3,-6],[-16,-5]],[[2100,3477],[-1,-3]],[[2099,3474],[-3,-6],[-24,-29],[-5,-10],[-3,-28],[-12,-14],[-2,-25]],[[1942,3290],[1,-2],[7,-4],[15,-2],[11,-11],[5,0],[5,-5]],[[1926,3293],[12,2],[4,-5]],[[136,3537],[9,7]],[[129,3533],[7,4]],[[145,3544],[3,2],[0,15]],[[2014,3261],[-6,0],[-4,-5],[-8,-18]],[[1986,3266],[3,-6],[2,-15]],[[3987,2797],[39,62],[3,14],[0,28],[4,13],[8,11],[31,30],[13,20],[11,23]],[[1996,3238],[0,-11],[-7,-1]],[[1991,3245],[7,-4]],[[1343,3512],[24,15],[6,10],[15,2],[16,-1]],[[942,3394],[40,0],[5,4],[7,2],[19,0],[11,5],[23,-1],[36,5],[29,19],[33,16],[32,0],[43,11],[44,16],[33,15],[20,13],[19,9],[7,4]],[[941,3394],[-4,0],[-3,4]],[[934,3398],[-3,3],[-32,-5]],[[942,3394],[-1,0]],[[4064,2764],[-4,0]],[[4060,2764],[-16,2],[-20,7],[-37,24]],[[4096,2764],[-7,2],[-24,-2],[-1,0]],[[1989,3226],[-29,-17],[-6,-11],[0,-16]],[[1954,3182],[0,-3],[5,-37]],[[3056,2914],[1,1]],[[3095,3319],[-3,-15],[-5,-4],[-2,-5],[-1,-12],[-5,-11],[1,-29],[-3,-10],[-28,-26],[-24,-29],[-13,-19],[-6,-17],[3,-31],[2,-10],[5,-9],[8,-7],[9,-4],[5,-9],[2,-35],[4,-13],[-6,-28],[1,-16],[5,-39],[4,-16],[8,-11]],[[1405,3553],[-2,-9],[6,-19],[8,-8],[4,-14],[8,-9],[0,-1]],[[1429,3493],[3,-22],[23,-59],[17,-29],[5,-13],[1,-16],[-6,-23],[2,-19],[-2,-22],[0,-20],[2,-10],[-1,-15],[20,-30],[7,-9],[13,-11]],[[3868,2662],[3,8],[10,10],[36,30],[31,46],[12,6],[8,6],[19,29]],[[2963,2949],[5,-2],[12,-15],[24,-19],[7,-3],[17,-2],[11,-3],[14,8]],[[2698,2918],[5,4],[17,2]],[[2695,2917],[3,1]],[[2720,2924],[16,1],[17,-5],[23,5],[19,11],[19,-1],[19,7],[32,1],[20,-5],[8,2],[20,10],[24,1],[25,-1],[1,-1]],[[3053,2913],[3,1]],[[899,3396],[-6,-2],[-54,-3],[-15,-9],[-19,-3],[-40,-17],[-38,-20],[-13,-10],[-42,-18],[-10,-1],[-13,-9],[-48,-22],[-7,-4],[-12,-4],[-40,-8]],[[542,3266],[-12,2],[-9,-2],[-5,-8],[1,-17]],[[3180,2689],[3,-9],[5,-6],[9,-4],[1,-13],[-3,-14],[8,-20]],[[1994,2795],[-3,18],[0,9],[2,7],[-1,10],[-9,27],[-1,24],[-7,35],[2,19],[-6,37],[-5,15],[9,37],[-8,21],[-4,35],[0,11],[4,20],[-7,9],[-1,13]],[[517,3241],[-143,-55],[-11,0],[-26,4],[-15,-1],[-22,-11],[-20,-12],[-4,-6],[-19,-5],[-16,-12],[-31,-11],[-27,-6],[-9,-5],[-11,-2],[-18,-12],[-11,-5],[-36,-3],[-13,-8],[-17,0],[-34,-6]],[[129,3533],[2,-22],[-3,-4],[2,-91],[0,-110],[-18,-35],[-22,-33],[-1,-20],[2,-9],[0,-23],[-31,-37],[-12,-18],[-8,-19],[-6,-27]],[[1513,2882],[0,-1],[11,-11],[3,2],[3,-1]],[[1511,2887],[2,-5]],[[1546,2908],[1,-42]],[[1513,3195],[4,-12],[0,-20],[11,-12],[1,-6],[-8,-44],[0,-11],[12,-30],[4,-19],[0,-58],[9,-58],[0,-17]],[[2007,2790],[-2,2]],[[2005,2792],[-5,3],[-6,0]],[[2019,2780],[-12,10]],[[2377,2833],[2,1],[22,35],[26,4]],[[2130,2752],[24,7],[19,13],[30,9],[18,1],[21,10],[10,0],[10,8],[11,1],[29,12],[28,5],[22,8],[15,0],[10,7]],[[2427,2873],[2,0],[31,15],[11,3],[32,1],[45,0],[14,7],[36,12],[53,0],[26,5],[18,1]],[[1547,2866],[1,-11]],[[1530,2871],[12,-10],[6,1]],[[2029,2768],[-10,12]],[[1626,2845],[-14,0],[-18,6],[-19,-1],[-21,12],[-6,0]],[[1994,2795],[-31,21],[-44,2],[-30,5],[-19,-6],[-35,-6],[-11,-1],[-18,2],[-129,28],[-28,4],[-23,1]],[[2130,2752],[-14,-4],[-8,1],[-21,11],[-15,2],[-21,8],[-11,2],[-11,-4]],[[13,3064],[-11,-4],[-1,-1]],[[1,3059],[-1,-2]],[[34,3085],[-3,-15],[-18,-6]],[[3237,2416],[3,4]],[[3240,2420],[14,13],[1,14],[5,13],[-8,22],[-1,21],[-17,19],[2,17],[-4,17]],[[3229,2406],[8,10]],[[930,2824],[26,5],[45,6],[29,-2],[41,2],[29,-2],[29,3],[3,3],[8,1],[16,-6],[17,4],[18,8],[25,5],[36,0],[41,5],[13,0],[12,-6],[25,9],[12,-1],[14,-5],[8,3],[16,-2],[27,1],[26,4],[30,11],[27,9],[8,8]],[[4,3015],[8,0],[8,-3],[6,-6],[1,0]],[[0,3016],[4,-1]],[[27,3006],[43,-12],[25,-4],[15,-11],[14,-2],[15,-9],[10,-2],[9,-14],[15,-10],[23,-4],[28,-13],[31,-4],[17,2],[46,-2],[13,-10],[32,-4],[31,-11]],[[892,2821],[8,-1],[30,4]],[[734,2845],[14,-11],[40,-3],[15,-7],[7,1],[9,-6],[12,-1],[22,3],[39,0]],[[402,2865],[21,4],[29,1],[29,-2],[7,-3],[84,1],[48,-1],[28,-10],[76,-4],[10,-6]],[[402,2865],[-6,15],[-2,16]],[[3620,2435],[6,4],[7,8]],[[3639,2453],[8,1]],[[3307,2267],[18,2],[8,7],[4,7],[5,4],[21,6],[10,9],[6,12],[11,13],[37,8],[60,6],[16,6],[6,10],[13,9],[23,18],[6,11],[8,7],[28,12],[33,21]],[[3633,2447],[4,6],[2,0]],[[3229,2406],[4,-4],[8,-5],[3,-8],[-11,-13],[-4,-5],[1,-19],[-5,-17],[3,-8]],[[3230,2322],[3,-5],[1,-14],[7,-9]],[[3228,2327],[2,-5]],[[3241,2294],[10,-14],[4,-11]],[[3255,2269],[10,-6],[42,4]],[[1567,2780],[-1,11],[-6,26],[-3,8],[-11,16],[2,14]],[[1516,2608],[3,5],[15,14],[13,20],[3,2],[3,9],[9,15],[5,16],[3,15],[0,21],[-5,18],[2,30],[0,7]],[[2078,2436],[2,-6],[6,-11],[11,-10],[8,-15],[19,-10]],[[2029,2768],[12,-29],[3,-25],[4,-8],[15,-24],[5,-10],[2,-15],[-4,-32],[6,-40],[-2,-30],[-10,-58],[2,-32],[9,-6],[7,-23]],[[2124,2384],[5,-2],[7,-15],[8,-9]],[[3370,2090],[4,32],[8,12]],[[2848,2122],[-15,-6],[-14,-9]],[[3729,1858],[-6,-1]],[[3859,1864],[-33,3]],[[3872,1868],[-1,0],[-5,-2]],[[3826,1867],[-2,0],[-39,-5],[-38,-1],[-18,-3]],[[3866,1866],[-6,-2],[-1,0]],[[3944,1863],[-32,7],[-25,-4],[-15,2]],[[3723,1857],[-6,-5],[-8,-1]],[[1516,2608],[-12,-43],[-4,-24],[-1,-21],[1,-39],[-1,-19],[-6,-20],[-1,-18],[-8,-19],[-8,-28],[-6,-12],[-5,-13],[-7,-6],[-18,-8],[-8,-10],[-17,-10]],[[3991,1827],[15,-7],[5,-17],[4,-8],[31,5],[21,-12],[20,-23],[9,-6]],[[3944,1863],[20,-14],[18,-19],[9,-3]],[[2144,2358],[6,-26],[-1,-21],[-4,-25],[-7,-26],[-8,-20],[0,-10],[-8,-21],[-2,-7],[3,-21],[-2,-3],[3,-12],[8,-22],[1,-12],[11,-11],[3,-15]],[[1299,2251],[6,10],[9,22],[8,10],[37,5],[12,11],[36,5],[8,4]],[[296,2335],[12,35],[1,118],[9,20],[33,31],[13,15],[2,11]],[[3708,1844],[1,7]],[[3704,1662],[-4,4],[-1,13],[3,24],[2,80],[-1,26],[5,35]],[[3334,1751],[0,56],[9,65],[1,24],[0,29],[2,6],[-5,24],[0,8],[11,26],[-1,19],[17,54],[2,28]],[[296,2335],[3,-5],[-3,-8],[0,-12],[2,-12],[6,-9],[4,1]],[[1299,2251],[-11,-28],[-3,-26],[-6,-13],[-9,-19],[-11,-19],[-9,-10],[-3,-8]],[[3704,1662],[13,-24],[4,-14],[-1,-12],[1,-9],[-1,-2],[1,-6]],[[2778,1997],[7,-16],[11,-18],[0,-8],[-4,-11],[-8,-20],[-21,-19],[-2,-7],[-11,-7],[-19,-21],[-7,-1],[-12,-14],[0,-7],[-3,-4],[2,-14],[-1,-13]],[[288,2299],[-41,-51],[-55,-6],[-25,-10]],[[2246,1841],[-10,1],[-21,-12],[-2,-8],[-9,0]],[[2409,1868],[-26,-18],[-9,-5],[-20,-4],[-16,-8],[-8,-3],[-11,0],[-20,7],[-31,0],[-22,4]],[[2181,1848],[0,-6],[1,-3],[22,-17]],[[2147,2106],[-6,-10],[-33,-38],[-17,-17],[-14,-9],[4,-6],[15,-17],[4,-8],[1,-23],[4,-5],[0,-10],[10,-6],[36,-41],[21,-18],[0,-5],[8,-14],[-1,-5],[3,-15],[-1,-11]],[[2482,1764]],[[2409,1868],[24,-17],[4,-7],[2,-16],[3,-6],[27,-9],[9,-8],[3,-17],[1,-24]],[[2482,1764],[0,-1],[3,-7],[7,0],[10,-7],[23,-22],[10,-1]],[[2535,1725],[3,-4],[0,-14],[-3,-5]],[[2536,1703],[0,-6],[4,-5],[10,-7],[-1,-10],[-4,-13],[1,-6],[5,-7],[21,-15],[5,-6]],[[2204,1822],[-66,-20],[-14,-7]],[[2124,1795],[-32,-17]],[[3331,1506],[-1,0]],[[2719,1745],[-4,-7],[0,-12],[-15,-38],[6,-35],[-6,-4],[-4,-12],[-5,-1]],[[1170,1911],[-1,38]],[[3331,1506],[-2,-12],[-3,-11]],[[1192,1904],[-11,1],[-11,6]],[[2691,1636],[-19,0],[-53,-7],[-8,5],[-33,-6]],[[3740,1491],[-2,-14],[1,-15],[4,-4],[-1,-6],[-10,-16],[-6,-14],[0,-10],[-3,-4],[0,-24],[-2,-13],[-4,-10]],[[3326,1483],[-10,-28],[-13,-27]],[[3330,1506],[-21,-7],[-9,0],[-45,9],[-20,-2],[-27,4],[-13,0],[-4,-1]],[[3191,1509],[-10,-3],[-10,-6],[-12,-15],[-40,-26]],[[3396,1423],[-1,2],[-33,47],[-36,11]],[[3717,1361],[-14,1],[-12,-4],[-13,-2],[-22,9],[-37,1],[-32,10],[-21,9],[-20,-8],[-57,-1],[-36,-5],[-48,42],[-9,10]],[[2767,1513],[-30,46],[-15,12],[-11,28],[-19,30],[-1,7]],[[2851,1471],[-14,23],[-9,4],[-28,-3],[-12,2],[-21,16]],[[4096,1439],[-8,-9],[-16,-46],[-9,-12],[-27,-14],[-11,-11],[-4,-8],[-11,-38],[-8,-70],[-6,-11],[-8,-7],[-21,-11]],[[167,2232],[1,-83],[-1,-16],[-25,-65],[-26,-34],[-6,-14],[-3,-12],[0,-35],[-9,-36],[-7,-9]],[[2946,1390],[-1,0],[-34,-21]],[[3119,1459],[-8,-5],[-5,1],[-44,-23],[-19,-3],[-17,-5],[-13,-7],[-14,-3],[-21,-11],[-32,-13]],[[2911,1369],[-12,23],[-1,4]],[[2898,1396],[-6,21],[-6,7],[-17,30],[-18,17]],[[91,1928],[-1,-3],[1,-30],[-27,-27],[-13,-17],[-5,-14]],[[416,1683],[18,3]],[[1099,1869],[4,0],[13,8],[24,22],[18,5],[12,7]],[[434,1686],[23,5],[64,30],[35,8],[77,26],[20,-2],[18,2],[17,6],[26,15],[18,2],[34,-2],[19,7],[51,-5],[5,5],[21,8],[5,5],[22,18],[7,8],[10,4],[18,10],[8,-1],[11,6],[32,7],[14,0],[14,-3],[15,4],[5,-2],[12,8],[17,17],[15,5],[19,-6],[13,-2]],[[3967,1202],[-6,-6],[-18,-7],[-19,-14],[-20,-7],[-13,-9],[-8,-6],[-12,-19],[-21,-18],[-21,-17],[-20,-14],[-31,-14],[-18,-14],[-40,-17],[-24,-22]],[[2915,1347],[0,3],[-4,10],[0,9]],[[2959,1162],[-6,10],[-2,30],[-12,29],[-5,17],[-6,47],[-13,30],[-1,10],[1,12]],[[2807,1271],[10,-13]],[[2817,1258],[9,-12],[33,-24],[22,-12],[26,-28],[21,-7],[20,-11],[11,-2]],[[1769,1407],[-15,-16],[-9,-6]],[[1862,1471],[-6,-2],[-16,-18],[-36,-13],[-7,-13],[-16,-7],[-6,-5],[-6,-6]],[[1748,1379],[-3,6]],[[1749,1376],[-1,3]],[[1290,1780],[20,-23]],[[1192,1904],[-1,-15],[18,-26],[18,-16],[7,-10],[12,-6],[4,-4]],[[1250,1827],[40,-47]],[[1310,1757],[5,-6],[39,-65],[13,-19],[4,-19],[13,-12],[33,-18],[11,-9],[16,-26],[47,-64],[10,-18],[2,-10],[5,2],[12,-5],[4,-15],[3,-8],[5,-4],[18,-29],[1,-8],[0,-5],[2,-5],[10,-8]],[[1745,1385],[-4,-2],[-6,0],[-28,9],[-16,0]],[[1691,1392],[-5,0],[-10,-4],[-8,-12]],[[1668,1376],[-9,-7]],[[1649,1376],[10,-7]],[[2801,1306],[-30,-16],[-18,-2],[-5,-2]],[[2748,1286],[-3,-2],[-6,-8],[-12,-34],[-17,-11],[-29,-26],[-15,-8],[-49,-18],[-12,-11],[-10,-3],[-47,-9]],[[3288,992],[1,-6],[9,-24]],[[3280,1379],[2,-10],[-1,-8],[2,-11]],[[3303,1428],[-10,-20]],[[3293,1408],[-14,-28],[1,-1]],[[3283,1350],[1,-5],[-3,-9],[-14,-27],[-5,-26],[0,-26],[2,-26],[13,-61],[-5,-131],[4,-16],[8,-13],[4,-18]],[[46,1837],[1,-33],[-2,-6],[-20,-19],[-25,-46]],[[1170,1911],[7,-33],[-6,-20],[-2,-17],[-11,-33],[-1,-7]],[[1157,1801],[-5,-46],[-9,-14],[-6,-23],[-4,-22],[-2,-26],[-5,-26],[0,-9],[11,-66],[-2,-19],[-3,-67],[6,-9],[0,-10],[-3,-34],[1,-35],[-2,-15]],[[3237,945],[15,10],[14,5],[14,2],[18,0]],[[3063,1072],[-26,19],[-15,22],[-6,7],[-17,9],[-22,18]],[[3237,945],[-27,34],[-1,1]],[[2977,1147],[-18,15]],[[3209,980],[-9,8],[-9,6],[-31,14],[-25,17],[-23,10],[-14,10],[-35,27]],[[1619,1254],[5,18],[-3,23],[5,19],[9,20],[24,35]],[[100,1488],[-40,-25],[-20,-10],[-8,9],[-6,10],[-26,0]],[[416,1683],[-16,-6]],[[400,1677],[-46,-17],[-62,-27],[-22,-7],[-8,-27],[-27,-22],[-28,-20],[-18,-7],[-22,-14],[-44,-34],[-23,-14]],[[1134,1380],[-8,-41],[-5,-13],[-2,-13],[2,-26]],[[1207,1244],[2,1],[0,4],[29,13]],[[1132,1215],[16,4],[20,10],[10,1],[12,4],[17,10]],[[2196,956],[-8,-3],[-15,-8]],[[2548,1156],[-38,-20],[-55,-35],[-30,-16],[-56,-49],[-37,-22],[-28,-22],[-29,-8],[-24,-9],[-31,-9],[-24,-10]],[[3441,620],[31,79],[22,25],[26,22],[10,10],[8,11],[2,6],[14,24],[9,11],[10,7],[10,24],[53,91],[44,58],[16,30]],[[3253,892],[-12,19],[-2,7],[0,20],[-2,7]],[[3441,620],[-15,17],[-61,57],[-30,42],[-16,38],[-18,34],[-5,8],[-14,11],[-7,14],[-14,39],[-8,12]],[[2936,732],[-5,-7],[-23,-10]],[[3237,945],[-25,-16],[-19,-17]],[[3193,912],[-3,-4],[-34,-19],[-18,-16],[-33,-37],[-17,-17],[-43,-35],[-34,-18],[-28,-6],[-47,-28]],[[2908,715],[-19,-12],[-17,-7],[-21,0],[-9,0]],[[2842,696],[-44,4],[-13,4],[-55,4]],[[2047,841],[18,8],[5,7],[13,8],[30,26],[41,29],[7,15],[12,11]],[[2047,841],[-25,38],[-18,22],[-4,13],[-24,29],[-12,21],[-4,3]],[[1960,967],[-3,3],[-9,2],[-25,-4],[-15,17],[-5,11],[2,20],[2,7],[9,4],[1,3],[-3,6],[-16,4],[-7,5],[-5,7],[-10,23],[-21,23],[-4,7],[-1,15],[2,43],[-2,13],[-8,11],[-20,46],[-2,60],[-4,4],[-2,20],[-9,11],[-37,18],[-4,8],[-7,6],[-8,16]],[[1429,938],[-1,4],[31,28],[3,7],[-2,15],[5,11],[35,51],[11,21],[16,19],[8,18],[30,40],[6,25],[14,19],[14,30],[20,28]],[[2047,841],[-4,-15]],[[2043,826],[0,-15]],[[2006,822],[28,-10],[9,-1]],[[2096,800],[2,0],[25,-6],[19,2],[14,-6],[7,-9],[14,-6],[15,-12],[3,0]],[[2195,763],[30,-11],[36,3],[33,-2],[88,-27],[36,-1],[25,-9],[45,6],[47,3],[22,-8],[7,-1],[10,2],[41,-13],[21,-3],[24,-6],[13,0],[57,12]],[[3662,382],[-9,19],[-3,4],[-5,1],[-2,4],[-7,8],[-8,21],[-12,19],[-4,12],[-32,33],[-6,4]],[[3574,507],[-11,8],[-50,33],[-21,23],[-7,7],[-10,6],[-11,14],[-23,22]],[[3319,308],[3,22],[3,12],[6,10],[12,13],[13,12],[6,4],[13,39],[16,30],[5,20],[11,59],[34,91]],[[1228,762],[-14,-19],[-15,-5],[-16,-14]],[[1429,938],[-2,-8],[-16,-16],[-30,-18],[-62,-58],[-9,-8],[-23,-6],[-21,-27],[-11,-16],[-16,-7],[-6,-6],[-5,-6]],[[1156,712],[0,7],[-2,7],[2,14],[0,18],[-3,26]],[[1153,784],[-1,9],[4,15],[-2,15],[2,34],[-3,10],[-12,22],[-1,12],[3,23],[-4,18],[1,36],[-3,39],[0,14],[-13,32],[7,18],[3,14],[-2,37],[1,26],[-5,28],[2,19],[-2,9],[4,1]],[[1147,712],[9,0]],[[2008,756],[-1,-7],[-12,-11],[-12,-9],[-5,-3]],[[1978,726],[-17,-11],[-7,-7],[-18,-28],[-18,-17],[-5,-7],[-8,-28],[-8,-17],[-4,-9],[-3,-21],[-2,-7],[-19,-21],[-17,-35],[-11,-15]],[[2309,390],[1,5],[-8,12]],[[0,1367],[0,-2]],[[0,1365],[4,-20],[1,-25],[9,-25],[0,-57],[9,-51],[13,-51],[1,-19],[-9,-68],[1,-39],[11,-45],[5,-42],[4,-14],[1,-16],[9,-33],[1,-50],[5,-21],[14,-43],[7,-50]],[[918,554],[-16,-1]],[[1147,712],[-12,-5],[-12,-7],[-2,-7],[-14,-15],[2,-8],[-18,-28]],[[1091,642],[-3,-5],[-41,-45],[-15,-12],[-35,-18],[-22,-1],[-30,-6],[-3,-2],[-21,2],[-3,-1]],[[2302,407],[10,3],[10,-3],[8,-9]],[[2330,398],[15,-17],[13,-38],[2,-3],[9,-8],[62,-37],[55,-22],[24,-15],[62,-14],[43,-8],[42,-16],[17,5],[35,-8],[37,0],[43,-8],[9,-3],[5,-6],[14,-3],[35,-6],[49,-3],[16,-6],[42,-21]],[[3186,56],[-20,7],[-19,10],[-17,13],[-31,27],[-33,13],[-17,-1],[-9,3],[-62,28],[-19,5]],[[3193,54],[17,-5],[14,0],[14,3]],[[3186,56],[7,-2]],[[1835,269],[-3,24]],[[1832,293],[-3,33],[-6,8],[-7,19],[-1,34],[5,12],[13,22],[5,19],[1,48],[2,15]],[[1846,223],[-10,35],[-1,11]],[[1848,206],[-2,17]],[[1841,211],[-3,5],[-5,5]],[[1848,206],[-5,1],[-2,4]],[[3155,0],[0,1],[5,7],[17,18],[9,30]],[[1369,171],[-28,0]],[[1341,171],[-7,0]],[[1333,208],[7,-21],[-5,-14]],[[1156,712],[4,-10],[-5,-9],[2,-14],[-1,-7],[14,-15],[2,-16],[0,-16],[-8,-19],[2,-13],[-3,-8]],[[1163,585],[-1,-4],[14,-34],[7,-7],[3,-11],[7,-39],[9,-20],[31,-52],[17,-46],[19,-40],[21,-55],[5,-8],[3,-8],[16,-17],[18,-33],[1,-3]],[[1335,173],[-1,-2]],[[883,549],[4,2],[15,2]],[[581,226],[16,12],[46,50],[12,24],[17,24],[40,43],[26,22],[33,32],[16,22],[23,18],[53,64],[14,9],[6,3]],[[566,215],[15,11]],[[497,196],[34,10],[25,2],[10,7]],[[497,196],[-3,-1],[-18,-14],[-9,-1]],[[467,180],[-18,-4]],[[2303,379],[2,2],[4,9]],[[2274,0],[-1,2],[-1,69],[7,61],[-8,20],[-1,24],[1,26],[7,50],[0,61],[4,27],[2,7],[10,25],[9,7]],[[86,696],[1,-16],[-2,-19],[-6,-48],[-6,-28],[-6,-11],[-12,-19],[-6,-21],[-8,-7],[-4,-17],[-16,-21],[-4,-18],[-8,-20],[-9,-15]],[[236,169],[-10,1],[-18,-2],[-33,8],[-43,-13],[-21,-4]],[[111,159],[-18,-4],[-24,0],[-21,-8],[-28,-1],[-14,2],[-6,-1]],[[449,176],[-8,0],[-13,6],[-40,-4],[-40,0],[-9,2],[-21,-5],[-55,1],[-8,-7],[-10,0],[-9,0]],[[449,176],[-2,-7],[-8,-8],[-3,-13],[-7,-15],[-4,-13],[-11,-16],[-11,-50],[-7,-11],[-3,-15],[-17,-21],[-5,-7]],[[1256,0],[4,6],[9,29],[23,44],[10,27],[29,45],[3,20]],[[363,3895],[-2,34],[-2,16],[-8,15],[-2,86],[-4,3],[-2,47]],[[525,4096],[-11,-13],[-30,-23],[-4,-26],[-12,-30],[-9,-15],[-2,-12],[-13,-26],[-11,-4],[-6,-15],[-4,-4],[-21,-14],[-8,-10],[-10,-8],[-30,-1]],[[2851,1334],[-17,-6],[-23,-12],[-5,-8],[-5,-2]],[[2911,1369],[-19,-4],[-20,-20]],[[2872,1345],[-1,-2],[-18,-9],[-2,0]],[[2537,3601],[7,-5],[16,-2],[12,0]],[[2579,3598],[5,7],[20,17]],[[2572,3594],[4,0],[3,4]],[[2049,3223],[-11,-1],[-7,2],[-13,-5],[-4,-4],[-3,-7],[-13,-2],[-22,2],[-9,6]],[[2063,3315],[11,-6],[1,-1]],[[2083,3247],[-4,-9],[0,-2]],[[2079,3236],[-2,-6],[-6,-5],[-22,-2]],[[2075,3308],[11,-11],[3,-8],[-3,-17],[1,-15],[-4,-10]],[[1356,3561],[4,-15],[0,-28],[3,-4],[12,-2],[22,4],[15,-1],[5,3],[16,0],[3,4]],[[1438,3523],[1,2],[5,13]],[[1436,3522],[2,1]],[[1400,3621],[-5,0],[-7,-5],[-11,0],[-18,2]],[[1515,2890],[12,11],[29,2],[9,-4]],[[1512,2888],[3,2]],[[1587,2874],[5,-6],[3,-9],[-1,-7],[-9,-8],[-19,-10],[-45,-6],[-4,2],[1,8],[7,19],[0,7],[-1,7]],[[2014,2776],[-2,-1],[-9,3],[-10,-1],[-3,-2]],[[1990,2775],[-10,-7],[-1,-3]],[[2019,2780],[-5,-4]],[[1979,2762],[0,-3],[5,-11],[5,-6],[18,-2],[8,3],[5,9],[0,10],[-7,12]],[[1979,2765],[0,-3]],[[4054,1764],[4,8],[16,12],[20,12],[2,0]],[[4050,1758],[4,6]],[[3742,1883],[-16,-5],[-12,0],[-23,12],[-18,3]],[[3675,1892],[-3,-14],[0,-11],[8,-14],[10,-9],[3,-2]],[[3693,1842],[12,-6],[21,1],[10,4],[5,9],[10,3],[4,6],[0,17],[-9,8],[-4,-1]],[[3260,895],[-9,2]],[[3288,907],[-8,-3],[-1,-1]],[[3309,963],[-11,-21],[-3,-12],[0,-11],[-5,-11]],[[3279,903],[-5,-5],[-12,-3],[-2,0]],[[3290,908],[-2,-1]],[[3311,1437],[6,-5],[3,-10],[5,-6],[11,-4]],[[3364,1415],[8,7],[23,13]],[[3385,1518],[-11,21]],[[3336,1412],[7,-2],[15,0],[6,5]],[[3395,1435],[4,3],[9,11],[5,17],[-5,14],[-12,16],[-11,22]],[[2719,1745],[-2,3],[2,8],[4,6],[-1,8]],[[2722,1768],[-9,17],[-3,32]],[[2880,699],[7,-23],[5,-9],[19,-8],[14,2],[8,9],[4,8],[0,22],[2,20],[-2,10]],[[2019,882],[7,8],[14,3],[30,0],[11,-3],[12,-23],[0,-11],[-3,-14],[6,-12],[5,-13],[-1,-14],[-11,-12],[-16,-3],[-19,-14],[-11,-12],[-18,-6],[-18,0]],[[2004,820],[0,14],[8,23],[2,16],[6,8]],[[1217,747],[2,-24],[-18,-19],[-1,-11],[-5,-16],[-19,-18],[-7,-2],[-17,-11],[-9,-8]],[[1143,638],[-4,-4],[-16,-6],[-29,0],[-11,2]],[[2006,822],[-3,-14],[3,-18],[-2,-17],[4,-17]],[[0,1499],[1,3],[9,10]],[[10,1512],[12,17],[34,-8],[42,4],[31,-42],[3,-31],[0,-65]],[[0,3092],[35,-7]],[[353,3881],[0,-19],[3,-10]],[[93,1395],[-3,0],[-31,19],[-16,4],[-27,4],[-16,0]],[[132,1387],[-39,8]],[[2043,811],[33,-13],[20,2]],[[1967,3214],[-19,14],[-17,6],[-6,1]],[[1925,3235],[-18,3],[-14,0],[-10,7],[-2,10],[9,19],[5,6],[5,2],[11,14],[5,1]],[[1944,3299],[2,2],[10,3],[25,25],[6,3],[27,0],[7,-2],[6,-3],[19,2],[17,-14]],[[1938,3295],[6,4]],[[2135,3551],[-12,-5],[-7,-4]],[[2166,3588],[-5,-17],[-10,-8],[-9,-5],[-7,-7]],[[2166,3589],[0,-1]],[[2116,3542],[-3,-2],[-8,-17],[-4,-6],[-2,-14],[2,-24],[-1,-2]],[[1360,3619],[-2,-5],[0,-18],[-3,-16],[1,-17],[0,-2]],[[1444,3561],[1,-12],[-1,-11],[1,-2]],[[1359,3618],[-13,1]],[[1346,3619],[-12,1]],[[2557,3701],[-21,2]],[[2604,3622],[1,5],[1,9],[-6,7],[1,8],[-3,2],[-14,3],[-1,38],[-5,3],[-16,4],[-5,0]],[[2536,3703],[-32,-2],[-6,-8],[7,-33],[0,-19]],[[2505,3641],[0,-12],[-2,-9],[8,-11],[19,-4],[7,-4]],[[3595,3893],[-5,-12],[9,-16],[3,-20]],[[3607,3952],[1,-16],[-3,-18],[-6,-4],[-4,-19],[0,-2]],[[3046,2907],[11,-11],[9,-3]],[[3066,2893],[1,-1],[5,-5],[1,-6],[-5,-12],[0,-8],[3,-9],[9,-5],[14,-14]],[[3113,2815],[0,-6],[2,-4],[14,0],[6,-2],[0,-21],[11,-23],[4,-15],[8,-4]],[[3232,2556],[-2,7],[5,19],[-2,9],[-12,19],[-8,7],[-5,1],[-5,5]],[[3158,2740],[14,-7],[9,-10],[-3,-16],[1,-14],[1,-4]],[[3094,2833],[1,-1],[9,-2],[10,-9],[-1,-6]],[[4096,1727],[-33,-20],[-3,2]],[[3334,1548],[-10,-8],[-19,-6],[-11,-8],[-4,-12],[-1,-34],[2,-18],[17,-23],[3,-2]],[[4096,4096],[0,-3264],[-5,-3],[-38,-34],[-25,-28],[-34,-49],[-37,-53],[-9,-19],[3,-3],[-3,-5],[-10,-53],[0,-11],[-2,0],[-3,7],[0,16],[-2,9],[-4,6],[-5,2],[-15,1],[-1,4],[3,11],[10,21],[13,16],[4,4],[0,3],[-8,-4],[-8,-8],[-16,-24],[-4,-9],[-3,-9],[-1,-10],[3,-9],[7,-7],[9,-5],[12,-4],[1,-3],[0,-6],[0,-5],[3,-8],[2,-2],[5,-2],[-4,-4],[-6,-3],[-4,-5],[-3,-7],[-3,3],[-3,8],[-3,2],[-5,-2],[0,-5],[2,-5],[4,-4],[-1,-2],[-2,-2],[-2,-1],[-2,-1],[-3,8],[-6,4],[-8,2],[-8,1],[4,-6],[8,-2],[6,-4],[-1,-9],[-5,-6],[-16,-8],[-7,-7],[-3,-8],[0,-7],[-3,-6],[-9,-2],[-9,-1],[-8,-2],[-7,-3],[-5,-3],[-2,4],[-4,9],[-1,4],[-3,5],[-7,-2],[-12,-8],[-5,-2],[-4,-6],[-10,-21],[0,-5],[1,-5],[5,-8],[2,4],[3,3],[3,2],[4,1],[-3,-7],[-2,-4],[-18,-10],[-3,-1],[-3,-1],[-2,-4],[-1,-3],[-2,-1],[-9,-4],[-7,-9],[-6,-10],[-6,-8],[-20,-13],[-11,-4],[-8,-2],[-4,2],[-3,6],[-4,5],[-6,3],[-3,3],[3,7],[8,11],[-6,7],[-2,-2],[-2,-3],[0,-3],[0,-2],[-13,9],[-2,-1],[1,-6],[4,-12],[0,-7],[-1,-6],[-4,0],[-5,3],[-5,5],[2,-7],[3,-6],[6,-4],[12,-4],[4,-3],[2,-4],[5,-3],[1,0],[0,3],[3,0],[-1,-14],[-6,-9],[-21,-16],[-4,-2],[-9,0],[-9,2],[-4,0],[-3,-2],[0,-3],[8,-6],[3,-4],[-4,-4],[-19,-3],[-17,-6],[-8,-2],[-8,-2],[-5,-6],[-6,-1],[-8,8],[-12,13],[-7,5],[-5,-1],[4,-6],[17,-16],[2,-1],[1,-1],[-2,-4],[-2,-4],[-4,-2],[-3,-2],[-27,-20],[-4,-2],[-3,-3],[-3,-1],[-5,4],[-2,5],[0,5],[-1,5],[-5,3],[1,-8],[-2,-8],[-3,-7],[-5,-2],[-6,1],[-4,3],[-3,4],[-6,4],[-6,2],[-5,0],[-5,1],[-13,13],[-3,3],[-3,6],[-2,0],[0,-5],[1,-5],[2,-5],[2,-4],[-9,-1],[-26,4],[-11,0],[-4,-2],[-3,-4],[0,-6],[7,3],[32,-6],[4,0],[7,2],[4,1],[5,-2],[9,-5],[5,-2],[0,-4],[-10,1],[-11,-1],[-10,-2],[-9,-4],[34,-3],[9,-4],[4,-8],[-2,-9],[-16,-7],[-8,-7],[-7,-7],[1,-5],[7,1],[9,5],[9,5],[5,5],[5,5],[3,4],[2,4],[2,0],[-1,-9],[-3,-11],[-4,-7],[-4,2],[-3,0],[1,-3],[-1,0],[-1,0],[-1,-1],[6,-4],[-4,-7],[-30,-20],[-4,-1],[-5,1],[-3,0],[-14,-7],[-4,2],[-2,12],[0,12],[5,28],[-13,-6],[-2,2],[7,33],[-2,8],[-10,0],[1,-3],[1,-1],[1,0],[2,1],[0,-1],[2,-2],[-3,-5],[-2,-6],[0,-31],[1,-4],[4,-7],[0,-4],[-1,-9],[-4,-1],[-5,3],[-25,23],[-9,26],[-4,16],[0,10],[5,8],[-1,2],[-5,1],[-5,3],[-4,6],[-1,6],[-3,4],[-7,-1],[0,-2],[4,-4],[5,-13],[3,-5],[0,-3],[-3,-11],[5,-16],[7,-17],[3,-11],[-4,-11],[0,-6],[6,-3],[2,-4],[12,-21],[6,3],[6,-1],[4,-4],[3,-4],[5,-9],[0,-5],[-10,-11],[-11,-17],[-31,-20],[3,16],[13,29],[-1,17],[-3,-4],[-1,-6],[0,-6],[-1,-6],[-3,-5],[-8,-9],[-2,-3],[-1,-11],[-4,-9],[-16,-21],[-3,-5],[0,-5],[2,-6],[0,-1],[4,-2],[5,0],[6,-2],[5,-9],[-7,-9],[-17,-14],[-2,0],[-2,2],[-3,4],[-1,4],[0,2],[-5,-1],[-3,-3],[-1,-4],[-3,-2],[-2,-2],[-3291,0],[0,1244],[0,2852],[223,0],[3873,0]],[[3227,2793],[3,4],[2,1],[7,-7],[1,-6],[0,5],[-5,5],[3,0],[28,-25],[11,-25],[19,3],[-29,-35],[-6,11],[-10,1],[28,-46],[49,-2],[-18,-26],[8,-6],[4,-42],[-6,-7],[-26,68],[-27,-29],[7,28],[-37,10],[20,28],[-21,10],[5,22],[29,-6],[1,18],[-40,48]],[[3529,2597],[91,125],[44,1],[91,-52],[46,58],[-11,-82],[-19,13],[-42,-69],[-26,-6],[-25,29],[-92,-52],[-57,35]],[[2623,3025],[11,74],[36,37],[25,-18],[3,23],[43,-3],[31,-46],[63,-11],[3,-54],[-32,-32],[-75,25],[-79,-21],[-29,26]],[[2767,3375],[10,46],[28,5],[-29,62],[30,18],[109,-20],[-54,-111],[-94,0]],[[3141,3399],[6,74],[27,13],[-12,72],[133,-25],[3,-59],[-69,-74],[-69,-39],[-19,38]],[[197,1266],[39,53],[77,-26],[0,79],[64,0],[0,-93],[-45,0],[0,-85],[-38,-33],[0,-79],[-96,0],[-1,184]],[[2712,903],[55,93],[27,-5],[13,52],[31,-41],[-17,-35],[20,-32],[67,22],[49,-35],[-86,-29],[52,-135],[-28,-26],[-54,29],[-32,68],[24,3],[14,63],[-48,11],[21,-39],[-17,-28],[-91,64]],[[2971,1133],[42,106],[23,-15],[75,62],[21,-12],[-1,-74],[38,-83],[-14,-21],[-25,12],[-77,-42],[-82,67]],[[891,1112],[82,16],[76,-27],[-29,-179],[-109,26],[26,79],[-44,21],[-2,64]],[[2963,2116],[39,1],[28,46],[51,7],[-13,20],[21,20],[64,26],[20,-18],[-21,-22],[102,24],[54,-20],[-29,-28],[-161,-17],[-6,-36],[-149,-3]],[[2529,2189],[68,56],[-16,45],[44,57],[182,90],[9,-29],[-149,-84],[-5,-68],[74,2],[29,-30],[-140,-68],[-46,24],[87,62],[-137,-57]],[[2625,2244],[6,2],[3,2],[0,2],[-9,-6]],[[3088,2308],[0,1],[0,1],[19,12],[11,4],[13,12],[8,-23],[39,17],[-16,21],[-65,-3],[64,45],[170,53],[37,-14],[-38,-28],[29,-14],[-52,-31],[-3,-1],[155,55],[131,83],[-45,0],[-98,-60],[-100,9],[214,128],[29,-12],[88,51],[34,-32],[-99,-112],[-283,-135],[18,-21],[-16,-33],[-44,30],[-48,-17],[-14,17],[7,18],[-109,-48],[-36,27]],[[2179,1635],[65,74],[37,5],[14,-10],[14,8],[11,-5],[35,26],[67,7],[18,-9],[2,5],[9,2],[-1,5],[6,9],[26,13],[-25,-14],[-5,-14],[-12,-7],[-82,-1],[5,-17],[-8,-9],[141,38],[31,-63],[22,3],[-66,-63],[-28,34],[-16,-43],[-63,-5],[-5,-25],[-138,8],[-54,48]],[[2184,1638],[48,50],[36,-22],[51,36],[-11,8],[-11,-8],[-16,3],[-4,2],[2,5],[-20,-9],[-7,-1],[-3,6],[-6,-1],[-59,-69]],[[2320,1706],[35,-4],[2,27],[-12,-15],[-25,-8]],[[3761,2782],[79,95],[125,228],[19,-16],[23,41],[36,-31],[-16,-83],[22,7],[-76,-76],[-72,-147],[-98,-79],[7,24],[-41,2],[-8,35]],[[3843,2573],[115,169],[93,10],[12,-46],[-67,-42],[-31,-57],[-52,-18],[-11,-50],[-22,-13],[-37,47]],[[1359,2387],[10,26],[78,-3],[-10,-75],[-78,52]],[[902,431],[0,66],[91,-7],[2,-78],[103,29],[25,-98],[-37,-20],[0,-40],[-31,0],[0,59],[-59,8],[21,50],[-97,-1],[-18,32]],[[646,2283],[55,20],[65,-175],[9,-59],[-57,-28],[11,31],[-45,169],[-38,42]],[[3180,88],[49,16],[43,-45],[-19,-39],[-41,-13],[-32,81]],[[1312,180],[35,48],[57,-19],[-33,-47],[-59,18]],[[3710,401],[-77,-36],[-72,104],[-2,40],[64,-6],[87,-102]],[[2283,451],[60,-29],[-28,-52],[-46,35],[14,46]],[[1509,802],[29,6],[-18,-63],[-19,11],[8,46]],[[2393,934],[38,-5],[0,-40],[-65,11],[27,34]],[[3254,975],[69,35],[-9,-92],[-70,-29],[-64,29],[13,63],[61,-6]],[[4096,856],[0,-41],[-99,-94],[-14,13],[29,74],[-37,64],[65,-47],[56,31]],[[2933,642],[-3,-18],[-93,46],[14,75],[79,0],[19,-42],[-16,-61]],[[2185,970],[28,-35],[-55,-110],[41,-28],[-4,-35],[-80,19],[-27,-13],[23,-58],[-106,-29],[14,41],[-56,6],[19,40],[-51,92],[37,138],[56,-28],[78,23],[42,-29],[32,34],[9,-28]],[[1224,1304],[41,-23],[-4,-64],[-47,29],[-41,-11],[51,69]],[[837,1280],[26,-3],[-5,-19],[-37,11],[14,42],[33,4],[-31,-35]],[[4030,1470],[24,-11],[5,-57],[-33,-29],[-56,92],[60,5]],[[95,1431],[33,-12],[-12,-17],[-116,-37],[0,150],[100,-27],[-5,-57]],[[3420,1632],[14,-75],[-51,-40],[14,-98],[-106,-12],[-19,29],[14,35],[-102,40],[25,25],[35,-13],[130,40],[46,69]],[[2898,1396],[46,-2],[23,-44],[-111,-6],[-37,-86],[-69,23],[-14,57],[92,46],[19,-34],[41,11],[10,35]],[[3287,1354],[-15,-16],[-32,23],[51,23],[-4,-30]],[[1723,1459],[51,-57],[-46,-41],[-42,35],[37,63]],[[923,595],[-6,-44],[-22,-19],[-32,46],[23,24],[37,-7]],[[1154,785],[74,-23],[-14,-98],[-50,-81],[-28,75],[-46,-17],[3,60],[61,84]],[[2292,301],[25,28],[26,-22],[-24,-23],[-27,17]],[[1834,295],[37,-17],[-42,-92],[-37,63],[42,46]],[[1654,330],[41,-6],[-69,-34],[7,29],[21,11]],[[404,1706],[29,1],[5,-63],[-47,40],[13,22]],[[3202,1715],[5,-25],[-78,29],[18,23],[55,-27]],[[2196,1716],[-25,29],[14,37],[21,-24],[-10,-42]],[[950,2072],[-13,33],[46,11],[0,-52],[-33,8]],[[2731,2070],[-31,1],[-20,28],[30,15],[21,-44]],[[470,2324],[31,26],[24,-38],[-31,-6],[-24,18]],[[1333,1758],[-40,-2],[-5,38],[51,-6],[-6,-30]],[[4096,1805],[0,-101],[-38,3],[-4,58],[-84,29],[51,80],[28,0],[28,-69],[19,0]],[[3637,1891],[59,21],[48,-26],[-22,-40],[-48,-6],[-18,-46],[-56,-18],[37,115]],[[3808,1880],[37,24],[28,-36],[-34,-10],[-31,22]],[[2213,1874],[33,-17],[0,-46],[-130,-17],[97,80]],[[1277,1851],[7,-40],[-74,34],[-66,-56],[-22,10],[18,52],[-41,17],[28,64],[69,63],[55,0],[-18,-98],[44,-46]],[[3531,1938],[36,-22],[10,-53],[-69,0],[23,75]],[[928,2721],[-37,-5],[-33,11],[37,46],[33,-52]],[[3642,2387],[-37,35],[41,38],[38,-38],[-42,-35]],[[2999,2934],[46,-9],[24,-37],[-111,41],[9,34],[32,-29]],[[0,3071],[17,2],[-14,-35],[32,-17],[-27,-52],[-8,102]],[[2699,2917],[-70,75],[5,9],[60,-26],[19,-41],[83,12],[-97,-29]],[[1935,3196],[-18,67],[19,0],[32,138],[23,0],[14,-40],[51,2],[32,-31],[-27,-52],[27,-40],[-134,-58],[-19,14]],[[932,3384],[5,54],[32,-14],[-37,-40]],[[156,4018],[13,-52],[-23,-58],[-41,-6],[14,98],[37,18]],[[3148,4053],[13,-30],[-37,-27],[-51,10],[42,69],[33,-22]],[[3748,3943],[-27,-58],[27,-23],[-41,-61],[-23,-20],[-61,6],[-37,64],[-46,23],[-23,132],[79,-115],[23,40],[55,-34],[74,46]],[[110,3582],[32,9],[4,-57],[-51,17],[15,31]],[[2133,3607],[48,-27],[-9,-58],[-61,-52],[-41,12],[-5,121],[68,4]],[[1483,3632],[-10,-81],[-37,-29],[-13,-57],[-37,5],[-70,69],[37,98],[102,35],[28,-40]],[[2606,3675],[23,-43],[-65,-44],[-78,26],[9,121],[93,-11],[18,-49]],[[1968,2750],[38,43],[27,-54],[-37,-12],[-28,23]],[[1578,2904],[62,-16],[-22,-68],[-43,-41],[-83,11],[28,121],[58,-7]],[[4056,2760],[6,7],[7,5],[1,0],[4,-2],[3,3],[4,-1],[-4,7],[5,6],[2,1],[-18,7],[8,66],[22,18],[0,-59],[-15,-46],[-25,-12]],[[1529,690],[2,45],[51,25],[6,80],[-32,-7],[1,27],[96,57],[-21,-138],[-31,0],[-15,-79],[-39,-38],[-18,28]],[[3645,608],[33,74],[52,-57],[149,-82],[-82,-52],[-37,-57],[-54,7],[-14,58],[19,19],[-35,10],[-31,80]],[[1368,550],[15,55],[81,62],[9,41],[58,25],[-4,-111],[-38,0],[-1,-46],[-38,0],[-1,-46],[-81,20]],[[1948,1427],[72,110],[22,-7],[-32,-34],[2,-18],[119,103],[12,44],[54,-29],[-27,-86],[-80,-13],[-65,-103],[-49,42],[-28,-9]],[[3620,2722],[50,105],[93,126],[-36,-97],[76,-23],[-41,-61],[15,-30],[33,3],[-55,-74],[-91,52],[-44,-1]],[[1868,2114],[101,89],[-15,42],[44,22],[77,129],[7,87],[84,32],[-37,20],[73,30],[-20,29],[50,-12],[-38,49],[44,2],[10,34],[34,8],[-17,11],[38,40],[-24,50],[82,25],[17,34],[-14,65],[35,22],[28,-48],[-8,-47],[35,-36],[-40,-54],[-69,-37],[7,-68],[-39,-15],[-5,-43],[-28,-45],[-35,-2],[-38,-82],[-66,-8],[-25,-77],[14,-100],[-39,-69],[45,-86],[-138,3],[-8,89],[-10,-63],[-112,-20]],[[2002,2148],[14,-2],[17,-20],[-17,45],[-14,-23]],[[2004,2239],[20,-15],[12,32],[-12,6],[-20,-23]],[[111,170],[0,113],[25,0],[18,-53],[69,-28],[24,-59],[37,0],[0,-72],[-167,-28],[-6,127]],[[2262,2091],[37,38],[82,20],[13,-13],[-132,-45]]]}