{"objects":{"water":{"type":"GeometryCollection","geometries":[{"type":"Polygon","properties":{"source":"naturalearthdata.com","kind":"lake","name":"Lago de Izabal","area":791551744,"sort_rank":200,"min_zoom":0.0,"id":59},"arcs":[[149]]},{"type":"Polygon","properties":{"source":"naturalearthdata.com","kind":"lake","name":"Lago de Managua","area":1094113280,"sort_rank":200,"min_zoom":0.0,"id":61},"arcs":[[150]]},{"type":"MultiPolygon","properties":{"sort_rank":200,"source":"naturalearthdata.com","min_zoom":0.0,"kind":"lake","area":240226356},"arcs":[[[151]],[[152]]]},{"type":"MultiPolygon","properties":{"source":"naturalearthdata.com","kind":"ocean","area":1576712559132672,"sort_rank":200,"min_zoom":0.0,"id":1},"arcs":[[[153],[154],[155],[156],[157]],[[158],[159],[160],[161],[162],[163],[164],[165],[166],[167],[168],[169],[170],[171],[172],[173],[174],[175],[176],[177],[178],[179],[180],[181],[182],[183],[184],[185],[186],[187],[188],[189],[190],[191],[192],[193],[194],[195],[196],[197],[198],[199],[200],[201],[202],[203],[204]]]},{"type":"Polygon","properties":{"source":"naturalearthdata.com","kind":"lake","name":"Lago de Nicaragua","area":8197937152,"sort_rank":200,"min_zoom":0.0,"id":14},"arcs":[[205],[206],[207]]},{"type":"Point","properties":{"label_placement":true,"kind":"lake","name":"Lago de Nicaragua","area":8197937152,"sort_rank":200,"source":"naturalearthdata.com","min_zoom":0.0,"id":14},"coordinates":[1706,151]},{"type":"Point","properties":{"label_placement":true,"kind":"lake","name":"Lago de Managua","area":1094113280,"sort_rank":200,"source":"naturalearthdata.com","min_zoom":0.0,"id":61},"coordinates":[1311,441]},{"type":"Point","properties":{"label_placement":true,"kind":"lake","name":"Lago de Izabal","area":791551744,"sort_rank":200,"source":"naturalearthdata.com","min_zoom":0.0,"id":59},"coordinates":[342,1675]},{"type":"MultiLineString","properties":{"source":"naturalearthdata.com","kind":"lake","sort_rank":367,"boundary":true,"min_zoom":0.0,"id":14},"arcs":[[208],[209],[210]]},{"type":"LineString","properties":{"source":"naturalearthdata.com","kind":"lake","sort_rank":367,"boundary":true,"min_zoom":0.0,"id":59},"arcs":[211]},{"type":"LineString","properties":{"source":"naturalearthdata.com","kind":"lake","sort_rank":367,"boundary":true,"min_zoom":0.0,"id":61},"arcs":[212]},{"type":"LineString","properties":{"source":"naturalearthdata.com","kind":"ocean","sort_rank":205,"boundary":true,"min_zoom":0.0,"id":71},"arcs":[213]},{"type":"LineString","properties":{"source":"naturalearthdata.com","kind":"ocean","sort_rank":205,"boundary":true,"min_zoom":0.0,"id":72},"arcs":[214]},{"type":"LineString","properties":{"source":"naturalearthdata.com","kind":"lake","sort_rank":367,"boundary":true,"min_zoom":0.0,"id":316},"arcs":[215]},{"type":"LineString","properties":{"source":"naturalearthdata.com","kind":"lake","sort_rank":367,"boundary":true,"min_zoom":0.0,"id":317},"arcs":[216]},{"type":"LineString","properties":{"source":"naturalearthdata.com","kind":"lake","sort_rank":367,"boundary":true,"min_zoom":0.0,"id":318},"arcs":[217]},{"type":"LineString","properties":{"source":"naturalearthdata.com","kind":"ocean","sort_rank":205,"boundary":true,"min_zoom":0.0,"id":562},"arcs":[218]},{"type":"LineString","properties":{"source":"naturalearthdata.com","kind":"ocean","sort_rank":205,"boundary":true,"min_zoom":0.0,"id":563},"arcs":[219]},{"type":"LineString","properties":{"source":"naturalearthdata.com","kind":"ocean","sort_rank":205,"boundary":true,"min_zoom":0.0,"id":564},"arcs":[220]},{"type":"LineString","properties":{"source":"naturalearthdata.com","kind":"ocean","sort_rank":205,"boundary":true,"min_zoom":0.0,"id":565},"arcs":[221]},{"type":"LineString","properties":{"source":"naturalearthdata.com","kind":"ocean","sort_rank":205,"boundary":true,"min_zoom":0.0,"id":566},"arcs":[222]},{"type":"LineString","properties":{"source":"naturalearthdata.com","kind":"ocean","sort_rank":205,"boundary":true,"min_zoom":0.0,"id":567},"arcs":[223]},{"type":"LineString","properties":{"source":"naturalearthdata.com","kind":"ocean","sort_rank":205,"boundary":true,"min_zoom":0.0,"id":568},"arcs":[224]},{"type":"LineString","properties":{"source":"naturalearthdata.com","kind":"ocean","sort_rank":205,"boundary":true,"min_zoom":0.0,"id":569},"arcs":[225]},{"type":"LineString","properties":{"source":"naturalearthdata.com","kind":"ocean","sort_rank":205,"boundary":true,"min_zoom":0.0,"id":572},"arcs":[226]},{"type":"LineString","properties":{"source":"naturalearthdata.com","kind":"ocean","sort_rank":205,"boundary":true,"min_zoom":0.0,"id":573},"arcs":[227]},{"type":"LineString","properties":{"source":"naturalearthdata.com","kind":"ocean","sort_rank":205,"boundary":true,"min_zoom":0.0,"id":574},"arcs":[228]},{"type":"LineString","properties":{"source":"naturalearthdata.com","kind":"ocean","sort_rank":205,"boundary":true,"min_zoom":0.0,"id":576},"arcs":[229]},{"type":"LineString","properties":{"source":"naturalearthdata.com","kind":"ocean","sort_rank":205,"boundary":true,"min_zoom":0.0,"id":577},"arcs":[230]},{"type":"LineString","properties":{"source":"naturalearthdata.com","kind":"ocean","sort_rank":205,"boundary":true,"min_zoom":0.0,"id":578},"arcs":[231]},{"type":"LineString","properties":{"source":"naturalearthdata.com","kind":"ocean","sort_rank":205,"boundary":true,"min_zoom":0.0,"id":579},"arcs":[232]},{"type":"LineString","properties":{"source":"naturalearthdata.com","kind":"ocean","sort_rank":205,"boundary":true,"min_zoom":0.0,"id":580},"arcs":[233]},{"type":"LineString","properties":{"source":"naturalearthdata.com","kind":"ocean","sort_rank":205,"boundary":true,"min_zoom":0.0,"id":581},"arcs":[234]},{"type":"LineString","properties":{"source":"naturalearthdata.com","kind":"ocean","sort_rank":205,"boundary":true,"min_zoom":0.0,"id":582},"arcs":[235]},{"type":"LineString","properties":{"source":"naturalearthdata.com","kind":"ocean","sort_rank":205,"boundary":true,"min_zoom":0.0,"id":583},"arcs":[236]},{"type":"LineString","properties":{"source":"naturalearthdata.com","kind":"ocean","sort_rank":205,"boundary":true,"min_zoom":0.0,"id":593},"arcs":[237]},{"type":"LineString","properties":{"source":"naturalearthdata.com","kind":"ocean","sort_rank":205,"boundary":true,"min_zoom":0.0,"id":596},"arcs":[238]},{"type":"LineString","properties":{"source":"naturalearthdata.com","kind":"ocean","sort_rank":205,"boundary":true,"min_zoom":0.0,"id":597},"arcs":[239]},{"type":"LineString","properties":{"source":"naturalearthdata.com","kind":"ocean","sort_rank":205,"boundary":true,"min_zoom":0.0,"id":598},"arcs":[240]},{"type":"LineString","properties":{"source":"naturalearthdata.com","kind":"ocean","sort_rank":205,"boundary":true,"min_zoom":0.0,"id":599},"arcs":[241]},{"type":"MultiLineString","properties":{"source":"naturalearthdata.com","kind":"ocean","sort_rank":205,"boundary":true,"min_zoom":0.0,"id":602},"arcs":[[242],[243]]},{"type":"LineString","properties":{"source":"naturalearthdata.com","kind":"ocean","sort_rank":205,"boundary":true,"min_zoom":0.0,"id":611},"arcs":[244]},{"type":"LineString","properties":{"source":"naturalearthdata.com","kind":"ocean","sort_rank":205,"boundary":true,"min_zoom":0.0,"id":768},"arcs":[245]},{"type":"LineString","properties":{"source":"naturalearthdata.com","kind":"ocean","sort_rank":205,"boundary":true,"min_zoom":0.0,"id":769},"arcs":[246]},{"type":"LineString","properties":{"source":"naturalearthdata.com","kind":"ocean","sort_rank":205,"boundary":true,"min_zoom":0.0,"id":770},"arcs":[247]},{"type":"LineString","properties":{"source":"naturalearthdata.com","kind":"ocean","sort_rank":205,"boundary":true,"min_zoom":0.0,"id":771},"arcs":[248]},{"type":"MultiLineString","properties":{"source":"naturalearthdata.com","kind":"ocean","sort_rank":205,"boundary":true,"min_zoom":0.0,"id":2907},"arcs":[[249],[250],[251],[252]]},{"type":"LineString","properties":{"source":"naturalearthdata.com","kind":"ocean","sort_rank":205,"boundary":true,"min_zoom":0.0,"id":3719},"arcs":[253]},{"type":"LineString","properties":{"source":"naturalearthdata.com","kind":"ocean","sort_rank":205,"boundary":true,"min_zoom":0.0,"id":3720},"arcs":[254]},{"type":"LineString","properties":{"source":"naturalearthdata.com","kind":"ocean","sort_rank":205,"boundary":true,"min_zoom":0.0,"id":3727},"arcs":[255]},{"type":"LineString","properties":{"source":"naturalearthdata.com","kind":"ocean","sort_rank":205,"boundary":true,"min_zoom":0.0,"id":3728},"arcs":[256]},{"type":"LineString","properties":{"source":"naturalearthdata.com","kind":"ocean","sort_rank":205,"boundary":true,"min_zoom":0.0,"id":3729},"arcs":[257]},{"type":"LineString","properties":{"source":"naturalearthdata.com","kind":"ocean","sort_rank":205,"boundary":true,"min_zoom":0.0,"id":3730},"arcs":[258]},{"type":"LineString","properties":{"source":"naturalearthdata.com","kind":"ocean","sort_rank":205,"boundary":true,"min_zoom":0.0,"id":3731},"arcs":[259]},{"type":"LineString","properties":{"source":"naturalearthdata.com","kind":"ocean","sort_rank":205,"boundary":true,"min_zoom":0.0,"id":3806},"arcs":[260]},{"type":"LineString","properties":{"source":"naturalearthdata.com","kind":"ocean","sort_rank":205,"boundary":true,"min_zoom":0.0,"id":3860},"arcs":[261]},{"type":"LineString","properties":{"source":"naturalearthdata.com","kind":"ocean","sort_rank":205,"boundary":true,"min_zoom":0.0,"id":3861},"arcs":[262]}]},"buildings":{"type":"GeometryCollection","geometries":[]},"places":{"type":"GeometryCollection","geometries":[{"type":"Point","properties":{"name:ps":"\u06ab\u0648\u0627\u062a\u0645\u0627\u0644\u0627","name:ka":"\u10d2\u10d5\u10d0\u10e2\u10d4\u10db\u10d0\u10da\u10d0","name:ko":"\uacfc\ud14c\ub9d0\ub77c","name:kn":"\u0c97\u0ccd\u0cb5\u0cbe\u0c9f\u0cc6\u0cae\u0cbe\u0cb2","name:km":"\u17a0\u17d2\u1782\u17b6\u178f\u17c1\u1798\u17c9\u17b6\u17a1\u17b6","name:kk":"\u0413\u0432\u0430\u0442\u0435\u043c\u0430\u043b\u0430","name:tt":"\u0413\u0432\u0430\u0442\u0435\u043c\u0430\u043b\u0430","name:kw":"Gwatemala","name:th":"\u0e1b\u0e23\u0e30\u0e40\u0e17\u0e28\u0e01\u0e31\u0e27\u0e40\u0e15\u0e21\u0e32\u0e25\u0e32","name:tl":"Guwatemala","name:pa":"\u0a17\u0a41\u0a06\u0a24\u0a47\u0a2e\u0a3e\u0a32\u0a3e","name:os":"\u0413\u0432\u0430\u0442\u0435\u043c\u0430\u043b\u00e6","name:ce":"\u0413\u0432\u0430\u0442\u0435\u043c\u0430\u043b\u0430","name:ta":"\u0b95\u0bc1\u0bb5\u0bbe\u0ba4\u0bcd\u0ba4\u0bae\u0bbe\u0bb2\u0bbe","name:tg":"\u0413\u0443\u0430\u0442\u0435\u043c\u0430\u043b\u0430","name:qu":"Watimala","name:sr":"\u0413\u0432\u0430\u0442\u0435\u043c\u0430\u043b\u0430","source":"openstreetmap.org","name:dv":"\u078e\u07aa\u0787\u07a6\u0793\u07ac\u0789\u07a7\u078d\u07a7","name:lv":"Gvatemala","name:lt":"Gvatemala","name:hi":"\u0917\u094d\u0935\u093e\u091f\u0947\u092e\u093e\u0932\u093e","name:he":"\u05d2\u05d5\u05d0\u05d8\u05de\u05dc\u05d4","min_zoom":2.0,"kind":"country","name:ur":"\u06af\u0648\u0626\u0679\u06d2 \u0645\u0627\u0644\u0627","name:la":"Guatimalia","name:uk":"\u0413\u0432\u0430\u0442\u0435\u043c\u0430\u043b\u0430","name:hy":"\u0533\u057e\u0561\u057f\u0565\u0574\u0561\u056c\u0561","name:ug":"\u06af\u06cb\u0627\u062a\u06d0\u0645\u0627\u0644\u0627","name:hr":"Gvatemala","population":13824463,"name:el":"\u0393\u03bf\u03c5\u03b1\u03c4\u03b5\u03bc\u03ac\u03bb\u03b1","name:eo":"Gvatemalo","name":"Guatemala","name:is":"Gvatemala","name:ln":"Gwatemala","name:yi":"\u05d2\u05d5\u05d5\u05d0\u05d8\u05e2\u05de\u05d0\u05dc\u05e2","name:yo":"Guat\u1eb9m\u00e1l\u00e0","name:ht":"Gwatemala","name:ay":"Watimala","name:mt":"Gwatemala","name:az":"Qvatemala","name:mr":"\u0917\u094d\u0935\u093e\u0924\u0947\u092e\u093e\u0932\u093e","name:ar":"\u063a\u0648\u0627\u062a\u064a\u0645\u0627\u0644\u0627","name:my":"\u1002\u103d\u102b\u1010\u102e\u1019\u102c\u101c\u102c\u1014\u102d\u102f\u1004\u103a\u1004\u1036","name:mg":"Goatemala","name:am":"\u1313\u1274\u121b\u120b","name:ml":"\u0d17\u0d4d\u0d35\u0d3e\u0d1f\u0d4d\u0d1f\u0d3f\u0d2e\u0d3e\u0d32","name:ru":"\u0413\u0432\u0430\u0442\u0435\u043c\u0430\u043b\u0430","name:rw":"Gwatemala","id":1644732479,"name:mk":"\u0413\u0432\u0430\u0442\u0435\u043c\u0430\u043b\u0430","name:vo":"Gvatem\u00e4n","name:fa":"\u06af\u0648\u0627\u062a\u0645\u0627\u0644\u0627","name:mn":"\u0413\u0432\u0430\u0442\u0435\u043c\u0430\u043b","name:uz":"Gvatemala","name:fr":"Guat\u00e9mala","name:zh-yue":"\u5371\u5730\u99ac\u62c9","name:fy":"G\u00fbatemala","name:zh":"\u5371\u5730\u9a6c\u62c9","name:sm":"Tuatemala","name:sl":"Gvatemala","name:ja":"\u30b0\u30a2\u30c6\u30de\u30e9","name:sh":"Gvatemala","name:na":"Guatemara","name:ne":"\u0917\u094d\u0935\u093e\u091f\u0947\u092e\u093e\u0932\u093e","name:sa":"\u0917\u094d\u0935\u093e\u091f\u0947\u092e\u093e\u0932\u093e","name:bs":"Gvatemala","name:bm":"Gatemala","name:bn":"\u0997\u09c1\u09af\u09bc\u09be\u09a4\u09c7\u09ae\u09be\u09b2\u09be","name:bo":"\u0f42\u0f74\u0f0b\u0f5d\u0f7a\u0f0b\u0f50\u0f72\u0f0b\u0f58\u0f0b\u0f63\u0f0d","name:be":"\u0413\u0432\u0430\u0442\u044d\u043c\u0430\u043b\u0430","name:su":"Guat\u00e9mala","name:bg":"\u0413\u0432\u0430\u0442\u0435\u043c\u0430\u043b\u0430","name:ss":"IGwathamala","name:ba":"\u0413\u0432\u0430\u0442\u0435\u043c\u0430\u043b\u0430","name:ga":"Guatamala","name:gd":"Guatamala","name:wo":"Guwaatemala","name:pl":"Gwatemala","name:gv":"Yn Ghuatemaley"},"coordinates":[37,1696]},{"type":"Point","properties":{"name:ps":"\u0647\u0627\u0646\u0689\u0648\u0631\u0627\u0633","name:ka":"\u10f0\u10dd\u10dc\u10d3\u10e3\u10e0\u10d0\u10e1\u10d8","name:ko":"\uc628\ub450\ub77c\uc2a4","name:kn":"\u0cb9\u0cca\u0c82\u0ca1\u0cc1\u0cb0\u0cbe\u0cb8\u0ccd","name:cu":"\u041e\u043d\u0434\u043e\u0443\u0440\u0430\u0441\u044a","name:kk":"\u0413\u043e\u043d\u0434\u0443\u0440\u0430\u0441","name:ki":"Hondurasi","name:kw":"Hondouras","name:ku":"Hond\u00fbras","name:ti":"\u1206\u1295\u12f1\u122b\u1235","name:ks":"\u06c1\u0627\u0646\u065b\u0688\u0648\u0657\u0631\u0650\u0633","name:to":"Honitulasi","name:pa":"\u0a39\u0a3e\u0a02\u0a21\u0a42\u0a30\u0a3e\u0a38","name:os":"\u0413\u043e\u043d\u0434\u0443\u0440\u0430\u0441","name:or":"\u0b39\u0b4b\u0b23\u0b4d\u0b21\u0b3e\u0b30\u0b41\u0b38\u0b4d","name:ce":"\u0413\u043e\u043d\u0434\u0443\u0440\u0430\u0441","name:ta":"\u0bb9\u0bbe\u0ba3\u0bcd\u0b9f\u0bc1\u0bb0\u0bbe\u0bb8\u0bcd","name:tg":"\u04b2\u043e\u043d\u0434\u0443\u0440\u0430\u0441","name:ca":"Hondures","name:te":"\u0c39\u0c4b\u0c02\u0c21\u0c4b\u0c30\u0c3e\u0c38\u0c4d","name:cy":"Hondwras","name:qu":"Unduras","name:sr":"\u0425\u043e\u043d\u0434\u0443\u0440\u0430\u0441","name:dz":"\u0f67\u0f71\u0f53\u0f0b\u0f4c\u0f74\u0f0b\u0f62\u0f71\u0f66\u0f84","source":"openstreetmap.org","name:dv":"\u0780\u07ae\u0782\u07b0\u0791\u07a8\u0787\u07aa\u0783\u07a6\u0790\u07b0","name:km":"\u17a0\u17bb\u1784\u178c\u17bd\u179a\u17c9\u17b6\u179f\u17cb","name:lv":"Hondurasa","name:lt":"Hond\u016bras","name:uz":"Gonduras","name:he":"\u05d4\u05d5\u05e0\u05d3\u05d5\u05e8\u05e1","min_zoom":2.0,"kind":"country","name:ur":"\u06c1\u0648\u0646\u0688\u0627\u0631\u0648\u0633","name:la":"Honduria","name:lg":"Hundurasi","name:uk":"\u0413\u043e\u043d\u0434\u0443\u0440\u0430\u0441","name:hy":"\u0540\u0578\u0576\u0564\u0578\u0582\u0580\u0561\u057d","name:ug":"\u06be\u0648\u0646\u062f\u06c7\u0631\u0627\u0633","name:ln":"Onduras\u025b","name:lo":"\u0eae\u0ead\u0e99\u0e94\u0eb9\u0ea3\u0eb1\u0eaa","population":7989415,"name:el":"\u039f\u03bd\u03b4\u03bf\u03cd\u03c1\u03b1","name:eo":"Honduro","name":"Honduras","name:ee":"Hondurasdu","name:th":"\u0e1b\u0e23\u0e30\u0e40\u0e17\u0e28\u0e2e\u0e2d\u0e19\u0e14\u0e39\u0e23\u0e31\u0e2a","name:gu":"\u0ab9\u0acb\u0aa8\u0acd\u0aa1\u0ac1\u0ab0\u0ab8","name:yi":"\u05d4\u05d0\u05e0\u05d3\u05d5\u05e8\u05d0\u05e1","name:yo":"Or\u00edl\u1eb9\u0301\u00e8de Hondurasi","name:mt":"\u0126onduras","name:rn":"Hondurasi","name:az":"Qonduras","name:mr":"\u0939\u094b\u0902\u0921\u0941\u0930\u093e\u091c\u094d","name:ar":"\u0647\u0646\u062f\u0648\u0631\u0627\u0633","name:my":"\u101f\u103d\u1014\u103a\u1012\u1030\u1038\u101b\u1015\u103a\u1005\u103a","official_name":"Rep\u00fablica de Honduras","name:is":"Hond\u00faras","name:am":"\u1206\u1295\u12f1\u122b\u1235","name:ml":"\u0d39\u0d4b\u0d23\u0d4d\u0d1f\u0d41\u0d31\u0d3e\u0d38\u0d4d","name:ru":"\u0413\u043e\u043d\u0434\u0443\u0440\u0430\u0441","name:rw":"Hondurasi","id":424297629,"name:mk":"\u0425\u043e\u043d\u0434\u0443\u0440\u0430\u0441","name:vo":"Hondur\u00e4n","name:zu":"i-Honduras","name:mn":"\u0413\u043e\u043d\u0434\u0443\u0440\u0430\u0441","name:ff":"Onnduraas","name:hi":"\u0939\u093e\u0923\u094d\u0921\u0942\u0930\u0938","name:mg":"Hondiorasy","alt_name:vi":"H\u00f4n-\u0111u-r\u00e1t","name:wo":"Onduras","name:ky":"\u0413\u043e\u043d\u0434\u0443\u0440\u0430\u0441","name:zh-yue":"\u6d2a\u90fd\u62c9\u65af","name:fy":"Hondueras","name:zh":"\u6d2a\u90fd\u62c9\u65af","name:sm":"Honilagi","name:ja":"\u30db\u30f3\u30b8\u30e5\u30e9\u30b9","name:si":"\u0dc4\u0ddc\u0db1\u0dca\u0da9\u0dd4\u0dbb\u0dcf\u0dc3\u0dca","name:fa":"\u0647\u0646\u062f\u0648\u0631\u0627\u0633","name:sg":"Hondur\u00e4si","name:na":"Ondurat","name:ne":"\u0939\u0928\u094d\u0921\u0941\u0930\u093e\u0938","name:sa":"\u0939\u093e\u0902\u0921\u0942\u0930\u0938","name:bm":"H\u0254ndirasi","name:bn":"\u09b9\u09a3\u09cd\u09a1\u09c1\u09b0\u09be\u09b8","name:bo":"\u0f67\u0f7c\u0f53\u0f0b\u0f51\u0f74\u0f0b\u0f62\u0f66\u0f84\u0f0d","name:sw":"Hondurasi","name:be":"\u0413\u0430\u043d\u0434\u0443\u0440\u0430\u0441","name:bg":"\u0425\u043e\u043d\u0434\u0443\u0440\u0430\u0441","name:ss":"IHondulasi","name:ba":"\u0413\u043e\u043d\u0434\u0443\u0440\u0430\u0441","name:sq":"Hondurasi","name:ga":"Hond\u00faras","name:gd":"Hond\u00f9ras","name:ht":"Ondiras","name:wa":"Hondourasse","name:gv":"Ny Hondooraghyn","name:ak":"H\u0254nduras","name:tt":"\u0413\u043e\u043d\u0434\u0443\u0440\u0430\u0441"},"coordinates":[1967,1477]},{"type":"Point","properties":{"name:ps":"\u0633\u0627\u0644\u0648\u06d0\u0689\u0648\u0631","name:cy":"El Salfador","name:ko":"\uc5d8\uc0b4\ubc14\ub3c4\ub974","name:kn":"\u0c8e\u0cb2\u0ccd \u0cb8\u0cbe\u0cb2\u0ccd\u0cb5\u0cc7\u0ca1\u0cbe\u0cb0\u0ccd","name:km":"\u17a2\u17c2\u179b\u179f\u17b6\u179b\u17cb\u179c\u17c9\u17b6\u178c\u17d0\u179a","name:cs":"Salvador","name:ki":"Elsavado","name:th":"\u0e1b\u0e23\u0e30\u0e40\u0e17\u0e28\u0e40\u0e2d\u0e25\u0e0b\u0e31\u0e25\u0e27\u0e32\u0e14\u0e2d\u0e23\u0e4c","name:ti":"\u12a4\u120d \u1233\u120d\u126b\u12f6\u122d","name:ks":"\u0627\u066e\u06ea\u0644 \u0633\u064e\u0644\u0648\u0627\u0691\u0648\u0631","name:to":"\u02bbEle Salavatoa","name:pa":"\u0a38\u0a3e\u0a32\u0a35\u0a3e\u0a26\u0a4b\u0a30","name:os":"\u0421\u0430\u043b\u044c\u0432\u0430\u0434\u043e\u0440","name:or":"\u0b0f\u0b32\u0b4d \u0b38\u0b3e\u0b32\u0b2d\u0b3e\u0b21\u0b4b\u0b30\u0b4d","name:ce":"\u0421\u0430\u043b\u044c\u0432\u0430\u0434\u043e\u0440","name:ta":"\u0b8e\u0bb2\u0bcd \u0b9a\u0bbe\u0bb2\u0bcd\u0bb5\u0b9f\u0bbe\u0bb0\u0bcd","name:tg":"\u0421\u0430\u043b\u0432\u0430\u0434\u043e\u0440","name:te":"\u0c0e\u0c32\u0c4d \u0c38\u0c3e\u0c32\u0c4d\u0c35\u0c21\u0c4b\u0c30\u0c4d","name:ka":"\u10e1\u10d0\u10da\u10d5\u10d0\u10d3\u10dd\u10e0\u10d8","name:hr":"Salvador","name:ln":"Savad\u0254r\u025b","name:sr":"\u0421\u0430\u043b\u0432\u0430\u0434\u043e\u0440","name:dz":"\u0f68\u0f7a\u0f63\u0f0b\u0f66\u0f63\u0f0b\u0f56\u0f0b\u0f4c\u0f7c\u0f62","source":"openstreetmap.org","name:dv":"\u0787\u07ac\u078d\u07b0\u0790\u07ac\u078d\u07b0\u0788\u07a6\u0791\u07af\u0783\u07aa","name:lv":"Salvadora","name:lt":"Salvadoras","name:hi":"\u0905\u0932 \u0938\u093e\u0932\u094d\u0935\u093e\u0921\u094b\u0930","name:kk":"\u042d\u043b\u044c-\u0421\u0430\u043b\u044c\u0432\u0430\u0434\u043e\u0440 \u0420\u0435\u0441\u043f\u0443\u0431\u043b\u0438\u043a\u0430\u0441\u044b","name:he":"\u05d0\u05dc \u05e1\u05dc\u05d1\u05d3\u05d5\u05e8","kind":"country","name:ur":"\u0627\u0644 \u0633\u0644\u0648\u0627\u0688\u0648\u0631","name:la":"Salvatoria","name:lg":"El salivado","name:uk":"\u0421\u0430\u043b\u044c\u0432\u0430\u0434\u043e\u0440","name:hy":"\u054d\u0561\u056c\u057e\u0561\u0564\u0578\u0580","name:ug":"\u0626\u06d5\u0644 \u0633\u0627\u0644\u06cb\u0627\u062f\u0648\u0631","name:qu":"Salwadur","name:lo":"\u0ead\u0eb5\u0ec1\u0ead\u0ea7 \u0e8a\u0ecd\u0ea7\u0eb2\u0e94\u0ecd","name:oc":"Lo Salvador","population":6000000,"name:el":"\u0395\u03bb \u03a3\u03b1\u03bb\u03b2\u03b1\u03b4\u03cc\u03c1","name:eo":"Salvadoro","name":"El Salvador","official_name":"Rep\u00fablica de El Salvador","name:ee":"El Salvad\u0254 nutome","min_zoom":2.0,"name:yi":"\u05e2\u05dc \u05e1\u05d0\u05dc\u05d5\u05d5\u05d0\u05d3\u05d0\u05e8","name:yo":"Or\u00edl\u1eb9\u0301\u00e8de \u1eb8\u1eb9s\u00e1f\u00e1d\u00f2","name:rn":"Eli Saluvatori","name:az":"Salvador","name:mr":"\u0905\u0932 \u0938\u093e\u0932\u094d\u0935\u093e\u0921\u094b\u0930","name:ar":"\u0627\u0644\u0633\u0644\u0641\u0627\u062f\u0648\u0631","name:my":"\u1021\u101a\u103a\u101c\u103a\u1006\u102c\u1017\u1031\u1038\u1012\u102d\u102f\u1038","name:io":"Salvadoria","name:ak":"\u0190l Salvad\u0254","name:am":"\u12a4\u120d \u1233\u120d\u126b\u12f6\u122d","name:ml":"\u0d0e\u0d7d \u0d38\u0d3e\u0d7d\u0d35\u0d26\u0d4b\u0d7c","name:ru":"\u0421\u0430\u043b\u044c\u0432\u0430\u0434\u043e\u0440","name:rw":"Saluvadoro","name:pl":"Salwador","name:mk":"\u0415\u043b \u0421\u0430\u043b\u0432\u0430\u0434\u043e\u0440","name:af":"Salvador","name:zu":"i-El Salvador","name:ha":"El Salbador","name:mn":"\u042d\u043b\u044c \u0421\u0430\u043b\u044c\u0432\u0430\u0434\u043e\u0440","name:ff":"El Salwador","id":424311802,"alt_name:vi":"En Xan-va-\u0111o","name:fr":"Salvador","name:wo":"Salbadoor","name:zh-yue":"\u85a9\u723e\u74e6\u591a","name:vo":"Salvador\u00e4n","name:zh":"\u8428\u5c14\u74e6\u591a","name:so":"El Salfador","name:sl":"Salvador","name:sk":"Salv\u00e1dor","name:ja":"\u30a8\u30eb\u30b5\u30eb\u30d0\u30c9\u30eb","name:si":"\u0d91\u0dbd\u0dca \u0dc3\u0dd0\u0dbd\u0dca\u0dc0\u0daf\u0ddd\u0dbb\u0dba","name:sh":"Salvador","name:sg":"Salvad\u00f6ro","name:na":"Ersarbador","name:ne":"\u090f\u0932\u094d \u0938\u093e\u0932\u094d\u092d\u093e\u0921\u094b\u0930","name:sa":"\u090f\u0932-\u0938\u093e\u0932\u094d\u0935\u093e\u0921\u094b\u0930","name:bs":"Salvador","name:bm":"Salivad\u0254r","name:bn":"\u098f\u09b2 \u09b8\u09be\u09b2\u09ad\u09c7\u09a6\u09b0","name:bo":"\u0f68\u0f7a\u0f63\u0f0d \u0f66\u0f71\u0f63\u0f0b\u0f5d\u0f0b\u0f4c\u0f7c\u0f62\u0f0d","name:br":"Salvador","name:sw":"Elsavado","name:be":"\u042d\u043b\u044c-\u0421\u0430\u043b\u044c\u0432\u0430\u0434\u043e\u0440","name:su":"\u00c9l Salvador","name:bg":"\u0415\u043b \u0421\u0430\u043b\u0432\u0430\u0434\u043e\u0440","name:ss":"ISalivado","name:ba":"\u0421\u0430\u043b\u044c\u0432\u0430\u0434\u043e\u0440","name:sq":"Salvadori","name:ga":"An tSalvad\u00f3ir","name:gd":"El Salbhador","name:ht":"Salvad\u00f2","name:gn":"Salvador","name:gl":"O Salvador - El Salvador","name:fa":"\u0627\u0644\u0633\u0627\u0644\u0648\u0627\u062f\u0648\u0631","name:gv":"Yn Salvador","name:gu":"\u0a8f\u0ab2 \u0ab8\u0ac7\u0ab2\u0acd\u0ab5\u0abe\u0aa1\u0acb\u0ab0","name:tt":"\u0421\u0430\u043b\u044c\u0432\u0430\u0434\u043e\u0440"},"coordinates":[395,998]},{"type":"Point","properties":{"name:pt":"Nicar\u00e1gua","name:ps":"\u0646\u06a9\u0627\u0631\u0627\u06ab\u0648\u0627","name:ka":"\u10dc\u10d8\u10d9\u10d0\u10e0\u10d0\u10d2\u10e3\u10d0","name:mt":"Nikaragwa","name:tr":"Nikaragua","name:kn":"\u0ca8\u0cbf\u0c95\u0cbe\u0cb0\u0cbe\u0c97\u0cc1\u0cb5\u0cbe","name:km":"\u1793\u17b8\u1780\u17b6\u179a\u17c9\u17b6\u17a0\u17d2\u1782\u17d0\u179a","name:cs":"Nikaragua","name:ki":"Nikaragwa","name:kw":"Nikaragwa","name:kv":"\u041d\u0438\u043a\u0430\u0440\u0430\u0433\u0443\u0430","name:ku":"N\u00eekaragua","name:ti":"\u1292\u12ab\u122b\u1313","name:ks":"\u0646\u0627\u06a9\u0627\u0631\u0627\u06af\u064f\u0648\u0627","name:to":"Nikalakua","name:pa":"\u0a28\u0a3f\u0a15\u0a3e\u0a30\u0a3e\u0a17\u0a41\u0a06","name:os":"\u041d\u0438\u043a\u0430\u0440\u0430\u0433\u0443\u00e6","name:or":"\u0b28\u0b3f\u0b15\u0b3e\u0b30\u0b3e\u0b17\u0b41\u0b06","name:ce":"\u041d\u0438\u043a\u0430\u0440\u0430\u0433\u0443\u0430","name:ta":"\u0ba8\u0bbf\u0b95\u0bbe\u0bb0\u0b95\u0bc1\u0bb5\u0bbe","name:tg":"\u041d\u0438\u043a\u0430\u0440\u0430\u0433\u0443\u0430","name:te":"\u0c28\u0c3f\u0c15\u0c30\u0c3e\u0c17\u0c41\u0c35\u0c3e","name:cy":"Nicaragwa","source":"openstreetmap.org","name:ln":"Nikaragwa","name:sr":"\u041d\u0438\u043a\u0430\u0440\u0430\u0433\u0432\u0430","name:dz":"\u0f53\u0f72\u0f0b\u0f40\u0fb2\u0f0b\u0f5d\u0f0b\u0f42","name:ko":"\ub2c8\uce74\ub77c\uacfc","name:dv":"\u0782\u07a8\u0786\u07a6\u0783\u07a7\u078e\u07aa\u0787\u07a7","name:lv":"Nikaragva","name:lt":"Nikaragva","name:uz":"Nikaragua","name:kk":"\u041d\u0438\u043a\u0430\u0440\u0430\u0433\u0443\u0430","name:he":"\u05e0\u05d9\u05e7\u05e8\u05d2\u05d5\u05d0\u05d4","min_zoom":2.0,"kind":"country","name:ur":"\u0646\u06a9\u0627\u0631\u0627\u06af\u0648\u0648\u0627","name:lg":"Nikaraguwa","name:uk":"\u041d\u0456\u043a\u0430\u0440\u0430\u0433\u0443\u0430","name:hy":"\u0546\u056b\u056f\u0561\u0580\u0561\u0563\u0578\u0582\u0561","name:ug":"\u0646\u0649\u0643\u0627\u0631\u0627\u06af\u06c7\u0626\u0627","name:hr":"Nikaragva","name:lo":"\u0e99\u0eb4\u0e81\u0e84\u0eb2\u0ea5\u0eb2\u0e81\u0ebb\u0ea7","population":5727707,"name:el":"\u039d\u03b9\u03ba\u03b1\u03c1\u03ac\u03b3\u03bf\u03c5\u03b1","name:eo":"Nikaragvo","name":"Nicaragua","official_name":"Rep\u00fablica de Nicaragua","name:ee":"Nicaraguaduk\u0254","name:th":"\u0e1b\u0e23\u0e30\u0e40\u0e17\u0e28\u0e19\u0e34\u0e01\u0e32\u0e23\u0e32\u0e01\u0e31\u0e27","name:gu":"\u0aa8\u0abf\u0a95\u0abe\u0ab0\u0abe\u0a97\u0ac1\u0a86","name:eu":"Nikaragua","name:yo":"Or\u00edl\u1eb9\u0301\u00e8de NIkaragua","name:ay":"Nikarwa","name:yi":"\u05e0\u05d9\u05e7\u05d0\u05e8\u05d0\u05d2\u05d5\u05d0","name:rn":"Nikaragwa","name:az":"Nikaraqua","name:id":"Nikaragua","name:mr":"\u0928\u093f\u0915\u093e\u0930\u093e\u0917\u094d\u0935\u0947","name:qu":"Nikarawa","name:ar":"\u0646\u064a\u0643\u0627\u0631\u0627\u063a\u0648\u0627","name:my":"\u1014\u102e\u1000\u102c\u101b\u102c\u1002\u103d\u102c","name:io":"Nikaragua","name:gn":"Nikaragua","name:is":"N\u00edkaragva","name:am":"\u1292\u12ab\u122b\u1313","name:fo":"Nikaragua","name:ml":"\u0d28\u0d3f\u0d15\u0d4d\u0d15\u0d3e\u0d30\u0d17\u0d4d\u0d35","name:ru":"\u041d\u0438\u043a\u0430\u0440\u0430\u0433\u0443\u0430","name:rw":"Nikaragwa","name:pl":"Nikaragua","name:mk":"\u041d\u0438\u043a\u0430\u0440\u0430\u0433\u0432\u0430","name:vo":"Nikaraguv\u00e4n","name:zu":"i-Nicaragua","name:ha":"Nikaraguwa","name:mn":"\u041d\u0438\u043a\u0430\u0440\u0430\u0433\u0443\u0430","name:ff":"Nikaraguwaa","name:hi":"\u0928\u093f\u0915\u093e\u0930\u093e\u0917\u0941\u0906","name:mg":"Nikarago\u00e0","id":424316671,"name:wo":"Nikaraaguwa","name:zh-yue":"\u5c3c\u52a0\u62c9\u74dc","name:fy":"Nikaragua","name:zh":"\u5c3c\u52a0\u62c9\u74dc","name:so":"Nikaraaguwa","name:sl":"Nikaragva","name:sk":"Nikaragua","name:ja":"\u30cb\u30ab\u30e9\u30b0\u30a2","name:si":"\u0db1\u0dd2\u0d9a\u0dbb\u0d9c\u0dd4\u0dc0\u0dcf\u0dc0","name:sh":"Nikaragva","name:sg":"Nikaragua","name:ne":"\u0928\u093f\u0915\u093e\u0930\u093e\u0917\u0941\u0935\u093e","name:sa":"\u0928\u093f\u0915\u093e\u0930\u0917\u0941\u0935\u093e","name:bs":"Nikaragva","name:bm":"Nikaragwa","name:bn":"\u09a8\u09bf\u0995\u09be\u09b0\u09be\u0997\u09c1\u09af\u09bc\u09be","name:bo":"\u0f53\u0f72\u0f0b\u0f40\u0f0b\u0f62\u0f0b\u0f42\u0f74\u0f0b\u0f68\u0f0d","name:sw":"Nikaragwa","name:be":"\u041d\u0456\u043a\u0430\u0440\u0430\u0433\u0443\u0430","name:su":"Nikaragua","name:bg":"\u041d\u0438\u043a\u0430\u0440\u0430\u0433\u0443\u0430","name:ss":"INikhalaga","name:ba":"\u041d\u0438\u043a\u0430\u0440\u0430\u0433\u0443\u0430","name:sq":"Nikaragua","name:ga":"Nicearagua","name:gd":"Niocaragua","name:ht":"Nikaragwa","name:jv":"Nikaragua","name:fa":"\u0646\u06cc\u06a9\u0627\u0631\u0627\u06af\u0648\u0622","name:gv":"Yn Nickeraag","name:ak":"Nekaraguwa","name:tt":"\u041d\u0438\u043a\u0430\u0440\u0430\u0433\u0443\u0430"},"coordinates":[1868,454]},{"type":"Point","properties":{"name:ps":"\u0628\u06d0\u0644\u06cc\u0632","name:ka":"\u10d1\u10d4\u10da\u10d8\u10d6\u10d8","name:ko":"\ubca8\ub9ac\uc988","name:cv":"\u0411\u0435\u043b\u0438\u0437","name:km":"\u1794\u17c1\u179b\u17b8\u17a0\u17d2\u179f","name:kk":"\u0411\u0435\u043b\u0438\u0437","name:tt":"\u0411\u0435\u043b\u0438\u0437","name:kw":"Belisa","name:ku":"Bel\u00eeze","name:ti":"\u1264\u120a\u12d8","name:ks":"\u0628\u06cc\u0644\u0650\u062c","name:to":"Pelise","name:tl":"Belise","name:pa":"\u0a2c\u0a47\u0a32\u0a40\u0a1c\u0a3c","name:os":"\u0411\u0435\u043b\u0438\u0437","name:or":"\u0b2c\u0b47\u0b32\u0b3f\u0b1c\u0b4d","name:ce":"\u0411\u0435\u043b\u0438\u0437","name:ta":"\u0baa\u0bc6\u0bb2\u0bbf\u0bb8\u0bcd","name:tg":"\u0411\u0435\u043b\u0438\u0437","name:te":"\u0c2c\u0c46\u0c32\u0c40\u0c1c\u0c4d","name:qu":"Bilisi","name:sr":"\u0411\u0435\u043b\u0438\u0437\u0435","name:dz":"\u0f56\u0fb7\u0f7a\u0f0b\u0f63\u0f72\u0f5b","source":"openstreetmap.org","name:kn":"\u0cac\u0cc6\u0cb2\u0cbf\u0c9c\u0ccd","name:dv":"\u0784\u07ac\u078d\u07a9\u0792\u07aa","name:lv":"Beliza","name:lt":"Belizas","name:uz":"Beliz","name:he":"\u05d1\u05dc\u05d9\u05d6","min_zoom":2.0,"kind":"country","name:ur":"\u0628\u06cc\u0644\u0627\u0626\u0632","name:la":"Beliza","old_name:eo":"Brita Honduro","name:uk":"\u0411\u0435\u043b\u0456\u0437","name:hy":"\u0532\u0565\u056c\u056b\u0566","name:ug":"\u0628\u06d0\u0644\u0649\u0632","name:ln":"Beliz\u025b","name:lo":"\u0ec0\u0e9a\u0e8a\u0eb5\u0ea7","population":327719,"name:el":"\u039c\u03c0\u03b5\u03bb\u03af\u03b6","name:eo":"Belizo","name":"Belize","name:ee":"Belize nutome","name:th":"\u0e1b\u0e23\u0e30\u0e40\u0e17\u0e28\u0e40\u0e1a\u0e25\u0e35\u0e0b","name:gu":"\u0aac\u0ac7\u0ab2\u0ac0\u0a9d","name:yi":"\u05d1\u05e2\u05dc\u05d9\u05d6","name:es":"Belice","name:ay":"Wilisi","name:mt":"Beli\u017ce","name:az":"Beliz","name:mr":"\u092c\u0947\u0932\u093f\u091d\u0947","name:ar":"\u0628\u0644\u064a\u0632","name:my":"\u1018\u1031\u101c\u102e\u1007\u103a","name:is":"Bel\u00eds","name:am":"\u1264\u120a\u12d8","name:ml":"\u0d2c\u0d46\u0d32\u0d40\u0d38\u0d4d","name:ru":"\u0411\u0435\u043b\u0438\u0437","name:mn":"\u0411\u0435\u043b\u0438\u0437","id":332779764,"name:mk":"\u0411\u0435\u043b\u0438\u0437\u0435","name:vo":"Belis\u00e4n","name:zu":"i-Belize","name:ha":"Beliz","name:ff":"Beliise","name:hi":"\u092c\u0947\u0932\u0940\u091c\u093c","name:fo":"Belis","alt_name:vi":"B\u00ea-li-x\u00ea","name:fr":"B\u00e9lize","name:wo":"Beliis","name:zh-yue":"\u4f2f\u5229\u8332","name:zh":"\u4f2f\u5229\u5179","name:gv":"Yn Veleesh","name:so":"Belise","name:ja":"\u30d9\u30ea\u30fc\u30ba","name:si":"\u0db6\u0dd9\u0dbd\u0dd3\u0dc3\u0dca","name:fa":"\u0628\u0644\u06cc\u0632","name:sg":"Bel\u00eezi","name:na":"Berij","name:ne":"\u092c\u0947\u0932\u093f\u091c","name:sa":"\u092c\u0947\u0932\u0940\u091c","name:bs":"Belise","name:bm":"Belizi","name:bn":"\u09ac\u09c7\u09b2\u09bf\u09af","name:bo":"\u0f56\u0f7a\u0f0b\u0f63\u0f72\u0f5b\u0f0d","name:be":"\u0411\u0435\u043b\u0456\u0437","name:su":"B\u00e9lis","name:bg":"\u0411\u0435\u043b\u0438\u0437","name:ss":"IBhelizi","name:ba":"\u0411\u0435\u043b\u0438\u0437","name:sq":"Beliza","name:ga":"An Bheil\u00eds","name:gd":"Beilise","name:ht":"Beliz","name:gn":"Mbelise","name:gl":"Belice","name:yo":"Or\u00edl\u1eb9\u0301\u00e8de B\u00e8l\u00eds\u1eb9\u0300","name:ak":"Beliz"},"coordinates":[451,2149]},{"type":"Point","properties":{"name:pt":"Ilhas Cayman","name:cy":"Ynysoedd Cayman","alt_name:el":"\u039d\u03ae\u03c3\u03bf\u03b9 \u039a\u03b1\u03cb\u03bc\u03ac\u03bd;\u039d\u03b7\u03c3\u03b9\u03ac \u039a\u03b1\u03cb\u03bc\u03ac\u03bd;\u039d\u03b7\u03c3\u03b9\u03ac \u039a\u03ad\u03b9\u03bc\u03b1\u03bd","name:ko":"\ucf00\uc774\ub9e8\uc81c\ub3c4","name:kn":"\u0c95\u0cc7\u0cae\u0ca8\u0ccd \u0ca6\u0ccd\u0cb5\u0cc0\u0caa\u0c97\u0cb3\u0cc1","name:km":"\u1780\u17c4\u17c7\u200b\u1780\u17c3\u1798\u17c9\u1784\u17cb","name:cs":"Kajmansk\u00e9 ostrovy","alt_name:eo":"Kajmaninsuloj;Kajmana Insularo","name:ki":"Visiwa vya Kayman","name:tr":"Kayman Adalar\u0131","name:ku":"Girav\u00ean Cayman\u00ea","name:ti":"\u12ab\u12ed\u121b\u1295 \u12f0\u1234\u1276\u127d","name:ks":"\u06a9\u06cc\u0645\u064e\u0646 \u062c\u0654\u0632\u06cc\u0656\u0631\u0655","name:to":"\u02bbOtumotu Keimeni","name:sv":"Cayman\u00f6arna","name:or":"\u0b15\u0b47\u0b2e\u0b4d\u0b5f\u0b3e\u0b28\u0b4d \u0b26\u0b4d\u0b2c\u0b40\u0b2a\u0b2a\u0b41\u0b1e\u0b4d\u0b1c","name:pl":"Kajmany","name:ta":"\u0b95\u0bc7\u0bae\u0bc6\u0ba9\u0bcd \u0ba4\u0bc0\u0bb5\u0bc1\u0b95\u0bb3\u0bcd","name:ca":"Illes Caiman","name:te":"\u0c15\u0c47\u0c2e\u0c3e\u0c28\u0c4d \u0c26\u0c40\u0c35\u0c41\u0c32\u0c41","name:ro":"Insulele Cayman","name:ka":"\u10d9\u10d0\u10d8\u10db\u10d0\u10dc\u10d8\u10e1 \u10d9\u10e3\u10dc\u10eb\u10e3\u10da\u10d4\u10d1\u10d8","name:hr":"Kajmanski otoci","name:da":"Cayman\u00f8erne","name:de":"Kaimaninseln","name:dz":"\u0f41\u0f7a\u0f0b\u0f58\u0f7a\u0f53\u0f0b\u0f42\u0fb3\u0f72\u0f44\u0f0b\u0f5a\u0f7c\u0f58","source":"openstreetmap.org","name:lv":"Kaimanu salas","name:lt":"Kaiman\u0173 salos","name:hi":"\u0915\u0947\u092e\u0948\u0928 \u0926\u094d\u0935\u0940\u092a\u0938\u092e\u0942\u0939","name:he":"\u05d0\u05d9\u05d9 \u05e7\u05d9\u05d9\u05de\u05df","kind":"country","name:ur":"\u06a9\u06cc\u0645\u06cc\u0646 \u0622\u0626\u0644\u06cc\u0646\u0688\u0632","name:lb":"Kaimaninselen","name:lg":"Bizinga ebya Kayimaani","name:uk":"\u041a\u0430\u0439\u043c\u0430\u043d\u043e\u0432\u0456 \u043e\u0441\u0442\u0440\u043e\u0432\u0438","min_zoom":2.0,"name:hu":"Kajm\u00e1n-szigetek","name:ln":"Bisanga bya Kay\u00edma","name:lo":"\u0e84\u0eb2\u0e8d\u0ec1\u0ea1\u0e99 \u0ead\u0eb4\u0e94\u0ec1\u0ea5\u0e99","population":49035,"name:el":"\u039d\u03ae\u03c3\u03bf\u03b9 \u039a\u03ad\u03b9\u03bc\u03b1\u03bd","name:eo":"Kejmanoj","name":"Cayman Islands","name:ee":"Kayman \u0192udomekpowo nutome","name:th":"\u0e2b\u0e21\u0e39\u0e48\u0e40\u0e01\u0e32\u0e30\u0e40\u0e04\u0e22\u0e4c\u0e41\u0e21\u0e19","name:gu":"\u0a95\u0ac7\u0aaf\u0aae\u0ac7\u0aa8 \u0a86\u0a87\u0ab2\u0ac5\u0a82\u0aa1\u0acd\u0ab8","name:eu":"Kaiman Uharteak","name:et":"Kaimanisaared","name:nl":"Kaaimaneilanden","name:es":"Islas Caim\u00e1n","name:ia":"Insulas de Caiman","name:rm":"Inslas Cayman","name:rn":"Ibirwa bya Keyimani","name:az":"Kayman Adalar\u0131","name:id":"Kepulauan Cayman","name:mr":"\u0915\u0947\u092e\u0928 \u092c\u0947\u091f\u0947","name:ar":"\u062c\u0632\u0631 \u0627\u0644\u0643\u0627\u064a\u0645\u0627\u0646","name:my":"\u1000\u1031\u1019\u1014\u103a \u1000\u103b\u103d\u1014\u103a\u1038\u1005\u102f","name:io":"Insuli Kaiman","name:is":"Caymaneyjar","name:am":"\u12ab\u12ed\u121b\u1295 \u12f0\u1234\u1276\u127d","name:it":"Isole Cayman","name:vi":"Qu\u1ea7n \u0111\u1ea3o Cayman","name:ru":"\u041e\u0441\u0442\u0440\u043e\u0432\u0430 \u041a\u0430\u0439\u043c\u0430\u043d","name:mn":"\u041a\u0430\u0439\u043c\u0430\u043d\u044b \u0410\u0440\u043b\u0443\u0443\u0434","id":249399364,"name:mk":"\u041a\u0430\u0458\u043c\u0430\u043d\u0441\u043a\u0438 \u041e\u0441\u0442\u0440\u043e\u0432\u0438","name:af":"Kaaimanseilande","name:zu":"i-Cayman Islands","name:ha":"Tsibiran Kaiman","name:nn":"Cayman\u00f8yane","name:ff":"Duu\u0257e Kaymaa","name:fi":"Caymansaaret","name:no":"Cayman\u00f8yene","name:mg":"Nosy Kayman","name:fo":"Caymanoyggjarnar","name:mt":"G\u017cejjer Kajmani","name:fr":"\u00celes Ca\u00efmans","name:fy":"de Kaaimaneilannen","name:zh":"\u5f00\u66fc\u7fa4\u5c9b","name:gv":"Ellanyn Cayman","name:sn":"Zvitsuwa zveCayman","name:sl":"Kajmanski otoki","name:sk":"Kajmanie ostrovy","name:ja":"\u30b1\u30a4\u30de\u30f3\u8af8\u5cf6","name:si":"\u0d9a\u0dda\u0db8\u0db1\u0dca \u0daf\u0dd6\u0db4\u0dad\u0dca","name:fa":"\u062c\u0632\u0627\u06cc\u0631 \u06a9\u0627\u06cc\u0645\u0627\u0646","name:sg":"\u00c2z\u00fb\u00e2 Ngund\u00eb, Kaim\u00e4ni","name:se":"Cayman-sullot","name:ne":"\u0915\u0947\u092f\u092e\u093e\u0928 \u091f\u093e\u092a\u0941","name:br":"Inizi Cayman","name:bs":"Kajmanska Ostrva","name:bm":"Bama Gun","name:bn":"\u0995\u09c7\u09ae\u09cd\u09af\u09be\u09a8 \u09a6\u09cd\u09ac\u09c0\u09aa\u09aa\u09c1\u099e\u09cd\u099c","name:bo":"\u0f41\u0f7a\u0f0b\u0f58\u0f7a\u0f53\u0f0b\u0f42\u0fb3\u0f72\u0f44\u0f0b\u0f55\u0fb2\u0f53\u0f0d","name:ml":"\u0d15\u0d47\u0d2f\u0d4d\u0d2e\u0d3e\u0d7b \u0d26\u0d4d\u0d35\u0d40\u0d2a\u0d41\u0d15\u0d7e","name:sw":"Visiwa vya Kayman","name:be":"\u041a\u0430\u0439\u043c\u0430\u043d\u0430\u0432\u044b \u0430\u0441\u0442\u0440\u0430\u0432\u044b","name:bg":"\u041a\u0430\u0439\u043c\u0430\u043d\u043e\u0432\u0438 \u043e\u0441\u0442\u0440\u043e\u0432\u0438","name:sr":"\u041a\u0430\u0458\u043c\u0430\u043d\u0441\u043a\u0430 \u041e\u0441\u0442\u0440\u0432\u0430","name:ga":"Oile\u00e1in Cayman","name:gd":"Na h-Eileanan Caimean","name:gl":"Illas Caim\u00e1n","name:yo":"Or\u00edl\u1eb9\u0301\u00e8de Et\u00edokun K\u00e1m\u00e1n\u00ec","name:ak":"Kemanfo Islands","alt_name:ku":"Girav\u00ean Kayman\u00ea"},"coordinates":[3435,3182]},{"type":"Point","properties":{"kind":"region","name:en":"San Andr\u00e9s and Providencia","name":"San Andr\u00e9s y Providencia","kind_detail":"state","name:eo":"Sankta Andreo kaj Providenco","official_name":"Archipi\u00e9lago de San Andr\u00e9s, Providencia y Santa Catalina","name:de":"San Andr\u00e9s und Providencia","source":"openstreetmap.org","min_zoom":4.0,"name:ru":"\u0421\u0430\u043d-\u0410\u043d\u0434\u0440\u0435\u0441-\u0438-\u041f\u0440\u043e\u0432\u0438\u0434\u0435\u043d\u0446\u0438\u044f","id":306394506,"population":83491},"coordinates":[3098,620]},{"type":"Point","properties":{"kind":"region","name":"Quintana Roo","kind_detail":"state","name:eo":"Kintanaroo","official_name":"Estado de Quintana Roo","source":"openstreetmap.org","min_zoom":4.0,"name:uk":"\u041a\u0456\u043d\u0442\u0430\u043d\u0430-\u0420\u043e\u043e","name:ru":"\u041a\u0438\u043d\u0442\u0430\u043d\u0430-\u0420\u043e\u043e","id":305626621},"coordinates":[546,3230]},{"type":"Point","properties":{"kind":"region","name":"Yucat\u00e1n","alt_name:de":"Yukatan","kind_detail":"state","name:eo":"Jukatano","official_name":"Estado de Yucat\u00e1n","source":"openstreetmap.org","min_zoom":4.0,"name:la":"Iucatania","name:uk":"\u042e\u043a\u0430\u0442\u0430\u043d","name:ru":"\u042e\u043a\u0430\u0442\u0430\u043d","name:pl":"Jukatan","id":2160053458},"coordinates":[409,3617]},{"type":"Point","properties":{"admin_level":"4","kind":"region","name":"Regi\u00f3n Aut\u00f3noma de la Costa Caribe Sur","short_name":"RACCS","kind_detail":"state","name:eo":"A\u016dtonoma Regiono Suda Atlantiko","source":"openstreetmap.org","min_zoom":4.0,"id":2775799305},"coordinates":[2148,525]},{"type":"Point","properties":{"admin_level":"4","kind":"region","name":"Regi\u00f3n Aut\u00f3noma de la Costa Caribe Norte","short_name":"RACCN","kind_detail":"state","name:eo":"A\u016dtonoma Regiono Norda Atlantiko","source":"openstreetmap.org","min_zoom":4.0,"id":2923223363},"coordinates":[2229,1203]},{"type":"Point","properties":{"kind":"region","name":"Izabal","kind_detail":"state","name:eo":"Izabalo","source":"openstreetmap.org","min_zoom":4.0,"name:ru":"\u0418\u0441\u0430\u0431\u0430\u043b\u044c","id":472114108},"coordinates":[514,1735]},{"type":"Point","properties":{"kind":"region","name":"Pet\u00e9n","kind_detail":"state","name:eo":"Peteno","source":"openstreetmap.org","min_zoom":4.0,"name:ru":"\u041f\u0435\u0442\u0435\u043d","id":472114124},"coordinates":[36,2177]},{"type":"Point","properties":{"kind":"region","name":"Zacapa","kind_detail":"state","name:eo":"Zakapo","source":"openstreetmap.org","min_zoom":4.0,"name:ru":"\u0421\u0430\u043a\u0430\u043f\u0430","id":1073096525},"coordinates":[175,1441]},{"type":"Point","properties":{"admin_level":"4","kind":"region","name":"Boaco","kind_detail":"state","name:eo":"Boako","source":"openstreetmap.org","min_zoom":4.0,"id":2923223351},"coordinates":[1650,494]},{"type":"Point","properties":{"admin_level":"4","kind":"region","name":"Carazo","kind_detail":"state","name:eo":"Karazo","source":"openstreetmap.org","min_zoom":4.0,"id":2923223352},"coordinates":[1344,185]},{"type":"Point","properties":{"admin_level":"4","kind":"region","name":"Chinandega","kind_detail":"state","name:eo":"\u0108inandego","source":"openstreetmap.org","min_zoom":4.0,"id":2923223353},"coordinates":[1108,651]},{"type":"Point","properties":{"admin_level":"4","kind":"region","name":"Chontales","kind_detail":"state","name:eo":"\u0108ontaleso","source":"openstreetmap.org","min_zoom":4.0,"id":2923223354},"coordinates":[1784,271]},{"type":"Point","properties":{"admin_level":"4","kind":"region","name":"Estel\u00ed","kind_detail":"state","name:eo":"Estelio","source":"openstreetmap.org","min_zoom":4.0,"id":2923223355},"coordinates":[1291,787]},{"type":"Point","properties":{"admin_level":"4","kind":"region","name":"Granada","kind_detail":"state","name:eo":"Granado","source":"openstreetmap.org","min_zoom":4.0,"id":2923223356},"coordinates":[1492,242]},{"type":"Point","properties":{"admin_level":"4","kind":"region","name":"Le\u00f3n","kind_detail":"state","name:eo":"Leono","source":"openstreetmap.org","min_zoom":4.0,"id":2923223358},"coordinates":[1241,548]},{"type":"Point","properties":{"admin_level":"4","kind":"region","name":"Madriz","kind_detail":"state","name:eo":"Madrizo","source":"openstreetmap.org","min_zoom":4.0,"id":2923223359},"coordinates":[1332,888]},{"type":"Point","properties":{"admin_level":"4","kind":"region","name":"Managua","kind_detail":"state","name:eo":"Managvo","source":"openstreetmap.org","min_zoom":4.0,"id":2923223360},"coordinates":[1265,287]},{"type":"Point","properties":{"admin_level":"4","kind":"region","name":"Matagalpa","kind_detail":"state","name:eo":"Matagalpo","source":"openstreetmap.org","min_zoom":4.0,"id":2923223361},"coordinates":[1638,679]},{"type":"Point","properties":{"admin_level":"4","kind":"region","name":"Nueva Segovia","kind_detail":"state","name:eo":"Nova Segovio","source":"openstreetmap.org","min_zoom":4.0,"id":2923223362},"coordinates":[1433,990]},{"type":"Point","properties":{"admin_level":"4","kind":"region","name":"Rivas","kind_detail":"state","name:eo":"Rivaso","source":"openstreetmap.org","min_zoom":4.0,"id":2923223364},"coordinates":[1593,80]},{"type":"Point","properties":{"admin_level":"4","kind":"region","name":"R\u00edo San Juan","kind_detail":"state","name:eo":"Rivero Sankta Johano","source":"openstreetmap.org","min_zoom":4.0,"id":2923223365},"coordinates":[2035,13]},{"type":"Point","properties":{"admin_level":"4","kind":"region","name":"Masaya","kind_detail":"state","name:eo":"Masajo","source":"openstreetmap.org","min_zoom":4.0,"id":2923256183},"coordinates":[1438,313]},{"type":"Point","properties":{"admin_level":"4","kind":"region","name":"Jinotega","kind_detail":"state","name:eo":"\u0124inotegao","source":"openstreetmap.org","min_zoom":4.0,"id":2923223357},"coordinates":[1456,735]},{"type":"Point","properties":{"source":"naturalearthdata.com","kind":"locality","name":"San Salvador","country_capital":true,"population":1433000,"min_zoom":5.0,"id":6944},"coordinates":[289,964]},{"type":"Point","properties":{"source":"naturalearthdata.com","kind":"locality","name":"Merida","population":965000,"region_capital":true,"min_zoom":5.0,"id":6907},"coordinates":[139,3725]},{"type":"Point","properties":{"source":"naturalearthdata.com","kind":"locality","name":"Tegucigalpa","country_capital":true,"population":946000,"min_zoom":5.0,"id":6824},"coordinates":[1012,1113]},{"type":"Point","properties":{"source":"naturalearthdata.com","kind":"locality","name":"Managua","country_capital":true,"population":920000,"min_zoom":5.0,"id":6842},"coordinates":[1358,372]},{"type":"Point","properties":{"source":"naturalearthdata.com","kind":"locality","name":"Cancun","population":542043,"min_zoom":5.0,"id":6906},"coordinates":[1154,3802]},{"type":"Point","properties":{"source":"naturalearthdata.com","kind":"locality","name":"Belmopan","country_capital":true,"population":15220,"min_zoom":5.0,"id":7058},"coordinates":[449,2311]}]},"transit":{"type":"GeometryCollection","geometries":[]},"pois":{"type":"GeometryCollection","geometries":[{"type":"Point","properties":{"kind":"national_park","tier":1,"protect_class":"2","area":1210830000,"name:es":"Parque nacional Chiquibul","name:de":"Nationalpark Chiquibul","source":"openstreetmap.org","min_zoom":5.67,"name:it":"Parco nazionale di Chiquibul","operator":"Forest Department","id":-2958267,"osm_relation":true,"name":"Chiquibul National Park"},"coordinates":[427,2111]},{"type":"Point","properties":{"kind":"national_park","name":"Parque Nacional Jeanette Kawas","area":839468000,"source":"openstreetmap.org","min_zoom":5.93,"tier":1,"id":-556267,"osm_relation":true},"coordinates":[848,1775]},{"type":"Point","properties":{"kind":"national_park","name:en":"Patuca National Park","name":"Parque Nacional Patuca","area":4030460000,"name:de":"Nationalpark Patuca","source":"openstreetmap.org","min_zoom":4.8,"tier":1,"id":-553401,"osm_relation":true},"coordinates":[1669,1273]},{"type":"Point","properties":{"kind":"national_park","name":"Parque Nacional Mirador-R\u00edo Azul","area":1305800000,"source":"openstreetmap.org","min_zoom":5.61,"tier":1,"id":-546716,"osm_relation":true},"coordinates":[245,2497]},{"type":"Point","properties":{"kind":"national_park","protect_class":"2","area":2550240000,"source":"openstreetmap.org","min_zoom":5.13,"tier":1,"id":371542550,"name":"Parque Nacional Jardines de la Reina"},"coordinates":[3979,3710]}]},"boundaries":{"type":"GeometryCollection","geometries":[{"type":"LineString","properties":{"source":"naturalearthdata.com","kind":"indefinite","sort_rank":259,"kind_detail":"2","min_zoom":0.0,"id":300},"arcs":[0]},{"type":"MultiLineString","properties":{"source":"naturalearthdata.com","kind":"country","sort_rank":262,"kind_detail":"2","min_zoom":0.0,"id":303},"arcs":[[1],[2]]},{"type":"LineString","properties":{"source":"naturalearthdata.com","kind":"country","sort_rank":262,"kind_detail":"2","min_zoom":0.0,"id":10},"arcs":[3]},{"type":"MultiLineString","properties":{"source":"naturalearthdata.com","kind":"country","sort_rank":262,"kind_detail":"2","min_zoom":0.0,"id":153},"arcs":[[4],[5],[6],[7],[8],[9],[10],[11],[12],[13]]},{"type":"MultiLineString","properties":{"source":"naturalearthdata.com","kind":"country","sort_rank":262,"kind_detail":"2","min_zoom":0.0,"id":191},"arcs":[[14],[15],[16],[17],[18],[19],[20],[21],[22],[23],[24],[25],[26],[27],[28],[29],[30],[31],[32],[33],[34],[35],[36],[37],[38],[39],[40],[41],[42],[43],[44]]},{"type":"MultiLineString","properties":{"source":"naturalearthdata.com","kind":"country","sort_rank":262,"kind_detail":"2","min_zoom":0.0,"id":192},"arcs":[[45],[46],[47],[48],[49],[50],[51],[52],[53],[54],[55],[56],[57],[58],[59],[60],[61],[62],[63],[64],[65],[66],[67],[68],[69],[70],[71],[72],[73]]},{"type":"MultiLineString","properties":{"source":"naturalearthdata.com","kind":"country","sort_rank":262,"kind_detail":"2","min_zoom":0.0,"id":193},"arcs":[[74],[75],[76],[77],[78],[79],[80],[81],[82],[83],[84],[85],[86],[87],[88],[89],[90],[91],[92],[93],[94],[95],[96],[97],[98],[99],[100],[101],[102],[103],[104],[105],[106],[107],[108],[109],[110],[111],[112]]},{"type":"MultiLineString","properties":{"source":"naturalearthdata.com","kind":"country","sort_rank":262,"kind_detail":"2","min_zoom":0.0,"id":301},"arcs":[[113],[114],[115],[116],[117],[118],[119],[120],[121],[122]]},{"type":"LineString","properties":{"source":"naturalearthdata.com","kind":"country","sort_rank":262,"kind_detail":"2","min_zoom":0.0,"id":302},"arcs":[123]},{"type":"MultiLineString","properties":{"source":"naturalearthdata.com","kind":"country","sort_rank":262,"kind_detail":"2","min_zoom":0.0,"id":304},"arcs":[[124],[125],[126],[127],[128]]},{"type":"MultiLineString","properties":{"source":"naturalearthdata.com","kind":"disputed","sort_rank":261,"kind_detail":"2","min_zoom":0.0,"id":448},"arcs":[[129],[130],[131],[132],[133],[134]]},{"type":"LineString","properties":{"source":"naturalearthdata.com","kind":"region","sort_rank":256,"kind_detail":"4","min_zoom":5.0,"id":449},"arcs":[135]},{"type":"MultiLineString","properties":{"source":"naturalearthdata.com","kind":"region","sort_rank":256,"kind_detail":"4","min_zoom":5.0,"id":6974},"arcs":[[136],[137],[138],[139],[140],[141],[142],[143],[144],[145],[146]]},{"type":"LineString","properties":{"source":"naturalearthdata.com","kind":"region","sort_rank":256,"kind_detail":"4","min_zoom":5.0,"id":6976},"arcs":[147]},{"type":"LineString","properties":{"source":"naturalearthdata.com","kind":"region","sort_rank":256,"kind_detail":"4","min_zoom":5.0,"id":6977},"arcs":[148]}]},"roads":{"type":"GeometryCollection","geometries":[{"type":"LineString","properties":{"source":"naturalearthdata.com","kind":"major_road","sort_rank":380,"kind_detail":"primary","min_zoom":4.0,"id":210},"arcs":[263]},{"type":"LineString","properties":{"source":"naturalearthdata.com","kind":"major_road","sort_rank":380,"kind_detail":"primary","min_zoom":3.0,"id":712},"arcs":[264]},{"type":"LineString","properties":{"source":"naturalearthdata.com","kind":"major_road","sort_rank":380,"kind_detail":"primary","min_zoom":3.0,"id":2827},"arcs":[265]},{"type":"LineString","properties":{"source":"naturalearthdata.com","kind":"major_road","sort_rank":380,"kind_detail":"primary","min_zoom":3.0,"id":2842},"arcs":[266]},{"type":"LineString","properties":{"kind":"highway","network":"MX","sort_rank":383,"kind_detail":"motorway","source":"naturalearthdata.com","min_zoom":3.0,"shield_text":"180D","id":2917},"arcs":[267]},{"type":"LineString","properties":{"kind":"highway","network":"MX","sort_rank":383,"kind_detail":"motorway","source":"naturalearthdata.com","min_zoom":3.0,"shield_text":"180D","id":2926},"arcs":[268]},{"type":"LineString","properties":{"kind":"highway","network":"MX:MX","sort_rank":355,"kind_detail":"trunk","source":"naturalearthdata.com","min_zoom":3.0,"landuse_kind":"urban_area","shield_text":"180","id":2928},"arcs":[269]},{"type":"LineString","properties":{"kind":"highway","network":"MX:MX","sort_rank":355,"kind_detail":"trunk","source":"naturalearthdata.com","min_zoom":3.0,"shield_text":"180","id":2928},"arcs":[270]},{"type":"LineString","properties":{"kind":"highway","network":"MX","sort_rank":383,"kind_detail":"motorway","source":"naturalearthdata.com","min_zoom":3.0,"landuse_kind":"urban_area","shield_text":"180D","id":2929},"arcs":[271]},{"type":"LineString","properties":{"kind":"highway","network":"MX","sort_rank":383,"kind_detail":"motorway","source":"naturalearthdata.com","min_zoom":3.0,"shield_text":"180D","id":2929},"arcs":[272]},{"type":"LineString","properties":{"kind":"highway","network":"MX:MX","sort_rank":355,"kind_detail":"trunk","source":"naturalearthdata.com","min_zoom":3.0,"shield_text":"180","id":2953},"arcs":[273]},{"type":"LineString","properties":{"source":"naturalearthdata.com","kind":"major_road","sort_rank":380,"kind_detail":"primary","min_zoom":3.0,"id":2992},"arcs":[274]},{"type":"LineString","properties":{"source":"naturalearthdata.com","kind":"major_road","sort_rank":380,"kind_detail":"primary","min_zoom":3.0,"id":3076},"arcs":[275]},{"type":"LineString","properties":{"source":"naturalearthdata.com","kind":"major_road","sort_rank":380,"kind_detail":"primary","min_zoom":3.0,"id":3078},"arcs":[276]},{"type":"LineString","properties":{"source":"naturalearthdata.com","kind":"major_road","sort_rank":380,"kind_detail":"primary","min_zoom":3.0,"id":3080},"arcs":[277]},{"type":"LineString","properties":{"source":"naturalearthdata.com","kind":"major_road","sort_rank":380,"kind_detail":"primary","min_zoom":3.0,"id":3145},"arcs":[278]},{"type":"LineString","properties":{"source":"naturalearthdata.com","kind":"major_road","kind_detail":"primary","sort_rank":380,"landuse_kind":"nature_reserve","min_zoom":4.0,"id":3164},"arcs":[279]},{"type":"LineString","properties":{"source":"naturalearthdata.com","kind":"major_road","kind_detail":"primary","sort_rank":380,"landuse_kind":"national_park","min_zoom":4.0,"id":3164},"arcs":[280]},{"type":"MultiLineString","properties":{"source":"naturalearthdata.com","kind":"major_road","sort_rank":380,"kind_detail":"primary","min_zoom":4.0,"id":3164},"arcs":[[281],[282],[283]]},{"type":"LineString","properties":{"source":"naturalearthdata.com","kind":"major_road","sort_rank":380,"kind_detail":"primary","min_zoom":4.0,"id":3165},"arcs":[284]},{"type":"LineString","properties":{"source":"naturalearthdata.com","kind":"major_road","sort_rank":380,"kind_detail":"primary","min_zoom":4.0,"id":3166},"arcs":[285]},{"type":"LineString","properties":{"source":"naturalearthdata.com","kind":"major_road","sort_rank":380,"kind_detail":"primary","min_zoom":3.0,"id":3167},"arcs":[286]},{"type":"LineString","properties":{"source":"naturalearthdata.com","kind":"major_road","sort_rank":380,"kind_detail":"primary","min_zoom":4.0,"id":3172},"arcs":[287]},{"type":"LineString","properties":{"source":"naturalearthdata.com","kind":"major_road","kind_detail":"primary","sort_rank":380,"landuse_kind":"nature_reserve","min_zoom":3.0,"id":3183},"arcs":[288]},{"type":"MultiLineString","properties":{"source":"naturalearthdata.com","kind":"major_road","sort_rank":380,"kind_detail":"primary","min_zoom":3.0,"id":3183},"arcs":[[289],[290]]},{"type":"LineString","properties":{"source":"naturalearthdata.com","kind":"major_road","sort_rank":380,"kind_detail":"primary","min_zoom":4.0,"id":3185},"arcs":[291]},{"type":"LineString","properties":{"source":"naturalearthdata.com","kind":"major_road","sort_rank":380,"kind_detail":"primary","min_zoom":4.0,"id":3187},"arcs":[292]},{"type":"LineString","properties":{"source":"naturalearthdata.com","kind":"major_road","sort_rank":380,"kind_detail":"primary","min_zoom":3.0,"id":3188},"arcs":[293]},{"type":"LineString","properties":{"source":"naturalearthdata.com","kind":"highway","sort_rank":355,"kind_detail":"trunk","min_zoom":3.0,"id":3191},"arcs":[294]},{"type":"LineString","properties":{"source":"naturalearthdata.com","kind":"highway","sort_rank":355,"kind_detail":"trunk","min_zoom":3.0,"id":3194},"arcs":[295]},{"type":"LineString","properties":{"source":"naturalearthdata.com","kind":"major_road","sort_rank":380,"kind_detail":"primary","min_zoom":4.0,"id":3196},"arcs":[296]},{"type":"LineString","properties":{"source":"naturalearthdata.com","kind":"major_road","sort_rank":380,"kind_detail":"primary","min_zoom":3.0,"id":3197},"arcs":[297]},{"type":"LineString","properties":{"source":"naturalearthdata.com","kind":"major_road","sort_rank":380,"kind_detail":"primary","min_zoom":3.0,"id":3198},"arcs":[298]},{"type":"LineString","properties":{"source":"naturalearthdata.com","kind":"highway","sort_rank":355,"kind_detail":"trunk","min_zoom":3.0,"id":3202},"arcs":[299]},{"type":"LineString","properties":{"source":"naturalearthdata.com","kind":"major_road","kind_detail":"primary","sort_rank":380,"landuse_kind":"urban_area","min_zoom":4.0,"id":3205},"arcs":[300]},{"type":"MultiLineString","properties":{"source":"naturalearthdata.com","kind":"major_road","sort_rank":380,"kind_detail":"primary","min_zoom":4.0,"id":3205},"arcs":[[301],[302]]},{"type":"LineString","properties":{"source":"naturalearthdata.com","kind":"highway","kind_detail":"trunk","sort_rank":355,"landuse_kind":"urban_area","min_zoom":3.0,"id":3206},"arcs":[303]},{"type":"MultiLineString","properties":{"source":"naturalearthdata.com","kind":"highway","sort_rank":355,"kind_detail":"trunk","min_zoom":3.0,"id":3206},"arcs":[[304],[305]]},{"type":"LineString","properties":{"source":"naturalearthdata.com","kind":"highway","sort_rank":355,"kind_detail":"trunk","min_zoom":3.0,"id":3207},"arcs":[306]},{"type":"LineString","properties":{"source":"naturalearthdata.com","kind":"highway","sort_rank":355,"kind_detail":"trunk","min_zoom":3.0,"id":3208},"arcs":[307]},{"type":"LineString","properties":{"source":"naturalearthdata.com","kind":"major_road","sort_rank":380,"kind_detail":"primary","min_zoom":4.0,"id":3209},"arcs":[308]},{"type":"LineString","properties":{"source":"naturalearthdata.com","kind":"highway","sort_rank":355,"kind_detail":"trunk","min_zoom":3.0,"id":3211},"arcs":[309]},{"type":"LineString","properties":{"source":"naturalearthdata.com","kind":"highway","sort_rank":355,"kind_detail":"trunk","min_zoom":3.0,"id":3212},"arcs":[310]},{"type":"LineString","properties":{"source":"naturalearthdata.com","kind":"major_road","sort_rank":380,"kind_detail":"primary","min_zoom":3.0,"id":3216},"arcs":[311]},{"type":"LineString","properties":{"source":"naturalearthdata.com","kind":"highway","kind_detail":"trunk","sort_rank":355,"landuse_kind":"urban_area","min_zoom":3.0,"id":3217},"arcs":[312]},{"type":"MultiLineString","properties":{"source":"naturalearthdata.com","kind":"highway","sort_rank":355,"kind_detail":"trunk","min_zoom":3.0,"id":3217},"arcs":[[313],[314]]},{"type":"LineString","properties":{"source":"naturalearthdata.com","kind":"major_road","sort_rank":380,"kind_detail":"primary","min_zoom":3.0,"id":3218},"arcs":[315]},{"type":"LineString","properties":{"source":"naturalearthdata.com","kind":"highway","sort_rank":355,"kind_detail":"trunk","min_zoom":3.0,"id":3219},"arcs":[316]},{"type":"LineString","properties":{"source":"naturalearthdata.com","kind":"highway","sort_rank":355,"kind_detail":"trunk","min_zoom":3.0,"id":3220},"arcs":[317]},{"type":"LineString","properties":{"source":"naturalearthdata.com","kind":"major_road","sort_rank":380,"kind_detail":"primary","min_zoom":3.0,"id":3823},"arcs":[318]},{"type":"LineString","properties":{"source":"naturalearthdata.com","kind":"major_road","sort_rank":380,"kind_detail":"primary","min_zoom":3.0,"id":3824},"arcs":[319]},{"type":"LineString","properties":{"source":"naturalearthdata.com","kind":"major_road","sort_rank":380,"kind_detail":"primary","min_zoom":3.0,"id":4067},"arcs":[320]}]},"earth":{"type":"GeometryCollection","geometries":[{"type":"MultiPolygon","properties":{"sort_rank":10,"source":"naturalearthdata.com","min_zoom":0.0,"kind":"earth","area":2153825071628},"arcs":[[[321]],[[322]],[[323]],[[324]],[[325]],[[326]],[[327]],[[328]],[[329]],[[330]],[[331]],[[332]],[[333]],[[334]],[[335]],[[336]],[[337]],[[338]],[[339]],[[340]],[[341]],[[342]],[[343]],[[344]],[[345]]]}]},"landuse":{"type":"GeometryCollection","geometries":[{"type":"Polygon","properties":{"kind":"national_park","name":"Parque Nacional Jardines de la Reina","area":2550240000,"sort_rank":18,"source":"openstreetmap.org","min_zoom":3.0,"tier":1,"id":371542550,"protect_class":"2"},"arcs":[[346]]},{"type":"Polygon","properties":{"kind":"nature_reserve","name":"Reserva de la biosfera Sierra de las Minas","area":2602700032,"sort_rank":23,"source":"openstreetmap.org","min_zoom":4.0,"tier":2,"id":-546738,"osm_relation":true},"arcs":[[347]]},{"type":"Polygon","properties":{"kind":"park","name":"Reserva Natural Wawashang","area":2373410048,"sort_rank":24,"source":"openstreetmap.org","min_zoom":4.0,"tier":2,"id":-3621610,"osm_relation":true},"arcs":[[348]]},{"type":"Polygon","properties":{"kind":"park","name":"Sian Ka'an","area":5978120192,"sort_rank":24,"source":"openstreetmap.org","min_zoom":4.0,"tier":2,"id":-7771089,"osm_relation":true},"arcs":[[349]]},{"type":"Polygon","properties":{"kind":"national_park","name":"Parque Nacional Guanahacabibes","area":518720992,"sort_rank":18,"source":"openstreetmap.org","min_zoom":3.0,"tier":1,"id":-6488943,"osm_relation":true,"protect_class":"2"},"arcs":[[350]]},{"type":"Polygon","properties":{"kind":"national_park","name":"Chiquibul National Park","area":1210829952,"sort_rank":18,"operator":"Forest Department","source":"openstreetmap.org","min_zoom":3.0,"tier":1,"id":-2958267,"osm_relation":true,"protect_class":"2"},"arcs":[[351]]},{"type":"Polygon","properties":{"kind":"national_park","name":"Parque Nacional Patuca","area":4030459904,"sort_rank":18,"source":"openstreetmap.org","min_zoom":3.0,"tier":1,"id":-553401,"osm_relation":true},"arcs":[[352]]},{"type":"Polygon","properties":{"kind":"national_park","name":"Parque nacional Punta Izopo","area":207462000,"sort_rank":18,"source":"openstreetmap.org","min_zoom":5.0,"tier":1,"id":-5950727,"osm_relation":true},"arcs":[[353]]},{"type":"Polygon","properties":{"kind":"nature_reserve","name":"Reserva de Biosfera Guanahacabibes","area":1799570048,"sort_rank":23,"source":"openstreetmap.org","min_zoom":4.0,"tier":2,"id":-6488944,"osm_relation":true},"arcs":[[354]]},{"type":"Polygon","properties":{"kind":"national_park","name":"Parque Nacional Ci\u00e9naga de Zapata","area":5238170112,"sort_rank":18,"source":"openstreetmap.org","min_zoom":3.0,"tier":1,"id":361290872,"protect_class":"2"},"arcs":[[355]]},{"type":"Polygon","properties":{"kind":"park","name":"Reserva Natural Cerro Silva","area":3061959936,"sort_rank":24,"source":"openstreetmap.org","min_zoom":4.0,"tier":2,"id":-3621609,"osm_relation":true},"arcs":[[356]]},{"type":"Polygon","properties":{"kind":"national_park","name":"Parque Nacional Jeanette Kawas","area":839468032,"sort_rank":18,"source":"openstreetmap.org","min_zoom":3.0,"tier":1,"id":-556267,"osm_relation":true},"arcs":[[357]]},{"type":"Polygon","properties":{"kind":"nature_reserve","name":"Parque Nacional Pico Bonito","area":1150589952,"sort_rank":23,"source":"openstreetmap.org","min_zoom":4.0,"tier":2,"id":-5263941,"osm_relation":true,"protect_class":"2"},"arcs":[[358]]},{"type":"Polygon","properties":{"kind":"park","name":"Reserva Antropologica Tawahka","area":2707350016,"sort_rank":24,"source":"openstreetmap.org","min_zoom":4.0,"tier":2,"id":-553514,"osm_relation":true},"arcs":[[359]]},{"type":"MultiPolygon","properties":{"source":"naturalearthdata.com","kind":"urban_area","name":"","area":3670149135,"sort_rank":11,"min_zoom":4.0},"arcs":[[[360]],[[361]],[[362]]]},{"type":"Polygon","properties":{"kind":"national_park","name":"Parque Nacional Mirador-R\u00edo Azul","area":1305799936,"sort_rank":18,"source":"openstreetmap.org","min_zoom":3.0,"tier":1,"id":-546716,"osm_relation":true},"arcs":[[363]]},{"type":"Polygon","properties":{"kind":"national_park","name":"Sarstoon-Temash National Park","area":184012000,"sort_rank":18,"operator":"Forest Department and Sarstoon Temash Institute for Indigenous Management","source":"openstreetmap.org","min_zoom":5.0,"tier":1,"id":-6560617,"osm_relation":true,"protect_class":"2"},"arcs":[[364]]},{"type":"Polygon","properties":{"kind":"park","name":"Bosaw\u00e1s Biosphere Reserve","area":7939850240,"sort_rank":24,"source":"openstreetmap.org","min_zoom":4.0,"tier":2,"id":-5748204,"osm_relation":true},"arcs":[[365]]}]}},"type":"Topology","transform":{"translate":[-90.0,11.1784018737],"scale":[0.002746582,0.0026280868]},"arcs":[[[294,1984],[3,39],[7,107],[6,99],[-1,108],[-2,106],[-1,82]],[[1603,12],[10,-6],[7,-6]],[[1586,0],[5,7],[12,5]],[[618,2779],[3,-1],[5,-4],[2,-15],[4,-5],[6,-1],[44,0],[32,1],[0,-37],[-1,-47],[3,-4],[6,-1],[18,0],[3,0],[3,-2],[6,-3],[2,-1],[6,2],[4,4],[2,7],[4,5],[3,0],[3,-3],[-1,-8],[2,-2],[2,0],[13,1]],[[219,1243],[1,-7]],[[201,1232],[6,1],[8,9],[4,1]],[[222,1240],[10,-8]],[[220,1236],[1,3],[1,1]],[[187,1236],[6,-1],[4,-2],[4,-1]],[[167,1219],[5,3],[9,11],[2,2],[4,1]],[[157,1230],[5,0],[4,-4],[1,-7]],[[87,1085],[5,3],[0,2],[0,1],[-3,5],[0,3],[1,3],[16,28],[7,8],[9,7],[10,5],[39,9],[2,3],[0,6],[-1,1],[-5,3],[-1,1],[-1,3],[-1,6],[0,1],[-2,4],[-1,2],[-2,2],[-3,1],[-8,1],[-2,5],[2,4],[4,2],[2,4],[-1,4],[-2,4],[-2,4],[2,7],[6,3]],[[65,1096],[7,-1],[9,-8],[6,-2]],[[0,1057],[32,22],[8,8],[4,3],[16,6],[5,0]],[[232,1232],[6,-1],[14,-2],[11,-6],[19,-4],[9,-7],[17,-5]],[[323,1225],[2,-1],[2,-1],[2,-3],[2,-4],[0,-4],[0,-3],[-1,-4],[4,-4],[12,-1],[6,-3],[2,-5],[2,-12],[1,-3],[10,-7],[3,-4],[3,-6],[2,-5],[0,-1],[0,-4],[1,-4],[4,-2]],[[308,1207],[3,4],[6,10],[3,3],[3,1]],[[393,1150],[5,0],[9,-6],[8,-10],[5,-11],[3,-11]],[[380,1144],[3,1],[5,2],[5,3]],[[456,1116],[3,-4],[0,-7],[-2,-6],[-1,-5],[6,-4],[8,-1],[2,-1],[2,-2],[2,-3],[1,-3],[0,-2],[0,-1]],[[445,1112],[4,1],[4,3],[3,0]],[[429,1113],[16,-1]],[[423,1112],[6,1]],[[488,1080],[9,-1],[28,-9],[16,-1],[4,-2],[3,-3],[0,-1],[-1,-1]],[[477,1077],[2,1],[9,2]],[[643,1071],[5,-1],[1,0],[9,-2],[6,0]],[[640,1050],[2,0],[2,5],[-1,1],[-3,3],[-1,2],[0,7],[0,2],[4,1]],[[683,1070],[9,0],[4,-4],[6,-14],[5,-6],[7,-7],[6,-7],[3,-9]],[[664,1068],[19,2]],[[547,1062],[-2,0]],[[545,1062],[1,-1],[2,-4],[-1,-5],[-1,-4],[-1,-6],[1,-4],[4,-10],[1,-6],[-4,-5]],[[637,1050],[3,0]],[[609,1030],[3,5],[4,1],[4,0],[4,2],[3,3],[1,2],[2,2],[2,3],[5,2]],[[794,1042],[4,-3],[3,-10],[3,-5],[2,-1],[5,-2],[3,-1],[5,-5],[11,-9],[6,-3],[-3,-5],[-8,-18],[-1,-6],[2,-6],[-2,-4],[-3,-4],[-4,-4],[-1,-7],[0,-14],[0,-7],[-9,-22],[-2,-10],[3,-9],[4,-1]],[[775,1032],[4,0],[3,2],[3,4],[4,3],[5,1]],[[765,1033],[3,0],[7,-1]],[[755,1028],[2,1],[5,3],[3,1]],[[745,1033],[3,-1],[5,-3],[2,-1]],[[723,1023],[16,8],[6,2]],[[601,1032],[3,0],[3,-1],[2,-1]],[[597,1025],[1,1],[0,2],[0,3],[1,1],[2,0]],[[585,1028],[4,0],[5,-3],[3,0]],[[547,1017],[10,1],[7,4],[6,3],[15,3]],[[820,888],[5,-2],[3,-3],[2,-5],[1,-5],[-1,-5],[-7,-7],[-28,-13]],[[812,886],[8,2]],[[1803,1304],[2,3],[8,8],[-10,7],[-2,4],[6,2],[1,0],[2,3],[2,14],[3,6],[5,4],[0,1],[6,4]],[[1789,1281],[8,4],[13,13],[2,5],[0,1]],[[1812,1304],[-9,0]],[[1770,1294],[7,-2],[6,-6],[6,-5]],[[1694,1168],[1,1],[1,1],[1,3],[3,3],[1,3],[2,2],[4,1],[9,4],[3,1],[14,0],[9,1],[9,3],[8,5],[4,6],[0,9],[-5,8],[-7,6],[-5,4],[9,7],[1,3],[-1,6],[0,2],[9,9],[1,3],[1,19],[1,10],[3,6]],[[1690,1169],[4,-1]],[[1585,1069],[1,0],[-1,4],[12,4],[4,4],[3,5],[8,3],[3,1],[6,1],[7,2],[4,5],[0,6],[3,5],[13,4],[6,4],[9,7],[4,6],[4,7],[3,7],[3,10],[4,6],[4,5],[3,4],[2,0]],[[1449,1095],[0,-5],[-4,-8],[1,-10],[26,-19],[8,-10],[2,-3],[5,-2]],[[1307,978],[19,1],[7,2],[5,3],[4,5],[2,5],[3,12],[6,9],[24,26],[12,20],[4,3],[4,1],[5,3],[4,4],[3,5],[1,4],[2,3],[4,4],[5,2],[28,5]],[[1584,1069],[1,0]],[[1581,1067],[2,0],[0,2],[1,0]],[[1578,1068],[3,-1]],[[1566,1059],[4,2],[8,7]],[[1556,1060],[3,-1],[7,0]],[[1550,1007],[1,0],[2,3],[3,6],[1,6],[-2,4],[-5,2],[-2,3],[2,7],[3,12],[1,8],[2,2]],[[1499,1041],[8,-4],[4,-6],[4,-8],[5,-7],[8,-3]],[[1487,1038],[3,1],[4,2],[5,0]],[[1537,1013],[7,-1],[5,-5],[1,0]],[[1528,1013],[9,0]],[[1259,991],[12,-7],[7,-2]],[[1215,984],[30,6],[14,1]],[[1293,987],[6,-6],[2,-1],[4,-1],[2,-1]],[[1278,982],[5,2],[5,2],[5,1]],[[1199,986],[16,-2]],[[1184,793],[3,0],[3,2],[2,2],[5,5],[3,5],[1,6],[-2,11],[-1,2],[-3,5],[-2,2],[-3,0],[-2,2],[-1,3],[0,6],[5,10],[1,6],[-12,46],[0,6],[2,13],[0,6],[-2,2],[-3,3],[-1,1],[-2,2],[0,3],[1,20],[0,7],[1,5],[0,3],[2,1],[4,3],[9,4],[7,1]],[[1153,805],[6,-1],[21,-10],[4,-1]],[[1080,685],[1,7],[8,3],[9,6],[5,5],[8,14],[2,1],[5,3],[2,2],[1,4],[-1,1],[-2,1],[-1,2],[3,20],[-1,1],[-2,7],[-1,2],[1,1],[2,10],[3,6],[3,3],[17,16],[5,3],[6,2]],[[1061,692],[6,-1],[8,-5],[5,-1]],[[978,686],[83,6]],[[2407,1466],[4,-4],[5,-2],[4,-2],[1,-5]],[[2381,1447],[9,1],[7,5],[6,6],[4,7]],[[2367,1459],[5,-1],[2,-2],[4,-7],[3,-2]],[[2362,1442],[0,6],[1,2],[1,3],[-2,4],[1,2],[4,0]],[[2433,1457],[16,-2],[-4,-2],[0,-2],[2,-2],[5,-2]],[[2421,1453],[6,4],[6,0]],[[2496,1452],[5,1]],[[2484,1453],[12,-1]],[[2469,1447],[10,5],[5,1]],[[2453,1448],[16,-1]],[[2452,1447],[1,1]],[[2358,1446],[4,-4]],[[2357,1434],[-1,6],[0,4],[2,2]],[[2349,1437],[6,-1],[2,-2]],[[2322,1406],[2,0],[2,4],[1,5],[2,5],[9,3],[9,7],[5,2],[-1,1],[-1,3],[-1,1]],[[2304,1412],[8,0],[7,-2],[3,-4]],[[2289,1393],[3,0],[-4,11],[2,4],[7,3],[7,1]],[[2281,1398],[4,0],[3,-2],[1,-3]],[[2232,1369],[4,4],[7,4],[7,2],[7,0],[-3,2],[-2,2],[-2,5],[20,1],[8,3],[-1,6],[4,0]],[[1887,1389],[9,-3],[8,-6],[5,-9],[-1,-1],[-3,-4],[0,-1],[8,0],[1,-5],[-1,-5],[8,-5],[3,-7],[6,-13]],[[1826,1360],[7,5],[16,16],[6,3],[22,5],[10,0]],[[2212,1379],[4,-2],[6,-6],[5,-2]],[[2176,1362],[36,2],[-2,3],[0,4],[2,8]],[[2147,1376],[8,-6],[1,-1],[1,-2],[4,0]],[[2147,1352],[3,2],[0,3],[-3,3],[-3,3],[-4,9],[4,4],[3,0]],[[2225,1375],[2,-2],[2,0],[1,-1],[2,-3]],[[2227,1369],[-1,2],[-1,4]],[[2167,1367],[2,-1],[1,-3],[6,-1]],[[2161,1367],[6,0]],[[2094,1363],[5,-2],[3,-2],[3,-2],[9,-10],[4,-2]],[[2080,1328],[7,4],[2,8],[-2,18],[2,4],[5,1]],[[2141,1354],[3,-1],[2,-1],[1,0]],[[2118,1345],[5,1],[9,2],[2,2],[2,1],[2,2],[3,1]],[[2052,1346],[4,-4],[3,-10],[2,-2],[6,0],[9,-2],[4,0]],[[2009,1309],[4,2],[9,5],[14,5],[7,8],[5,10],[4,7]],[[1937,1334],[7,0],[14,-6],[8,-2],[27,-1],[-2,-3],[-1,-7]],[[1930,1330],[7,4]],[[1996,1317],[3,-3],[4,-3],[6,-2]],[[1990,1315],[6,2]],[[578,2782],[2,0],[3,-4],[3,-1]],[[561,2777],[3,0],[7,3],[4,2],[3,0]],[[550,2780],[4,0],[3,-2],[4,-1]],[[408,2553],[3,1],[2,3],[2,9],[1,2],[19,14],[3,4],[6,15],[1,4],[6,4],[5,3],[4,3],[4,6],[1,4],[1,9],[1,4],[9,15],[1,4],[-1,5],[-1,1],[10,8],[11,5],[4,3],[4,6],[1,5],[0,1],[1,6],[1,6],[3,7],[12,13],[4,7],[1,4],[2,10],[3,9],[2,11],[2,4],[3,3],[11,9]],[[615,2779],[3,0]],[[586,2777],[2,0],[2,1],[3,1],[22,0]],[[346,2595],[8,-2],[6,-6],[5,-6],[6,-5],[5,0]],[[306,2525],[-1,33],[3,15],[8,11],[30,11]],[[380,2577],[3,-1],[5,-11],[5,-3],[15,-9]],[[376,2576],[4,1]],[[0,2525],[66,0],[80,0],[80,0],[80,0]],[[648,1730],[-5,-1],[-1,-4],[1,-4],[-3,-5]],[[640,1716],[-2,3]],[[638,1719],[-6,-3],[-6,-3],[-5,-2],[-8,0],[-2,-3],[-11,-19],[-17,-17],[-25,-20],[-12,-9],[-32,-25],[-31,-25],[-32,-25],[-31,-24],[-46,-36],[-13,-7],[-37,-12],[-11,-6],[-2,-2],[-5,-4],[-5,-7],[-6,-17],[8,-7],[0,-10],[-5,-11],[-3,-4],[-3,-5],[-9,-8],[-3,-4],[-1,-8],[2,-5],[3,-5],[8,-9],[3,-5],[7,-17],[4,-5],[3,-3],[2,-3],[0,-1],[1,-6],[-1,-3],[-4,-5],[-1,-2],[2,-19],[-1,-7],[-1,-6],[-5,-4],[-4,-1]],[[297,1290],[-9,4],[-4,0]],[[284,1294],[-7,0],[-2,-2],[-2,-3],[-3,-4],[-12,-10],[-5,-6],[-4,-7],[-3,-3],[-8,-2],[-3,-2],[-3,-5],[0,-6],[0,-12]],[[281,1789],[-3,5],[0,5],[1,18],[9,88],[6,79]],[[382,1789],[-33,8]],[[349,1797],[-11,0],[-11,-2]],[[327,1795],[-28,2]],[[299,1797],[-6,-3],[-3,0],[-5,-2],[-3,-1],[-1,-2]],[[395,1794],[-13,-5]],[[896,3927]],[[723,3522],[9,3],[31,17],[30,25],[12,7],[19,16],[23,13],[11,23],[5,14],[8,12],[3,12],[1,13],[23,43],[-2,24],[-17,35],[1,15],[5,23],[15,21],[1,13],[-5,71],[0,5]],[[670,3531],[9,-7],[10,-4]],[[633,3457],[1,14],[-5,16],[6,13],[8,11],[6,10],[9,8],[12,2]],[[701,3523],[22,-1]],[[689,3520],[12,3]],[[602,3478],[12,-1],[7,-9],[4,-10],[8,-1]],[[440,3350],[4,6],[-3,8],[8,9],[22,14],[10,6],[12,6],[12,5],[20,5],[20,12],[21,6],[16,19],[10,25],[10,7]],[[423,3362],[9,-5],[8,-7]],[[251,3291],[40,5],[10,10],[8,10],[23,7],[12,8],[40,1],[6,2],[6,3],[4,4],[23,21]],[[239,3293],[12,-2]],[[213,3224],[7,13],[6,14],[3,12],[2,12],[-1,13],[9,5]],[[0,3525],[8,-11],[6,-10],[0,-9],[6,-15],[6,-6],[21,-15],[13,-23],[9,-27],[19,-19],[25,-10],[22,-16],[26,-49],[20,-20],[18,-23],[4,-27],[10,-21]],[[213,3224],[15,-22],[20,-17],[24,-16],[43,-39],[36,-44],[8,-27],[-3,-23],[1,-28],[-1,-6],[1,-13],[-6,-10],[-17,-18],[2,-28],[-12,-75],[3,-22],[13,-16],[3,-20],[-5,-5],[-2,-7],[6,-2],[6,-3],[-1,-9],[-3,-8],[-2,-9],[7,-34],[2,-26],[0,-24],[-8,-22],[-31,-37],[-4,-6],[3,-31]],[[425,1745],[-3,-6],[-12,-12],[-2,-4],[-1,-4],[-3,-3],[-4,0],[-7,3],[-3,-2],[-2,-4],[-3,-2],[-9,-2],[-3,-1],[-4,-6],[-2,-5],[2,-2],[1,-1],[-5,-8],[-2,-2],[0,-3],[0,-3],[4,-12],[1,-6],[0,-13],[-3,-1],[-33,-28],[-11,-6],[-11,-3],[-10,1],[-32,5],[0,-3],[4,0],[1,0],[-5,-7],[-10,-8],[-9,-4],[-6,6],[-2,5],[3,5],[1,4],[-4,4],[0,3],[2,5],[-4,5],[-7,2],[-6,-2],[-3,0],[-1,3],[0,2],[-2,0],[-4,0],[0,3],[6,3],[4,6],[5,5],[8,2],[23,-1],[4,1],[4,2],[4,6],[2,5],[3,4],[8,1],[2,1],[5,3],[3,1],[3,-1],[4,-3],[4,-1],[7,1],[13,5],[6,2],[6,2],[20,18],[3,5],[2,3],[3,2],[6,3],[6,4],[3,0],[2,2],[0,4],[0,2],[1,2],[1,2],[3,3],[2,0],[1,1],[0,2],[6,-1],[7,3],[6,5],[3,4],[3,7],[4,2],[4,-3],[-1,-7]],[[1411,444],[10,-6],[2,-7],[0,-8],[-4,-29],[-2,-8],[-4,-5],[-11,-4],[-55,-2],[-5,2],[-2,0],[-2,1],[0,2],[0,3],[1,2],[1,1],[5,2],[4,5],[2,6],[0,8],[-5,13],[-11,4],[-12,-2],[-10,-7],[-4,-5],[-3,-3],[-5,-1],[-11,9],[-33,14],[-10,6],[-7,9],[-1,15],[0,8],[1,3],[1,2],[3,2],[2,0],[2,-2],[1,-3],[3,-4],[6,-3],[8,-1],[8,1],[8,6],[6,9],[6,8],[11,3],[5,1],[9,3],[6,1],[7,2],[4,5],[4,3],[6,-2],[2,2],[3,0],[3,0],[2,-2],[2,-20],[-1,-3],[2,-3],[10,-11],[3,-2],[4,-6],[7,-28],[0,-10],[9,8],[9,11],[10,7]],[[365,1062],[11,-4],[2,-1],[0,-5],[-2,-2],[-3,-1],[-2,2],[-3,0],[0,-8],[-3,0],[-10,12],[-2,3],[-1,6],[-2,4],[-3,2],[-4,2],[0,3],[2,0],[0,1],[0,1],[3,-2],[0,3],[-1,2],[-2,1],[-2,1],[-4,0],[-7,8],[-4,-2],[-4,2],[-8,8],[-3,0],[-3,-2],[-4,1],[-3,3],[-2,3],[11,0],[4,0],[1,2],[0,3],[1,3],[3,-1],[2,-1],[-1,-3],[-1,-2],[2,-3],[3,0],[0,2],[1,1],[1,2],[5,-2],[1,1],[1,1],[2,-1],[2,-3],[1,-1],[2,1],[1,1],[5,-2],[4,1],[4,-4],[7,-13],[-4,-1],[-1,-3],[-1,-4],[1,-5],[1,-5],[1,-2],[5,-3]],[[2451,1192],[0,-2],[5,-6],[2,-7],[1,-7],[-3,-7],[-5,-4],[-3,2],[-4,6],[-5,4],[-2,-2],[-2,0],[-4,2],[-1,5],[-1,3],[0,3],[1,3],[2,2],[1,2],[1,1],[0,6],[-2,5],[-6,7],[0,2],[9,-3],[4,-2],[2,-3],[3,0],[-2,3],[-5,5],[-1,2],[1,5],[3,0],[3,-3],[6,-6],[3,-6],[2,-5],[-3,-5]],[[0,0],[0,954],[18,-8],[29,-17],[8,-5],[4,-4],[2,-9],[3,-13],[6,-4],[34,0],[13,3],[23,-8],[10,-2],[22,-6],[52,1],[9,-3],[13,0],[27,-6],[24,-11],[43,-27],[91,-43],[11,-6],[94,-17],[6,-3],[4,-4],[8,-4],[6,-1],[3,5],[-7,7],[-16,5],[-30,6],[0,3],[11,-4],[5,-1],[7,-1],[0,3],[-3,2],[-5,6],[-2,3],[-5,2],[-3,1],[-30,-4],[-10,3],[-2,-1],[-3,0],[-3,2],[-2,2],[5,2],[20,0],[15,3],[5,0],[12,-2],[4,-1],[3,-1],[6,-11],[7,-4],[15,-4],[6,-3],[1,4],[-1,4],[-2,4],[-1,6],[4,-3],[7,-10],[7,-3],[0,-2],[-5,-5],[-2,1],[-3,1],[2,-9],[7,-5],[9,0],[9,4],[0,3],[-5,-1],[-4,-1],[-2,0],[-4,2],[6,2],[6,1],[13,-1],[-2,4],[-4,6],[-1,3],[6,-5],[5,-7],[-1,-6],[-8,0],[0,-3],[5,-1],[5,-1],[9,2],[33,-5],[32,3],[6,2],[2,0],[12,-2],[50,-4],[13,4],[-8,5],[1,7],[7,6],[27,13],[8,6],[3,8],[0,5],[-1,2],[-7,5],[-12,12],[-4,1],[-7,5],[3,11],[10,18],[3,-8],[2,-3],[2,-2],[1,0],[5,-2],[2,-1],[4,0],[1,-1],[0,-3],[1,-2],[7,-3],[8,-5],[7,-1],[10,3],[10,7],[5,10],[-3,11],[3,4],[6,5],[4,1],[2,-6],[-1,-11],[1,-4],[5,-2],[-4,-10],[-1,-3],[3,0],[4,4],[7,0],[7,-3],[7,-1],[0,-3],[-6,0],[0,-2],[4,-2],[3,0],[6,2],[12,-1],[3,1],[3,3],[0,2],[-1,3],[0,5],[2,3],[2,2],[6,5],[4,-3],[3,-1],[7,1],[3,0],[3,-2],[5,-5],[0,-3],[0,-2],[0,-3],[-11,-5],[-6,-1],[-5,1],[-3,-3],[-7,-10],[-3,-3],[-6,-3],[-3,-2],[-4,-4],[0,-3],[1,-3],[3,-3],[1,-1],[3,1],[2,0],[1,-2],[2,-6],[8,-10],[7,-13],[5,-15],[1,-15],[2,0],[7,3],[12,-2],[21,-5],[-4,-2],[-11,-1],[-3,-1],[0,-6],[0,-2],[3,-4],[4,-6],[6,-3],[7,-1],[10,-1],[0,-2],[-5,-2],[-4,-3],[-2,-3],[-1,-5],[-4,-3],[-2,-2],[-18,-9],[-4,-6],[4,-3],[10,-1],[19,0],[0,-2],[-38,-3],[-15,4],[-12,12],[0,2],[0,6],[0,2],[-1,1],[-5,3],[-2,2],[-6,9],[-2,1],[-10,8],[-1,1],[-2,2],[-4,1],[-5,1],[-4,0],[1,2],[1,8],[-2,0],[-2,-14],[-8,-9],[-10,-6],[-11,-10],[-6,-13],[0,-11],[5,-9],[9,-8],[43,-27],[8,-8],[5,-4],[4,0],[0,4],[-5,5],[-10,6],[0,3],[7,-2],[8,-5],[7,-5],[0,-4],[0,-2],[4,-3],[1,0],[0,-3],[-4,3],[-1,1],[-2,2],[5,-10],[40,-48],[1,2],[3,4],[1,2],[2,-7],[1,-4],[3,-3],[23,-18],[5,-2],[7,-7],[9,-12],[6,-5],[-4,14],[3,0],[8,-16],[3,-3],[5,-1],[5,-4],[9,-10],[-8,1],[-9,4],[-7,5],[-4,5],[1,-9],[25,-11],[11,-12],[21,-13],[4,-5],[75,-47],[9,-8],[4,-6],[12,-36],[14,-24],[9,-11],[9,-7],[4,-5],[2,-5],[1,-6],[6,-12],[6,-8],[9,-10],[4,-2],[4,-3],[10,-23],[7,-9],[43,-34],[4,-12],[5,-6],[6,-4],[33,-15],[14,-14],[11,-5],[4,-11],[1,-4],[5,-4],[16,-10],[13,-13],[9,-5],[13,-16],[5,-5],[13,-4],[1,-1],[6,-4],[1,-1],[4,-3],[38,-45],[4,-5],[-1525,0]],[[835,774],[-5,1],[-2,-2],[0,-4],[-1,-5],[2,-4],[0,-4],[3,1],[5,-2],[3,2],[-2,4],[0,6],[-3,7]],[[814,775],[3,2],[2,3],[-3,6],[-3,1],[-3,0],[-2,-2],[1,-6],[5,-4]],[[869,795],[0,6],[-1,3],[-11,0],[-4,-1],[-6,-2],[1,-2],[3,-4],[1,-2],[-3,0],[0,-2],[2,-2],[1,0],[5,-1],[8,1],[4,6]],[[882,814],[-4,15],[6,3],[0,3],[-5,0],[-10,-3],[-3,1],[-5,2],[-3,-2],[-5,-7],[-1,-7],[8,-4],[17,-6],[5,5]],[[4096,3956],[0,-3956],[-1855,0],[-8,36],[0,39],[1,6],[4,6],[11,15],[3,0],[7,-1],[5,13],[4,18],[4,12],[2,3],[3,1],[4,1],[4,0],[4,1],[3,6],[3,1],[1,1],[5,2],[5,1],[1,-1],[2,2],[2,3],[0,3],[1,5],[-1,13],[-17,70],[-4,3],[-6,-1],[-3,-1],[-2,-4],[-2,-7],[0,-3],[2,-3],[-1,-1],[-5,-1],[-4,0],[-3,2],[-3,2],[-3,7],[-5,6],[-6,5],[-5,4],[2,3],[3,3],[3,3],[4,1],[2,2],[6,9],[2,1],[2,0],[2,2],[2,2],[0,2],[-1,3],[-1,2],[-1,2],[1,3],[3,7],[1,3],[0,5],[-1,5],[-2,4],[-2,3],[-9,4],[-4,3],[2,1],[15,-5],[6,0],[2,8],[1,6],[6,8],[1,6],[-1,5],[-3,4],[-6,7],[-2,0],[-5,-5],[-6,3],[-1,6],[12,1],[6,-3],[7,-7],[5,-7],[1,-6],[-2,-9],[-6,-4],[-3,-4],[4,-10],[9,-11],[3,-7],[-2,-8],[3,1],[2,2],[-2,8],[-3,49],[8,45],[17,35],[-2,3],[-7,1],[-3,-2],[-2,-5],[-6,-19],[-2,-4],[0,2],[0,5],[2,7],[0,4],[-2,6],[-11,-3],[-7,4],[-3,7],[2,7],[2,8],[2,8],[-3,17],[-3,3],[-2,1],[-3,0],[-4,1],[-4,0],[-1,-1],[0,1],[0,20],[2,5],[7,2],[16,2],[11,5],[20,16],[11,7],[-4,6],[-1,2],[2,3],[0,2],[1,7],[-1,4],[-1,1],[-2,1],[-2,3],[0,3],[-1,6],[0,1],[0,1],[-8,5],[-3,6],[-1,8],[4,7],[7,5],[10,0],[9,-2],[7,-6],[2,-10],[-2,-3],[-1,-2],[-2,-1],[0,-1],[-1,-21],[-1,-5],[-3,-4],[0,-3],[4,-11],[-3,-18],[-9,-11],[-13,4],[-2,0],[-1,-2],[-1,-1],[1,-9],[0,-25],[8,-7],[2,-6],[1,-5],[0,-5],[-2,-2],[-8,-6],[-2,-3],[7,-4],[8,2],[9,3],[9,2],[12,0],[7,3],[4,6],[1,12],[-2,9],[-10,15],[-4,12],[-5,11],[-1,4],[0,22],[12,100],[-8,50],[-12,75],[-2,5],[2,2],[-2,5],[-1,9],[4,49],[7,25],[7,19],[0,8],[2,9],[-1,18],[9,44],[14,48],[9,35],[5,12],[7,11],[17,12],[3,5],[2,6],[13,16],[30,50],[10,24],[2,13],[-2,15],[-18,52],[-3,18],[-3,7],[-1,2],[-14,67],[-4,3],[-2,-2],[0,-9],[-3,5],[-4,4],[-4,1],[-4,-2],[3,-1],[7,-5],[2,-2],[-5,-7],[-6,2],[-5,5],[-5,3],[-2,3],[-4,16],[-5,4],[-1,-2],[-4,-3],[4,9],[16,21],[7,6],[4,3],[6,2],[6,-1],[2,-8],[1,-7],[4,-10],[0,-7],[-3,3],[-3,2],[-5,-1],[-4,-2],[0,-2],[3,-2],[1,0],[3,2],[0,-3],[0,-2],[-1,-1],[-1,-2],[0,2],[-3,-3],[-1,-2],[-1,-2],[13,5],[4,3],[3,5],[1,4],[0,8],[1,3],[2,3],[5,5],[1,1],[1,6],[3,6],[5,6],[5,2],[2,4],[4,8],[4,5],[5,-7],[4,4],[6,3],[3,4],[-45,18],[-11,9],[-10,15],[-6,15],[-6,24],[-4,8],[-19,14],[-49,18],[-39,21],[-4,1],[-5,3],[-5,5],[-5,3],[-6,-3],[-2,-7],[5,-3],[8,-3],[4,-4],[3,-2],[16,-6],[5,-1],[-1,-4],[-1,-1],[2,-3],[7,3],[5,-1],[11,-7],[7,4],[4,-5],[3,-7],[1,-5],[2,-4],[2,-2],[2,-2],[1,-2],[2,-5],[0,-1],[-16,-6],[-3,-2],[-2,-2],[-3,-6],[-2,-2],[-8,-3],[-4,3],[-3,6],[0,10],[-3,0],[-2,-3],[0,-2],[0,-2],[2,-4],[-2,-1],[-3,-1],[-2,0],[-1,4],[1,4],[1,2],[2,1],[1,2],[3,5],[2,4],[2,1],[3,0],[4,-1],[3,-1],[1,-2],[2,-6],[4,-2],[5,3],[2,5],[0,12],[-1,2],[-1,2],[-1,2],[3,2],[0,2],[-7,-1],[-23,5],[-3,1],[-2,0],[-3,-2],[0,-3],[0,-8],[-1,-2],[-13,-2],[-8,-2],[-5,-4],[-6,-11],[-4,-1],[-3,7],[-2,0],[0,-5],[-2,-3],[-3,0],[-3,3],[-1,4],[1,14],[-2,11],[-4,-1],[-5,-3],[-6,1],[0,2],[2,1],[3,3],[2,2],[-3,4],[-4,5],[-4,3],[-10,2],[-7,3],[-5,3],[-2,4],[-5,8],[-32,15],[-9,-3],[-3,-2],[-3,-3],[4,-3],[8,-13],[5,-3],[28,-10],[4,0],[3,-1],[1,-2],[2,-2],[2,-3],[16,-8],[4,-5],[-5,-4],[-8,-3],[-9,-2],[-6,-1],[-8,1],[-6,5],[-5,6],[-3,6],[0,3],[5,2],[2,0],[3,0],[0,3],[-17,-3],[-7,2],[-5,6],[3,6],[-2,6],[-4,5],[-5,4],[3,-11],[-3,-4],[-8,2],[-10,5],[-6,7],[-6,10],[-3,10],[4,4],[8,4],[-2,8],[-6,10],[-5,13],[-3,2],[-4,-1],[-3,-11],[-7,-3],[-2,-6],[-2,0],[1,4],[1,5],[0,3],[-7,2],[-2,3],[-3,9],[4,-1],[7,-1],[4,0],[6,2],[5,1],[4,-1],[4,-5],[11,-21],[2,0],[1,1],[1,1],[1,1],[-5,5],[-4,7],[-2,7],[1,4],[3,0],[4,0],[4,0],[1,-1],[0,-3],[-2,-2],[-5,-4],[10,-4],[2,-1],[6,3],[2,3],[4,3],[7,1],[5,-3],[5,-4],[5,-3],[4,2],[2,0],[12,-14],[3,-4],[-1,-1],[-2,-1],[-2,-1],[5,-4],[4,-1],[11,0],[4,-2],[7,-5],[10,-3],[14,-11],[6,-3],[6,1],[2,2],[0,3],[-3,4],[-3,1],[-13,3],[-6,3],[-7,4],[-28,17],[-21,18],[-39,33],[-39,34],[-27,22],[-20,17],[-7,2],[-22,1],[-32,4],[-51,9],[-14,3],[3,-6],[9,-4],[11,-5],[29,-5],[9,-2],[8,-3],[-6,-3],[-3,-4],[-18,3],[-9,1],[-9,-2],[-6,5],[-3,5],[-3,0],[-1,-4],[-2,-7],[-9,-3],[-7,1],[-7,7],[0,10],[0,6],[4,7],[2,5],[-5,4],[-21,7],[-44,13],[-35,16],[-18,6],[-27,-1],[-18,-10],[-26,-20],[-21,-8],[-39,-2],[-27,-2],[-19,-2],[-28,7],[-16,7],[-8,6],[-6,5],[-3,5],[-6,0],[-1,0],[-1,-1],[-1,-1],[0,-3],[-3,0],[-1,4],[0,5],[-1,5],[-4,2],[-5,1],[-18,4],[-17,5],[-13,2],[-20,4],[-28,5],[-10,-1],[-1,-4],[11,-3],[23,-3],[6,-8],[-4,-9],[-7,-8],[-15,-11],[-3,-2],[-5,-1],[-52,-2],[-12,-3],[-13,-5],[-4,-4],[-9,-10],[-35,-22],[-6,-2],[-7,-2],[-9,1],[-6,2],[-8,5],[-1,1],[-11,4],[-12,0],[-71,-6],[-16,2],[-1,1],[-5,2],[-4,2],[-2,-2],[-2,0],[-6,-5],[-1,-1],[-6,-1],[-23,-7],[-13,-2],[-13,2],[-39,9],[-34,3],[-33,12],[-37,9],[-8,-1],[-5,-3],[-2,-7],[-2,-1],[-10,0],[-3,0],[-2,-2],[-4,-6],[-2,-2],[-11,-3],[-11,5],[-34,31],[-2,3],[-3,3],[2,5],[7,10],[-13,-8],[-3,-4],[3,-4],[0,-2],[-6,0],[-16,10],[-6,2],[-7,1],[-2,0],[-3,-1],[-2,-6],[-6,-2],[-32,-2],[-11,-3],[-5,-5],[-7,-2],[-15,0],[-1,-1],[1,-3],[4,-2],[4,-2],[2,-1],[-1,-4],[-3,-5],[-21,-13],[-14,2],[-4,-2],[2,-6],[-9,-5],[-21,-23],[-10,-4],[-9,2],[-16,12],[-2,1],[-13,6],[-16,14],[-4,2],[-12,11],[-38,18],[-19,16],[-8,4],[-10,12],[-4,2],[-11,5],[-5,3],[-6,-6],[5,-6],[16,-9],[2,-3],[3,-4],[2,-4],[7,-3],[5,-4],[8,-8],[-5,-2],[-11,2],[-4,-3],[-2,0],[0,2],[0,4],[-3,0],[0,-6],[3,-9],[0,-6],[-2,-3],[-4,-4],[-3,-4],[-1,-6],[-2,-3],[-3,-1],[-3,0],[-2,0],[0,-3],[1,-2],[1,-1],[0,-2],[1,0],[0,-3],[-1,-3],[-4,-2],[-9,0],[-1,3],[4,17],[-36,23],[-9,2],[-1,8],[-12,7],[-17,4],[-12,-4],[-13,11],[-5,2],[2,9],[-8,16],[1,10],[5,5],[6,5],[6,4],[9,2],[1,4],[0,4],[1,4],[2,2],[1,2],[4,4],[4,2],[3,1],[2,2],[2,7],[2,3],[2,2],[2,1],[6,1],[5,4],[4,6],[1,7],[-1,15],[2,6],[5,3],[5,0],[2,2],[2,2],[2,1],[12,2],[3,1],[1,2],[0,7],[0,1],[2,1],[3,0],[3,0],[1,-2],[3,-5],[5,-3],[5,1],[2,8],[3,0],[0,-16],[1,7],[1,1],[2,1],[4,1],[2,1],[1,0],[3,0],[1,0],[0,1],[0,3],[0,1],[1,2],[1,5],[1,2],[10,13],[3,1],[1,2],[5,12],[1,2],[1,1],[1,0],[2,2],[0,-1],[1,0],[2,0],[2,1],[0,2],[1,9],[0,2],[7,3],[8,15],[7,5],[-2,3],[-1,2],[1,5],[3,3],[3,3],[0,2],[-3,0],[-2,1],[-1,1],[-1,4],[3,-2],[3,0],[2,0],[2,2],[-5,2],[-2,0],[7,10],[10,25],[10,5],[-2,-4],[-7,-7],[-11,-43],[1,-6],[3,0],[2,4],[2,3],[-3,10],[1,7],[2,4],[5,16],[3,5],[3,3],[3,4],[3,27],[0,4],[-2,6],[0,4],[0,4],[2,3],[2,2],[1,2],[1,3],[1,2],[5,4],[2,0],[4,0],[2,0],[0,2],[-1,2],[-1,1],[-1,0],[-1,7],[-7,11],[-2,7],[2,6],[4,7],[5,5],[4,4],[4,1],[3,0],[2,1],[1,5],[-2,9],[-1,12],[-2,8],[-3,8],[-4,5],[-8,3],[-4,2],[-1,5],[-2,8],[0,4],[0,1],[-2,7],[-2,8],[1,15],[0,8],[4,38],[15,51],[1,6],[4,3],[9,-1],[10,0],[4,7],[-3,3],[-15,3],[-4,3],[-3,6],[-13,6],[-4,5],[-2,9],[2,8],[4,7],[9,11],[3,7],[9,31],[5,32],[-3,10],[15,29],[7,5],[13,35],[2,6],[5,9],[1,6],[3,35],[-3,45],[-1,2],[-4,-1],[-4,-2],[-3,-2],[-2,-4],[-4,-2],[-2,1],[0,4],[2,2],[8,4],[7,5],[2,4],[1,5],[-2,2],[-4,-1],[-13,-4],[-11,-8],[-8,-1],[-4,2],[-11,5],[-8,1],[-6,-1],[-6,-3],[-12,-8],[-6,-7],[-3,-3],[-3,0],[-1,2],[2,3],[8,11],[4,6],[2,5],[-18,-8],[-5,1],[-4,6],[2,5],[29,20],[7,10],[-6,5],[0,2],[0,1],[1,1],[2,1],[4,1],[3,7],[8,11],[2,6],[10,19],[8,11],[9,19],[2,0],[4,3],[2,2],[-3,2],[-4,0],[-4,-3],[-3,-4],[-2,-3],[1,7],[3,5],[1,5],[-2,7],[-4,-8],[-6,-7],[-8,-6],[-7,-3],[1,4],[2,4],[2,2],[16,14],[3,2],[8,0],[7,2],[4,5],[1,2],[-2,-7],[-1,-7],[3,-3],[3,3],[3,5],[2,6],[0,6],[3,10],[8,11],[9,10],[8,7],[2,-16],[3,-6],[4,-6],[3,-6],[0,-8],[-2,-16],[-1,0],[0,-2],[-1,-2],[-1,-2],[1,-2],[2,-3],[2,-1],[0,-1],[0,-4],[-4,-7],[-1,-3],[-3,-6],[-5,-8],[-4,-8],[2,-8],[-12,-14],[0,-3],[-1,-6],[1,-6],[4,-2],[8,-3],[19,-10],[10,-3],[7,-1],[4,-2],[1,-4],[2,-6],[-1,0],[-2,-3],[0,-3],[2,-2],[1,0],[10,-2],[1,-3],[0,-4],[0,-3],[0,-2],[5,-6],[1,-1],[-1,-6],[-2,-4],[-1,-4],[2,-4],[2,2],[2,4],[2,3],[1,4],[0,-5],[-1,-10],[-2,-9],[-3,-5],[-3,-3],[1,-5],[5,-1],[6,7],[1,-8],[1,-11],[3,0],[0,25],[1,6],[5,12],[1,6],[2,5],[17,26],[4,9],[1,27],[2,6],[5,8],[1,8],[-2,16],[2,17],[5,14],[7,11],[9,11],[6,10],[13,47],[8,50],[8,12],[8,19],[4,12],[-3,9],[5,7],[4,20],[4,9],[9,14],[6,6],[7,4],[0,2],[-7,0],[-5,-4],[-3,-5],[-5,-4],[8,16],[-17,-2],[-9,-2],[-4,-5],[-2,-7],[-3,-7],[-10,-11],[-7,-7],[-4,0],[-4,3],[-6,1],[-4,4],[2,9],[8,16],[-6,2],[3,4],[5,6],[3,6],[-2,0],[-3,-8],[-3,0],[5,15],[13,12],[17,9],[13,4],[-2,-6],[-1,-4],[-3,-4],[-7,-2],[14,2],[3,2],[10,10],[2,2],[6,1],[6,5],[6,7],[4,7],[3,25],[3,4],[1,4],[-3,8],[-7,14],[0,-6],[-3,-10],[0,-2],[0,-3],[-22,3],[-7,0],[5,-2],[4,-2],[10,-1],[12,0],[3,1],[0,2],[-2,5],[5,-2],[0,-7],[-5,-7],[-10,-3],[0,3],[5,2],[-2,1],[-1,0],[-1,1],[-1,1],[-2,-3],[-3,1],[-2,2],[-3,0],[-2,-2],[0,-2],[-1,-3],[-2,-1],[-2,1],[-8,4],[-10,3],[-5,-2],[-11,-4],[-4,-2],[-4,-5],[-4,-6],[-5,-4],[-7,0],[2,6],[1,11],[2,6],[-4,0],[-4,0],[-4,1],[-3,2],[-1,3],[-10,7],[-4,5],[-1,6],[0,8],[1,8],[3,4],[4,0],[19,0],[4,0],[2,-5],[-2,-5],[-3,-5],[-4,-3],[4,-1],[4,5],[4,12],[6,12],[4,11],[7,13],[7,10],[6,1],[3,5],[2,1],[3,-2],[3,-3],[3,0],[3,2],[2,3],[2,2],[3,3],[16,23],[-4,-3],[-2,-1],[-2,-2],[2,4],[0,5],[-2,12],[-1,3],[-3,3],[-1,3],[2,3],[2,1],[3,-1],[1,-3],[1,-6],[1,-3],[7,-6],[-1,-15],[-1,-5],[-1,-4],[-3,-1],[-3,-2],[-4,-1],[-1,-1],[0,-5],[1,-15],[2,4],[4,17],[3,2],[2,1],[2,2],[3,14],[1,4],[-2,8],[-8,15],[-3,9],[-1,32],[2,16],[8,30],[5,12],[7,9],[11,8],[-2,3],[0,4],[2,2],[5,2],[4,12],[44,63],[20,21],[15,9],[6,6],[20,12],[4,5],[7,12],[34,38],[25,35],[0,4],[9,20],[6,20],[1,5],[0,8],[1,3],[2,3],[2,2],[5,2],[2,1],[2,1],[2,0],[1,0],[0,3],[0,2],[-2,3],[0,3],[4,10],[2,3],[8,17],[1,2],[1,2],[1,4],[-18,-3],[-8,18],[-3,25],[0,18],[0,5],[4,9],[0,6],[0,5],[-6,19],[-4,2],[-9,0],[-8,3],[-3,-1],[-2,-5],[-4,2],[-3,1],[-2,3],[-2,8],[-2,3],[-2,3],[-2,4],[-19,27],[-10,11],[-7,3],[-24,8],[-9,-1],[-40,-19],[-10,-3],[-7,1],[-4,2],[-11,2],[-9,0],[-3,0],[-2,-2],[-4,-4],[-11,-10],[-1,-5],[2,-3],[3,-1],[4,2],[-2,0],[-1,1],[0,1],[7,3],[10,7],[5,3],[1,-2],[2,-6],[2,3],[7,-3],[9,-2],[9,0],[7,4],[6,5],[8,4],[8,3],[9,-1],[5,-2],[1,-1],[-1,-3],[0,-3],[1,-3],[1,-3],[1,-3],[-2,-4],[-3,-3],[-4,-8],[-4,-3],[-26,-11],[-7,-1],[-6,3],[-6,2],[-23,-1],[-20,7],[-8,1],[-16,-2],[-7,0],[-3,5],[2,0],[1,-2],[2,-1],[2,1],[2,2],[-4,0],[-3,3],[-1,3],[-1,1],[-4,1],[-10,-1],[-9,1],[-20,7],[-24,3],[-2,-2],[6,-3],[7,-2],[16,-1],[-7,-3],[-6,1],[-11,2],[-25,0],[-12,1],[-12,4],[-11,6],[-9,7],[8,-2],[25,-5],[6,-2],[3,-2],[5,-1],[4,0],[4,2],[3,2],[-1,1],[-22,6],[-32,5],[-15,4],[-23,10],[-9,1],[-31,0],[-16,4],[-5,1],[-3,-1],[-8,-4],[-10,-1],[-8,-3],[-8,-4],[-1,-4],[3,1],[14,3],[13,7],[8,0],[9,-2],[7,-3],[-23,1],[-5,-2],[-5,-3],[-7,-2],[-20,-2],[-12,-4],[-6,-1],[-7,1],[-12,6],[-6,1],[-29,0],[-7,-2],[-13,-6],[-7,-2],[-23,-3],[-7,-3],[-23,-20],[-13,-8],[-44,-11],[-13,-5],[-7,-2],[-16,-1],[-24,-7],[-31,-6],[-3,0],[-7,-4],[-4,-1],[-4,0],[-9,3],[-14,-2],[-30,-8],[-69,-7],[-51,-9],[-29,0],[-39,-7],[-37,-13],[-6,-1],[-6,-2],[-23,-16],[-6,-3],[0,286],[1908,0],[-23,-12],[0,7],[-4,4],[-5,0],[-6,-3],[6,-4],[0,-5],[-5,-5],[-6,-2],[-3,0],[-3,0],[-3,1],[-3,2],[-1,2],[-1,2],[-1,2],[-2,1],[-3,-1],[-2,-2],[-2,-3],[-1,-3],[-1,-6],[1,-6],[3,-6],[5,-4],[15,-4],[16,-1],[14,4],[37,24],[14,6],[29,9],[16,2],[15,-3],[8,-11],[-3,-15],[-14,-30],[4,-7],[16,1],[15,9],[43,35],[12,3],[8,5],[4,2],[4,0],[7,-1],[4,1],[7,3],[14,8],[4,1],[7,0],[5,-1],[14,-7],[6,-2],[5,1],[4,2],[4,3],[3,4],[1,0],[205,0],[-1,0],[1,-1],[16,1],[143,0],[-1,0],[-2,-1],[0,-1],[4,-2],[5,0],[4,-1],[4,-2],[-7,-1],[-8,-4],[-7,-5],[-3,-4],[-2,-5],[-16,-12],[-4,-16],[5,-15],[31,-54],[4,-4],[11,-2],[2,-4],[-6,-12],[-3,2],[3,6],[0,4],[-2,2],[-1,0],[-1,-3],[-3,-2],[-6,-4],[-10,-9],[-1,-1],[-15,0],[-6,1],[-7,3],[-6,5],[-2,5],[-19,13],[-4,4],[-2,0],[1,-4],[4,-9],[2,-11],[4,-7],[3,-4],[11,-7],[4,-4],[12,-15],[3,-2],[13,0],[5,-1],[7,-3],[3,-1],[24,0],[3,-4],[5,-1],[25,2],[28,10],[47,23],[7,1],[6,3],[9,7],[7,8],[4,6],[-4,2],[-6,4],[-3,5],[3,4],[0,3],[-5,1],[-5,2],[-8,5],[2,3],[1,4],[-1,3],[-2,3],[3,0],[4,7],[2,5],[0,3],[-2,3],[-2,5],[-2,4],[-4,2],[-5,0],[-16,13],[-5,6],[-1,4],[2,5],[1,7],[-2,6],[-5,4],[-6,3],[-20,5],[-30,7],[-30,4],[101,0],[2,-4],[10,-4],[10,0],[4,2],[-6,4],[-3,2],[832,0],[11,-12],[12,-9],[19,-6],[10,-9],[16,-3],[15,-6],[7,-1],[6,-2],[5,-5],[2,-7],[1,-8],[3,-7],[6,-6],[7,-4],[4,5],[-3,1],[-3,2],[-3,2],[1,3],[4,1],[4,-1],[7,-3],[8,-1],[7,0],[7,2],[6,4],[1,-4],[0,-6],[1,-4],[5,-1],[0,-3],[-7,-2],[0,-3],[8,-3],[8,-4],[6,-1],[3,7],[4,6],[9,0],[25,-7],[26,-1],[4,-1],[3,-4],[1,-4],[3,-4],[3,-2],[2,-1],[15,-4],[2,-1],[4,-3],[3,-2],[4,0],[3,3],[1,4],[1,3],[4,-3],[5,-9],[4,-4],[3,-2],[8,-2],[7,0],[19,2],[5,-1],[7,-6],[6,-4],[29,-8],[15,-1],[14,1],[15,4],[19,9],[8,1],[15,1],[7,1],[6,4],[3,-3],[4,1],[3,0],[5,-1],[11,-1],[3,1],[1,1],[1,2],[1,2],[2,2],[2,1],[17,1],[17,4],[5,2],[2,2],[3,0],[3,-1],[0,-23],[0,-1]],[[791,2423],[-4,-11],[0,-2],[3,0],[3,2],[4,3],[3,-5],[0,-8],[-3,-7],[-4,-3],[-4,0],[-6,2],[-3,0],[-8,-8],[-6,-4],[-5,-5],[-3,-6],[-2,-18],[-3,-13],[-1,-8],[0,-2],[0,-1],[-1,-1],[-1,-2],[5,-5],[0,6],[2,4],[2,4],[1,3],[2,17],[3,9],[4,5],[4,3],[4,7],[7,-6],[6,3],[3,7],[5,6],[8,15],[1,6],[-2,8],[-5,3],[-5,2],[-4,0]],[[908,2382],[5,-2],[2,1],[1,3],[-2,3],[-3,0],[-3,-2],[0,-3]],[[700,2318],[1,7],[-2,4],[-1,-1],[-1,-4],[-1,-7],[1,-3],[1,0],[2,4]],[[792,2326],[1,2],[1,2],[1,1],[2,1],[0,-2],[0,-4],[3,0],[0,9],[0,4],[2,3],[-6,18],[-4,7],[-5,-4],[4,-4],[1,-10],[0,-23]],[[708,2360],[-3,5],[-2,-2],[0,-2],[3,-4],[2,3]],[[702,2394],[0,2],[1,2],[1,4],[-4,5],[-7,5],[-5,2],[-2,-1],[-1,-3],[2,-1],[1,-2],[2,-2],[3,-2],[3,1],[0,-2],[1,-8],[1,-3],[2,0],[2,3]],[[675,2412],[-3,2],[-2,0],[1,-4],[1,-2],[3,-2],[1,5],[-1,1]],[[708,2429],[2,-3],[2,0],[-3,20],[-4,9],[-5,4],[5,-21],[3,-9]],[[679,2471],[11,4],[9,7],[3,13],[-4,-2],[-21,-15],[-7,-3],[-2,-2],[-1,-1],[0,-2],[12,1]],[[713,2494],[1,-2],[6,6],[-2,7],[1,7],[1,3],[-1,0],[-2,-4],[-1,-4],[0,-4],[2,-1],[0,-3],[-2,-2],[-1,1],[-2,-4]],[[759,2589],[3,17],[-2,0],[-1,-4],[-1,-2],[-3,-5],[-3,5],[0,3],[3,1],[2,2],[2,3],[1,4],[2,-1],[3,-2],[3,7],[8,21],[2,4],[5,5],[1,8],[-4,5],[-8,-5],[-6,2],[-3,-3],[-6,-20],[0,-4],[-1,-3],[-1,-2],[-2,-1],[-1,-2],[-6,-23],[-2,-12],[6,0],[-2,-10],[-5,-6],[-13,-10],[-1,0],[-4,0],[0,-2],[16,4],[11,11],[7,15]],[[742,2626],[1,4],[-1,1],[-3,-1],[-1,0],[-2,-1],[-2,-4],[1,-2],[4,0],[3,3]],[[745,2629],[1,0],[3,2],[2,4],[0,4],[-1,2],[0,-1],[-1,-1],[-1,-2],[-2,-2],[-2,-1],[0,-1],[0,-2],[1,-2]],[[772,2667],[2,4],[0,2],[0,1],[-2,1],[-2,0],[1,-2],[0,-1],[-2,1],[-1,-2],[-1,-7],[2,-2],[3,5]],[[970,2769],[5,13],[-2,16],[6,13],[-3,-3],[-2,-3],[-1,-3],[-1,-4],[-3,-21],[-2,-9],[-2,-4],[-3,-5],[-6,-7],[-2,-3],[2,0],[14,20]],[[1001,2843],[1,10],[-3,18],[-5,6],[4,-31],[-1,-11],[4,8]],[[3136,3077],[4,3],[6,0],[7,0],[23,-3],[4,0],[6,5],[6,4],[7,2],[7,1],[9,1],[13,-3],[10,2],[7,5],[-1,10],[-3,4],[-7,2],[-7,1],[-8,0],[-19,-2],[-8,1],[-13,6],[-6,0],[2,-4],[1,-2],[1,-1],[-1,-2],[0,-1],[1,-1],[0,-2],[-2,3],[2,-2],[0,-1],[0,-2],[-5,1],[-2,1],[-3,-5],[-1,-4],[-7,-3],[-10,0],[-5,7],[2,8],[-4,7],[-3,6],[1,5],[-7,2],[-5,-1],[-2,-3],[-1,-5],[4,-3],[6,-4],[1,-5],[0,-5],[-1,-7],[-1,-4],[-1,-3],[-1,-6],[4,-3]],[[3613,3225],[26,14],[10,3],[3,2],[2,0],[-6,4],[-10,-4],[-11,0],[-9,-1],[-7,-6],[-6,-3],[-5,-7],[13,-2]],[[3688,3244],[-8,-9],[14,4],[29,9],[17,9],[-1,5],[-6,2],[-8,-2],[-12,-7],[-25,-11]],[[1100,3459],[19,17],[4,4],[1,3],[2,4],[3,2],[3,2],[2,2],[2,7],[9,17],[4,6],[11,9],[6,6],[5,13],[13,22],[4,5],[1,1],[-1,3],[-2,1],[-2,0],[0,-1],[-3,-6],[-5,-4],[-7,-2],[-5,1],[-8,-5],[-4,-1],[-4,1],[-9,3],[-4,1],[-1,1],[-2,1],[-2,1],[-3,0],[-3,-2],[-6,-5],[-3,-1],[-11,-16],[-15,-26],[-4,-15],[-1,-16],[1,-9],[5,-16],[1,-8],[3,-3],[6,3]],[[4096,3633],[-13,9],[-8,3],[-7,-2],[4,-6],[9,-6],[8,-3],[7,5]],[[4061,3651],[-5,10],[-6,4],[-18,-1],[0,5],[-1,4],[-2,3],[-3,0],[-4,-3],[-4,-7],[8,-8],[26,-3],[6,-4],[3,0]],[[4009,3676],[2,2],[3,5],[1,6],[-6,2],[-9,1],[-4,2],[-3,3],[-6,1],[-6,1],[-5,-1],[4,-4],[18,-12],[9,-2],[1,-2],[1,-2]],[[3973,3698],[-1,6],[-1,2],[5,0],[2,0],[-9,11],[-14,14],[-16,9],[-16,-1],[2,-4],[3,-2],[4,-3],[4,-1],[-1,2],[0,1],[-1,1],[-1,1],[0,3],[8,-1],[9,-8],[8,-10],[5,-7],[-4,4],[-5,5],[-4,4],[-7,3],[0,-3],[13,-15],[7,-6],[10,-5]],[[3898,3766],[-14,14],[-9,6],[-12,-2],[4,-4],[9,-6],[3,2],[3,-1],[2,-2],[2,-5],[-8,0],[-2,0],[5,-3],[6,-2],[6,0],[5,3]],[[1191,3830],[-4,9],[-1,8],[-3,-6],[4,-11],[7,-12],[7,-5],[-10,17]],[[1169,3913],[-1,11],[-2,6],[-1,4],[0,4],[-2,1],[0,-1],[0,-4],[1,-5],[0,-3],[2,-4],[1,-7],[2,-2]],[[2475,4049],[-1,2],[-1,-1],[1,-5],[5,-11],[3,-3],[0,3],[-3,6],[-2,5],[0,1],[-2,3]],[[2689,4078],[1,-1],[2,-2],[2,-1],[2,1],[-1,-2],[-2,-3],[2,-1],[3,3],[0,3],[-3,3],[-4,1],[-2,0],[0,-1]],[[2705,4010],[6,-1],[3,1],[2,2],[2,-1],[1,-2],[1,-1],[3,0],[-1,3],[-2,6],[-2,-1],[-3,1],[-1,3],[-1,0],[-2,-1],[-1,-2],[-1,2],[1,2],[1,1],[-1,0],[-2,1],[-3,3],[-2,1],[0,-1],[2,-2],[2,-3],[0,-3],[-1,-2],[0,-1],[2,0],[0,-1],[0,-2],[-3,-2]],[[3136,4010],[-11,-8],[-5,-4],[-3,-7],[-1,-3],[-5,-3],[-5,-1],[-5,2],[-4,1],[-3,-4],[-4,-6],[-4,-3],[-10,2],[-3,-2],[0,-7],[12,1],[11,4],[29,19],[15,14],[1,1],[1,1],[-1,2],[-2,2],[-3,-1]],[[2916,3969],[7,5],[-1,7],[-2,3],[-1,-1],[-1,-2],[-1,-2],[-3,-3],[-4,-2],[-4,-1],[-11,-3],[-2,-2],[-3,-3],[-3,-2],[-4,-1],[-7,-6],[-5,-2],[2,-1],[8,0],[5,2],[1,2],[2,1],[2,0],[11,6],[14,5]],[[2810,3962],[0,1],[-2,0],[-4,-2],[-1,-1],[0,-2],[-3,2],[-3,-2],[-2,1],[-2,-2],[-3,-3],[0,-1],[4,1],[8,1],[7,2],[3,2],[-2,0],[-1,1],[-1,1],[1,1],[1,0]],[[2755,3956],[-7,1],[-3,-1],[0,-1],[1,-2],[3,-1],[8,-4],[2,2],[2,2],[-1,1],[-2,1],[-1,1],[-2,1]],[[2953,3983],[-1,-2],[-5,-4],[-6,0],[-4,4],[-1,0],[1,-5],[5,-5],[7,0],[11,9],[6,4],[6,5],[-1,2],[-5,-1],[-2,-1],[-11,-5],[-1,0],[1,-1]],[[1124,1869],[6,1],[6,0],[0,4],[3,7],[-3,2],[-4,0],[-5,-1],[-5,-1],[-9,-2],[-17,-8],[-3,-4],[7,-3],[5,-4],[9,5],[10,4]],[[1305,1973],[13,7],[6,5],[6,1],[3,0],[2,1],[5,3],[3,2],[6,1],[8,-2],[11,3],[7,-3],[8,4],[7,3],[-18,0],[-11,0],[-15,1],[-11,-1],[-15,-5],[-24,-7],[-22,-11],[-11,-5],[-14,-9],[-11,-9],[-2,-9],[2,-6],[7,5],[6,6],[6,6],[8,1],[13,3],[13,10],[14,5]],[[1396,2000],[0,-1],[2,0],[2,1],[2,0],[2,-1],[2,0],[4,2],[1,3],[-2,0],[-3,0],[-2,1],[-2,-1],[-6,-4]],[[1483,2008],[-5,-10],[-4,-6],[2,-4],[18,13],[5,5],[7,1],[5,6],[2,6],[8,1],[2,4],[-6,5],[-6,2],[-12,-5],[-5,-5],[-5,-11],[-6,-2]],[[711,2245],[4,0],[1,0],[1,3],[0,2],[-6,-1],[-3,-6],[3,2]],[[882,2280],[4,5],[0,2],[-3,2],[-2,-7],[-1,-6],[2,4]],[[2644,1234],[-5,0],[-6,-3],[-2,-3],[-2,-5],[-2,-4],[-6,-3],[0,-2],[0,-1],[-1,0],[-2,0],[2,0],[19,-2],[7,3],[2,11],[-1,6],[-3,3]],[[3149,832],[-5,3],[-5,-4],[-3,-8],[1,-8],[7,1],[5,4],[2,6],[-2,6]],[[3027,533],[-2,5],[-5,-5],[-4,-6],[-1,-8],[3,-7],[-5,-5],[3,-3],[4,1],[7,28]],[[2528,376],[1,-9],[11,12],[1,3],[-4,3],[-5,-2],[-4,-7]],[[2291,308],[-8,-6],[-2,-12],[0,-13],[3,-11],[3,-3],[-1,5],[-2,14],[1,6],[2,7],[2,7],[3,3],[0,2],[-1,1]],[[1655,0],[-16,6],[-5,4],[-4,4],[-5,4],[-9,6],[-6,2],[-6,2],[-12,1],[-45,46],[-6,12],[-10,39],[-3,6],[-11,20],[-6,5],[0,-5],[-3,2],[-2,3],[-1,4],[1,4],[1,-1],[4,-1],[2,-1],[-4,23],[-3,6],[2,2],[0,2],[-1,2],[-1,2],[-3,0],[0,-5],[0,-4],[3,-7],[-6,4],[-12,13],[-2,5],[1,4],[2,4],[3,3],[6,3],[0,4],[-2,7],[0,18],[-3,9],[-6,4],[-4,4],[3,7],[5,2],[2,-8],[3,0],[-4,12],[-3,3],[-7,1],[-3,3],[0,7],[1,8],[1,5],[4,12],[11,24],[7,9],[10,-3],[10,2],[8,6],[7,3],[6,-5],[24,-13],[9,-3],[3,-3],[1,-4],[1,-2],[4,-1],[4,1],[3,1],[0,-3],[2,0],[9,7],[11,-10],[17,-20],[2,-2],[7,-12],[4,-10],[18,-18],[8,8],[16,-3],[16,-8],[10,-7],[3,-5],[2,-6],[3,-5],[6,-3],[4,0],[3,-2],[5,-6],[3,-2],[8,-2],[3,-1],[14,-22],[13,-16],[1,-2],[1,-3],[1,-1],[1,-1],[3,-1],[1,0],[6,-6],[3,-4],[2,-10],[5,-5],[9,-7],[14,-18],[9,-5],[12,-18],[3,-2],[2,0],[2,-1],[3,-3],[1,-3],[1,-4],[0,-7],[2,-8],[4,-4],[5,-4],[4,-6],[-1,-1],[-2,-2],[-2,-2],[2,-3],[5,1],[3,0],[4,-2],[10,-11],[4,-5],[2,-9],[0,-24],[-245,0]],[[1501,201],[35,2],[-2,12],[-2,7],[-3,3],[-8,-3],[-4,0],[-4,3],[-10,-8],[-1,-4],[1,-3],[2,-2],[3,-4],[-2,0],[-5,-3]],[[1656,95],[1,5],[-3,6],[-3,5],[-1,4],[-2,2],[-4,1],[-5,1],[-5,2],[-4,1],[-5,-2],[-5,5],[-1,6],[0,6],[-1,7],[-2,4],[-4,3],[-4,2],[-2,1],[-3,3],[-5,-2],[-15,0],[-8,-3],[-4,-7],[-6,-15],[-4,-4],[14,-9],[6,-2],[7,0],[11,2],[7,1],[8,-5],[7,-22],[8,-4],[4,-1],[3,-2],[3,0],[2,1],[4,3],[2,1],[5,2],[4,4]],[[1655,0],[-16,6],[-5,4],[-4,4],[-5,4],[-9,6],[-6,2],[-6,2],[-12,1],[-45,46],[-6,12],[-10,39],[-3,6],[-11,20],[-6,5],[0,-5],[-3,2],[-2,3],[-1,4],[1,4],[1,-1],[4,-1],[2,-1],[-4,23],[-3,6],[2,2],[0,2],[-1,2],[-1,2],[-3,0],[0,-5],[0,-4],[3,-7],[-6,4],[-12,13],[-2,5],[1,4],[2,4],[3,3],[6,3],[0,4],[-2,7],[0,18],[-3,9],[-6,4],[-4,4],[3,7],[5,2],[2,-8],[3,0],[-4,12],[-3,3],[-7,1],[-3,3],[0,7],[1,8],[1,5],[4,12],[11,24],[7,9],[10,-3],[10,2],[8,6],[7,3],[6,-5],[24,-13],[9,-3],[3,-3],[1,-4],[1,-2],[4,-1],[4,1],[3,1],[0,-3],[2,0],[9,7],[11,-10],[17,-20],[2,-2],[7,-12],[4,-10],[18,-18],[8,8],[16,-3],[16,-8],[10,-7],[3,-5],[2,-6],[3,-5],[6,-3],[4,0],[3,-2],[5,-6],[3,-2],[8,-2],[3,-1],[14,-22],[13,-16],[1,-2],[1,-3],[1,-1],[1,-1],[3,-1],[1,0],[6,-6],[3,-4],[2,-10],[5,-5],[9,-7],[14,-18],[9,-5],[12,-18],[3,-2],[2,0],[2,-1],[3,-3],[1,-3],[1,-4],[0,-7],[2,-8],[4,-4],[5,-4],[4,-6],[-1,-1],[-2,-2],[-2,-2],[2,-3],[5,1],[3,0],[4,-2],[10,-11],[4,-5],[2,-9],[0,-24]],[[1501,201],[35,2],[-2,12],[-2,7],[-3,3],[-8,-3],[-4,0],[-4,3],[-10,-8],[-1,-4],[1,-3],[2,-2],[3,-4],[-2,0],[-5,-3]],[[1656,95],[1,5],[-3,6],[-3,5],[-1,4],[-2,2],[-4,1],[-5,1],[-5,2],[-4,1],[-5,-2],[-5,5],[-1,6],[0,6],[-1,7],[-2,4],[-4,3],[-4,2],[-2,1],[-3,3],[-5,-2],[-15,0],[-8,-3],[-4,-7],[-6,-15],[-4,-4],[14,-9],[6,-2],[7,0],[11,2],[7,1],[8,-5],[7,-22],[8,-4],[4,-1],[3,-2],[3,0],[2,1],[4,3],[2,1],[5,2],[4,4]],[[425,1745],[-3,-6],[-12,-12],[-2,-4],[-1,-4],[-3,-3],[-4,0],[-7,3],[-3,-2],[-2,-4],[-3,-2],[-9,-2],[-3,-1],[-4,-6],[-2,-5],[2,-2],[1,-1],[-5,-8],[-2,-2],[0,-3],[0,-3],[4,-12],[1,-6],[0,-13],[-3,-1],[-33,-28],[-11,-6],[-11,-3],[-10,1],[-32,5],[0,-3],[4,0],[1,0],[-5,-7],[-10,-8],[-9,-4],[-6,6],[-2,5],[3,5],[1,4],[-4,4],[0,3],[2,5],[-4,5],[-7,2],[-6,-2],[-3,0],[-1,3],[0,2],[-2,0],[-4,0],[0,3],[6,3],[4,6],[5,5],[8,2],[23,-1],[4,1],[4,2],[4,6],[2,5],[3,4],[8,1],[2,1],[5,3],[3,1],[3,-1],[4,-3],[4,-1],[7,1],[13,5],[6,2],[6,2],[20,18],[3,5],[2,3],[3,2],[6,3],[6,4],[3,0],[2,2],[0,4],[0,2],[1,2],[1,2],[3,3],[2,0],[1,1],[0,2],[6,-1],[7,3],[6,5],[3,4],[3,7],[4,2],[4,-3],[-1,-7]],[[1411,444],[10,-6],[2,-7],[0,-8],[-4,-29],[-2,-8],[-4,-5],[-11,-4],[-55,-2],[-5,2],[-2,0],[-2,1],[0,2],[0,3],[1,2],[1,1],[5,2],[4,5],[2,6],[0,8],[-5,13],[-11,4],[-12,-2],[-10,-7],[-4,-5],[-3,-3],[-5,-1],[-11,9],[-33,14],[-10,6],[-7,9],[-1,15],[0,8],[1,3],[1,2],[3,2],[2,0],[2,-2],[1,-3],[3,-4],[6,-3],[8,-1],[8,1],[8,6],[6,9],[6,8],[11,3],[5,1],[9,3],[6,1],[7,2],[4,5],[4,3],[6,-2],[2,2],[3,0],[3,0],[2,-2],[2,-20],[-1,-3],[2,-3],[10,-11],[3,-2],[4,-6],[7,-28],[0,-10],[9,8],[9,11],[10,7]],[[2241,0],[-8,36],[0,39],[1,6],[4,6],[11,15],[3,0],[7,-1],[5,13],[4,18],[4,12],[2,3],[3,1],[4,1],[4,0],[4,1],[3,6],[3,1],[1,1],[5,2],[5,1],[1,-1],[2,2],[2,3],[0,3],[1,5],[-1,13],[-17,70],[-4,3],[-6,-1],[-3,-1],[-2,-4],[-2,-7],[0,-3],[2,-3],[-1,-1],[-5,-1],[-4,0],[-3,2],[-3,2],[-3,7],[-5,6],[-6,5],[-5,4],[2,3],[3,3],[3,3],[4,1],[2,2],[6,9],[2,1],[2,0],[2,2],[2,2],[0,2],[-1,3],[-1,2],[-1,2],[1,3],[3,7],[1,3],[0,5],[-1,5],[-2,4],[-2,3],[-9,4],[-4,3],[2,1],[15,-5],[6,0],[2,8],[1,6],[6,8],[1,6],[-1,5],[-3,4],[-6,7],[-2,0],[-5,-5],[-6,3],[-1,6],[12,1],[6,-3],[7,-7],[5,-7],[1,-6],[-2,-9],[-6,-4],[-3,-4],[4,-10],[9,-11],[3,-7],[-2,-8],[3,1],[2,2],[-2,8],[-3,49],[8,45],[17,35],[-2,3],[-7,1],[-3,-2],[-2,-5],[-6,-19],[-2,-4],[0,2],[0,5],[2,7],[0,4],[-2,6],[-11,-3],[-7,4],[-3,7],[2,7],[2,8],[2,8],[-3,17],[-3,3],[-2,1],[-3,0],[-4,1],[-4,0],[-1,-1],[0,1],[0,20],[2,5],[7,2],[16,2],[11,5],[20,16],[11,7],[-4,6],[-1,2],[2,3],[0,2],[1,7],[-1,4],[-1,1],[-2,1],[-2,3],[0,3],[-1,6],[0,1],[0,1],[-8,5],[-3,6],[-1,8],[4,7],[7,5],[10,0],[9,-2],[7,-6],[2,-10],[-2,-3],[-1,-2],[-2,-1],[0,-1],[-1,-21],[-1,-5],[-3,-4],[0,-3],[4,-11],[-3,-18],[-9,-11],[-13,4],[-2,0],[-1,-2],[-1,-1],[1,-9],[0,-25],[8,-7],[2,-6],[1,-5],[0,-5],[-2,-2],[-8,-6],[-2,-3],[7,-4],[8,2],[9,3],[9,2],[12,0],[7,3],[4,6],[1,12],[-2,9],[-10,15],[-4,12],[-5,11],[-1,4],[0,22],[12,100],[-8,50],[-12,75],[-2,5],[2,2],[-2,5],[-1,9],[4,49],[7,25],[7,19],[0,8],[2,9],[-1,18],[9,44],[14,48],[9,35],[5,12],[7,11],[17,12],[3,5],[2,6],[13,16],[30,50],[10,24],[2,13],[-2,15],[-18,52],[-3,18],[-3,7],[-1,2],[-14,67],[-4,3],[-2,-2],[0,-9],[-3,5],[-4,4],[-4,1],[-4,-2],[3,-1],[7,-5],[2,-2],[-5,-7],[-6,2],[-5,5],[-5,3],[-2,3],[-4,16],[-5,4],[-1,-2],[-4,-3],[4,9],[16,21],[7,6],[4,3],[6,2],[6,-1],[2,-8],[1,-7],[4,-10],[0,-7],[-3,3],[-3,2],[-5,-1],[-4,-2],[0,-2],[3,-2],[1,0],[3,2],[0,-3],[0,-2],[-1,-1],[-1,-2],[0,2],[-3,-3],[-1,-2],[-1,-2],[13,5],[4,3],[3,5],[1,4],[0,8],[1,3],[2,3],[5,5],[1,1],[1,6],[3,6],[5,6],[5,2],[2,4],[4,8],[4,5],[5,-7],[4,4],[6,3],[3,4],[-45,18],[-11,9],[-10,15],[-6,15],[-6,24],[-4,8],[-19,14],[-49,18],[-39,21],[-4,1],[-5,3],[-5,5],[-5,3],[-6,-3],[-2,-7],[5,-3],[8,-3],[4,-4],[3,-2],[16,-6],[5,-1],[-1,-4],[-1,-1],[2,-3],[7,3],[5,-1],[11,-7],[7,4],[4,-5],[3,-7],[1,-5],[2,-4],[2,-2],[2,-2],[1,-2],[2,-5],[0,-1],[-16,-6],[-3,-2],[-2,-2],[-3,-6],[-2,-2],[-8,-3],[-4,3],[-3,6],[0,10],[-3,0],[-2,-3],[0,-2],[0,-2],[2,-4],[-2,-1],[-3,-1],[-2,0],[-1,4],[1,4],[1,2],[2,1],[1,2],[3,5],[2,4],[2,1],[3,0],[4,-1],[3,-1],[1,-2],[2,-6],[4,-2],[5,3],[2,5],[0,12],[-1,2],[-1,2],[-1,2],[3,2],[0,2],[-7,-1],[-23,5],[-3,1],[-2,0],[-3,-2],[0,-3],[0,-8],[-1,-2],[-13,-2],[-8,-2],[-5,-4],[-6,-11],[-4,-1],[-3,7],[-2,0],[0,-5],[-2,-3],[-3,0],[-3,3],[-1,4],[1,14],[-2,11],[-4,-1],[-5,-3],[-6,1],[0,2],[2,1],[3,3],[2,2],[-3,4],[-4,5],[-4,3],[-10,2],[-7,3],[-5,3],[-2,4],[-5,8],[-32,15],[-9,-3],[-3,-2],[-3,-3],[4,-3],[8,-13],[5,-3],[28,-10],[4,0],[3,-1],[1,-2],[2,-2],[2,-3],[16,-8],[4,-5],[-5,-4],[-8,-3],[-9,-2],[-6,-1],[-8,1],[-6,5],[-5,6],[-3,6],[0,3],[5,2],[2,0],[3,0],[0,3],[-17,-3],[-7,2],[-5,6],[3,6],[-2,6],[-4,5],[-5,4],[3,-11],[-3,-4],[-8,2],[-10,5],[-6,7],[-6,10],[-3,10],[4,4],[8,4],[-2,8],[-6,10],[-5,13],[-3,2],[-4,-1],[-3,-11],[-7,-3],[-2,-6],[-2,0],[1,4],[1,5],[0,3],[-7,2],[-2,3],[-3,9],[4,-1],[7,-1],[4,0],[6,2],[5,1],[4,-1],[4,-5],[11,-21],[2,0],[1,1],[1,1],[1,1],[-5,5],[-4,7],[-2,7],[1,4],[3,0],[4,0],[4,0],[1,-1],[0,-3],[-2,-2],[-5,-4],[10,-4],[2,-1],[6,3],[2,3],[4,3],[7,1],[5,-3],[5,-4],[5,-3],[4,2],[2,0],[12,-14],[3,-4],[-1,-1],[-2,-1],[-2,-1],[5,-4],[4,-1],[11,0],[4,-2],[7,-5],[10,-3],[14,-11],[6,-3],[6,1],[2,2],[0,3],[-3,4],[-3,1],[-13,3],[-6,3],[-7,4],[-28,17],[-21,18],[-39,33],[-39,34],[-27,22],[-20,17],[-7,2],[-22,1],[-32,4],[-51,9],[-14,3],[3,-6],[9,-4],[11,-5],[29,-5],[9,-2],[8,-3],[-6,-3],[-3,-4],[-18,3],[-9,1],[-9,-2],[-6,5],[-3,5],[-3,0],[-1,-4],[-2,-7],[-9,-3],[-7,1],[-7,7],[0,10],[0,6],[4,7],[2,5],[-5,4],[-21,7],[-44,13],[-35,16],[-18,6],[-27,-1],[-18,-10],[-26,-20],[-21,-8],[-39,-2],[-27,-2],[-19,-2],[-28,7],[-16,7],[-8,6],[-6,5],[-3,5],[-6,0],[-1,0],[-1,-1],[-1,-1],[0,-3],[-3,0],[-1,4],[0,5],[-1,5],[-4,2],[-5,1],[-18,4],[-17,5],[-13,2],[-20,4],[-28,5],[-10,-1],[-1,-4],[11,-3],[23,-3],[6,-8],[-4,-9],[-7,-8],[-15,-11],[-3,-2],[-5,-1],[-52,-2],[-12,-3],[-13,-5],[-4,-4],[-9,-10],[-35,-22],[-6,-2],[-7,-2],[-9,1],[-6,2],[-8,5],[-1,1],[-11,4],[-12,0],[-71,-6],[-16,2],[-1,1],[-5,2],[-4,2],[-2,-2],[-2,0],[-6,-5],[-1,-1],[-6,-1],[-23,-7],[-13,-2],[-13,2],[-39,9],[-34,3],[-33,12],[-37,9],[-8,-1],[-5,-3],[-2,-7],[-2,-1],[-10,0],[-3,0],[-2,-2],[-4,-6],[-2,-2],[-11,-3],[-11,5],[-34,31],[-2,3],[-3,3],[2,5],[7,10],[-13,-8],[-3,-4],[3,-4],[0,-2],[-6,0],[-16,10],[-6,2],[-7,1],[-2,0],[-3,-1],[-2,-6],[-6,-2],[-32,-2],[-11,-3],[-5,-5],[-7,-2],[-15,0],[-1,-1],[1,-3],[4,-2],[4,-2],[2,-1],[-1,-4],[-3,-5],[-21,-13],[-14,2],[-4,-2],[2,-6],[-9,-5],[-21,-23],[-10,-4],[-9,2],[-16,12],[-2,1],[-13,6],[-16,14],[-4,2],[-12,11],[-38,18],[-19,16],[-8,4],[-10,12],[-4,2],[-11,5],[-5,3],[-6,-6],[5,-6],[16,-9],[2,-3],[3,-4],[2,-4],[7,-3],[5,-4],[8,-8],[-5,-2],[-11,2],[-4,-3],[-2,0],[0,2],[0,4],[-3,0],[0,-6],[3,-9],[0,-6],[-2,-3],[-4,-4],[-3,-4],[-1,-6],[-2,-3],[-3,-1],[-3,0],[-2,0],[0,-3],[1,-2],[1,-1],[0,-2],[1,0],[0,-3],[-1,-3],[-4,-2],[-9,0],[-1,3],[4,17],[-36,23],[-9,2],[-1,8],[-12,7],[-17,4],[-12,-4],[-13,11],[-5,2],[2,9],[-8,16],[1,10],[5,5],[6,5],[6,4],[9,2],[1,4],[0,4],[1,4],[2,2],[1,2],[4,4],[4,2],[3,1],[2,2],[2,7],[2,3],[2,2],[2,1],[6,1],[5,4],[4,6],[1,7],[-1,15],[2,6],[5,3],[5,0],[2,2],[2,2],[2,1],[12,2],[3,1],[1,2],[0,7],[0,1],[2,1],[3,0],[3,0],[1,-2],[3,-5],[5,-3],[5,1],[2,8],[3,0],[0,-16],[1,7],[1,1],[2,1],[4,1],[2,1],[1,0],[3,0],[1,0],[0,1],[0,3],[0,1],[1,2],[1,5],[1,2],[10,13],[3,1],[1,2],[5,12],[1,2],[1,1],[1,0],[2,2],[0,-1],[1,0],[2,0],[2,1],[0,2],[1,9],[0,2],[7,3],[8,15],[7,5],[-2,3],[-1,2],[1,5],[3,3],[3,3],[0,2],[-3,0],[-2,1],[-1,1],[-1,4],[3,-2],[3,0],[2,0],[2,2],[-5,2],[-2,0],[7,10],[10,25],[10,5],[-2,-4],[-7,-7],[-11,-43],[1,-6],[3,0],[2,4],[2,3],[-3,10],[1,7],[2,4],[5,16],[3,5],[3,3],[3,4],[3,27],[0,4],[-2,6],[0,4],[0,4],[2,3],[2,2],[1,2],[1,3],[1,2],[5,4],[2,0],[4,0],[2,0],[0,2],[-1,2],[-1,1],[-1,0],[-1,7],[-7,11],[-2,7],[2,6],[4,7],[5,5],[4,4],[4,1],[3,0],[2,1],[1,5],[-2,9],[-1,12],[-2,8],[-3,8],[-4,5],[-8,3],[-4,2],[-1,5],[-2,8],[0,4],[0,1],[-2,7],[-2,8],[1,15],[0,8],[4,38],[15,51],[1,6],[4,3],[9,-1],[10,0],[4,7],[-3,3],[-15,3],[-4,3],[-3,6],[-13,6],[-4,5],[-2,9],[2,8],[4,7],[9,11],[3,7],[9,31],[5,32],[-3,10],[15,29],[7,5],[13,35],[2,6],[5,9],[1,6],[3,35],[-3,45],[-1,2],[-4,-1],[-4,-2],[-3,-2],[-2,-4],[-4,-2],[-2,1],[0,4],[2,2],[8,4],[7,5],[2,4],[1,5],[-2,2],[-4,-1],[-13,-4],[-11,-8],[-8,-1],[-4,2],[-11,5],[-8,1],[-6,-1],[-6,-3],[-12,-8],[-6,-7],[-3,-3],[-3,0],[-1,2],[2,3],[8,11],[4,6],[2,5],[-18,-8],[-5,1],[-4,6],[2,5],[29,20],[7,10],[-6,5],[0,2],[0,1],[1,1],[2,1],[4,1],[3,7],[8,11],[2,6],[10,19],[8,11],[9,19],[2,0],[4,3],[2,2],[-3,2],[-4,0],[-4,-3],[-3,-4],[-2,-3],[1,7],[3,5],[1,5],[-2,7],[-4,-8],[-6,-7],[-8,-6],[-7,-3],[1,4],[2,4],[2,2],[16,14],[3,2],[8,0],[7,2],[4,5],[1,2],[-2,-7],[-1,-7],[3,-3],[3,3],[3,5],[2,6],[0,6],[3,10],[8,11],[9,10],[8,7],[2,-16],[3,-6],[4,-6],[3,-6],[0,-8],[-2,-16],[-1,0],[0,-2],[-1,-2],[-1,-2],[1,-2],[2,-3],[2,-1],[0,-1],[0,-4],[-4,-7],[-1,-3],[-3,-6],[-5,-8],[-4,-8],[2,-8],[-12,-14],[0,-3],[-1,-6],[1,-6],[4,-2],[8,-3],[19,-10],[10,-3],[7,-1],[4,-2],[1,-4],[2,-6],[-1,0],[-2,-3],[0,-3],[2,-2],[1,0],[10,-2],[1,-3],[0,-4],[0,-3],[0,-2],[5,-6],[1,-1],[-1,-6],[-2,-4],[-1,-4],[2,-4],[2,2],[2,4],[2,3],[1,4],[0,-5],[-1,-10],[-2,-9],[-3,-5],[-3,-3],[1,-5],[5,-1],[6,7],[1,-8],[1,-11],[3,0],[0,25],[1,6],[5,12],[1,6],[2,5],[17,26],[4,9],[1,27],[2,6],[5,8],[1,8],[-2,16],[2,17],[5,14],[7,11],[9,11],[6,10],[13,47],[8,50],[8,12],[8,19],[4,12],[-3,9],[5,7],[4,20],[4,9],[9,14],[6,6],[7,4],[0,2],[-7,0],[-5,-4],[-3,-5],[-5,-4],[8,16],[-17,-2],[-9,-2],[-4,-5],[-2,-7],[-3,-7],[-10,-11],[-7,-7],[-4,0],[-4,3],[-6,1],[-4,4],[2,9],[8,16],[-6,2],[3,4],[5,6],[3,6],[-2,0],[-3,-8],[-3,0],[5,15],[13,12],[17,9],[13,4],[-2,-6],[-1,-4],[-3,-4],[-7,-2],[14,2],[3,2],[10,10],[2,2],[6,1],[6,5],[6,7],[4,7],[3,25],[3,4],[1,4],[-3,8],[-7,14],[0,-6],[-3,-10],[0,-2],[0,-3],[-22,3],[-7,0],[5,-2],[4,-2],[10,-1],[12,0],[3,1],[0,2],[-2,5],[5,-2],[0,-7],[-5,-7],[-10,-3],[0,3],[5,2],[-2,1],[-1,0],[-1,1],[-1,1],[-2,-3],[-3,1],[-2,2],[-3,0],[-2,-2],[0,-2],[-1,-3],[-2,-1],[-2,1],[-8,4],[-10,3],[-5,-2],[-11,-4],[-4,-2],[-4,-5],[-4,-6],[-5,-4],[-7,0],[2,6],[1,11],[2,6],[-4,0],[-4,0],[-4,1],[-3,2],[-1,3],[-10,7],[-4,5],[-1,6],[0,8],[1,8],[3,4],[4,0],[19,0],[4,0],[2,-5],[-2,-5],[-3,-5],[-4,-3],[4,-1],[4,5],[4,12],[6,12],[4,11],[7,13],[7,10],[6,1],[3,5],[2,1],[3,-2],[3,-3],[3,0],[3,2],[2,3],[2,2],[3,3],[16,23],[-4,-3],[-2,-1],[-2,-2],[2,4],[0,5],[-2,12],[-1,3],[-3,3],[-1,3],[2,3],[2,1],[3,-1],[1,-3],[1,-6],[1,-3],[7,-6],[-1,-15],[-1,-5],[-1,-4],[-3,-1],[-3,-2],[-4,-1],[-1,-1],[0,-5],[1,-15],[2,4],[4,17],[3,2],[2,1],[2,2],[3,14],[1,4],[-2,8],[-8,15],[-3,9],[-1,32],[2,16],[8,30],[5,12],[7,9],[11,8],[-2,3],[0,4],[2,2],[5,2],[4,12],[44,63],[20,21],[15,9],[6,6],[20,12],[4,5],[7,12],[34,38],[25,35],[0,4],[9,20],[6,20],[1,5],[0,8],[1,3],[2,3],[2,2],[5,2],[2,1],[2,1],[2,0],[1,0],[0,3],[0,2],[-2,3],[0,3],[4,10],[2,3],[8,17],[1,2],[1,2],[1,4],[-18,-3],[-8,18],[-3,25],[0,18],[0,5],[4,9],[0,6],[0,5],[-6,19],[-4,2],[-9,0],[-8,3],[-3,-1],[-2,-5],[-4,2],[-3,1],[-2,3],[-2,8],[-2,3],[-2,3],[-2,4],[-19,27],[-10,11],[-7,3],[-24,8],[-9,-1],[-40,-19],[-10,-3],[-7,1],[-4,2],[-11,2],[-9,0],[-3,0],[-2,-2],[-4,-4],[-11,-10],[-1,-5],[2,-3],[3,-1],[4,2],[-2,0],[-1,1],[0,1],[7,3],[10,7],[5,3],[1,-2],[2,-6],[2,3],[7,-3],[9,-2],[9,0],[7,4],[6,5],[8,4],[8,3],[9,-1],[5,-2],[1,-1],[-1,-3],[0,-3],[1,-3],[1,-3],[1,-3],[-2,-4],[-3,-3],[-4,-8],[-4,-3],[-26,-11],[-7,-1],[-6,3],[-6,2],[-23,-1],[-20,7],[-8,1],[-16,-2],[-7,0],[-3,5],[2,0],[1,-2],[2,-1],[2,1],[2,2],[-4,0],[-3,3],[-1,3],[-1,1],[-4,1],[-10,-1],[-9,1],[-20,7],[-24,3],[-2,-2],[6,-3],[7,-2],[16,-1],[-7,-3],[-6,1],[-11,2],[-25,0],[-12,1],[-12,4],[-11,6],[-9,7],[8,-2],[25,-5],[6,-2],[3,-2],[5,-1],[4,0],[4,2],[3,2],[-1,1],[-22,6],[-32,5],[-15,4],[-23,10],[-9,1],[-31,0],[-16,4],[-5,1],[-3,-1],[-8,-4],[-10,-1],[-8,-3],[-8,-4],[-1,-4],[3,1],[14,3],[13,7],[8,0],[9,-2],[7,-3],[-23,1],[-5,-2],[-5,-3],[-7,-2],[-20,-2],[-12,-4],[-6,-1],[-7,1],[-12,6],[-6,1],[-29,0],[-7,-2],[-13,-6],[-7,-2],[-23,-3],[-7,-3],[-23,-20],[-13,-8],[-44,-11],[-13,-5],[-7,-2],[-16,-1],[-24,-7],[-31,-6],[-3,0],[-7,-4],[-4,-1],[-4,0],[-9,3],[-14,-2],[-30,-8],[-69,-7],[-51,-9],[-29,0],[-39,-7],[-37,-13],[-6,-1],[-6,-2],[-23,-16],[-6,-3]],[[0,954],[18,-8],[29,-17],[8,-5],[4,-4],[2,-9],[3,-13],[6,-4],[34,0],[13,3],[23,-8],[10,-2],[22,-6],[52,1],[9,-3],[13,0],[27,-6],[24,-11],[43,-27],[91,-43],[11,-6],[94,-17],[6,-3],[4,-4],[8,-4],[6,-1],[3,5],[-7,7],[-16,5],[-30,6],[0,3],[11,-4],[5,-1],[7,-1],[0,3],[-3,2],[-5,6],[-2,3],[-5,2],[-3,1],[-30,-4],[-10,3],[-2,-1],[-3,0],[-3,2],[-2,2],[5,2],[20,0],[15,3],[5,0],[12,-2],[4,-1],[3,-1],[6,-11],[7,-4],[15,-4],[6,-3],[1,4],[-1,4],[-2,4],[-1,6],[4,-3],[7,-10],[7,-3],[0,-2],[-5,-5],[-2,1],[-3,1],[2,-9],[7,-5],[9,0],[9,4],[0,3],[-5,-1],[-4,-1],[-2,0],[-4,2],[6,2],[6,1],[13,-1],[-2,4],[-4,6],[-1,3],[6,-5],[5,-7],[-1,-6],[-8,0],[0,-3],[5,-1],[5,-1],[9,2],[33,-5],[32,3],[6,2],[2,0],[12,-2],[50,-4],[13,4],[-8,5],[1,7],[7,6],[27,13],[8,6],[3,8],[0,5],[-1,2],[-7,5],[-12,12],[-4,1],[-7,5],[3,11],[10,18],[3,-8],[2,-3],[2,-2],[1,0],[5,-2],[2,-1],[4,0],[1,-1],[0,-3],[1,-2],[7,-3],[8,-5],[7,-1],[10,3],[10,7],[5,10],[-3,11],[3,4],[6,5],[4,1],[2,-6],[-1,-11],[1,-4],[5,-2],[-4,-10],[-1,-3],[3,0],[4,4],[7,0],[7,-3],[7,-1],[0,-3],[-6,0],[0,-2],[4,-2],[3,0],[6,2],[12,-1],[3,1],[3,3],[0,2],[-1,3],[0,5],[2,3],[2,2],[6,5],[4,-3],[3,-1],[7,1],[3,0],[3,-2],[5,-5],[0,-3],[0,-2],[0,-3],[-11,-5],[-6,-1],[-5,1],[-3,-3],[-7,-10],[-3,-3],[-6,-3],[-3,-2],[-4,-4],[0,-3],[1,-3],[3,-3],[1,-1],[3,1],[2,0],[1,-2],[2,-6],[8,-10],[7,-13],[5,-15],[1,-15],[2,0],[7,3],[12,-2],[21,-5],[-4,-2],[-11,-1],[-3,-1],[0,-6],[0,-2],[3,-4],[4,-6],[6,-3],[7,-1],[10,-1],[0,-2],[-5,-2],[-4,-3],[-2,-3],[-1,-5],[-4,-3],[-2,-2],[-18,-9],[-4,-6],[4,-3],[10,-1],[19,0],[0,-2],[-38,-3],[-15,4],[-12,12],[0,2],[0,6],[0,2],[-1,1],[-5,3],[-2,2],[-6,9],[-2,1],[-10,8],[-1,1],[-2,2],[-4,1],[-5,1],[-4,0],[1,2],[1,8],[-2,0],[-2,-14],[-8,-9],[-10,-6],[-11,-10],[-6,-13],[0,-11],[5,-9],[9,-8],[43,-27],[8,-8],[5,-4],[4,0],[0,4],[-5,5],[-10,6],[0,3],[7,-2],[8,-5],[7,-5],[0,-4],[0,-2],[4,-3],[1,0],[0,-3],[-4,3],[-1,1],[-2,2],[5,-10],[40,-48],[1,2],[3,4],[1,2],[2,-7],[1,-4],[3,-3],[23,-18],[5,-2],[7,-7],[9,-12],[6,-5],[-4,14],[3,0],[8,-16],[3,-3],[5,-1],[5,-4],[9,-10],[-8,1],[-9,4],[-7,5],[-4,5],[1,-9],[25,-11],[11,-12],[21,-13],[4,-5],[75,-47],[9,-8],[4,-6],[12,-36],[14,-24],[9,-11],[9,-7],[4,-5],[2,-5],[1,-6],[6,-12],[6,-8],[9,-10],[4,-2],[4,-3],[10,-23],[7,-9],[43,-34],[4,-12],[5,-6],[6,-4],[33,-15],[14,-14],[11,-5],[4,-11],[1,-4],[5,-4],[16,-10],[13,-13],[9,-5],[13,-16],[5,-5],[13,-4],[1,-1],[6,-4],[1,-1],[4,-3],[38,-45],[4,-5]],[[365,1062],[11,-4],[2,-1],[0,-5],[-2,-2],[-3,-1],[-2,2],[-3,0],[0,-8],[-3,0],[-10,12],[-2,3],[-1,6],[-2,4],[-3,2],[-4,2],[0,3],[2,0],[0,1],[0,1],[3,-2],[0,3],[-1,2],[-2,1],[-2,1],[-4,0],[-7,8],[-4,-2],[-4,2],[-8,8],[-3,0],[-3,-2],[-4,1],[-3,3],[-2,3],[11,0],[4,0],[1,2],[0,3],[1,3],[3,-1],[2,-1],[-1,-3],[-1,-2],[2,-3],[3,0],[0,2],[1,1],[1,2],[5,-2],[1,1],[1,1],[2,-1],[2,-3],[1,-1],[2,1],[1,1],[5,-2],[4,1],[4,-4],[7,-13],[-4,-1],[-1,-3],[-1,-4],[1,-5],[1,-5],[1,-2],[5,-3]],[[442,1080],[6,-4],[5,-1],[-2,-6],[-1,-2],[-4,-2],[-4,-1],[-4,-1],[-3,-4],[-4,1],[-7,-2],[-6,1],[4,3],[15,3],[3,3],[4,5],[1,3],[-3,1],[-3,1],[-4,2],[-3,2],[-2,3],[1,1],[4,-1],[7,-5]],[[2451,1192],[0,-2],[5,-6],[2,-7],[1,-7],[-3,-7],[-5,-4],[-3,2],[-4,6],[-5,4],[-2,-2],[-2,0],[-4,2],[-1,5],[-1,3],[0,3],[1,3],[2,2],[1,2],[1,1],[0,6],[-2,5],[-6,7],[0,2],[9,-3],[4,-2],[2,-3],[3,0],[-2,3],[-5,5],[-1,2],[1,5],[3,0],[3,-3],[6,-6],[3,-6],[2,-5],[-3,-5]],[[2284,266],[3,-3],[-1,5],[-2,14],[1,6],[2,7],[2,7],[3,3],[0,2],[-1,1],[-8,-6],[-2,-12],[0,-13],[3,-11]],[[1184,3582],[-3,-6],[-5,-4],[-7,-2],[-5,1],[-8,-5],[-4,-1],[-4,1],[-9,3],[-4,1],[-1,1],[-2,1],[-2,1],[-3,0],[-3,-2],[-6,-5],[-3,-1],[-11,-16],[-15,-26],[-4,-15],[-1,-16],[1,-9],[5,-16],[1,-8],[3,-3],[6,3],[19,17],[4,4],[1,3],[2,4],[3,2],[3,2],[2,2],[2,7],[9,17],[4,6],[11,9],[6,6],[5,13],[13,22],[4,5],[1,1],[-1,3],[-2,1],[-2,0],[0,-1]],[[1489,2010],[-6,-2],[-5,-10],[-4,-6],[2,-4],[18,13],[5,5],[7,1],[5,6],[2,6],[8,1],[2,4],[-6,5],[-6,2],[-12,-5],[-5,-5],[-5,-11]],[[3018,512],[-5,-5],[3,-3],[4,1],[7,28],[-2,5],[-5,-5],[-4,-6],[-1,-8],[3,-7]],[[3227,3111],[-8,0],[-19,-2],[-8,1],[-13,6],[-6,0],[2,-4],[1,-2],[1,-1],[-1,-2],[0,-1],[1,-1],[0,-2],[-2,3],[2,-2],[0,-1],[0,-2],[-5,1],[-2,1],[-3,-5],[-1,-4],[-7,-3],[-10,0],[-5,7],[2,8],[-4,7],[-3,6],[1,5],[-7,2],[-5,-1],[-2,-3],[-1,-5],[4,-3],[6,-4],[1,-5],[0,-5],[-1,-7],[-1,-4],[-1,-3],[-1,-6],[4,-3],[4,3],[6,0],[7,0],[23,-3],[4,0],[6,5],[6,4],[7,2],[7,1],[9,1],[13,-3],[10,2],[7,5],[-1,10],[-3,4],[-7,2],[-7,1]],[[2633,1231],[-2,-3],[-2,-5],[-2,-4],[-6,-3],[0,-2],[0,-1],[-1,0],[-2,0],[2,0],[19,-2],[7,3],[2,11],[-1,6],[-3,3],[-5,0],[-6,-3]],[[3627,3244],[-9,-1],[-7,-6],[-6,-3],[-5,-7],[13,-2],[26,14],[10,3],[3,2],[2,0],[-6,4],[-10,-4],[-11,0]],[[3688,3244],[-8,-9],[14,4],[29,9],[17,9],[-1,5],[-6,2],[-8,-2],[-12,-7],[-25,-11]],[[700,2459],[5,-21],[3,-9],[2,-3],[2,0],[-3,20],[-4,9],[-5,4]],[[1136,1883],[-4,0],[-5,-1],[-5,-1],[-9,-2],[-17,-8],[-3,-4],[7,-3],[5,-4],[9,5],[10,4],[6,1],[6,0],[0,4],[3,7],[-3,2]],[[787,2363],[4,-4],[1,-10],[0,-23],[1,2],[1,2],[1,1],[2,1],[0,-2],[0,-4],[3,0],[0,9],[0,4],[2,3],[-6,18],[-4,7],[-5,-4]],[[670,2475],[-2,-2],[-1,-1],[0,-2],[12,1],[11,4],[9,7],[3,13],[-4,-2],[-21,-15],[-7,-3]],[[791,2423],[-4,-11],[0,-2],[3,0],[3,2],[4,3],[3,-5],[0,-8],[-3,-7],[-4,-3],[-4,0],[-6,2],[-3,0],[-8,-8],[-6,-4],[-5,-5],[-3,-6],[-2,-18],[-3,-13],[-1,-8],[0,-2],[0,-1],[-1,-1],[-1,-2],[5,-5],[0,6],[2,4],[2,4],[1,3],[2,17],[3,9],[4,5],[4,3],[4,7],[7,-6],[6,3],[3,7],[5,6],[8,15],[1,6],[-2,8],[-5,3],[-5,2],[-4,0]],[[760,2606],[-1,-4],[-1,-2],[-3,-5],[-3,5],[0,3],[3,1],[2,2],[2,3],[1,4],[2,-1],[3,-2],[3,7],[8,21],[2,4],[5,5],[1,8],[-4,5],[-8,-5],[-6,2],[-3,-3],[-6,-20],[0,-4],[-1,-3],[-1,-2],[-2,-1],[-1,-2],[-6,-23],[-2,-12],[6,0],[-2,-10],[-5,-6],[-13,-10],[-1,0],[-4,0],[0,-2],[16,4],[11,11],[7,15],[3,17],[-2,0]],[[972,2798],[-3,-21],[-2,-9],[-2,-4],[-3,-5],[-6,-7],[-2,-3],[2,0],[14,20],[5,13],[-2,16],[6,13],[-3,-3],[-2,-3],[-1,-3],[-1,-4]],[[994,2877],[4,-31],[-1,-11],[4,8],[1,10],[-3,18],[-5,6]],[[868,804],[-11,0],[-4,-1],[-6,-2],[1,-2],[3,-4],[1,-2],[-3,0],[0,-2],[2,-2],[1,0],[5,-1],[8,1],[4,6],[0,6],[-1,3]],[[866,833],[-5,2],[-3,-2],[-5,-7],[-1,-7],[8,-4],[17,-6],[5,5],[-4,15],[6,3],[0,3],[-5,0],[-10,-3],[-3,1]],[[1201,3813],[-10,17],[-4,9],[-1,8],[-3,-6],[4,-11],[7,-12],[7,-5]],[[4068,3643],[4,-6],[9,-6],[8,-3],[7,5],[-13,9],[-8,3],[-7,-2]],[[4032,3664],[0,5],[-1,4],[-2,3],[-3,0],[-4,-3],[-4,-7],[8,-8],[26,-3],[6,-4],[3,0],[-5,10],[-6,4],[-18,-1]],[[3863,3784],[4,-4],[9,-6],[3,2],[3,-1],[2,-2],[2,-5],[-8,0],[-2,0],[5,-3],[6,-2],[6,0],[5,3],[-14,14],[-9,6],[-12,-2]],[[3996,3694],[-3,3],[-6,1],[-6,1],[-5,-1],[4,-4],[18,-12],[9,-2],[1,-2],[1,-2],[2,2],[3,5],[1,6],[-6,2],[-9,1],[-4,2]],[[3978,3706],[-9,11],[-14,14],[-16,9],[-16,-1],[2,-4],[3,-2],[4,-3],[4,-1],[-1,2],[0,1],[-1,1],[-1,1],[0,3],[8,-1],[9,-8],[8,-10],[5,-7],[-4,4],[-5,5],[-4,4],[-7,3],[0,-3],[13,-15],[7,-6],[10,-5],[-1,6],[-1,2],[5,0],[2,0]],[[2706,3979],[0,3],[-5,1],[-5,2],[-8,5],[2,3],[1,4],[-1,3],[-2,3],[3,0],[4,7],[2,5],[0,3],[-2,3],[-2,5],[-2,4],[-4,2],[-5,0],[-16,13],[-5,6],[-1,4],[2,5],[1,7],[-2,6],[-5,4],[-6,3],[-20,5],[-30,7],[-30,4]],[[2550,4096],[-1,0],[-2,-1],[0,-1],[4,-2],[5,0],[4,-1],[4,-2],[-7,-1],[-8,-4],[-7,-5],[-3,-4],[-2,-5],[-16,-12],[-4,-16],[5,-15],[31,-54],[4,-4],[11,-2],[2,-4],[-6,-12],[-3,2],[3,6],[0,4],[-2,2],[-1,0],[-1,-3],[-3,-2],[-6,-4],[-10,-9],[-1,-1],[-15,0],[-6,1],[-7,3],[-6,5],[-2,5],[-19,13],[-4,4],[-2,0],[1,-4],[4,-9],[2,-11],[4,-7],[3,-4],[11,-7],[4,-4],[12,-15],[3,-2],[13,0],[5,-1],[7,-3],[3,-1],[24,0],[3,-4],[5,-1],[25,2],[28,10],[47,23],[7,1],[6,3],[9,7],[7,8],[4,6],[-4,2],[-6,4],[-3,5],[3,4]],[[3141,4006],[1,1],[-1,2],[-2,2],[-3,-1],[-11,-8],[-5,-4],[-3,-7],[-1,-3],[-5,-3],[-5,-1],[-5,2],[-4,1],[-3,-4],[-4,-6],[-4,-3],[-10,2],[-3,-2],[0,-7],[12,1],[11,4],[29,19],[15,14],[1,1]],[[2206,2374],[2,-2],[2,-1],[3,0],[3,1],[-2,1],[-3,1],[-2,0],[-3,0]],[[1236,1943],[2,9],[11,9],[14,9],[11,5],[22,11],[24,7],[15,5],[11,1],[15,-1],[11,0],[18,0],[-7,-3],[-8,-4],[-7,3],[-11,-3],[-8,2],[-6,-1],[-3,-2],[-5,-3],[-2,-1],[-3,0],[-6,-1],[-6,-5],[-13,-7],[-14,-5],[-13,-10],[-13,-3],[-8,-1],[-6,-6],[-6,-6],[-7,-5],[-2,6]],[[2529,367],[-1,9],[4,7],[5,2],[4,-3],[-1,-3],[-11,-12]],[[3137,815],[-1,8],[3,8],[5,4],[5,-3],[2,-6],[-2,-6],[-5,-4],[-7,-1]],[[1908,4096],[-23,-12],[0,7],[-4,4],[-5,0],[-6,-3],[6,-4],[0,-5],[-5,-5],[-6,-2],[-3,0],[-3,0],[-3,1],[-3,2],[-1,2],[-1,2],[-1,2],[-2,1],[-3,-1],[-2,-2],[-2,-3],[-1,-3],[-1,-6],[1,-6],[3,-6],[5,-4],[15,-4],[16,-1],[14,4],[37,24],[14,6],[29,9],[16,2],[15,-3],[8,-11],[-3,-15],[-14,-30],[4,-7],[16,1],[15,9],[43,35],[12,3],[8,5],[4,2],[4,0],[7,-1],[4,1],[7,3],[14,8],[4,1]],[[2144,4096],[5,-1],[14,-7],[6,-2],[5,1],[4,2],[4,3],[3,4],[1,0]],[[3520,4096],[11,-12],[12,-9],[19,-6],[10,-9],[16,-3],[15,-6],[7,-1],[6,-2],[5,-5],[2,-7],[1,-8],[3,-7],[6,-6],[7,-4],[4,5],[-3,1],[-3,2],[-3,2],[1,3],[4,1],[4,-1],[7,-3],[8,-1],[7,0],[7,2],[6,4],[1,-4],[0,-6],[1,-4],[5,-1],[0,-3],[-7,-2],[0,-3],[8,-3],[8,-4],[6,-1],[3,7],[4,6],[9,0],[25,-7],[26,-1],[4,-1],[3,-4],[1,-4],[3,-4],[3,-2],[2,-1],[15,-4],[2,-1],[4,-3],[3,-2],[4,0],[3,3],[1,4],[1,3],[4,-3],[5,-9],[4,-4],[3,-2],[8,-2],[7,0],[19,2],[5,-1],[7,-6],[6,-4],[29,-8],[15,-1],[14,1],[15,4],[19,9],[8,1],[15,1],[7,1],[6,4],[3,-3],[4,1],[3,0],[5,-1],[11,-1],[3,1],[1,1],[1,2],[1,2],[2,2],[2,1],[17,1],[17,4],[5,2],[2,2],[3,0],[3,-1]],[[4096,3957],[0,-1]],[[2966,3990],[-2,-1],[-11,-5],[-1,0],[1,-1],[-1,-2],[-5,-4],[-6,0],[-4,4],[-1,0],[1,-5],[5,-5],[7,0],[11,9],[6,4],[6,5],[-1,2],[-5,-1]],[[2920,3984],[-1,-1],[-1,-2],[-1,-2],[-3,-3],[-4,-2],[-4,-1],[-11,-3],[-2,-2],[-3,-3],[-3,-2],[-4,-1],[-7,-6],[-5,-2],[2,-1],[8,0],[5,2],[1,2],[2,1],[2,0],[11,6],[14,5],[7,5],[-1,7],[-2,3]],[[2671,4096],[2,-4],[10,-4],[10,0],[4,2],[-6,4],[-3,2]],[[772,2675],[-2,0],[1,-2],[0,-1],[-2,1],[-1,-2],[-1,-7],[2,-2],[3,5],[2,4],[0,2],[0,1],[-2,1]],[[750,2641],[0,-1],[-1,-1],[-1,-2],[-2,-2],[-2,-1],[0,-1],[0,-2],[1,-2],[1,0],[3,2],[2,4],[0,4],[-1,2]],[[739,2630],[-1,0],[-2,-1],[-2,-4],[1,-2],[4,0],[3,3],[1,4],[-1,1],[-3,-1]],[[693,2412],[-5,2],[-2,-1],[-1,-3],[2,-1],[1,-2],[2,-2],[3,-2],[3,1],[0,-2],[1,-8],[1,-3],[2,0],[2,3],[0,2],[1,2],[1,4],[-4,5],[-7,5]],[[3608,913]],[[828,769],[0,4],[2,2],[5,-1],[3,-7],[0,-6],[2,-4],[-3,-2],[-5,2],[-3,-1],[0,4],[-2,4],[1,5]],[[813,787],[-3,0],[-2,-2],[1,-6],[5,-4],[3,2],[2,3],[-3,6],[-3,1]],[[0,966],[34,-16],[35,-20]],[[467,2322],[-18,0],[-12,-10],[-17,-10],[-6,-2],[-17,1],[-10,-1],[-26,-15],[-15,-6],[-9,-8],[-10,-14],[-13,-15],[-4,-8]],[[3854,4096],[0,-8],[3,-8],[4,-5]],[[4096,4065],[-5,2],[-14,11],[-19,1],[-41,11],[-21,3],[-7,-1],[-17,-7],[-4,-6],[-25,-11],[-27,0],[-47,5],[-5,0],[-3,2]],[[1100,3773],[-67,-35],[-58,-28],[-50,-15],[-3,2],[-47,-6]],[[875,3691],[-43,-6],[-158,-46],[-19,-1]],[[120,3716],[15,13]],[[92,3691],[28,25]],[[154,3723],[-19,6]],[[655,3638],[-17,2],[-12,-1],[-64,-13],[-36,5],[-175,33],[-197,59]],[[0,3550],[7,22],[-1,14],[27,16],[15,19],[23,47],[21,23]],[[712,3196],[43,55],[9,14],[19,42],[11,14],[20,18],[51,41],[22,40],[32,16],[11,9],[29,47],[26,36],[30,31],[39,34],[11,11],[18,26],[12,8],[31,41],[21,72]],[[559,2795],[3,14],[9,22],[18,35],[61,78],[15,15],[13,2],[8,5],[7,104],[7,43],[18,38],[-6,45]],[[618,2789],[-4,-4],[-25,7]],[[585,2781],[4,11],[-8,2],[-16,-4],[-6,5]],[[310,2234],[-23,-16],[-16,-5],[-16,-14],[-7,-4],[-6,-1],[-10,3],[-5,-2],[-12,-8],[-18,-1],[-15,1],[-24,7],[-15,1],[-5,-4],[-6,-14],[-5,-5],[-19,-4],[-14,-2],[-29,3]],[[1176,1729],[-4,-3],[-21,-23],[-20,-15],[-46,-29],[-27,-14],[-11,-3],[-8,0]],[[962,1724]],[[962,1724],[-4,2],[-14,1],[-12,-9],[-22,-24],[-19,-27],[-27,-41]],[[1039,1642],[-17,2],[-4,3],[-5,10],[-4,13],[-1,22],[-11,12],[-25,16],[-10,4]],[[1359,1640],[-35,35],[-55,64],[-15,10],[-18,2],[-27,-6],[-22,-8],[-11,-8]],[[764,1644],[11,6],[5,14],[84,-38]],[[518,1727],[5,-22],[0,-10],[-4,-7],[-24,-7],[-34,-19],[-26,-3]],[[435,1659],[-2,8],[-7,6],[-49,2],[-6,3],[-29,30],[-11,18],[-16,12],[-16,20],[-19,30],[-12,32],[-3,3],[-9,2],[-3,3],[-5,13],[-23,45],[-2,15],[2,25],[-7,16],[1,49],[-4,17],[-6,11],[-8,9],[-10,16],[-3,3],[-62,30],[-21,13],[-9,9],[-18,25],[-12,13],[-2,7],[3,10],[-3,12]],[[764,1644],[10,-36],[-1,-72],[-4,-72],[-2,-1]],[[271,1537],[-28,-11],[-65,-32]],[[178,1494],[-51,-25],[-24,-14],[-80,-18],[-23,-7]],[[435,1659],[-20,-10],[-28,-25],[-21,-9],[-17,-16],[-9,-22],[-4,-5],[-13,-8],[-15,-14],[-37,-13]],[[764,1644],[-22,6],[-16,-3],[-24,-14],[-12,-12],[-7,-8],[-19,-16],[-6,-2],[-18,-2],[-48,1],[-21,-17],[-35,-33],[-10,-11],[-12,-9],[-6,-28],[-2,-28],[-12,-27],[-4,-46],[-8,-16],[-11,-12],[-22,-15],[-29,-28],[-30,-24],[-48,-32],[-34,-18],[-7,-23]],[[767,1463],[3,-43],[0,-86],[15,-25],[16,-7],[33,-7],[9,-6],[32,-31],[38,-14],[2,-30],[2,-19],[7,-20],[5,-9],[8,-5],[12,2],[11,-3],[16,-24],[7,-6],[27,-14],[11,-10],[18,-22]],[[1039,1084],[146,-8],[62,-11],[13,-7],[34,-36],[7,-11],[2,-13]],[[129,1156],[-14,26],[-22,4],[-17,-1],[-33,-12],[-39,-9],[-4,-1]],[[170,1065],[-41,91]],[[170,1065],[-13,-17],[-11,-18]],[[1039,1084],[-2,-14],[-1,-38],[-2,-11],[-23,-32],[-15,-15],[-23,-39],[-28,-38]],[[1303,998],[-1,-22],[3,-9],[12,-23],[5,-18],[0,-11],[-4,-13],[-20,-60]],[[945,897],[-27,-6],[-22,-1],[-20,3],[-33,9],[-17,1],[-13,-1]],[[300,977],[-1,-5],[0,-15],[3,-9]],[[301,1227],[-5,-24],[0,-17],[9,-62],[2,-25],[-1,-57],[-6,-65]],[[302,948],[1,-6]],[[262,946],[-3,2],[-2,1]],[[257,949],[-14,11],[-28,28],[-20,23],[-7,13],[-18,41]],[[303,942],[-14,-4],[-15,2],[-12,6]],[[945,897],[-10,-9],[-4,-6],[1,-8],[5,-10],[48,-36]],[[661,860],[-4,0],[-7,6],[-40,22],[-39,18],[-75,21],[-23,18],[-9,4],[-11,-1],[-25,-12],[-12,8],[-19,28],[-8,6],[-31,2],[-11,-1],[-8,-3],[-16,-12],[-20,-22]],[[146,1030],[-7,-15],[-17,-28],[-53,-57]],[[813,902],[-23,-8],[-5,-10],[-17,-23],[-4,-8],[-2,-11],[0,-14],[4,-18]],[[766,810],[-13,8],[-27,21],[-41,12],[-10,5],[-14,4]],[[985,828],[33,-61],[40,-63]],[[1382,361],[-18,1],[0,-13]],[[1298,842],[11,-14],[18,-28],[2,-48],[5,-22],[6,-11],[36,-52],[13,-17],[24,-23],[11,-14],[2,-13],[1,-24],[21,-55],[4,-24],[3,-30],[1,-52],[1,-2],[-6,-5],[-22,-31],[-12,-11],[-6,-4],[-12,-2],[-17,1]],[[1364,349],[0,-3]],[[1058,704],[17,-26],[9,-18],[5,-18],[1,-17],[-5,-20],[-12,-22],[4,-20],[38,-35],[14,-16],[6,-10],[7,-25],[6,-14],[16,-23],[32,-36],[23,-49],[10,-15],[15,-13],[15,-8],[15,-4],[15,0],[45,7],[9,7],[13,15],[8,2]],[[1584,38],[-24,14],[-24,29],[-7,51],[-18,28],[-20,27],[-22,39],[-11,9],[-29,9],[-48,26],[-14,39],[-3,37]],[[1590,0],[-6,38]],[[659,2405],[-16,6],[-7,10],[-22,5],[-10,9],[-6,7],[-3,16],[-7,6],[-10,3],[-7,11],[-7,9],[-7,17],[-5,10],[-1,28],[-10,18],[-1,10],[2,10],[-11,23],[-5,3],[-3,7],[5,11],[-3,24],[-5,9],[-2,7],[4,14],[6,3],[7,1],[3,4],[4,20],[6,14],[3,17],[34,44]],[[467,2322],[33,-1],[6,3],[9,9],[7,6],[6,11],[19,18],[19,5],[10,7],[9,5],[4,5],[15,5],[24,-1],[8,8],[15,5]],[[1147,3751],[-45,23],[-2,-1]],[[865,789],[-8,-1],[-5,1],[-1,0],[-2,2],[0,2],[3,0],[-1,2],[-3,4],[-1,2],[6,2],[4,1],[11,0],[1,-3],[0,-6],[-4,-6]],[[866,833],[3,-1],[10,3],[5,0],[0,-3],[-6,-3],[4,-15],[-5,-5],[-17,6],[-8,4],[1,7],[5,7],[3,2],[5,-2]],[[679,2471],[-12,-1],[0,2],[1,1],[2,2],[7,3],[21,15],[4,2],[-3,-13],[-9,-7],[-11,-4]],[[784,2655],[-1,-8],[-5,-5],[-2,-4],[-8,-21],[-3,-7],[-3,2],[-2,1],[-1,-4],[-2,-3],[-2,-2],[-3,-1],[0,-3],[3,-5],[3,5],[1,2],[1,4],[2,0],[-3,-17],[-7,-15],[-11,-11],[-16,-4],[0,2],[4,0],[1,0],[13,10],[5,6],[2,10],[-6,0],[2,12],[6,23],[1,2],[2,1],[1,2],[1,3],[0,4],[6,20],[3,3],[6,-2],[8,5],[4,-5]],[[2137,4096],[-4,-1],[-14,-8],[-7,-3],[-4,-1],[-7,1],[-4,0],[-4,-2],[-8,-5],[-12,-3],[-43,-35],[-15,-9],[-16,-1],[-4,7],[14,30],[3,15],[-8,11],[-15,3],[-16,-2],[-29,-9],[-14,-6],[-37,-24],[-14,-4],[-16,1],[-15,4],[-5,4],[-3,6],[-1,6],[1,6],[1,3],[2,3],[2,2],[3,1],[2,-1],[1,-2],[1,-2],[1,-2],[3,-2],[3,-1],[3,0],[3,0],[6,2],[5,5],[0,5],[-6,4],[6,3],[5,0],[4,-4],[0,-7],[23,12],[229,0]],[[3144,3098],[5,-7],[10,0],[7,3],[1,4],[3,5],[2,-1],[5,-1],[0,2],[0,1],[-2,2],[2,-3],[0,2],[-1,1],[0,1],[1,2],[-1,1],[-1,2],[-2,4],[6,0],[13,-6],[8,-1],[19,2],[8,0],[7,-1],[7,-2],[3,-4],[1,-10],[-7,-5],[-10,-2],[-13,3],[-9,-1],[-7,-1],[-7,-2],[-6,-4],[-6,-5],[-4,0],[-23,3],[-7,0],[-6,0],[-4,-3],[-4,3],[1,6],[1,3],[1,4],[1,7],[0,5],[-1,5],[-6,4],[-4,3],[1,5],[2,3],[5,1],[7,-2],[-1,-5],[3,-6],[4,-7],[-2,-8]],[[3654,3244],[-2,0],[-3,-2],[-10,-3],[-26,-14],[-13,2],[5,7],[6,3],[7,6],[9,1],[11,0],[10,4],[6,-4]],[[3694,3239],[-14,-4],[8,9],[25,11],[12,7],[8,2],[6,-2],[1,-5],[-17,-9],[-29,-9]],[[4011,3678],[-2,-2],[-1,2],[-1,2],[-9,2],[-18,12],[-4,4],[5,1],[6,-1],[6,-1],[3,-3],[4,-2],[9,-1],[6,-2],[-1,-6],[-3,-5]],[[3939,3740],[16,-9],[14,-14],[9,-11],[-2,0],[-5,0],[1,-2],[1,-6],[-10,5],[-7,6],[-13,15],[0,3],[7,-3],[4,-4],[5,-5],[4,-4],[-5,7],[-8,10],[-9,8],[-8,1],[0,-3],[1,-1],[1,-1],[0,-1],[1,-2],[-4,1],[-4,3],[-3,2],[-2,4],[16,1]],[[3884,3780],[14,-14],[-5,-3],[-6,0],[-6,2],[-5,3],[2,0],[8,0],[-2,5],[-2,2],[-3,1],[-3,-2],[-9,6],[-4,4],[12,2],[9,-6]],[[1184,3573],[-13,-22],[-5,-13],[-6,-6],[-11,-9],[-4,-6],[-9,-17],[-2,-7],[-2,-2],[-3,-2],[-3,-2],[-2,-4],[-1,-3],[-4,-4],[-19,-17],[-6,-3],[-3,3],[-1,8],[-5,16],[-1,9],[1,16],[4,15],[15,26],[11,16],[3,1],[6,5],[3,2],[3,0],[2,-1],[2,-1],[1,-1],[4,-1],[9,-3],[4,-1],[4,1],[8,5],[5,-1],[7,2],[5,4],[3,6],[0,1],[2,0],[2,-1],[1,-3],[-1,-1],[-4,-5]],[[4032,3669],[0,-5],[18,1],[6,-4],[5,-10],[-3,0],[-6,4],[-26,3],[-8,8],[4,7],[4,3],[3,0],[2,-3],[1,-4]],[[4096,3957],[0,-1],[0,1]],[[4096,4096],[0,-116],[-3,1],[-3,0],[-2,-2],[-5,-2],[-17,-4],[-17,-1],[-2,-1],[-2,-2],[-1,-2],[-1,-2],[-1,-1],[-3,-1],[-11,1],[-5,1],[-3,0],[-4,-1],[-3,3],[-6,-4],[-7,-1],[-15,-1],[-8,-1],[-19,-9],[-15,-4],[-14,-1],[-15,1],[-29,8],[-6,4],[-7,6],[-5,1],[-19,-2],[-7,0],[-8,2],[-3,2],[-4,4],[-5,9],[-4,3],[-1,-3],[-1,-4],[-3,-3],[-4,0],[-3,2],[-4,3],[-2,1],[-15,4],[-2,1],[-3,2],[-3,4],[-1,4],[-3,4],[-4,1],[-26,1],[-25,7],[-9,0],[-4,-6],[-3,-7],[-6,1],[-8,4],[-8,3],[0,3],[7,2],[0,3],[-5,1],[-1,4],[0,6],[-1,4],[-6,-4],[-7,-2],[-7,0],[-8,1],[-7,3],[-4,1],[-4,-1],[-1,-3],[3,-2],[3,-2],[3,-1],[-4,-5],[-7,4],[-6,6],[-3,7],[-1,8],[-2,7],[-5,5],[-6,2],[-7,1],[-15,6],[-16,3],[-10,9],[-19,6],[-12,9],[-11,12],[576,0]],[[2881,3953],[-8,0],[-2,1],[5,2],[7,6],[4,1],[3,2],[3,3],[2,2],[11,3],[4,1],[4,2],[3,3],[1,2],[1,2],[1,1],[2,-3],[1,-7],[-7,-5],[-14,-5],[-11,-6],[-2,0],[-2,-1],[-1,-2],[-5,-2]],[[3125,3991],[-29,-19],[-11,-4],[-12,-1],[0,7],[3,2],[10,-2],[4,3],[4,6],[3,4],[4,-1],[5,-2],[5,1],[5,3],[1,3],[3,7],[5,4],[11,8],[3,1],[2,-2],[1,-2],[-1,-1],[-1,-1],[-15,-14]],[[2600,4092],[30,-7],[20,-5],[6,-3],[5,-4],[2,-6],[-1,-7],[-2,-5],[1,-4],[5,-6],[16,-13],[5,0],[4,-2],[2,-4],[2,-5],[2,-3],[0,-3],[-2,-5],[-4,-7],[-3,0],[2,-3],[1,-3],[-1,-4],[-2,-3],[8,-5],[5,-2],[5,-1],[0,-3],[-3,-4],[3,-5],[6,-4],[4,-2],[-4,-6],[-7,-8],[-9,-7],[-6,-3],[-7,-1],[-47,-23],[-28,-10],[-25,-2],[-5,1],[-3,4],[-24,0],[-3,1],[-7,3],[-5,1],[-13,0],[-3,2],[-12,15],[-4,4],[-11,7],[-3,4],[-4,7],[-2,11],[-4,9],[-1,4],[2,0],[4,-4],[19,-13],[2,-5],[6,-5],[7,-3],[6,-1],[15,0],[1,1],[10,9],[6,4],[3,2],[1,3],[1,0],[2,-2],[0,-4],[-3,-6],[3,-2],[6,12],[-2,4],[-11,2],[-4,4],[-31,54],[-5,15],[4,16],[16,12],[2,5],[3,4],[7,5],[8,4],[7,1],[-4,2],[-4,1],[-5,0],[-4,2],[0,1],[2,1],[1,0],[20,0],[30,-4]],[[1136,1874],[0,-4],[-6,0],[-6,-1],[-10,-4],[-9,-5],[-5,4],[-7,3],[3,4],[17,8],[9,2],[5,1],[5,1],[4,0],[3,-2],[-3,-7]],[[1383,1995],[-8,-4],[-7,3],[-11,-3],[-8,2],[-6,-1],[-3,-2],[-5,-3],[-2,-1],[-3,0],[-6,-1],[-6,-5],[-13,-7],[-14,-5],[-13,-10],[-13,-3],[-8,-1],[-6,-6],[-6,-6],[-7,-5],[-2,6],[2,9],[11,9],[14,9],[11,5],[22,11],[24,7],[15,5],[11,1],[15,-1],[11,0],[18,0],[-7,-3]],[[1494,2001],[-18,-13],[-2,4],[4,6],[5,10],[6,2],[5,11],[5,5],[12,5],[6,-2],[6,-5],[-2,-4],[-8,-1],[-2,-6],[-5,-6],[-7,-1],[-5,-5]],[[800,2335],[0,-9],[-3,0],[0,4],[0,2],[-2,-1],[-1,-1],[-1,-2],[-1,-2],[0,23],[-1,10],[-4,4],[5,4],[4,-7],[6,-18],[-2,-3],[0,-4]],[[805,2418],[2,-8],[-1,-6],[-8,-15],[-5,-6],[-3,-7],[-6,-3],[-7,6],[-4,-7],[-4,-3],[-4,-5],[-3,-9],[-2,-17],[-1,-3],[-2,-4],[-2,-4],[0,-6],[-5,5],[1,2],[1,1],[0,1],[0,2],[1,8],[3,13],[2,18],[3,6],[5,5],[6,4],[8,8],[3,0],[6,-2],[4,0],[4,3],[3,7],[0,8],[-3,5],[-4,-3],[-3,-2],[-3,0],[0,2],[4,11],[4,0],[5,-2],[5,-3]],[[0,1218],[0,2592],[6,3],[23,16],[6,2],[6,1],[37,13],[39,7],[29,0],[51,9],[26,2],[43,5],[30,8],[14,2],[9,-3],[4,0],[4,1],[7,4],[3,0],[31,6],[24,7],[16,1],[7,2],[13,5],[44,11],[13,8],[23,20],[7,3],[23,3],[7,2],[13,6],[7,2],[29,0],[6,-1],[12,-6],[7,-1],[6,1],[12,4],[20,2],[7,2],[5,3],[5,2],[23,-1],[-7,3],[-9,2],[-8,0],[-13,-7],[-14,-3],[-3,-1],[1,4],[8,4],[8,3],[10,1],[8,4],[3,1],[5,-1],[16,-4],[31,0],[9,-1],[23,-10],[15,-4],[32,-5],[22,-6],[1,-1],[-3,-2],[-4,-2],[-4,0],[-5,1],[-3,2],[-6,2],[-25,5],[-8,2],[9,-7],[11,-6],[12,-4],[12,-1],[25,0],[11,-2],[6,-1],[7,3],[-16,1],[-7,2],[-6,3],[2,2],[24,-3],[20,-7],[9,-1],[10,1],[4,-1],[1,-1],[1,-3],[3,-3],[4,0],[-2,-2],[-2,-1],[-2,1],[-1,2],[-2,0],[3,-5],[7,0],[16,2],[8,-1],[20,-7],[23,1],[6,-2],[6,-3],[7,1],[26,11],[4,3],[4,8],[3,3],[2,4],[-1,3],[-1,3],[-1,3],[0,3],[1,3],[-1,1],[-5,2],[-9,1],[-8,-3],[-8,-4],[-6,-5],[-7,-4],[-9,0],[-9,2],[-7,3],[-2,-3],[-2,6],[-1,2],[-5,-3],[-10,-7],[-7,-3],[0,-1],[1,-1],[2,0],[-4,-2],[-3,1],[-2,3],[1,5],[11,10],[4,4],[2,2],[3,0],[9,0],[11,-2],[4,-2],[7,-1],[10,3],[40,19],[9,1],[24,-8],[7,-3],[10,-11],[19,-27],[2,-4],[2,-3],[2,-3],[2,-8],[2,-3],[3,-1],[4,-2],[2,5],[3,1],[8,-3],[9,0],[4,-2],[6,-19],[0,-5],[0,-6],[-4,-9],[0,-5],[0,-18],[3,-25],[8,-18],[18,3],[-1,-4],[-1,-2],[-1,-2],[-8,-17],[-2,-3],[-4,-10],[0,-3],[2,-3],[0,-2],[0,-3],[-1,0],[-2,0],[-2,-1],[-2,-1],[-5,-2],[-2,-2],[-2,-3],[-1,-3],[0,-8],[-1,-5],[-6,-20],[-9,-20],[0,-4],[-25,-35],[-34,-38],[-7,-12],[-4,-5],[-20,-12],[-6,-6],[-15,-9],[-20,-21],[-44,-63],[-4,-12],[-5,-2],[-2,-2],[0,-4],[2,-3],[-11,-8],[-7,-9],[-5,-12],[-8,-30],[-2,-16],[1,-32],[3,-9],[8,-15],[2,-8],[-1,-4],[-3,-14],[-2,-2],[-2,-1],[-3,-2],[-4,-17],[-2,-4],[-1,15],[0,5],[1,1],[4,1],[3,2],[3,1],[1,4],[1,5],[1,15],[-7,6],[-1,3],[-1,6],[-1,3],[-3,1],[-2,-1],[-2,-3],[1,-3],[3,-3],[1,-3],[2,-12],[0,-5],[-2,-4],[2,2],[2,1],[4,3],[-16,-23],[-3,-3],[-2,-2],[-2,-3],[-3,-2],[-3,0],[-3,3],[-3,2],[-2,-1],[-3,-5],[-6,-1],[-7,-10],[-7,-13],[-4,-11],[-6,-12],[-4,-12],[-4,-5],[-4,1],[4,3],[3,5],[2,5],[-2,5],[-4,0],[-19,0],[-4,0],[-3,-4],[-1,-8],[0,-8],[1,-6],[4,-5],[10,-7],[1,-3],[3,-2],[4,-1],[4,0],[4,0],[-2,-6],[-1,-11],[-2,-6],[7,0],[5,4],[4,6],[4,5],[4,2],[11,4],[5,2],[10,-3],[8,-4],[2,-1],[2,1],[1,3],[0,2],[2,2],[3,0],[2,-2],[3,-1],[2,3],[1,-1],[1,-1],[1,0],[2,-1],[-5,-2],[0,-3],[10,3],[5,7],[0,7],[-5,2],[2,-5],[0,-2],[-3,-1],[-12,0],[-10,1],[-4,2],[-5,2],[7,0],[22,-3],[0,3],[0,2],[3,10],[0,6],[7,-14],[3,-8],[-1,-4],[-3,-4],[-3,-25],[-4,-7],[-6,-7],[-6,-5],[-6,-1],[-2,-2],[-10,-10],[-3,-2],[-14,-2],[7,2],[3,4],[1,4],[2,6],[-13,-4],[-17,-9],[-13,-12],[-5,-15],[3,0],[3,8],[2,0],[-3,-6],[-5,-6],[-3,-4],[6,-2],[-8,-16],[-2,-9],[4,-4],[6,-1],[4,-3],[4,0],[7,7],[10,11],[3,7],[2,7],[4,5],[9,2],[17,2],[-8,-16],[5,4],[3,5],[5,4],[7,0],[0,-2],[-7,-4],[-6,-6],[-9,-14],[-4,-9],[-4,-20],[-5,-7],[3,-9],[-4,-12],[-8,-19],[-8,-12],[-8,-50],[-13,-47],[-6,-10],[-9,-11],[-7,-11],[-5,-14],[-2,-17],[2,-16],[-1,-8],[-5,-8],[-2,-6],[-1,-27],[-4,-9],[-17,-26],[-2,-5],[-1,-6],[-5,-12],[-1,-6],[0,-25],[-3,0],[-1,11],[-1,8],[-6,-7],[-5,1],[-1,5],[3,3],[3,5],[2,9],[1,10],[0,5],[-1,-4],[-2,-3],[-2,-4],[-2,-2],[-2,4],[1,4],[2,4],[1,6],[-1,1],[-5,6],[0,2],[0,3],[0,4],[-1,3],[-10,2],[-1,0],[-2,2],[0,3],[2,3],[1,0],[-2,6],[-1,4],[-4,2],[-7,1],[-10,3],[-19,10],[-8,3],[-4,2],[-1,6],[1,6],[0,3],[12,14],[-2,8],[4,8],[5,8],[3,6],[1,3],[4,7],[0,4],[0,1],[-2,1],[-2,3],[-1,2],[1,2],[1,2],[0,2],[1,0],[2,16],[0,8],[-3,6],[-4,6],[-3,6],[-2,16],[-8,-7],[-9,-10],[-8,-11],[-3,-10],[0,-6],[-2,-6],[-3,-5],[-3,-3],[-3,3],[1,7],[2,7],[-1,-2],[-4,-5],[-7,-2],[-8,0],[-3,-2],[-16,-14],[-2,-2],[-2,-4],[-1,-4],[7,3],[8,6],[6,7],[4,8],[2,-7],[-1,-5],[-3,-5],[-1,-7],[2,3],[3,4],[4,3],[4,0],[3,-2],[-2,-2],[-4,-3],[-2,0],[-9,-19],[-8,-11],[-10,-19],[-2,-6],[-8,-11],[-3,-7],[-4,-1],[-2,-1],[-1,-1],[0,-1],[0,-2],[6,-5],[-7,-10],[-29,-20],[-2,-5],[4,-6],[5,-1],[18,8],[-2,-5],[-4,-6],[-8,-11],[-2,-3],[1,-2],[3,0],[3,3],[6,7],[12,8],[6,3],[6,1],[8,-1],[11,-5],[4,-2],[8,1],[11,8],[13,4],[4,1],[2,-2],[-1,-5],[-2,-4],[-7,-5],[-8,-4],[-2,-2],[0,-4],[2,-1],[4,2],[2,4],[3,2],[4,2],[4,1],[1,-2],[3,-45],[-3,-35],[-1,-6],[-5,-9],[-2,-6],[-13,-35],[-7,-5],[-15,-29],[3,-10],[-5,-32],[-9,-31],[-3,-7],[-9,-11],[-4,-7],[-2,-8],[2,-9],[4,-5],[13,-6],[3,-6],[4,-3],[15,-3],[3,-3],[-4,-7],[-10,0],[-9,1],[-4,-3],[-1,-6],[-15,-51],[-4,-38],[0,-8],[-1,-15],[2,-8],[2,-7],[0,-1],[0,-4],[2,-8],[1,-5],[4,-2],[8,-3],[4,-5],[3,-8],[2,-8],[1,-12],[2,-9],[-1,-5],[-2,-1],[-3,0],[-4,-1],[-4,-4],[-5,-5],[-4,-7],[-2,-6],[2,-7],[7,-11],[1,-7],[1,0],[1,-1],[1,-2],[0,-2],[-2,0],[-4,0],[-2,0],[-5,-4],[-1,-2],[-1,-3],[-1,-2],[-2,-2],[-2,-3],[0,-4],[0,-4],[2,-6],[0,-4],[-3,-27],[-3,-4],[-3,-3],[-3,-5],[-5,-16],[-2,-4],[-1,-7],[3,-10],[-2,-3],[-2,-4],[-3,0],[-1,6],[11,43],[7,7],[2,4],[-10,-5],[-10,-25],[-7,-10],[2,0],[5,-2],[-2,-2],[-2,0],[-3,0],[-3,2],[1,-4],[1,-1],[2,-1],[3,0],[0,-2],[-3,-3],[-3,-3],[-1,-5],[1,-2],[2,-3],[-7,-5],[-8,-15],[-7,-3],[0,-2],[-1,-9],[0,-2],[-2,-1],[-2,0],[-1,0],[0,1],[-2,-2],[-1,0],[-1,-1],[-1,-2],[-5,-12],[-1,-2],[-3,-1],[-10,-13],[-1,-2],[-1,-5],[-1,-2],[0,-1],[0,-3],[0,-1],[-1,0],[-3,0],[-1,0],[-2,-1],[-4,-1],[-2,-1],[-1,-1],[-1,-7],[0,16],[-3,0],[-2,-8],[-5,-1],[-5,3],[-3,5],[-1,2],[-3,0],[-3,0],[-2,-1],[0,-1],[0,-7],[-1,-2],[-3,-1],[-12,-2],[-2,-1],[-2,-2],[-2,-2],[-5,0],[-5,-3],[-2,-6],[1,-15],[-1,-7],[-4,-6],[-5,-4],[-6,-1],[-2,-1],[-2,-2],[-2,-3],[-2,-7],[-2,-2],[-3,-1],[-4,-2],[-4,-4],[-1,-2],[-2,-2],[-1,-4],[0,-4],[-1,-4],[-9,-2],[-6,-4],[-6,-5],[-5,-5],[-1,-10],[8,-16],[-2,-9],[5,-2],[13,-11],[12,4],[17,-4],[12,-7],[1,-8],[9,-2],[36,-23],[-4,-17],[1,-3],[9,0],[4,2],[1,3],[0,3],[-1,0],[0,2],[-1,1],[-1,2],[0,3],[2,0],[3,0],[3,1],[2,3],[1,6],[3,4],[4,4],[2,3],[0,6],[-3,9],[0,6],[3,0],[0,-4],[0,-2],[2,0],[4,3],[11,-2],[5,2],[-8,8],[-5,4],[-7,3],[-2,4],[-3,4],[-2,3],[-16,9],[-5,6],[6,6],[5,-3],[11,-5],[4,-2],[10,-12],[8,-4],[19,-16],[38,-18],[12,-11],[4,-2],[16,-14],[13,-6],[2,-1],[16,-12],[9,-2],[10,4],[21,23],[9,5],[-2,6],[4,2],[14,-2],[21,13],[3,5],[1,4],[-2,1],[-4,2],[-4,2],[-1,3],[1,1],[15,0],[7,2],[5,5],[11,3],[32,2],[6,2],[2,6],[3,1],[2,0],[7,-1],[6,-2],[16,-10],[6,0],[0,2],[-3,4],[3,4],[13,8],[-7,-10],[-2,-5],[3,-3],[2,-3],[34,-31],[11,-5],[11,3],[2,2],[4,6],[2,2],[3,0],[10,0],[2,1],[2,7],[5,3],[8,1],[37,-9],[33,-12],[34,-3],[39,-9],[13,-2],[13,2],[23,7],[6,1],[1,1],[6,5],[2,0],[2,2],[4,-2],[5,-2],[1,-1],[16,-2],[71,6],[12,0],[11,-4],[1,-1],[8,-5],[6,-2],[9,-1],[7,2],[6,2],[35,22],[9,10],[4,4],[13,5],[12,3],[52,2],[5,1],[3,2],[15,11],[7,8],[4,9],[-6,8],[-23,3],[-11,3],[1,4],[10,1],[28,-5],[20,-4],[13,-2],[17,-5],[18,-4],[5,-1],[4,-2],[1,-5],[0,-5],[1,-4],[3,0],[0,3],[1,1],[1,1],[1,0],[6,0],[3,-5],[6,-5],[8,-6],[16,-7],[28,-7],[19,2],[27,2],[39,2],[21,8],[26,20],[18,10],[27,1],[18,-6],[35,-16],[44,-13],[21,-7],[5,-4],[-2,-5],[-4,-7],[0,-6],[0,-10],[7,-7],[7,-1],[9,3],[2,7],[1,4],[3,0],[3,-5],[6,-5],[9,2],[9,-1],[18,-3],[3,4],[6,3],[-8,3],[-9,2],[-29,5],[-11,5],[-9,4],[-3,6],[14,-3],[51,-9],[32,-4],[22,-1],[7,-2],[20,-17],[27,-22],[39,-34],[39,-33],[21,-18],[28,-17],[7,-4],[6,-3],[13,-3],[3,-1],[3,-4],[0,-3],[-2,-2],[-6,-1],[-6,3],[-14,11],[-10,3],[-7,5],[-4,2],[-11,0],[-4,1],[-5,4],[2,1],[2,1],[1,1],[-3,4],[-12,14],[-2,0],[-4,-2],[-5,3],[-5,4],[-5,3],[-7,-1],[-4,-3],[-2,-3],[-6,-3],[-2,1],[-10,4],[5,4],[2,2],[0,3],[-1,1],[-4,0],[-4,0],[-3,0],[-1,-4],[2,-7],[4,-7],[5,-5],[-1,-1],[-1,-1],[-1,-1],[-2,0],[-11,21],[-4,5],[-4,1],[-5,-1],[-6,-2],[-4,0],[-7,1],[-4,1],[3,-9],[2,-3],[7,-2],[0,-3],[-1,-5],[-1,-4],[2,0],[2,6],[7,3],[3,11],[4,1],[3,-2],[5,-13],[6,-10],[2,-8],[-8,-4],[-4,-4],[3,-10],[6,-10],[6,-7],[10,-5],[8,-2],[3,4],[-3,11],[5,-4],[4,-5],[2,-6],[-3,-6],[5,-6],[7,-2],[17,3],[0,-3],[-3,0],[-2,0],[-5,-2],[0,-3],[3,-6],[5,-6],[6,-5],[8,-1],[6,1],[9,2],[8,3],[5,4],[-4,5],[-16,8],[-2,3],[-2,2],[-1,2],[-3,1],[-4,0],[-28,10],[-5,3],[-8,13],[-4,3],[3,3],[3,2],[9,3],[32,-15],[5,-8],[2,-4],[5,-3],[7,-3],[10,-2],[4,-3],[4,-5],[3,-4],[-2,-2],[-3,-3],[-2,-1],[0,-2],[6,-1],[5,3],[4,1],[2,-11],[-1,-14],[1,-4],[3,-3],[3,0],[2,3],[0,5],[2,0],[3,-7],[4,1],[6,11],[5,4],[8,2],[13,2],[1,2],[0,8],[0,3],[3,2],[2,0],[3,-1],[23,-5],[7,1],[0,-2],[-3,-2],[1,-2],[1,-2],[1,-2],[0,-12],[-2,-5],[-5,-3],[-4,2],[-2,6],[-1,2],[-3,1],[-4,1],[-3,0],[-2,-1],[-2,-4],[-3,-5],[-1,-2],[-2,-1],[-1,-2],[-1,-4],[1,-4],[2,0],[3,1],[2,1],[-2,4],[0,2],[0,2],[2,3],[3,0],[0,-10],[3,-6],[4,-3],[8,3],[2,2],[3,6],[2,2],[3,2],[16,6],[0,1],[-2,5],[-1,2],[-2,2],[-2,2],[-2,4],[-1,5],[-3,7],[-4,5],[-7,-4],[-11,7],[-5,1],[-7,-3],[-2,3],[1,1],[1,4],[-5,1],[-16,6],[-3,2],[-4,4],[-8,3],[-5,3],[2,7],[6,3],[5,-3],[5,-5],[5,-3],[4,-1],[39,-21],[49,-18],[19,-14],[4,-8],[6,-24],[6,-15],[10,-15],[11,-9],[45,-18],[-3,-4],[-6,-3],[-4,-4],[-5,7],[-4,-5],[-4,-8],[-2,-4],[-5,-2],[-5,-6],[-3,-6],[-1,-6],[-1,-1],[-5,-5],[-2,-3],[-1,-3],[0,-8],[-1,-4],[-3,-5],[-4,-3],[-13,-5],[1,2],[1,2],[3,3],[0,-2],[1,2],[1,1],[0,2],[0,3],[-3,-2],[-1,0],[-3,2],[0,2],[4,2],[5,1],[3,-2],[3,-3],[0,7],[-4,10],[-1,7],[-2,8],[-6,1],[-6,-2],[-4,-3],[-7,-6],[-16,-21],[-4,-9],[4,3],[1,2],[5,-4],[4,-16],[2,-3],[5,-3],[5,-5],[6,-2],[5,7],[-2,2],[-7,5],[-3,1],[4,2],[4,-1],[4,-4],[3,-5],[0,9],[2,2],[4,-3],[14,-67],[1,-2],[3,-7],[3,-18],[18,-52],[0,-3],[2,-12],[-2,-13],[-10,-24],[-30,-50],[-13,-16],[-2,-6],[-3,-5],[-17,-12],[-7,-11],[-5,-12],[-9,-35],[-14,-48],[-9,-44],[1,-18],[-2,-9],[0,-8],[-7,-19],[-7,-25],[-4,-49],[1,-9],[2,-5],[-2,-2],[2,-5],[12,-75],[8,-50],[-12,-100],[0,-22],[1,-4],[5,-11],[4,-12],[10,-15],[2,-9],[-1,-12],[-4,-6],[-7,-3],[-12,0],[-9,-2],[-9,-3],[-8,-2],[-7,4],[2,3],[8,6],[2,2],[0,5],[-1,5],[-2,6],[-8,7],[0,25],[-1,9],[1,1],[1,2],[2,0],[13,-4],[9,11],[3,18],[-4,11],[0,3],[3,4],[1,5],[1,21],[0,1],[2,1],[1,2],[2,3],[-2,10],[-7,6],[-9,2],[-10,0],[-7,-5],[-4,-7],[1,-8],[3,-6],[8,-5],[0,-1],[0,-1],[1,-6],[0,-3],[2,-3],[2,-1],[1,-1],[1,-4],[-1,-7],[0,-2],[-2,-3],[1,-2],[4,-6],[-11,-7],[-20,-16],[-11,-5],[-16,-2],[-7,-2],[-2,-5],[0,-20],[0,-1],[1,1],[4,0],[4,-1],[3,0],[2,-1],[3,-3],[3,-17],[-2,-8],[-2,-8],[-2,-7],[3,-7],[7,-4],[11,3],[2,-6],[0,-4],[-2,-7],[0,-5],[0,-2],[2,4],[6,19],[2,5],[3,2],[7,-1],[2,-3],[-17,-35],[-8,-45],[3,-49],[2,-8],[-2,-2],[-3,-1],[2,8],[-3,7],[-9,11],[-4,10],[3,4],[6,4],[2,9],[-1,6],[-5,7],[-7,7],[-6,3],[-12,-1],[1,-6],[6,-3],[5,5],[2,0],[6,-7],[3,-4],[1,-5],[-1,-6],[-6,-8],[-1,-6],[-2,-8],[-6,0],[-15,5],[-2,-1],[4,-3],[9,-4],[2,-3],[2,-4],[1,-5],[0,-5],[-1,-3],[-3,-7],[-1,-3],[1,-2],[1,-2],[1,-3],[0,-2],[-2,-2],[-2,-2],[-2,0],[-2,-1],[-6,-9],[-2,-2],[-4,-1],[-3,-3],[-3,-3],[-2,-3],[5,-4],[6,-5],[5,-6],[3,-7],[3,-2],[3,-2],[4,0],[5,1],[1,1],[-2,3],[0,3],[2,7],[2,4],[3,1],[6,1],[4,-3],[17,-70],[1,-13],[-1,-5],[0,-3],[-2,-3],[-2,-2],[-1,1],[-5,-1],[-5,-2],[-1,-1],[-3,-1],[-3,-6],[-4,-1],[-4,0],[-4,-1],[-3,-1],[-2,-3],[-4,-12],[-4,-18],[-5,-13],[-7,1],[-3,0],[-11,-15],[-4,-6],[-1,-6],[0,-39],[8,-36],[-716,0],[-4,5],[-38,45],[-4,3],[-1,1],[-6,4],[-1,1],[-13,4],[-5,5],[-13,16],[-9,5],[-13,13],[-16,10],[-5,4],[-1,4],[-4,11],[-11,5],[-14,14],[-33,15],[-6,4],[-5,6],[-4,12],[-43,34],[-7,9],[-10,23],[-4,3],[-4,2],[-9,10],[-6,8],[-6,12],[-1,6],[-2,5],[-4,5],[-9,7],[-9,11],[-14,24],[-12,36],[-4,6],[-9,8],[-75,47],[-4,5],[-21,13],[-11,12],[-25,11],[-1,9],[4,-5],[7,-5],[9,-4],[8,-1],[-9,10],[-5,4],[-5,1],[-3,3],[-8,16],[-3,0],[4,-14],[-6,5],[-9,12],[-7,7],[-5,2],[-23,18],[-3,3],[-1,4],[-2,7],[-1,-2],[-3,-4],[-1,-2],[-40,48],[-5,10],[2,-2],[1,-1],[4,-3],[0,3],[-1,0],[-4,3],[0,2],[0,4],[-7,5],[-8,5],[-7,2],[0,-3],[10,-6],[5,-5],[0,-4],[-4,0],[-5,4],[-8,8],[-43,27],[-9,8],[-5,9],[0,11],[6,13],[11,10],[10,6],[8,9],[2,14],[2,0],[-1,-8],[-1,-2],[4,0],[5,-1],[4,-1],[2,-2],[1,-1],[10,-8],[2,-1],[6,-9],[2,-2],[5,-3],[1,-1],[0,-2],[0,-6],[0,-2],[12,-12],[15,-4],[38,3],[0,2],[-19,0],[-10,1],[-4,3],[4,6],[18,9],[2,2],[4,3],[1,5],[2,3],[4,3],[5,2],[0,2],[-10,1],[-7,1],[-6,3],[-4,6],[-3,4],[0,2],[0,6],[3,1],[11,1],[4,2],[-21,5],[-12,2],[-7,-3],[-2,0],[-1,15],[-5,15],[-7,13],[-8,10],[-2,6],[-1,2],[-2,0],[-3,-1],[-1,1],[-3,3],[-1,3],[0,3],[4,4],[3,2],[6,3],[3,3],[7,10],[3,3],[5,-1],[6,1],[11,5],[0,3],[0,2],[0,3],[-5,5],[-3,2],[-3,0],[-7,-1],[-3,1],[-4,3],[-6,-5],[-2,-2],[-2,-3],[0,-5],[1,-3],[0,-2],[-3,-3],[-3,-1],[-12,1],[-6,-2],[-3,0],[-4,2],[0,2],[6,0],[0,3],[-7,1],[-7,3],[-7,0],[-4,-4],[-3,0],[1,3],[4,10],[-5,2],[-1,4],[1,11],[-2,6],[-4,-1],[-6,-5],[-3,-4],[3,-11],[-5,-10],[-10,-7],[-10,-3],[-7,1],[-8,5],[-7,3],[-1,2],[0,3],[-1,1],[-4,0],[-2,1],[-5,2],[-1,0],[-2,2],[-2,3],[-3,8],[-10,-18],[-3,-11],[7,-5],[4,-1],[12,-12],[7,-5],[1,-2],[0,-5],[-3,-8],[-8,-6],[-27,-13],[-7,-6],[-1,-7],[8,-5],[-13,-4],[-50,4],[-12,2],[-2,0],[-6,-2],[-32,-3],[-33,5],[-9,-2],[-5,1],[-5,1],[0,3],[8,0],[1,6],[-5,7],[-6,5],[1,-3],[4,-6],[2,-4],[-13,1],[-6,-1],[-6,-2],[4,-2],[2,0],[4,1],[5,1],[0,-3],[-9,-4],[-9,0],[-7,5],[-2,9],[3,-1],[2,-1],[5,5],[0,2],[-7,3],[-7,10],[-4,3],[1,-6],[2,-4],[1,-4],[-1,-4],[-6,3],[-15,4],[-7,4],[-6,11],[-3,1],[-4,1],[-12,2],[-5,0],[-15,-3],[-20,0],[-5,-2],[2,-2],[3,-2],[3,0],[2,1],[10,-3],[30,4],[3,-1],[5,-2],[2,-3],[5,-6],[3,-2],[0,-3],[-7,1],[-5,1],[-11,4],[0,-3],[30,-6],[16,-5],[7,-7],[-3,-5],[-6,1],[-8,4],[-4,4],[-6,3],[-94,17],[-11,6],[-91,43],[-43,27],[-24,11],[-27,6],[-13,0],[-9,3],[-1,0],[-51,-1],[-22,6],[-10,2],[-23,8],[-13,-3],[-34,0],[-6,4],[-3,13],[-2,9],[-4,4],[-8,5],[-29,17],[-18,8],[0,264]],[[2646,1214],[-7,-3],[-19,2],[-2,0],[2,0],[1,0],[0,1],[0,2],[6,3],[2,4],[2,5],[2,3],[6,3],[5,0],[3,-3],[1,-6],[-2,-11]],[[3820,3773],[0,21],[37,0],[0,63],[42,0],[0,-24],[37,-1],[0,-38],[-54,1],[40,-49],[174,-82],[0,-51],[-276,160]],[[0,1543],[304,49],[26,-19],[-105,-65],[-158,-47],[-67,-1],[0,83]],[[2104,535],[9,92],[50,20],[66,-37],[30,26],[18,-30],[23,14],[30,-47],[2,-23],[-87,-68],[-132,19],[-9,34]],[[713,3039],[53,89],[-16,42],[38,56],[16,102],[123,77],[28,-200],[-37,-195],[-184,-1],[-21,30]],[[1833,4071],[20,18],[39,-37],[99,44],[30,-23],[-14,-28],[35,-10],[-53,-14],[11,62],[-106,-42],[-61,30]],[[295,2015],[6,94],[35,0],[0,38],[-31,17],[47,1],[-29,-120],[79,16],[2,107],[55,39],[28,-61],[-51,-76],[-62,-43],[-79,-12]],[[1530,1128],[54,103],[-14,46],[99,50],[-2,57],[-50,40],[19,46],[6,-51],[63,-5],[-2,-60],[21,2],[12,-7],[-14,-19],[91,-25],[-48,-14],[-25,-74],[25,-28],[-12,-20],[-57,-1],[-65,-76],[-53,-16],[-13,43],[-35,9]],[[928,1761],[26,23],[34,-10],[-26,-50],[-34,37]],[[1857,4096],[11,-22],[51,22],[200,-4],[-118,-76],[-1,67],[-106,-42],[-102,30],[0,25],[65,0]],[[3238,4096],[-28,-61],[-108,61],[136,0]],[[2100,247],[11,32],[74,43],[0,30],[82,17],[20,-38],[-30,0],[13,-37],[-31,-18],[24,-39],[30,20],[21,-99],[-87,-47],[-49,41],[-63,-23],[-15,118]],[[781,1779],[30,43],[64,2],[41,-77],[-96,-18],[-39,50]],[[1030,1631],[70,89],[90,10],[2,-56],[-33,-47],[-129,4]],[[1641,1430],[4,31],[113,1],[101,69],[7,-53],[39,-19],[2,-56],[-82,-48],[-22,-50],[-81,25],[14,19],[-33,5],[2,60],[-40,-9],[-24,25]],[[1359,378],[10,1],[23,-8],[-24,-25],[-27,20],[18,12]],[[254,946],[29,36],[45,-12],[-27,-22],[-47,-2]],[[125,3758],[37,-24],[-15,-21],[-27,2],[5,43]],[[0,2469],[0,57],[85,0],[97,-56],[0,55],[127,0],[0,-56],[-309,0]],[[330,1816],[47,37],[19,-56],[-61,-1],[-5,20]],[[1602,1030],[14,54],[57,36],[8,38],[72,11],[12,18],[-25,28],[25,76],[40,1],[5,49],[48,43],[24,4],[1,-74],[158,-36],[-72,-53],[-19,-83],[-43,-7],[-4,-69],[-125,-151],[-67,45],[-9,40],[-100,30]]]}