{"objects":{"water":{"type":"GeometryCollection","geometries":[{"type":"Polygon","properties":{"kind":"lake","name":"Lago Gatun","reservoir":true,"area":435254272,"sort_rank":200,"source":"naturalearthdata.com","min_zoom":0.0,"id":1082},"arcs":[[36]]},{"type":"MultiPolygon","properties":{"source":"naturalearthdata.com","kind":"ocean","area":1576712559132672,"sort_rank":200,"min_zoom":0.0,"id":1},"arcs":[[[37],[38],[39],[40],[41],[42],[43],[44],[45],[46],[47],[48],[49],[50],[51],[52],[53],[54],[55],[56],[57]],[[58],[59],[60],[61],[62]]]},{"type":"Polygon","properties":{"source":"naturalearthdata.com","kind":"lake","name":"Lago de Nicaragua","area":8197937152,"sort_rank":200,"min_zoom":0.0,"id":14},"arcs":[[63]]},{"type":"Point","properties":{"label_placement":true,"kind":"lake","name":"Lago Gatun","reservoir":true,"area":435254272,"sort_rank":200,"source":"naturalearthdata.com","min_zoom":0.0,"id":1082},"coordinates":[3687,3359]},{"type":"MultiLineString","properties":{"source":"naturalearthdata.com","kind":"lake","sort_rank":367,"boundary":true,"min_zoom":0.0,"id":14},"arcs":[[64],[65]]},{"type":"LineString","properties":{"source":"naturalearthdata.com","kind":"ocean","sort_rank":205,"boundary":true,"min_zoom":0.0,"id":71},"arcs":[66]},{"type":"LineString","properties":{"source":"naturalearthdata.com","kind":"ocean","sort_rank":205,"boundary":true,"min_zoom":0.0,"id":72},"arcs":[67]},{"type":"LineString","properties":{"source":"naturalearthdata.com","kind":"ocean","sort_rank":205,"boundary":true,"min_zoom":0.0,"id":76},"arcs":[68]},{"type":"MultiLineString","properties":{"source":"naturalearthdata.com","kind":"ocean","sort_rank":205,"boundary":true,"min_zoom":0.0,"id":77},"arcs":[[69],[70]]},{"type":"LineString","properties":{"source":"naturalearthdata.com","kind":"ocean","sort_rank":205,"boundary":true,"min_zoom":0.0,"id":278},"arcs":[71]},{"type":"LineString","properties":{"source":"naturalearthdata.com","kind":"ocean","sort_rank":205,"boundary":true,"min_zoom":0.0,"id":280},"arcs":[72]},{"type":"LineString","properties":{"source":"naturalearthdata.com","kind":"ocean","sort_rank":205,"boundary":true,"min_zoom":0.0,"id":282},"arcs":[73]},{"type":"LineString","properties":{"source":"naturalearthdata.com","kind":"ocean","sort_rank":205,"boundary":true,"min_zoom":0.0,"id":283},"arcs":[74]},{"type":"LineString","properties":{"source":"naturalearthdata.com","kind":"ocean","sort_rank":205,"boundary":true,"min_zoom":0.0,"id":285},"arcs":[75]},{"type":"LineString","properties":{"source":"naturalearthdata.com","kind":"ocean","sort_rank":205,"boundary":true,"min_zoom":0.0,"id":316},"arcs":[76]},{"type":"LineString","properties":{"source":"naturalearthdata.com","kind":"ocean","sort_rank":205,"boundary":true,"min_zoom":0.0,"id":317},"arcs":[77]},{"type":"LineString","properties":{"source":"naturalearthdata.com","kind":"ocean","sort_rank":205,"boundary":true,"min_zoom":0.0,"id":561},"arcs":[78]},{"type":"LineString","properties":{"source":"naturalearthdata.com","kind":"ocean","sort_rank":205,"boundary":true,"min_zoom":0.0,"id":570},"arcs":[79]},{"type":"LineString","properties":{"source":"naturalearthdata.com","kind":"ocean","sort_rank":205,"boundary":true,"min_zoom":0.0,"id":571},"arcs":[80]},{"type":"LineString","properties":{"source":"naturalearthdata.com","kind":"ocean","sort_rank":205,"boundary":true,"min_zoom":0.0,"id":772},"arcs":[81]},{"type":"LineString","properties":{"source":"naturalearthdata.com","kind":"ocean","sort_rank":205,"boundary":true,"min_zoom":0.0,"id":773},"arcs":[82]},{"type":"LineString","properties":{"source":"naturalearthdata.com","kind":"lake","reservoir":true,"sort_rank":367,"boundary":true,"min_zoom":0.0,"id":1082},"arcs":[83]},{"type":"LineString","properties":{"source":"naturalearthdata.com","kind":"ocean","sort_rank":205,"boundary":true,"min_zoom":0.0,"id":2875},"arcs":[84]},{"type":"LineString","properties":{"source":"naturalearthdata.com","kind":"ocean","sort_rank":205,"boundary":true,"min_zoom":0.0,"id":3279},"arcs":[85]},{"type":"LineString","properties":{"source":"naturalearthdata.com","kind":"ocean","sort_rank":205,"boundary":true,"min_zoom":0.0,"id":3828},"arcs":[86]},{"type":"LineString","properties":{"source":"naturalearthdata.com","kind":"ocean","sort_rank":205,"boundary":true,"min_zoom":0.0,"id":3859},"arcs":[87]},{"type":"LineString","properties":{"source":"naturalearthdata.com","kind":"ocean","sort_rank":205,"boundary":true,"min_zoom":0.0,"id":3939},"arcs":[88]},{"type":"LineString","properties":{"source":"naturalearthdata.com","kind":"ocean","sort_rank":205,"boundary":true,"min_zoom":0.0,"id":3940},"arcs":[89]},{"type":"LineString","properties":{"source":"naturalearthdata.com","kind":"ocean","sort_rank":205,"boundary":true,"min_zoom":0.0,"id":3941},"arcs":[90]},{"type":"LineString","properties":{"source":"naturalearthdata.com","kind":"ocean","sort_rank":205,"boundary":true,"min_zoom":0.0,"id":4063},"arcs":[91]}]},"buildings":{"type":"GeometryCollection","geometries":[]},"places":{"type":"GeometryCollection","geometries":[{"type":"Point","properties":{"name:ps":"\u06a9\u0648\u0633\u067c\u0627\u0631\u06cc\u06a9\u0627","name:ka":"\u10d9\u10dd\u10e1\u10e2\u10d0-\u10e0\u10d8\u10d9\u10d0","name:tr":"Kosta Rika","name:kn":"\u0c95\u0cca\u0cb8\u0ccd\u0c9f\u0cbe \u0cb0\u0cbf\u0c95\u0cbe","name:km":"\u1780\u17bc\u179f\u17d2\u178f\u17b6\u179a\u17b8\u1780\u17b6","name:cs":"Kostarika","name:ki":"Kostarika","name:kw":"Kosta Rika","name:ku":"Kosta R\u00eeka","name:ti":"\u12ae\u1235\u1273 \u122a\u12ab","name:ks":"\u06a9\u0648\u0633\u0679\u0627 \u0631\u0650\u06a9\u0627","name:to":"Kosita Lika","name:pa":"\u0a15\u0a4b\u0a38\u0a24\u0a3e \u0a30\u0a40\u0a15\u0a3e","name:os":"\u041a\u043e\u0441\u0442\u0430-\u0420\u0438\u043a\u00e6","name:or":"\u0b15\u0b4b\u0b37\u0b4d\u0b1f\u0b3e \u0b30\u0b3f\u0b15\u0b3e","name:ce":"\u041a\u043e\u0441\u0442\u0430-\u0420\u0438\u043a\u0430","name:ta":"\u0b95\u0bcb\u0bb8\u0bcd\u0b9f\u0bbe\u0bb0\u0bbf\u0b95\u0bbe","name:tg":"\u041a\u043e\u0441\u0442\u0430 \u0420\u0438\u043a\u0430","name:te":"\u0c15\u0c4b\u0c38\u0c4d\u0c1f\u0c3e\u0c30\u0c3f\u0c15\u0c3e","source":"openstreetmap.org","name:ln":"Kositarika","name:sr":"\u041a\u043e\u0441\u0442\u0430\u0440\u0438\u043a\u0430","name:dz":"\u0f40\u0f7c\u0f66\u0f0b\u0f4a\u0f0b\u0f62\u0f72\u0f0b\u0f40","name:ko":"\ucf54\uc2a4\ud0c0\ub9ac\uce74","name:dv":"\u0786\u07ae\u0790\u07b0\u0793\u07a6\u0783\u07a9\u0786\u07a7","name:lv":"Kostarika","name:lt":"Kosta Rika","name:uz":"Kosta Rika","name:kk":"\u041a\u043e\u0441\u0442\u0430-\u0420\u0438\u043a\u0430","name:he":"\u05e7\u05d5\u05e1\u05d8\u05d4 \u05e8\u05d9\u05e7\u05d4","min_zoom":2.0,"kind":"country","name:ur":"\u06a9\u0648\u0633\u0679\u0627 \u0631\u06cc\u06a9\u0627","name:la":"Ora Opulenta","name:lg":"Kosita Rika","name:uk":"\u041a\u043e\u0441\u0442\u0430-\u0420\u0456\u043a\u0430","name:hy":"\u053f\u0578\u057d\u057f\u0561-\u054c\u056b\u056f\u0561","name:ug":"\u0643\u0648\u0633\u062a\u0627\u0631\u0649\u0643\u0627","name:hr":"Kostarika","name:lo":"\u0e84\u0ead\u0e94\u0e95\u0eb2\u0ea5\u0eb5\u0e81\u0ec9\u0eb2","name:oc":"C\u00f2sta Rica","population":4301712,"name:el":"\u039a\u03cc\u03c3\u03c4\u03b1 \u03a1\u03af\u03ba\u03b1","name:eo":"Kostariko","name":"Costa Rica","official_name":"Rep\u00fablica de Costa Rica","name:ee":"Kosta Rika nutome","name:th":"\u0e1b\u0e23\u0e30\u0e40\u0e17\u0e28\u0e04\u0e2d\u0e2a\u0e15\u0e32\u0e23\u0e34\u0e01\u0e32","name:gu":"\u0a95\u0acb\u0ab8\u0acd\u0a9f\u0abe \u0ab0\u0abf\u0a95\u0abe","name:yi":"\u05e7\u05d0\u05e1\u05d8\u05d0 \u05e8\u05d9\u05e7\u05d0","name:yo":"Or\u00edl\u1eb9\u0301\u00e8de Kuusita R\u00edk\u00e0","name:ay":"Kustarika","name:mt":"Kosta Rika","name:rn":"Kositarika","name:az":"Kosta Rika","name:id":"Kosta Rika","name:ms":"Kosta Rika","name:mr":"\u0915\u094b\u0938\u094d\u091f\u093e\u0930\u093f\u0915\u093e","name:qu":"Kustarika","name:ar":"\u0643\u0648\u0633\u062a\u0627\u0631\u064a\u0643\u0627","name:my":"\u1000\u1031\u102c\u1037\u1005\u103a\u1010\u102c\u101b\u102e\u1000\u102c","name:io":"Kosta Rika","name:gn":"Kosta Rrika","name:is":"Kosta R\u00edka","name:am":"\u12ae\u1235\u1273 \u122a\u12ab","name:fo":"Kosta Rika","name:ml":"\u0d15\u0d4b\u0d38\u0d4d\u0d31\u0d4d\u0d31\u0d31\u0d3f\u0d15\u0d4d\u0d15","name:ru":"\u041a\u043e\u0441\u0442\u0430-\u0420\u0438\u043a\u0430","name:rw":"Kosita Rika","name:pl":"Kostaryka","name:mk":"\u041a\u043e\u0441\u0442\u0430\u0440\u0438\u043a\u0430","name:vo":"Kostarik\u00e4n","name:zu":"i-Costa Rica","name:ha":"Kwasta Rika","name:mn":"\u041a\u043e\u0441\u0442\u0430-\u0420\u0438\u043a\u0430","name:ff":"Kosta Rikaa","name:hi":"\u0915\u094b\u0938\u094d\u091f\u093e\u0930\u0940\u0915\u093e","name:mg":"Kosta Rik\u00e0","id":424297465,"alt_name:vi":"C\u1ed1t-xta Ri-ca","name:wo":"Kosta Riika","name:zh-yue":"\u54e5\u65af\u9054\u9ece\u52a0","name:fy":"Kosta Rika","name:zh":"\u54e5\u65af\u5927\u9ece\u52a0","name:so":"Kosta Riika","name:sn":"Kostarika","name:sl":"Kostarika","name:sk":"Kostarika","name:ja":"\u30b3\u30b9\u30bf\u30ea\u30ab","name:si":"\u0d9a\u0ddc\u0dc3\u0dca\u0da7\u0dbb\u0dd2\u0d9a\u0dcf\u0dc0","name:sh":"Kostarika","name:sg":"K\u00f4sta R\u00eeka","name:na":"Kosta Rika","name:ne":"\u0915\u094b\u0937\u094d\u091f\u093e\u0930\u093f\u0915\u093e","name:sa":"\u0915\u094b\u0938\u094d\u091f\u093e \u0930\u0940\u0915\u093e","name:bs":"Kostarika","name:bm":"K\u0254sitarika","name:bn":"\u0995\u09cb\u09b8\u09cd\u099f\u09be\u09b0\u09bf\u0995\u09be","name:bo":"\u0f40\u0f7c\u0f0b\u0f66\u0f84\u0f4a\u0f0b\u0f62\u0f72\u0f0b\u0f40\u0f0d","name:sw":"Kostarika","name:be":"\u041a\u043e\u0441\u0442\u0430 \u0420\u044b\u043a\u0430","name:su":"Kosta Rika","name:bg":"\u041a\u043e\u0441\u0442\u0430 \u0420\u0438\u043a\u0430","name:ss":"IKhosta-Likha","name:ba":"\u041a\u043e\u0441\u0442\u0430-\u0420\u0438\u043a\u0430","name:sq":"Kosta Rika","name:ga":"C\u00f3sta R\u00edce","name:gd":"Costa R\u00eccea","name:ht":"Kostarika","name:jv":"Kosta Rika","name:fa":"\u06a9\u0627\u0633\u062a\u0627\u0631\u06cc\u06a9\u0627","name:gv":"Yn Coose Ber\u00e7hagh","name:ak":"K\u0254sta Rika","name:tt":"\u041a\u043e\u0441\u0442\u0430-\u0420\u0438\u043a\u0430"},"coordinates":[2158,3764]},{"type":"Point","properties":{"name:pt":"Panam\u00e1","name:ps":"\u067e\u0627\u0646\u0627\u0645\u0627","name:ka":"\u10de\u10d0\u10dc\u10d0\u10db\u10d0","name:ko":"\ud30c\ub098\ub9c8","name:cv":"\u041f\u0430\u043d\u0430\u043c\u0430","name:km":"\u1794\u17c9\u17b6\u178e\u17b6\u1798\u17c9\u17b6","name:kk":"\u041f\u0430\u043d\u0430\u043c\u0430","name:tt":"\u041f\u0430\u043d\u0430\u043c\u0430","name:th":"\u0e1b\u0e23\u0e30\u0e40\u0e17\u0e28\u0e1b\u0e32\u0e19\u0e32\u0e21\u0e32","name:ti":"\u1353\u1293\u121b","name:ks":"\u067e\u064e\u0646\u0627\u0645\u0627","name:to":"Panam\u0101","name:zh-min-nan":"Panam\u00e1","name:os":"\u041f\u0430\u043d\u0430\u043c\u00e6","name:or":"\u0b2a\u0b3e\u0b28\u0b3e\u0b2e\u0b3e","name:ce":"\u041f\u0430\u043d\u0430\u043c\u0430","name:ta":"\u0baa\u0ba9\u0bbe\u0bae\u0bbe","name:tg":"\u041f\u0430\u043d\u0430\u043c\u0430","name:ca":"Panam\u00e0","name:te":"\u0c2a\u0c28\u0c3e\u0c2e\u0c3e","name:wo":"Panamaa","name:ba":"\u041f\u0430\u043d\u0430\u043c\u0430","name:dz":"\u0f54\u0f0b\u0f53\u0f0b\u0f58","source":"openstreetmap.org","name:yo":"Or\u00edl\u1eb9\u0301\u00e8de Panama","name:kn":"\u0caa\u0ca8\u0cbe\u0cae\u0cbe","name:pa":"\u0a2a\u0a28\u0a3e\u0a2e\u0a3e","name:dv":"\u0795\u07ac\u0782\u07a6\u0789\u07a7","name:hi":"\u092a\u0928\u093e\u092e\u093e","name:he":"\u05e4\u05e0\u05de\u05d4","kind":"country","name:ur":"\u067e\u0646\u0627\u0645\u06c1","name:uk":"\u041f\u0430\u043d\u0430\u043c\u0430","name:hy":"\u054a\u0561\u0576\u0561\u0574\u0561","name:ug":"\u067e\u0627\u0646\u0627\u0645\u0627","name:li":"P\u00e1nama","name:lo":"\u0e9e\u0eb2\u0e99\u0eb2\u0ea1\u0eb2","name:oc":"Panam\u00e0","population":3332576,"name:el":"\u03a0\u03b1\u03bd\u03b1\u03bc\u03ac\u03c2","name:eo":"Panamo","name":"Panama","name:ee":"Panama nutome","min_zoom":2.0,"name:yi":"\u05e4\u05d0\u05e0\u05d0\u05de\u05d0","name:es":"Panam\u00e1","name:ie":"Panam\u00e1","name:mr":"\u092a\u0928\u093e\u092e\u093e","name:ar":"\u0628\u0646\u0645\u0627","name:my":"\u1015\u1014\u102c\u1038\u1019\u102c\u1038","official_name":"Rep\u00fablica de Panam\u00e1","name:am":"\u1353\u1293\u121b","name:it":"Panam\u00e1","name:an":"Panam\u00e1","name:ml":"\u0d2a\u0d28\u0d3e\u0d2e","name:mn":"\u041f\u0430\u043d\u0430\u043c\u0430","id":424316758,"name:mk":"\u041f\u0430\u043d\u0430\u043c\u0430","name:vo":"Panam\u00e4n","name:zu":"i-Panama","name:ff":"Panamaa","name:zh-yue":"\u5df4\u62ff\u99ac","name:zh":"\u5df4\u62ff\u9a6c","name:so":"Banama","name:ja":"\u30d1\u30ca\u30de","name:si":"\u0db4\u0dd0\u0db1\u0db8\u0dcf","name:fa":"\u067e\u0627\u0646\u0627\u0645\u0627","name:ne":"\u092a\u0928\u093e\u092e\u093e","name:sa":"\u092a\u093e\u0928\u093e\u092e\u093e","name:bn":"\u09aa\u09be\u09a8\u09be\u09ae\u09be","name:bo":"\u0f54\u0f0b\u0f53\u0f71\u0f0b\u0f58\u0f0d","name:ru":"\u041f\u0430\u043d\u0430\u043c\u0430","name:be":"\u041f\u0430\u043d\u0430\u043c\u0430","name:bg":"\u041f\u0430\u043d\u0430\u043c\u0430","name:ss":"IPhanama","name:sr":"\u041f\u0430\u043d\u0430\u043c\u0430","name:sq":"Panamaja","name:gl":"Panam\u00e1","name:gv":"Yn Phanamaa","name:gu":"\u0aaa\u0aa8\u0abe\u0aae\u0abe"},"coordinates":[3165,3045]},{"type":"Point","properties":{"source":"openstreetmap.org","kind":"region","name":"San Jos\u00e9","kind_detail":"state","population":1500000,"min_zoom":4.0,"id":1328796425},"coordinates":[2075,3587]},{"type":"Point","properties":{"source":"openstreetmap.org","kind":"region","name":"Esmeraldas","name:ru":"\u042d\u0441\u043c\u0435\u0440\u0430\u043b\u044c\u0434\u0430\u0441","kind_detail":"state","min_zoom":4.0,"id":470287874},"coordinates":[3864,269]},{"type":"Point","properties":{"source":"openstreetmap.org","kind":"region","name":"Guanacaste","kind_detail":"state","min_zoom":4.0,"id":859637912},"coordinates":[1628,3852]},{"type":"Point","properties":{"source":"openstreetmap.org","kind":"region","name":"Puntarenas","kind_detail":"state","min_zoom":4.0,"id":859637913},"coordinates":[1871,3691]},{"type":"Point","properties":{"source":"openstreetmap.org","kind":"region","name":"Alajuela","kind_detail":"state","min_zoom":4.0,"id":859637917},"coordinates":[1909,3918]},{"type":"Point","properties":{"source":"openstreetmap.org","kind":"region","name":"Cartago","kind_detail":"state","min_zoom":4.0,"id":859637916},"coordinates":[2289,3569]},{"type":"Point","properties":{"source":"openstreetmap.org","kind":"region","name":"Heredia","kind_detail":"state","min_zoom":4.0,"id":859637914},"coordinates":[2160,3802]},{"type":"Point","properties":{"source":"openstreetmap.org","kind":"region","name":"Lim\u00f3n","name:lt":"Limono provincija","kind_detail":"state","min_zoom":4.0,"id":859637911},"coordinates":[2336,3803]},{"type":"Point","properties":{"source":"openstreetmap.org","kind":"region","name":"Chiriqu\u00ed","kind_detail":"state","min_zoom":4.0,"name:eo":"\u0108irikio","id":2537069583},"coordinates":[2695,3132]},{"type":"Point","properties":{"source":"openstreetmap.org","kind":"region","name":"Bocas del Toro","kind_detail":"state","min_zoom":4.0,"name:eo":"Bokas-del-Toro","id":2537777115},"coordinates":[2747,3427]},{"type":"Point","properties":{"source":"openstreetmap.org","kind":"region","name":"Ng\u00e4be Bugl\u00e9","kind_detail":"state","min_zoom":4.0,"name:eo":"Ngabe-Bugleo","id":2537777133},"coordinates":[2870,3260]},{"type":"Point","properties":{"source":"naturalearthdata.com","kind":"locality","name":"San Jose","country_capital":true,"population":1284000,"min_zoom":5.0,"id":6943},"coordinates":[2153,3641]},{"type":"Point","properties":{"source":"naturalearthdata.com","kind":"locality","name":"Panama City","country_capital":true,"population":1281000,"min_zoom":5.0,"id":6862},"coordinates":[3810,3287]},{"type":"Point","properties":{"source":"naturalearthdata.com","kind":"locality","name":"David","population":110037,"region_capital":true,"min_zoom":5.0,"id":6345},"coordinates":[2755,3090]},{"type":"Point","properties":{"source":"naturalearthdata.com","kind":"locality","name":"Puerto Limon","population":85001,"region_capital":true,"min_zoom":5.0,"id":6491},"coordinates":[2536,3664]}]},"transit":{"type":"GeometryCollection","geometries":[]},"pois":{"type":"GeometryCollection","geometries":[]},"boundaries":{"type":"GeometryCollection","geometries":[{"type":"MultiLineString","properties":{"source":"naturalearthdata.com","kind":"country","sort_rank":262,"kind_detail":"2","min_zoom":0.0,"id":303},"arcs":[[0],[1],[2],[3],[4],[5],[6]]},{"type":"MultiLineString","properties":{"source":"naturalearthdata.com","kind":"indefinite","sort_rank":259,"kind_detail":"2","min_zoom":0.0,"id":41},"arcs":[[7],[8],[9],[10],[11],[12],[13],[14],[15],[16],[17],[18],[19],[20],[21],[22],[23]]},{"type":"LineString","properties":{"source":"naturalearthdata.com","kind":"country","sort_rank":262,"kind_detail":"2","min_zoom":0.0,"id":194},"arcs":[24]},{"type":"MultiLineString","properties":{"source":"naturalearthdata.com","kind":"country","sort_rank":262,"kind_detail":"2","min_zoom":0.0,"id":305},"arcs":[[25],[26],[27],[28],[29],[30],[31],[32],[33],[34],[35]]}]},"roads":{"type":"GeometryCollection","geometries":[{"type":"LineString","properties":{"source":"naturalearthdata.com","kind":"highway","sort_rank":355,"kind_detail":"trunk","min_zoom":3.0,"id":3220},"arcs":[92]},{"type":"LineString","properties":{"source":"naturalearthdata.com","kind":"major_road","sort_rank":380,"kind_detail":"primary","min_zoom":4.0,"id":3222},"arcs":[93]},{"type":"LineString","properties":{"source":"naturalearthdata.com","kind":"major_road","sort_rank":380,"kind_detail":"primary","min_zoom":4.0,"id":3223},"arcs":[94]},{"type":"LineString","properties":{"source":"naturalearthdata.com","kind":"highway","kind_detail":"motorway","sort_rank":383,"landuse_kind":"urban_area","min_zoom":4.0,"id":3224},"arcs":[95]},{"type":"LineString","properties":{"source":"naturalearthdata.com","kind":"highway","sort_rank":383,"kind_detail":"motorway","min_zoom":4.0,"id":3224},"arcs":[96]},{"type":"LineString","properties":{"source":"naturalearthdata.com","kind":"highway","sort_rank":355,"kind_detail":"trunk","min_zoom":3.0,"id":3225},"arcs":[97]},{"type":"LineString","properties":{"source":"naturalearthdata.com","kind":"major_road","sort_rank":380,"kind_detail":"primary","min_zoom":4.0,"id":3226},"arcs":[98]},{"type":"LineString","properties":{"source":"naturalearthdata.com","kind":"major_road","kind_detail":"primary","sort_rank":380,"landuse_kind":"urban_area","min_zoom":3.0,"id":3227},"arcs":[99]},{"type":"LineString","properties":{"source":"naturalearthdata.com","kind":"major_road","sort_rank":380,"kind_detail":"primary","min_zoom":3.0,"id":3227},"arcs":[100]},{"type":"LineString","properties":{"source":"naturalearthdata.com","kind":"highway","sort_rank":355,"kind_detail":"trunk","min_zoom":3.0,"id":3228},"arcs":[101]},{"type":"LineString","properties":{"source":"naturalearthdata.com","kind":"highway","kind_detail":"motorway","sort_rank":383,"landuse_kind":"urban_area","min_zoom":3.0,"id":3229},"arcs":[102]},{"type":"LineString","properties":{"source":"naturalearthdata.com","kind":"highway","sort_rank":383,"kind_detail":"motorway","min_zoom":3.0,"id":3229},"arcs":[103]},{"type":"LineString","properties":{"source":"naturalearthdata.com","kind":"highway","sort_rank":355,"kind_detail":"trunk","min_zoom":3.0,"id":3968},"arcs":[104]},{"type":"LineString","properties":{"source":"naturalearthdata.com","kind":"highway","kind_detail":"motorway","sort_rank":383,"landuse_kind":"urban_area","min_zoom":3.0,"id":4071},"arcs":[105]},{"type":"MultiLineString","properties":{"source":"naturalearthdata.com","kind":"highway","sort_rank":383,"kind_detail":"motorway","min_zoom":3.0,"id":4071},"arcs":[[106],[107]]},{"type":"LineString","properties":{"source":"naturalearthdata.com","kind":"highway","kind_detail":"motorway","sort_rank":383,"landuse_kind":"urban_area","min_zoom":4.0,"id":4073},"arcs":[108]},{"type":"LineString","properties":{"source":"naturalearthdata.com","kind":"highway","sort_rank":383,"kind_detail":"motorway","min_zoom":4.0,"id":4073},"arcs":[109]},{"type":"LineString","properties":{"source":"naturalearthdata.com","kind":"major_road","sort_rank":380,"kind_detail":"primary","min_zoom":5.0,"id":4074},"arcs":[110]},{"type":"LineString","properties":{"source":"naturalearthdata.com","kind":"major_road","sort_rank":380,"kind_detail":"primary","min_zoom":5.0,"id":4075},"arcs":[111]},{"type":"LineString","properties":{"source":"naturalearthdata.com","kind":"highway","sort_rank":355,"kind_detail":"trunk","min_zoom":3.0,"id":4149},"arcs":[112]},{"type":"LineString","properties":{"source":"naturalearthdata.com","kind":"highway","sort_rank":355,"kind_detail":"trunk","min_zoom":3.0,"id":4150},"arcs":[113]}]},"earth":{"type":"GeometryCollection","geometries":[{"type":"MultiPolygon","properties":{"sort_rank":10,"source":"naturalearthdata.com","min_zoom":0.0,"kind":"earth","area":2153825071628},"arcs":[[[114]],[[115]],[[116]],[[117]],[[118]],[[119]],[[120]],[[121]],[[122]],[[123]],[[124]],[[125]]]}]},"landuse":{"type":"GeometryCollection","geometries":[{"type":"Polygon","properties":{"kind":"park","name":"Parque Internacional La Amistad","area":1629490048,"sort_rank":24,"source":"openstreetmap.org","min_zoom":4.0,"tier":2,"id":93254144},"arcs":[[126]]},{"type":"Polygon","properties":{"kind":"nature_reserve","name":"Reserva Marina de Gal\u00e1pagos","area":147727007744,"sort_rank":23,"source":"openstreetmap.org","min_zoom":4.0,"tier":2,"id":542174480},"arcs":[[127]]},{"type":"Polygon","properties":{"kind":"park","name":"Parque Nacional Coiba","area":2774320128,"sort_rank":24,"source":"openstreetmap.org","min_zoom":4.0,"tier":2,"id":241377841},"arcs":[[128]]},{"type":"Polygon","properties":{"kind":"nature_reserve","name":"Reserva Ecol\u00f3gica Mache - Chindul","area":1215190016,"sort_rank":23,"source":"openstreetmap.org","min_zoom":4.0,"tier":2,"id":-225628,"osm_relation":true,"protect_class":"4"},"arcs":[[129]]},{"type":"MultiPolygon","properties":{"source":"naturalearthdata.com","kind":"urban_area","name":"","area":3670149135,"sort_rank":11,"min_zoom":4.0},"arcs":[[[130]],[[131]]]},{"type":"Polygon","properties":{"kind":"nature_reserve","name":"Reserva Ecol\u00f3gica Cotacachi-Cayapas","area":2327859968,"sort_rank":23,"source":"openstreetmap.org","min_zoom":4.0,"tier":2,"id":-225653,"osm_relation":true,"protect_class":"4"},"arcs":[[132]]},{"type":"Polygon","properties":{"kind":"park","name":"Parque Nacional Chagres","area":1333760000,"sort_rank":24,"source":"openstreetmap.org","min_zoom":4.0,"tier":2,"id":-3262889,"osm_relation":true},"arcs":[[133]]},{"type":"MultiPolygon","properties":{"kind":"nature_reserve","name":"Reserva Bioantropol\u00f3gica Aw\u00e1","area":1602640000,"sort_rank":23,"source":"openstreetmap.org","min_zoom":4.0,"tier":2,"id":-180686,"osm_relation":true},"arcs":[[[134]],[[135]]]},{"type":"Polygon","properties":{"kind":"park","name":"Parque Internacional La Amistad (PILA) - WHS y N\u00facleo Reserva de la Biosfera La Amistad Panam\u00e1","area":2142919936,"sort_rank":24,"source":"openstreetmap.org","min_zoom":4.0,"tier":2,"id":221965083},"arcs":[[136]]}]}},"type":"Topology","transform":{"translate":[-90.0,-0.0],"scale":[0.002746582,0.002729102]},"arcs":[[[1620,4096],[3,-3],[12,-7],[37,-13],[49,-18],[13,-5],[53,-19],[58,-22],[9,-1]],[[1565,4060],[9,14],[6,15],[6,7]],[[1938,4056],[7,-2],[14,-10],[6,-1]],[[1854,4008],[8,3],[38,25],[27,18],[11,2]],[[1973,4043],[8,-2],[18,-8],[2,-1],[2,-1],[2,-1],[1,-1],[9,-10],[3,-3],[3,-1],[4,-2],[4,0]],[[1965,4043],[8,0]],[[2029,4013],[3,1],[20,13],[3,2]],[[2055,4029],[4,-2],[0,-3],[0,-4],[1,-4],[2,-3],[5,-6],[1,-2],[3,-4],[17,-6],[4,-3],[3,-4],[7,-3],[7,-5],[1,-9],[-5,-3],[-2,-1],[-1,-3],[1,-2],[1,-1],[1,-1],[8,-7],[2,-2]],[[2307,4004],[2,0]],[[2236,3929],[1,0],[7,9],[25,9],[2,1],[23,5],[13,7],[1,10],[-3,13],[0,16],[0,1],[-1,2],[3,2]],[[2311,4004],[3,-1]],[[2309,4004],[2,0]],[[2119,3954],[6,-1],[2,0],[3,0]],[[2115,3951],[4,3]],[[2181,3953],[4,-2],[2,-6],[22,-18],[2,-1],[4,0]],[[2172,3948],[4,5],[5,0]],[[2135,3953],[6,-6],[5,-2]],[[2130,3953],[5,0]],[[2166,3950],[6,-2]],[[2157,3944],[9,6]],[[2152,3948],[5,-4]],[[2146,3945],[4,3],[2,0]],[[2226,3931],[10,-2]],[[2215,3926],[3,0],[5,4],[3,1]],[[4067,526],[22,-15],[7,-10]],[[2611,3519],[21,-9],[15,-13],[4,-1]],[[2571,3320],[0,4],[-1,60],[-1,44],[0,30],[1,7],[3,5],[7,3],[19,2],[6,3],[0,3],[-2,1],[-2,1],[-1,2],[-3,10],[-4,8],[0,3],[4,6],[7,6],[7,1]],[[2705,3495],[3,0],[-4,14]],[[2694,3499],[5,-1],[6,-3]],[[2683,3475],[4,1],[3,5],[1,14],[3,4]],[[2654,3497],[3,-4],[5,-9],[4,-4],[3,-2],[7,-1],[7,-2]],[[2651,3496],[3,1]],[[2553,3028],[-3,0],[-2,2],[-3,5],[-2,2],[-10,6],[-4,4],[1,4],[3,3],[16,9],[17,16],[10,5],[10,3],[10,5],[8,10],[3,11],[1,12],[-2,26],[-3,11],[-4,10],[-6,8],[-12,13],[-3,5],[-2,5],[1,5],[3,4],[10,6],[4,4],[0,5],[-3,2],[-2,2],[4,4],[4,3],[38,16],[11,6],[5,9],[-2,3],[-9,16],[-5,4],[-17,5],[-16,13],[-8,3],[-3,1],[-1,3],[-1,3],[-2,2],[-2,2]],[[2585,3324],[-3,0],[-11,-4]],[[2586,2944],[2,8],[2,17],[-19,42],[-2,11],[-2,4],[-7,4],[-3,0]],[[2557,3030],[-4,-2]],[[3758,3350],[4,5],[4,3],[-1,-7],[-5,-8],[-7,-7],[-8,-3],[-11,0],[-7,0],[-4,0],[-3,1],[-4,2],[0,-3],[-1,-3],[-1,-1],[-3,-1],[0,-2],[1,-2],[1,0],[1,-4],[-3,0],[0,3],[-2,0],[0,-2],[-1,-2],[-1,-1],[-1,-2],[3,0],[-1,-1],[-1,-1],[-1,-1],[0,-2],[-1,1],[-2,1],[-1,1],[-1,2],[-1,-1],[-1,-1],[0,-2],[0,-1],[-3,5],[-1,-1],[-1,0],[0,-2],[-3,5],[-2,0],[-1,-1],[0,-1],[-2,0],[1,2],[1,2],[3,3],[1,-2],[1,-1],[1,-2],[2,2],[1,0],[2,0],[2,0],[4,3],[5,8],[3,2],[1,2],[-2,3],[-6,5],[-2,0],[-2,-2],[-2,-1],[-2,1],[-2,2],[-2,0],[0,-5],[-4,2],[-3,3],[0,4],[2,4],[-2,2],[-1,2],[-2,2],[-3,1],[0,-3],[-1,-2],[-4,-2],[-1,5],[-3,2],[-3,-1],[-3,-4],[3,0],[0,-2],[-2,-3],[1,-2],[3,-4],[3,-4],[-3,-2],[1,-4],[1,-2],[1,-2],[2,-2],[-10,2],[-3,-1],[3,-7],[-2,0],[-4,6],[-1,2],[-3,0],[2,-8],[2,-6],[1,-7],[-2,-9],[-5,8],[0,3],[-1,2],[-3,-1],[-1,-3],[2,-4],[-1,0],[-1,0],[0,-1],[0,-2],[-3,6],[-6,10],[-1,7],[-3,0],[-1,-2],[-1,0],[-1,0],[-1,2],[-2,-5],[2,-5],[7,-8],[0,-2],[-3,1],[-3,2],[-4,5],[2,-7],[-2,-2],[-3,2],[-2,7],[-3,-4],[-5,-3],[-2,-4],[-2,2],[-1,2],[-2,4],[6,4],[8,11],[6,3],[-1,1],[-2,1],[7,6],[3,1],[3,-2],[7,7],[3,2],[2,0],[1,-2],[3,3],[4,8],[-2,8],[5,19],[-1,5],[0,3],[3,1],[2,2],[2,3],[1,4],[4,-3],[5,-2],[4,1],[4,4],[2,2],[1,3],[0,6],[1,2],[11,7],[1,0],[1,0],[1,1],[0,2],[2,0],[6,-4],[2,-1],[-4,-7],[-1,-7],[1,-6],[-1,-3],[4,-1],[7,2],[4,-1],[0,-3],[-14,-3],[-7,-3],[-5,-1],[-4,1],[-3,1],[-2,0],[0,-5],[2,-3],[2,-2],[3,-2],[0,5],[2,2],[4,0],[4,-2],[-2,-3],[-3,-3],[-7,-4],[0,-3],[13,5],[4,3],[-1,-2],[-3,-6],[-1,-2],[3,0],[4,2],[4,-6],[3,-9],[1,-6],[4,-3],[19,1],[7,-2],[7,12]],[[4096,3225],[0,-2555],[-3,1],[-7,-1],[-8,1],[-17,-4],[-7,-6],[-5,-5],[-8,-9],[-9,-9],[-5,-7],[-6,-11],[-6,-6],[-8,-2],[-5,-2],[-3,-4],[-2,-6],[3,-5],[6,-6],[9,-6],[4,-1],[8,-5],[3,-3],[5,-1],[3,-3],[4,-4],[7,3],[4,3],[3,-1],[2,-5],[0,-7],[0,-7],[0,-6],[3,-4],[5,-3],[5,-4],[2,-7],[-6,-2],[0,-4],[1,-5],[0,-6],[-2,-5],[-14,-13],[-3,-5],[-1,-5],[2,-5],[6,-2],[8,-1],[6,-2],[3,-5],[-15,5],[-6,-1],[-6,-6],[-2,-4],[1,-3],[-1,-3],[-3,-3],[-4,-2],[-3,0],[-2,1],[-1,4],[-4,-6],[-3,-3],[-2,-5],[-2,-16],[-1,-7],[-4,-5],[-7,-4],[-1,11],[-2,9],[-5,7],[-7,6],[-9,3],[-5,-3],[-28,-36],[-6,-4],[-10,-2],[-10,-4],[-10,-1],[-9,4],[-4,-2],[-5,0],[-10,0],[-3,-1],[-9,-3],[-3,-1],[-25,2],[-8,-2],[-25,-23],[-17,-10],[-16,5],[-6,-4],[-4,-5],[0,-7],[0,-9],[0,-2],[-2,-3],[0,-3],[1,-2],[5,-4],[6,-16],[-2,3],[-5,9],[-4,4],[-4,3],[-3,3],[-2,6],[7,23],[0,3],[-2,4],[-9,-7],[-22,-7],[-9,-4],[-2,-3],[-5,-7],[-3,-2],[-11,-9],[-3,-2],[-4,-1],[-7,-5],[-11,-2],[-10,-3],[-5,-1],[-5,-2],[-7,-6],[-5,-2],[-12,-1],[-6,1],[-6,3],[-11,-9],[-8,-13],[-4,-16],[0,-15],[2,-6],[2,-6],[3,-4],[5,-2],[6,-1],[5,-3],[4,-4],[2,-10],[3,-7],[2,-7],[-1,-8],[-3,-6],[-3,-3],[-3,-4],[-1,-8],[1,-8],[3,-7],[8,-14],[5,-5],[2,-3],[1,-5],[-1,-3],[-3,-7],[-1,-5],[-3,0],[-1,5],[-2,3],[-1,2],[-4,2],[-1,-2],[0,-3],[-4,-9],[1,-28],[3,-16],[0,-9],[-2,-19],[-3,-12],[-5,-14],[-8,-2],[-2,-1],[-2,-2],[-1,-4],[-2,-7],[-2,-3],[-1,0],[-3599,0],[0,4096],[1525,0],[3,-5],[3,-13],[3,-6],[5,-3],[8,-1],[18,-8],[3,-1],[4,-3],[4,-5],[1,-6],[-4,-4],[-7,0],[-4,4],[-3,1],[-6,-5],[-2,-2],[-2,0],[0,-1],[3,-3],[3,-2],[6,-2],[2,-2],[3,-5],[2,-4],[-2,-4],[-5,-2],[0,-3],[1,-2],[1,-3],[-1,-2],[-3,-1],[-3,1],[-3,3],[-2,1],[-8,1],[-7,-1],[-4,-3],[4,-4],[0,-2],[-3,-3],[-2,0],[-5,4],[-1,1],[-1,1],[1,3],[0,3],[-2,3],[-4,1],[-18,-1],[0,-3],[3,0],[2,-1],[1,-1],[1,-3],[-8,-1],[-16,-6],[-8,-3],[0,-2],[14,-2],[9,-4],[8,-5],[11,-4],[3,0],[7,1],[3,-1],[2,-3],[-1,-2],[-2,-1],[-2,1],[3,-3],[10,-8],[2,0],[6,3],[12,-2],[12,-5],[5,-6],[2,-25],[-1,-12],[-6,-5],[0,-3],[3,0],[0,-2],[-5,-1],[0,-1],[-1,-3],[1,1],[1,0],[1,1],[3,-2],[-4,-1],[-2,-2],[-4,-5],[0,-2],[1,0],[1,0],[0,-1],[0,-2],[15,15],[5,-3],[2,-2],[0,-3],[-11,-12],[-4,1],[-1,0],[-4,-6],[-2,-1],[-2,-1],[-1,-3],[1,-5],[-3,0],[-5,1],[-8,-4],[-7,-3],[-5,4],[-2,0],[-3,-7],[-3,-2],[-4,-1],[0,-3],[5,0],[0,-2],[-2,0],[-1,-1],[-2,-2],[4,-3],[5,-7],[3,-7],[-8,-6],[-2,-5],[-4,-4],[-6,2],[-3,-6],[-4,-6],[-6,-5],[-3,-4],[5,-3],[7,-9],[1,-3],[-2,-4],[-5,-5],[2,-4],[2,-7],[1,-10],[14,-35],[5,-7],[3,-9],[2,-5],[37,-45],[4,-9],[-2,-7],[3,-4],[2,0],[3,1],[4,1],[3,-2],[2,-2],[2,-1],[10,-2],[20,-6],[1,1],[1,1],[2,0],[3,-1],[1,-2],[1,-1],[3,0],[4,-1],[5,-4],[3,-1],[3,1],[5,4],[3,1],[39,-14],[12,-7],[9,-10],[0,-2],[0,-4],[1,-2],[9,-4],[4,-2],[1,-2],[2,-5],[30,-41],[11,-21],[2,0],[5,6],[3,6],[8,26],[2,3],[8,4],[2,2],[2,0],[11,6],[1,1],[-5,8],[-2,3],[3,4],[6,0],[11,-6],[2,3],[2,7],[1,3],[9,4],[1,2],[2,6],[6,4],[7,3],[5,3],[0,3],[-13,-1],[-7,1],[-5,2],[4,5],[3,2],[3,1],[-5,4],[-4,7],[0,5],[7,2],[0,2],[-4,3],[-10,6],[-4,4],[-6,-3],[-7,0],[-7,2],[-14,8],[-6,2],[-2,-1],[-3,2],[-22,9],[-8,7],[-7,6],[0,3],[2,-2],[3,0],[4,-1],[3,0],[-1,3],[-1,1],[-3,-1],[-2,0],[-5,9],[-4,4],[-11,4],[-4,5],[-1,5],[5,3],[-5,7],[-2,10],[-1,17],[-2,9],[-11,7],[-2,8],[16,-11],[6,-8],[-2,-7],[0,-2],[9,-9],[6,-4],[7,-2],[24,0],[7,2],[4,-4],[2,-1],[2,-1],[-1,-2],[-2,-4],[3,-3],[2,1],[2,1],[1,1],[3,-1],[3,-3],[8,-4],[15,-14],[6,-3],[-1,-2],[3,-3],[5,-4],[2,0],[2,-2],[11,-9],[8,-5],[10,-3],[10,-2],[12,0],[0,-3],[-13,0],[-6,0],[-4,-2],[0,-3],[32,3],[10,-3],[-1,-5],[1,-4],[9,-7],[-5,-9],[-1,-5],[6,-3],[4,-3],[15,-22],[6,-5],[3,-4],[1,-5],[-1,-5],[-3,-4],[-3,-3],[-2,-6],[-6,-6],[-2,-4],[0,-4],[1,-4],[0,-4],[-1,-4],[5,1],[1,-3],[0,-4],[1,-3],[4,-3],[4,-1],[3,-3],[1,-5],[3,-5],[14,-9],[6,-5],[-1,3],[-1,1],[-1,1],[5,-1],[2,-3],[1,-5],[5,-3],[5,-1],[4,1],[5,2],[4,0],[10,0],[48,-14],[10,-1],[9,-2],[15,-9],[10,-1],[-5,3],[-2,1],[-3,1],[0,2],[9,-3],[9,-8],[5,-10],[-4,-6],[7,-2],[3,-3],[3,-2],[5,2],[1,-3],[2,-2],[2,0],[3,2],[2,0],[35,-14],[4,-3],[28,-13],[29,-27],[8,-3],[11,-5],[8,-8],[-1,-10],[15,-2],[9,-10],[8,-12],[8,-11],[3,2],[6,-6],[1,-3],[10,-26],[-4,-3],[-2,-2],[-2,-3],[-2,-4],[1,-2],[3,-1],[1,-2],[-5,-3],[5,0],[1,-1],[2,-2],[2,-2],[5,-2],[3,-2],[2,-3],[-4,0],[-4,1],[-7,4],[1,-7],[4,-3],[5,-3],[2,-3],[-1,-5],[-4,-2],[-9,-5],[-6,-6],[-1,-6],[1,-4],[4,2],[5,5],[2,2],[4,0],[8,-1],[0,-2],[-9,-2],[-10,-5],[-5,-7],[4,-6],[-2,-2],[-9,-14],[-3,-2],[-1,2],[-1,1],[-4,-2],[-6,-3],[-3,-3],[-11,-17],[1,-11],[3,-2],[7,-3],[2,0],[2,-4],[31,-29],[9,-12],[5,-5],[5,-2],[6,0],[23,3],[7,-1],[21,-10],[0,6],[3,-3],[3,-2],[7,-3],[-5,1],[-1,0],[-2,1],[-2,0],[6,-5],[12,-6],[14,-4],[8,0],[4,10],[1,13],[-2,13],[-6,7],[0,3],[2,2],[1,4],[0,9],[-4,-3],[-5,4],[-5,6],[-5,3],[-5,1],[-14,4],[-5,2],[-3,4],[-7,11],[-2,6],[-13,19],[-2,0],[-3,-2],[2,7],[5,2],[12,-2],[5,1],[2,3],[0,2],[2,2],[3,0],[3,-2],[2,0],[2,4],[6,-2],[8,-1],[5,-3],[-2,-6],[3,0],[2,0],[-2,-8],[3,-5],[12,-7],[5,3],[5,-3],[4,-5],[3,-5],[6,1],[7,-1],[7,0],[3,5],[2,0],[3,-4],[4,-5],[6,-4],[5,-2],[0,-3],[-11,-4],[-2,1],[0,5],[-1,2],[-4,6],[-2,0],[-1,-2],[-1,-1],[-1,-2],[7,-14],[3,-3],[5,-2],[11,1],[4,-2],[-5,-3],[-5,-2],[-3,-2],[1,-5],[2,-4],[12,-15],[2,-6],[-3,-6],[-4,-4],[-2,-4],[-2,-1],[-10,-13],[12,-12],[45,-33],[9,-10],[25,-42],[1,-5],[-2,-5],[-2,-6],[-1,-6],[5,-4],[7,-4],[4,3],[2,6],[5,5],[0,2],[-9,25],[-3,16],[1,15],[6,12],[8,9],[11,7],[26,8],[14,2],[15,0],[13,-3],[26,-10],[14,-4],[10,1],[3,-1],[2,0],[7,1],[-1,3],[-1,3],[-1,2],[-2,2],[0,3],[7,3],[2,5],[0,4],[4,3],[0,-4],[0,-3],[2,-2],[3,-1],[0,-2],[-7,-3],[1,-4],[5,-4],[7,-2],[5,1],[10,6],[6,0],[-1,3],[-1,5],[0,2],[6,-2],[6,1],[7,2],[6,2],[-2,-8],[3,-4],[5,-3],[7,0],[1,2],[6,12],[2,1],[4,0],[9,0],[-6,-1],[-3,-3],[-1,-4],[2,-5],[-2,0],[0,1],[0,1],[0,1],[-2,-2],[-1,-2],[0,-2],[3,-2],[0,-2],[-2,-4],[0,-5],[4,-11],[-2,-1],[-1,-1],[-2,-1],[0,-2],[4,-2],[4,-5],[3,-1],[5,1],[7,4],[4,0],[0,-2],[-2,-1],[-1,-2],[-1,-2],[0,-3],[3,1],[0,-2],[-3,-9],[2,0],[0,3],[0,-1],[2,0],[1,-1],[9,20],[1,7],[2,0],[6,-5],[12,-4],[12,0],[5,4],[8,-7],[5,-3],[2,1],[1,5],[4,4],[5,4],[5,1],[-6,-10],[-2,-5],[4,-3],[5,-1],[15,-3],[4,-2],[28,-11],[7,-5],[2,0],[2,3],[6,6],[2,3],[-4,1],[-1,4],[1,4],[2,4],[2,0],[1,-7],[4,-6],[8,-10],[12,-23],[-3,2],[-1,0],[-1,1],[-2,0],[-2,-2],[-3,0],[-2,0],[-3,2],[0,-3],[5,-3],[1,-5],[0,-5],[4,-4],[0,4],[0,3],[2,5],[2,-3],[6,-14],[2,-4],[7,-8],[1,-5],[0,-2],[1,-2],[2,-1],[3,-1],[1,1],[0,3],[-2,5],[0,5],[3,0],[4,1],[-1,-4],[0,-5],[-1,-3],[5,-5],[1,-2],[1,-3],[-6,2],[-2,-3],[-1,-6],[-1,-6],[5,0],[3,-2],[0,-2],[-3,-3],[0,-3],[3,-2],[2,0],[2,1],[3,1],[3,-1],[2,-1],[0,-3],[-5,-6],[-2,-4],[0,-6],[1,-4],[4,-4],[2,-3],[-3,-3],[0,-2],[5,-2],[8,-6],[1,6],[4,2],[14,-5],[-4,-3],[-7,-4],[-3,-1],[0,-5],[9,-4],[10,-1],[9,2],[3,-1],[2,-3],[3,-4],[1,-4],[10,1],[30,-9],[9,0],[4,-1],[2,-5],[3,0],[12,-7],[3,-2],[2,0],[2,2],[5,4],[1,2],[1,3],[0,3],[-1,4],[1,16],[-1,4],[-5,-2],[-5,-3],[-3,0],[-2,3],[-3,5],[3,-2],[2,0],[5,2],[-4,6],[-2,3],[-4,1],[0,2],[5,1],[5,-1],[0,-2],[-1,-2],[0,-1],[0,-2],[1,-3],[8,6],[8,8],[4,9],[-7,13],[1,2],[1,3],[0,3],[-1,0],[-6,4],[-7,5],[0,3],[4,2],[0,2],[-1,1],[-4,2],[7,-2],[1,-5],[2,-6],[9,-2],[4,-1],[5,-4],[3,0],[17,0],[0,2],[-3,2],[-2,2],[-2,2],[-1,4],[3,0],[4,-7],[5,5],[8,15],[-1,-23],[3,-10],[8,5],[3,0],[-1,-5],[-2,-2],[-4,0],[-4,0],[-4,-1],[-3,-2],[-2,-2],[-2,0],[-2,-3],[-1,-6],[4,-5],[8,-1],[0,-2],[-1,0],[-1,-1],[2,-1],[3,-1],[3,-1],[4,1],[-7,-11],[1,-2],[3,-1],[5,-3],[4,-3],[2,-3],[-5,1],[-3,-1],[-3,-2],[-2,-3],[0,-4],[1,-1],[3,-1],[4,-2],[17,-17],[0,-3],[-3,0],[0,-2],[4,-3],[5,-4],[3,-5],[0,-5],[-2,-3],[0,-4],[-1,-3],[-4,-2],[2,-3],[2,-2],[2,-1],[13,-14],[2,-5],[-4,-12],[0,-6],[9,-6],[1,-6],[0,-7],[-1,-5],[-2,-2],[-4,-3],[-2,-2],[0,-3],[0,-8],[-1,-2],[-2,-1],[-2,-2],[0,-3],[4,-1],[3,-1],[4,-1],[2,-2],[2,-1],[6,-10],[4,-3],[5,5],[3,0],[1,-2],[2,-1],[2,1],[2,2],[3,0],[7,-2],[29,1],[40,8],[3,0],[44,6],[4,-1],[7,-2],[3,0],[3,2],[0,3],[0,2],[1,3],[4,3],[3,1],[3,1],[1,4],[1,2],[2,2],[3,2],[2,0],[9,2],[2,3],[-7,10],[2,10],[9,7],[27,9],[-3,2],[-3,-2],[-3,-1],[-4,-1],[-5,-1],[0,3],[12,3],[3,2],[3,0],[3,-4],[10,-2],[4,-2],[5,3],[23,0],[25,9],[3,1],[10,0],[4,1],[3,3],[6,14],[0,8],[-4,10],[-17,31],[-33,43],[-23,20],[-34,28],[-5,10],[-5,15],[-8,13],[-12,4],[-5,3],[-14,6],[-5,1],[-3,4],[-2,7],[-3,7],[-5,3],[2,3],[1,1],[0,4],[-1,36],[3,6],[23,23],[6,4],[2,3],[-1,2],[0,1],[4,2],[-2,-2],[2,-2],[5,-4],[10,-2],[3,1],[6,3],[4,1],[2,-1],[4,-1],[4,-1],[17,3],[11,4],[25,13],[16,9],[15,9],[26,17],[7,7],[1,1],[2,2],[4,7],[2,1],[3,1],[2,2],[6,5],[1,1],[5,0],[1,1],[2,1],[0,3],[0,4],[2,4],[14,3],[12,4],[7,3],[15,13],[12,9],[1,3],[0,3],[-2,0],[-1,-2],[-4,-2],[-11,-5],[-12,-5],[-12,3],[-5,4],[6,3],[6,2],[1,1],[0,2],[0,1],[5,1],[4,3],[2,1],[2,2],[2,3],[1,3],[1,3],[1,2],[1,2],[0,2],[-1,1],[-1,1],[-2,1],[-1,2],[-1,22],[1,7],[3,6],[5,5],[6,3],[6,-1],[-1,2],[0,1],[-1,2],[0,2],[2,0],[1,0],[0,-1],[2,-1],[3,1],[3,0],[2,-2],[4,-2],[0,3],[-2,4],[5,3],[17,3],[8,-3],[6,3],[1,8],[-2,9],[2,0],[0,3],[-1,1],[-1,2],[0,2],[2,0],[2,-6],[5,-7],[6,-6],[5,-4],[-2,5],[-6,10],[4,2],[1,2],[-1,3],[1,3],[10,7],[1,1],[2,1],[0,1],[0,2],[3,1],[3,0],[5,2],[6,1],[3,2],[4,0],[3,-3],[8,5],[21,-2],[9,2],[0,-2],[2,0],[9,2],[30,-5],[6,2],[1,4],[2,-1],[1,-3],[1,-2],[9,-2],[2,-1],[6,-1],[5,4],[4,6],[1,5],[-1,7],[-4,4],[-5,1],[-2,3],[1,2],[1,2],[3,1],[3,0],[4,1],[2,1],[1,2],[1,1],[2,1],[5,7],[2,2],[3,0],[2,-2],[1,-2],[2,-1],[2,1],[5,5],[2,1],[3,1],[5,1],[2,1],[-2,-3],[-3,-2],[-7,-3],[-6,-5],[-4,0],[-3,5],[-2,0],[-2,-6],[-4,-5],[-6,-3],[-8,-1],[0,-2],[7,-1],[3,-4],[0,-7],[0,-7],[-1,-4],[-1,-2],[-1,-2],[0,-3],[2,-2],[9,-7],[19,-4],[48,-25],[2,-6],[1,-7],[3,-6],[7,-8],[4,-2],[5,1],[6,3],[2,4],[0,5],[-3,6],[4,-4],[2,-4],[4,-3],[5,-2],[0,-2],[-3,0],[0,-3],[6,-5]],[[4021,453],[4,3],[3,5],[9,-5],[5,10],[1,15],[0,12],[-2,5],[0,2],[0,4],[-29,-25],[-5,-7],[1,-7],[5,-6],[8,-6]],[[3056,1451],[4,4],[2,0],[2,1],[2,1],[0,1],[-1,5],[-1,0],[-2,-1],[-2,0],[-2,-1],[-1,-3],[0,-1],[-2,-1],[-2,-2],[-1,-2],[1,0],[1,-1],[2,0]],[[1069,2033],[0,4],[-5,-2],[-5,-3],[-5,-3],[-5,-8],[7,0],[8,2],[4,5],[1,5]],[[3965,3008],[0,5],[2,2],[2,1],[0,3],[-2,2],[0,3],[5,3],[4,-2],[4,1],[1,1],[-2,1],[-2,1],[-2,3],[-2,8],[-2,4],[-1,2],[-2,2],[-1,0],[-3,0],[-4,-6],[-2,-5],[1,-4],[-1,-5],[-1,-3],[-2,1],[-1,-5],[6,-13],[5,0]],[[4029,3031],[3,-8],[-1,-5],[4,-3],[5,-3],[2,2],[0,1],[-2,0],[-3,2],[0,7],[-4,5],[1,3],[0,3],[3,4],[3,3],[1,3],[1,-3],[1,-2],[2,1],[3,0],[2,1],[2,-2],[5,0],[2,3],[0,3],[3,3],[3,8],[-5,9],[1,5],[3,2],[1,4],[-3,5],[-4,1],[0,3],[0,3],[-1,5],[-2,4],[-2,3],[-4,2],[-4,2],[-1,-2],[0,-4],[-1,-2],[-1,2],[-1,2],[-3,3],[-14,-7],[-4,2],[-4,0],[-2,-5],[4,-10],[-1,-3],[2,-7],[0,-2],[-2,-2],[-1,-3],[1,-3],[3,-3],[1,-3],[-1,-6],[-2,-3],[-2,-6],[2,-4],[2,-1],[7,-3],[2,-4]],[[3975,3084],[-2,1],[-1,-3],[-2,-2],[-3,5],[-5,4],[-4,-9],[6,-5],[7,-5],[3,2],[2,3],[0,2],[-2,2],[1,5]],[[4014,3099],[0,2],[-2,-1],[-2,1],[-1,2],[-1,0],[0,2],[3,1],[2,2],[1,2],[-3,0],[-1,-2],[-3,-2],[-2,0],[-2,-1],[-2,-1],[-2,-1],[1,-1],[1,-1],[2,-1],[1,1],[2,0],[3,-1],[0,-1],[1,-3],[2,0],[0,-1],[1,1],[0,2],[1,1]],[[3985,3110],[0,3],[0,2],[-2,1],[-3,-3],[1,-5],[2,1],[2,1]],[[4069,3067],[4,-1],[1,2],[-1,4],[-2,3],[-3,1],[-3,-4],[1,-2],[3,-3]],[[3789,3148],[0,2],[0,1],[-1,1],[0,2],[-2,1],[-1,0],[-1,1],[0,-2],[0,-2],[-2,0],[0,-3],[1,-1],[2,2],[1,0],[2,-1],[1,-1]],[[3981,3156],[0,-2],[2,0],[1,3],[2,3],[-2,0],[-1,3],[-2,1],[-2,-6],[2,-2]],[[3804,3225],[-1,1],[-1,-1],[-2,1],[-3,-2],[0,-3],[1,-3],[2,0],[3,0],[1,-1],[1,-2],[2,1],[1,2],[0,2],[-3,0],[-1,2],[-1,2],[1,1]],[[2989,2671],[-3,1],[-3,-2],[0,2],[-1,1],[-2,0],[-1,-2],[0,-1],[1,-2],[0,-4],[5,-16],[3,0],[-1,3],[-2,2],[3,4],[5,10],[5,3],[-5,0],[-4,1]],[[3053,2707],[-3,2],[-11,-1],[-4,3],[-2,0],[-3,-3],[-2,2],[-2,3],[-1,4],[-1,3],[-7,6],[-2,5],[1,2],[3,10],[0,3],[12,4],[2,2],[-1,6],[-1,2],[-3,1],[-3,2],[-1,0],[-3,0],[-1,0],[0,1],[0,3],[0,1],[-3,4],[-1,1],[0,4],[-8,24],[-2,0],[-1,0],[0,-1],[0,-2],[-2,0],[0,3],[-3,0],[1,-3],[1,-4],[1,-3],[-3,0],[0,1],[-4,-2],[-10,-7],[-7,-2],[-2,-2],[-2,-3],[-1,-3],[0,-3],[-1,-4],[-1,-1],[-4,-8],[0,-1],[-4,-1],[-7,0],[-2,-1],[3,-9],[1,-2],[3,-3],[8,-17],[16,-13],[7,-4],[8,-10],[4,-3],[7,-2],[16,-1],[12,-7],[8,0],[8,2],[7,3],[-10,19]],[[3219,2767],[-2,-4],[-4,-3],[-13,-2],[-4,-2],[-4,-3],[-4,-4],[-3,-4],[2,0],[10,3],[1,0],[3,-1],[3,-1],[3,0],[2,1],[6,6],[10,5],[2,2],[1,3],[2,2],[3,1],[4,-1],[2,0],[2,-1],[3,-2],[3,-1],[2,0],[4,2],[5,2],[2,3],[5,8],[-11,0],[-5,0],[-4,2],[-11,-3],[-7,-2],[-5,-2],[-3,-4]],[[2796,2973],[1,4],[-1,2],[-4,0],[-4,-2],[-4,-5],[-2,-4],[-1,-5],[5,1],[4,1],[7,3],[-1,5]],[[2823,2994],[-2,6],[-1,2],[0,4],[3,1],[5,0],[8,-3],[-3,5],[-7,3],[-8,3],[-5,2],[-12,-4],[-3,-3],[3,-6],[2,-1],[7,-1],[3,0],[10,-8]],[[2778,3011],[13,7],[7,1],[-10,8],[0,2],[6,-1],[3,1],[0,4],[-4,4],[-8,2],[-19,-13],[-8,1],[-2,0],[2,-5],[5,-6],[5,-5],[4,-2],[6,2]],[[2232,3189],[0,4],[-5,0],[-5,-3],[2,-2],[5,-1],[3,2]],[[1785,3695],[0,2],[-4,0],[-3,1],[-2,2],[-3,0],[-2,0],[-3,2],[12,0],[0,3],[-11,3],[-11,2],[-3,0],[-7,-3],[5,-9],[3,-3],[7,-3],[6,-1],[6,1],[6,1],[4,2]],[[2241,4096],[1855,0],[0,-635],[-1,0],[-4,-1],[-6,1],[-3,-3],[-11,-2],[-6,1],[-4,-1],[-2,-3],[-5,0],[-3,0],[-3,1],[-5,-1],[-3,0],[-2,3],[-2,2],[-4,3],[-3,1],[-7,2],[-5,0],[-4,1],[-4,0],[-4,-1],[-5,-1],[-4,2],[-6,-2],[-6,3],[-2,11],[-1,9],[4,7],[6,1],[11,1],[4,1],[4,2],[4,-1],[7,4],[0,4],[-5,3],[-16,-1],[-13,-2],[-11,-1],[-7,-2],[-6,-2],[-7,1],[-8,0],[-7,-2],[-7,-3],[-16,2],[-12,4],[-23,6],[-21,2],[-14,4],[-2,-2],[-3,0],[-2,1],[-2,3],[-3,-7],[0,-3],[-7,2],[-3,2],[-2,2],[-3,0],[-1,-3],[-1,-1],[-1,0],[-2,-2],[-1,3],[0,1],[-4,2],[0,2],[4,2],[0,3],[-2,3],[-2,5],[-7,1],[-9,-4],[-7,-2],[-6,1],[-7,-2],[-3,-4],[-4,-3],[-5,-2],[-2,-4],[-2,-2],[-2,-1],[2,-3],[3,1],[4,2],[2,-2],[-3,-3],[-7,-2],[-2,-9],[-2,-10],[-6,-3],[-3,-2],[-3,-4],[-1,-1],[-1,-1],[-1,-3],[0,-1],[-6,-4],[-11,-4],[-6,-5],[-3,-6],[0,-6],[2,-5],[1,-8],[-2,4],[-7,11],[-8,4],[-7,-1],[-4,2],[-4,-4],[5,-6],[-3,-2],[-1,1],[-1,1],[1,-3],[1,-6],[0,-3],[-7,4],[-2,-3],[0,-8],[-3,-6],[-4,-2],[-3,0],[-4,2],[-2,3],[0,3],[0,14],[-1,3],[-2,1],[-9,-4],[-8,-12],[0,-4],[-10,-9],[-14,-12],[-13,-15],[-10,-6],[-12,-5],[-14,-3],[-13,-2],[-3,-1],[-12,-7],[-6,-2],[-42,-3],[-36,-12],[-17,-7],[-9,-4],[-21,-10],[-6,-6],[-5,-2],[-13,-8],[-9,-4],[-5,-7],[-3,-1],[-2,-2],[-2,-3],[-1,-1],[-3,-2],[-4,-5],[-8,-10],[-3,-4],[-4,-4],[-8,-3],[-13,1],[-6,-2],[-28,-12],[-29,-9],[-3,-4],[-3,-2],[-3,-1],[-3,2],[-16,-3],[-16,-2],[-14,-1],[-19,-1],[-14,-3],[-20,1],[-8,6],[-10,0],[-5,-2],[-19,4],[-6,-2],[-4,0],[-7,2],[-3,1],[-3,1],[-5,4],[-4,4],[-2,3],[-7,5],[-15,16],[-22,31],[-5,4],[-1,1],[-6,13],[-5,1],[-10,10],[-5,1],[-9,1],[-4,0],[-3,1],[-2,5],[-3,3],[-3,4],[0,2],[3,-1],[4,-1],[3,1],[0,4],[-1,1],[-9,6],[-8,11],[-7,5],[-7,-1],[-3,-4],[6,-4],[12,-5],[-4,-5],[-9,1],[-9,2],[-5,0],[1,-3],[6,-5],[6,-5],[5,-2],[3,-3],[13,-19],[25,-14],[1,-15],[-2,-6],[-6,-3],[-22,10],[-3,-1],[-2,-3],[-4,2],[-3,3],[-1,1],[-5,2],[-3,0],[-5,-2],[2,-4],[-4,-4],[-5,-3],[-5,-1],[-6,1],[-4,3],[-4,2],[-9,-1],[-17,-6],[-7,1],[-4,-1],[-1,1],[-2,1],[0,2],[-1,2],[-2,2],[-5,8],[0,3],[-5,3],[-13,4],[-6,-4],[-9,1],[-9,4],[-6,6],[1,-1],[1,0],[2,-1],[1,0],[3,24],[-2,4],[-9,4],[-2,6],[5,-2],[2,-1],[0,3],[-2,4],[-1,6],[1,7],[4,3],[9,-1],[6,-2],[11,-7],[2,4],[0,10],[1,6],[-3,0],[0,-3],[-2,0],[-2,2],[-2,3],[-1,2],[0,4],[-2,0],[-1,-1],[0,-1],[0,-1],[-3,2],[-1,-1],[-1,-3],[0,-4],[-1,-2],[-3,1],[-3,2],[0,5],[-3,0],[1,-6],[-2,-4],[-2,-1],[-4,1],[-3,3],[-1,4],[-2,4],[-4,2],[4,-7],[-2,-1],[-5,-1],[-2,-4],[-3,0],[-13,8],[-2,3],[-1,5],[-2,5],[-3,4],[-4,3],[-2,-1],[-2,1],[0,2],[2,2],[1,5],[9,-1],[5,4],[0,4],[-3,3],[-4,2],[-3,4],[-1,5],[1,4],[9,17],[2,5],[1,6],[-10,-6],[-13,7],[-22,22],[-35,27],[-4,3],[-7,4],[-9,14],[-7,3],[-8,1],[-8,0],[-9,1],[-24,8],[-6,4],[-3,7],[-2,15],[-3,6],[-9,-3],[-16,15],[-21,28],[-5,4],[-17,25],[-5,5],[-2,5],[-2,5],[0,7],[-2,3],[-9,2],[-4,2],[-8,-5],[-15,14],[-23,28],[-6,5],[-69,90],[-26,43],[-22,52],[-18,49],[-2,-5],[-1,-8],[-2,-5],[-1,3],[-1,3],[0,2],[2,2],[-5,-3],[-3,-3],[-4,-3],[-5,-1],[10,9],[1,12],[-7,29],[10,-23],[5,-7],[1,12],[-6,18],[-10,17],[-7,8],[-6,4],[-8,1],[-5,-1],[1,-4],[-6,-1],[-3,8],[-3,7],[-6,4],[-3,3],[-9,14],[-3,9],[-11,17],[-8,19],[-3,13]],[[2809,3459],[-6,-3],[-10,-7],[17,-14],[8,-8],[5,-8],[2,3],[0,1],[0,1],[-2,2],[0,3],[5,6],[-2,9],[-10,15],[-7,0]],[[2849,3419],[6,-3],[3,-7],[-5,2],[0,-2],[4,-3],[1,-3],[0,-8],[-1,-2],[-1,-1],[4,-4],[2,0],[3,8],[6,6],[7,3],[8,-1],[-4,5],[-5,3],[-9,4],[-9,8],[-3,2],[-4,-2],[-3,0],[-3,1],[-3,1],[-2,2],[-1,0],[-2,0],[-2,-2],[0,-2],[7,-4],[6,-1]],[[2894,3351],[3,-2],[4,-2],[2,0],[3,1],[3,2],[1,2],[-3,1],[-3,1],[-1,3],[-1,3],[-2,0],[-2,1],[-2,3],[-2,1],[0,-2],[2,-2],[-3,-4],[0,-3],[1,-3]],[[3067,3337],[0,-1],[0,-1],[1,-2],[1,-2],[1,0],[2,0],[4,0],[3,-1],[2,-1],[1,0],[0,1],[-1,1],[0,2],[-2,1],[-1,1],[-3,2],[-1,0],[-1,-1],[-2,0],[-1,1],[-3,0]],[[1900,4090],[1,-8],[4,-11],[0,-7],[-3,-4],[-16,-11],[-11,-1],[-3,-1],[-1,-1],[-10,-4],[-3,-1],[-8,2],[-6,7],[-8,1],[-6,1],[-65,15],[-6,0],[-6,-1],[-6,-1],[-8,4],[-4,0],[-8,0],[-3,2],[-8,7],[-3,4],[-14,4],[-12,3],[-15,1],[-17,6],[245,0],[0,-6]],[[1900,4090],[1,-8],[4,-11],[0,-7],[-3,-4],[-16,-11],[-11,-1],[-3,-1],[-1,-1],[-10,-4],[-3,-1],[-8,2],[-6,7],[-8,1],[-6,1],[-65,15],[-6,0],[-6,-1],[-6,-1],[-8,4],[-4,0],[-8,0],[-3,2],[-8,7],[-3,4],[-14,4],[-12,3],[-15,1],[-17,6]],[[1900,4096],[0,-6]],[[3430,3327],[-21,-10],[-6,-6],[-5,-2],[-13,-8],[-9,-4],[-5,-7],[-3,-1],[-2,-2],[-2,-3],[-1,-1],[-3,-2],[-4,-5],[-8,-10],[-3,-4],[-4,-4],[-8,-3],[-13,1],[-6,-2],[-28,-12],[-29,-9],[-3,-4],[-3,-2],[-3,-1],[-3,2],[-16,-3],[-16,-2],[-14,-1],[-19,-1],[-14,-3],[-20,1],[-8,6],[-10,0],[-5,-2],[-19,4],[-6,-2],[-4,0],[-7,2],[-3,1],[-3,1],[-5,4],[-4,4],[-2,3],[-7,5],[-15,16],[-22,31],[-5,4],[-1,1],[-6,13],[-5,1],[-10,10],[-5,1],[-9,1],[-4,0],[-3,1],[-2,5],[-3,3],[-3,4],[0,2],[3,-1],[4,-1],[3,1],[0,4],[-1,1],[-9,6],[-8,11],[-7,5],[-7,-1],[-3,-4],[6,-4],[12,-5],[-4,-5],[-9,1],[-9,2],[-5,0],[1,-3],[6,-5],[6,-5],[5,-2],[3,-3],[13,-19],[25,-14],[1,-15],[-2,-6],[-6,-3],[-22,10],[-3,-1],[-2,-3],[-4,2],[-3,3],[-1,1],[-5,2],[-3,0],[-5,-2],[2,-4],[-4,-4],[-5,-3],[-5,-1],[-6,1],[-4,3],[-4,2],[-9,-1],[-17,-6],[-7,1],[-4,-1],[-1,1],[-2,1],[0,2],[-1,2],[-2,2],[-5,8],[0,3],[-5,3],[-13,4],[-6,-4],[-9,1],[-9,4],[-6,6],[1,-1],[1,0],[2,-1],[1,0],[3,24],[-2,4],[-9,4],[-2,6],[5,-2],[2,-1],[0,3],[-2,4],[-1,6],[1,7],[4,3],[9,-1],[6,-2],[11,-7],[2,4],[0,10],[1,6],[-3,0],[0,-3],[-2,0],[-2,2],[-2,3],[-1,2],[0,4],[-2,0],[-1,-1],[0,-1],[0,-1],[-3,2],[-1,-1],[-1,-3],[0,-4],[-1,-2],[-3,1],[-3,2],[0,5],[-3,0],[1,-6],[-2,-4],[-2,-1],[-4,1],[-3,3],[-1,4],[-2,4],[-4,2],[4,-7],[-2,-1],[-5,-1],[-2,-4],[-3,0],[-13,8],[-2,3],[-1,5],[-2,5],[-3,4],[-4,3],[-2,-1],[-2,1],[0,2],[2,2],[1,5],[9,-1],[5,4],[0,4],[-3,3],[-4,2],[-3,4],[-1,5],[1,4],[9,17],[2,5],[1,6],[-10,-6],[-13,7],[-22,22],[-35,27],[-4,3],[-7,4],[-9,14],[-7,3],[-8,1],[-8,0],[-9,1],[-24,8],[-6,4],[-3,7],[-2,15],[-3,6],[-9,-3],[-16,15],[-21,28],[-5,4],[-17,25],[-5,5],[-2,5],[-2,5],[0,7],[-2,3],[-9,2],[-4,2],[-8,-5],[-15,14],[-23,28],[-6,5],[-69,90],[-26,43],[-22,52],[-18,49],[-2,-5],[-1,-8],[-2,-5],[-1,3],[-1,3],[0,2],[2,2],[-5,-3],[-3,-3],[-4,-3],[-5,-1],[10,9],[1,12],[-7,29],[10,-23],[5,-7],[1,12],[-6,18],[-10,17],[-7,8],[-6,4],[-8,1],[-5,-1],[1,-4],[-6,-1],[-3,8],[-3,7],[-6,4],[-3,3],[-9,14],[-3,9],[-11,17],[-8,19],[-3,13]],[[1525,4096],[3,-5],[3,-13],[3,-6],[5,-3],[8,-1],[18,-8],[3,-1],[4,-3],[4,-5],[1,-6],[-4,-4],[-7,0],[-4,4],[-3,1],[-6,-5],[-2,-2],[-2,0],[0,-1],[3,-3],[3,-2],[6,-2],[2,-2],[3,-5],[2,-4],[-2,-4],[-5,-2],[0,-3],[1,-2],[1,-3],[-1,-2],[-3,-1],[-3,1],[-3,3],[-2,1],[-8,1],[-7,-1],[-4,-3],[4,-4],[0,-2],[-3,-3],[-2,0],[-5,4],[-1,1],[-1,1],[1,3],[0,3],[-2,3],[-4,1],[-18,-1],[0,-3],[3,0],[2,-1],[1,-1],[1,-3],[-8,-1],[-16,-6],[-8,-3],[0,-2],[14,-2],[9,-4],[8,-5],[11,-4],[3,0],[7,1],[3,-1],[2,-3],[-1,-2],[-2,-1],[-2,1],[3,-3],[10,-8],[2,0],[6,3],[12,-2],[12,-5],[5,-6],[2,-25],[-1,-12],[-6,-5],[0,-3],[3,0],[0,-2],[-5,-1],[0,-1],[-1,-3],[1,1],[1,0],[1,1],[3,-2],[-4,-1],[-2,-2],[-4,-5],[0,-2],[1,0],[1,0],[0,-1],[0,-2],[15,15],[5,-3],[2,-2],[0,-3],[-11,-12],[-4,1],[-1,0],[-4,-6],[-2,-1],[-2,-1],[-1,-3],[1,-5],[-3,0],[-5,1],[-8,-4],[-7,-3],[-5,4],[-2,0],[-3,-7],[-3,-2],[-4,-1],[0,-3],[5,0],[0,-2],[-2,0],[-1,-1],[-2,-2],[4,-3],[5,-7],[3,-7],[-8,-6],[-2,-5],[-4,-4],[-6,2],[-3,-6],[-4,-6],[-6,-5],[-3,-4],[5,-3],[7,-9],[1,-3],[-2,-4],[-5,-5],[2,-4],[2,-7],[1,-10],[14,-35],[5,-7],[3,-9],[2,-5],[37,-45],[4,-9],[-2,-7],[3,-4],[2,0],[3,1],[4,1],[3,-2],[2,-2],[2,-1],[10,-2],[20,-6],[1,1],[1,1],[2,0],[3,-1],[1,-2],[1,-1],[3,0],[4,-1],[5,-4],[3,-1],[3,1],[5,4],[3,1],[39,-14],[12,-7],[9,-10],[0,-2],[0,-4],[1,-2],[9,-4],[4,-2],[1,-2],[2,-5],[30,-41],[11,-21],[2,0],[5,6],[3,6],[8,26],[2,3],[8,4],[2,2],[2,0],[11,6],[1,1],[-5,8],[-2,3],[3,4],[6,0],[11,-6],[2,3],[2,7],[1,3],[9,4],[1,2],[2,6],[6,4],[7,3],[5,3],[0,3],[-13,-1],[-7,1],[-5,2],[4,5],[3,2],[3,1],[-5,4],[-4,7],[0,5],[7,2],[0,2],[-4,3],[-10,6],[-4,4],[-6,-3],[-7,0],[-7,2],[-14,8],[-6,2],[-2,-1],[-3,2],[-22,9],[-8,7],[-7,6],[0,3],[2,-2],[3,0],[4,-1],[3,0],[-1,3],[-1,1],[-3,-1],[-2,0],[-5,9],[-4,4],[-11,4],[-4,5],[-1,5],[5,3],[-5,7],[-2,10],[-1,17],[-2,9],[-11,7],[-2,8],[16,-11],[6,-8],[-2,-7],[0,-2],[9,-9],[6,-4],[7,-2],[24,0],[7,2],[4,-4],[2,-1],[2,-1],[-1,-2],[-2,-4],[3,-3],[2,1],[2,1],[1,1],[3,-1],[3,-3],[8,-4],[15,-14],[6,-3],[-1,-2],[3,-3],[5,-4],[2,0],[2,-2],[11,-9],[8,-5],[10,-3],[10,-2],[12,0],[0,-3],[-13,0],[-6,0],[-4,-2],[0,-3],[32,3],[10,-3],[-1,-5],[1,-4],[9,-7],[-5,-9],[-1,-5],[6,-3],[4,-3],[15,-22],[6,-5],[3,-4],[1,-5],[-1,-5],[-3,-4],[-3,-3],[-2,-6],[-6,-6],[-2,-4],[0,-4],[1,-4],[0,-4],[-1,-4],[5,1],[1,-3],[0,-4],[1,-3],[4,-3],[4,-1],[3,-3],[1,-5],[3,-5],[14,-9],[6,-5],[-1,3],[-1,1],[-1,1],[5,-1],[2,-3],[1,-5],[5,-3],[5,-1],[4,1],[5,2],[4,0],[10,0],[48,-14],[10,-1],[9,-2],[15,-9],[10,-1],[-5,3],[-2,1],[-3,1],[0,2],[9,-3],[9,-8],[5,-10],[-4,-6],[7,-2],[3,-3],[3,-2],[5,2],[1,-3],[2,-2],[2,0],[3,2],[2,0],[35,-14],[4,-3],[28,-13],[29,-27],[8,-3],[11,-5],[8,-8],[-1,-10],[15,-2],[9,-10],[8,-12],[8,-11],[3,2],[6,-6],[1,-3],[10,-26],[-4,-3],[-2,-2],[-2,-3],[-2,-4],[1,-2],[3,-1],[1,-2],[-5,-3],[5,0],[1,-1],[2,-2],[2,-2],[5,-2],[3,-2],[2,-3],[-4,0],[-4,1],[-7,4],[1,-7],[4,-3],[5,-3],[2,-3],[-1,-5],[-4,-2],[-9,-5],[-6,-6],[-1,-6],[1,-4],[4,2],[5,5],[2,2],[4,0],[8,-1],[0,-2],[-9,-2],[-10,-5],[-5,-7],[4,-6],[-2,-2],[-9,-14],[-3,-2],[-1,2],[-1,1],[-4,-2],[-6,-3],[-3,-3],[-11,-17],[1,-11],[3,-2],[7,-3],[2,0],[2,-4],[31,-29],[9,-12],[5,-5],[5,-2],[6,0],[23,3],[7,-1],[21,-10],[0,6],[3,-3],[3,-2],[7,-3],[-5,1],[-1,0],[-2,1],[-2,0],[6,-5],[12,-6],[14,-4],[8,0],[4,10],[1,13],[-2,13],[-6,7],[0,3],[2,2],[1,4],[0,9],[-4,-3],[-5,4],[-5,6],[-5,3],[-5,1],[-14,4],[-5,2],[-3,4],[-7,11],[-2,6],[-13,19],[-2,0],[-3,-2],[2,7],[5,2],[12,-2],[5,1],[2,3],[0,2],[2,2],[3,0],[3,-2],[2,0],[2,4],[6,-2],[8,-1],[5,-3],[-2,-6],[3,0],[2,0],[-2,-8],[3,-5],[12,-7],[5,3],[5,-3],[4,-5],[3,-5],[6,1],[7,-1],[7,0],[3,5],[2,0],[3,-4],[4,-5],[6,-4],[5,-2],[0,-3],[-11,-4],[-2,1],[0,5],[-1,2],[-4,6],[-2,0],[-1,-2],[-1,-1],[-1,-2],[7,-14],[3,-3],[5,-2],[11,1],[4,-2],[-5,-3],[-5,-2],[-3,-2],[1,-5],[2,-4],[12,-15],[2,-6],[-3,-6],[-4,-4],[-2,-4],[-2,-1],[-10,-13],[12,-12],[45,-33],[9,-10],[25,-42],[1,-5],[-2,-5],[-2,-6],[-1,-6],[5,-4],[7,-4],[4,3],[2,6],[5,5],[0,2],[-9,25],[-3,16],[1,15],[6,12],[8,9],[11,7],[26,8],[14,2],[15,0],[13,-3],[26,-10],[14,-4],[10,1],[3,-1],[2,0],[7,1],[-1,3],[-1,3],[-1,2],[-2,2],[0,3],[7,3],[2,5],[0,4],[4,3],[0,-4],[0,-3],[2,-2],[3,-1],[0,-2],[-7,-3],[1,-4],[5,-4],[7,-2],[5,1],[10,6],[6,0],[-1,3],[-1,5],[0,2],[6,-2],[6,1],[7,2],[6,2],[-2,-8],[3,-4],[5,-3],[7,0],[1,2],[6,12],[2,1],[4,0],[9,0],[-6,-1],[-3,-3],[-1,-4],[2,-5],[-2,0],[0,1],[0,1],[0,1],[-2,-2],[-1,-2],[0,-2],[3,-2],[0,-2],[-2,-4],[0,-5],[4,-11],[-2,-1],[-1,-1],[-2,-1],[0,-2],[4,-2],[4,-5],[3,-1],[5,1],[7,4],[4,0],[0,-2],[-2,-1],[-1,-2],[-1,-2],[0,-3],[3,1],[0,-2],[-3,-9],[2,0],[0,3],[0,-1],[2,0],[1,-1],[9,20],[1,7],[2,0],[6,-5],[12,-4],[12,0],[5,4],[8,-7],[5,-3],[2,1],[1,5],[4,4],[5,4],[5,1],[-6,-10],[-2,-5],[4,-3],[5,-1],[15,-3],[4,-2],[28,-11],[7,-5],[2,0],[2,3],[6,6],[2,3],[-4,1],[-1,4],[1,4],[2,4],[2,0],[1,-7],[4,-6],[8,-10],[12,-23],[-3,2],[-1,0],[-1,1],[-2,0],[-2,-2],[-3,0],[-2,0],[-3,2],[0,-3],[5,-3],[1,-5],[0,-5],[4,-4],[0,4],[0,3],[2,5],[2,-3],[6,-14],[2,-4],[7,-8],[1,-5],[0,-2],[1,-2],[2,-1],[3,-1],[1,1],[0,3],[-2,5],[0,5],[3,0],[4,1],[-1,-4],[0,-5],[-1,-3],[5,-5],[1,-2],[1,-3],[-6,2],[-2,-3],[-1,-6],[-1,-6],[5,0],[3,-2],[0,-2],[-3,-3],[0,-3],[3,-2],[2,0],[2,1],[3,1],[3,-1],[2,-1],[0,-3],[-5,-6],[-2,-4],[0,-6],[1,-4],[4,-4],[2,-3],[-3,-3],[0,-2],[5,-2],[8,-6],[1,6],[4,2],[14,-5],[-4,-3],[-7,-4],[-3,-1],[0,-5],[9,-4],[10,-1],[9,2],[3,-1],[2,-3],[3,-4],[1,-4],[10,1],[30,-9],[9,0],[4,-1],[2,-5],[3,0],[12,-7],[3,-2],[2,0],[2,2],[5,4],[1,2],[1,3],[0,3],[-1,4],[1,16],[-1,4],[-5,-2],[-5,-3],[-3,0],[-2,3],[-3,5],[3,-2],[2,0],[5,2],[-4,6],[-2,3],[-4,1],[0,2],[5,1],[5,-1],[0,-2],[-1,-2],[0,-1],[0,-2],[1,-3],[8,6],[8,8],[4,9],[-7,13],[1,2],[1,3],[0,3],[-1,0],[-6,4],[-7,5],[0,3],[4,2],[0,2],[-1,1],[-4,2],[7,-2],[1,-5],[2,-6],[9,-2],[4,-1],[5,-4],[3,0],[17,0],[0,2],[-3,2],[-2,2],[-2,2],[-1,4],[3,0],[4,-7],[5,5],[8,15],[-1,-23],[3,-10],[8,5],[3,0],[-1,-5],[-2,-2],[-4,0],[-4,0],[-4,-1],[-3,-2],[-2,-2],[-2,0],[-2,-3],[-1,-6],[4,-5],[8,-1],[0,-2],[-1,0],[-1,-1],[2,-1],[3,-1],[3,-1],[4,1],[-7,-11],[1,-2],[3,-1],[5,-3],[4,-3],[2,-3],[-5,1],[-3,-1],[-3,-2],[-2,-3],[0,-4],[1,-1],[3,-1],[4,-2],[17,-17],[0,-3],[-3,0],[0,-2],[4,-3],[5,-4],[3,-5],[0,-5],[-2,-3],[0,-4],[-1,-3],[-4,-2],[2,-3],[2,-2],[2,-1],[13,-14],[2,-5],[-4,-12],[0,-6],[9,-6],[1,-6],[0,-7],[-1,-5],[-2,-2],[-4,-3],[-2,-2],[0,-3],[0,-8],[-1,-2],[-2,-1],[-2,-2],[0,-3],[4,-1],[3,-1],[4,-1],[2,-2],[2,-1],[6,-10],[4,-3],[5,5],[3,0],[1,-2],[2,-1],[2,1],[2,2],[3,0],[7,-2],[29,1],[40,8],[3,0],[44,6],[4,-1],[7,-2],[3,0],[3,2],[0,3],[0,2],[1,3],[4,3],[3,1],[3,1],[1,4],[1,2],[2,2],[3,2],[2,0],[9,2],[2,3],[-7,10],[2,10],[9,7],[27,9],[-3,2],[-3,-2],[-3,-1],[-4,-1],[-5,-1],[0,3],[12,3],[3,2],[3,0],[3,-4],[10,-2],[4,-2],[5,3],[23,0],[25,9],[3,1],[10,0],[4,1],[3,3],[6,14],[0,8],[-4,10],[-17,31],[-33,43],[-23,20],[-34,28],[-5,10],[-5,15],[-8,13],[-12,4],[-5,3],[-14,6],[-5,1],[-3,4],[-2,7],[-3,7],[-5,3],[2,3],[1,1],[0,4],[-1,36],[3,6],[23,23],[6,4],[2,3],[-1,2],[0,1],[4,2],[-2,-2],[2,-2],[5,-4],[10,-2],[3,1],[6,3],[4,1],[2,-1],[4,-1],[4,-1],[17,3],[11,4],[25,13]],[[3430,3327],[26,11],[36,12],[42,3],[6,2],[12,7],[3,1],[13,2],[14,3],[12,5],[10,6],[13,15],[14,12],[10,9],[0,4],[8,12],[9,4],[2,-1],[1,-3],[0,-14],[0,-3],[2,-3],[4,-2],[3,0],[4,2],[3,6],[0,8],[2,3],[7,-4],[0,3],[-1,6],[-1,3],[1,-1],[1,-1],[3,2],[-5,6],[4,4],[4,-2],[7,1],[8,-4],[7,-11],[2,-4],[-1,8],[-2,5],[0,6],[3,6],[6,5],[11,4],[6,4],[0,1],[1,3],[1,1],[1,1],[3,4],[3,2],[6,3],[2,10],[2,9],[7,2],[3,3],[-2,2],[-4,-2],[-3,-1],[-2,3],[2,1],[2,2],[2,4],[5,2],[4,3],[3,4],[7,2],[6,-1],[7,2],[9,4],[7,-1],[2,-5],[2,-3],[0,-3],[-4,-2],[0,-2],[4,-2],[0,-1],[1,-3],[2,2],[1,0],[1,1],[1,3],[3,0],[2,-2],[3,-2],[7,-2],[0,3],[3,7],[2,-3],[2,-1],[3,0],[2,2],[14,-4],[21,-2],[23,-6],[12,-4],[16,-2],[7,3],[7,2],[8,0],[7,-1],[6,2],[7,2],[11,1],[13,2],[16,1],[5,-3],[0,-4],[-7,-4],[-4,1],[-4,-2],[-4,-1],[-11,-1],[-6,-1],[-4,-7],[1,-9],[2,-11],[6,-3],[6,2],[4,-2],[5,1],[4,1],[4,0],[4,-1],[5,0],[7,-2],[3,-1],[4,-3],[2,-2],[2,-3],[3,0],[5,1],[3,-1],[3,0],[5,0],[2,3],[4,1],[6,-1],[11,2],[3,3],[6,-1],[4,1],[1,0]],[[3599,0],[3,3],[2,7],[1,4],[2,2],[2,1],[8,2],[5,14],[3,12],[2,19],[0,9],[-3,16],[-1,28],[4,9],[0,3],[1,2],[4,-2],[1,-2],[2,-3],[1,-5],[3,0],[1,5],[3,7],[1,3],[-1,5],[-2,3],[-5,5],[-8,14],[-3,7],[-1,8],[1,8],[3,4],[3,3],[3,6],[1,8],[-2,7],[-3,7],[-2,10],[-4,4],[-5,3],[-6,1],[-5,2],[-3,4],[-2,6],[-2,6],[0,15],[4,16],[8,13],[11,9],[6,-3],[6,-1],[12,1],[5,2],[7,6],[5,2],[5,1],[10,3],[11,2],[7,5],[4,1],[3,2],[11,9],[3,2],[5,7],[2,3],[9,4],[22,7],[9,7],[2,-4],[0,-3],[-7,-23],[2,-6],[3,-3],[4,-3],[4,-4],[5,-9],[2,-3],[-6,16],[-5,4],[-1,2],[0,3],[2,3],[0,2],[0,9],[0,7],[4,5],[6,4],[16,-5],[17,10],[25,23],[8,2],[25,-2],[3,1],[9,3],[3,1],[10,0],[5,0],[4,2],[9,-4],[10,1],[10,4],[10,2],[6,4],[28,36],[5,3],[9,-3],[7,-6],[5,-7],[2,-9],[1,-11],[7,4],[4,5],[1,7],[2,16],[2,5],[3,3],[4,6],[1,-4],[2,-1],[3,0],[4,2],[3,3],[1,3],[-1,3],[2,4],[6,6],[6,1],[15,-5],[-3,5],[-6,2],[-8,1],[-6,2],[-2,5],[1,5],[3,5],[14,13],[2,5],[0,6],[-1,5],[0,4],[6,2],[-2,7],[-5,4],[-5,3],[-3,4],[0,6],[0,7],[0,7],[-2,5],[-3,1],[-4,-3],[-7,-3],[-4,4],[-3,3],[-5,1],[-3,3],[-8,5],[-4,1],[-9,6],[-6,6],[-3,5],[2,6],[3,4],[5,2],[8,2],[6,6],[6,11],[5,7],[9,9],[8,9],[5,5],[7,6],[17,4],[8,-1],[7,1],[3,-1]],[[4096,3225],[-6,5],[0,3],[3,0],[0,2],[-5,2],[-4,3],[-2,4],[-4,4],[3,-6],[0,-5],[-2,-4],[-6,-3],[-5,-1],[-4,2],[-7,8],[-3,6],[-1,7],[-2,6],[-48,25],[-19,4],[-9,7],[-2,2],[0,3],[1,2],[1,2],[1,4],[0,7],[0,7],[-3,4],[-7,1],[0,2],[8,1],[6,3],[4,5],[2,6],[2,0],[3,-5],[4,0],[6,5],[7,3],[3,2],[2,3],[-2,-1],[-5,-1],[-3,-1],[-2,-1],[-5,-5],[-2,-1],[-2,1],[-1,2],[-2,2],[-3,0],[-2,-2],[-5,-7],[-2,-1],[-1,-1],[-1,-2],[-2,-1],[-4,-1],[-3,0],[-3,-1],[-1,-2],[-1,-2],[2,-3],[5,-1],[4,-4],[1,-7],[-1,-5],[-4,-6],[-5,-4],[-6,1],[-2,1],[-9,2],[-1,2],[-1,3],[-2,1],[-1,-4],[-6,-2],[-30,5],[-9,-2],[-2,0],[0,2],[-9,-2],[-21,2],[-8,-5],[-3,3],[-4,0],[-3,-2],[-6,-1],[-5,-2],[-3,0],[-3,-1],[0,-2],[0,-1],[-2,-1],[-1,-1],[-10,-7],[-1,-3],[1,-3],[-1,-2],[-4,-2],[6,-10],[2,-5],[-5,4],[-6,6],[-5,7],[-2,6],[-2,0],[0,-2],[1,-2],[1,-1],[0,-3],[-2,0],[2,-9],[-1,-8],[-6,-3],[-8,3],[-17,-3],[-5,-3],[2,-4],[0,-3],[-4,2],[-2,2],[-3,0],[-3,-1],[-2,1],[0,1],[-1,0],[-2,0],[0,-2],[1,-2],[0,-1],[1,-2],[-6,1],[-6,-3],[-5,-5],[-3,-6],[-1,-7],[1,-22],[1,-2],[2,-1],[1,-1],[1,-1],[0,-2],[-1,-2],[-1,-2],[-1,-3],[-1,-3],[-2,-3],[-2,-2],[-2,-1],[-4,-3],[-5,-1],[0,-1],[0,-2],[-1,-1],[-6,-2],[-6,-3],[5,-4],[12,-3],[12,5],[11,5],[4,2],[1,2],[2,0],[0,-3],[-1,-3],[-12,-9],[-15,-13],[-7,-3],[-12,-4],[-14,-3],[-2,-4],[0,-4],[0,-3],[-2,-1],[-1,-1],[-5,0],[-1,-1],[-6,-5],[-2,-2],[-3,-1],[-2,-1],[-4,-7],[-2,-2],[-1,-1],[-7,-7],[-26,-17],[-15,-9],[-16,-9]],[[3222,2771],[-3,-4],[-2,-4],[-4,-3],[-13,-2],[-4,-2],[-4,-3],[-4,-4],[-3,-4],[2,0],[10,3],[1,0],[3,-1],[3,-1],[3,0],[2,1],[6,6],[10,5],[2,2],[1,3],[2,2],[3,1],[4,-1],[2,0],[2,-1],[3,-2],[3,-1],[2,0],[4,2],[5,2],[2,3],[5,8],[-11,0],[-5,0],[-4,2],[-11,-3],[-7,-2],[-5,-2]],[[2983,2670],[0,2],[-1,1],[-2,0],[-1,-2],[0,-1],[1,-2],[0,-4],[5,-16],[3,0],[-1,3],[-2,2],[3,4],[5,10],[5,3],[-5,0],[-4,1],[-3,1],[-3,-2]],[[2836,3004],[-3,5],[-7,3],[-8,3],[-5,2],[-12,-4],[-3,-3],[3,-6],[2,-1],[7,-1],[3,0],[10,-8],[-2,6],[-1,2],[0,4],[3,1],[5,0],[8,-3]],[[3035,2711],[-2,0],[-3,-3],[-2,2],[-2,3],[-1,4],[-1,3],[-7,6],[-2,5],[1,2],[3,10],[0,3],[12,4],[2,2],[-1,6],[-1,2],[-3,1],[-3,2],[-1,0],[-3,0],[-1,0],[0,1],[0,3],[0,1],[-3,4],[-1,1],[0,4],[-8,24],[-2,0],[-1,0],[0,-1],[0,-2],[-2,0],[0,3],[-3,0],[1,-3],[1,-4],[1,-3],[-3,0],[0,1],[-4,-2],[-10,-7],[-7,-2],[-2,-2],[-2,-3],[-1,-3],[0,-3],[-1,-4],[-1,-1],[-4,-8],[0,-1],[-4,-1],[-7,0],[-2,-1],[3,-9],[1,-2],[3,-3],[8,-17],[16,-13],[7,-4],[8,-10],[4,-3],[7,-2],[16,-1],[12,-7],[8,0],[8,2],[7,3],[-10,19],[-3,2],[-11,-1],[-4,3]],[[2788,3027],[0,2],[6,-1],[3,1],[0,4],[-4,4],[-8,2],[-19,-13],[-8,1],[-2,0],[2,-5],[5,-6],[5,-5],[4,-2],[6,2],[13,7],[7,1],[-10,8]],[[4041,504],[-29,-25],[-5,-7],[1,-7],[5,-6],[8,-6],[4,3],[3,5],[9,-5],[5,10],[1,15],[0,12],[-2,5],[0,2],[0,4]],[[3971,3044],[-1,2],[-2,2],[-1,0],[-3,0],[-4,-6],[-2,-5],[1,-4],[-1,-5],[-1,-3],[-2,1],[-1,-5],[6,-13],[5,0],[0,5],[2,2],[2,1],[0,3],[-2,2],[0,3],[5,3],[4,-2],[4,1],[1,1],[-2,1],[-2,1],[-2,3],[-2,8],[-2,4]],[[1773,3700],[-2,0],[-3,2],[12,0],[0,3],[-11,3],[-11,2],[-3,0],[-7,-3],[5,-9],[3,-3],[7,-3],[6,-1],[6,1],[6,1],[4,2],[0,2],[-4,0],[-3,1],[-2,2],[-3,0]],[[2793,3449],[17,-14],[8,-8],[5,-8],[2,3],[0,1],[0,1],[-2,2],[0,3],[5,6],[-2,9],[-10,15],[-7,0],[-6,-3],[-10,-7]],[[2868,3416],[-9,8],[-3,2],[-4,-2],[-3,0],[-3,1],[-3,1],[-2,2],[-1,0],[-2,0],[-2,-2],[0,-2],[7,-4],[6,-1],[6,-3],[3,-7],[-5,2],[0,-2],[4,-3],[1,-3],[0,-8],[-1,-2],[-1,-1],[4,-4],[2,0],[3,8],[6,6],[7,3],[8,-1],[-4,5],[-5,3],[-9,4]],[[2781,2963],[1,5],[2,4],[4,5],[4,2],[4,0],[1,-2],[-1,-4],[1,-5],[-7,-3],[-4,-1],[-5,-1]],[[3974,3072],[-3,-2],[-7,5],[-6,5],[4,9],[5,-4],[3,-5],[2,2],[1,3],[2,-1],[-1,-5],[2,-2],[0,-2],[-2,-3]],[[3758,3350],[4,5],[4,3],[-1,-7],[-5,-8],[-7,-7],[-8,-3],[-11,0],[-7,0],[-4,0],[-3,1],[-4,2],[0,-3],[-1,-3],[-1,-1],[-3,-1],[0,-2],[1,-2],[1,0],[1,-4],[-3,0],[0,3],[-2,0],[0,-2],[-1,-2],[-1,-1],[-1,-2],[3,0],[-1,-1],[-1,-1],[-1,-1],[0,-2],[-1,1],[-2,1],[-1,1],[-1,2],[-1,-1],[-1,-1],[0,-2],[0,-1],[-3,5],[-1,-1],[-1,0],[0,-2],[-3,5],[-2,0],[-1,-1],[0,-1],[-2,0],[1,2],[1,2],[3,3],[1,-2],[1,-1],[1,-2],[2,2],[1,0],[2,0],[2,0],[4,3],[5,8],[3,2],[1,2],[-2,3],[-6,5],[-2,0],[-2,-2],[-2,-1],[-2,1],[-2,2],[-2,0],[0,-5],[-4,2],[-3,3],[0,4],[2,4],[-2,2],[-1,2],[-2,2],[-3,1],[0,-3],[-1,-2],[-4,-2],[-1,5],[-3,2],[-3,-1],[-3,-4],[3,0],[0,-2],[-2,-3],[1,-2],[3,-4],[3,-4],[-3,-2],[1,-4],[1,-2],[1,-2],[2,-2],[-10,2],[-3,-1],[3,-7],[-2,0],[-4,6],[-1,2],[-3,0],[2,-8],[2,-6],[1,-7],[-2,-9],[-5,8],[0,3],[-1,2],[-3,-1],[-1,-3],[2,-4],[-1,0],[-1,0],[0,-1],[0,-2],[-3,6],[-6,10],[-1,7],[-3,0],[-1,-2],[-1,0],[-1,0],[-1,2],[-2,-5],[2,-5],[7,-8],[0,-2],[-3,1],[-3,2],[-4,5],[2,-7],[-2,-2],[-3,2],[-2,7],[-3,-4],[-5,-3],[-2,-4],[-2,2],[-1,2],[-2,4],[6,4],[8,11],[6,3],[-1,1],[-2,1],[7,6],[3,1],[3,-2],[7,7],[3,2],[2,0],[1,-2],[3,3],[4,8],[-2,8],[5,19],[-1,5],[0,3],[3,1],[2,2],[2,3],[1,4],[4,-3],[5,-2],[4,1],[4,4],[2,2],[1,3],[0,6],[1,2],[11,7],[1,0],[1,0],[1,1],[0,2],[2,0],[6,-4],[2,-1],[-4,-7],[-1,-7],[1,-6],[-1,-3],[4,-1],[7,2],[4,-1],[0,-3],[-14,-3],[-7,-3],[-5,-1],[-4,1],[-3,1],[-2,0],[0,-5],[2,-3],[2,-2],[3,-2],[0,5],[2,2],[4,0],[4,-2],[-2,-3],[-3,-3],[-7,-4],[0,-3],[13,5],[4,3],[-1,-2],[-3,-6],[-1,-2],[3,0],[4,2],[4,-6],[3,-9],[1,-6],[4,-3],[19,1],[7,-2],[7,12]],[[4044,3099],[0,4],[1,2],[4,-2],[4,-2],[2,-3],[2,-4],[1,-5],[0,-3],[0,-3],[4,-1],[3,-5],[-1,-4],[-3,-2],[-1,-5],[5,-9],[-3,-8],[-3,-3],[0,-3],[-2,-3],[-5,0],[-2,2],[-2,-1],[-3,0],[-2,-1],[-1,2],[-1,3],[-1,-3],[-3,-3],[-3,-4],[0,-3],[-1,-3],[4,-5],[0,-7],[3,-2],[2,0],[0,-1],[-2,-2],[-5,3],[-4,3],[1,5],[-3,8],[-2,4],[-7,3],[-2,1],[-2,4],[2,6],[2,3],[1,6],[-1,3],[-3,3],[-1,3],[1,3],[2,2],[0,2],[-2,7],[1,3],[-4,10],[2,5],[4,0],[4,-2],[14,7],[3,-3],[1,-2],[1,-2],[1,2]],[[3054,1451],[-1,1],[-1,0],[1,2],[2,2],[2,1],[0,1],[1,3],[2,1],[2,0],[2,1],[1,0],[1,-5],[0,-1],[-2,-1],[-2,-1],[-2,0],[-4,-4],[-2,0]],[[1056,2021],[-7,0],[5,8],[5,3],[5,3],[5,2],[0,-4],[-1,-5],[-4,-5],[-8,-2]],[[2222,3190],[2,-2],[5,-1],[3,2],[0,4],[-5,0],[-5,-3]],[[3797,3224],[3,2],[2,-1],[1,1],[1,-1],[-1,-1],[1,-2],[1,-2],[3,0],[0,-2],[-1,-2],[-2,-1],[-1,2],[-1,1],[-3,0],[-2,0],[-1,3],[0,3]],[[3070,3337],[1,-1],[2,0],[1,1],[1,0],[3,-2],[1,-1],[2,-1],[0,-2],[1,-1],[0,-1],[-1,0],[-2,1],[-3,1],[-4,0],[-2,0],[-1,0],[-1,2],[-1,2],[0,1],[0,1],[3,0]],[[2896,3361],[-2,2],[0,2],[2,-1],[2,-3],[2,-1],[2,0],[1,-3],[1,-3],[3,-1],[3,-1],[-1,-2],[-3,-2],[-3,-1],[-2,0],[-4,2],[-3,2],[-1,3],[0,3],[3,4]],[[3957,3282],[0,1],[1,0],[0,-2],[2,-1],[-1,-1],[0,-2],[-2,0],[1,2],[-1,1],[0,1],[0,1]],[[1647,3892],[-1,2],[-16,12],[-24,36],[-18,43],[-3,30],[7,38],[0,32],[-2,11]],[[2182,3706],[14,5],[17,3],[21,0],[43,-6],[37,-10],[14,-5],[23,-15],[31,-24],[13,-13],[93,1],[35,6],[12,1]],[[2110,3681],[45,17],[27,8]],[[3832,3322],[-13,9]],[[3819,3331],[-2,2],[-16,14],[-67,70],[-15,10],[-17,7],[-9,2],[-6,0],[-5,-4]],[[2006,3673],[-20,-9],[-8,-1],[-9,1],[-7,6],[-26,32],[-14,14],[-9,5],[-33,9],[-15,7],[-54,52],[-34,28],[-13,8],[-20,4],[-14,7],[-83,56]],[[1647,3892],[-31,-26],[-9,-16],[4,-25],[0,-44],[4,-25],[8,-12],[24,-16],[56,-47],[29,-20],[34,-15],[38,6]],[[3832,3322],[8,0]],[[3840,3322],[75,0],[36,23],[18,32],[30,24],[42,12],[21,-12],[25,-19],[9,-9]],[[2228,3596],[3,-3],[2,-21],[4,-11],[8,-13],[14,-12],[31,-22],[14,-14],[4,-6],[8,-33],[5,-11],[7,-12],[12,-14],[9,-8],[26,-14],[8,-6],[33,-35],[21,-16],[11,-12],[22,-42],[-3,-2],[-5,2],[-17,-3],[-19,-5],[-12,-8],[5,-9],[23,-16],[12,-11],[8,-2],[12,-1],[9,-5],[48,-40],[10,-7],[9,-3],[29,-9],[19,-11]],[[3811,3305],[27,12],[-6,5]],[[3529,3124],[0,1],[6,-4],[18,-30],[11,-9],[16,-3],[12,0],[9,2],[27,17],[7,3],[12,13],[20,15],[9,12],[5,14],[1,43],[3,18],[25,35],[13,11],[13,5],[13,1],[14,-3],[41,36],[7,4]],[[2110,3681],[-5,2],[-9,1],[-76,-5],[-14,-6]],[[2147,3671],[8,-8],[14,-29],[18,-13]],[[2110,3681],[22,-3],[12,-5],[3,-2]],[[2187,3621],[8,-5],[28,-14],[5,-6]],[[2165,3642],[-10,-2],[-12,0],[-6,4],[-12,4],[-10,2]],[[2115,3650],[-44,0],[-8,-4],[-6,-4],[-6,-2],[-10,-4],[-8,0],[-10,2],[-14,0]],[[2006,3638],[-8,-2],[-10,0],[-10,0],[-14,0],[-12,6],[-8,6],[-4,8],[0,2]],[[1970,3662],[-6,0],[-6,0],[-10,0],[-4,-4],[-8,0],[-8,0],[-8,2],[-6,2],[-16,2],[-6,0],[-12,-4]],[[2598,3161],[24,-19],[15,-8],[9,-4],[12,2],[57,-7],[28,-20],[27,-12],[33,-10],[43,-6],[19,-4],[27,-9],[164,-72],[68,-13],[32,-3],[56,-12],[31,-11],[26,-12],[12,-9],[7,-1]],[[3288,2931],[6,-1],[4,4],[51,16],[42,12],[17,3],[21,18],[17,16],[13,19],[3,16],[-2,32],[5,16],[5,8],[7,7],[36,19],[11,7],[5,1]],[[4042,466],[-5,-10],[-9,5],[-3,-5],[-4,-3],[-8,6],[-5,6],[-1,7],[5,7],[29,25],[0,-4],[0,-2],[2,-5],[0,-12],[-1,-15]],[[3008,2801],[8,-24],[0,-4],[1,-1],[3,-4],[0,-1],[0,-3],[0,-1],[1,0],[3,0],[1,0],[3,-2],[3,-1],[1,-2],[1,-6],[-2,-2],[-12,-4],[0,-3],[-3,-10],[-1,-2],[2,-5],[7,-6],[1,-3],[1,-4],[2,-3],[2,-2],[3,3],[2,0],[4,-3],[11,1],[3,-2],[10,-19],[-7,-3],[-8,-2],[-8,0],[-12,7],[-16,1],[-7,2],[-4,3],[-8,10],[-7,4],[-16,13],[-8,17],[-3,3],[-1,2],[-3,9],[2,1],[7,0],[4,1],[0,1],[4,8],[1,1],[1,4],[0,3],[1,3],[2,3],[2,2],[7,2],[10,7],[4,2],[0,-1],[3,0],[-1,3],[-1,4],[-1,3],[3,0],[0,-3],[2,0],[0,2],[0,1],[1,0],[2,0]],[[3260,2768],[-2,-3],[-5,-2],[-4,-2],[-2,0],[-3,1],[-3,2],[-2,1],[-2,0],[-4,1],[-3,-1],[-2,-2],[-1,-3],[-2,-2],[-10,-5],[-6,-6],[-2,-1],[-3,0],[-3,1],[-3,1],[-1,0],[-10,-3],[-2,0],[3,4],[4,4],[4,3],[4,2],[13,2],[4,3],[2,4],[3,4],[5,2],[7,2],[11,3],[4,-2],[5,0],[11,0],[-5,-8]],[[1768,3702],[3,-2],[2,0],[3,0],[2,-2],[3,-1],[4,0],[0,-2],[-4,-2],[-6,-1],[-6,-1],[-6,1],[-7,3],[-3,3],[-5,9],[7,3],[3,0],[11,-2],[11,-3],[0,-3],[-12,0]],[[2846,3425],[3,-1],[3,0],[4,2],[3,-2],[9,-8],[9,-4],[5,-3],[4,-5],[-8,1],[-7,-3],[-6,-6],[-3,-8],[-2,0],[-4,4],[1,1],[1,2],[0,8],[-1,3],[-4,3],[0,2],[5,-2],[-3,7],[-6,3],[-6,1],[-7,4],[0,2],[2,2],[2,0],[1,0],[2,-2],[3,-1]],[[2825,3422],[-2,-3],[-5,8],[-8,8],[-17,14],[10,7],[6,3],[7,0],[10,-15],[2,-9],[-5,-6],[0,-3],[2,-2],[0,-1],[0,-1]],[[2833,3009],[3,-5],[-8,3],[-5,0],[-3,-1],[0,-4],[1,-2],[2,-6],[-10,8],[-3,0],[-7,1],[-2,1],[-3,6],[3,3],[12,4],[5,-2],[8,-3],[7,-3]],[[2797,3029],[-3,-1],[-6,1],[0,-2],[10,-8],[-7,-1],[-13,-7],[-6,-2],[-4,2],[-5,5],[-5,6],[-2,5],[2,0],[8,-1],[19,13],[8,-2],[4,-4],[0,-4]],[[3981,3027],[-1,-1],[-4,-1],[-4,2],[-5,-3],[0,-3],[2,-2],[0,-3],[-2,-1],[-2,-2],[0,-5],[-5,0],[-6,13],[1,5],[2,-1],[1,3],[1,5],[-1,4],[2,5],[4,6],[3,0],[1,0],[2,-2],[1,-2],[2,-4],[2,-8],[2,-3],[2,-1],[2,-1]],[[4055,3098],[2,-4],[1,-5],[0,-3],[0,-3],[4,-1],[3,-5],[-1,-4],[-3,-2],[-1,-5],[5,-9],[-3,-8],[-3,-3],[0,-3],[-2,-3],[-5,0],[-2,2],[-2,-1],[-3,0],[-2,-1],[-1,2],[-1,3],[-1,-3],[-3,-3],[-3,-4],[0,-3],[-1,-3],[4,-5],[0,-7],[3,-2],[2,0],[0,-1],[-2,-2],[-5,3],[-4,3],[1,5],[-3,8],[-2,4],[-7,3],[-2,1],[-2,4],[2,6],[2,3],[1,6],[-1,3],[-3,3],[-1,3],[1,3],[2,2],[0,2],[-2,7],[1,3],[-4,10],[2,5],[4,0],[4,-2],[14,7],[3,-3],[1,-2],[1,-2],[1,2],[0,4],[1,2],[4,-2],[4,-2],[2,-3]],[[4096,670],[0,-670],[-497,0],[1,0],[2,3],[2,7],[1,4],[2,2],[2,1],[8,2],[5,14],[3,12],[2,19],[0,9],[-3,16],[-1,28],[4,9],[0,3],[1,2],[4,-2],[1,-2],[2,-3],[1,-5],[3,0],[1,5],[3,7],[1,3],[-1,5],[-2,3],[-5,5],[-8,14],[-3,7],[-1,8],[1,8],[3,4],[3,3],[3,6],[1,8],[-2,7],[-3,7],[-2,10],[-4,4],[-5,3],[-6,1],[-5,2],[-3,4],[-2,6],[-2,6],[0,15],[4,16],[8,13],[11,9],[6,-3],[6,-1],[12,1],[5,2],[7,6],[5,2],[5,1],[10,3],[11,2],[7,5],[4,1],[3,2],[11,9],[3,2],[5,7],[2,3],[9,4],[22,7],[9,7],[2,-4],[0,-3],[-7,-23],[2,-6],[3,-3],[4,-3],[4,-4],[5,-9],[2,-3],[-6,16],[-5,4],[-1,2],[0,3],[2,3],[0,2],[0,9],[0,7],[4,5],[6,4],[16,-5],[17,10],[25,23],[8,2],[25,-2],[3,1],[9,3],[3,1],[10,0],[5,0],[4,2],[9,-4],[10,1],[10,4],[10,2],[6,4],[28,36],[5,3],[9,-3],[7,-6],[5,-7],[2,-9],[1,-11],[7,4],[4,5],[1,7],[2,16],[2,5],[3,3],[4,6],[1,-4],[2,-1],[3,0],[4,2],[3,3],[1,3],[-1,3],[2,4],[6,6],[6,1],[15,-5],[-3,5],[-6,2],[-8,1],[-6,2],[-2,5],[1,5],[3,5],[14,13],[2,5],[0,6],[-1,5],[0,4],[6,2],[-2,7],[-5,4],[-5,3],[-3,4],[0,6],[0,7],[0,7],[-2,5],[-3,1],[-4,-3],[-7,-3],[-4,4],[-3,3],[-5,1],[-3,3],[-8,5],[-4,1],[-9,6],[-6,6],[-3,5],[2,6],[3,4],[5,2],[8,2],[6,6],[6,11],[5,7],[9,9],[8,9],[5,5],[7,6],[17,4],[8,-1],[7,1],[3,-1]],[[4096,3461],[0,-236],[-6,5],[0,3],[3,0],[0,2],[-5,2],[-4,3],[-2,4],[-4,4],[3,-6],[0,-5],[-2,-4],[-6,-3],[-5,-1],[-4,2],[-7,8],[-3,6],[-1,7],[-2,6],[-48,25],[-19,4],[-9,7],[-2,2],[0,3],[1,2],[1,2],[1,4],[0,7],[0,7],[-3,4],[-7,1],[0,2],[8,1],[6,3],[4,5],[2,6],[2,0],[3,-5],[4,0],[6,5],[7,3],[3,2],[2,3],[-2,-1],[-5,-1],[-3,-1],[-2,-1],[-5,-5],[-2,-1],[-2,1],[-1,2],[-2,2],[-3,0],[-2,-2],[-5,-7],[-2,-1],[-1,-1],[-1,-2],[-2,-1],[-4,-1],[-3,0],[-3,-1],[-1,-2],[-1,-2],[2,-3],[5,-1],[4,-4],[1,-7],[-1,-5],[-4,-6],[-5,-4],[-6,1],[-2,1],[-9,2],[-1,2],[-1,3],[-2,1],[-1,-4],[-6,-2],[-30,5],[-9,-2],[-2,0],[0,2],[-9,-2],[-21,2],[-8,-5],[-3,3],[-4,0],[-3,-2],[-6,-1],[-5,-2],[-3,0],[-3,-1],[0,-2],[0,-1],[-2,-1],[-1,-1],[-10,-7],[-1,-3],[1,-3],[-1,-2],[-4,-2],[6,-10],[2,-5],[-5,4],[-6,6],[-5,7],[-2,6],[-2,0],[0,-2],[1,-2],[1,-1],[0,-3],[-2,0],[2,-9],[-1,-8],[-6,-3],[-8,3],[-17,-3],[-5,-3],[2,-4],[0,-3],[-4,2],[-2,2],[-3,0],[-3,-1],[-2,1],[0,1],[-1,0],[-2,0],[0,-2],[1,-2],[0,-1],[1,-2],[-6,1],[-6,-3],[-5,-5],[-3,-6],[-1,-7],[1,-22],[1,-2],[2,-1],[1,-1],[1,-1],[0,-2],[-1,-2],[-1,-2],[-1,-3],[-1,-3],[-2,-3],[-2,-2],[-2,-1],[-4,-3],[-5,-1],[0,-1],[0,-2],[-1,-1],[-6,-2],[-6,-3],[5,-4],[12,-3],[12,5],[11,5],[4,2],[1,2],[2,0],[0,-3],[-1,-3],[-12,-9],[-15,-13],[-7,-3],[-12,-4],[-14,-3],[-2,-4],[0,-4],[0,-3],[-2,-1],[-1,-1],[-5,0],[-1,-1],[-6,-5],[-2,-2],[-3,-1],[-2,-1],[-4,-7],[-2,-2],[-1,-1],[-7,-7],[-26,-17],[-15,-9],[-16,-9],[-25,-13],[-11,-4],[-17,-3],[-4,1],[-4,1],[-2,1],[-4,-1],[-6,-3],[-3,-1],[-10,2],[-5,4],[-2,2],[2,2],[-4,-2],[0,-1],[1,-2],[-2,-3],[-6,-4],[-23,-23],[-3,-6],[1,-36],[0,-4],[-1,-1],[-2,-3],[5,-3],[3,-7],[2,-7],[3,-4],[5,-1],[14,-6],[5,-3],[12,-4],[8,-13],[5,-15],[5,-10],[34,-28],[23,-20],[33,-43],[17,-31],[4,-10],[0,-8],[-6,-14],[-3,-3],[-4,-1],[-10,0],[-3,-1],[-25,-9],[-23,0],[-5,-3],[-4,2],[-10,2],[-3,4],[-3,0],[-3,-2],[-12,-3],[0,-3],[5,1],[4,1],[3,1],[3,2],[3,-2],[-27,-9],[-9,-7],[-2,-10],[7,-10],[-2,-3],[-9,-2],[-2,0],[-3,-2],[-2,-2],[-1,-2],[-1,-4],[-3,-1],[-3,-1],[-4,-3],[-1,-3],[0,-2],[0,-3],[-3,-2],[-3,0],[-7,2],[-4,1],[-44,-6],[-3,0],[-40,-8],[-29,-1],[-7,2],[-3,0],[-2,-2],[-2,-1],[-2,1],[-1,2],[-3,0],[-5,-5],[-4,3],[-6,10],[-2,1],[-2,2],[-4,1],[-3,1],[-4,1],[0,3],[2,2],[2,1],[1,2],[0,8],[0,3],[2,2],[4,3],[2,2],[1,5],[0,7],[-1,6],[-9,6],[0,6],[4,12],[-2,5],[-13,14],[-2,1],[-2,2],[-2,3],[4,2],[1,3],[0,4],[2,3],[0,5],[-3,5],[-5,4],[-4,3],[0,2],[3,0],[0,3],[-17,17],[-4,2],[-3,1],[-1,1],[0,4],[2,3],[3,2],[3,1],[5,-1],[-2,3],[-4,3],[-5,3],[-3,1],[-1,2],[7,11],[-4,-1],[-3,1],[-3,1],[-2,1],[1,1],[1,0],[0,2],[-8,1],[-4,5],[1,6],[2,3],[2,0],[2,2],[3,2],[4,1],[4,0],[4,0],[2,2],[1,5],[-3,0],[-8,-5],[-3,10],[1,23],[-8,-15],[-5,-5],[-4,7],[-3,0],[1,-4],[2,-2],[2,-2],[3,-2],[0,-2],[-17,0],[-3,0],[-5,4],[-4,1],[-9,2],[-2,6],[-1,5],[-7,2],[4,-2],[1,-1],[0,-2],[-4,-2],[0,-3],[7,-5],[6,-4],[1,0],[0,-3],[-1,-3],[-1,-2],[7,-13],[-4,-9],[-8,-8],[-8,-6],[-1,3],[0,2],[0,1],[1,2],[0,2],[-5,1],[-5,-1],[0,-2],[4,-1],[2,-3],[4,-6],[-5,-2],[-2,0],[-3,2],[3,-5],[2,-3],[3,0],[5,3],[5,2],[1,-4],[-1,-16],[1,-4],[0,-3],[-1,-3],[-1,-2],[-5,-4],[-2,-2],[-2,0],[-3,2],[-12,7],[-3,0],[-2,5],[-4,1],[-9,0],[-30,9],[-10,-1],[-1,4],[-3,4],[-2,3],[-3,1],[-9,-2],[-10,1],[-9,4],[0,5],[3,1],[7,4],[4,3],[-14,5],[-4,-2],[-1,-6],[-8,6],[-5,2],[0,2],[3,3],[-2,3],[-4,4],[-1,4],[0,6],[2,4],[5,6],[0,3],[-2,1],[-3,1],[-3,-1],[-2,-1],[-2,0],[-3,2],[0,3],[3,3],[0,2],[-3,2],[-5,0],[1,6],[1,6],[2,3],[6,-2],[-1,3],[-1,2],[-5,5],[1,3],[0,5],[1,4],[-4,-1],[-3,0],[0,-5],[2,-5],[0,-3],[-1,-1],[-3,1],[-2,1],[-1,2],[0,2],[-1,5],[-7,8],[-2,4],[-6,14],[-2,3],[-2,-5],[0,-3],[0,-4],[-4,4],[0,5],[-1,5],[-5,3],[0,3],[3,-2],[2,0],[3,0],[2,2],[2,0],[1,-1],[1,0],[3,-2],[-12,23],[-8,10],[-4,6],[-1,7],[-2,0],[-2,-4],[-1,-4],[1,-4],[4,-1],[-2,-3],[-6,-6],[-2,-3],[-2,0],[-7,5],[-28,11],[-4,2],[-15,3],[-5,1],[-4,3],[2,5],[6,10],[-5,-1],[-5,-4],[-4,-4],[-1,-5],[-2,-1],[-5,3],[-8,7],[-5,-4],[-12,0],[-12,4],[-6,5],[-2,0],[-1,-7],[-9,-20],[-1,1],[-2,0],[0,1],[0,-3],[-2,0],[3,9],[0,2],[-3,-1],[0,3],[1,2],[1,2],[2,1],[0,2],[-4,0],[-7,-4],[-5,-1],[-3,1],[-4,5],[-4,2],[0,2],[2,1],[1,1],[2,1],[-4,11],[0,5],[2,4],[0,2],[-3,2],[0,2],[1,2],[2,2],[0,-1],[0,-1],[0,-1],[2,0],[-2,5],[1,4],[3,3],[6,1],[-9,0],[-4,0],[-2,-1],[-6,-12],[-1,-2],[-7,0],[-5,3],[-3,4],[2,8],[-6,-2],[-7,-2],[-6,-1],[-6,2],[0,-2],[1,-5],[1,-3],[-6,0],[-10,-6],[-5,-1],[-7,2],[-5,4],[-1,4],[7,3],[0,2],[-3,1],[-2,2],[0,3],[0,4],[-4,-3],[0,-4],[-2,-5],[-7,-3],[0,-3],[2,-2],[1,-2],[1,-3],[1,-3],[-7,-1],[-2,0],[-3,1],[-10,-1],[-14,4],[-26,10],[-13,3],[-15,0],[-14,-2],[-26,-8],[-11,-7],[-8,-9],[-6,-12],[-1,-15],[3,-16],[9,-25],[0,-2],[-5,-5],[-2,-6],[-4,-3],[-7,4],[-5,4],[1,6],[2,6],[2,5],[-1,5],[-25,42],[-9,10],[-45,33],[-12,12],[10,13],[2,1],[2,4],[4,4],[3,6],[-2,6],[-12,15],[-2,4],[-1,5],[3,2],[5,2],[5,3],[-4,2],[-11,-1],[-5,2],[-3,3],[-7,14],[1,2],[1,1],[1,2],[2,0],[4,-6],[1,-2],[0,-5],[2,-1],[11,4],[0,3],[-5,2],[-6,4],[-4,5],[-3,4],[-2,0],[-3,-5],[-7,0],[-7,1],[-6,-1],[-3,5],[-4,5],[-5,3],[-5,-3],[-12,7],[-3,5],[2,8],[-2,0],[-3,0],[2,6],[-5,3],[-8,1],[-6,2],[-2,-4],[-2,0],[-3,2],[-3,0],[-2,-2],[0,-2],[-2,-3],[-5,-1],[-12,2],[-5,-2],[-2,-7],[3,2],[2,0],[13,-19],[2,-6],[7,-11],[3,-4],[5,-2],[14,-4],[5,-1],[5,-3],[5,-6],[5,-4],[4,3],[0,-9],[-1,-4],[-2,-2],[0,-3],[6,-7],[2,-13],[-1,-13],[-4,-10],[-8,0],[-14,4],[-12,6],[-6,5],[2,0],[2,-1],[1,0],[5,-1],[-7,3],[-3,2],[-3,3],[0,-6],[-21,10],[-7,1],[-23,-3],[-6,0],[-5,2],[-5,5],[-9,12],[-31,29],[-2,4],[-2,0],[-7,3],[-3,2],[-1,11],[11,17],[3,3],[6,3],[4,2],[1,-1],[1,-2],[3,2],[9,14],[2,2],[-4,6],[5,7],[10,5],[9,2],[0,2],[-8,1],[-4,0],[-2,-2],[-5,-5],[-4,-2],[-1,4],[1,6],[6,6],[9,5],[4,2],[1,5],[-2,3],[-5,3],[-4,3],[-1,7],[7,-4],[4,-1],[4,0],[-2,3],[-3,2],[-5,2],[-2,2],[-2,2],[-1,1],[-5,0],[5,3],[-1,2],[-3,1],[-1,2],[2,4],[2,3],[2,2],[4,3],[-10,26],[-1,3],[-6,6],[-3,-2],[-8,11],[-8,12],[-9,10],[-15,2],[1,10],[-8,8],[-11,5],[-8,3],[-29,27],[-28,13],[-4,3],[-35,14],[-2,0],[-3,-2],[-2,0],[-2,2],[-1,3],[-5,-2],[-3,2],[-3,3],[-7,2],[4,6],[-5,10],[-9,8],[-9,3],[0,-2],[3,-1],[2,-1],[5,-3],[-10,1],[-15,9],[-9,2],[-10,1],[-48,14],[-10,0],[-4,0],[-5,-2],[-4,-1],[-5,1],[-5,3],[-1,5],[-2,3],[-5,1],[1,-1],[1,-1],[1,-3],[-6,5],[-14,9],[-3,5],[-1,5],[-3,3],[-4,1],[-4,3],[-1,3],[0,4],[-1,3],[-5,-1],[1,4],[0,4],[-1,4],[0,4],[2,4],[6,6],[2,6],[3,3],[3,4],[1,5],[-1,5],[-3,4],[-6,5],[-15,22],[-4,3],[-6,3],[1,5],[5,9],[-9,7],[-1,4],[1,5],[-10,3],[-32,-3],[0,3],[4,2],[6,0],[13,0],[0,3],[-12,0],[-10,2],[-10,3],[-8,5],[-11,9],[-2,2],[-2,0],[-5,4],[-3,3],[1,2],[-6,3],[-15,14],[-8,4],[-3,3],[-3,1],[-1,-1],[-2,-1],[-2,-1],[-3,3],[2,4],[1,2],[-2,1],[-2,1],[-4,4],[-7,-2],[-24,0],[-7,2],[-6,4],[-9,9],[0,2],[2,7],[-6,8],[-16,11],[2,-8],[11,-7],[2,-9],[1,-17],[2,-10],[5,-7],[-5,-3],[1,-5],[4,-5],[11,-4],[4,-4],[5,-9],[2,0],[3,1],[1,-1],[1,-3],[-3,0],[-4,1],[-3,0],[-2,2],[0,-3],[7,-6],[8,-7],[22,-9],[3,-2],[2,1],[6,-2],[14,-8],[7,-2],[7,0],[6,3],[4,-4],[10,-6],[4,-3],[0,-2],[-7,-2],[0,-5],[4,-7],[5,-4],[-3,-1],[-3,-2],[-4,-5],[5,-2],[7,-1],[13,1],[0,-3],[-5,-3],[-7,-3],[-6,-4],[-2,-6],[-1,-2],[-9,-4],[-1,-3],[-2,-7],[-2,-3],[-11,6],[-6,0],[-3,-4],[2,-3],[5,-8],[-1,-1],[-11,-6],[-2,0],[-2,-2],[-8,-4],[-2,-3],[-8,-26],[-3,-6],[-5,-6],[-2,0],[-11,21],[-30,41],[-2,5],[-1,2],[-4,2],[-9,4],[-1,2],[0,4],[0,2],[-9,10],[-12,7],[-39,14],[-3,-1],[-5,-4],[-3,-1],[-3,1],[-5,4],[-4,1],[-3,0],[-1,1],[-1,2],[-3,1],[-2,0],[-1,-1],[-1,-1],[-20,6],[-10,2],[-2,1],[-2,2],[-3,2],[-4,-1],[-3,-1],[-2,0],[-3,4],[2,7],[-4,9],[-37,45],[-2,5],[-3,9],[-5,7],[-14,35],[-1,10],[-2,7],[-2,4],[5,5],[2,4],[-1,3],[-7,9],[-5,3],[3,4],[6,5],[4,6],[3,6],[6,-2],[4,4],[2,5],[8,6],[-3,7],[-5,7],[-4,3],[2,2],[1,1],[2,0],[0,2],[-5,0],[0,3],[4,1],[3,2],[3,7],[2,0],[5,-4],[7,3],[8,4],[5,-1],[3,0],[-1,5],[1,3],[2,1],[2,1],[4,6],[1,0],[4,-1],[11,12],[0,3],[-2,2],[-5,3],[-15,-15],[0,2],[0,1],[-1,0],[-1,0],[0,2],[4,5],[2,2],[4,1],[-3,2],[-1,-1],[-1,0],[-1,-1],[1,3],[0,1],[5,1],[0,2],[-3,0],[0,3],[6,5],[1,12],[-2,25],[-5,6],[-12,5],[-12,2],[-6,-3],[-2,0],[-10,8],[-3,3],[2,-1],[2,1],[1,2],[-2,3],[-3,1],[-7,-1],[-3,0],[-11,4],[-8,5],[-9,4],[-14,2],[0,2],[8,3],[16,6],[8,1],[-1,3],[-1,1],[-2,1],[-3,0],[0,3],[18,1],[4,-1],[2,-3],[0,-3],[-1,-3],[1,-1],[1,-1],[5,-4],[2,0],[3,3],[0,2],[-4,4],[4,3],[7,1],[8,-1],[2,-1],[3,-3],[3,-1],[3,1],[1,2],[-1,3],[-1,2],[0,3],[5,2],[2,4],[-2,4],[-3,5],[-2,2],[-6,2],[-3,2],[-3,3],[0,1],[2,0],[2,2],[6,5],[3,-1],[4,-4],[7,0],[4,4],[-1,6],[-4,5],[-4,3],[-3,1],[-18,8],[-8,1],[-5,3],[-3,6],[-3,13],[-3,5],[716,0],[3,-13],[8,-19],[11,-17],[3,-9],[9,-14],[3,-3],[6,-4],[3,-7],[3,-8],[6,1],[-1,4],[5,1],[8,-1],[6,-4],[7,-8],[10,-17],[6,-18],[-1,-12],[-5,7],[-10,23],[7,-29],[-1,-12],[-10,-9],[5,1],[4,3],[3,3],[5,3],[-2,-2],[0,-2],[1,-3],[1,-3],[2,5],[1,8],[2,5],[18,-49],[22,-52],[26,-43],[69,-90],[6,-5],[23,-28],[15,-14],[8,5],[4,-2],[9,-2],[2,-3],[0,-7],[2,-5],[2,-5],[5,-5],[17,-25],[5,-4],[21,-28],[16,-15],[9,3],[3,-6],[2,-15],[3,-7],[6,-4],[24,-8],[9,-1],[8,0],[8,-1],[7,-3],[9,-14],[7,-4],[4,-3],[35,-27],[22,-22],[13,-7],[10,6],[-1,-6],[-2,-5],[-9,-17],[-1,-4],[1,-5],[3,-4],[4,-2],[3,-3],[0,-4],[-5,-4],[-9,1],[-1,-5],[-2,-2],[0,-2],[2,-1],[2,1],[4,-3],[3,-4],[2,-5],[1,-5],[2,-3],[13,-8],[3,0],[2,4],[5,1],[2,1],[-4,7],[4,-2],[2,-4],[1,-4],[3,-3],[4,-1],[2,1],[2,4],[-1,6],[3,0],[0,-5],[3,-2],[3,-1],[1,2],[0,4],[1,3],[1,1],[3,-2],[0,1],[0,1],[1,1],[2,0],[0,-4],[1,-2],[2,-3],[2,-2],[2,0],[0,3],[3,0],[-1,-6],[0,-10],[-2,-4],[-11,7],[-6,2],[-9,1],[-4,-3],[-1,-7],[1,-6],[2,-4],[0,-3],[-2,1],[-5,2],[2,-6],[9,-4],[2,-4],[-3,-24],[-1,0],[-2,1],[-1,0],[-1,1],[6,-6],[9,-4],[9,-1],[6,4],[13,-4],[5,-3],[0,-3],[5,-8],[2,-2],[1,-2],[0,-2],[2,-1],[1,-1],[4,1],[7,-1],[17,6],[9,1],[4,-2],[4,-3],[6,-1],[5,1],[5,3],[4,4],[-2,4],[5,2],[3,0],[5,-2],[1,-1],[3,-3],[4,-2],[2,3],[3,1],[22,-10],[6,3],[2,6],[-1,15],[-25,14],[-13,19],[-3,3],[-5,2],[-6,5],[-6,5],[-1,3],[5,0],[9,-2],[9,-1],[4,5],[-12,5],[-6,4],[3,4],[7,1],[7,-5],[8,-11],[9,-6],[1,-1],[0,-4],[-3,-1],[-4,1],[-3,1],[0,-2],[3,-4],[3,-3],[2,-5],[3,-1],[4,0],[9,-1],[5,-1],[10,-10],[5,-1],[6,-13],[1,-1],[5,-4],[22,-31],[15,-16],[7,-5],[2,-3],[4,-4],[5,-4],[3,-1],[3,-1],[7,-2],[4,0],[6,2],[19,-4],[5,2],[10,0],[8,-6],[20,-1],[14,3],[19,1],[14,1],[16,2],[16,3],[3,-2],[3,1],[3,2],[3,4],[29,9],[28,12],[6,2],[13,-1],[8,3],[4,4],[3,4],[8,10],[4,5],[3,2],[1,1],[2,3],[2,2],[3,1],[5,7],[9,4],[13,8],[5,2],[6,6],[21,10],[9,4],[17,7],[36,12],[42,3],[6,2],[12,7],[3,1],[13,2],[14,3],[12,5],[10,6],[13,15],[14,12],[10,9],[0,4],[8,12],[9,4],[2,-1],[1,-3],[0,-14],[0,-3],[2,-3],[4,-2],[3,0],[4,2],[3,6],[0,8],[2,3],[7,-4],[0,3],[-1,6],[-1,3],[1,-1],[1,-1],[3,2],[-5,6],[4,4],[4,-2],[7,1],[8,-4],[7,-11],[2,-4],[-1,8],[-2,5],[0,6],[3,6],[6,5],[11,4],[6,4],[0,1],[1,3],[1,1],[1,1],[3,4],[3,2],[6,3],[2,10],[2,9],[7,2],[3,3],[-2,2],[-4,-2],[-3,-1],[-2,3],[2,1],[2,2],[2,4],[5,2],[4,3],[3,4],[7,2],[6,-1],[7,2],[9,4],[7,-1],[2,-5],[2,-3],[0,-3],[-4,-2],[0,-2],[4,-2],[0,-1],[1,-3],[2,2],[1,0],[1,1],[1,3],[3,0],[2,-2],[3,-2],[7,-2],[0,3],[3,7],[2,-3],[2,-1],[3,0],[2,2],[14,-4],[21,-2],[23,-6],[12,-4],[16,-2],[7,3],[7,2],[8,0],[7,-1],[6,2],[7,2],[11,1],[13,2],[16,1],[5,-3],[0,-4],[-7,-4],[-4,1],[-4,-2],[-4,-1],[-11,-1],[-6,-1],[-4,-7],[1,-9],[2,-11],[6,-3],[6,2],[4,-2],[5,1],[4,1],[4,0],[4,-1],[5,0],[7,-2],[3,-1],[4,-3],[2,-2],[2,-3],[3,0],[5,1],[3,-1],[3,0],[5,0],[2,3],[4,1],[6,-1],[11,2],[3,3],[6,-1],[4,1],[1,0]],[[2387,3523],[47,19],[28,63],[41,-24],[-33,-25],[16,-25],[-32,5],[-42,-52],[67,27],[-2,-43],[70,-38],[25,9],[0,-112],[-89,92],[-53,22],[-34,-20],[-9,102]],[[0,394],[186,-91],[208,-303],[-394,0],[0,394]],[[2925,2768],[46,74],[-3,49],[29,1],[85,-83],[-1,-175],[-105,1],[-51,133]],[[3662,168],[24,82],[26,8],[39,-53],[-4,-51],[32,-9],[-37,-26],[-25,-88],[-29,13],[26,26],[-36,-18],[28,36],[-32,11],[-12,69]],[[3863,3311],[5,-9],[-67,-29],[18,59],[44,-21]],[[2145,3671],[42,-14],[0,-37],[-46,4],[-36,36],[40,11]],[[4021,247],[53,11],[10,37],[12,8],[0,-156],[-17,4],[-18,-29],[-33,34],[29,23],[-36,68]],[[3761,3432],[8,33],[54,11],[-9,18],[138,-42],[-130,-95],[-44,22],[24,50],[-41,3]],[[4079,434],[17,6],[0,-11],[-17,5]],[[4096,379],[-3,2],[3,11],[0,-13]],[[2572,3470],[26,9],[39,-60],[37,-4],[8,-44],[38,20],[5,-78],[-57,-1],[69,-23],[9,-30],[44,5],[-15,-39],[-79,35],[-27,-20],[-29,22],[3,30],[-71,35],[0,143]]]}