{"objects":{"water":{"type":"GeometryCollection","geometries":[{"type":"MultiPolygon","properties":{"sort_rank":200,"source":"naturalearthdata.com","min_zoom":0.0,"kind":"lake","area":499893905},"arcs":[[[77]]]},{"type":"MultiLineString","properties":{"source":"naturalearthdata.com","kind":"lake","sort_rank":367,"boundary":true,"min_zoom":0.0,"id":1024},"arcs":[[78],[79]]}]},"buildings":{"type":"GeometryCollection","geometries":[]},"places":{"type":"GeometryCollection","geometries":[{"type":"Point","properties":{"name:pt":"Cheliabinsk","name:ka":"\u10e9\u10d4\u10da\u10d8\u10d0\u10d1\u10d8\u10dc\u10e1\u10d9\u10d8","name:ko":"\uccbc\ub7b4\ube48\uc2a4\ud06c","name:cv":"\u0427\u0435\u043b\u0435\u043f\u0438","name:cu":"\u0427\u0454\u043b\u0463\u0431\u0438\u043d\u044c\u0441\u043a\u044a","name:kl":"Tjeljabinsk","name:cs":"\u010celjabinsk","name:tt":"\u0427\u0438\u043b\u04d9\u0431\u0435","min_zoom":8.0,"int_name":"Chelyabinsk","name:tl":"Chelyabinsk","name:be":"\u0427\u0430\u043b\u044f\u0431\u0456\u043d\u0441\u043a","name:pl":"Czelabi\u0144sk","name:ca":"Txeli\u00e0binsk","name:cy":"Chelyabinsk","name:da":"Tjeljabinsk","name:de":"Tscheljabinsk","source":"openstreetmap.org","name:kn":"\u0c9a\u0cc7\u0cb2\u0ccd\u0caf\u0cbe\u0cac\u0cbf\u0c82\u0cb8\u0ccd\u0c95\u0ccd","name:ba":"\u0421\u0438\u043b\u04d9\u0431\u0435","name:ro":"Celiabinsk","name:tr":"\u00c7elyabinsk","name:hi":"\u091a\u0947\u0932\u094d\u092f\u093e\u092c\u093f\u0902\u0938\u094d\u0915","name:kk":"\u0427\u0435\u043b\u044f\u0431\u0456","name:he":"\u05e6'\u05dc\u05d9\u05d0\u05d1\u05d9\u05e0\u05e1\u05e7","name:eo":"\u0108eljabinsk","name:ur":"\u0686\u06cc\u0644\u06cc\u0627\u0628\u0646\u0633\u06a9","name:la":"Celiabinsca","name:uk":"\u0427\u0435\u043b\u044f\u0431\u0456\u043d\u0441\u044c\u043a","name:hy":"\u0549\u0565\u056c\u0575\u0561\u0562\u056b\u0576\u057d\u056f","name:hu":"Cseljabinszk","name:hr":"\u010celjabinsk","population":1198858,"name:el":"\u03a4\u03c3\u03b5\u03bb\u03b9\u03ac\u03bc\u03c0\u03b9\u03bd\u03c3\u03ba","kind":"locality","name:en":"Chelyabinsk","name":"\u0427\u0435\u043b\u044f\u0431\u0438\u043d\u0441\u043a","name:eu":"Txeliabinsk","name:et":"T\u0161eljabinsk","name:nl":"Tsjeljabinsk","name:es":"Cheli\u00e1binsk","name:az":"\u00c7elyabinsk","name:id":"Chelyabinsk","name:mr":"\u091a\u0947\u0932\u093f\u092f\u093e\u092c\u093f\u0928\u094d\u0938\u094d\u0915","name:ar":"\u062a\u0634\u064a\u0644\u064a\u0627\u0628\u0646\u0633\u0643","name:it":"\u010celjabinsk","loc_name":"\u0422\u0430\u043d\u043a\u043e\u0433\u0440\u0430\u0434; \u0421\u0442\u043e\u043b\u0438\u0446\u0430 \u042e\u0436\u043d\u043e\u0433\u043e \u0423\u0440\u0430\u043b\u0430;","name:vi":"Chelyabinsk","name:uz":"Chelyabinsk","id":27504156,"name:af":"Tsjeljabinsk","name:lv":"\u010ce\u013cabinska","name:fa":"\u0686\u0644\u06cc\u0627\u0628\u06cc\u0646\u0633\u06a9","name:lt":"\u010celiabinskas","kind_detail":"city","name:sh":"\u010celjabinsk","name:fr":"Tcheliabinsk","name:vo":"Tsyelyabinsk","name:zh":"\u8eca\u91cc\u96c5\u8cd3\u65af\u514b","name:sl":"\u010celjabinsk","name:sk":"\u010ce\u013eabinsk","name:ja":"\u30c1\u30a7\u30ea\u30e3\u30d3\u30f3\u30b9\u30af","name:nn":"Tsjeljabinsk","name:no":"Tsjeljabinsk","name:br":"Tchelyabinsk","name:yi":"\u05d8\u05e9\u05e2\u05dc\u05d9\u05d0\u05d1\u05d9\u05e0\u05e1\u05e7","name:bn":"\u099a\u09c7\u09b2\u09bf\u09af\u09bc\u09be\u09ac\u09bf\u09a8\u09cd\u200c\u09b8\u09cd\u0995","name:sw":"Chelyabinsk","name:sv":"Tjeljabinsk","name:sr":"\u0427\u0435\u0459\u0430\u0431\u0438\u043d\u0441\u043a","name:ga":"Chelyabinsk","name:jv":"Chelyabinsk","name:gl":"Cheliabinsk","name:fi":"T\u0161eljabinsk"},"coordinates":[2720,934]},{"type":"Point","properties":{"kind":"locality","name:en":"Kopeysk","name":"\u041a\u043e\u043f\u0435\u0439\u0441\u043a","kind_detail":"city","min_zoom":8.0,"name:de":"Kopeisk","source":"openstreetmap.org","name:fr":"Kope\u00efsk","int_name":"Kopeysk","name:uk":"\u041a\u043e\u043f\u0454\u0439\u0441\u044c\u043a","name:pl":"Kopiejsk","population":147573,"id":191870333,"name:ja":"\u30b3\u30da\u30a4\u30b9\u30af"},"coordinates":[3358,695]},{"type":"Point","properties":{"kind":"locality","name:en":"Ozyorsk","name":"\u041e\u0437\u0451\u0440\u0441\u043a","kind_detail":"town","min_zoom":8.0,"name:de":"Osjorsk","source":"openstreetmap.org","name:fr":"Oziorsk","name:et":"Ozjorsk","population":79518,"id":339257865,"name:ja":"\u30aa\u30b8\u30e7\u30eb\u30b9\u30af"},"coordinates":[688,4013]},{"type":"Point","properties":{"kind":"locality","name:en":"Kyshtym","name":"\u041a\u044b\u0448\u0442\u044b\u043c","kind_detail":"town","name:de":"Kyschtym","source":"openstreetmap.org","min_zoom":8.0,"int_name":"Kyshtym","population":37480,"id":288476845,"name:ja":"\u30af\u30a3\u30b7\u30c8\u30a5\u30a4\u30e0"},"coordinates":[240,3754]},{"type":"Point","properties":{"kind":"locality","name:en":"Argayash","name":"\u0410\u0440\u0433\u0430\u044f\u0448","kind_detail":"town","name:de":"Argajasch","source":"openstreetmap.org","min_zoom":8.0,"population":10284,"id":288472058,"name:ja":"\u30a2\u30eb\u30ac\u30e4\u30b7"},"coordinates":[1185,2630]},{"type":"Point","properties":{"kind":"locality","name":"\u0414\u043e\u043b\u0433\u043e\u0434\u0435\u0440\u0435\u0432\u0435\u043d\u0441\u043a\u043e\u0435","kind_detail":"town","source":"openstreetmap.org","min_zoom":8.0,"old_name":"\u0414\u043e\u043b\u0433\u043e\u0435","population":7700,"id":436436682,"name:ja":"\u30c9\u30eb\u30b4\u30c7\u30ec\u30f4\u30a7\u30f3\u30b9\u30b3\u30a8"},"coordinates":[2542,1890]},{"type":"Point","properties":{"kind":"locality","name:en":"Kunashak","name":"\u041a\u0443\u043d\u0430\u0448\u0430\u043a","kind_detail":"town","name:de":"Kunaschak","source":"openstreetmap.org","min_zoom":8.0,"population":6296,"id":364045431,"name:ja":"\u30af\u30ca\u30b7\u30e3\u30af"},"coordinates":[3152,3698]}]},"transit":{"type":"GeometryCollection","geometries":[{"type":"MultiLineString","properties":{"source":"openstreetmap.org","kind":"train","sort_rank":275,"ref":"\u0427\u0435\u043b\u044f\u0431\u0438\u043d\u0441\u043a \u2014 \u042e\u0436\u043d\u043e\u0443\u0440\u0430\u043b\u044c\u0441\u043a","min_zoom":6.0,"osm_relation":true},"arcs":[[0],[1],[2],[3],[4],[5],[6]]},{"type":"MultiLineString","properties":{"kind":"train","network":"\u0420\u0416\u0414","sort_rank":275,"source":"openstreetmap.org","min_zoom":6.0,"operator":"\u0424\u041f\u041a","ref":"331\/332 \u041d\u043e\u0432\u044b\u0439 \u0423\u0440\u0435\u043d\u0433\u043e\u0439 \u2014 \u0423\u0444\u0430","osm_relation":true},"arcs":[[7],[8],[9],[10],[11],[12],[13],[14],[15],[16],[17],[18],[19],[20],[21]]},{"type":"MultiLineString","properties":{"source":"openstreetmap.org","kind":"train","sort_rank":275,"ref":"\u0427\u0435\u043b\u044f\u0431\u0438\u043d\u0441\u043a \u2014 \u0422\u0440\u043e\u0438\u0446\u043a","min_zoom":6.0,"osm_relation":true},"arcs":[[22],[23],[24],[25],[26],[27]]},{"type":"MultiLineString","properties":{"source":"openstreetmap.org","kind":"train","name":"\u041c\u043e\u0441\u043a\u0432\u0430 \u2014 \u0410\u0441\u0442\u0430\u043d\u0430","sort_rank":275,"ref":"\u041c\u043e\u0441\u043a\u0432\u0430 \u2014 \u0410\u0441\u0442\u0430\u043d\u0430","min_zoom":6.0,"osm_relation":true},"arcs":[[28],[29],[30],[31]]},{"type":"MultiLineString","properties":{"kind":"train","name":"\u041f\u043e\u0435\u0437\u0434 \u2116399: \u0422\u043e\u043c\u0441\u043a \u2014 \u0410\u043d\u0430\u043f\u0430","sort_rank":275,"source":"openstreetmap.org","min_zoom":6.0,"operator":"\u0420\u0416\u0414","ref":"399","osm_relation":true},"arcs":[[32],[33]]},{"type":"MultiLineString","properties":{"kind":"train","network":"\u0420\u0416\u0414","sort_rank":275,"name:de":"373 Machatschkala<=>Tjumen","source":"openstreetmap.org","min_zoom":6.0,"operator":"\u0424\u041f\u041a","ref":"373","osm_relation":true,"name":"\u041f\u043e\u0435\u0437\u0434 373. \u041c\u0430\u0445\u0430\u0447\u043a\u0430\u043b\u0430 \u2014 \u0422\u044e\u043c\u0435\u043d\u044c"},"arcs":[[34],[35],[36],[37],[38],[39]]},{"type":"MultiLineString","properties":{"kind":"train","name":"113\/114 \u0427\u0435\u043b\u044f\u0431\u0438\u043d\u0441\u043a - \u041a\u0438\u0441\u043b\u043e\u0432\u043e\u0434\u0441\u043a","sort_rank":275,"source":"openstreetmap.org","min_zoom":6.0,"operator":"\u0420\u0416\u0414","ref":"113\/114","osm_relation":true},"arcs":[[40],[41],[42],[43],[44],[45],[46]]},{"type":"MultiLineString","properties":{"kind":"train","name":"\u0427\u0435\u043b\u044f\u0431\u0438\u043d\u0441\u043a - \u041a\u0430\u043c\u0435\u043d\u0441\u043a-\u0423\u0440\u0430\u043b\u044c\u0441\u043a\u0438\u0439","sort_rank":275,"source":"openstreetmap.org","min_zoom":6.0,"network":"regional","operator":"\u0421\u041f\u041a","ref":"6252, 6254","osm_relation":true,"description":"RZD"},"arcs":[[47],[48],[49],[50],[51],[52],[53]]},{"type":"MultiLineString","properties":{"source":"openstreetmap.org","kind":"train","sort_rank":275,"ref":"119\/120 \u0415\u043a\u0430\u0442\u0435\u0440\u0438\u043d\u0431\u0443\u0440\u0433 \u2014 \u041e\u0440\u0435\u043d\u0431\u0443\u0440\u0433","min_zoom":6.0,"osm_relation":true},"arcs":[[54],[55],[56],[57],[58],[59],[60],[61],[62],[63],[64],[65],[66]]},{"type":"MultiLineString","properties":{"source":"openstreetmap.org","kind":"train","sort_rank":275,"ref":"\u0427\u0435\u043b\u044f\u0431\u0438\u043d\u0441\u043a \u2014 \u041a\u0443\u0440\u0433\u0430\u043d","min_zoom":6.0,"osm_relation":true},"arcs":[[67],[68],[69],[70],[71],[72],[73],[74],[75],[76]]}]},"pois":{"type":"GeometryCollection","geometries":[{"type":"Point","properties":{"kind":"military","name:en":"Mayak production association","name":"\u041f\u041e \u00ab\u041c\u0430\u044f\u043a\u00bb","area":117295000,"min_zoom":8.0,"name:de":"Kerntechnische Anlage Majak","source":"openstreetmap.org","name:fr":"Complexe nucl\u00e9aire de Ma\u00efak","tier":3,"id":109744083},"coordinates":[920,3677]},{"type":"Point","properties":{"kind":"protected_area","name:en":"Kharlushevsky nature zakaznik","name":"\u0425\u0430\u0440\u043b\u0443\u0448\u0435\u0432\u0441\u043a\u0438\u0439 \u0437\u0430\u043a\u0430\u0437\u043d\u0438\u043a","area":580697000,"official_name":"\u0425\u0430\u0440\u043b\u0443\u0448\u0435\u0432\u0441\u043a\u0438\u0439 \u0433\u043e\u0441\u0443\u0434\u0430\u0440\u0441\u0442\u0432\u0435\u043d\u043d\u044b\u0439 \u043f\u0440\u0438\u0440\u043e\u0434\u043d\u044b\u0439 \u0431\u0438\u043e\u043b\u043e\u0433\u0438\u0447\u0435\u0441\u043a\u0438\u0439 \u0437\u0430\u043a\u0430\u0437\u043d\u0438\u043a \u0427\u0435\u043b\u044f\u0431\u0438\u043d\u0441\u043a\u043e\u0439 \u043e\u0431\u043b\u0430\u0441\u0442\u0438","source":"openstreetmap.org","min_zoom":7.0,"tier":2,"id":117016465},"coordinates":[1443,943]},{"type":"Point","properties":{"source":"openstreetmap.org","kind":"military","name":"255 \u043c\u0435\u0436\u0432\u0438\u0434\u043e\u0432\u043e\u0439 \u0432\u043e\u0435\u043d\u043d\u044b\u0439 \u043f\u043e\u043b\u0438\u0433\u043e\u043d \u0426\u0412\u041e","area":866229000,"tier":3,"min_zoom":8.0,"id":195059331},"coordinates":[428,532]},{"type":"Point","properties":{"kind":"protected_area","name:en":"Chelyabinsk city forest","tier":2,"name":"\u0427\u0435\u043b\u044f\u0431\u0438\u043d\u0441\u043a\u0438\u0439 \u0433\u043e\u0440\u043e\u0434\u0441\u043a\u043e\u0439 \u0431\u043e\u0440","area":37770300,"source":"openstreetmap.org","min_zoom":8.0,"operator":"\u041e\u0413\u0423 \"\u041e\u041e\u041f\u0422 \u0427\u0435\u043b\u044f\u0431\u0438\u043d\u0441\u043a\u043e\u0439 \u043e\u0431\u043b\u0430\u0441\u0442\u0438\"","id":323816517},"coordinates":[2563,854]}]},"boundaries":{"type":"GeometryCollection","geometries":[]},"roads":{"type":"GeometryCollection","geometries":[{"type":"LineString","properties":{"bus_network":"local","sort_rank":380,"kind_detail":"primary","kind":"major_road","source":"openstreetmap.org","min_zoom":8.0,"bus_shield_text":"12","landuse_kind":"urban_area"},"arcs":[80]},{"type":"MultiLineString","properties":{"kind":"major_road","network":"ru:national","sort_rank":380,"kind_detail":"primary","source":"openstreetmap.org","min_zoom":8.0,"landuse_kind":"urban_area","shield_text":"5","ref":"\u041c-5"},"arcs":[[81],[82],[83],[84]]},{"type":"LineString","properties":{"kind":"major_road","network":"ru:regional","sort_rank":380,"kind_detail":"primary","source":"openstreetmap.org","min_zoom":8.0,"landuse_kind":"urban_area","shield_text":"75\u041a","ref":"75\u041a-016"},"arcs":[85]},{"type":"LineString","properties":{"bus_network":"local","sort_rank":380,"landuse_kind":"urban_area","bus_shield_text":"1","kind":"major_road","source":"openstreetmap.org","min_zoom":8.0,"old_name":"\u0443\u043b. \u041b\u0435\u043d\u0438\u043d\u0430","kind_detail":"primary"},"arcs":[86]},{"type":"LineString","properties":{"bus_network":"local","sort_rank":380,"kind_detail":"primary","bus_shield_text":"6","kind":"major_road","source":"openstreetmap.org","min_zoom":8.0,"old_name":"\u0443\u043b. \u0422\u0443\u0440\u0438\u0441\u0442\u043e\u0432","landuse_kind":"urban_area"},"arcs":[87]},{"type":"LineString","properties":{"bus_network":null,"sort_rank":380,"kind_detail":"primary","kind":"major_road","source":"openstreetmap.org","min_zoom":8.0,"bus_shield_text":"3","landuse_kind":"urban_area"},"arcs":[88]},{"type":"MultiLineString","properties":{"kind":"major_road","network":"ru:regional","sort_rank":380,"kind_detail":"primary","source":"openstreetmap.org","min_zoom":8.0,"landuse_kind":"urban_area","shield_text":"75\u041a","ref":"75\u041a-211"},"arcs":[[89],[90],[91],[92]]},{"type":"MultiLineString","properties":{"bus_network":null,"sort_rank":380,"kind_detail":"primary","kind":"major_road","source":"openstreetmap.org","min_zoom":8.0,"bus_shield_text":"28","landuse_kind":"urban_area"},"arcs":[[93],[94],[95],[96],[97]]},{"type":"MultiLineString","properties":{"kind":"highway","network":"ru:national","sort_rank":383,"kind_detail":"motorway","source":"openstreetmap.org","min_zoom":8.0,"all_networks":["ru:national","e-road"],"shield_text":"5","ref":"\u041c-5","all_shield_texts":["5","30"]},"arcs":[[98],[99]]},{"type":"MultiLineString","properties":{"bus_network":"local","sort_rank":380,"kind_detail":"primary","old_name":"\u0443\u043b\u0438\u0446\u0430 \u0421\u043f\u0430\u0440\u0442\u0430\u043a\u0430","kind":"major_road","source":"openstreetmap.org","min_zoom":8.0,"bus_shield_text":"3","landuse_kind":"urban_area"},"arcs":[[100],[101]]},{"type":"LineString","properties":{"kind":"major_road","name:en":"Khudyakova Street","sort_rank":380,"kind_detail":"primary","source":"openstreetmap.org","min_zoom":8.0,"int_name":"ulitsa Khudyakova","id":184177114},"arcs":[102]},{"type":"LineString","properties":{"kind":"major_road","sort_rank":380,"landuse_kind":"urban_area","source":"openstreetmap.org","min_zoom":8.0,"kind_detail":"primary","ref":"\u041c-5","id":415695455},"arcs":[103]},{"type":"MultiLineString","properties":{"source":"openstreetmap.org","kind":"major_road","name:en":"Sverdlovsky prospekt","landuse_kind":"urban_area","sort_rank":380,"kind_detail":"primary","min_zoom":8.0},"arcs":[[104],[105]]},{"type":"LineString","properties":{"kind":"major_road","sort_rank":380,"kind_detail":"primary","source":"openstreetmap.org","min_zoom":8.0,"loc_name":"\u0422\u0440\u043e\u0438\u0446\u043a\u0438\u0439 \u0442\u0440\u0430\u043a\u0442","ref":"\u0410-310","id":415683148},"arcs":[106]},{"type":"MultiLineString","properties":{"kind":"major_road","name:en":"Sverdlovsky prospekt","sort_rank":380,"kind_detail":"primary","source":"openstreetmap.org","min_zoom":8.0,"int_name":"Sverdlovsky prospekt","landuse_kind":"urban_area"},"arcs":[[107],[108],[109],[110]]},{"type":"LineString","properties":{"bus_network":"local","sort_rank":380,"kind_detail":"primary","old_name":"\u0443\u043b\u0438\u0446\u0430 \u0421\u043f\u0430\u0440\u0442\u0430\u043a\u0430","kind":"major_road","source":"openstreetmap.org","min_zoom":8.0,"bus_shield_text":"1","landuse_kind":"urban_area"},"arcs":[111]},{"type":"MultiLineString","properties":{"kind":"major_road","network":"ru:national","sort_rank":380,"kind_detail":"primary","source":"openstreetmap.org","min_zoom":8.0,"shield_text":"254","ref":"\u0420-254"},"arcs":[[112],[113],[114],[115],[116]]},{"type":"LineString","properties":{"kind":"major_road","int_name":"ulitsa Khudyakova","sort_rank":380,"kind_detail":"primary","source":"openstreetmap.org","min_zoom":8.0,"name:en":"Khudyakova Street","landuse_kind":"urban_area"},"arcs":[117]},{"type":"LineString","properties":{"kind":"major_road","name:en":"Sverdlovsky prospekt","sort_rank":380,"kind_detail":"primary","bus_network":"local","source":"openstreetmap.org","min_zoom":8.0,"bus_shield_text":"12","landuse_kind":"urban_area","id":169097167},"arcs":[118]},{"type":"MultiLineString","properties":{"source":"openstreetmap.org","bus_network":null,"bus_shield_text":"5","sort_rank":380,"kind_detail":"primary","min_zoom":8.0,"kind":"major_road"},"arcs":[[119],[120]]},{"type":"LineString","properties":{"bus_network":null,"sort_rank":380,"kind_detail":"primary","kind":"major_road","source":"openstreetmap.org","min_zoom":8.0,"bus_shield_text":"2","landuse_kind":"urban_area","ref":"215"},"arcs":[121]},{"type":"MultiLineString","properties":{"bus_network":"local","sort_rank":380,"kind_detail":"primary","kind":"major_road","source":"openstreetmap.org","min_zoom":8.0,"bus_shield_text":"26","landuse_kind":"urban_area"},"arcs":[[122],[123]]},{"type":"LineString","properties":{"kind":"major_road","network":"ru:regional","sort_rank":380,"kind_detail":"primary","source":"openstreetmap.org","min_zoom":8.0,"shield_text":"75\u041a","ref":"75\u041a-277"},"arcs":[124]},{"type":"LineString","properties":{"source":"openstreetmap.org","kind":"major_road","old_name":"\u041d\u0435\u0432\u0441\u043a\u0430\u044f","sort_rank":380,"kind_detail":"primary","landuse_kind":"urban_area","min_zoom":8.0},"arcs":[125]},{"type":"LineString","properties":{"bus_network":"local","sort_rank":380,"kind_detail":"primary","old_name":"\u0443\u043b\u0438\u0446\u0430 \u0422\u0443\u0440\u0438\u0441\u0442\u043e\u0432","kind":"major_road","source":"openstreetmap.org","min_zoom":8.0,"bus_shield_text":"9","landuse_kind":"urban_area"},"arcs":[126]},{"type":"MultiLineString","properties":{"source":"openstreetmap.org","kind":"major_road","landuse_kind":"urban_area","sort_rank":380,"kind_detail":"primary","min_zoom":8.0},"arcs":[[127],[128],[129],[130],[131],[132],[133],[134],[135],[136],[137],[138],[139],[140],[141],[142],[143],[144],[145],[146],[147],[148],[149],[150],[151],[152],[153],[154],[155],[156],[157],[158],[159],[160],[161],[162],[163],[164],[165],[166],[167],[168],[169],[170],[171],[172],[173],[174],[175],[176],[177],[178],[179],[180],[181],[182],[183],[184],[185],[186],[187],[188],[189],[190],[191],[192],[193],[194],[195],[196],[197],[198],[199],[200],[201],[202],[203],[204],[205],[206],[207],[208],[209],[210],[211],[212],[213],[214],[215],[216],[217],[218],[219],[220],[221],[222],[223],[224],[225],[226],[227],[228],[229],[230],[231],[232],[233],[234],[235],[236],[237],[238],[239],[240],[241],[242],[243],[244],[245],[246],[247],[248],[249],[250],[251],[252],[253],[254],[255],[256],[257],[258],[259],[260],[261],[262],[263],[264],[265],[266],[267],[268],[269],[270],[271],[272],[273],[274],[275],[276],[277],[278],[279],[280],[281],[282],[283],[284],[285],[286],[287],[288],[289],[290],[291],[292],[293],[294],[295],[296],[297],[298],[299],[300],[301],[302],[303],[304],[305],[306],[307],[308],[309],[310],[311],[312],[313],[314],[315],[316],[317],[318],[319],[320],[321],[322],[323],[324],[325],[326],[327],[328],[329],[330],[331],[332]]},{"type":"LineString","properties":{"kind":"major_road","sort_rank":380,"kind_detail":"primary","bus_shield_text":"9","bus_network":"local","source":"openstreetmap.org","min_zoom":8.0,"old_name":"\u0443\u043b. \u0422\u0443\u0440\u0438\u0441\u0442\u043e\u0432","landuse_kind":"urban_area","id":192260891},"arcs":[333]},{"type":"MultiLineString","properties":{"kind":"major_road","network":"ru:regional","sort_rank":381,"kind_detail":"trunk","source":"openstreetmap.org","min_zoom":8.0,"shield_text":"75\u041a","ref":"75\u041a-138"},"arcs":[[334],[335],[336]]},{"type":"LineString","properties":{"source":"openstreetmap.org","kind":"major_road","landuse_kind":"urban_area","sort_rank":380,"kind_detail":"primary","ref":"214\u0410","min_zoom":8.0},"arcs":[337]},{"type":"LineString","properties":{"source":"openstreetmap.org","kind":"major_road","old_name":"\u0443\u043b. \u041b\u0435\u043d\u0438\u043d\u0430","sort_rank":380,"kind_detail":"primary","landuse_kind":"urban_area","min_zoom":8.0},"arcs":[338]},{"type":"MultiLineString","properties":{"bus_network":"local","sort_rank":380,"kind_detail":"primary","kind":"major_road","source":"openstreetmap.org","min_zoom":8.0,"bus_shield_text":null,"landuse_kind":"urban_area"},"arcs":[[339],[340],[341]]},{"type":"MultiLineString","properties":{"kind":"major_road","network":"ru:regional","sort_rank":380,"kind_detail":"primary","source":"openstreetmap.org","min_zoom":8.0,"shield_text":"75\u041a","ref":"75\u041a-016"},"arcs":[[342],[343]]},{"type":"MultiLineString","properties":{"source":"openstreetmap.org","kind":"major_road","int_name":"prospekt Pobedy","landuse_kind":"urban_area","sort_rank":380,"kind_detail":"primary","min_zoom":8.0},"arcs":[[344],[345],[346],[347],[348],[349],[350],[351]]},{"type":"MultiLineString","properties":{"kind":"major_road","network":"ru:national","sort_rank":380,"kind_detail":"primary","source":"openstreetmap.org","min_zoom":8.0,"landuse_kind":"urban_area","shield_text":"254","ref":"\u0420-254"},"arcs":[[352],[353]]},{"type":"MultiLineString","properties":{"kind":"major_road","network":"ru:regional","sort_rank":380,"kind_detail":"primary","source":"openstreetmap.org","min_zoom":8.0,"shield_text":"75\u041a","ref":"75\u041a-142"},"arcs":[[354],[355]]},{"type":"MultiLineString","properties":{"source":"openstreetmap.org","kind":"major_road","old_name":"\u0443\u043b\u0438\u0446\u0430 \u041b\u0435\u043d\u0438\u043d\u0430","sort_rank":380,"kind_detail":"primary","landuse_kind":"urban_area","min_zoom":8.0},"arcs":[[356],[357]]},{"type":"MultiLineString","properties":{"bus_network":"local","name:en":"Sverdlovsky prospekt","sort_rank":380,"kind_detail":"primary","kind":"major_road","source":"openstreetmap.org","min_zoom":8.0,"int_name":"Sverdlovsky prospekt","bus_shield_text":"12","landuse_kind":"urban_area"},"arcs":[[358],[359],[360],[361]]},{"type":"MultiLineString","properties":{"bus_network":"local","sort_rank":380,"kind_detail":"primary","kind":"major_road","source":"openstreetmap.org","min_zoom":8.0,"bus_shield_text":"5","landuse_kind":"urban_area"},"arcs":[[362],[363],[364],[365],[366],[367]]},{"type":"MultiLineString","properties":{"kind":"major_road","network":"ru:national","sort_rank":380,"kind_detail":"primary","source":"openstreetmap.org","min_zoom":8.0,"shield_text":"5","ref":"\u041c-5"},"arcs":[[368],[369],[370],[371],[372],[373],[374],[375]]},{"type":"MultiLineString","properties":{"kind":"major_road","network":"ru:national","sort_rank":381,"kind_detail":"trunk","source":"openstreetmap.org","min_zoom":8.0,"loc_name":"\u0422\u0440\u043e\u0438\u0446\u043a\u0438\u0439 \u0442\u0440\u0430\u043a\u0442","ref":"\u0410-310","shield_text":"310"},"arcs":[[376],[377]]},{"type":"LineString","properties":{"kind":"major_road","name:en":"prospekt Lenina","sort_rank":380,"landuse_kind":"urban_area","source":"openstreetmap.org","min_zoom":8.0,"int_name":"prospekt Lenina","old_name":"\u0443\u043b\u0438\u0446\u0430 \u0421\u043f\u0430\u0440\u0442\u0430\u043a\u0430","kind_detail":"primary"},"arcs":[378]},{"type":"MultiLineString","properties":{"sort_rank":380,"kind_detail":"primary","min_zoom":8.0,"kind":"major_road","source":"openstreetmap.org"},"arcs":[[379],[380],[381],[382],[383],[384],[385],[386],[387],[388],[389],[390],[391],[392],[393],[394],[395],[396],[397],[398],[399],[400],[401],[402],[403],[404]]},{"type":"MultiLineString","properties":{"kind":"major_road","network":"ru:regional","sort_rank":381,"kind_detail":"trunk","source":"openstreetmap.org","min_zoom":8.0,"landuse_kind":"park","shield_text":"75\u041a","ref":"75\u041a-205","id":32731560},"arcs":[[405],[406]]},{"type":"MultiLineString","properties":{"bus_network":"local","name:en":"prospekt Lenina","sort_rank":380,"kind_detail":"primary","bus_shield_text":"1","kind":"major_road","source":"openstreetmap.org","min_zoom":8.0,"int_name":"prospekt Lenina","old_name":"\u0443\u043b\u0438\u0446\u0430 \u0421\u043f\u0430\u0440\u0442\u0430\u043a\u0430","landuse_kind":"urban_area"},"arcs":[[407],[408]]},{"type":"MultiLineString","properties":{"kind":"major_road","network":"ru:national","sort_rank":380,"kind_detail":"primary","source":"openstreetmap.org","min_zoom":8.0,"loc_name":"\u0422\u0440\u043e\u0438\u0446\u043a\u0438\u0439 \u0442\u0440\u0430\u043a\u0442","ref":"\u0410-310","shield_text":"310"},"arcs":[[409],[410]]},{"type":"LineString","properties":{"kind":"major_road","network":"ru:regional","sort_rank":381,"kind_detail":"trunk","source":"openstreetmap.org","min_zoom":8.0,"shield_text":"75\u041a","ref":"75\u041a-211","id":25604952},"arcs":[411]},{"type":"MultiLineString","properties":{"bus_network":"local","sort_rank":380,"kind_detail":"primary","kind":"major_road","source":"openstreetmap.org","min_zoom":8.0,"bus_shield_text":"15","landuse_kind":"urban_area"},"arcs":[[412],[413],[414]]},{"type":"LineString","properties":{"kind":"major_road","sort_rank":380,"kind_detail":"primary","bus_network":null,"source":"openstreetmap.org","min_zoom":8.0,"bus_shield_text":"28","id":30836556},"arcs":[415]},{"type":"LineString","properties":{"kind":"major_road","int_name":"ulitsa Khudyakova","sort_rank":380,"kind_detail":"primary","source":"openstreetmap.org","min_zoom":8.0,"name:en":"Khudyakova Street","landuse_kind":"protected_area"},"arcs":[416]},{"type":"LineString","properties":{"kind":"major_road","name:en":"Engels street","sort_rank":380,"kind_detail":"primary","source":"openstreetmap.org","min_zoom":8.0,"int_name":"ulitsa Engelsa","landuse_kind":"urban_area"},"arcs":[417]},{"type":"LineString","properties":{"source":"openstreetmap.org","kind":"major_road","sort_rank":380,"kind_detail":"primary","ref":"214\u0410","min_zoom":8.0},"arcs":[418]},{"type":"LineString","properties":{"bus_network":"local","sort_rank":380,"kind_detail":"primary","kind":"major_road","source":"openstreetmap.org","min_zoom":8.0,"bus_shield_text":"6","landuse_kind":"urban_area"},"arcs":[419]},{"type":"MultiLineString","properties":{"source":"openstreetmap.org","kind":"major_road","landuse_kind":"residential","sort_rank":380,"kind_detail":"primary","min_zoom":8.0},"arcs":[[420],[421]]},{"type":"LineString","properties":{"source":"openstreetmap.org","kind":"major_road","landuse_kind":"park","sort_rank":380,"kind_detail":"primary","min_zoom":8.0,"id":408090754},"arcs":[422]},{"type":"LineString","properties":{"kind":"major_road","network":"ru:regional","sort_rank":380,"kind_detail":"primary","source":"openstreetmap.org","min_zoom":8.0,"landuse_kind":"urban_area","shield_text":"75\u041a","ref":"75\u041a-007","id":150901682},"arcs":[423]},{"type":"LineString","properties":{"kind":"major_road","int_name":"ulitsa Truda","sort_rank":380,"kind_detail":"primary","source":"openstreetmap.org","min_zoom":8.0,"name:en":"Truda Street","landuse_kind":"urban_area"},"arcs":[424]},{"type":"MultiLineString","properties":{"bus_network":"local","network":"ru:national","sort_rank":380,"kind_detail":"primary","kind":"major_road","source":"openstreetmap.org","min_zoom":8.0,"bus_shield_text":null,"shield_text":"254","landuse_kind":"urban_area","ref":"\u0420-254"},"arcs":[[425],[426]]},{"type":"MultiLineString","properties":{"kind":"major_road","network":"ru:national","sort_rank":381,"kind_detail":"trunk","source":"openstreetmap.org","min_zoom":8.0,"shield_text":"5","ref":"\u041c-5"},"arcs":[[427],[428],[429],[430],[431],[432],[433],[434],[435],[436],[437],[438],[439]]},{"type":"LineString","properties":{"source":"openstreetmap.org","kind":"major_road","landuse_kind":"protected_area","sort_rank":380,"kind_detail":"primary","min_zoom":8.0},"arcs":[440]},{"type":"MultiLineString","properties":{"kind":"major_road","network":"ru:national","sort_rank":380,"kind_detail":"primary","source":"openstreetmap.org","min_zoom":8.0,"landuse_kind":"urban_area","shield_text":"5"},"arcs":[[441],[442]]},{"type":"MultiLineString","properties":{"source":"openstreetmap.org","bus_network":"local","bus_shield_text":"5","sort_rank":380,"kind_detail":"primary","min_zoom":8.0,"kind":"major_road"},"arcs":[[443],[444],[445]]},{"type":"LineString","properties":{"bus_network":"local","name:en":"prospekt Lenina","sort_rank":380,"kind_detail":"primary","kind":"major_road","source":"openstreetmap.org","min_zoom":8.0,"int_name":"prospekt Lenina","bus_shield_text":"1","landuse_kind":"urban_area"},"arcs":[446]},{"type":"LineString","properties":{"kind":"major_road","network":"ru:regional","sort_rank":380,"kind_detail":"primary","source":"openstreetmap.org","min_zoom":8.0,"shield_text":"75\u041a","ref":"75\u041a-015"},"arcs":[447]},{"type":"MultiLineString","properties":{"kind":"major_road","network":"ru:national","sort_rank":381,"kind_detail":"trunk","source":"openstreetmap.org","min_zoom":8.0,"shield_text":"254","ref":"\u0420-254"},"arcs":[[448],[449],[450]]},{"type":"MultiLineString","properties":{"kind":"major_road","network":"ru:regional","sort_rank":380,"kind_detail":"primary","source":"openstreetmap.org","min_zoom":8.0,"shield_text":"75\u041a","ref":"75\u041a-211"},"arcs":[[451],[452],[453],[454],[455]]},{"type":"LineString","properties":{"bus_network":"local","name:en":"ulitsa Truda","sort_rank":380,"kind_detail":"primary","kind":"major_road","source":"openstreetmap.org","min_zoom":8.0,"int_name":"ulitsa Truda","bus_shield_text":"26","landuse_kind":"urban_area"},"arcs":[456]},{"type":"LineString","properties":{"source":"openstreetmap.org","kind":"major_road","int_name":"prospekt Pobedy","sort_rank":380,"kind_detail":"primary","min_zoom":8.0,"id":31302154},"arcs":[457]},{"type":"LineString","properties":{"bus_network":null,"sort_rank":380,"kind_detail":"primary","kind":"major_road","source":"openstreetmap.org","min_zoom":8.0,"bus_shield_text":"2","landuse_kind":"urban_area"},"arcs":[458]},{"type":"MultiLineString","properties":{"kind":"major_road","network":"ru:regional","sort_rank":381,"kind_detail":"trunk","source":"openstreetmap.org","min_zoom":8.0,"shield_text":"75\u041a","ref":"75\u041a-205"},"arcs":[[459],[460],[461],[462],[463],[464],[465],[466],[467]]},{"type":"MultiLineString","properties":{"source":"openstreetmap.org","kind":"major_road","network":"ru:regional","sort_rank":381,"kind_detail":"trunk","min_zoom":8.0,"shield_text":"75\u041a"},"arcs":[[468],[469],[470],[471]]},{"type":"LineString","properties":{"bus_network":null,"sort_rank":380,"kind_detail":"primary","kind":"major_road","source":"openstreetmap.org","min_zoom":8.0,"bus_shield_text":"5","ref":"214\u0410"},"arcs":[472]},{"type":"LineString","properties":{"kind":"major_road","network":"ru:national","sort_rank":380,"kind_detail":"primary","source":"openstreetmap.org","min_zoom":8.0,"shield_text":"310","ref":"\u0410-310","id":64080906},"arcs":[473]},{"type":"LineString","properties":{"source":"openstreetmap.org","bus_network":null,"bus_shield_text":"3","sort_rank":380,"kind_detail":"primary","min_zoom":8.0,"kind":"major_road"},"arcs":[474]},{"type":"LineString","properties":{"bus_network":null,"sort_rank":380,"kind_detail":"primary","kind":"major_road","source":"openstreetmap.org","min_zoom":8.0,"bus_shield_text":"21","landuse_kind":"urban_area"},"arcs":[475]},{"type":"LineString","properties":{"kind":"major_road","network":"ru:regional","short_name":"\u0427\u041a\u0410\u0414","sort_rank":381,"kind_detail":"trunk","source":"openstreetmap.org","min_zoom":8.0,"shield_text":"75\u041a","ref":"75\u041a-205"},"arcs":[476]},{"type":"LineString","properties":{"kind":"major_road","name:en":"ulitsa Truda","sort_rank":380,"kind_detail":"primary","source":"openstreetmap.org","min_zoom":8.0,"int_name":"ulitsa Truda","landuse_kind":"urban_area"},"arcs":[477]},{"type":"LineString","properties":{"bus_network":null,"network":"ru:national","sort_rank":380,"kind_detail":"primary","kind":"major_road","source":"openstreetmap.org","min_zoom":8.0,"bus_shield_text":"21","shield_text":"254","landuse_kind":"urban_area","ref":"\u0420-254"},"arcs":[478]},{"type":"LineString","properties":{"kind":"major_road","network":"e-road","sort_rank":381,"kind_detail":"trunk","source":"openstreetmap.org","min_zoom":8.0,"shield_text":"30","id":36945109},"arcs":[479]},{"type":"MultiLineString","properties":{"kind":"major_road","network":"ru:regional","sort_rank":380,"kind_detail":"primary","source":"openstreetmap.org","min_zoom":8.0,"shield_text":"75\u041a","ref":"75\u041a-007"},"arcs":[[480],[481],[482],[483],[484],[485],[486],[487]]},{"type":"MultiLineString","properties":{"kind":"major_road","name:en":"Kurchatov Street","sort_rank":380,"kind_detail":"primary","source":"openstreetmap.org","min_zoom":8.0,"int_name":"ulitsa Kurchatova","landuse_kind":"urban_area"},"arcs":[[488],[489],[490]]}]},"earth":{"type":"GeometryCollection","geometries":[{"type":"Polygon","properties":{"sort_rank":10,"source":"naturalearthdata.com","min_zoom":0.0,"kind":"earth","area":98022885885},"arcs":[[491]]}]},"landuse":{"type":"GeometryCollection","geometries":[{"type":"Polygon","properties":{"kind":"residential","name":"\u0418\u0448\u0430\u043b\u0438\u043d\u043e","area":12998700,"sort_rank":20,"source":"openstreetmap.org","min_zoom":8.0,"tier":2,"id":193630342},"arcs":[[492]]},{"type":"Polygon","properties":{"source":"openstreetmap.org","kind":"protected_area","area":580697024,"tier":2,"id":117016465,"min_zoom":6.0,"sort_rank":17},"arcs":[[493]]},{"type":"Polygon","properties":{"kind":"protected_area","area":37770300,"sort_rank":17,"operator":"\u041e\u0413\u0423 \"\u041e\u041e\u041f\u0422 \u0427\u0435\u043b\u044f\u0431\u0438\u043d\u0441\u043a\u043e\u0439 \u043e\u0431\u043b\u0430\u0441\u0442\u0438\"","source":"openstreetmap.org","min_zoom":8.0,"tier":2,"id":323816517},"arcs":[[494]]},{"type":"Polygon","properties":{"kind":"park","area":572081984,"sort_rank":24,"source":"openstreetmap.org","min_zoom":6.0,"tier":2,"id":-1618597,"osm_relation":true},"arcs":[[495],[496],[497],[498],[499],[500]]},{"type":"MultiPolygon","properties":{"source":"openstreetmap.org","kind":"military","tier":3,"area":1029586081,"sort_rank":45,"min_zoom":8.0},"arcs":[[[501]],[[502]]]},{"type":"MultiPolygon","properties":{"source":"naturalearthdata.com","kind":"urban_area","name":"","area":2101258008,"sort_rank":11,"min_zoom":4.0},"arcs":[[[503]],[[504]],[[505]],[[506]],[[507]]]},{"type":"Polygon","properties":{"kind":"park","protect_class":"16","area":554726016,"sort_rank":24,"source":"openstreetmap.org","min_zoom":6.0,"tier":2,"id":256825533},"arcs":[[508]]},{"type":"Polygon","properties":{"kind":"residential","name:en":"Poletayevo","name":"\u041f\u043e\u043b\u0435\u0442\u0430\u0435\u0432\u043e","area":13662000,"sort_rank":20,"name:fr":"Poleta\u00efevo","name:de":"Poletajewo","source":"openstreetmap.org","min_zoom":8.0,"int_name":"Poletayevo","tier":2,"id":74042270,"name:ja":"\u30dd\u30ec\u30bf\u30a8\u30f4\u30a9"},"arcs":[[509]]},{"type":"MultiPolygon","properties":{"source":"openstreetmap.org","kind":"aerodrome","tier":3,"area":36223464,"sort_rank":60,"min_zoom":8.0},"arcs":[[[510]],[[511]]]},{"type":"Polygon","properties":{"kind":"residential","name":"\u041a\u0443\u043b\u0443\u0435\u0432\u043e","area":15380300,"sort_rank":20,"source":"openstreetmap.org","min_zoom":8.0,"tier":2,"id":187629277},"arcs":[[512]]},{"type":"Polygon","properties":{"kind":"residential","name:en":"Pershino","name":"\u041f\u0435\u0440\u0448\u0438\u043d\u043e","area":10545000,"sort_rank":20,"source":"openstreetmap.org","min_zoom":8.0,"tier":2,"id":102836559},"arcs":[[513]]}]}},"type":"Topology","transform":{"translate":[60.46875,54.9776136707],"scale":[0.0003433228,0.0001950584]},"arcs":[[[2542,0],[26,72],[66,314]],[[2639,405],[-31,-101],[-40,-230],[-26,-74]],[[2684,553],[-43,-140]],[[2730,781],[-1,-85],[-84,-271]],[[2724,691],[0,-1]],[[2732,783],[16,20]],[[2765,849],[-17,-44]],[[53,4096],[4,-91],[89,-129],[33,-27],[20,-9],[8,-1],[6,0]],[[0,97],[156,2],[47,-28],[3,-2],[5,-1],[4,0],[4,0],[34,5],[4,1],[5,2],[98,52],[9,-1],[14,-8],[5,-2],[5,-1],[135,0],[97,-27],[12,-3],[7,-1],[95,-11],[11,-2],[43,-27]],[[891,35],[-76,-4],[-38,28],[-27,13],[-224,44],[-166,12],[-140,-60],[-17,3],[-36,25],[-12,4],[-155,3]],[[282,3825],[-18,14],[-56,0]],[[282,3825],[12,-23],[12,-22]],[[282,3825],[24,-45]],[[306,3780],[110,-179],[130,-101],[49,-142],[184,-224],[144,-246],[88,-99]],[[889,34],[39,6],[40,-35],[39,-5]],[[1011,0],[71,28],[160,83],[24,3],[9,3],[59,39],[99,-3],[55,13],[46,30],[96,-6],[9,1],[7,2],[90,99],[59,12]],[[2308,353],[-67,-19],[-78,-52],[-184,3],[-68,-29],[-23,1],[-95,48],[-3,2],[-5,1],[-5,0],[-5,-1],[-32,-11],[-4,-2],[-4,-3],[-91,-98],[-14,-2],[-88,5],[-8,0],[-14,-2],[-3,-1],[-4,-2],[-3,-2],[-3,-3],[-3,-3],[-5,-8],[-2,-2],[-10,-7],[-54,-13],[-69,5],[-19,0],[-6,0],[-4,-1],[-8,-3],[-4,-2],[-48,-35],[-9,-3],[-18,-1],[-4,-1],[-3,-2],[-228,-109],[-60,18]],[[1150,2644],[421,-461]],[[1571,2182],[143,-193],[454,-365]],[[2168,1623],[354,-464],[128,-37],[99,0],[49,-197],[-61,-135]],[[2304,351],[59,19],[128,179],[59,19],[182,215]],[[2734,786],[3,4]],[[1907,236],[69,48],[9,1],[40,-7],[7,0],[81,15],[8,-2],[12,-6],[15,-4],[8,-1],[7,1],[4,2],[27,13],[8,4],[39,34],[110,29],[9,4],[131,182],[59,19],[182,215]],[[1908,234],[86,-168],[3,-66]],[[2308,353],[-67,-19],[-81,-53],[-12,1],[-28,10],[-4,1],[-5,0],[-118,-9]],[[2734,786],[3,4]],[[2737,790],[11,13]],[[2765,849],[-17,-44]],[[2308,353],[-67,-19],[-81,-53],[-167,3]],[[2304,351],[60,20]],[[2542,0],[26,72],[66,314]],[[2633,386],[-25,-82],[-40,-230],[-26,-74]],[[4096,1234],[-278,-47],[-274,-99],[-273,-43],[-280,-159],[-143,12],[-43,26],[-67,-132],[-188,-224],[-60,-19],[-125,-173],[-207,-95],[-179,4],[-84,-29],[-120,51],[-129,-114],[-311,-36],[-330,-157]],[[999,0],[-73,41],[-107,-11],[-74,43],[-385,55],[-140,-60],[-65,32],[-155,3]],[[0,103],[156,-4],[47,-28],[16,-3],[34,5],[4,1],[5,2],[98,52],[385,-55],[71,-43],[22,-1],[21,-2],[5,1],[48,12],[16,0],[15,-8],[15,-20],[8,-6],[28,-6]],[[1005,0],[270,117],[59,39],[99,-3],[55,13],[46,30],[96,-6],[16,3],[126,113],[69,-28]],[[1841,278],[-41,24],[-4,2],[-4,2],[-4,1],[-6,1],[-5,0],[-5,-2],[-29,-10],[-4,-2],[-4,-3],[-89,-98],[-16,-2],[-88,5],[-8,0],[-14,-2],[-3,-1],[-4,-2],[-3,-2],[-3,-3],[-3,-3],[-5,-8],[-2,-2],[-10,-7],[-54,-13],[-69,5],[-19,0],[-6,0],[-4,-1],[-8,-3],[-4,-2],[-48,-35],[-9,-3],[-18,-1],[-4,-1],[-3,-2],[-236,-110]],[[995,0],[-29,6],[-8,6],[-11,15],[-4,4],[-1,2],[-4,2],[-3,2],[-5,3],[-4,1],[-7,0],[-4,0],[-3,-1],[-50,-12],[-43,2],[-44,30],[-19,10],[-4,2],[-7,1],[-219,43],[-166,12],[-4,0],[-3,0],[-7,-3],[-86,-50],[-40,-7],[-17,3],[-36,25],[-3,1],[-4,2],[-5,1],[-155,3]],[[53,4096],[2,-88],[88,-128],[58,-40],[77,-7],[138,-232],[128,-98],[51,-145],[184,-224],[177,-292],[663,-712],[90,-136],[490,-395],[323,-440],[128,-37],[99,0],[49,-197],[-46,-114],[-202,-243],[-59,-19],[-128,-179],[-59,-19]],[[2308,353],[-67,-19],[-81,-53],[-181,4],[-72,-29],[-66,22]],[[2729,780],[1,1]],[[2730,781],[4,5]],[[2734,786],[3,4]],[[2730,781],[-1,-85],[-121,-390],[-41,-234],[-23,-72]],[[2765,849],[-28,-59]],[[2737,790],[-4,-4]],[[2734,786],[3,4]],[[2789,915],[-31,-88]],[[2793,919],[-7,-13]],[[2793,919],[73,-23]],[[2971,885],[-114,12]],[[2958,885],[25,-1]],[[3271,3088],[-35,-71],[0,-262],[74,-208],[7,-168],[-58,-139],[-35,-330],[-64,-91],[-25,-102],[23,-131],[13,-595],[-205,-106]],[[3462,4096],[-170,-894],[14,-52],[-35,-62]],[[2542,0],[26,72],[66,314]],[[2639,405],[-31,-101],[-40,-230],[-26,-74]],[[2684,553],[-43,-140]],[[2730,781],[-1,-85],[-84,-271]],[[2724,691],[0,-1]],[[2732,783],[16,20]],[[2789,915],[-41,-110]],[[2793,919],[-7,-13]],[[2793,919],[73,-23]],[[2971,885],[-114,12]],[[2958,885],[25,-1]],[[3271,3088],[-35,-71],[0,-262],[74,-208],[7,-168],[-58,-139],[-35,-330],[-64,-91],[-25,-102],[23,-131],[13,-595],[-205,-106]],[[3462,4096],[-170,-894],[14,-52],[-35,-62]],[[2789,915],[-31,-88]],[[2793,919],[-7,-13]],[[2793,919],[73,-23]],[[2971,885],[-114,12]],[[2958,885],[25,-1]],[[3073,927],[-107,-42]],[[3096,938],[-23,-11]],[[3140,961],[-44,-23]],[[3298,1045],[-35,-3],[-107,-73]],[[3297,1045],[14,1],[60,15],[179,29],[272,98],[274,45]],[[0,2608],[0,495],[59,-94],[156,-154],[54,-95],[-51,-66],[-184,-89],[-34,3]],[[59,3009],[156,-154],[54,-95],[-51,-66],[-184,-89],[-34,3]],[[0,3103],[59,-94]],[[2677,1010],[-4,90]],[[2537,628],[-37,-54],[-27,-123]],[[2474,451],[27,123],[36,52]],[[2543,1586],[19,-131]],[[2563,1456],[-20,130]],[[102,3705],[52,139]],[[2749,927],[7,-79]],[[2867,988],[-5,-52]],[[676,3921],[38,0]],[[2158,1109],[25,-6]],[[2181,1105],[-15,7],[-8,-1]],[[2209,1086],[82,-51]],[[2229,1084],[-14,6]],[[2613,764],[1,0]],[[2617,766],[47,-42]],[[2670,714],[10,-192]],[[2680,518],[87,207]],[[2781,714],[-12,11]],[[1652,48],[-51,-21],[-62,-27]],[[1544,0],[109,47]],[[2802,941],[-9,-1]],[[2811,941],[51,-5]],[[2580,869],[18,1]],[[2537,626],[1,2]],[[2676,1010],[1,-8]],[[2678,970],[3,0]],[[2851,268],[-16,33]],[[2677,1002],[0,-15]],[[2681,980],[-3,0]],[[2682,892],[0,-11]],[[2683,881],[-1,12]],[[2763,939],[30,1]],[[3098,1311],[3,0]],[[3101,1311],[-3,1]],[[3101,1311],[140,24],[148,-52],[259,9]],[[3648,1292],[28,8]],[[3676,1301],[-28,-9]],[[2598,870],[63,-4]],[[2677,1003]],[[808,4068],[9,10]],[[816,4079],[-4,-5]],[[749,3917],[13,51],[-22,36]],[[2435,1004],[39,27],[108,-1]],[[2591,991],[0,40]],[[98,0],[-98,48]],[[2655,1337],[19,28],[13,23],[1,3],[-36,-52]],[[2835,1222],[-13,-111]],[[145,3728],[-25,45]],[[130,3707],[15,21]],[[145,3728],[57,13]],[[202,3741],[3,2]],[[203,3744],[-1,-3]],[[205,3743],[3,1]],[[205,3743],[1,2]],[[206,3745],[-2,0],[0,-2],[1,0]],[[208,3744],[-2,1]],[[208,3744],[90,-4]],[[659,3905],[17,16]],[[714,3921],[29,7]],[[747,3928],[-4,0]],[[743,3928],[6,-7]],[[750,3928],[-3,0]],[[748,3933],[-1,-5]],[[749,3917]],[[832,4083],[60,-24]],[[2343,1017],[-114,67]],[[2291,1035],[52,-20]],[[2398,1050],[1,1]],[[2516,1031],[-81,-26]],[[2441,982],[6,5]],[[2447,987],[2,2]],[[2449,989],[8,6]],[[2442,981],[4,3]],[[2446,984],[8,6]],[[2454,990],[21,16],[35,1]],[[2510,1007],[28,2],[50,3]],[[2448,988],[-1,-1]],[[2447,987],[-1,-3]],[[2446,984],[-2,-6]],[[2447,987]],[[2526,1009],[-10,0],[-1,0]],[[2515,1009],[-5,-2]],[[2510,1007],[-56,-17]],[[2454,990],[-5,-1]],[[2449,989],[-1,-1]],[[2448,988]],[[2500,873],[-45,43]],[[2455,914],[31,-38],[14,-3]],[[2484,1031],[-1,0]],[[2511,1009],[4,0]],[[2515,1009],[11,0]],[[2526,1009],[7,0]],[[2516,1031],[0,-1]],[[2739,999],[-12,6],[-15,-1],[-14,4],[-22,3]],[[2676,1011],[-21,2],[-35,18],[-104,0]],[[2526,1009]],[[2526,1009]],[[2587,1013],[-61,-4]],[[2538,628],[36,43],[-37,-43]],[[2575,1420],[22,-64],[37,-77]],[[2654,1238],[-10,32],[-45,87],[-23,64]],[[2582,1030],[37,1],[36,-18],[84,-14]],[[2590,1028],[0,-37]],[[2629,990],[-39,2]],[[2615,770],[-3,0]],[[2807,1068],[-35,-2],[-11,0]],[[2761,1066]],[[2761,1066],[-7,-1],[-25,-4],[-54,-3],[-1,0]],[[2674,1058],[-43,-1],[-2,0]],[[2631,1056],[43,1]],[[2674,1057],[1,0],[20,2],[15,0],[19,2],[25,4],[7,0]],[[2761,1065]],[[2761,1065],[45,2],[1,1]],[[2637,1289],[11,32]],[[2651,1246],[2,-6]],[[2690,1245],[-34,-1]],[[2656,1243],[179,-21],[-77,19]],[[2673,856],[-12,10]],[[2672,1109],[1,-16],[1,-32],[0,-3]],[[2674,1058],[0,-1]],[[2674,1057],[0,-4],[1,-7],[0,-12],[1,-17],[0,-6]],[[2676,1011],[0,-1]],[[2673,1100],[-1,21]],[[2682,881],[-9,-25]],[[2673,856],[-33,-42],[34,42]],[[2674,856],[-1,0]],[[2674,856],[9,25]],[[2718,822],[-44,34]],[[2690,535],[-6,-16]],[[2684,519],[-5,-12]],[[2680,517],[-1,-10]],[[2679,507],[0,-1],[0,-1]],[[2679,505],[73,-133]],[[2752,372],[9,-16],[1,-1]],[[2679,493],[0,11]],[[2763,356],[-1,0],[-10,16]],[[2752,372],[-73,121]],[[2679,504],[0,1]],[[2679,505],[3,10]],[[2683,520],[-2,0]],[[2769,803],[0,-7]],[[2769,796],[-1,-64],[-85,-212]],[[2684,518],[0,1]],[[2684,519],[-1,1]],[[2688,1391],[34,10]],[[2708,864],[42,-21]],[[2750,843],[2,0]],[[2750,844],[-41,21]],[[2758,1241],[-48,3]],[[2772,806],[-1,0]],[[2771,806],[-26,10],[-27,6]],[[2718,822],[27,-6],[26,-11]],[[2771,805],[1,0]],[[2721,615],[-1,0]],[[2720,617],[1,0]],[[2991,1442],[-153,-67],[-25,-3],[-50,66],[-41,-37]],[[2722,1401],[42,-60]],[[2739,999],[6,-10]],[[2745,989],[3,-6],[3,-5],[7,-3],[37,2]],[[2795,977]],[[2795,977],[30,-2],[12,-1]],[[2739,999],[3,-4]],[[2742,995],[3,-4]],[[2745,991]],[[2837,974],[-23,3],[-19,0]],[[2795,977]],[[2795,977],[-37,-1],[-9,7],[-4,7]],[[2745,990],[-3,5]],[[2742,995],[-3,4]],[[2744,978],[1,11]],[[2745,989],[0,1]],[[2745,990],[0,1]],[[2745,991],[0,6],[-6,2]],[[2743,685],[-1,1]],[[2750,844],[0,-1]],[[2750,843],[-7,-19]],[[2746,827],[6,16]],[[2753,850],[-3,-6]],[[2752,843],[-2,1]],[[2752,843],[1,7]],[[2752,845],[4,3]],[[2758,854],[-5,-4]],[[2763,1338],[-5,-97]],[[2758,1241],[0,-1]],[[2760,1107],[-2,-3],[2,-37],[1,-1]],[[2761,1066],[0,-1]],[[2761,1065],[0,-1],[34,-86],[0,-1]],[[2795,977]],[[2795,977],[0,-1],[-1,-14],[1,-10],[2,-14],[41,-31]],[[2839,902],[2,4],[-1,1]],[[2840,907],[-2,3]],[[2838,910],[-9,16],[-32,12],[-2,14],[0,24],[0,1]],[[2795,977]],[[2795,977],[0,1],[-33,86],[-1,1]],[[2761,1065],[0,1]],[[2761,1066],[0,1],[-1,32]],[[2760,1099],[0,8]],[[2771,1105],[-11,2]],[[2760,1099]],[[2760,1099],[11,6]],[[2821,891],[-29,-11],[-6,-22],[-15,-52]],[[2771,806],[0,-1]],[[2771,805],[-2,-9]],[[2769,796],[-2,-6]],[[2767,725],[20,135],[37,30]],[[2771,1105],[52,2]],[[2775,823],[-3,-7]],[[2813,711],[-32,3]],[[2801,947],[10,0]],[[2811,947],[-10,1]],[[2807,1068],[97,36]],[[2811,941],[0,6]],[[2819,940],[8,-2],[16,-2],[1,0]],[[2844,936]],[[2819,711],[90,-24],[37,83]],[[2819,711],[-3,4],[-4,-3],[1,-1]],[[2813,711],[6,0]],[[2837,974],[29,-3]],[[2837,896],[2,6]],[[2856,860],[-19,31]],[[2856,860],[-18,30]],[[2844,938],[0,-2]],[[2844,936],[-6,-26]],[[2838,910],[0,-3]],[[2838,907],[-3,-23],[45,-58],[64,-54]],[[2839,902],[1,5]],[[2840,907],[5,31]],[[2945,775],[-89,85]],[[2906,1104],[-2,0]],[[2904,1104],[2,-1]],[[2944,772],[-30,-67]],[[2914,705],[-7,-17]],[[2913,705],[1,0]],[[2914,705],[1,0]],[[2920,719],[-2,1]],[[2933,756],[-1,1]],[[2939,763],[0,1]],[[2948,770],[1,4],[-4,1],[-1,-4],[4,-1]],[[2948,770],[196,-41]],[[3145,730],[-196,43]],[[2991,1442],[4,1]],[[2995,1445],[-4,-3]],[[2995,1442],[0,3]],[[3000,1437],[-3,6]],[[3087,1323],[-2,9]],[[3304,717],[100,22]],[[3404,739],[15,7]],[[3405,745],[-1,-6]],[[3419,746],[-11,1]],[[3412,745],[1,1]],[[3532,892],[-53,-136],[-60,-10]],[[2481,1082],[3,-1],[2,4],[-4,1],[-1,-4]],[[3408,747],[-2,-1],[0,-3],[3,1],[-1,3]],[[2822,1111],[1,-4]],[[3172,1843],[-205,111],[-51,73],[-246,-61],[-70,66]],[[3293,1753],[-118,88]],[[3668,1338],[-128,174],[-87,63],[-77,12],[-38,114],[-42,48]],[[747,4019],[-7,-15]],[[2745,951],[1,-13]],[[2867,988],[34,104]],[[2917,1127],[-11,-24]],[[2995,1445],[88,-118]],[[94,3672],[8,33]],[[154,3844],[45,40],[90,170],[93,42]],[[2481,1085],[-27,-13]],[[2454,1072],[-56,-27]],[[2399,1051],[55,21]],[[2454,1072],[27,10]],[[2629,1057],[-5,4]],[[2624,1061],[-34,22],[-104,2]],[[2486,1082],[104,0],[34,-21]],[[2624,1061],[7,-5]],[[3063,1323],[35,-12]],[[3098,1312],[-22,13]],[[4081,1570],[-9,-53]],[[4096,1601],[-15,-31]],[[2745,991],[0,-40]],[[2746,938],[3,-11]],[[2677,1003],[0,7]],[[2678,990],[-1,13]],[[2677,987],[5,-95]],[[2682,893],[-1,87]],[[2587,691],[-13,-20]],[[2591,700],[-4,-9]],[[2604,735],[-13,-35]],[[2640,814],[-28,-44]],[[2613,763],[2,5]],[[2678,887],[-2,-2]],[[2036,140],[324,36],[48,66],[66,209]],[[2473,451],[-66,-210],[-47,-65],[-321,-35]],[[2435,1961],[0,-61],[7,-38]],[[2442,1862],[2,-12]],[[2444,1850],[0,-3],[78,-98],[21,-163]],[[2543,1586],[-20,164],[-34,53],[-45,47]],[[2444,1850],[-1,1],[-1,11]],[[2442,1862],[-6,38],[0,61]],[[2745,0],[107,82]],[[2842,69],[-94,-69]],[[2725,937],[28,2]],[[85,3556],[4,102],[41,49]],[[298,3740],[163,55]],[[659,3905],[-101,-84],[-108,-31]],[[820,4084],[-4,-5]],[[817,4078],[10,7]],[[827,4085],[-7,-1]],[[825,4084],[-5,0]],[[827,4085],[5,-2]],[[892,4059],[70,-1]],[[1377,4089],[15,7]],[[2343,1015],[18,-1],[37,36]],[[2375,1033],[-32,-16]],[[2439,981],[2,1]],[[2455,916],[-25,22]],[[2430,938],[-1,1],[13,42]],[[2444,978],[-14,-40]],[[2430,938],[-1,-3],[26,-21]],[[2612,770]],[[2762,355],[72,-54]],[[2835,301],[-3,12],[-7,9],[-62,34]],[[3144,729],[105,-8]],[[3249,721],[-84,11],[-20,-2]],[[3304,717],[-55,4]],[[3532,892],[60,142],[124,-37]],[[4072,1517],[-28,-28]],[[4081,1570]],[[1857,908],[-100,-109]],[[1911,1019],[-9,-41]],[[2677,935],[48,2]],[[2753,939],[10,0]],[[2834,301],[33,-152],[-25,-80]],[[2859,96],[9,52],[-17,120]],[[1933,1139],[-1,0]],[[2648,1321],[7,16]],[[2652,1339],[-18,-60],[38,-170]],[[2672,1121],[-3,44],[-15,73]],[[2611,764],[2,0]],[[2510,869],[70,0]],[[2659,901],[-3,73]],[[774,4053],[-27,-34]],[[2905,1102],[-4,-10]],[[2710,1244],[-20,1]],[[2764,1341],[-1,-3]],[[962,4058],[342,-2],[73,33]],[[254,3719],[2,17]],[[2676,975],[-47,15]],[[2934,1161],[-17,-34]],[[3076,1325],[-80,-52]],[[2016,136],[-19,-7],[-36,-19],[-242,-41],[-31,-7],[-36,-14]],[[1653,47],[66,22]],[[1724,69],[197,21],[95,46]],[[2175,4096],[77,-374],[3,-8]],[[2255,3714],[102,-301]],[[2357,3413],[4,-14],[98,-171],[51,-614],[80,-190],[18,-71]],[[2608,2353],[32,-129],[1,-7]],[[2641,2217],[5,-79],[-53,-97],[-143,-40]],[[2455,1994],[130,41],[14,11],[6,9],[42,83],[-4,70],[-2,9]],[[2641,2217],[-33,136]],[[2608,2353],[-17,72],[-81,189],[-51,626],[-96,156],[-6,17]],[[2357,3413],[-83,208],[-19,93]],[[2255,3714],[-79,382]],[[2500,873]],[[2562,1455],[13,-35]],[[2576,1421],[-13,35]],[[2609,758],[-5,-23]],[[2609,758],[4,5]],[[2612,770],[-3,-12]],[[2658,933],[19,2],[-19,-1]],[[85,3556],[-74,-221],[-11,-9]],[[3709,1317],[-33,-16]],[[3676,1300],[33,17]],[[3709,1317],[307,168],[80,-8]],[[1945,1130],[-12,9]],[[1945,1130],[7,-6],[108,-29],[98,14]],[[2158,1111],[-97,-15],[-116,34]],[[2215,1090],[-34,15]],[[2183,1103],[26,-17]],[[2590,991],[66,-17]],[[2398,1045],[-23,-12]],[[749,3921],[0,-4]],[[1757,799],[-44,-9],[-29,-42],[23,-114],[248,-360],[107,-207]],[[1902,978],[-45,-70]],[[2079,1678],[-90,-45],[-104,-207],[-1,-150],[50,-136],[-23,-121]],[[2406,1983],[-108,-129],[-215,-175]],[[2450,2001],[-39,-17],[44,10]],[[2600,2032],[-7,12]],[[3668,1338],[81,-174],[-36,-239],[99,-385],[-41,-191],[-102,-69],[-121,15],[-316,-54],[-268,-84],[-85,-53]],[[3175,1841],[-3,2]],[[3296,1749],[-3,4]],[[2083,1679],[-4,-1]],[[2871,97],[-29,-28]],[[2852,82],[19,15]],[[2879,104],[-8,-7]],[[812,4074],[-38,-21]],[[2852,82],[7,14]],[[774,4053],[34,15]],[[2906,1103],[11,24]],[[2062,67],[59,-67]],[[2656,974],[22,1]],[[2996,1273],[-79,-146]],[[1719,69],[5,0]],[[1203,2587],[-68,-24],[-275,4],[-85,42],[-187,19],[-100,50],[42,368],[-105,145],[-44,174],[-127,202],[0,152]],[[1203,2587],[4,1]],[[1204,2589],[-1,-2]],[[1207,2588],[-2,1]],[[2530,1929],[-171,5],[-344,83],[-113,104],[-238,105],[-174,115],[-283,247]],[[1205,2589]],[[1205,2589],[-1,1],[0,-1]],[[1204,2589],[1,0]],[[2659,901],[6,-5]],[[2665,896],[43,-32]],[[2709,865],[-44,31]],[[0,4096],[2171,0],[1925,0],[0,-4096],[-4096,0],[0,4096]],[[1516,2245],[34,15],[5,35],[115,-107],[-89,-12],[-65,69]],[[876,1164],[381,27],[14,-20],[-54,-30],[11,-27],[53,2],[4,25],[25,-16],[67,79],[75,29],[23,-15],[-36,-53],[20,-46],[-13,51],[67,34],[37,61],[295,-91],[-31,-25],[23,-21],[-27,-23],[26,-61],[78,-26],[-19,-63],[-123,-153],[-26,-6],[-20,35],[1,-37],[-63,-17],[-6,23],[-70,18],[-31,-85],[-63,-17],[-50,64],[-58,-126],[-121,-35],[-35,32],[16,110],[-87,54],[-38,-43],[-100,82],[-26,-26],[-50,20],[12,41],[47,22],[-2,57],[-30,-41],[-21,27],[-40,-28],[-27,22],[-8,216]],[[2460,952],[29,24],[100,4],[21,-90],[-32,-22],[34,1],[8,-80],[-66,-4],[21,-35],[37,21],[-12,-46],[-90,25],[-15,182],[-35,20]],[[876,1164],[381,27],[14,-20],[-54,-30],[11,-27],[53,2],[4,25],[25,-16],[67,79],[75,29],[23,-15],[-36,-53],[20,-46],[-13,51],[67,34],[37,61],[295,-91],[-31,-25],[23,-21],[-27,-23],[26,-61],[78,-26],[-19,-63],[-123,-153],[-26,-6],[-20,35],[1,-37],[-63,-17],[-6,23],[-70,18],[-31,-85],[-63,-17],[-50,64],[-58,-126],[-121,-35],[-35,32],[16,110],[-87,54],[-38,-43],[-100,82],[-26,-26],[-50,20],[12,41],[47,22],[-2,57],[-30,-41],[-21,27],[-40,-28],[-27,22],[-8,216]],[[1630,997],[39,-7],[9,93],[-16,2],[8,-30],[-40,-58]],[[1620,930],[0,-32],[33,5],[-8,38],[-25,-11]],[[1685,1103],[19,-15],[6,16],[-25,8],[0,-9]],[[1056,958],[22,0],[23,-41],[-8,65],[-35,2],[-2,-26]],[[1688,1120],[8,-2],[3,13],[-7,2],[-4,-13]],[[0,182],[0,451],[40,45],[155,74],[44,-3],[38,65],[66,-12],[83,64],[186,-88],[48,17],[24,51],[164,54],[149,-78],[-121,-615],[-756,17],[-37,-39],[-83,-3]],[[586,3538],[55,15],[67,-19],[41,115],[55,-10],[28,137],[41,21],[55,-15],[71,93],[38,0],[56,-119],[-94,-121],[24,-92],[-105,-4],[-28,22],[-266,-83],[-38,23],[0,37]],[[2359,1135],[-17,-127],[-85,-59],[-91,20],[-35,109],[18,-6],[15,63],[33,-57],[101,66],[61,-9]],[[419,3863],[-140,-142],[-251,-23],[6,117],[221,54],[0,57],[162,0],[2,-63]],[[870,4040],[-51,-196],[-46,-32],[-53,18],[-82,102],[-60,-6],[31,170],[82,0],[82,-113],[38,32],[25,81],[98,0],[-64,-56]],[[3523,565],[-97,0],[-115,-130],[-22,103],[-57,27],[54,132],[78,90],[192,120],[16,-157],[-49,-185]],[[2952,1818],[7,-96],[64,-28],[15,-46],[57,16],[61,87],[44,-47],[-104,-172],[-23,-84],[62,-85],[-109,-151],[-20,-77],[32,-171],[94,128],[55,25],[127,-67],[15,-86],[-108,-20],[-21,-94],[-33,0],[-32,-171],[-65,0],[-32,-114],[-141,67],[-21,47],[-97,-114],[-23,-80],[13,-125],[-116,-80],[-36,0],[0,171],[-162,0],[40,215],[46,63],[76,7],[-32,228],[-92,-123],[-38,9],[0,114],[-57,71],[-2,113],[59,215],[65,0],[0,228],[51,-11],[111,-103],[97,227],[0,114],[65,-57],[122,129],[7,43],[32,-30],[-53,-85]],[[894,4018],[11,38],[55,-2],[22,42],[395,0],[-4,-129],[-115,-82],[-364,133]],[[1800,296],[69,21],[9,28],[34,-8],[39,-62],[-26,-34],[-53,-9],[-72,64]],[[2346,1496],[12,19],[141,-70],[-27,-92],[-64,5],[-16,37],[-27,0],[-19,101]],[[2897,1697],[5,19],[133,-13],[91,-47],[-41,-29],[-137,40],[-7,-19],[9,26],[-53,23]],[[338,1287],[3,31],[44,2],[16,-22],[29,18],[6,-68],[24,-19],[-13,-27],[-61,-6],[-48,91]],[[2652,1329],[37,60],[50,-55],[25,7],[-17,-78],[-18,41],[-20,-61],[-19,2],[4,49],[-42,35]]]}