{"objects":{"water":{"type":"GeometryCollection","geometries":[]},"buildings":{"type":"GeometryCollection","geometries":[]},"places":{"type":"GeometryCollection","geometries":[{"type":"Point","properties":{"admin_level":"4","kind":"region","int_name":"Naypyidaw Union Territory","name":"Naypyitaw","kind_detail":"state","name:my":"\u1014\u1031\u1015\u103c\u100a\u103a\u1010\u1031\u102c\u103a \u1015\u103c\u100a\u103a\u1010\u1031\u102c\u1004\u103a\u1005\u102f\u1014\u101a\u103a\u1019\u103c\u1031","source":"openstreetmap.org","min_zoom":4.0,"name:zh":"\u5185\u6bd4\u90fd\u8054\u90a6\u533a","id":4344788110},"coordinates":[1867,3005]},{"type":"Point","properties":{"name:pt":"Nepied\u00f3","name:az":"Naypyida","name:ka":"\u10dc\u10d0\u10d8\u10e4\u10d8\u10d8\u10d3\u10dd","name:mr":"\u0928\u0947\u092a\u093f\u0921\u094b","name:ko":"\ub124\ud53c\ub3c4","name:cv":"\u041d\u0435\u0439\u043f\u044c\u0438\u0434\u043e","name:ar":"\u0646\u0627\u064a\u0628\u064a\u064a\u062f\u0648","name:cs":"Neipyijto","min_zoom":8.0,"int_name":"Nay Pyi Taw","name:vi":"N\u00e2y-pi-t\u00f4","name:os":"\u041d\u0435\u0439\u043f\u044c\u0438\u0434\u043e","name:ml":"\u0d28\u0d47\u0d2a\u0d4d\u0d2f\u0d3f\u0d21\u0d4b","name:pl":"Naypyidaw","name:ta":"\u0ba8\u0bc8\u0baa\u0bcd\u0baa\u0bbf\u0baf\u0bbf\u0ba4\u0bcb","id":315390382,"name:mk":"\u041d\u0435\u043f\u0458\u0438\u0434\u043e","name:vo":"Nepyido","name:fa":"\u0646\u0627\u06cc\u067e\u06cc\u062f\u0627\u0648","name:bg":"\u041d\u0430\u0439\u043f\u0438\u0434\u043e","alt_name:vi":"Ne-pi-\u0111\u00f4","kind_detail":"city","name:de":"Naypyidaw","name:oc":"Nay Pyi Taw","name:fr":"Naypyidaw","name:kn":"\u0ca8\u0cc7\u0caa\u0ccd\u0caf\u0cbf\u0ca6\u0cbe\u0cb5\u0ccd","name:be":"\u041d\u0430\u0439\u043f'\u0456\u0434\u0430","name:zh":"\u5948\u6bd4\u591a","admin_level":"2","name:lv":"Nepjido","name:ja":"\u30cd\u30d4\u30c9\u30fc","name:lt":"Neipidas","name:hi":"\u0928\u093e\u090f\u092a\u094d\u092f\u0940\u0921\u0949","name:he":"\u05e0\u05d9\u05d9\u05e4\u05d9\u05d3\u05d0\u05d5","name:ur":"\u0646\u06cc\u067e\u06cc\u062f\u0627\u0648","name:sk":"Nepjito","name:uk":"\u041d\u0430\u0439\u043f'\u0457\u0434\u043e","name:hy":"\u0546\u0561\u0575\u057a\u0575\u056b\u0564\u0561\u0578\u0582","country_capital":true,"name:sv":"Naypyidaw","name:ug":"\u0646\u0627\u067e\u064a\u0649\u062f\u0627\u06cb","name:hu":"Nepjida","name:hr":"Naypyidaw","name:sr":"\u041d\u0435\u0458\u043f\u0458\u0438\u0434\u043e","name:sq":"Nepxhidou","population":1160242,"name:el":"\u039d\u03ac\u03b9 \u03a0\u03b9 \u03a4\u03ac\u03bf\u03c5","kind":"locality","name:en":"Naypyidaw","name":"\u1014\u1031\u1015\u103c\u100a\u103a\u1010\u1031\u102c\u103a","name:ru":"\u041d\u0435\u0439\u043f\u044c\u0438\u0434\u043e","name:is":"Naypyidaw","name:th":"\u0e40\u0e19\u0e1b\u0e35\u0e14\u0e2d","source":"openstreetmap.org","name:fi":"Naypyidaw","name:eu":"Naypyidaw","name:nl":"Naypyidaw","name:es":"Naypyidaw"},"coordinates":[1484,1373]},{"type":"Point","properties":{"kind":"locality","name:en":"Pyinmana","name":"\u1015\u103b\u1009\u103a\u1038\u1019\u1014\u102c\u1038","name:ko":"\ud540\ub9c8\ub098","kind_detail":"town","name:my":"\u1015\u103b\u1009\u103a\u1038\u1019\u1014\u102c\u1038\u1019\u103c\u102d\u102f\u1037","min_zoom":8.0,"source":"openstreetmap.org","name:th":"\u0e1b\u0e22\u0e34\u0e19\u0e21\u0e30\u0e19\u0e32","name:uk":"\u041f'\u0457\u043d\u043c\u0430\u043d\u0430","name:ru":"\u041f\u044c\u0438\u043d\u043c\u0430\u043d\u0430","population":97409,"id":26576208,"name:cs":"Pjinmana","name:ja":"\u30d4\u30f3\u30de\u30ca"},"coordinates":[1701,1326]},{"type":"Point","properties":{"kind":"locality","name:en":"Yamethin","name":"\u101b\u1019\u100a\u103a\u1038\u101e\u1004\u103a\u1038","kind_detail":"town","source":"openstreetmap.org","min_zoom":8.0,"population":59867,"id":26576185,"name:ja":"\u30e4\u30e1\u30c6\u30a3\u30f3"},"coordinates":[1500,3473]}]},"transit":{"type":"GeometryCollection","geometries":[]},"pois":{"type":"GeometryCollection","geometries":[]},"boundaries":{"type":"GeometryCollection","geometries":[{"type":"LineString","properties":{"name:left:hi":"\u0936\u093e\u0928 \u0930\u093e\u091c\u094d\u092f","name:right:uk":"\u041c\u0430\u043d\u0434\u0430\u043b\u0430\u0439","int_name:left":"Shan State","name:left:sv":"Shanstaten","name:left:sr":"\u0428\u0430\u043d","name:right:lt":"Mandalajaus regionas","name:right:hi":"\u092e\u093e\u0923\u094d\u0921\u0932\u0947 \u092e\u0923\u094d\u0921\u0932","min_zoom":8.0,"name:left:lt":"\u0160an\u0173 valstija","name:left:it":"Stato Shan","sort_rank":256,"name:left:ca":"Estat Shan","int_name:right":"Mandalay Region","source":"openstreetmap.org","name:left:cs":"\u0160ansk\u00fd st\u00e1t","name:left":"\u101b\u103e\u1019\u103a\u1038\u1015\u103c\u100a\u103a\u1014\u101a\u103a Shan State","name:right:mk":"\u041c\u0430\u043d\u0434\u0430\u043b\u0435\u0458","name:right:et":"Mandalay piirkond","name:left:ko":"\uc0e8 \uc8fc","name:right:it":"Regione di Mandalay","name:right:vi":"V\u00f9ng Mandalay","name:left:ru":"\u0428\u0430\u043d","name:right:id":"Region Mandalay","name:right:en":"Mandalay","name:left:vi":"Shan","kind":"region","name":"\u101b\u103e\u1019\u103a\u1038\u1015\u103c\u100a\u103a\u1014\u101a\u103a Shan State - \u1019\u1014\u1039\u1010\u101c\u1031\u1038\u1010\u102d\u102f\u1004\u103a\u1038","name:left:fa":"\u0627\u06cc\u0627\u0644\u062a \u0634\u0627\u0646","name:left:fi":"Shan","name:left:zh":"\u63b8\u90a6","name:left:fr":"\u00c9tat shan","name:right:zh":"\u66fc\u5fb7\u52d2\u7701","name:right:no":"Mandalay","name:right:nl":"Mandalay","name:right:ja":"\u30de\u30f3\u30c0\u30ec\u30fc","name:right:fr":"R\u00e9gion de Mandalay","name:left:ur":"\u0631\u06cc\u0627\u0633\u062a \u0634\u0627\u0646","name:left:ja":"\u30b7\u30e3\u30f3","name:right:sv":"Mandalayregionen","name:left:uk":"\u0428\u0430\u043d","name:left:no":"Shan","name:left:nl":"Shan","name:right:fa":"\u0646\u0627\u062d\u06cc\u0647 \u0645\u0627\u0646\u062f\u0627\u0644\u06cc","id":-5996485,"name:right":"\u1019\u1014\u1039\u1010\u101c\u1031\u1038\u1010\u102d\u102f\u1004\u103a\u1038","name:left:en":"Shan State","name:right:ca":"Divisi\u00f3 de Mandalay","kind_detail":"4","name:left:mk":"\u0428\u0430\u043d","id:left":-5996485,"name:left:es":"Shan","name:right:fi":"Mandalay","id:right":-5996480,"name:left:eu":"Shan estatua","name:left:et":"\u0160ani osariik","name:right:pt":"Mandalay","name:left:ar":"\u0648\u0644\u0627\u064a\u0629 \u0634\u0627\u0646","name:left:pl":"Szan","name:left:id":"Negara Bagian Shan","name:right:ko":"\ub9cc\ub2ec\ub808\uc774 \uad00\uad6c","name:left:th":"\u0e23\u0e31\u0e10\u0e0a\u0e32\u0e19","name:right:th":"\u0e40\u0e02\u0e15\u0e21\u0e31\u0e13\u0e11\u0e30\u0e40\u0e25\u0e22\u0e4c","name:left:my":"\u101b\u103e\u1019\u103a\u1038\u1015\u103c\u100a\u103a\u1014\u101a\u103a","name:right:ru":"\u041c\u0430\u043d\u0434\u0430\u043b\u0430\u0439","name:right:pl":"Mandalaj","osm_relation":true,"name:left:pt":"Shan","name:right:de":"Mandalay-Region","name:right:ur":"\u0645\u0627\u0646\u062f\u0627\u0644\u06d2 \u0639\u0644\u0627\u0642\u06c1","name:left:de":"Shan-Staat"},"arcs":[0]},{"type":"LineString","properties":{"name:right:ja":"\u30ab\u30ec\u30f3","name:right:fr":"\u00c9tat Karen","name:left:hi":"\u0936\u093e\u0928 \u0930\u093e\u091c\u094d\u092f","name:right:uk":"\u041a\u0430\u0440\u0435\u043d","int_name:left":"Shan State","name:left:ja":"\u30b7\u30e3\u30f3","id:right":-5996478,"name:left:uk":"\u0428\u0430\u043d","name:right:hi":"\u0915\u092f\u093f\u0928 \u0930\u093e\u091c\u094d\u092f","name:left:nl":"Shan","name:left:lt":"\u0160an\u0173 valstija","id:left":-5996485,"id":-5996485,"name:right":"\u1000\u101b\u1004\u103a\u1015\u103c\u100a\u103a\u1014\u101a (Kayin)","name:left:it":"Stato Shan","name:left:en":"Shan State","sort_rank":256,"kind_detail":"4","name:left:ca":"Estat Shan","int_name:right":"Kayin State","source":"openstreetmap.org","name:left:ur":"\u0631\u06cc\u0627\u0633\u062a \u0634\u0627\u0646","name:left:es":"Shan","name:left:cs":"\u0160ansk\u00fd st\u00e1t","name:left":"\u101b\u103e\u1019\u103a\u1038\u1015\u103c\u100a\u103a\u1014\u101a\u103a Shan State","name:left:sv":"Shanstaten","name:left:ar":"\u0648\u0644\u0627\u064a\u0629 \u0634\u0627\u0646","name:left:mk":"\u0428\u0430\u043d","old_name:right":"Karen State;Karen","name:left:ko":"\uc0e8 \uc8fc","name:left:id":"Negara Bagian Shan","min_zoom":8.0,"name:right:ko":"\uce74\uc778 \uc8fc","name:right:kn":"\u0c95\u0cb0\u0cc6\u0ca8\u0ccd \u0cb0\u0cbe\u0c9c\u0ccd\u0caf","name:left:th":"\u0e23\u0e31\u0e10\u0e0a\u0e32\u0e19","name:right:pa":"\u0a15\u0a30\u0a47\u0a28 \u0a30\u0a3e\u0a1c","name:right:my":"\u1000\u101b\u1004\u103a\u1015\u103c\u100a\u103a\u1014\u101a\u103a","name:left:pl":"Szan","name:left:ru":"\u0428\u0430\u043d","name:left:sr":"\u0428\u0430\u043d","name:left:my":"\u101b\u103e\u1019\u103a\u1038\u1015\u103c\u100a\u103a\u1014\u101a\u103a","name:right:vi":"Kayin","name:right:en":"Kayin","osm_relation":true,"name:left:vi":"Shan","name:left:pt":"Shan","kind":"region","name":"\u101b\u103e\u1019\u103a\u1038\u1015\u103c\u100a\u103a\u1014\u101a\u103a Shan State - \u1000\u101b\u1004\u103a\u1015\u103c\u100a\u103a\u1014\u101a (Kayin)","name:left:no":"Shan","name:right:ru":"\u041a\u0430\u0440\u0435\u043d","name:left:fa":"\u0627\u06cc\u0627\u0644\u062a \u0634\u0627\u0646","name:left:de":"Shan-Staat","name:left:fi":"Shan","name:left:zh":"\u63b8\u90a6","name:left:fr":"\u00c9tat shan","name:left:eu":"Shan estatua","name:right:th":"\u0e23\u0e31\u0e10\u0e01\u0e30\u0e40\u0e2b\u0e23\u0e35\u0e48\u0e22\u0e07","name:right:zh":"\u514b\u502b\u90a6","name:left:et":"\u0160ani osariik"},"arcs":[1]},{"type":"MultiLineString","properties":{"name:right:hy":"\u053f\u0561\u0575\u0561","name:right:ja":"\u30ab\u30e4\u30fc","name:left:hi":"\u0936\u093e\u0928 \u0930\u093e\u091c\u094d\u092f","name:right:uk":"\u041a\u0430\u044f","int_name:left":"Shan State","name:left:ja":"\u30b7\u30e3\u30f3","id:right":-5996477,"name:left:uk":"\u0428\u0430\u043d","name:right:hi":"\u0915\u092f\u093e\u0939 \u0930\u093e\u091c\u094d\u092f","name:left:nl":"Shan","name:left:lt":"\u0160an\u0173 valstija","id:left":-5996485,"name:right:fa":"\u0627\u06cc\u0627\u0644\u062a \u06a9\u0627\u06cc","id":-5996485,"name:right":"\u1000\u101a\u102c\u1038\u1015\u103c\u100a\u103a\u1014\u101a\u103a\u200c (Kayah)","name:left:it":"Stato Shan","name:left:en":"Shan State","sort_rank":256,"kind_detail":"4","name:left:ca":"Estat Shan","int_name:right":"Kayah State","source":"openstreetmap.org","name:left:ur":"\u0631\u06cc\u0627\u0633\u062a \u0634\u0627\u0646","name:left:es":"Shan","name:left:cs":"\u0160ansk\u00fd st\u00e1t","name:left":"\u101b\u103e\u1019\u103a\u1038\u1015\u103c\u100a\u103a\u1014\u101a\u103a Shan State","name:right:mk":"\u041a\u0430\u0458\u0430","name:left:sv":"Shanstaten","name:left:ar":"\u0648\u0644\u0627\u064a\u0629 \u0634\u0627\u0646","name:left:mk":"\u0428\u0430\u043d","name:left:ko":"\uc0e8 \uc8fc","name:left:id":"Negara Bagian Shan","min_zoom":8.0,"name:right:ko":"\uce74\uc57c \uc8fc","name:right:kn":"\u0c95\u0cb0\u0cc6\u0ca8\u0cbf \u0cb0\u0cbe\u0c9c\u0ccd\u0caf","name:left:th":"\u0e23\u0e31\u0e10\u0e0a\u0e32\u0e19","name:right:pa":"\u0a15\u0a3e\u0a07\u0a06\u0a39 \u0a30\u0a3e\u0a1c","name:right:my":"\u1000\u101a\u102c\u1038\u1015\u103c\u100a\u103a\u1014\u101a\u103a\u200c","name:left:pl":"Szan","name:left:ru":"\u0428\u0430\u043d","name:left:my":"\u101b\u103e\u1019\u103a\u1038\u1015\u103c\u100a\u103a\u1014\u101a\u103a","name:left:sr":"\u0428\u0430\u043d","name:right:en":"Kayah","osm_relation":true,"name:left:vi":"Shan","name:left:pt":"Shan","kind":"region","name":"\u101b\u103e\u1019\u103a\u1038\u1015\u103c\u100a\u103a\u1014\u101a\u103a Shan State - \u1000\u101a\u102c\u1038\u1015\u103c\u100a\u103a\u1014\u101a\u103a\u200c (Kayah)","name:left:no":"Shan","name:right:de":"Kayah","name:right:ru":"\u041a\u0430\u044f","name:left:fa":"\u0627\u06cc\u0627\u0644\u062a \u0634\u0627\u0646","name:right:ur":"\u06a9\u0627\u06cc\u0627\u06c1","name:left:de":"Shan-Staat","name:left:fi":"Shan","name:left:zh":"\u63b8\u90a6","name:left:fr":"\u00c9tat shan","name:left:eu":"Shan estatua","name:right:th":"\u0e23\u0e31\u0e10\u0e01\u0e30\u0e22\u0e32","name:right:zh":"\u514b\u8036\u90a6","name:left:et":"\u0160ani osariik"},"arcs":[[2],[3]]},{"type":"LineString","properties":{"name:pt":"Shan","int_name":"Shan State","name:id":"Negara Bagian Shan","name:ko":"\uc0e8 \uc8fc","name:ar":"\u0648\u0644\u0627\u064a\u0629 \u0634\u0627\u0646","name:cs":"\u0160ansk\u00fd st\u00e1t","name:th":"\u0e23\u0e31\u0e10\u0e0a\u0e32\u0e19","name:it":"Stato Shan","name:ru":"\u0428\u0430\u043d","name:vi":"Shan","name:pl":"Szan","id":-5996485,"name:ca":"Estat Shan","name:fa":"\u0627\u06cc\u0627\u0644\u062a \u0634\u0627\u0646","sort_rank":256,"kind_detail":"4","name:no":"Shan","name:de":"Shan-Staat","source":"openstreetmap.org","name:fr":"\u00c9tat shan","name:mk":"\u0428\u0430\u043d","name:zh":"\u63b8\u90a6","name:nl":"Shan","name:ja":"\u30b7\u30e3\u30f3","name:lt":"\u0160an\u0173 valstija","name:hi":"\u0936\u093e\u0928 \u0930\u093e\u091c\u094d\u092f","name:my":"\u101b\u103e\u1019\u103a\u1038\u1015\u103c\u100a\u103a\u1014\u101a\u103a","name:ur":"\u0631\u06cc\u0627\u0633\u062a \u0634\u0627\u0646","name:uk":"\u0428\u0430\u043d","name:sv":"Shanstaten","name:sr":"\u0428\u0430\u043d","osm_relation":true,"kind":"region","name:en":"Shan State","name":"\u101b\u103e\u1019\u103a\u1038\u1015\u103c\u100a\u103a\u1014\u101a\u103a Shan State","min_zoom":8.0,"name:fi":"Shan","name:eu":"Shan estatua","name:et":"\u0160ani osariik","name:es":"Shan"},"arcs":[4]},{"type":"LineString","properties":{"name:right:ja":"\u30de\u30b0\u30a6\u30a7","name:left:hi":"\u092e\u093e\u0923\u094d\u0921\u0932\u0947 \u092e\u0923\u094d\u0921\u0932","int_name:left":"Mandalay Region","name:left:ja":"\u30de\u30f3\u30c0\u30ec\u30fc","id:right":-5996479,"name:left:uk":"\u041c\u0430\u043d\u0434\u0430\u043b\u0430\u0439","name:left:no":"Mandalay","name:left:nl":"Mandalay","name:left:lt":"Mandalajaus regionas","id:left":-5996480,"id":-5996480,"name:right":"\u1019\u1000\u103d\u1031\u1038\u1010\u102d\u102f\u1004\u103a\u1038\u1012\u1031\u101e\u1000\u103c\u102e\u1038","name:left:en":"Mandalay","sort_rank":256,"kind_detail":"4","name:left:ca":"Divisi\u00f3 de Mandalay","int_name:right":"Magway Region","source":"openstreetmap.org","name:left:ur":"\u0645\u0627\u0646\u062f\u0627\u0644\u06d2 \u0639\u0644\u0627\u0642\u06c1","name:left":"\u1019\u1014\u1039\u1010\u101c\u1031\u1038\u1010\u102d\u102f\u1004\u103a\u1038","name:left:sv":"Mandalayregionen","name:left:pl":"Mandalaj","name:left:ko":"\ub9cc\ub2ec\ub808\uc774 \uad00\uad6c","name:left:id":"Region Mandalay","name:left:th":"\u0e40\u0e02\u0e15\u0e21\u0e31\u0e13\u0e11\u0e30\u0e40\u0e25\u0e22\u0e4c","name:left:ru":"\u041c\u0430\u043d\u0434\u0430\u043b\u0430\u0439","min_zoom":8.0,"name:left:it":"Regione di Mandalay","name:right:en":"Magway","osm_relation":true,"name:left:vi":"V\u00f9ng Mandalay","name:left:pt":"Mandalay","kind":"region","name":"\u1019\u1014\u1039\u1010\u101c\u1031\u1038\u1010\u102d\u102f\u1004\u103a\u1038 - \u1019\u1000\u103d\u1031\u1038\u1010\u102d\u102f\u1004\u103a\u1038\u1012\u1031\u101e\u1000\u103c\u102e\u1038","name:left:fa":"\u0646\u0627\u062d\u06cc\u0647 \u0645\u0627\u0646\u062f\u0627\u0644\u06cc","name:right:de":"Magwe-Region","name:left:de":"Mandalay-Region","name:left:fi":"Mandalay","name:left:zh":"\u66fc\u5fb7\u52d2\u7701","name:left:fr":"R\u00e9gion de Mandalay","name:left:et":"Mandalay piirkond","name:left:mk":"\u041c\u0430\u043d\u0434\u0430\u043b\u0435\u0458"},"arcs":[5]},{"type":"LineString","properties":{"name:pt":"Mandalay","int_name":"Mandalay Region","name:id":"Region Mandalay","name:ko":"\ub9cc\ub2ec\ub808\uc774 \uad00\uad6c","name:th":"\u0e40\u0e02\u0e15\u0e21\u0e31\u0e13\u0e11\u0e30\u0e40\u0e25\u0e22\u0e4c","name:it":"Regione di Mandalay","name:ru":"\u041c\u0430\u043d\u0434\u0430\u043b\u0430\u0439","name:vi":"V\u00f9ng Mandalay","name:pl":"Mandalaj","id":-5996480,"name:mk":"\u041c\u0430\u043d\u0434\u0430\u043b\u0435\u0458","name:fa":"\u0646\u0627\u062d\u06cc\u0647 \u0645\u0627\u0646\u062f\u0627\u0644\u06cc","sort_rank":256,"kind_detail":"4","name:no":"Mandalay","name:de":"Mandalay-Region","source":"openstreetmap.org","name:fr":"R\u00e9gion de Mandalay","name:ca":"Divisi\u00f3 de Mandalay","name:zh":"\u66fc\u5fb7\u52d2\u7701","name:nl":"Mandalay","name:ja":"\u30de\u30f3\u30c0\u30ec\u30fc","name:lt":"Mandalajaus regionas","name:hi":"\u092e\u093e\u0923\u094d\u0921\u0932\u0947 \u092e\u0923\u094d\u0921\u0932","name:ur":"\u0645\u0627\u0646\u062f\u0627\u0644\u06d2 \u0639\u0644\u0627\u0642\u06c1","name:uk":"\u041c\u0430\u043d\u0434\u0430\u043b\u0430\u0439","name:sv":"Mandalayregionen","osm_relation":true,"kind":"region","name:en":"Mandalay","name":"\u1019\u1014\u1039\u1010\u101c\u1031\u1038\u1010\u102d\u102f\u1004\u103a\u1038","min_zoom":8.0,"name:fi":"Mandalay","name:et":"Mandalay piirkond"},"arcs":[6]},{"type":"LineString","properties":{"name:right:mk":"\u0411\u0430\u0433\u043e","int_name:right":"Bago Region","name:right:ja":"\u30d0\u30b4\u30fc","name:right:uk":"\u041f\u0435\u0433\u0443","int_name:left":"Magway Region","name:left:ja":"\u30de\u30b0\u30a6\u30a7","name:right:ko":"\ubc14\uace0 \uad00\uad6c","id:right":-5996474,"min_zoom":8.0,"name:right:th":"\u0e40\u0e02\u0e15\u0e1e\u0e30\u0e42\u0e04","id:left":-5996479,"name:right:ru":"\u041f\u0435\u0433\u0443","name:right:my":"\u1015\u1032\u1001\u1030\u1038\u1010\u102d\u102f\u1004\u103a\u1038","id":-5996479,"osm_relation":true,"name:right":"\u1015\u1032\u1001\u1030\u1038\u1010\u102d\u102f\u1004\u103a\u1038\u1012\u1031\u101e\u1000\u103c\u102e\u1038 (Bago)","kind":"region","name":"\u1019\u1000\u103d\u1031\u1038\u1010\u102d\u102f\u1004\u103a\u1038\u1012\u1031\u101e\u1000\u103c\u102e\u1038 - \u1015\u1032\u1001\u1030\u1038\u1010\u102d\u102f\u1004\u103a\u1038\u1012\u1031\u101e\u1000\u103c\u102e\u1038 (Bago)","source":"openstreetmap.org","sort_rank":256,"kind_detail":"4","name:left:de":"Magwe-Region","name:right:en":"Bago Region","name:left:en":"Magway","old_name:right":"Pegu;Pegu Division;Bago Division","name:right:zh":"\u52c3\u56fa\u7701","name:left":"\u1019\u1000\u103d\u1031\u1038\u1010\u102d\u102f\u1004\u103a\u1038\u1012\u1031\u101e\u1000\u103c\u102e\u1038"},"arcs":[7]},{"type":"LineString","properties":{"kind":"region","name:en":"Magway","name":"\u1019\u1000\u103d\u1031\u1038\u1010\u102d\u102f\u1004\u103a\u1038\u1012\u1031\u101e\u1000\u103c\u102e\u1038","sort_rank":256,"kind_detail":"4","name:de":"Magwe-Region","source":"openstreetmap.org","min_zoom":8.0,"int_name":"Magway Region","id":-5996479,"osm_relation":true,"name:ja":"\u30de\u30b0\u30a6\u30a7"},"arcs":[8]},{"type":"LineString","properties":{"name:right:hy":"\u053f\u0561\u0575\u0561","name:right:ja":"\u30ab\u30e4\u30fc","name:left:hi":"\u0915\u092f\u093f\u0928 \u0930\u093e\u091c\u094d\u092f","name:right:uk":"\u041a\u0430\u044f","int_name:left":"Kayin State","name:left:ja":"\u30ab\u30ec\u30f3","id:right":-5996477,"name:left:uk":"\u041a\u0430\u0440\u0435\u043d","name:right:hi":"\u0915\u092f\u093e\u0939 \u0930\u093e\u091c\u094d\u092f","min_zoom":8.0,"name:right:fa":"\u0627\u06cc\u0627\u0644\u062a \u06a9\u0627\u06cc","id":-5996478,"name:right":"\u1000\u101a\u102c\u1038\u1015\u103c\u100a\u103a\u1014\u101a\u103a\u200c (Kayah)","name:left:en":"Kayin","sort_rank":256,"kind_detail":"4","int_name:right":"Kayah State","source":"openstreetmap.org","id:left":-5996478,"name:left":"\u1000\u101b\u1004\u103a\u1015\u103c\u100a\u103a\u1014\u101a (Kayin)","name:right:mk":"\u041a\u0430\u0458\u0430","name:left:pa":"\u0a15\u0a30\u0a47\u0a28 \u0a30\u0a3e\u0a1c","name:left:ko":"\uce74\uc778 \uc8fc","name:left:kn":"\u0c95\u0cb0\u0cc6\u0ca8\u0ccd \u0cb0\u0cbe\u0c9c\u0ccd\u0caf","name:right:ko":"\uce74\uc57c \uc8fc","name:right:kn":"\u0c95\u0cb0\u0cc6\u0ca8\u0cbf \u0cb0\u0cbe\u0c9c\u0ccd\u0caf","name:left:th":"\u0e23\u0e31\u0e10\u0e01\u0e30\u0e40\u0e2b\u0e23\u0e35\u0e48\u0e22\u0e07","name:right:pa":"\u0a15\u0a3e\u0a07\u0a06\u0a39 \u0a30\u0a3e\u0a1c","name:right:my":"\u1000\u101a\u102c\u1038\u1015\u103c\u100a\u103a\u1014\u101a\u103a\u200c","name:right:th":"\u0e23\u0e31\u0e10\u0e01\u0e30\u0e22\u0e32","name:left:ru":"\u041a\u0430\u0440\u0435\u043d","name:left:my":"\u1000\u101b\u1004\u103a\u1015\u103c\u100a\u103a\u1014\u101a\u103a","name:right:ru":"\u041a\u0430\u044f","name:right:en":"Kayah","osm_relation":true,"name:left:vi":"Kayin","kind":"region","name":"\u1000\u101b\u1004\u103a\u1015\u103c\u100a\u103a\u1014\u101a (Kayin) - \u1000\u101a\u102c\u1038\u1015\u103c\u100a\u103a\u1014\u101a\u103a\u200c (Kayah)","name:right:ur":"\u06a9\u0627\u06cc\u0627\u06c1","name:right:de":"Kayah","name:left:zh":"\u514b\u502b\u90a6","name:left:fr":"\u00c9tat Karen","name:right:zh":"\u514b\u8036\u90a6","old_name:left":"Karen State;Karen"},"arcs":[9]},{"type":"LineString","properties":{"name:right:ja":"\u30d0\u30b4\u30fc","name:left:hi":"\u0915\u092f\u093f\u0928 \u0930\u093e\u091c\u094d\u092f","name:right:uk":"\u041f\u0435\u0433\u0443","int_name:left":"Kayin State","name:left:ja":"\u30ab\u30ec\u30f3","id:right":-5996474,"name:left:uk":"\u041a\u0430\u0440\u0435\u043d","min_zoom":8.0,"id":-5996478,"name:right":"\u1015\u1032\u1001\u1030\u1038\u1010\u102d\u102f\u1004\u103a\u1038\u1012\u1031\u101e\u1000\u103c\u102e\u1038 (Bago)","name:left:en":"Kayin","sort_rank":256,"kind_detail":"4","int_name:right":"Bago Region","source":"openstreetmap.org","id:left":-5996478,"name:left":"\u1000\u101b\u1004\u103a\u1015\u103c\u100a\u103a\u1014\u101a (Kayin)","name:right:mk":"\u0411\u0430\u0433\u043e","name:left:pa":"\u0a15\u0a30\u0a47\u0a28 \u0a30\u0a3e\u0a1c","old_name:right":"Pegu;Pegu Division;Bago Division","name:left:ko":"\uce74\uc778 \uc8fc","name:left:kn":"\u0c95\u0cb0\u0cc6\u0ca8\u0ccd \u0cb0\u0cbe\u0c9c\u0ccd\u0caf","name:right:ko":"\ubc14\uace0 \uad00\uad6c","name:right:ru":"\u041f\u0435\u0433\u0443","name:left:th":"\u0e23\u0e31\u0e10\u0e01\u0e30\u0e40\u0e2b\u0e23\u0e35\u0e48\u0e22\u0e07","name:right:my":"\u1015\u1032\u1001\u1030\u1038\u1010\u102d\u102f\u1004\u103a\u1038","name:right:th":"\u0e40\u0e02\u0e15\u0e1e\u0e30\u0e42\u0e04","name:left:ru":"\u041a\u0430\u0440\u0435\u043d","name:left:my":"\u1000\u101b\u1004\u103a\u1015\u103c\u100a\u103a\u1014\u101a\u103a","name:right:en":"Bago Region","osm_relation":true,"name:left:vi":"Kayin","kind":"region","name":"\u1000\u101b\u1004\u103a\u1015\u103c\u100a\u103a\u1014\u101a (Kayin) - \u1015\u1032\u1001\u1030\u1038\u1010\u102d\u102f\u1004\u103a\u1038\u1012\u1031\u101e\u1000\u103c\u102e\u1038 (Bago)","name:left:zh":"\u514b\u502b\u90a6","name:left:fr":"\u00c9tat Karen","name:right:zh":"\u52c3\u56fa\u7701","old_name:left":"Karen State;Karen"},"arcs":[10]},{"type":"LineString","properties":{"int_name":"Kayin State","name:ja":"\u30ab\u30ec\u30f3","name:hi":"\u0915\u092f\u093f\u0928 \u0930\u093e\u091c\u094d\u092f","name:ko":"\uce74\uc778 \uc8fc","name:kn":"\u0c95\u0cb0\u0cc6\u0ca8\u0ccd \u0cb0\u0cbe\u0c9c\u0ccd\u0caf","old_name":"Karen State;Karen","name:my":"\u1000\u101b\u1004\u103a\u1015\u103c\u100a\u103a\u1014\u101a\u103a","name:th":"\u0e23\u0e31\u0e10\u0e01\u0e30\u0e40\u0e2b\u0e23\u0e35\u0e48\u0e22\u0e07","name:uk":"\u041a\u0430\u0440\u0435\u043d","name:pa":"\u0a15\u0a30\u0a47\u0a28 \u0a30\u0a3e\u0a1c","name:ru":"\u041a\u0430\u0440\u0435\u043d","id":-5996478,"osm_relation":true,"name:vi":"Kayin","kind":"region","name:en":"Kayin","name":"\u1000\u101b\u1004\u103a\u1015\u103c\u100a\u103a\u1014\u101a (Kayin)","sort_rank":256,"kind_detail":"4","min_zoom":8.0,"source":"openstreetmap.org","name:fr":"\u00c9tat Karen","name:zh":"\u514b\u502b\u90a6"},"arcs":[11]},{"type":"LineString","properties":{"int_name":"Bago Region","name:ja":"\u30d0\u30b4\u30fc","name:ko":"\ubc14\uace0 \uad00\uad6c","name:my":"\u1015\u1032\u1001\u1030\u1038\u1010\u102d\u102f\u1004\u103a\u1038","name:th":"\u0e40\u0e02\u0e15\u0e1e\u0e30\u0e42\u0e04","name:uk":"\u041f\u0435\u0433\u0443","old_name":"Pegu;Pegu Division;Bago Division","name:ru":"\u041f\u0435\u0433\u0443","id":-5996474,"osm_relation":true,"kind":"region","name:en":"Bago Region","name":"\u1015\u1032\u1001\u1030\u1038\u1010\u102d\u102f\u1004\u103a\u1038\u1012\u1031\u101e\u1000\u103c\u102e\u1038 (Bago)","sort_rank":256,"kind_detail":"4","min_zoom":8.0,"source":"openstreetmap.org","name:mk":"\u0411\u0430\u0433\u043e","name:zh":"\u52c3\u56fa\u7701"},"arcs":[12]}]},"roads":{"type":"GeometryCollection","geometries":[{"type":"MultiLineString","properties":{"sort_rank":380,"kind_detail":"primary","min_zoom":8.0,"kind":"major_road","source":"openstreetmap.org"},"arcs":[[13],[14],[15],[16],[17],[18],[19],[20],[21],[22],[23],[24],[25],[26],[27],[28],[29],[30],[31],[32],[33]]},{"type":"MultiLineString","properties":{"sort_rank":381,"source":"openstreetmap.org","min_zoom":8.0,"kind":"major_road","kind_detail":"trunk"},"arcs":[[34],[35],[36],[37],[38],[39],[40]]},{"type":"LineString","properties":{"source":"openstreetmap.org","kind":"major_road","sort_rank":381,"kind_detail":"trunk","name:my":"\u1015\u103b\u1009\u103a\u1038\u1019\u1014\u102c\u1038 \u1010\u1031\u102c\u1004\u103a\u100a\u102d\u102f\u101c\u1019\u103a\u1038","min_zoom":8.0,"id":525958316},"arcs":[41]},{"type":"LineString","properties":{"kind":"highway","name:en":"Ygn - Mdy Freeway","network":"AsianHighway","sort_rank":383,"kind_detail":"motorway","source":"openstreetmap.org","min_zoom":8.0,"all_networks":["AsianHighway"],"shield_text":"1","id":200353888,"all_shield_texts":["1"]},"arcs":[42]},{"type":"MultiLineString","properties":{"source":"openstreetmap.org","kind":"highway","sort_rank":383,"kind_detail":"motorway","ref":"1","min_zoom":8.0},"arcs":[[43],[44]]},{"type":"MultiLineString","properties":{"kind":"highway","network":"AsianHighway","sort_rank":383,"kind_detail":"motorway","source":"openstreetmap.org","min_zoom":8.0,"all_networks":["AsianHighway"],"shield_text":"1","all_shield_texts":["1"]},"arcs":[[45],[46],[47],[48],[49],[50],[51],[52],[53]]},{"type":"MultiLineString","properties":{"sort_rank":355,"source":"openstreetmap.org","min_zoom":8.0,"kind":"ferry"},"arcs":[[54],[55],[56],[57],[58],[59]]},{"type":"LineString","properties":{"source":"openstreetmap.org","kind":"major_road","name:en":"Shwe Pyi Taw Winn Rd","sort_rank":380,"kind_detail":"primary","min_zoom":8.0,"id":283858389},"arcs":[60]},{"type":"LineString","properties":{"source":"openstreetmap.org","kind":"major_road","sort_rank":380,"kind_detail":"primary","name:my":"\u1031\u101b\u108a\u103b\u1015\u100a\u1039\u1031\u1010\u102c\u1039\u1040\u1004\u1039\u1038\u101c\u1019\u1039\u1038","min_zoom":8.0,"id":40514474},"arcs":[61]},{"type":"MultiLineString","properties":{"source":"openstreetmap.org","kind":"major_road","name:en":"Yarza Thingaha Road","sort_rank":380,"kind_detail":"primary","min_zoom":8.0},"arcs":[[62],[63],[64],[65],[66],[67],[68],[69],[70],[71],[72],[73],[74],[75]]}]},"earth":{"type":"GeometryCollection","geometries":[{"type":"Polygon","properties":{"sort_rank":10,"source":"naturalearthdata.com","kind":"earth","min_zoom":0.0,"id":4721},"arcs":[[76]]}]},"landuse":{"type":"GeometryCollection","geometries":[]}},"type":"Topology","transform":{"translate":[95.625,19.3111433551],"scale":[0.0003433228,0.0003226662]},"arcs":[[[2456,4096],[12,-27],[35,-48],[84,-21],[11,-70],[30,-3],[39,59],[36,1],[-28,-98],[1,-166],[-149,-13],[7,-89],[-63,-28],[-26,-61],[20,-57],[-29,-17],[39,-178],[74,-98],[-16,-57],[94,-129],[-15,-29],[73,-145],[-123,-89]],[[3038,613],[28,-88],[37,-34],[-15,-64],[124,-1],[108,-51],[52,-78],[54,-8],[86,-158],[10,-64]],[[3522,67],[55,-67]],[[3608,0],[64,82],[-32,55],[41,60],[225,162],[-64,94],[-25,12],[-31,-30],[-54,36],[11,54],[-106,83],[7,47],[94,26],[-28,81],[41,64],[39,-17],[54,44],[56,130],[151,66],[-20,74],[19,53],[46,6]],[[2562,2733],[-46,-40],[-9,-54],[-81,-29],[-50,-52],[35,-146],[67,-60],[-23,-44],[-72,-12],[2,-60],[-45,-41],[-75,34],[-22,-34],[-70,15],[-22,-35],[88,-154],[179,-213],[-33,-54],[28,-83],[198,24],[97,-102],[16,-100],[123,-129],[14,-59],[70,-15],[56,-69],[19,-48],[-38,-46],[-146,-58],[-146,-139],[23,-7],[-14,-19],[28,-53],[193,-40],[73,13],[81,-181],[-22,-30]],[[0,3886],[29,11],[83,-36],[142,-134],[-1,-58],[53,-88],[-26,-77],[100,-195],[-2,-48],[-40,-38],[-50,-7],[38,-118]],[[326,3098],[160,-58],[80,50],[126,-180],[2,-46],[58,6],[44,-49],[54,21],[4,-33],[76,-14],[-16,68],[47,27],[-22,50],[24,3],[-2,36],[81,56],[1,24],[50,10],[16,-47],[118,10],[18,-29],[60,31],[16,-52],[38,43],[118,-19],[105,-46],[29,-49],[79,149],[75,35],[100,-4],[44,56],[48,14],[28,-7],[2,-40],[160,-29],[74,-71],[58,-18],[25,-57],[77,-46],[51,-69],[52,-9],[-13,-17],[45,-12],[-2,-22],[30,12],[18,-43]],[[671,0],[0,40],[-119,188],[21,37],[-25,43],[3,70],[-56,82]],[[495,460],[-142,97],[-47,96],[37,45],[-57,78],[34,53],[-23,49],[23,12],[-65,93],[16,51],[39,2],[44,45],[15,63],[43,-3],[41,135],[-49,110],[68,61],[-8,43],[39,84],[58,-8],[13,67],[-49,62],[15,63],[-66,94],[22,122],[-20,53],[-63,54],[79,127],[-50,79],[37,40],[41,0],[-6,97],[91,110],[4,47],[-128,101],[0,86],[-32,70],[-27,8],[1,109],[-83,37],[-14,106]],[[3483,0],[4,41],[35,26]],[[2233,504],[78,-89],[64,-1],[-95,-104],[58,-98],[87,-50],[-22,-39],[32,7],[-17,-51],[30,-3],[-27,-76]],[[3038,613],[-52,-27],[2,-39],[-43,-33],[-14,-106],[-56,-47],[-96,124],[-27,-5],[6,29],[-63,-25],[-10,23],[-56,-13],[-79,60],[-87,-42],[-73,17],[-157,-25]],[[2233,504],[-227,17],[-98,-18],[-32,30],[-219,-3],[-41,34],[-32,-20],[-18,-136],[-73,0],[-31,-80],[-63,1],[-151,141],[-49,-29],[-266,87],[-13,-22],[-102,-4],[-42,-113],[-116,12],[-61,49],[-104,10]],[[1344,1119],[104,-1]],[[1439,1362],[-3,-1]],[[1437,1360],[2,1]],[[1450,1089],[1,0]],[[1774,1828],[-133,16],[-100,-42]],[[1542,1801],[99,43],[133,-16]],[[1576,1009],[23,-85],[71,-38],[-70,38],[-24,85]],[[1677,892],[-13,-12]],[[1665,880],[12,11]],[[1677,891],[56,-1]],[[1733,891],[-56,1]],[[1808,1827],[-35,2]],[[1774,1828],[34,-2]],[[1429,1354],[-1,-1],[1,-1],[1,0],[-1,2]],[[1449,1118],[0,1],[-1,0],[0,-1],[1,0]],[[1505,1416],[0,1],[-2,0],[1,-2],[1,1]],[[1541,1800],[1,0],[0,2],[-2,-1],[1,-1]],[[1550,1685],[1,-1],[0,1],[-1,0]],[[1571,1558],[1,2],[-1,0],[-1,-1],[1,-1]],[[1677,891],[0,1]],[[1677,892],[0,-1]],[[1177,4096],[4,-9]],[[1181,4087],[68,-142],[57,-231],[178,-205],[85,-293],[-17,-85],[61,-141],[5,-225],[36,-168],[26,-62],[166,-168],[-38,-122],[25,-252],[-37,-228],[56,-104],[4,-192],[-76,-72]],[[1376,1363],[52,-10]],[[1930,0],[-75,108],[17,391],[-49,150],[11,34],[-164,195],[-125,-10],[-124,124],[4,39],[63,21],[107,128],[1,75],[67,66],[38,80]],[[1702,1402],[69,-12]],[[1771,1390],[9,7]],[[1701,1401],[1,0],[0,1],[-1,-1]],[[1565,1319],[-44,-15],[-91,48]],[[1255,1094],[5,-19]],[[1643,173]],[[1644,173],[0,1]],[[1644,174],[-158,417],[-60,125],[-9,92],[-84,93],[-58,117],[-21,86],[-91,289],[10,181],[-31,120],[-85,221],[2,132]],[[1059,2047],[0,10]],[[1059,2057],[0,2],[-152,189],[-14,96],[-69,420],[-8,69],[-39,148],[-86,285],[-87,270],[-42,450],[-21,110]],[[531,4096],[30,-110],[42,-450],[213,-703],[7,-69],[84,-516],[152,-191]],[[1059,2057],[0,-10]],[[1059,2047],[-2,-132],[115,-341],[-10,-179],[93,-301]],[[1260,1075],[14,-57],[59,-117],[83,-93],[10,-92],[26,-73],[33,-52],[110,-305],[48,-113]],[[1643,173],[42,-81],[-2,-92]],[[1684,0],[1,92],[-41,81]],[[3685,3999],[70,-40]],[[3755,3959],[15,-9]],[[3770,3950],[25,-14]],[[3704,3755],[51,204]],[[3755,3959],[17,64],[-2,-73]],[[3770,3950],[-7,-286],[-28,-89]],[[1344,1119],[-94,-17]],[[1448,1119],[-104,0]],[[1428,1352],[-9,-103],[45,-61],[-15,-69]],[[1449,1119],[16,69],[-46,61],[10,103]],[[1436,1361],[-7,-7]],[[1430,1353],[7,7]],[[1503,1416],[-64,-54]],[[1439,1361],[65,54]],[[1448,1118],[-3,-26],[105,-42],[26,-41]],[[1576,1009],[-26,42],[-105,42],[3,24]],[[1570,1559],[-55,-75],[-11,-66]],[[1505,1417],[11,66],[55,75]],[[1540,1800],[10,-115]],[[1551,1685],[-10,115]],[[1550,1684],[20,-124]],[[1572,1560],[-21,124]],[[0,0],[0,4096],[4096,0],[0,-4096],[-4096,0]]]}