{"objects":{"water":{"type":"GeometryCollection","geometries":[{"type":"MultiPolygon","properties":{"source":"naturalearthdata.com","kind":"ocean","area":1576712559132672,"sort_rank":200,"min_zoom":0.0,"id":1},"arcs":[[[13]],[[14]]]},{"type":"MultiLineString","properties":{"source":"naturalearthdata.com","kind":"ocean","sort_rank":205,"boundary":true,"min_zoom":0.0,"id":79},"arcs":[[15],[16]]}]},"buildings":{"type":"GeometryCollection","geometries":[]},"places":{"type":"GeometryCollection","geometries":[{"type":"Point","properties":{"name:ka":"\u10db\u10d8\u10d0\u10dc\u10db\u10d0\u10e0\u10d8","name:ko":"\ubbf8\uc580\ub9c8","name:cv":"\u041c\u044c\u044f\u043d\u043c\u0430","name:km":"\u1798\u17b8\u1799\u17c9\u17b6\u1793\u17cb\u1798\u17c9\u17b6","name:kl":"Burma","name:cs":"Myanmar","name:ki":"Myama","name:kw":"Byrmani","name:kv":"\u041c\u044c\u044f\u043d\u043c\u0430","name:ku":"Myanmar","name:ti":"\u121b\u12eb\u1295\u121b\u122d","name:ks":"\u0645\u064e\u06cc\u064e\u0646\u0645\u0627 \u0628\u0654\u0631\u0645\u0627","name:to":"Pema","name:tl":"Myanmar","name:ce":"\u041c\u044c\u044f\u043d\u043c\u0430","name:ta":"\u0bae\u0bbf\u0baf\u0bbe\u0ba9\u0bcd\u0bae\u0bbe\u0bb0\u0bcd [\u0baa\u0bb0\u0bcd\u0bae\u0bbe]","name:tg":"\u041c\u044f\u043d\u043c\u0430","name:ca":"Myanmar","name:te":"\u0c2e\u0c4d\u0c2f\u0c3e\u0c28\u0c4d\u0c2e\u0c3e\u0c30\u0c4d","name:cy":"Myanmar [Byrma]","name:hr":"Mijanmar (Burma)","name:da":"Myanmar","name:de":"Myanmar","name:dz":"\u0f58\u0f72\u0f0b\u0f61\u0f71\u0f53\u0f0b\u0f58\u0f62\u0f0b [\u0f56\u0fb7\u0f62\u0f0b\u0f58]","source":"openstreetmap.org","name:kn":"\u0cae\u0caf\u0ca8\u0ccd\u0cae\u0cbe\u0cb0\u0ccd","name:dv":"\u0784\u07a6\u0783\u07aa\u0789\u07a7","name:lv":"Mjanma","name:lt":"Mianmaras","name:uz":"Birma","name:kk":"\u041c\u0438\u0430\u043d\u043c\u0430","name:ur":"\u0645\u06cc\u0627\u0646\u0645\u0627\u0631 [\u0628\u0631\u0645\u0627]","name:lb":"Myanmar","name:la":"Birmania","name:lg":"Myanima","name:uk":"\u041c\u2019\u044f\u043d\u043c\u0430","name:ug":"\u0628\u0649\u0631\u0645\u0627","name:li":"Burma","name:lo":"\u0eaa\u0eb0\u0eab\u0eb0\u0e9e\u0eb2\u0e9a\u0ea1\u0ebd\u0e99\u0ea1\u0eb2","name:el":"\u039c\u03b9\u03b1\u03bd\u03bc\u03ac\u03c1","name:eo":"Birmo \/ Mjanmao","name:en":"Myanmar","name":"\u1019\u103c\u1014\u103a\u1019\u102c","name:tk":"M\u00fdanma","name:ee":"Myanmar [Burma] nutome","name:th":"\u0e1b\u0e23\u0e30\u0e40\u0e17\u0e28\u0e1e\u0e21\u0e48\u0e32","name:eu":"Myanmar","name:et":"Birma","name:es":"Birmania","name:ia":"Birmania\/Myanmar","name:rn":"Birimaniya","name:az":"Myanma","name:ie":"Myanmar","name:id":"Myanmar","name:ar":"\u0645\u064a\u0627\u0646\u0645\u0627\u0631","name:io":"Myanmar","name:ak":"Miyanma","name:am":"\u121b\u12ed\u1293\u121b\u122d[\u1260\u122d\u121b]","name:it":"Birmania","name:an":"Myanmar","name:ru":"\u041c\u044c\u044f\u043d\u043c\u0430","name:rw":"Mayanimari","name:af":"Mianmar","name:zu":"e-Myanmar [Burma]","old_name:ca":"Birm\u00e0nia","name:za":"Mienjdien","name:zh-yue":"\u7dec\u7538","old_name:cs":"Barma","name:zh":"\u7f05\u7538","name:so":"Burma","name:sl":"Mjanmar","name:sk":"Mjanmarsko","name:ja":"\u30df\u30e3\u30f3\u30de\u30fc","name:si":"\u0db8\u0dd2\u0dba\u0db1\u0dca\u0db8\u0dcf\u0dbb\u0dba","name:sh":"Mianmar","name:sg":"My\u00e4m\u00e2ra","name:se":"Burma","name:sc":"Birmania","name:sa":"\u092e\u094d\u092f\u093e\u0928\u094d\u092e\u093e\u0930","name:bs":"Mijanmar","name:bm":"Myanimari","name:bn":"\u09ae\u09be\u09af\u09bc\u09be\u09a8\u09ae\u09be\u09b0","name:bo":"\u0f60\u0f56\u0f62\u0f0b\u0f58\u0f0d","name:br":"Birmania","name:sw":"Myama","name:be":"\u041c'\u044f\u043d\u043c\u0430","name:su":"Myanmar","name:bg":"\u041c\u0438\u0430\u043d\u043c\u0430\u0440 [\u0411\u0438\u0440\u043c\u0430]","name:ss":"IMayanima","name:ba":"\u041c\u044c\u044f\u043d\u043c\u0430","name:sq":"Birmania","name:jv":"Myanmar","name:bi":"Burma","name:pt":"Mianmar [Birm\u00e2nia]","name:ps":"\u0645\u064a\u0627\u0646\u0645\u0627\u0631","name:oc":"Birmania","min_zoom":2.0,"name:ro":"Birmania","name:zh-min-nan":"Myanma","name:os":"\u041c\u044c\u044f\u043d\u043c\u00e6","name:or":"\u0b2e\u0b3f\u0b5f\u0b3e\u0b2e\u0b3e\u0b30\u0b4d","name:pl":"Birma","name:sr":"\u041c\u0458\u0430\u043d\u043c\u0430\u0440","name:pa":"\u0a2e\u0a3f\u0a06\u0a02\u0a2e\u0a3e\u0a30","name:tr":"Myanmar [Burma]","name:hi":"\u092e\u094d\u092f\u093e\u0928\u092e\u093e\u0930","name:sv":"Burma","name:he":"\u05de\u05d9\u05d0\u05e0\u05de\u05e8","name:ha":"Burma, Miyamar","name:hy":"\u0544\u0575\u0561\u0576\u0574\u0561","name:ht":"Bimani","name:hu":"Mianmar","name:qu":"Myanmar","population":55167330,"kind":"country","name:is":"Mjanmar","name:yi":"\u05de\u05d9\u05d0\u05e0\u05de\u05d0\u05e8","name:yo":"Or\u00edl\u1eb9\u0301\u00e8de Manamari","name:mt":"Mjanmar","name:ms":"Myanmar [Burma]","name:mr":"\u092e\u094d\u092f\u093e\u0928\u092e\u093e\u0930 [\u092c\u094d\u0930\u0939\u094d\u092e\u0926\u0947\u0936]","int_name":"Myanmar","name:mg":"Myanmara","name:ml":"\u0d2e\u0d4d\u0d2f\u0d3e\u0d7b\u0d2e\u0d3e\u0d7c","name:vi":"Myanma","old_name:fi":"Burma","id":424316478,"name:mk":"\u041c\u0458\u0430\u043d\u043c\u0430\u0440 [\u0411\u0443\u0440\u043c\u0430]","name:vo":"Mianmar\u00e4n","name:fa":"\u0645\u06cc\u0627\u0646\u0645\u0627\u0631","name:mn":"\u041c\u044c\u044f\u043d\u043c\u0430\u0440","name:ff":"Miyamaar","name:fi":"Myanmar","name:ky":"\u041c\u044c\u044f\u043d\u043c\u0430","name:fo":"Burma","alt_name:vi":"Mi\u1ebfn \u0110i\u1ec7n","name:fr":"Birmanie","name:fy":"Birma","name:nl":"Myanmar","name:nn":"Myanmar","name:no":"Burma","name:na":"Miyanmar","name:ne":"\u092e\u094d\u092f\u093e\u0928\u094d\u092e\u093e\u0930 [\u092c\u0930\u094d\u092e\u093e]","name:wo":"Miyanmaar","name:ga":"Maenmar","name:gd":"Mianmar","name:gl":"Myanmar [Birmania]","name:gv":"Myanmar","name:gu":"\u0aae\u0acd\u0aaf\u0abe\u0a82\u0aae\u0abe\u0ab0","name:tt":"\u041c\u044c\u044f\u043d\u043c\u0430"},"coordinates":[1092,1644]},{"type":"Point","properties":{"admin_level":"4","kind":"region","int_name":"Yangon Region","name":"Yangon","kind_detail":"state","name:my":"\u101b\u1014\u103a\u1000\u102f\u1014\u103a\u1010\u102d\u102f\u1004\u103a\u1038","source":"openstreetmap.org","min_zoom":4.0,"name:zh":"\u4ef0\u5149\u7701","id":4353300190,"name:ja":"\u30e4\u30f3\u30b4\u30f3"},"coordinates":[1421,35]},{"type":"Point","properties":{"source":"naturalearthdata.com","kind":"locality","name":"Yandoon","population":36172,"min_zoom":7.0,"id":4779},"coordinates":[52,1242]},{"type":"Point","properties":{"int_name":"Rangoon","name:sk":"Rang\u00fan","name:ja":"\u30e4\u30f3\u30b4\u30f3","name:lt":"Rang\u016bnas","name:hi":"\u092f\u093e\u0902\u0917\u0942\u0928","name:kn":"\u0caf\u0c82\u0c97\u0cca\u0ca8\u0ccd","name:cs":"Yangon","min_zoom":8.0,"name:uk":"\u042f\u043d\u0433\u043e\u043d","name:vi":"Ng\u01b0\u1ee1ng Quang","name:ru":"\u042f\u043d\u0433\u043e\u043d","name:pl":"Yangon","id":26576175,"population":4477638,"kind":"locality","name:en":"Yangon","name":"\u101b\u1014\u103a\u1000\u102f\u1014\u103a","kind_detail":"city","name:da":"Rangoon","name:ku":"Yangon","name:de":"Yangon","alt_name:fr":"Yangoun","source":"openstreetmap.org","name:fr":"Yangon","name:zh":"\u4ef0\u5149","name:es":"Yangon"},"coordinates":[1561,490]},{"type":"Point","properties":{"kind":"locality","name:en":"Bago","name":"\u1015\u1032\u1001\u1030\u1038","kind_detail":"city","min_zoom":8.0,"source":"openstreetmap.org","name:th":"\u0e1e\u0e30\u0e42\u0e04","name:uk":"\u0411\u0430\u0433\u043e","name:ru":"\u0411\u0430\u0433\u043e","population":284179,"id":26576210,"name:ja":"\u30d0\u30b4\u30fc"},"coordinates":[2490,2137]},{"type":"Point","properties":{"kind":"locality","name:en":"Thanlyin","name":"\u101e\u1014\u103a\u101c\u103b\u1004\u103a\u1019\u103c\u102d\u102f\u1037","kind_detail":"town","source":"openstreetmap.org","min_zoom":8.0,"old_name:en":"Syriam","population":181000,"id":26576202,"name:ja":"\u30b7\u30ea\u30a2\u30e0"},"coordinates":[1823,392]},{"type":"Point","properties":{"kind":"locality","name:en":"Thongwa","name":"\u101e\u102f\u1036\u1038\u1001\u103d","kind_detail":"town","source":"openstreetmap.org","min_zoom":8.0,"population":156993,"id":26576215,"name:ja":"\u30c8\u30f3\u30b0\u30ef"},"coordinates":[2618,380]},{"type":"Point","properties":{"kind":"locality","name:en":"Nyaunglebin","name":"\u100a\u1031\u102c\u1004\u103a\u101c\u1031\u1038\u1015\u1004\u103a","kind_detail":"town","source":"openstreetmap.org","min_zoom":8.0,"id":26576147,"population":89626},"coordinates":[3228,4008]},{"type":"Point","properties":{"source":"openstreetmap.org","kind":"locality","name":"Kanbe","kind_detail":"town","population":58146,"min_zoom":8.0,"id":26576150},"coordinates":[1097,211]},{"type":"Point","properties":{"kind":"locality","name:en":"Thayarwady","name":"\u101e\u102c\u101a\u102c\u101d\u1010\u102e","kind_detail":"town","source":"openstreetmap.org","min_zoom":8.0,"population":54386,"id":26576143,"name:ja":"\u30bf\u30fc\u30e9\u30fc\u30ef\u30c7\u30a3\u30fc"},"coordinates":[470,3107]},{"type":"Point","properties":{"kind":"locality","name":"Maubin","kind_detail":"town","source":"openstreetmap.org","min_zoom":8.0,"population":51542,"id":26576198,"name:ja":"\u30de\u30a6\u30fc\u30d3\u30f3"},"coordinates":[73,296]},{"type":"Point","properties":{"kind":"locality","name:en":"Kyaikto","name":"\u1000\u103b\u102d\u102f\u1000\u103a\u1011\u102d\u102f","kind_detail":"town","source":"openstreetmap.org","min_zoom":8.0,"id":26576225,"population":48658},"coordinates":[4033,2053]},{"type":"Point","properties":{"source":"openstreetmap.org","kind":"locality","name":"Twante","kind_detail":"town","population":46516,"min_zoom":8.0,"id":26576157},"coordinates":[898,246]},{"type":"Point","properties":{"kind":"locality","name:en":"Kayan","name":"\u1001\u101b\u1019\u103a\u1038","kind_detail":"town","source":"openstreetmap.org","min_zoom":8.0,"id":26576226,"population":40322},"coordinates":[2732,822]},{"type":"Point","properties":{"source":"openstreetmap.org","kind":"locality","name":"Nyaungdon","kind_detail":"town","population":40092,"min_zoom":8.0,"id":26576163},"coordinates":[33,1249]},{"type":"Point","properties":{"kind":"locality","name:en":"Letpadan","name":"\u101c\u1000\u103a\u1015\u1036\u1010\u1014\u103a\u1038","kind_detail":"town","source":"openstreetmap.org","min_zoom":8.0,"id":26576221,"population":38936},"coordinates":[364,3500]},{"type":"Point","properties":{"kind":"locality","name:en":"Thanatpin","name":"\u101e\u1014\u1015\u103a\u1015\u1004\u103a","kind_detail":"town","source":"openstreetmap.org","min_zoom":8.0,"id":26576179,"population":38059},"coordinates":[2778,2005]}]},"transit":{"type":"GeometryCollection","geometries":[]},"pois":{"type":"GeometryCollection","geometries":[]},"boundaries":{"type":"GeometryCollection","geometries":[{"type":"LineString","properties":{"name:cy":"Myanmar","name:ko":"\ubbf8\uc580\ub9c8","name:cv":"\u041c\u044c\u044f\u043d\u043c\u0430","name:km":"\u1798\u17b8\u1799\u17c9\u17b6\u1793\u17cb\u1798\u17c9\u17b6","name:cs":"Myanmar","name:ki":"Myanmar","name:kw":"Byrmani","name:kv":"\u041c\u044c\u044f\u043d\u043c\u0430","name:ku":"Myanmar","name:tl":"Myanmar","name:ce":"\u041c\u044c\u044f\u043d\u043c\u0430","name:ta":"\u0bae\u0bbf\u0baf\u0bbe\u0ba9\u0bcd\u0bae\u0bb0\u0bcd","name:tg":"\u041c\u044f\u043d\u043c\u0430","name:ca":"Myanmar","name:te":"\u0c2e\u0c2f\u0c28\u0c4d\u0c2e\u0c3e\u0c30\u0c4d","name:ka":"\u10db\u10d8\u10d0\u10dc\u10db\u10d0\u10e0\u10d8","name:qu":"Myanmar","name:da":"Myanmar","name:de":"Myanmar","name:dz":"\u0f58\u0f7a\u0f0b\u0f58\u0f62\u0f0b","source":"openstreetmap.org","name:kn":"\u0cae\u0caf\u0ca8\u0ccd\u0cae\u0cbe\u0cb0\u0ccd","name:dv":"\u0784\u07a6\u0783\u07aa\u0789\u07a7","name:lv":"Mjanma","name:lt":"Mianmaras","name:uz":"Birma","name:kk":"\u041c\u0438\u0430\u043d\u043c\u0430","name:ur":"\u0645\u06cc\u0627\u0646\u0645\u0627\u0631","name:lb":"Myanmar","name:la":"Birmania","name:tt":"\u041c\u044c\u044f\u043d\u043c\u0430","name:uk":"\u041c'\u044f\u043d\u043c\u0430","name:ug":"\u0628\u0649\u0631\u0645\u0627","name:li":"Myanmar","name:lo":"\u0e9b\u0eb0\u0ec0\u0e97\u0e94\u0ea1\u0ebd\u0e99\u0ea1\u0eb2","name:el":"\u039c\u03b9\u03b1\u03bd\u03bc\u03ac\u03c1","name:eo":"Birmo \/ Mjanmao","name:en":"Myanmar","name":"\u1019\u103c\u1014\u103a\u1019\u102c","name:tk":"M\u00fdanma","name:th":"\u0e1b\u0e23\u0e30\u0e40\u0e17\u0e28\u0e1e\u0e21\u0e48\u0e32","name:eu":"Myanmar","name:et":"Birma","name:es":"Myanmar","name:ia":"Birmania","name:az":"Myanma","name:ie":"Myanmar","name:id":"Myanmar","name:ar":"\u0628\u0648\u0631\u0645\u0627","name:io":"Myanmar","name:is":"B\u00farma","name:am":"\u121d\u12e8\u1295\u121b","name:it":"Birmania","name:an":"Myanmar","name:ru":"\u041c\u044c\u044f\u043d\u043c\u0430","name:rw":"Mayanimari","name:af":"Mianmar","kind_detail":"2","name:za":"Mienjdien","name:zh-yue":"\u7dec\u7538","name:zh":"\u7f05\u7538","name:so":"Myanmar","name:sl":"Mjanmar","name:sk":"Mjanmarsko","name:ja":"\u30df\u30e3\u30f3\u30de\u30fc","name:si":"\u0db6\u0dd4\u0dbb\u0dd4\u0db8\u0dba","name:sh":"Mianmar","name:se":"Myanmar","name:sc":"Birmania","name:br":"Myanmar","name:bs":"Mijanmar","name:bn":"\u09ae\u09be\u09af\u09bc\u09be\u09a8\u09ae\u09be\u09b0","name:bo":"\u0f56\u0fb7\u0f62\u0f0b\u0f58\u0f0d","name:sa":"\u092e\u094d\u092f\u093e\u0928\u094d\u092e\u093e\u0930","name:sw":"Myanmar","name:be":"\u041c'\u044f\u043d\u043c\u0430","name:su":"Myanmar","name:bg":"\u041c\u0438\u0430\u043d\u043c\u0430\u0440","name:ss":"IMayanima","name:ba":"\u041c\u044c\u044f\u043d\u043c\u0430","name:sq":"Birmania","name:jv":"Myanmar","name:bi":"Burma","name:pt":"Birm\u00e2nia","name:ps":"\u0645\u064a\u0627\u0646\u0645\u0627\u0631","name:oc":"Birmania","min_zoom":8.0,"name:ro":"Birmania","name:zh-min-nan":"Myanma","name:os":"\u041c\u044c\u044f\u043d\u043c\u00e6","name:or":"\u0b2e\u0b4d\u0b5f\u0b3e\u0b28\u0b2e\u0b3e\u0b30","name:pl":"Mjanma","sort_rank":262,"name:sr":"\u041c\u0458\u0430\u043d\u043c\u0430\u0440","osm_relation":true,"name:pa":"\u0a2e\u0a3f\u0a06\u0a02\u0a2e\u0a3e\u0a30","name:tr":"Myanmar","name:hi":"\u092e\u094d\u092f\u093e\u0928\u094d\u092e\u093e\u0930","name:sv":"Myanmar","name:he":"\u05de\u05d9\u05d0\u05e0\u05de\u05e8","name:hy":"\u0544\u0575\u0561\u0576\u0574\u0561","name:ht":"Bimani","name:hu":"Mianmar","name:hr":"Mijanmar","kind":"country","name:yi":"\u05de\u05d9\u05d0\u05e0\u05de\u05d0\u05e8","name:yo":"Myanmar","name:mt":"Myanmar","name:ms":"Myanmar","name:mr":"\u092e\u094d\u092f\u093e\u0928\u092e\u093e\u0930","int_name":"Myanmar","name:mg":"Myanmara","name:vi":"Myanma","name:ml":"\u0d2e\u0d4d\u0d2f\u0d3e\u0d28\u0d4d\u0d2e\u0d3e\u0d7c","old_name:fi":"Burma","id":-50371,"name:mk":"\u041c\u0458\u0430\u043d\u043c\u0430\u0440","name:vo":"Mianmar\u00e4n","name:fa":"\u0645\u06cc\u0627\u0646\u0645\u0627\u0631","name:mn":"\u041c\u044c\u044f\u043d\u043c\u0430\u0440","name:fi":"Myanmar","name:ky":"\u041c\u044c\u044f\u043d\u043c\u0430","old_name:vi":"Mi\u1ebfn \u0110i\u1ec7n;Di\u1ebfn \u0110i\u1ec7n","name:fo":"Burma","name:fr":"Birmanie","name:fy":"Birma","name:nl":"Myanmar","name:nn":"Myanmar","name:no":"Myanmar","name:na":"Miyanmar","name:ne":"\u092e\u094d\u092f\u093e\u0928\u092e\u093e\u0930","name:wo":"Miyanmaar","name:ga":"Maenmar","name:gd":"Mianmar","name:gl":"Myanmar","maritime_boundary":true,"name:gv":"Myanmar","name:gu":"\u0aac\u0ab0\u0acd\u0aae\u0abe"},"arcs":[0]},{"type":"LineString","properties":{"name:right:mk":"\u0411\u0430\u0433\u043e","int_name:right":"Bago Region","name:right:ja":"\u30d0\u30b4\u30fc","name:right:uk":"\u041f\u0435\u0433\u0443","int_name:left":"Yangon Region","name:left:ja":"\u30e4\u30f3\u30b4\u30f3","name:right:ko":"\ubc14\uace0 \uad00\uad6c","id:right":-5996474,"min_zoom":8.0,"name:right:th":"\u0e40\u0e02\u0e15\u0e1e\u0e30\u0e42\u0e04","id:left":-5996487,"name:left:my":"\u101b\u1014\u103a\u1000\u102f\u1014\u103a\u1010\u102d\u102f\u1004\u103a\u1038","name:right:ru":"\u041f\u0435\u0433\u0443","id":-5996487,"osm_relation":true,"name:right":"\u1015\u1032\u1001\u1030\u1038\u1010\u102d\u102f\u1004\u103a\u1038\u1012\u1031\u101e\u1000\u103c\u102e\u1038 (Bago)","kind":"region","name":"Yangon - \u1015\u1032\u1001\u1030\u1038\u1010\u102d\u102f\u1004\u103a\u1038\u1012\u1031\u101e\u1000\u103c\u102e\u1038 (Bago)","sort_rank":256,"kind_detail":"4","name:right:my":"\u1015\u1032\u1001\u1030\u1038\u1010\u102d\u102f\u1004\u103a\u1038","name:right:en":"Bago Region","source":"openstreetmap.org","old_name:right":"Pegu;Pegu Division;Bago Division","name:right:zh":"\u52c3\u56fa\u7701","name:left":"Yangon"},"arcs":[1]},{"type":"MultiLineString","properties":{"int_name:right":"Ayeyarwady Region","name:right:ja":"\u30a8\u30fc\u30e4\u30ef\u30c7\u30a3","int_name:left":"Yangon Region","name:left:ja":"\u30e4\u30f3\u30b4\u30f3","id:right":-5996473,"min_zoom":8.0,"name:left:my":"\u101b\u1014\u103a\u1000\u102f\u1014\u103a\u1010\u102d\u102f\u1004\u103a\u1038","id":-5996487,"osm_relation":true,"name:right":"Ayeyarwady","kind":"region","name":"Yangon - Ayeyarwady","sort_rank":256,"kind_detail":"4","name:right:my":"\u1027\u200b\u101b\u102c\u101d\u1010\u102e\u1010\u102d\u102f\u1004\u103a\u1038","source":"openstreetmap.org","id:left":-5996487,"name:left":"Yangon"},"arcs":[[2],[3]]},{"type":"LineString","properties":{"kind":"region","int_name":"Yangon Region","name":"Yangon","sort_rank":256,"kind_detail":"4","name:my":"\u101b\u1014\u103a\u1000\u102f\u1014\u103a\u1010\u102d\u102f\u1004\u103a\u1038","source":"openstreetmap.org","min_zoom":8.0,"id":-5996487,"osm_relation":true,"name:ja":"\u30e4\u30f3\u30b4\u30f3"},"arcs":[4]},{"type":"MultiLineString","properties":{"kind":"region","int_name":"Yangon Region","name":"Yangon","sort_rank":256,"kind_detail":"4","name:my":"\u101b\u1014\u103a\u1000\u102f\u1014\u103a\u1010\u102d\u102f\u1004\u103a\u1038","min_zoom":8.0,"source":"openstreetmap.org","maritime_boundary":true,"id":-5996487,"osm_relation":true,"name:ja":"\u30e4\u30f3\u30b4\u30f3"},"arcs":[[5],[6]]},{"type":"LineString","properties":{"name:right:mk":"\u0411\u0430\u0433\u043e","int_name:right":"Bago Region","name:right:ja":"\u30d0\u30b4\u30fc","name:right:uk":"\u041f\u0435\u0433\u0443","int_name:left":"Mon State","name:left:ja":"\u30e2\u30f3","name:right:ko":"\ubc14\uace0 \uad00\uad6c","id:right":-5996474,"min_zoom":8.0,"name:right:th":"\u0e40\u0e02\u0e15\u0e1e\u0e30\u0e42\u0e04","id:left":-5996481,"name:left:ru":"\u041c\u043e\u043d","name:left:my":"\u1019\u103d\u1014\u103a\u1015\u103c\u100a\u103a\u1014\u101a\u103a","name:right:ru":"\u041f\u0435\u0433\u0443","id":-5996481,"osm_relation":true,"name:right":"\u1015\u1032\u1001\u1030\u1038\u1010\u102d\u102f\u1004\u103a\u1038\u1012\u1031\u101e\u1000\u103c\u102e\u1038 (Bago)","kind":"region","name":"Mon - \u1015\u1032\u1001\u1030\u1038\u1010\u102d\u102f\u1004\u103a\u1038\u1012\u1031\u101e\u1000\u103c\u102e\u1038 (Bago)","sort_rank":256,"kind_detail":"4","name:right:my":"\u1015\u1032\u1001\u1030\u1038\u1010\u102d\u102f\u1004\u103a\u1038","name:right:en":"Bago Region","source":"openstreetmap.org","old_name:right":"Pegu;Pegu Division;Bago Division","name:right:zh":"\u52c3\u56fa\u7701","name:left":"Mon"},"arcs":[7]},{"type":"MultiLineString","properties":{"kind":"region","int_name":"Mon State","name":"Mon","sort_rank":256,"kind_detail":"4","name:my":"\u1019\u103d\u1014\u103a\u1015\u103c\u100a\u103a\u1014\u101a\u103a","min_zoom":8.0,"source":"openstreetmap.org","maritime_boundary":true,"name:ru":"\u041c\u043e\u043d","id":-5996481,"osm_relation":true,"name:ja":"\u30e2\u30f3"},"arcs":[[8],[9]]},{"type":"LineString","properties":{"int_name:right":"Ayeyarwady Region","name:right:ja":"\u30a8\u30fc\u30e4\u30ef\u30c7\u30a3","name:left:mk":"\u0411\u0430\u0433\u043e","int_name:left":"Bago Region","name:left:ko":"\ubc14\uace0 \uad00\uad6c","name:left:ja":"\u30d0\u30b4\u30fc","id:right":-5996473,"name:left:uk":"\u041f\u0435\u0433\u0443","min_zoom":8.0,"name:left:ru":"\u041f\u0435\u0433\u0443","name:left:my":"\u1015\u1032\u1001\u1030\u1038\u1010\u102d\u102f\u1004\u103a\u1038","id":-5996474,"osm_relation":true,"name:right":"Ayeyarwady","name:left:th":"\u0e40\u0e02\u0e15\u0e1e\u0e30\u0e42\u0e04","kind":"region","name:left:en":"Bago Region","sort_rank":256,"kind_detail":"4","name:right:my":"\u1027\u200b\u101b\u102c\u101d\u1010\u102e\u1010\u102d\u102f\u1004\u103a\u1038","name":"\u1015\u1032\u1001\u1030\u1038\u1010\u102d\u102f\u1004\u103a\u1038\u1012\u1031\u101e\u1000\u103c\u102e\u1038 (Bago) - Ayeyarwady","source":"openstreetmap.org","name:left:zh":"\u52c3\u56fa\u7701","id:left":-5996474,"old_name:left":"Pegu;Pegu Division;Bago Division","name:left":"\u1015\u1032\u1001\u1030\u1038\u1010\u102d\u102f\u1004\u103a\u1038\u1012\u1031\u101e\u1000\u103c\u102e\u1038 (Bago)"},"arcs":[10]},{"type":"LineString","properties":{"int_name":"Bago Region","name:ja":"\u30d0\u30b4\u30fc","name:ko":"\ubc14\uace0 \uad00\uad6c","name:my":"\u1015\u1032\u1001\u1030\u1038\u1010\u102d\u102f\u1004\u103a\u1038","name:th":"\u0e40\u0e02\u0e15\u0e1e\u0e30\u0e42\u0e04","name:uk":"\u041f\u0435\u0433\u0443","old_name":"Pegu;Pegu Division;Bago Division","name:ru":"\u041f\u0435\u0433\u0443","id":-5996474,"osm_relation":true,"kind":"region","name:en":"Bago Region","name":"\u1015\u1032\u1001\u1030\u1038\u1010\u102d\u102f\u1004\u103a\u1038\u1012\u1031\u101e\u1000\u103c\u102e\u1038 (Bago)","sort_rank":256,"kind_detail":"4","min_zoom":8.0,"source":"openstreetmap.org","name:mk":"\u0411\u0430\u0433\u043e","name:zh":"\u52c3\u56fa\u7701"},"arcs":[11]},{"type":"LineString","properties":{"int_name":"Bago Region","name:ja":"\u30d0\u30b4\u30fc","name:ko":"\ubc14\uace0 \uad00\uad6c","name:my":"\u1015\u1032\u1001\u1030\u1038\u1010\u102d\u102f\u1004\u103a\u1038","name:th":"\u0e40\u0e02\u0e15\u0e1e\u0e30\u0e42\u0e04","name:uk":"\u041f\u0435\u0433\u0443","old_name":"Pegu;Pegu Division;Bago Division","name:ru":"\u041f\u0435\u0433\u0443","id":-5996474,"osm_relation":true,"kind":"region","name:en":"Bago Region","name":"\u1015\u1032\u1001\u1030\u1038\u1010\u102d\u102f\u1004\u103a\u1038\u1012\u1031\u101e\u1000\u103c\u102e\u1038 (Bago)","sort_rank":256,"kind_detail":"4","min_zoom":8.0,"source":"openstreetmap.org","maritime_boundary":true,"name:mk":"\u0411\u0430\u0433\u043e","name:zh":"\u52c3\u56fa\u7701"},"arcs":[12]}]},"roads":{"type":"GeometryCollection","geometries":[{"type":"MultiLineString","properties":{"kind":"ferry","name:en":"Ferry Route (Botahtaung -> Insein)","network":"Yangon Water Bus","sort_rank":355,"landuse_kind":"urban_area","source":"openstreetmap.org","min_zoom":8.0,"id":-7317403,"osm_relation":true,"name":"\u1016\u101a\u103a\u101b\u102e \u101c\u1019\u103a\u1038\u1000\u103c\u1031\u102c\u1004\u103a\u1038 (\u1017\u102d\u102f\u101c\u103a\u1010\u1005\u103a\u1011\u1031\u102c\u1004\u103a -> \u1021\u1004\u103a\u1038\u1005\u102d\u1014\u103a)"},"arcs":[[17],[18]]},{"type":"LineString","properties":{"bus_network":"YRTA","name:en":"Strand Road","sort_rank":380,"kind_detail":"primary","kind":"major_road","source":"openstreetmap.org","min_zoom":8.0,"alt_name:en":"Kan-na Road","bus_shield_text":"58","landuse_kind":"urban_area"},"arcs":[19]},{"type":"LineString","properties":{"kind":"major_road","name:en":"Strand Road","sort_rank":380,"kind_detail":"primary","bus_network":"YRTA","source":"openstreetmap.org","min_zoom":8.0,"alt_name:en":"Kan-na Road","bus_shield_text":"57","id":505465571},"arcs":[20]},{"type":"MultiLineString","properties":{"source":"openstreetmap.org","kind":"major_road","name:en":"Kyan Sit Thar Road","landuse_kind":"urban_area","sort_rank":380,"kind_detail":"primary","min_zoom":8.0},"arcs":[[21],[22]]},{"type":"LineString","properties":{"bus_network":"YRTA","sort_rank":381,"kind_detail":"trunk","name:my":"\u1021\u1019\u103e\u1010\u103a (\u1041) \u101b\u1014\u103a\u1000\u102f\u1014\u103a-\u1019\u1014\u1039\u1010\u101c\u1031\u1038 \u1021\u101d\u1031\u1038\u1015\u103c\u1031\u1038\u101c\u1019\u103a\u1038\u1019\u1000\u103c\u102e\u1038","kind":"major_road","source":"openstreetmap.org","min_zoom":8.0,"bus_shield_text":"1","ref":"1"},"arcs":[23]},{"type":"MultiLineString","properties":{"source":"openstreetmap.org","kind":"major_road","landuse_kind":"urban_area","sort_rank":380,"kind_detail":"primary","name:my":"\u1026\u1038\u101d\u102e\u1005\u102c\u101b\u101c\u1019\u103a\u1038","min_zoom":8.0},"arcs":[[24],[25],[26]]},{"type":"LineString","properties":{"kind":"major_road","name:en":"\u1015\u102b\u101b\u1019\u102e \u101c\u1019\u103a\u1038\u1019\u1000\u103c\u102e\u1038 - Parami Rd","sort_rank":380,"kind_detail":"primary","bus_network":"YRTA","source":"openstreetmap.org","min_zoom":8.0,"bus_shield_text":"6","landuse_kind":"urban_area","id":293089898},"arcs":[27]},{"type":"LineString","properties":{"kind":"major_road","name:en":"Strand Road","sort_rank":380,"kind_detail":"primary","bus_network":"YRTA","source":"openstreetmap.org","min_zoom":8.0,"bus_shield_text":"57","landuse_kind":"urban_area","id":515809889},"arcs":[28]},{"type":"MultiLineString","properties":{"bus_network":"YRTA","name:en":"No: 1 Yangon - Mandalay Hwy","sort_rank":381,"kind_detail":"trunk","kind":"major_road","source":"openstreetmap.org","min_zoom":8.0,"bus_shield_text":"44","ref":"1"},"arcs":[[29],[30]]},{"type":"LineString","properties":{"kind":"major_road","name:en":"Bayint Naung Bridge","sort_rank":380,"kind_detail":"primary","bus_network":"YRTA","source":"openstreetmap.org","min_zoom":8.0,"bus_shield_text":"20","landuse_kind":"urban_area","id":24316357},"arcs":[31]},{"type":"MultiLineString","properties":{"source":"openstreetmap.org","bus_network":"YRTA","bus_shield_text":"31","sort_rank":380,"kind_detail":"primary","min_zoom":8.0,"kind":"major_road"},"arcs":[[32],[33]]},{"type":"LineString","properties":{"kind":"major_road","name:en":"Yarza Thingyan Rd","sort_rank":380,"landuse_kind":"urban_area","source":"openstreetmap.org","min_zoom":8.0,"kind_detail":"primary","id":480360534},"arcs":[34]},{"type":"LineString","properties":{"kind":"major_road","name:en":"Bayint Naung Road","sort_rank":380,"kind_detail":"primary","bus_network":"YRTA","source":"openstreetmap.org","min_zoom":8.0,"bus_shield_text":"23","landuse_kind":"urban_area","id":539158461},"arcs":[35]},{"type":"LineString","properties":{"bus_network":"YRTA","name:en":"No 3 Main Road","sort_rank":380,"kind_detail":"primary","kind":"major_road","source":"openstreetmap.org","min_zoom":8.0,"bus_shield_text":"11","landuse_kind":"urban_area"},"arcs":[36]},{"type":"LineString","properties":{"bus_network":"YRTA","sort_rank":380,"kind_detail":"primary","kind":"major_road","source":"openstreetmap.org","min_zoom":8.0,"bus_shield_text":"25","landuse_kind":"urban_area"},"arcs":[37]},{"type":"LineString","properties":{"kind":"major_road","name:en":"Thitsa Rd","sort_rank":380,"kind_detail":"primary","bus_network":"YRTA","source":"openstreetmap.org","min_zoom":8.0,"bus_shield_text":"12","landuse_kind":"urban_area","id":489257543},"arcs":[38]},{"type":"MultiLineString","properties":{"bus_network":"YRTA","name:en":"Pinlon Road","sort_rank":380,"kind_detail":"primary","kind":"major_road","source":"openstreetmap.org","min_zoom":8.0,"bus_shield_text":"12","landuse_kind":"urban_area"},"arcs":[[39],[40]]},{"type":"LineString","properties":{"kind":"major_road","name:en":"Kyan Sit Thar Road","sort_rank":380,"kind_detail":"primary","bus_network":"YRTA","source":"openstreetmap.org","min_zoom":8.0,"bus_shield_text":"24","id":385729528},"arcs":[41]},{"type":"LineString","properties":{"kind":"major_road","name:en":"Kyaikasan Road","sort_rank":380,"kind_detail":"primary","bus_network":"YRTA","source":"openstreetmap.org","min_zoom":8.0,"bus_shield_text":"85","landuse_kind":"urban_area","id":490789989},"arcs":[42]},{"type":"LineString","properties":{"kind":"major_road","name:en":"Bogyoke Aung San Road","sort_rank":380,"kind_detail":"primary","bus_shield_text":"27","bus_network":"YRTA","source":"openstreetmap.org","min_zoom":8.0,"old_name":"Montgomery Road;Commissioner Road","landuse_kind":"urban_area","id":396270105},"arcs":[43]},{"type":"LineString","properties":{"kind":"major_road","sort_rank":380,"kind_detail":"primary","name:my":"\u101e\u102f\u1013\u1019\u1039\u1019\u102c\u101c\u1019\u103a\u1038","bus_network":"YRTA","source":"openstreetmap.org","min_zoom":8.0,"bus_shield_text":"64","landuse_kind":"urban_area","id":505772944},"arcs":[44]},{"type":"LineString","properties":{"bus_network":"YRTA","sort_rank":380,"kind_detail":"primary","is_bicycle_related":true,"kind":"major_road","source":"openstreetmap.org","min_zoom":8.0,"bus_shield_text":"23A"},"arcs":[45]},{"type":"MultiLineString","properties":{"bus_network":"YRTA","sort_rank":380,"kind_detail":"primary","kind":"major_road","source":"openstreetmap.org","min_zoom":8.0,"bus_shield_text":"23A","landuse_kind":"urban_area"},"arcs":[[46],[47]]},{"type":"MultiLineString","properties":{"bus_network":"YRTA","sort_rank":381,"landuse_kind":"residential","kind":"major_road","source":"openstreetmap.org","min_zoom":8.0,"bus_shield_text":"1","kind_detail":"trunk","ref":"1"},"arcs":[[48],[49]]},{"type":"LineString","properties":{"kind":"major_road","name:en":"Hledan Overpass","sort_rank":380,"kind_detail":"primary","bus_network":"YRTA","source":"openstreetmap.org","min_zoom":8.0,"bus_shield_text":"35","landuse_kind":"urban_area","id":274922221},"arcs":[50]},{"type":"LineString","properties":{"kind":"major_road","sort_rank":380,"kind_detail":"primary","name:my":"\u101c\u103e\u102d\u102f\u1004\u103a\u1019\u103c\u1005\u103a\u101c\u1019\u103a\u1038","bus_network":"YRTA","source":"openstreetmap.org","min_zoom":8.0,"bus_shield_text":"6","landuse_kind":"urban_area","id":180434593},"arcs":[51]},{"type":"LineString","properties":{"kind":"ferry","network":"Waterbus","sort_rank":355,"source":"openstreetmap.org","min_zoom":8.0,"all_networks":["Waterbus"],"all_shield_texts":["n"],"shield_text":"n","id":-7317402,"osm_relation":true,"name":"Ferry Route (Insein) - Insein -> Botahtaung Jetty"},"arcs":[52]},{"type":"MultiLineString","properties":{"bus_network":"YRTA","sort_rank":380,"kind_detail":"primary","kind":"major_road","source":"openstreetmap.org","min_zoom":8.0,"bus_shield_text":"28","landuse_kind":"urban_area"},"arcs":[[53],[54],[55]]},{"type":"MultiLineString","properties":{"bus_network":"YRTA","name:en":"Thanlyin Chin Kat Road","sort_rank":380,"landuse_kind":"urban_area","kind":"major_road","source":"openstreetmap.org","min_zoom":8.0,"bus_shield_text":"31","kind_detail":"primary"},"arcs":[[56],[57]]},{"type":"MultiLineString","properties":{"bus_network":"YRTA","sort_rank":380,"kind_detail":"primary","kind":"major_road","source":"openstreetmap.org","min_zoom":8.0,"bus_shield_text":"8","landuse_kind":"urban_area"},"arcs":[[58],[59],[60]]},{"type":"LineString","properties":{"source":"openstreetmap.org","bus_network":"YRTA","bus_shield_text":"6","sort_rank":380,"kind_detail":"primary","min_zoom":8.0,"kind":"major_road"},"arcs":[61]},{"type":"LineString","properties":{"bus_network":"YRTA","name:en":"Yangon-Pathein Highway","sort_rank":380,"kind_detail":"primary","kind":"major_road","source":"openstreetmap.org","min_zoom":8.0,"bus_shield_text":"20"},"arcs":[62]},{"type":"LineString","properties":{"kind":"major_road","name:en":"East Race Course Rd","sort_rank":380,"landuse_kind":"urban_area","source":"openstreetmap.org","min_zoom":8.0,"kind_detail":"primary","id":463191695},"arcs":[63]},{"type":"LineString","properties":{"bus_network":"YRTA","name:en":"Maha Bandula Road","sort_rank":380,"kind_detail":"primary","kind":"major_road","source":"openstreetmap.org","min_zoom":8.0,"old_name:en":"Dalhousie Road","bus_shield_text":"57","landuse_kind":"urban_area"},"arcs":[64]},{"type":"LineString","properties":{"kind":"major_road","name:en":"\u1026\u1038\u1011\u1031\u102c\u1004\u103a\u1018\u102d\u102f\u1021\u101d\u102d\u102f\u1004\u103a\u1038 - U Htaung Bo Roundabout","sort_rank":380,"landuse_kind":"urban_area","source":"openstreetmap.org","min_zoom":8.0,"kind_detail":"primary","id":465675560},"arcs":[65]},{"type":"LineString","properties":{"kind":"major_road","name:en":"No.6 Road","sort_rank":380,"kind_detail":"primary","bus_network":"YRTA","source":"openstreetmap.org","min_zoom":8.0,"bus_shield_text":"31","landuse_kind":"residential","id":540582226},"arcs":[66]},{"type":"LineString","properties":{"kind":"major_road","sort_rank":380,"kind_detail":"primary","bus_network":"YRTA","source":"openstreetmap.org","min_zoom":8.0,"bus_shield_text":"35","landuse_kind":"urban_area","id":221165644},"arcs":[67]},{"type":"MultiLineString","properties":{"source":"openstreetmap.org","bus_network":"YRTA","bus_shield_text":"23A","sort_rank":380,"kind_detail":"primary","min_zoom":8.0,"kind":"major_road"},"arcs":[[68],[69]]},{"type":"LineString","properties":{"bus_network":"YRTA","name:en":"Minnandar Road","sort_rank":380,"kind_detail":"primary","name:my":"\u1019\u1004\u103a\u1038\u1014\u1014\u1039\u1012\u102c\u101c\u1019\u103a\u1038\u1019\u1000\u103c\u102e\u1038","kind":"major_road","source":"openstreetmap.org","min_zoom":8.0,"bus_shield_text":"4","landuse_kind":"urban_area"},"arcs":[70]},{"type":"LineString","properties":{"kind":"major_road","name:en":"Bahan Road","sort_rank":380,"kind_detail":"primary","bus_network":"YRTA","source":"openstreetmap.org","min_zoom":8.0,"bus_shield_text":"8","landuse_kind":"urban_area","id":265787480},"arcs":[71]},{"type":"LineString","properties":{"kind":"major_road","name:en":"Bogyoke Aung San Road","sort_rank":380,"kind_detail":"primary","bus_shield_text":"56","bus_network":"YRTA","source":"openstreetmap.org","min_zoom":8.0,"old_name":"Montgomery Road;Commissioner Road","landuse_kind":"urban_area","id":396270106},"arcs":[72]},{"type":"LineString","properties":{"kind":"major_road","name:en":"\u1006\u101b\u102c\u1005\u1036\u101c\u1019\u103a\u1038 - Saya San Rd","sort_rank":380,"kind_detail":"primary","bus_network":"YRTA","source":"openstreetmap.org","min_zoom":8.0,"bus_shield_text":"14","landuse_kind":"urban_area","id":476970610},"arcs":[73]},{"type":"LineString","properties":{"kind":"major_road","name:en":"Hlaing River Road","sort_rank":380,"kind_detail":"primary","bus_network":"YRTA","source":"openstreetmap.org","min_zoom":8.0,"bus_shield_text":"6","landuse_kind":"urban_area","id":180434590},"arcs":[74]},{"type":"MultiLineString","properties":{"bus_network":"YRTA","name:en":"No 1 Yangon - Mandalay Highway","sort_rank":381,"kind_detail":"trunk","kind":"major_road","source":"openstreetmap.org","min_zoom":8.0,"bus_shield_text":"35","ref":"1"},"arcs":[[75],[76]]},{"type":"LineString","properties":{"kind":"major_road","name:en":"Strand Road","sort_rank":380,"kind_detail":"primary","bus_network":"YRTA","source":"openstreetmap.org","min_zoom":8.0,"alt_name:en":"Kan-na Road","bus_shield_text":"3","id":527418508},"arcs":[77]},{"type":"LineString","properties":{"kind":"major_road","name:en":"Zoological Garden Rd","sort_rank":380,"kind_detail":"primary","bus_network":"YRTA","source":"openstreetmap.org","min_zoom":8.0,"bus_shield_text":"12","landuse_kind":"urban_area","id":178198133},"arcs":[78]},{"type":"MultiLineString","properties":{"bus_network":"YRTA","sort_rank":380,"kind_detail":"primary","kind":"major_road","source":"openstreetmap.org","min_zoom":8.0,"bus_shield_text":"14","landuse_kind":"urban_area"},"arcs":[[79],[80]]},{"type":"MultiLineString","properties":{"bus_network":"YRTA","alt_name:en":"Kaba Aye Pagoda Road","sort_rank":380,"kind_detail":"primary","kind":"major_road","source":"openstreetmap.org","min_zoom":8.0,"name:en":"Kabar Aye Pagoda Road","bus_shield_text":"28","landuse_kind":"urban_area"},"arcs":[[81],[82],[83],[84],[85]]},{"type":"LineString","properties":{"kind":"major_road","sort_rank":380,"kind_detail":"primary","bus_network":"YRTA","source":"openstreetmap.org","min_zoom":8.0,"bus_shield_text":"41","ref":"2","id":470118593},"arcs":[86]},{"type":"LineString","properties":{"bus_network":"YRTA","name:en":"Thamaing Station Road","sort_rank":380,"kind_detail":"primary","kind":"major_road","source":"openstreetmap.org","min_zoom":8.0,"bus_shield_text":"15","landuse_kind":"urban_area"},"arcs":[87]},{"type":"LineString","properties":{"kind":"major_road","name:en":"Kyimyindine Kannar Road","sort_rank":380,"kind_detail":"primary","bus_network":"YRTA","source":"openstreetmap.org","min_zoom":8.0,"bus_shield_text":"85","landuse_kind":"urban_area","id":505747545},"arcs":[88]},{"type":"LineString","properties":{"bus_network":"YRTA","sort_rank":380,"kind_detail":"primary","name:my":"\u1002\u103b\u102d\u102f\u1038\u1016\u103c\u1030\u101c\u1019\u103a\u1038","kind":"major_road","source":"openstreetmap.org","min_zoom":8.0,"bus_shield_text":"12","landuse_kind":"urban_area"},"arcs":[89]},{"type":"LineString","properties":{"kind":"major_road","sort_rank":380,"kind_detail":"primary","bus_network":"YRTA","source":"openstreetmap.org","min_zoom":8.0,"bus_shield_text":"35","id":465432346},"arcs":[90]},{"type":"MultiLineString","properties":{"bus_network":"YRTA","name:en":"Pyay Road","sort_rank":380,"landuse_kind":"urban_area","kind":"major_road","source":"openstreetmap.org","min_zoom":8.0,"alt_name:en":"Pyay (Prome) Road","bus_shield_text":"21","kind_detail":"primary"},"arcs":[[91],[92]]},{"type":"MultiLineString","properties":{"bus_network":"YRTA","name:en":"Waizayantar Road","sort_rank":380,"kind_detail":"primary","kind":"major_road","source":"openstreetmap.org","min_zoom":8.0,"bus_shield_text":"10","landuse_kind":"urban_area"},"arcs":[[93],[94]]},{"type":"LineString","properties":{"bus_network":"YRTA","name:en":"Phone Gyi Street","sort_rank":380,"landuse_kind":"urban_area","kind":"major_road","source":"openstreetmap.org","min_zoom":8.0,"bus_shield_text":"21","kind_detail":"primary"},"arcs":[95]},{"type":"LineString","properties":{"kind":"major_road","name:en":"U Chit Maung Rd","sort_rank":380,"kind_detail":"primary","bus_network":"YRTA","source":"openstreetmap.org","min_zoom":8.0,"bus_shield_text":"64","landuse_kind":"urban_area","id":478882256},"arcs":[96]},{"type":"LineString","properties":{"bus_network":"YRTA","sort_rank":380,"kind_detail":"primary","is_bicycle_related":true,"kind":"major_road","source":"openstreetmap.org","min_zoom":8.0,"bus_shield_text":"16"},"arcs":[97]},{"type":"MultiLineString","properties":{"source":"openstreetmap.org","kind":"major_road","name:en":"\u1026\u1038\u101d\u102e\u1005\u102c\u101b\u101c\u1019\u103a\u1038 - U Wisara Rd","landuse_kind":"urban_area","sort_rank":380,"kind_detail":"primary","min_zoom":8.0},"arcs":[[98],[99]]},{"type":"LineString","properties":{"kind":"major_road","name:en":"Phone Gyi Street","sort_rank":380,"landuse_kind":"urban_area","source":"openstreetmap.org","min_zoom":8.0,"kind_detail":"primary","id":466114347},"arcs":[100]},{"type":"LineString","properties":{"bus_network":"YRTA","name:en":"Shwegondine Rd","sort_rank":380,"kind_detail":"primary","kind":"major_road","source":"openstreetmap.org","min_zoom":8.0,"bus_shield_text":"12","landuse_kind":"urban_area"},"arcs":[101]},{"type":"MultiLineString","properties":{"bus_network":"YRTA","sort_rank":380,"kind_detail":"primary","kind":"major_road","source":"openstreetmap.org","min_zoom":8.0,"bus_shield_text":"15","landuse_kind":"urban_area"},"arcs":[[102],[103]]},{"type":"LineString","properties":{"bus_network":"YRTA","name:en":"Kyimyindaing Strand Road","sort_rank":380,"landuse_kind":"urban_area","kind":"major_road","source":"openstreetmap.org","min_zoom":8.0,"bus_shield_text":"14","kind_detail":"primary"},"arcs":[104]},{"type":"LineString","properties":{"kind":"major_road","name:en":"Shwegondine Rd","sort_rank":380,"kind_detail":"primary","is_bicycle_related":true,"bus_network":"YRTA","cycleway":"lane","source":"openstreetmap.org","min_zoom":8.0,"bus_shield_text":"11","landuse_kind":"urban_area","id":459800291},"arcs":[105]},{"type":"LineString","properties":{"bus_network":"YRTA","name:en":"Kyimyindine Kannar Road","sort_rank":380,"kind_detail":"primary","kind":"major_road","source":"openstreetmap.org","min_zoom":8.0,"bus_shield_text":"23A","landuse_kind":"urban_area"},"arcs":[106]},{"type":"MultiLineString","properties":{"bus_network":"YRTA","sort_rank":380,"kind_detail":"primary","name:my":"\u1026\u1038\u1011\u1031\u102c\u1004\u103a\u1018\u102d\u102f\u101c\u1019\u103a\u1038","kind":"major_road","source":"openstreetmap.org","min_zoom":8.0,"bus_shield_text":"8","landuse_kind":"urban_area"},"arcs":[[107],[108],[109],[110]]},{"type":"LineString","properties":{"bus_network":"YRTA","name:en":"Shukhintha Bypass Road","sort_rank":380,"kind_detail":"primary","kind":"major_road","source":"openstreetmap.org","min_zoom":8.0,"bus_shield_text":"10","landuse_kind":"urban_area"},"arcs":[111]},{"type":"MultiLineString","properties":{"bus_network":"YRTA","sort_rank":380,"kind_detail":"primary","name:my":"\u101e\u102f\u1013\u1019\u1039\u1019\u102c\u101c\u1019\u103a\u1038","kind":"major_road","source":"openstreetmap.org","min_zoom":8.0,"bus_shield_text":"18","landuse_kind":"urban_area"},"arcs":[[112],[113],[114],[115]]},{"type":"MultiLineString","properties":{"bus_network":"YRTA","name:en":"Pyay Road","sort_rank":380,"landuse_kind":"urban_area","kind":"major_road","source":"openstreetmap.org","min_zoom":8.0,"alt_name:en":"Prome Road","bus_shield_text":"21","kind_detail":"primary"},"arcs":[[116],[117],[118],[119],[120]]},{"type":"LineString","properties":{"kind":"major_road","sort_rank":380,"kind_detail":"primary","name:my":"\u1017\u102d\u102f\u101c\u103a\u1019\u1004\u103a\u1038\u1002\u1031\u102b\u1004\u103a\u101c\u1019\u103a\u1038","bus_network":"YRTA","source":"openstreetmap.org","min_zoom":8.0,"bus_shield_text":"12","landuse_kind":"urban_area","id":465695262},"arcs":[121]},{"type":"MultiLineString","properties":{"bus_network":"YRTA","name:en":"Strand Road","sort_rank":380,"kind_detail":"primary","kind":"major_road","source":"openstreetmap.org","min_zoom":8.0,"alt_name:en":"Kan-na Road","bus_shield_text":"57","landuse_kind":"urban_area"},"arcs":[[122],[123],[124]]},{"type":"MultiLineString","properties":{"kind":"major_road","name:en":"Sule Pagoda Road","sort_rank":380,"kind_detail":"primary","is_bicycle_related":true,"cycleway_right":"lane","source":"openstreetmap.org","min_zoom":8.0,"landuse_kind":"urban_area"},"arcs":[[125],[126]]},{"type":"MultiLineString","properties":{"bus_network":"YRTA","sort_rank":380,"kind_detail":"primary","name:my":"\u101c\u103e\u102d\u102f\u1004\u103a\u1019\u103c\u1005\u103a\u101c\u1019\u103a\u1038","kind":"major_road","source":"openstreetmap.org","min_zoom":8.0,"bus_shield_text":"6"},"arcs":[[127],[128]]},{"type":"LineString","properties":{"bus_network":"YRTA","name:en":"Minnandar Road","sort_rank":380,"kind_detail":"primary","name:my":"\u1019\u1004\u103a\u1038\u1014\u1014\u1039\u1012\u102c\u101c\u1019\u103a\u1038\u1019\u1000\u103c\u102e\u1038","kind":"major_road","source":"openstreetmap.org","min_zoom":8.0,"bus_shield_text":"9","landuse_kind":"urban_area"},"arcs":[129]},{"type":"MultiLineString","properties":{"bus_network":"YRTA","sort_rank":380,"kind_detail":"primary","kind":"major_road","source":"openstreetmap.org","min_zoom":8.0,"bus_shield_text":"37","ref":"2"},"arcs":[[130],[131],[132]]},{"type":"MultiLineString","properties":{"bus_network":"YRTA","name:en":"Thamaing Station Rd","sort_rank":380,"kind_detail":"primary","kind":"major_road","source":"openstreetmap.org","min_zoom":8.0,"bus_shield_text":"20","landuse_kind":"urban_area"},"arcs":[[133],[134]]},{"type":"LineString","properties":{"kind":"major_road","name:en":"Hlaing River Road","sort_rank":380,"kind_detail":"primary","bus_network":"YRTA","source":"openstreetmap.org","min_zoom":8.0,"bus_shield_text":"23A","id":489754147},"arcs":[135]},{"type":"MultiLineString","properties":{"source":"openstreetmap.org","kind":"major_road","name:en":"Waizayanta Road","landuse_kind":"urban_area","sort_rank":380,"kind_detail":"primary","min_zoom":8.0},"arcs":[[136],[137]]},{"type":"LineString","properties":{"bus_network":"YRTA","name:en":"Maha Bandula Road","sort_rank":380,"kind_detail":"primary","kind":"major_road","source":"openstreetmap.org","min_zoom":8.0,"old_name:en":"Dalhousie Road","bus_shield_text":"21","landuse_kind":"urban_area"},"arcs":[138]},{"type":"LineString","properties":{"cycleway_right":"lane","name:en":"Arzani Street","sort_rank":380,"kind_detail":"primary","is_bicycle_related":true,"kind":"major_road","bus_network":"YRTA","source":"openstreetmap.org","min_zoom":8.0,"bus_shield_text":"8","landuse_kind":"urban_area","id":499043077},"arcs":[139]},{"type":"MultiLineString","properties":{"bus_network":"YRTA","name:en":"Kyikekhauk Pagoda Road","sort_rank":380,"kind_detail":"primary","kind":"major_road","source":"openstreetmap.org","min_zoom":8.0,"bus_shield_text":"31"},"arcs":[[140],[141],[142]]},{"type":"LineString","properties":{"sort_rank":381,"source":"openstreetmap.org","min_zoom":8.0,"kind":"major_road","kind_detail":"trunk"},"arcs":[143]},{"type":"LineString","properties":{"kind":"major_road","sort_rank":380,"kind_detail":"primary","name:my":"\u101e\u102f\u1013\u1019\u1039\u1019\u102c\u101c\u1019\u103a\u1038","bus_network":"YRTA","source":"openstreetmap.org","min_zoom":8.0,"bus_shield_text":"15","landuse_kind":"urban_area","id":466329040},"arcs":[144]},{"type":"LineString","properties":{"bus_network":"YRTA","name:en":"Than Thu Mar Street","sort_rank":380,"kind_detail":"primary","kind":"major_road","source":"openstreetmap.org","min_zoom":8.0,"alt_name:en":"Thanthuma Road","bus_shield_text":"25","landuse_kind":"urban_area"},"arcs":[145]},{"type":"LineString","properties":{"bus_network":"YRTA","sort_rank":380,"kind_detail":"primary","name:my":"\u1021\u102f\u1010\u103a\u1015\u102f\u1036\u1006\u102d\u1015\u103a\u101c\u1019\u103a\u1038","kind":"major_road","source":"openstreetmap.org","min_zoom":8.0,"bus_shield_text":"10","landuse_kind":"urban_area"},"arcs":[146]},{"type":"MultiLineString","properties":{"bus_network":"YRTA","name:en":"Banyar Dala Road","sort_rank":380,"kind_detail":"primary","kind":"major_road","source":"openstreetmap.org","min_zoom":8.0,"bus_shield_text":"3","landuse_kind":"urban_area"},"arcs":[[147],[148],[149],[150]]},{"type":"MultiLineString","properties":{"bus_network":"YRTA","alt_name:en":"Dhamma Zedi Road","sort_rank":380,"kind_detail":"primary","kind":"major_road","source":"openstreetmap.org","min_zoom":8.0,"name:en":"Dhamma Seti Road","bus_shield_text":"11","landuse_kind":"urban_area"},"arcs":[[151],[152]]},{"type":"LineString","properties":{"source":"openstreetmap.org","kind":"major_road","name:en":"Thu Dhamma Road","landuse_kind":"urban_area","sort_rank":380,"kind_detail":"primary","min_zoom":8.0},"arcs":[153]},{"type":"LineString","properties":{"kind":"major_road","name:en":"Kyan Sit Thar Road","sort_rank":380,"kind_detail":"primary","bus_network":"YRTA","source":"openstreetmap.org","min_zoom":8.0,"bus_shield_text":"24","landuse_kind":"urban_area","id":385729528},"arcs":[154]},{"type":"MultiLineString","properties":{"bus_network":"YRTA","name:en":"Pyay Road","sort_rank":380,"kind_detail":"primary","kind":"major_road","source":"openstreetmap.org","min_zoom":8.0,"bus_shield_text":"11","landuse_kind":"urban_area"},"arcs":[[155],[156]]},{"type":"MultiLineString","properties":{"source":"openstreetmap.org","kind":"major_road","name:en":"Kyimyindine Kannar Road","landuse_kind":"urban_area","sort_rank":380,"kind_detail":"primary","min_zoom":8.0},"arcs":[[157],[158],[159],[160],[161],[162],[163],[164],[165],[166]]},{"type":"LineString","properties":{"kind":"major_road","name:en":"Shukhintha Bypass Road","sort_rank":380,"kind_detail":"primary","bus_network":"YRTA","source":"openstreetmap.org","min_zoom":8.0,"bus_shield_text":"31","landuse_kind":"urban_area","id":183090266},"arcs":[167]},{"type":"LineString","properties":{"bus_network":"YRTA","name:en":"Strand Road","sort_rank":380,"kind_detail":"primary","kind":"major_road","source":"openstreetmap.org","min_zoom":8.0,"alt_name:en":"Kan-na Road","bus_shield_text":"26","landuse_kind":"urban_area"},"arcs":[168]},{"type":"MultiLineString","properties":{"bus_network":"YRTA","sort_rank":380,"kind_detail":"primary","is_bicycle_related":true,"kind":"major_road","source":"openstreetmap.org","min_zoom":8.0,"bus_shield_text":"21","name:my":"\u1021\u1031\u102c\u1000\u103a\u1019\u1004\u103a\u1039\u1002\u101c\u102c\u1012\u102f\u1036\u101c\u1019\u103a\u1038","landuse_kind":"urban_area"},"arcs":[[169],[170]]},{"type":"LineString","properties":{"kind":"major_road","name:en":"Bogyoke Aung San Road","sort_rank":380,"kind_detail":"primary","bus_shield_text":"8","bus_network":"YRTA","source":"openstreetmap.org","min_zoom":8.0,"old_name":"Montgomery Road;Commissioner Road","landuse_kind":"urban_area","id":217743388},"arcs":[171]},{"type":"LineString","properties":{"kind":"major_road","name:en":"Bayint Naung Bridge 2","sort_rank":380,"kind_detail":"primary","bus_network":"YRTA","source":"openstreetmap.org","min_zoom":8.0,"bus_shield_text":"16","landuse_kind":"urban_area","id":390404848},"arcs":[172]},{"type":"LineString","properties":{"kind":"major_road","name:en":"Pyi Road","sort_rank":380,"kind_detail":"primary","bus_network":"YRTA","source":"openstreetmap.org","min_zoom":8.0,"alt_name:en":"Prome Road","bus_shield_text":"30","landuse_kind":"urban_area","id":514101305},"arcs":[173]},{"type":"LineString","properties":{"kind":"major_road","sort_rank":380,"kind_detail":"primary","is_bicycle_related":true,"bus_network":"YRTA","source":"openstreetmap.org","min_zoom":8.0,"bus_shield_text":"39","name:my":"\u1021\u1031\u102c\u1000\u103a\u1019\u1004\u103a\u1039\u1002\u101c\u102c\u1012\u102f\u1036\u101c\u1019\u103a\u1038","landuse_kind":"urban_area","id":321556931},"arcs":[174]},{"type":"MultiLineString","properties":{"source":"openstreetmap.org","kind":"major_road","name:en":"Banyar Dala Road","landuse_kind":"urban_area","sort_rank":380,"kind_detail":"primary","min_zoom":8.0},"arcs":[[175],[176]]},{"type":"LineString","properties":{"kind":"major_road","name:en":"Pyi Road","sort_rank":380,"kind_detail":"primary","bus_network":"YRTA","source":"openstreetmap.org","min_zoom":8.0,"bus_shield_text":"30","landuse_kind":"urban_area","id":514101290},"arcs":[177]},{"type":"LineString","properties":{"bus_network":"YRTA","name:en":"Maha Bandula Road","sort_rank":380,"kind_detail":"primary","kind":"major_road","source":"openstreetmap.org","min_zoom":8.0,"old_name:en":"Dalhousie Road","bus_shield_text":"39","landuse_kind":"urban_area"},"arcs":[178]},{"type":"LineString","properties":{"bus_network":"YRTA","sort_rank":380,"kind_detail":"primary","name:my":"\u101e\u102f\u1013\u1019\u1039\u1019\u102c\u101c\u1019\u103a\u1038","kind":"major_road","source":"openstreetmap.org","min_zoom":8.0,"bus_shield_text":"16","landuse_kind":"urban_area"},"arcs":[179]},{"type":"LineString","properties":{"bus_network":"YRTA","name:en":"No 3 Main Road","sort_rank":380,"kind_detail":"primary","kind":"major_road","source":"openstreetmap.org","min_zoom":8.0,"bus_shield_text":"2","landuse_kind":"urban_area"},"arcs":[180]},{"type":"LineString","properties":{"kind":"major_road","name:en":"U Chit Maung Road","sort_rank":380,"kind_detail":"primary","bus_network":"YRTA","source":"openstreetmap.org","min_zoom":8.0,"bus_shield_text":"12","landuse_kind":"urban_area","id":463274618},"arcs":[181]},{"type":"LineString","properties":{"bus_network":"YRTA","name:en":"Strand Road","sort_rank":380,"kind_detail":"primary","kind":"major_road","source":"openstreetmap.org","min_zoom":8.0,"alt_name:en":"Kan-na Road","bus_shield_text":"3","landuse_kind":"urban_area"},"arcs":[182]},{"type":"MultiLineString","properties":{"bus_network":"YRTA","name:en":"Kyimyindine Kannar Road","sort_rank":380,"kind_detail":"primary","kind":"major_road","source":"openstreetmap.org","min_zoom":8.0,"bus_shield_text":"20","landuse_kind":"urban_area"},"arcs":[[183],[184],[185]]},{"type":"LineString","properties":{"source":"openstreetmap.org","kind":"major_road","sort_rank":380,"kind_detail":"primary","ref":"2","min_zoom":8.0},"arcs":[186]},{"type":"LineString","properties":{"kind":"major_road","sort_rank":380,"kind_detail":"primary","bus_network":"YRTA","source":"openstreetmap.org","min_zoom":8.0,"bus_shield_text":"42","landuse_kind":"urban_area","id":465663947},"arcs":[187]},{"type":"LineString","properties":{"kind":"major_road","name:en":"\u1006\u101b\u102c\u1005\u1036\u101c\u1019\u103a\u1038 - Saya San Rd","sort_rank":380,"landuse_kind":"urban_area","source":"openstreetmap.org","min_zoom":8.0,"kind_detail":"primary","id":252083335},"arcs":[188]},{"type":"LineString","properties":{"kind":"major_road","sort_rank":380,"kind_detail":"primary","is_bicycle_related":true,"bus_network":"YRTA","source":"openstreetmap.org","min_zoom":8.0,"bus_shield_text":"15","name:my":"\u1021\u1031\u102c\u1000\u103a\u1019\u1004\u103a\u1039\u1002\u101c\u102c\u1012\u102f\u1036\u101c\u1019\u103a\u1038","landuse_kind":"urban_area","id":466281289},"arcs":[189]},{"type":"LineString","properties":{"bus_network":"YRTA","name:en":"Kyaik Waing Pagoda Road","sort_rank":380,"kind_detail":"primary","kind":"major_road","source":"openstreetmap.org","min_zoom":8.0,"bus_shield_text":"15","landuse_kind":"urban_area"},"arcs":[190]},{"type":"MultiLineString","properties":{"source":"openstreetmap.org","kind":"major_road","landuse_kind":"urban_area","sort_rank":380,"kind_detail":"primary","min_zoom":8.0},"arcs":[[191],[192],[193],[194],[195],[196],[197],[198],[199],[200],[201],[202],[203],[204],[205],[206],[207]]},{"type":"MultiLineString","properties":{"bus_network":"YRTA","alt_name:en":"Dhamma Zedi Road","sort_rank":380,"kind_detail":"primary","name:my":"\u1013\u1019\u1039\u1019\u1005\u1031\u1010\u102e\u101c\u1019\u103a\u1038","kind":"major_road","source":"openstreetmap.org","min_zoom":8.0,"bus_shield_text":"11","landuse_kind":"urban_area"},"arcs":[[208],[209]]},{"type":"MultiLineString","properties":{"bus_network":"YRTA","name:en":"Thu Dhamma Road","sort_rank":380,"kind_detail":"primary","kind":"major_road","source":"openstreetmap.org","min_zoom":8.0,"bus_shield_text":"10","landuse_kind":"urban_area"},"arcs":[[210],[211],[212],[213]]},{"type":"MultiLineString","properties":{"sort_rank":355,"source":"openstreetmap.org","min_zoom":8.0,"kind":"ferry"},"arcs":[[214],[215]]},{"type":"LineString","properties":{"kind":"major_road","name:en":"No. 2 Main Rd","sort_rank":380,"kind_detail":"primary","bus_network":"YRTA","source":"openstreetmap.org","min_zoom":8.0,"bus_shield_text":"1","landuse_kind":"urban_area","id":4363741},"arcs":[216]},{"type":"LineString","properties":{"kind":"major_road","sort_rank":380,"kind_detail":"primary","name:my":"\u1017\u101f\u1014\u103a\u1038\u101c\u1019\u103a\u1038","bus_network":"YRTA","source":"openstreetmap.org","min_zoom":8.0,"bus_shield_text":"8","landuse_kind":"urban_area","id":265787927},"arcs":[217]},{"type":"MultiLineString","properties":{"source":"openstreetmap.org","kind":"major_road","landuse_kind":"residential","sort_rank":381,"kind_detail":"trunk","ref":"1","min_zoom":8.0},"arcs":[[218],[219],[220],[221],[222],[223],[224]]},{"type":"MultiLineString","properties":{"source":"openstreetmap.org","bus_network":"YRTA","bus_shield_text":"49","sort_rank":380,"kind_detail":"primary","min_zoom":8.0,"kind":"major_road"},"arcs":[[225],[226]]},{"type":"LineString","properties":{"source":"openstreetmap.org","bus_network":"YRTA","bus_shield_text":"33","sort_rank":380,"kind_detail":"primary","min_zoom":8.0,"kind":"major_road"},"arcs":[227]},{"type":"LineString","properties":{"bus_network":"YRTA","name:en":"Strand Road","sort_rank":380,"kind_detail":"primary","kind":"major_road","source":"openstreetmap.org","min_zoom":8.0,"alt_name:en":"Kan-na Road","bus_shield_text":"24"},"arcs":[228]},{"type":"MultiLineString","properties":{"bus_network":"YRTA","name:en":"Parami Road","sort_rank":380,"kind_detail":"primary","kind":"major_road","source":"openstreetmap.org","min_zoom":8.0,"bus_shield_text":"6","landuse_kind":"urban_area"},"arcs":[[229],[230]]},{"type":"LineString","properties":{"kind":"major_road","sort_rank":380,"kind_detail":"primary","bus_network":"YRTA","source":"openstreetmap.org","min_zoom":8.0,"bus_shield_text":"1","id":385729698},"arcs":[231]},{"type":"LineString","properties":{"bus_network":"YRTA","name:en":"Shwedagon Pagoda Rd","sort_rank":380,"kind_detail":"primary","is_bicycle_related":true,"kind":"major_road","cycleway":"lane","source":"openstreetmap.org","min_zoom":8.0,"bus_shield_text":"8","landuse_kind":"urban_area"},"arcs":[232]},{"type":"MultiLineString","properties":{"bus_network":"YRTA","name:en":"No 1 Yangon - Mandalay Highway","sort_rank":381,"kind_detail":"trunk","kind":"major_road","source":"openstreetmap.org","min_zoom":8.0,"bus_shield_text":"44","ref":"1"},"arcs":[[233],[234]]},{"type":"MultiLineString","properties":{"source":"openstreetmap.org","kind":"major_road","name:en":"U Wisara Road","landuse_kind":"urban_area","sort_rank":380,"kind_detail":"primary","min_zoom":8.0},"arcs":[[235],[236]]},{"type":"LineString","properties":{"kind":"major_road","name:en":"U Chit Maung Road","sort_rank":380,"landuse_kind":"urban_area","source":"openstreetmap.org","min_zoom":8.0,"kind_detail":"primary","id":489257525},"arcs":[237]},{"type":"LineString","properties":{"bus_network":"YRTA","name:en":"Maha Bandula Road","sort_rank":380,"landuse_kind":"urban_area","kind":"major_road","source":"openstreetmap.org","min_zoom":8.0,"old_name:en":"Dalhousie Road","bus_shield_text":"4","kind_detail":"primary"},"arcs":[238]},{"type":"MultiLineString","properties":{"bus_network":"YRTA","name:en":"No. 2 Main Road","sort_rank":380,"kind_detail":"primary","kind":"major_road","source":"openstreetmap.org","min_zoom":8.0,"bus_shield_text":"1"},"arcs":[[239],[240]]},{"type":"LineString","properties":{"kind":"major_road","name:en":"Kyaikasan Road","sort_rank":380,"kind_detail":"primary","bus_network":"YRTA","source":"openstreetmap.org","min_zoom":8.0,"bus_shield_text":"9","landuse_kind":"urban_area","id":466051724},"arcs":[241]},{"type":"LineString","properties":{"cycleway_right":"lane","name:en":"Sule Roundabout","sort_rank":380,"kind_detail":"primary","is_bicycle_related":true,"kind":"major_road","bus_network":"YRTA","source":"openstreetmap.org","min_zoom":8.0,"bus_shield_text":"4","landuse_kind":"urban_area"},"arcs":[242]},{"type":"MultiLineString","properties":{"bus_network":"YRTA","sort_rank":380,"kind_detail":"primary","kind":"major_road","source":"openstreetmap.org","min_zoom":8.0,"bus_shield_text":"9","landuse_kind":"urban_area"},"arcs":[[243],[244]]},{"type":"LineString","properties":{"kind":"major_road","name:en":"Shwegondine Rd","sort_rank":380,"kind_detail":"primary","bus_network":"YRTA","source":"openstreetmap.org","min_zoom":8.0,"bus_shield_text":"20","landuse_kind":"urban_area","id":489257523},"arcs":[245]},{"type":"LineString","properties":{"source":"openstreetmap.org","kind":"major_road","name:en":"Banyar Dala Rd","landuse_kind":"urban_area","sort_rank":380,"kind_detail":"primary","min_zoom":8.0},"arcs":[246]},{"type":"LineString","properties":{"kind":"major_road","name:en":"Kyaikasan Road","sort_rank":380,"kind_detail":"primary","is_bicycle_related":true,"bus_network":"YRTA","source":"openstreetmap.org","min_zoom":8.0,"bus_shield_text":"25","landuse_kind":"urban_area","id":265785129},"arcs":[247]},{"type":"LineString","properties":{"kind":"major_road","sort_rank":380,"kind_detail":"primary","name:my":"\u101c\u1019\u103a\u1038\u101e\u1005\u103a\u101c\u1019\u103a\u1038","bus_network":"YRTA","source":"openstreetmap.org","min_zoom":8.0,"bus_shield_text":"6","landuse_kind":"urban_area","id":417341003},"arcs":[248]},{"type":"LineString","properties":{"source":"openstreetmap.org","kind":"major_road","name:en":"Yangon Airport Road","landuse_kind":"urban_area","sort_rank":380,"kind_detail":"primary","min_zoom":8.0},"arcs":[249]},{"type":"LineString","properties":{"kind":"major_road","name:en":"Thamine Butaryone Road","sort_rank":380,"kind_detail":"primary","bus_network":"YRTA","source":"openstreetmap.org","min_zoom":8.0,"bus_shield_text":"20","landuse_kind":"urban_area","id":252569198},"arcs":[250]},{"type":"LineString","properties":{"kind":"major_road","sort_rank":380,"kind_detail":"primary","bus_network":"YRTA","source":"openstreetmap.org","min_zoom":8.0,"bus_shield_text":"16","id":252651892},"arcs":[251]},{"type":"LineString","properties":{"kind":"major_road","name:en":"Strand Road","sort_rank":380,"kind_detail":"primary","bus_network":"YRTA","source":"openstreetmap.org","min_zoom":8.0,"alt_name:en":"Kan-na Road","bus_shield_text":"24","landuse_kind":"urban_area","id":500381692},"arcs":[252]},{"type":"LineString","properties":{"kind":"major_road","sort_rank":380,"kind_detail":"primary","name:my":"\u101e\u102f\u1013\u1019\u1039\u1019\u102c\u101c\u1019\u103a\u1038","bus_network":"YRTA","source":"openstreetmap.org","min_zoom":8.0,"bus_shield_text":"66","landuse_kind":"urban_area","id":505777956},"arcs":[253]},{"type":"LineString","properties":{"kind":"major_road","name:en":"Kyan Sit Thar Rd","sort_rank":380,"landuse_kind":"urban_area","source":"openstreetmap.org","min_zoom":8.0,"kind_detail":"primary","id":386857298},"arcs":[254]},{"type":"LineString","properties":{"cycleway_right":"lane","name:en":"Maha Bandula Road","sort_rank":380,"kind_detail":"primary","is_bicycle_related":true,"kind":"major_road","bus_network":"YRTA","source":"openstreetmap.org","min_zoom":8.0,"old_name:en":"Dalhousie Road","bus_shield_text":"57","landuse_kind":"urban_area","id":424019878},"arcs":[255]},{"type":"LineString","properties":{"bus_network":"YRTA","name:en":"Waizayantar Road","sort_rank":380,"kind_detail":"primary","kind":"major_road","source":"openstreetmap.org","min_zoom":8.0,"bus_shield_text":"9","landuse_kind":"urban_area"},"arcs":[256]},{"type":"LineString","properties":{"kind":"major_road","name:en":"Bayint Naung Bridge 1","sort_rank":380,"kind_detail":"primary","bus_network":"YRTA","source":"openstreetmap.org","min_zoom":8.0,"bus_shield_text":"20","landuse_kind":"urban_area","id":283790763},"arcs":[257]},{"type":"LineString","properties":{"bus_network":"YRTA","sort_rank":380,"kind_detail":"primary","kind":"major_road","source":"openstreetmap.org","min_zoom":8.0,"bus_shield_text":"37","landuse_kind":"urban_area"},"arcs":[258]},{"type":"LineString","properties":{"bus_network":"YRTA","name:en":"Lanthit Road","sort_rank":380,"kind_detail":"primary","kind":"major_road","source":"openstreetmap.org","min_zoom":8.0,"bus_shield_text":"6","landuse_kind":"urban_area"},"arcs":[259]},{"type":"MultiLineString","properties":{"bus_network":"YRTA","name:en":"Yangon-Pathein Highway","sort_rank":380,"kind_detail":"primary","kind":"major_road","source":"openstreetmap.org","min_zoom":8.0,"bus_shield_text":"23A"},"arcs":[[260],[261]]},{"type":"MultiLineString","properties":{"bus_network":"YRTA","name:en":"No. 2 Main Road","sort_rank":380,"kind_detail":"primary","kind":"major_road","source":"openstreetmap.org","min_zoom":8.0,"bus_shield_text":"1","landuse_kind":"urban_area"},"arcs":[[262],[263]]},{"type":"MultiLineString","properties":{"kind":"major_road","alt_name:en":"Kaba Aye Pagoda Road","sort_rank":380,"kind_detail":"primary","source":"openstreetmap.org","min_zoom":8.0,"name:en":"Kabar Aye Pagoda Road","landuse_kind":"urban_area"},"arcs":[[264],[265]]},{"type":"MultiLineString","properties":{"bus_network":"YRTA","sort_rank":380,"kind_detail":"primary","name:my":"\u101e\u102f\u1013\u1019\u1039\u1019\u102c\u101c\u1019\u103a\u1038","kind":"major_road","source":"openstreetmap.org","min_zoom":8.0,"bus_shield_text":"17","landuse_kind":"urban_area"},"arcs":[[266],[267]]},{"type":"LineString","properties":{"kind":"major_road","sort_rank":381,"landuse_kind":"urban_area","source":"openstreetmap.org","min_zoom":8.0,"kind_detail":"trunk","ref":"1","id":500109914},"arcs":[268]},{"type":"MultiLineString","properties":{"bus_network":"YRTA","name:en":"Upper Pazundaung Road","sort_rank":380,"kind_detail":"primary","kind":"major_road","source":"openstreetmap.org","min_zoom":8.0,"bus_shield_text":"24","landuse_kind":"urban_area"},"arcs":[[269],[270],[271],[272]]},{"type":"LineString","properties":{"kind":"major_road","name:en":"Shwegondine Road","sort_rank":380,"kind_detail":"primary","bus_network":"YRTA","source":"openstreetmap.org","min_zoom":8.0,"bus_shield_text":"11","landuse_kind":"urban_area","id":465806396},"arcs":[273]},{"type":"LineString","properties":{"kind":"major_road","name:en":"Pyi Htaung Su Road","sort_rank":380,"kind_detail":"primary","bus_network":"YRTA","source":"openstreetmap.org","min_zoom":8.0,"bus_shield_text":"12","landuse_kind":"urban_area","id":467161012},"arcs":[274]},{"type":"LineString","properties":{"bus_network":"YRTA","sort_rank":380,"kind_detail":"primary","kind":"major_road","source":"openstreetmap.org","min_zoom":8.0,"bus_shield_text":"90","ref":"2"},"arcs":[275]},{"type":"MultiLineString","properties":{"bus_network":"YRTA","name:en":"Strand Road","sort_rank":380,"kind_detail":"primary","kind":"major_road","source":"openstreetmap.org","min_zoom":8.0,"alt_name:en":"Kan-na Road","bus_shield_text":"26"},"arcs":[[276],[277]]},{"type":"LineString","properties":{"bus_network":"YRTA","name:en":"Thein Phyu Road","sort_rank":380,"kind_detail":"primary","bus_shield_text":"3","kind":"major_road","source":"openstreetmap.org","min_zoom":8.0,"old_name":"Bolane Road","landuse_kind":"urban_area"},"arcs":[278]},{"type":"LineString","properties":{"kind":"major_road","sort_rank":380,"kind_detail":"primary","name:my":"\u1013\u1019\u1039\u1019\u1005\u1031\u1010\u102e\u101c\u1019\u103a\u1038","bus_network":"YRTA","source":"openstreetmap.org","min_zoom":8.0,"bus_shield_text":"61","landuse_kind":"urban_area","id":465816323},"arcs":[279]},{"type":"LineString","properties":{"kind":"major_road","sort_rank":380,"kind_detail":"primary","bus_network":"YRTA","source":"openstreetmap.org","min_zoom":8.0,"bus_shield_text":"37","id":500368998},"arcs":[280]},{"type":"MultiLineString","properties":{"sort_rank":380,"kind_detail":"primary","min_zoom":8.0,"kind":"major_road","source":"openstreetmap.org"},"arcs":[[281],[282],[283],[284],[285],[286],[287],[288],[289],[290],[291],[292],[293],[294],[295],[296],[297],[298],[299],[300],[301],[302],[303]]},{"type":"MultiLineString","properties":{"bus_network":"YRTA","sort_rank":381,"kind_detail":"trunk","kind":"major_road","source":"openstreetmap.org","min_zoom":8.0,"bus_shield_text":"1","ref":"1"},"arcs":[[304],[305],[306]]},{"type":"LineString","properties":{"bus_network":"YRTA","name:en":"Thanthuma Street","sort_rank":380,"kind_detail":"primary","kind":"major_road","source":"openstreetmap.org","min_zoom":8.0,"bus_shield_text":"6","landuse_kind":"urban_area"},"arcs":[307]},{"type":"LineString","properties":{"kind":"major_road","sort_rank":380,"kind_detail":"primary","bus_network":"YRTA","source":"openstreetmap.org","min_zoom":8.0,"bus_shield_text":"61","landuse_kind":"urban_area","id":238802609},"arcs":[308]},{"type":"LineString","properties":{"bus_network":"YRTA","sort_rank":380,"kind_detail":"primary","name:my":"\u101c\u103e\u100a\u103a\u1038\u1010\u1014\u103a\u1038 \u1010\u1036\u1010\u102c\u1038","kind":"major_road","source":"openstreetmap.org","min_zoom":8.0,"bus_shield_text":"14","landuse_kind":"urban_area"},"arcs":[309]},{"type":"MultiLineString","properties":{"bus_network":"YRTA","name:en":"Parami Rd","sort_rank":380,"kind_detail":"primary","kind":"major_road","source":"openstreetmap.org","min_zoom":8.0,"bus_shield_text":"6","landuse_kind":"urban_area"},"arcs":[[310],[311]]},{"type":"MultiLineString","properties":{"bus_network":"YRTA","sort_rank":380,"kind_detail":"primary","kind":"major_road","source":"openstreetmap.org","min_zoom":8.0,"bus_shield_text":"21","landuse_kind":"urban_area"},"arcs":[[312],[313]]},{"type":"LineString","properties":{"kind":"major_road","name:en":"Ahlone ( Helpin ) Rd","sort_rank":380,"kind_detail":"primary","name:my":"\u1021\u101c\u102f\u1036\u101c\u1019\u103a\u1038","source":"openstreetmap.org","min_zoom":8.0,"landuse_kind":"urban_area","loc_name":"\u1021\u101c\u102f\u1036\u101c\u1019\u103a\u1038","id":252656350},"arcs":[314]},{"type":"LineString","properties":{"kind":"major_road","name:en":"No 1 Yangon - Mandalay Highway","sort_rank":380,"kind_detail":"primary","bus_network":"YRTA","source":"openstreetmap.org","min_zoom":8.0,"bus_shield_text":"36","id":504957169},"arcs":[315]},{"type":"LineString","properties":{"bus_network":"YRTA","sort_rank":380,"kind_detail":"primary","is_bicycle_related":true,"kind":"major_road","source":"openstreetmap.org","min_zoom":8.0,"bus_shield_text":"16","landuse_kind":"urban_area"},"arcs":[316]},{"type":"MultiLineString","properties":{"bus_network":"YRTA","name:en":"Pyay Road","sort_rank":380,"kind_detail":"primary","kind":"major_road","source":"openstreetmap.org","min_zoom":8.0,"bus_shield_text":"37"},"arcs":[[317],[318]]},{"type":"LineString","properties":{"kind":"major_road","sort_rank":380,"kind_detail":"primary","bus_network":"YRTA","source":"openstreetmap.org","min_zoom":8.0,"bus_shield_text":"33","landuse_kind":"residential","id":418507503},"arcs":[319]},{"type":"MultiLineString","properties":{"osm_relation":true,"kind":"ferry","network":"Waterbus","sort_rank":355,"landuse_kind":"urban_area","source":"openstreetmap.org","min_zoom":8.0,"all_networks":["Waterbus"],"shield_text":"n","id":-7317402,"all_shield_texts":["n"],"name":"Ferry Route (Insein) - Insein -> Botahtaung Jetty"},"arcs":[[320],[321]]},{"type":"LineString","properties":{"bus_network":"YRTA","name:en":"Sule Pagoda Road","sort_rank":380,"kind_detail":"primary","kind":"major_road","source":"openstreetmap.org","min_zoom":8.0,"bus_shield_text":"4","landuse_kind":"urban_area"},"arcs":[322]},{"type":"LineString","properties":{"kind":"major_road","name:en":"Strand Road","sort_rank":380,"kind_detail":"primary","bus_network":"YRTA","source":"openstreetmap.org","min_zoom":8.0,"alt_name:en":"Kan-na Road","bus_shield_text":"31","id":505465575},"arcs":[323]},{"type":"LineString","properties":{"kind":"major_road","name:en":"Shwegondine Rd","sort_rank":380,"kind_detail":"primary","bus_network":"YRTA","source":"openstreetmap.org","min_zoom":8.0,"bus_shield_text":"59","landuse_kind":"urban_area","id":489257536},"arcs":[324]},{"type":"MultiLineString","properties":{"bus_network":"YRTA","name:en":"Yangon-Pathein Highway","sort_rank":380,"kind_detail":"primary","kind":"major_road","source":"openstreetmap.org","min_zoom":8.0,"bus_shield_text":"6"},"arcs":[[325],[326],[327]]},{"type":"LineString","properties":{"kind":"major_road","sort_rank":380,"kind_detail":"primary","bus_network":"YRTA","source":"openstreetmap.org","min_zoom":8.0,"bus_shield_text":"36","ref":"2","id":24463274},"arcs":[328]},{"type":"MultiLineString","properties":{"bus_network":"YRTA","name:en":"Bargayar Road","sort_rank":380,"kind_detail":"primary","kind":"major_road","source":"openstreetmap.org","min_zoom":8.0,"bus_shield_text":"20","landuse_kind":"urban_area"},"arcs":[[329],[330],[331]]},{"type":"MultiLineString","properties":{"bus_network":"YRTA","name:en":"No: 1 Yangon - Mandalay Hwy","sort_rank":381,"kind_detail":"trunk","kind":"major_road","source":"openstreetmap.org","min_zoom":8.0,"bus_shield_text":"1","ref":"1"},"arcs":[[332],[333]]},{"type":"LineString","properties":{"kind":"major_road","name:en":"Thamaing Station Rd","sort_rank":380,"kind_detail":"primary","bus_network":"YRTA","source":"openstreetmap.org","min_zoom":8.0,"bus_shield_text":"16","landuse_kind":"urban_area","id":390404846},"arcs":[334]},{"type":"LineString","properties":{"kind":"major_road","name:en":"Radio Station Road","sort_rank":380,"landuse_kind":"urban_area","source":"openstreetmap.org","min_zoom":8.0,"kind_detail":"primary","id":4363262},"arcs":[335]},{"type":"MultiLineString","properties":{"cycleway_right":"lane","name:en":"Sule Pagoda Road","sort_rank":380,"kind_detail":"primary","is_bicycle_related":true,"kind":"major_road","bus_network":"YRTA","source":"openstreetmap.org","min_zoom":8.0,"bus_shield_text":"12","landuse_kind":"urban_area"},"arcs":[[336],[337]]},{"type":"MultiLineString","properties":{"bus_network":"YRTA","sort_rank":380,"kind_detail":"primary","kind":"major_road","source":"openstreetmap.org","min_zoom":8.0,"bus_shield_text":"31","landuse_kind":"urban_area"},"arcs":[[338],[339]]},{"type":"LineString","properties":{"bus_network":"YRTA","name:en":"Upper Pazundaung Road","sort_rank":380,"kind_detail":"primary","kind":"major_road","source":"openstreetmap.org","min_zoom":8.0,"bus_shield_text":"5","landuse_kind":"urban_area"},"arcs":[340]},{"type":"LineString","properties":{"kind":"major_road","name:en":"Sule Roundabout","sort_rank":380,"kind_detail":"primary","bus_network":"YRTA","source":"openstreetmap.org","min_zoom":8.0,"bus_shield_text":"4","landuse_kind":"urban_area","id":465695263},"arcs":[341]},{"type":"MultiLineString","properties":{"bus_network":"YRTA","name:en":"Banyar Dala Rd","sort_rank":380,"kind_detail":"primary","kind":"major_road","source":"openstreetmap.org","min_zoom":8.0,"bus_shield_text":"3","landuse_kind":"urban_area"},"arcs":[[342],[343]]},{"type":"LineString","properties":{"kind":"ferry","name:en":"Ferry Route (Botahtaung -> Insein)","network":"Yangon Water Bus","sort_rank":355,"source":"openstreetmap.org","min_zoom":8.0,"id":-7317403,"osm_relation":true,"name":"\u1016\u101a\u103a\u101b\u102e \u101c\u1019\u103a\u1038\u1000\u103c\u1031\u102c\u1004\u103a\u1038 (\u1017\u102d\u102f\u101c\u103a\u1010\u1005\u103a\u1011\u1031\u102c\u1004\u103a -> \u1021\u1004\u103a\u1038\u1005\u102d\u1014\u103a)"},"arcs":[344]},{"type":"MultiLineString","properties":{"bus_network":"YRTA","sort_rank":380,"kind_detail":"primary","kind":"major_road","source":"openstreetmap.org","min_zoom":8.0,"bus_shield_text":"11","landuse_kind":"urban_area"},"arcs":[[345],[346]]},{"type":"LineString","properties":{"source":"openstreetmap.org","kind":"major_road","name:en":"Parami Road","landuse_kind":"urban_area","sort_rank":380,"kind_detail":"primary","min_zoom":8.0},"arcs":[347]},{"type":"LineString","properties":{"kind":"major_road","sort_rank":380,"kind_detail":"primary","name:my":"\u1021\u1019\u103e\u1010\u103a \u1043 \u101c\u1019\u103a\u1038\u1019 \u1000\u103c\u102e\u1038","bus_network":"YRTA","source":"openstreetmap.org","min_zoom":8.0,"bus_shield_text":"35","landuse_kind":"urban_area","id":465850387},"arcs":[348]},{"type":"LineString","properties":{"bus_network":"YRTA","sort_rank":380,"kind_detail":"primary","kind":"major_road","source":"openstreetmap.org","min_zoom":8.0,"bus_shield_text":"1","landuse_kind":"urban_area"},"arcs":[349]},{"type":"LineString","properties":{"bus_network":"YRTA","name:en":"Bayint Naung Road","sort_rank":380,"kind_detail":"primary","kind":"major_road","source":"openstreetmap.org","min_zoom":8.0,"bus_shield_text":"19","landuse_kind":"urban_area"},"arcs":[350]},{"type":"LineString","properties":{"kind":"major_road","name:en":"Bo Min Gaung St","sort_rank":380,"landuse_kind":"urban_area","source":"openstreetmap.org","min_zoom":8.0,"kind_detail":"primary","id":538926171},"arcs":[351]},{"type":"LineString","properties":{"source":"openstreetmap.org","bus_network":"YRTA","bus_shield_text":"36","sort_rank":380,"kind_detail":"primary","min_zoom":8.0,"kind":"major_road"},"arcs":[352]},{"type":"LineString","properties":{"kind":"major_road","name:en":"Kyan Sit Thar Road","sort_rank":380,"kind_detail":"primary","bus_network":"YRTA","source":"openstreetmap.org","min_zoom":8.0,"bus_shield_text":"25","landuse_kind":"urban_area","id":499213910},"arcs":[353]},{"type":"LineString","properties":{"source":"openstreetmap.org","kind":"major_road","name:en":"U Chit Maung Rd","landuse_kind":"urban_area","sort_rank":380,"kind_detail":"primary","min_zoom":8.0},"arcs":[354]},{"type":"LineString","properties":{"source":"openstreetmap.org","kind":"major_road","landuse_kind":"urban_area","sort_rank":380,"kind_detail":"primary","is_bicycle_related":true,"min_zoom":8.0},"arcs":[355]},{"type":"LineString","properties":{"bus_network":"YRTA","name:en":"Pyay Road","sort_rank":380,"kind_detail":"primary","kind":"major_road","source":"openstreetmap.org","min_zoom":8.0,"alt_name:en":"Prome Road","bus_shield_text":"6","landuse_kind":"urban_area"},"arcs":[356]},{"type":"LineString","properties":{"source":"openstreetmap.org","kind":"major_road","name:en":"Strand Road","sort_rank":380,"kind_detail":"primary","alt_name:en":"Kan-na Road","min_zoom":8.0},"arcs":[357]},{"type":"MultiLineString","properties":{"bus_network":"YRTA","name:en":"Lay Dauk Kan Road","sort_rank":380,"kind_detail":"primary","kind":"major_road","source":"openstreetmap.org","min_zoom":8.0,"bus_shield_text":"1","landuse_kind":"urban_area"},"arcs":[[358],[359],[360]]},{"type":"LineString","properties":{"kind":"major_road","name:en":"Pyi Road","sort_rank":380,"kind_detail":"primary","bus_network":"YRTA","source":"openstreetmap.org","min_zoom":8.0,"alt_name:en":"Prome Road","bus_shield_text":"35","landuse_kind":"urban_area","id":515812988},"arcs":[361]},{"type":"LineString","properties":{"bus_network":"YRTA","name:en":"Pyi Htaung Su Road","sort_rank":380,"kind_detail":"primary","kind":"major_road","source":"openstreetmap.org","min_zoom":8.0,"bus_shield_text":"2","landuse_kind":"urban_area"},"arcs":[362]},{"type":"LineString","properties":{"bus_network":"YRTA","name:en":"Yamonna Road","sort_rank":380,"kind_detail":"primary","kind":"major_road","source":"openstreetmap.org","min_zoom":8.0,"bus_shield_text":"4","landuse_kind":"urban_area"},"arcs":[363]},{"type":"LineString","properties":{"bus_network":"YRTA","name:en":"Strand Road","sort_rank":380,"kind_detail":"primary","kind":"major_road","source":"openstreetmap.org","min_zoom":8.0,"alt_name:en":"Kan-na Road","bus_shield_text":"20","landuse_kind":"urban_area"},"arcs":[364]},{"type":"LineString","properties":{"bus_network":"YRTA","name:en":"Thamaing Station Rd","sort_rank":380,"kind_detail":"primary","kind":"major_road","source":"openstreetmap.org","min_zoom":8.0,"bus_shield_text":"15","landuse_kind":"urban_area"},"arcs":[365]},{"type":"MultiLineString","properties":{"bus_network":"YRTA","name:en":"\u1026\u1038\u1011\u1031\u102c\u1004\u103a\u1018\u102d\u102f\u1021\u101d\u102d\u102f\u1004\u103a\u1038 - U Htaung Bo Roundabout","sort_rank":380,"kind_detail":"primary","kind":"major_road","source":"openstreetmap.org","min_zoom":8.0,"bus_shield_text":"8","landuse_kind":"urban_area"},"arcs":[[366],[367]]},{"type":"MultiLineString","properties":{"bus_network":"YRTA","sort_rank":380,"kind_detail":"primary","kind":"major_road","source":"openstreetmap.org","min_zoom":8.0,"bus_shield_text":"6","landuse_kind":"urban_area"},"arcs":[[368],[369]]},{"type":"MultiLineString","properties":{"kind":"highway","network":"AsianHighway","sort_rank":383,"kind_detail":"motorway","source":"openstreetmap.org","min_zoom":8.0,"all_networks":["AsianHighway"],"shield_text":"1","all_shield_texts":["1"]},"arcs":[[370],[371],[372]]},{"type":"LineString","properties":{"bus_network":"YRTA","name:en":"Pyay ( Prome) Rd","sort_rank":380,"kind_detail":"primary","name:my":"\u1015\u103c\u100a\u103a\u101c\u1019\u103a\u1038","kind":"major_road","source":"openstreetmap.org","min_zoom":8.0,"bus_shield_text":"21","landuse_kind":"urban_area"},"arcs":[373]},{"type":"LineString","properties":{"kind":"major_road","sort_rank":380,"kind_detail":"primary","is_bicycle_related":true,"bus_network":"YRTA","source":"openstreetmap.org","min_zoom":8.0,"bus_shield_text":"20","landuse_kind":"urban_area","id":390404845},"arcs":[374]},{"type":"LineString","properties":{"kind":"major_road","name:en":"Minnandar Road","sort_rank":380,"kind_detail":"primary","name:my":"\u1019\u1004\u103a\u1038\u1014\u1014\u1039\u1012\u102c\u101c\u1019\u103a\u1038\u1019\u1000\u103c\u102e\u1038","bus_network":"YRTA","source":"openstreetmap.org","min_zoom":8.0,"bus_shield_text":"10","landuse_kind":"urban_area","id":4360725},"arcs":[375]},{"type":"MultiLineString","properties":{"bus_network":"YRTA","alt_name:en":"Kaba Aye Pagoda Road","sort_rank":380,"kind_detail":"primary","kind":"major_road","source":"openstreetmap.org","min_zoom":8.0,"name:en":"Kabar Aye Pagoda Road","bus_shield_text":"14","landuse_kind":"urban_area"},"arcs":[[376],[377]]},{"type":"LineString","properties":{"kind":"major_road","name:en":"No.6 Road","sort_rank":380,"kind_detail":"primary","bus_network":"YRTA","source":"openstreetmap.org","min_zoom":8.0,"bus_shield_text":"34","id":40480466},"arcs":[378]},{"type":"MultiLineString","properties":{"bus_network":"YRTA","name:en":"Kyimyindine Kannar Road","sort_rank":380,"kind_detail":"primary","kind":"major_road","source":"openstreetmap.org","min_zoom":8.0,"bus_shield_text":"14","landuse_kind":"urban_area"},"arcs":[[379],[380]]},{"type":"LineString","properties":{"source":"openstreetmap.org","kind":"major_road","network":"AsianHighway","sort_rank":381,"kind_detail":"trunk","min_zoom":8.0,"shield_text":"1"},"arcs":[381]},{"type":"LineString","properties":{"kind":"major_road","name:en":"U Chit Maung Rd","sort_rank":380,"kind_detail":"primary","bus_network":"YRTA","source":"openstreetmap.org","min_zoom":8.0,"bus_shield_text":"12","landuse_kind":"urban_area","id":252083334},"arcs":[382]},{"type":"LineString","properties":{"source":"openstreetmap.org","kind":"major_road","landuse_kind":"urban_area","sort_rank":380,"kind_detail":"primary","name:my":"\u1017\u102d\u102f\u101c\u103a\u1019\u1004\u103a\u1038\u1002\u1031\u102b\u1004\u103a\u101c\u1019\u103a\u1038","min_zoom":8.0},"arcs":[383]},{"type":"LineString","properties":{"kind":"major_road","name:en":"Sule Pagoda Road","sort_rank":380,"kind_detail":"primary","bus_network":"YRTA","source":"openstreetmap.org","min_zoom":8.0,"bus_shield_text":"28","landuse_kind":"urban_area","id":217619932},"arcs":[384]},{"type":"LineString","properties":{"bus_network":"YRTA","name:en":"Pyay Road","sort_rank":380,"kind_detail":"primary","kind":"major_road","source":"openstreetmap.org","min_zoom":8.0,"bus_shield_text":"35","landuse_kind":"urban_area"},"arcs":[385]},{"type":"MultiLineString","properties":{"sort_rank":383,"kind_detail":"motorway","min_zoom":8.0,"kind":"highway","source":"openstreetmap.org"},"arcs":[[386],[387],[388],[389],[390],[391]]},{"type":"LineString","properties":{"bus_network":"YRTA","name:en":"Kyikekhauk Pagoda Road","sort_rank":380,"landuse_kind":"residential","kind":"major_road","source":"openstreetmap.org","min_zoom":8.0,"bus_shield_text":"31","kind_detail":"primary"},"arcs":[392]},{"type":"LineString","properties":{"source":"openstreetmap.org","kind":"major_road","landuse_kind":"urban_area","sort_rank":380,"kind_detail":"primary","name:my":"\u1010\u1000\u1039\u1000\u101e\u102d\u102f\u101c\u103a\u101b\u102d\u1015\u103a\u101e\u102c \u101c\u1019\u103a\u1038\u101e\u1005\u103a","min_zoom":8.0},"arcs":[393]},{"type":"LineString","properties":{"kind":"major_road","name:en":"Saya San Road","sort_rank":380,"kind_detail":"primary","bus_network":"YRTA","source":"openstreetmap.org","min_zoom":8.0,"bus_shield_text":"12","landuse_kind":"urban_area","id":463274617},"arcs":[394]},{"type":"MultiLineString","properties":{"bus_network":"YRTA","sort_rank":380,"kind_detail":"primary","kind":"major_road","source":"openstreetmap.org","min_zoom":8.0,"bus_shield_text":"19","landuse_kind":"urban_area"},"arcs":[[395],[396]]},{"type":"LineString","properties":{"kind":"major_road","sort_rank":380,"kind_detail":"primary","name:my":"\u1010\u1000\u1039\u1000\u101e\u102d\u102f\u101c\u103a\u101b\u102d\u1015\u103a\u101e\u102c","bus_network":"YRTA","source":"openstreetmap.org","min_zoom":8.0,"bus_shield_text":"14","landuse_kind":"urban_area","id":479020097},"arcs":[397]},{"type":"MultiLineString","properties":{"bus_network":"YRTA","name:en":"Thanlyin Tadarr Chin Kat Road","sort_rank":380,"kind_detail":"primary","kind":"major_road","source":"openstreetmap.org","min_zoom":8.0,"bus_shield_text":"4","landuse_kind":"urban_area"},"arcs":[[398],[399]]},{"type":"MultiLineString","properties":{"bus_network":"YRTA","name:en":"Bayint Naung Road","sort_rank":380,"kind_detail":"primary","kind":"major_road","source":"openstreetmap.org","min_zoom":8.0,"bus_shield_text":"23A","landuse_kind":"urban_area"},"arcs":[[400],[401]]},{"type":"LineString","properties":{"source":"openstreetmap.org","kind":"major_road","sort_rank":380,"kind_detail":"primary","name:my":"\u1021\u1019\u103e\u1010\u103a \u1043 \u101c\u1019\u103a\u1038\u1019 \u1000\u103c\u102e\u1038","min_zoom":8.0,"id":490508786},"arcs":[402]},{"type":"MultiLineString","properties":{"source":"openstreetmap.org","kind":"major_road","landuse_kind":"urban_area","sort_rank":380,"kind_detail":"primary","name:my":"\u1005\u103d\u101a\u103a\u1010\u1031\u102c\u103a\u101c\u1019\u103a\u1038","min_zoom":8.0},"arcs":[[403],[404],[405],[406]]},{"type":"LineString","properties":{"bus_network":"YRTA","name:en":"Upper Pazundaung Road","sort_rank":380,"kind_detail":"primary","kind":"major_road","source":"openstreetmap.org","min_zoom":8.0,"bus_shield_text":"9","landuse_kind":"urban_area"},"arcs":[407]},{"type":"LineString","properties":{"bus_network":"YRTA","name:en":"Bogyoke Aung San Road","sort_rank":380,"kind_detail":"primary","bus_shield_text":"4","kind":"major_road","source":"openstreetmap.org","min_zoom":8.0,"old_name":"Montgomery Road;Commissioner Road","landuse_kind":"urban_area"},"arcs":[408]},{"type":"LineString","properties":{"kind":"major_road","name:en":"Yamonna Road","sort_rank":380,"kind_detail":"primary","bus_network":"YRTA","source":"openstreetmap.org","min_zoom":8.0,"bus_shield_text":"31","id":489858574},"arcs":[409]},{"type":"MultiLineString","properties":{"source":"openstreetmap.org","kind":"major_road","landuse_kind":"urban_area","sort_rank":380,"kind_detail":"primary","name:my":"\u101e\u102f\u1013\u1019\u1039\u1019\u102c\u101c\u1019\u103a\u1038","min_zoom":8.0},"arcs":[[410],[411],[412],[413],[414],[415]]},{"type":"MultiLineString","properties":{"bus_network":"YRTA","sort_rank":380,"kind_detail":"primary","kind":"major_road","source":"openstreetmap.org","min_zoom":8.0,"bus_shield_text":"12","landuse_kind":"urban_area"},"arcs":[[416],[417]]},{"type":"MultiLineString","properties":{"bus_network":"YRTA","name:en":"Thanlyin Chin Kat Road","sort_rank":380,"kind_detail":"primary","kind":"major_road","source":"openstreetmap.org","min_zoom":8.0,"bus_shield_text":"4","landuse_kind":"urban_area"},"arcs":[[418],[419]]},{"type":"LineString","properties":{"kind":"major_road","sort_rank":380,"kind_detail":"primary","bus_network":"YRTA","source":"openstreetmap.org","min_zoom":8.0,"bus_shield_text":"52","id":489754148},"arcs":[420]},{"type":"MultiLineString","properties":{"bus_network":"YRTA","name:en":"Pyay Road","sort_rank":380,"kind_detail":"primary","kind":"major_road","source":"openstreetmap.org","min_zoom":8.0,"bus_shield_text":"37","landuse_kind":"urban_area"},"arcs":[[421],[422],[423],[424],[425]]},{"type":"LineString","properties":{"bus_network":"YRTA","name:en":"Hlaing River Road","sort_rank":380,"kind_detail":"primary","kind":"major_road","source":"openstreetmap.org","min_zoom":8.0,"bus_shield_text":"23A","landuse_kind":"urban_area"},"arcs":[426]},{"type":"LineString","properties":{"bus_network":"YRTA","name:en":"\u1006\u101b\u102c\u1005\u1036\u101c\u1019\u103a\u1038 - Saya San Rd","sort_rank":380,"kind_detail":"primary","kind":"major_road","source":"openstreetmap.org","min_zoom":8.0,"bus_shield_text":"12","landuse_kind":"urban_area"},"arcs":[427]},{"type":"LineString","properties":{"cycleway_right":"lane","name:en":"Arzani Street","sort_rank":380,"kind_detail":"primary","is_bicycle_related":true,"bus_network":"YRTA","source":"openstreetmap.org","min_zoom":8.0,"bus_shield_text":"11","landuse_kind":"urban_area","kind":"major_road"},"arcs":[428]},{"type":"LineString","properties":{"kind":"major_road","name:en":"Pyay Road","sort_rank":380,"kind_detail":"primary","bus_network":"YRTA","source":"openstreetmap.org","min_zoom":8.0,"alt_name:en":"Prome Road","bus_shield_text":"37","landuse_kind":"urban_area","id":514101307},"arcs":[429]},{"type":"MultiLineString","properties":{"kind":"major_road","alt_name:en":"Helpin Road","sort_rank":380,"kind_detail":"primary","source":"openstreetmap.org","min_zoom":8.0,"name:en":"Ahlone Road","landuse_kind":"urban_area"},"arcs":[[430],[431],[432]]},{"type":"LineString","properties":{"kind":"major_road","name:en":"Strand Road","sort_rank":380,"kind_detail":"primary","bus_network":"YRTA","source":"openstreetmap.org","min_zoom":8.0,"alt_name:en":"Kan-na Road","bus_shield_text":"21","landuse_kind":"urban_area","id":505445883},"arcs":[433]},{"type":"LineString","properties":{"kind":"major_road","name:en":"\u1026\u1038\u1011\u1031\u102c\u1004\u103a\u1018\u102d\u102f\u1021\u101d\u102d\u102f\u1004\u103a\u1038 - U Htaung Bo Roundabout","sort_rank":380,"kind_detail":"primary","bus_network":"YRTA","source":"openstreetmap.org","min_zoom":8.0,"bus_shield_text":"12","landuse_kind":"urban_area","id":465675561},"arcs":[434]},{"type":"MultiLineString","properties":{"bus_network":"YRTA","name:en":"Natmauk Rd","sort_rank":380,"kind_detail":"primary","kind":"major_road","source":"openstreetmap.org","min_zoom":8.0,"bus_shield_text":"8","landuse_kind":"urban_area"},"arcs":[[435],[436]]},{"type":"LineString","properties":{"kind":"major_road","sort_rank":380,"kind_detail":"primary","bus_network":"YRTA","source":"openstreetmap.org","min_zoom":8.0,"bus_shield_text":"16","landuse_kind":"urban_area","id":253295190},"arcs":[437]},{"type":"MultiLineString","properties":{"source":"openstreetmap.org","kind":"major_road","name:en":"Waizayantar Road","landuse_kind":"urban_area","sort_rank":380,"kind_detail":"primary","min_zoom":8.0},"arcs":[[438],[439],[440],[441]]},{"type":"LineString","properties":{"bus_network":"YRTA","name:en":"Strand Road","sort_rank":380,"kind_detail":"primary","kind":"major_road","source":"openstreetmap.org","min_zoom":8.0,"alt_name:en":"Kan-na Road","bus_shield_text":"25","landuse_kind":"urban_area"},"arcs":[442]},{"type":"MultiLineString","properties":{"kind":"major_road","name:en":"Strand Road","sort_rank":380,"kind_detail":"primary","source":"openstreetmap.org","min_zoom":8.0,"alt_name:en":"Kan-na Road","landuse_kind":"urban_area"},"arcs":[[443],[444],[445],[446],[447],[448],[449]]},{"type":"LineString","properties":{"bus_network":"YRTA","sort_rank":381,"kind_detail":"trunk","kind":"major_road","source":"openstreetmap.org","min_zoom":8.0,"bus_shield_text":"51","landuse_kind":"residential","ref":"1"},"arcs":[450]},{"type":"LineString","properties":{"kind":"major_road","name:en":"Thitsa Rd","sort_rank":380,"kind_detail":"primary","bus_network":"YRTA","source":"openstreetmap.org","min_zoom":8.0,"bus_shield_text":"29","landuse_kind":"urban_area","id":417340294},"arcs":[451]},{"type":"LineString","properties":{"source":"openstreetmap.org","kind":"major_road","name:en":"Kyan Sit Thar Road","sort_rank":380,"kind_detail":"primary","min_zoom":8.0},"arcs":[452]},{"type":"LineString","properties":{"kind":"major_road","alt_name:en":"Waizayanta Road","sort_rank":380,"landuse_kind":"urban_area","source":"openstreetmap.org","min_zoom":8.0,"kind_detail":"primary","id":252081614},"arcs":[453]},{"type":"LineString","properties":{"bus_network":"YRTA","name:en":"Thamaing Station Road","sort_rank":380,"kind_detail":"primary","kind":"major_road","source":"openstreetmap.org","min_zoom":8.0,"bus_shield_text":"16","landuse_kind":"urban_area"},"arcs":[454]},{"type":"MultiLineString","properties":{"bus_network":"YRTA","alt_name:en":"Kaba Aye Pagoda Road","sort_rank":380,"kind_detail":"primary","kind":"major_road","source":"openstreetmap.org","min_zoom":8.0,"name:en":"Kabar Aye Pagoda Road","bus_shield_text":"6","landuse_kind":"urban_area"},"arcs":[[455],[456],[457]]},{"type":"LineString","properties":{"kind":"major_road","name:en":"Kyaikasan Road","sort_rank":380,"kind_detail":"primary","bus_network":"YRTA","source":"openstreetmap.org","min_zoom":8.0,"bus_shield_text":"33","landuse_kind":"urban_area","id":467181771},"arcs":[458]},{"type":"MultiLineString","properties":{"bus_network":"YRTA","name:en":"Bogyoke Aung San Road","sort_rank":380,"kind_detail":"primary","old_name":"Montgomery Road;Commissioner Road","kind":"major_road","source":"openstreetmap.org","min_zoom":8.0,"bus_shield_text":"20","landuse_kind":"urban_area"},"arcs":[[459],[460]]},{"type":"LineString","properties":{"kind":"major_road","name:en":"Bo Min Gaung St","sort_rank":380,"kind_detail":"primary","bus_network":"YRTA","source":"openstreetmap.org","min_zoom":8.0,"bus_shield_text":"80","landuse_kind":"urban_area","id":35894644},"arcs":[461]},{"type":"MultiLineString","properties":{"bus_network":"YRTA","name:en":"Pyay Road","sort_rank":380,"kind_detail":"primary","kind":"major_road","source":"openstreetmap.org","min_zoom":8.0,"bus_shield_text":"6","landuse_kind":"urban_area"},"arcs":[[462],[463]]},{"type":"LineString","properties":{"bus_network":"YRTA","name:en":"Bargayar Road","sort_rank":380,"kind_detail":"primary","kind":"major_road","source":"openstreetmap.org","min_zoom":8.0,"bus_shield_text":"11","landuse_kind":"urban_area"},"arcs":[464]},{"type":"LineString","properties":{"kind":"major_road","name:en":"Thanlyin Chin Kat Road","sort_rank":380,"kind_detail":"primary","bus_network":"YRTA","source":"openstreetmap.org","min_zoom":8.0,"bus_shield_text":"32","landuse_kind":"urban_area","id":467678954},"arcs":[465]},{"type":"MultiLineString","properties":{"source":"openstreetmap.org","kind":"major_road","landuse_kind":"urban_area","sort_rank":380,"kind_detail":"primary","name:my":"\u1026\u1038\u1011\u1031\u102c\u1004\u103a\u1018\u102d\u102f\u101c\u1019\u103a\u1038","min_zoom":8.0},"arcs":[[466],[467]]},{"type":"MultiLineString","properties":{"bus_network":"YRTA","name:en":"Lay Dauk Kan Road","sort_rank":380,"kind_detail":"primary","kind":"major_road","source":"openstreetmap.org","min_zoom":8.0,"bus_shield_text":"3","landuse_kind":"urban_area"},"arcs":[[468],[469],[470]]},{"type":"MultiLineString","properties":{"bus_network":"YRTA","name:en":"No 1 Yangon - Mandalay Highway","sort_rank":380,"kind_detail":"primary","kind":"major_road","source":"openstreetmap.org","min_zoom":8.0,"bus_shield_text":"37"},"arcs":[[471],[472],[473],[474]]},{"type":"MultiLineString","properties":{"bus_network":"YRTA","sort_rank":380,"kind_detail":"primary","name:my":"\u101e\u102f\u1013\u1019\u1039\u1019\u102c\u101c\u1019\u103a\u1038","kind":"major_road","source":"openstreetmap.org","min_zoom":8.0,"bus_shield_text":"10","landuse_kind":"urban_area"},"arcs":[[475],[476],[477],[478]]},{"type":"LineString","properties":{"kind":"major_road","name:en":"Pyi Road","sort_rank":380,"kind_detail":"primary","bus_network":"YRTA","source":"openstreetmap.org","min_zoom":8.0,"bus_shield_text":"35","landuse_kind":"urban_area","id":515792848},"arcs":[479]},{"type":"LineString","properties":{"bus_network":"YRTA","name:en":"Bogyoke Aung San Road","sort_rank":380,"kind_detail":"primary","bus_shield_text":"5","kind":"major_road","source":"openstreetmap.org","min_zoom":8.0,"old_name":"Montgomery Road;Commissioner Road","landuse_kind":"urban_area"},"arcs":[480]},{"type":"LineString","properties":{"kind":"major_road","name:en":"University Avenue","sort_rank":380,"kind_detail":"primary","is_bicycle_related":true,"bus_network":"YRTA","cycleway":"lane","source":"openstreetmap.org","min_zoom":8.0,"bus_shield_text":"14","landuse_kind":"urban_area","id":318325538},"arcs":[481]},{"type":"LineString","properties":{"source":"openstreetmap.org","bus_network":"YRTA","bus_shield_text":"47","sort_rank":380,"kind_detail":"primary","min_zoom":8.0,"kind":"major_road"},"arcs":[482]},{"type":"LineString","properties":{"kind":"major_road","name:en":"No.6 Road","sort_rank":380,"kind_detail":"primary","bus_network":"YRTA","source":"openstreetmap.org","min_zoom":8.0,"bus_shield_text":"31","id":540582226},"arcs":[483]},{"type":"MultiLineString","properties":{"kind":"major_road","name:en":"Kyaikasan Road","sort_rank":380,"kind_detail":"primary","is_bicycle_related":true,"source":"openstreetmap.org","min_zoom":8.0,"landuse_kind":"urban_area"},"arcs":[[484],[485]]},{"type":"LineString","properties":{"kind":"major_road","name:en":"Maha Bandula Road","sort_rank":380,"kind_detail":"primary","bus_network":"YRTA","source":"openstreetmap.org","min_zoom":8.0,"old_name:en":"Dalhousie Road","bus_shield_text":"11","landuse_kind":"urban_area","id":478390748},"arcs":[486]},{"type":"LineString","properties":{"kind":"major_road","name:en":"Saya San Road","sort_rank":380,"kind_detail":"primary","name:my":"\u1006\u101b\u102c\u1005\u1036\u101c\u1019\u103a\u1038","source":"openstreetmap.org","min_zoom":8.0,"landuse_kind":"urban_area"},"arcs":[487]},{"type":"LineString","properties":{"bus_network":"YRTA","sort_rank":380,"kind_detail":"primary","kind":"major_road","source":"openstreetmap.org","min_zoom":8.0,"bus_shield_text":"31","landuse_kind":"residential"},"arcs":[488]},{"type":"MultiLineString","properties":{"bus_network":"YRTA","name:en":"Waizayanta Road","sort_rank":380,"kind_detail":"primary","kind":"major_road","source":"openstreetmap.org","min_zoom":8.0,"bus_shield_text":"10","landuse_kind":"urban_area"},"arcs":[[489],[490]]},{"type":"MultiLineString","properties":{"bus_network":"YRTA","name:en":"No 1 Yangon - Mandalay Highway","sort_rank":380,"kind_detail":"primary","kind":"major_road","source":"openstreetmap.org","min_zoom":8.0,"bus_shield_text":"35"},"arcs":[[491],[492],[493]]},{"type":"MultiLineString","properties":{"source":"openstreetmap.org","kind":"ferry","sort_rank":355,"landuse_kind":"urban_area","min_zoom":8.0,"id":498825402},"arcs":[[494],[495]]},{"type":"LineString","properties":{"kind":"major_road","name:en":"Kyaikasan Road","sort_rank":380,"kind_detail":"primary","bus_network":"YRTA","source":"openstreetmap.org","min_zoom":8.0,"bus_shield_text":"18","landuse_kind":"urban_area","id":466051725},"arcs":[496]},{"type":"LineString","properties":{"cycleway_right":"lane","name:en":"Sule Roundabout","sort_rank":380,"kind_detail":"primary","is_bicycle_related":true,"bus_network":"YRTA","kind":"major_road","source":"openstreetmap.org","min_zoom":8.0,"bus_shield_text":"12","landuse_kind":"urban_area","id":438512056},"arcs":[497]},{"type":"MultiLineString","properties":{"source":"openstreetmap.org","kind":"major_road","sort_rank":381,"kind_detail":"trunk","ref":"1","min_zoom":8.0},"arcs":[[498],[499],[500],[501],[502]]},{"type":"LineString","properties":{"bus_network":"YRTA","sort_rank":380,"kind_detail":"primary","name:my":"\u1021\u1019\u103e\u1010\u103a \u1043 \u101c\u1019\u103a\u1038\u1019 \u1000\u103c\u102e\u1038","kind":"major_road","source":"openstreetmap.org","min_zoom":8.0,"bus_shield_text":"35"},"arcs":[503]},{"type":"LineString","properties":{"kind":"major_road","name:en":"Thamaing Station Road","sort_rank":380,"kind_detail":"primary","bus_network":"YRTA","source":"openstreetmap.org","min_zoom":8.0,"bus_shield_text":"20","landuse_kind":"urban_area","id":253295188},"arcs":[504]},{"type":"LineString","properties":{"kind":"major_road","name:en":"Shukhintha Bypass Road","sort_rank":380,"kind_detail":"primary","bus_network":"YRTA","source":"openstreetmap.org","min_zoom":8.0,"bus_shield_text":"31","id":183090266},"arcs":[505]},{"type":"MultiLineString","properties":{"bus_network":"YRTA","name:en":"Bargaya Road","sort_rank":380,"kind_detail":"primary","kind":"major_road","source":"openstreetmap.org","min_zoom":8.0,"bus_shield_text":"11","landuse_kind":"urban_area"},"arcs":[[506],[507],[508]]},{"type":"LineString","properties":{"cycleway_right":"lane","name:en":"Bogyoke Aung San Road","sort_rank":380,"kind_detail":"primary","old_name":"Montgomery Road;Commissioner Road","is_bicycle_related":true,"bus_network":"YRTA","source":"openstreetmap.org","min_zoom":8.0,"bus_shield_text":"4","landuse_kind":"urban_area","kind":"major_road"},"arcs":[509]},{"type":"MultiLineString","properties":{"source":"openstreetmap.org","kind":"major_road","name:en":"Okkala Road","landuse_kind":"urban_area","sort_rank":380,"kind_detail":"primary","min_zoom":8.0},"arcs":[[510],[511]]},{"type":"MultiLineString","properties":{"bus_network":"YRTA","sort_rank":380,"kind_detail":"primary","kind":"major_road","source":"openstreetmap.org","min_zoom":8.0,"bus_shield_text":"2","landuse_kind":"urban_area"},"arcs":[[512],[513]]},{"type":"LineString","properties":{"cycleway_right":"lane","name:en":"Maha Bandula Road","sort_rank":380,"kind_detail":"primary","is_bicycle_related":true,"bus_network":"YRTA","source":"openstreetmap.org","min_zoom":8.0,"old_name:en":"Dalhousie Road","bus_shield_text":"4","landuse_kind":"urban_area","kind":"major_road"},"arcs":[514]},{"type":"MultiLineString","properties":{"bus_network":"YRTA","name:en":"Insein Road","sort_rank":380,"landuse_kind":"urban_area","kind":"major_road","source":"openstreetmap.org","min_zoom":8.0,"bus_shield_text":"21","kind_detail":"primary"},"arcs":[[515],[516],[517]]},{"type":"LineString","properties":{"bus_network":"YRTA","name:en":"Shwegondine Road","sort_rank":380,"kind_detail":"primary","kind":"major_road","source":"openstreetmap.org","min_zoom":8.0,"bus_shield_text":"20","landuse_kind":"urban_area"},"arcs":[518]},{"type":"LineString","properties":{"kind":"major_road","name:en":"Kabar Aye Pagoda Road","sort_rank":380,"kind_detail":"primary","bus_network":"YRTA","source":"openstreetmap.org","min_zoom":8.0,"alt_name:en":"Kaba Aye Pagoda Road","bus_shield_text":"15","landuse_kind":"urban_area","id":514385378},"arcs":[519]},{"type":"LineString","properties":{"source":"openstreetmap.org","kind":"highway","sort_rank":383,"kind_detail":"motorway","name:my":"\u101b\u1014\u103a\u1000\u102f\u1014\u103a\u2212 \u1014\u1031\u1015\u103c\u100a\u103a\u1010\u1031\u102c\u103a\u2212 \u1019\u1014\u1039\u1010\u101c\u1031\u1038 \u1021\u1019\u103c\u1014\u103a\u101c\u1019\u103a\u1038\u1019\u1000\u103c\u102e\u1038","min_zoom":8.0,"id":197442956},"arcs":[520]},{"type":"LineString","properties":{"kind":"major_road","name:en":"\u101c\u1019\u1039\u1038\u101e\u1005\u1039\u101c\u1019\u1039\u1038- Lanthit Rd","sort_rank":380,"kind_detail":"primary","bus_network":"YRTA","source":"openstreetmap.org","min_zoom":8.0,"bus_shield_text":"6","landuse_kind":"urban_area","id":417340996},"arcs":[521]},{"type":"MultiLineString","properties":{"bus_network":"YRTA","sort_rank":380,"kind_detail":"primary","kind":"major_road","source":"openstreetmap.org","min_zoom":8.0,"bus_shield_text":"4","landuse_kind":"urban_area"},"arcs":[[522],[523],[524],[525],[526]]},{"type":"LineString","properties":{"kind":"major_road","sort_rank":380,"kind_detail":"primary","name:my":"\u1021\u1004\u103a\u1038\u1005\u102d\u1014\u103a \u100a\u1031\u102c\u1004\u103a\u1010\u102f\u1014\u103a\u1038\u101c\u1019\u103a\u1038\u1019\u1000\u103c\u102e\u1038","bus_network":"YRTA","source":"openstreetmap.org","min_zoom":8.0,"bus_shield_text":"23A","landuse_kind":"urban_area","id":489772863},"arcs":[527]},{"type":"MultiLineString","properties":{"source":"openstreetmap.org","kind":"major_road","name:en":"Kyaikasan Road","landuse_kind":"urban_area","sort_rank":380,"kind_detail":"primary","min_zoom":8.0},"arcs":[[528],[529],[530]]},{"type":"MultiLineString","properties":{"source":"openstreetmap.org","kind":"highway","sort_rank":383,"kind_detail":"motorway","ref":"1","min_zoom":8.0},"arcs":[[531],[532],[533]]},{"type":"MultiLineString","properties":{"bus_network":"YRTA","sort_rank":380,"kind_detail":"primary","name:my":"\u1021\u1019\u103e\u1010\u103a \u1043 \u101c\u1019\u103a\u1038\u1019 \u1000\u103c\u102e\u1038","kind":"major_road","source":"openstreetmap.org","min_zoom":8.0,"bus_shield_text":"36"},"arcs":[[534],[535],[536],[537],[538]]},{"type":"LineString","properties":{"kind":"major_road","sort_rank":380,"kind_detail":"primary","name:my":"\u1026\u1038\u101d\u102e\u1005\u102c\u101b\u101c\u1019\u103a\u1038","source":"openstreetmap.org","min_zoom":8.0,"landuse_kind":"urban_area","is_bicycle_related":true},"arcs":[539]},{"type":"LineString","properties":{"bus_network":"YRTA","name:en":"Yamonna Road","sort_rank":380,"landuse_kind":"urban_area","kind":"major_road","source":"openstreetmap.org","min_zoom":8.0,"bus_shield_text":"31","kind_detail":"primary"},"arcs":[540]},{"type":"LineString","properties":{"kind":"major_road","name:en":"Sule Roundabout","sort_rank":380,"landuse_kind":"urban_area","source":"openstreetmap.org","min_zoom":8.0,"kind_detail":"primary","id":465695267},"arcs":[541]},{"type":"LineString","properties":{"kind":"major_road","sort_rank":380,"kind_detail":"primary","bus_network":"YRTA","source":"openstreetmap.org","min_zoom":8.0,"bus_shield_text":"17","id":465675598},"arcs":[542]},{"type":"LineString","properties":{"kind":"major_road","name:en":"May Ni Gone Overpass","sort_rank":380,"kind_detail":"primary","bus_network":"YRTA","source":"openstreetmap.org","min_zoom":8.0,"bus_shield_text":"21","landuse_kind":"urban_area","id":463264259},"arcs":[543]},{"type":"MultiLineString","properties":{"bus_network":"YRTA","name:en":"Sule Pagoda Road","sort_rank":380,"kind_detail":"primary","kind":"major_road","source":"openstreetmap.org","min_zoom":8.0,"bus_shield_text":"12","landuse_kind":"urban_area"},"arcs":[[544],[545],[546]]},{"type":"LineString","properties":{"kind":"major_road","name:en":"Arzani Street","sort_rank":380,"kind_detail":"primary","is_bicycle_related":true,"bus_network":"YRTA","cycleway":"lane","source":"openstreetmap.org","min_zoom":8.0,"bus_shield_text":"11","landuse_kind":"urban_area","id":489235410},"arcs":[547]},{"type":"LineString","properties":{"bus_network":"YRTA","name:en":"Bayint Naung Road","sort_rank":380,"kind_detail":"primary","kind":"major_road","source":"openstreetmap.org","min_zoom":8.0,"bus_shield_text":"15","landuse_kind":"urban_area"},"arcs":[548]},{"type":"MultiLineString","properties":{"bus_network":"YRTA","sort_rank":380,"kind_detail":"primary","name:my":"\u1005\u1000\u103a\u1019\u103e\u102f \u1041 \u101c\u1019\u103a\u1038","kind":"major_road","source":"openstreetmap.org","min_zoom":8.0,"bus_shield_text":"64","landuse_kind":"urban_area"},"arcs":[[549],[550],[551]]},{"type":"LineString","properties":{"kind":"major_road","sort_rank":380,"kind_detail":"primary","name:my":"\u1021\u1004\u103a\u1038\u1005\u102d\u1014\u103a \u100a\u1031\u102c\u1004\u103a\u1010\u102f\u1014\u103a\u1038\u101c\u1019\u103a\u1038\u1019\u1000\u103c\u102e\u1038","bus_network":"YRTA","source":"openstreetmap.org","min_zoom":8.0,"bus_shield_text":"23A","id":489772863},"arcs":[552]},{"type":"LineString","properties":{"bus_network":"YRTA","sort_rank":380,"kind_detail":"primary","name:my":"\u101e\u102f\u1013\u1019\u1039\u1019\u102c\u101c\u1019\u103a\u1038","kind":"major_road","source":"openstreetmap.org","min_zoom":8.0,"bus_shield_text":"2","landuse_kind":"urban_area"},"arcs":[553]},{"type":"LineString","properties":{"kind":"major_road","name:en":"Kyan Sit Thar Road","sort_rank":380,"kind_detail":"primary","bus_network":"YRTA","source":"openstreetmap.org","min_zoom":8.0,"bus_shield_text":"10","landuse_kind":"urban_area","id":489497309},"arcs":[554]},{"type":"LineString","properties":{"kind":"major_road","sort_rank":380,"kind_detail":"primary","bus_network":"YRTA","source":"openstreetmap.org","min_zoom":8.0,"bus_shield_text":"22","id":465675593},"arcs":[555]},{"type":"LineString","properties":{"kind":"major_road","name:en":"Upper Pazundaung Road","sort_rank":380,"kind_detail":"primary","bus_network":"YRTA","source":"openstreetmap.org","min_zoom":8.0,"bus_shield_text":"18","landuse_kind":"urban_area","id":315835573},"arcs":[556]},{"type":"LineString","properties":{"kind":"major_road","name:en":"Thu Dhamma Road","sort_rank":380,"kind_detail":"primary","bus_network":"YRTA","source":"openstreetmap.org","min_zoom":8.0,"bus_shield_text":"18","landuse_kind":"urban_area","id":529373523},"arcs":[557]},{"type":"MultiLineString","properties":{"kind":"major_road","name:en":"Pyay Road","sort_rank":380,"kind_detail":"primary","source":"openstreetmap.org","min_zoom":8.0,"alt_name:en":"Prome Road","landuse_kind":"urban_area"},"arcs":[[558],[559]]},{"type":"LineString","properties":{"bus_network":"YRTA","sort_rank":380,"kind_detail":"primary","name:my":"\u101c\u103e\u102d\u102f\u1004\u103a\u1019\u103c\u1005\u103a\u101c\u1019\u103a\u1038","kind":"major_road","source":"openstreetmap.org","min_zoom":8.0,"bus_shield_text":"23A"},"arcs":[560]},{"type":"MultiLineString","properties":{"bus_network":"YRTA","sort_rank":380,"kind_detail":"primary","name:my":"\u1005\u1000\u103a\u1019\u103e\u102f \u1041 \u101c\u1019\u103a\u1038","kind":"major_road","source":"openstreetmap.org","min_zoom":8.0,"bus_shield_text":"14","landuse_kind":"urban_area"},"arcs":[[561],[562]]},{"type":"MultiLineString","properties":{"bus_network":"YRTA","sort_rank":380,"kind_detail":"primary","name:my":"\u1010\u102d\u101b\u1005\u1039\u1006\u102c\u1014\u103a\u1025\u101a\u103b\u102c\u1009\u103a\u101c\u1019\u103a\u1038","kind":"major_road","source":"openstreetmap.org","min_zoom":8.0,"bus_shield_text":"12","landuse_kind":"urban_area"},"arcs":[[563],[564]]}]},"earth":{"type":"GeometryCollection","geometries":[{"type":"Polygon","properties":{"sort_rank":10,"source":"naturalearthdata.com","min_zoom":0.0,"kind":"earth","area":94988962908},"arcs":[[565]]}]},"landuse":{"type":"GeometryCollection","geometries":[{"type":"MultiPolygon","properties":{"source":"naturalearthdata.com","kind":"urban_area","name":"","area":390255827,"sort_rank":11,"min_zoom":4.0},"arcs":[[[566]],[[567]],[[568]]]},{"type":"Polygon","properties":{"kind":"residential","area":16623100,"sort_rank":20,"source":"openstreetmap.org","min_zoom":8.0,"tier":2,"id":-5639732,"osm_relation":true},"arcs":[[569]]},{"type":"MultiPolygon","properties":{"source":"openstreetmap.org","kind":"residential","tier":2,"area":74198265,"sort_rank":20,"min_zoom":8.0},"arcs":[[[570]],[[571]]]}]}},"type":"Topology","transform":{"translate":[95.625,16.6361918784],"scale":[0.0003433228,0.0003277689]},"arcs":[[[3571,0],[25,111],[178,219],[-21,311],[155,200],[188,-39]],[[3532,566],[-92,53],[-9,46],[-22,-31],[1,52],[-20,0],[-31,110],[6,64],[-19,-15],[-51,82],[-81,-28],[-65,139],[-45,-16],[-92,77],[-181,-48],[-233,41],[-16,-34],[-67,4],[-32,-60],[-155,59],[-52,-12],[-2,49],[-80,15],[-7,28],[71,116],[-20,63],[25,-7],[5,30],[-38,123],[-72,100],[-94,58],[-70,79],[-2,44],[-35,7],[-6,40],[48,11],[22,64],[-24,9],[-22,100],[26,78],[-33,43],[-56,350],[-61,95],[-54,-1],[-38,39],[-11,-18],[-62,31],[2,103],[-46,39],[-116,244],[-199,282],[46,39],[6,70],[-42,153],[-35,-24],[-56,38],[-106,-105],[-19,-86],[-58,-76],[-42,32],[4,-100],[-49,-64],[-41,0],[-16,-82],[-100,-18],[-40,-180],[-73,9],[-101,-45],[-52,-54],[-25,-80],[-82,-49],[16,-116],[-28,34],[-27,-29],[-83,38]],[[0,2170],[54,-9],[53,55],[104,-93],[33,-153],[-25,-131],[-29,-22],[57,-89],[82,12],[81,-55],[-16,-22],[16,-14],[53,-19],[-13,-22],[26,-26],[-34,-14],[45,-28],[51,-92],[-33,-20],[21,-81],[59,86],[39,-19],[-41,-17],[31,-96],[-43,-68],[-1,-50],[132,-65],[-15,-100],[26,-47],[50,0],[-20,-25],[-62,30],[-17,-56],[-43,-38],[24,-37],[-31,-20],[37,-52],[-33,-59],[106,-196],[19,-181],[-33,-82],[-76,-19],[-24,-38],[-31,-133],[37,-42],[-20,-23]],[[324,2568],[-135,-109],[-14,-124],[-175,-47]],[[3521,557],[11,9]],[[1804,0],[-4,48],[-105,90],[-47,168],[2,65],[49,38],[49,-93],[20,-160],[87,-104],[9,-52]],[[3166,0],[50,89],[-27,47],[22,108],[60,106],[94,94],[54,-34],[-16,-41],[42,-4],[76,192]],[[4096,2842],[-35,6],[-72,126],[-72,-13],[-72,56],[-19,-39],[-11,18],[-74,-30],[-16,39],[-47,-12],[-33,-42],[3,-118],[-27,-60],[31,-156],[-14,-176],[65,-175],[-46,-119]],[[3657,2147],[21,-7],[6,-85],[114,4],[50,-35],[13,-34],[-29,-123],[38,-68],[96,-81],[130,-54]],[[4096,1180],[-9,-23],[9,-16]],[[0,3015],[34,-8],[5,-51],[48,20],[55,-53],[10,-133],[72,-81],[44,-12],[56,-129]],[[3644,2145],[13,2]],[[3532,566],[43,38],[-3,32],[-45,95],[-112,96],[27,11],[54,-51],[26,5],[-19,32],[23,-3],[13,-39],[46,-12],[-20,71],[-55,32],[13,89],[40,23],[-39,-53],[9,-43],[83,-54],[40,44],[-5,66],[97,221],[0,115],[35,9],[-3,146],[-73,88],[110,-21],[10,62],[70,-104],[57,-4],[-53,92],[-117,67],[-76,77],[-16,68],[118,210],[-157,61],[-25,62],[16,51]],[[1805,0],[-11,43],[-76,90],[-30,51],[-20,115],[-10,27],[-50,59],[-17,28],[103,18],[149,117],[86,-8],[-36,-32],[-118,-79],[-25,-47],[2,-67],[8,-63],[18,-64],[59,-124],[17,-50],[3,-14],[-52,0]],[[4096,1920],[0,-1920],[-958,0],[41,68],[27,33],[118,85],[50,46],[51,77],[-29,30],[-4,27],[20,19],[43,7],[42,106],[18,69],[43,70],[7,47],[-14,41],[-29,35],[-37,28],[-40,21],[0,22],[38,-3],[64,-16],[38,-3],[-22,24],[-17,26],[-13,27],[-8,29],[96,-23],[32,19],[23,136],[52,95],[17,44],[-2,128],[-43,106],[-115,205],[-19,135],[47,83],[73,63],[59,73],[0,98],[-76,67],[-97,63],[-67,88],[-20,19],[10,11],[14,13],[17,11],[19,9],[7,-20],[22,-26],[11,-17],[22,46],[24,117],[33,48],[16,-41],[-4,-99],[8,-52],[17,-30],[26,-29],[317,-232],[-18,-65],[48,-32],[22,-6]],[[1805,0],[-11,43],[-76,90],[-30,51],[-20,115],[-10,27],[-50,59],[-17,28],[103,18],[149,117],[86,-8],[-36,-32],[-118,-79],[-25,-47],[2,-67],[8,-63],[18,-64],[59,-124],[17,-50],[3,-14]],[[3138,0],[41,68],[27,33],[118,85],[50,46],[51,77],[-29,30],[-4,27],[20,19],[43,7],[42,106],[18,69],[43,70],[7,47],[-14,41],[-29,35],[-37,28],[-40,21],[0,22],[38,-3],[64,-16],[38,-3],[-22,24],[-17,26],[-13,27],[-8,29],[96,-23],[32,19],[23,136],[52,95],[17,44],[-2,128],[-43,106],[-115,205],[-19,135],[47,83],[73,63],[59,73],[0,98],[-76,67],[-97,63],[-67,88],[-20,19],[10,11],[14,13],[17,11],[19,9],[7,-20],[22,-26],[11,-17],[22,46],[24,117],[33,48],[16,-41],[-4,-99],[8,-52],[17,-30],[26,-29],[317,-232],[-18,-65],[48,-32],[22,-6]],[[1445,469],[-1,59],[-92,217]],[[1596,396],[-123,28]],[[1505,423],[72,-18]],[[1595,407],[-1,0]],[[1658,844],[-12,10]],[[1729,785],[-20,16]],[[1737,1408],[90,45]],[[1512,508],[7,-23]],[[1520,485],[-8,23]],[[1539,445],[-18,39]],[[1569,657],[7,4]],[[1489,432],[2,-2]],[[1574,1308],[154,96]],[[1728,1404],[-153,-94]],[[1384,675],[5,2]],[[1762,485],[25,-41]],[[1787,444],[-24,41]],[[1637,831],[21,13]],[[1409,676]],[[1543,894],[-5,20]],[[1697,621],[1,16]],[[1616,641],[-18,-16]],[[1624,701],[64,34]],[[1624,701],[-3,-1],[-12,-13],[10,10],[5,4]],[[1769,758],[-27,18]],[[1606,528],[0,3]],[[1580,436],[8,-1]],[[1566,862],[1,-1]],[[1202,721],[4,-2]],[[1409,676],[-3,12]],[[1451,566],[-4,-5]],[[1968,1538],[64,30]],[[2032,1569],[-64,-31]],[[1477,594],[-1,-23]],[[1392,765],[-1,0]],[[1473,424],[-28,6],[0,39]],[[1547,533],[-4,33]],[[1546,537],[0,-26]],[[1546,510],[1,21]],[[1759,492],[-9,10]],[[1750,501],[8,-9]],[[1592,486]],[[1593,487],[-1,0]],[[1728,520],[0,1]],[[1188,727]],[[1143,746],[-69,29]],[[1591,535],[4,12]],[[1514,423],[16,-1]],[[1549,487],[-1,0]],[[1932,298],[-1,-1]],[[1476,571],[0,-3]],[[1187,727],[1,-1]],[[1207,719],[1,1]],[[1662,512],[-24,-67]],[[1549,487],[5,14]],[[1588,435],[8,0]],[[1572,572],[6,1]],[[1391,765],[-14,-5]],[[1479,1238],[4,3]],[[1486,1244],[-7,-6]],[[1595,406],[7,0]],[[1558,455],[-7,7]],[[1448,561],[8,11]],[[1470,581],[5,0]],[[1541,580],[1,-12],[6,-12],[-2,-19]],[[1543,566],[-1,14]],[[1551,653],[-9,-64]],[[1543,587],[8,67]],[[1547,531],[0,2]],[[1416,1327],[-1,0]],[[1447,689],[-25,-6]],[[1449,512],[-1,0]],[[1556,443],[2,12]],[[1478,1237]],[[1477,566],[6,-25]],[[1485,541],[-8,26]],[[1640,553],[8,-9]],[[1652,536],[0,3],[-5,6],[-7,8]],[[1515,438],[-1,-19]],[[1566,569],[-1,1]],[[1206,719],[52,-25]],[[1485,540]],[[1507,514]],[[1514,419],[0,-1]],[[1591,535],[-47,-17]],[[1409,681],[-1,0]],[[1422,683],[-1,0]],[[1448,520],[0,41]],[[1520,513],[-2,-5]],[[1447,561],[1,-67],[35,-57]],[[1547,486],[-13,0]],[[1534,486],[-3,0]],[[1532,486],[2,0]],[[1534,486],[13,0]],[[1694,473],[56,29]],[[1550,788],[1,1],[23,55]],[[1574,844]],[[1574,845],[0,-1]],[[1574,844],[2,-21],[-3,-10]],[[1484,540],[6,-22]],[[1491,518],[-6,22]],[[1495,501],[3,-13],[8,-27]],[[1506,461],[-11,40]],[[1506,461],[9,-23]],[[1551,461]],[[1491,430],[14,-7]],[[1580,406],[-3,-1]],[[1594,407],[0,-1]],[[1554,420],[0,-11]],[[1554,410],[1,10]],[[1206,720],[-4,1]],[[1208,720],[-1,0]],[[1652,527],[8,-12]],[[1278,1436],[-132,-3],[-69,190],[-69,46],[-27,50],[-21,208],[60,92],[-89,118]],[[1415,1327],[-47,72],[-83,38]],[[1459,1245],[-43,82]],[[1408,681],[-12,-2]],[[1396,678],[11,2]],[[1243,725],[-35,-5]],[[1553,712],[9,-24],[16,-26],[19,-36],[14,-23]],[[1625,566],[-14,38],[-33,58]],[[1506,423],[8,0]],[[1531,486]],[[1787,444],[6,-7]],[[1793,437],[-6,7]],[[1793,437],[3,-1]],[[2628,2604],[57,237]],[[1548,787],[2,1]],[[1697,624],[-2,-45],[-46,-34]],[[1550,721],[-9,-20]],[[1581,466],[18,11]],[[1599,477],[-18,-11]],[[1590,527],[9,-50]],[[1599,477],[-8,51]],[[1507,514],[-4,-3]],[[1504,511],[3,3]],[[1553,712]],[[1742,776],[-13,9]],[[1442,783],[43,65],[-10,43]],[[1475,889],[9,-41],[-42,-63]],[[1448,494]],[[1448,512]],[[1448,502],[0,1]],[[1448,511],[1,0]],[[1454,463],[1,-1]],[[1455,462],[0,1]],[[1470,444]],[[1472,443],[-1,0]],[[1471,443]],[[1473,441],[1,1]],[[1679,428],[15,45]],[[1594,406],[-2,1]],[[1375,807],[0,7]],[[1389,907],[0,1]],[[1523,438],[16,-1]],[[1383,676],[-26,-11]],[[1509,697],[-32,-102]],[[1400,769],[-25,38]],[[1581,466]],[[1591,535],[-1,-7]],[[1477,594],[32,103]],[[1505,423],[1,0]],[[1567,862],[6,-18]],[[1548,884],[-5,10]],[[1565,570],[16,-20]],[[1577,405],[18,1]],[[1448,512],[1,-1]],[[1449,512],[-1,0]],[[1489,432]],[[472,3025],[-18,66],[17,81],[-34,139],[23,103],[-95,337],[-20,345]],[[1726,522],[1,-2]],[[1561,569],[4,1]],[[1375,814],[14,93]],[[1507,701],[-60,-12]],[[1448,494],[2,-32],[48,-39],[97,-17]],[[1476,796]],[[1484,805],[-6,-7]],[[1485,541],[-2,0]],[[1484,540],[1,0]],[[1491,814],[1,0]],[[1494,504]],[[1508,514],[-1,0]],[[1520,711],[0,-1]],[[1521,710],[0,2]],[[1531,725],[-1,0]],[[1545,570]],[[1554,568]],[[1555,568]],[[1560,568],[1,1]],[[1646,854],[2,21]],[[1520,483],[1,2]],[[1520,520],[-13,-6]],[[1507,514],[13,6]],[[1549,788],[-6,-30]],[[1543,756]],[[1543,757],[0,-1]],[[1545,748],[5,-27],[-5,27]],[[175,2493],[-175,-12]],[[1473,424],[-28,6],[0,39]],[[1717,685],[-10,-20]],[[1554,501],[-6,-14]],[[2058,1585],[-26,-16]],[[2032,1568],[26,17]],[[2450,2071],[15,31]],[[2450,2071],[7,-145]],[[2457,1926],[-7,145]],[[2466,2104],[11,22]],[[2501,2132],[70,70]],[[1186,0],[-48,72],[-26,149]],[[1205,718],[2,0]],[[2043,0],[-17,118],[-59,78]],[[1618,405],[-23,1]],[[1551,653],[6,0]],[[1576,661],[33,26]],[[1921,951],[-1,0]],[[1531,486],[3,-12]],[[1483,1241],[91,67]],[[1575,1310],[-89,-66]],[[1507,514],[5,-6]],[[1512,508],[-4,5]],[[1581,550]],[[1567,421],[53,0],[13,24]],[[1747,717],[173,234]],[[2025,1404],[-68,-241],[-6,-175],[-30,-37]],[[1602,509],[4,19]],[[1553,422],[3,-1]],[[1652,536],[0,-9]],[[1660,515],[3,-2]],[[1544,518]],[[1591,528],[-1,-1]],[[1606,531],[-4,-23]],[[1404,770],[-9,-4]],[[1476,794],[17,20],[-16,-40]],[[1389,677]],[[1207,717],[0,1]],[[1592,407],[-12,-1]],[[1575,845],[-1,0]],[[1687,819],[-29,25]],[[1538,422],[15,0]],[[1648,544],[4,-8]],[[1371,669],[13,6]],[[1475,892],[0,-2]],[[1446,774],[-42,-4]],[[1187,727],[-28,12]],[[1188,726],[1,0]],[[1707,665],[-2,-11]],[[1717,685],[30,32]],[[1540,572],[2,-5]],[[1542,567],[-1,4]],[[1548,884],[19,-22]],[[1568,863],[-1,0]],[[2571,2202],[15,61]],[[1628,516],[5,-34],[-24,-20]],[[1627,517],[1,-1]],[[1628,516],[-1,3]],[[1649,545],[-3,-1]],[[1523,515],[-3,-2]],[[1653,801],[-16,30]],[[931,2137],[-89,22],[-25,42],[12,89],[-34,65],[-52,77],[-74,23],[-49,77],[10,53],[42,45],[-200,395]],[[1595,406],[-1,0]],[[1602,406],[16,-1]],[[1577,405],[4,61]],[[1520,520]],[[1285,1437],[-7,-1]],[[0,1063],[95,-76]],[[1026,796],[-148,67],[-49,55],[-91,17],[-74,-26],[-131,38],[-27,-19],[-254,157],[-157,-98]],[[95,987],[-69,-126],[20,-176],[75,-68],[42,-83],[-23,-69],[-45,-23],[9,-70]],[[103,372],[1,0]],[[103,373],[-57,-96],[22,-51],[48,-26],[-8,-200]],[[1160,316],[-145,-68],[-106,24],[-38,-10],[-3,-24],[-136,-8],[-101,-71],[-98,18],[-157,128],[-61,20],[-203,-49],[-8,96]],[[473,712],[9,-30]],[[577,1248],[-8,19]],[[722,1210],[0,-1]],[[722,1209],[0,-1],[0,1]],[[722,1210]],[[722,1210]],[[722,1211],[0,-1]],[[722,1213],[0,-2]],[[722,1213]],[[746,935],[29,-6]],[[1186,238],[1,-2]],[[1477,1239],[1,-2]],[[1595,406],[23,-1]],[[1648,875],[1,5]],[[1772,755],[4,-2]],[[1776,753],[-3,3]],[[558,1221],[4,0],[1,1],[-5,3],[0,-4]],[[1968,1538],[-233,-130]],[[1735,1407],[2,1]],[[1827,1453],[141,85]],[[1609,687],[80,-58]],[[1446,688],[2,0]],[[1456,572],[14,9]],[[1551,653]],[[1557,653],[12,4]],[[1483,541],[1,-1]],[[1485,540],[0,1]],[[1514,482],[5,2]],[[1461,952],[17,249]],[[1353,665],[-95,29]],[[1468,929],[3,-20]],[[1472,909],[-4,20]],[[1967,196],[-77,86]],[[1445,469],[-1,59],[-92,217]],[[1596,396],[-123,28]],[[1555,437],[-1,-14]],[[1595,406],[0,1]],[[1544,518],[-13,-4]],[[1159,739],[-16,7]],[[1188,727],[-1,1]],[[1189,726],[-1,1]],[[1464,1248],[-5,-3]],[[1449,511],[7,0]],[[1456,511],[-7,1]],[[1456,511],[3,0]],[[1735,1408],[-7,-4]],[[1728,1404],[7,3]],[[1357,665],[-4,0]],[[1535,770],[-42,44]],[[1555,423],[0,6]],[[1555,429],[1,8]],[[1758,492],[4,-7]],[[1763,485],[-4,7]],[[1609,462],[-9,-25]],[[1554,423],[-1,-1]],[[1599,477]],[[1599,477]],[[1473,424],[-28,6],[0,39]],[[1475,890],[0,-1]],[[1523,515],[-3,5]],[[1407,667],[144,-14]],[[1538,914],[-3,29]],[[1705,654],[-2,-6]],[[1451,566],[-42,110]],[[1565,467]],[[1478,1237],[-1,2]],[[1709,801],[-2,2]],[[1581,550],[10,-15]],[[1533,454],[6,-9]],[[1486,748],[19,-43]],[[1602,406],[1,0]],[[1639,584],[59,53]],[[1698,637],[-59,-52]],[[1698,637],[5,11]],[[1477,595],[0,-1]],[[1704,697],[-51,104]],[[1646,440],[-12,6]],[[1577,405],[-88,27]],[[1409,681]],[[1548,487],[-1,-1]],[[1547,486],[2,1]],[[1486,749],[0,-1]],[[1508,702],[1,0]],[[2501,4096],[2,-14],[-8,-34],[-4,-35],[44,-147],[-15,-232],[2,-116],[24,-218],[-74,-62],[-41,-118],[-1,-42],[13,-92],[-26,-198],[-7,-194],[-1,-39]],[[2406,2534],[3,12],[1,48],[7,173],[0,21],[13,49],[14,149],[-3,61],[-10,31],[1,41],[4,13],[17,24],[10,22],[2,22],[6,37],[72,47],[3,16],[-9,149],[-15,69],[-1,116],[12,111],[4,80],[-1,41],[-6,34],[-39,113],[4,35],[8,17],[0,17],[-1,14]],[[2409,2547],[0,-1]],[[1475,570],[2,-4]],[[1353,665],[18,4]],[[1660,515],[2,-3]],[[1542,589],[-2,-17]],[[1541,571],[2,16]],[[2251,365],[-146,29],[-172,-96]],[[1489,432],[-41,88]],[[1483,437],[6,-5]],[[4096,2064],[-73,-12],[-62,260],[-124,88],[-146,21],[-1,54],[-305,193],[-74,20],[-133,-2],[-7,-26],[-81,-44],[-21,-50],[-148,-88],[-127,56],[-283,40],[-76,-40],[-27,12]],[[1581,550],[-15,19]],[[1565,467],[-14,-6]],[[1555,433],[1,4]],[[1477,567],[0,26]],[[1582,1315],[83,194],[-4,59],[-1,83],[0,1],[-6,101]],[[1654,1753],[0,1]],[[1654,1754],[25,23],[79,58],[3,147],[-46,156],[231,109],[246,163]],[[2192,2410],[-20,-1],[-31,-16],[-96,-64],[-99,-82],[-101,-45],[-130,-63],[7,-56],[38,-101],[-2,-147],[-79,-58],[-25,-20],[0,-3]],[[1654,1754],[0,-1]],[[1654,1753],[-1,-57],[11,-187],[-49,-81],[-14,-68],[-1,-1]],[[1796,436],[80,-124]],[[1560,568],[-19,3],[18,-3]],[[1565,570],[7,2]],[[1408,680],[0,-4]],[[1409,676],[0,4]],[[1541,571],[-2,0]],[[1728,520],[15,-11]],[[1744,509],[-16,12]],[[1406,688],[-29,72]],[[1409,676],[42,-110]],[[1517,1152],[61,147]],[[1544,709],[-11,1]],[[1533,710],[-13,1]],[[1521,712],[12,-2]],[[1533,710],[11,-2]],[[1646,544],[-19,-25]],[[1551,437],[4,0]],[[1677,423],[-7,4]],[[1567,863],[-1,-1]],[[1567,861],[1,2]],[[1573,844],[1,-1]],[[1575,818],[-1,-1]],[[1574,816],[1,2]],[[1575,843],[0,2]],[[1546,511],[8,-10]],[[1554,501],[-8,9]],[[1743,509],[7,-7]],[[1750,502],[-6,7]],[[1074,775],[-48,21]],[[1446,774],[-4,9]],[[1442,785],[-1,-2],[5,-10]],[[1471,909],[4,-17]],[[1475,891],[-3,18]],[[1509,697],[-3,8]],[[1377,760],[-101,-29]],[[1565,570]],[[1531,486],[-6,18],[6,-18]],[[1505,705],[4,-8]],[[1492,476],[-12,-4]],[[1492,476],[22,6]],[[1519,485],[-27,-9]],[[1514,419]],[[1547,486]],[[1592,487],[-38,14]],[[1554,501],[38,-15]],[[1396,679],[25,4]],[[1578,662],[-25,50]],[[1561,689],[-1,-1]],[[1563,687],[-2,2]],[[1605,615],[0,-1]],[[1571,406],[-1,0]],[[1514,418],[0,1]],[[1522,415]],[[1530,415]],[[1555,409],[-1,1]],[[1563,406],[-1,0]],[[1570,406]],[[1570,406]],[[2477,2126],[24,6]],[[1635,658],[-19,-17]],[[1769,758],[12,-6]],[[1611,603],[12,-36]],[[1396,679],[-13,-3]],[[1508,702],[-1,-1]],[[1551,654],[-9,46],[-3,2],[-30,1]],[[1509,702],[32,-1],[10,-48]],[[1593,488],[8,19]],[[1491,439],[32,-1]],[[1555,437],[25,-1]],[[1551,462],[14,5]],[[1446,773],[34,-2],[6,-22]],[[1506,705],[-26,66],[-34,3]],[[1459,511],[34,0]],[[1750,502],[0,-1]],[[1521,484],[11,2]],[[1531,486],[-10,-1]],[[1610,561],[-16,1]],[[1610,561],[29,23]],[[1639,585],[-29,-24]],[[1468,929],[0,2],[-1,3]],[[1467,934],[-6,18]],[[1478,1201],[-25,-166],[14,-101]],[[1467,934],[0,-3],[1,-2]],[[1543,758],[0,-2]],[[1543,756],[2,-8]],[[1543,757],[5,30]],[[1545,748],[-2,8]],[[1477,593],[0,1]],[[1600,437],[-4,-2]],[[1539,571],[-64,10]],[[1205,719],[-47,-415],[28,-66],[-74,-17]],[[1933,298],[-1,0]],[[1602,508],[-10,-22]],[[1594,543],[12,-12]],[[1530,422],[8,0]],[[1546,546],[14,22]],[[1890,282],[-14,30]],[[1623,567],[17,-14]],[[1640,553],[-15,13]],[[1478,1237],[0,-36]],[[1479,1238],[-1,-1]],[[1478,1201],[1,37]],[[1445,469],[-1,59],[-92,217]],[[1596,396],[-123,28]],[[1606,531],[-12,11]],[[1556,421],[-1,2]],[[2457,1926],[-45,-123],[-87,-32],[-81,-82],[-64,-26],[-122,-78]],[[2058,1585],[186,104],[81,82],[87,32],[45,123]],[[2685,2841],[63,102],[81,348],[195,223],[48,145],[114,146],[15,220],[-29,5],[-18,66]],[[2465,2102],[1,2]],[[2586,2263],[54,234],[-12,107]],[[1535,943],[-18,209]],[[1389,677],[7,1]],[[1677,423],[2,5]],[[1493,511],[6,0]],[[1499,511],[5,0]],[[1503,511],[-4,0]],[[1539,437],[12,0]],[[1513,778],[-33,-6]],[[1539,771],[-4,-1]],[[1548,884]],[[1717,685],[-13,12]],[[1556,421],[11,0]],[[1447,691],[-35,71]],[[1447,691],[1,-3],[25,-107]],[[1473,581],[-21,94],[-5,16]],[[1544,518],[-21,-3]],[[1509,703],[-1,-1]],[[1600,1359],[-19,-45]],[[1395,766],[-3,-1]],[[1633,445],[1,1]],[[1646,440],[-4,8]],[[1662,512],[63,8]],[[1728,521],[-2,1]],[[1727,520],[1,0]],[[1276,731],[-1,0]],[[1592,486],[1,2]],[[1594,542],[0,1]],[[1601,507],[1,2]],[[2409,2546],[-8,-14],[-10,-2],[-42,-11],[-19,-13],[-64,-62],[-74,-34]],[[2192,2410],[74,33],[83,75],[52,13],[5,3]],[[2409,2555],[0,-8]],[[1512,1087],[5,64]],[[1513,1076],[-1,10]],[[1518,1062],[-4,12]],[[1522,1045],[-3,16]],[[1523,1014],[-1,27]],[[1520,483],[13,-29]],[[1670,427],[-24,13]],[[1555,423],[-1,0]],[[1188,726],[0,1]],[[1495,501],[-4,16]],[[1551,461],[4,-24]],[[1555,429]],[[1556,437],[0,6]],[[1525,504],[-7,4]],[[1377,760],[-2,54]],[[1542,589],[1,-1]],[[1549,583],[16,-13]],[[1565,570],[-15,13]],[[1275,731],[-32,-6]],[[1574,844],[-26,40]],[[1707,803],[-20,16]],[[1188,727],[-1,0]],[[1627,520],[0,-3]],[[1573,813],[-24,-25]],[[1492,511],[3,-10]],[[1495,501],[-3,10]],[[1202,721],[-13,5]],[[1550,583],[-7,6]],[[1543,588],[6,-5]],[[1548,485],[3,-24]],[[1551,462],[-2,24]],[[4096,1920],[-22,6],[-48,32],[18,65],[-317,232],[-26,29],[-17,30],[-8,52],[4,99],[-16,41],[-33,-48],[-24,-117],[-22,-46],[-11,17],[-22,26],[-7,20],[-19,-9],[-17,-11],[-14,-13],[-10,-11],[20,-19],[67,-88],[97,-63],[76,-67],[0,-98],[-59,-73],[-73,-63],[-47,-83],[19,-135],[115,-205],[43,-106],[2,-128],[-17,-44],[-52,-95],[-23,-136],[-32,-19],[-96,23],[8,-29],[13,-27],[17,-26],[22,-24],[-38,3],[-64,16],[-38,3],[0,-22],[40,-21],[37,-28],[29,-35],[14,-41],[-7,-47],[-43,-70],[-18,-69],[-42,-106],[-43,-7],[-20,-19],[4,-27],[29,-30],[-51,-77],[-50,-46],[-118,-85],[-27,-33],[-41,-68],[-1281,0],[-3,14],[-17,50],[-59,124],[-18,64],[-8,63],[-2,67],[25,47],[118,79],[36,32],[-86,8],[-149,-117],[-103,-18],[17,-28],[50,-59],[10,-27],[20,-115],[30,-51],[76,-90],[11,-43],[-1805,0],[0,4096],[4096,0],[0,-2176]],[[1311,965],[7,-43],[154,-13],[40,13],[0,34],[227,-136],[13,-162],[19,-7],[0,34],[54,-34],[17,-103],[-148,-117],[-103,-18],[57,-100],[-159,29],[-10,72],[-77,124],[-149,79],[-2,62],[67,141],[-64,144],[-33,26],[35,29],[55,-54]],[[2548,2074],[-21,13],[-28,139],[16,52],[162,-34],[-10,-66],[-119,-104]],[[1933,447],[-69,42],[65,51],[-50,5],[65,58],[82,-69],[4,-53],[-97,-34]],[[1962,1506],[43,14],[-37,13],[1,35],[31,-3],[15,41],[-5,-29],[20,19],[1,-23],[13,19],[20,-10],[-8,-58],[35,15],[-15,-30],[17,-3],[-20,-3],[41,-4],[10,-22],[-59,18],[-1,-16],[22,3],[21,-13],[9,4],[1,-16],[-46,23],[-39,-42],[-37,41],[12,18],[31,-18],[-16,46],[-27,-30],[-33,11]],[[1777,372],[25,85],[37,9],[-20,-21],[102,-152],[18,7],[-5,-30],[64,-114],[-30,41],[-29,-35],[-13,95],[-55,8],[-12,54],[-2,-55],[-4,-3],[-27,51],[-38,15],[-11,45]],[[2377,2139],[33,41],[27,-19],[-27,-24],[32,25],[33,-19],[11,32],[1,-8],[9,33],[4,-33],[26,-2],[40,42],[23,-21],[-31,1],[0,-17],[36,-40],[18,22],[16,-17],[-5,-23],[-29,16],[-37,-20],[22,-10],[-26,-29],[-7,12],[19,1],[-4,6],[-60,-5],[-6,18],[1,-5],[-32,9],[8,-57],[-13,14],[-6,-9],[8,-130],[-29,25],[13,92],[-23,3],[4,-22],[-28,32],[21,11],[0,13],[-33,-21],[28,33],[-26,-3],[-11,53]]]}