{"objects":{"water":{"type":"GeometryCollection","geometries":[{"type":"Polygon","properties":{"source":"naturalearthdata.com","kind":"ocean","area":1576712559132672,"sort_rank":200,"min_zoom":0.0,"id":1},"arcs":[[1],[2]]},{"type":"LineString","properties":{"source":"naturalearthdata.com","kind":"ocean","sort_rank":205,"boundary":true,"min_zoom":0.0,"id":3339},"arcs":[3]}]},"buildings":{"type":"GeometryCollection","geometries":[]},"places":{"type":"GeometryCollection","geometries":[]},"transit":{"type":"GeometryCollection","geometries":[]},"pois":{"type":"GeometryCollection","geometries":[]},"boundaries":{"type":"GeometryCollection","geometries":[{"type":"LineString","properties":{"name:ka":"\u10db\u10d0\u10da\u10e2\u10d0","name:ko":"\ubab0\ud0c0","name:kn":"\u0cae\u0cbe\u0cb2\u0ccd\u0c9f\u0cbe","name:km":"\u1798\u17c9\u17b6\u179b\u17cb\u178f\u17b6","min_zoom":8.0,"name:ti":"\u121b\u120d\u1273","name:ks":"\u0645\u0627\u0644\u0679\u0627","name:to":"Malita","name:or":"\u0b2e\u0b3e\u0b32\u0b4d\u0b1f\u0b3e","name:ta":"\u0bae\u0bbe\u0bb2\u0bcd\u0b9f\u0bbe","name:tg":"\u041c\u0430\u043b\u0442\u0430","name:te":"\u0c2e\u0c3e\u0c32\u0c4d\u0c1f\u0c3e","sort_rank":262,"name:dz":"\u0f58\u0f71\u0f63\u0f0b\u0f4a","source":"openstreetmap.org","osm_relation":true,"name:hi":"\u092e\u093e\u0932\u094d\u091f\u093e","name:he":"\u05de\u05dc\u05d8\u05d4","name:eo":"Malto","name:ur":"\u0645\u0627\u0644\u0679\u0627","name:la":"Melita","name:lg":"Malita","name:uk":"\u041c\u0430\u043b\u044c\u0442\u0430","name:hy":"\u0544\u0561\u056c\u0569\u0561","name:hu":"M\u00e1lta","name:ln":"Malit\u025b","name:lo":"\u0ea1\u0eb1\u0e99\u0e95\u0eb2","name:el":"\u039c\u03ac\u03bb\u03c4\u03b1","kind":"country","name":"Malta","name:ee":"Malta nutome","name:th":"\u0e1b\u0e23\u0e30\u0e40\u0e17\u0e28\u0e21\u0e2d\u0e25\u0e15\u0e32","name:yo":"Or\u00edl\u1eb9\u0301\u00e8de Malata","name:rn":"Malita","name:mr":"\u092e\u093e\u0932\u094d\u091f\u093e","name:ar":"\u0645\u0627\u0644\u0637\u0627","name:ak":"M\u0254lta","name:am":"\u121b\u120d\u1273","name:ml":"\u0d2e\u0d3e\u0d7e\u0d1f\u0d4d\u0d1f","name:ru":"\u041c\u0430\u043b\u044c\u0442\u0430","name:mn":"\u041c\u0430\u043b\u044c\u0442\u0430","id":-365307,"name:mk":"\u041c\u0430\u043b\u0442\u0430","name:vo":"Malte\u00e4n","name:zu":"i-Malta","name:ff":"Malte","kind_detail":"2","name:fr":"Malte","name:zh":"\u9a6c\u5c14\u4ed6","name:so":"Maalda","name:ja":"\u30de\u30eb\u30bf","name:si":"\u0db8\u0ddd\u0dbd\u0dca\u0da7\u0dcf\u0dc0","name:fa":"\u0645\u0627\u0644\u062a","name:sg":"M\u00e2lta","name:se":"M\u00e1lta","name:ne":"\u092e\u093e\u0932\u094d\u091f\u093e","name:bm":"Malti","name:bn":"\u09ae\u09be\u09b2\u09cd\u099f\u09be","name:bo":"\u0f58\u0f63\u0f0b\u0f4a\u0f0d","name:be":"\u041c\u0430\u043b\u044c\u0442\u0430","name:bg":"\u041c\u0430\u043b\u0442\u0430","name:sr":"\u041c\u0430\u043b\u0442\u0430","name:sq":"Malt\u00eb","name:ga":"M\u00e1lta","maritime_boundary":true,"name:gv":"Yn Valta","name:gu":"\u0aae\u0abe\u0ab2\u0acd\u0a9f\u0abe"},"arcs":[0]}]},"roads":{"type":"GeometryCollection","geometries":[{"type":"LineString","properties":{"source":"openstreetmap.org","kind":"ferry","name":"Linosa - Lampedusa","sort_rank":355,"min_zoom":8.0,"id":432769008},"arcs":[4]},{"type":"LineString","properties":{"sort_rank":355,"source":"openstreetmap.org","min_zoom":8.0,"name":"Porto Empedocle - Linosa","kind":"ferry"},"arcs":[5]},{"type":"MultiLineString","properties":{"source":"openstreetmap.org","kind":"ferry","name":"Linosa - Lampedusa","sort_rank":355,"min_zoom":8.0,"osm_relation":true},"arcs":[[6],[7]]},{"type":"MultiLineString","properties":{"source":"openstreetmap.org","kind":"ferry","name":"Porto Empedocle - Linosa","sort_rank":355,"min_zoom":8.0,"osm_relation":true},"arcs":[[8],[9]]}]},"earth":{"type":"GeometryCollection","geometries":[{"type":"MultiPolygon","properties":{"sort_rank":10,"source":"naturalearthdata.com","min_zoom":0.0,"kind":"earth","area":87958091},"arcs":[[[10]]]}]},"landuse":{"type":"GeometryCollection","geometries":[]}},"type":"Topology","transform":{"translate":[12.65625,35.4606699515],"scale":[0.0003433228,0.0002776414]},"arcs":[[[4096,2850],[-161,-122],[-119,-158],[-75,-182],[-24,-188],[20,-271],[66,-188],[139,-194],[154,-117]],[[0,4096],[4096,0],[0,-4096],[-4096,0],[0,4096]],[[634,1461],[-20,21],[-21,0],[-18,-3],[-19,-11],[-4,-20],[15,-24],[18,-14],[45,0],[12,13],[-8,38]],[[593,1482],[-18,-3],[-19,-11],[-4,-20],[15,-24],[18,-14],[45,0],[12,13],[-8,38],[-20,21],[-21,0]],[[0,121],[5,2],[569,1327]],[[574,1450],[-23,17],[1060,2629]],[[0,121],[5,2]],[[5,123],[569,1327]],[[574,1450],[-23,17]],[[551,1467],[1060,2629]],[[630,1410],[-45,0],[-18,14],[-15,24],[4,20],[19,11],[18,3],[21,0],[20,-21],[8,-38],[-12,-13]]]}