{"objects":{"water":{"type":"GeometryCollection","geometries":[{"type":"Polygon","properties":{"source":"naturalearthdata.com","kind":"ocean","area":1576712559132672,"sort_rank":200,"min_zoom":0.0,"id":1},"arcs":[[7]]},{"type":"LineString","properties":{"source":"naturalearthdata.com","kind":"ocean","sort_rank":205,"boundary":true,"min_zoom":0.0,"id":56},"arcs":[8]}]},"buildings":{"type":"GeometryCollection","geometries":[]},"places":{"type":"GeometryCollection","geometries":[{"type":"Point","properties":{"admin_level":"4","kind":"region","name:en":"Al Margab","name":"\u0627\u0644\u0645\u0631\u0642\u0628","kind_detail":"state","alt_name:en":"Al Murgub","source":"openstreetmap.org","min_zoom":4.0,"int_name":"Al Margab","name:it":"Distretto di Al-Murgub","name:uk":"\u0415\u043b\u044c-\u041c\u0430\u0440\u0433\u0430\u0431","name:ru":"\u042d\u043b\u044c-\u041c\u0430\u0440\u0433\u0430\u0431","name:pl":"Al-Marakib","id":1312442218},"coordinates":[3513,1572]},{"type":"Point","properties":{"admin_level":"4","kind":"region","name:en":"Al Jifarah","name":"Al Jifarah \u0627\u0644\u062c\u0641\u0627\u0631\u0629","kind_detail":"state","name:ar":"\u0627\u0644\u062c\u0641\u0627\u0631\u0629","source":"openstreetmap.org","min_zoom":4.0,"alt_name:en":"Al Jfara","name:it":"Distretto di Gefara","name:uk":"\u0415\u043b\u044c-\u0414\u0436\u0438\u0444\u0430\u0440\u0430","name:ru":"\u042d\u043b\u044c-\u0414\u0436\u0438\u0444\u0430\u0440\u0430","name:pl":"Al-D\u017cifara","id":1312442221},"coordinates":[1207,2096]},{"type":"Point","properties":{"admin_level":"4","kind":"region","name:en":"Tripoli","name":"Tripoli \u0637\u0631\u0627\u0628\u0644\u0633","kind_detail":"state","name:ar":"\u0637\u0631\u0627\u0628\u0644\u0633","source":"openstreetmap.org","min_zoom":4.0,"name:uk":"\u0422\u0430\u0440\u0430\u0431\u0443\u043b\u0443\u0441","name:ru":"\u0422\u0430\u0440\u0430\u0431\u0443\u043b\u0443\u0441","name:pl":"Trypolis","name:hu":"Tripoli","id":1312442224},"coordinates":[1968,2838]},{"type":"Point","properties":{"name:pt":"Tr\u00edpoli","name:ps":"\u062a\u0631\u0627\u0628\u0644\u0633","name:ka":"\u10e2\u10e0\u10d8\u10de\u10dd\u10da\u10d8","name:ko":"\ud2b8\ub9ac\ud3f4\ub9ac","name:kn":"\u0c9f\u0ccd\u0cb0\u0cbf\u0caa\u0ccb\u0cb2\u0cbf","name:kl":"Tripoli","name:cs":"Tripolis","name:kw":"Tripoli","name:tr":"Trablus","name:ku":"Trabl\u00fbs","name:ro":"Tripoli","name:tl":"Tripoli","name:sv":"Tripoli","name:os":"\u0422\u0440\u0438\u043f\u043e\u043b\u0438","name:pl":"Trypolis","name:ta":"\u0ba4\u0bbf\u0bb0\u0bbf\u0baa\u0bcd\u0baa\u0bca\u0bb2\u0bbf","name:tg":"\u0422\u0440\u0438\u043f\u043e\u043b\u0438","name:ca":"Tr\u00edpoli","name:vi":"Tripoli","name:cy":"Tripoli","name:qu":"Tripoli","name:da":"Tripoli","name:de":"Tripolis","source":"openstreetmap.org","admin_level":"2","name:lv":"Tripole","name:lt":"Tripolis","name:hi":"\u0924\u093e\u0930\u093e\u092c\u0942\u0932\u0938","name:kk":"\u0422\u0440\u0438\u043f\u043e\u043b\u0438","name:he":"\u05d8\u05e8\u05d9\u05e4\u05d5\u05dc\u05d9","min_zoom":8.0,"kind":"locality","name:ur":"\u0637\u0631\u0627\u0628\u0644\u0633\u060c \u0644\u06cc\u0628\u06cc\u0627","name:uk":"\u0422\u0440\u0438\u043f\u043e\u043b\u0456","name:hy":"\u054f\u0580\u056b\u057a\u0578\u056c\u056b","country_capital":true,"name:ug":"\u062a\u0631\u0649\u067e\u0648\u0644\u0649","name:hu":"Tripoli","name:hr":"Tripoli","name:oc":"Tr\u00edpol","population":2127000,"name:el":"\u03a4\u03c1\u03af\u03c0\u03bf\u03bb\u03b7","name:eo":"Tripolo","name:en":"Tripoli","name":"\u0637\u0631\u0627\u0628\u0644\u0633","name:th":"\u0e15\u0e23\u0e34\u0e42\u0e1b\u0e25\u0e35","name:eu":"Tripoli","name:et":"Tripoli","name:nl":"Tripoli","name:es":"Tr\u00edpoli","name:ml":"\u0d1f\u0d4d\u0d30\u0d3f\u0d2a\u0d4d\u0d2a\u0d4b\u0d33\u0d3f","name:az":"Tripoli","name:id":"Tripoli","name:ms":"Tripoli","name:mr":"\u0924\u094d\u0930\u093f\u092a\u094b\u0932\u0940","name:zh-min-nan":"Tripoli","name:io":"Tripoli","int_name":"\u1e6car\u0101bulus","name:is":"Tr\u00edp\u00f3l\u00ed","name:am":"\u1275\u122a\u1356\u120a","name:it":"Tripoli","name:an":"Tripoli","name:ru":"\u0422\u0440\u0438\u043f\u043e\u043b\u0438","name:mn":"\u0422\u0440\u0438\u043f\u043e\u043b\u0438","id":1699640925,"name:mk":"\u0422\u0440\u0438\u043f\u043e\u043b\u0438","name:af":"Tripoli","kind_detail":"city","name:no":"Tripoli","name:fr":"Tripoli","name:ky":"\u0422\u0440\u0438\u043f\u043e\u043b\u0438","name:zh-yue":"\u7684\u9ece\u6ce2\u91cc","name:fy":"Tripoly","name:vo":"Tarabulus","name:zh":"\u7684\u9ece\u6ce2\u91cc","name:so":"Triboli","name:sl":"Tripoli","name:sk":"Tripolis","name:ja":"\u30c8\u30ea\u30dd\u30ea","name:nn":"Tripoli","name:sh":"Tripoli","name:sc":"Tripoli","name:br":"Tripoli","name:bs":"Tripoli","name:yi":"\u05d8\u05e8\u05d9\u05e4\u05d0\u05dc\u05d9","name:bn":"\u09a4\u09cd\u09b0\u09bf\u09aa\u09cb\u09b2\u09bf","name:bo":"\u0f50\u0f72\u0f0b\u0f62\u0f72\u0f0b\u0f55\u0f7c\u0f0b\u0f63\u0f72","name:sw":"Tripoli","name:be":"\u0422\u0440\u044b\u043f\u0430\u043b\u0456","name:bg":"\u0422\u0440\u0438\u043f\u043e\u043b\u0438","name:wo":"Tripoli","name:sr":"\u0422\u0440\u0438\u043f\u043e\u043b\u0438","name:ga":"Tripil\u00ed","name:gd":"Tripoli","name:ht":"Tripoli","name:jv":"Tripoli","name:gl":"Tr\u00edpoli","name:yo":"Tripoli","name:fi":"Tripoli"},"coordinates":[1519,3264]},{"type":"Point","properties":{"kind":"locality","name:en":"Al Zawiyah","name":"\u0627\u0644\u0632\u0627\u0648\u064a\u0629","kind_detail":"city","min_zoom":8.0,"name:de":"al-Sawija","source":"openstreetmap.org","name:fr":"Zaouia","alt_name:it":"Zavia","name:uk":"\u0415\u0437-\u0417\u0430\u0432\u0456\u044f","name:ru":"\u042d\u0437-\u0417\u0430\u0432\u0438\u044f","name:pl":"Az-Zawija","population":318726,"id":277399530,"name:it":"Zauia"},"coordinates":[205,2801]},{"type":"Point","properties":{"kind":"locality","name:en":"Tarhuna","name":"\u062a\u0631\u0647\u0648\u0646\u0629","kind_detail":"city","min_zoom":8.0,"source":"openstreetmap.org","name:fr":"Tarhouna","int_name":"Tarhuna;Tarhunah;Tarhoonah;Tarhouna","id":277399044,"population":50715},"coordinates":[2864,1676]},{"type":"Point","properties":{"kind":"locality","name:en":"Kikla","name":"\u0643\u0643\u0644\u0629 \u2011 \u2d3d\u2d3b\u2d3d\u2d4d\u2d30","kind_detail":"town","source":"openstreetmap.org","min_zoom":8.0,"alt_name:en":"Kiklah","id":1233055004,"population":10350},"coordinates":[115,383]},{"type":"Point","properties":{"kind":"locality","name:en":"Gharyan","name":"\u063a\u0631\u064a\u0627\u0646\u2011 \u2d56\u2d54\u2d62\u2d30\u2d4f","kind_detail":"city","name:ar":"\u063a\u0631\u064a\u0627\u0646","source":"openstreetmap.org","min_zoom":8.0,"name:it":"Garian","id":1565510610,"population":5212},"coordinates":[1063,758]},{"type":"Point","properties":{"source":"openstreetmap.org","kind":"locality","name":"Al Tuwaybiyah \u0627\u0644\u0637\u0648\u064a\u0628\u064a\u0647","kind_detail":"town","population":4316,"min_zoom":8.0,"id":1565509932},"coordinates":[533,2852]},{"type":"Point","properties":{"source":"openstreetmap.org","kind":"locality","name":"Al Hurshah","kind_detail":"town","population":3759,"min_zoom":8.0,"id":1565509219},"coordinates":[51,2808]},{"type":"Point","properties":{"source":"openstreetmap.org","kind":"locality","name":"Sayyad \u0635\u064a\u0627\u062f","kind_detail":"town","population":3725,"min_zoom":8.0,"id":1565512664},"coordinates":[856,2987]},{"type":"Point","properties":{"source":"openstreetmap.org","kind":"locality","name":"Al Sawani \u0627\u0644\u0633\u0648\u0627\u0646\u064a","kind_detail":"town","population":3493,"min_zoom":8.0,"id":1565509686},"coordinates":[1195,2642]},{"type":"Point","properties":{"source":"openstreetmap.org","kind":"locality","name":"Al Lamamish","kind_detail":"town","population":2979,"min_zoom":8.0,"id":1565509346},"coordinates":[1230,782]}]},"transit":{"type":"GeometryCollection","geometries":[]},"pois":{"type":"GeometryCollection","geometries":[]},"boundaries":{"type":"GeometryCollection","geometries":[{"type":"LineString","properties":{"name:kg":"Libia","name:ka":"\u10da\u10d8\u10d1\u10d8\u10d0","name:ko":"\ub9ac\ube44\uc544","name:cv":"\u041b\u0438\u0432\u0438","name:kl":"Libya","name:cs":"Libye","name:tt":"\u041b\u0438\u0432\u0438\u044f","name:kw":"Libi","name:tk":"Liwi\u00fda","name:ku":"L\u00eebya","name:ti":"\u120a\u1262\u12eb","name:tl":"Libya","name:ce":"\u041b\u0438\u0432\u0438","name:ta":"\u0bb2\u0bbf\u0baa\u0bbf\u0baf\u0bbe","name:tg":"\u041b\u0438\u0431\u0438\u044f","name:ca":"L\u00edbia","name:te":"\u0c32\u0c3f\u0c2c\u0c3f\u0c2f\u0c3e","name:cy":"Libya","name:qu":"Libya","name:da":"Libyen","name:de":"Libyen","source":"openstreetmap.org","name:kn":"\u0cb2\u0cbf\u0cac\u0cbf\u0caf\u0cbe","name:dv":"\u078d\u07a9\u0784\u07a8\u0794\u07a7","name:lv":"L\u012bbija","name:lt":"Libija","name:uz":"Liviya","name:kk":"\u041b\u0438\u0432\u0438\u044f","name:ur":"\u0644\u06cc\u0628\u06cc\u0627","name:lb":"Libyen","name:la":"Libya","name:uk":"\u041b\u0456\u0432\u0456\u044f","name:ug":"\u0644\u0649\u06cb\u0649\u064a\u06d5","name:li":"Libi\u00eb","name:ln":"Lib\u00eeya","name:el":"\u039b\u03b9\u03b2\u03cd\u03b7","name:eo":"Libio","name:en":"Libya","name":"\u2d4d\u2d49\u2d31\u2d62\u2d30 \u0644\u064a\u0628\u064a\u0627","name:ee":"Libya","name:th":"\u0e1b\u0e23\u0e30\u0e40\u0e17\u0e28\u0e25\u0e34\u0e40\u0e1a\u0e35\u0e22","name:eu":"Libia","name:et":"Liib\u00fca","name:es":"Libia","name:ia":"Libya","name:az":"Liviya","name:ie":"Libya","name:id":"Libya","name:ar":"\u0644\u064a\u0628\u064a\u0627","name:io":"Libia","name:is":"L\u00edb\u00fda","name:am":"\u120a\u1262\u12eb","name:it":"Libia","name:an":"Libia","name:ru":"\u041b\u0438\u0432\u0438\u044f","name:rw":"Libiya","name:af":"Libi\u00eb","name:zu":"ILibiya","kind_detail":"2","name:ky":"\u041b\u0438\u0432\u0438\u044f","name:zh-yue":"\u5229\u6bd4\u4e9e","name:zh":"\u5229\u6bd4\u4e9a","name:so":"Libiya","name:sn":"Libya","name:sm":"Libya","name:sl":"Libija","name:sk":"L\u00edbya","name:ja":"\u30ea\u30d3\u30a2","name:si":"\u0dbd\u0dd2\u0db6\u0dd2\u0dba\u0dcf\u0dc0","name:sh":"Libija","name:sg":"Lib\u00efi","name:se":"Libya","name:sc":"L\u00ecbia","name:br":"Libia","name:bs":"Libija","name:bm":"Libya","name:bn":"\u09b2\u09bf\u09ac\u09bf\u09af\u09bc\u09be","name:bo":"\u0f63\u0f72\u0f0b\u0f54\u0f72\u0f0b\u0f61\u0f0d","name:sa":"\u0932\u093f\u092c\u093f\u092f\u093e","name:sw":"Libya","name:be":"\u041b\u0456\u0432\u0456\u044f","name:su":"Libya","name:bg":"\u041b\u0438\u0431\u0438\u044f","name:ss":"ILibhiya","name:ba":"\u041b\u0438\u0432\u0438\u044f","name:sq":"Libia","name:jv":"Libya","name:pt":"L\u00edbia","name:ps":"\u0644\u06d0\u0628\u064a\u0627","name:oc":"Libia","min_zoom":8.0,"name:ro":"Libia","name:zh-min-nan":"Libya","name:os":"\u041b\u0438\u0432\u0438","name:or":"\u0b32\u0b3f\u0b2c\u0b3f\u0b06","name:pl":"Libia","sort_rank":262,"name:sr":"\u041b\u0438\u0431\u0438\u0458\u0430","osm_relation":true,"name:pa":"\u0a32\u0a40\u0a2c\u0a40\u0a06","name:tr":"Libya","name:hi":"\u0932\u0940\u092c\u093f\u092f\u093e","name:sv":"Libyen","name:he":"\u05dc\u05d5\u05d1","name:ha":"Libya","name:hy":"\u053c\u056b\u0562\u056b\u0561","name:ht":"Libi","name:hu":"L\u00edbia","name:hr":"Libija","kind":"country","name:ts":"Libiya","name:yi":"\u05dc\u05d9\u05d1\u05d9\u05e2","name:yo":"L\u00edby\u00e0","name:mt":"Libja","name:ms":"Libya","name:mr":"\u0932\u0940\u092c\u093f\u092f\u093e","name:my":"\u101c\u1005\u103a\u1017\u103b\u102c\u1038\u1014\u102d\u102f\u1004\u103a\u1004\u1036","name:mg":"Libia","name:vi":"Libya","name:ml":"\u0d32\u0d3f\u0d2c\u0d3f\u0d2f","name:mn":"\u041b\u0438\u0432\u0438","id":-192758,"name:mk":"\u041b\u0438\u0431\u0438\u0458\u0430","name:vo":"L\u00fcb\u00e4n","name:fa":"\u0644\u06cc\u0628\u06cc","name:fi":"Libya","name:fo":"Libya","alt_name:vi":"Libi","name:fr":"Libye","name:fy":"Lybje","name:nl":"Libi\u00eb","name:nn":"Libya","name:no":"Libya","name:ne":"\u0932\u093f\u092c\u093f\u092f\u093e","name:wa":"Libeye","name:wo":"Libi","name:nv":"\u0141\u00edbya","name:ga":"An Libia","name:gd":"Libia","name:gn":"Livia","name:gl":"Libia","maritime_boundary":true,"name:gv":"Yn Leeb"},"arcs":[0]},{"type":"LineString","properties":{"name:right:uk":"\u041c\u0456\u0441\u0443\u0440\u0430\u0442\u0430","int_name:left":"Murqub","name:right:it":"Distretto di Misurata","id:right":-2060180,"name:left:uk":"\u0415\u043b\u044c-\u041c\u0430\u0440\u0433\u0430\u0431","min_zoom":8.0,"id:left":-3795005,"name:left:en":"Murqub","name:left:ru":"\u042d\u043b\u044c-\u041c\u0430\u0440\u0433\u0430\u0431","name:right:ru":"\u041c\u0438\u0441\u0443\u0440\u0430\u0442\u0430","name:right:pl":"Misrata","id":-3795005,"osm_relation":true,"name:right":"\u0645\u0635\u0631\u0627\u062a\u0629","kind":"region","name:left:it":"Distretto di Al-Murgub","name":"\u0627\u0644\u0645\u0631\u0642\u0628 - \u0645\u0635\u0631\u0627\u062a\u0629","source":"openstreetmap.org","sort_rank":256,"kind_detail":"4","int_name:right":"Misrata","name:right:en":"Misrata","name:left:pl":"Al-Marakib","name:right:de":"Misrata","name:left":"\u0627\u0644\u0645\u0631\u0642\u0628"},"arcs":[1]},{"type":"LineString","properties":{"kind":"region","name:en":"Murqub","name":"\u0627\u0644\u0645\u0631\u0642\u0628","sort_rank":256,"kind_detail":"4","source":"openstreetmap.org","min_zoom":8.0,"int_name":"Murqub","name:it":"Distretto di Al-Murgub","name:uk":"\u0415\u043b\u044c-\u041c\u0430\u0440\u0433\u0430\u0431","name:ru":"\u042d\u043b\u044c-\u041c\u0430\u0440\u0433\u0430\u0431","name:pl":"Al-Marakib","id":-3795005,"osm_relation":true},"arcs":[2]},{"type":"LineString","properties":{"kind":"region","name:en":"Murqub","name":"\u0627\u0644\u0645\u0631\u0642\u0628","sort_rank":256,"kind_detail":"4","min_zoom":8.0,"source":"openstreetmap.org","maritime_boundary":true,"int_name":"Murqub","name:it":"Distretto di Al-Murgub","name:uk":"\u0415\u043b\u044c-\u041c\u0430\u0440\u0433\u0430\u0431","name:ru":"\u042d\u043b\u044c-\u041c\u0430\u0440\u0433\u0430\u0431","name:pl":"Al-Marakib","id":-3795005,"osm_relation":true},"arcs":[3]},{"type":"LineString","properties":{"int_name:right":"Jabal al Gharbi","name:right:uk":"\u0415\u043b\u044c-\u0414\u0436\u0430\u0431\u0430\u043b \u0435\u043b\u044c-\u0413\u0430\u0440\u0431\u0456","int_name:left":"Misrata","name:right:it":"Distretto di Gebel Garbi","id:right":-2060175,"name:left:uk":"\u041c\u0456\u0441\u0443\u0440\u0430\u0442\u0430","min_zoom":8.0,"name:left:en":"Misrata","name:left:ru":"\u041c\u0438\u0441\u0443\u0440\u0430\u0442\u0430","name:right:ru":"\u042d\u043b\u044c-\u0414\u0436\u0430\u0431\u0430\u043b-\u044d\u043b\u044c-\u0413\u0430\u0440\u0431\u0438","name:right:pl":"Al-D\u017cabal al-Gharbi","id":-2060180,"osm_relation":true,"name:right":"\u0627\u0644\u062c\u0628\u0644 \u0627\u0644\u063a\u0631\u0628\u064a","kind":"region","name:left:it":"Distretto di Misurata","name":"\u0645\u0635\u0631\u0627\u062a\u0629 - \u0627\u0644\u062c\u0628\u0644 \u0627\u0644\u063a\u0631\u0628\u064a","source":"openstreetmap.org","sort_rank":256,"kind_detail":"4","name:left:de":"Misrata","name:right:en":"Jabal al Gharbi","name:left:pl":"Misrata","id:left":-2060180,"name:left":"\u0645\u0635\u0631\u0627\u062a\u0629"},"arcs":[4]},{"type":"LineString","properties":{"kind":"region","name:en":"Misrata","name":"\u0645\u0635\u0631\u0627\u062a\u0629","sort_rank":256,"kind_detail":"4","name:de":"Misrata","source":"openstreetmap.org","min_zoom":8.0,"int_name":"Misrata","name:it":"Distretto di Misurata","name:uk":"\u041c\u0456\u0441\u0443\u0440\u0430\u0442\u0430","name:ru":"\u041c\u0438\u0441\u0443\u0440\u0430\u0442\u0430","name:pl":"Misrata","id":-2060180,"osm_relation":true},"arcs":[5]},{"type":"LineString","properties":{"kind":"region","name:en":"Jabal al Gharbi","name":"\u0627\u0644\u062c\u0628\u0644 \u0627\u0644\u063a\u0631\u0628\u064a","sort_rank":256,"kind_detail":"4","source":"openstreetmap.org","min_zoom":8.0,"int_name":"Jabal al Gharbi","name:it":"Distretto di Gebel Garbi","name:uk":"\u0415\u043b\u044c-\u0414\u0436\u0430\u0431\u0430\u043b \u0435\u043b\u044c-\u0413\u0430\u0440\u0431\u0456","name:ru":"\u042d\u043b\u044c-\u0414\u0436\u0430\u0431\u0430\u043b-\u044d\u043b\u044c-\u0413\u0430\u0440\u0431\u0438","name:pl":"Al-D\u017cabal al-Gharbi","id":-2060175,"osm_relation":true},"arcs":[6]}]},"roads":{"type":"GeometryCollection","geometries":[{"type":"MultiLineString","properties":{"sort_rank":380,"kind_detail":"primary","min_zoom":8.0,"kind":"major_road","source":"openstreetmap.org"},"arcs":[[9],[10],[11],[12],[13],[14],[15],[16],[17],[18],[19],[20],[21],[22],[23],[24],[25],[26],[27],[28],[29],[30],[31],[32],[33],[34],[35],[36],[37],[38],[39],[40],[41],[42],[43],[44],[45],[46],[47],[48],[49],[50],[51],[52],[53],[54],[55],[56],[57],[58],[59],[60],[61],[62]]},{"type":"MultiLineString","properties":{"sort_rank":381,"source":"openstreetmap.org","min_zoom":8.0,"kind":"major_road","kind_detail":"trunk"},"arcs":[[63],[64],[65],[66],[67],[68],[69],[70],[71],[72],[73],[74],[75],[76],[77],[78],[79],[80],[81],[82],[83],[84],[85],[86],[87],[88],[89],[90],[91],[92],[93],[94],[95],[96],[97],[98],[99],[100],[101],[102],[103],[104],[105],[106],[107],[108],[109],[110],[111],[112],[113],[114],[115],[116],[117],[118],[119],[120],[121],[122],[123],[124],[125],[126],[127],[128],[129],[130],[131],[132],[133],[134],[135],[136],[137],[138],[139],[140],[141],[142],[143],[144],[145],[146],[147],[148],[149]]},{"type":"MultiLineString","properties":{"source":"openstreetmap.org","kind":"highway","name:en":"Airport Highway","landuse_kind":"urban_area","sort_rank":383,"kind_detail":"motorway","min_zoom":8.0},"arcs":[[150],[151]]},{"type":"LineString","properties":{"kind":"major_road","name:en":"Jazzerat Abu Hareeda","sort_rank":381,"landuse_kind":"urban_area","source":"openstreetmap.org","min_zoom":8.0,"kind_detail":"trunk","id":34495822},"arcs":[152]},{"type":"MultiLineString","properties":{"source":"openstreetmap.org","kind":"major_road","name:en":"Tariq Al-Sikkah","landuse_kind":"urban_area","sort_rank":380,"kind_detail":"primary","min_zoom":8.0},"arcs":[[153],[154]]},{"type":"LineString","properties":{"source":"openstreetmap.org","kind":"major_road","name:en":"Ayn Zarah Road","sort_rank":380,"kind_detail":"primary","min_zoom":8.0,"id":37732590},"arcs":[155]},{"type":"MultiLineString","properties":{"source":"openstreetmap.org","kind":"major_road","sort_rank":381,"kind_detail":"trunk","name:ar":"\u0637\u0631\u064a\u0642 \u063a\u0631\u064a\u0627\u0646- \u0646\u0627\u0644\u0648\u062a","min_zoom":8.0,"id":83431119},"arcs":[[156],[157]]},{"type":"LineString","properties":{"kind":"major_road","name:en":"Gorji Road","sort_rank":381,"landuse_kind":"urban_area","source":"openstreetmap.org","min_zoom":8.0,"kind_detail":"trunk","id":25448231},"arcs":[158]},{"type":"MultiLineString","properties":{"source":"openstreetmap.org","kind":"highway","name:en":"Second Ring Road","kind_detail":"motorway","sort_rank":383,"landuse_kind":"urban_area","min_zoom":8.0},"arcs":[[159],[160],[161],[162],[163],[164]]},{"type":"LineString","properties":{"source":"openstreetmap.org","kind":"major_road","name:en":"Beach Road","sort_rank":380,"kind_detail":"primary","min_zoom":8.0,"id":32964305},"arcs":[165]},{"type":"LineString","properties":{"kind":"major_road","name:en":"Al-Sidra Road","sort_rank":380,"landuse_kind":"urban_area","source":"openstreetmap.org","min_zoom":8.0,"kind_detail":"primary","id":37732531},"arcs":[166]},{"type":"LineString","properties":{"kind":"major_road","name:en":"Abushosha","sort_rank":380,"landuse_kind":"urban_area","source":"openstreetmap.org","min_zoom":8.0,"kind_detail":"primary","id":101422974},"arcs":[167]},{"type":"MultiLineString","properties":{"source":"openstreetmap.org","kind":"major_road","name:en":"Wadi Arabie Road","sort_rank":381,"kind_detail":"trunk","min_zoom":8.0},"arcs":[[168],[169],[170],[171],[172],[173],[174],[175]]},{"type":"LineString","properties":{"source":"openstreetmap.org","kind":"major_road","name:en":"Gergarish Main Rd","landuse_kind":"urban_area","sort_rank":380,"kind_detail":"primary","min_zoom":8.0},"arcs":[176]},{"type":"LineString","properties":{"kind":"major_road","name:en":"Beach Road","sort_rank":380,"landuse_kind":"residential","source":"openstreetmap.org","min_zoom":8.0,"kind_detail":"primary","id":32964305},"arcs":[177]},{"type":"LineString","properties":{"kind":"major_road","name:en":"Bin Ashur","sort_rank":380,"landuse_kind":"urban_area","source":"openstreetmap.org","min_zoom":8.0,"kind_detail":"primary","id":147354408},"arcs":[178]},{"type":"MultiLineString","properties":{"kind":"major_road","int_name":"Al Jarabah St.","sort_rank":380,"kind_detail":"primary","source":"openstreetmap.org","min_zoom":8.0,"name:en":"Al Jaraba Street","landuse_kind":"urban_area"},"arcs":[[179],[180]]},{"type":"MultiLineString","properties":{"source":"openstreetmap.org","kind":"major_road","landuse_kind":"urban_area","sort_rank":380,"kind_detail":"primary","min_zoom":8.0},"arcs":[[181],[182],[183],[184],[185],[186],[187],[188],[189],[190],[191],[192],[193],[194],[195],[196],[197],[198],[199],[200],[201],[202],[203],[204],[205],[206],[207],[208],[209],[210],[211],[212],[213],[214],[215],[216],[217],[218],[219],[220],[221],[222],[223],[224],[225],[226],[227],[228],[229],[230],[231],[232],[233],[234],[235],[236],[237],[238],[239],[240],[241],[242],[243],[244],[245],[246],[247],[248],[249],[250],[251],[252],[253],[254],[255],[256],[257],[258],[259],[260],[261],[262],[263],[264],[265],[266],[267],[268],[269],[270],[271],[272],[273],[274],[275],[276],[277],[278],[279],[280],[281],[282],[283],[284],[285],[286],[287],[288],[289],[290],[291],[292],[293],[294],[295],[296],[297],[298],[299],[300],[301],[302],[303],[304],[305],[306],[307],[308],[309],[310],[311],[312],[313],[314],[315],[316],[317],[318],[319],[320],[321],[322],[323],[324],[325],[326],[327],[328],[329],[330],[331],[332],[333],[334],[335],[336],[337],[338],[339],[340],[341],[342],[343],[344],[345],[346],[347],[348],[349],[350],[351],[352],[353],[354],[355],[356],[357],[358],[359],[360],[361],[362],[363],[364],[365],[366],[367],[368],[369],[370],[371],[372],[373],[374],[375],[376],[377],[378],[379],[380],[381],[382],[383],[384],[385],[386],[387],[388],[389],[390],[391],[392],[393],[394],[395],[396],[397],[398],[399],[400],[401],[402],[403],[404],[405],[406],[407],[408],[409],[410],[411],[412],[413],[414],[415],[416],[417],[418],[419],[420],[421],[422],[423],[424],[425],[426],[427],[428],[429],[430],[431],[432],[433],[434],[435],[436],[437],[438],[439]]},{"type":"MultiLineString","properties":{"source":"openstreetmap.org","kind":"major_road","kind_detail":"trunk","sort_rank":381,"landuse_kind":"urban_area","min_zoom":8.0},"arcs":[[440],[441],[442],[443],[444],[445],[446],[447],[448],[449],[450],[451],[452],[453],[454],[455],[456],[457],[458],[459],[460],[461],[462],[463],[464],[465],[466],[467],[468],[469],[470],[471],[472],[473],[474],[475],[476],[477],[478],[479],[480],[481],[482],[483],[484],[485],[486],[487],[488],[489],[490],[491],[492],[493],[494],[495],[496],[497],[498],[499],[500],[501],[502],[503],[504],[505],[506],[507],[508],[509],[510],[511],[512],[513]]},{"type":"MultiLineString","properties":{"source":"openstreetmap.org","kind":"major_road","name:en":"An Nasr Street","landuse_kind":"urban_area","sort_rank":380,"kind_detail":"primary","min_zoom":8.0},"arcs":[[514],[515]]},{"type":"MultiLineString","properties":{"source":"openstreetmap.org","kind":"highway","landuse_kind":"urban_area","sort_rank":383,"kind_detail":"motorway","min_zoom":8.0},"arcs":[[516],[517],[518],[519],[520],[521],[522]]},{"type":"LineString","properties":{"kind":"major_road","name:en":"Tajoura wast","sort_rank":380,"landuse_kind":"urban_area","source":"openstreetmap.org","min_zoom":8.0,"kind_detail":"primary","id":101419098},"arcs":[523]},{"type":"MultiLineString","properties":{"source":"openstreetmap.org","kind":"major_road","name:en":"Abu Harida Street","landuse_kind":"urban_area","sort_rank":380,"kind_detail":"primary","min_zoom":8.0},"arcs":[[524],[525],[526]]},{"type":"MultiLineString","properties":{"source":"openstreetmap.org","kind":"major_road","name:en":"Central Tajoura St","landuse_kind":"residential","sort_rank":380,"kind_detail":"primary","min_zoom":8.0},"arcs":[[527],[528]]},{"type":"MultiLineString","properties":{"source":"openstreetmap.org","kind":"major_road","name:en":"Wadi Arabie Road","kind_detail":"trunk","sort_rank":381,"landuse_kind":"urban_area","min_zoom":8.0},"arcs":[[529],[530]]},{"type":"MultiLineString","properties":{"source":"openstreetmap.org","kind":"major_road","name:en":"Central Tajoura St","landuse_kind":"urban_area","sort_rank":380,"kind_detail":"primary","min_zoom":8.0},"arcs":[[531],[532]]},{"type":"MultiLineString","properties":{"source":"openstreetmap.org","kind":"major_road","kind_detail":"trunk","sort_rank":381,"landuse_kind":"park","min_zoom":8.0},"arcs":[[533],[534],[535]]},{"type":"LineString","properties":{"kind":"major_road","name:en":"An Nasr Street","sort_rank":381,"landuse_kind":"urban_area","source":"openstreetmap.org","min_zoom":8.0,"kind_detail":"trunk","id":25447963},"arcs":[536]},{"type":"LineString","properties":{"kind":"major_road","name:en":"Ayn Zarah Road","sort_rank":380,"landuse_kind":"urban_area","source":"openstreetmap.org","min_zoom":8.0,"kind_detail":"primary","id":37732590},"arcs":[537]},{"type":"LineString","properties":{"kind":"major_road","name:en":"Gergarish Main Rd","sort_rank":380,"kind_detail":"primary","name:ar":"\u0637\u0631\u064a\u0642 \u0642\u0631\u0642\u0627\u0631\u0634 \u0627\u0644\u0631\u0626\u064a\u0633\u064a\u202c\u200e","source":"openstreetmap.org","min_zoom":8.0,"landuse_kind":"urban_area","id":25448067},"arcs":[538]},{"type":"MultiLineString","properties":{"source":"openstreetmap.org","kind":"major_road","name:en":"Ahmed Al-Shareef Street","landuse_kind":"urban_area","sort_rank":380,"kind_detail":"primary","min_zoom":8.0},"arcs":[[539],[540]]},{"type":"MultiLineString","properties":{"source":"openstreetmap.org","kind":"major_road","name:en":"Abu Harida Street","kind_detail":"trunk","sort_rank":381,"landuse_kind":"urban_area","min_zoom":8.0},"arcs":[[541],[542]]},{"type":"MultiLineString","properties":{"source":"openstreetmap.org","kind":"major_road","landuse_kind":"residential","sort_rank":381,"kind_detail":"trunk","min_zoom":8.0},"arcs":[[543],[544]]},{"type":"MultiLineString","properties":{"source":"openstreetmap.org","kind":"major_road","landuse_kind":"residential","sort_rank":380,"kind_detail":"primary","min_zoom":8.0},"arcs":[[545],[546],[547],[548],[549],[550],[551],[552],[553],[554]]},{"type":"LineString","properties":{"kind":"major_road","name:en":"Isban Curcle","sort_rank":380,"landuse_kind":"urban_area","source":"openstreetmap.org","min_zoom":8.0,"kind_detail":"primary","id":32964203},"arcs":[555]},{"type":"MultiLineString","properties":{"source":"openstreetmap.org","kind":"major_road","landuse_kind":"park","sort_rank":380,"kind_detail":"primary","min_zoom":8.0},"arcs":[[556],[557],[558],[559]]},{"type":"MultiLineString","properties":{"source":"openstreetmap.org","kind":"major_road","name:en":"Beach Road","landuse_kind":"urban_area","sort_rank":380,"kind_detail":"primary","min_zoom":8.0},"arcs":[[560],[561],[562],[563],[564],[565]]},{"type":"MultiLineString","properties":{"source":"openstreetmap.org","kind":"major_road","name:en":"20th Ramadan Street","landuse_kind":"urban_area","sort_rank":380,"kind_detail":"primary","min_zoom":8.0},"arcs":[[566],[567],[568],[569],[570],[571]]},{"type":"LineString","properties":{"kind":"major_road","name:en":"Al Nasr street","sort_rank":380,"landuse_kind":"urban_area","source":"openstreetmap.org","min_zoom":8.0,"kind_detail":"primary","id":32517076},"arcs":[572]},{"type":"LineString","properties":{"kind":"major_road","sort_rank":381,"landuse_kind":"urban_area","name:ar":"\u0627\u0644\u0634\u0627\u0631\u0639 \u0627\u0644\u063a\u0631\u0628\u064a","source":"openstreetmap.org","min_zoom":8.0,"kind_detail":"trunk","id":413461324},"arcs":[573]}]},"earth":{"type":"GeometryCollection","geometries":[{"type":"MultiPolygon","properties":{"sort_rank":10,"source":"naturalearthdata.com","kind":"earth","min_zoom":0.0,"id":4726},"arcs":[[[574]]]}]},"landuse":{"type":"GeometryCollection","geometries":[{"type":"Polygon","properties":{"kind":"residential","name":"Al Urban \u0627\u0644\u0639\u0631\u0628\u0627\u0646","area":424108000,"sort_rank":20,"source":"openstreetmap.org","min_zoom":6.0,"tier":2,"id":328431712},"arcs":[[575]]},{"type":"MultiPolygon","properties":{"source":"naturalearthdata.com","kind":"urban_area","name":"","area":1636332743,"sort_rank":11,"min_zoom":4.0},"arcs":[[[576]],[[577]]]},{"type":"MultiPolygon","properties":{"source":"openstreetmap.org","kind":"residential","tier":2,"area":27615432,"sort_rank":20,"min_zoom":8.0},"arcs":[[[578]]]},{"type":"Polygon","properties":{"source":"openstreetmap.org","kind":"park","area":956217984,"tier":2,"id":321990657,"min_zoom":6.0,"sort_rank":24},"arcs":[[579]]}]}},"type":"Topology","transform":{"translate":[12.65625,31.952162238],"scale":[0.0003433228,0.0002894016]},"arcs":[[[4096,3452],[-640,170],[-676,55],[-438,249],[-691,115],[-261,-39],[-602,-278],[-707,-115],[-81,10]],[[2079,1550],[1719,-740],[298,116]],[[2795,3051],[-53,-167],[-78,-65],[31,-55],[-74,-35],[-57,-64],[-19,-66],[-177,-166],[-218,-107],[-49,33],[-55,93],[26,-105],[-3,-354],[20,-79],[-48,-203],[32,-16],[-23,-63],[29,-82]],[[4096,3452],[-640,170],[-449,37],[-212,-608]],[[1815,1180],[126,-124],[21,-120],[39,-66],[169,-124],[-58,-28],[-155,-172],[-1,-89],[37,-110],[-43,-54],[-58,-21],[24,-272]],[[2079,1550],[-93,68],[-117,-31],[7,-71],[-67,-192],[6,-144]],[[1815,1180],[-27,28],[-143,-11],[-57,-47],[-453,137],[-200,-7],[-43,73],[-10,214],[-230,-6],[-257,32],[13,-346],[-81,-321],[-327,-66]],[[4096,2702],[-208,36],[-221,98],[-247,73],[-126,19],[-496,-21],[-132,32],[-577,309],[-30,26],[-33,16],[-276,50],[-202,-9],[-67,-12],[-50,-30],[-93,-76],[-120,-54],[-728,-214],[-276,-20],[-214,22],[0,1149],[4096,0],[0,-1394]],[[4096,2702],[-208,36],[-221,98],[-247,73],[-126,19],[-496,-21],[-132,32],[-577,309],[-30,26],[-33,16],[-276,50],[-202,-9],[-67,-12],[-50,-30],[-93,-76],[-120,-54],[-728,-214],[-276,-20],[-214,22]],[[128,1443],[-5,8]],[[817,413],[-64,122],[-139,47],[-10,55],[-37,-11],[-59,81],[52,9],[22,43]],[[582,759],[-14,19]],[[582,759],[157,241]],[[918,2845],[-170,-30]],[[783,1022],[45,17],[44,-40]],[[1022,763],[1,51],[-44,14],[-106,160],[22,154]],[[913,1186],[49,40]],[[981,569],[0,-1]],[[1008,695],[-15,-73]],[[993,622],[-11,-53]],[[992,625],[1,-3]],[[993,622],[7,-25]],[[1019,578],[-19,19]],[[1113,679],[9,-37],[-109,-11]],[[1022,1253],[104,29]],[[1096,764],[-3,2]],[[1093,766],[-6,2]],[[1087,768]],[[1087,768],[-2,1],[-2,-1]],[[1086,767],[1,1]],[[1087,768],[0,2]],[[1087,770],[1,0]],[[1087,770]],[[1087,770],[0,-1],[0,-1]],[[1087,768],[-1,-1]],[[1089,768],[1,2]],[[1091,768],[1,-2]],[[1092,766],[0,2]],[[1096,763],[-1,1],[-2,2]],[[1093,766],[-1,0]],[[1659,185],[-54,-53],[-115,2],[-62,-105],[-68,-29]],[[1503,2442],[-13,-122],[27,-245],[3,-2]],[[1520,2073],[118,-80]],[[1638,1993],[88,-61],[1,0],[162,-146],[226,-120],[118,-21]],[[2233,1645],[124,-23],[105,-46]],[[2462,1576],[3,-1],[151,-11],[78,58],[72,2],[63,38],[-63,-38],[-72,-1],[-78,-59],[-48,7],[-106,5]],[[2462,1576],[-229,69]],[[2233,1645],[-154,46],[-190,95],[-162,146],[0,1],[-89,60]],[[1638,1993],[-118,79],[0,1]],[[1520,2073],[-30,246],[13,123]],[[1647,1978],[8,-16]],[[1655,1963],[3,2]],[[1658,1965],[5,3]],[[1667,1966],[5,-86],[-14,85]],[[1658,1965],[-1,6],[2,0]],[[1671,1883],[13,-519],[108,-200],[37,2],[122,-134],[107,1],[27,-25],[43,-62],[-4,-63]],[[2143,3226],[0,1]],[[2143,3227],[-20,29],[-37,0]],[[2143,3227]],[[2143,3227],[-5,-1]],[[2139,3226],[4,0]],[[2144,3223],[-1,3]],[[2193,3047],[125,-88],[87,-8],[166,-129],[89,-25],[34,13]],[[0,1383],[319,186],[193,76]],[[514,1646],[-192,-75],[-322,-188]],[[705,1743],[230,131],[94,92]],[[1158,2506],[-65,2]],[[1093,2508],[-26,0],[-58,1]],[[1009,2509],[-90,2],[-54,0]],[[865,2511],[-106,1],[0,1]],[[759,2513],[-6,214],[0,3]],[[753,2730],[-6,79],[2,18]],[[751,2828],[2,-98]],[[753,2730],[4,-217],[2,0]],[[759,2513],[106,-2]],[[865,2511],[53,-1],[91,-1]],[[1009,2509],[53,0],[31,-1]],[[1093,2508],[65,-3]],[[1028,688],[-63,-216],[-134,-55],[-4,-2]],[[827,415],[-7,-3]],[[820,412],[-25,-11]],[[813,414],[-3,-6]],[[813,414],[2,0]],[[815,411],[-2,3]],[[815,416],[0,-2]],[[815,414],[1,0]],[[965,0],[-38,289],[-107,119]],[[820,408],[-1,0]],[[819,408],[-1,2]],[[820,408],[-1,0]],[[819,408]],[[819,407],[1,1]],[[820,408]],[[820,408],[2,2]],[[820,412]],[[820,412],[2,-2]],[[822,410],[4,5]],[[825,415],[2,0]],[[827,415],[138,56],[63,216]],[[1029,1966],[3,1]],[[1030,1968],[-1,-2]],[[1048,1985],[-17,-16]],[[1032,1968],[1,2]],[[1048,1985],[2,1]],[[1050,1986]],[[1049,1988]],[[1049,1988],[-1,-3]],[[1048,1985],[2,-1]],[[1050,1986]],[[1050,1986],[-1,0]],[[1050,1986]],[[1050,1986],[96,461],[45,106]],[[1072,1931],[-22,55]],[[1190,2553],[-45,-107],[-98,-441],[2,-17]],[[1049,1988],[1,-2]],[[1050,1986]],[[1050,1986],[0,-2]],[[1050,1984],[21,-53]],[[1071,1930],[72,-367],[-44,-420],[-50,-58],[43,-23],[2,-2]],[[1094,1060],[46,-48],[-2,-12]],[[1138,1000],[-11,-68],[-6,-122],[-17,-50]],[[1072,1930],[0,1],[-1,0]],[[1071,1931],[0,-2],[1,1]],[[1104,759],[18,51],[20,184],[-4,6]],[[1138,1000],[-44,60]],[[1094,1060],[-2,2],[-43,23],[44,44],[6,14],[44,286],[1,134],[-72,367]],[[1075,2138]],[[1124,823]],[[1343,2583],[2,0]],[[1345,2583],[-2,1]],[[1585,2833],[-3,-125]],[[1583,2708],[3,125]],[[1681,2669]],[[1729,2672]],[[1737,2673]],[[2283,3125],[44,-26],[173,-83],[193,-103]],[[2693,2913],[0,-38]],[[2693,2875],[-1,-61],[1,-1]],[[2693,2813],[48,-32]],[[2741,2781],[6,-4],[55,-109],[141,19],[70,34],[105,0],[162,-92],[170,-50],[376,50]],[[3826,2629],[5,1],[151,-57]],[[3982,2573],[28,-11],[86,18]],[[4096,2580],[-85,-17],[-29,10]],[[3982,2573],[-156,56]],[[3826,2629],[-4,1],[-372,-51],[-170,51],[-162,92],[-106,0],[-69,-34],[-140,-19],[-55,107],[-7,5]],[[2741,2781],[-48,31],[0,1]],[[2693,2813],[0,62]],[[2693,2875],[0,38]],[[2693,2913],[0,1],[-193,102],[-173,83],[-43,27]],[[1032,1968],[0,1],[-2,-1],[1,-1],[1,1]],[[1509,3150],[-102,-156],[25,-124],[-18,-319]],[[1415,2551],[18,319],[-25,124],[101,155]],[[1521,3203],[0,2],[-2,1],[-1,-3],[3,0]],[[1548,3230],[33,-54]],[[1583,3175],[-34,55]],[[1867,2883],[55,-125],[-15,-71]],[[825,415],[-145,-46],[-21,-46],[-281,-254],[-34,-69]],[[244,0],[-233,144],[-11,0]],[[1406,3170],[40,29]],[[1184,3077],[5,0]],[[1189,3077],[64,0]],[[1253,3077],[6,0]],[[1270,3083],[-17,-6]],[[1253,3077],[-44,-15],[-20,15]],[[1189,3077],[-2,1]],[[2089,3254],[36,1],[9,-26]],[[1641,3001],[127,-3]],[[1991,3219],[0,-1],[1,0],[0,1],[-1,0]],[[2499,3017],[-5,3]],[[2494,3020],[-1,-2],[-8,-21],[-92,-69],[-52,-104],[-78,-46]],[[2263,2778],[-19,-12]],[[2244,2766],[-367,-76],[-71,-35],[-149,12]],[[1659,2666],[145,-12],[74,36],[364,75],[2,1]],[[2244,2766],[19,12]],[[2263,2778],[78,45],[53,105],[91,69],[9,23]],[[2494,3020],[-1,-1]],[[1447,3208],[-17,-4],[18,4]],[[2003,3253],[66,1]],[[1601,3210],[-36,14]],[[1601,3210],[3,-50]],[[1606,3159],[-5,51]],[[96,2782],[20,-10]],[[116,2772],[-19,13]],[[116,2772],[0,-1],[0,1]],[[116,2772],[64,-5]],[[180,2768],[-64,4]],[[138,2770],[-2,-9]],[[137,2761],[3,9]],[[180,2767],[-3,-21]],[[178,2745],[2,22]],[[180,2767]],[[180,2767],[1,1],[-1,0],[0,-1]],[[245,2784],[-30,31],[-33,-7],[-2,-40]],[[180,2768],[2,40],[33,7],[30,-31]],[[199,2767],[-18,1]],[[181,2767],[17,0]],[[199,2767],[6,-2]],[[207,2766]],[[207,2766],[-8,1]],[[210,2767],[-3,-1]],[[207,2766],[-2,-1]],[[226,2774],[-16,-7]],[[245,2783],[-18,-9]],[[227,2774],[18,9]],[[246,2784],[12,6]],[[258,2790],[2,1],[14,10]],[[275,2802],[-17,-12]],[[258,2790],[-1,-1]],[[1006,2860],[-88,-15]],[[1000,3024],[4,-23]],[[1003,2979],[-2,-27]],[[1001,2952],[2,27]],[[1005,3002],[-4,23]],[[1004,3001],[-1,-22]],[[1003,2979],[2,22]],[[1003,2979],[0,1],[0,-1]],[[1003,2979]],[[1006,2860],[67,-21]],[[1073,2839],[-67,21]],[[1014,723],[-6,-28]],[[1027,749],[-1,-1]],[[1026,748],[-1,0]],[[1025,748],[-2,-3]],[[1023,745],[-8,-20]],[[1015,723],[22,8]],[[1037,731]],[[1037,731],[36,12],[9,16]],[[1082,759],[0,1]],[[1082,760],[4,7]],[[1086,767],[-4,-7]],[[1082,760],[-1,-1]],[[1081,759],[-8,-15],[-36,-13]],[[1037,731]],[[1037,731],[-22,-7]],[[1022,749],[0,14]],[[1025,748]],[[1025,748],[2,-3]],[[1027,745],[10,-14]],[[1037,731]],[[1037,731],[1,-2],[13,-15]],[[1061,709],[-22,20],[-2,2]],[[1037,731]],[[1037,731],[-9,14]],[[1028,745],[-2,3]],[[1026,748],[-1,0]],[[1083,768],[-60,-18],[0,-5]],[[1023,745],[0,-1],[4,1]],[[1027,745],[1,0]],[[1028,745],[22,3],[13,8],[18,3]],[[1081,759],[1,0]],[[1082,759],[13,2]],[[1090,714],[23,-35]],[[1095,757],[3,3]],[[1098,760],[-3,2]],[[1098,760],[-2,3]],[[1181,3082],[140,75]],[[1186,3082],[139,78]],[[1246,3114],[24,-31]],[[1273,3085],[-27,29]],[[1447,3089],[-23,25]],[[1449,3211],[-2,-3]],[[1447,3089],[12,-3],[-8,3],[-4,0]],[[1448,3208],[2,0]],[[1502,3279],[-51,-64]],[[1455,3214],[58,67]],[[1472,3215],[-8,-3]],[[1467,3212],[4,2]],[[1513,2534],[-10,-92]],[[1503,2442],[10,91]],[[1513,2533]],[[1513,3282],[-8,-3]],[[1513,2532],[0,1]],[[1513,2533],[1,0]],[[1513,3282],[0,-1],[1,0]],[[1514,3281],[0,1],[-1,0]],[[1514,3281],[25,-20],[3,0]],[[1542,3261],[38,4]],[[1580,3265],[3,0],[5,2]],[[1588,3267],[2,1]],[[1590,3268],[4,2]],[[1701,3308],[-107,-37],[-5,-2]],[[1589,3269],[-2,-1]],[[1587,3268],[-4,-2],[-3,-1]],[[1580,3265],[-32,-8],[-6,4]],[[1542,3261],[-28,20]],[[1525,3221]],[[1545,3232],[1,-1]],[[1547,3233]],[[1556,3257],[-1,-4]],[[1556,3253],[0,3]],[[1573,3179],[6,-4]],[[1579,3175],[1,-1]],[[1580,3174],[4,-2]],[[1584,3172]],[[1584,3172],[17,-12],[3,-1]],[[1604,3159],[1,-1]],[[1605,3158],[2,-1],[34,-18],[55,-35]],[[1587,3178],[-1,-3],[-1,-1]],[[1585,3174],[-1,-2]],[[1584,3172],[-3,-3],[-6,-3]],[[1576,3166],[6,3],[2,3]],[[1584,3172],[1,1]],[[1585,3173],[1,2],[3,2]],[[1578,3176],[1,-1]],[[1579,3175],[1,0]],[[1692,3119],[4,-13],[-59,36],[-30,15],[-2,2]],[[1605,3159],[-1,0]],[[1604,3159],[-3,2],[-16,12]],[[1585,3173],[0,1]],[[1585,3174],[-2,1],[-3,0]],[[1580,3175],[0,-1]],[[1580,3174],[1,-1]],[[1601,3160],[-18,-14]],[[1583,3145],[19,11]],[[1602,3156],[2,1]],[[1604,3157],[1,0]],[[1603,3158],[-1,-2]],[[1602,3156],[-1,-1]],[[1609,3224],[-8,-14]],[[1627,3199],[-26,11]],[[1603,3175],[-1,-2]],[[1603,3162],[-1,-1]],[[1604,3157]],[[1604,3157],[6,-28],[1,-3]],[[1605,3157],[0,1]],[[1611,3126],[-5,31]],[[1609,3224],[1,1]],[[1609,3226],[0,-2]],[[1627,3199],[5,-3]],[[1632,3196],[1,0]],[[1633,3196],[10,-6],[31,-26],[17,-41]],[[1644,3190],[-1,0]],[[1643,3190],[-10,6]],[[1633,3196],[-1,0]],[[1632,3196],[-5,3]],[[1647,3216],[-2,0]],[[1645,3216],[-5,1]],[[1640,3217],[-10,2]],[[1632,3192],[0,3],[1,1]],[[1633,3196]],[[1633,3196],[0,1],[12,19]],[[1645,3216],[7,32]],[[1651,3248],[1,-1],[-12,-30]],[[1640,3217],[-7,-20],[-1,-1]],[[1632,3196]],[[1632,3196],[0,-1]],[[1632,3254],[16,-4],[2,0]],[[1650,3250],[3,0]],[[1653,3250],[3,0],[62,4]],[[1718,3254],[1,0]],[[1719,3254],[42,3]],[[1760,3260],[-42,-4]],[[1718,3256]],[[1718,3256],[-63,-6],[-3,0]],[[1652,3250],[-2,0]],[[1650,3250],[-2,0],[-16,4]],[[1691,3123],[-17,41],[-31,26]],[[1643,3190],[0,1]],[[1647,3216],[162,-2],[82,-14],[-244,16]],[[1651,3248],[2,1],[0,1]],[[1653,3250],[-1,0]],[[1652,3250],[0,1],[-2,-1]],[[1650,3250]],[[1650,3250],[1,-2]],[[1699,3106],[-8,17]],[[1694,3105],[-2,2]],[[1701,3104],[22,10]],[[1723,3114],[111,50]],[[1842,3167],[-119,-51]],[[1723,3116],[-22,-10]],[[1717,3300],[0,-43],[1,-1]],[[1718,3256],[0,-1],[0,-1]],[[1718,3254],[3,-12],[1,-2]],[[1718,3255],[0,1]],[[1718,3256],[3,41]],[[1721,3297],[0,2]],[[1721,3299],[-2,3]],[[1720,3256],[-1,-2]],[[1719,3254],[0,-1]],[[1719,3299],[1,0],[1,0]],[[1721,3299],[1,0]],[[1720,3297],[1,0]],[[1721,3297],[7,2]],[[1721,3169],[0,-2]],[[1724,3110],[0,2],[-1,2]],[[1723,3114],[0,2]],[[1723,3116],[-1,51],[0,2]],[[1722,3240],[0,2]],[[1723,3214],[0,-2]],[[1723,3112],[1,-2]],[[1723,3212],[0,1]],[[1753,3246],[8,8]],[[1761,3254],[2,2]],[[1761,3256],[0,-2]],[[1761,3254]],[[1763,3256],[3,3],[-1,3],[-5,-4],[3,-2]],[[1782,3299],[62,6],[96,-44]],[[1827,3304],[1,0]],[[1834,3164],[10,2]],[[1834,3164],[8,3]],[[2001,3256],[-56,6]],[[1945,3259],[55,-5]],[[1991,3181],[-3,0]],[[1991,3219],[-1,0]],[[1991,3179]],[[1992,3218]],[[1993,3219],[9,32]],[[2003,3255],[0,-2]],[[2004,3255],[-1,0]],[[2086,3256],[-18,0]],[[2080,3175],[104,-122],[9,-6]],[[2189,3050],[-109,125]],[[2138,3226],[-56,-2]],[[2082,3223],[57,3]],[[2148,3189],[-4,34]],[[199,2767],[-1,0],[1,-1],[0,1]],[[226,2774],[1,0],[-1,0]],[[246,2783],[0,1],[-1,0],[0,-1]],[[245,2783],[1,0]],[[1004,3002],[0,-1],[1,0],[-1,1]],[[1457,3200],[7,3],[-13,12],[-2,-4]],[[1449,3211],[8,-11]],[[1503,3280],[-1,-2],[3,-1],[0,2]],[[1505,3279],[-2,1]],[[1548,3231],[-1,2],[-1,-1],[2,-2],[0,1]],[[1556,3241],[-1,0],[0,-1],[1,0],[0,1]],[[1588,3270],[-1,-2]],[[1587,3268],[1,-1]],[[1588,3267],[2,1]],[[1590,3268],[-1,1]],[[1589,3269],[-1,1]],[[1604,3160],[0,-1]],[[1604,3159]],[[1604,3159],[-1,-1]],[[1603,3158],[2,0]],[[1605,3158]],[[1605,3158],[0,1]],[[1605,3159],[0,1],[-1,0]],[[1780,3298],[2,1]],[[1782,3299],[-1,2],[-2,-1],[1,-2]],[[0,2775],[180,-32],[53,9],[15,15]],[[248,2767],[49,46]],[[297,2813],[15,14],[195,71],[248,32],[433,150],[133,69],[75,16],[2,1]],[[1398,3166],[1,0],[3,1],[1,1]],[[1403,3168],[3,2]],[[1464,3212],[-22,-14],[-37,-28],[-2,-2]],[[1403,3168],[-1,0],[-3,-2]],[[1399,3166],[-3,0],[-75,-17],[-133,-69],[-433,-149],[-247,-32],[-198,-72],[-13,-14]],[[297,2813],[-41,-44],[-8,-2]],[[248,2767],[-67,-23],[-181,33]],[[282,2807],[-7,-5]],[[748,2921],[2,-79],[0,-3]],[[750,2839],[1,-11]],[[749,2827],[1,12]],[[750,2839],[1,3],[-3,80]],[[1104,760],[-15,-45],[-58,-16],[-3,-11]],[[1028,687],[60,27],[16,45]],[[1407,3087],[-153,-355]],[[1254,2732],[-13,-30],[-22,-81],[-1,-1]],[[1218,2620]],[[1218,2620],[0,-1],[-28,-66]],[[1191,2553],[28,66],[0,1]],[[1219,2620]],[[1219,2620],[0,1],[23,81],[12,30]],[[1254,2732],[129,315]],[[1343,2584],[-124,36]],[[1219,2620],[-1,0]],[[1218,2620],[-5,2],[5,-2]],[[1218,2620],[1,0]],[[1219,2620],[124,-37]],[[1345,2583],[168,-49]],[[1404,2566],[-59,17]],[[1400,3161],[5,3],[-2,4]],[[1403,3168]],[[1403,3168],[-4,-2]],[[1399,3166],[-1,0]],[[1398,3166],[2,-5]],[[1400,3161],[27,-44]],[[1427,3117],[-24,45]],[[1417,2573],[-13,-7]],[[1513,2534],[-109,32]],[[1407,3087],[3,4]],[[1410,3091],[-3,-4]],[[1417,3103],[-7,-11]],[[1410,3091],[1,1],[-1,0],[0,-1]],[[1411,3091],[6,12]],[[1427,3117],[-10,-14]],[[1450,3137],[-23,-20]],[[1446,3199],[5,3],[18,12]],[[1450,3137],[37,38],[0,1],[1,0]],[[1488,3176],[0,1]],[[1510,3152],[-17,19],[-5,5]],[[1488,3176],[0,1],[-38,-40]],[[1493,3171],[17,-20]],[[1513,2533],[44,16],[26,159]],[[1582,2708],[-25,-159],[-44,-15]],[[1517,3162],[4,-1]],[[1521,3163],[-3,1]],[[1523,3161],[23,2],[29,3]],[[1575,3166],[1,0]],[[1575,3166],[-52,-3]],[[1586,2833],[68,115],[-1,3]],[[1653,2951],[-33,83]],[[1620,3034],[-23,58],[-22,74]],[[1575,3166]],[[1575,3166],[22,-77],[23,-55]],[[1620,3034],[33,-82],[0,-1]],[[1653,2951],[-22,-40],[-46,-78]],[[1989,3189],[-40,4],[-118,-22]],[[1833,3170],[156,18]],[[2083,3178],[89,15],[111,-68]],[[2284,3126],[-112,68],[-89,-15]],[[1516,3165],[-2,-2],[2,-2],[2,2],[-2,2]],[[1520,3162],[2,-1],[1,1],[-1,1],[-2,-1]],[[1471,3214],[54,7]],[[1555,3241],[-83,-26]],[[1293,3075],[-34,2]],[[1259,3077],[34,-3]],[[1831,3171],[-195,-28],[-52,-19],[-92,1],[-42,26],[-19,10],[-24,4],[-7,-3],[-127,-77]],[[1275,3083],[132,81],[84,-39],[93,-2],[249,47]],[[1514,3162],[-5,-12]],[[1509,3149],[8,13]],[[1275,3082],[-3,3],[-2,-6],[4,-1],[1,4]],[[2001,3253],[-10,-34]],[[1524,3218],[-5,-12]],[[1521,3205],[3,13]],[[1525,3221],[-1,-3]],[[1991,3214],[2,-35]],[[1994,3179],[-2,38]],[[1657,2667],[-63,5],[-9,0],[1,-12]],[[1586,2671],[73,-5]],[[1991,3218],[0,-4]],[[1992,3217],[0,1]],[[512,1645],[66,26]],[[578,1671],[-64,-25]],[[578,1671],[127,72]],[[1469,3214],[2,0]],[[1712,3080],[155,-197]],[[1321,3157],[109,47]],[[1555,3253],[0,-12]],[[1556,3241],[0,12]],[[1519,3203],[-3,-38]],[[1517,3164],[4,39]],[[2083,3179],[-94,10]],[[1989,3188],[94,-10]],[[2124,883],[-8,-124],[36,-17],[-192,-188],[-4,-97],[37,-108],[-40,-54],[-83,-25],[-158,33],[-53,-118]],[[1992,3181],[-1,0]],[[1991,3179],[1,2]],[[1992,3218],[90,5]],[[2082,3224],[-89,-5]],[[2002,3251],[1,1]],[[2003,3253],[0,2]],[[2068,3256],[-64,-1]],[[2069,3185],[11,-10]],[[2080,3175],[-4,7],[-7,3]],[[1945,3262],[-3,0],[-1,-3],[3,-1],[1,4]],[[568,778],[-148,188],[-53,147],[-239,330]],[[739,1000],[44,22]],[[895,1142],[18,44]],[[962,1226],[60,27]],[[1594,3270],[125,29]],[[1779,3301],[-78,7]],[[1722,3299],[58,-1]],[[1942,3263],[-101,43],[-61,-5]],[[2069,3254],[20,0]],[[2134,3229],[13,-40]],[[1722,3242],[-4,13]],[[1721,3167],[2,-55]],[[1723,3212],[-2,-43]],[[1722,3169],[1,43]],[[1722,3240],[1,-26]],[[1723,3213],[-1,27]],[[1547,3233],[8,7]],[[1487,3176],[6,-5]],[[4096,2702],[0,-2702],[-4096,0],[0,2947],[214,-22],[276,20],[728,214],[120,54],[93,76],[50,30],[67,12],[202,9],[276,-50],[33,-16],[30,-26],[577,-309],[132,-32],[496,21],[126,-19],[247,-73],[221,-98],[208,-36]],[[1569,215],[77,353],[281,389],[38,-31],[-4,-59],[110,49],[60,-38],[70,-104],[-6,-36],[-144,-162],[-4,-70],[38,-47],[-8,-125],[-140,-128],[-86,36],[-31,-17],[-45,-31],[-24,-66],[-48,23],[-1,30],[-108,10],[-25,24]],[[1084,666],[-95,37],[20,54],[47,21],[95,-37],[-21,-55],[-46,-20]],[[0,2701],[0,203],[41,39],[173,-18],[276,20],[728,214],[263,160],[67,12],[202,9],[276,-50],[267,-151],[-69,-91],[-178,-8],[-191,-168],[-219,-19],[-97,-39],[-32,39],[-32,-39],[28,-62],[166,-91],[-78,-158],[-64,-56],[-85,-17],[-94,40],[-21,47],[18,67],[-195,-38],[-45,209],[-81,-5],[-67,26],[-65,115],[-47,-2],[-115,-75],[-291,0],[-92,-116],[-86,-42],[-178,43],[-83,2]],[[1986,3197],[18,60],[63,3],[20,-49],[-4,-36],[-90,-2],[-7,24]],[[0,1376],[703,370],[135,-225],[239,-243],[-155,-70],[-61,-147],[-145,-72],[-98,-169],[-104,-87],[-100,-39],[-330,274],[-84,135],[0,273]]]}