{"objects":{"water":{"type":"GeometryCollection","geometries":[{"type":"Polygon","properties":{"source":"naturalearthdata.com","kind":"ocean","area":1576712559132672,"sort_rank":200,"min_zoom":0.0,"id":1},"arcs":[[7]]},{"type":"LineString","properties":{"source":"naturalearthdata.com","kind":"ocean","sort_rank":205,"boundary":true,"min_zoom":0.0,"id":47},"arcs":[8]}]},"buildings":{"type":"GeometryCollection","geometries":[]},"places":{"type":"GeometryCollection","geometries":[{"type":"Point","properties":{"kind":"region","name":"Luanda","kind_detail":"state","source":"openstreetmap.org","min_zoom":4.0,"name:uk":"\u041b\u0443\u0430\u043d\u0434\u0430","name:ru":"\u041b\u0443\u0430\u043d\u0434\u0430","id":2702989733},"coordinates":[1846,2557]},{"type":"Point","properties":{"kind":"region","name":"Bengo","kind_detail":"state","source":"openstreetmap.org","min_zoom":4.0,"name:uk":"\u0411\u0435\u043d\u0433\u043e","name:ru":"\u0411\u0435\u043d\u0433\u043e","id":2702989678},"coordinates":[3296,2368]},{"type":"Point","properties":{"source":"naturalearthdata.com","kind":"locality","name":"Caxito","population":28224,"region_capital":true,"min_zoom":7.0,"id":4504},"coordinates":[2924,3588]},{"type":"Point","properties":{"name:kg":"Lwanda","name:ka":"\u10da\u10e3\u10d0\u10dc\u10d3\u10d0","name:mr":"\u0932\u0941\u0906\u0902\u0921\u093e","name:ko":"\ub8e8\uc548\ub2e4","name:kn":"\u0cb2\u0cc2\u0c86\u0c82\u0ca1","name:ar":"\u0644\u0648\u0627\u0646\u062f\u0627","name:is":"L\u00faanda","name:am":"\u120f\u1295\u12f3","name:os":"\u041b\u0443\u0430\u043d\u0434\u00e6","name:ru":"\u041b\u0443\u0430\u043d\u0434\u0430","name:ce":"\u041b\u0443\u0430\u043d\u0434\u0430","name:ta":"\u0bb2\u0bc1\u0bb5\u0bbe\u0ba3\u0bcd\u0b9f\u0bbe","name:tg":"\u041b\u0443\u0430\u043d\u0434\u0430","name:mk":"\u041b\u0443\u0430\u043d\u0434\u0430","name:fa":"\u0644\u0648\u0622\u0646\u062f\u0627","kind_detail":"city","id":27564941,"source":"openstreetmap.org","name:ky":"\u041b\u0443\u0430\u043d\u0434\u0430","name:zh":"\u7f85\u5b89\u9054","admin_level":"2","name:ja":"\u30eb\u30a2\u30f3\u30c0","name:he":"\u05dc\u05d5\u05d0\u05e0\u05d3\u05d4","kind":"locality","name:ur":"\u0644\u0648\u0627\u0646\u062f\u0627","name:bn":"\u09b2\u09c1\u09af\u09bc\u09be\u09a8\u09cd\u09a1\u09be","name:bo":"\u0f63\u0f60\u0f74\u0f53\u0f0b\u0f4c\u0f0d","name:uk":"\u041b\u0443\u0430\u043d\u0434\u0430","name:hy":"\u053c\u0578\u0582\u0561\u0576\u0564\u0561","country_capital":true,"name:be":"\u041b\u0443\u0430\u043d\u0434\u0430","name:ht":"Louanda","name:bg":"\u041b\u0443\u0430\u043d\u0434\u0430","name:ln":"Lwanda","name:sr":"\u041b\u0443\u0430\u043d\u0434\u0430","population":5172900,"name:el":"\u039b\u03bf\u03c5\u03ac\u03bd\u03c4\u03b1","name:eo":"Luando","name":"Luanda","min_zoom":8.0,"name:th":"\u0e25\u0e39\u0e2d\u0e31\u0e19\u0e14\u0e32"},"coordinates":[1711,2857]}]},"transit":{"type":"GeometryCollection","geometries":[{"type":"LineString","properties":{"source":"openstreetmap.org","kind":"train","name":"Train: Luanda - Malanje","sort_rank":275,"min_zoom":6.0,"osm_relation":true},"arcs":[6]}]},"pois":{"type":"GeometryCollection","geometries":[]},"boundaries":{"type":"GeometryCollection","geometries":[{"type":"LineString","properties":{"name:kg":"Ngola","name:ps":"\u0622\u0646\u06ab\u0648\u0644\u0627","name:ka":"\u10d0\u10dc\u10d2\u10dd\u10da\u10d0","name:ko":"\uc559\uace8\ub77c","name:kn":"\u0c85\u0c82\u0c97\u0ccb\u0cb2","name:km":"\u17a2\u1784\u17cb\u17a0\u17d2\u1782\u17c4\u17a1\u17b6","name:kk":"\u0410\u043d\u0433\u043e\u043b\u0430","name:tt":"\u0410\u043d\u0433\u043e\u0301\u043b\u0430","alt_name:gd":"Ang\u00f3la","name:th":"\u0e1b\u0e23\u0e30\u0e40\u0e17\u0e28\u0e41\u0e2d\u0e07\u0e42\u0e01\u0e25\u0e32","name:ti":"\u12a3\u1295\u130e\u120b","name:ks":"\u0627\u06cc\u0646\u065b\u06af\u0648\u0644\u0627","name:to":"\u02bbEnikola","name:tl":"Anggola","name:pa":"\u0a05\u0a70\u0a17\u0a4b\u0a32\u0a3e","name:os":"\u0410\u043d\u0433\u043e\u043b\u00e6","name:or":"\u0b06\u0b19\u0b4d\u0b17\u0b4b\u0b32\u0b3e","name:ce":"\u0410\u043d\u0433\u043e\u0301\u043b\u0430","name:ta":"\u0b85\u0b99\u0bcd\u0b95\u0bcb\u0bb2\u0bbe","name:tg":"\u0410\u043d\u0433\u043e\u043b\u0430","name:ky":"\u0410\u043d\u0433\u043e\u043b\u0430","name:te":"\u0c05\u0c02\u0c17\u0c4b\u0c32\u0c3e","name:om":"Angoolaa","sort_rank":262,"name:ss":"I-Angola","name:sr":"\u0410\u043d\u0433\u043e\u043b\u0430","name:dz":"\u0f68\u0f44\u0f0b\u0f42\u0fb7\u0f7c\u0f0b\u0f63","source":"openstreetmap.org","osm_relation":true,"name:cv":"\u0410\u043d\u0433\u043e\u043b\u0430","name:dv":"\u0787\u07ac\u0782\u07b0\u078e\u07af\u078d\u07a7","name:hi":"\u0905\u0902\u0917\u094b\u0932\u093e","name:he":"\u05d0\u05e0\u05d2\u05d5\u05dc\u05d4","name:eo":"Angolo","name:ur":"\u0627\u0646\u06af\u0648\u0644\u06c1","name:la":"Angolia","name:uk":"\u0410\u043d\u0491\u043e\u0301\u043b\u0430","name:hy":"\u0531\u0576\u0563\u0578\u056c\u0561","name:ug":"\u0626\u0627\u0646\u06af\u0648\u0644\u0627","name:qu":"Angula","name:lo":"\u0ead\u0eb1\u0e87\u0ec2\u0e81\u0ea5\u0eb2","name:oc":"Ang\u00f2la","name:el":"\u0391\u03bd\u03b3\u03ba\u03cc\u03bb\u03b1","kind":"country","name":"Angola","name:ee":"A\u014bgola","min_zoom":8.0,"name:yi":"\u05d0\u05b7\u05e0\u05d2\u05d0\u05dc\u05d0\u05b7","name:yo":"\u00c0ng\u00f3l\u00e0","name:az":"Anqola","name:mr":"\u0905\u0901\u0917\u094b\u0932\u093e","name:ar":"\u0623\u0646\u063a\u0648\u0644\u0627","name:my":"\u1021\u1004\u103a\u1002\u102d\u102f\u101c\u102c\u1014\u102d\u102f\u1004\u103a\u1004\u1036","official_name":"Rep\u00fablica de Angola","name:is":"Ang\u00f3la","name:am":"\u12a0\u1295\u130e\u120b","name:ru":"\u0410\u043d\u0433\u043e\u0301\u043b\u0430","name:ml":"\u0d05\u0d02\u0d17\u0d4b\u0d33","name:mn":"\u0410\u043d\u0433\u043e\u043b","name:mi":"Anakora","id":-195267,"name:mk":"\u0410\u043d\u0433\u043e\u043b\u0430","name:vo":"Langol\u00e4n","name:zu":"I-Angola","name:ff":"Anngolaa","kind_detail":"2","alt_name:vi":"T\u00e2y B\u1ed3 \u0110\u00e0o Nha","name:zh-yue":"\u5b89\u54e5\u62c9","name:fy":"Angoala","name:pi":"\u0905\u0902\u0917\u094b\u0932\u093e","name:zh":"\u5b89\u54e5\u62c9","name:ja":"\u30a2\u30f3\u30b4\u30e9","name:si":"\u0d87\u0db1\u0dca\u0d9c\u0ddd\u0dbd\u0dcf\u0dc0","name:fa":"\u0622\u0646\u06af\u0648\u0644\u0627","name:sg":"Angol\u00e4a","name:na":"Angora","name:ne":"\u0905\u0902\u0917\u094b\u0932\u093e","name:sa":"\u0905\u0919\u094d\u0917\u094b\u0932\u093e","name:bn":"\u0985\u09cd\u09af\u09be\u0999\u09cd\u0997\u09cb\u09b2\u09be","name:bo":"\u0f68\u0f44\u0f0b\u0f42\u0f7c\u0f0b\u0f63\u0f0d","name:be":"\u0410\u043d\u0433\u043e\u0301\u043b\u0430","name:bg":"\u0410\u043d\u0433\u043e\u043b\u0430","name:wo":"Angolaa","name:ba":"\u0410\u043d\u0433\u043e\u0301\u043b\u0430","name:nv":"Ang\u00f3ola","name:ga":"Ang\u00f3la","maritime_boundary":true,"name:gv":"Angoley","name:gu":"\u0a85\u0a82\u0a97\u0acb\u0ab2\u0abe"},"arcs":[0]},{"type":"LineString","properties":{"name:left:pl":"Kwanza P\u00f3\u0142nocna","name:right:ru":"\u0411\u0435\u043d\u0433\u043e","name:left:uk":"\u041f\u0456\u0432\u043d\u0456\u0447\u043d\u0430 \u041a\u0432\u0430\u043d\u0437\u0430","min_zoom":8.0,"name:left:ru":"\u0421\u0435\u0432\u0435\u0440\u043d\u0430\u044f \u041a\u0432\u0430\u043d\u0437\u0430","id:right":-1802539,"id":-1802542,"osm_relation":true,"name:right":"Bengo","kind":"region","name":"Cuanza Norte - Bengo","source":"openstreetmap.org","sort_rank":256,"kind_detail":"4","name:right:uk":"\u0411\u0435\u043d\u0433\u043e","id:left":-1802542,"name:left":"Cuanza Norte"},"arcs":[1]},{"type":"MultiLineString","properties":{"kind":"region","name":"Bengo","sort_rank":256,"kind_detail":"4","source":"openstreetmap.org","min_zoom":8.0,"name:uk":"\u0411\u0435\u043d\u0433\u043e","name:ru":"\u0411\u0435\u043d\u0433\u043e","id":-1802539,"osm_relation":true},"arcs":[[2],[3]]},{"type":"MultiLineString","properties":{"kind":"region","name":"Bengo","sort_rank":256,"kind_detail":"4","min_zoom":8.0,"source":"openstreetmap.org","maritime_boundary":true,"name:uk":"\u0411\u0435\u043d\u0433\u043e","name:ru":"\u0411\u0435\u043d\u0433\u043e","id":-1802539,"osm_relation":true},"arcs":[[4],[5]]}]},"roads":{"type":"GeometryCollection","geometries":[{"type":"MultiLineString","properties":{"sort_rank":380,"kind_detail":"primary","min_zoom":8.0,"kind":"major_road","source":"openstreetmap.org"},"arcs":[[9],[10],[11],[12],[13],[14],[15],[16],[17],[18],[19],[20],[21],[22],[23],[24],[25],[26],[27],[28],[29],[30],[31],[32],[33],[34],[35],[36],[37],[38],[39],[40],[41],[42],[43],[44],[45],[46]]},{"type":"MultiLineString","properties":{"sort_rank":381,"source":"openstreetmap.org","min_zoom":8.0,"kind":"major_road","kind_detail":"trunk"},"arcs":[[47],[48],[49],[50],[51],[52],[53],[54],[55],[56],[57],[58],[59],[60],[61],[62]]},{"type":"MultiLineString","properties":{"kind":"major_road","network":"sadc","sort_rank":380,"kind_detail":"primary","source":"openstreetmap.org","min_zoom":8.0,"shield_text":null,"ref":"EN100"},"arcs":[[63],[64],[65],[66],[67],[68],[69],[70],[71],[72],[73]]},{"type":"MultiLineString","properties":{"kind":"major_road","network":"sadc","sort_rank":381,"kind_detail":"trunk","source":"openstreetmap.org","min_zoom":8.0,"shield_text":null,"ref":"EN230"},"arcs":[[74],[75]]},{"type":"LineString","properties":{"kind":"major_road","sort_rank":381,"landuse_kind":"urban_area","is_bicycle_related":true,"source":"openstreetmap.org","min_zoom":8.0,"kind_detail":"trunk","ref":"EN230"},"arcs":[76]},{"type":"LineString","properties":{"kind":"major_road","network":"sadc","sort_rank":381,"kind_detail":"trunk","is_bicycle_related":true,"source":"openstreetmap.org","min_zoom":8.0,"shield_text":null,"ref":"EN230"},"arcs":[77]},{"type":"MultiLineString","properties":{"source":"openstreetmap.org","kind":"major_road","network":"sadc","sort_rank":381,"kind_detail":"trunk","min_zoom":8.0,"shield_text":null},"arcs":[[78],[79]]},{"type":"LineString","properties":{"kind":"major_road","network":"sadc","sort_rank":380,"kind_detail":"primary","source":"openstreetmap.org","min_zoom":8.0,"shield_text":null,"ref":"EN225"},"arcs":[80]},{"type":"MultiLineString","properties":{"source":"openstreetmap.org","kind":"major_road","old_name":"Dom Joao III","sort_rank":380,"kind_detail":"primary","min_zoom":8.0},"arcs":[[81],[82]]},{"type":"LineString","properties":{"kind":"major_road","sort_rank":380,"kind_detail":"primary","source":"openstreetmap.org","min_zoom":8.0,"old_name":"Avenida Paulo Dias de Novais","landuse_kind":"urban_area","id":460593731},"arcs":[83]},{"type":"LineString","properties":{"source":"openstreetmap.org","kind":"major_road","old_name":"AV. Paulo Dias de Novais","sort_rank":380,"kind_detail":"primary","min_zoom":8.0},"arcs":[84]},{"type":"MultiLineString","properties":{"kind":"major_road","sort_rank":381,"landuse_kind":"urban_area","source":"openstreetmap.org","min_zoom":8.0,"old_name":"Estrada de Catete","kind_detail":"trunk","ref":"240"},"arcs":[[85],[86]]},{"type":"MultiLineString","properties":{"source":"openstreetmap.org","kind":"major_road","old_name":"Avenida Alvaro Ferreira","sort_rank":380,"kind_detail":"primary","landuse_kind":"urban_area","min_zoom":8.0},"arcs":[[87],[88]]},{"type":"LineString","properties":{"kind":"major_road","sort_rank":380,"landuse_kind":"urban_area","name:pt":"Rue das Kipacas","source":"openstreetmap.org","min_zoom":8.0,"kind_detail":"primary","id":37053665},"arcs":[89]},{"type":"LineString","properties":{"kind":"major_road","sort_rank":380,"kind_detail":"primary","source":"openstreetmap.org","min_zoom":8.0,"old_name":"Largo Dom Afonso Henriques","landuse_kind":"urban_area","id":37053648},"arcs":[90]},{"type":"MultiLineString","properties":{"source":"openstreetmap.org","kind":"major_road","landuse_kind":"urban_area","sort_rank":380,"kind_detail":"primary","min_zoom":8.0},"arcs":[[91],[92],[93],[94],[95],[96],[97],[98],[99],[100],[101],[102],[103],[104],[105],[106],[107],[108],[109],[110],[111],[112],[113],[114],[115],[116],[117],[118],[119],[120],[121],[122],[123],[124],[125],[126],[127],[128],[129],[130],[131],[132],[133],[134],[135],[136],[137],[138],[139]]},{"type":"MultiLineString","properties":{"source":"openstreetmap.org","kind":"major_road","kind_detail":"trunk","sort_rank":381,"landuse_kind":"urban_area","min_zoom":8.0},"arcs":[[140],[141],[142],[143],[144],[145],[146]]},{"type":"LineString","properties":{"source":"openstreetmap.org","kind":"major_road","kind_detail":"trunk","sort_rank":381,"landuse_kind":"urban_area","ref":"EN230","min_zoom":8.0},"arcs":[147]},{"type":"LineString","properties":{"source":"openstreetmap.org","kind":"major_road","old_name":"Avenida Paulo Dias de Novais","sort_rank":380,"kind_detail":"primary","min_zoom":8.0},"arcs":[148]},{"type":"MultiLineString","properties":{"source":"openstreetmap.org","kind":"major_road","old_name":"Dom Joao III","sort_rank":380,"kind_detail":"primary","landuse_kind":"urban_area","min_zoom":8.0},"arcs":[[149],[150]]},{"type":"MultiLineString","properties":{"source":"openstreetmap.org","kind":"major_road","old_name":"Estrada de Catete","sort_rank":381,"landuse_kind":"urban_area","min_zoom":8.0,"kind_detail":"trunk"},"arcs":[[151],[152],[153],[154]]},{"type":"LineString","properties":{"source":"openstreetmap.org","kind":"major_road","sort_rank":381,"kind_detail":"trunk","ref":"EN100","min_zoom":8.0},"arcs":[155]},{"type":"MultiLineString","properties":{"source":"openstreetmap.org","kind":"major_road","old_name":"Praia do Bispo","sort_rank":380,"kind_detail":"primary","min_zoom":8.0},"arcs":[[156],[157]]},{"type":"LineString","properties":{"source":"openstreetmap.org","kind":"major_road","sort_rank":380,"kind_detail":"primary","ref":"Via Expressa","min_zoom":8.0,"id":339151494},"arcs":[158]},{"type":"MultiLineString","properties":{"source":"openstreetmap.org","kind":"major_road","old_name":"Padre Baltazar Barreira","sort_rank":380,"kind_detail":"primary","min_zoom":8.0},"arcs":[[159],[160]]},{"type":"LineString","properties":{"kind":"major_road","sort_rank":381,"kind_detail":"trunk","is_bicycle_related":true,"source":"openstreetmap.org","min_zoom":8.0,"old_name":"Estrada de Catete","landuse_kind":"urban_area","ref":"EN230","id":196952505},"arcs":[161]},{"type":"MultiLineString","properties":{"source":"openstreetmap.org","kind":"major_road","old_name":"Avenida de Lisboa","sort_rank":380,"kind_detail":"primary","landuse_kind":"urban_area","min_zoom":8.0},"arcs":[[162],[163],[164],[165],[166],[167],[168],[169],[170]]},{"type":"MultiLineString","properties":{"source":"openstreetmap.org","kind":"major_road","ref":"EN230","sort_rank":381,"kind_detail":"trunk","is_bicycle_related":true,"min_zoom":8.0},"arcs":[[171],[172],[173],[174],[175],[176],[177]]},{"type":"MultiLineString","properties":{"source":"openstreetmap.org","kind":"major_road","old_name":"Rua da Samba","sort_rank":380,"kind_detail":"primary","landuse_kind":"urban_area","min_zoom":8.0},"arcs":[[178],[179]]},{"type":"LineString","properties":{"kind":"major_road","sort_rank":381,"kind_detail":"trunk","source":"openstreetmap.org","min_zoom":8.0,"old_name":"Estrada de Catete","landuse_kind":"urban_area","ref":"EN230","id":233402541},"arcs":[180]},{"type":"MultiLineString","properties":{"source":"openstreetmap.org","kind":"major_road","sort_rank":381,"kind_detail":"trunk","ref":"EN230","min_zoom":8.0},"arcs":[[181],[182]]},{"type":"MultiLineString","properties":{"source":"openstreetmap.org","kind":"major_road","sort_rank":380,"kind_detail":"primary","ref":"EN100","min_zoom":8.0},"arcs":[[183],[184],[185],[186]]},{"type":"LineString","properties":{"source":"openstreetmap.org","kind":"major_road","sort_rank":380,"kind_detail":"primary","ref":"EN 110","min_zoom":8.0,"id":204139134},"arcs":[187]},{"type":"MultiLineString","properties":{"source":"openstreetmap.org","kind":"major_road","old_name":"Rua da Samba","sort_rank":380,"kind_detail":"primary","min_zoom":8.0},"arcs":[[188],[189]]},{"type":"LineString","properties":{"kind":"major_road","sort_rank":380,"kind_detail":"primary","source":"openstreetmap.org","min_zoom":8.0,"old_name":"Rua da Boa Vista","landuse_kind":"urban_area","id":152310878},"arcs":[190]},{"type":"MultiLineString","properties":{"source":"openstreetmap.org","kind":"major_road","sort_rank":380,"kind_detail":"primary","ref":"EN110","min_zoom":8.0},"arcs":[[191],[192],[193],[194],[195]]},{"type":"MultiLineString","properties":{"source":"openstreetmap.org","kind":"major_road","landuse_kind":"urban_area","sort_rank":380,"kind_detail":"primary","ref":"EN100","min_zoom":8.0},"arcs":[[196],[197]]},{"type":"LineString","properties":{"source":"openstreetmap.org","kind":"major_road","old_name":"AV. Paulo Dias de Novais","sort_rank":380,"kind_detail":"primary","landuse_kind":"urban_area","min_zoom":8.0},"arcs":[198]}]},"earth":{"type":"GeometryCollection","geometries":[{"type":"Polygon","properties":{"sort_rank":10,"source":"naturalearthdata.com","kind":"earth","min_zoom":0.0,"id":4689},"arcs":[[199]]}]},"landuse":{"type":"GeometryCollection","geometries":[{"type":"Polygon","properties":{"source":"naturalearthdata.com","kind":"urban_area","name":"","area":191152704,"sort_rank":11,"min_zoom":4.0,"id":10062},"arcs":[[200]]},{"type":"Polygon","properties":{"kind":"aerodrome","area":12001400,"sort_rank":60,"operator":"ENANA","source":"openstreetmap.org","min_zoom":8.0,"tier":3,"id":195543465},"arcs":[[201]]}]}},"type":"Topology","transform":{"translate":[12.65625,-9.7956775828],"scale":[0.0003433228,0.0003389916]},"arcs":[[[1450,4096],[-27,-234],[39,-171],[-150,-246],[-600,-579],[-217,-296],[-91,-256],[-1,-344],[80,-214],[394,-625],[126,-615],[-24,-160],[20,-171],[76,-185]],[[4096,2063],[-21,-60],[21,-20]],[[1990,3561],[100,18],[165,-13],[66,-26],[192,-164],[68,-13],[64,67],[64,-24],[91,-137],[76,-361],[-19,-77],[-136,-24],[-66,-40],[-67,-199],[-118,-132],[-73,-627],[-72,64],[-72,13],[-124,6],[-6,-74],[-29,38],[-31,-7],[-121,58],[-64,-18],[-58,-70],[-94,-24],[-56,-59],[-29,-174],[-43,-69],[-36,-8],[16,-25],[-26,-61],[-59,-7],[-29,-55],[-146,-81]],[[2849,3545],[33,44],[108,43],[-8,-40],[-49,-33],[-84,-14]],[[1318,1256],[-412,-213],[9,-163],[88,-364],[-24,-160],[20,-171],[76,-185]],[[1450,4096],[-27,-234],[39,-171],[-64,-105],[361,-69],[231,44]],[[4096,1669],[-50,46],[-245,93],[-103,70],[-49,82],[-35,4],[-17,-43],[-110,-19],[-21,40],[-64,-17],[-150,39],[-89,77],[-64,6],[-167,103],[-40,-10],[-48,27],[-5,43],[-41,-15],[-83,39],[-910,577],[3,144],[-101,-38]],[[2117,4096],[-1,-109],[-8,-29],[-22,-31],[-22,-4],[-27,4],[-39,-9],[29,-95],[39,-198],[33,-88],[85,-119],[14,-44],[-8,-44],[-43,-110],[-39,-150],[-69,-25],[-181,25],[-20,-3],[-13,-10],[-5,-16],[-2,-20],[-7,-32],[-18,-12],[-24,-5],[-53,-35],[-97,-44],[-41,-24],[34,56],[145,145],[-52,-17],[-51,-39],[-86,-95],[-12,-29],[5,-69],[-3,-33],[-16,-32],[-74,-78],[-35,-59],[-31,-97],[-43,-40],[-30,-5],[-40,-1],[-35,-10],[-14,-32],[-7,-30],[-163,-278],[-31,-26],[-37,35],[19,78],[105,245],[209,176],[64,94],[-146,-63],[-164,-199],[-110,-231],[12,-165],[59,-85],[84,-196],[219,-365],[66,-51],[12,-65],[55,-103],[12,-45],[-7,-132],[5,-57],[95,-273],[-3,-34],[24,-20],[24,-50],[17,-59],[5,-50],[-20,-53],[-65,-69],[-15,-51],[22,-55],[216,-257],[-1796,0],[0,4096],[2117,0]],[[2117,4096],[-1,-109],[-8,-29],[-22,-31],[-22,-4],[-27,4],[-39,-9],[29,-95],[39,-198],[33,-88],[85,-119],[14,-44],[-8,-44],[-43,-110],[-39,-150],[-69,-25],[-181,25],[-20,-3],[-13,-10],[-5,-16],[-2,-20],[-7,-32],[-18,-12],[-24,-5],[-53,-35],[-97,-44],[-41,-24],[34,56],[145,145],[-52,-17],[-51,-39],[-86,-95],[-12,-29],[5,-69],[-3,-33],[-16,-32],[-74,-78],[-35,-59],[-31,-97],[-43,-40],[-30,-5],[-40,-1],[-35,-10],[-14,-32],[-7,-30],[-163,-278],[-31,-26],[-37,35],[19,78],[105,245],[209,176],[64,94],[-146,-63],[-164,-199],[-110,-231],[12,-165],[59,-85],[84,-196],[219,-365],[66,-51],[12,-65],[55,-103],[12,-45],[-7,-132],[5,-57],[95,-273],[-3,-34],[24,-20],[24,-50],[17,-59],[5,-50],[-20,-53],[-65,-69],[-15,-51],[22,-55],[216,-257]],[[1460,1405],[-6,4]],[[1523,2655],[-4,-28]],[[1640,2843],[-13,-16],[-28,-64],[-51,-58],[-16,-21],[-9,-29]],[[1523,2655],[6,1]],[[1529,2656],[4,3],[25,-1],[9,1],[24,12],[3,3],[8,10],[7,12],[28,74]],[[1529,2656],[1,5]],[[1530,2661],[16,39]],[[1636,2770],[-41,-95],[-65,-14]],[[1546,2699],[-1,0]],[[1545,2701],[1,-1]],[[1546,2700],[54,62],[27,64],[13,17]],[[1633,2883],[-8,-31],[8,-3]],[[1633,2850],[15,64]],[[1641,2846],[-2,-4]],[[1639,2842],[5,3]],[[1640,2843],[2,3]],[[1642,2846],[1,1],[2,2]],[[1644,2845],[0,1]],[[1644,2846],[-1,0],[-1,0]],[[1642,2846],[-1,1]],[[1644,2846]],[[1644,2846],[-1,1]],[[1655,2915],[-10,1]],[[1647,2916],[-2,2]],[[1647,2915],[8,-1]],[[1660,2908]],[[1660,2908],[0,1]],[[1660,2908]],[[1661,2908],[-1,0]],[[1733,2407],[35,136],[-7,80]],[[1742,2696],[17,-38]],[[1761,2623],[-2,33],[-5,29],[-11,13]],[[1761,2637],[0,-14]],[[2102,2586],[47,-183]],[[2145,3038],[1,0]],[[2231,3064],[-1,1]],[[3010,2033],[5,-19]],[[3016,2014],[-5,20]],[[1428,2468],[2,2]],[[1486,2596],[-58,-128]],[[1428,2468],[100,-64],[177,21],[443,-17],[75,74],[32,42]],[[1430,2470],[5,3],[9,12],[26,44],[16,67],[21,3],[31,27],[22,4],[4,1],[44,11],[20,5],[5,0],[57,16],[10,5],[29,21],[30,16],[0,1],[2,1]],[[1761,2707],[17,8],[12,0],[17,-5],[12,-1]],[[1819,2709],[2,0],[-1,45]],[[2254,2524],[-105,-114],[-308,17],[-136,-1],[-62,-2],[-31,-3],[-15,-2],[-68,-15],[-99,66]],[[1531,2620],[-23,-20]],[[1519,2627],[7,-8],[-1,-2]],[[1531,2620],[-4,34]],[[1820,2754],[0,-23],[-1,-22]],[[1819,2709],[0,-2],[-58,0]],[[1761,2707],[-2,0],[-27,-16],[-46,-29],[-148,-36],[-7,-6]],[[2132,3020],[-5,8]],[[2278,2504],[0,1]],[[2280,2504],[-1,-1]],[[2251,4096],[-65,-112],[-95,-82]],[[2152,3042],[-26,-15]],[[2133,3030],[7,3],[12,9]],[[2152,3042],[71,21]],[[2223,3063],[10,4]],[[2233,3067],[49,121]],[[2282,3188],[0,9]],[[2282,3197],[1,7]],[[2283,3204],[2,7]],[[2417,3469],[46,-116],[-178,-142]],[[2334,4096],[-14,0]],[[2243,2528],[-3,2]],[[4096,1669],[-195,110],[-91,20],[-137,107],[-241,-29],[-250,120],[-177,18],[-194,102],[-547,397]],[[2071,2639],[99,-63]],[[2240,2530],[372,-250]],[[2127,3028],[55,-136],[62,-75],[10,-293]],[[2255,2524],[-9,292],[-64,76],[-50,128]],[[2091,3902],[10,-107],[126,-201],[153,-68],[37,-57]],[[1644,2845]],[[1644,2845]],[[1708,2930],[-2,0]],[[1655,2914],[11,-7]],[[1742,2838],[8,-5]],[[1750,2834],[-6,3]],[[1671,2888],[-9,-18]],[[1663,2870],[9,19]],[[1710,2926],[3,-4]],[[1671,2890],[0,-1],[1,1],[-1,0]],[[1734,2822],[-1,0]],[[1733,2822]],[[1733,2822],[-25,-10],[-24,-9],[-37,-15],[-11,-18]],[[1637,2770],[96,52]],[[1645,2849],[0,1]],[[1645,2850],[1,1]],[[1646,2851],[-1,-1]],[[1662,2835],[-5,3]],[[1660,2835],[4,-3]],[[1665,2875],[-1,0]],[[1667,2881],[0,-1]],[[1671,2890],[0,-2]],[[1671,2891],[0,-1]],[[1671,2891],[1,7]],[[1672,2890],[-1,1]],[[1711,2856],[-35,-37]],[[1676,2818],[0,1]],[[1676,2819],[2,0],[10,5],[4,4],[19,28]],[[1705,2928],[5,-2]],[[1783,2941],[-75,-11]],[[1713,2922],[60,10]],[[1736,2929],[-7,-1]],[[2051,3005],[-11,-3],[-12,-1],[-2,0]],[[2026,3001],[-2,-1],[-8,3]],[[2016,3003],[-17,6],[-5,0],[-9,0],[-27,-4],[-47,-18],[-3,0]],[[1908,2987],[-84,-20]],[[1824,2967],[-1,-1],[-9,-2],[-31,-23]],[[1784,2941],[-1,0]],[[1784,2942],[0,-1]],[[1784,2940],[0,1]],[[1784,2940]],[[1784,2940],[1,0]],[[1802,2953],[3,-1]],[[1803,2953],[3,3]],[[1806,2956]],[[1806,2956],[2,2],[5,3]],[[1818,2963],[-2,-1],[-10,-6]],[[1806,2956]],[[1806,2956],[0,-1],[-1,-2]],[[1805,2952],[1,4],[17,10],[1,1]],[[1824,2967],[25,14],[59,6]],[[1908,2987],[3,0],[49,18],[26,4],[30,-6]],[[2016,3003],[10,-2]],[[2026,3001],[3,-1],[19,4],[3,0]],[[2095,2613],[7,-27]],[[1675,2819],[1,-1],[0,1],[0,1],[-1,-1]],[[1733,2822]],[[1733,2822],[1,-2],[1,0],[0,1],[-2,1]],[[1733,2822]],[[1819,2799],[1,-45]],[[1820,2754],[1,44]],[[1852,2779],[0,1]],[[1854,2779],[-1,0]],[[2042,2658],[0,1]],[[2044,2658],[-1,-1]],[[1710,2857],[1,-1],[2,1],[-1,1],[-2,-1]],[[2171,2576],[-99,64]],[[1706,2930],[-51,-15]],[[1644,2845],[16,-10]],[[1657,2838],[-13,7]],[[1712,2856],[30,-18]],[[1744,2837],[-31,20]],[[1750,2833],[38,-18]],[[1788,2816],[-38,18]],[[1508,2600],[-22,-4]],[[1645,2916],[-12,-33]],[[1644,2893],[4,21],[-1,1]],[[1759,2658],[2,-21]],[[1641,2847],[-8,3]],[[1633,2849],[8,-3]],[[1788,2815],[283,-176]],[[1665,2832],[-3,3]],[[1676,2820],[-2,2]],[[1674,2822],[1,-3]],[[1677,2816],[-3,6]],[[1676,2818],[2,-4]],[[1678,2814],[-2,4]],[[1677,2816],[1,-2]],[[1678,2814],[-1,2]],[[1678,2814]],[[2170,2576],[54,-36]],[[2224,2540],[1,-1]],[[2225,2539],[13,-9],[2,-1]],[[2224,2539],[0,1]],[[2224,2540],[1,0]],[[2225,2540],[0,-1]],[[2225,2539]],[[1645,2849],[18,21]],[[1662,2870],[-17,-20]],[[2072,2640],[-284,176]],[[2240,2530],[-69,46]],[[2264,2514],[-21,14]],[[1421,2462],[-107,2],[-59,-136],[-185,-228],[-22,-75],[128,-210],[128,-153],[86,-148],[4,-49],[101,-94],[143,-591],[-19,-70],[91,-166],[-28,-193],[-64,-50],[18,-41],[179,-153],[56,-107]],[[2126,3027],[-23,-7],[-14,-16],[-11,0]],[[2078,2998],[13,6],[12,15],[23,7],[7,4]],[[2915,3586],[-62,95],[-12,162],[-46,28],[-52,90],[-146,61],[-71,74]],[[3177,1525],[-1,-1]],[[1645,2850],[-4,-3]],[[1643,2847],[2,2]],[[1773,2932],[30,21]],[[3176,1524],[-18,-155],[161,-130],[42,-99],[85,-96],[32,-97],[158,-100],[40,-57],[-81,-269],[-46,-31],[-256,-32],[-92,43],[-82,98],[-124,69],[-78,-7],[-88,-46],[-110,5],[-136,-147],[-243,161],[-67,-113],[56,-92],[-36,-95],[-297,-75],[-243,307],[-27,14],[-26,-19]],[[3010,2033],[31,139],[-60,118],[-119,99],[-56,121],[-132,75],[-34,119],[27,39],[-28,39],[-168,68],[-106,133],[-136,81]],[[3011,2013],[-2,1]],[[3011,2013],[0,1]],[[3011,2013],[23,-46],[-42,-89],[9,-106],[76,-23],[83,-105],[17,-119]],[[2078,3004],[-18,3],[-9,-2]],[[2051,3004],[27,-6]],[[1666,2907],[39,21]],[[1796,0],[-216,257],[-22,55],[15,51],[65,69],[20,53],[-5,50],[-17,59],[-24,50],[-24,20],[3,34],[-95,273],[-5,57],[7,132],[-12,45],[-55,103],[-12,65],[-66,51],[-219,365],[-84,196],[-59,85],[-12,165],[110,231],[164,199],[146,63],[-64,-94],[-209,-176],[-105,-245],[-19,-78],[37,-35],[31,26],[163,278],[7,30],[14,32],[35,10],[40,1],[30,5],[43,40],[31,97],[35,59],[74,78],[16,32],[3,33],[-5,69],[12,29],[86,95],[51,39],[52,17],[-145,-145],[-34,-56],[41,24],[97,44],[53,35],[24,5],[18,12],[7,32],[2,20],[5,16],[13,10],[20,3],[181,-25],[69,25],[39,150],[43,110],[8,44],[-14,44],[-85,119],[-33,88],[-39,198],[-29,95],[39,9],[27,-4],[22,4],[22,31],[8,29],[1,109],[1979,0],[0,-4096],[-2300,0]],[[1858,3070],[215,-13],[7,-78],[-87,-125],[-1,-51],[185,-132],[9,-98],[-93,14],[-262,167],[-195,16],[14,128],[161,91],[14,68],[33,13]],[[2371,2177],[123,84],[39,-52],[-110,-83],[-11,14],[34,25],[-20,28],[-43,-33],[-12,17]]]}