{"objects":{"water":{"type":"GeometryCollection","geometries":[{"type":"Polygon","properties":{"source":"naturalearthdata.com","kind":"ocean","area":1576712559132672,"sort_rank":200,"min_zoom":0.0,"id":1},"arcs":[[8]]},{"type":"LineString","properties":{"source":"naturalearthdata.com","kind":"ocean","sort_rank":205,"boundary":true,"min_zoom":0.0,"id":44},"arcs":[9]}]},"buildings":{"type":"GeometryCollection","geometries":[]},"places":{"type":"GeometryCollection","geometries":[{"type":"Point","properties":{"source":"naturalearthdata.com","kind":"locality","name":"Sumbe","population":33277,"region_capital":true,"min_zoom":6.0,"id":6120},"coordinates":[3477,4002]},{"type":"Point","properties":{"kind":"locality","name":"Lobito","kind_detail":"city","source":"openstreetmap.org","min_zoom":8.0,"name:uk":"\u041b\u043e\u0431\u0456\u0442\u0443","name:ru":"\u041b\u043e\u0431\u0438\u0442\u0443","id":279010461,"population":805000},"coordinates":[2593,607]},{"type":"Point","properties":{"kind":"locality","name":"Sumbe","kind_detail":"city","source":"openstreetmap.org","min_zoom":8.0,"name:uk":"\u0421\u0443\u043c\u0431\u0435","name:ru":"\u0421\u0443\u043c\u0431\u0435","id":331385964,"population":26000},"coordinates":[3447,4026]}]},"transit":{"type":"GeometryCollection","geometries":[{"type":"MultiLineString","properties":{"osm_relation":true,"source":"openstreetmap.org","kind":"train","network":"Caminho de Ferro de Benguela","sort_rank":275,"min_zoom":6.0,"operator":"CFB"},"arcs":[[5],[6],[7]]}]},"pois":{"type":"GeometryCollection","geometries":[]},"boundaries":{"type":"GeometryCollection","geometries":[{"type":"LineString","properties":{"name:kg":"Ngola","name:ps":"\u0622\u0646\u06ab\u0648\u0644\u0627","name:ka":"\u10d0\u10dc\u10d2\u10dd\u10da\u10d0","name:ko":"\uc559\uace8\ub77c","name:kn":"\u0c85\u0c82\u0c97\u0ccb\u0cb2","name:km":"\u17a2\u1784\u17cb\u17a0\u17d2\u1782\u17c4\u17a1\u17b6","name:kk":"\u0410\u043d\u0433\u043e\u043b\u0430","name:tt":"\u0410\u043d\u0433\u043e\u0301\u043b\u0430","alt_name:gd":"Ang\u00f3la","name:th":"\u0e1b\u0e23\u0e30\u0e40\u0e17\u0e28\u0e41\u0e2d\u0e07\u0e42\u0e01\u0e25\u0e32","name:ti":"\u12a3\u1295\u130e\u120b","name:ks":"\u0627\u06cc\u0646\u065b\u06af\u0648\u0644\u0627","name:to":"\u02bbEnikola","name:tl":"Anggola","name:pa":"\u0a05\u0a70\u0a17\u0a4b\u0a32\u0a3e","name:os":"\u0410\u043d\u0433\u043e\u043b\u00e6","name:or":"\u0b06\u0b19\u0b4d\u0b17\u0b4b\u0b32\u0b3e","name:ce":"\u0410\u043d\u0433\u043e\u0301\u043b\u0430","name:ta":"\u0b85\u0b99\u0bcd\u0b95\u0bcb\u0bb2\u0bbe","name:tg":"\u0410\u043d\u0433\u043e\u043b\u0430","name:ky":"\u0410\u043d\u0433\u043e\u043b\u0430","name:te":"\u0c05\u0c02\u0c17\u0c4b\u0c32\u0c3e","name:om":"Angoolaa","sort_rank":262,"name:ss":"I-Angola","name:sr":"\u0410\u043d\u0433\u043e\u043b\u0430","name:dz":"\u0f68\u0f44\u0f0b\u0f42\u0fb7\u0f7c\u0f0b\u0f63","source":"openstreetmap.org","osm_relation":true,"name:cv":"\u0410\u043d\u0433\u043e\u043b\u0430","name:dv":"\u0787\u07ac\u0782\u07b0\u078e\u07af\u078d\u07a7","name:hi":"\u0905\u0902\u0917\u094b\u0932\u093e","name:he":"\u05d0\u05e0\u05d2\u05d5\u05dc\u05d4","name:eo":"Angolo","name:ur":"\u0627\u0646\u06af\u0648\u0644\u06c1","name:la":"Angolia","name:uk":"\u0410\u043d\u0491\u043e\u0301\u043b\u0430","name:hy":"\u0531\u0576\u0563\u0578\u056c\u0561","name:ug":"\u0626\u0627\u0646\u06af\u0648\u0644\u0627","name:qu":"Angula","name:lo":"\u0ead\u0eb1\u0e87\u0ec2\u0e81\u0ea5\u0eb2","name:oc":"Ang\u00f2la","name:el":"\u0391\u03bd\u03b3\u03ba\u03cc\u03bb\u03b1","kind":"country","name":"Angola","name:ee":"A\u014bgola","min_zoom":8.0,"name:yi":"\u05d0\u05b7\u05e0\u05d2\u05d0\u05dc\u05d0\u05b7","name:yo":"\u00c0ng\u00f3l\u00e0","name:az":"Anqola","name:mr":"\u0905\u0901\u0917\u094b\u0932\u093e","name:ar":"\u0623\u0646\u063a\u0648\u0644\u0627","name:my":"\u1021\u1004\u103a\u1002\u102d\u102f\u101c\u102c\u1014\u102d\u102f\u1004\u103a\u1004\u1036","official_name":"Rep\u00fablica de Angola","name:is":"Ang\u00f3la","name:am":"\u12a0\u1295\u130e\u120b","name:ru":"\u0410\u043d\u0433\u043e\u0301\u043b\u0430","name:ml":"\u0d05\u0d02\u0d17\u0d4b\u0d33","name:mn":"\u0410\u043d\u0433\u043e\u043b","name:mi":"Anakora","id":-195267,"name:mk":"\u0410\u043d\u0433\u043e\u043b\u0430","name:vo":"Langol\u00e4n","name:zu":"I-Angola","name:ff":"Anngolaa","kind_detail":"2","alt_name:vi":"T\u00e2y B\u1ed3 \u0110\u00e0o Nha","name:zh-yue":"\u5b89\u54e5\u62c9","name:fy":"Angoala","name:pi":"\u0905\u0902\u0917\u094b\u0932\u093e","name:zh":"\u5b89\u54e5\u62c9","name:ja":"\u30a2\u30f3\u30b4\u30e9","name:si":"\u0d87\u0db1\u0dca\u0d9c\u0ddd\u0dbd\u0dcf\u0dc0","name:fa":"\u0622\u0646\u06af\u0648\u0644\u0627","name:sg":"Angol\u00e4a","name:na":"Angora","name:ne":"\u0905\u0902\u0917\u094b\u0932\u093e","name:sa":"\u0905\u0919\u094d\u0917\u094b\u0932\u093e","name:bn":"\u0985\u09cd\u09af\u09be\u0999\u09cd\u0997\u09cb\u09b2\u09be","name:bo":"\u0f68\u0f44\u0f0b\u0f42\u0f7c\u0f0b\u0f63\u0f0d","name:be":"\u0410\u043d\u0433\u043e\u0301\u043b\u0430","name:bg":"\u0410\u043d\u0433\u043e\u043b\u0430","name:wo":"Angolaa","name:ba":"\u0410\u043d\u0433\u043e\u0301\u043b\u0430","name:nv":"Ang\u00f3ola","name:ga":"Ang\u00f3la","maritime_boundary":true,"name:gv":"Angoley","name:gu":"\u0a85\u0a82\u0a97\u0acb\u0ab2\u0abe"},"arcs":[0]},{"type":"LineString","properties":{"name:left:pl":"Kwanza Po\u0142udniowa","name:right:ru":"\u0411\u0435\u043d\u0433\u0435\u043b\u0430","name:left:uk":"\u041f\u0456\u0432\u0434\u0435\u043d\u043d\u0430 \u041a\u0432\u0430\u043d\u0437\u0430","min_zoom":8.0,"name:left:ru":"\u042e\u0436\u043d\u0430\u044f \u041a\u0432\u0430\u043d\u0437\u0430","id:right":-1802540,"id":-1802543,"osm_relation":true,"name:right":"Benguela","kind":"region","name":"Cuanza Sul - Benguela","source":"openstreetmap.org","sort_rank":256,"kind_detail":"4","name:right:uk":"\u0411\u0435\u043d\u0433\u0435\u043b\u0430","id:left":-1802543,"name:left":"Cuanza Sul"},"arcs":[1]},{"type":"LineString","properties":{"name:left:pl":"Kwanza Po\u0142udniowa","name:right:ru":"\u0411\u0435\u043d\u0433\u0435\u043b\u0430","name:left:uk":"\u041f\u0456\u0432\u0434\u0435\u043d\u043d\u0430 \u041a\u0432\u0430\u043d\u0437\u0430","min_zoom":8.0,"name:left:ru":"\u042e\u0436\u043d\u0430\u044f \u041a\u0432\u0430\u043d\u0437\u0430","id:right":-1802540,"id":-1802543,"osm_relation":true,"name:right":"Benguela","kind":"region","name":"Cuanza Sul - Benguela","name:right:uk":"\u0411\u0435\u043d\u0433\u0435\u043b\u0430","sort_rank":256,"kind_detail":"4","source":"openstreetmap.org","maritime_boundary":true,"id:left":-1802543,"name:left":"Cuanza Sul"},"arcs":[2]},{"type":"LineString","properties":{"kind":"region","name":"Cuanza Sul","sort_rank":256,"kind_detail":"4","min_zoom":8.0,"source":"openstreetmap.org","maritime_boundary":true,"name:uk":"\u041f\u0456\u0432\u0434\u0435\u043d\u043d\u0430 \u041a\u0432\u0430\u043d\u0437\u0430","name:ru":"\u042e\u0436\u043d\u0430\u044f \u041a\u0432\u0430\u043d\u0437\u0430","name:pl":"Kwanza Po\u0142udniowa","id":-1802543,"osm_relation":true},"arcs":[3]},{"type":"LineString","properties":{"kind":"region","name":"Benguela","sort_rank":256,"kind_detail":"4","min_zoom":8.0,"source":"openstreetmap.org","maritime_boundary":true,"name:uk":"\u0411\u0435\u043d\u0433\u0435\u043b\u0430","name:ru":"\u0411\u0435\u043d\u0433\u0435\u043b\u0430","id":-1802540,"osm_relation":true},"arcs":[4]}]},"roads":{"type":"GeometryCollection","geometries":[{"type":"MultiLineString","properties":{"sort_rank":380,"kind_detail":"primary","min_zoom":8.0,"kind":"major_road","source":"openstreetmap.org"},"arcs":[[10],[11]]},{"type":"LineString","properties":{"kind":"major_road","network":"sadc","sort_rank":380,"kind_detail":"primary","source":"openstreetmap.org","min_zoom":8.0,"shield_text":null,"ref":"EN250"},"arcs":[12]},{"type":"MultiLineString","properties":{"kind":"major_road","network":"sadc","sort_rank":380,"kind_detail":"primary","source":"openstreetmap.org","min_zoom":8.0,"landuse_kind":"urban_area","shield_text":null,"ref":"EN100"},"arcs":[[13],[14],[15],[16],[17]]},{"type":"LineString","properties":{"kind":"major_road","network":"sadc","sort_rank":380,"kind_detail":"primary","source":"openstreetmap.org","min_zoom":8.0,"landuse_kind":"urban_area","shield_text":null},"arcs":[18]},{"type":"MultiLineString","properties":{"kind":"major_road","network":"sadc","sort_rank":381,"landuse_kind":"urban_area","source":"openstreetmap.org","min_zoom":8.0,"kind_detail":"trunk","shield_text":null},"arcs":[[19],[20],[21],[22]]},{"type":"MultiLineString","properties":{"kind":"major_road","network":"sadc","sort_rank":381,"landuse_kind":"urban_area","source":"openstreetmap.org","min_zoom":8.0,"kind_detail":"trunk","shield_text":null,"ref":"EN260"},"arcs":[[23],[24],[25],[26]]},{"type":"MultiLineString","properties":{"source":"openstreetmap.org","kind":"major_road","kind_detail":"trunk","sort_rank":381,"landuse_kind":"urban_area","min_zoom":8.0},"arcs":[[27],[28],[29],[30],[31],[32],[33],[34]]},{"type":"MultiLineString","properties":{"kind":"major_road","network":"sadc","sort_rank":380,"kind_detail":"primary","source":"openstreetmap.org","min_zoom":8.0,"shield_text":null,"ref":"EN100"},"arcs":[[35],[36],[37]]},{"type":"LineString","properties":{"kind":"major_road","network":"sadc","sort_rank":381,"landuse_kind":"urban_area","source":"openstreetmap.org","min_zoom":8.0,"kind_detail":"trunk","shield_text":null,"ref":"EN100"},"arcs":[38]},{"type":"MultiLineString","properties":{"source":"openstreetmap.org","kind":"major_road","sort_rank":380,"kind_detail":"primary","ref":"EN100","min_zoom":8.0},"arcs":[[39],[40],[41],[42],[43]]},{"type":"MultiLineString","properties":{"kind":"major_road","network":"sadc","sort_rank":381,"kind_detail":"trunk","source":"openstreetmap.org","min_zoom":8.0,"shield_text":null,"ref":"EN260"},"arcs":[[44],[45],[46],[47],[48]]},{"type":"MultiLineString","properties":{"kind":"major_road","network":"sadc","sort_rank":381,"kind_detail":"trunk","source":"openstreetmap.org","min_zoom":8.0,"shield_text":null,"ref":"EN100"},"arcs":[[49],[50]]}]},"earth":{"type":"GeometryCollection","geometries":[{"type":"Polygon","properties":{"sort_rank":10,"source":"naturalearthdata.com","kind":"earth","min_zoom":0.0,"id":4689},"arcs":[[51]]}]},"landuse":{"type":"GeometryCollection","geometries":[{"type":"MultiPolygon","properties":{"source":"naturalearthdata.com","kind":"urban_area","name":"","area":71665010,"sort_rank":11,"min_zoom":4.0},"arcs":[[[52]]]}]}},"type":"Topology","transform":{"translate":[12.65625,-12.5545635286],"scale":[0.0003433228,0.000335977]},"arcs":[[[2840,4096],[-27,-162],[-79,-233],[-16,-371],[-66,-375],[68,-623],[-52,-261],[-114,-197],[-66,-297],[-78,-141],[-76,-251],[-183,-147],[-114,-130],[-218,-395],[-375,-57],[-192,-86],[-222,-183],[-127,-166],[-23,-21]],[[3191,2367],[348,-32],[64,22],[204,-90],[202,66],[87,-18]],[[2723,2362],[468,5]],[[2840,4096],[-27,-162],[-79,-233],[-16,-371],[-66,-375],[71,-593]],[[2723,2362],[-55,-291],[-114,-197],[-66,-297],[-78,-141],[-76,-251],[-183,-147],[-114,-130],[-218,-395],[-375,-57],[-192,-86],[-222,-183],[-127,-166],[-24,-21]],[[2261,0],[122,103],[108,151],[3,11],[2,2],[3,3]],[[2573,349],[-77,-83],[-49,-204],[10,-62]],[[2573,351],[0,42]],[[3434,4096],[-39,-232],[-1,-81],[-7,-36],[-55,-77],[-14,-32],[-3,-27],[1,-162],[-8,-36],[-13,-37],[-3,-34],[24,-26],[-25,-53],[-12,-68],[-13,-321],[50,-539],[-7,-62],[-29,-89],[-46,-297],[-23,-65],[-29,-56],[-34,-49],[-42,-45],[-22,-46],[-29,-208],[-34,-96],[-87,-176],[-69,-236],[-28,-44],[-95,-105],[-59,-96],[-45,-45],[-15,29],[4,24],[20,19],[30,11],[0,21],[-20,0],[-183,-179],[-55,-87],[-23,-55],[-11,-55],[-6,-123],[-11,-47],[-28,-37],[-64,-49],[-86,-92],[-2190,0],[0,4096],[3434,0]],[[3434,4096],[-39,-232],[-1,-81],[-7,-36],[-55,-77],[-14,-32],[-3,-27],[1,-162],[-8,-36],[-13,-37],[-3,-34],[24,-26],[-25,-53],[-12,-68],[-13,-321],[50,-539],[-7,-62],[-29,-89],[-46,-297],[-23,-65],[-29,-56],[-34,-49],[-42,-45],[-22,-46],[-29,-208],[-34,-96],[-87,-176],[-69,-236],[-28,-44],[-95,-105],[-59,-96],[-45,-45],[-15,29],[4,24],[20,19],[30,11],[0,21],[-20,0],[-183,-179],[-55,-87],[-23,-55],[-11,-55],[-6,-123],[-11,-47],[-28,-37],[-64,-49],[-86,-92]],[[3459,3940],[48,-30],[9,-55],[59,-16],[47,-71],[38,-151],[75,-56],[63,-4],[67,-42],[231,46]],[[3456,4023],[0,-1],[0,1]],[[3375,599],[116,-9],[105,-123],[52,-25],[22,-50],[174,-140],[61,-17],[191,19]],[[2700,500],[-34,31]],[[2700,500],[3,-3]],[[2704,499],[-4,1]],[[2707,497]],[[2707,498]],[[2706,498],[-2,1],[-1,-2],[3,0],[0,1]],[[2640,554],[-10,2],[-21,2]],[[2609,557],[30,-4]],[[2606,544],[-1,0],[0,-1],[1,0],[0,1]],[[2640,553],[-1,0],[1,0]],[[2605,543],[-12,-56]],[[2594,487],[12,56]],[[2608,558],[-3,-14]],[[2606,544],[3,13]],[[2604,596],[3,-8],[2,-2]],[[2610,586],[-5,10]],[[2609,585],[0,-27]],[[2609,558],[1,28]],[[2610,558],[-1,0]],[[2609,558],[0,-1],[1,1]],[[2610,586],[-1,0]],[[2609,586],[0,-1],[1,1]],[[2707,497],[1,1]],[[2708,498],[-1,0]],[[3375,599],[-474,-86],[-93,-64],[-17,44],[-83,5]],[[2640,553],[26,-22],[-26,22]],[[3469,3984],[-45,-199],[26,-115],[-62,-55],[14,-68],[-30,-86],[6,-228],[22,-37],[-38,-109],[58,-360],[127,-171],[74,14],[86,-28],[14,-115],[38,-63],[-1,-149],[-30,-101],[16,-85],[96,-144],[-9,-74],[71,-151],[-109,-85],[-260,-462],[-114,-294],[5,-63],[-49,-157]],[[3383,599],[-2,5]],[[3456,4022],[13,-38]],[[3469,3984],[-13,38]],[[3545,4096],[-89,-73]],[[2592,482],[-18,-121],[1,-4],[4,-12],[-73,-76]],[[2506,268],[73,77],[14,136]],[[2593,487],[-1,-4]],[[2594,482],[0,5]],[[2592,481],[1,0],[0,2],[-1,0],[0,-2]],[[2506,269],[-119,-164],[-128,-105]],[[2259,0],[128,105],[119,163]],[[2190,0],[86,92],[64,49],[28,37],[11,47],[6,123],[11,55],[23,55],[55,87],[183,179],[20,0],[0,-21],[-30,-11],[-20,-19],[-4,-24],[15,-29],[45,45],[59,96],[95,105],[28,44],[69,236],[87,176],[34,96],[29,208],[22,46],[42,45],[34,49],[29,56],[23,65],[46,297],[29,89],[7,62],[-50,539],[13,321],[12,68],[25,53],[-24,26],[3,34],[13,37],[8,36],[-1,162],[3,27],[14,32],[55,77],[7,36],[1,81],[39,232],[662,0],[0,-4096],[-1906,0]],[[2637,621],[79,99],[21,-156],[-33,-74],[-65,-33],[-59,39],[-2,151],[99,77],[-50,-51],[10,-52]]]}