{"objects":{"water":{"type":"GeometryCollection","geometries":[{"type":"MultiPolygon","properties":{"source":"naturalearthdata.com","kind":"ocean","area":1576712559132672,"sort_rank":200,"min_zoom":0.0,"id":1},"arcs":[[[15]]]},{"type":"LineString","properties":{"source":"naturalearthdata.com","kind":"ocean","sort_rank":205,"boundary":true,"min_zoom":0.0,"id":19},"arcs":[16]}]},"buildings":{"type":"GeometryCollection","geometries":[]},"places":{"type":"GeometryCollection","geometries":[{"type":"Point","properties":{"name:pt":"Marcas","name:sl":"Marke","name:sk":"Marky","short_name":"MAR","name:eo":"Markio","min_zoom":4.0,"name:uk":"\u041c\u0430\u0440\u043a\u0435","name:be":"\u041c\u0430\u0440\u043a\u0435","name:ru":"\u041c\u0430\u0440\u043a\u0435","id":1781917325,"population":1565335,"kind":"region","name":"Marche","kind_detail":"state","name:de":"Marken","source":"openstreetmap.org","name:fr":"Marches","name:es":"Marcas"},"coordinates":[1414,1114]},{"type":"Point","properties":{"source":"openstreetmap.org","kind":"region","name":"Pesaro e Urbino","kind_detail":"province","population":361561,"min_zoom":4.0,"id":4400482154},"coordinates":[380,2674]},{"type":"Point","properties":{"name:ar":"\u0623\u0646\u0643\u0648\u0646\u0627","name:lt":"Ankona","name:fa":"\u0622\u0646\u06a9\u0648\u0646\u0627","name:he":"\u05d0\u05e0\u05e7\u05d5\u05e0\u05d4","min_zoom":8.0,"name:uk":"\u0410\u043d\u043a\u043e\u043d\u0430","name:ru":"\u0410\u043d\u043a\u043e\u043d\u0430","name:pl":"Ankona","id":70978800,"population":100861,"name:el":"\u0391\u03bd\u03ba\u03cc\u03bd\u03b1","kind":"locality","name":"Ancona","kind_detail":"city","name:sr":"\u0410\u043d\u043a\u043e\u043d\u0430","source":"openstreetmap.org","name:fr":"Anc\u00f4ne","name:zh":"\u5b89\u79d1\u7eb3"},"coordinates":[2507,2204]},{"type":"Point","properties":{"name:el":"\u03a0\u03ad\u03b6\u03b1\u03c1\u03bf","kind":"locality","name":"Pesaro","old_name:la":"Pisaurum","kind_detail":"city","source":"openstreetmap.org","min_zoom":8.0,"name:ru":"\u041f\u0435\u0437\u0430\u0440\u043e","name:zh":"\u4f69\u8428\u7f57","id":266513166,"population":94582},"coordinates":[748,3381]},{"type":"Point","properties":{"source":"openstreetmap.org","kind":"locality","name":"Fano","kind_detail":"town","population":60888,"min_zoom":8.0,"id":1618242759},"coordinates":[1044,3110]},{"type":"Point","properties":{"old_name:la":"Sena Gallica","kind":"locality","name":"Senigallia","kind_detail":"town","source":"openstreetmap.org","min_zoom":8.0,"name:ru":"\u0421\u0435\u043d\u0438\u0433\u0430\u043b\u043b\u0438\u044f","id":70979112,"population":45027},"coordinates":[1635,2597]},{"type":"Point","properties":{"kind":"locality","name":"Macerata","kind_detail":"town","source":"openstreetmap.org","min_zoom":8.0,"name:ru":"\u041c\u0430\u0447\u0435\u0440\u0430\u0442\u0430","name:zh":"\u9a6c\u5207\u62c9\u5854","id":70978829,"population":42473},"coordinates":[2322,932]},{"type":"Point","properties":{"source":"openstreetmap.org","kind":"locality","name":"Civitanova Marche","kind_detail":"town","population":41983,"min_zoom":8.0,"id":70980948},"coordinates":[3107,951]},{"type":"Point","properties":{"kind":"locality","name":"Jesi","name:lt":"D\u017eezis","kind_detail":"town","name:he":"\u05d9\u05e1\u05d9","source":"openstreetmap.org","min_zoom":8.0,"name:uk":"\u0404\u0437\u0456","id":70979710,"population":40399},"coordinates":[1713,1822]},{"type":"Point","properties":{"kind":"locality","name":"Fermo","kind_detail":"town","source":"openstreetmap.org","min_zoom":8.0,"name:zh":"\u8cbb\u723e\u83ab","id":70980700,"population":37655},"coordinates":[3087,368]},{"type":"Point","properties":{"kind":"locality","name":"Osimo","kind_detail":"town","source":"openstreetmap.org","min_zoom":8.0,"name:ru":"\u041e\u0437\u0438\u043c\u043e","id":70979057,"population":34977},"coordinates":[2406,1678]},{"type":"Point","properties":{"source":"openstreetmap.org","kind":"locality","name":"Fabriano","kind_detail":"town","population":31480,"min_zoom":8.0,"id":70978934},"coordinates":[723,1073]},{"type":"Point","properties":{"kind":"locality","name":"Falconara Marittima","kind_detail":"town","source":"openstreetmap.org","min_zoom":8.0,"name:uk":"\u0424\u0430\u043b\u044c\u043a\u043e\u043d\u0430\u0440\u0430-\u041c\u0430\u0440\u0438\u0442\u0442\u0456\u043c\u0430","id":70978947,"population":26565},"coordinates":[2157,2254]},{"type":"Point","properties":{"source":"openstreetmap.org","kind":"locality","name":"Porto Sant'Elpidio","kind_detail":"town","population":26152,"min_zoom":8.0,"id":70981016},"coordinates":[3206,764]},{"type":"Point","properties":{"source":"openstreetmap.org","kind":"locality","name":"Recanati","kind_detail":"town","population":21349,"min_zoom":8.0,"id":70981382},"coordinates":[2599,1345]},{"type":"Point","properties":{"source":"openstreetmap.org","kind":"locality","name":"Tolentino","kind_detail":"town","population":20069,"min_zoom":8.0,"id":735120823},"coordinates":[1830,562]},{"type":"Point","properties":{"source":"openstreetmap.org","kind":"locality","name":"Castelfidardo","kind_detail":"town","population":18733,"min_zoom":8.0,"id":70979281},"coordinates":[2594,1591]},{"type":"Point","properties":{"source":"openstreetmap.org","kind":"locality","name":"Cattolica","kind_detail":"town","population":17125,"min_zoom":8.0,"id":69301760},"coordinates":[256,3599]},{"type":"Point","properties":{"source":"openstreetmap.org","kind":"locality","name":"Sant'Elpidio a Mare","kind_detail":"town","population":17110,"min_zoom":8.0,"id":1216362191},"coordinates":[3005,667]},{"type":"Point","properties":{"source":"openstreetmap.org","kind":"locality","name":"Porto San Giorgio","kind_detail":"town","population":16121,"min_zoom":8.0,"id":70980286},"coordinates":[3312,457]},{"type":"Point","properties":{"source":"openstreetmap.org","kind":"locality","name":"Potenza Picena","kind_detail":"town","population":15936,"min_zoom":8.0,"id":70981390},"coordinates":[2809,1196]},{"type":"Point","properties":{"source":"openstreetmap.org","kind":"locality","name":"Corridonia","kind_detail":"town","population":15430,"min_zoom":8.0,"id":70981439},"coordinates":[2484,722]},{"type":"Point","properties":{"source":"openstreetmap.org","kind":"locality","name":"Chiaravalle","kind_detail":"town","population":14796,"min_zoom":8.0,"id":70978898},"coordinates":[1947,2146]},{"type":"Point","properties":{"source":"openstreetmap.org","kind":"locality","name":"Mondolfo","kind_detail":"town","population":14277,"min_zoom":8.0,"id":70982130},"coordinates":[1286,2736]},{"type":"Point","properties":{"source":"openstreetmap.org","kind":"locality","name":"Misano Adriatico","kind_detail":"town","population":13014,"min_zoom":8.0,"id":69301750},"coordinates":[124,3653]},{"type":"Point","properties":{"source":"openstreetmap.org","kind":"locality","name":"Montegranaro","kind_detail":"town","population":12990,"min_zoom":8.0,"id":70980756},"coordinates":[2841,658]},{"type":"Point","properties":{"source":"openstreetmap.org","kind":"locality","name":"Loreto","kind_detail":"town","population":12814,"min_zoom":8.0,"id":70978988},"coordinates":[2774,1496]},{"type":"Point","properties":{"source":"openstreetmap.org","kind":"locality","name":"San Severino Marche","kind_detail":"town","population":12726,"min_zoom":8.0,"id":70981303},"coordinates":[1520,644]},{"type":"Point","properties":{"source":"openstreetmap.org","kind":"locality","name":"Porto Recanati","kind_detail":"town","population":12531,"min_zoom":8.0,"id":70981279},"coordinates":[2932,1472]},{"type":"Point","properties":{"source":"openstreetmap.org","kind":"locality","name":"Cingoli","kind_detail":"town","population":10352,"min_zoom":8.0,"id":70981451},"coordinates":[1631,1226]},{"type":"Point","properties":{"source":"openstreetmap.org","kind":"locality","name":"Morrovalle","kind_detail":"town","population":10195,"min_zoom":8.0,"id":70981361},"coordinates":[2689,988]},{"type":"Point","properties":{"source":"openstreetmap.org","kind":"locality","name":"Montemarciano","kind_detail":"town","population":10029,"min_zoom":8.0,"id":70979320},"coordinates":[1897,2292]},{"type":"Point","properties":{"source":"openstreetmap.org","kind":"locality","name":"Gualdo Tadino","kind_detail":"town","population":9750,"min_zoom":8.0,"id":68507564},"coordinates":[363,654]},{"type":"Point","properties":{"source":"openstreetmap.org","kind":"locality","name":"San Giovanni in Marignano","kind_detail":"town","population":9417,"min_zoom":8.0,"id":69301825},"coordinates":[164,3497]},{"type":"Point","properties":{"source":"openstreetmap.org","kind":"locality","name":"Camerino","kind_detail":"town","population":6974,"min_zoom":8.0,"id":368970390},"coordinates":[1200,269]}]},"transit":{"type":"GeometryCollection","geometries":[{"type":"MultiLineString","properties":{"source":"openstreetmap.org","kind":"train","name":"Ferrovia Adriatica - direzione Sud","sort_rank":275,"min_zoom":6.0,"osm_relation":true},"arcs":[[10],[11]]},{"type":"MultiLineString","properties":{"source":"openstreetmap.org","kind":"train","name":"Ferrovia Adriatica - direzione Nord","sort_rank":275,"min_zoom":6.0,"osm_relation":true},"arcs":[[12],[13],[14]]}]},"pois":{"type":"GeometryCollection","geometries":[{"type":"Point","properties":{"kind":"national_park","tier":1,"protect_class":"2","area":113962000,"source":"openstreetmap.org","min_zoom":7.37,"operator":"Ente Parco Regionale del Conero","id":-3415695,"osm_relation":true,"name":"Parco regionale del Conero"},"coordinates":[2700,1921]},{"type":"Point","properties":{"kind":"nature_reserve","protect_class":"2","area":191600000,"source":"openstreetmap.org","min_zoom":8.5,"tier":2,"id":314638039,"name":"Parco Regionale Gola della Rossa e Frasassi"},"coordinates":[936,1403]},{"type":"Point","properties":{"kind":"nature_reserve","protect_class":"2","area":201957000,"source":"openstreetmap.org","min_zoom":8.46,"tier":2,"id":318725672,"name":"Parco Regionale del Monte Cucco"},"coordinates":[178,1244]},{"type":"Point","properties":{"kind":"nature_reserve","protect_class":"2","area":135747000,"source":"openstreetmap.org","min_zoom":8.75,"tier":2,"id":461629730,"name":"Parco Regionale del Monte Subasio"},"coordinates":[99,73]},{"type":"Point","properties":{"kind":"nature_reserve","tier":2,"protect_class":"97","area":166185000,"source":"openstreetmap.org","min_zoom":8.6,"operator":"UM del Catria e Nerone; UM dell'Esino-Frasassi","ref":"IT5310019","id":464320438,"name":"Monte Catria - Monte Acuto"},"coordinates":[130,1667]}]},"boundaries":{"type":"GeometryCollection","geometries":[{"type":"LineString","properties":{"name:ty":"\u2019It\u0101ria","name:ka":"\u10d8\u10e2\u10d0\u10da\u10d8\u10d0","name:ko":"\uc774\ud0c8\ub9ac\uc544","name:cv":"\u0418\u0442\u0430\u043b\u0438","name:cu":"\u0418\u0442\u0430\u043b\u0457\ua657","name:cs":"It\u00e1lie","name:cr":"\u1403\u1455\u14d6","name:tt":"\u0418\u0442\u0430\u043b\u0438\u044f","name:kw":"Itali","name:kv":"\u0418\u0442\u0430\u043b\u0438\u044f","name:th":"\u0e1b\u0e23\u0e30\u0e40\u0e17\u0e28\u0e2d\u0e34\u0e15\u0e32\u0e25\u0e35","alt_name:cs":"\u0160v\u00fdcarsk\u00e1 konfederace","name:tl":"Italya","name:ce":"\u0418\u0442\u0430\u043b\u0438","name:ta":"\u0b87\u0ba4\u0bcd\u0ba4\u0bbe\u0bb2\u0bbf","name:tg":"\u0418\u0442\u043e\u043b\u0438\u0451","name:ca":"It\u00e0lia","name:te":"\u0c07\u0c1f\u0c32\u0c40","name:cy":"Yr Eidal","name:qu":"Italya","name:da":"Italien","name:de":"Italien","name:dz":"\u0f68\u0f80\u0f4a\u0f0b\u0f63\u0f72\u0f0b","source":"openstreetmap.org","name:kn":"\u0c87\u0c9f\u0cb2\u0cbf","name:dv":"\u0787\u07a8\u0793\u07a6\u078d\u07a9\u0788\u07a8\u078d\u07a7\u078c\u07b0","name:km":"\u17a2\u17ca\u17b8\u178f\u17b6\u179b\u17b8","name:lv":"It\u0101lija","name:lt":"Italija","name:uz":"Italiya","name:kk":"\u0418\u0442\u0430\u043b\u0438\u044f","name:tw":"Italy","name:lb":"Italien","name:lg":"Yitale","name:uk":"\u0406\u0442\u0430\u043b\u0456\u044f","name:ug":"\u0626\u0649\u062a\u0627\u0644\u0649\u064a\u06d5","name:li":"Itali\u00eb","name:ln":"Italya","name:lo":"\u0ead\u0eb4\u0e95\u0eb2\u0ea5\u0eb5","name:el":"\u0399\u03c4\u03b1\u03bb\u03af\u03b1","name:eo":"Italujo","name:en":"Italy","name":"Italia","name:tk":"Itali\u00fda","name:ee":"Italy","name:ku":"\u00cetalya","name:et":"Itaalia","name:ay":"Italiya","name:az":"\u0130taliya","name:as":"\u0987\u099f\u09be\u09b2\u09c0","name:ar":"\u0625\u064a\u0637\u0627\u0644\u064a\u0627","name:ak":"Italy","name:am":"\u1323\u120d\u12eb\u1295","name:ru":"\u0418\u0442\u0430\u043b\u0438\u044f","name:ab":"\u0418\u0442\u0430\u043b\u0438\u0430","name:af":"Itali\u00eb","name:zu":"ITaliya","kind_detail":"2","name:ky":"\u0418\u0442\u0430\u043b\u0438\u044f","name:zh-yue":"\u610f\u5927\u5229","name:zh":"\u610f\u5927\u5229","name:so":"Talyaaniga","name:sl":"Italija","name:sk":"Taliansko","name:ja":"\u30a4\u30bf\u30ea\u30a2","name:sh":"Italija","name:sg":"Ital\u00f9ii","name:se":"It\u00e1lia","name:sc":"It\u00e0lia","name:sa":"\u0907\u091f\u0932\u0940","name:bs":"Italija","name:bn":"\u0987\u09a4\u09be\u09b2\u09bf","name:bo":"\u0f68\u0f72\u0f0b\u0f4f\u0f0b\u0f63\u0f72\u0f0d","name:bi":"Itali","name:be":"\u0406\u0442\u0430\u043b\u0456\u044f","name:bg":"\u0418\u0442\u0430\u043b\u0438\u044f","name:ss":"INtaliyane","name:ba":"\u0418\u0442\u0430\u043b\u0438\u044f","osm_relation":true,"name:pt":"It\u00e1lia","name:ps":"\u0627\u06d0\u067c\u0627\u0644\u064a\u0627","name:oc":"It\u00e0lia","min_zoom":8.0,"name:pa":"\u0a07\u0a1f\u0a32\u0a40","name:os":"\u0418\u0442\u0430\u043b\u0438","name:or":"\u0b07\u0b1f\u0b3e\u0b32\u0b40","name:pl":"W\u0142ochy","sort_rank":262,"name:sr":"\u0418\u0442\u0430\u043b\u0438\u0458\u0430","name:tr":"\u0130talya","name:hi":"\u0907\u091f\u0932\u0940","name:sv":"Italien","name:he":"\u05d0\u05d9\u05d8\u05dc\u05d9\u05d4","name:hy":"\u053b\u057f\u0561\u056c\u056b\u0561","name:ht":"Itali","name:hu":"Olaszorsz\u00e1g","name:hr":"Italija","kind":"country","name:is":"\u00cdtal\u00eda","name:yi":"\u05d0\u05d9\u05d8\u05d0\u05dc\u05d9\u05e2","name:yo":"It\u00e1l\u00ed\u00e0","name:mt":"Italja","alt_name:eo":"Italio","name:ms":"Itali","name:mr":"\u0907\u091f\u0932\u0940","name:my":"\u1021\u102e\u1010\u101c\u102e\u1014\u102d\u102f\u1004\u103a\u1004\u1036","official_name":"Repubblica Italiana","name:ve":"Italy","name:vi":"\u00dd","name:ml":"\u0d07\u0d31\u0d4d\u0d31\u0d32\u0d3f","name:mn":"\u0418\u0442\u0430\u043b\u0438","name:mi":"It\u0101ria","id":-365331,"name:mk":"\u0418\u0442\u0430\u043b\u0438\u0458\u0430","name:vo":"Litaliy\u00e4n","name:fa":"\u0627\u06cc\u062a\u0627\u0644\u06cc\u0627","name:rw":"Ubutaliyani","name:ff":"Italiya","old_name:vi":"\u00dd \u0110\u1ea1i L\u1ee3i","alt_name:vi":"I-ta-li-a","name:fr":"Italie","name:fy":"Itaalje","name:nl":"Itali\u00eb","name:na":"Itari","name:ne":"\u0907\u091f\u093e\u0932\u0940","name:wa":"It\u00e5leye","name:ur":"\u0627\u0637\u0627\u0644\u06cc\u06c1","name:wo":"Itaali","name:nv":"\u00cddelii","name:ga":"An Iod\u00e1il","name:gd":"An Eadailt","name:gn":"It\u00e1lia","maritime_boundary":true,"name:gv":"Yn Iddaal","name:gu":"\u0a88\u0a9f\u0ab2\u0ac0"},"arcs":[0]},{"type":"LineString","properties":{"name:right:es":"Emilia-Roma\u00f1a","name:right:fr":"\u00c9milie-Romagne","short_name:left":"MAR","id:right":-42611,"name:right:lt":"Emilija-Romanija","name:left:sl":"Marke","min_zoom":8.0,"name:left:lt":"Mark\u0117","name:right:sl":"Emilija - Romanja","name:left:sk":"Marky","name:left:ru":"\u041c\u0430\u0440\u043a\u0435","short_name:right":"EMR","name:right:ru":"\u042d\u043c\u0438\u043b\u0438\u044f-\u0420\u043e\u043c\u0430\u043d\u044c\u044f","name:right:pl":"Emilia-Romania","id":-53060,"osm_relation":true,"name:right":"Emilia-Romagna","name:left:pt":"Marcas","kind":"region","name:left:eo":"Markio","name":"Marche - Emilia-Romagna","source":"openstreetmap.org","name:right:ca":"Em\u00edlia-Romanya","kind_detail":"4","name:left:ca":"Marques","name:left:de":"Marken","sort_rank":256,"name:left:fr":"Marches","id:left":-53060,"name:left:es":"Marcas","name:left":"Marche"},"arcs":[1]},{"type":"LineString","properties":{"name:right:fr":"\u00c9milie-Romagne","id:right":-42611,"name:right:lt":"Emilija-Romanija","name:left:sl":"Marke","min_zoom":8.0,"name:left:lt":"Mark\u0117","name:right:sl":"Emilija - Romanja","name:left:sk":"Marky","id":-53060,"name:right":"Emilia-Romagna","short_name:left":"MAR","name:left:eo":"Markio","sort_rank":256,"kind_detail":"4","name:left:ca":"Marques","source":"openstreetmap.org","id:left":-53060,"name:left:es":"Marcas","name:left":"Marche","name:right:es":"Emilia-Roma\u00f1a","name:right:ru":"\u042d\u043c\u0438\u043b\u0438\u044f-\u0420\u043e\u043c\u0430\u043d\u044c\u044f","name:left:pt":"Marcas","name:left:ru":"\u041c\u0430\u0440\u043a\u0435","short_name:right":"EMR","name:right:pl":"Emilia-Romania","osm_relation":true,"kind":"region","name":"Marche - Emilia-Romagna","name:left:de":"Marken","name:right:ca":"Em\u00edlia-Romanya","maritime_boundary":true,"name:left:fr":"Marches"},"arcs":[2]},{"type":"LineString","properties":{"name:right:fr":"Ombrie","id:right":-42004,"name:left:sl":"Marke","min_zoom":8.0,"name:left:lt":"Mark\u0117","name:right:sl":"Umbrija","name:left:sk":"Marky","id":-53060,"name:right":"Umbria","short_name:left":"MAR","name:left:eo":"Markio","sort_rank":256,"kind_detail":"4","name:left:ca":"Marques","source":"openstreetmap.org","id:left":-53060,"name:left:es":"Marcas","name:right:cs":"Umbrie","name:left":"Marche","name:right:es":"Umbr\u00eda","name:right:pt":"\u00dambria","name:right:ru":"\u0423\u043c\u0431\u0440\u0438\u044f","name:left:pt":"Marcas","name:left:ru":"\u041c\u0430\u0440\u043a\u0435","name:right:eo":"Umbrio","osm_relation":true,"kind":"region","name":"Marche - Umbria","name:right:de":"Umbrien","name:left:de":"Marken","name:right:ca":"\u00dambria","name:left:fr":"Marches"},"arcs":[3]},{"type":"LineString","properties":{"name:pt":"Marcas","name:sl":"Marke","name:sk":"Marky","name:lt":"Mark\u0117","name:eo":"Markio","min_zoom":8.0,"name:ru":"\u041c\u0430\u0440\u043a\u0435","id":-53060,"osm_relation":true,"kind":"region","name":"Marche","sort_rank":256,"kind_detail":"4","short_name":"MAR","name:de":"Marken","source":"openstreetmap.org","name:fr":"Marches","name:ca":"Marques","name:es":"Marcas"},"arcs":[4]},{"type":"MultiLineString","properties":{"name:pt":"Marcas","name:sl":"Marke","name:sk":"Marky","name:lt":"Mark\u0117","kind":"region","min_zoom":8.0,"name:ru":"\u041c\u0430\u0440\u043a\u0435","id":-53060,"osm_relation":true,"name:eo":"Markio","name":"Marche","sort_rank":256,"kind_detail":"4","short_name":"MAR","name:fr":"Marches","name:de":"Marken","source":"openstreetmap.org","maritime_boundary":true,"name:ca":"Marques","name:es":"Marcas"},"arcs":[[5],[6]]},{"type":"LineString","properties":{"name:sl":"Emilija - Romanja","name:lt":"Emilija-Romanija","min_zoom":8.0,"name:ru":"\u042d\u043c\u0438\u043b\u0438\u044f-\u0420\u043e\u043c\u0430\u043d\u044c\u044f","name:pl":"Emilia-Romania","id":-42611,"osm_relation":true,"kind":"region","name":"Emilia-Romagna","sort_rank":256,"kind_detail":"4","short_name":"EMR","source":"openstreetmap.org","name:fr":"\u00c9milie-Romagne","name:ca":"Em\u00edlia-Romanya","name:es":"Emilia-Roma\u00f1a"},"arcs":[7]},{"type":"MultiLineString","properties":{"name:sl":"Emilija - Romanja","name:lt":"Emilija-Romanija","min_zoom":8.0,"name:ru":"\u042d\u043c\u0438\u043b\u0438\u044f-\u0420\u043e\u043c\u0430\u043d\u044c\u044f","name:pl":"Emilia-Romania","id":-42611,"osm_relation":true,"kind":"region","name":"Emilia-Romagna","sort_rank":256,"kind_detail":"4","short_name":"EMR","name:fr":"\u00c9milie-Romagne","source":"openstreetmap.org","maritime_boundary":true,"name:ca":"Em\u00edlia-Romanya","name:es":"Emilia-Roma\u00f1a"},"arcs":[[8],[9]]}]},"roads":{"type":"GeometryCollection","geometries":[{"type":"LineString","properties":{"source":"openstreetmap.org","kind":"ferry","name":"Ancona-Korfu","sort_rank":355,"min_zoom":8.0,"osm_relation":true,"id":-5384332},"arcs":[17]},{"type":"MultiLineString","properties":{"kind":"major_road","network":null,"sort_rank":381,"kind_detail":"trunk","source":"openstreetmap.org","min_zoom":8.0,"shield_text":"77","ref":"SS77"},"arcs":[[18],[19],[20],[21],[22],[23],[24],[25]]},{"type":"LineString","properties":{"kind":"major_road","network":null,"sort_rank":381,"kind_detail":"trunk","source":"openstreetmap.org","min_zoom":8.0,"shield_text":"3","ref":"SR3","id":28828616},"arcs":[26]},{"type":"MultiLineString","properties":{"kind":"major_road","network":null,"sort_rank":381,"landuse_kind":"urban_area","source":"openstreetmap.org","min_zoom":8.0,"kind_detail":"trunk","shield_text":"77","ref":"SS77"},"arcs":[[27],[28],[29],[30],[31],[32],[33],[34],[35]]},{"type":"LineString","properties":{"kind":"major_road","network":null,"sort_rank":380,"kind_detail":"primary","is_bicycle_related":true,"source":"openstreetmap.org","min_zoom":8.0,"landuse_kind":"urban_area","loc_name":"Via Giuseppe Mazzini","ref":"SS16","id":504429631,"shield_text":"16"},"arcs":[36]},{"type":"MultiLineString","properties":{"kind":"major_road","network":null,"sort_rank":380,"kind_detail":"primary","source":"openstreetmap.org","min_zoom":8.0,"nat_name":"Strada Statale 16 Adriatica","shield_text":"16","ref":"SS16"},"arcs":[[37],[38],[39],[40],[41]]},{"type":"LineString","properties":{"kind":"major_road","network":null,"sort_rank":380,"kind_detail":"primary","source":"openstreetmap.org","min_zoom":8.0,"landuse_kind":"nature_reserve","shield_text":"3","ref":"SP3","id":142618491},"arcs":[42]},{"type":"MultiLineString","properties":{"source":"openstreetmap.org","kind":"major_road","landuse_kind":"urban_area","sort_rank":380,"kind_detail":"primary","ref":"SP423","min_zoom":8.0},"arcs":[[43],[44],[45]]},{"type":"LineString","properties":{"kind":"ferry","name":"Zadar - Ancona","sort_rank":355,"landuse_kind":"urban_area","source":"openstreetmap.org","min_zoom":8.0,"name:it":"Zara - Ancona","ref":"51","id":73091005},"arcs":[46]},{"type":"LineString","properties":{"cycleway_right":"lane","network":null,"sort_rank":380,"kind_detail":"primary","is_bicycle_related":true,"kind":"major_road","source":"openstreetmap.org","min_zoom":8.0,"landuse_kind":"urban_area","shield_text":"16","ref":"SS16","id":367349755},"arcs":[47]},{"type":"LineString","properties":{"kind":"major_road","network":"IT:MC","sort_rank":380,"kind_detail":"primary","source":"openstreetmap.org","min_zoom":8.0,"shield_text":"78","ref":"SP78","id":43141748},"arcs":[48]},{"type":"MultiLineString","properties":{"kind":"major_road","network":null,"sort_rank":380,"kind_detail":"primary","reg_name":"Strada Provinciale 3 Flaminia","source":"openstreetmap.org","min_zoom":8.0,"shield_text":"3","ref":"SP3"},"arcs":[[49],[50],[51],[52],[53],[54],[55],[56],[57],[58],[59],[60],[61],[62],[63],[64],[65],[66],[67],[68],[69],[70],[71],[72],[73],[74],[75]]},{"type":"MultiLineString","properties":{"kind":"major_road","network":"IT:AN","sort_rank":380,"kind_detail":"primary","source":"openstreetmap.org","min_zoom":8.0,"shield_text":"256","ref":"SP256"},"arcs":[[76],[77],[78],[79],[80],[81],[82]]},{"type":"MultiLineString","properties":{"bus_network":"Urbano Ancona","network":null,"sort_rank":380,"kind_detail":"primary","kind":"major_road","source":"openstreetmap.org","min_zoom":8.0,"bus_shield_text":"22","shield_text":"16","landuse_kind":"urban_area","ref":"SS16"},"arcs":[[83],[84],[85],[86],[87]]},{"type":"MultiLineString","properties":{"kind":"major_road","network":"IT:MC","sort_rank":380,"kind_detail":"primary","source":"openstreetmap.org","min_zoom":8.0,"landuse_kind":"urban_area","shield_text":"361","ref":"SP361"},"arcs":[[88],[89],[90],[91],[92],[93],[94],[95]]},{"type":"MultiLineString","properties":{"kind":"highway","network":"e-road","sort_rank":383,"landuse_kind":"urban_area","source":"openstreetmap.org","min_zoom":8.0,"all_networks":["e-road",null],"kind_detail":"motorway","shield_text":"55","ref":"A14","all_shield_texts":["55","14"]},"arcs":[[96],[97],[98],[99],[100],[101],[102],[103],[104],[105],[106],[107],[108],[109],[110],[111]]},{"type":"MultiLineString","properties":{"kind":"major_road","network":null,"sort_rank":381,"kind_detail":"trunk","source":"openstreetmap.org","min_zoom":8.0,"shield_text":"76","ref":"SS76"},"arcs":[[112],[113],[114],[115],[116],[117]]},{"type":"LineString","properties":{"kind":"ferry","name":"Ancona-Split","sort_rank":355,"landuse_kind":"urban_area","source":"openstreetmap.org","min_zoom":8.0,"id":-5291161,"osm_relation":true},"arcs":[118]},{"type":"MultiLineString","properties":{"source":"openstreetmap.org","kind":"major_road","sort_rank":381,"kind_detail":"trunk","ref":"SP3","min_zoom":8.0},"arcs":[[119],[120]]},{"type":"MultiLineString","properties":{"source":"openstreetmap.org","kind":"major_road","network":null,"sort_rank":380,"kind_detail":"primary","min_zoom":8.0,"shield_text":"3"},"arcs":[[121],[122],[123]]},{"type":"MultiLineString","properties":{"bus_network":"Urbano Ancona","network":null,"sort_rank":381,"landuse_kind":"urban_area","kind":"major_road","source":"openstreetmap.org","min_zoom":8.0,"bus_shield_text":"12","shield_text":"681","kind_detail":"trunk","ref":"SS681"},"arcs":[[124],[125]]},{"type":"LineString","properties":{"kind":"major_road","network":null,"sort_rank":381,"landuse_kind":"urban_area","source":"openstreetmap.org","min_zoom":8.0,"kind_detail":"trunk","shield_text":"3","ref":"SP3"},"arcs":[126]},{"type":"LineString","properties":{"source":"openstreetmap.org","kind":"ferry","name":"Ancona-Korfu","sort_rank":355,"landuse_kind":"urban_area","min_zoom":8.0,"id":361701194},"arcs":[127]},{"type":"MultiLineString","properties":{"bus_network":"Urbano Ancona","sort_rank":380,"kind_detail":"primary","kind":"major_road","source":"openstreetmap.org","min_zoom":8.0,"bus_shield_text":"46","landuse_kind":"urban_area"},"arcs":[[128],[129]]},{"type":"MultiLineString","properties":{"kind":"major_road","network":"IT:MC","sort_rank":380,"kind_detail":"primary","source":"openstreetmap.org","min_zoom":8.0,"old_name":"Strada Statale 78 Picena","shield_text":"78","ref":"SP78"},"arcs":[[130],[131],[132],[133],[134],[135],[136],[137],[138],[139]]},{"type":"MultiLineString","properties":{"bus_network":"Urbano Ancona","sort_rank":381,"landuse_kind":"urban_area","kind":"major_road","source":"openstreetmap.org","min_zoom":8.0,"bus_shield_text":"46","kind_detail":"trunk"},"arcs":[[140],[141]]},{"type":"MultiLineString","properties":{"kind":"major_road","network":"IT:MC","sort_rank":380,"kind_detail":"primary","source":"openstreetmap.org","min_zoom":8.0,"shield_text":"571","ref":"SP571"},"arcs":[[142],[143],[144],[145],[146],[147],[148],[149]]},{"type":"LineString","properties":{"kind":"major_road","sort_rank":380,"landuse_kind":"nature_reserve","source":"openstreetmap.org","min_zoom":8.0,"kind_detail":"primary","ref":"SR3","id":197128781},"arcs":[150]},{"type":"LineString","properties":{"kind":"major_road","network":null,"sort_rank":380,"landuse_kind":"urban_area","is_bicycle_related":true,"bicycle_shield_text":"11","cycleway":"lane","source":"openstreetmap.org","min_zoom":8.0,"kind_detail":"primary","shield_text":"16","bicycle_network":"lcn","ref":"SS16"},"arcs":[151]},{"type":"MultiLineString","properties":{"kind":"major_road","network":null,"sort_rank":381,"kind_detail":"trunk","source":"openstreetmap.org","min_zoom":8.0,"shield_text":"3","ref":"SP3"},"arcs":[[152],[153],[154],[155],[156]]},{"type":"LineString","properties":{"kind":"ferry","name":"Ancona-Zadar","sort_rank":355,"landuse_kind":"urban_area","source":"openstreetmap.org","min_zoom":8.0,"id":-5291162,"osm_relation":true},"arcs":[157]},{"type":"LineString","properties":{"kind":"major_road","sort_rank":380,"kind_detail":"primary","bus_network":"Urbano Ancona","source":"openstreetmap.org","min_zoom":8.0,"bus_shield_text":"2","landuse_kind":"urban_area","id":51114947},"arcs":[158]},{"type":"MultiLineString","properties":{"kind":"major_road","network":null,"sort_rank":380,"kind_detail":"primary","is_bicycle_related":true,"cycleway":"lane","source":"openstreetmap.org","min_zoom":8.0,"landuse_kind":"urban_area","shield_text":"3","ref":"SP3"},"arcs":[[159],[160],[161]]},{"type":"MultiLineString","properties":{"source":"openstreetmap.org","kind":"major_road","sort_rank":380,"kind_detail":"primary","ref":"SP77","min_zoom":8.0},"arcs":[[162],[163],[164],[165],[166]]},{"type":"MultiLineString","properties":{"source":"openstreetmap.org","kind":"major_road","sort_rank":380,"kind_detail":"primary","ref":"SP361","min_zoom":8.0},"arcs":[[167],[168],[169],[170],[171]]},{"type":"MultiLineString","properties":{"source":"openstreetmap.org","kind":"major_road","landuse_kind":"urban_area","sort_rank":380,"kind_detail":"primary","ref":"SP3","min_zoom":8.0},"arcs":[[172],[173],[174],[175]]},{"type":"MultiLineString","properties":{"kind":"major_road","network":null,"sort_rank":381,"kind_detail":"trunk","source":"openstreetmap.org","min_zoom":8.0,"shield_text":"73bis","ref":"SS73bis"},"arcs":[[176],[177]]},{"type":"LineString","properties":{"source":"openstreetmap.org","kind":"ferry","name":"Ancona-Igoumenitsa","sort_rank":355,"min_zoom":8.0,"id":146383133},"arcs":[178]},{"type":"MultiLineString","properties":{"kind":"major_road","network":null,"sort_rank":380,"kind_detail":"primary","source":"openstreetmap.org","min_zoom":8.0,"nat_name":"Strada Statale 16 Adriatica","shield_text":"16","landuse_kind":"urban_area","ref":"SS16"},"arcs":[[179],[180],[181],[182],[183],[184],[185],[186],[187],[188],[189],[190],[191],[192],[193],[194],[195],[196],[197],[198]]},{"type":"MultiLineString","properties":{"source":"openstreetmap.org","kind":"major_road","landuse_kind":"urban_area","sort_rank":380,"kind_detail":"primary","ref":"SP30","min_zoom":8.0},"arcs":[[199],[200],[201],[202],[203],[204],[205],[206],[207],[208],[209],[210],[211],[212],[213],[214],[215],[216],[217],[218],[219],[220],[221],[222],[223],[224],[225],[226],[227],[228],[229],[230],[231],[232],[233],[234],[235]]},{"type":"LineString","properties":{"kind":"ferry","name":"Ancona-Korfu","sort_rank":355,"landuse_kind":"urban_area","source":"openstreetmap.org","min_zoom":8.0,"id":-5384332,"osm_relation":true},"arcs":[236]},{"type":"LineString","properties":{"kind":"major_road","network":null,"sort_rank":380,"kind_detail":"primary","source":"openstreetmap.org","min_zoom":8.0,"old_name":"Nuova Strada ANAS 249 dell'Aeroporto Raffaello Sanzio","shield_text":"76dir","landuse_kind":"urban_area","ref":"SS76dir"},"arcs":[237]},{"type":"MultiLineString","properties":{"kind":"major_road","network":null,"sort_rank":380,"kind_detail":"primary","reg_name":"Strada Provinciale 3 Flaminia","source":"openstreetmap.org","min_zoom":8.0,"landuse_kind":"urban_area","shield_text":"3","ref":"SP3"},"arcs":[[238],[239],[240]]},{"type":"MultiLineString","properties":{"kind":"major_road","network":null,"sort_rank":380,"kind_detail":"primary","is_bicycle_related":true,"source":"openstreetmap.org","min_zoom":8.0,"landuse_kind":"urban_area","shield_text":"16","ref":"SS16"},"arcs":[[241],[242],[243],[244],[245],[246],[247],[248],[249],[250],[251],[252]]},{"type":"LineString","properties":{"cycleway_right":"lane","network":null,"sort_rank":380,"kind_detail":"primary","is_bicycle_related":true,"kind":"major_road","source":"openstreetmap.org","min_zoom":8.0,"landuse_kind":"urban_area","shield_text":"3","ref":"SP3","id":138463041},"arcs":[253]},{"type":"LineString","properties":{"kind":"major_road","network":null,"sort_rank":380,"kind_detail":"primary","source":"openstreetmap.org","min_zoom":8.0,"landuse_kind":"urban_area","shield_text":"16","ref":"SP423"},"arcs":[254]},{"type":"LineString","properties":{"kind":"major_road","network":null,"sort_rank":380,"kind_detail":"primary","is_bicycle_related":true,"cycleway":"lane","source":"openstreetmap.org","min_zoom":8.0,"landuse_kind":"urban_area","shield_text":"16","ref":"SS16","id":257330748},"arcs":[255]},{"type":"LineString","properties":{"source":"openstreetmap.org","kind":"ferry","name":"Split - Ancona","sort_rank":355,"ref":"53","is_bicycle_related":true,"min_zoom":8.0},"arcs":[256]},{"type":"LineString","properties":{"kind":"major_road","network":null,"sort_rank":380,"kind_detail":"primary","source":"openstreetmap.org","min_zoom":8.0,"shield_text":"73bis","ref":"SS73bis"},"arcs":[257]},{"type":"MultiLineString","properties":{"source":"openstreetmap.org","kind":"major_road","ref":"SP423","sort_rank":380,"kind_detail":"primary","reg_name":"Strada Provinciale Urbinate","min_zoom":8.0},"arcs":[[258],[259]]},{"type":"MultiLineString","properties":{"kind":"major_road","network":null,"sort_rank":380,"kind_detail":"primary","reg_name":"Strada Provinciale Flaminia","source":"openstreetmap.org","min_zoom":8.0,"shield_text":"3","ref":"SP3"},"arcs":[[260],[261]]},{"type":"MultiLineString","properties":{"kind":"major_road","network":null,"sort_rank":380,"kind_detail":"primary","source":"openstreetmap.org","min_zoom":8.0,"shield_text":"3","ref":"SP3"},"arcs":[[262],[263],[264],[265],[266],[267],[268],[269],[270],[271],[272],[273],[274],[275],[276],[277],[278]]},{"type":"MultiLineString","properties":{"kind":"major_road","network":"e-road","sort_rank":380,"kind_detail":"primary","source":"openstreetmap.org","min_zoom":8.0,"shield_text":"78","ref":"SS73bis"},"arcs":[[279],[280]]},{"type":"MultiLineString","properties":{"source":"openstreetmap.org","kind":"major_road","sort_rank":380,"kind_detail":"primary","ref":"SS77","min_zoom":8.0},"arcs":[[281],[282],[283],[284],[285],[286],[287],[288],[289],[290]]},{"type":"MultiLineString","properties":{"kind":"major_road","network":null,"sort_rank":380,"kind_detail":"primary","source":"openstreetmap.org","min_zoom":8.0,"shield_text":"77","ref":"SP77"},"arcs":[[291],[292],[293],[294],[295],[296],[297],[298],[299],[300],[301]]},{"type":"MultiLineString","properties":{"kind":"major_road","network":null,"sort_rank":381,"kind_detail":"trunk","source":"openstreetmap.org","min_zoom":8.0,"shield_text":"77","ref":"SS77var"},"arcs":[[302],[303]]},{"type":"LineString","properties":{"kind":"major_road","network":"e-road","sort_rank":380,"kind_detail":"primary","reg_name":"Strada Provinciale Metaurense","source":"openstreetmap.org","min_zoom":8.0,"shield_text":"78","ref":"SP4"},"arcs":[304]},{"type":"MultiLineString","properties":{"bus_network":"Urbano Ancona","sort_rank":380,"kind_detail":"primary","kind":"major_road","source":"openstreetmap.org","min_zoom":8.0,"bus_shield_text":"7","landuse_kind":"urban_area"},"arcs":[[305],[306]]},{"type":"LineString","properties":{"kind":"major_road","network":null,"sort_rank":380,"kind_detail":"primary","source":"openstreetmap.org","min_zoom":8.0,"shield_text":"3","ref":"SR3","id":527351288},"arcs":[307]},{"type":"LineString","properties":{"kind":"major_road","network":"IT:MC","sort_rank":380,"kind_detail":"primary","source":"openstreetmap.org","min_zoom":8.0,"old_name":"Strada Statale 78 Picena","loc_name":"Contrada Abbadia di Fiastra","ref":"SP78","shield_text":"78"},"arcs":[308]},{"type":"MultiLineString","properties":{"source":"openstreetmap.org","kind":"major_road","sort_rank":380,"kind_detail":"primary","ref":"SP423","min_zoom":8.0},"arcs":[[309],[310],[311],[312],[313],[314],[315],[316],[317],[318],[319],[320],[321],[322],[323],[324],[325],[326],[327],[328]]},{"type":"LineString","properties":{"source":"openstreetmap.org","kind":"major_road","landuse_kind":"nature_reserve","sort_rank":380,"kind_detail":"primary","min_zoom":8.0},"arcs":[329]},{"type":"MultiLineString","properties":{"kind":"major_road","network":null,"sort_rank":380,"nat_name":"Strada Provinciale 3 Flaminia","source":"openstreetmap.org","min_zoom":8.0,"kind_detail":"primary","shield_text":"3","ref":"SP3"},"arcs":[[330],[331],[332]]},{"type":"LineString","properties":{"kind":"major_road","sort_rank":381,"landuse_kind":"urban_area","source":"openstreetmap.org","min_zoom":8.0,"kind_detail":"trunk","ref":"SS77","id":38911337},"arcs":[333]},{"type":"LineString","properties":{"source":"openstreetmap.org","kind":"major_road","sort_rank":380,"kind_detail":"primary","ref":"SP238","min_zoom":8.0},"arcs":[334]},{"type":"LineString","properties":{"kind":"major_road","cycleway_left":"lane","network":null,"sort_rank":380,"kind_detail":"primary","is_bicycle_related":true,"source":"openstreetmap.org","min_zoom":8.0,"landuse_kind":"urban_area","shield_text":"3","ref":"SP3","id":356987867},"arcs":[335]},{"type":"MultiLineString","properties":{"kind":"major_road","network":null,"sort_rank":380,"kind_detail":"primary","source":"openstreetmap.org","min_zoom":8.0,"landuse_kind":"urban_area","shield_text":"16","ref":"SS16"},"arcs":[[336],[337],[338],[339],[340],[341],[342],[343],[344],[345],[346],[347],[348],[349],[350],[351],[352],[353],[354],[355],[356],[357],[358],[359],[360],[361],[362],[363],[364],[365],[366],[367],[368],[369],[370],[371],[372],[373],[374],[375],[376],[377],[378],[379],[380],[381],[382],[383],[384],[385],[386],[387],[388],[389],[390],[391],[392],[393],[394],[395],[396],[397],[398],[399],[400],[401],[402],[403],[404],[405],[406],[407],[408],[409],[410],[411],[412],[413],[414],[415],[416],[417],[418],[419],[420],[421],[422],[423],[424],[425],[426],[427],[428],[429],[430],[431],[432],[433],[434],[435],[436],[437],[438],[439],[440],[441],[442],[443],[444],[445],[446],[447],[448],[449]]},{"type":"LineString","properties":{"source":"openstreetmap.org","kind":"major_road","sort_rank":381,"kind_detail":"trunk","ref":"SS3","min_zoom":8.0,"id":463250276},"arcs":[450]},{"type":"LineString","properties":{"source":"openstreetmap.org","kind":"major_road","sort_rank":380,"kind_detail":"primary","ref":"SS318","min_zoom":8.0,"id":217528257},"arcs":[451]},{"type":"LineString","properties":{"kind":"major_road","network":null,"sort_rank":381,"landuse_kind":"urban_area","source":"openstreetmap.org","min_zoom":8.0,"kind_detail":"trunk","shield_text":"3","ref":"SS3"},"arcs":[452]},{"type":"MultiLineString","properties":{"kind":"major_road","network":null,"sort_rank":381,"landuse_kind":"urban_area","source":"openstreetmap.org","min_zoom":8.0,"kind_detail":"trunk","shield_text":"76","ref":"SS76"},"arcs":[[453],[454],[455],[456],[457],[458],[459]]},{"type":"LineString","properties":{"kind":"ferry","name":"Ancona - Durr\u00ebs","sort_rank":355,"landuse_kind":"urban_area","source":"openstreetmap.org","min_zoom":8.0,"name:it":"Ancona - Durazzo","id":176391972},"arcs":[460]},{"type":"MultiLineString","properties":{"kind":"major_road","network":null,"sort_rank":381,"kind_detail":"trunk","source":"openstreetmap.org","min_zoom":8.0,"landuse_kind":"nature_reserve","shield_text":"3","ref":"SP3"},"arcs":[[461],[462]]},{"type":"MultiLineString","properties":{"sort_rank":381,"source":"openstreetmap.org","min_zoom":8.0,"kind":"major_road","kind_detail":"trunk"},"arcs":[[463],[464],[465],[466],[467],[468],[469],[470],[471],[472],[473],[474],[475],[476],[477],[478]]},{"type":"LineString","properties":{"source":"openstreetmap.org","kind":"ferry","name":"Bar - Ancona","sort_rank":355,"min_zoom":8.0,"id":146383134},"arcs":[479]},{"type":"MultiLineString","properties":{"kind":"major_road","network":null,"sort_rank":381,"kind_detail":"trunk","source":"openstreetmap.org","min_zoom":8.0,"shield_text":"318","ref":"SS318"},"arcs":[[480],[481],[482],[483],[484]]},{"type":"MultiLineString","properties":{"kind":"major_road","network":null,"sort_rank":380,"kind_detail":"primary","source":"openstreetmap.org","min_zoom":8.0,"landuse_kind":"urban_area","shield_text":"16"},"arcs":[[485],[486],[487],[488],[489],[490],[491],[492],[493],[494],[495],[496],[497],[498]]},{"type":"MultiLineString","properties":{"source":"openstreetmap.org","kind":"major_road","landuse_kind":"urban_area","sort_rank":380,"kind_detail":"primary","ref":"SP17","min_zoom":8.0},"arcs":[[499],[500],[501],[502],[503],[504],[505],[506],[507],[508],[509]]},{"type":"MultiLineString","properties":{"kind":"major_road","network":null,"sort_rank":380,"kind_detail":"primary","source":"openstreetmap.org","min_zoom":8.0,"landuse_kind":"urban_area","shield_text":"3","ref":"SP3"},"arcs":[[510],[511],[512],[513],[514],[515],[516],[517],[518],[519],[520],[521]]},{"type":"MultiLineString","properties":{"kind":"major_road","network":null,"sort_rank":381,"landuse_kind":"urban_area","source":"openstreetmap.org","min_zoom":8.0,"kind_detail":"trunk","shield_text":"73bis","ref":"SS73bis"},"arcs":[[522],[523]]},{"type":"LineString","properties":{"source":"openstreetmap.org","kind":"ferry","name":"Ancona-Korfu","sort_rank":355,"min_zoom":8.0,"id":361701194},"arcs":[524]},{"type":"MultiLineString","properties":{"kind":"major_road","network":"e-road","sort_rank":381,"kind_detail":"trunk","source":"openstreetmap.org","min_zoom":8.0,"shield_text":"78","ref":"SS73bis"},"arcs":[[525],[526],[527],[528],[529],[530],[531],[532]]},{"type":"MultiLineString","properties":{"source":"openstreetmap.org","kind":"ferry","name":"Ancona-Igoumenitsa-Patras","sort_rank":355,"min_zoom":8.0,"osm_relation":true},"arcs":[[533],[534]]},{"type":"LineString","properties":{"kind":"major_road","network":null,"sort_rank":380,"kind_detail":"primary","source":"openstreetmap.org","min_zoom":8.0,"landuse_kind":"nature_reserve","shield_text":"3","ref":"SS3"},"arcs":[535]},{"type":"LineString","properties":{"source":"openstreetmap.org","kind":"major_road","kind_detail":"trunk","sort_rank":381,"landuse_kind":"urban_area","ref":"SS76","min_zoom":8.0},"arcs":[536]},{"type":"MultiLineString","properties":{"kind":"major_road","network":"IT:MC","sort_rank":380,"kind_detail":"primary","source":"openstreetmap.org","min_zoom":8.0,"landuse_kind":"urban_area","shield_text":"571","ref":"SP571"},"arcs":[[537],[538],[539],[540]]},{"type":"MultiLineString","properties":{"source":"openstreetmap.org","kind":"major_road","kind_detail":"trunk","sort_rank":381,"landuse_kind":"urban_area","min_zoom":8.0},"arcs":[[541],[542],[543],[544],[545],[546],[547],[548],[549],[550]]},{"type":"MultiLineString","properties":{"kind":"major_road","network":null,"sort_rank":380,"kind_detail":"primary","source":"openstreetmap.org","min_zoom":8.0,"landuse_kind":"nature_reserve","shield_text":"16","ref":"SS16"},"arcs":[[551],[552],[553]]},{"type":"LineString","properties":{"source":"openstreetmap.org","kind":"ferry","name":"Zadar - Ancona","sort_rank":355,"ref":"51","min_zoom":8.0,"name:it":"Zara - Ancona"},"arcs":[554]},{"type":"MultiLineString","properties":{"kind":"major_road","network":null,"sort_rank":381,"landuse_kind":"urban_area","source":"openstreetmap.org","min_zoom":8.0,"kind_detail":"trunk","shield_text":"16","ref":"SS16"},"arcs":[[555],[556]]},{"type":"MultiLineString","properties":{"source":"openstreetmap.org","kind":"major_road","sort_rank":380,"kind_detail":"primary","ref":"SP30","min_zoom":8.0},"arcs":[[557],[558],[559],[560],[561],[562],[563],[564],[565],[566],[567]]},{"type":"LineString","properties":{"source":"openstreetmap.org","kind":"ferry","name":"Bar - Ancona","sort_rank":355,"landuse_kind":"urban_area","min_zoom":8.0,"id":146383134},"arcs":[568]},{"type":"MultiLineString","properties":{"source":"openstreetmap.org","kind":"major_road","landuse_kind":"urban_area","sort_rank":380,"kind_detail":"primary","ref":"SP360","min_zoom":8.0},"arcs":[[569],[570],[571]]},{"type":"MultiLineString","properties":{"bus_network":"Urbano Ancona","sort_rank":380,"kind_detail":"primary","kind":"major_road","source":"openstreetmap.org","min_zoom":8.0,"bus_shield_text":"2\/6","landuse_kind":"urban_area"},"arcs":[[572],[573]]},{"type":"LineString","properties":{"kind":"ferry","name":"Ancona-Igoumenitsa-Patras","sort_rank":355,"landuse_kind":"urban_area","source":"openstreetmap.org","min_zoom":8.0,"id":-5260036,"osm_relation":true},"arcs":[574]},{"type":"MultiLineString","properties":{"source":"openstreetmap.org","kind":"major_road","sort_rank":380,"kind_detail":"primary","ref":"SP239","min_zoom":8.0},"arcs":[[575],[576],[577],[578],[579],[580],[581],[582],[583],[584],[585],[586],[587],[588],[589],[590],[591],[592],[593],[594],[595],[596],[597],[598],[599],[600],[601],[602],[603]]},{"type":"MultiLineString","properties":{"source":"openstreetmap.org","kind":"major_road","landuse_kind":"urban_area","sort_rank":380,"kind_detail":"primary","ref":"SP14","min_zoom":8.0},"arcs":[[604],[605]]},{"type":"LineString","properties":{"source":"openstreetmap.org","kind":"ferry","name":"Ancona - Durr\u00ebs","sort_rank":355,"min_zoom":8.0,"id":176391972,"name:it":"Ancona - Durazzo"},"arcs":[606]},{"type":"LineString","properties":{"kind":"major_road","network":"IT:PU","sort_rank":380,"kind_detail":"primary","source":"openstreetmap.org","min_zoom":8.0,"shield_text":"257","ref":"SP257"},"arcs":[607]},{"type":"MultiLineString","properties":{"kind":"major_road","sort_rank":380,"kind_detail":"primary","reg_name":"Strada Provinciale 423 Urbinate","source":"openstreetmap.org","min_zoom":8.0,"landuse_kind":"urban_area","ref":"SP423"},"arcs":[[608],[609],[610]]},{"type":"MultiLineString","properties":{"sort_rank":380,"kind_detail":"primary","min_zoom":8.0,"kind":"major_road","source":"openstreetmap.org"},"arcs":[[611],[612],[613],[614],[615],[616],[617],[618],[619],[620],[621],[622],[623],[624],[625],[626],[627],[628],[629],[630],[631],[632],[633],[634],[635],[636],[637],[638],[639],[640],[641],[642],[643],[644],[645]]},{"type":"MultiLineString","properties":{"kind":"major_road","network":"IT:MC","sort_rank":380,"kind_detail":"primary","source":"openstreetmap.org","min_zoom":8.0,"shield_text":"256","ref":"SP256"},"arcs":[[646],[647],[648],[649],[650],[651],[652],[653],[654],[655],[656],[657],[658],[659],[660],[661],[662],[663],[664],[665],[666],[667],[668],[669],[670],[671],[672],[673],[674],[675],[676],[677],[678]]},{"type":"LineString","properties":{"source":"openstreetmap.org","kind":"ferry","name":"Ancona-Patras","sort_rank":355,"landuse_kind":"urban_area","min_zoom":8.0,"id":352566739},"arcs":[679]},{"type":"MultiLineString","properties":{"kind":"major_road","network":"IT:MC","sort_rank":380,"kind_detail":"primary","is_bicycle_related":true,"cycleway":"shared","source":"openstreetmap.org","min_zoom":8.0,"shield_text":"361","ref":"SP361"},"arcs":[[680],[681],[682],[683],[684],[685],[686],[687],[688],[689],[690],[691],[692],[693],[694]]},{"type":"LineString","properties":{"kind":"major_road","sort_rank":380,"landuse_kind":"park","source":"openstreetmap.org","min_zoom":8.0,"kind_detail":"primary","ref":"SS77","id":179668626},"arcs":[695]},{"type":"MultiLineString","properties":{"kind":"highway","network":"e-road","sort_rank":383,"kind_detail":"motorway","source":"openstreetmap.org","min_zoom":8.0,"all_networks":["e-road",null],"shield_text":"55","ref":"A14","all_shield_texts":["55","14"]},"arcs":[[696],[697],[698],[699],[700],[701],[702],[703],[704],[705],[706],[707],[708],[709],[710],[711],[712],[713],[714],[715],[716],[717]]},{"type":"MultiLineString","properties":{"kind":"major_road","network":null,"sort_rank":381,"kind_detail":"trunk","source":"openstreetmap.org","min_zoom":8.0,"shield_text":"77var","ref":"SS77var"},"arcs":[[718],[719]]},{"type":"LineString","properties":{"source":"openstreetmap.org","kind":"ferry","name":"Ancona-Igoumenitsa","sort_rank":355,"landuse_kind":"urban_area","min_zoom":8.0,"id":146383133},"arcs":[720]},{"type":"LineString","properties":{"kind":"major_road","network":null,"sort_rank":380,"kind_detail":"primary","is_bicycle_related":true,"source":"openstreetmap.org","min_zoom":8.0,"nat_name":"Strada Statale 16 Adriatica","shield_text":"16","landuse_kind":"urban_area","ref":"SS16"},"arcs":[721]},{"type":"LineString","properties":{"kind":"major_road","network":null,"sort_rank":380,"kind_detail":"primary","source":"openstreetmap.org","min_zoom":8.0,"landuse_kind":"nature_reserve","shield_text":"76","ref":"SS318"},"arcs":[722]},{"type":"LineString","properties":{"kind":"major_road","network":null,"sort_rank":380,"kind_detail":"primary","source":"openstreetmap.org","min_zoom":8.0,"landuse_kind":"urban_area","shield_text":"10","ref":"SS16","id":110447978},"arcs":[723]},{"type":"MultiLineString","properties":{"kind":"major_road","network":null,"sort_rank":380,"kind_detail":"primary","source":"openstreetmap.org","min_zoom":8.0,"nat_name":"Strada Statale 16 Adriatica","shield_text":"16","landuse_kind":"nature_reserve","ref":"SS16"},"arcs":[[724],[725],[726]]},{"type":"LineString","properties":{"source":"openstreetmap.org","kind":"major_road","landuse_kind":"urban_area","sort_rank":380,"kind_detail":"primary","ref":"SS16","min_zoom":8.0},"arcs":[727]},{"type":"MultiLineString","properties":{"kind":"major_road","network":"IT:MC","sort_rank":380,"kind_detail":"primary","source":"openstreetmap.org","min_zoom":8.0,"shield_text":"361","ref":"SP361"},"arcs":[[728],[729],[730],[731],[732],[733],[734]]},{"type":"LineString","properties":{"sort_rank":355,"source":"openstreetmap.org","min_zoom":8.0,"name":"Ancona-Patras","kind":"ferry"},"arcs":[735]},{"type":"LineString","properties":{"source":"openstreetmap.org","kind":"ferry","name":"Ancona-Zadar","sort_rank":355,"min_zoom":8.0,"osm_relation":true},"arcs":[736]},{"type":"LineString","properties":{"kind":"major_road","network":null,"sort_rank":380,"kind_detail":"primary","source":"openstreetmap.org","min_zoom":8.0,"landuse_kind":"nature_reserve","shield_text":"3"},"arcs":[737]},{"type":"LineString","properties":{"kind":"major_road","sort_rank":381,"kind_detail":"trunk","bus_network":"Urbano Ancona","source":"openstreetmap.org","min_zoom":8.0,"bus_shield_text":"12","landuse_kind":"urban_area","id":13770016},"arcs":[738]},{"type":"MultiLineString","properties":{"source":"openstreetmap.org","kind":"major_road","landuse_kind":"urban_area","sort_rank":380,"kind_detail":"primary","min_zoom":8.0},"arcs":[[739],[740],[741],[742],[743],[744],[745],[746],[747],[748],[749],[750],[751],[752],[753],[754],[755],[756],[757],[758],[759],[760],[761],[762],[763],[764],[765],[766],[767],[768],[769],[770],[771],[772],[773],[774],[775],[776],[777],[778],[779],[780],[781],[782],[783],[784],[785],[786],[787],[788],[789],[790],[791],[792],[793],[794],[795],[796],[797],[798],[799],[800],[801],[802],[803],[804],[805],[806],[807],[808],[809],[810],[811],[812],[813],[814],[815],[816],[817],[818],[819],[820],[821],[822],[823],[824],[825],[826],[827]]},{"type":"LineString","properties":{"kind":"major_road","network":"IT:AN","sort_rank":380,"kind_detail":"primary","source":"openstreetmap.org","min_zoom":8.0,"landuse_kind":"urban_area","shield_text":"256","ref":"SP256"},"arcs":[828]},{"type":"MultiLineString","properties":{"kind":"major_road","sort_rank":380,"kind_detail":"primary","reg_name":"Strada provinciale Sant'Angelo - Montelabbate","source":"openstreetmap.org","min_zoom":8.0,"landuse_kind":"urban_area","ref":"SP30"},"arcs":[[829],[830],[831],[832],[833]]},{"type":"MultiLineString","properties":{"kind":"major_road","network":"IT:PU","sort_rank":380,"kind_detail":"primary","reg_name":"Strada Provinciale Apecchiese","source":"openstreetmap.org","min_zoom":8.0,"shield_text":"257","ref":"SP257"},"arcs":[[834],[835],[836],[837],[838],[839],[840],[841]]},{"type":"MultiLineString","properties":{"kind":"major_road","network":null,"sort_rank":380,"kind_detail":"primary","source":"openstreetmap.org","min_zoom":8.0,"landuse_kind":"nature_reserve","shield_text":"76","ref":"SS76"},"arcs":[[842],[843],[844],[845]]},{"type":"LineString","properties":{"source":"openstreetmap.org","kind":"ferry","name":"Ancona-Split","sort_rank":355,"min_zoom":8.0,"osm_relation":true},"arcs":[846]},{"type":"MultiLineString","properties":{"kind":"major_road","sort_rank":380,"kind_detail":"primary","reg_name":"Strada Provinciale Urbinate","source":"openstreetmap.org","min_zoom":8.0,"landuse_kind":"urban_area","ref":"SP423"},"arcs":[[847],[848],[849],[850],[851],[852],[853],[854],[855],[856],[857],[858],[859],[860],[861],[862],[863],[864],[865],[866],[867],[868],[869]]},{"type":"LineString","properties":{"kind":"major_road","network":null,"sort_rank":380,"kind_detail":"primary","bus_network":"Urbano Ancona","source":"openstreetmap.org","min_zoom":8.0,"bus_shield_text":"24","shield_text":"16","landuse_kind":"urban_area","ref":"SS16","id":147523325},"arcs":[870]},{"type":"MultiLineString","properties":{"kind":"major_road","network":null,"sort_rank":381,"kind_detail":"trunk","source":"openstreetmap.org","min_zoom":8.0,"shield_text":"3","ref":"SS3"},"arcs":[[871],[872],[873]]},{"type":"LineString","properties":{"kind":"major_road","network":null,"sort_rank":380,"kind_detail":"primary","source":"openstreetmap.org","min_zoom":8.0,"shield_text":"73bis","ref":"SS73bis\/var"},"arcs":[874]},{"type":"MultiLineString","properties":{"kind":"major_road","network":null,"sort_rank":381,"kind_detail":"trunk","source":"openstreetmap.org","min_zoom":8.0,"landuse_kind":"nature_reserve","shield_text":"318","ref":"SS318"},"arcs":[[875],[876]]},{"type":"LineString","properties":{"kind":"major_road","network":null,"sort_rank":380,"kind_detail":"primary","source":"openstreetmap.org","min_zoom":8.0,"landuse_kind":"nature_reserve","shield_text":"16"},"arcs":[877]},{"type":"MultiLineString","properties":{"kind":"major_road","network":null,"sort_rank":381,"landuse_kind":"urban_area","source":"openstreetmap.org","min_zoom":8.0,"kind_detail":"trunk","shield_text":"681","ref":"SS681"},"arcs":[[878],[879]]},{"type":"LineString","properties":{"kind":"ferry","name":"Split - Ancona","sort_rank":355,"landuse_kind":"urban_area","is_bicycle_related":true,"source":"openstreetmap.org","min_zoom":8.0,"ref":"53","id":39405476},"arcs":[880]},{"type":"LineString","properties":{"kind":"major_road","network":"e-road","sort_rank":380,"kind_detail":"primary","source":"openstreetmap.org","min_zoom":8.0,"nat_name":"Strada Statale 73 bis di Bocca Trabaria","shield_text":"78","ref":"SS73bis"},"arcs":[881]},{"type":"LineString","properties":{"bus_network":"Urbano Ancona","sort_rank":380,"kind_detail":"primary","kind":"major_road","source":"openstreetmap.org","min_zoom":8.0,"bus_shield_text":"22","landuse_kind":"urban_area"},"arcs":[882]},{"type":"LineString","properties":{"source":"openstreetmap.org","kind":"major_road","sort_rank":380,"kind_detail":"primary","ref":"SS219","min_zoom":8.0},"arcs":[883]},{"type":"MultiLineString","properties":{"source":"openstreetmap.org","kind":"major_road","landuse_kind":"urban_area","sort_rank":380,"kind_detail":"primary","ref":"SP239","min_zoom":8.0},"arcs":[[884],[885],[886],[887],[888],[889],[890],[891],[892],[893],[894],[895],[896],[897]]},{"type":"MultiLineString","properties":{"kind":"major_road","network":null,"sort_rank":380,"kind_detail":"primary","source":"openstreetmap.org","min_zoom":8.0,"shield_text":"16","ref":"SS16"},"arcs":[[898],[899],[900],[901],[902],[903],[904]]},{"type":"LineString","properties":{"kind":"major_road","network":null,"sort_rank":380,"kind_detail":"primary","source":"openstreetmap.org","min_zoom":8.0,"landuse_kind":"urban_area","shield_text":"76","ref":"SS76"},"arcs":[905]},{"type":"MultiLineString","properties":{"kind":"highway","network":"e-road","sort_rank":383,"landuse_kind":"nature_reserve","source":"openstreetmap.org","min_zoom":8.0,"all_networks":["e-road",null],"kind_detail":"motorway","shield_text":"55","ref":"A14","all_shield_texts":["55","14"]},"arcs":[[906],[907]]},{"type":"MultiLineString","properties":{"kind":"major_road","network":null,"sort_rank":380,"kind_detail":"primary","source":"openstreetmap.org","min_zoom":8.0,"landuse_kind":"nature_reserve","shield_text":"3","ref":"SR3"},"arcs":[[908],[909],[910],[911]]},{"type":"MultiLineString","properties":{"kind":"major_road","network":"e-road","sort_rank":381,"kind_detail":"trunk","source":"openstreetmap.org","min_zoom":8.0,"landuse_kind":"nature_reserve","shield_text":"78","ref":"SS73bis"},"arcs":[[912],[913],[914],[915],[916],[917],[918]]},{"type":"MultiLineString","properties":{"kind":"major_road","network":null,"sort_rank":380,"kind_detail":"primary","source":"openstreetmap.org","min_zoom":8.0,"shield_text":"76","ref":"SS76"},"arcs":[[919],[920],[921],[922]]}]},"earth":{"type":"GeometryCollection","geometries":[{"type":"MultiPolygon","properties":{"sort_rank":10,"source":"naturalearthdata.com","kind":"earth","min_zoom":0.0,"id":4740},"arcs":[[[923]]]}]},"landuse":{"type":"GeometryCollection","geometries":[{"type":"Polygon","properties":{"kind":"nature_reserve","protect_class":"97","area":166184992,"sort_rank":23,"operator":"UM del Catria e Nerone; UM dell'Esino-Frasassi","source":"openstreetmap.org","min_zoom":6.0,"tier":2,"id":464320438},"arcs":[[924]]},{"type":"Polygon","properties":{"kind":"national_park","protect_class":"2","area":113962000,"sort_rank":18,"operator":"Ente Parco Regionale del Conero","source":"openstreetmap.org","min_zoom":7.0,"tier":1,"id":-3415695,"osm_relation":true},"arcs":[[925]]},{"type":"Polygon","properties":{"kind":"nature_reserve","protect_class":"2","area":31541100,"sort_rank":23,"source":"openstreetmap.org","min_zoom":8.0,"tier":2,"id":127072080},"arcs":[[926]]},{"type":"MultiPolygon","properties":{"source":"openstreetmap.org","kind":"nature_reserve","tier":2,"protect_class":"4","area":110027770,"sort_rank":23,"min_zoom":8.0},"arcs":[[[927]],[[928]]]},{"type":"MultiPolygon","properties":{"source":"openstreetmap.org","kind":"nature_reserve","tier":2,"protect_class":"97","area":56588394,"sort_rank":23,"min_zoom":8.0},"arcs":[[[929]],[[930]],[[931]]]},{"type":"MultiPolygon","properties":{"source":"openstreetmap.org","kind":"nature_reserve","tier":2,"protect_class":"2","area":391070670,"sort_rank":23,"min_zoom":6.0},"arcs":[[[932]],[[933]]]},{"type":"Polygon","properties":{"kind":"nature_reserve","protect_class":"97","area":10500200,"sort_rank":23,"operator":"UM Alte valli del Potenza e dell'Esino","source":"openstreetmap.org","min_zoom":8.0,"tier":2,"id":464322125},"arcs":[[934]]},{"type":"MultiPolygon","properties":{"kind":"nature_reserve","tier":2,"protect_class":"97","area":74501202,"sort_rank":23,"source":"openstreetmap.org","min_zoom":8.0,"operator":"UM Alte valli del Potenza e dell'Esino; UM Marca di Camerino"},"arcs":[[[935]],[[936]],[[937]]]},{"type":"MultiPolygon","properties":{"kind":"nature_reserve","tier":2,"protect_class":"97","area":80550036,"sort_rank":23,"source":"openstreetmap.org","min_zoom":8.0,"operator":"Provincia di Pesaro-Urbino"},"arcs":[[[938]],[[939]],[[940]]]},{"type":"MultiPolygon","properties":{"source":"naturalearthdata.com","kind":"urban_area","name":"","area":9304412420,"sort_rank":11,"min_zoom":4.0},"arcs":[[[941]],[[942]],[[943]],[[944]],[[945]],[[946]],[[947]],[[948]],[[949]],[[950]],[[951]],[[952]]]},{"type":"Polygon","properties":{"kind":"nature_reserve","protect_class":"97","area":33375600,"sort_rank":23,"operator":"UM Marca di Camerino; UM dei Monti Azzurri","source":"openstreetmap.org","min_zoom":8.0,"tier":2,"id":464515022},"arcs":[[953]]},{"type":"MultiPolygon","properties":{"kind":"nature_reserve","protect_class":"97","area":72315960,"sort_rank":23,"operator":"UM dell'Esino-Frasassi","source":"openstreetmap.org","min_zoom":8.0,"tier":2},"arcs":[[[954]],[[955]],[[956]],[[957]]]},{"type":"Polygon","properties":{"kind":"nature_reserve","protect_class":"97","area":61057000,"sort_rank":23,"operator":"UM Alta Valle del Metauro; Prov. PU","source":"openstreetmap.org","min_zoom":8.0,"tier":2,"id":497843898},"arcs":[[958]]},{"type":"Polygon","properties":{"kind":"nature_reserve","protect_class":"97","area":64170400,"sort_rank":23,"operator":"UM dell'Esino-Frasassi; UM Alte Valli del Potenza e dell'Esino","source":"openstreetmap.org","min_zoom":8.0,"tier":2,"id":464316867},"arcs":[[959]]},{"type":"Polygon","properties":{"kind":"nature_reserve","protect_class":"2","area":135747008,"sort_rank":23,"source":"openstreetmap.org","min_zoom":7.0,"tier":2,"id":461629730},"arcs":[[960]]},{"type":"Polygon","properties":{"kind":"park","area":1285859968,"sort_rank":24,"source":"openstreetmap.org","min_zoom":4.0,"tier":2,"id":-3171821,"osm_relation":true},"arcs":[[961]]},{"type":"Polygon","properties":{"kind":"nature_reserve","protect_class":"97","area":10971400,"sort_rank":23,"operator":"UM Alte valli del Potenza e dell'Esino; UM dei Monti Azzurri","source":"openstreetmap.org","min_zoom":8.0,"tier":2,"id":464515029},"arcs":[[962]]}]}},"type":"Topology","transform":{"translate":[12.65625,43.0688877742],"scale":[0.0003433228,0.0002487054]},"arcs":[[[4096,713],[-82,273],[-211,455],[-164,459],[-16,184],[-50,163],[-179,264],[-309,316],[-202,138],[-250,91],[-230,15],[-118,64],[-578,541],[-253,189],[-245,231]],[[276,3617],[14,-25],[-83,-151],[22,-115],[-36,-64],[33,-40],[-30,-36],[-121,-35],[3,-97],[-30,-20],[-39,19],[-9,-2]],[[276,3628],[0,-11]],[[0,1474],[20,5],[133,-48],[19,86],[56,73],[111,-30],[11,-26],[-31,-40],[25,-30],[-28,0],[2,-24],[48,-47],[-22,-54],[-76,-38],[2,-55],[145,-216],[7,-122],[-35,-46],[43,-53],[61,-14],[34,-197],[84,-46],[-8,-162],[-32,-49],[-64,-34],[39,-92],[49,15],[64,-22],[9,-84],[36,-25],[-12,-99]],[[288,3619],[-11,9]],[[277,3628],[-1,0]],[[3475,0],[-6,98],[-96,240],[-2,64],[-4,6],[3,-20],[-9,-8],[-217,612],[-7,-21],[-58,83],[-132,402],[-126,276],[2,204],[-144,73],[-25,54],[25,-5],[-30,10],[-36,78],[-135,112],[-38,-20],[43,-10],[-15,-40],[-24,38],[-18,-28],[12,-7],[7,-9],[-102,-9],[-409,215],[-211,155],[-73,86],[-8,-21],[7,22],[-3,4],[-5,-22],[4,20],[-251,198],[-327,324],[-38,-3],[-69,53],[-233,249],[-8,-46],[-3,25],[-6,9],[-24,-4],[-264,163],[-134,19]],[[267,3625],[-4,-6]],[[263,3619],[-84,17],[-78,50],[-101,98]],[[276,3628],[-9,-3]],[[2451,2167],[-199,37],[-356,204],[-222,168],[-878,789],[-182,16],[-204,74],[-40,70],[-203,95],[-139,97],[-28,33]],[[2464,2170],[61,-13],[21,-38],[-48,-217],[60,-160],[129,-57],[121,-159],[111,-24],[126,-371],[229,-511],[75,-254],[108,-241],[15,-125]],[[446,3451],[-43,9],[-33,65],[-203,95],[-139,97],[-28,33]],[[511,3421],[-65,30]],[[3472,0],[-16,128],[-107,237],[-75,255],[-229,511],[-127,373],[-110,22],[-121,159],[-129,57],[-60,160],[36,232],[-69,35],[-98,-2],[-115,37],[-353,202],[-225,170],[-878,788],[-182,17],[-103,40]],[[4096,4096],[0,-4096],[-610,0],[-13,92],[-40,143],[-94,205],[-34,55],[-13,35],[-18,144],[-12,28],[-46,81],[-418,1076],[22,64],[-26,54],[-51,36],[-56,14],[-28,29],[-33,66],[-43,67],[-55,30],[-9,8],[-6,18],[-8,18],[-18,8],[-17,-4],[-9,-8],[-6,-9],[-8,-4],[-16,-16],[-22,-29],[-29,-17],[-78,47],[-137,48],[-28,36],[-58,23],[-340,212],[-891,782],[-25,28],[-29,45],[-194,79],[-114,93],[-56,34],[-139,20],[-7,2],[-127,42],[-54,31],[-89,71],[-14,14],[0,305],[4096,0]],[[0,3791],[14,-14],[89,-71],[54,-31],[127,-42],[7,-2],[139,-20],[56,-34],[114,-93],[194,-79],[29,-45],[25,-28],[891,-782],[340,-212],[58,-23],[28,-36],[137,-48],[78,-47],[29,17],[22,29],[16,16],[8,4],[6,9],[9,8],[17,4],[18,-8],[8,-18],[6,-18],[9,-8],[55,-30],[43,-67],[33,-66],[28,-29],[56,-14],[51,-36],[26,-54],[-22,-64],[418,-1076],[46,-81],[12,-28],[18,-144],[13,-35],[34,-55],[94,-205],[40,-143],[13,-92]],[[2438,2237],[7,50],[35,4],[1616,-978]],[[1830,543],[-12,-2],[-13,-5],[-1,0],[-10,-8],[-48,-60],[-15,-20],[-10,-44],[-3,-29],[-44,-40],[-11,-7],[-23,4],[-16,-4],[-10,-7],[-24,-7],[-10,-4],[-64,-29],[-48,-4],[-36,-12],[-11,-6],[-6,-6],[-21,-31],[-7,-15],[-7,-20],[-1,-27]],[[1380,160],[41,99],[88,19],[7,2],[65,30],[33,10],[10,8],[39,0],[12,7],[43,40],[28,93],[84,75]],[[1944,584],[30,9],[61,65],[134,20],[130,65],[85,34],[45,17],[3,1]],[[2432,795],[3,0]],[[2435,795],[-3,0]],[[2432,795],[-3,-1],[-42,-15],[-89,-36],[-129,-65],[-134,-20],[-14,-7],[-20,-15],[-28,-43],[-29,-8]],[[2575,790],[80,-12],[32,4],[11,2],[26,9],[12,4]],[[2736,798],[-161,-8]],[[337,117],[2,1]],[[1849,544],[-19,-1]],[[1830,543],[19,1],[29,11],[24,17],[42,12]],[[1944,585],[-42,-12],[-25,-18]],[[2435,795],[40,11],[16,-2]],[[2491,804],[1,0],[1,0],[17,-2],[35,-15],[30,3]],[[2575,790],[-30,-2],[-35,15],[-18,1],[-1,0]],[[2491,804],[-56,-9]],[[3119,916],[-34,-17],[-18,-16],[-72,-35],[-259,-50]],[[2736,797],[259,51],[72,35],[24,19],[11,3],[14,7],[2,3],[2,-3]],[[3237,696],[-10,23]],[[386,3541],[6,-3]],[[392,3538],[11,-4]],[[404,3534],[21,-2]],[[392,3538]],[[404,3534],[-1,0],[1,0]],[[682,2685],[2,1]],[[632,3382],[3,0]],[[639,3384],[0,1]],[[619,3377],[0,-1],[1,0],[-1,1]],[[2434,2234],[48,-17]],[[1096,3093],[7,-5]],[[2172,603],[-2,0]],[[446,2492],[4,4]],[[450,2496]],[[450,2496]],[[451,2497],[-1,-1]],[[450,2496]],[[450,2496],[1,0]],[[451,2497]],[[451,2496],[0,1]],[[451,2496],[0,1]],[[451,2497],[25,14]],[[476,2511],[1,0]],[[477,2511],[-1,0]],[[477,2511]],[[480,2513],[-1,0]],[[479,2512],[1,1]],[[480,2513],[35,32]],[[515,2545],[0,1]],[[515,2546],[0,-1]],[[516,2547],[-1,-1]],[[515,2546]],[[515,2546],[1,1]],[[517,2548],[-1,-1]],[[516,2547]],[[516,2547],[1,1]],[[517,2548],[38,30]],[[739,2714],[14,16]],[[835,2867],[119,121]],[[962,973],[0,44]],[[962,973],[0,-1]],[[962,970],[1,-1]],[[963,972],[-1,1]],[[963,969],[0,1]],[[963,969],[2,-24]],[[963,970],[0,1],[-1,1],[0,-1],[1,-1]],[[2441,2067],[39,-47]],[[2480,2020],[1,-2]],[[2482,2017],[-2,3]],[[2480,2017],[2,0]],[[2482,2017],[3,-4]],[[1540,665],[-87,-17]],[[1542,666],[-2,-1]],[[1540,665],[2,0]],[[1542,666],[0,-1],[1,0],[-1,1]],[[1544,666],[-2,0]],[[1543,665],[1,1]],[[1553,669],[-9,-3]],[[2189,1010],[36,26]],[[0,3649],[27,-19],[109,-57],[52,-18],[5,0],[78,-1],[70,-35]],[[341,3520],[-70,35],[-134,18],[-109,58],[-28,18]],[[506,3358],[13,-17],[7,-2],[94,-4],[52,-31],[38,-20]],[[710,3285],[-90,50],[-113,24]],[[879,3143],[103,-66],[19,-47],[46,-30]],[[1048,3001],[-75,87],[-93,60]],[[1417,2762],[-151,131]],[[1266,2892],[139,-121],[12,-9]],[[1645,2527],[-10,10],[-34,24],[-22,61],[-108,97],[-19,15]],[[1452,2733],[18,-15],[7,-7],[36,-33],[66,-57],[22,-61],[6,-5],[27,-18],[10,-10]],[[2067,2111],[-79,20],[0,43],[-18,131],[-1,6],[-18,42],[-174,109]],[[1777,2462],[172,-109],[39,-222],[78,-21]],[[2355,1984],[103,-121],[4,-2],[55,-22],[27,-10],[43,-70],[172,-127],[71,-110],[54,-69]],[[2885,1454],[-126,178],[-171,127],[-43,70],[-87,35],[-103,121]],[[2963,1306],[97,-260],[6,-36],[-10,-50],[5,-26],[13,-26],[5,-7],[40,-42],[7,-7],[38,-22],[17,-48],[0,-7],[2,-28],[24,-80],[91,-214],[1,-48],[113,-169],[12,-80]],[[3424,156],[-12,80],[-112,169],[-1,48],[-134,377],[-104,104],[5,76],[-5,36],[-98,261]],[[692,1014],[-84,-26],[-54,-28],[139,53]],[[747,1031],[11,2],[26,16]],[[781,1048],[-34,-15]],[[1832,1868],[-52,-90],[-57,-35],[-45,-36],[-44,-26],[-153,34],[-114,-2],[-84,-38],[-48,-27],[-31,-44],[-44,-26],[-18,-16],[-93,-94],[155,136],[31,44],[48,27],[84,38],[113,2],[153,-34],[45,25],[102,72],[53,90]],[[1960,2051],[11,7],[37,34]],[[2007,2092],[-47,-41]],[[2435,2234],[47,-17]],[[304,2421],[-18,-25]],[[286,2396],[18,24]],[[297,938],[-4,-9]],[[294,929],[3,5]],[[293,928],[1,0],[0,1],[-1,0],[0,-1]],[[2454,2183],[10,-6]],[[2469,2177],[-11,5]],[[0,1988],[1,1]],[[2474,2206],[-36,31]],[[2500,2160],[0,2]],[[2504,2171],[0,2]],[[2144,568],[-42,-103],[12,-223],[-31,-56],[-275,-186]],[[2144,568],[0,1]],[[2144,570],[0,-2]],[[2145,572],[-1,-1]],[[2145,571],[0,1]],[[2170,603],[-25,-31]],[[2172,603],[3,42]],[[2144,571],[0,-1]],[[2144,570],[1,0],[0,1]],[[2145,571],[-1,0]],[[2499,2161],[0,-1],[7,-15],[15,-23],[-6,-16]],[[2517,2109],[2,3],[2,10],[-21,36]],[[2497,1193],[182,38]],[[2679,1231],[0,-1]],[[2680,1231],[-1,0]],[[2681,1230],[1,-1]],[[2681,1230],[-1,1],[-1,-1]],[[2679,1230],[1,-1],[1,1]],[[2682,1229],[-1,1]],[[2682,1229],[31,-12],[251,143]],[[107,1241],[1,0]],[[643,3384],[36,0]],[[1,1989],[57,152]],[[58,2141],[-1,63],[41,82]],[[98,2286],[-2,-1],[-10,-12],[-2,-4],[-3,-15],[-14,-21],[-5,-10],[-5,-19],[-1,-6],[2,-57]],[[286,2396],[-24,-6]],[[263,2390],[23,6]],[[2434,2234],[48,-17]],[[2504,2173],[0,1]],[[1004,3068],[16,18]],[[1022,3088],[6,7]],[[1029,3096],[6,7]],[[2272,1087],[1,0]],[[2274,1087],[0,1]],[[2393,1151],[1,0]],[[2394,1152],[1,1]],[[2273,1087],[1,0],[-1,0]],[[1639,693],[-1,0]],[[1640,693],[-1,0]],[[1640,693]],[[1641,694],[-1,-1]],[[1639,692],[0,1],[0,-1]],[[1002,3067],[1,0]],[[1003,3067],[0,1]],[[1020,3087],[1,-1]],[[1022,3088],[-1,0]],[[1052,3002],[0,-3]],[[1053,2999],[-1,3]],[[2445,2244],[-19,25],[48,33],[1622,-933]],[[0,3716],[17,-2]],[[17,3715],[0,-1]],[[17,3714],[1,0]],[[18,3714],[2,-1]],[[20,3713],[-1,1]],[[20,3713],[25,-17]],[[45,3696],[1,-2]],[[46,3695],[-1,1]],[[47,3694],[1,0]],[[48,3694],[-1,0]],[[48,3694],[50,-42]],[[134,3627],[13,-7]],[[356,3557],[30,-16]],[[477,3522],[18,-4]],[[495,3518],[13,-11]],[[597,3421],[23,-25]],[[714,3388],[28,15],[43,-38]],[[1387,2829],[18,-15]],[[1746,2516],[79,-60]],[[46,3695],[0,-1],[1,0],[0,1],[-1,0]],[[264,3077],[9,7]],[[273,3084],[2,0]],[[274,3085],[-1,-1]],[[276,3085],[2,0]],[[278,3085],[-2,1]],[[278,3085],[2,1]],[[371,3137],[11,7]],[[383,3145],[85,40]],[[383,3145],[-1,0],[0,-1]],[[382,3144],[1,0],[0,1]],[[468,3185],[2,1]],[[469,3187],[-1,-2]],[[600,3283],[-2,-1]],[[599,3282],[1,1]],[[600,3283],[17,11]],[[617,3294],[2,0]],[[619,3295],[-2,-1]],[[623,3296],[-3,0]],[[621,3295],[2,1]],[[623,3296],[37,7]],[[660,3303],[3,-1]],[[663,3303],[-3,0]],[[664,3301],[3,0]],[[667,3301],[-2,1]],[[667,3301],[8,5]],[[675,3306],[1,0]],[[675,3307],[0,-1]],[[275,3086],[-1,-1],[1,-1]],[[275,3084],[1,1],[-1,1]],[[470,3186],[1,0],[0,1],[-2,0],[1,-1]],[[597,3282],[1,-1],[1,1]],[[599,3282],[-1,0],[-1,0]],[[621,3294],[-1,2]],[[620,3296],[-1,-1],[0,-1]],[[619,3294],[2,0]],[[665,3302],[-2,1],[0,-2],[1,0]],[[664,3301],[1,1]],[[2474,2206],[-36,31]],[[2029,2154],[-9,-33]],[[954,2988],[48,78]],[[1002,3066],[1,1]],[[1002,3067],[0,-1]],[[1506,2724],[-14,11]],[[1511,2720],[17,-13]],[[1530,2705],[110,-97]],[[1642,2607],[79,-72]],[[3187,813],[-35,74]],[[3187,813],[0,-2]],[[3187,812],[0,1]],[[3187,811],[1,-1]],[[3188,810],[0,1]],[[3227,719],[-39,91]],[[3247,669],[-10,27]],[[3284,546],[-36,122]],[[1035,3103],[1,1]],[[635,3382],[5,2]],[[1081,3105],[15,-12]],[[4096,2144],[-1626,166],[-48,-39],[13,-37]],[[20,2539],[-4,15]],[[98,2866],[-56,-76]],[[180,2874],[-35,-12]],[[569,2590],[77,57]],[[753,2730],[82,135]],[[442,2489],[4,3]],[[478,2512],[-1,0]],[[478,2511],[1,1]],[[479,2512],[-1,0]],[[555,2578],[14,12]],[[646,2647],[21,25]],[[667,2672],[1,0]],[[668,2672],[-1,0]],[[668,2673],[0,-1]],[[668,2672]],[[668,2672],[0,1]],[[668,2673]],[[668,2673]],[[668,2673],[14,12]],[[668,2673]],[[684,2686],[55,28]],[[835,2865],[0,2]],[[109,2525],[-88,10]],[[20,2538],[0,-2],[1,1],[0,1],[-1,0]],[[847,0],[7,12]],[[856,14],[54,16]],[[940,27],[103,-25],[94,46],[80,-8]],[[1217,40],[1,0]],[[1218,41],[-1,-1]],[[1220,41],[-1,0]],[[1219,41],[1,0]],[[1369,122],[-17,-28],[-132,-53]],[[1376,155],[-7,-32]],[[1219,40],[0,1],[-1,0],[0,-1],[1,0]],[[2254,1067],[-16,-23]],[[2254,1067],[1,0]],[[2254,1068],[0,-1]],[[2256,1069],[-1,-1]],[[2255,1068],[-1,0],[1,-1]],[[2255,1067],[1,1],[-1,0]],[[2255,1068],[1,1]],[[2273,1087],[-17,-18]],[[2394,1152],[-121,-64]],[[2493,1192],[-99,-40]],[[2394,1152],[0,-1],[0,1]],[[1221,45],[-21,-3],[-56,-14],[-60,12],[-71,-5],[-93,-16],[-44,-15],[-6,-4]],[[872,0],[141,34],[131,-7],[77,17]],[[18,2536],[-18,-33]],[[2503,2173],[-4,-12]],[[2502,2174],[1,-1]],[[298,942],[1,29]],[[2175,645],[33,61]],[[145,2862],[-47,4]],[[194,2924],[-14,-50]],[[193,2925],[1,-1]],[[194,2927],[-1,-1]],[[194,2925],[0,1]],[[194,2926],[-2,0],[1,-1],[1,0]],[[194,2924],[0,1]],[[260,3063],[-66,-136]],[[194,2926],[0,1]],[[260,3064],[0,-1]],[[260,3066],[0,-1]],[[260,3065],[-1,-1],[1,0]],[[260,3064],[0,1]],[[260,3063],[0,1]],[[260,3066],[1,9]],[[260,3065],[0,1]],[[261,3075],[1,1]],[[261,3076],[0,-1]],[[261,3076],[1,0]],[[262,3076],[0,1],[-1,0],[0,-1]],[[298,936],[-1,0]],[[394,2482],[-2,-1]],[[392,2481],[2,1]],[[394,2482],[48,7]],[[1877,555],[-28,-11]],[[3449,116],[-239,-116]],[[1028,3095],[1,1]],[[98,3652],[34,-24]],[[147,3620],[65,-57]],[[213,3562],[143,-5]],[[620,3395],[1,-1],[0,1],[-1,0]],[[621,3396],[-1,-1]],[[621,3395],[2,-1]],[[623,3394],[-2,1]],[[643,3384],[-20,10]],[[679,3384],[20,0]],[[699,3384]],[[699,3384],[0,1],[0,-1]],[[699,3384],[15,4]],[[785,3365],[19,-13]],[[895,3260],[142,-133]],[[1038,3125],[3,-15]],[[1041,3110]],[[1041,3110]],[[1041,3110],[16,-9]],[[1057,3101],[1,-1]],[[1058,3100],[-1,1]],[[1073,3111],[8,-6]],[[1103,3088],[53,-41]],[[1161,3043]],[[1162,3043],[-1,1]],[[1257,2950],[130,-121]],[[1508,2723],[-2,1],[1,-1]],[[1509,2721],[2,-1],[-2,2]],[[1529,2706]],[[1529,2705],[1,1]],[[1530,2706],[-1,0]],[[1529,2706],[0,-1],[1,1]],[[1640,2608],[2,-1]],[[1721,2535],[24,-19]],[[1825,2456],[280,-176],[20,-86],[52,6],[30,-27]],[[2322,2118],[119,-51]],[[2482,2016],[2,-1]],[[2485,2013],[1,0]],[[2486,2013],[2,-3]],[[2487,2012],[-1,1]],[[2505,1873],[5,3]],[[2505,1873],[-4,-3],[-3,-2],[-1,0],[11,-13]],[[2508,1855],[-3,18]],[[2508,1855],[0,-1],[1,0]],[[2509,1854],[0,1],[-1,0]],[[2508,1854],[3,-4]],[[2511,1850],[-2,4]],[[2510,1876],[2,1]],[[2512,1878],[-2,-2]],[[2511,1850],[57,-128],[88,-27]],[[2658,1695],[-2,0]],[[2656,1695],[2,0]],[[2660,1695],[-1,0]],[[2659,1695],[1,0]],[[2660,1695],[95,-98],[32,-75],[93,-46]],[[2880,1476],[1,-1]],[[2881,1475],[-1,1]],[[2882,1475],[1,-1]],[[2883,1474],[-1,1]],[[2902,1474],[-19,0]],[[2902,1474],[1,0]],[[2903,1474],[-1,0]],[[2905,1474],[-1,0]],[[2904,1474],[1,0]],[[2914,1474],[-9,0]],[[2914,1474],[2,0]],[[2916,1474],[-2,0]],[[2917,1473],[1,0]],[[2918,1473],[-1,1]],[[2935,1430],[-17,43]],[[3102,1001],[-138,377]],[[3108,986],[-6,15]],[[3103,948],[0,-2]],[[3103,946],[1,2]],[[3109,935],[-6,11]],[[3104,951],[-1,-2]],[[3104,951],[7,24]],[[3104,949],[0,2]],[[3108,986],[3,-11]],[[3109,935],[3,-5]],[[3112,930],[-3,5]],[[3130,905],[-18,25]],[[3130,905],[3,-1]],[[3134,905],[-4,0]],[[3135,903],[2,-1]],[[3136,904],[-1,1],[-2,-1],[2,-1]],[[3135,903],[1,1]],[[3137,902],[-1,2]],[[3152,887],[-15,15]],[[3246,672],[0,-3]],[[3247,667],[1,-1]],[[3284,546],[51,-165]],[[3333,369],[2,2]],[[3334,371],[-1,-2]],[[3333,369],[100,-212]],[[3335,381],[-1,-8]],[[3336,373],[-1,8]],[[133,3627],[1,1],[-1,0],[-1,-1],[1,0]],[[211,3563],[1,-2],[1,1],[-1,1],[-1,0]],[[1037,3127],[0,-1],[1,0],[-1,1]],[[1508,2722],[1,-1],[0,2],[-1,0],[0,-1]],[[1745,2516],[-1,0],[0,-1],[2,0],[-1,1]],[[2512,1878],[0,-1],[1,0],[0,1],[-1,0]],[[2882,1475],[-1,0],[1,0]],[[2903,1474],[1,0],[-1,0]],[[2917,1474],[-1,0]],[[2916,1474],[0,-1],[1,0]],[[2917,1473],[0,1]],[[3104,948],[0,1],[-1,0],[0,-1],[1,0]],[[3111,975]],[[3111,975]],[[3112,930]],[[3188,811],[0,1],[-1,0],[0,-1],[1,0]],[[3247,668],[0,1],[-1,0],[0,-1],[1,0]],[[3335,373],[-1,-1],[1,-1],[1,1],[-1,1]],[[311,84],[0,-29]],[[37,575],[1,1],[-1,0],[0,-1]],[[283,768],[-5,28]],[[747,1033],[-55,-19]],[[693,1013],[54,18]],[[784,1049],[61,47],[42,14],[46,-4],[17,5],[19,8],[-82,-9],[-43,-14],[-63,-48]],[[1960,2051],[-44,-25],[-41,-75],[-43,-83]],[[1833,1868],[83,158],[44,25]],[[2119,2194],[-112,-102]],[[2008,2092],[111,101]],[[2479,2220],[-42,16]],[[262,2390],[-11,-3],[-23,-14],[-96,-78],[-34,-9]],[[98,2286],[35,9],[130,95]],[[227,885],[11,5]],[[241,889],[-5,5]],[[236,894],[-1,0],[-7,-8]],[[242,901],[-3,-4],[-3,-3]],[[236,894],[-1,0],[3,-4]],[[238,890],[3,-1]],[[241,889],[1,11]],[[2426,793],[3,1],[4,-1]],[[2432,797],[-5,-3]],[[2428,796],[0,1]],[[2429,797],[3,0]],[[2429,791],[2,1]],[[2431,792],[-2,1]],[[2431,792],[2,1]],[[2434,797],[-2,0]],[[2433,793],[2,1]],[[2445,2244],[-21,26],[48,36],[1624,-918]],[[0,525],[15,11]],[[15,536],[20,41],[-35,87]],[[0,672],[28,41],[156,125],[64,70],[49,22]],[[297,930],[-11,0],[-39,-22],[-33,-30],[-30,-39],[-17,-7],[-5,-3],[-69,-56],[-65,-59],[-28,-41]],[[0,663],[35,-86],[-20,-41]],[[633,3387],[2,-5]],[[1062,3103],[-3,-3]],[[1059,3100],[3,3]],[[1059,3100],[-1,0],[1,0]],[[1062,3103],[9,7]],[[1071,3110],[0,1]],[[1071,3111],[0,-1]],[[1072,3111],[1,0],[-1,0]],[[1129,3068],[9,-7]],[[1161,3043],[0,1]],[[3111,975],[0,1]],[[3111,975],[0,-1]],[[17,3715],[1,-1],[1,0],[-1,1],[-1,0]],[[1072,3111],[-1,0],[1,0]],[[199,3547],[3,9]],[[202,3556],[1,3]],[[202,3559],[0,-3]],[[204,3561],[-1,-1]],[[203,3560],[-1,0],[0,-1],[1,0]],[[203,3559],[0,1]],[[204,3559],[0,2]],[[204,3561],[10,10]],[[214,3571],[1,0]],[[215,3572],[-1,-1]],[[199,3544],[-1,1],[0,-1],[1,-1],[0,1]],[[1003,3067],[-1,0]],[[1037,3105],[-1,-1],[1,1]],[[1038,3106],[-1,0]],[[1037,3105],[1,1]],[[1040,3109],[-2,-3]],[[1040,3109],[1,1]],[[1041,3110],[-1,-1]],[[1020,3086],[1,0],[1,2],[-2,-1],[0,-1]],[[1037,3105]],[[1037,3105],[0,1]],[[1037,3106],[0,-1]],[[1037,3105]],[[1040,3066],[12,-64]],[[1052,3002],[-10,64]],[[2438,2237],[7,50],[35,4],[1616,-978]],[[559,2499],[-211,-36],[-5,-2],[-39,-21],[-23,-4],[-116,56],[116,-56],[23,4],[45,22],[211,37]],[[599,2524],[2,1],[26,37]],[[604,2531],[-4,-6]],[[627,2562],[-23,-31]],[[653,2597],[46,62]],[[699,2660],[-44,-59]],[[1052,2999],[-1,-33],[-87,-104],[-137,-72],[-122,-121],[-2,-3]],[[703,2666],[124,123],[137,73],[87,104],[2,33]],[[2445,2244],[-19,25],[48,33],[1622,-933]],[[4096,1348],[-1618,946],[-48,-26],[16,-23]],[[30,1343],[-30,47]],[[2119,2193],[0,1]],[[2964,1360],[6,3]],[[2971,1369],[-1,-6]],[[2970,1363],[3,0]],[[2971,1364]],[[2438,798],[-4,-1]],[[2435,794],[4,4]],[[2469,2178],[-1,0]],[[2515,2106],[-8,-14],[-1,-63],[-7,-16]],[[2499,2013]],[[2499,2013],[-6,-7],[-1,-3],[-3,-6]],[[2492,2003],[6,8],[1,2]],[[2499,2013]],[[2499,2013],[7,16],[11,80]],[[2500,2158],[0,2]],[[1156,3047],[2,-2]],[[1158,3045],[1,-1]],[[1160,3045],[-2,0]],[[4096,3242],[-1660,-942],[-2,-66]],[[2513,1878],[-3,81],[-12,39],[-11,14]],[[2493,2004],[19,-126]],[[263,3077],[-1,0]],[[262,3076],[1,1]],[[263,3077],[1,0]],[[280,3086],[42,16]],[[322,3102],[2,0]],[[323,3103],[-1,-1]],[[326,3105],[-2,-1]],[[325,3104],[1,1]],[[325,3104],[-1,0],[-1,-1]],[[323,3103],[1,-1],[1,2]],[[326,3105],[45,32]],[[2474,2206],[-29,38]],[[1607,2552],[-1,1]],[[1603,2550],[1,-1],[3,3]],[[1607,2552],[-1,1],[-3,-3]],[[2504,2174],[-2,0]],[[2503,2173],[1,0]],[[2446,2245],[28,-39],[-29,38]],[[2575,138],[-124,-13],[1,-60],[-77,-65]],[[2575,138],[1,0]],[[2575,139],[0,-1]],[[2577,139],[-1,0]],[[2576,139],[1,0]],[[2576,139],[-1,0]],[[2575,139],[1,-1],[0,1]],[[2642,178],[-65,-39]],[[2642,178]],[[2642,179],[0,-1]],[[2644,179],[-1,0]],[[2643,179],[1,0]],[[2725,230],[-81,-51]],[[2726,231],[-1,-1]],[[2725,230],[1,0]],[[2727,231]],[[2727,230],[0,1]],[[2727,230],[-1,1],[-1,-1],[1,0],[1,0]],[[2727,231],[208,185]],[[3145,409],[-2,-1]],[[3143,408],[2,1]],[[3178,426],[-33,-17]],[[3178,426],[1,0]],[[3179,426],[-1,0]],[[3179,426],[1,0],[0,1],[-1,0],[0,-1]],[[3180,426],[2,0]],[[3182,426],[-2,1]],[[3189,427],[-7,-1]],[[2643,178],[0,1],[-1,0],[1,-1]],[[1547,2691],[-17,-19]],[[1546,2690],[1,0]],[[2437,2236],[5,56],[34,6],[1620,-964]],[[52,2191],[-26,8]],[[620,3377],[-1,0]],[[620,3376],[0,1]],[[620,3377],[12,5]],[[0,548],[36,27]],[[297,936]],[[854,12],[2,2]],[[910,30],[8,-5]],[[919,25],[21,2]],[[1376,155],[1,-6]],[[1378,149],[-1,0]],[[1377,149],[1,-1]],[[1649,2526],[74,-21]],[[2234,1042],[1,1]],[[2235,1043],[3,1]],[[2237,1047],[-1,0]],[[2496,1193],[1,1]],[[3103,384],[1,-1]],[[3104,384],[-1,0]],[[3108,386],[-4,-3]],[[3104,383]],[[3104,383],[4,3]],[[3108,387],[0,-1]],[[3108,386]],[[3108,386],[1,1]],[[3109,388],[-1,-1]],[[3109,387],[-1,0]],[[3109,387],[0,1]],[[3109,388],[1,0]],[[3126,399],[15,8]],[[3141,407],[2,1]],[[3142,408],[-1,-1]],[[3143,408],[-1,0]],[[919,25],[0,1],[-1,-1],[1,-1],[0,1]],[[1378,148],[2,0],[0,2],[-2,0],[0,-2]],[[1558,669],[0,1],[-1,1],[0,-1],[1,-1]],[[1565,668],[0,1],[0,1],[-1,-1],[1,-1]],[[2495,1194],[1,-1],[1,1]],[[2497,1194],[-1,1],[-1,-1]],[[965,945],[26,-65]],[[991,880],[2,-6]],[[993,874],[17,-37]],[[1010,837],[0,-2]],[[1011,835],[-1,2]],[[1010,834],[1,-1]],[[1011,835],[-1,1],[-1,-1],[1,-1],[1,1]],[[1011,833],[0,2]],[[1011,833],[18,-52]],[[1029,781]],[[1030,781],[-1,0]],[[1029,781],[1,-1]],[[1030,780],[0,1],[-1,0]],[[1030,780],[1,-1]],[[1031,779],[-1,1]],[[1031,779],[32,-119],[64,-47]],[[1129,608],[-2,5]],[[1129,48],[-1,0]],[[1200,296],[-45,-56],[20,-22],[-46,-170]],[[1129,48]],[[1129,608],[31,-63],[-12,-28]],[[1148,517],[-1,-1]],[[1147,514],[1,0]],[[1148,515],[0,2]],[[1148,514]],[[1201,301],[-53,213]],[[1201,301],[-1,-1]],[[1200,298],[0,-2]],[[1200,296],[1,2]],[[1201,300],[0,1]],[[1147,515],[0,-1]],[[1147,514],[1,1],[0,1],[-1,-1]],[[1200,300],[0,-2],[1,0],[0,1],[-1,1]],[[2437,2237],[37,-31]],[[1969,875],[-5,-11]],[[1969,875],[1,0]],[[1969,876],[0,-1]],[[1970,877],[0,-1]],[[1970,877],[2,3]],[[1970,876],[0,1]],[[1972,880],[1,0]],[[1973,881],[-1,-1]],[[1975,882],[-1,0]],[[1974,881],[1,1]],[[1975,882],[31,29]],[[1970,875],[0,1]],[[1970,876],[-1,0],[0,-1],[1,0]],[[1974,881],[0,1],[-1,-1],[0,-1]],[[1973,880],[1,1]],[[1369,123],[0,-1]],[[341,3519],[58,-59],[25,-13],[24,-11],[58,-78]],[[507,3359],[-54,74],[-112,87]],[[710,3284],[79,-82],[90,-59]],[[880,3148],[-91,59],[-41,44],[-33,31],[-5,3]],[[1047,3000],[34,-7]],[[1081,2994],[-33,7]],[[1128,2982],[138,-90]],[[1266,2893],[-137,90]],[[1417,2762],[35,-29]],[[1452,2734],[-35,28]],[[1644,2527],[25,-25],[108,-40]],[[1777,2462],[-132,65]],[[2066,2110],[152,-40],[33,-32],[56,9]],[[2307,2047],[15,3]],[[2322,2050],[2,-2],[26,-23],[2,-38],[3,-3]],[[2355,1985],[-2,2],[-2,46],[-26,17],[-3,0]],[[2322,2050],[-15,-3]],[[2307,2047],[-55,-8],[-30,28],[-4,3],[-114,41],[-37,0]],[[2884,1453],[79,-147]],[[2963,1307],[-78,147]],[[3424,156],[3,-27],[32,-64],[-3,-27],[8,-38]],[[3465,0],[-6,67],[-35,89]],[[1379,160],[-23,-52],[-135,-63]],[[1221,44],[135,63],[24,53]],[[2474,2206],[-29,38]],[[1492,2735],[-87,79]],[[305,930],[1,1]],[[2659,1695],[0,1],[-1,-1],[0,-1],[1,1]],[[425,3532],[52,-10]],[[495,3518]],[[508,3507],[89,-86]],[[3336,379],[-1,-1]],[[1453,648],[-247,-44],[-44,-59]],[[1557,670],[-4,-1]],[[1564,669],[-6,1]],[[1565,669],[74,23]],[[1964,864],[-266,-93],[-57,-77]],[[2006,911],[183,99]],[[2225,1036],[12,13]],[[4096,1348],[-1618,946],[-34,-4],[-7,-53]],[[4096,3242],[-1628,-928],[-48,-42],[14,-38]],[[297,934],[0,4]],[[2468,2178],[1,-1]],[[199,3545],[-1,0]],[[202,3571],[1,-2]],[[202,3561],[1,8]],[[202,3561],[0,-2]],[[203,3560],[-1,1]],[[203,3569],[4,-1]],[[213,3563],[3,8]],[[215,3571],[1,0]],[[216,3571],[-1,0]],[[597,3367],[2,0]],[[599,3367],[-1,1]],[[608,3365],[-9,2]],[[608,3365],[1,0]],[[609,3365],[-1,0]],[[612,3365],[-1,0]],[[611,3364],[1,1]],[[620,3367],[-8,-2]],[[618,3375],[1,0]],[[619,3376],[0,-1]],[[619,3375],[2,-6]],[[622,3369],[-2,7]],[[620,3367],[2,0]],[[621,3368],[-1,-1]],[[622,3367],[12,-17],[29,-35]],[[664,3316],[-41,51]],[[634,3383],[-2,-1]],[[636,3386],[-2,-1]],[[665,3313],[10,-6]],[[675,3309],[-9,5]],[[1131,3066],[-3,0]],[[1137,3061],[0,1]],[[1625,2550],[-15,4],[-2,1]],[[1608,2555],[-1,1],[-2,2],[-4,3],[-72,109]],[[1607,2554],[1,1]],[[1608,2555],[3,4]],[[1611,2559],[1,1]],[[1612,2560],[-1,-1]],[[1612,2560],[1,0],[0,1],[-1,-1]],[[1616,2565],[-4,-4]],[[1613,2560],[4,5]],[[1617,2565],[2,1],[0,2],[-2,-1],[0,-2]],[[1617,2565],[3,-1]],[[1647,2594],[-28,-26]],[[1620,2564],[-1,3]],[[1619,2568],[28,26]],[[1620,2564],[7,-10]],[[1628,2549],[21,-23]],[[1649,2595],[-2,-1]],[[1723,2505],[21,10]],[[2033,2158]],[[2490,2008],[-3,4]],[[2502,1864],[-4,6]],[[2866,1488],[-2,-3]],[[3044,386],[-14,0]],[[3044,386],[1,-1]],[[3045,386],[-1,0]],[[3046,386],[-1,0]],[[3046,385],[0,1]],[[3052,385],[-6,1]],[[3052,385],[0,-1]],[[3052,384],[0,1]],[[3052,384],[1,-1]],[[3053,383],[0,1]],[[3100,384],[-47,-1]],[[3058,902],[4,-11]],[[3062,890],[-3,12]],[[3102,384],[-2,0]],[[3102,384]],[[3102,384],[1,0]],[[3103,384],[-1,0]],[[3110,388],[4,3]],[[3116,393],[-2,-2]],[[3116,393],[10,6]],[[3151,890]],[[215,3571],[0,1],[0,-1]],[[610,3365],[-1,-1],[1,-1],[1,1],[-1,1]],[[624,3368],[-1,1],[-2,-1],[1,-1],[2,1]],[[666,3314],[-2,2]],[[664,3316],[-1,-2],[1,-1],[2,1]],[[676,3306],[1,1],[0,2],[-2,-1],[1,-2]],[[1530,2672],[-1,0],[0,-2],[1,1],[0,1]],[[1602,2595],[-1,1],[0,-1],[1,-1],[0,1]],[[1627,2550],[2,1],[-3,2],[-1,-1],[2,-2]],[[2033,2157],[1,1],[-1,0],[0,-1]],[[3046,385],[-1,1],[0,-1],[1,0]],[[3053,384],[-1,0]],[[3052,384],[1,0]],[[3059,903],[-2,0],[0,-1],[2,0]],[[3059,902],[0,1]],[[962,1017],[36,55],[6,75]],[[473,3189],[-2,-1]],[[471,3187],[2,2]],[[473,3189],[123,91]],[[596,3280],[1,1]],[[597,3282],[-1,-2]],[[6,2196],[-6,-1]],[[8,2196],[-2,0]],[[6,2196],[2,0]],[[8,2196],[0,-1],[0,1]],[[8,2196]],[[10,2196],[-2,0]],[[8,2195],[2,1]],[[26,2199],[-16,-3]],[[419,927],[-110,4]],[[464,928],[-36,-2]],[[1005,1445],[-63,-61],[40,-186]],[[1015,1451],[-6,-3]],[[4096,2144],[-1626,166],[-48,-39],[13,-37]],[[7,2745],[-7,-10]],[[7,2745],[2,1]],[[9,2747],[-2,-2]],[[10,2747],[-1,0]],[[10,2747]],[[42,2790],[-32,-43]],[[529,3331],[-1,-1]],[[529,3330],[0,1]],[[529,3331],[35,17]],[[564,3348],[2,1]],[[565,3350],[-1,-2]],[[567,3349],[29,18]],[[567,3349],[0,2],[-2,-1],[1,-1],[1,0]],[[596,3368],[-29,-18]],[[598,3369],[-1,-1]],[[598,3368],[0,1]],[[598,3369],[20,6]],[[618,3375],[1,1]],[[619,3376],[-1,-1]],[[9,2747],[0,-1],[1,1],[-1,0]],[[529,3329],[-2,1],[0,-2],[1,0],[1,1]],[[596,3368],[0,-1],[1,0],[1,1]],[[598,3368],[-2,0]],[[2481,2018],[-1,-1]],[[278,796],[-37,93]],[[339,118],[45,118],[-42,255],[-55,141],[-4,136]],[[300,0],[37,117]],[[0,2557],[16,-3]],[[297,930],[8,0]],[[306,931],[-9,-1]],[[1161,3044],[0,-1]],[[2458,2182],[-4,1]],[[2464,2177],[5,1]],[[2435,2234],[47,-17]],[[165,2492],[-56,33]],[[2434,2089],[-4,-2]],[[0,884],[85,-119]],[[2935,416],[21,10]],[[2958,427],[-1,0]],[[2957,426],[1,1]],[[2958,427],[7,7]],[[2965,434],[1,0]],[[2965,435],[0,-1]],[[2968,437],[-1,0]],[[2967,436],[1,1]],[[3029,386],[-61,51]],[[3311,448],[-122,-21]],[[2956,427],[0,-1],[1,0],[-1,1]],[[2967,435],[0,1]],[[2967,436],[-1,1],[-1,-2],[2,0]],[[3030,387],[-1,-1],[1,-1],[0,1],[0,1]],[[804,3352],[91,-92]],[[1161,3043],[1,0]],[[1162,3043]],[[1162,3043],[95,-93]],[[2207,2173],[115,-55]],[[2964,1378],[-29,52]],[[3433,157],[37,-157]],[[982,1198],[19,-52],[-32,-27]],[[1081,2993],[47,-11]],[[1129,2983],[-48,11]],[[106,1243],[-41,17],[10,37],[-45,46]],[[106,1243],[2,-3]],[[299,971],[1,31],[-192,238]],[[298,938],[0,4]],[[600,2525],[-41,-26]],[[560,2499],[39,25]],[[604,2531]],[[655,2601],[-28,-39]],[[627,2562],[26,35]],[[703,2666],[-4,-6]],[[699,2659],[4,7]],[[428,926],[-9,1]],[[554,960],[-90,-32]],[[1009,1448],[-4,-3]],[[1049,1468],[-34,-17]],[[0,0],[0,3791],[14,-14],[89,-71],[54,-31],[127,-42],[7,-2],[139,-20],[56,-34],[114,-93],[194,-79],[29,-45],[25,-28],[891,-782],[340,-212],[58,-23],[28,-36],[137,-48],[78,-47],[29,17],[22,29],[16,16],[8,4],[6,9],[9,8],[17,4],[18,-8],[8,-18],[6,-18],[9,-8],[55,-30],[43,-67],[33,-66],[28,-29],[56,-14],[51,-36],[26,-54],[-22,-64],[418,-1076],[46,-81],[12,-28],[18,-144],[13,-35],[34,-55],[94,-205],[40,-143],[13,-92],[-3486,0]],[[0,1877],[120,-106],[83,19],[-2,-33],[10,29],[37,-43],[31,13],[9,-50],[45,-13],[33,-44],[8,-59],[-31,-33],[-115,34],[-77,-147],[-70,46],[-35,64],[-46,20],[0,303]],[[2519,2224],[2,7],[30,-17],[98,-146],[30,-10],[-25,5],[25,-54],[151,-82],[-15,-172],[57,-125],[-47,-19],[-67,24],[-31,130],[-83,36],[-109,163],[-12,26],[26,7],[-19,22],[32,86],[-22,22],[50,3],[-71,94]],[[305,3595],[105,9],[249,-148],[48,-58],[-80,-6],[-129,125],[-109,23],[-84,55]],[[1073,1038],[47,36],[34,-11],[25,59],[15,-40],[47,-2],[-14,-54],[86,-4],[-42,-17],[9,-34],[-30,-36],[12,-71],[-25,-36],[-65,17],[23,33],[-17,57],[29,23],[-12,26],[-26,28],[-87,-2],[-9,28]],[[41,2401],[79,59],[129,-56],[145,-152],[1,-52],[-98,-8],[-22,-24],[-139,124],[-37,-12],[-3,52],[-30,9],[-25,60]],[[456,390],[25,80],[50,43],[36,-74],[-49,-55],[-62,6]],[[384,852],[5,7],[42,-51],[78,-38],[-16,-49],[38,-114],[-43,-83],[-72,120],[36,49],[-34,73],[17,15],[-45,10],[-6,61]],[[0,795],[0,74],[22,-13],[17,-67],[-29,-19],[-10,25]],[[0,1380],[0,92],[19,8],[134,-49],[18,86],[51,69],[116,-26],[11,-25],[-31,-39],[26,-32],[-29,0],[2,-22],[48,-49],[-23,-54],[-81,-48],[35,-101],[104,-123],[25,-115],[-13,-52],[-75,16],[-43,-18],[6,71],[-238,288],[6,45],[-60,19],[-4,52],[-4,7]],[[732,1535],[45,25],[0,77],[33,26],[-31,47],[62,59],[6,-38],[46,-5],[-61,-69],[49,-20],[46,47],[17,-51],[29,11],[-6,-28],[19,6],[53,-71],[31,-51],[-39,-35],[-8,21],[-8,-39],[-28,4],[22,-7],[23,11],[28,-15],[19,-97],[-57,-14],[-18,27],[-13,-54],[86,-26],[3,-69],[71,11],[13,-32],[-32,-83],[-43,12],[-18,-79],[-8,73],[-43,-8],[-2,45],[-56,78],[-27,-12],[-15,33],[-62,-12],[-60,49],[34,87],[-38,8],[9,60],[-56,4],[6,67],[-21,27]],[[575,308],[11,35],[26,47],[24,30],[-35,-4],[46,39],[-32,20],[-7,68],[42,-82],[64,45],[21,5],[41,-47],[57,13],[24,-24],[19,10],[50,-13],[-52,5],[-21,-22],[-25,28],[2,-37],[-10,37],[-46,-7],[-59,48],[-75,-75],[62,4],[0,-29],[-59,10],[2,-58],[-13,51],[-53,-98],[67,30],[45,0],[-88,-38],[-28,9]],[[639,219],[211,93],[-10,-97],[29,-55],[-50,-11],[-10,-40],[-85,-42],[-56,51],[-29,101]],[[881,369],[65,73],[9,-30],[-1,56],[40,-7],[9,-99],[-34,4],[-17,-33],[-35,30],[-31,-21],[-5,27]],[[888,196],[6,52],[64,-5],[21,-38],[-8,-144],[-45,74],[-33,-9],[27,42],[-32,28]],[[486,2505],[70,24],[12,53],[44,-10],[72,115],[39,-43],[20,13],[-4,34],[87,90],[36,2],[-111,-95],[20,-39],[-24,-1],[2,-28],[-26,10],[-6,-35],[-21,74],[-64,-107],[-59,4],[31,-35],[-23,-34],[-95,8]],[[358,2923],[23,15],[77,-19],[49,48],[42,-3],[41,-75],[-22,-36],[19,-22],[-31,-34],[5,-71],[-74,21],[8,31],[-43,38],[-29,-12],[-26,41],[-26,-2],[-13,80]],[[862,2774],[200,122],[20,104],[84,54],[-95,-181],[-97,-78],[-112,-21]],[[0,1929],[0,61],[18,-32],[-18,-29]],[[997,2982],[-40,3],[-98,90],[40,141],[-7,77],[281,-246],[-176,-65]],[[0,3348],[0,177],[3,1],[11,-36],[69,-13],[3,-70],[-35,-48],[-51,-11]],[[0,2707],[0,94],[148,-39],[-9,-167],[-29,-48],[-59,-9],[22,131],[-23,48],[-50,-10]],[[0,2],[0,126],[51,-47],[-28,-79],[-23,0]],[[2543,975],[32,0],[0,-224],[-101,-7],[-29,7],[-32,134],[-121,-50],[-41,6],[-67,182],[132,41],[97,90],[0,-45],[98,-35],[32,-99]],[[1830,528],[0,134],[130,0],[-8,-68],[-30,-36],[-92,-30]],[[1517,581],[-75,-8],[1,69],[96,65],[-32,134],[97,-45],[-87,-215]],[[277,796],[97,-30],[97,30],[-16,-140],[-74,-34],[-78,54],[-26,120]],[[1086,1109],[-65,-90],[-18,29],[-57,-43],[-119,59],[-78,-27],[-19,-62],[-129,134],[32,224],[259,0],[194,-224]],[[1252,2977],[487,-427],[426,-271],[215,-95],[90,83],[35,-4],[14,-36],[64,-38],[99,-157],[-10,-119],[142,-8],[-16,-46],[476,-1185],[31,-179],[149,-337],[-52,-4],[-83,195],[-65,0],[0,45],[-65,0],[0,45],[-157,-100],[-69,10],[-30,72],[30,241],[-45,44],[-96,-33],[-53,34],[0,44],[-70,97],[5,82],[64,46],[139,-35],[56,34],[-65,89],[4,52],[61,82],[1,204],[-66,64],[-45,-42],[-95,24],[-86,107],[-33,-33],[0,-234],[-81,68],[-13,61],[30,94],[-98,89],[-97,45],[0,89],[-64,0],[50,321],[-62,88],[-79,38],[-201,-89],[-64,0],[0,-179],[-65,0],[-32,-45],[-65,0],[-104,-104],[-58,15],[65,224],[129,-45],[37,40],[-37,183],[55,37],[74,8],[-4,26],[-60,18],[0,90],[-97,44],[-33,90],[-161,44],[-130,135],[-32,89],[-97,0],[-65,45],[-28,170]],[[0,3582],[0,217],[103,-93],[188,-75],[139,-20],[170,-127],[194,-79],[19,-30],[-21,-55],[-256,-111],[0,-45],[-248,-41],[-11,-48],[-36,7],[-61,82],[12,98],[108,-63],[42,55],[0,89],[162,-45],[4,96],[-69,172],[-182,-86],[-90,-14],[-84,56],[-33,89],[-50,-29]],[[1344,394],[21,67],[174,-29],[-25,-24],[35,-88],[-137,-3],[-68,77]],[[501,685],[28,32],[46,-4],[6,-142],[-56,27],[-24,87]],[[531,919],[65,56],[-4,-30],[66,-47],[34,-90],[-109,-46],[-52,157]],[[265,1290],[34,27],[69,-72],[39,-67],[-36,-64],[-74,79],[-32,97]],[[387,860],[45,72],[74,-8],[-30,-53],[23,-58],[-68,-4],[-44,51]],[[0,3046],[17,4],[17,-23],[-32,-16],[20,-24],[52,21],[28,-17],[-63,-189],[-39,-10],[0,254]],[[583,762],[36,31],[38,-10],[8,29],[20,-10],[25,52],[27,-51],[63,-8],[-17,-56],[19,-28],[-22,-9],[34,-61],[-19,-25],[33,-42],[-35,-47],[-96,39],[-59,100],[-29,-23],[-26,119]],[[0,111],[104,108],[37,6],[37,121],[60,-14],[-29,-62],[47,-31],[-13,-48],[-64,-62],[1,-34],[55,-6],[-36,-89],[-199,0],[0,111]],[[1386,0],[-17,123],[18,-19],[64,21],[96,-18],[164,53],[79,-36],[12,-47],[-22,-77],[-394,0]],[[1339,514],[39,47],[-15,15],[63,58],[-1,-118],[-65,-50],[-21,48]]]}