{"objects":{"water":{"type":"GeometryCollection","geometries":[]},"buildings":{"type":"GeometryCollection","geometries":[]},"places":{"type":"GeometryCollection","geometries":[{"type":"Point","properties":{"alt_name:eo":"Chongqing","int_name":"Chongqing","name:nl":"Chongqing","name:ja":"\u91cd\u6176\u5e02","name:hi":"\u091a\u094a\u0902\u0917\u094d\u0915\u093f\u0902\u0917","name:kn":"\u0c9a\u0cca\u0c82\u0c97\u0ccd\u0c95\u0cbf\u0c82\u0c97\u0ccd","name:cs":"\u010cchung-\u010dching","kind":"locality","min_zoom":8.0,"name:sr":"\u0427\u0443\u043d\u0433\u043a\u0438\u043d\u0433","name:vi":"Tr\u00f9ng Kh\u00e1nh","name:ru":"\u0427\u0443\u043d\u0446\u0438\u043d","name:pl":"Chongqing","id":734098547,"name:ca":"Txungking","population":18400000,"name:eo":"\u0108ong\u0109ingo","name:en":"Chongqing","name":"\u91cd\u5e86\u5e02","kind_detail":"city","name:de":"Chongqing","source":"openstreetmap.org","old_name:nl":"Tsjoengking","name:zh":"\u91cd\u5e86"},"coordinates":[3147,79]},{"type":"Point","properties":{"kind":"locality","name:en":"Suining","name":"\u9042\u5b81\u5e02","kind_detail":"city","min_zoom":8.0,"name:de":"Suining","source":"openstreetmap.org","name:fr":"Suining","name:vi":"To\u1ea1i Ninh","name:ru":"\u0421\u0443\u0439\u043d\u0438\u043d","population":3252551,"name:zh":"S\u00f9in\u00edng Sh\u00ec","id":244083499,"name:ja":"\u9042\u5be7\u5e02"},"coordinates":[308,3270]},{"type":"Point","properties":{"kind":"locality","name:en":"Guang'an","name":"\u5e7f\u5b89\u5e02","kind_detail":"city","min_zoom":8.0,"name:de":"Guang'an","source":"openstreetmap.org","name:fr":"Guang'an","name:vi":"Qu\u1ea3ng An","population":3205476,"name:zh":"Guang'an Shi","id":244083494,"name:ja":"\u5e83\u5b89\u5e02"},"coordinates":[3392,3112]},{"type":"Point","properties":{"kind":"locality","name:en":"Jiulong","name":"\u4e5d\u9f99\u9547","kind_detail":"town","source":"openstreetmap.org","min_zoom":8.0,"name:zh":"\u4e5d\u9f99","id":4469917825,"population":20000},"coordinates":[2821,3372]}]},"transit":{"type":"GeometryCollection","geometries":[{"type":"MultiLineString","properties":{"kind":"train","name:en":"Suiyu Railway","name":"\u9042\u6e1d\u7ebf","sort_rank":275,"source":"openstreetmap.org","min_zoom":6.0,"network":"CN-railway","osm_relation":true,"description":"single-track electrified with top speed of 200 km\/h, but currently CRH trains only run up to 160 km\/h"},"arcs":[[4],[5],[6],[7],[8],[9],[10],[11],[12],[13],[14],[15],[16],[17],[18],[19],[20],[21],[22],[23],[24],[25],[26],[27],[28],[29],[30],[31],[32],[33],[34],[35],[36],[37],[38],[39],[40],[41],[42],[43],[44],[45],[46],[47],[48],[49],[50],[51],[52],[53],[54],[55],[56],[57],[58],[59],[60],[61],[62],[63],[64],[65],[66],[67],[68],[69],[70],[71],[72],[73],[74],[75],[76],[77],[78],[79],[80],[81],[82],[83],[84],[85],[86],[87],[88],[89],[90],[91],[92]]},{"type":"MultiLineString","properties":{"kind":"train","name:en":"H\u00f9h\u00e0nr\u00f3ng","name":"\u6caa\u6c49\u84c9\u5feb\u901f\u5ba2\u8fd0\u901a\u9053","sort_rank":275,"source":"openstreetmap.org","min_zoom":6.0,"osm_relation":true,"network":"China Railway High-speed"},"arcs":[[93],[94],[95],[96],[97],[98],[99],[100],[101],[102],[103],[104]]},{"type":"LineString","properties":{"kind":"subway","network":"\u91cd\u5e86\u8f68\u9053\u4ea4\u901a Chongqing Rail Transit (CRT)","sort_rank":275,"colour":"light blue","name":"Branch Line 5","source":"openstreetmap.org","min_zoom":8.0,"ref":"5","id":-7662491,"osm_relation":true,"colour_name":"lightblue"},"arcs":[105]},{"type":"MultiLineString","properties":{"kind":"subway","name:en":"CRT Line 6 (International Expo Line): Yuelai => Chayuan","name":"CRT Line 6 (International Expo Line): \u60a6\u6765 => \u8336\u56ed","sort_rank":275,"source":"openstreetmap.org","min_zoom":8.0,"ref":"Line 6 (International Expo Line)","osm_relation":true},"arcs":[[106],[107]]},{"type":"MultiLineString","properties":{"kind":"subway","name:en":"CRT Line 1: Xiaoshizi => Jiandingpo","name":"CRT Line 1: \u5c0f\u4ec0\u5b57 => \u5c16\u9876\u5761","sort_rank":275,"source":"openstreetmap.org","min_zoom":8.0,"ref":"Line 1","id":-2336456,"osm_relation":true},"arcs":[[108],[109]]},{"type":"MultiLineString","properties":{"kind":"subway","name:en":"CRT Line 1: Jiandingpo => Xiaoshizi","name":"CRT Line 1: \u5c16\u9876\u5761 => \u5c0f\u4ec0\u5b57","sort_rank":275,"source":"openstreetmap.org","min_zoom":8.0,"ref":"Line 1","id":-2336457,"osm_relation":true},"arcs":[[110],[111]]},{"type":"MultiLineString","properties":{"kind":"train","alt_name:en":"Dazhou\u2013Chengdu Railway","network":"CN-railway","sort_rank":275,"name":"\u9042\u6210\u94c1\u8def","source":"openstreetmap.org","min_zoom":6.0,"name:en":"Dacheng Railway","osm_relation":true,"description":"triple-track electrified railway with top speed of 200 km\/h connecting Chengdu with Dazhou"},"arcs":[[112],[113]]},{"type":"LineString","properties":{"kind":"train","alt_name:en":"Chengdu\u2013Chongqing Railway","network":"CN-railway","sort_rank":275,"description":"Single-track electrified line between Chengdu and Chongqing.","source":"openstreetmap.org","min_zoom":6.0,"name:en":"Chengyu Railway","osm_relation":true,"name":"\u6210\u6e1d\u94c1\u8def"},"arcs":[114]},{"type":"MultiLineString","properties":{"kind":"subway","name:en":"CRT Line 6: Chayuan => Beibei","name":"CRT Line 6: \u8336\u56ed => \u5317\u789a","sort_rank":275,"source":"openstreetmap.org","min_zoom":8.0,"ref":"Line 6","osm_relation":true},"arcs":[[115],[116]]},{"type":"LineString","properties":{"kind":"subway","network":"\u91cd\u5e86\u8f68\u9053\u4ea4\u901a Chongqing Rail Transit (CRT)","sort_rank":275,"source":"openstreetmap.org","min_zoom":8.0,"ref":"0","id":-7662492,"osm_relation":true},"arcs":[117]},{"type":"MultiLineString","properties":{"kind":"subway","name:en":"CRT Line 6 (International Expo Line): Chayuan => Yuelai","name":"CRT Line 6 (International Expo Line): \u8336\u56ed => \u60a6\u6765","sort_rank":275,"source":"openstreetmap.org","min_zoom":8.0,"ref":"Line 6 (International Expo Line)","osm_relation":true},"arcs":[[118],[119]]},{"type":"MultiLineString","properties":{"kind":"subway","name:en":"CRT Line 6: Beibei => Chayuan","name":"CRT Line 6: \u5317\u789a => \u8336\u56ed","sort_rank":275,"source":"openstreetmap.org","min_zoom":8.0,"ref":"Line 6","osm_relation":true},"arcs":[[120],[121]]},{"type":"MultiLineString","properties":{"kind":"train","name:en":"Yuli Railway","network":"China Railway High-speed","sort_rank":275,"source":"openstreetmap.org","min_zoom":6.0,"operator":"China Railway High-speed","osm_relation":true,"name":"\u6e1d\u5229\u94c1\u8def"},"arcs":[[122],[123]]},{"type":"MultiLineString","properties":{"kind":"train","name:en":"Dacheng Railway","network":"CN-railway","sort_rank":275,"source":"openstreetmap.org","min_zoom":6.0,"osm_relation":true,"name":"\u8fbe\u6210\u94c1\u8def"},"arcs":[[124],[125],[126],[127],[128]]}]},"pois":{"type":"GeometryCollection","geometries":[]},"boundaries":{"type":"GeometryCollection","geometries":[{"type":"LineString","properties":{"name:right:qu":"Sichuan pruwinsya","alt_name:left:eo":"Chongqing","name:right:la":"Sichuan","name:right:uk":"\u0421\u0438\u0447\u0443\u0430\u043d\u044c","name:right:hr":"Se\u010duan","name:right:hu":"Szecsuan","name:right:lt":"Si\u010duanas","name:right:hi":"\u0938\u093f\u091a\u0941\u0906\u0928","name:right:lv":"Si\u010dua\u0146a","name:right:ug":"\u0633\u0649\u0686\u06c8\u06d5\u0646 \u0626\u06c6\u0644\u0643\u0649\u0633\u0649","name:right:he":"\u05e1\u05e6'\u05d5\u05d0\u05df","name:right:os":"\u0421\u044b\u0447\u0443\u0430\u043d\u044c","name:right:af":"Sichuan","name:right:vi":"T\u1ee9 Xuy\u00ean","sort_rank":256,"name:right:pl":"Syczuan","source":"openstreetmap.org","name:right:fr":"Sichuan","name:right:ar":"\u0633\u064a\u062a\u0634\u0648\u0627\u0646","name:right:el":"\u03a3\u03b5\u03c4\u03c3\u03bf\u03c5\u03ac\u03bd","name:right:az":"Si\u00e7uan \u00c7in","name:left":"\u91cd\u5e86\u5e02","name:right:es":"Sichuan","name:right:sr":"\u0421\u0438\u0447\u0443\u0430\u043d","name:right:mn":"\u0421\u044b\u0447\u0443\u0430\u043d\u044c \u043c\u0443\u0436","name:right:eu":"Sichuan","name:right:et":"Sichuan","name:right:it":"Sichuan","name:right:is":"Ses\u00faan","name:right:ru":"\u0421\u044b\u0447\u0443\u0430\u043d\u044c","name:right:ro":"Sichuan","name:left:ru":"\u0427\u0443\u043d\u0446\u0438\u043d","name:right:ms":"Sichuan","name:right:mr":"\u0938-\u091a\u094d\u0935\u093e\u0928","name:right:id":"Sichuan","name:right:eo":"Si\u0109uano","name:right:en":"Sichuan","name:right:ia":"Sichuan","name:left:vi":"Tr\u00f9ng Kh\u00e1nh","kind":"region","name:right:bn":"\u09b8\u09bf\u099b\u09c1\u09af\u09bc\u09be\u09a8","name":"\u91cd\u5e86\u5e02 - \u56db\u5ddd\u7701","name:right:ur":"\u0633\u06cc\u0686\u0648\u0627\u0646","min_zoom":8.0,"name:right:be":"\u041f\u0440\u0430\u0432\u0456\u043d\u0446\u044b\u044f \u0421\u044b\u0447\u0443\u0430\u043d\u044c","name:right:za":"Swconh","name:left:fr":"Chongqing","name:right:br":"Sichuan","name:right:zh":"S\u00ecchu\u0101n","name:right:nn":"Sichuan","name:right:no":"Sichuan","name:right:nl":"Sichuan","name:right:wa":"Sichouan","name:left:ja":"\u91cd\u6176\u5e02","name:right:sw":"Sichuan","name:right:sv":"Sichuan","name:left:uk":"\u0427\u0443\u043d\u0446\u0456\u043d","name:right:sk":"S\u2019-\u010dchuan","name:right:fa":"\u0633\u06cc\u0686\u0648\u0622\u0646","id":-913069,"name:right:fi":"Sichuan","name:left:eo":"\u0108ong\u0109ingo","name:left:en":"Chongqing","name:right:ca":"Sichuan","kind_detail":"4","name:right:ce":"\u0421\u044b\u0447\u0443\u0430\u043d\u044c","name:right:cy":"Sichuan","name:left:pl":"Chongqing","id:left":-913069,"name:right:cs":"S\u2019-\u010dchuan","name:right":"\u56db\u5ddd\u7701","id:right":-913068,"name:right:ka":"\u10e1\u10d8\u10e9\u10e3\u10d0\u10dc\u10d8","name:right:gv":"Sichuan","name:right:pt":"Suju\u00e3o","name:right:kg":"Sichuan","name:right:tt":"\u0421\u044b\u0447\u0443\u0430\u043d\u044c","name:right:mg":"Sichuan","name:right:ko":"\uc4f0\ucd28 \uc131","name:right:bg":"\u0421\u044a\u0447\u0443\u0430\u043d","name:right:tl":"Sichuan","name:right:ga":"Sichuan","name:right:oc":"Sichuan","name:right:gl":"Sichuan","name:right:kn":"\u0cb8\u0cbf\u0c9a\u0cc1\u0cb5\u0cbe\u0ca8\u0ccd","name:right:uz":"Sichuan","name:right:ta":"\u0b9a\u0bbf\u0b9a\u0bcd\u0b9a\u0bc1\u0bb5\u0bbe\u0ba9\u0bcd","osm_relation":true,"name:right:bo":"\u0f66\u0f72\u0f0b\u0f41\u0fb2\u0f7c\u0f53\u0f0b\u0f5e\u0f72\u0f44\u0f0b\u0f46\u0f7a\u0f53\u0f0d","name:right:tr":"Si\u00e7uan","name:right:de":"Sichuan","name:right:da":"Sichuan","name:right:th":"\u0e21\u0e13\u0e11\u0e25\u0e40\u0e2a\u0e09\u0e27\u0e19"},"arcs":[0]},{"type":"LineString","properties":{"name:right:qu":"Sichuan pruwinsya","alt_name:left:eo":"Chongqing","name:right:la":"Sichuan","name:right:uk":"\u0421\u0438\u0447\u0443\u0430\u043d\u044c","name:right:hr":"Se\u010duan","name:right:hu":"Szecsuan","name:right:lt":"Si\u010duanas","name:right:hi":"\u0938\u093f\u091a\u0941\u0906\u0928","name:right:lv":"Si\u010dua\u0146a","name:right:ug":"\u0633\u0649\u0686\u06c8\u06d5\u0646 \u0626\u06c6\u0644\u0643\u0649\u0633\u0649","name:right:he":"\u05e1\u05e6'\u05d5\u05d0\u05df","name:right:os":"\u0421\u044b\u0447\u0443\u0430\u043d\u044c","name:right:af":"Sichuan","name:right:vi":"T\u1ee9 Xuy\u00ean","sort_rank":256,"name:right:pl":"Syczuan","source":"openstreetmap.org","name:right:fr":"Sichuan","name:right:ar":"\u0633\u064a\u062a\u0634\u0648\u0627\u0646","name:right:el":"\u03a3\u03b5\u03c4\u03c3\u03bf\u03c5\u03ac\u03bd","name:right:az":"Si\u00e7uan \u00c7in","name:left":"\u91cd\u5e86\u5e02","name:right:es":"Sichuan","name:right:sr":"\u0421\u0438\u0447\u0443\u0430\u043d","name:right:mn":"\u0421\u044b\u0447\u0443\u0430\u043d\u044c \u043c\u0443\u0436","name:right:eu":"Sichuan","name:right:et":"Sichuan","name:right:it":"Sichuan","name:right:is":"Ses\u00faan","name:right:ru":"\u0421\u044b\u0447\u0443\u0430\u043d\u044c","name:right:ro":"Sichuan","name:left:ru":"\u0427\u0443\u043d\u0446\u0438\u043d","name:right:ms":"Sichuan","name:right:mr":"\u0938-\u091a\u094d\u0935\u093e\u0928","name:right:id":"Sichuan","name:right:eo":"Si\u0109uano","name:right:en":"Sichuan","name:right:ia":"Sichuan","name:left:vi":"Tr\u00f9ng Kh\u00e1nh","kind":"region","name:right:bn":"\u09b8\u09bf\u099b\u09c1\u09af\u09bc\u09be\u09a8","name":"\u91cd\u5e86\u5e02 - \u56db\u5ddd\u7701","name:right:ur":"\u0633\u06cc\u0686\u0648\u0627\u0646","min_zoom":8.0,"name:right:be":"\u041f\u0440\u0430\u0432\u0456\u043d\u0446\u044b\u044f \u0421\u044b\u0447\u0443\u0430\u043d\u044c","name:right:za":"Swconh","name:left:fr":"Chongqing","name:right:br":"Sichuan","name:right:zh":"S\u00ecchu\u0101n","name:right:nn":"Sichuan","name:right:no":"Sichuan","name:right:nl":"Sichuan","name:right:wa":"Sichouan","name:left:ja":"\u91cd\u6176\u5e02","name:right:sw":"Sichuan","name:right:sv":"Sichuan","name:left:uk":"\u0427\u0443\u043d\u0446\u0456\u043d","name:right:sk":"S\u2019-\u010dchuan","name:right:fa":"\u0633\u06cc\u0686\u0648\u0622\u0646","id":-913069,"name:right:fi":"Sichuan","name:left:eo":"\u0108ong\u0109ingo","name:left:en":"Chongqing","name:right:ca":"Sichuan","kind_detail":"4","name:right:ce":"\u0421\u044b\u0447\u0443\u0430\u043d\u044c","name:right:cy":"Sichuan","name:left:pl":"Chongqing","id:left":-913069,"name:right:cs":"S\u2019-\u010dchuan","name:right":"\u56db\u5ddd\u7701","id:right":-913068,"name:right:ka":"\u10e1\u10d8\u10e9\u10e3\u10d0\u10dc\u10d8","name:right:gv":"Sichuan","name:right:pt":"Suju\u00e3o","name:right:kg":"Sichuan","name:right:tt":"\u0421\u044b\u0447\u0443\u0430\u043d\u044c","name:right:mg":"Sichuan","name:right:ko":"\uc4f0\ucd28 \uc131","name:right:bg":"\u0421\u044a\u0447\u0443\u0430\u043d","name:right:tl":"Sichuan","name:right:ga":"Sichuan","name:right:oc":"Sichuan","name:right:gl":"Sichuan","name:right:kn":"\u0cb8\u0cbf\u0c9a\u0cc1\u0cb5\u0cbe\u0ca8\u0ccd","name:right:uz":"Sichuan","name:right:ta":"\u0b9a\u0bbf\u0b9a\u0bcd\u0b9a\u0bc1\u0bb5\u0bbe\u0ba9\u0bcd","osm_relation":true,"name:right:bo":"\u0f66\u0f72\u0f0b\u0f41\u0fb2\u0f7c\u0f53\u0f0b\u0f5e\u0f72\u0f44\u0f0b\u0f46\u0f7a\u0f53\u0f0d","name:right:tr":"Si\u00e7uan","name:right:de":"Sichuan","name:right:da":"Sichuan","name:right:th":"\u0e21\u0e13\u0e11\u0e25\u0e40\u0e2a\u0e09\u0e27\u0e19"},"arcs":[1]},{"type":"LineString","properties":{"alt_name:eo":"Chongqing","name:ja":"\u91cd\u6176\u5e02","name:eo":"\u0108ong\u0109ingo","min_zoom":8.0,"name:uk":"\u0427\u0443\u043d\u0446\u0456\u043d","name:ru":"\u0427\u0443\u043d\u0446\u0438\u043d","name:vi":"Tr\u00f9ng Kh\u00e1nh","name:pl":"Chongqing","id":-913069,"osm_relation":true,"kind":"region","name:en":"Chongqing","name":"\u91cd\u5e86\u5e02","sort_rank":256,"kind_detail":"4","source":"openstreetmap.org","name:fr":"Chongqing"},"arcs":[2]},{"type":"LineString","properties":{"name:kg":"Sichuan","name:pt":"Suju\u00e3o","name:cy":"Sichuan","name:ko":"\uc4f0\ucd28 \uc131","name:kn":"\u0cb8\u0cbf\u0c9a\u0cc1\u0cb5\u0cbe\u0ca8\u0ccd","name:cs":"S\u2019-\u010dchuan","name:tt":"\u0421\u044b\u0447\u0443\u0430\u043d\u044c","min_zoom":8.0,"name:ro":"Sichuan","name:tl":"Sichuan","name:be":"\u041f\u0440\u0430\u0432\u0456\u043d\u0446\u044b\u044f \u0421\u044b\u0447\u0443\u0430\u043d\u044c","name:os":"\u0421\u044b\u0447\u0443\u0430\u043d\u044c","name:ce":"\u0421\u044b\u0447\u0443\u0430\u043d\u044c","name:ta":"\u0b9a\u0bbf\u0b9a\u0bcd\u0b9a\u0bc1\u0bb5\u0bbe\u0ba9\u0bcd","name:ca":"Sichuan","name:ka":"\u10e1\u10d8\u10e9\u10e3\u10d0\u10dc\u10d8","sort_rank":256,"name:hr":"Se\u010duan","name:da":"Sichuan","name:de":"Sichuan","source":"openstreetmap.org","name:lv":"Si\u010dua\u0146a","name:tr":"Si\u00e7uan","name:uz":"Sichuan","name:he":"\u05e1\u05e6'\u05d5\u05d0\u05df","kind":"region","name:ur":"\u0633\u06cc\u0686\u0648\u0627\u0646","name:la":"Sichuan","name:uk":"\u0421\u0438\u0447\u0443\u0430\u043d\u044c","name:ug":"\u0633\u0649\u0686\u06c8\u06d5\u0646 \u0626\u06c6\u0644\u0643\u0649\u0633\u0649","name:hu":"Szecsuan","name:qu":"Sichuan pruwinsya","name:oc":"Sichuan","name:el":"\u03a3\u03b5\u03c4\u03c3\u03bf\u03c5\u03ac\u03bd","name:eo":"Si\u0109uano","name:en":"Sichuan","name":"\u56db\u5ddd\u7701","name:th":"\u0e21\u0e13\u0e11\u0e25\u0e40\u0e2a\u0e09\u0e27\u0e19","name:eu":"Sichuan","name:et":"Sichuan","name:es":"Sichuan","name:ia":"Sichuan","name:az":"Si\u00e7uan \u00c7in","name:id":"Sichuan","name:ms":"Sichuan","name:mr":"\u0938-\u091a\u094d\u0935\u093e\u0928","name:ar":"\u0633\u064a\u062a\u0634\u0648\u0627\u0646","name:is":"Ses\u00faan","name:it":"Sichuan","name:vi":"T\u1ee9 Xuy\u00ean","name:ru":"\u0421\u044b\u0447\u0443\u0430\u043d\u044c","name:mn":"\u0421\u044b\u0447\u0443\u0430\u043d\u044c \u043c\u0443\u0436","name:pl":"Syczuan","name:af":"Sichuan","name:fa":"\u0633\u06cc\u0686\u0648\u0622\u0646","name:lt":"Si\u010duanas","kind_detail":"4","name:hi":"\u0938\u093f\u091a\u0941\u0906\u0928","name:mg":"Sichuan","id":-913068,"name:fr":"Sichuan","name:za":"Swconh","name:zh":"S\u00ecchu\u0101n","name:nl":"Sichuan","name:nn":"Sichuan","name:no":"Sichuan","name:br":"Sichuan","name:wa":"Sichouan","name:bo":"\u0f66\u0f72\u0f0b\u0f41\u0fb2\u0f7c\u0f53\u0f0b\u0f5e\u0f72\u0f44\u0f0b\u0f46\u0f7a\u0f53\u0f0d","name:sk":"S\u2019-\u010dchuan","name:sw":"Sichuan","name:sv":"Sichuan","name:bg":"\u0421\u044a\u0447\u0443\u0430\u043d","name:sr":"\u0421\u0438\u0447\u0443\u0430\u043d","osm_relation":true,"name:ga":"Sichuan","name:bn":"\u09b8\u09bf\u099b\u09c1\u09af\u09bc\u09be\u09a8","name:gl":"Sichuan","name:gv":"Sichuan","name:fi":"Sichuan"},"arcs":[3]}]},"roads":{"type":"GeometryCollection","geometries":[{"type":"LineString","properties":{"source":"openstreetmap.org","kind":"major_road","sort_rank":380,"kind_detail":"primary","ref":"S109","min_zoom":8.0,"id":538524734},"arcs":[129]},{"type":"LineString","properties":{"source":"openstreetmap.org","kind":"major_road","sort_rank":380,"kind_detail":"primary","ref":"X297","min_zoom":8.0,"id":200962433},"arcs":[130]},{"type":"MultiLineString","properties":{"source":"openstreetmap.org","kind":"major_road","sort_rank":380,"kind_detail":"primary","ref":"S203 X152","min_zoom":8.0},"arcs":[[131],[132],[133]]},{"type":"MultiLineString","properties":{"source":"openstreetmap.org","kind":"major_road","name:en":"Star Light Avenue","landuse_kind":"urban_area","sort_rank":380,"kind_detail":"primary","min_zoom":8.0},"arcs":[[134],[135]]},{"type":"LineString","properties":{"source":"openstreetmap.org","kind":"major_road","sort_rank":380,"kind_detail":"primary","ref":"S415","min_zoom":8.0,"id":313430345},"arcs":[136]},{"type":"LineString","properties":{"kind":"major_road","name:en":"Caiyuan road","sort_rank":380,"landuse_kind":"urban_area","source":"openstreetmap.org","min_zoom":8.0,"kind_detail":"primary","id":176684542},"arcs":[137]},{"type":"MultiLineString","properties":{"source":"openstreetmap.org","kind":"major_road","kind_detail":"trunk","sort_rank":381,"landuse_kind":"urban_area","ref":"G318","min_zoom":8.0},"arcs":[[138],[139],[140]]},{"type":"MultiLineString","properties":{"source":"openstreetmap.org","kind":"highway","landuse_kind":"urban_area","sort_rank":383,"kind_detail":"motorway","ref":"G210","min_zoom":8.0},"arcs":[[141],[142],[143],[144],[145],[146],[147],[148]]},{"type":"MultiLineString","properties":{"kind":"major_road","network":"CN-roads","sort_rank":380,"kind_detail":"primary","source":"openstreetmap.org","min_zoom":8.0,"shield_text":"319","ref":"G319"},"arcs":[[149],[150]]},{"type":"LineString","properties":{"source":"openstreetmap.org","kind":"major_road","sort_rank":381,"kind_detail":"trunk","ref":"G50S","min_zoom":8.0},"arcs":[151]},{"type":"MultiLineString","properties":{"source":"openstreetmap.org","kind":"major_road","sort_rank":380,"kind_detail":"primary","ref":"S101","min_zoom":8.0},"arcs":[[152],[153],[154],[155],[156],[157],[158]]},{"type":"MultiLineString","properties":{"source":"openstreetmap.org","kind":"highway","name:en":"Suiguang Expressway","sort_rank":383,"kind_detail":"motorway","ref":"S18","min_zoom":8.0},"arcs":[[159],[160]]},{"type":"LineString","properties":{"source":"openstreetmap.org","kind":"major_road","name:en":"Xuecheng Avenue","sort_rank":380,"kind_detail":"primary","min_zoom":8.0},"arcs":[161]},{"type":"LineString","properties":{"sort_rank":355,"landuse_kind":"urban_area","min_zoom":8.0,"kind":"ferry","source":"openstreetmap.org"},"arcs":[162]},{"type":"LineString","properties":{"source":"openstreetmap.org","kind":"major_road","name:en":"South Mountain Tunnel","sort_rank":381,"kind_detail":"trunk","min_zoom":8.0,"id":412586970},"arcs":[163]},{"type":"MultiLineString","properties":{"kind":"major_road","name:en":"Chaoyang Arch Bridge","sort_rank":380,"kind_detail":"primary","name:de":"Chaoyang-Bogenbr\u00fccke","source":"openstreetmap.org","min_zoom":8.0,"landuse_kind":"urban_area"},"arcs":[[164],[165]]},{"type":"LineString","properties":{"kind":"major_road","name:en":"Caiyuan rd","sort_rank":380,"landuse_kind":"urban_area","source":"openstreetmap.org","min_zoom":8.0,"kind_detail":"primary","id":176821529},"arcs":[166]},{"type":"MultiLineString","properties":{"source":"openstreetmap.org","kind":"major_road","name:en":"Nanbin Road (South Bank Road)","landuse_kind":"urban_area","sort_rank":380,"kind_detail":"primary","min_zoom":8.0},"arcs":[[167],[168],[169],[170]]},{"type":"MultiLineString","properties":{"kind":"highway","name:en":"Yuyi Expressway","network":"CN-expressways","sort_rank":383,"landuse_kind":"urban_area","source":"openstreetmap.org","min_zoom":8.0,"all_networks":["CN-expressways","CN-expressways"],"kind_detail":"motorway","shield_text":"50","ref":"G50 G65","all_shield_texts":["50","65"]},"arcs":[[171],[172]]},{"type":"LineString","properties":{"source":"openstreetmap.org","kind":"major_road","sort_rank":380,"kind_detail":"primary","ref":"S307","min_zoom":8.0},"arcs":[173]},{"type":"MultiLineString","properties":{"source":"openstreetmap.org","kind":"major_road","name:en":"Hai'er Road","landuse_kind":"urban_area","sort_rank":380,"kind_detail":"primary","min_zoom":8.0},"arcs":[[174],[175]]},{"type":"LineString","properties":{"source":"openstreetmap.org","kind":"major_road","name:en":"Danzishi New St","landuse_kind":"urban_area","sort_rank":380,"kind_detail":"primary","min_zoom":8.0},"arcs":[176]},{"type":"MultiLineString","properties":{"source":"openstreetmap.org","kind":"major_road","name:en":"Changjiang 2st Rd","landuse_kind":"urban_area","sort_rank":380,"kind_detail":"primary","min_zoom":8.0},"arcs":[[177],[178]]},{"type":"MultiLineString","properties":{"sort_rank":383,"kind_detail":"motorway","min_zoom":8.0,"kind":"highway","source":"openstreetmap.org"},"arcs":[[179],[180],[181],[182],[183],[184],[185],[186],[187],[188],[189],[190],[191],[192],[193],[194],[195],[196],[197],[198],[199],[200],[201],[202],[203],[204],[205],[206],[207],[208],[209],[210],[211],[212],[213],[214],[215],[216],[217],[218],[219],[220],[221],[222],[223],[224],[225],[226],[227],[228],[229],[230],[231],[232]]},{"type":"LineString","properties":{"kind":"major_road","name:en":"Yu'ao Bridge","sort_rank":381,"landuse_kind":"urban_area","source":"openstreetmap.org","min_zoom":8.0,"kind_detail":"trunk","id":49773295},"arcs":[233]},{"type":"MultiLineString","properties":{"source":"openstreetmap.org","kind":"major_road","sort_rank":380,"kind_detail":"primary","ref":"205\u7701\u9053","min_zoom":8.0},"arcs":[[234],[235]]},{"type":"MultiLineString","properties":{"kind":"major_road","network":"CN-roads","sort_rank":380,"kind_detail":"primary","source":"openstreetmap.org","min_zoom":8.0,"landuse_kind":"urban_area","shield_text":"212","ref":"S207"},"arcs":[[236],[237]]},{"type":"LineString","properties":{"source":"openstreetmap.org","kind":"major_road","sort_rank":380,"kind_detail":"primary","ref":"S413","min_zoom":8.0},"arcs":[238]},{"type":"MultiLineString","properties":{"source":"openstreetmap.org","kind":"major_road","sort_rank":381,"kind_detail":"trunk","ref":"G318","min_zoom":8.0},"arcs":[[239],[240],[241],[242],[243],[244],[245],[246]]},{"type":"MultiLineString","properties":{"kind":"highway","name:en":"Yuyi Expressway","network":"CN-expressways","sort_rank":383,"kind_detail":"motorway","source":"openstreetmap.org","min_zoom":8.0,"all_networks":["CN-expressways"],"shield_text":"50","ref":"G50","all_shield_texts":["50"]},"arcs":[[247],[248],[249],[250],[251],[252]]},{"type":"MultiLineString","properties":{"kind":"major_road","network":"CN-roads","sort_rank":380,"kind_detail":"primary","source":"openstreetmap.org","min_zoom":8.0,"landuse_kind":"urban_area","shield_text":"319","ref":"G319"},"arcs":[[253],[254]]},{"type":"MultiLineString","properties":{"source":"openstreetmap.org","kind":"highway","sort_rank":383,"kind_detail":"motorway","ref":"G5013","min_zoom":8.0},"arcs":[[255],[256],[257],[258],[259],[260],[261],[262]]},{"type":"MultiLineString","properties":{"source":"openstreetmap.org","kind":"major_road","sort_rank":380,"kind_detail":"primary","ref":"X297; S204","min_zoom":8.0},"arcs":[[263],[264],[265]]},{"type":"LineString","properties":{"kind":"major_road","network":"CN-roads","sort_rank":380,"kind_detail":"primary","source":"openstreetmap.org","min_zoom":8.0,"landuse_kind":"urban_area","shield_text":"319","ref":"S107","id":103279765},"arcs":[266]},{"type":"MultiLineString","properties":{"source":"openstreetmap.org","kind":"major_road","sort_rank":380,"kind_detail":"primary","ref":"S207","min_zoom":8.0},"arcs":[[267],[268],[269],[270],[271],[272],[273]]},{"type":"MultiLineString","properties":{"source":"openstreetmap.org","kind":"highway","sort_rank":383,"kind_detail":"motorway","ref":"S17","min_zoom":8.0},"arcs":[[274],[275]]},{"type":"MultiLineString","properties":{"sort_rank":381,"source":"openstreetmap.org","min_zoom":8.0,"kind":"major_road","kind_detail":"trunk"},"arcs":[[276],[277],[278],[279],[280],[281],[282],[283],[284],[285],[286],[287],[288],[289],[290],[291],[292],[293],[294],[295],[296],[297],[298],[299],[300],[301],[302],[303],[304],[305],[306],[307],[308],[309],[310],[311],[312],[313],[314],[315],[316],[317],[318],[319],[320],[321],[322],[323],[324],[325],[326],[327],[328],[329],[330],[331],[332],[333],[334]]},{"type":"LineString","properties":{"kind":"major_road","name:en":"Xinnan Road","sort_rank":380,"landuse_kind":"urban_area","source":"openstreetmap.org","min_zoom":8.0,"kind_detail":"primary","id":137963483},"arcs":[335]},{"type":"MultiLineString","properties":{"source":"openstreetmap.org","kind":"major_road","sort_rank":380,"kind_detail":"primary","ref":"S203","min_zoom":8.0},"arcs":[[336],[337],[338],[339],[340]]},{"type":"MultiLineString","properties":{"source":"openstreetmap.org","kind":"major_road","name:en":"Changjiang 2nd Rd","landuse_kind":"urban_area","sort_rank":380,"kind_detail":"primary","min_zoom":8.0},"arcs":[[341],[342]]},{"type":"MultiLineString","properties":{"source":"openstreetmap.org","kind":"highway","landuse_kind":"urban_area","sort_rank":383,"kind_detail":"motorway","ref":"G65","min_zoom":8.0},"arcs":[[343],[344]]},{"type":"LineString","properties":{"kind":"major_road","name:en":"Changjiang 2nd Rd","sort_rank":380,"kind_detail":"primary","is_bicycle_related":true,"source":"openstreetmap.org","min_zoom":8.0,"landuse_kind":"urban_area","id":177522434},"arcs":[345]},{"type":"LineString","properties":{"kind":"major_road","name:en":"Shibanpo Yangtze River Bridge","sort_rank":381,"landuse_kind":"urban_area","source":"openstreetmap.org","min_zoom":8.0,"kind_detail":"trunk","id":49182296},"arcs":[346]},{"type":"MultiLineString","properties":{"source":"openstreetmap.org","kind":"major_road","name:en":"Tenglong Avenue","kind_detail":"primary","sort_rank":380,"landuse_kind":"urban_area","min_zoom":8.0},"arcs":[[347],[348]]},{"type":"MultiLineString","properties":{"kind":"highway","network":"CN-expressways","sort_rank":383,"kind_detail":"motorway","source":"openstreetmap.org","min_zoom":8.0,"all_networks":["CN-expressways"],"shield_text":"75","ref":"G75","all_shield_texts":["75"]},"arcs":[[349],[350],[351],[352],[353],[354],[355],[356],[357],[358],[359],[360],[361],[362]]},{"type":"MultiLineString","properties":{"source":"openstreetmap.org","kind":"major_road","sort_rank":380,"kind_detail":"primary","ref":"X297:S204","min_zoom":8.0},"arcs":[[363],[364]]},{"type":"LineString","properties":{"source":"openstreetmap.org","kind":"major_road","kind_detail":"trunk","sort_rank":381,"landuse_kind":"urban_area","ref":"G505","min_zoom":8.0},"arcs":[365]},{"type":"MultiLineString","properties":{"kind":"major_road","network":"CN-roads","sort_rank":380,"kind_detail":"primary","source":"openstreetmap.org","min_zoom":8.0,"landuse_kind":"urban_area","shield_text":"312","ref":"S204"},"arcs":[[366],[367],[368]]},{"type":"MultiLineString","properties":{"source":"openstreetmap.org","kind":"major_road","landuse_kind":"residential","sort_rank":380,"kind_detail":"primary","ref":"S205","min_zoom":8.0},"arcs":[[369],[370],[371],[372],[373],[374],[375],[376],[377],[378]]},{"type":"MultiLineString","properties":{"source":"openstreetmap.org","kind":"major_road","landuse_kind":"urban_area","sort_rank":380,"kind_detail":"primary","min_zoom":8.0},"arcs":[[379],[380],[381],[382],[383],[384],[385],[386],[387],[388],[389],[390],[391],[392],[393],[394],[395],[396],[397],[398],[399],[400],[401],[402],[403],[404],[405],[406],[407],[408],[409],[410],[411],[412],[413],[414],[415],[416],[417],[418],[419],[420],[421],[422],[423],[424],[425],[426],[427],[428],[429],[430],[431],[432],[433],[434],[435],[436],[437],[438],[439],[440],[441],[442],[443],[444],[445],[446],[447],[448],[449],[450],[451],[452],[453],[454],[455],[456],[457],[458],[459],[460],[461],[462],[463],[464],[465],[466],[467],[468],[469],[470],[471],[472],[473],[474],[475],[476],[477],[478],[479],[480],[481],[482],[483],[484],[485],[486],[487],[488],[489],[490],[491],[492],[493],[494],[495],[496],[497],[498],[499],[500],[501],[502],[503],[504],[505],[506],[507],[508],[509],[510],[511],[512],[513],[514],[515],[516],[517],[518],[519],[520],[521],[522],[523],[524],[525],[526],[527],[528],[529],[530],[531],[532],[533],[534],[535],[536],[537],[538],[539],[540],[541],[542],[543],[544],[545],[546],[547],[548],[549],[550],[551],[552],[553],[554],[555],[556],[557],[558],[559],[560],[561],[562],[563],[564],[565],[566],[567],[568],[569],[570],[571],[572],[573],[574],[575],[576],[577],[578],[579],[580],[581],[582],[583],[584],[585],[586],[587],[588],[589],[590],[591],[592],[593],[594],[595],[596],[597],[598],[599],[600],[601],[602],[603],[604],[605],[606],[607],[608],[609],[610],[611],[612],[613],[614],[615],[616],[617],[618],[619],[620],[621],[622],[623],[624],[625],[626],[627],[628],[629],[630],[631],[632],[633],[634],[635],[636],[637],[638],[639],[640],[641],[642],[643],[644],[645],[646],[647],[648],[649],[650],[651],[652],[653],[654],[655],[656],[657],[658],[659],[660],[661],[662],[663],[664],[665],[666],[667],[668],[669],[670],[671],[672],[673],[674],[675],[676],[677],[678],[679],[680],[681],[682],[683],[684],[685],[686],[687],[688],[689],[690],[691],[692],[693],[694],[695],[696],[697],[698],[699],[700],[701],[702],[703],[704],[705],[706],[707],[708],[709],[710],[711],[712],[713],[714],[715],[716],[717],[718],[719],[720],[721],[722],[723],[724],[725],[726],[727],[728],[729],[730],[731],[732],[733],[734],[735],[736],[737],[738],[739],[740],[741],[742],[743],[744],[745],[746],[747],[748],[749],[750],[751],[752],[753],[754],[755],[756],[757],[758],[759],[760],[761],[762],[763],[764],[765],[766],[767],[768],[769],[770],[771],[772],[773],[774],[775],[776],[777],[778],[779],[780],[781],[782],[783],[784],[785],[786],[787],[788],[789],[790],[791],[792],[793],[794],[795],[796],[797],[798],[799],[800],[801],[802],[803],[804],[805],[806],[807],[808],[809],[810]]},{"type":"LineString","properties":{"source":"openstreetmap.org","kind":"major_road","name:en":"University Town East Road","sort_rank":380,"kind_detail":"primary","min_zoom":8.0,"id":140035803},"arcs":[811]},{"type":"MultiLineString","properties":{"kind":"highway","network":"CN-expressways","sort_rank":383,"landuse_kind":"urban_area","source":"openstreetmap.org","min_zoom":8.0,"all_networks":["CN-expressways"],"kind_detail":"motorway","shield_text":"93","ref":"G93","all_shield_texts":["93"]},"arcs":[[812],[813]]},{"type":"MultiLineString","properties":{"source":"openstreetmap.org","kind":"highway","landuse_kind":"urban_area","sort_rank":383,"kind_detail":"motorway","min_zoom":8.0},"arcs":[[814],[815],[816],[817],[818]]},{"type":"MultiLineString","properties":{"source":"openstreetmap.org","kind":"major_road","sort_rank":380,"kind_detail":"primary","ref":"S304","min_zoom":8.0},"arcs":[[819],[820],[821],[822],[823],[824],[825]]},{"type":"MultiLineString","properties":{"kind":"major_road","name:en":"Tianchen Road","sort_rank":380,"kind_detail":"primary","source":"openstreetmap.org","min_zoom":8.0,"landuse_kind":"urban_area","name:zh":"\u5929\u9648\u8def"},"arcs":[[826],[827]]},{"type":"MultiLineString","properties":{"source":"openstreetmap.org","kind":"major_road","name:en":"Tushan Rd","kind_detail":"primary","sort_rank":380,"landuse_kind":"urban_area","min_zoom":8.0},"arcs":[[828],[829],[830],[831]]},{"type":"MultiLineString","properties":{"kind":"major_road","network":"CN-roads","sort_rank":381,"kind_detail":"trunk","source":"openstreetmap.org","min_zoom":8.0,"shield_text":"312","ref":"G212"},"arcs":[[832],[833],[834]]},{"type":"MultiLineString","properties":{"kind":"highway","network":"CN-expressways","sort_rank":383,"kind_detail":"motorway","source":"openstreetmap.org","min_zoom":8.0,"all_networks":["CN-expressways"],"shield_text":"93","all_shield_texts":["93"]},"arcs":[[835],[836],[837],[838],[839],[840],[841],[842]]},{"type":"MultiLineString","properties":{"kind":"major_road","name:en":"East Shapingba Station Road","sort_rank":380,"kind_detail":"primary","source":"openstreetmap.org","min_zoom":8.0,"landuse_kind":"urban_area","name:zh":"\u6c99\u576a\u575d\u7ad9\u4e1c\u8def"},"arcs":[[843],[844]]},{"type":"MultiLineString","properties":{"source":"openstreetmap.org","kind":"major_road","landuse_kind":"urban_area","sort_rank":380,"kind_detail":"primary","ref":"S207","min_zoom":8.0},"arcs":[[845],[846],[847],[848],[849]]},{"type":"LineString","properties":{"kind":"major_road","name:en":"Zhongshan 3rd Road","sort_rank":380,"kind_detail":"primary","source":"openstreetmap.org","min_zoom":8.0,"landuse_kind":"urban_area","name:zh":"\u4e2d\u5c71\u4e09\u8def","id":59161373},"arcs":[850]},{"type":"MultiLineString","properties":{"kind":"highway","network":"CN-expressways","sort_rank":383,"kind_detail":"motorway","source":"openstreetmap.org","min_zoom":8.0,"all_networks":["CN-expressways"],"shield_text":"5001","ref":"G5001","all_shield_texts":["5001"]},"arcs":[[851],[852],[853],[854],[855],[856]]},{"type":"MultiLineString","properties":{"source":"openstreetmap.org","kind":"major_road","name:en":"South Mountain Tunnel","kind_detail":"trunk","sort_rank":381,"landuse_kind":"urban_area","min_zoom":8.0},"arcs":[[857],[858]]},{"type":"MultiLineString","properties":{"source":"openstreetmap.org","kind":"major_road","landuse_kind":"residential","sort_rank":380,"kind_detail":"primary","ref":"G318","min_zoom":8.0},"arcs":[[859],[860]]},{"type":"LineString","properties":{"kind":"major_road","network":"CN-roads","sort_rank":381,"kind_detail":"trunk","source":"openstreetmap.org","min_zoom":8.0,"landuse_kind":"aerodrome","shield_text":"319","ref":"G319","id":400997477},"arcs":[861]},{"type":"MultiLineString","properties":{"kind":"highway","network":"CN-expressways","sort_rank":383,"landuse_kind":"urban_area","source":"openstreetmap.org","min_zoom":8.0,"all_networks":["CN-expressways"],"kind_detail":"motorway","shield_text":"65","ref":"G65","all_shield_texts":["65"]},"arcs":[[862],[863],[864],[865],[866]]},{"type":"MultiLineString","properties":{"source":"openstreetmap.org","kind":"major_road","name:en":"Caiyuan Rd","landuse_kind":"urban_area","sort_rank":380,"kind_detail":"primary","min_zoom":8.0},"arcs":[[867],[868],[869],[870],[871],[872],[873]]},{"type":"LineString","properties":{"source":"openstreetmap.org","kind":"major_road","sort_rank":380,"kind_detail":"primary","ref":"S207; X383","min_zoom":8.0},"arcs":[874]},{"type":"MultiLineString","properties":{"source":"openstreetmap.org","kind":"major_road","name:en":"Xiangyang Tunnel","kind_detail":"trunk","sort_rank":381,"landuse_kind":"urban_area","min_zoom":8.0},"arcs":[[875],[876]]},{"type":"MultiLineString","properties":{"source":"openstreetmap.org","kind":"highway","kind_detail":"motorway","sort_rank":383,"landuse_kind":"aerodrome","min_zoom":8.0},"arcs":[[877],[878],[879]]},{"type":"MultiLineString","properties":{"source":"openstreetmap.org","kind":"highway","sort_rank":383,"kind_detail":"motorway","ref":"G85","min_zoom":8.0},"arcs":[[880],[881],[882]]},{"type":"MultiLineString","properties":{"source":"openstreetmap.org","kind":"major_road","name:en":"Rocky Gate Bridge of Jialing River","landuse_kind":"urban_area","sort_rank":380,"kind_detail":"primary","min_zoom":8.0},"arcs":[[883],[884]]},{"type":"MultiLineString","properties":{"kind":"highway","network":"CN-expressways","sort_rank":383,"landuse_kind":"urban_area","source":"openstreetmap.org","min_zoom":8.0,"all_networks":["CN-expressways"],"kind_detail":"motorway","shield_text":"50","ref":"G50","all_shield_texts":["50"]},"arcs":[[885],[886]]},{"type":"LineString","properties":{"source":"openstreetmap.org","kind":"highway","sort_rank":383,"kind_detail":"motorway","ref":"S40","min_zoom":8.0},"arcs":[887]},{"type":"MultiLineString","properties":{"source":"openstreetmap.org","kind":"major_road","sort_rank":380,"kind_detail":"primary","ref":"S204","min_zoom":8.0},"arcs":[[888],[889],[890],[891],[892],[893],[894],[895],[896],[897],[898],[899],[900],[901],[902]]},{"type":"MultiLineString","properties":{"source":"openstreetmap.org","kind":"major_road","landuse_kind":"urban_area","sort_rank":380,"kind_detail":"primary","ref":"S204","min_zoom":8.0},"arcs":[[903],[904],[905],[906],[907],[908],[909],[910]]},{"type":"MultiLineString","properties":{"kind":"major_road","network":"CN-roads","sort_rank":381,"landuse_kind":"urban_area","source":"openstreetmap.org","min_zoom":8.0,"kind_detail":"trunk","shield_text":"312","ref":"G212"},"arcs":[[911],[912],[913],[914],[915]]},{"type":"LineString","properties":{"kind":"major_road","name:en":"Shibanpo-Huanghuayuan Tunnel","sort_rank":381,"landuse_kind":"urban_area","source":"openstreetmap.org","min_zoom":8.0,"kind_detail":"trunk","id":49182267},"arcs":[916]},{"type":"LineString","properties":{"kind":"major_road","sort_rank":381,"landuse_kind":"residential","source":"openstreetmap.org","min_zoom":8.0,"kind_detail":"trunk","ref":"G318","id":530289681},"arcs":[917]},{"type":"MultiLineString","properties":{"source":"openstreetmap.org","kind":"major_road","landuse_kind":"residential","sort_rank":380,"kind_detail":"primary","ref":"S309","min_zoom":8.0},"arcs":[[918],[919],[920]]},{"type":"MultiLineString","properties":{"sort_rank":380,"kind_detail":"primary","min_zoom":8.0,"kind":"major_road","source":"openstreetmap.org"},"arcs":[[921],[922],[923],[924],[925],[926],[927],[928],[929],[930],[931],[932],[933],[934],[935],[936],[937],[938],[939],[940],[941],[942],[943],[944],[945],[946],[947],[948],[949],[950],[951],[952],[953],[954],[955],[956],[957],[958],[959],[960],[961],[962],[963],[964],[965],[966],[967],[968],[969],[970],[971],[972],[973],[974],[975],[976],[977],[978],[979],[980],[981],[982],[983],[984],[985],[986],[987],[988],[989],[990],[991],[992],[993],[994],[995],[996],[997],[998],[999],[1000],[1001],[1002],[1003],[1004],[1005],[1006],[1007],[1008],[1009],[1010],[1011],[1012],[1013],[1014],[1015],[1016],[1017],[1018],[1019],[1020],[1021],[1022],[1023],[1024],[1025],[1026],[1027],[1028],[1029],[1030],[1031],[1032],[1033],[1034],[1035],[1036],[1037],[1038],[1039],[1040],[1041],[1042],[1043],[1044],[1045],[1046],[1047],[1048],[1049],[1050],[1051],[1052],[1053],[1054],[1055],[1056],[1057],[1058],[1059],[1060],[1061],[1062],[1063],[1064],[1065],[1066],[1067],[1068],[1069],[1070],[1071],[1072],[1073],[1074],[1075],[1076],[1077],[1078],[1079],[1080],[1081],[1082],[1083],[1084],[1085],[1086],[1087],[1088],[1089],[1090],[1091],[1092],[1093],[1094],[1095],[1096],[1097],[1098],[1099],[1100],[1101],[1102],[1103],[1104],[1105],[1106],[1107],[1108],[1109],[1110],[1111],[1112],[1113],[1114],[1115],[1116],[1117],[1118],[1119],[1120],[1121],[1122],[1123],[1124],[1125],[1126],[1127],[1128],[1129],[1130],[1131],[1132],[1133],[1134],[1135],[1136],[1137],[1138],[1139],[1140],[1141],[1142],[1143],[1144],[1145],[1146],[1147],[1148],[1149],[1150],[1151],[1152],[1153],[1154],[1155],[1156],[1157],[1158],[1159],[1160],[1161],[1162],[1163],[1164],[1165],[1166],[1167],[1168],[1169],[1170],[1171],[1172],[1173],[1174],[1175],[1176],[1177],[1178],[1179],[1180],[1181],[1182],[1183],[1184],[1185],[1186],[1187],[1188],[1189],[1190],[1191],[1192],[1193],[1194],[1195],[1196],[1197],[1198],[1199],[1200],[1201],[1202],[1203],[1204],[1205],[1206],[1207],[1208],[1209],[1210],[1211],[1212],[1213],[1214],[1215],[1216],[1217],[1218],[1219],[1220],[1221],[1222],[1223],[1224],[1225],[1226],[1227],[1228],[1229],[1230],[1231],[1232],[1233],[1234],[1235],[1236],[1237],[1238],[1239],[1240],[1241],[1242],[1243],[1244],[1245],[1246],[1247],[1248],[1249],[1250],[1251],[1252],[1253],[1254],[1255],[1256],[1257],[1258],[1259],[1260],[1261],[1262],[1263],[1264],[1265],[1266],[1267],[1268],[1269],[1270],[1271],[1272],[1273],[1274],[1275],[1276],[1277],[1278],[1279],[1280],[1281],[1282],[1283],[1284],[1285],[1286],[1287],[1288],[1289],[1290],[1291],[1292],[1293],[1294],[1295],[1296],[1297],[1298],[1299],[1300],[1301],[1302],[1303],[1304],[1305],[1306],[1307],[1308],[1309],[1310],[1311],[1312],[1313],[1314],[1315],[1316],[1317]]},{"type":"MultiLineString","properties":{"kind":"major_road","network":"CN-roads","sort_rank":381,"kind_detail":"trunk","source":"openstreetmap.org","min_zoom":8.0,"shield_text":"319","ref":"G319"},"arcs":[[1318],[1319],[1320],[1321],[1322],[1323],[1324],[1325],[1326],[1327],[1328]]},{"type":"LineString","properties":{"kind":"major_road","name:en":"Changjiang 1st Rd","sort_rank":380,"kind_detail":"primary","is_bicycle_related":true,"source":"openstreetmap.org","min_zoom":8.0,"landuse_kind":"urban_area","id":240502366},"arcs":[1329]},{"type":"LineString","properties":{"kind":"major_road","name:en":"Lianglukou Ring Rd","sort_rank":380,"landuse_kind":"urban_area","source":"openstreetmap.org","min_zoom":8.0,"kind_detail":"primary","id":176482870},"arcs":[1330]},{"type":"LineString","properties":{"source":"openstreetmap.org","kind":"major_road","name:en":"Xiyong Avenue","sort_rank":380,"kind_detail":"primary","min_zoom":8.0,"id":140037852},"arcs":[1331]},{"type":"LineString","properties":{"source":"openstreetmap.org","kind":"major_road","name:en":"University Town North Road","sort_rank":380,"kind_detail":"primary","min_zoom":8.0,"id":412522310},"arcs":[1332]},{"type":"MultiLineString","properties":{"source":"openstreetmap.org","kind":"major_road","name:en":"Changjiang 1st Rd","landuse_kind":"urban_area","sort_rank":380,"kind_detail":"primary","min_zoom":8.0},"arcs":[[1333],[1334]]},{"type":"LineString","properties":{"source":"openstreetmap.org","kind":"major_road","sort_rank":380,"kind_detail":"primary","ref":"S310","min_zoom":8.0},"arcs":[1335]},{"type":"LineString","properties":{"kind":"major_road","name:en":"Eling Tunnel","sort_rank":380,"landuse_kind":"urban_area","source":"openstreetmap.org","min_zoom":8.0,"kind_detail":"primary","id":245075532},"arcs":[1336]},{"type":"LineString","properties":{"kind":"major_road","network":"CN-roads","sort_rank":380,"kind_detail":"primary","source":"openstreetmap.org","min_zoom":8.0,"landuse_kind":"urban_area","shield_text":"312","id":307985706},"arcs":[1337]},{"type":"MultiLineString","properties":{"source":"openstreetmap.org","kind":"major_road","sort_rank":381,"kind_detail":"trunk","ref":"G212","min_zoom":8.0},"arcs":[[1338],[1339],[1340],[1341],[1342],[1343]]},{"type":"MultiLineString","properties":{"kind":"major_road","network":"CN-roads","sort_rank":380,"kind_detail":"primary","source":"openstreetmap.org","min_zoom":8.0,"shield_text":"312","ref":"S204"},"arcs":[[1344],[1345],[1346],[1347],[1348],[1349],[1350],[1351],[1352],[1353],[1354]]},{"type":"MultiLineString","properties":{"source":"openstreetmap.org","kind":"major_road","name:en":"Huangshaxi Tunnel","landuse_kind":"urban_area","sort_rank":380,"kind_detail":"primary","min_zoom":8.0},"arcs":[[1355],[1356]]},{"type":"MultiLineString","properties":{"source":"openstreetmap.org","kind":"major_road","landuse_kind":"urban_area","sort_rank":380,"kind_detail":"primary","ref":"G318","min_zoom":8.0},"arcs":[[1357],[1358],[1359],[1360]]},{"type":"MultiLineString","properties":{"source":"openstreetmap.org","kind":"major_road","kind_detail":"trunk","sort_rank":381,"landuse_kind":"urban_area","min_zoom":8.0},"arcs":[[1361],[1362],[1363],[1364],[1365],[1366],[1367],[1368],[1369],[1370],[1371],[1372],[1373],[1374],[1375],[1376],[1377],[1378],[1379],[1380],[1381],[1382],[1383],[1384],[1385],[1386],[1387],[1388],[1389],[1390],[1391],[1392],[1393],[1394],[1395],[1396],[1397],[1398],[1399],[1400],[1401],[1402],[1403],[1404],[1405],[1406],[1407],[1408],[1409],[1410],[1411]]},{"type":"MultiLineString","properties":{"source":"openstreetmap.org","kind":"major_road","name:en":"Jiahua Tunnel","kind_detail":"trunk","sort_rank":381,"landuse_kind":"urban_area","min_zoom":8.0},"arcs":[[1412],[1413]]},{"type":"MultiLineString","properties":{"source":"openstreetmap.org","kind":"highway","sort_rank":383,"kind_detail":"motorway","ref":"G93","min_zoom":8.0},"arcs":[[1414],[1415],[1416],[1417]]},{"type":"LineString","properties":{"source":"openstreetmap.org","kind":"highway","sort_rank":383,"kind_detail":"motorway","ref":"S11","min_zoom":8.0},"arcs":[1418]},{"type":"LineString","properties":{"kind":"major_road","network":"CN-roads","sort_rank":381,"kind_detail":"trunk","source":"openstreetmap.org","min_zoom":8.0,"shield_text":"318","ref":"G318"},"arcs":[1419]},{"type":"LineString","properties":{"kind":"major_road","name:en":"Xinfeng Avenue","sort_rank":380,"kind_detail":"primary","is_bicycle_related":true,"cycleway":"lane","source":"openstreetmap.org","min_zoom":8.0,"id":140036132},"arcs":[1420]},{"type":"MultiLineString","properties":{"source":"openstreetmap.org","kind":"major_road","landuse_kind":"urban_area","sort_rank":380,"kind_detail":"primary","ref":"S304","min_zoom":8.0},"arcs":[[1421],[1422],[1423],[1424]]},{"type":"MultiLineString","properties":{"kind":"major_road","network":"CN-roads","sort_rank":381,"kind_detail":"trunk","source":"openstreetmap.org","min_zoom":8.0,"shield_text":"212","ref":"G212"},"arcs":[[1425],[1426],[1427]]},{"type":"MultiLineString","properties":{"kind":"highway","name:en":"Yuyi Expressway","network":"CN-expressways","sort_rank":383,"landuse_kind":"urban_area","source":"openstreetmap.org","min_zoom":8.0,"all_networks":["CN-expressways"],"kind_detail":"motorway","shield_text":"50","ref":"G50","all_shield_texts":["50"]},"arcs":[[1428],[1429]]},{"type":"LineString","properties":{"source":"openstreetmap.org","kind":"major_road","name:en":"University Town South Road","sort_rank":380,"kind_detail":"primary","min_zoom":8.0},"arcs":[1430]},{"type":"MultiLineString","properties":{"source":"openstreetmap.org","kind":"major_road","sort_rank":380,"kind_detail":"primary","ref":"S204;S416","min_zoom":8.0},"arcs":[[1431],[1432],[1433]]},{"type":"MultiLineString","properties":{"kind":"highway","network":"CN-expressways","sort_rank":383,"landuse_kind":"urban_area","source":"openstreetmap.org","min_zoom":8.0,"all_networks":["CN-expressways"],"kind_detail":"motorway","shield_text":"75","all_shield_texts":["75"]},"arcs":[[1434],[1435]]},{"type":"MultiLineString","properties":{"source":"openstreetmap.org","kind":"highway","sort_rank":383,"kind_detail":"motorway","ref":"G65","min_zoom":8.0},"arcs":[[1436],[1437]]},{"type":"LineString","properties":{"kind":"major_road","name:en":"Chendong Road","network":"CN-roads","sort_rank":381,"kind_detail":"trunk","source":"openstreetmap.org","min_zoom":8.0,"shield_text":"319","ref":"G319","id":103279689},"arcs":[1438]},{"type":"LineString","properties":{"kind":"major_road","sort_rank":380,"landuse_kind":"residential","source":"openstreetmap.org","min_zoom":8.0,"kind_detail":"primary","ref":"S310","id":145259163},"arcs":[1439]},{"type":"MultiLineString","properties":{"source":"openstreetmap.org","kind":"major_road","landuse_kind":"residential","sort_rank":380,"kind_detail":"primary","min_zoom":8.0},"arcs":[[1440],[1441],[1442],[1443],[1444],[1445],[1446],[1447],[1448],[1449],[1450],[1451],[1452],[1453],[1454],[1455],[1456],[1457],[1458],[1459],[1460],[1461],[1462],[1463],[1464],[1465],[1466],[1467],[1468],[1469],[1470],[1471],[1472],[1473],[1474],[1475],[1476],[1477],[1478],[1479],[1480],[1481],[1482],[1483],[1484]]},{"type":"LineString","properties":{"source":"openstreetmap.org","kind":"highway","sort_rank":383,"kind_detail":"motorway","ref":"G505","min_zoom":8.0},"arcs":[1485]},{"type":"MultiLineString","properties":{"source":"openstreetmap.org","kind":"major_road","sort_rank":380,"kind_detail":"primary","ref":"S205","min_zoom":8.0},"arcs":[[1486],[1487],[1488],[1489],[1490],[1491],[1492],[1493],[1494],[1495],[1496]]},{"type":"MultiLineString","properties":{"kind":"highway","network":"CN-expressways","sort_rank":383,"kind_detail":"motorway","source":"openstreetmap.org","min_zoom":8.0,"all_networks":["CN-expressways"],"shield_text":"65","ref":"G65","all_shield_texts":["65"]},"arcs":[[1497],[1498],[1499],[1500],[1501],[1502],[1503],[1504]]},{"type":"MultiLineString","properties":{"kind":"highway","network":"CN-expressways","sort_rank":383,"kind_detail":"motorway","source":"openstreetmap.org","min_zoom":8.0,"all_networks":["CN-expressways"],"shield_text":"42","ref":"G42","all_shield_texts":["42"]},"arcs":[[1505],[1506],[1507],[1508],[1509],[1510],[1511],[1512],[1513],[1514],[1515]]},{"type":"MultiLineString","properties":{"source":"openstreetmap.org","kind":"major_road","sort_rank":381,"kind_detail":"trunk","ref":"G210","min_zoom":8.0},"arcs":[[1516],[1517],[1518]]},{"type":"MultiLineString","properties":{"source":"openstreetmap.org","kind":"major_road","landuse_kind":"urban_area","sort_rank":380,"kind_detail":"primary","ref":"S205","min_zoom":8.0},"arcs":[[1519],[1520]]},{"type":"LineString","properties":{"kind":"major_road","name:en":"Huanghuayuan Bridge of Jialing River","sort_rank":381,"landuse_kind":"urban_area","source":"openstreetmap.org","min_zoom":8.0,"kind_detail":"trunk","id":39874499},"arcs":[1521]},{"type":"MultiLineString","properties":{"source":"openstreetmap.org","kind":"major_road","name:en":"Renmin Rd","kind_detail":"primary","sort_rank":380,"landuse_kind":"urban_area","min_zoom":8.0},"arcs":[[1522],[1523]]},{"type":"MultiLineString","properties":{"source":"openstreetmap.org","kind":"major_road","kind_detail":"trunk","sort_rank":381,"landuse_kind":"urban_area","ref":"S204","min_zoom":8.0},"arcs":[[1524],[1525]]},{"type":"MultiLineString","properties":{"source":"openstreetmap.org","kind":"major_road","sort_rank":380,"kind_detail":"primary","ref":"S208","min_zoom":8.0},"arcs":[[1526],[1527],[1528],[1529],[1530],[1531],[1532],[1533]]},{"type":"MultiLineString","properties":{"source":"openstreetmap.org","kind":"major_road","name:en":"Longjiawan Tunnel","landuse_kind":"urban_area","sort_rank":380,"kind_detail":"primary","min_zoom":8.0},"arcs":[[1534],[1535]]},{"type":"MultiLineString","properties":{"kind":"major_road","name:en":"Hongshi Road","sort_rank":380,"kind_detail":"primary","source":"openstreetmap.org","min_zoom":8.0,"landuse_kind":"urban_area","name:zh":"H\u00f3ngsh\u00edl\u00f9"},"arcs":[[1536],[1537]]},{"type":"LineString","properties":{"kind":"major_road","name:en":"Jialing River Bridge","sort_rank":381,"landuse_kind":"urban_area","source":"openstreetmap.org","min_zoom":8.0,"kind_detail":"trunk","id":40541141},"arcs":[1538]},{"type":"LineString","properties":{"kind":"major_road","network":"CN-roads","sort_rank":381,"kind_detail":"trunk","source":"openstreetmap.org","min_zoom":8.0,"landuse_kind":"urban_area","shield_text":"319","ref":"G319","id":533393355},"arcs":[1539]},{"type":"MultiLineString","properties":{"source":"openstreetmap.org","kind":"major_road","name:en":"University Town Mid Road","sort_rank":380,"kind_detail":"primary","min_zoom":8.0},"arcs":[[1540],[1541]]},{"type":"MultiLineString","properties":{"kind":"major_road","name:en":"China National Highway 318","network":"CN-roads","sort_rank":381,"kind_detail":"trunk","name:de":"Nationalstra\u00dfe 318","source":"openstreetmap.org","min_zoom":8.0,"shield_text":"318","name:ru":"\u0413\u043e\u0434\u0430\u043e 318","osm_relation":true},"arcs":[[1542],[1543]]},{"type":"MultiLineString","properties":{"kind":"major_road","network":"CN-roads","sort_rank":381,"landuse_kind":"urban_area","source":"openstreetmap.org","min_zoom":8.0,"kind_detail":"trunk","shield_text":"312","ref":"S204"},"arcs":[[1544],[1545]]},{"type":"LineString","properties":{"kind":"highway","name:en":"Gao's Garden Bridge of Jialing River","network":"CN-expressways","sort_rank":383,"kind_detail":"motorway","source":"openstreetmap.org","min_zoom":8.0,"all_networks":["CN-expressways"],"landuse_kind":"urban_area","shield_text":"75","ref":"G75","id":31261431,"all_shield_texts":["75"]},"arcs":[1546]},{"type":"LineString","properties":{"kind":"major_road","network":"CN-roads","sort_rank":381,"kind_detail":"trunk","source":"openstreetmap.org","min_zoom":8.0,"shield_text":"312","ref":"S204","id":533137408},"arcs":[1547]},{"type":"LineString","properties":{"source":"openstreetmap.org","kind":"major_road","kind_detail":"trunk","sort_rank":381,"landuse_kind":"urban_area","ref":"G50S","min_zoom":8.0},"arcs":[1548]},{"type":"MultiLineString","properties":{"source":"openstreetmap.org","kind":"highway","sort_rank":383,"kind_detail":"motorway","ref":"G210","min_zoom":8.0},"arcs":[[1549],[1550],[1551],[1552],[1553],[1554]]},{"type":"LineString","properties":{"source":"openstreetmap.org","kind":"major_road","sort_rank":380,"kind_detail":"primary","ref":"S103","min_zoom":8.0},"arcs":[1555]},{"type":"MultiLineString","properties":{"kind":"highway","network":"CN-expressways","sort_rank":383,"kind_detail":"motorway","source":"openstreetmap.org","min_zoom":8.0,"all_networks":["CN-expressways"],"shield_text":"93","ref":"S11","all_shield_texts":["93"]},"arcs":[[1556],[1557]]},{"type":"MultiLineString","properties":{"kind":"highway","network":"CN-expressways","sort_rank":383,"landuse_kind":"urban_area","source":"openstreetmap.org","min_zoom":8.0,"all_networks":["CN-expressways"],"kind_detail":"motorway","shield_text":"75","ref":"G75","all_shield_texts":["75"]},"arcs":[[1558],[1559],[1560],[1561],[1562],[1563],[1564],[1565],[1566],[1567]]},{"type":"MultiLineString","properties":{"source":"openstreetmap.org","kind":"major_road","sort_rank":380,"kind_detail":"primary","ref":"S108","min_zoom":8.0},"arcs":[[1568],[1569],[1570],[1571]]},{"type":"LineString","properties":{"kind":"highway","name:en":"Yuyi Expressway","network":"CN-expressways","sort_rank":383,"kind_detail":"motorway","source":"openstreetmap.org","min_zoom":8.0,"all_networks":["CN-expressways","CN-expressways"],"landuse_kind":"urban_area","shield_text":"50","ref":"G50","id":309829145,"all_shield_texts":["50","65"]},"arcs":[1572]},{"type":"MultiLineString","properties":{"source":"openstreetmap.org","kind":"highway","sort_rank":383,"kind_detail":"motorway","ref":"G50S","min_zoom":8.0},"arcs":[[1573],[1574]]},{"type":"MultiLineString","properties":{"source":"openstreetmap.org","kind":"highway","sort_rank":383,"kind_detail":"motorway","ref":"G42","min_zoom":8.0},"arcs":[[1575],[1576]]},{"type":"MultiLineString","properties":{"kind":"major_road","network":"CN-roads","sort_rank":380,"kind_detail":"primary","source":"openstreetmap.org","min_zoom":8.0,"landuse_kind":"urban_area","shield_text":"312","ref":"S207"},"arcs":[[1577],[1578],[1579]]},{"type":"MultiLineString","properties":{"source":"openstreetmap.org","kind":"major_road","landuse_kind":"residential","sort_rank":380,"kind_detail":"primary","ref":"205\u7701\u9053","min_zoom":8.0},"arcs":[[1580],[1581]]},{"type":"MultiLineString","properties":{"source":"openstreetmap.org","kind":"major_road","sort_rank":380,"kind_detail":"primary","ref":"S309","min_zoom":8.0},"arcs":[[1582],[1583],[1584]]},{"type":"LineString","properties":{"kind":"major_road","name:en":"Caiyuan Ba Bridge of Yangtze River","sort_rank":381,"landuse_kind":"urban_area","source":"openstreetmap.org","min_zoom":8.0,"kind_detail":"trunk","id":187934518},"arcs":[1585]},{"type":"MultiLineString","properties":{"kind":"highway","name:en":"Yuyi Expressway","network":"CN-expressways","sort_rank":383,"kind_detail":"motorway","source":"openstreetmap.org","min_zoom":8.0,"all_networks":["CN-expressways","CN-expressways"],"shield_text":"50","ref":"G50 G65","all_shield_texts":["50","65"]},"arcs":[[1586],[1587],[1588]]},{"type":"MultiLineString","properties":{"source":"openstreetmap.org","kind":"major_road","sort_rank":381,"kind_detail":"trunk","ref":"G319","min_zoom":8.0},"arcs":[[1589],[1590],[1591],[1592],[1593],[1594],[1595],[1596],[1597],[1598]]},{"type":"MultiLineString","properties":{"source":"openstreetmap.org","kind":"major_road","sort_rank":380,"kind_detail":"primary","ref":"G318","min_zoom":8.0},"arcs":[[1599],[1600],[1601],[1602],[1603]]},{"type":"MultiLineString","properties":{"source":"openstreetmap.org","kind":"major_road","sort_rank":380,"kind_detail":"primary","is_bicycle_related":true,"min_zoom":8.0},"arcs":[[1604],[1605],[1606],[1607]]},{"type":"LineString","properties":{"source":"openstreetmap.org","kind":"major_road","sort_rank":381,"kind_detail":"trunk","ref":"G505","min_zoom":8.0},"arcs":[1608]},{"type":"MultiLineString","properties":{"source":"openstreetmap.org","kind":"major_road","kind_detail":"trunk","sort_rank":381,"landuse_kind":"urban_area","ref":"G212","min_zoom":8.0},"arcs":[[1609],[1610],[1611],[1612],[1613],[1614]]},{"type":"LineString","properties":{"kind":"major_road","name:en":"Danzishi Ring Rd","sort_rank":380,"landuse_kind":"urban_area","source":"openstreetmap.org","min_zoom":8.0,"kind_detail":"primary","id":245075528},"arcs":[1615]},{"type":"MultiLineString","properties":{"source":"openstreetmap.org","kind":"major_road","sort_rank":380,"kind_detail":"primary","ref":"S107","min_zoom":8.0},"arcs":[[1616],[1617]]},{"type":"MultiLineString","properties":{"kind":"highway","network":"CN-expressways","sort_rank":383,"kind_detail":"motorway","source":"openstreetmap.org","min_zoom":8.0,"all_networks":["CN-expressways"],"shield_text":"93","ref":"G93","all_shield_texts":["93"]},"arcs":[[1618],[1619],[1620],[1621],[1622],[1623],[1624],[1625],[1626],[1627],[1628]]}]},"earth":{"type":"GeometryCollection","geometries":[{"type":"Polygon","properties":{"sort_rank":10,"source":"naturalearthdata.com","min_zoom":0.0,"kind":"earth","area":98022885885},"arcs":[[1629]]}]},"landuse":{"type":"GeometryCollection","geometries":[{"type":"Polygon","properties":{"kind":"residential","area":19507800,"sort_rank":20,"source":"openstreetmap.org","min_zoom":8.0,"tier":2,"id":-6956204,"osm_relation":true},"arcs":[[1630]]},{"type":"Polygon","properties":{"kind":"residential","name":"\u9f99\u6c34","area":12324000,"sort_rank":20,"source":"openstreetmap.org","min_zoom":8.0,"tier":2,"id":461068382},"arcs":[[1631]]},{"type":"MultiPolygon","properties":{"source":"naturalearthdata.com","kind":"urban_area","name":"","area":1833363473,"sort_rank":11,"min_zoom":4.0},"arcs":[[[1632]],[[1633]],[[1634]],[[1635]],[[1636]]]},{"type":"Polygon","properties":{"source":"openstreetmap.org","kind":"aerodrome","area":16637700,"tier":3,"id":103282476,"min_zoom":8.0,"sort_rank":60},"arcs":[[1637]]},{"type":"MultiPolygon","properties":{"source":"openstreetmap.org","kind":"residential","tier":2,"area":106533424,"sort_rank":20,"min_zoom":8.0},"arcs":[[[1638]]]}]}},"type":"Topology","transform":{"translate":[105.46875,29.5352295629],"scale":[0.0003433228,0.0002968868]},"arcs":[[[2075,2358],[-16,55],[-26,3],[32,74],[-29,46],[12,37],[-25,2],[13,31],[-110,20],[-5,39],[-22,5],[21,-80],[-49,55],[-26,-23],[-9,35],[-48,13],[9,67],[-31,-4],[-17,-35],[-11,29],[-27,-11],[-75,75],[-8,43],[-256,-2],[-72,72],[-62,-15],[-15,58],[-41,-72],[-43,82],[-51,-66],[-23,44],[23,28],[-62,83],[-100,-33],[12,-29],[-21,-32],[-36,3],[-46,-81],[29,-33],[-53,-60],[17,-41],[-70,-27],[-49,-101],[0,-54],[46,-67],[-7,-60],[-60,23],[-117,-6],[-83,49],[-54,0],[4,-110],[106,-113],[-45,-8],[0,-59],[-99,-30],[-57,15],[-25,-33],[-57,35],[-44,-12],[-30,-51],[-1,-42],[35,12],[-2,-33],[25,-8],[43,59],[75,-9],[-9,-48],[-65,-26],[5,-38],[71,-56],[132,-27],[-8,-88],[56,-29],[45,17],[36,-110],[40,14],[15,-25],[44,22],[22,-51],[56,20],[-12,-20],[29,-33],[-25,-21],[7,-28],[-44,-12],[-25,-49],[22,-94],[-32,-23],[-13,-63],[-38,-20],[35,-47],[5,-60],[65,-8],[-20,-12],[16,-82],[-53,-22],[-31,-53],[-89,46],[-24,-34],[-82,-25],[-68,35],[-36,-64],[11,-24],[-76,-6],[-8,-97],[18,-20],[-46,-63],[13,-70],[-33,-12],[3,-58],[-46,46],[-18,-15],[19,-40],[-59,-50],[29,-43],[-34,-8],[-105,97],[-56,-47],[26,-46],[-15,-61],[-12,1]],[[4096,1700],[-54,-13],[-57,46],[-32,-62],[-77,-2],[-46,-46],[-43,-4],[-2,32],[-29,-21],[-77,26],[-14,92],[-78,66],[10,182],[-90,-6],[12,113],[-31,-3],[-12,39],[-38,-20],[11,36],[-40,12],[23,42],[-45,-15],[6,45],[-31,15],[27,44],[-73,47],[106,55],[-34,64],[-34,7],[-3,52],[-34,38],[-58,1],[-15,37],[-77,40],[-34,-16],[-11,-48],[-85,6],[-8,-33],[-44,-5],[2,28],[-39,-1],[-9,33],[-80,-28],[-19,7],[23,23],[-43,13],[-14,-22],[24,-46],[-45,8],[21,-48],[-82,-7],[60,-45],[-1,-31],[-73,-38],[-45,46],[8,-43],[-121,7],[-35,-25],[-6,-40],[-100,42],[18,-39],[-45,-32],[13,-45],[-44,-31],[-3,49],[-49,17],[27,-35],[-3,-62],[-21,34],[-46,11],[-15,-74],[-36,44],[29,37],[-22,38],[-82,-26],[0,25],[-37,17],[29,60],[-49,-6]],[[311,2005],[5,9],[8,-8],[-12,-4],[-1,3]],[[240,2222],[8,12],[4,-34],[-5,3],[-7,19]],[[0,3388],[100,-45]],[[107,3341],[14,-3]],[[133,3396],[117,0],[-14,-116]],[[236,3280],[42,-75]],[[141,3335],[19,-4]],[[164,3331],[72,-51]],[[278,3205],[7,-12]],[[285,3193],[5,-10]],[[290,3183],[3,-6]],[[293,3177],[1,-1]],[[294,3176],[28,-32]],[[322,3144],[5,-8]],[[325,3140],[-3,4]],[[327,3136],[102,-143],[253,-196],[93,-30],[12,-7],[10,-7],[21,-21]],[[787,2760],[32,-30],[21,-17],[55,-29],[100,-120]],[[995,2564],[8,-7]],[[1003,2557],[13,-19]],[[1016,2538],[4,-8]],[[1020,2530],[3,-6]],[[1023,2524],[3,-5]],[[1026,2519],[3,-4]],[[1029,2515],[3,-3]],[[1032,2512],[18,-22]],[[1050,2490],[18,-23]],[[1068,2467],[25,-31]],[[1093,2436],[3,-4]],[[1096,2432],[5,-7]],[[1101,2425],[4,-6]],[[1105,2419],[1,-2]],[[1106,2417],[1,-4]],[[1107,2413],[15,-38]],[[1122,2375],[2,-7]],[[1124,2368],[2,-4]],[[1126,2364],[3,-5]],[[1129,2359],[2,-4]],[[1131,2355],[8,-10]],[[1139,2345],[1,-2]],[[1140,2343],[2,-2]],[[1142,2341],[3,-2]],[[1145,2339],[6,-4]],[[1151,2335],[12,-8]],[[1163,2327],[3,-2]],[[1166,2325],[31,-18]],[[1197,2307],[5,-4]],[[1202,2303],[15,-9]],[[1217,2294],[13,-8]],[[1230,2286],[2,-1]],[[1232,2285],[5,-2]],[[1237,2283],[27,-11]],[[1264,2272],[9,-4]],[[1273,2268],[6,-3]],[[1279,2265],[7,-5]],[[1286,2260],[2,-1]],[[1288,2259],[24,-27]],[[1031,2526],[-129,153],[-12,11],[-8,5],[-6,3],[-5,2],[-19,7],[-11,5],[-17,14]],[[1288,2259],[39,-36],[176,-58],[247,-293],[268,-148],[98,-126]],[[1100,2428],[-62,86]],[[1285,2262],[-13,7]],[[1272,2269],[-15,6]],[[1257,2275],[-11,4]],[[1246,2279],[-17,8]],[[1229,2287],[-17,10]],[[1212,2297],[-12,8]],[[1200,2305],[-19,12]],[[1181,2317],[-23,14]],[[1158,2331],[-11,10]],[[1147,2341],[-6,7]],[[1141,2348],[-5,8]],[[1136,2356],[-7,13]],[[1129,2369],[-12,27]],[[1117,2396],[-5,11]],[[1112,2407],[-3,6]],[[1109,2413],[-3,6]],[[1106,2419],[-3,5]],[[1103,2424],[-3,4]],[[1329,2238],[-44,24]],[[1415,2210],[-44,12]],[[1451,2195],[-29,13]],[[1499,2170],[-43,23]],[[1571,2089],[-67,77]],[[1871,1808],[22,-13]],[[1921,1781],[87,-32]],[[2539,1342],[95,-70],[87,-116],[130,-95]],[[2816,435],[17,-28],[55,-7]],[[2851,1061],[13,-61]],[[2851,1061],[23,-37]],[[2874,1024],[1,-3]],[[2874,1024],[-5,-6]],[[2873,948],[-55,-512],[14,-22],[36,-2],[7,-3],[16,-11]],[[0,3396],[139,-61]],[[141,3335],[19,-4]],[[161,3331],[30,-11]],[[228,3290],[97,-151]],[[327,3136],[102,-143],[253,-196],[136,-65]],[[1031,2526],[-129,153],[-78,47]],[[1415,2210],[-257,121],[-120,183]],[[1451,2195],[-29,13]],[[1499,2170],[-43,23]],[[1571,2089],[-67,77]],[[1871,1808],[22,-13]],[[1921,1781],[87,-32]],[[2988,0],[-1,56]],[[3132,657],[-10,-43],[-40,-30],[6,-94],[-48,-32],[-78,-1],[-31,-141],[57,-21],[9,-123],[194,5],[40,-81],[171,-96]],[[3218,122],[-1,3],[1,-3]],[[3237,93],[-292,-93]],[[2929,0],[-33,17],[7,52],[-69,42],[3,116],[-26,53],[-273,-29],[-280,10]],[[3237,93],[-292,-93]],[[2929,0],[-33,17],[7,52],[-69,42],[3,116],[-26,53],[-273,-29],[-280,10]],[[0,3389],[49,-24],[179,40]],[[339,3535],[76,54],[81,173],[130,90],[172,28],[85,58]],[[3074,0],[37,45]],[[2813,989],[-121,-95],[146,-140],[143,-64],[1,-119],[-31,-43],[16,-60],[-39,-141],[60,-32],[3,-119],[200,1],[40,-81],[171,-96]],[[3219,122],[-2,3],[2,-3]],[[3263,34],[-17,-34]],[[3132,657],[-10,-43],[-40,-30],[6,-94],[-48,-32],[-78,-1],[-31,-141],[57,-21],[9,-123],[194,5],[40,-81],[171,-96]],[[3219,122],[-2,3],[2,-3]],[[2813,989],[-121,-95],[146,-140],[143,-64],[1,-119],[-31,-43],[16,-60],[-39,-141],[60,-32],[3,-119],[200,1],[40,-81],[171,-96]],[[3218,122],[-1,3],[1,-3]],[[4096,500],[-271,-104],[-319,-36],[-117,11],[-91,-24],[-54,-21],[-4,-3],[-4,-3],[-4,-4],[-15,-22],[-20,-13],[-15,-19],[-34,0]],[[3256,330],[-37,-32]],[[162,3401],[-25,7],[-33,-35]],[[104,3373],[-104,38]],[[104,3373],[110,31]],[[397,3543],[-54,-99],[-56,-32],[-59,-7],[187,184],[81,173],[130,90],[159,24],[57,31]],[[868,3926],[101,91],[241,10],[94,69]],[[2164,220],[-118,-32],[-20,-97]],[[2689,903],[2,5]],[[2858,3326],[4,-3]],[[2862,3323],[-4,3]],[[2992,3150],[-130,173]],[[3017,306],[-1,-36]],[[3017,270],[0,36]],[[3957,0],[56,109]],[[3136,53],[-23,-11]],[[379,3399],[7,-34]],[[404,3281],[0,-1]],[[404,3280]],[[3195,339],[-25,-17]],[[3170,322],[-5,-4],[-59,-30]],[[3106,288],[-4,-2],[-3,-1]],[[3099,285],[-41,-15]],[[3058,270],[29,9],[12,6]],[[3099,285],[7,3]],[[3106,288],[57,25],[7,9]],[[3170,322],[12,13],[9,6]],[[1711,971],[44,-35]],[[1755,937],[-44,35]],[[3390,137],[72,-65],[201,-41]],[[3821,512],[-10,-8]],[[3821,512],[2,1]],[[4096,345],[-93,-178],[-15,24],[24,102],[-91,69],[-60,131]],[[3861,493],[-40,19]],[[3861,493],[29,-89]],[[3925,721],[17,52],[-25,106],[97,167],[-9,62],[81,218],[-16,30],[26,77]],[[4096,419],[-49,-53],[-10,27]],[[565,3131],[328,-16],[232,6],[226,-87],[228,-13],[275,-84],[68,-46],[206,-65],[61,53],[71,3],[222,49],[208,-5],[307,-48],[153,65],[256,29],[35,25],[3,38]],[[3444,3035],[-3,-38],[-35,-25],[-256,-28],[-153,-66],[-307,48],[-208,6],[-119,-17],[-103,-32],[-47,1],[-24,-4],[-5,-3],[-5,-3],[-51,-48],[-205,65],[-68,47],[-276,83],[-228,13],[-135,68],[-92,19],[-231,-5],[-267,15],[-61,0]],[[2501,237],[132,4],[-132,-3]],[[3253,106],[-29,79],[62,83]],[[3363,21]],[[2854,963],[-6,-6]],[[2848,957],[6,5]],[[3048,0],[6,4]],[[3157,24],[-57,-24]],[[3101,0],[57,23]],[[3243,206],[-5,-44],[30,-78],[-19,-42],[-44,-12]],[[3205,29],[44,13],[19,42],[-24,122]],[[3223,322],[-30,-11],[-23,-12]],[[3174,299],[49,23]],[[1387,2811],[87,6],[285,-122],[33,-95],[56,-31],[62,15]],[[3181,203],[-11,-18]],[[3170,184],[12,19]],[[3256,166],[30,-12]],[[3043,19],[-6,-14]],[[3038,0],[14,27]],[[270,691],[-55,98],[-114,2],[-55,117],[-46,33]],[[0,941],[46,-33],[55,-118],[114,-1],[54,-98]],[[0,3222],[122,-22],[2,1]],[[124,3201],[20,5]],[[144,3206],[71,16]],[[0,2461],[30,96],[100,177],[110,37],[199,147]],[[215,3223],[-71,-17]],[[144,3206],[-19,-5],[-1,0]],[[124,3201],[-103,21]],[[565,3131],[-7,2]],[[563,3131],[2,0]],[[1045,419],[87,-2],[45,3],[51,-11],[36,-1],[7,0]],[[1271,408]],[[1271,408],[84,-10],[66,-4],[121,-43],[201,-22],[270,21]],[[2013,351],[-269,-22],[-203,23],[-26,13],[-94,30],[-128,12],[-22,1]],[[1271,408]],[[1271,408],[-7,1],[-36,1],[-51,10],[-44,-2],[-46,4],[-41,-2]],[[1092,0],[-18,41],[34,106],[93,109],[67,140],[3,10],[0,2]],[[1271,408]],[[1271,408],[1,3],[2,17],[38,91],[149,204],[162,325],[176,93],[358,40],[3,2]],[[2160,1183],[95,56]],[[2255,1239],[7,4],[135,67],[84,74],[21,68],[-21,-68],[-220,-140],[-6,-5]],[[2255,1239],[-45,-34],[-50,-22]],[[2160,1183],[-3,-1],[-358,-40],[-177,-94],[-161,-325],[-150,-204],[-37,-91],[-3,-17],[0,-3]],[[1271,408]],[[1271,408],[0,-2],[-70,-150],[-93,-109],[-35,-106],[19,-41]],[[2455,359],[14,-2]],[[2469,358],[-14,2]],[[2662,257],[9,-11]],[[2669,265],[-4,-9]],[[2673,259],[-2,1],[-1,-1]],[[2670,259],[-1,0],[0,-9]],[[2670,261],[0,-2]],[[2670,259],[4,-9]],[[2676,254],[-6,12]],[[2671,255],[1,-1]],[[2672,253],[-1,-3]],[[2672,236],[8,17]],[[3277,341],[-25,-8]],[[3270,334],[7,6]],[[3313,336],[0,-10],[2,-23]],[[3317,348],[-3,-7]],[[3315,303],[2,45]],[[3437,566],[-120,-218]],[[3320,352],[127,228]],[[3436,582],[1,-16]],[[3437,581],[0,-15]],[[3439,574],[6,6]],[[3441,573],[2,3]],[[3443,576],[2,4]],[[3441,573],[2,3]],[[3443,576],[2,3]],[[3550,787],[-4,-22],[0,-4],[10,-37]],[[3556,724],[-5,61]],[[3104,98],[13,-7]],[[264,3395],[-10,49],[-23,28],[-77,-2],[-7,79],[-33,45],[-114,15]],[[254,3444],[10,-49]],[[2287,1558],[-2,-38]],[[2286,1520],[1,38]],[[1192,0],[228,262],[182,108],[154,411],[53,42]],[[0,2736],[4,0],[23,63]],[[278,3113],[-46,-119],[-28,-11],[-5,-117],[-29,-36],[-130,-23]],[[539,3621],[-29,-103],[-115,-53],[-16,-66]],[[386,3365],[27,-20]],[[419,3303],[-15,-22]],[[404,3280],[15,23]],[[415,3306]],[[627,3880],[-1,92],[36,113],[7,11]],[[3340,320],[22,8],[57,-41]],[[3419,287],[9,-7]],[[3428,280],[2,-1],[101,34],[79,-18],[50,4],[61,11],[67,18],[87,42],[87,58],[106,-14],[28,51]],[[4096,465],[-28,-51],[-106,15],[-241,-118],[-111,-14],[-79,18],[-66,-13],[-37,-22]],[[3428,280],[-1,0],[-8,7]],[[3419,287],[-43,35],[-2,3],[-13,3],[-19,-7]],[[2907,86],[-16,-21]],[[2892,65],[9,3],[6,18]],[[269,691],[81,-73],[51,-120],[122,-84],[232,-16],[18,5],[29,4],[22,5]],[[824,412],[42,8]],[[866,420],[2,1],[15,4],[162,-6]],[[1046,420],[-81,9],[-83,-4],[-6,-1],[-10,-4]],[[866,420],[-5,-2],[-37,-6]],[[824,412],[-22,-4],[-29,-4],[-18,-5],[-232,16],[-121,83],[-51,120],[-81,73]],[[2455,360],[-442,-9]],[[2013,350],[442,9]],[[2665,862],[-181,-231],[-43,-193]],[[2555,711],[59,68]],[[2614,779],[51,83]],[[2756,68],[7,-68]],[[1951,819],[5,-95],[-33,-4],[-45,-100]],[[1879,1079],[123,-19],[147,63],[26,63],[81,59],[31,228]],[[1902,1067],[121,-128]],[[2023,940],[-121,127]],[[2287,1473],[9,8]],[[2296,1482],[-9,-9]],[[2808,2624],[107,-99],[8,-57],[-102,-341],[-211,-83],[-103,-184],[-92,-89],[-55,-127]],[[503,4096],[-196,-268],[-17,-33],[-6,-26],[7,-62],[-10,-20]],[[282,3687],[9,20],[-1,88],[213,301]],[[394,3480],[81,-104],[-5,-18],[-4,-77],[66,-117],[-15,-92],[-108,7]],[[409,3079],[108,-8],[15,93],[-66,117],[10,95],[-82,104]],[[411,3078],[-12,1],[-1,0]],[[398,3079],[-36,-7],[-54,32],[24,-13],[66,-12]],[[398,3079],[1,-1],[14,-1]],[[489,3769],[138,111]],[[539,3621],[-3,84],[-52,36],[5,25]],[[1880,1013],[-125,-77]],[[1755,936],[126,77]],[[2166,1570],[-2,-95]],[[2627,384],[-10,11],[0,-7]],[[2617,388],[0,-1]],[[2617,387],[0,-9]],[[2617,378],[1,-117],[0,-3],[-3,-135],[-40,-123]],[[2576,0],[40,123],[9,262]],[[2600,382],[5,-13]],[[2605,369],[2,-7]],[[2604,373],[1,-4]],[[2605,369],[0,-15]],[[2608,369]],[[2616,394],[-2,-7]],[[2614,387]],[[2614,387],[-5,-19]],[[2609,367],[4,5]],[[2613,372],[4,6]],[[2617,378],[5,7]],[[2613,378],[0,-6]],[[2613,372],[1,-17]],[[2613,387],[1,0]],[[2614,387],[2,-2]],[[2616,385]],[[2617,387],[-3,0]],[[2614,387]],[[2615,379],[1,6]],[[2616,385],[1,2]],[[2617,387],[0,1]],[[2617,388],[0,1],[3,0],[-1,-2],[-2,0]],[[2617,387]],[[2739,247],[-67,7]],[[2672,253],[67,-7]],[[2864,685],[183,-67],[175,-149],[17,-10],[10,-5],[110,-46],[161,-15],[47,18],[84,0],[73,9]],[[3724,420]],[[3724,420],[142,17]],[[3866,437],[-141,-16]],[[3725,421],[-1,0]],[[3724,421],[-73,-9],[-84,0],[-22,-8],[-25,-11],[-161,17],[-47,22],[-73,27],[-191,160],[-99,38],[-85,28]],[[3350,548],[100,-34]],[[3450,515],[-100,36]],[[3363,20],[33,-20]],[[3397,0],[-34,21]],[[3536,707],[7,38],[-93,10],[-28,-64]],[[3426,692],[24,63]],[[3537,707],[6,15],[0,23],[-93,10]],[[3921,777],[-88,-123],[-21,-112],[-76,-57],[-12,-63],[0,-1]],[[3724,421],[0,-1]],[[3724,420],[0,-1],[2,-132]],[[3726,287],[-2,132],[0,1]],[[3724,420],[1,1]],[[3725,421],[0,1],[12,63],[51,36],[24,21],[22,112],[61,83],[26,40]],[[3086,229],[-8,-4]],[[2722,4096],[62,-93],[61,-37],[67,-259],[34,-50],[-37,-125],[30,-47],[-45,-33]],[[2830,3345],[10,49],[54,58]],[[2894,3452],[-32,-30],[-23,-28],[-9,-49],[28,-19]],[[2992,3150],[122,-211]],[[3526,2202],[-93,160],[-40,160],[-114,198],[21,52],[-146,103],[-39,63]],[[3052,27],[12,2]],[[3074,35],[-10,-5]],[[3283,94],[-2,-29]],[[3283,79],[1,15]],[[3064,29],[11,6]],[[3179,26],[-3,33]],[[3314,242],[-26,-7],[-11,-10],[-10,-43],[0,-3],[2,-18]],[[3270,160],[19,74],[24,4]],[[1897,4096],[17,-100],[52,-108],[1,-73],[41,-63],[-1,-90],[-8,-13],[-24,-64]],[[1975,3585],[-11,-30]],[[1964,3555],[-1,-1],[33,-94],[116,-170],[116,-122],[61,-26],[32,-134],[110,-249],[5,-477],[-21,-112],[38,-140],[-42,-117],[-6,-102],[-112,-112],[-66,-112],[-4,-57],[73,-49]],[[2295,1482],[-71,48],[3,57],[66,112],[106,103],[6,9],[4,28],[2,74],[16,19],[24,85],[2,13],[1,8],[-26,98],[-13,34],[22,112],[3,304],[-8,173],[-25,71],[-85,178],[0,4],[-5,27],[-28,103],[-61,26],[-35,53],[-49,49],[-25,17],[-7,3],[-115,170],[-33,95]],[[1964,3555],[0,1],[11,29]],[[1975,3585],[26,63],[7,14],[0,90],[-1,3],[-40,60],[0,73],[-52,108],[1,4],[-10,96]],[[2361,1447],[9,-4],[10,-7]],[[2380,1436],[20,-14]],[[2400,1422],[1,0],[85,9],[21,4],[55,-28],[22,-25],[29,-21],[56,-32],[15,-77],[130,-151],[-6,-28]],[[2808,1073],[7,30],[-132,171],[-14,57],[-55,30],[-41,38],[-11,8],[-22,14],[-33,14],[-21,-4],[-4,0],[-82,-9]],[[2400,1422],[-1,0],[-19,14]],[[2380,1436],[-10,7],[-9,4]],[[2971,378],[-17,72],[-81,191],[4,142],[-144,96],[15,107]],[[2749,987],[-17,-28],[-4,-20],[-1,-39],[4,-19],[4,-8],[10,-7],[132,-83],[-5,-51],[-1,-48],[2,-20],[-1,-23],[20,-73],[18,-45],[44,-73],[8,-47],[8,-25]],[[2691,908],[-26,-46]],[[2665,862],[24,41]],[[3391,138],[-125,42]],[[2363,1451],[-58,40]],[[2305,1490],[58,-39]],[[2878,929],[-50,21]],[[330,3243],[3,-3]],[[333,3240],[27,-27],[11,-17]],[[369,3195],[-36,45]],[[333,3240],[-3,3]],[[757,545],[-2,-99]],[[755,445],[3,100]],[[858,36],[-29,62],[-2,2],[0,1]],[[827,101],[-4,8],[-13,64]],[[812,173],[15,-72]],[[827,101],[0,-1],[31,-64]],[[334,3226],[-7,-2]],[[327,3222],[7,4]],[[404,3280],[-22,-28]],[[383,3251],[21,29]],[[2279,1513],[-1,0]],[[2278,1513],[3,0]],[[2284,1512],[-1,-12]],[[2283,1500],[1,11]],[[2285,1512],[5,-3]],[[2290,1510],[-5,3]],[[2304,1641],[-17,-83]],[[2287,1558],[17,83]],[[2290,1510],[-2,1]],[[2331,1492],[38,-29]],[[2369,1464],[-37,28]],[[2832,91],[41,-17]],[[2873,75],[-41,17]],[[2836,149],[18,7],[0,2],[5,7]],[[2859,165],[27,-29]],[[2886,136],[40,-44]],[[2926,92],[1,0]],[[2927,92],[14,-16]],[[2941,76],[19,-9]],[[2960,67],[112,-8],[44,31]],[[2854,156],[-18,-11]],[[2875,85],[-18,18],[-2,0]],[[2855,103],[-2,-1],[-6,-2]],[[2848,957]],[[2848,100],[26,-15]],[[2858,108],[-3,-5]],[[2855,103]],[[2855,103],[-3,-4]],[[2907,86],[0,1],[-1,2]],[[2906,89],[-1,0]],[[2905,89],[-3,5],[-1,0],[-18,5],[-7,2]],[[2876,101],[-16,3],[-1,0],[-4,-1]],[[2855,103],[-2,0]],[[2854,963],[0,-1]],[[3115,90],[-43,-30],[-78,18],[-21,-9],[-13,-2]],[[2960,67],[-2,0],[-17,9]],[[2941,76],[-14,16]],[[2927,92]],[[2927,92],[-41,44]],[[2886,136],[-27,29]],[[2859,165],[-1,0],[-4,-7],[0,-2]],[[2860,105],[16,-4]],[[2876,101],[6,-2],[19,-5],[1,0],[3,-5]],[[2905,89]],[[2905,89],[2,-2],[0,-1]],[[2871,32],[-7,-32]],[[2864,0],[8,32]],[[2890,85],[15,4]],[[2905,89],[1,0]],[[2906,89],[13,3],[8,0]],[[2927,92]],[[2927,92],[1,0]],[[2928,92],[-1,0]],[[2927,92],[-1,0]],[[2926,92],[-7,1],[-14,-4]],[[2905,89]],[[2905,89],[-15,-4]],[[2895,207],[11,-6]],[[3048,53],[-35,-10],[-11,2],[-11,2],[-49,-7],[-11,-3],[-20,-10],[-5,-8],[-3,-5],[0,-1]],[[2903,13],[0,-1]],[[2903,12],[-1,-1],[-7,-11]],[[2896,0],[6,11],[1,1]],[[2903,12]],[[2903,12],[1,2],[3,5],[24,17],[70,9]],[[2906,202],[-10,5]],[[2900,70],[-1,2]],[[2899,67],[-4,-50],[1,-1],[7,-4]],[[2903,12]],[[2903,12],[5,-3],[9,-9]],[[2902,69],[-1,1]],[[2917,0],[-9,10],[-5,2]],[[2903,12],[0,1]],[[2903,13],[-6,3],[4,52]],[[2908,167],[34,-8]],[[2942,159],[1,0]],[[2943,159],[1,-1]],[[3018,171],[-3,0]],[[3015,171]],[[3015,171],[-16,0],[-25,-5]],[[2974,166],[-1,0]],[[2973,166],[0,-1]],[[2973,165]],[[2973,165],[-30,-5]],[[2943,160],[-1,-1]],[[2942,159],[-34,8]],[[2933,351],[1,3]],[[2934,354],[31,1],[3,1],[4,1],[29,12]],[[3001,369],[23,9]],[[2934,354],[2,24]],[[2954,124],[-10,23],[-1,12]],[[2943,159],[0,1]],[[2943,160],[0,1],[-1,34],[1,42],[-9,117]],[[3025,378],[-24,-9]],[[3001,369],[-29,-11],[-4,-1],[-34,-2]],[[2936,378],[-8,-48],[14,-93],[-1,-42],[1,-34],[0,-2]],[[2942,159]],[[2942,159],[2,-12],[1,-18],[7,-3],[3,-3]],[[2940,286],[22,11]],[[3104,340],[-14,-13],[-27,-13]],[[3063,314]],[[3063,314]],[[3063,314],[-16,-8],[-31,0],[-55,-9],[-21,-10]],[[2944,158],[29,7]],[[2973,165]],[[2973,165],[1,0]],[[2974,165]],[[2974,165],[25,5],[15,0]],[[3014,170],[1,0]],[[3015,170],[3,0]],[[3049,227],[-11,-23]],[[3038,204],[-1,-3]],[[3037,201],[-1,-1]],[[3036,200],[0,-1]],[[3036,199],[-1,0],[0,-1]],[[3035,198],[-2,-2]],[[3033,196],[-18,-25]],[[3015,171],[-1,-1]],[[3014,170],[-23,-32],[-47,-28]],[[2944,110],[48,28],[23,32]],[[3015,170],[0,1]],[[3015,171],[19,25]],[[3034,196],[1,2]],[[3035,198],[0,1],[1,0]],[[3036,199],[0,1]],[[3036,200],[1,0],[0,1]],[[3037,201],[2,4]],[[3039,205],[10,20]],[[3064,30],[-13,-3],[-8,-2]],[[3043,25],[-97,-25]],[[2947,0],[96,25]],[[3043,25],[8,2]],[[2952,126],[2,-7]],[[2954,124],[1,-1]],[[2959,123],[-5,1]],[[2955,123],[1,-2],[2,1]],[[2958,122],[4,1]],[[2958,122]],[[2958,122],[0,-1]],[[2961,296],[36,1],[11,4],[30,4],[10,0],[17,2]],[[3065,307]],[[3065,307]],[[3065,307],[3,0],[37,32]],[[2972,169],[1,-2]],[[2973,167],[0,-2]],[[2973,165]],[[2973,165],[4,-19]],[[2973,229],[0,-35]],[[2973,194],[0,-3]],[[2973,191],[0,-15]],[[2973,176],[0,-6]],[[2973,170],[0,-3]],[[2973,167],[0,-1],[0,-1]],[[2973,165]],[[2973,165],[1,-5]],[[3034,231],[-11,-1]],[[3023,230],[-6,0]],[[3017,230],[-1,0]],[[3016,230],[-43,-3]],[[2973,227]],[[2973,227]],[[2973,222],[0,5]],[[2973,227],[0,1],[0,5],[1,7]],[[2975,161],[-1,4]],[[2974,165],[0,1]],[[2974,166],[-1,4]],[[2978,146],[-4,19]],[[2974,165],[-1,1]],[[2973,166],[0,4]],[[2973,170],[-1,0],[1,6]],[[2973,176],[0,15]],[[2973,191],[0,3]],[[2973,194],[0,33]],[[2973,227],[1,1],[0,5],[0,8]],[[2974,230],[42,0]],[[3016,230],[1,0]],[[3017,230],[6,0]],[[3023,230],[11,0]],[[3000,45],[13,-2],[33,4]],[[3021,212],[-1,-1]],[[3020,211],[-1,-1]],[[3019,210],[-2,-2],[-4,-12]],[[3014,196],[5,14]],[[3019,210],[0,7]],[[3016,270],[0,-40]],[[3016,230]],[[3016,230],[4,-19]],[[3020,211],[1,-1],[11,-8]],[[3032,202],[4,-3]],[[3036,199]],[[3036,199],[1,-1]],[[3037,198],[1,0],[10,-10]],[[3048,189],[-9,9],[-3,2]],[[3036,200]],[[3036,200],[-3,2]],[[3033,202],[-12,8],[0,1],[-4,19]],[[3017,230]],[[3017,230],[0,40]],[[3034,201],[-1,1]],[[3033,202],[-1,0]],[[3032,202],[0,-1],[0,-6]],[[3032,195],[1,1]],[[3033,196],[1,0]],[[3034,196],[3,2]],[[3037,198]],[[3048,228],[-11,2]],[[3037,230],[-3,1]],[[3095,229],[-6,0],[-2,-1]],[[3087,228],[-1,0]],[[3086,228]],[[3086,228],[-4,-1]],[[3082,227],[-4,-2],[-15,2]],[[3063,227],[-2,0],[-27,4]],[[3034,230],[2,0],[1,0]],[[3037,230],[23,-3],[3,0]],[[3063,227],[19,0]],[[3082,227],[4,0]],[[3086,227]],[[3086,227],[1,0]],[[3087,227],[1,1],[33,-5]],[[3034,230],[14,-3]],[[3035,198]],[[3035,198]],[[3035,198],[-1,0]],[[3039,205]],[[3039,205],[-1,-1]],[[3038,204],[-4,-3]],[[3037,201]],[[3037,201]],[[3037,201]],[[3037,5],[0,-5]],[[3038,199],[1,5]],[[3047,189],[-8,8]],[[3042,26],[1,-1]],[[3043,25]],[[3043,25],[0,-2],[1,0]],[[3046,378],[6,-34],[3,-5],[8,-25]],[[3063,314],[2,-7]],[[3065,307],[0,-1]],[[3065,306],[7,-28],[0,-2],[13,-38]],[[3086,235],[-13,41],[-1,2],[-7,28]],[[3065,306]],[[3065,306],[0,1]],[[3065,307],[-1,5],[-1,2]],[[3063,314],[-7,25],[-3,6],[-6,33]],[[3047,189],[1,-1]],[[3048,189],[-1,0]],[[3048,188],[5,-29],[3,-11],[7,-13],[10,-15],[29,-21]],[[3108,124],[-34,-4],[-26,69]],[[3052,62],[-4,1]],[[3066,306],[-1,0]],[[3065,306]],[[3065,306]],[[3065,306],[-3,0]],[[3062,315],[1,-1]],[[3063,314],[2,-7]],[[3065,307],[0,-1]],[[3065,306]],[[3065,306],[2,-7]],[[3073,308],[-7,-3]],[[3080,114]],[[3085,238],[0,-3],[1,-6]],[[3086,229],[0,-1]],[[3086,228],[0,-1]],[[3086,227],[1,-10],[4,-31]],[[3085,235],[1,-6]],[[3086,229],[0,-1]],[[3086,228],[0,-1]],[[3086,227],[1,-6]],[[3095,229],[-7,0],[-1,0]],[[3087,229],[-1,0]],[[3086,229]],[[3086,229]],[[3088,220],[-1,7]],[[3087,227],[0,1]],[[3087,228],[0,1]],[[3087,229],[-1,6]],[[3091,186],[-3,34]],[[3089,112],[14,6],[5,6]],[[3121,224],[-26,5]],[[3097,189],[37,-14],[31,0]],[[3165,175],[-68,14]],[[3115,347],[18,15]],[[3133,362]],[[3133,362],[1,1],[7,7]],[[3141,370],[-9,-7]],[[3132,363],[-1,-1]],[[3131,362],[-1,-1],[-14,-12]],[[3118,91],[0,-1]],[[3247,81],[0,4]],[[3247,85],[1,2]],[[3248,87],[0,1]],[[3248,88],[-1,1]],[[3247,89],[-1,3],[-12,12],[-8,0]],[[3226,104],[-1,0]],[[3225,104],[-100,4],[-2,-3]],[[3123,105],[-2,-3]],[[3121,102],[-2,-4]],[[3119,100],[2,3]],[[3121,103],[2,2]],[[3123,105],[2,2],[52,-5]],[[3177,102],[2,-1]],[[3179,101],[27,-3],[9,1],[11,3]],[[3226,102]],[[3226,102],[8,1],[11,-12],[1,-1]],[[3246,90],[2,-2],[-1,0]],[[3247,88],[0,-1]],[[3247,87],[0,-3]],[[3247,84],[-1,-2]],[[3122,96],[-1,6]],[[3121,102],[0,1]],[[3121,103]],[[3123,366],[8,-4]],[[3131,362],[2,0]],[[3133,362]],[[3133,362]],[[3133,362],[-1,1]],[[3132,363],[-9,3]],[[3123,223],[43,-1]],[[3166,223],[-42,1]],[[3129,95],[-3,0]],[[3131,51],[90,6],[25,23],[2,5],[-1,0]],[[3247,85],[0,-1]],[[3247,84],[-26,-27],[-84,-4]],[[3133,362]],[[3134,361],[-1,1]],[[3133,362],[1,-1]],[[3134,62],[13,1]],[[3138,79],[2,-2]],[[3144,6],[1,1]],[[3166,223],[1,-2],[2,1],[-1,2],[-2,-1]],[[3167,105],[0,-1],[10,-2]],[[3177,102],[18,-5]],[[3196,97],[-17,4]],[[3179,101],[-11,3]],[[3169,222],[8,0],[13,-6]],[[3190,216]],[[3190,216],[23,-10]],[[3213,206],[-17,9],[-5,2]],[[3191,217]],[[3191,217],[-14,6],[-8,0]],[[3263,303],[-13,-3]],[[3250,300],[-6,-1],[-1,-1],[-5,-7]],[[3238,291]],[[3238,291],[-16,-23],[-2,-3],[-13,-11],[-6,-9],[-9,-26],[-1,-2]],[[3191,217],[-1,-1]],[[3190,216],[-9,-13]],[[3182,203],[8,13]],[[3190,216],[1,1]],[[3191,217],[1,2],[16,35],[12,11],[2,3],[17,23]],[[3239,291]],[[3239,291],[4,6],[1,1],[6,2]],[[3250,300],[10,3]],[[3227,101],[-1,1]],[[3226,102],[0,2]],[[3226,104],[-9,22],[-1,2],[-25,7]],[[3191,135],[24,-7],[2,-2],[8,-22]],[[3225,104],[1,-2]],[[3226,102],[0,-1],[0,-1]],[[3217,326],[10,-18],[10,-17],[1,0]],[[3238,291],[1,0]],[[3239,291],[1,-1],[3,-3]],[[3244,288],[-4,2],[-1,1]],[[3239,291],[-1,0]],[[3238,291],[-1,1],[-19,33]],[[3277,80],[-6,2],[-23,6]],[[3248,88],[-1,0]],[[3247,88],[-4,1]],[[3243,89],[-2,0]],[[3242,89]],[[3242,89],[5,-2]],[[3247,87],[1,0]],[[3248,87],[23,-6],[6,-2]],[[3242,89]],[[3242,89],[1,0]],[[3243,89],[4,0]],[[3242,27],[2,0]],[[3248,89],[-1,0]],[[3247,89],[-1,1]],[[3246,90],[-3,1]],[[3310,274],[-65,-63],[-2,-5]],[[3244,206],[66,67]],[[3269,303],[-1,-3]],[[3268,300],[0,-1]],[[3268,299],[0,1]],[[3268,300],[1,3]],[[3276,303],[13,-3],[10,1],[9,2]],[[3307,303],[-29,0]],[[3286,154],[27,55],[47,-5],[31,-33],[65,7]],[[3303,3215],[39,74]],[[3351,3086],[8,4],[34,12]],[[3393,3102],[8,15]],[[3431,3062],[19,23]],[[3450,3085],[13,16]],[[3463,3101],[23,28],[-78,13],[7,41],[-7,11]],[[3408,3194],[-17,21],[-19,-26]],[[3386,3289],[-14,-100]],[[3372,3189],[-4,-37],[2,-1]],[[3370,3151],[31,-34]],[[3400,3289],[-25,-91]],[[3475,3090],[-12,11]],[[3463,3101],[-19,17],[-43,-1]],[[3415,242],[36,8]],[[3449,250],[-32,-8]],[[3460,3183]],[[3460,3183],[28,-22]],[[3488,3161],[14,-11]],[[3466,3192],[-6,-9]],[[3460,3183],[-12,-19],[46,-20]],[[3521,3163],[-17,17]],[[3504,3180],[-16,17],[-15,17],[-21,2],[-44,-22]],[[3408,3194],[-26,-13],[-8,-16],[-4,-14]],[[3370,3151],[-6,-19],[29,-30]],[[3393,3102],[14,-13],[15,-2],[28,-2]],[[3450,3085],[22,-1]],[[3515,3193],[-11,-13]],[[3504,3180],[-16,-19]],[[3488,3161],[-6,-7]],[[3509,3109],[9,9]],[[2284,1513],[0,-1],[1,0],[0,1],[-1,0]],[[2898,180],[1,0],[0,1],[-1,0],[0,-1]],[[2972,194],[0,-3],[1,0]],[[2973,191]],[[2973,191],[0,3]],[[2973,194]],[[2973,194],[-1,0]],[[3122,225],[-1,-2],[1,-1],[2,1],[-2,2]],[[3140,60],[-1,1],[-1,0],[0,-1],[2,0]],[[3157,24],[36,3],[12,3],[-17,-3],[-31,-3]],[[2431,223],[0,-15]],[[2739,64],[81,-43]],[[2820,22],[-81,44]],[[2977,272],[-3,-30]],[[2974,242],[3,13]],[[3162,287],[-1,12]],[[3315,303],[-10,-111]],[[3305,192],[10,111]],[[532,3546],[87,10],[286,-206],[51,-185],[196,-55],[-3,-51],[180,-109],[18,-49],[205,-5],[197,-80],[571,-79],[62,-41],[261,173],[198,-6],[168,25],[99,45],[160,129],[75,-13],[14,30]],[[3444,3035]],[[3444,3035]],[[3517,3236],[27,37],[311,44],[95,-41],[80,-121],[56,-30],[10,-44]],[[4096,3025],[0,-3]],[[4096,3042],[0,-9]],[[4096,3077],[0,-7]],[[2874,85],[-3,-30]],[[2871,55],[4,30]],[[3267,53],[1,1]],[[3268,54],[7,22]],[[3275,76],[3,9]],[[3275,76],[11,78]],[[1582,4096],[23,-26],[83,-17]],[[2754,1015],[0,2]],[[2831,413],[49,354],[53,65],[-8,25]],[[2400,492],[1,0]],[[2411,494],[-10,-1]],[[2449,487],[-10,3]],[[2439,489],[10,-2]],[[2457,484],[1,-1]],[[2458,484],[-1,0]],[[2473,477],[7,-3]],[[2480,474],[-7,3]],[[2873,74],[23,0]],[[2894,76],[-21,-1]],[[2285,1513],[1,7]],[[2305,1491],[-9,-9]],[[2296,1481],[9,9]],[[2360,1644],[-16,-37]],[[2344,1607],[-23,-10],[-41,4],[41,-4],[23,10]],[[3138,77],[-6,15]],[[3673,0],[97,149],[4,13],[20,67],[16,85],[29,52],[4,20],[-5,40],[-43,82],[-190,255],[-24,17],[-30,14],[-37,0],[-14,-2],[-78,-16],[-49,-2],[-19,-4],[-69,1],[-39,-3],[-49,32],[-8,4],[-59,15],[-70,-10],[-35,34],[-6,4],[-12,6],[-8,1],[-12,-1],[-14,-6],[-5,-2]],[[2968,845],[-24,-9],[-11,2]],[[2933,838],[-7,2],[-17,14],[-128,32],[-51,-6],[-21,-11],[-46,-5],[-19,-8],[-2,-2],[-111,-148],[-34,-56],[-11,-39],[-10,-97],[-4,-42],[-122,-271],[23,-201]],[[2374,0],[-24,200],[123,271],[24,179],[145,204],[138,31],[149,-47],[4,0]],[[2933,838],[35,7]],[[2968,845],[5,1],[14,6],[16,1],[56,-44],[71,9],[116,-51],[108,2],[68,6],[130,18],[53,-31],[187,-250],[50,-123],[-33,-75],[-40,-165],[-97,-149]],[[3282,47],[81,-27]],[[3363,21],[-80,26]],[[358,3238],[-22,-11]],[[336,3226],[22,11]],[[3456,688],[2,-1]],[[3161,299],[0,-2],[12,-31]],[[3173,266],[1,-2],[104,-41],[21,-49],[-16,-82],[0,-12]],[[3264,0],[20,57],[-1,35],[16,83],[-3,10],[-18,38],[-104,42],[-1,1]],[[3173,266],[-11,21]],[[3283,80],[-20,-80]],[[3061,7],[-7,-3],[-6,-4]],[[3054,4],[8,2]],[[3086,25],[-12,-14]],[[3074,10],[12,14]],[[3102,38],[-1,0]],[[3101,38],[1,0]],[[3102,38],[29,13]],[[2025,947],[-74,-128]],[[3124,80],[8,-16]],[[3133,64],[-9,16]],[[3436,583],[0,-1]],[[3445,580]],[[3447,580],[1,0]],[[3188,1326],[78,-56],[48,-154],[-109,-182],[-46,-198]],[[3400,4096],[-1,-1],[-80,-475],[-21,-51],[-25,-118],[-46,-88],[26,-110],[-55,-108],[-13,-37],[143,-301],[12,-84],[-122,-359],[22,-140],[-27,-121],[30,-52],[-20,-167],[-68,-117],[-7,-14],[-11,-131],[-78,-217],[47,-55],[82,-24],[79,-56],[48,-154],[-109,-182],[-46,-198]],[[3187,1327],[-81,23],[-47,55],[79,216],[10,132],[7,14],[66,110],[3,7],[19,167],[-29,52],[26,121],[-21,140],[38,76],[84,282],[-13,85],[-143,301],[13,37],[11,16],[31,59],[14,33],[-27,110],[47,88],[10,33],[14,85],[21,51],[61,299],[20,176],[1,1]],[[2944,110],[-16,-18]],[[2928,92],[16,18]],[[3151,299],[-77,-17],[-27,-10],[-32,-4],[-33,-10],[-18,-7]],[[2977,256],[109,23]],[[21,3222],[-21,-3]],[[1912,1561],[-109,12],[-118,-23],[-68,-38],[-25,-66]],[[2272,1514],[-6,-2]],[[2266,1512],[6,1]],[[2383,1435],[22,-42]],[[2740,943],[-21,-10],[-27,-23]],[[2693,910],[47,33]],[[2877,1082],[12,16]],[[2889,1098],[39,18],[77,131],[35,8],[187,517]],[[3015,1458],[-139,-297],[13,-63]],[[3227,1772],[2,3]],[[3228,1777],[-1,-5]],[[3228,1777],[65,85]],[[3229,1775],[-1,2]],[[3229,1775]],[[3229,1775],[-1,0],[1,0]],[[2288,1511],[-9,2]],[[2281,1513],[7,-2]],[[2740,943],[54,33]],[[2794,977],[-54,-34]],[[2792,975],[1,0]],[[2851,952],[5,5]],[[2854,1051],[23,31]],[[2855,964],[11,58]],[[2757,1011],[-3,4]],[[2799,1005],[-10,4]],[[2828,950],[-4,2]],[[2831,413],[-13,-226],[18,-44]],[[2847,100],[-10,43]],[[3178,66],[7,29]],[[339,3215],[-3,12]],[[679,552],[-8,-18]],[[772,580],[-14,-34]],[[759,546],[14,33]],[[26,3528],[-26,2]],[[0,3530],[26,-2]],[[0,2936],[89,81],[22,60],[90,84],[40,23]],[[241,3184],[1,1]],[[242,3185],[38,23],[17,1]],[[327,3224],[-47,-15],[-38,-24]],[[242,3185],[-2,0]],[[240,3185],[-39,-24],[-90,-84],[-22,-60],[-89,-81]],[[0,2751],[12,-3],[71,-27]],[[83,2721],[20,-8]],[[103,2713],[-20,8]],[[83,2721],[-71,27],[-12,3]],[[91,2827],[-91,31]],[[26,3528],[95,-70]],[[183,2521],[-46,47],[-97,16],[43,137]],[[83,2721]],[[83,2721],[30,98]],[[234,3366],[-86,-9]],[[148,3357],[-23,-3]],[[125,3354],[24,2]],[[149,3356],[86,9]],[[146,3380],[1,-20],[1,-3]],[[148,3357],[1,-1]],[[149,3356],[3,-8],[82,-127],[5,-34],[1,-2]],[[240,3185],[1,-1]],[[241,3184],[1,-2]],[[242,3182],[37,-53]],[[279,3129],[1,-2],[25,-20]],[[308,3104],[-28,23],[-1,2]],[[279,3129],[-33,32],[-4,21]],[[242,3182],[0,3]],[[242,3185]],[[242,3185],[-7,37],[-83,126]],[[298,3209],[29,13]],[[418,3076],[-5,1]],[[914,2249],[-91,20],[-48,66],[-137,70],[-17,68],[22,67],[-50,34],[-91,212],[11,114],[-44,41],[-34,-1]],[[442,1345],[112,-169],[22,-428]],[[489,3766],[0,3]],[[989,1612],[-46,-146],[46,-145],[-62,-23],[-18,-97],[-55,-91],[4,-123],[-206,-152],[-63,-14],[-13,-73]],[[651,561],[-75,187]],[[642,2531],[-2,1]],[[699,1874],[-19,-4],[13,-56],[-21,-82]],[[796,433],[-86,0],[-9,-27]],[[701,406],[9,27],[92,-1]],[[802,432],[10,0]],[[812,432],[14,0],[22,16]],[[848,448],[2,1]],[[850,449],[7,5]],[[725,522],[18,-4]],[[772,580],[1,0]],[[819,555],[-3,1]],[[816,556],[-25,2]],[[857,455],[-8,-5]],[[849,450],[-1,-1]],[[848,449],[-22,-17],[-14,0]],[[812,432],[-10,1]],[[802,433],[-4,0]],[[844,168],[-20,172],[-1,3]],[[823,343],[-22,58],[1,31]],[[802,432],[0,1]],[[802,433],[0,21]],[[807,476],[5,-44]],[[812,432]],[[812,432],[11,-89]],[[823,343],[1,-3],[19,-172]],[[807,525],[9,31]],[[816,556],[42,161]],[[844,450],[-34,38]],[[812,498],[36,-49]],[[848,449],[0,-1]],[[848,448],[13,-17]],[[863,432],[-13,17]],[[850,449],[-1,1]],[[849,450],[-37,49]],[[898,89],[-3,-89]],[[895,0],[4,88]],[[896,97],[166,-25]],[[1062,72],[-166,25]],[[914,2249],[86,-128],[58,-36]],[[914,2249],[123,-22]],[[1037,2227],[1,0]],[[1038,2227],[1,0]],[[914,2249],[125,-22],[-2,0]],[[1037,2227],[-3,0],[-3,0],[-13,0],[-33,1]],[[951,2197],[50,-76],[57,-36]],[[1058,2085]],[[1048,2115],[10,-30]],[[1058,2085]],[[1058,2085],[-14,-27]],[[1044,2058],[0,-1]],[[1044,2057],[-15,-27],[-28,-71],[8,-126],[-54,-120],[2,-57]],[[981,2102],[50,-44]],[[1031,2058],[0,-1]],[[1031,2057],[13,0]],[[1044,2057],[90,1],[40,46],[27,98]],[[1032,2058],[-51,44]],[[985,2228],[54,-1]],[[1170,1851],[-87,-70],[-93,-167]],[[1031,2058]],[[1031,2058],[-1,-5]],[[1032,2058],[-1,-1]],[[1031,2057],[-1,-4]],[[1201,2202],[-28,-98],[-40,-45],[-89,-1]],[[1044,2058],[-12,0]],[[1032,2060],[0,-2]],[[1104,2256],[-66,-29]],[[1038,2227]],[[1039,2227],[65,28]],[[1054,966],[13,0]],[[1055,2126],[16,41]],[[1145,2287],[58,-19],[-2,-66]],[[1180,1033],[-12,-57]],[[1179,1043],[0,-2]],[[1195,1037],[2,1]],[[1232,1024],[1,0]],[[1668,1062],[-16,16]],[[1686,4051],[34,5]],[[1720,4056]],[[1720,4056]],[[1687,4050],[33,6]],[[1703,3682],[137,-2]],[[1840,3681],[-92,1]],[[1748,3682]],[[1748,3682],[-44,0]],[[1744,4096],[-24,-40]],[[1720,4056]],[[1720,4056],[-1,0]],[[1748,3682]],[[1748,3682],[-9,63],[2,30],[63,125],[30,14],[16,63],[-130,79]],[[1720,4056]],[[1720,4056]],[[1720,4056]],[[1720,4056]],[[1720,4056],[25,40]],[[1720,4056],[129,-79],[-16,-64],[-29,-12]],[[1763,2669],[-25,26]],[[1804,3901],[-64,-126],[-1,-30],[9,-63]],[[1748,3682]],[[1782,4025],[17,71]],[[1795,1107],[0,-102]],[[1795,1005],[1,102]],[[1902,1067],[-23,29]],[[1910,2584],[37,45]],[[2044,1775],[207,13]],[[2251,1789],[-207,-14]],[[2056,471],[31,72],[90,84],[7,93],[64,134],[56,43]],[[2461,160],[-18,-1]],[[2443,159],[-13,0],[-94,2],[-97,-18],[-55,0],[-35,-5]],[[2149,138]],[[2149,138],[-66,-11]],[[2083,127],[65,8]],[[2148,135],[1,0]],[[2149,135],[58,8],[32,0],[97,17],[94,-2],[13,0]],[[2443,158],[19,0]],[[2320,506],[-74,-83],[-66,-144],[-31,-141]],[[2149,138],[-1,-3]],[[2148,135],[-30,-135]],[[2119,0],[30,135]],[[2149,135],[0,3]],[[2149,138],[31,140],[67,145],[73,83]],[[2127,26],[98,-6]],[[2225,21],[-98,5]],[[2266,1512],[-17,0],[-22,30]],[[2227,1542],[-63,26]],[[2227,1543],[0,-1]],[[2227,1542],[22,-30],[17,0]],[[2278,1513],[-6,1]],[[2272,1513],[6,0]],[[2479,1461],[0,-1]],[[2479,1460],[-1,0]],[[2478,1460],[-6,-26],[-1,-3],[-95,-70],[-94,22]],[[2282,1383],[94,-22],[92,56],[4,17],[7,26]],[[2479,1460]],[[2479,1460],[0,1]],[[2285,2742],[22,65],[132,0],[69,28],[31,-21]],[[2331,1691],[-25,-41],[-2,-9]],[[2304,1641],[27,50]],[[2366,222],[25,0],[54,0]],[[2445,222],[54,-1]],[[2499,221]],[[2499,221],[137,0],[27,-15]],[[2391,223],[-25,0]],[[2369,1463],[39,-22],[52,17],[18,2]],[[2478,1460],[1,0]],[[2479,1460],[17,1]],[[2496,1462],[-17,-2]],[[2479,1460]],[[2479,1460],[-19,-2],[-52,-16],[-39,22]],[[2372,252],[41,0],[18,0],[15,-1]],[[2446,251],[5,0],[47,1]],[[2498,252],[2,0]],[[2500,252],[51,1],[94,6],[27,-6]],[[2433,83],[-56,0]],[[2377,83],[56,0]],[[2432,90],[1,-7]],[[2433,277],[0,-8]],[[2433,83],[4,-83]],[[2448,352],[-15,-68]],[[2438,0],[5,158]],[[2443,158],[0,1]],[[2443,159],[2,63]],[[2445,222],[1,29]],[[2446,251],[3,101]],[[2499,222]],[[2499,222],[-33,0],[-16,1]],[[2656,558],[-125,13],[-36,-51],[-37,-2]],[[2498,236],[1,-14]],[[2499,222],[0,-1]],[[2499,221],[-5,-37]],[[2495,184],[4,37]],[[2499,221],[0,1]],[[2498,252]],[[2498,252],[1,-12]],[[2499,222],[1,14]],[[2500,240],[0,12]],[[2500,252]],[[2547,718],[1,-1]],[[2548,717],[-1,1]],[[2555,711],[-7,6]],[[2672,254],[-27,6],[-69,0],[-25,-6]],[[2663,207],[-31,15],[-78,3]],[[2597,309],[-39,0]],[[2558,309],[39,0]],[[2592,561],[3,1]],[[2644,557],[-11,-172]],[[2633,385],[0,-1]],[[2633,384],[0,-1]],[[2633,383],[0,-1]],[[2633,382],[-6,-24]],[[2627,358],[6,24],[1,1]],[[2634,383],[0,1]],[[2634,384],[10,173]],[[2638,383],[-4,1]],[[2634,384],[-1,0]],[[2633,384],[-4,0]],[[2629,384],[4,-1]],[[2633,383],[1,0]],[[2634,383],[4,-1]],[[2632,383],[1,-1]],[[2633,382]],[[2634,385],[-1,0]],[[2633,385],[-1,-1]],[[2633,382],[2,1]],[[2635,384],[-1,1]],[[2753,1017],[-7,-7]],[[2752,1016],[1,0]],[[2867,3367],[63,-7],[140,-89],[53,-77],[82,-52],[108,-155],[159,-8],[65,51],[49,-7]],[[3218,325],[-11,25],[-40,53],[-3,1]],[[3164,404],[-1,0]],[[3163,404],[-21,8],[-11,3],[-10,4],[-34,20],[-26,5],[-4,1]],[[3057,445],[-1,0]],[[3056,445],[-98,12],[-6,-2],[-60,10]],[[2936,378],[5,45],[-29,32],[-13,6]],[[2904,459],[48,-5],[6,2],[98,-12]],[[3056,444]],[[3056,444],[5,0],[26,-6],[34,-20],[21,-7],[17,-16]],[[3159,395]],[[3159,395],[47,-45],[11,-24]],[[2906,457],[35,-34],[-5,-45]],[[3024,378],[20,8]],[[3044,386],[1,0]],[[3045,386]],[[3045,386],[15,6],[2,-1]],[[3062,391],[61,-25]],[[3123,366],[-59,26],[-2,-1]],[[3062,391],[-17,-6]],[[3045,385]],[[3045,385],[-1,0]],[[3044,385],[-19,-7]],[[3043,383],[1,2]],[[3044,385],[0,1]],[[3044,386],[0,1]],[[3044,387]],[[3044,387],[1,1]],[[3045,388]],[[3045,388],[0,3]],[[3045,387],[-1,0]],[[3044,387],[-1,0]],[[3044,388]],[[3150,587],[-20,-50],[-52,-59],[-22,-33]],[[3056,445],[0,-1]],[[3056,444],[-1,-2],[-6,-9],[-5,-45]],[[3044,388],[0,-1]],[[3044,387],[1,0]],[[3044,388],[1,0]],[[3045,388],[1,0]],[[3044,388],[5,45],[6,9],[1,2]],[[3056,444],[1,1]],[[3057,445],[22,33],[49,51],[5,13],[17,43]],[[3150,585],[0,2]],[[3047,378],[-2,7]],[[3045,385],[0,1]],[[3045,386],[0,1],[0,1]],[[3045,388],[-1,0]],[[3045,387],[0,-1]],[[3045,386],[0,-1]],[[3045,385],[1,-7]],[[3221,1242],[-122,-264],[0,-1]],[[3099,977],[0,-1]],[[3099,976],[-1,-1],[-4,-12],[-14,-40]],[[3080,923]],[[3080,923],[-30,-87],[-1,-6]],[[3050,830],[1,6]],[[3051,836],[30,87]],[[3081,923]],[[3081,923],[18,52],[0,1]],[[3099,976]],[[3099,976],[1,1],[121,265]],[[3057,802],[-6,34]],[[3058,994],[41,-18]],[[3099,976]],[[3099,976],[8,-4]],[[3107,973],[-8,3]],[[3099,976],[0,1]],[[3099,977],[-41,18]],[[3190,918],[-73,1]],[[3117,919],[-2,0],[-13,1]],[[3102,920],[-21,3]],[[3081,923],[-1,0]],[[3080,923],[-4,1]],[[3076,924],[4,-1]],[[3080,923],[1,0]],[[3081,923],[21,-3]],[[3102,920],[15,-1]],[[3117,919],[73,-1]],[[3116,349],[-12,-9]],[[3105,339],[10,8]],[[3293,525],[-76,2],[-38,-46],[-15,-75],[-1,-2]],[[3163,404],[0,-1],[-1,-1],[0,-2],[-3,-5]],[[3159,395],[-17,-24],[-1,-1]],[[3141,370],[1,1],[17,24]],[[3159,395],[3,6],[1,2],[1,1]],[[3164,404],[0,2],[16,75],[38,46],[56,-13]],[[3150,587],[0,-2]],[[3150,585],[-4,-13]],[[3147,572],[3,15]],[[3161,655],[-11,-68]],[[3150,587],[12,68]],[[3310,3070],[-28,23]],[[3282,3093],[-34,28]],[[3260,303],[16,0]],[[3278,303],[-6,1],[-2,0]],[[3270,304],[-1,0]],[[3269,304],[-6,-1]],[[3269,303],[0,1]],[[3269,304],[2,25]],[[3271,329],[0,2],[-1,15],[5,8]],[[3274,354],[-4,-9],[-1,-8],[2,-6],[0,-2]],[[3271,329],[2,-17],[-3,-8]],[[3270,304],[-1,-1]],[[3275,514],[19,10]],[[3277,3064],[5,29]],[[3282,3093],[21,122]],[[3286,441],[0,1]],[[3293,1862],[136,91],[43,90],[83,85],[-29,74]],[[3294,524],[1,1]],[[3295,525],[-1,1]],[[3294,526],[-1,-1]],[[3293,525],[1,-1]],[[3326,555],[-32,-29]],[[3295,525],[31,29]],[[3301,3057],[50,29]],[[3417,242],[-2,1]],[[3415,243],[-24,9],[-7,39]],[[3384,291],[0,1],[-33,22],[-44,-11]],[[3308,303],[43,10],[33,-21],[0,-1]],[[3384,291],[29,-47],[1,0],[1,-1]],[[3415,243],[0,-1]],[[3480,3893],[-57,-119],[-81,-21],[-25,-39]],[[3342,3289],[-1,69]],[[3396,3359],[-10,-70]],[[3420,3360],[-20,-71]],[[3472,443],[-52,-123]],[[3420,320],[52,122]],[[3500,310],[-4,-2],[-15,-41]],[[3481,267],[-1,-1],[-31,-16]],[[3451,250],[29,15],[1,2]],[[3481,267],[9,37]],[[3456,178],[23,-86],[45,-19]],[[3472,3084],[11,-1]],[[3483,3083],[26,26]],[[3508,3045],[-25,38]],[[3483,3083],[-8,7]],[[3490,3917],[-6,41],[100,138]],[[3518,3118],[21,21],[3,2]],[[3542,3141],[113,54]],[[3566,3115],[-24,26]],[[3542,3141],[-21,22]],[[3742,212],[-9,-61],[-86,-127]],[[3647,24],[86,127],[9,61]],[[3863,1085],[151,-39]],[[990,1613],[1,0],[-1,1]],[[990,1614],[0,-1]],[[2499,235],[2,3],[-2,2]],[[2499,240],[-2,-3],[2,-2]],[[2690,910],[1,-2],[2,0],[-1,2],[-2,0]],[[3275,514],[1,1],[-1,0],[-1,0],[1,-1]],[[1668,1022],[-22,91],[5,213],[-74,42],[15,78],[-73,-51],[-59,36],[-235,13],[-54,89],[-61,11],[-63,65],[-39,-6],[-85,79],[-100,-8],[-151,58],[-141,21],[-78,-24],[-122,77],[-240,70],[-24,-26],[-67,2]],[[1756,935],[42,-49],[97,-287],[33,-30],[-3,-48],[131,-50],[-12,-18],[116,-81],[31,-57],[-6,-72],[1,-1]],[[2186,242],[0,-2]],[[2171,245],[15,-3]],[[2186,242],[50,-12]],[[2528,291],[-53,10],[-45,171],[-93,9],[-101,-251]],[[2539,268],[4,-4]],[[2660,217],[69,2],[10,-55]],[[3424,691],[-50,-25]],[[3543,722],[-29,-65],[71,-1],[28,-38],[202,163],[46,17],[60,-19]],[[3921,777],[175,6]],[[3075,35],[61,33]],[[3138,77],[-2,-9],[4,-2],[6,7],[-8,4]],[[2554,225],[-55,-3]],[[2551,254],[-178,-2]],[[3111,55],[-37,-20]],[[3137,69],[-23,-9]],[[1656,957],[-236,-441],[-72,-11],[-242,-114],[-227,-268]],[[3114,60],[-3,-5]],[[2288,1511],[2,-2]],[[2221,1812],[2,-10]],[[2224,1802],[-3,10]],[[2240,1753],[0,-60],[-74,-123],[74,123],[0,60]],[[2754,1017],[-3,37]],[[2753,1019],[0,-2]],[[2754,1015]],[[2363,1451],[6,-4]],[[2369,1447],[9,-7]],[[2378,1440],[1,0]],[[2379,1439],[0,1]],[[2379,1440],[-10,7]],[[2369,1447],[-6,4]],[[2385,1410],[-2,24],[0,1],[-4,5]],[[2379,1440],[-1,0]],[[2378,1440],[0,1]],[[2405,1393],[156,-5],[-8,-17],[111,-67],[-37,-53],[47,-55],[-11,-79],[77,-14],[11,-49]],[[2925,857],[-47,72]],[[3074,11],[-13,-4]],[[3062,6],[12,4]],[[344,3359],[52,-39]],[[396,3321],[-51,38]],[[398,3208],[-31,-18]],[[367,3190],[30,17]],[[2739,246],[85,-11],[77,-44]],[[2908,167],[-7,24],[-33,25],[-43,20],[-86,11]],[[2901,191],[7,-24]],[[2974,160],[12,-17],[14,-7],[33,-9],[8,-6]],[[3041,121],[8,-6],[2,-3]],[[3051,112],[0,-1],[1,-3],[5,-28],[-6,-19],[-2,-8],[0,-3]],[[2974,241],[0,1]],[[3050,50],[7,30],[-5,31],[-1,1]],[[3051,112],[-10,9]],[[3041,121],[-7,7],[-48,15],[-11,18]],[[3048,227],[1,-1]],[[3049,228],[-1,0]],[[3054,7],[1,-7]],[[3056,0],[-1,7]],[[3058,270],[-4,-52],[5,-10]],[[3059,208]],[[3103,105],[-20,41],[-23,62],[-5,10],[3,52]],[[3059,208]],[[3059,208],[9,-29],[36,-81]],[[3102,109],[0,8]],[[3102,114],[1,2]],[[3117,91],[7,-11]],[[3124,80],[-5,17]],[[3132,64],[2,-2]],[[3139,62],[-6,2]],[[3141,63],[2,-54],[1,-9]],[[3142,55],[-1,8]],[[3145,0],[-2,17]],[[3165,175],[9,0],[1,0]],[[3175,175],[1,0]],[[3176,175],[2,0],[5,0],[75,5],[9,0]],[[3266,180],[-9,1],[-74,-5],[-5,0],[-2,-1]],[[3176,175],[-1,0]],[[3175,175],[-1,0],[-9,0]],[[3173,260],[-6,-40],[3,-35],[1,-1],[4,-9]],[[3175,175]],[[3175,175],[1,0],[4,-9],[2,-3]],[[3185,95],[4,39],[-4,24]],[[3185,158],[-1,3],[-3,6],[-5,8]],[[3176,175]],[[3176,175],[-5,9],[-1,2],[-3,34],[6,40]],[[3176,59],[2,7]],[[3180,0],[-1,26]],[[3185,97],[-10,-38],[5,-59]],[[3182,163],[2,-5]],[[3185,158]],[[3185,158],[-2,3],[-1,2]],[[3184,158],[5,-23]],[[3281,65],[1,-18]],[[3283,47],[0,12],[-2,6]],[[3363,20]],[[3049,50],[5,-43]],[[3055,7],[-5,43]],[[25,4096],[20,-55],[104,-89],[57,-90],[7,-9],[42,-44],[12,-3],[22,-29],[36,-31],[9,-6],[11,-13],[72,-129],[5,-4],[15,-89],[59,-136],[13,-159],[39,-71],[-12,-69],[1,-30],[-61,-102],[-37,-20]],[[439,2918],[37,20],[61,102],[12,99],[-39,72],[-14,158],[-73,225],[-78,133],[-10,14],[-45,36],[-23,30],[-61,55],[-56,90],[-104,89],[-20,55]],[[354,2975],[58,-85]],[[755,2337],[385,-449]],[[439,2918],[-196,-144],[-113,-40],[-101,-177],[-29,-94]],[[669,4096],[-7,-11],[-36,-113],[1,-92]],[[2430,187],[2,-97]],[[3364,3132],[-7,-53]],[[3444,3037],[-22,50],[95,149]],[[3444,3037],[0,-2]],[[3444,3035],[0,2]],[[1688,4053],[18,43]],[[1705,4096],[-17,-43]],[[1688,4053],[30,-111],[-79,-133],[39,-31],[26,-96],[-37,-87],[6,-164],[-39,-125],[37,-81],[117,-56],[28,-53],[-11,-68],[36,-76],[-5,-63],[59,-56],[51,-223],[81,-115],[-14,-77],[30,-95],[-27,-119],[40,-101],[-24,-33],[23,-54],[62,-30],[-1,-50],[104,-98],[20,-105],[-17,49]],[[3086,279],[88,20]],[[3158,298],[-7,1]],[[2450,223],[-59,0]],[[1967,1550],[140,-70],[57,-4],[115,-31]],[[2164,1475],[115,-30]],[[2179,1473],[22,-4]],[[2806,1066],[-5,-5]],[[2977,255],[0,3]],[[3473,568],[47,104]],[[3520,672],[-46,-102]],[[2528,291],[11,-23]],[[879,123],[-28,-49]],[[237,3367],[-3,-1]],[[235,3365],[3,0]],[[336,3227],[-2,-1]],[[334,3226],[2,0]],[[382,3252],[-24,-14]],[[358,3237],[13,7]],[[371,3244],[1,1],[9,4],[2,2]],[[371,3244]],[[651,561],[74,-39]],[[666,564],[91,-18]],[[743,518],[40,-10]],[[783,508]],[[783,508],[12,-3]],[[795,505],[7,-2]],[[810,488],[-5,5]],[[805,493],[-2,2]],[[803,495],[-8,10]],[[795,505],[-10,11]],[[785,516],[-1,1]],[[784,517],[-25,28]],[[791,558],[-30,3]],[[773,580],[-1,0]],[[791,555],[-7,-38]],[[784,517],[-1,-9]],[[783,508],[-1,-2]],[[783,506],[0,2]],[[783,508],[2,8]],[[785,516],[7,39]],[[798,433],[-2,0]],[[802,454],[1,41]],[[803,495],[0,12]],[[803,507],[0,3]],[[803,510],[1,0]],[[804,510],[3,15]],[[803,510],[0,-3]],[[803,507],[2,-14]],[[805,493],[2,-17]],[[803,510],[9,-12]],[[812,499],[-8,11]],[[804,510]],[[843,168],[18,-51]],[[861,117],[-17,51]],[[861,117],[35,-20]],[[896,97],[-34,20]],[[757,546],[0,-1],[1,0],[1,1],[-2,0]],[[4061,121],[-70,-60],[-81,19],[-97,-42],[-150,-7]],[[335,3178],[31,-85]],[[366,3093],[7,-20]],[[435,2940],[-61,133],[-8,20]],[[366,3093],[-31,82]],[[378,3185]],[[755,446],[-2,-41],[29,-92],[3,-13]],[[785,300],[27,-127]],[[810,173],[-25,127]],[[785,300],[-2,13],[-29,91],[1,41]],[[858,36],[17,-36]],[[875,0],[-17,36]],[[3340,320],[13,3],[55,77],[65,168]],[[3474,570],[-5,-10],[-48,-113],[-13,-47],[-2,-2],[-13,-12],[-12,-14],[-39,-51]],[[4096,2368],[-60,-103],[-71,-173],[-8,-96],[1,-12],[51,-174],[-21,-157],[-5,-46],[-2,-85],[-63,-190],[-81,-88],[-8,-9],[-42,-53],[-7,-17],[-36,-129],[-8,-3],[-38,-22]],[[3698,1011],[-16,-9]],[[3682,1002],[-7,-75],[-31,-39],[-124,-216]],[[3520,672],[155,255],[7,75]],[[3682,1002],[0,1],[16,8]],[[3698,1011],[38,22],[9,3],[42,146],[131,150],[64,190],[28,288],[-52,174],[7,108],[131,276]],[[629,3864],[-121,-38],[-81,-77],[-214,-80],[-89,22],[-85,-22],[-39,-43]],[[629,3864],[80,7],[37,-24],[186,96],[299,80],[71,-28],[73,7],[212,94]],[[1576,4096],[-201,-94],[-73,-6],[-71,28],[-299,-80],[-186,-97],[-37,25],[-55,5],[-25,-13]],[[2732,4096],[18,-25],[7,-6],[44,-31],[83,-132],[15,-61],[64,-128],[7,-31],[34,-104],[-39,-99],[-3,-22],[0,-3],[10,-24],[6,-7],[22,-18],[65,-90],[59,-67]],[[3124,3248],[-124,157],[-28,25],[-6,49],[39,99],[-42,135],[-79,189],[-82,132],[-69,62]],[[4096,2848],[-54,43],[-8,5]],[[4034,2896],[-78,50]],[[3956,2946],[-12,7],[-26,-26],[-28,-31],[-31,46],[-283,-36],[-131,103],[-174,52],[-62,89],[-60,38],[-25,60]],[[3567,2910],[9,-5],[283,37],[12,-36],[19,-12],[33,37],[33,15]],[[3956,2946],[14,7],[64,-57]],[[4034,2896],[7,-6],[55,-44]],[[3373,680],[0,-2]],[[3392,805],[-7,-176]],[[3386,627],[8,169],[-2,9],[-20,45],[109,154],[83,54],[36,141],[93,148],[-22,16],[58,250],[-11,-12],[-35,62],[49,90],[-29,43],[105,177],[101,14],[59,222],[37,4],[-28,43],[52,14],[67,118]],[[378,3185],[-9,10]],[[371,3196],[7,-11]],[[3189,135],[-4,-38]],[[3147,103],[-5,-8]],[[3142,95],[5,8]],[[2757,1011],[32,-2]],[[2794,977],[30,-25]],[[2041,41],[-15,51]],[[2026,91],[31,-90],[36,15]],[[2128,401],[-44,-32],[-114,-9],[-35,-52],[-2,-77],[77,22],[74,-45]],[[2337,481],[-36,75],[-114,116]],[[2304,897],[106,120],[118,69],[104,124],[42,-14]],[[2589,1393],[212,190],[41,29],[67,-1],[265,222]],[[3123,1972],[-19,26],[20,110],[94,69],[82,118],[2,35],[-39,5],[27,52],[-34,29]],[[3254,2418],[-32,38],[15,54],[117,49]],[[3101,38],[-15,-13]],[[3086,24],[15,14]],[[3018,170],[36,-2],[26,6],[17,15]],[[3097,189],[-79,-18]],[[3119,97],[-16,8]],[[2739,164],[17,-96]],[[2431,208],[-1,-21]],[[2433,269],[-2,-46]],[[667,4096],[-13,-20],[-27,-196]],[[1682,4068],[10,28]],[[2789,1009],[-32,2]],[[2824,952],[-30,24],[5,29]],[[2876,139],[22,19]],[[2751,1054],[2,-35]],[[3267,180],[123,-43]],[[3191,341],[45,26]],[[3236,367],[11,6],[10,4],[15,9],[37,103],[26,24],[51,114]],[[3385,629],[-50,-113],[-27,-27],[-51,-111],[-12,-5],[-9,-6]],[[3236,367],[-41,-28]],[[3253,376],[12,3]],[[3265,379],[1,3]],[[3705,0],[55,55],[58,-11],[97,44],[66,-14],[115,93]],[[0,3483],[19,-37],[95,-95],[93,-186],[147,-190]],[[354,2975],[-84,124],[-10,12],[-53,54],[-92,186],[-96,95],[-19,37]],[[2361,1447],[-66,35]],[[2296,1481],[65,-34]],[[2748,986],[31,51],[27,28],[2,8]],[[2801,1061],[-22,-24],[-30,-50]],[[2808,1073],[-2,-7]],[[2964,251],[-22,-10],[-32,-67],[-34,-35],[-43,-74],[-5,-14],[0,-51]],[[2828,0],[1,52],[47,87]],[[2898,158],[13,16],[31,66],[35,16]],[[2970,378],[1,-26],[6,-80]],[[2977,258],[1,13],[-7,107]],[[2225,232],[9,-12]],[[2234,220],[-2,-15],[-8,-184],[2,-21]],[[2227,0],[7,220]],[[2234,220],[1,9]],[[3170,299],[-12,-1]],[[3663,31],[151,6],[96,43],[81,-19],[105,62]],[[4096,124],[-26,-1],[-9,-2]],[[0,3624],[39,45],[85,21],[89,-21],[215,79],[80,77],[121,38]],[[3123,3247],[25,-59],[61,-39],[62,-88],[174,-52],[122,-99]],[[2285,1520],[-1,-7]],[[2290,1509],[15,-19]],[[2305,1491],[-15,19]],[[264,3395],[9,-40]],[[273,3355],[-9,40]],[[0,443],[42,4],[79,74],[144,3],[87,-36],[102,-138],[73,68],[105,40],[39,76]],[[803,612],[30,97],[35,4]],[[1067,966],[84,70],[106,-12],[286,67]],[[3143,17],[-1,38]],[[3282,337],[-8,4],[-51,-19]],[[3223,322],[51,19],[22,-13],[44,-8]],[[3342,321],[-63,18]],[[1655,957],[74,-36],[26,15]],[[1656,957],[18,32]],[[1733,923],[-38,15],[-39,19],[12,65]],[[1755,936],[-26,-15]],[[2236,230],[-65,16]],[[2236,230],[101,251],[93,-9]],[[3374,666],[50,25]],[[3414,690],[12,2]],[[3426,694],[-12,-3]],[[3921,777],[1,2]],[[367,3190],[-66,-9],[-23,-68],[23,68],[66,9]],[[415,3306],[-19,15]],[[396,3320],[19,-14]],[[397,3207],[12,7]],[[409,3214],[-11,-6]],[[3524,73],[-10,-21]],[[3514,52],[-24,-52]],[[3491,0],[23,52]],[[3514,52],[11,22]],[[3663,31],[-200,42],[-72,65]],[[2754,1015],[3,-4]],[[2789,1009],[5,-32]],[[2824,952],[5,-3]],[[2837,143],[-19,44],[11,209]],[[2836,143],[12,-43]],[[2847,955],[0,1]],[[3267,173],[-11,-7]],[[2614,60],[-6,-60]],[[2609,0],[6,59]],[[2401,493],[-79,21],[-103,114],[-87,148],[-109,85],[-42,73],[-14,17],[-113,107],[-90,122],[-233,219],[-138,80],[-218,380],[-239,288],[-154,137],[-27,53],[-111,187],[-111,109],[-120,258],[-59,84]],[[412,2890],[120,-257],[112,-109],[111,-187]],[[1140,1888],[252,-409],[129,-79],[10,-2],[116,-110],[117,-109],[89,-122],[10,-9],[104,-97],[14,-17],[32,-60],[9,-14],[110,-84],[86,-148],[104,-114],[22,-14],[9,-3],[9,-2],[38,-3]],[[2401,492],[38,-3]],[[2439,490],[-28,4]],[[2449,487],[8,-3]],[[2457,484],[-8,3]],[[2458,483],[15,-6]],[[2473,477],[-15,7]],[[2480,474],[167,-156],[36,-229],[56,-25]],[[2739,66],[-55,25],[-11,116],[-26,111],[-39,51],[-48,47],[-6,5],[-74,53]],[[2171,0],[-2171,0],[0,4096],[4096,0],[0,-4096],[-1925,0]],[[648,571],[66,28],[68,-22],[33,-67],[-17,-78],[-55,17],[0,97],[-19,-24],[-67,16],[-9,33]],[[787,151],[10,24],[82,-13],[-18,-29],[43,-23],[-51,-82],[-66,123]],[[2914,407],[19,-29],[130,0],[47,-43],[18,43],[128,-75],[65,0],[33,-75],[99,23],[30,-23],[-18,-45],[-111,-67],[11,-116],[-626,0],[0,303],[65,112],[110,-8]],[[2818,923],[-79,16],[16,82],[50,52],[65,13],[63,-35],[-22,-88],[-37,-37],[-56,-3]],[[2351,1425],[-69,71],[-28,117],[41,27],[185,10],[2,-64],[-77,-47],[-54,-114]],[[3523,3137],[-7,-28],[-33,0],[-32,-75],[-59,6],[-50,56],[-53,163],[48,30],[131,0],[48,-30],[7,-122]],[[408,3266],[34,-7],[-65,-75],[-44,24],[-42,101],[-44,25],[21,49],[32,28],[77,-2],[31,-143]],[[3383,588],[9,73],[67,44],[27,-26],[32,63],[-50,-166],[-39,7],[-34,-41],[-12,46]],[[209,3402],[50,-19],[17,40],[25,-122],[90,-55],[5,-37],[-55,-29],[-7,47],[-125,175]]]}