{"objects":{"water":{"type":"GeometryCollection","geometries":[{"type":"Polygon","properties":{"source":"naturalearthdata.com","kind":"ocean","area":1576712559132672,"sort_rank":200,"min_zoom":0.0,"id":1},"arcs":[[8]]}]},"buildings":{"type":"GeometryCollection","geometries":[]},"places":{"type":"GeometryCollection","geometries":[]},"transit":{"type":"GeometryCollection","geometries":[]},"pois":{"type":"GeometryCollection","geometries":[]},"boundaries":{"type":"GeometryCollection","geometries":[{"type":"LineString","properties":{"name:kg":"Vietnam","name:ka":"\u10d5\u10d8\u10d4\u10e2\u10dc\u10d0\u10db\u10d8","name:ko":"\ubca0\ud2b8\ub0a8","name:cv":"\u0412\u044c\u0435\u0442\u043d\u0430\u043c","name:km":"\u179c\u17c0\u178f\u178e\u17b6\u1798","name:kl":"Vietnam","name:cs":"Vietnam","name:tw":"Vietnam","name:ki":"Vietnam","name:kw":"Vietnam","name:kv":"\u0412\u044c\u0435\u0442\u043d\u0430\u043c","name:th":"\u0e1b\u0e23\u0e30\u0e40\u0e17\u0e28\u0e40\u0e27\u0e35\u0e22\u0e14\u0e19\u0e32\u0e21","name:tl":"Vietnam","name:ch":"Vietnam","name:ce":"\u0412\u044c\u0435\u0442\u043d\u0430\u043c","name:ta":"\u0bb5\u0bbf\u0baf\u0b9f\u0bcd\u0ba8\u0bbe\u0bae\u0bcd","name:tg":"\u0412\u0435\u0442\u043d\u0430\u043c","name:ca":"Vietnam","name:te":"\u0c35\u0c3f\u0c2f\u0c24\u0c4d\u0c28\u0c3e\u0c02","name:cy":"Fietnam","name:qu":"Witnam","name:da":"Vietnam","name:de":"Vietnam","source":"openstreetmap.org","name:kn":"\u0cb5\u0cbf\u0caf\u0cc6\u0c9f\u0ccd\u0ca8\u0cbe\u0cae\u0ccd","name:dv":"\u0788\u07a8\u0787\u07ac\u0793\u07aa\u0782\u07a7\u0789\u07aa","name:lv":"Vjetnama","name:lt":"Vietnamas","name:uz":"Vyetnam","name:kk":"\u0412\u044c\u0435\u0442\u043d\u0430\u043c","name:ur":"\u0648\u06cc\u062a\u0646\u0627\u0645","name:lb":"Vietnam","name:la":"Vietnamia","name:tt":"\u0412\u044c\u0435\u0442\u043d\u0430\u043c","name:uk":"\u0412'\u0454\u0442\u043d\u0430\u043c","name:ug":"\u06cb\u064a\u06d0\u062a\u0646\u0627\u0645","name:li":"Vietnam","name:ln":"Vietnami","name:lo":"\u0e9b\u0eb0\u0ec0\u0e97\u0e94\u0eab\u0ea7\u0ebd\u0e94\u0e99\u0eb2\u0ea1","name:el":"\u0392\u03b9\u03b5\u03c4\u03bd\u03ac\u03bc","name:eo":"Vjetnamujo","name:en":"Vietnam","name":"Vi\u1ec7t Nam","name:tk":"W\u00fdetnam","name:ee":"Vietnam","name:ku":"Viyetnam","name:eu":"Vietnam","name:et":"Vietnam","name:es":"Vietnam","name:ay":"Vietnam","name:rm":"Vietnam","name:rn":"Vietnam","name:az":"Vyetnam","name:ie":"Viet-Nam","name:id":"Vietnam","name:ik":"Vietnam","name:ar":"\u0641\u064a\u062a\u0646\u0627\u0645","name:io":"Vietnam","name:av":"\u0412\u044c\u0435\u0442\u043d\u0430\u043c","name:ak":"Vietnam","name:am":"\u126c\u1275 \u1293\u121d","name:it":"Vietnam","name:an":"Vietnam","name:ru":"\u0412\u044c\u0435\u0442\u043d\u0430\u043c","name:rw":"Viyetinamu","name:af":"Vi\u00ebtnam","name:zu":"IViyetnami","kind_detail":"2","name:za":"Yiednamz","name:zh-yue":"\u8d8a\u5357","name:zh":"\u8d8a\u5357","name:so":"Fiyetnam","name:sn":"Vietnam","name:sm":"Vietnam","name:sl":"Vietnam","name:sk":"Vietnam","name:ja":"\u30d9\u30c8\u30ca\u30e0","name:si":"\u0dc0\u0dd2\u0dba\u0da7\u0dca\u0db1\u0dcf\u0db8\u0dba","name:sh":"Vijetnam","name:se":"Vietnam","name:sc":"Vietnam","name:br":"Vi\u00eat Nam","name:bs":"Vijetnam","name:bm":"Vietnam","name:bn":"\u09ad\u09bf\u09af\u09bc\u09c7\u09a4\u09a8\u09be\u09ae","name:bo":"\u0f5d\u0f72\u0f0b\u0f4f\u0f72\u0f0b\u0f53\u0f58\u0f0d","name:bi":"Vietnam","name:sw":"Vietnam","name:be":"\u0412'\u0435\u0442\u043d\u0430\u043c","name:su":"Vi\u00e9tnam","name:bg":"\u0412\u0438\u0435\u0442\u043d\u0430\u043c","name:ss":"IViyethina","name:ba":"\u0412\u044c\u0435\u0442\u043d\u0430\u043c","name:sq":"Vietnami","name:jv":"Vi\u00e8tnam","name:sa":"\u091a\u092e\u094d\u092a\u093e\u0926\u0947\u0936","name:ia":"Vietnam","name:pt":"Vietname","name:om":"Veetinaam","name:oc":"Vietnam","min_zoom":8.0,"name:ro":"Vietnam","name:zh-min-nan":"Oa\u030dt-l\u00e2m","name:os":"\u0412\u044c\u0435\u0442\u043d\u0430\u043c","name:or":"\u0b2d\u0b3f\u0b0f\u0b24\u0b28\u0b3e\u0b2e","name:pl":"Wietnam","name:st":"Vietnam","sort_rank":262,"name:sr":"\u0412\u0438\u0458\u0435\u0442\u043d\u0430\u043c","osm_relation":true,"name:pa":"\u0a35\u0a40\u0a05\u0a24\u0a28\u0a3e\u0a2e","name:tr":"Vietnam","name:hi":"\u0935\u093f\u092f\u0924\u0928\u093e\u092e","name:sv":"Vietnam","name:he":"\u05d5\u05d9\u05d9\u05d8\u05e0\u05d0\u05dd","name:hy":"\u054e\u056b\u0565\u057f\u0576\u0561\u0574","name:ht":"Vyetnam","name:hu":"Vietn\u00e1m","name:hr":"Vijetnam","kind":"country","name:is":"V\u00edetnam","name:yi":"\u05d5\u05d5\u05d9\u05e2\u05d8\u05e0\u05d0\u05dd","name:yo":"Fi\u1eb9tn\u00e1m","name:mt":"Vjetnam","alt_name:eo":"Vjetnamo;Vjetnamio","name:ms":"Vietnam","name:mr":"\u0935\u094d\u0939\u093f\u092f\u0947\u0924\u0928\u093e\u092e","name:my":"\u1017\u102e\u101a\u1000\u103a\u1014\u1019\u103a\u1014\u102d\u102f\u1004\u103a\u1004\u1036","name:mg":"Vietnam","name:ve":"Vi\u00ebtnam","name:ml":"\u0d35\u0d3f\u0d2f\u0d31\u0d4d\u0d31\u0d4d\u0d28\u0d3e\u0d02","name:mn":"\u0412\u044c\u0435\u0442\u043d\u0430\u043c","name:mi":"Whitin\u0101mu","id":-49915,"name:mk":"\u0412\u0438\u0435\u0442\u043d\u0430\u043c","name:vo":"Vietnam\u00e4n","name:fa":"\u0648\u06cc\u062a\u0646\u0627\u0645","name:ff":"Vietnam","name:fi":"Vietnam","name:ky":"\u0412\u044c\u0435\u0442\u043d\u0430\u043c","name:fo":"Vjetnam","name:fr":"Vi\u00eat Nam","name:fy":"Fjetnam","name:nl":"Vietnam","name:nn":"Vietnam","name:no":"Vietnam","name:na":"Bitinam","name:wa":"Vietnam","name:wo":"Wiyetnaam","name:nv":"Bi\u02bcednam","name:ga":"V\u00edtneam","name:gd":"Bhiet-Nam","name:gn":"Vietnam","name:gl":"Vietnam","maritime_boundary":true,"name:gv":"Yn Vietnam","name:gu":"\u0ab5\u0abf\u0aaf\u0ac7\u0aa4\u0aa8\u0abe\u0aae"},"arcs":[0]},{"type":"LineString","properties":{"name:right:nl":"S\u00f3c Tr\u0103ng","name:right:ja":"\u30bd\u30af\u30c1\u30e3\u30f3","name:right:fr":"Province de S\u00f3c Tr\u0103ng","name:right:uk":"\u0428\u043e\u043a\u0447\u0430\u043d\u0433","name:left:ja":"\u30d0\u30ea\u30a2\uff1d\u30d6\u30f3\u30bf\u30a6","name:right:sw":"Mkoa wa S\u00f3c Tr\u0103ng","id:right":-1873632,"name:right:ur":"\u0633\u0648\u06a9 \u062a\u0631\u0627\u0646\u06af \u0635\u0648\u0628\u06c1","min_zoom":8.0,"name:right:fa":"\u0627\u0633\u062a\u0627\u0646 \u0633\u0648\u06a9 \u062a\u0631\u0627\u0646\u06af","id":-1904296,"name:right":"T\u1ec9nh S\u00f3c Tr\u0103ng","name:right:tg":"\u0412\u0438\u043b\u043e\u044f\u0442\u0438 \u0421\u043e\u043a \u0422\u0440\u0430\u043d\u0433","name:left:en":"Ba Ria - Vung Tau Province","sort_rank":256,"kind_detail":"4","source":"openstreetmap.org","name:right:ar":"\u0645\u062d\u0627\u0641\u0638\u0629 \u0633\u0648\u0643 \u062a\u0634\u0627\u0646\u063a","id:left":-1904296,"name:right:fi":"S\u00f3c Tr\u0103ng","name:left":"T\u1ec9nh B\u00e0 R\u1ecba - V\u0169ng T\u00e0u","name:right:es":"S\u00f3c Tr\u0103ng","name:right:sr":"\u0428\u043e\u043a \u0427\u0430\u043d\u0433","name:right:pt":"Soc Trang","name:right:it":"Provincia di Soc Trang","name:right:km":"\u1781\u17c1\u178f\u17d2\u178f\u1783\u17d2\u179b\u17b6\u17c6\u1784","name:right:ko":"\uc18d\uc9f1 \uc131","name:right:ru":"\u0428\u043e\u043a\u0447\u0430\u043d\u0433","name:right:sv":"Soc Trang","name:right:ro":"S\u00f3c Tr\u0103ng","name:right:id":"Provinsi Soc Trang","name:right:pl":"Prowincja S\u00f3c Tr\u0103ng","name:right:en":"Soc Trang province","osm_relation":true,"kind":"region","name":"T\u1ec9nh B\u00e0 R\u1ecba - V\u0169ng T\u00e0u - T\u1ec9nh S\u00f3c Tr\u0103ng","name:right:de":"S\u00f3c Tr\u0103ng","name:right:bg":"\u0421\u043e\u043a \u0427\u0430\u043d\u0433","maritime_boundary":true,"name:right:th":"\u0e08\u0e31\u0e07\u0e2b\u0e27\u0e31\u0e14\u0e0b\u0e49\u0e2d\u0e01\u0e08\u0e31\u0e07","name:right:zh":"\u6714\u838a\u7701"},"arcs":[1]},{"type":"LineString","properties":{"kind":"region","name:en":"Ba Ria - Vung Tau Province","name":"T\u1ec9nh B\u00e0 R\u1ecba - V\u0169ng T\u00e0u","sort_rank":256,"kind_detail":"4","min_zoom":8.0,"source":"openstreetmap.org","maritime_boundary":true,"id":-1904296,"osm_relation":true,"name:ja":"\u30d0\u30ea\u30a2\uff1d\u30d6\u30f3\u30bf\u30a6"},"arcs":[2]},{"type":"LineString","properties":{"name:right:no":"Bac Lieu","name:right:ja":"\u30d0\u30af\u30ea\u30a8\u30a6","name:right:fr":"Province de B\u1ea1c Li\u00eau","name:right:uk":"\u0411\u0430\u043a\u043b\u044c\u0454\u0443","name:left:ur":"\u0633\u0648\u06a9 \u062a\u0631\u0627\u0646\u06af \u0635\u0648\u0628\u06c1","name:left:sw":"Mkoa wa S\u00f3c Tr\u0103ng","name:left:ja":"\u30bd\u30af\u30c1\u30e3\u30f3","name:right:sw":"Mkoa wa B\u1ea1c Li\u00eau","id:right":-1873533,"name:left:uk":"\u0428\u043e\u043a\u0447\u0430\u043d\u0433","name:right:ur":"\u0628\u0627\u06a9 \u0644\u06cc\u0626\u0648 \u0635\u0648\u0628\u06c1","name:left:nl":"S\u00f3c Tr\u0103ng","name:left:bg":"\u0421\u043e\u043a \u0427\u0430\u043d\u0433","name:right:fa":"\u0627\u0633\u062a\u0627\u0646 \u0628\u0627\u06a9 \u0644\u06cc\u0626\u0648","id":-1873632,"name:right":"B\u1ea1c Li\u00eau","name:left:id":"Provinsi Soc Trang","name:right:id":"Provinsi Bac Lieu","name:left:en":"Soc Trang province","sort_rank":256,"kind_detail":"4","name:left:zh":"\u6714\u838a\u7701","name:right:tg":"\u0412\u0438\u043b\u043e\u044f\u0442\u0438 \u0411\u0430\u043a \u041b\u0438\u044e","source":"openstreetmap.org","name:right:ar":"\u0645\u062d\u0627\u0641\u0638\u0629 \u0628\u0627\u0643 \u0644\u064a\u0648","id:left":-1873632,"name:left:es":"S\u00f3c Tr\u0103ng","name:left":"T\u1ec9nh S\u00f3c Tr\u0103ng","name:left:sr":"\u0428\u043e\u043a \u0427\u0430\u043d\u0433","name:right:sr":"\u0411\u0430\u043a \u041b\u0438\u0458\u0435\u0443","name:right:pt":"Bac Lieu","name:left:ar":"\u0645\u062d\u0627\u0641\u0638\u0629 \u0633\u0648\u0643 \u062a\u0634\u0627\u0646\u063a","name:left:pl":"Prowincja S\u00f3c Tr\u0103ng","name:left:ko":"\uc18d\uc9f1 \uc131","name:right:it":"Provincia di Bac Lieu","name:right:km":"\u1781\u17c1\u178f\u17d2\u178f\u1796\u179b\u179b\u17b6\u179c","name:left:ro":"S\u00f3c Tr\u0103ng","name:right:ko":"\ubc15\ub9ac\uc5d0\uc6b0 \uc131","name:right:ru":"\u0411\u0430\u043a\u043b\u044c\u0435\u0443","name:left:th":"\u0e08\u0e31\u0e07\u0e2b\u0e27\u0e31\u0e14\u0e0b\u0e49\u0e2d\u0e01\u0e08\u0e31\u0e07","name:left:de":"S\u00f3c Tr\u0103ng","name:right:th":"\u0e08\u0e31\u0e07\u0e2b\u0e27\u0e31\u0e14\u0e1a\u0e31\u0e01\u0e40\u0e25\u0e35\u0e22\u0e27","name:left:ru":"\u0428\u043e\u043a\u0447\u0430\u043d\u0433","name:left:km":"\u1781\u17c1\u178f\u17d2\u178f\u1783\u17d2\u179b\u17b6\u17c6\u1784","name:right:bg":"\u0411\u0430\u043a \u041b\u0438\u0435\u0443","name:right:sv":"Bac Lieu","name:right:pl":"Prowincja B\u1ea1c Li\u00eau","name:right:en":"Bac Lieu province","osm_relation":true,"name:left:tg":"\u0412\u0438\u043b\u043e\u044f\u0442\u0438 \u0421\u043e\u043a \u0422\u0440\u0430\u043d\u0433","name:left:sv":"Soc Trang","name:left:pt":"Soc Trang","kind":"region","name":"T\u1ec9nh S\u00f3c Tr\u0103ng - B\u1ea1c Li\u00eau","name:left:fa":"\u0627\u0633\u062a\u0627\u0646 \u0633\u0648\u06a9 \u062a\u0631\u0627\u0646\u06af","min_zoom":8.0,"name:left:it":"Provincia di Soc Trang","name:left:fi":"S\u00f3c Tr\u0103ng","maritime_boundary":true,"name:left:fr":"Province de S\u00f3c Tr\u0103ng","name:right:zh":"\u8584\u907c\u7701"},"arcs":[3]},{"type":"LineString","properties":{"name:pt":"Soc Trang","name:ro":"S\u00f3c Tr\u0103ng","name:id":"Provinsi Soc Trang","name:ko":"\uc18d\uc9f1 \uc131","name:km":"\u1781\u17c1\u178f\u17d2\u178f\u1783\u17d2\u179b\u17b6\u17c6\u1784","name:ar":"\u0645\u062d\u0627\u0641\u0638\u0629 \u0633\u0648\u0643 \u062a\u0634\u0627\u0646\u063a","name:th":"\u0e08\u0e31\u0e07\u0e2b\u0e27\u0e31\u0e14\u0e0b\u0e49\u0e2d\u0e01\u0e08\u0e31\u0e07","name:it":"Provincia di Soc Trang","name:ru":"\u0428\u043e\u043a\u0447\u0430\u043d\u0433","name:pl":"Prowincja S\u00f3c Tr\u0103ng","id":-1873632,"name:fa":"\u0627\u0633\u062a\u0627\u0646 \u0633\u0648\u06a9 \u062a\u0631\u0627\u0646\u06af","sort_rank":256,"kind_detail":"4","name:de":"S\u00f3c Tr\u0103ng","source":"openstreetmap.org","name:fr":"Province de S\u00f3c Tr\u0103ng","name:tg":"\u0412\u0438\u043b\u043e\u044f\u0442\u0438 \u0421\u043e\u043a \u0422\u0440\u0430\u043d\u0433","name:nl":"S\u00f3c Tr\u0103ng","name:ja":"\u30bd\u30af\u30c1\u30e3\u30f3","name:ur":"\u0633\u0648\u06a9 \u062a\u0631\u0627\u0646\u06af \u0635\u0648\u0628\u06c1","name:uk":"\u0428\u043e\u043a\u0447\u0430\u043d\u0433","name:sw":"Mkoa wa S\u00f3c Tr\u0103ng","name:sv":"Soc Trang","name:bg":"\u0421\u043e\u043a \u0427\u0430\u043d\u0433","name:sr":"\u0428\u043e\u043a \u0427\u0430\u043d\u0433","osm_relation":true,"kind":"region","name:en":"Soc Trang province","name":"T\u1ec9nh S\u00f3c Tr\u0103ng","name:zh":"\u6714\u838a\u7701","min_zoom":8.0,"maritime_boundary":true,"name:fi":"S\u00f3c Tr\u0103ng","name:es":"S\u00f3c Tr\u0103ng"},"arcs":[4]},{"type":"LineString","properties":{"name:right:no":"Ca Mau","name:right:nl":"C\u00e0 Mau","name:right:ja":"\u30ab\u30de\u30a6","name:right:fr":"Province de C\u00e0 Mau","name:right:uk":"\u041a\u0430\u043c\u0430\u0443","name:left:ur":"\u0628\u0627\u06a9 \u0644\u06cc\u0626\u0648 \u0635\u0648\u0628\u06c1","name:left:sw":"Mkoa wa B\u1ea1c Li\u00eau","name:left:ja":"\u30d0\u30af\u30ea\u30a8\u30a6","name:right:sw":"Mkoa wa C\u00e0 Mau","id:right":-1873490,"name:left:uk":"\u0411\u0430\u043a\u043b\u044c\u0454\u0443","name:right:ur":"\u06a9\u0622 \u0645\u0627\u0648 \u0635\u0648\u0628\u06c1","min_zoom":8.0,"name:left:bg":"\u0411\u0430\u043a \u041b\u0438\u0435\u0443","name:right:fa":"\u0627\u0633\u062a\u0627\u0646 \u06a9\u0627 \u0645\u0627\u0626\u0648","id":-1873533,"name:right":"T\u1ec9nh C\u00e0 Mau","name:left:id":"Provinsi Bac Lieu","name:right:id":"Provinsi Ca Mau","name:left:en":"Bac Lieu province","sort_rank":256,"kind_detail":"4","name:left:zh":"\u8584\u907c\u7701","name:right:tg":"\u0412\u0438\u043b\u043e\u044f\u0442\u0438 \u041a\u0430 \u041c\u0430\u0443","source":"openstreetmap.org","name:right:ar":"\u0645\u062d\u0627\u0641\u0638\u0629 \u0643\u0627 \u0645\u0627\u0648","id:left":-1873533,"name:right:fi":"C\u00e0 Mau","name:left":"B\u1ea1c Li\u00eau","name:right:es":"C\u00e0 Mau","name:right:sr":"\u041a\u0430 \u041c\u0430\u0443","name:left:ar":"\u0645\u062d\u0627\u0641\u0638\u0629 \u0628\u0627\u0643 \u0644\u064a\u0648","name:left:km":"\u1781\u17c1\u178f\u17d2\u178f\u1796\u179b\u179b\u17b6\u179c","name:left:ko":"\ubc15\ub9ac\uc5d0\uc6b0 \uc131","name:right:it":"Provincia di C\u00e0 Mau","name:right:km":"\u1781\u17c1\u178f\u17d2\u178f\u1791\u17b9\u1780\u1781\u17d2\u1798\u17c5","name:right:ko":"\uae4c\ub9c8\uc6b0 \uc131","name:right:vi":"C\u00e0 Mau","name:left:th":"\u0e08\u0e31\u0e07\u0e2b\u0e27\u0e31\u0e14\u0e1a\u0e31\u0e01\u0e40\u0e25\u0e35\u0e22\u0e27","name:left:pl":"Prowincja B\u1ea1c Li\u00eau","name:left:ru":"\u0411\u0430\u043a\u043b\u044c\u0435\u0443","name:left:sr":"\u0411\u0430\u043a \u041b\u0438\u0458\u0435\u0443","name:right:sv":"Ca Mau","name:right:pl":"Prowincja C\u00e0 Mau","name:right:en":"Ca Mau province","osm_relation":true,"name:left:tg":"\u0412\u0438\u043b\u043e\u044f\u0442\u0438 \u0411\u0430\u043a \u041b\u0438\u044e","name:left:sv":"Bac Lieu","name:left:pt":"Bac Lieu","kind":"region","name":"B\u1ea1c Li\u00eau - T\u1ec9nh C\u00e0 Mau","name:left:no":"Bac Lieu","name:right:de":"C\u00e0 Mau","name:right:ru":"\u041a\u0430\u043c\u0430\u0443","name:left:fa":"\u0627\u0633\u062a\u0627\u0646 \u0628\u0627\u06a9 \u0644\u06cc\u0626\u0648","name:right:bg":"\u041a\u0430 \u041c\u0430\u0443","name:left:it":"Provincia di Bac Lieu","maritime_boundary":true,"name:left:fr":"Province de B\u1ea1c Li\u00eau","name:right:th":"\u0e08\u0e31\u0e07\u0e2b\u0e27\u0e31\u0e14\u0e01\u0e48\u0e32\u0e40\u0e21\u0e32","name:right:zh":"\u91d1\u750c\u7701","name:right:ms":"Wilayah Ca Mau"},"arcs":[5]},{"type":"LineString","properties":{"name:pt":"Bac Lieu","name:id":"Provinsi Bac Lieu","name:no":"Bac Lieu","name:ko":"\ubc15\ub9ac\uc5d0\uc6b0 \uc131","name:km":"\u1781\u17c1\u178f\u17d2\u178f\u1796\u179b\u179b\u17b6\u179c","name:ar":"\u0645\u062d\u0627\u0641\u0638\u0629 \u0628\u0627\u0643 \u0644\u064a\u0648","name:ur":"\u0628\u0627\u06a9 \u0644\u06cc\u0626\u0648 \u0635\u0648\u0628\u06c1","name:th":"\u0e08\u0e31\u0e07\u0e2b\u0e27\u0e31\u0e14\u0e1a\u0e31\u0e01\u0e40\u0e25\u0e35\u0e22\u0e27","name:it":"Provincia di Bac Lieu","name:uk":"\u0411\u0430\u043a\u043b\u044c\u0454\u0443","name:ru":"\u0411\u0430\u043a\u043b\u044c\u0435\u0443","name:sw":"Mkoa wa B\u1ea1c Li\u00eau","name:sv":"Bac Lieu","name:pl":"Prowincja B\u1ea1c Li\u00eau","name:bg":"\u0411\u0430\u043a \u041b\u0438\u0435\u0443","name:sr":"\u0411\u0430\u043a \u041b\u0438\u0458\u0435\u0443","osm_relation":true,"name:ja":"\u30d0\u30af\u30ea\u30a8\u30a6","name:fa":"\u0627\u0633\u062a\u0627\u0646 \u0628\u0627\u06a9 \u0644\u06cc\u0626\u0648","kind":"region","name:en":"Bac Lieu province","name":"B\u1ea1c Li\u00eau","sort_rank":256,"kind_detail":"4","id":-1873533,"min_zoom":8.0,"name:tg":"\u0412\u0438\u043b\u043e\u044f\u0442\u0438 \u0411\u0430\u043a \u041b\u0438\u044e","source":"openstreetmap.org","maritime_boundary":true,"name:fr":"Province de B\u1ea1c Li\u00eau","name:zh":"\u8584\u907c\u7701"},"arcs":[6]},{"type":"LineString","properties":{"name:id":"Provinsi Ca Mau","name:ms":"Wilayah Ca Mau","name:ko":"\uae4c\ub9c8\uc6b0 \uc131","name:km":"\u1781\u17c1\u178f\u17d2\u178f\u1791\u17b9\u1780\u1781\u17d2\u1798\u17c5","name:ar":"\u0645\u062d\u0627\u0641\u0638\u0629 \u0643\u0627 \u0645\u0627\u0648","name:th":"\u0e08\u0e31\u0e07\u0e2b\u0e27\u0e31\u0e14\u0e01\u0e48\u0e32\u0e40\u0e21\u0e32","name:it":"Provincia di C\u00e0 Mau","name:vi":"C\u00e0 Mau","name:ru":"\u041a\u0430\u043c\u0430\u0443","name:pl":"Prowincja C\u00e0 Mau","id":-1873490,"name:fa":"\u0627\u0633\u062a\u0627\u0646 \u06a9\u0627 \u0645\u0627\u0626\u0648","sort_rank":256,"kind_detail":"4","name:de":"C\u00e0 Mau","source":"openstreetmap.org","name:fr":"Province de C\u00e0 Mau","name:tg":"\u0412\u0438\u043b\u043e\u044f\u0442\u0438 \u041a\u0430 \u041c\u0430\u0443","name:nl":"C\u00e0 Mau","name:ja":"\u30ab\u30de\u30a6","name:no":"Ca Mau","name:ur":"\u06a9\u0622 \u0645\u0627\u0648 \u0635\u0648\u0628\u06c1","name:uk":"\u041a\u0430\u043c\u0430\u0443","name:sw":"Mkoa wa C\u00e0 Mau","name:sv":"Ca Mau","name:bg":"\u041a\u0430 \u041c\u0430\u0443","name:sr":"\u041a\u0430 \u041c\u0430\u0443","osm_relation":true,"kind":"region","name:en":"Ca Mau province","name":"T\u1ec9nh C\u00e0 Mau","name:zh":"\u91d1\u750c\u7701","min_zoom":8.0,"maritime_boundary":true,"name:fi":"C\u00e0 Mau","name:es":"C\u00e0 Mau"},"arcs":[7]}]},"roads":{"type":"GeometryCollection","geometries":[]},"earth":{"type":"GeometryCollection","geometries":[]},"landuse":{"type":"GeometryCollection","geometries":[]}},"type":"Topology","transform":{"translate":[105.46875,7.0136679276],"scale":[0.0003433228,0.00034021]},"arcs":[[[0,3675],[2963,421]],[[2771,4096],[5,-27]],[[2776,4069],[187,27]],[[1669,4096],[39,-181]],[[1708,3915],[1068,154]],[[523,4096],[74,-341]],[[597,3755],[1111,160]],[[0,3671],[597,84]],[[0,4096],[4096,0],[0,-4096],[-4096,0],[0,4096]]]}