{"objects":{"water":{"type":"GeometryCollection","geometries":[{"type":"MultiPolygon","properties":{"source":"naturalearthdata.com","kind":"ocean","area":1576712559132672,"sort_rank":200,"min_zoom":0.0,"id":1},"arcs":[[[105],[106],[107],[108],[109]],[[110],[111]]]},{"type":"LineString","properties":{"source":"naturalearthdata.com","kind":"ocean","sort_rank":205,"boundary":true,"min_zoom":0.0,"id":32},"arcs":[112]},{"type":"MultiLineString","properties":{"source":"naturalearthdata.com","kind":"ocean","sort_rank":205,"boundary":true,"min_zoom":0.0,"id":33},"arcs":[[113],[114]]}]},"buildings":{"type":"GeometryCollection","geometries":[]},"places":{"type":"GeometryCollection","geometries":[{"type":"Point","properties":{"kind":"region","name":"Banten","kind_detail":"state","name:eo":"Banteno","source":"openstreetmap.org","min_zoom":4.0,"name:zh":"\u4e07\u4e39\u7701","id":1898258173},"coordinates":[1948,1665]},{"type":"Point","properties":{"name:pt":"Jacarta","name:ps":"\u062c\u06a9\u0627\u0631\u062a\u0627","name:ka":"\u10ef\u10d0\u10d9\u10d0\u10e0\u10e2\u10d0","name:ko":"\uc790\uce74\ub974\ud0c0","name:kn":"\u0c9c\u0c95\u0cbe\u0cb0\u0ccd\u0ca4","name:km":"\u1785\u17b6\u1780\u17b6\u179a\u178f\u17b6","name:hy":"\u054b\u0561\u056f\u0561\u0580\u057f\u0561","name:kk":"\u0414\u0436\u0430\u043a\u0430\u0440\u0442\u0430","name:tr":"Cakarta","min_zoom":8.0,"name:os":"\u0414\u0436\u0430\u043a\u0430\u0440\u0442\u00e6","name:pl":"D\u017cakarta","name:ta":"\u0b9c\u0b95\u0bbe\u0bb0\u0bcd\u0ba4\u0bcd\u0ba4\u0bbe","name:te":"\u0c1c\u0c15\u0c3e\u0c30\u0c4d\u0c24\u0c3e","name:ba":"\u0414\u0436\u0430\u043a\u0430\u0440\u0442\u0430","source":"openstreetmap.org","admin_level":"2","name:lv":"D\u017eakarta","name:lt":"D\u017eakarta","name:hi":"\u091c\u0915\u093e\u0930\u094d\u0924\u093e","name:he":"\u05d2'\u05e7\u05e8\u05d8\u05d4","kind":"locality","name:ur":"\u062c\u06a9\u0627\u0631\u062a\u06c1","name:uk":"\u0414\u0436\u0430\u043a\u0430\u0440\u0442\u0430","old_name":"Batavia","country_capital":true,"name:ug":"\u062c\u0627\u0643\u0627\u0631\u062a\u0627","population":10187595,"name:el":"\u03a4\u03b6\u03b1\u03ba\u03ac\u03c1\u03c4\u03b1","name:eo":"\u011cakarto","name":"Jakarta","name:ku":"Cakarta","name:th":"\u0e08\u0e32\u0e01\u0e32\u0e23\u0e4c\u0e15\u0e32","name:yi":"\u05d3\u05d6\u05e9\u05d0\u05e7\u05d0\u05e8\u05d8\u05d0","name:es":"Yakarta","name:az":"Cakarta","name:id":"Daerah Khusus Ibukota Jakarta","name:mr":"\u091c\u0915\u093e\u0930\u094d\u0924\u093e","name:ar":"\u062c\u0627\u0643\u0631\u062a\u0627","name:my":"\u1002\u103b\u1000\u102c\u1010\u102c\u1019\u103c\u102d\u102f\u1037","official_name":"Daerah Khusus Ibukota Jakarta","name:is":"Djakarta","name:am":"\u1303\u12ab\u122d\u1273","name:it":"Giacarta","name:ml":"\u0d1c\u0d15\u0d4d\u0d15\u0d3e\u0d7c\u0d24\u0d4d\u0d24","name:ru":"\u0414\u0436\u0430\u043a\u0430\u0440\u0442\u0430","name:mn":"\u0416\u0430\u043a\u0430\u0440\u0442\u0430","id":29939632,"name:mk":"\u040f\u0430\u043a\u0430\u0440\u0442\u0430","name:af":"Djakarta","name:fa":"\u062c\u0627\u06a9\u0627\u0631\u062a\u0627","kind_detail":"city","name:za":"Yajgyadaz","name:zh-yue":"\u8036\u52a0\u9054","name:zh":"\u96c5\u52a0\u9054","name:sl":"D\u017eakarta","name:sk":"D\u017eakarta","name:ja":"\u30b8\u30e3\u30ab\u30eb\u30bf","name:sh":"D\u017eakarta","name:sa":"\u091c\u0915\u093e\u0930\u094d\u0924\u093e","name:bs":"D\u017eakarta","name:bn":"\u099c\u09be\u0995\u09be\u09b0\u09cd\u09a4\u09be","name:bo":"\u0f4a\u0f0b\u0f41\u0f62\u0f0b\u0f4f\u0f0d","name:be":"\u0414\u0436\u0430\u043a\u0430\u0440\u0442\u0430","name:bg":"\u0414\u0436\u0430\u043a\u0430\u0440\u0442\u0430","name:sr":"\u040f\u0430\u043a\u0430\u0440\u0442\u0430","name:sq":"Xhakarta","name:ga":"Iac\u00e1rta","name:gl":"Iacarta - Jakarta","name:gu":"\u0a9c\u0abe\u0a95\u0abe\u0ab0\u0acd\u0aa4\u0abe"},"coordinates":[3957,2457]},{"type":"Point","properties":{"admin_level":"5","kind":"locality","name":"Tangerang","kind_detail":"city","source":"openstreetmap.org","min_zoom":8.0,"population":1798601,"id":318881337,"name:ja":"\u30bf\u30f3\u30b2\u30e9\u30f3"},"coordinates":[3414,2465]},{"type":"Point","properties":{"kind":"locality","name":"Depok","kind_detail":"city","source":"openstreetmap.org","min_zoom":8.0,"population":1738570,"name:zh":"\u5fb7\u6ce2","id":2623323569,"name:ja":"\u30c7\u30dd\u30c3\u30af"},"coordinates":[3918,1777]},{"type":"Point","properties":{"admin_level":"5","kind":"locality","name":"Tangerang Selatan","kind_detail":"city","source":"openstreetmap.org","min_zoom":8.0,"population":1290322,"id":3060343521,"name:ja":"\u5357\u30bf\u30f3\u30b2\u30e9\u30f3"},"coordinates":[3611,2105]},{"type":"Point","properties":{"kind":"locality","name:nl":"Buitenzorg","name":"Bogor","kind_detail":"city","source":"openstreetmap.org","min_zoom":8.0,"name:uk":"\u0411\u043e\u0433\u043e\u0440","name:ru":"\u0411\u043e\u0433\u043e\u0440","population":834000,"name:zh":"\u8302\u7269","id":319887585,"name:ja":"\u30dc\u30b4\u30fc\u30eb"},"coordinates":[3870,1223]},{"type":"Point","properties":{"admin_level":"4","kind":"locality","name":"Serang","name:ko":"\uc138\ub791","kind_detail":"city","source":"openstreetmap.org","min_zoom":8.0,"name:ru":"\u0421\u0435\u0440\u0430\u043d\u0433","population":618802,"name:zh":"\u897f\u51b7","id":2623323577,"name:ja":"\u30bb\u30e9\u30f3"},"coordinates":[1990,2628]},{"type":"Point","properties":{"kind":"locality","name":"Cilegon","name:ms":"Kota Cilegon","name:ko":"\uce60\ub808\uace4","kind_detail":"city","source":"openstreetmap.org","min_zoom":8.0,"population":374559,"name:ta":"\u0b9a\u0bbf\u0bb2\u0bc6\u0b95\u0bcb\u0ba9\u0bcd","name:zh":"\u829d\u52d2\u8d21","id":2623323572,"name:ja":"\u30c1\u30ec\u30b4\u30f3"},"coordinates":[1704,2920]}]},"transit":{"type":"GeometryCollection","geometries":[{"type":"MultiLineString","properties":{"kind":"train","network":"KAI_DAOP_2","sort_rank":275,"colour":"#0040ff","name":"Argo Parahyangan KA19","source":"openstreetmap.org","min_zoom":6.0,"operator":"PT KAI","ref":"Argo Parahyangan","osm_relation":true,"colour_name":"blue"},"arcs":[[6],[7],[8],[9]]},{"type":"MultiLineString","properties":{"kind":"train","network":"KAI_DAOP_2","sort_rank":275,"colour":"#0040ff","name":"Argo Parahyangan KA21","source":"openstreetmap.org","min_zoom":6.0,"operator":"PT KAI","ref":"Argo Parahyangan","osm_relation":true,"colour_name":"blue"},"arcs":[[10],[11],[12],[13]]},{"type":"MultiLineString","properties":{"osm_relation":true,"source":"openstreetmap.org","kind":"train","name":"#2 Blue Line (Jakarta - Bekasi)","sort_rank":275,"min_zoom":6.0,"operator":"KRL Jabotabek"},"arcs":[[14],[15],[16],[17],[18]]},{"type":"MultiLineString","properties":{"kind":"train","network":"KAI_DAOP_2","sort_rank":275,"colour":"#0040ff","name":"Argo Parahyangan KA34","source":"openstreetmap.org","min_zoom":6.0,"operator":"PT KAI","ref":"Argo Parahyangan","osm_relation":true,"colour_name":"blue"},"arcs":[[19],[20],[21],[22]]},{"type":"MultiLineString","properties":{"kind":"train","network":"KAI_DAOP_2","sort_rank":275,"colour":"#0040ff","name":"Argo Parahyangan KA20","source":"openstreetmap.org","min_zoom":6.0,"operator":"PT KAI","ref":"Argo Parahyangan","osm_relation":true,"colour_name":"blue"},"arcs":[[23],[24],[25],[26]]},{"type":"LineString","properties":{"kind":"subway","name":"Jakarta MRT North South line","sort_rank":275,"source":"openstreetmap.org","min_zoom":8.0,"operator":"PT MRT Jakarta","ref":"M1","id":-5430995,"osm_relation":true},"arcs":[27]},{"type":"MultiLineString","properties":{"kind":"train","name":"Argo Parahyangan KA22","sort_rank":275,"colour":"#0040ff","source":"openstreetmap.org","min_zoom":6.0,"network":"KAI_DAOP_2","operator":"PT KAI","ref":"Argo Parahyangan","osm_relation":true,"colour_name":"blue"},"arcs":[[28],[29],[30],[31]]},{"type":"MultiLineString","properties":{"osm_relation":true,"source":"openstreetmap.org","kind":"train","name":"#3 Yellow Line (Jatinegara - Bogor)","sort_rank":275,"min_zoom":6.0,"operator":"KRL Jabotabek"},"arcs":[[32],[33],[34],[35],[36],[37],[38]]},{"type":"LineString","properties":{"kind":"train","name":"#6 Pink Line (Jakarta Kota - Tanjung Priok)","sort_rank":275,"source":"openstreetmap.org","min_zoom":6.0,"operator":"KRL Jabotabek","id":-2922237,"osm_relation":true},"arcs":[39]},{"type":"MultiLineString","properties":{"kind":"train","network":"KAI_DAOP_2","sort_rank":275,"colour":"#0040ff","name":"Argo Parahyangan KA30","source":"openstreetmap.org","min_zoom":6.0,"operator":"PT KAI","ref":"Argo Parahyangan","osm_relation":true,"colour_name":"blue"},"arcs":[[40],[41],[42],[43]]},{"type":"LineString","properties":{"kind":"train","name":"#4 Green Line (Tanah Abang - Serpong)","sort_rank":275,"source":"openstreetmap.org","min_zoom":6.0,"operator":"KRL Jabotabek","id":-2922215,"osm_relation":true},"arcs":[44]},{"type":"LineString","properties":{"kind":"train","name":"KA Pangrango","sort_rank":275,"source":"openstreetmap.org","min_zoom":6.0,"operator":"PT. KAI","ref":"http:\/\/id.wikipedia.org\/wiki\/Kereta_api_Pangrango","id":-3413116,"osm_relation":true},"arcs":[45]},{"type":"MultiLineString","properties":{"kind":"train","network":"KAI_DAOP_2","sort_rank":275,"colour":"#0040ff","name":"Argo Parahyangan KA32","source":"openstreetmap.org","min_zoom":6.0,"operator":"PT KAI","ref":"Argo Parahyangan","osm_relation":true,"colour_name":"blue"},"arcs":[[46],[47],[48],[49]]},{"type":"MultiLineString","properties":{"kind":"train","network":"KAI_DAOP_2","sort_rank":275,"colour":"#0040ff","name":"Argo Parahyangan KA27","source":"openstreetmap.org","min_zoom":6.0,"operator":"PT KAI","ref":"Argo Parahyangan","osm_relation":true,"colour_name":"blue"},"arcs":[[50],[51],[52],[53]]},{"type":"MultiLineString","properties":{"kind":"train","network":"KAI_DAOP_2","sort_rank":275,"colour":"#0040ff","name":"Argo Parahyangan KA33","source":"openstreetmap.org","min_zoom":6.0,"operator":"PT KAI","ref":"Argo Parahyangan","osm_relation":true,"colour_name":"blue"},"arcs":[[54],[55],[56],[57]]},{"type":"LineString","properties":{"kind":"train","name":"#5 Brown Line (Duri - Tangerang)","sort_rank":275,"source":"openstreetmap.org","min_zoom":6.0,"operator":"KRL Jabotabek","id":-2922235,"osm_relation":true},"arcs":[58]},{"type":"MultiLineString","properties":{"osm_relation":true,"source":"openstreetmap.org","kind":"train","name":"#1 Red Line (Jakarta - Bogor)","sort_rank":275,"min_zoom":6.0,"operator":"KRL Jabotabek"},"arcs":[[59],[60],[61],[62],[63],[64],[65],[66],[67],[68],[69],[70],[71],[72],[73],[74],[75]]},{"type":"LineString","properties":{"kind":"train","name":"KRL Commuter Line Bogor - Jakartakota","sort_rank":275,"source":"openstreetmap.org","min_zoom":6.0,"operator":"PT KCJ","id":-3442471,"osm_relation":true},"arcs":[76]},{"type":"MultiLineString","properties":{"kind":"train","name":"Argo Parahyangan KA29","sort_rank":275,"colour":"#0040ff","source":"openstreetmap.org","min_zoom":6.0,"network":"KAI_DAOP_2","operator":"PT KAI","ref":"Argo Parahyangan","osm_relation":true,"colour_name":"blue"},"arcs":[[77],[78],[79],[80]]},{"type":"MultiLineString","properties":{"kind":"train","name":"Argo Parahyangan KA31","sort_rank":275,"colour":"#0040ff","source":"openstreetmap.org","min_zoom":6.0,"network":"KAI_DAOP_2","operator":"PT KAI","ref":"Argo Parahyangan","osm_relation":true,"colour_name":"blue"},"arcs":[[81],[82],[83],[84]]},{"type":"MultiLineString","properties":{"kind":"train","name":"Argo Parahyangan KA25","sort_rank":275,"colour":"#0040ff","source":"openstreetmap.org","min_zoom":6.0,"network":"KAI_DAOP_2","operator":"PT KAI","ref":"Argo Parahyangan","osm_relation":true,"colour_name":"blue"},"arcs":[[85],[86],[87],[88]]},{"type":"MultiLineString","properties":{"kind":"train","name":"Argo Parahyangan KA28","sort_rank":275,"colour":"#0040ff","source":"openstreetmap.org","min_zoom":6.0,"network":"KAI_DAOP_2","operator":"PT KAI","ref":"Argo Parahyangan","osm_relation":true,"colour_name":"blue"},"arcs":[[89],[90],[91],[92]]},{"type":"MultiLineString","properties":{"kind":"train","name":"Argo Parahyangan KA24","sort_rank":275,"colour":"#0040ff","source":"openstreetmap.org","min_zoom":6.0,"network":"KAI_DAOP_2","operator":"PT KAI","ref":"Argo Parahyangan","osm_relation":true,"colour_name":"blue"},"arcs":[[93],[94],[95],[96]]},{"type":"MultiLineString","properties":{"kind":"train","network":"KAI_DAOP_2","sort_rank":275,"colour":"#0040ff","name":"Argo Parahyangan KA23","source":"openstreetmap.org","min_zoom":6.0,"operator":"PT KAI","ref":"Argo Parahyangan","osm_relation":true,"colour_name":"blue"},"arcs":[[97],[98],[99],[100]]},{"type":"MultiLineString","properties":{"kind":"train","name":"Argo Parahyangan KA26","sort_rank":275,"colour":"#0040ff","source":"openstreetmap.org","min_zoom":6.0,"network":"KAI_DAOP_2","operator":"PT KAI","ref":"Argo Parahyangan","osm_relation":true,"colour_name":"blue"},"arcs":[[101],[102],[103],[104]]}]},"pois":{"type":"GeometryCollection","geometries":[]},"boundaries":{"type":"GeometryCollection","geometries":[{"type":"LineString","properties":{"name:right:es":"Java Occidental","id:left":-6362934,"name:right:vi":"T\u1ec9nh T\u00e2y Java","min_zoom":8.0,"id:right":-2388361,"id":-6362934,"osm_relation":true,"name:left:en":"Jakarta Special Capital Region","kind":"region","name":"Daerah Khusus Ibukota Jakarta - Jawa Barat","sort_rank":256,"kind_detail":"4","name:right:en":"West Java","source":"openstreetmap.org","name:right:de":"West-Java","name:right":"Jawa Barat","name:left":"Daerah Khusus Ibukota Jakarta"},"arcs":[0]},{"type":"LineString","properties":{"kind":"region","name:right:ja":"\u30d0\u30f3\u30c6\u30f3","name:left:en":"Jakarta Special Capital Region","name":"Daerah Khusus Ibukota Jakarta - Banten","sort_rank":256,"kind_detail":"4","name:right:ru":"\u0411\u0430\u043d\u0442\u0435\u043d","source":"openstreetmap.org","min_zoom":8.0,"id:left":-6362934,"name:left":"Daerah Khusus Ibukota Jakarta","id:right":-2388356,"id":-6362934,"osm_relation":true,"name:right":"Banten"},"arcs":[1]},{"type":"LineString","properties":{"name:right:ja":"\u30d0\u30f3\u30c6\u30f3","name:right:ru":"\u0411\u0430\u043d\u0442\u0435\u043d","min_zoom":8.0,"id:right":-2388356,"id":-6362934,"osm_relation":true,"name":"Daerah Khusus Ibukota Jakarta - Banten","kind":"region","name:left:en":"Jakarta Special Capital Region","sort_rank":256,"kind_detail":"4","source":"openstreetmap.org","maritime_boundary":true,"id:left":-6362934,"name:right":"Banten","name:left":"Daerah Khusus Ibukota Jakarta"},"arcs":[2]},{"type":"LineString","properties":{"name:right:ja":"\u30d0\u30f3\u30c6\u30f3","name:left:ja":"\u30e9\u30f3\u30d7\u30f3","name:right:ru":"\u0411\u0430\u043d\u0442\u0435\u043d","min_zoom":8.0,"id:right":-2388356,"id":-2390839,"osm_relation":true,"name:left:vi":"T\u1ec9nh Lampung","kind":"region","name":"Lampung - Banten","sort_rank":256,"kind_detail":"4","source":"openstreetmap.org","id:left":-2390839,"name:right":"Banten","name:left":"Lampung"},"arcs":[3]},{"type":"LineString","properties":{"name:right:ja":"\u30d0\u30f3\u30c6\u30f3","name:left:ja":"\u30e9\u30f3\u30d7\u30f3","name:right:ru":"\u0411\u0430\u043d\u0442\u0435\u043d","min_zoom":8.0,"id:right":-2388356,"id":-2390839,"osm_relation":true,"name:left:vi":"T\u1ec9nh Lampung","kind":"region","name":"Lampung - Banten","sort_rank":256,"kind_detail":"4","source":"openstreetmap.org","maritime_boundary":true,"id:left":-2390839,"name:right":"Banten","name:left":"Lampung"},"arcs":[4]},{"type":"LineString","properties":{"name:right:ja":"\u30d0\u30f3\u30c6\u30f3","id:right":-2388356,"min_zoom":8.0,"name:right:ru":"\u0411\u0430\u043d\u0442\u0435\u043d","id":-2388361,"osm_relation":true,"name:right":"Banten","kind":"region","name:left:en":"West Java","sort_rank":256,"kind_detail":"4","name:left:de":"West-Java","name":"Jawa Barat - Banten","source":"openstreetmap.org","id:left":-2388361,"name:left:es":"Java Occidental","name:left:vi":"T\u1ec9nh T\u00e2y Java","name:left":"Jawa Barat"},"arcs":[5]}]},"roads":{"type":"GeometryCollection","geometries":[{"type":"MultiLineString","properties":{"sort_rank":380,"kind_detail":"primary","min_zoom":8.0,"kind":"major_road","source":"openstreetmap.org"},"arcs":[[115],[116],[117],[118],[119],[120],[121],[122],[123],[124],[125],[126],[127],[128],[129],[130],[131],[132],[133],[134],[135],[136],[137],[138],[139],[140],[141],[142],[143],[144],[145],[146],[147],[148],[149],[150],[151],[152],[153],[154],[155],[156],[157],[158],[159],[160],[161],[162],[163],[164],[165],[166],[167],[168],[169],[170],[171],[172],[173],[174],[175],[176],[177],[178],[179],[180],[181],[182],[183],[184],[185],[186],[187],[188],[189],[190],[191],[192],[193],[194],[195],[196],[197],[198],[199],[200],[201],[202],[203],[204],[205],[206],[207],[208],[209],[210],[211],[212],[213],[214],[215],[216],[217],[218],[219],[220],[221],[222],[223],[224],[225],[226],[227],[228],[229],[230],[231],[232],[233],[234],[235],[236],[237],[238],[239],[240],[241],[242],[243],[244],[245],[246],[247],[248],[249],[250],[251],[252],[253],[254]]},{"type":"MultiLineString","properties":{"sort_rank":381,"source":"openstreetmap.org","min_zoom":8.0,"kind":"major_road","kind_detail":"trunk"},"arcs":[[255],[256],[257],[258],[259],[260],[261],[262],[263],[264],[265],[266],[267],[268],[269],[270],[271],[272],[273],[274],[275],[276],[277],[278],[279],[280],[281],[282],[283],[284]]},{"type":"LineString","properties":{"bus_network":null,"sort_rank":380,"kind_detail":"primary","kind":"major_road","source":"openstreetmap.org","min_zoom":8.0,"bus_shield_text":"C05","landuse_kind":"urban_area"},"arcs":[285]},{"type":"MultiLineString","properties":{"source":"openstreetmap.org","kind":"major_road","short_name":"Jl. Alam Sutera Blvd.","landuse_kind":"urban_area","sort_rank":380,"kind_detail":"primary","min_zoom":8.0},"arcs":[[286],[287],[288]]},{"type":"MultiLineString","properties":{"bus_network":null,"sort_rank":381,"landuse_kind":"urban_area","kind":"major_road","source":"openstreetmap.org","min_zoom":8.0,"bus_shield_text":"#13","kind_detail":"trunk","ref":"11"},"arcs":[[289],[290]]},{"type":"MultiLineString","properties":{"bus_network":null,"sort_rank":380,"kind_detail":"primary","kind":"major_road","source":"openstreetmap.org","min_zoom":8.0,"bus_shield_text":"2","landuse_kind":"urban_area"},"arcs":[[291],[292],[293],[294],[295]]},{"type":"MultiLineString","properties":{"bus_network":"TransJakarta","sort_rank":381,"landuse_kind":"residential","kind":"major_road","source":"openstreetmap.org","min_zoom":8.0,"bus_shield_text":null,"kind_detail":"trunk"},"arcs":[[296],[297],[298],[299],[300]]},{"type":"LineString","properties":{"kind":"major_road","sort_rank":381,"kind_detail":"trunk","bus_network":null,"source":"openstreetmap.org","min_zoom":8.0,"bus_shield_text":"S71","landuse_kind":"residential","ref":"12","id":32077298},"arcs":[301]},{"type":"MultiLineString","properties":{"source":"openstreetmap.org","kind":"major_road","sort_rank":381,"kind_detail":"trunk","ref":"2","min_zoom":8.0},"arcs":[[302],[303],[304],[305],[306],[307],[308],[309],[310],[311],[312],[313],[314]]},{"type":"LineString","properties":{"source":"openstreetmap.org","kind":"ferry","name":"Bakauheni-Merak","sort_rank":355,"min_zoom":8.0,"id":49567223},"arcs":[315]},{"type":"MultiLineString","properties":{"source":"openstreetmap.org","kind":"major_road","kind_detail":"trunk","sort_rank":381,"landuse_kind":"urban_area","ref":"1;2","min_zoom":8.0},"arcs":[[316],[317],[318]]},{"type":"LineString","properties":{"bus_network":null,"sort_rank":381,"landuse_kind":"residential","kind":"major_road","source":"openstreetmap.org","min_zoom":8.0,"bus_shield_text":"S74","kind_detail":"trunk","ref":"12"},"arcs":[319]},{"type":"MultiLineString","properties":{"bus_network":"S610","sort_rank":380,"kind_detail":"primary","kind":"major_road","source":"openstreetmap.org","min_zoom":8.0,"bus_shield_text":null,"landuse_kind":"urban_area"},"arcs":[[320],[321],[322],[323]]},{"type":"LineString","properties":{"kind":"major_road","sort_rank":380,"kind_detail":"primary","bus_network":null,"source":"openstreetmap.org","min_zoom":8.0,"bus_shield_text":"S74","landuse_kind":"urban_area","id":28198991},"arcs":[324]},{"type":"MultiLineString","properties":{"bus_network":"TransJakarta","sort_rank":381,"landuse_kind":"residential","kind":"major_road","source":"openstreetmap.org","min_zoom":8.0,"bus_shield_text":null,"kind_detail":"trunk","ref":"12"},"arcs":[[325],[326]]},{"type":"LineString","properties":{"kind":"major_road","sort_rank":381,"kind_detail":"trunk","bus_network":null,"source":"openstreetmap.org","min_zoom":8.0,"bus_shield_text":"#13","landuse_kind":"urban_area","ref":"12","id":307012416},"arcs":[327]},{"type":"MultiLineString","properties":{"source":"openstreetmap.org","kind":"major_road","landuse_kind":"residential","sort_rank":381,"kind_detail":"trunk","ref":"2","min_zoom":8.0},"arcs":[[328],[329],[330],[331],[332],[333],[334],[335],[336],[337],[338],[339],[340],[341]]},{"type":"MultiLineString","properties":{"source":"openstreetmap.org","kind":"major_road","kind_detail":"trunk","sort_rank":381,"landuse_kind":"urban_area","ref":"12","min_zoom":8.0},"arcs":[[342],[343],[344],[345],[346],[347],[348],[349],[350],[351],[352],[353],[354],[355],[356],[357],[358],[359],[360],[361],[362],[363],[364],[365],[366],[367]]},{"type":"LineString","properties":{"source":"openstreetmap.org","kind":"major_road","sort_rank":381,"kind_detail":"trunk","ref":"11; 2","min_zoom":8.0},"arcs":[368]},{"type":"LineString","properties":{"source":"openstreetmap.org","kind":"major_road","sort_rank":381,"kind_detail":"trunk","ref":"19","min_zoom":8.0},"arcs":[369]},{"type":"LineString","properties":{"source":"openstreetmap.org","kind":"major_road","ref":"2","sort_rank":381,"kind_detail":"trunk","is_bicycle_related":true,"min_zoom":8.0},"arcs":[370]},{"type":"LineString","properties":{"kind":"major_road","sort_rank":380,"kind_detail":"primary","bus_network":null,"source":"openstreetmap.org","min_zoom":8.0,"bus_shield_text":"#13","landuse_kind":"urban_area","id":71880915},"arcs":[371]},{"type":"MultiLineString","properties":{"bus_network":null,"sort_rank":380,"kind_detail":"primary","kind":"major_road","source":"openstreetmap.org","min_zoom":8.0,"bus_shield_text":"S71","landuse_kind":"urban_area"},"arcs":[[372],[373]]},{"type":"MultiLineString","properties":{"bus_network":null,"sort_rank":381,"kind_detail":"trunk","kind":"major_road","source":"openstreetmap.org","min_zoom":8.0,"bus_shield_text":"S71","landuse_kind":"residential"},"arcs":[[374],[375],[376]]},{"type":"LineString","properties":{"kind":"major_road","sort_rank":380,"landuse_kind":"urban_area","source":"openstreetmap.org","min_zoom":8.0,"kind_detail":"primary","ref":"Jalan Tumenggung Wiradiredja","id":168891883},"arcs":[377]},{"type":"MultiLineString","properties":{"bus_network":null,"sort_rank":381,"landuse_kind":"urban_area","kind":"major_road","source":"openstreetmap.org","min_zoom":8.0,"bus_shield_text":"C09","kind_detail":"trunk","ref":"12"},"arcs":[[378],[379],[380]]},{"type":"MultiLineString","properties":{"source":"openstreetmap.org","kind":"major_road","sort_rank":381,"kind_detail":"trunk","ref":"AH2","min_zoom":8.0},"arcs":[[381],[382],[383]]},{"type":"MultiLineString","properties":{"source":"openstreetmap.org","kind":"major_road","kind_detail":"trunk","sort_rank":381,"landuse_kind":"urban_area","ref":"1","min_zoom":8.0},"arcs":[[384],[385],[386],[387],[388],[389],[390],[391],[392],[393],[394],[395],[396],[397],[398],[399],[400],[401],[402],[403],[404],[405],[406],[407],[408],[409],[410],[411],[412],[413],[414],[415],[416],[417],[418],[419],[420],[421],[422],[423],[424],[425],[426],[427],[428],[429],[430],[431],[432],[433],[434],[435],[436],[437],[438],[439],[440]]},{"type":"LineString","properties":{"kind":"major_road","sort_rank":380,"landuse_kind":"urban_area","source":"openstreetmap.org","min_zoom":8.0,"kind_detail":"primary","ref":"1","id":459811501},"arcs":[441]},{"type":"MultiLineString","properties":{"source":"openstreetmap.org","kind":"major_road","landuse_kind":"urban_area","sort_rank":380,"kind_detail":"primary","is_bicycle_related":true,"min_zoom":8.0},"arcs":[[442],[443]]},{"type":"MultiLineString","properties":{"source":"openstreetmap.org","kind":"highway","landuse_kind":"residential","sort_rank":383,"kind_detail":"motorway","min_zoom":8.0},"arcs":[[444],[445],[446],[447],[448],[449],[450],[451],[452],[453]]},{"type":"MultiLineString","properties":{"kind":"major_road","sort_rank":381,"kind_detail":"trunk","bus_network":"Metro Mini","source":"openstreetmap.org","min_zoom":8.0,"bus_shield_text":"72","landuse_kind":"residential","ref":"12"},"arcs":[[454],[455]]},{"type":"MultiLineString","properties":{"source":"openstreetmap.org","kind":"major_road","landuse_kind":"urban_area","sort_rank":380,"kind_detail":"primary","min_zoom":8.0},"arcs":[[456],[457],[458],[459],[460],[461],[462],[463],[464],[465],[466],[467],[468],[469],[470],[471],[472],[473],[474],[475],[476],[477],[478],[479],[480],[481],[482],[483],[484],[485],[486],[487],[488],[489],[490],[491],[492],[493],[494],[495],[496],[497],[498],[499],[500],[501],[502],[503],[504],[505],[506],[507],[508],[509],[510],[511],[512],[513],[514],[515],[516],[517],[518],[519],[520],[521],[522],[523],[524],[525],[526],[527],[528],[529],[530],[531],[532],[533],[534],[535],[536],[537],[538],[539],[540],[541],[542],[543],[544],[545],[546],[547],[548],[549],[550],[551],[552],[553],[554],[555],[556],[557],[558],[559],[560],[561],[562],[563],[564],[565],[566],[567],[568],[569],[570],[571],[572],[573],[574],[575],[576],[577],[578],[579],[580],[581],[582],[583],[584],[585],[586],[587],[588],[589],[590],[591],[592],[593],[594],[595],[596],[597],[598],[599],[600],[601],[602],[603],[604],[605],[606],[607],[608],[609],[610],[611],[612],[613],[614],[615],[616],[617],[618],[619],[620],[621],[622],[623],[624],[625],[626],[627],[628],[629],[630],[631],[632],[633],[634],[635],[636],[637],[638],[639],[640],[641],[642],[643],[644],[645],[646],[647],[648],[649],[650],[651],[652],[653],[654],[655],[656],[657],[658],[659],[660],[661],[662],[663],[664],[665],[666],[667],[668],[669],[670],[671],[672],[673],[674],[675],[676],[677],[678],[679],[680],[681],[682],[683],[684],[685],[686],[687],[688],[689],[690],[691],[692],[693],[694],[695],[696],[697],[698],[699],[700],[701],[702],[703],[704],[705],[706],[707],[708],[709],[710],[711],[712],[713],[714],[715],[716],[717],[718],[719],[720],[721],[722],[723],[724],[725],[726],[727],[728],[729],[730],[731],[732],[733],[734],[735],[736],[737],[738],[739],[740],[741],[742],[743],[744],[745],[746],[747],[748],[749],[750],[751],[752],[753],[754],[755],[756],[757],[758],[759],[760],[761],[762],[763],[764],[765],[766],[767],[768],[769],[770],[771],[772],[773],[774],[775],[776],[777],[778],[779],[780],[781],[782],[783],[784],[785],[786],[787],[788],[789],[790],[791],[792],[793],[794],[795],[796],[797],[798],[799],[800],[801],[802],[803],[804],[805],[806],[807],[808],[809],[810],[811],[812],[813],[814],[815],[816],[817],[818],[819],[820],[821],[822],[823],[824],[825],[826],[827],[828],[829],[830],[831],[832],[833],[834],[835],[836],[837],[838],[839],[840],[841],[842],[843],[844],[845],[846],[847],[848],[849],[850],[851],[852],[853],[854],[855],[856],[857],[858],[859],[860],[861],[862],[863],[864],[865],[866],[867],[868],[869],[870],[871],[872],[873],[874],[875],[876],[877],[878],[879],[880],[881],[882],[883],[884],[885],[886],[887],[888],[889],[890],[891],[892],[893],[894],[895],[896],[897],[898],[899],[900],[901],[902],[903],[904],[905],[906],[907],[908],[909],[910],[911],[912],[913],[914],[915],[916],[917],[918],[919],[920],[921],[922],[923],[924],[925],[926],[927],[928],[929],[930],[931],[932],[933],[934],[935],[936],[937],[938],[939],[940],[941],[942],[943],[944],[945],[946],[947],[948],[949],[950],[951],[952],[953],[954],[955],[956],[957],[958],[959],[960],[961],[962],[963],[964],[965],[966],[967],[968],[969],[970],[971],[972],[973],[974],[975],[976],[977],[978],[979],[980],[981],[982],[983],[984],[985],[986],[987],[988],[989],[990],[991],[992],[993],[994],[995],[996],[997],[998],[999],[1000],[1001],[1002],[1003],[1004],[1005],[1006],[1007],[1008],[1009],[1010],[1011],[1012],[1013],[1014],[1015],[1016],[1017],[1018],[1019],[1020],[1021],[1022],[1023],[1024],[1025],[1026],[1027],[1028],[1029],[1030],[1031],[1032],[1033],[1034],[1035],[1036],[1037],[1038],[1039],[1040],[1041],[1042],[1043],[1044],[1045],[1046],[1047],[1048],[1049],[1050],[1051],[1052],[1053],[1054],[1055],[1056],[1057],[1058],[1059],[1060],[1061],[1062],[1063],[1064],[1065],[1066],[1067],[1068],[1069],[1070],[1071],[1072],[1073],[1074],[1075],[1076],[1077],[1078],[1079],[1080],[1081],[1082],[1083],[1084],[1085],[1086],[1087],[1088],[1089],[1090],[1091],[1092],[1093],[1094],[1095],[1096],[1097],[1098],[1099],[1100],[1101],[1102],[1103],[1104],[1105],[1106],[1107],[1108],[1109],[1110],[1111],[1112],[1113],[1114],[1115],[1116],[1117],[1118],[1119],[1120],[1121],[1122],[1123],[1124],[1125],[1126],[1127],[1128],[1129],[1130],[1131],[1132],[1133],[1134],[1135],[1136],[1137],[1138],[1139],[1140],[1141],[1142],[1143],[1144],[1145],[1146],[1147],[1148],[1149],[1150],[1151],[1152],[1153],[1154],[1155],[1156],[1157],[1158],[1159],[1160],[1161],[1162],[1163],[1164],[1165],[1166],[1167],[1168],[1169],[1170],[1171],[1172],[1173],[1174],[1175],[1176],[1177],[1178],[1179],[1180],[1181],[1182],[1183],[1184],[1185],[1186],[1187],[1188],[1189],[1190],[1191],[1192],[1193],[1194],[1195],[1196],[1197],[1198],[1199],[1200],[1201],[1202],[1203],[1204],[1205],[1206],[1207],[1208],[1209],[1210],[1211],[1212],[1213],[1214],[1215],[1216],[1217],[1218],[1219],[1220],[1221],[1222],[1223],[1224],[1225],[1226],[1227],[1228],[1229],[1230],[1231],[1232],[1233],[1234],[1235],[1236],[1237],[1238],[1239],[1240],[1241],[1242],[1243],[1244],[1245],[1246],[1247],[1248],[1249],[1250],[1251],[1252],[1253],[1254],[1255],[1256],[1257],[1258],[1259],[1260],[1261],[1262],[1263],[1264],[1265],[1266],[1267],[1268],[1269],[1270],[1271],[1272],[1273],[1274],[1275],[1276],[1277],[1278],[1279],[1280],[1281],[1282],[1283],[1284],[1285],[1286],[1287],[1288],[1289],[1290],[1291],[1292],[1293],[1294],[1295],[1296],[1297],[1298],[1299],[1300],[1301],[1302],[1303],[1304],[1305],[1306],[1307],[1308],[1309],[1310],[1311],[1312],[1313],[1314],[1315],[1316],[1317],[1318],[1319],[1320],[1321],[1322],[1323],[1324],[1325],[1326],[1327],[1328],[1329],[1330],[1331],[1332],[1333],[1334],[1335],[1336],[1337],[1338],[1339],[1340],[1341],[1342],[1343],[1344],[1345],[1346],[1347],[1348],[1349],[1350],[1351],[1352],[1353],[1354],[1355],[1356],[1357],[1358],[1359],[1360],[1361],[1362],[1363],[1364],[1365],[1366],[1367],[1368],[1369],[1370],[1371],[1372],[1373],[1374],[1375],[1376],[1377],[1378],[1379],[1380],[1381],[1382],[1383],[1384],[1385],[1386],[1387],[1388],[1389],[1390],[1391],[1392],[1393],[1394],[1395],[1396],[1397],[1398],[1399],[1400],[1401],[1402],[1403],[1404],[1405],[1406],[1407],[1408],[1409],[1410],[1411],[1412],[1413],[1414],[1415],[1416],[1417],[1418],[1419],[1420],[1421],[1422],[1423],[1424],[1425],[1426],[1427],[1428],[1429],[1430],[1431],[1432],[1433],[1434],[1435],[1436],[1437],[1438],[1439],[1440],[1441],[1442],[1443],[1444],[1445],[1446],[1447],[1448],[1449],[1450],[1451],[1452],[1453],[1454],[1455],[1456],[1457],[1458],[1459],[1460],[1461],[1462],[1463],[1464],[1465],[1466],[1467],[1468],[1469],[1470],[1471],[1472],[1473],[1474],[1475],[1476],[1477],[1478],[1479],[1480],[1481],[1482],[1483],[1484],[1485],[1486],[1487],[1488],[1489],[1490],[1491],[1492],[1493],[1494],[1495],[1496],[1497],[1498],[1499],[1500],[1501],[1502],[1503],[1504],[1505],[1506],[1507],[1508],[1509],[1510],[1511],[1512],[1513],[1514],[1515],[1516],[1517],[1518],[1519],[1520],[1521],[1522],[1523],[1524],[1525],[1526],[1527],[1528],[1529],[1530],[1531],[1532],[1533],[1534],[1535],[1536],[1537],[1538],[1539],[1540],[1541],[1542],[1543],[1544],[1545],[1546],[1547],[1548],[1549],[1550],[1551],[1552],[1553],[1554],[1555],[1556],[1557],[1558],[1559],[1560],[1561],[1562],[1563],[1564],[1565],[1566],[1567],[1568],[1569],[1570],[1571],[1572],[1573],[1574],[1575],[1576],[1577],[1578],[1579],[1580],[1581],[1582],[1583],[1584],[1585],[1586],[1587],[1588],[1589],[1590],[1591],[1592],[1593],[1594],[1595],[1596],[1597],[1598],[1599],[1600],[1601],[1602],[1603],[1604],[1605],[1606],[1607],[1608],[1609],[1610],[1611],[1612],[1613],[1614],[1615],[1616],[1617],[1618],[1619],[1620],[1621],[1622],[1623],[1624],[1625],[1626],[1627],[1628],[1629],[1630],[1631],[1632],[1633],[1634],[1635],[1636],[1637],[1638],[1639],[1640],[1641],[1642],[1643],[1644],[1645],[1646],[1647],[1648],[1649],[1650],[1651],[1652],[1653],[1654],[1655],[1656],[1657],[1658],[1659],[1660],[1661],[1662],[1663],[1664],[1665],[1666],[1667],[1668],[1669],[1670],[1671],[1672],[1673],[1674],[1675],[1676],[1677],[1678],[1679],[1680],[1681],[1682],[1683],[1684],[1685],[1686],[1687],[1688],[1689],[1690],[1691],[1692],[1693],[1694],[1695],[1696],[1697],[1698],[1699],[1700],[1701],[1702],[1703],[1704],[1705],[1706],[1707],[1708],[1709],[1710],[1711],[1712],[1713],[1714],[1715],[1716],[1717],[1718],[1719],[1720],[1721],[1722],[1723],[1724],[1725],[1726],[1727],[1728],[1729],[1730],[1731],[1732],[1733],[1734],[1735],[1736],[1737],[1738],[1739],[1740],[1741],[1742],[1743],[1744],[1745],[1746],[1747],[1748],[1749],[1750],[1751],[1752],[1753],[1754],[1755],[1756],[1757],[1758],[1759],[1760],[1761],[1762],[1763],[1764],[1765],[1766],[1767],[1768],[1769],[1770],[1771],[1772],[1773],[1774],[1775],[1776],[1777],[1778],[1779],[1780],[1781],[1782],[1783],[1784],[1785],[1786],[1787],[1788],[1789],[1790],[1791],[1792],[1793],[1794],[1795],[1796],[1797],[1798],[1799],[1800],[1801],[1802],[1803],[1804],[1805],[1806],[1807],[1808],[1809],[1810],[1811],[1812],[1813],[1814],[1815],[1816],[1817],[1818],[1819],[1820],[1821],[1822],[1823],[1824],[1825],[1826],[1827],[1828],[1829],[1830],[1831],[1832],[1833],[1834],[1835],[1836],[1837],[1838],[1839],[1840],[1841],[1842],[1843],[1844],[1845],[1846],[1847],[1848],[1849],[1850],[1851],[1852],[1853],[1854],[1855],[1856],[1857],[1858],[1859],[1860],[1861],[1862],[1863],[1864],[1865],[1866],[1867],[1868],[1869],[1870],[1871],[1872],[1873],[1874],[1875],[1876],[1877],[1878],[1879]]},{"type":"MultiLineString","properties":{"source":"openstreetmap.org","kind":"major_road","kind_detail":"trunk","sort_rank":381,"landuse_kind":"urban_area","min_zoom":8.0},"arcs":[[1880],[1881],[1882],[1883],[1884],[1885],[1886],[1887],[1888],[1889],[1890],[1891],[1892],[1893],[1894],[1895],[1896],[1897],[1898],[1899],[1900],[1901],[1902],[1903],[1904],[1905],[1906],[1907],[1908],[1909],[1910],[1911],[1912],[1913],[1914],[1915],[1916],[1917],[1918],[1919],[1920],[1921],[1922],[1923],[1924],[1925],[1926],[1927],[1928],[1929],[1930],[1931],[1932],[1933],[1934],[1935],[1936],[1937],[1938],[1939],[1940],[1941],[1942],[1943],[1944],[1945],[1946],[1947],[1948],[1949],[1950],[1951],[1952],[1953],[1954],[1955],[1956],[1957],[1958],[1959],[1960],[1961],[1962],[1963],[1964],[1965],[1966],[1967],[1968],[1969],[1970],[1971],[1972],[1973],[1974],[1975],[1976],[1977],[1978],[1979],[1980],[1981],[1982],[1983],[1984],[1985],[1986],[1987],[1988],[1989],[1990],[1991],[1992],[1993],[1994],[1995],[1996],[1997],[1998],[1999],[2000],[2001],[2002],[2003],[2004],[2005],[2006],[2007],[2008],[2009],[2010]]},{"type":"LineString","properties":{"sort_rank":355,"source":"openstreetmap.org","kind":"ferry","min_zoom":8.0,"id":542828094},"arcs":[2011]},{"type":"LineString","properties":{"kind":"major_road","sort_rank":381,"landuse_kind":"park","source":"openstreetmap.org","min_zoom":8.0,"kind_detail":"trunk","ref":"11","id":297913052},"arcs":[2012]},{"type":"MultiLineString","properties":{"source":"openstreetmap.org","kind":"highway","landuse_kind":"urban_area","sort_rank":383,"kind_detail":"motorway","min_zoom":8.0},"arcs":[[2013],[2014],[2015],[2016],[2017],[2018],[2019],[2020],[2021],[2022],[2023],[2024],[2025],[2026],[2027],[2028],[2029],[2030],[2031],[2032],[2033],[2034],[2035],[2036],[2037],[2038],[2039],[2040],[2041],[2042],[2043],[2044],[2045],[2046],[2047],[2048],[2049],[2050],[2051],[2052],[2053],[2054],[2055],[2056],[2057],[2058],[2059],[2060],[2061],[2062],[2063],[2064],[2065],[2066],[2067],[2068],[2069],[2070],[2071],[2072],[2073],[2074],[2075],[2076],[2077],[2078],[2079],[2080],[2081],[2082],[2083],[2084],[2085],[2086],[2087]]},{"type":"LineString","properties":{"kind":"major_road","sort_rank":380,"kind_detail":"primary","bus_network":"TransJakarta","source":"openstreetmap.org","min_zoom":8.0,"bus_shield_text":null,"landuse_kind":"residential","id":32122962},"arcs":[2088]},{"type":"MultiLineString","properties":{"source":"openstreetmap.org","kind":"major_road","kind_detail":"trunk","sort_rank":381,"landuse_kind":"urban_area","ref":"AH2","min_zoom":8.0},"arcs":[[2089],[2090]]},{"type":"MultiLineString","properties":{"source":"openstreetmap.org","kind":"major_road","sort_rank":381,"kind_detail":"trunk","ref":"12","min_zoom":8.0},"arcs":[[2091],[2092],[2093],[2094],[2095],[2096],[2097],[2098],[2099],[2100]]},{"type":"LineString","properties":{"source":"openstreetmap.org","kind":"major_road","ref":"11","sort_rank":381,"kind_detail":"trunk","is_bicycle_related":true,"min_zoom":8.0},"arcs":[2101]},{"type":"MultiLineString","properties":{"source":"openstreetmap.org","kind":"highway","sort_rank":383,"kind_detail":"motorway","ref":"2","min_zoom":8.0},"arcs":[[2102],[2103],[2104],[2105],[2106]]},{"type":"MultiLineString","properties":{"source":"openstreetmap.org","kind":"highway","sort_rank":383,"kind_detail":"motorway","ref":"AH2","min_zoom":8.0},"arcs":[[2107],[2108],[2109],[2110],[2111],[2112],[2113],[2114],[2115],[2116],[2117],[2118],[2119],[2120],[2121],[2122],[2123],[2124],[2125],[2126]]},{"type":"MultiLineString","properties":{"source":"openstreetmap.org","kind":"highway","landuse_kind":"urban_area","sort_rank":383,"kind_detail":"motorway","ref":"AH2","min_zoom":8.0},"arcs":[[2127],[2128],[2129],[2130],[2131],[2132],[2133],[2134],[2135],[2136],[2137],[2138],[2139],[2140],[2141],[2142],[2143],[2144],[2145],[2146],[2147]]},{"type":"LineString","properties":{"source":"openstreetmap.org","kind":"major_road","ref":"3","sort_rank":381,"kind_detail":"trunk","is_bicycle_related":true,"min_zoom":8.0},"arcs":[2148]},{"type":"MultiLineString","properties":{"source":"openstreetmap.org","kind":"major_road","sort_rank":381,"kind_detail":"trunk","ref":"1","min_zoom":8.0},"arcs":[[2149],[2150],[2151],[2152],[2153],[2154],[2155],[2156],[2157],[2158],[2159],[2160],[2161],[2162],[2163],[2164],[2165],[2166],[2167],[2168],[2169],[2170],[2171],[2172],[2173],[2174],[2175],[2176],[2177],[2178],[2179]]},{"type":"LineString","properties":{"kind":"major_road","sort_rank":380,"kind_detail":"primary","bus_network":"Blok M - Manggarai","source":"openstreetmap.org","min_zoom":8.0,"bus_shield_text":null,"landuse_kind":"urban_area","id":11589658},"arcs":[2180]},{"type":"MultiLineString","properties":{"source":"openstreetmap.org","kind":"major_road","landuse_kind":"urban_area","sort_rank":380,"kind_detail":"primary","ref":"2","min_zoom":8.0},"arcs":[[2181],[2182],[2183]]},{"type":"MultiLineString","properties":{"source":"openstreetmap.org","kind":"major_road","kind_detail":"trunk","sort_rank":381,"landuse_kind":"urban_area","ref":"2","min_zoom":8.0},"arcs":[[2184],[2185],[2186],[2187],[2188],[2189],[2190],[2191],[2192],[2193],[2194],[2195],[2196],[2197],[2198],[2199],[2200],[2201],[2202],[2203],[2204],[2205],[2206],[2207],[2208],[2209],[2210],[2211],[2212],[2213],[2214],[2215],[2216],[2217],[2218],[2219],[2220],[2221],[2222]]},{"type":"MultiLineString","properties":{"bus_network":null,"sort_rank":381,"landuse_kind":"urban_area","kind":"major_road","source":"openstreetmap.org","min_zoom":8.0,"bus_shield_text":"#13","kind_detail":"trunk"},"arcs":[[2223],[2224],[2225],[2226]]},{"type":"MultiLineString","properties":{"source":"openstreetmap.org","kind":"highway","landuse_kind":"residential","sort_rank":383,"kind_detail":"motorway","ref":"AH2","min_zoom":8.0},"arcs":[[2227],[2228],[2229],[2230]]},{"type":"MultiLineString","properties":{"bus_network":"Angkot","sort_rank":381,"landuse_kind":"urban_area","is_bicycle_related":true,"kind":"major_road","source":"openstreetmap.org","min_zoom":8.0,"bus_shield_text":null,"kind_detail":"trunk","ref":"2"},"arcs":[[2231],[2232]]},{"type":"LineString","properties":{"bus_network":null,"sort_rank":381,"landuse_kind":"urban_area","kind":"major_road","source":"openstreetmap.org","min_zoom":8.0,"bus_shield_text":"S74","kind_detail":"trunk","ref":"12"},"arcs":[2233]},{"type":"LineString","properties":{"kind":"major_road","sort_rank":380,"kind_detail":"primary","bus_network":null,"source":"openstreetmap.org","min_zoom":8.0,"bus_shield_text":"S74","landuse_kind":"residential","id":28198991},"arcs":[2234]},{"type":"LineString","properties":{"kind":"major_road","short_name":"Otista","sort_rank":381,"kind_detail":"trunk","source":"openstreetmap.org","min_zoom":8.0,"landuse_kind":"urban_area","ref":"12","id":307011103},"arcs":[2235]},{"type":"LineString","properties":{"kind":"major_road","sort_rank":381,"kind_detail":"trunk","bus_network":null,"source":"openstreetmap.org","min_zoom":8.0,"bus_shield_text":"S14","landuse_kind":"urban_area","ref":"12","id":31511661},"arcs":[2236]},{"type":"LineString","properties":{"kind":"major_road","sort_rank":381,"kind_detail":"trunk","bus_network":"TransJakarta","source":"openstreetmap.org","min_zoom":8.0,"bus_shield_text":null,"landuse_kind":"urban_area","id":319661011},"arcs":[2237]},{"type":"MultiLineString","properties":{"source":"openstreetmap.org","kind":"major_road","landuse_kind":"aerodrome","sort_rank":380,"kind_detail":"primary","min_zoom":8.0},"arcs":[[2238],[2239],[2240],[2241],[2242],[2243],[2244],[2245]]},{"type":"MultiLineString","properties":{"source":"openstreetmap.org","kind":"highway","landuse_kind":"urban_area","sort_rank":383,"kind_detail":"motorway","ref":"2","min_zoom":8.0},"arcs":[[2246],[2247]]},{"type":"MultiLineString","properties":{"source":"openstreetmap.org","kind":"major_road","landuse_kind":"residential","sort_rank":381,"kind_detail":"trunk","min_zoom":8.0},"arcs":[[2248],[2249],[2250],[2251],[2252],[2253],[2254],[2255],[2256],[2257]]},{"type":"MultiLineString","properties":{"source":"openstreetmap.org","kind":"major_road","landuse_kind":"residential","sort_rank":380,"kind_detail":"primary","min_zoom":8.0},"arcs":[[2258],[2259],[2260],[2261],[2262],[2263],[2264],[2265],[2266],[2267],[2268],[2269],[2270],[2271],[2272],[2273],[2274],[2275],[2276],[2277],[2278],[2279],[2280],[2281],[2282],[2283],[2284],[2285],[2286],[2287],[2288],[2289],[2290],[2291],[2292],[2293],[2294],[2295],[2296],[2297],[2298],[2299],[2300],[2301],[2302],[2303],[2304],[2305],[2306],[2307],[2308],[2309],[2310],[2311],[2312],[2313],[2314],[2315],[2316],[2317],[2318],[2319],[2320],[2321],[2322],[2323],[2324],[2325],[2326],[2327],[2328],[2329],[2330],[2331],[2332],[2333],[2334],[2335],[2336],[2337],[2338],[2339],[2340],[2341],[2342],[2343],[2344],[2345],[2346],[2347],[2348],[2349],[2350],[2351],[2352],[2353],[2354],[2355],[2356],[2357],[2358],[2359],[2360],[2361],[2362],[2363],[2364],[2365],[2366],[2367],[2368],[2369],[2370],[2371],[2372],[2373],[2374],[2375],[2376],[2377],[2378],[2379],[2380],[2381],[2382],[2383],[2384],[2385],[2386],[2387],[2388],[2389],[2390],[2391],[2392],[2393],[2394],[2395],[2396],[2397],[2398],[2399],[2400],[2401],[2402],[2403],[2404],[2405],[2406],[2407],[2408],[2409],[2410],[2411],[2412],[2413],[2414],[2415],[2416],[2417],[2418],[2419],[2420],[2421],[2422],[2423],[2424],[2425],[2426],[2427],[2428],[2429],[2430],[2431],[2432],[2433],[2434],[2435],[2436],[2437],[2438],[2439],[2440],[2441],[2442],[2443],[2444],[2445],[2446],[2447],[2448]]},{"type":"MultiLineString","properties":{"source":"openstreetmap.org","kind":"major_road","sort_rank":380,"kind_detail":"primary","ref":"19","min_zoom":8.0},"arcs":[[2449],[2450],[2451],[2452]]},{"type":"LineString","properties":{"kind":"major_road","sort_rank":381,"kind_detail":"trunk","bus_network":null,"source":"openstreetmap.org","min_zoom":8.0,"bus_shield_text":"S14","landuse_kind":"urban_area","id":524823979},"arcs":[2453]},{"type":"MultiLineString","properties":{"sort_rank":383,"kind_detail":"motorway","min_zoom":8.0,"kind":"highway","source":"openstreetmap.org"},"arcs":[[2454],[2455],[2456],[2457],[2458],[2459],[2460],[2461],[2462],[2463],[2464],[2465],[2466]]},{"type":"MultiLineString","properties":{"source":"openstreetmap.org","kind":"major_road","landuse_kind":"park","sort_rank":380,"kind_detail":"primary","min_zoom":8.0},"arcs":[[2467],[2468],[2469]]},{"type":"LineString","properties":{"kind":"major_road","sort_rank":380,"kind_detail":"primary","bus_network":null,"source":"openstreetmap.org","min_zoom":8.0,"bus_shield_text":"S71","landuse_kind":"residential","id":229062374},"arcs":[2470]},{"type":"LineString","properties":{"kind":"major_road","sort_rank":381,"kind_detail":"trunk","bus_network":null,"source":"openstreetmap.org","min_zoom":8.0,"bus_shield_text":"C09","landuse_kind":"urban_area","id":229080175},"arcs":[2471]},{"type":"MultiLineString","properties":{"source":"openstreetmap.org","kind":"major_road","landuse_kind":"residential","sort_rank":381,"kind_detail":"trunk","ref":"12","min_zoom":8.0},"arcs":[[2472],[2473],[2474],[2475],[2476],[2477],[2478],[2479],[2480]]},{"type":"LineString","properties":{"kind":"major_road","sort_rank":381,"landuse_kind":"urban_area","is_bicycle_related":true,"source":"openstreetmap.org","min_zoom":8.0,"kind_detail":"trunk","ref":"2"},"arcs":[2481]},{"type":"MultiLineString","properties":{"bus_network":null,"sort_rank":381,"landuse_kind":"urban_area","kind":"major_road","source":"openstreetmap.org","min_zoom":8.0,"bus_shield_text":"S71","kind_detail":"trunk"},"arcs":[[2482],[2483]]},{"type":"LineString","properties":{"kind":"major_road","sort_rank":380,"kind_detail":"primary","is_bicycle_related":true,"bus_network":"Blok M - Manggarai","source":"openstreetmap.org","min_zoom":8.0,"bus_shield_text":null,"landuse_kind":"urban_area","id":448329038},"arcs":[2484]},{"type":"LineString","properties":{"source":"openstreetmap.org","kind":"major_road","kind_detail":"trunk","sort_rank":381,"landuse_kind":"urban_area","ref":"3","min_zoom":8.0},"arcs":[2485]},{"type":"LineString","properties":{"kind":"major_road","sort_rank":381,"kind_detail":"trunk","bus_network":null,"source":"openstreetmap.org","min_zoom":8.0,"bus_shield_text":"S71","landuse_kind":"urban_area","ref":"12","id":229062377},"arcs":[2486]},{"type":"MultiLineString","properties":{"source":"openstreetmap.org","kind":"major_road","sort_rank":381,"kind_detail":"trunk","ref":"11","min_zoom":8.0},"arcs":[[2487],[2488],[2489],[2490],[2491],[2492],[2493],[2494],[2495],[2496],[2497],[2498],[2499],[2500],[2501],[2502],[2503],[2504],[2505],[2506],[2507],[2508],[2509],[2510],[2511],[2512],[2513],[2514],[2515]]},{"type":"LineString","properties":{"kind":"major_road","sort_rank":380,"landuse_kind":"urban_area","source":"openstreetmap.org","min_zoom":8.0,"kind_detail":"primary","ref":"19","id":156256934},"arcs":[2516]},{"type":"MultiLineString","properties":{"source":"openstreetmap.org","kind":"major_road","kind_detail":"trunk","sort_rank":381,"landuse_kind":"urban_area","ref":"11","min_zoom":8.0},"arcs":[[2517],[2518],[2519],[2520],[2521],[2522],[2523],[2524],[2525],[2526],[2527],[2528]]},{"type":"LineString","properties":{"source":"openstreetmap.org","kind":"highway","landuse_kind":"residential","sort_rank":383,"kind_detail":"motorway","ref":"2","min_zoom":8.0},"arcs":[2529]},{"type":"MultiLineString","properties":{"source":"openstreetmap.org","kind":"major_road","sort_rank":381,"kind_detail":"trunk","ref":"3","min_zoom":8.0},"arcs":[[2530],[2531],[2532],[2533],[2534],[2535],[2536],[2537]]},{"type":"MultiLineString","properties":{"bus_network":"TransJakarta","sort_rank":381,"landuse_kind":"urban_area","kind":"major_road","source":"openstreetmap.org","min_zoom":8.0,"bus_shield_text":null,"kind_detail":"trunk","ref":"12"},"arcs":[[2538],[2539],[2540],[2541],[2542]]},{"type":"MultiLineString","properties":{"source":"openstreetmap.org","kind":"major_road","sort_rank":381,"kind_detail":"trunk","ref":"AH25","min_zoom":8.0},"arcs":[[2543],[2544],[2545]]}]},"earth":{"type":"GeometryCollection","geometries":[{"type":"MultiPolygon","properties":{"sort_rank":10,"source":"naturalearthdata.com","min_zoom":0.0,"kind":"earth","area":17903893365},"arcs":[[[2546]],[[2547]]]}]},"landuse":{"type":"GeometryCollection","geometries":[{"type":"MultiPolygon","properties":{"source":"openstreetmap.org","kind":"park","tier":2,"area":1178455745,"sort_rank":24,"min_zoom":6.0,"osm_relation":true},"arcs":[[[2548]],[[2549]]]},{"type":"Polygon","properties":{"kind":"nature_reserve","area":118804000,"sort_rank":23,"source":"openstreetmap.org","min_zoom":7.0,"tier":2,"id":-7757609,"osm_relation":true},"arcs":[[2550]]},{"type":"Polygon","properties":{"kind":"residential","area":16345300,"sort_rank":20,"source":"openstreetmap.org","min_zoom":8.0,"tier":2,"id":-7462418,"osm_relation":true},"arcs":[[2551]]},{"type":"MultiPolygon","properties":{"source":"naturalearthdata.com","kind":"urban_area","name":"","area":1060996897,"sort_rank":11,"min_zoom":4.0},"arcs":[[[2552]],[[2553]],[[2554]]]},{"type":"MultiPolygon","properties":{"source":"openstreetmap.org","kind":"residential","tier":2,"area":131742774,"sort_rank":20,"min_zoom":8.0},"arcs":[[[2555]],[[2556]],[[2557]],[[2558]],[[2559]],[[2560]],[[2561]]]},{"type":"Polygon","properties":{"kind":"residential","name":"Gading Serpong","area":15428800,"sort_rank":20,"source":"openstreetmap.org","min_zoom":8.0,"tier":2,"id":-6543247,"osm_relation":true},"arcs":[[2562]]},{"type":"MultiPolygon","properties":{"source":"openstreetmap.org","kind":"park","tier":2,"area":2250686603,"sort_rank":24,"min_zoom":4.0,"osm_relation":true},"arcs":[[[2563],[2564],[2565],[2566],[2567],[2568]],[[2569]]]},{"type":"Polygon","properties":{"kind":"aerodrome","area":17645600,"sort_rank":60,"operator":"Angkasa Pura","source":"openstreetmap.org","min_zoom":8.0,"tier":3,"id":48057102},"arcs":[[2570]]},{"type":"Polygon","properties":{"kind":"residential","name":"Bumi Serpong Damai","area":67323400,"sort_rank":20,"source":"openstreetmap.org","min_zoom":8.0,"tier":2,"id":398202837},"arcs":[[2571]]},{"type":"MultiPolygon","properties":{"source":"openstreetmap.org","kind":"nature_reserve","tier":2,"area":165809775,"sort_rank":23,"min_zoom":8.0,"osm_relation":true},"arcs":[[[2572]],[[2573],[2574],[2575],[2576]],[[2577],[2578]]]}]}},"type":"Topology","transform":{"translate":[105.46875,-7.0136679276],"scale":[0.0003433228,0.000341231]},"arcs":[[[3819,2044],[85,4],[-48,-98],[6,-49],[120,31],[11,56],[103,-77]],[[3694,2892],[63,-100],[-129,-103],[-78,-2],[27,-41],[-33,-15],[8,-166],[105,-36],[-27,-15],[28,-12],[-19,-88],[77,-15],[35,-97],[-18,-28],[35,-18],[-7,-25],[58,-87]],[[2627,4096],[270,-566],[337,-382],[438,-220],[22,-36]],[[0,2109],[14,0],[386,121],[420,564],[133,431],[725,543]],[[1678,3768],[425,328]],[[3819,2044],[-29,-132],[-245,17],[-15,-19],[-253,-3],[-48,71],[-57,-6],[-123,48],[-1,-23],[49,-22],[-7,-21],[-31,-24],[-48,26],[-7,-28],[-29,2],[-41,12],[23,76],[-43,63],[-127,-135],[24,-130],[59,-58],[-28,-25],[30,-13],[-43,-68],[-113,-8],[33,-89],[-26,-98],[57,-100],[-20,-27],[41,-90],[-3,-268],[109,-202],[97,-5],[76,-45],[-83,-67],[-118,-37],[-21,-37],[-41,-11],[-14,-124],[-111,-113],[21,-68],[-31,-53],[18,-112],[95,-98]],[[3964,2463],[54,-102]],[[4021,2358],[14,-15],[4,0],[17,7],[2,1],[1,0],[2,0],[3,-1],[10,-9],[22,0]],[[4096,2341],[-31,8]],[[4046,2346],[15,5],[13,-10],[22,0]],[[3964,2463],[54,-102]],[[4021,2358],[14,-15],[4,0],[17,7],[2,1],[1,0],[2,0],[3,-1],[10,-9],[22,0]],[[4096,2341],[-31,8]],[[4046,2346],[15,5],[13,-10],[22,0]],[[3921,2567],[20,1],[32,-145],[2,-3],[43,-58],[12,-16],[7,-4],[24,9],[2,-2],[9,-7],[1,-1],[1,0],[0,-1],[2,0],[4,0],[7,0],[9,1]],[[3964,2463],[54,-102]],[[4019,2359],[-1,3]],[[4054,2349],[-33,9]],[[4055,2350],[4,1],[2,0],[1,-1],[2,0],[8,-8],[2,-1],[22,0]],[[3964,2463],[54,-102]],[[4021,2358],[14,-15],[4,0],[17,7],[2,1],[1,0],[2,0],[3,-1],[10,-9],[22,0]],[[4096,2341],[-31,8]],[[4046,2346],[15,5],[13,-10],[22,0]],[[3964,2463],[54,-102]],[[4021,2358],[14,-15],[24,8],[2,0],[3,-1],[10,-9],[22,0]],[[4096,2341],[-31,8]],[[4046,2346],[15,5],[2,-2],[9,-7],[1,-1],[1,0],[0,-1],[2,0],[4,0],[7,0],[9,1]],[[3945,2411],[-11,-65],[-61,-53],[-10,-178],[-81,4]],[[3964,2463],[54,-102]],[[4021,2358],[14,-15],[24,8],[2,0],[3,-1],[8,-8],[1,-1],[1,0],[1,-1],[13,1],[8,0]],[[4096,2341],[-31,8]],[[4046,2346],[15,5],[2,-2],[9,-7],[1,-1],[1,0],[0,-1],[2,0],[4,0],[7,0],[9,1]],[[3884,1314],[-32,-74]],[[3880,1637],[0,-3],[0,-5],[0,-3],[2,-11],[3,-21],[0,-23],[-4,-10],[-12,-14],[-2,-3],[0,-1],[-2,-4],[-1,-6],[-1,-4],[0,-7],[0,-4],[2,-31],[3,-15],[-1,-8],[1,-3],[0,-2],[2,-3],[8,-9],[3,-8],[-4,-51]],[[3946,2582],[-64,-3],[-2,-43]],[[3880,2535],[34,-148],[101,-22]],[[3925,1774],[-45,-137]],[[3880,1637],[6,-43],[-1,-22],[-22,-54],[18,-80],[1,-95]],[[3935,2572],[31,7],[95,-226],[35,-12]],[[3921,2568],[175,64]],[[3964,2463],[54,-102]],[[4021,2358],[14,-15],[24,8],[2,0],[3,-1],[10,-9],[22,0]],[[4096,2341],[-31,8]],[[4046,2346],[15,5],[2,-2],[9,-7],[1,-1],[1,0],[0,-1],[2,0],[4,0],[7,0],[9,1]],[[3908,2409],[-86,-144],[-95,-97],[-267,-142]],[[3850,1219],[0,-1],[0,1]],[[3964,2463],[54,-102]],[[4021,2358],[14,-15],[4,0],[17,7],[2,1],[1,0],[2,0],[3,-1],[10,-9],[22,0]],[[4096,2341],[-31,8]],[[4046,2346],[15,5],[13,-10],[22,0]],[[3964,2463],[54,-102]],[[4021,2358],[14,-15],[24,8],[2,0],[3,-1],[8,-8],[1,-1],[1,0],[1,-1],[13,1],[8,0]],[[4096,2341],[-31,8]],[[4046,2346],[15,5],[2,-2],[9,-7],[1,-1],[1,0],[0,-1],[2,0],[4,0],[7,0],[9,1]],[[3964,2463],[54,-102]],[[4021,2358],[14,-15],[24,8],[2,0],[3,-1],[8,-8],[1,-1],[1,0],[1,-1],[13,1],[8,0]],[[4096,2341],[-31,8]],[[4046,2346],[15,5],[2,-2],[9,-7],[1,-1],[1,0],[0,-1],[2,0],[4,0],[7,0],[9,1]],[[3881,2520],[-17,-25],[-159,10],[-321,-53]],[[3925,1774],[-6,-30],[-39,-107]],[[3880,1637],[6,-43],[-1,-22],[-22,-54],[18,-80],[5,-117],[-34,-81]],[[3880,1637],[0,-3],[0,-5],[0,-3],[2,-11],[3,-21],[0,-23],[-4,-10],[-12,-14],[-2,-3],[0,-1],[-2,-4],[-1,-6],[-1,-4],[0,-7],[0,-4],[2,-31],[3,-15],[-1,-8],[1,-3],[0,-2],[2,-3],[8,-9],[3,-8],[-4,-51]],[[3921,2567],[23,-9]],[[3944,2558],[2,-4]],[[3946,2554],[27,-131],[45,-62]],[[3923,1762],[7,33],[10,29]],[[3940,1824],[1,1]],[[3941,1825],[28,59]],[[3969,1884],[1,42],[5,42],[6,25],[-5,16],[0,3],[0,2],[0,2],[9,18],[11,69],[16,60],[37,94]],[[3969,1884],[3,8],[0,3],[0,5],[-2,19],[0,6],[6,43],[5,22],[0,2],[0,4],[-1,2],[-1,4],[-2,4],[-1,3],[0,6],[7,12],[1,2],[1,5],[9,52],[2,17],[2,7],[6,14],[1,4],[2,4],[0,4],[5,24],[1,4],[32,75],[2,4],[1,4],[1,2],[0,6],[-1,57],[-1,8],[-21,30]],[[4019,2359],[-1,3]],[[3928,1784],[0,-1],[0,1]],[[3941,1825]],[[3940,1824],[1,1]],[[3944,2558],[2,-4]],[[3944,2558]],[[3958,2502],[-1,-1],[2,-4],[-1,5]],[[3964,2463],[54,-102]],[[4021,2358],[14,-15],[4,0],[17,7],[2,1],[1,0],[2,0],[3,-1],[8,-8],[1,-1],[1,0],[1,-1],[13,1],[8,0]],[[4096,2341],[-31,8]],[[4046,2346],[15,5],[2,-2],[9,-7],[1,-1],[1,0],[2,-1],[4,0],[7,0],[9,1]],[[3964,2463],[54,-102]],[[4021,2358],[14,-15],[4,0],[17,7],[2,1],[1,0],[2,0],[3,-1],[8,-8],[1,-1],[1,0],[1,-1],[13,1],[8,0]],[[4096,2341],[-31,8]],[[4046,2346],[15,5],[2,-2],[9,-7],[1,-1],[1,0],[2,-1],[4,0],[7,0],[9,1]],[[3964,2463],[54,-102]],[[4021,2358],[14,-15],[24,8],[2,0],[3,-1],[10,-9],[22,0]],[[4096,2341],[-31,8]],[[4046,2346],[15,5],[2,-2],[9,-7],[1,-1],[1,0],[0,-1],[2,0],[4,0],[7,0],[9,1]],[[3964,2463],[54,-102]],[[4021,2358],[14,-15],[4,0],[17,7],[2,1],[1,0],[2,0],[3,-1],[10,-9],[22,0]],[[4096,2341],[-31,8]],[[4046,2346],[15,5],[13,-10],[22,0]],[[3964,2463],[54,-102]],[[4021,2358],[14,-15],[24,8],[2,0],[3,-1],[10,-9],[22,0]],[[4096,2341],[-31,8]],[[4046,2346],[15,5],[2,-2],[9,-7],[1,-1],[1,0],[0,-1],[2,0],[4,0],[7,0],[9,1]],[[3964,2463],[54,-102]],[[4021,2358],[14,-15],[24,8],[2,0],[3,-1],[8,-8],[1,-1],[1,0],[1,-1],[13,1],[8,0]],[[4096,2341],[-31,8]],[[4046,2346],[15,5],[2,-2],[9,-7],[1,-1],[1,0],[0,-1],[2,0],[4,0],[7,0],[9,1]],[[3964,2463],[54,-102]],[[4021,2358],[14,-15],[4,0],[17,7],[2,1],[1,0],[2,0],[3,-1],[10,-9],[22,0]],[[4096,2341],[-31,8]],[[4046,2346],[15,5],[13,-10],[22,0]],[[4096,2687],[-109,-17],[-129,-4],[-120,24],[-42,35],[-15,50],[-4,23],[-6,33],[-24,49],[-44,31],[-59,23],[-66,13],[-331,5],[-63,-18],[-45,-36],[-49,-29],[-73,1],[-177,88],[-71,12],[-70,20],[-181,142],[-123,10],[-73,-75],[-64,-91],[-98,-46],[-49,13],[-89,56],[-31,13],[-19,31],[-13,189],[-63,74],[-95,13],[-95,-36],[-67,-71],[-58,-193],[-30,-27],[-29,-18],[-201,-210],[-60,-116],[-81,-240],[-21,-108],[-32,-505],[8,-98],[-45,-125],[-77,-102],[-126,-53],[-80,-13],[-36,40],[-49,28],[-13,107],[-63,5],[-36,-27],[-72,-147],[26,-245],[-17,-45],[-43,-59],[-230,-210],[-33,-61],[-42,-138],[-37,-52],[-55,-20],[-7,3],[0,2490],[18,-12],[41,-7],[34,20],[26,33],[7,26],[-7,13],[-3,17],[-12,23],[-35,13],[-33,-3],[-26,-16],[-10,-9],[0,845],[43,-46],[30,-16],[20,-8],[19,-16],[23,-15],[30,-3],[14,9],[28,38],[16,15],[68,-67],[35,-96],[16,-227],[46,-56],[230,-27],[93,-38],[19,-49],[2,-113],[28,-28],[11,19],[90,100],[53,81],[32,97],[35,226],[17,63],[53,123],[11,62],[-1,52],[3035,0],[0,-1409]],[[2378,3517],[-1,13],[-11,7],[-64,-6],[8,-12],[58,-8],[10,6]],[[185,3400],[-24,16],[-14,-11],[-15,-27],[-18,9],[-24,-6],[-5,-7],[9,-20],[-33,-36],[26,-26],[9,-39],[56,25],[14,5],[5,21],[6,15],[0,14],[15,15],[19,16],[-24,4],[-19,19],[17,13]],[[1062,3101],[2,-4],[14,0],[29,-32],[3,-36],[10,15],[19,7],[3,40],[-10,47],[-62,-8],[-20,-18],[12,-11]],[[1956,3173],[27,-37],[26,14],[7,6],[-6,24],[-22,10],[-32,-17]],[[0,475],[6,-5],[45,-42],[36,20],[106,-34],[59,49],[120,19],[310,40],[59,-9],[95,-18],[55,-16],[52,13],[89,20],[92,2],[56,10],[31,-38],[40,14],[10,40],[50,16],[61,9],[58,10],[55,-1],[87,-12],[130,-44],[209,-174],[127,-57],[95,6],[106,-79],[20,-14],[15,-22],[3,-19],[11,-14],[39,-6],[16,-9],[30,-41],[15,-9],[40,-5],[25,-10],[25,-14],[39,-13],[63,-6],[71,9],[66,19],[9,6],[56,82],[81,24],[87,-35],[85,9],[77,-56],[13,-90],[-2856,0],[13,4],[-18,26],[-73,18],[-17,-2],[-3,-6],[-20,-7],[-6,-25],[33,-8],[-178,0],[0,475]],[[1011,178],[-18,7],[-44,-10],[-22,-17],[-35,-10],[-33,-9],[17,-27],[28,7],[23,11],[23,9],[28,10],[33,29]],[[1061,4096],[1,-52],[-11,-62],[-53,-123],[-17,-63],[-35,-226],[-32,-97],[-53,-81],[-90,-100],[-11,-19],[-28,28],[-2,113],[-19,49],[-93,38],[-230,27],[-46,56],[-16,227],[-35,96],[-68,67],[-16,-15],[-28,-38],[-14,-9],[-30,3],[-23,15],[-19,16],[-20,8],[-30,16],[-43,46]],[[4096,2687],[-109,-17],[-129,-4],[-120,24],[-42,35],[-15,50],[-4,23],[-6,33],[-24,49],[-44,31],[-59,23],[-66,13],[-331,5],[-63,-18],[-45,-36],[-49,-29],[-73,1],[-177,88],[-71,12],[-70,20],[-181,142],[-123,10],[-73,-75],[-64,-91],[-98,-46],[-49,13],[-89,56],[-31,13],[-19,31],[-13,189],[-63,74],[-95,13],[-95,-36],[-67,-71],[-58,-193],[-30,-27],[-29,-18],[-201,-210],[-60,-116],[-81,-240],[-21,-108],[-32,-505],[8,-98],[-45,-125],[-77,-102],[-126,-53],[-80,-13],[-36,40],[-49,28],[-13,107],[-63,5],[-36,-27],[-72,-147],[26,-245],[-17,-45],[-43,-59],[-230,-210],[-33,-61],[-42,-138],[-37,-52],[-55,-20],[-7,3]],[[0,475],[6,-5],[45,-42],[36,20],[106,-34],[59,49],[120,19],[310,40],[59,-9],[95,-18],[55,-16],[52,13],[89,20],[92,2],[56,10],[31,-38],[40,14],[10,40],[50,16],[61,9],[58,10],[55,-1],[87,-12],[130,-44],[209,-174],[127,-57],[95,6],[106,-79],[20,-14],[15,-22],[3,-19],[11,-14],[39,-6],[16,-9],[30,-41],[15,-9],[40,-5],[25,-10],[25,-14],[39,-13],[63,-6],[71,9],[66,19],[9,6],[56,82],[81,24],[87,-35],[85,9],[77,-56],[13,-90]],[[369,1002],[0,5]],[[369,1007],[0,52],[107,187],[-41,63],[24,111],[54,85],[69,-8],[53,-58],[68,-27]],[[373,1067],[-41,-34],[37,-26]],[[369,1007],[32,-22]],[[433,963],[53,-49],[40,6],[-5,-21]],[[518,890],[34,-35],[92,40],[49,-16]],[[1022,799],[4,-1]],[[1163,826],[28,61],[30,11],[16,144]],[[1266,1183],[0,1]],[[1494,1160],[-11,72],[67,112],[-31,53]],[[1584,611],[16,79]],[[1600,690],[-68,6],[-13,71],[-40,50],[20,110],[-30,56],[55,72],[-30,103]],[[1519,1398],[-40,72],[42,47]],[[1522,1518],[53,227],[-53,47]],[[1550,1349],[68,17],[48,-16],[144,-88],[30,-54],[39,-3],[26,-52],[46,-17],[81,55],[21,42],[-34,34],[54,59]],[[1600,690],[25,102],[42,18],[38,88],[-3,98],[36,26],[-23,87],[42,24],[1,33],[-41,16],[-2,55],[30,56]],[[1600,681],[150,31],[111,153],[104,15],[63,95],[86,41],[-1,61],[-130,63]],[[2016,2586],[-54,-178]],[[1962,2408],[-105,-342]],[[2088,2426],[-93,-15],[-28,-4],[-5,1]],[[1962,2408],[-1,0]],[[1964,2647],[-7,-46],[50,3]],[[2007,2604],[18,-1],[23,15]],[[1981,2446],[91,32]],[[2072,2478],[19,6],[44,134]],[[1996,2624],[-8,6]],[[2007,2637],[-12,2]],[[1996,2628],[0,-4]],[[2016,2586],[-9,18]],[[2007,2604],[-11,20]],[[2016,2586],[32,-19],[23,-86],[1,-3]],[[2072,2478],[19,-61]],[[2061,2661],[17,-34]],[[2203,1229],[-100,97],[-30,0]],[[2516,1973],[-65,23],[-234,-47],[8,-43],[38,-22],[-40,-114],[12,-46],[-36,-20],[-2,-62],[-62,-77],[10,-34],[-31,-39],[-61,-8],[20,-158]],[[2075,2617],[1,0]],[[2210,268],[1,0]],[[2246,1906],[23,39]],[[2296,258],[2,0]],[[2318,1963],[1,1],[4,1]],[[2703,2003],[-62,37],[-125,-67]],[[2621,2366],[-75,-217],[32,-73],[-17,-56],[-51,-25],[6,-22]],[[2682,2861],[-35,22]],[[2845,2751],[-163,110]],[[2704,1999],[-16,7]],[[2766,2015],[-63,-12]],[[2703,2003],[19,-84]],[[3363,2799],[-241,119],[-88,-80],[-7,-44],[-143,-64],[-37,20]],[[2885,1717],[22,-157]],[[3039,2800],[47,-8]],[[3073,2273],[-6,16]],[[3068,2289],[5,-16]],[[3073,2259],[0,13]],[[3073,2272],[1,-13]],[[3074,2258],[15,-9],[-15,9]],[[3152,2702],[108,-105],[6,-38]],[[3237,2026],[25,73]],[[3262,2099],[-25,41],[-75,6],[31,101]],[[3198,0],[1,8]],[[3261,2097],[1,2]],[[3262,2099],[53,125]],[[3343,2183],[2,5]],[[3345,2187],[-1,-4]],[[3363,2799],[3,-1]],[[3412,2784],[-46,14]],[[3393,2164],[-1,3]],[[3392,2167],[1,-2]],[[3394,2617],[4,28]],[[3399,2647],[-2,-27]],[[3403,2678],[8,57]],[[3416,2749],[5,14]],[[3433,2770],[96,-17]],[[3508,1953],[5,0]],[[3671,1576],[-85,68],[-73,309]],[[3513,1953],[27,0],[1,0],[25,0]],[[3566,1953],[24,1],[29,1]],[[3549,1954],[1,2]],[[3550,1957],[4,-3]],[[3556,1977],[10,-24]],[[3566,1953],[17,-39],[12,-25],[87,-155]],[[3669,1322],[-4,-1]],[[3804,1361],[-39,76]],[[3766,1437],[38,-76]],[[3785,176],[82,-26]],[[3813,1343],[-9,18]],[[3813,1343],[1,-1]],[[3814,1340],[0,2]],[[3816,1341],[-2,1]],[[3816,1341],[1,0]],[[3867,150],[-10,-16]],[[3857,133],[-15,-42],[27,-55]],[[3867,150],[105,-48],[54,6]],[[3869,36],[29,7]],[[3869,36],[20,-34],[-4,-2]],[[4005,1549],[-79,8]],[[3926,1557],[-4,0],[-4,0],[-31,8]],[[3905,1136],[-59,-168],[29,-57],[-35,-79],[50,-39]],[[3898,43],[9,3],[81,20]],[[3988,66]],[[4008,1570],[-15,37],[-31,-31],[-22,13],[-14,-32]],[[3926,1557]],[[3926,1557],[-29,-69],[15,-140]],[[3927,1642],[-1,-23]],[[3930,1786],[-55,-135],[12,-86],[31,-7],[4,-1],[4,0]],[[3926,1557],[79,-8]],[[3964,1147],[-13,17]],[[3953,1165],[11,-18]],[[3987,66],[1,0]],[[3988,66],[24,18],[14,24]],[[4014,1311],[-14,4]],[[4000,1316],[14,-5]],[[4014,1311],[2,4]],[[4096,1265],[-8,-2]],[[4088,1263],[-13,-3]],[[4075,1260],[-1,0],[-24,45]],[[4050,1305],[0,1],[-1,0]],[[4049,1306],[-3,0],[-7,-1],[-6,0],[-18,5]],[[4016,1315],[-1,-4]],[[4016,1311],[-1,-1],[-1,1]],[[4014,1311],[2,0]],[[4016,1311],[33,-5]],[[4049,1306],[1,-1]],[[4050,1305],[4,0],[21,-45]],[[4075,1260],[13,3]],[[4088,1263],[8,3]],[[4016,1315],[0,1],[1,0],[-1,-1]],[[4016,1316]],[[4026,108],[70,34]],[[4040,1606],[-1,0]],[[4040,1607],[0,1]],[[4091,1549],[-51,58]],[[4051,1326],[-26,7],[9,78],[62,102]],[[4088,316],[4,-5]],[[4092,311],[4,-6]],[[4096,1547],[-5,2]],[[4093,317],[-1,-6]],[[4092,311],[0,-1]],[[3074,2272],[-1,0],[0,1]],[[3073,2273],[1,-1]],[[3074,2259],[0,-1],[-1,0],[0,1],[1,0]],[[812,3368],[20,5]],[[832,3373],[-20,-5]],[[832,3373],[10,95],[54,41],[36,71],[-17,24],[22,69],[-38,160],[20,34],[-10,142],[20,87]],[[1318,2808],[-100,-42],[-12,-107]],[[1790,2870],[-43,-40],[-125,35],[-104,-4],[-90,42]],[[1428,2902],[90,-41],[104,4],[125,-35],[43,40]],[[1557,3149],[-4,4]],[[1790,2870],[3,6]],[[1992,2629],[-4,1]],[[2104,2618],[34,0]],[[2881,2394],[2,0]],[[2883,2396],[0,-2]],[[2883,2394],[2,-8]],[[3075,127],[11,-15]],[[3678,1719]],[[3731,1294],[0,-1]],[[3735,1291],[2,0]],[[3736,1290],[1,1]],[[3750,1299],[-14,-9]],[[3737,1290],[0,-1]],[[3737,1291],[13,8]],[[3747,1281],[-1,0]],[[3809,1346],[0,1]],[[3811,1340],[1,0]],[[3829,1335]],[[3964,1417]],[[3998,1700],[1,-4]],[[4016,1048],[-1,0]],[[4017,1316],[8,17]],[[4038,1605],[2,3]],[[3771,2273],[46,-1]],[[3440,2253],[7,5]],[[3448,2258],[13,9]],[[3462,2269],[6,4]],[[3892,1234],[34,-83]],[[3925,1151],[-32,56]],[[3991,2441],[4,3]],[[4000,2448]],[[4016,2458],[-13,-9]],[[4003,2450],[11,8]],[[4022,2459],[14,1]],[[3826,2257],[2,13],[3,7]],[[3835,2282],[-7,-18]],[[3835,2282],[-4,-5]],[[3831,2277]],[[3835,2282],[0,1]],[[3826,2204],[4,-5]],[[4014,1046],[-3,-97],[-69,-45],[-2,-84],[-51,-27],[-4,-66],[-57,-45],[-66,-127],[68,-202]],[[3941,1359],[13,24]],[[4041,1629],[-87,-246]],[[3954,1383],[1,9]],[[4015,1050],[0,-1],[-1,-3]],[[4014,1046],[0,2]],[[4014,1048],[0,2]],[[4014,1048],[1,2]],[[4015,1050],[1,2]],[[4016,1052]],[[4034,1601],[4,4]],[[4040,1608],[1,21]],[[4042,1736],[-1,-107]],[[833,3350],[48,6],[653,-183]],[[3842,2473],[-4,9]],[[3842,2474],[3,14]],[[3847,2489],[-3,-16]],[[3828,2266],[-2,-12]],[[3863,2113],[7,126]],[[3870,2224],[-6,-111]],[[3872,2250],[-2,-26]],[[3890,2252],[-6,15]],[[3848,2262],[-2,2]],[[3835,2283],[13,21]],[[3850,2299],[-15,-17]],[[3866,1203],[-6,19]],[[4058,1799],[-4,-15]],[[4064,1819],[-5,-15]],[[4072,2185],[-1,3]],[[4071,2188],[1,-3]],[[4074,2254],[-1,0]],[[4076,2164],[-1,5]],[[4075,2169],[2,-6]],[[4076,2094],[7,37]],[[4084,2129],[-8,-34]],[[4077,2213],[10,19]],[[4087,2230],[-9,-16]],[[4085,2124],[-1,-1]],[[4087,2115]],[[4088,2110]],[[3723,2018],[-8,1]],[[3767,2089],[-19,-26],[-25,-15],[-2,-19]],[[3721,2029],[2,19],[44,41]],[[3721,2029],[2,-11]],[[3722,2020],[-1,-1]],[[3723,2018],[8,-65]],[[3723,1882],[8,71]],[[3731,1953],[-8,-71]],[[3796,2123],[-9,0]],[[3837,1241],[-30,35]],[[3814,2126],[4,13]],[[3818,2139],[-4,-13]],[[3853,1223],[-11,2],[-5,13]],[[3837,1238],[0,3]],[[3837,1241],[1,0]],[[3837,1238]],[[3837,1238],[1,1],[0,2]],[[3838,1241],[15,-18]],[[3844,1226],[-1,-1]],[[3846,2305],[-2,3]],[[3844,2308],[-1,0],[-1,1],[2,-1]],[[3844,2308],[0,1],[1,0],[20,35],[2,13],[12,15]],[[3879,2372],[-32,-66]],[[3858,1222],[-5,1]],[[3860,1220],[-2,2]],[[3858,1222],[2,0]],[[4017,1047],[-1,4]],[[1793,2876],[5,22]],[[3955,1392],[79,209]],[[3860,1222],[9,10]],[[3848,2262],[25,-2]],[[3886,2258],[5,-6]],[[3826,2204],[-1,8]],[[3826,2211],[0,-7]],[[3830,2199],[-1,0]],[[3927,1239],[52,2]],[[3767,2089],[29,57],[18,-20]],[[3797,2123],[-30,-34]],[[3813,2125],[-17,-2]],[[1553,3153],[6,-5]],[[1559,3148],[-2,1]],[[1559,3148],[6,-80]],[[1566,3068],[8,-44],[57,-30]],[[1775,2880],[-21,14],[-44,22],[-26,13],[-9,6],[-44,59]],[[1649,2973],[-18,21]],[[1631,2994],[45,-59],[78,-41],[21,-14]],[[3374,2455],[-153,-70],[-57,-72],[-72,13],[-20,-25],[-67,23]],[[3384,2462],[-10,-7]],[[3384,2462],[9,13]],[[3393,2475],[12,-7]],[[3393,2475],[7,3],[4,0]],[[3405,2468],[-12,7]],[[3403,2478],[1,0]],[[3404,2478]],[[3404,2478]],[[3404,2478],[0,-2],[1,-8]],[[3420,2481],[-16,-3]],[[3404,2478],[1,-10]],[[3548,2503],[-128,-22]],[[3420,2481],[128,22]],[[3672,2518],[55,-3]],[[3760,2509],[2,-1]],[[3762,2508],[30,-11]],[[3792,2497],[1,0],[1,0]],[[3762,2508],[-1,0]],[[3761,2508],[-1,0]],[[3848,2490],[-1,-1]],[[3847,2489],[-4,-7]],[[3843,2482],[-1,0],[-58,25],[-1,0]],[[3783,2507],[0,1],[-21,0]],[[3762,2508],[-1,0]],[[3761,2508],[-1,0]],[[3794,2496],[-1,1],[-1,0]],[[3792,2497],[-9,10]],[[3783,2507],[0,1]],[[3783,2509],[59,-27]],[[3842,2482],[6,13]],[[3848,2495],[11,24],[4,3],[-4,27],[-5,54],[30,1]],[[3842,2482],[1,0]],[[3843,2482],[4,0]],[[3863,2522],[-7,-11],[-2,-5],[-4,-11]],[[3850,2495],[-3,-6]],[[3847,2489]],[[3848,2495]],[[3848,2495],[1,0],[1,0]],[[3850,2495]],[[3883,2604],[-28,-1],[5,-58]],[[3907,2597],[-2,0]],[[3905,2597],[2,0]],[[3907,2598],[0,-1]],[[3943,2586],[19,3]],[[3962,2589],[3,1]],[[3969,2588],[-11,-2]],[[4017,2597],[-57,-10]],[[3962,2589]],[[3962,2589],[2,0],[1,-1],[42,8]],[[3977,2590],[-9,-3]],[[4096,2640],[-26,-21],[-9,-5],[-27,-12]],[[4035,2603],[61,37]],[[4060,2616],[-25,-12]],[[4016,2357],[-26,9]],[[3990,2366],[27,-6]],[[3530,2059],[49,19]],[[3579,2078],[-11,-5],[-38,-15]],[[3589,2084],[74,47]],[[3663,2131],[-69,-44]],[[3679,2141],[12,8]],[[3690,2148],[-11,-7]],[[3777,2215],[6,-14],[1,-14]],[[3783,2189],[-5,23]],[[3927,2114],[2,0]],[[4092,2176],[-2,12]],[[3822,2150],[8,42]],[[3830,2192],[-8,-42]],[[3067,2289],[-1,4]],[[3066,2295],[6,6]],[[3067,2294],[1,-5]],[[3072,2301],[-5,-7]],[[3193,2247],[-15,71]],[[3266,2559],[4,-23]],[[3270,2536],[35,-66],[63,2]],[[3315,2224],[12,29]],[[3328,2252],[-1,0]],[[3327,2253],[1,0]],[[3327,2253],[12,47]],[[3334,2422],[-1,5]],[[3340,2426],[-6,-4]],[[3363,2399],[-29,23]],[[3342,2316],[-3,-16]],[[3355,2382],[-13,-66]],[[3355,2382],[8,17]],[[3370,2397],[-15,-15]],[[3372,2450],[-9,-51]],[[3363,2399],[7,-2]],[[3370,2397],[3,0]],[[3374,2453],[-2,0]],[[3373,2452],[20,23]],[[3373,2397],[17,0],[16,12]],[[3406,2409],[1,1]],[[3407,2410],[2,1]],[[3409,2411],[9,7]],[[3418,2419],[0,-1]],[[3418,2418]],[[3418,2418],[-9,-7]],[[3409,2411],[-2,-1]],[[3407,2410],[-1,-1]],[[3406,2409],[-15,-12],[-6,-1],[-12,1]],[[3379,2496],[2,3]],[[3391,2408],[-9,48]],[[3393,2571],[-2,-16]],[[3391,2555],[-4,-51],[0,-2]],[[3387,2502],[-1,1],[7,106]],[[3398,2477],[-11,25]],[[3387,2502],[1,0]],[[3389,2316],[5,1]],[[3393,2609],[-2,-54]],[[3391,2555],[0,-24]],[[3393,2609],[1,8]],[[3399,2316]],[[3399,2316]],[[3399,2316],[-1,0],[-4,5]],[[3415,2296],[-14,17]],[[3401,2313],[-2,3]],[[3399,2316],[-1,0]],[[3398,2316],[-4,5]],[[3395,2321],[3,-4],[0,-1]],[[3398,2316],[1,0]],[[3399,2316],[1,-3]],[[3400,2313],[12,-18]],[[3412,2295]],[[3412,2295],[17,-26]],[[3429,2269],[11,-16]],[[3395,2306],[1,12]],[[3396,2303],[0,4]],[[3403,2319],[-2,-6]],[[3401,2313],[-1,0]],[[3400,2313],[-3,-8],[-1,-2]],[[3397,2620],[0,-1]],[[3402,2403]],[[3404,2478]],[[3408,2293],[-4,2]],[[3404,2295],[4,-2]],[[3406,2425],[-1,42]],[[3405,2468],[2,-43],[12,3]],[[3419,2428]],[[3419,2428],[1,0]],[[3420,2428]],[[3420,2428],[2,0],[13,1]],[[3406,2407]],[[3406,2407],[1,0]],[[3406,2405],[0,2]],[[3406,2407],[0,2]],[[3406,2409]],[[3406,2409],[0,6],[0,9]],[[3407,2424],[0,-14]],[[3407,2410]],[[3407,2410],[0,-5]],[[3435,2429],[-13,-1],[-2,-1]],[[3420,2427]],[[3420,2427],[-1,0]],[[3419,2427]],[[3419,2427],[-12,-2]],[[3408,2293],[3,1]],[[3411,2294],[1,1]],[[3412,2295],[3,0]],[[3415,2295]],[[3411,2294],[1,1]],[[3412,2295],[3,1]],[[3438,2252],[-9,17]],[[3429,2269],[-14,26]],[[3415,2295],[0,1]],[[3418,2418]],[[3418,2418],[1,9]],[[3419,2427],[0,1]],[[3419,2428],[3,11]],[[3418,2418]],[[3418,2418],[1,9]],[[3419,2427],[0,1]],[[3419,2428],[3,11]],[[3422,2439],[-2,-11]],[[3420,2428],[0,-1]],[[3420,2427],[-2,-8]],[[3422,2439],[-2,-11]],[[3420,2428],[0,-1]],[[3420,2427],[-2,-8]],[[3422,2439],[1,32]],[[3423,2471],[1,10]],[[3424,2481],[0,1]],[[3424,2482],[0,-1]],[[3424,2481],[-1,-10]],[[3423,2471],[-1,-32]],[[3423,2469],[1,0]],[[3424,2463]],[[3424,2460]],[[3425,2455],[-1,0]],[[3425,2456],[-1,0]],[[3435,2429],[121,-46],[-8,-61],[25,-3]],[[3462,2169],[-16,57]],[[3446,2226],[-8,25]],[[3440,2251],[6,-25]],[[3446,2226],[11,-50],[5,-8]],[[3447,2257],[-6,-5]],[[3462,2267],[-14,-10]],[[3453,2313]],[[3466,2300],[-6,22]],[[3461,2321],[0,3],[3,-1],[-1,-2],[-2,0]],[[3461,2321],[5,-20]],[[3468,2273],[-6,-5]],[[3464,2323],[25,2]],[[3501,2258],[1,6],[-33,9]],[[3501,2258],[-13,8]],[[3489,2266],[12,-8]],[[3491,2248],[1,2],[62,44]],[[3554,2294],[-62,-44],[0,-1]],[[3493,2255]],[[3511,2250],[-2,2]],[[3520,2239],[-9,11]],[[3520,2239],[4,-4]],[[3526,2233],[-2,2]],[[3536,2232],[-10,1]],[[3529,2753],[105,-66]],[[3548,2214],[-12,18]],[[3576,2661],[-11,-8]],[[3565,2653],[-28,-18]],[[3537,2634],[10,5],[18,14]],[[3565,2653],[11,9]],[[3547,2212],[1,2]],[[3580,2172],[-27,16],[-6,15],[0,9]],[[3547,2212],[6,-23],[27,-16],[1,-1]],[[3554,2294],[9,24]],[[3563,2318],[-8,-24]],[[3573,2319],[1,0]],[[3574,2319],[-1,0]],[[3602,2045],[-23,6]],[[3581,2172],[-1,1]],[[3670,2143],[-61,22]],[[3609,2165],[5,-1]],[[3691,1962],[-72,-7]],[[3628,2681],[-1,0]],[[3628,2515],[-1,0]],[[3645,2155],[11,-4]],[[3656,2151],[1,0]],[[3648,2161],[9,-10]],[[3650,2159],[-1,0]],[[3650,2159],[-1,0]],[[3657,2151],[-1,0]],[[3656,2151],[0,1],[-6,7]],[[3657,2151],[13,-8]],[[3673,2428]],[[3676,2427],[0,-2]],[[3678,2419],[-2,6]],[[3676,2425],[27,-15]],[[3679,2419]],[[3739,2575],[-60,39]],[[3703,2410],[-21,6]],[[3692,1962],[-1,0]],[[3714,2019],[-22,-57]],[[3702,2518],[0,-1]],[[3703,2410],[1,1]],[[3703,2410],[2,0]],[[3774,2391],[-5,-2],[-19,5],[-41,-5]],[[3709,2391],[39,15]],[[3714,2019],[1,0]],[[3715,2018],[-1,1]],[[3720,2411],[1,0]],[[3723,2516],[0,-1]],[[3737,2514]],[[3751,2279],[-10,-1]],[[3741,2277],[11,-1]],[[3752,2276],[2,0]],[[3754,2276],[5,-1]],[[3759,2275],[4,0]],[[3748,2407],[26,-16]],[[3749,2394],[0,1]],[[3749,2280]],[[3749,2396]],[[3749,2411],[37,1]],[[3750,2395],[0,-1]],[[3752,2511]],[[3753,2277],[1,-1]],[[3754,2276],[3,-7],[2,-18],[-7,25]],[[3752,2276],[-1,3],[2,-2]],[[3763,2274],[-4,1]],[[3759,2275],[-6,2]],[[3759,2390]],[[3761,2389]],[[3826,2271],[-9,1],[-43,2],[-8,0]],[[3766,2274],[-3,0]],[[3763,2275],[3,-1]],[[3766,2274],[5,-1]],[[3767,2387],[0,1]],[[3770,2495]],[[3842,2309],[-3,3]],[[3839,2312],[-24,17],[-11,8],[-17,53],[0,22]],[[3787,2412],[0,1],[0,2]],[[3787,2415],[-10,50]],[[3777,2465],[-7,40],[0,2]],[[3770,2507],[0,-2],[17,-90]],[[3787,2415],[0,-2]],[[3787,2413],[0,-23],[18,-53],[10,-8],[24,-17]],[[3839,2312],[4,-4],[3,-2]],[[3771,2390]],[[3775,2474]],[[3777,2465]],[[3777,2465]],[[3787,2414],[0,-1]],[[3787,2413],[0,-1]],[[3787,2412],[-1,-2]],[[3786,2415],[1,0]],[[3787,2415]],[[3787,2415],[40,13]],[[3787,2511],[-1,0]],[[3792,2520]],[[3800,2533],[-1,1]],[[3817,2272],[4,0],[5,-1]],[[3838,1239]],[[3842,2478],[2,0]],[[3899,1305],[-16,6],[-41,-68]],[[3882,2484]],[[3882,2484]],[[3882,2484]],[[3882,2484],[-39,-2]],[[3846,2304],[-2,3]],[[3848,2482],[-3,-11]],[[3847,2482],[24,2]],[[3871,2484],[7,0],[1,0],[3,0]],[[3882,2484],[1,0]],[[3848,2264],[-1,0]],[[3853,2551],[0,1]],[[3855,2432],[-1,1]],[[3855,2552],[3,1]],[[3858,2553],[-2,23]],[[3857,2576],[3,-31]],[[3858,1222],[2,1]],[[3861,2531],[-3,22]],[[3863,2113],[-3,0]],[[3864,2117],[-1,0]],[[3990,2083],[-4,3]],[[3986,2086],[-28,16],[-9,5],[-6,0]],[[3943,2107],[-1,0]],[[3942,2107],[-78,6]],[[3865,2444],[38,25],[6,1]],[[3909,2470],[1,0],[1,0]],[[3911,2470],[10,2],[13,3],[4,4]],[[3938,2479],[0,1],[1,0]],[[3939,2479],[-1,0]],[[3938,2479],[-3,-4],[-1,0],[-13,-4],[-10,-2]],[[3911,2469],[-1,0],[-1,0]],[[3909,2469],[-6,-1],[-38,-24]],[[3920,1154],[-16,-13],[-38,62]],[[3872,2342],[-5,13]],[[3868,2356],[4,-14]],[[3868,1267],[0,1]],[[3899,1305],[-5,-2],[-25,-34],[-1,0]],[[3869,1269],[-1,1]],[[3868,1265],[2,-33]],[[3869,2222],[1,0]],[[3870,2223],[-1,1]],[[3870,2239],[6,54]],[[3871,2288],[2,0]],[[3871,2484]],[[3871,2484],[3,0],[8,0]],[[3882,2484],[8,0],[3,0]],[[3872,2342]],[[3872,2342]],[[3872,2300],[0,42]],[[3872,2342]],[[3872,2342]],[[3891,2312]],[[3891,2312],[-17,11]],[[3874,2323],[-1,0]],[[3873,2323],[-1,1]],[[3872,2324],[1,-1]],[[3873,2323],[1,0]],[[3874,2323],[17,-11]],[[3872,2342],[24,9]],[[3900,2348],[0,1],[-4,-1]],[[3896,2348],[-5,-2]],[[3891,2346],[-19,-4]],[[3872,2342],[0,-3],[2,-16]],[[3874,2323]],[[3874,2323],[2,-23]],[[3872,2326],[1,0]],[[3873,2260],[-1,-10]],[[3873,2323]],[[3873,2323]],[[3873,2323],[-1,0]],[[3872,2325],[1,-1]],[[3893,2484],[-3,0],[-1,0]],[[3889,2484],[-7,0]],[[3882,2484],[-8,0],[-1,-1]],[[3873,2268]],[[3873,2268],[11,0]],[[3884,2268]],[[3884,2268]],[[3884,2268]],[[3884,2268],[1,0]],[[3885,2268],[1,0]],[[3886,2268],[4,0],[7,1]],[[3876,2298]],[[3876,2298],[-1,1]],[[3875,2299],[1,1]],[[3875,2343]],[[3876,2295],[0,3]],[[3876,2298],[0,2]],[[3876,2293],[-3,-25]],[[3873,2268],[0,-1],[10,0]],[[3883,2267],[1,0]],[[3884,2267]],[[3884,2267]],[[3876,2298],[0,-3]],[[3876,2300],[32,24],[5,3],[1,1]],[[3914,2328],[0,1]],[[3914,2329],[1,0],[11,9],[1,1],[1,1]],[[3928,2340]],[[3928,2340],[2,2],[2,1]],[[3932,2343]],[[3932,2343],[0,1]],[[3932,2344],[1,1]],[[3933,2345],[0,1]],[[3933,2346],[3,3],[3,5],[2,9],[2,9]],[[3943,2372]],[[3943,2372],[0,1],[0,1]],[[3876,2300],[10,8],[3,2],[2,2]],[[3891,2312]],[[3882,2303],[-6,-5]],[[3879,2298],[-1,0]],[[3878,2298],[-2,0]],[[3877,1204],[43,-50]],[[3878,2295],[0,3]],[[3878,2298]],[[3879,2372],[2,1]],[[3879,2373],[31,8],[1,0],[12,0]],[[3923,2381]],[[3923,2381],[1,0],[8,-2]],[[3932,2379],[10,-3]],[[3942,2376]],[[3942,2376],[1,0]],[[3943,2376],[1,0]],[[3944,2376],[13,-3],[1,0],[1,-1]],[[3959,2372],[1,0]],[[3960,2372],[30,-6]],[[3880,2299],[0,-3]],[[3884,2267],[0,1]],[[3884,2268]],[[3884,2268],[0,1]],[[3884,2269]],[[3884,2269],[-4,19]],[[3882,2303],[-2,-4]],[[3880,2299],[7,-2]],[[3942,2376]],[[3942,2376],[-19,4]],[[3923,2380]],[[3923,2380],[-12,0],[-1,0],[-29,-7]],[[3882,2286],[2,-12]],[[3884,2274],[1,-6]],[[3885,2268],[0,-1]],[[3885,2267]],[[3885,2267],[1,-6]],[[3886,2261],[0,-3]],[[3882,2304],[0,-1]],[[3909,2323],[-27,-19]],[[3888,2308],[-6,-4]],[[3884,2267]],[[3884,2267],[-1,0]],[[3883,2267]],[[3883,2268],[1,0]],[[3884,2268],[0,1]],[[3884,2269]],[[3884,2269]],[[3884,2269]],[[3884,2484],[24,1]],[[3884,2275],[0,-1]],[[3884,2274],[0,-1]],[[3884,2273],[0,-4]],[[3884,2269],[0,-1]],[[3884,2268]],[[3884,2268],[0,-1]],[[3884,2267],[1,-5],[1,-1]],[[3886,2261],[7,-9]],[[3884,2262],[0,5]],[[3884,2267]],[[3884,2267],[0,1]],[[3884,2268],[0,1]],[[3884,2269]],[[3884,2269],[0,4]],[[3884,2273]],[[3909,2485],[-1,0]],[[3908,2485],[-19,-1]],[[3889,2484],[-5,0]],[[3890,2268],[-5,-1]],[[3885,2267],[-1,0]],[[3885,2263],[0,-1]],[[3885,2269],[1,-1]],[[3886,2268]],[[3886,2267],[-1,0]],[[3885,2267]],[[3887,2115],[2,6]],[[3944,2375],[-1,-3]],[[3943,2372],[-1,-1]],[[3942,2371],[-10,-23]],[[3932,2348],[-1,-2]],[[3931,2346]],[[3931,2346],[-1,-1]],[[3930,2345],[-2,-5]],[[3928,2340]],[[3928,2340],[-1,-2],[-1,-1],[-11,-9]],[[3915,2328],[-1,0]],[[3914,2328],[-25,-19]],[[3889,2314],[1,0]],[[3890,2252]],[[3891,2313]],[[3901,2346],[-10,0]],[[3891,2346]],[[3891,2252]],[[3891,1235],[35,4]],[[3891,2347],[5,1]],[[3896,2348],[4,1],[1,-3]],[[3891,2312],[19,20]],[[3893,2121],[-2,-8]],[[3893,1304],[0,-1]],[[3895,1326]],[[3896,2348]],[[3896,2348]],[[3896,2348],[0,-1]],[[3897,2417],[6,8],[7,5],[7,6]],[[3917,2436]],[[3917,2436]],[[3917,2436],[3,2],[3,-7]],[[3897,2555]],[[3897,2555]],[[3922,2419],[-4,16],[-3,-2]],[[3915,2433],[-4,-3],[-8,-5],[-5,-7]],[[3899,1305],[1,0]],[[3930,1265],[-30,40]],[[3905,1136],[-1,3]],[[3922,2270],[-17,0]],[[3908,2485],[1,0]],[[3918,2434],[0,2]],[[3918,2436],[-1,0]],[[3917,2436]],[[3917,2436],[0,1],[-3,11]],[[3914,2448],[-4,14]],[[3910,2462],[0,1]],[[3910,2463],[-1,4],[0,2]],[[3909,2469],[0,1]],[[3909,2470],[-1,11],[0,4]],[[3908,2485]],[[3908,2323],[0,-1]],[[3909,2485],[14,1],[13,2]],[[3909,2485]],[[3936,2488],[-13,-2],[-14,-1]],[[3909,2485],[0,-6],[2,-9]],[[3911,2470],[0,-1]],[[3911,2469],[5,-28],[1,-3],[0,-1],[0,-1]],[[3917,2436]],[[3917,2436],[1,0]],[[3918,2436],[0,-2],[4,-7]],[[3910,2324],[-1,0]],[[3910,2324],[-1,-1]],[[3917,2322],[-8,1]],[[3911,2418],[-1,11]],[[3911,2333],[1,-1],[1,-2]],[[3913,2330],[1,-1]],[[3914,2329],[1,-1]],[[3915,2328],[2,-3],[-2,-1]],[[3915,2324],[-1,-1],[-4,1]],[[3916,2417],[-5,0]],[[3911,2417],[-1,0]],[[3910,2417],[1,1]],[[3910,2463]],[[3910,2463],[1,0]],[[3910,2462]],[[3910,2462],[1,1]],[[3911,2416],[0,1]],[[3911,2417]],[[3911,2333],[7,-1]],[[3911,2418],[11,1]],[[3915,2434],[0,-1]],[[3915,2433],[-4,-15]],[[3912,1348],[3,-17]],[[3914,1327],[1,2]],[[3915,2448],[-1,0]],[[3914,2448]],[[3915,1331],[1,-2]],[[3915,1331],[1,-2]],[[3915,2418],[1,-1]],[[3917,2436],[-2,7]],[[3922,2418],[-6,-1]],[[3918,2437],[-1,-1]],[[3917,2436]],[[3917,2436]],[[3917,2436],[-1,-1]],[[3916,2322],[-1,1],[0,1]],[[3915,2324],[-1,4]],[[3914,2328]],[[3914,2328],[-1,2]],[[3913,2330],[0,2],[5,0]],[[3918,2436]],[[3918,2436]],[[3918,2436],[-1,0]],[[3917,2115],[10,-2]],[[3927,2113],[16,-4]],[[3943,2109]],[[3943,2109],[5,-1],[9,-5],[31,-17]],[[3988,2086],[3,-2]],[[3918,2332],[1,0]],[[3944,2375],[-1,-3]],[[3943,2372],[-1,-1]],[[3942,2371],[-10,-23]],[[3932,2348],[-1,-2]],[[3931,2346]],[[3931,2346],[-1,-2]],[[3930,2344],[-2,-4]],[[3928,2340]],[[3928,2340],[-1,-2],[-1,-1],[-5,-4]],[[3921,2333],[-1,-1],[-2,-9]],[[3941,2469],[-1,1],[-1,4],[0,2],[-1,3]],[[3938,2479]],[[3938,2479],[0,1],[-2,9],[-3,13]],[[3933,2502],[0,1]],[[3933,2503],[-10,42],[-5,19]],[[3918,2564],[16,-61]],[[3918,2332],[9,7],[1,1]],[[3928,2340]],[[3928,2340],[3,2]],[[3931,2342],[1,1]],[[3932,2343]],[[3932,2343],[0,1]],[[3932,2344],[1,0]],[[3922,2414],[0,4]],[[3922,2418],[0,1]],[[3922,2419],[1,0]],[[3923,2419],[0,4],[-4,9]],[[3919,2432]],[[3919,2432]],[[3919,2432]],[[3951,1828],[-2,-1]],[[3949,1827],[-1,0],[-14,3],[-8,1],[-7,0]],[[3952,1827]],[[3952,1827],[-3,0]],[[3949,1827],[-1,0],[-14,3],[-15,1]],[[3920,1154],[5,-4]],[[3920,2332]],[[3921,2333]],[[3921,2333]],[[3922,2439],[4,-1]],[[3926,2438],[1,0]],[[3922,2270],[7,1],[12,-3]],[[3942,2268],[-20,2]],[[3922,2414],[0,4]],[[3931,2342]],[[3931,2342],[-1,2]],[[3930,2344],[0,1]],[[3930,2345],[-1,4]],[[3929,2349],[-6,30],[0,1]],[[3923,2380],[0,1]],[[3923,2381],[-2,4],[-2,5],[3,24]],[[3922,2418]],[[3922,2418],[1,0]],[[3923,2418]],[[3923,2418]],[[3923,2418]],[[3923,2424],[0,-5]],[[3923,2419]],[[3923,2419]],[[3923,2419],[0,-1]],[[3923,2418],[-1,-5]],[[3923,2431],[0,-9],[0,-3]],[[3923,2419]],[[3923,2419]],[[3923,2419],[0,-1]],[[3923,2418],[-1,-5]],[[3922,2413],[-2,-23],[2,-5],[1,-4]],[[3923,2381],[0,-1]],[[3923,2380],[1,-1],[5,-29]],[[3929,2350]],[[3929,2350],[1,-4]],[[3922,2419]],[[3922,2419],[1,0]],[[3923,2419]],[[3923,2419],[0,-1]],[[3923,2418]],[[3923,2419]],[[3923,2419]],[[3923,2419]],[[3923,2419],[-1,0]],[[3926,2437],[-3,-6]],[[3927,2113]],[[3927,2113],[-2,-1],[-1,1]],[[3924,2439],[2,-1]],[[3926,2438],[0,-1]],[[3925,1831]],[[3927,2438],[-1,-1]],[[3927,2438],[17,-5]],[[3927,2438],[17,-5]],[[3927,1231],[1,0]],[[3928,2362]],[[3930,1265],[-2,-36]],[[3928,2362],[1,0]],[[3928,1230],[1,-7]],[[3929,1223],[1,-2],[0,-3],[2,-19],[21,-34]],[[3929,1831]],[[3992,2311],[-12,-2],[-1,1]],[[3979,2310]],[[3979,2310],[-1,0]],[[3978,2310]],[[3978,2310],[-5,1]],[[3973,2311],[-2,0]],[[3971,2311],[-3,1]],[[3968,2312],[-7,2]],[[3961,2314],[-1,0]],[[3960,2314],[-3,1]],[[3957,2315],[-16,3],[-6,16]],[[3935,2334],[0,1]],[[3935,2335],[-3,8]],[[3932,2343]],[[3932,2343],[0,1]],[[3932,2344],[-1,2]],[[3931,2346]],[[3931,2346],[-1,1]],[[3930,2347],[-1,3]],[[3929,2350]],[[3929,2350],[0,9]],[[3929,1831]],[[3930,2346],[-1,3]],[[3929,2349]],[[3929,2358],[1,-8],[2,-2]],[[3932,2348]],[[3932,2348],[1,-2]],[[3933,2346]],[[3933,2346],[21,-24]],[[3954,2322],[6,-7]],[[3960,2315],[1,-1]],[[3961,2314],[1,-2]],[[3962,2312],[1,-1],[3,-1],[2,0]],[[3968,2310],[2,0]],[[3970,2310],[1,0]],[[3971,2310],[2,0]],[[3973,2310],[4,0]],[[3977,2310],[1,0]],[[3978,2310],[1,0]],[[3979,2310]],[[3979,2310],[1,0],[13,1]],[[3951,1164],[-17,24],[-2,10],[-1,9]],[[3931,1207]],[[3931,1207],[-1,4],[-1,10],[0,2]],[[3929,1223],[1,42]],[[3930,2350],[0,-1],[0,-2]],[[3930,2347],[1,-1]],[[3931,2346]],[[3931,2346],[0,-2]],[[3930,1786],[2,10]],[[3931,2344],[-1,-1]],[[3931,1207]],[[3931,1207]],[[3931,1207]],[[3931,1207]],[[3931,2344],[1,0]],[[3932,2344]],[[3932,2344]],[[3932,2344]],[[3932,2379]],[[3932,2379]],[[3978,1930],[-7,-62],[0,-1]],[[3971,1867],[-3,-5]],[[3968,1862],[-19,-35]],[[3949,1827]],[[3949,1827],[-13,-23]],[[3936,1804],[-4,-8]],[[3932,1796],[1,3]],[[4096,2312]],[[4096,2312]],[[4096,2312],[-2,0],[-5,0]],[[4089,2312],[-6,0]],[[4083,2312],[-1,0],[-3,0],[-1,0]],[[4078,2312],[-5,0]],[[4073,2312],[-2,0]],[[4071,2312],[-10,-1],[-4,-1]],[[4057,2310],[-2,0],[-6,0]],[[4049,2310],[-3,0]],[[4046,2310],[-2,0],[-19,4],[-2,1]],[[4023,2315],[-5,0],[-1,0]],[[4017,2315],[-3,0]],[[4014,2315],[-2,0]],[[4012,2315],[-1,0]],[[4011,2315],[-1,0]],[[4010,2315],[-25,-4]],[[3985,2311],[-5,-1]],[[3980,2310]],[[3980,2310],[-1,0]],[[3979,2310]],[[3979,2310],[-4,-1]],[[3975,2309],[-2,0]],[[3973,2309]],[[3973,2309],[-1,0]],[[3972,2309],[-1,1]],[[3971,2310]],[[3971,2310],[-1,0]],[[3970,2310],[-2,2]],[[3968,2312],[-8,5]],[[3960,2317],[-6,5]],[[3954,2322],[-19,13]],[[3935,2335],[-3,1]],[[3932,2336],[0,1]],[[3932,2337],[0,-1]],[[3932,2336],[3,-4]],[[3934,2503],[-1,0]],[[3933,2503]],[[3933,2502]],[[3933,2502],[1,0]],[[3933,2344],[0,1]],[[3933,2345],[0,1]],[[3933,2346],[8,17],[1,6],[0,2]],[[3942,2371]],[[3942,2371],[1,2],[0,1]],[[3933,2344]],[[3933,1799],[3,5]],[[3936,1804],[16,23]],[[3952,1827]],[[3933,1798],[0,1]],[[3933,2335],[1,-1]],[[3933,2335],[2,-1]],[[3935,2334],[22,-19]],[[3957,2315],[2,-3],[1,0]],[[3960,2312],[2,0]],[[3962,2312],[6,-2]],[[3968,2310],[2,0]],[[3970,2310]],[[3970,2310],[2,-1]],[[3972,2309],[1,0]],[[3973,2309]],[[3973,2309],[2,0]],[[3975,2309],[4,1]],[[3979,2310]],[[3979,2310],[1,0]],[[3980,2310]],[[3980,2310],[2,0],[3,1]],[[3985,2311],[26,4]],[[4011,2315],[1,0]],[[4012,2315]],[[4012,2315],[2,0]],[[4014,2315],[3,1]],[[4017,2316],[1,0],[7,-1],[4,-1],[11,-3]],[[4040,2311],[4,-1],[2,0]],[[4046,2310],[3,0]],[[4049,2310],[6,0],[6,1],[10,1]],[[4071,2312],[2,0]],[[4073,2312],[5,0]],[[4078,2312],[1,0],[3,0]],[[3934,2503],[0,-1]],[[3934,2502],[5,-22]],[[3935,1801],[2,-1],[-2,0]],[[3935,2378]],[[3936,1800],[-1,1]],[[3936,2327],[0,-1]],[[3937,2075],[5,32]],[[3942,2107],[0,2],[1,0]],[[3943,2109],[19,43]],[[3938,2481],[1,0]],[[3939,2480],[0,-1]],[[3939,2480],[31,-1]],[[3939,2479],[1,-7]],[[3969,2478],[-30,1]],[[3962,2151],[-19,-42]],[[3943,2109],[0,-2]],[[3943,2107],[-4,-22]],[[3939,2377]],[[3940,2319],[0,1]],[[3940,2473],[0,-1]],[[3941,2469],[-1,-1]],[[3940,2472],[4,-3],[1,0]],[[3943,2469],[-2,0]],[[3942,2373],[0,3]],[[3942,2376]],[[3942,2376]],[[3942,2375],[0,1]],[[3942,2376]],[[3942,2376]],[[3990,2366],[-30,6]],[[3960,2372],[-1,0]],[[3959,2372],[-1,1],[-1,0],[-12,2],[-1,0]],[[3944,2375],[-1,1]],[[3943,2376],[-1,0]],[[3943,2374],[0,1],[0,1]],[[3943,2376]],[[3943,2376],[1,4],[1,4],[-2,16]],[[3943,2442],[0,27]],[[3945,2469],[-2,0]],[[3944,2375],[-1,-4]],[[3943,2441],[0,1]],[[3943,2400],[3,0]],[[3943,2400],[1,23]],[[3943,2442],[2,0]],[[3944,2440],[-1,2]],[[3946,2398],[-2,0]],[[3944,2268],[5,-1]],[[3949,2267],[3,0]],[[3952,2267],[1,0]],[[3953,2267]],[[3953,2267],[3,0],[12,0],[6,0],[6,-2]],[[3946,2398],[-1,-1],[0,-18],[-1,-3]],[[3944,2376],[0,-1]],[[3944,2375]],[[3972,2266],[-16,1],[-3,0]],[[3953,2267]],[[3953,2267],[-1,0]],[[3952,2267],[-3,0],[-1,0]],[[3948,2267],[-4,1]],[[3944,2469],[21,-5],[3,-10]],[[3968,2454],[2,-7]],[[3945,2440],[-1,0]],[[3944,2433],[0,6]],[[3944,2423],[0,10]],[[3944,2433],[1,0]],[[3945,2423],[-1,-1]],[[3944,2423],[1,0]],[[3944,2444],[1,0]],[[3945,2444],[1,-2]],[[3946,2442],[1,0]],[[3945,2397]],[[3945,2442]],[[3945,2469],[0,-25]],[[3945,2444],[0,-2]],[[3946,2468],[-1,1]],[[3946,2441]],[[3946,2441],[-1,-1]],[[3945,2440]],[[3945,2442],[0,-2]],[[3945,2440]],[[3945,2440],[0,-7]],[[3945,2442],[1,0]],[[3946,2442],[24,5]],[[3966,2462],[-21,4]],[[3945,2433],[5,1]],[[3945,2433],[0,-10]],[[3945,2267],[3,0]],[[3948,2267],[1,0]],[[3949,2267],[2,0],[1,0]],[[3953,2267],[-1,0]],[[3952,2267],[-7,-1]],[[3972,2442],[-23,-1]],[[3949,2441],[-3,0]],[[3946,2441],[-1,0]],[[4005,2383],[-35,1],[-10,1]],[[3960,2385],[0,1]],[[3960,2386],[-11,9],[-2,2],[-2,0]],[[3945,2423],[0,-22]],[[3945,2423],[21,-1]],[[3945,2401],[1,-1]],[[3945,2401],[16,-3]],[[3961,2398],[1,0]],[[3962,2398],[23,-3]],[[3946,2399],[0,-1]],[[3946,2400],[0,-1]],[[3946,2399],[14,-13]],[[3960,2386]],[[3948,2316],[-1,-1]],[[3949,2441]],[[3949,2441],[1,-7]],[[3950,2434],[25,2]],[[3975,2436]],[[3951,2423],[-1,11]],[[3951,1828],[1,0]],[[3952,1827],[-1,1]],[[3961,2398],[-10,1]],[[3952,1827],[-1,0]],[[3951,2481],[0,-1]],[[3952,1827]],[[3952,1827]],[[3952,1827],[16,35]],[[3968,1862],[3,6],[0,1],[1,53]],[[3972,1922],[2,3]],[[3974,1925],[0,1]],[[3952,1827]],[[3952,2267],[6,11]],[[3964,2174],[2,26],[-13,57],[-1,10]],[[3952,2267]],[[3952,2267]],[[3952,2267]],[[3952,2267],[1,0]],[[3960,2267],[-7,0]],[[3953,2267]],[[3953,2267]],[[3953,2267]],[[3953,2267]],[[3953,2267],[14,-67],[-3,-27]],[[3959,2279],[-1,-2]],[[3958,2277],[-1,-1],[0,-1]],[[3957,2275],[-4,-8]],[[3953,2267]],[[3953,2267],[7,0]],[[3953,2267]],[[3953,2267]],[[3953,2267]],[[3953,2267]],[[3953,2267]],[[3955,2481],[0,-1]],[[3956,2276],[0,1]],[[3958,2275],[-1,0]],[[3957,2275],[-1,0]],[[3958,2277]],[[3958,2277]],[[3959,2279],[1,33]],[[3960,2312],[0,2]],[[3960,2314],[0,1]],[[3960,2315],[0,2]],[[3960,2317],[2,49]],[[3965,2360],[2,-7],[1,-9]],[[3968,2344],[3,-19],[1,-8]],[[3972,2317],[1,-6]],[[3973,2311],[0,-1]],[[3973,2310]],[[3973,2310],[0,-1]],[[3973,2309]],[[3973,2309],[2,-11],[-13,-16],[-3,-3]],[[3973,2318],[-1,-1]],[[3972,2317],[-1,-6]],[[3971,2311],[-1,-1]],[[3970,2310]],[[3970,2310]],[[3970,2310]],[[3970,2310],[0,-1]],[[3970,2309],[-8,-27],[-3,-3]],[[3960,2312]],[[3960,2368],[-1,4]],[[3959,2372]],[[3959,2372],[0,5],[1,9]],[[3960,2386]],[[3960,2386],[1,12]],[[3984,2423],[-1,0]],[[3983,2423],[-9,-4],[-1,0],[-11,-20],[0,-1]],[[3962,2398]],[[3962,2398],[-2,-12]],[[3960,2386],[0,-1]],[[3960,2385],[-1,-8],[1,-5]],[[3960,2372]],[[3960,2372],[1,-3],[1,-2],[3,-7]],[[3960,2386],[10,-2],[31,2]],[[4001,2386],[1,0]],[[4002,2386],[8,0],[1,1],[12,11]],[[4023,2398],[0,1]],[[3960,2211],[1,0]],[[3961,2469],[3,-2]],[[3961,2282]],[[3961,2398]],[[3961,2398],[0,1],[1,10],[11,13]],[[3995,2395],[-3,-2],[-30,5]],[[3962,2398],[-1,0]],[[3962,2408],[4,14]],[[3962,2152],[1,10]],[[3962,2151],[0,1]],[[3964,2163],[-1,-10],[-1,-2]],[[3962,2365],[0,1]],[[3965,2360],[3,-16]],[[3968,2344],[4,-25]],[[3972,2319],[1,-1]],[[3966,2422],[7,0]],[[3966,2422],[11,10]],[[3977,2432],[1,1]],[[4000,2448],[-3,13],[-6,26]],[[3991,2487],[-8,35]],[[3983,2522],[-10,43],[-5,24]],[[3968,2445]],[[3973,2308],[-3,1]],[[3970,2309],[-2,0]],[[3969,2454],[-1,0]],[[3968,2454]],[[3968,2589],[5,-24],[10,-43]],[[3983,2522],[4,-18],[4,-17]],[[3991,2487],[6,-26],[3,-13]],[[4000,2448]],[[3968,2310],[2,0]],[[3970,2310]],[[3970,2310],[1,0]],[[3971,2310],[2,0]],[[3973,2310]],[[3969,2442],[0,3]],[[3969,2328]],[[3969,2445],[2,0]],[[3971,2445]],[[3969,2328]],[[3972,2442],[-1,3]],[[3971,2445],[-1,2]],[[4029,1854],[-37,4],[-22,8]],[[3970,1867],[1,0]],[[3971,1867],[19,-8],[3,-1],[43,-3]],[[3971,1930],[1,0]],[[3971,1933],[0,-3]],[[3972,1920],[0,2]],[[3972,1922],[-1,6]],[[3971,1928],[0,2]],[[3971,1930],[1,-1]],[[3972,1929],[1,-2]],[[3973,1927],[1,-1]],[[3971,1931],[1,0]],[[3972,1931],[2,-1]],[[3974,1930],[1,0]],[[3983,2424],[-6,8]],[[3977,2432],[-2,4]],[[3975,2436],[-1,0],[-2,6]],[[3995,2087],[-1,-3]],[[3994,2084],[0,-3]],[[3994,2081],[-15,-102]],[[3979,1979],[-7,-48]],[[3972,1931],[0,-1]],[[3972,1930],[0,-1]],[[3972,1929],[1,-2]],[[3973,1927]],[[3973,1927],[1,-2]],[[3974,1925]],[[3972,1930],[2,0]],[[3974,1930],[3,0]],[[3977,1930],[1,0],[2,0]],[[3974,1926],[-1,1]],[[3973,1927],[-1,2]],[[3972,1929]],[[3973,2319],[-1,0]],[[3972,2319]],[[3972,2455],[3,-19]],[[3973,2318]],[[3973,2309]],[[3973,2309]],[[3973,2309],[0,-1]],[[3973,2422],[10,2]],[[3973,1954],[20,127]],[[3973,1954],[1,8]],[[4058,1919],[-75,13],[-1,-1],[-5,-1]],[[3977,1930],[-3,-1],[-1,0],[-1,0]],[[3972,1929]],[[3972,1929]],[[3972,1929],[-1,-1]],[[3971,1928],[-2,0],[-3,-3],[7,29]],[[3974,2311]],[[3974,2310],[1,0]],[[3975,2310],[2,0]],[[3977,2310],[1,0]],[[3978,2310],[2,0]],[[3980,2310]],[[3980,2310],[1,0]],[[3980,2309],[-6,-1]],[[3975,2308],[0,1]],[[3975,2309]],[[3975,2309],[0,1]],[[3975,2310]],[[3975,1961],[4,18]],[[3979,1979],[2,10]],[[3975,2436],[16,5]],[[3979,2434],[-2,0]],[[4000,2445],[-21,-11]],[[3979,2434],[-1,-2],[6,-8],[11,-29]],[[3979,2436],[1,-1]],[[3983,2421]],[[3983,2421],[1,0]],[[3985,2395],[-2,26]],[[3983,2421],[0,2]],[[3983,2423],[0,1]],[[3985,2395],[8,-1]],[[3986,2085],[0,1]],[[3986,2086],[2,0]],[[3988,2086],[5,-1]],[[3993,2081],[-7,4]],[[3992,2083],[0,-1]],[[3992,2084],[1,0]],[[4005,2383],[-4,3]],[[4001,2386],[-8,7]],[[3993,2081],[10,42]],[[4003,2123],[2,7]],[[4005,2130],[3,14],[2,10],[-7,68]],[[4004,2080],[-9,2],[-1,-1]],[[3994,2081]],[[3994,2084]],[[3994,2084],[1,-1]],[[3996,2100],[-1,-4]],[[3995,2395],[7,-9]],[[4002,2386],[2,-3]],[[3995,2083],[7,-1]],[[3995,2083],[9,-2]],[[3995,2444],[5,4]],[[4000,2448]],[[3996,2105],[7,18]],[[4003,2123],[1,4]],[[4005,2131],[0,-1]],[[4005,2130],[0,-2]],[[4005,2128],[0,-1],[0,-2],[-8,-30]],[[4002,2440],[-2,7]],[[4000,2447],[0,1]],[[4000,2448],[-2,10]],[[4034,2386]],[[4034,2386],[-7,7],[-4,5]],[[4023,2398],[-10,19],[-3,6]],[[4010,2423],[-8,19]],[[4002,2442],[-2,5]],[[4000,2447],[0,1]],[[4000,2448]],[[4000,2448]],[[4000,2448]],[[4000,2448],[6,5],[1,2],[15,4]],[[4029,2458],[-29,-10]],[[4000,2448],[2,-6]],[[4002,2442],[3,-11]],[[4002,2260],[0,-2]],[[4002,2440]],[[4003,2449],[-1,0]],[[4003,2222],[-1,19]],[[4002,2241],[0,8],[13,51],[-3,14]],[[4012,2314],[-1,1]],[[4011,2315]],[[4011,2315]],[[4011,2315],[-5,21],[-1,2]],[[4005,2338],[0,1],[-1,2]],[[4003,2222],[35,-2]],[[4038,2220],[-35,1]],[[4004,2341],[3,6]],[[4004,2341],[2,9]],[[4005,2431],[-1,0]],[[4022,2377],[-17,6]],[[4020,2368],[0,-7],[-14,-25],[6,-21]],[[4012,2315]],[[4012,2315]],[[4012,2315],[0,-1]],[[4012,2314],[3,-14],[-9,-39],[-2,-5],[-2,-15]],[[4002,2241],[0,-2],[3,-109]],[[4005,2130],[0,-2]],[[4005,2128],[0,-1]],[[4005,2130],[3,13]],[[4005,2338]],[[4005,2338],[1,0]],[[4005,2130]],[[4005,2130]],[[4005,2431],[2,-2]],[[4007,2429],[3,-6]],[[4010,2423],[2,-4],[23,-32]],[[4035,2387],[0,-1]],[[4007,2141],[-2,-10]],[[4005,2131]],[[4006,2428],[1,1]],[[4007,2429]],[[4006,2257],[1,1]],[[4006,2350],[3,5]],[[4009,2355],[2,4]],[[4006,2350],[1,-1]],[[4007,2349],[0,-2]],[[4007,2347],[2,-1]],[[4010,2360],[0,-2]],[[4010,2358],[-1,-3]],[[4009,2355],[-2,-6]],[[4007,2313],[1,-1]],[[4016,2315],[-4,-1]],[[4012,2314]],[[4012,2314],[-4,-1]],[[4009,2314],[1,1]],[[4010,2315],[1,0]],[[4011,2315],[1,0]],[[4012,2315]],[[4012,2315],[2,1]],[[4014,2316],[1,0],[1,1]],[[4010,2358]],[[4010,2358],[-1,1]],[[4012,2359],[-2,-2]],[[4018,2556],[0,2]],[[4018,2558],[-2,8]],[[4016,2566],[0,3]],[[4016,2569],[-2,8]],[[4014,2577],[-1,7],[-2,7],[-1,7]],[[4010,2598],[0,1]],[[4010,2599],[1,0]],[[4029,2494],[-16,89]],[[4014,2584],[6,-34]],[[4020,2550],[3,-15]],[[4023,2535]],[[4023,2535],[2,-11],[0,-3]],[[4014,2577]],[[4014,2577]],[[4014,2458],[1,0]],[[4014,2316]],[[4014,2316],[0,-1]],[[4014,2315]],[[4014,2315]],[[4015,2578],[0,-1]],[[4016,2569]],[[4016,2569],[-1,0]],[[4016,2571]],[[4016,2359],[4,9]],[[4016,2566]],[[4016,2566]],[[4025,2315],[-2,0]],[[4023,2315],[-7,0]],[[4016,2316],[8,-1]],[[4017,2315]],[[4017,2315],[0,1]],[[4017,2316]],[[4017,2563],[1,-1]],[[4017,2360],[3,6]],[[4018,2558]],[[4018,2558],[-1,0]],[[4018,2556],[1,0]],[[4019,2556],[0,-1],[-1,0]],[[4018,2555],[0,1]],[[4018,2559],[0,-1]],[[4018,2558]],[[4022,2535],[-2,9]],[[4020,2544],[-1,6]],[[4019,2550],[0,2]],[[4019,2552],[-1,3]],[[4060,2617],[-49,-19]],[[4011,2598],[-1,0]],[[4010,2598],[-3,-1],[3,3],[0,-1]],[[4010,2599],[1,-1]],[[4011,2598],[0,-6],[2,-7],[0,-1],[5,-26]],[[4018,2558],[1,-2]],[[4019,2552]],[[4019,2552],[0,1]],[[4019,2555],[1,-5]],[[4020,2550],[2,-15]],[[4019,2550]],[[4019,2550]],[[4019,2556],[13,2],[15,3],[8,1]],[[4055,2562],[16,3],[16,3],[9,0]],[[4096,2567],[-77,-12]],[[4020,2550]],[[4020,2550]],[[4020,2550]],[[4020,1859]],[[4020,2544]],[[4020,2544]],[[4020,2459],[9,0],[0,-1]],[[4020,2368],[2,9]],[[4021,2545]],[[4034,2386],[-7,-6],[-5,-3]],[[4022,2377],[5,3],[7,6]],[[4034,2386],[0,1],[1,0]],[[4035,2387],[8,6]],[[4043,2393],[2,2],[1,0]],[[4046,2395],[1,1]],[[4047,2396],[9,3]],[[4056,2399],[16,6]],[[4072,2405],[10,3],[13,0]],[[4095,2408],[1,-1]],[[4096,2407]],[[4026,2514],[-3,17]],[[4023,2531],[-1,3]],[[4023,2534],[2,-13]],[[4023,2530],[0,1]],[[4023,2531]],[[4028,2080],[-2,-1]],[[4026,2079],[-2,-1]],[[4025,2080],[2,0]],[[4025,2521],[1,-7]],[[4025,2521],[2,-7],[3,-21],[-1,9]],[[4025,2080],[1,-1]],[[4026,2079]],[[4026,2513],[0,1],[1,0],[-1,-1]],[[4028,2502],[-2,11]],[[4026,2513],[3,-11]],[[4030,2493],[-2,9]],[[4096,2481],[-28,-12],[-1,0]],[[4067,2469]],[[4067,2469],[-18,-5]],[[4049,2464],[-19,-5]],[[4030,2459],[-1,-1]],[[4030,2459]],[[4030,2459],[37,11],[10,4],[12,5]],[[4089,2479],[7,3]],[[4071,2312]],[[4071,2312]],[[4071,2312],[-14,31]],[[4057,2343],[-1,4],[-2,3],[-20,36]],[[4046,2394],[-11,-8]],[[4035,2386],[22,-41],[5,-2]],[[4062,2343],[8,-4],[0,-1],[1,-1]],[[4071,2337],[2,-2],[0,-11]],[[4073,2324],[0,-11]],[[4073,2313],[0,-1]],[[4073,2312]],[[4073,2312],[0,-2],[4,-57],[-1,-1]],[[4076,2252],[-6,-12],[0,-11]],[[4036,2460],[13,4]],[[4049,2464],[18,6],[1,0],[21,9]],[[4089,2479],[7,3]],[[4096,2481],[-28,-12],[-1,0]],[[4067,2469],[-29,-10]],[[4039,2311],[1,0]],[[4040,2311],[6,0],[0,-1]],[[4046,2310]],[[4046,2310],[0,-1],[-7,2]],[[4040,2391],[3,2]],[[4043,2393],[2,1],[0,1],[1,0]],[[4046,2395],[1,0],[1,1],[24,9]],[[4072,2405],[10,3],[13,0]],[[4095,2408],[1,-1]],[[4096,2407]],[[4096,2407],[-3,-65],[0,-2]],[[4093,2340]],[[4093,2340],[0,-1],[3,-27]],[[4096,2312]],[[4096,2312],[0,-5]],[[4041,1854],[31,-2]],[[4073,1850],[-32,3]],[[4096,2407],[-14,1],[-26,-9]],[[4056,2399],[-8,-3],[-1,0]],[[4047,2396],[0,-1],[-1,-1],[-4,-2]],[[4096,2407]],[[4096,2407],[-14,0],[-1,0],[-33,-12]],[[4048,2080],[19,-6]],[[4067,2074],[-19,6]],[[4055,2562]],[[4055,2562]],[[4056,2214],[7,1]],[[4063,2214],[-7,0]],[[4061,2311],[2,1],[-6,31]],[[4057,2343],[0,2]],[[4057,2310]],[[4057,2310],[-8,-1],[0,1]],[[4049,2310]],[[4049,2310],[0,1],[8,0]],[[4059,2344],[3,-1]],[[4062,2343],[8,-3],[2,-1],[1,0],[20,1]],[[4093,2340],[1,0]],[[4094,2340],[1,1],[1,0]],[[4060,2617],[1,-3]],[[4060,2614],[0,3]],[[4071,2312],[-10,-1]],[[4067,2469]],[[4067,2469]],[[4067,2469]],[[4067,2469]],[[4067,2469],[0,1]],[[4069,2199],[0,1]],[[4069,2200],[2,10]],[[4069,2209],[0,-9]],[[4069,2200],[0,-1]],[[4096,2340],[-1,0],[-1,0]],[[4094,2340],[-1,0]],[[4093,2340],[-11,-1],[-9,-1],[-2,0],[0,-1]],[[4071,2337],[2,-13]],[[4073,2324],[1,-11],[-1,0]],[[4073,2313],[-2,0]],[[4076,2251],[0,1]],[[4076,2252],[0,1],[-5,59]],[[4071,1851],[1,0]],[[4071,1851],[1,0]],[[4084,2312]],[[4084,2312],[-1,0]],[[4083,2312],[-1,0],[-9,-1]],[[4074,2314],[8,-2]],[[4078,2312]],[[4078,2312]],[[4078,2312]],[[4081,2476],[1,1]],[[4082,2312],[2,0]],[[4084,2312],[4,0]],[[4088,2312],[6,0],[2,0]],[[4096,2312]],[[4096,2312]],[[4092,2127],[-8,2]],[[4084,2130],[8,-3]],[[4086,2478]],[[4087,2250],[6,-2],[2,-2]],[[4095,2246],[1,0]],[[4087,2312],[8,1]],[[4095,2310],[-6,2]],[[4089,2312],[-1,0]],[[4088,2312],[-1,0]],[[4096,2246],[-1,0]],[[4095,2246],[-2,2],[-5,1]],[[4089,2479]],[[4089,2479]],[[4089,2479],[0,1]],[[4091,2481]],[[4095,2068],[-1,1]],[[4096,2333],[-1,-3]],[[4095,2330],[-1,0]],[[4095,2246]],[[4095,2246]],[[4095,2246],[1,2]],[[4096,2126]],[[4096,2126]],[[4096,2404],[-2,-62],[0,-2]],[[4094,2340]],[[4094,2340],[0,-1],[1,-9]],[[4095,2330],[1,-18]],[[4096,2312]],[[4096,2312],[0,-1]],[[3067,2294],[-2,0],[1,1],[1,0],[0,-1]],[[3407,2425],[-1,0],[1,0]],[[3439,2252],[1,1],[0,-2],[-1,0],[0,1]],[[3447,2257],[0,1],[1,0],[0,-1]],[[3448,2257],[-1,0]],[[3461,2267],[0,1],[1,1],[0,-1],[-1,-1]],[[3468,2274],[1,12],[1,-12],[-2,0]],[[3555,2294],[-1,0]],[[3554,2294],[1,0]],[[3747,2412],[1,1],[3,0],[-4,-1]],[[4022,2535],[1,0]],[[4023,2535]],[[4023,2535],[-1,-1],[0,1]],[[4028,2502],[1,0],[-1,-1],[0,1]],[[1566,3055],[-1,0]],[[1570,3054],[-5,10]],[[1565,3054],[4,2]],[[1569,3056],[-4,-3]],[[1704,2918],[0,1]],[[3393,2322],[-2,4],[0,6]],[[3391,2332],[-1,71],[1,1]],[[3391,2404],[0,4]],[[3392,2407],[-1,-3]],[[3391,2404],[-15,-29],[15,-43]],[[3391,2332],[4,-11]],[[3392,2475],[2,0]],[[3394,2321],[-1,1]],[[3394,2321],[-1,1]],[[3548,2503],[111,18]],[[3665,2519],[-117,-16]],[[3636,2520],[0,-1]],[[3659,2521],[6,-2]],[[3665,2519]],[[3665,2519],[2,0]],[[3667,2519],[1,0]],[[3668,2519]],[[3668,2519],[4,-1]],[[3659,2521],[6,-1]],[[3665,2507],[0,11]],[[3665,2518],[0,1]],[[3665,2519]],[[3665,2519]],[[3665,2519],[0,1]],[[3665,2520],[1,6],[0,6]],[[3665,2485],[0,1],[0,1]],[[3665,2487],[0,17]],[[3665,2519]],[[3665,2519]],[[3665,2519],[1,1]],[[3666,2520],[3,24],[3,12],[2,23]],[[3673,2428],[-5,25],[-1,17],[-2,17]],[[3665,2487],[0,7],[0,4],[0,19],[0,1]],[[3665,2518],[0,1]],[[3760,2508],[-35,7],[-54,3]],[[3671,2518],[-3,1]],[[3668,2519]],[[3668,2519],[-1,0]],[[3667,2519],[-2,0]],[[3665,2519]],[[3668,2520],[-1,0]],[[3667,2520],[-1,0]],[[3666,2520],[-1,0]],[[3665,2520]],[[3665,2517],[2,-1]],[[3667,2516],[1,0]],[[3667,2505],[-1,-14],[0,-2]],[[3668,2532],[-1,-5],[0,-7]],[[3667,2520],[0,-1]],[[3667,2519]],[[3667,2519],[0,-3]],[[3667,2516],[0,-9]],[[3668,2520]],[[3668,2520],[3,-2]],[[3671,2518],[3,-1]],[[3673,2578],[5,37],[4,8]],[[3675,2563],[-6,-26],[-1,-17]],[[3668,2520],[0,-1]],[[3668,2519]],[[3668,2519],[0,-1],[0,-1],[-2,-18],[10,-74]],[[3684,2621],[-5,-7]],[[3727,2515],[56,-6]],[[3783,2508],[-21,0]],[[3763,2275]],[[3763,2274]],[[3864,2113],[-2,1]],[[3862,2114],[-49,11],[-17,20]],[[3797,2144],[1,2]],[[3815,2123],[-3,1]],[[3814,2126],[103,-11]],[[3823,2239],[3,14]],[[3842,1225],[-1,1]],[[3842,2480],[0,2]],[[3850,2496],[-2,1]],[[3855,2603]],[[3860,2545],[1,-11],[0,-1],[1,-7]],[[3862,2526],[1,-4]],[[3862,2115],[0,-1]],[[3862,2114],[0,-1]],[[3863,2527],[-1,-1]],[[3862,2526]],[[3867,2439],[-3,8]],[[3870,1322],[0,-1]],[[3875,1322],[0,1]],[[3877,2381],[1,-3]],[[3881,2373],[-2,-1]],[[3889,1227],[2,0]],[[3890,1225],[0,-1]],[[3892,1207],[1,2]],[[3898,1199],[1,1]],[[3900,1200],[-2,-1]],[[3898,1273]],[[3900,1281]],[[3934,2585],[-27,13]],[[3909,1317],[-2,2]],[[3960,2587],[-26,-2]],[[3934,2585],[9,1]],[[3950,2282],[4,-3]],[[3954,2279],[11,-6],[7,-5]],[[3960,2274],[-8,5]],[[3954,2279]],[[3954,2279],[-1,-1]],[[3991,2084],[33,-6],[-34,5]],[[3997,2261],[1,0]],[[4007,2596],[0,1]],[[4014,2600],[21,3]],[[4034,2602],[-17,-5]],[[4061,2062],[17,-87]],[[4078,1975],[1,-7]],[[4079,1968],[0,-1],[-28,-40],[28,41]],[[4079,1968],[-1,7]],[[4078,1975],[-17,87]],[[4063,2064],[-1,0]],[[4068,2073],[2,0]],[[4070,2199],[-1,0]],[[4069,2199],[1,0]],[[4096,2068],[-27,2]],[[4075,1996],[-1,0]],[[4075,1990]],[[4077,1981]],[[4082,2216],[-1,-1]],[[4085,2071],[11,-2]],[[4092,2237],[-4,-15]],[[4092,2238],[4,9]],[[4096,2246],[-4,-9]],[[4096,2407],[0,1]],[[866,3358],[-29,-4]],[[2746,1430],[9,9]],[[1730,2964],[-12,11]],[[1718,2975],[13,-11]],[[3404,2318],[0,3]],[[3576,2662],[58,24],[56,-62],[48,-13],[3,0],[4,0]],[[3745,2611],[66,-10]],[[3811,2601],[1,0],[3,-3]],[[3815,2598],[1,-2]],[[4096,2604],[-252,-20],[-19,4],[-10,10]],[[3815,2598],[-3,3],[-1,0]],[[3811,2601],[0,2],[-3,6]],[[3808,2609],[-1,0]],[[3807,2609],[-62,2]],[[3745,2611],[-4,0],[-3,0],[-48,13],[-57,62],[-57,-25]],[[3594,2087],[-15,-9]],[[3579,2078],[10,6]],[[3857,2435],[-30,-8],[-148,-16]],[[3679,2411],[-1,0]],[[3678,2411],[-34,-3]],[[3663,2131],[16,10]],[[3679,2141],[-16,-10]],[[3667,2514],[-1,-14]],[[3685,2625],[-19,-125]],[[3666,2500],[3,-47],[3,-16],[5,-21],[2,-5]],[[3679,2411],[1,-5],[97,-191]],[[3677,2613],[2,4]],[[3778,2212],[-92,180],[-7,14],[-1,5]],[[3678,2411],[-1,5],[-5,21],[-3,16],[-4,39],[1,34],[10,86],[9,13]],[[3764,2225],[-1,-8],[-10,-18],[-24,-26],[-39,-25]],[[3691,2149],[73,77]],[[3751,2280]],[[4096,2069],[-4,-1],[-22,3],[-6,3],[-18,1],[-19,3],[-14,1],[-23,4],[-63,31],[-66,0],[-46,9],[-8,10],[-10,12],[-2,2]],[[3795,2147],[-6,7],[-1,2],[-2,7]],[[3786,2163],[-2,8],[-1,18]],[[3784,2187],[23,-54]],[[3796,2145],[-1,2]],[[3795,2147],[-6,7],[-1,2],[-4,13]],[[3784,2169],[2,-6]],[[3786,2163],[2,-7],[8,-9]],[[3786,2615],[21,-6]],[[3807,2609],[1,0]],[[3808,2609],[11,-3]],[[3792,2614],[15,-3]],[[3795,2149],[0,-2]],[[3795,2147]],[[3795,2147],[0,-1]],[[3801,2141],[6,-8]],[[3807,2133],[120,-19]],[[3872,2389],[-5,55],[-24,30],[3,15],[13,34],[-24,52]],[[3837,2573],[23,-51],[-17,-48],[24,-30],[10,-65],[38,-53],[45,-51],[136,-25]],[[3844,2584],[252,21]],[[3854,2432],[2,2]],[[3857,2435],[0,1]],[[3921,1307],[-55,15]],[[3866,1322],[6,0],[49,-14]],[[3874,2384],[-2,5]],[[4096,2248],[-95,10],[-41,16],[-7,5],[-38,47],[-35,46],[-8,17]],[[3907,1206],[43,18],[1,0],[27,17]],[[3979,1241],[-1,-1]],[[3978,1240],[-27,-17],[-43,-17]],[[3923,1216],[1,0]],[[3982,1316],[-39,-15],[-11,1],[-4,1]],[[3928,1304],[53,13]],[[3929,2114],[167,-45]],[[3972,1179],[-1,43],[1,2],[6,16]],[[3978,1240],[0,1]],[[3996,1291],[-21,-110]],[[3978,1241],[17,51]],[[4007,1909],[1,-1]],[[4019,2258],[4,0]],[[4096,1849],[-37,6]],[[4072,1854],[24,-4]],[[4096,2149],[-4,27]],[[4096,2308],[0,2]],[[4096,2310],[0,95]],[[4096,2405],[0,2]],[[3848,2304],[2,-5]],[[1565,3068],[8,-18]],[[1573,3049],[-3,5]],[[3682,1736],[0,-2]],[[3765,1437],[-12,69],[-60,30],[-23,44],[12,154]],[[3682,1734],[-12,-154],[23,-43],[61,-31],[11,-69]],[[3723,1882],[-2,-21],[-13,-77],[-26,-48]],[[3682,1736],[41,146]],[[3807,1276],[-36,42],[0,1]],[[3771,1319],[-5,116],[-1,2]],[[3771,1317],[-1,0]],[[3771,1319]],[[3771,1319],[0,-1]],[[1515,1803],[-146,14]],[[4018,1078],[-7,14]],[[4013,1090],[5,-12],[1,-3],[0,-7],[-1,-9]],[[4018,1059],[-1,-4]],[[4016,1055],[2,4]],[[4018,1059],[0,2]],[[1796,2922],[12,-8]],[[1808,2914],[3,-2],[12,-12],[108,-155],[11,-12]],[[1942,2733],[20,-18],[1,-1]],[[1963,2714],[7,-2],[38,-14],[30,-23]],[[2038,2675],[44,-35]],[[2082,2640],[3,-2],[10,-12],[18,-31],[75,-28],[183,-16],[1,-1]],[[2372,2550],[35,-7],[22,-8]],[[2429,2535],[17,-7],[4,-1],[18,-3],[89,-58],[7,-4]],[[2564,2462],[1,-1],[70,-9]],[[2635,2452],[49,-7],[220,-77],[130,5]],[[3034,2373],[-130,-6],[-102,32],[-118,46],[-49,7]],[[2635,2452],[-71,10]],[[2564,2462],[-1,0],[-95,62],[-18,2],[-4,2],[-17,7]],[[2429,2535],[-35,14],[-19,2],[-3,-1]],[[2372,2550],[-2,0],[-1,0],[-1,0],[-182,17],[-74,28],[-20,34],[-10,11]],[[2082,2640],[-2,2],[-42,33]],[[2038,2675],[-30,23],[-44,15],[-1,1]],[[1963,2714],[-21,19]],[[1942,2733],[-12,11],[-108,156],[-2,3],[-12,11]],[[1808,2914],[-4,4],[-8,4]],[[1796,2922],[-18,10]],[[1778,2932],[-11,7],[-2,0],[-34,24],[-79,48]],[[1652,3011],[-1,1],[-36,17]],[[1615,3029],[-42,20]],[[1573,3050],[42,-21]],[[1615,3029],[37,-18]],[[1652,3011],[1,-1],[78,-47],[35,-23],[1,-1],[11,-7]],[[1778,2932],[18,-10]],[[1702,2991],[11,-10]],[[3588,2366],[-15,-10],[-69,-20],[-5,-1]],[[3499,2335],[-47,-8]],[[3452,2327],[-30,-5],[-69,-10],[-3,0]],[[3350,2312],[-1,0]],[[3349,2312],[-26,0],[-114,10],[-13,2],[-162,49]],[[3034,2373],[162,-48],[11,-2],[142,-11]],[[3349,2312],[1,0]],[[3350,2312],[20,3],[14,2],[13,2],[17,2],[38,6]],[[3452,2327],[42,6],[5,2]],[[3499,2335],[74,21],[26,18]],[[3644,2408],[-3,-2]],[[3646,2407],[208,25]],[[3755,193],[-150,-115],[8,21],[-181,-52],[-54,30],[-38,-38],[-37,10],[-53,-38],[-51,-3],[-46,65],[-55,28]],[[1534,3176],[5,-2],[11,-10]],[[1550,3164],[1,-1],[3,-3],[-1,-7]],[[1553,3153]],[[1553,3153],[0,7],[-3,4]],[[1550,3164],[-9,11]],[[1551,3149],[0,-1]],[[1552,3149],[-1,1]],[[1554,3154],[-2,-9]],[[1552,3145],[1,8]],[[1553,3153],[0,1]],[[1552,3145],[3,-13]],[[1555,3128],[0,4]],[[1555,3128],[11,-60]],[[1790,2869],[-15,11]],[[1775,2880],[15,-11]],[[1790,2869],[104,-82],[35,-73]],[[1931,2711],[-2,3]],[[1929,2714],[2,-2]],[[1931,2710],[1,-1]],[[1932,2710],[0,-1]],[[1932,2709],[18,-51],[40,-18]],[[1932,2710],[-1,0]],[[1931,2710],[0,2],[1,-1],[0,-1]],[[1988,2630],[2,10]],[[1990,2640],[104,-22]],[[2094,2618],[-19,-1]],[[2094,2618],[272,-57],[53,11],[101,-98],[54,-110],[62,3],[167,-67],[80,96]],[[2904,2409],[-21,-13]],[[2934,2384],[-30,25]],[[2934,2384],[5,0]],[[3005,2324],[-66,60]],[[3958,2278],[4,88]],[[3866,2443],[1,1]],[[3877,2381],[4,-7]],[[3882,2373],[1,-4]],[[3879,2372],[-3,7]],[[3876,2379],[-1,6]],[[3875,2385],[-10,59],[-13,15],[-4,2]],[[3848,2461],[0,1],[-6,12]],[[3844,2473],[4,-12]],[[3848,2461],[27,-76]],[[3875,2385],[2,-4]],[[3864,2447],[-2,2]],[[4073,2254],[-69,3],[-31,9],[-5,3],[-39,34],[-48,66],[-4,9],[-1,1]],[[3876,2379],[0,1]],[[3878,2378],[87,-105]],[[3879,2372],[1,-1]],[[3882,2370],[-1,3]],[[3909,1318],[32,41]],[[3972,2268],[88,-9],[16,-4],[20,-9]],[[3998,2261],[16,-3]],[[4054,1784],[-12,-48]],[[4051,1927],[13,-108]],[[4059,1804],[-1,-5]],[[4061,2062],[7,12]],[[4068,2074],[5,9]],[[4074,2083],[-13,-21]],[[4062,2064],[6,10]],[[4068,2074],[4,7],[1,2]],[[4074,2083],[-11,-19]],[[4068,2074]],[[4068,2074]],[[4068,2074],[-1,0]],[[4071,2188],[6,25]],[[4078,2214],[-7,-26]],[[4075,2169],[-3,16]],[[4072,2185],[3,-16]],[[4073,2083],[3,11]],[[4096,2245],[-22,9]],[[4076,2095],[-2,-12]],[[4083,2131],[-7,33]],[[4077,2163],[7,-34]],[[4087,2232],[8,14]],[[4096,2245],[-9,-15]],[[3893,1207],[-27,-4]],[[3869,1232],[21,-7]],[[3893,1209],[-2,-1]],[[3897,1200],[2,-2]],[[3641,2406],[-40,-31]],[[3601,2375],[-12,-9],[-1,0]],[[3599,2374],[2,1]],[[3601,2375],[45,32]],[[3890,1225],[18,91]],[[3909,1318],[-1,-2]],[[3826,2254],[-2,-5]],[[3846,2264],[-8,5]],[[3715,2019],[5,11]],[[3796,2123],[-3,2]],[[3826,2253],[0,4]],[[3397,2619],[-4,-48]],[[3524,2629],[0,-1]],[[3531,2630]],[[3531,2630],[-1,1]],[[3537,2635],[-2,-1]],[[3535,2634],[-4,-4]],[[3531,2630],[-1,0],[-53,-25],[-38,-12],[30,18],[60,20],[1,0],[5,3]],[[3535,2634],[2,0]],[[4090,2192],[6,45]],[[4096,2237],[0,-87]],[[3595,2316]],[[3601,2311]],[[3601,2310]],[[3735,2277]],[[3827,2266],[1,5]],[[3829,2197],[1,0]],[[3830,2186]],[[3831,2277],[4,6]],[[4070,2073],[15,-2]],[[4088,2222],[-6,-6]],[[3325,2068],[-9,-1]],[[3378,2257],[-50,-5]],[[3328,2253],[44,6],[6,-1],[1,0]],[[3379,2258]],[[3345,2188],[12,31]],[[3357,2219]],[[3357,2219],[3,7],[18,31]],[[3379,2257]],[[3379,2257],[-18,-30],[-3,-8]],[[3358,2219]],[[3358,2219],[-13,-32]],[[3349,2257]],[[3353,2214],[0,1]],[[3369,2214],[-11,5]],[[3358,2219],[-1,0]],[[3357,2219],[-2,1]],[[3356,2258],[-1,1]],[[3356,2220],[1,-1]],[[3357,2219],[1,0]],[[3358,2219],[11,-5]],[[3359,2224],[-2,2]],[[3359,2259]],[[3364,2215]],[[3383,2210],[-13,3]],[[3370,2213],[13,-3]],[[3378,2258],[0,-1]],[[3379,2258]],[[3379,2258],[5,15]],[[3401,2251],[-21,6],[-1,0]],[[3379,2257]],[[3379,2257],[0,1]],[[3385,2273],[-5,-15]],[[3380,2257],[21,-6]],[[3380,2257]],[[3392,2167],[-9,25]],[[3383,2193],[0,16]],[[3383,2192],[9,-25]],[[3384,2209],[0,-16]],[[3385,2273],[5,15]],[[3391,2288],[-6,-15]],[[3390,2289],[4,11]],[[3390,2289],[1,0]],[[3391,2289],[0,-1]],[[3391,2288],[-1,0],[0,1]],[[3395,2300],[-4,-11]],[[3393,2075],[9,25],[11,-1]],[[3413,2099]],[[3413,2099],[37,-4],[4,1],[37,-3]],[[3491,2093],[1,0]],[[3423,2037],[-7,44],[0,7],[-2,8],[-1,2]],[[3413,2098],[0,1]],[[3413,2099],[-20,65]],[[3393,2165],[20,-66]],[[3413,2099],[1,-1]],[[3414,2098],[3,-10],[7,-51]],[[3492,2093],[-38,2],[-3,-1],[-37,4]],[[3414,2098],[-1,0]],[[3413,2098],[-11,1],[-9,-25]],[[3395,2302],[1,1]],[[3396,2302],[0,-1]],[[3396,2301]],[[3396,2301],[0,-1]],[[3396,2303],[0,-2]],[[3396,2301],[8,-5]],[[3404,2296],[0,-1]],[[3404,2295],[0,1]],[[3404,2296],[-8,5]],[[3398,2645],[5,33]],[[3400,2651],[-1,-4]],[[3406,2249],[-2,0]],[[3404,2249],[-2,1]],[[3402,2656],[1,0]],[[3402,2251],[4,-2]],[[3404,2250],[0,-1]],[[3404,2249],[19,-38]],[[3406,2249],[18,-38]],[[3411,2735],[5,14]],[[3421,2763],[-9,21]],[[3431,2770],[2,0]],[[3462,2168],[0,-1]],[[3462,2167],[1,-2],[12,-13],[41,-97],[12,-15]],[[3528,2040],[-8,9],[-4,6],[-41,97],[-12,13],[-1,2]],[[3462,2167],[0,2]],[[3486,2132],[-2,1]],[[3486,2139],[55,-55],[12,-20],[3,-7]],[[3579,2051],[-24,5],[-68,82]],[[3491,2093]],[[3491,2093],[1,1]],[[3508,2068],[-16,25]],[[3496,2079],[0,-1]],[[3556,1977],[-28,63]],[[3574,2319],[2,0]],[[3576,2319],[-2,0]],[[3584,2320],[-8,-1]],[[3609,2165],[-9,0],[-11,4]],[[3589,2169],[-8,3]],[[3581,2172],[8,-3]],[[3589,2169],[11,-4],[9,0]],[[3584,2320]],[[3584,2320]],[[3594,2319],[-10,1]],[[3741,2278],[-147,41]],[[3594,2319],[119,-41],[8,0],[2,0],[12,-1],[6,0]],[[3601,2310],[-5,2]],[[3596,2312],[5,-1]],[[3606,2311],[-5,-1]],[[3601,2311],[5,0]],[[3614,2164],[31,-9]],[[3826,2271],[13,1]],[[3838,2269],[-4,0],[-8,2]],[[3837,2269]],[[3838,2268],[1,0]],[[3839,2268],[4,9]],[[3847,2264],[-8,4]],[[3850,2298],[-4,6]],[[3846,2306],[2,-2]],[[3847,2279],[24,9]],[[3871,2160]],[[3876,2293],[0,2]],[[3876,2295],[0,-2]],[[3880,2288],[-2,7]],[[3880,2296],[2,-10]],[[3887,2297],[12,-2]],[[3889,2121],[10,31],[2,25]],[[3901,2177],[1,14],[-1,30],[1,18]],[[3901,2239],[-1,1]],[[3900,2240],[-1,1]],[[3899,2241],[-4,4],[-5,7]],[[3891,2252],[4,-7],[11,-9]],[[3906,2236]],[[3906,2236],[-5,-15],[1,-30],[-1,-17]],[[3901,2174],[-1,-22],[-7,-31]],[[3893,2252],[13,-15],[0,-1]],[[3906,2236]],[[3906,2236],[-5,-68]],[[3901,2168],[-1,-14],[0,-1]],[[3901,2156],[0,12]],[[3901,2168],[0,6]],[[3901,2174],[0,3]],[[3901,2177],[-1,63]],[[3900,2240],[-1,1]],[[3899,2241],[-2,1]],[[3905,2270],[-8,-1]],[[3902,2239],[-1,0]],[[3901,2239],[0,1],[1,0],[0,-1]],[[3926,2115],[13,52]],[[3927,2117],[1,-2]],[[3941,2268],[3,0]],[[3944,2268],[-2,0]],[[3963,2162],[1,12]],[[3964,2173],[0,-10]],[[3997,2095],[-2,-8]],[[4027,2080],[21,0]],[[4048,2080],[-20,0]],[[4041,1853],[-12,1]],[[4036,1855],[5,-1]],[[4056,2214],[-18,6]],[[4038,2220],[18,-6]],[[4070,2229],[-1,-20]],[[4071,2210],[5,41]],[[4092,2127],[4,-1]],[[4096,2126],[-4,1]],[[3370,2213],[-1,0],[0,1],[1,0],[0,-1]],[[3383,2209]],[[3383,2209],[0,1]],[[3383,2210]],[[3383,2210]],[[3383,2210]],[[3383,2210],[1,0]],[[3384,2210]],[[3384,2210],[0,-1]],[[3384,2209],[-1,0]],[[3384,2192],[-1,0],[0,1],[1,0],[0,-1]],[[3384,2210]],[[3384,2210]],[[3384,2210],[0,-1]],[[3384,2209],[-1,0]],[[3383,2209],[0,1]],[[3383,2210]],[[3383,2210]],[[3383,2210]],[[3383,2210],[1,0]],[[3385,2273]],[[3385,2273]],[[3385,2273],[-1,0],[1,0]],[[3395,2302],[1,-1]],[[3396,2301]],[[3396,2301]],[[3396,2301],[-1,-1]],[[3395,2300],[-1,1],[1,1]],[[3401,2251],[1,1],[0,-1],[-1,-1],[0,1]],[[1803,2954],[46,174],[-10,97],[-90,75],[-96,-9],[-12,-21],[-38,5],[-64,-97]],[[1539,3178],[14,-17]],[[1545,3171],[-6,7]],[[1797,2897],[5,37]],[[3796,2146],[0,1]],[[1966,2707],[-34,3]],[[1962,2715],[6,1]],[[1966,2707],[-2,6]],[[1981,2707],[-15,0]],[[1968,2716],[-2,-9]],[[1968,2716],[2,-4]],[[4011,1092],[-39,87]],[[3975,1181],[38,-91]],[[3995,1292],[101,271]],[[4096,1561],[-100,-270]],[[4052,1050],[-39,39]],[[4017,1083],[33,-33]],[[4018,1061],[0,17]],[[369,998],[0,4]],[[401,985],[32,-22]],[[521,899],[-3,-9]],[[3843,2277],[4,2]],[[3814,2126],[-1,-1]],[[3818,2139],[3,10]],[[3821,2149],[-3,-10]],[[3826,2204],[0,-1]],[[3830,2275],[-2,-9]],[[3829,2202],[1,-3]],[[3848,2304],[-2,1]],[[3847,2306],[3,-7]],[[3822,2149],[-1,0]],[[3821,2149],[0,1],[1,0],[0,-1]],[[3910,1320],[-18,-86]],[[3825,2212],[-2,27]],[[3823,2239],[3,-28]],[[3962,2366],[-2,2]],[[1563,2936],[112,-1]],[[3824,2249],[-1,-10]],[[1369,1817],[-107,30],[-49,-38],[-129,15]],[[1514,1803],[12,8]],[[1525,1810],[-10,-6]],[[1526,1811],[-1,-1]],[[1859,2059],[-74,-56],[-82,-8],[-177,-184]],[[1861,2064],[-2,-5]],[[2746,1430],[-47,-75],[-55,85],[19,6],[-24,35],[3,58],[-45,48],[-52,12],[-22,45],[26,68],[-19,49],[-61,7],[-16,69],[-81,51],[-19,44],[-190,16],[-55,34],[-59,-13],[-69,41],[-46,-4],[-73,58]],[[3638,1321],[-65,19],[-112,-62],[-134,44],[-200,11],[-65,74],[-64,28],[-2,51],[-58,70],[-40,6],[-143,-123]],[[3638,1321]],[[3638,1321],[25,-1]],[[3663,1320],[7,3]],[[3730,1294],[-60,29]],[[3730,1294],[16,10]],[[3746,1304],[4,-5],[67,42]],[[3746,1304]],[[3746,1304],[-10,-8],[-6,-2]],[[3746,1281],[-15,12]],[[3818,1224],[-71,57]],[[3750,1299],[67,42]],[[3862,1329],[-45,12]],[[3817,1341],[46,-11]],[[3930,1145],[-2,2]],[[3928,1148],[2,-3]],[[3930,1145],[83,-93]],[[4017,1047],[23,-20],[9,21]],[[4054,1050],[-5,-2]],[[4054,1050],[30,8]],[[4084,1058],[7,-3]],[[4091,1055],[5,-1]],[[1802,2934],[1,20]],[[3826,1227],[-8,-3]],[[3909,1318],[-1,0]],[[3908,1318],[-1,1],[-6,4],[-18,1],[-21,5]],[[3863,1330],[38,-7],[2,-1],[4,-3]],[[3907,1319],[1,-1]],[[3908,1318],[1,0]],[[3906,1319],[1,0]],[[3907,1319],[3,1]],[[3908,1316],[-1,2]],[[3928,1147],[-3,3]],[[3926,1150],[2,-2]],[[3926,1151],[-1,-1],[-1,0],[1,1],[1,0]],[[4090,2188],[0,4]],[[1206,2659],[-79,-114],[-66,-221],[-17,-184],[41,-38],[2,-45],[-49,-143],[46,-90],[-35,-48],[-40,-172],[-122,-150],[-184,-42],[-48,-163],[9,-76],[28,-26],[-25,-134],[59,-56],[-5,-56],[-28,-22],[82,-6],[63,34],[87,-38],[17,-55],[80,-15]],[[1026,798],[137,28],[-5,-79],[-33,-19],[-14,-65],[95,-144],[79,60],[4,41],[295,-9],[151,-72],[110,-140],[186,-87],[179,-44]],[[1472,2923],[-134,-66],[-20,-49]],[[1348,2862],[124,61]],[[1472,2923],[91,13]],[[3098,101],[-146,78],[-25,-25],[-59,20],[-12,26],[-90,-40],[-31,24],[6,-25],[-72,-46],[-20,24],[22,26],[-18,82],[-42,-3],[1,59],[-249,-41],[-68,-51],[-17,-49],[-27,6],[19,70],[-59,32]],[[3785,176],[-30,17]],[[4096,317],[-266,36],[-13,-43],[18,-19],[-50,-115]],[[3823,2239]],[[3826,2253],[-3,-14]],[[3823,2239]],[[3826,2253]],[[3826,2253]],[[141,4096],[113,-135],[36,-1],[32,-39],[35,-134],[193,-21],[127,-106],[61,-127],[54,-42],[-26,-80],[39,-35]],[[825,3357],[-20,19]],[[805,3376],[23,-18]],[[4096,2687],[0,-2687],[-971,0],[-13,90],[-77,56],[-85,-9],[-87,35],[-81,-24],[-56,-82],[-9,-6],[-66,-19],[-71,-9],[-63,6],[-39,13],[-25,14],[-25,10],[-40,5],[-15,9],[-30,41],[-16,9],[-39,6],[-11,14],[-3,19],[-15,22],[-20,14],[-106,79],[-95,-6],[-127,57],[-209,174],[-130,44],[-87,12],[-55,1],[-58,-10],[-61,-9],[-50,-16],[-10,-40],[-40,-14],[-31,38],[-56,-10],[-92,-2],[-89,-20],[-52,-13],[-55,16],[-95,18],[-59,9],[-310,-40],[-120,-19],[-59,-49],[-106,34],[-36,-20],[-45,42],[-6,5],[0,108],[7,-3],[55,20],[37,52],[42,138],[33,61],[230,210],[43,59],[17,45],[-26,245],[72,147],[36,27],[63,-5],[13,-107],[49,-28],[36,-40],[80,13],[126,53],[77,102],[45,125],[-8,98],[32,505],[21,108],[81,240],[60,116],[201,210],[29,18],[30,27],[58,193],[67,71],[95,36],[95,-13],[63,-74],[13,-189],[19,-31],[31,-13],[89,-56],[49,-13],[98,46],[64,91],[73,75],[123,-10],[181,-142],[70,-20],[71,-12],[177,-88],[73,-1],[49,29],[45,36],[63,18],[331,-5],[66,-13],[59,-23],[44,-31],[24,-49],[6,-33],[4,-23],[15,-50],[42,-35],[120,-24],[129,4],[109,17]],[[0,4096],[1061,0],[1,-52],[-11,-62],[-53,-123],[-17,-63],[-35,-226],[-32,-97],[-53,-81],[-90,-100],[-11,-19],[-28,28],[-2,113],[-19,49],[-93,38],[-230,27],[-46,56],[-16,227],[-35,96],[-68,67],[-16,-15],[-28,-38],[-14,-9],[-30,3],[-23,15],[-19,16],[-20,8],[-30,16],[-43,46],[0,80]],[[3895,611],[50,10],[-45,4],[49,30],[-25,4],[-3,10],[64,27],[-3,36],[41,12],[-58,5],[125,29],[6,-255],[-34,-47],[19,54],[-37,24],[-65,-26],[-3,8],[23,4],[17,22],[-51,-25],[-26,14],[17,13],[-60,-21],[50,23],[-23,3],[26,24],[-54,18]],[[0,410],[0,241],[27,-47],[103,0],[14,91],[-22,31],[97,160],[62,11],[74,112],[80,-42],[-14,-41],[103,-28],[-34,-44],[-21,12],[-36,-70],[16,-14],[-43,-72],[19,-74],[-34,-35],[-14,-83],[-18,-18],[-44,23],[-37,-25],[17,-34],[-82,-67],[-213,13]],[[0,2723],[10,-4],[9,-193],[-19,-36],[0,233]],[[3381,2616],[13,70],[33,-31],[19,24],[-22,-5],[1,13],[25,1],[3,50],[-50,-3],[20,22],[-15,35],[48,36],[15,-9],[7,37],[46,7],[-36,-30],[5,-30],[-8,11],[-28,4],[-1,-42],[-26,-1],[36,-56],[-10,37],[68,-9],[-37,-82],[19,-2],[-26,-10],[-31,22],[-30,-47],[-11,32],[-27,-44]],[[4004,1266],[-28,-84],[-64,-46],[-73,5],[-34,132],[33,48],[131,48],[35,-103]],[[3738,2690],[120,-24],[238,21],[0,-940],[-30,-20],[-130,48],[-33,58],[1,89],[-175,-41],[-51,9],[-33,65],[-32,0],[0,32],[-97,65],[0,66],[-33,0],[0,32],[-32,0],[-65,98],[-97,-33],[-291,98],[97,163],[65,32],[0,33],[194,33],[154,163],[154,113],[34,-125],[42,-35]],[[1775,2880],[-201,20],[-11,36],[-101,52],[39,97],[249,-68],[59,-69],[-34,-68]],[[3932,1743],[16,2],[1,3],[-14,32],[32,13],[4,-2],[-5,0],[8,-9],[-17,-3],[-1,-12],[41,-17],[-34,60],[8,39],[70,6],[18,-57],[3,21],[7,3],[-34,-89],[-29,21],[-6,-15],[-68,4]],[[3995,2087],[54,168],[25,-1],[-20,-34],[30,-91],[12,-9],[0,-50],[-26,3],[16,20],[-1,11],[-25,-26],[-19,20],[9,-22],[-55,11]],[[4096,2122],[-9,10],[2,16],[-15,19],[6,12],[-10,7],[14,31],[-20,-10],[13,46],[10,-13],[9,-118]],[[3573,2350],[1,5],[67,51],[28,3],[96,-176],[-84,-95],[-19,34],[-45,8],[-9,-16],[29,1],[30,-39],[-82,-44],[-12,268]],[[3046,2474],[51,31],[33,-15],[-3,29],[43,23],[56,-5],[34,-39],[-24,-17],[-17,18],[8,-32],[-51,-15],[10,23],[-32,7],[32,9],[-9,50],[-33,-25],[25,-19],[-30,12],[10,-37],[-21,-19],[-55,20],[-8,-32],[-19,33]],[[3865,2126],[8,123],[38,6],[-37,39],[48,12],[22,-39],[-17,7],[-23,-4],[46,-6],[15,-97],[-22,-56],[-78,15]],[[3776,2222],[12,-17],[-3,7],[2,6],[24,9],[-8,-24],[20,15],[27,-70],[8,92],[-12,11],[-1,-47],[-17,2],[-2,65],[40,66],[7,-66],[-34,-9],[30,-5],[-7,-141],[-71,38],[-15,68]],[[3302,2179],[30,84],[42,2],[0,49],[29,-15],[29,-87],[-17,-18],[27,-23],[-85,-6],[-26,51],[1,-44],[-30,7]],[[2188,777],[14,41],[58,37],[-16,109],[87,71],[65,10],[66,-35],[47,17],[30,-18],[63,37],[26,-28],[37,60],[-54,45],[-31,-39],[-40,31],[-24,-41],[-12,52],[-76,-56],[-40,46],[36,64],[-27,19],[-33,-47],[-26,36],[-28,-1],[36,44],[-45,62],[134,90],[17,-30],[-27,-38],[25,-23],[-77,-41],[11,-36],[63,4],[73,72],[46,-55],[-6,63],[34,15],[71,-60],[-16,68],[40,38],[39,-64],[53,11],[-66,55],[26,20],[6,63],[49,-37],[116,40],[80,-12],[-81,-45],[10,-77],[-45,-4],[58,-39],[-27,18],[-59,-23],[-36,33],[-21,-36],[21,-30],[-21,-24],[120,-19],[-7,-151],[48,128],[-25,-83],[15,-49],[89,8],[-11,44],[-43,18],[39,15],[8,38],[51,-32],[-14,-25],[-24,9],[19,-27],[61,-1],[27,35],[8,-71],[37,32],[-21,-119],[132,-35],[69,18],[5,-58],[22,49],[68,1],[-11,35],[143,41],[26,35],[40,-19],[39,23],[76,-40],[-26,-26],[24,-45],[-31,-11],[29,-39],[-26,-14],[10,-19],[-34,-1],[9,-42],[-80,-18],[-71,-90],[-41,-13],[-14,-49],[-52,9],[-40,46],[-35,-10],[60,47],[-40,28],[-28,-8],[-19,-44],[-125,58],[-76,-9],[32,-19],[13,-95],[95,-37],[30,-51],[-27,-14],[7,-34],[67,-41],[-42,-9],[-8,-47],[-54,-35],[-70,6],[-52,-51],[-30,54],[-15,-21],[-53,5],[-47,41],[-5,-78],[22,-5],[9,28],[13,-17],[-35,-65],[-13,23],[3,-21],[-36,4],[-11,88],[-26,-16],[-44,16],[-6,65],[-38,56],[23,31],[-18,95],[-33,21],[14,61],[-75,0],[-37,-85],[-35,5],[16,39],[-53,-46],[-3,48],[-77,-5],[33,35],[-12,21],[-76,-32],[-4,-29],[-120,-17],[-37,38],[-44,0],[6,35],[-51,2],[-31,-26],[-48,97]],[[2426,922],[28,-60],[92,-50],[57,37],[-54,24],[2,77],[35,11],[62,-32],[2,28],[-100,43],[-106,-27],[-18,-51]],[[2988,851],[65,-9],[53,-30],[0,34],[-36,6],[17,31],[-32,2],[-22,36],[-33,-13],[44,-27],[-56,-30]],[[2659,1157],[54,-6],[10,-42],[40,38],[-12,33],[-43,10],[-49,-33]],[[2817,1115],[5,-16],[34,-5],[-12,31],[-27,-10]],[[3570,802],[17,-16],[15,5],[-25,30],[-7,-19]],[[2761,3703],[0,393],[728,0],[0,-393],[-728,0]],[[3391,2534],[4,84],[136,56],[13,-80],[-153,-60]],[[3261,2067],[17,60],[70,14],[-10,19],[103,9],[-3,33],[23,-34],[41,21],[-14,-39],[92,-64],[-3,-104],[-70,-16],[-33,66],[-196,-60],[-17,95]],[[1065,2184],[23,42],[40,18],[44,-17],[13,30],[33,6],[-19,-79],[-29,4],[-2,-32],[-67,-6],[-11,-52],[-25,86]],[[1042,3114],[86,48],[20,-9],[20,-85],[-23,-30],[-37,-13],[-10,43],[-56,46]],[[1102,3138],[24,-16],[-19,-33],[36,15],[-7,47],[-34,-13]],[[1118,3045],[26,3],[14,18],[-5,10],[-35,-31]],[[1143,3090],[0,-5],[6,-6],[-5,20],[-1,-9]],[[1354,2449],[29,43],[-35,-9],[47,38],[-45,28],[39,33],[3,44],[57,-94],[47,32],[6,-9],[-31,-32],[25,24],[16,-11],[18,41],[46,-16],[79,-93],[-33,-39],[-11,36],[-13,-25],[-64,8],[-59,-42],[-121,43]],[[1409,2499],[32,-3],[16,15],[-48,-12]]]}