{"objects":{"water":{"type":"GeometryCollection","geometries":[{"type":"Polygon","properties":{"source":"naturalearthdata.com","kind":"ocean","area":1576712559132672,"sort_rank":200,"min_zoom":0.0,"id":1},"arcs":[[0],[1]]},{"type":"LineString","properties":{"source":"naturalearthdata.com","kind":"ocean","sort_rank":205,"boundary":true,"min_zoom":0.0,"id":3161},"arcs":[2]}]},"buildings":{"type":"GeometryCollection","geometries":[]},"places":{"type":"GeometryCollection","geometries":[{"type":"Point","properties":{"name:pt":"Ilha Christmas","name:cy":"Ynys y Nadolig","name:ko":"\ud06c\ub9ac\uc2a4\ub9c8\uc2a4 \uc12c","name:kn":"\u0c95\u0ccd\u0cb0\u0cbf\u0cb8\u0ccd\u0cae\u0cb8\u0ccd \u0ca6\u0ccd\u0cb5\u0cc0\u0caa","name:km":"\u1780\u17c4\u17c7\u200b\u1782\u17d2\u179a\u17b8\u179f\u17d2\u1798\u17b6\u179f","name:kl":"Jul-qeqertaq","name:cs":"V\u00e1no\u010dn\u00ed ostrov","name:kw":"Ynys Nadelik","name:tr":"Christmas Adas\u0131","name:ku":"Girava Christmas","name:ti":"\u12e8\u1308\u1293 \u12f0\u1234\u1276\u127d","name:ks":"\u06a9\u0631\u0650\u0633\u0645\u064e\u0633 \u062c\u0654\u0632\u06cc\u0656\u0631\u0655","name:to":"Motu Kilisimasi","name:zh-min-nan":"Christmas-t\u00f3","name:or":"\u0b16\u0b4d\u0b30\u0b40\u0b37\u0b4d\u0b1f\u0b2e\u0b3e\u0b38 \u0b06\u0b07\u0b32\u0b4d\u0b5f\u0b3e\u0b23\u0b4d\u0b21","name:pl":"Wyspa Bo\u017cego Narodzenia","name:ta":"\u0b95\u0bbf\u0bb1\u0bbf\u0bb8\u0bcd\u0ba4\u0bc1\u0bae\u0b9a\u0bc1 \u0ba4\u0bc0\u0bb5\u0bc1","name:ca":"Illa Christmas","name:te":"\u0c15\u0c4d\u0c30\u0c3f\u0c38\u0c4d\u0c2e\u0c38\u0c4d \u0c26\u0c40\u0c35\u0c3f","name:vi":"\u0110\u1ea3o Gi\u00e1ng Sinh","name:ro":"Insula Cr\u0103ciunului","name:ka":"\u10e8\u10dd\u10d1\u10d8\u10e1 \u10d9\u10e3\u10dc\u10eb\u10e3\u10da\u10d8","name:hr":"Bo\u017ei\u0107ni otok","name:da":"Jule\u00f8en","name:de":"Weihnachtsinsel","name:dz":"\u0f41\u0f72\u0f0b\u0f62\u0f72\u0f66\u0f9f\u0f0b\u0f58\u0f7a\u0f66\u0f0b\u0f58\u0f5a\u0f7c\u0f0b\u0f42\u0fb3\u0f72\u0f44","source":"openstreetmap.org","name:lv":"Ziemsv\u0113tku sala","name:lt":"Kal\u0117d\u0173 sala","name:hi":"\u0915\u094d\u0930\u093f\u0938\u092e\u0938 \u0906\u0908\u0932\u0948\u0902\u0921","name:kk":"\u041a\u0440\u0438\u0441\u0442\u043c\u0430\u0441 \u0430\u0440\u0430\u043b\u044b","name:sv":"Jul\u00f6n","name:he":"\u05d0\u05d9\u05d9 \u05db\u05e8\u05d9\u05e1\u05d8\u05de\u05e1","kind":"region","name:ur":"\u06a9\u0631\u0633\u0645\u0633 \u0622\u0626\u0644\u06cc\u0646\u0688","name:lb":"Chr\u00ebschtdagsinsel","name:uk":"\u041e\u0441\u0442\u0440\u0456\u0432 \u0420\u0456\u0437\u0434\u0432\u0430","min_zoom":4.0,"name:hu":"Kar\u00e1csony-sziget","name:ln":"Esenga ya Mb\u00f3tama","name:lo":"\u0ec0\u0e81\u0eb2\u0eb0\u0e84\u0ea3\u0eb4\u0eaa\u0ea1\u0eb2\u0e94","name:el":"\u039d\u03ae\u03c3\u03bf\u03c2 \u03c4\u03c9\u03bd \u03a7\u03c1\u03b9\u03c3\u03c4\u03bf\u03c5\u03b3\u03ad\u03bd\u03bd\u03c9\u03bd","name:eo":"Kristnaskinsulo","name":"Christmas Island","name:ee":"Kristmas \u0192udomekpo nutome","name:th":"\u0e40\u0e01\u0e32\u0e30\u0e04\u0e23\u0e34\u0e2a\u0e15\u0e4c\u0e21\u0e32\u0e2a","name:eu":"Christmas uhartea","name:et":"J\u00f5ulusaar","name:nl":"Christmaseiland","name:es":"Isla de Navidad","name:ia":"Insula de Natal","name:rm":"Insla da Christmas","name:az":"\u00c7ristmas Adas\u0131","name:id":"Pulau Natal","name:ms":"Pulau Krismas","name:mr":"\u0915\u094d\u0930\u093f\u0938\u092e\u0938 \u0926\u094d\u0935\u0940\u092a","name:ar":"\u062c\u0632\u064a\u0631\u0629 \u0627\u0644\u0645\u064a\u0644\u0627\u062f","name:my":"\u1001\u101b\u1005\u103a\u1005\u1019\u1010\u103a \u1000\u103b\u103d\u1014\u103a\u1038","official_name":"Territory of Christmas Island","name:is":"J\u00f3laeyja","name:am":"\u12e8\u1308\u1293 \u12f0\u1234\u1275","name:it":"Isola del Natale","name:ml":"\u0d15\u0d4d\u0d30\u0d3f\u0d38\u0d4d\u0d2e\u0d38\u0d4d \u0d26\u0d4d\u0d35\u0d40\u0d2a\u0d4d","name:ru":"\u041e\u0441\u0442\u0440\u043e\u0432 \u0420\u043e\u0436\u0434\u0435\u0441\u0442\u0432\u0430","name:mn":"\u0417\u0443\u043b \u0421\u0430\u0440\u044b\u043d \u0410\u0440\u0430\u043b","id":433483523,"name:mk":"\u0411\u043e\u0436\u0438\u045c\u043d\u0438 \u041e\u0441\u0442\u0440\u043e\u0432\u0438","name:af":"Christmas-eiland","name:zu":"i-Christmas Island","name:nn":"Christmas\u00f8ya","kind_detail":"state","name:no":"Christmas\u00f8ya","name:fo":"J\u00f3laoyggjin","alt_name:vi":"\u0110\u1ea3o Christmas","name:fr":"\u00cele Christmas","name:fy":"Krysteil\u00e2n","name:zh":"\u5723\u8bde\u5c9b","name:sl":"Bo\u017ei\u010dni otoki","name:sk":"Viano\u010dn\u00fd ostrov","name:ja":"\u30af\u30ea\u30b9\u30de\u30b9\u5cf6","name:si":"\u0d9a\u0dca\u200d\u0dbb\u0dd2\u0dc3\u0dca\u0da7\u0dca\u0db8\u0dc3\u0dca \u0daf\u0dd6\u0db4\u0dad\u0dca","name:sh":"Bo\u017ei\u0107ni otok","name:se":"Juovllat-sullot","name:ne":"\u0915\u094d\u0930\u093f\u0937\u094d\u091f\u092e\u0938 \u091f\u093e\u092a\u0941","name:br":"Enez Christmas","name:bs":"Bo\u017ei\u0107no ostrvo","name:bn":"\u0995\u09cd\u09b0\u09bf\u09b8\u09ae\u09be\u09b8 \u09a6\u09cd\u09ac\u09c0\u09aa","name:sw":"Kisiwa cha Krismasi","name:be":"\u0412\u043e\u0441\u0442\u0440\u0430\u045e \u0420\u0430\u0436\u0441\u0442\u0432\u0430","name:bg":"\u0420\u043e\u0436\u0434\u0435\u0441\u0442\u0432\u043e","name:wo":"Dunu Christmas","name:sr":"\u0411\u043e\u0436\u0438\u045b\u043d\u043e \u041e\u0441\u0442\u0440\u0432\u043e","name:ga":"Oile\u00e1n na Nollag","name:gd":"Eilean na Nollaig","name:gl":"Illa de Nadal","name:fa":"\u062c\u0632\u06cc\u0631\u0647 \u06a9\u0631\u06cc\u0633\u0645\u0633","name:gu":"\u0a95\u0acd\u0ab0\u0abf\u0ab8\u0aae\u0ab8 \u0a86\u0a87\u0ab2\u0ac7\u0a82\u0aa1","name:fi":"Joulusaari"},"coordinates":[520,2058]}]},"transit":{"type":"GeometryCollection","geometries":[]},"pois":{"type":"GeometryCollection","geometries":[]},"boundaries":{"type":"GeometryCollection","geometries":[]},"roads":{"type":"GeometryCollection","geometries":[]},"earth":{"type":"GeometryCollection","geometries":[{"type":"Polygon","properties":{"sort_rank":10,"source":"naturalearthdata.com","kind":"earth","min_zoom":0.0,"id":1414},"arcs":[[3]]}]},"landuse":{"type":"GeometryCollection","geometries":[]}},"type":"Topology","transform":{"translate":[105.46875,-11.1784018737],"scale":[0.0003433228,0.0003375792]},"arcs":[[[4096,0],[-4096,0],[0,4096],[4096,0],[0,-4096]],[[716,2196],[-30,18],[-55,-28],[-47,-47],[-43,-40],[-80,3],[-58,31],[-37,13],[0,-38],[15,-41],[-21,-53],[-31,-19],[10,-34],[58,19],[67,3],[62,-12],[43,-16],[9,-44],[18,-47],[16,-50],[46,3],[15,34],[-5,73],[24,43],[0,60],[15,72],[3,56],[6,41]],[[686,2214],[-55,-28],[-47,-47],[-43,-40],[-80,3],[-58,31],[-37,13],[0,-38],[15,-41],[-21,-53],[-31,-19],[10,-34],[58,19],[67,3],[62,-12],[43,-16],[9,-44],[18,-47],[16,-50],[46,3],[15,34],[-5,73],[24,43],[0,60],[15,72],[3,56],[6,41],[-30,18]],[[707,2099],[-15,-72],[0,-60],[-24,-43],[5,-73],[-15,-34],[-46,-3],[-16,50],[-18,47],[-9,44],[-43,16],[-62,12],[-67,-3],[-58,-19],[-10,34],[31,19],[21,53],[-15,41],[0,38],[37,-13],[58,-31],[80,-3],[43,40],[47,47],[55,28],[30,-18],[-6,-41],[-3,-56]]]}