{"objects":{"water":{"type":"GeometryCollection","geometries":[{"type":"Polygon","properties":{"source":"naturalearthdata.com","kind":"lake","name":"Lake Peipus","area":10219008000,"sort_rank":200,"min_zoom":0.0,"id":502},"arcs":[[1039],[1040]]},{"type":"Polygon","properties":{"source":"naturalearthdata.com","kind":"lake","name":"Pskoyskoye Ozero","area":2952729344,"sort_rank":200,"min_zoom":0.0,"id":495},"arcs":[[1041]]},{"type":"MultiPolygon","properties":{"source":"naturalearthdata.com","kind":"ocean","area":1576712559132672,"sort_rank":200,"min_zoom":0.0,"id":1},"arcs":[[[1042],[1043],[1044],[1045]]]},{"type":"MultiPolygon","properties":{"sort_rank":200,"source":"naturalearthdata.com","min_zoom":0.0,"kind":"lake","area":14096959565},"arcs":[[[1046]],[[1047]],[[1048]]]},{"type":"Polygon","properties":{"source":"naturalearthdata.com","kind":"lake","name":"V\u00f5rtsj\u00e4rv","area":994452864,"sort_rank":200,"min_zoom":0.0,"id":587},"arcs":[[1049]]},{"type":"Point","properties":{"label_placement":true,"kind":"lake","name":"Lake Peipus","area":10219008000,"sort_rank":200,"source":"naturalearthdata.com","min_zoom":0.0,"id":502},"coordinates":[3634,3846]},{"type":"Point","properties":{"label_placement":true,"kind":"lake","name":"Pskoyskoye Ozero","area":2952729344,"sort_rank":200,"source":"naturalearthdata.com","min_zoom":0.0,"id":495},"coordinates":[3892,3063]},{"type":"Point","properties":{"label_placement":true,"kind":"lake","name":"V\u00f5rtsj\u00e4rv","area":994452864,"sort_rank":200,"source":"naturalearthdata.com","min_zoom":0.0,"id":587},"coordinates":[2590,3349]},{"type":"LineString","properties":{"source":"naturalearthdata.com","kind":"ocean","sort_rank":205,"boundary":true,"min_zoom":0.0,"id":49},"arcs":[1050]},{"type":"MultiLineString","properties":{"source":"naturalearthdata.com","kind":"lake","sort_rank":367,"boundary":true,"min_zoom":0.0,"id":495},"arcs":[[1051],[1052]]},{"type":"MultiLineString","properties":{"source":"naturalearthdata.com","kind":"lake","sort_rank":367,"boundary":true,"min_zoom":0.0,"id":502},"arcs":[[1053],[1054],[1055]]},{"type":"LineString","properties":{"source":"naturalearthdata.com","kind":"lake","sort_rank":367,"boundary":true,"min_zoom":0.0,"id":587},"arcs":[1056]},{"type":"LineString","properties":{"source":"naturalearthdata.com","kind":"lake","sort_rank":367,"boundary":true,"min_zoom":0.0,"id":1031},"arcs":[1057]},{"type":"LineString","properties":{"source":"naturalearthdata.com","kind":"lake","sort_rank":367,"boundary":true,"min_zoom":0.0,"id":1033},"arcs":[1058]},{"type":"LineString","properties":{"source":"naturalearthdata.com","kind":"lake","sort_rank":367,"boundary":true,"min_zoom":0.0,"id":1034},"arcs":[1059]},{"type":"LineString","properties":{"source":"naturalearthdata.com","kind":"ocean","sort_rank":205,"boundary":true,"min_zoom":0.0,"id":1986},"arcs":[1060]},{"type":"LineString","properties":{"source":"naturalearthdata.com","kind":"ocean","sort_rank":205,"boundary":true,"min_zoom":0.0,"id":1987},"arcs":[1061]},{"type":"MultiLineString","properties":{"source":"naturalearthdata.com","kind":"ocean","sort_rank":205,"boundary":true,"min_zoom":0.0,"id":1988},"arcs":[[1062],[1063]]},{"type":"MultiLineString","properties":{"source":"naturalearthdata.com","kind":"ocean","sort_rank":205,"boundary":true,"min_zoom":0.0,"id":1989},"arcs":[[1064],[1065]]},{"type":"LineString","properties":{"source":"naturalearthdata.com","kind":"ocean","sort_rank":205,"boundary":true,"min_zoom":0.0,"id":3456},"arcs":[1066]}]},"buildings":{"type":"GeometryCollection","geometries":[]},"places":{"type":"GeometryCollection","geometries":[{"type":"Point","properties":{"name:pt":"Let\u00f4nia","name:cy":"Latfia","name:mt":"Latvja","name:ko":"\ub77c\ud2b8\ube44\uc544","name:kn":"\u0cb2\u0cbe\u0c9f\u0ccd\u0cb5\u0cbf\u0caf\u0cbe","name:km":"\u17a1\u17b6\u178f\u179c\u17b8\u1799\u17c9\u17b6","name:kl":"Letlandi","name:cs":"Loty\u0161sko","alt_name:eo":"Latvio","name:ki":"Lativia","name:ku":"Letonya","name:ti":"\u120b\u1275\u126a\u12eb","name:ks":"\u0644\u06cc\u065b\u0679\u0648\u0650\u06cc\u0627","name:to":"Lativia","name:sv":"Lettland","name:or":"\u0b32\u0b3e\u0b1f\u0b2d\u0b3f\u0b06","name:pl":"\u0141otwa","name:ta":"\u0bb2\u0bbe\u0b9f\u0bcd\u0bb5\u0bbf\u0baf\u0bbe","name:tg":"\u041b\u0430\u0442\u0432\u0438\u044f","name:ca":"Let\u00f2nia","name:te":"\u0c32\u0c3e\u0c1f\u0c4d\u0c35\u0c3f\u0c2f","name:hu":"Lettorsz\u00e1g","name:ka":"\u10da\u10d0\u10e2\u10d5\u10d8\u10d0","name:da":"Letland","name:de":"Lettland","name:dz":"\u0f63\u0f4a\u0f0b\u0f56\u0f72\u0f0b\u0f61","source":"openstreetmap.org","name:ro":"Letonia","name:tr":"Letonya","name:uz":"Latviya","name:kk":"\u041b\u0430\u0442\u0432\u0438\u044f","name:he":"\u05dc\u05d8\u05d1\u05d9\u05d4","kind":"country","name:ur":"\u0644\u0679\u0648\u06cc\u0627","name:lb":"Lettland","name:la":"Latvia","name:lg":"Lativya","name:uk":"\u041b\u0430\u0442\u0432\u0456\u044f","name:hy":"\u053c\u0561\u057f\u057e\u056b\u0561","min_zoom":2.0,"name:li":"Letland","name:ln":"Letoni","name:lo":"\u0ea5\u0ebc\u0eb2\u0e94\u0ec0\u0ea7\u0e8d","population":2027000,"name:el":"\u039b\u03b5\u03c4\u03c4\u03bf\u03bd\u03af\u03b1","name:eo":"Latvujo","name:en":"Latvia","name":"Latvija","official_name":"Latvijas Republika","name:ee":"Latvia nutome","name:th":"\u0e1b\u0e23\u0e30\u0e40\u0e17\u0e28\u0e25\u0e31\u0e15\u0e40\u0e27\u0e35\u0e22","name:gu":"\u0ab2\u0abe\u0aa4\u0acd\u0ab5\u0abf\u0aaf\u0abe","name:eu":"Letonia","name:et":"L\u00e4ti","name:nl":"Letland","name:es":"Letonia","name:ia":"Lettonia","name:rm":"Lettonia","name:rn":"Lativa","name:az":"Latviya","name:id":"Latvia","name:ms":"Latvia","name:mr":"\u0932\u093e\u091f\u094d\u200c\u0935\u093f\u092f\u093e","name:ar":"\u0644\u0627\u062a\u0641\u064a\u0627","name:my":"\u101c\u1010\u103a\u1017\u102e\u1038\u101a\u102c\u1038","name:io":"Latvia","int_name":"Latvia","name:is":"Lettland","name:am":"\u120b\u1275\u126a\u12eb","name:it":"Lettonia","name:vi":"Latvia","name:ru":"\u041b\u0430\u0442\u0432\u0438\u044f","name:mn":"\u041b\u0430\u0442\u0432\u0438","id":432425019,"name:mk":"\u041b\u0430\u0442\u0432\u0438\u0458\u0430","name:af":"Letland","name:zu":"i-Latvia","name:ha":"latibiya","name:nn":"Latvia","name:ff":"Letonii","name:fi":"Latvia","name:hi":"\u0932\u093e\u0924\u094d\u0935\u093f\u092f\u093e","name:mg":"Letonia","name:fo":"Lettland","name:fr":"Lettonie","name:fy":"Letl\u00e2n","name:vo":"Latviy\u00e4n","name:zh":"\u62c9\u8131\u7ef4\u4e9a","name:gv":"Yn Latvey","name:so":"Latfiya","name:sn":"Latvia","name:sk":"Loty\u0161sko","name:ja":"\u30e9\u30c8\u30d3\u30a2","name:si":"\u0dbd\u0dd0\u0da7\u0dca\u0dc0\u0dd2\u0dba\u0dcf\u0dc0","name:fa":"\u0644\u062a\u0648\u0646\u06cc","name:sg":"Leton\u00f9ii","name:se":"L\u00e1tvia","name:ne":"\u0932\u093e\u091f\u094d\u092d\u093f\u092f\u093e","name:br":"Latvia","name:bs":"Letonija","name:bm":"Letoni","name:bn":"\u09b2\u09be\u09a4\u09cd\u09ad\u09bf\u09af\u09bc\u09be","name:bo":"\u0f63\u0f4f\u0f0b\u0f56\u0f72\u0f0b\u0f61\u0f0d","name:ml":"\u0d32\u0d3e\u0d24\u0d4d\u0d35\u0d3f\u0d2f","name:no":"Latvia","name:sw":"Lativia","name:be":"\u041b\u0430\u0442\u0432\u0456\u044f","name:bg":"\u041b\u0430\u0442\u0432\u0438\u044f","name:sr":"\u041b\u0435\u0442\u043e\u043d\u0438\u0458\u0430","name:sq":"Letoni","name:ga":"An Laitvia","name:gd":"An Laitbhe","name:gl":"Letonia","name:yo":"Or\u00edl\u1eb9\u0301\u00e8de Latifia","name:ak":"Latvia"},"coordinates":[1641,1435]},{"type":"Point","properties":{"name:pt":"Est\u00f4nia","name:cy":"Estonia","name:mt":"Estonja","name:ko":"\uc5d0\uc2a4\ud1a0\ub2c8\uc544","name:kn":"\u0c8e\u0cb8\u0ccd\u0ca4\u0cca\u0ca8\u0cbf\u0caf","name:km":"\u17a2\u17c1\u179f\u17d2\u178f\u17bc\u1793\u17b8","name:kl":"Estlandi","name:cs":"Estonsko","alt_name:eo":"Estonio","name:ki":"Estonia","name:tr":"Estonya","name:ku":"Estonya","name:ti":"\u12a4\u1235\u1276\u1292\u12eb","name:ks":"\u0627\u06cc\u0633\u0679\u0648\u0646\u0650\u06cc\u0627","name:to":"\u02bbEsit\u014dnia","name:tl":"Estonya","name:sv":"Estland","name:or":"\u0b0f\u0b38\u0b4d\u0b24\u0b4b\u0b28\u0b3f\u0b06","name:pl":"Estonia","name:ta":"\u0b8e\u0bb8\u0bcd\u0b9f\u0bcb\u0ba9\u0bbf\u0baf\u0bbe","name:ca":"Est\u00f2nia","name:te":"\u0c0e\u0c38\u0c4d\u0c1f\u0c4b\u0c28\u0c3f\u0c2f\u0c3e","name:hu":"\u00c9sztorsz\u00e1g","name:ro":"Estonia","name:ka":"\u10d4\u10e1\u10e2\u10dd\u10dc\u10d4\u10d7\u10d8","name:hr":"Estonija","name:da":"Estland","name:de":"Estland","name:dz":"\u0f68\u0f7a\u0f66\u0f0b\u0f4a\u0f7c\u0f0b\u0f53\u0f72\u0f0b\u0f61","source":"openstreetmap.org","name:lv":"Igaunija","name:lt":"Estija","name:uz":"Estoniya","name:he":"\u05d0\u05e1\u05d8\u05d5\u05e0\u05d9\u05d4","kind":"country","name:ur":"\u0627\u0633\u0679\u0648\u0646\u06cc\u0627","name:lb":"Estland","name:la":"Estonia","name:lg":"Esitoniya","name:uk":"\u0415\u0441\u0442\u043e\u043d\u0456\u044f","name:hy":"\u0537\u057d\u057f\u0578\u0576\u056b\u0561","min_zoom":2.0,"name:li":"Esland","name:ln":"Esitoni","name:lo":"\u0ec0\u0ead\u0eaa\u0ec2\u0e95\u0ec0\u0e99\u0e8d","population":1307605,"name:el":"\u0395\u03c3\u03b8\u03bf\u03bd\u03af\u03b1","name:eo":"Estonujo","name:en":"Estonia","name":"Eesti","official_name":"Eesti Vabariik","name:ee":"Estonia nutome","name:th":"\u0e1b\u0e23\u0e30\u0e40\u0e17\u0e28\u0e40\u0e2d\u0e2a\u0e42\u0e15\u0e40\u0e19\u0e35\u0e22","name:gu":"\u0a8f\u0ab8\u0acd\u0a9f\u0acb\u0aa8\u0abf\u0aaf\u0abe","name:eu":"Estonia","name:nl":"Estland","name:es":"Estonia","name:ia":"Estonia","name:rm":"Estonia","name:rn":"Esitoniya","name:az":"Estoniya","name:id":"Estonia","name:ms":"Estonia","name:mr":"\u090f\u0938\u094d\u091f\u094b\u0928\u093f\u092f\u093e","name:ar":"\u0625\u0633\u062a\u0648\u0646\u064a\u0627","name:my":"\u1021\u1000\u103a\u1005\u1010\u102d\u102f\u1038\u1014\u102e\u1038\u101a\u102c\u1038","name:io":"Estonia","int_name":"Estonia","name:is":"Eistland","name:am":"\u12a4\u1235\u1276\u1292\u12eb","name:it":"Estonia","name:vi":"Estonia","name:ru":"\u042d\u0441\u0442\u043e\u043d\u0438\u044f","name:mn":"\u042d\u0441\u0442\u043e\u043d","id":424313832,"name:mk":"\u0415\u0441\u0442\u043e\u043d\u0438\u0458\u0430","name:af":"Estland","name:zu":"i-Estonia","name:ha":"Estoniya","name:nn":"Estland","name:ff":"Estoni","name:fi":"Viro","name:hi":"\u090f\u0938\u094d\u091f\u094b\u0928\u093f\u092f\u093e","name:mg":"Estonia","name:fo":"Estland","name:fr":"Estonie","name:fy":"Estl\u00e2n","name:vo":"Lestiy\u00e4n","name:zh":"\u7231\u6c99\u5c3c\u4e9a","name:gv":"Yn Estaan","name:so":"Estooniya","name:sn":"Estonia","name:sr":"\u0415\u0441\u0442\u043e\u043d\u0438\u0458\u0430","name:sl":"Estonija","name:sk":"Est\u00f3nsko","name:ja":"\u30a8\u30b9\u30c8\u30cb\u30a2","name:si":"\u0d91\u0dc3\u0dca\u0dad\u0ddd\u0db1\u0dd2\u0dba\u0dcf\u0dc0","name:fa":"\u0627\u0633\u062a\u0648\u0646\u06cc","name:sg":"Eston\u00efi","name:se":"Estl\u00e1nda","name:ne":"\u0907\u0938\u094d\u091f\u094b\u0928\u093f\u092f\u093e","name:br":"Estonia","name:bs":"Estonija","name:bm":"Esetoni","name:bn":"\u098f\u09b8\u09cd\u09a4\u09cb\u09a8\u09bf\u09af\u09bc\u09be","name:bo":"\u0f68\u0f72\u0f66\u0f9f\u0f7c\u0f0b\u0f53\u0f72\u0f0b\u0f61\u0f0d","name:ml":"\u0d0e\u0d38\u0d4d\u0d31\u0d4d\u0d31\u0d4b\u0d23\u0d3f\u0d2f\u200d","name:no":"Estland","name:sw":"Estonia","name:be":"\u042d\u0441\u0442\u043e\u043d\u0456\u044f","name:bg":"\u0415\u0441\u0442\u043e\u043d\u0438\u044f","name:ba":"\u042d\u0441\u0442\u043e\u043d\u0438\u044f","name:sq":"Estoni","name:ga":"An East\u00f3in","name:gd":"East\u00f2inia","name:gl":"Estonia","name:yo":"Or\u00edl\u1eb9\u0301\u00e8de Esitonia","name:ak":"\u0190stonia","name:tt":"\u042d\u0441\u0442\u043e\u043d\u0438\u044f"},"coordinates":[2062,4013]},{"type":"Point","properties":{"kind":"region","name:en":"Panev\u0117\u017eys County","name":"Panev\u0117\u017eio apskritis","kind_detail":"state","min_zoom":4.0,"name:de":"Bezirk Ponewiesch","source":"openstreetmap.org","name:fr":"Apskritis de Panev\u0117\u017eys","name:uk":"\u041f\u0430\u043d\u0435\u0432\u0435\u0436\u0438\u0441\u044c\u043a\u0438\u0439 \u043f\u043e\u0432\u0456\u0442","name:be":"\u041f\u0430\u043d\u044f\u0432\u0435\u0436\u0441\u043a\u0456 \u043f\u0430\u0432\u0435\u0442","name:ru":"\u041f\u0430\u043d\u044f\u0432\u0435\u0436\u0441\u043a\u0438\u0439 \u0443\u0435\u0437\u0434","name:pl":"okr\u0119g poniewieski","id":864663247},"coordinates":[1639,346]},{"type":"Point","properties":{"kind":"region","name:en":"\u0160iauliai County","name":"\u0160iauli\u0173 apskritis","kind_detail":"state","min_zoom":4.0,"name:de":"Bezirk Schaulen","source":"openstreetmap.org","name:fr":"Apskritis de \u0160iauliai","name:uk":"\u0428\u044f\u0443\u043b\u044f\u0439\u0441\u044c\u043a\u0438\u0439 \u043f\u043e\u0432\u0456\u0442","name:be":"\u0428\u0430\u045e\u043b\u044f\u0439\u0441\u043a\u0456 \u043f\u0430\u0432\u0435\u0442","name:ru":"\u0428\u044f\u0443\u043b\u044f\u0439\u0441\u043a\u0438\u0439 \u0443\u0435\u0437\u0434","name:pl":"okr\u0119g szawelski","id":1055351031},"coordinates":[599,58]},{"type":"Point","properties":{"name:ja":"\u30e9\u30c8\u30ac\u30ec","name:ka":"\u10da\u10d0\u10e2\u10d2\u10d0\u10da\u10d8\u10d0","name:ko":"\ub77c\ud2b8\uac08\ub808","name:he":"\u05dc\u05d8\u05d2\u05dc\u05d9\u05d4","min_zoom":4.0,"name:it":"Latgallia","name:uk":"\u041b\u0430\u0442\u0433\u0430\u043b\u0456\u044f","name:be":"\u041b\u0430\u0442\u0433\u0430\u043b\u0456\u044f","name:ru":"\u041b\u0430\u0442\u0433\u0430\u043b\u0438\u044f","name:pl":"\u0141atgalia","name:bg":"\u041b\u0430\u0442\u0433\u0430\u043b\u0435","name:lt":"Latgala","id":1629678533,"kind":"region","name":"Latgale","kind_detail":"state","name:da":"Letgallen","name:de":"Lettgallen","source":"openstreetmap.org","name:fr":"Latgalie"},"coordinates":[3371,600]},{"type":"Point","properties":{"kind":"region","name":"Vidzeme","name:lt":"Vid\u017eem\u0117","kind_detail":"state","min_zoom":4.0,"name:de":"Livland","source":"openstreetmap.org","name:fr":"Livonie","name:uk":"\u0412\u0456\u0434\u0437\u0435\u043c\u0435","name:be":"\u0412\u0456\u0434\u0437\u044d\u043c\u044d","name:ru":"\u0412\u0438\u0434\u0437\u0435\u043c\u0435","name:pl":"Liwonia","name:bg":"\u0412\u0438\u0434\u0437\u0435\u043c\u0435","id":1629678544,"name:ja":"\u30f4\u30a3\u30c9\u30bc\u30e1"},"coordinates":[2305,2054]},{"type":"Point","properties":{"name:pt":"Semigola","name:ja":"\u30bc\u30e0\u30ac\u30ec","name:lt":"\u017diemgala","min_zoom":4.0,"name:it":"Semgallia","name:uk":"\u0417\u0435\u043c\u0433\u0430\u043b\u0435","name:ru":"\u0417\u0435\u043c\u0433\u0430\u043b\u0435","name:sv":"Semgallen","name:pl":"Semigalia","id":1629678548,"kind":"region","name":"Zemgale","kind_detail":"state","name:de":"Semgallen","source":"openstreetmap.org","name:fr":"S\u00e9migalie","name:be":"\u0417\u044d\u043c\u0433\u0430\u043b\u044d","name:es":"Semigalia"},"coordinates":[1745,1121]},{"type":"Point","properties":{"source":"naturalearthdata.com","kind":"locality","name":"Riga","country_capital":true,"population":742572,"min_zoom":5.0,"id":6926},"coordinates":[1165,1583]},{"type":"Point","properties":{"source":"naturalearthdata.com","kind":"locality","name":"Daugavpils","population":111564,"min_zoom":6.0,"id":5813},"coordinates":[2920,139]},{"type":"Point","properties":{"source":"naturalearthdata.com","kind":"locality","name":"Tartu","population":101092,"min_zoom":6.0,"id":5878},"coordinates":[3066,3516]},{"type":"Point","properties":{"source":"naturalearthdata.com","kind":"locality","name":"Parnu","population":44192,"min_zoom":6.0,"id":5905},"coordinates":[1466,3504]}]},"transit":{"type":"GeometryCollection","geometries":[{"type":"MultiLineString","properties":{"distance":"33","kind":"train","name":"Gulbene - Al\u016bksne","sort_rank":275,"source":"openstreetmap.org","min_zoom":6.0,"operator":"SIA \u201eGulbenes - Al\u016bksnes b\u0101n\u012btis\u201c","osm_relation":true},"arcs":[[907],[908]]},{"type":"LineString","properties":{"kind":"train","name":"\u0414\u0440\u0443\u044f - \u0412\u0430\u0440\u0430\u043f\u0430\u0435\u0432\u0430","sort_rank":275,"source":"openstreetmap.org","min_zoom":6.0,"ref":"\u0414\u0440\u0443\u044f - \u0412\u0430\u0440\u0430\u043f\u0430\u0435\u0432\u0430","id":-1642853,"osm_relation":true},"arcs":[909]},{"type":"MultiLineString","properties":{"kind":"train","name":"Edelaraudtee Tallinn <--> Koidula","sort_rank":275,"source":"openstreetmap.org","min_zoom":6.0,"operator":"Edelaraudtee AS","ref":"Tallinn - Koidula","osm_relation":true},"arcs":[[910],[911],[912],[913],[914]]},{"type":"MultiLineString","properties":{"kind":"train","name":"R\u012bga - Minsk","sort_rank":275,"name:de":"Riga - Minsk","source":"openstreetmap.org","min_zoom":6.0,"name:be":"\u0420\u044b\u0433\u0430 \u2014 \u041c\u0456\u043d\u0441\u043a","name:ru":"\u0420\u0438\u0433\u0430 \u2014 \u041c\u0438\u043d\u0441\u043a","ref":"R\u012bga - Minsk","osm_relation":true},"arcs":[[915],[916],[917],[918]]},{"type":"MultiLineString","properties":{"kind":"train","name":"R\u012bga - Valga","sort_rank":275,"name:de":"Riga - Walk","source":"openstreetmap.org","min_zoom":6.0,"operator":"AS \u201ePasa\u017eieru vilciens\u201c","name:ru":"\u0420\u0438\u0433\u0430 - \u0412\u0430\u043b\u0433\u0430","ref":"R\u012bga - Valga","osm_relation":true},"arcs":[[919],[920],[921],[922],[923],[924],[925],[926],[927],[928],[929],[930],[931],[932],[933],[934],[935]]},{"type":"LineString","properties":{"kind":"train","name":"Edelaraudtee Tallinn <--> P\u00e4rnu","sort_rank":275,"source":"openstreetmap.org","min_zoom":6.0,"operator":"Edelaraudtee AS","ref":"Tallinn - P\u00e4rnu","osm_relation":true},"arcs":[936]},{"type":"MultiLineString","properties":{"kind":"train","name":"R\u012bga - Jelgava","sort_rank":275,"name:de":"Riga - Mitau","source":"openstreetmap.org","min_zoom":6.0,"operator":"AS \u201ePasa\u017eieru vilciens\u201c","ref":"R\u012bga-Jelgava Elektrovilciens","osm_relation":true},"arcs":[[937],[938],[939],[940],[941],[942],[943],[944],[945]]},{"type":"MultiLineString","properties":{"kind":"train","name":"Klaip\u0117da - Vilnius","sort_rank":275,"name:de":"Memel - Wilna","source":"openstreetmap.org","min_zoom":6.0,"ref":"Klaip\u0117da - Vilnius","osm_relation":true},"arcs":[[946],[947]]},{"type":"MultiLineString","properties":{"kind":"train","name":"R\u012bga - Tukums","sort_rank":275,"name:de":"Riga - Tuckum","source":"openstreetmap.org","min_zoom":6.0,"operator":"AS \u201ePasa\u017eieru vilciens\u201c","ref":"R\u012bga-Tukums Elektrovilciens","osm_relation":true},"arcs":[[948],[949],[950],[951],[952],[953],[954],[955],[956],[957],[958],[959],[960],[961],[962],[963],[964],[965],[966],[967]]},{"type":"MultiLineString","properties":{"kind":"train","name":"R\u012bga-Skulte","sort_rank":275,"name:de":"Riga-Adiam\u00fcnde","source":"openstreetmap.org","min_zoom":6.0,"operator":"AS \u201ePasa\u017eieru vilciens\u201c","ref":"R\u012bga-Skulte Elektrovilciens","osm_relation":true},"arcs":[[968],[969],[970],[971],[972],[973],[974],[975],[976],[977],[978],[979],[980],[981],[982],[983],[984],[985],[986],[987]]},{"type":"MultiLineString","properties":{"kind":"train","name":"R\u012bga - Aizkraukle","sort_rank":275,"name:de":"Riga - Ascheraden","source":"openstreetmap.org","min_zoom":6.0,"operator":"AS \u201ePasa\u017eieru vilciens\u201c","ref":"R\u012bga-Aizkraukle Elektrovilciens","osm_relation":true},"arcs":[[988],[989],[990],[991],[992],[993],[994],[995]]},{"type":"MultiLineString","properties":{"kind":"train","name":"Edelaraudtee Tallinn <--> Valga","sort_rank":275,"source":"openstreetmap.org","min_zoom":6.0,"operator":"Edelaraudtee AS","ref":"Tallinn - Valga","osm_relation":true},"arcs":[[996],[997],[998],[999]]},{"type":"MultiLineString","properties":{"distance":"33","kind":"train","name":"Al\u016bksne - Gulbene","sort_rank":275,"source":"openstreetmap.org","min_zoom":6.0,"operator":"SIA \u201eGulbenes - Al\u016bksnes b\u0101n\u012btis\u201c","osm_relation":true},"arcs":[[1000],[1001]]},{"type":"MultiLineString","properties":{"kind":"train","name:en":"Riga - Moscow","name":"R\u012bga - Maskava","sort_rank":275,"name:de":"Riga - Moskau","source":"openstreetmap.org","min_zoom":6.0,"name:ru":"\u0420\u0438\u0433\u0430 - \u041c\u043e\u0441\u043a\u0432\u0430","ref":"R\u012bga - Maskava","osm_relation":true},"arcs":[[1002],[1003],[1004],[1005]]},{"type":"LineString","properties":{"kind":"train","name":"Edelaraudtee Piusa <--> Koidula","sort_rank":275,"source":"openstreetmap.org","min_zoom":6.0,"operator":"Edelaraudtee AS","ref":"Piusa - Koidula","id":-2211293,"osm_relation":true},"arcs":[1006]},{"type":"MultiLineString","properties":{"kind":"train","name":"Edelaraudtee Tallinn <--> Viljandi","sort_rank":275,"source":"openstreetmap.org","min_zoom":6.0,"operator":"Edelaraudtee AS","ref":"Tallinn - Viljandi","osm_relation":true},"arcs":[[1007],[1008]]},{"type":"MultiLineString","properties":{"kind":"train","network":"Latvijas Dzelzce\u013c\u0161","sort_rank":275,"source":"openstreetmap.org","min_zoom":6.0,"operator":"AS \u201ePasa\u017eieru vilciens\u201c","osm_relation":true,"name":"R\u012bga - Sigulda"},"arcs":[[1009],[1010],[1011],[1012],[1013],[1014],[1015],[1016],[1017],[1018],[1019],[1020],[1021],[1022],[1023]]},{"type":"LineString","properties":{"source":"openstreetmap.org","kind":"train","name":"\u0413\u0434\u043e\u0432 - \u0421\u0430\u043d\u043a\u0442-\u041f\u0435\u0442\u0435\u0440\u0431\u0443\u0440\u0433","sort_rank":275,"ref":"\u0413\u0434\u043e\u0432 - \u0421\u0430\u043d\u043a\u0442-\u041f\u0435\u0442\u0435\u0440\u0431\u0443\u0440\u0433","min_zoom":6.0,"osm_relation":true},"arcs":[1024]},{"type":"MultiLineString","properties":{"kind":"train","name":"R\u012bga - Liep\u0101ja","sort_rank":275,"name:de":"Riga - Libau","source":"openstreetmap.org","min_zoom":6.0,"operator":"AS \u201ePasa\u017eieru vilciens\u201c","ref":"R\u012bga - Liep\u0101ja","osm_relation":true},"arcs":[[1025],[1026],[1027],[1028],[1029],[1030],[1031],[1032],[1033],[1034]]},{"type":"MultiLineString","properties":{"kind":"train","name":"R\u012bga - Sanktp\u0113terburga","sort_rank":275,"name:de":"Riga - Sankt Petersburg","source":"openstreetmap.org","min_zoom":6.0,"ref":"R\u012bga - Sanktp\u0113terburga","osm_relation":true},"arcs":[[1035],[1036],[1037],[1038]]}]},"pois":{"type":"GeometryCollection","geometries":[{"type":"Point","properties":{"kind":"national_park","name:en":"\u0136emeri National Park","protect_class":"2","area":1277180000,"name:de":"Nationalpark \u0136emeri","source":"openstreetmap.org","min_zoom":5.63,"tier":1,"name:ru":"\u041d\u0430\u0446\u0438\u043e\u043d\u0430\u043b\u044c\u043d\u044b\u0439 \u043f\u0430\u0440\u043a \u041a\u0435\u043c\u0435\u0440\u0438","id":206559717,"name":"\u0136emeru nacion\u0101lais parks"},"coordinates":[723,1546]},{"type":"Point","properties":{"kind":"nature_reserve","name:en":"Remdovsky Reserve","protect_class":"4","area":2757620000,"source":"openstreetmap.org","min_zoom":6.58,"tier":2,"id":476973338,"name":"\u0420\u0435\u043c\u0434\u043e\u0432\u0441\u043a\u0438\u0439 \u0437\u0430\u043a\u0430\u0437\u043d\u0438\u043a"},"coordinates":[3881,3315]}]},"boundaries":{"type":"GeometryCollection","geometries":[{"type":"MultiLineString","properties":{"source":"naturalearthdata.com","kind":"country","sort_rank":262,"kind_detail":"2","min_zoom":0.0,"id":62},"arcs":[[0],[1],[2],[3],[4]]},{"type":"MultiLineString","properties":{"source":"naturalearthdata.com","kind":"country","sort_rank":262,"kind_detail":"2","min_zoom":0.0,"id":234},"arcs":[[5],[6],[7],[8],[9],[10]]},{"type":"MultiLineString","properties":{"source":"naturalearthdata.com","kind":"country","sort_rank":262,"kind_detail":"2","min_zoom":0.0,"id":61},"arcs":[[11],[12],[13],[14],[15],[16],[17],[18],[19],[20],[21],[22],[23],[24],[25],[26],[27],[28],[29],[30],[31],[32]]},{"type":"MultiLineString","properties":{"source":"naturalearthdata.com","kind":"country","sort_rank":262,"kind_detail":"2","min_zoom":0.0,"id":63},"arcs":[[33],[34],[35],[36],[37],[38],[39],[40],[41],[42],[43],[44],[45],[46],[47],[48],[49],[50],[51],[52],[53],[54]]},{"type":"LineString","properties":{"source":"naturalearthdata.com","kind":"country","sort_rank":262,"kind_detail":"2","min_zoom":0.0,"id":398},"arcs":[55]},{"type":"MultiLineString","properties":{"source":"naturalearthdata.com","kind":"region","sort_rank":256,"kind_detail":"4","min_zoom":6.7,"id":2469},"arcs":[[56],[57],[58]]},{"type":"LineString","properties":{"source":"naturalearthdata.com","kind":"region","sort_rank":256,"kind_detail":"4","min_zoom":6.8,"id":3284},"arcs":[59]},{"type":"MultiLineString","properties":{"source":"naturalearthdata.com","kind":"macroregion","sort_rank":257,"kind_detail":"3","min_zoom":6.7,"id":3301},"arcs":[[60],[61]]},{"type":"LineString","properties":{"source":"naturalearthdata.com","kind":"macroregion","sort_rank":257,"kind_detail":"3","min_zoom":6.7,"id":3319},"arcs":[62]},{"type":"LineString","properties":{"source":"naturalearthdata.com","kind":"region","sort_rank":256,"kind_detail":"4","min_zoom":6.8,"id":3344},"arcs":[63]},{"type":"LineString","properties":{"source":"naturalearthdata.com","kind":"macroregion","sort_rank":257,"kind_detail":"3","min_zoom":6.7,"id":3366},"arcs":[64]},{"type":"MultiLineString","properties":{"source":"naturalearthdata.com","kind":"region","sort_rank":256,"kind_detail":"4","min_zoom":6.8,"id":3371},"arcs":[[65],[66],[67]]},{"type":"LineString","properties":{"source":"naturalearthdata.com","kind":"region","sort_rank":256,"kind_detail":"4","min_zoom":6.8,"id":3372},"arcs":[68]},{"type":"LineString","properties":{"source":"naturalearthdata.com","kind":"macroregion","sort_rank":257,"kind_detail":"3","min_zoom":6.7,"id":3373},"arcs":[69]},{"type":"LineString","properties":{"source":"naturalearthdata.com","kind":"region","sort_rank":256,"kind_detail":"4","min_zoom":6.8,"id":4020},"arcs":[70]},{"type":"LineString","properties":{"source":"naturalearthdata.com","kind":"region","sort_rank":256,"kind_detail":"4","min_zoom":6.8,"id":9390},"arcs":[71]},{"type":"MultiLineString","properties":{"source":"naturalearthdata.com","kind":"region","sort_rank":256,"kind_detail":"4","min_zoom":6.8,"id":9394},"arcs":[[72],[73]]},{"type":"LineString","properties":{"source":"naturalearthdata.com","kind":"region","sort_rank":256,"kind_detail":"4","min_zoom":6.8,"id":175},"arcs":[74]},{"type":"MultiLineString","properties":{"source":"naturalearthdata.com","kind":"region","sort_rank":256,"kind_detail":"4","min_zoom":6.8,"id":3265},"arcs":[[75],[76]]},{"type":"MultiLineString","properties":{"source":"naturalearthdata.com","kind":"region","sort_rank":256,"kind_detail":"4","min_zoom":6.7,"id":3188},"arcs":[[77],[78],[79],[80],[81],[82],[83],[84],[85]]},{"type":"MultiLineString","properties":{"source":"naturalearthdata.com","kind":"region","sort_rank":256,"kind_detail":"4","min_zoom":6.7,"id":3190},"arcs":[[86],[87],[88],[89],[90]]},{"type":"LineString","properties":{"source":"naturalearthdata.com","kind":"region","sort_rank":256,"kind_detail":"4","min_zoom":6.8,"id":3307},"arcs":[91]},{"type":"LineString","properties":{"source":"naturalearthdata.com","kind":"region","sort_rank":256,"kind_detail":"4","min_zoom":6.8,"id":3264},"arcs":[92]},{"type":"LineString","properties":{"source":"naturalearthdata.com","kind":"region","sort_rank":256,"kind_detail":"4","min_zoom":6.8,"id":3224},"arcs":[93]},{"type":"LineString","properties":{"source":"naturalearthdata.com","kind":"region","sort_rank":256,"kind_detail":"4","min_zoom":6.8,"id":3225},"arcs":[94]},{"type":"MultiLineString","properties":{"source":"naturalearthdata.com","kind":"macroregion","sort_rank":257,"kind_detail":"3","min_zoom":6.7,"id":3226},"arcs":[[95],[96],[97],[98],[99],[100],[101],[102]]},{"type":"MultiLineString","properties":{"source":"naturalearthdata.com","kind":"macroregion","sort_rank":257,"kind_detail":"3","min_zoom":6.7,"id":3227},"arcs":[[103],[104],[105],[106]]},{"type":"LineString","properties":{"source":"naturalearthdata.com","kind":"region","sort_rank":256,"kind_detail":"4","min_zoom":6.8,"id":3228},"arcs":[107]},{"type":"MultiLineString","properties":{"source":"naturalearthdata.com","kind":"region","sort_rank":256,"kind_detail":"4","min_zoom":6.8,"id":3229},"arcs":[[108],[109],[110],[111],[112],[113]]},{"type":"LineString","properties":{"source":"naturalearthdata.com","kind":"region","sort_rank":256,"kind_detail":"4","min_zoom":6.8,"id":3230},"arcs":[114]},{"type":"LineString","properties":{"source":"naturalearthdata.com","kind":"region","sort_rank":256,"kind_detail":"4","min_zoom":6.8,"id":3231},"arcs":[115]},{"type":"LineString","properties":{"source":"naturalearthdata.com","kind":"region","sort_rank":256,"kind_detail":"4","min_zoom":6.8,"id":3232},"arcs":[116]},{"type":"MultiLineString","properties":{"source":"naturalearthdata.com","kind":"region","sort_rank":256,"kind_detail":"4","min_zoom":6.8,"id":3233},"arcs":[[117],[118],[119],[120],[121],[122],[123]]},{"type":"MultiLineString","properties":{"source":"naturalearthdata.com","kind":"macroregion","sort_rank":257,"kind_detail":"3","min_zoom":6.7,"id":3234},"arcs":[[124],[125],[126],[127],[128]]},{"type":"LineString","properties":{"source":"naturalearthdata.com","kind":"macroregion","sort_rank":257,"kind_detail":"3","min_zoom":6.7,"id":3235},"arcs":[129]},{"type":"MultiLineString","properties":{"source":"naturalearthdata.com","kind":"macroregion","sort_rank":257,"kind_detail":"3","min_zoom":6.7,"id":3236},"arcs":[[130],[131],[132],[133],[134],[135],[136]]},{"type":"MultiLineString","properties":{"source":"naturalearthdata.com","kind":"macroregion","sort_rank":257,"kind_detail":"3","min_zoom":6.7,"id":3237},"arcs":[[137],[138],[139],[140],[141]]},{"type":"MultiLineString","properties":{"source":"naturalearthdata.com","kind":"region","sort_rank":256,"kind_detail":"4","min_zoom":6.8,"id":3238},"arcs":[[142],[143],[144],[145],[146],[147],[148]]},{"type":"LineString","properties":{"source":"naturalearthdata.com","kind":"region","sort_rank":256,"kind_detail":"4","min_zoom":6.8,"id":3239},"arcs":[149]},{"type":"MultiLineString","properties":{"source":"naturalearthdata.com","kind":"region","sort_rank":256,"kind_detail":"4","min_zoom":6.8,"id":3240},"arcs":[[150],[151],[152],[153],[154]]},{"type":"MultiLineString","properties":{"source":"naturalearthdata.com","kind":"region","sort_rank":256,"kind_detail":"4","min_zoom":6.8,"id":3241},"arcs":[[155],[156],[157],[158],[159],[160]]},{"type":"MultiLineString","properties":{"source":"naturalearthdata.com","kind":"region","sort_rank":256,"kind_detail":"4","min_zoom":6.8,"id":3242},"arcs":[[161],[162],[163],[164],[165],[166]]},{"type":"LineString","properties":{"source":"naturalearthdata.com","kind":"region","sort_rank":256,"kind_detail":"4","min_zoom":6.8,"id":3243},"arcs":[167]},{"type":"MultiLineString","properties":{"source":"naturalearthdata.com","kind":"macroregion","sort_rank":257,"kind_detail":"3","min_zoom":6.7,"id":3244},"arcs":[[168],[169],[170]]},{"type":"LineString","properties":{"source":"naturalearthdata.com","kind":"macroregion","sort_rank":257,"kind_detail":"3","min_zoom":6.7,"id":3245},"arcs":[171]},{"type":"MultiLineString","properties":{"source":"naturalearthdata.com","kind":"region","sort_rank":256,"kind_detail":"4","min_zoom":6.8,"id":3246},"arcs":[[172],[173],[174]]},{"type":"MultiLineString","properties":{"source":"naturalearthdata.com","kind":"region","sort_rank":256,"kind_detail":"4","min_zoom":6.8,"id":3247},"arcs":[[175],[176],[177],[178],[179],[180],[181]]},{"type":"MultiLineString","properties":{"source":"naturalearthdata.com","kind":"region","sort_rank":256,"kind_detail":"4","min_zoom":6.8,"id":3248},"arcs":[[182],[183],[184],[185],[186],[187],[188]]},{"type":"LineString","properties":{"source":"naturalearthdata.com","kind":"macroregion","sort_rank":257,"kind_detail":"3","min_zoom":6.7,"id":3249},"arcs":[189]},{"type":"LineString","properties":{"source":"naturalearthdata.com","kind":"macroregion","sort_rank":257,"kind_detail":"3","min_zoom":6.7,"id":3250},"arcs":[190]},{"type":"LineString","properties":{"source":"naturalearthdata.com","kind":"region","sort_rank":256,"kind_detail":"4","min_zoom":6.8,"id":3251},"arcs":[191]},{"type":"LineString","properties":{"source":"naturalearthdata.com","kind":"region","sort_rank":256,"kind_detail":"4","min_zoom":6.8,"id":3252},"arcs":[192]},{"type":"LineString","properties":{"source":"naturalearthdata.com","kind":"region","sort_rank":256,"kind_detail":"4","min_zoom":6.8,"id":3253},"arcs":[193]},{"type":"LineString","properties":{"source":"naturalearthdata.com","kind":"region","sort_rank":256,"kind_detail":"4","min_zoom":6.8,"id":3254},"arcs":[194]},{"type":"MultiLineString","properties":{"source":"naturalearthdata.com","kind":"region","sort_rank":256,"kind_detail":"4","min_zoom":6.8,"id":3255},"arcs":[[195],[196],[197]]},{"type":"LineString","properties":{"source":"naturalearthdata.com","kind":"region","sort_rank":256,"kind_detail":"4","min_zoom":6.8,"id":3256},"arcs":[198]},{"type":"LineString","properties":{"source":"naturalearthdata.com","kind":"region","sort_rank":256,"kind_detail":"4","min_zoom":6.8,"id":3257},"arcs":[199]},{"type":"LineString","properties":{"source":"naturalearthdata.com","kind":"region","sort_rank":256,"kind_detail":"4","min_zoom":6.8,"id":3258},"arcs":[200]},{"type":"LineString","properties":{"source":"naturalearthdata.com","kind":"region","sort_rank":256,"kind_detail":"4","min_zoom":6.8,"id":3259},"arcs":[201]},{"type":"MultiLineString","properties":{"source":"naturalearthdata.com","kind":"region","sort_rank":256,"kind_detail":"4","min_zoom":6.8,"id":3260},"arcs":[[202],[203]]},{"type":"LineString","properties":{"source":"naturalearthdata.com","kind":"region","sort_rank":256,"kind_detail":"4","min_zoom":6.8,"id":3261},"arcs":[204]},{"type":"MultiLineString","properties":{"source":"naturalearthdata.com","kind":"region","sort_rank":256,"kind_detail":"4","min_zoom":6.8,"id":3262},"arcs":[[205],[206]]},{"type":"MultiLineString","properties":{"source":"naturalearthdata.com","kind":"region","sort_rank":256,"kind_detail":"4","min_zoom":6.8,"id":3263},"arcs":[[207],[208]]},{"type":"MultiLineString","properties":{"source":"naturalearthdata.com","kind":"region","sort_rank":256,"kind_detail":"4","min_zoom":6.8,"id":3266},"arcs":[[209],[210],[211]]},{"type":"MultiLineString","properties":{"source":"naturalearthdata.com","kind":"region","sort_rank":256,"kind_detail":"4","min_zoom":6.8,"id":3267},"arcs":[[212],[213],[214]]},{"type":"LineString","properties":{"source":"naturalearthdata.com","kind":"region","sort_rank":256,"kind_detail":"4","min_zoom":6.7,"id":3268},"arcs":[215]},{"type":"LineString","properties":{"source":"naturalearthdata.com","kind":"macroregion","sort_rank":257,"kind_detail":"3","min_zoom":6.7,"id":3269},"arcs":[216]},{"type":"LineString","properties":{"source":"naturalearthdata.com","kind":"macroregion","sort_rank":257,"kind_detail":"3","min_zoom":6.7,"id":3270},"arcs":[217]},{"type":"MultiLineString","properties":{"source":"naturalearthdata.com","kind":"macroregion","sort_rank":257,"kind_detail":"3","min_zoom":6.7,"id":3271},"arcs":[[218],[219],[220]]},{"type":"LineString","properties":{"source":"naturalearthdata.com","kind":"macroregion","sort_rank":257,"kind_detail":"3","min_zoom":6.7,"id":3272},"arcs":[221]},{"type":"LineString","properties":{"source":"naturalearthdata.com","kind":"macroregion","sort_rank":257,"kind_detail":"3","min_zoom":6.7,"id":3273},"arcs":[222]},{"type":"MultiLineString","properties":{"source":"naturalearthdata.com","kind":"region","sort_rank":256,"kind_detail":"4","min_zoom":6.8,"id":3274},"arcs":[[223],[224],[225],[226]]},{"type":"LineString","properties":{"source":"naturalearthdata.com","kind":"region","sort_rank":256,"kind_detail":"4","min_zoom":6.8,"id":3275},"arcs":[227]},{"type":"LineString","properties":{"source":"naturalearthdata.com","kind":"region","sort_rank":256,"kind_detail":"4","min_zoom":6.8,"id":3276},"arcs":[228]},{"type":"MultiLineString","properties":{"source":"naturalearthdata.com","kind":"region","sort_rank":256,"kind_detail":"4","min_zoom":6.8,"id":3277},"arcs":[[229],[230],[231],[232],[233],[234],[235],[236],[237]]},{"type":"MultiLineString","properties":{"source":"naturalearthdata.com","kind":"region","sort_rank":256,"kind_detail":"4","min_zoom":6.8,"id":3278},"arcs":[[238],[239],[240]]},{"type":"MultiLineString","properties":{"source":"naturalearthdata.com","kind":"region","sort_rank":256,"kind_detail":"4","min_zoom":6.8,"id":3279},"arcs":[[241],[242],[243],[244]]},{"type":"MultiLineString","properties":{"source":"naturalearthdata.com","kind":"region","sort_rank":256,"kind_detail":"4","min_zoom":6.8,"id":3280},"arcs":[[245],[246],[247],[248]]},{"type":"MultiLineString","properties":{"source":"naturalearthdata.com","kind":"macroregion","sort_rank":257,"kind_detail":"3","min_zoom":6.7,"id":3281},"arcs":[[249],[250],[251]]},{"type":"MultiLineString","properties":{"source":"naturalearthdata.com","kind":"macroregion","sort_rank":257,"kind_detail":"3","min_zoom":6.7,"id":3282},"arcs":[[252],[253],[254],[255],[256],[257]]},{"type":"MultiLineString","properties":{"source":"naturalearthdata.com","kind":"region","sort_rank":256,"kind_detail":"4","min_zoom":6.8,"id":3283},"arcs":[[258],[259],[260],[261],[262],[263]]},{"type":"MultiLineString","properties":{"source":"naturalearthdata.com","kind":"region","sort_rank":256,"kind_detail":"4","min_zoom":6.8,"id":3285},"arcs":[[264],[265]]},{"type":"MultiLineString","properties":{"source":"naturalearthdata.com","kind":"region","sort_rank":256,"kind_detail":"4","min_zoom":6.8,"id":3286},"arcs":[[266],[267],[268],[269]]},{"type":"MultiLineString","properties":{"source":"naturalearthdata.com","kind":"region","sort_rank":256,"kind_detail":"4","min_zoom":6.8,"id":3287},"arcs":[[270],[271]]},{"type":"LineString","properties":{"source":"naturalearthdata.com","kind":"region","sort_rank":256,"kind_detail":"4","min_zoom":6.8,"id":3288},"arcs":[272]},{"type":"LineString","properties":{"source":"naturalearthdata.com","kind":"region","sort_rank":256,"kind_detail":"4","min_zoom":6.8,"id":3289},"arcs":[273]},{"type":"LineString","properties":{"source":"naturalearthdata.com","kind":"macroregion","sort_rank":257,"kind_detail":"3","min_zoom":6.7,"id":3290},"arcs":[274]},{"type":"MultiLineString","properties":{"source":"naturalearthdata.com","kind":"macroregion","sort_rank":257,"kind_detail":"3","min_zoom":6.7,"id":3291},"arcs":[[275],[276]]},{"type":"MultiLineString","properties":{"source":"naturalearthdata.com","kind":"macroregion","sort_rank":257,"kind_detail":"3","min_zoom":6.7,"id":3292},"arcs":[[277],[278]]},{"type":"MultiLineString","properties":{"source":"naturalearthdata.com","kind":"macroregion","sort_rank":257,"kind_detail":"3","min_zoom":6.7,"id":3293},"arcs":[[279],[280],[281],[282]]},{"type":"MultiLineString","properties":{"source":"naturalearthdata.com","kind":"macroregion","sort_rank":257,"kind_detail":"3","min_zoom":6.7,"id":3294},"arcs":[[283],[284],[285]]},{"type":"LineString","properties":{"source":"naturalearthdata.com","kind":"macroregion","sort_rank":257,"kind_detail":"3","min_zoom":6.7,"id":3295},"arcs":[286]},{"type":"LineString","properties":{"source":"naturalearthdata.com","kind":"macroregion","sort_rank":257,"kind_detail":"3","min_zoom":6.7,"id":3296},"arcs":[287]},{"type":"LineString","properties":{"source":"naturalearthdata.com","kind":"macroregion","sort_rank":257,"kind_detail":"3","min_zoom":6.7,"id":3297},"arcs":[288]},{"type":"MultiLineString","properties":{"source":"naturalearthdata.com","kind":"macroregion","sort_rank":257,"kind_detail":"3","min_zoom":6.7,"id":3298},"arcs":[[289],[290],[291],[292],[293]]},{"type":"MultiLineString","properties":{"source":"naturalearthdata.com","kind":"macroregion","sort_rank":257,"kind_detail":"3","min_zoom":6.7,"id":3299},"arcs":[[294],[295],[296]]},{"type":"LineString","properties":{"source":"naturalearthdata.com","kind":"macroregion","sort_rank":257,"kind_detail":"3","min_zoom":6.7,"id":3300},"arcs":[297]},{"type":"LineString","properties":{"source":"naturalearthdata.com","kind":"macroregion","sort_rank":257,"kind_detail":"3","min_zoom":6.7,"id":3302},"arcs":[298]},{"type":"LineString","properties":{"source":"naturalearthdata.com","kind":"macroregion","sort_rank":257,"kind_detail":"3","min_zoom":6.7,"id":3303},"arcs":[299]},{"type":"LineString","properties":{"source":"naturalearthdata.com","kind":"macroregion","sort_rank":257,"kind_detail":"3","min_zoom":6.7,"id":3304},"arcs":[300]},{"type":"MultiLineString","properties":{"source":"naturalearthdata.com","kind":"region","sort_rank":256,"kind_detail":"4","min_zoom":6.8,"id":3305},"arcs":[[301],[302],[303],[304]]},{"type":"MultiLineString","properties":{"source":"naturalearthdata.com","kind":"region","sort_rank":256,"kind_detail":"4","min_zoom":6.8,"id":3306},"arcs":[[305],[306]]},{"type":"MultiLineString","properties":{"source":"naturalearthdata.com","kind":"region","sort_rank":256,"kind_detail":"4","min_zoom":6.8,"id":3308},"arcs":[[307],[308],[309],[310],[311]]},{"type":"MultiLineString","properties":{"source":"naturalearthdata.com","kind":"macroregion","sort_rank":257,"kind_detail":"3","min_zoom":6.7,"id":3309},"arcs":[[312],[313],[314]]},{"type":"MultiLineString","properties":{"source":"naturalearthdata.com","kind":"macroregion","sort_rank":257,"kind_detail":"3","min_zoom":6.7,"id":3310},"arcs":[[315],[316],[317],[318]]},{"type":"MultiLineString","properties":{"source":"naturalearthdata.com","kind":"macroregion","sort_rank":257,"kind_detail":"3","min_zoom":6.7,"id":3311},"arcs":[[319],[320]]},{"type":"MultiLineString","properties":{"source":"naturalearthdata.com","kind":"macroregion","sort_rank":257,"kind_detail":"3","min_zoom":6.7,"id":3312},"arcs":[[321],[322],[323],[324],[325],[326],[327]]},{"type":"LineString","properties":{"source":"naturalearthdata.com","kind":"macroregion","sort_rank":257,"kind_detail":"3","min_zoom":6.7,"id":3313},"arcs":[328]},{"type":"MultiLineString","properties":{"source":"naturalearthdata.com","kind":"region","sort_rank":256,"kind_detail":"4","min_zoom":6.8,"id":3314},"arcs":[[329],[330]]},{"type":"MultiLineString","properties":{"source":"naturalearthdata.com","kind":"region","sort_rank":256,"kind_detail":"4","min_zoom":6.8,"id":3315},"arcs":[[331],[332],[333]]},{"type":"MultiLineString","properties":{"source":"naturalearthdata.com","kind":"region","sort_rank":256,"kind_detail":"4","min_zoom":6.8,"id":3316},"arcs":[[334],[335],[336]]},{"type":"MultiLineString","properties":{"source":"naturalearthdata.com","kind":"region","sort_rank":256,"kind_detail":"4","min_zoom":6.8,"id":3317},"arcs":[[337],[338],[339]]},{"type":"MultiLineString","properties":{"source":"naturalearthdata.com","kind":"region","sort_rank":256,"kind_detail":"4","min_zoom":6.8,"id":3318},"arcs":[[340],[341],[342]]},{"type":"MultiLineString","properties":{"source":"naturalearthdata.com","kind":"macroregion","sort_rank":257,"kind_detail":"3","min_zoom":6.7,"id":3320},"arcs":[[343],[344],[345],[346],[347]]},{"type":"MultiLineString","properties":{"source":"naturalearthdata.com","kind":"macroregion","sort_rank":257,"kind_detail":"3","min_zoom":6.7,"id":3321},"arcs":[[348],[349],[350],[351]]},{"type":"LineString","properties":{"source":"naturalearthdata.com","kind":"region","sort_rank":256,"kind_detail":"4","min_zoom":6.8,"id":3322},"arcs":[352]},{"type":"MultiLineString","properties":{"source":"naturalearthdata.com","kind":"region","sort_rank":256,"kind_detail":"4","min_zoom":6.8,"id":3323},"arcs":[[353],[354],[355]]},{"type":"MultiLineString","properties":{"source":"naturalearthdata.com","kind":"region","sort_rank":256,"kind_detail":"4","min_zoom":6.8,"id":3324},"arcs":[[356],[357],[358]]},{"type":"MultiLineString","properties":{"source":"naturalearthdata.com","kind":"region","sort_rank":256,"kind_detail":"4","min_zoom":6.8,"id":3325},"arcs":[[359],[360],[361],[362],[363]]},{"type":"MultiLineString","properties":{"source":"naturalearthdata.com","kind":"region","sort_rank":256,"kind_detail":"4","min_zoom":6.8,"id":3326},"arcs":[[364],[365],[366]]},{"type":"LineString","properties":{"source":"naturalearthdata.com","kind":"region","sort_rank":256,"kind_detail":"4","min_zoom":6.8,"id":3327},"arcs":[367]},{"type":"MultiLineString","properties":{"source":"naturalearthdata.com","kind":"region","sort_rank":256,"kind_detail":"4","min_zoom":6.8,"id":3328},"arcs":[[368],[369],[370],[371],[372],[373],[374],[375]]},{"type":"MultiLineString","properties":{"source":"naturalearthdata.com","kind":"region","sort_rank":256,"kind_detail":"4","min_zoom":6.8,"id":3329},"arcs":[[376],[377]]},{"type":"MultiLineString","properties":{"source":"naturalearthdata.com","kind":"region","sort_rank":256,"kind_detail":"4","min_zoom":6.8,"id":3330},"arcs":[[378],[379]]},{"type":"LineString","properties":{"source":"naturalearthdata.com","kind":"region","sort_rank":256,"kind_detail":"4","min_zoom":6.8,"id":3331},"arcs":[380]},{"type":"LineString","properties":{"source":"naturalearthdata.com","kind":"region","sort_rank":256,"kind_detail":"4","min_zoom":6.8,"id":3332},"arcs":[381]},{"type":"MultiLineString","properties":{"source":"naturalearthdata.com","kind":"region","sort_rank":256,"kind_detail":"4","min_zoom":6.8,"id":3333},"arcs":[[382],[383],[384],[385],[386],[387],[388],[389]]},{"type":"LineString","properties":{"source":"naturalearthdata.com","kind":"region","sort_rank":256,"kind_detail":"4","min_zoom":6.8,"id":3334},"arcs":[390]},{"type":"LineString","properties":{"source":"naturalearthdata.com","kind":"macroregion","sort_rank":257,"kind_detail":"3","min_zoom":6.7,"id":3343},"arcs":[391]},{"type":"LineString","properties":{"source":"naturalearthdata.com","kind":"region","sort_rank":256,"kind_detail":"4","min_zoom":6.8,"id":3345},"arcs":[392]},{"type":"LineString","properties":{"source":"naturalearthdata.com","kind":"region","sort_rank":256,"kind_detail":"4","min_zoom":6.8,"id":3346},"arcs":[393]},{"type":"LineString","properties":{"source":"naturalearthdata.com","kind":"region","sort_rank":256,"kind_detail":"4","min_zoom":6.8,"id":3347},"arcs":[394]},{"type":"LineString","properties":{"source":"naturalearthdata.com","kind":"macroregion","sort_rank":257,"kind_detail":"3","min_zoom":6.7,"id":3350},"arcs":[395]},{"type":"MultiLineString","properties":{"source":"naturalearthdata.com","kind":"macroregion","sort_rank":257,"kind_detail":"3","min_zoom":6.7,"id":3351},"arcs":[[396],[397],[398],[399],[400],[401]]},{"type":"LineString","properties":{"source":"naturalearthdata.com","kind":"macroregion","sort_rank":257,"kind_detail":"3","min_zoom":6.7,"id":3352},"arcs":[402]},{"type":"LineString","properties":{"source":"naturalearthdata.com","kind":"macroregion","sort_rank":257,"kind_detail":"3","min_zoom":6.7,"id":3353},"arcs":[403]},{"type":"MultiLineString","properties":{"source":"naturalearthdata.com","kind":"macroregion","sort_rank":257,"kind_detail":"3","min_zoom":6.7,"id":3354},"arcs":[[404],[405],[406],[407],[408],[409]]},{"type":"MultiLineString","properties":{"source":"naturalearthdata.com","kind":"macroregion","sort_rank":257,"kind_detail":"3","min_zoom":6.7,"id":3355},"arcs":[[410],[411],[412]]},{"type":"LineString","properties":{"source":"naturalearthdata.com","kind":"macroregion","sort_rank":257,"kind_detail":"3","min_zoom":6.7,"id":3359},"arcs":[413]},{"type":"LineString","properties":{"source":"naturalearthdata.com","kind":"macroregion","sort_rank":257,"kind_detail":"3","min_zoom":6.7,"id":3360},"arcs":[414]},{"type":"MultiLineString","properties":{"source":"naturalearthdata.com","kind":"macroregion","sort_rank":257,"kind_detail":"3","min_zoom":6.7,"id":3361},"arcs":[[415],[416],[417],[418]]},{"type":"LineString","properties":{"source":"naturalearthdata.com","kind":"macroregion","sort_rank":257,"kind_detail":"3","min_zoom":6.7,"id":3362},"arcs":[419]},{"type":"LineString","properties":{"source":"naturalearthdata.com","kind":"macroregion","sort_rank":257,"kind_detail":"3","min_zoom":6.7,"id":3363},"arcs":[420]},{"type":"MultiLineString","properties":{"source":"naturalearthdata.com","kind":"macroregion","sort_rank":257,"kind_detail":"3","min_zoom":6.7,"id":3364},"arcs":[[421],[422],[423],[424]]},{"type":"LineString","properties":{"source":"naturalearthdata.com","kind":"macroregion","sort_rank":257,"kind_detail":"3","min_zoom":6.7,"id":3365},"arcs":[425]},{"type":"LineString","properties":{"source":"naturalearthdata.com","kind":"macroregion","sort_rank":257,"kind_detail":"3","min_zoom":6.7,"id":3367},"arcs":[426]},{"type":"MultiLineString","properties":{"source":"naturalearthdata.com","kind":"macroregion","sort_rank":257,"kind_detail":"3","min_zoom":6.7,"id":3368},"arcs":[[427],[428],[429],[430],[431]]},{"type":"MultiLineString","properties":{"source":"naturalearthdata.com","kind":"region","sort_rank":256,"kind_detail":"4","min_zoom":6.8,"id":3369},"arcs":[[432],[433]]},{"type":"MultiLineString","properties":{"source":"naturalearthdata.com","kind":"region","sort_rank":256,"kind_detail":"4","min_zoom":6.8,"id":3370},"arcs":[[434],[435],[436]]},{"type":"LineString","properties":{"source":"naturalearthdata.com","kind":"region","sort_rank":256,"kind_detail":"4","min_zoom":6.8,"id":3374},"arcs":[437]},{"type":"LineString","properties":{"source":"naturalearthdata.com","kind":"region","sort_rank":256,"kind_detail":"4","min_zoom":6.8,"id":3375},"arcs":[438]},{"type":"LineString","properties":{"source":"naturalearthdata.com","kind":"region","sort_rank":256,"kind_detail":"4","min_zoom":6.8,"id":4011},"arcs":[439]},{"type":"LineString","properties":{"source":"naturalearthdata.com","kind":"region","sort_rank":256,"kind_detail":"4","min_zoom":6.8,"id":4028},"arcs":[440]},{"type":"MultiLineString","properties":{"source":"naturalearthdata.com","kind":"region","sort_rank":256,"kind_detail":"4","min_zoom":6.8,"id":4005},"arcs":[[441],[442],[443],[444],[445],[446],[447],[448],[449]]},{"type":"MultiLineString","properties":{"source":"naturalearthdata.com","kind":"region","sort_rank":256,"kind_detail":"4","min_zoom":6.8,"id":4006},"arcs":[[450],[451],[452],[453],[454],[455],[456],[457],[458]]},{"type":"LineString","properties":{"source":"naturalearthdata.com","kind":"region","sort_rank":256,"kind_detail":"4","min_zoom":6.8,"id":4007},"arcs":[459]},{"type":"MultiLineString","properties":{"source":"naturalearthdata.com","kind":"region","sort_rank":256,"kind_detail":"4","min_zoom":6.8,"id":4008},"arcs":[[460],[461],[462],[463],[464],[465],[466],[467],[468],[469],[470],[471]]},{"type":"MultiLineString","properties":{"source":"naturalearthdata.com","kind":"region","sort_rank":256,"kind_detail":"4","min_zoom":6.8,"id":4009},"arcs":[[472],[473],[474],[475]]},{"type":"LineString","properties":{"source":"naturalearthdata.com","kind":"region","sort_rank":256,"kind_detail":"4","min_zoom":6.8,"id":4010},"arcs":[476]},{"type":"MultiLineString","properties":{"source":"naturalearthdata.com","kind":"region","sort_rank":256,"kind_detail":"4","min_zoom":6.8,"id":4017},"arcs":[[477],[478],[479],[480],[481]]},{"type":"MultiLineString","properties":{"source":"naturalearthdata.com","kind":"region","sort_rank":256,"kind_detail":"4","min_zoom":6.8,"id":4018},"arcs":[[482],[483],[484]]},{"type":"MultiLineString","properties":{"source":"naturalearthdata.com","kind":"region","sort_rank":256,"kind_detail":"4","min_zoom":6.8,"id":4021},"arcs":[[485],[486],[487],[488],[489],[490],[491],[492],[493],[494],[495],[496],[497]]},{"type":"MultiLineString","properties":{"source":"naturalearthdata.com","kind":"region","sort_rank":256,"kind_detail":"4","min_zoom":6.8,"id":4024},"arcs":[[498],[499],[500],[501],[502],[503],[504],[505],[506],[507],[508],[509],[510],[511],[512],[513],[514]]},{"type":"MultiLineString","properties":{"source":"naturalearthdata.com","kind":"region","sort_rank":256,"kind_detail":"4","min_zoom":6.8,"id":4025},"arcs":[[515],[516],[517],[518],[519],[520],[521],[522],[523],[524],[525],[526],[527],[528],[529]]},{"type":"MultiLineString","properties":{"source":"naturalearthdata.com","kind":"region","sort_rank":256,"kind_detail":"4","min_zoom":6.8,"id":4026},"arcs":[[530],[531],[532],[533],[534]]},{"type":"MultiLineString","properties":{"source":"naturalearthdata.com","kind":"region","sort_rank":256,"kind_detail":"4","min_zoom":6.8,"id":4027},"arcs":[[535],[536],[537],[538],[539]]},{"type":"LineString","properties":{"source":"naturalearthdata.com","kind":"region","sort_rank":256,"kind_detail":"4","min_zoom":6.8,"id":4029},"arcs":[540]},{"type":"MultiLineString","properties":{"source":"naturalearthdata.com","kind":"region","sort_rank":256,"kind_detail":"4","min_zoom":6.8,"id":9432},"arcs":[[541],[542]]},{"type":"MultiLineString","properties":{"source":"naturalearthdata.com","kind":"region","sort_rank":256,"kind_detail":"4","min_zoom":6.8,"id":8128},"arcs":[[543],[544],[545],[546]]},{"type":"LineString","properties":{"source":"naturalearthdata.com","kind":"region","sort_rank":256,"kind_detail":"4","min_zoom":6.8,"id":8129},"arcs":[547]},{"type":"MultiLineString","properties":{"source":"naturalearthdata.com","kind":"region","sort_rank":256,"kind_detail":"4","min_zoom":6.8,"id":8130},"arcs":[[548],[549],[550],[551]]},{"type":"MultiLineString","properties":{"source":"naturalearthdata.com","kind":"region","sort_rank":256,"kind_detail":"4","min_zoom":6.8,"id":8131},"arcs":[[552],[553]]},{"type":"LineString","properties":{"source":"naturalearthdata.com","kind":"region","sort_rank":256,"kind_detail":"4","min_zoom":6.8,"id":9298},"arcs":[554]},{"type":"MultiLineString","properties":{"source":"naturalearthdata.com","kind":"region","sort_rank":256,"kind_detail":"4","min_zoom":6.8,"id":9299},"arcs":[[555],[556]]},{"type":"MultiLineString","properties":{"source":"naturalearthdata.com","kind":"region","sort_rank":256,"kind_detail":"4","min_zoom":6.8,"id":9300},"arcs":[[557],[558],[559],[560]]},{"type":"LineString","properties":{"source":"naturalearthdata.com","kind":"region","sort_rank":256,"kind_detail":"4","min_zoom":6.8,"id":9301},"arcs":[561]},{"type":"MultiLineString","properties":{"source":"naturalearthdata.com","kind":"region","sort_rank":256,"kind_detail":"4","min_zoom":6.8,"id":9302},"arcs":[[562],[563],[564]]},{"type":"MultiLineString","properties":{"source":"naturalearthdata.com","kind":"region","sort_rank":256,"kind_detail":"4","min_zoom":6.8,"id":9303},"arcs":[[565],[566],[567]]},{"type":"LineString","properties":{"source":"naturalearthdata.com","kind":"region","sort_rank":256,"kind_detail":"4","min_zoom":6.8,"id":9304},"arcs":[568]},{"type":"MultiLineString","properties":{"source":"naturalearthdata.com","kind":"region","sort_rank":256,"kind_detail":"4","min_zoom":6.8,"id":9305},"arcs":[[569],[570],[571]]},{"type":"MultiLineString","properties":{"source":"naturalearthdata.com","kind":"region","sort_rank":256,"kind_detail":"4","min_zoom":6.8,"id":9306},"arcs":[[572],[573],[574],[575]]},{"type":"MultiLineString","properties":{"source":"naturalearthdata.com","kind":"region","sort_rank":256,"kind_detail":"4","min_zoom":6.8,"id":9307},"arcs":[[576],[577],[578],[579],[580]]},{"type":"LineString","properties":{"source":"naturalearthdata.com","kind":"region","sort_rank":256,"kind_detail":"4","min_zoom":6.8,"id":9308},"arcs":[581]},{"type":"MultiLineString","properties":{"source":"naturalearthdata.com","kind":"region","sort_rank":256,"kind_detail":"4","min_zoom":6.8,"id":9309},"arcs":[[582],[583]]},{"type":"MultiLineString","properties":{"source":"naturalearthdata.com","kind":"region","sort_rank":256,"kind_detail":"4","min_zoom":6.8,"id":9310},"arcs":[[584],[585],[586]]},{"type":"MultiLineString","properties":{"source":"naturalearthdata.com","kind":"region","sort_rank":256,"kind_detail":"4","min_zoom":6.8,"id":9311},"arcs":[[587],[588],[589],[590],[591]]},{"type":"MultiLineString","properties":{"source":"naturalearthdata.com","kind":"region","sort_rank":256,"kind_detail":"4","min_zoom":6.8,"id":9312},"arcs":[[592],[593],[594]]},{"type":"MultiLineString","properties":{"source":"naturalearthdata.com","kind":"region","sort_rank":256,"kind_detail":"4","min_zoom":6.8,"id":9313},"arcs":[[595],[596],[597]]},{"type":"LineString","properties":{"source":"naturalearthdata.com","kind":"region","sort_rank":256,"kind_detail":"4","min_zoom":6.8,"id":9314},"arcs":[598]},{"type":"MultiLineString","properties":{"source":"naturalearthdata.com","kind":"region","sort_rank":256,"kind_detail":"4","min_zoom":6.8,"id":9315},"arcs":[[599],[600],[601]]},{"type":"MultiLineString","properties":{"source":"naturalearthdata.com","kind":"region","sort_rank":256,"kind_detail":"4","min_zoom":6.8,"id":9316},"arcs":[[602],[603],[604],[605],[606]]},{"type":"MultiLineString","properties":{"source":"naturalearthdata.com","kind":"region","sort_rank":256,"kind_detail":"4","min_zoom":6.8,"id":9317},"arcs":[[607],[608],[609]]},{"type":"LineString","properties":{"source":"naturalearthdata.com","kind":"region","sort_rank":256,"kind_detail":"4","min_zoom":6.8,"id":9318},"arcs":[610]},{"type":"MultiLineString","properties":{"source":"naturalearthdata.com","kind":"region","sort_rank":256,"kind_detail":"4","min_zoom":6.8,"id":9319},"arcs":[[611],[612],[613],[614],[615],[616]]},{"type":"LineString","properties":{"source":"naturalearthdata.com","kind":"region","sort_rank":256,"kind_detail":"4","min_zoom":6.8,"id":9320},"arcs":[617]},{"type":"MultiLineString","properties":{"source":"naturalearthdata.com","kind":"region","sort_rank":256,"kind_detail":"4","min_zoom":6.8,"id":9321},"arcs":[[618],[619],[620]]},{"type":"LineString","properties":{"source":"naturalearthdata.com","kind":"region","sort_rank":256,"kind_detail":"4","min_zoom":6.8,"id":9322},"arcs":[621]},{"type":"MultiLineString","properties":{"source":"naturalearthdata.com","kind":"region","sort_rank":256,"kind_detail":"4","min_zoom":6.8,"id":9323},"arcs":[[622],[623],[624]]},{"type":"MultiLineString","properties":{"source":"naturalearthdata.com","kind":"region","sort_rank":256,"kind_detail":"4","min_zoom":6.8,"id":9324},"arcs":[[625],[626],[627],[628]]},{"type":"MultiLineString","properties":{"source":"naturalearthdata.com","kind":"region","sort_rank":256,"kind_detail":"4","min_zoom":6.8,"id":9325},"arcs":[[629],[630],[631]]},{"type":"LineString","properties":{"source":"naturalearthdata.com","kind":"region","sort_rank":256,"kind_detail":"4","min_zoom":6.8,"id":9326},"arcs":[632]},{"type":"MultiLineString","properties":{"source":"naturalearthdata.com","kind":"region","sort_rank":256,"kind_detail":"4","min_zoom":6.8,"id":9327},"arcs":[[633],[634]]},{"type":"LineString","properties":{"source":"naturalearthdata.com","kind":"region","sort_rank":256,"kind_detail":"4","min_zoom":6.8,"id":9328},"arcs":[635]},{"type":"LineString","properties":{"source":"naturalearthdata.com","kind":"region","sort_rank":256,"kind_detail":"4","min_zoom":6.8,"id":9329},"arcs":[636]},{"type":"MultiLineString","properties":{"source":"naturalearthdata.com","kind":"region","sort_rank":256,"kind_detail":"4","min_zoom":6.8,"id":9330},"arcs":[[637],[638]]},{"type":"MultiLineString","properties":{"source":"naturalearthdata.com","kind":"region","sort_rank":256,"kind_detail":"4","min_zoom":6.8,"id":9331},"arcs":[[639],[640]]},{"type":"LineString","properties":{"source":"naturalearthdata.com","kind":"region","sort_rank":256,"kind_detail":"4","min_zoom":6.8,"id":9332},"arcs":[641]},{"type":"MultiLineString","properties":{"source":"naturalearthdata.com","kind":"region","sort_rank":256,"kind_detail":"4","min_zoom":6.8,"id":9333},"arcs":[[642],[643],[644]]},{"type":"MultiLineString","properties":{"source":"naturalearthdata.com","kind":"region","sort_rank":256,"kind_detail":"4","min_zoom":6.8,"id":9334},"arcs":[[645],[646],[647]]},{"type":"MultiLineString","properties":{"source":"naturalearthdata.com","kind":"region","sort_rank":256,"kind_detail":"4","min_zoom":6.8,"id":9335},"arcs":[[648],[649],[650]]},{"type":"LineString","properties":{"source":"naturalearthdata.com","kind":"region","sort_rank":256,"kind_detail":"4","min_zoom":6.8,"id":9336},"arcs":[651]},{"type":"LineString","properties":{"source":"naturalearthdata.com","kind":"region","sort_rank":256,"kind_detail":"4","min_zoom":6.8,"id":9337},"arcs":[652]},{"type":"LineString","properties":{"source":"naturalearthdata.com","kind":"region","sort_rank":256,"kind_detail":"4","min_zoom":6.8,"id":9338},"arcs":[653]},{"type":"LineString","properties":{"source":"naturalearthdata.com","kind":"region","sort_rank":256,"kind_detail":"4","min_zoom":6.8,"id":9339},"arcs":[654]},{"type":"MultiLineString","properties":{"source":"naturalearthdata.com","kind":"region","sort_rank":256,"kind_detail":"4","min_zoom":6.8,"id":9340},"arcs":[[655],[656]]},{"type":"MultiLineString","properties":{"source":"naturalearthdata.com","kind":"region","sort_rank":256,"kind_detail":"4","min_zoom":6.8,"id":9341},"arcs":[[657],[658]]},{"type":"MultiLineString","properties":{"source":"naturalearthdata.com","kind":"region","sort_rank":256,"kind_detail":"4","min_zoom":6.8,"id":9342},"arcs":[[659],[660],[661]]},{"type":"MultiLineString","properties":{"source":"naturalearthdata.com","kind":"region","sort_rank":256,"kind_detail":"4","min_zoom":6.8,"id":9343},"arcs":[[662],[663]]},{"type":"MultiLineString","properties":{"source":"naturalearthdata.com","kind":"region","sort_rank":256,"kind_detail":"4","min_zoom":6.8,"id":9344},"arcs":[[664],[665],[666]]},{"type":"MultiLineString","properties":{"source":"naturalearthdata.com","kind":"region","sort_rank":256,"kind_detail":"4","min_zoom":6.8,"id":9345},"arcs":[[667],[668],[669]]},{"type":"MultiLineString","properties":{"source":"naturalearthdata.com","kind":"region","sort_rank":256,"kind_detail":"4","min_zoom":6.8,"id":9346},"arcs":[[670],[671]]},{"type":"MultiLineString","properties":{"source":"naturalearthdata.com","kind":"region","sort_rank":256,"kind_detail":"4","min_zoom":6.8,"id":9347},"arcs":[[672],[673],[674]]},{"type":"LineString","properties":{"source":"naturalearthdata.com","kind":"region","sort_rank":256,"kind_detail":"4","min_zoom":6.8,"id":9348},"arcs":[675]},{"type":"MultiLineString","properties":{"source":"naturalearthdata.com","kind":"region","sort_rank":256,"kind_detail":"4","min_zoom":6.8,"id":9349},"arcs":[[676],[677],[678]]},{"type":"MultiLineString","properties":{"source":"naturalearthdata.com","kind":"region","sort_rank":256,"kind_detail":"4","min_zoom":6.8,"id":9350},"arcs":[[679],[680],[681],[682],[683],[684],[685]]},{"type":"LineString","properties":{"source":"naturalearthdata.com","kind":"region","sort_rank":256,"kind_detail":"4","min_zoom":6.8,"id":9351},"arcs":[686]},{"type":"MultiLineString","properties":{"source":"naturalearthdata.com","kind":"region","sort_rank":256,"kind_detail":"4","min_zoom":6.8,"id":9352},"arcs":[[687],[688],[689]]},{"type":"MultiLineString","properties":{"source":"naturalearthdata.com","kind":"region","sort_rank":256,"kind_detail":"4","min_zoom":6.8,"id":9353},"arcs":[[690],[691],[692],[693],[694],[695]]},{"type":"LineString","properties":{"source":"naturalearthdata.com","kind":"region","sort_rank":256,"kind_detail":"4","min_zoom":6.8,"id":9354},"arcs":[696]},{"type":"MultiLineString","properties":{"source":"naturalearthdata.com","kind":"region","sort_rank":256,"kind_detail":"4","min_zoom":6.8,"id":9355},"arcs":[[697],[698]]},{"type":"MultiLineString","properties":{"source":"naturalearthdata.com","kind":"region","sort_rank":256,"kind_detail":"4","min_zoom":6.8,"id":9356},"arcs":[[699],[700],[701],[702],[703],[704],[705]]},{"type":"LineString","properties":{"source":"naturalearthdata.com","kind":"region","sort_rank":256,"kind_detail":"4","min_zoom":6.8,"id":9357},"arcs":[706]},{"type":"MultiLineString","properties":{"source":"naturalearthdata.com","kind":"region","sort_rank":256,"kind_detail":"4","min_zoom":6.8,"id":9358},"arcs":[[707],[708],[709]]},{"type":"LineString","properties":{"source":"naturalearthdata.com","kind":"region","sort_rank":256,"kind_detail":"4","min_zoom":6.8,"id":9359},"arcs":[710]},{"type":"LineString","properties":{"source":"naturalearthdata.com","kind":"region","sort_rank":256,"kind_detail":"4","min_zoom":6.8,"id":9360},"arcs":[711]},{"type":"MultiLineString","properties":{"source":"naturalearthdata.com","kind":"region","sort_rank":256,"kind_detail":"4","min_zoom":6.8,"id":9361},"arcs":[[712],[713]]},{"type":"LineString","properties":{"source":"naturalearthdata.com","kind":"region","sort_rank":256,"kind_detail":"4","min_zoom":6.8,"id":9362},"arcs":[714]},{"type":"MultiLineString","properties":{"source":"naturalearthdata.com","kind":"region","sort_rank":256,"kind_detail":"4","min_zoom":6.8,"id":9363},"arcs":[[715],[716]]},{"type":"LineString","properties":{"source":"naturalearthdata.com","kind":"region","sort_rank":256,"kind_detail":"4","min_zoom":6.8,"id":9364},"arcs":[717]},{"type":"MultiLineString","properties":{"source":"naturalearthdata.com","kind":"region","sort_rank":256,"kind_detail":"4","min_zoom":6.8,"id":9365},"arcs":[[718],[719],[720]]},{"type":"MultiLineString","properties":{"source":"naturalearthdata.com","kind":"region","sort_rank":256,"kind_detail":"4","min_zoom":6.8,"id":9366},"arcs":[[721],[722]]},{"type":"MultiLineString","properties":{"source":"naturalearthdata.com","kind":"region","sort_rank":256,"kind_detail":"4","min_zoom":6.8,"id":9367},"arcs":[[723],[724],[725]]},{"type":"MultiLineString","properties":{"source":"naturalearthdata.com","kind":"region","sort_rank":256,"kind_detail":"4","min_zoom":6.8,"id":9368},"arcs":[[726],[727],[728]]},{"type":"LineString","properties":{"source":"naturalearthdata.com","kind":"macroregion","sort_rank":257,"kind_detail":"3","min_zoom":6.8,"id":9369},"arcs":[729]},{"type":"MultiLineString","properties":{"source":"naturalearthdata.com","kind":"region","sort_rank":256,"kind_detail":"4","min_zoom":6.8,"id":9370},"arcs":[[730],[731],[732],[733],[734]]},{"type":"MultiLineString","properties":{"source":"naturalearthdata.com","kind":"region","sort_rank":256,"kind_detail":"4","min_zoom":6.8,"id":9371},"arcs":[[735],[736],[737]]},{"type":"LineString","properties":{"source":"naturalearthdata.com","kind":"region","sort_rank":256,"kind_detail":"4","min_zoom":6.8,"id":9372},"arcs":[738]},{"type":"LineString","properties":{"source":"naturalearthdata.com","kind":"region","sort_rank":256,"kind_detail":"4","min_zoom":6.8,"id":9373},"arcs":[739]},{"type":"MultiLineString","properties":{"source":"naturalearthdata.com","kind":"region","sort_rank":256,"kind_detail":"4","min_zoom":6.8,"id":9374},"arcs":[[740],[741],[742]]},{"type":"MultiLineString","properties":{"source":"naturalearthdata.com","kind":"region","sort_rank":256,"kind_detail":"4","min_zoom":6.8,"id":9375},"arcs":[[743],[744],[745],[746]]},{"type":"LineString","properties":{"source":"naturalearthdata.com","kind":"region","sort_rank":256,"kind_detail":"4","min_zoom":6.8,"id":9376},"arcs":[747]},{"type":"MultiLineString","properties":{"source":"naturalearthdata.com","kind":"region","sort_rank":256,"kind_detail":"4","min_zoom":6.8,"id":9377},"arcs":[[748],[749],[750]]},{"type":"MultiLineString","properties":{"source":"naturalearthdata.com","kind":"region","sort_rank":256,"kind_detail":"4","min_zoom":6.8,"id":9378},"arcs":[[751],[752],[753]]},{"type":"MultiLineString","properties":{"source":"naturalearthdata.com","kind":"region","sort_rank":256,"kind_detail":"4","min_zoom":6.8,"id":9379},"arcs":[[754],[755],[756],[757]]},{"type":"MultiLineString","properties":{"source":"naturalearthdata.com","kind":"region","sort_rank":256,"kind_detail":"4","min_zoom":6.8,"id":9380},"arcs":[[758],[759],[760]]},{"type":"MultiLineString","properties":{"source":"naturalearthdata.com","kind":"region","sort_rank":256,"kind_detail":"4","min_zoom":6.8,"id":9381},"arcs":[[761],[762],[763],[764],[765],[766]]},{"type":"MultiLineString","properties":{"source":"naturalearthdata.com","kind":"region","sort_rank":256,"kind_detail":"4","min_zoom":6.8,"id":9382},"arcs":[[767],[768],[769],[770],[771],[772],[773],[774],[775]]},{"type":"MultiLineString","properties":{"source":"naturalearthdata.com","kind":"region","sort_rank":256,"kind_detail":"4","min_zoom":6.8,"id":9383},"arcs":[[776],[777],[778],[779]]},{"type":"MultiLineString","properties":{"source":"naturalearthdata.com","kind":"region","sort_rank":256,"kind_detail":"4","min_zoom":6.8,"id":9384},"arcs":[[780],[781],[782],[783]]},{"type":"MultiLineString","properties":{"source":"naturalearthdata.com","kind":"region","sort_rank":256,"kind_detail":"4","min_zoom":6.8,"id":9385},"arcs":[[784],[785]]},{"type":"MultiLineString","properties":{"source":"naturalearthdata.com","kind":"region","sort_rank":256,"kind_detail":"4","min_zoom":6.8,"id":9386},"arcs":[[786],[787],[788],[789],[790],[791]]},{"type":"LineString","properties":{"source":"naturalearthdata.com","kind":"region","sort_rank":256,"kind_detail":"4","min_zoom":6.8,"id":9411},"arcs":[792]},{"type":"MultiLineString","properties":{"source":"naturalearthdata.com","kind":"region","sort_rank":256,"kind_detail":"4","min_zoom":6.8,"id":9387},"arcs":[[793],[794],[795]]},{"type":"MultiLineString","properties":{"source":"naturalearthdata.com","kind":"region","sort_rank":256,"kind_detail":"4","min_zoom":6.8,"id":9388},"arcs":[[796],[797],[798],[799],[800],[801],[802],[803],[804],[805],[806]]},{"type":"MultiLineString","properties":{"source":"naturalearthdata.com","kind":"region","sort_rank":256,"kind_detail":"4","min_zoom":6.8,"id":9389},"arcs":[[807],[808],[809]]},{"type":"MultiLineString","properties":{"source":"naturalearthdata.com","kind":"region","sort_rank":256,"kind_detail":"4","min_zoom":6.8,"id":9391},"arcs":[[810],[811],[812]]},{"type":"MultiLineString","properties":{"source":"naturalearthdata.com","kind":"region","sort_rank":256,"kind_detail":"4","min_zoom":6.8,"id":9392},"arcs":[[813],[814],[815]]},{"type":"MultiLineString","properties":{"source":"naturalearthdata.com","kind":"region","sort_rank":256,"kind_detail":"4","min_zoom":6.8,"id":9393},"arcs":[[816],[817]]},{"type":"LineString","properties":{"source":"naturalearthdata.com","kind":"region","sort_rank":256,"kind_detail":"4","min_zoom":6.8,"id":9395},"arcs":[818]},{"type":"MultiLineString","properties":{"source":"naturalearthdata.com","kind":"region","sort_rank":256,"kind_detail":"4","min_zoom":6.8,"id":9396},"arcs":[[819],[820]]},{"type":"LineString","properties":{"source":"naturalearthdata.com","kind":"region","sort_rank":256,"kind_detail":"4","min_zoom":6.8,"id":9397},"arcs":[821]},{"type":"MultiLineString","properties":{"source":"naturalearthdata.com","kind":"region","sort_rank":256,"kind_detail":"4","min_zoom":6.8,"id":9398},"arcs":[[822],[823]]},{"type":"LineString","properties":{"source":"naturalearthdata.com","kind":"region","sort_rank":256,"kind_detail":"4","min_zoom":6.8,"id":9399},"arcs":[824]},{"type":"MultiLineString","properties":{"source":"naturalearthdata.com","kind":"region","sort_rank":256,"kind_detail":"4","min_zoom":6.8,"id":9400},"arcs":[[825],[826],[827],[828]]},{"type":"MultiLineString","properties":{"source":"naturalearthdata.com","kind":"region","sort_rank":256,"kind_detail":"4","min_zoom":6.8,"id":9401},"arcs":[[829],[830],[831]]},{"type":"LineString","properties":{"source":"naturalearthdata.com","kind":"region","sort_rank":256,"kind_detail":"4","min_zoom":6.8,"id":9402},"arcs":[832]},{"type":"MultiLineString","properties":{"source":"naturalearthdata.com","kind":"region","sort_rank":256,"kind_detail":"4","min_zoom":6.8,"id":9403},"arcs":[[833],[834],[835]]},{"type":"LineString","properties":{"source":"naturalearthdata.com","kind":"region","sort_rank":256,"kind_detail":"4","min_zoom":6.8,"id":9404},"arcs":[836]},{"type":"MultiLineString","properties":{"source":"naturalearthdata.com","kind":"region","sort_rank":256,"kind_detail":"4","min_zoom":6.8,"id":9405},"arcs":[[837],[838]]},{"type":"LineString","properties":{"source":"naturalearthdata.com","kind":"region","sort_rank":256,"kind_detail":"4","min_zoom":6.8,"id":9406},"arcs":[839]},{"type":"LineString","properties":{"source":"naturalearthdata.com","kind":"region","sort_rank":256,"kind_detail":"4","min_zoom":6.8,"id":9407},"arcs":[840]},{"type":"LineString","properties":{"source":"naturalearthdata.com","kind":"region","sort_rank":256,"kind_detail":"4","min_zoom":6.8,"id":9408},"arcs":[841]},{"type":"MultiLineString","properties":{"source":"naturalearthdata.com","kind":"region","sort_rank":256,"kind_detail":"4","min_zoom":6.8,"id":9409},"arcs":[[842],[843]]},{"type":"MultiLineString","properties":{"source":"naturalearthdata.com","kind":"region","sort_rank":256,"kind_detail":"4","min_zoom":6.8,"id":9410},"arcs":[[844],[845],[846],[847]]},{"type":"MultiLineString","properties":{"source":"naturalearthdata.com","kind":"region","sort_rank":256,"kind_detail":"4","min_zoom":6.8,"id":9412},"arcs":[[848],[849],[850]]},{"type":"MultiLineString","properties":{"source":"naturalearthdata.com","kind":"region","sort_rank":256,"kind_detail":"4","min_zoom":6.8,"id":9413},"arcs":[[851],[852],[853]]},{"type":"MultiLineString","properties":{"source":"naturalearthdata.com","kind":"region","sort_rank":256,"kind_detail":"4","min_zoom":6.8,"id":9414},"arcs":[[854],[855],[856],[857],[858]]},{"type":"LineString","properties":{"source":"naturalearthdata.com","kind":"region","sort_rank":256,"kind_detail":"4","min_zoom":6.8,"id":9415},"arcs":[859]},{"type":"MultiLineString","properties":{"source":"naturalearthdata.com","kind":"region","sort_rank":256,"kind_detail":"4","min_zoom":6.8,"id":9416},"arcs":[[860],[861]]},{"type":"MultiLineString","properties":{"source":"naturalearthdata.com","kind":"region","sort_rank":256,"kind_detail":"4","min_zoom":6.8,"id":9417},"arcs":[[862],[863],[864]]},{"type":"MultiLineString","properties":{"source":"naturalearthdata.com","kind":"region","sort_rank":256,"kind_detail":"4","min_zoom":6.8,"id":9418},"arcs":[[865],[866],[867]]},{"type":"MultiLineString","properties":{"source":"naturalearthdata.com","kind":"region","sort_rank":256,"kind_detail":"4","min_zoom":6.8,"id":9419},"arcs":[[868],[869],[870],[871]]},{"type":"LineString","properties":{"source":"naturalearthdata.com","kind":"region","sort_rank":256,"kind_detail":"4","min_zoom":6.8,"id":9420},"arcs":[872]},{"type":"MultiLineString","properties":{"source":"naturalearthdata.com","kind":"region","sort_rank":256,"kind_detail":"4","min_zoom":6.8,"id":9421},"arcs":[[873],[874],[875],[876],[877],[878]]},{"type":"MultiLineString","properties":{"source":"naturalearthdata.com","kind":"region","sort_rank":256,"kind_detail":"4","min_zoom":6.8,"id":9422},"arcs":[[879],[880]]},{"type":"MultiLineString","properties":{"source":"naturalearthdata.com","kind":"region","sort_rank":256,"kind_detail":"4","min_zoom":6.8,"id":9423},"arcs":[[881],[882],[883],[884]]},{"type":"MultiLineString","properties":{"source":"naturalearthdata.com","kind":"region","sort_rank":256,"kind_detail":"4","min_zoom":6.8,"id":9424},"arcs":[[885],[886],[887],[888],[889],[890],[891]]},{"type":"MultiLineString","properties":{"source":"naturalearthdata.com","kind":"region","sort_rank":256,"kind_detail":"4","min_zoom":6.8,"id":9425},"arcs":[[892],[893],[894],[895],[896],[897],[898]]},{"type":"LineString","properties":{"source":"naturalearthdata.com","kind":"macroregion","sort_rank":257,"kind_detail":"3","min_zoom":6.7,"id":9426},"arcs":[899]},{"type":"LineString","properties":{"source":"naturalearthdata.com","kind":"macroregion","sort_rank":257,"kind_detail":"3","min_zoom":6.7,"id":9427},"arcs":[900]},{"type":"LineString","properties":{"source":"naturalearthdata.com","kind":"macroregion","sort_rank":257,"kind_detail":"3","min_zoom":6.7,"id":9428},"arcs":[901]},{"type":"LineString","properties":{"source":"naturalearthdata.com","kind":"macroregion","sort_rank":257,"kind_detail":"3","min_zoom":6.7,"id":9429},"arcs":[902]},{"type":"LineString","properties":{"source":"naturalearthdata.com","kind":"macroregion","sort_rank":257,"kind_detail":"3","min_zoom":6.8,"id":9430},"arcs":[903]},{"type":"LineString","properties":{"source":"naturalearthdata.com","kind":"region","sort_rank":256,"kind_detail":"4","min_zoom":6.8,"id":9431},"arcs":[904]},{"type":"LineString","properties":{"source":"naturalearthdata.com","kind":"region","sort_rank":256,"kind_detail":"4","min_zoom":6.8,"id":10097},"arcs":[905]},{"type":"LineString","properties":{"source":"naturalearthdata.com","kind":"region","sort_rank":256,"kind_detail":"4","min_zoom":6.8,"id":10098},"arcs":[906]}]},"roads":{"type":"GeometryCollection","geometries":[{"type":"MultiLineString","properties":{"source":"naturalearthdata.com","kind":"major_road","kind_detail":"primary","sort_rank":380,"landuse_kind":"park","min_zoom":3.0,"id":4708},"arcs":[[1067],[1068]]},{"type":"LineString","properties":{"source":"naturalearthdata.com","kind":"major_road","kind_detail":"primary","sort_rank":380,"landuse_kind":"protected_area","min_zoom":3.0,"id":4708},"arcs":[1069]},{"type":"MultiLineString","properties":{"source":"naturalearthdata.com","kind":"major_road","sort_rank":380,"kind_detail":"primary","min_zoom":3.0,"id":4708},"arcs":[[1070],[1071],[1072],[1073]]},{"type":"LineString","properties":{"source":"naturalearthdata.com","kind":"major_road","sort_rank":380,"kind_detail":"primary","min_zoom":3.0,"id":4709},"arcs":[1074]},{"type":"LineString","properties":{"source":"naturalearthdata.com","kind":"major_road","sort_rank":380,"kind_detail":"primary","min_zoom":3.0,"id":4710},"arcs":[1075]},{"type":"LineString","properties":{"source":"naturalearthdata.com","kind":"major_road","sort_rank":380,"kind_detail":"primary","min_zoom":3.0,"id":4711},"arcs":[1076]},{"type":"LineString","properties":{"source":"naturalearthdata.com","kind":"major_road","kind_detail":"primary","sort_rank":380,"landuse_kind":"park","min_zoom":3.0,"id":4723},"arcs":[1077]},{"type":"MultiLineString","properties":{"source":"naturalearthdata.com","kind":"major_road","sort_rank":380,"kind_detail":"primary","min_zoom":3.0,"id":4723},"arcs":[[1078],[1079]]},{"type":"LineString","properties":{"source":"naturalearthdata.com","kind":"major_road","kind_detail":"primary","sort_rank":380,"landuse_kind":"urban_area","min_zoom":3.0,"id":4724},"arcs":[1080]},{"type":"LineString","properties":{"source":"naturalearthdata.com","kind":"major_road","sort_rank":380,"kind_detail":"primary","min_zoom":3.0,"id":4724},"arcs":[1081]},{"type":"LineString","properties":{"source":"naturalearthdata.com","kind":"major_road","kind_detail":"primary","sort_rank":380,"landuse_kind":"urban_area","min_zoom":3.0,"id":4725},"arcs":[1082]},{"type":"LineString","properties":{"source":"naturalearthdata.com","kind":"major_road","sort_rank":380,"kind_detail":"primary","min_zoom":3.0,"id":4725},"arcs":[1083]},{"type":"LineString","properties":{"source":"naturalearthdata.com","kind":"major_road","sort_rank":380,"kind_detail":"primary","min_zoom":3.0,"id":4921},"arcs":[1084]},{"type":"LineString","properties":{"source":"naturalearthdata.com","kind":"major_road","sort_rank":380,"kind_detail":"primary","min_zoom":3.0,"id":4922},"arcs":[1085]},{"type":"LineString","properties":{"source":"naturalearthdata.com","kind":"major_road","kind_detail":"primary","sort_rank":380,"landuse_kind":"urban_area","min_zoom":3.0,"id":4931},"arcs":[1086]},{"type":"MultiLineString","properties":{"source":"naturalearthdata.com","kind":"major_road","sort_rank":380,"kind_detail":"primary","min_zoom":3.0,"id":4931},"arcs":[[1087],[1088]]},{"type":"LineString","properties":{"source":"naturalearthdata.com","kind":"major_road","sort_rank":380,"kind_detail":"primary","min_zoom":3.0,"id":4932},"arcs":[1089]},{"type":"LineString","properties":{"source":"naturalearthdata.com","kind":"major_road","kind_detail":"primary","sort_rank":380,"landuse_kind":"urban_area","min_zoom":3.0,"id":5027},"arcs":[1090]},{"type":"LineString","properties":{"source":"naturalearthdata.com","kind":"major_road","sort_rank":380,"kind_detail":"primary","min_zoom":3.0,"id":5027},"arcs":[1091]},{"type":"LineString","properties":{"source":"naturalearthdata.com","kind":"major_road","kind_detail":"primary","sort_rank":380,"landuse_kind":"urban_area","min_zoom":3.0,"id":5056},"arcs":[1092]},{"type":"LineString","properties":{"source":"naturalearthdata.com","kind":"major_road","sort_rank":380,"kind_detail":"primary","min_zoom":3.0,"id":5056},"arcs":[1093]},{"type":"LineString","properties":{"source":"naturalearthdata.com","kind":"major_road","kind_detail":"primary","sort_rank":380,"landuse_kind":"park","min_zoom":3.0,"id":5057},"arcs":[1094]},{"type":"LineString","properties":{"source":"naturalearthdata.com","kind":"major_road","kind_detail":"primary","sort_rank":380,"landuse_kind":"urban_area","min_zoom":3.0,"id":5057},"arcs":[1095]},{"type":"MultiLineString","properties":{"source":"naturalearthdata.com","kind":"major_road","sort_rank":380,"kind_detail":"primary","min_zoom":3.0,"id":5057},"arcs":[[1096],[1097]]},{"type":"LineString","properties":{"source":"naturalearthdata.com","kind":"major_road","sort_rank":380,"kind_detail":"primary","min_zoom":4.0,"id":5062},"arcs":[1098]},{"type":"LineString","properties":{"source":"naturalearthdata.com","kind":"major_road","sort_rank":380,"kind_detail":"primary","min_zoom":4.0,"id":5063},"arcs":[1099]},{"type":"LineString","properties":{"source":"naturalearthdata.com","kind":"major_road","kind_detail":"primary","sort_rank":380,"landuse_kind":"protected_area","min_zoom":4.0,"id":5064},"arcs":[1100]},{"type":"LineString","properties":{"source":"naturalearthdata.com","kind":"major_road","kind_detail":"primary","sort_rank":380,"landuse_kind":"urban_area","min_zoom":4.0,"id":5064},"arcs":[1101]},{"type":"MultiLineString","properties":{"source":"naturalearthdata.com","kind":"major_road","sort_rank":380,"kind_detail":"primary","min_zoom":4.0,"id":5064},"arcs":[[1102],[1103]]},{"type":"MultiLineString","properties":{"source":"naturalearthdata.com","kind":"major_road","kind_detail":"primary","sort_rank":380,"landuse_kind":"protected_area","min_zoom":4.0,"id":5065},"arcs":[[1104],[1105]]},{"type":"MultiLineString","properties":{"source":"naturalearthdata.com","kind":"major_road","sort_rank":380,"kind_detail":"primary","min_zoom":4.0,"id":5065},"arcs":[[1106],[1107]]},{"type":"LineString","properties":{"source":"naturalearthdata.com","kind":"major_road","sort_rank":380,"kind_detail":"primary","min_zoom":3.0,"id":5072},"arcs":[1108]},{"type":"LineString","properties":{"source":"naturalearthdata.com","kind":"major_road","kind_detail":"secondary","sort_rank":379,"landuse_kind":"urban_area","min_zoom":3.0,"id":5073},"arcs":[1109]},{"type":"MultiLineString","properties":{"source":"naturalearthdata.com","kind":"major_road","sort_rank":379,"kind_detail":"secondary","min_zoom":3.0,"id":5073},"arcs":[[1110],[1111]]},{"type":"LineString","properties":{"source":"naturalearthdata.com","kind":"major_road","kind_detail":"primary","sort_rank":380,"landuse_kind":"urban_area","min_zoom":3.0,"id":5074},"arcs":[1112]},{"type":"MultiLineString","properties":{"source":"naturalearthdata.com","kind":"major_road","sort_rank":380,"kind_detail":"primary","min_zoom":3.0,"id":5074},"arcs":[[1113],[1114]]},{"type":"LineString","properties":{"source":"naturalearthdata.com","kind":"major_road","kind_detail":"primary","sort_rank":380,"landuse_kind":"urban_area","min_zoom":6.0,"id":5447},"arcs":[1115]},{"type":"LineString","properties":{"source":"naturalearthdata.com","kind":"major_road","sort_rank":380,"kind_detail":"primary","min_zoom":6.0,"id":5447},"arcs":[1116]},{"type":"LineString","properties":{"source":"naturalearthdata.com","kind":"major_road","kind_detail":"primary","sort_rank":380,"landuse_kind":"urban_area","min_zoom":6.0,"id":5448},"arcs":[1117]},{"type":"LineString","properties":{"source":"naturalearthdata.com","kind":"major_road","sort_rank":380,"kind_detail":"primary","min_zoom":6.0,"id":5448},"arcs":[1118]},{"type":"LineString","properties":{"source":"naturalearthdata.com","kind":"major_road","sort_rank":380,"kind_detail":"primary","min_zoom":6.0,"id":5503},"arcs":[1119]},{"type":"LineString","properties":{"source":"naturalearthdata.com","kind":"major_road","sort_rank":380,"kind_detail":"primary","min_zoom":4.0,"id":5538},"arcs":[1120]},{"type":"LineString","properties":{"source":"naturalearthdata.com","kind":"major_road","kind_detail":"primary","sort_rank":380,"landuse_kind":"nature_reserve","min_zoom":4.0,"id":5539},"arcs":[1121]},{"type":"MultiLineString","properties":{"source":"naturalearthdata.com","kind":"major_road","kind_detail":"primary","sort_rank":380,"landuse_kind":"protected_area","min_zoom":4.0,"id":5539},"arcs":[[1122],[1123]]},{"type":"LineString","properties":{"source":"naturalearthdata.com","kind":"major_road","kind_detail":"primary","sort_rank":380,"landuse_kind":"urban_area","min_zoom":4.0,"id":5539},"arcs":[1124]},{"type":"MultiLineString","properties":{"source":"naturalearthdata.com","kind":"major_road","sort_rank":380,"kind_detail":"primary","min_zoom":4.0,"id":5539},"arcs":[[1125],[1126]]},{"type":"MultiLineString","properties":{"source":"naturalearthdata.com","kind":"major_road","kind_detail":"primary","sort_rank":380,"landuse_kind":"protected_area","min_zoom":6.0,"id":5649},"arcs":[[1127],[1128]]},{"type":"MultiLineString","properties":{"source":"naturalearthdata.com","kind":"major_road","sort_rank":380,"kind_detail":"primary","min_zoom":6.0,"id":5649},"arcs":[[1129],[1130],[1131]]},{"type":"LineString","properties":{"source":"naturalearthdata.com","kind":"major_road","kind_detail":"primary","sort_rank":380,"landuse_kind":"urban_area","min_zoom":6.0,"id":5651},"arcs":[1132]},{"type":"LineString","properties":{"source":"naturalearthdata.com","kind":"major_road","sort_rank":380,"kind_detail":"primary","min_zoom":6.0,"id":5651},"arcs":[1133]},{"type":"LineString","properties":{"source":"naturalearthdata.com","kind":"major_road","kind_detail":"primary","sort_rank":380,"landuse_kind":"urban_area","min_zoom":4.0,"id":5652},"arcs":[1134]},{"type":"LineString","properties":{"source":"naturalearthdata.com","kind":"major_road","kind_detail":"primary","sort_rank":380,"landuse_kind":"urban_area","min_zoom":4.0,"id":5652},"arcs":[1135]},{"type":"MultiLineString","properties":{"source":"naturalearthdata.com","kind":"major_road","sort_rank":380,"kind_detail":"primary","min_zoom":4.0,"id":5652},"arcs":[[1136],[1137]]},{"type":"LineString","properties":{"source":"naturalearthdata.com","kind":"major_road","kind_detail":"primary","sort_rank":380,"landuse_kind":"urban_area","min_zoom":6.0,"id":5671},"arcs":[1138]},{"type":"LineString","properties":{"source":"naturalearthdata.com","kind":"major_road","sort_rank":380,"kind_detail":"primary","min_zoom":6.0,"id":5671},"arcs":[1139]},{"type":"LineString","properties":{"source":"naturalearthdata.com","kind":"major_road","sort_rank":379,"kind_detail":"secondary","min_zoom":6.0,"id":54187},"arcs":[1140]},{"type":"LineString","properties":{"source":"naturalearthdata.com","kind":"major_road","sort_rank":379,"kind_detail":"secondary","min_zoom":6.0,"id":54189},"arcs":[1141]},{"type":"LineString","properties":{"source":"naturalearthdata.com","kind":"major_road","sort_rank":379,"kind_detail":"secondary","min_zoom":6.0,"id":54210},"arcs":[1142]},{"type":"LineString","properties":{"source":"naturalearthdata.com","kind":"major_road","sort_rank":379,"kind_detail":"secondary","min_zoom":6.0,"id":54219},"arcs":[1143]},{"type":"LineString","properties":{"source":"naturalearthdata.com","kind":"major_road","kind_detail":"secondary","sort_rank":379,"landuse_kind":"urban_area","min_zoom":6.0,"id":54232},"arcs":[1144]},{"type":"LineString","properties":{"source":"naturalearthdata.com","kind":"major_road","kind_detail":"secondary","sort_rank":379,"landuse_kind":"urban_area","min_zoom":6.0,"id":54232},"arcs":[1145]},{"type":"LineString","properties":{"source":"naturalearthdata.com","kind":"major_road","sort_rank":379,"kind_detail":"secondary","min_zoom":6.0,"id":54232},"arcs":[1146]},{"type":"MultiLineString","properties":{"source":"naturalearthdata.com","kind":"major_road","kind_detail":"secondary","sort_rank":379,"landuse_kind":"protected_area","min_zoom":6.0,"id":54243},"arcs":[[1147],[1148],[1149]]},{"type":"LineString","properties":{"source":"naturalearthdata.com","kind":"major_road","kind_detail":"secondary","sort_rank":379,"landuse_kind":"urban_area","min_zoom":6.0,"id":54243},"arcs":[1150]},{"type":"MultiLineString","properties":{"source":"naturalearthdata.com","kind":"major_road","sort_rank":379,"kind_detail":"secondary","min_zoom":6.0,"id":54243},"arcs":[[1151],[1152],[1153]]},{"type":"LineString","properties":{"source":"naturalearthdata.com","kind":"major_road","kind_detail":"secondary","sort_rank":379,"landuse_kind":"protected_area","min_zoom":6.0,"id":54244},"arcs":[1154]},{"type":"LineString","properties":{"source":"naturalearthdata.com","kind":"major_road","kind_detail":"secondary","sort_rank":379,"landuse_kind":"urban_area","min_zoom":6.0,"id":54244},"arcs":[1155]},{"type":"LineString","properties":{"source":"naturalearthdata.com","kind":"major_road","sort_rank":379,"kind_detail":"secondary","min_zoom":6.0,"id":54244},"arcs":[1156]},{"type":"LineString","properties":{"source":"naturalearthdata.com","kind":"major_road","kind_detail":"secondary","sort_rank":379,"landuse_kind":"urban_area","min_zoom":6.0,"id":54245},"arcs":[1157]},{"type":"LineString","properties":{"source":"naturalearthdata.com","kind":"major_road","sort_rank":379,"kind_detail":"secondary","min_zoom":6.0,"id":54245},"arcs":[1158]},{"type":"MultiLineString","properties":{"source":"naturalearthdata.com","kind":"major_road","kind_detail":"secondary","sort_rank":379,"landuse_kind":"park","min_zoom":6.0,"id":54269},"arcs":[[1159],[1160],[1161],[1162]]},{"type":"MultiLineString","properties":{"source":"naturalearthdata.com","kind":"major_road","sort_rank":379,"kind_detail":"secondary","min_zoom":6.0,"id":54269},"arcs":[[1163],[1164],[1165],[1166],[1167]]},{"type":"LineString","properties":{"source":"naturalearthdata.com","kind":"major_road","kind_detail":"secondary","sort_rank":379,"landuse_kind":"urban_area","min_zoom":6.0,"id":54288},"arcs":[1168]},{"type":"LineString","properties":{"source":"naturalearthdata.com","kind":"major_road","sort_rank":379,"kind_detail":"secondary","min_zoom":6.0,"id":54288},"arcs":[1169]},{"type":"MultiLineString","properties":{"source":"naturalearthdata.com","kind":"major_road","kind_detail":"secondary","sort_rank":379,"landuse_kind":"park","min_zoom":6.0,"id":54293},"arcs":[[1170],[1171]]},{"type":"LineString","properties":{"source":"naturalearthdata.com","kind":"major_road","kind_detail":"secondary","sort_rank":379,"landuse_kind":"national_park","min_zoom":6.0,"id":54293},"arcs":[1172]},{"type":"LineString","properties":{"source":"naturalearthdata.com","kind":"major_road","sort_rank":379,"kind_detail":"secondary","min_zoom":6.0,"id":54293},"arcs":[1173]},{"type":"LineString","properties":{"source":"naturalearthdata.com","kind":"major_road","kind_detail":"secondary","sort_rank":379,"landuse_kind":"protected_area","min_zoom":6.0,"id":54408},"arcs":[1174]},{"type":"LineString","properties":{"source":"naturalearthdata.com","kind":"major_road","kind_detail":"secondary","sort_rank":379,"landuse_kind":"urban_area","min_zoom":6.0,"id":54408},"arcs":[1175]},{"type":"MultiLineString","properties":{"source":"naturalearthdata.com","kind":"major_road","sort_rank":379,"kind_detail":"secondary","min_zoom":6.0,"id":54408},"arcs":[[1176],[1177]]}]},"earth":{"type":"GeometryCollection","geometries":[{"type":"MultiPolygon","properties":{"sort_rank":10,"source":"naturalearthdata.com","min_zoom":0.0,"kind":"earth","area":1372348143486},"arcs":[[[1178]],[[1179]],[[1180]],[[1181]],[[1182]],[[1183]],[[1184]]]}]},"landuse":{"type":"GeometryCollection","geometries":[{"type":"MultiPolygon","properties":{"kind":"national_park","protect_class":"2","area":3032255331,"sort_rank":18,"source":"openstreetmap.org","min_zoom":3.0,"tier":1,"osm_relation":true},"arcs":[[[1185]]]},{"type":"MultiPolygon","properties":{"source":"openstreetmap.org","kind":"protected_area","tier":2,"protect_class":"4","area":3394684810,"sort_rank":17,"min_zoom":4.0},"arcs":[[[1186]],[[1187]]]},{"type":"MultiPolygon","properties":{"source":"openstreetmap.org","kind":"protected_area","tier":2,"protect_class":"4","area":4097966312,"sort_rank":17,"min_zoom":6.0},"arcs":[[[1188]],[[1189]],[[1190]],[[1191]],[[1192]],[[1193]],[[1194]],[[1195]],[[1196]],[[1197]],[[1198]],[[1199]]]},{"type":"MultiPolygon","properties":{"kind":"park","protect_class":"4","area":912716045,"sort_rank":24,"source":"openstreetmap.org","min_zoom":6.0,"tier":2,"osm_relation":true},"arcs":[[[1200],[1201]],[[1202]]]},{"type":"Polygon","properties":{"kind":"national_park","protect_class":"2","area":1277180032,"sort_rank":18,"source":"openstreetmap.org","min_zoom":3.0,"tier":1,"id":206559717},"arcs":[[1203]]},{"type":"MultiPolygon","properties":{"source":"naturalearthdata.com","kind":"urban_area","name":"","area":10173111322,"sort_rank":11,"min_zoom":4.0},"arcs":[[[1204]],[[1205]],[[1206]],[[1207]],[[1208]],[[1209]],[[1210]],[[1211]],[[1212]],[[1213]],[[1214]],[[1215]],[[1216]],[[1217]],[[1218]],[[1219]],[[1220]],[[1221]],[[1222]]]},{"type":"MultiPolygon","properties":{"source":"openstreetmap.org","kind":"nature_reserve","tier":2,"area":467412804,"sort_rank":23,"min_zoom":6.0},"arcs":[[[1223]]]},{"type":"MultiPolygon","properties":{"source":"openstreetmap.org","kind":"park","tier":2,"area":2887726804,"sort_rank":24,"min_zoom":6.0,"osm_relation":true},"arcs":[[[1224]],[[1225]],[[1226]]]},{"type":"Polygon","properties":{"kind":"protected_area","protect_class":"4","area":772902016,"sort_rank":17,"source":"openstreetmap.org","min_zoom":6.0,"tier":2,"id":-2313626,"osm_relation":true},"arcs":[[1227]]},{"type":"Polygon","properties":{"kind":"nature_reserve","protect_class":"4","area":2757619968,"sort_rank":23,"source":"openstreetmap.org","min_zoom":4.0,"tier":2,"id":476973338},"arcs":[[1228]]},{"type":"MultiPolygon","properties":{"source":"openstreetmap.org","kind":"park","tier":2,"area":19954962327,"sort_rank":24,"min_zoom":4.0,"osm_relation":true},"arcs":[[[1229]],[[1230],[1231],[1232],[1233],[1234],[1235],[1236],[1237],[1238],[1239],[1240],[1241],[1242],[1243],[1244],[1245],[1246],[1247],[1248],[1249],[1250]],[[1251],[1252],[1253],[1254],[1255],[1256]],[[1257],[1258]],[[1259],[1260]]]}]}},"type":"Topology","transform":{"translate":[22.5,55.7765730187],"scale":[0.001373291,0.0007414963]},"arcs":[[[3661,2363],[-4,-50],[3,-31],[-8,-28],[-3,-24],[18,-19],[76,-36],[39,-44],[10,-12],[74,-46],[14,-12],[9,-19],[4,-32],[-4,-75],[-5,-42],[-7,-29],[-22,-21],[-68,-33],[-13,-20],[10,-25],[19,-10],[17,-13],[3,-35],[-3,-15],[-12,-29],[-4,-15],[-2,-13],[-2,-27],[-2,-16],[-49,-105],[-15,-47],[12,-3],[12,-4]],[[3534,2361],[127,2]],[[3849,1476],[33,-9],[15,-14],[29,-33],[16,-13],[4,-19],[-14,-31],[-17,-31],[-8,-23],[13,-23],[71,-52],[8,-23],[0,-61],[4,-28],[10,-22],[13,-15],[58,-29],[12,-9]],[[4096,1012],[-19,-18],[-4,-16],[2,-13],[6,-12],[15,-20]],[[3758,1433],[61,35],[30,8]],[[4096,506],[-10,7]],[[4086,513],[-31,-13],[-13,-9],[-20,-15],[-31,-16],[-30,-6],[-9,-5],[-11,-12],[-8,-15],[-6,-17],[-9,-18],[-50,-39],[-22,-25],[-3,-32],[-24,-44],[-73,-50],[-20,-59],[-5,-65],[-6,-28],[-7,-21],[-20,-3]],[[3468,14],[-20,12],[-45,40],[-16,9],[-30,6]],[[3357,81],[-94,-13],[-1,-1],[-16,-10],[-42,-54],[-1,-3]],[[3688,21],[-92,9],[-24,7],[-22,15],[-19,22]],[[3531,74],[-15,-19],[-34,-34],[-14,-7]],[[2063,3041],[-6,4],[-5,8],[-8,25],[-5,9],[-13,11],[-14,2]],[[2012,3100],[-9,-9],[-1,-23],[21,-37],[5,-21],[-15,-19],[-23,-12],[-12,0]],[[1978,2979],[-10,9],[-9,29],[-7,33],[-10,28],[-19,12]],[[1923,3090],[-34,-1],[-17,-5],[-16,-10],[-10,-10],[-44,-44],[-18,-13],[-56,-8],[-18,-11],[-15,-14],[-8,-7]],[[2276,2878],[-18,2],[-16,10],[-15,20],[-4,11],[-1,9],[0,1],[-1,7],[-6,10],[-7,5],[-26,6],[-29,18],[-44,53],[-29,15]],[[2080,3045],[-7,0],[-5,-2],[-5,-2]],[[1687,2967],[-19,3],[-19,12],[-23,6]],[[1626,2988],[-10,-14],[-14,-37],[-11,-9],[-44,-5]],[[1547,2923],[-51,5]],[[1496,2928],[-15,-4],[-38,-34],[-29,-15],[-9,-11],[-12,-32],[-8,-14],[-17,-9],[-21,-1]],[[2912,2346],[-13,15],[-24,35],[-13,11],[0,1],[-58,24],[-9,4],[-30,22],[-25,29],[-69,112],[-24,28],[-80,67],[-7,17],[-2,28],[2,12],[4,8],[3,8],[-2,13],[-6,7],[-8,4],[-153,13],[-19,18],[-9,27],[-7,27],[-11,19],[-11,0]],[[2341,2895],[-8,-3],[-39,-13],[-18,-1]],[[1347,2808],[-32,13]],[[3212,2477],[-11,2],[-8,10],[-9,7]],[[3184,2496],[-13,-6],[-12,-18],[-7,-20],[-9,-18],[-15,-14],[-13,-3]],[[3510,2346],[-113,41],[-58,4],[-17,8],[-15,18],[-27,41],[-17,13],[-25,9],[-13,0]],[[3225,2480],[-13,-3]],[[3115,2417],[-56,3]],[[3059,2420],[-25,-8],[-23,-14],[-22,-19],[-5,-9],[-2,-10],[-4,-8],[-7,-4]],[[2971,2348],[-7,3],[-14,9],[-7,2]],[[2943,2362],[-9,-6],[-10,-8],[-12,-2]],[[3534,2361],[-24,-15]],[[1726,898],[16,-5],[13,-23],[19,-56],[19,-82],[8,-25],[7,-14],[24,-28],[8,-13],[12,-43],[22,-41],[26,-20],[175,-31],[77,-14]],[[1702,846],[6,1],[5,12],[1,15],[2,14],[10,10]],[[309,857],[24,-14],[18,-38],[25,-67],[33,-26]],[[121,772],[11,2],[103,44],[27,19],[21,15],[26,5]],[[1686,853],[16,-7]],[[1418,653],[25,11],[42,25],[14,15],[59,83],[28,23],[27,12],[66,30],[7,1]],[[9,835],[46,-11],[2,-1],[19,-10],[33,-35],[12,-6]],[[0,835],[9,0]],[[574,804],[16,-3],[49,-21],[76,-33],[26,-2]],[[409,712],[37,9],[37,40],[-7,14],[14,9],[84,20]],[[879,779],[6,-2],[6,-9],[1,-10],[-1,-9],[1,-4],[23,-4]],[[859,776],[20,3]],[[808,778],[51,-2]],[[741,745],[44,26],[23,7]],[[965,753],[24,-1],[9,-3],[81,-26],[68,-56],[24,-14],[22,-4]],[[915,741],[50,12]],[[1324,704],[24,-9],[46,-36],[24,-6]],[[1193,649],[2,0],[19,3],[88,48],[22,4]],[[2201,512],[37,-18],[12,-2]],[[2152,503],[49,9]],[[2294,495],[8,-4],[6,-12],[13,-45],[7,-14],[9,-9],[41,-31],[22,-25],[55,-64],[65,-46],[41,-28],[45,-53],[73,-66],[18,-29],[17,-42],[14,-27]],[[2250,492],[44,3]],[[3534,2361],[-6,15],[-7,21],[-5,22],[0,17],[6,12],[9,3],[10,1],[9,4],[5,7],[2,6],[2,27],[-2,5],[-1,5],[-2,17],[-2,6],[-1,7],[2,13],[4,10],[5,8],[12,12],[60,21],[13,14],[0,17],[-8,38],[4,23],[7,12],[10,8],[20,10],[-15,14],[-6,3],[9,5],[14,2],[105,16],[46,19],[17,12],[9,18],[-6,27],[-12,13],[-74,30],[-6,8],[-4,18],[3,16],[5,15],[3,17],[-4,33],[-13,11],[-14,5],[-1,39],[4,35],[-4,40],[-37,50],[-29,62],[-15,31],[-17,36],[-10,64],[9,69],[44,102],[-41,187],[-36,168],[-15,68],[-13,62],[24,79]],[[2409,0],[4,7],[12,42],[6,19],[20,31],[3,15],[5,12],[10,13],[15,12],[7,8],[9,13],[5,9],[1,13],[0,24],[14,27]],[[2371,6],[6,-1],[10,-5]],[[2364,0],[0,1],[7,5]],[[1680,1561],[-34,-26],[-16,-7],[-16,-17],[-17,-2]],[[1838,1144],[2,-6],[-5,-17]],[[1835,1121],[21,6]],[[2768,549],[20,-28],[6,-18],[3,-21],[1,-35],[2,-20]],[[733,1508],[-11,54]],[[915,1305],[6,32],[-4,5],[8,38]],[[1087,979],[-22,-6],[-9,-14],[-13,-7],[-9,-13],[-25,-9],[-8,-4],[-9,-20],[-11,-13],[-5,-6],[0,-5],[2,-4],[5,-6],[0,-6],[-1,-9],[-4,-14],[-3,-6],[-2,-5],[0,-8]],[[1000,827],[4,-7],[-4,-15],[-2,-9],[-1,-32],[1,-14],[0,-1]],[[973,824],[27,3]],[[1105,978],[-18,1]],[[733,1508],[-33,-14],[18,-92]],[[2644,3652],[25,-87],[0,-10],[-49,-69],[-25,-43],[-18,-40],[4,-103],[20,-129]],[[3741,1675],[38,6],[41,11]],[[1779,1393],[18,-15],[28,-6],[26,-6],[13,-27],[11,-21],[16,-23]],[[1765,1381],[14,12]],[[785,1626]],[[1637,2204],[2,-19],[59,-2]],[[1589,1951],[23,5],[-5,21],[-16,60],[-27,18],[-8,27],[34,11],[13,28],[-10,54],[44,29]],[[19,732],[10,2],[11,8],[5,12],[4,11],[0,12],[-4,10],[-4,8],[-2,9],[3,6],[6,4],[9,9]],[[0,735],[9,-3],[10,0]],[[88,245],[-9,2],[-7,8],[-10,14],[-3,10],[0,7],[4,4],[10,9],[4,5],[3,7],[0,11],[-1,17],[-6,22],[1,11],[7,7],[34,8],[4,2],[3,3],[3,7],[1,2],[9,1],[12,7],[-12,15],[-3,8],[-2,12],[2,11],[2,10],[0,7],[-5,6],[-10,2]],[[119,480],[-16,-1],[-22,-7],[-7,-5],[-6,-7],[-10,-5],[-13,-2]],[[45,453],[-27,4]],[[18,457],[-18,-9]],[[1,0],[-1,4]],[[0,35],[4,3],[8,4],[10,3],[8,4],[11,8],[7,7],[4,14],[-3,24],[2,11],[5,8],[12,4],[10,1],[11,6],[7,10],[10,33],[22,27],[-3,14],[9,7],[10,6],[0,4],[-3,4],[-8,5],[-6,6],[-8,14],[-6,5]],[[113,267],[-5,-1],[-3,-6],[-4,-7],[-5,-5],[-8,-3]],[[1196,562],[-4,1],[-5,3],[-4,15],[2,13],[5,10],[6,9],[2,8],[-2,7],[-1,21]],[[1122,359],[5,8],[4,10],[4,27],[7,15],[17,26],[2,13],[0,13],[2,10],[5,12],[4,7],[8,5],[22,7],[5,7],[2,11],[0,21],[-1,9],[-4,6]],[[1204,566],[-3,0],[-5,-4]],[[1106,366],[4,-2],[5,-4],[3,-1],[4,0]],[[1096,0],[-4,4],[-1,10],[0,6],[-2,6],[-4,5],[-9,5],[-8,2],[-12,13],[-9,39],[28,4],[2,2],[3,6],[-1,9],[0,8],[5,10],[10,7],[20,10],[15,12],[7,14],[-2,20],[4,7],[5,13],[1,14],[-2,21],[-4,8],[-7,5],[-7,2],[-8,4],[-8,6],[-7,9],[-4,10],[-1,10],[-1,36],[0,8],[1,7],[1,6],[2,4],[4,4],[3,0]],[[2793,557],[-25,-8]],[[1263,1556],[9,14],[8,7],[30,13],[15,18]],[[2775,2323],[37,19],[1,3],[0,6],[-6,4],[-4,9],[-4,5],[-2,6],[2,6],[1,13],[5,12],[4,14],[-4,7],[-1,5]],[[2750,2096],[1,46],[6,1],[12,12],[-1,7],[-2,13],[3,9],[5,8],[2,11],[2,11],[4,7],[-1,8],[-3,5],[-5,4],[-5,4],[-6,5],[2,10],[6,7],[6,5],[10,12],[-11,2],[0,40]],[[3535,2034],[38,-29]],[[3478,1983],[36,41],[21,10]],[[3612,2020],[19,-1]],[[3573,2005],[39,15]],[[3457,1986],[21,-3]],[[3437,1966],[6,6],[4,5],[5,5],[5,4]],[[3423,1967],[14,-1]],[[3391,1955],[20,3],[12,9]],[[3681,1999],[12,24],[11,8],[10,21],[38,21],[7,6],[7,3],[7,9],[5,7],[4,33]],[[3631,2019],[11,-12],[13,-7]],[[3660,2000],[21,-1]],[[3655,2000],[5,0]],[[2305,2883],[28,9]],[[2352,2419],[-14,8],[10,17],[-12,19],[-10,17],[-22,4],[-24,2]],[[2280,2486],[-29,-8]],[[2388,2364],[-26,6],[-7,17],[27,2],[8,7],[-21,23]],[[2369,2419],[-17,0]],[[2386,2324],[33,34],[-9,17]],[[2410,2375],[-22,-11]],[[2300,2277],[13,10],[3,10],[28,23],[42,4]],[[2322,2645],[-21,17],[-32,10],[-14,21],[-23,12],[-9,14]],[[2251,2478],[-15,7],[-27,14],[-17,22],[15,18],[51,13],[0,38],[8,15],[7,14],[36,3],[13,23]],[[2296,2815],[3,20],[2,19],[4,29]],[[2245,2841],[22,-23],[29,-3]],[[2233,2837],[6,1],[6,3]],[[2226,2837],[7,0]],[[2185,2821],[16,1],[9,7],[8,4],[8,4]],[[2162,2828],[23,-7]],[[2223,2719],[2,9],[3,11],[-3,11],[-10,7],[-12,12],[-10,15],[-33,25],[2,19]],[[1759,2399],[-15,16],[-11,21],[1,56]],[[1860,2340],[-5,3],[0,3],[3,3],[0,8],[-4,15],[-17,27],[-13,9],[-15,2]],[[1809,2410],[-37,-10],[-13,-1]],[[1878,2325],[6,4],[0,5],[-5,5],[-10,2]],[[1869,2341],[-9,-1]],[[1889,2531],[-6,29],[5,18],[-8,12],[-4,12],[0,12],[3,9],[5,8],[3,5],[5,7],[-11,24],[-4,18],[-44,39]],[[1869,2533],[20,-2]],[[1865,2491],[5,4],[12,4],[-1,6],[-5,6],[-9,13],[-1,6],[3,3]],[[1834,2511],[4,-1],[3,-5],[3,-5],[7,-6],[14,-3]],[[1821,2507],[4,1],[9,3]],[[1814,2508],[7,-1]],[[1773,2475],[23,22],[18,11]],[[1734,2492],[39,-17]],[[1767,2752],[-13,5],[-6,6],[-3,8],[-2,16],[-4,21],[-2,17],[-1,17],[1,7],[-3,5],[-6,7],[-7,3],[-15,1],[-11,107],[0,2]],[[1786,2729],[-5,23],[-3,2],[-3,1]],[[1775,2755],[-3,-2],[-5,-1]],[[1833,2724],[-7,7],[-31,9]],[[1795,2740],[-9,-11]],[[3225,1422],[27,-29],[13,-5]],[[3394,1396],[18,-24],[42,-6]],[[3374,1391],[20,5]],[[3365,1395],[9,-4]],[[3319,1381],[7,6],[20,6],[19,2]],[[3290,1389],[10,-7],[19,-1]],[[3265,1388],[25,1]],[[2381,2026],[-11,-2],[-7,-3]],[[2363,2021],[-6,13],[-3,16],[4,22],[-1,9],[2,9],[10,5],[-1,10],[-22,32],[-12,31],[6,23],[-34,69],[-6,17]],[[2591,2008],[-11,20],[-11,2],[-11,8],[-15,3]],[[2543,2041],[-59,-4]],[[2484,2037],[-5,2]],[[2479,2039],[-10,0],[-8,-3],[-80,-10]],[[2259,2282],[41,-5]],[[2204,2241],[15,4],[10,13],[30,24]],[[2185,2257],[6,-4],[8,-8],[5,-4]],[[2166,2247],[19,10]],[[2127,2253],[39,-6]],[[2111,2245],[16,8]],[[1878,2325],[14,-17]],[[1910,2317],[13,-26],[0,-18],[14,-19],[18,-24],[9,-11],[10,-7],[20,-2],[25,-14],[21,-2]],[[1892,2308],[18,9]],[[2055,2197],[5,-3],[4,-8],[11,-12],[6,-5]],[[2040,2194],[15,3]],[[2081,2169],[21,2]],[[2102,2171],[5,6],[0,10],[3,9],[1,8],[-5,23],[8,8],[1,2],[-4,8]],[[1878,2325],[-12,-3],[-7,-9],[-5,-12],[-24,-9],[-7,-12],[-11,-8],[-6,-11],[-68,-43],[-8,-11],[-21,-1]],[[1709,2206],[-25,9]],[[1684,2215],[-10,-3],[1,-7],[23,-22]],[[1698,2183],[16,-30],[12,-30],[6,-11],[2,-7],[16,-13],[0,-6],[-2,-6],[-8,-9],[-1,-4],[7,-9]],[[2643,2023],[96,7],[4,10],[-1,16],[7,10],[4,13],[-3,6],[0,11]],[[2622,2025],[21,-2]],[[2591,2008],[13,12],[18,5]],[[2981,2178],[18,-39],[11,-17],[32,-21],[3,-15],[0,-4],[24,-19]],[[3103,2084],[21,-5],[34,-4]],[[3069,2063],[24,17],[10,4]],[[3160,2077],[4,-1],[3,-1],[12,-21]],[[3158,2075],[2,2]],[[3268,2060],[24,-23],[28,-19],[6,-6],[-5,-7],[-9,-9],[-1,-4],[-1,-4],[8,-3],[73,-30]],[[3179,2054],[29,6],[60,0]],[[2927,2198],[4,-6],[4,-4],[10,-5]],[[2843,2111],[-4,3],[-3,4],[-1,5],[3,5],[17,5],[9,4],[10,11],[20,8],[4,10],[1,6],[-4,24],[32,2]],[[2962,2186],[19,-8]],[[2945,2183],[17,3]],[[2810,2085],[47,13],[5,10],[0,9],[-5,1]],[[2857,2118],[-9,-6],[-5,-1]],[[2750,2096],[60,-11]],[[3283,1804],[41,56],[19,19],[29,40],[19,36]],[[3175,1627],[8,27],[-2,4],[-6,16],[30,29],[21,14],[17,20],[19,42],[11,13],[10,12]],[[2634,1755],[12,26],[4,15],[16,28],[3,7],[2,12],[-27,39],[-21,39],[-9,12],[-10,7],[-10,3],[-36,5]],[[2558,1948],[-6,31],[3,4],[4,4],[25,0],[7,2],[0,19]],[[3304,544],[5,-5],[7,-4],[17,-3],[18,0]],[[3222,905],[-7,-19],[-4,-11],[-7,-9],[-2,-10],[40,-52],[10,-18],[18,-38],[-11,-15],[-18,-1],[-5,-9],[2,-11],[2,-9],[8,-19],[19,-28],[1,-20],[7,-13],[3,-11],[10,-8],[10,-12],[4,-10],[1,-13],[-1,-16],[2,-9]],[[3090,1055],[20,-4],[33,-21],[7,-22],[-37,-16],[19,-7],[5,-11],[9,-4],[9,-1]],[[3166,970],[7,-4],[6,-10],[27,-8],[36,-4],[5,-21],[-7,-4],[-12,-4],[-6,-10]],[[3155,969],[11,1]],[[1059,1638],[10,-5],[18,-4],[6,-7],[-5,-8],[-4,-12],[-29,-24],[-4,-11]],[[1211,1721],[-8,4],[-28,45]],[[1325,1608],[-12,30],[-11,12],[-10,9],[-18,8],[-18,12],[-32,36],[-13,6]],[[1040,1659],[0,-1],[4,-12],[15,-8]],[[1205,1518],[31,-27]],[[1156,1483],[9,3],[3,7],[6,12],[15,8],[16,5]],[[1051,1567],[21,-7],[22,-13],[18,-5],[10,-13],[16,-16],[3,-17]],[[1141,1496],[3,-18]],[[1144,1478],[12,5]],[[1281,1479],[-16,42],[-2,35]],[[1236,1491],[45,-12]],[[1387,2119],[4,-4],[11,-15],[3,-7],[2,-11],[-1,-16],[-3,-13],[0,-6],[1,-4]],[[1420,2049],[8,-2]],[[1404,2043],[16,6]],[[1493,2077],[12,-9],[5,-19],[1,-7],[2,-3],[8,-4],[9,-9],[15,-18],[16,-38],[28,-19]],[[1436,2046],[57,31]],[[1428,2047],[8,-1]],[[1809,1758],[4,-26],[15,-15],[22,-16],[5,-12],[6,-5],[5,-1],[22,-11],[6,-9],[18,-11],[16,-16]],[[3243,1443],[-7,-8],[-11,-13]],[[3266,1486],[-1,-10],[-2,-7],[-20,-26]],[[3175,1627],[7,-9]],[[3188,1621],[18,-1],[7,-5],[3,-6],[-1,-16],[-3,-14],[0,-11],[9,-10],[22,-15],[6,-10],[7,-30],[10,-17]],[[3182,1618],[6,3]],[[3225,1422],[-16,-18],[-90,-149],[-8,-35]],[[3111,1220],[-1,-5],[5,-19],[0,-10],[2,-15],[-2,-17],[1,-15],[7,-8],[3,-7],[-3,-4],[-28,-15],[-10,-12],[-5,-12],[10,-26]],[[2584,1753],[-7,1],[-12,3],[-53,28]],[[2512,1785],[-19,-4]],[[2634,1755],[-20,11],[-9,3],[-9,1]],[[2596,1770],[-6,-6],[-3,-6],[-3,-5]],[[2493,1781],[-12,-37],[-1,-11],[-5,-15],[-2,-17],[0,-16],[6,-16],[5,-10],[6,-9],[3,-10],[-2,-14],[-2,-9],[-23,-15]],[[2187,1643],[-11,-1]],[[2388,1624],[-7,4],[-11,13],[-20,7]],[[2350,1648],[-16,-7],[-6,-10],[-49,-31]],[[2244,1626],[-12,0],[-35,17]],[[2197,1643],[-10,0]],[[2279,1600],[3,16],[4,13],[-2,8],[1,3],[0,3]],[[2285,1643],[-3,0],[-23,-14],[-15,-3]],[[2442,1599],[-2,6],[-4,5],[-3,5],[-3,4],[-2,4],[-3,3],[-6,4],[-6,2]],[[2413,1632],[-13,-2],[-6,-5],[-6,-1]],[[2466,1602],[-24,-3]],[[2682,1761],[-48,-6]],[[2962,1580],[-6,41],[-11,41],[-8,22],[-15,25],[-11,16],[-26,8]],[[2885,1733],[-67,-23]],[[2818,1710],[-30,37],[-5,35]],[[2783,1782],[-37,-15]],[[2746,1767],[-41,3]],[[2705,1770],[-23,-9]],[[3175,1627],[-47,8],[-10,5],[-18,0]],[[3100,1640],[-16,-6],[-7,-7],[-16,-12],[-5,-1]],[[3056,1614],[-4,7]],[[3052,1621],[-41,-18],[-23,-16],[-26,-7]],[[3090,1055],[-15,-21]],[[3075,1034],[-12,4]],[[3063,1038],[-57,-3]],[[2176,1642],[-11,-7],[-3,-1]],[[2162,1634],[-16,5]],[[2146,1639],[0,-13],[2,-6],[2,-11],[-19,-28],[-22,-16]],[[2109,1565],[-18,6],[0,9],[-1,7],[-2,8],[-4,10],[-5,9],[-8,6]],[[2071,1620],[-12,-1],[-32,-17],[-6,-8],[-10,-8],[-3,-7],[-7,-6],[-1,-4],[1,-4],[3,-3],[-13,-1]],[[1991,1561],[-67,23]],[[1924,1584],[-77,-23]],[[1803,1563],[-15,7]],[[1788,1570],[-13,-2],[-14,-6],[-20,-16],[-10,-2]],[[1847,1561],[-26,7]],[[1821,1568],[-18,-5]],[[1731,1544],[-27,6],[-24,11]],[[1422,1431],[4,0],[13,-7],[21,-19],[6,-2]],[[1416,1431],[6,0]],[[1510,1497],[-39,18]],[[1471,1515],[-10,-5],[4,-25],[-3,-6],[-6,-4]],[[1597,1509],[-87,-12]],[[1456,1475],[-6,2],[-4,5],[-4,7],[-8,5],[-9,3]],[[1425,1497],[-12,1]],[[1413,1498],[-4,-4],[2,-8],[5,-8],[3,-9],[-1,-11],[-3,-17],[1,-10]],[[1475,1316],[-3,-52]],[[1466,1403],[7,-29],[10,-24],[1,-10],[-4,-15],[-5,-9]],[[2176,1642],[3,-17],[11,-12],[1,-11],[6,-11],[4,-17],[7,-15],[0,-15],[-6,-11],[-3,-7],[-3,-7],[0,-7],[4,-5],[5,-5],[4,-7],[16,-15],[-52,-9],[1,-14],[-1,-4],[6,-10],[6,-6],[3,-12],[1,-9],[-1,-18]],[[1472,1264],[-28,-12],[-29,-28],[-11,-9],[-10,-4],[-22,-5],[-6,-3],[-2,-3],[1,-9]],[[1365,1191],[-14,3]],[[1351,1194],[-14,2],[-30,16],[-15,12],[-8,8],[-4,15],[-9,3]],[[1271,1250],[-11,-5]],[[1260,1245],[-15,-8],[-10,-3]],[[1235,1234],[-8,1]],[[1227,1235],[-4,-3],[-4,-7],[-1,-9],[-9,-11],[-9,-3]],[[1200,1202],[-12,1],[-10,4],[-22,14],[-39,8]],[[1472,1264],[25,-9]],[[1530,1255],[24,-41],[-32,-21],[2,-24],[5,-31],[13,-18],[9,-8],[20,-2],[4,-4],[0,-4],[-2,-4],[1,-3],[3,-2],[6,-1],[13,-6],[4,-4],[0,-4],[-12,-6],[-7,-6],[-5,-14],[-5,-18]],[[1497,1255],[33,0]],[[2499,1162],[-1,16],[-4,6],[-6,6],[-2,8],[1,5],[8,4],[5,6],[2,7],[-21,22],[-53,20],[-6,38],[1,12],[7,10],[5,10],[5,8],[-6,26],[-11,16],[-11,1],[-4,4],[-7,9],[-8,9],[-15,13]],[[2378,1418],[-14,-3],[-5,-10],[6,-5],[1,-8],[-2,-10],[-9,-16],[-3,-10],[-28,-16]],[[2324,1340],[-17,25],[-19,5],[-27,14],[-32,0],[-41,14]],[[2188,1398],[-49,-51],[-34,-19],[-9,-2]],[[2096,1326],[-10,4]],[[2086,1330],[-8,0],[0,-5],[2,-8]],[[2080,1317],[-22,7]],[[2058,1324],[-23,-5],[-19,-13],[-8,-12],[26,-17],[3,-6],[-1,-4],[0,-4],[-13,-22]],[[2023,1241],[-44,15]],[[1979,1256],[-2,-4],[-11,-10]],[[1966,1242],[-17,8]],[[1949,1250],[-17,7],[-3,8],[-38,30]],[[1891,1295],[-50,-13],[6,-9],[0,-5],[4,-5],[3,-7],[6,-2],[1,-7],[-10,-10],[-7,-1],[-6,-3],[-3,-4],[-2,-9],[0,-13],[-2,-41],[5,-12],[2,-10]],[[1856,1127],[6,-15],[-11,-15],[-53,-11],[-14,-4]],[[1784,1082],[-158,-47],[-55,-1]],[[3093,451],[-21,0],[-13,10],[-10,10],[-29,13]],[[3166,469],[-8,7],[-10,0]],[[3148,476],[-12,-3],[-23,-16],[-20,-6]],[[3196,475],[-12,-2],[-18,-4]],[[3227,380],[-30,63],[-1,32]],[[3254,383],[-27,-3]],[[2918,480],[-17,48],[-21,17],[-28,4],[-26,18]],[[2826,567],[-33,-10]],[[3004,465],[-3,5],[-8,10],[-25,21],[-4,8],[-10,3]],[[2954,512],[-9,-19],[-3,-11],[-24,-2]],[[3020,484],[-16,-19]],[[2613,849],[15,0],[26,-23],[9,-12],[3,-11],[1,-12],[1,-28],[2,-7],[10,-22],[3,-7],[-1,-26],[1,-7],[2,-4],[3,-4],[3,-3]],[[2693,684],[0,-11],[-2,-9],[-2,-9],[-1,-7],[-2,-30],[4,-12],[10,-4],[8,-2],[15,-5],[7,-2],[11,-7],[27,-37]],[[2691,683],[2,1]],[[2813,909],[-7,32],[-22,32],[-2,12],[-4,7],[-4,5],[-14,3]],[[2760,1000],[-24,-8],[-18,-18],[-24,-35],[-6,-20],[-28,-39],[-47,-31]],[[2942,962],[-8,5],[-22,3]],[[2912,970],[-17,-2],[-13,-7],[-9,-9],[-7,-9],[-17,-14],[-36,-20]],[[3006,1035],[-24,-51],[-1,-6],[0,-7],[3,-1],[-1,-2],[0,-7],[-27,-4]],[[2956,957],[-14,5]],[[2578,1146],[-13,4],[-15,14],[-13,35]],[[2537,1199],[-38,-37]],[[2712,1124],[-19,23],[5,11],[-10,10],[-16,3],[-9,7],[-19,5]],[[2644,1183],[-28,-13],[-25,-19],[-13,-5]],[[2822,1159],[-18,-35],[-6,-8],[-37,-23]],[[2761,1093],[-5,25],[-3,7],[-14,8]],[[2739,1133],[-27,-9]],[[3006,1035],[-14,1],[-9,3],[-7,6],[-3,16],[8,43],[-52,6],[-28,9],[-60,37],[-19,3]],[[2499,1162],[-35,-20],[-38,-14],[-32,-5]],[[2394,1123],[-22,4]],[[2372,1127],[-10,7]],[[2362,1134],[-24,-16],[-16,-6],[-31,-6],[-33,-24],[-16,-3]],[[2242,1079],[-7,0]],[[2235,1079],[-7,-4],[15,-6]],[[2257,1070],[6,-3],[-1,-8],[-6,-13],[-16,-17],[-13,-39],[6,-17],[10,-13],[10,-29]],[[2243,1069],[14,1]],[[2034,851],[4,-41],[0,-16],[2,-22],[-2,-9],[-2,-7],[2,-4],[5,-5]],[[2084,753],[6,-10],[-5,-7],[-16,-7],[-12,-11],[-10,-15],[0,-14],[19,-16],[14,-19],[11,-8],[23,-32],[-6,-40],[10,-27],[0,-5],[-4,-4],[-23,-2],[-9,-8],[-7,-11]],[[2043,747],[41,6]],[[2253,931],[-2,-8],[-6,-3],[-7,-8],[-5,-7],[-14,-4],[-17,0],[-14,-11],[-21,-24],[-15,-7],[-45,-3]],[[2107,856],[-45,13]],[[2062,869],[-26,0],[-2,-18]],[[2800,427],[-21,40],[-1,11],[3,5],[1,9],[-2,6],[-3,6],[-6,4],[-17,8],[-18,4],[-10,7]],[[2726,527],[-17,-2],[-11,-3],[-48,-44],[9,-13],[1,-4],[0,-12],[-17,-15]],[[2643,434],[-7,3],[-8,1]],[[2628,438],[-8,-7],[-4,-9],[-10,-14],[-14,-15],[-10,-2]],[[2582,391],[-6,3],[-9,14]],[[2506,385],[-11,12],[-8,12],[-61,58]],[[2426,467],[2,-18],[3,-7],[9,-15],[2,-6],[5,-9],[-8,-10],[-4,-12],[-5,-10],[-19,-14],[-11,-10],[0,-1]],[[2567,408],[-13,11]],[[2554,419],[-13,-9],[-5,-6],[-21,-18],[-9,-1]],[[3454,1366],[70,-9]],[[3551,1408],[5,1],[8,9],[-3,5],[4,6],[12,12],[11,8],[14,2]],[[3541,1413],[4,0],[2,-3],[4,-2]],[[3524,1357],[6,2],[-2,23],[2,8],[0,11],[5,8],[6,4]],[[3686,1476],[4,-5],[3,-5],[7,-8],[14,-7],[11,-10],[16,-11]],[[3602,1451],[52,7],[9,7],[14,5],[9,6]],[[3741,1430],[5,7]],[[3685,1078],[10,-26],[-6,-20],[-11,-9],[-9,-5],[-10,-3],[-13,-2],[-10,-9],[-5,-8],[0,-8],[0,-13],[7,-16],[0,-13],[9,-24]],[[3677,947],[7,-19],[0,-10],[9,-19],[7,-13],[6,-7],[2,-5],[-1,-4],[4,-4],[5,0]],[[3647,922],[30,25]],[[3730,869],[-1,-19],[2,-8],[-1,-11],[13,-19],[22,-9],[14,-15],[0,-8],[-2,-10],[2,-20],[7,-14],[9,-15],[3,-17],[-21,-30],[0,-18],[5,-3],[4,-4],[1,-4],[-6,-7],[-6,-3],[-12,-10]],[[3716,866],[4,2],[10,1]],[[3631,1236],[-4,-16],[-8,-9],[2,-15],[3,-7],[8,-7]],[[3642,1186],[8,-2],[9,-4],[12,-9],[7,-11],[21,-23]],[[3632,1182],[10,4]],[[3699,1137],[-13,-27],[-1,-32]],[[3666,653],[10,-17],[2,-4],[12,-4]],[[3603,584],[-5,19],[4,8],[15,5],[16,2],[14,8],[11,10],[3,12],[5,5]],[[3751,638],[12,-13]],[[3690,628],[61,10]],[[3583,585],[20,-1]],[[3577,581],[6,4]],[[3524,585],[53,-4]],[[3492,575],[32,10]],[[3395,586],[8,-4],[89,-7]],[[3351,532],[-3,11],[0,4],[1,6],[2,3],[17,9],[19,17],[8,4]],[[3304,544],[-27,-13],[-23,-2],[-27,-16],[-8,-15],[12,-14],[-6,-15]],[[3225,469],[-29,6]],[[3253,312],[-25,-6],[8,-49],[2,-10],[7,-13],[-9,-11],[-6,-13],[14,-6],[-6,-22],[-6,-10],[-3,-15],[0,-26],[32,-13],[2,-12],[0,-14],[-1,-8],[-1,-16],[1,0],[0,-1]],[[3254,383],[-12,-26],[1,-9],[3,-10],[9,-18],[-2,-8]],[[3763,625],[14,-20],[11,-8],[15,-17],[16,-9],[25,-6]],[[4034,592],[6,-2],[3,-4],[3,-6],[4,-4],[2,-1]],[[3931,548],[11,1],[64,26],[14,9],[8,7],[6,1]],[[4052,575],[4,8]],[[3867,566],[9,-14],[11,-5],[11,0]],[[3844,565],[23,1]],[[3923,553],[8,-5]],[[3898,547],[25,6]],[[4056,583],[5,-16],[-10,-20],[-14,-33],[2,-9],[3,-13],[0,-1]],[[6,1669],[-6,-10]],[[722,1562],[-10,2]],[[712,1564],[-2,6],[-1,4],[7,8],[12,16],[55,26],[2,2]],[[6,1669],[-6,1]],[[314,1845],[7,11],[4,10],[2,10],[13,21],[8,5],[45,31],[30,39]],[[299,1835],[15,10]],[[241,1839],[58,-4]],[[99,1671],[10,35],[-6,72],[21,4],[66,19],[24,19],[6,7],[4,7],[17,5]],[[67,1680],[32,-9]],[[43,1661],[24,19]],[[6,1669],[37,-8]],[[423,1972],[23,36]],[[446,2008],[2,38],[4,16],[5,9],[24,9]],[[718,1402],[-25,-23],[-31,-9],[-9,0]],[[653,1370],[-5,2],[-11,9]],[[637,1381],[-38,-25],[-5,-11],[-1,-11],[8,-22],[-19,-46],[-20,-7]],[[562,1259],[-41,1]],[[521,1260],[-16,-8],[-16,-17]],[[489,1235],[-35,9]],[[425,1233],[-40,6],[-31,21],[-60,1]],[[294,1261],[-21,-3],[-36,-15]],[[454,1244],[-18,-10],[-11,-1]],[[210,1385],[-1,-9],[24,-34],[5,-51],[1,-11],[-2,-8],[-5,-3],[-3,-3],[0,-6],[3,-4],[5,-13]],[[0,1541],[9,-2],[10,-6],[2,-6],[-3,-5],[-3,-7],[0,-21],[-1,-10],[-3,-7],[-6,-6],[-5,-6],[0,-1]],[[0,1446],[20,-10],[43,-6],[35,-17],[8,-11],[-3,-11]],[[130,1393],[29,-10]],[[103,1391],[27,2]],[[159,1383],[51,2]],[[237,1243],[-18,-3],[3,-24],[17,-9],[7,-18],[16,-19],[-4,-18],[-10,-18],[-8,-9],[-9,-5],[-18,0],[-8,-1],[-3,-7],[-1,-6],[1,-7],[1,-5],[4,-3],[3,-6],[3,-3],[4,-14]],[[154,1064],[-7,-97],[29,-24],[2,-10],[3,-17],[-4,-9],[-5,-7],[-7,-26],[30,-4],[13,-4],[26,-22],[27,-7],[1,0]],[[217,1068],[-18,-1],[-13,-8]],[[186,1059],[-14,5]],[[172,1064],[-3,0]],[[169,1064],[-15,0]],[[925,1380],[-26,30],[-12,19],[-8,22],[-27,30],[-32,20],[-18,0],[-10,2],[-59,5]],[[1098,1259],[-7,15],[-1,12]],[[1050,1284],[-5,3],[-7,4],[-4,11],[-5,5],[-9,0]],[[1020,1307],[-53,-10],[-7,-4],[-5,-4],[-7,-4]],[[948,1285],[-13,4],[-12,8],[-8,8]],[[1090,1286],[-40,-2]],[[1117,1229],[-24,10],[5,20]],[[1150,1023],[1,-10],[-27,-34],[-9,-1]],[[1115,978],[-10,0]],[[1117,1229],[6,-36],[-6,-2],[-8,-2]],[[1109,1189],[-4,6],[-6,5]],[[1099,1200],[-2,-2],[3,-8],[19,-24],[7,-5],[3,-3],[0,-5],[1,-5],[2,-5],[2,-7],[-6,-11],[-7,-3],[-7,0],[-2,-1],[0,-7],[10,-14],[11,-9],[19,-5],[9,0],[9,-2],[3,-7],[-4,-15],[-12,-18],[-7,-21]],[[718,1402],[14,-11],[15,-60],[-17,-22],[-31,-17],[-17,-14],[-14,-23],[18,-14],[15,-6],[11,-10],[3,-6],[-2,-5],[4,-16],[1,-6],[-7,-6],[-23,-19],[-5,-10],[-10,-17],[-8,-8],[-5,-13],[54,-9],[-2,-17],[-21,-11],[-9,-2],[-3,-9],[1,-9],[9,-10],[9,-16],[1,-20],[-9,-33],[-7,-8],[-17,-8]],[[666,967],[12,-22],[-2,-6],[-2,-5],[-7,-10],[-2,-3],[4,-14],[9,-5],[6,-12],[7,-20],[10,-20],[0,-12],[-4,-8],[-5,-8],[-6,-5],[-8,-6],[-8,-3],[-26,-20],[-4,-8],[-1,0]],[[2000,4096],[-5,-4],[-16,-6],[-10,-6],[-3,-7],[2,-9],[12,-22],[3,-18],[-2,-10],[-15,-37]],[[2982,3165],[-15,-16],[-2,-4],[-5,-15],[-8,-29],[1,-10],[-1,-15],[1,-26],[-2,-24],[-6,-17],[-3,-70]],[[2009,3853],[-19,-10],[-6,-9],[-1,-10],[3,-9],[3,-10],[0,-13],[-7,-7],[-29,-10],[-10,-10],[-10,-15],[-9,-11],[-31,-23],[-49,-22],[-27,-29],[-6,-11],[2,-4],[8,-18],[4,-15],[0,-32],[-21,-16],[-3,-16],[2,-30],[-5,-29],[-10,-42],[8,-17],[5,-4],[12,-3]],[[1836,3450],[10,-1],[5,-4],[57,-11],[11,-5],[28,-26],[43,-27],[9,-9],[3,-13],[-13,-15],[0,-7],[1,-10],[1,-47],[-3,-6],[-5,-1]],[[1813,3428],[23,22]],[[1983,3268],[-4,6],[-8,6]],[[1971,3280],[-40,-9],[-6,-8],[-5,-9],[2,-12],[2,-11],[0,-11],[-4,-4]],[[1920,3216],[-5,2],[-6,3],[-9,1]],[[1900,3222],[-10,-10],[-4,-8],[1,-7],[3,-4],[7,-5],[3,-4],[3,-6],[-1,-9],[-7,-3]],[[1895,3166],[-10,1],[-11,2]],[[1874,3169],[-10,-1],[-4,-6],[-2,-7],[-4,-10],[-7,-7],[-13,-8],[-5,-9],[-1,-7],[4,-7],[2,-6],[2,-7],[1,-8],[1,-7],[2,-5],[6,-9],[0,-1]],[[1189,3945],[-34,-18],[-19,-6],[-28,-17],[-12,-1]],[[1096,3903],[-24,6]],[[1072,3909],[-6,-3],[-2,-8],[-1,-13],[-4,-15],[-16,-21],[-12,-7],[-12,0]],[[1019,3842],[-20,10],[-8,2]],[[991,3854],[-1,-5],[1,-8],[2,-5],[1,-5],[-1,-5],[-2,-8],[0,-8],[3,-21],[24,-27],[3,-4],[0,-10]],[[1021,3748],[-56,5]],[[965,3753],[-57,-14]],[[908,3739],[-70,10]],[[838,3749],[-11,-1],[-36,-15],[0,-1]],[[1196,4096],[0,-5],[2,-9],[11,-12],[-30,-24],[-6,-9],[-26,-12],[-4,-13],[4,-8],[14,-4],[34,-1],[7,-4],[3,-7],[-2,-8],[-14,-35]],[[1665,3998],[-45,12],[-25,2]],[[1595,4012],[-26,-37],[-32,-7],[-24,-10],[-10,0]],[[1759,3905],[-3,13],[-2,19],[-6,32],[-2,22],[-5,8],[-8,7],[-18,4]],[[1715,4010],[-13,-1],[-18,-8],[-19,-3]],[[1503,3958],[-7,9],[0,8],[1,8],[-3,5],[-11,3],[-8,1]],[[1475,3992],[-24,-11],[-23,-19],[-4,-7],[-5,-9],[-4,-17],[-3,-5],[-7,-6],[-11,-6],[-37,-9]],[[1915,3970],[-49,11]],[[1866,3981],[-1,-12],[-3,-2],[-8,0]],[[1966,3977],[-28,-6],[-23,-1]],[[1854,3967],[-12,3],[-4,0]],[[1838,3970],[-12,-4],[-14,-11],[-12,-11],[-25,-33],[-16,-6]],[[1357,3903],[-57,7],[-90,17],[-21,18]],[[2213,3848],[13,16],[47,16],[13,7],[15,10],[53,18],[32,14]],[[2191,3853],[22,-5]],[[2139,3826],[26,7],[26,20]],[[2009,3853],[34,-14],[17,-3],[15,-8],[64,-2]],[[2009,3853],[12,51],[3,17],[3,8],[4,9],[3,7],[-1,8],[-6,8],[-13,6],[-23,3],[-25,7]],[[2374,3813],[-7,4],[-1,8],[6,11],[8,6],[13,7],[4,7],[1,11],[-4,18],[-2,34],[-6,10]],[[2412,3811],[-16,2]],[[2396,3813],[-22,0]],[[2644,3652],[-49,39],[-22,28],[-3,10],[-6,12],[-6,8],[-23,1],[-9,3],[-8,9],[-5,9],[-4,9],[-2,9],[-10,9],[-9,5],[-64,9]],[[2424,3812],[-12,-1]],[[2528,4096],[-5,-4],[-2,-15],[-1,-13],[-2,-13],[-2,-9],[-20,-16]],[[2496,4026],[-15,10]],[[2481,4036],[-14,-2],[-23,-19],[-6,-3],[-9,-6],[-6,-7],[-6,-16],[-5,-11],[-21,-23],[-5,-20]],[[3287,3811],[3,13],[-5,38],[2,9],[4,5],[6,0],[7,3],[9,7],[12,12],[9,8],[9,4],[41,10],[205,35]],[[3176,3852],[22,-4],[34,-27],[28,-4],[9,-5],[18,-1]],[[3074,3740],[66,16],[21,40],[15,56]],[[3040,3758],[8,-7],[26,-11]],[[2998,3703],[3,1],[3,2],[9,12],[11,30],[8,9],[8,1]],[[2919,3728],[25,-14],[27,-9],[27,-2]],[[2884,3711],[10,7],[25,10]],[[2867,3723],[13,-12],[4,0]],[[2825,3697],[8,4],[16,18],[18,4]],[[2798,3721],[10,-2],[6,-8],[5,-9],[6,-5]],[[2692,3660],[15,4],[13,6],[64,46],[14,5]],[[2671,3661],[21,-1]],[[2644,3652],[27,9]],[[3390,3338],[-11,8],[-5,7],[-4,1]],[[3370,3354],[-5,-1],[-11,-14],[-10,-3]],[[3344,3336],[-14,2],[-21,13],[-7,2]],[[3302,3353],[-9,-5],[-12,-26],[-4,-7],[-2,-3],[-15,-1]],[[3500,3288],[-7,1],[-8,1],[-8,4],[-6,6],[-3,24],[-14,14]],[[3454,3338],[-64,0]],[[3260,3311],[-19,19]],[[3241,3330],[-33,-6]],[[3208,3324],[-6,3],[-8,1]],[[3194,3328],[-7,-2],[-9,-7],[-11,-23],[-7,-23],[-20,-20],[-45,-15]],[[3626,3258],[-107,35]],[[3519,3293],[-12,-4],[-7,-1]],[[3655,3261],[-29,-3]],[[3095,3238],[-22,0],[-2,6],[-8,11],[-6,0]],[[3057,3255],[-8,-5],[-9,-12],[-7,-7],[-7,-1]],[[3026,3230],[-11,6]],[[3015,3236],[-3,-2],[0,-8],[1,-10],[1,-12],[0,-12],[-6,-11],[-5,-6],[-21,-10]],[[3339,2941],[7,0],[12,-8],[46,-33],[41,-20],[11,-3]],[[3305,2888],[6,5],[-3,32],[10,10],[13,5],[8,1]],[[2942,2939],[28,-11],[7,-6],[12,-4],[21,-3]],[[3046,2924],[39,-9],[22,-11]],[[3010,2915],[19,3],[17,6]],[[3224,2918],[81,-30]],[[3187,2905],[17,6],[20,7]],[[3171,2910],[16,-5]],[[3107,2904],[64,6]],[[3476,2888],[5,-1],[12,-14],[2,-20],[-25,-22],[-7,-13],[-5,-18],[3,-7],[5,-2]],[[3456,2877],[8,0],[4,4],[3,4],[5,3]],[[3478,2794],[5,-4],[11,-19],[17,-3]],[[3466,2791],[6,2],[6,1]],[[3564,2789],[40,-8],[70,-28],[7,-6],[1,-1]],[[3511,2768],[28,14],[25,7]],[[2520,3145],[-22,0],[-9,10],[-9,18],[-10,15],[-19,13],[-9,2]],[[2442,3203],[-4,-6],[-1,-7],[-2,-6],[-10,-8],[-5,-7],[-2,-8],[0,-6],[4,-7],[-3,-9],[-5,-7],[-40,-20],[-27,-22],[-21,-24],[-12,-8],[-12,-2]],[[2601,3171],[-66,-18],[-15,-8]],[[2302,3056],[-11,2]],[[2291,3058],[-19,-3],[-6,-7],[-1,-11],[1,-13],[-2,-12],[-18,-30],[-5,-12],[-5,-13],[-14,-26]],[[2854,3200],[-15,17],[-7,6],[-8,12]],[[2824,3235],[-9,0],[-9,-6],[-29,-35],[-12,-11],[-12,-3],[-17,-12],[-13,-7]],[[2982,3165],[-12,23],[-7,7],[-15,11],[-7,8],[-14,11]],[[2927,3225],[-42,-13],[-10,-6],[-13,-5],[-8,-1]],[[2723,3161],[-122,10]],[[2942,2939],[-83,-12],[-25,-9],[-2,-7],[-1,-11],[1,-12],[-4,-17],[-9,-14],[-5,-10],[0,-12],[21,-5],[7,-14],[-9,-26],[0,-6],[2,-43],[19,-17],[20,-6],[7,-11],[1,-9],[-4,-19],[-5,-8],[-7,-4],[-5,-6],[0,-7],[3,-11],[2,-13],[5,-9],[9,-7],[9,-9],[1,-10],[-3,-9],[-14,-14],[-15,-23],[2,-5],[9,-12],[16,-17],[0,-8],[-3,-8],[-6,-6],[-13,-10],[-5,-7],[1,-5],[3,-8],[3,-6],[-5,-30],[2,-19]],[[1198,1283],[31,-13]],[[1098,1259],[20,15],[80,9]],[[862,1210],[35,23]],[[833,1216],[29,-6]],[[879,1100],[-26,13],[4,38],[-33,27],[-10,26],[19,12]],[[941,1174],[-16,-14],[6,-26],[-29,-13],[-23,-21]],[[897,1233],[45,-13],[10,-36],[-11,-10]],[[2926,67],[10,8],[18,8],[18,3],[11,17],[4,28],[11,10],[6,10],[5,12],[-15,9],[4,26],[-3,31],[-2,17],[-11,4]],[[2982,250],[-39,-47]],[[2943,203],[-51,8]],[[2892,211],[-24,-25],[8,-12],[26,-17],[2,-33],[2,-21],[10,-17],[10,-19]],[[3524,942],[12,27],[4,34],[3,25],[-1,22],[-17,8]],[[3525,1058],[-22,-10],[-26,-51],[7,-35],[40,-20]],[[0,2263],[3,9],[32,50],[56,6]],[[50,2559],[13,-12]],[[91,2328],[-10,52],[-2,50],[-28,52],[-1,77]],[[91,2328],[50,-28],[-12,-34],[20,-27]],[[176,2269],[60,-67],[17,-28],[35,-19]],[[149,2239],[27,30]],[[288,2155],[28,3],[12,34],[32,13]],[[387,2182],[-18,-36],[-28,-22],[-35,-24],[25,-50],[46,-9],[27,-9],[5,-34],[14,-26]],[[0,1185],[1,-23],[25,-24],[10,-56],[18,-15]],[[113,1116],[28,-21],[13,-31]],[[54,1067],[22,43],[37,6]],[[323,1454],[-15,-29],[7,-31],[31,-12]],[[390,1389],[15,-17],[10,-45],[17,-53],[22,-30]],[[346,1382],[44,7]],[[314,1845],[18,-24],[-11,-17],[-20,-14],[-12,-20],[-40,-14],[10,-29],[8,-27],[9,-24],[-12,-12],[-23,-5],[-9,-43],[9,-34],[31,-34],[31,-12],[1,-36],[4,-19],[15,-27]],[[297,1452],[-24,7]],[[273,1459],[-28,-12],[7,-29],[-22,-19],[-20,-14]],[[323,1454],[-26,-2]],[[446,2008],[12,-30],[3,-46],[-9,-51],[-15,-22],[9,-24],[28,-19],[39,-24],[19,-53],[-13,-36],[-26,-36],[-6,-37],[21,-24],[-15,-17],[-26,-26],[5,-19]],[[635,1529],[51,22],[26,13]],[[510,1556],[56,-20],[69,-7]],[[472,1544],[38,12]],[[336,1112],[14,-31]],[[254,1028],[10,19],[25,19],[25,3],[-4,26],[26,17]],[[380,1098],[14,-17],[19,-36],[15,-8],[-1,-29],[2,-60],[24,-12],[5,-34],[14,-17]],[[350,1081],[30,17]],[[217,1068],[18,-9],[8,-29],[11,-2]],[[472,885],[-22,-31],[25,-26],[15,-44]],[[643,1037],[8,-36],[15,-34]],[[472,885],[17,25],[32,4],[44,0],[25,8],[-16,12],[-10,29],[30,31],[29,43],[20,0]],[[1105,978],[9,-32],[4,-41],[1,-29],[20,-15],[36,-19],[30,-19],[-20,-24]],[[1185,799],[-26,19]],[[1159,818],[-17,0],[4,-27],[-24,-17],[-4,-26],[-19,-12],[-20,-13]],[[1369,1016],[15,-27],[19,-22],[8,-26]],[[1437,953],[29,-39],[13,-60],[-12,-17],[-49,-22],[3,-19],[40,-7],[-11,-24],[-17,-17],[9,-29]],[[1411,941],[26,12]],[[1477,736],[32,-17]],[[1442,719],[35,17]],[[1343,1025],[26,-9]],[[1263,977],[13,24],[35,22],[32,2]],[[1150,1023],[19,-7],[32,-8],[17,-9],[16,-10],[29,-12]],[[1326,1061],[-9,66],[43,9],[-9,58]],[[1369,1016],[6,31],[-29,17]],[[1346,1064],[-20,-3]],[[1830,970],[-67,-12],[-7,-20],[-8,-16],[-17,-8],[-5,-16]],[[1784,1082],[5,-37]],[[1817,1045],[13,-75]],[[1789,1045],[28,0]],[[1830,970],[11,-48]],[[1858,926],[17,-82]],[[1841,922],[17,4]],[[1918,859],[116,-8]],[[1875,844],[43,15]],[[915,1305],[-40,-10],[0,-21],[-22,-8],[9,-24]],[[881,1254],[16,-21]],[[862,1242],[19,12]],[[941,1174],[26,-26],[27,-17],[34,-9],[21,-39],[17,-34],[4,-48],[17,-22]],[[948,1582],[45,7],[29,10],[25,15],[12,24]],[[932,1592],[16,-10]],[[829,1553],[25,0],[25,5],[44,15],[9,19]],[[722,1562],[42,-14],[30,-2]],[[811,1558],[18,-5]],[[794,1546],[17,12]],[[1051,1567],[-19,-14],[-13,-19],[-31,-22],[-25,-19],[16,-48],[8,-29]],[[965,1385],[22,31]],[[933,1409],[32,-24]],[[925,1380],[8,29]],[[987,1416],[22,22],[60,9],[32,3],[17,21],[23,25]],[[1156,1483],[3,-41],[9,-14],[14,-19],[-7,-27],[-19,-29],[-1,-24]],[[1155,1329],[-37,7]],[[1118,1336],[-22,-7],[-1,-33],[-5,-10]],[[1307,1365],[38,-2],[49,-15],[38,-17],[43,-15]],[[1277,1298],[12,9],[-5,22],[-7,31],[30,5]],[[1259,1315],[18,-17]],[[1229,1270],[5,30],[25,15]],[[1236,1491],[-15,-20],[9,-21],[21,-32],[30,-5]],[[1341,1449],[33,-12],[24,-3],[18,-3]],[[1281,1413],[38,0],[22,36]],[[1388,1551],[17,-3],[20,-51]],[[1263,1556],[45,-12],[21,-8],[8,-26]],[[1337,1510],[13,19],[38,22]],[[1325,1608],[24,-16],[14,-17]],[[1363,1575],[25,-24]],[[1490,1732],[14,-1]],[[1363,1575],[18,32],[3,36],[37,10],[59,0],[-8,67],[18,12]],[[1515,1730],[36,2]],[[1504,1731],[11,-1]],[[1688,1636],[-1,-32],[-7,-43]],[[1551,1732],[29,-65],[41,-31]],[[1657,1648],[31,-12]],[[1621,1636],[36,12]],[[1597,1509],[7,-28],[24,-12],[-26,-36]],[[1602,1433],[-24,19]],[[1578,1452],[-37,-39],[-21,-16]],[[1475,1399],[-9,4]],[[1520,1397],[-16,5]],[[1504,1402],[-29,-3]],[[1363,1896],[-17,2]],[[1346,1898],[-13,21]],[[1428,2047],[11,-33],[9,-43],[-32,-4],[-53,-71]],[[1346,1898],[-5,-28],[-3,-47],[-12,-21],[-40,-19],[-6,-31],[-8,-21]],[[1272,1731],[-11,17]],[[1261,1748],[-50,-27]],[[1326,1688],[30,39],[33,6],[37,15],[32,30],[5,15]],[[1272,1731],[10,-24],[22,-15],[22,-4]],[[1463,1793],[-31,103]],[[1432,1896],[-30,-2],[-22,-4]],[[1380,1890],[-17,6]],[[1577,1819],[-34,9],[-37,8]],[[1506,1836],[-11,-19],[-32,-24]],[[1589,1951],[-16,-18],[-32,-9],[3,-36]],[[1571,1892],[12,-13],[1,-28],[-7,-32]],[[1544,1888],[27,4]],[[1463,1793],[4,-36]],[[1493,1763],[11,-32]],[[1467,1757],[26,6]],[[1655,1849],[5,-17]],[[1577,1819],[25,17],[27,13],[26,0]],[[1660,1832],[-10,-26],[-12,-23],[7,-28],[-37,-20],[-22,-4]],[[1586,1731],[-20,19]],[[1566,1750],[-15,-18]],[[1660,1832],[12,10],[6,31],[14,23],[28,9],[16,13],[12,27]],[[1732,1791],[15,-23],[27,-9],[35,-1]],[[1708,1630],[32,35],[-7,36],[6,24],[-16,51],[9,15]],[[1688,1636],[20,-6]],[[1536,2614],[-7,51],[36,24]],[[1502,2618],[34,-4]],[[1486,2549],[17,9],[-4,21],[3,39]],[[1468,2566],[18,-17]],[[1427,2412],[-19,3],[1,29],[-8,2],[2,41],[-6,67],[71,12]],[[1380,2189],[38,11],[29,11],[11,15],[7,28],[34,6],[14,17],[-9,13],[-12,20],[-14,44],[17,26],[-45,4],[5,15],[-15,16]],[[1440,2415],[-13,-3]],[[1565,2689],[-37,135],[-18,15],[12,17],[-2,36],[-4,34]],[[1565,2689],[31,-13],[12,-15],[29,-24]],[[1674,2639],[22,-19],[-3,-26],[5,-45],[44,-19],[-8,-38]],[[1637,2637],[37,2]],[[1999,2729],[-16,7],[-48,38],[-11,14]],[[1924,2788],[-22,-8],[8,-15],[7,-25],[-3,-13]],[[1865,2746],[-20,2]],[[1845,2748],[-12,-24]],[[1914,2727],[-12,2],[-14,17]],[[1888,2746],[-23,0]],[[1889,3089],[11,-30],[-3,-26],[-7,-29],[7,-30],[20,-6],[4,-28],[-10,-8],[7,-27],[24,-22],[21,-12],[12,-24],[4,-21],[21,-27],[3,-42],[-4,-28]],[[1999,2729],[16,-6],[3,-23]],[[2018,2700],[30,6],[48,6],[56,2]],[[2072,2953],[18,4],[24,2],[3,28],[9,23]],[[2059,2987],[10,-9],[3,-25]],[[2081,2839],[-16,30],[-26,2],[-21,10],[-7,34],[12,21],[17,23],[19,28]],[[2125,2750],[-8,43],[-19,48]],[[2098,2841],[-17,-2]],[[2152,2714],[-2,36]],[[2150,2750],[-25,0]],[[2152,2714],[29,0],[42,5]],[[2153,2375],[-3,-30],[-15,-13]],[[2135,2332],[-26,5]],[[2109,2337],[-14,0]],[[2251,2478],[-16,-30],[-24,-10],[-21,-23],[-20,-26],[-17,-14]],[[2095,2337],[1,-34],[10,-26],[5,-32]],[[2141,2400],[12,-25]],[[2096,2391],[24,9],[21,0]],[[2095,2337],[-3,25],[4,29]],[[2096,2391],[-19,24],[-29,25],[-25,11],[-7,29],[-27,32],[-5,12],[-19,9],[-7,25]],[[1958,2558],[-24,-15],[-25,-12],[-20,0]],[[1989,2049],[0,47]],[[1941,2005],[30,2],[18,28],[0,14]],[[1916,2009],[25,-4]],[[1886,1984],[30,25]],[[1807,1971],[49,4],[30,9]],[[1772,1982],[35,-11]],[[2053,2130],[27,2],[15,17],[7,22]],[[2029,2136],[24,-6]],[[1989,2096],[10,23],[30,17]],[[1886,1984],[11,-19]],[[1922,1965],[15,-9],[9,-27],[4,-34],[8,-25],[17,-23],[-12,-17],[-16,-21],[-26,-9],[-19,-2]],[[1897,1965],[25,0]],[[1902,1798],[19,-27],[22,-30],[-26,-21],[13,-25],[13,-26],[-1,-21],[-14,-12]],[[1989,2049],[41,-21],[23,-29],[-1,-36]],[[2082,1963],[7,-17],[-3,-19],[11,-23],[23,-2],[24,-22],[10,-19],[28,-6]],[[2052,1963],[30,0]],[[2208,1861],[23,-12]],[[2182,1855],[9,6],[17,0]],[[2231,1849],[-16,-34],[17,-13],[22,-4],[17,-40],[-2,-19],[-21,-21],[-29,-40],[-13,0]],[[2206,1678],[-16,21]],[[2190,1699],[-11,-13],[13,-25],[-5,-18]],[[2231,1849],[7,31],[2,45],[-12,25]],[[2228,1950],[12,19],[17,15],[1,23]],[[2337,2009],[26,12]],[[2308,2020],[29,-11]],[[2258,2007],[27,0],[23,13]],[[2382,1918],[-5,-40],[8,-21],[21,-25],[25,-19]],[[2448,1813],[14,-32]],[[2431,1813],[17,0]],[[2462,1781],[31,0]],[[2381,2026],[-7,-32],[-5,-14],[-6,-43],[19,-19]],[[2453,1899],[18,0],[38,9],[32,21],[17,19]],[[2402,1931],[15,-2],[22,-15],[14,-15]],[[2382,1918],[20,13]],[[2300,2277],[-7,-33],[-17,-47],[-15,-13],[-2,-25]],[[2259,2159],[-19,4]],[[2240,2163],[-22,-4],[-25,-23],[1,-19],[15,-11],[10,-23],[6,-21],[17,-13],[14,-14],[2,-28]],[[2062,2043],[-15,6],[9,17],[-9,7],[-27,6],[-14,10],[-17,7]],[[2201,1931],[-16,11],[0,44],[-8,19],[-17,19],[-28,17],[-24,17]],[[2108,2058],[-23,-9],[-23,-6]],[[2228,1950],[-10,-13],[-17,-6]],[[2466,1602],[25,-28],[17,-15],[7,-10],[-5,-25],[-23,0],[-18,-9]],[[2469,1515],[-23,9]],[[2446,1524],[-17,-9],[-20,-6],[-24,-7],[-5,-14],[-15,-17],[7,-21],[6,-32]],[[2682,1761],[2,-33],[-8,-31],[2,-38],[6,-30],[-10,-25],[-1,-17]],[[2786,1557],[24,0],[-5,24],[16,10],[14,19],[9,25],[-16,22],[-6,35],[-4,18]],[[2681,1587],[14,-2],[16,-32]],[[2673,1587],[8,0]],[[2757,1570],[29,-13]],[[2711,1553],[15,2],[18,2],[13,13]],[[2962,1580],[-69,-126],[23,-30],[9,-10],[-3,-17],[17,-15]],[[3068,1519],[10,-17]],[[2969,1386],[23,19],[8,19],[39,47],[5,23],[24,25]],[[3176,1515],[16,-19],[1,-17]],[[3078,1502],[53,7],[28,6],[17,0]],[[3211,1479],[17,-10],[15,-26]],[[3193,1479],[18,0]],[[2957,1393],[12,-7]],[[2939,1382],[18,11]],[[3064,1277],[2,-22],[24,-14],[21,-21]],[[2991,1232],[14,19],[16,17],[25,6],[18,3]],[[2968,1234],[23,-2]],[[2822,1159],[10,56],[107,0],[29,19]],[[2438,2665],[-15,-63],[22,-3],[1,-27],[95,-16],[-7,-30],[-15,-39],[-19,-17],[-41,-6],[18,-20],[1,-26],[-10,-27],[5,-26]],[[2356,2635],[82,30]],[[2322,2645],[34,-10]],[[2473,2365],[36,0]],[[2509,2365],[10,-20],[0,-26],[-17,-27]],[[2502,2292],[-29,14],[-44,10],[-43,8]],[[2638,2418],[24,-30]],[[2509,2365],[23,26],[53,13],[32,0],[21,14]],[[2683,2388],[41,-7],[3,-26]],[[2662,2388],[21,0]],[[2768,2362],[7,-39]],[[2727,2355],[27,3],[14,4]],[[2459,969],[36,-15],[85,-38],[9,-6],[6,-20],[12,-25],[6,-16]],[[3018,2213],[31,0],[12,9],[8,55],[5,34],[27,18],[36,0],[0,22],[-1,46],[-8,23]],[[2996,2216],[22,-3]],[[2981,2178],[15,38]],[[3313,1801],[-30,3]],[[3363,1764],[-15,9],[0,31]],[[3348,1804],[-35,-3]],[[3474,1736],[-53,19],[-37,15]],[[3384,1770],[-21,-6]],[[3467,1613],[-5,28],[25,9],[19,34],[8,49],[-15,6]],[[3499,1739],[-25,-3]],[[3398,1463],[25,0],[18,46],[30,28],[18,15],[30,12],[-13,59]],[[3506,1623],[-20,-10],[-19,0]],[[3303,1493],[35,-12],[60,-18]],[[3266,1486],[37,7]],[[3631,2019],[-29,-40],[-15,-43],[-17,-71],[38,-61],[44,-46],[19,-3],[9,-53]],[[3706,1709],[30,-7],[5,-27]],[[3680,1702],[26,7]],[[3741,1675],[20,-40],[-38,-6],[-68,-40],[13,-28],[-31,-28]],[[3637,1533],[-37,4]],[[3600,1537],[-20,-19],[13,-25],[9,-42]],[[1687,1426],[19,-9],[31,-18],[28,-18]],[[1620,1294],[26,30],[17,30],[-4,27],[20,9],[8,36]],[[1520,1397],[6,-8],[17,-29],[5,-3],[14,-13],[6,-8],[6,-5],[12,-4],[14,-5],[5,-5],[15,-23]],[[1765,1381],[-15,-18],[-22,-27],[-15,-6],[-5,-33],[-19,-12],[-14,-19],[13,-5],[12,-4],[13,-9],[11,-9],[8,-17],[19,-47],[11,-10],[13,-3],[14,-9],[13,-8],[12,-7]],[[1814,1138],[24,6]],[[1949,1250],[-6,-31],[10,-27],[-2,-27],[-30,-29]],[[1921,1136],[-15,7]],[[1906,1143],[-27,-4],[-23,-12]],[[2034,1099],[0,54],[0,60],[-11,28]],[[1921,1136],[18,-8],[19,-16],[19,-16],[15,-5]],[[1992,1091],[42,8]],[[2181,1126],[3,-12],[-4,-18],[11,-14],[44,-3]],[[2111,1152],[18,-5],[30,-19]],[[2034,1099],[27,8],[26,23],[24,22]],[[2175,1129],[6,-3]],[[2159,1128],[16,1]],[[2298,1318],[26,22]],[[2258,1333],[19,-3],[21,-12]],[[2181,1126],[18,3],[8,39],[38,45],[-10,48],[34,6],[0,30],[-15,18],[4,18]],[[2355,775],[1,-30],[-1,-39],[-39,-9],[10,-87]],[[2253,931],[16,-27],[-3,-21],[18,-30],[16,-21],[13,-36]],[[2350,799],[5,-24]],[[2313,796],[37,3]],[[2326,610],[0,-27],[-15,-33],[-17,-55]],[[2403,619],[28,-12],[28,-6],[14,-27],[7,-42],[30,-18],[22,-13],[0,-27],[6,-24],[19,-3],[10,-39]],[[2326,610],[45,3],[32,6]],[[2418,958],[4,54]],[[2355,775],[44,12],[35,72],[-24,42],[8,57]],[[2422,1012],[-19,1],[-10,4],[-12,32],[-16,16],[6,35],[1,27]],[[2463,943],[-4,26]],[[2418,958],[18,-12],[27,-3]],[[2468,1006],[-8,18]],[[2460,1024],[-18,0],[-20,-12]],[[2459,969],[35,25],[-5,21]],[[2489,1015],[-21,-9]],[[2800,427],[2,-27],[7,-24],[9,-16],[-3,-29],[8,-33],[12,-27],[-15,-32]],[[2820,239],[-25,16]],[[2795,255],[-15,-20],[-19,-14],[-4,-22],[12,-9],[12,-13],[-31,-36],[43,-56],[10,-40],[-42,-5],[-24,-2],[-23,-11]],[[2968,886],[-25,-78]],[[2943,808],[-45,22]],[[2898,830],[-14,-45],[39,-33],[41,-17],[15,-3],[7,-50]],[[2870,660],[-28,22],[-17,42]],[[2825,724],[-18,-3],[-1,-50]],[[2806,671],[-44,14]],[[2762,685],[14,-78],[17,-50]],[[2986,682],[-28,-19],[-38,0],[-50,-3]],[[2942,962],[-2,-32],[0,-28],[16,-8],[12,-8]],[[3003,908],[45,-28],[35,-45],[-17,-16],[-30,-20],[-13,-44],[10,-20],[27,-11],[29,-31],[30,-11],[22,-39],[19,-53],[-3,-19],[-25,-20],[19,-11],[25,-20],[15,-14],[5,-31]],[[2968,886],[11,16],[24,6]],[[2986,682],[29,-8],[14,-23],[10,-55],[-1,-56],[-18,-17]],[[3020,523],[-32,3]],[[2988,526],[10,-22],[22,-20]],[[3111,1220],[26,-21],[32,-10],[23,-28],[23,-49],[49,-11],[16,-42],[2,-52],[25,-77],[-6,-24]],[[3301,906],[-30,3]],[[3271,909],[-49,-4]],[[3469,400],[-55,-25],[4,-59],[-34,-35]],[[3307,277],[-30,11],[-24,24]],[[3384,281],[-32,3]],[[3352,284],[-45,-7]],[[3492,575],[3,-29],[23,-28],[6,-28],[-23,-21],[-49,-17],[17,-52]],[[3546,410],[4,-31],[-6,-46],[14,-3]],[[3469,400],[38,10],[39,0]],[[3612,351],[81,-53],[34,-10],[19,-4]],[[3558,330],[20,21],[34,0]],[[3754,330],[18,-18],[33,-17],[25,-27]],[[3746,284],[-2,39],[10,7]],[[3571,1360],[37,-18],[12,-42],[11,-64]],[[3524,1357],[47,3]],[[3891,1304],[16,-1]],[[3861,1199],[13,32],[0,52],[17,21]],[[3831,1234],[30,-35]],[[3699,1137],[9,48],[38,42],[85,7]],[[3756,1066],[-40,11],[-31,1]],[[3827,1004],[-22,17],[-25,45]],[[3780,1066],[-24,0]],[[3946,951],[-25,21],[-15,42],[-37,31]],[[3869,1045],[-27,-13],[-15,-28]],[[4073,978],[-29,22],[-47,7]],[[3997,1007],[-32,-28],[-19,-28]],[[4055,871],[-34,21]],[[4021,892],[-32,-7],[10,-39],[15,-27],[-15,-11]],[[4096,872],[-5,-1],[-36,0]],[[3999,808],[-27,4]],[[3972,812],[-30,-32],[-26,-31],[-27,-14],[17,-49]],[[4008,749],[28,-25],[38,-21],[19,-31],[-23,-49],[-14,-40]],[[3906,686],[38,0],[11,31],[53,32]],[[1772,1982],[-7,-14],[-17,-23]],[[1748,1945],[25,-14],[24,-32],[4,-9],[2,-10],[2,-16],[3,-18],[1,-6],[2,-22]],[[1746,2058],[13,-18],[15,-15],[4,-14],[-2,-13],[-4,-16]],[[1928,1636],[-7,-13],[3,-39]],[[1902,1798],[-33,6],[-29,7],[-29,7]],[[1229,1270],[13,-6],[18,-19]],[[2187,1643]],[[2187,1643]],[[3111,1901],[-5,-5]],[[3309,2208],[-35,-146],[-52,-77],[-111,-84]],[[3630,0],[-10,7]],[[2804,4096],[54,-134],[103,-115],[17,-96]],[[2978,3751],[4,-19]],[[2982,3732],[44,-62],[-1,-92],[46,-86],[10,-107],[251,-285],[171,-58],[124,-160],[30,-102],[39,-1]],[[3064,3502],[-1,0],[0,1],[1,-1]],[[3343,3093]],[[1179,1578],[14,0]],[[1193,1578],[10,-2],[7,-4],[57,-70]],[[1193,1578],[11,-3],[8,-10],[9,-14],[9,-14],[2,-2],[0,-1],[3,-2],[4,-4],[28,-26]],[[4041,0],[-103,71],[-199,22],[-124,93],[-393,35],[-159,-10],[-122,-88],[-36,49],[-20,176],[-50,112],[-133,174],[-39,193],[-78,101],[-126,60],[-71,154],[-79,-19],[-185,61],[-82,-47],[-108,23],[-301,127],[-106,117],[-260,98]],[[1181,1578],[10,0]],[[1190,1578],[2,0]],[[1191,1578],[17,15]],[[1191,1578],[1,0]],[[1192,1578],[3,0],[4,-1],[2,0],[2,1],[1,0],[1,1],[1,0],[0,1],[2,1],[0,1],[1,2],[0,1],[0,1],[0,2],[0,3],[-1,1],[0,2]],[[1204,1610],[1,-1]],[[1205,1609],[3,12],[45,14],[8,3],[9,5],[8,2],[97,57],[14,8]],[[1208,1594],[-2,12],[-1,2],[0,1]],[[1208,1593],[0,1]],[[1388,1710],[-180,-89],[-4,-11]],[[1204,1610],[1,-3],[2,-10],[1,-4]],[[1403,1717],[51,17]],[[1526,1758],[67,22]],[[1526,1758],[100,33],[100,68]],[[1710,1855],[16,4]],[[1726,1859],[90,38],[108,7],[111,55],[13,46],[-26,60],[115,134],[4,154],[71,43]],[[2587,2694],[-159,-152],[-116,-44],[-99,-102]],[[1822,4096],[-5,-39],[-99,-88],[8,-95],[-44,-67],[-7,-117],[-178,-190]],[[899,1167],[1,1],[1,1]],[[908,1174],[-7,-5]],[[901,1169],[-2,-2]],[[918,1183],[-10,-9]],[[1047,1356],[-129,-173]],[[1047,1356]],[[1177,1577],[-31,-70]],[[1146,1507],[-25,-78],[-74,-73]],[[1177,1577],[6,0]],[[794,0],[-64,70],[-46,18],[-132,148],[-79,31],[-299,34],[-174,-21]],[[794,0],[-50,53]],[[448,1596],[102,15],[168,-43]],[[726,1565],[-8,3]],[[726,1565],[54,-10],[31,23]],[[811,1578],[110,20],[1,0],[1,1],[1,1],[1,0],[1,1],[1,1],[2,6],[4,3],[7,1],[8,-2],[2,0],[2,0],[6,2],[2,1],[33,15],[5,-3],[6,-7],[5,-5],[2,-2],[3,-1],[1,-1],[62,-24],[1,0],[2,-1],[2,0],[2,-1],[22,-1],[20,-6],[11,-21],[2,-1],[1,-1],[2,-1],[1,-1],[4,0],[1,-1],[1,0],[1,1],[1,0],[1,1],[1,1],[1,1],[7,11],[17,12]],[[1178,1577],[-17,-12],[-8,-13],[-10,-1],[-17,25],[-20,6],[-29,3],[-63,25],[-15,15],[-6,3],[-182,-50]],[[1178,1577],[3,1]],[[719,1567],[1,0],[2,-1],[-3,1]],[[760,1554],[3,0],[-1,0],[-2,0]],[[815,1579],[-2,0],[1,0],[1,0]],[[854,1590],[-3,-1],[3,1]],[[866,1592],[-1,0],[4,1],[-2,-1],[-1,0]],[[887,1595],[-1,0],[-3,-1],[2,1],[2,0]],[[900,1596],[-1,0],[4,0],[-2,0],[-1,0]],[[918,1598],[-3,-1],[3,1]],[[928,1607],[1,1],[1,1],[0,1],[1,0],[-1,-1],[-1,-1],[-1,-1]],[[947,1611],[-3,0],[-1,1],[2,-1],[2,0]],[[962,1614],[6,3],[-2,-1],[-4,-2]],[[983,1624],[2,1],[2,1],[-2,-1],[-2,-1]],[[998,1626],[1,-1],[1,-1],[-1,1],[-1,1]],[[1012,1611],[-1,0],[-2,2],[2,-2],[1,0]],[[1181,1697],[-11,47],[33,22]],[[1203,1766],[-12,-3],[-2,-1],[-17,-15],[-1,-1],[-1,-2],[0,-1],[-1,-1],[2,-26],[-1,-11],[0,-1],[0,-1],[0,-1],[2,-1],[6,-4],[1,0],[1,0],[1,0]],[[1192,1683],[-11,14]],[[1181,1578],[11,0]],[[1192,1683],[-8,-28],[25,-68],[-17,-9]],[[1192,1578],[8,-1],[2,0],[2,1],[1,1],[1,0],[0,1],[2,1],[0,1],[1,2],[0,1],[0,2],[0,1],[0,4],[-2,5],[-2,11],[-3,6],[-7,12],[0,2],[-1,5],[0,1],[-10,21],[8,28]],[[1203,1766],[69,39]],[[1272,1805],[25,20]],[[1297,1825],[2,8]],[[1299,1833],[5,10]],[[1304,1843],[25,43]],[[1329,1886],[2,3]],[[1331,1889],[9,8]],[[1329,1886],[1,3]],[[1330,1889],[1,2],[1,1],[1,0],[7,5]],[[1330,1889],[1,0]],[[1340,1897],[57,94]],[[1397,1991],[1,3],[1,2],[0,6],[2,5],[2,3],[1,7]],[[1404,2017],[26,83]],[[1397,1991],[2,11],[3,8],[2,7]],[[1182,1577],[11,1]],[[1193,1578],[10,-2],[7,-4],[57,-70]],[[1193,1578],[11,-3],[8,-10],[9,-14],[9,-14],[2,-2],[0,-1],[3,-2],[4,-4],[28,-26]],[[1267,1502],[197,-70]],[[1464,1432],[51,-22]],[[1464,1432],[-7,3]],[[2021,1141],[-387,146],[-119,123]],[[1521,1407],[-6,3]],[[2804,4096],[54,-134],[103,-115],[17,-96]],[[2978,3751],[4,-19]],[[2982,3732],[44,-61],[-1,-93],[45,-94],[-212,-178],[-133,-220],[0,-151],[-44,-135],[-94,-106]],[[3064,3502],[-1,0],[0,1],[1,-1]],[[3111,1901],[-5,-5]],[[3309,2208],[-35,-146],[-52,-77],[-111,-84]],[[1179,1578],[14,0]],[[1193,1578],[10,-2],[7,-4],[57,-70]],[[1193,1578],[11,-3],[8,-10],[9,-14],[9,-14],[2,-2],[0,-1],[3,-2],[4,-4],[28,-26]],[[4096,839],[-170,72],[-115,111],[-185,3],[-93,-23],[-202,49],[-313,14],[-99,-55],[-287,28],[-178,-41],[-68,147],[-77,-21],[-185,61],[-82,-47],[-108,23],[-301,127],[-106,117],[-260,98]],[[3696,2779],[-84,5]],[[2050,4096],[94,-18],[58,-110],[29,-125],[-23,-167],[30,-195]],[[2239,3482],[-1,-2]],[[1181,1578],[10,0]],[[1191,1578],[17,15]],[[1191,1578],[1,0]],[[1192,1578],[3,0],[4,-1],[2,0],[2,1],[1,0],[1,1],[1,0],[0,1],[2,1],[0,1],[1,2],[0,1],[0,1],[0,2],[0,3],[-1,1],[0,2]],[[1204,1610],[1,-1]],[[1205,1609],[3,12],[45,14],[8,3],[9,5],[8,2],[97,57],[14,8]],[[1208,1594],[-2,12],[-1,2],[0,1]],[[1208,1593],[0,1]],[[1388,1710],[-180,-89],[-4,-11]],[[1204,1610],[1,-3],[2,-10],[1,-4]],[[1403,1717],[51,17]],[[1526,1758],[67,22]],[[1526,1758],[100,33],[86,65]],[[1710,1855],[2,1]],[[1712,1856],[4,1]],[[3937,4096],[-44,-102]],[[732,1112],[-135,18],[-168,110],[-260,13],[-169,-23]],[[918,1183],[-186,-71]],[[732,1112],[-12,-4]],[[894,1162],[-34,-14]],[[918,1183],[-13,-12]],[[1047,1356],[-129,-173]],[[1047,1356]],[[1175,1576],[-29,-69]],[[1146,1507],[-25,-78],[-74,-73]],[[1175,1576],[8,2]],[[1179,1578],[14,0]],[[1193,1578],[10,-2],[7,-4],[57,-70]],[[1193,1578],[11,-3],[8,-10],[9,-14],[9,-14],[2,-2],[0,-1],[3,-2],[4,-4],[28,-26]],[[4096,1937],[-76,-152],[-178,-116],[-37,-238],[-283,-345],[0,-82],[-191,47],[-313,14],[-99,-55],[-287,28],[-178,-41],[-68,147],[-77,-21],[-185,61],[-82,-47],[-108,23],[-301,127],[-106,117],[-260,98]],[[3617,3297],[-1,41],[-3,8],[-8,6],[-29,40],[5,16],[-2,12],[-5,12],[-3,15],[0,29],[3,9],[5,7],[2,7],[-5,9],[-11,8],[-50,27],[-32,1],[-17,5],[-17,21],[-5,29],[2,66],[-2,36],[-24,120],[-26,72],[-46,87],[-17,22],[-68,46],[-19,24],[-5,24],[619,0],[0,-4],[-10,-22],[-3,-12],[-1,-14],[2,-28],[-1,-14],[-11,-67],[-2,-36],[6,-16],[9,-12],[34,-100],[4,-28],[0,-84],[-2,-24],[-5,-22],[-10,-22],[-19,-23],[-2,13],[4,28],[-1,23],[-57,-67],[-11,-35],[-24,-41],[-5,-4],[-15,-1],[-3,-4],[2,-14],[4,-6],[5,-4],[4,-9],[5,-16],[1,-10],[-5,-6],[-16,-5],[-15,3],[-24,21],[-12,5],[-12,-6],[-5,-14],[-1,-20],[0,-21],[-3,-15],[-5,-16],[-12,-29],[-29,-21]],[[3619,3522],[-3,-9],[22,-13],[11,-1],[12,4],[-6,10],[-6,7],[-15,9],[-2,1],[-5,0],[-5,-3],[-3,-5]],[[3646,3318],[16,-12],[33,9],[13,-11],[6,-21],[1,-25],[-4,-22],[-10,-10],[15,-4],[2,-14],[-2,-17],[5,-10],[9,3],[26,27],[26,11],[14,10],[14,6],[15,-7],[9,0],[24,20],[12,3],[0,-4],[3,-9],[3,-10],[4,-5],[8,-4],[8,-2],[8,1],[35,17],[14,3],[12,-5],[6,-9],[12,-27],[7,-11],[38,-33],[10,-5],[1,-8],[9,-39],[5,-12],[43,-49],[0,-234],[-120,-6],[-14,9],[-6,35],[-9,21],[-20,11],[-37,13],[33,14],[7,6],[1,15],[-6,12],[-10,7],[-19,5],[-26,13],[-7,8],[-3,5],[-10,8],[-7,28],[-3,9],[-17,16],[-29,13],[-26,2],[-12,-17],[0,-13],[0,-5],[-13,-18],[-5,-10],[-13,-40],[-10,28],[-6,33],[-2,33],[-1,29],[3,33],[-3,13],[-23,11],[-7,13],[-10,38],[-38,75],[-10,26],[-1,15],[29,21]],[[281,4096],[462,0],[-1,-1],[-24,-5],[-14,-12],[-27,-48],[41,17],[14,2],[23,-6],[4,1],[6,8],[7,6],[15,9],[16,3],[54,-3],[31,9],[15,-1],[13,-17],[19,21],[23,-2],[23,-15],[20,-23],[-14,2],[-29,16],[-12,1],[-10,-10],[-4,-16],[3,-14],[11,-6],[4,-5],[1,-9],[0,-10],[-3,-4],[-22,0],[-12,4],[-28,18],[-14,6],[-28,-3],[-27,-11],[-27,-4],[-28,13],[-10,0],[-4,-16],[2,-18],[12,-11],[0,-6],[-2,-7],[-6,-3],[-15,6],[-6,-2],[-6,-12],[-4,-31],[6,-36],[8,-33],[4,-25],[-3,-14],[-7,-14],[-4,-15],[2,-13],[11,-10],[6,6],[6,15],[10,13],[11,4],[3,-8],[0,-15],[6,-19],[8,-10],[13,-12],[14,-9],[9,-1],[21,11],[11,-17],[4,-33],[0,-40],[-5,-33],[0,-13],[5,-18],[8,-12],[9,-8],[9,-11],[3,-20],[1,-13],[3,-16],[4,-16],[5,-11],[5,-5],[5,1],[5,6],[4,8],[7,6],[7,-2],[7,-6],[7,-3],[5,2],[4,5],[4,4],[7,-1],[4,-4],[8,-11],[3,-4],[14,-6],[30,-3],[48,-20],[19,-24],[34,-30],[22,-37],[8,-8],[13,-5],[6,5],[13,31],[13,12],[13,0],[27,-7],[13,3],[10,8],[10,13],[22,39],[3,12],[1,21],[3,16],[6,18],[8,16],[8,11],[26,12],[30,-2],[30,-13],[61,-48],[17,-22],[6,-29],[-8,-31],[-20,-18],[-22,-14],[-15,-20],[-2,-15],[0,-15],[0,-15],[-10,-29],[1,-15],[3,-14],[6,-13],[4,-14],[-1,-16],[-6,-30],[0,-65],[-13,-24],[-35,-42],[-12,-53],[-35,-85],[-2,-15],[-2,-16],[-3,-15],[-5,-13],[-8,-12],[-7,-15],[-5,-16],[-2,-17],[2,-32],[7,-64],[0,-24],[11,-25],[32,-54],[4,-17],[8,-80],[-8,-49],[-4,-36],[5,-16],[7,-13],[4,-30],[1,-50],[18,-168],[2,-63],[-6,-54],[-16,-38],[-48,-56],[-17,-13],[-8,-9],[0,-15],[-13,-5],[-16,-10],[-14,-16],[-6,-19],[-71,-47],[-28,-19],[-29,-8],[-10,-13],[-9,-19],[-13,-19],[-28,-24],[-19,-10],[-44,-21],[-125,-31],[-46,5],[-34,11],[-5,4],[-6,5],[-36,53],[-9,8],[-62,12],[-60,25],[-35,41],[-13,5],[-10,8],[-8,21],[-20,125],[-6,13],[-11,10],[-6,25],[-6,47],[-6,27],[-7,22],[-3,7],[-16,33],[-4,13],[0,13],[-2,11],[-9,4],[-25,6],[-38,22],[-59,52],[-52,65],[-162,141],[-41,60],[-7,19],[-3,28],[3,55],[7,51],[3,10],[4,3],[0,2],[-7,4],[-11,3],[-9,-4],[-9,-6],[-8,-3],[-17,-1],[-19,-6],[0,507],[21,31],[1,7],[-5,2],[-1,6],[0,9],[-2,5],[-2,1],[-2,2],[-1,7],[-2,3],[-7,2],[0,63],[3,0],[2,2],[3,3],[5,4],[6,23],[6,9],[11,-8],[8,-14],[3,-3],[5,5],[11,12],[12,6],[13,0],[14,-3],[11,-7],[10,-32],[39,6],[25,22],[-34,21],[8,17],[16,5],[33,-3],[17,2],[10,8],[21,26],[12,8],[12,4],[11,6],[49,65],[-16,17],[5,11],[17,1],[32,-25],[15,12],[16,18],[16,13],[-2,7],[-1,8],[-1,9],[0,8],[2,15],[6,3],[7,-3],[5,-1],[11,9],[5,5],[6,9],[2,8],[4,20],[2,4],[4,8],[1,3],[11,0],[8,-4],[4,-9],[3,-10],[3,-6],[14,-14],[14,-8],[32,-5],[-5,13],[-7,8],[-9,4],[-9,2],[17,13],[47,-32],[6,19],[-11,22],[-22,21],[-24,16],[-18,6],[-31,8],[-29,15],[-11,10],[-5,8],[-11,28],[-15,21],[-39,17],[-34,24],[-34,11],[-16,10],[-16,4],[-39,-9],[-25,13],[-15,-11],[-24,-30],[-16,-6],[-12,4],[-12,8],[-15,4],[-5,-3],[-13,-12],[-7,-3],[-5,3],[-8,12],[-5,3],[-8,7],[-13,32],[-8,7],[-24,-6],[-37,-29],[0,118],[1,-1],[40,-11],[40,5],[32,16],[19,29],[25,78],[15,33],[10,10],[49,0],[-4,-4],[-16,-11],[-8,-14],[8,-15],[20,-7],[21,1],[13,7],[8,8],[5,0],[4,4],[1,17],[-1,11],[-1,3]],[[454,3853],[-2,-7],[-11,-6],[-22,8],[-9,-7],[-3,-29],[18,-17],[37,-14],[65,-60],[8,-1],[22,12],[10,3],[26,-2],[12,-4],[12,-8],[11,-4],[7,8],[6,12],[15,11],[-3,11],[-11,22],[-6,8],[-13,16],[-6,12],[-1,12],[2,13],[0,13],[-4,13],[-9,11],[-31,18],[-66,19],[-16,1],[-15,-7],[-15,-19],[-3,-10],[-5,-28]],[[1047,3184],[4,-33],[20,-18],[23,12],[14,29],[-6,32],[-21,4],[-21,-7],[-13,-19]],[[531,2718],[15,-10],[15,1],[3,18],[-3,12],[-7,8],[-15,12],[-12,2],[-2,-8],[-2,-11],[0,-12],[8,-12]],[[3649,755],[2,-20],[0,-18],[-8,-20],[-18,-4],[-34,10],[-10,25],[-14,10],[-16,4],[-15,7],[0,10],[33,7],[15,9],[0,16],[-4,12],[3,8],[7,-1],[16,-21],[8,-1],[8,1],[9,-3],[12,-14],[6,-17]],[[3247,1382],[3,-3],[22,-11],[-119,-96],[-26,-12],[-15,7],[6,42],[18,42],[23,32],[20,14],[14,4],[21,14],[13,0],[7,-3],[6,-7],[5,-9],[2,-14]],[[2034,2643],[7,-25],[13,-20],[-3,-7],[-4,0],[-8,7],[-16,1],[-20,7],[-17,11],[-7,13],[-6,24],[-12,29],[-15,24],[-12,11],[17,6],[36,-29],[22,-6],[0,-6],[-1,-1],[-2,0],[-2,-1],[21,-15],[9,-23]],[[2637,3522],[20,-32],[3,-34],[-8,-87],[0,-42],[-3,-18],[-6,-18],[-10,-14],[-13,-14],[-11,-16],[-6,-21],[2,-25],[8,-17],[4,-16],[-7,-21],[-9,-11],[-5,9],[-4,20],[-11,35],[-3,38],[-5,16],[-15,17],[-12,10],[-6,15],[3,33],[-39,52],[-6,16],[-2,11],[-5,8],[-5,10],[-3,17],[3,12],[20,25],[10,28],[6,24],[10,18],[21,8],[21,0],[23,-5],[21,-12],[15,-19],[4,0]],[[0,2655],[19,6],[17,1],[8,3],[9,6],[9,4],[11,-3],[7,-4],[0,-2],[-4,-3],[-3,-10],[-7,-51],[-3,-55],[3,-28],[7,-19],[41,-60],[162,-141],[52,-65],[59,-52],[38,-22],[25,-6],[9,-4],[2,-11],[0,-13],[4,-13],[16,-33],[3,-7],[7,-22],[6,-27],[6,-47],[6,-25],[11,-10],[6,-13],[20,-125],[8,-21],[10,-8],[13,-5],[35,-41],[60,-25],[62,-12],[9,-8],[36,-53],[6,-5],[5,-4],[34,-11],[46,-5],[125,31],[44,21],[19,10],[28,24],[13,19],[9,19],[10,13],[29,8],[28,19],[71,47],[6,19],[14,16],[16,10],[13,5],[0,15],[8,9],[17,13],[48,56],[16,38],[6,54],[-2,63],[-18,168],[-1,50],[-4,30],[-7,13],[-5,16],[4,36],[8,49],[-8,80],[-4,17],[-32,54],[-11,25],[0,24],[-7,64],[-2,32],[2,17],[5,16],[7,15],[8,12],[5,13],[3,15],[2,16],[2,15],[35,85],[12,53],[35,42],[13,24],[0,65],[6,30],[1,16],[-4,14],[-6,13],[-3,14],[-1,15],[10,29],[0,15],[0,15],[2,15],[15,20],[22,14],[20,18],[8,31],[-6,29],[-17,22],[-61,48],[-30,13],[-30,2],[-26,-12],[-8,-11],[-8,-16],[-6,-18],[-3,-16],[-1,-21],[-3,-12],[-22,-39],[-10,-13],[-10,-8],[-13,-3],[-27,7],[-13,0],[-13,-12],[-13,-31],[-6,-5],[-13,5],[-8,8],[-22,37],[-34,30],[-19,24],[-48,20],[-30,3],[-14,6],[-3,4],[-8,11],[-4,4],[-7,1],[-4,-4],[-4,-5],[-5,-2],[-7,3],[-7,6],[-7,2],[-7,-6],[-4,-8],[-5,-6],[-5,-1],[-5,5],[-5,11],[-4,16],[-3,16],[-1,13],[-3,20],[-9,11],[-9,8],[-8,12],[-5,18],[0,13],[5,33],[0,40],[-4,33],[-11,17],[-21,-11],[-9,1],[-14,9],[-13,12],[-8,10],[-6,19],[0,15],[-3,8],[-11,-4],[-10,-13],[-6,-15],[-6,-6],[-11,10],[-2,13],[4,15],[7,14],[3,14],[-4,25],[-8,33],[-6,36],[4,31],[6,12],[6,2],[15,-6],[6,3],[2,7],[0,6],[-12,11],[-2,18],[4,16],[10,0],[28,-13],[27,4],[27,11],[28,3],[14,-6],[28,-18],[12,-4],[22,0],[3,4],[0,10],[-1,9],[-4,5],[-11,6],[-3,14],[4,16],[10,10],[12,-1],[29,-16],[14,-2],[-20,23],[-23,15],[-23,2],[-19,-21],[-13,17],[-15,1],[-31,-9],[-54,3],[-16,-3],[-15,-9],[-7,-6],[-6,-8],[-4,-1],[-23,6],[-14,-2],[-41,-17],[27,48],[14,12],[24,5],[1,1]],[[3646,3318],[16,-12],[33,9],[13,-11],[6,-21],[1,-25],[-4,-22],[-10,-10],[15,-4],[2,-14],[-2,-17],[5,-10],[9,3],[26,27],[26,11],[14,10],[14,6],[15,-7],[9,0],[24,20],[12,3],[0,-4],[3,-9],[3,-10],[4,-5],[8,-4],[8,-2],[8,1],[35,17],[14,3],[12,-5],[6,-9],[12,-27],[7,-11],[38,-33],[10,-5],[1,-8],[9,-39],[5,-12],[43,-49]],[[4096,2809],[-120,-6],[-14,9],[-6,35],[-9,21],[-20,11],[-37,13],[33,14],[7,6],[1,15],[-6,12],[-10,7],[-19,5],[-26,13],[-7,8],[-3,5],[-10,8],[-7,28],[-3,9],[-17,16],[-29,13],[-26,2],[-12,-17],[0,-13],[0,-5],[-13,-18],[-5,-10],[-13,-40],[-10,28],[-6,33],[-2,33],[-1,29],[3,33],[-3,13],[-23,11],[-7,13],[-10,38],[-38,75],[-10,26],[-1,15],[29,21]],[[3617,3297],[-1,41],[-3,8],[-8,6],[-29,40],[5,16],[-2,12],[-5,12],[-3,15],[0,29],[3,9],[5,7],[2,7],[-5,9],[-11,8],[-50,27],[-32,1],[-17,5],[-17,21],[-5,29],[2,66],[-2,36],[-24,120],[-26,72],[-46,87],[-17,22],[-68,46],[-19,24],[-5,24]],[[3858,4096],[0,-4],[-10,-22],[-3,-12],[-1,-14],[2,-28],[-1,-14],[-11,-67],[-2,-36],[6,-16],[9,-12],[34,-100],[4,-28],[0,-84],[-2,-24],[-5,-22],[-10,-22],[-19,-23],[-2,13],[4,28],[-1,23],[-57,-67],[-11,-35],[-24,-41],[-5,-4],[-15,-1],[-3,-4],[2,-14],[4,-6],[5,-4],[4,-9],[5,-16],[1,-10],[-5,-6],[-16,-5],[-15,3],[-24,21],[-12,5],[-12,-6],[-5,-14],[-1,-20],[0,-21],[-3,-15],[-5,-16],[-12,-29],[-29,-21]],[[3619,3522],[-3,-9],[22,-13],[11,-1],[12,4],[-6,10],[-6,7],[-15,9],[-2,1],[-5,0],[-5,-3],[-3,-5]],[[2637,3522],[20,-32],[3,-34],[-8,-87],[0,-42],[-3,-18],[-6,-18],[-10,-14],[-13,-14],[-11,-16],[-6,-21],[2,-25],[8,-17],[4,-16],[-7,-21],[-9,-11],[-5,9],[-4,20],[-11,35],[-3,38],[-5,16],[-15,17],[-12,10],[-6,15],[3,33],[-39,52],[-6,16],[-2,11],[-5,8],[-5,10],[-3,17],[3,12],[20,25],[10,28],[6,24],[10,18],[21,8],[21,0],[23,-5],[21,-12],[15,-19],[4,0]],[[3247,1382],[3,-3],[22,-11],[-119,-96],[-26,-12],[-15,7],[6,42],[18,42],[23,32],[20,14],[14,4],[21,14],[13,0],[7,-3],[6,-7],[5,-9],[2,-14]],[[3649,755],[2,-20],[0,-18],[-8,-20],[-18,-4],[-34,10],[-10,25],[-14,10],[-16,4],[-15,7],[0,10],[33,7],[15,9],[0,16],[-4,12],[3,8],[7,-1],[16,-21],[8,-1],[8,1],[9,-3],[12,-14],[6,-17]],[[2034,2643],[7,-25],[13,-20],[-3,-7],[-4,0],[-8,7],[-16,1],[-20,7],[-17,11],[-7,13],[-6,24],[-12,29],[-15,24],[-12,11],[17,6],[36,-29],[22,-6],[0,-6],[-1,-1],[-2,0],[-2,-1],[21,-15],[9,-23]],[[642,3781],[-6,8],[-13,16],[-6,12],[-1,12],[2,13],[0,13],[-4,13],[-9,11],[-31,18],[-66,19],[-16,1],[-15,-7],[-15,-19],[-3,-10],[-5,-28],[-2,-7],[-11,-6],[-22,8],[-9,-7],[-3,-29],[18,-17],[37,-14],[65,-60],[8,-1],[22,12],[10,3],[26,-2],[12,-4],[12,-8],[11,-4],[7,8],[6,12],[15,11],[-3,11],[-11,22]],[[1051,3151],[20,-18],[23,12],[14,29],[-6,32],[-21,4],[-21,-7],[-13,-19],[4,-33]],[[0,3937],[1,-1],[40,-11],[40,5],[32,16],[19,29],[25,78],[15,33],[10,10]],[[231,4096],[-4,-4],[-16,-11],[-8,-14],[8,-15],[20,-7],[21,1],[13,7],[8,8],[5,0],[4,4],[1,17],[-1,11],[-1,3]],[[532,3679],[-31,8],[-29,15],[-11,10],[-5,8],[-11,28],[-15,21],[-39,17],[-34,24],[-34,11],[-16,10],[-16,4],[-39,-9],[-25,13],[-15,-11],[-24,-30],[-16,-6],[-12,4],[-12,8],[-15,4],[-5,-3],[-13,-12],[-7,-3],[-5,3],[-8,12],[-5,3],[-8,7],[-13,32],[-8,7],[-24,-6],[-37,-29]],[[0,3300],[3,0],[2,2],[3,3],[5,4],[6,23],[6,9],[11,-8],[8,-14],[3,-3],[5,5],[11,12],[12,6],[13,0],[14,-3],[11,-7],[10,-32],[39,6],[25,22],[-34,21],[8,17],[16,5],[33,-3],[17,2],[10,8],[21,26],[12,8],[12,4],[11,6],[49,65],[-16,17],[5,11],[17,1],[32,-25],[15,12],[16,18],[16,13],[-2,7],[-1,8],[-1,9],[0,8],[2,15],[6,3],[7,-3],[5,-1],[11,9],[5,5],[6,9],[2,8],[4,20],[2,4],[4,8],[1,3],[11,0],[8,-4],[4,-9],[3,-10],[3,-6],[14,-14],[14,-8],[32,-5],[-5,13],[-7,8],[-9,4],[-9,2],[17,13],[47,-32],[6,19],[-11,22],[-22,21],[-24,16],[-18,6]],[[554,2747],[-15,12],[-12,2],[-2,-8],[-2,-11],[0,-12],[8,-12],[15,-10],[15,1],[3,18],[-3,12],[-7,8]],[[1701,1852],[-92,-32]],[[2031,1969],[-297,-105]],[[2811,2265],[-24,-3]],[[1609,1820],[-45,-16],[-36,-20],[-125,-102],[-32,-15]],[[1734,1864],[-33,-12]],[[2787,2262],[-39,-5],[-296,-119],[-78,-48],[-343,-121]],[[2930,2330],[-69,-55],[-13,-6],[-37,-4]],[[1282,1432],[-12,-12],[-4,-3],[-10,-5],[-10,-4],[-10,-1],[-28,2]],[[1208,1409],[-103,48]],[[1392,1615],[3,-13],[1,-12],[0,-13],[0,-13],[-2,-12],[-3,-12],[-3,-12],[-4,-11],[-8,-18],[-11,-15],[-12,-12],[-72,-40]],[[1435,474],[0,-1],[1,-3]],[[1274,1433],[6,-35],[3,-36],[0,-36],[-4,-35],[-26,-121],[-29,-111],[-11,-34],[-3,-12],[-3,-26],[1,-26],[2,-25],[5,-25],[7,-24],[9,-22],[18,-41],[22,-39],[46,-63],[50,-55],[24,-37],[19,-43],[15,-50],[5,-27],[4,-28],[1,-8]],[[1436,470],[0,-7],[0,-9],[-1,-9],[-4,-17],[-6,-15],[-30,-45],[-20,-37],[-12,-31],[-7,-23],[-6,-24],[-8,-49],[-2,-26],[-4,-118],[-1,-13],[-1,-13],[-3,-12],[-3,-11],[-3,-11]],[[1355,23],[5,-17],[1,-6]],[[1353,28],[2,-5]],[[935,1193],[-1,-1],[-13,-10]],[[1113,1450],[-45,-59],[-69,-110],[-18,-32],[-11,-16],[-24,-26],[-9,-12],[-2,-2]],[[4096,2659],[-53,-37],[-29,-12],[-14,-3],[-15,1],[-89,20],[-13,1],[-34,-6],[-52,-23],[-187,-32],[-11,-4],[-67,-46],[-76,-35],[-212,-64]],[[3244,2419],[-314,-89]],[[1468,3599],[-7,-20],[-6,-22],[-2,-23],[0,-6],[42,-31]],[[1495,3497],[7,-5],[8,-9],[9,-10],[7,-13],[5,-16],[1,-19],[-2,-18],[-5,-17],[-7,-15],[-10,-21],[-44,-63],[-3,-5],[-3,-6],[-3,-8],[-1,-8],[-1,-8],[-1,-9],[-1,-27],[1,-27],[8,-78],[1,-24],[-1,-25],[-4,-23],[-2,-6],[-4,-11],[-3,-7],[-4,-7],[-6,-8],[-1,-2],[-10,-21],[-47,-127]],[[1410,4096],[-1,-38],[2,-56],[2,-25],[2,-13],[4,-10],[25,-45],[15,-31],[4,-11],[2,-12],[1,-12],[-1,-26],[0,-12],[1,-11],[3,-11],[24,-67],[3,-12],[1,-12],[-2,-21],[-5,-19],[-22,-53]],[[1379,2854],[-16,-51],[-6,-26],[-5,-28],[-1,-14],[-1,-14],[1,-14],[1,-14],[1,-12],[16,-82],[3,-25],[-1,-25],[0,-5],[-1,-6],[-1,-5],[-2,-4],[-1,-5],[-2,-5],[-1,-2],[0,-1],[0,-1],[25,-42],[8,-18],[7,-18],[5,-20],[3,-23],[2,-33],[-2,-34],[-9,-101],[-1,-36],[2,-33],[7,-74],[0,-21],[-3,-22],[-6,-27],[-81,-221],[-2,-4],[-1,-3],[-1,-2],[0,-9],[-1,-6],[1,-7],[2,-12],[3,-11],[5,-11],[54,-84],[6,-14],[6,-14]],[[921,1182],[-27,-23],[-5,-8],[-1,-3]],[[888,1148],[-3,-7],[-2,-12],[-2,-12],[-19,-238],[-3,-25],[-5,-24],[-24,-89]],[[627,257],[-17,-24]],[[831,741],[-5,-26],[-7,-25],[-16,-48],[-158,-354],[-17,-29],[-1,-2]],[[456,119],[-6,-4],[-10,-10],[-7,-10],[-7,-12],[-34,-82]],[[610,233],[-29,-33],[-21,-18]],[[392,1],[-1,-1]],[[560,182],[-11,-8],[-88,-51],[-5,-4]],[[4096,1829],[-24,-45],[-41,-106],[-5,-10],[-11,-18],[-12,-15],[-20,-21],[-76,-113],[-15,-15],[-17,-8]],[[3880,1470],[-30,-41],[-46,-53],[-50,-44],[-15,-17],[-50,-69],[-92,-104],[-66,-96]],[[2849,108],[-17,-15]],[[2943,191],[-45,-40]],[[2898,151],[-49,-43]],[[3527,1045],[-51,-136],[-50,-96],[-111,-166],[-21,-38],[-7,-9],[-7,-9],[-8,-7],[-8,-5],[-47,-24],[-15,-11],[-57,-58],[-27,-34],[-17,-24],[-5,-9],[-7,-20],[-21,-76],[-4,-10],[-4,-10],[-4,-9],[-4,-6],[-5,-6],[-104,-91]],[[2822,64],[-12,-35],[-6,-12],[-5,-8],[-6,-6],[-3,-3]],[[2838,103],[-5,-9],[-4,-9],[-3,-9]],[[2790,0],[-1,0]],[[2826,76],[-4,-12]],[[3208,4096],[1,-20],[-3,-24],[-10,-22],[-13,-17],[-28,-28],[-11,-18],[-9,-22],[-7,-24],[-9,-51],[-6,-49],[-2,-25],[0,-28],[1,-28],[0,-4],[1,-5],[15,-64],[2,-11],[1,-7],[-1,-5],[-1,-13],[-2,-5],[-2,-6],[-2,-5],[-2,-4],[-6,-8],[-37,-45],[-5,-8],[-4,-10],[-2,-5]],[[3068,3529],[1,-3],[1,-6],[0,-7],[-1,-6],[-5,-17],[-7,-21]],[[3057,3469],[-7,-21],[-3,-12],[0,-12],[2,-12],[2,-11],[3,-11],[8,-21]],[[3063,3542],[2,-5],[2,-5],[1,-3]],[[3243,2846],[29,-15]],[[3062,3369],[3,-11],[2,-12],[2,-12],[1,-12],[0,-12],[-3,-42],[0,-31],[1,-5],[18,-136],[5,-21],[5,-21],[18,-51],[2,-11],[3,-25],[2,-12],[8,-21],[11,-18],[26,-26],[12,-10],[65,-34]],[[3272,2831],[40,-21],[3,-3],[13,-16],[30,-55],[11,-15],[14,-12],[14,-7],[57,-18],[27,-13],[6,-4],[6,-6],[6,-6],[4,-9],[4,-10],[3,-11],[2,-12],[4,-52],[2,-8],[2,-8],[4,-15]],[[1252,1629],[-20,-10]],[[1371,1667],[-117,-36],[-2,-2]],[[1037,1565],[0,2],[2,6],[5,16]],[[1105,1457],[-27,19],[-12,11],[-15,18],[-3,4],[-2,4],[-2,4],[-4,12],[-4,12],[0,7],[0,6],[1,11]],[[2992,224],[209,-6]],[[3527,1045],[236,-17],[137,-40],[26,-11],[33,-20],[69,-58],[26,-16],[7,-3],[1,-1],[0,-2],[1,-8],[1,-9],[2,-7],[2,-8],[5,-12],[7,-10],[7,-7],[8,-5],[1,-1]],[[2924,1038],[44,27]],[[2888,1023],[5,1],[19,6],[12,8]],[[2968,1065],[18,11]],[[2434,974],[43,19]],[[2477,993],[107,48],[19,3],[35,-4],[8,-3],[7,-6],[9,-13],[5,-5],[6,-3],[5,1],[4,3],[14,15],[5,6],[3,2],[4,1],[7,2],[20,2],[20,-1],[100,-21],[19,1],[14,2]],[[2986,1076],[35,22],[37,17],[41,8],[41,0],[39,-8],[233,-100],[26,-5],[27,0],[25,5],[9,4],[9,6],[8,8],[7,10]],[[3289,188],[55,-23],[25,-4]],[[3669,44],[17,0],[48,13]],[[3201,218],[58,-17],[30,-13]],[[3369,161],[21,0],[92,24],[29,-1],[27,-13],[14,-9],[12,-12],[26,-32],[10,-18],[9,-19],[9,-17],[12,-12],[14,-6],[14,-2],[11,0]],[[3734,57],[180,48],[13,0],[12,-3],[11,-8],[10,-14],[8,-19],[15,-61]],[[2913,150],[-9,25]],[[2904,175],[-22,43],[-8,27],[-2,19],[-1,6],[-2,6],[-5,13],[-22,43],[-7,23],[-6,25],[-15,126],[-5,23],[-7,23],[-9,18],[-10,15],[-12,12],[-46,35],[-7,7],[-6,9],[-8,22],[-3,27],[-2,28],[-3,27],[-7,25],[-11,21],[-23,39],[-5,10],[-4,11]],[[2477,990],[-50,27]],[[1290,1493],[-3,0],[-14,7],[-94,71]],[[2427,1017],[-12,6],[-6,6],[-6,6],[-5,9],[-4,9],[-4,17],[-3,18],[-2,64],[-4,3],[-17,2],[-23,0],[-106,-26],[-17,2],[-9,5],[-8,6],[-7,8],[-7,11],[-10,20],[-6,8],[-7,7],[-16,6],[-16,0],[-16,-5],[-16,-9],[-63,-46],[-16,-8],[-8,-3],[-8,-1],[-8,1],[-9,3],[-50,29],[-10,3],[-21,1],[-95,-13],[-8,2],[-7,3],[-7,5],[-7,9],[-7,10],[-35,69],[-13,21],[-16,15],[-18,8],[-37,8],[-18,9],[-14,16],[-27,37],[-15,15],[-9,5],[-41,12],[-41,27],[-139,53],[-63,13]],[[2646,846],[-12,19],[-21,46],[-12,19],[-8,7],[-8,5],[-36,9],[-72,39]],[[1184,1592],[1,-12],[1,-6],[1,-6],[4,-12],[4,-11],[9,-19],[4,-7]],[[1208,1519],[6,-9],[24,-32],[34,-38],[9,-8]],[[2136,4072],[9,24]],[[3877,4025],[6,34],[15,33],[3,4]],[[1518,3482],[15,25],[33,38],[12,12],[38,10],[11,9],[36,47],[15,31],[0,29],[4,10],[60,88],[9,17],[15,49],[9,4],[29,-6],[10,8],[5,15],[18,14],[19,4],[41,22],[18,0],[27,-6],[32,5],[22,16],[13,25],[30,47],[22,24],[20,10],[14,4],[32,19],[9,20]],[[4096,3501],[-3,17],[-6,8],[-38,24],[-33,24],[-42,36],[-21,7],[-10,9],[-29,51],[-9,27],[1,39],[19,62],[6,34],[-1,27],[-7,24],[-19,50],[-27,53],[0,32]],[[2594,2736],[-21,-24]],[[3062,3492],[-1,-11],[-5,-12]],[[3056,3469],[-6,-13],[-38,-35],[-13,-15],[-22,-20],[-29,-14],[-29,-20],[-44,-52],[-18,-13],[-36,-12],[-15,-12],[-29,-41],[-13,-22],[-20,-42],[-26,-46],[-27,-37],[-13,-33],[-1,-41],[5,-59],[-1,-33],[-11,-50],[-20,-46],[-19,-32],[-19,-26],[-18,-19]],[[2185,2413],[8,7],[11,5]],[[2212,2428],[15,7],[23,19],[20,13],[8,0]],[[2334,2475],[11,3],[31,18]],[[2556,2691],[1,1],[16,20]],[[2204,2425],[8,3]],[[2278,2467],[30,1],[26,7]],[[2376,2496],[5,3],[17,26],[13,34],[7,12],[28,28],[19,12],[52,54],[39,26]],[[2155,2388],[30,25]],[[2130,2372],[3,2]],[[2133,2374],[16,9],[6,5]],[[2103,2363],[27,9]],[[2083,2355],[20,8]],[[1635,1917],[19,13],[15,16],[3,6]],[[1953,2166],[4,0],[10,10],[15,29],[3,35]],[[1985,2240],[12,20],[5,14]],[[2021,2293],[30,15],[14,14],[13,24]],[[1561,1807],[20,46],[24,39],[11,13],[19,12]],[[1672,1952],[11,18],[27,21],[9,18],[7,59],[8,17],[20,25],[16,15],[60,31],[23,6],[41,0],[59,4]],[[1985,2240]],[[2002,2274],[2,5],[17,14]],[[2078,2346],[5,9]],[[1071,1552],[7,0],[42,10],[42,14]],[[805,1436],[10,10],[16,41],[6,7],[36,3],[57,23],[27,15],[35,11],[31,7],[21,1],[27,-2]],[[763,1436],[-10,-1],[-32,-18],[-16,-21]],[[776,1437],[-3,0]],[[773,1437],[-10,-1]],[[705,1396],[-10,-15],[-19,-10],[-32,-4],[-22,-8],[-41,-19],[-22,-14],[-47,-32],[-42,-39],[-24,-19],[-23,-25]],[[3070,52],[-3,3]],[[2967,105],[-46,16]],[[3067,55],[-2,2],[-17,26],[-51,12],[-30,10]],[[3109,0],[-9,15],[-30,37]],[[561,2709],[-15,-1],[-15,10],[-8,12],[0,12],[2,11],[2,8],[12,-2],[15,-12],[7,-8],[3,-12],[-3,-18]],[[1094,3145],[-23,-12],[-20,18],[-4,33],[13,19],[21,7],[21,-4],[6,-32],[-14,-29]],[[103,3793],[5,-3],[7,3],[13,12],[5,3],[15,-4],[12,-8],[12,-4],[16,6],[24,30],[15,11],[25,-13],[39,9],[16,-4],[16,-10],[34,-11],[34,-24],[39,-17],[15,-21],[11,-28],[5,-8],[11,-10],[29,-15],[31,-8],[18,-6],[24,-16],[22,-21],[11,-22],[-6,-19],[-47,32],[-17,-13],[9,-2],[9,-4],[7,-8],[5,-13],[-32,5],[-14,8],[-14,14],[-3,6],[-3,10],[-4,9],[-8,4],[-11,0],[-1,-3],[-4,-8],[-2,-4],[-4,-20],[-2,-8],[-6,-9],[-5,-5],[-11,-9],[-5,1],[-7,3],[-6,-3],[-2,-15],[0,-8],[1,-9],[1,-8],[2,-7],[-16,-13],[-16,-18],[-15,-12],[-32,25],[-17,-1],[-5,-11],[16,-17],[-49,-65],[-11,-6],[-12,-4],[-12,-8],[-21,-26],[-10,-8],[-17,-2],[-33,3],[-16,-5],[-8,-17],[34,-21],[-25,-22],[-39,-6],[-10,32],[-11,7],[-14,3],[-13,0],[-12,-6],[-11,-12],[-5,-5],[-3,3],[-8,14],[-11,8],[-6,-9],[-6,-23],[-5,-4],[-3,-3],[-2,-2],[-3,0],[0,519],[37,29],[24,6],[8,-7],[13,-32],[8,-7],[5,-3],[8,-12]],[[618,3842],[-2,-13],[1,-12],[6,-12],[13,-16],[6,-8],[11,-22],[3,-11],[-15,-11],[-6,-12],[-7,-8],[-11,4],[-12,8],[-12,4],[-26,2],[-10,-3],[-22,-12],[-8,1],[-65,60],[-37,14],[-18,17],[3,29],[9,7],[22,-8],[11,6],[2,7],[5,28],[3,10],[15,19],[15,7],[16,-1],[66,-19],[31,-18],[9,-11],[4,-13],[0,-13]],[[231,4096],[50,0],[1,-3],[1,-11],[-1,-17],[-4,-4],[-5,0],[-8,-8],[-13,-7],[-21,-1],[-20,7],[-8,15],[8,14],[16,11],[4,4]],[[0,4096],[182,0],[-10,-10],[-15,-33],[-25,-78],[-19,-29],[-32,-16],[-40,-5],[-40,11],[-1,1],[0,159]],[[743,4096],[3353,0],[0,-4096],[-481,0],[-3615,0],[0,2655],[19,6],[17,1],[8,3],[9,6],[9,4],[11,-3],[7,-4],[0,-2],[-4,-3],[-3,-10],[-7,-51],[-3,-55],[3,-28],[7,-19],[41,-60],[162,-141],[52,-65],[59,-52],[38,-22],[25,-6],[9,-4],[2,-11],[0,-13],[4,-13],[16,-33],[3,-7],[7,-22],[6,-27],[6,-47],[6,-25],[11,-10],[6,-13],[20,-125],[8,-21],[10,-8],[13,-5],[35,-41],[60,-25],[62,-12],[9,-8],[36,-53],[6,-5],[5,-4],[34,-11],[46,-5],[125,31],[44,21],[19,10],[28,24],[13,19],[9,19],[10,13],[29,8],[28,19],[71,47],[6,19],[14,16],[16,10],[13,5],[0,15],[8,9],[17,13],[48,56],[16,38],[6,54],[-2,63],[-18,168],[-1,50],[-4,30],[-7,13],[-5,16],[4,36],[8,49],[-8,80],[-4,17],[-32,54],[-11,25],[0,24],[-7,64],[-2,32],[2,17],[5,16],[7,15],[8,12],[5,13],[3,15],[2,16],[2,15],[35,85],[12,53],[35,42],[13,24],[0,65],[6,30],[1,16],[-4,14],[-6,13],[-3,14],[-1,15],[10,29],[0,15],[0,15],[2,15],[15,20],[22,14],[20,18],[8,31],[-6,29],[-17,22],[-61,48],[-30,13],[-30,2],[-26,-12],[-8,-11],[-8,-16],[-6,-18],[-3,-16],[-1,-21],[-3,-12],[-22,-39],[-10,-13],[-10,-8],[-13,-3],[-27,7],[-13,0],[-13,-12],[-13,-31],[-6,-5],[-13,5],[-8,8],[-22,37],[-34,30],[-19,24],[-48,20],[-30,3],[-14,6],[-3,4],[-8,11],[-4,4],[-7,1],[-4,-4],[-4,-5],[-5,-2],[-7,3],[-7,6],[-7,2],[-7,-6],[-4,-8],[-5,-6],[-5,-1],[-5,5],[-5,11],[-4,16],[-3,16],[-1,13],[-3,20],[-9,11],[-9,8],[-8,12],[-5,18],[0,13],[5,33],[0,40],[-4,33],[-11,17],[-21,-11],[-9,1],[-14,9],[-13,12],[-8,10],[-6,19],[0,15],[-3,8],[-11,-4],[-10,-13],[-6,-15],[-6,-6],[-11,10],[-2,13],[4,15],[7,14],[3,14],[-4,25],[-8,33],[-6,36],[4,31],[6,12],[6,2],[15,-6],[6,3],[2,7],[0,6],[-12,11],[-2,18],[4,16],[10,0],[28,-13],[27,4],[27,11],[28,3],[14,-6],[28,-18],[12,-4],[22,0],[3,4],[0,10],[-1,9],[-4,5],[-11,6],[-3,14],[4,16],[10,10],[12,-1],[29,-16],[14,-2],[-20,23],[-23,15],[-23,2],[-19,-21],[-13,17],[-15,1],[-31,-9],[-54,3],[-16,-3],[-15,-9],[-7,-6],[-6,-8],[-4,-1],[-23,6],[-14,-2],[-41,-17],[27,48],[14,12],[24,5],[1,1]],[[0,2650],[77,23],[-23,-111],[-54,-3],[0,91]],[[3007,129],[55,79],[176,-2],[168,-58],[105,14],[107,-130],[117,27],[-12,-46],[-132,11],[-47,27],[-58,-39],[-112,89],[-29,-33],[-87,-17],[-20,-36],[-83,40],[-87,-3],[-21,59],[-40,18]],[[3056,1246],[46,90],[82,79],[-20,44],[-40,15],[54,56],[-49,31],[53,6],[-41,105],[18,17],[-16,30],[4,7],[35,-34],[-9,80],[46,-63],[-35,-37],[9,-41],[41,7],[9,-22],[35,23],[27,-23],[-21,-54],[35,-81],[-9,-70],[79,-6],[13,-24],[-53,5],[4,-37],[-46,-47],[-38,44],[12,-135],[-39,7],[-13,53],[32,16],[-12,35],[-44,-63],[20,-52],[-68,26],[-3,-48],[-39,-2],[-59,63]],[[2717,51],[34,71],[-30,37],[16,27],[34,15],[54,-27],[30,-58],[-35,-48],[27,-67],[-108,-1],[-22,51]],[[2597,461],[33,0],[33,-54],[38,13],[64,-48],[31,6],[14,-67],[-39,0],[-4,42],[-124,48],[-46,60]],[[2113,680],[60,19],[71,-11],[-10,-51],[-51,-35],[-70,78]],[[14,997],[68,55],[52,-52],[5,-75],[-77,-24],[-48,96]],[[2887,928],[100,122],[19,-5],[-16,-105],[-68,-10],[-6,-26],[-29,24]],[[2773,1133],[22,57],[50,32],[-6,34],[48,15],[2,-36],[57,8],[0,-26],[-69,-51],[18,-20],[47,32],[63,-28],[-28,-110],[-57,-31],[-36,4],[27,66],[-67,14],[14,49],[-52,-45],[1,39],[-34,-3]],[[2744,1478],[46,69],[66,23],[19,-37],[-16,-36],[39,-33],[-9,-86],[-51,-3],[-25,28],[25,1],[2,31],[-82,18],[-14,25]],[[0,1770],[90,-91],[129,48],[5,-46],[-26,-45],[-62,36],[-54,-73],[-19,84],[-63,87]],[[1657,1396],[63,-10],[28,-53],[36,19],[48,4],[110,-22],[46,54],[123,-5],[-33,52],[41,13],[-4,48],[50,-23],[11,19],[120,-11],[-24,-25],[-60,18],[-86,-27],[-9,-69],[-127,2],[-55,-55],[-124,24],[-52,-26],[-17,7],[-21,51],[-64,15]],[[2295,1519],[58,50],[241,-22],[34,-20],[21,-102],[-41,-38],[-140,64],[-67,-36],[-41,70],[-37,-1],[-28,35]],[[1362,1817],[13,88],[67,12],[-1,-119],[-79,19]],[[2321,1686],[55,69],[-31,33],[16,7],[35,4],[75,-81],[-84,-91],[-66,59]],[[276,116],[47,21],[6,-42],[62,45],[22,-40],[46,20],[41,-62],[-16,-56],[-198,-2],[21,71],[-31,45]],[[441,14],[24,-10],[19,26],[-12,45],[-31,-61]],[[1422,461],[42,40],[-31,15],[35,18],[9,45],[72,17],[42,63],[40,-9],[0,29],[34,-21],[20,-90],[-26,18],[-44,-16],[-39,-46],[10,-24],[-29,17],[-15,-28],[-36,29],[-84,-57]],[[547,1652],[49,17],[-11,36],[27,10],[10,-31],[17,36],[86,-10],[64,-76],[15,-62],[-27,-24],[44,-13],[-39,-107],[-135,-57],[-31,105],[23,65],[-20,61],[-22,27],[0,-32],[-39,12],[-11,43]],[[1344,0],[3,2],[0,30],[26,-32],[-29,0]],[[780,17],[-24,15],[-6,42],[27,-28],[3,-29]],[[511,259],[19,-2],[-17,-60],[-16,30],[14,32]],[[825,616],[-16,12],[6,46],[30,-12],[-20,-46]],[[2930,210],[51,-73],[-19,-44],[-54,29],[-13,40],[35,48]],[[589,261],[38,-4],[-8,-90],[-65,0],[35,94]],[[931,1258],[19,-30],[-28,-64],[-44,-21],[-17,13],[17,105],[24,-30],[29,27]],[[1039,1561],[-15,24],[7,36],[24,-15],[-16,-45]],[[1196,1688],[-2,-50],[37,16],[54,-61],[5,-107],[-65,45],[-64,-45],[-25,45],[-32,-30],[-49,15],[33,75],[-4,99],[34,53],[53,24],[25,-79]],[[2021,2053],[-19,32],[30,12],[5,-33],[-16,-11]],[[2148,2415],[-21,-61],[-44,16],[8,30],[16,-15],[41,30]],[[3518,967],[2,44],[27,10],[-4,-29],[-25,-25]],[[2472,1034],[8,-66],[-57,-7],[5,70],[19,-10],[16,30],[9,-17]],[[7,3331],[-7,0],[0,47],[20,-4],[-13,-43]],[[1500,3510],[-18,-45],[-87,63],[49,41],[-24,60],[48,-30],[32,-89]],[[3093,3450],[-56,29],[9,38],[42,23],[22,-16],[-17,-74]],[[2246,3468],[-8,35],[55,21],[-10,-28],[-37,-28]],[[2560,2670],[-11,56],[3,49],[49,-45],[-41,-60]],[[3296,2760],[-40,30],[-13,58],[23,1],[30,-89]],[[2880,1127],[98,23],[-14,-114],[-39,-16],[-4,79],[-41,28]],[[2343,0],[37,61],[-28,45],[65,-18],[40,55],[0,-57],[32,8],[16,-52],[-34,-22],[41,-20],[-169,0]],[[474,689],[44,42],[-33,12],[72,59],[30,16],[60,-6],[15,-10],[-99,-8],[-36,-169],[-53,64]],[[1362,1817],[13,88],[67,12],[-1,-119],[-79,19]],[[2150,2383],[55,56],[97,54],[210,8],[15,30],[-57,-1],[10,31],[35,-20],[67,69],[53,3],[68,-47],[45,-110],[84,-47],[10,-88],[-36,-65],[99,-103],[-31,-4],[-96,125],[50,45],[-13,93],[-121,72],[-4,38],[-36,-17],[6,-51],[-46,11],[5,57],[-24,36],[-41,-10],[-38,-107],[-30,26],[-201,11],[-28,-42],[-51,-9],[-46,-58],[-10,14]],[[3632,3402],[26,55],[116,-38],[84,62],[228,30],[10,-57],[0,-173],[-25,-10],[-40,26],[-100,-6],[-60,-41],[-4,-75],[-43,-3],[-73,-53],[-119,185],[0,98]],[[3254,0],[65,40],[99,-14],[6,46],[61,-64],[51,30],[48,-34],[-330,-4]],[[3459,786],[1,5],[6,1],[-1,11],[16,6],[7,24],[20,-4],[-3,52],[63,-10],[13,-27],[1,-23],[11,11],[15,4],[25,-54],[139,-10],[23,-71],[29,-14],[-22,-110],[-31,-19],[-16,-4],[-1,-3],[1,-2],[0,-1],[1,-1],[0,-1],[0,-3],[1,-1],[0,-3],[-1,-7],[-12,-27],[-41,-29],[-41,-1],[2,42],[-51,14],[-22,-35],[-34,22],[-3,-1],[-2,-4],[-3,-1],[-8,0],[-23,-13],[-31,54],[0,2],[0,1],[0,1],[3,4],[1,2],[-1,6],[66,19],[-3,8],[11,63],[-31,19],[-12,64],[-6,-3],[-11,0],[-42,37],[-2,3],[1,3],[0,1],[-1,1],[0,1],[-1,1]],[[3667,525],[22,-15],[40,-3],[-16,21],[33,-7],[-5,21],[14,3],[-20,-2],[0,1],[-3,0],[0,1],[1,1],[0,2],[1,0],[1,-3],[1,0],[0,3],[1,2],[-16,5],[-15,-26],[-24,-9],[-3,1],[-1,1],[-2,-1],[0,1],[-2,1],[-1,0],[-1,1],[-5,1]],[[3552,583],[21,-16],[24,12],[-27,33],[0,-16],[-18,-13]],[[3728,563],[9,-13],[0,-1],[-1,-1],[0,-2],[0,-1],[-1,0],[-1,2],[0,1],[-1,0],[-1,-4],[1,1],[2,-1],[0,-1],[1,2],[2,1],[1,0],[0,1],[-1,0],[-1,0],[1,1],[0,1],[1,1],[2,1],[2,0],[1,-3],[4,3],[7,-5],[1,-1],[-1,-1],[-3,-4],[5,-1],[-3,12],[1,3],[12,9],[-39,0]],[[3658,750],[9,-18],[15,7],[-1,16],[-23,-5]],[[3571,701],[33,-25],[35,4],[-53,30],[-15,-9]],[[3483,787],[7,-7],[9,9],[-11,8],[-5,-10]],[[3715,653],[2,-13],[17,10],[-6,7],[-13,-4]],[[3659,543],[7,-17],[24,-1],[-4,19],[-27,-1]],[[3525,524],[7,-10],[17,-2],[1,1],[2,0],[0,2],[1,1],[1,1],[3,1],[3,0],[2,-1],[1,0],[2,-1],[5,-4],[-2,45],[-32,-3],[0,-2],[-3,-5],[1,-1],[0,-1],[-3,-5],[-1,-7],[-5,-9]],[[3459,786],[11,-12],[6,19],[-16,-2],[-1,-5]],[[3571,821],[5,-9],[13,1],[-2,10],[-5,-2],[-5,10],[-6,-10]],[[3498,750],[3,-4],[2,6],[-5,2],[0,-4]],[[3515,746],[12,-6],[0,-4],[5,0],[-5,15],[-12,-5]],[[3540,737],[9,-6],[12,4],[-15,12],[-6,-10]],[[3746,666],[5,-5],[7,8],[-11,4],[-1,-7]],[[3563,857],[3,-3],[6,1],[0,7],[-9,-5]],[[3487,555],[18,-7],[16,15],[-24,3],[-10,-11]],[[3515,757],[11,-6],[2,12],[-12,-1],[-1,-5]],[[3573,677],[2,-3],[5,0],[0,5],[-7,-2]],[[3526,549],[8,-4],[-1,2],[0,1],[3,6],[-10,-5]],[[547,1652],[49,17],[-11,36],[27,10],[10,-31],[17,36],[86,-10],[64,-76],[15,-62],[-27,-24],[30,0],[14,-13],[-39,-107],[-135,-57],[-31,105],[23,65],[-20,61],[-22,27],[0,-32],[-39,12],[-11,43]],[[714,1689],[11,-42],[52,-39],[-54,86],[-9,-5]],[[795,1537],[16,-7],[8,0],[-18,14],[-6,-7]],[[758,1434],[5,-13],[18,7],[-10,11],[-13,-5]],[[709,1578],[12,-11],[17,14],[-17,3],[-12,-6]],[[750,1556],[2,-10],[12,-1],[-1,15],[-13,-4]],[[1563,1811],[59,94],[132,124],[40,104],[156,27],[48,110],[77,77],[31,-15],[36,-92],[-10,-48],[35,-4],[14,-37],[-18,-58],[18,-65],[-335,-132],[42,-82],[-2,-54],[-104,44],[9,71],[-50,-18],[-23,23],[-26,-44],[-129,-25]],[[1987,2069],[42,-31],[24,37],[-59,28],[-7,-34]],[[2524,3748],[17,31],[85,-31],[-3,18],[39,-7],[41,37],[4,-41],[60,-11],[-12,-28],[42,-76],[3,-80],[19,-6],[8,38],[75,-16],[9,-45],[-52,-31],[-53,42],[-86,1],[-9,-77],[-14,72],[-39,-36],[-7,48],[-34,8],[16,18],[28,-15],[9,23],[-118,109],[-28,55]],[[2692,3717],[9,-10],[43,2],[-23,20],[-29,-12]]]}