{"objects":{"water":{"type":"GeometryCollection","geometries":[{"type":"MultiPolygon","properties":{"sort_rank":200,"source":"naturalearthdata.com","min_zoom":0.0,"kind":"lake","area":1028568481},"arcs":[[[588]],[[589]]]},{"type":"Polygon","properties":{"kind":"lake","name":"Kauno marios","reservoir":true,"area":141026384,"sort_rank":200,"source":"naturalearthdata.com","min_zoom":0.0,"id":1261},"arcs":[[590]]},{"type":"Point","properties":{"label_placement":true,"kind":"lake","name":"Kauno marios","reservoir":true,"area":141026384,"sort_rank":200,"source":"naturalearthdata.com","min_zoom":0.0,"id":1261},"coordinates":[1223,2941]},{"type":"LineString","properties":{"source":"naturalearthdata.com","kind":"lake","sort_rank":367,"boundary":true,"min_zoom":0.0,"id":1030},"arcs":[591]},{"type":"LineString","properties":{"source":"naturalearthdata.com","kind":"lake","sort_rank":367,"boundary":true,"min_zoom":0.0,"id":1032},"arcs":[592]},{"type":"LineString","properties":{"source":"naturalearthdata.com","kind":"lake","reservoir":true,"sort_rank":367,"boundary":true,"min_zoom":0.0,"id":1261},"arcs":[593]}]},"buildings":{"type":"GeometryCollection","geometries":[]},"places":{"type":"GeometryCollection","geometries":[{"type":"Point","properties":{"name:kg":"Belarusia","name:ka":"\u10d1\u10d4\u10da\u10d0\u10e0\u10e3\u10e1\u10d8","name:ko":"\ubca8\ub77c\ub8e8\uc2a4","name:cv":"\u0411\u0435\u043b\u043e\u0440\u0443\u0441\u0438","name:cu":"\u0411\u0463\u043b\u0430\u0301 \u0420\u043e\u0443\u0301\u0441\u044c","name:kl":"Hvideruslandi","name:cs":"B\u011blorusko","name:ki":"Belarusi","name:kw":"Belarussi","name:tk":"Belarus","name:ku":"Belar\u00fbs","name:ti":"\u1264\u120b\u1229\u1235","name:ks":"\u0628\u06cc\u0644\u0627\u0631\u0648\u0657\u0633","name:to":"Pelelusi","name:tl":"Belarus","name:ce":"\u0411\u0435\u043b\u043e\u0440\u043e\u0441\u0441\u0435","name:ta":"\u0baa\u0bc6\u0bb2\u0bb0\u0bc1\u0bb8\u0bcd","name:tg":"\u0411\u0435\u043b\u043e\u0440\u0443\u0441","name:ca":"Bielor\u00fassia","name:te":"\u0c2c\u0c46\u0c32\u0c3e\u0c30\u0c38\u0c4d","name:cy":"Belarws","name:hr":"Bjelorusija","name:da":"Hviderusland","name:de":"Wei\u00dfrussland","name:dz":"\u0f56\u0f7a\u0f0b\u0f63\u0f0b\u0f62\u0f74\u0f0b\u0f66\u0f74\u0f0d","source":"openstreetmap.org","name:kn":"\u0cac\u0cc6\u0cb2\u0cbe\u0cb0\u0cc1\u0cb8\u0ccd","name:dv":"\u0784\u07ac\u078d\u07a7\u0783\u07aa\u0790\u07b0","name:km":"\u1794\u17c1\u17a1\u17b6\u179a\u17bb\u179f\u17d2\u179f","name:lv":"Baltkrievija","name:lt":"Baltarusija","name:uz":"Belarus","name:ur":"\u0628\u06cc\u0644\u0627\u0631\u0633","name:lb":"W\u00e4issrussland","name:la":"Ruthenia Alba","name:lg":"Belarusi","name:uk":"\u0411\u0456\u043b\u043e\u0440\u0443\u0441\u044c","name:ug":"\u0628\u06d0\u0644\u0648\u0631\u06c7\u0633\u0633\u0649\u064a\u06d5","name:li":"Wit-Rusland","name:ln":"Bielorusia","name:lo":"\u0ec0\u0e9a\u0e99\u0ea5\u0eb2\u0eae\u0eb1\u0eaa","name:el":"\u039b\u03b5\u03c5\u03ba\u03bf\u03c1\u03c9\u03c3\u03af\u03b1","name:eo":"Belorusujo","name:en":"Belarus","name":"\u0411\u0435\u043b\u0430\u0440\u0443\u0441\u044c","name:ee":"Belarus","name:th":"\u0e1b\u0e23\u0e30\u0e40\u0e17\u0e28\u0e40\u0e1a\u0e25\u0e32\u0e23\u0e38\u0e2a","name:eu":"Bielorrusia","name:et":"Valgevene","name:es":"Bielorrusia","name:ia":"Bielorussia","name:rm":"Bielorussia","name:rn":"Belausi","name:az":"Belorusiya","name:ie":"Bielorussia","name:id":"Belarus","name:ar":"\u0628\u064a\u0644\u0627\u0631\u0648\u0633","name:io":"Bielorusia","name:ak":"B\u025blarus","name:am":"\u1264\u120b\u1229\u1235","name:it":"Bielorussia","name:an":"Belarrusia","name:af":"Wit-Rusland","name:de_CH":"Weissrussland","name:zu":"i-Belarus","name:zh-yue":"\u767d\u4fc4\u7f85\u65af","name:zh":"\u767d\u4fc4\u7f57\u65af","name:so":"Belarus","name:sn":"Belarusi","name:sl":"Belorusija","name:sk":"Bielorusko","name:ja":"\u30d9\u30e9\u30eb\u30fc\u30b7","name:si":"\u0db6\u0dd9\u0dbd\u0dbb\u0dd4\u0dc3\u0dca","name:sh":"Belorusija","name:sg":"Belar\u00fcsi","name:se":"Vilges-Ruo\u0161\u0161a","name:sa":"\u092c\u0947\u0932\u093e\u0930\u0942\u0938","name:bs":"Bjelorusija","name:bm":"Belarusi","name:bn":"\u09ac\u09c7\u09b2\u09be\u09b0\u09c1\u09b6","name:bo":"\u0f56\u0f7a\u0f0b\u0f63\u0f74\u0f0b\u0f62\u0f74\u0f0b\u0f66\u0f74\u0f0d","name:br":"Belarus","name:sw":"Belarus","name:sv":"Vitryssland","name:bg":"\u0411\u0435\u043b\u0430\u0440\u0443\u0441","name:sr":"\u0411\u0435\u043b\u043e\u0440\u0443\u0441\u0438\u0458\u0430","name:sq":"Bjellorusia","name:jv":"Belarus","name:pt":"Bielorr\u00fassia","name:ps":"\u0628\u06d0\u0644\u0627\u0631\u0648\u0633\u064a\u0647","name:oc":"Bielorussia","min_zoom":2.0,"name:ro":"Belarus","name:zh-min-nan":"Belarus","name:os":"\u0411\u0435\u043b\u043e\u0440\u0443\u0441\u0441\u0438","name:or":"\u0b2c\u0b47\u0b32\u0b3e\u0b30\u0b41\u0b37\u0b4d","name:pl":"Bia\u0142oru\u015b","name:tr":"Beyaz Rusya","name:hi":"\u092c\u0947\u0932\u093e\u0930\u0942\u0938","name:he":"\u05d1\u05dc\u05d0\u05e8\u05d5\u05e1","name:ha":"Belarus","name:hy":"\u0532\u0565\u056c\u0561\u057c\u0578\u0582\u057d","name:ht":"Byelorisi","name:hu":"Feh\u00e9roroszorsz\u00e1g","name:qu":"Bilarus","population":9689800,"kind":"country","name:is":"Hv\u00edta-R\u00fassland","name:yi":"\u05d1\u05e2\u05dc\u05d0\u05e8\u05d5\u05e1","name:yo":"Or\u00edl\u1eb9\u0301\u00e8de B\u00e9l\u00e1r\u00fas\u00ec","name:mt":"Belarus","alt_name:eo":"Bjelorusujo;Belarusujo;Belorusio","alt_name:en":"Belorussia;Byelorussia","name:ms":"Belarus","name:mr":"\u092c\u0947\u0932\u093e\u0930\u0942\u0938","name:my":"\u1018\u102e\u101c\u102c\u101b\u102f\u1005\u103a","official_name":"\u0420\u044d\u0441\u043f\u0443\u0431\u043b\u0456\u043a\u0430 \u0411\u0435\u043b\u0430\u0440\u0443\u0441\u044c","int_name":"Belaru\u015b","name:mg":"Belarosy","name:ml":"\u0d2c\u0d46\u0d32\u0d3e\u0d31\u0d38\u0d4d","name:vi":"Belarus","id":249399300,"name:mk":"\u0411\u0435\u043b\u043e\u0440\u0443\u0441\u0438\u0458\u0430","name:vo":"Belarus\u00e4n","name:fa":"\u0628\u0644\u0627\u0631\u0648\u0633","name:ff":"Belaruus","name:fi":"Valko-Ven\u00e4j\u00e4","name:fo":"Hv\u00edtarussland","name:fr":"Bi\u00e9lorussie","name:fy":"Wyt-Rusl\u00e2n","name:nl":"Wit-Rusland","name:nn":"Kviterussland","name:no":"Hviterussland","name:na":"Belarus","name:ne":"\u092c\u0947\u0932\u093e\u0930\u0941\u0938","name:wo":"Belaarus","name:ga":"An Bhealar\u00fais","name:gd":"A' Bhealaruis","name:gn":"Vielorrusia","name:gl":"Bielorrusia","name:gv":"Yn Velaroosh","name:gu":"\u0aac\u0ac7\u0ab2\u0abe\u0ab0\u0ac1\u0ab8","name:tt":"\u0411\u0435\u043b\u0430\u0440\u0443\u0441\u0438\u044f"},"coordinates":[3784,1172]},{"type":"Point","properties":{"name:ka":"\u10da\u10d8\u10e2\u10d5\u10d0","name:ko":"\ub9ac\ud22c\uc544\ub2c8\uc544","name:cv":"\u041b\u0438\u0442\u0432\u0430","name:cu":"\u041b\u0438\u0442\u044a\u0432\u0430","name:kl":"Litaueni","name:cs":"Litva","name:ki":"Litwania","name:co":"Lituania","name:kv":"\u041b\u0438\u0442\u0432\u0430","name:ku":"L\u00eetvanya","name:ti":"\u120a\u1271\u12cc\u1292\u12eb","name:ks":"\u0644\u0650\u062a\u06be\u064f\u0648\u0627\u0646\u0650\u06cc\u0627","name:to":"Lifiuenia","name:tl":"Litwaniya","name:ch":"Lituania","name:ce":"\u041b\u0438\u0442\u0432\u0430","name:ta":"\u0bb2\u0bbf\u0ba4\u0bc1\u0bb5\u0bc7\u0ba9\u0bbf\u0baf\u0bbe","name:tg":"\u041b\u0438\u0442\u0432\u0430","name:ca":"Litu\u00e0nia","name:te":"\u0c32\u0c3f\u0c25\u0c41\u0c2f\u0c47\u0c28\u0c3f\u0c2f\u0c3e","name:cy":"Lithwania","name:hr":"Litva","name:da":"Litauen","name:de":"Litauen","name:dz":"\u0f63\u0f72\u0f0b\u0f50\u0f74\u0f0b\u0f5d\u0f7a\u0f0b\u0f53\u0f72\u0f0b\u0f61","source":"openstreetmap.org","name:kn":"\u0cb2\u0cbf\u0ca5\u0cc1\u0cb5\u0cc7\u0ca8\u0cbf\u0caf\u0cbe","name:dv":"\u078d\u07a8\u078c\u07aa\u0787\u07ad\u0782\u07a8\u0787\u07a7","name:km":"\u179b\u17b8\u1791\u17bb\u1799\u17a2\u17b6\u1793\u17b8","name:uz":"Litva","name:kk":"\u041b\u0438\u0442\u0432\u0430","name:ur":"\u0644\u062a\u06be\u0648\u0627\u0646\u06cc\u0627","name:lb":"Litauen","name:la":"Lituania","name:lg":"Lisuwenya","name:uk":"\u041b\u0438\u0442\u0432\u0430","name:ug":"\u0644\u0649\u062a\u06cb\u0627","name:li":"Litauwe","name:ln":"Litwani","name:lo":"\u0ea5\u0eb4\u0ec0\u0e97\u0eb5\u0ec0\u0e99\u0e8d","name:el":"\u039b\u03b9\u03b8\u03bf\u03c5\u03b1\u03bd\u03af\u03b1","name:eo":"Litovujo","name:en":"Lithuania","name":"Lietuva","name:tk":"Litwa","name:ee":"Lituania nutome","name:th":"\u0e1b\u0e23\u0e30\u0e40\u0e17\u0e28\u0e25\u0e34\u0e17\u0e31\u0e27\u0e40\u0e19\u0e35\u0e22","name:eu":"Lituania","name:et":"Leedu","name:es":"Lituania","name:ay":"Litua\u00f1a","name:rm":"Lituania","name:rn":"Lituwaniya","name:az":"Litva","name:ie":"Lituania","name:id":"Lituania","name:ar":"\u0644\u064a\u062a\u0648\u0627\u0646\u064a\u0627","name:io":"Lituania","name:ak":"Lituwenia","name:am":"\u120a\u1271\u12cc\u1292\u12eb","name:it":"Lituania","name:an":"Lituania","name:ru":"\u041b\u0438\u0442\u0432\u0430","name:ab":"\u041b\u0438\u0442\u0432\u0430","name:af":"Litaue","name:zu":"i-Lithuania","name:ky":"\u041b\u0438\u0442\u0432\u0430","name:zh-yue":"\u7acb\u9676\u5b9b","name:zh":"\u7acb\u9676\u5b9b","name:so":"Lituweeniya","name:sn":"Lithuania","name:sl":"Litva","name:sk":"Litva","name:ja":"\u30ea\u30c8\u30a2\u30cb\u30a2","name:si":"\u0dbd\u0dd2\u0dad\u0dd4\u0dc0\u0dda\u0db1\u0dd2\u0dba\u0dcf\u0dc0","name:sh":"Litvanija","name:sg":"Lituan\u00efi","name:sc":"Litu\u00e0nia","name:sa":"\u0932\u0947\u0924\u0941\u0935\u093e","name:bs":"Litvanija","name:bm":"Lituyani","name:bn":"\u09b2\u09bf\u09a4\u09cd\u09ad\u09be","name:bo":"\u0f63\u0f72\u0f0b\u0f50\u0f74\u0f0b\u0f68\u0f7a\u0f0b\u0f53\u0f72\u0f0b\u0f61\u0f0d","name:br":"Lituania","name:sw":"Litwania","name:be":"\u041b\u0456\u0442\u0432\u0430","name:su":"Lituania","name:bg":"\u041b\u0438\u0442\u0432\u0430","name:ss":"Lithuwani","name:ba":"\u041b\u0438\u0442\u0432\u0430","name:sq":"Lituani","name:jv":"Lituania","name:bi":"Litwania","name:ia":"Lituania","name:pt":"Litu\u00e2nia","name:ps":"\u0644\u06d0\u062a\u0648\u0627\u0646\u064a\u0627","name:oc":"Litu\u00e0nia","min_zoom":2.0,"name:ro":"Lituania","name:sv":"Litauen","name:os":"\u041b\u0438\u0442\u0432\u0430","name:or":"\u0b32\u0b3f\u0b25\u0b3e\u0b06\u0b28\u0b3f\u0b06","name:pl":"Litwa","name:st":"Lituania","name:sr":"\u041b\u0438\u0442\u0432\u0430\u043d\u0438\u0458\u0430","name:tr":"Litvanya","name:hi":"\u0932\u093f\u0925\u0941\u0906\u0928\u093f\u092f\u093e","name:he":"\u05dc\u05d8\u05d1\u05d9\u05d4","name:ha":"Lituweniya","name:hy":"\u053c\u056b\u057f\u057e\u0561","name:ht":"Lityani","name:hu":"Litv\u00e1nia","name:qu":"Lituwa","population":3565205,"kind":"country","name:ts":"Lithuania","name:is":"Lith\u00e1en","name:yi":"\u05dc\u05d9\u05d8\u05e2","name:iu":"\u14d5\u140b\u1450\u1559","name:yo":"Or\u00edl\u1eb9\u0301\u00e8de Lituania","name:mt":"Litwanja","alt_name:eo":"Litovio","name:ms":"Lithuania","name:mr":"\u0932\u093f\u0925\u0941\u0906\u0928\u093f\u092f\u093e","name:my":"\u101c\u1005\u103a\u101e\u1030\u101a\u1031\u1038\u1014\u102e\u1038\u101a\u102c\u1038","official_name":"Lietuvos Respublika","name:kw":"Lithouani","name:mg":"Litoania","name:ve":"Lituania","name:ml":"\u0d32\u0d3f\u0d24\u0d4d\u0d35\u0d3e\u0d28\u0d3f\u0d2f","name:vi":"Litva","name:mn":"\u041b\u0438\u0442\u0432\u0430","name:mi":"Ritu\u0101nia","id":424297773,"name:mk":"\u041b\u0438\u0442\u0432\u0430\u043d\u0438\u0458\u0430","name:vo":"Lietuv\u00e4n","name:fa":"\u0644\u06cc\u062a\u0648\u0627\u0646\u06cc","name:rw":"Lituwaniya","name:ff":"Lituaanii","name:fi":"Liettua","name:fj":"Lituani","name:fo":"Litava","name:fr":"Lituanie","name:fy":"Litouwen","int_name":"Lithuania","name:nl":"Litouwen","name:nn":"Litauen","name:no":"Litauen","name:na":"Rituainiya","name:ne":"\u0932\u093f\u0925\u0941\u0905\u0928\u093f\u092f\u093e","name:ny":"Lithuania","name:wa":"Litwaneye","name:wo":"Lituwaani","name:nv":"\u0141it\u02bcoow\u0119\u0301\u0119ya","name:ga":"An Liotu\u00e1in","name:gd":"Liotu\u00e0inia","name:gn":"Litua\u00f1a","name:gl":"Lituania","name:gv":"Yn Litaan","name:gu":"\u0ab2\u0abf\u0aa5\u0ac1\u0a86\u0aa8\u0abf\u0aaf\u0abe","name:tt":"\u041b\u0438\u0442\u0432\u0430"},"coordinates":[910,3566]},{"type":"Point","properties":{"name:pt":"Voivodia da Podl\u00e1quia","name:sk":"Podlesk\u00e9","name:ja":"\u30dd\u30c9\u30e9\u30b7\u30a7\u770c","name:lt":"Palenk\u0117s vaivadija","name:ar":"\u0645\u062d\u0627\u0641\u0638\u0629 \u0628\u0648\u062f\u0644\u0633\u0643\u064a","kind":"region","min_zoom":4.0,"name:uk":"\u041f\u0456\u0434\u043b\u044f\u0441\u044c\u043a\u0435 \u0432\u043e\u0454\u0432\u043e\u0434\u0441\u0442\u0432\u043e","name:be":"\u041f\u0430\u0434\u043b\u044f\u0441\u043a\u0430\u0435 \u0432\u0430\u044f\u0432\u043e\u0434\u0441\u0442\u0432\u0430","name:ru":"\u041f\u043e\u0434\u043b\u044f\u0441\u043a\u043e\u0435 \u0432\u043e\u0435\u0432\u043e\u0434\u0441\u0442\u0432\u043e","id":505006928,"population":1192660,"name:eo":"Podla\u0125ia Provinco","name:en":"Podlachia","name":"wojew\u00f3dztwo podlaskie","kind_detail":"state","name:de":"Podlachien","source":"openstreetmap.org","name:fr":"Podlachie","name:et":"Podlaasia","name:zh":"\u6ce2\u5fb7\u62c9\u8b1d\u7701"},"coordinates":[257,975]},{"type":"Point","properties":{"int_name":"Hrodzienskaja voblas\u0107","name:sk":"Hrodnianska oblas\u0165","name:lt":"Gardino sritis","name:eo":"Grodna Regiono","min_zoom":4.0,"name:uk":"\u0413\u0440\u043e\u0434\u043d\u0435\u043d\u0441\u044c\u043a\u0430 \u043e\u0431\u043b\u0430\u0441\u0442\u044c","name:be":"\u0413\u0440\u043e\u0434\u0437\u0435\u043d\u0441\u043a\u0430\u044f \u0432\u043e\u0431\u043b\u0430\u0441\u0446\u044c","name:pl":"obw\u00f3d grodzie\u0144ski","name:hr":"Grodnenska oblast","id":513125713,"kind":"region","name:en":"Hrodna region","name":"\u0413\u0440\u043e\u0434\u043d\u0435\u043d\u0441\u043a\u0430\u044f \u043e\u0431\u043b\u0430\u0441\u0442\u044c","kind_detail":"state","name:de":"Woblast Hrodna","source":"openstreetmap.org","name:fr":"Voblast de Hrodna"},"coordinates":[1872,1516]},{"type":"Point","properties":{"int_name":"Minskaja voblas\u0107","name:sk":"Minsk\u00e1 oblas\u0165","name:lt":"Minsko sritis","name:eo":"Minska Regiono","min_zoom":4.0,"name:uk":"\u041c\u0456\u043d\u0441\u044c\u043a\u0430 \u043e\u0431\u043b\u0430\u0441\u0442\u044c","name:be":"\u041c\u0456\u043d\u0441\u043a\u0430\u044f \u0432\u043e\u0431\u043b\u0430\u0441\u0446\u044c","name:pl":"obw\u00f3d mi\u0144ski","id":566296863,"kind":"region","name:en":"Minsk Region","name":"\u041c\u0438\u043d\u0441\u043a\u0430\u044f \u043e\u0431\u043b\u0430\u0441\u0442\u044c","kind_detail":"state","name:de":"Woblast Minsk","source":"openstreetmap.org","name:fr":"Voblast de Minsk"},"coordinates":[3827,2086]},{"type":"Point","properties":{"kind":"region","name:en":"Marijampol\u0117 County","name":"Marijampol\u0117s apskritis","kind_detail":"state","min_zoom":4.0,"name:de":"Bezirk Marijampol\u0117","source":"openstreetmap.org","name:fr":"Apskritis de Marijampol\u0117","int_name":"Marijampol\u0117s county","name:uk":"\u041c\u0430\u0440\u0456\u044f\u043c\u043f\u043e\u043b\u044c\u0441\u044c\u043a\u0438\u0439 \u043f\u043e\u0432\u0456\u0442","name:be":"\u041c\u0430\u0440\u044b\u044f\u043c\u043f\u0430\u043b\u044c\u0441\u043a\u0456 \u043f\u0430\u0432\u0435\u0442","name:ru":"\u041c\u0430\u0440\u0438\u044f\u043c\u043f\u043e\u043b\u044c\u0441\u043a\u0438\u0439 \u0443\u0435\u0437\u0434","name:pl":"okr\u0119g mariampolski","id":783737730},"coordinates":[519,2759]},{"type":"Point","properties":{"kind":"region","name:en":"Vilnius County","name":"Vilniaus apskritis","kind_detail":"state","min_zoom":4.0,"name:de":"Bezirk Wilna","source":"openstreetmap.org","name:fr":"Apskritis de Vilnius","name:uk":"\u0412\u0456\u043b\u044c\u043d\u044e\u0441\u044c\u043a\u0438\u0439 \u043f\u043e\u0432\u0456\u0442","name:be":"\u0412\u0456\u043b\u044c\u043d\u044e\u0441\u043a\u0456 \u043f\u0430\u0432\u0435\u0442","name:ru":"\u0412\u0438\u043b\u044c\u043d\u044e\u0441\u0441\u043a\u0438\u0439 \u0443\u0435\u0437\u0434","name:pl":"okr\u0119g wile\u0144ski","id":564957290},"coordinates":[1992,2570]},{"type":"Point","properties":{"kind":"region","name:en":"Utena County","name":"Utenos apskritis","kind_detail":"state","min_zoom":4.0,"name:de":"Bezirk Utenen","source":"openstreetmap.org","name:fr":"Apskritis d'Utena","name:uk":"\u0423\u0442\u0435\u043d\u0441\u044c\u043a\u0438\u0439 \u043f\u043e\u0432\u0456\u0442","name:be":"\u0423\u0446\u0456\u043d\u0441\u043a\u0456 \u043f\u0430\u0432\u0435\u0442","name:ru":"\u0423\u0442\u0435\u043d\u0441\u043a\u0438\u0439 \u0443\u0435\u0437\u0434","name:pl":"okr\u0119g ucia\u0144ski","id":810217856},"coordinates":[2277,3848]},{"type":"Point","properties":{"kind":"region","name:en":"Kaunas County","name":"Kauno apskritis","kind_detail":"state","min_zoom":4.0,"name:de":"Bezirk Kauen","source":"openstreetmap.org","name:fr":"Apskritis de Kaunas","int_name":"Kaunas County","name:uk":"\u041a\u0430\u0443\u043d\u0430\u0441\u044c\u043a\u0438\u0439 \u043f\u043e\u0432\u0456\u0442","name:be":"\u041a\u0430\u045e\u043d\u0430\u0441\u043a\u0456 \u043f\u0430\u0432\u0435\u0442","name:ru":"\u041a\u0430\u0443\u043d\u0430\u0441\u0441\u043a\u0438\u0439 \u0443\u0435\u0437\u0434","name:pl":"okr\u0119g kowie\u0144ski","id":816425956},"coordinates":[997,3257]},{"type":"Point","properties":{"kind":"region","name:en":"Alytus County","name":"Alytaus apskritis","kind_detail":"state","min_zoom":4.0,"name:de":"Bezirk Alitten","source":"openstreetmap.org","name:fr":"Apskritis d'Alytus","name:uk":"\u0410\u043b\u0456\u0442\u0443\u0441\u044c\u043a\u0438\u0439 \u043f\u043e\u0432\u0456\u0442","name:be":"\u0410\u043b\u0456\u0442\u0443\u0441\u043a\u0456 \u043f\u0430\u0432\u0435\u0442","name:ru":"\u0410\u043b\u0438\u0442\u0443\u0441\u0441\u043a\u0438\u0439 \u0443\u0435\u0437\u0434","name:pl":"okr\u0119g olicki","id":825447812},"coordinates":[1191,2158]},{"type":"Point","properties":{"source":"naturalearthdata.com","kind":"locality","name":"Minsk","country_capital":true,"population":1805000,"min_zoom":5.0,"id":7076},"coordinates":[3688,1765]},{"type":"Point","properties":{"source":"naturalearthdata.com","kind":"locality","name":"Vilnius","country_capital":true,"population":542366,"min_zoom":5.0,"id":6925},"coordinates":[2051,2737]}]},"transit":{"type":"GeometryCollection","geometries":[{"type":"LineString","properties":{"source":"openstreetmap.org","kind":"train","name":"\u041c\u0438\u043d\u0441\u043a-\u0420\u0443\u0434\u0435\u043d\u0441\u043a","sort_rank":275,"min_zoom":6.0,"osm_relation":true,"id":-4523750},"arcs":[281]},{"type":"MultiLineString","properties":{"source":"openstreetmap.org","kind":"train","name":"\u0414\u0440\u0443\u044f - \u0412\u0430\u0440\u0430\u043f\u0430\u0435\u0432\u0430","sort_rank":275,"ref":"\u0414\u0440\u0443\u044f - \u0412\u0430\u0440\u0430\u043f\u0430\u0435\u0432\u0430","min_zoom":6.0,"osm_relation":true},"arcs":[[282],[283],[284]]},{"type":"MultiLineString","properties":{"kind":"train","name:en":"Moscow - Kaliningrad","name":"\u041c\u043e\u0441\u043a\u0432\u0430 - \u041a\u0430\u043b\u0438\u043d\u0438\u043d\u0433\u0440\u0430\u0434","name:lt":"Maskva - Karaliau\u010dius","sort_rank":275,"name:de":"Moskau - Kaliningrad","source":"openstreetmap.org","min_zoom":6.0,"ref":"\u041c\u043e\u0441\u043a\u0432\u0430 - \u041a\u0430\u043b\u0438\u043d\u0438\u043d\u0433\u0440\u0430\u0434","osm_relation":true},"arcs":[[285],[286],[287],[288],[289],[290],[291]]},{"type":"MultiLineString","properties":{"kind":"train","name":"\u0421\u0430\u043d\u043a\u0442-\u041f\u0435\u0442\u0435\u0440\u0431\u0443\u0440\u0433 - \u041a\u0430\u043b\u0438\u043d\u0438\u043d\u0433\u0440\u0430\u0434","name:lt":"Sankt Peterburgas - Karaliau\u010dius","sort_rank":275,"name:de":"Sankt Petersburg - Kaliningrad","source":"openstreetmap.org","min_zoom":6.0,"ref":"\u0421\u0430\u043d\u043a\u0442-\u041f\u0435\u0442\u0435\u0440\u0431\u0443\u0440\u0433 - \u041a\u0430\u043b\u0438\u043d\u0438\u043d\u0433\u0440\u0430\u0434","osm_relation":true},"arcs":[[292],[293],[294],[295],[296],[297],[298]]},{"type":"MultiLineString","properties":{"kind":"train","name":"R\u012bga - Minsk","sort_rank":275,"name:de":"Riga - Minsk","source":"openstreetmap.org","min_zoom":6.0,"name:be":"\u0420\u044b\u0433\u0430 \u2014 \u041c\u0456\u043d\u0441\u043a","name:ru":"\u0420\u0438\u0433\u0430 \u2014 \u041c\u0438\u043d\u0441\u043a","ref":"R\u012bga - Minsk","osm_relation":true},"arcs":[[299],[300],[301],[302],[303],[304],[305],[306],[307],[308],[309],[310],[311],[312],[313],[314],[315],[316],[317],[318],[319],[320],[321],[322],[323],[324],[325],[326],[327],[328],[329],[330],[331],[332],[333],[334],[335],[336]]},{"type":"LineString","properties":{"source":"openstreetmap.org","kind":"train","name":"\u041b\u0438\u0434\u0430 \u2014 \u0411\u0435\u043d\u044f\u043a\u043e\u043d\u0435","sort_rank":275,"min_zoom":6.0,"osm_relation":true,"id":-3627348},"arcs":[337]},{"type":"MultiLineString","properties":{"sort_rank":275,"source":"openstreetmap.org","min_zoom":6.0,"kind":"train","osm_relation":true},"arcs":[[338],[339],[340],[341],[342],[343],[344],[345],[346],[347],[348],[349],[350],[351],[352],[353],[354],[355],[356],[357],[358],[359],[360],[361],[362],[363],[364],[365],[366],[367],[368],[369],[370],[371],[372],[373],[374],[375],[376],[377],[378],[379],[380],[381],[382],[383],[384],[385],[386],[387],[388],[389],[390],[391],[392],[393],[394],[395],[396],[397],[398],[399],[400],[401],[402],[403],[404],[405],[406],[407],[408]]},{"type":"MultiLineString","properties":{"kind":"train","int_name":"Hrodna \u2014 Baranavi\u010dy","name":"\u0413\u0440\u043e\u0434\u043d\u043e \u2014 \u0411\u0430\u0440\u0430\u043d\u043e\u0432\u0438\u0447\u0438","name:lt":"Gardinas \u2014 Baranovi\u010diai","sort_rank":275,"source":"openstreetmap.org","min_zoom":6.0,"name:be":"\u0413\u0440\u043e\u0434\u043d\u0430 \u2014 \u0411\u0430\u0440\u0430\u043d\u0430\u0432\u0456\u0447\u044b","ref":"\u0413\u0440\u043e\u0434\u043d\u043e \u2014 \u0411\u0430\u0440\u0430\u043d\u043e\u0432\u0438\u0447\u0438","osm_relation":true},"arcs":[[409],[410],[411],[412],[413],[414],[415],[416],[417],[418],[419],[420],[421],[422],[423],[424],[425]]},{"type":"MultiLineString","properties":{"kind":"train","name":"\u041a\u0430\u043b\u0438\u043d\u0438\u043d\u0433\u0440\u0430\u0434 - \u0425\u0430\u0440\u044c\u043a\u043e\u0432","name:lt":"Karaliau\u010dius - Charkovas","sort_rank":275,"name:de":"Kaliningrad - Charkiw","source":"openstreetmap.org","min_zoom":6.0,"ref":"\u041a\u0430\u043b\u0438\u043d\u0438\u043d\u0433\u0440\u0430\u0434 - \u0425\u0430\u0440\u044c\u043a\u043e\u0432","osm_relation":true},"arcs":[[426],[427],[428],[429],[430],[431],[432]]},{"type":"LineString","properties":{"kind":"train","name":"Linia kolejowa nr 32 Czeremcha - Bia\u0142ystok","sort_rank":275,"source":"openstreetmap.org","min_zoom":6.0,"operator":"PKP Polskie Linie Kolejowe S.A.","ref":"32","osm_relation":true,"network":"PKP"},"arcs":[433]},{"type":"MultiLineString","properties":{"kind":"train","name":"RL \u041c\u0438\u043d\u0441\u043a-\u0421\u0442\u043e\u043b\u0431\u0446\u044b","sort_rank":275,"colour":"#0249BD","source":"openstreetmap.org","min_zoom":6.0,"operator":"\u0411\u0435\u043b\u043e\u0440\u0443\u0441\u0441\u043a\u0430\u044f \u0436\u0435\u043b\u0435\u0437\u043d\u0430\u044f \u0434\u043e\u0440\u043e\u0433\u0430","osm_relation":true,"colour_name":"royalblue"},"arcs":[[434],[435],[436],[437],[438],[439],[440],[441],[442],[443],[444],[445],[446],[447],[448],[449],[450],[451],[452]]},{"type":"MultiLineString","properties":{"kind":"train","name":"Vilnius - Ignalina","sort_rank":275,"name:de":"Wilna - Ingelin","source":"openstreetmap.org","min_zoom":6.0,"ref":"Vilnius - Ignalina","osm_relation":true},"arcs":[[453],[454]]},{"type":"MultiLineString","properties":{"kind":"train","name":"Vilnius - \u0160e\u0161tokai","sort_rank":275,"name:de":"Wilna - Schestoken","source":"openstreetmap.org","min_zoom":6.0,"ref":"Vilnius - \u0160e\u0161tokai","osm_relation":true},"arcs":[[455],[456]]},{"type":"LineString","properties":{"source":"openstreetmap.org","kind":"train","name":"\u0411\u0430\u0440\u0430\u043d\u043e\u0432\u0438\u0447\u0438 \u041f\u043e\u043b\u0435\u0441\u0441\u043a\u0435-\u041b\u0438\u0434\u0430","sort_rank":275,"min_zoom":6.0,"osm_relation":true},"arcs":[457]},{"type":"LineString","properties":{"source":"openstreetmap.org","kind":"train","sort_rank":275,"ref":"\u044d\u043b. \u0411\u0440\u0435\u0441\u0442 - \u0411\u0430\u0440\u0430\u043d\u043e\u0432\u0438\u0447\u0438 - \u041c\u0438\u043d\u0441\u043a","min_zoom":6.0,"osm_relation":true},"arcs":[458]},{"type":"MultiLineString","properties":{"source":"openstreetmap.org","kind":"train","sort_rank":275,"ref":"\u044d\u043b. \u041c\u0438\u043d\u0441\u043a - \u0411\u043e\u0440\u0438\u0441\u043e\u0432 - \u041e\u0440\u0448\u0430","min_zoom":6.0,"osm_relation":true},"arcs":[[459],[460],[461],[462],[463],[464],[465],[466]]},{"type":"MultiLineString","properties":{"kind":"train","name":"Linia kolejowa nr 6 Zielonka - Ku\u017anica Bia\u0142ostocka","name:lt":"Zelonkos-Ku\u017enica Bialostockos gele\u017einkelio linija","sort_rank":275,"source":"openstreetmap.org","min_zoom":6.0,"operator":"PKP Polskie Linie Kolejowe S.A.","ref":"6","osm_relation":true,"network":"PKP"},"arcs":[[467],[468],[469]]},{"type":"MultiLineString","properties":{"kind":"train","name":"\u041a\u0430\u043b\u0438\u043d\u0438\u043d\u0433\u0440\u0430\u0434 - \u0410\u0434\u043b\u0435\u0440","name:lt":"Karaliau\u010dius - Adleris","sort_rank":275,"name:de":"Kaliningrad - Adler","source":"openstreetmap.org","min_zoom":6.0,"ref":"\u041a\u0430\u043b\u0438\u043d\u0438\u043d\u0433\u0440\u0430\u0434 - \u0410\u0434\u043b\u0435\u0440","osm_relation":true},"arcs":[[470],[471],[472],[473],[474],[475],[476]]},{"type":"MultiLineString","properties":{"source":"openstreetmap.org","kind":"train","name":"Vilnius - Turmantas","sort_rank":275,"ref":"Vilnius - Turmantas","min_zoom":6.0,"osm_relation":true},"arcs":[[477],[478]]},{"type":"MultiLineString","properties":{"kind":"train","name":"\u0412\u0456\u0446\u0435\u0431\u0441\u043a - \u041b\u044b\u043d\u0442\u0443\u043f\u044b","name:lt":"Vitebskas - Lentupis","sort_rank":275,"source":"openstreetmap.org","min_zoom":6.0,"ref":"\u0412\u0456\u0446\u0435\u0431\u0441\u043a - \u041b\u044b\u043d\u0442\u0443\u043f\u044b","osm_relation":true},"arcs":[[479],[480],[481],[482]]},{"type":"MultiLineString","properties":{"source":"openstreetmap.org","kind":"train","sort_rank":275,"ref":"\u041c\u0438\u043d\u0441\u043a - \u041c\u043e\u0441\u043a\u0432\u0430","min_zoom":6.0,"osm_relation":true},"arcs":[[483],[484],[485],[486],[487],[488]]},{"type":"MultiLineString","properties":{"kind":"train","name":"Warszawa - \u0160e\u0161tokai","name:lt":"Var\u0161uva - \u0160e\u0161tokai","sort_rank":275,"name:de":"Warschau - Schestoken","source":"openstreetmap.org","min_zoom":6.0,"name:pl":"Warszawa - Szostak\u00f3w","ref":"Warszawa - \u0160e\u0161tokai","osm_relation":true},"arcs":[[489],[490],[491]]},{"type":"MultiLineString","properties":{"kind":"train","name":"Warszawa - Moskwa","sort_rank":275,"source":"openstreetmap.org","min_zoom":6.0,"name:ru":"\u0412\u0430\u0440\u0448\u0430\u0432\u0430 - \u041c\u043e\u0441\u043a\u0432\u0430","name:be":"\u0412\u0430\u0440\u0448\u0430\u0432\u0430 - \u041c\u0430\u0441\u043a\u0432\u0430","ref":"Warszawa - Moskwa","osm_relation":true},"arcs":[[492],[493],[494],[495],[496],[497],[498],[499],[500],[501],[502],[503]]},{"type":"MultiLineString","properties":{"source":"openstreetmap.org","kind":"train","sort_rank":275,"ref":"\u044d\u043b. \u041c\u0438\u043d\u0441\u043a - \u041c\u043e\u043b\u043e\u0434\u0435\u0447\u043d\u043e","min_zoom":6.0,"osm_relation":true},"arcs":[[504],[505],[506],[507],[508],[509],[510],[511],[512],[513],[514]]},{"type":"LineString","properties":{"source":"openstreetmap.org","kind":"train","sort_rank":275,"ref":"Stotis - Oro uostas","min_zoom":6.0,"osm_relation":true,"id":-1562141},"arcs":[515]},{"type":"MultiLineString","properties":{"kind":"train","int_name":"Hrodna \u2014 Lida","name":"\u0413\u0440\u043e\u0434\u043d\u043e \u2014 \u041b\u0438\u0434\u0430","sort_rank":275,"source":"openstreetmap.org","min_zoom":6.0,"name:be":"\u0413\u0440\u043e\u0434\u043d\u0430 \u2014 \u041b\u0456\u0434\u0430","ref":"\u0413\u0440\u043e\u0434\u043d\u043e \u2014 \u041b\u0438\u0434\u0430","osm_relation":true},"arcs":[[516],[517],[518],[519],[520],[521],[522],[523],[524],[525],[526],[527],[528],[529],[530],[531],[532],[533],[534],[535],[536],[537]]},{"type":"MultiLineString","properties":{"source":"openstreetmap.org","kind":"train","name":"Line 31 Siedlce - Hajn\u00f3wka","sort_rank":275,"ref":"31","min_zoom":6.0,"osm_relation":true},"arcs":[[538],[539],[540],[541],[542]]},{"type":"MultiLineString","properties":{"kind":"train","name":"\u041e\u0441\u0438\u043f\u043e\u0432\u0438\u0447\u0438 \u2014 \u0421\u043e\u043b\u0438\u0433\u043e\u0440\u0441\u043a","sort_rank":275,"source":"openstreetmap.org","min_zoom":6.0,"operator":"\u0411\u0427","ref":"\u041e\u0441\u0438\u043f\u043e\u0432\u0438\u0447\u0438 - \u0421\u043e\u043b\u0438\u0433\u043e\u0440\u0441\u043a","osm_relation":true},"arcs":[[543],[544],[545],[546],[547],[548],[549],[550]]},{"type":"MultiLineString","properties":{"source":"openstreetmap.org","kind":"train","sort_rank":275,"ref":"\u0413\u0440\u043e\u0434\u043d\u043e \u2014 \u0411\u0440\u0443\u0437\u0433\u0438","min_zoom":6.0,"osm_relation":true},"arcs":[[551],[552],[553]]},{"type":"LineString","properties":{"kind":"train","name":"Praha \u2014 Moskva","sort_rank":275,"source":"openstreetmap.org","min_zoom":6.0,"name:ru":"\u041f\u0440\u0430\u0433\u0430 \u2014 \u041c\u043e\u0441\u043a\u0432\u0430","name:be":"\u041f\u0440\u0430\u0433\u0430 \u2014 \u041c\u0430\u0441\u043a\u0432\u0430","ref":"Praha - Moskva","osm_relation":true},"arcs":[554]},{"type":"LineString","properties":{"source":"openstreetmap.org","kind":"train","name":"\u041f\u043e\u043b\u0430\u0446\u043a - \u041c\u0456\u043d\u0441\u043a","sort_rank":275,"ref":"\u041f\u043e\u043b\u0430\u0446\u043a - \u041c\u0456\u043d\u0441\u043a","min_zoom":6.0,"osm_relation":true},"arcs":[555]},{"type":"LineString","properties":{"kind":"train","name":"EN 452 : Moscou \u2212 Berlin \u2212 Paris","service":"international","sort_rank":275,"source":"openstreetmap.org","min_zoom":5.0,"operator":"\u0420\u043e\u0441\u0441\u0438\u0439\u0441\u043a\u0438\u0435 \u0436\u0435\u043b\u0435\u0437\u043d\u044b\u0435 \u0434\u043e\u0440\u043e\u0433\u0438","ref":"EN 452","osm_relation":true,"network":"EuroNight"},"arcs":[556]},{"type":"MultiLineString","properties":{"source":"openstreetmap.org","kind":"train","name":"Vilnius - Trakai","sort_rank":275,"ref":"Vilnius - Trakai","min_zoom":6.0,"osm_relation":true},"arcs":[[557],[558],[559]]},{"type":"LineString","properties":{"source":"openstreetmap.org","kind":"train","sort_rank":275,"ref":"\u044d\u043b. \u041c\u0438\u043d\u0441\u043a - \u041e\u0441\u0438\u043f\u043e\u0432\u0438\u0447\u0438","min_zoom":6.0,"osm_relation":true},"arcs":[560]},{"type":"LineString","properties":{"kind":"train","name":"Linia kolejowa nr 38 Bia\u0142ystok - Korsze","sort_rank":275,"source":"openstreetmap.org","min_zoom":6.0,"operator":"PKP Polskie Linie Kolejowe S.A.","ref":"38","osm_relation":true,"network":"PKP"},"arcs":[561]},{"type":"MultiLineString","properties":{"source":"openstreetmap.org","kind":"train","sort_rank":275,"ref":"\u044d\u043b. \u041c\u0438\u043d\u0441\u043a - \u0411\u0430\u0440\u0430\u043d\u043e\u0432\u0438\u0447\u0438","min_zoom":6.0,"osm_relation":true},"arcs":[[562],[563],[564]]},{"type":"LineString","properties":{"source":"openstreetmap.org","kind":"train","name":"\u041c\u043e\u043b\u043e\u0434\u0435\u0447\u043d\u043e-\u041b\u0438\u0434\u0430","sort_rank":275,"min_zoom":6.0,"osm_relation":true},"arcs":[565]},{"type":"LineString","properties":{"source":"openstreetmap.org","kind":"train","sort_rank":275,"ref":"\u0411\u0440\u0435\u0441\u0442 - \u041c\u043e\u0441\u043a\u0432\u0430","min_zoom":6.0,"osm_relation":true},"arcs":[566]},{"type":"LineString","properties":{"kind":"train","name":"\u0412\u043e\u043b\u043a\u043e\u0432\u044b\u0441\u043a-\u0413\u043e\u0440\u043e\u0434 \u2014 \u0421\u0432\u0438\u0441\u043b\u043e\u0447\u044c","sort_rank":275,"source":"openstreetmap.org","min_zoom":6.0,"ref":"\u0412\u043e\u043b\u043a\u043e\u0432\u044b\u0441\u043a-\u0413\u043e\u0440\u043e\u0434 \u2014 \u0421\u0432\u0438\u0441\u043b\u043e\u0447\u044c","id":-3640250,"osm_relation":true},"arcs":[567]},{"type":"LineString","properties":{"kind":"train","name:en":"EN 453 : Paris \u2212 Berlin \u2212 Moscow","network":"EuroNight","service":"international","sort_rank":275,"source":"openstreetmap.org","min_zoom":5.0,"operator":"\u0420\u043e\u0441\u0441\u0438\u0439\u0441\u043a\u0438\u0435 \u0436\u0435\u043b\u0435\u0437\u043d\u044b\u0435 \u0434\u043e\u0440\u043e\u0433\u0438","ref":"EN 453","osm_relation":true,"name":"EN 453 : Paris \u2212 Berlin \u2212 Moscou"},"arcs":[568]},{"type":"MultiLineString","properties":{"source":"openstreetmap.org","kind":"train","sort_rank":275,"ref":"Grodno - Ku\u017anica Bia\u0142ostocka","min_zoom":6.0,"osm_relation":true},"arcs":[[569],[570]]},{"type":"MultiLineString","properties":{"kind":"train","name":"Klaip\u0117da - Vilnius","sort_rank":275,"name:de":"Memel - Wilna","source":"openstreetmap.org","min_zoom":6.0,"ref":"Klaip\u0117da - Vilnius","osm_relation":true},"arcs":[[571],[572],[573],[574],[575]]},{"type":"MultiLineString","properties":{"source":"openstreetmap.org","kind":"train","sort_rank":275,"ref":"Vilnius - Marcinkonys","min_zoom":6.0,"osm_relation":true},"arcs":[[576],[577],[578]]},{"type":"MultiLineString","properties":{"kind":"train","name":"Vilnius - D\u016bk\u0161tas","sort_rank":275,"name:de":"Wilna - Dukschten","source":"openstreetmap.org","min_zoom":6.0,"ref":"Vilnius - D\u016bk\u0161tas","osm_relation":true},"arcs":[[579],[580]]},{"type":"LineString","properties":{"source":"openstreetmap.org","kind":"train","sort_rank":275,"ref":"\u0412\u043e\u043b\u043a\u043e\u0432\u044b\u0441\u043a-\u0413\u043e\u0440\u043e\u0434 \u2014 \u0411\u0435\u0440\u0435\u0441\u0442\u043e\u0432\u0438\u0446\u0430","min_zoom":6.0,"osm_relation":true,"id":-3640227},"arcs":[581]},{"type":"MultiLineString","properties":{"source":"openstreetmap.org","kind":"train","sort_rank":275,"ref":"\u0411\u0430\u0440\u0430\u043d\u043e\u0432\u0438\u0447\u0438 - \u0421\u043b\u0443\u0446\u043a","min_zoom":6.0,"osm_relation":true},"arcs":[[582],[583],[584],[585]]},{"type":"MultiLineString","properties":{"kind":"train","name":"\u0413\u0440\u043e\u0434\u043d\u043e \u2014 \u0423\u0437\u0431\u0435\u0440\u0435\u0436\u044c","name:lt":"Gardinas \u2014 U\u017eber\u017e\u0117","sort_rank":275,"source":"openstreetmap.org","min_zoom":6.0,"ref":"\u0413\u0440\u043e\u0434\u043d\u043e \u2014 \u0423\u0437\u0431\u0435\u0440\u0435\u0436\u044c","osm_relation":true},"arcs":[[586],[587]]}]},"pois":{"type":"GeometryCollection","geometries":[{"type":"Point","properties":{"kind":"nature_reserve","protect_class":"4","area":2308400000,"name:de":"Republikanisches Landschaftsreservat \u201eNalibozkaja\u201c","source":"openstreetmap.org","min_zoom":6.7,"tier":2,"name:be":"\u0420\u044d\u0441\u043f\u0443\u0431\u043b\u0456\u043a\u0430\u043d\u0441\u043a\u0456 \u043b\u0430\u043d\u0434\u0448\u0430\u0444\u0442\u043d\u044b \u0437\u0430\u043a\u0430\u0437\u043d\u0456\u043a \"\u041d\u0430\u043b\u0456\u0431\u043e\u0446\u043a\u0456\"","name:pl":"Nalibocki Republika\u0144ski rezerwat krajobrazowy","id":-6451322,"osm_relation":true,"name":"\u0420\u0435\u0441\u043f\u0443\u0431\u043b\u0438\u043a\u0430\u043d\u0441\u043a\u0438\u0439 \u043b\u0430\u043d\u0434\u0448\u0430\u0444\u0442\u043d\u044b\u0439 \u0437\u0430\u043a\u0430\u0437\u043d\u0438\u043a \"\u041d\u0430\u043b\u0438\u0431\u043e\u043a\u0441\u043a\u0438\u0439\""},"coordinates":[2854,1720]},{"type":"Point","properties":{"int_name":"Nacyjanalny park \"Bie\u0142avie\u017eskaja pu\u0161\u010da\"","name:lv":"Nacion\u0101lais parks \u201eBelove\u017eas g\u0101r\u0161a\u201d","tier":2,"min_zoom":5.96,"operator":"\u0423\u043f\u0440\u0430\u0432\u043b\u0435\u043d\u0438\u0435 \u0434\u0435\u043b\u0430\u043c\u0438 \u041f\u0440\u0435\u0437\u0438\u0434\u0435\u043d\u0442\u0430 \u0420\u0411","name:ru":"\u041d\u0430\u0446\u0438\u043e\u043d\u0430\u043b\u044c\u043d\u044b\u0439 \u043f\u0430\u0440\u043a \u00ab\u0411\u0435\u043b\u043e\u0432\u0435\u0436\u0441\u043a\u0430\u044f \u043f\u0443\u0449\u0430\u00bb","name:pl":"Park Narodowy \u201ePuszcza Bia\u0142owieska\u201d","id":-4096466,"osm_relation":true,"name":"\u041d\u0430\u0446\u044b\u044f\u043d\u0430\u043b\u044c\u043d\u044b \u043f\u0430\u0440\u043a \u00ab\u0411\u0435\u043b\u0430\u0432\u0435\u0436\u0441\u043a\u0430\u044f \u043f\u0443\u0448\u0447\u0430\u00bb","kind":"nature_reserve","name:en":"National park \"Bia\u0142owie\u017ca Forest\"","protect_class":"2","area":6439700000,"name:de":"Nationalpark \"Bia\u0142owie\u017ca-Urwald\"","source":"openstreetmap.org"},"coordinates":[1229,267]},{"type":"Point","properties":{"name:nl":"Nationaal Park Trakai","name:ka":"\u10e2\u10e0\u10d0\u10d9\u10d0\u10d8\u10e1 \u10d8\u10e1\u10e2\u10dd\u10e0\u10d8\u10e3\u10da\u10d8 \u10d4\u10e0\u10dd\u10d5\u10dc\u10e3\u10da\u10d8 \u10de\u10d0\u10e0\u10d9\u10d8","name:no":"Trakai historiske nasjonalpark","name:tr":"Trakai Tarihi Mill\u00ee Park\u0131","name:cs":"N\u00e1rodn\u00ed park Trakai","min_zoom":6.83,"name:sv":"Trakais historiska nationalpark","tier":1,"name:sk":"Trakai (n\u00e1rodn\u00fd park)","name:pl":"Trocki Historyczny Park Narodowy","id":-1502006,"name:ca":"Parc Nacional Hist\u00f2ric de Trakai","name":"Trak\u0173 istorinis nacionalinis parkas","kind":"national_park","name:en":"Trakai Historical National Park","protect_class":"2","area":242142000,"name:fi":"Trakain historiallinen kansallispuisto","name:da":"Trakai historiske nationalpark","name:de":"Nationalpark Trakai","source":"openstreetmap.org","name:fr":"Parc historique national de Trakai","osm_relation":true,"name:zh":"\u7279\u62c9\u51f1\u6b77\u53f2\u570b\u5bb6\u516c\u5712","name:es":"Parque nacional hist\u00f3rico de Trakai"},"coordinates":[1764,2704]},{"type":"Point","properties":{"name:az":"Auk\u015ftaytiya Milli Park\u0131","name:nl":"Nationaal Park Auk\u0161taitija","name:ka":"\u10d0\u10e3\u10e5\u10e8\u10e2\u10d0\u10d8\u10e2\u10d8\u10d8\u10e1 \u10d4\u10e0\u10dd\u10d5\u10dc\u10e3\u10da\u10d8 \u10de\u10d0\u10e0\u10d9\u10d8","name:tr":"uk\u0161taitija Mill\u00ee Park\u0131","name:cs":"N\u00e1rodn\u00ed park Auk\u0161taitijos","min_zoom":5.64,"name:it":"Parco nazionale dell'Auk\u0161taitija","name:uk":"\u0410\u0443\u043a\u0448\u0442\u0430\u0439\u0442\u0441\u044c\u043a\u0438\u0439 \u043d\u0430\u0446\u0456\u043e\u043d\u0430\u043b\u044c\u043d\u0438\u0439 \u043f\u0430\u0440\u043a","name:sv":"Auk\u0161taitija nationalpark","tier":1,"name:ru":"\u0410\u0443\u043a\u0448\u0442\u0430\u0439\u0442\u0441\u043a\u0438\u0439 \u043d\u0430\u0446\u0438\u043e\u043d\u0430\u043b\u044c\u043d\u044b\u0439 \u043f\u0430\u0440\u043a","name:pl":"Auksztocki Park Narodowy","name:gl":"Parque nacional de Auk\u0161taitija","name":"Auk\u0161taitijos nacionalinis parkas","id":-919299,"osm_relation":true,"name:af":"Nasionale Auk\u0161taitija-park","kind":"national_park","name:en":"Auk\u0161taitija National Park","protect_class":"2","area":1268930000,"name:fi":"Auk\u0161taitijan kansallispuisto","name:da":"Auk\u0161taitija nationalpark","name:de":"Nationalpark Aukschtaitien","source":"openstreetmap.org","name:fr":"Parc national d'Auk\u0161taitija","name:et":"Auk\u0161taitija rahvuspark","name:zh":"\u5967\u514b\u65bd\u6cf0\u63d0\u4e9e\u570b\u5bb6\u516c\u5712","name:es":"Parque nacional Auk\u0161taitija"},"coordinates":[2587,3565]},{"type":"Point","properties":{"kind":"national_park","name:en":"Wigry National Park","protect_class":"2","name:lt":"Vygri\u0173 nacionalinis parkas","area":436924000,"name:de":"Nationalpark Wigry","source":"openstreetmap.org","min_zoom":6.4,"tier":1,"id":-271443,"osm_relation":true,"name":"Wigierski Park Narodowy"},"coordinates":[410,1977]},{"type":"Point","properties":{"kind":"national_park","protect_class":"2","name:lt":"Bebro nacionalinis parkas","area":1687550000,"name:de":"Nationalpark Bober","source":"openstreetmap.org","min_zoom":5.43,"tier":1,"id":-270329,"osm_relation":true,"name":"Biebrza\u0144ski Park Narodowy"},"coordinates":[61,1240]},{"type":"Point","properties":{"name:lv":"Belove\u017eas nacion\u0101lais parks","name:lt":"Belove\u017eo nacionalinis parkas","name:cs":"B\u011blov\u011b\u017esk\u00fd n\u00e1rodn\u00ed park","min_zoom":6.73,"tier":1,"name:sk":"Bielove\u017esk\u00fd n\u00e1rodn\u00fd park","id":-252148,"osm_relation":true,"name":"Bia\u0142owieski Park Narodowy","kind":"national_park","name:en":"Bia\u0142owie\u017ca National Park","protect_class":"2","area":278027000,"name:de":"Bia\u0142owie\u017ca-Nationalpark","source":"openstreetmap.org","name:fr":"Parc national de Bialowieza"},"coordinates":[996,348]}]},"boundaries":{"type":"GeometryCollection","geometries":[{"type":"MultiLineString","properties":{"source":"naturalearthdata.com","kind":"country","sort_rank":262,"kind_detail":"2","min_zoom":0.0,"id":234},"arcs":[[0],[1],[2]]},{"type":"MultiLineString","properties":{"source":"naturalearthdata.com","kind":"country","sort_rank":262,"kind_detail":"2","min_zoom":0.0,"id":320},"arcs":[[3],[4]]},{"type":"MultiLineString","properties":{"source":"naturalearthdata.com","kind":"country","sort_rank":262,"kind_detail":"2","min_zoom":0.0,"id":56},"arcs":[[5],[6],[7],[8],[9],[10],[11],[12],[13],[14],[15],[16],[17],[18],[19],[20],[21],[22],[23],[24],[25],[26],[27],[28],[29],[30],[31],[32],[33],[34],[35],[36],[37],[38]]},{"type":"LineString","properties":{"source":"naturalearthdata.com","kind":"country","sort_rank":262,"kind_detail":"2","min_zoom":0.0,"id":63},"arcs":[39]},{"type":"MultiLineString","properties":{"source":"naturalearthdata.com","kind":"country","sort_rank":262,"kind_detail":"2","min_zoom":0.0,"id":116},"arcs":[[40],[41],[42],[43],[44],[45]]},{"type":"MultiLineString","properties":{"source":"naturalearthdata.com","kind":"country","sort_rank":262,"kind_detail":"2","min_zoom":0.0,"id":235},"arcs":[[46],[47],[48],[49]]},{"type":"MultiLineString","properties":{"source":"naturalearthdata.com","kind":"country","sort_rank":262,"kind_detail":"2","min_zoom":0.0,"id":232},"arcs":[[50],[51],[52]]},{"type":"MultiLineString","properties":{"source":"naturalearthdata.com","kind":"region","sort_rank":256,"kind_detail":"4","min_zoom":6.7,"id":2469},"arcs":[[53],[54],[55],[56],[57],[58],[59],[60],[61],[62],[63],[64],[65],[66],[67],[68],[69],[70],[71],[72],[73]]},{"type":"MultiLineString","properties":{"source":"naturalearthdata.com","kind":"region","sort_rank":256,"kind_detail":"4","min_zoom":6.7,"id":3191},"arcs":[[74],[75],[76],[77],[78],[79],[80],[81],[82]]},{"type":"MultiLineString","properties":{"source":"naturalearthdata.com","kind":"region","sort_rank":256,"kind_detail":"4","min_zoom":6.7,"id":2470},"arcs":[[83],[84],[85],[86],[87],[88],[89]]},{"type":"MultiLineString","properties":{"source":"naturalearthdata.com","kind":"region","sort_rank":256,"kind_detail":"4","min_zoom":6.7,"id":2471},"arcs":[[90],[91],[92],[93],[94]]},{"type":"MultiLineString","properties":{"source":"naturalearthdata.com","kind":"region","sort_rank":256,"kind_detail":"4","min_zoom":6.7,"id":2472},"arcs":[[95],[96],[97],[98],[99],[100],[101],[102],[103],[104],[105],[106],[107],[108],[109],[110],[111],[112],[113],[114],[115],[116],[117]]},{"type":"MultiLineString","properties":{"source":"naturalearthdata.com","kind":"region","sort_rank":256,"kind_detail":"4","min_zoom":6.7,"id":2473},"arcs":[[118],[119],[120],[121],[122],[123],[124],[125]]},{"type":"MultiLineString","properties":{"source":"naturalearthdata.com","kind":"region","sort_rank":256,"kind_detail":"4","min_zoom":6.7,"id":2474},"arcs":[[126],[127],[128],[129],[130],[131],[132]]},{"type":"MultiLineString","properties":{"source":"naturalearthdata.com","kind":"region","sort_rank":256,"kind_detail":"4","min_zoom":6.7,"id":2475},"arcs":[[133],[134],[135],[136],[137],[138],[139],[140],[141],[142],[143]]},{"type":"MultiLineString","properties":{"source":"naturalearthdata.com","kind":"region","sort_rank":256,"kind_detail":"4","min_zoom":6.7,"id":2476},"arcs":[[144],[145],[146],[147],[148],[149],[150]]},{"type":"MultiLineString","properties":{"source":"naturalearthdata.com","kind":"region","sort_rank":256,"kind_detail":"4","min_zoom":6.7,"id":2477},"arcs":[[151],[152]]},{"type":"MultiLineString","properties":{"source":"naturalearthdata.com","kind":"region","sort_rank":256,"kind_detail":"4","min_zoom":6.7,"id":3188},"arcs":[[153],[154]]},{"type":"MultiLineString","properties":{"source":"naturalearthdata.com","kind":"region","sort_rank":256,"kind_detail":"4","min_zoom":6.7,"id":3189},"arcs":[[155],[156],[157],[158],[159],[160],[161],[162],[163]]},{"type":"MultiLineString","properties":{"source":"naturalearthdata.com","kind":"region","sort_rank":256,"kind_detail":"4","min_zoom":6.7,"id":3190},"arcs":[[164],[165],[166],[167],[168]]},{"type":"MultiLineString","properties":{"source":"naturalearthdata.com","kind":"region","sort_rank":256,"kind_detail":"4","min_zoom":6.7,"id":3193},"arcs":[[169],[170]]},{"type":"MultiLineString","properties":{"source":"naturalearthdata.com","kind":"region","sort_rank":256,"kind_detail":"4","min_zoom":6.7,"id":3194},"arcs":[[171],[172],[173],[174],[175],[176],[177],[178],[179],[180],[181],[182],[183]]},{"type":"MultiLineString","properties":{"source":"naturalearthdata.com","kind":"region","sort_rank":256,"kind_detail":"4","min_zoom":5.0,"id":4796},"arcs":[[184],[185],[186]]},{"type":"MultiLineString","properties":{"source":"naturalearthdata.com","kind":"region","sort_rank":256,"kind_detail":"4","min_zoom":5.0,"id":4797},"arcs":[[187],[188],[189],[190],[191],[192],[193],[194],[195],[196],[197],[198],[199],[200],[201],[202],[203],[204],[205]]},{"type":"MultiLineString","properties":{"source":"naturalearthdata.com","kind":"region","sort_rank":256,"kind_detail":"4","min_zoom":5.0,"id":4798},"arcs":[[206],[207],[208],[209],[210],[211],[212],[213],[214],[215],[216],[217],[218],[219],[220],[221],[222],[223],[224]]},{"type":"MultiLineString","properties":{"source":"naturalearthdata.com","kind":"region","sort_rank":256,"kind_detail":"4","min_zoom":5.0,"id":4799},"arcs":[[225],[226],[227],[228],[229],[230],[231],[232],[233],[234],[235],[236],[237],[238],[239],[240],[241],[242],[243],[244],[245],[246],[247],[248],[249],[250],[251],[252],[253]]},{"type":"MultiLineString","properties":{"source":"naturalearthdata.com","kind":"region","sort_rank":256,"kind_detail":"4","min_zoom":5.0,"id":4800},"arcs":[[254],[255],[256],[257],[258],[259],[260],[261],[262],[263],[264],[265],[266],[267],[268]]},{"type":"MultiLineString","properties":{"source":"naturalearthdata.com","kind":"region","sort_rank":256,"kind_detail":"4","min_zoom":5.0,"id":4801},"arcs":[[269],[270],[271],[272],[273],[274],[275],[276]]},{"type":"LineString","properties":{"source":"naturalearthdata.com","kind":"region","sort_rank":256,"kind_detail":"4","min_zoom":5.0,"id":4804},"arcs":[277]},{"type":"LineString","properties":{"source":"naturalearthdata.com","kind":"region","sort_rank":256,"kind_detail":"4","min_zoom":5.5,"id":6552},"arcs":[278]},{"type":"MultiLineString","properties":{"source":"naturalearthdata.com","kind":"region","sort_rank":256,"kind_detail":"4","min_zoom":5.5,"id":6553},"arcs":[[279],[280]]}]},"roads":{"type":"GeometryCollection","geometries":[{"type":"LineString","properties":{"kind":"highway","network":"e-road","sort_rank":383,"kind_detail":"motorway","source":"naturalearthdata.com","min_zoom":4.0,"shield_text":"85","id":4216},"arcs":[594]},{"type":"LineString","properties":{"kind":"highway","network":"e-road","sort_rank":383,"kind_detail":"motorway","source":"naturalearthdata.com","min_zoom":4.0,"shield_text":"85","id":4639},"arcs":[595]},{"type":"LineString","properties":{"kind":"highway","network":"e-road","sort_rank":383,"kind_detail":"motorway","source":"naturalearthdata.com","min_zoom":3.0,"landuse_kind":"urban_area","shield_text":"30","id":4641},"arcs":[596]},{"type":"LineString","properties":{"kind":"highway","network":"e-road","sort_rank":383,"kind_detail":"motorway","source":"naturalearthdata.com","min_zoom":3.0,"shield_text":"30","id":4641},"arcs":[597]},{"type":"MultiLineString","properties":{"source":"naturalearthdata.com","kind":"highway","kind_detail":"motorway","sort_rank":383,"landuse_kind":"urban_area","min_zoom":3.0,"id":4687},"arcs":[[598],[599],[600],[601],[602]]},{"type":"MultiLineString","properties":{"source":"naturalearthdata.com","kind":"highway","sort_rank":383,"kind_detail":"motorway","min_zoom":3.0,"id":4687},"arcs":[[603],[604],[605],[606]]},{"type":"LineString","properties":{"source":"naturalearthdata.com","kind":"major_road","kind_detail":"primary","sort_rank":380,"landuse_kind":"urban_area","min_zoom":3.0,"id":4704},"arcs":[607]},{"type":"LineString","properties":{"source":"naturalearthdata.com","kind":"major_road","sort_rank":380,"kind_detail":"primary","min_zoom":3.0,"id":4704},"arcs":[608]},{"type":"LineString","properties":{"source":"naturalearthdata.com","kind":"major_road","kind_detail":"primary","sort_rank":380,"landuse_kind":"urban_area","min_zoom":4.0,"id":4713},"arcs":[609]},{"type":"LineString","properties":{"source":"naturalearthdata.com","kind":"major_road","sort_rank":380,"kind_detail":"primary","min_zoom":4.0,"id":4713},"arcs":[610]},{"type":"LineString","properties":{"source":"naturalearthdata.com","kind":"major_road","sort_rank":380,"kind_detail":"primary","min_zoom":4.0,"id":4714},"arcs":[611]},{"type":"LineString","properties":{"source":"naturalearthdata.com","kind":"major_road","kind_detail":"primary","sort_rank":380,"landuse_kind":"urban_area","min_zoom":4.0,"id":4715},"arcs":[612]},{"type":"LineString","properties":{"source":"naturalearthdata.com","kind":"major_road","sort_rank":380,"kind_detail":"primary","min_zoom":4.0,"id":4715},"arcs":[613]},{"type":"LineString","properties":{"kind":"highway","network":"e-road","sort_rank":383,"kind_detail":"motorway","source":"naturalearthdata.com","min_zoom":4.0,"landuse_kind":"park","shield_text":"85","id":4716},"arcs":[614]},{"type":"LineString","properties":{"kind":"highway","network":"e-road","sort_rank":383,"kind_detail":"motorway","source":"naturalearthdata.com","min_zoom":4.0,"landuse_kind":"urban_area","shield_text":"85","id":4716},"arcs":[615]},{"type":"MultiLineString","properties":{"kind":"highway","network":"e-road","sort_rank":383,"kind_detail":"motorway","source":"naturalearthdata.com","min_zoom":4.0,"shield_text":"85","id":4716},"arcs":[[616],[617],[618]]},{"type":"LineString","properties":{"source":"naturalearthdata.com","kind":"major_road","kind_detail":"primary","sort_rank":380,"landuse_kind":"urban_area","min_zoom":4.0,"id":4717},"arcs":[619]},{"type":"LineString","properties":{"source":"naturalearthdata.com","kind":"major_road","kind_detail":"primary","sort_rank":380,"landuse_kind":"urban_area","min_zoom":4.0,"id":4717},"arcs":[620]},{"type":"MultiLineString","properties":{"source":"naturalearthdata.com","kind":"major_road","sort_rank":380,"kind_detail":"primary","min_zoom":4.0,"id":4717},"arcs":[[621],[622]]},{"type":"LineString","properties":{"source":"naturalearthdata.com","kind":"major_road","kind_detail":"primary","sort_rank":380,"landuse_kind":"urban_area","min_zoom":3.0,"id":4718},"arcs":[623]},{"type":"LineString","properties":{"source":"naturalearthdata.com","kind":"major_road","sort_rank":380,"kind_detail":"primary","min_zoom":3.0,"id":4718},"arcs":[624]},{"type":"MultiLineString","properties":{"source":"naturalearthdata.com","kind":"major_road","kind_detail":"primary","sort_rank":380,"landuse_kind":"urban_area","min_zoom":3.0,"id":4721},"arcs":[[625],[626]]},{"type":"LineString","properties":{"source":"naturalearthdata.com","kind":"major_road","kind_detail":"primary","sort_rank":380,"landuse_kind":"urban_area","min_zoom":3.0,"id":4721},"arcs":[627]},{"type":"MultiLineString","properties":{"source":"naturalearthdata.com","kind":"major_road","sort_rank":380,"kind_detail":"primary","min_zoom":3.0,"id":4721},"arcs":[[628],[629],[630]]},{"type":"LineString","properties":{"source":"naturalearthdata.com","kind":"major_road","kind_detail":"primary","sort_rank":380,"landuse_kind":"urban_area","min_zoom":3.0,"id":4722},"arcs":[631]},{"type":"MultiLineString","properties":{"source":"naturalearthdata.com","kind":"major_road","sort_rank":380,"kind_detail":"primary","min_zoom":3.0,"id":4722},"arcs":[[632],[633]]},{"type":"LineString","properties":{"source":"naturalearthdata.com","kind":"major_road","sort_rank":380,"kind_detail":"primary","min_zoom":3.0,"id":4723},"arcs":[634]},{"type":"LineString","properties":{"source":"naturalearthdata.com","kind":"major_road","kind_detail":"primary","sort_rank":380,"landuse_kind":"urban_area","min_zoom":3.0,"id":4724},"arcs":[635]},{"type":"LineString","properties":{"source":"naturalearthdata.com","kind":"major_road","sort_rank":380,"kind_detail":"primary","min_zoom":3.0,"id":4724},"arcs":[636]},{"type":"LineString","properties":{"source":"naturalearthdata.com","kind":"major_road","kind_detail":"primary","sort_rank":380,"landuse_kind":"national_park","min_zoom":3.0,"id":4726},"arcs":[637]},{"type":"LineString","properties":{"source":"naturalearthdata.com","kind":"major_road","kind_detail":"primary","sort_rank":380,"landuse_kind":"urban_area","min_zoom":3.0,"id":4726},"arcs":[638]},{"type":"MultiLineString","properties":{"source":"naturalearthdata.com","kind":"major_road","sort_rank":380,"kind_detail":"primary","min_zoom":3.0,"id":4726},"arcs":[[639],[640]]},{"type":"LineString","properties":{"kind":"highway","network":"e-road","sort_rank":383,"kind_detail":"motorway","source":"naturalearthdata.com","min_zoom":3.0,"shield_text":"30","id":4732},"arcs":[641]},{"type":"LineString","properties":{"source":"naturalearthdata.com","kind":"major_road","sort_rank":380,"kind_detail":"primary","min_zoom":4.0,"id":5030},"arcs":[642]},{"type":"LineString","properties":{"source":"naturalearthdata.com","kind":"major_road","kind_detail":"primary","sort_rank":380,"landuse_kind":"park","min_zoom":3.0,"id":5057},"arcs":[643]},{"type":"LineString","properties":{"source":"naturalearthdata.com","kind":"major_road","sort_rank":380,"kind_detail":"primary","min_zoom":3.0,"id":5057},"arcs":[644]},{"type":"LineString","properties":{"source":"naturalearthdata.com","kind":"major_road","sort_rank":380,"kind_detail":"primary","min_zoom":3.0,"id":5060},"arcs":[645]},{"type":"LineString","properties":{"source":"naturalearthdata.com","kind":"major_road","kind_detail":"primary","sort_rank":380,"landuse_kind":"protected_area","min_zoom":4.0,"id":5065},"arcs":[646]},{"type":"LineString","properties":{"source":"naturalearthdata.com","kind":"major_road","kind_detail":"primary","sort_rank":380,"landuse_kind":"urban_area","min_zoom":4.0,"id":5065},"arcs":[647]},{"type":"LineString","properties":{"source":"naturalearthdata.com","kind":"major_road","kind_detail":"primary","sort_rank":380,"landuse_kind":"urban_area","min_zoom":4.0,"id":5065},"arcs":[648]},{"type":"LineString","properties":{"source":"naturalearthdata.com","kind":"major_road","kind_detail":"primary","sort_rank":380,"landuse_kind":"urban_area","min_zoom":4.0,"id":5065},"arcs":[649]},{"type":"LineString","properties":{"source":"naturalearthdata.com","kind":"major_road","kind_detail":"primary","sort_rank":380,"landuse_kind":"urban_area","min_zoom":4.0,"id":5065},"arcs":[650]},{"type":"MultiLineString","properties":{"source":"naturalearthdata.com","kind":"major_road","sort_rank":380,"kind_detail":"primary","min_zoom":4.0,"id":5065},"arcs":[[651],[652],[653],[654]]},{"type":"LineString","properties":{"source":"naturalearthdata.com","kind":"major_road","sort_rank":380,"kind_detail":"primary","min_zoom":3.0,"id":5066},"arcs":[655]},{"type":"LineString","properties":{"source":"naturalearthdata.com","kind":"major_road","kind_detail":"primary","sort_rank":380,"landuse_kind":"urban_area","min_zoom":4.0,"id":5077},"arcs":[656]},{"type":"LineString","properties":{"source":"naturalearthdata.com","kind":"major_road","sort_rank":380,"kind_detail":"primary","min_zoom":4.0,"id":5077},"arcs":[657]},{"type":"LineString","properties":{"source":"naturalearthdata.com","kind":"major_road","sort_rank":379,"kind_detail":"secondary","min_zoom":3.0,"id":5084},"arcs":[658]},{"type":"LineString","properties":{"source":"naturalearthdata.com","kind":"major_road","sort_rank":380,"kind_detail":"primary","min_zoom":3.0,"id":5100},"arcs":[659]},{"type":"LineString","properties":{"kind":"highway","network":"e-road","sort_rank":383,"kind_detail":"motorway","source":"naturalearthdata.com","min_zoom":3.0,"landuse_kind":"urban_area","shield_text":"30","id":5130},"arcs":[660]},{"type":"LineString","properties":{"kind":"highway","network":"e-road","sort_rank":383,"kind_detail":"motorway","source":"naturalearthdata.com","min_zoom":3.0,"shield_text":"30","id":5130},"arcs":[661]},{"type":"LineString","properties":{"kind":"highway","network":"e-road","sort_rank":383,"kind_detail":"motorway","source":"naturalearthdata.com","min_zoom":6.0,"shield_text":"85","id":5437},"arcs":[662]},{"type":"LineString","properties":{"kind":"highway","network":"e-road","sort_rank":383,"kind_detail":"motorway","source":"naturalearthdata.com","min_zoom":6.0,"shield_text":"85","id":5438},"arcs":[663]},{"type":"MultiLineString","properties":{"source":"naturalearthdata.com","kind":"highway","kind_detail":"motorway","sort_rank":383,"landuse_kind":"urban_area","min_zoom":6.0,"id":5439},"arcs":[[664],[665],[666],[667]]},{"type":"MultiLineString","properties":{"source":"naturalearthdata.com","kind":"highway","sort_rank":383,"kind_detail":"motorway","min_zoom":6.0,"id":5439},"arcs":[[668],[669],[670]]},{"type":"LineString","properties":{"source":"naturalearthdata.com","kind":"major_road","sort_rank":380,"kind_detail":"primary","min_zoom":6.0,"id":5458},"arcs":[671]},{"type":"LineString","properties":{"source":"naturalearthdata.com","kind":"major_road","sort_rank":379,"kind_detail":"secondary","min_zoom":6.0,"id":5459},"arcs":[672]},{"type":"LineString","properties":{"source":"naturalearthdata.com","kind":"major_road","kind_detail":"primary","sort_rank":380,"landuse_kind":"urban_area","min_zoom":6.0,"id":5511},"arcs":[673]},{"type":"LineString","properties":{"source":"naturalearthdata.com","kind":"major_road","sort_rank":380,"kind_detail":"primary","min_zoom":6.0,"id":5511},"arcs":[674]},{"type":"LineString","properties":{"source":"naturalearthdata.com","kind":"major_road","kind_detail":"primary","sort_rank":380,"landuse_kind":"urban_area","min_zoom":6.0,"id":5515},"arcs":[675]},{"type":"LineString","properties":{"source":"naturalearthdata.com","kind":"major_road","sort_rank":380,"kind_detail":"primary","min_zoom":6.0,"id":5515},"arcs":[676]},{"type":"LineString","properties":{"source":"naturalearthdata.com","kind":"major_road","sort_rank":380,"kind_detail":"primary","min_zoom":6.0,"id":5649},"arcs":[677]},{"type":"MultiLineString","properties":{"source":"naturalearthdata.com","kind":"major_road","kind_detail":"primary","sort_rank":380,"landuse_kind":"national_park","min_zoom":6.0,"id":5653},"arcs":[[678],[679]]},{"type":"LineString","properties":{"source":"naturalearthdata.com","kind":"major_road","kind_detail":"primary","sort_rank":380,"landuse_kind":"urban_area","min_zoom":6.0,"id":5653},"arcs":[680]},{"type":"MultiLineString","properties":{"source":"naturalearthdata.com","kind":"major_road","sort_rank":380,"kind_detail":"primary","min_zoom":6.0,"id":5653},"arcs":[[681],[682],[683],[684]]},{"type":"LineString","properties":{"source":"naturalearthdata.com","kind":"major_road","kind_detail":"primary","sort_rank":380,"landuse_kind":"urban_area","min_zoom":6.0,"id":5763},"arcs":[685]},{"type":"LineString","properties":{"source":"naturalearthdata.com","kind":"major_road","sort_rank":380,"kind_detail":"primary","min_zoom":6.0,"id":5763},"arcs":[686]},{"type":"LineString","properties":{"source":"naturalearthdata.com","kind":"major_road","kind_detail":"primary","sort_rank":380,"landuse_kind":"urban_area","min_zoom":6.0,"id":6021},"arcs":[687]},{"type":"LineString","properties":{"source":"naturalearthdata.com","kind":"major_road","sort_rank":380,"kind_detail":"primary","min_zoom":6.0,"id":6021},"arcs":[688]},{"type":"LineString","properties":{"source":"naturalearthdata.com","kind":"major_road","kind_detail":"primary","sort_rank":380,"landuse_kind":"urban_area","min_zoom":6.0,"id":6110},"arcs":[689]},{"type":"MultiLineString","properties":{"source":"naturalearthdata.com","kind":"major_road","sort_rank":380,"kind_detail":"primary","min_zoom":6.0,"id":6110},"arcs":[[690],[691]]},{"type":"LineString","properties":{"kind":"highway","network":"e-road","sort_rank":383,"kind_detail":"motorway","source":"naturalearthdata.com","min_zoom":3.0,"shield_text":"30","id":8083},"arcs":[692]},{"type":"LineString","properties":{"source":"naturalearthdata.com","kind":"major_road","sort_rank":379,"kind_detail":"secondary","min_zoom":6.0,"id":54407},"arcs":[693]},{"type":"LineString","properties":{"source":"naturalearthdata.com","kind":"major_road","kind_detail":"secondary","sort_rank":379,"landuse_kind":"park","min_zoom":6.0,"id":54408},"arcs":[694]},{"type":"MultiLineString","properties":{"source":"naturalearthdata.com","kind":"major_road","sort_rank":379,"kind_detail":"secondary","min_zoom":6.0,"id":54408},"arcs":[[695],[696]]},{"type":"LineString","properties":{"source":"naturalearthdata.com","kind":"major_road","kind_detail":"secondary","sort_rank":379,"landuse_kind":"park","min_zoom":6.0,"id":54413},"arcs":[697]},{"type":"MultiLineString","properties":{"source":"naturalearthdata.com","kind":"major_road","sort_rank":379,"kind_detail":"secondary","min_zoom":6.0,"id":54413},"arcs":[[698],[699]]},{"type":"LineString","properties":{"source":"naturalearthdata.com","kind":"major_road","kind_detail":"secondary","sort_rank":379,"landuse_kind":"park","min_zoom":6.0,"id":54459},"arcs":[700]},{"type":"LineString","properties":{"source":"naturalearthdata.com","kind":"major_road","kind_detail":"secondary","sort_rank":379,"landuse_kind":"urban_area","min_zoom":6.0,"id":54459},"arcs":[701]},{"type":"LineString","properties":{"source":"naturalearthdata.com","kind":"major_road","kind_detail":"secondary","sort_rank":379,"landuse_kind":"urban_area","min_zoom":6.0,"id":54459},"arcs":[702]},{"type":"MultiLineString","properties":{"source":"naturalearthdata.com","kind":"major_road","sort_rank":379,"kind_detail":"secondary","min_zoom":6.0,"id":54459},"arcs":[[703],[704],[705]]},{"type":"LineString","properties":{"source":"naturalearthdata.com","kind":"major_road","sort_rank":379,"kind_detail":"secondary","min_zoom":6.0,"id":54538},"arcs":[706]},{"type":"LineString","properties":{"source":"naturalearthdata.com","kind":"major_road","sort_rank":379,"kind_detail":"secondary","min_zoom":6.0,"id":54562},"arcs":[707]},{"type":"LineString","properties":{"source":"naturalearthdata.com","kind":"major_road","kind_detail":"secondary","sort_rank":379,"landuse_kind":"urban_area","min_zoom":6.0,"id":54567},"arcs":[708]},{"type":"LineString","properties":{"source":"naturalearthdata.com","kind":"major_road","sort_rank":379,"kind_detail":"secondary","min_zoom":6.0,"id":54567},"arcs":[709]},{"type":"LineString","properties":{"source":"naturalearthdata.com","kind":"major_road","kind_detail":"secondary","sort_rank":379,"landuse_kind":"urban_area","min_zoom":6.0,"id":54735},"arcs":[710]},{"type":"LineString","properties":{"source":"naturalearthdata.com","kind":"major_road","sort_rank":379,"kind_detail":"secondary","min_zoom":6.0,"id":54735},"arcs":[711]}]},"earth":{"type":"GeometryCollection","geometries":[{"type":"Polygon","properties":{"sort_rank":10,"source":"naturalearthdata.com","min_zoom":0.0,"kind":"earth","area":1568366174169},"arcs":[[712]]}]},"landuse":{"type":"GeometryCollection","geometries":[{"type":"MultiPolygon","properties":{"kind":"national_park","protect_class":"2","area":11221357067,"sort_rank":18,"source":"openstreetmap.org","min_zoom":3.0,"tier":1,"osm_relation":true},"arcs":[[[713],[714],[715],[716],[717],[718],[719],[720],[721]],[[722]],[[723]]]},{"type":"MultiPolygon","properties":{"source":"openstreetmap.org","kind":"nature_reserve","tier":2,"area":1261887178,"sort_rank":23,"min_zoom":6.0,"osm_relation":true},"arcs":[[[724]]]},{"type":"Polygon","properties":{"kind":"protected_area","protect_class":"4","area":657926976,"sort_rank":17,"source":"openstreetmap.org","min_zoom":6.0,"tier":2,"id":132054126},"arcs":[[725]]},{"type":"MultiPolygon","properties":{"kind":"nature_reserve","protect_class":"5","area":5760602442,"sort_rank":23,"source":"openstreetmap.org","min_zoom":6.0,"tier":2,"osm_relation":true},"arcs":[[[726]]]},{"type":"MultiPolygon","properties":{"kind":"nature_reserve","tier":2,"protect_class":"2","area":8197819164,"sort_rank":23,"source":"openstreetmap.org","min_zoom":4.0,"operator":"\u0423\u043f\u0440\u0430\u0432\u043b\u0435\u043d\u0438\u0435 \u0434\u0435\u043b\u0430\u043c\u0438 \u041f\u0440\u0435\u0437\u0438\u0434\u0435\u043d\u0442\u0430 \u0420\u0411","osm_relation":true},"arcs":[[[727]]]},{"type":"MultiPolygon","properties":{"source":"openstreetmap.org","kind":"park","tier":2,"area":1903216840,"sort_rank":24,"min_zoom":6.0,"osm_relation":true},"arcs":[[[728],[729]],[[730]],[[731]]]},{"type":"Polygon","properties":{"kind":"nature_reserve","protect_class":"4","area":2308400128,"sort_rank":23,"source":"openstreetmap.org","min_zoom":4.0,"tier":2,"id":-6451322,"osm_relation":true},"arcs":[[732]]},{"type":"MultiPolygon","properties":{"kind":"park","protect_class":"4","area":3474324518,"sort_rank":24,"source":"openstreetmap.org","min_zoom":6.0,"tier":2,"osm_relation":true},"arcs":[[[733]],[[734]],[[735]],[[736]],[[737]],[[738]],[[739]],[[740]],[[741]],[[742]]]},{"type":"Polygon","properties":{"kind":"protected_area","protect_class":"1","area":153448992,"sort_rank":17,"source":"openstreetmap.org","min_zoom":6.0,"tier":2,"id":-7371723,"osm_relation":true},"arcs":[[743]]},{"type":"MultiPolygon","properties":{"source":"naturalearthdata.com","kind":"urban_area","name":"","area":13828623237,"sort_rank":11,"min_zoom":4.0},"arcs":[[[744]],[[745]],[[746]],[[747]],[[748]],[[749]],[[750]],[[751]],[[752]],[[753]],[[754]],[[755]],[[756]],[[757]],[[758]],[[759]],[[760]],[[761]],[[762]],[[763]],[[764]],[[765]],[[766]],[[767]],[[768]],[[769]]]},{"type":"Polygon","properties":{"kind":"nature_reserve","protect_class":"1","area":2506360064,"sort_rank":23,"operator":"\u0413\u043e\u0441\u0443\u0434\u0430\u0440\u0441\u0442\u0432\u0435\u043d\u043d\u043e\u0435 \u043f\u0440\u0438\u0440\u043e\u0434\u043e\u043e\u0445\u0440\u0430\u043d\u043d\u043e\u0435 \u0443\u0447\u0440\u0435\u0436\u0434\u0435\u043d\u0438\u0435 \u00ab\u0411\u0435\u0440\u0435\u0437\u0438\u043d\u0441\u043a\u0438\u0439 \u0431\u0438\u043e\u0441\u0444\u0435\u0440\u043d\u044b\u0439 \u0437\u0430\u043f\u043e\u0432\u0435\u0434\u043d\u0438\u043a\u00bb","source":"openstreetmap.org","min_zoom":4.0,"tier":2,"id":-3400208,"osm_relation":true},"arcs":[[770]]},{"type":"Polygon","properties":{"kind":"protected_area","area":542609024,"sort_rank":17,"source":"openstreetmap.org","min_zoom":6.0,"tier":2,"id":-2888043,"osm_relation":true},"arcs":[[771]]},{"type":"MultiPolygon","properties":{"kind":"national_park","protect_class":"2","area":1668533046,"sort_rank":18,"source":"openstreetmap.org","min_zoom":5.0,"tier":1,"osm_relation":true},"arcs":[[[772]],[[773]],[[774]]]},{"type":"MultiPolygon","properties":{"source":"openstreetmap.org","kind":"nature_reserve","tier":2,"protect_class":"4","area":979868491,"sort_rank":23,"min_zoom":6.0},"arcs":[[[775]]]},{"type":"Polygon","properties":{"kind":"park","protect_class":"4","area":1693200000,"sort_rank":24,"source":"openstreetmap.org","min_zoom":4.0,"tier":2,"id":-5968596,"osm_relation":true},"arcs":[[776]]},{"type":"MultiPolygon","properties":{"source":"openstreetmap.org","kind":"park","tier":2,"area":5812441275,"sort_rank":24,"min_zoom":4.0,"osm_relation":true},"arcs":[[[777]],[[778]]]}]}},"type":"Topology","transform":{"translate":[22.5,52.4827802221],"scale":[0.001373291,0.0008041486]},"arcs":[[[3203,4096],[-41,-71],[-14,-17],[-58,-29],[-17,-1]],[[3073,3978],[-39,15],[-19,2]],[[3015,3995],[-18,-9],[-15,-26]],[[144,2313],[-136,7],[-8,1]],[[195,2330],[-51,-17]],[[2944,3513],[-13,0],[-43,16],[-12,8],[-3,13],[7,23],[17,32],[6,11],[9,47],[6,13],[26,26],[3,14],[-14,26],[3,30],[14,23],[18,20],[14,22],[7,27],[2,33],[-3,33],[-6,30]],[[2970,3278],[16,3],[11,18],[9,36],[4,34],[5,14],[12,15],[21,20],[11,7],[28,7],[19,5],[18,13],[8,20],[-7,21],[-17,13],[-121,20]],[[2987,3524],[-43,-11]],[[2893,3311],[77,-33]],[[2855,3290],[6,0],[7,2],[4,5],[5,7],[6,6],[10,1]],[[2774,3310],[81,-20]],[[2535,3059],[88,18],[27,15],[10,12],[13,18],[12,19],[27,58],[4,10],[1,15],[-1,31],[2,14],[23,36],[33,5]],[[2482,3066],[13,-1],[26,-6],[14,0]],[[2231,2264],[-16,6],[-10,16],[1,31],[14,27],[33,40],[14,27],[2,24],[0,26],[3,33],[8,25],[11,15],[45,26],[13,14],[11,20],[3,24],[-4,24],[-18,45],[-5,24],[1,16],[3,12],[4,12],[3,13],[1,13],[-2,63],[2,17],[8,11],[15,14],[8,4],[5,0],[3,2],[4,11],[-1,10],[-6,25],[-1,11],[7,23],[15,15],[17,13],[15,18],[5,12],[1,12],[3,9],[8,7],[28,12]],[[2347,2236],[-3,1],[-3,4],[-7,23],[-3,12],[-4,10],[-10,6]],[[2317,2292],[-11,-3],[-43,-23],[-32,-2]],[[2155,2258],[9,-2],[5,-4],[4,-7],[51,-71],[-6,-4]],[[2030,2192],[60,3],[17,12],[30,43],[18,8]],[[2351,2067],[8,2],[17,12],[6,20],[1,57],[2,5],[8,12],[2,5],[-2,8],[-3,3],[-4,1],[-3,4],[-5,14],[-6,11],[-6,9],[-7,8],[-4,1]],[[2355,2239],[-8,-3]],[[1984,2208],[46,-16]],[[1840,2046],[33,5],[32,21],[29,33],[12,26],[15,59],[10,16],[13,2]],[[2218,2170],[-17,1]],[[2201,2171],[-15,-8],[-2,-13],[18,-9],[4,-11],[-6,-9],[-20,-7],[-6,-9],[6,-22],[16,-16],[20,-10],[64,-11]],[[1749,2073],[34,-5],[57,-22]],[[1619,1841],[48,8],[12,7],[10,21],[0,1],[1,33],[-6,24],[-10,21],[-9,27],[-3,19],[1,4],[5,1],[6,8],[14,9],[0,4],[0,9],[0,9],[3,8],[21,13],[4,2],[33,4]],[[2323,2071],[28,-4]],[[2280,2046],[16,1],[8,4],[11,16],[8,4]],[[1581,1880],[2,-1],[3,-2],[9,-24],[11,-11],[13,-1]],[[1367,1746],[27,14],[83,75],[37,21],[46,10],[18,13],[3,1]],[[1216,1836],[23,-8],[20,-25],[13,-36],[7,-12],[15,-3]],[[1079,1800],[46,1],[22,6],[45,24],[24,5]],[[1034,1822],[11,-5],[22,-14],[12,-3]],[[962,1786],[5,1],[56,33],[11,2]],[[718,1811],[25,-6],[65,-40],[13,-5]],[[937,1797],[5,-1],[13,-8],[7,-2]],[[821,1760],[11,1],[36,16],[45,6],[13,10],[11,4]],[[1318,1753],[23,-7],[26,0]],[[1294,1752],[24,1]],[[2728,4096],[24,-41],[46,-34],[101,-47],[41,-11],[42,-3]],[[313,2360],[-8,1],[-44,22],[-15,2]],[[246,2385],[-18,-8],[-1,-2],[-19,-34],[-13,-11]],[[401,2253],[-14,19],[1,13],[4,14],[2,12],[-4,7],[-25,3],[-8,5],[-5,8],[-3,10],[-4,10],[-8,7],[-8,2]],[[329,2363],[-16,-3]],[[718,1811],[3,8],[0,6],[-2,7],[-4,5],[-8,7],[-6,9],[-3,11],[1,13],[3,6],[4,5],[9,7],[11,19],[-1,28],[-10,58],[-6,27],[-8,28],[-10,24],[-12,18],[-7,4],[-15,5],[-8,5],[-7,9],[-13,26],[-7,11],[-13,11],[-15,13],[-58,22],[-28,17],[-45,38],[-14,6]],[[449,2264],[-14,-3],[-18,-8],[-16,0]],[[30,3225],[18,-10],[4,-5],[7,-8],[8,-25],[12,-56],[10,-28],[8,-15],[12,-6]],[[0,3216],[30,9]],[[150,3072],[7,-2],[5,-5],[5,-9],[7,-8],[10,-3],[-9,-17],[6,-10],[44,-20],[9,-10],[6,-16],[11,-50],[3,-23],[-2,-22],[-10,-22],[-11,-12],[-22,-16],[-10,-17],[-6,-7],[-13,-6],[-8,-7],[-6,-2],[-2,-2],[-2,-6],[2,-6],[2,-5],[-1,-5],[-16,-24],[-3,-8],[0,-13],[5,-28],[1,-14],[-4,-22],[-16,-60],[-5,-96],[4,-49],[20,-43],[44,-77]],[[109,3072],[41,0]],[[775,1566],[-17,27],[-8,25],[-7,66],[-7,32],[-10,28],[-7,31],[-1,36]],[[629,0],[21,33],[64,56],[64,39],[122,36],[97,69],[29,37],[10,53],[-2,37],[-6,151],[-2,10],[-3,6],[-2,7],[-1,14],[2,10],[8,16],[3,8],[-1,10],[-6,35],[0,8],[2,14],[-2,10],[-8,18],[-22,30],[-6,21],[1,24],[7,17],[9,15],[6,18],[2,30],[-8,15],[-12,10],[-13,15],[-9,19],[-6,18],[-7,18],[-13,18],[-13,35],[-29,118],[-14,39],[-35,73],[-62,193],[-17,87],[-2,76]],[[775,1566]],[[2404,4093],[5,2],[0,1]],[[2387,4096],[4,-1],[13,-2]],[[2321,4038],[27,31],[6,8],[10,19]],[[2096,4093],[14,-13],[3,-9],[6,-13],[4,-6],[5,-3]],[[2030,4018],[4,3],[1,9],[-4,18],[5,9],[5,6],[55,30]],[[2153,4062],[6,-5],[3,-6],[14,-20]],[[2128,4049],[4,1],[8,8],[6,4],[7,0]],[[2305,4058],[9,-2],[3,-3],[2,-4],[1,-4],[1,-7]],[[2176,4031],[30,15],[11,7],[10,3],[78,2]],[[1788,4047],[45,-3],[3,-1],[11,-8],[2,-3],[6,-9],[4,-5],[11,-9],[2,-5],[-2,-11],[1,-4],[7,-3]],[[1742,4033],[10,2],[14,7],[22,5]],[[1719,4035],[23,-2]],[[1698,4018],[6,4],[2,4],[3,5],[3,3],[7,1]],[[1670,4027],[21,-8],[7,-1]],[[1642,4020],[8,2],[11,4],[9,1]],[[1594,4027],[48,-7]],[[1597,3949],[8,2],[6,6],[4,9],[-1,5],[-3,8],[-15,11],[-4,6],[2,10],[1,5],[-1,16]],[[2007,4024],[16,-5],[7,-1]],[[1878,3986],[10,1],[21,4],[84,32],[6,1],[8,0]],[[1579,3960],[5,-2],[5,-6],[8,-3]],[[1551,3780],[15,23],[0,8],[-3,5],[-1,4],[-1,5],[0,21],[2,11],[5,11],[8,7],[13,11],[3,6],[-1,8],[-4,16],[-8,10],[-8,8],[-10,6],[-7,5],[-2,5],[5,5],[22,5]],[[995,3838],[15,0],[5,-2],[6,-3],[4,-8],[2,-9],[3,-22],[3,-10],[8,-8],[10,-4]],[[1077,3778],[9,-3],[14,-13],[8,-10],[21,-21],[4,-9],[0,-11],[-1,-10],[-5,-19],[1,-7],[3,-3]],[[1051,3772],[14,1],[6,5],[6,0]],[[1245,3717],[6,-2],[9,-11],[7,-10],[8,-8],[16,-4]],[[1180,3688],[14,4],[36,17],[7,6],[8,2]],[[1313,3698],[34,-18],[10,-8],[9,-11],[9,-22],[20,-20]],[[1291,3682],[10,0],[5,4],[0,6],[2,6],[5,0]],[[1168,3691],[12,-3]],[[1131,3672],[8,3],[13,12],[7,3],[9,1]],[[1395,3619],[-11,-37],[-3,-7],[-3,-12],[1,-12],[-2,-12],[-2,-15],[5,-14],[14,-23],[6,-44],[6,-11],[9,-7],[29,-10],[9,-7],[1,-4],[-5,-3],[-7,-2],[-5,-5],[-2,-9],[2,-18],[5,-12],[7,-9],[7,-5],[12,-9],[6,-6],[1,-7],[0,-9],[0,-16],[8,-14],[9,-5]],[[1515,3282],[7,-1],[3,-5],[10,-33],[22,-11],[8,-13],[2,-13],[0,-6],[-2,-6],[-4,-5],[-6,-5],[-13,-7],[-4,-3],[-4,-5],[-4,-3],[-9,-6],[-4,-3],[-2,-4],[-5,-7],[-4,-11],[-14,-20],[6,-3],[10,-11],[37,-19],[39,-36],[14,-5],[31,-3],[13,-5],[13,-10],[16,-21],[4,-8],[-21,-16],[-13,-26],[-10,-10],[-48,-26],[-8,-7],[-5,-7],[-2,-7],[-5,-24],[-2,-5],[-5,-11],[-3,-9],[-3,-12],[-1,-11],[0,-13],[-2,-14],[-5,-6],[-8,-2]],[[1492,3275],[8,0],[15,7]],[[1534,2788],[-27,6],[-8,1]],[[1499,2795],[-4,-5],[-9,-14],[-30,-9],[-13,-8],[-6,-10],[-1,-12],[2,-9],[3,-11],[1,-9],[1,-6],[-2,-15],[11,-12],[1,-5],[0,-7],[-2,-7],[-2,-12],[-4,-7],[-5,-5],[-7,-1]],[[1433,2631],[-7,1],[-5,3]],[[1421,2635],[-7,-1],[-4,-8],[-2,-11],[-2,-27],[-3,-9],[-2,-6],[-8,-10]],[[1537,3728],[12,2],[4,5],[0,6],[-6,6],[-13,9],[-4,7],[0,6],[4,5],[3,2],[14,4]],[[1503,3740],[9,-2],[16,-8],[9,-2]],[[1432,3632],[7,4],[26,27],[9,14],[4,11],[5,22],[5,12],[8,14],[7,4]],[[1421,3636],[6,0],[5,-4]],[[1395,3619],[20,16],[6,1]],[[1551,3780],[101,-74],[18,-20],[5,-11],[-1,-7],[-3,-4],[-11,-6],[-4,-6],[-3,-7],[-1,-8],[1,-7],[3,-8],[3,-8],[5,-8],[9,-7],[11,-4],[36,-1],[7,-2],[4,-7],[-1,-8],[-1,-8],[3,-5],[6,-1]],[[1787,3581],[3,-3],[4,-8],[0,-10],[0,-10],[-1,-9],[1,-6],[7,-3],[6,-2]],[[1738,3563],[15,4],[29,14],[5,0]],[[2355,3537],[32,-20],[27,-8]],[[2343,3197],[10,1],[3,3],[-3,7],[-2,9],[2,10],[14,12],[6,7],[2,5],[-2,3],[-5,4],[-1,6],[3,7],[17,14],[2,8],[-4,5],[-7,3],[-7,4],[-6,4],[-13,8],[-8,6],[-12,14],[-4,8],[-4,7],[-22,19],[-11,14],[-3,9],[-3,10],[2,19],[3,9],[4,7],[20,13],[22,25],[5,10],[14,50]],[[1863,3535],[-2,-25],[3,-6],[7,-6],[20,-16],[9,-13],[7,-3]],[[1807,3530],[56,5]],[[2441,3524],[9,-11],[7,-14],[7,-6],[8,-2]],[[2414,3509],[27,15]],[[2624,3522],[10,-2],[19,-9],[10,-9],[5,-9],[-1,-8],[-5,-9],[-5,-12],[-1,-12],[5,-12],[9,-6]],[[2518,3472],[13,3],[10,5],[7,6],[4,5],[2,5],[5,10],[3,5],[5,5],[4,2],[5,2],[2,1],[46,1]],[[2493,3496],[5,-1],[6,-6],[1,-5],[2,-5],[3,-5],[8,-2]],[[2472,3491],[21,5]],[[3043,3475],[10,0],[10,-5],[7,-5],[15,-28],[2,-4],[0,-1]],[[2881,3410],[81,23],[36,22],[5,6],[7,4],[33,10]],[[1933,3472],[11,-3],[5,-5],[0,-7],[-2,-8],[-4,-8],[-11,-13],[-4,-8],[3,-15],[5,-5],[7,-1]],[[1907,3466],[7,1],[9,3],[10,2]],[[2706,3445],[14,-6],[26,-16],[36,-8],[99,-5]],[[2670,3434],[13,3],[7,5],[7,3],[9,0]],[[1950,3401],[9,0],[35,-21],[10,-7],[-1,-6],[-6,-3],[-9,-3],[-6,-3],[-8,-10],[-13,-8],[-11,-9],[-6,-4],[-25,-10],[2,-25],[-5,-19],[-4,-14],[2,-7],[5,-4],[30,-7],[10,-6],[13,-9],[4,-10],[2,-6],[4,-28],[35,-1],[46,-16],[12,-1]],[[1943,3399],[7,2]],[[2270,3218],[23,0],[2,-5],[2,-5],[6,-3],[40,-8]],[[2075,3164],[11,1],[9,5],[99,31],[76,17]],[[1328,2555],[-10,2],[-13,6],[-7,9],[-15,10],[-12,2]],[[1271,2584],[-14,-2],[-15,-6],[-80,-16]],[[1162,2560],[-6,1],[-7,3],[-6,3],[-15,4],[-14,1]],[[1114,2572],[-17,-6],[-5,-3],[-4,-4],[-3,-3],[-2,-4],[-1,-4],[0,-5],[0,-4],[2,-4],[1,-3],[2,-3],[5,-5],[2,-3],[1,-3],[0,-4],[-1,-3],[-3,-2],[-43,-17],[-25,-20],[-19,-11],[-10,-3]],[[1393,2563],[-65,-8]],[[922,2463],[-7,8]],[[994,2458],[-4,0],[2,4],[-2,4]],[[990,2466],[-68,-3]],[[1393,2563],[7,-28],[-2,-8],[0,-12],[-4,-4],[-2,-3],[1,-3],[13,-14],[3,-9],[-3,-19],[-3,-10],[-1,-10],[3,-9],[15,-9],[64,-9]],[[1818,2448],[1,-57],[-1,-5],[-2,-9],[-14,-6],[-19,-5],[-7,-4],[-4,-3],[-2,-6],[-3,-18],[-4,-37],[-5,-19],[-27,-34],[-78,-78],[-2,-12],[3,-10],[7,-6],[18,-9],[7,-4],[4,-7],[4,-8],[5,-18],[13,-26]],[[1680,2397],[7,1],[34,25],[60,22],[37,3]],[[1570,2446],[20,-4],[21,-9],[5,-5],[2,-7],[-1,-7],[-2,-8],[1,-8],[5,-6],[8,-1]],[[1484,2416],[12,1],[25,7],[9,7],[17,7],[13,8],[10,0]],[[1656,2403],[14,-3],[10,-3]],[[1629,2391],[6,2],[12,8],[9,2]],[[733,3191],[-16,2],[-38,31],[-15,4]],[[718,3111],[6,0],[6,2],[4,4],[4,6],[9,15],[4,7],[3,3],[4,2],[5,1],[9,0],[6,2],[5,5],[0,11],[-4,11],[-14,13],[-16,1]],[[749,3194],[-16,-3]],[[686,3114],[32,-3]],[[724,3001],[-16,51],[-7,9],[-8,8],[-35,9],[-3,7],[1,7],[4,7],[5,6],[6,4],[7,4],[8,1]],[[819,2853],[-6,1],[-2,4],[1,6],[8,10],[3,7],[3,6],[1,4],[9,4],[-3,13],[-2,6],[-4,10],[-3,14],[1,7],[1,8],[0,7],[-2,7],[-5,8],[-16,16],[-20,15],[-13,7],[-11,1]],[[759,3014],[-17,-9],[-18,-4]],[[894,2564],[-8,2],[-8,6],[-9,12],[-16,13],[-5,6],[-1,7],[4,9],[6,7],[6,7],[0,7],[-6,8],[-21,8],[-3,4],[-3,4],[-4,3],[-5,2],[-3,4],[0,5],[5,6],[8,4],[18,6],[7,5],[4,11],[1,12],[-14,58],[2,15],[0,10],[-4,8],[-3,4],[-4,6],[-2,8],[1,13],[-6,7],[-5,2]],[[826,2853],[-7,0]],[[915,2471],[4,10],[4,7],[6,8],[2,9],[-1,13],[-13,37],[-5,8],[-5,2]],[[907,2565],[-13,-1]],[[597,3219],[-232,42]],[[365,3261],[-22,-6],[-14,-6],[-9,-8],[-10,-7]],[[310,3234],[-40,11]],[[270,3245],[-37,-5],[-36,-12],[-8,-6],[-22,-10],[-62,-11]],[[664,3228],[-67,-9]],[[105,3201],[-9,1],[-5,1],[-13,10],[-6,6]],[[72,3219],[-20,-9]],[[915,2471],[-38,10],[-13,14],[-6,10],[-12,13],[-8,2]],[[838,2520],[-7,-2],[-61,-49],[-6,-6],[-5,-10],[-2,-11],[0,-9],[2,-14],[0,-4],[-1,-8],[-55,-21],[-7,-7],[-6,-8],[4,-5],[9,-6],[1,-4],[-1,-6],[-6,-4],[-23,-4],[-18,-7],[-10,-9],[-13,-16],[-8,-21],[-2,-11],[-6,-13],[-2,-9],[0,-9],[2,-8],[1,-8],[-7,-40],[-2,-23]],[[0,3999],[4,4],[1,10],[-5,20],[0,4]],[[0,4050],[0,4],[3,12],[2,17],[-3,11],[-1,2]],[[548,3804],[-7,4],[-5,8],[-6,20],[-4,6],[-5,4],[-13,3],[-15,1]],[[493,3850],[-46,-6],[-15,-11],[-13,-21],[-3,-9],[-4,-8],[-6,-6],[-27,-18],[-112,-43]],[[995,3838],[-99,-48],[-33,-23],[-14,-14],[-7,-9],[-11,-21],[-5,-3]],[[708,3774],[-12,0],[-24,7],[-16,9],[-55,46]],[[601,3836],[-37,-22],[-7,-6],[-9,-4]],[[826,3720],[-6,3],[-12,7],[-21,1],[-8,20],[1,6],[4,9],[4,7],[4,10],[-1,5],[-4,3],[-14,4],[-9,10],[-8,4],[-6,1]],[[750,3810],[-5,-2],[-3,-2],[-3,-4],[-4,-3],[-5,-2],[-8,-1],[-3,-3],[-1,-3],[-1,-8],[-1,-5],[-8,-3]],[[267,3728],[-19,5],[-5,5],[-2,7],[-2,10],[-5,5],[-9,3]],[[225,3763],[-54,-8],[-42,-16],[-23,-19]],[[1084,3922],[7,0],[5,7],[0,10],[-10,38],[1,14],[6,6],[8,5],[7,8],[4,9],[-1,18],[0,11],[-3,31],[-4,7],[-8,10]],[[1077,3922],[7,0]],[[1054,3909],[7,3],[10,9],[6,1]],[[1038,3910],[16,-1]],[[995,3838],[7,15],[3,5],[9,11],[11,21],[6,16],[7,4]],[[0,3927],[0,-1]],[[0,3888],[2,-4],[5,-10],[10,-9],[33,-20],[8,-9],[28,-40],[7,-5],[5,-5],[2,-5],[-16,-23],[4,-29],[18,-9]],[[185,3616],[-5,1],[-15,13],[-1,13],[2,11],[-2,8],[-3,4],[-16,3],[-14,10],[-9,10],[-16,31]],[[268,3495],[-4,2],[-3,5],[-1,8],[-2,7],[-14,15],[-14,11],[-7,9],[-4,9],[0,9],[3,18],[0,11],[-1,9],[-5,10],[-5,3]],[[211,3621],[-5,0],[-12,-5],[-9,0]],[[389,3455],[-18,0],[-8,5],[-2,7],[4,8],[10,11],[1,5],[-2,5],[-50,38],[-9,10],[-4,3],[-4,0]],[[307,3547],[-1,-2],[0,-4],[0,-4],[1,-4],[-2,-4],[-3,-2],[-3,-2],[-2,-2],[-2,-4],[-2,-4],[-4,-3],[-4,-2],[-2,-2],[-3,-5],[-4,-4],[-8,-4]],[[573,3430],[-46,0],[-14,5],[-4,5],[-3,15],[-4,9],[-12,9],[-7,3]],[[483,3476],[-6,0],[-4,-4],[-5,-3],[-8,-2],[-13,-2]],[[447,3465],[-10,4],[-8,1]],[[429,3470],[-6,-2],[-3,-2],[-6,-5],[-4,-2],[-21,-4]],[[638,3409],[-7,1],[-5,5],[-4,8],[-12,10],[-8,3]],[[602,3436],[-29,-6]],[[664,3228],[8,39],[12,22],[10,13],[2,9],[0,12],[-1,13],[-1,23],[1,12],[4,10],[13,17],[-15,17],[-18,3]],[[679,3418],[-41,-9]],[[2751,3042],[-6,2],[-5,5],[-7,14],[-3,23],[-1,7],[-6,6],[-4,3],[-44,17],[-2,3]],[[2802,3060],[-11,7]],[[2791,3067],[-8,-1],[-6,-3],[-16,-16],[-5,-3],[-5,-2]],[[3354,3133],[7,-1],[52,-14]],[[3265,3066],[55,3],[8,3],[4,2],[2,3],[1,5],[-1,4],[0,5],[-4,13],[-1,4],[0,4],[2,3],[23,18]],[[3453,3127],[6,-1],[6,-3],[10,-9],[4,-6],[3,-6],[-1,-4],[-2,-4],[-19,-28],[-1,-4],[0,-3],[2,-4],[19,-15],[6,-6],[14,-21],[3,-8],[1,-4],[2,-4],[0,-5],[1,-10],[0,-4],[2,-4],[4,-3],[15,-1]],[[3413,3118],[40,9]],[[2828,3109],[7,-3],[27,-14],[16,-6],[20,-3]],[[2802,3060],[8,5],[2,3],[3,4],[0,3],[-1,4],[-1,4],[-1,6],[1,6],[2,6],[3,4],[5,3],[5,1]],[[3202,3100],[5,-2],[6,-3],[9,-13],[5,-8],[4,-3],[5,-2],[29,-3]],[[3080,3061],[8,1],[9,4],[23,18],[8,3],[74,13]],[[3021,3095],[22,-2],[7,-2],[6,-3],[8,-9],[4,-6],[4,-8],[3,-3],[5,-1]],[[2965,3071],[10,0],[8,3],[6,5],[4,5],[3,7],[2,1],[7,2],[16,1]],[[2938,3086],[7,-3],[7,-6],[6,-4],[7,-2]],[[2898,3083],[40,3]],[[3567,2974],[6,-1],[6,-3],[6,-6],[7,-10],[4,-8],[2,-3],[57,-47],[3,-3],[1,-4],[0,-5],[-1,-5],[-4,-15],[0,-5],[1,-5],[6,-3],[70,-12],[38,-24],[8,-7],[4,-7],[-1,-4],[0,-5],[-3,-10],[-3,-9],[-4,-8],[1,-6],[4,-7],[11,-12],[2,-7],[1,-5],[3,-7],[6,-7],[18,-15],[5,-7],[2,-6],[5,-5],[41,-12],[13,-1]],[[3528,2970],[39,4]],[[4068,2665],[6,1],[5,3],[3,3],[14,10]],[[3913,2691],[5,-1],[9,-4],[4,-3],[2,-5],[1,-6],[0,-10],[0,-5],[2,-4],[3,-3]],[[3882,2668],[8,1],[3,3],[13,17],[3,2],[4,0]],[[4030,2675],[4,-1],[34,-9]],[[3939,2650],[11,1],[80,24]],[[2802,3060],[-6,-7],[-13,-7],[-3,-2],[-1,-4],[1,-5],[9,-16],[5,-14],[1,-11],[-1,-25],[0,-8],[5,-11],[5,-7],[7,-8],[8,-7],[8,-5],[9,-4],[7,-2],[11,-1],[4,-3],[16,-19],[39,-59],[4,-4],[5,-3],[15,-6],[4,-3],[2,-3],[2,-7],[0,-9],[-3,-18],[-1,-8],[2,-9],[2,-7],[10,-19],[6,-17],[4,-7],[3,-5],[3,-6],[2,-7],[2,-10],[3,-6],[4,-3],[14,-5],[12,-8],[5,-1]],[[3040,2675],[2,-5],[-1,-9],[-2,-21],[1,-14],[3,-8],[3,-5],[0,-6],[-5,-6],[-4,-2]],[[3013,2664],[6,2],[18,9],[3,0]],[[3037,2599],[-5,0],[-4,1],[-4,0]],[[3024,2600],[-3,-3],[-2,-7],[0,-33],[-2,-7],[-4,-3]],[[3013,2547],[-4,0],[-6,3],[-22,15],[-3,1]],[[2978,2566],[-2,-1],[-1,-2],[0,-3],[3,-10],[1,-4],[0,-12],[2,-7],[3,-7],[7,-11],[3,-9],[2,-12],[-1,-19],[-2,-13],[-5,-8],[-3,-4],[-14,-10],[-2,-3],[-2,-4],[-9,-30],[-45,-119],[-14,-30],[-9,-15],[-28,-29],[-8,-11],[-2,-2],[-4,-3],[-3,-1],[-81,-16]],[[2764,2171],[-35,7]],[[2729,2178],[-10,0],[-13,-4],[-42,-38],[-3,-2],[-5,-1],[-4,0]],[[2652,2133],[-21,2]],[[2631,2135],[-4,-1],[-2,-3],[-2,-4],[-12,-36],[-7,-30],[0,-5],[1,-4],[4,-4],[4,-3],[21,-9],[3,-1]],[[2653,2063],[4,-1],[16,-8],[3,-3],[3,-3],[-1,-8],[-4,-18],[-2,-42],[0,-10],[2,-8],[3,-9],[8,-15],[6,-6],[6,-2]],[[2637,2035],[3,2],[2,3],[4,14],[2,5],[2,2],[3,2]],[[2759,1962],[33,-4],[4,-2],[3,-9],[8,-39],[5,-10],[5,-5],[43,-2],[4,-6],[1,-11],[-4,-29],[-3,-11],[-4,-7],[-26,-6],[-4,-2],[-3,-3],[-2,-3],[-4,-9],[-8,-22],[-3,-8],[-5,-7],[-2,-4],[-6,-5],[-7,-4],[-8,-4],[-49,-15],[-14,-9],[-3,-2],[-2,-4],[-2,-6],[-1,-9],[0,-23],[1,-7],[4,-6],[9,-6],[50,-21],[3,-3],[2,-3],[-1,-7],[-2,-5],[-3,-4],[-2,-4],[-3,-2],[-4,-2]],[[2697,1930],[46,7],[4,1],[3,3],[1,4],[1,5],[-1,8],[4,3],[4,1]],[[2759,1612],[-15,0]],[[2744,1612],[-5,0],[-3,-6],[-1,-9],[0,-19],[-2,-17],[0,-5],[4,-7],[3,-4],[5,-7],[10,-7],[8,-4],[25,-4],[4,-2],[3,-2],[1,-5],[1,-7],[-1,-13],[0,-10],[1,-8],[4,-9],[3,-5],[5,-3],[46,-14],[30,-17],[3,-3],[2,-3],[4,-8],[1,-5],[2,-5],[2,-22],[1,-4],[3,-8],[11,-18],[4,-6],[5,-15],[-1,-8],[-2,-11],[-10,-22],[-3,-13],[1,-8],[3,-2],[3,0]],[[2934,1270],[4,0],[3,-2],[3,-1],[1,-2],[1,-1],[1,-3],[1,-5],[0,-7],[0,-6],[-5,-40],[0,-10],[2,-9],[2,-9],[3,-8],[3,-8],[4,-6],[5,-6],[-6,-5],[-133,-45]],[[2914,1267],[3,0],[17,3]],[[2424,1124],[-5,1],[-9,8],[-4,2],[-5,1]],[[2401,1136],[-6,0],[-23,-6],[-8,0]],[[2364,1130],[-6,1],[-4,2],[-9,1]],[[2345,1134],[-5,-2],[-6,-5],[-9,-10],[-4,-6],[-3,-6],[-1,-4],[-4,-8],[-21,-37],[-3,-8],[0,-3],[-2,-8],[-4,-37],[-1,-5],[-1,-4],[-4,-3],[-5,-3],[-22,-2],[-4,-3],[-5,-7],[-2,-6],[-4,-20],[0,-5],[2,-3],[2,-3],[14,-9],[3,-3],[2,-4],[1,-4],[0,-5],[-1,-5],[-4,-5],[-5,-5],[-13,-9],[-15,-15],[-3,-4],[-2,-4],[0,-5],[1,-4],[4,-2],[14,-3],[4,-2],[3,-3],[8,-9],[2,-4],[3,-7],[2,-4],[1,-5],[0,-4],[0,-6],[-1,-5],[-6,-17],[-23,-46],[-18,-54],[-2,-4],[-5,-6],[-38,-23],[-3,-3],[-5,-5],[-7,-12],[-8,-15],[-5,-6],[-8,-10],[-2,-3],[-2,-4],[-1,-5],[0,-5],[-3,-5],[-6,-7],[-18,-8],[-11,-3]],[[2577,1102],[-103,9],[-4,2],[-3,2],[-3,3],[-2,3],[-3,3],[-3,3],[-6,1]],[[2450,1128],[-7,-1],[-12,-3],[-7,0]],[[2747,1079],[-4,2],[-15,8],[-18,5],[-63,4],[-38,10]],[[2609,1108],[-17,-1],[-15,-5]],[[2823,1097],[-56,-16],[-20,-2]],[[1832,505],[-9,1],[-30,13],[-3,2],[-1,3],[0,4],[2,9],[1,5],[0,4],[0,5],[-1,4],[-2,9],[-3,8],[-4,7],[-2,4],[-5,6],[-6,5],[-8,4],[-19,4]],[[1742,602],[-5,0],[-6,-3],[-6,-7],[-4,-6],[-5,-14],[-1,-4],[-3,-3],[-5,-3],[-7,-2],[-24,0]],[[1676,560],[-39,9],[-45,24]],[[1592,593],[-7,-1],[-10,-3],[-36,-21],[-3,-3],[-2,-3],[-1,-4],[1,-4],[3,-2],[4,-2],[20,-3],[4,-2],[2,-3],[1,-4],[0,-5],[-1,-5],[-5,-5],[-8,-5],[-16,-10],[-8,-5],[-5,-5],[-2,-4],[-15,-18],[-2,-3],[1,-4],[2,-3],[8,-9],[1,-4],[2,-4],[0,-4],[0,-5],[-2,-3],[-16,-13],[-2,-3],[-2,-4],[-6,-17],[-6,-11],[0,-4],[1,-4],[6,-10],[3,-8],[2,-9],[1,-10],[-1,-5],[-1,-4],[-1,-3],[-1,-2],[-4,-3],[-5,-3],[-16,-5],[-18,-1]],[[2086,560],[-15,1],[-6,3],[-7,1]],[[2058,565],[-5,-1],[-10,-7],[-4,-6],[-2,-6],[0,-5],[1,-5],[2,-3],[2,-4],[11,-11],[2,-3],[0,-4],[-2,-3],[-6,-5],[-2,-3],[-2,-4],[0,-4],[1,-4],[1,-5],[2,-3],[2,-3],[13,-5],[2,-4],[1,-4],[0,-5],[-1,-4],[-2,-4],[-3,-2],[-3,-3],[-5,-2],[-6,0]],[[1876,435],[-10,3],[-5,3],[-2,5],[0,4],[1,5],[1,5],[0,5],[0,4],[-4,6],[-1,4],[1,5],[1,5],[10,37],[1,4],[-2,3],[-3,2],[-4,1]],[[1860,536],[-4,-1],[-5,-5],[-3,-4],[-6,-13],[-2,-4],[-3,-3],[-5,-1]],[[2045,443],[-11,2],[-11,6],[-7,4],[-2,3],[-2,4],[-1,10],[-2,3],[-6,1]],[[2003,476],[-9,-1],[-16,-7],[-12,-9],[-2,-3],[-4,-2],[-5,-1]],[[1955,453],[-7,0],[-10,3],[-9,1]],[[1929,457],[-8,-1],[-29,-12],[-4,-3],[-3,-3],[-4,-2],[-5,-1]],[[1267,359],[-31,5],[-9,4],[-6,4],[-4,7],[-3,8],[-2,3],[-3,3],[-5,1]],[[1204,394],[-7,-2],[-16,-10],[-22,-20],[-7,-4],[-8,-3]],[[1326,351],[-4,1],[-3,4],[-1,4],[-1,5],[-1,3],[-1,2],[-4,1]],[[1311,371],[-6,0],[-30,-12],[-8,0]],[[1452,318],[-19,3],[-16,9],[-3,2],[-7,7],[-32,24],[-4,2],[-5,1]],[[1366,366],[-7,0],[-18,-6],[-5,-3],[-3,-3],[-3,-2],[-4,-1]],[[1144,355],[-96,8]],[[1048,363],[-14,-3]],[[2823,1097],[-1,-10],[-2,-47],[1,-5],[3,-5],[7,-9],[4,-7],[3,-12],[1,-7],[0,-22],[0,-5],[-2,-4],[-2,-4],[-2,-3],[-4,-2],[-4,-2],[-4,-1],[-30,-1],[-4,-1],[-8,-7],[-6,-6],[-10,-14],[-13,-22],[-5,-14],[-1,-4],[-1,-5],[-1,-5],[2,-5],[4,-4],[9,-5],[7,-2],[5,0]],[[2782,860],[4,-2],[2,-3],[1,-12],[2,-5],[11,-7],[3,-5],[2,-6],[1,-16],[2,-4],[3,-4],[8,-4],[6,-2],[50,-3],[5,-1],[4,-3],[25,-30],[3,-5],[10,-25],[1,-9],[0,-6],[-4,-3],[-3,-1],[-7,0]],[[2769,857],[13,3]],[[2911,704],[-29,3]],[[2882,707],[-10,-1],[-7,-4],[-4,-2],[-3,-3],[-4,-7],[-4,-7],[-5,-13],[-6,-18],[-1,-4],[-4,-5],[-2,-2],[-10,-5],[-2,-3],[0,-7],[1,-8],[7,-15],[31,-54],[3,-8],[1,-5],[0,-5],[1,-4],[1,-6],[6,-15],[-1,-5],[-2,-4],[-19,-15],[-2,-3],[-2,-4],[0,-6],[3,-7],[21,-32],[3,-2],[3,-2]],[[2969,502],[7,-2],[7,-4],[14,-10],[19,-9],[3,-4],[2,-8],[1,-17],[1,-5],[3,-4],[4,-4],[9,-3],[6,-1]],[[2931,454],[2,1],[2,2],[2,4],[1,5],[2,16],[1,5],[1,5],[3,3],[3,2],[21,5]],[[2906,454],[25,0]],[[2875,426],[5,2],[7,7],[2,3],[5,7],[6,5],[3,2],[3,2]],[[3077,441],[5,-3],[5,-6],[17,-36],[17,-27],[3,-4],[7,-4],[74,-24],[25,-15],[8,-3],[4,-1]],[[3045,431],[5,0],[23,9],[4,1]],[[3265,343],[4,-1],[23,-16],[3,-4],[2,-4],[0,-7],[-2,-5],[-4,-8],[0,-5],[1,-6],[24,-40],[6,-6],[5,-3],[25,-6]],[[3242,318],[3,2],[3,2],[3,3],[9,14],[2,3],[3,1]],[[3391,232],[4,-1],[4,-3],[8,-11],[8,-15],[1,-5],[1,-7],[-1,-12],[-1,-7],[-1,-6],[-2,-4],[-3,-3],[-4,-1],[-86,-4],[-4,-2],[-3,-3],[-2,-4],[-5,-19],[-1,-5],[2,-5],[14,-14],[3,-3],[1,-5],[-1,-6],[-2,-4],[-14,-14],[3,-9],[10,-14],[32,-35],[14,-11]],[[3352,232],[39,0]],[[3661,70],[4,0],[11,-22],[2,-4],[3,-8],[2,-3],[3,-2]],[[3603,23],[2,0],[50,45],[6,2]],[[3708,63],[4,-1],[2,-3],[1,-5],[0,-5],[-1,-29],[0,-14],[0,-4],[0,-2]],[[3686,31],[1,3],[5,13],[6,11],[5,4],[5,1]],[[3996,45],[62,-14],[8,-4],[3,-2],[2,-3],[1,-1],[4,-12],[4,-9]],[[3981,0],[-1,3],[-1,4],[-7,14],[0,2],[1,5],[3,5],[8,7],[6,4],[6,1]],[[3575,44],[19,-1],[3,-2],[2,-4],[2,-4],[1,-8],[1,-2]],[[3555,0],[0,1],[4,16],[6,17],[5,7],[5,3]],[[4096,1015],[-3,-1],[-21,-11],[-2,-4],[0,-5],[11,-23],[2,-5],[5,-20],[3,-7],[5,-4]],[[0,72],[8,-7],[5,-7],[2,-12],[-3,-11],[-3,-9],[-1,-11],[3,-15]],[[0,1572],[31,34],[26,72],[29,57],[3,58],[-77,109],[-12,12]],[[0,2212],[120,17],[49,33],[41,43],[19,61],[-2,9]],[[3903,1385],[-77,86],[-50,106],[-70,51],[-22,120]],[[3423,3306],[7,1]],[[3430,3307],[333,-10],[17,-82],[61,-59]],[[3430,3307],[-12,188],[27,30],[185,67],[39,109],[-4,88],[62,130],[-26,81],[-71,96]],[[1045,2926],[-34,-44],[-69,-21],[-319,-69],[-102,3],[-246,-93],[-275,-43]],[[1046,2992],[-1,-65]],[[1433,2958],[-272,77],[-113,-41]],[[1808,2774],[-34,49],[-118,58],[-222,77]],[[1945,2669],[-102,24],[-35,80]],[[1933,2670],[9,-1],[6,0],[5,1],[35,14],[10,23],[6,4],[16,5]],[[2019,2715],[6,2],[7,5]],[[1045,2926],[-34,-44],[-69,-21],[-319,-69],[-102,3],[-246,-93],[-275,-43]],[[1046,2992],[-1,-65]],[[1433,2958],[-272,77],[-113,-41]],[[1808,2774],[-34,49],[-118,58],[-222,77]],[[1945,2669],[-102,24],[-35,80]],[[1933,2670],[6,-1],[2,0],[1,0],[1,0],[5,0],[5,1],[35,14],[10,23],[6,4],[16,5]],[[2019,2715],[6,2],[7,5]],[[3194,2489],[-22,-204],[-44,-9]],[[3184,2267],[-31,13]],[[3163,2280],[-6,0],[-3,0]],[[3165,2280],[-9,0]],[[3222,2248],[-3,1]],[[3219,2249],[-2,1]],[[3217,2250]],[[3217,2250],[-1,0]],[[3216,2250],[-1,1]],[[3215,2251],[-1,0]],[[3214,2251],[-9,4]],[[3205,2255],[-9,4]],[[3196,2259],[-1,0]],[[3195,2259],[-1,1]],[[3194,2260],[-1,1]],[[3193,2261],[-1,0]],[[3192,2261],[0,1]],[[3192,2262]],[[3192,2262],[-4,2]],[[3188,2264],[-3,3]],[[3185,2267],[-1,0]],[[3851,3175],[-7,-14]],[[3844,3161],[-59,-47],[-61,-130],[-205,-150],[-325,-342]],[[3477,1912],[-63,95],[-54,32],[-39,170],[-99,39]],[[3477,1912],[6,-14]],[[3484,1897],[34,-83],[76,2]],[[3594,1815],[50,-19]],[[3639,1797],[26,-41]],[[3666,1755],[2,-1]],[[3671,1753],[-3,1]],[[3673,1752],[-5,2]],[[3678,1751],[-5,1]],[[3679,1750],[-6,2]],[[3682,1749],[-1,1]],[[3683,1749],[2,-1]],[[3687,1744],[0,1]],[[3851,3175],[79,120],[166,134]],[[4096,4063],[-55,33]],[[2035,1739],[-24,65],[26,166],[-13,62],[51,112],[3,71]],[[1487,1176],[-26,-19]],[[2579,804],[46,-59]],[[2625,745],[81,-62]],[[2706,683],[12,-5]],[[2718,678],[3,-2],[4,-4],[19,-27],[4,-3],[15,-11],[3,-2],[2,-2],[2,-4],[2,-3]],[[2772,620],[0,-2]],[[2625,745],[51,-45],[2,-2],[18,-11],[24,-11],[5,-5],[17,-23],[3,-4],[3,-3],[17,-11],[5,-6]],[[2770,624],[1,-2],[0,-2],[3,-7]],[[2774,613],[2,-3]],[[2770,624],[4,-10]],[[2774,613]],[[2774,613],[-2,5]],[[2772,618],[-1,4],[-1,2]],[[2772,620],[2,-7]],[[2774,613],[23,-47],[16,-88],[73,-174],[62,-206],[83,-98]],[[3027,0],[-25,28],[-3,3],[-24,34],[-20,23],[-3,3],[-1,2],[-3,5],[-2,5],[-2,4],[-36,100],[-2,5],[-20,92],[-1,3],[-35,64],[-3,6],[-1,2],[-33,99],[-31,118]],[[1326,1252],[1,-1]],[[1327,1251],[1,-1]],[[1328,1250],[1,-1]],[[1329,1249],[1,0]],[[1330,1249],[25,-19]],[[1355,1230],[15,-11]],[[1370,1219],[4,-3]],[[1374,1216]],[[1374,1216],[23,-17]],[[1397,1199],[8,-7]],[[1405,1192],[3,-2]],[[1408,1190]],[[1408,1190],[14,-10]],[[1422,1180],[2,-1]],[[1424,1179]],[[1424,1179],[1,-1]],[[1425,1178],[1,0]],[[1426,1178],[1,-1]],[[1427,1177]],[[1427,1177],[1,0]],[[1428,1177],[1,-1]],[[1429,1176],[1,0]],[[1430,1176],[1,0]],[[1431,1176],[17,-3]],[[1448,1173],[7,-1]],[[1455,1172],[6,-2]],[[1461,1170],[1,0]],[[1462,1170]],[[1462,1170],[1,0]],[[1463,1170],[1,0]],[[1464,1170]],[[1464,1170],[1,0]],[[1465,1170],[1,-1]],[[1466,1169],[1,0]],[[1467,1169]],[[1467,1169],[1,0]],[[1468,1169]],[[1468,1169],[1,0]],[[1469,1169],[1,0]],[[1470,1169]],[[1470,1169],[1,0]],[[1471,1169]],[[1471,1169],[1,1]],[[1472,1170]],[[1472,1170],[1,0]],[[1473,1170]],[[1473,1170],[1,0]],[[1474,1170],[1,1]],[[1475,1171],[1,0]],[[1476,1171],[0,1]],[[1476,1172],[3,1]],[[1479,1173]],[[1479,1173]],[[1479,1173],[2,1]],[[1481,1174],[6,2]],[[1480,1173],[-55,5],[-96,71],[-61,98],[-133,97],[-109,57],[-43,-4]],[[994,1505],[1,0]],[[1107,1460],[1,-1]],[[1132,1446],[0,-1]],[[1171,1412],[1,0]],[[1209,1375],[1,-1]],[[1257,1354],[-3,1]],[[1320,1261]],[[1374,1216],[1,-1]],[[1424,1178],[1,0]],[[1439,1117],[1,0]],[[1487,1176],[-7,-3]],[[2555,815]],[[2555,815],[-42,-56],[-11,31],[-170,4],[-181,-57],[-115,38],[-65,-51],[-131,25],[-93,82],[-161,47],[-72,-45],[-116,-9],[24,116],[-14,119],[72,114]],[[1489,1177],[-4,-2]],[[2555,815],[24,-11]],[[1401,1010],[0,-2],[0,-1],[0,1],[0,2]],[[1045,2926],[-34,-44],[-69,-21],[-319,-69],[-102,3],[-246,-93],[-275,-43]],[[1046,2992],[-1,-65]],[[1433,2958],[-272,77],[-113,-41]],[[1808,2774],[-34,49],[-118,58],[-222,77]],[[1945,2669],[-102,24],[-35,80]],[[1933,2670],[9,-1],[6,0],[5,1],[35,14],[10,23],[6,4],[16,5]],[[2019,2715],[6,2],[7,5]],[[457,804],[-18,-20],[21,-23],[-5,-111],[-30,-59],[92,-331],[103,-205]],[[3638,1699],[-192,-197],[-93,-31],[-2,-22],[-11,-42],[-49,-55],[-173,-88],[-137,-144],[-54,-111]],[[3181,1282],[2,1]],[[3224,1301],[-3,-1]],[[3253,1321],[-2,-1]],[[3281,1343],[2,2]],[[3314,1380],[2,1]],[[3329,1398],[2,1]],[[3348,1444],[-1,-2]],[[3374,1479],[2,1]],[[3392,1492],[2,1]],[[3432,1492],[2,2]],[[3450,1512],[0,-3]],[[3475,1534],[-2,-1]],[[3519,1568],[2,2]],[[3561,1610],[-2,-1]],[[3566,1630],[1,3]],[[3608,1659],[-2,-2]],[[3625,1683],[-1,-2]],[[3632,1693],[2,1]],[[2026,2719],[128,39]],[[2152,2758],[34,29],[48,172],[50,35],[24,66],[148,111],[71,108],[37,136],[104,136]],[[1039,2985],[6,-67],[-40,-38],[-65,-19],[-68,-11],[-58,-17],[-99,-17],[-91,-24],[-121,-4]],[[688,2336],[-132,93],[-13,47],[104,128],[68,209],[22,6]],[[2035,1739],[88,-248],[62,-104],[23,-114],[44,-60],[7,-153],[93,-30],[223,-219]],[[1502,0],[45,24],[278,65],[140,107],[113,90],[67,130],[82,34],[114,107],[194,245],[131,87],[112,9],[139,102],[65,121],[135,143],[174,87],[49,56],[13,64],[94,32],[231,248]],[[3669,1744],[2,0]],[[3671,1744],[4,3]],[[3671,1744],[16,4]],[[3687,1748],[12,0]],[[3699,1748],[10,6]],[[3709,1754],[20,6]],[[3729,1760],[36,26]],[[3765,1786],[130,85],[201,38]],[[0,464],[273,162],[3,2],[4,3],[16,15],[169,166]],[[465,812],[83,188],[97,103],[129,61],[49,65],[16,91]],[[465,812],[-189,-184],[-276,-164]],[[1045,2926],[-34,-44],[-69,-21],[-319,-69],[-102,3],[-246,-93],[-275,-43]],[[1046,2992],[-1,-65]],[[1433,2958],[-272,77],[-113,-41]],[[1808,2774],[-34,49],[-118,58],[-222,77]],[[1945,2669],[-102,24],[-35,80]],[[1933,2670],[6,-1],[2,0],[1,0],[1,0],[5,0],[5,1],[35,14],[10,23],[6,4],[16,5]],[[2019,2715],[6,2],[7,5]],[[2026,2719],[128,39]],[[2152,2758],[34,29],[49,173],[49,34],[23,65],[113,73],[88,112],[46,151],[120,165],[54,178],[55,34],[106,232]],[[3131,3285],[-153,37],[-203,-141]],[[3131,3285],[202,17],[13,21],[128,-27],[77,20],[78,-24],[131,6],[20,-83],[64,-53]],[[3844,3161],[0,1]],[[3844,3162],[86,133],[166,134]],[[3688,1748],[-10,3]],[[3687,1748],[12,0]],[[3699,1748],[10,6]],[[3709,1754],[20,6]],[[3729,1760],[36,26]],[[3765,1786],[130,85],[201,38]],[[318,2020],[11,-5]],[[329,2015],[-9,-53],[59,-166],[-18,-73],[173,-168],[4,-37],[87,-52],[53,-140],[45,-41],[17,-139]],[[329,2015],[169,142],[58,136],[80,3],[52,40]],[[1502,0],[45,24],[278,65],[140,107],[113,90],[67,130],[82,34],[114,107],[194,245],[131,87],[112,9],[123,89],[81,134],[135,143],[174,87],[49,56],[13,64],[94,32],[234,247]],[[3681,1750],[7,-2]],[[3671,1753]],[[3678,1751]],[[3682,1749],[-1,1]],[[3683,1749],[2,-1]],[[3687,1744],[0,1]],[[3687,1748],[12,0]],[[3699,1748],[10,6]],[[3709,1754],[20,6]],[[3729,1760],[36,26]],[[3765,1786],[130,85],[201,38]],[[3184,2267],[-26,13]],[[3184,2267],[-21,13]],[[3477,1912],[-63,95],[-54,32],[-40,171],[-136,57]],[[3477,1912],[6,-14]],[[3484,1897],[34,-83],[76,2]],[[3594,1815],[50,-19]],[[3639,1797],[26,-41]],[[3666,1755],[2,-1]],[[3671,1753],[-2,0],[-1,1]],[[3678,1751],[-10,3]],[[3392,2015]],[[2022,2684],[-10,26],[20,12]],[[1492,1179],[-66,-1],[-101,75]],[[1325,1253],[-6,10]],[[1319,1263],[-51,84],[-133,97],[-109,57],[-43,-4]],[[994,1505],[1,0]],[[1107,1460],[1,-1]],[[1132,1446],[0,-1]],[[1171,1412],[1,0]],[[1209,1375],[1,-1]],[[1257,1354],[-3,1]],[[1320,1261]],[[1374,1216],[1,-1]],[[1424,1178],[1,0]],[[1476,1171],[-15,-14]],[[1489,1177],[-4,-2]],[[2035,1739],[-81,-114],[-139,-118]],[[1815,1507],[-7,-10]],[[1808,1497],[-171,-182],[-34,-69],[-111,-67]],[[1492,1179],[-5,-3]],[[1815,1507],[-3,-5],[-4,-5]],[[1812,1502],[2,3]],[[1633,1305],[0,-1],[0,1]],[[1668,1338],[-2,-2],[2,2]],[[529,0],[70,24],[22,30]],[[621,54],[-22,-30],[-75,-24]],[[621,54],[97,143]],[[718,197],[6,7]],[[724,204],[65,109]],[[3653,643],[-15,5]],[[4096,609],[-2,-4],[-147,-21],[-309,71],[-2,-6],[1,-1],[8,-7],[2,-3],[43,-146],[26,-52],[-36,-51]],[[3680,389],[-6,-3]],[[3674,386],[4,2]],[[3678,388],[2,1]],[[3674,386],[3,2]],[[3677,388],[1,0]],[[3674,386],[3,2]],[[982,1497],[-77,-146],[-67,-31]],[[964,1466],[-11,-6]],[[980,1492],[1,2]],[[3767,1788],[128,83],[201,38]],[[3844,3161],[86,134],[166,134]],[[4096,1909],[-201,-38],[-174,-117],[-55,-2],[-136,-178],[-100,-84],[-77,-19],[-13,-64],[-49,-55],[-173,-88],[-137,-144],[-54,-111],[-147,-109],[-113,-10],[-132,-88],[-194,-245],[-114,-107],[-82,-34],[-68,-131],[-249,-194],[-281,-67],[-45,-24]],[[1945,2669],[-98,20],[-46,-43],[-27,23]],[[1933,2670],[9,-1],[6,0],[5,1],[35,14],[10,23],[6,4],[16,5]],[[2019,2715],[6,2],[7,5]],[[4096,1302],[-25,16],[-180,74],[-115,185],[-70,51],[-29,122]],[[464,811],[-32,-24],[-22,62],[-94,73],[-136,286],[-129,65],[-51,132]],[[2543,807],[23,16]],[[2566,823],[100,66],[112,9],[139,102],[65,121],[135,143],[174,87],[49,56],[13,64],[94,32],[231,248]],[[2566,823],[13,-19]],[[3128,2276],[23,-43],[-71,-55],[-298,-21],[-31,-47],[-115,-7],[-171,-157],[-197,-99],[-224,-72],[-9,-36]],[[3767,1788],[128,83],[201,38]],[[1419,835],[-34,-45],[-88,-13],[-149,-114]],[[1502,0],[45,24],[281,67],[249,194],[68,131],[82,34],[114,107],[194,245],[131,87],[112,9],[151,113],[52,108],[136,145],[174,87],[49,56],[13,64],[77,19],[100,84],[136,178],[55,2],[174,117],[201,38]],[[832,1279],[15,53],[59,19],[23,76],[53,70]],[[973,1478],[-9,-12]],[[804,4088],[-10,8]],[[1433,2958],[-88,95],[-9,117],[-56,106],[-108,105],[-152,213],[-57,109],[-53,240],[-116,153]],[[1945,2669],[-103,25],[-70,130],[-339,134]],[[1933,2670],[9,-1],[6,0],[5,1],[35,14],[10,23],[6,4],[16,5]],[[2019,2715],[6,2],[7,5]],[[1804,2648],[-99,-103],[-129,-351],[-100,-80],[-33,-102],[-57,-63]],[[1861,2688],[-57,-40]],[[1848,2689],[-1,0],[-1,0],[-2,0],[-1,-1],[-1,-1],[-2,0],[-1,-2],[-35,-37]],[[2026,2719],[128,39]],[[2152,2758],[34,29],[49,173],[49,34],[23,65],[113,73],[88,112],[49,157],[117,159],[54,178],[57,38]],[[1419,835],[-35,-45],[-93,-16],[-159,-10],[-70,25]],[[2579,804],[35,-51]],[[2614,753],[12,-9]],[[3171,727],[-95,-3],[-74,28],[-193,-22],[-183,14]],[[3659,661],[-331,95],[-150,-29]],[[1254,1815],[-145,-158],[-76,-145],[-50,-15]],[[994,1505],[1,0]],[[452,1952],[9,-18],[1,-27],[-12,7],[-10,-5],[-8,-8],[-7,-4],[-34,5],[-8,-5],[-3,5],[-2,3],[-5,2],[3,0],[2,1],[3,3],[2,4],[7,-1],[57,18],[0,9],[-21,0],[-10,2],[-9,6],[4,12],[0,14],[5,9],[17,-1],[0,-5],[-1,-2],[-2,0],[-3,-1],[25,-23]],[[3147,2986],[12,1],[8,-7],[-1,-28],[-14,-31],[-20,-21],[-20,4],[-10,-1],[-7,3],[-24,27],[1,18],[-3,12],[-7,1],[-7,3],[-3,18],[2,15],[5,6],[8,3],[10,6],[10,-12],[11,-10],[12,-8],[12,-5],[12,1],[13,5]],[[1240,2946],[16,-21],[6,-26],[-11,-21],[-37,16],[-19,-1],[-4,-32],[-4,-1],[-1,2],[0,3],[0,4],[-2,30],[20,8],[28,0],[19,5],[-9,10],[-4,6],[-2,5],[-4,5],[-8,-2],[-13,-7],[-3,3],[-3,6],[-4,6],[-22,5],[-1,7],[3,8],[0,8],[-4,7],[-1,6],[-4,3],[-9,1],[-15,8],[-7,0],[-45,-42],[-6,9],[-3,9],[1,8],[3,8],[13,-3],[38,29],[16,8],[17,-11],[30,-47],[18,-10],[17,-9]],[[452,1952],[9,-18],[1,-27],[-12,7],[-10,-5],[-8,-8],[-7,-4],[-34,5],[-8,-5],[-3,5],[-2,3],[-5,2],[3,0],[2,1],[3,3],[2,4],[7,-1],[57,18],[0,9],[-21,0],[-10,2],[-9,6],[4,12],[0,14],[5,9],[17,-1],[0,-5],[-1,-2],[-2,0],[-3,-1],[25,-23]],[[3147,2986],[12,1],[8,-7],[-1,-28],[-14,-31],[-20,-21],[-20,4],[-10,-1],[-7,3],[-24,27],[1,18],[-3,12],[-7,1],[-7,3],[-3,18],[2,15],[5,6],[8,3],[10,6],[10,-12],[11,-10],[12,-8],[12,-5],[12,1],[13,5]],[[1240,2946],[16,-21],[6,-26],[-11,-21],[-37,16],[-19,-1],[-4,-32],[-4,-1],[-1,2],[0,3],[0,4],[-2,30],[20,8],[28,0],[19,5],[-9,10],[-4,6],[-2,5],[-4,5],[-8,-2],[-13,-7],[-3,3],[-3,6],[-4,6],[-22,5],[-1,7],[3,8],[0,8],[-4,7],[-1,6],[-4,3],[-9,1],[-15,8],[-7,0],[-45,-42],[-6,9],[-3,9],[1,8],[3,8],[13,-3],[38,29],[16,8],[17,-11],[30,-47],[18,-10],[17,-9]],[[964,3200],[10,-49],[7,-20],[10,-17]],[[1251,2976],[72,-28],[131,-32]],[[2558,842],[7,8]],[[2565,850],[47,51],[13,11],[14,9],[90,33],[67,37],[32,25],[29,32],[94,124],[86,96],[30,27],[15,11],[16,9],[16,6],[18,3],[89,-1],[17,5],[17,8],[16,13],[15,18],[55,94],[24,31],[4,3],[13,10]],[[3564,1779],[0,-7],[4,-23]],[[3570,1831],[-3,-6],[-1,-10]],[[3573,1734],[4,-10]],[[3816,1795],[-2,4],[-5,11],[-7,11],[-6,9],[-7,9],[-8,7],[-8,6],[-19,11],[-10,3]],[[3828,1746],[1,3]],[[3566,1815],[-3,-16],[1,-20]],[[3568,1749],[0,-2],[5,-13]],[[3744,1866],[-50,17],[-41,4],[-25,-3],[-12,-3],[-12,-6],[-11,-8],[-10,-11],[-9,-14],[-4,-11]],[[3829,1749],[0,1],[0,4],[0,3],[-4,14],[-5,16],[-4,8]],[[3575,1715],[1,2],[2,7],[0,4],[-1,3],[-1,3],[-2,2]],[[3382,1505],[138,114],[5,6],[5,8],[5,8],[3,4],[11,30],[5,10],[3,5],[3,5],[12,15],[3,5]],[[2005,2744],[25,-11],[12,-7],[12,-9],[7,-7]],[[2061,2710],[35,-34],[15,-9],[38,-10],[111,-59]],[[2260,2598],[73,-40],[170,-129],[36,-18],[18,-6],[36,-5],[9,-3],[8,-4],[16,-10],[14,-13],[39,-43],[32,-26],[7,-8],[70,-107],[31,-38],[33,-30],[34,-25],[570,-266],[109,-22]],[[1095,3055],[37,-19]],[[1132,3036],[119,-60]],[[1780,2810],[13,-10],[14,-14]],[[1878,2714],[10,-10],[2,-2]],[[1454,2916],[113,-23],[189,-67],[13,-7],[11,-9]],[[1807,2786],[71,-72]],[[1890,2702],[11,-9]],[[1901,2693],[34,-26],[14,-8]],[[2124,2749],[-4,8],[-9,9],[-9,6]],[[1901,2693]],[[1949,2659],[22,-14],[37,-15],[38,-6],[16,0],[15,4],[15,8],[14,12],[12,15],[9,19],[4,23],[-1,25],[-4,15],[-2,4]],[[498,826],[10,-35],[15,-20]],[[523,771],[3,-4],[41,-39],[9,-12],[8,-14],[6,-17],[2,-19],[-1,-24],[-5,-24],[-8,-22],[-19,-39],[-44,-78],[-10,-23],[-7,-26],[-2,-28],[1,-52],[-1,-25],[-7,-24],[-8,-14],[-10,-12],[-20,-20],[-100,-72],[-12,-11],[-11,-13],[-11,-15],[-9,-18],[-9,-21],[-7,-23],[-6,-25],[-5,-25],[-4,-26],[0,-6]],[[1008,2928],[-4,-3]],[[1123,3058],[-21,-31],[-28,-35],[-44,-44]],[[1153,3108],[-13,-22]],[[1004,2925],[-168,-129],[-80,-31],[-14,-8],[-14,-11],[-13,-13],[-33,-48],[-89,-82],[-12,-12],[-10,-16],[-9,-17],[-8,-19],[-7,-21],[-5,-22],[-26,-144],[-6,-22],[-9,-20],[-9,-18],[-11,-16],[-11,-14]],[[1030,2948],[-14,-14],[-8,-6]],[[1140,3086],[-12,-20],[-5,-8]],[[320,2075],[-3,-6],[-6,-18],[-3,-10]],[[308,2041],[-2,-9],[-3,-20],[-1,-19],[1,-20],[6,-45],[10,-48],[12,-44],[15,-41],[17,-37],[9,-17],[21,-30]],[[473,2263],[-121,-133],[-19,-29],[-9,-16],[-4,-10]],[[1325,4096],[-4,-9],[-5,-8],[-10,-14],[-6,-6],[-18,-15]],[[1361,4096],[3,-17],[2,-24],[-1,-24],[-1,-16]],[[1364,4015],[-1,-10],[-25,-145],[-8,-75],[-5,-25],[-8,-23],[-20,-30],[-51,-37],[-23,-25],[-39,-75],[-106,-238],[-42,-67],[-49,-51],[-26,-15]],[[441,1491],[5,-15]],[[489,879],[-1,-9],[1,-11],[2,-12],[7,-21]],[[429,1618],[2,1],[2,0],[2,-1],[2,-1],[1,-8],[0,-9],[1,-17],[-2,-50],[0,-16],[2,-15],[2,-10],[0,-1]],[[446,1476],[3,-14],[2,-13],[1,-14],[0,-13],[-1,-14],[-12,-112],[-1,-57],[9,-55],[4,-13],[7,-17],[1,-3],[0,-3],[1,-6],[0,-5],[0,-5],[-8,-28],[-3,-12],[-1,-13],[-1,-11],[0,-12],[2,-11],[3,-11],[3,-9],[5,-8],[31,-53],[3,-11],[0,-11],[-5,-48],[0,-15]],[[1728,0],[389,311],[147,163],[49,66],[45,72],[41,80]],[[3828,1762],[2,-11],[4,-10],[5,-9],[11,-17],[5,-9],[5,-11],[4,-12],[3,-14],[14,-96],[1,-22],[1,-4],[1,-4],[15,-23],[6,-8],[6,-7],[15,-13],[16,-11],[97,-89],[35,-24],[22,-9]],[[391,4096],[-10,-23]],[[381,4073],[-3,-5],[-37,-68],[-10,-25],[-24,-78],[-10,-24],[-10,-17],[-10,-16],[-12,-14],[-12,-13],[-26,-22],[-96,-64],[-25,-21],[-19,-20],[-41,-53],[-46,-45]],[[0,2816],[83,-9],[12,2],[14,4],[28,12],[8,2],[13,1],[14,-1],[13,-3],[105,-45]],[[2789,4096],[-31,-19]],[[1112,3085],[-6,-2],[-10,-7],[-8,-9],[-8,-12]],[[1169,3110],[-7,-4],[-27,-11]],[[1320,3249],[-5,-15],[-4,-9],[-3,-7]],[[1649,3462],[-3,-1]],[[1135,3095],[-23,-10]],[[1308,3218],[-1,0],[-6,-6],[-45,-26],[-80,-71],[-7,-5]],[[1646,3461],[-177,-116],[-120,-58],[-15,-11],[-5,-5],[-2,-3],[-2,-4],[-2,-5],[-3,-10]],[[2758,4077],[-313,-190],[-97,-89],[-35,-22],[-36,-13],[-109,-17],[-269,-121],[-250,-163]],[[290,2779],[36,-16],[3,-1],[2,0],[7,2],[4,0],[3,0],[8,-4],[21,-15],[5,-7],[5,-9],[4,-9],[5,-9],[8,-12],[9,-9],[19,-15],[50,-28],[105,-45]],[[1016,3084],[8,-9],[24,-18],[35,-21]],[[994,3125],[2,-11],[3,-8],[5,-8],[10,-12],[2,-2]],[[313,1647],[123,-22]],[[393,1711],[-37,-30],[-39,-26]],[[2527,808],[31,34]],[[2399,692],[97,82],[31,34]],[[0,3746],[48,-8],[62,-20]],[[113,3713],[150,-92],[233,-89],[71,-44],[181,-70],[158,-116],[24,-23],[11,-14],[5,-8],[5,-10],[4,-11],[3,-11],[6,-25]],[[3577,1724],[51,-44]],[[3698,1667],[14,-2]],[[3732,1671],[16,5]],[[3759,1680],[30,11],[39,55]],[[3628,1680],[7,-6],[63,-7]],[[3712,1665],[4,0],[16,6]],[[3748,1676],[11,4]],[[0,1694],[52,11],[82,1],[81,-18],[60,-30],[38,-11]],[[436,1625],[169,-18],[213,-57],[29,-12],[27,-16]],[[2005,2743],[-1,-6],[-2,-6],[-2,-4],[-10,-12],[-7,-6],[-7,-5],[-8,-4],[-15,-6],[-48,-11]],[[1905,2683]],[[507,818],[-61,0],[-80,13]],[[366,831],[-33,6],[-169,-2],[-57,-10],[-58,-18],[-49,-24]],[[3983,4096],[4,-11],[3,-9],[4,-9],[4,-8],[6,-9],[7,-7],[14,-12],[32,-21],[39,-17]],[[1718,2662],[16,0]],[[1761,2662],[43,0]],[[618,2586],[12,-7],[8,-4]],[[579,2610],[39,-24]],[[638,2575],[10,-4],[20,-4],[19,-1],[100,26],[21,2],[83,-2],[38,14],[71,48],[37,20],[8,2],[8,1],[8,-1],[8,-3],[8,-4],[54,-44],[16,-9],[17,-7],[18,-2],[114,13],[180,-4],[27,4],[105,36],[31,6],[79,0]],[[1734,2662],[27,0]],[[1804,2662],[85,15],[13,1]],[[909,1489],[26,-6],[36,1]],[[863,1531],[15,-24],[25,-16],[6,-2]],[[2048,2716],[-10,-50]],[[2038,2666],[-1,-10],[0,-11],[1,-11],[12,-73],[10,-102],[2,-8],[2,-7],[5,-6],[7,-6],[7,-5],[3,-2],[3,-4],[2,-3],[2,-5],[4,-10],[2,-11],[1,-11],[0,-12],[-3,-21],[-17,-71],[-1,-9],[-1,-10],[-1,-9],[0,-11],[2,-9],[2,-9],[3,-9]],[[2000,1831],[2,-20],[1,-4],[2,-5],[1,-5],[9,-17],[11,-16],[11,-12],[16,-24]],[[2080,2214],[-4,-84],[-3,-14],[-2,-11],[-4,-10],[-9,-17],[-23,-38],[-49,-61],[-5,-9],[-5,-10],[-2,-11],[-1,-12],[1,-12],[1,-11],[3,-12],[19,-56],[2,-10],[1,-5]],[[2053,1728],[12,-17]],[[3382,1505],[37,25],[2,1],[14,-3],[61,5],[397,138],[39,18],[12,8],[12,10],[5,8],[2,11],[1,38],[1,13],[1,12],[3,11],[3,10],[4,10],[5,8],[5,7],[5,6],[18,14],[24,15],[63,28]],[[4096,3497],[-6,-2],[-43,-40],[-48,-33],[-19,-8],[-24,-2],[-22,-7],[-51,-40],[-25,-14],[-29,-25],[-42,-25],[-26,-9]],[[3359,3908],[-6,6],[-18,8],[-36,21],[-48,35],[-5,3]],[[3246,3981],[-40,25],[-22,31],[-30,7],[-19,15],[-26,37]],[[3761,3292],[-10,63],[-9,14],[-46,58],[-19,32],[-10,25],[-19,29],[-5,17],[-2,19],[-14,43],[-25,19],[-90,57],[-51,28],[-11,10],[-3,13],[10,18],[26,29],[6,15],[-2,12],[-11,12],[-54,41],[-58,25],[0,33],[-5,4]],[[3184,3154]],[[3184,3154],[-30,-5]],[[3761,3292],[-71,-43],[-31,-13],[-46,-14],[-33,-12],[-25,-2],[-88,-15],[-75,-12],[-44,-2],[-25,-5],[-54,-4],[-24,-9],[-58,-6],[-3,-1]],[[3032,3111],[-8,-4],[-13,-9],[-20,-22],[-27,-17],[-9,-9],[-4,-15],[-14,-16],[-17,-5],[-26,10],[-22,-5],[-41,-28],[-19,-12]],[[2064,2739],[-14,-10]],[[2146,2757],[-12,3],[-22,2],[-10,-3]],[[2102,2759],[-16,-6],[-22,-14]],[[2812,2979],[-13,-8],[-31,-13],[-50,-3],[-13,-10],[-5,-18],[-15,-15],[-35,-22],[-35,-9],[-38,-21],[-60,-27],[-60,-24],[-31,-2],[-19,-8],[-28,-17],[-42,-1],[-36,-7],[-16,2],[-26,10],[-18,-3],[-41,-21],[-34,-11],[-20,6]],[[3154,3149],[-22,2],[-23,-4],[-45,-17],[-32,-19]],[[3048,2037],[-25,-15],[-29,-9],[-15,-7],[-42,-16]],[[2402,1797],[37,-13],[44,-7]],[[2048,1737],[17,2]],[[2065,1739],[8,1],[50,16],[38,7],[34,10],[13,10],[9,14],[13,34],[15,30],[15,15],[24,6],[3,-17],[28,1],[28,-8],[15,-7],[40,-52],[4,-2]],[[492,809],[-17,40],[-2,13],[5,22]],[[478,884],[2,9],[2,24],[-10,23],[1,15],[-18,31],[5,36],[-1,19],[-15,18],[-1,15],[11,79],[-20,31],[-5,18],[8,70],[9,22],[-4,24],[6,44],[0,24]],[[0,0],[0,1632],[0,2464],[3615,0],[481,0],[0,-4096],[-4096,0]],[[0,1134],[11,65],[26,20],[-20,23],[75,6],[85,47],[-79,7],[49,71],[-60,22],[25,38],[74,1],[15,39],[50,3],[5,25],[78,-69],[41,20],[9,-21],[32,47],[91,48],[10,37],[31,-30],[29,34],[15,-32],[47,32],[97,-61],[-90,1],[-29,24],[-80,-11],[-8,-30],[-13,32],[-97,-64],[-11,-81],[-47,17],[-71,-68],[-94,-62],[-92,-23],[-21,-27],[22,-13],[-47,-24],[-2,-28],[54,-86],[-38,2],[7,-58],[25,16],[24,-43],[-49,-47],[-79,34],[0,167]],[[215,1309],[13,-8],[32,10],[6,17],[-43,3],[-8,-22]],[[659,1530],[8,-16],[13,6],[-5,8],[-16,2]],[[338,1407],[16,-6],[14,14],[-19,3],[-11,-11]],[[278,1372],[6,-6],[11,4],[-7,8],[-10,-6]],[[286,1406],[14,-1],[7,28],[-19,-9],[-2,-18]],[[622,1541],[5,-5],[15,1],[-7,13],[-13,-9]],[[318,1406],[2,-3],[11,9],[-2,1],[-11,-7]],[[300,1378],[14,-3],[-3,12],[-10,-4],[-1,-5]],[[354,1941],[71,158],[31,-148],[38,19],[49,-35],[-38,-68],[-28,12],[-31,-24],[-87,46],[18,21],[-23,19]],[[2414,3678],[58,32],[23,-11],[5,52],[62,-2],[21,-44],[61,22],[-3,-48],[-27,-18],[26,-13],[-2,-43],[33,-13],[2,-22],[-39,-9],[40,-114],[-158,-67],[4,59],[-22,-6],[-62,87],[94,-2],[-8,64],[-50,58],[6,24],[-64,14]],[[0,2410],[23,15],[65,-16],[-13,31],[20,16],[49,-5],[28,-13],[41,-99],[-213,-18],[0,89]],[[2846,4096],[48,-7],[-5,-84],[-60,2],[-90,89],[107,0]],[[0,2321],[137,14],[44,-62],[-157,-33],[-24,16],[0,65]],[[827,0],[-7,0],[-2,26],[-45,-5],[-20,40],[-53,15],[131,79],[88,11],[129,120],[-17,281],[79,63],[92,1],[97,-55],[32,27],[26,-38],[75,5],[102,-84],[-10,-142],[-64,-31],[-40,-69],[-165,-44],[12,-189],[-32,-11],[-371,0],[-18,24],[-19,-24]],[[1770,3658],[46,27],[36,86],[52,25],[-9,27],[-70,30],[31,18],[37,-32],[6,11],[7,2],[4,-28],[29,12],[-13,-54],[62,-20],[39,29],[31,-13],[-3,-75],[-45,26],[-12,-32],[-31,45],[-41,-29],[-50,34],[0,-96],[23,-16],[-36,1],[-6,-26],[-87,48]],[[1823,3657],[15,-15],[34,0],[-23,36],[9,-23],[-35,2]],[[2505,4096],[-35,-32],[-12,24],[-18,-8],[-8,-44],[-51,60],[124,0]],[[2334,4053],[2,40],[35,3],[-16,-51],[-21,8]],[[2664,1894],[81,55],[39,10],[6,-43],[61,40],[38,-16],[-73,-46],[-5,-21],[79,37],[65,-12],[-20,-10],[78,13],[44,-48],[2,-59],[-34,24],[-43,-23],[4,-91],[-79,-49],[-17,13],[-25,-23],[18,-16],[-51,-30],[30,-52],[-57,-27],[23,-10],[-16,-29],[-15,29],[-27,-14],[-36,71],[-45,24],[13,28],[51,12],[-39,22],[21,21],[-50,78],[35,80],[-28,3],[-28,59]],[[794,2024],[32,19],[-10,72],[38,-4],[-11,-37],[53,2],[16,-34],[-32,-28],[27,7],[38,-79],[-97,-55],[2,133],[-56,4]],[[2202,2258],[33,23],[66,-85],[-29,-44],[99,-55],[-67,10],[2,-31],[-16,28],[-65,-10],[25,81],[-21,70],[-27,13]],[[146,2451],[1,25],[37,-5],[-15,60],[35,35],[-1,-43],[39,-27],[-3,-46],[44,-23],[-4,-31],[-34,-4],[-32,-53],[-67,112]],[[759,2231],[88,76],[43,-27],[18,40],[25,-37],[36,13],[26,-31],[-6,-52],[-45,-16],[-17,-55],[-87,89],[-40,-12],[-3,-36],[-33,9],[-5,39]],[[1703,2883],[17,66],[36,-4],[3,-53],[41,53],[-4,-35],[34,-19],[-20,-20],[15,-44],[50,-3],[5,-72],[-75,35],[-102,96]],[[2077,3233],[54,6],[39,-36],[-1,41],[23,1],[7,-22],[97,-16],[6,-103],[-51,8],[-48,53],[-69,3],[-8,-19],[2,43],[-42,2],[-9,39]],[[2672,3410],[58,33],[45,-29],[20,20],[13,-53],[-40,-49],[-72,-23],[-15,27],[23,63],[-32,11]],[[380,3784],[17,9],[21,-11],[-20,58],[32,40],[-3,-113],[57,-8],[-21,-17],[23,-2],[12,-38],[27,29],[-11,-34],[28,-34],[75,11],[-56,-21],[-4,-24],[47,-13],[-15,-7],[30,-33],[5,4],[-6,16],[3,3],[22,-17],[-21,-8],[26,-16],[-27,-16],[8,-19],[33,14],[-10,-26],[33,0],[14,15],[-16,8],[13,15],[10,-16],[-15,-49],[10,17],[6,-5],[-11,-15],[-77,18],[0,19],[-25,-14],[25,62],[-81,47],[-26,71],[-96,12],[-12,81],[-24,7]],[[455,3823],[38,70],[2,108],[50,-14],[-34,-89],[54,-10],[-2,51],[25,10],[14,-28],[19,33],[62,-17],[-56,-116],[-63,-47],[-63,-14],[10,69],[-56,-6]],[[477,4096],[-55,-61],[-10,60],[-58,-40],[-68,41],[191,0]],[[956,347],[14,41],[55,-18],[23,-63],[-34,-29],[-50,6],[-8,63]],[[3693,398],[-41,-31],[33,97],[24,-14],[-16,-52]],[[522,906],[40,-41],[-40,-97],[-87,2],[-75,67],[6,17],[47,-14],[20,66],[64,-32],[0,74],[25,-42]],[[1415,824],[-20,41],[35,13],[22,-41],[-37,-13]],[[743,1157],[-23,29],[36,11],[-2,-28],[-11,-12]],[[3093,1225],[-21,29],[38,25],[14,-16],[-31,-38]],[[1505,1157],[-28,29],[-1,38],[41,-41],[-12,-26]],[[1409,963],[-29,39],[6,50],[39,-40],[-16,-49]],[[1620,1393],[-23,11],[23,37],[10,-10],[-10,-38]],[[990,1557],[-9,-21],[34,-36],[-34,-71],[-62,25],[-17,60],[24,56],[22,-11],[27,38],[15,-40]],[[3800,1846],[55,-14],[-73,-69],[5,-18],[27,32],[17,-32],[-50,-96],[-26,37],[-14,-20],[-27,14],[-5,-41],[-16,41],[-114,0],[-8,69],[-48,0],[18,36],[30,-8],[-8,55],[57,-14],[56,42],[10,-30],[23,30],[24,-14],[29,54],[44,1],[-6,-55]],[[2002,1832],[65,-47],[8,-36],[-26,-26],[-47,12],[-23,89],[23,8]],[[2102,770],[5,-30],[-65,14],[17,56],[43,-40]],[[2590,847],[19,-51],[-19,-18],[-78,4],[40,69],[38,-4]],[[316,2083],[28,-71],[-28,-15],[-9,50],[-28,6],[24,55],[13,-25]],[[3195,2326],[12,-66],[-73,-13],[9,69],[52,10]],[[1127,2351],[-20,20],[0,54],[54,-26],[-34,-48]],[[2842,2537],[34,0],[-33,-83],[-24,124],[23,-41]],[[627,2564],[-16,42],[40,0],[-1,-19],[-23,-23]],[[1101,3111],[39,-94],[-76,-38],[0,-28],[-56,-6],[-1,-49],[-8,83],[-41,14],[-32,55],[10,20],[63,-6],[32,41],[70,8]],[[1147,3075],[-19,32],[41,24],[0,-31],[-22,-25]],[[2033,2821],[33,-69],[-7,-63],[-49,-56],[-65,56],[9,-69],[-22,2],[-35,81],[-42,-5],[26,18],[-8,83],[24,-83],[20,1],[44,27],[-1,65],[42,4],[16,42],[15,-34]],[[2129,2794],[35,-31],[-57,-19],[-13,40],[35,10]],[[1314,3248],[33,7],[-4,-27],[-53,-14],[-12,45],[36,-11]],[[1100,3487],[35,14],[-23,-52],[-16,27],[-32,-13],[-3,57],[27,39],[12,-72]],[[1365,4015],[-59,42],[38,39],[29,0],[14,-67],[-22,-14]],[[1683,3437],[-31,1],[-6,25],[33,-7],[4,-19]],[[4088,2723],[3,23],[5,2],[0,-32],[-8,7]],[[656,2432],[19,27],[47,3],[0,58],[20,-6],[21,61],[49,-6],[3,-42],[32,-6],[23,-51],[-53,-26],[-34,-60],[-78,8],[-21,-29],[-28,69]],[[939,312],[5,81],[24,-3],[-14,26],[91,0],[0,-113],[-73,-29],[-33,38]],[[203,759],[12,44],[50,25],[12,-22],[-44,-20],[8,-40],[96,-9],[4,-44],[-54,-26],[19,-33],[26,7],[-3,-57],[-35,14],[-6,46],[-26,0],[56,72],[-82,2],[-33,41]],[[1662,2738],[19,36],[39,-45],[106,11],[11,-33],[-38,-51],[25,-9],[-65,3],[3,22],[-44,-16],[-2,44],[-54,38]],[[2674,302],[26,59],[66,54],[2,-71],[47,-70],[-33,-46],[-83,84],[-25,-10]],[[2140,3405],[71,20],[60,-16],[3,34],[-55,-10],[-13,36],[28,9],[-41,18],[41,48],[53,-32],[28,11],[43,60],[23,-37],[25,11],[27,-21],[-17,-25],[57,-21],[25,-57],[22,6],[2,-60],[-34,-11],[-6,-79],[30,-4],[1,-26],[-101,-15],[-110,84],[-54,-23],[5,56],[-113,44]],[[2753,3050],[24,43],[25,-4],[-2,31],[160,-57],[4,49],[57,5],[66,-39],[59,21],[-16,45],[38,-16],[16,26],[38,-125],[61,12],[7,-33],[30,26],[50,-10],[-1,-25],[-57,4],[-20,-36],[48,-19],[15,27],[49,-33],[-26,4],[-10,-30],[-47,8],[6,-19],[-18,16],[7,-46],[-105,-5],[0,-24],[-109,41],[-87,-12],[-48,24],[12,-126],[23,-15],[-18,-28],[-44,42],[2,55],[-84,99],[-63,-20],[19,83],[-61,61]],[[3129,3637],[9,24],[34,-8],[32,66],[23,-16],[12,39],[21,-9],[3,25],[-36,28],[10,26],[43,-23],[6,36],[-23,-12],[-39,83],[33,51],[-22,21],[35,39],[-16,89],[324,0],[-49,-38],[-138,-41],[18,-33],[-49,-52],[-1,-140],[-25,-44],[55,-51],[-37,-51],[-39,18],[-20,-33],[18,-54],[-142,3],[-40,57]]]}