{"objects":{"water":{"type":"GeometryCollection","geometries":[{"type":"MultiPolygon","properties":{"sort_rank":200,"source":"naturalearthdata.com","min_zoom":0.0,"kind":"lake","area":1028568481},"arcs":[[[294]]]},{"type":"LineString","properties":{"source":"naturalearthdata.com","kind":"lake","sort_rank":367,"boundary":true,"min_zoom":0.0,"id":706},"arcs":[295]}]},"buildings":{"type":"GeometryCollection","geometries":[]},"places":{"type":"GeometryCollection","geometries":[{"type":"Point","properties":{"name:sl":"Lublinsko","name:sk":"Lubelsk\u00e9","name:ja":"\u30eb\u30d6\u30ea\u30f3\u770c","name:lt":"Liublino vaivadija","name:ar":"\u0645\u062d\u0627\u0641\u0638\u0629 \u0644\u0648\u0628\u064a\u0644\u0633\u0643\u064a","name:cs":"Lublinsk\u00e9","name:eo":"Lublina Provinco","min_zoom":4.0,"name:uk":"\u041b\u044e\u0431\u043b\u0456\u043d\u0441\u044c\u043a\u0435 \u0432\u043e\u0454\u0432\u043e\u0434\u0441\u0442\u0432\u043e","name:be":"\u041b\u044e\u0431\u043b\u0456\u043d\u0441\u043a\u0430\u0435 \u0432\u0430\u044f\u0432\u043e\u0434\u0441\u0442\u0432\u0430","name:ru":"\u041b\u044e\u0431\u043b\u0438\u043d\u0441\u043a\u043e\u0435 \u0432\u043e\u0435\u0432\u043e\u0434\u0441\u0442\u0432\u043e","name:ka":"\u10da\u10e3\u10d1\u10da\u10d8\u10dc\u10d8\u10e1 \u10e1\u10d0\u10d5\u10dd\u10d4\u10d5\u10dd\u10d3\u10dd","id":505006035,"population":2166213,"kind":"region","name":"wojew\u00f3dztwo lubelskie","kind_detail":"state","source":"openstreetmap.org","name:zh":"\u5362\u5e03\u6797\u7701"},"coordinates":[218,2363]},{"type":"Point","properties":{"name:pt":"Oblast de Lviv","name:lt":"Lvovo sritis","name:eo":"Lviva Provinco","min_zoom":4.0,"name:be":"\u041b\u044c\u0432\u043e\u045e\u0441\u043a\u0430\u044f \u0432\u043e\u0431\u043b\u0430\u0441\u0446\u044c","name:ru":"\u041b\u044c\u0432\u043e\u0432\u0441\u043a\u0430\u044f \u043e\u0431\u043b\u0430\u0441\u0442\u044c","name:pl":"obw\u00f3d lwowski","id":683681607,"kind":"region","name:en":"Lviv Oblast","name":"\u041b\u044c\u0432\u0456\u0432\u0441\u044c\u043a\u0430 \u043e\u0431\u043b\u0430\u0441\u0442\u044c","kind_detail":"state","name:de":"Oblast Lemberg","source":"openstreetmap.org","name:fr":"Oblast de Lviv","name:es":"\u00d3blast de Lviv"},"coordinates":[1262,1423]},{"type":"Point","properties":{"int_name":"Bresckaja voblas\u0107","name:sk":"Brestsk\u00e1 oblas\u0165","name:lt":"Bresto sritis","name:eo":"Bresta Regiono","min_zoom":4.0,"name:uk":"\u0411\u0435\u0440\u0435\u0441\u0442\u0435\u0439\u0441\u044c\u043a\u0430 \u043e\u0431\u043b\u0430\u0441\u0442\u044c","name:be":"\u0411\u0440\u044d\u0441\u0446\u043a\u0430\u044f \u0432\u043e\u0431\u043b\u0430\u0441\u0446\u044c","name:pl":"obw\u00f3d brzeski","id":566296860,"kind":"region","name:en":"Brest region","name":"\u0411\u0440\u0435\u0441\u0442\u0441\u043a\u0430\u044f \u043e\u0431\u043b\u0430\u0441\u0442\u044c","kind_detail":"state","name:de":"Woblast Brest","source":"openstreetmap.org","name:fr":"Voblast de Brest"},"coordinates":[2006,4015]},{"type":"Point","properties":{"kind":"region","name:en":"Khmelnytskyi Oblast","name":"\u0425\u043c\u0435\u043b\u044c\u043d\u0438\u0446\u044c\u043a\u0430 \u043e\u0431\u043b\u0430\u0441\u0442\u044c","kind_detail":"state","name:eo":"\u0124melnickija Provinco","name:de":"Oblast Chmelnyzkyj","source":"openstreetmap.org","min_zoom":4.0,"name:fr":"Oblast de Khmelnytsky\u00ef","name:be":"\u0425\u043c\u044f\u043b\u044c\u043d\u0456\u0446\u043a\u0430\u044f \u0432\u043e\u0431\u043b\u0430\u0441\u0446\u044c","name:ru":"\u0425\u043c\u0435\u043b\u044c\u043d\u0438\u0446\u043a\u0430\u044f \u043e\u0431\u043b\u0430\u0441\u0442\u044c","name:pl":"obw\u00f3d chmielnicki","id":683681601},"coordinates":[3323,398]},{"type":"Point","properties":{"kind":"region","name:en":"Volyn Oblast","name":"\u0412\u043e\u043b\u0438\u043d\u0441\u044c\u043a\u0430 \u043e\u0431\u043b\u0430\u0441\u0442\u044c","kind_detail":"state","name:pt":"Oblast de Vol\u00ednia","name:de":"Oblast Wolhynien","source":"openstreetmap.org","min_zoom":4.0,"name:eo":"Volina Provinco","name:fr":"Oblast de Volhynie","name:be":"\u0412\u0430\u043b\u044b\u043d\u0441\u043a\u0430\u044f \u0432\u043e\u0431\u043b\u0430\u0441\u0446\u044c","name:ru":"\u0412\u043e\u043b\u044b\u043d\u0441\u043a\u0430\u044f \u043e\u0431\u043b\u0430\u0441\u0442\u044c","name:pl":"obw\u00f3d wo\u0142y\u0144ski","id":681769616,"name:es":"\u00d3blast de Volyn"},"coordinates":[1575,3017]},{"type":"Point","properties":{"kind":"region","name:en":"Rivne Oblast","name":"\u0420\u0456\u0432\u043d\u0435\u043d\u0441\u044c\u043a\u0430 \u043e\u0431\u043b\u0430\u0441\u0442\u044c","kind_detail":"state","name:pt":"Oblast de Rivne","name:de":"Oblast Riwne","source":"openstreetmap.org","min_zoom":4.0,"name:eo":"Rivna Provinco","name:fr":"Oblast de Rivne","name:be":"\u0420\u043e\u0432\u0435\u043d\u0441\u043a\u0430\u044f \u0432\u043e\u0431\u043b\u0430\u0441\u0446\u044c","name:ru":"\u0420\u043e\u0432\u0435\u043d\u0441\u043a\u0430\u044f \u043e\u0431\u043b\u0430\u0441\u0442\u044c","name:pl":"obw\u00f3d r\u00f3wie\u0144ski","id":681769620,"name:es":"\u00d3blast de Rivne"},"coordinates":[2928,2629]},{"type":"Point","properties":{"name:pt":"Oblast de Ternopil","name:ro":"Regiunea Ternopil","name:id":"Oblast Ternopil","name:ka":"\u10e2\u10d4\u10e0\u10dc\u10dd\u10de\u10dd\u10da\u10d8\u10e1 \u10dd\u10da\u10e5\u10d8","name:mr":"\u0924\u0947\u0930\u094d\u0928\u094b\u092a\u093f\u0932 \u0913\u092c\u094d\u0932\u093e\u0938\u094d\u0924","name:ko":"\ud14c\ub974\ub178\ud544 \uc8fc","name:ar":"\u062a\u064a\u0631\u0646\u0648\u0628\u0644 \u0623\u0648\u0628\u0644\u0627\u0633\u062a","name:cs":"Ternopilsk\u00e1 oblast","min_zoom":4.0,"name:it":"Oblast' di Ternopil'","name:zh-min-nan":"Ternopil s\u00e9ng","name:vi":"Ternopil (t\u1ec9nh)","name:pl":"Obw\u00f3d tarnopolski","id":683681604,"name:ca":"Prov\u00edncia de Tern\u00f3pill","name:fa":"\u0627\u0633\u062a\u0627\u0646 \u062a\u0631\u0646\u0648\u067e\u06cc\u0644","name:hu":"Ternopili ter\u00fclet","name:lt":"Ternopilio sritis","source":"openstreetmap.org","kind_detail":"state","name:sh":"Ternopiljska oblast","name:de":"Oblast Ternopil","name:tr":"Ternopil Oblast\u0131","name:fr":"Oblast de Ternopil","name:mk":"\u0422\u0435\u0440\u043d\u043e\u043f\u043e\u043b\u0441\u043a\u0430 \u043e\u0431\u043b\u0430\u0441\u0442","name:be":"\u0426\u044f\u0440\u043d\u043e\u043f\u0430\u043b\u044c\u0441\u043a\u0430\u044f \u0432\u043e\u0431\u043b\u0430\u0441\u0446\u044c","name:zh":"\u6377\u723e\u8afe\u6ce2\u723e\u5dde","name:lv":"Ternopi\u013cas apgabals","name:ja":"\u30c6\u30eb\u30ce\u30fc\u30d4\u30ea\u5dde","name:nn":"Ternopil oblast","name:no":"Ternopil oblast","name:he":"\u05de\u05d7\u05d5\u05d6 \u05d8\u05e8\u05e0\u05d5\u05e4\u05d5\u05dc","kind":"region","name:sk":"Ternopi\u013esk\u00e1 oblas\u0165","name:hy":"\u054f\u0565\u0580\u0576\u0578\u057a\u0578\u056c\u056b \u0574\u0561\u0580\u0566","name:ru":"\u0422\u0435\u0440\u043d\u043e\u043f\u043e\u043b\u044c\u0441\u043a\u0430\u044f \u043e\u0431\u043b\u0430\u0441\u0442\u044c","name:sv":"Ternopil oblast","name:bg":"\u0422\u0435\u0440\u043d\u043e\u043f\u043e\u043b\u0441\u043a\u0430 \u043e\u0431\u043b\u0430\u0441\u0442","name:hr":"Ternopiljska oblast","name:sr":"\u0422\u0435\u0440\u043d\u043e\u043f\u043e\u0459\u0441\u043a\u0430 \u043e\u0431\u043b\u0430\u0441\u0442","name:eo":"Ternopila Provinco","name:en":"Ternopil Oblast","name":"\u0422\u0435\u0440\u043d\u043e\u043f\u0456\u043b\u044c\u0441\u044c\u043a\u0430 \u043e\u0431\u043b\u0430\u0441\u0442\u044c","name:fi":"Ternopilin alue","name:eu":"Ternopilgo oblasta","name:et":"Ternopili oblast","name:nl":"Oblast Ternopil","name:es":"\u00d3blast de Tern\u00f3pil"},"coordinates":[2270,852]},{"type":"Point","properties":{"source":"naturalearthdata.com","kind":"locality","name":"Lvov","population":803880,"region_capital":true,"min_zoom":5.0,"id":6264},"coordinates":[1114,1050]},{"type":"Point","properties":{"source":"naturalearthdata.com","kind":"locality","name":"Brest","population":300715,"region_capital":true,"min_zoom":5.0,"id":6721},"coordinates":[874,3656]}]},"transit":{"type":"GeometryCollection","geometries":[{"type":"LineString","properties":{"source":"openstreetmap.org","kind":"train","sort_rank":275,"ref":"\u041a\u043e\u0432\u0435\u043b\u044c - \u041a\u0430\u043c\u0456\u043d\u044c-\u041a\u0430\u0448\u0438\u0440\u0441\u044c\u043a\u0438\u0439","min_zoom":6.0,"osm_relation":true,"id":-7505433},"arcs":[199]},{"type":"MultiLineString","properties":{"kind":"train","name":"142: \u041b\u044c\u0432\u0456\u0432-\u041a\u0438\u0457\u0432","service":"night","sort_rank":275,"source":"openstreetmap.org","min_zoom":6.0,"operator":"UZ","ref":"142: \u041b\u044c\u0432\u0456\u0432-\u041a\u0438\u0457\u0432","osm_relation":true},"arcs":[[200],[201],[202]]},{"type":"LineString","properties":{"source":"openstreetmap.org","kind":"train","name":"\u0411\u0440\u0435\u0441\u0442 - \u0413\u043e\u043c\u0435\u043b\u044c - \u041c\u043e\u0441\u043a\u0432\u0430","sort_rank":275,"min_zoom":6.0,"osm_relation":true},"arcs":[203]},{"type":"MultiLineString","properties":{"kind":"train","name":"Moscova - Chi\u015fin\u0103u","sort_rank":275,"name:de":"Moskau - Kischinau","source":"openstreetmap.org","min_zoom":6.0,"name:uk":"\u041c\u043e\u0441\u043a\u0432\u0430 - \u041a\u0456\u0448\u0456\u043d\u0435\u0443","operator":"CFM","ref":"341\u0424: Moscova - Chi\u015fin\u0103u","osm_relation":true,"network":"train"},"arcs":[[204],[205],[206]]},{"type":"MultiLineString","properties":{"sort_rank":275,"source":"openstreetmap.org","min_zoom":6.0,"kind":"train","osm_relation":true},"arcs":[[207],[208],[209],[210],[211],[212],[213],[214]]},{"type":"LineString","properties":{"source":"openstreetmap.org","kind":"train","sort_rank":275,"ref":"\u0410\u043d\u0442\u043e\u043d\u0456\u0432\u043a\u0430 - \u0417\u0430\u0440\u0456\u0447\u043d\u0435","min_zoom":6.0,"osm_relation":true},"arcs":[215]},{"type":"MultiLineString","properties":{"kind":"train","network":"train","sort_rank":275,"name:de":"Moskau - Kischinau","source":"openstreetmap.org","min_zoom":6.0,"name:uk":"\u041c\u043e\u0441\u043a\u0432\u0430 - \u041a\u0456\u0448\u0456\u043d\u0435\u0443","operator":"CFM","ref":"47\u0429: \u041c\u043e\u0441\u043a\u0432\u0430 - \u041a\u0438\u0448\u0438\u043d\u044d\u0443","osm_relation":true,"name":"\u041c\u043e\u0441\u043a\u0432\u0430 - \u041a\u0438\u0448\u0438\u043d\u044d\u0443"},"arcs":[[216],[217],[218]]},{"type":"MultiLineString","properties":{"source":"openstreetmap.org","kind":"train","sort_rank":275,"ref":"\u0411\u0440\u0435\u0441\u0442 - \u0412\u043b\u043e\u0434\u0430\u0432\u0430","min_zoom":6.0,"osm_relation":true},"arcs":[[219],[220],[221],[222],[223],[224],[225],[226]]},{"type":"MultiLineString","properties":{"kind":"train","name":"97: \u041a\u0438\u0457\u0432-\u041a\u043e\u0432\u0435\u043b\u044c","service":"night","sort_rank":275,"name:de":"97: Kiew-Kowel","source":"openstreetmap.org","min_zoom":6.0,"operator":"UZ","ref":"97: \u041a\u0438\u0457\u0432-\u041a\u043e\u0432\u0435\u043b\u044c","osm_relation":true},"arcs":[[227],[228],[229],[230],[231],[232]]},{"type":"LineString","properties":{"source":"openstreetmap.org","kind":"train","sort_rank":275,"ref":"\u044d\u043b. \u0411\u0440\u0435\u0441\u0442 - \u0411\u0430\u0440\u0430\u043d\u043e\u0432\u0438\u0447\u0438 - \u041c\u0438\u043d\u0441\u043a","min_zoom":6.0,"osm_relation":true},"arcs":[233]},{"type":"MultiLineString","properties":{"kind":"train","name":"Linia kolejowa nr 68 Lublin - Przeworsk","sort_rank":275,"source":"openstreetmap.org","min_zoom":6.0,"operator":"PKP Polskie Linie Kolejowe S.A.","ref":"68","osm_relation":true,"network":"PKP"},"arcs":[[234],[235],[236],[237],[238],[239]]},{"type":"MultiLineString","properties":{"kind":"train","name":"Linia kolejowa nr 91 Krak\u00f3w G\u0142\u00f3wny Osobowy - Medyka","sort_rank":275,"source":"openstreetmap.org","min_zoom":6.0,"operator":"PKP Polskie Linie Kolejowe S.A.","ref":"91","osm_relation":true,"network":"PKP"},"arcs":[[240],[241],[242]]},{"type":"MultiLineString","properties":{"kind":"train","name":"98: \u041a\u043e\u0432\u0435\u043b\u044c-\u041a\u0438\u0457\u0432","service":"night","sort_rank":275,"name:de":"98: Kowel-Kiew","source":"openstreetmap.org","min_zoom":6.0,"operator":"UZ","ref":"98: \u041a\u043e\u0432\u0435\u043b\u044c-\u041a\u0438\u0457\u0432","osm_relation":true},"arcs":[[243],[244],[245],[246],[247],[248]]},{"type":"LineString","properties":{"source":"openstreetmap.org","kind":"train","sort_rank":275,"ref":"\u0411\u0440\u0435\u0441\u0442 \u2014 \u0412\u044b\u0441\u043e\u043a\u043e\u0435","min_zoom":6.0,"osm_relation":true,"id":-317991},"arcs":[249]},{"type":"MultiLineString","properties":{"kind":"train","name":"Warszawa - Moskwa","sort_rank":275,"source":"openstreetmap.org","min_zoom":6.0,"name:ru":"\u0412\u0430\u0440\u0448\u0430\u0432\u0430 - \u041c\u043e\u0441\u043a\u0432\u0430","name:be":"\u0412\u0430\u0440\u0448\u0430\u0432\u0430 - \u041c\u0430\u0441\u043a\u0432\u0430","ref":"Warszawa - Moskwa","osm_relation":true},"arcs":[[250],[251],[252],[253]]},{"type":"MultiLineString","properties":{"source":"openstreetmap.org","kind":"train","sort_rank":275,"ref":"\u0411\u0440\u0435\u0441\u0442 - \u0417\u0430\u0431\u043e\u043b\u043e\u0442\u044c\u0435","min_zoom":6.0,"osm_relation":true},"arcs":[[254],[255],[256],[257]]},{"type":"MultiLineString","properties":{"kind":"train","name":"141: \u041a\u0438\u0457\u0432-\u041b\u044c\u0432\u0456\u0432","service":"night","sort_rank":275,"source":"openstreetmap.org","min_zoom":6.0,"operator":"UZ","ref":"141: \u041a\u0438\u0457\u0432-\u041b\u044c\u0432\u0456\u0432","osm_relation":true},"arcs":[[258],[259],[260],[261]]},{"type":"LineString","properties":{"kind":"train","name":"Line 69","sort_rank":275,"source":"openstreetmap.org","min_zoom":6.0,"ref":"69","id":-6773304,"osm_relation":true},"arcs":[262]},{"type":"MultiLineString","properties":{"source":"openstreetmap.org","kind":"train","name":"Line 31 Siedlce - Hajn\u00f3wka","sort_rank":275,"ref":"31","min_zoom":6.0,"osm_relation":true},"arcs":[[263],[264]]},{"type":"LineString","properties":{"kind":"train","name":"Line 72","sort_rank":275,"source":"openstreetmap.org","min_zoom":6.0,"ref":"72","id":-6773327,"osm_relation":true},"arcs":[265]},{"type":"LineString","properties":{"kind":"train","name":"EN 452 : Moscou \u2212 Berlin \u2212 Paris","service":"international","sort_rank":275,"source":"openstreetmap.org","min_zoom":5.0,"operator":"\u0420\u043e\u0441\u0441\u0438\u0439\u0441\u043a\u0438\u0435 \u0436\u0435\u043b\u0435\u0437\u043d\u044b\u0435 \u0434\u043e\u0440\u043e\u0433\u0438","ref":"EN 452","osm_relation":true,"network":"EuroNight"},"arcs":[266]},{"type":"MultiLineString","properties":{"source":"openstreetmap.org","kind":"train","name":"Line 101","sort_rank":275,"ref":"101","min_zoom":6.0,"osm_relation":true},"arcs":[[267],[268],[269]]},{"type":"LineString","properties":{"source":"openstreetmap.org","kind":"train","sort_rank":275,"ref":"\u041a\u043e\u0432\u0435\u043b\u044c - \u0425\u043e\u0442\u0438\u0441\u043b\u0430\u0432","min_zoom":6.0,"osm_relation":true},"arcs":[270]},{"type":"MultiLineString","properties":{"kind":"train","name":"Linia kolejowa nr 7 Warszawa Wschodnia Osobowa - Dorohusk","sort_rank":275,"source":"openstreetmap.org","min_zoom":6.0,"operator":"PKP Polskie Linie Kolejowe S.A.","ref":"7","osm_relation":true,"network":"PKP"},"arcs":[[271],[272],[273]]},{"type":"LineString","properties":{"kind":"train","name:en":"EN 453 : Paris \u2212 Berlin \u2212 Moscow","network":"EuroNight","service":"international","sort_rank":275,"source":"openstreetmap.org","min_zoom":5.0,"operator":"\u0420\u043e\u0441\u0441\u0438\u0439\u0441\u043a\u0438\u0435 \u0436\u0435\u043b\u0435\u0437\u043d\u044b\u0435 \u0434\u043e\u0440\u043e\u0433\u0438","ref":"EN 453","osm_relation":true,"name":"EN 453 : Paris \u2212 Berlin \u2212 Moscou"},"arcs":[274]},{"type":"MultiLineString","properties":{"source":"openstreetmap.org","kind":"train","name":"Medyka - \u041b\u044c\u0432\u0456\u0432","sort_rank":275,"min_zoom":6.0,"osm_relation":true},"arcs":[[275],[276],[277],[278],[279],[280],[281],[282],[283],[284],[285],[286],[287],[288],[289],[290],[291],[292],[293]]}]},"pois":{"type":"GeometryCollection","geometries":[{"type":"Point","properties":{"kind":"national_park","name:en":"Uzhanskyi National Nature Park","protect_class":"2","area":887675000,"name:de":"Nationaler Naturpark Uzhanskyi","source":"openstreetmap.org","min_zoom":5.89,"tier":1,"id":-6446164,"osm_relation":true,"name":"\u0423\u0436\u0430\u043d\u0441\u044c\u043a\u0438\u0439 \u043d\u0430\u0446\u0456\u043e\u043d\u0430\u043b\u044c\u043d\u0438\u0439 \u043f\u0440\u0438\u0440\u043e\u0434\u043d\u0438\u0439 \u043f\u0430\u0440\u043a"},"coordinates":[145,85]},{"type":"Point","properties":{"kind":"national_park","protect_class":"2","area":193854000,"name:de":"Nationalpark Polesie","source":"openstreetmap.org","min_zoom":6.99,"tier":1,"id":-6248221,"osm_relation":true,"name":"Poleski Park Narodowy"},"coordinates":[534,2906]},{"type":"Point","properties":{"kind":"national_park","name:en":"Bieszczady National Park","protect_class":"2","area":649468000,"name:de":"Beskiden-Nationalpark","source":"openstreetmap.org","min_zoom":6.12,"name:uk":"\u0411\u0435\u0449\u0430\u0434\u0441\u044c\u043a\u0438\u0439 \u043d\u0430\u0446\u0456\u043e\u043d\u0430\u043b\u044c\u043d\u0438\u0439 \u043f\u0430\u0440\u043a","tier":1,"id":-5497863,"osm_relation":true,"name":"Bieszczadzki Park Narodowy"},"coordinates":[65,227]},{"type":"Point","properties":{"kind":"nature_reserve","name:en":"Pripyat National Park","tier":2,"protect_class":"2","area":1747450000,"name:de":"Nationalpark Prypjat","source":"openstreetmap.org","min_zoom":6.9,"operator":"\u0423\u043f\u0440\u0430\u0432\u043b\u0435\u043d\u0438\u0435 \u0434\u0435\u043b\u0430\u043c\u0438 \u041f\u0440\u0435\u0437\u0438\u0434\u0435\u043d\u0442\u0430 \u0420\u0411","name:be":"\u041d\u0430\u0446\u044b\u044f\u043d\u0430\u043b\u044c\u043d\u044b \u043f\u0430\u0440\u043a \u00ab\u041f\u0440\u044b\u043f\u044f\u0446\u043a\u0456\u00bb","name:pl":"Prypecki Park Narodowy","id":-3875969,"osm_relation":true,"name":"\u041d\u0430\u0446\u0438\u043e\u043d\u0430\u043b\u044c\u043d\u044b\u0439 \u043f\u0430\u0440\u043a \u00ab\u041f\u0440\u0438\u043f\u044f\u0442\u0441\u043a\u0438\u0439\u00bb"},"coordinates":[3997,3526]},{"type":"Point","properties":{"kind":"national_park","name:en":"National Nature Park Skolivski Beskydy","protect_class":"2","area":643922000,"name:de":"Nationalpark Skoler Beskiden","source":"openstreetmap.org","min_zoom":6.12,"tier":1,"name:ru":"\u041d\u0430\u0446\u0438\u043e\u043d\u0430\u043b\u044c\u043d\u044b\u0439 \u043f\u0440\u0438\u0440\u043e\u0434\u043d\u044b\u0439 \u043f\u0430\u0440\u043a \u00ab\u0421\u043a\u043e\u043b\u0435\u0432\u0441\u043a\u0438\u0435 \u0411\u0435\u0441\u043a\u0438\u0434\u044b\u00bb","name:pl":"Park Narodowy Beskidy Skolskie","id":-2434313,"osm_relation":true,"name":"\u041d\u0430\u0446\u0456\u043e\u043d\u0430\u043b\u044c\u043d\u0438\u0439 \u043f\u0440\u0438\u0440\u043e\u0434\u043d\u0438\u0439 \u043f\u0430\u0440\u043a \u00ab\u0421\u043a\u043e\u043b\u0456\u0432\u0441\u044c\u043a\u0456 \u0411\u0435\u0441\u043a\u0438\u0434\u0438\u00bb"},"coordinates":[648,165]},{"type":"Point","properties":{"kind":"national_park","protect_class":"2","area":209869000,"source":"openstreetmap.org","min_zoom":6.93,"tier":1,"id":-2125165,"osm_relation":true,"name":"Roztocza\u0144ski Park Narodowy"},"coordinates":[411,1923]}]},"boundaries":{"type":"GeometryCollection","geometries":[{"type":"LineString","properties":{"source":"naturalearthdata.com","kind":"country","sort_rank":262,"kind_detail":"2","min_zoom":0.0,"id":99},"arcs":[0]},{"type":"MultiLineString","properties":{"source":"naturalearthdata.com","kind":"country","sort_rank":262,"kind_detail":"2","min_zoom":0.0,"id":44},"arcs":[[1],[2],[3],[4],[5],[6],[7],[8],[9],[10],[11],[12],[13],[14],[15],[16],[17],[18],[19],[20],[21],[22]]},{"type":"LineString","properties":{"source":"naturalearthdata.com","kind":"country","sort_rank":262,"kind_detail":"2","min_zoom":0.0,"id":92},"arcs":[23]},{"type":"MultiLineString","properties":{"source":"naturalearthdata.com","kind":"country","sort_rank":262,"kind_detail":"2","min_zoom":0.0,"id":233},"arcs":[[24],[25],[26],[27],[28],[29],[30],[31],[32],[33],[34]]},{"type":"MultiLineString","properties":{"source":"naturalearthdata.com","kind":"country","sort_rank":262,"kind_detail":"2","min_zoom":0.0,"id":232},"arcs":[[35],[36],[37],[38],[39],[40],[41],[42],[43],[44],[45],[46],[47]]},{"type":"LineString","properties":{"source":"naturalearthdata.com","kind":"region","sort_rank":256,"kind_detail":"4","min_zoom":5.5,"id":1439},"arcs":[48]},{"type":"MultiLineString","properties":{"source":"naturalearthdata.com","kind":"region","sort_rank":256,"kind_detail":"4","min_zoom":5.5,"id":978},"arcs":[[49],[50],[51]]},{"type":"MultiLineString","properties":{"source":"naturalearthdata.com","kind":"region","sort_rank":256,"kind_detail":"4","min_zoom":5.5,"id":977},"arcs":[[52],[53],[54],[55],[56],[57],[58],[59],[60],[61],[62],[63],[64],[65],[66],[67],[68],[69],[70],[71],[72],[73],[74]]},{"type":"MultiLineString","properties":{"source":"naturalearthdata.com","kind":"region","sort_rank":256,"kind_detail":"4","min_zoom":5.5,"id":984},"arcs":[[75],[76],[77],[78],[79],[80],[81]]},{"type":"MultiLineString","properties":{"source":"naturalearthdata.com","kind":"region","sort_rank":256,"kind_detail":"4","min_zoom":5.5,"id":985},"arcs":[[82],[83],[84],[85],[86],[87],[88],[89]]},{"type":"MultiLineString","properties":{"source":"naturalearthdata.com","kind":"region","sort_rank":256,"kind_detail":"4","min_zoom":5.5,"id":986},"arcs":[[90],[91],[92],[93],[94],[95],[96],[97],[98],[99],[100],[101]]},{"type":"LineString","properties":{"source":"naturalearthdata.com","kind":"region","sort_rank":256,"kind_detail":"4","min_zoom":5.5,"id":987},"arcs":[102]},{"type":"MultiLineString","properties":{"source":"naturalearthdata.com","kind":"region","sort_rank":256,"kind_detail":"4","min_zoom":5.5,"id":1002},"arcs":[[103],[104],[105],[106],[107],[108],[109],[110],[111],[112],[113],[114],[115],[116]]},{"type":"MultiLineString","properties":{"source":"naturalearthdata.com","kind":"region","sort_rank":256,"kind_detail":"4","min_zoom":5.5,"id":1003},"arcs":[[117],[118],[119]]},{"type":"MultiLineString","properties":{"source":"naturalearthdata.com","kind":"region","sort_rank":256,"kind_detail":"4","min_zoom":5.5,"id":1433},"arcs":[[120],[121],[122],[123],[124]]},{"type":"MultiLineString","properties":{"source":"naturalearthdata.com","kind":"region","sort_rank":256,"kind_detail":"4","min_zoom":5.5,"id":1440},"arcs":[[125],[126],[127],[128],[129],[130],[131],[132],[133]]},{"type":"MultiLineString","properties":{"source":"naturalearthdata.com","kind":"region","sort_rank":256,"kind_detail":"4","min_zoom":5.5,"id":1442},"arcs":[[134],[135],[136],[137],[138],[139],[140],[141],[142],[143],[144],[145],[146],[147],[148],[149],[150],[151],[152],[153],[154]]},{"type":"MultiLineString","properties":{"source":"naturalearthdata.com","kind":"region","sort_rank":256,"kind_detail":"4","min_zoom":5.5,"id":1450},"arcs":[[155],[156],[157]]},{"type":"MultiLineString","properties":{"source":"naturalearthdata.com","kind":"region","sort_rank":256,"kind_detail":"4","min_zoom":5.5,"id":1451},"arcs":[[158],[159],[160],[161],[162],[163],[164],[165],[166]]},{"type":"LineString","properties":{"source":"naturalearthdata.com","kind":"region","sort_rank":256,"kind_detail":"4","min_zoom":5.0,"id":4800},"arcs":[167]},{"type":"MultiLineString","properties":{"source":"naturalearthdata.com","kind":"region","sort_rank":256,"kind_detail":"4","min_zoom":5.0,"id":4801},"arcs":[[168],[169],[170],[171],[172],[173]]},{"type":"LineString","properties":{"source":"naturalearthdata.com","kind":"region","sort_rank":256,"kind_detail":"4","min_zoom":5.0,"id":4802},"arcs":[174]},{"type":"MultiLineString","properties":{"source":"naturalearthdata.com","kind":"region","sort_rank":256,"kind_detail":"4","min_zoom":5.5,"id":6552},"arcs":[[175],[176],[177],[178],[179],[180],[181],[182],[183],[184]]},{"type":"MultiLineString","properties":{"source":"naturalearthdata.com","kind":"region","sort_rank":256,"kind_detail":"4","min_zoom":5.5,"id":6570},"arcs":[[185],[186],[187]]},{"type":"MultiLineString","properties":{"source":"naturalearthdata.com","kind":"region","sort_rank":256,"kind_detail":"4","min_zoom":5.5,"id":6571},"arcs":[[188],[189],[190],[191]]},{"type":"MultiLineString","properties":{"source":"naturalearthdata.com","kind":"region","sort_rank":256,"kind_detail":"4","min_zoom":5.5,"id":6573},"arcs":[[192],[193],[194],[195],[196],[197],[198]]}]},"roads":{"type":"GeometryCollection","geometries":[{"type":"LineString","properties":{"source":"naturalearthdata.com","kind":"major_road","kind_detail":"primary","sort_rank":380,"landuse_kind":"nature_reserve","min_zoom":3.0,"id":4718},"arcs":[296]},{"type":"MultiLineString","properties":{"source":"naturalearthdata.com","kind":"major_road","sort_rank":380,"kind_detail":"primary","min_zoom":3.0,"id":4718},"arcs":[[297],[298]]},{"type":"LineString","properties":{"source":"naturalearthdata.com","kind":"major_road","sort_rank":380,"kind_detail":"primary","min_zoom":3.0,"id":4729},"arcs":[299]},{"type":"LineString","properties":{"source":"naturalearthdata.com","kind":"major_road","kind_detail":"primary","sort_rank":380,"landuse_kind":"urban_area","min_zoom":3.0,"id":4730},"arcs":[300]},{"type":"MultiLineString","properties":{"source":"naturalearthdata.com","kind":"major_road","sort_rank":380,"kind_detail":"primary","min_zoom":3.0,"id":4730},"arcs":[[301],[302]]},{"type":"MultiLineString","properties":{"source":"naturalearthdata.com","kind":"major_road","kind_detail":"primary","sort_rank":380,"landuse_kind":"urban_area","min_zoom":3.0,"id":4731},"arcs":[[303],[304]]},{"type":"MultiLineString","properties":{"source":"naturalearthdata.com","kind":"major_road","sort_rank":380,"kind_detail":"primary","min_zoom":3.0,"id":4731},"arcs":[[305],[306],[307]]},{"type":"LineString","properties":{"kind":"highway","network":"e-road","sort_rank":383,"kind_detail":"motorway","source":"naturalearthdata.com","min_zoom":3.0,"shield_text":"30","id":4732},"arcs":[308]},{"type":"LineString","properties":{"source":"naturalearthdata.com","kind":"major_road","kind_detail":"primary","sort_rank":380,"landuse_kind":"urban_area","min_zoom":3.0,"id":4746},"arcs":[309]},{"type":"LineString","properties":{"source":"naturalearthdata.com","kind":"major_road","sort_rank":380,"kind_detail":"primary","min_zoom":3.0,"id":4746},"arcs":[310]},{"type":"LineString","properties":{"source":"naturalearthdata.com","kind":"major_road","sort_rank":380,"kind_detail":"primary","min_zoom":3.0,"id":4747},"arcs":[311]},{"type":"LineString","properties":{"source":"naturalearthdata.com","kind":"major_road","kind_detail":"primary","sort_rank":380,"landuse_kind":"urban_area","min_zoom":3.0,"id":4748},"arcs":[312]},{"type":"MultiLineString","properties":{"source":"naturalearthdata.com","kind":"major_road","sort_rank":380,"kind_detail":"primary","min_zoom":3.0,"id":4748},"arcs":[[313],[314]]},{"type":"LineString","properties":{"source":"naturalearthdata.com","kind":"major_road","kind_detail":"primary","sort_rank":380,"landuse_kind":"urban_area","min_zoom":3.0,"id":4749},"arcs":[315]},{"type":"LineString","properties":{"source":"naturalearthdata.com","kind":"major_road","kind_detail":"primary","sort_rank":380,"landuse_kind":"urban_area","min_zoom":3.0,"id":4749},"arcs":[316]},{"type":"MultiLineString","properties":{"source":"naturalearthdata.com","kind":"major_road","sort_rank":380,"kind_detail":"primary","min_zoom":3.0,"id":4749},"arcs":[[317],[318]]},{"type":"LineString","properties":{"source":"naturalearthdata.com","kind":"major_road","kind_detail":"primary","sort_rank":380,"landuse_kind":"urban_area","min_zoom":4.0,"id":4977},"arcs":[319]},{"type":"MultiLineString","properties":{"source":"naturalearthdata.com","kind":"major_road","sort_rank":380,"kind_detail":"primary","min_zoom":4.0,"id":4977},"arcs":[[320],[321]]},{"type":"LineString","properties":{"source":"naturalearthdata.com","kind":"major_road","kind_detail":"primary","sort_rank":380,"landuse_kind":"urban_area","min_zoom":3.0,"id":4978},"arcs":[322]},{"type":"MultiLineString","properties":{"source":"naturalearthdata.com","kind":"major_road","sort_rank":380,"kind_detail":"primary","min_zoom":3.0,"id":4978},"arcs":[[323],[324]]},{"type":"LineString","properties":{"source":"naturalearthdata.com","kind":"major_road","kind_detail":"secondary","sort_rank":379,"landuse_kind":"urban_area","min_zoom":3.0,"id":4979},"arcs":[325]},{"type":"LineString","properties":{"source":"naturalearthdata.com","kind":"major_road","sort_rank":379,"kind_detail":"secondary","min_zoom":3.0,"id":4979},"arcs":[326]},{"type":"LineString","properties":{"source":"naturalearthdata.com","kind":"major_road","kind_detail":"primary","sort_rank":380,"landuse_kind":"urban_area","min_zoom":3.0,"id":4980},"arcs":[327]},{"type":"MultiLineString","properties":{"source":"naturalearthdata.com","kind":"major_road","sort_rank":380,"kind_detail":"primary","min_zoom":3.0,"id":4980},"arcs":[[328],[329]]},{"type":"LineString","properties":{"source":"naturalearthdata.com","kind":"major_road","sort_rank":380,"kind_detail":"primary","min_zoom":3.0,"id":4981},"arcs":[330]},{"type":"LineString","properties":{"source":"naturalearthdata.com","kind":"major_road","sort_rank":380,"kind_detail":"primary","min_zoom":3.0,"id":4982},"arcs":[331]},{"type":"LineString","properties":{"source":"naturalearthdata.com","kind":"major_road","kind_detail":"primary","sort_rank":380,"landuse_kind":"urban_area","min_zoom":3.0,"id":4983},"arcs":[332]},{"type":"MultiLineString","properties":{"source":"naturalearthdata.com","kind":"major_road","sort_rank":380,"kind_detail":"primary","min_zoom":3.0,"id":4983},"arcs":[[333],[334]]},{"type":"LineString","properties":{"source":"naturalearthdata.com","kind":"major_road","sort_rank":380,"kind_detail":"primary","min_zoom":3.0,"id":4986},"arcs":[335]},{"type":"LineString","properties":{"source":"naturalearthdata.com","kind":"major_road","kind_detail":"primary","sort_rank":380,"landuse_kind":"urban_area","min_zoom":3.0,"id":4987},"arcs":[336]},{"type":"LineString","properties":{"source":"naturalearthdata.com","kind":"major_road","sort_rank":380,"kind_detail":"primary","min_zoom":3.0,"id":4987},"arcs":[337]},{"type":"LineString","properties":{"source":"naturalearthdata.com","kind":"major_road","kind_detail":"primary","sort_rank":380,"landuse_kind":"urban_area","min_zoom":3.0,"id":4991},"arcs":[338]},{"type":"MultiLineString","properties":{"source":"naturalearthdata.com","kind":"major_road","sort_rank":380,"kind_detail":"primary","min_zoom":3.0,"id":4991},"arcs":[[339],[340]]},{"type":"LineString","properties":{"source":"naturalearthdata.com","kind":"major_road","kind_detail":"primary","sort_rank":380,"landuse_kind":"urban_area","min_zoom":3.0,"id":4992},"arcs":[341]},{"type":"LineString","properties":{"source":"naturalearthdata.com","kind":"major_road","kind_detail":"primary","sort_rank":380,"landuse_kind":"urban_area","min_zoom":3.0,"id":4992},"arcs":[342]},{"type":"LineString","properties":{"source":"naturalearthdata.com","kind":"major_road","kind_detail":"primary","sort_rank":380,"landuse_kind":"urban_area","min_zoom":3.0,"id":4992},"arcs":[343]},{"type":"MultiLineString","properties":{"source":"naturalearthdata.com","kind":"major_road","sort_rank":380,"kind_detail":"primary","min_zoom":3.0,"id":4992},"arcs":[[344],[345],[346]]},{"type":"LineString","properties":{"source":"naturalearthdata.com","kind":"major_road","sort_rank":380,"kind_detail":"primary","min_zoom":3.0,"id":4993},"arcs":[347]},{"type":"LineString","properties":{"source":"naturalearthdata.com","kind":"major_road","sort_rank":380,"kind_detail":"primary","min_zoom":3.0,"id":4994},"arcs":[348]},{"type":"LineString","properties":{"source":"naturalearthdata.com","kind":"major_road","kind_detail":"primary","sort_rank":380,"landuse_kind":"urban_area","min_zoom":3.0,"id":4995},"arcs":[349]},{"type":"LineString","properties":{"source":"naturalearthdata.com","kind":"major_road","sort_rank":380,"kind_detail":"primary","min_zoom":3.0,"id":4995},"arcs":[350]},{"type":"LineString","properties":{"source":"naturalearthdata.com","kind":"major_road","kind_detail":"primary","sort_rank":380,"landuse_kind":"national_park","min_zoom":3.0,"id":5035},"arcs":[351]},{"type":"LineString","properties":{"source":"naturalearthdata.com","kind":"major_road","sort_rank":380,"kind_detail":"primary","min_zoom":3.0,"id":5035},"arcs":[352]},{"type":"LineString","properties":{"source":"naturalearthdata.com","kind":"major_road","kind_detail":"primary","sort_rank":380,"landuse_kind":"urban_area","min_zoom":4.0,"id":5043},"arcs":[353]},{"type":"LineString","properties":{"source":"naturalearthdata.com","kind":"major_road","sort_rank":380,"kind_detail":"primary","min_zoom":4.0,"id":5043},"arcs":[354]},{"type":"LineString","properties":{"source":"naturalearthdata.com","kind":"major_road","sort_rank":380,"kind_detail":"primary","min_zoom":3.0,"id":5091},"arcs":[355]},{"type":"LineString","properties":{"source":"naturalearthdata.com","kind":"major_road","sort_rank":380,"kind_detail":"primary","min_zoom":6.0,"id":5460},"arcs":[356]},{"type":"LineString","properties":{"source":"naturalearthdata.com","kind":"major_road","sort_rank":380,"kind_detail":"primary","min_zoom":6.0,"id":5461},"arcs":[357]},{"type":"LineString","properties":{"source":"naturalearthdata.com","kind":"major_road","kind_detail":"secondary","sort_rank":379,"landuse_kind":"urban_area","min_zoom":6.0,"id":5462},"arcs":[358]},{"type":"MultiLineString","properties":{"source":"naturalearthdata.com","kind":"major_road","sort_rank":379,"kind_detail":"secondary","min_zoom":6.0,"id":5462},"arcs":[[359],[360]]},{"type":"LineString","properties":{"source":"naturalearthdata.com","kind":"major_road","kind_detail":"primary","sort_rank":380,"landuse_kind":"urban_area","min_zoom":6.0,"id":5463},"arcs":[361]},{"type":"MultiLineString","properties":{"source":"naturalearthdata.com","kind":"major_road","sort_rank":380,"kind_detail":"primary","min_zoom":6.0,"id":5463},"arcs":[[362],[363]]},{"type":"LineString","properties":{"source":"naturalearthdata.com","kind":"major_road","sort_rank":379,"kind_detail":"secondary","min_zoom":6.0,"id":5464},"arcs":[364]},{"type":"LineString","properties":{"source":"naturalearthdata.com","kind":"major_road","kind_detail":"primary","sort_rank":380,"landuse_kind":"urban_area","min_zoom":6.0,"id":5465},"arcs":[365]},{"type":"LineString","properties":{"source":"naturalearthdata.com","kind":"major_road","sort_rank":380,"kind_detail":"primary","min_zoom":6.0,"id":5465},"arcs":[366]},{"type":"MultiLineString","properties":{"source":"naturalearthdata.com","kind":"major_road","kind_detail":"primary","sort_rank":380,"landuse_kind":"urban_area","min_zoom":6.0,"id":5516},"arcs":[[367],[368]]},{"type":"MultiLineString","properties":{"source":"naturalearthdata.com","kind":"major_road","sort_rank":380,"kind_detail":"primary","min_zoom":6.0,"id":5516},"arcs":[[369],[370]]},{"type":"MultiLineString","properties":{"source":"naturalearthdata.com","kind":"major_road","kind_detail":"primary","sort_rank":380,"landuse_kind":"nature_reserve","min_zoom":6.0,"id":5517},"arcs":[[371],[372]]},{"type":"MultiLineString","properties":{"source":"naturalearthdata.com","kind":"major_road","kind_detail":"primary","sort_rank":380,"landuse_kind":"urban_area","min_zoom":6.0,"id":5517},"arcs":[[373],[374]]},{"type":"MultiLineString","properties":{"source":"naturalearthdata.com","kind":"major_road","sort_rank":380,"kind_detail":"primary","min_zoom":6.0,"id":5517},"arcs":[[375],[376],[377],[378],[379]]},{"type":"LineString","properties":{"source":"naturalearthdata.com","kind":"major_road","sort_rank":380,"kind_detail":"primary","min_zoom":6.0,"id":5518},"arcs":[380]},{"type":"LineString","properties":{"source":"naturalearthdata.com","kind":"major_road","kind_detail":"primary","sort_rank":380,"landuse_kind":"urban_area","min_zoom":6.0,"id":5730},"arcs":[381]},{"type":"LineString","properties":{"source":"naturalearthdata.com","kind":"major_road","sort_rank":380,"kind_detail":"primary","min_zoom":6.0,"id":5730},"arcs":[382]},{"type":"LineString","properties":{"source":"naturalearthdata.com","kind":"major_road","kind_detail":"secondary","sort_rank":379,"landuse_kind":"urban_area","min_zoom":6.0,"id":5731},"arcs":[383]},{"type":"LineString","properties":{"source":"naturalearthdata.com","kind":"major_road","sort_rank":379,"kind_detail":"secondary","min_zoom":6.0,"id":5731},"arcs":[384]},{"type":"LineString","properties":{"source":"naturalearthdata.com","kind":"major_road","kind_detail":"primary","sort_rank":380,"landuse_kind":"urban_area","min_zoom":6.0,"id":5732},"arcs":[385]},{"type":"LineString","properties":{"source":"naturalearthdata.com","kind":"major_road","kind_detail":"primary","sort_rank":380,"landuse_kind":"urban_area","min_zoom":6.0,"id":5732},"arcs":[386]},{"type":"MultiLineString","properties":{"source":"naturalearthdata.com","kind":"major_road","sort_rank":380,"kind_detail":"primary","min_zoom":6.0,"id":5732},"arcs":[[387],[388],[389]]},{"type":"LineString","properties":{"source":"naturalearthdata.com","kind":"major_road","kind_detail":"primary","sort_rank":380,"landuse_kind":"urban_area","min_zoom":6.0,"id":5961},"arcs":[390]},{"type":"MultiLineString","properties":{"source":"naturalearthdata.com","kind":"major_road","sort_rank":380,"kind_detail":"primary","min_zoom":6.0,"id":5961},"arcs":[[391],[392]]},{"type":"LineString","properties":{"source":"naturalearthdata.com","kind":"major_road","sort_rank":380,"kind_detail":"primary","min_zoom":6.0,"id":5962},"arcs":[393]},{"type":"LineString","properties":{"source":"naturalearthdata.com","kind":"major_road","kind_detail":"primary","sort_rank":380,"landuse_kind":"nature_reserve","min_zoom":4.0,"id":8068},"arcs":[394]},{"type":"LineString","properties":{"source":"naturalearthdata.com","kind":"major_road","kind_detail":"primary","sort_rank":380,"landuse_kind":"urban_area","min_zoom":4.0,"id":8068},"arcs":[395]},{"type":"MultiLineString","properties":{"source":"naturalearthdata.com","kind":"major_road","sort_rank":380,"kind_detail":"primary","min_zoom":4.0,"id":8068},"arcs":[[396],[397],[398]]},{"type":"LineString","properties":{"source":"naturalearthdata.com","kind":"major_road","kind_detail":"secondary","sort_rank":379,"landuse_kind":"nature_reserve","min_zoom":6.0,"id":55093},"arcs":[399]},{"type":"LineString","properties":{"source":"naturalearthdata.com","kind":"major_road","kind_detail":"secondary","sort_rank":379,"landuse_kind":"urban_area","min_zoom":6.0,"id":55093},"arcs":[400]},{"type":"MultiLineString","properties":{"source":"naturalearthdata.com","kind":"major_road","sort_rank":379,"kind_detail":"secondary","min_zoom":6.0,"id":55093},"arcs":[[401],[402]]},{"type":"LineString","properties":{"source":"naturalearthdata.com","kind":"major_road","kind_detail":"secondary","sort_rank":379,"landuse_kind":"urban_area","min_zoom":6.0,"id":55416},"arcs":[403]}]},"earth":{"type":"GeometryCollection","geometries":[{"type":"Polygon","properties":{"sort_rank":10,"source":"naturalearthdata.com","min_zoom":0.0,"kind":"earth","area":1568366174169},"arcs":[[404]]}]},"landuse":{"type":"GeometryCollection","geometries":[{"type":"MultiPolygon","properties":{"kind":"national_park","protect_class":"2","area":11221357067,"sort_rank":18,"source":"openstreetmap.org","min_zoom":3.0,"tier":1,"osm_relation":true},"arcs":[[[405],[406]],[[407]]]},{"type":"MultiPolygon","properties":{"kind":"nature_reserve","protect_class":"5","area":5760602442,"sort_rank":23,"source":"openstreetmap.org","min_zoom":6.0,"tier":2,"osm_relation":true},"arcs":[[[408]],[[409]],[[410]],[[411]],[[412]],[[413]],[[414]],[[415]],[[416]],[[417]],[[418]],[[419]],[[420],[421]]]},{"type":"MultiPolygon","properties":{"kind":"nature_reserve","tier":2,"protect_class":"2","area":8197819164,"sort_rank":23,"source":"openstreetmap.org","min_zoom":4.0,"operator":"\u0423\u043f\u0440\u0430\u0432\u043b\u0435\u043d\u0438\u0435 \u0434\u0435\u043b\u0430\u043c\u0438 \u041f\u0440\u0435\u0437\u0438\u0434\u0435\u043d\u0442\u0430 \u0420\u0411","osm_relation":true},"arcs":[[[422]],[[423]],[[424]]]},{"type":"MultiPolygon","properties":{"source":"openstreetmap.org","kind":"park","tier":2,"area":1903216840,"sort_rank":24,"min_zoom":6.0,"osm_relation":true},"arcs":[[[425]]]},{"type":"Polygon","properties":{"kind":"nature_reserve","protect_class":"3","area":460808000,"sort_rank":23,"source":"openstreetmap.org","min_zoom":6.0,"tier":2,"id":-6449022,"osm_relation":true},"arcs":[[426]]},{"type":"Polygon","properties":{"kind":"protected_area","protect_class":"98","area":336328000,"sort_rank":17,"operator":"\u041f\u0440\u0438\u0440\u043e\u0434\u043d\u0438\u0439 \u0437\u0430\u043f\u043e\u0432\u0456\u0434\u043d\u0438\u043a \u00ab\u0420\u0456\u0432\u043d\u0435\u043d\u0441\u044c\u043a\u0438\u0439\u00bb","source":"openstreetmap.org","min_zoom":6.0,"tier":2,"id":-5727537,"osm_relation":true},"arcs":[[427],[428]]},{"type":"MultiPolygon","properties":{"source":"naturalearthdata.com","kind":"urban_area","name":"","area":13828623237,"sort_rank":11,"min_zoom":4.0},"arcs":[[[429]],[[430]],[[431]],[[432]],[[433]],[[434]],[[435]],[[436]],[[437]],[[438]],[[439]],[[440]],[[441]],[[442]],[[443]],[[444]],[[445]],[[446]],[[447]],[[448]],[[449]],[[450]],[[451]],[[452]],[[453]],[[454]],[[455]],[[456]],[[457]],[[458]],[[459]],[[460]],[[461]],[[462]],[[463]]]},{"type":"MultiPolygon","properties":{"kind":"national_park","protect_class":"2","area":1668533046,"sort_rank":18,"source":"openstreetmap.org","min_zoom":5.0,"tier":1,"osm_relation":true},"arcs":[[[464]],[[465]],[[466]]]},{"type":"Polygon","properties":{"source":"openstreetmap.org","kind":"nature_reserve","tier":2,"area":1002417283,"sort_rank":23,"min_zoom":6.0},"arcs":[[467]]},{"type":"Polygon","properties":{"kind":"protected_area","protect_class":"4","area":305272992,"sort_rank":17,"source":"openstreetmap.org","min_zoom":6.0,"tier":2,"id":-5473598,"osm_relation":true},"arcs":[[468],[469]]},{"type":"Polygon","properties":{"kind":"nature_reserve","protect_class":"5","area":1535779459,"sort_rank":23,"source":"openstreetmap.org","min_zoom":4.0,"tier":2,"osm_relation":true},"arcs":[[470]]},{"type":"Polygon","properties":{"kind":"nature_reserve","protect_class":"5","area":161110000,"sort_rank":23,"source":"openstreetmap.org","min_zoom":6.0,"tier":2,"id":158209167},"arcs":[[471]]},{"type":"MultiPolygon","properties":{"source":"openstreetmap.org","kind":"park","tier":2,"area":5812441275,"sort_rank":24,"min_zoom":4.0,"osm_relation":true},"arcs":[[[472]]]},{"type":"MultiPolygon","properties":{"kind":"nature_reserve","protect_class":"1","area":1193984229,"sort_rank":23,"source":"openstreetmap.org","min_zoom":6.0,"tier":2,"osm_relation":true},"arcs":[[[473]],[[474]],[[475]],[[476]]]}]}},"type":"Topology","transform":{"translate":[22.5,48.9224992638],"scale":[0.001373291,0.0008692092]},"arcs":[[[0,70],[4,1],[11,10],[0,19],[3,27],[5,26],[6,19]],[[1954,3483],[123,-33],[142,-2],[99,-2]],[[1618,3405],[204,33],[66,33],[33,11],[33,1]],[[2380,3458],[155,-28]],[[2318,3446],[62,12]],[[2585,3431],[22,-5],[47,-41],[22,-9],[170,-7],[8,-5],[0,-8],[-2,-10],[2,-11],[9,-13],[10,-5],[160,-5],[138,-60],[48,-8]],[[2535,3430],[50,1]],[[1558,3416],[45,-10],[15,-1]],[[1050,3060],[29,4],[108,97],[83,55],[21,29],[17,75],[11,22],[27,39],[15,16],[16,6],[181,13]],[[3293,3270],[64,-3],[30,-6],[19,-11],[5,-18],[-2,-25],[0,-31],[5,-22],[11,-10],[15,-2]],[[3219,3244],[74,26]],[[3457,3144],[22,-5],[-2,-20],[-11,-24],[-4,-20],[10,-9]],[[3440,3142],[17,2]],[[4057,3032],[14,5],[17,15],[8,15]],[[893,3132],[17,0],[51,-16],[19,-1],[28,-12],[21,-24],[21,-19]],[[812,2980],[7,4],[3,17],[-2,11],[-20,56],[-4,9],[1,9],[9,15],[7,8],[9,5],[71,18]],[[3624,3108],[26,-1],[79,-31],[41,-2],[11,-6],[9,-24],[-5,-29],[-25,-58],[2,-3],[3,-6],[10,-11],[12,-9],[10,-4]],[[3560,3070],[15,1],[16,8],[20,22],[13,7]],[[3899,3098],[15,-8],[44,-48],[14,-7],[13,-3],[72,0]],[[3797,2924],[11,1],[8,7],[34,46],[4,7],[3,16],[0,12],[-2,13],[-1,14],[5,23],[9,20],[14,12],[17,3]],[[3516,3077],[44,-7]],[[3472,3066],[15,2],[29,9]],[[806,2985],[6,-5]],[[0,185],[4,0],[25,-13]],[[1126,2193],[15,7],[24,0],[23,5],[9,20],[-10,14],[-61,34],[-49,45],[-11,18],[-4,15],[0,11],[-2,9],[-9,12],[-8,6],[-10,4],[-5,5],[3,9],[0,7],[-8,48],[-7,16],[-19,29],[-11,23],[3,11],[12,6],[-8,14],[-35,35],[-37,23],[-16,20],[-40,88],[-13,8],[-14,0],[-11,6],[-5,24],[4,15],[10,17],[13,14],[13,5],[-4,16],[0,11],[6,9],[8,3],[-6,14],[-30,43],[-1,8],[12,23],[-11,6],[-13,5],[-11,8],[-5,16],[-1,7]],[[1107,2204],[19,-11]],[[137,269],[-5,6],[4,14],[12,25],[10,40],[12,35],[3,17],[-10,105],[-3,19],[-4,9],[-16,17],[-9,15],[-2,7],[-3,13],[-4,49],[-5,16],[-14,41],[18,45],[55,76],[13,37],[5,10],[8,7],[16,3],[8,4],[12,12],[45,84],[7,9],[6,4],[13,5],[6,6],[4,8],[6,24],[4,9],[30,32],[79,118],[29,33],[27,21],[21,35],[167,183],[33,26],[39,31],[1,0],[21,17],[57,63],[10,15],[1,2],[9,30],[8,17],[10,10],[12,7],[25,8],[132,1],[39,16],[16,38],[3,13],[1,15],[-1,22],[2,14],[47,24],[14,15],[9,13],[1,3],[-4,3],[-5,15],[-8,55],[17,29],[0,1],[-18,44],[-6,25],[4,26],[-19,5],[-20,12],[-10,18],[9,20],[0,7],[-20,3],[-17,8],[-11,14],[-2,22],[9,20],[17,13],[20,2]],[[259,82],[8,19],[-1,3],[-1,3],[-12,21],[-3,11],[1,15],[6,23],[0,10],[-8,11],[-33,19],[-14,11],[-21,29],[-23,17],[2,1],[1,0],[-11,8]],[[150,283],[-10,-12],[-3,-2]],[[44,188],[15,-5],[27,-31],[18,-13],[16,-2]],[[29,172],[15,16]],[[178,142],[8,-1],[7,-8],[14,-19],[8,-3],[13,-7],[16,-15],[15,-7]],[[162,136],[16,6]],[[135,138],[27,-2]],[[120,137],[15,1]],[[571,3793],[-52,14],[-17,10],[6,21],[-2,15],[-8,11],[-6,5],[-5,4],[-2,1],[33,66],[14,21],[29,34],[68,101]],[[649,3751],[-2,1],[5,11],[0,7],[-15,2],[-45,16],[-10,10]],[[582,3798],[-11,-5]],[[707,3738],[-5,5],[-7,6],[-3,5]],[[692,3754],[-10,-11]],[[682,3743],[-7,1],[-6,7],[-9,3]],[[660,3754],[-11,-3]],[[751,3679],[-14,5],[-20,39],[3,4],[2,14],[-3,9]],[[719,3750],[-12,-12]],[[777,3028],[5,1],[-16,27],[-6,16],[-3,17],[4,31],[-1,11],[-8,9],[0,8],[6,1],[5,3],[9,11],[-3,5],[-5,8],[-2,8],[3,3],[6,3],[-1,7],[-5,8],[-3,6],[4,27],[3,12],[3,8],[12,14],[16,9],[14,14],[8,27],[-14,17],[-11,21],[8,10],[3,25],[9,5],[0,5],[-1,1],[-1,0],[-3,1],[5,13],[0,38],[5,21],[14,32],[9,14],[12,9],[-9,19],[-10,44],[-6,14],[-1,13],[-3,14],[-9,6],[-6,3],[-5,7],[-4,9],[-4,9],[-14,8]],[[786,3680],[-35,-1]],[[772,3029],[5,-1]],[[806,2985],[-3,16],[-10,6],[-12,4],[-9,18]],[[293,0],[-1,1],[-4,7],[-3,7],[-2,13],[0,4],[1,10],[0,4],[2,9],[7,15],[-1,9],[-13,17],[-13,8]],[[3709,2840],[5,1],[2,4],[1,4],[-1,4],[-1,4],[-1,4],[-5,6],[-10,11],[-2,6],[-1,10],[3,22],[2,11],[2,6],[3,3],[7,3],[8,3],[17,8],[24,4]],[[3648,2900],[4,-1],[3,-1],[3,-3],[2,-3],[4,-6],[3,-8],[2,-4],[2,-3],[2,-3],[29,-25],[3,-2],[4,-1]],[[3417,1862],[25,31],[6,17],[-1,5],[-3,2],[-3,3],[-14,8],[-3,3],[-4,5],[-3,10],[0,5],[1,4],[1,2],[5,12],[7,22],[3,5],[14,18],[6,10],[17,44],[3,12],[1,8],[-1,4],[-2,8],[-3,7],[-2,3],[-15,22],[-7,14],[-1,3],[-2,6],[-1,7],[-2,12],[0,8],[1,6],[11,56],[1,12],[0,8],[-4,7],[-9,12],[-3,4],[-2,6],[1,4],[8,3],[3,4],[3,6],[0,5],[-2,4],[-5,5],[-3,4],[-2,5],[-1,11],[-1,6],[-2,5],[-7,14],[-5,11],[1,3],[0,2],[5,5],[0,1],[7,23],[3,5],[2,2],[3,2],[4,2],[28,7],[17,8],[4,4],[4,6],[8,21],[3,6],[3,3],[8,7],[3,4],[3,5],[4,9],[2,8],[2,26],[1,8],[2,6],[1,4],[7,8],[2,3],[3,3],[3,5],[3,7],[9,28],[2,4],[3,3],[2,2],[17,10],[4,4],[4,6],[6,12],[2,8],[1,7],[0,4],[-1,8],[0,2],[-1,3],[-24,49],[-1,5],[1,3],[3,3],[41,9],[3,2],[3,2],[8,8],[2,4],[2,4],[5,11],[1,6],[0,6],[-2,3],[-2,3],[-11,10],[-2,10],[1,15],[7,51],[2,9],[3,2],[3,1]],[[2211,3092],[-9,2],[-4,2],[-3,2],[-2,3],[-2,4],[-1,4],[0,4],[0,15],[-2,22],[1,20],[3,24],[2,11],[2,8],[6,11],[35,50],[26,22],[5,6],[10,14],[7,14],[2,6],[2,6],[-1,4],[0,4],[-2,4],[-1,3],[-3,8],[-2,6],[-1,9],[0,8],[1,5],[2,5],[2,3],[3,2],[3,3],[10,6],[3,3],[-2,2],[-4,1],[-66,4],[-9,6],[-3,20]],[[2245,2773],[-4,0],[-3,1],[-3,2],[-2,3],[-3,3],[-3,6],[-2,4],[-1,4],[0,5],[5,43],[0,5],[-1,13],[0,10],[1,15],[3,19],[1,11],[0,4],[-1,5],[-1,4],[-8,31],[-1,10],[-1,6],[1,18],[1,6],[2,5],[5,6],[5,6],[13,11],[4,6],[6,12],[1,7],[0,6],[-1,3],[-2,4],[-3,2],[-3,2],[-13,4],[-4,2],[-2,3],[-1,4],[0,5],[-1,3],[-2,3]],[[2227,3095],[-4,0],[-7,-2],[-5,-1]],[[2393,2816],[-10,0],[-5,1],[-4,2],[-3,2],[-2,3],[-2,3],[-1,4],[-2,4],[-2,2],[-4,0]],[[2358,2837],[-3,-1],[-3,-3],[-2,-3],[-5,-11],[-2,-3],[-5,-6],[-4,-2],[-3,-1],[-4,-1]],[[2534,2463],[-19,8],[-3,3],[-2,3],[0,5],[3,32],[1,7],[3,3],[52,11],[6,4],[8,8],[7,11],[3,8],[1,7],[0,13],[0,5],[-1,4],[-1,4],[-2,3],[-37,36],[-56,28],[-3,2],[-2,3],[-4,7],[-14,17],[-21,17],[-3,3],[-2,3],[-2,3],[0,4],[-1,9],[-1,4],[-1,3],[-2,2],[-2,2],[-15,6],[-6,5],[-3,2],[-2,3],[-4,7],[-1,4],[1,9],[3,12],[6,26],[1,9],[-1,4]],[[2418,2832],[-3,-2],[-11,-10],[-4,-2],[-3,-1],[-4,-1]],[[2327,2806],[-4,1],[-16,6],[-9,1]],[[2298,2814],[-9,0],[-9,-2],[-7,-3],[-10,-6],[-2,-3],[-2,-3],[-2,-4],[-4,-12],[-2,-4],[-3,-3],[-3,-1]],[[2533,2188],[7,0],[4,2],[3,3],[4,7],[1,3],[-1,3],[-2,2],[-4,3],[-17,9],[-3,2],[-1,5],[2,7],[9,14],[18,18],[4,4],[1,4],[1,5],[0,4],[0,5],[-1,4],[-1,3],[-4,4],[-3,4],[-3,4],[-12,8],[-2,3],[-2,4],[-1,5],[3,8],[3,5],[4,3],[52,7],[6,2],[6,3],[10,8],[3,5],[1,5],[-1,8],[-1,15],[-1,3],[-1,4],[-2,3],[-3,3],[-2,3],[-1,4],[-1,9],[-1,4],[-2,4],[-11,19],[-12,14],[-6,5],[-3,2],[-4,2]],[[2566,2475],[-8,-1],[-7,-2],[-3,-1],[-7,-6],[-3,-1],[-4,-1]],[[2515,2191],[4,0],[14,-3]],[[2415,1965],[8,1],[4,2],[3,4],[6,38],[2,4],[2,5],[3,4],[4,6],[5,8],[2,4],[0,5],[0,9],[0,4],[-1,5],[-2,22],[1,45],[0,3],[1,4],[1,5],[4,8],[3,5],[4,3],[4,1],[32,26],[6,4],[4,1],[4,0]],[[2298,2053],[9,-2],[4,-2],[11,-10],[14,-18],[2,-3],[0,-4],[0,-3],[-1,-4],[2,-3],[3,-1],[29,-6],[4,-1],[4,-2],[6,-5],[15,-16],[6,-5],[4,-2],[5,-1]],[[2141,1992],[6,1],[7,2],[22,14],[25,9],[28,15],[16,12],[14,8],[39,0]],[[2085,2021],[3,-1],[10,-11],[9,-6],[16,-6],[18,-5]],[[2087,1941],[5,0],[6,2],[2,4],[-1,4],[-2,2],[-17,10],[-3,4],[-1,5],[2,8],[5,7],[2,6],[1,5],[-4,11],[-1,5],[1,6],[3,1]],[[2035,1948],[52,-7]],[[2018,1860],[5,2],[6,2],[8,8],[4,5],[2,6],[0,5],[0,5],[0,4],[-1,4],[-1,4],[-3,8],[-9,17],[-1,5],[1,7],[3,4],[3,2]],[[1925,1876],[3,0],[34,-10],[56,-6]],[[1909,1775],[4,0],[4,1],[3,2],[3,3],[2,3],[6,7],[11,22],[1,2],[-1,4],[-2,2],[-5,5],[-22,17],[-3,3],[-3,6],[1,5],[2,4],[2,4],[5,6],[4,3],[4,2]],[[1895,1777],[14,-2]],[[1867,1579],[43,42],[15,18],[9,12],[5,5],[7,3],[7,2],[9,4],[5,7],[2,6],[0,5],[-1,4],[-3,3],[-3,2],[-13,2],[-4,2],[-2,3],[-19,32],[-7,9],[-11,11],[-12,9],[-3,3],[-2,3],[-2,5],[1,4],[3,1],[4,1]],[[3417,1862],[10,-6],[4,-4],[10,-13],[10,-8],[5,-5],[4,-10],[3,-7],[3,-5],[7,-5],[5,-2],[14,-4],[4,-1],[3,-2],[-1,-4],[-2,-3],[-3,-3],[-16,-9],[-6,-4],[-5,-6],[-3,-3],[-2,-3],[-2,-4],[-1,-4],[-15,-53],[0,-5],[0,-4],[2,-5],[3,-4],[6,-4],[6,-2],[20,-3],[7,-4],[3,-4],[2,-4],[3,-14],[2,-5],[4,-5],[8,-7],[31,-18],[24,-19],[7,-4],[2,-3],[1,-3],[-2,-5],[-4,-7],[-1,-3],[1,-4],[3,-2],[5,-1]],[[3583,1557],[4,-1],[4,-4],[4,-9],[4,-5],[7,-4],[14,-5],[4,-2],[3,-2],[2,-4],[1,-5],[1,-14],[2,-5],[4,-2],[4,-2],[32,-3]],[[3576,1555],[7,2]],[[3708,1535],[5,0],[4,-3],[2,-6],[1,-10],[1,-7],[-3,-27],[0,-5],[1,-5],[3,-5],[5,-7],[12,-14],[8,-12],[2,-4],[1,-6],[0,-9],[-2,-4],[-3,-4],[-7,-3],[-3,-2],[-1,-4],[0,-4],[1,-5],[9,-8],[3,-4],[2,-3],[-2,-5],[-9,-12],[-4,-8],[-3,-8],[-1,-4],[-1,-3],[0,-3],[1,-4],[3,-4],[5,-5],[14,-6],[3,-2],[3,-4],[2,-5],[1,-11],[-1,-13],[-1,-5],[-1,-4],[-3,-3],[-12,-2],[-3,-2],[-3,-2],[-3,-3],[-4,-6],[-3,-3],[-3,-2],[-3,-1],[-4,-1],[-5,0]],[[3673,1490],[4,1],[3,2],[2,3],[2,4],[5,12],[2,3],[2,3],[2,3],[4,8],[2,3],[3,3],[4,0]],[[3712,1243],[-36,5]],[[3676,1248],[-3,0],[0,-5],[2,-6],[21,-38],[2,-7],[1,-4],[1,-4],[-1,-4],[-2,-2],[-4,-1],[-13,-1],[-4,-1],[-2,-3],[-1,-5],[-2,-25],[2,-5],[5,-5],[27,-10],[4,-2],[3,-4],[2,-6],[0,-4],[0,-4],[-1,-4],[-1,-4],[0,-4],[1,-4],[4,-7],[20,-26],[7,-13],[3,-8],[1,-8],[2,-4],[1,-3],[2,-3],[5,-6],[151,-44]],[[3360,1915],[5,-2],[4,-4],[3,-9],[1,-6],[0,-6],[0,-5],[0,-5],[4,-4],[5,-3],[35,-9]],[[3249,1835],[5,0],[6,2],[7,5],[4,4],[5,7],[11,10],[6,4],[14,7],[16,5],[3,1],[3,2],[3,4],[3,13],[3,8],[3,3],[2,3],[5,2],[12,0]],[[3205,1851],[6,0],[14,-6],[15,-8],[9,-2]],[[3121,1767],[4,1],[4,3],[2,5],[0,4],[0,5],[-1,9],[-1,4],[1,5],[1,4],[2,3],[2,4],[1,2],[51,22],[14,12],[4,1]],[[3092,1777],[8,-1],[17,-8],[4,-1]],[[2870,1524],[17,1],[5,3],[6,3],[13,14],[4,5],[9,13],[2,3],[27,19],[6,6],[4,5],[6,12],[5,10],[5,6],[34,25],[4,4],[2,3],[1,4],[1,3],[0,3],[-1,8],[1,4],[1,4],[32,26],[7,8],[3,7],[1,4],[2,5],[4,5],[8,8],[3,6],[2,5],[0,10],[1,5],[2,3],[5,3]],[[2849,1527],[6,0],[10,-3],[5,0]],[[2718,1415],[36,17],[16,10],[12,15],[30,48],[5,5],[11,11],[5,2],[6,3],[10,1]],[[2596,1545],[5,-1],[8,-2],[47,-23],[5,-1],[5,-1]],[[2565,1531],[19,11],[4,2],[4,1],[4,0]],[[2510,1544],[7,0],[10,-2],[21,-8],[9,-2],[8,-1]],[[2279,1413],[4,0],[8,4],[4,4],[11,11],[7,4],[12,3],[85,7],[10,5],[5,5],[68,75],[17,13]],[[2707,1542],[3,-1],[4,-5],[2,-5],[1,-5],[-2,-8],[-3,-4],[-5,-6],[-3,-4],[-3,-7],[-3,-8],[-2,-4],[0,-5],[0,-5],[2,-6],[6,-6],[6,-3],[4,-6],[2,-5],[2,-34]],[[2666,1517],[3,1],[22,9],[6,5],[7,8],[3,2]],[[2156,1428],[9,0],[18,-6],[15,-7],[19,-5],[5,-3],[4,-3],[2,-2],[5,0]],[[2117,1271],[3,1],[1,5],[1,5],[1,11],[0,4],[-1,9],[0,5],[0,4],[2,4],[2,3],[21,13],[4,6],[3,5],[1,4],[6,11],[0,4],[-2,3],[-2,3],[-9,7],[-2,3],[-2,3],[-1,4],[-1,4],[1,9],[4,18],[2,4],[2,4],[5,1]],[[2266,1425],[4,-3],[5,-7],[4,-2]],[[2233,1402],[6,3],[4,2],[16,16],[3,2],[4,0]],[[2098,1282],[9,-2],[5,-3],[5,-6]],[[2088,1255],[2,17],[1,5],[2,3],[5,2]],[[2718,1415],[-15,-8],[-3,-2],[-1,-3],[2,-2],[4,-2],[25,-8],[7,-4],[5,-5],[3,-3],[1,-3],[2,-5],[-1,-6],[-2,-9],[-4,-4],[-3,-3],[-8,-2],[-27,-2],[-3,-2],[-2,-3],[0,-4],[2,-5],[3,-4],[2,-3],[9,-7],[3,-3],[1,-5],[-3,-14],[-2,-5],[-2,-3],[-3,-3],[-13,-7],[-3,-2],[-1,-4],[1,-4],[4,-5],[4,-3],[5,-2],[9,-1],[4,-3],[2,-4],[-1,-10],[-2,-5],[-3,-4],[-41,-14],[-6,-4],[-3,-3],[-3,-2],[-1,-4],[-2,-3],[0,-4],[1,-5],[7,-18],[3,-12],[0,-5],[0,-5],[-2,-8],[-5,-14],[0,-5],[1,-6],[4,-8],[4,-4],[10,-7],[2,-3],[3,-2],[2,-4],[1,-3],[1,-6],[0,-8],[-2,-13],[-1,-7],[-2,-6],[-1,-5],[1,-6],[3,-9],[2,-5],[3,-4],[17,-15],[3,-2],[1,-4],[4,-7],[1,-4],[0,-7],[1,-11],[-1,-23],[-2,-10],[-2,-7],[-9,-7],[-2,-3],[-2,-4],[-4,-7],[-1,-4],[0,-6],[1,-6],[4,-8],[3,-5],[3,-4],[20,-16],[2,-3],[3,-3],[0,-5],[0,-6],[-2,-11],[-3,-5],[-3,-4],[-8,-8],[-2,-2],[-3,-4],[-1,-3],[-2,-5],[-1,-9],[-3,-30],[-3,-14],[-1,-4],[-3,-3],[-2,-2],[-20,-11],[-3,-2],[-2,-3],[-2,-3],[-1,-2],[-10,-26],[-1,-3],[0,-3],[0,-5],[1,-8],[4,-12],[13,-29],[6,-21],[7,-30],[3,-7],[2,-4],[18,-14],[3,-3],[1,-4],[1,-6],[0,-13],[1,-10],[5,-22],[1,-7],[0,-5],[-4,-14],[0,-7],[0,-5],[3,-9],[3,-5],[2,-4],[8,-12],[1,-4],[1,-5],[-3,-9],[-4,-9],[-1,-6],[0,-7],[0,-11],[-2,-6],[-2,-3],[-11,-4],[-7,-4],[-2,-2],[-3,-3],[-2,-3],[-2,-5],[0,-6],[0,-8],[-1,-12],[-4,-18],[0,-6],[1,-6],[3,-9],[3,-4],[8,-10],[1,-3],[1,-5],[-1,-5],[-5,-13],[-1,-5],[-1,-10],[1,-5],[1,-6],[11,-26],[1,-4],[1,-4],[0,-6],[-2,-9],[-2,-5],[-3,-3],[-8,-8],[-5,-6],[-2,-4],[-1,-3],[0,-6],[1,-8],[5,-12],[7,-14],[3,-7],[-1,-2],[-4,-7],[-9,-3],[-2,-2],[-1,-5],[4,-10],[1,-6],[-1,-6],[-3,-2],[-6,-4],[-2,-3],[0,-5],[6,-10],[3,-5],[1,-6],[0,-10],[-1,-4]],[[1203,1981],[9,-5],[5,-21],[6,-5],[11,-4],[6,-9],[4,-11],[7,-8],[8,-5],[14,-4],[8,-7]],[[1171,1965],[5,8],[8,5],[9,2],[10,1]],[[1350,1942],[3,-1],[7,-3],[9,-7],[13,-14],[4,-7],[1,-6],[-1,-4],[0,-4],[1,-4],[21,-21],[5,-2],[4,-1]],[[1281,1902],[0,8],[12,3],[8,4],[8,2],[17,2],[4,2],[3,2],[2,3],[4,7],[3,3],[2,2],[3,1],[3,1]],[[1442,1874],[8,-2],[3,-2],[4,-3],[22,-24],[3,-7],[2,-4],[0,-4],[0,-5],[0,-4],[-2,-4],[-2,-4],[-2,-2],[-6,-6],[-6,-3],[-36,-9],[-4,-2],[-3,-2],[-2,-3],[-1,-4],[1,-3],[2,-4],[2,-3],[30,-25],[4,-4],[1,-4],[1,-3],[0,-5],[-2,-9],[0,-4],[0,-4],[4,-3],[4,-2]],[[1417,1868],[8,1],[13,4],[4,1]],[[1499,1744],[4,-2],[4,-5],[3,-5],[3,-8],[4,-3],[6,-2],[23,-1],[4,-1],[4,-2],[3,-5],[1,-5],[-1,-4],[1,-4],[5,-5],[30,-19],[8,-7],[4,-7],[-1,-9],[0,-5],[2,-3],[2,-3],[4,-2],[7,-2],[36,-4]],[[1467,1707],[11,0],[5,2],[4,3],[2,4],[1,4],[0,4],[0,9],[1,5],[1,4],[3,2],[4,0]],[[1771,1665],[7,-1],[10,-5],[20,-14],[15,-8]],[[1756,1640],[9,2],[5,3],[-2,13],[1,4],[2,3]],[[1710,1648],[46,-8]],[[1655,1631],[11,1],[7,2],[6,4],[7,4],[7,3],[17,3]],[[1848,1642],[4,-1],[4,-2],[4,-3],[3,-4],[2,-4],[2,-4],[1,-12],[-1,-33]],[[1823,1637],[22,5],[3,0]],[[1867,1579],[4,-12],[10,-5],[15,-1]],[[1944,1579],[4,-1],[8,-3],[4,-2],[3,-2],[3,-5],[3,-8],[3,-15],[0,-9],[0,-7],[-2,-3],[-2,-4],[-5,-6],[-20,-21],[-2,-3],[0,-6],[3,-7],[13,-17],[4,-5],[0,-6],[-6,-28],[-1,-20],[1,-10],[0,-4],[6,-29],[7,-9],[68,-62],[52,-32]],[[1896,1561],[9,1],[8,2],[19,12],[7,2],[5,1]],[[2088,1255],[0,-8],[2,-6],[0,-2],[2,-3],[4,-6],[3,-3],[15,-11],[3,-2],[2,-4],[3,-7],[1,-3],[9,-12],[2,-3],[1,-4],[1,-4],[0,-5],[-1,-4],[-3,-3],[-7,-2],[-11,-1],[-4,-2],[-3,-4],[-4,-9],[0,-6],[0,-5],[3,-7],[2,-4],[1,-4],[0,-4],[0,-4],[-1,-4],[-2,-4],[-2,-3],[-4,-5],[-6,-4],[-12,-7],[-8,-2],[-11,-1],[-4,-2],[-14,-9],[-4,-2],[-16,-4],[-26,-15],[-4,-1],[-54,-11],[-6,-3],[-8,-2],[-35,-5],[-4,-1],[-3,-4],[-3,-8],[-5,-20],[0,-5],[0,-5],[1,-4],[5,-10],[12,-19],[2,-4],[1,-4],[1,-3],[0,-5],[0,-4],[-1,-5],[-4,-4],[-5,-5],[-16,-10],[-4,-2],[-6,0]],[[1863,907],[-9,0],[-4,2],[-3,2],[-2,3],[-2,3],[-3,0]],[[1840,917],[-4,-2],[-4,-5],[-16,-32],[-3,-8],[-1,-4],[-5,-12],[-20,-40],[-4,-3],[-126,-74],[-7,-2],[-6,0]],[[1644,735],[-4,1],[-10,1]],[[1630,737],[-4,-3],[-3,-6],[-4,-38],[-3,-14],[-9,-21]],[[1733,217],[-7,1],[-3,2],[-3,3],[-1,4],[-2,3],[-1,5],[0,4],[1,5],[1,10],[1,5],[0,5],[-1,4],[-5,15],[-1,4],[0,4],[1,4],[2,3],[2,3],[11,10],[3,3],[1,3],[2,4],[0,5],[1,5],[0,5],[0,4],[-1,5],[-2,8],[-3,11],[-3,8],[-2,5],[-1,0],[-15,6],[-3,4],[-2,4],[-1,4],[-1,14],[-4,21],[-2,9],[-1,3],[-1,4],[-1,4],[0,5],[1,4],[1,4],[4,7],[1,5],[0,5],[-5,11],[-3,8],[-13,38],[-12,23],[-59,95]],[[1800,144],[4,1],[3,1],[3,3],[2,3],[2,3],[1,4],[0,4],[-1,4],[-2,3],[-1,4],[-1,4],[-1,4],[0,10],[0,5],[-2,6],[-4,9],[-3,4],[-4,3],[-22,4],[-14,7],[-4,1]],[[1756,231],[-3,-1],[-4,-2],[-6,-4],[-2,-3],[-4,-2],[-4,-2]],[[1754,160],[5,0],[8,-2],[21,-11],[8,-3],[4,0]],[[1828,53],[-13,1],[-10,9],[-11,18],[-3,10],[-1,7],[-1,7],[-5,8],[-6,5],[-24,10],[-7,6],[-1,1],[-2,3],[-1,4],[0,5],[0,4],[2,4],[2,3],[3,1],[4,1]],[[1911,0],[4,14],[-1,11],[-6,8],[-39,24],[-11,3]],[[1858,60],[-30,-7]],[[1999,0],[0,2],[0,8],[-10,1]],[[1989,11],[-9,-3],[-9,-8]],[[1569,661],[-4,0],[-2,1],[-4,3],[-3,3],[-16,15],[-6,4],[-8,3],[-8,2],[-9,1]],[[1509,693],[-55,-15],[-8,0]],[[1446,678],[-26,6]],[[1420,684],[-5,0],[-3,-2],[-4,-4],[-5,-6],[-6,-13],[-3,-8],[-1,-6],[1,-3],[6,-11],[2,-7],[1,-4],[1,-4],[0,-5],[-1,-5],[-4,-9],[-22,-36],[-5,-11],[-1,-8],[3,-2],[23,-15],[2,-2],[2,-4],[0,-4],[-1,-4],[-3,-5],[-24,-25],[-7,-11],[-5,-6],[-8,-5],[-10,-2],[-16,0],[-8,-1],[-15,-6],[-3,-3],[-2,-4],[-1,-8],[0,-5],[1,-4],[2,-3],[2,-3],[4,-2],[4,-1]],[[1597,654],[-4,1],[-4,1],[-6,4],[-4,2],[-3,0]],[[1576,662],[-7,-1]],[[1607,655],[-10,-1]],[[1344,439],[4,-1],[6,-4],[3,-3],[1,-3],[2,-3],[-1,-5],[-2,-5],[-3,-7],[-3,-4],[-1,-5],[0,-5],[2,-28],[5,-5],[17,-5],[14,-1]],[[1311,417],[3,1],[4,2],[3,2],[15,14],[4,2],[4,1]],[[1396,360],[6,-9],[14,-18],[1,-4],[1,-4],[-1,-5],[-1,-4],[-2,-4],[-5,-4],[-7,-6],[-14,-5],[-7,-1]],[[1388,355],[8,5]],[[1381,296],[-6,1],[-3,2],[-4,0],[-4,1]],[[1364,300],[-5,0],[-8,-2],[-29,-11],[-30,-19],[-8,-4],[-16,-3]],[[1268,261],[-18,1]],[[1250,262],[-8,-1],[-35,-17],[-8,0]],[[1199,244],[-4,0],[-32,11],[-9,2]],[[1154,257],[-4,-1],[-8,-2],[-33,-25],[-8,-4],[-6,-2]],[[1095,223],[-26,12],[-9,1]],[[1060,236],[-4,0],[-5,-3],[-16,-14],[-6,-4],[-5,-3],[-37,-1]],[[987,211],[-73,10]],[[914,221],[-12,-2],[-7,-2],[-13,-8],[-13,-11],[-4,-5],[-3,-4],[-2,-4],[-19,-61],[-5,-14],[-5,-8],[-13,-12],[-3,-4],[-16,-14],[-11,-9],[-4,-10],[-11,-53]],[[4096,981],[-49,-14],[-24,-3]],[[4023,964],[-49,8]],[[3974,972],[-65,-8]],[[3858,896],[5,0],[4,1],[3,2],[5,5],[7,8],[4,8],[0,4],[-2,4],[-13,9],[-3,3],[1,2],[3,1],[14,0],[10,3],[13,18]],[[3841,900],[17,-4]],[[3831,692],[5,0],[5,4],[7,10],[2,7],[-1,4],[-2,4],[-8,8],[-2,3],[-2,5],[0,4],[2,3],[7,10],[22,46],[3,8],[2,7],[0,4],[-1,4],[-2,4],[-3,7],[-5,5],[-5,5],[-7,4],[-18,9],[-3,3],[-3,4],[-1,6],[0,5],[2,4],[7,15],[2,3],[3,3],[4,0]],[[3821,697],[4,-1],[6,-4]],[[3835,223],[4,0],[4,1],[4,4],[14,19],[6,5],[17,8],[23,2],[6,1],[7,5],[3,4],[1,4],[-1,4],[-2,7],[-2,8],[-1,5],[0,4],[0,10],[0,9],[-1,4],[-1,4],[-2,3],[-1,4],[-9,12],[-2,3],[-1,3],[-1,5],[0,6],[1,9],[2,7],[4,6],[6,8],[2,6],[1,5],[-2,3],[-3,7],[-9,11],[-2,3],[-3,8],[0,5],[0,5],[1,6],[0,5],[0,5],[-1,4],[-2,3],[-3,2],[-13,3],[-3,1],[-3,3],[-1,3],[-1,4],[-1,13],[-1,4],[-4,7],[-2,5],[-1,7],[0,5],[2,2],[2,2],[21,8],[4,3],[2,4],[0,4],[-5,15],[-3,7],[-2,4],[-2,3],[-3,2],[-44,0],[-5,1],[-5,1],[-3,2],[-3,3],[-2,5],[-1,7],[0,5],[2,5],[2,3],[10,7],[3,3],[1,3],[-2,3],[-2,3],[-21,16],[-2,6],[-2,7],[1,17],[2,8],[3,6],[3,1],[4,1],[4,0]],[[3725,273],[18,-4],[11,-5],[12,-10],[7,-4],[4,-1],[13,-3],[8,-3],[14,-12],[7,-4],[8,-3],[8,-1]],[[3691,230],[4,0],[3,2],[2,3],[15,29],[5,6],[5,3]],[[3659,235],[32,-5]],[[3550,0],[0,1],[-2,8],[0,5],[1,5],[2,3],[7,4],[4,3],[4,6],[1,5],[0,4],[-2,3],[-4,6],[-3,5],[-2,5],[-2,11],[0,6],[1,4],[4,5],[3,15],[2,5],[3,4],[3,2],[2,2],[8,7],[6,5],[2,2],[3,3],[2,4],[1,5],[3,12],[2,5],[2,3],[2,3],[12,5],[5,5],[1,6],[0,9],[1,5],[2,6],[4,8],[5,15],[4,6],[4,3],[18,1]],[[3366,4096],[15,-12],[4,-5],[4,-10],[2,-7],[0,-6],[-1,-4],[-1,-4],[-2,-4],[-2,-4],[-13,-14],[-2,-3],[0,-4],[11,-8],[93,-55]],[[3714,4096],[1,-3],[1,-3],[2,-3],[2,-3],[25,-19],[37,-19],[4,-1],[5,-1]],[[4080,4096],[2,-6],[6,-9],[6,-3],[2,0]],[[3872,4041],[81,7],[9,4],[3,3],[4,3],[9,5],[3,2],[2,4],[0,4],[0,4],[-2,18],[0,1]],[[3474,3956],[47,63],[8,20],[-5,11],[-2,7],[-2,9],[0,5],[0,5],[1,9],[2,4],[4,1],[20,2],[6,1],[2,3]],[[3848,4046],[24,-5]],[[3791,4044],[57,2]],[[3474,3956],[5,-10],[0,-6],[1,-9],[5,-12],[4,-5],[5,-2],[39,-1],[4,-1],[4,-2],[3,-3],[2,-3],[3,-5],[8,-21],[4,-7],[5,-4],[20,-8],[72,-44],[5,-5],[5,-6],[1,-3],[1,-4],[1,-4],[-1,-4],[-3,-10],[-2,-5],[-5,-7],[-2,-4],[-1,-4],[-1,-5],[0,-6],[2,-10],[1,-10],[-2,-30],[2,-15],[1,-57],[1,-8],[2,-3],[2,-3],[14,-13],[10,-11],[18,-15],[2,-3],[2,-3],[2,-3],[1,-5],[-1,-6],[-4,-11],[-3,-6],[-3,-5],[-43,-55],[-2,-5],[0,-6],[1,-9],[5,-14],[0,-6],[0,-8],[-4,-21],[-5,-19],[-4,-8],[-2,-3],[-5,-7],[-1,-3],[0,-3],[3,-5],[5,-6],[23,-21],[4,-6],[4,-7],[1,-7],[1,-10],[-1,-34],[-2,-13],[-6,-17],[-4,-8],[-4,-5],[-3,-2],[-9,-1],[-7,-18],[2,-88],[0,-7]],[[11,4096],[0,-1],[3,-10],[7,-5],[10,-2],[2,-5],[-5,-38],[5,-13],[13,-17],[14,-11]],[[73,4000],[8,-14],[18,-4]],[[60,3994],[13,6]],[[138,3984],[113,-23]],[[99,3982],[39,2]],[[308,3969],[21,-7],[17,-16],[7,-26]],[[251,3961],[57,8]],[[368,3928],[14,-7],[20,-24],[-4,-6],[-3,-12],[-2,-6],[12,-7]],[[353,3920],[15,8]],[[405,3866],[11,4],[11,7]],[[473,3865],[-22,13],[-14,3]],[[437,3881],[-10,-4]],[[492,3869],[-5,-4],[-14,0]],[[262,3648],[28,10],[24,30],[21,47],[69,99],[23,43]],[[146,3697],[30,-7],[86,-42]],[[73,3612],[40,32],[4,17],[4,15],[12,13],[13,8]],[[0,3619],[73,-7]],[[0,1937],[82,-44],[6,-10],[0,-16],[1,-16],[18,-32],[8,-28],[-20,-12]],[[95,1779],[-23,3]],[[72,1782],[-22,-8],[-18,-24],[-13,-24],[6,-28],[19,-30],[25,-12]],[[647,1731],[54,-6],[46,-30],[23,-36],[73,-43],[1,0]],[[424,1599],[55,12],[48,38],[60,69],[19,8],[41,5]],[[171,1676],[19,-13],[-11,-7],[-25,-6],[7,-17],[100,-29],[163,-5]],[[69,1656],[102,20]],[[1612,2644],[-22,32],[40,38],[38,113],[95,114],[-21,89],[50,57]],[[1087,1056],[-1,27],[54,-12],[15,32],[70,9],[29,33],[5,65],[75,81],[8,219],[-78,87],[-19,77],[32,85],[-6,74],[48,64],[41,14],[7,161],[-30,152],[239,432],[64,-37],[44,39],[289,58],[419,11],[74,27],[233,-26],[139,41],[151,-17],[15,36]],[[2993,2793],[2,0],[1,-1],[2,0],[6,-4]],[[3004,2788],[719,-138],[115,-2],[174,-113],[84,-36]],[[857,3654],[275,133],[214,11],[199,-38],[351,-6],[322,-64],[404,-8],[279,190],[70,14],[165,-41],[5,-37],[343,-31],[269,30],[114,-20],[140,45],[89,2]],[[4044,137],[-249,-8],[-20,-23],[60,-44],[-34,-62]],[[4071,131],[-10,-2]],[[4096,182],[-3,0]],[[3031,4096],[43,-48],[30,-56]],[[3104,3992],[0,-1]],[[3104,3991],[40,-63],[6,-14],[-8,-72]],[[3119,3966],[-15,25]],[[3104,3992],[-30,56],[-47,48]],[[3142,3842],[-35,-339],[24,-154],[-36,-99]],[[3142,3842],[8,72],[-26,45]],[[840,3268],[1,0],[-1,0]],[[2769,2749],[-67,42],[-50,155],[10,87],[-87,91],[-109,-25],[-85,82],[65,53],[29,70],[155,18]],[[4044,137],[-249,-8],[-20,-23],[60,-44],[-34,-62]],[[4071,131],[-10,-2]],[[4096,182],[-3,0]],[[833,3320],[1,-7]],[[834,3313],[0,-1]],[[834,3312],[-42,-180],[19,-102]],[[811,3030],[-1,-6]],[[810,3024],[1,6]],[[834,3312],[-1,3],[-1,7]],[[858,3656],[61,-52],[-38,-19],[-39,-122],[-10,-141]],[[832,3322],[1,-2]],[[2152,2198],[-137,71],[-140,191],[-89,42],[-175,143]],[[2076,2112],[76,86]],[[2152,2198],[114,-62],[155,3],[201,-41],[99,-117],[15,-147],[38,-42],[157,-59],[60,-54],[218,-75],[73,-110],[72,-28]],[[3354,1466],[79,22],[61,76],[5,10],[7,10]],[[3506,1584],[119,108],[95,256],[204,156],[172,83]],[[3354,1466],[79,22],[62,76],[11,20]],[[857,3655],[272,132],[196,222],[177,87]],[[0,1328],[30,51],[-22,53]],[[8,1432],[-8,15]],[[0,1447],[8,-15]],[[53,2658],[-20,-13]],[[33,2645],[-5,-2],[-2,-1],[-1,-1],[-1,-1],[-3,-5],[-1,-2],[0,-1],[-1,-2],[-4,-27],[-15,-18]],[[0,2585],[15,18],[6,32],[12,10]],[[0,1317],[15,-2],[8,3],[2,0],[1,0],[2,-1],[29,-7],[12,-4],[1,-1],[1,0],[2,-1],[1,-1],[40,-45],[25,-8],[1,-1],[1,0],[5,-4],[1,-1],[41,-47],[53,-28],[1,0],[1,-1],[1,-2],[1,-1],[0,-1],[19,-66],[0,-1],[0,-1],[0,-2],[0,-1],[-9,-26],[-2,-6],[-1,-2],[-3,-4],[-7,-18],[-1,-1],[-2,-2],[-3,-2],[-1,0],[-2,-1],[-6,-2],[-1,-2],[-2,-10],[0,-1],[-1,-1],[-1,0],[0,-1],[-1,0],[-10,-4],[-15,-10],[4,-9]],[[0,1317],[71,-12],[43,-47],[33,-14],[41,-47],[56,-31],[20,-73],[-22,-56],[-6,-5],[-8,-3],[-1,-1],[-1,-1],[-4,-12],[-1,-1],[-9,-3],[-2,-1],[-14,-10],[4,-9]],[[200,991],[136,24]],[[2152,2198],[-137,71],[-140,191],[-89,42],[-175,143]],[[2076,2112],[76,86]],[[2152,2198],[114,-62],[155,3],[201,-41],[99,-117],[15,-147],[38,-42],[157,-59],[60,-54],[218,-75],[73,-110],[72,-28]],[[3354,1466],[79,22],[61,76],[5,10],[7,10]],[[3506,1584],[119,108],[95,256],[204,156],[172,83]],[[3354,1466],[79,22],[62,76],[11,20]],[[846,3664],[-51,110],[-102,95],[-31,102]],[[0,3472],[124,18],[332,74],[27,0],[3,-1],[46,-20],[3,-1],[1,0],[3,-1],[35,-5],[2,-1],[2,1],[106,3],[1,0],[1,0],[3,1],[2,1],[22,11],[7,2],[1,1],[24,13],[2,1],[8,5],[32,17],[1,1],[2,1],[2,2],[1,2],[2,3],[1,2],[1,1],[0,2],[5,23],[3,3]],[[805,3631],[-3,-3],[-6,-26],[-7,-9],[-103,-54],[-112,-3],[-92,29],[-26,-1],[-456,-91]],[[827,3646],[-22,-15]],[[826,3645],[303,142],[196,222],[177,87]],[[858,3656],[49,-38]],[[917,3608],[-1,1],[-8,8],[-1,1]],[[917,3608],[-10,10]],[[1276,3114],[-156,279],[-203,215]],[[1087,1056],[0,27],[51,-12]],[[1156,1104],[77,16],[26,90],[75,81],[8,219],[-78,87],[-19,77],[32,85],[-6,74],[48,64],[41,14],[7,161],[-30,152],[239,432],[64,-37],[44,39],[289,58],[419,11],[74,27],[233,-26],[139,41],[151,-17],[15,36]],[[2993,2793],[11,-5]],[[3004,2788],[719,-138],[115,-2],[174,-113],[84,-36]],[[455,2063],[-21,104],[22,86],[47,59],[-14,150],[50,63]],[[0,3767],[284,152],[28,36],[30,63],[27,20],[24,27],[50,8],[51,11],[35,12]],[[524,4096],[-11,-3],[-3,-1],[-13,-6],[-3,-2],[-2,0],[-15,-2],[-2,0],[-32,-9],[-39,-4],[-1,0],[-1,0],[-1,0],[-8,-4],[-1,-1],[-2,-1],[-1,-1],[-8,-9],[-2,-1],[-3,-2],[-2,-1],[-1,-1],[-1,-1],[-1,-2],[-2,-7],[-11,-6],[-14,-12],[-1,-1],[-1,-1],[-15,-23],[-6,-9],[0,-1],[-2,-5],[-6,-23],[-1,-2],[-20,-24],[-8,-12],[-284,-152]],[[455,2063],[111,8]],[[1502,4096],[-177,-87],[-196,-222],[-306,-143],[-33,-51],[-101,-53],[-114,-4],[-119,28],[-456,-91]],[[625,1464],[-58,-19],[-69,15],[-104,-37],[-49,-105],[-78,-21]],[[267,1297],[-8,0]],[[259,1297],[-97,-72]],[[1612,2644],[-143,153],[-59,89],[-27,94],[-164,221]],[[0,2641],[26,2],[11,3],[33,21],[17,14],[20,-7],[7,-16],[2,-2],[2,-2],[4,-1],[90,-23],[78,-1],[40,-64],[37,-24],[4,-1],[18,2],[67,-11],[39,-2],[1,1],[19,3],[2,0],[16,-7],[19,-3],[6,-6],[1,-1],[3,-1],[3,-1],[4,1],[44,20],[21,-5],[12,0],[15,8],[26,5],[15,8],[62,1],[33,8],[23,13],[67,12]],[[0,2641],[2,0],[7,2],[2,0],[15,0],[11,4],[22,16],[2,1],[3,1],[6,2],[2,1],[9,10],[1,2],[1,1],[1,0],[1,0],[1,0],[1,0],[17,-5],[2,-1],[1,-1],[1,-1],[1,-2],[5,-13],[8,-5],[60,-8],[2,0],[1,-1],[24,-12],[3,-1],[10,-1],[14,5],[2,1],[1,0],[48,-6],[2,-1],[1,0],[1,-1],[2,-1],[13,-9],[1,-2],[2,-1],[1,-3],[1,-1],[12,-27],[7,-19],[23,-14],[14,-10],[4,-1],[16,2],[2,0],[67,-11],[2,0],[5,1],[2,0],[30,-2],[20,3],[1,0],[1,0],[2,-1],[1,0],[13,-6],[18,-3],[1,0],[1,0],[1,-1],[4,-5],[7,-3],[4,1],[7,4],[1,1],[7,2],[28,12],[1,0],[1,1],[1,0],[2,-1],[17,-4],[12,0],[10,6],[5,2],[2,1],[7,2],[4,1],[1,1],[1,0],[9,0],[2,0],[13,7],[1,1],[1,0],[1,0],[27,2],[34,-1],[3,1],[8,4],[1,1],[1,0],[1,0],[16,2],[3,0],[21,12],[1,1],[1,0],[67,12]],[[887,2585],[68,12]],[[0,3472],[456,92],[119,-28],[114,4],[101,53],[33,51],[306,143],[196,222],[177,87]],[[336,1015],[32,4]],[[368,1019],[14,7]],[[382,1026],[4,2],[6,2],[2,0]],[[394,1030]],[[368,1019],[-1,0],[-9,-5],[-3,-1],[-2,0],[-2,0],[-2,0],[-1,0],[-3,0],[-9,2]],[[394,1030]],[[394,1030],[-12,-4]],[[472,1037],[-35,-18],[-7,-2],[-7,2],[-22,11],[-7,0]],[[394,1030]],[[394,1030]],[[394,1030]],[[394,1030]],[[394,1030],[5,1],[1,-1],[2,0],[20,-10]],[[461,1032],[18,11],[20,3],[7,-3],[26,-14],[31,-1],[5,0],[3,-2],[11,-6],[38,-3],[54,-13],[79,-4],[2,0],[15,-4],[7,-3],[5,0],[5,0],[22,-7],[23,73],[200,-7]],[[1032,1052],[53,0]],[[472,1037],[27,8],[7,-2],[20,-12],[2,-1],[2,-1],[2,0],[4,0],[10,-1],[17,0],[5,-1],[3,-1],[8,-5],[1,-1],[2,0],[1,0],[37,-3],[17,-7],[8,-1],[28,-5],[1,0],[29,-2],[51,-2],[23,-7],[1,0],[4,0],[5,0],[18,-7],[2,0],[2,0],[9,0],[1,1],[1,0],[1,1],[1,2],[1,1],[9,68],[31,-5],[38,-13],[2,0],[1,0],[1,0],[4,0],[54,7],[28,4],[6,0],[11,-5],[1,0],[1,0],[11,1],[2,0],[1,0],[1,1],[7,3]],[[1088,1061],[-4,-8]],[[1088,1055],[-1,-1],[0,-1],[-1,0],[-1,-1]],[[1088,1055],[-3,-3]],[[3747,637],[15,6],[15,-3],[8,-15],[-25,0],[-4,-4],[-3,0],[-8,-20],[-8,-36],[-7,-19],[-7,-8],[-50,10],[-52,21],[97,0],[10,7],[3,15],[1,19],[3,15],[12,12]],[[3747,637],[15,6],[15,-3],[8,-15],[-25,0],[-4,-4],[-3,0],[-8,-20],[-8,-36],[-7,-19],[-7,-8],[-50,10],[-52,21],[97,0],[10,7],[3,15],[1,19],[3,15],[12,12]],[[273,3956],[0,-4],[-4,-24],[-7,-21]],[[262,3907],[-1,-2],[-11,-18],[-43,-51],[-8,-12],[-7,-13],[-4,-8],[-4,-9],[-3,-10],[-3,-15],[-2,-9],[-3,-57],[1,-131],[-1,-11]],[[277,4096],[-2,-20],[0,-100],[-2,-20]],[[0,3629],[114,-34],[62,-28]],[[470,3611],[13,0],[26,-2]],[[176,3567],[29,-6],[30,-1],[27,2],[169,46],[39,3]],[[509,3609],[163,-14],[119,8]],[[865,3616],[61,21]],[[940,3642],[35,12]],[[791,3603],[56,6],[18,7]],[[926,3637],[14,5]],[[975,3654],[271,95],[99,22],[2,1],[33,26],[6,5],[2,4],[2,4],[2,5],[1,4],[0,5],[0,6]],[[1392,3815],[19,36],[24,27],[293,218]],[[1061,1037],[-14,-1]],[[1047,1036],[-27,-3],[-161,-54],[-71,-7],[-87,2],[-109,24],[-26,1],[-14,-2],[-58,-24],[-26,-6],[-92,1]],[[376,968],[-125,-7],[-14,3],[-7,2]],[[217,984],[-1,1],[-1,5],[0,5],[-1,5],[0,8]],[[214,1008],[0,2],[1,11],[2,10],[18,79],[2,10],[-1,10],[0,3],[-1,3],[-2,6],[-2,3],[-7,10],[-7,11],[-3,6],[-2,6],[-2,6],[-4,18],[-1,6],[-3,4]],[[230,966],[-7,6],[-1,2],[-4,7],[-1,3]],[[152,1254],[-18,12],[-8,4]],[[3,1316],[-3,0]],[[126,1270],[-82,36],[-41,10]],[[202,1212],[-6,8],[-6,7],[-6,5],[-16,9],[-16,13]],[[3334,581],[-3,2],[-13,7],[-15,3],[-14,-2],[-55,-21]],[[3234,570],[-27,-10],[-7,-1],[-2,0],[-23,2],[-97,-17],[-19,1],[-19,4],[-38,17],[-145,95],[-19,8],[-38,9],[-117,6],[-110,39],[-38,4],[-108,1]],[[4096,476],[-10,5],[-64,42],[-34,13],[-64,11],[-30,-1],[-118,-21],[-27,3],[-28,10],[-34,21],[-19,8],[-9,1],[-32,0],[-9,2],[-4,2],[-3,1],[-7,6],[-7,3],[-6,0],[-7,-3],[-5,-5],[-19,-24],[-7,-6],[-16,-9],[-18,-5],[-72,2],[-37,5],[-17,5],[-9,3],[-50,36]],[[2280,720],[-8,1],[-52,21]],[[2220,742],[-109,44],[-95,19],[-34,16],[-17,11],[-30,24],[-116,111],[-34,23],[-35,17],[-37,10],[-37,1],[-36,-5],[-151,-54],[-40,-2],[-39,11],[-52,29],[-18,8],[-67,12],[-73,4]],[[2427,728],[-116,-10],[-31,2]],[[1048,1036],[9,7],[37,34],[65,41]],[[1159,1118],[13,8],[25,21],[26,26],[7,9],[112,194],[38,51],[11,13],[6,9],[7,9],[8,8],[4,3],[8,5],[24,4],[16,6],[15,8],[15,11],[15,14],[14,15],[13,16],[12,19],[10,20],[8,22],[6,24],[0,1],[1,0],[0,1],[0,1],[0,1],[0,1],[0,1],[0,1],[1,1],[0,1],[0,2],[0,1],[0,1],[1,2],[0,1],[0,1],[0,2],[0,1],[1,2],[0,1],[0,2],[0,1],[1,2],[0,1],[0,2],[0,1],[1,1],[0,2],[0,1],[0,1],[0,2],[1,1],[0,1],[0,1],[0,1],[0,1],[0,1],[0,1],[1,1],[0,1],[0,1]],[[2065,2086],[6,3],[14,5],[14,3],[5,0]],[[1580,1682],[4,28],[5,25],[16,41],[21,33],[26,25],[28,19],[29,13],[152,43],[31,14],[30,20],[25,21],[100,110],[11,8],[7,4]],[[2104,2097],[10,1]],[[2107,2098],[116,46],[20,4],[20,3],[40,-1],[81,-13],[120,-37],[202,-100],[53,-17]],[[2754,1985],[18,0],[16,-7],[33,-17],[20,-7],[41,-5],[480,-3],[212,-27],[33,1],[33,5],[32,11],[5,2]],[[3717,1938],[15,-4]],[[3674,1932],[12,8],[14,2],[17,-4]],[[3732,1934],[47,-10],[317,-146]],[[2381,91],[-15,-91]],[[2267,718],[-1,-12]],[[2266,706],[-3,-44],[0,-12],[0,-13],[2,-13],[4,-11],[4,-7],[15,-19],[5,-8],[3,-9],[2,-10],[1,-10],[0,-6],[-2,-5],[-2,-4],[-3,-3],[-6,-5],[-3,-3],[-3,-4],[-1,-6],[1,-6],[2,-5],[2,-5],[5,-4],[16,-9],[5,-4],[5,-5],[4,-6],[3,-8],[4,-16],[4,-17],[4,-14],[7,-12],[95,-102],[22,-27],[8,-13],[8,-16],[6,-17],[2,-19],[-3,-19],[-8,-15],[-21,-24],[-5,-7],[-4,-7],[-4,-8],[-3,-10],[-9,-30],[-4,-10],[-10,-14],[-13,0],[-11,9],[-9,16],[-2,5],[-1,5]],[[881,3607],[6,-1]],[[869,3610],[12,-3]],[[887,3606],[37,-10],[81,-38],[219,-154]],[[2373,1722],[-1,-5],[-6,-20],[-3,-12],[-1,-5]],[[2099,2164],[2,-3],[5,-9],[3,-10],[2,-12],[0,-9]],[[1604,2646],[26,-11],[2,-1]],[[1632,2634],[11,-6],[67,-54],[19,-10],[37,-14],[17,-10],[122,-98],[24,-28],[21,-34],[6,-14],[5,-15],[5,-15],[20,-120],[9,-30],[15,-22],[20,-6],[13,4],[27,11],[13,1],[7,-2],[6,-5],[3,-3]],[[2111,2121],[1,-26],[1,-11],[2,-11],[3,-11],[3,-10],[4,-9],[10,-17],[46,-59],[47,-70],[13,-16],[29,-27],[71,-44],[11,-10],[10,-11],[9,-14],[3,-8],[2,-9],[1,-9],[0,-10],[-2,-11],[-2,-6]],[[2362,1680],[0,-6],[-1,-12],[2,-28],[0,-6],[-1,-7],[-5,-36],[0,-12],[2,-13],[14,-45],[2,-12],[3,-21],[0,-24],[-3,-22],[-8,-18],[-9,-9],[-19,-14],[-9,-10],[-3,-6],[-2,-6],[0,-7],[0,-8],[2,-7],[4,-6],[4,-5],[4,-4],[10,-9],[33,-19],[3,-23],[3,-23],[1,-48],[-6,-99],[-28,-230],[-9,-43],[-7,-26],[-8,-25],[-11,-22],[-14,-19]],[[1224,3404],[111,-86]],[[1335,3318],[75,-58],[30,-35],[18,-28]],[[1591,2674],[1,-4],[3,-4],[3,-4],[3,-3],[7,-5],[2,-3],[2,-4],[0,-6]],[[1458,3197],[36,-54],[12,-20],[5,-11],[3,-12],[3,-10],[1,-10],[0,-11],[0,-10],[-7,-69],[0,-24],[2,-30],[5,-31],[15,-58],[58,-173]],[[292,90],[-5,-5],[-16,-8],[-16,-4],[-16,0],[-97,12],[-14,-1],[-8,-2],[-7,-3],[-6,-4],[-7,-6],[-23,-28],[-6,-6],[-7,-5],[-8,-4],[-40,-15],[-14,-7],[-2,-1]],[[961,1016],[-1,-5],[-1,-4],[0,-10],[-1,-5],[-2,-5],[-12,-17],[-14,-16],[-7,-6],[-15,-12],[-17,-9],[-33,-12],[-59,-14],[-30,-15],[-393,-265],[-5,-6],[-4,-7],[-3,-8],[-1,-10],[1,-9],[1,-9],[11,-35],[2,-9],[0,-11],[-1,-11],[-3,-11],[-4,-9],[-14,-25],[-3,-10],[-2,-8],[0,-9],[0,-17],[2,-20],[3,-20],[2,-9],[3,-7],[4,-7],[15,-18],[4,-8],[4,-8],[2,-11],[1,-10],[1,-11],[0,-11],[-3,-22],[-6,-21],[-7,-20],[-8,-19],[-20,-35],[-34,-48],[-13,-15],[-9,-7]],[[0,2695],[8,10]],[[8,2705],[4,5]],[[1184,1141],[6,-3],[7,-7],[6,-8],[4,-10],[2,-11],[2,-13],[1,-12],[-1,-13],[-5,-24],[-8,-22],[-11,-19],[-13,-14],[-19,-10],[-19,-4],[-19,-1],[-39,9],[-9,5],[-8,5],[-8,8],[-7,9],[-18,31]],[[101,2625],[17,1],[16,-5],[16,-8],[49,-38],[4,-2],[4,-2],[4,-2],[20,-2],[16,-5],[16,-9],[16,-12],[80,-81],[99,-61],[17,-15],[8,-9],[7,-10],[6,-11],[4,-11],[2,-12],[0,-12],[-2,-13],[-2,-7],[-2,-7],[-3,-7],[-3,-7],[-4,-5],[-14,-12],[-3,-6],[-1,-8],[0,-8],[1,-8]],[[469,2231],[3,-9],[5,-7],[10,-14],[10,-16],[19,-42],[6,-10],[7,-9],[7,-6]],[[562,2093],[10,-21],[1,0]],[[536,2118],[14,-9],[7,-7],[5,-9]],[[573,2072],[5,-9],[7,-7],[17,-7],[8,-5],[6,-6],[6,-8],[5,-8],[4,-10],[6,-19],[5,-22],[0,-1],[0,-1],[0,-1],[0,-1],[0,-1],[0,-1],[0,-1],[1,-2],[0,-1],[0,-2],[0,-1],[0,-2],[0,-1],[1,-2],[0,-2],[0,-1],[0,-2],[0,-2],[1,-2],[0,-2],[0,-2],[0,-1],[0,-2],[1,-2],[0,-2],[0,-2],[0,-1],[0,-2],[1,-2],[0,-2],[0,-1],[0,-2],[0,-1],[0,-1],[1,-2],[0,-1],[0,-1],[0,-1],[0,-1],[0,-1],[0,-1],[0,-1]],[[674,1765],[2,-18],[2,-14]],[[648,1910],[10,-83],[2,-11],[5,-14],[7,-16],[1,-4],[0,-5],[1,-10],[0,-2]],[[678,1733],[1,-5]],[[679,1728],[5,-18],[7,-17],[9,-16],[43,-59],[61,-69],[31,-24]],[[1135,1107],[2,-7]],[[835,1525],[179,-143],[43,-42],[40,-46],[18,-26],[17,-28],[15,-31],[-14,-21],[-5,-28],[2,-32],[5,-21]],[[0,2714],[5,-3]],[[22,2701],[11,-6],[25,-21],[33,-33]],[[5,2711],[2,-1],[15,-9]],[[91,2641],[19,-20]],[[780,2564],[7,0]],[[831,2573],[20,4]],[[678,2574],[29,-8],[11,0]],[[726,2566],[33,-1]],[[244,2565],[340,30],[41,-6],[53,-15]],[[718,2566],[8,0]],[[759,2565],[21,-1]],[[787,2564],[1,0],[43,9]],[[851,2577],[73,14],[11,4],[39,21],[10,3]],[[979,2624],[548,26],[33,-3],[32,-10]],[[3322,1476],[-10,-16]],[[4096,2251],[-4,-2],[-31,-18],[-176,-154],[-46,-31],[-31,-14],[-55,-18],[-12,-7],[-19,-19],[-14,-26],[-11,-29],[-26,-109],[-9,-23],[-25,-47],[-28,-42],[-30,-36],[-16,-16],[-17,-13],[-33,-18],[-15,-13],[-13,-18],[-15,-37],[-4,-8],[-5,-8],[-5,-6],[-6,-6],[-11,-8],[-12,-6],[-75,-17],[-22,-15],[-8,-11]],[[3312,1460],[-3,-11]],[[3309,1449],[-3,-9],[-1,-23],[4,-22],[8,-19],[38,-54],[5,-9],[4,-8],[3,-9],[2,-9],[1,-10],[1,-48],[6,-53],[4,-26],[7,-25],[39,-95],[7,-19],[5,-20],[2,-21]],[[3299,600],[-22,-19],[-6,-7],[-6,-8],[-4,-9],[-4,-11],[-2,-8]],[[3440,952],[0,-2],[-1,-4]],[[3255,538],[0,-4],[-6,-39],[-5,-18],[-7,-18],[-33,-67],[-16,-37],[-5,-17],[-5,-19],[-2,-19],[0,-20],[3,-19],[6,-16],[8,-14],[13,-17],[2,-6],[2,-6],[0,-7],[-1,-13],[-2,-12],[-3,-12],[-4,-11],[-15,-31],[-5,-11],[-3,-11],[-2,-12],[-1,-12],[1,-70]],[[3439,946],[-4,-14],[-8,-15],[-11,-10],[-22,-13],[-7,-5],[-6,-6],[-5,-7],[-5,-7],[-5,-8],[-4,-8],[-2,-10],[-2,-10],[-1,-8],[0,-25],[0,-23],[-3,-21],[-7,-20],[-8,-18],[-17,-29],[-5,-10],[-2,-10],[0,-10],[2,-21],[-1,-10],[-3,-10],[-5,-8],[-6,-6],[-3,-4]],[[3441,970],[-1,-18]],[[3547,3809],[53,4]],[[1381,3788],[122,-10],[40,4],[106,23],[36,3],[149,-30],[19,0],[57,9],[18,0],[35,-6],[121,-49],[35,-10],[20,-2],[40,3],[80,15],[29,1],[197,-22],[18,1],[19,3],[25,9],[28,15],[49,41],[13,9],[13,7],[27,10],[66,13],[35,15],[118,65],[35,12],[18,2],[72,-6],[378,-110],[27,-4],[121,10]],[[3600,3813],[149,12]],[[3736,3829],[360,31]],[[97,2822]],[[41,2708],[-5,-13]],[[0,3047],[30,-35],[17,-26],[4,-7],[3,-6],[3,-8],[3,-13],[1,-15],[1,-42],[0,-1],[1,-1],[2,1],[11,0],[7,-2],[4,-2],[4,-3],[4,-4],[3,-5],[4,-14],[0,-14],[-2,-15],[-3,-13]],[[173,3561],[-2,-34],[-6,-44],[-5,-22],[-11,-43],[-14,-42],[-18,-37],[-23,-30],[-33,-25],[-7,-8],[-14,-18],[-36,-59],[-4,-5]],[[97,2822],[0,-1],[-4,-11],[-4,-12],[-44,-81],[-4,-9]],[[309,3897],[17,-1],[7,-11]],[[446,3602],[-2,-19]],[[280,3906],[21,-9],[8,0]],[[333,3885],[0,-1],[25,-20],[9,-21],[10,-10],[29,-14],[9,-16],[8,-32],[27,-74],[14,-22],[3,-16],[-19,-30],[-2,-27]],[[1078,1048],[35,-6]],[[4096,0],[-481,0],[-3615,0],[0,4096],[4096,0],[0,-4096]],[[0,89],[31,7],[-31,2],[14,20],[13,1],[5,-22],[1,0],[3,44],[-36,18],[0,29],[0,69],[0,86],[165,-108],[55,-64],[47,-3],[18,-70],[-32,-6],[37,3],[15,-40],[-34,-28],[-60,30],[-19,-38],[-34,16],[-25,-35],[-133,0],[0,89]],[[0,188],[48,2],[-1,-2],[15,13],[-62,-13]],[[465,131],[71,26],[1,54],[20,53],[19,-19],[6,48],[3,-42],[40,14],[5,-38],[15,20],[66,-35],[-50,-12],[19,-20],[44,27],[37,-50],[-52,-55],[-53,25],[-46,-42],[-10,-48],[-47,31],[-5,56],[-23,11],[-10,-29],[-5,24],[-14,-17],[-31,18]],[[0,425],[26,21],[130,-81],[24,-28],[-28,-48],[35,10],[-12,-34],[57,-59],[49,-11],[-12,-25],[-49,1],[-55,64],[-161,100],[-4,90]],[[445,1856],[61,48],[108,-126],[-46,-31],[-7,44],[-62,5],[-54,60]],[[577,1560],[57,20],[-19,58],[67,-2],[2,-34],[73,-8],[36,-39],[-109,-95],[-85,16],[21,7],[-43,77]],[[317,1721],[24,20],[-13,50],[58,5],[85,-63],[139,-34],[-38,-29],[-9,-58],[-97,-10],[-54,5],[-95,114]],[[0,2013],[33,18],[13,-33],[77,-1],[9,-23],[-105,-60],[-27,11],[0,88]],[[190,2084],[37,47],[93,-58],[16,-26],[-19,-15],[25,-19],[-29,-77],[-76,-20],[-47,168]],[[927,2323],[41,10],[-21,63],[69,40],[75,-129],[-11,-25],[-44,13],[-9,-30],[-8,44],[-59,-15],[-33,29]],[[115,2413],[2,42],[50,37],[33,-5],[28,-57],[29,9],[35,-57],[-70,-27],[-107,58]],[[621,2742],[26,14],[9,-21],[28,31],[-9,-21],[58,-20],[51,-58],[-19,-59],[43,30],[-2,-21],[27,-7],[37,31],[22,-14],[-1,-28],[-42,-16],[10,-45],[-38,9],[16,40],[-57,-26],[1,24],[-75,-3],[5,98],[-27,-3],[10,32],[-61,7],[-12,26]],[[0,2881],[59,3],[39,-62],[-93,0],[-5,59]],[[305,2869],[25,37],[21,-31],[32,16],[44,-51],[-12,-49],[-23,-1],[-8,31],[-63,2],[-16,46]],[[733,2846],[32,31],[-26,13],[3,65],[72,-9],[31,-122],[-54,-21],[-58,43]],[[160,3962],[24,20],[70,-29],[79,11],[28,-42],[36,-8],[5,-45],[44,17],[65,-26],[2,-59],[139,-30],[20,-33],[59,7],[-13,-28],[41,-30],[-11,-41],[-57,18],[-69,74],[-112,37],[-11,26],[-83,5],[-7,29],[-67,56],[-21,-12],[-26,38],[-93,-27],[-38,58],[9,-27],[-93,-21],[-29,30],[-47,-7],[-4,55],[28,53],[31,-38],[91,-1],[10,-30]],[[380,3871],[4,-4],[8,8],[-6,2],[-6,-6]],[[4096,3595],[0,-181],[-298,23],[-22,71],[-56,-1],[1,26],[-6,-26],[-43,-1],[51,41],[23,-36],[60,26],[5,-12],[-7,-11],[5,-9],[19,45],[61,24],[8,-19],[64,9],[-18,20],[28,0],[-7,19],[34,-20],[64,23],[34,-11]],[[864,4096],[371,0],[-65,-20],[-14,-61],[-93,-4],[-49,39],[-38,-18],[-8,45],[-9,-31],[-49,46],[-8,-43],[-38,47]],[[820,4096],[7,0],[-7,-9],[0,9]],[[690,1469],[88,71],[31,-71],[35,-9],[19,-80],[48,12],[9,-31],[32,21],[50,-39],[-47,-77],[28,-20],[-28,-12],[-28,85],[-113,75],[-27,47],[-39,1],[-16,-28],[-42,55]],[[151,291],[29,46],[-24,13],[5,17],[14,7],[-1,-22],[69,1],[4,-27],[-13,7],[-5,-5],[22,-30],[111,-47],[2,-43],[-51,-63],[-22,7],[2,-56],[-25,-4],[19,16],[-22,58],[19,35],[-43,16],[-30,54],[-37,0],[13,28],[-36,-8]],[[3292,3187],[57,2],[-3,88],[78,3],[-1,-132],[-95,-15],[1,-27],[-33,-7],[-4,88]],[[3318,3161],[14,-26],[17,42],[-20,11],[-11,-27]],[[1581,0],[29,69],[9,6],[32,-75],[-70,0]],[[1371,115],[-48,7],[-25,44],[33,13],[40,-64]],[[4096,205],[0,-9],[-10,-73],[-27,8],[13,76],[24,-2]],[[746,397],[-28,15],[9,44],[-27,4],[16,52],[56,0],[-26,-115]],[[986,372],[-28,12],[24,40],[33,-27],[-29,-25]],[[2271,705],[-51,11],[0,38],[81,0],[-30,-49]],[[3318,591],[19,-3],[-19,-43],[-70,-8],[-33,77],[25,16],[78,-39]],[[203,970],[-17,12],[8,39],[36,-24],[-27,-27]],[[131,1241],[-6,31],[28,17],[6,-31],[-28,-17]],[[0,1357],[20,11],[-20,-60],[0,49]],[[3353,1419],[-57,38],[15,25],[42,-20],[0,-43]],[[3442,946],[-35,2],[-14,36],[36,-1],[13,-37]],[[1070,1107],[34,18],[24,-25],[25,25],[14,-16],[17,-67],[-39,-58],[-98,52],[-8,102],[31,-31]],[[2358,1675],[0,37],[8,27],[16,-37],[-24,-27]],[[674,1729],[-23,22],[19,24],[13,-36],[-9,-10]],[[3728,1904],[-27,14],[26,33],[14,-46],[-13,-1]],[[2741,1988],[30,-32],[-48,-27],[-33,53],[51,6]],[[561,2045],[-31,13],[34,38],[14,-12],[-17,-39]],[[1355,2186],[-27,15],[-6,49],[32,-43],[1,-21]],[[2120,2152],[-19,-65],[-83,-3],[81,64],[0,51],[21,-47]],[[2892,2224],[-21,19],[-3,45],[23,-28],[1,-36]],[[757,2577],[7,-46],[-64,0],[-33,64],[57,-33],[24,34],[9,-19]],[[111,2701],[24,18],[31,-22],[-41,0],[29,-68],[-49,23],[-43,-33],[-62,26],[0,77],[12,-25],[79,30],[20,-26]],[[1623,2673],[13,-34],[-22,-31],[-25,64],[37,38],[-3,-37]],[[2448,2773],[-13,30],[36,35],[-11,-57],[-12,-8]],[[2991,2768],[-50,37],[11,32],[45,-50],[-6,-19]],[[3187,1560],[-28,0],[25,45],[23,-33],[-20,-12]],[[3019,1570],[-22,15],[24,77],[25,-38],[-27,-54]],[[457,3554],[-33,13],[7,30],[99,34],[-73,-77]],[[822,3729],[7,-22],[72,25],[27,-30],[47,18],[0,-89],[-41,12],[-48,-38],[-73,38],[-33,46],[33,6],[0,51],[9,-17]],[[1363,3797],[-46,3],[-8,23],[30,12],[24,-38]],[[3578,3773],[-23,-2],[-9,35],[17,68],[49,-39],[-34,-62]],[[3146,3812],[-39,17],[10,43],[42,-37],[-13,-23]],[[2631,3665],[-61,21],[-10,47],[57,13],[32,-51],[-18,-30]],[[1635,3386],[-29,2],[0,25],[40,0],[-11,-27]],[[1790,1131],[38,41],[25,-31],[3,20],[60,-6],[28,-25],[-21,-16],[66,-41],[-52,17],[-10,-17],[-87,61],[12,-34],[-25,-13],[-37,44]],[[286,1934],[62,7],[46,-43],[-26,89],[49,22],[28,-28],[-26,3],[0,-32],[37,11],[-85,-126],[-21,79],[-64,18]],[[391,2859],[11,36],[53,5],[-29,38],[20,12],[63,14],[3,-29],[58,-12],[-26,-31],[-39,16],[-18,-42],[-3,42],[-29,-9],[-19,-30],[17,-21],[-62,11]],[[3779,2830],[58,58],[57,15],[17,-81],[29,64],[-30,125],[179,50],[7,-1],[0,-53],[-33,-38],[-40,-131],[18,-30],[-90,-24],[-38,31],[4,-16],[-29,-9],[-14,37],[-26,-66],[-21,5],[8,42],[-56,22]],[[1658,3080],[27,44],[-5,84],[39,-16],[-6,-60],[33,80],[21,-2],[-11,-18],[41,28],[48,-45],[-46,-61],[-49,21],[-40,-52],[-52,-3]],[[1796,3154],[17,-10],[14,19],[-25,-1],[-6,-8]],[[132,751],[-29,-52],[40,-40],[30,-128],[-80,36],[-41,61],[-20,7],[-10,-51],[-22,8],[0,209],[0,221],[52,-25],[6,56],[73,-13],[10,-19],[-32,5],[1,-21],[3,3],[22,4],[1,-1],[1,-1],[-23,-22],[74,-33],[-31,-33],[25,-107],[-47,-67],[-3,3]],[[201,2774],[81,-24],[1,-40],[28,12],[41,-25],[-18,-4],[28,-35],[-8,-27],[33,-14],[-17,-40],[-50,45],[-7,74],[-53,10],[0,43],[-59,25]],[[813,2970],[40,-5],[-12,42],[42,-11],[24,23],[-17,55],[62,-64],[27,19],[-18,41],[31,-45],[20,49],[77,-16],[58,44],[30,-51],[-13,-7],[-12,-34],[28,36],[15,-34],[-93,-22],[18,-52],[-42,-38],[21,0],[15,-46],[-17,16],[-21,-17],[2,24],[-58,-52],[-26,49],[-19,-15],[12,24],[-91,13],[-83,74]],[[2315,2996],[62,47],[-1,-65],[26,-37],[-52,-44],[-26,13],[-9,86]],[[3346,3006],[87,105],[-10,-108],[29,-14],[26,42],[25,-13],[-9,-121],[-148,109]],[[3288,3113],[2,70],[35,1],[3,-48],[18,18],[1,122],[79,3],[-2,-133],[-59,-4],[6,-28],[-45,-22],[23,-29],[-35,4],[-26,46]],[[3146,2866],[52,70],[41,0],[55,-87],[-85,-62],[-62,44],[-1,35]]]}