{"objects":{"water":{"type":"GeometryCollection","geometries":[]},"buildings":{"type":"GeometryCollection","geometries":[]},"places":{"type":"GeometryCollection","geometries":[{"type":"Point","properties":{"name:pt":"Rom\u00eania","name:cy":"Rwmania","name:mt":"Rumanija","name:tr":"Romanya","name:kn":"\u0cb0\u0cca\u0cae\u0ccd\u0caf\u0cbe\u0ca8\u0cbf\u0caf\u0cbe","name:km":"\u179a\u17bc\u1798\u17c9\u17b6\u1793\u17b8","name:kl":"Rum\u00e6nia","name:cs":"Rumunsko","alt_name:eo":"Rumanio","name:ki":"Romania","name:ku":"Romanya","name:ti":"\u122e\u121c\u1292\u12eb","name:ks":"\u0631\u0648\u0645\u0627\u0646\u0650\u06cc\u0627","name:to":"Lom\u0113nia","name:sv":"Rum\u00e4nien","name:or":"\u0b30\u0b4b\u0b2e\u0b3e\u0b28\u0b3f\u0b06","name:pl":"Rumunia","name:ta":"\u0bb0\u0bc1\u0bae\u0bc7\u0ba9\u0bbf\u0baf\u0bbe","name:tg":"\u0420\u0443\u043c\u0438\u043d\u0438\u044f","name:ca":"Romania","name:te":"\u0c30\u0c4b\u0c2e\u0c3e\u0c28\u0c3f\u0c2f\u0c3e","name:hu":"Rom\u00e1nia","name:ka":"\u10e0\u10e3\u10db\u10d8\u10dc\u10d4\u10d7\u10d8","source":"openstreetmap.org","name:hr":"Rumunjska","name:da":"Rum\u00e6nien","name:de":"Rum\u00e4nien","name:dz":"\u0f62\u0f7c\u0f0b\u0f58\u0f7a\u0f0b\u0f53\u0f72\u0f0b\u0f61","name:ko":"\ub8e8\ub9c8\ub2c8\uc544","name:lv":"Rum\u0101nija","name:lt":"Rumunija","name:uz":"Ruminiya","name:kk":"\u0420\u0443\u043c\u044b\u043d\u0438\u044f","name:he":"\u05e8\u05d5\u05de\u05e0\u05d9\u05d4","kind":"country","name:ur":"\u0631\u0648\u0645\u0627\u0646\u06cc\u0627","name:lb":"Rum\u00e4nien","name:la":"Romania","name:lg":"Lomaniya","name:uk":"\u0420\u0443\u043c\u0443\u043d\u0456\u044f","name:hy":"\u054c\u0578\u0582\u0574\u056b\u0576\u056b\u0561","min_zoom":2.0,"name:li":"Roemeni\u00eb","name:ln":"Romani","name:lo":"\u0ea5\u0eb9\u0ec0\u0ea1\u0ec0\u0e99\u0e8d","population":21498616,"name:el":"\u03a1\u03bf\u03c5\u03bc\u03b1\u03bd\u03af\u03b1","name:eo":"Rumanujo","name:en":"Romania","name":"Rom\u00e2nia","name:ee":"Romania nutome","name:th":"\u0e1b\u0e23\u0e30\u0e40\u0e17\u0e28\u0e42\u0e23\u0e21\u0e32\u0e40\u0e19\u0e35\u0e22","name:gu":"\u0ab0\u0acb\u0aae\u0abe\u0aa8\u0abf\u0aaf\u0abe","name:eu":"Errumania","name:et":"Rumeenia","name:nl":"Roemeni\u00eb","name:es":"Rumania","name:ia":"Romania","name:rm":"Rumenia","name:rn":"Rumaniya","name:az":"Rum\u0131niya","name:id":"Rumania","name:ms":"Romania","name:mr":"\u0930\u094b\u092e\u093e\u0928\u093f\u092f\u093e","name:ar":"\u0631\u0648\u0645\u0627\u0646\u064a\u0627","name:my":"\u101b\u102d\u102f\u1019\u1031\u1038\u1014\u102e\u1038\u101a\u102c\u1038","name:io":"Rumania","int_name":"Romania","name:is":"R\u00famen\u00eda","name:am":"\u122e\u121c\u1292\u12eb","name:it":"Romania","name:vi":"Romania","name:ru":"\u0420\u0443\u043c\u044b\u043d\u0438\u044f","name:mn":"\u0420\u0443\u043c\u044b\u043d","id":432425064,"name:mk":"\u0420\u043e\u043c\u0430\u043d\u0438\u0458\u0430","name:af":"Roemeni\u00eb","name:zu":"i-Romania","name:ha":"Romaniya","name:nn":"Romania","name:ff":"Rumanii","name:fi":"Romania","name:hi":"\u0930\u094b\u092e\u093e\u0928\u093f\u092f\u093e","name:mg":"Romania","name:fo":"Rumenia","alt_name:vi":"Rumani","name:fr":"Roumanie","name:fy":"Roemeenje","name:vo":"Rum\u00e4n","name:zh":"\u7f57\u9a6c\u5c3c\u4e9a","name:gv":"Yn Romaan","name:so":"Rumaaniya","name:sn":"Romania","name:sl":"Romunija","name:sk":"Rumunsko","name:ja":"\u30eb\u30fc\u30de\u30cb\u30a2","name:si":"\u0dbb\u0dd4\u0db8\u0dda\u0db1\u0dd2\u0dba\u0dcf\u0dc0","name:fa":"\u0631\u0648\u0645\u0627\u0646\u06cc","name:sg":"Ruman\u00efi","name:se":"Rom\u00e1nia","name:ne":"\u0930\u094b\u092e\u093e\u0928\u093f\u092f\u093e","name:br":"Roumania","name:bs":"Rumunija","name:bm":"Rumani","name:bn":"\u09b0\u09c1\u09ae\u09be\u09a8\u09bf\u09af\u09bc\u09be","name:bo":"\u0f62\u0f7c\u0f0b\u0f58\u0f71\u0f0b\u0f53\u0f72\u0f61\u0f0d","name:ml":"\u0d31\u0d41\u0d2e\u0d47\u0d28\u0d3f\u0d2f","name:no":"Romania","name:sw":"Romania","name:be":"\u0420\u0443\u043c\u044b\u043d\u0456\u044f","name:bg":"\u0420\u0443\u043c\u044a\u043d\u0438\u044f","name:sr":"\u0420\u0443\u043c\u0443\u043d\u0438\u0458\u0430","name:sq":"Rumani","name:ga":"An R\u00f3m\u00e1in","name:gd":"R\u00f2mainia","name:gl":"Roman\u00eda","name:yo":"Or\u00edl\u1eb9\u0301\u00e8de Romaniya","name:ak":"Romenia"},"coordinates":[1592,958]},{"type":"Point","properties":{"kind":"region","name:en":"Ivano-Frankivsk Oblast","name":"\u0406\u0432\u0430\u043d\u043e-\u0424\u0440\u0430\u043d\u043a\u0456\u0432\u0441\u044c\u043a\u0430 \u043e\u0431\u043b\u0430\u0441\u0442\u044c","name:lt":"Ivano Frankivsko sritis","kind_detail":"state","name:eo":"Ivano-Frankivska Provinco","name:de":"Oblast Iwano-Frankiwsk","source":"openstreetmap.org","min_zoom":4.0,"name:fr":"Oblast d'Ivano-Frankivsk","name:be":"\u0406\u0432\u0430\u043d\u0430-\u0424\u0440\u0430\u043d\u043a\u043e\u045e\u0441\u043a\u0430\u044f \u0432\u043e\u0431\u043b\u0430\u0441\u0446\u044c","name:ru":"\u0418\u0432\u0430\u043d\u043e-\u0424\u0440\u0430\u043d\u043a\u043e\u0432\u0441\u043a\u0430\u044f \u043e\u0431\u043b\u0430\u0441\u0442\u044c","name:pl":"obw\u00f3d iwanofrankowski","id":1757670352,"name:es":"\u00d3blast de Ivano-Frankivsk"},"coordinates":[1471,3910]},{"type":"Point","properties":{"name:pt":"Oblast da Transcarp\u00e1tia","name:ro":"Regiunea Transcarpatia","name:cs":"Zakarpatsk\u00e1 oblast","name:eo":"Transkarpata Provinco","min_zoom":4.0,"name:be":"\u0417\u0430\u043a\u0430\u0440\u043f\u0430\u0446\u043a\u0430\u044f \u0432\u043e\u0431\u043b\u0430\u0441\u0446\u044c","name:ru":"\u0417\u0430\u043a\u0430\u0440\u043f\u0430\u0442\u0441\u043a\u0430\u044f \u043e\u0431\u043b\u0430\u0441\u0442\u044c","name:pl":"obw\u00f3d zakarpacki","id":683681593,"kind":"region","name:en":"Zakarpatska Oblast","name":"\u0417\u0430\u043a\u0430\u0440\u043f\u0430\u0442\u0441\u044c\u043a\u0430 \u043e\u0431\u043b\u0430\u0441\u0442\u044c","kind_detail":"state","name:de":"Oblast Transkarpatien","source":"openstreetmap.org","name:fr":"Oblast de Transcarpathie","name:es":"\u00d3blast de Transcarpatia"},"coordinates":[689,3426]},{"type":"Point","properties":{"name:pt":"Oblast de Chernivtsi","name:ro":"Regiunea Cern\u0103u\u021bi","name:eo":"\u0108ernivca Provinco","min_zoom":4.0,"name:be":"\u0427\u0430\u0440\u043d\u0430\u0432\u0456\u0446\u043a\u0430\u044f \u0432\u043e\u0431\u043b\u0430\u0441\u0446\u044c","name:ru":"\u0427\u0435\u0440\u043d\u043e\u0432\u0438\u0446\u043a\u0430\u044f \u043e\u0431\u043b\u0430\u0441\u0442\u044c","name:pl":"obw\u00f3d czerniowiecki","id":683681609,"kind":"region","name:en":"Chernivtsi Oblast","name":"\u0427\u0435\u0440\u043d\u0456\u0432\u0435\u0446\u044c\u043a\u0430 \u043e\u0431\u043b\u0430\u0441\u0442\u044c","kind_detail":"state","name:de":"Oblast Tschernowitz","source":"openstreetmap.org","name:fr":"Oblast de Tchernivtsi","name:es":"\u00d3blast de Chernivtsi"},"coordinates":[2627,3518]},{"type":"Point","properties":{"source":"naturalearthdata.com","kind":"locality","name":"Iasi","population":325914,"region_capital":true,"min_zoom":5.0,"id":6300},"coordinates":[3695,2222]},{"type":"Point","properties":{"source":"naturalearthdata.com","kind":"locality","name":"Cluj-Napoca","population":316748,"region_capital":true,"min_zoom":6.0,"id":5627},"coordinates":[800,1816]}]},"transit":{"type":"GeometryCollection","geometries":[{"type":"LineString","properties":{"kind":"train","name":"CFR 201","sort_rank":275,"source":"openstreetmap.org","min_zoom":6.0,"ref":"201","id":-7152038,"osm_relation":true},"arcs":[443]},{"type":"LineString","properties":{"source":"openstreetmap.org","kind":"train","name":"CFR line 702","sort_rank":275,"ref":"702","min_zoom":6.0,"osm_relation":true},"arcs":[444]},{"type":"MultiLineString","properties":{"source":"openstreetmap.org","kind":"train","name":"Bucuresti <-> Chisnau","sort_rank":275,"ref":"Bucuresti <-> Chisnau","min_zoom":6.0,"osm_relation":true},"arcs":[[445],[446],[447],[448],[449],[450],[451],[452],[453],[454],[455],[456],[457],[458],[459],[460]]},{"type":"MultiLineString","properties":{"kind":"train","network":"train","sort_rank":275,"name:de":"Moskau - Kischinau","source":"openstreetmap.org","min_zoom":6.0,"name:uk":"\u041c\u043e\u0441\u043a\u0432\u0430 - \u041a\u0456\u0448\u0456\u043d\u0435\u0443","operator":"CFM","ref":"47\u0429: \u041c\u043e\u0441\u043a\u0432\u0430 - \u041a\u0438\u0448\u0438\u043d\u044d\u0443","osm_relation":true,"name":"\u041c\u043e\u0441\u043a\u0432\u0430 - \u041a\u0438\u0448\u0438\u043d\u044d\u0443"},"arcs":[[461],[462]]},{"type":"LineString","properties":{"source":"openstreetmap.org","kind":"train","name":"CFR 904","sort_rank":275,"ref":"904","min_zoom":6.0,"osm_relation":true},"arcs":[463]},{"type":"MultiLineString","properties":{"kind":"train","name":"CFR line 200","sort_rank":275,"source":"openstreetmap.org","min_zoom":6.0,"operator":"CFR","ref":"200","osm_relation":true},"arcs":[[464],[465],[466],[467],[468],[469],[470],[471],[472],[473],[474],[475],[476],[477],[478],[479],[480],[481],[482],[483]]},{"type":"LineString","properties":{"source":"openstreetmap.org","kind":"train","name":"Suceava - Putna","sort_rank":275,"min_zoom":6.0,"osm_relation":true,"id":-1769173},"arcs":[484]},{"type":"LineString","properties":{"kind":"train","name":"B\u0103l\u0163i Slobozia - Ocni\u0163a","sort_rank":275,"source":"openstreetmap.org","min_zoom":6.0,"operator":"CFM","ref":"6931 B\u0103l\u0163i Slobozia - Ocni\u0163a","id":-6819997,"osm_relation":true},"arcs":[485]},{"type":"MultiLineString","properties":{"source":"openstreetmap.org","kind":"train","name":"\u0411\u043e\u0440\u0436\u0430\u0432\u0441\u044c\u043a\u0430 \u0432\u0443\u0437\u044c\u043a\u043e\u043a\u043e\u043b\u0456\u0439\u043d\u0430 \u0437\u0430\u043b\u0456\u0437\u043d\u0438\u0446\u044f","sort_rank":275,"min_zoom":6.0,"osm_relation":true},"arcs":[[486],[487],[488]]},{"type":"LineString","properties":{"kind":"train","network":"CFF Vi\u0219eu","sort_rank":275,"source":"openstreetmap.org","min_zoom":6.0,"operator":"CFF Vi\u0219eu","name:hu":"Vas\u00e9r-v\u00f6lgyi kisvas\u00fat","id":-2855852,"osm_relation":true,"name":"CFF Vi\u0219eu"},"arcs":[489]},{"type":"LineString","properties":{"source":"openstreetmap.org","kind":"train","name":"CFR line 905","sort_rank":275,"ref":"905","min_zoom":6.0,"osm_relation":true},"arcs":[490]},{"type":"LineString","properties":{"kind":"train","name":"CFR 208","sort_rank":275,"source":"openstreetmap.org","min_zoom":6.0,"ref":"208","id":-7152020,"osm_relation":true},"arcs":[491]},{"type":"MultiLineString","properties":{"kind":"train","name":"Moscova - Chi\u015fin\u0103u","sort_rank":275,"name:de":"Moskau - Kischinau","source":"openstreetmap.org","min_zoom":6.0,"name:uk":"\u041c\u043e\u0441\u043a\u0432\u0430 - \u041a\u0456\u0448\u0456\u043d\u0435\u0443","operator":"CFM","ref":"341\u0424: Moscova - Chi\u015fin\u0103u","osm_relation":true,"network":"train"},"arcs":[[492],[493],[494]]},{"type":"MultiLineString","properties":{"kind":"train","name":"CFR line 300 Bucuresti - Episcopia Bihor","sort_rank":275,"source":"openstreetmap.org","min_zoom":6.0,"operator":"CFR","ref":"300","osm_relation":true},"arcs":[[495],[496],[497],[498],[499],[500],[501],[502],[503],[504],[505],[506]]},{"type":"MultiLineString","properties":{"source":"openstreetmap.org","kind":"train","name":"CFR 704","sort_rank":275,"ref":"704","min_zoom":6.0,"osm_relation":true},"arcs":[[507],[508],[509],[510]]},{"type":"MultiLineString","properties":{"kind":"train","network":"train","sort_rank":275,"source":"openstreetmap.org","min_zoom":6.0,"operator":"CFM","ref":"105\/401","osm_relation":true},"arcs":[[511],[512]]},{"type":"MultiLineString","properties":{"source":"openstreetmap.org","kind":"train","name":"CFR line 906","sort_rank":275,"ref":"906","min_zoom":6.0,"osm_relation":true},"arcs":[[513],[514],[515]]},{"type":"LineString","properties":{"kind":"train","name":"Bra\u0219ov - \u00centorsura Buz\u0103ului","sort_rank":275,"source":"openstreetmap.org","min_zoom":6.0,"operator":"Regiotrans","id":-2698884,"osm_relation":true},"arcs":[516]},{"type":"MultiLineString","properties":{"source":"openstreetmap.org","kind":"train","name":"CFR 700","sort_rank":275,"ref":"700","min_zoom":6.0,"osm_relation":true},"arcs":[[517],[518],[519],[520],[521],[522],[523]]}]},"pois":{"type":"GeometryCollection","geometries":[{"type":"Point","properties":{"kind":"national_park","name:en":"Carpathian Biosphere Reserve","protect_class":"2","area":348401000,"name:de":"Biosph\u00e4renreservat Karpaten","source":"openstreetmap.org","min_zoom":6.57,"tier":1,"name:ru":"\u041a\u0430\u0440\u043f\u0430\u0442\u0441\u043a\u0438\u0439 \u0431\u0438\u043e\u0441\u0444\u0435\u0440\u043d\u044b\u0439 \u0437\u0430\u043f\u043e\u0432\u0435\u0434\u043d\u0438\u043a","name:pl":"Karpacki rezerwat biosfery","id":-1463495,"osm_relation":true,"name":"\u041a\u0430\u0440\u043f\u0430\u0442\u0441\u044c\u043a\u0438\u0439 \u0431\u0456\u043e\u0441\u0444\u0435\u0440\u043d\u0438\u0439 \u0437\u0430\u043f\u043e\u0432\u0456\u0434\u043d\u0438\u043a"},"coordinates":[853,3427]},{"type":"Point","properties":{"kind":"national_park","protect_class":"2","area":1049210000,"source":"openstreetmap.org","min_zoom":5.77,"tier":1,"name:ru":"\u041d\u0430\u0446\u0438\u043e\u043d\u0430\u043b\u044c\u043d\u044b\u0439 \u043f\u0440\u0438\u0440\u043e\u0434\u043d\u044b\u0439 \u043f\u0430\u0440\u043a \u00ab\u0421\u0438\u043d\u0435\u0432\u0438\u0440\u00bb","id":225916132,"name":"\u041d\u0430\u0446\u0456\u043e\u043d\u0430\u043b\u044c\u043d\u0438\u0439 \u043f\u0440\u0438\u0440\u043e\u0434\u043d\u0438\u0439 \u043f\u0430\u0440\u043a \u00ab\u0421\u0438\u043d\u0435\u0432\u0438\u0440\u00bb"},"coordinates":[889,3661]},{"type":"Point","properties":{"kind":"nature_reserve","name":"\u041f\u043e\u043b\u043e\u043d\u0438\u043d\u0430 \u0411\u043e\u0440\u0436\u0430\u0432\u0430","area":1830530000,"source":"openstreetmap.org","min_zoom":6.87,"tier":2,"name:ru":"\u0411\u043e\u0440\u0436\u0430\u0432\u0430 (\u043f\u043e\u043b\u043e\u043d\u0438\u043d\u0430)","name:pl":"Po\u0142onina Bor\u017cawska","id":362584617},"coordinates":[620,3646]}]},"boundaries":{"type":"GeometryCollection","geometries":[{"type":"MultiLineString","properties":{"source":"naturalearthdata.com","kind":"country","sort_rank":262,"kind_detail":"2","min_zoom":0.0,"id":90},"arcs":[[0],[1]]},{"type":"MultiLineString","properties":{"source":"naturalearthdata.com","kind":"country","sort_rank":262,"kind_detail":"2","min_zoom":0.0,"id":223},"arcs":[[2],[3],[4]]},{"type":"MultiLineString","properties":{"source":"naturalearthdata.com","kind":"country","sort_rank":262,"kind_detail":"2","min_zoom":0.0,"id":231},"arcs":[[5],[6],[7],[8],[9],[10],[11],[12],[13],[14],[15],[16],[17],[18],[19],[20],[21],[22],[23]]},{"type":"MultiLineString","properties":{"source":"naturalearthdata.com","kind":"country","sort_rank":262,"kind_detail":"2","min_zoom":0.0,"id":229},"arcs":[[24],[25],[26],[27],[28],[29],[30],[31],[32],[33],[34],[35],[36],[37],[38],[39],[40],[41],[42],[43],[44],[45],[46],[47],[48]]},{"type":"MultiLineString","properties":{"source":"naturalearthdata.com","kind":"country","sort_rank":262,"kind_detail":"2","min_zoom":0.0,"id":230},"arcs":[[49],[50],[51],[52],[53],[54],[55],[56],[57],[58],[59],[60],[61],[62],[63],[64],[65],[66],[67],[68],[69],[70],[71]]},{"type":"MultiLineString","properties":{"source":"naturalearthdata.com","kind":"region","sort_rank":256,"kind_detail":"4","min_zoom":5.5,"id":995},"arcs":[[72],[73],[74],[75],[76],[77],[78],[79],[80],[81],[82],[83],[84],[85],[86],[87],[88],[89],[90],[91],[92]]},{"type":"MultiLineString","properties":{"source":"naturalearthdata.com","kind":"region","sort_rank":256,"kind_detail":"4","min_zoom":5.5,"id":996},"arcs":[[93],[94],[95],[96],[97],[98],[99],[100],[101],[102],[103],[104],[105],[106]]},{"type":"MultiLineString","properties":{"source":"naturalearthdata.com","kind":"region","sort_rank":256,"kind_detail":"4","min_zoom":5.5,"id":1439},"arcs":[[107],[108],[109],[110],[111],[112],[113],[114],[115]]},{"type":"MultiLineString","properties":{"source":"naturalearthdata.com","kind":"region","sort_rank":256,"kind_detail":"4","min_zoom":5.5,"id":1441},"arcs":[[116],[117],[118]]},{"type":"LineString","properties":{"source":"naturalearthdata.com","kind":"region","sort_rank":256,"kind_detail":"4","min_zoom":6.0,"id":2087},"arcs":[119]},{"type":"LineString","properties":{"source":"naturalearthdata.com","kind":"region","sort_rank":256,"kind_detail":"4","min_zoom":6.0,"id":2092},"arcs":[120]},{"type":"LineString","properties":{"source":"naturalearthdata.com","kind":"region","sort_rank":256,"kind_detail":"4","min_zoom":6.0,"id":2101},"arcs":[121]},{"type":"LineString","properties":{"source":"naturalearthdata.com","kind":"region","sort_rank":256,"kind_detail":"4","min_zoom":6.0,"id":2105},"arcs":[122]},{"type":"LineString","properties":{"source":"naturalearthdata.com","kind":"region","sort_rank":256,"kind_detail":"4","min_zoom":6.0,"id":2106},"arcs":[123]},{"type":"LineString","properties":{"source":"naturalearthdata.com","kind":"region","sort_rank":256,"kind_detail":"4","min_zoom":6.0,"id":2111},"arcs":[124]},{"type":"LineString","properties":{"source":"naturalearthdata.com","kind":"region","sort_rank":256,"kind_detail":"4","min_zoom":6.0,"id":2123},"arcs":[125]},{"type":"LineString","properties":{"source":"naturalearthdata.com","kind":"region","sort_rank":256,"kind_detail":"4","min_zoom":6.0,"id":2385},"arcs":[126]},{"type":"LineString","properties":{"source":"naturalearthdata.com","kind":"region","sort_rank":256,"kind_detail":"4","min_zoom":6.0,"id":2639},"arcs":[127]},{"type":"LineString","properties":{"source":"naturalearthdata.com","kind":"region","sort_rank":256,"kind_detail":"4","min_zoom":6.0,"id":2643},"arcs":[128]},{"type":"MultiLineString","properties":{"source":"naturalearthdata.com","kind":"region","sort_rank":256,"kind_detail":"4","min_zoom":6.0,"id":2664},"arcs":[[129],[130]]},{"type":"LineString","properties":{"source":"naturalearthdata.com","kind":"region","sort_rank":256,"kind_detail":"4","min_zoom":6.0,"id":2673},"arcs":[131]},{"type":"MultiLineString","properties":{"source":"naturalearthdata.com","kind":"region","sort_rank":256,"kind_detail":"4","min_zoom":5.5,"id":987},"arcs":[[132],[133],[134],[135],[136]]},{"type":"LineString","properties":{"source":"naturalearthdata.com","kind":"region","sort_rank":256,"kind_detail":"4","min_zoom":5.5,"id":1454},"arcs":[137]},{"type":"MultiLineString","properties":{"source":"naturalearthdata.com","kind":"region","sort_rank":256,"kind_detail":"4","min_zoom":5.5,"id":1440},"arcs":[[138],[139],[140],[141],[142],[143],[144],[145],[146],[147],[148]]},{"type":"LineString","properties":{"source":"naturalearthdata.com","kind":"region","sort_rank":256,"kind_detail":"4","min_zoom":5.5,"id":1442},"arcs":[149]},{"type":"MultiLineString","properties":{"source":"naturalearthdata.com","kind":"region","sort_rank":256,"kind_detail":"4","min_zoom":5.5,"id":1443},"arcs":[[150],[151],[152],[153],[154],[155],[156]]},{"type":"MultiLineString","properties":{"source":"naturalearthdata.com","kind":"region","sort_rank":256,"kind_detail":"4","min_zoom":5.5,"id":1451},"arcs":[[157],[158],[159]]},{"type":"MultiLineString","properties":{"source":"naturalearthdata.com","kind":"region","sort_rank":256,"kind_detail":"4","min_zoom":6.0,"id":2088},"arcs":[[160],[161],[162],[163],[164],[165],[166],[167],[168],[169],[170],[171],[172],[173],[174],[175]]},{"type":"MultiLineString","properties":{"source":"naturalearthdata.com","kind":"region","sort_rank":256,"kind_detail":"4","min_zoom":6.0,"id":2090},"arcs":[[176],[177],[178]]},{"type":"MultiLineString","properties":{"source":"naturalearthdata.com","kind":"region","sort_rank":256,"kind_detail":"4","min_zoom":6.0,"id":2091},"arcs":[[179],[180],[181],[182],[183],[184],[185]]},{"type":"LineString","properties":{"source":"naturalearthdata.com","kind":"region","sort_rank":256,"kind_detail":"4","min_zoom":6.0,"id":2093},"arcs":[186]},{"type":"MultiLineString","properties":{"source":"naturalearthdata.com","kind":"region","sort_rank":256,"kind_detail":"4","min_zoom":6.0,"id":2094},"arcs":[[187],[188],[189]]},{"type":"LineString","properties":{"source":"naturalearthdata.com","kind":"region","sort_rank":256,"kind_detail":"4","min_zoom":6.0,"id":2096},"arcs":[190]},{"type":"LineString","properties":{"source":"naturalearthdata.com","kind":"region","sort_rank":256,"kind_detail":"4","min_zoom":6.0,"id":2097},"arcs":[191]},{"type":"MultiLineString","properties":{"source":"naturalearthdata.com","kind":"region","sort_rank":256,"kind_detail":"4","min_zoom":6.0,"id":2098},"arcs":[[192],[193],[194]]},{"type":"MultiLineString","properties":{"source":"naturalearthdata.com","kind":"region","sort_rank":256,"kind_detail":"4","min_zoom":6.0,"id":2099},"arcs":[[195],[196],[197],[198],[199]]},{"type":"MultiLineString","properties":{"source":"naturalearthdata.com","kind":"region","sort_rank":256,"kind_detail":"4","min_zoom":6.0,"id":2100},"arcs":[[200],[201],[202],[203],[204],[205],[206],[207],[208],[209],[210],[211]]},{"type":"MultiLineString","properties":{"source":"naturalearthdata.com","kind":"region","sort_rank":256,"kind_detail":"4","min_zoom":6.0,"id":2102},"arcs":[[212],[213],[214],[215],[216],[217]]},{"type":"MultiLineString","properties":{"source":"naturalearthdata.com","kind":"region","sort_rank":256,"kind_detail":"4","min_zoom":6.0,"id":2103},"arcs":[[218],[219],[220],[221],[222],[223],[224]]},{"type":"MultiLineString","properties":{"source":"naturalearthdata.com","kind":"region","sort_rank":256,"kind_detail":"4","min_zoom":6.0,"id":2104},"arcs":[[225],[226],[227],[228],[229],[230]]},{"type":"MultiLineString","properties":{"source":"naturalearthdata.com","kind":"region","sort_rank":256,"kind_detail":"4","min_zoom":6.0,"id":2107},"arcs":[[231],[232],[233],[234],[235]]},{"type":"MultiLineString","properties":{"source":"naturalearthdata.com","kind":"region","sort_rank":256,"kind_detail":"4","min_zoom":6.0,"id":2108},"arcs":[[236],[237],[238]]},{"type":"LineString","properties":{"source":"naturalearthdata.com","kind":"region","sort_rank":256,"kind_detail":"4","min_zoom":6.0,"id":2109},"arcs":[239]},{"type":"MultiLineString","properties":{"source":"naturalearthdata.com","kind":"region","sort_rank":256,"kind_detail":"4","min_zoom":6.0,"id":2110},"arcs":[[240],[241],[242],[243]]},{"type":"MultiLineString","properties":{"source":"naturalearthdata.com","kind":"region","sort_rank":256,"kind_detail":"4","min_zoom":6.0,"id":2112},"arcs":[[244],[245],[246],[247],[248],[249],[250],[251],[252],[253]]},{"type":"MultiLineString","properties":{"source":"naturalearthdata.com","kind":"region","sort_rank":256,"kind_detail":"4","min_zoom":6.0,"id":2113},"arcs":[[254],[255],[256]]},{"type":"MultiLineString","properties":{"source":"naturalearthdata.com","kind":"region","sort_rank":256,"kind_detail":"4","min_zoom":6.0,"id":2114},"arcs":[[257],[258]]},{"type":"MultiLineString","properties":{"source":"naturalearthdata.com","kind":"region","sort_rank":256,"kind_detail":"4","min_zoom":6.0,"id":2115},"arcs":[[259],[260],[261]]},{"type":"MultiLineString","properties":{"source":"naturalearthdata.com","kind":"region","sort_rank":256,"kind_detail":"4","min_zoom":6.0,"id":2116},"arcs":[[262],[263],[264],[265],[266]]},{"type":"MultiLineString","properties":{"source":"naturalearthdata.com","kind":"region","sort_rank":256,"kind_detail":"4","min_zoom":6.0,"id":2117},"arcs":[[267],[268]]},{"type":"MultiLineString","properties":{"source":"naturalearthdata.com","kind":"region","sort_rank":256,"kind_detail":"4","min_zoom":6.0,"id":2118},"arcs":[[269],[270],[271],[272],[273],[274],[275],[276],[277],[278],[279]]},{"type":"MultiLineString","properties":{"source":"naturalearthdata.com","kind":"region","sort_rank":256,"kind_detail":"4","min_zoom":6.0,"id":2119},"arcs":[[280],[281],[282],[283],[284],[285],[286],[287],[288],[289],[290],[291],[292],[293],[294]]},{"type":"MultiLineString","properties":{"source":"naturalearthdata.com","kind":"region","sort_rank":256,"kind_detail":"4","min_zoom":6.0,"id":2120},"arcs":[[295],[296],[297]]},{"type":"MultiLineString","properties":{"source":"naturalearthdata.com","kind":"region","sort_rank":256,"kind_detail":"4","min_zoom":6.0,"id":2121},"arcs":[[298],[299],[300],[301],[302]]},{"type":"MultiLineString","properties":{"source":"naturalearthdata.com","kind":"region","sort_rank":256,"kind_detail":"4","min_zoom":6.0,"id":2122},"arcs":[[303],[304],[305],[306],[307],[308],[309],[310],[311],[312],[313],[314]]},{"type":"MultiLineString","properties":{"source":"naturalearthdata.com","kind":"region","sort_rank":256,"kind_detail":"4","min_zoom":6.0,"id":2124},"arcs":[[315],[316],[317],[318],[319],[320],[321],[322],[323]]},{"type":"LineString","properties":{"source":"naturalearthdata.com","kind":"region","sort_rank":256,"kind_detail":"4","min_zoom":6.0,"id":2125},"arcs":[324]},{"type":"LineString","properties":{"source":"naturalearthdata.com","kind":"region","sort_rank":256,"kind_detail":"4","min_zoom":6.0,"id":2128},"arcs":[325]},{"type":"MultiLineString","properties":{"source":"naturalearthdata.com","kind":"region","sort_rank":256,"kind_detail":"4","min_zoom":6.0,"id":2130},"arcs":[[326],[327],[328]]},{"type":"MultiLineString","properties":{"source":"naturalearthdata.com","kind":"region","sort_rank":256,"kind_detail":"4","min_zoom":6.0,"id":2131},"arcs":[[329],[330],[331]]},{"type":"MultiLineString","properties":{"source":"naturalearthdata.com","kind":"region","sort_rank":256,"kind_detail":"4","min_zoom":6.0,"id":2625},"arcs":[[332],[333],[334]]},{"type":"LineString","properties":{"source":"naturalearthdata.com","kind":"region","sort_rank":256,"kind_detail":"4","min_zoom":6.0,"id":2626},"arcs":[335]},{"type":"LineString","properties":{"source":"naturalearthdata.com","kind":"region","sort_rank":256,"kind_detail":"4","min_zoom":6.0,"id":2627},"arcs":[336]},{"type":"MultiLineString","properties":{"source":"naturalearthdata.com","kind":"region","sort_rank":256,"kind_detail":"4","min_zoom":6.0,"id":2638},"arcs":[[337],[338],[339],[340],[341],[342],[343]]},{"type":"LineString","properties":{"source":"naturalearthdata.com","kind":"region","sort_rank":256,"kind_detail":"4","min_zoom":6.0,"id":2640},"arcs":[344]},{"type":"LineString","properties":{"source":"naturalearthdata.com","kind":"region","sort_rank":256,"kind_detail":"4","min_zoom":6.0,"id":2641},"arcs":[345]},{"type":"MultiLineString","properties":{"source":"naturalearthdata.com","kind":"region","sort_rank":256,"kind_detail":"4","min_zoom":6.0,"id":2642},"arcs":[[346],[347],[348],[349],[350],[351],[352],[353],[354],[355],[356],[357],[358],[359],[360],[361]]},{"type":"MultiLineString","properties":{"source":"naturalearthdata.com","kind":"region","sort_rank":256,"kind_detail":"4","min_zoom":6.0,"id":2644},"arcs":[[362],[363]]},{"type":"MultiLineString","properties":{"source":"naturalearthdata.com","kind":"region","sort_rank":256,"kind_detail":"4","min_zoom":6.0,"id":2645},"arcs":[[364],[365]]},{"type":"MultiLineString","properties":{"source":"naturalearthdata.com","kind":"region","sort_rank":256,"kind_detail":"4","min_zoom":6.0,"id":2646},"arcs":[[366],[367]]},{"type":"LineString","properties":{"source":"naturalearthdata.com","kind":"region","sort_rank":256,"kind_detail":"4","min_zoom":6.0,"id":2647},"arcs":[368]},{"type":"MultiLineString","properties":{"source":"naturalearthdata.com","kind":"region","sort_rank":256,"kind_detail":"4","min_zoom":6.0,"id":2648},"arcs":[[369],[370]]},{"type":"MultiLineString","properties":{"source":"naturalearthdata.com","kind":"region","sort_rank":256,"kind_detail":"4","min_zoom":6.0,"id":2649},"arcs":[[371],[372],[373],[374],[375],[376]]},{"type":"LineString","properties":{"source":"naturalearthdata.com","kind":"region","sort_rank":256,"kind_detail":"4","min_zoom":6.0,"id":2650},"arcs":[377]},{"type":"MultiLineString","properties":{"source":"naturalearthdata.com","kind":"region","sort_rank":256,"kind_detail":"4","min_zoom":6.0,"id":2651},"arcs":[[378],[379],[380],[381],[382],[383],[384],[385],[386]]},{"type":"MultiLineString","properties":{"source":"naturalearthdata.com","kind":"region","sort_rank":256,"kind_detail":"4","min_zoom":6.0,"id":2653},"arcs":[[387],[388],[389],[390]]},{"type":"MultiLineString","properties":{"source":"naturalearthdata.com","kind":"region","sort_rank":256,"kind_detail":"4","min_zoom":6.0,"id":2654},"arcs":[[391],[392],[393],[394],[395]]},{"type":"MultiLineString","properties":{"source":"naturalearthdata.com","kind":"region","sort_rank":256,"kind_detail":"4","min_zoom":6.0,"id":2661},"arcs":[[396],[397],[398],[399],[400],[401],[402]]},{"type":"MultiLineString","properties":{"source":"naturalearthdata.com","kind":"region","sort_rank":256,"kind_detail":"4","min_zoom":6.0,"id":2662},"arcs":[[403],[404],[405]]},{"type":"LineString","properties":{"source":"naturalearthdata.com","kind":"region","sort_rank":256,"kind_detail":"4","min_zoom":6.0,"id":2663},"arcs":[406]},{"type":"MultiLineString","properties":{"source":"naturalearthdata.com","kind":"region","sort_rank":256,"kind_detail":"4","min_zoom":6.0,"id":2665},"arcs":[[407],[408],[409],[410]]},{"type":"MultiLineString","properties":{"source":"naturalearthdata.com","kind":"region","sort_rank":256,"kind_detail":"4","min_zoom":6.0,"id":2666},"arcs":[[411],[412],[413],[414],[415]]},{"type":"MultiLineString","properties":{"source":"naturalearthdata.com","kind":"region","sort_rank":256,"kind_detail":"4","min_zoom":6.0,"id":2667},"arcs":[[416],[417],[418],[419],[420]]},{"type":"MultiLineString","properties":{"source":"naturalearthdata.com","kind":"region","sort_rank":256,"kind_detail":"4","min_zoom":6.0,"id":2668},"arcs":[[421],[422],[423],[424],[425]]},{"type":"LineString","properties":{"source":"naturalearthdata.com","kind":"region","sort_rank":256,"kind_detail":"4","min_zoom":6.0,"id":2669},"arcs":[426]},{"type":"MultiLineString","properties":{"source":"naturalearthdata.com","kind":"region","sort_rank":256,"kind_detail":"4","min_zoom":6.0,"id":2670},"arcs":[[427],[428],[429],[430],[431],[432],[433],[434]]},{"type":"MultiLineString","properties":{"source":"naturalearthdata.com","kind":"region","sort_rank":256,"kind_detail":"4","min_zoom":6.0,"id":2671},"arcs":[[435],[436],[437],[438]]},{"type":"MultiLineString","properties":{"source":"naturalearthdata.com","kind":"region","sort_rank":256,"kind_detail":"4","min_zoom":6.0,"id":2672},"arcs":[[439],[440],[441]]},{"type":"LineString","properties":{"source":"naturalearthdata.com","kind":"region","sort_rank":256,"kind_detail":"4","min_zoom":6.0,"id":2674},"arcs":[442]}]},"roads":{"type":"GeometryCollection","geometries":[{"type":"LineString","properties":{"kind":"highway","network":"e-road","sort_rank":383,"kind_detail":"motorway","source":"naturalearthdata.com","min_zoom":3.0,"landuse_kind":"urban_area","shield_text":"68","id":4635},"arcs":[524]},{"type":"MultiLineString","properties":{"kind":"highway","network":"e-road","sort_rank":383,"kind_detail":"motorway","source":"naturalearthdata.com","min_zoom":3.0,"shield_text":"68","id":4635},"arcs":[[525],[526]]},{"type":"LineString","properties":{"source":"naturalearthdata.com","kind":"major_road","kind_detail":"primary","sort_rank":380,"landuse_kind":"urban_area","min_zoom":3.0,"id":4743},"arcs":[527]},{"type":"MultiLineString","properties":{"source":"naturalearthdata.com","kind":"major_road","sort_rank":380,"kind_detail":"primary","min_zoom":3.0,"id":4743},"arcs":[[528],[529]]},{"type":"LineString","properties":{"source":"naturalearthdata.com","kind":"major_road","sort_rank":380,"kind_detail":"primary","min_zoom":3.0,"id":4744},"arcs":[530]},{"type":"MultiLineString","properties":{"source":"naturalearthdata.com","kind":"major_road","kind_detail":"primary","sort_rank":380,"landuse_kind":"protected_area","min_zoom":3.0,"id":4745},"arcs":[[531],[532]]},{"type":"LineString","properties":{"source":"naturalearthdata.com","kind":"major_road","kind_detail":"primary","sort_rank":380,"landuse_kind":"urban_area","min_zoom":3.0,"id":4745},"arcs":[533]},{"type":"MultiLineString","properties":{"source":"naturalearthdata.com","kind":"major_road","sort_rank":380,"kind_detail":"primary","min_zoom":3.0,"id":4745},"arcs":[[534],[535],[536],[537]]},{"type":"LineString","properties":{"source":"naturalearthdata.com","kind":"major_road","sort_rank":380,"kind_detail":"primary","min_zoom":3.0,"id":4806},"arcs":[538]},{"type":"LineString","properties":{"source":"naturalearthdata.com","kind":"major_road","kind_detail":"primary","sort_rank":380,"landuse_kind":"urban_area","min_zoom":4.0,"id":4966},"arcs":[539]},{"type":"MultiLineString","properties":{"source":"naturalearthdata.com","kind":"major_road","sort_rank":380,"kind_detail":"primary","min_zoom":4.0,"id":4966},"arcs":[[540],[541]]},{"type":"LineString","properties":{"source":"naturalearthdata.com","kind":"major_road","kind_detail":"primary","sort_rank":380,"landuse_kind":"urban_area","min_zoom":3.0,"id":4967},"arcs":[542]},{"type":"MultiLineString","properties":{"source":"naturalearthdata.com","kind":"major_road","sort_rank":380,"kind_detail":"primary","min_zoom":3.0,"id":4967},"arcs":[[543],[544]]},{"type":"LineString","properties":{"source":"naturalearthdata.com","kind":"major_road","kind_detail":"primary","sort_rank":380,"landuse_kind":"urban_area","min_zoom":3.0,"id":4968},"arcs":[545]},{"type":"MultiLineString","properties":{"source":"naturalearthdata.com","kind":"major_road","sort_rank":380,"kind_detail":"primary","min_zoom":3.0,"id":4968},"arcs":[[546],[547]]},{"type":"LineString","properties":{"source":"naturalearthdata.com","kind":"major_road","sort_rank":380,"kind_detail":"primary","min_zoom":3.0,"id":4969},"arcs":[548]},{"type":"LineString","properties":{"source":"naturalearthdata.com","kind":"major_road","kind_detail":"primary","sort_rank":380,"landuse_kind":"urban_area","min_zoom":3.0,"id":4970},"arcs":[549]},{"type":"MultiLineString","properties":{"source":"naturalearthdata.com","kind":"major_road","sort_rank":380,"kind_detail":"primary","min_zoom":3.0,"id":4970},"arcs":[[550],[551]]},{"type":"LineString","properties":{"source":"naturalearthdata.com","kind":"major_road","sort_rank":380,"kind_detail":"primary","min_zoom":4.0,"id":4971},"arcs":[552]},{"type":"LineString","properties":{"source":"naturalearthdata.com","kind":"major_road","sort_rank":379,"kind_detail":"secondary","min_zoom":4.0,"id":4972},"arcs":[553]},{"type":"LineString","properties":{"source":"naturalearthdata.com","kind":"major_road","sort_rank":380,"kind_detail":"primary","min_zoom":4.0,"id":4973},"arcs":[554]},{"type":"LineString","properties":{"source":"naturalearthdata.com","kind":"major_road","kind_detail":"secondary","sort_rank":379,"landuse_kind":"national_park","min_zoom":4.0,"id":4974},"arcs":[555]},{"type":"MultiLineString","properties":{"source":"naturalearthdata.com","kind":"major_road","sort_rank":379,"kind_detail":"secondary","min_zoom":4.0,"id":4974},"arcs":[[556],[557]]},{"type":"LineString","properties":{"source":"naturalearthdata.com","kind":"major_road","sort_rank":379,"kind_detail":"secondary","min_zoom":4.0,"id":4975},"arcs":[558]},{"type":"LineString","properties":{"source":"naturalearthdata.com","kind":"major_road","kind_detail":"primary","sort_rank":380,"landuse_kind":"urban_area","min_zoom":4.0,"id":4976},"arcs":[559]},{"type":"MultiLineString","properties":{"source":"naturalearthdata.com","kind":"major_road","sort_rank":380,"kind_detail":"primary","min_zoom":4.0,"id":4976},"arcs":[[560],[561]]},{"type":"LineString","properties":{"source":"naturalearthdata.com","kind":"major_road","kind_detail":"primary","sort_rank":380,"landuse_kind":"urban_area","min_zoom":4.0,"id":4984},"arcs":[562]},{"type":"LineString","properties":{"source":"naturalearthdata.com","kind":"major_road","sort_rank":380,"kind_detail":"primary","min_zoom":4.0,"id":4984},"arcs":[563]},{"type":"LineString","properties":{"source":"naturalearthdata.com","kind":"major_road","kind_detail":"primary","sort_rank":380,"landuse_kind":"urban_area","min_zoom":4.0,"id":4985},"arcs":[564]},{"type":"LineString","properties":{"source":"naturalearthdata.com","kind":"major_road","kind_detail":"primary","sort_rank":380,"landuse_kind":"urban_area","min_zoom":4.0,"id":4985},"arcs":[565]},{"type":"LineString","properties":{"source":"naturalearthdata.com","kind":"major_road","sort_rank":380,"kind_detail":"primary","min_zoom":4.0,"id":4985},"arcs":[566]},{"type":"LineString","properties":{"source":"naturalearthdata.com","kind":"major_road","sort_rank":380,"kind_detail":"primary","min_zoom":3.0,"id":4986},"arcs":[567]},{"type":"LineString","properties":{"source":"naturalearthdata.com","kind":"major_road","kind_detail":"primary","sort_rank":380,"landuse_kind":"urban_area","min_zoom":4.0,"id":4989},"arcs":[568]},{"type":"LineString","properties":{"source":"naturalearthdata.com","kind":"major_road","sort_rank":380,"kind_detail":"primary","min_zoom":4.0,"id":4989},"arcs":[569]},{"type":"LineString","properties":{"source":"naturalearthdata.com","kind":"major_road","kind_detail":"primary","sort_rank":380,"landuse_kind":"urban_area","min_zoom":3.0,"id":4990},"arcs":[570]},{"type":"LineString","properties":{"source":"naturalearthdata.com","kind":"major_road","sort_rank":380,"kind_detail":"primary","min_zoom":3.0,"id":4990},"arcs":[571]},{"type":"LineString","properties":{"source":"naturalearthdata.com","kind":"major_road","kind_detail":"primary","sort_rank":380,"landuse_kind":"urban_area","min_zoom":3.0,"id":5028},"arcs":[572]},{"type":"LineString","properties":{"source":"naturalearthdata.com","kind":"major_road","sort_rank":380,"kind_detail":"primary","min_zoom":3.0,"id":5028},"arcs":[573]},{"type":"LineString","properties":{"source":"naturalearthdata.com","kind":"major_road","kind_detail":"primary","sort_rank":380,"landuse_kind":"urban_area","min_zoom":3.0,"id":5029},"arcs":[574]},{"type":"LineString","properties":{"source":"naturalearthdata.com","kind":"major_road","kind_detail":"primary","sort_rank":380,"landuse_kind":"urban_area","min_zoom":3.0,"id":5029},"arcs":[575]},{"type":"LineString","properties":{"source":"naturalearthdata.com","kind":"major_road","kind_detail":"primary","sort_rank":380,"landuse_kind":"urban_area","min_zoom":3.0,"id":5029},"arcs":[576]},{"type":"LineString","properties":{"source":"naturalearthdata.com","kind":"major_road","kind_detail":"primary","sort_rank":380,"landuse_kind":"urban_area","min_zoom":3.0,"id":5029},"arcs":[577]},{"type":"MultiLineString","properties":{"source":"naturalearthdata.com","kind":"major_road","sort_rank":380,"kind_detail":"primary","min_zoom":3.0,"id":5029},"arcs":[[578],[579],[580]]},{"type":"LineString","properties":{"source":"naturalearthdata.com","kind":"major_road","sort_rank":380,"kind_detail":"primary","min_zoom":3.0,"id":5034},"arcs":[581]},{"type":"LineString","properties":{"source":"naturalearthdata.com","kind":"major_road","kind_detail":"primary","sort_rank":380,"landuse_kind":"urban_area","min_zoom":3.0,"id":5037},"arcs":[582]},{"type":"LineString","properties":{"source":"naturalearthdata.com","kind":"major_road","kind_detail":"primary","sort_rank":380,"landuse_kind":"urban_area","min_zoom":3.0,"id":5037},"arcs":[583]},{"type":"MultiLineString","properties":{"source":"naturalearthdata.com","kind":"major_road","sort_rank":380,"kind_detail":"primary","min_zoom":3.0,"id":5037},"arcs":[[584],[585]]},{"type":"LineString","properties":{"source":"naturalearthdata.com","kind":"major_road","kind_detail":"primary","sort_rank":380,"landuse_kind":"urban_area","min_zoom":3.0,"id":5041},"arcs":[586]},{"type":"LineString","properties":{"source":"naturalearthdata.com","kind":"major_road","kind_detail":"primary","sort_rank":380,"landuse_kind":"urban_area","min_zoom":3.0,"id":5041},"arcs":[587]},{"type":"MultiLineString","properties":{"source":"naturalearthdata.com","kind":"major_road","sort_rank":380,"kind_detail":"primary","min_zoom":3.0,"id":5041},"arcs":[[588],[589]]},{"type":"LineString","properties":{"source":"naturalearthdata.com","kind":"major_road","kind_detail":"primary","sort_rank":380,"landuse_kind":"urban_area","min_zoom":3.0,"id":5042},"arcs":[590]},{"type":"LineString","properties":{"source":"naturalearthdata.com","kind":"major_road","kind_detail":"primary","sort_rank":380,"landuse_kind":"urban_area","min_zoom":3.0,"id":5042},"arcs":[591]},{"type":"MultiLineString","properties":{"source":"naturalearthdata.com","kind":"major_road","sort_rank":380,"kind_detail":"primary","min_zoom":3.0,"id":5042},"arcs":[[592],[593]]},{"type":"LineString","properties":{"source":"naturalearthdata.com","kind":"major_road","sort_rank":379,"kind_detail":"secondary","min_zoom":3.0,"id":5052},"arcs":[594]},{"type":"LineString","properties":{"source":"naturalearthdata.com","kind":"major_road","kind_detail":"primary","sort_rank":380,"landuse_kind":"urban_area","min_zoom":4.0,"id":5105},"arcs":[595]},{"type":"LineString","properties":{"source":"naturalearthdata.com","kind":"major_road","sort_rank":380,"kind_detail":"primary","min_zoom":4.0,"id":5105},"arcs":[596]},{"type":"LineString","properties":{"kind":"highway","network":"e-road","sort_rank":383,"kind_detail":"motorway","source":"naturalearthdata.com","min_zoom":6.0,"shield_text":"60","id":5430},"arcs":[597]},{"type":"LineString","properties":{"kind":"highway","network":"e-road","sort_rank":383,"kind_detail":"motorway","source":"naturalearthdata.com","min_zoom":6.0,"landuse_kind":"urban_area","shield_text":"60","id":5431},"arcs":[598]},{"type":"MultiLineString","properties":{"kind":"highway","network":"e-road","sort_rank":383,"kind_detail":"motorway","source":"naturalearthdata.com","min_zoom":6.0,"shield_text":"60","id":5431},"arcs":[[599],[600]]},{"type":"LineString","properties":{"source":"naturalearthdata.com","kind":"major_road","kind_detail":"secondary","sort_rank":379,"landuse_kind":"urban_area","min_zoom":6.0,"id":5487},"arcs":[601]},{"type":"LineString","properties":{"source":"naturalearthdata.com","kind":"major_road","sort_rank":379,"kind_detail":"secondary","min_zoom":6.0,"id":5487},"arcs":[602]},{"type":"LineString","properties":{"source":"naturalearthdata.com","kind":"major_road","sort_rank":380,"kind_detail":"primary","min_zoom":6.0,"id":5494},"arcs":[603]},{"type":"LineString","properties":{"source":"naturalearthdata.com","kind":"major_road","kind_detail":"primary","sort_rank":380,"landuse_kind":"urban_area","min_zoom":6.0,"id":5514},"arcs":[604]},{"type":"LineString","properties":{"source":"naturalearthdata.com","kind":"major_road","sort_rank":380,"kind_detail":"primary","min_zoom":6.0,"id":5514},"arcs":[605]},{"type":"LineString","properties":{"source":"naturalearthdata.com","kind":"major_road","kind_detail":"primary","sort_rank":380,"landuse_kind":"protected_area","min_zoom":6.0,"id":5521},"arcs":[606]},{"type":"LineString","properties":{"source":"naturalearthdata.com","kind":"major_road","kind_detail":"primary","sort_rank":380,"landuse_kind":"urban_area","min_zoom":6.0,"id":5521},"arcs":[607]},{"type":"MultiLineString","properties":{"source":"naturalearthdata.com","kind":"major_road","sort_rank":380,"kind_detail":"primary","min_zoom":6.0,"id":5521},"arcs":[[608],[609],[610]]},{"type":"LineString","properties":{"source":"naturalearthdata.com","kind":"major_road","sort_rank":380,"kind_detail":"primary","min_zoom":6.0,"id":5555},"arcs":[611]},{"type":"MultiLineString","properties":{"source":"naturalearthdata.com","kind":"major_road","kind_detail":"primary","sort_rank":380,"landuse_kind":"protected_area","min_zoom":6.0,"id":5579},"arcs":[[612],[613]]},{"type":"LineString","properties":{"source":"naturalearthdata.com","kind":"major_road","kind_detail":"primary","sort_rank":380,"landuse_kind":"urban_area","min_zoom":6.0,"id":5579},"arcs":[614]},{"type":"LineString","properties":{"source":"naturalearthdata.com","kind":"major_road","kind_detail":"primary","sort_rank":380,"landuse_kind":"urban_area","min_zoom":6.0,"id":5579},"arcs":[615]},{"type":"MultiLineString","properties":{"source":"naturalearthdata.com","kind":"major_road","sort_rank":380,"kind_detail":"primary","min_zoom":6.0,"id":5579},"arcs":[[616],[617],[618],[619]]},{"type":"MultiLineString","properties":{"source":"naturalearthdata.com","kind":"major_road","kind_detail":"primary","sort_rank":380,"landuse_kind":"protected_area","min_zoom":6.0,"id":5580},"arcs":[[620],[621],[622],[623],[624]]},{"type":"LineString","properties":{"source":"naturalearthdata.com","kind":"major_road","kind_detail":"primary","sort_rank":380,"landuse_kind":"urban_area","min_zoom":6.0,"id":5580},"arcs":[625]},{"type":"LineString","properties":{"source":"naturalearthdata.com","kind":"major_road","kind_detail":"primary","sort_rank":380,"landuse_kind":"urban_area","min_zoom":6.0,"id":5580},"arcs":[626]},{"type":"MultiLineString","properties":{"source":"naturalearthdata.com","kind":"major_road","sort_rank":380,"kind_detail":"primary","min_zoom":6.0,"id":5580},"arcs":[[627],[628],[629],[630],[631],[632],[633]]},{"type":"LineString","properties":{"source":"naturalearthdata.com","kind":"major_road","kind_detail":"primary","sort_rank":380,"landuse_kind":"urban_area","min_zoom":6.0,"id":5581},"arcs":[634]},{"type":"LineString","properties":{"source":"naturalearthdata.com","kind":"major_road","sort_rank":380,"kind_detail":"primary","min_zoom":6.0,"id":5581},"arcs":[635]},{"type":"MultiLineString","properties":{"source":"naturalearthdata.com","kind":"major_road","kind_detail":"primary","sort_rank":380,"landuse_kind":"protected_area","min_zoom":6.0,"id":5654},"arcs":[[636],[637]]},{"type":"LineString","properties":{"source":"naturalearthdata.com","kind":"major_road","kind_detail":"primary","sort_rank":380,"landuse_kind":"urban_area","min_zoom":6.0,"id":5654},"arcs":[638]},{"type":"MultiLineString","properties":{"source":"naturalearthdata.com","kind":"major_road","sort_rank":380,"kind_detail":"primary","min_zoom":6.0,"id":5654},"arcs":[[639],[640],[641],[642]]},{"type":"LineString","properties":{"source":"naturalearthdata.com","kind":"major_road","kind_detail":"primary","sort_rank":380,"landuse_kind":"urban_area","min_zoom":6.0,"id":5722},"arcs":[643]},{"type":"LineString","properties":{"source":"naturalearthdata.com","kind":"major_road","sort_rank":380,"kind_detail":"primary","min_zoom":6.0,"id":5722},"arcs":[644]},{"type":"LineString","properties":{"source":"naturalearthdata.com","kind":"major_road","kind_detail":"primary","sort_rank":380,"landuse_kind":"urban_area","min_zoom":6.0,"id":5725},"arcs":[645]},{"type":"MultiLineString","properties":{"source":"naturalearthdata.com","kind":"major_road","sort_rank":380,"kind_detail":"primary","min_zoom":6.0,"id":5725},"arcs":[[646],[647]]},{"type":"LineString","properties":{"source":"naturalearthdata.com","kind":"major_road","kind_detail":"primary","sort_rank":380,"landuse_kind":"urban_area","min_zoom":6.0,"id":5726},"arcs":[648]},{"type":"LineString","properties":{"source":"naturalearthdata.com","kind":"major_road","sort_rank":380,"kind_detail":"primary","min_zoom":6.0,"id":5726},"arcs":[649]},{"type":"LineString","properties":{"source":"naturalearthdata.com","kind":"major_road","kind_detail":"primary","sort_rank":380,"landuse_kind":"urban_area","min_zoom":6.0,"id":5727},"arcs":[650]},{"type":"LineString","properties":{"source":"naturalearthdata.com","kind":"major_road","kind_detail":"primary","sort_rank":380,"landuse_kind":"urban_area","min_zoom":6.0,"id":5727},"arcs":[651]},{"type":"MultiLineString","properties":{"source":"naturalearthdata.com","kind":"major_road","sort_rank":380,"kind_detail":"primary","min_zoom":6.0,"id":5727},"arcs":[[652],[653]]},{"type":"LineString","properties":{"source":"naturalearthdata.com","kind":"major_road","kind_detail":"primary","sort_rank":380,"landuse_kind":"protected_area","min_zoom":6.0,"id":5728},"arcs":[654]},{"type":"LineString","properties":{"source":"naturalearthdata.com","kind":"major_road","kind_detail":"primary","sort_rank":380,"landuse_kind":"urban_area","min_zoom":6.0,"id":5728},"arcs":[655]},{"type":"MultiLineString","properties":{"source":"naturalearthdata.com","kind":"major_road","sort_rank":380,"kind_detail":"primary","min_zoom":6.0,"id":5728},"arcs":[[656],[657],[658]]},{"type":"LineString","properties":{"source":"naturalearthdata.com","kind":"major_road","sort_rank":380,"kind_detail":"primary","min_zoom":6.0,"id":5732},"arcs":[659]},{"type":"LineString","properties":{"source":"naturalearthdata.com","kind":"major_road","kind_detail":"secondary","sort_rank":379,"landuse_kind":"urban_area","min_zoom":6.0,"id":5733},"arcs":[660]},{"type":"LineString","properties":{"source":"naturalearthdata.com","kind":"major_road","sort_rank":379,"kind_detail":"secondary","min_zoom":6.0,"id":5733},"arcs":[661]},{"type":"LineString","properties":{"source":"naturalearthdata.com","kind":"major_road","kind_detail":"primary","sort_rank":380,"landuse_kind":"urban_area","min_zoom":6.0,"id":5734},"arcs":[662]},{"type":"LineString","properties":{"source":"naturalearthdata.com","kind":"major_road","sort_rank":380,"kind_detail":"primary","min_zoom":6.0,"id":5734},"arcs":[663]},{"type":"LineString","properties":{"source":"naturalearthdata.com","kind":"major_road","kind_detail":"primary","sort_rank":380,"landuse_kind":"urban_area","min_zoom":6.0,"id":5760},"arcs":[664]},{"type":"LineString","properties":{"source":"naturalearthdata.com","kind":"major_road","sort_rank":380,"kind_detail":"primary","min_zoom":6.0,"id":5760},"arcs":[665]},{"type":"LineString","properties":{"source":"naturalearthdata.com","kind":"major_road","kind_detail":"primary","sort_rank":380,"landuse_kind":"urban_area","min_zoom":6.0,"id":8084},"arcs":[666]},{"type":"LineString","properties":{"source":"naturalearthdata.com","kind":"major_road","kind_detail":"primary","sort_rank":380,"landuse_kind":"urban_area","min_zoom":6.0,"id":8084},"arcs":[667]},{"type":"MultiLineString","properties":{"source":"naturalearthdata.com","kind":"major_road","sort_rank":380,"kind_detail":"primary","min_zoom":6.0,"id":8084},"arcs":[[668],[669]]},{"type":"LineString","properties":{"source":"naturalearthdata.com","kind":"major_road","kind_detail":"secondary","sort_rank":379,"landuse_kind":"urban_area","min_zoom":6.0,"id":55569},"arcs":[670]},{"type":"LineString","properties":{"source":"naturalearthdata.com","kind":"major_road","sort_rank":379,"kind_detail":"secondary","min_zoom":6.0,"id":55569},"arcs":[671]},{"type":"LineString","properties":{"source":"naturalearthdata.com","kind":"major_road","kind_detail":"secondary","sort_rank":379,"landuse_kind":"urban_area","min_zoom":6.0,"id":55594},"arcs":[672]},{"type":"LineString","properties":{"source":"naturalearthdata.com","kind":"major_road","sort_rank":379,"kind_detail":"secondary","min_zoom":6.0,"id":55594},"arcs":[673]},{"type":"LineString","properties":{"source":"naturalearthdata.com","kind":"major_road","kind_detail":"secondary","sort_rank":379,"landuse_kind":"urban_area","min_zoom":6.0,"id":55780},"arcs":[674]},{"type":"LineString","properties":{"source":"naturalearthdata.com","kind":"major_road","sort_rank":379,"kind_detail":"secondary","min_zoom":6.0,"id":55780},"arcs":[675]},{"type":"LineString","properties":{"source":"naturalearthdata.com","kind":"major_road","kind_detail":"secondary","sort_rank":379,"landuse_kind":"urban_area","min_zoom":6.0,"id":55785},"arcs":[676]},{"type":"LineString","properties":{"source":"naturalearthdata.com","kind":"major_road","sort_rank":379,"kind_detail":"secondary","min_zoom":6.0,"id":55785},"arcs":[677]},{"type":"LineString","properties":{"source":"naturalearthdata.com","kind":"major_road","kind_detail":"secondary","sort_rank":379,"landuse_kind":"urban_area","min_zoom":6.0,"id":55806},"arcs":[678]},{"type":"LineString","properties":{"source":"naturalearthdata.com","kind":"major_road","sort_rank":379,"kind_detail":"secondary","min_zoom":6.0,"id":55806},"arcs":[679]},{"type":"LineString","properties":{"source":"naturalearthdata.com","kind":"major_road","sort_rank":379,"kind_detail":"secondary","min_zoom":6.0,"id":55859},"arcs":[680]}]},"earth":{"type":"GeometryCollection","geometries":[{"type":"MultiPolygon","properties":{"sort_rank":10,"source":"naturalearthdata.com","min_zoom":0.0,"kind":"earth","area":1161267500996},"arcs":[[[681]]]}]},"landuse":{"type":"GeometryCollection","geometries":[{"type":"MultiPolygon","properties":{"kind":"national_park","protect_class":"2","area":953820998,"sort_rank":18,"source":"openstreetmap.org","min_zoom":3.0,"tier":1,"osm_relation":true},"arcs":[[[682]],[[683]],[[684]]]},{"type":"MultiPolygon","properties":{"source":"openstreetmap.org","kind":"nature_reserve","tier":2,"area":847022226,"sort_rank":23,"min_zoom":6.0,"osm_relation":true},"arcs":[[[685]]]},{"type":"MultiPolygon","properties":{"kind":"protected_area","protect_class":"97","area":14036003464,"sort_rank":17,"source":"openstreetmap.org","min_zoom":4.0,"tier":2,"osm_relation":true},"arcs":[[[686],[687]],[[688]],[[689],[690],[691],[692],[693],[694],[695],[696],[697]],[[698],[699],[700],[701]],[[702]],[[703],[704],[705]]]},{"type":"MultiPolygon","properties":{"source":"openstreetmap.org","kind":"nature_reserve","tier":2,"area":3171484781,"sort_rank":23,"min_zoom":4.0},"arcs":[[[706]]]},{"type":"Polygon","properties":{"kind":"national_park","protect_class":"2","area":1049209984,"sort_rank":18,"source":"openstreetmap.org","min_zoom":3.0,"tier":1,"id":225916132},"arcs":[[707]]},{"type":"MultiPolygon","properties":{"source":"naturalearthdata.com","kind":"urban_area","name":"","area":23808103632,"sort_rank":11,"min_zoom":4.0},"arcs":[[[708]],[[709]],[[710]],[[711]],[[712]],[[713]],[[714]],[[715]],[[716]],[[717]],[[718]],[[719]],[[720]],[[721]],[[722]],[[723]],[[724]],[[725]],[[726]],[[727]],[[728]],[[729]],[[730]],[[731]],[[732]],[[733]],[[734]],[[735]],[[736]],[[737]],[[738]],[[739]],[[740]],[[741]],[[742]],[[743]],[[744]],[[745]],[[746]],[[747]],[[748]],[[749]],[[750]],[[751]],[[752]],[[753]],[[754]],[[755]],[[756]],[[757]],[[758]],[[759]],[[760]],[[761]]]},{"type":"MultiPolygon","properties":{"kind":"protected_area","protect_class":"97","area":5166847925,"sort_rank":17,"source":"openstreetmap.org","min_zoom":6.0,"tier":2,"osm_relation":true},"arcs":[[[762]],[[763]],[[764]],[[765]],[[766],[767],[768]],[[769]],[[770]],[[771]],[[772],[773]],[[774]]]},{"type":"Polygon","properties":{"kind":"national_park","protect_class":"2","area":187984992,"sort_rank":18,"source":"openstreetmap.org","min_zoom":5.0,"tier":1,"id":-1463495,"osm_relation":true},"arcs":[[775]]}]}},"type":"Topology","transform":{"translate":[22.5,45.0890355648],"scale":[0.001373291,0.0009359042]},"arcs":[[[46,2851],[28,4],[26,11],[22,19],[18,23],[8,7],[15,7],[16,1],[4,3],[7,12],[-2,8],[-4,7],[0,9],[8,14],[12,9],[29,10],[12,11],[18,34],[12,13]],[[0,2866],[21,-11],[25,-4]],[[79,3214],[-2,0],[-4,4],[-13,26],[-10,34],[-9,22],[-41,52]],[[275,3053],[-27,22],[-6,13],[12,15],[2,17],[5,10],[2,11],[-5,20],[-7,15],[-10,12],[-22,20],[-26,14],[-2,5],[-12,8]],[[179,3235],[-13,-4],[-12,-8],[-13,-4],[-53,0],[-9,-5]],[[3701,3630],[16,-2],[2,-29],[14,-7]],[[3571,3550],[12,6],[44,37],[17,22],[30,0],[8,2],[19,13]],[[3824,3593],[25,-11],[47,-34],[11,-11],[15,-22],[8,-12],[5,-5],[16,-25],[30,-11],[26,-3],[39,-5],[15,-7],[12,-14],[4,-19],[-15,-42],[11,-8],[16,-1]],[[3733,3592],[91,1]],[[3526,3576],[14,-3],[21,-19],[10,-4]],[[3429,3496],[27,14],[4,5],[40,48],[26,13]],[[3304,3537],[8,-2],[15,-9],[78,-29],[24,-1]],[[3297,3493],[4,2],[-1,6],[-2,6],[-1,4],[0,7],[-2,9],[1,8],[8,2]],[[3162,3531],[24,-10],[24,-20],[25,-15]],[[3144,3508],[6,6],[2,8],[2,6],[8,3]],[[3126,3512],[12,-4],[6,0]],[[3098,3416],[14,1],[9,8],[3,13],[-1,21],[-3,20],[-5,13],[0,10],[7,10],[4,0]],[[3270,3498],[5,-1],[5,-3]],[[3235,3486],[28,4],[7,8]],[[3288,3494],[9,-1]],[[3280,3494],[8,0]],[[3044,3463],[14,-5],[10,-11],[8,-13],[9,-12],[13,-6]],[[2999,3387],[0,9],[5,17],[8,12],[24,15],[3,14],[5,9]],[[4089,3363],[7,2]],[[3050,3404],[17,-14],[8,-2]],[[2999,3387],[34,16],[17,1]],[[3082,3400],[8,-17],[15,-3]],[[3075,3388],[7,12]],[[3135,3386],[12,-6],[17,-20]],[[3105,3380],[30,6]],[[3172,3364],[30,-30],[5,-8],[3,-19]],[[3164,3360],[8,4]],[[3232,3329],[9,-8],[4,-12],[5,-11],[25,-10],[0,-9],[-8,-8],[-15,-1],[0,-6],[20,-12],[14,-5]],[[3210,3307],[7,4],[8,12],[7,6]],[[3295,3255],[6,-3],[7,-6],[4,-5],[0,-1],[-1,-5],[-7,-10],[-2,-6],[5,-26],[13,-21],[17,-15],[19,-11],[0,-8],[-14,-7],[0,-4],[1,-4],[2,-4],[2,-3]],[[3286,3247],[9,8]],[[3365,3124],[10,-13],[6,-15]],[[3347,3116],[18,8]],[[3391,3102],[9,-10],[0,-10],[-5,-9],[-8,-8],[15,-12],[5,-2],[0,-3],[0,-4],[-13,-17],[8,-10],[16,-9],[13,-16],[0,-5],[1,-33],[-1,-6],[8,-6],[9,-2],[8,-4],[5,-9],[-25,-16],[9,-7],[10,-15],[8,-16],[4,-9],[3,-5],[12,-10],[4,-3],[1,-2],[2,-9],[-1,-11],[4,-8],[0,-7],[-17,-3],[6,-24],[17,-28],[48,-62],[20,-21],[23,-8],[0,-3],[2,-6],[3,-14],[2,-7],[1,-3],[0,-10],[2,-5],[3,-2],[8,-1],[1,0],[6,-29],[4,-16],[8,-6],[6,-1],[4,-3],[3,-2],[4,-2],[19,-1]],[[3381,3096],[10,6]],[[3666,2553],[10,-4],[11,-7],[9,-8],[5,-11],[-6,-4],[-4,-9],[-2,-11],[-3,-12],[13,-11],[-5,-33],[10,-7],[1,-2],[9,-7],[17,-42],[10,-15],[5,-3],[20,-5],[8,-5],[5,-4],[6,-4],[18,-4],[8,-9],[15,-26],[-1,-13],[7,-13],[19,-24],[9,-29],[1,-1],[2,-8],[2,-7],[-1,-4],[-9,-3],[9,-12],[32,-17],[0,-7],[-5,-8],[3,-3],[7,-2],[7,-5],[22,-25],[21,-14],[9,-8],[0,-15],[18,-4],[17,-11],[16,-7]],[[3665,2552],[1,1]],[[4025,2077],[7,-18],[1,-1],[22,-28],[10,-19],[14,-38],[2,-16],[1,-3],[-6,-16],[12,-9],[0,-12],[-1,-13],[8,-10],[0,-8],[-1,-13],[-1,-8],[3,-7]],[[4011,2070],[14,7]],[[4096,1228],[-3,-1],[-9,-3],[2,-10],[10,-17]],[[4096,1113],[-11,-31],[-2,-6],[-5,-15],[-5,-4],[-2,-5],[0,-6],[4,-3],[1,-6],[-10,-37],[-1,-11],[3,-15],[17,-54],[2,-12],[2,-6],[4,-7],[3,-9],[-2,-8],[-3,-8],[-1,-9],[3,-7],[3,-8]],[[4096,829],[-7,-6],[-4,-5],[2,-31],[9,-25]],[[4096,576],[-3,0]],[[4093,576],[-10,-4],[-12,-9],[-12,-12],[-9,-12],[41,-22],[5,-4]],[[2789,3333],[13,4],[24,12],[12,3],[34,2],[13,2],[91,21],[23,10]],[[2770,3337],[6,-3],[13,-1]],[[2524,3073],[46,14],[53,0],[17,0],[35,16],[7,11],[16,36],[9,12],[19,16],[9,10],[11,22],[12,34],[7,33],[-1,25],[6,35]],[[465,3215],[17,-2],[51,-17],[12,-10],[30,-35],[35,-29],[16,-19],[6,-2],[5,-1]],[[367,3092],[12,2],[31,24],[10,19],[16,49],[14,22],[15,7]],[[774,3116],[14,-4],[47,-5],[30,-10],[16,-3]],[[700,3080],[15,1],[3,2],[2,2],[4,5],[4,6],[3,7],[8,6],[8,3],[27,4]],[[320,3116],[13,-6],[11,-7],[11,-7],[12,-4]],[[275,3053],[15,5],[13,9],[6,14],[-6,22],[6,12],[11,1]],[[650,3103],[1,0],[1,0],[48,-23]],[[637,3100],[5,1],[6,2],[1,0],[1,0]],[[932,3097],[12,-6],[38,-34],[5,-17]],[[881,3094],[51,3]],[[2489,3076],[35,-3]],[[1745,2801],[24,4],[9,1],[55,10],[46,20],[30,29],[71,115],[31,22],[357,38],[48,20],[39,4],[22,10],[12,2]],[[1076,3070],[23,-1],[12,-9],[36,-9],[14,-7],[27,-25],[13,-3]],[[987,3040],[15,0],[74,30]],[[1404,3060],[42,-10]],[[1260,3000],[49,25],[36,1],[29,24],[16,9],[14,1]],[[1487,3050],[14,-3],[6,-4],[28,-16],[19,-15],[11,-14],[5,-17],[1,-14],[3,-13],[13,-14],[24,-16],[59,-23],[11,-9],[9,-12],[24,-44],[17,-26],[14,-9]],[[1446,3050],[41,0]],[[1202,3017],[43,-16],[15,-1]],[[1201,3016],[1,1]],[[3547,3783],[-9,-5],[-10,-18],[-7,-7],[-10,-1]],[[3511,3752],[-7,5],[-5,6],[-8,6],[-29,5]],[[3462,3774],[-15,-3],[2,-14],[7,-5],[7,-1],[4,-4],[0,-15],[-4,-8],[-6,-4],[-7,-2],[-8,0]],[[3174,3688],[-13,6],[-9,16],[-4,21],[4,22],[-7,6],[-8,2]],[[3137,3761],[-8,-1],[-7,-7],[-3,-9],[4,-16],[-1,-10],[-11,-19],[-9,0]],[[3102,3699],[-7,11],[-3,18],[-4,12],[-9,6]],[[3079,3746],[-8,0],[-4,-10],[3,-8],[14,-15],[3,-7],[-4,-17],[-9,-7]],[[3442,3718],[-9,2],[-16,10],[-8,2]],[[3409,3732],[-25,0],[-4,-3],[-9,-15],[-5,-4],[-7,-2]],[[3294,3710],[-5,4],[-10,11],[-26,6],[-16,1]],[[3237,3732],[-15,-7],[-11,-13],[-8,-12],[-10,-9],[-19,-3]],[[3359,3708],[-31,4],[-15,5],[-9,1]],[[3304,3718],[-4,-3],[-3,-4],[-3,-1]],[[3074,3682],[-11,1],[-11,5],[-27,19],[-16,4]],[[3009,3711],[-14,-12],[1,-11],[14,-8],[27,-7],[13,-9],[12,-12],[3,-11],[-16,-4],[-24,-2]],[[2990,3593],[-17,1],[-12,5],[-10,9],[-9,14],[-13,30],[-5,8],[-19,17],[-14,8]],[[2891,3685],[-35,-9]],[[2856,3676],[-13,5]],[[2843,3681],[-17,-18]],[[3025,3635],[-8,2],[-3,4],[-3,7],[-6,5]],[[3005,3653],[-8,-1],[-6,-16],[10,-36],[-11,-7]],[[2361,3783],[-8,6],[-6,26],[-6,5],[-32,3],[-16,5],[-9,7]],[[2496,3737],[-12,2],[-35,13],[0,3],[0,10],[-3,6],[-15,19],[-13,10],[-9,17],[-11,9]],[[2398,3826],[-19,-13],[-5,-9],[-2,-10],[-3,-8],[-8,-3]],[[2593,3761],[1,21],[-3,14],[-7,6]],[[2584,3802],[-11,-4],[-3,-6],[-3,-18],[-4,-5],[-7,-1]],[[2556,3768],[-18,9]],[[2538,3777],[-8,-8],[-10,-21],[-12,-9],[-12,-2]],[[2593,3769],[0,-8]],[[2621,3688],[-14,7],[-12,11],[-8,15],[-1,12],[7,36]],[[2680,3673],[-23,14],[-3,30],[1,31],[-9,13],[-21,2]],[[2625,3763],[-2,-5],[0,-15],[3,-12],[6,-11],[11,-17],[-9,-14],[-13,-1]],[[2807,3655],[-21,2],[-23,9],[-18,11],[-9,3],[-13,1]],[[2723,3681],[-43,-8]],[[2826,3663],[-19,-8]],[[373,4024],[-12,0],[-6,2],[-4,2],[-2,3],[-4,6],[-1,3],[-1,4],[-3,5],[-4,6],[-26,21],[-17,20]],[[552,3935],[-34,4],[-7,2],[-6,4],[-5,5],[-5,5],[-14,25],[-17,41],[-6,9],[-7,7],[-5,3],[-5,1]],[[441,4041],[-21,-3],[-29,-9],[-7,-4],[-5,-1],[-6,0]],[[589,3912],[-1,0],[-1,2],[-1,1],[0,2],[-1,3],[-1,4],[0,12],[-1,4],[-2,5],[-2,1]],[[579,3946],[-3,-1],[-7,-7],[-7,-2],[-10,-1]],[[689,3887],[-15,1],[-21,4],[-8,3],[-6,3],[-2,3],[-1,3],[-2,3],[0,4],[0,6],[-1,5],[-3,5],[-6,7],[-5,1]],[[619,3935],[-3,-1],[-3,-2],[-11,-15],[-4,-2],[-5,-3],[-4,0]],[[752,3884],[-18,7],[-7,1]],[[727,3892],[-38,-5]],[[2284,3835],[-28,-21],[-9,-8],[-6,-8],[-4,-5],[-4,-9],[-1,-6],[0,-4],[2,-13],[7,-30],[20,-52],[1,-11],[-4,-95],[-5,-28],[-3,-9],[-3,-6],[-4,-3],[-4,-2],[-4,0]],[[2235,3525],[-4,1],[-6,3],[-8,4],[-14,6],[-9,2],[-15,1]],[[2179,3542],[-33,-4],[-29,-9],[-27,-12],[-56,-43],[-71,-89],[-6,-5],[-8,-3],[-10,-6],[-11,-8],[-5,-5],[-3,-4],[-1,-4],[-1,-5],[-1,-4],[0,-9],[0,-4],[1,-4],[1,-4],[3,-7],[1,-3],[0,-6],[-3,-2],[-4,-1],[-4,-1],[-6,-3],[-8,-6],[-38,-43],[-3,-2],[-3,-2],[-13,-4],[-8,-3],[-12,-9],[-5,-5],[-3,-6],[-1,-4],[-3,-18],[-3,-9],[-33,-61],[-3,-8],[-2,-10],[0,-3],[0,-5],[3,-20],[1,-17],[1,-8],[6,-18],[2,-3],[1,-3],[11,-13],[2,-3],[2,-3],[0,-4],[1,-4],[0,-23],[1,-4],[2,-7],[6,-13],[1,-4],[1,-4],[0,-4],[0,-4],[0,-4],[-2,-9],[-35,-76],[-1,-3],[-2,-25],[-1,-5],[1,-13]],[[1098,2389],[-7,-31],[-8,-12],[-9,-11],[-24,-20],[-4,-11],[0,-12],[3,-12],[7,-59],[4,-13],[5,-11],[8,-8],[9,-6],[41,-11],[11,-7],[15,-14],[8,-6],[17,-7],[11,-8],[10,-16],[3,-13],[-1,-13],[-4,-13],[-2,-14],[0,-16],[6,-7],[13,-9],[1,-7],[-2,-8],[-1,-8],[1,-12],[5,-9],[9,-7],[26,-14],[13,-15],[4,-15],[-1,-17],[-4,-15],[-5,-44],[-4,-13],[-16,-33]],[[790,383],[-3,-16],[2,-10],[10,-32],[2,-12],[-10,-31]],[[2133,388],[-14,-7],[-5,-7],[-7,-13],[-4,-12],[-13,-17],[-44,-12]],[[2582,420],[40,88]],[[1609,545],[-133,-40]],[[1957,1127],[-36,-9],[-67,-3],[-11,-3],[-10,-6],[-16,-14],[-7,-8],[-5,-11],[-2,-9],[4,-23]],[[790,383],[30,5]],[[186,1330],[-35,37]],[[3665,1098],[-10,49]],[[160,2020],[-6,-15],[-16,-31],[-2,-10],[1,-7],[6,-5],[37,-15],[10,-8],[3,-11],[-3,-19],[-3,-13],[-4,-12],[-4,-8],[-5,-8],[-6,-5],[-27,-12],[-8,-6],[-7,-7],[-4,-8],[-1,-9],[2,-9],[9,-13],[29,-26],[9,-16],[10,-22],[12,-50],[7,-13],[7,-6],[8,-5],[7,-7],[3,-9],[-3,-27],[-1,-40]],[[977,2398],[121,-9]],[[956,2380],[21,18]],[[3028,2498],[-30,4],[-8,6],[-10,9],[-18,25],[-4,11],[-2,12],[1,12],[1,16],[0,13],[-12,56],[-6,23],[-8,13],[-23,24],[-9,15],[-48,60],[-14,23],[-83,105],[-17,17],[-37,20],[-30,25],[-19,12],[-11,11],[-5,12],[-13,65]],[[2695,4096],[-1,-2],[-1,-5],[-2,-3],[-1,-4],[-1,-4],[0,-3],[2,-3],[5,0]],[[2707,4074],[3,-2],[1,-3],[0,-6],[-3,-14],[-3,-34],[0,-5],[2,-5],[10,-15],[3,-3],[2,-2],[15,-6],[3,-2],[1,-3],[-2,-4],[-3,-2],[-9,-1],[-3,-1],[-1,-4],[-1,-7],[-1,-3],[-4,-6],[-2,-3],[0,-5],[2,-4],[10,-11],[3,-4],[2,-5],[-1,-5],[-4,-8],[-1,-4],[0,-4],[1,-21],[-1,-5],[-1,-4],[-4,-12],[0,-4],[-1,-5],[1,-5],[4,-6],[9,-8],[6,-3],[6,-1],[4,0],[4,-2],[2,-3],[-1,-5],[-1,-4],[0,-5],[2,-5],[6,-4],[5,0]],[[2696,4072],[7,2],[4,0]],[[2777,3799],[2,-2],[1,-7],[0,-4],[-1,-4],[-1,-3],[-6,-9],[-1,-4],[-1,-4],[2,-5],[6,-5],[4,-3],[15,-8],[4,-3],[6,-6],[10,-6],[2,-3],[-2,-4],[-3,-2],[-3,-1],[-3,-1],[-2,-5],[3,-8],[6,-15],[11,-24]],[[2767,3791],[3,1],[5,6],[2,1]],[[3547,3783],[28,-9],[21,-20],[15,-27],[10,-32],[16,-69],[6,-11],[1,0]],[[1941,4035],[-9,8],[-18,27],[-4,10],[-1,11],[2,5]],[[1985,4010],[-3,19],[4,29],[6,27],[7,11]],[[1971,4096],[-7,-5],[-6,-8],[-4,-7],[-3,-9],[-1,-12],[-3,-13],[-6,-7]],[[2284,3835],[0,6],[5,6],[2,8],[-5,12],[-7,9],[-2,2],[1,2],[1,10],[2,7],[5,3],[1,6],[-8,16],[-5,4],[-20,12],[-22,20],[-12,6],[-19,2],[-12,4],[-17,10],[-16,12],[-8,11],[6,7],[3,7],[6,15],[-6,1],[-11,6],[-5,1]],[[2141,4040],[-6,-3],[-1,-7],[2,-7],[-2,-5],[-12,-3]],[[2003,3939],[-9,27],[9,18],[41,11],[15,15],[-39,18],[-17,1]],[[2003,4029],[-18,-19]],[[2122,4015],[-10,3],[-9,5],[-9,2]],[[2094,4025],[-14,-2],[-4,-5],[2,-9],[1,-14],[-1,-15],[-2,-1]],[[2076,3979],[-6,4]],[[2070,3983],[-11,-2],[-37,-36],[-19,-6]],[[773,4096],[-6,-29],[-3,-7],[-1,-4],[1,-5],[3,-6],[7,-10],[4,-6],[1,-3],[1,-4],[3,-12],[0,-9],[-31,-117]],[[752,3884],[30,-9],[28,-13],[45,-52],[14,-11],[6,-2],[5,0]],[[909,3803],[9,-2],[8,-2],[4,-3],[2,-4],[2,-9],[0,-5],[-1,-10],[-1,-5],[1,-4],[0,-4],[3,-5],[4,-5],[41,-33],[7,-4],[6,-2],[9,-1],[4,-1],[3,-2],[6,-4],[2,-3],[3,-4],[3,-6],[5,-11],[2,-7],[1,-6],[-2,-9],[-1,-3],[-2,-4],[-2,-8],[0,-4],[0,-5],[1,-4],[2,-3],[4,-4],[8,-3],[6,-1]],[[880,3797],[11,4],[9,1],[9,1]],[[1182,3681],[4,-1],[4,-2],[2,-4],[1,-8],[-1,-5],[-1,-10],[-1,-6],[1,-8],[0,-4],[2,-7],[2,-8],[0,-4],[-1,-5],[-1,-4],[-1,-4],[-4,-26],[0,-10],[1,-12],[5,-33],[1,-4],[3,-5],[4,-7],[9,-8],[6,-4],[5,-3],[22,-4],[19,0]],[[1046,3613],[5,0],[7,3],[5,3],[3,3],[12,13],[15,10],[33,5],[14,6],[35,23],[4,1],[3,1]],[[1315,3525],[3,-1],[2,-2],[5,-5],[9,-6],[3,-5],[2,-6],[3,-13],[1,-7],[1,-6],[2,-3],[3,-1],[18,0],[6,-2],[4,-4],[7,-8],[7,-7],[15,-11],[47,-43],[3,-4],[2,-3],[14,-26],[15,-24],[1,-4],[0,-5],[-2,-7],[-4,-8],[-4,-6],[-3,-7],[-2,-4],[-1,-4],[0,-4],[0,-6],[1,-7],[4,-10],[3,-5],[4,-7],[50,-49],[25,-34],[0,-4],[-1,-6],[-37,-55],[-5,-12],[-7,-38],[-2,-12],[0,-1]],[[1263,3485],[16,3],[7,2],[3,2],[6,4],[5,5],[3,6],[2,4],[5,11],[2,2],[3,1]],[[3578,3928],[4,1],[4,4],[1,4],[-1,3],[-2,3],[-2,3],[-3,7],[-5,13],[-4,15],[-2,58],[-1,8],[-3,15],[-6,17],[-6,14],[-2,3]],[[3570,3929],[8,-1]],[[3547,3783],[16,58],[5,26],[1,25],[0,5],[-2,6],[-1,10],[-1,10],[2,4],[3,2]],[[810,2201],[7,0],[6,4],[5,14],[7,13],[11,13],[25,13],[24,8],[43,5],[12,4],[5,10],[0,20],[3,21],[4,12],[4,10],[2,8],[-1,7],[-11,17]],[[794,2205],[8,-1],[8,-3]],[[687,2026],[10,1],[11,3],[7,6],[3,11],[-1,8],[-7,23],[-3,8],[-10,12],[-3,7],[1,7],[4,5],[15,5],[5,3],[1,6],[5,12],[5,10],[1,9],[2,9],[2,6],[33,14],[17,11],[9,3]],[[671,2026],[16,0]],[[644,1998],[4,2],[3,14],[3,6],[8,5],[9,1]],[[160,2020],[8,-4],[87,-1],[13,-3],[8,-4],[7,-6],[6,-10],[12,-32],[8,-14],[7,-9],[10,-4],[27,-2],[7,-3],[5,-4],[3,-6],[4,-5],[6,-4],[6,0]],[[624,2003],[7,0],[13,-5]],[[610,1926],[7,0],[6,5],[7,15],[0,10],[-3,10],[-8,7],[-6,8],[-3,10],[3,7],[11,5]],[[541,1974],[6,-4],[4,-8],[5,-17],[4,-5],[6,-1]],[[498,1907],[9,0],[7,5],[2,9],[-1,8],[0,9],[2,7],[10,20],[5,8],[9,1]],[[589,1944],[6,-2],[5,-5],[5,-6],[5,-5]],[[566,1939],[16,5],[7,0]],[[473,1914],[9,-1],[16,-6]],[[436,1905],[13,2],[14,5],[10,2]],[[409,1912],[8,-2],[8,-3],[11,-2]],[[384,1909],[16,3],[9,0]],[[2046,320],[11,-21],[4,-10],[3,-11],[-1,-12],[-3,-18],[-4,-11],[-12,-20],[-5,-11],[-4,-14],[-4,-17],[-1,-25],[-6,-23],[-6,-17],[-6,-11],[-7,-8],[-6,-5],[-7,-1]],[[1992,85],[-6,2],[-6,5],[-8,14],[-5,5],[-5,1]],[[1962,112],[-4,-3],[-4,-5],[-7,-19],[-4,-7],[-3,-14],[-1,-20],[8,-43],[1,-1]],[[684,229],[7,2],[13,11],[41,24],[46,16]],[[624,248],[19,0],[11,-3],[10,-6],[14,-10],[6,0]],[[491,192],[11,3],[40,25],[11,5],[33,6],[25,13],[13,4]],[[286,222],[9,-5],[5,-8],[7,-5],[9,-3],[31,-3],[6,-2],[7,-6],[5,-5],[8,-3]],[[123,162],[155,58],[8,2]],[[449,205],[10,-2],[22,-11],[10,0]],[[373,182],[11,0],[46,21],[19,2]],[[1476,505],[9,-34],[-10,-47],[-21,-42],[-2,-12],[0,-12],[15,-67],[1,-13],[-2,-10],[-5,-8],[-6,-7],[-4,-8],[-2,-10],[1,-12],[7,-26],[-2,-26],[-4,-22],[2,-14],[3,-11],[11,-13],[5,-7],[6,-13],[4,-16],[2,-25],[-12,-50]],[[791,282],[22,-8],[35,0],[8,-2],[14,-8],[11,-3],[13,0]],[[939,266],[6,0],[6,-3],[13,-10],[6,-9],[3,-11],[-10,-42],[-1,-21],[6,-29],[7,-19],[3,-15],[-1,-13],[-11,-36],[-3,-15],[2,-37],[0,-6]],[[894,261],[45,5]],[[2133,388],[14,-67],[5,-47],[3,-13],[5,-10],[7,-6],[7,-4],[8,-6],[7,-9],[9,-15],[4,-12],[2,-11],[0,-9],[-2,-20],[1,-15],[11,-20],[7,-9],[8,-8],[8,-12],[40,-81],[12,-14]],[[2902,996],[-47,-76],[-12,-35],[-1,-16],[-10,-54],[-6,-52]],[[2826,763],[6,-23],[4,-10],[2,-11],[-2,-13],[-13,-30],[-3,-13],[-1,-12],[-3,-14],[-7,-14],[-11,-18],[-5,-15],[-5,-25],[-7,-9],[-13,-8]],[[2768,548],[-12,1],[-8,4],[-14,13],[-7,5],[-8,2]],[[2719,573],[-7,-3],[-6,-11],[-3,-11],[-3,-20],[-5,-6],[-9,-3],[-36,-2],[-28,-9]],[[2582,420],[44,-54],[30,-23],[10,-10],[9,-15],[25,-56],[4,-17],[-1,-10],[-4,-7],[-2,-9],[4,-11],[20,-23],[8,-11],[2,-11],[1,-10],[2,-7],[6,-8],[10,-6],[10,-2]],[[2792,132],[8,-3],[7,-6],[4,-13],[8,-7],[6,-2]],[[2760,130],[32,2]],[[2848,119],[4,-2],[0,-8],[-1,-9],[-1,-10],[1,-13],[11,-11],[17,-15],[7,-10],[4,-10],[4,-17],[1,-14]],[[2825,101],[5,4],[12,12],[6,2]],[[2826,763],[32,-32],[30,-45],[48,-86],[14,-17],[13,-11],[20,-3]],[[3010,576],[10,0],[16,-7],[46,-41],[16,-21],[25,-19],[31,-19],[9,-3],[14,-2],[11,-5],[7,-1]],[[2983,569],[11,1],[8,2],[8,4]],[[3220,488],[18,-3],[21,-10],[13,-10],[4,-10],[0,-9],[0,-13],[5,-13],[19,-21],[13,-9],[10,-4]],[[3195,458],[5,1],[3,4],[2,4],[0,3],[0,3],[-2,3],[-1,4],[2,4],[5,3],[11,1]],[[3377,405],[5,-4],[1,-8],[-2,-19],[3,-9],[6,-2]],[[3323,386],[10,1],[8,4],[18,10],[8,3],[10,1]],[[3423,387],[12,-2],[8,-5],[7,-7],[6,-2]],[[3390,363],[7,3],[6,6],[6,7],[7,6],[7,2]],[[3469,372],[9,-3],[5,-5],[3,-7],[1,-8],[2,-9],[5,-8],[7,-3],[35,-11],[16,-2]],[[3456,371],[13,1]],[[3552,316],[33,2]],[[1654,549],[12,-3],[9,-5],[12,-14],[5,-9],[5,-8],[6,-3]],[[1609,545],[45,4]],[[1809,525],[81,-12],[17,-10],[27,-25],[13,-8],[12,-5],[12,-9],[10,-13],[40,-93],[25,-30]],[[1764,520],[45,5]],[[1742,522],[22,-2]],[[1703,507],[9,2],[13,9],[8,3],[9,1]],[[2151,1086],[-4,-14],[2,-10],[6,-11],[24,-19],[10,-13]],[[2209,1026],[15,-4],[10,-7],[2,-19],[-9,-36],[2,-10],[0,-8],[-5,-14],[-1,-24],[1,-70],[3,-16],[7,-15],[51,-35],[23,-24],[1,-36]],[[2189,1019],[6,7],[14,0]],[[2380,723],[12,-18],[12,-7],[68,-26],[18,-13],[22,-23],[11,-19],[11,-23],[8,-6],[14,-6],[14,-9],[14,-12],[22,-36],[16,-17]],[[2344,708],[10,1],[11,4],[11,3],[4,7]],[[2333,716],[11,-8]],[[2309,708],[13,0],[6,3],[5,5]],[[2582,420],[-34,7],[-39,23],[-16,2]],[[2493,452],[-9,-3],[-6,-9],[-3,-12],[-2,-12],[-4,-14],[-6,-13],[-14,-12],[-13,-4]],[[2367,403],[-11,2],[-31,12],[-31,6]],[[2294,423],[-16,0],[-123,-23],[-10,-4],[-12,-8]],[[2436,373],[-10,2],[-6,6],[-10,17],[-5,7],[-9,6]],[[2396,411],[-9,-1],[-20,-7]],[[1327,506],[149,-1]],[[1128,435],[14,0],[73,44],[10,3],[102,24]],[[1064,452],[27,-3],[26,-12],[11,-2]],[[835,386],[9,4],[15,9],[22,18],[10,4],[12,1],[9,2],[7,6],[6,7],[6,7],[11,4],[122,4]],[[820,388],[15,-2]],[[1807,1041],[-15,-21],[-44,-37],[-40,-22],[-5,-5],[-1,-7],[4,-14],[1,-8],[-2,-10],[-6,-4]],[[1699,913],[-5,1],[-6,3],[-6,2]],[[1682,919],[-8,-2],[-13,-7],[-11,-11],[-32,-18],[-5,-7],[0,-8],[2,-6],[10,-13],[3,-8],[-1,-11],[0,-10],[2,-7],[4,-5],[5,-2],[5,-4],[2,-7],[-3,-12],[-10,-7],[-13,-6],[-13,-3],[-26,-12],[-11,-9],[-4,-9],[1,-11],[22,-49],[5,-13],[3,-13],[6,-36],[3,-30],[2,-16],[2,-22]],[[1089,1454],[-17,16],[-3,12],[3,14],[14,22],[10,10],[15,10],[5,6],[1,12],[-2,9],[-4,9],[-2,10],[2,12],[7,22],[7,15],[13,12],[9,5],[26,5],[7,6],[5,12],[-1,18],[-5,11],[-6,8],[-5,8],[1,9],[3,12],[27,53],[8,10],[6,7],[23,3]],[[1870,2152],[-56,-23],[-48,-9],[-19,-7],[-24,-15],[-37,-33],[-5,-8],[-10,-26],[-4,-8],[-18,-27],[-6,-14],[-4,-15],[-6,-30],[-5,-8],[-8,-5]],[[1620,1924],[-14,2],[-11,6],[-22,13],[-9,4],[-8,2]],[[1556,1951],[-9,-1],[-13,-7],[-18,-14],[-15,-20],[-7,-13],[-7,-20],[-4,-7],[-14,-18],[-5,-9],[-2,-11],[-1,-12],[-2,-11],[-4,-8],[-10,-7],[-15,-5],[-25,-3],[-33,-14],[-12,-2]],[[1360,1769],[-16,1],[-48,12],[-60,30]],[[1627,1059],[-9,0],[-11,5],[-12,16],[-8,24],[-4,28],[-4,61],[-5,29],[1,10],[4,9],[5,7],[2,6],[-3,3],[-7,1]],[[1576,1258],[-14,-7],[-10,-3]],[[1552,1248],[-14,1],[-19,7]],[[1519,1256],[-10,-1],[-9,-6],[-5,-6],[-5,-7],[-9,-4],[-15,-1]],[[1366,1222],[-13,1],[-40,17]],[[1313,1240],[-27,-5],[-54,-1]],[[1466,1231],[-51,3]],[[1415,1234],[-22,-5],[-13,-4],[-14,-3]],[[1807,1041],[-34,21],[-8,7],[-12,8],[-9,4],[-17,2]],[[1727,1083],[-9,-1],[-10,-2],[-6,-3],[-8,-2],[-23,-1],[-5,-2],[-8,-7],[-6,-3],[-17,0],[-8,-3]],[[2324,1286],[11,-6],[19,-17],[8,-9],[6,-9],[1,-10],[1,-10],[3,-11],[18,-36],[4,-9],[5,-8],[29,-24],[7,-8],[6,-11],[13,-11],[20,-10],[68,-5]],[[2151,1086],[18,37],[4,4],[7,7],[-1,9],[4,7],[26,29],[15,12],[11,12],[26,39],[12,11],[24,16],[9,9],[8,6],[10,2]],[[2543,1092],[189,42]],[[2151,1086],[-19,23],[-33,12],[-11,8],[-12,12],[-15,8],[-12,3]],[[2049,1152],[-13,0],[-40,-19],[-39,-6]],[[1816,1223],[-15,5],[-13,12],[-57,71],[-5,10],[1,6],[5,6],[16,7],[7,5],[6,5],[6,4],[17,4],[8,5],[5,7],[0,11],[-5,7],[-21,15],[0,7],[6,7],[45,19],[8,7],[3,9],[4,40],[3,12],[6,10],[43,45],[9,6],[31,14],[12,8],[9,10],[27,40],[10,13],[32,26],[6,10],[1,11],[-2,28],[2,21],[5,23],[0,15],[-2,10],[-3,7],[-16,44],[-4,24],[12,72],[-2,65],[-3,17],[-5,13],[-7,10],[-16,16],[-7,12],[-4,9],[-5,41]],[[1957,1127],[-57,62],[-38,30],[-13,5]],[[1849,1224],[-33,-1]],[[2309,2104],[17,-4],[20,-9],[11,-8],[10,-11],[9,-17],[12,-31],[9,-18],[13,-18],[24,-18],[11,-10],[6,-11],[4,-18],[-1,-8],[-2,-5],[-5,-1]],[[2447,1917],[-13,3]],[[2434,1920],[-8,-1],[-5,-3],[-4,-5],[-2,-8],[0,-12],[8,-177],[4,-13],[6,-12],[11,-13],[24,-24],[8,-5],[8,-1]],[[2496,1702],[59,-15]],[[2484,1646],[3,6],[-1,10],[-5,23],[0,9],[8,6],[7,2]],[[2902,996],[-13,7],[-4,8],[-5,10],[-7,23],[-4,9],[-6,8],[-8,6],[-14,7],[-4,10],[2,7],[10,12],[2,7],[-4,9],[-7,9],[-27,17],[-6,6],[-9,12],[-6,3]],[[2792,1166],[-7,-1],[-23,-21],[-30,-10]],[[3519,1160],[14,-3],[31,-20],[14,-1]],[[3349,1058],[10,2],[6,5],[9,16],[6,8],[20,14],[8,7],[12,18],[8,9],[19,10],[53,12],[19,1]],[[3608,1158],[25,-8],[22,-3]],[[3578,1136],[8,2],[6,6],[3,6],[6,7],[7,1]],[[3302,1074],[9,-2],[38,-14]],[[3257,1038],[6,1],[3,5],[2,7],[4,8],[6,8],[12,6],[12,1]],[[3107,1060],[22,-4],[32,-1],[18,-6],[12,-1]],[[2986,983],[22,11],[1,10],[1,21],[2,10],[4,9],[9,8],[12,3],[70,5]],[[3218,1052],[11,-2],[28,-12]],[[3191,1048],[14,3],[13,1]],[[2902,996],[84,-13]],[[3256,1768],[-15,10],[-10,12],[-4,10],[-1,8],[2,6],[-1,9],[-4,8],[-15,11],[-8,1]],[[3200,1843],[-4,-4],[1,-8],[1,-8],[-2,-9],[-5,-7],[-19,-17],[-4,-6],[0,-9],[1,-9],[0,-8],[-4,-9],[-8,-7],[-12,-5]],[[3412,1752],[-21,6],[-7,5],[-59,13]],[[3325,1776],[-18,0],[-51,-8]],[[3441,1767],[-29,-15]],[[3145,1737],[-12,0],[-9,5],[-22,16],[-19,7]],[[3083,1765],[-14,-1],[-9,-5],[-6,-15],[-6,-8],[-45,-19],[-10,-7],[-15,-18],[-6,-6],[-9,-1]],[[2775,1650],[-8,2],[-2,4],[1,6],[2,7],[0,8],[-2,7],[-4,8],[-5,7],[-8,17],[-5,6],[-11,4]],[[2733,1726],[-8,-2],[-8,-4],[-45,-33],[-19,-8],[-14,-3]],[[2639,1676],[-10,2],[-21,13],[-16,4]],[[2592,1695],[-10,0],[-27,-8]],[[2963,1685],[-30,6]],[[2933,1691],[-26,-6]],[[2907,1685],[-27,0]],[[2880,1685],[-8,-3],[-7,-6],[-6,-10],[-6,-8],[-7,-6],[-13,-2],[-58,0]],[[2681,1300],[-10,1],[-6,6],[0,15],[6,25],[0,13],[-4,12],[-11,12],[-11,7],[-38,5],[-30,8],[-10,10],[-5,15],[4,30],[6,15],[10,9],[11,3],[7,8],[-1,12],[-9,20],[-11,16],[-9,17],[-13,49],[-2,79]],[[2732,1134],[5,40],[3,12],[9,19],[3,10],[4,44],[2,9],[9,28],[-1,10],[-4,9],[-13,7],[-10,2]],[[2739,1324],[-10,-2],[-29,-16],[-19,-6]],[[228,1305],[-7,2],[-35,23]],[[431,1107],[3,4],[-1,11],[-12,31],[-8,17],[-10,13],[-8,6],[-8,4],[-33,5],[-9,4],[-5,6],[-13,47],[-11,30],[-8,16],[-6,9],[-8,2]],[[294,1312],[-66,-7]],[[420,1110],[5,-1],[6,-2]],[[790,383],[1,35],[-2,8],[-2,11],[-5,6],[-36,36],[-16,19],[-12,9],[-29,14],[-17,14],[-9,14],[-7,18],[-3,11],[-1,9],[2,8],[3,8],[2,8],[-3,10],[-15,18],[-4,8],[-1,9],[2,20],[-3,16],[-6,23],[-16,45],[-19,82],[-6,12],[-19,24],[-12,20],[-29,75],[-8,7],[-14,2],[-17,8],[-71,95],[-5,9],[-2,8],[1,4],[3,3],[5,1]],[[220,1568],[22,-20],[103,-2],[17,-5],[10,-7],[6,-14],[5,-7],[6,-7],[9,-6],[6,-6],[4,-6],[1,-13],[1,-7],[5,-7],[5,-1]],[[658,1537],[12,-3],[11,-6],[40,-31],[36,-14],[16,-3],[14,-1]],[[535,1489],[10,2],[6,4],[8,7],[26,20],[73,15]],[[490,1502],[33,-11],[12,-2]],[[420,1460],[6,3],[8,12],[5,6],[30,18],[7,3],[14,0]],[[810,1481],[8,-3],[5,-6],[0,-8],[-5,-11],[-6,-9],[-4,-8],[1,-9],[5,-11],[15,-10],[12,-4],[11,-1]],[[787,1479],[23,2]],[[1002,1457],[14,-2],[46,-15],[9,0]],[[964,1449],[11,1],[27,7]],[[1071,1440],[12,6],[6,8]],[[931,1449],[33,0]],[[852,1401],[4,4],[2,6],[-2,7],[-1,7],[0,7],[4,4],[8,3],[34,0],[9,2],[14,6],[7,2]],[[1096,975],[6,3],[3,6],[4,20],[4,15],[9,14],[61,67],[16,14],[11,13],[14,9],[8,8],[3,9],[1,11],[-4,70]],[[1049,1004],[9,0],[6,-3],[7,-6],[13,-13],[6,-5],[6,-2]],[[953,885],[9,2],[11,6],[10,9],[11,14],[1,13],[-2,9],[-5,10],[-4,11],[1,17],[5,10],[9,7],[50,11]],[[891,897],[6,-1],[7,-4],[7,-5],[6,-4],[7,-1]],[[869,749],[7,0],[5,4],[4,7],[10,19],[25,39],[1,9],[-4,6],[-9,5],[-19,5],[-7,3],[-4,7],[-4,35],[4,6],[5,3],[8,0]],[[941,886],[5,-1],[7,0]],[[924,882],[12,4],[5,0]],[[857,751],[12,-2]],[[820,388],[20,30],[-1,11],[-3,14],[-18,31],[-7,24],[2,17],[6,18],[5,32],[-1,20],[-5,18],[-5,15],[-5,28],[2,19],[16,54],[5,11],[5,7],[6,8],[5,4],[5,2],[5,0]],[[1089,1454],[23,-2],[10,-7],[9,-10],[3,-5],[1,-8],[-3,-9],[-5,-9],[-9,-8],[-6,-8],[-4,-12],[4,-8],[22,-26],[7,-5],[40,-17],[16,-12],[7,-16],[6,-34],[5,-10],[5,-6],[12,-8]],[[110,0],[-7,4]],[[2,732],[-2,1]],[[0,688],[24,22],[6,8],[2,8],[-2,7],[-8,5],[-6,1]],[[16,739],[-5,-2],[-9,-5]],[[186,1330],[-48,-36],[-13,-28],[-6,-17],[-17,-28],[-15,-14],[-14,-8],[-17,-3]],[[56,1196],[-14,1],[-41,10]],[[1,1207],[-1,0]],[[41,511],[-6,0],[-4,3],[-1,8],[1,9],[0,7],[-4,5],[-10,3],[-9,1],[-8,3]],[[123,162],[1,20],[1,8],[4,9],[16,25],[4,9],[1,8],[1,8],[-2,10],[-5,11],[-10,15],[-5,10],[-1,9],[2,7],[9,14],[4,11],[1,10],[-3,18],[1,12],[-1,11],[-2,13],[-9,31],[-7,15],[-11,15],[-24,19],[-14,9],[-9,8],[-5,9],[-5,5],[-7,1]],[[48,512],[-7,-1]],[[123,162],[-49,-46],[-21,-29],[-6,-14],[-1,-11],[2,-9],[6,-5],[10,-3],[27,-2],[7,-2],[5,-6],[4,-9],[-4,-22]],[[103,4],[-3,-4]],[[2900,2313],[50,-50],[37,-54],[22,-54],[5,-17],[7,-15],[9,-5],[13,0]],[[3368,2124],[17,-2],[9,-5],[5,-8],[4,-10],[2,-10],[7,-10],[9,-11],[16,-14],[10,-11],[4,-10],[-2,-8],[-7,-4],[-21,-6],[-13,-5],[-12,-7],[-10,-10],[-5,-10],[1,-12],[8,-12],[15,-21],[13,-23],[4,-9],[4,-14]],[[3305,2075],[9,4],[8,7],[25,29],[9,6],[12,3]],[[3056,2119],[17,0],[21,-6],[28,-15],[43,-34],[19,-10],[30,-7]],[[3043,2118],[13,1]],[[3258,2085],[34,-9],[13,-1]],[[3214,2047],[10,1],[7,3],[4,7],[6,18],[6,6],[11,3]],[[3441,1767],[8,17],[0,12],[-3,17],[-16,45],[-4,34]],[[3441,1767],[10,-13],[5,-7],[10,-11],[33,-29],[14,-15],[8,-19],[1,-26],[-3,-25],[4,-24],[75,-134],[28,-66],[16,-66],[8,-50],[5,-135]],[[3849,1911],[-8,6],[-28,37],[-19,21],[-44,34],[-10,5],[-8,0]],[[3732,2014],[-6,-7],[-1,-8],[2,-8],[4,-7],[1,-9],[-1,-9],[-3,-15],[1,-6],[5,-3],[8,-1]],[[3893,1871],[-10,1],[-7,6],[-1,8],[2,8],[3,9],[7,22],[1,12],[-3,10],[-6,6],[-9,2]],[[3870,1955],[-10,-8],[-4,-9],[0,-11],[0,-9],[-2,-6],[-5,-1]],[[3756,1943],[4,-1],[3,-3],[0,-7],[-2,-6],[-3,-7],[-9,-5],[-14,-2]],[[3742,1941],[14,2]],[[3735,1912],[-28,5],[-13,5],[-10,1]],[[3684,1923],[-5,-7],[-3,-8],[-5,-9],[-8,-6],[-27,-10],[-13,-1]],[[3623,1882],[-18,5],[-13,5],[-13,4],[-14,0]],[[3565,1896],[-55,-10]],[[3510,1886],[-84,6]],[[4094,1873],[-5,-3],[-37,-5],[-12,-7],[-6,-5],[-6,-4],[-9,-1]],[[3973,1846],[-11,1],[-26,9],[-23,14],[-9,3]],[[3904,1873],[-11,-2]],[[4019,1848],[-9,5],[-6,6],[-7,4],[-6,1]],[[3991,1864],[-9,-6],[-3,-7],[-6,-5]],[[160,2020],[-12,21],[-29,28],[-45,26],[-8,9],[-5,9],[-3,9],[-21,41],[-32,50],[-5,13]],[[0,2253],[2,2],[6,8],[19,27],[4,8],[2,8],[1,9],[1,10],[4,8],[8,14],[4,9],[8,29]],[[220,1568],[-11,7],[-7,3],[-9,1]],[[193,1579],[-9,0],[-9,-1],[-9,-6],[-9,-11],[-10,-19],[-7,-27],[-4,-26],[1,-65],[14,-57]],[[120,1365],[-34,3],[-56,12],[-30,1]],[[151,1367],[-31,-2]],[[3699,432],[-19,22],[-7,12],[-14,37],[-2,8],[1,11],[-1,12],[-6,23],[-6,15],[-7,13],[-16,16],[-5,8],[-3,7],[-4,6],[-8,6],[-19,10],[-7,7],[-19,28],[-5,10],[-5,13],[-4,15],[-77,201],[-7,29],[1,23],[2,12],[5,11],[6,8],[11,11],[18,23],[15,14],[14,8],[21,4],[25,2],[12,4],[12,11],[7,10],[9,8],[6,5],[42,3]],[[4096,362]],[[4027,327],[10,17],[5,4],[8,1],[31,12],[8,1],[7,0]],[[3737,1110],[124,-16],[12,-4],[6,-7],[0,-8],[1,-8],[5,-6]],[[3729,969],[5,2],[4,3],[2,4],[2,7],[0,16],[4,29],[0,10],[-2,10],[-4,9],[-15,29],[-1,9],[3,6],[10,7]],[[3935,1107],[10,0],[55,-18],[27,-15],[18,-5],[11,0]],[[3885,1061],[8,0],[6,4],[4,7],[8,15],[5,9],[8,6],[11,5]],[[3665,1098],[25,-35],[9,-19],[7,-30],[9,-27],[6,-12],[8,-6]],[[4056,1069],[25,5],[2,2]],[[3699,432],[-43,-17],[-15,-9],[-12,-13],[-19,-24],[-18,-30],[-7,-21]],[[3585,318],[-2,-21],[-14,-24],[-5,-14],[-5,-25],[-7,-8],[-9,-2]],[[3543,224],[-11,2]],[[3532,226],[-11,-1],[-14,-6],[-5,-8],[0,-11],[4,-25],[-3,-15],[-4,-5]],[[3499,155],[-6,2],[-5,4],[-8,2]],[[3480,163],[-10,0],[-28,-9],[-9,0]],[[3433,154],[-34,5]],[[3399,159],[-59,-21],[-10,-9],[-7,-9],[0,-8],[0,-7],[11,-30],[5,-4],[7,-2]],[[3375,106],[6,0],[7,-4],[5,-6],[2,-8],[1,-9],[0,-21],[0,-12],[4,-7],[7,-4],[9,-3],[6,-5],[4,-8],[1,-10],[0,-9]],[[3346,69],[8,2],[7,7],[2,6],[0,7],[1,8],[4,4],[7,3]],[[4060,170],[-25,11],[-40,36],[10,16],[3,6],[4,16],[1,3],[6,11],[1,4],[1,4],[1,31],[2,10],[3,9]],[[4096,90],[-8,3],[-12,9],[4,20],[11,23],[5,8]],[[4096,168],[-2,4],[-4,4],[-5,5]],[[4085,181],[-25,-11]],[[3741,413],[-42,19]],[[3900,340],[-26,5],[-40,23],[-25,22],[-14,19],[-7,6],[-8,2]],[[3780,417],[-14,-3],[-25,-1]],[[4027,327],[-44,6],[-18,6],[-17,3]],[[3948,342],[-48,-2]],[[3551,2635],[40,19]],[[3509,2638],[12,-3],[30,0]],[[3426,2566],[20,1],[8,4],[6,8],[3,18],[4,8],[6,7],[7,6],[12,14],[8,6],[9,0]],[[3353,2597],[5,-2],[12,-9],[20,-5],[13,-5],[13,-7],[10,-3]],[[3306,2506],[11,2],[16,6],[7,6],[4,7],[-1,9],[-13,29],[-1,9],[2,8],[5,7],[8,7],[9,1]],[[3083,2569],[7,-1],[14,-9],[8,-5],[11,-2],[122,-1],[8,-2],[6,-4],[6,-6],[11,-14],[8,-8],[8,-6],[14,-5]],[[3028,2498],[29,28],[11,22],[4,11],[4,7],[7,3]],[[397,2378],[4,2],[3,4],[4,8],[4,6],[29,24],[3,6],[2,8],[-2,8],[-6,15],[-8,15]],[[206,2462],[14,0],[80,-23],[10,-6],[17,-17],[11,-7],[30,-7],[8,-4],[12,-15],[9,-5]],[[59,2385],[31,25],[95,46],[21,6]],[[59,2385],[-7,19],[-5,27],[-7,12],[-9,8],[-22,12],[-9,9]],[[1726,2665],[63,-1]],[[1508,2610],[137,5],[15,5],[12,8],[30,28],[24,9]],[[1371,2642],[137,-32]],[[1098,2389],[28,27],[44,65],[5,10],[3,10],[1,17],[1,6],[4,6],[10,5],[62,12],[15,10],[7,8],[14,34],[6,9],[10,8],[51,23],[12,3]],[[466,2487],[77,0],[19,-4],[15,-5],[29,-15],[91,-31],[17,-3]],[[430,2474],[36,13]],[[825,2434],[17,-3],[10,-5],[2,-9],[4,-8],[6,-9],[15,-6],[9,-5],[6,-7],[6,-6],[10,-6],[9,-2]],[[714,2429],[111,5]],[[919,2368],[11,0],[8,3],[18,9]],[[679,2824],[16,3],[18,9],[103,78],[6,11],[1,12],[-7,14],[-10,9],[-24,16],[-10,8],[-8,8],[-34,48],[-12,43]],[[562,2842],[52,0],[28,-9],[12,-5],[12,-3],[13,-1]],[[534,2609],[12,0],[13,8],[12,13],[13,18],[16,19],[12,27],[5,14],[9,20],[3,13],[-2,14],[-6,9],[-7,8],[-12,6],[-49,14],[-9,5],[-4,7],[-1,10],[3,14],[8,9],[12,5]],[[463,2662],[6,-4],[12,-15],[8,-8],[33,-21],[12,-5]],[[430,2474],[-67,13],[-12,6],[-11,9],[-1,8],[2,7],[6,6],[27,18],[7,6],[6,7],[3,8],[3,9],[3,11],[4,12],[6,10],[43,54],[7,4],[7,0]],[[1848,2465],[5,0],[3,4],[2,10],[-1,6],[-3,7],[-4,5],[-2,5],[1,5],[6,5],[8,4],[10,6],[8,9],[5,15],[0,12],[-4,11],[-9,16],[-19,23],[-58,47],[-7,9]],[[1837,2466],[6,0],[5,-1]],[[1858,2293],[-9,2],[-8,11],[1,11],[5,14],[9,17],[6,19],[0,12],[-3,10],[-9,19],[-6,9],[-14,19],[-7,11],[-1,8],[4,6],[5,4],[6,1]],[[1870,2152],[-4,74],[4,32],[3,12],[3,16],[-1,6],[-4,3]],[[1871,2295],[-6,-2],[-7,0]],[[1870,2152],[66,-12],[33,-16]],[[2900,2313],[-26,29],[-10,8],[-13,6],[-14,3],[-15,0]],[[2822,2359],[-16,-4],[-69,-35],[-26,-7]],[[2469,2290],[-9,1],[-9,7],[-33,31],[-10,6],[-9,4]],[[2399,2339],[-8,-1],[-6,-3],[-3,-6],[2,-8],[13,-18],[15,-13],[5,-8],[2,-9],[-2,-10],[-5,-11],[-13,-11],[-28,-18],[-11,-11],[-33,-39],[-9,-18],[-8,-28],[-1,-23]],[[2591,2304],[-14,0],[-11,4],[-10,6],[-10,4]],[[2546,2318],[-10,-1],[-54,-25],[-13,-2]],[[2711,2313],[-82,0]],[[2629,2313],[-38,-9]],[[2092,2192],[12,-1],[13,-5],[81,-56],[8,-9],[8,-9],[8,-10],[12,-8],[11,-2]],[[2006,2112],[11,1],[9,4],[7,7],[4,8],[1,9],[0,10],[2,10],[7,12],[13,8],[14,7],[18,4]],[[1969,2124],[28,-11],[9,-1]],[[2245,2092],[16,3],[10,3],[38,6]],[[3005,2410],[15,3],[6,6],[3,10],[2,13],[7,19],[3,12],[-2,10],[-11,15]],[[2928,2419],[77,-9]],[[2900,2313],[56,13],[7,5],[6,9],[-3,7],[-45,41],[-8,18],[3,10],[12,3]],[[1789,2664],[43,15],[6,7],[6,10],[-2,12],[-6,9],[-31,33],[-17,27],[-10,29]],[[1310,612],[-34,-101],[38,-76],[-5,-152],[-22,-3],[28,-69]],[[3200,0],[-51,57]],[[3047,0],[99,57]],[[3146,57],[14,1]],[[3203,1965],[1,2],[1,1],[1,0],[1,0],[1,0],[6,-1],[2,0],[2,5],[-10,27],[-21,72],[-2,4],[-25,35],[-1,2],[-21,40],[-20,21],[-4,4],[-1,2],[-17,35],[-2,4],[-1,3],[0,4],[0,2],[1,8]],[[3094,2235],[1,20],[-6,6],[-4,7],[-8,46]],[[3077,2314],[-1,2]],[[3085,2310],[-8,3]],[[3077,2313],[0,1]],[[3146,57],[135,143],[61,150],[92,572],[-8,136],[-198,391],[-46,408],[36,115],[-10,27],[-21,71],[0,1],[-2,4],[-91,160]],[[3094,2235],[1,18],[0,2],[0,1],[-2,2],[-4,3],[-2,3],[-2,4],[0,6],[2,4],[1,3],[0,1],[0,6],[-1,1],[-10,24]],[[3475,2263],[-65,18],[-138,-29],[-97,54],[-24,-41],[-66,45]],[[3085,2310],[8,-1],[1,0],[1,0],[52,-39]],[[3694,2212],[-207,55]],[[3694,2213],[25,-22]],[[3734,2191],[55,10],[62,54]],[[3851,2255],[66,125],[66,15],[22,36],[91,-59]],[[3858,2257],[-7,-2]],[[3881,2303],[36,77],[66,15],[22,36],[91,-59]],[[3801,4096],[30,-47],[18,-300],[-64,-101],[21,-45],[40,-11],[-91,-13],[-56,24],[32,-63],[-33,20],[-68,-16],[20,-26],[-18,-96],[19,-37],[90,-34],[9,-67],[44,-26],[94,-147],[-7,-75],[59,-179],[-123,-75],[26,-90],[-29,-80],[20,-32],[-51,-159],[53,-114],[32,-23],[13,20]],[[2140,101],[-6,-101]],[[383,805],[-120,82],[-53,-16],[-23,28],[-187,13]],[[361,816],[4,-2],[2,-1],[5,-3],[9,-4]],[[399,800],[-1,1]],[[398,801]],[[398,801],[-1,0]],[[397,801],[-1,0]],[[396,801],[-1,0]],[[395,801],[-3,1]],[[392,802],[-1,0]],[[391,802]],[[391,802],[-1,0]],[[390,802]],[[390,802]],[[390,802],[-1,0]],[[389,802],[-1,1]],[[388,803],[-3,1]],[[385,804],[-2,1]],[[721,958],[-131,-63],[-69,-69],[-122,-26]],[[1222,747],[-25,25],[-28,-44],[-116,-14],[-1,32],[-98,45],[-8,37],[22,-6],[0,27],[-83,49],[-59,-8],[-93,74]],[[1225,744],[65,-137],[31,5],[39,71],[68,42],[359,78],[139,-17],[86,-80],[63,25],[67,-14],[13,-79],[100,-22]],[[2547,2969],[-70,-32],[-75,74],[-125,10],[-9,-51]],[[3883,3101],[10,-82]],[[96,3325],[14,40],[186,17]],[[384,3254],[-86,49],[-15,33],[13,37],[0,5],[0,3],[0,1]],[[296,3382],[3,24],[123,37]],[[1653,2855],[-76,47],[-163,-97]],[[1857,198],[-44,-124],[17,-67],[-3,-7]],[[1210,760],[-65,50],[3,85],[116,202]],[[3859,2260],[7,9]],[[3866,2269],[50,111],[67,15],[22,36],[91,-59]],[[3801,4096],[30,-47],[18,-300],[-64,-101],[21,-45],[40,-11],[-91,-13],[-56,24],[32,-63],[-33,20],[-68,-16],[20,-26],[-18,-95],[19,-38],[90,-34],[9,-67],[44,-26],[87,-126],[0,-96],[57,-160],[-1,-24],[-121,-72],[27,-88],[-29,-80],[20,-32],[-51,-169],[83,-142]],[[790,1811],[-140,29],[-113,70],[-127,-18],[-121,26],[-66,79],[-58,4],[-78,-44],[-72,35],[-15,42]],[[974,1724],[2,1]],[[976,1725],[3,1],[2,1],[0,1],[0,1],[-2,3]],[[979,1732],[-69,89],[-112,-8]],[[976,1725],[1,0]],[[979,1732],[-2,-7]],[[977,1725],[-3,-1]],[[974,1724],[22,-31],[-18,-66],[27,-49],[15,-149],[-140,-79],[20,-46],[-27,-38],[-9,-103],[179,-1],[116,-97],[336,138],[293,30],[93,-63],[52,-6],[83,-84],[4,-40],[9,-21],[1,-2],[0,-1],[-1,-2],[-7,-26],[5,-5]],[[2027,983],[0,-1]],[[2372,0],[-150,270],[-11,76],[31,108],[23,4],[-26,9],[60,92],[-48,62],[15,156],[-31,16],[-22,61],[14,167],[-200,-38]],[[2029,1019],[-7,-31],[1,-3],[2,-1],[2,-2]],[[2027,982],[3,-1],[1,0],[2,-1],[1,0],[1,0],[1,0],[1,0]],[[3433,841],[27,-34],[48,17],[74,-21],[106,-256],[133,-103],[20,-46],[102,-53]],[[3943,345],[21,-5],[14,-5],[7,-3],[4,-2],[5,1]],[[3943,345],[46,-15],[5,1]],[[3994,331],[18,52]],[[3709,2191],[10,0]],[[3734,2191],[55,10],[68,55],[59,124],[67,15],[22,36],[91,-59]],[[1581,45],[1,6]],[[1582,55],[-1,-10]],[[1581,45],[15,-45]],[[2509,628],[41,1]],[[3498,0],[377,116],[1,0],[1,1],[1,1],[25,26],[50,27],[11,10],[3,4],[7,24]],[[3974,209],[1,5],[0,1],[0,1],[0,1],[0,1],[-1,2],[-1,1],[-1,1],[-17,16],[-1,1],[-2,1],[-8,5],[-8,9],[-7,23],[42,27]],[[3971,304],[34,40],[1,0],[0,1],[0,5],[-1,15],[7,18]],[[3974,209],[-1,0],[-2,-9]],[[3971,200],[-7,-19],[-11,-10],[-47,-25],[-3,-2],[-1,-1],[-24,-25],[-2,-2],[-3,-1],[-89,-14],[-1,0],[-4,-1],[-68,-21]],[[3971,200],[4,19],[-31,26],[-8,8],[0,1],[-1,2],[-1,2],[-5,19],[42,27]],[[4049,380],[-33,13],[-2,-3],[-9,-24],[0,-1],[0,-1],[1,-14],[0,-5],[-8,-8],[-1,-2],[-2,-3]],[[1172,770],[21,1],[21,-8],[11,-10],[6,-7]],[[1131,757],[41,13]],[[1231,746],[5,-5],[10,-14],[8,-14],[6,-12],[6,-13],[4,-13],[3,-14]],[[289,866],[9,-14],[12,-15],[8,-6]],[[103,889],[18,-2],[61,-13],[8,0],[9,1],[8,2],[33,18],[7,2],[8,0],[8,-1],[7,-4],[5,-5],[5,-5],[9,-16]],[[318,831],[6,-5],[15,-9],[16,-6],[17,-3],[102,2],[13,4],[13,6],[12,8],[42,41],[11,10],[14,8],[43,18],[12,6],[67,51],[6,3],[6,3],[6,1],[6,-1],[6,-3],[6,-4],[24,-24],[6,-5],[6,-4],[3,-2],[4,-1]],[[777,934],[20,-29],[26,-11],[56,-7],[17,-8],[17,-10],[106,-100],[15,-11],[16,-7],[16,-4],[16,0],[49,10]],[[1289,330],[-6,-42],[-2,-24]],[[1281,263],[1,-25],[4,-21],[6,-18]],[[1356,28],[2,-4],[6,-8],[6,-8],[10,-8]],[[1273,661],[1,-10],[1,-11],[-1,-10],[-1,-10],[-2,-8],[-15,-38],[-4,-18],[-2,-19],[2,-20],[6,-22],[26,-61],[7,-23],[3,-24],[0,-24],[-5,-33]],[[1281,264],[0,-1]],[[1292,199],[0,-2],[35,-74],[7,-20],[11,-50],[3,-9],[4,-10],[4,-6]],[[1380,0],[1,0]],[[0,938],[20,-1],[35,-6],[11,-5],[12,-5],[10,-6],[9,-7],[9,-9],[7,-12]],[[2507,3394],[-35,88]],[[2472,3482],[-2,5]],[[2540,3312],[-33,82]],[[2691,2786],[28,-12],[9,-3],[0,-7],[0,-7],[1,-8],[6,-32]],[[2575,3414],[-16,-8],[-11,-21],[-6,-27],[-3,-25],[-3,-56],[1,-28],[2,-27],[2,-9],[2,-9],[2,-9],[4,-8],[3,-6],[22,-31],[8,-18],[6,-19],[2,-22],[1,-24],[-7,-115],[1,-21],[3,-21],[12,-35],[18,-29],[21,-24],[23,-19],[25,-16],[4,-1]],[[2735,2717],[1,-5],[1,-13]],[[3979,2857],[0,7],[-2,7],[-5,8],[-6,7],[-8,5],[-7,2],[-37,-4],[-3,0],[-2,1]],[[3909,2890],[-2,0],[-4,2],[-8,6],[-116,110],[-35,29],[-14,15],[-24,35]],[[3981,2841],[-1,8],[-1,8]],[[3706,3087],[-43,73],[-24,33],[-27,26],[-33,21],[-95,88],[-84,60],[-9,9],[-8,10],[-7,12],[-4,14],[-6,28],[-5,11],[-8,9]],[[2546,3450],[-8,10],[-10,9],[-10,5],[-22,9],[-14,8]],[[2482,3491],[-23,13],[-70,25]],[[3353,3481],[-12,4],[-12,0],[-12,-3],[-26,-10],[-105,-63],[-16,-5],[-16,-2],[-17,0],[-15,4],[-47,20],[-18,4],[-19,-2],[-18,-6],[-45,-23],[-9,-3],[-96,-18],[-37,-13],[-18,-2],[-71,3],[-16,5],[-27,9],[-40,5],[-20,4],[-63,24],[-6,4],[-6,6],[-20,27]],[[2392,3529],[-70,-3],[-16,2],[-7,3],[-8,4],[-6,5],[-7,6],[-35,42],[-8,6],[-7,5],[-16,8],[-40,10],[-60,6],[-20,-2],[-39,-7],[-19,-2],[-10,1],[-10,2],[-119,64]],[[1895,3679],[-106,58]],[[1789,3737],[-19,5],[-59,5],[-38,-2],[-35,-5],[-35,-11],[-34,-17],[-31,-24]],[[1315,3356],[-6,-7],[-6,-9],[-6,-10],[-5,-11],[-15,-38]],[[1277,3281],[-16,-43],[-9,-16],[-10,-13],[-6,-5],[-6,-1],[-7,0],[-102,20],[-59,21],[-57,37],[-6,3],[-7,1],[-3,0],[-4,-1],[-3,-1],[-3,-2],[-15,-14],[-3,-3],[-7,-3],[-8,-3]],[[1538,3688],[-13,-14],[-7,-7],[-11,-18],[-5,-10],[-4,-11],[-3,-12],[1,-10],[2,-9],[4,-7],[12,-10],[5,-5],[4,-8],[3,-8],[1,-14],[-4,-11],[-7,-8],[-9,-5],[-25,-12],[-2,-2],[-1,-2],[0,-3],[1,-3],[0,-3],[2,-3],[2,-4],[3,-4],[9,-7],[2,-2],[2,-3],[0,-4],[-3,-6],[-4,-5],[-6,-4],[-5,-2],[-8,-3],[-33,-9],[-79,-45],[-31,-23],[-15,-15],[-1,-1]],[[946,3258],[-14,-1],[-14,2],[-13,4],[-54,28],[-14,5],[-29,6],[-131,0],[-21,2],[-38,9],[-32,1]],[[155,3618],[-4,1],[-8,1]],[[143,3620],[-93,-11],[-14,1],[-13,5],[-11,13],[-6,14],[-5,17],[-1,3]],[[586,3314],[-85,1],[-32,8],[-31,19],[-10,13],[-16,32],[-10,14],[-8,6],[-8,3],[-44,4],[-9,3],[-16,8],[-15,11],[-6,5],[-3,4],[-3,3],[-3,5],[-10,23],[-2,4],[-2,3],[-4,3],[-3,3],[-8,4],[-7,5],[-6,8],[-5,10],[-15,32],[-6,9],[-8,7],[-14,9],[-3,4],[-3,4],[-17,25],[-7,7],[-7,4],[-5,1]],[[4032,205],[-11,1],[-11,0]],[[4096,213],[-3,-2],[-4,-3],[-9,-4],[-9,-2],[-9,0],[-30,3]],[[4023,211],[-18,9],[-8,6],[-7,10],[-3,10],[-2,10],[0,10],[1,11]],[[4003,322],[6,17],[3,23]],[[3986,277],[7,21],[9,20],[1,4]],[[2366,4096],[-5,-29],[-7,-22],[-16,-41],[-6,-22],[-4,-23],[-1,-24],[1,-25],[5,-48],[5,-23],[6,-23],[8,-22],[7,-17],[8,-15],[10,-13],[19,-21],[3,-5],[2,-5],[2,-9],[0,-9],[0,-8],[-2,-9],[-5,-17],[-14,-31],[-5,-17],[-2,-23],[3,-23],[7,-22],[8,-19]],[[3590,799],[-1,3],[-3,12],[-3,13],[-2,13]],[[3923,360],[-36,12],[-17,9],[-17,11],[-14,14],[-13,16],[-44,67],[-12,14],[-13,10],[-14,8],[-21,8],[-23,18],[-18,28],[-15,33],[-31,86],[-34,76],[-11,29]],[[3577,825],[-17,2]],[[3560,827],[-43,5],[-6,0],[-6,-1],[-5,-2],[-5,-4],[-19,-16],[-18,-11],[-8,-2],[-8,-2],[-8,0]],[[3135,51],[0,2],[1,2],[0,1],[0,2]],[[3034,0],[25,20],[8,5],[7,3],[8,2],[25,2],[11,3],[10,6],[7,10]],[[3137,53],[27,67]],[[3302,312],[1,4],[5,17]],[[3408,628],[1,1],[2,6],[1,8],[1,8],[0,17],[0,9]],[[3217,1538],[4,55]],[[3164,120],[12,31],[20,39],[24,36],[11,13],[12,11],[39,30],[8,10],[8,12],[4,10]],[[3413,677],[1,15],[15,92],[3,45],[0,66],[-2,21],[-4,21],[-12,44],[-3,13],[-1,12],[-2,64],[-1,19],[-4,19],[-3,11],[-3,10],[-56,110],[-72,118],[-33,40],[-9,15],[-13,41],[-1,47],[4,38]],[[3308,333],[0,1],[7,38],[5,19],[24,66],[6,23],[9,60],[5,19],[7,17],[9,15],[27,34],[1,3]],[[4096,2571],[-27,6],[-7,3],[-6,4],[-6,5],[-3,4],[-3,6],[-2,5],[-8,23],[-6,16],[-9,13],[-11,9],[-15,7],[-32,7],[-16,5],[-11,6],[-5,3],[-5,5],[-3,5],[-29,49],[-13,18],[-6,10],[-4,11],[-2,12],[2,14],[4,12],[6,11],[13,20],[5,10],[2,11],[1,14]],[[3575,831],[-2,15]],[[3733,1212],[46,66]],[[3573,846],[-1,6],[0,22],[17,107],[5,21],[5,19],[7,17],[9,17],[9,14],[53,62],[56,81]],[[3779,1278],[35,51],[12,20],[10,23],[6,25],[10,50],[5,24],[36,99],[8,17],[10,13],[45,35],[6,6],[6,8],[29,43],[6,7],[7,5],[8,2],[9,0],[26,-10],[10,-1],[9,3],[8,9],[5,10],[4,12],[7,41]],[[3219,1593],[8,16],[1,12]],[[3216,1957],[0,20],[-6,24]],[[3210,2001],[-2,9],[-10,31],[-8,33]],[[3228,1621],[0,7],[-3,20],[-6,18],[-14,36],[-6,23],[-4,23],[-2,26],[-1,26],[1,26],[2,26],[3,22],[5,22],[10,34],[2,12],[1,15]],[[2760,2565],[2,-11],[3,-22]],[[2731,2721],[2,-5]],[[2733,2716],[2,-6],[2,-12],[2,-12],[6,-63],[2,-9],[11,-38],[2,-11]],[[2765,2532],[2,-9],[2,-10],[3,-8],[5,-9],[6,-6],[7,-4],[19,-5],[4,-1],[8,-6],[23,-19],[113,-122],[12,-16],[10,-18],[51,-118],[10,-18],[15,-21],[17,-18],[19,-15],[19,-12],[19,-10],[20,-7],[20,-4],[21,-2]],[[0,3923],[2,4],[1,4],[0,4],[0,4],[-1,10],[-1,9],[-1,4]],[[4022,363],[-24,-10],[-15,-10],[-3,-2],[-3,0],[-3,0],[-6,1],[-29,11]],[[3939,353],[-16,7]],[[1055,1473],[-20,19],[-17,24],[-18,19],[-26,7]],[[918,1572],[10,-10],[14,-10]],[[687,1785],[-5,-34],[9,-31],[17,-25],[19,-20],[21,-16],[22,-13],[18,-6],[38,-5],[18,-5],[18,-10],[17,-13],[39,-35]],[[942,1552],[4,-2],[18,-7],[19,-1]],[[3973,2882],[8,5]],[[3981,2887],[58,30],[2,2],[2,2],[3,5],[4,9],[6,18],[4,9],[5,7],[6,6],[6,4],[7,3],[12,3]],[[0,2198],[56,5],[30,9],[28,16],[83,56],[14,6],[15,4],[16,1],[17,-2],[67,-16],[12,-1],[12,1],[13,3],[12,5],[12,7]],[[4074,379],[-52,-16]],[[4096,387],[-5,-3],[-17,-5]],[[661,255],[-1,10]],[[640,352],[-4,7],[-7,8]],[[629,367],[-4,5],[-13,9],[-14,6],[-74,14],[-7,0],[-15,-1],[-8,0],[-7,3],[-8,4],[-38,33],[-7,4],[-29,11],[-2,1],[-40,29],[-8,9],[-6,11],[-4,14],[-1,9],[0,9],[0,9],[19,161],[9,49],[15,46]],[[618,0],[16,42],[13,47],[5,24],[8,95],[1,47]],[[660,265],[0,13],[-3,22],[-4,22],[-7,20],[-6,10]],[[0,1483],[20,-37],[9,-20],[6,-22],[2,-12],[1,-12],[-1,-13],[-2,-12],[-5,-24],[-1,-12],[2,-12],[1,-3],[2,-3],[7,-10],[3,-5],[4,-9],[12,-32],[5,-10],[2,-4],[3,-4],[3,-3],[16,-11],[3,-4],[6,-9],[9,-19],[6,-8],[14,-10],[16,-5],[16,-3],[15,-5],[7,-5],[6,-6],[6,-8],[5,-9],[3,-10],[7,-33],[3,-9],[3,-8],[15,-22],[4,-9],[4,-10],[2,-10],[3,-26],[1,-26],[2,-25],[7,-24]],[[2485,2101],[-48,-57],[-4,-4]],[[2614,1967],[1,5],[1,1]],[[3207,1602],[-10,21],[-4,5]],[[2855,1955],[-11,13],[-16,8],[-15,0],[-33,-12]],[[2433,2040],[-9,-8],[-14,-9],[-8,-3],[-15,-4],[-16,-2],[-17,1],[-8,2],[-6,2],[-37,22],[-6,2],[-6,1],[-5,-2],[-47,-23],[-18,-6],[-19,-3],[-18,1],[-19,4],[-25,10],[-12,4],[-12,-2],[-10,-8],[-7,-12],[-11,-27]],[[2616,1973],[2,4],[4,4],[4,2],[4,3],[3,2],[2,3],[1,4],[0,6],[-2,11],[-2,11],[-4,10],[-4,10],[-9,19],[-12,17],[-12,14],[-15,10],[-15,8],[-15,7],[-16,3],[-16,-1],[-15,-6],[-13,-12],[-1,-1]],[[2780,1964],[-12,-4],[-17,1],[-31,15],[-16,6],[-8,0],[-8,-2],[-7,-4],[-6,-7],[-2,-6],[-1,-8],[1,-14],[-3,-15],[-7,-10],[-9,-5],[-10,0],[-10,3],[-9,8],[-8,10],[-5,13],[-1,7],[1,7],[1,7],[1,1]],[[3193,1628],[-10,14],[-15,14],[-37,21],[-89,83],[-14,17],[-29,45],[-12,16],[-13,14],[-14,12],[-23,17],[-35,16],[-8,5],[-8,7],[-7,8],[-23,36],[-1,2]],[[1941,2009],[-89,26],[-20,4],[-20,-1],[-66,-16],[-9,-3]],[[1956,2005],[-14,4]],[[1980,1999],[-8,1],[-1,1]],[[1991,1998],[-5,0]],[[2011,1995],[-19,2]],[[1540,1594],[-8,-9],[-9,-6],[-10,-5]],[[1616,1833],[-1,-6],[0,-9],[1,-31]],[[1616,1787],[0,-2],[0,-7],[-1,-6],[-51,-114],[-18,-52],[-6,-12]],[[1737,2019],[-5,-1],[-13,-7],[-12,-8],[-12,-10],[-10,-12],[-10,-15],[-42,-83],[-9,-22],[-4,-12],[-3,-12],[-1,-4]],[[1942,2009],[-1,0]],[[1971,2001],[-15,4]],[[1986,1998],[-6,1]],[[1992,1997],[-1,1]],[[2085,1972],[-17,11],[-18,6],[-39,6]],[[1518,1574],[-21,-31],[-25,-20],[-20,-14]],[[1452,1509],[-34,-22],[-26,-26],[-6,-5],[-7,-4],[-7,-2],[-19,-4],[-55,-2],[-39,3],[-28,5],[-17,6],[-45,25],[-7,3],[-8,1],[-8,0],[-9,-1],[-53,-18],[-15,-1],[-14,6]],[[2227,360],[0,9]],[[2228,380],[1,18],[2,8]],[[2380,26],[-16,34]],[[2364,60],[-52,105],[-9,22],[-6,10],[-10,14],[-36,33],[-8,10],[-6,13],[-5,13],[-3,16],[-2,18],[-1,18],[1,28]],[[2227,369],[1,11]],[[2231,406],[2,21],[6,29],[10,37],[3,11],[4,10],[5,9],[7,9],[9,7],[8,8],[6,12]],[[2393,0],[-13,26]],[[3138,50],[8,24]],[[3120,0],[18,50]],[[269,2859],[0,3],[2,22],[0,4],[-1,6],[-2,4],[-2,5],[-2,4],[-10,12]],[[254,2919],[-14,15],[-29,12],[-78,12],[-16,6],[-97,59],[-20,6]],[[390,2283],[-9,13],[-10,11],[-11,9],[-9,6],[-20,9],[-10,6],[-4,3],[-4,4],[-4,5],[-2,7],[-2,14],[-2,4],[-1,4],[-3,3],[-2,3],[-3,2],[-13,7],[-25,10],[-13,6],[-23,16],[-11,10],[-10,12],[-8,15],[-4,17],[0,18],[4,18],[4,9],[9,15],[4,8],[2,10],[2,9],[-1,9],[-1,11],[-3,18],[-1,10],[1,9],[3,6],[4,5],[4,3],[5,2],[25,6],[12,4],[11,8],[3,4],[3,4],[2,6],[-1,6],[-1,4],[-8,12],[-2,6],[-1,6],[-1,7],[2,7],[3,5],[9,8],[4,5],[1,4],[0,4],[0,4],[-1,4],[-2,2],[-1,2],[-4,2],[-2,2],[-2,2],[-2,5],[-4,5],[-1,3],[-1,4],[-1,5],[0,5],[1,5],[1,5],[2,3],[1,2],[5,5],[4,6],[1,8],[-1,8],[-2,7],[-3,6],[-1,3],[-1,4],[-1,5],[0,2]],[[2261,607],[-52,13]],[[2209,620],[-29,8],[-6,3],[-7,4],[-5,6],[-5,8],[-4,9],[-6,19],[-4,9],[-5,9],[-6,7],[-8,7],[-7,6],[-17,10],[-7,3],[-9,3],[-8,1],[-8,-2],[-6,-5],[-11,-11],[-6,-4],[-15,-5],[-15,4],[-14,9],[-41,36],[-14,9],[-16,5],[-15,2],[-100,-4],[-187,-28],[-50,-16],[-188,-25],[-20,-6],[-43,-18],[-7,-3],[-4,-1],[-42,-8]],[[830,1112],[-4,-8],[-42,-61],[-7,-11]],[[939,1559],[1,-7]],[[777,1032],[-5,-10],[-5,-11],[-4,-13],[-3,-12],[1,-17],[4,-15],[5,-15],[4,-15]],[[940,1552],[4,-25],[1,-4],[0,-5],[-2,-10],[-9,-29],[-1,-10],[2,-9],[4,-8],[4,-7],[12,-14],[4,-9],[2,-10],[-1,-4],[-2,-4],[-3,-3],[-6,-5],[-70,-42],[-5,-5],[-3,-8],[1,-8],[8,-19],[4,-10],[2,-10],[0,-16],[-2,-15],[-7,-29],[-21,-61],[-24,-58],[-2,-3]],[[817,364],[-1,-8],[-4,-12],[-6,-10],[-13,-9],[-15,-3],[-14,0],[-14,3],[-15,6],[-27,15]],[[651,376],[-8,2],[-12,2]],[[631,380],[-5,0]],[[708,346],[-49,27],[-8,3]],[[774,924],[1,-13],[-1,-26],[2,-13],[4,-9],[4,-8],[20,-30],[4,-8],[4,-9],[1,-8],[0,-7],[-4,-29],[1,-7],[1,-7],[2,-3],[2,-2],[2,-1],[2,-2],[4,-1],[0,-5],[0,-11],[-1,-14],[-4,-13],[-10,-23],[-4,-12],[-1,-12],[2,-12],[4,-12],[4,-9],[13,-23],[4,-9],[2,-9],[1,-10],[-1,-10],[-4,-17],[-6,-19],[-3,-19],[6,-16],[12,-12],[3,-5],[3,-8],[1,-9],[-1,-9],[-2,-9],[-3,-5],[-10,-13],[-3,-7],[-2,-8],[-6,-37]],[[3175,4096],[1,-11],[0,-7],[2,-8],[0,-5],[-3,-5],[-6,-7],[-6,-7],[-7,-6]],[[2982,3890],[-2,-4],[-20,-46]],[[3156,4040],[-14,-9],[-14,-12],[-45,-57],[-7,-7],[-7,-6],[-8,-5],[-48,-21],[-7,-5],[-7,-5],[-8,-8],[-6,-9],[-3,-6]],[[2960,3840],[-1,-2]],[[2959,3838],[-7,-15],[-19,-34],[-3,-7],[-2,-7],[0,-12],[2,-35],[-1,-10],[-3,-9],[-4,-8],[-11,-11],[-5,-6],[-4,-7],[-3,-8],[-1,-6],[-1,-6],[0,-33],[-1,-10],[-2,-9],[-8,-12],[-10,-5],[-21,-4],[-15,-6],[-14,-11],[-12,-13],[-16,-25],[-34,-61],[-21,-45],[-6,-10],[-7,-10],[-25,-26]],[[790,1809],[-42,-21]],[[748,1788],[-7,-4],[-25,-7],[-26,0]],[[791,1804],[-7,7],[-7,6],[-8,5],[-8,4],[-7,2],[-1,1]],[[416,2240],[-25,42]],[[391,2282],[-1,1]],[[753,1829],[-50,7],[-14,7],[-12,11],[-9,23],[-1,28],[1,29],[-4,26],[-7,14],[-9,10],[-11,7],[-58,23],[-8,5],[-7,7],[-6,9],[-5,14],[-1,16],[1,16],[3,15],[-7,1],[-6,1],[-6,3],[-6,5],[-3,5],[-3,6],[-5,12],[-8,14],[-9,13],[-11,9],[-38,25],[-12,10],[-11,13],[-15,27]],[[3878,3597],[-6,-2],[-14,-6]],[[4096,3773],[-8,-7],[-32,-16],[-15,-16],[-16,-25],[-12,-8],[-38,-21],[-21,-18],[-30,-19],[-10,-11],[-12,-27],[-24,-8]],[[3858,3589],[-7,-12],[-1,-2]],[[3850,3575],[-20,-39],[-9,-9],[-31,-19],[-8,-34],[-9,-10],[-32,-6],[-9,-13],[-2,-17],[-9,-12],[-18,-10],[-24,-27],[-38,-21],[-43,-14],[-38,3],[-16,-14],[-16,-24],[-17,-13],[-14,-3]],[[1333,1186],[8,-28],[8,-16]],[[1268,1447],[11,-10],[0,-13],[-8,-13],[0,-15],[12,-41],[17,-11],[9,-15],[-4,-40],[0,-20],[11,-41],[3,-27],[13,-12],[1,-3]],[[1349,1142],[-8,-10]],[[1341,1132],[-21,-28],[-19,-10],[-30,-1]],[[1199,789],[0,-1],[2,-21]],[[1271,1093],[-30,-37],[-26,-5],[-8,-7],[-13,-30],[-8,-29],[5,-27],[17,-15],[1,-18],[-6,-25],[6,-26],[-6,-14],[5,-19],[-13,-20],[-2,-17],[6,-15]],[[0,441],[28,-1],[15,-10],[22,0],[20,7],[28,-6],[53,-3],[26,12],[25,6],[18,10],[19,19],[28,38],[26,24],[29,18]],[[4096,4096],[0,-4096],[-4096,0],[0,1628],[0,2468],[3615,0],[481,0]],[[1205,3260],[20,119],[41,-13],[35,21],[19,-42],[40,6],[-6,-22],[49,-38],[57,-3],[57,-78],[-22,-29],[-61,34],[6,-18],[-60,-31],[30,59],[-24,-11],[-31,51],[-58,36],[-21,-21],[-26,31],[-20,-31],[16,-8],[-41,-12]],[[788,3408],[20,9],[-13,15],[29,-6],[-18,29],[55,-11],[6,74],[61,-5],[19,-42],[-28,-54],[-40,10],[3,-92],[-36,6],[15,27],[-36,-12],[-7,28],[6,-31],[-26,-10],[-5,39],[13,-19],[4,12],[-22,33]],[[133,4096],[-72,-29],[-37,29],[109,0]],[[0,3177],[46,46],[41,0],[38,-15],[25,20],[22,10],[63,-1],[7,-10],[-4,-14],[9,-12],[-10,13],[2,11],[-74,5],[-36,-26],[-63,6],[-38,-38],[-28,5]],[[0,36],[0,380],[42,-45],[47,-3],[34,-54],[-8,-47],[-47,-42],[-5,-113],[-22,-41],[72,101],[114,24],[32,-18],[8,-21],[-60,-68],[9,-89],[-38,0],[-12,6],[-6,-6],[-145,0],[0,35],[-15,1]],[[120,30],[3,-2],[7,4],[8,11],[-1,6],[-17,-19]],[[1275,511],[10,52],[33,-24],[28,33],[48,-4],[27,60],[11,-19],[16,37],[33,-11],[-9,33],[23,-47],[3,7],[0,13],[2,2],[13,-25],[-3,29],[94,7],[6,-19],[12,24],[109,-23],[2,-22],[21,25],[13,-25],[3,31],[37,12],[75,-36],[24,53],[83,18],[-19,-74],[-41,-23],[21,-20],[-16,-30],[-26,-7],[56,-33],[-19,-33],[-101,-95],[-59,19],[-69,-58],[-78,-23],[9,-70],[-49,41],[-120,-16],[-47,23],[-31,147],[-71,-3],[-54,74]],[[1727,2118],[58,51],[50,-7],[34,54],[45,-38],[9,115],[26,-30],[47,37],[8,-31],[-40,-25],[4,-72],[54,0],[10,69],[25,-22],[-14,-71],[-55,-27],[37,-123],[-27,-6],[25,-59],[-21,-61],[25,-6],[21,-54],[-13,-103],[-103,-110],[-47,1],[12,30],[-21,-13],[6,37],[-39,24],[-40,-10],[37,18],[0,11],[-32,-15],[-4,25],[-29,0],[19,26],[-21,14],[38,23],[55,-31],[7,61],[69,61],[-117,48],[-26,-25],[11,56],[-72,75],[-11,103]],[[1881,1992],[9,0],[8,4],[16,-2],[-19,10],[-14,-12]],[[1808,2012],[3,-3],[4,0],[10,7],[7,-5],[-4,16],[-20,-15]],[[1953,2008],[12,-10],[6,2],[-12,14],[-6,-6]],[[1790,2012],[13,-8],[7,5],[-7,6],[-13,-3]],[[1988,1986],[0,-3],[2,-1],[2,19],[-4,-15]],[[1977,2001],[5,-5],[9,6],[-7,5],[-7,-6]],[[1919,2006],[14,-1],[1,2],[7,1],[1,1],[-23,-3]],[[1891,1992],[8,-2],[3,3],[-5,3],[-6,-4]],[[1198,3009],[149,11],[63,59],[136,-20],[60,-120],[89,-20],[43,-93],[-9,-34],[66,1],[-3,-113],[-72,0],[-11,23],[-27,3],[0,-2],[-2,-1],[-10,-1],[-1,0],[-1,0],[-2,1],[-4,-1],[-3,0],[-1,0],[-1,0],[-21,10],[-2,1],[-2,5],[-2,0],[-2,1],[-3,2],[0,1],[-2,0],[-4,2],[-11,9],[-18,2],[-11,5],[-3,0],[-2,-2],[-2,-1],[-1,1],[-2,0],[-2,2],[-2,1],[-2,2],[0,2],[-3,0],[-4,2],[-4,-2],[-4,-1],[-1,0],[-4,1],[-1,0],[-3,0],[-2,-3],[-6,-2],[-4,1],[-7,4],[-10,-2],[-2,3],[-5,-4],[-3,-1],[-1,-2],[-2,-1],[-35,-2],[-15,6],[-14,10],[-15,17],[-28,44],[-41,2],[-37,12],[-114,182]],[[1274,2890],[1,-4],[8,-1],[12,-8],[5,-11],[0,-5],[-4,-3],[16,-24],[0,-7],[20,-2],[17,-9],[3,5],[4,1],[33,-8],[8,-7],[3,-6],[10,5],[8,2],[2,3],[2,2],[5,2],[9,-2],[3,-1],[8,40],[-43,-15],[-17,52],[11,22],[39,-28],[30,74],[-8,-3],[3,8],[-11,3],[-21,-36],[-23,2],[2,27],[-55,-4],[-3,-22],[-77,-42]],[[1399,2801],[19,-32],[34,-29],[56,6],[3,-2],[2,2],[3,-1],[3,0],[5,-1],[7,-4],[8,5],[17,2],[53,-14],[48,-31],[25,4],[-51,21],[1,91],[-50,-57],[-77,17],[-59,-31],[9,13],[0,8],[-36,4],[25,22],[-5,1],[-19,13],[34,-15],[0,29],[-15,-11],[-13,4],[-8,-7],[-16,-7],[-2,0],[-1,0]],[[1226,2967],[5,-3],[8,3],[2,-1],[-1,-14],[12,-23],[5,-1],[7,-4],[9,-12],[2,-7],[9,3],[-22,27],[41,9],[-8,11],[-33,-20],[-21,21],[13,21],[-28,-10]],[[517,1219],[109,-25],[60,58],[-23,61],[44,14],[-19,75],[19,45],[-110,38],[-13,32],[37,35],[64,-1],[13,-68],[88,-9],[32,-27],[-16,-85],[-58,-6],[-12,-32],[110,0],[3,-28],[31,0],[-27,-10],[19,2],[-1,-40],[-40,48],[-61,9],[-20,-31],[37,-32],[-23,-19],[-10,12],[-7,2],[-2,0],[0,-1],[26,-37],[-86,22],[-44,-73],[19,-30],[-54,12],[-36,-28],[-49,117]],[[28,1522],[37,65],[-19,76],[54,19],[97,181],[21,-24],[56,18],[12,-18],[2,-87],[-48,-40],[11,-17],[119,-9],[53,34],[-73,-159],[-35,-40],[3,19],[-4,1],[-1,-27],[-32,1],[50,-10],[5,-18],[-14,14],[-7,-9],[31,-28],[-127,-2],[-93,68],[-62,-42],[-36,34]],[[208,1499],[1,-5],[8,-9],[14,-8],[-1,-2],[8,-10],[-20,35],[-10,-1]],[[58,1566],[4,-8],[7,-2],[-4,8],[-7,2]],[[424,3745],[26,-6],[-24,21],[44,105],[149,-54],[93,-124],[4,-86],[19,-32],[55,-18],[-2,-29],[-52,-28],[-37,-66],[-28,-2],[-39,52],[-52,17],[-25,63],[10,48],[-131,90],[-10,49]],[[772,3630],[27,37],[-15,26],[60,81],[-3,43],[97,-22],[3,-50],[50,-59],[-54,-157],[-55,-21],[-85,35],[13,43],[-38,44]],[[602,0],[-26,0],[26,36],[17,-12],[-17,-24]],[[2318,107],[-47,62],[6,33],[21,-22],[20,-73]],[[1380,0],[-41,0],[52,83],[-4,-24],[-7,-59]],[[2382,12],[-73,47],[19,23],[49,-30],[5,-40]],[[3179,108],[11,-30],[-23,-42],[-73,35],[8,36],[54,18],[23,-17]],[[634,349],[-8,28],[25,15],[0,-36],[-17,-7]],[[2245,653],[48,-12],[16,-71],[33,12],[-9,-27],[-113,27],[-14,35],[39,36]],[[3337,297],[-39,17],[28,55],[11,-1],[0,-71]],[[4044,428],[41,-67],[-77,-40],[-73,23],[33,84],[24,-12],[65,47],[-13,-35]],[[3588,867],[32,-12],[-36,-69],[-29,33],[33,48]],[[344,879],[-33,-10],[-8,45],[49,1],[-8,-36]],[[326,756],[1,-20],[41,12],[-8,-59],[-111,29],[3,27],[84,51],[-10,-40]],[[1258,825],[15,-34],[-31,-7],[-17,-60],[-56,0],[-1,43],[41,29],[-4,22],[53,7]],[[1813,806],[-5,-30],[-33,55],[18,-1],[20,-24]],[[2407,806],[-25,13],[18,25],[23,-13],[-16,-25]],[[319,819],[-27,8],[-5,40],[27,-8],[5,-40]],[[1840,819],[-27,21],[3,39],[19,-20],[5,-40]],[[3418,617],[-33,36],[57,48],[8,-24],[-32,-60]],[[786,1027],[-26,14],[-4,40],[49,11],[15,37],[15,-25],[-49,-77]],[[1383,1216],[3,-30],[-23,13],[16,-59],[-57,-12],[-14,57],[22,-3],[28,49],[25,-15]],[[1670,1187],[-8,95],[24,0],[9,-71],[-25,-24]],[[2416,1386],[7,-32],[-13,-12],[-19,32],[25,12]],[[2045,1292],[-19,26],[31,10],[10,-10],[-22,-26]],[[3805,1257],[-31,-70],[-50,30],[38,75],[43,-35]],[[3132,1225],[-46,10],[24,59],[57,-35],[-35,-34]],[[815,1861],[38,-44],[-17,-25],[-88,-23],[0,60],[49,0],[18,32]],[[1609,1784],[-30,25],[14,45],[31,-28],[6,-33],[-21,-9]],[[2835,2018],[24,-23],[-8,-72],[-73,36],[20,70],[37,-11]],[[3223,1995],[25,-24],[-22,-29],[-51,76],[48,-23]],[[1544,1592],[17,-26],[-109,-58],[-8,83],[16,-12],[24,36],[60,-23]],[[2916,1460],[-32,60],[17,13],[14,-32],[1,-41]],[[973,1625],[42,-82],[-32,24],[-65,-24],[0,84],[55,-2]],[[3223,1532],[-40,35],[16,95],[49,-71],[-25,-59]],[[3804,1636],[-39,38],[27,44],[54,-20],[-42,-62]],[[417,2232],[-29,18],[4,42],[20,-18],[5,-42]],[[2787,2529],[-33,5],[-8,42],[37,-29],[4,-18]],[[3859,2255],[-13,1],[0,36],[33,-12],[-20,-25]],[[3084,2292],[-38,11],[20,66],[33,-52],[-15,-25]],[[824,2746],[-37,-32],[-47,17],[73,59],[11,-44]],[[2746,2778],[33,0],[-17,-47],[-48,-24],[-24,83],[56,12],[0,-24]],[[287,2849],[-32,18],[-8,54],[44,-14],[-4,-58]],[[991,3016],[-8,71],[22,0],[42,-36],[-56,-35]],[[3021,2861],[25,12],[8,-59],[-41,12],[-32,59],[32,12],[8,-36]],[[3976,2933],[7,-72],[-27,-34],[-35,4],[-14,65],[69,37]],[[3821,2611],[-23,46],[0,15],[40,-24],[-17,-37]],[[133,3550],[-8,59],[25,15],[40,-50],[-57,-24]],[[2553,3418],[-66,-34],[-36,48],[4,35],[40,36],[39,-4],[19,-81]],[[1533,3776],[-41,0],[24,42],[14,-7],[3,-35]],[[2980,3822],[-54,41],[-10,43],[94,-22],[3,-49],[-33,-13]],[[3854,3574],[-32,12],[-8,71],[24,0],[41,-59],[-25,-24]],[[1630,4062],[-22,-1],[-27,35],[70,0],[-21,-34]],[[1460,2173],[-17,31],[41,28],[1,-31],[-25,-28]],[[3716,2296],[41,-88],[-50,-47],[-87,83],[32,48],[64,4]],[[4000,275],[24,-2],[14,-62],[-111,-104],[24,48],[-27,47],[11,83],[65,-10]],[[55,156],[16,73],[60,54],[45,-7],[30,99],[22,-28],[-12,-10],[-1,-14],[5,-1],[109,64],[31,-12],[16,-53],[-60,-43],[2,-39],[27,-11],[-21,-19],[-66,-37],[-28,23],[-102,-20],[-58,-58],[-15,39]],[[1220,224],[17,53],[55,-18],[-46,19],[48,58],[53,-45],[34,7],[21,-49],[-4,-34],[-29,19],[-32,-45],[-27,27],[15,-29],[-105,37]],[[655,263],[52,17],[-26,30],[10,39],[90,-17],[44,39],[65,-20],[-1,-56],[41,-16],[-66,-24],[-22,-69],[-78,14],[-8,60],[-67,-39],[-34,42]],[[2068,342],[26,17],[-5,68],[56,29],[34,-57],[52,28],[-2,-21],[61,8],[28,-32],[-98,-2],[11,-17],[-33,-23],[13,-67],[59,-48],[-20,-28],[-63,21],[-31,-50],[-22,30],[-52,-6],[-8,30],[24,15],[-30,105]],[[1928,437],[67,87],[89,-62],[-72,-4],[-34,-74],[29,-32],[32,4],[-1,-37],[-40,9],[-17,-33],[-29,19],[-24,123]],[[1966,343],[5,-11],[21,8],[-17,8],[-9,-5]],[[1956,334],[10,0],[-3,11],[2,0],[1,2],[1,1],[-9,-8],[-2,-6]],[[2632,1313],[18,53],[102,-26],[-5,-52],[38,-68],[-56,18],[-19,71],[-78,4]],[[2182,1491],[14,46],[63,30],[27,-120],[-60,-51],[-44,95]],[[2354,1841],[86,13],[-33,-32],[24,-24],[15,-130],[-58,55],[2,23],[15,-12],[20,0],[-71,107]],[[2417,2019],[63,81],[33,4],[58,-27],[34,-43],[-23,-14],[43,-35],[-85,9],[80,-22],[-119,-85],[-38,19],[7,36],[-53,77]],[[2475,2038],[46,47],[21,-14],[-2,17],[-24,11],[-41,-61]],[[814,3050],[20,11],[53,-29],[6,9],[0,5],[62,3],[-21,-36],[0,-1],[14,7],[70,-32],[-24,-15],[-14,-46],[4,-9],[-14,-24],[-15,-48],[59,-59],[-43,-40],[-15,32],[-32,-8],[8,49],[-88,-6],[65,62],[-4,9],[-34,9],[-2,14],[-47,10],[0,29],[33,-3],[1,2],[-23,8],[37,55],[-1,8],[-55,34]],[[1240,3054],[76,3],[-18,42],[45,14],[35,-58],[-31,-35],[-89,-19],[-18,53]]]}