{"objects":{"water":{"type":"GeometryCollection","geometries":[]},"buildings":{"type":"GeometryCollection","geometries":[]},"places":{"type":"GeometryCollection","geometries":[{"type":"Point","properties":{"name:kg":"Repubilika ya Kongo Demokratiki","name:ka":"\u10d9\u10dd\u10dc\u10d2\u10dd - \u10d9\u10d8\u10dc\u10e8\u10d0\u10e1\u10d0","name:ko":"\ucf69\uace0\ubbfc\uc8fc\uacf5\ud654\uad6d","name:cv":"\u041a\u043e\u043d\u0433\u043e \u0414\u0435\u043c\u043e\u043a\u0440\u0430\u0442\u0438\u043b\u043b\u04d7 \u0420\u0435\u0441\u043f\u0443\u0431\u043b\u0438\u043a\u0438","name:km":"\u1780\u17bb\u1784\u17a0\u17d2\u1782\u17c4 [\u179f\u17b6\u1792\u17b6\u179a\u178e\u179a\u178a\u17d2\u178b\u200b\u1794\u17d2\u179a\u1787\u17b6\u1792\u17b7\u1794\u178f\u17c1\u1799\u17d2\u1799]","name:kl":"Kongo-Kinshasa","name:cs":"Demokratick\u00e1 republika Kongo","name:ki":"Jamhuri ya Kidemokrasia ya Kongo","name:kw":"Repoblek Werinel Kongo","name:tk":"Kongo Demokratik Respublikasy","name:ku":"Komara Demokrat\u00eek a Kongo","name:ti":"\u12ae\u1295\u130e","name:ks":"\u06a9\u0648\u0646\u065b\u06af\u0648 \u06a9\u0650\u0646\u0634\u0627\u0633\u0627","name:to":"Kongo [DRC]","name:tl":"Demokratikong Republika ng Konggo","name:ce":"\u0425\u0430\u043b\u043a\u044a\u0430 \u043a\u0443\u044c\u0439\u0433\u0430\u043b\u043b\u0438\u0439\u0446\u0430 \u0439\u043e\u043b\u0443 \u041f\u0430\u0447\u0445\u044c\u0430\u043b\u043a\u0445 \u041a\u043e\u043d\u0433\u043e","name:ta":"\u0b95\u0bbe\u0b99\u0bcd\u0b95\u0bcb [\u0b9f\u0bbf\u0b9a\u0bbf\u0b86\u0bb0\u0bcd]","name:ca":"Rep\u00fablica Democr\u00e0tica del Congo","name:te":"\u0c15\u0c3e\u0c02\u0c17\u0c4b[\u0c21\u0c3f \u0c06\u0c30\u0c4d \u0c38\u0c3f]","name:cy":"Gweriniaeth Ddemocrataidd Congo","name:hr":"Demokratska Republika Kongo","name:da":"Demokratiske Republik Congo","name:de":"Demokratische Republik Kongo","name:dz":"\u0f4c\u0f7a\u0f0b\u0f58\u0f7c\u0f0b\u0f40\u0f7a\u0f62\u0f7a\u0f0b\u0f4a\u0f72\u0f40\u0f0b \u0f62\u0f72\u0f0b\u0f54\u0f56\u0f0b\u0f63\u0f72\u0f40\u0f0b \u0f68\u0f7c\u0f55\u0f0b \u0f40\u0f7c\u0f44\u0f0b\u0f42\u0fb7\u0f7c","source":"openstreetmap.org","name:kn":"\u0c95\u0ccb\u0c82\u0c97\u0ccb [DRC]","name:dv":"\u0786\u07ae\u0782\u07b0\u078e\u07af (\u078b\u07a8\u0789\u07a8\u07a4\u07b0\u0783\u07a7\u07a0\u07a9 \u0796\u07aa\u0789\u07b0\u0780\u07ab\u0783\u07a8\u0787\u07b0\u0794\u07a7)","name:lv":"Kongo Demokr\u0101tisk\u0101 Republika","name:lt":"Kongo Demokratin\u0117 Respublika","name:uz":"Kongo Demokratik Respublikasi","name:kk":"\u041a\u043e\u043d\u0433\u043e \u0414\u0435\u043c\u043e\u043a\u0440\u0430\u0442\u0438\u044f\u043b\u044b\u049b \u0420\u0435\u0441\u043f\u0443\u0431\u043b\u0438\u043a\u0430\u0441\u044b","name:ur":"\u06a9\u0627\u0646\u06af\u0648 [DRC]","name:lb":"Demokratesch Republik Kongo","name:la":"Respublica Popularis Congensis","name:lg":"Kongo - Zayire","name:uk":"\u0414\u0435\u043c\u043e\u043a\u0440\u0430\u0442\u0438\u0447\u043d\u0430 \u0420\u0435\u0441\u043f\u0443\u0431\u043b\u0456\u043a\u0430 \u041a\u043e\u043d\u0433\u043e","name:ug":"\u0643\u0648\u0646\u06af\u0648 \u062f\u06d0\u0645\u0648\u0643\u0631\u0627\u062a\u0649\u0643 \u062c\u06c7\u0645\u06be\u06c7\u0631\u0649\u064a\u0649\u062a\u0649","name:li":"Democratische Rippebliek vaan de Kongo","name:ln":"Republiki ya Kong\u00f3 Demokratiki","name:lo":"\u0e81\u0ead\u0e87\u0ec2\u0e81[\u0eaa\u0eb2\u0e97\u0eb2\u0ea5\u0eb0\u0e99\u0eb0\u0ea5\u0eb1\u0e94\u0e9b\u0eb0\u0e8a\u0eb2\u0e97\u0eb4\u0e9b\u0eb0\u0ec4\u0e95]","name:el":"\u039b\u03b1\u03ca\u03ba\u03ae \u0394\u03b7\u03bc\u03bf\u03ba\u03c1\u03b1\u03c4\u03af\u03b1 \u03c4\u03bf\u03c5 \u039a\u03bf\u03bd\u03b3\u03ba\u03cc","name:eo":"Demokratia Respubliko Kongo","name:en":"Democratic Republic of the Congo","name":"R\u00e9publique d\u00e9mocratique du Congo","name:ee":"Kongo demokratik rep\u0254blik nutome","name:th":"\u0e2a\u0e32\u0e18\u0e32\u0e23\u0e13\u0e23\u0e31\u0e10\u0e1b\u0e23\u0e30\u0e0a\u0e32\u0e18\u0e34\u0e1b\u0e44\u0e15\u0e22\u0e04\u0e2d\u0e07\u0e42\u0e01","name:eu":"Kongoko Errepublika Demokratikoa","name:et":"Kongo Demokraatlik Vabariik","name:es":"Rep\u00fablica Democr\u00e1tica del Congo","name:ia":"Republica Democratic del Congo","name:rm":"Republica Democratica dal Congo","name:rn":"Repubulika Iharanira Demokarasi ya Kongo","name:az":"Konqo - Kin\u015fasa","name:ie":"Democratic Republic de Congo","name:id":"Republik Demokratik Kongo","name:ar":"\u0627\u0644\u0643\u0648\u0646\u063a\u0648","name:io":"Demokratial Republiko Kongo","name:ak":"Kongo (Zair)","name:am":"\u12ae\u1295\u130e (\u12e8\u12f2\u121e\u12ad\u122b\u1272\u12ad \u122a\u1350\u1265\u120a\u12ad \u12ae\u1295\u130e)","name:it":"Repubblica Democratica del Congo","name:an":"Republica Democratica d'o Congo","name:ru":"\u0414\u0435\u043c\u043e\u043a\u0440\u0430\u0442\u0438\u0447\u0435\u0441\u043a\u0430\u044f \u0420\u0435\u0441\u043f\u0443\u0431\u043b\u0438\u043a\u0430 \u041a\u043e\u043d\u0433\u043e","name:rw":"Repubulika Iharanira Demokarasi ya Kongo","name:af":"Demokratiese Republiek van die Kongo","name:zu":"e-Congo [DRC]","name:za":"Ganggoj Minzcuj Gunghozgoz","name:zh-yue":"\u525b\u679c\u6c11\u4e3b\u5171\u548c\u570b","old_name:cs":"Zair","name:zh":"\u521a\u679c\u6c11\u4e3b\u5171\u548c\u56fd","name:so":"Jamhuuriyadda Dimuquraadiga Kongo","name:sn":"Democratic Republic of the Congo","name:sl":"Demokrati\u010dna republika Kongo","name:sk":"Demokratick\u00e1 republika Kongo","name:ja":"\u30b3\u30f3\u30b4\u6c11\u4e3b\u5171\u548c\u56fd","name:si":"\u0d9a\u0ddc\u0db1\u0dca\u0d9c\u0ddd\u0dc0","name:sh":"Demokratska Republika Kongo","name:sg":"K\u00f6d\u00f6r\u00f6s\u00ease t\u00ee Ngunuhal\u00ebzo t\u00ee kong\u00f6","name:se":"Kongo-Kinshasa","name:sc":"Rep\u00f9brica Democr\u00e0tiga de su Congo","name:br":"Republik Demokratel Kongo","name:bs":"Kongo [DRC]","name:bm":"Kongo ka republiki dem\u0254kratiki","name:bn":"\u0995\u0999\u09cd\u0997\u09cb[DRC]","name:bo":"\u0f40\u0f7c\u0f44\u0f0b\u0f42\u0f7c\u0f0b\u0f58\u0f72\u0f0b\u0f51\u0f58\u0f44\u0f66\u0f0b\u0f51\u0f58\u0f44\u0f66\u0f0b\u0f42\u0f59\u0f7c\u0f0d","name:sw":"Jamhuri ya Kidemokrasia ya Kongo","name:be":"\u0414\u044d\u043c\u0430\u043a\u0440\u0430\u0442\u044b\u0447\u043d\u0430\u044f \u0420\u044d\u0441\u043f\u0443\u0431\u043b\u0456\u043a\u0430 \u041a\u043e\u043d\u0433\u0430","name:su":"R\u00e9publik D\u00e9mokratik Kongo","name:bg":"\u041a\u043e\u043d\u0433\u043e [\u0414\u0420\u041a]","name:ss":"IKhongo","name:sr":"\u0414\u0435\u043c\u043e\u043a\u0440\u0430\u0442\u0441\u043a\u0430 \u0420\u0435\u043f\u0443\u0431\u043b\u0438\u043a\u0430 \u041a\u043e\u043d\u0433\u043e","name:sq":"Republika Demokratike e Kongos","name:jv":"Republik Dh\u00e9mokratis Kongo","name:pt":"Rep\u00fablica Democr\u00e1tica do Congo","name:mt":"Democratic Republic of the Congo","name:oc":"Republica Democratica de C\u00f2ngo","min_zoom":2.0,"name:ro":"Republica Democrat\u0103 Congo","name:zh-min-nan":"Congo B\u00een-ch\u00fa Ki\u014dng-h\u00f4-kok","name:os":"\u041a\u043e\u043d\u0433\u043e\u0439\u044b \u0414\u0435\u043c\u043e\u043a\u0440\u0430\u0442\u043e\u043d \u0420\u0435\u0441\u043f\u0443\u0431\u043b\u0438\u043a\u00e6","name:or":"\u0b15\u0b19\u0b4d\u0b17\u0b4b-\u0b15\u0b3f\u0b28\u0b38\u0b3e\u0b38\u0b3e","name:pl":"Demokratyczna Republika Konga","name:pa":"\u0a15\u0a3e\u0a02\u0a17\u0a4b \u0a32\u0a4b\u0a15\u0a24\u0a70\u0a24\u0a30\u0a40 \u0a17\u0a23\u0a30\u0a3e\u0a1c","name:tr":"Demokratik Kongo Cumhuriyeti","name:hi":"\u0915\u094b\u0902\u0917\u094b [\u0921\u0940\u0906\u0930\u0938\u0940]","old_name:es":"Zaire","name:sv":"Demokratiska republiken Kongo","name:he":"\u05e7\u05d5\u05e0\u05d2\u05d5 [\u05d4\u05e8\u05e4\u05d5\u05d1\u05dc\u05d9\u05e7\u05d4 \u05d4\u05d3\u05de\u05d5\u05e7\u05e8\u05d8\u05d9\u05ea \u05e9\u05dc \u05e7\u05d5\u05e0\u05d2\u05d5]","name:ha":"Jamhuriyar Dimokura\u0257iyyar Kongo","old_name:eo":"Zairo","old_name":"Congo Free State;Belgian Congo;Congo-L\u00e9opoldville;Congo-Kinshasa;Zaire","name:ht":"Kongo (Kinchasa)","name:hu":"Kong\u00f3i Demokratikus K\u00f6zt\u00e1rsas\u00e1g","name:qu":"Kungu Runakamaq Republika","population":68692542,"kind":"country","name:ts":"Democratic Republic of the Congo","name:is":"Vestur-Kong\u00f3","name:yi":"\u05d3\u05e2\u05de\u05d0\u05e7\u05e8\u05d0\u05d8\u05d9\u05e9\u05e2 \u05e8\u05e2\u05e4\u05d5\u05d1\u05dc\u05d9\u05e7 \u05e4\u05d5\u05df \u05e7\u05d0\u05e0\u05d2\u05d0","name:yo":"Oril\u1eb9\u0301\u00e8de K\u00f3ng\u00f2","old_name:fr":"Za\u00efre;Congo Belge;Congo-L\u00e9opoldville","alt_name:el":"\u039b\u03b1\u03ca\u03ba\u03ae \u0394\u03b7\u03bc\u03bf\u03ba\u03c1\u03b1\u03c4\u03af\u03b1 \u03c4\u03bf\u03c5 \u039a\u03bf\u03b3\u03ba\u03cc","alt_name:eo":"Kongo Kin\u015dasa","name:ms":"Congo [DRC]","name:mr":"\u0915\u093e\u0901\u0917\u094b [\u0919\u0940\u0906\u0930\u0938\u0940]","name:my":"\u1000\u103d\u1014\u103a\u1002\u102d\u102f\u1012\u102e\u1019\u102d\u102f\u1000\u101b\u1000\u103a\u1010\u1005\u103a\u101e\u1019\u1039\u1019\u1010\u1014\u102d\u102f\u1004\u103a\u1004\u1036","int_name":"R\u00e9publique D\u00e9mocratique du Congo","name:mg":"Repoblikan'i Kongo","name:ml":"\u0d15\u0d4b\u0d02\u0d17\u0d4b [DRC]","name:vi":"C\u1ed9ng ho\u00e0 D\u00e2n ch\u1ee7 Congo","name:mn":"\u0411\u04af\u0433\u0434 \u041d\u0430\u0439\u0440\u0430\u043c\u0434\u0430\u0445 \u0410\u0440\u0434\u0447\u0438\u043b\u0441\u0430\u043d \u041a\u043e\u043d\u0433\u043e","id":435981993,"name:mk":"\u041a\u043e\u043d\u0433\u043e [\u0414\u0435\u043c\u043e\u043a\u0440\u0430\u0442\u0441\u043a\u0430 \u0420\u0435\u043f\u0443\u0431\u043b\u0438\u043a\u0430 \u041a\u043e\u043d\u0433\u043e]","name:vo":"Kongo\u00e4n (Rep\u00fcblik\u00e4n Demokratik)","name:fa":"\u062c\u0645\u0647\u0648\u0631\u06cc \u062f\u0645\u0648\u06a9\u0631\u0627\u062a\u06cc\u06a9 \u06a9\u0646\u06af\u0648","name:ff":"Ndenndaandi Demokaraasiire Konngo","name:fi":"Kongon demokraattinen tasavalta","name:fo":"Kongo-Kinshasa","name:fy":"Demokratyske Republyk de Kongo","name:hy":"\u053f\u0578\u0576\u0563\u0578\u0575\u056b \u0534\u0565\u0574\u0578\u056f\u0580\u0561\u057f\u0561\u056f\u0561\u0576 \u0540\u0561\u0576\u0580\u0561\u057a\u0565\u057f\u0578\u0582\u0569\u0575\u0578\u0582\u0576","name:nl":"Democratische Republiek Congo","name:nn":"Kongo-Kinshasa","name:no":"Den demokratiske republikken Kongo","name:na":"Ripubrikit Engame Kongo","name:ne":"\u0915\u0919\u094d\u0917\u094b [\u0921\u0940\u0906\u0930\u094d\u200c\u0938\u0940]","name:wa":"Republike democratike do Congo","name:wo":"Kong\u00f3o-Kinshasa","name:nv":"K\u00e9yah K\u00e1ango Sh\u00e1di\u02bc\u00e1\u00e1hj\u00ed Si\u02bc\u00e1n\u00edg\u00ed\u00ed","name:ga":"Poblacht Dhaonlathach an Chong\u00f3","name:gd":"Poblachd Dheamocrach na Congo","name:gn":"Tet\u00e3 Jekopytyjoja Kongo","name:gl":"Congo [Rep\u00fablica Democr\u00e1tica do]","name:gv":"Pobblaght Gheynlagh ny Congo","name:gu":"\u0a95\u0acb\u0a82\u0a97\u0acb [\u0aa1\u0ac0\u0a86\u0ab0\u0ab8\u0ac0]","name:tt":"\u041a\u043e\u043d\u0433\u043e \u0414\u0435\u043c\u043e\u043a\u0440\u0430\u0442\u0438\u043a \u0496\u04e9\u043c\u04bb\u04af\u0440\u0438\u044f\u0442\u0435"},"coordinates":[963,1922]},{"type":"Point","properties":{"admin_level":"4","kind":"region","name":"Sankuru","source":"openstreetmap.org","kind_detail":"state","min_zoom":4.0,"id":4346293823},"coordinates":[790,1538]},{"type":"Point","properties":{"admin_level":"4","kind":"region","name":"Maniema","source":"openstreetmap.org","kind_detail":"state","min_zoom":4.0,"id":4346304802},"coordinates":[2522,1936]},{"type":"Point","properties":{"admin_level":"4","kind":"region","name:en":"South Kivu","name":"Sud-Kivu","kind_detail":"state","name:de":"S\u00fcdkivu","source":"openstreetmap.org","min_zoom":4.0,"id":4346319745},"coordinates":[3911,1714]},{"type":"Point","properties":{"source":"naturalearthdata.com","kind":"locality","name":"Kasongo","population":63000,"min_zoom":5.0,"id":6556},"coordinates":[3029,850]},{"type":"Point","properties":{"source":"naturalearthdata.com","kind":"locality","name":"Kindu","population":262914,"min_zoom":6.0,"id":5892},"coordinates":[2483,1934]}]},"transit":{"type":"GeometryCollection","geometries":[{"type":"MultiLineString","properties":{"osm_relation":true,"source":"openstreetmap.org","kind":"train","network":"Katanga","sort_rank":275,"min_zoom":6.0,"operator":"SNCC"},"arcs":[[106],[107],[108]]},{"type":"LineString","properties":{"source":"openstreetmap.org","kind":"train","name":"Kabalo - Kindu","sort_rank":275,"min_zoom":6.0,"osm_relation":true},"arcs":[109]},{"type":"MultiLineString","properties":{"osm_relation":true,"source":"openstreetmap.org","kind":"train","name":"Kisangani-Ubundu","sort_rank":275,"min_zoom":6.0,"operator":"SNCC"},"arcs":[[110],[111],[112]]},{"type":"MultiLineString","properties":{"sort_rank":275,"source":"openstreetmap.org","min_zoom":6.0,"kind":"train","osm_relation":true},"arcs":[[113],[114]]}]},"pois":{"type":"GeometryCollection","geometries":[]},"boundaries":{"type":"GeometryCollection","geometries":[{"type":"MultiLineString","properties":{"source":"naturalearthdata.com","kind":"region","sort_rank":256,"kind_detail":"4","min_zoom":5.5,"id":4405},"arcs":[[0],[1],[2],[3],[4],[5],[6]]},{"type":"LineString","properties":{"source":"naturalearthdata.com","kind":"region","sort_rank":256,"kind_detail":"4","min_zoom":5.5,"id":4406},"arcs":[7]},{"type":"MultiLineString","properties":{"source":"naturalearthdata.com","kind":"region","sort_rank":256,"kind_detail":"4","min_zoom":5.5,"id":4410},"arcs":[[8],[9],[10]]},{"type":"LineString","properties":{"source":"naturalearthdata.com","kind":"region","sort_rank":256,"kind_detail":"4","min_zoom":5.5,"id":4415},"arcs":[11]},{"type":"MultiLineString","properties":{"source":"naturalearthdata.com","kind":"region","sort_rank":256,"kind_detail":"4","min_zoom":5.5,"id":4399},"arcs":[[12],[13],[14],[15],[16],[17],[18],[19],[20],[21],[22],[23]]},{"type":"MultiLineString","properties":{"source":"naturalearthdata.com","kind":"region","sort_rank":256,"kind_detail":"4","min_zoom":5.5,"id":4400},"arcs":[[24],[25],[26],[27],[28],[29],[30],[31],[32],[33],[34],[35],[36],[37],[38],[39],[40],[41],[42]]},{"type":"MultiLineString","properties":{"source":"naturalearthdata.com","kind":"region","sort_rank":256,"kind_detail":"4","min_zoom":5.5,"id":4404},"arcs":[[43],[44],[45],[46],[47],[48],[49],[50],[51],[52],[53],[54],[55]]},{"type":"MultiLineString","properties":{"source":"naturalearthdata.com","kind":"region","sort_rank":256,"kind_detail":"4","min_zoom":5.5,"id":4407},"arcs":[[56],[57],[58],[59],[60],[61],[62],[63],[64],[65],[66],[67],[68],[69],[70],[71],[72],[73],[74],[75],[76],[77],[78],[79],[80],[81],[82]]},{"type":"LineString","properties":{"source":"naturalearthdata.com","kind":"region","sort_rank":256,"kind_detail":"4","min_zoom":5.5,"id":4408},"arcs":[83]},{"type":"MultiLineString","properties":{"source":"naturalearthdata.com","kind":"region","sort_rank":256,"kind_detail":"4","min_zoom":5.5,"id":4409},"arcs":[[84],[85],[86],[87],[88],[89],[90],[91],[92],[93],[94],[95],[96],[97],[98],[99]]},{"type":"MultiLineString","properties":{"source":"naturalearthdata.com","kind":"region","sort_rank":256,"kind_detail":"4","min_zoom":5.5,"id":4412},"arcs":[[100],[101],[102],[103],[104]]},{"type":"LineString","properties":{"source":"naturalearthdata.com","kind":"region","sort_rank":256,"kind_detail":"4","min_zoom":5.5,"id":4414},"arcs":[105]}]},"roads":{"type":"GeometryCollection","geometries":[{"type":"LineString","properties":{"source":"naturalearthdata.com","kind":"major_road","sort_rank":379,"kind_detail":"secondary","min_zoom":4.0,"id":41696},"arcs":[115]},{"type":"LineString","properties":{"source":"naturalearthdata.com","kind":"major_road","sort_rank":379,"kind_detail":"secondary","min_zoom":4.0,"id":41783},"arcs":[116]},{"type":"LineString","properties":{"source":"naturalearthdata.com","kind":"major_road","sort_rank":379,"kind_detail":"secondary","min_zoom":4.0,"id":41860},"arcs":[117]},{"type":"LineString","properties":{"source":"naturalearthdata.com","kind":"major_road","sort_rank":379,"kind_detail":"secondary","min_zoom":4.0,"id":41884},"arcs":[118]},{"type":"LineString","properties":{"source":"naturalearthdata.com","kind":"major_road","sort_rank":379,"kind_detail":"secondary","min_zoom":4.0,"id":41910},"arcs":[119]},{"type":"LineString","properties":{"source":"naturalearthdata.com","kind":"major_road","sort_rank":379,"kind_detail":"secondary","min_zoom":4.0,"id":41952},"arcs":[120]},{"type":"LineString","properties":{"source":"naturalearthdata.com","kind":"major_road","sort_rank":379,"kind_detail":"secondary","min_zoom":4.0,"id":42177},"arcs":[121]},{"type":"LineString","properties":{"source":"naturalearthdata.com","kind":"major_road","sort_rank":379,"kind_detail":"secondary","min_zoom":4.0,"id":42215},"arcs":[122]},{"type":"LineString","properties":{"source":"naturalearthdata.com","kind":"major_road","sort_rank":379,"kind_detail":"secondary","min_zoom":4.0,"id":42234},"arcs":[123]},{"type":"LineString","properties":{"source":"naturalearthdata.com","kind":"major_road","sort_rank":379,"kind_detail":"secondary","min_zoom":3.0,"id":42462},"arcs":[124]},{"type":"LineString","properties":{"source":"naturalearthdata.com","kind":"major_road","sort_rank":379,"kind_detail":"secondary","min_zoom":4.0,"id":42463},"arcs":[125]},{"type":"LineString","properties":{"source":"naturalearthdata.com","kind":"major_road","sort_rank":379,"kind_detail":"secondary","min_zoom":3.0,"id":42589},"arcs":[126]},{"type":"LineString","properties":{"source":"naturalearthdata.com","kind":"major_road","sort_rank":379,"kind_detail":"secondary","min_zoom":3.0,"id":42745},"arcs":[127]},{"type":"LineString","properties":{"source":"naturalearthdata.com","kind":"major_road","sort_rank":379,"kind_detail":"secondary","min_zoom":3.0,"id":42767},"arcs":[128]},{"type":"LineString","properties":{"source":"naturalearthdata.com","kind":"major_road","sort_rank":379,"kind_detail":"secondary","min_zoom":4.0,"id":42818},"arcs":[129]},{"type":"LineString","properties":{"source":"naturalearthdata.com","kind":"major_road","sort_rank":379,"kind_detail":"secondary","min_zoom":3.0,"id":42867},"arcs":[130]},{"type":"LineString","properties":{"source":"naturalearthdata.com","kind":"major_road","sort_rank":379,"kind_detail":"secondary","min_zoom":4.0,"id":42879},"arcs":[131]}]},"earth":{"type":"GeometryCollection","geometries":[{"type":"Polygon","properties":{"sort_rank":10,"source":"naturalearthdata.com","min_zoom":0.0,"kind":"earth","area":1568366174169},"arcs":[[132]]}]},"landuse":{"type":"GeometryCollection","geometries":[{"type":"MultiPolygon","properties":{"source":"naturalearthdata.com","kind":"urban_area","name":"","area":1814945277,"sort_rank":11,"min_zoom":4.0},"arcs":[[[133]],[[134]]]},{"type":"MultiPolygon","properties":{"kind":"protected_area","area":16323900416,"sort_rank":17,"source":"openstreetmap.org","min_zoom":4.0,"tier":2,"id":-401019,"osm_relation":true},"arcs":[[[135]]]},{"type":"MultiPolygon","properties":{"source":"openstreetmap.org","kind":"park","tier":2,"area":73481161010,"sort_rank":24,"min_zoom":4.0,"osm_relation":true},"arcs":[[[136]],[[137]],[[138]],[[139]]]}]}},"type":"Topology","transform":{"translate":[22.5,-5.6159858192],"scale":[0.001373291,0.0013710903]},"arcs":[[[568,3866],[10,1],[8,5],[7,7],[7,8],[8,6],[9,4],[18,3],[8,3],[9,4],[7,8],[3,12],[-2,12],[-7,19],[-93,138]],[[477,3893],[9,0],[17,-5],[45,-18],[10,-3],[10,-1]],[[569,3737],[-11,1],[-12,6],[-8,10],[-15,25],[-9,6],[-10,3],[-145,10],[-6,1],[-4,3],[4,5],[78,66],[19,13],[9,4],[8,3],[10,0]],[[1195,3083],[-17,2],[-18,4],[-17,6],[-62,34],[-108,89],[-9,5],[-33,14],[-8,8],[-5,8],[-11,30],[-10,17],[-9,9],[-10,7],[-38,24],[-62,27],[-118,98],[-17,21],[-11,16],[-1,11],[4,9],[89,68],[12,5],[37,11],[20,3],[9,4],[8,5],[6,6],[2,8],[-4,8],[-31,28],[-69,90],[-14,13],[-12,6]],[[688,3777],[-8,-2],[-101,-36],[-10,-2]],[[1399,2793],[-23,141],[-13,46],[-6,12],[-17,29],[-26,53],[-8,9],[-10,4],[-9,1]],[[1287,3088],[-92,-5]],[[1399,2793],[8,-22],[13,-89]],[[4051,2592],[16,4],[29,14]],[[3901,2664],[13,-4],[11,-8],[23,-28],[11,-10],[17,-11],[15,-6],[12,-2],[48,-3]],[[3830,2637],[39,21],[15,4],[17,2]],[[2745,449],[1351,0]],[[1399,2793],[-246,29]],[[1153,2822],[-32,-1],[-20,-4],[-10,-6],[-9,-2],[-42,-2]],[[1040,2807],[-32,2]],[[1008,2809],[-25,-1],[-16,-2],[-11,-5],[-8,-6],[-7,-8],[-5,-9],[-2,-9],[0,-47],[-6,-9],[-12,-11],[-29,-14],[-12,-15],[-6,-11],[0,-26],[-1,-4],[-2,-6],[-8,-2],[-9,0]],[[319,2667],[-3,1],[-18,32],[-2,3],[-3,2],[-23,17],[-17,8],[-8,3],[-3,1],[-5,5],[-4,1],[-3,2],[-5,0],[-28,2],[-5,1],[-3,1],[-3,2],[-3,3],[-6,4],[-24,11],[-13,9],[-7,2],[-4,1]],[[129,2778],[-3,0],[-3,-1],[-7,-1],[-10,-3]],[[106,2773],[-3,0],[-4,2],[-3,2]],[[96,2777],[-5,0],[-13,-14],[-43,-71],[-8,-10],[-8,-6],[-12,-7],[-7,-1]],[[527,2580],[-9,4],[-8,7],[-27,46],[-7,10],[-14,16],[-9,7],[-9,6],[-9,5],[-11,3],[-14,2],[-23,2]],[[387,2688],[-14,-1],[-8,-1],[-42,-18],[-4,-1]],[[849,2624],[-53,8],[-18,1]],[[778,2633],[-19,0],[-203,-40],[-8,-5],[-9,-4],[-12,-4]],[[1420,2682],[9,-55],[12,-44],[11,-25],[66,-90],[70,-130],[18,-26],[14,-13],[12,-3]],[[1882,2311],[11,0],[-1,-4],[-5,-61],[-7,-22],[-3,-15],[2,-13],[4,-13],[4,-49],[3,-15],[10,-33],[1,-13],[-3,-12],[-26,-59],[-5,-30],[-22,-33],[-7,-16],[-3,-14],[-1,-27],[3,-4],[5,-4],[4,-6],[-1,-9],[-6,-5]],[[1632,2296],[250,15]],[[1839,1854],[-5,3],[-5,6],[-4,1]],[[1825,1864],[-6,-7],[2,-6],[6,-5],[5,-2],[1,-3],[-6,-14],[0,-5],[3,-12],[-4,-15],[-16,-31],[-14,-12],[-2,-5],[-2,-25],[-9,-7],[-9,0]],[[1774,1715],[-9,1]],[[1765,1716],[-11,-2],[-6,-4],[-1,-4],[2,-3],[0,-4],[3,-48],[-5,-7],[-16,-3],[-9,-8],[-12,-24],[-3,-2]],[[1707,1607],[-3,1]],[[1704,1608],[-3,-1],[-1,-5],[0,-9],[-1,-3],[-2,-4],[-5,-4],[-5,-2],[-5,-1],[-9,0],[-13,-5],[2,-12],[13,-22],[1,-8],[0,-8],[-3,-7],[-5,-3],[-10,0],[-3,-3],[0,-5],[1,-22],[11,-46],[2,-3],[1,-3],[2,-24],[-2,-4],[-7,-7],[-11,-14],[-16,-27],[-11,-7],[9,-23],[7,-7],[14,-5],[-2,-3],[-2,-2],[-2,-3],[-4,-2],[7,-3],[8,-2]],[[1677,1299],[8,-3],[-1,-7],[-6,-5]],[[1660,1299],[17,0]],[[1678,1284],[-3,0]],[[1675,1284],[3,-11],[6,-12],[16,-22]],[[1710,1249],[7,-19],[3,-6],[21,-17],[4,-5],[0,-30],[19,-19],[5,-4]],[[1700,1239],[2,3],[5,5],[3,2]],[[1784,1159],[5,-1],[2,-3],[9,-16],[6,-28],[6,-6],[6,-3],[0,-6],[-3,-11]],[[1769,1149],[3,1],[8,8],[4,1]],[[1815,1085],[-2,0]],[[1813,1085],[-1,-2],[-2,-4],[0,-4],[1,-4],[6,-3],[6,-7],[4,-5],[1,-5],[-6,-9],[-3,-6],[-1,-8],[1,-16],[2,-7],[7,-11],[1,-9],[-1,-10],[-5,-6],[-5,-7],[-3,-7],[-13,-61],[7,-5],[8,-11],[12,-24],[-6,-10],[-29,-25],[-27,-38],[0,-7],[-11,-4],[-14,-10],[-12,-14],[-7,-18],[-7,-14],[-2,-9],[3,-8],[5,-6],[2,-5],[-4,-6],[4,-4],[8,-5],[3,-1],[15,-39],[7,-6],[5,-2],[13,-13],[19,-10],[4,-7],[5,-14],[4,-7],[15,-11],[3,-4],[1,-16],[5,-16],[32,-67],[14,-4],[19,-3],[849,-2]],[[3753,3418],[12,2],[11,4],[47,27],[9,7],[5,11],[7,36],[20,48],[7,35],[4,10],[-3,15],[-4,12],[-59,57]],[[3645,3437],[2,-1],[3,-2],[3,-7],[2,-3],[4,-1],[3,-1],[4,-1],[2,-2],[2,-3],[2,-1],[2,-2],[4,-1],[4,0]],[[3617,3428],[4,0],[5,1],[14,7],[2,1],[3,0]],[[3604,3429],[5,0],[8,-1]],[[3557,3402],[5,1],[5,2],[27,21],[3,1],[4,2],[3,0]],[[3717,3418],[36,0]],[[3682,3412],[4,0],[11,4],[4,1],[12,0],[4,1]],[[3533,3407],[4,0],[12,-4],[8,-1]],[[3508,3226],[4,0],[4,1],[3,3],[1,9],[0,5],[-1,4],[-1,4],[-2,3],[-5,4],[-6,5],[-14,8],[-2,1],[-2,3],[-1,3],[0,5],[0,6],[0,4],[-2,3],[-4,6],[-2,3],[-3,3],[-3,2],[-3,1],[-3,2],[-1,4],[1,4],[5,14],[1,6],[-1,24],[1,5],[2,4],[5,4],[11,6],[6,2],[6,2],[5,2],[5,4],[10,7],[6,3],[5,2]],[[3461,3239],[4,0],[4,-2],[3,-1],[3,-2],[2,-3],[3,-1]],[[3830,2637],[-24,40],[-3,8],[-3,15],[-1,55],[-5,23],[-11,12],[-25,16],[-11,11],[-29,37],[-52,39],[-11,12],[-16,21],[-34,59],[-152,175],[-19,29],[-5,13],[-2,10],[1,6],[3,2],[4,1],[4,1],[3,2],[12,11],[4,3],[3,1]],[[3493,3234],[3,-1],[3,-2],[3,-2],[3,-2],[3,-1]],[[3480,3230],[4,0],[6,2],[3,2]],[[2667,4030],[4,0],[3,-1],[3,-2],[2,-3],[3,-2],[7,-2],[2,-3],[2,-3],[1,-3],[3,-3],[3,-2],[7,-3],[8,-2],[3,-2],[15,-14],[6,-4],[3,-2],[2,-3],[1,-3],[3,-7],[3,-3],[2,-2]],[[2543,3009],[5,0],[4,1],[2,2],[5,5],[2,3],[1,4],[1,8],[2,4],[7,9],[2,4],[1,4],[-2,4],[-6,13],[2,5],[5,7],[16,10],[6,6],[3,5],[1,14],[4,15],[0,3],[-1,4],[-3,7],[-1,4],[0,4],[1,4],[6,5],[10,7],[16,6],[6,5],[3,4],[-1,4],[-1,4],[-1,3],[1,4],[3,3],[5,1],[2,4],[1,3],[-1,23],[1,9],[3,10],[8,13],[3,9],[-3,8],[-5,8],[-4,8],[-2,8],[5,62],[4,14],[4,8],[11,11],[56,31],[18,12],[10,11],[3,9],[0,10],[0,10],[-21,148],[1,9],[2,9],[5,9],[6,9],[8,8],[64,57],[10,13],[6,12],[0,9],[-2,9],[-5,9],[-5,9],[-15,16],[-78,54],[-32,35],[-35,32],[-37,26],[-3,11],[0,16],[18,29],[7,11],[8,5],[4,0]],[[2765,3961],[4,-1],[3,-2],[2,-2],[2,-3],[2,-3],[11,-30],[2,-2],[3,-2],[6,0],[3,-1],[3,-2],[5,-10],[18,-17],[3,-1],[4,-2],[13,-2],[3,-1],[3,-2],[2,-3],[2,-4],[4,-16],[1,-4],[2,-3],[10,-15],[3,-2],[2,-2],[4,-2],[3,-1],[5,-1],[4,0]],[[2753,3961],[12,0]],[[3165,3949],[4,-1],[3,-2],[7,-7],[9,-7],[4,-1],[5,-1]],[[3141,3907],[5,0],[6,2],[4,3],[3,3],[1,4],[-1,3],[-1,4],[-4,6],[-1,4],[1,5],[4,5],[3,3],[4,0]],[[3205,3931],[5,0],[3,-2],[11,-10],[6,-4],[12,-7],[8,-2],[4,-1]],[[3197,3930],[8,1]],[[3126,3912],[4,-1],[6,-3],[5,-1]],[[2953,3829],[7,2],[9,3],[17,10],[8,6],[7,6],[7,8],[4,4],[4,2],[4,2],[4,1],[33,2],[8,3],[49,30],[8,4],[4,0]],[[3271,3906],[3,-1],[2,-1],[2,-1],[7,-8],[5,-5],[3,-2],[3,-1],[7,-3],[6,-4],[6,-4],[3,-2],[4,-6],[2,-3],[0,-4],[-1,-7],[0,-4],[1,-3],[4,-7],[4,-5],[11,-10],[3,-2],[11,-4],[3,-2],[2,-3],[4,-10],[2,-3],[3,-3],[3,-2],[7,-3],[4,-1],[3,-1],[9,-6],[11,-4],[32,-6],[50,-4],[19,-7],[3,-1],[12,-8],[2,-3],[3,-7],[2,-3],[2,-3],[6,-4],[2,-2],[2,-1],[1,-1],[9,-1]],[[3254,3905],[17,1]],[[2945,3830],[8,-1]],[[2897,3825],[9,1],[13,3],[26,1]],[[3618,3747],[4,-1],[4,0],[4,-2],[3,-2],[2,-2],[2,-3],[5,-11],[2,-3],[2,-3],[3,-2],[3,-1],[4,-1]],[[3553,3730],[19,3],[42,14],[4,0]],[[3687,3719],[14,-1],[9,-2],[54,-23],[32,-10],[13,-1]],[[3656,3716],[31,3]],[[2446,3081],[2,-1],[7,-8],[13,-12],[2,-3],[5,-10],[2,-3],[2,-3],[5,-5],[3,-2],[11,-5],[2,-2],[1,-3],[-1,-3],[0,-3],[2,-3],[3,-2],[4,0],[5,0],[4,-1],[9,-2],[6,-1],[10,0]],[[2325,2729],[14,0],[40,10],[22,1],[9,3],[3,4],[15,23],[6,14],[1,15],[-1,47],[2,16],[10,31],[3,16],[0,16],[-5,32],[0,93],[3,26],[-1,5]],[[2259,2749],[13,-3],[34,-13],[19,-4]],[[1958,2556],[32,2],[21,2],[18,5],[17,6],[8,5],[8,7],[118,130],[22,18],[12,7],[13,5],[19,5],[13,1]],[[1809,2684],[15,0],[6,-3],[-1,-5],[3,-2],[19,-11],[19,-14],[2,-5],[2,-7],[0,-16],[-2,-8],[-10,-15],[-3,-7],[2,-9],[6,-5],[13,-8],[7,-2]],[[1701,2669],[38,8],[70,7]],[[1420,2682],[281,-13]],[[1890,2568],[2,-1],[10,-4],[20,-4],[36,-3]],[[1887,2567],[3,1]],[[3809,3682],[39,23],[23,18],[41,43],[16,26],[18,34],[15,22],[12,11],[10,7],[29,10],[11,5],[40,27],[11,11],[8,10],[6,17],[4,17],[2,16],[-1,4],[-6,19],[-2,8],[-1,18],[-1,5],[-5,15],[-2,8],[-2,40]],[[3830,2637],[-237,-13],[-16,-7],[-10,-14],[-4,-27],[-4,-13],[-6,-14],[-9,-12],[-15,-14],[-18,-14],[-32,-19],[-20,-9],[-17,-6],[-15,-3],[-7,-2],[-5,-4],[-5,-4],[-5,-2],[-4,0]],[[3243,2525],[-25,5],[-7,4],[-12,8],[-5,2],[-7,1]],[[3187,2545],[-5,-1],[-5,-4],[-2,-4],[-7,-25],[-14,-89],[-7,-107],[1,-17],[8,-38],[42,-132],[4,-10],[12,-20],[4,-13],[2,-14],[1,-23],[2,-7],[3,-3],[8,-5],[6,-5],[27,-37],[8,-9],[31,-25],[4,-5],[12,-24],[1,-4],[0,-5],[0,-6],[-3,-11],[-1,-6],[1,-5],[3,-7],[5,-15],[2,-3],[3,-3],[6,-3],[3,-2],[4,-11],[2,-4],[8,-11],[1,-3],[1,-3],[0,-7],[-2,-4],[-1,-2],[-7,-5],[-1,-4],[0,-4],[1,-4],[2,-2],[3,-2],[6,0],[3,-2],[2,-3],[-3,-17],[2,-12],[1,-5],[-2,-23],[1,-5],[1,-3],[1,-3],[1,-2],[2,-2],[2,-2],[2,-4],[1,-7],[-1,-4],[-3,-3],[-19,-21],[-7,-9],[-2,-5],[-1,-5],[1,-4],[1,-2],[3,-4],[1,-4],[0,-5],[0,-4],[0,-4],[2,-2],[2,-1],[3,-1],[4,-1],[2,-2],[2,-4],[0,-6],[-2,-8],[-1,-4],[1,-4],[5,-5],[3,-3],[-1,-21],[1,-4],[2,-7],[1,-4],[-28,-154],[0,-20],[3,-16],[6,-16],[17,-26],[25,-31],[14,-12],[17,-10],[97,-30],[56,-24],[51,-12],[7,-3],[5,-1]],[[3282,2520],[-3,1],[-3,0],[-2,2],[-4,1],[-6,1]],[[3264,2525],[-21,0]],[[3371,2466],[-4,1],[-3,2],[-2,2],[-1,3],[-2,4],[-2,4],[-4,2],[-19,1],[-5,1],[-3,1],[-3,3],[-2,2],[-16,19],[-2,3],[-3,2],[-3,2],[-4,1],[-5,1]],[[3288,2520],[-6,0]],[[3401,2460],[-4,1],[-3,3],[-1,3],[-2,3],[-2,3],[-4,2]],[[3385,2475],[-3,-2],[-7,-6],[-4,-1]],[[3759,1198],[29,-5],[24,-8],[9,-4],[17,-12],[45,-40],[28,-18],[26,-11],[61,-19],[7,-1]],[[3640,1196],[119,2]],[[4026,1086],[4,-2],[0,-2],[-4,-11],[-2,-12],[1,-6],[2,-5],[4,-1],[4,0]],[[4005,1080],[3,1],[4,0],[11,4],[3,1]],[[4075,1032],[2,1],[5,12],[5,9],[9,10]],[[4048,1048],[3,0],[4,-1],[4,-2],[3,-2],[5,-4],[6,-6],[2,-1]],[[4035,1047],[3,0],[4,1],[6,0]],[[294,814],[-18,2],[-8,2],[-6,2],[-7,5],[-9,8],[-48,60],[-70,72],[-36,27],[-42,23],[-39,15],[-11,6]],[[565,263],[-9,0],[-9,2],[-10,5],[-10,10],[-46,58],[-75,67],[-58,44],[-3,3],[-5,6],[-4,10],[-4,14],[-2,34],[1,17],[2,9],[3,8],[3,8],[10,16],[6,7],[6,5],[5,2],[99,26],[9,4],[8,6],[7,9],[4,8],[1,9],[0,9],[-1,17],[-15,76],[-5,10],[-7,12],[-15,15],[-12,6],[-10,3],[-48,4],[-53,12]],[[328,814],[-34,0]],[[896,0],[3,4],[3,7],[-1,128],[-3,10],[-6,11],[-15,13],[-12,7],[-30,12],[-65,36],[-66,20],[-9,6],[-7,9],[-6,12],[-6,10],[-7,6],[-8,1]],[[661,292],[-9,-1],[-68,-24],[-10,-3],[-9,-1]],[[2745,449],[-17,-32],[-29,-86],[-8,-14],[-52,-72],[-17,-36],[-11,-36],[1,-14],[3,-12],[31,-48],[4,-9],[2,-9],[-3,-8],[-6,-8],[-17,-19],[-11,-14],[-12,-25],[-2,-7]],[[2725,823],[144,-166],[22,-65],[52,-38],[93,-214],[3,-75],[241,-85]],[[3284,168],[-4,12]],[[3280,180],[16,8],[3,-37],[-43,-151]],[[2515,999],[-42,181],[42,138],[-67,181],[-22,136],[13,210],[39,61]],[[2136,3827]],[[2136,3827],[14,90],[-73,115],[-9,64]],[[2062,4011],[59,-93]],[[2478,1906],[20,45]],[[2725,823],[-77,45],[-45,88],[-88,43]],[[2221,4096],[6,-10],[12,-9],[12,-15],[15,-15],[15,-21],[21,-12],[18,-24],[30,-28],[24,-15],[18,-24],[15,-18],[21,-21],[6,-9],[15,-15],[15,-3],[30,-18],[30,-6],[21,-9],[24,-3],[27,-3],[24,-9],[15,-12],[24,-24],[15,-9],[15,-6],[15,-9],[27,-30],[27,-15],[24,-9],[25,-15],[6,-6],[21,-39],[30,-27],[12,-6],[48,-10],[21,-21],[30,-12]],[[3551,3313],[-15,3],[-30,0],[-21,9],[-30,6],[-24,-12],[-12,6],[-18,12],[-15,6],[-12,15],[-15,0],[-15,12],[-15,3],[-18,24],[-12,15],[-24,6],[-12,15],[-9,3],[-15,0],[-12,12],[-18,9],[-54,6],[-33,12],[-51,3],[-6,3],[-12,15],[-21,12],[-18,24],[-12,6],[-15,15],[-12,6]],[[3855,3150],[-24,9],[-24,15],[-21,24],[-12,6],[-18,24],[-6,7],[-30,0],[-9,6],[-25,3],[-24,-3],[-24,6],[-15,12],[-15,24],[-6,6],[-51,24]],[[4047,3063],[-15,27],[-24,12],[-21,21],[-15,6],[-27,6],[-48,0],[-9,3],[-33,12]],[[4047,3063],[9,-24],[3,-39]],[[4059,3000],[27,-15],[10,-7]],[[2641,2058],[-24,3],[-21,9],[-3,27],[6,34],[3,24],[6,15],[6,6],[33,3],[6,9],[-3,15],[3,15],[-12,15],[-3,9],[18,21],[0,33],[-3,21],[-9,15],[-3,15],[3,9],[15,9],[9,15],[9,24],[30,21],[9,18],[15,27],[18,25],[24,-7],[6,10],[6,21],[19,15],[12,15],[12,24],[3,15],[-3,33],[3,24],[0,9],[-15,33],[-3,27],[6,33],[9,24],[-6,45],[15,24],[6,28],[0,48],[12,42],[9,39],[3,24],[-12,15],[-27,12],[-6,24],[-6,6],[-19,6],[-18,18],[-15,9],[-9,9],[-6,18],[-15,12],[-12,24],[-3,15],[3,15],[9,15],[6,25],[-18,33],[-3,15],[6,21],[9,18],[27,30],[15,12],[24,9],[7,6],[-7,15],[-18,24],[-6,21],[3,15],[18,6],[31,-9],[6,0],[24,21],[15,12],[9,15],[6,6],[24,18],[18,0],[15,9],[15,3],[18,15]],[[2503,1941],[6,6],[21,3],[15,3],[9,6],[9,21],[9,6],[24,3],[27,18],[15,6],[12,21],[0,18],[-9,6]],[[725,1854],[-9,54],[-6,24],[-6,12],[-18,18],[-15,0],[-27,0],[-27,6],[-21,18],[-21,-3],[-15,9],[-21,6],[-6,15],[6,27],[-3,33],[-6,55],[-9,21],[-6,27],[-9,15],[9,21],[6,24],[9,27],[3,21],[-3,36],[6,42],[3,21],[15,9],[9,27],[9,15],[6,27],[15,9],[0,9],[-18,9],[-12,52],[-6,45],[0,21],[12,27],[-3,21],[-12,12],[-9,15],[-6,21],[9,21],[15,12],[3,6],[-12,27],[0,12],[-12,9],[-27,3],[-6,3],[-6,15],[-3,30],[12,18],[6,43],[-3,18],[3,15],[3,6],[21,12],[-3,15],[12,9],[-3,15],[-12,15],[0,12],[3,15],[-6,12],[0,21],[-12,24],[-6,12],[-21,15],[-3,9],[6,6],[30,18],[15,15],[15,30],[3,27],[6,19],[36,39],[21,12],[36,12],[24,9],[3,6],[3,15],[6,15],[-6,27],[-12,15],[-3,6],[0,27],[-3,15],[-12,21],[21,18],[27,18],[18,21],[15,9],[3,15],[12,15],[24,6],[15,0],[6,3],[24,30],[21,10],[27,0],[30,-16],[33,-9],[33,0],[37,0],[51,0],[27,15],[21,10],[15,0],[9,-13],[24,13],[6,0],[12,-13],[15,3],[21,19],[18,12],[21,9],[33,6],[15,3],[6,6],[-3,9],[-15,9],[-3,15],[3,36],[6,15],[-6,30],[6,12],[-12,15],[-3,9],[9,15],[15,0],[12,-9],[15,3],[21,36],[24,63],[3,24],[9,27],[-9,16],[-12,9],[-15,24],[-6,6],[-9,21],[-9,27],[-6,15],[-18,12],[-9,7]],[[2948,1270],[33,36],[15,12],[6,15],[-3,24],[6,12],[24,16],[18,15],[0,15],[-15,39],[0,15],[9,15],[9,0],[21,-9],[15,3],[21,12],[42,15],[24,-9],[24,0],[12,-12],[9,-3],[24,3],[15,-6],[27,-3],[21,-21],[42,-12],[15,0],[9,9],[0,15],[15,6],[33,-12],[15,-3],[24,-6],[24,-6],[42,-3],[24,0],[33,-15],[39,-12],[6,0],[18,12],[21,6],[15,12],[18,21],[3,18],[0,21],[13,12],[6,3],[45,-3],[72,12],[33,9],[33,15],[30,27],[30,18],[24,24],[36,24],[9,15],[24,15],[6,9],[6,24],[21,18],[7,10]],[[2948,1270],[-24,27],[-21,15],[-15,6],[-33,15],[-9,9],[-12,15],[-12,9],[-21,31],[0,9],[6,21],[-3,15],[-22,15],[-15,45],[-21,21],[-30,15],[3,24],[0,9],[-12,15],[-3,33],[-6,3],[-24,0],[-12,15],[-12,12],[0,24],[-36,36],[-3,24],[-15,15],[-6,10],[-9,30],[-18,21],[0,30],[-21,21],[-12,18],[-15,27],[-12,36]],[[3044,858],[-9,15],[-9,27],[-15,15],[-12,30],[3,24],[-3,9],[-15,9],[-12,15],[-9,6],[-15,-6],[-12,10],[-15,33],[0,15],[18,48],[6,24],[-3,18],[-6,39],[3,9],[18,0],[6,9],[15,6],[3,6],[0,15],[-24,24],[-9,12]],[[2362,175],[33,9],[12,15],[24,3],[12,21],[27,15],[33,12],[15,3],[30,3],[12,12],[3,13],[-6,15],[3,21],[9,24],[15,30],[0,9],[-6,15],[0,21],[-21,21],[-12,24],[-6,30],[3,9],[15,21],[15,12],[15,6],[33,6],[21,33],[36,36],[15,0],[24,9],[6,9],[21,10],[9,9],[15,27],[40,33],[15,15],[9,3],[30,3],[24,18],[15,3],[24,12],[21,6],[21,18],[30,18],[30,30],[9,15],[9,6]],[[1821,166],[18,12],[12,12],[9,3],[73,30],[9,9],[3,12],[24,15],[27,22],[6,-3],[21,-34],[18,-21],[21,-21],[24,-15],[24,-27],[15,-6],[24,-21],[9,-18],[12,-24],[6,-6],[18,21],[6,15],[15,15],[18,30],[9,0],[24,6],[15,24],[9,6],[15,3],[24,-3],[15,-6],[18,-21]],[[220,0],[16,31],[6,6],[21,3],[12,6],[3,21],[-18,15],[-6,12],[-12,12],[-3,18],[0,21],[-6,27],[0,9],[36,48],[6,36],[-12,13],[-3,6],[-12,21],[0,15],[12,9],[12,21],[0,21],[-15,36],[0,18],[15,21],[27,6],[9,12],[6,21],[-3,12],[6,21],[-6,15],[6,42],[-9,12],[-6,0],[-12,9],[-6,15],[-9,3],[-9,18],[3,31],[-6,15],[-12,9],[-3,12],[12,21],[0,21],[3,12],[-3,42],[6,27],[-3,45],[0,42],[3,12],[12,15],[6,21],[-6,12],[0,15],[-6,21],[0,16],[-12,12],[-3,15],[-15,9],[-6,15],[-3,15],[0,12],[12,12],[12,0],[15,-6],[12,3],[27,-15],[12,12],[9,-3],[12,9],[27,3],[6,-6],[15,3],[15,18],[6,6],[33,6],[36,15],[6,12],[12,15],[24,12],[27,9],[33,-3],[21,6],[15,6],[12,15],[9,27],[9,36],[15,27],[12,27],[3,15],[-6,79],[0,27],[6,30],[-3,30],[-3,15],[3,12],[9,18],[6,15],[0,12],[-12,30],[3,15],[3,6],[24,0],[30,9],[15,-3],[15,6],[6,6],[15,27],[0,15],[-6,15],[0,12],[3,22],[0,21],[-9,21],[-18,18],[-21,9],[-12,12],[-3,15]],[[1533,0],[12,19],[0,21],[-6,36],[21,-6],[9,0],[18,18],[18,9],[27,3],[24,12],[36,21],[21,9],[39,3],[15,9],[18,-3],[15,3],[21,12]],[[2597,0],[2,13],[-15,30],[-15,12],[-39,39],[-15,12],[-15,9],[-24,3],[-9,0],[-33,-15],[-15,3],[-15,21],[-21,21],[-21,27]],[[0,0],[0,1590],[0,2506],[4096,0],[0,-4096],[-4096,0]],[[1420,630],[-17,7],[17,30],[13,-7],[-13,-30]],[[2500,1222],[-15,2],[-30,11],[32,17],[13,-30]],[[0,2850],[31,-64],[74,-20],[11,-23],[-116,-163],[0,270]],[[553,2204],[33,58],[8,98],[59,85],[5,124],[94,77],[100,-27],[131,59],[-8,83],[109,-29],[16,80],[147,14],[-5,34],[76,-6],[117,-38],[42,-284],[100,-172],[191,0],[46,-35],[49,13],[-43,-49],[36,-18],[-35,-34],[66,-62],[-12,-51],[30,-52],[-69,-117],[11,-27],[-32,-48],[22,-35],[-22,8],[1,-41],[-29,5],[-28,-35],[-77,34],[-35,-49],[-59,54],[-41,-103],[-83,-30],[-132,95],[-67,-17],[-40,17],[-98,-63],[-136,-15],[-237,226],[-7,37],[-163,56],[-31,180]],[[4096,4096],[0,-130],[-15,-49],[-103,-67],[21,-113],[-121,-87],[-21,-196],[-47,-17],[-156,17],[-174,-81],[-30,58],[-97,15],[-13,67],[-38,18],[-101,-11],[-37,23],[63,41],[38,108],[-37,39],[-2,102],[54,82],[-57,19],[57,71],[134,-71],[191,59],[121,-28],[12,28],[28,-11],[6,62],[141,51],[183,1]],[[4096,2694],[0,-517],[-80,24],[1,219],[20,36],[-20,40],[-310,0],[-75,82],[44,126],[-25,36],[40,50],[118,117],[113,-20],[24,19],[66,-66],[75,0],[9,-13],[0,-124],[-3,-6],[3,-3]],[[4096,1018],[0,-284],[-48,42],[-148,32],[-51,37],[-53,-3],[-70,91],[66,309],[76,80],[71,14],[68,-150],[-20,-105],[41,1],[-10,-43],[78,-21]]]}