{"objects":{"water":{"type":"GeometryCollection","geometries":[]},"buildings":{"type":"GeometryCollection","geometries":[]},"places":{"type":"GeometryCollection","geometries":[{"type":"Point","properties":{"name:pt":"Z\u00e2mbia","name:ps":"\u0632\u06d0\u0645\u0628\u064a\u0627","name:ka":"\u10d6\u10d0\u10db\u10d1\u10d8\u10d0","name:mt":"\u017bambja","name:tr":"Zambiya","name:cv":"\u0417\u0430\u043c\u0431\u0438","name:km":"\u17a0\u17d2\u179f\u17b6\u17c6\u1794\u17ca\u17b8","name:cs":"Zambie","name:tt":"\u0417\u0430\u043c\u0431\u0438\u044f","name:kw":"Zambi","name:tk":"Zambi\u00fda","name:ku":"Zambiya","name:ti":"\u12db\u121d\u1262\u12eb","name:ks":"\u062c\u0627\u0645\u0628\u0650\u06cc\u0627","name:to":"Semipia","name:tl":"Sambya","name:pa":"\u0a1c\u0a3c\u0a3e\u0a02\u0a2c\u0a40\u0a06","name:os":"\u0417\u0430\u043c\u0431\u0438","name:or":"\u0b1c\u0b3e\u0b2e\u0b4d\u0b2c\u0b3f\u0b06","name:ce":"\u0417\u0430\u043c\u0431\u0438","name:ta":"\u0b9a\u0bbe\u0bae\u0bcd\u0baa\u0bbf\u0baf\u0bbe","name:tg":"\u0417\u0430\u043c\u0431\u0438\u044f","name:ca":"Z\u00e0mbia","name:te":"\u0c1c\u0c3e\u0c02\u0c2c\u0c3f\u0c2f\u0c3e","name:ln":"Zambi","name:de":"Sambia","name:dz":"\u0f5b\u0f58\u0f0b\u0f56\u0fb7\u0f72\u0f0b\u0f61","source":"openstreetmap.org","name:kn":"\u0c9d\u0cbe\u0c82\u0cac\u0cbf\u0caf\u0cbe","name:dv":"\u0792\u07ac\u0789\u07b0\u0784\u07a8\u0787\u07a7","name:lv":"Zambija","name:lt":"Zambija","name:uz":"Zambiya","name:kk":"\u0417\u0430\u043c\u0431\u0438\u044f","name:he":"\u05d6\u05de\u05d1\u05d9\u05d4","min_zoom":2.0,"kind":"country","name:ur":"\u0632\u0627\u0645\u0628\u06cc\u0627","name:lb":"Sambia","name:lg":"Zambya","name:uk":"\u0417\u0430\u043c\u0431\u0456\u044f","name:hy":"\u0536\u0561\u0574\u0562\u056b\u0561","name:ug":"\u0632\u0627\u0645\u0628\u0649\u064a\u06d5","name:hr":"Zambija","name:lo":"\u0ec1\u0e8a\u0ea1\u0ec0\u0e9a\u0e8d","population":11668000,"name:el":"\u0396\u03ac\u03bc\u03c0\u03b9\u03b1","name:eo":"Zambio","name":"Zambia","name:ee":"Zambia nutome","name:th":"\u0e1b\u0e23\u0e30\u0e40\u0e17\u0e28\u0e41\u0e0b\u0e21\u0e40\u0e1a\u0e35\u0e22","name:yi":"\u05d6\u05d0\u05de\u05d1\u05d9\u05e2","name:et":"Sambia","name:yo":"Or\u00edl\u1eb9\u0301\u00e8de \u1e63amibia","name:rm":"Sambia","name:rn":"Zambiya","name:az":"Zambiya","name:mr":"\u091d\u093e\u092e\u094d\u092c\u093f\u092f\u093e","name:qu":"Sambya","name:ar":"\u0632\u0627\u0645\u0628\u064a\u0627","name:my":"\u1007\u1019\u103a\u1018\u102e\u101a\u102c","official_name":"Republic of Zambia","name:is":"Samb\u00eda","name:am":"\u12db\u121d\u1262\u12eb","name:ml":"\u0d38\u0d3e\u0d02\u0d2c\u0d3f\u0d2f","name:ru":"\u0417\u0430\u043c\u0431\u0438\u044f","name:rw":"Zambiya","id":432425123,"name:mk":"\u0417\u0430\u043c\u0431\u0438\u0458\u0430","name:af":"Zambi\u00eb","name:zu":"i-Zambia","name:ha":"Zambiya","name:mn":"\u0417\u0430\u043c\u0431\u0438","name:ff":"Sammbi","name:fi":"Sambia","name:hi":"\u091c\u093e\u092e\u094d\u092c\u093f\u092f\u093e","name:fo":"Sambia","name:fr":"Zambie","name:wo":"Saambi","name:zh-yue":"\u8d0a\u6bd4\u4e9e","name:fy":"Sambia","name:vo":"Zambiy\u00e4n","name:zh":"\u8d5e\u6bd4\u4e9a","name:so":"Saambiya","name:sr":"\u0417\u0430\u043c\u0431\u0438\u0458\u0430","name:sl":"Zambija","name:ja":"\u30b6\u30f3\u30d3\u30a2","name:si":"\u0dc3\u0dd0\u0db8\u0dca\u0db6\u0dd2\u0dba\u0dcf\u0dc0","name:sh":"Zambija","name:sg":"Zamb\u00efi","name:se":"Z\u00e1mbia","name:sc":"Z\u00e0mbia","name:ne":"\u091c\u093e\u092e\u094d\u092c\u093f\u092f\u093e","name:sa":"\u091c\u093e\u092e\u094d\u092c\u093f\u092f\u093e","name:bs":"Zambija","name:bm":"Zanbi","name:bn":"\u099c\u09be\u09ae\u09cd\u09ac\u09bf\u09af\u09bc\u09be","name:bo":"\u0f5b\u0f58\u0f0b\u0f56\u0f72\u0f0b\u0f61\u0f0d","name:be":"\u0417\u0430\u043c\u0431\u0456\u044f","name:bg":"\u0417\u0430\u043c\u0431\u0438\u044f","name:ss":"IZambiya","name:ba":"\u0417\u0430\u043c\u0431\u0438\u044f","name:sq":"Zambi","name:ko":"\uc7a0\ube44\uc544","name:ga":"An tSaimbia","name:gd":"Saimbia","name:ht":"Zanbi","name:fa":"\u0632\u0627\u0645\u0628\u06cc\u0627","name:gv":"Yn Tambia","name:gu":"\u0a9d\u0abe\u0aae\u0acd\u0aac\u0abf\u0aaf\u0abe"},"coordinates":[3685,1589]},{"type":"Point","properties":{"source":"openstreetmap.org","kind":"region","name":"Southern Province","id":2696418890,"kind_detail":"state","min_zoom":4.0,"name:de":"S\u00fcdprovinz"},"coordinates":[3086,74]},{"type":"Point","properties":{"source":"openstreetmap.org","kind":"region","name":"Copperbelt Province","id":2696418793,"kind_detail":"state","min_zoom":4.0,"name:de":"Provinz Kupferg\u00fcrtel"},"coordinates":[3923,2713]},{"type":"Point","properties":{"admin_level":"4","kind":"region","name":"Haut-Katanga","kind_detail":"state","min_zoom":4.0,"name:de":"Ober-Katange","source":"openstreetmap.org","name:fr":"Haut-Katange","id":4346362818},"coordinates":[3578,3776]},{"type":"Point","properties":{"source":"openstreetmap.org","kind":"region","name":"Western Province","id":2696418902,"kind_detail":"state","min_zoom":4.0,"name:de":"Westprovinz"},"coordinates":[948,587]},{"type":"Point","properties":{"source":"openstreetmap.org","kind":"region","name":"North-Western Province","id":2696418781,"kind_detail":"state","min_zoom":4.0,"name:de":"Nordwestprovinz"},"coordinates":[2157,2718]},{"type":"Point","properties":{"source":"naturalearthdata.com","kind":"locality","name":"Lubumbashi","population":1352000,"min_zoom":5.0,"id":6967},"coordinates":[3625,3721]},{"type":"Point","properties":{"source":"naturalearthdata.com","kind":"locality","name":"Mazabuka","population":64006,"min_zoom":6.0,"id":5486},"coordinates":[3830,583]},{"type":"Point","properties":{"source":"naturalearthdata.com","kind":"locality","name":"Zambezi","population":7074,"min_zoom":6.0,"id":5484},"coordinates":[444,2324]}]},"transit":{"type":"GeometryCollection","geometries":[{"type":"MultiLineString","properties":{"osm_relation":true,"source":"openstreetmap.org","kind":"train","name":"Lubumbashi - Kipushi","sort_rank":275,"min_zoom":6.0,"operator":"SNCC"},"arcs":[[125],[126]]},{"type":"LineString","properties":{"osm_relation":true,"source":"openstreetmap.org","kind":"train","name":"Lubumbashi-Tenke","sort_rank":275,"min_zoom":6.0,"operator":"SNCC"},"arcs":[127]},{"type":"MultiLineString","properties":{"osm_relation":true,"source":"openstreetmap.org","kind":"train","name":"Zambia Railways","sort_rank":275,"min_zoom":6.0,"operator":"ZR"},"arcs":[[128],[129],[130],[131],[132],[133],[134]]},{"type":"LineString","properties":{"source":"openstreetmap.org","kind":"train","name":"Livingstone\u2013Ndola","sort_rank":275,"min_zoom":6.0,"osm_relation":true},"arcs":[135]},{"type":"LineString","properties":{"osm_relation":true,"source":"openstreetmap.org","kind":"train","name":"Pride of Africa","sort_rank":275,"min_zoom":6.0,"operator":"Rovos Rail"},"arcs":[136]},{"type":"MultiLineString","properties":{"osm_relation":true,"source":"openstreetmap.org","kind":"train","name":"Lubumbashi-Sakania","sort_rank":275,"min_zoom":6.0,"operator":"SNCC"},"arcs":[[137],[138]]}]},"pois":{"type":"GeometryCollection","geometries":[]},"boundaries":{"type":"GeometryCollection","geometries":[{"type":"LineString","properties":{"source":"naturalearthdata.com","kind":"country","sort_rank":262,"kind_detail":"2","min_zoom":0.0,"id":370},"arcs":[0]},{"type":"MultiLineString","properties":{"source":"naturalearthdata.com","kind":"country","sort_rank":262,"kind_detail":"2","min_zoom":0.0,"id":389},"arcs":[[1],[2],[3],[4],[5],[6],[7],[8],[9],[10],[11],[12],[13],[14],[15],[16],[17],[18],[19],[20],[21],[22],[23],[24],[25],[26],[27],[28],[29]]},{"type":"MultiLineString","properties":{"source":"naturalearthdata.com","kind":"region","sort_rank":256,"kind_detail":"4","min_zoom":5.0,"id":641},"arcs":[[30],[31],[32],[33],[34],[35],[36],[37]]},{"type":"MultiLineString","properties":{"source":"naturalearthdata.com","kind":"region","sort_rank":256,"kind_detail":"4","min_zoom":5.0,"id":642},"arcs":[[38],[39],[40]]},{"type":"MultiLineString","properties":{"source":"naturalearthdata.com","kind":"region","sort_rank":256,"kind_detail":"4","min_zoom":5.0,"id":633},"arcs":[[41],[42],[43],[44],[45],[46],[47],[48]]},{"type":"MultiLineString","properties":{"source":"naturalearthdata.com","kind":"region","sort_rank":256,"kind_detail":"4","min_zoom":5.0,"id":634},"arcs":[[49],[50],[51],[52],[53],[54],[55]]},{"type":"MultiLineString","properties":{"source":"naturalearthdata.com","kind":"region","sort_rank":256,"kind_detail":"4","min_zoom":5.0,"id":635},"arcs":[[56],[57],[58],[59],[60],[61],[62],[63],[64]]},{"type":"MultiLineString","properties":{"source":"naturalearthdata.com","kind":"region","sort_rank":256,"kind_detail":"4","min_zoom":5.0,"id":643},"arcs":[[65],[66],[67],[68],[69],[70],[71],[72],[73],[74],[75],[76],[77],[78],[79],[80],[81],[82],[83],[84],[85],[86],[87],[88],[89],[90],[91],[92],[93],[94],[95],[96],[97],[98],[99],[100],[101],[102],[103],[104],[105],[106],[107],[108],[109],[110],[111],[112],[113]]},{"type":"MultiLineString","properties":{"source":"naturalearthdata.com","kind":"region","sort_rank":256,"kind_detail":"4","min_zoom":5.0,"id":644},"arcs":[[114],[115],[116],[117],[118]]},{"type":"MultiLineString","properties":{"source":"naturalearthdata.com","kind":"region","sort_rank":256,"kind_detail":"4","min_zoom":5.0,"id":645},"arcs":[[119],[120]]},{"type":"MultiLineString","properties":{"source":"naturalearthdata.com","kind":"region","sort_rank":256,"kind_detail":"4","min_zoom":5.0,"id":647},"arcs":[[121],[122],[123],[124]]}]},"roads":{"type":"GeometryCollection","geometries":[{"type":"LineString","properties":{"source":"naturalearthdata.com","kind":"major_road","kind_detail":"secondary","sort_rank":379,"landuse_kind":"urban_area","min_zoom":3.0,"id":43829},"arcs":[139]},{"type":"LineString","properties":{"source":"naturalearthdata.com","kind":"major_road","kind_detail":"secondary","sort_rank":379,"landuse_kind":"urban_area","min_zoom":3.0,"id":43829},"arcs":[140]},{"type":"LineString","properties":{"source":"naturalearthdata.com","kind":"major_road","kind_detail":"secondary","sort_rank":379,"landuse_kind":"urban_area","min_zoom":3.0,"id":43829},"arcs":[141]},{"type":"MultiLineString","properties":{"source":"naturalearthdata.com","kind":"major_road","sort_rank":379,"kind_detail":"secondary","min_zoom":3.0,"id":43829},"arcs":[[142],[143],[144]]},{"type":"LineString","properties":{"source":"naturalearthdata.com","kind":"minor_road","kind_detail":"tertiary","sort_rank":355,"landuse_kind":"urban_area","min_zoom":5.0,"id":43834},"arcs":[145]},{"type":"LineString","properties":{"source":"naturalearthdata.com","kind":"minor_road","sort_rank":355,"kind_detail":"tertiary","min_zoom":5.0,"id":43834},"arcs":[146]},{"type":"LineString","properties":{"source":"naturalearthdata.com","kind":"minor_road","sort_rank":355,"kind_detail":"tertiary","min_zoom":6.0,"id":43843},"arcs":[147]},{"type":"LineString","properties":{"source":"naturalearthdata.com","kind":"major_road","sort_rank":379,"kind_detail":"secondary","min_zoom":4.0,"id":43844},"arcs":[148]},{"type":"LineString","properties":{"source":"naturalearthdata.com","kind":"major_road","kind_detail":"secondary","sort_rank":379,"landuse_kind":"urban_area","min_zoom":3.0,"id":43845},"arcs":[149]},{"type":"LineString","properties":{"source":"naturalearthdata.com","kind":"major_road","sort_rank":379,"kind_detail":"secondary","min_zoom":3.0,"id":43845},"arcs":[150]},{"type":"LineString","properties":{"source":"naturalearthdata.com","kind":"major_road","sort_rank":379,"kind_detail":"secondary","min_zoom":3.0,"id":43879},"arcs":[151]},{"type":"LineString","properties":{"source":"naturalearthdata.com","kind":"minor_road","sort_rank":355,"kind_detail":"tertiary","min_zoom":6.0,"id":43883},"arcs":[152]},{"type":"LineString","properties":{"source":"naturalearthdata.com","kind":"minor_road","sort_rank":355,"kind_detail":"tertiary","min_zoom":5.0,"id":43927},"arcs":[153]},{"type":"LineString","properties":{"source":"naturalearthdata.com","kind":"minor_road","sort_rank":355,"kind_detail":"tertiary","min_zoom":6.0,"id":43937},"arcs":[154]},{"type":"LineString","properties":{"source":"naturalearthdata.com","kind":"minor_road","sort_rank":355,"kind_detail":"tertiary","min_zoom":5.0,"id":43972},"arcs":[155]},{"type":"LineString","properties":{"source":"naturalearthdata.com","kind":"minor_road","sort_rank":355,"kind_detail":"tertiary","min_zoom":6.0,"id":43973},"arcs":[156]},{"type":"LineString","properties":{"source":"naturalearthdata.com","kind":"minor_road","sort_rank":355,"kind_detail":"tertiary","min_zoom":6.0,"id":44070},"arcs":[157]},{"type":"LineString","properties":{"source":"naturalearthdata.com","kind":"minor_road","sort_rank":355,"kind_detail":"tertiary","min_zoom":5.0,"id":44076},"arcs":[158]},{"type":"LineString","properties":{"source":"naturalearthdata.com","kind":"minor_road","kind_detail":"tertiary","sort_rank":355,"landuse_kind":"protected_area","min_zoom":5.0,"id":44112},"arcs":[159]},{"type":"MultiLineString","properties":{"source":"naturalearthdata.com","kind":"minor_road","sort_rank":355,"kind_detail":"tertiary","min_zoom":5.0,"id":44112},"arcs":[[160],[161]]},{"type":"LineString","properties":{"source":"naturalearthdata.com","kind":"major_road","sort_rank":379,"kind_detail":"secondary","min_zoom":3.0,"id":44142},"arcs":[162]},{"type":"LineString","properties":{"source":"naturalearthdata.com","kind":"minor_road","sort_rank":355,"kind_detail":"tertiary","min_zoom":5.0,"id":44145},"arcs":[163]},{"type":"LineString","properties":{"source":"naturalearthdata.com","kind":"major_road","kind_detail":"secondary","sort_rank":379,"landuse_kind":"urban_area","min_zoom":4.0,"id":44315},"arcs":[164]},{"type":"MultiLineString","properties":{"source":"naturalearthdata.com","kind":"major_road","sort_rank":379,"kind_detail":"secondary","min_zoom":4.0,"id":44315},"arcs":[[165],[166]]},{"type":"LineString","properties":{"source":"naturalearthdata.com","kind":"major_road","sort_rank":379,"kind_detail":"secondary","min_zoom":4.0,"id":44356},"arcs":[167]},{"type":"LineString","properties":{"source":"naturalearthdata.com","kind":"major_road","sort_rank":379,"kind_detail":"secondary","min_zoom":4.0,"id":44432},"arcs":[168]}]},"earth":{"type":"GeometryCollection","geometries":[{"type":"Polygon","properties":{"sort_rank":10,"source":"naturalearthdata.com","min_zoom":0.0,"kind":"earth","area":1568366174169},"arcs":[[169]]}]},"landuse":{"type":"GeometryCollection","geometries":[{"type":"MultiPolygon","properties":{"source":"naturalearthdata.com","kind":"urban_area","name":"","area":2990195087,"sort_rank":11,"min_zoom":4.0},"arcs":[[[170]],[[171]],[[172]],[[173]],[[174]],[[175]],[[176]]]},{"type":"Polygon","properties":{"kind":"protected_area","protect_class":"98","area":577102020608,"sort_rank":17,"source":"openstreetmap.org","min_zoom":4.0,"tier":2,"id":-4626458,"osm_relation":true},"arcs":[[177]]},{"type":"Polygon","properties":{"kind":"protected_area","protect_class":"2","area":23264999424,"sort_rank":17,"source":"openstreetmap.org","min_zoom":4.0,"tier":2,"id":-4626459,"osm_relation":true},"arcs":[[178]]}]}},"type":"Topology","transform":{"translate":[22.5,-16.6361918784],"scale":[0.001373291,0.0013324683]},"arcs":[[[0,2728],[74,0],[90,0],[91,0],[90,0],[91,0],[90,0],[91,0],[90,0],[91,0],[90,0],[91,0],[90,0],[24,0],[-9,27],[-12,24],[-16,21],[-40,42],[-15,21],[-7,24],[5,29],[14,34],[14,56],[13,52],[9,22],[33,48],[25,37],[6,13],[2,12],[-7,34],[-3,46],[-8,19],[-18,20],[-16,23],[-4,33],[5,106],[4,96],[16,37],[1,7],[-3,19],[-3,56],[-7,18],[-7,14],[-6,15],[0,19],[4,15],[13,30],[20,31],[3,9],[0,12],[-1,18],[0,10],[2,8],[7,11],[23,18],[7,10],[0,9],[-32,73],[-5,19],[2,71]],[[1434,3880],[-17,2],[-14,7],[-25,23],[-16,10],[-14,2],[-30,1],[-12,5],[-6,14],[9,8],[31,9],[9,10],[23,37],[6,12],[3,15],[1,16],[-1,16],[-4,13],[-5,6],[-10,10]],[[2083,3744],[-6,1],[-5,3],[-6,6],[-7,13],[-20,61],[-2,14],[0,7],[3,7],[10,12],[1,7],[-5,13],[-17,29],[-5,15],[-1,19],[6,8],[8,7],[7,14],[-4,6],[-8,7],[-4,6],[8,7],[15,6],[6,5],[0,7],[-1,16],[1,19],[-2,17],[-9,8]],[[2046,4084],[-23,-4],[-69,-35],[-43,-10],[-104,-9]],[[1807,4026],[-28,2]],[[1779,4028],[-31,-9],[-54,-27],[-28,-7],[-55,0],[-28,-12],[-8,-7],[-13,-18],[-7,-8],[-8,-3],[-16,-4],[-7,-3],[-6,-6],[-4,-6],[-3,-7],[-3,-9],[-5,-6],[-7,-1]],[[1496,3895],[-9,1]],[[1487,3896],[-7,-1],[-30,-11],[-16,-4]],[[3794,3250],[-32,2],[-20,7],[-32,35],[-4,3],[-39,32],[-11,16],[-36,103],[-3,30],[-34,60],[-136,85],[-17,65],[1,25],[-3,37],[-8,34],[-12,18]],[[3408,3802],[-5,0],[-21,-8],[-31,-3],[-27,-9],[-8,-1]],[[3316,3781],[-16,3]],[[3300,3784],[-6,-1],[-10,-11],[1,-14],[9,-32],[-2,-20],[-7,-11],[-11,-11],[-11,-16],[-7,-30],[-3,-61],[-14,-29],[-26,-25],[-28,-17],[-31,-7]],[[2181,3647],[-11,5],[-4,10],[6,19],[0,4],[0,4],[-1,4],[-13,12],[-42,20],[-6,6],[-4,6],[-4,5],[-10,2]],[[2092,3744],[-9,0]],[[2404,3626],[-42,1],[-13,2],[-28,16],[-23,22],[-25,16],[-33,1]],[[2240,3684],[-6,-5],[-2,-7],[-3,-7],[-8,-3],[-9,-1],[-5,-5],[-5,-5],[-6,-3],[-15,-1]],[[2544,3551],[-9,1],[-13,6],[-10,23],[-10,8],[-16,6],[-40,33],[-2,4],[-4,2],[-8,2]],[[2432,3636],[-5,-2],[-15,-7],[-8,-1]],[[2716,3530],[-15,7],[-15,9],[-16,7]],[[2670,3553],[-126,-2]],[[3056,3466],[-12,6],[-13,10],[-14,8],[-27,6],[-59,4],[-26,9],[-14,10],[-11,11],[-12,10],[-17,6]],[[2851,3546],[-28,-1],[-27,-5],[-8,-3],[-14,-10],[-8,-3]],[[2766,3524],[-9,0],[-15,7]],[[2742,3531],[-26,-1]],[[3154,3499],[-34,4]],[[3120,3503],[-18,0],[-11,-9],[-9,-13],[-11,-11],[-15,-4]],[[3991,3198],[-16,5],[-5,16],[-3,19],[-10,14],[-42,25],[-14,5],[-19,2]],[[3882,3284],[-9,-6],[-8,-10],[-14,-11],[-23,-6],[-34,-1]],[[4096,3161],[-13,11],[-3,6],[-2,8],[-2,6],[-7,4],[-54,5]],[[4015,3201],[-11,0],[-13,-3]],[[3496,669],[-7,11],[-9,2],[0,10],[-37,163],[-19,11],[-170,9],[-7,2],[3,5],[17,15],[1,4],[-8,7],[-97,56],[-29,7],[-42,5],[-1035,28]],[[3781,726],[-5,6],[-3,6],[-4,5],[-4,4],[-4,3],[-8,9],[-2,3],[-1,3],[2,3],[2,2],[3,3],[3,2],[1,2],[0,3],[-2,3],[-2,3],[0,5],[1,14],[-1,4],[-2,3],[-12,5],[-2,3],[-2,4],[0,4],[0,4],[-2,3],[-4,3],[-37,13],[-4,1],[-1,1],[-1,3],[2,7],[-2,3],[-4,2]],[[3686,868],[-11,0],[-6,-3],[-3,-3],[-1,-4],[-1,-6],[-2,-3],[-9,-5],[-2,-3],[-1,-4],[-1,-4],[-1,-5],[-2,-3],[-2,-3],[-2,-2],[-4,-3],[-6,-4],[-2,-3],[-3,-2],[-4,-2],[-3,-1],[-4,-2],[-2,-3],[-1,-3],[-2,-4],[-3,-2]],[[3608,791],[-4,1],[-11,5],[-14,5]],[[3579,802],[-4,0],[-2,-5],[-3,-5],[-60,-109],[-2,-7],[-12,-7]],[[3828,741],[-3,-2],[-4,-7],[-3,-2]],[[3818,730],[-5,1],[-8,5],[-4,0]],[[3801,736],[-9,-1],[-4,-2],[-7,-7]],[[2109,1125],[5,1],[5,3],[3,5],[1,4],[-2,22],[1,7],[2,4],[12,11],[10,16],[4,8],[3,7],[0,33],[0,4],[-1,4],[-22,39],[-1,5],[-1,8],[1,15],[1,7],[2,6],[6,7],[4,7],[2,7],[1,8],[1,6],[2,4],[2,3],[3,3],[3,2],[9,2],[4,3],[1,4],[0,4],[0,9],[2,24],[-4,15],[-1,11],[1,7],[1,5],[4,7],[2,3],[2,4],[7,17],[5,10],[12,20],[5,6],[3,2],[3,2],[2,2],[6,1]],[[2096,1127],[4,0],[4,-1],[5,-1]],[[2057,1004],[1,51],[-3,28],[0,6],[1,5],[3,3],[22,19],[5,6],[2,3],[4,1],[4,1]],[[3970,2038],[-6,1],[-8,4],[-15,12],[-9,13],[-7,15],[-49,122],[-11,10],[-14,4],[-61,5],[-9,3],[-7,3],[-13,9],[-3,1],[-5,1],[-13,2]],[[3740,2243],[-10,-12],[0,-10],[3,-9],[-2,-10],[-4,-2]],[[3727,2200],[-5,1]],[[3722,2201],[-7,-1],[-4,-3],[-3,-7],[1,-5],[2,-4],[0,-5],[-7,-11],[-23,-30],[-1,-5],[1,-6],[-1,-6],[-4,-3]],[[3580,2039],[-7,6],[-3,2],[-4,4],[-3,4],[-4,16],[-1,13],[-1,4],[-3,7],[-1,12],[-2,4],[-1,3],[-3,3],[-10,10],[-2,3],[-1,4],[-6,18],[0,4],[1,4],[1,5],[0,4],[0,4],[-63,9],[-298,9]],[[3676,2115],[-5,0],[-5,4],[-3,5],[-5,13],[-8,2]],[[3650,2139],[-10,-3],[-6,-4],[-4,-9],[1,-11],[5,-16],[-7,-18],[-16,-19],[-20,-15],[-13,-5]],[[4096,2059],[-14,-2],[-41,-1],[-8,-1],[-7,-2],[-3,-2],[-5,-1],[-20,0],[-7,-2],[-4,-2],[-9,-6],[-4,-1],[-4,-1]],[[3169,2191],[7,-3],[5,-4],[5,-5],[5,-6],[3,-7],[3,-7],[3,-11],[2,-4],[2,-3],[5,-5],[2,-3],[7,-4],[22,-11],[3,-2],[1,-4],[-1,-4],[0,-5],[-2,-4],[-7,-14],[-15,-23],[-6,-16],[-3,-20],[-1,-19],[2,-29],[-1,-3],[-1,-4],[-4,-4],[-6,-3],[-15,-5],[-7,-3],[-4,-6],[2,-3],[2,-3],[28,-15],[9,-8],[36,-46],[5,-10],[7,-13],[1,-9],[1,-8],[-1,-5],[0,-4],[-2,-5],[-1,-4],[-14,-18],[-3,-7],[-1,-4],[0,-3],[1,-4],[2,-83],[-5,-12],[-4,-4],[-12,-11],[-89,-4],[-11,-4],[-26,-18],[-13,-4]],[[3085,1641],[-61,5]],[[3024,1646],[-7,-1],[-4,-4],[-2,-3],[-4,-2]],[[3007,1636],[-9,1],[-14,7],[-7,2]],[[2977,1646],[-12,-1],[-12,-5],[-9,-7],[-7,-7],[-30,-47],[-46,-36],[-30,-35],[-9,-16],[-4,-38],[-25,-11],[-8,-2]],[[2785,1441],[-7,2],[-5,6],[-5,7],[-5,6],[-33,15],[-18,3],[-11,3],[-8,4],[-5,7],[-6,10],[-3,4],[-4,4],[-402,50]],[[2273,1562],[-13,-1],[-13,-2],[-10,-8],[-17,-12]],[[3649,3254],[10,14],[11,3],[3,2],[31,21],[2,3]],[[3588,3296],[7,-5],[11,-7],[10,-8],[0,-4],[-1,-5],[2,-4],[21,-4],[8,-4],[3,-1]],[[3478,3220],[5,2],[4,3],[10,11],[3,3],[10,6],[3,2],[11,5],[10,13],[4,3],[3,2],[8,2],[3,2],[6,4],[11,10],[5,4],[4,1],[10,3]],[[3317,3230],[4,-1],[16,-3],[20,-1]],[[3313,2730],[-4,1],[-4,3],[-3,6],[-2,4],[-3,2],[-3,1],[-3,3],[-3,6],[-2,3],[-2,3],[-3,2],[-3,1],[-3,1],[-12,0],[-4,2],[-4,2],[-6,4],[-3,2],[-20,8],[-3,2],[-3,3],[-5,5],[-2,3],[-7,4],[-8,3],[-3,3],[-3,3],[-3,4],[0,4],[1,4],[6,10],[7,16],[3,5],[3,6],[0,5],[-1,4],[-2,3],[-14,15],[-3,2],[-4,3],[-3,3],[-2,7],[-2,5],[-3,3],[-3,2],[-3,3],[-3,4],[-2,7],[0,5],[5,8],[2,6],[7,33],[2,5],[3,4],[6,10],[5,5],[7,3],[3,2],[4,0],[13,1],[4,1],[7,3],[6,5],[5,5],[7,8],[8,14],[25,33],[6,4],[7,3],[29,5],[4,2],[4,2],[0,3],[-2,3],[-5,6],[-7,17],[-1,5],[-1,6],[-1,10],[2,7],[2,5],[2,4],[3,7],[0,24],[-1,4],[-8,26],[-1,4],[-1,6],[3,1]],[[3387,3229],[91,-9]],[[3357,3225],[7,0],[14,3],[9,1]],[[3169,2191],[-25,16],[-11,10],[-3,5],[-3,6],[-3,9],[-1,9],[3,49],[3,12],[5,13],[4,6],[3,3],[14,12],[2,3],[2,3],[2,6],[8,36],[3,6],[2,4],[3,2],[7,4],[14,5],[7,3],[3,3],[4,5],[8,19],[2,3],[3,3],[17,8],[4,4],[4,6],[8,14],[3,7],[1,7],[1,5],[-2,12],[-2,8],[-8,17],[-1,5],[-1,7],[0,12],[1,7],[1,6],[2,3],[2,3],[3,3],[5,5],[41,26],[6,4],[6,8],[5,8],[3,6],[2,5],[19,86],[0,1],[-3,2],[-3,1],[-5,0],[-4,0]],[[3330,2732],[-17,-2]],[[153,1986],[-9,2],[-7,4],[-6,4],[-8,5],[-18,4],[-9,3],[-3,6],[-2,5],[-3,7],[-4,5],[-4,2],[-12,3],[-7,6],[-13,1],[-8,1],[-5,1],[-5,1],[-18,12],[-3,3],[-6,14],[-2,2],[-1,2]],[[372,1983],[-4,0],[-3,1],[-2,1],[-2,3],[-2,3],[-2,8],[-4,11],[-4,6],[-11,11],[-63,42],[-18,7],[-6,1]],[[251,2077],[-5,-1],[-3,-2],[-18,-18],[-3,-2],[-3,-1],[-34,-2],[-4,-2],[-3,-2],[-1,-4],[-9,-43],[-1,-5],[-6,-8],[-8,-1]],[[1370,2010],[-28,8],[-6,4],[-4,4],[0,8],[0,5],[-2,5],[-3,6],[-8,7],[-4,2]],[[1315,2059],[-3,0],[-1,-3],[-1,-4],[-2,-3],[-2,-3],[-2,-2],[0,-3],[2,-3],[4,-4],[2,-3],[1,-4],[-2,-2],[-5,-1]],[[1306,2024],[-5,0],[-9,2],[-5,3],[-14,10],[-11,9],[-4,1]],[[1258,2049],[-4,0],[-9,-5],[-8,-3],[-3,-1],[-5,-7],[-3,-1],[-5,0]],[[1496,1991],[-3,3],[-2,4],[-5,7],[-9,6],[-6,4],[-4,3],[-2,4],[-17,18]],[[1448,2040],[-3,-1],[-2,-2],[-2,-4],[-3,-2],[-7,-2],[-1,-2],[2,-3],[2,-2],[2,-3],[1,-3],[-2,-2],[-3,-1],[-5,-1]],[[1221,2032],[-6,0]],[[1215,2032],[-5,0],[-4,-1],[-2,-3],[-4,-7],[-2,-3],[-3,-2],[-7,-3],[-3,-1],[-5,-1]],[[1180,2011],[-6,1],[-5,2],[-5,4],[-4,2]],[[1160,2020],[-4,-1],[-2,-3],[-2,-3],[-2,-4],[-1,-5],[-2,-4],[-3,-4],[-5,-2]],[[1395,2006],[-2,2],[-3,3],[-1,4],[-2,4]],[[1387,2019],[-2,-1],[-3,-2],[-2,-3],[-3,-2],[-3,-1],[-4,0]],[[1427,2012],[-10,1],[-5,2]],[[1412,2015],[-4,-1],[-3,-2],[-2,-3],[-3,-3],[-5,0]],[[987,1985],[-10,3],[-6,9],[0,14]],[[971,2011],[-8,-4],[-17,-16],[-8,-3],[-8,-2],[-8,-2],[-24,-15]],[[1834,1814],[-8,1],[-12,5],[-82,41],[-5,2],[-18,2],[-16,5],[-15,2],[-37,13],[-6,3],[-4,4],[-3,6],[-2,4],[-3,6],[-2,4],[0,4],[-1,4],[1,19],[0,5],[-6,14],[-2,7],[-1,4],[-2,3],[-4,5],[-9,8],[-17,20],[-4,3],[-2,2]],[[1574,2010],[-3,-1],[-5,-4],[-4,-1],[-3,-1],[-4,-2],[-2,-2],[-2,-4],[-1,-5],[0,-8],[-1,-2],[-2,-1],[-4,-1]],[[1535,2005],[-7,2],[-3,1]],[[1525,2008],[-2,-2],[-1,-4],[2,-7],[0,-4],[-2,-2],[-2,-2]],[[1543,1978],[-1,1],[-1,0],[-1,3],[0,4],[2,14],[-1,4],[-3,1]],[[1538,2005],[-3,0]],[[1139,1994],[-3,2],[-5,7],[-4,1]],[[1127,2004],[-3,-1],[-6,-9],[-8,-8],[-6,-4],[-3,-1],[-8,-3],[-6,-1]],[[497,1862],[3,15],[17,25],[9,12],[2,3],[1,4],[-3,2],[-4,1],[-56,6],[-7,2],[-4,2],[-6,5],[-4,6],[-2,3],[-1,3],[-3,8],[0,10],[0,8],[0,3],[-2,4],[-4,4],[-9,5],[-6,2],[-6,1]],[[412,1996],[-4,-1],[-4,-1],[-19,-8],[-13,-3]],[[1520,1987],[-4,1],[-7,3],[-5,0]],[[1504,1991],[-8,0]],[[1087,1977],[-9,1],[-7,3],[-11,5],[-6,2]],[[1054,1988],[-4,0],[-6,-5],[-4,-1],[-4,0],[-3,-2],[-3,-2],[-3,0]],[[1027,1978],[-5,1],[-6,1],[-15,6]],[[1001,1986],[-14,-1]],[[898,1969],[-13,4],[-11,8],[-12,5]],[[862,1986],[-12,-4],[-25,-14],[-30,-7],[-26,-20],[-12,-7],[-75,-20],[-20,-10],[-23,-21],[-7,-5],[-9,-3]],[[623,1875],[-8,0],[-6,2],[-10,1]],[[599,1878],[-12,-3],[-19,-17],[-11,-6],[-30,0]],[[527,1852],[3,7],[0,5],[-1,4],[-2,5]],[[527,1873],[-30,-11]],[[1850,1501],[-6,1],[-5,2],[-6,3],[-5,3],[-6,5],[-15,17],[-9,12],[-2,4],[-3,7],[0,4],[-1,4],[4,24],[0,4],[-2,18],[0,7],[0,2],[2,4],[1,1],[1,2],[3,1],[4,3],[16,5],[18,9],[4,2],[5,5],[8,8],[2,4],[1,4],[1,33],[3,17],[1,2],[1,3],[1,3],[2,3],[5,6],[6,10],[3,8],[2,9],[1,5],[0,27],[-2,6],[-3,6],[-8,10],[-5,4],[-5,1]],[[1862,1819],[-28,-5]],[[2149,1525],[-7,1],[-4,2],[-4,1],[-3,3],[-2,2],[-8,4],[-14,3],[-47,5]],[[2060,1546],[-10,-1],[-4,-1],[-13,-7],[-7,-2],[-32,-7],[-11,-4],[-7,-3],[-3,-2],[-14,-6],[-28,-6],[-7,-1]],[[2220,1539],[-19,1]],[[2201,1540],[-8,-3],[-4,-2],[-17,-8],[-13,-1],[-10,-1]],[[1924,1506],[-35,3]],[[1889,1509],[-7,-1],[-6,-1],[-14,-5],[-7,-1],[-5,0]],[[2057,1004],[4,-11],[8,-13],[2,-3],[1,-4],[0,-4],[-2,-6],[-4,-6],[-6,-7],[-5,-5],[-2,-3],[-2,-5],[0,-6],[1,-11],[0,-7],[-3,-11],[-2,-6],[-11,-19],[-2,-3],[-2,-1]],[[2032,873],[-4,0],[-3,2],[-4,1]],[[2021,876],[-3,-1],[-15,-5],[-2,-3],[-2,-3],[-1,-4],[1,-5],[1,-2],[1,-1],[11,-12],[4,-6],[1,-4],[-1,-6],[-3,-9],[-3,-5],[-3,-4],[-21,-16],[-2,-3],[-1,-5],[2,-7],[2,-4],[3,-3],[16,-11],[7,-3],[3,-2],[2,-2],[3,-3],[2,-3],[1,-4],[0,-4],[0,-5],[-1,-5],[-3,-4],[-4,-3],[-9,-6],[-2,-4],[-1,-5],[1,-8],[1,-5],[2,-4],[10,-15],[5,-6],[6,-5],[3,-2],[4,-1],[5,-1],[4,-1]],[[2083,685],[4,0],[4,-2],[4,-2],[6,-4],[4,-6],[2,-3],[2,-4],[1,-4],[0,-9],[-12,-81],[-7,-20],[-5,-7],[-5,-5],[-3,-2],[-2,-4],[-2,-6],[0,-10],[2,-6],[3,-4],[2,-2],[1,-4],[-4,-5],[-3,-3],[-7,-5],[-3,-3],[-1,-5],[0,-8],[1,-11],[2,-3],[3,-7],[2,-3],[3,-3],[15,-11],[5,-6],[3,-2],[3,-2],[4,-2],[5,-1],[9,-1],[4,-1],[5,-1],[3,-2],[1,-4],[0,-3],[-4,-6],[-7,-7],[-2,-3],[-2,-2],[-3,-3],[-3,-1],[-3,-2],[-4,-1],[-3,-2],[-3,-3],[-3,-2],[-2,-3],[-3,-8],[-5,-6],[-5,-5],[-3,-5],[-9,-20],[-7,-12],[-2,-2],[-18,-42],[-5,-10],[-4,-5],[-10,-5],[-12,-3],[-4,-1],[-3,-2],[-3,-2],[-2,-3],[-3,-3],[-10,-11],[-9,-6],[-4,-1],[-4,-1],[-4,-1],[-4,-1],[-3,-2],[-11,-10],[-3,-2],[-13,-7],[-6,-5],[-73,-99],[-3,-2],[-6,-5],[-4,-1],[-4,-1],[-11,-2],[-3,-1],[0,-1],[-1,-2],[-1,-4],[2,-8],[1,-2],[1,-1],[2,-2],[20,-18],[26,-17],[3,-3],[2,-3],[2,-3],[2,-12],[1,-5]],[[2045,656],[5,1],[4,1],[3,1],[3,2],[5,6],[7,9],[5,6],[3,2],[3,1]],[[3905,1032],[124,-20],[67,-22]],[[3828,741],[31,66],[77,22],[13,10],[7,9],[1,4],[0,4],[0,7],[-2,13],[-10,34],[-19,37],[-9,9],[-11,4],[-39,6],[-17,4],[-10,7],[-5,10],[2,8],[6,8],[37,25],[7,3],[9,1],[9,0]],[[3859,742],[17,-3],[14,-9],[-2,-6],[2,-5],[4,-5],[6,-4]],[[3828,741],[31,1]],[[3954,729],[30,-1],[26,-13],[10,-12],[7,-13],[8,-11],[13,-5],[15,-2],[33,-13]],[[3900,710],[25,12],[29,7]],[[3463,3637],[-14,13]],[[3640,3641],[-119,-33],[-58,29]],[[3302,4096],[55,-66],[140,-37],[21,-101],[115,-99],[1,-62]],[[3956,3042],[-27,120],[-49,31]],[[4096,2957],[-34,25]],[[4062,2982],[-3,3]],[[4059,2985],[-5,7],[-21,11],[1,7],[-78,32]],[[3956,3042],[-65,17],[8,27]],[[4062,2982],[-26,11]],[[4059,2985],[37,12]],[[3522,0],[29,107],[69,35],[4,141],[58,88],[1,60],[100,145],[195,13],[118,35]],[[3522,0],[29,107],[69,35],[4,141],[58,88],[1,60],[100,145],[198,13],[115,37]],[[3639,3646],[-5,85]],[[4096,3187],[-29,32],[-90,7],[-22,76],[-97,23],[0,-39],[-52,-4],[-121,49],[-66,160],[-8,92],[29,58]],[[3880,3084],[5,-4]],[[3879,3214],[3,-7],[5,-23]],[[3640,3759],[-2,-16],[3,-25],[4,-14]],[[3341,4096],[12,-13],[24,-18],[27,-16],[39,-15],[30,-9],[21,-13],[15,-15],[21,-31],[6,-19],[12,-31],[12,-25],[24,-21],[9,-6],[21,-22],[9,-9],[15,-25],[3,-28],[-1,-21]],[[3645,3704],[2,-8],[-3,-9],[-12,-31],[-12,-31],[-12,-25],[-3,-21],[0,-16],[6,-15],[27,-40],[9,-19],[3,-15],[3,-41],[6,-21],[18,-7],[31,0],[30,-12],[42,-15],[24,-13],[27,-9],[15,-9],[3,-19],[0,-40],[6,-31],[21,-34],[3,-9]],[[3887,3184],[1,-1],[3,-22],[-3,-12],[-12,-50],[0,-12],[4,-3]],[[3882,3079],[3,1]],[[1413,3672],[21,6],[21,3],[15,6],[15,0],[15,-3],[24,-15],[27,0],[18,3],[24,-3],[12,-7],[30,-3],[6,3],[18,19],[27,9],[15,0],[9,-12],[21,-3],[15,-6],[15,0],[15,12],[6,3],[21,-6],[18,-22],[12,-9],[3,-12],[15,6],[9,-6],[12,-16],[25,-15],[33,6],[9,0],[21,-22],[27,-18],[36,-19],[24,-6],[18,-13],[21,-3],[30,-12],[12,-19],[30,-52],[18,-31],[30,-28],[6,-16],[21,-58],[9,-16],[9,-6],[15,0],[12,12],[12,7],[24,-4],[9,-15],[12,-9],[12,-16],[15,-6],[24,9],[30,-6],[27,-18],[24,-10],[39,-28],[21,-24],[6,-3],[24,9],[15,0],[24,-22],[15,3],[33,0],[15,10],[15,15],[9,0],[24,-9],[21,3],[12,31],[9,6],[6,25],[15,28],[9,24],[6,25],[3,9],[19,10],[15,6],[42,-3],[33,-10],[30,-15],[9,0],[27,6],[30,-3],[15,-6],[30,-19],[18,-3],[33,0],[15,-3],[12,-12],[33,-13],[36,-12],[42,-12],[45,-3],[30,-7],[66,-15],[48,0],[45,-9],[30,-13],[48,-15],[18,-6],[33,-38],[24,-12],[45,-19],[30,-15],[25,-19],[27,-12],[24,-9],[15,0],[18,3],[15,9],[24,6],[24,-3],[15,3],[6,5]],[[58,2988],[-45,15],[-13,4]],[[4089,2944],[7,12]],[[3885,3080],[24,-9],[13,-8]],[[3922,3063],[8,-4],[15,-13],[30,-18],[54,-34],[30,-22],[30,-28]],[[4089,2944],[6,-6],[1,-1]],[[152,2672],[-12,12],[6,16],[36,43],[-6,31],[0,9],[15,28],[-3,19],[-15,40],[-15,31],[-3,12],[-9,25],[-9,12],[-21,19],[-15,12],[-12,13],[-13,3],[-18,-9]],[[1332,2421],[-3,9],[-18,22],[-12,31],[-18,22],[-12,28],[0,43],[-9,22],[-3,21],[3,53],[-3,15],[9,47],[0,21],[12,53],[6,31],[0,31],[15,6],[6,9],[0,13],[-12,15],[-6,28],[-12,13],[-3,15],[0,22],[-3,24],[-6,16],[0,28],[-15,6],[-12,15],[0,13],[6,15],[-3,16],[-18,43],[33,22],[15,15],[3,22],[6,6],[3,16],[21,68],[3,40],[6,22],[0,37],[6,21],[15,38],[24,18],[6,19],[0,24],[-6,35],[0,15],[6,22],[0,15],[3,16],[21,18],[27,16]],[[152,2672],[12,3],[45,0],[21,0],[15,-9],[45,-16],[36,-9],[9,-6],[30,-44],[6,-15],[18,-22],[6,-31],[12,-12],[0,-25],[9,-22],[0,-46],[6,-22],[15,-49],[12,-22]],[[857,2081],[3,0],[15,0],[30,9],[21,-6],[12,0],[33,12],[34,19],[30,24],[30,31],[30,22],[15,3],[30,-3],[30,-9],[0,6],[-9,22],[0,15],[6,22],[9,12],[15,13],[15,6],[39,12],[21,16],[33,34],[21,18],[9,13],[3,15],[3,22],[-3,12]],[[857,2081],[-12,9],[-36,19],[-21,15],[-18,6],[-30,16],[-27,18],[-18,22],[-24,12],[-15,13],[-51,28],[-24,9],[-15,21],[-3,10],[-12,12],[-15,9],[-27,7],[-42,9],[-18,9]],[[1737,1350],[-51,-3],[-39,-3]],[[1611,1338],[-33,6],[-12,12],[-9,22],[-15,6],[-6,16],[-6,21],[-6,10],[-15,9],[-9,15],[-12,41],[-6,12],[-21,16],[-42,15],[-72,40],[-36,16],[-45,12],[-15,12],[-48,56],[-24,19],[-18,6],[-24,3],[-30,-6],[-30,-9],[-24,3],[-21,-3],[-15,-13],[-30,0],[-16,0],[-24,16],[-12,0],[-36,12],[-21,-3],[-21,0],[-24,3],[-36,-6],[-30,-3],[-21,-10],[-15,0],[-30,-24],[-15,-3],[-12,6],[-18,-3],[-27,-10],[-12,0],[-27,10],[-9,12],[-21,0],[-9,3],[-6,13],[0,18],[9,34],[-3,25],[15,22],[18,21],[30,6],[21,19],[15,6],[12,13],[24,15],[21,6],[30,0],[15,16],[21,15],[15,16],[15,12],[15,9],[3,28],[9,28],[18,31],[6,28],[0,22],[3,3]],[[1968,1340],[46,-5],[48,-10],[39,-9],[36,-3],[45,-12],[6,-3],[30,-10],[12,-6],[18,-3],[39,-19],[33,-3],[36,-3],[24,-3],[15,0],[33,12],[57,10],[21,3],[36,-6],[27,-7],[75,-21],[54,-9],[27,-4],[45,-3],[18,0],[28,7],[30,9],[36,3],[15,0],[15,-6],[72,9],[36,6],[33,3],[36,-3],[11,-1]],[[1737,1350],[30,0],[21,3],[33,0],[36,-3],[24,-9],[25,-3],[57,3],[5,-1]],[[3100,1253],[19,-2],[15,-9],[18,-9],[39,-38],[15,-6],[18,0],[36,6],[27,10]],[[4096,1237],[-7,5],[-21,21],[-12,19],[-9,25],[-3,25],[3,24],[3,28],[9,44],[15,24],[15,13],[7,5]],[[3287,1205],[27,6],[24,0],[24,-9],[18,-10],[12,-15],[24,-19],[33,-15],[15,-6],[45,-7],[15,-3],[51,0],[18,-3],[27,-9],[9,-6],[33,-13],[18,-9],[40,-12],[48,-19],[9,0],[60,-25],[24,-9],[33,6],[24,-9],[18,-12],[54,-44],[27,-18],[24,-16],[18,-12],[27,6],[10,0]],[[3802,582],[26,-3]],[[3641,276],[0,6],[3,19],[6,15],[9,10],[27,15],[12,19],[6,18],[4,28],[12,22],[6,25],[0,37],[9,21],[12,22],[21,28],[18,15],[15,7],[1,-1]],[[3828,579],[18,-12],[21,-22],[33,-31],[21,-9],[36,-34],[27,-18],[36,-4],[27,7],[24,24],[25,18]],[[3635,149],[-3,28],[3,28],[6,28],[-3,15],[3,28]],[[3635,149],[-12,-18],[-27,-16],[-39,-22],[-6,-6],[0,-15],[-6,-19],[-3,-37],[-6,-15],[0,-1]],[[0,0],[0,1581],[0,2515],[3615,0],[481,0],[0,-4096],[-4096,0]],[[3831,598],[-5,-29],[-28,16],[19,19],[14,-6]],[[4088,2883],[1,-38],[-24,-9],[-8,42],[31,5]],[[3943,3078],[-48,-33],[-16,42],[44,16],[20,-25]],[[4057,2987],[-18,22],[26,11],[4,-15],[-12,-18]],[[3903,3178],[-24,9],[-8,25],[32,8],[0,-42]],[[3470,3629],[-15,16],[3,17],[22,-9],[-10,-24]],[[3626,3681],[-39,23],[21,58],[77,-8],[-59,-73]],[[0,657],[181,-213],[236,-35],[46,-59],[72,-25],[28,-84],[161,-202],[119,27],[194,102],[61,106],[-19,36],[10,187],[-28,63],[92,179],[138,71],[327,95],[15,123],[149,42],[0,59],[-59,63],[31,145],[61,14],[89,-41],[154,74],[58,88],[-33,66],[-159,-36],[-113,31],[-7,65],[113,153],[-21,62],[-80,17],[37,45],[114,52],[30,63],[45,23],[52,-8],[71,121],[75,47],[345,19],[32,-35],[-7,-35],[59,-48],[12,-64],[120,-21],[-7,44],[-23,-4],[11,38],[-25,13],[20,8],[-8,33],[44,-21],[-6,20],[25,8],[-38,41],[13,53],[51,66],[0,43],[149,117],[-20,4],[20,23],[-56,93],[21,93],[84,-6],[22,-81],[38,-7],[1,-45],[51,14],[51,123],[48,3],[20,38],[55,7],[120,-72],[-5,-58],[38,-26],[22,-64],[-22,-78],[30,-67],[-22,-93],[70,-210],[-32,-50],[26,-63],[-16,-12],[38,-50],[-29,-5],[-2,-67],[-108,-49],[-29,-44],[-92,-2],[-69,-37],[-121,5],[-83,-37],[-96,3],[75,-156],[35,-8],[28,-52],[15,-69],[-22,-86],[89,-64],[2,-99],[-73,-54],[-12,-46],[88,-40],[-82,-35],[-119,-153],[-118,-11],[-136,-79],[-20,-77],[-44,4],[-23,34],[-75,5],[5,-51],[-60,-114],[8,-50],[87,-91],[8,61],[145,-60],[66,9],[9,31],[42,-10],[1,-46],[61,-34],[-16,-290],[-2924,0],[0,657]],[[1976,779],[47,60],[-27,35],[46,18],[26,74],[-15,123],[77,38],[-2,42],[29,34],[-24,123],[42,63],[-4,75],[77,105],[-32,257],[51,90],[476,-33],[95,-85],[-16,-34],[16,-30],[-41,4],[18,-27],[-19,-10],[47,-16],[-18,-39],[29,-23],[0,-67],[65,21],[38,56],[78,-158],[35,-8],[28,-52],[15,-69],[-8,-58],[-58,-23],[-135,24],[-76,-66],[-53,34],[-70,-14],[-92,20],[-47,46],[-47,-34],[-33,26],[-12,-15],[5,-34],[44,2],[39,-42],[-64,-97],[21,-13],[-14,-119],[27,-55],[-34,-27],[39,-46],[12,-66],[-29,-88],[45,-107],[-51,-81],[-6,-67],[92,-107],[-32,-339],[-101,0],[-137,61],[-21,-10],[-19,65],[26,87],[-20,22],[9,107],[-128,4],[-44,71],[-82,35],[50,227],[-25,23],[-55,-35],[-33,46],[30,35],[-50,41]]]}