{"objects":{"water":{"type":"GeometryCollection","geometries":[{"type":"Polygon","properties":{"kind":"lake","name":"Vaal Dam","reservoir":true,"area":522838400,"sort_rank":200,"source":"naturalearthdata.com","min_zoom":0.0,"id":1222},"arcs":[[218]]},{"type":"LineString","properties":{"source":"naturalearthdata.com","kind":"lake","reservoir":true,"sort_rank":367,"boundary":true,"min_zoom":0.0,"id":1222},"arcs":[219]}]},"buildings":{"type":"GeometryCollection","geometries":[]},"places":{"type":"GeometryCollection","geometries":[{"type":"Point","properties":{"name:ps":"\u0628\u0648\u062a\u0633\u0648\u0627\u0646\u0627","name:ka":"\u10d1\u10dd\u10e2\u10e1\u10d5\u10d0\u10dc\u10d0","name:ko":"\ubcf4\uce20\uc640\ub098","name:cv":"\u0411\u043e\u0442\u0441\u0432\u0430\u043d\u0430","name:km":"\u1794\u17bb\u178f\u179f\u17d2\u179c\u17b6\u178e\u17b6","name:kk":"\u0411\u043e\u0442\u0441\u0432\u0430\u043d\u0430","name:tt":"\u0411\u043e\u0442\u0441\u0432\u0430\u043d\u0430","name:tr":"Botsvana","name:th":"\u0e1b\u0e23\u0e30\u0e40\u0e17\u0e28\u0e1a\u0e2d\u0e15\u0e2a\u0e27\u0e32\u0e19\u0e32","name:ti":"\u1266\u1275\u1235\u12cb\u1293","name:ks":"\u0628\u0648\u062a\u064e\u0633\u0648\u0627\u0646\u0627","name:to":"Potisiuana","name:pa":"\u0a2c\u0a4b\u0a24\u0a38\u0a35\u0a3e\u0a28\u0a3e","name:os":"\u0411\u043e\u0442\u0441\u0432\u0430\u043d\u00e6","name:or":"\u0b2c\u0b4b\u0b1f\u0b38\u0b4d\u0b2c\u0b3e\u0b28\u0b4d","name:ce":"\u0411\u043e\u0442\u0441\u0432\u0430\u043d\u0430","name:ta":"\u0baa\u0bcb\u0b9f\u0bcd\u0bb8\u0bcd\u0bb5\u0bbe\u0ba9\u0bbe","name:tg":"\u0411\u043e\u0442\u0441\u0432\u0430\u043d\u0430","name:ky":"\u0411\u043e\u0442\u0441\u0432\u0430\u043d\u0430","name:te":"\u0c2c\u0c4b\u0c1f\u0c4d\u0c38\u0c4d\u0c35\u0c3e\u0c28\u0c3e","name:hr":"Bocvana","name:de":"Botsuana","name:dz":"\u0f56\u0fb7\u0f7c\u0f59\u0f0b\u0f5d\u0f0b\u0f53","source":"openstreetmap.org","name:nv":"Tswana Dine\u02bc\u00e9 Bik\u00e9yah","name:kn":"\u0cac\u0cca\u0c9f\u0ccd\u0cb8\u0ccd\u200c\u0cb5\u0cbe\u0ca8\u0cbe","name:dv":"\u0784\u07ae\u0793\u07aa\u0790\u07b0\u0788\u07a7\u0782\u07a7","name:lv":"Botsv\u0101na","name:lt":"Botsvana","name:uz":"Botsvana","name:he":"\u05d1\u05d5\u05d8\u05e1\u05d5\u05d5\u05e0\u05d4","kind":"country","name:ur":"\u0628\u0648\u062a\u0633\u0648\u0627\u0646\u0627","name:la":"Botsuana","name:lg":"Botiswana","name:uk":"\u0411\u043e\u0442\u0441\u0432\u0430\u043d\u0430","name:hy":"\u0532\u0578\u057f\u057d\u057e\u0561\u0576\u0561","name:ug":"\u0628\u0648\u062a\u0633\u06cb\u0627\u0646\u0627","name:qu":"Butswana","name:lo":"\u0e9a\u0ead\u0e94\u0eaa\u0eb0\u0ea7\u0eb2\u0e99\u0eb2","population":1639833,"name:el":"\u039c\u03c0\u03bf\u03c4\u03c3\u03bf\u03c5\u03ac\u03bd\u03b1","name:eo":"Bocvano","name":"Botswana","name:ee":"Botswana nutome","min_zoom":2.0,"name:gu":"\u0aac\u0acb\u0aa4\u0acd\u0ab8\u0acd\u0ab5\u0abe\u0aa8\u0abe","name:yi":"\u05d1\u05d0\u05e6\u05d5\u05d5\u05d0\u05e0\u05e2","name:tn":"Lefatshe la Botswana","name:es":"Botsuana","name:az":"Botsvana","name:mr":"\u092c\u094b\u091f\u094d\u0938\u0935\u093e\u0928\u093e","name:ar":"\u0628\u0648\u062a\u0633\u0648\u0627\u0646\u0627","name:my":"\u1018\u1031\u102c\u1037\u1005\u103a\u101d\u102b\u1014\u102c","official_name":"Republic of Botswana;Lefatse la Botswana","name:is":"Botsvana","name:am":"\u1266\u1275\u1235\u12cb\u1293","name:ve":"Vhu-Tswana","name:ml":"\u0d2c\u0d4b\u0d1f\u0d4d\u0d38\u0d4d\u0d35\u0d3e\u0d28","name:ru":"\u0411\u043e\u0442\u0441\u0432\u0430\u043d\u0430","name:mn":"\u0411\u043e\u0442\u0441\u0432\u0430\u043d","id":424313751,"name:mk":"\u0411\u043e\u0446\u0432\u0430\u043d\u0430","name:vo":"Zvan\u00e4n","name:zu":"i-Botswana","name:ha":"Baswana","name:ff":"Botswaana","name:hi":"\u092c\u094b\u0924\u094d\u0938\u0935\u093e\u0928\u093e","name:mg":"Botsoana","name:fo":"Botsvana","name:zh-yue":"\u6ce2\u8328\u83ef\u62ff","name:zh":"\u535a\u8328\u74e6\u7eb3","name:gv":"Yn Votswaan","name:so":"Botuswaana","name:sr":"\u0411\u043e\u0446\u0432\u0430\u043d\u0430","name:sl":"Bocvana","name:ja":"\u30dc\u30c4\u30ef\u30ca","name:si":"\u0db6\u0ddc\u0dc3\u0dca\u0da7\u0dca\u0dc0\u0dcf\u0db1\u0dcf","name:sh":"Bocvana","name:na":"Botwana","name:sc":"Botzuana","name:ne":"\u092c\u094b\u091f\u094d\u0938\u094d\u0935\u093e\u0928\u093e","name:sa":"\u092c\u094b\u0924\u094d\u0938\u0935\u093e\u0928\u093e","name:bs":"Bocvana","name:bm":"B\u0254tisiwana","name:bn":"\u09ac\u09a4\u09b8\u09cb\u09af\u09bc\u09be\u09a8\u09be","name:bo":"\u0f56\u0f7c\u0f59\u0f0b\u0f5d\u0f0b\u0f53\u0f0d","name:be":"\u0411\u0430\u0442\u0441\u0432\u0430\u043d\u0430","name:bg":"\u0411\u043e\u0442\u0441\u0443\u0430\u043d\u0430","name:ss":"\u00c9Butjw\u00e1na","name:ba":"\u0411\u043e\u0442\u0441\u0432\u0430\u043d\u0430","name:sq":"Botsvana","name:ga":"An Bhotsu\u00e1in","name:gd":"Botsuana","name:wa":"Boswana","name:gl":"Botsuana","name:fa":"\u0628\u0648\u062a\u0633\u0648\u0627\u0646\u0627","name:yo":"Or\u00edl\u1eb9\u0301\u00e8de B\u1ecd\u0300t\u00ecs\u00faw\u00e1n\u00e0","name:ak":"B\u0254tswana"},"coordinates":[1524,3115]},{"type":"Point","properties":{"source":"naturalearthdata.com","kind":"locality","name":"Johannesburg","country_capital":true,"population":3435000,"min_zoom":3.0,"id":7239},"coordinates":[4025,713]},{"type":"Point","properties":{"source":"openstreetmap.org","kind":"region","name":"Ghanzi District","kind_detail":"state","min_zoom":4.0,"id":2671914031},"coordinates":[190,3934]},{"type":"Point","properties":{"name:pt":"Noroeste","name:short":"NW","name:ja":"\u5317\u897f\u5dde","name:eo":"Nordokcidenta Provinco","min_zoom":4.0,"name:ru":"\u0421\u0435\u0432\u0435\u0440\u043e-\u0417\u0430\u043f\u0430\u0434\u043d\u0430\u044f \u043f\u0440\u043e\u0432\u0438\u043d\u0446\u0438\u044f","name:st":"Leboya Bophirimela","id":474842937,"name:af":"Noordwes","name:zu":"Nyakatho-Ntshonalanga","kind":"region","name":"North West","kind_detail":"state","name:de":"Nordwest","source":"openstreetmap.org","name:fr":"Nord-Ouest","name:xh":"Mntla-Ntshona"},"coordinates":[2297,740]},{"type":"Point","properties":{"name:zu":"iGauteng","kind":"region","name:short":"GP","name":"Gauteng","kind_detail":"state","name:eo":"\u0124a\u016dtengo","source":"openstreetmap.org","min_zoom":4.0,"name:xh":"iRhawuti","name:ru":"\u0413\u0430\u0443\u0442\u0435\u043d\u0433","id":474842956,"name:ja":"\u30cf\u30a6\u30c6\u30f3\u5dde"},"coordinates":[4064,899]},{"type":"Point","properties":{"source":"openstreetmap.org","kind":"region","name":"Southern District","id":2671914047,"kind_detail":"state","min_zoom":4.0,"name:de":"S\u00fcdlicher Distrikt"},"coordinates":[1515,1809]},{"type":"Point","properties":{"source":"openstreetmap.org","kind":"region","name":"Kweneng District","kind_detail":"state","min_zoom":4.0,"id":2671914034},"coordinates":[1763,2527]},{"type":"Point","properties":{"source":"openstreetmap.org","kind":"region","name":"Kgatleng District","kind_detail":"state","min_zoom":4.0,"id":2671914033},"coordinates":[2855,2333]},{"type":"Point","properties":{"source":"naturalearthdata.com","kind":"locality","name":"Gaborone","country_capital":true,"population":208411,"min_zoom":5.0,"id":7078},"coordinates":[2485,1932]},{"type":"Point","properties":{"source":"naturalearthdata.com","kind":"locality","name":"Mahalapye","population":50744,"min_zoom":5.0,"id":6724},"coordinates":[3146,3170]},{"type":"Point","properties":{"source":"naturalearthdata.com","kind":"locality","name":"Serowe","population":48573,"region_capital":true,"min_zoom":5.0,"id":6725},"coordinates":[3066,3738]},{"type":"Point","properties":{"source":"naturalearthdata.com","kind":"locality","name":"Vereeniging","population":1074000,"min_zoom":6.0,"id":5003},"coordinates":[3974,329]},{"type":"Point","properties":{"source":"naturalearthdata.com","kind":"locality","name":"Klerksdorp","population":178921,"min_zoom":6.0,"id":5693},"coordinates":[3000,143]},{"type":"Point","properties":{"source":"naturalearthdata.com","kind":"locality","name":"Rustenburg","population":165976,"min_zoom":6.0,"id":5691},"coordinates":[3452,1128]},{"type":"Point","properties":{"source":"naturalearthdata.com","kind":"locality","name":"Mmabatho","population":104428,"region_capital":true,"min_zoom":6.0,"id":5692},"coordinates":[2265,984]},{"type":"Point","properties":{"source":"naturalearthdata.com","kind":"locality","name":"Molepolole","population":63248,"region_capital":true,"min_zoom":6.0,"id":6146},"coordinates":[2192,2129]},{"type":"Point","properties":{"source":"naturalearthdata.com","kind":"locality","name":"Vryburg","population":49588,"min_zoom":6.0,"id":5690},"coordinates":[1624,79]}]},"transit":{"type":"GeometryCollection","geometries":[{"type":"MultiLineString","properties":{"kind":"train","network":"Metrorail Gauteng","sort_rank":275,"source":"openstreetmap.org","min_zoom":6.0,"operator":"Metrorail","osm_relation":true,"name":"George Goch\u2013Johannesburg\u2013Naledi"},"arcs":[[140],[141],[142]]},{"type":"MultiLineString","properties":{"kind":"train","network":"Metrorail Gauteng","sort_rank":275,"source":"openstreetmap.org","min_zoom":6.0,"operator":"Metrorail","osm_relation":true,"name":"Faraday\u2013Naledi"},"arcs":[[143],[144]]},{"type":"MultiLineString","properties":{"osm_relation":true,"source":"openstreetmap.org","kind":"train","name":"Johannesburg\u2013East London","sort_rank":275,"min_zoom":6.0,"operator":"Shosholoza Meyl"},"arcs":[[145],[146],[147],[148]]},{"type":"LineString","properties":{"kind":"train","network":"Metrorail Gauteng","sort_rank":275,"source":"openstreetmap.org","min_zoom":6.0,"operator":"Metrorail","osm_relation":true,"name":"Germiston\u2013President\u2013Kwesine"},"arcs":[149]},{"type":"MultiLineString","properties":{"kind":"train","network":"Metrorail Gauteng","sort_rank":275,"source":"openstreetmap.org","min_zoom":6.0,"operator":"Metrorail","osm_relation":true,"name":"Westgate\u2013Naledi"},"arcs":[[150],[151],[152],[153],[154],[155]]},{"type":"MultiLineString","properties":{"kind":"train","network":"Metrorail Gauteng","sort_rank":275,"source":"openstreetmap.org","min_zoom":6.0,"operator":"Metrorail","osm_relation":true,"name":"Johannesburg\u2013Oberholzer"},"arcs":[[156],[157],[158]]},{"type":"MultiLineString","properties":{"kind":"train","name":"Germiston\u2013Vereeniging","sort_rank":275,"source":"openstreetmap.org","min_zoom":6.0,"operator":"Metrorail","osm_relation":true,"network":"Metrorail Gauteng"},"arcs":[[159],[160]]},{"type":"MultiLineString","properties":{"kind":"train","network":"Metrorail Gauteng","sort_rank":275,"source":"openstreetmap.org","min_zoom":6.0,"operator":"Metrorail","osm_relation":true,"name":"Johannesburg\u2013Leralla"},"arcs":[[161],[162],[163]]},{"type":"MultiLineString","properties":{"kind":"train","name":"Johannesburg\u2013Randfontein","sort_rank":275,"source":"openstreetmap.org","min_zoom":6.0,"operator":"Metrorail","osm_relation":true,"network":"Metrorail Gauteng"},"arcs":[[164],[165]]},{"type":"MultiLineString","properties":{"kind":"train","network":"Metrorail Gauteng","sort_rank":275,"source":"openstreetmap.org","min_zoom":6.0,"operator":"Metrorail","osm_relation":true,"name":"Pretoria\u2013Mabopane"},"arcs":[[166],[167]]},{"type":"MultiLineString","properties":{"kind":"train","name":"Soweto Business Express","sort_rank":275,"source":"openstreetmap.org","min_zoom":6.0,"operator":"Metrorail","osm_relation":true,"network":"Metrorail Gauteng"},"arcs":[[168],[169]]},{"type":"MultiLineString","properties":{"osm_relation":true,"source":"openstreetmap.org","kind":"train","name":"Johannesburg\u2013Cape Town","sort_rank":275,"min_zoom":6.0,"operator":"Shosholoza Meyl"},"arcs":[[170],[171],[172]]},{"type":"MultiLineString","properties":{"kind":"train","name":"George Goch\u2013Johannesburg\u2013Vereeniging","sort_rank":275,"source":"openstreetmap.org","min_zoom":6.0,"operator":"Metrorail","osm_relation":true,"network":"Metrorail Gauteng"},"arcs":[[173],[174],[175],[176]]},{"type":"MultiLineString","properties":{"source":"openstreetmap.org","kind":"train","name":"Train: Johannesburg\u2013Maputo","sort_rank":275,"min_zoom":6.0,"osm_relation":true},"arcs":[[177],[178],[179]]},{"type":"MultiLineString","properties":{"kind":"train","name":"Pretoria\u2013Saulsville","sort_rank":275,"source":"openstreetmap.org","min_zoom":6.0,"operator":"Metrorail","osm_relation":true,"network":"Metrorail Gauteng"},"arcs":[[180],[181]]},{"type":"MultiLineString","properties":{"kind":"train","name":"Johannesburg\u2013Springs","sort_rank":275,"source":"openstreetmap.org","min_zoom":6.0,"operator":"Metrorail","osm_relation":true,"network":"Metrorail Gauteng"},"arcs":[[182],[183],[184]]},{"type":"MultiLineString","properties":{"kind":"train","name":"Airport Line","sort_rank":275,"colour":"yellow","source":"openstreetmap.org","min_zoom":6.0,"network":"Gautrain","osm_relation":true,"colour_name":"yellow"},"arcs":[[185],[186]]},{"type":"MultiLineString","properties":{"kind":"train","name":"Tshwane Business Express","sort_rank":275,"source":"openstreetmap.org","min_zoom":6.0,"operator":"Metrorail","osm_relation":true,"network":"Metrorail Gauteng"},"arcs":[[187],[188],[189]]},{"type":"MultiLineString","properties":{"osm_relation":true,"source":"openstreetmap.org","kind":"train","name":"Johannesburg\u2013Port Elizabeth","sort_rank":275,"min_zoom":6.0,"operator":"Shosholoza Meyl"},"arcs":[[190],[191],[192],[193]]},{"type":"MultiLineString","properties":{"kind":"train","name":"Germiston\u2013New Canada","sort_rank":275,"source":"openstreetmap.org","min_zoom":6.0,"operator":"Metrorail","osm_relation":true,"network":"Metrorail Gauteng"},"arcs":[[194],[195]]},{"type":"MultiLineString","properties":{"kind":"train","network":"Metrorail Gauteng","sort_rank":275,"source":"openstreetmap.org","min_zoom":6.0,"operator":"Metrorail","osm_relation":true,"name":"Belle Ombre\u2013Mabopane"},"arcs":[[196],[197]]},{"type":"MultiLineString","properties":{"kind":"train","name":"Johannesburg\u2013Pretoria","sort_rank":275,"source":"openstreetmap.org","min_zoom":6.0,"operator":"Metrorail","osm_relation":true,"network":"Metrorail Gauteng"},"arcs":[[198],[199],[200]]},{"type":"MultiLineString","properties":{"kind":"train","network":"Gautrain","sort_rank":275,"colour":"blue","name":"East-West Commuter Line","source":"openstreetmap.org","min_zoom":6.0,"operator":"Bombela Consession","osm_relation":true,"colour_name":"blue"},"arcs":[[201],[202]]},{"type":"MultiLineString","properties":{"kind":"train","network":"Metrorail Gauteng","sort_rank":275,"source":"openstreetmap.org","min_zoom":6.0,"operator":"Metrorail","osm_relation":true,"name":"George Goch\u2013Crown\u2013Naledi"},"arcs":[[203],[204],[205]]},{"type":"LineString","properties":{"kind":"train","name":"Pretoria\u2013De Wildt","sort_rank":275,"source":"openstreetmap.org","min_zoom":6.0,"operator":"Metrorail","osm_relation":true,"network":"Metrorail Gauteng"},"arcs":[206]},{"type":"MultiLineString","properties":{"kind":"train","network":"Gautrain","sort_rank":275,"colour":"red","name":"North-South Commuter Line","source":"openstreetmap.org","min_zoom":6.0,"osm_relation":true,"colour_name":"red"},"arcs":[[207],[208]]},{"type":"MultiLineString","properties":{"kind":"train","network":"Metrorail Gauteng","sort_rank":275,"source":"openstreetmap.org","min_zoom":6.0,"operator":"Metrorail","osm_relation":true,"name":"George Goch\u2013Crown\u2013Vereeniging"},"arcs":[[209],[210],[211],[212],[213],[214]]},{"type":"MultiLineString","properties":{"kind":"train","network":"Metrorail Gauteng","sort_rank":275,"source":"openstreetmap.org","min_zoom":6.0,"operator":"Metrorail","osm_relation":true,"name":"Johannesburg\u2013Daveyton"},"arcs":[[215],[216],[217]]}]},"pois":{"type":"GeometryCollection","geometries":[]},"boundaries":{"type":"GeometryCollection","geometries":[{"type":"MultiLineString","properties":{"source":"naturalearthdata.com","kind":"country","sort_rank":262,"kind_detail":"2","min_zoom":0.0,"id":263},"arcs":[[0],[1],[2],[3],[4],[5],[6],[7],[8],[9],[10],[11],[12],[13],[14],[15],[16],[17],[18],[19],[20],[21],[22],[23],[24],[25],[26],[27],[28],[29],[30],[31],[32],[33],[34],[35],[36],[37],[38],[39],[40],[41],[42],[43]]},{"type":"LineString","properties":{"source":"naturalearthdata.com","kind":"region","sort_rank":256,"kind_detail":"4","min_zoom":5.0,"id":4645},"arcs":[44]},{"type":"MultiLineString","properties":{"source":"naturalearthdata.com","kind":"region","sort_rank":256,"kind_detail":"4","min_zoom":2.0,"id":1876},"arcs":[[45],[46],[47],[48],[49],[50],[51],[52],[53],[54]]},{"type":"MultiLineString","properties":{"source":"naturalearthdata.com","kind":"region","sort_rank":256,"kind_detail":"4","min_zoom":2.0,"id":1874},"arcs":[[55],[56],[57],[58],[59],[60],[61],[62],[63],[64],[65],[66],[67]]},{"type":"MultiLineString","properties":{"source":"naturalearthdata.com","kind":"region","sort_rank":256,"kind_detail":"4","min_zoom":2.0,"id":1878},"arcs":[[68],[69],[70],[71],[72],[73]]},{"type":"MultiLineString","properties":{"source":"naturalearthdata.com","kind":"region","sort_rank":256,"kind_detail":"4","min_zoom":2.0,"id":1879},"arcs":[[74],[75],[76],[77],[78],[79],[80],[81],[82],[83],[84],[85],[86]]},{"type":"MultiLineString","properties":{"source":"naturalearthdata.com","kind":"region","sort_rank":256,"kind_detail":"4","min_zoom":2.0,"id":1883},"arcs":[[87],[88],[89],[90],[91],[92]]},{"type":"LineString","properties":{"source":"naturalearthdata.com","kind":"region","sort_rank":256,"kind_detail":"4","min_zoom":5.0,"id":4657},"arcs":[93]},{"type":"LineString","properties":{"source":"naturalearthdata.com","kind":"region","sort_rank":256,"kind_detail":"4","min_zoom":5.0,"id":4658},"arcs":[94]},{"type":"LineString","properties":{"source":"naturalearthdata.com","kind":"region","sort_rank":256,"kind_detail":"4","min_zoom":5.0,"id":4659},"arcs":[95]},{"type":"LineString","properties":{"source":"naturalearthdata.com","kind":"region","sort_rank":256,"kind_detail":"4","min_zoom":5.0,"id":4660},"arcs":[96]},{"type":"MultiLineString","properties":{"source":"naturalearthdata.com","kind":"region","sort_rank":256,"kind_detail":"4","min_zoom":5.0,"id":4661},"arcs":[[97],[98],[99],[100],[101],[102]]},{"type":"MultiLineString","properties":{"source":"naturalearthdata.com","kind":"region","sort_rank":256,"kind_detail":"4","min_zoom":5.0,"id":4647},"arcs":[[103],[104]]},{"type":"MultiLineString","properties":{"source":"naturalearthdata.com","kind":"region","sort_rank":256,"kind_detail":"4","min_zoom":5.0,"id":4648},"arcs":[[105],[106],[107],[108],[109]]},{"type":"LineString","properties":{"source":"naturalearthdata.com","kind":"region","sort_rank":256,"kind_detail":"4","min_zoom":5.0,"id":4649},"arcs":[110]},{"type":"LineString","properties":{"source":"naturalearthdata.com","kind":"region","sort_rank":256,"kind_detail":"4","min_zoom":5.0,"id":4650},"arcs":[111]},{"type":"MultiLineString","properties":{"source":"naturalearthdata.com","kind":"region","sort_rank":256,"kind_detail":"4","min_zoom":5.0,"id":4651},"arcs":[[112],[113],[114]]},{"type":"MultiLineString","properties":{"source":"naturalearthdata.com","kind":"region","sort_rank":256,"kind_detail":"4","min_zoom":5.0,"id":4652},"arcs":[[115],[116]]},{"type":"LineString","properties":{"source":"naturalearthdata.com","kind":"region","sort_rank":256,"kind_detail":"4","min_zoom":5.0,"id":4653},"arcs":[117]},{"type":"MultiLineString","properties":{"source":"naturalearthdata.com","kind":"region","sort_rank":256,"kind_detail":"4","min_zoom":5.0,"id":4654},"arcs":[[118],[119],[120]]},{"type":"LineString","properties":{"source":"naturalearthdata.com","kind":"region","sort_rank":256,"kind_detail":"4","min_zoom":5.0,"id":4655},"arcs":[121]},{"type":"MultiLineString","properties":{"source":"naturalearthdata.com","kind":"region","sort_rank":256,"kind_detail":"4","min_zoom":5.0,"id":9016},"arcs":[[122],[123]]},{"type":"MultiLineString","properties":{"source":"naturalearthdata.com","kind":"region","sort_rank":256,"kind_detail":"4","min_zoom":5.0,"id":9018},"arcs":[[124],[125],[126],[127],[128],[129],[130],[131]]},{"type":"MultiLineString","properties":{"source":"naturalearthdata.com","kind":"region","sort_rank":256,"kind_detail":"4","min_zoom":5.0,"id":9019},"arcs":[[132],[133],[134],[135],[136],[137]]},{"type":"MultiLineString","properties":{"source":"naturalearthdata.com","kind":"region","sort_rank":256,"kind_detail":"4","min_zoom":5.0,"id":9020},"arcs":[[138],[139]]}]},"roads":{"type":"GeometryCollection","geometries":[{"type":"LineString","properties":{"source":"naturalearthdata.com","kind":"minor_road","sort_rank":355,"kind_detail":"tertiary","min_zoom":6.0,"id":11067},"arcs":[220]},{"type":"LineString","properties":{"source":"naturalearthdata.com","kind":"minor_road","kind_detail":"tertiary","sort_rank":355,"landuse_kind":"urban_area","min_zoom":6.0,"id":45587},"arcs":[221]},{"type":"LineString","properties":{"source":"naturalearthdata.com","kind":"minor_road","sort_rank":355,"kind_detail":"tertiary","min_zoom":6.0,"id":45587},"arcs":[222]},{"type":"LineString","properties":{"source":"naturalearthdata.com","kind":"major_road","sort_rank":379,"kind_detail":"secondary","min_zoom":3.0,"id":45591},"arcs":[223]},{"type":"LineString","properties":{"source":"naturalearthdata.com","kind":"major_road","kind_detail":"secondary","sort_rank":379,"landuse_kind":"urban_area","min_zoom":3.0,"id":45623},"arcs":[224]},{"type":"MultiLineString","properties":{"source":"naturalearthdata.com","kind":"major_road","sort_rank":379,"kind_detail":"secondary","min_zoom":3.0,"id":45623},"arcs":[[225],[226]]},{"type":"LineString","properties":{"source":"naturalearthdata.com","kind":"major_road","kind_detail":"secondary","sort_rank":379,"landuse_kind":"urban_area","min_zoom":4.0,"id":45624},"arcs":[227]},{"type":"LineString","properties":{"source":"naturalearthdata.com","kind":"major_road","sort_rank":379,"kind_detail":"secondary","min_zoom":4.0,"id":45624},"arcs":[228]},{"type":"LineString","properties":{"source":"naturalearthdata.com","kind":"major_road","sort_rank":379,"kind_detail":"secondary","min_zoom":4.0,"id":45630},"arcs":[229]},{"type":"LineString","properties":{"source":"naturalearthdata.com","kind":"minor_road","sort_rank":355,"kind_detail":"tertiary","min_zoom":6.0,"id":45726},"arcs":[230]},{"type":"LineString","properties":{"source":"naturalearthdata.com","kind":"minor_road","sort_rank":355,"kind_detail":"tertiary","min_zoom":6.0,"id":45737},"arcs":[231]},{"type":"LineString","properties":{"source":"naturalearthdata.com","kind":"major_road","kind_detail":"secondary","sort_rank":379,"landuse_kind":"urban_area","min_zoom":3.0,"id":45756},"arcs":[232]},{"type":"LineString","properties":{"source":"naturalearthdata.com","kind":"major_road","sort_rank":379,"kind_detail":"secondary","min_zoom":3.0,"id":45756},"arcs":[233]},{"type":"LineString","properties":{"source":"naturalearthdata.com","kind":"major_road","kind_detail":"secondary","sort_rank":379,"landuse_kind":"urban_area","min_zoom":4.0,"id":45763},"arcs":[234]},{"type":"LineString","properties":{"source":"naturalearthdata.com","kind":"minor_road","sort_rank":355,"kind_detail":"tertiary","min_zoom":6.0,"id":45790},"arcs":[235]},{"type":"LineString","properties":{"source":"naturalearthdata.com","kind":"minor_road","sort_rank":355,"kind_detail":"tertiary","min_zoom":6.0,"id":45889},"arcs":[236]},{"type":"LineString","properties":{"source":"naturalearthdata.com","kind":"minor_road","sort_rank":355,"kind_detail":"tertiary","min_zoom":6.0,"id":45997},"arcs":[237]},{"type":"LineString","properties":{"source":"naturalearthdata.com","kind":"minor_road","sort_rank":355,"kind_detail":"tertiary","min_zoom":6.0,"id":46000},"arcs":[238]},{"type":"LineString","properties":{"source":"naturalearthdata.com","kind":"major_road","kind_detail":"secondary","sort_rank":379,"landuse_kind":"urban_area","min_zoom":3.0,"id":46015},"arcs":[239]},{"type":"LineString","properties":{"source":"naturalearthdata.com","kind":"major_road","sort_rank":379,"kind_detail":"secondary","min_zoom":3.0,"id":46015},"arcs":[240]},{"type":"LineString","properties":{"source":"naturalearthdata.com","kind":"minor_road","sort_rank":355,"kind_detail":"tertiary","min_zoom":6.0,"id":46034},"arcs":[241]},{"type":"LineString","properties":{"source":"naturalearthdata.com","kind":"major_road","kind_detail":"secondary","sort_rank":379,"landuse_kind":"urban_area","min_zoom":3.0,"id":46056},"arcs":[242]},{"type":"LineString","properties":{"source":"naturalearthdata.com","kind":"major_road","sort_rank":379,"kind_detail":"secondary","min_zoom":3.0,"id":46056},"arcs":[243]},{"type":"LineString","properties":{"source":"naturalearthdata.com","kind":"minor_road","kind_detail":"tertiary","sort_rank":355,"landuse_kind":"urban_area","min_zoom":6.0,"id":46057},"arcs":[244]},{"type":"LineString","properties":{"source":"naturalearthdata.com","kind":"minor_road","kind_detail":"tertiary","sort_rank":355,"landuse_kind":"urban_area","min_zoom":6.0,"id":46057},"arcs":[245]},{"type":"LineString","properties":{"source":"naturalearthdata.com","kind":"minor_road","sort_rank":355,"kind_detail":"tertiary","min_zoom":6.0,"id":46057},"arcs":[246]},{"type":"LineString","properties":{"source":"naturalearthdata.com","kind":"minor_road","sort_rank":355,"kind_detail":"tertiary","min_zoom":6.0,"id":46096},"arcs":[247]},{"type":"LineString","properties":{"source":"naturalearthdata.com","kind":"minor_road","kind_detail":"tertiary","sort_rank":355,"landuse_kind":"urban_area","min_zoom":6.0,"id":46114},"arcs":[248]},{"type":"LineString","properties":{"source":"naturalearthdata.com","kind":"minor_road","sort_rank":355,"kind_detail":"tertiary","min_zoom":6.0,"id":46114},"arcs":[249]},{"type":"LineString","properties":{"source":"naturalearthdata.com","kind":"minor_road","sort_rank":355,"kind_detail":"tertiary","min_zoom":6.0,"id":46115},"arcs":[250]},{"type":"LineString","properties":{"source":"naturalearthdata.com","kind":"major_road","kind_detail":"secondary","sort_rank":379,"landuse_kind":"urban_area","min_zoom":3.0,"id":46157},"arcs":[251]},{"type":"LineString","properties":{"source":"naturalearthdata.com","kind":"major_road","kind_detail":"secondary","sort_rank":379,"landuse_kind":"urban_area","min_zoom":3.0,"id":46157},"arcs":[252]},{"type":"LineString","properties":{"source":"naturalearthdata.com","kind":"major_road","sort_rank":379,"kind_detail":"secondary","min_zoom":3.0,"id":46157},"arcs":[253]},{"type":"LineString","properties":{"source":"naturalearthdata.com","kind":"minor_road","sort_rank":355,"kind_detail":"tertiary","min_zoom":6.0,"id":46160},"arcs":[254]},{"type":"LineString","properties":{"source":"naturalearthdata.com","kind":"minor_road","sort_rank":355,"kind_detail":"tertiary","min_zoom":6.0,"id":46197},"arcs":[255]},{"type":"LineString","properties":{"source":"naturalearthdata.com","kind":"major_road","kind_detail":"secondary","sort_rank":379,"landuse_kind":"urban_area","min_zoom":4.0,"id":46222},"arcs":[256]},{"type":"LineString","properties":{"source":"naturalearthdata.com","kind":"major_road","kind_detail":"secondary","sort_rank":379,"landuse_kind":"urban_area","min_zoom":3.0,"id":46223},"arcs":[257]},{"type":"LineString","properties":{"source":"naturalearthdata.com","kind":"major_road","kind_detail":"secondary","sort_rank":379,"landuse_kind":"urban_area","min_zoom":3.0,"id":46223},"arcs":[258]},{"type":"LineString","properties":{"source":"naturalearthdata.com","kind":"major_road","sort_rank":379,"kind_detail":"secondary","min_zoom":3.0,"id":46223},"arcs":[259]},{"type":"LineString","properties":{"source":"naturalearthdata.com","kind":"minor_road","sort_rank":355,"kind_detail":"tertiary","min_zoom":6.0,"id":46235},"arcs":[260]},{"type":"LineString","properties":{"source":"naturalearthdata.com","kind":"minor_road","kind_detail":"tertiary","sort_rank":355,"landuse_kind":"urban_area","min_zoom":6.0,"id":46237},"arcs":[261]},{"type":"LineString","properties":{"source":"naturalearthdata.com","kind":"minor_road","sort_rank":355,"kind_detail":"tertiary","min_zoom":6.0,"id":46237},"arcs":[262]},{"type":"LineString","properties":{"source":"naturalearthdata.com","kind":"major_road","kind_detail":"secondary","sort_rank":379,"landuse_kind":"urban_area","min_zoom":3.0,"id":46238},"arcs":[263]},{"type":"LineString","properties":{"source":"naturalearthdata.com","kind":"major_road","sort_rank":379,"kind_detail":"secondary","min_zoom":3.0,"id":46238},"arcs":[264]},{"type":"LineString","properties":{"source":"naturalearthdata.com","kind":"minor_road","kind_detail":"tertiary","sort_rank":355,"landuse_kind":"urban_area","min_zoom":6.0,"id":46240},"arcs":[265]},{"type":"LineString","properties":{"source":"naturalearthdata.com","kind":"minor_road","kind_detail":"tertiary","sort_rank":355,"landuse_kind":"urban_area","min_zoom":6.0,"id":46242},"arcs":[266]},{"type":"LineString","properties":{"source":"naturalearthdata.com","kind":"minor_road","kind_detail":"tertiary","sort_rank":355,"landuse_kind":"urban_area","min_zoom":6.0,"id":46251},"arcs":[267]},{"type":"LineString","properties":{"source":"naturalearthdata.com","kind":"minor_road","sort_rank":355,"kind_detail":"tertiary","min_zoom":6.0,"id":46251},"arcs":[268]},{"type":"LineString","properties":{"source":"naturalearthdata.com","kind":"minor_road","sort_rank":355,"kind_detail":"tertiary","min_zoom":6.0,"id":46254},"arcs":[269]},{"type":"LineString","properties":{"source":"naturalearthdata.com","kind":"minor_road","sort_rank":355,"kind_detail":"tertiary","min_zoom":6.0,"id":46255},"arcs":[270]},{"type":"LineString","properties":{"source":"naturalearthdata.com","kind":"minor_road","sort_rank":355,"kind_detail":"tertiary","min_zoom":6.0,"id":46256},"arcs":[271]},{"type":"LineString","properties":{"source":"naturalearthdata.com","kind":"minor_road","kind_detail":"tertiary","sort_rank":355,"landuse_kind":"urban_area","min_zoom":6.0,"id":46263},"arcs":[272]},{"type":"LineString","properties":{"source":"naturalearthdata.com","kind":"minor_road","sort_rank":355,"kind_detail":"tertiary","min_zoom":6.0,"id":46263},"arcs":[273]},{"type":"LineString","properties":{"source":"naturalearthdata.com","kind":"minor_road","kind_detail":"tertiary","sort_rank":355,"landuse_kind":"urban_area","min_zoom":6.0,"id":46283},"arcs":[274]},{"type":"LineString","properties":{"source":"naturalearthdata.com","kind":"minor_road","sort_rank":355,"kind_detail":"tertiary","min_zoom":6.0,"id":46283},"arcs":[275]},{"type":"LineString","properties":{"source":"naturalearthdata.com","kind":"major_road","sort_rank":379,"kind_detail":"secondary","min_zoom":3.0,"id":46284},"arcs":[276]},{"type":"LineString","properties":{"source":"naturalearthdata.com","kind":"highway","sort_rank":383,"kind_detail":"motorway","min_zoom":6.0,"id":46292},"arcs":[277]},{"type":"LineString","properties":{"source":"naturalearthdata.com","kind":"major_road","sort_rank":379,"kind_detail":"secondary","min_zoom":3.0,"id":46295},"arcs":[278]},{"type":"LineString","properties":{"source":"naturalearthdata.com","kind":"major_road","sort_rank":379,"kind_detail":"secondary","min_zoom":3.0,"id":46308},"arcs":[279]},{"type":"LineString","properties":{"source":"naturalearthdata.com","kind":"highway","kind_detail":"motorway","sort_rank":383,"landuse_kind":"urban_area","min_zoom":3.0,"id":46313},"arcs":[280]},{"type":"LineString","properties":{"source":"naturalearthdata.com","kind":"highway","sort_rank":383,"kind_detail":"motorway","min_zoom":6.0,"id":46314},"arcs":[281]},{"type":"LineString","properties":{"source":"naturalearthdata.com","kind":"major_road","sort_rank":379,"kind_detail":"secondary","min_zoom":3.0,"id":46318},"arcs":[282]},{"type":"LineString","properties":{"source":"naturalearthdata.com","kind":"major_road","kind_detail":"secondary","sort_rank":379,"landuse_kind":"urban_area","min_zoom":3.0,"id":46322},"arcs":[283]},{"type":"LineString","properties":{"source":"naturalearthdata.com","kind":"major_road","sort_rank":379,"kind_detail":"secondary","min_zoom":3.0,"id":46322},"arcs":[284]},{"type":"LineString","properties":{"source":"naturalearthdata.com","kind":"highway","kind_detail":"motorway","sort_rank":383,"landuse_kind":"urban_area","min_zoom":3.0,"id":46329},"arcs":[285]},{"type":"LineString","properties":{"source":"naturalearthdata.com","kind":"minor_road","kind_detail":"tertiary","sort_rank":355,"landuse_kind":"urban_area","min_zoom":6.0,"id":46335},"arcs":[286]},{"type":"LineString","properties":{"source":"naturalearthdata.com","kind":"minor_road","kind_detail":"tertiary","sort_rank":355,"landuse_kind":"urban_area","min_zoom":6.0,"id":46335},"arcs":[287]},{"type":"LineString","properties":{"source":"naturalearthdata.com","kind":"minor_road","sort_rank":355,"kind_detail":"tertiary","min_zoom":6.0,"id":46335},"arcs":[288]},{"type":"LineString","properties":{"source":"naturalearthdata.com","kind":"minor_road","sort_rank":355,"kind_detail":"tertiary","min_zoom":6.0,"id":46336},"arcs":[289]},{"type":"LineString","properties":{"source":"naturalearthdata.com","kind":"highway","kind_detail":"motorway","sort_rank":383,"landuse_kind":"urban_area","min_zoom":6.0,"id":46344},"arcs":[290]},{"type":"LineString","properties":{"source":"naturalearthdata.com","kind":"minor_road","sort_rank":355,"kind_detail":"tertiary","min_zoom":6.0,"id":46345},"arcs":[291]},{"type":"LineString","properties":{"source":"naturalearthdata.com","kind":"highway","kind_detail":"motorway","sort_rank":383,"landuse_kind":"urban_area","min_zoom":3.0,"id":46348},"arcs":[292]},{"type":"LineString","properties":{"source":"naturalearthdata.com","kind":"highway","kind_detail":"motorway","sort_rank":383,"landuse_kind":"urban_area","min_zoom":3.0,"id":46349},"arcs":[293]},{"type":"LineString","properties":{"source":"naturalearthdata.com","kind":"major_road","kind_detail":"secondary","sort_rank":379,"landuse_kind":"urban_area","min_zoom":3.0,"id":46352},"arcs":[294]},{"type":"LineString","properties":{"source":"naturalearthdata.com","kind":"major_road","kind_detail":"secondary","sort_rank":379,"landuse_kind":"urban_area","min_zoom":3.0,"id":46353},"arcs":[295]},{"type":"LineString","properties":{"source":"naturalearthdata.com","kind":"major_road","kind_detail":"secondary","sort_rank":379,"landuse_kind":"urban_area","min_zoom":4.0,"id":46355},"arcs":[296]},{"type":"LineString","properties":{"source":"naturalearthdata.com","kind":"highway","kind_detail":"motorway","sort_rank":383,"landuse_kind":"urban_area","min_zoom":3.0,"id":46360},"arcs":[297]},{"type":"LineString","properties":{"source":"naturalearthdata.com","kind":"major_road","kind_detail":"secondary","sort_rank":379,"landuse_kind":"urban_area","min_zoom":4.0,"id":46367},"arcs":[298]},{"type":"LineString","properties":{"source":"naturalearthdata.com","kind":"minor_road","sort_rank":355,"kind_detail":"tertiary","min_zoom":6.0,"id":46384},"arcs":[299]},{"type":"LineString","properties":{"source":"naturalearthdata.com","kind":"minor_road","sort_rank":355,"kind_detail":"tertiary","min_zoom":6.0,"id":46385},"arcs":[300]},{"type":"LineString","properties":{"source":"naturalearthdata.com","kind":"minor_road","kind_detail":"tertiary","sort_rank":355,"landuse_kind":"urban_area","min_zoom":6.0,"id":46387},"arcs":[301]},{"type":"MultiLineString","properties":{"source":"naturalearthdata.com","kind":"minor_road","sort_rank":355,"kind_detail":"tertiary","min_zoom":6.0,"id":46387},"arcs":[[302],[303]]},{"type":"LineString","properties":{"source":"naturalearthdata.com","kind":"major_road","kind_detail":"secondary","sort_rank":379,"landuse_kind":"urban_area","min_zoom":4.0,"id":46391},"arcs":[304]},{"type":"LineString","properties":{"source":"naturalearthdata.com","kind":"minor_road","sort_rank":355,"kind_detail":"tertiary","min_zoom":6.0,"id":46395},"arcs":[305]},{"type":"LineString","properties":{"source":"naturalearthdata.com","kind":"major_road","kind_detail":"secondary","sort_rank":379,"landuse_kind":"urban_area","min_zoom":4.0,"id":46396},"arcs":[306]},{"type":"LineString","properties":{"source":"naturalearthdata.com","kind":"major_road","kind_detail":"secondary","sort_rank":379,"landuse_kind":"urban_area","min_zoom":4.0,"id":46413},"arcs":[307]},{"type":"LineString","properties":{"source":"naturalearthdata.com","kind":"major_road","sort_rank":379,"kind_detail":"secondary","min_zoom":4.0,"id":46413},"arcs":[308]},{"type":"LineString","properties":{"source":"naturalearthdata.com","kind":"major_road","kind_detail":"secondary","sort_rank":379,"landuse_kind":"urban_area","min_zoom":4.0,"id":46454},"arcs":[309]},{"type":"MultiLineString","properties":{"source":"naturalearthdata.com","kind":"major_road","sort_rank":379,"kind_detail":"secondary","min_zoom":4.0,"id":46454},"arcs":[[310],[311]]},{"type":"LineString","properties":{"source":"naturalearthdata.com","kind":"highway","kind_detail":"motorway","sort_rank":383,"landuse_kind":"urban_area","min_zoom":3.0,"id":46457},"arcs":[312]},{"type":"LineString","properties":{"source":"naturalearthdata.com","kind":"highway","kind_detail":"motorway","sort_rank":383,"landuse_kind":"urban_area","min_zoom":3.0,"id":46457},"arcs":[313]},{"type":"LineString","properties":{"source":"naturalearthdata.com","kind":"highway","kind_detail":"motorway","sort_rank":383,"landuse_kind":"urban_area","min_zoom":3.0,"id":46457},"arcs":[314]},{"type":"MultiLineString","properties":{"source":"naturalearthdata.com","kind":"highway","sort_rank":383,"kind_detail":"motorway","min_zoom":3.0,"id":46457},"arcs":[[315],[316]]},{"type":"LineString","properties":{"source":"naturalearthdata.com","kind":"major_road","kind_detail":"secondary","sort_rank":379,"landuse_kind":"urban_area","min_zoom":3.0,"id":46459},"arcs":[317]},{"type":"LineString","properties":{"source":"naturalearthdata.com","kind":"minor_road","kind_detail":"tertiary","sort_rank":355,"landuse_kind":"urban_area","min_zoom":6.0,"id":46465},"arcs":[318]},{"type":"LineString","properties":{"source":"naturalearthdata.com","kind":"minor_road","sort_rank":355,"kind_detail":"tertiary","min_zoom":6.0,"id":46465},"arcs":[319]},{"type":"LineString","properties":{"source":"naturalearthdata.com","kind":"major_road","kind_detail":"secondary","sort_rank":379,"landuse_kind":"urban_area","min_zoom":4.0,"id":46470},"arcs":[320]},{"type":"LineString","properties":{"source":"naturalearthdata.com","kind":"major_road","sort_rank":379,"kind_detail":"secondary","min_zoom":4.0,"id":46470},"arcs":[321]},{"type":"LineString","properties":{"source":"naturalearthdata.com","kind":"highway","kind_detail":"motorway","sort_rank":383,"landuse_kind":"urban_area","min_zoom":3.0,"id":46479},"arcs":[322]},{"type":"LineString","properties":{"source":"naturalearthdata.com","kind":"highway","sort_rank":383,"kind_detail":"motorway","min_zoom":3.0,"id":46479},"arcs":[323]},{"type":"LineString","properties":{"source":"naturalearthdata.com","kind":"highway","kind_detail":"motorway","sort_rank":383,"landuse_kind":"urban_area","min_zoom":3.0,"id":46489},"arcs":[324]},{"type":"LineString","properties":{"source":"naturalearthdata.com","kind":"highway","sort_rank":383,"kind_detail":"motorway","min_zoom":3.0,"id":46489},"arcs":[325]},{"type":"LineString","properties":{"source":"naturalearthdata.com","kind":"major_road","kind_detail":"secondary","sort_rank":379,"landuse_kind":"urban_area","min_zoom":3.0,"id":46495},"arcs":[326]},{"type":"LineString","properties":{"source":"naturalearthdata.com","kind":"major_road","kind_detail":"secondary","sort_rank":379,"landuse_kind":"urban_area","min_zoom":4.0,"id":46501},"arcs":[327]},{"type":"LineString","properties":{"source":"naturalearthdata.com","kind":"major_road","kind_detail":"secondary","sort_rank":379,"landuse_kind":"urban_area","min_zoom":4.0,"id":46501},"arcs":[328]},{"type":"LineString","properties":{"source":"naturalearthdata.com","kind":"major_road","sort_rank":379,"kind_detail":"secondary","min_zoom":4.0,"id":46501},"arcs":[329]},{"type":"LineString","properties":{"source":"naturalearthdata.com","kind":"major_road","kind_detail":"secondary","sort_rank":379,"landuse_kind":"urban_area","min_zoom":4.0,"id":46506},"arcs":[330]},{"type":"LineString","properties":{"source":"naturalearthdata.com","kind":"minor_road","kind_detail":"tertiary","sort_rank":355,"landuse_kind":"urban_area","min_zoom":6.0,"id":46524},"arcs":[331]},{"type":"LineString","properties":{"source":"naturalearthdata.com","kind":"minor_road","sort_rank":355,"kind_detail":"tertiary","min_zoom":6.0,"id":46524},"arcs":[332]},{"type":"LineString","properties":{"source":"naturalearthdata.com","kind":"minor_road","kind_detail":"tertiary","sort_rank":355,"landuse_kind":"urban_area","min_zoom":6.0,"id":46544},"arcs":[333]},{"type":"LineString","properties":{"source":"naturalearthdata.com","kind":"minor_road","sort_rank":355,"kind_detail":"tertiary","min_zoom":6.0,"id":46544},"arcs":[334]},{"type":"LineString","properties":{"source":"naturalearthdata.com","kind":"major_road","kind_detail":"secondary","sort_rank":379,"landuse_kind":"urban_area","min_zoom":4.0,"id":46569},"arcs":[335]},{"type":"LineString","properties":{"source":"naturalearthdata.com","kind":"major_road","sort_rank":379,"kind_detail":"secondary","min_zoom":4.0,"id":46569},"arcs":[336]},{"type":"LineString","properties":{"source":"naturalearthdata.com","kind":"highway","kind_detail":"motorway","sort_rank":383,"landuse_kind":"urban_area","min_zoom":3.0,"id":46645},"arcs":[337]},{"type":"LineString","properties":{"source":"naturalearthdata.com","kind":"highway","sort_rank":383,"kind_detail":"motorway","min_zoom":3.0,"id":46645},"arcs":[338]}]},"earth":{"type":"GeometryCollection","geometries":[{"type":"MultiPolygon","properties":{"sort_rank":10,"source":"naturalearthdata.com","min_zoom":0.0,"kind":"earth","area":1375776271017},"arcs":[[[339]]]}]},"landuse":{"type":"GeometryCollection","geometries":[{"type":"MultiPolygon","properties":{"source":"openstreetmap.org","kind":"nature_reserve","tier":2,"area":1142285402,"sort_rank":23,"min_zoom":6.0},"arcs":[[[340]]]},{"type":"MultiPolygon","properties":{"source":"openstreetmap.org","kind":"park","tier":2,"area":2278867517,"sort_rank":24,"min_zoom":6.0,"osm_relation":true},"arcs":[[[341]],[[342]]]},{"type":"MultiPolygon","properties":{"source":"openstreetmap.org","kind":"nature_reserve","tier":2,"area":10353021168,"sort_rank":23,"min_zoom":6.0,"osm_relation":true},"arcs":[[[343]],[[344]],[[345]]]},{"type":"MultiPolygon","properties":{"source":"naturalearthdata.com","kind":"urban_area","name":"","area":14166445903,"sort_rank":11,"min_zoom":4.0},"arcs":[[[346]],[[347]],[[348]],[[349]],[[350]],[[351]],[[352]],[[353]],[[354]],[[355]],[[356]],[[357]],[[358]],[[359]],[[360]],[[361]],[[362]],[[363]],[[364]],[[365]],[[366]],[[367]],[[368],[369]],[[370]],[[371]],[[372]],[[373]],[[374],[375],[376]],[[377]]]},{"type":"MultiPolygon","properties":{"source":"openstreetmap.org","kind":"park","tier":2,"area":54562430627,"sort_rank":24,"min_zoom":4.0,"osm_relation":true},"arcs":[[[378]]]}]}},"type":"Topology","transform":{"translate":[22.5,-27.0591257844],"scale":[0.001373291,0.001249043]},"arcs":[[[4096,3421],[-6,-3],[-3,-4],[-4,-13],[-3,-4],[-10,-5],[-17,-5],[-14,-7],[-1,-8],[6,-17],[-3,-18],[-9,-16],[-11,-12],[-10,-7],[-14,-7],[-15,-6],[-14,-2],[-9,-8],[1,-19],[6,-33],[-12,-23],[-25,-18],[-30,-13],[-28,-7],[5,-15],[-12,-4]],[[3864,3147],[-16,1],[-7,2]],[[3841,3150],[-2,-7],[2,-6],[3,-5],[2,-4],[1,-3],[3,-3],[2,-3],[-4,-2],[-1,-1],[-5,-4],[-1,-1],[-11,-31],[-4,-7],[-11,-5]],[[3815,3068],[-10,4],[-20,23]],[[3785,3095],[-29,-24],[-8,-3]],[[3748,3068],[-10,3],[-10,5],[-8,0]],[[3720,3076],[-7,-22],[-14,-15],[-3,-13],[0,-4],[-2,-5],[-2,-3],[-3,-2],[-2,-2],[1,-5],[2,-6],[1,-6],[-4,-18],[-11,-14],[-14,-10],[-16,-5],[-30,-1],[-10,-4],[-6,-8],[-6,-9],[-8,-5]],[[3586,2919],[-10,6],[6,12],[-6,1]],[[3576,2938],[-11,-4],[-9,-4],[-2,-5],[-7,-9],[-7,-4]],[[3540,2912],[-8,24]],[[3532,2936],[-11,-8],[-17,-28],[-12,-12],[-13,-9],[-28,-15],[-27,-8],[-8,-10],[11,-15],[-8,-3],[-6,0]],[[3413,2828],[-6,3],[-5,6]],[[3402,2837],[-2,-5],[-6,-6],[-3,-6]],[[3391,2820],[-6,7],[-8,4]],[[3377,2831],[-7,-2],[-4,-6],[4,-10],[6,-5],[4,-5],[-4,-10]],[[3376,2793],[-9,6]],[[3367,2799],[-8,-1],[-7,-6],[-5,-10]],[[3351,2782],[-13,-9],[-4,-5],[-2,-8]],[[3347,2782],[4,0]],[[3332,2760],[-5,4],[-5,2]],[[3322,2766],[1,-16],[4,-14],[1,-11],[-11,-9]],[[3317,2716],[-13,1],[-5,9],[-5,9],[-7,4]],[[3287,2739],[-7,-6],[-13,-33],[-14,-26],[-4,-15],[2,-7],[1,-7],[-20,-38],[5,-16],[-3,-22],[-51,-213],[-2,-35],[-14,-70],[-7,-14],[-12,-11],[-15,-9],[-64,-21],[-16,-8],[-6,-12],[-44,-47],[-48,-31],[-20,-16],[-18,-24],[-21,-57],[-6,-9],[-47,-49]],[[2843,1943],[-16,2],[-14,1],[-14,4],[-13,1]],[[2786,1951],[-34,-5],[-83,-26],[-110,-35],[-24,-17],[-11,-6]],[[2524,1862],[-38,1]],[[2486,1863],[-24,-8],[-5,-1],[-4,-4],[-1,-19],[7,-59],[0,-32],[-8,-26],[-21,-49],[-1,-30],[-22,-38],[-16,-54],[-64,-143],[-23,-104],[-8,-18],[-32,-77],[-16,-48],[-94,-74],[-52,-26],[-152,-16]],[[642,1414],[-11,3],[-34,13],[-39,7]],[[558,1437],[-37,-2],[-34,-11],[-55,-26],[-7,-5],[-9,-5]],[[1037,1145],[-13,8],[-11,16],[-33,24],[-28,36],[-6,4],[-15,5],[-7,4],[-5,7],[-7,17],[-7,6],[-41,13],[-9,9],[-5,8],[-77,60],[-19,12],[-21,10],[-7,5],[-10,10],[-11,17],[-6,7],[-11,3]],[[688,1426],[-9,-2],[-24,-9],[-13,-1]],[[416,1388],[-4,4],[-3,8],[-5,6],[-18,3]],[[386,1409],[-17,-9],[-28,-29],[-4,-7],[-2,-7],[-3,-6],[-8,-6],[-10,-4],[-8,-5],[-6,-7],[-6,-10],[-12,-31],[-8,-9],[-18,-8],[-5,-8],[-15,-49],[-5,-13],[-2,-6],[-1,-7],[4,-8],[7,-8],[4,-9],[-7,-7],[-10,-8],[-1,-6],[3,-7],[1,-9],[-1,-11],[-2,-9],[-4,-8],[-33,-38],[-10,-16],[-4,-18],[1,-11],[2,-2],[5,-2],[5,-8],[4,-11],[1,-5],[-8,-14],[-11,-12],[-14,-12],[-8,-14],[9,-14],[4,-10],[0,-18],[-2,-19],[-3,-13],[-7,-11],[-7,-5],[-21,-7],[-7,-7],[0,-7],[3,-8],[-1,-9],[-30,-47],[-2,-1],[-7,-8],[-14,-10],[-9,-10],[-12,-28],[-13,-21],[-13,-5]],[[1096,1124],[-1,4],[4,7],[0,7],[-8,6],[-7,5],[-9,1]],[[1075,1154],[-38,-9]],[[1376,1041],[-37,6],[-31,22],[-50,60],[-32,18]],[[1226,1147],[-38,0],[-76,-20],[-16,-3]],[[1950,1037],[-31,6],[-33,10],[-28,5]],[[1858,1058],[-28,-4],[-33,-16],[-43,-33],[-15,-6],[-43,-12],[-22,-2]],[[1576,989],[-25,6],[-39,26],[-55,21],[-32,12]],[[1425,1054],[-15,-2],[-14,-6],[-20,-5]],[[1674,985],[-21,5],[-23,5]],[[1630,995],[-54,-6]],[[20,677],[-20,4]],[[406,3001],[-406,0]],[[4095,1291],[1,0]],[[4091,1329],[5,-3]],[[4096,1315],[-6,-7],[0,-11],[5,-6]],[[3807,945],[56,10],[51,11],[12,10],[24,8],[13,19],[4,16],[-1,14],[-2,10],[2,4],[1,1],[4,2],[7,5],[1,6],[-2,10],[-4,9],[-23,56],[55,12],[19,12],[17,17],[19,28],[5,21],[-1,13],[-2,7],[-1,2],[-9,44],[-1,14],[7,12],[18,9],[15,2]],[[3720,996],[12,-16],[19,-11],[16,-14]],[[3442,440],[-6,5],[-3,1],[0,3],[0,3],[-3,12],[-4,11],[-26,51],[37,34],[64,45],[-26,111],[46,4],[11,16],[25,9],[18,24],[18,79],[18,92],[49,33],[60,23]],[[3794,957],[13,-12]],[[3767,955],[27,2]],[[3671,233],[6,104],[-2,20],[10,21],[11,11],[4,45],[3,10],[1,3],[3,1],[3,4],[8,4],[4,25],[-65,1],[-8,6],[-9,4],[-3,6],[-3,4],[-12,10]],[[3622,512],[-89,-27],[-13,-14],[-35,-16],[-9,-5],[-10,-4],[-24,-6]],[[3671,233],[-6,-1],[-10,-9],[-4,-17],[0,-16],[-2,-8],[-22,-34],[-8,-5],[-45,-11],[-10,-1]],[[3564,131],[-10,3],[-23,22],[-9,5]],[[3522,161],[-21,-3],[-18,-15],[-30,-36],[-29,-21],[-16,-7]],[[3309,104],[-32,5],[-25,12],[-15,26],[-9,9]],[[3228,156],[-11,-8],[-3,-13],[3,-52]],[[3217,83],[-18,12],[-22,20],[-4,2]],[[3173,117],[-15,-9],[-9,-8],[-5,-7]],[[3408,79],[-7,7],[2,7],[3,8],[0,7],[-7,2]],[[3399,110],[-6,0],[-13,-4],[-71,-2]],[[3144,93],[-7,3],[-10,9]],[[3127,105],[-4,-2],[-8,-7],[-17,-5],[-12,-8],[-22,-19],[-3,-4],[-2,-6],[-1,-6],[-1,-6],[-3,-8],[-5,0]],[[3049,34],[-6,3],[-1,2],[-6,2],[-8,5],[-10,2]],[[3018,48],[-11,-4],[-10,-8],[-20,-22],[-5,-8],[0,-6]],[[3975,314],[8,-3],[13,-13],[6,-8],[-4,-4],[-7,-9],[7,-19],[30,-53],[9,-12],[20,-8],[15,-9],[14,-11],[9,-11],[1,-1]],[[3830,225],[7,4],[1,6],[-1,6],[3,6],[12,7],[17,5],[34,5],[16,4],[12,11],[9,13],[11,11],[15,9],[9,2]],[[3725,266],[10,-10],[8,-14],[2,-6],[11,0]],[[3671,233],[8,2],[17,1],[-4,17],[9,4],[13,1],[7,3],[4,5]],[[3808,242],[4,-3],[5,-7],[5,-5],[8,-2]],[[3756,236],[52,6]],[[3097,1753],[-19,2],[-14,4],[-19,9],[-23,14],[-17,5],[-125,12],[-7,3],[-5,18],[-21,36],[-4,21],[0,66]],[[3599,1599],[-55,2],[-56,42],[-78,13],[-10,7],[-5,11],[-11,24],[-24,25],[-25,16],[-18,30],[-9,80],[-5,15],[-9,6]],[[3294,1870],[-12,-4],[-7,-7],[-8,-20],[-31,-22],[-84,-37],[-44,-24],[-11,-3]],[[3793,1643],[-30,29]],[[3763,1672],[-17,-4],[-16,0],[-16,-7],[-7,-4],[-3,-6],[0,-2],[1,-6],[-1,-11],[-4,-16],[-26,-42],[-8,-7],[-6,-2]],[[4096,1632],[-20,9],[-25,7],[-36,3],[-35,10]],[[3980,1661],[-16,-2],[-10,-6],[-4,-3],[0,-1],[-1,-1],[-5,-2],[-7,0]],[[3937,1646],[-109,13]],[[3828,1659],[-12,-2],[-11,-5],[-3,-2],[-9,-7]],[[3660,1565],[-5,1],[-4,1],[-3,3],[-2,3],[-2,4],[-4,21],[-8,6]],[[3632,1604],[-33,-5]],[[4085,1562],[11,-1],[0,-1]],[[4096,1494],[-5,13],[-9,11],[-16,11],[-2,16],[5,11],[16,6]],[[174,388],[-17,2],[-8,5],[-6,12],[-6,40],[-1,2],[-3,19],[1,22],[4,15],[9,12],[-6,239],[-50,3]],[[91,759],[-3,0]],[[321,340],[-3,5],[-6,7],[-8,8],[-14,6],[-23,3],[-9,3],[-9,8],[-11,7],[-14,1],[-10,3],[-20,0]],[[194,391],[-10,-2],[-10,-1]],[[360,0],[3,10],[9,13],[33,12],[9,6],[3,4],[1,2],[0,1],[-5,5],[-21,31],[-25,82],[1,10],[4,15],[12,17],[2,17],[-3,28],[0,16],[7,29],[-3,11],[-49,34]],[[338,343],[-12,-1],[-5,-2]],[[2140,3288],[213,-287],[6,-5],[9,-5],[65,-21],[32,-33],[98,-141]],[[2513,2043],[-12,8],[-14,7],[-8,2],[-7,6],[-5,16],[-1,22],[10,45],[9,24],[10,18],[22,117],[46,488]],[[2573,2002],[58,-40],[32,-31],[6,-11]],[[2513,2043],[60,-41]],[[3071,2491],[-508,305]],[[3251,2652],[-4,-1],[-14,-2],[-9,-8],[-17,-24]],[[3207,2617],[-3,5],[-5,8],[-2,4]],[[3197,2634],[-6,-14],[-7,-13],[-17,-22],[-3,-6],[-4,-12],[-3,-4],[-6,-1]],[[3151,2562],[-13,2]],[[3138,2564],[-6,-1],[-18,-18],[-34,-43],[-1,-1],[-2,-5],[-3,-3],[-3,-2]],[[2140,3288],[-144,-293]],[[1996,2995],[-1590,6]],[[406,3001],[-11,-69],[-14,-14]],[[381,2918],[-33,1]],[[348,2919],[-8,-3],[-6,-6],[-2,-31],[1,-76],[1,-6],[5,-3],[7,0]],[[388,2794],[13,-59],[2,-285]],[[346,2794],[42,0]],[[2428,1951],[-107,-118]],[[2513,2043],[-85,-92]],[[403,2450],[-3,-660],[1,-10],[4,-8],[10,-3],[11,-1]],[[1124,1772],[12,-1],[11,-3],[11,-9],[85,-88],[9,-12],[8,-14],[3,-17],[12,-381],[23,-31],[84,-85],[12,-3],[33,-3],[20,-15],[10,-68]],[[426,1768],[698,4]],[[1558,2080],[-1155,370]],[[2321,1833],[-62,3],[-13,3],[-86,48],[-475,152]],[[1685,2039],[-127,41]],[[2321,1833],[-14,-57],[-9,-8],[-9,-12],[-6,-7],[1,-10],[-4,-21],[-24,-70],[1,-1],[1,-4],[6,0]],[[2284,1644],[10,-1],[7,-4],[0,-10],[-2,-11],[-84,-291],[1,-9],[4,-9],[76,-31]],[[2264,1643],[20,1]],[[2140,3288],[-588,808]],[[2573,2002],[-1,-19],[-36,-54],[0,-20],[-18,-26],[-31,-2],[-17,-5]],[[2470,1876],[-25,6],[-9,17],[-4,29],[-4,23]],[[2321,1502],[-1,8],[-4,1]],[[2316,1511],[-2,-7],[-4,-14],[-1,-13],[-2,-9],[-6,-8],[0,-2]],[[2328,1477],[-2,4],[5,4],[-1,4],[4,5],[-3,4],[-1,6]],[[2330,1504],[-9,-2]],[[2321,1457],[9,4],[4,8],[0,8]],[[2334,1477],[-6,0]],[[2316,1461],[5,-4]],[[2301,1458],[7,0],[8,3]],[[3891,4054],[6,1],[6,5],[10,4],[3,7],[1,7],[3,4],[-2,3],[-7,4],[1,7]],[[3894,4096],[-4,-4],[0,-8],[-7,-3],[-5,-1]],[[3878,4080],[-5,2]],[[3873,4082],[-8,-4],[0,-4],[2,-2],[1,-4],[-3,-5],[1,-6],[1,-4]],[[3881,4059],[5,-1],[5,-4]],[[3867,4053],[8,1],[6,5]],[[1558,2080],[-1,-159]],[[1557,1921],[133,6],[-5,112]],[[3875,642],[94,39]],[[4033,690],[1,-1],[4,1]],[[4096,679],[-38,1],[-11,10],[-10,0]],[[3875,642],[96,37],[48,-9]],[[4037,678],[0,-12]],[[3801,0],[133,199],[26,117],[136,249]],[[4035,689],[3,1]],[[4096,680],[-3,0],[-3,1],[-2,2],[-1,1],[-3,1],[-1,0],[-1,0],[-1,0],[-1,0],[-7,-3],[-4,1],[-1,0],[-10,-3],[-11,10],[-10,0]],[[4096,680],[-3,0],[-2,1],[-4,3],[-4,1],[-10,-3],[-7,1]],[[4096,679],[-30,4]],[[3875,642],[76,29]],[[3957,673],[-6,-2]],[[3957,673],[70,3]],[[4027,676],[3,3]],[[3958,674]],[[4027,676],[1,1]],[[3563,574],[91,26],[224,7],[66,49]],[[3997,686],[-53,-30]],[[4033,690],[2,-1]],[[4096,563],[-138,-255]],[[4096,679],[-30,4]],[[4035,689],[3,1]],[[4096,680],[-3,0],[-6,4],[-3,1],[-2,0],[-14,-2],[-10,-3],[-11,10],[-10,0]],[[4096,680],[-3,0],[-1,1],[-1,0],[-1,1],[-2,1],[-1,1],[-4,1],[-3,0],[-5,-2],[-1,-1],[-1,0],[-1,0],[-4,1],[-2,0]],[[3785,703],[56,58],[155,-74]],[[4033,690],[2,-1]],[[4096,1134],[-9,3],[-29,65],[13,53]],[[4071,1255],[2,3],[-1,2],[-1,-1],[0,-4]],[[3875,642],[94,39]],[[4033,690],[2,-1]],[[2946,0],[79,74],[13,80],[139,33],[163,86],[79,236],[284,106],[119,143],[73,-15],[18,-26],[65,-18],[14,-12],[4,0]],[[3992,687],[11,0]],[[4033,690],[2,-1]],[[3958,308],[-59,49],[23,86],[-46,158],[68,55]],[[3997,686],[-53,-30]],[[4033,690],[1,-1],[4,1]],[[4096,679],[-38,1],[-11,10],[-10,0]],[[4035,691],[6,15],[-4,29],[2,17],[1,2],[1,3],[1,1],[4,3]],[[4096,797],[-4,-12],[-51,-29],[1,-50],[-7,-15]],[[4057,767],[13,8],[8,3]],[[4096,1035],[-2,1],[-6,-3],[-2,-1],[-8,8],[-24,-4],[-1,0],[-5,2]],[[4053,1036],[2,0],[8,3],[1,0],[4,1],[10,0],[1,0],[1,0],[0,-1],[6,-6],[2,0],[5,3],[1,0],[1,0],[1,0]],[[4035,689],[3,1]],[[4096,680],[-3,0],[-6,4],[-3,1],[-1,0],[-1,0],[-14,-2],[-10,-3],[-11,10],[-10,0]],[[4066,683],[2,0],[4,-1],[1,0],[1,0],[1,1],[5,2],[3,0],[4,-1],[3,-3],[2,0],[1,-1],[3,0]],[[4046,761],[32,17]],[[4096,771],[-18,7]],[[4035,689],[3,1]],[[4096,680],[-3,0],[-6,4],[-3,1],[-2,0],[-14,-2],[-10,-3],[-11,10],[-10,0]],[[4096,680],[-3,0],[-1,1],[-1,0],[-1,1],[-2,1],[-1,1],[-4,1],[-3,0],[-5,-2],[-1,-1],[-1,0],[-1,0],[-4,1],[-2,0]],[[3801,0],[133,199],[26,117],[136,249]],[[4035,689],[3,1]],[[4096,680],[-3,0],[-3,1],[-2,2],[-1,1],[-3,1],[-1,0],[-1,0],[-1,0],[-1,0],[-7,-3],[-4,1],[-1,0],[-10,-3],[-11,10],[-10,0]],[[4096,680],[-3,0],[-2,1],[-4,3],[-4,1],[-10,-3],[-7,1]],[[4096,671],[-35,2],[-23,-7],[-74,11]],[[4096,679],[-30,4]],[[4096,1134],[-9,3],[-29,67],[13,51]],[[4071,1255],[2,3],[-1,2],[-1,-1],[0,-4]],[[4035,689],[3,1]],[[4096,680],[-3,0],[-3,1],[-2,2],[-1,1],[-3,1],[-1,0],[-1,0],[-1,0],[-1,0],[-7,-3],[-4,1],[-1,0],[-10,-3],[-11,10],[-10,0]],[[4096,680],[-3,0],[-2,1],[-4,3],[-4,1],[-10,-3],[-7,1]],[[4046,761],[32,17]],[[4096,772],[-18,6]],[[3875,642],[96,37],[48,-9]],[[4068,682],[1,-7],[-19,-8],[-31,3]],[[4062,674],[3,8]],[[4096,1126],[-130,22]],[[4035,691],[5,64],[1,2],[1,1],[9,7],[27,13]],[[4096,797],[-4,-12],[-51,-29],[1,-50],[-1,-3],[-3,-8],[-2,-2],[-1,-2]],[[3958,308],[-59,49],[23,86],[-46,158],[68,55]],[[3944,657],[17,19]],[[3961,676],[1,0]],[[3961,676],[58,-6]],[[4068,682],[2,-1],[1,-1],[0,-1],[0,-2],[-2,-2],[-19,-8],[-31,3]],[[4062,674],[3,8]],[[4035,689],[3,1]],[[4096,680],[-3,0],[-3,1],[-2,2],[-1,1],[-3,1],[-1,0],[-1,0],[-1,0],[-1,0],[-7,-3],[-4,1],[-1,0],[-10,-3],[-11,10],[-10,0]],[[4066,683],[7,-1],[10,3],[4,-1],[3,-3],[2,0],[4,-1]],[[4096,102],[-8,-16],[-6,-2],[-7,16],[-2,17],[3,12],[6,11],[14,14],[0,-52]],[[4096,102],[-8,-16],[-6,-2],[-7,16],[-2,17],[3,12],[6,11],[14,14]],[[2425,460],[94,2],[106,7],[90,15],[86,54],[60,21]],[[3060,3744],[8,-8]],[[2779,4096],[3,-23],[9,-43],[6,-24],[10,-46],[6,-16],[6,-13],[24,-20],[12,-20],[12,-33],[9,-13],[33,-40],[21,-26],[18,-33],[39,-4],[15,7],[18,3],[39,-6],[1,-2]],[[3422,3729],[24,73],[3,43],[6,33],[12,59],[6,53],[6,30],[21,69],[5,7]],[[3347,3617],[15,3],[14,-2]],[[3344,3617],[3,0]],[[3376,3618],[4,-1],[6,3],[12,46],[24,63]],[[3081,3726],[-13,10]],[[3344,3617],[-18,3],[-21,3],[-24,10],[-33,14],[-18,16],[-27,17],[-27,19],[-12,7],[-18,3],[-27,0],[-18,4],[-20,13]],[[3338,3574],[0,26],[6,17]],[[3338,3574],[21,-27],[12,-19],[24,-30],[21,-17],[60,-16],[33,-13],[60,-23],[57,-10],[42,-14],[61,-23],[81,-19],[69,-24],[27,-16],[18,-20]],[[3924,3303],[27,-36],[9,-10]],[[3149,3171],[-4,14]],[[3145,3185],[-2,6],[3,10],[24,33],[9,26],[18,37],[33,56],[15,23],[30,53],[36,52],[15,30],[12,23],[3,20],[-3,20]],[[3158,3164],[-9,7]],[[3960,3257],[12,-7],[15,-20],[24,-39],[9,-13],[18,-14],[21,0],[24,-9],[13,-5]],[[0,2941],[10,-14],[33,-43],[30,-37],[31,-46],[21,-23],[27,-36],[24,-23],[18,0],[15,3]],[[209,2722],[27,-46],[27,-37],[33,-52],[27,-50],[30,-46],[42,-66],[42,-56],[27,-27],[30,-36],[24,-33],[36,-40],[15,-13]],[[569,2220],[45,-20],[6,-3]],[[3142,3149],[4,6],[12,9]],[[2599,2131],[3,16],[-3,27],[12,26],[18,13],[9,14],[21,46],[15,20],[27,16],[18,30],[42,82],[30,73],[22,36],[30,73],[15,30],[27,43],[27,39],[24,53],[21,37],[45,66],[24,36],[30,36],[-3,20],[18,40],[30,59],[24,46],[12,33],[5,8]],[[620,2197],[57,-26],[66,-27],[45,-13],[21,-3],[33,-14],[78,-29],[88,-27],[33,-13],[21,-16]],[[2488,1920],[6,16],[24,33],[3,30],[4,11]],[[2525,2010],[2,9],[12,23],[36,53],[18,26],[6,10]],[[2453,1967],[8,-21],[27,-26]],[[2215,2131],[5,0]],[[2220,2131],[25,0],[12,-10],[24,-33],[18,-7],[9,-13],[15,-6],[18,-4],[18,-6],[39,-17],[12,-13],[6,-13],[27,-27],[9,-13],[1,-2]],[[1062,2029],[18,-14],[42,-26],[33,-13],[54,-30],[21,-10],[69,-26],[15,-17],[12,-10],[36,-20],[24,-23],[15,-10],[24,-6],[42,-27],[18,-6],[30,-7],[21,0],[18,-3],[39,0],[21,-3],[84,-24],[39,-6],[24,-3],[30,3],[24,6],[21,10],[27,10]],[[2202,2094],[10,7],[6,17],[-3,13]],[[2068,1659],[3,23],[3,30],[6,29],[21,27],[6,29],[12,20],[9,13],[24,20],[21,10],[15,10],[30,36],[0,10],[-21,43],[0,30],[-6,16],[0,20],[-15,30],[0,16],[12,14],[14,9]],[[1863,1774],[21,-13],[31,-16],[24,-20],[9,-4],[18,7],[15,-10],[21,-3],[30,-27],[15,-16],[21,-13]],[[2317,1470],[-9,4],[0,10],[1,12]],[[2480,1895],[5,5],[3,20]],[[2309,1496],[2,21],[12,46],[18,40],[18,36],[6,20],[6,39],[9,14],[15,19],[12,37],[15,33],[3,16],[3,20],[3,10],[21,23],[24,20],[4,5]],[[2080,1632],[9,-10],[15,-6],[15,-17],[33,-23],[18,-26],[33,-33],[51,-60],[12,-10],[21,0]],[[2248,1286],[18,56],[12,33],[3,13],[-9,26],[6,17]],[[2608,1220],[-12,0]],[[2596,1220]],[[2322,1466],[-5,4]],[[2596,1220],[-30,6],[-21,10],[-21,0],[-15,17],[-15,9],[-30,24],[-39,19],[-12,10],[-12,13],[-18,37],[-6,23],[-3,16],[-21,24],[-18,26],[-13,12]],[[2248,1144],[-12,52],[0,24],[6,29],[6,37]],[[3431,1134],[-27,6],[-3,0]],[[3401,1140],[-48,0],[-30,4],[-30,-4],[-39,10],[-21,0],[-36,-3],[-27,-7],[-72,0],[-51,-6]],[[2618,1225],[-10,-5]],[[3038,1134],[-24,0],[-24,-7],[-24,-7],[-12,0],[-48,10],[-27,20],[-24,13],[-21,0],[-27,-6],[-13,3],[-12,7],[-12,3],[-15,10],[-12,20],[-12,6],[-30,4],[-12,10],[-9,23],[-6,3],[-21,3],[-33,-23],[-2,-1]],[[3458,1117],[-27,17]],[[3464,1114],[-6,3]],[[4096,1088],[-25,3],[-6,-1]],[[4065,1090],[-33,-3],[-18,-3],[-33,-10],[-30,7],[-12,0]],[[3939,1081],[-18,-7]],[[3882,1074],[-18,4],[-39,-4]],[[3921,1074],[-18,-6],[-21,6]],[[3480,1097],[-16,17]],[[3825,1074],[-36,-6],[-24,-7],[-54,-10],[-37,-10],[-27,0],[-27,10],[-9,0],[-45,-10],[-30,4],[-21,13],[-9,13],[-26,26]],[[2290,959],[9,13],[-3,16],[-4,12]],[[2292,1000],[-14,48],[-21,72],[-9,24]],[[3197,959],[-21,-4],[-21,4],[-30,16],[-15,20],[-18,36],[-9,30],[-9,17],[-9,19],[-15,30],[-12,7]],[[4096,945],[-16,-9],[-18,-17],[-27,-7],[-12,0]],[[3311,909],[-33,10],[-24,13],[-24,20],[-18,7],[-15,0]],[[3653,863],[-33,3],[-36,-6],[-42,0],[-39,-17],[-15,-3],[-48,13],[-21,13],[-63,30],[-45,13]],[[4080,810],[16,50]],[[4023,912],[-24,-3],[-33,-23],[-39,-40],[-21,-13],[-9,-10],[-12,-16]],[[3768,790],[-9,7],[-18,30],[-30,13],[-13,10],[-24,10],[-21,3]],[[3846,777],[-24,3],[-22,-9]],[[3800,771],[-2,-1],[-30,20]],[[4041,747],[39,63]],[[2658,734],[7,0]],[[2290,959],[18,-6]],[[2308,953],[24,-8],[36,-13],[39,-10],[9,-10],[9,-26],[24,-30],[24,-29],[21,-14],[63,-29],[27,-17],[33,-26],[18,-7],[23,0]],[[3197,959],[-12,-23],[-30,-27],[-21,-13],[-15,-7],[-45,-6],[-27,-4],[-54,-23],[-48,-3],[-30,-3],[-30,-10],[-30,-17],[-24,-20],[-34,-19],[-36,-20],[-69,-30],[-15,-3]],[[4095,708],[1,0]],[[3596,704],[66,20],[30,13],[22,10],[12,14],[27,16],[15,13]],[[4044,701],[-9,10],[0,23],[6,13]],[[4095,708],[-30,-7],[-18,0]],[[4047,701],[-3,0]],[[4038,698],[-18,3],[-33,13],[-39,10],[-60,40],[-18,6],[-24,7]],[[4044,701],[-6,-3]],[[4096,668],[-7,13],[6,27]],[[4047,701],[-3,-10],[-15,-26],[-9,-13],[-12,-10],[-12,0]],[[3149,602],[3,0]],[[3152,602],[21,3],[33,-3],[18,3],[30,14],[51,3],[30,-3],[33,13],[24,20],[18,3],[30,-3],[21,3],[24,10],[51,10],[33,13],[27,16]],[[2678,730],[3,-12]],[[2677,731],[1,-1]],[[2681,718],[5,-20],[12,-20],[12,-30],[36,-43],[30,-16]],[[3996,642],[-18,0],[-54,3],[-9,0],[-48,-30],[-30,-16],[-21,-10],[-45,-13]],[[2776,589],[21,0],[40,-20],[15,-7],[18,4],[42,23],[42,0],[21,-3],[42,0],[30,0],[33,9],[45,10],[24,-3]],[[3771,576],[-30,-10],[-15,-7]],[[3726,559],[-25,-20],[-24,-16]],[[3677,523],[-36,-23],[-9,-4]],[[3564,464],[-12,-7]],[[3552,457],[-13,-7],[-18,-13],[-30,-26],[-12,-10],[-21,-24],[-21,-33]],[[3632,496],[-24,-3],[-18,-7],[-15,-16],[-11,-6]],[[3963,338],[3,13],[2,4]],[[3988,390],[8,11],[8,13]],[[4066,559],[11,17],[6,36],[13,22]],[[3968,355],[10,19],[10,16]],[[4004,414],[19,30],[9,26],[0,20],[21,49],[13,20]],[[3966,321],[-3,17]],[[2665,734],[-7,-15]],[[2658,719],[-5,-11],[-21,-27],[-27,-16],[-39,-13],[-33,-20],[-36,-33],[-24,-20],[-12,-20],[-24,-36],[-6,-17],[-6,-29],[-12,-24],[-51,-13],[-33,-10],[-24,-6],[-21,-13],[-57,-40],[-51,-40],[-27,-33]],[[3360,288],[-10,-3]],[[3437,344],[-24,-36],[-21,-13],[-18,-3],[-14,-4]],[[3971,288],[-2,20],[-3,13]],[[3966,245],[6,30],[-1,13]],[[3918,193],[12,10]],[[3930,203],[12,9],[18,17],[6,16]],[[3906,183],[12,10]],[[3147,196],[-34,-13],[-57,-17],[-27,-10]],[[3350,285],[-15,-7],[-35,-12]],[[3300,266],[-13,-4],[-18,-7],[-21,-10],[-27,-16],[-21,-13],[-53,-20]],[[3029,156],[-12,-3],[-27,-7]],[[1641,80],[13,4]],[[1654,84],[47,13],[66,33],[15,3],[45,10],[21,13],[18,13],[21,14],[37,6],[60,0],[18,7],[27,26],[36,20],[27,3],[15,7],[39,40]],[[1629,77],[-23,-9]],[[1606,68],[-55,-21],[-48,-16],[-12,-7],[-51,-16],[-16,-8]],[[2990,146],[-12,0],[-10,-1]],[[2968,145],[-53,-9],[-39,-3],[-33,-10],[-39,-16],[-70,-30],[-30,-10],[-21,-13],[-15,-20],[-36,-33],[0,-1]],[[3888,159],[18,24]],[[3814,0],[2,4],[0,43],[9,23],[42,63],[15,17],[6,9]],[[4096,4096],[0,-4096],[-4096,0],[0,1573],[0,2523],[3615,0],[481,0]],[[216,1035],[26,82],[111,-108],[-29,-22],[-3,-33],[30,-3],[-15,-31],[-73,-3],[-6,44],[31,27],[-72,47]],[[3234,1537],[123,-8],[28,-32],[36,0],[26,-50],[-69,-82],[-32,21],[-40,-18],[-55,50],[-17,119]],[[3617,2073],[27,52],[-8,111],[57,1],[7,29],[69,-72],[43,8],[50,-49],[-47,-109],[-96,29],[-94,-57],[-8,57]],[[3797,1543],[109,41],[30,-50],[-32,-46],[-48,-14],[-17,48],[-42,21]],[[2650,1891],[177,46],[39,-12],[29,-37],[-39,10],[3,-67],[72,-13],[-4,-20],[-71,3],[-16,-49],[-163,15],[-27,124]],[[3789,2267],[30,57],[87,-62],[39,21],[-16,-62],[30,-48],[-70,-36],[-10,-61],[-40,45],[23,32],[-73,114]],[[1630,28],[-33,54],[41,44],[24,-62],[-32,-36]],[[3154,184],[-44,-126],[-40,15],[-8,-36],[-31,5],[-50,57],[40,9],[-48,18],[-8,36],[61,44],[51,-23],[51,6],[7,26],[19,-31]],[[3628,99],[-25,3],[-2,44],[35,-11],[-8,-36]],[[3337,313],[40,-42],[-24,-38],[-57,36],[25,53],[16,-9]],[[2682,728],[-4,-33],[-18,2],[-3,43],[25,-12]],[[2296,1000],[22,-6],[-17,-67],[-81,35],[22,40],[54,-2]],[[2317,1461],[-24,9],[16,26],[25,-18],[-17,-17]],[[3531,1772],[-57,9],[12,31],[49,0],[-4,-40]],[[1616,2043],[6,-31],[-29,6],[4,30],[19,-5]],[[2468,1886],[-25,18],[-4,55],[89,53],[8,-80],[-68,-46]],[[3996,1947],[-20,30],[20,8],[21,-13],[-21,-25]],[[3377,1674],[1,26],[7,19],[20,-25],[-28,-20]],[[2206,2149],[31,-39],[-30,-20],[-35,29],[34,30]],[[2664,2148],[17,-2],[-16,-36],[-24,27],[23,11]],[[3751,2718],[65,7],[22,-10],[-113,-27],[-51,25],[-6,29],[83,-24]],[[2455,2937],[-23,15],[7,30],[20,-18],[-4,-27]],[[3976,3071],[-22,28],[16,12],[13,-15],[-7,-25]],[[3167,3133],[-29,18],[5,35],[40,-26],[-16,-27]],[[3374,3589],[-29,24],[9,16],[27,-14],[-7,-26]],[[3086,3736],[-8,-16],[-25,16],[19,20],[14,-20]],[[3895,4058],[-41,18],[9,14],[48,4],[-16,-36]],[[3850,1132],[-17,8],[-3,27],[49,-9],[-29,-26]],[[3426,1229],[40,-17],[11,-81],[70,-35],[-57,9],[-48,-36],[-15,12],[-48,109],[22,84],[25,-45]],[[3410,1158],[20,1],[12,26],[-34,9],[2,-36]],[[2625,1203],[-25,3],[-8,23],[26,-3],[7,-23]],[[4096,1271],[0,-47],[-55,-13],[15,-15],[-32,-2],[0,-63],[-94,21],[-3,24],[47,-7],[10,43],[40,17],[8,63],[45,10],[19,-31]],[[4008,366],[-20,19],[4,35],[40,-18],[-24,-36]],[[4023,300],[-102,-24],[14,-114],[-40,-9],[-49,44],[25,45],[-48,63],[-1,44],[49,17],[16,80],[39,-1],[26,-16],[0,-71],[48,-9],[23,-49]],[[4096,917],[0,-394],[-7,3],[-65,89],[-49,7],[-56,-42],[17,-48],[-17,-41],[-81,35],[41,27],[-49,36],[-16,-36],[-43,15],[-1,-26],[28,11],[8,-26],[-24,-36],[-41,44],[-24,-44],[-24,35],[-81,-17],[-57,-54],[-32,18],[24,116],[65,-36],[98,14],[23,138],[16,-9],[60,88],[120,2],[27,68],[97,21],[43,42]],[[3807,700],[7,-29],[16,-2],[0,42],[-23,-11]],[[3774,589],[34,1],[6,25],[-36,-13],[-4,-13]],[[4096,1147],[0,-186],[-1,43],[-34,-9],[-29,48],[41,26],[-31,78],[23,20],[24,-18],[7,-2]],[[1036,2641],[1,352],[-821,-1],[1,1104],[1337,0],[592,-804],[-152,-299],[-415,0],[-344,-352],[-199,0]]]}