{"objects":{"water":{"type":"GeometryCollection","geometries":[{"type":"MultiPolygon","properties":{"source":"naturalearthdata.com","kind":"ocean","area":1444195503964160,"sort_rank":200,"min_zoom":0.0,"id":1},"arcs":[[[0],[1],[2],[3],[4],[5],[6],[7],[8],[9],[10],[11],[12],[13],[14],[15],[16],[17],[18],[19],[20],[21],[22]],[[23]],[[24]],[[25]],[[26]],[[27]],[[28]],[[29]],[[30]]]},{"type":"MultiLineString","properties":{"source":"naturalearthdata.com","kind":"ocean","sort_rank":205,"boundary":true,"min_zoom":0.0,"id":136},"arcs":[[31],[32],[33]]},{"type":"MultiLineString","properties":{"source":"naturalearthdata.com","kind":"ocean","sort_rank":205,"boundary":true,"min_zoom":0.0,"id":139},"arcs":[[34],[35],[36],[37],[38],[39],[40],[41]]},{"type":"LineString","properties":{"source":"naturalearthdata.com","kind":"ocean","sort_rank":205,"boundary":true,"min_zoom":0.0,"id":922},"arcs":[42]},{"type":"LineString","properties":{"source":"naturalearthdata.com","kind":"ocean","sort_rank":205,"boundary":true,"min_zoom":0.0,"id":924},"arcs":[43]},{"type":"MultiLineString","properties":{"source":"naturalearthdata.com","kind":"ocean","sort_rank":205,"boundary":true,"min_zoom":0.0,"id":925},"arcs":[[44],[45],[46]]},{"type":"LineString","properties":{"source":"naturalearthdata.com","kind":"ocean","sort_rank":205,"boundary":true,"min_zoom":0.0,"id":926},"arcs":[47]},{"type":"LineString","properties":{"source":"naturalearthdata.com","kind":"ocean","sort_rank":205,"boundary":true,"min_zoom":0.0,"id":927},"arcs":[48]},{"type":"LineString","properties":{"source":"naturalearthdata.com","kind":"ocean","sort_rank":205,"boundary":true,"min_zoom":0.0,"id":928},"arcs":[49]},{"type":"LineString","properties":{"source":"naturalearthdata.com","kind":"ocean","sort_rank":205,"boundary":true,"min_zoom":0.0,"id":929},"arcs":[50]},{"type":"LineString","properties":{"source":"naturalearthdata.com","kind":"ocean","sort_rank":205,"boundary":true,"min_zoom":0.0,"id":930},"arcs":[51]},{"type":"LineString","properties":{"source":"naturalearthdata.com","kind":"ocean","sort_rank":205,"boundary":true,"min_zoom":0.0,"id":932},"arcs":[52]},{"type":"LineString","properties":{"source":"naturalearthdata.com","kind":"ocean","sort_rank":205,"boundary":true,"min_zoom":0.0,"id":933},"arcs":[53]},{"type":"LineString","properties":{"source":"naturalearthdata.com","kind":"ocean","sort_rank":205,"boundary":true,"min_zoom":0.0,"id":934},"arcs":[54]},{"type":"LineString","properties":{"source":"naturalearthdata.com","kind":"ocean","sort_rank":205,"boundary":true,"min_zoom":0.0,"id":935},"arcs":[55]},{"type":"LineString","properties":{"source":"naturalearthdata.com","kind":"ocean","sort_rank":205,"boundary":true,"min_zoom":0.0,"id":936},"arcs":[56]},{"type":"LineString","properties":{"source":"naturalearthdata.com","kind":"ocean","sort_rank":205,"boundary":true,"min_zoom":0.0,"id":937},"arcs":[57]},{"type":"LineString","properties":{"source":"naturalearthdata.com","kind":"ocean","sort_rank":205,"boundary":true,"min_zoom":0.0,"id":938},"arcs":[58]},{"type":"LineString","properties":{"source":"naturalearthdata.com","kind":"ocean","sort_rank":205,"boundary":true,"min_zoom":0.0,"id":939},"arcs":[59]},{"type":"LineString","properties":{"source":"naturalearthdata.com","kind":"ocean","sort_rank":205,"boundary":true,"min_zoom":0.0,"id":940},"arcs":[60]},{"type":"LineString","properties":{"source":"naturalearthdata.com","kind":"ocean","sort_rank":205,"boundary":true,"min_zoom":0.0,"id":941},"arcs":[61]},{"type":"LineString","properties":{"source":"naturalearthdata.com","kind":"ocean","sort_rank":205,"boundary":true,"min_zoom":0.0,"id":942},"arcs":[62]},{"type":"LineString","properties":{"source":"naturalearthdata.com","kind":"ocean","sort_rank":205,"boundary":true,"min_zoom":0.0,"id":943},"arcs":[63]},{"type":"LineString","properties":{"source":"naturalearthdata.com","kind":"ocean","sort_rank":205,"boundary":true,"min_zoom":0.0,"id":944},"arcs":[64]},{"type":"LineString","properties":{"source":"naturalearthdata.com","kind":"ocean","sort_rank":205,"boundary":true,"min_zoom":0.0,"id":945},"arcs":[65]},{"type":"LineString","properties":{"source":"naturalearthdata.com","kind":"ocean","sort_rank":205,"boundary":true,"min_zoom":0.0,"id":947},"arcs":[66]},{"type":"Point","properties":{"label_placement":true,"kind":"sea","name":"Sea of the Hebrides","source":"openstreetmap.org","sort_rank":200,"min_zoom":3.0,"id":4805392450},"coordinates":[2837,511]}]},"buildings":{"type":"GeometryCollection","geometries":[]},"places":{"type":"GeometryCollection","geometries":[{"type":"Point","properties":{"name:kg":"Islande","name:ka":"\u10d8\u10e1\u10da\u10d0\u10dc\u10d3\u10d8\u10d0","name:ko":"\uc544\uc774\uc2ac\ub780\ub4dc","name:cv":"\u0418\u0441\u043b\u0430\u043d\u0434\u0438","name:cu":"\u0418\u0441\u043b\u0430\u043d\u0434\u044a","name:kl":"Islandi","name:cs":"Island","name:ki":"Aislandi","name:co":"Islanda","name:kv":"\u0418\u0441\u043b\u0430\u043d\u0434\u0438\u044f","name:ku":"\u00cesland","name:ti":"\u12a0\u12ed\u1235\u120b\u1295\u12f5","name:ks":"\u0627\u064e\u06cc\u0650\u0633\u0644\u06cc\u0646\u065b\u0691","name:to":"\u02bbAisilani","name:tl":"Islandia","name:ce":"\u0418\u0441\u043b\u0430\u043d\u0434\u0438","name:ta":"\u0b90\u0bb8\u0bcd\u0bb2\u0bbe\u0ba8\u0bcd\u0ba4\u0bc1","name:tg":"\u0418\u0441\u043b\u0430\u043d\u0434\u0438\u044f","name:ca":"Isl\u00e0ndia","name:te":"\u0c10\u0c38\u0c4d\u0c32\u0c3e\u0c02\u0c21\u0c4d","name:cy":"Gwlad yr I\u00e2","name:hr":"Island","name:da":"Island","name:de":"Island","name:dz":"\u0f68\u0f71\u0f60\u0f72\u0f66\u0f0b\u0f63\u0f7a\u0f53\u0f4c","source":"openstreetmap.org","name:kn":"\u0c90\u0cb8\u0ccd\u200c\u0cb2\u0ccd\u0caf\u0cbe\u0c82\u0ca1\u0ccd","name:dv":"\u0787\u07a6\u0787\u07a8\u0790\u07b0\u078d\u07a6\u0782\u07b0\u0791\u07a6\u0782\u07b0","name:km":"\u17a2\u17ca\u17b8\u179f\u17d2\u179b\u1784\u17cb","name:lv":"\u012aslande","name:lt":"Islandija","name:uz":"Islandiya","name:kk":"\u0418\u0441\u043b\u0430\u043d\u0434\u0438\u044f","name:ur":"\u0622\u0626\u0633 \u0644\u06cc\u0646\u0688","name:lb":"Island","name:la":"Islandia","name:lg":"Ayisirandi","name:uk":"\u0406\u0441\u043b\u0430\u043d\u0434\u0456\u044f","name:ug":"\u0626\u0649\u0633\u0644\u0627\u0646\u062f\u0649\u064a\u06d5","name:li":"Iesland","name:ln":"Isiland\u025b","name:lo":"\u0ec4\u0ead\u0eaa\u0ec1\u0ea5\u0e99","name:el":"\u0399\u03c3\u03bb\u03b1\u03bd\u03b4\u03af\u03b1","name:eo":"Islando","name:en":"Iceland","name":"\u00cdsland","name:tk":"Islandi\u00fda","name:ee":"Aiseland nutome","name:th":"\u0e1b\u0e23\u0e30\u0e40\u0e17\u0e28\u0e44\u0e2d\u0e0b\u0e4c\u0e41\u0e25\u0e19\u0e14\u0e4c","name:eu":"Islandia","name:et":"Island","name:es":"Islandia","name:ia":"Islanda","name:rm":"Islanda","name:rn":"Ayisilandi","name:az":"\u0130slandiya","name:ie":"Island","name:id":"Islandia","name:ar":"\u0622\u064a\u0633\u0644\u0646\u062f\u0627","name:io":"Islando","name:ak":"Aesland","name:am":"\u12a0\u12ed\u1235\u120b\u1295\u12f5","name:it":"Islanda","name:an":"Islandia","name:ru":"\u0418\u0441\u043b\u0430\u043d\u0434\u0438\u044f","name:rw":"Isilande","name:af":"Ysland","name:zu":"i-Iceland","name:ky":"\u0418\u0441\u043b\u0430\u043d\u0434\u0438\u044f","name:zh-yue":"\u51b0\u5cf6","name:zh":"\u51b0\u5c9b","name:so":"Iislaand","name:sn":"Iceland","name:sm":"Aiselani","name:sl":"Islandija","name:sk":"Island","name:ja":"\u30a2\u30a4\u30b9\u30e9\u30f3\u30c9","name:si":"\u0d85\u0dba\u0dd2\u0dc3\u0dca\u0dbd\u0db1\u0dca\u0dad\u0dba","name:sh":"Island","name:sg":"Isl\u00e2nde","name:se":"Isl\u00e1nda","name:sc":"Islanda","name:br":"Island","name:bs":"Island","name:bm":"Isilandi","name:bn":"\u0986\u0987\u09b8\u09b2\u09a3\u09cd\u09a1","name:bo":"\u0f68\u0f0b\u0f68\u0f72\u0f0b\u0f66\u0f72\u0f0b\u0f63\u0f53\u0f51\u0f0d","name:bi":"Iceland","name:sw":"Aislandi","name:be":"\u0406\u0441\u043b\u0430\u043d\u0434\u044b\u044f","name:su":"Islandia","name:bg":"\u0418\u0441\u043b\u0430\u043d\u0434\u0438\u044f","name:ss":"Echweni","name:ba":"\u0418\u0441\u043b\u0430\u043d\u0434\u0438\u044f","name:sq":"Island\u00eb","name:jv":"Islandia","name:sa":"\u0906\u0907\u0938\u0932\u0948\u0902\u0921","name:pt":"Isl\u00e2ndia","name:ps":"\u0622\u06cc\u0633\u0644\u06cc\u0646\u0689","name:oc":"Isl\u00e0ndia","min_zoom":2.0,"name:ro":"Islanda","name:zh-min-nan":"Peng-t\u0113","name:os":"\u0418\u0441\u043b\u0430\u043d\u0434\u0438","name:or":"\u0b06\u0b07\u0b38\u0b32\u0b4d\u0b5f\u0b3e\u0b23\u0b4d\u0b21","name:pl":"Islandia","name:st":"Iceland","name:sr":"\u0418\u0441\u043b\u0430\u043d\u0434","name:pa":"\u0a06\u0a08\u0a38\u0a32\u0a48\u0a02\u0a21","name:tr":"\u0130zlanda","name:hi":"\u0906\u0907\u0938\u0932\u0948\u0902\u0921","name:sv":"Island","name:he":"\u05d0\u05d9\u05e1\u05dc\u05e0\u05d3","name:ha":"Aisalan","name:hy":"\u053b\u057d\u056c\u0561\u0576\u0564\u056b\u0561","name:ht":"Islann","name:hu":"Izland","name:qu":"Islandya","population":320000,"kind":"country","name:yi":"\u05d0\u05d9\u05e1\u05dc\u05d0\u05e0\u05d3","name:yo":"Or\u00edl\u1eb9\u0301\u00e8de A\u1e63ilandi","name:mt":"Islanda","name:ms":"Iceland","name:mr":"\u0906\u0907\u0938\u0932\u0901\u0921","name:my":"\u1021\u102d\u102f\u1000\u103a\u1005\u101c\u1014\u103a","official_name":"L\u00fd\u00f0veldi\u00f0 \u00cdsland","name:kw":"Island","name:mg":"Islandy","name:ml":"\u0d10\u0d38\u0d4d\u200c\u0d32\u0d3e\u0d28\u0d4d\u0d31\u0d4d","name:vi":"Iceland","name:mn":"\u0418\u0441\u043b\u0430\u043d\u0434","name:mi":"Tiorangi","id":424314784,"name:mk":"\u0418\u0441\u043b\u0430\u043d\u0434","name:vo":"Lislade\u00e4n","name:fa":"\u0627\u06cc\u0633\u0644\u0646\u062f","name:ff":"Islannda","name:fi":"Islanti","name:fr":"Islande","name:fy":"Ysl\u00e2n","int_name":"Iceland","name:nl":"IJsland","name:nn":"Island","name:no":"Island","name:na":"Aiterand","name:nb":"Island","name:ne":"\u0906\u0907\u0938\u094d\u0932\u094d\u092f\u093e\u0923\u094d\u0921","name:wa":"Izlande","name:wo":"Islaand","name:nv":"Tin Bik\u00e9yah","name:ga":"An \u00cdoslainn","name:gd":"Innis T\u00ecle","name:gn":"Iylanda","name:gl":"Islandia","name:gv":"Yn Eeslynn","name:gu":"\u0a86\u0a87\u0ab8\u0ab2\u0ac7\u0aa8\u0acd\u0aa1","name:tt":"\u0418\u0441\u043b\u0430\u043d\u0434\u0438\u044f"},"coordinates":[800,3513]},{"type":"Point","properties":{"name:pt":"Ilhas Feroe","name:ka":"\u10e4\u10d0\u10e0\u10d4\u10e0\u10d8\u10e1 \u10d9\u10e3\u10dc\u10eb\u10e3\u10da\u10d4\u10d1\u10d8","alt_name:el":"\u039d\u03b7\u03c3\u03b9\u03ac \u03a6\u03b5\u03c1\u03cc\u03b5\u03c2","name:ko":"\ud398\ub85c \uc81c\ub3c4","name:kn":"\u0cab\u0cb0\u0ccb \u0ca6\u0ccd\u0cb5\u0cc0\u0caa\u0c97\u0cb3\u0cc1","name:km":"\u1780\u17c4\u17c7\u200b\u17a0\u17d2\u179c\u17b6\u179a\u17c9\u17bc","name:kl":"Savalimmiut","name:cs":"Faersk\u00e9 ostrovy","name:tt":"\u0424\u0430\u0440\u0435\u0440 \u0443\u0442\u0440\u0430\u0443\u043b\u0430\u0440\u044b","name:kw":"Ynysow Faroe","name:kv":"\u0424\u0430\u0440\u0435\u0440 \u0434\u0456\u044f\u0441","name:ku":"Girav\u00ean Faroe","name:ti":"\u12e8\u134b\u122e\u12ed \u12f0\u1234\u1276\u127d","name:to":"\u02bbOtumotu Felou","name:tl":"Kapuluang Peroe","name:zh-min-nan":"M\u00ee-i\u00fb\u207f K\u00fbn-t\u00f3","name:os":"\u0424\u0430\u0440\u0435\u0440\u0430\u0433 \u0441\u0430\u043a\u044a\u0430\u0434\u00e6\u0445\u0442\u00e6","name:or":"\u0b2b\u0b3e\u0b30\u0b4b\u0b07 \u0b26\u0b4d\u0b2c\u0b40\u0b2a\u0b2a\u0b41\u0b1e\u0b4d\u0b1c","name:ce":"\u0424\u0430\u0440\u0435\u0440\u0438\u0439\u043d \u0433\u0406\u0430\u0439\u0440\u0435\u043d\u0430\u0448","name:ta":"\u0baa\u0bb0\u0bcb\u0baf\u0bc7 \u0ba4\u0bc0\u0bb5\u0bc1\u0b95\u0bb3\u0bcd","name:tg":"\u04b6\u0430\u0437\u0438\u0440\u0430\u04b3\u043e\u0438 \u0424\u0430\u0440\u043e","name:ca":"Illes F\u00e8roe","name:te":"\u0c2b\u0c3e\u0c30\u0c4b \u0c26\u0c40\u0c35\u0c41\u0c32\u0c41","name:vi":"Qu\u1ea7n \u0111\u1ea3o Faroe","name:hu":"Fer\u00f6er","name:ro":"Insulele Feroe","name:cy":"Ynysoedd Ffaroe","name:qu":"Pharuy","name:da":"F\u00e6r\u00f8erne","name:de":"F\u00e4r\u00f6er","name:dz":"\u0f55\u0f71\u0f60\u0f7a\u0f0b\u0f62\u0f7c\u0f0b\u0f42\u0fb3\u0f72\u0f44\u0f0b\u0f5a\u0f7c\u0f58","source":"openstreetmap.org","name:yo":"\u00c0w\u1ecdn Er\u00e9k\u00f9\u1e63\u00f9 F\u00e0r\u00f3\u00e8","name:dv":"\u078a\u07a6\u0783\u07ae\u0787\u07ad \u0796\u07a6\u0792\u07a9\u0783\u07a7","name:lv":"Far\u0113ru (F\u0113ru) salas","name:lt":"Farerai","name:hi":"\u092b\u093c\u0930\u094b \u0926\u094d\u0935\u0940\u092a","name:kk":"\u0424\u0430\u0440\u0435\u0440 \u0430\u0440\u0430\u043b\u0434\u0430\u0440\u044b","name:sv":"F\u00e4r\u00f6arna","name:he":"\u05d0\u05d9\u05d9 \u05e4\u05d0\u05e8\u05d5","kind":"country","name:ur":"\u0641\u0631\u0648\u0626\u06cc \u0622\u0626\u0644\u06cc\u0646\u0688\u0632","name:la":"Insulae Faeroae","name:uk":"\u0424\u0430\u0440\u0435\u0440\u0441\u044c\u043a\u0456 \u043e\u0441\u0442\u0440\u043e\u0432\u0438","name:hy":"\u0556\u0561\u0580\u0565\u0580\u0575\u0561\u0576 \u056f\u0572\u0566\u056b\u0576\u0565\u0580","min_zoom":2.0,"name:li":"Faer\u00f6er","name:ln":"Bisanga ya F\u025br\u00f3a","name:lo":"\u0eab\u0ea1\u0eb9\u0ec8\u0ec0\u0e81\u0eb2\u0eb0\u0ec1\u0e9f\u0ec2\u0ea3","name:oc":"Illas Fer\u00f2e","population":48565,"name:el":"\u039d\u03ae\u03c3\u03bf\u03b9 \u03a6\u03b5\u03c1\u03cc\u03b5\u03c2","name:eo":"Ferooj","name:en":"Faroe Islands","name":"F\u00f8royar","name:ee":"Faroe \u0192udomekpowo nutome","name:th":"\u0e2b\u0e21\u0e39\u0e48\u0e40\u0e01\u0e32\u0e30\u0e41\u0e1f\u0e42\u0e23","name:eu":"Faroe Uharteak","name:et":"F\u00e4\u00e4ri saared","name:nl":"Faer\u00f6er","name:es":"Islas Feroe","name:ia":"Insulas Feroe","name:rm":"Inslas Feroe","name:az":"Farer adalar\u0131","name:id":"Kepulauan Faroe","name:ms":"Kepulauan Faroe","name:mr":"\u092b\u0947\u0930\u094b \u0926\u094d\u0935\u0940\u092a\u0938\u092e\u0942\u0939","name:ar":"\u062c\u0632\u0631 \u0641\u0627\u0631\u0648","name:my":"\u1016\u102c\u101b\u102d\u102f\u1038 \u1000\u103b\u103d\u1014\u103a\u1038\u1005\u102f\u1019\u103b\u102c\u1038","name:io":"Faero","int_name":"Faroe Islands","name:is":"F\u00e6reyjar","name:am":"\u134b\u122e \u12f0\u1234\u1276\u127d","name:it":"Isole F\u00e6r \u00d8er","name:an":"Islas Feroe","name:ru":"\u0424\u0430\u0440\u0435\u0440\u0441\u043a\u0438\u0435 \u041e\u0441\u0442\u0440\u043e\u0432\u0430","name:rw":"Ibirwa bya Farowe","name:mi":"Moutere Faroe","name:pl":"Wyspy Owcze","name:mk":"\u0424\u0430\u0440\u0441\u043a\u0438 \u041e\u0441\u0442\u0440\u043e\u0432\u0438","name:af":"Faro\u00ebreilande","name:zu":"i-Faroe Islands","name:mn":"\u0424\u0430\u0440\u0435\u0440\u044b\u043d \u0410\u0440\u043b\u0443\u0443\u0434","name:nn":"F\u00e6r\u00f8yane","name:fi":"F\u00e4rsaaret","name:no":"F\u00e6r\u00f8yene","id":424312044,"name:mt":"G\u017cejjer Faroe","name:fr":"\u00celes F\u00e9ro\u00e9","name:zh-yue":"\u6cd5\u7f85\u7fa4\u5cf6","name:fy":"Faer\u00f6er","name:zh":"\u6cd5\u7f57\u7fa4\u5c9b","name:gv":"Ellanyn ny Geyrragh","name:so":"Jasiiradaha Feroe","name:sl":"Ferski otoki","name:sk":"Faersk\u00e9 ostrovy","name:ja":"\u30d5\u30a7\u30ed\u30fc\u8af8\u5cf6","name:si":"\u0dc6\u0dd0\u0dbb\u0ddd \u0daf\u0dd6\u0db4\u0dad\u0dca","name:sh":"Farski Otoci","name:se":"Fearsullot","name:ne":"\u092b\u093e\u0930\u094b\u0930 \u091f\u093e\u092a\u0941","name:br":"Inizi Faero","name:bs":"Farska ostrva","name:bn":"\u09ab\u09cd\u09af\u09be\u09b0\u0993 \u09a6\u09cd\u09ac\u09c0\u09aa\u09aa\u09c1\u099e\u09cd\u099c","name:bi":"Faroe aelan","name:sw":"Visiwa vya Faroe","name:be":"\u0424\u0430\u0440\u044d\u0440\u0441\u043a\u0456\u044f \u0430\u0441\u0442\u0440\u0430\u0432\u044b","name:su":"Kapuloan Faroe","name:bg":"\u0424\u0430\u0440\u044c\u043e\u0440\u0441\u043a\u0438 \u043e\u0441\u0442\u0440\u043e\u0432\u0438","name:wo":"Duni Faarow","name:sr":"\u0424\u0430\u0440\u0441\u043a\u0430 \u041e\u0441\u0442\u0440\u0432\u0430","name:sq":"Ishujt Faroe","name:ga":"Na Scigir\u00ed","name:gd":"Na h-Eileanan F\u00e0ro","name:ml":"\u0d2b\u0d31\u0d4b\u0d2f\u0d3f \u0d26\u0d4d\u0d35\u0d40\u0d2a\u0d41\u0d15\u0d7e","name:jv":"Kapuloan Faroe","name:gl":"Illas Feroe","name:fa":"\u0641\u0627\u0631\u0648","name:tr":"Faroe Adalar\u0131","name:gu":"\u0aab\u0ac5\u0ab0\u0acb \u0a86\u0a87\u0ab2\u0ac7\u0aa8\u0acd\u0aa1\u0acd\u0ab8"},"coordinates":[2816,2391]},{"type":"Point","properties":{"name:ia":"Scotia","alt_name:eo":"Skotio;Skotujo","name:cy":"Yr Alban","name:cs":"Skotsko","name:io":"Skotia","min_zoom":4.0,"name:sv":"Skottland","name:ru":"\u0428\u043e\u0442\u043b\u0430\u043d\u0434\u0438\u044f","name:pl":"Szkocja","id":470649732,"name:vo":"Skot\u00e4n","kind_detail":"state","name:da":"Skotland","kind":"region","name:de":"Schottland","source":"openstreetmap.org","name:fr":"\u00c9cosse","name:zh":"\u82cf\u683c\u5170","name:nl":"Schotland","name:ja":"\u30b9\u30b3\u30c3\u30c8\u30e9\u30f3\u30c9","name:eo":"Skotlando","name:sk":"\u0160k\u00f3tsko","name:uk":"\u0428\u043e\u0442\u043b\u0430\u043d\u0434\u0456\u044f","name:be":"\u0428\u0430\u0442\u043b\u0430\u043d\u0434\u044b\u044f","name:hr":"\u0160kotska","name:sr":"\u0428\u043a\u043e\u0442\u0441\u043a\u0430","name:ga":"Albain","name":"Scotland","name:gd":"Alba","name:ku":"Skotland","name:eu":"Eskozia","name:es":"Escocia"},"coordinates":[3347,385]}]},"transit":{"type":"GeometryCollection","geometries":[]},"pois":{"type":"GeometryCollection","geometries":[{"type":"Point","properties":{"kind":"national_park","name:en":"Vatnaj\u00f6kull National Park","protect_class":"2","area":75581000000,"source":"openstreetmap.org","min_zoom":3.0,"tier":1,"id":-6149205,"osm_relation":true,"name":"Vatnaj\u00f6kuls\u00fej\u00f3\u00f0gar\u00f0ur"},"coordinates":[1053,3392]},{"type":"Point","properties":{"kind":"national_park","name":"Loch Lomond and The Trossachs National Park","area":6013290000,"name:gd":"P\u00e0irc N\u00e0iseanta Loch Laomainn is nan Tr\u00f2isichean","source":"openstreetmap.org","min_zoom":4.51,"tier":1,"id":-1957067,"osm_relation":true},"coordinates":[3272,173]},{"type":"Point","properties":{"kind":"national_park","name":"Cairngorms National Park","area":15265100000,"name:gd":"P\u00e0irc N\u00e0iseanta a' Mhonaidh Ruaidh","source":"openstreetmap.org","min_zoom":3.84,"tier":1,"id":-1947603,"osm_relation":true},"coordinates":[3439,497]},{"type":"Point","properties":{"kind":"nature_reserve","protect_class":"98","area":111383000000,"source":"openstreetmap.org","min_zoom":4.0,"tier":2,"id":401550477,"name":"North-East Faroe Shetland Channel Marine Protected Area"},"coordinates":[3998,2678]},{"type":"Point","properties":{"kind":"nature_reserve","protect_class":"98","area":26411200000,"source":"openstreetmap.org","min_zoom":4.95,"tier":2,"id":405134163,"name":"Rosemary Bank Seamount Marine Protected Area"},"coordinates":[2255,1322]}]},"boundaries":{"type":"GeometryCollection","geometries":[]},"roads":{"type":"GeometryCollection","geometries":[]},"earth":{"type":"GeometryCollection","geometries":[{"type":"MultiPolygon","properties":{"sort_rank":10,"source":"naturalearthdata.com","min_zoom":0.0,"kind":"earth","area":2766386808891},"arcs":[[[67]],[[68]],[[69]],[[70]],[[71]],[[72]],[[73]],[[74]],[[75]],[[76]],[[77]],[[78]],[[79]],[[80]],[[81]],[[82]],[[83]],[[84]],[[85]],[[86]],[[87]],[[88]],[[89]],[[90]],[[91]]]}]},"landuse":{"type":"GeometryCollection","geometries":[{"type":"Polygon","properties":{"kind":"nature_reserve","name":"Geikie Slide and Hebridean Slope Marine Protected Area","area":8040019968,"sort_rank":23,"source":"openstreetmap.org","min_zoom":4.0,"tier":2,"id":405131845,"protect_class":"98"},"arcs":[[92]]},{"type":"Polygon","properties":{"kind":"nature_reserve","name":"Small Isles Marine Protected Area","area":2704000000,"sort_rank":23,"source":"openstreetmap.org","min_zoom":4.0,"tier":2,"id":-6066471,"osm_relation":true,"protect_class":"98"},"arcs":[[93],[94],[95]]},{"type":"Polygon","properties":{"kind":"nature_reserve","name":"Faroe-Shetland Sponge Belt Marine Protected Area","area":22161299456,"sort_rank":23,"source":"openstreetmap.org","min_zoom":4.0,"tier":2,"id":405131229,"protect_class":"98"},"arcs":[[96]]},{"type":"Polygon","properties":{"kind":"nature_reserve","name":"North-west Orkney Marine Protected Area","area":16925599744,"sort_rank":23,"source":"openstreetmap.org","min_zoom":4.0,"tier":2,"id":405132858,"protect_class":"98"},"arcs":[[97]]},{"type":"Polygon","properties":{"kind":"nature_reserve","name":"Hatton-Rockall Basin Marine Protected Area","area":4478360064,"sort_rank":23,"source":"openstreetmap.org","min_zoom":4.0,"tier":2,"id":405132363,"protect_class":"98"},"arcs":[[98]]},{"type":"Polygon","properties":{"kind":"nature_reserve","name":"Reykjanesf\u00f3lkvangur","area":1508620032,"sort_rank":23,"source":"openstreetmap.org","min_zoom":4.0,"tier":2,"id":-6149202,"osm_relation":true,"protect_class":"5"},"arcs":[[99]]},{"type":"Polygon","properties":{"kind":"nature_reserve","name":"Central Fladen Marine Protected Area","area":3484649984,"sort_rank":23,"source":"openstreetmap.org","min_zoom":4.0,"tier":2,"id":405131802,"protect_class":"98"},"arcs":[[100]]},{"type":"Polygon","properties":{"kind":"national_park","name":"Vatnaj\u00f6kuls\u00fej\u00f3\u00f0gar\u00f0ur","area":75580997632,"sort_rank":18,"source":"openstreetmap.org","min_zoom":3.0,"tier":1,"id":-6149205,"osm_relation":true,"protect_class":"2"},"arcs":[[101]]},{"type":"Polygon","properties":{"kind":"nature_reserve","name":"Hornstrandir","area":3646050048,"sort_rank":23,"source":"openstreetmap.org","min_zoom":4.0,"tier":2,"id":-6149201,"osm_relation":true,"protect_class":"4"},"arcs":[[102]]},{"type":"Polygon","properties":{"kind":"nature_reserve","name":"Firth of Forth Banks Marine Protected Area","area":2702200064,"sort_rank":23,"source":"openstreetmap.org","min_zoom":4.0,"tier":2,"id":400554800,"protect_class":"97"},"arcs":[[103]]},{"type":"Polygon","properties":{"kind":"nature_reserve","name":"West Shetland Shelf Marine Protected Area","area":15881400320,"sort_rank":23,"source":"openstreetmap.org","min_zoom":4.0,"tier":2,"id":405134504,"protect_class":"98"},"arcs":[[104]]},{"type":"Polygon","properties":{"kind":"nature_reserve","name":"Loch Sunart to the Sound of Jura Marine Protected Area","area":2293210112,"sort_rank":23,"source":"openstreetmap.org","min_zoom":4.0,"tier":2,"id":-6055457,"osm_relation":true,"protect_class":"98"},"arcs":[[105],[106],[107],[108]]},{"type":"MultiPolygon","properties":{"kind":"nature_reserve","name":"Firth of Forth Banks Marine Protected Area","area":6436275929,"sort_rank":23,"source":"openstreetmap.org","min_zoom":4.0,"tier":2,"osm_relation":true},"arcs":[[[109]],[[110]],[[111]]]},{"type":"MultiPolygon","properties":{"source":"openstreetmap.org","kind":"nature_reserve","tier":2,"area":6436275929,"sort_rank":23,"min_zoom":4.0},"arcs":[[[112]],[[113]],[[114]]]},{"type":"Polygon","properties":{"kind":"national_park","name":"Loch Lomond and The Trossachs National Park","area":6013289984,"sort_rank":18,"source":"openstreetmap.org","min_zoom":3.0,"tier":1,"id":-1957067,"osm_relation":true},"arcs":[[115]]},{"type":"MultiPolygon","properties":{"kind":"protected_area","name":"Brei\u00f0afj\u00f6r\u00f0ur","area":16266900480,"sort_rank":17,"source":"openstreetmap.org","min_zoom":4.0,"tier":2,"id":-6149195,"osm_relation":true,"protect_class":"5"},"arcs":[[[116]],[[117]]]},{"type":"MultiPolygon","properties":{"source":"naturalearthdata.com","kind":"urban_area","name":"","area":60672632464,"sort_rank":11,"min_zoom":4.0},"arcs":[[[118]],[[119]],[[120]],[[121]],[[122]],[[123]],[[124]],[[125]],[[126]]]},{"type":"Polygon","properties":{"kind":"national_park","name":"Cairngorms National Park","area":15265099776,"sort_rank":18,"source":"openstreetmap.org","min_zoom":3.0,"tier":1,"id":-1947603,"osm_relation":true},"arcs":[[127]]},{"type":"Polygon","properties":{"kind":"nature_reserve","name":"Wester Ross Marine Protected Area","area":2155379968,"sort_rank":23,"source":"openstreetmap.org","min_zoom":4.0,"tier":2,"id":-6072461,"osm_relation":true,"protect_class":"98"},"arcs":[[128],[129],[130]]},{"type":"Polygon","properties":{"kind":"nature_reserve","name":"North-East Faroe Shetland Channel Marine Protected Area","area":111383003136,"sort_rank":23,"source":"openstreetmap.org","min_zoom":4.0,"tier":2,"id":401550477,"protect_class":"98"},"arcs":[[131]]},{"type":"Polygon","properties":{"kind":"nature_reserve","name":"L\u00f3ns\u00f6r\u00e6fi","area":1586630016,"sort_rank":23,"source":"openstreetmap.org","min_zoom":4.0,"tier":2,"id":-6187773,"osm_relation":true,"protect_class":"2"},"arcs":[[132]]},{"type":"Polygon","properties":{"kind":"nature_reserve","name":"Fri\u00f0land a\u00f0 Fjallabaki","area":2313189888,"sort_rank":23,"source":"openstreetmap.org","min_zoom":4.0,"tier":2,"id":411196911,"protect_class":"5"},"arcs":[[133]]},{"type":"Polygon","properties":{"kind":"nature_reserve","name":"The Barra Fan and Hebrides Terrace Seamount Marine Protected Area","area":14427199488,"sort_rank":23,"source":"openstreetmap.org","min_zoom":4.0,"tier":2,"id":405134201,"protect_class":"98"},"arcs":[[134]]},{"type":"Polygon","properties":{"kind":"protected_area","name":"Gu\u00f0laugs- og \u00c1lfgeirstungur","area":2210050048,"sort_rank":17,"source":"openstreetmap.org","min_zoom":4.0,"tier":2,"id":-6149199,"osm_relation":true,"protect_class":"4"},"arcs":[[135]]},{"type":"Polygon","properties":{"kind":"nature_reserve","name":"Rosemary Bank Seamount Marine Protected Area","area":26411200512,"sort_rank":23,"source":"openstreetmap.org","min_zoom":4.0,"tier":2,"id":405134163,"protect_class":"98"},"arcs":[[136]]},{"type":"Polygon","properties":{"kind":"national_park","name":"\u00dej\u00f3\u00f0gar\u00f0urinn \u00e1 \u00deingv\u00f6llum","area":1205280000,"sort_rank":18,"operator":"\u00deingvallanefnd","source":"openstreetmap.org","min_zoom":3.0,"tier":1,"id":411197280,"protect_class":"2"},"arcs":[[137]]}]}},"type":"Topology","transform":{"translate":[-22.5,55.7765730187],"scale":[0.0054931641,0.0026212616]},"arcs":[[[4096,4096],[0,-4096],[-359,0],[-8,12],[-24,36],[-82,48],[-43,-1],[-33,-26],[-6,-2],[-102,24],[-17,11],[-16,20],[17,-13],[39,-11],[22,-2],[17,6],[16,14],[37,43],[38,3],[17,20],[4,25],[-42,30],[-37,-3],[-20,-9],[-21,-1],[18,8],[16,15],[14,10],[50,12],[17,12],[16,18],[17,29],[13,36],[31,51],[31,91],[5,19],[3,21],[4,19],[16,36],[18,26],[10,21],[0,7],[-16,45],[-17,25],[-21,10],[-31,-9],[-111,5],[-16,-1],[-17,-7],[-8,1],[-39,14],[-19,-1],[-41,-18],[-44,-23],[-22,-8],[-27,-1],[11,38],[34,42],[6,12],[-9,8],[-24,5],[3,24],[6,17],[39,35],[66,72],[36,31],[14,22],[4,11],[2,10],[-1,31],[9,28],[2,10],[-1,7],[-37,6],[-36,-12],[-38,-4],[-36,-12],[-60,-7],[-44,-17],[-11,21],[-8,-3],[-26,-18],[-6,-1],[-10,17],[-8,7],[-21,6],[-9,-3],[-7,-6],[-9,-17],[-2,-12],[-1,-27],[-2,-13],[2,-15],[9,-18],[4,-14],[-9,-4],[-38,0],[-13,-5],[-3,-10],[2,-13],[-1,-13],[-11,-28],[3,-10],[40,-52],[3,-10],[-24,9],[-5,-1],[-6,-9],[-47,1],[-10,-22],[-6,-17],[-9,-42],[1,-10],[5,-16],[6,-11],[18,-10],[-20,-9],[-12,-9],[-8,-12],[-3,-12],[4,-22],[25,-17],[5,-15],[12,-23],[-5,-50],[-26,-54],[-21,-16],[-2,-6],[24,-19],[-27,-28],[-29,-6],[-17,-18],[-1,-4],[14,-6],[16,-1],[6,-32],[13,-16],[17,-8],[22,-4],[16,13],[63,71],[5,2],[-9,-27],[-13,-26],[-3,-24],[-12,-15],[-7,-36],[-10,-27],[-9,-38],[-3,-44],[-10,-31],[-3,-92],[4,-6],[5,-2],[12,6],[1,-2],[-6,-10],[-99,0],[-2,10],[-7,49],[-16,-10],[-17,-19],[-6,7],[-6,-1],[-6,-6],[-6,-9],[-4,-9],[0,-12],[-2919,0],[0,3076],[23,2],[168,5],[12,6],[25,24],[17,3],[9,-2],[2,-2],[-11,-10],[3,-8],[24,-18],[23,-14],[27,-4],[1,-10],[14,-11],[10,-1],[24,22],[9,5],[9,-15],[-2,-3],[-12,-1],[-5,-3],[-4,-6],[-2,-9],[1,-8],[17,-19],[37,-31],[45,-2],[31,-6],[54,-22],[43,-14],[108,-13],[64,18],[15,7],[-8,16],[0,4],[2,2],[6,0],[14,-13],[12,0],[24,15],[12,21],[-1,6],[-6,5],[1,6],[13,18],[5,12],[33,13],[98,23],[29,13],[36,4],[18,5],[31,19],[42,46],[32,29],[42,25],[61,31],[44,14],[42,0],[18,9],[25,23],[29,14],[15,11],[13,19],[8,17],[2,17],[-5,6],[-3,14],[16,16],[-2,25],[16,-7],[30,-4],[16,10],[17,16],[18,30],[4,20],[1,17],[-5,13],[14,8],[23,1],[9,7],[6,13],[2,11],[0,10],[-4,7],[-32,19],[9,9],[6,3],[4,5],[2,8],[0,7],[-3,5],[-12,1],[-9,12],[-6,12],[4,5],[14,5],[7,7],[2,16],[7,18],[0,12],[-10,11],[-6,1],[-15,-7],[-10,20],[-17,12],[-42,10],[-25,-6],[-31,-20],[27,32],[1,10],[-5,10],[-4,11],[0,12],[-4,6],[-6,1],[-61,-13],[-12,3],[-2,7],[15,20],[12,24],[4,24],[-1,11],[-5,12],[-7,12],[-9,3],[-19,-8],[-22,9],[-19,15],[0,9],[16,20],[21,41],[23,18],[16,4],[19,12],[0,3],[-16,-2],[-31,2],[-21,-9],[-35,-29],[-15,-9],[-34,-13],[-21,1],[-19,12],[-10,10],[-2,28],[-8,13],[-17,15],[-24,31],[2910,0]],[[2903,2510],[0,-30],[-1,-20],[3,-7],[3,-3],[13,-5],[9,28],[-12,13],[-15,24]],[[2857,2476],[-28,19],[-39,-12],[29,-73],[37,-44],[16,-10],[2,5],[-2,10],[-16,34],[-5,6],[0,9],[3,7],[10,-3],[13,-14],[7,0],[5,51],[-32,15]],[[2788,2427],[-9,5],[-19,-5],[-15,1],[8,-25],[22,-11],[14,-3],[11,3],[10,10],[-6,11],[-16,14]],[[2865,2304],[17,-18],[5,0],[3,14],[0,8],[-7,13],[-23,13],[-10,3],[-7,-1],[3,-14],[5,-9],[14,-9]],[[2876,2152],[4,-1],[-4,11],[0,20],[-7,15],[0,13],[-5,6],[-21,7],[-4,10],[-5,2],[1,-12],[7,-26],[21,-32],[13,-13]],[[3946,1929],[-7,-10],[-5,3],[-5,-2],[-2,-5],[-2,-19],[3,-19],[2,-4],[16,-1],[0,12],[9,33],[0,4],[-5,7],[-4,1]],[[3913,1885],[-16,1],[-13,-44],[18,-39],[4,4],[2,6],[0,24],[-3,21],[1,3],[8,1],[1,11],[-2,12]],[[3859,1843],[-11,1],[-9,-4],[-16,-27],[-10,-4],[-3,-9],[4,-5],[18,-5],[14,-52],[-22,-15],[-15,2],[-16,-6],[1,-8],[3,-9],[5,-3],[18,0],[3,-3],[1,-11],[2,-8],[13,7],[16,-1],[6,-13],[3,-15],[-5,-29],[-10,-49],[10,-12],[3,3],[7,32],[9,14],[3,41],[3,4],[2,20],[4,11],[12,67],[2,24],[-12,-10],[-7,0],[-14,25],[-9,-7],[-4,27],[1,27]],[[3554,1362],[-12,-5],[-2,-4],[7,-12],[9,-7],[19,-10],[2,-25],[7,-8],[15,10],[2,12],[-2,3],[-15,6],[-9,18],[-21,22]],[[3622,1340],[-11,-22],[21,0],[22,15],[4,10],[-24,3],[-12,-6]],[[3493,1280],[-6,-25],[-2,-18],[2,-12],[2,-6],[5,-2],[12,13],[1,-4],[1,-13],[1,-7],[4,-5],[7,-2],[31,8],[24,-19],[7,1],[6,5],[5,19],[-10,10],[-12,1],[-20,8],[-14,0],[2,9],[7,11],[0,7],[-5,9],[-20,14],[-16,3],[-12,-5]],[[3500,1194],[-15,5],[-7,-4],[-1,-10],[6,-16],[16,-22],[10,-1],[11,5],[1,3],[-10,5],[-2,4],[-1,12],[-8,19]],[[3543,1162],[11,-25],[7,-7],[2,1],[3,22],[3,11],[-8,3],[-18,-5]],[[2996,12],[9,-2],[4,4],[32,73],[13,43],[-7,1],[-7,-4],[-25,-24],[-6,-16],[0,-5],[11,-6],[-24,-19],[-5,-13],[0,-17],[2,-9],[3,-6]],[[3034,285],[-21,4],[-15,29],[-13,14],[-6,1],[-8,-2],[-19,-12],[-4,-5],[-2,-12],[1,-6],[31,-24],[-8,-51],[-21,-6],[-5,-7],[3,-11],[25,-2],[72,22],[3,55],[-13,13]],[[2907,324],[9,15],[-4,3],[-12,-5],[-18,-25],[1,-6],[10,2],[14,16]],[[2730,448],[16,6],[3,6],[-1,7],[-9,7],[-13,-5],[-3,-13],[1,-5],[6,-3]],[[2941,449],[7,-1],[5,5],[3,8],[0,9],[-3,9],[-8,7],[-20,-12],[9,-18],[7,-7]],[[3001,487],[5,-3],[7,0],[6,7],[22,32],[18,19],[5,11],[-1,10],[-6,6],[-31,-2],[-35,8],[-4,7],[-8,5],[-1,15],[-4,21],[3,20],[0,16],[-3,31],[-15,25],[-11,8],[-9,-2],[-4,-24],[-44,-16],[1,-3],[6,-13],[0,-5],[-5,-6],[-6,-3],[-11,5],[-9,-14],[-2,-7],[4,-11],[12,-19],[42,-13],[15,-35],[7,-13],[10,-7],[19,-1],[23,7],[4,-56]],[[2777,515],[-4,94],[-5,4],[-21,-1],[1,-31],[-3,-27],[1,-14],[6,-23],[6,-6],[11,-2],[7,2],[1,4]],[[2763,670],[25,0],[17,36],[-21,21],[-12,-9],[-9,2],[-13,-7],[-8,4],[-6,-1],[-5,-7],[-3,-7],[0,-6],[35,-26]],[[2859,782],[20,32],[19,12],[28,30],[4,8],[0,13],[-6,6],[-21,1],[24,18],[8,17],[9,1],[24,67],[0,27],[-4,21],[-3,5],[-11,-6],[-45,-40],[-36,-23],[-7,-8],[-2,-6],[12,-33],[-1,-4],[-15,3],[-14,-5],[-11,13],[-12,4],[-2,-2],[-3,-8],[-8,-7],[-2,-17],[2,-16],[2,-7],[7,-2],[4,-7],[5,-2],[-12,-12],[-1,-6],[10,-10],[25,-16],[2,-4],[-16,-11],[-2,-11],[-24,-20],[13,-20],[6,-4],[5,0],[8,9],[10,20],[11,0]],[[0,4096],[1128,0],[-35,-12],[-8,-13],[20,-65],[-1,-9],[-9,-22],[-25,-9],[-23,-16],[-16,-2],[-16,7],[-8,9],[-17,11],[-10,4],[-7,-1],[-33,-44],[-15,-24],[-9,-10],[-13,-8],[-2,-5],[-6,2],[-9,11],[-34,44],[-16,11],[-50,6],[-21,-1],[-4,-11],[1,-13],[30,-72],[9,-29],[-1,-21],[-2,-9],[-5,-6],[-4,1],[-3,8],[-17,48],[-33,31],[-25,40],[-20,25],[-13,13],[-13,5],[-12,-1],[-15,-8],[-18,-14],[-18,-9],[-35,-9],[-8,-14],[-5,-21],[4,-65],[-2,-10],[-3,-6],[-5,-1],[-19,4],[-10,8],[-19,26],[-22,24],[-28,45],[-14,12],[-19,7],[-15,-6],[-12,-19],[-3,-33],[5,-46],[-2,-41],[-10,-37],[-8,-19],[-5,-2],[-12,5],[-18,28],[-5,4],[-12,-2],[-11,-9],[-25,-27],[-7,-36],[-4,-10],[-4,-5],[-5,-1],[-5,-16],[-5,-33],[-5,-13],[-6,15],[-12,44],[-15,15],[-9,2],[-11,-1],[-2,5],[7,10],[4,13],[2,16],[-4,6],[-10,-5],[-3,2],[4,9],[-6,10],[-26,17],[-9,17],[37,-10],[8,6],[7,11],[13,51],[-1,7],[-15,17],[-19,6],[-4,5],[15,8],[7,8],[-2,6],[-40,24],[-39,43],[-20,15],[-3,6],[-37,19],[-27,30],[-20,17],[-13,4],[0,28]],[[0,4000],[0,4],[3,-2],[-3,-2]],[[0,3865],[0,67],[10,-5],[2,-5],[2,-23],[-1,-27],[-2,-7],[-11,0]],[[0,3597],[0,131],[20,-5],[14,-21],[56,5],[29,-18],[-1,-9],[-10,-9],[-44,-21],[-30,-20],[-29,-25],[-5,-8]],[[0,3534],[0,59],[18,-14],[55,-12],[11,-1],[47,24],[3,-5],[-7,-26],[-5,-10],[-11,-12],[-76,-1],[-34,-2],[-1,0]],[[0,3135],[0,305],[6,0],[29,-23],[11,-2],[2,-5],[-15,-26],[-1,-9],[7,-14],[6,-6],[17,-12],[10,-2],[33,11],[45,32],[10,-3],[6,-5],[-5,-6],[-16,-5],[-45,-31],[-10,-24],[1,-15],[5,-7],[13,-1],[-19,-16],[-8,-9],[-1,-5],[19,0],[55,32],[17,0],[17,-7],[-26,-5],[-12,-7],[-9,-10],[-9,-14],[-12,-30],[-6,-10],[-12,-10],[-12,-20],[-10,-12],[-24,-12],[-57,-17]],[[2950,0],[-5,0],[4,2],[1,-2]],[[3206,0],[-90,0],[2,19],[-8,48],[0,9],[1,7],[5,10],[18,27],[36,41],[16,13],[-32,-44],[-9,-20],[-4,-25],[0,-27],[3,-16],[3,1],[3,15],[11,2],[4,4],[4,16],[22,8],[8,8],[13,33],[7,14],[3,3],[-7,-30],[-1,-11],[32,-32],[15,-11],[-40,0],[-4,-4],[-8,-21],[-3,-35],[0,-2]],[[3370,688],[22,8],[44,23],[41,18],[19,1],[39,-14],[8,-1],[17,7],[16,1],[111,-5],[31,9],[21,-10],[17,-25],[16,-45],[0,-7],[-10,-21],[-18,-26],[-16,-36],[-4,-19],[-3,-21],[-5,-19],[-31,-91],[-31,-51],[-13,-36],[-17,-29],[-16,-18],[-17,-12],[-50,-12],[-14,-10],[-16,-15],[-18,-8],[21,1],[20,9],[37,3],[42,-30],[-4,-25],[-17,-20],[-38,-3],[-37,-43],[-16,-14],[-17,-6],[-22,2],[-39,11],[-17,13],[16,-20],[17,-11],[102,-24],[6,2],[33,26],[43,1],[82,-48],[24,-36],[8,-12]],[[3206,0],[0,2],[3,35],[8,21],[4,4],[40,0],[-15,11],[-32,32],[1,11],[7,30],[-3,-3],[-7,-14],[-13,-33],[-8,-8],[-22,-8],[-4,-16],[-4,-4],[-11,-2],[-3,-15],[-3,-1],[-3,16],[0,27],[4,25],[9,20],[32,44],[-16,-13],[-36,-41],[-18,-27],[-5,-10],[-1,-7],[0,-9],[8,-48],[-2,-19]],[[3088,0],[6,10],[-1,2],[-12,-6],[-5,2],[-4,6],[3,92],[10,31],[3,44],[9,38],[10,27],[7,36],[12,15],[3,24],[13,26],[9,27],[-5,-2],[-63,-71],[-16,-13],[-22,4],[-17,8],[-13,16],[-6,32],[-16,1],[-14,6],[1,4],[17,18],[29,6],[27,28],[-24,19],[2,6],[21,16],[26,54],[5,50],[-12,23],[-5,15],[-25,17],[-4,22],[3,12],[8,12],[12,9],[20,9],[-18,10],[-6,11],[-5,16],[-1,10],[9,42],[6,17],[10,22],[47,-1],[6,9],[5,1],[24,-9],[-3,10],[-40,52],[-3,10],[11,28],[1,13],[-2,13],[3,10],[13,5],[38,0],[9,4],[-4,14],[-9,18],[-2,15],[2,13],[1,27],[2,12],[9,17],[7,6],[9,3],[21,-6],[8,-7],[10,-17],[6,1],[26,18],[8,3],[11,-21],[44,17],[60,7],[36,12],[38,4],[36,12],[37,-6],[1,-7],[-2,-10],[-9,-28],[1,-31],[-2,-10],[-4,-11],[-14,-22],[-36,-31],[-66,-72],[-39,-35],[-6,-17],[-3,-24],[24,-5],[9,-8],[-6,-12],[-34,-42],[-11,-38],[27,1]],[[1404,4027],[-23,-18],[-21,-41],[-16,-20],[0,-9],[19,-15],[22,-9],[19,8],[9,-3],[7,-12],[5,-12],[1,-11],[-4,-24],[-12,-24],[-15,-20],[2,-7],[12,-3],[61,13],[6,-1],[4,-6],[0,-12],[4,-11],[5,-10],[-1,-10],[-27,-32],[31,20],[25,6],[42,-10],[17,-12],[10,-20],[15,7],[6,-1],[10,-11],[0,-12],[-7,-18],[-2,-16],[-7,-7],[-14,-5],[-4,-5],[6,-12],[9,-12],[12,-1],[3,-5],[0,-7],[-2,-8],[-4,-5],[-6,-3],[-9,-9],[32,-19],[4,-7],[0,-10],[-2,-11],[-6,-13],[-9,-7],[-23,-1],[-14,-8],[5,-13],[-1,-17],[-4,-20],[-18,-30],[-17,-16],[-16,-10],[-30,4],[-16,7],[2,-25],[-16,-16],[3,-14],[5,-6],[-2,-17],[-8,-17],[-13,-19],[-15,-11],[-29,-14],[-25,-23],[-18,-9],[-42,0],[-44,-14],[-61,-31],[-42,-25],[-32,-29],[-42,-46],[-31,-19],[-18,-5],[-36,-4],[-29,-13],[-98,-23],[-33,-13],[-5,-12],[-13,-18],[-1,-6],[6,-5],[1,-6],[-12,-21],[-24,-15],[-12,0],[-14,13],[-6,0],[-2,-2],[0,-4],[8,-16],[-15,-7],[-64,-18],[-108,13],[-43,14],[-54,22],[-31,6],[-45,2],[-37,31],[-17,19],[-1,8],[2,9],[4,6],[5,3],[12,1],[2,3],[-9,15],[-9,-5],[-24,-22],[-10,1],[-14,11],[-1,10],[-27,4],[-23,14],[-24,18],[-3,8],[11,10],[-2,2],[-9,2],[-17,-3],[-25,-24],[-12,-6],[-168,-5],[-23,-2]],[[0,3135],[57,17],[24,12],[10,12],[12,20],[12,10],[6,10],[12,30],[9,14],[9,10],[12,7],[26,5],[-17,7],[-17,0],[-55,-32],[-19,0],[1,5],[8,9],[19,16],[-13,1],[-5,7],[-1,15],[10,24],[45,31],[16,5],[5,6],[-6,5],[-10,3],[-45,-32],[-33,-11],[-10,2],[-17,12],[-6,6],[-7,14],[1,9],[15,26],[-2,5],[-11,2],[-29,23],[-6,0]],[[0,3534],[1,0],[34,2],[76,1],[11,12],[5,10],[7,26],[-3,5],[-47,-24],[-11,1],[-55,12],[-18,14]],[[0,3597],[5,8],[29,25],[30,20],[44,21],[10,9],[1,9],[-29,18],[-56,-5],[-14,21],[-20,5]],[[0,3865],[11,0],[2,7],[1,27],[-2,23],[-2,5],[-10,5]],[[0,4000],[3,2],[-3,2]],[[0,4068],[13,-4],[20,-17],[27,-30],[37,-19],[3,-6],[20,-15],[39,-43],[40,-24],[2,-6],[-7,-8],[-15,-8],[4,-5],[19,-6],[15,-17],[1,-7],[-13,-51],[-7,-11],[-8,-6],[-37,10],[9,-17],[26,-17],[6,-10],[-4,-9],[3,-2],[10,5],[4,-6],[-2,-16],[-4,-13],[-7,-10],[2,-5],[11,1],[9,-2],[15,-15],[12,-44],[6,-15],[5,13],[5,33],[5,16],[5,1],[4,5],[4,10],[7,36],[25,27],[11,9],[12,2],[5,-4],[18,-28],[12,-5],[5,2],[8,19],[10,37],[2,41],[-5,46],[3,33],[12,19],[15,6],[19,-7],[14,-12],[28,-45],[22,-24],[19,-26],[10,-8],[19,-4],[5,1],[3,6],[2,10],[-4,65],[5,21],[8,14],[35,9],[18,9],[18,14],[15,8],[12,1],[13,-5],[13,-13],[20,-25],[25,-40],[33,-31],[17,-48],[3,-8],[4,-1],[5,6],[2,9],[1,21],[-9,29],[-30,72],[-1,13],[4,11],[21,1],[50,-6],[16,-11],[34,-44],[9,-11],[6,-2],[2,5],[13,8],[9,10],[15,24],[33,44],[7,1],[10,-4],[17,-11],[8,-9],[16,-7],[16,2],[23,16],[25,9],[9,22],[1,9],[-20,65],[8,13],[35,12]],[[1186,4096],[24,-31],[17,-15],[8,-13],[2,-28],[10,-10],[19,-12],[21,-1],[34,13],[15,9],[35,29],[21,9],[31,-2],[16,2],[0,-3],[-19,-12],[-16,-4]],[[2900,337],[-18,-25],[1,-6],[10,2],[14,16],[9,15],[-4,3],[-12,-5]],[[3034,285],[-21,4],[-15,29],[-13,14],[-6,1],[-8,-2],[-19,-12],[-4,-5],[-2,-12],[1,-6],[31,-24],[-8,-51],[-21,-6],[-5,-7],[3,-11],[25,-2],[72,22],[3,55],[-13,13]],[[2980,59],[-16,-10],[-17,-19],[-6,7],[-6,-1],[-6,-6],[-6,-9],[-4,-9],[0,-12]],[[2945,0],[4,2],[1,-2]],[[2989,0],[-2,10],[-7,49]],[[3015,103],[-6,-16],[0,-5],[11,-6],[-24,-19],[-5,-13],[0,-17],[2,-9],[3,-6],[9,-2],[4,4],[32,73],[13,43],[-7,1],[-7,-4],[-25,-24]],[[3897,1886],[-13,-44],[18,-39],[4,4],[2,6],[0,24],[-3,21],[1,3],[8,1],[1,11],[-2,12],[-16,1]],[[3871,1796],[-9,-7],[-4,27],[1,27],[-11,1],[-9,-4],[-16,-27],[-10,-4],[-3,-9],[4,-5],[18,-5],[14,-52],[-22,-15],[-15,2],[-16,-6],[1,-8],[3,-9],[5,-3],[18,0],[3,-3],[1,-11],[2,-8],[13,7],[16,-1],[6,-13],[3,-15],[-5,-29],[-10,-49],[10,-12],[3,3],[7,32],[9,14],[3,41],[3,4],[2,20],[4,11],[12,67],[2,24],[-12,-10],[-7,0],[-14,25]],[[3946,1872],[0,12],[9,33],[0,4],[-5,7],[-4,1],[-7,-10],[-5,3],[-5,-2],[-2,-5],[-2,-19],[3,-19],[2,-4],[16,-1]],[[3500,1194],[-15,5],[-7,-4],[-1,-10],[6,-16],[16,-22],[10,-1],[11,5],[1,3],[-10,5],[-2,4],[-1,12],[-8,19]],[[3634,1346],[-12,-6],[-11,-22],[21,0],[22,15],[4,10],[-24,3]],[[3543,1162],[11,-25],[7,-7],[2,1],[3,22],[3,11],[-8,3],[-18,-5]],[[3583,1223],[-12,1],[-20,8],[-14,0],[2,9],[7,11],[0,7],[-5,9],[-20,14],[-16,3],[-12,-5],[-6,-25],[-2,-18],[2,-12],[2,-6],[5,-2],[12,13],[1,-4],[1,-13],[1,-7],[4,-5],[7,-2],[31,8],[24,-19],[7,1],[6,5],[5,19],[-10,10]],[[2883,2321],[-23,13],[-10,3],[-7,-1],[3,-14],[5,-9],[14,-9],[17,-18],[5,0],[3,14],[0,8],[-7,13]],[[2876,2182],[-7,15],[0,13],[-5,6],[-21,7],[-4,10],[-5,2],[1,-12],[7,-26],[21,-32],[13,-13],[4,-1],[-4,11],[0,20]],[[2753,2403],[22,-11],[14,-3],[11,3],[10,10],[-6,11],[-16,14],[-9,5],[-19,-5],[-15,1],[8,-25]],[[2819,2410],[37,-44],[16,-10],[2,5],[-2,10],[-16,34],[-5,6],[0,9],[3,7],[10,-3],[13,-14],[7,0],[5,51],[-32,15],[-28,19],[-39,-12],[29,-73]],[[3556,1334],[19,-10],[2,-25],[7,-8],[15,10],[2,12],[-2,3],[-15,6],[-9,18],[-21,22],[-12,-5],[-2,-4],[7,-12],[9,-7]],[[2921,2445],[9,28],[-12,13],[-15,24],[0,-30],[-1,-20],[3,-7],[3,-3],[13,-5]],[[2848,782],[11,0],[20,32],[19,12],[28,30],[4,8],[0,13],[-6,6],[-21,1],[24,18],[8,17],[9,1],[24,67],[0,27],[-4,21],[-3,5],[-11,-6],[-45,-40],[-36,-23],[-7,-8],[-2,-6],[12,-33],[-1,-4],[-15,3],[-14,-5],[-11,13],[-12,4],[-2,-2],[-3,-8],[-8,-7],[-2,-17],[2,-16],[2,-7],[7,-2],[4,-7],[5,-2],[-12,-12],[-1,-6],[10,-10],[25,-16],[2,-4],[-16,-11],[-2,-11],[-24,-20],[13,-20],[6,-4],[5,0],[8,9],[10,20]],[[2925,474],[9,-18],[7,-7],[7,-1],[5,5],[3,8],[0,9],[-3,9],[-8,7],[-20,-12]],[[2938,557],[7,-13],[10,-7],[19,-1],[23,7],[4,-56],[5,-3],[7,0],[6,7],[22,32],[18,19],[5,11],[-1,10],[-6,6],[-31,-2],[-35,8],[-4,7],[-8,5],[-1,15],[-4,21],[3,20],[0,16],[-3,31],[-15,25],[-11,8],[-9,-2],[-4,-24],[-44,-16],[1,-3],[6,-13],[0,-5],[-5,-6],[-6,-3],[-11,5],[-9,-14],[-2,-7],[4,-11],[12,-19],[42,-13],[15,-35]],[[2784,727],[-12,-9],[-9,2],[-13,-7],[-8,4],[-6,-1],[-5,-7],[-3,-7],[0,-6],[35,-26],[25,0],[17,36],[-21,21]],[[2768,613],[-21,-1],[1,-31],[-3,-27],[1,-14],[6,-23],[6,-6],[11,-2],[7,2],[1,4],[-4,94],[-5,4]],[[2726,469],[-3,-13],[1,-5],[6,-3],[16,6],[3,6],[-1,7],[-9,7],[-13,-5]],[[2945,0],[-26,0],[0,12],[4,9],[6,9],[6,6],[6,1],[6,-7],[17,19],[16,10],[7,-49],[2,-10],[-39,0],[-1,2],[-4,-2]],[[3009,14],[-4,-4],[-9,2],[-3,6],[-2,9],[0,17],[5,13],[24,19],[-11,6],[0,5],[6,16],[25,24],[7,4],[7,-1],[-13,-43],[-32,-73]],[[3044,217],[-72,-22],[-25,2],[-3,11],[5,7],[21,6],[8,51],[-31,24],[-1,6],[2,12],[4,5],[19,12],[8,2],[6,-1],[13,-14],[15,-29],[21,-4],[13,-13],[-3,-55]],[[2893,308],[-10,-2],[-1,6],[18,25],[12,5],[4,-3],[-9,-15],[-14,-16]],[[2746,454],[-16,-6],[-6,3],[-1,5],[3,13],[13,5],[9,-7],[1,-7],[-3,-6]],[[2784,727],[21,-21],[-17,-36],[-25,0],[-35,26],[0,6],[3,7],[5,7],[6,1],[8,-4],[13,7],[9,-2],[12,9]],[[2953,453],[-5,-5],[-7,1],[-7,7],[-9,18],[20,12],[8,-7],[3,-9],[0,-9],[-3,-8]],[[2776,511],[-7,-2],[-11,2],[-6,6],[-6,23],[-1,14],[3,27],[-1,31],[21,1],[5,-4],[4,-94],[-1,-4]],[[2977,659],[0,-16],[-3,-20],[4,-21],[1,-15],[8,-5],[4,-7],[35,-8],[31,2],[6,-6],[1,-10],[-5,-11],[-18,-19],[-22,-32],[-6,-7],[-7,0],[-5,3],[-4,56],[-23,-7],[-19,1],[-10,7],[-7,13],[-15,35],[-42,13],[-12,19],[-4,11],[2,7],[9,14],[11,-5],[6,3],[5,6],[0,5],[-6,13],[-1,3],[44,16],[4,24],[9,2],[11,-8],[15,-25],[3,-31]],[[3539,1241],[-2,-9],[14,0],[20,-8],[12,-1],[10,-10],[-5,-19],[-6,-5],[-7,-1],[-24,19],[-31,-8],[-7,2],[-4,5],[-1,7],[-1,13],[-1,4],[-12,-13],[-5,2],[-2,6],[-2,12],[2,18],[6,25],[12,5],[16,-3],[20,-14],[5,-9],[0,-7],[-7,-11]],[[3563,1131],[-2,-1],[-7,7],[-11,25],[18,5],[8,-3],[-3,-11],[-3,-22]],[[3520,1151],[-11,-5],[-10,1],[-16,22],[-6,16],[1,10],[7,4],[15,-5],[8,-19],[1,-12],[2,-4],[10,-5],[-1,-3]],[[3599,1301],[-15,-10],[-7,8],[-2,25],[-19,10],[-9,7],[-7,12],[2,4],[12,5],[21,-22],[9,-18],[15,-6],[2,-3],[-2,-12]],[[3632,1318],[-21,0],[11,22],[12,6],[24,-3],[-4,-10],[-22,-15]],[[3858,1816],[4,-27],[9,7],[14,-25],[7,0],[12,10],[-2,-24],[-12,-67],[-4,-11],[-2,-20],[-3,-4],[-3,-41],[-9,-14],[-7,-32],[-3,-3],[-10,12],[10,49],[5,29],[-3,15],[-6,13],[-16,1],[-13,-7],[-2,8],[-1,11],[-3,3],[-18,0],[-5,3],[-3,9],[-1,8],[16,6],[15,-2],[22,15],[-14,52],[-18,5],[-4,5],[3,9],[10,4],[16,27],[9,4],[11,-1],[-1,-27]],[[3955,1921],[0,-4],[-9,-33],[0,-12],[-16,1],[-2,4],[-3,19],[2,19],[2,5],[5,2],[5,-3],[7,10],[4,-1],[5,-7]],[[2876,2162],[4,-11],[-4,1],[-13,13],[-21,32],[-7,26],[-1,12],[5,-2],[4,-10],[21,-7],[5,-6],[0,-13],[7,-15],[0,-20]],[[2890,2300],[-3,-14],[-5,0],[-17,18],[-14,9],[-5,9],[-3,14],[7,1],[10,-3],[23,-13],[7,-13],[0,-8]],[[2930,2473],[-9,-28],[-13,5],[-3,3],[-3,7],[1,20],[0,30],[15,-24],[12,-13]],[[2788,2427],[16,-14],[6,-11],[-10,-10],[-11,-3],[-14,3],[-22,11],[-8,25],[15,-1],[19,5],[9,-5]],[[2889,2461],[-5,-51],[-7,0],[-13,14],[-10,3],[-3,-7],[0,-9],[5,-6],[16,-34],[2,-10],[-2,-5],[-16,10],[-37,44],[-29,73],[39,12],[28,-19],[32,-15]],[[3906,1807],[-4,-4],[-18,39],[13,44],[16,-1],[2,-12],[-1,-11],[-8,-1],[-1,-3],[3,-21],[0,-24],[-2,-6]],[[1128,4096],[58,0],[24,-31],[17,-15],[8,-13],[2,-28],[10,-10],[19,-12],[21,-1],[34,13],[15,9],[35,29],[21,9],[31,-2],[16,2],[0,-3],[-19,-12],[-16,-4],[-23,-18],[-21,-41],[-16,-20],[0,-9],[19,-15],[22,-9],[19,8],[9,-3],[7,-12],[5,-12],[1,-11],[-4,-24],[-12,-24],[-15,-20],[2,-7],[12,-3],[61,13],[6,-1],[4,-6],[0,-12],[4,-11],[5,-10],[-1,-10],[-27,-32],[31,20],[25,6],[42,-10],[17,-12],[10,-20],[15,7],[6,-1],[10,-11],[0,-12],[-7,-18],[-2,-16],[-7,-7],[-14,-5],[-4,-5],[6,-12],[9,-12],[12,-1],[3,-5],[0,-7],[-2,-8],[-4,-5],[-6,-3],[-9,-9],[32,-19],[4,-7],[0,-10],[-2,-11],[-6,-13],[-9,-7],[-23,-1],[-14,-8],[5,-13],[-1,-17],[-4,-20],[-18,-30],[-17,-16],[-16,-10],[-30,4],[-16,7],[2,-25],[-16,-16],[3,-14],[5,-6],[-2,-17],[-8,-17],[-13,-19],[-15,-11],[-29,-14],[-25,-23],[-18,-9],[-42,0],[-44,-14],[-61,-31],[-42,-25],[-32,-29],[-42,-46],[-31,-19],[-18,-5],[-36,-4],[-29,-13],[-98,-23],[-33,-13],[-5,-12],[-13,-18],[-1,-6],[6,-5],[1,-6],[-12,-21],[-24,-15],[-12,0],[-14,13],[-6,0],[-2,-2],[0,-4],[8,-16],[-15,-7],[-64,-18],[-108,13],[-43,14],[-54,22],[-31,6],[-45,2],[-37,31],[-17,19],[-1,8],[2,9],[4,6],[5,3],[12,1],[2,3],[-9,15],[-9,-5],[-24,-22],[-10,1],[-14,11],[-1,10],[-27,4],[-23,14],[-24,18],[-3,8],[11,10],[-2,2],[-9,2],[-17,-3],[-25,-24],[-12,-6],[-168,-5],[-23,-2],[0,59],[57,17],[24,12],[10,12],[12,20],[12,10],[6,10],[12,30],[9,14],[9,10],[12,7],[26,5],[-17,7],[-17,0],[-55,-32],[-19,0],[1,5],[8,9],[19,16],[-13,1],[-5,7],[-1,15],[10,24],[45,31],[16,5],[5,6],[-6,5],[-10,3],[-45,-32],[-33,-11],[-10,2],[-17,12],[-6,6],[-7,14],[1,9],[15,26],[-2,5],[-11,2],[-29,23],[-6,0],[0,94],[1,0],[34,2],[76,1],[11,12],[5,10],[7,26],[-3,5],[-47,-24],[-11,1],[-55,12],[-18,14],[0,4],[5,8],[29,25],[30,20],[44,21],[10,9],[1,9],[-29,18],[-56,-5],[-14,21],[-20,5],[0,137],[11,0],[2,7],[1,27],[-2,23],[-2,5],[-10,5],[0,68],[3,2],[-3,2],[0,64],[13,-4],[20,-17],[27,-30],[37,-19],[3,-6],[20,-15],[39,-43],[40,-24],[2,-6],[-7,-8],[-15,-8],[4,-5],[19,-6],[15,-17],[1,-7],[-13,-51],[-7,-11],[-8,-6],[-37,10],[9,-17],[26,-17],[6,-10],[-4,-9],[3,-2],[10,5],[4,-6],[-2,-16],[-4,-13],[-7,-10],[2,-5],[11,1],[9,-2],[15,-15],[12,-44],[6,-15],[5,13],[5,33],[5,16],[5,1],[4,5],[4,10],[7,36],[25,27],[11,9],[12,2],[5,-4],[18,-28],[12,-5],[5,2],[8,19],[10,37],[2,41],[-5,46],[3,33],[12,19],[15,6],[19,-7],[14,-12],[28,-45],[22,-24],[19,-26],[10,-8],[19,-4],[5,1],[3,6],[2,10],[-4,65],[5,21],[8,14],[35,9],[18,9],[18,14],[15,8],[12,1],[13,-5],[13,-13],[20,-25],[25,-40],[33,-31],[17,-48],[3,-8],[4,-1],[5,6],[2,9],[1,21],[-9,29],[-30,72],[-1,13],[4,11],[21,1],[50,-6],[16,-11],[34,-44],[9,-11],[6,-2],[2,5],[13,8],[9,10],[15,24],[33,44],[7,1],[10,-4],[17,-11],[8,-9],[16,-7],[16,2],[23,16],[25,9],[9,22],[1,9],[-20,65],[8,13],[35,12]],[[3116,0],[-28,0],[6,10],[-1,2],[-12,-6],[-5,2],[-4,6],[3,92],[10,31],[3,44],[9,38],[10,27],[7,36],[12,15],[3,24],[13,26],[9,27],[-5,-2],[-63,-71],[-16,-13],[-22,4],[-17,8],[-13,16],[-6,32],[-16,1],[-14,6],[1,4],[17,18],[29,6],[27,28],[-24,19],[2,6],[21,16],[26,54],[5,50],[-12,23],[-5,15],[-25,17],[-4,22],[3,12],[8,12],[12,9],[20,9],[-18,10],[-6,11],[-5,16],[-1,10],[9,42],[6,17],[10,22],[47,-1],[6,9],[5,1],[24,-9],[-3,10],[-40,52],[-3,10],[11,28],[1,13],[-2,13],[3,10],[13,5],[38,0],[9,4],[-4,14],[-9,18],[-2,15],[2,13],[1,27],[2,12],[9,17],[7,6],[9,3],[21,-6],[8,-7],[10,-17],[6,1],[26,18],[8,3],[11,-21],[44,17],[60,7],[36,12],[38,4],[36,12],[37,-6],[1,-7],[-2,-10],[-9,-28],[1,-31],[-2,-10],[-4,-11],[-14,-22],[-36,-31],[-66,-72],[-39,-35],[-6,-17],[-3,-24],[24,-5],[9,-8],[-6,-12],[-34,-42],[-11,-38],[27,1],[22,8],[44,23],[41,18],[19,1],[39,-14],[8,-1],[17,7],[16,1],[111,-5],[31,9],[21,-10],[17,-25],[16,-45],[0,-7],[-10,-21],[-18,-26],[-16,-36],[-4,-19],[-3,-21],[-5,-19],[-31,-91],[-31,-51],[-13,-36],[-17,-29],[-16,-18],[-17,-12],[-50,-12],[-14,-10],[-16,-15],[-18,-8],[21,1],[20,9],[37,3],[42,-30],[-4,-25],[-17,-20],[-38,-3],[-37,-43],[-16,-14],[-17,-6],[-22,2],[-39,11],[-17,13],[16,-20],[17,-11],[102,-24],[6,2],[33,26],[43,1],[82,-48],[24,-36],[8,-12],[-531,0],[0,2],[3,35],[8,21],[4,4],[40,0],[-15,11],[-32,32],[1,11],[7,30],[-3,-3],[-7,-14],[-13,-33],[-8,-8],[-22,-8],[-4,-16],[-4,-4],[-11,-2],[-3,-15],[-3,-1],[-3,16],[0,27],[4,25],[9,20],[32,44],[-16,-13],[-36,-41],[-18,-27],[-5,-10],[-1,-7],[0,-9],[8,-48],[-2,-19]],[[2968,987],[-24,-67],[-9,-1],[-8,-17],[-24,-18],[21,-1],[6,-6],[0,-13],[-4,-8],[-28,-30],[-19,-12],[-20,-32],[-11,0],[-10,-20],[-8,-9],[-5,0],[-6,4],[-13,20],[24,20],[2,11],[16,11],[-2,4],[-25,16],[-10,10],[1,6],[12,12],[-5,2],[-4,7],[-7,2],[-2,7],[-2,16],[2,17],[8,7],[3,8],[2,2],[12,-4],[11,-13],[14,5],[15,-3],[1,4],[-12,33],[2,6],[7,8],[36,23],[45,40],[11,6],[3,-5],[4,-21],[0,-27]],[[2315,997],[54,100],[140,-100],[30,-75],[-36,-49],[-188,124]],[[2844,410],[17,77],[40,32],[52,9],[35,-37],[-38,-57],[-31,17],[-75,-41]],[[2920,470],[26,-28],[14,26],[-16,22],[-24,-20]],[[2892,487],[3,-4],[20,9],[-13,1],[-10,-6]],[[3272,1767],[470,395],[71,-42],[-67,-85],[-440,-342],[-34,74]],[[3361,1291],[92,173],[95,101],[126,-11],[0,-141],[-123,-1],[-86,-115],[-29,-85],[-75,79]],[[1065,791],[0,153],[91,0],[-6,-140],[-85,-13]],[[48,3082],[63,72],[12,-3],[17,-27],[-33,-49],[-59,7]],[[4000,1265],[27,86],[51,-48],[-34,-50],[52,-32],[0,-60],[-30,4],[-66,100]],[[679,3261],[61,62],[74,23],[-17,83],[89,25],[36,65],[35,2],[9,118],[60,-16],[2,39],[53,-80],[66,-19],[-3,24],[19,-11],[-27,-102],[25,-37],[62,-40],[-3,85],[57,-1],[15,-55],[34,-23],[-25,-13],[25,-26],[-27,-8],[12,-31],[-23,12],[-3,-2],[7,-38],[-37,23],[-20,-23],[33,-46],[-49,-22],[-64,9],[20,-63],[-48,-43],[-16,15],[-12,-33],[-51,2],[9,25],[-19,2],[-109,-27],[17,88],[-24,20],[-37,-23],[-14,19],[-12,-50],[-45,29],[-8,-32],[-106,-55],[-20,16],[109,136],[-79,-33],[-31,30]],[[0,4076],[18,-2],[38,-44],[-24,-33],[-32,4],[0,11],[8,6],[-8,8],[0,50]],[[3713,167],[22,200],[40,16],[-25,-102],[24,-129],[-61,15]],[[2986,1400],[200,84],[106,74],[76,-20],[0,-117],[-277,-88],[-38,24],[-55,-10],[-12,53]],[[2963,356],[33,-8],[25,-53],[56,-9],[0,-25],[24,28],[5,-5],[-45,-204],[-18,10],[20,69],[-25,9],[-3,38],[33,52],[-55,25],[-50,73]],[[3067,199],[5,-13],[8,24],[-6,-9],[-7,-2]],[[3065,169],[6,-12],[-1,31],[-3,-5],[-2,-14]],[[3073,165],[6,-2],[-3,10],[-2,-1],[-1,-7]],[[3713,167],[22,200],[40,16],[-25,-102],[24,-129],[-61,15]],[[3806,391],[60,15],[11,-115],[-70,0],[-1,100]],[[3801,66],[0,101],[43,26],[33,-36],[-76,-91]],[[3713,167],[22,200],[40,16],[-25,-102],[24,-129],[-61,15]],[[3806,391],[60,15],[11,-115],[-70,0],[-1,100]],[[3801,66],[0,101],[43,26],[33,-36],[-76,-91]],[[3167,94],[69,167],[72,7],[12,-34],[32,-2],[-72,-141],[-55,15],[7,58],[-21,-41],[-7,27],[-3,-2],[3,-69],[-37,15]],[[0,3730],[4,-19],[70,38],[-53,-49],[32,-19],[19,41],[28,-34],[13,4],[36,-1],[-40,-2],[-3,-23],[-82,-37],[-24,-31],[0,132]],[[0,3580],[80,-20],[58,37],[-7,-69],[-131,10],[0,42]],[[3388,0],[-77,0],[-32,20],[11,39],[51,9],[44,-14],[-5,-29],[8,-25]],[[3471,228],[-26,15],[14,22],[21,-3],[-9,-34]],[[3580,271],[-44,-18],[-8,24],[56,9],[-4,-15]],[[3483,111],[4,-14],[-26,5],[7,20],[15,-11]],[[3454,78],[95,-7],[0,-37],[-102,5],[7,39]],[[3410,146],[-4,-24],[25,-44],[-27,0],[-30,56],[2,22],[34,-10]],[[3545,172],[-23,-51],[-24,25],[23,48],[24,-22]],[[3716,543],[6,-4],[-6,-33],[-23,42],[23,-5]],[[100,3184],[34,19],[-2,24],[28,0],[-23,-48],[-40,-15],[3,20]],[[3281,463],[165,160],[96,-50],[7,-57],[37,-30],[-15,-70],[-52,-31],[-33,13],[-9,-26],[-25,27],[-45,-30],[-99,31],[15,47],[-42,16]],[[3038,795],[10,51],[42,46],[64,-61],[20,-49],[-54,43],[26,-36],[-73,30],[-7,-17],[14,-16],[-4,-27],[-15,38],[-23,-2]],[[3109,850],[4,-2],[3,3],[-5,6],[-2,-7]],[[3069,787],[4,-7],[3,0],[-6,10],[-1,-3]],[[3635,2526],[128,98],[41,161],[203,309],[89,-170],[0,-553],[-126,-46],[-14,69],[-128,-145],[0,-50],[-135,8],[-58,319]],[[1299,3356],[27,8],[-23,30],[58,-5],[5,-83],[-67,50]],[[570,3136],[25,51],[57,-20],[-16,-74],[-61,12],[-5,31]],[[2159,292],[105,92],[187,24],[13,-65],[-22,-121],[-257,0],[0,70],[-26,0]],[[538,3572],[91,-83],[-22,-24],[8,-36],[-73,79],[-4,64]],[[2085,1334],[65,47],[71,103],[146,-53],[44,-58],[12,-84],[-47,-96],[-80,-34],[-204,91],[-7,84]],[[220,3255],[67,17],[-7,-60],[-25,1],[-35,42]]]}