{"objects":{"water":{"type":"GeometryCollection","geometries":[{"type":"MultiPolygon","properties":{"source":"naturalearthdata.com","kind":"ocean","area":1444195503964160,"sort_rank":200,"min_zoom":0.0,"id":1},"arcs":[[[9],[10],[11],[12],[13],[14],[15],[16],[17]],[[18]]]},{"type":"LineString","properties":{"source":"naturalearthdata.com","kind":"ocean","sort_rank":205,"boundary":true,"min_zoom":0.0,"id":875},"arcs":[19]},{"type":"LineString","properties":{"source":"naturalearthdata.com","kind":"ocean","sort_rank":205,"boundary":true,"min_zoom":0.0,"id":877},"arcs":[20]},{"type":"LineString","properties":{"source":"naturalearthdata.com","kind":"ocean","sort_rank":205,"boundary":true,"min_zoom":0.0,"id":878},"arcs":[21]},{"type":"LineString","properties":{"source":"naturalearthdata.com","kind":"ocean","sort_rank":205,"boundary":true,"min_zoom":0.0,"id":879},"arcs":[22]},{"type":"LineString","properties":{"source":"naturalearthdata.com","kind":"ocean","sort_rank":205,"boundary":true,"min_zoom":0.0,"id":881},"arcs":[23]},{"type":"LineString","properties":{"source":"naturalearthdata.com","kind":"ocean","sort_rank":205,"boundary":true,"min_zoom":0.0,"id":886},"arcs":[24]},{"type":"LineString","properties":{"source":"naturalearthdata.com","kind":"ocean","sort_rank":205,"boundary":true,"min_zoom":0.0,"id":889},"arcs":[25]},{"type":"LineString","properties":{"source":"naturalearthdata.com","kind":"ocean","sort_rank":205,"boundary":true,"min_zoom":0.0,"id":892},"arcs":[26]},{"type":"MultiLineString","properties":{"source":"naturalearthdata.com","kind":"ocean","sort_rank":205,"boundary":true,"min_zoom":0.0,"id":1388},"arcs":[[27],[28],[29]]},{"type":"Point","properties":{"label_placement":true,"kind":"sea","name":"Alboran Sea","source":"openstreetmap.org","sort_rank":200,"min_zoom":3.0,"id":305639403},"coordinates":[3518,3038]}]},"buildings":{"type":"GeometryCollection","geometries":[]},"places":{"type":"GeometryCollection","geometries":[{"type":"Point","properties":{"name:pt":"Espanha","name:ps":"\u0647\u0633\u067e\u0627\u0646\u06cc\u0647","name:ka":"\u10d4\u10e1\u10de\u10d0\u10dc\u10d4\u10d7\u10d8","name:mt":"Spanja","name:ko":"\uc2a4\ud398\uc778","name:kn":"\u0cb8\u0ccd\u0caa\u0cc8\u0ca8\u0ccd","name:km":"\u17a2\u17c1\u179f\u17d2\u1794\u17c9\u17b6\u1789","name:kl":"Spania","name:cs":"\u0160pan\u011blsko","alt_name:eo":"Hispanio","name:ki":"Hispania","name:tr":"\u0130spanya","name:ku":"Spanya","name:ti":"\u1235\u1354\u1295","name:ks":"\u0633\u0655\u067e\u06cc\u0646","name:to":"Sipeini","name:tl":"Espanya","name:sv":"Spanien","name:or":"\u0b38\u0b4d\u0b2a\u0b47\u0b28\u0b4d","name:pl":"Hiszpania","name:ta":"\u0bb8\u0bcd\u0baa\u0bc6\u0baf\u0bbf\u0ba9\u0bcd","name:tg":"\u0418\u0441\u043f\u0430\u043d\u0438\u044f","name:ca":"Espanya","name:te":"\u0c38\u0c4d\u0c2a\u0c47\u0c28\u0c4d","name:ro":"Spania","name:cy":"Sbaen","name:hr":"\u0160panjolska","name:da":"Spanien","name:fr":"Espagne","name:de":"Spanien","name:dz":"\u0f68\u0f72\u0f66\u0f0b\u0f54\u0f7a\u0f53","source":"openstreetmap.org","name:lv":"Sp\u0101nija","name:lt":"Ispanija","name:hi":"\u0938\u094d\u092a\u0947\u0928","name:kk":"\u0418\u0441\u043f\u0430\u043d\u0438\u044f","name:he":"\u05e1\u05e4\u05e8\u05d3","kind":"country","name:ur":"\u06c1\u0633\u067e\u0627\u0646\u06cc\u06c1","name:lb":"Spuenien","name:la":"Hispania","name:lg":"Sipeyini","name:uk":"\u0406\u0441\u043f\u0430\u043d\u0456\u044f","name:hy":"\u053b\u057d\u057a\u0561\u0576\u056b\u0561","min_zoom":2.0,"name:hu":"Spanyolorsz\u00e1g","name:ln":"Esipanye","name:lo":"\u0eaa\u0eb0\u0ec0\u0e9b\u0e99","population":46157822,"name:el":"\u0399\u03c3\u03c0\u03b1\u03bd\u03af\u03b1","name:eo":"Hispanujo","name:en":"Spain","name":"Espa\u00f1a","official_name":"Reino de Espa\u00f1a","name:ee":"Spania nutome","name:th":"\u0e1b\u0e23\u0e30\u0e40\u0e17\u0e28\u0e2a\u0e40\u0e1b\u0e19","name:gu":"\u0ab8\u0acd\u0aaa\u0ac7\u0aa8","name:eu":"Espainia","name:et":"Hispaania","name:nl":"Spanje","name:yo":"Or\u00edl\u1eb9\u0301\u00e8de Sipani","name:ia":"Espania","name:rm":"Spagna","name:rn":"Hisipaniya","name:az":"\u0130spaniya","name:id":"Spanyol","name:ms":"Sepanyol","name:mr":"\u0938\u094d\u092a\u0947\u0928","name:ar":"\u0625\u0633\u0628\u0627\u0646\u064a\u0627","name:my":"\u1005\u1015\u102d\u1014\u103a","name:io":"Hispania","name:is":"Sp\u00e1nn","name:am":"\u1235\u1354\u1295","name:it":"Spagna","name:vi":"T\u00e2y Ban Nha","name:ru":"\u0418\u0441\u043f\u0430\u043d\u0438\u044f","name:mn":"\u0418\u0441\u043f\u0430\u043d\u0438","name:mi":"P\u0101niora","id":148332300,"name:mk":"\u0428\u043f\u0430\u043d\u0438\u0458\u0430","name:af":"Spanje","name:zu":"i-Spain","name:ha":"Sipen","old_name:ku":"Key\u00eetiya Spanyay\u00ea","name:nn":"Spania","name:ff":"Espaa\u00f1","name:fi":"Espanja","old_name:vi":"Y Pha Nho","name:mg":"Espaina","name:fo":"Spania","name:ba":"\u0418\u0441\u043f\u0430\u043d\u0438\u044f","name:fy":"Spanje","name:vo":"Spany\u00e4n","name:zh":"\u897f\u73ed\u7259","name:nb":"Spania","name:so":"Isbeyn","name:sn":"Spain","name:sl":"\u0160panija","name:sk":"\u0160panielsko","name:ja":"\u30b9\u30da\u30a4\u30f3","name:si":"\u0dc3\u0dca\u0db4\u0dcf\u0da4\u0dca\u0da4\u0dba","name:fa":"\u0627\u0633\u067e\u0627\u0646\u06cc\u0627","name:sg":"Esp\u00e2nye","name:se":"Sp\u00e1nia","name:ne":"\u0938\u094d\u092a\u0947\u0928","name:br":"Spagn","name:bs":"\u0160panija","name:bm":"Esipa\u0272i","name:bn":"\u09b8\u09cd\u09aa\u09c7\u09a8","name:bo":"\u0f66\u0f72\u0f0b\u0f54\u0f53\u0f0d","name:ml":"\u0d38\u0d4d\u0d2a\u0d46\u0d2f\u0d3f\u0d7b","name:no":"Spania","name:sw":"Hispania","name:be":"\u0406\u0441\u043f\u0430\u043d\u0456\u044f","name:bg":"\u0418\u0441\u043f\u0430\u043d\u0438\u044f","name:sr":"\u0428\u043f\u0430\u043d\u0438\u0458\u0430","name:sq":"Spanj\u00eb","name:ga":"An Sp\u00e1inn","name:gd":"An Sp\u00e0inn","name:gv":"Yn Spaainey","name:ak":"Spain","name:tt":"\u0418\u0441\u043f\u0430\u043d\u0438\u044f"},"coordinates":[3367,3886]},{"type":"Point","properties":{"name:kg":"Magribia","name:ka":"\u10db\u10d0\u10e0\u10dd\u10d9\u10dd","name:ko":"\ubaa8\ub85c\ucf54","name:cv":"\u041c\u0430\u0440\u043e\u043a\u043a\u043e","name:km":"\u1798\u17c9\u17b6\u179a\u17c9\u17bb\u1780","name:kl":"Marocko","name:cs":"Maroko","name:ki":"Moroko","name:kw":"Marokk","name:tk":"Marokko","name:ku":"Maroko","name:ti":"\u121e\u122e\u12ae","name:ks":"\u092e\u094b\u0930\u093e\u0915\u094b","name:to":"Molako","name:tl":"Morocco","name:ce":"\u041c\u0430\u0440\u043e\u043a\u043a\u043e","name:ta":"\u0bae\u0bca\u0bb0\u0bcb\u0b95\u0bcd\u0b95\u0bcb","name:tg":"\u041c\u0430\u0440\u043e\u043a\u0430\u0448","name:ca":"Marroc","name:te":"\u0c2e\u0c4a\u0c30\u0c3e\u0c15\u0c4b","name:cy":"Moroco","name:hr":"Maroko","name:da":"Marokko","name:de":"Marokko","name:dz":"\u0f58\u0f7c\u0f0b\u0f62\u0f7c\u0f0b\u0f40\u0f7c","source":"openstreetmap.org","name:kn":"\u0cae\u0cca\u0cb0\u0cbe\u0c95\u0cca","name:dv":"\u0789\u07a6\u0787\u07aa\u0783\u07a8\u0784\u07aa","name:lv":"Maroka","name:lt":"Marokas","name:uz":"Marokash","name:kk":"\u041c\u0430\u0493\u0440\u0438\u0431\u0438\u044f","name:ur":"\u0645\u0631\u0627\u06a9\u0634","name:lb":"Marokko","name:la":"Marocum","name:lg":"Moroko","name:uk":"\u041c\u0430\u0440\u043e\u043a\u043a\u043e","name:ug":"\u0645\u0627\u0631\u0627\u0643\u06d5\u0634","name:li":"Marokko","name:ln":"Mar\u0254k\u025b","name:lo":"\u0ec2\u0ea1\u0ea5\u0eb1\u0ead\u0e81\u0ec2\u0e84","name:el":"\u039c\u03b1\u03c1\u03cc\u03ba\u03bf","name:eo":"Maroko","name:en":"Morocco","name":"Maroc \u2d30\u2d4e\u2d54\u2d54\u2d53\u2d3d \u0627\u0644\u0645\u063a\u0631\u0628","name:ee":"Moroko nutome","name:th":"\u0e1b\u0e23\u0e30\u0e40\u0e17\u0e28\u0e42\u0e21\u0e23\u0e47\u0e2d\u0e01\u0e42\u0e01","name:eu":"Maroko","name:et":"Maroko","name:es":"Marruecos","name:ia":"Morocco","name:rm":"Maroc","name:rn":"Maroke","name:az":"M\u0259rake\u015f","name:ie":"Morocco","name:id":"Maroko","name:ar":"\u0627\u0644\u0645\u063a\u0631\u0628","name:io":"Maroko","name:ak":"Moroko","name:am":"\u121e\u122e\u12ae","name:it":"Marocco","name:an":"Marruecos","name:ru":"\u041c\u0430\u0440\u043e\u043a\u043a\u043e","name:rw":"Maroke","name:af":"Marokko","name:zu":"i-Morocco","name:ky":"\u041c\u0430\u0440\u043e\u043a\u043a\u043e","name:zh-yue":"\u6469\u6d1b\u54e5","name:zh":"\u6469\u6d1b\u54e5","name:so":"Maroc","name:sn":"Morocco","name:sl":"Maroko","name:sk":"Maroko","name:ja":"\u30e2\u30ed\u30c3\u30b3","name:si":"\u0db8\u0ddc\u0dbb\u0ddc\u0d9a\u0dca\u0d9a\u0ddd\u0dc0","name:sh":"Maroko","name:sg":"Mar\u00f4ko","name:se":"Marokko","name:sc":"Marocu","name:sa":"\u092e\u094b\u0930\u093e\u0915\u094b","name:bs":"Maroko","name:bm":"Maroko","name:bn":"\u09ae\u09b0\u09cb\u0995\u09cd\u0995\u09cb","name:bo":"\u0f58\u0f60\u0f7a\u0f0b\u0f63\u0f7c\u0f0b\u0f40\u0f7c","name:br":"Maroko","name:sw":"Moroko","name:be":"\u041c\u0430\u0440\u043e\u043a\u0430","name:su":"Maroko","name:bg":"\u041c\u0430\u0440\u043e\u043a\u043e","name:ss":"IMorokho","name:ba":"\u041c\u0430\u0440\u043e\u043a\u043a\u043e","name:sq":"Maroku","name:jv":"Maroko","name:pt":"Marrocos","name:ps":"\u0645\u0627\u0631\u0627\u06a9\u0648","name:oc":"Marr\u00f2c","min_zoom":2.0,"name:ro":"Maroc","name:zh-min-nan":"Morocco","name:os":"\u041c\u0430\u0440\u043e\u043a\u043a\u043e","name:or":"\u0b2e\u0b4b\u0b30\u0b4b\u0b15\u0b4d\u0b15\u0b4b","name:pl":"Maroko","name:sr":"\u041c\u0430\u0440\u043e\u043a\u043e","name:pa":"\u0a2e\u0a4b\u0a30\u0a3e\u0a15\u0a4b","name:tr":"Fas","name:hi":"\u092e\u094b\u0930\u0915\u094d\u0915\u094b","name:sv":"Marocko","name:he":"\u05de\u05e8\u05d5\u05e7\u05d5","name:ha":"Maroko","name:hy":"\u0544\u0561\u0580\u0578\u056f\u0578","name:ht":"Maw\u00f2k","name:hu":"Marokk\u00f3","name:qu":"Maruku","population":33848242,"kind":"country","name:ts":"Morocco","name:is":"Marokk\u00f3","name:yi":"\u05de\u05d0\u05e8\u05d0\u05e7\u05d0","name:yo":"M\u00f2r\u00f3k\u00f2","name:mt":"Marokk","name:ms":"Maghribi","name:mr":"\u092e\u094b\u0930\u094b\u0915\u094d\u0915\u094b","name:my":"\u1019\u1031\u102c\u103a\u101b\u102d\u102f\u1000\u102d\u102f","name:mg":"Mar\u00f4ka","name:ml":"\u0d2e\u0d4a\u0d31\u0d4b\u0d15\u0d4d\u0d15\u0d4a","name:vi":"Maroc","name:mn":"\u041c\u0430\u0440\u043e\u043a\u043a\u043e","id":432425041,"name:mk":"\u041c\u0430\u0440\u043e\u043a\u043e","name:vo":"Marok\u00e4n","name:fa":"\u0645\u0631\u0627\u06a9\u0634","name:ff":"Maruk","name:fi":"Marokko","name:fo":"Marokko","alt_name:vi":"Ma-r\u1ed1c","name:fr":"Maroc","name:fy":"Marokko","name:nl":"Marokko","name:nn":"Marokko","name:no":"Marokko","name:ne":"\u092e\u094b\u0930\u094b\u0915\u094d\u0915\u094b","name:wa":"Marok","name:wo":"Marok","name:nv":"Moroko","name:ga":"Marac\u00f3","name:gd":"Maroco","name:gl":"Marrocos","name:gv":"Yn Varoc","name:gu":"\u0aae\u0acb\u0ab0\u0acb\u0a95\u0acd\u0a95\u0acb","name:tt":"\u041c\u0430\u0440\u043e\u043a\u043a\u043e"},"coordinates":[2760,1986]},{"type":"Point","properties":{"name:sk":"Portugalsko","name:el":"\u03a0\u03bf\u03c1\u03c4\u03bf\u03b3\u03b1\u03bb\u03af\u03b1","name:he":"\u05e4\u05d5\u05e8\u05e1\u05d5\u05d2\u05dc","kind":"country","min_zoom":2.0,"name:it":"Portogallo","name:uk":"\u041f\u043e\u0440\u0442\u0443\u0433\u0430\u043b\u0456\u044f","name:ru":"\u041f\u043e\u0440\u0442\u0443\u0433\u0430\u043b\u0438\u044f","name:vi":"B\u1ed3 \u0110\u00e0o Nha","name:pl":"Portugalia","name:hu":"Portug\u00e1lia","id":2377028247,"name:vo":"Portug\u00e4n","name:fa":"\u067e\u0631\u062a\u063a\u0627\u0644","name:eo":"Portugalujo","name":"Portugal","source":"openstreetmap.org","name:gv":"Yn Phortiugal","name:fy":"Portegal","population":10562178,"name:zh":"\u8461\u8404\u7259"},"coordinates":[2660,3892]},{"type":"Point","properties":{"source":"naturalearthdata.com","kind":"locality","name":"Madrid","country_capital":true,"population":5567000,"min_zoom":3.0,"id":7233},"coordinates":[3425,3972]},{"type":"Point","properties":{"source":"naturalearthdata.com","kind":"locality","name":"Casablanca","population":3181000,"region_capital":true,"min_zoom":3.0,"id":7241},"coordinates":[2709,2509]},{"type":"Point","properties":{"admin_level":"4","name:pt":"Andaluzia","name:ro":"Andaluzia","name:sk":"Andal\u00fazia","name:lt":"Andal\u016bzija","name:he":"\u05d0\u05e0\u05d3\u05dc\u05d5\u05e1\u05d9\u05d4","kind":"region","name:lb":"Andalusien","min_zoom":4.0,"name:la":"Vandalitia","name:it":"Vandalitia","name:uk":"\u0410\u043d\u0434\u0430\u043b\u0443\u0441\u0456\u044f","name:be":"\u0410\u043d\u0434\u0430\u043b\u0443\u0441\u0456\u044f","name:ru":"\u0410\u043d\u0434\u0430\u043b\u0443\u0441\u0438\u044f","name:pl":"Andaluzja","name:hu":"Andal\u00fazia","id":949522007,"population":8302923,"name:el":"\u0391\u03bd\u03b4\u03b1\u03bb\u03bf\u03c5\u03c3\u03af\u03b1","name:eo":"Andaluzio","name:en":"Andalusia","name":"Andaluc\u00eda","kind_detail":"state","name:da":"Andalusien","name:de":"Andalusien","source":"openstreetmap.org","name:fr":"Andalousie","name:et":"Andaluusia","name:zh":"\u5b89\u9054\u9b6f\u897f\u4e9e"},"coordinates":[3262,3313]},{"type":"Point","properties":{"source":"naturalearthdata.com","kind":"locality","name":"Lisbon","country_capital":true,"population":2812000,"min_zoom":4.0,"id":7131},"coordinates":[2431,3611]},{"type":"Point","properties":{"kind":"region","name:en":"Tiris Zemmour","name":"\u062a\u064a\u0631\u0633 \u0632\u0645\u0648\u0631","kind_detail":"state","min_zoom":4.0,"name:de":"Tiris Zemmour","source":"openstreetmap.org","name:fr":"Tiris Zemmour","name:ru":"\u0422\u0438\u0440\u0438\u0441-\u0417\u0435\u043c\u043c\u0443\u0440","name:pl":"Tiris Zammur","id":2651781118},"coordinates":[2336,485]},{"type":"Point","properties":{"admin_level":"4","name:pt":"Castela-Mancha","name:ro":"Castilia-La Mancha","name:nl":"Castili\u00eb-La Mancha","name:lt":"Kastilija ir La Man\u010da","name:he":"\u05e7\u05e1\u05d8\u05d9\u05dc\u05d9\u05d4-\u05dc\u05d4 \u05de\u05e0\u05e6'\u05d4","kind":"region","min_zoom":4.0,"name:it":"Castiglia-La Mancia","name:uk":"\u041a\u0430\u0441\u0442\u0438\u043b\u0456\u044f \u2014 \u041b\u0430-\u041c\u0430\u043d\u0447\u0430","name:be":"\u041a\u0430\u0441\u0442\u044b\u043b\u0456\u044f \u2014 \u041b\u0430-\u041c\u0430\u043d\u0447\u0430","name:ru":"\u041a\u0430\u0441\u0442\u0438\u043b\u0438\u044f \u2014 \u041b\u0430-\u041c\u0430\u043d\u0447\u0430","name:pl":"Kastylia-La Mancha","id":1721119281,"name:eo":"Kastilio-Man\u0109o","name:en":"Castile-La Mancha","name":"Castilla-La Mancha","kind_detail":"state","name:de":"Kastilien-La Mancha","source":"openstreetmap.org","name:fr":"Castille-La Manche","name:eu":"Gaztela - Mantxa","name:zh":"\u5361\u65af\u8482\u5229\u4e9a-\u62c9\u66fc\u6070"},"coordinates":[3618,3760]},{"type":"Point","properties":{"admin_level":"4","kind":"region","name":"Extremadura","name:lt":"Estremad\u016bra","kind_detail":"state","name:he":"\u05d0\u05e7\u05e1\u05d8\u05e8\u05de\u05d3\u05d5\u05e8\u05d4","name:eo":"Ekstremaduro","id":1721119349,"source":"openstreetmap.org","name:fr":"Estr\u00e9madure","name:uk":"\u0415\u0441\u0442\u0440\u0435\u043c\u0430\u0434\u0443\u0440\u0430","name:be":"\u042d\u0441\u0442\u0440\u044d\u043c\u0430\u0434\u0443\u0440\u0430","name:ru":"\u042d\u0441\u0442\u0440\u0435\u043c\u0430\u0434\u0443\u0440\u0430","min_zoom":4.0,"name:pl":"Estremadura"},"coordinates":[2976,3708]},{"type":"Point","properties":{"admin_level":"4","kind":"region","name":"Melilla","kind_detail":"state","name:ar":"\u0645\u0644\u064a\u0644\u064a\u0629","name:eo":"Melilo","source":"openstreetmap.org","min_zoom":4.0,"name:ru":"\u041c\u0435\u043b\u0438\u043b\u044c\u044f","name:be":"\u041c\u0435\u043b\u0456\u043b\u044c\u044f","name:zh":"\u6885\u5229\u5229\u4e9a","id":1721119369},"coordinates":[3561,2872]},{"type":"Point","properties":{"admin_level":"4","kind":"region","name":"Ceuta","kind_detail":"state","name:ar":"\u0633\u0628\u062a\u0629","name:eo":"Ce\u016dto","source":"openstreetmap.org","min_zoom":4.0,"name:ru":"\u0421\u0435\u0443\u0442\u0430","name:be":"\u0421\u0435\u045e\u0442\u0430","id":3513476360},"coordinates":[3128,2999]},{"type":"Point","properties":{"alt_name:be":"\u0412\u0430\u043b\u0435\u043d\u0441\u0456\u0439\u0441\u043a\u0430\u044f \u043a\u0440\u0430\u0456\u043d\u0430","name:pt":"Comunidade Valenciana","name:ro":"Comunitatea Valencian\u0103","int_name":"Valencia","alt_name:ca":"Pa\u00eds Valenci\u00e0","admin_level":"4","kind":"region","name:lb":"Autonom Gemeinschaft Valencia","min_zoom":4.0,"alt_name:en":"Valencian Country","name:it":"Comunit\u00e0 Valenzana","old_name":"Regne de Val\u00e8ncia","name:ru":"\u0412\u0430\u043b\u0435\u043d\u0441\u0438\u044f","name:pl":"Walencja","name:hr":"Valencijska Zajednica","id":1721119316,"alt_name:es":"Pa\u00eds Valenciano","alt_name:ru":"\u0412\u0430\u043b\u0435\u043d\u0441\u0438\u0439\u0441\u043a\u0430\u044f \u0441\u0442\u0440\u0430\u043d\u0430","name:eo":"Valencilando","name:en":"Valencian Community","name":"Comunitat Valenciana","kind_detail":"state","name:de":"Valencianische Gemeinschaft","source":"openstreetmap.org","name:fr":"Communaut\u00e9 valencienne","name:la":"Communitas Valentiana","name:es":"Comunidad Valenciana","name:eu":"Valentziako Erkidegoa","name:be":"\u0412\u0430\u043b\u0435\u043d\u0441\u0456\u044f","name:fa":"\u06a9\u0648\u06cc \u0648\u0627\u0644\u0646\u0633\u06cc\u0627"},"coordinates":[3957,3817]},{"type":"Point","properties":{"admin_level":"4","name:pt":"Regi\u00e3o de M\u00farcia","name:lt":"Mursija","name:eo":"Murcia Regiono","name:lb":"Autonom Gemeinschaft Murcia","min_zoom":4.0,"name:uk":"\u041c\u0443\u0440\u0441\u0456\u044f","name:be":"\u041c\u0443\u0440\u0441\u0456\u044f","name:ru":"\u041c\u0443\u0440\u0441\u0438\u044f","name:pl":"Murcja","id":1721119400,"kind":"region","name:en":"Region of Murcia","name":"Regi\u00f3n de Murcia","kind_detail":"state","name:de":"Region Murcia","source":"openstreetmap.org","name:fr":"R\u00e9gion de Murcie","name:eu":"Murtziako Eskualdea"},"coordinates":[3827,3437]}]},"transit":{"type":"GeometryCollection","geometries":[]},"pois":{"type":"GeometryCollection","geometries":[]},"boundaries":{"type":"GeometryCollection","geometries":[{"type":"LineString","properties":{"source":"naturalearthdata.com","kind":"country","sort_rank":262,"kind_detail":"2","min_zoom":0.0,"id":267},"arcs":[0]},{"type":"LineString","properties":{"source":"naturalearthdata.com","kind":"disputed","sort_rank":261,"kind_detail":"2","min_zoom":0.0,"id":13},"arcs":[1]},{"type":"LineString","properties":{"source":"naturalearthdata.com","kind":"country","sort_rank":262,"kind_detail":"2","min_zoom":0.0,"id":146},"arcs":[2]},{"type":"LineString","properties":{"source":"naturalearthdata.com","kind":"country","sort_rank":262,"kind_detail":"2","min_zoom":0.0,"id":265},"arcs":[3]},{"type":"LineString","properties":{"source":"naturalearthdata.com","kind":"disputed","sort_rank":261,"kind_detail":"2","min_zoom":0.0,"id":266},"arcs":[4]},{"type":"LineString","properties":{"source":"naturalearthdata.com","kind":"country","sort_rank":262,"kind_detail":"2","min_zoom":0.0,"id":264},"arcs":[5]},{"type":"LineString","properties":{"source":"naturalearthdata.com","kind":"country","sort_rank":262,"kind_detail":"2","min_zoom":0.0,"id":269},"arcs":[6]},{"type":"LineString","properties":{"source":"naturalearthdata.com","kind":"country","sort_rank":262,"kind_detail":"2","min_zoom":0.0,"id":270},"arcs":[7]},{"type":"LineString","properties":{"source":"naturalearthdata.com","kind":"country","sort_rank":262,"kind_detail":"2","min_zoom":0.0,"id":354},"arcs":[8]}]},"roads":{"type":"GeometryCollection","geometries":[]},"earth":{"type":"GeometryCollection","geometries":[{"type":"MultiPolygon","properties":{"sort_rank":10,"source":"naturalearthdata.com","min_zoom":0.0,"kind":"earth","area":6059120582644},"arcs":[[[30]],[[31]],[[32]],[[33]],[[34]],[[35]],[[36]],[[37]],[[38]],[[39]]]}]},"landuse":{"type":"GeometryCollection","geometries":[{"type":"Polygon","properties":{"kind":"national_park","name":"Parque Natural da Serra de S\u00e3o Mamede","area":938145024,"sort_rank":18,"source":"openstreetmap.org","min_zoom":3.0,"tier":1,"id":-544420,"osm_relation":true,"protect_class":"2"},"arcs":[[40]]},{"type":"Polygon","properties":{"kind":"park","name":"Parc National Tazekka \u2d30\u2d3c\u2d54\u2d30\u2d33 \u2d30\u2d4f\u2d30\u2d4e\u2d53\u2d54 \u2d4f \u2d5c\u2d30\u2d63\u2d3d\u2d3d\u2d30","area":1142109952,"sort_rank":24,"source":"openstreetmap.org","min_zoom":4.0,"tier":2,"id":254666168},"arcs":[[41]]},{"type":"Polygon","properties":{"kind":"nature_reserve","name":"Parque Natural Sierra de And\u00fajar","area":1210070016,"sort_rank":23,"source":"openstreetmap.org","min_zoom":4.0,"tier":2,"id":373769670},"arcs":[[42]]},{"type":"Polygon","properties":{"kind":"nature_reserve","name":"Parque Nacional de Sierra Nevada","area":1351619968,"sort_rank":23,"source":"openstreetmap.org","min_zoom":4.0,"tier":2,"id":-4829086,"osm_relation":true,"protect_class":"2"},"arcs":[[43]]},{"type":"Polygon","properties":{"kind":"nature_reserve","name":"Parque Natural do Vale do Guadiana","area":1114669952,"sort_rank":23,"source":"openstreetmap.org","min_zoom":4.0,"tier":2,"id":-4574570,"osm_relation":true,"protect_class":"2"},"arcs":[[44]]},{"type":"Polygon","properties":{"kind":"nature_reserve","name":"Parque Natural da Serra da Estrela","area":1539059968,"sort_rank":23,"operator":"ICNF","source":"openstreetmap.org","min_zoom":4.0,"tier":2,"id":-1710244,"osm_relation":true,"protect_class":"2"},"arcs":[[45]]},{"type":"Polygon","properties":{"kind":"park","name":"Parque Natural de la Sierra de Cazorla, Segura y las Villas","area":3390850048,"sort_rank":24,"source":"openstreetmap.org","min_zoom":4.0,"tier":2,"id":-2320941,"osm_relation":true},"arcs":[[46]]},{"type":"Polygon","properties":{"kind":"park","name":"Parc National du Haut Atlas Oriental \u2d30\u2d3c\u2d54\u2d30\u2d33 \u2d30\u2d4f\u2d30\u2d4e\u2d53\u2d54 \u2d4f \u2d30\u2d5f\u2d4d\u2d30\u2d59 \u2d4e\u2d47\u2d47\u2d53\u2d55\u2d4f \u2d30\u2d33\u2d4e\u2d53\u2d39\u2d30\u2d4f","area":2004409984,"sort_rank":24,"source":"openstreetmap.org","min_zoom":4.0,"tier":2,"id":396277232},"arcs":[[47]]},{"type":"Polygon","properties":{"kind":"protected_area","name":"Zona Perif\u00e9rica de Protecci\u00f3n del Parque Nacional de la Sierra de Guadarrama","area":1698720000,"sort_rank":17,"source":"openstreetmap.org","min_zoom":4.0,"tier":2,"id":-3124542,"osm_relation":true,"protect_class":"6"},"arcs":[[48]]},{"type":"MultiPolygon","properties":{"source":"naturalearthdata.com","kind":"urban_area","name":"","area":19388149493,"sort_rank":11,"min_zoom":4.0},"arcs":[[[49]],[[50]],[[51]],[[52]],[[53]],[[54]],[[55]],[[56]],[[57]],[[58]],[[59]],[[60]],[[61]],[[62]],[[63]],[[64]],[[65]],[[66]],[[67]],[[68]],[[69]],[[70]],[[71]],[[72]],[[73]],[[74]],[[75]],[[76]],[[77]],[[78]],[[79]],[[80]]]},{"type":"Polygon","properties":{"kind":"national_park","name":"Parc National d'Iriqui \u2d30\u2d3c\u2d54\u2d30\u2d33 \u2d30\u2d4f\u2d30\u2d4e\u2d53\u2d54 \u2d4f \u2d49\u2d55\u2d49\u2d47\u2d49 \u0627\u0644\u0645\u062a\u0646\u0632\u0647 \u0627\u0644\u0648\u0637\u0646\u064a \u0625\u064a\u0631\u064a\u0643\u064a","area":1305959936,"sort_rank":18,"source":"openstreetmap.org","min_zoom":3.0,"tier":1,"id":401309026,"protect_class":"2"},"arcs":[[81]]},{"type":"Polygon","properties":{"kind":"park","name":"Parc national de Kh\u00e9nifra \u2d30\u2d3c\u2d54\u2d30\u2d33 \u2d30\u2d4f\u2d30\u2d4e\u2d53\u2d54 \u2d4f \u2d45\u2d4f\u2d49\u2d3c\u2d55\u2d30","area":1600749952,"sort_rank":24,"source":"openstreetmap.org","min_zoom":4.0,"tier":2,"id":396284871},"arcs":[[82]]},{"type":"Polygon","properties":{"kind":"protected_area","name":"Malcata","area":1368679936,"sort_rank":17,"operator":"ICNF","source":"openstreetmap.org","min_zoom":4.0,"tier":2,"id":-6800904,"osm_relation":true,"protect_class":"97"},"arcs":[[83]]},{"type":"Polygon","properties":{"kind":"nature_reserve","name":"Parque Natural Sierra de Aracena y Picos de Aroche","area":2982370048,"sort_rank":23,"source":"openstreetmap.org","min_zoom":4.0,"tier":2,"id":-7429690,"osm_relation":true},"arcs":[[84]]},{"type":"Polygon","properties":{"kind":"nature_reserve","name":"Parque Natural Sierra Norte de Sevilla","area":2879290112,"sort_rank":23,"source":"openstreetmap.org","min_zoom":4.0,"tier":2,"id":374744016},"arcs":[[85]]},{"type":"Polygon","properties":{"kind":"nature_reserve","name":"Parque Natural do Sudoeste Alentejano e Costa Vicentina","area":1422710016,"sort_rank":23,"source":"openstreetmap.org","min_zoom":4.0,"tier":2,"id":-1380917,"osm_relation":true,"protect_class":"5"},"arcs":[[86]]},{"type":"Polygon","properties":{"kind":"protected_area","name":"Monchique","area":1213440000,"sort_rank":17,"operator":"ICNF","source":"openstreetmap.org","min_zoom":4.0,"tier":2,"id":-6267477,"osm_relation":true,"protect_class":"97"},"arcs":[[87]]},{"type":"Polygon","properties":{"kind":"nature_reserve","name":"Parque Natural do Douro Internacional","area":1541830016,"sort_rank":23,"operator":"INCF","source":"openstreetmap.org","min_zoom":4.0,"tier":2,"id":-5674125,"osm_relation":true,"protect_class":"2"},"arcs":[[88]]}]}},"type":"Topology","transform":{"translate":[-22.5,21.9430455334],"scale":[0.0054931641,0.0046476691]},"arcs":[[[2515,1150],[0,44],[0,35]],[[2515,1229],[-24,0],[0,-9],[6,-18],[2,-15],[-3,-9],[-2,-12],[1,-12],[4,-12],[3,-13],[0,-8],[-7,-7],[-17,-4],[-21,-2],[-15,0],[-22,2],[-14,-1],[-13,0],[-11,-2],[-13,-8],[-15,-13],[-19,-17],[-11,-11],[-15,-2],[-15,0],[-15,8],[-9,5],[-7,-1],[-10,-6],[-12,-4],[-11,0],[-19,9],[-23,13],[-13,6],[-19,2],[-18,4],[-14,-2],[-16,0],[-23,-8],[-19,-7],[-20,-6],[-24,-6],[6,-19],[8,-11],[0,-13],[-4,-11],[-11,-11],[-13,-13],[-8,-11],[-7,-15],[-6,-8],[-9,-15],[-9,-17],[-3,-11],[-3,-13],[-7,-3],[-23,-4],[-14,-4],[-13,-4],[-5,-8],[-1,-1],[-3,-15],[0,-11],[-4,-9],[-5,-21],[-8,-20],[-5,-25],[-6,-22],[-7,-34],[-7,-32],[-9,-31],[-8,-19],[-5,-11],[-13,-13],[-11,-8],[-12,-11],[-15,-11],[-20,-13],[-16,-11],[-7,-4],[-8,-6],[-13,-15],[-11,-22],[-7,-17],[-13,-28],[-9,-15],[-5,-8],[-15,-9],[-16,-7],[-18,-8],[-15,-9],[-20,-8],[-13,-9],[-9,-13],[-7,-15],[-9,-22],[-7,-23],[-4,-15],[-11,-52],[-4,-30],[-3,-19],[-6,-24],[-3,-37],[0,-30],[-4,-17],[-2,-13],[-9,-15],[-7,-11],[-13,-15],[-11,-8],[-4,-9],[-10,-11],[-7,-10]],[[2748,3278],[-11,54],[-6,20],[-1,14],[11,30],[12,13],[15,26],[20,21],[20,5],[10,3],[7,17],[4,14],[-3,2],[-24,-3],[-43,59],[2,10],[5,14],[4,18],[0,14],[12,12],[17,12],[14,17],[8,17],[1,15],[-8,11],[-24,6],[-24,44],[-5,27],[-5,3],[-15,12],[-15,24],[-2,3],[15,4],[61,1],[13,5],[2,2],[11,18],[12,30],[3,18],[-4,7],[-20,19],[-1,5],[3,9],[12,9],[16,11],[9,9],[-2,7],[-5,8],[0,7],[3,8],[1,29],[2,8],[-3,26],[-4,22],[-10,22]],[[2515,1150],[34,-24],[35,-24],[34,-24],[34,-24],[34,-23],[35,-24],[34,-24],[34,-24],[34,-24],[35,-23],[34,-24],[34,-24],[34,-24],[35,-24],[34,-23],[34,-24],[29,-20],[44,-32],[41,-30],[41,-30]],[[2515,1229],[0,53],[0,45],[0,46],[0,31],[0,33],[1,15],[4,6],[18,10],[29,25],[11,10],[13,11],[49,33],[10,9],[47,38],[11,5],[25,4],[11,7],[14,15],[21,17],[14,8],[3,2],[8,1],[44,-5],[18,-4],[22,-3],[7,2],[6,5],[8,12],[2,15],[0,12],[2,5],[3,3],[10,-1],[13,-2],[26,1],[8,2],[30,2],[42,8],[33,11],[26,8],[28,22],[21,23],[22,35],[17,30],[34,18],[29,12],[16,4],[38,16],[32,24],[29,22],[23,3],[29,4],[6,4],[8,8],[0,14],[-9,10],[-10,5],[-7,6],[-8,1],[-4,6],[2,13],[1,11],[5,12],[-1,16],[-8,16],[-2,12],[1,11],[3,9],[11,6],[12,2],[18,-3],[30,4],[77,28],[5,9],[5,19],[5,17],[8,6],[5,1],[25,4],[37,7],[13,1],[40,-2],[29,-1],[46,-3],[33,-1],[29,-1],[37,-1]],[[1719,0],[-1,11],[-1,29],[-2,28],[-1,27],[-2,24],[-2,14],[-9,28],[-2,13],[3,15],[5,13],[17,25],[24,20],[29,22],[22,17],[11,4],[34,6],[26,13],[26,12],[11,7],[2,23],[0,27],[0,29],[0,29],[0,29],[0,30],[0,29],[0,29],[0,30],[0,29],[0,29],[0,30],[0,29],[0,29],[0,29],[0,30],[0,29],[0,29],[0,26],[27,0],[34,0],[34,0],[33,0],[34,0],[34,0],[34,0],[34,0],[34,0],[34,0],[34,0],[34,0],[34,0],[34,0],[34,0],[34,0],[33,0],[37,0],[0,24],[0,36],[0,48],[0,48],[0,43],[0,43],[0,36]],[[3218,657],[-64,0],[-85,0],[-58,0],[-60,0],[-55,0],[4,-49],[6,-54],[5,-53],[5,-54],[5,-53],[5,-54],[6,-53],[5,-54],[5,-53],[5,-54],[5,-53],[5,-54],[2,-19]],[[4070,0],[-31,24],[-59,46],[-60,46],[-59,46],[-60,46],[-60,46],[-59,46],[-60,46],[-59,46],[-60,47],[-60,46],[-59,46],[-60,46],[-50,39],[-56,41]],[[3864,2183],[9,4],[0,12],[-7,23],[4,15],[14,13],[18,15],[-8,18],[-14,12],[-20,14],[-10,6],[-18,18],[-11,20],[-7,42],[-14,23],[-10,30],[9,53],[-13,32],[-2,14],[0,17],[4,28],[-3,40],[-15,41],[7,14],[3,8],[-1,6],[-14,13],[-6,11],[3,10],[8,15],[-1,6],[-23,18],[-38,29],[-11,13],[-5,16]],[[4096,3588],[0,-592],[-9,-7],[-25,-3],[-30,9],[-14,0],[-89,-42],[-31,-19],[-21,-18],[-24,-28],[-27,-13],[-35,-26],[-43,-19],[-19,-2],[-37,4],[-37,4],[-39,-2],[-17,4],[-20,-1],[-5,10],[-11,24],[-5,6],[0,10],[-3,10],[-17,-19],[-26,-17],[-34,-6],[-36,3],[-18,12],[-18,-8],[-35,0],[-63,-18],[-55,10],[-38,16],[-48,40],[-27,32],[-16,28],[0,24],[11,10],[-22,5],[-22,-14],[-19,-7],[-22,-3],[-33,-7],[-6,-22],[-72,-195],[-73,-138],[-26,-35],[-45,-30],[-76,-41],[-134,-57],[-39,-27],[-15,-14],[-44,-57],[-74,-75],[-1,-19],[-7,-52],[-11,-34],[-59,-80],[-25,-62],[-4,-76],[0,-48],[-8,-28],[4,-16],[15,-9],[22,-33],[5,-21],[-8,-52],[-14,-32],[-20,-32],[-28,-37],[-35,-56],[-52,-68],[-34,-27],[-74,-48],[-40,-41],[-24,-31],[-22,-15],[-79,-39],[-88,-26],[-59,-6],[-28,-14],[-17,-31],[-25,-25],[-14,-47],[-28,-62],[-16,-59],[-14,-30],[-22,-20],[-47,-33],[-39,-16],[-27,-25],[-18,-10],[-10,-19],[-10,-51],[-14,-25],[-19,-56],[-16,-31],[-9,-40],[-2,-75],[-9,-33],[-25,-36],[-27,-15],[-72,-88],[-35,-26],[-22,-23],[-10,-22],[-5,-15],[12,12],[11,16],[9,9],[3,-11],[-3,-9],[-25,-43],[-10,-27],[-21,-43],[-18,-28],[7,-14],[-5,-18],[-19,-24],[-10,-52],[-28,-56],[-31,-13],[-20,-24],[-21,-47],[-1018,0],[0,4096],[2519,0],[-2,-14],[-2,-35],[-9,-22],[-7,-10],[-18,-74],[-3,-17],[7,-6],[2,-8],[-30,-63],[-26,-60],[-19,-25],[-13,-8],[-10,-11],[4,-12],[0,-8],[-11,-29],[-3,-33],[-8,-23],[-1,-11],[1,-15],[12,-5],[10,-2],[19,3],[21,7],[8,19],[25,39],[16,11],[14,3],[-27,-17],[-11,-21],[4,-21],[-8,-12],[-13,-11],[-16,-2],[-13,-7],[9,-25],[-2,-20],[5,-2],[16,4],[33,12],[10,0],[11,1],[12,-7],[12,-13],[-39,5],[13,-32],[2,-25],[-14,-48],[10,-19],[5,-30],[-4,-30],[0,-35],[-20,-57],[-13,-28],[11,-4],[16,13],[20,0],[26,10],[20,-5],[64,-5],[36,-15],[19,0],[62,35],[16,2],[42,7],[36,-3],[9,4],[11,14],[1,-7],[-4,-12],[71,-51],[18,-27],[13,17],[19,1],[-7,-3],[-13,-11],[-15,-26],[5,-19],[21,-9],[2,-7],[-2,-8],[8,-22],[10,-20],[23,-31],[15,-1],[28,-20],[33,-14],[13,3],[17,7],[3,17],[7,2],[4,-6],[4,1],[6,21],[18,30],[11,11],[43,17],[47,0],[31,27],[13,15],[12,4],[98,8],[45,-3],[27,-7],[32,10],[20,1],[45,-4],[21,-6],[21,7],[13,13],[26,5],[27,-2],[22,-16],[14,7],[31,36],[26,62],[28,33],[57,37],[71,3],[21,2],[9,3],[10,7],[-19,18],[2,12],[11,18],[2,7],[11,23],[6,35],[18,11],[5,24],[26,26],[59,32],[10,7]],[[957,2338],[3,-9],[10,-10],[28,-13],[33,-3],[13,14],[13,10],[-15,3],[-28,15],[-23,-6],[-25,12],[-9,-13]],[[1573,1490],[14,-5],[12,14],[29,11],[14,10],[5,31],[5,10],[-7,8],[-7,-5],[-6,-15],[-21,-5],[-25,-14],[-7,-9],[-6,-31]],[[866,1472],[-10,13],[-24,0],[-13,-19],[22,-41],[4,-17],[4,1],[14,17],[3,10],[-2,15],[5,8],[-3,13]],[[1542,1436],[-22,-45],[-15,-41],[-22,-19],[-25,-6],[4,-4],[25,-6],[25,25],[48,18],[12,33],[7,38],[0,23],[-6,10],[-5,1],[-12,0],[-9,-8],[-5,-19]],[[1292,1335],[-2,3],[-3,-2],[-4,-3],[-42,3],[-7,-19],[-16,-15],[0,-23],[18,-22],[10,-6],[18,-2],[22,13],[8,14],[2,26],[-5,16],[1,17]],[[840,1262],[-7,9],[-22,-18],[-21,-1],[4,-7],[6,-5],[22,-13],[18,35]],[[1107,1336],[15,49],[40,32],[-1,10],[-36,-4],[-36,-31],[-7,-3],[-36,-6],[-16,1],[-12,-8],[8,-10],[13,-31],[25,-30],[20,5],[9,7],[14,19]],[[962,1346],[-8,1],[-6,-6],[-6,-12],[9,-18],[9,-5],[8,2],[15,13],[-1,6],[-4,10],[-16,9]],[[4096,3644],[-6,3],[-18,16],[-13,20],[-23,77],[0,22],[46,76],[14,19],[0,-233]],[[1057,2327],[-15,3],[-28,15],[-23,-6],[-25,12],[-9,-13],[3,-9],[10,-10],[28,-13],[33,-3],[13,14],[13,10]],[[1122,1385],[40,32],[-1,10],[-36,-4],[-36,-31],[-7,-3],[-36,-6],[-16,1],[-12,-8],[8,-10],[13,-31],[25,-30],[20,5],[9,7],[14,19],[15,49]],[[1632,1549],[-21,-5],[-25,-14],[-7,-9],[-6,-31],[14,-5],[12,14],[29,11],[14,10],[5,31],[5,10],[-7,8],[-7,-5],[-6,-15]],[[1542,1436],[-22,-45],[-15,-41],[-22,-19],[-25,-6],[4,-4],[25,-6],[25,25],[48,18],[12,33],[7,38],[0,23],[-6,10],[-5,1],[-12,0],[-9,-8],[-5,-19]],[[1292,1335],[-2,3],[-3,-2],[-4,-3],[-42,3],[-7,-19],[-16,-15],[0,-23],[18,-22],[10,-6],[18,-2],[22,13],[8,14],[2,26],[-5,16],[1,17]],[[942,1329],[9,-18],[9,-5],[8,2],[15,13],[-1,6],[-4,10],[-16,9],[-8,1],[-6,-6],[-6,-12]],[[811,1253],[-21,-1],[4,-7],[6,-5],[22,-13],[18,35],[-7,9],[-22,-18]],[[832,1485],[-13,-19],[22,-41],[4,-17],[4,1],[14,17],[3,10],[-2,15],[5,8],[-3,13],[-10,13],[-24,0]],[[2519,4096],[-2,-14],[-2,-35],[-9,-22],[-7,-10],[-18,-74],[-3,-17],[7,-6],[2,-8],[-30,-63],[-26,-60],[-19,-25],[-13,-8],[-10,-11],[4,-12],[0,-8],[-11,-29],[-3,-33],[-8,-23],[-1,-11],[1,-15],[12,-5],[10,-2],[19,3],[21,7],[8,19],[25,39],[16,11],[14,3],[-27,-17],[-11,-21],[4,-21],[-8,-12],[-13,-11],[-16,-2],[-13,-7],[9,-25],[-2,-20],[5,-2],[16,4],[33,12],[10,0],[11,1],[12,-7],[12,-13],[-39,5],[13,-32],[2,-25],[-14,-48],[10,-19],[5,-30],[-4,-30],[0,-35],[-20,-57],[-13,-28],[11,-4],[16,13],[20,0],[26,10],[20,-5],[64,-5],[36,-15],[19,0],[62,35],[16,2],[42,7],[36,-3],[9,4],[11,14],[1,-7],[-4,-12],[71,-51],[18,-27],[13,17],[19,1],[-7,-3],[-13,-11],[-15,-26],[5,-19],[21,-9],[2,-7],[-2,-8],[8,-22],[10,-20],[23,-31],[15,-1],[28,-20],[33,-14],[13,3],[17,7],[3,17],[7,2],[4,-6],[4,1],[6,21],[18,30],[11,11],[43,17],[47,0],[31,27],[13,15],[12,4],[98,8],[45,-3],[27,-7],[32,10],[20,1],[45,-4],[21,-6],[21,7],[13,13],[26,5],[27,-2],[22,-16],[14,7],[31,36],[26,62],[28,33],[57,37],[71,3],[21,2],[9,3],[10,7],[-19,18],[2,12],[11,18],[2,7],[11,23],[6,35],[18,11],[5,24],[26,26],[59,32],[10,7]],[[4096,3644],[-6,3],[-18,16],[-13,20],[-23,77],[0,22],[46,76],[14,19]],[[4096,2996],[-9,-7],[-25,-3],[-30,9],[-14,0],[-89,-42],[-31,-19],[-21,-18],[-24,-28],[-27,-13],[-35,-26],[-43,-19],[-19,-2],[-37,4],[-37,4],[-39,-2],[-17,4],[-20,-1],[-5,10],[-11,24],[-5,6],[0,10],[-3,10],[-17,-19],[-26,-17],[-34,-6],[-36,3],[-18,12],[-18,-8],[-35,0],[-63,-18],[-55,10],[-38,16],[-48,40],[-27,32],[-16,28],[0,24],[11,10],[-22,5],[-22,-14],[-19,-7],[-22,-3],[-33,-7],[-6,-22],[-72,-195],[-73,-138],[-26,-35],[-45,-30],[-76,-41],[-134,-57],[-39,-27],[-15,-14],[-44,-57],[-74,-75],[-1,-19],[-7,-52],[-11,-34],[-59,-80],[-25,-62],[-4,-76],[0,-48],[-8,-28],[4,-16],[15,-9],[22,-33],[5,-21],[-8,-52],[-14,-32],[-20,-32],[-28,-37],[-35,-56],[-52,-68],[-34,-27],[-74,-48],[-40,-41],[-24,-31],[-22,-15],[-79,-39],[-88,-26],[-59,-6],[-28,-14],[-17,-31],[-25,-25],[-14,-47],[-28,-62],[-16,-59],[-14,-30],[-22,-20],[-47,-33],[-39,-16],[-27,-25],[-18,-10],[-10,-19],[-10,-51],[-14,-25],[-19,-56],[-16,-31],[-9,-40],[-2,-75],[-9,-33],[-25,-36],[-27,-15],[-72,-88],[-35,-26],[-22,-23],[-10,-22],[-5,-15],[12,12],[11,16],[9,9],[3,-11],[-3,-9],[-25,-43],[-10,-27],[-21,-43],[-18,-28],[7,-14],[-5,-18],[-19,-24],[-10,-52],[-28,-56],[-31,-13],[-20,-24],[-21,-47]],[[840,1262],[-18,-35],[-22,13],[-6,5],[-4,7],[21,1],[22,18],[7,-9]],[[4096,3877],[-14,-19],[-46,-76],[0,-22],[23,-77],[13,-20],[18,-16],[6,-3],[0,-56],[-10,-7],[-59,-32],[-26,-26],[-5,-24],[-18,-11],[-6,-35],[-11,-23],[-2,-7],[-11,-18],[-2,-12],[19,-18],[-10,-7],[-9,-3],[-21,-2],[-71,-3],[-57,-37],[-28,-33],[-26,-62],[-31,-36],[-14,-7],[-22,16],[-27,2],[-26,-5],[-13,-13],[-21,-7],[-21,6],[-45,4],[-20,-1],[-32,-10],[-27,7],[-45,3],[-98,-8],[-12,-4],[-13,-15],[-31,-27],[-47,0],[-43,-17],[-11,-11],[-18,-30],[-6,-21],[-4,-1],[-4,6],[-7,-2],[-3,-17],[-17,-7],[-13,-3],[-33,14],[-28,20],[-15,1],[-23,31],[-10,20],[-8,22],[2,8],[-2,7],[-21,9],[-5,19],[15,26],[13,11],[7,3],[-19,-1],[-13,-17],[-18,27],[-71,51],[4,12],[-1,7],[-11,-14],[-9,-4],[-36,3],[-42,-7],[-16,-2],[-62,-35],[-19,0],[-36,15],[-64,5],[-20,5],[-26,-10],[-20,0],[-16,-13],[-11,4],[13,28],[20,57],[0,35],[4,30],[-5,30],[-10,19],[14,48],[-2,25],[-13,32],[39,-5],[-12,13],[-12,7],[-11,-1],[-10,0],[-33,-12],[-16,-4],[-5,2],[2,20],[-9,25],[13,7],[16,2],[13,11],[8,12],[-4,21],[11,21],[27,17],[-14,-3],[-16,-11],[-25,-39],[-8,-19],[-21,-7],[-19,-3],[-10,2],[-12,5],[-1,15],[1,11],[8,23],[3,33],[11,29],[0,8],[-4,12],[10,11],[13,8],[19,25],[26,60],[30,63],[-2,8],[-7,6],[3,17],[18,74],[7,10],[9,22],[2,35],[2,14],[1577,0],[0,-219]],[[1292,1335],[-1,-17],[5,-16],[-2,-26],[-8,-14],[-22,-13],[-18,2],[-10,6],[-18,22],[0,23],[16,15],[7,19],[42,-3],[4,3],[3,2],[2,-3]],[[968,1308],[-8,-2],[-9,5],[-9,18],[6,12],[6,6],[8,-1],[16,-9],[4,-10],[1,-6],[-15,-13]],[[849,1409],[-4,-1],[-4,17],[-22,41],[13,19],[24,0],[10,-13],[3,-13],[-5,-8],[2,-15],[-3,-10],[-14,-17]],[[1599,1499],[-12,-14],[-14,5],[6,31],[7,9],[25,14],[21,5],[6,15],[7,5],[7,-8],[-5,-10],[-5,-31],[-14,-10],[-29,-11]],[[966,2351],[25,-12],[23,6],[28,-15],[15,-3],[-13,-10],[-13,-14],[-33,3],[-28,13],[-10,10],[-3,9],[9,13]],[[1122,1385],[-15,-49],[-14,-19],[-9,-7],[-20,-5],[-25,30],[-13,31],[-8,10],[12,8],[16,-1],[36,6],[7,3],[36,31],[36,4],[1,-10],[-40,-32]],[[1512,1340],[-25,-25],[-25,6],[-4,4],[25,6],[22,19],[15,41],[22,45],[5,19],[9,8],[12,0],[5,-1],[6,-10],[0,-23],[-7,-38],[-12,-33],[-48,-18]],[[4096,0],[-3078,0],[21,47],[20,24],[31,13],[28,56],[10,52],[19,24],[5,18],[-7,14],[18,28],[21,43],[10,27],[25,43],[3,9],[-3,11],[-9,-9],[-11,-16],[-12,-12],[5,15],[10,22],[22,23],[35,26],[72,88],[27,15],[25,36],[9,33],[2,75],[9,40],[16,31],[19,56],[14,25],[10,51],[10,19],[18,10],[27,25],[39,16],[47,33],[22,20],[14,30],[16,59],[28,62],[14,47],[25,25],[17,31],[28,14],[59,6],[88,26],[79,39],[22,15],[24,31],[40,41],[74,48],[34,27],[52,68],[35,56],[28,37],[20,32],[14,32],[8,52],[-5,21],[-22,33],[-15,9],[-4,16],[8,28],[0,48],[4,76],[25,62],[59,80],[11,34],[7,52],[1,19],[74,75],[44,57],[15,14],[39,27],[134,57],[76,41],[45,30],[26,35],[73,138],[72,195],[6,22],[33,7],[22,3],[19,7],[22,14],[22,-5],[-11,-10],[0,-24],[16,-28],[27,-32],[48,-40],[38,-16],[55,-10],[63,18],[35,0],[18,8],[18,-12],[36,-3],[34,6],[26,17],[17,19],[3,-10],[0,-10],[5,-6],[11,-24],[5,-10],[20,1],[17,-4],[39,2],[37,-4],[37,-4],[19,2],[43,19],[35,26],[27,13],[24,28],[21,18],[31,19],[89,42],[14,0],[30,-9],[25,3],[9,7],[0,-2996]],[[2719,3772],[14,24],[34,-26],[28,-74],[-76,76]],[[3296,2574],[1,47],[66,16],[-39,-73],[-28,10]],[[3317,3536],[82,3],[7,-20],[-55,-50],[-34,67]],[[3450,3248],[6,18],[26,-16],[-14,16],[37,19],[106,-27],[-68,2],[-63,-33],[-30,21]],[[2670,3399],[7,23],[43,-3],[8,-66],[-58,46]],[[2675,3950],[50,53],[40,15],[-42,-80],[-48,12]],[[3533,3401],[35,101],[35,26],[-16,18],[37,19],[27,-71],[-79,-91],[-23,-16],[-16,14]],[[3056,2214],[29,32],[72,-13],[88,34],[-103,-71],[-86,18]],[[3329,4056],[40,40],[46,0],[-13,-52],[-61,-7],[-12,19]],[[2344,1809],[0,28],[54,-22],[-28,-19],[-26,13]],[[2472,1839],[15,10],[15,-7],[-23,-22],[-7,19]],[[2823,1938],[19,13],[18,-13],[-21,-25],[-16,25]],[[3693,2064],[-10,21],[19,3],[-2,-15],[-7,-9]],[[2655,2096],[-17,-24],[-18,13],[7,22],[28,-11]],[[2950,2279],[5,20],[14,-39],[-26,0],[7,19]],[[2684,2502],[72,34],[4,-5],[-41,-74],[-35,45]],[[3202,2610],[-6,-19],[-24,0],[-2,16],[32,3]],[[3068,2564],[12,17],[21,-4],[-7,-19],[-26,6]],[[2840,2588],[27,36],[3,-1],[-7,-48],[-48,-18],[25,31]],[[3563,2871],[16,-34],[-34,-27],[2,57],[16,4]],[[4032,2995],[47,-7],[-2,-12],[-60,-2],[15,21]],[[2957,3146],[14,13],[12,-41],[-22,4],[-4,24]],[[3665,3202],[-25,-1],[2,35],[12,-6],[11,-28]],[[3625,3271],[-34,0],[2,17],[27,-9],[5,-8]],[[3289,3175],[-13,-15],[-25,-22],[18,49],[35,-2],[-15,-10]],[[3908,3468],[20,8],[-41,-38],[-16,15],[2,23],[35,-8]],[[4027,3549],[-26,-26],[-3,24],[29,2]],[[4096,3885],[-54,-2],[7,30],[47,-6],[0,-22]],[[2425,3603],[16,2],[19,0],[-23,-22],[-21,2],[9,18]],[[2393,3605],[-21,7],[12,23],[66,15],[-17,-35],[-40,-10]],[[3427,3301],[25,-5],[-14,-36],[-32,33],[21,8]],[[3034,3315],[-17,-15],[-25,-1],[25,54],[17,-38]],[[2564,4096],[12,-24],[-44,-55],[35,0],[4,-93],[-28,0],[14,71],[-51,29],[37,43],[-27,3],[3,26],[45,0]],[[3309,3957],[-14,-7],[-14,4],[28,22],[0,-19]],[[2643,4039],[18,8],[27,-31],[-38,4],[-7,19]],[[3619,4064],[11,-18],[-18,-12],[-3,5],[10,25]],[[3710,3895],[-15,5],[10,16],[15,-8],[-10,-13]],[[3477,3979],[-2,-44],[-39,-25],[11,47],[-18,-24],[-60,2],[0,50],[-42,30],[19,16],[-18,16],[87,25],[-9,-33],[23,-19],[5,30],[20,-14],[-9,-38],[50,-6],[-18,-13]],[[3126,2967],[16,-28],[-30,-12],[13,23],[1,17]],[[3954,2959],[35,22],[23,-13],[-19,-27],[-39,18]],[[3023,2980],[27,5],[8,1],[-4,-21],[-31,15]],[[2885,1689],[54,39],[43,-39],[-57,-22],[-40,22]],[[3079,2363],[41,55],[25,-5],[-36,-29],[7,-10],[98,28],[-78,-78],[5,25],[-62,14]],[[2792,3938],[37,73],[28,-6],[2,-49],[-47,-46],[-20,28]],[[2821,3464],[13,36],[25,-7],[39,-33],[69,-13],[14,-35],[-99,2],[-61,50]],[[2970,3439],[56,45],[31,-22],[24,14],[41,-56],[-37,5],[-11,-31],[-29,24],[-16,-24],[-59,45]],[[2454,3245],[35,91],[5,103],[32,-66],[-22,-4],[-30,-109],[25,-10],[-45,-5]],[[2492,3295],[33,59],[27,-32],[29,7],[-12,-39],[-77,5]],[[2842,4096],[15,-23],[-4,-19],[-30,42],[19,0]]]}