{"objects":{"water":{"type":"GeometryCollection","geometries":[{"type":"Polygon","properties":{"source":"naturalearthdata.com","kind":"ocean","area":1444195503964160,"sort_rank":200,"min_zoom":0.0,"id":1},"arcs":[[0],[1],[2]]},{"type":"LineString","properties":{"source":"naturalearthdata.com","kind":"ocean","sort_rank":205,"boundary":true,"min_zoom":0.0,"id":908},"arcs":[3]},{"type":"LineString","properties":{"source":"naturalearthdata.com","kind":"ocean","sort_rank":205,"boundary":true,"min_zoom":0.0,"id":1407},"arcs":[4]}]},"buildings":{"type":"GeometryCollection","geometries":[]},"places":{"type":"GeometryCollection","geometries":[{"type":"Point","properties":{"name:pt":"Ilha de Ascens\u00e3o","name:ar":"\u062c\u0632\u064a\u0631\u0629 \u0623\u0633\u064a\u0646\u0634\u064a\u0646","min_zoom":4.0,"name:be":"\u0412\u043e\u0441\u0442\u0440\u0430\u045e \u0423\u0448\u044d\u0441\u0446\u044f","name:ru":"\u041e\u0441\u0442\u0440\u043e\u0432 \u0412\u043e\u0437\u043d\u0435\u0441\u0435\u043d\u0438\u044f","name:hu":"Ascension-sziget","id":1602899342,"population":880,"name:el":"\u039d\u03ae\u03c3\u03bf\u03c2 \u0391\u03bd\u03b1\u03bb\u03ae\u03c8\u03b5\u03c9\u03c2","kind":"region","name":"Ascension Island","kind_detail":"state","name:de":"Himmelfahrtsinsel","source":"openstreetmap.org","name:fr":"\u00cele de l'Ascension","name:es":"Isla Ascensi\u00f3n"},"coordinates":[1481,2613]},{"type":"Point","properties":{"kind":"region","name:nl":"Sint-Helena","name":"Saint Helena","name:lt":"\u0160ventoji Elena","kind_detail":"state","min_zoom":4.0,"name:br":"Santa Helena","source":"openstreetmap.org","name:fr":"Sainte-H\u00e9l\u00e8ne","name:be":"\u0412\u043e\u0441\u0442\u0440\u0430\u045e \u0421\u0432\u044f\u0442\u043e\u0439 \u0410\u043b\u0435\u043d\u044b","name:ru":"\u041e\u0441\u0442\u0440\u043e\u0432 \u0421\u0432\u044f\u0442\u043e\u0439 \u0415\u043b\u0435\u043d\u044b","name:sk":"Sv\u00e4t\u00e1 Helena","name:hu":"Szent Ilona-sziget","id":1602893650,"name:es":"Santa Elena"},"coordinates":[3058,1111]}]},"transit":{"type":"GeometryCollection","geometries":[]},"pois":{"type":"GeometryCollection","geometries":[]},"boundaries":{"type":"GeometryCollection","geometries":[]},"roads":{"type":"GeometryCollection","geometries":[]},"earth":{"type":"GeometryCollection","geometries":[{"type":"MultiPolygon","properties":{"sort_rank":10,"source":"naturalearthdata.com","min_zoom":0.0,"kind":"earth","area":1775818872038},"arcs":[[[5]]]}]},"landuse":{"type":"GeometryCollection","geometries":[]}},"type":"Topology","transform":{"translate":[-22.5,-21.9430455334],"scale":[0.0054931641,0.0053571889]},"arcs":[[[0,4096],[4096,0],[0,-4096],[-4096,0],[0,4096]],[[1473,2609],[2,-2],[6,0],[9,4],[2,4],[-4,4],[-6,5],[-4,1],[-3,-5],[-3,-7],[1,-4]],[[3045,1117],[-2,-8],[17,1],[6,5],[-1,11],[-8,1],[-12,-10]],[[3045,1117],[-2,-8],[17,1],[6,5],[-1,11],[-8,1],[-12,-10]],[[1478,2625],[-3,-5],[-3,-7],[1,-4],[2,-2],[6,0],[9,4],[2,4],[-4,4],[-6,5],[-4,1]],[[3060,1110],[-17,-1],[2,8],[12,10],[8,-1],[1,-11],[-6,-5]]]}