{"objects":{"water":{"type":"GeometryCollection","geometries":[{"type":"MultiPolygon","properties":{"source":"naturalearthdata.com","kind":"ocean","area":1576712559132672,"sort_rank":200,"min_zoom":0.0,"id":1},"arcs":[[[6]],[[7],[8],[9]]]},{"type":"MultiLineString","properties":{"source":"naturalearthdata.com","kind":"ocean","sort_rank":205,"boundary":true,"min_zoom":0.0,"id":75},"arcs":[[10],[11]]},{"type":"LineString","properties":{"source":"naturalearthdata.com","kind":"ocean","sort_rank":205,"boundary":true,"min_zoom":0.0,"id":1346},"arcs":[12]},{"type":"LineString","properties":{"source":"naturalearthdata.com","kind":"ocean","sort_rank":205,"boundary":true,"min_zoom":0.0,"id":3844},"arcs":[13]}]},"buildings":{"type":"GeometryCollection","geometries":[]},"places":{"type":"GeometryCollection","geometries":[{"type":"Point","properties":{"kind":"locality","name":"S\u00e3o Jos\u00e9 dos Pinhais","kind_detail":"city","source":"openstreetmap.org","min_zoom":8.0,"name:uk":"\u0421\u0430\u043d-\u0416\u043e\u0437\u0435-\u0434\u0443\u0441-\u041f\u0456\u043d\u044c\u044f\u0439\u0441","id":415523651,"population":272530},"coordinates":[34,856]},{"type":"Point","properties":{"kind":"locality","name":"Paranagu\u00e1","kind_detail":"city","source":"openstreetmap.org","min_zoom":8.0,"name:ru":"\u041f\u0430\u0440\u0430\u043d\u0430\u0433\u0443\u0430","id":277429530,"population":139796},"coordinates":[2020,926]},{"type":"Point","properties":{"source":"openstreetmap.org","kind":"locality","name":"Pinhais","kind_detail":"city","population":118319,"min_zoom":8.0,"id":415523646},"coordinates":[76,1149]},{"type":"Point","properties":{"source":"openstreetmap.org","kind":"locality","name":"Piraquara","kind_detail":"city","population":106132,"min_zoom":8.0,"id":336193047},"coordinates":[463,1149]},{"type":"Point","properties":{"source":"openstreetmap.org","kind":"locality","name":"Campina Grande do Sul","kind_detail":"town","population":38756,"min_zoom":8.0,"id":340934669},"coordinates":[478,1594]},{"type":"Point","properties":{"source":"openstreetmap.org","kind":"locality","name":"Cajati","kind_detail":"town","population":28987,"min_zoom":8.0,"id":415523658},"coordinates":[3236,3452]},{"type":"Point","properties":{"source":"openstreetmap.org","kind":"locality","name":"Quatro Barras","kind_detail":"town","population":19002,"min_zoom":8.0,"id":415523645},"coordinates":[420,1381]},{"type":"Point","properties":{"source":"openstreetmap.org","kind":"locality","name":"Antonina","kind_detail":"town","population":18891,"min_zoom":8.0,"id":277438325},"coordinates":[1474,1191]},{"type":"Point","properties":{"source":"openstreetmap.org","kind":"locality","name":"Pariquera-A\u00e7u","kind_detail":"town","population":18567,"min_zoom":8.0,"id":335860832},"coordinates":[3899,3492]},{"type":"Point","properties":{"source":"openstreetmap.org","kind":"locality","name":"Pontal do Paran\u00e1","kind_detail":"town","population":17508,"min_zoom":8.0,"id":415523641},"coordinates":[2497,725]},{"type":"Point","properties":{"source":"openstreetmap.org","kind":"locality","name":"Jacupiranga","kind_detail":"town","population":17234,"min_zoom":8.0,"id":335859207},"coordinates":[3532,3528]},{"type":"Point","properties":{"kind":"locality","name":"Morretes","kind_detail":"town","source":"openstreetmap.org","min_zoom":8.0,"name:ru":"\u041c\u043e\u0440\u0440\u0435\u0442\u0435\u0441","id":277438440,"population":15718},"coordinates":[1126,1039]},{"type":"Point","properties":{"source":"openstreetmap.org","kind":"locality","name":"Canan\u00e9ia","kind_detail":"town","population":12216,"min_zoom":8.0,"id":335861850},"coordinates":[3749,2541]},{"type":"Point","properties":{"source":"openstreetmap.org","kind":"locality","name":"Bocai\u00fava do Sul","kind_detail":"town","population":11005,"min_zoom":8.0,"id":415523648},"coordinates":[305,1909]}]},"transit":{"type":"GeometryCollection","geometries":[{"type":"LineString","properties":{"source":"openstreetmap.org","kind":"train","name":"Trem da Serra do Mar","sort_rank":275,"min_zoom":6.0,"osm_relation":true},"arcs":[5]}]},"pois":{"type":"GeometryCollection","geometries":[{"type":"Point","properties":{"kind":"national_park","protect_class":"2","area":898883000,"source":"openstreetmap.org","min_zoom":5.88,"tier":1,"id":-6273630,"osm_relation":true,"name":"Parque Estadual Rio Turvo"},"coordinates":[2957,2781]},{"type":"Point","properties":{"kind":"national_park","protect_class":"2","area":471903000,"source":"openstreetmap.org","min_zoom":6.35,"tier":1,"id":-5712097,"osm_relation":true,"name":"Parque Estadual Caverna do Diabo"},"coordinates":[2248,3602]},{"type":"Point","properties":{"kind":"nature_reserve","tier":2,"protect_class":"2","area":165553000,"source":"openstreetmap.org","min_zoom":8.6,"operator":"Funda\u00e7\u00e3o para Conserva\u00e7\u00e3o e a Produ\u00e7\u00e3o Florestal do Estado de S\u00e3o Paulo\/SP.","id":-5368928,"osm_relation":true,"name":"Parque Estadual Ilha do Cardoso"},"coordinates":[3619,1981]},{"type":"Point","properties":{"kind":"nature_reserve","tier":2,"protect_class":"1","area":287415000,"source":"openstreetmap.org","min_zoom":8.21,"operator":"Instituto Chico Mendes de Conserva\u00e7\u00e3o da Biodiversidade","id":-3425870,"osm_relation":true,"name":"Reserva Biol\u00f3gica Bom Jesus"},"coordinates":[1838,1456]},{"type":"Point","properties":{"kind":"protected_area","tier":2,"protect_class":"5","area":1158310000,"source":"openstreetmap.org","min_zoom":7.0,"operator":"Instituto Chico Mendes de Conserva\u00e7\u00e3o da Biodiversidade","id":-3424553,"osm_relation":true,"name":"\u00c1rea de Prote\u00e7\u00e3o Ambiental Canan\u00e9ia-Iguape-Peru\u00edbe"},"coordinates":[3536,2728]},{"type":"Point","properties":{"kind":"nature_reserve","tier":2,"protect_class":"2","area":288206000,"source":"openstreetmap.org","min_zoom":8.2,"operator":"Instituto Chico Mendes de Conserva\u00e7\u00e3o da Biodiversidade","id":-3424549,"osm_relation":true,"name":"Parque Nacional do Superagui"},"coordinates":[3037,1487]},{"type":"Point","properties":{"kind":"nature_reserve","tier":2,"protect_class":"2","area":310650000,"source":"openstreetmap.org","min_zoom":8.15,"operator":"Instituto Chico Mendes de Conserva\u00e7\u00e3o da Biodiversidade","id":-2639440,"osm_relation":true,"name":"Parque Nacional de Saint-Hilaire\/Lange"},"coordinates":[1664,312]}]},"boundaries":{"type":"GeometryCollection","geometries":[{"type":"LineString","properties":{"name:kg":"Brazil","name:ty":"Brazil","name:ka":"\u10d1\u10e0\u10d0\u10d6\u10d8\u10da\u10d8\u10d0","name:ko":"\ube0c\ub77c\uc9c8","name:cv":"\u0411\u0440\u0430\u0437\u0438\u043b\u0438","name:cu":"\u0411\u0440\u0430\ua641\u0457\u043b\u0457\ua657","name:kl":"Brazil","name:cs":"Braz\u00edlie","name:ki":"Brazil","name:co":"Brasile","name:kv":"\u0411\u0440\u0430\u0437\u0438\u043b\u0438\u044f","name:ku":"Braz\u00eel","name:ce":"\u0411\u0440\u0430\u0437\u0438\u043b\u0438\u044f","name:ta":"\u0baa\u0bbf\u0bb0\u0bc7\u0b9a\u0bbf\u0bb2\u0bcd","name:tg":"\u0411\u0440\u0430\u0437\u0438\u043b\u0438\u044f","name:ky":"\u0411\u0440\u0430\u0437\u0438\u043b\u0438\u044f","name:te":"\u0c2c\u0c4d\u0c30\u0c46\u0c1c\u0c3f\u0c32\u0c4d","name:da":"Brasilien","name:de":"Brasilien","name:dz":"\u0f56\u0f71\u0f62\u0f71\u0f0b\u0f5b\u0f72\u0f63\u0f0b","source":"openstreetmap.org","name:kn":"\u0cac\u0ccd\u0cb0\u0cc6\u0c9c\u0cbf\u0cb2\u0ccd","name:dv":"\u0784\u07aa\u0783\u07ac\u0792\u07a8\u078d\u07b0","name:km":"\u1794\u17d2\u179a\u17c1\u179f\u17ca\u17b8\u179b","name:lv":"Braz\u012blija","name:lt":"Brazilija","name:uz":"Braziliya","name:kk":"\u0411\u0440\u0430\u0437\u0438\u043b\u0438\u044f","name:ur":"\u0628\u0631\u0627\u0632\u06cc\u0644","name:lb":"Brasilien","name:la":"Brasilia","name:tt":"\u0411\u0440\u0430\u0437\u0438\u043b\u0438\u044f","name:uk":"\u0411\u0440\u0430\u0437\u0438\u043b\u0456\u044f","name:ug":"\u0628\u0631\u0627\u0632\u0649\u0644\u0649\u064a\u06d5","name:li":"Braziel","name:ln":"Brazil","name:el":"\u0392\u03c1\u03b1\u03b6\u03b9\u03bb\u03af\u03b1","name:eo":"Brazilo","name:en":"Brazil","name":"Brasil","name:tk":"Brazili\u00fda","name:ee":"Brazil","name:th":"\u0e1b\u0e23\u0e30\u0e40\u0e17\u0e28\u0e1a\u0e23\u0e32\u0e0b\u0e34\u0e25","name:et":"Brasiilia","name:ay":"Wrasil","name:rm":"Brasilia","name:rn":"Brazil","name:az":"Braziliya","name:ig":"Brazil","name:as":"\u09ac\u09cd\u09f0\u09be\u099c\u09bf\u09b2","name:zh-min-nan":"Pa-se","name:io":"Brazilia","name:is":"Brasil\u00eda","name:am":"\u1265\u122b\u12da\u120d","name:it":"Brasile","name:ru":"\u0411\u0440\u0430\u0437\u0438\u043b\u0438\u044f","name:rw":"Burezile","name:af":"Brasili\u00eb","name:zu":"IBrazili","kind_detail":"2","name:za":"Bahsih","name:zh-yue":"\u5df4\u897f","name:zh":"\u5df4\u897f","name:so":"Barasiil","name:sl":"Brazilija","name:sk":"Braz\u00edlia","name:ja":"\u30d6\u30e9\u30b8\u30eb","name:sh":"Brazil","name:se":"Brasilia","name:sc":"Brasile","name:br":"Brazil","name:bs":"Brazil","name:bm":"Brazil","name:bn":"\u09ac\u09cd\u09b0\u09be\u099c\u09bf\u09b2","name:bo":"\u0f54\u0f74\u0f0b\u0f62\u0f74\u0f0b\u0f5f\u0f72\u0f63\u0f0d","name:bi":"Brazil","name:sw":"Brazil","name:be":"\u0411\u0440\u0430\u0437\u0456\u043b\u0456\u044f","name:bg":"\u0411\u0440\u0430\u0437\u0438\u043b\u0438\u044f","name:ba":"\u0411\u0440\u0430\u0437\u0438\u043b\u0438\u044f","name:sq":"Brazili","name:sa":"\u092c\u094d\u0930\u093e\u0938\u0940\u0932","name:ps":"\u0628\u0631\u0627\u0632\u06cc\u0644","min_zoom":8.0,"name:ro":"Brazilia","name:pa":"\u0a2c\u0a4d\u0a30\u0a3e\u0a1c\u0a3c\u0a40\u0a32","name:os":"\u0411\u0440\u0430\u0437\u0438\u043b\u0438","name:or":"\u0b2c\u0b4d\u0b30\u0b3e\u0b1c\u0b3f\u0b32","name:pl":"Brazylia","name:st":"Brazil","sort_rank":262,"name:sr":"\u0411\u0440\u0430\u0437\u0438\u043b","osm_relation":true,"name:ar":"\u0627\u0644\u0628\u0631\u0627\u0632\u064a\u0644","name:tr":"Brezilya","name:hi":"\u092c\u094d\u0930\u093e\u091c\u093c\u0940\u0932","name:sv":"Brasilien","name:he":"\u05d1\u05e8\u05d6\u05d9\u05dc","name:hy":"\u0532\u0580\u0561\u0566\u056b\u056c\u056b\u0561","name:ht":"Brezil","name:hu":"Braz\u00edlia","name:hr":"Brazil","kind":"country","name:yi":"\u05d1\u05e8\u05d0\u05d6\u05d9\u05dc","name:mt":"Bra\u017cil","name:ms":"Brazil","name:mr":"\u092c\u094d\u0930\u093e\u091d\u0940\u0932","name:my":"\u1018\u101b\u102c\u1007\u102e\u1038\u1014\u102d\u102f\u1004\u103a\u1004\u1036","official_name":"Rep\u00fablica Federativa do Brasil","name:mg":"Brazila","name:ml":"\u0d2c\u0d4d\u0d30\u0d38\u0d40\u0d7d","name:mn":"\u0411\u0440\u0430\u0437\u0438\u043b","name:mi":"Par\u012bhi","id":-59470,"name:mk":"\u0411\u0440\u0430\u0437\u0438\u043b","name:vo":"Brasil\u00e4n","name:fa":"\u0628\u0631\u0632\u06cc\u0644","name:fi":"Brasilia","old_name:vi":"Ba T\u00e2y","alt_name:vi":"Brazil;Bra-xin","name:fr":"Br\u00e9sil","name:fy":"Brazylje","name:nl":"Brazili\u00eb","name:na":"Bradir","name:ne":"\u092c\u094d\u0930\u093e\u091c\u093f\u0932","name:wa":"Braezi","name:wo":"Breesil","name:nv":"Bwaz\u00ed\u00edl","name:ga":"An Bhrasa\u00edl","name:gd":"Braisil","name:gn":"Pindorama","maritime_boundary":true,"name:gv":"Yn Vrasseel","name:gu":"\u0aac\u0acd\u0ab0\u0abe\u0a9d\u0abf\u0ab2"},"arcs":[0]},{"type":"LineString","properties":{"name:left:la":"Sanctus Paulus","name:right:la":"Parana","name:right:yi":"\u05e4\u05d0\u05e8\u05d0\u05e0\u05d0","name:right:hy":"\u054a\u0561\u0580\u0561\u0576\u0561","name:right:uk":"\u041f\u0430\u0440\u0430\u043d\u0430","name:left:he":"\u05e1\u05d0\u05d5 \u05e4\u05d0\u05d5\u05dc\u05d5","name:left:sr":"\u0421\u0430\u043e \u041f\u0430\u0443\u043b\u043e","name:right:lt":"Parana","name:right:hi":"\u092a\u093e\u0930\u093e\u0928\u093e","min_zoom":8.0,"name:left:lt":"San Paulas","name:left:sh":"Sao Paulo","name:left:lv":"Sanpaulu","name:right:uz":"Parana","name:left:sa":"\u0938\u093e\u0913 \u092a\u093e\u0913\u0932\u094b","name:right:he":"\u05e4\u05e8\u05e0\u05d4","name:left:hi":"\u0938\u093e\u0913 \u092a\u093e\u0909\u0932\u094b","name:right:os":"\u041f\u0430\u0440\u0430\u043d\u0430","name:left:az":"San Paulo","short_name:left":"SP","name:right:tg":"\u041f\u0430\u0440\u0430\u043d\u0430","name:left:ce":"\u0421\u0430\u043d-\u041f\u0430\u0443\u043b\u0443","name:left:gl":"San Paulo","source":"openstreetmap.org","name:right:ar":"\u0628\u0627\u0631\u0627\u0646\u0627","name:left:cv":"\u0421\u0430\u043d-\u041f\u0430\u0443\u043b\u0443","name:left":"S\u00e3o Paulo","name:right:mk":"\u041f\u0430\u0440\u0430\u043d\u0430","name:left:ja":"\u30b5\u30f3\u30d1\u30a6\u30ed","name:left:ka":"\u10e1\u10d0\u10dc-\u10de\u10d0\u10e3\u10da\u10e3","name:left:ko":"\uc0c1\ud30c\uc6b8\ub8e8","name:left:kk":"\u0421\u0430\u043d-\u041f\u0430\u0443\u043b\u0443","name:right:ru":"\u041f\u0430\u0440\u0430\u043d\u0430","name:left:kv":"\u0421\u0430\u043d-\u041f\u0430\u0443\u043b\u0443","name:left:ru":"\u0421\u0430\u043d-\u041f\u0430\u0443\u043b\u0443","name:right:mr":"\u092a\u093e\u0930\u093e\u0928\u093e","id:right":-297640,"name:right:eo":"Paranao","name:right:el":"\u03a0\u03b1\u03c1\u03b1\u03bd\u03ac","name:left:wa":"Sawo P\u00e5lo","kind":"region","name":"S\u00e3o Paulo - Paran\u00e1","name:left:fa":"\u0633\u0627\u0626\u0648\u067e\u0627\u0626\u0648\u0644\u0648","name:right:fa":"\u067e\u0627\u0631\u0627\u0646\u0627","name:right:lv":"Parana","name:right:be":"\u041f\u0430\u0440\u0430\u043d\u0430","name:left:zh":"\u5723\u4fdd\u7f57","name:right:zh":"\u5df4\u62c9\u90a3","name:left:hy":"\u054d\u0561\u0576 \u054a\u0561\u0578\u0582\u056c\u0578","name:left:uz":"San-Paulu","name:right:ja":"\u30d1\u30e9\u30ca","name:left:ur":"\u0633\u0627\u0624 \u067e\u0627\u0644\u0648","name:right:sr":"\u041f\u0430\u0440\u0430\u043d\u0430","name:right:bg":"\u041f\u0430\u0440\u0430\u043d\u0430","name:left:uk":"\u0421\u0430\u043d-\u041f\u0430\u0443\u043b\u0443","name:left:ba":"\u0421\u0430\u043d-\u041f\u0430\u0443\u043b\u0443","name:left:bg":"\u0421\u0430\u043e \u041f\u0430\u0443\u043b\u043e","name:left:be":"\u0421\u0430\u043d-\u041f\u0430\u045e\u043b\u0443","name:left:ne":"\u0938\u093e\u0913 \u092a\u093e\u0909\u0932\u094b","name:left:bn":"\u09b8\u09be\u0981\u0989 \u09aa\u09be\u0989\u09b2\u09c1","id":-298204,"name:right":"Paran\u00e1","name:left:eo":"San-Pa\u016dlo","name:left:el":"\u03a3\u03ac\u03bf \u03a0\u03ac\u03bf\u03bb\u03bf","name:right:ca":"Paran\u00e0","name:left:ug":"San Pawlo","name:left:yo":"Sao Paulo","name:left:yi":"\u05e1\u05d0\u05d5 \u05e4\u05d0\u05d5\u05dc\u05d0","id:left":-298204,"name:left:es":"San Pablo","name:left:os":"\u0421\u0430\u043d-\u041f\u0430\u0443\u043b\u0443","name:right:ka":"\u10de\u10d0\u10e0\u10d0\u10dc\u10d0","name:left:io":"Sao Paulo","name:left:ar":"\u0633\u0627\u0648 \u0628\u0627\u0648\u0644\u0648","name:left:mk":"\u0421\u0430\u043e \u041f\u0430\u043e\u043b\u043e","name:left:tr":"\u0421\u0430\u043d \u041f\u0430\u0443\u043b\u0443","name:left:tt":"\u0421\u0430\u043d-\u041f\u0430\u0443\u043b\u0443","name:left:mn":"\u0421\u0430\u043d-\u041f\u0430\u0443\u043b\u0443","name:left:ay":"San Pauluw","name:left:ml":"\u0d38\u0d3e\u0d35\u0d4b \u0d2a\u0d4b\u0d33\u0d4b","name:left:th":"\u0e40\u0e0b\u0e32\u0e40\u0e1b\u0e32\u0e25\u0e39","name:left:mr":"\u0938\u093e\u0913 \u092a\u093e\u0909\u0932\u094b","name:left:tk":"San-Paulu","name:right:th":"\u0e1b\u0e32\u0e23\u0e32\u0e19\u0e32","name:right:ko":"\ud30c\ub77c\ub098","short_name:right":"PR","name:left:ta":"\u0b9a\u0bbe\u0bb5\u0bcb \u0baa\u0bbe\u0bb5\u0bc1\u0bb2\u0bcb","name:left:am":"\u1233\u12cd \u1353\u12cd\u1209","name:left:it":"San Paolo","name:right:pl":"Parana","osm_relation":true,"name:left:tg":"\u0421\u0430\u043d-\u041f\u0430\u0443\u043b\u0443","sort_rank":256,"kind_detail":"4","name:left:pa":"\u0a38\u0a3e\u0a13 \u0a2a\u0a3e\u0a13\u0a32\u0a4b","name:left:dv":"\u0790\u07a6\u0787\u07ae \u0795\u07a6\u0787\u07aa\u078d\u07af","name:left:ab":"\u0421\u0430\u043d-\u041f\u0430\u0443\u043b\u0443"},"arcs":[1]},{"type":"LineString","properties":{"name:left:la":"Sanctus Paulus","name:right:la":"Parana","name:right:yi":"\u05e4\u05d0\u05e8\u05d0\u05e0\u05d0","name:right:hy":"\u054a\u0561\u0580\u0561\u0576\u0561","name:right:uk":"\u041f\u0430\u0440\u0430\u043d\u0430","name:left:he":"\u05e1\u05d0\u05d5 \u05e4\u05d0\u05d5\u05dc\u05d5","name:left:sr":"\u0421\u0430\u043e \u041f\u0430\u0443\u043b\u043e","name:right:lt":"Parana","name:right:hi":"\u092a\u093e\u0930\u093e\u0928\u093e","min_zoom":8.0,"name:left:lt":"San Paulas","name:left:sh":"Sao Paulo","name:left:lv":"Sanpaulu","name:right:uz":"Parana","name:left:sa":"\u0938\u093e\u0913 \u092a\u093e\u0913\u0932\u094b","name:right:he":"\u05e4\u05e8\u05e0\u05d4","name:left:hi":"\u0938\u093e\u0913 \u092a\u093e\u0909\u0932\u094b","short_name:left":"SP","name:left:it":"San Paolo","name:left:ce":"\u0421\u0430\u043d-\u041f\u0430\u0443\u043b\u0443","name:left:bn":"\u09b8\u09be\u0981\u0989 \u09aa\u09be\u0989\u09b2\u09c1","name:left:gl":"San Paulo","source":"openstreetmap.org","name:right:ar":"\u0628\u0627\u0631\u0627\u0646\u0627","name:left:cv":"\u0421\u0430\u043d-\u041f\u0430\u0443\u043b\u0443","name:left":"S\u00e3o Paulo","name:right:mk":"\u041f\u0430\u0440\u0430\u043d\u0430","name:right:sr":"\u041f\u0430\u0440\u0430\u043d\u0430","name:left:ka":"\u10e1\u10d0\u10dc-\u10de\u10d0\u10e3\u10da\u10e3","name:left:ko":"\uc0c1\ud30c\uc6b8\ub8e8","name:left:kk":"\u0421\u0430\u043d-\u041f\u0430\u0443\u043b\u0443","name:right:ru":"\u041f\u0430\u0440\u0430\u043d\u0430","name:left:kv":"\u0421\u0430\u043d-\u041f\u0430\u0443\u043b\u0443","name:left:ru":"\u0421\u0430\u043d-\u041f\u0430\u0443\u043b\u0443","name:right:mr":"\u092a\u093e\u0930\u093e\u0928\u093e","name:right:eo":"Paranao","name:right:el":"\u03a0\u03b1\u03c1\u03b1\u03bd\u03ac","name:left:am":"\u1233\u12cd \u1353\u12cd\u1209","name:left:wa":"Sawo P\u00e5lo","kind":"region","name":"S\u00e3o Paulo - Paran\u00e1","name:left:fa":"\u0633\u0627\u0626\u0648\u067e\u0627\u0626\u0648\u0644\u0648","name:right:lv":"Parana","osm_relation":true,"name:right:be":"\u041f\u0430\u0440\u0430\u043d\u0430","name:left:zh":"\u5723\u4fdd\u7f57","name:right:bg":"\u041f\u0430\u0440\u0430\u043d\u0430","name:right:zh":"\u5df4\u62c9\u90a3","name:left:hy":"\u054d\u0561\u0576 \u054a\u0561\u0578\u0582\u056c\u0578","name:left:uz":"San-Paulu","name:right:ja":"\u30d1\u30e9\u30ca","name:left:ur":"\u0633\u0627\u0624 \u067e\u0627\u0644\u0648","name:left:ja":"\u30b5\u30f3\u30d1\u30a6\u30ed","id:right":-297640,"name:left:uk":"\u0421\u0430\u043d-\u041f\u0430\u0443\u043b\u0443","name:left:ba":"\u0421\u0430\u043d-\u041f\u0430\u0443\u043b\u0443","name:left:be":"\u0421\u0430\u043d-\u041f\u0430\u045e\u043b\u0443","name:left:bg":"\u0421\u0430\u043e \u041f\u0430\u0443\u043b\u043e","name:right:fa":"\u067e\u0627\u0631\u0627\u0646\u0627","name:left:ne":"\u0938\u093e\u0913 \u092a\u093e\u0909\u0932\u094b","name:left:ug":"San Pawlo","id":-298204,"name:right":"Paran\u00e1","name:left:eo":"San-Pa\u016dlo","name:left:el":"\u03a3\u03ac\u03bf \u03a0\u03ac\u03bf\u03bb\u03bf","name:right:ca":"Paran\u00e0","kind_detail":"4","name:left:yo":"Sao Paulo","name:left:yi":"\u05e1\u05d0\u05d5 \u05e4\u05d0\u05d5\u05dc\u05d0","id:left":-298204,"name:left:es":"San Pablo","name:left:os":"\u0421\u0430\u043d-\u041f\u0430\u0443\u043b\u0443","name:right:ka":"\u10de\u10d0\u10e0\u10d0\u10dc\u10d0","name:left:io":"Sao Paulo","name:left:ar":"\u0633\u0627\u0648 \u0628\u0627\u0648\u0644\u0648","name:left:mk":"\u0421\u0430\u043e \u041f\u0430\u043e\u043b\u043e","name:left:tr":"\u0421\u0430\u043d \u041f\u0430\u0443\u043b\u0443","name:left:tt":"\u0421\u0430\u043d-\u041f\u0430\u0443\u043b\u0443","name:left:mn":"\u0421\u0430\u043d-\u041f\u0430\u0443\u043b\u0443","name:left:ay":"San Pauluw","name:left:ml":"\u0d38\u0d3e\u0d35\u0d4b \u0d2a\u0d4b\u0d33\u0d4b","name:left:th":"\u0e40\u0e0b\u0e32\u0e40\u0e1b\u0e32\u0e25\u0e39","name:left:mr":"\u0938\u093e\u0913 \u092a\u093e\u0909\u0932\u094b","name:left:tk":"San-Paulu","name:right:th":"\u0e1b\u0e32\u0e23\u0e32\u0e19\u0e32","name:right:ko":"\ud30c\ub77c\ub098","short_name:right":"PR","name:left:ta":"\u0b9a\u0bbe\u0bb5\u0bcb \u0baa\u0bbe\u0bb5\u0bc1\u0bb2\u0bcb","name:left:az":"San Paulo","name:right:tg":"\u041f\u0430\u0440\u0430\u043d\u0430","name:right:pl":"Parana","name:right:os":"\u041f\u0430\u0440\u0430\u043d\u0430","name:left:tg":"\u0421\u0430\u043d-\u041f\u0430\u0443\u043b\u0443","sort_rank":256,"maritime_boundary":true,"name:left:pa":"\u0a38\u0a3e\u0a13 \u0a2a\u0a3e\u0a13\u0a32\u0a4b","name:left:dv":"\u0790\u07a6\u0787\u07ae \u0795\u07a6\u0787\u07aa\u078d\u07af","name:left:ab":"\u0421\u0430\u043d-\u041f\u0430\u0443\u043b\u0443"},"arcs":[2]},{"type":"LineString","properties":{"name:ka":"\u10e1\u10d0\u10dc-\u10de\u10d0\u10e3\u10da\u10e3","name:ko":"\uc0c1\ud30c\uc6b8\ub8e8","name:cv":"\u0421\u0430\u043d-\u041f\u0430\u0443\u043b\u0443","name:kk":"\u0421\u0430\u043d-\u041f\u0430\u0443\u043b\u0443","name:tt":"\u0421\u0430\u043d-\u041f\u0430\u0443\u043b\u0443","name:kv":"\u0421\u0430\u043d-\u041f\u0430\u0443\u043b\u0443","name:th":"\u0e40\u0e0b\u0e32\u0e40\u0e1b\u0e32\u0e25\u0e39","name:pa":"\u0a38\u0a3e\u0a13 \u0a2a\u0a3e\u0a13\u0a32\u0a4b","name:os":"\u0421\u0430\u043d-\u041f\u0430\u0443\u043b\u0443","name:ce":"\u0421\u0430\u043d-\u041f\u0430\u0443\u043b\u0443","name:ta":"\u0b9a\u0bbe\u0bb5\u0bcb \u0baa\u0bbe\u0bb5\u0bc1\u0bb2\u0bcb","name:tg":"\u0421\u0430\u043d-\u041f\u0430\u0443\u043b\u0443","source":"openstreetmap.org","sort_rank":256,"name:sr":"\u0421\u0430\u043e \u041f\u0430\u0443\u043b\u043e","name:tr":"\u0421\u0430\u043d \u041f\u0430\u0443\u043b\u0443","name:dv":"\u0790\u07a6\u0787\u07ae \u0795\u07a6\u0787\u07aa\u078d\u07af","name:lv":"Sanpaulu","name:lt":"San Paulas","name:uz":"San-Paulu","name:he":"\u05e1\u05d0\u05d5 \u05e4\u05d0\u05d5\u05dc\u05d5","name:eo":"San-Pa\u016dlo","name:ur":"\u0633\u0627\u0624 \u067e\u0627\u0644\u0648","name:la":"Sanctus Paulus","name:uk":"\u0421\u0430\u043d-\u041f\u0430\u0443\u043b\u0443","name:hy":"\u054d\u0561\u0576 \u054a\u0561\u0578\u0582\u056c\u0578","name:ug":"San Pawlo","name:el":"\u03a3\u03ac\u03bf \u03a0\u03ac\u03bf\u03bb\u03bf","kind":"region","name":"S\u00e3o Paulo","name:tk":"San-Paulu","min_zoom":8.0,"name:yi":"\u05e1\u05d0\u05d5 \u05e4\u05d0\u05d5\u05dc\u05d0","name:yo":"Sao Paulo","name:ay":"San Pauluw","name:az":"San Paulo","name:mr":"\u0938\u093e\u0913 \u092a\u093e\u0909\u0932\u094b","name:ar":"\u0633\u0627\u0648 \u0628\u0627\u0648\u0644\u0648","name:io":"Sao Paulo","name:am":"\u1233\u12cd \u1353\u12cd\u1209","name:it":"San Paolo","name:ml":"\u0d38\u0d3e\u0d35\u0d4b \u0d2a\u0d4b\u0d33\u0d4b","name:ru":"\u0421\u0430\u043d-\u041f\u0430\u0443\u043b\u0443","name:ab":"\u0421\u0430\u043d-\u041f\u0430\u0443\u043b\u0443","id":-298204,"name:mk":"\u0421\u0430\u043e \u041f\u0430\u043e\u043b\u043e","name:fa":"\u0633\u0627\u0626\u0648\u067e\u0627\u0626\u0648\u0644\u0648","name:mn":"\u0421\u0430\u043d-\u041f\u0430\u0443\u043b\u0443","short_name":"SP","kind_detail":"4","name:hi":"\u0938\u093e\u0913 \u092a\u093e\u0909\u0932\u094b","name:zh":"\u5723\u4fdd\u7f57","name:ja":"\u30b5\u30f3\u30d1\u30a6\u30ed","name:sh":"Sao Paulo","name:ne":"\u0938\u093e\u0913 \u092a\u093e\u0909\u0932\u094b","name:sa":"\u0938\u093e\u0913 \u092a\u093e\u0913\u0932\u094b","name:wa":"Sawo P\u00e5lo","name:be":"\u0421\u0430\u043d-\u041f\u0430\u045e\u043b\u0443","name:bg":"\u0421\u0430\u043e \u041f\u0430\u0443\u043b\u043e","name:ba":"\u0421\u0430\u043d-\u041f\u0430\u0443\u043b\u0443","osm_relation":true,"name:bn":"\u09b8\u09be\u0981\u0989 \u09aa\u09be\u0989\u09b2\u09c1","name:gl":"San Paulo","maritime_boundary":true,"name:es":"San Pablo"},"arcs":[3]},{"type":"LineString","properties":{"name:ka":"\u10de\u10d0\u10e0\u10d0\u10dc\u10d0","name:mr":"\u092a\u093e\u0930\u093e\u0928\u093e","name:ko":"\ud30c\ub77c\ub098","name:ar":"\u0628\u0627\u0631\u0627\u0646\u0627","name:th":"\u0e1b\u0e32\u0e23\u0e32\u0e19\u0e32","name:os":"\u041f\u0430\u0440\u0430\u043d\u0430","name:ru":"\u041f\u0430\u0440\u0430\u043d\u0430","name:pl":"Parana","name:tg":"\u041f\u0430\u0440\u0430\u043d\u0430","name:ca":"Paran\u00e0","name:fa":"\u067e\u0627\u0631\u0627\u0646\u0627","short_name":"PR","sort_rank":256,"kind_detail":"4","name:hi":"\u092a\u093e\u0930\u093e\u0928\u093e","id":-297640,"source":"openstreetmap.org","name:mk":"\u041f\u0430\u0440\u0430\u043d\u0430","name:zh":"\u5df4\u62c9\u90a3","name:lv":"Parana","name:ja":"\u30d1\u30e9\u30ca","name:lt":"Parana","name:uz":"Parana","name:he":"\u05e4\u05e8\u05e0\u05d4","name:eo":"Paranao","name:la":"Parana","name:uk":"\u041f\u0430\u0440\u0430\u043d\u0430","name:hy":"\u054a\u0561\u0580\u0561\u0576\u0561","name:be":"\u041f\u0430\u0440\u0430\u043d\u0430","name:bg":"\u041f\u0430\u0440\u0430\u043d\u0430","name:sr":"\u041f\u0430\u0440\u0430\u043d\u0430","osm_relation":true,"name:el":"\u03a0\u03b1\u03c1\u03b1\u03bd\u03ac","kind":"region","name":"Paran\u00e1","min_zoom":8.0,"maritime_boundary":true,"name:yi":"\u05e4\u05d0\u05e8\u05d0\u05e0\u05d0"},"arcs":[4]}]},"roads":{"type":"GeometryCollection","geometries":[{"type":"MultiLineString","properties":{"source":"openstreetmap.org","kind":"major_road","sort_rank":380,"kind_detail":"primary","ref":"SP-222","min_zoom":8.0},"arcs":[[14],[15]]},{"type":"MultiLineString","properties":{"kind":"major_road","network":"BR","sort_rank":380,"kind_detail":"primary","source":"openstreetmap.org","min_zoom":8.0,"shield_text":"478","ref":"SP-226;SP-448"},"arcs":[[16],[17]]},{"type":"MultiLineString","properties":{"kind":"highway","network":"BR","sort_rank":383,"landuse_kind":"national_park","source":"openstreetmap.org","min_zoom":8.0,"all_networks":["BR"],"kind_detail":"motorway","shield_text":"116","ref":"SP-230;BR-116","all_shield_texts":["116"]},"arcs":[[18],[19],[20],[21],[22],[23],[24],[25],[26],[27],[28],[29],[30],[31]]},{"type":"LineString","properties":{"source":"openstreetmap.org","kind":"ferry","name":"Travessia do Furado (Mangue)","sort_rank":355,"landuse_kind":"protected_area","min_zoom":8.0,"id":260274693},"arcs":[32]},{"type":"LineString","properties":{"source":"openstreetmap.org","kind":"major_road","sort_rank":380,"kind_detail":"primary","ref":"PR-408","min_zoom":8.0},"arcs":[33]},{"type":"MultiLineString","properties":{"source":"openstreetmap.org","kind":"major_road","sort_rank":380,"kind_detail":"primary","ref":"PR-411","min_zoom":8.0},"arcs":[[34],[35],[36],[37],[38],[39],[40],[41]]},{"type":"LineString","properties":{"kind":"major_road","network":"BR","sort_rank":381,"landuse_kind":"urban_area","source":"openstreetmap.org","min_zoom":8.0,"kind_detail":"trunk","shield_text":"277","ref":"BR-277"},"arcs":[42]},{"type":"MultiLineString","properties":{"source":"openstreetmap.org","kind":"major_road","sort_rank":381,"kind_detail":"trunk","ref":"BR-116","min_zoom":8.0},"arcs":[[43],[44],[45],[46],[47],[48]]},{"type":"MultiLineString","properties":{"kind":"major_road","network":"BR","sort_rank":381,"landuse_kind":"urban_area","source":"openstreetmap.org","min_zoom":8.0,"kind_detail":"trunk","shield_text":"476","ref":"BR-476"},"arcs":[[49],[50]]},{"type":"MultiLineString","properties":{"kind":"highway","network":"BR","sort_rank":383,"kind_detail":"motorway","source":"openstreetmap.org","min_zoom":8.0,"all_networks":["BR"],"landuse_kind":"urban_area","shield_text":"277","all_shield_texts":["277"]},"arcs":[[51],[52]]},{"type":"LineString","properties":{"kind":"major_road","sort_rank":380,"landuse_kind":"national_park","source":"openstreetmap.org","min_zoom":8.0,"kind_detail":"primary","ref":"SP-165","id":31611828},"arcs":[53]},{"type":"MultiLineString","properties":{"sort_rank":380,"kind_detail":"primary","min_zoom":8.0,"kind":"major_road","source":"openstreetmap.org"},"arcs":[[54],[55],[56],[57],[58],[59],[60],[61],[62],[63],[64],[65],[66],[67],[68],[69],[70],[71],[72],[73],[74],[75],[76],[77],[78],[79],[80],[81],[82],[83],[84],[85],[86],[87]]},{"type":"MultiLineString","properties":{"kind":"highway","network":"BR","sort_rank":383,"landuse_kind":"protected_area","source":"openstreetmap.org","min_zoom":8.0,"all_networks":["BR"],"kind_detail":"motorway","shield_text":"116","ref":"BR-116","all_shield_texts":["116"]},"arcs":[[88],[89],[90],[91],[92],[93],[94],[95],[96]]},{"type":"MultiLineString","properties":{"kind":"highway","network":"BR","sort_rank":383,"kind_detail":"motorway","source":"openstreetmap.org","min_zoom":8.0,"all_networks":["BR","BR","BR"],"shield_text":"116","ref":"BR-116;BR-277","all_shield_texts":["116","277","376"]},"arcs":[[97],[98]]},{"type":"MultiLineString","properties":{"kind":"highway","network":"BR","sort_rank":383,"kind_detail":"motorway","source":"openstreetmap.org","min_zoom":8.0,"all_networks":["BR"],"shield_text":"116","ref":"BR-116","all_shield_texts":["116"]},"arcs":[[99],[100],[101],[102],[103],[104],[105],[106],[107],[108],[109],[110],[111],[112],[113],[114],[115],[116],[117],[118],[119],[120],[121],[122],[123],[124]]},{"type":"LineString","properties":{"source":"openstreetmap.org","kind":"ferry","name":"Paranagua - Guaraquecaba","sort_rank":355,"landuse_kind":"protected_area","min_zoom":8.0,"id":97390518},"arcs":[125]},{"type":"MultiLineString","properties":{"source":"openstreetmap.org","kind":"major_road","landuse_kind":"protected_area","sort_rank":380,"kind_detail":"primary","min_zoom":8.0},"arcs":[[126],[127]]},{"type":"MultiLineString","properties":{"kind":"major_road","network":"BR","sort_rank":380,"kind_detail":"primary","source":"openstreetmap.org","min_zoom":8.0,"landuse_kind":"urban_area","shield_text":"476","ref":"BR-476"},"arcs":[[128],[129],[130],[131],[132],[133],[134],[135],[136]]},{"type":"LineString","properties":{"source":"openstreetmap.org","kind":"major_road","sort_rank":380,"kind_detail":"primary","ref":"SP-226;SP-448","min_zoom":8.0,"id":373991556},"arcs":[137]},{"type":"LineString","properties":{"kind":"highway","network":"BR","sort_rank":383,"kind_detail":"motorway","source":"openstreetmap.org","min_zoom":8.0,"all_networks":["BR"],"shield_text":"376","all_shield_texts":["376"]},"arcs":[138]},{"type":"LineString","properties":{"source":"openstreetmap.org","kind":"highway","sort_rank":383,"kind_detail":"motorway","ref":"BR-277","min_zoom":8.0,"id":178210926},"arcs":[139]},{"type":"MultiLineString","properties":{"kind":"highway","network":"BR","sort_rank":383,"landuse_kind":"urban_area","source":"openstreetmap.org","min_zoom":8.0,"all_networks":["BR","BR"],"kind_detail":"motorway","shield_text":"116","ref":"BR-116;BR-277","all_shield_texts":["116","277"]},"arcs":[[140],[141]]},{"type":"MultiLineString","properties":{"kind":"highway","network":"BR","sort_rank":383,"kind_detail":"motorway","source":"openstreetmap.org","min_zoom":8.0,"all_networks":["BR","BR"],"shield_text":"116","ref":"SP-230;BR-116","all_shield_texts":["116","478"]},"arcs":[[142],[143],[144],[145],[146],[147],[148],[149],[150],[151]]},{"type":"LineString","properties":{"kind":"highway","network":"BR","sort_rank":383,"kind_detail":"motorway","source":"openstreetmap.org","min_zoom":8.0,"all_networks":["BR"],"shield_text":"116","ref":"BR-116;BR-277","id":115012824,"all_shield_texts":["116"]},"arcs":[152]},{"type":"MultiLineString","properties":{"kind":"highway","network":"BR","sort_rank":383,"kind_detail":"motorway","source":"openstreetmap.org","min_zoom":8.0,"all_networks":["BR"],"shield_text":"376","ref":"BR-376","all_shield_texts":["376"]},"arcs":[[153],[154],[155],[156],[157],[158],[159],[160]]},{"type":"MultiLineString","properties":{"source":"openstreetmap.org","kind":"major_road","sort_rank":380,"kind_detail":"primary","ref":"PR-412","min_zoom":8.0},"arcs":[[161],[162],[163]]},{"type":"MultiLineString","properties":{"source":"openstreetmap.org","kind":"major_road","sort_rank":380,"kind_detail":"primary","ref":"PR-410","min_zoom":8.0},"arcs":[[164],[165],[166]]},{"type":"MultiLineString","properties":{"source":"openstreetmap.org","kind":"ferry","name":"Canan\u00e9ia - Ariri","sort_rank":355,"landuse_kind":"nature_reserve","min_zoom":8.0},"arcs":[[167],[168],[169],[170]]},{"type":"LineString","properties":{"source":"openstreetmap.org","kind":"ferry","name":"Ilha do Superagui - Paranagu\u00e1","sort_rank":355,"landuse_kind":"protected_area","min_zoom":8.0,"id":97551246},"arcs":[171]},{"type":"MultiLineString","properties":{"kind":"highway","network":"BR","sort_rank":383,"landuse_kind":"protected_area","source":"openstreetmap.org","min_zoom":8.0,"all_networks":["BR"],"kind_detail":"motorway","shield_text":"116","ref":"SP-230;BR-116","all_shield_texts":["116"]},"arcs":[[172],[173]]},{"type":"MultiLineString","properties":{"kind":"highway","network":"BR","sort_rank":383,"landuse_kind":"nature_reserve","source":"openstreetmap.org","min_zoom":8.0,"all_networks":["BR"],"kind_detail":"motorway","shield_text":"116","ref":"SP-230;BR-116","all_shield_texts":["116"]},"arcs":[[174],[175],[176]]},{"type":"LineString","properties":{"kind":"major_road","network":"BR","sort_rank":380,"kind_detail":"primary","source":"openstreetmap.org","min_zoom":8.0,"landuse_kind":"protected_area","shield_text":"478","ref":"SP-226;SP-448"},"arcs":[177]},{"type":"LineString","properties":{"source":"openstreetmap.org","kind":"ferry","name":"Paranagua - Guaraquecaba","sort_rank":355,"min_zoom":8.0,"id":97390518},"arcs":[178]},{"type":"LineString","properties":{"kind":"major_road","network":"BR","sort_rank":381,"kind_detail":"trunk","source":"openstreetmap.org","min_zoom":8.0,"shield_text":"277","ref":"BR-277"},"arcs":[179]},{"type":"LineString","properties":{"source":"openstreetmap.org","kind":"ferry","name":"Pontal do Paran\u00e1 - Nova Brasilia","sort_rank":355,"min_zoom":8.0,"id":169985205},"arcs":[180]},{"type":"MultiLineString","properties":{"source":"openstreetmap.org","kind":"ferry","name":"Paranagua - Nova Brasilia","sort_rank":355,"min_zoom":8.0,"id":343976176},"arcs":[[181],[182]]},{"type":"MultiLineString","properties":{"source":"openstreetmap.org","kind":"ferry","name":"Lancha","sort_rank":355,"landuse_kind":"nature_reserve","min_zoom":8.0},"arcs":[[183],[184],[185],[186]]},{"type":"MultiLineString","properties":{"source":"openstreetmap.org","kind":"ferry","name":"Canan\u00e9ia - Ariri","sort_rank":355,"landuse_kind":"protected_area","min_zoom":8.0},"arcs":[[187],[188],[189],[190],[191],[192],[193],[194]]},{"type":"LineString","properties":{"kind":"highway","network":"BR","sort_rank":383,"kind_detail":"motorway","source":"openstreetmap.org","min_zoom":8.0,"all_networks":["BR","BR"],"shield_text":"116","ref":"BR-116","all_shield_texts":["116","277"]},"arcs":[195]},{"type":"LineString","properties":{"kind":"major_road","network":"BR","sort_rank":380,"kind_detail":"primary","source":"openstreetmap.org","min_zoom":8.0,"landuse_kind":"protected_area","shield_text":"101","ref":"SP-226;SP-448"},"arcs":[196]},{"type":"LineString","properties":{"kind":"major_road","sort_rank":380,"kind_detail":"primary","bus_network":null,"source":"openstreetmap.org","min_zoom":8.0,"bus_shield_text":"022","landuse_kind":"urban_area","id":396890078},"arcs":[197]},{"type":"MultiLineString","properties":{"sort_rank":381,"source":"openstreetmap.org","min_zoom":8.0,"kind":"major_road","kind_detail":"trunk"},"arcs":[[198],[199],[200],[201],[202],[203],[204]]},{"type":"MultiLineString","properties":{"kind":"highway","network":"BR","sort_rank":383,"kind_detail":"motorway","source":"openstreetmap.org","min_zoom":8.0,"all_networks":["BR"],"shield_text":"277","ref":"BR-277","all_shield_texts":["277"]},"arcs":[[205],[206],[207],[208],[209],[210],[211],[212],[213],[214]]},{"type":"LineString","properties":{"source":"openstreetmap.org","kind":"ferry","name":"Ilha das Pe\u00e7as - Paranagua","sort_rank":355,"landuse_kind":"protected_area","min_zoom":8.0,"id":97551193},"arcs":[215]},{"type":"MultiLineString","properties":{"source":"openstreetmap.org","kind":"ferry","name":"Canan\u00e9ia - Ariri","sort_rank":355,"min_zoom":8.0,"id":319861779},"arcs":[[216],[217],[218],[219],[220],[221]]},{"type":"LineString","properties":{"kind":"major_road","network":"BR","sort_rank":380,"kind_detail":"primary","source":"openstreetmap.org","min_zoom":8.0,"shield_text":"373","ref":"BR-476"},"arcs":[222]},{"type":"MultiLineString","properties":{"source":"openstreetmap.org","kind":"major_road","kind_detail":"trunk","sort_rank":381,"landuse_kind":"urban_area","min_zoom":8.0},"arcs":[[223],[224]]},{"type":"MultiLineString","properties":{"source":"openstreetmap.org","kind":"major_road","sort_rank":381,"kind_detail":"trunk","ref":"BR-277","min_zoom":8.0},"arcs":[[225],[226]]},{"type":"LineString","properties":{"kind":"major_road","network":"BR","sort_rank":380,"kind_detail":"primary","source":"openstreetmap.org","min_zoom":8.0,"shield_text":"373","ref":"SP-250"},"arcs":[227]},{"type":"LineString","properties":{"sort_rank":383,"kind_detail":"motorway","min_zoom":8.0,"kind":"highway","source":"openstreetmap.org"},"arcs":[228]},{"type":"LineString","properties":{"source":"openstreetmap.org","kind":"ferry","name":"Ilha das Pe\u00e7as - Paranagua","sort_rank":355,"landuse_kind":"nature_reserve","min_zoom":8.0,"id":97551193},"arcs":[229]},{"type":"MultiLineString","properties":{"source":"openstreetmap.org","kind":"major_road","sort_rank":380,"kind_detail":"primary","ref":"PR-415","min_zoom":8.0},"arcs":[[230],[231],[232],[233],[234]]},{"type":"LineString","properties":{"source":"openstreetmap.org","kind":"ferry","name":"Paranagua - Nova Brasilia","sort_rank":355,"landuse_kind":"nature_reserve","min_zoom":8.0,"id":343976176},"arcs":[235]},{"type":"LineString","properties":{"bus_network":null,"sort_rank":380,"kind_detail":"primary","kind":"major_road","source":"openstreetmap.org","min_zoom":8.0,"bus_shield_text":"020","landuse_kind":"urban_area"},"arcs":[236]},{"type":"LineString","properties":{"source":"openstreetmap.org","kind":"ferry","name":"Nova Brasilia - Encantadas","sort_rank":355,"min_zoom":8.0,"id":361174735},"arcs":[237]},{"type":"MultiLineString","properties":{"source":"openstreetmap.org","kind":"ferry","name":"Ilha das Pe\u00e7as - Paranagua","sort_rank":355,"min_zoom":8.0,"id":97551193},"arcs":[[238],[239]]},{"type":"MultiLineString","properties":{"kind":"major_road","network":"BR-SP","sort_rank":380,"kind_detail":"primary","source":"openstreetmap.org","min_zoom":8.0,"shield_text":"193","ref":"SP-193"},"arcs":[[240],[241],[242],[243]]},{"type":"LineString","properties":{"source":"openstreetmap.org","kind":"ferry","name":"Ilha do Superagui - Paranagu\u00e1","sort_rank":355,"min_zoom":8.0,"id":97551246},"arcs":[244]},{"type":"MultiLineString","properties":{"source":"openstreetmap.org","kind":"major_road","sort_rank":380,"kind_detail":"primary","ref":"PR-407","min_zoom":8.0},"arcs":[[245],[246],[247],[248]]},{"type":"MultiLineString","properties":{"source":"openstreetmap.org","kind":"ferry","name":"Lancha","sort_rank":355,"landuse_kind":"protected_area","min_zoom":8.0,"id":97551135},"arcs":[[249],[250]]},{"type":"MultiLineString","properties":{"source":"openstreetmap.org","kind":"major_road","kind_detail":"trunk","sort_rank":381,"landuse_kind":"urban_area","ref":"BR-277","min_zoom":8.0},"arcs":[[251],[252]]},{"type":"MultiLineString","properties":{"kind":"highway","network":"BR","sort_rank":383,"kind_detail":"motorway","source":"openstreetmap.org","min_zoom":8.0,"all_networks":["BR","BR"],"shield_text":"116","ref":"BR-116;BR-277","all_shield_texts":["116","277"]},"arcs":[[253],[254],[255],[256]]},{"type":"LineString","properties":{"source":"openstreetmap.org","kind":"ferry","name":"Pontal do Paran\u00e1 - Encantadas","sort_rank":355,"min_zoom":8.0,"id":128416239},"arcs":[257]},{"type":"LineString","properties":{"source":"openstreetmap.org","kind":"major_road","sort_rank":380,"kind_detail":"primary","ref":"PR-417","min_zoom":8.0},"arcs":[258]},{"type":"LineString","properties":{"kind":"major_road","network":"BR","sort_rank":380,"kind_detail":"primary","source":"openstreetmap.org","min_zoom":8.0,"shield_text":"476","ref":"BR-476"},"arcs":[259]},{"type":"MultiLineString","properties":{"source":"openstreetmap.org","kind":"major_road","landuse_kind":"urban_area","sort_rank":380,"kind_detail":"primary","min_zoom":8.0},"arcs":[[260],[261],[262],[263],[264],[265],[266],[267],[268],[269],[270],[271],[272],[273],[274],[275],[276],[277],[278],[279],[280],[281],[282],[283],[284],[285],[286],[287],[288],[289],[290],[291],[292],[293]]},{"type":"MultiLineString","properties":{"sort_rank":355,"source":"openstreetmap.org","min_zoom":8.0,"name":"Lancha","kind":"ferry"},"arcs":[[294],[295],[296],[297]]},{"type":"MultiLineString","properties":{"kind":"highway","network":"BR","sort_rank":383,"landuse_kind":"urban_area","source":"openstreetmap.org","min_zoom":8.0,"all_networks":["BR"],"kind_detail":"motorway","shield_text":"277","ref":"BR-277","all_shield_texts":["277"]},"arcs":[[298],[299],[300],[301],[302]]},{"type":"MultiLineString","properties":{"source":"openstreetmap.org","kind":"major_road","landuse_kind":"protected_area","sort_rank":380,"kind_detail":"primary","ref":"SP-226;SP-448","min_zoom":8.0},"arcs":[[303],[304]]},{"type":"MultiLineString","properties":{"source":"openstreetmap.org","kind":"major_road","kind_detail":"trunk","sort_rank":381,"landuse_kind":"urban_area","ref":"BR-116","min_zoom":8.0},"arcs":[[305],[306]]},{"type":"LineString","properties":{"bus_network":null,"sort_rank":380,"kind_detail":"primary","kind":"major_road","source":"openstreetmap.org","min_zoom":8.0,"bus_shield_text":"023","landuse_kind":"urban_area"},"arcs":[307]},{"type":"MultiLineString","properties":{"source":"openstreetmap.org","kind":"major_road","landuse_kind":"urban_area","sort_rank":380,"kind_detail":"primary","ref":"PR-415","min_zoom":8.0},"arcs":[[308],[309],[310]]},{"type":"MultiLineString","properties":{"source":"openstreetmap.org","kind":"major_road","sort_rank":380,"kind_detail":"primary","ref":"PR-508","min_zoom":8.0},"arcs":[[311],[312],[313]]},{"type":"MultiLineString","properties":{"kind":"major_road","sort_rank":380,"landuse_kind":"nature_reserve","source":"openstreetmap.org","min_zoom":8.0,"kind_detail":"primary","ref":"PR-508","id":489347836},"arcs":[[314],[315]]},{"type":"MultiLineString","properties":{"kind":"highway","network":"BR","sort_rank":383,"kind_detail":"motorway","source":"openstreetmap.org","min_zoom":8.0,"all_networks":["BR"],"shield_text":"116","ref":"SP-230;BR-116","all_shield_texts":["116"]},"arcs":[[316],[317],[318],[319],[320],[321],[322],[323],[324],[325],[326],[327],[328],[329],[330],[331],[332],[333],[334],[335],[336],[337],[338],[339],[340],[341]]},{"type":"MultiLineString","properties":{"source":"openstreetmap.org","kind":"major_road","sort_rank":380,"kind_detail":"primary","ref":"SP-165","min_zoom":8.0},"arcs":[[342],[343],[344]]},{"type":"LineString","properties":{"source":"openstreetmap.org","kind":"major_road","network":"BR","sort_rank":380,"kind_detail":"primary","min_zoom":8.0,"shield_text":"478"},"arcs":[345]},{"type":"MultiLineString","properties":{"cycleway_right":"lane","sort_rank":380,"kind_detail":"primary","is_bicycle_related":true,"kind":"major_road","source":"openstreetmap.org","min_zoom":8.0,"landuse_kind":"urban_area"},"arcs":[[346],[347]]}]},"earth":{"type":"GeometryCollection","geometries":[{"type":"MultiPolygon","properties":{"sort_rank":10,"source":"naturalearthdata.com","min_zoom":0.0,"kind":"earth","area":78886566456},"arcs":[[[348]],[[349]],[[350]]]}]},"landuse":{"type":"GeometryCollection","geometries":[{"type":"Polygon","properties":{"kind":"nature_reserve","protect_class":"2","area":16828400,"sort_rank":23,"operator":"Instituto Chico Mendes de Conserva\u00e7\u00e3o da Biodiversidade","source":"openstreetmap.org","min_zoom":8.0,"tier":2,"id":255739479},"arcs":[[351]]},{"type":"Polygon","properties":{"kind":"national_park","protect_class":"2","area":1370477834,"sort_rank":18,"source":"openstreetmap.org","min_zoom":3.0,"tier":1,"osm_relation":true},"arcs":[[352],[353],[354],[355],[356],[357],[358],[359],[360],[361]]},{"type":"Polygon","properties":{"kind":"nature_reserve","protect_class":"6","area":15202600,"sort_rank":23,"operator":"Funda\u00e7\u00e3o Florestal","source":"openstreetmap.org","min_zoom":8.0,"tier":2,"id":331549558},"arcs":[[362]]},{"type":"MultiPolygon","properties":{"kind":"nature_reserve","tier":2,"protect_class":"6","area":128791965,"sort_rank":23,"source":"openstreetmap.org","min_zoom":8.0,"operator":"Funda\u00e7\u00e3o Florestal","osm_relation":true},"arcs":[[[363]],[[364]]]},{"type":"Polygon","properties":{"kind":"protected_area","area":36229200,"sort_rank":17,"source":"openstreetmap.org","min_zoom":8.0,"tier":2,"id":-5725395,"osm_relation":true},"arcs":[[365]]},{"type":"Polygon","properties":{"kind":"nature_reserve","protect_class":"1","area":132698000,"sort_rank":23,"operator":"Instituto Chico Mendes de Conserva\u00e7\u00e3o da Biodiversidade","source":"openstreetmap.org","min_zoom":7.0,"tier":2,"id":-3425870,"osm_relation":true},"arcs":[[366]]},{"type":"Polygon","properties":{"kind":"park","area":16099000,"sort_rank":24,"source":"openstreetmap.org","min_zoom":8.0,"tier":2,"id":-5712098,"osm_relation":true},"arcs":[[367]]},{"type":"Polygon","properties":{"kind":"protected_area","protect_class":"5","area":1158310016,"sort_rank":17,"operator":"Instituto Chico Mendes de Conserva\u00e7\u00e3o da Biodiversidade","source":"openstreetmap.org","min_zoom":4.0,"tier":2,"id":-3424553,"osm_relation":true},"arcs":[[368],[369],[370]]},{"type":"MultiPolygon","properties":{"kind":"nature_reserve","protect_class":"6","area":60940606,"sort_rank":23,"operator":"Instituto Chico Mendes de Conserva\u00e7\u00e3o da Biodiversidade","source":"openstreetmap.org","min_zoom":8.0,"tier":2},"arcs":[[[371]]]},{"type":"Polygon","properties":{"kind":"nature_reserve","protect_class":"2","area":128034000,"sort_rank":23,"operator":"Instituto Chico Mendes de Conserva\u00e7\u00e3o da Biodiversidade","source":"openstreetmap.org","min_zoom":7.0,"tier":2,"id":-3424549,"osm_relation":true},"arcs":[[372]]},{"type":"MultiPolygon","properties":{"source":"naturalearthdata.com","kind":"urban_area","name":"","area":1789372103,"sort_rank":11,"min_zoom":4.0},"arcs":[[[373]],[[374]],[[375]],[[376]]]},{"type":"Polygon","properties":{"kind":"protected_area","area":3469839872,"sort_rank":17,"source":"openstreetmap.org","min_zoom":4.0,"tier":2,"id":-5725311,"osm_relation":true},"arcs":[[377]]},{"type":"Polygon","properties":{"kind":"nature_reserve","protect_class":"1","area":287415008,"sort_rank":23,"operator":"Instituto Chico Mendes de Conserva\u00e7\u00e3o da Biodiversidade","source":"openstreetmap.org","min_zoom":6.0,"tier":2,"id":-3425870,"osm_relation":true},"arcs":[[378]]},{"type":"Polygon","properties":{"kind":"park","protect_class":"6","area":10788400,"sort_rank":24,"operator":"Funda\u00e7\u00e3o Florestal","source":"openstreetmap.org","min_zoom":8.0,"tier":2,"id":-5712099,"osm_relation":true},"arcs":[[379]]},{"type":"MultiPolygon","properties":{"kind":"nature_reserve","protect_class":"24","area":61519504,"sort_rank":23,"operator":"Funda\u00e7\u00e3o Nacional do \u00cdndio","source":"openstreetmap.org","min_zoom":8.0,"tier":2,"osm_relation":true},"arcs":[[[380]],[[381]]]},{"type":"MultiPolygon","properties":{"kind":"nature_reserve","protect_class":"2","area":1020330810,"sort_rank":23,"operator":"Instituto Chico Mendes de Conserva\u00e7\u00e3o da Biodiversidade","source":"openstreetmap.org","min_zoom":6.0,"tier":2,"osm_relation":true},"arcs":[[[382]],[[383]]]},{"type":"Polygon","properties":{"kind":"nature_reserve","protect_class":"2","area":165552992,"sort_rank":23,"operator":"Funda\u00e7\u00e3o para Conserva\u00e7\u00e3o e a Produ\u00e7\u00e3o Florestal do Estado de S\u00e3o Paulo\/SP.","source":"openstreetmap.org","min_zoom":6.0,"tier":2,"id":-5368928,"osm_relation":true},"arcs":[[384]]},{"type":"MultiPolygon","properties":{"kind":"national_park","protect_class":"2","area":435124992,"sort_rank":18,"operator":"Funda\u00e7\u00e3o para Conserva\u00e7\u00e3o e a Produ\u00e7\u00e3o Florestal do Estado de S\u00e3o Paulo","source":"openstreetmap.org","min_zoom":3.0,"tier":1,"id":-5706027,"osm_relation":true},"arcs":[[[385]],[[386]]]}]}},"type":"Topology","transform":{"translate":[-49.21875,-25.7998911821],"scale":[0.0003433228,0.0003107315]},"arcs":[[[3409,0],[432,889],[135,172],[120,95]],[[0,3534],[22,-4],[17,56],[70,45],[132,-11],[73,-42],[7,40],[67,-14],[6,26],[61,-44],[69,79],[17,65],[-25,-1],[27,25],[44,-29],[47,27],[-23,-84],[52,16],[9,-35],[72,-24],[14,-39],[47,41],[78,-32],[28,39],[120,10],[34,-26],[18,13],[-35,44],[51,-24],[39,34],[49,-68],[80,-27],[13,-39],[29,3],[32,51],[22,-51],[45,35],[94,15],[35,-46],[3,84],[42,-18],[-5,-83],[45,-25],[8,48],[50,8],[-11,25],[21,14],[30,-9],[33,39],[36,0],[43,-39],[23,30],[38,-101],[109,-89],[4,-30],[90,6],[-23,-84],[-31,-16],[5,-35],[-115,-82],[-35,-126],[1,-65],[53,-8],[-4,-38],[17,2],[-42,-19],[-3,-56],[-37,20],[21,-72],[-16,-44],[23,-27],[-21,-16],[19,-20],[-27,-10],[15,-60],[-36,-46],[-34,-2],[-25,-62],[4,-39],[31,-1],[-12,-26],[35,-24],[-7,-51],[41,1],[35,-40],[2,-70],[80,-48],[21,53],[35,2],[1,45],[74,51],[-9,37],[35,89],[185,107],[96,-54],[82,-97],[-2,-31],[79,-2],[-1,-56],[74,62],[3,37],[30,-55],[20,17],[30,121],[43,5],[-12,32],[26,29],[63,-75],[-9,-19],[26,-7],[-23,-35],[64,-23],[-20,-157],[35,-74],[65,-116],[73,-33],[-104,-165],[87,-43],[32,-61],[106,-72],[26,24],[138,17],[3,64],[33,-27],[20,27],[36,-9],[5,-39],[-219,-232],[79,-83]],[[3336,1508],[607,-489]],[[3943,1019],[153,137]],[[3409,0],[432,889],[102,130]],[[146,1162],[80,15],[51,-34],[104,-15],[79,32],[105,-106],[66,-8],[88,128],[-5,61],[57,-49],[65,34],[-12,-73],[43,26],[50,-22],[-39,27],[33,16],[25,-49],[16,11],[33,-115],[127,-1],[25,-57],[39,-15],[484,-96],[67,-99],[34,-13],[193,61]],[[1817,0],[9,3],[39,6],[-4,-9],[-44,0]],[[2040,0],[4,9],[-2,87],[247,475],[128,87],[81,79],[-75,87],[-57,-36],[-51,2],[-48,14],[-44,-2],[-26,-30],[-20,-42],[-32,-22],[-61,26],[18,11],[20,14],[41,43],[-20,-24],[11,10],[29,36],[-49,26],[-55,40],[-56,27],[-100,-40],[-57,4],[-51,-5],[-32,-52],[-26,45],[-37,17],[-41,9],[-35,17],[15,31],[18,14],[21,-2],[26,-21],[8,12],[5,9],[7,22],[-92,11],[-93,-19],[-80,8],[-54,90],[70,-19],[49,3],[15,34],[-34,70],[-11,9],[-32,17],[-17,16],[-9,17],[-12,51],[-50,127],[-8,49],[35,-24],[115,-148],[22,-23],[141,-103],[34,-16],[142,-40],[36,8],[14,41],[28,-17],[32,-8],[30,5],[29,20],[56,-70],[28,-17],[45,-6],[36,16],[12,36],[6,44],[18,38],[29,9],[32,-3],[27,13],[11,58],[-8,19],[-39,48],[-13,32],[-49,-20],[-17,19],[15,37],[51,32],[-32,35],[-50,15],[-99,14],[0,22],[52,0],[94,23],[53,1],[-69,191],[-10,53],[12,-11],[10,-6],[9,-10],[8,-19],[22,0],[0,66],[31,-32],[29,-69],[20,-33],[68,-46],[48,-22],[21,15],[4,11],[14,0],[4,11],[-6,13],[-14,12],[-14,7],[-6,-1],[-19,25],[1,14],[27,7],[6,18],[29,43],[38,44],[37,27],[-1,-49],[-16,-85],[-12,-156],[5,-36],[24,18],[18,0],[-39,-110],[41,2],[34,22],[28,31],[32,59],[8,22],[1,31],[-3,53],[29,-21],[43,-55],[27,-14],[22,8],[38,49],[31,11],[59,5],[71,15],[63,28],[36,40],[38,-34],[-29,-31],[-128,-55],[-59,-37],[-23,-19],[-29,-33],[-8,-15],[0,-14],[-2,-28],[-71,-189],[-9,-55],[25,-65],[48,-37],[47,7],[36,130],[68,116],[15,38],[223,141],[24,49],[4,9],[17,46],[23,42],[141,173],[49,39],[149,41],[87,138],[102,326],[-43,2],[-40,-9],[-36,-20],[-30,-29],[-34,-17],[-38,5],[-68,24],[-59,6],[-76,19],[-56,33],[1,52],[21,-28],[27,-11],[23,12],[10,37],[-2,36],[2,24],[20,13],[128,5],[34,-12],[-3,-32],[-33,-15],[-42,6],[-40,-7],[-24,-52],[144,-18],[78,53],[118,232],[20,26],[19,14],[19,11],[19,15],[73,99],[47,51],[38,30],[0,-47],[-56,-45],[-119,-146],[-21,-19],[-12,-56],[-46,-108],[-1,-68],[34,-14],[32,45],[53,123],[62,99],[44,53],[30,16],[0,-2778],[-2056,0]],[[2806,1454],[-40,0],[-85,-59],[-70,-56],[-47,-78],[-3,-56],[53,-53],[6,-40],[-13,-42],[42,-60],[53,-10],[63,43],[40,32],[-33,63],[-3,62],[33,122],[17,79],[-13,53]],[[2438,975],[-7,-49],[46,-40],[59,-13],[66,-11],[36,-26],[4,-33],[-17,-36],[30,-30],[39,69],[20,33],[-33,-7],[-22,53],[-20,56],[-63,27],[-85,13],[-53,-6]],[[4096,2945],[-38,-30],[-47,-51],[-73,-99],[-19,-15],[-19,-11],[-19,-14],[-20,-26],[-118,-232],[-78,-53],[-144,18],[24,52],[40,7],[42,-6],[33,15],[3,32],[-34,12],[-128,-5],[-20,-13],[-2,-24],[2,-36],[-10,-37],[-23,-12],[-27,11],[-21,28],[-1,-52],[56,-33],[76,-19],[59,-6],[68,-24],[38,-5],[34,17],[30,29],[36,20],[40,9],[43,-2],[-102,-326],[-87,-138],[-149,-41],[-49,-39],[-141,-173],[-23,-42],[-17,-46],[-4,-9],[-24,-49],[-223,-141],[-15,-38],[-68,-116],[-36,-130],[-47,-7],[-48,37],[-25,65],[9,55],[71,189],[2,28],[0,14],[8,15],[29,33],[23,19],[59,37],[128,55],[29,31],[-38,34],[-36,-40],[-63,-28],[-71,-15],[-59,-5],[-31,-11],[-38,-49],[-22,-8],[-27,14],[-43,55],[-29,21],[3,-53],[-1,-31],[-8,-22],[-32,-59],[-28,-31],[-34,-22],[-41,-2],[39,110],[-18,0],[-24,-18],[-5,36],[12,156],[16,85],[1,49],[-37,-27],[-38,-44],[-29,-43],[-6,-18],[-27,-7],[-1,-14],[19,-25],[6,1],[14,-7],[14,-12],[6,-13],[-4,-11],[-14,0],[-4,-11],[-21,-15],[-48,22],[-68,46],[-20,33],[-29,69],[-31,32],[0,-66],[-22,0],[-8,19],[-9,10],[-10,6],[-12,11],[10,-53],[69,-191],[-53,-1],[-94,-23],[-52,0],[0,-22],[99,-14],[50,-15],[32,-35],[-51,-32],[-15,-37],[17,-19],[49,20],[13,-32],[39,-48],[8,-19],[-11,-58],[-27,-13],[-32,3],[-29,-9],[-18,-38],[-6,-44],[-12,-36],[-36,-16],[-45,6],[-28,17],[-56,70],[-29,-20],[-30,-5],[-32,8],[-28,17],[-14,-41],[-36,-8],[-142,40],[-34,16],[-141,103],[-22,23],[-115,148],[-35,24],[8,-49],[50,-127],[12,-51],[9,-17],[17,-16],[32,-17],[11,-9],[34,-70],[-15,-34],[-49,-3],[-70,19],[54,-90],[80,-8],[93,19],[92,-11],[-7,-22],[-5,-9],[-8,-12],[-26,21],[-21,2],[-18,-14],[-15,-31],[35,-17],[41,-9],[37,-17],[26,-45],[32,52],[51,5],[57,-4],[100,40],[56,-27],[55,-40],[49,-26],[-29,-36],[-11,-10],[20,24],[-41,-43],[-20,-14],[-18,-11],[61,-26],[32,22],[20,42],[26,30],[44,2],[48,-14],[51,-2],[57,36],[75,-87],[-81,-79],[-128,-87],[-247,-475],[2,-87],[-4,-9]],[[1861,0],[4,9],[-39,-6],[-9,-3]],[[4096,2898],[-56,-45],[-119,-146],[-21,-19],[-12,-56],[-46,-108],[-1,-68],[34,-14],[32,45],[53,123],[62,99],[44,53],[30,16]],[[2611,1339],[70,56],[85,59],[40,0],[13,-53],[-17,-79],[-33,-122],[3,-62],[33,-63],[-40,-32],[-63,-43],[-53,10],[-42,60],[13,42],[-6,40],[-53,53],[3,56],[47,78]],[[3883,3513],[-60,21],[-135,-26],[-135,45]],[[4096,3415],[-190,53]],[[3790,3712],[78,-168]],[[3904,3467],[-29,-115],[15,-67]],[[2020,2493],[-28,-26]],[[1994,2467],[29,20]],[[2066,2532],[0,1]],[[2242,2687],[93,13],[41,-38],[154,3],[15,16]],[[2299,2745],[-4,-1]],[[2347,2694],[-32,28]],[[2545,2681],[-71,-15],[-122,22]],[[2581,2710],[72,43]],[[2651,2753],[-69,-42]],[[2688,2773],[-15,-7]],[[2674,2763],[16,8]],[[2807,2856],[-103,-74]],[[2705,2778],[42,20],[51,37],[98,118]],[[2894,2954],[-83,-90]],[[2593,1574],[45,-44],[39,4],[9,-33]],[[1134,1022],[97,-130],[17,-80]],[[1043,1324],[-45,-48],[2,-130],[130,-125]],[[1132,1022],[-2,-1]],[[1132,1022],[0,1]],[[1133,1023],[-1,0]],[[1133,1023]],[[1133,1023],[1,0]],[[1133,1023]],[[1133,1023],[1,-1]],[[2027,916],[-1,-1]],[[194,1362],[2,1],[12,6]],[[208,1369],[2,1],[8,1]],[[218,1371],[36,7],[79,13],[42,8],[17,5],[115,56],[9,12]],[[511,1467],[-137,-68],[-128,-21],[-28,-7]],[[218,1371],[-10,-2]],[[208,1369],[-1,0],[-13,-6]],[[0,1242],[31,72]],[[30,1314],[-30,-50]],[[1942,800],[-1,0],[1,-1],[0,1]],[[1988,834],[0,1],[0,-1]],[[1909,3870],[1,3]],[[0,741],[4,9]],[[4,750],[8,15]],[[1,745],[3,5]],[[4,750],[3,5],[5,10]],[[794,1592],[-1,2]],[[794,1592],[0,-1]],[[795,1592],[-1,0]],[[1231,887],[1,1]],[[2160,333],[-1,0]],[[2164,334],[-4,-1]],[[2160,333],[1,-1]],[[2366,3859],[-2,0]],[[2366,3859],[1,0]],[[2367,3859],[-1,0]],[[2368,3859],[0,2]],[[3544,3549],[-25,-21]],[[3743,2576],[36,92]],[[3834,2726],[165,166]],[[3958,4056],[1,2]],[[3959,4058],[-1,1]],[[3958,4058],[1,0]],[[3959,4058],[1,-4]],[[3960,4054],[1,0]],[[3962,4057],[-2,-3]],[[3960,4054]],[[3960,4057]],[[3961,4058]],[[3970,4096],[-9,-29]],[[3962,4057],[9,39]],[[795,1591],[0,1],[-1,0],[0,-1],[1,0]],[[2368,3860],[-1,-1]],[[2367,3859],[1,0]],[[2368,3859],[0,1]],[[3961,4057],[1,0],[0,1],[-1,0],[0,-1]],[[1422,2251],[-5,-2]],[[1422,2241],[12,6]],[[1630,2261],[89,43]],[[1791,2297],[-108,13],[-52,-48]],[[1781,2295],[8,-3],[6,8]],[[1912,2381],[-1,-1]],[[1911,2380],[-4,-6],[-19,-8]],[[1889,2367],[22,13]],[[1911,2380],[1,0]],[[0,750],[96,-9]],[[110,744],[-110,9]],[[264,926],[114,161],[1,3],[-4,37],[-1,2],[0,41],[51,47],[51,95],[42,98],[-7,57],[21,23],[58,79],[203,24],[2,0],[32,38],[88,148],[0,2]],[[915,1781],[-1,22],[0,5]],[[914,1808],[1,48]],[[915,1856],[0,11],[12,18]],[[927,1885],[1,1],[4,3],[9,29],[-1,4],[34,38],[16,42],[21,6],[0,1]],[[1011,2009],[33,81]],[[1044,2090],[9,22],[9,77]],[[1062,2189],[1,9],[3,2]],[[1066,2200],[5,4],[31,15],[239,-9],[23,6],[58,25]],[[1417,2249],[-54,-32],[-137,6],[-55,30],[-94,-22],[-11,-31]],[[1066,2200],[-4,-11]],[[1062,2189],[-10,-26],[1,-25],[-9,-48]],[[1044,2090],[-3,-19],[-2,-16],[-20,-43],[-8,-3]],[[1011,2009],[-2,0],[-13,-3],[-8,-5],[-49,-79],[-8,-32],[-3,-3],[-1,-2]],[[927,1885],[-12,-29]],[[915,1856],[-10,-24],[9,-24]],[[914,1808],[7,-19],[-6,-8]],[[915,1781],[-25,-34],[-48,-87],[-49,-67],[-204,-24],[-78,-102],[7,-57],[-93,-192],[-52,-48],[1,-41],[4,-42],[-113,-157]],[[1631,2262],[-209,-11]],[[1434,2247],[196,14]],[[1719,2304],[62,-9]],[[1888,2366],[-17,-6],[-53,-33],[-27,-30]],[[1795,2300],[94,67]],[[1913,2382],[-1,-1]],[[1912,2380],[1,1]],[[3406,3467],[-3,0]],[[2186,1014],[190,208],[158,259],[52,135]],[[3779,2668],[55,58]],[[3999,2892],[22,33],[-84,31],[-83,81]],[[40,1326],[-8,-10]],[[32,1315],[18,7]],[[42,1329],[-2,-3]],[[50,1323],[-10,3]],[[42,1329],[36,46],[43,72],[29,2]],[[150,1449],[-7,2],[-18,1],[-9,-11],[-39,-67],[-35,-45]],[[150,1449],[7,0]],[[157,1449],[9,8]],[[179,1481],[-13,-24]],[[3685,2782],[7,-157]],[[112,731],[-4,13]],[[263,928],[11,-5]],[[225,874],[-23,-28],[-4,-69]],[[199,777],[4,69],[22,27]],[[3970,4096],[-2,-5]],[[3968,4091],[-33,-106],[-31,-32]],[[3904,3953],[-17,-17],[1,-4]],[[3888,3932],[12,-40]],[[3900,3892],[3,-10],[1,-2],[-4,-42],[-112,-118]],[[3796,3728],[104,110],[5,42],[-1,2],[-4,10]],[[3900,3892],[-14,38],[2,2]],[[3888,3932],[16,21]],[[3904,3953],[10,14],[54,124]],[[3968,4091],[3,5]],[[258,917],[6,9]],[[111,732],[4,-13],[17,-32],[-1,-37],[4,-33],[140,-508],[10,-54]],[[285,55]],[[285,55],[-3,-7]],[[282,48],[-21,-48]],[[253,0],[29,48]],[[282,48],[3,5],[0,2]],[[285,55]],[[285,55],[-9,54],[-7,41],[-133,467],[2,59],[-26,55]],[[2162,331],[2,0]],[[2164,331],[1,2]],[[2164,329],[0,2]],[[794,1591],[4,-3]],[[798,1588],[-3,3]],[[1043,1324],[-110,175],[-135,89]],[[3456,2071],[12,-9]],[[3469,1865],[-7,1]],[[3478,2005],[-3,-8]],[[3492,2255],[1,-13]],[[2828,1103],[0,-30]],[[2920,3180],[-19,-79],[19,-114],[-26,-33]],[[2896,2953],[43,5],[-8,183]],[[2293,2743],[-192,-74]],[[2111,2662],[131,25]],[[2315,2722],[-16,22]],[[3890,3285],[-24,-55]],[[2078,891],[44,76],[64,47]],[[2027,916]],[[2508,750],[61,54],[92,24]],[[2180,883],[-64,35],[-37,-18]],[[2661,828],[-147,22],[-185,-48],[-115,63]],[[3239,1552],[27,42]],[[3299,1655],[-20,-18]],[[3470,1815],[-128,-120]],[[3449,1868],[20,-6]],[[3462,1866],[-10,2]],[[3461,2110],[-5,-39]],[[3468,2062],[19,-13]],[[3479,1835],[-4,12]],[[3475,1997],[85,13]],[[3489,2047],[-11,-42]],[[3778,2503],[10,-101],[-125,-72],[-124,-10],[-47,-65]],[[3493,2242],[7,-60]],[[265,930],[-2,-3]],[[3866,3230],[-37,-40],[33,-129],[-173,-239]],[[21,1189],[2,0]],[[103,757],[4,-12]],[[108,744],[-5,13]],[[3262,3451],[-34,48]],[[3262,3451],[-10,12]],[[3262,3448],[0,-3]],[[3262,3448],[0,3]],[[3263,3445],[-1,3]],[[1898,783],[-161,-30]],[[1737,753],[-5,-1],[-199,82]],[[1533,834],[-89,37],[-77,-5],[-51,-20],[-64,-31],[-77,-44],[0,-34],[-119,-9],[-62,-24]],[[994,704]],[[994,704],[-1,0],[11,-29],[-88,-22],[-281,93],[-372,183]],[[274,923],[361,-178],[281,-92],[88,22],[2,6],[-12,23]],[[994,704]],[[994,704],[30,-6],[32,29],[119,9],[68,74],[124,56],[75,4],[91,-36]],[[1533,834],[204,-81]],[[1737,753],[18,-7],[143,36]],[[2573,1106],[-333,-94]],[[3452,1868],[-19,4]],[[3500,2182],[-39,-72]],[[3475,1847],[-6,18]],[[3560,2010],[4,-105],[-85,-70]],[[3487,2049],[2,-2]],[[3764,2523],[14,-20]],[[610,3678],[20,1]],[[103,757],[-29,97],[-5,8],[-16,52],[-11,26],[-31,53],[-11,16]],[[0,1004],[41,-65],[62,-182]],[[226,947],[37,-19]],[[263,929],[-37,18]],[[1030,4096],[-78,-56],[-43,10],[-47,-34],[-17,21],[-32,-26],[-94,-160],[-66,-32],[-1,-67],[-42,-74]],[[107,745],[4,-13]],[[2131,964],[-3,-5]],[[369,1091],[-144,52]],[[369,1091],[18,0]],[[387,1091],[56,41]],[[457,1148],[-14,-16]],[[465,1156],[-8,-8]],[[2214,865],[-34,18]],[[0,1191],[21,-2]],[[2661,828],[-44,-56],[11,-32]],[[2128,959],[-50,-68]],[[2240,1012],[-109,-48]],[[3234,4096],[1,-1]],[[3235,4095],[0,1]],[[3544,3549],[-136,224],[-135,57],[-51,128],[13,137]],[[3545,3546],[-1,4]],[[2828,1073],[-104,-86],[-529,12],[-72,-32],[-45,-76]],[[1854,771],[3,-8],[47,-85]],[[1904,678],[-50,93]],[[1904,678],[150,-265],[108,-82]],[[2165,333],[-1,1]],[[3342,1695],[-43,-40]],[[3470,1855],[0,-29]],[[226,947],[-170,84],[-56,62]],[[0,1088],[37,-48],[189,-93]],[[96,741],[77,15],[26,21]],[[198,777],[-88,-33]],[[263,927],[-38,-53]],[[225,873],[15,19],[18,25]],[[2508,750],[120,-10]],[[0,1656],[22,81],[43,32],[55,-3],[-5,39],[-95,27]],[[630,3679],[29,-3],[21,-54],[-78,-90],[81,-106],[-26,-60],[-105,-52],[11,-29],[-44,-36],[1,-77],[-75,-223],[-97,-64],[18,-100],[-19,-63],[41,-41],[-3,-91],[19,-8],[22,-121],[-44,-34],[9,-116],[-36,-57],[-45,-10],[50,-58],[-17,3],[-37,-130],[8,-58],[-29,-8],[36,-40],[-19,-108],[-71,-70],[-9,-34],[23,-20],[-58,-102],[32,-33],[-44,-25],[4,-80]],[[0,1264],[7,16]],[[64,862],[-20,8],[-33,-3],[-11,9]],[[40,1324],[-3,0],[-26,12]],[[11,1336],[-1,0],[-10,12]],[[0,1351],[11,-15]],[[11,1336],[1,-1],[23,-14]],[[5,870],[2,-1],[4,-2]],[[11,867],[1,-1],[32,4],[19,-9]],[[49,841]],[[49,841],[-26,12],[-15,7],[3,7]],[[11,867]],[[52,847],[-3,-6]],[[49,841],[-1,-3],[-5,-9],[-4,-10],[-5,-11],[-9,-16],[-13,-27]],[[12,765],[23,43],[14,33]],[[23,1189],[22,-3]],[[45,1187],[-21,2]],[[49,841],[3,6]],[[52,847],[1,3]],[[79,827],[-30,14]],[[53,850],[-1,-3]],[[52,847]],[[52,847],[23,-10],[4,0]],[[53,850],[10,11]],[[63,861],[98,114]],[[63,861]],[[161,976],[-98,-115]],[[74,1183],[1,4]],[[75,1187],[6,38],[10,90]],[[75,1187]],[[75,1187]],[[79,1320],[12,-5]],[[91,1315],[-12,6]],[[79,827]],[[80,827],[-1,0]],[[3266,1594],[16,25]],[[3436,1872],[13,-4]],[[3469,1862],[1,-7]],[[3470,1826],[0,-11]],[[1898,782],[44,17]],[[1941,800],[-43,-17]],[[1987,834],[-45,-34]],[[1942,800],[46,34]],[[1988,834],[27,49],[11,32],[-38,-80]],[[3689,2822],[-4,-40]],[[3692,2625],[0,-8]],[[194,1363],[-164,-49]],[[31,1314],[90,14],[73,34]],[[24,1189],[-24,3]],[[170,1162],[-125,25]],[[45,1186],[125,-24]],[[225,1143],[-55,19]],[[1860,397],[-105,351]],[[1882,317],[-16,58]],[[1927,0],[-35,69],[-60,48],[-8,92],[58,108]],[[1866,375],[-6,22]],[[1882,317]],[[1992,2467],[-51,-29],[-28,-56]],[[1913,2381],[81,86]],[[2101,2669],[-15,-9],[-9,-17],[-6,-33],[-1,-43]],[[2070,2567],[-1,-33],[-4,-4]],[[2065,2530],[-17,-20],[-3,-5],[-25,-12]],[[2023,2487],[40,29],[2,14]],[[2065,2530],[1,2]],[[2066,2533],[4,34]],[[2070,2567],[10,81],[31,14]],[[2295,2744],[-2,-1]],[[2299,2744],[0,1]],[[2352,2688],[-5,6]],[[2582,2711],[-20,-12],[-17,-18]],[[2545,2681],[36,29]],[[2673,2766],[-22,-13]],[[2653,2753],[21,10]],[[2704,2782],[-16,-9]],[[2690,2771],[15,7]],[[2811,2864],[-4,-8]],[[3403,3467],[-87,4],[-85,-31],[-53,-34],[-2,-1],[-6,-3]],[[3170,3402],[-92,-47]],[[3078,3355],[-7,-4],[-43,-82],[-82,34],[-26,-123]],[[2931,3141],[36,145],[51,-31],[27,15],[4,5],[29,80]],[[3078,3355],[3,8],[89,39]],[[3170,3402],[6,3],[2,0],[54,34],[85,31],[93,-4],[150,95],[97,123],[122,26],[17,18]],[[3788,3720],[-132,-36],[-96,-123],[-154,-94]],[[1828,3901],[81,-31]],[[1910,3873],[-1,79],[196,102],[280,-84],[-46,-68],[0,-35],[25,-8]],[[3198,4096],[-21,-60],[-63,-59],[-61,-23],[-41,16],[-99,-100],[-44,-7],[-34,43],[-368,-56],[-99,10]],[[3785,3721],[5,-9]],[[0,873],[5,-3]],[[81,1225],[-7,-42]],[[4096,4096],[0,-1151],[-38,-30],[-47,-51],[-73,-99],[-19,-15],[-19,-11],[-19,-14],[-20,-26],[-118,-232],[-78,-53],[-144,18],[24,52],[40,7],[42,-6],[33,15],[3,32],[-34,12],[-128,-5],[-20,-13],[-2,-24],[2,-36],[-10,-37],[-23,-12],[-27,11],[-21,28],[-1,-52],[56,-33],[76,-19],[59,-6],[68,-24],[38,-5],[34,17],[30,29],[36,20],[40,9],[43,-2],[-102,-326],[-87,-138],[-149,-41],[-49,-39],[-141,-173],[-23,-42],[-17,-46],[-4,-9],[-24,-49],[-223,-141],[-15,-38],[-68,-116],[-36,-130],[-47,-7],[-48,37],[-25,65],[9,55],[71,189],[2,28],[0,14],[8,15],[29,33],[23,19],[59,37],[128,55],[29,31],[-38,34],[-36,-40],[-63,-28],[-71,-15],[-59,-5],[-31,-11],[-38,-49],[-22,-8],[-27,14],[-43,55],[-29,21],[3,-53],[-1,-31],[-8,-22],[-32,-59],[-28,-31],[-34,-22],[-41,-2],[39,110],[-18,0],[-24,-18],[-5,36],[12,156],[16,85],[1,49],[-37,-27],[-38,-44],[-29,-43],[-6,-18],[-27,-7],[-1,-14],[19,-25],[6,1],[14,-7],[14,-12],[6,-13],[-4,-11],[-14,0],[-4,-11],[-21,-15],[-48,22],[-68,46],[-20,33],[-29,69],[-31,32],[0,-66],[-22,0],[-8,19],[-9,10],[-10,6],[-12,11],[10,-53],[69,-191],[-53,-1],[-94,-23],[-52,0],[0,-22],[99,-14],[50,-15],[32,-35],[-51,-32],[-15,-37],[17,-19],[49,20],[13,-32],[39,-48],[8,-19],[-11,-58],[-27,-13],[-32,3],[-29,-9],[-18,-38],[-6,-44],[-12,-36],[-36,-16],[-45,6],[-28,17],[-56,70],[-29,-20],[-30,-5],[-32,8],[-28,17],[-14,-41],[-36,-8],[-142,40],[-34,16],[-141,103],[-22,23],[-115,148],[-35,24],[8,-49],[50,-127],[12,-51],[9,-17],[17,-16],[32,-17],[11,-9],[34,-70],[-15,-34],[-49,-3],[-70,19],[54,-90],[80,-8],[93,19],[92,-11],[-7,-22],[-5,-9],[-8,-12],[-26,21],[-21,2],[-18,-14],[-15,-31],[35,-17],[41,-9],[37,-17],[26,-45],[32,52],[51,5],[57,-4],[100,40],[56,-27],[55,-40],[49,-26],[-29,-36],[-11,-10],[20,24],[-41,-43],[-20,-14],[-18,-11],[61,-26],[32,22],[20,42],[26,30],[44,2],[48,-14],[51,-2],[57,36],[75,-87],[-81,-79],[-128,-87],[-247,-475],[2,-87],[-4,-9],[-179,0],[4,9],[-39,-6],[-9,-3],[-1817,0],[0,4096],[4096,0]],[[2765,1043],[-63,-43],[-53,10],[-42,60],[13,42],[-6,40],[-53,53],[3,56],[47,78],[70,56],[85,59],[40,0],[13,-53],[-17,-79],[-33,-122],[3,-62],[33,-63],[-40,-32]],[[4096,2778],[-30,-16],[-44,-53],[-62,-99],[-53,-123],[-32,-45],[-34,14],[1,68],[46,108],[12,56],[21,19],[119,146],[56,45],[0,-120]],[[2438,188],[21,67],[150,-72],[-23,-66],[-148,71]],[[1800,2541],[26,73],[34,2],[34,40],[25,-19],[-28,-5],[-5,-64],[59,-5],[14,19],[1,81],[-54,58],[-17,109],[95,-122],[51,12],[0,80],[47,-28],[-35,-73],[25,-20],[-50,-30],[55,-6],[-14,-75],[-38,-6],[41,-29],[-46,-40],[36,-68],[19,-2],[3,29],[-29,20],[44,39],[-9,133],[37,-25],[31,21],[-19,26],[98,3],[34,51],[52,2],[-14,24],[-64,-21],[84,84],[-28,103],[25,16],[-8,56],[-91,-18],[-4,19],[36,11],[-17,27],[30,11],[-80,14],[47,10],[-35,14],[17,28],[-42,54],[88,-17],[-55,49],[72,13],[61,-30],[82,2],[31,20],[-34,-20],[-7,54],[21,27],[-44,-12],[-60,22],[-18,-26],[-41,1],[30,70],[34,-17],[52,20],[-51,59],[-65,-19],[-11,64],[43,9],[-5,17],[-45,-14],[-2,45],[-41,10],[-18,-34],[-53,-14],[-8,52],[-45,-18],[-14,24],[-16,-15],[12,23],[-26,-6],[44,48],[-24,70],[-52,0],[-23,-77],[-40,-30],[-42,15],[-40,66],[87,5],[6,61],[-33,45],[55,58],[-66,2],[-82,72],[25,23],[48,-9],[22,93],[76,23],[17,37],[6,-16],[68,39],[37,-25],[46,38],[7,-37],[53,-7],[-3,-41],[18,30],[27,-21],[-33,-24],[-107,21],[-51,-61],[-67,-10],[4,-40],[-19,-9],[64,-59],[11,-131],[63,-37],[9,34],[107,56],[119,-34],[67,53],[-31,29],[-45,-14],[25,59],[113,-45],[129,101],[18,-44],[38,1],[-28,-38],[23,-44],[-162,-125],[-65,22],[-59,-18],[32,-43],[-21,-34],[32,-32],[110,-12],[32,-49],[38,32],[-9,21],[43,19],[-48,30],[57,4],[46,110],[47,-60],[33,2],[-12,47],[52,-3],[4,-53],[-51,3],[-5,-18],[4,-22],[54,22],[-32,-43],[38,-15],[-1,-84],[-41,-39],[-20,-83],[-53,-5],[161,-25],[20,-53],[-6,-6],[-145,52],[95,-52],[-37,1],[5,-20],[-63,-32],[136,7],[-34,-54],[-24,17],[17,-19],[-17,-20],[27,-8],[-4,-73],[51,21],[-55,-56],[87,-44],[3,122],[16,-19],[17,27],[59,-7],[0,54],[51,-8],[-5,67],[26,-12],[-26,62],[39,49],[92,44],[25,-180],[-113,-86],[31,-44],[-61,-1],[-23,-30],[26,-127],[78,-13],[41,-73],[39,22],[15,-20],[-11,-101],[-102,-13],[-15,-23],[-67,71],[-52,-19],[-88,45],[-53,-52],[-12,-50],[-39,-7],[-14,39],[-26,-29],[12,-32],[-43,-4],[-41,-132],[-39,48],[-3,-37],[-74,-62],[1,56],[-79,2],[2,31],[-82,97],[-97,54],[-19,-30],[-48,-4],[-117,-73],[-35,-89],[9,-37],[-74,-51],[-1,-45],[-35,-2],[-21,-53],[-79,48],[49,31],[-19,9],[28,29],[-20,21],[61,-24],[-29,99],[-41,-1],[-19,-28],[-32,35],[-17,-54],[-92,122]],[[2506,3222],[56,-8],[-45,15],[-11,-7]],[[2594,3238],[18,-14],[-16,15],[-2,-1]],[[2643,3198],[2,-1],[43,14],[-45,-13]],[[2666,3249],[59,44],[-19,-2],[-40,-42]],[[2498,2801],[54,-12],[-2,29],[29,0],[-6,-52],[104,-17],[-14,56],[27,7],[-19,17],[26,37],[-171,2],[-28,-67]],[[2542,2683],[8,-5],[18,12],[23,35],[-30,-4],[-19,-38]],[[2651,2919],[12,-22],[54,-2],[15,-47],[54,-9],[26,21],[-17,51],[-54,-15],[-90,23]],[[2685,2776],[12,-12],[9,11],[-3,10],[-18,-9]],[[2344,2691],[7,-4],[3,3],[-4,7],[-6,-6]],[[3389,2144],[27,66],[43,21],[0,34],[-31,20],[44,32],[27,-147],[-34,-22],[-16,-72],[-4,55],[-43,-17],[-13,30]],[[1877,2582],[14,50],[28,5],[-38,82],[29,16],[-20,12],[1,10],[19,11],[-23,27],[-4,26],[5,11],[26,-11],[61,-81],[50,37],[16,-40],[-57,-29],[-96,122],[25,-61],[-18,-20],[18,-12],[-7,-16],[49,-46],[12,-59],[-22,-53],[-68,19]],[[2083,2772],[62,43],[23,87],[-30,48],[27,6],[-27,26],[31,24],[-31,22],[15,20],[-39,65],[33,27],[-10,64],[46,36],[225,-60],[-69,-11],[-61,30],[-72,-13],[55,-49],[-88,17],[42,-54],[-17,-28],[35,-14],[-47,-10],[80,-14],[-30,-11],[16,-31],[-45,-28],[105,20],[8,-56],[-25,-16],[28,-103],[-85,-77],[71,14],[8,-24],[-52,-2],[-34,-51],[-98,-3],[11,-26],[-44,29],[15,62],[-32,41]],[[2757,3250],[48,9],[66,-49],[39,5],[44,-156],[-11,-130],[-87,44],[55,56],[-51,-21],[4,73],[-27,8],[17,20],[-17,19],[24,-17],[34,54],[-133,-16],[11,31],[49,10],[-5,20],[37,-1],[-97,41]],[[1562,1713],[90,56],[8,42],[-70,-14],[4,44],[41,13],[-37,12],[60,88],[73,47],[81,-17],[48,-66],[183,15],[75,-34],[-25,-46],[-140,-20],[-70,23],[-25,-27],[42,-37],[-178,-200],[-41,12],[17,10],[-10,87],[-126,12]],[[1697,3700],[24,41],[-14,18],[107,9],[27,47],[23,-16],[-56,-66],[64,57],[41,-42],[-25,-22],[-25,17],[-46,-17],[-83,-54],[-37,28]],[[3087,2441],[74,109],[201,15],[29,117],[42,20],[-19,56],[35,33],[-33,32],[8,149],[-82,150],[121,137],[57,0],[16,-156],[63,-56],[10,-41],[63,-30],[8,116],[123,-29],[-3,39],[-60,72],[29,78],[-48,73],[146,-24],[88,-63],[39,29],[2,66],[80,26],[20,-39],[0,-480],[-85,-64],[-34,-103],[-52,-25],[8,-59],[-109,-68],[32,-38],[-35,-42],[73,-25],[-16,-41],[-192,-86],[-118,6],[25,-40],[-73,-25],[-4,-40],[-60,-30],[-9,-40],[45,-31],[-5,-43],[52,17],[24,-27],[-9,-71],[-74,-86],[-15,15],[58,101],[-111,-49],[-86,-117],[-53,-6],[-26,23],[-160,595]],[[3540,2448],[15,-56],[49,-29],[52,3],[-58,43],[18,24],[57,-30],[36,10],[1,36],[67,33],[1,63],[59,56],[11,92],[98,43],[15,71],[57,35],[7,52],[-44,-3],[-47,-64],[-55,-7],[-60,-125],[-68,-46],[-44,-100],[-167,-101]],[[3573,2529],[23,-22],[95,115],[33,92],[54,-1],[-67,84],[-67,-41],[-71,-227]],[[3374,2534],[12,-23],[32,51],[53,-35],[-16,60],[49,-3],[24,33],[-2,-50],[-33,2],[48,-50],[-86,-44],[-27,-2],[2,25],[-4,1],[-34,-24],[-18,59]],[[2549,1236],[30,76],[64,13],[-16,22],[30,87],[31,1],[18,31],[132,-11],[-9,-162],[-51,-122],[26,-106],[-93,-63],[-62,15],[-27,46],[0,98],[-43,-3],[-30,78]],[[2040,0],[-21,0],[25,10],[-4,-10]],[[2390,646],[4,-4],[-99,-67],[26,50],[69,21]],[[2079,890],[27,-20],[-208,-125],[1,134],[124,38],[56,-27]],[[0,769],[0,822],[21,12],[67,-25],[63,-47],[0,-35],[65,-36],[-30,-137],[30,-77],[32,0],[-32,-143],[-33,-1],[65,-107],[-32,-71],[32,-179],[-34,-9],[-31,80],[-97,-71],[-86,24]],[[1281,1342],[21,95],[108,227],[56,12],[-89,68],[-7,95],[-56,111],[135,243],[-34,60],[46,-15],[170,23],[49,49],[108,-16],[123,89],[19,-81],[80,-48],[21,53],[35,2],[1,45],[74,51],[-9,37],[35,89],[117,73],[48,4],[19,30],[97,-54],[82,-97],[-2,-31],[79,-2],[-1,-56],[74,62],[3,37],[30,-55],[20,17],[30,121],[43,5],[-11,32],[27,27],[32,-41],[-10,-63],[80,-58],[3,-163],[179,-214],[-43,-30],[-66,-141],[80,-31],[94,-100],[90,-1],[201,69],[18,-35],[-210,-216],[-13,-47],[21,-27],[-42,-5],[-155,-166],[-106,-173],[-36,-127],[-120,-2],[-100,-71],[-1046,23],[-174,140],[-11,63],[-70,9],[-7,66],[-10,-20],[-68,0],[-52,59]],[[1632,1286],[16,32],[163,5],[40,24],[-6,23],[-66,-12],[-64,59],[-38,58],[74,67],[-66,21],[119,83],[91,115],[73,25],[-21,-109],[24,3],[14,-42],[-10,-37],[-59,-2],[2,-31],[51,19],[36,-34],[-1,-49],[-26,-15],[32,-15],[-47,-39],[66,41],[171,-70],[2,-31],[-46,-17],[-30,-46],[26,-74],[-56,-22],[-47,19],[-43,-62],[5,-45],[-55,44],[8,-19],[-36,-17],[-151,-7],[-56,39],[-37,-12],[-52,130]],[[2778,3296],[17,55],[73,3],[27,-88],[-117,30]],[[2201,920],[113,0],[41,-24],[14,-48],[-24,-12],[-144,84]],[[2124,966],[53,-13],[27,-48],[137,-86],[-155,56],[-62,91]],[[1723,0],[-136,0],[18,280],[-88,-12],[-29,24],[-6,335],[58,0],[-2,132],[31,54],[79,-63],[10,-45],[32,0],[-23,-16],[38,-36],[-7,-40],[21,5],[-16,-25],[91,-83],[17,-54],[27,3],[-14,-38],[68,-45],[-37,-1],[-6,-41],[33,-17],[-39,3],[-2,-73],[-30,-8],[-11,-69],[17,1],[-14,-27],[33,-93],[26,-14],[31,26],[-13,-38],[40,-25],[-92,0],[2,21],[-22,3],[-8,50],[-29,-46],[-48,-28]],[[2820,1224],[53,85],[-9,128],[79,115],[50,13],[41,58],[0,59],[-83,56],[-28,74],[-38,-1],[22,63],[37,-6],[56,40],[77,-9],[32,-63],[132,-102],[84,63],[53,10],[4,64],[34,-28],[19,27],[34,-5],[-4,-57],[-146,-128],[-59,-75],[15,-30],[-225,-246],[-121,-257],[-66,-1],[-1,44],[-41,14],[-1,95]],[[3266,1590],[62,92],[238,223],[7,110],[-99,-18],[21,47],[-39,27],[11,70],[41,17],[-17,97],[70,0],[-32,28],[13,30],[137,-7],[154,59],[-3,-106],[28,-31],[-54,-67],[-19,-71],[16,-28],[-83,-42],[-452,-430]],[[1398,3781],[94,76],[-16,9],[36,60],[-55,65],[19,75],[-35,30],[297,0],[-43,-68],[-65,-23],[-11,-40],[-25,51],[-59,-21],[58,-43],[-71,-74],[43,-5],[74,45],[50,-45],[-29,-50],[-122,-99],[-41,48],[-79,-34],[-20,43]],[[1930,4096],[-8,-12],[-74,11],[0,1],[82,0]]]}