{"objects":{"water":{"type":"GeometryCollection","geometries":[{"type":"Polygon","properties":{"source":"naturalearthdata.com","kind":"ocean","area":1576712559132672,"sort_rank":200,"min_zoom":0.0,"id":1},"arcs":[[2],[3]]},{"type":"LineString","properties":{"source":"naturalearthdata.com","kind":"ocean","sort_rank":205,"boundary":true,"min_zoom":0.0,"id":75},"arcs":[4]},{"type":"LineString","properties":{"source":"naturalearthdata.com","kind":"ocean","sort_rank":205,"boundary":true,"min_zoom":0.0,"id":1347},"arcs":[5]}]},"buildings":{"type":"GeometryCollection","geometries":[]},"places":{"type":"GeometryCollection","geometries":[{"type":"Point","properties":{"source":"naturalearthdata.com","kind":"locality","name":"Imbituba","population":43450,"min_zoom":7.0,"id":4234},"coordinates":[1627,246]},{"type":"Point","properties":{"name:ka":"\u10e4\u10da\u10dd\u10e0\u10d8\u10d0\u10dc\u10dd\u10de\u10dd\u10da\u10d8\u10e1\u10d8","name:mr":"\u092b\u094d\u0932\u094b\u0930\u093f\u092f\u093e\u0928\u094b\u092a\u094b\u0932\u093f\u0938","name:ko":"\ud50c\ub85c\ub9ac\uc544\ub178\ud3f4\ub9ac\uc2a4","name:ar":"\u0641\u0644\u0648\u0631\u064a\u0627\u0646\u0648\u0628\u0648\u0644\u064a\u0633","name:os":"\u0424\u043b\u043e\u0440\u0438\u0430\u043d\u043e\u043f\u043e\u043b\u0438\u0441","name:th":"\u0e42\u0e1f\u0e25\u0e40\u0e23\u0e35\u0e22\u0e19\u0e2d\u0e42\u0e1b\u0e25\u0e34\u0e2a","loc_name":"Floripa","name:ru":"\u0424\u043b\u043e\u0440\u0438\u0430\u043d\u043e\u043f\u043e\u043b\u0438\u0441","name:tg":"\u0424\u043b\u043e\u0440\u0438\u0430\u043d\u043e\u043f\u043e\u043b\u0438\u0441","name:mk":"\u0424\u043b\u043e\u0440\u0438\u0430\u043d\u043e\u043f\u043e\u043b\u0438\u0441","name:fa":"\u0641\u0644\u0631\u06cc\u0646\u0648 \u067e\u0648\u0644\u06cc\u0633","kind_detail":"city","id":90200226,"source":"openstreetmap.org","name:zh":"\u5f17\u6d1b\u91cc\u4e9a\u8bfa\u6ce2\u5229\u65af","name:hy":"\u0556\u056c\u0578\u0580\u056b\u0561\u0576\u0578\u057a\u0578\u056c\u056b\u057d","name:lv":"Florjanopolisa","name:ja":"\u30d5\u30ed\u30ea\u30a2\u30ce\u30fc\u30dd\u30ea\u30b9","name:lt":"Florianopolis","name:uz":"Florianopolis","name:he":"\u05e4\u05dc\u05d5\u05e8\u05d9\u05d0\u05e0\u05d5\u05e4\u05d5\u05dc\u05d9\u05e1","kind":"locality","name:la":"Florianopolis","name:uk":"\u0424\u043b\u043e\u0440\u0456\u0430\u043d\u043e\u043f\u043e\u043b\u0456\u0441","old_name":"Nossa Senhora do Desterro","name:be":"\u0424\u043b\u0430\u0440\u044b\u044f\u043d\u043e\u043f\u0430\u043b\u0456\u0441","name:bg":"\u0424\u043b\u043e\u0440\u0438\u0430\u043d\u043e\u043f\u043e\u043b\u0438\u0441","name:sr":"\u0424\u043b\u043e\u0440\u0438\u0458\u0430\u043d\u043e\u043f\u043e\u043b\u0438\u0441","population":469690,"name:eo":"Florianopolo","name":"Florian\u00f3polis","region_capital":true,"min_zoom":8.0},"coordinates":[1949,2326]},{"type":"Point","properties":{"source":"openstreetmap.org","kind":"locality","name":"S\u00e3o Jos\u00e9","kind_detail":"city","population":232309,"min_zoom":8.0,"id":415523574},"coordinates":[1724,2264]},{"type":"Point","properties":{"source":"openstreetmap.org","kind":"locality","name":"Palho\u00e7a","kind_detail":"city","population":157833,"min_zoom":8.0,"id":415523573},"coordinates":[1600,2166]},{"type":"Point","properties":{"source":"openstreetmap.org","kind":"locality","name":"Brusque","kind_detail":"city","population":122775,"min_zoom":8.0,"id":273209474},"coordinates":[889,3973]},{"type":"Point","properties":{"source":"openstreetmap.org","kind":"locality","name":"Bigua\u00e7u","kind_detail":"town","population":55665,"min_zoom":8.0,"id":415523575},"coordinates":[1644,2659]},{"type":"Point","properties":{"source":"openstreetmap.org","kind":"locality","name":"Imbituba","kind_detail":"town","population":38574,"min_zoom":8.0,"id":415524024},"coordinates":[1615,206]},{"type":"Point","properties":{"source":"openstreetmap.org","kind":"locality","name":"Itapema","kind_detail":"town","population":36629,"min_zoom":8.0,"id":296141091},"coordinates":[1762,3979]},{"type":"Point","properties":{"source":"openstreetmap.org","kind":"locality","name":"Tijucas","kind_detail":"town","population":29674,"min_zoom":8.0,"id":296144979},"coordinates":[1699,3503]},{"type":"Point","properties":{"source":"openstreetmap.org","kind":"locality","name":"Bra\u00e7o do Norte","kind_detail":"town","population":28909,"min_zoom":8.0,"id":415524019},"coordinates":[165,104]},{"type":"Point","properties":{"source":"openstreetmap.org","kind":"locality","name":"S\u00e3o Jo\u00e3o Batista","kind_detail":"town","population":24419,"min_zoom":8.0,"id":296146867},"coordinates":[1075,3378]},{"type":"Point","properties":{"source":"openstreetmap.org","kind":"locality","name":"Campeche","kind_detail":"town","population":18570,"min_zoom":8.0,"id":416646676},"coordinates":[2128,2045]},{"type":"Point","properties":{"source":"openstreetmap.org","kind":"locality","name":"Santo Amaro da Imperatriz","kind_detail":"town","population":18266,"min_zoom":8.0,"id":415523584},"coordinates":[1274,2036]},{"type":"Point","properties":{"source":"openstreetmap.org","kind":"locality","name":"Guabiruba","kind_detail":"town","population":16925,"min_zoom":8.0,"id":415523600},"coordinates":[701,4006]},{"type":"Point","properties":{"source":"openstreetmap.org","kind":"locality","name":"Garopaba","kind_detail":"town","population":16577,"min_zoom":8.0,"id":415524025},"coordinates":[1732,911]},{"type":"Point","properties":{"source":"openstreetmap.org","kind":"locality","name":"Bombinhas","kind_detail":"town","population":14312,"min_zoom":8.0,"id":296141631},"coordinates":[2130,3791]},{"type":"Point","properties":{"source":"openstreetmap.org","kind":"locality","name":"Porto Belo","kind_detail":"town","population":13910,"min_zoom":8.0,"id":415523653},"coordinates":[1970,3783]},{"type":"Point","properties":{"source":"openstreetmap.org","kind":"locality","name":"Governador Celso Ramos","kind_detail":"town","population":12611,"min_zoom":8.0,"id":415523576},"coordinates":[1926,3247]},{"type":"Point","properties":{"source":"openstreetmap.org","kind":"locality","name":"Nova Trento","kind_detail":"town","population":11832,"min_zoom":8.0,"id":415523570},"coordinates":[840,3349]},{"type":"Point","properties":{"source":"openstreetmap.org","kind":"locality","name":"Canelinha","kind_detail":"town","population":10068,"min_zoom":8.0,"id":415523597},"coordinates":[1317,3415]}]},"transit":{"type":"GeometryCollection","geometries":[]},"pois":{"type":"GeometryCollection","geometries":[{"type":"Point","properties":{"kind":"protected_area","protect_class":"5","area":67530400,"source":"openstreetmap.org","min_zoom":8.0,"tier":2,"id":-7443849,"osm_relation":true,"name":"APA do Entorno da Costeira"},"coordinates":[1704,1336]},{"type":"Point","properties":{"kind":"nature_reserve","tier":2,"protect_class":"2","area":1058960000,"source":"openstreetmap.org","min_zoom":7.27,"operator":"Funda\u00e7\u00e3o do Meio Ambiente de Santa Catarina","id":-5441762,"osm_relation":true,"name":"Parque Estadual da Serra do Tabuleiro"},"coordinates":[1148,1109]},{"type":"Point","properties":{"kind":"nature_reserve","tier":2,"protect_class":"2","area":726920000,"source":"openstreetmap.org","min_zoom":7.54,"operator":"Instituto Chico Mendes de Conserva\u00e7\u00e3o da Biodiversidade","id":-2639431,"osm_relation":true,"name":"Parque Nacional da Serra do Itaja\u00ed"},"coordinates":[56,3843]},{"type":"Point","properties":{"kind":"nature_reserve","tier":2,"protect_class":"1","area":217179000,"source":"openstreetmap.org","min_zoom":8.41,"operator":"Instituto Chico Mendes de Conserva\u00e7\u00e3o da Biodiversidade","id":255726785,"name":"Reserva Biol\u00f3gica Marinha do Arvoredo"},"coordinates":[2480,3562]}]},"boundaries":{"type":"GeometryCollection","geometries":[{"type":"LineString","properties":{"name:kg":"Brazil","name:ty":"Brazil","name:ka":"\u10d1\u10e0\u10d0\u10d6\u10d8\u10da\u10d8\u10d0","name:ko":"\ube0c\ub77c\uc9c8","name:cv":"\u0411\u0440\u0430\u0437\u0438\u043b\u0438","name:cu":"\u0411\u0440\u0430\ua641\u0457\u043b\u0457\ua657","name:kl":"Brazil","name:cs":"Braz\u00edlie","name:ki":"Brazil","name:co":"Brasile","name:kv":"\u0411\u0440\u0430\u0437\u0438\u043b\u0438\u044f","name:ku":"Braz\u00eel","name:ce":"\u0411\u0440\u0430\u0437\u0438\u043b\u0438\u044f","name:ta":"\u0baa\u0bbf\u0bb0\u0bc7\u0b9a\u0bbf\u0bb2\u0bcd","name:tg":"\u0411\u0440\u0430\u0437\u0438\u043b\u0438\u044f","name:ky":"\u0411\u0440\u0430\u0437\u0438\u043b\u0438\u044f","name:te":"\u0c2c\u0c4d\u0c30\u0c46\u0c1c\u0c3f\u0c32\u0c4d","name:da":"Brasilien","name:de":"Brasilien","name:dz":"\u0f56\u0f71\u0f62\u0f71\u0f0b\u0f5b\u0f72\u0f63\u0f0b","source":"openstreetmap.org","name:kn":"\u0cac\u0ccd\u0cb0\u0cc6\u0c9c\u0cbf\u0cb2\u0ccd","name:dv":"\u0784\u07aa\u0783\u07ac\u0792\u07a8\u078d\u07b0","name:km":"\u1794\u17d2\u179a\u17c1\u179f\u17ca\u17b8\u179b","name:lv":"Braz\u012blija","name:lt":"Brazilija","name:uz":"Braziliya","name:kk":"\u0411\u0440\u0430\u0437\u0438\u043b\u0438\u044f","name:ur":"\u0628\u0631\u0627\u0632\u06cc\u0644","name:lb":"Brasilien","name:la":"Brasilia","name:tt":"\u0411\u0440\u0430\u0437\u0438\u043b\u0438\u044f","name:uk":"\u0411\u0440\u0430\u0437\u0438\u043b\u0456\u044f","name:ug":"\u0628\u0631\u0627\u0632\u0649\u0644\u0649\u064a\u06d5","name:li":"Braziel","name:ln":"Brazil","name:el":"\u0392\u03c1\u03b1\u03b6\u03b9\u03bb\u03af\u03b1","name:eo":"Brazilo","name:en":"Brazil","name":"Brasil","name:tk":"Brazili\u00fda","name:ee":"Brazil","name:th":"\u0e1b\u0e23\u0e30\u0e40\u0e17\u0e28\u0e1a\u0e23\u0e32\u0e0b\u0e34\u0e25","name:et":"Brasiilia","name:ay":"Wrasil","name:rm":"Brasilia","name:rn":"Brazil","name:az":"Braziliya","name:ig":"Brazil","name:as":"\u09ac\u09cd\u09f0\u09be\u099c\u09bf\u09b2","name:zh-min-nan":"Pa-se","name:io":"Brazilia","name:is":"Brasil\u00eda","name:am":"\u1265\u122b\u12da\u120d","name:it":"Brasile","name:ru":"\u0411\u0440\u0430\u0437\u0438\u043b\u0438\u044f","name:rw":"Burezile","name:af":"Brasili\u00eb","name:zu":"IBrazili","kind_detail":"2","name:za":"Bahsih","name:zh-yue":"\u5df4\u897f","name:zh":"\u5df4\u897f","name:so":"Barasiil","name:sl":"Brazilija","name:sk":"Braz\u00edlia","name:ja":"\u30d6\u30e9\u30b8\u30eb","name:sh":"Brazil","name:se":"Brasilia","name:sc":"Brasile","name:br":"Brazil","name:bs":"Brazil","name:bm":"Brazil","name:bn":"\u09ac\u09cd\u09b0\u09be\u099c\u09bf\u09b2","name:bo":"\u0f54\u0f74\u0f0b\u0f62\u0f74\u0f0b\u0f5f\u0f72\u0f63\u0f0d","name:bi":"Brazil","name:sw":"Brazil","name:be":"\u0411\u0440\u0430\u0437\u0456\u043b\u0456\u044f","name:bg":"\u0411\u0440\u0430\u0437\u0438\u043b\u0438\u044f","name:ba":"\u0411\u0440\u0430\u0437\u0438\u043b\u0438\u044f","name:sq":"Brazili","name:sa":"\u092c\u094d\u0930\u093e\u0938\u0940\u0932","name:ps":"\u0628\u0631\u0627\u0632\u06cc\u0644","min_zoom":8.0,"name:ro":"Brazilia","name:pa":"\u0a2c\u0a4d\u0a30\u0a3e\u0a1c\u0a3c\u0a40\u0a32","name:os":"\u0411\u0440\u0430\u0437\u0438\u043b\u0438","name:or":"\u0b2c\u0b4d\u0b30\u0b3e\u0b1c\u0b3f\u0b32","name:pl":"Brazylia","name:st":"Brazil","sort_rank":262,"name:sr":"\u0411\u0440\u0430\u0437\u0438\u043b","osm_relation":true,"name:ar":"\u0627\u0644\u0628\u0631\u0627\u0632\u064a\u0644","name:tr":"Brezilya","name:hi":"\u092c\u094d\u0930\u093e\u091c\u093c\u0940\u0932","name:sv":"Brasilien","name:he":"\u05d1\u05e8\u05d6\u05d9\u05dc","name:hy":"\u0532\u0580\u0561\u0566\u056b\u056c\u056b\u0561","name:ht":"Brezil","name:hu":"Braz\u00edlia","name:hr":"Brazil","kind":"country","name:yi":"\u05d1\u05e8\u05d0\u05d6\u05d9\u05dc","name:mt":"Bra\u017cil","name:ms":"Brazil","name:mr":"\u092c\u094d\u0930\u093e\u091d\u0940\u0932","name:my":"\u1018\u101b\u102c\u1007\u102e\u1038\u1014\u102d\u102f\u1004\u103a\u1004\u1036","official_name":"Rep\u00fablica Federativa do Brasil","name:mg":"Brazila","name:ml":"\u0d2c\u0d4d\u0d30\u0d38\u0d40\u0d7d","name:mn":"\u0411\u0440\u0430\u0437\u0438\u043b","name:mi":"Par\u012bhi","id":-59470,"name:mk":"\u0411\u0440\u0430\u0437\u0438\u043b","name:vo":"Brasil\u00e4n","name:fa":"\u0628\u0631\u0632\u06cc\u0644","name:fi":"Brasilia","old_name:vi":"Ba T\u00e2y","alt_name:vi":"Brazil;Bra-xin","name:fr":"Br\u00e9sil","name:fy":"Brazylje","name:nl":"Brazili\u00eb","name:na":"Bradir","name:ne":"\u092c\u094d\u0930\u093e\u091c\u093f\u0932","name:wa":"Braezi","name:wo":"Breesil","name:nv":"Bwaz\u00ed\u00edl","name:ga":"An Bhrasa\u00edl","name:gd":"Braisil","name:gn":"Pindorama","maritime_boundary":true,"name:gv":"Yn Vrasseel","name:gu":"\u0aac\u0acd\u0ab0\u0abe\u0a9d\u0abf\u0ab2"},"arcs":[0]},{"type":"LineString","properties":{"name:ka":"\u10e1\u10d0\u10dc\u10e2\u10d0-\u10d9\u10d0\u10e2\u10d0\u10e0\u10d8\u10dc\u10d0","name:mr":"\u0938\u093e\u0902\u0924\u093e \u0915\u093e\u0924\u093e\u0930\u093f\u0928\u093e","name:ko":"\uc0b0\ud0c0\uce74\ud0c0\ub9ac\ub098","name:ar":"\u0633\u0627\u0646\u062a\u0627 \u0643\u0627\u062a\u0627\u0631\u064a\u0646\u0627","name:th":"\u0e0b\u0e31\u0e19\u0e15\u0e32\u0e01\u0e32\u0e15\u0e32\u0e23\u0e35\u0e19\u0e32","name:os":"\u0421\u0430\u043d\u0442\u00e6-\u041a\u0430\u0442\u0430\u0440\u0438\u043d\u00e6","name:ru":"\u0421\u0430\u043d\u0442\u0430-\u041a\u0430\u0442\u0430\u0440\u0438\u043d\u0430","name:tg":"\u0421\u0430\u043d\u0442\u0430 \u041a\u0430\u0442\u0430\u0440\u0438\u043d\u0430","name:mk":"\u0421\u0430\u043d\u0442\u0430 \u041a\u0430\u0442\u0430\u0440\u0438\u043d\u0430","name:fa":"\u0633\u0627\u0646\u062a\u0627 \u06a9\u0627\u062a\u0627\u0631\u06cc\u0646\u0627","short_name":"SC","sort_rank":256,"kind_detail":"4","name:uz":"Santa-Katarina","id":-296584,"source":"openstreetmap.org","name:zh":"\u5723\u5361\u5854\u7433\u5a1c","name:lv":"Santakatarina","name:ja":"\u30b5\u30f3\u30bf \u30ab\u30bf\u30ea\u30fc\u30ca","name:lt":"Santa Katarina","name:hi":"\u0938\u093e\u0902\u0924\u093e \u0915\u093e\u0924\u093e\u0930\u0940\u0928\u093e","name:he":"\u05e1\u05e0\u05d8\u05d4 \u05e7\u05d8\u05e8\u05d9\u05e0\u05d4","name:eo":"Sankta Katarino","name:la":"Sancta Catharina","name:uk":"\u0421\u0430\u043d\u0442\u0430-\u041a\u0430\u0442\u0430\u0440\u0456\u043d\u0430","name:hy":"\u054d\u0561\u0576\u057f\u0561 \u053f\u0561\u057f\u0561\u0580\u056b\u0576\u0561","name:be":"\u0421\u0430\u043d\u0442\u0430-\u041a\u0430\u0442\u0430\u0440\u044b\u043d\u0430","name:bg":"\u0421\u0430\u043d\u0442\u0430 \u041a\u0430\u0442\u0430\u0440\u0438\u043d\u0430","name:sr":"\u0421\u0430\u043d\u0442\u0430 \u041a\u0430\u0442\u0430\u0440\u0438\u043d\u0430","osm_relation":true,"kind":"region","name":"Santa Catarina","min_zoom":8.0,"maritime_boundary":true},"arcs":[1]}]},"roads":{"type":"GeometryCollection","geometries":[{"type":"LineString","properties":{"kind":"major_road","network":"BR:SC","sort_rank":380,"kind_detail":"primary","source":"openstreetmap.org","min_zoom":8.0,"shield_text":"402","ref":"SC-402","id":198197227},"arcs":[6]},{"type":"MultiLineString","properties":{"kind":"major_road","network":"BR","sort_rank":381,"kind_detail":"trunk","source":"openstreetmap.org","min_zoom":8.0,"shield_text":"282","ref":"BR-282"},"arcs":[[7],[8],[9],[10],[11],[12]]},{"type":"LineString","properties":{"kind":"major_road","sort_rank":380,"kind_detail":"primary","bus_network":"SIM","source":"openstreetmap.org","min_zoom":8.0,"bus_shield_text":"300","ref":"SC-404","id":166341479},"arcs":[13]},{"type":"LineString","properties":{"bus_network":"SIM","network":"BR:SC","sort_rank":380,"kind_detail":"primary","is_bicycle_related":true,"kind":"major_road","cycleway":"lane","source":"openstreetmap.org","min_zoom":8.0,"bus_shield_text":"463B","shield_text":"405","ref":"SC-405"},"arcs":[14]},{"type":"LineString","properties":{"kind":"major_road","sort_rank":381,"kind_detail":"trunk","bus_network":"SIM","source":"openstreetmap.org","min_zoom":8.0,"bus_shield_text":"138","landuse_kind":"urban_area","id":35161019},"arcs":[15]},{"type":"MultiLineString","properties":{"bus_network":"SIM","network":"BR:SC","sort_rank":381,"kind_detail":"trunk","is_bicycle_related":true,"cycleway_right":"lane","source":"openstreetmap.org","min_zoom":8.0,"bus_shield_text":"210","shield_text":"401","ref":"SC-401","kind":"major_road"},"arcs":[[16],[17],[18],[19]]},{"type":"MultiLineString","properties":{"kind":"highway","network":"BR","sort_rank":383,"landuse_kind":"urban_area","source":"openstreetmap.org","min_zoom":8.0,"all_networks":["BR"],"kind_detail":"motorway","shield_text":"101","ref":"BR-101","all_shield_texts":["101"]},"arcs":[[20],[21],[22],[23],[24],[25],[26],[27],[28],[29],[30],[31],[32],[33]]},{"type":"MultiLineString","properties":{"kind":"major_road","network":"BR","sort_rank":380,"kind_detail":"primary","source":"openstreetmap.org","min_zoom":8.0,"shield_text":"282","ref":"BR-282"},"arcs":[[34],[35],[36],[37],[38],[39],[40],[41],[42],[43],[44],[45],[46],[47],[48]]},{"type":"LineString","properties":{"bus_network":"SIM","network":"BR:SC","sort_rank":381,"kind_detail":"trunk","kind":"major_road","source":"openstreetmap.org","min_zoom":8.0,"bus_shield_text":"262","shield_text":"401","ref":"SC-401"},"arcs":[49]},{"type":"LineString","properties":{"bus_network":"SIM","sort_rank":380,"kind_detail":"primary","is_bicycle_related":true,"kind":"major_road","source":"openstreetmap.org","min_zoom":8.0,"bus_shield_text":"177","landuse_kind":"urban_area"},"arcs":[50]},{"type":"MultiLineString","properties":{"kind":"major_road","network":"BR:SC","sort_rank":380,"kind_detail":"primary","source":"openstreetmap.org","min_zoom":8.0,"landuse_kind":"urban_area","shield_text":"108","ref":"SC-108"},"arcs":[[51],[52],[53],[54],[55],[56],[57],[58],[59],[60],[61],[62]]},{"type":"LineString","properties":{"kind":"major_road","network":"BR:SC","sort_rank":380,"kind_detail":"primary","bus_network":"SIM","source":"openstreetmap.org","min_zoom":8.0,"bus_shield_text":"165","shield_text":"404","landuse_kind":"urban_area","ref":"SC-404","id":242550020},"arcs":[63]},{"type":"MultiLineString","properties":{"kind":"highway","network":"BR","sort_rank":383,"landuse_kind":"urban_area","is_bicycle_related":true,"source":"openstreetmap.org","min_zoom":8.0,"all_networks":["BR"],"kind_detail":"motorway","shield_text":"101","ref":"BR-101","all_shield_texts":["101"]},"arcs":[[64],[65]]},{"type":"MultiLineString","properties":{"source":"openstreetmap.org","bus_network":"SIM","bus_shield_text":"101","sort_rank":380,"kind_detail":"primary","min_zoom":8.0,"kind":"major_road"},"arcs":[[66],[67]]},{"type":"MultiLineString","properties":{"bus_network":"SIM","sort_rank":381,"landuse_kind":"urban_area","kind":"major_road","source":"openstreetmap.org","min_zoom":8.0,"bus_shield_text":"180","kind_detail":"trunk"},"arcs":[[68],[69],[70]]},{"type":"LineString","properties":{"kind":"major_road","network":"BR:SC","sort_rank":380,"kind_detail":"primary","bus_network":"SIM","source":"openstreetmap.org","min_zoom":8.0,"bus_shield_text":"300","shield_text":"404","landuse_kind":"urban_area","ref":"SC-404","id":246549704},"arcs":[71]},{"type":"MultiLineString","properties":{"source":"openstreetmap.org","bus_network":"SIM","bus_shield_text":"133","sort_rank":380,"kind_detail":"primary","min_zoom":8.0,"kind":"major_road"},"arcs":[[72],[73],[74]]},{"type":"LineString","properties":{"kind":"major_road","network":"BR:SC","short_name":"Rua 15 de Novembro","sort_rank":380,"kind_detail":"primary","source":"openstreetmap.org","min_zoom":8.0,"shield_text":"410","ref":"SC-410","id":395687519},"arcs":[75]},{"type":"LineString","properties":{"source":"openstreetmap.org","bus_network":"SIM","bus_shield_text":"561","sort_rank":380,"kind_detail":"primary","min_zoom":8.0,"kind":"major_road"},"arcs":[76]},{"type":"MultiLineString","properties":{"kind":"major_road","network":"BR:SC","sort_rank":380,"kind_detail":"primary","source":"openstreetmap.org","min_zoom":8.0,"shield_text":"406","ref":"SC-406"},"arcs":[[77],[78],[79]]},{"type":"MultiLineString","properties":{"source":"openstreetmap.org","bus_network":"SIM","bus_shield_text":"212","sort_rank":381,"kind_detail":"trunk","min_zoom":8.0,"kind":"major_road"},"arcs":[[80],[81],[82]]},{"type":"LineString","properties":{"kind":"major_road","sort_rank":381,"kind_detail":"trunk","bus_network":"SIM","source":"openstreetmap.org","min_zoom":8.0,"bus_shield_text":"104","loc_name":"Elevado Rita Maria","id":194261162},"arcs":[83]},{"type":"MultiLineString","properties":{"bus_network":"SIM","network":"BR:SC","sort_rank":381,"kind_detail":"trunk","kind":"major_road","source":"openstreetmap.org","min_zoom":8.0,"bus_shield_text":"261","shield_text":"403","ref":"SC-403"},"arcs":[[84],[85]]},{"type":"MultiLineString","properties":{"kind":"major_road","network":"BR:SC","sort_rank":380,"kind_detail":"primary","source":"openstreetmap.org","min_zoom":8.0,"shield_text":"410","ref":"SC-108;SC-410"},"arcs":[[86],[87]]},{"type":"MultiLineString","properties":{"source":"openstreetmap.org","bus_network":"SIM","bus_shield_text":"183","sort_rank":380,"kind_detail":"primary","min_zoom":8.0,"kind":"major_road"},"arcs":[[88],[89],[90],[91],[92],[93],[94],[95]]},{"type":"LineString","properties":{"bus_network":"SIM","network":"BR:SC","sort_rank":381,"kind_detail":"trunk","is_bicycle_related":true,"cycleway_right":"lane","id":35136467,"source":"openstreetmap.org","min_zoom":8.0,"bus_shield_text":"262","shield_text":"401","ref":"SC-401","kind":"major_road"},"arcs":[96]},{"type":"LineString","properties":{"source":"openstreetmap.org","bus_network":"SIM","bus_shield_text":"135","sort_rank":380,"kind_detail":"primary","min_zoom":8.0,"kind":"major_road"},"arcs":[97]},{"type":"LineString","properties":{"kind":"major_road","network":"BR:SC","sort_rank":380,"kind_detail":"primary","source":"openstreetmap.org","min_zoom":8.0,"landuse_kind":"urban_area","shield_text":"281","id":424530711},"arcs":[98]},{"type":"LineString","properties":{"bus_network":"SIM","sort_rank":380,"kind_detail":"primary","is_bicycle_related":true,"kind":"major_road","source":"openstreetmap.org","min_zoom":8.0,"bus_shield_text":"104","landuse_kind":"urban_area"},"arcs":[99]},{"type":"MultiLineString","properties":{"source":"openstreetmap.org","kind":"major_road","network":"BR:SC","sort_rank":380,"kind_detail":"primary","min_zoom":8.0,"shield_text":"410"},"arcs":[[100],[101]]},{"type":"MultiLineString","properties":{"kind":"major_road","network":"BR:SC","sort_rank":380,"kind_detail":"primary","source":"openstreetmap.org","min_zoom":8.0,"shield_text":"410","ref":"SC-410"},"arcs":[[102],[103],[104],[105],[106],[107],[108],[109],[110],[111],[112]]},{"type":"LineString","properties":{"source":"openstreetmap.org","kind":"major_road","landuse_kind":"urban_area","sort_rank":380,"kind_detail":"primary","loc_name":"Viaduto do Ro\u00e7ado","min_zoom":8.0},"arcs":[113]},{"type":"MultiLineString","properties":{"bus_network":"SIM","sort_rank":381,"landuse_kind":"urban_area","kind":"major_road","source":"openstreetmap.org","min_zoom":8.0,"bus_shield_text":"150","kind_detail":"trunk"},"arcs":[[114],[115],[116]]},{"type":"LineString","properties":{"sort_rank":355,"source":"openstreetmap.org","min_zoom":8.0,"name":"Passeio Canasvieiras - Scuna Sul","kind":"ferry"},"arcs":[117]},{"type":"MultiLineString","properties":{"kind":"major_road","network":"BR","sort_rank":380,"kind_detail":"primary","source":"openstreetmap.org","min_zoom":8.0,"landuse_kind":"urban_area","shield_text":"486","ref":"BR-486;SC-486"},"arcs":[[118],[119],[120]]},{"type":"MultiLineString","properties":{"sort_rank":381,"source":"openstreetmap.org","min_zoom":8.0,"kind":"major_road","kind_detail":"trunk"},"arcs":[[121],[122],[123],[124],[125],[126],[127],[128]]},{"type":"MultiLineString","properties":{"source":"openstreetmap.org","bus_network":"SIM","bus_shield_text":"134","sort_rank":381,"kind_detail":"trunk","min_zoom":8.0,"kind":"major_road"},"arcs":[[129],[130],[131],[132],[133],[134],[135],[136]]},{"type":"MultiLineString","properties":{"source":"openstreetmap.org","bus_network":"SIM","bus_shield_text":"630","sort_rank":380,"kind_detail":"primary","min_zoom":8.0,"kind":"major_road"},"arcs":[[137],[138]]},{"type":"MultiLineString","properties":{"cycleway_right":"lane","network":"BR:SC","sort_rank":381,"kind_detail":"trunk","is_bicycle_related":true,"kind":"major_road","source":"openstreetmap.org","min_zoom":8.0,"shield_text":"401","ref":"SC-401"},"arcs":[[139],[140]]},{"type":"LineString","properties":{"bus_network":"SIM","network":"BR:SC","sort_rank":380,"kind_detail":"primary","kind":"major_road","source":"openstreetmap.org","min_zoom":8.0,"bus_shield_text":"840","shield_text":"406","landuse_kind":"nature_reserve","ref":"SC-406"},"arcs":[141]},{"type":"LineString","properties":{"bus_network":"SIM","sort_rank":381,"landuse_kind":"urban_area","kind":"major_road","source":"openstreetmap.org","min_zoom":8.0,"bus_shield_text":"233","kind_detail":"trunk"},"arcs":[142]},{"type":"MultiLineString","properties":{"bus_network":"SIM","network":"BR:SC","sort_rank":380,"kind_detail":"primary","kind":"major_road","source":"openstreetmap.org","min_zoom":8.0,"bus_shield_text":"104","shield_text":"404","landuse_kind":"urban_area","ref":"SC-404"},"arcs":[[143],[144],[145]]},{"type":"MultiLineString","properties":{"bus_network":"SIM","network":"BR:SC","sort_rank":380,"kind_detail":"primary","kind":"major_road","source":"openstreetmap.org","min_zoom":8.0,"bus_shield_text":"150","shield_text":"404","landuse_kind":"urban_area","ref":"SC-404"},"arcs":[[146],[147]]},{"type":"LineString","properties":{"source":"openstreetmap.org","bus_network":"SIM","bus_shield_text":"185","sort_rank":381,"kind_detail":"trunk","min_zoom":8.0,"kind":"major_road"},"arcs":[148]},{"type":"LineString","properties":{"kind":"major_road","network":"BR:SC","sort_rank":381,"kind_detail":"trunk","bus_network":"SIM","source":"openstreetmap.org","min_zoom":8.0,"bus_shield_text":"165","shield_text":"401","landuse_kind":"urban_area","ref":"SC-401","id":237289369},"arcs":[149]},{"type":"LineString","properties":{"source":"openstreetmap.org","kind":"major_road","sort_rank":380,"kind_detail":"primary","ref":"SC-405","min_zoom":8.0,"id":451482109},"arcs":[150]},{"type":"LineString","properties":{"source":"openstreetmap.org","kind":"major_road","kind_detail":"trunk","sort_rank":381,"landuse_kind":"urban_area","ref":"BR-282","min_zoom":8.0},"arcs":[151]},{"type":"LineString","properties":{"kind":"highway","network":"BR","sort_rank":383,"landuse_kind":"urban_area","source":"openstreetmap.org","min_zoom":8.0,"all_networks":["BR"],"kind_detail":"motorway","shield_text":"101","ref":"BR-101;BR-282","all_shield_texts":["101"]},"arcs":[152]},{"type":"MultiLineString","properties":{"bus_network":"SIM","network":"BR:SC","sort_rank":381,"kind_detail":"trunk","kind":"major_road","source":"openstreetmap.org","min_zoom":8.0,"bus_shield_text":"263","shield_text":"403","ref":"SC-403"},"arcs":[[153],[154]]},{"type":"MultiLineString","properties":{"source":"openstreetmap.org","kind":"major_road","landuse_kind":"urban_area","sort_rank":380,"kind_detail":"primary","min_zoom":8.0},"arcs":[[155],[156],[157],[158],[159],[160],[161],[162],[163],[164],[165],[166],[167],[168],[169],[170],[171],[172],[173],[174],[175],[176],[177],[178],[179],[180],[181],[182],[183],[184],[185],[186],[187],[188],[189],[190],[191],[192],[193],[194],[195],[196],[197],[198],[199],[200],[201],[202],[203],[204],[205],[206],[207],[208],[209],[210],[211],[212],[213],[214],[215],[216],[217],[218],[219],[220],[221],[222],[223],[224],[225],[226],[227],[228],[229],[230],[231],[232],[233],[234],[235],[236],[237],[238],[239],[240],[241],[242],[243],[244],[245],[246],[247],[248],[249],[250]]},{"type":"LineString","properties":{"bus_network":"SIM","network":"BR:SC","sort_rank":381,"kind_detail":"trunk","is_bicycle_related":true,"cycleway_right":"lane","id":44105270,"source":"openstreetmap.org","min_zoom":8.0,"bus_shield_text":"260","shield_text":"401","ref":"SC-401","kind":"major_road"},"arcs":[251]},{"type":"MultiLineString","properties":{"sort_rank":355,"source":"openstreetmap.org","min_zoom":8.0,"kind":"ferry"},"arcs":[[252],[253]]},{"type":"LineString","properties":{"bus_network":"SIM","network":"BR:SC","sort_rank":381,"kind_detail":"trunk","kind":"major_road","source":"openstreetmap.org","min_zoom":8.0,"bus_shield_text":"185","shield_text":"401","ref":"SC-401"},"arcs":[254]},{"type":"LineString","properties":{"kind":"major_road","network":"BR:SC","sort_rank":380,"kind_detail":"primary","bus_network":"SIM","source":"openstreetmap.org","min_zoom":8.0,"bus_shield_text":"364","shield_text":"406","ref":"SC-406","id":44103325},"arcs":[255]},{"type":"LineString","properties":{"kind":"major_road","network":"BR:SC","sort_rank":380,"kind_detail":"primary","bus_network":"SIM","source":"openstreetmap.org","min_zoom":8.0,"bus_shield_text":"841","shield_text":"406","ref":"SC-406","id":451482106},"arcs":[256]},{"type":"LineString","properties":{"bus_network":"SIM","network":"BR:SC","sort_rank":381,"landuse_kind":"urban_area","kind":"major_road","source":"openstreetmap.org","min_zoom":8.0,"bus_shield_text":"174","shield_text":"401","kind_detail":"trunk","ref":"SC-401"},"arcs":[257]},{"type":"MultiLineString","properties":{"kind":"major_road","network":"BR:SC","sort_rank":380,"kind_detail":"primary","source":"openstreetmap.org","min_zoom":8.0,"landuse_kind":"urban_area","shield_text":"108"},"arcs":[[258],[259]]},{"type":"LineString","properties":{"kind":"major_road","sort_rank":380,"kind_detail":"primary","bus_network":"SIM","source":"openstreetmap.org","min_zoom":8.0,"bus_shield_text":"272","id":231768864},"arcs":[260]},{"type":"LineString","properties":{"bus_network":"SIM","sort_rank":381,"landuse_kind":"urban_area","kind":"major_road","source":"openstreetmap.org","min_zoom":8.0,"bus_shield_text":"177","kind_detail":"trunk"},"arcs":[261]},{"type":"LineString","properties":{"source":"openstreetmap.org","bus_network":"SIM","bus_shield_text":"665","sort_rank":380,"kind_detail":"primary","min_zoom":8.0,"kind":"major_road"},"arcs":[262]},{"type":"LineString","properties":{"kind":"major_road","network":"BR:SC","sort_rank":380,"kind_detail":"primary","bus_network":"SIM","source":"openstreetmap.org","min_zoom":8.0,"bus_shield_text":"410","shield_text":"405","landuse_kind":"nature_reserve","ref":"SC-405","id":468121978},"arcs":[263]},{"type":"LineString","properties":{"kind":"major_road","network":"BR","sort_rank":380,"kind_detail":"primary","source":"openstreetmap.org","min_zoom":8.0,"nat_name":"Rodovia Ulysses Guimar\u00e3es","shield_text":"282","ref":"BR-282"},"arcs":[264]},{"type":"MultiLineString","properties":{"source":"openstreetmap.org","kind":"major_road","sort_rank":381,"kind_detail":"trunk","loc_name":"Elevado Dias Velho","min_zoom":8.0},"arcs":[[265],[266]]},{"type":"MultiLineString","properties":{"source":"openstreetmap.org","bus_network":"SIM","bus_shield_text":"104","sort_rank":380,"kind_detail":"primary","min_zoom":8.0,"kind":"major_road"},"arcs":[[267],[268],[269]]},{"type":"LineString","properties":{"source":"openstreetmap.org","bus_network":"SIM","bus_shield_text":"328","sort_rank":380,"kind_detail":"primary","min_zoom":8.0,"kind":"major_road"},"arcs":[270]},{"type":"MultiLineString","properties":{"source":"openstreetmap.org","bus_network":"SIM","bus_shield_text":"300","sort_rank":380,"kind_detail":"primary","min_zoom":8.0,"kind":"major_road"},"arcs":[[271],[272],[273],[274]]},{"type":"MultiLineString","properties":{"bus_network":"SIM","sort_rank":380,"kind_detail":"primary","kind":"major_road","source":"openstreetmap.org","min_zoom":8.0,"bus_shield_text":"631","landuse_kind":"urban_area"},"arcs":[[275],[276]]},{"type":"MultiLineString","properties":{"bus_network":"SIM","network":"BR:SC","sort_rank":381,"landuse_kind":"urban_area","kind":"major_road","source":"openstreetmap.org","min_zoom":8.0,"bus_shield_text":"210","shield_text":"401","kind_detail":"trunk","ref":"SC-401"},"arcs":[[277],[278],[279],[280]]},{"type":"LineString","properties":{"bus_network":"SIM","network":"BR:SC","sort_rank":380,"kind_detail":"primary","kind":"major_road","source":"openstreetmap.org","min_zoom":8.0,"bus_shield_text":"472","shield_text":"406","ref":"SC-406"},"arcs":[281]},{"type":"LineString","properties":{"source":"openstreetmap.org","bus_network":"SIM","bus_shield_text":"136","sort_rank":380,"kind_detail":"primary","min_zoom":8.0,"kind":"major_road"},"arcs":[282]},{"type":"LineString","properties":{"kind":"major_road","sort_rank":381,"kind_detail":"trunk","bus_network":"SIM","source":"openstreetmap.org","min_zoom":8.0,"bus_shield_text":"150","loc_name":"Elevado do CIC","landuse_kind":"urban_area","id":88463764},"arcs":[283]},{"type":"MultiLineString","properties":{"bus_network":"SIM","network":"BR:SC","sort_rank":381,"kind_detail":"trunk","kind":"major_road","source":"openstreetmap.org","min_zoom":8.0,"bus_shield_text":"210","shield_text":"401","ref":"SC-401"},"arcs":[[284],[285],[286],[287],[288],[289],[290]]},{"type":"MultiLineString","properties":{"sort_rank":380,"kind_detail":"primary","min_zoom":8.0,"kind":"major_road","source":"openstreetmap.org"},"arcs":[[291],[292],[293],[294],[295],[296],[297],[298],[299],[300],[301],[302],[303],[304],[305],[306],[307],[308],[309],[310],[311],[312],[313],[314],[315],[316],[317],[318],[319],[320],[321],[322],[323],[324],[325],[326],[327],[328],[329],[330],[331],[332],[333],[334],[335],[336],[337],[338],[339],[340],[341],[342],[343],[344],[345],[346],[347],[348]]},{"type":"LineString","properties":{"kind":"major_road","sort_rank":381,"kind_detail":"trunk","bus_network":"SIM","source":"openstreetmap.org","min_zoom":8.0,"bus_shield_text":"154","id":43722618},"arcs":[349]},{"type":"LineString","properties":{"kind":"major_road","sort_rank":381,"kind_detail":"trunk","bus_network":"SIM","source":"openstreetmap.org","min_zoom":8.0,"bus_shield_text":"276","ref":"SC-401","id":203830403},"arcs":[350]},{"type":"LineString","properties":{"source":"openstreetmap.org","bus_network":"SIM","bus_shield_text":"630","sort_rank":381,"kind_detail":"trunk","min_zoom":8.0,"kind":"major_road"},"arcs":[351]},{"type":"LineString","properties":{"kind":"major_road","sort_rank":380,"kind_detail":"primary","bus_network":"SIM","source":"openstreetmap.org","min_zoom":8.0,"bus_shield_text":"183","landuse_kind":"nature_reserve","id":124228021},"arcs":[352]},{"type":"LineString","properties":{"kind":"highway","network":"BR","sort_rank":383,"kind_detail":"motorway","source":"openstreetmap.org","min_zoom":8.0,"all_networks":["BR","BR"],"landuse_kind":"urban_area","shield_text":"101","ref":"BR-101","id":297835176,"all_shield_texts":["101","282"]},"arcs":[353]},{"type":"MultiLineString","properties":{"source":"openstreetmap.org","bus_network":"SIM","bus_shield_text":"467","sort_rank":380,"kind_detail":"primary","min_zoom":8.0,"kind":"major_road"},"arcs":[[354],[355]]},{"type":"LineString","properties":{"bus_network":"SIM","sort_rank":381,"landuse_kind":"urban_area","kind":"major_road","source":"openstreetmap.org","min_zoom":8.0,"bus_shield_text":"154","kind_detail":"trunk"},"arcs":[356]},{"type":"LineString","properties":{"cycleway_right":"track","network":"BR:SC","sort_rank":380,"kind_detail":"primary","is_bicycle_related":true,"kind":"major_road","source":"openstreetmap.org","min_zoom":8.0,"shield_text":"410","ref":"SC-410","id":289270764},"arcs":[357]},{"type":"MultiLineString","properties":{"bus_network":"SIM","network":"BR:SC","sort_rank":380,"kind_detail":"primary","is_bicycle_related":true,"kind":"major_road","source":"openstreetmap.org","min_zoom":8.0,"bus_shield_text":"466","shield_text":"406","ref":"SC-406"},"arcs":[[358],[359],[360]]},{"type":"LineString","properties":{"bus_network":"SIM","network":"BR:SC","sort_rank":381,"kind_detail":"trunk","kind":"major_road","source":"openstreetmap.org","min_zoom":8.0,"bus_shield_text":"260","shield_text":"401","ref":"SC-401"},"arcs":[361]},{"type":"MultiLineString","properties":{"bus_network":"SIM","network":"BR:SC","sort_rank":380,"kind_detail":"primary","kind":"major_road","source":"openstreetmap.org","min_zoom":8.0,"bus_shield_text":"271","shield_text":"402","ref":"SC-402"},"arcs":[[362],[363],[364],[365],[366]]},{"type":"MultiLineString","properties":{"bus_network":"SIM","sort_rank":380,"kind_detail":"primary","kind":"major_road","source":"openstreetmap.org","min_zoom":8.0,"bus_shield_text":"104","landuse_kind":"urban_area"},"arcs":[[367],[368]]},{"type":"MultiLineString","properties":{"bus_network":"SIM","network":"BR:SC","sort_rank":381,"kind_detail":"trunk","kind":"major_road","source":"openstreetmap.org","min_zoom":8.0,"bus_shield_text":"840","shield_text":"403","ref":"SC-403"},"arcs":[[369],[370]]},{"type":"LineString","properties":{"bus_network":"SIM","network":"BR:SC","sort_rank":380,"kind_detail":"primary","kind":"major_road","source":"openstreetmap.org","min_zoom":8.0,"bus_shield_text":"463B","shield_text":"405","ref":"SC-405"},"arcs":[371]},{"type":"LineString","properties":{"kind":"major_road","network":"BR:SC","sort_rank":380,"kind_detail":"primary","source":"openstreetmap.org","min_zoom":8.0,"shield_text":"108","ref":"SC-108;SC-410"},"arcs":[372]},{"type":"MultiLineString","properties":{"source":"openstreetmap.org","kind":"major_road","landuse_kind":"urban_area","sort_rank":380,"kind_detail":"primary","is_bicycle_related":true,"min_zoom":8.0},"arcs":[[373],[374]]},{"type":"LineString","properties":{"source":"openstreetmap.org","kind":"major_road","kind_detail":"trunk","sort_rank":381,"landuse_kind":"urban_area","min_zoom":8.0},"arcs":[375]},{"type":"LineString","properties":{"kind":"major_road","sort_rank":380,"kind_detail":"primary","bus_network":"SIM","source":"openstreetmap.org","min_zoom":8.0,"bus_shield_text":"12400","landuse_kind":"urban_area","id":147151551},"arcs":[376]},{"type":"MultiLineString","properties":{"kind":"major_road","network":"BR","sort_rank":381,"landuse_kind":"urban_area","source":"openstreetmap.org","min_zoom":8.0,"kind_detail":"trunk","shield_text":"282","ref":"BR-282"},"arcs":[[377],[378],[379],[380]]},{"type":"LineString","properties":{"kind":"major_road","network":"BR:SC","sort_rank":380,"kind_detail":"primary","source":"openstreetmap.org","min_zoom":8.0,"shield_text":"108","ref":"SC-108"},"arcs":[381]},{"type":"LineString","properties":{"bus_network":"SIM","network":"BR:SC","sort_rank":381,"kind_detail":"trunk","kind":"major_road","source":"openstreetmap.org","min_zoom":8.0,"bus_shield_text":"154","shield_text":"401","ref":"SC-401"},"arcs":[382]},{"type":"LineString","properties":{"bus_network":"SIM","network":"BR:SC","sort_rank":381,"kind_detail":"trunk","kind":"major_road","source":"openstreetmap.org","min_zoom":8.0,"bus_shield_text":"210","shield_text":"403","ref":"SC-403"},"arcs":[383]},{"type":"MultiLineString","properties":{"bus_network":"SIM","sort_rank":381,"landuse_kind":"urban_area","kind":"major_road","source":"openstreetmap.org","min_zoom":8.0,"bus_shield_text":"104","kind_detail":"trunk"},"arcs":[[384],[385]]},{"type":"MultiLineString","properties":{"bus_network":"SIM","network":"BR:SC","sort_rank":380,"kind_detail":"primary","kind":"major_road","source":"openstreetmap.org","min_zoom":8.0,"bus_shield_text":"466","shield_text":"405","ref":"SC-405"},"arcs":[[386],[387],[388]]},{"type":"LineString","properties":{"bus_network":"SIM","network":"BR:SC","sort_rank":380,"kind_detail":"primary","is_bicycle_related":true,"kind":"major_road","source":"openstreetmap.org","min_zoom":8.0,"bus_shield_text":"562","shield_text":"406","ref":"SC-406"},"arcs":[389]},{"type":"LineString","properties":{"kind":"major_road","network":"BR:SC","sort_rank":381,"kind_detail":"trunk","bus_network":"SIM","source":"openstreetmap.org","min_zoom":8.0,"bus_shield_text":"186","shield_text":"401","ref":"SC-401","id":189723681},"arcs":[390]},{"type":"LineString","properties":{"bus_network":"SIM","sort_rank":381,"landuse_kind":"urban_area","kind":"major_road","source":"openstreetmap.org","min_zoom":8.0,"bus_shield_text":"137","kind_detail":"trunk"},"arcs":[391]},{"type":"LineString","properties":{"kind":"major_road","network":"BR:SC","sort_rank":381,"kind_detail":"trunk","source":"openstreetmap.org","min_zoom":8.0,"shield_text":"401","ref":"SC-401"},"arcs":[392]},{"type":"MultiLineString","properties":{"bus_network":"SIM","sort_rank":380,"kind_detail":"primary","kind":"major_road","source":"openstreetmap.org","min_zoom":8.0,"bus_shield_text":"177","landuse_kind":"urban_area"},"arcs":[[393],[394],[395]]},{"type":"MultiLineString","properties":{"bus_network":"SIM","network":"BR:SC","sort_rank":380,"kind_detail":"primary","kind":"major_road","source":"openstreetmap.org","min_zoom":8.0,"bus_shield_text":"300","shield_text":"404","ref":"SC-404"},"arcs":[[396],[397],[398]]},{"type":"MultiLineString","properties":{"bus_network":"SIM","network":"BR:SC","sort_rank":381,"kind_detail":"trunk","kind":"major_road","source":"openstreetmap.org","min_zoom":8.0,"bus_shield_text":"410","shield_text":"401","ref":"SC-401"},"arcs":[[399],[400]]},{"type":"LineString","properties":{"kind":"major_road","network":"BR:SC","sort_rank":380,"kind_detail":"primary","bus_network":"SIM","source":"openstreetmap.org","min_zoom":8.0,"bus_shield_text":"841","shield_text":"406","id":44103663},"arcs":[401]},{"type":"LineString","properties":{"bus_network":"SIM","sort_rank":381,"kind_detail":"trunk","kind":"major_road","source":"openstreetmap.org","min_zoom":8.0,"bus_shield_text":"104","loc_name":"Elevado Dias Velho"},"arcs":[402]},{"type":"MultiLineString","properties":{"kind":"major_road","network":"BR","sort_rank":380,"kind_detail":"primary","source":"openstreetmap.org","min_zoom":8.0,"landuse_kind":"urban_area","shield_text":"486"},"arcs":[[403],[404],[405],[406],[407]]},{"type":"LineString","properties":{"kind":"major_road","network":"BR:SC","sort_rank":381,"kind_detail":"trunk","bus_network":"SIM","source":"openstreetmap.org","min_zoom":8.0,"bus_shield_text":"260","shield_text":"403","ref":"SC-403","id":310613355},"arcs":[408]},{"type":"MultiLineString","properties":{"bus_network":"SIM","sort_rank":380,"kind_detail":"primary","kind":"major_road","source":"openstreetmap.org","min_zoom":8.0,"bus_shield_text":"10200","landuse_kind":"urban_area"},"arcs":[[409],[410],[411],[412],[413]]},{"type":"LineString","properties":{"kind":"major_road","network":"BR","sort_rank":381,"kind_detail":"trunk","bus_network":"SIM","source":"openstreetmap.org","min_zoom":8.0,"bus_shield_text":"630","shield_text":"282","ref":"BR-282","id":35893667},"arcs":[414]},{"type":"LineString","properties":{"source":"openstreetmap.org","kind":"major_road","sort_rank":380,"kind_detail":"primary","ref":"SC-406","min_zoom":8.0,"id":44103666},"arcs":[415]},{"type":"MultiLineString","properties":{"kind":"highway","network":"BR","sort_rank":383,"landuse_kind":"nature_reserve","source":"openstreetmap.org","min_zoom":8.0,"all_networks":["BR"],"kind_detail":"motorway","shield_text":"101","ref":"BR-101","all_shield_texts":["101"]},"arcs":[[416],[417],[418],[419],[420],[421]]},{"type":"MultiLineString","properties":{"kind":"highway","network":"BR","sort_rank":383,"kind_detail":"motorway","source":"openstreetmap.org","min_zoom":8.0,"all_networks":["BR"],"shield_text":"101","ref":"BR-101","all_shield_texts":["101"]},"arcs":[[422],[423],[424],[425],[426],[427],[428],[429],[430],[431],[432],[433],[434],[435],[436],[437],[438],[439],[440],[441],[442],[443],[444],[445],[446],[447],[448],[449],[450],[451],[452],[453]]},{"type":"LineString","properties":{"kind":"major_road","network":"BR","sort_rank":380,"kind_detail":"primary","source":"openstreetmap.org","min_zoom":8.0,"shield_text":"486","id":307671797},"arcs":[454]},{"type":"LineString","properties":{"cycleway_right":"track","sort_rank":380,"kind_detail":"primary","is_bicycle_related":true,"bus_network":"SIM","kind":"major_road","source":"openstreetmap.org","min_zoom":8.0,"bus_shield_text":"177","landuse_kind":"urban_area","id":118881015},"arcs":[455]},{"type":"LineString","properties":{"source":"openstreetmap.org","bus_network":"SIM","bus_shield_text":"134","sort_rank":380,"kind_detail":"primary","min_zoom":8.0,"kind":"major_road"},"arcs":[456]},{"type":"MultiLineString","properties":{"bus_network":"SIM","sort_rank":381,"landuse_kind":"urban_area","kind":"major_road","source":"openstreetmap.org","min_zoom":8.0,"bus_shield_text":"134","kind_detail":"trunk"},"arcs":[[457],[458],[459]]},{"type":"LineString","properties":{"bus_network":"SIM","network":"BR:SC","sort_rank":380,"kind_detail":"primary","kind":"major_road","source":"openstreetmap.org","min_zoom":8.0,"bus_shield_text":"104","loc_name":"Elevado do Itacorubi","landuse_kind":"urban_area","id":230364943,"shield_text":"404"},"arcs":[460]},{"type":"MultiLineString","properties":{"bus_network":"SIM","sort_rank":381,"landuse_kind":"urban_area","kind":"major_road","source":"openstreetmap.org","min_zoom":8.0,"bus_shield_text":"163","kind_detail":"trunk"},"arcs":[[461],[462],[463]]},{"type":"MultiLineString","properties":{"kind":"major_road","network":"BR:SC","sort_rank":381,"kind_detail":"trunk","source":"openstreetmap.org","min_zoom":8.0,"shield_text":"403","ref":"SC-403"},"arcs":[[464],[465],[466],[467]]},{"type":"MultiLineString","properties":{"bus_network":"SIM","network":"BR:SC","sort_rank":381,"kind_detail":"trunk","kind":"major_road","source":"openstreetmap.org","min_zoom":8.0,"bus_shield_text":"410","loc_name":"Elevado da Seta","ref":"SC-401","shield_text":"401"},"arcs":[[468],[469]]},{"type":"MultiLineString","properties":{"source":"openstreetmap.org","bus_network":"SIM","bus_shield_text":"210","sort_rank":381,"kind_detail":"trunk","min_zoom":8.0,"kind":"major_road"},"arcs":[[470],[471],[472]]},{"type":"LineString","properties":{"source":"openstreetmap.org","bus_network":"SIM","bus_shield_text":"328","sort_rank":381,"kind_detail":"trunk","min_zoom":8.0,"kind":"major_road"},"arcs":[473]},{"type":"MultiLineString","properties":{"kind":"highway","network":"BR","sort_rank":383,"landuse_kind":"urban_area","source":"openstreetmap.org","min_zoom":8.0,"all_networks":["BR","BR"],"kind_detail":"motorway","shield_text":"101","ref":"BR-101;BR-282","all_shield_texts":["101","282"]},"arcs":[[474],[475]]},{"type":"MultiLineString","properties":{"kind":"major_road","network":"BR","sort_rank":380,"kind_detail":"primary","source":"openstreetmap.org","min_zoom":8.0,"shield_text":"486","ref":"BR-486;SC-486"},"arcs":[[476],[477],[478],[479],[480],[481]]},{"type":"LineString","properties":{"bus_network":"SIM","network":"BR:SC","sort_rank":380,"kind_detail":"primary","kind":"major_road","source":"openstreetmap.org","min_zoom":8.0,"bus_shield_text":"460","shield_text":"406","ref":"SC-406"},"arcs":[482]},{"type":"LineString","properties":{"bus_network":"SIM","network":"BR:SC","sort_rank":380,"kind_detail":"primary","kind":"major_road","source":"openstreetmap.org","min_zoom":8.0,"bus_shield_text":"840","shield_text":"406","ref":"SC-406"},"arcs":[483]},{"type":"MultiLineString","properties":{"source":"openstreetmap.org","bus_network":"SIM","bus_shield_text":"469","sort_rank":380,"kind_detail":"primary","min_zoom":8.0,"kind":"major_road"},"arcs":[[484],[485],[486]]},{"type":"LineString","properties":{"bus_network":"SIM","sort_rank":381,"landuse_kind":"urban_area","kind":"major_road","source":"openstreetmap.org","min_zoom":8.0,"bus_shield_text":"210","kind_detail":"trunk"},"arcs":[487]},{"type":"LineString","properties":{"kind":"major_road","network":"BR:SC","sort_rank":381,"kind_detail":"trunk","source":"openstreetmap.org","min_zoom":8.0,"shield_text":"403","id":158806939},"arcs":[488]},{"type":"LineString","properties":{"source":"openstreetmap.org","kind":"major_road","sort_rank":380,"kind_detail":"primary","ref":"SC-410","min_zoom":8.0,"id":514037958},"arcs":[489]},{"type":"LineString","properties":{"source":"openstreetmap.org","kind":"major_road","network":"BR:SC","sort_rank":380,"kind_detail":"primary","min_zoom":8.0,"shield_text":"108"},"arcs":[490]},{"type":"LineString","properties":{"bus_network":"SIM","network":"BR:SC","sort_rank":380,"kind_detail":"primary","is_bicycle_related":true,"kind":"major_road","cycleway":"lane","source":"openstreetmap.org","min_zoom":8.0,"bus_shield_text":"410","shield_text":"405","ref":"SC-405","id":131207560},"arcs":[491]},{"type":"MultiLineString","properties":{"source":"openstreetmap.org","kind":"major_road","network":"BR","sort_rank":380,"kind_detail":"primary","min_zoom":8.0,"shield_text":"282"},"arcs":[[492],[493]]},{"type":"MultiLineString","properties":{"source":"openstreetmap.org","kind":"major_road","landuse_kind":"urban_area","sort_rank":380,"kind_detail":"primary","loc_name":"Elevado de Capoeiras","min_zoom":8.0},"arcs":[[494],[495]]},{"type":"LineString","properties":{"kind":"major_road","sort_rank":381,"kind_detail":"trunk","bus_network":"SIM","source":"openstreetmap.org","min_zoom":8.0,"bus_shield_text":"133","id":154687204},"arcs":[496]},{"type":"LineString","properties":{"bus_network":"SIM","network":"BR:SC","sort_rank":380,"kind_detail":"primary","is_bicycle_related":true,"kind":"major_road","cycleway":"opposite_lane","source":"openstreetmap.org","min_zoom":8.0,"bus_shield_text":"463B","shield_text":"405","ref":"SC-405","id":133418473},"arcs":[497]},{"type":"LineString","properties":{"bus_network":"SIM","network":"BR:SC","sort_rank":380,"kind_detail":"primary","kind":"major_road","source":"openstreetmap.org","min_zoom":8.0,"bus_shield_text":"300","shield_text":"406","ref":"SC-406"},"arcs":[498]},{"type":"MultiLineString","properties":{"kind":"highway","network":"BR","sort_rank":383,"landuse_kind":"protected_area","source":"openstreetmap.org","min_zoom":8.0,"all_networks":["BR"],"kind_detail":"motorway","shield_text":"101","ref":"BR-101","all_shield_texts":["101"]},"arcs":[[499],[500],[501],[502],[503],[504],[505],[506],[507],[508],[509],[510]]},{"type":"MultiLineString","properties":{"kind":"highway","network":"BR","sort_rank":383,"kind_detail":"motorway","is_bicycle_related":true,"source":"openstreetmap.org","min_zoom":8.0,"all_networks":["BR"],"shield_text":"101","ref":"BR-101","all_shield_texts":["101"]},"arcs":[[511],[512],[513],[514]]},{"type":"MultiLineString","properties":{"bus_network":"SIM","network":"BR:SC","sort_rank":380,"kind_detail":"primary","kind":"major_road","source":"openstreetmap.org","min_zoom":8.0,"bus_shield_text":"410","shield_text":"405","ref":"SC-405"},"arcs":[[515],[516],[517],[518],[519],[520],[521],[522],[523]]},{"type":"LineString","properties":{"kind":"major_road","network":"BR:SC","sort_rank":380,"kind_detail":"primary","source":"openstreetmap.org","min_zoom":8.0,"landuse_kind":"nature_reserve","shield_text":"406","ref":"SC-406"},"arcs":[524]},{"type":"MultiLineString","properties":{"kind":"major_road","network":"BR","sort_rank":380,"kind_detail":"primary","source":"openstreetmap.org","min_zoom":8.0,"landuse_kind":"urban_area","shield_text":"282"},"arcs":[[525],[526]]},{"type":"LineString","properties":{"bus_network":"SIM","network":"BR","sort_rank":381,"kind_detail":"trunk","kind":"major_road","source":"openstreetmap.org","min_zoom":8.0,"bus_shield_text":"328","shield_text":"282","ref":"BR-282"},"arcs":[527]},{"type":"LineString","properties":{"kind":"major_road","sort_rank":381,"kind_detail":"trunk","bus_network":"SIM","source":"openstreetmap.org","min_zoom":8.0,"bus_shield_text":"104","loc_name":"Elevado do CIC","landuse_kind":"urban_area","id":119666371},"arcs":[528]},{"type":"MultiLineString","properties":{"bus_network":"SIM","sort_rank":380,"kind_detail":"primary","kind":"major_road","source":"openstreetmap.org","min_zoom":8.0,"bus_shield_text":"630","landuse_kind":"urban_area"},"arcs":[[529],[530],[531],[532],[533],[534],[535]]},{"type":"LineString","properties":{"source":"openstreetmap.org","kind":"ferry","name":"Naufragados-Caieira da Barra do Sul","sort_rank":355,"min_zoom":8.0,"id":514500314},"arcs":[536]},{"type":"LineString","properties":{"bus_network":"SIM","network":"BR:SC","sort_rank":380,"kind_detail":"primary","is_bicycle_related":true,"kind":"major_road","source":"openstreetmap.org","min_zoom":8.0,"bus_shield_text":"563","shield_text":"406","ref":"SC-406"},"arcs":[537]},{"type":"LineString","properties":{"kind":"major_road","network":"BR:SC","sort_rank":380,"kind_detail":"primary","bus_network":"SIM","source":"openstreetmap.org","min_zoom":8.0,"bus_shield_text":"261","shield_text":"406","ref":"SC-406","id":238264336},"arcs":[538]},{"type":"LineString","properties":{"bus_network":"SIM","network":"BR:SC","sort_rank":380,"kind_detail":"primary","kind":"major_road","source":"openstreetmap.org","min_zoom":8.0,"bus_shield_text":"104","loc_name":"Elevado do Itacorubi","landuse_kind":"urban_area","ref":"SC-404","id":186508495,"shield_text":"404"},"arcs":[539]},{"type":"LineString","properties":{"kind":"major_road","sort_rank":381,"kind_detail":"trunk","bus_network":"SIM","source":"openstreetmap.org","min_zoom":8.0,"bus_shield_text":"165","landuse_kind":"urban_area","id":313549253},"arcs":[540]},{"type":"LineString","properties":{"sort_rank":355,"source":"openstreetmap.org","min_zoom":8.0,"name":"Passeio Centro - Scuna Sul","kind":"ferry"},"arcs":[541]},{"type":"LineString","properties":{"bus_network":"SIM","network":"BR:SC","sort_rank":380,"kind_detail":"primary","kind":"major_road","source":"openstreetmap.org","min_zoom":8.0,"bus_shield_text":"300","shield_text":"406"},"arcs":[542]},{"type":"MultiLineString","properties":{"source":"openstreetmap.org","kind":"major_road","sort_rank":380,"kind_detail":"primary","is_bicycle_related":true,"min_zoom":8.0},"arcs":[[543],[544],[545]]},{"type":"MultiLineString","properties":{"source":"openstreetmap.org","bus_network":"SIM","bus_shield_text":"104","sort_rank":381,"kind_detail":"trunk","min_zoom":8.0,"kind":"major_road"},"arcs":[[546],[547]]},{"type":"LineString","properties":{"kind":"major_road","network":"BR:SC","sort_rank":381,"kind_detail":"trunk","bus_network":"SIM","source":"openstreetmap.org","min_zoom":8.0,"bus_shield_text":"262","shield_text":"403","ref":"SC-403","id":385774384},"arcs":[548]},{"type":"LineString","properties":{"kind":"major_road","sort_rank":380,"kind_detail":"primary","bus_network":"SIM","source":"openstreetmap.org","min_zoom":8.0,"bus_shield_text":"320","landuse_kind":"urban_area","id":118881018},"arcs":[549]}]},"earth":{"type":"GeometryCollection","geometries":[{"type":"MultiPolygon","properties":{"sort_rank":10,"source":"naturalearthdata.com","min_zoom":0.0,"kind":"earth","area":58966316154},"arcs":[[[550]],[[551]]]}]},"landuse":{"type":"GeometryCollection","geometries":[{"type":"Polygon","properties":{"kind":"protected_area","protect_class":"5","area":2020460032,"sort_rank":17,"operator":"Instituto Chico Mendes de Conserva\u00e7\u00e3o da Biodiversidade","source":"openstreetmap.org","min_zoom":4.0,"tier":2,"id":-3426371,"osm_relation":true},"arcs":[[552]]},{"type":"MultiPolygon","properties":{"kind":"nature_reserve","protect_class":"2","area":900520672,"sort_rank":23,"operator":"Instituto Chico Mendes de Conserva\u00e7\u00e3o da Biodiversidade","source":"openstreetmap.org","min_zoom":6.0,"tier":2,"osm_relation":true},"arcs":[[[553]],[[554]]]},{"type":"Polygon","properties":{"kind":"nature_reserve","protect_class":"2","area":17854200,"sort_rank":23,"operator":"FATMA","source":"openstreetmap.org","min_zoom":8.0,"tier":2,"id":-5956330,"osm_relation":true},"arcs":[[555]]},{"type":"MultiPolygon","properties":{"source":"naturalearthdata.com","kind":"urban_area","name":"","area":591291529,"sort_rank":11,"min_zoom":4.0},"arcs":[[[556]],[[557]],[[558]],[[559]],[[560]]]},{"type":"Polygon","properties":{"kind":"nature_reserve","protect_class":"2","area":1058960000,"sort_rank":23,"operator":"Funda\u00e7\u00e3o do Meio Ambiente de Santa Catarina","source":"openstreetmap.org","min_zoom":4.0,"tier":2,"id":-5441762,"osm_relation":true},"arcs":[[561]]},{"type":"Polygon","properties":{"kind":"nature_reserve","protect_class":"1","area":217179008,"sort_rank":23,"operator":"Instituto Chico Mendes de Conserva\u00e7\u00e3o da Biodiversidade","source":"openstreetmap.org","min_zoom":6.0,"tier":2,"id":255726785},"arcs":[[562]]},{"type":"Polygon","properties":{"kind":"nature_reserve","protect_class":"6","area":21900700,"sort_rank":23,"operator":"Instituto Chico Mendes de Conserva\u00e7\u00e3o da Biodiversidade","source":"openstreetmap.org","min_zoom":8.0,"tier":2,"id":255739504},"arcs":[[563]]},{"type":"Polygon","properties":{"kind":"protected_area","protect_class":"5","area":67530400,"sort_rank":17,"source":"openstreetmap.org","min_zoom":8.0,"tier":2,"id":-7443849,"osm_relation":true},"arcs":[[564],[565],[566]]},{"type":"Polygon","properties":{"kind":"nature_reserve","protect_class":"24","area":25507200,"sort_rank":23,"source":"openstreetmap.org","min_zoom":8.0,"tier":2,"id":-6088080,"osm_relation":true},"arcs":[[567]]}]}},"type":"Topology","transform":{"translate":[-49.21875,-28.304380683],"scale":[0.0003433228,0.0003040173]},"arcs":[[[2493,0],[402,1323],[253,1323],[67,577],[9,288],[-65,238],[-161,347]],[[2493,0],[402,1323],[253,1323],[67,577],[9,288],[-65,238],[-161,347]],[[1529,0],[7,55],[9,32],[107,101],[46,56],[-57,57],[5,75],[38,140],[22,134],[33,98],[5,28],[9,18],[21,17],[22,23],[9,30],[-5,44],[-12,22],[-14,15],[-10,19],[-10,67],[29,193],[21,51],[87,127],[12,59],[-15,9],[-26,3],[-26,10],[-11,35],[10,13],[22,7],[21,11],[5,26],[-28,42],[-105,114],[-16,24],[-17,11],[20,25],[30,24],[16,7],[-10,31],[-40,52],[-9,18],[-4,65],[-10,66],[-19,61],[-27,46],[36,49],[61,66],[57,37],[25,-40],[25,64],[-5,58],[-32,41],[-57,17],[-110,260],[8,62],[23,45],[31,34],[38,28],[33,14],[33,8],[25,16],[10,39],[2,36],[7,29],[11,28],[18,30],[8,-18],[31,-47],[-8,147],[-18,58],[-33,42],[-100,19],[-9,3],[-9,19],[-21,128],[0,46],[4,27],[12,21],[23,29],[97,78],[13,13],[25,9],[54,35],[30,1],[38,-22],[17,-31],[-11,-27],[-44,-10],[20,-39],[25,-4],[31,12],[36,9],[21,17],[-4,41],[-28,77],[23,14],[14,16],[23,39],[-60,16],[-30,55],[-27,38],[-53,-32],[-18,-31],[-12,-33],[-19,-27],[-40,-10],[-42,9],[-25,26],[-56,152],[10,33],[22,27],[21,89],[2262,0],[0,-4096],[-2567,0]],[[2018,2279],[6,-73],[-77,-81],[-26,-53],[43,-23],[-37,-87],[-19,-105],[-4,-243],[4,-12],[11,-4],[23,-3],[27,9],[24,29],[41,64],[23,15],[55,16],[22,15],[11,49],[-44,117],[2,70],[130,227],[31,20],[41,48],[37,59],[22,52],[0,35],[-16,74],[-4,40],[6,34],[13,21],[13,16],[21,62],[31,53],[23,63],[-8,74],[-30,50],[-54,69],[-52,35],[-23,-52],[-33,-25],[-156,-46],[-51,-6],[14,-54],[-21,-33],[-33,-28],[-20,-43],[8,-26],[42,-38],[10,-37],[-5,-20],[-9,-16],[-7,-19],[1,-23],[29,-16],[21,-15],[10,-16],[-3,-38],[-11,-28],[-22,-16],[-35,-6],[-57,-18],[21,-47],[41,-66]],[[1834,4096],[-21,-89],[-22,-27],[-10,-33],[56,-152],[25,-26],[42,-9],[40,10],[19,27],[12,33],[18,31],[53,32],[27,-38],[30,-55],[60,-16],[-23,-39],[-14,-16],[-23,-14],[28,-77],[4,-41],[-21,-17],[-36,-9],[-31,-12],[-25,4],[-20,39],[44,10],[11,27],[-17,31],[-38,22],[-30,-1],[-54,-35],[-25,-9],[-13,-13],[-97,-78],[-23,-29],[-12,-21],[-4,-27],[0,-46],[21,-128],[9,-19],[9,-3],[100,-19],[33,-42],[18,-58],[8,-147],[-31,47],[-8,18],[-18,-30],[-11,-28],[-7,-29],[-2,-36],[-10,-39],[-25,-16],[-33,-8],[-33,-14],[-38,-28],[-31,-34],[-23,-45],[-8,-62],[110,-260],[57,-17],[32,-41],[5,-58],[-25,-64],[-25,40],[-57,-37],[-61,-66],[-36,-49],[27,-46],[19,-61],[10,-66],[4,-65],[9,-18],[40,-52],[10,-31],[-16,-7],[-30,-24],[-20,-25],[17,-11],[16,-24],[105,-114],[28,-42],[-5,-26],[-21,-11],[-22,-7],[-10,-13],[11,-35],[26,-10],[26,-3],[15,-9],[-12,-59],[-87,-127],[-21,-51],[-29,-193],[10,-67],[10,-19],[14,-15],[12,-22],[5,-44],[-9,-30],[-22,-23],[-21,-17],[-9,-18],[-5,-28],[-33,-98],[-22,-134],[-38,-140],[-5,-75],[57,-57],[-46,-56],[-107,-101],[-9,-32],[-7,-55]],[[2284,2959],[-33,-25],[-156,-46],[-51,-6],[14,-54],[-21,-33],[-33,-28],[-20,-43],[8,-26],[42,-38],[10,-37],[-5,-20],[-9,-16],[-7,-19],[1,-23],[29,-16],[21,-15],[10,-16],[-3,-38],[-11,-28],[-22,-16],[-35,-6],[-57,-18],[21,-47],[41,-66],[6,-73],[-77,-81],[-26,-53],[43,-23],[-37,-87],[-19,-105],[-4,-243],[4,-12],[11,-4],[23,-3],[27,9],[24,29],[41,64],[23,15],[55,16],[22,15],[11,49],[-44,117],[2,70],[130,227],[31,20],[41,48],[37,59],[22,52],[0,35],[-16,74],[-4,40],[6,34],[13,21],[13,16],[21,62],[31,53],[23,63],[-8,74],[-30,50],[-54,69],[-52,35],[-23,-52]],[[2117,2710],[-1,-2]],[[1813,2310],[9,-3]],[[1822,2308],[-8,2]],[[1849,2307],[9,0],[1,1],[3,2]],[[1862,2310],[13,9]],[[1886,2324],[-24,-14]],[[1862,2310],[-3,-2],[-1,-1],[-9,0]],[[2172,2313]],[[2084,2098],[-5,-13]],[[2044,2313],[1,2]],[[2179,2741],[-50,-29]],[[2129,2712],[51,29]],[[2218,2785],[0,24]],[[2218,2795],[0,-8]],[[1515,328],[-10,-103]],[[1506,225],[9,103]],[[1583,2149],[-7,-9],[-1,-3]],[[1576,2137],[2,5]],[[1674,2720],[-28,-36],[-10,-20],[3,-15],[42,-44],[12,-31],[9,-19],[11,-20],[16,-14],[1,-1]],[[1730,2520],[11,-14],[2,-8]],[[1743,2498],[2,-8],[1,-25],[1,-4]],[[1747,2461],[0,-1]],[[1747,2460],[1,-3],[14,-36],[-9,-64]],[[1753,2354],[10,50],[-2,26],[-6,12],[-8,18]],[[1747,2460],[0,1]],[[1747,2461],[-1,10],[-1,14],[-1,10],[-1,3]],[[1743,2498],[-13,22]],[[1730,2520],[-1,1],[-21,24],[-27,60],[-42,44],[36,67]],[[0,2047],[40,53],[127,12],[56,-87],[86,26],[142,-54],[157,62],[70,-39],[44,9],[107,-113],[145,9]],[[974,1925],[7,5]],[[981,1930],[157,54],[65,-12]],[[1203,1972],[4,3]],[[1207,1975],[59,88]],[[1266,2063],[5,2]],[[1271,2065],[29,12],[82,-34]],[[1382,2043],[2,-4],[3,-2],[-3,2],[-2,4]],[[1441,2025],[29,3]],[[1470,2028],[7,9]],[[1498,2053],[-21,-16]],[[1498,2053],[9,6]],[[1507,2059],[64,74]],[[1571,2133],[1,0]],[[1572,2134],[-1,-1]],[[2216,2860],[1,-32]],[[2079,2357],[-23,-11]],[[883,3950],[2,25]],[[894,4024],[-9,-49]],[[885,3975],[3,-2]],[[888,3973],[6,51]],[[888,3973],[4,-19]],[[894,4024],[13,10]],[[937,4060],[-29,-25]],[[937,4060],[1,1]],[[937,4061],[0,-1]],[[939,4063],[-1,-1]],[[938,4061],[1,2]],[[955,4095],[-16,-32]],[[2121,2324],[4,-6]],[[1814,4076],[1,-12],[-40,-59],[-18,-12],[-7,-12],[22,-165]],[[1772,3815],[-22,166],[25,24],[40,59],[-1,12]],[[1932,2327],[5,-2]],[[1946,2318],[5,-4]],[[2041,2355],[8,-11]],[[2045,2317],[1,0]],[[2046,2318],[4,20]],[[2125,2318],[37,0]],[[1951,2314],[8,-9]],[[1959,2305],[4,66]],[[1963,2370],[3,-4]],[[1672,3468],[8,6]],[[1947,1993],[-40,-74],[17,-73],[-47,-65],[-1,-43],[45,-50],[-22,-32],[15,-50]],[[2176,2209],[0,-1]],[[2280,2369],[4,25]],[[2378,2845],[-1,5]],[[1936,2360],[-15,-5]],[[1955,2368],[-15,-6]],[[1984,2408],[-12,-8]],[[1919,2325],[-5,9]],[[2250,2804],[65,15],[38,30]],[[2353,2849],[-73,-35]],[[1063,3413],[2,0]],[[1086,3418],[3,1]],[[1981,2107],[-19,1]],[[1985,2107],[-4,0]],[[2003,2112],[-18,-5]],[[2003,2112],[2,0]],[[2010,2117],[-7,-5]],[[2009,2114],[1,3]],[[2024,2142],[-14,-25]],[[2031,2164],[-6,-19]],[[2217,2828],[1,-28]],[[1954,2290],[2,11]],[[1676,2271]],[[2057,2346],[22,11]],[[880,3358],[-1,0],[0,-1],[1,0],[0,1]],[[1284,3415],[1,-1],[0,1],[-1,0]],[[1060,3413],[-108,-78],[-72,23]],[[1063,3414],[-3,-1]],[[1060,3413],[3,0]],[[1089,3419],[2,2]],[[1091,3421],[-2,-1]],[[1284,3415],[-193,6]],[[1617,3447],[-86,-31],[-66,26],[-180,-27]],[[1615,3451],[2,-4]],[[1617,3447],[55,21]],[[1712,3500],[-50,-32]],[[1680,3474],[32,19]],[[1739,2319],[-1,1]],[[2021,2388]],[[2032,2389],[-5,-2]],[[2028,2386],[20,8]],[[1902,2884],[12,75],[324,-67],[-336,-8]],[[871,3943],[-24,-19]],[[872,3944],[11,6]],[[998,4096],[-7,-17]],[[1917,2331],[2,-10],[4,-1]],[[1923,2320],[11,-1]],[[1924,2322],[-1,-2]],[[1923,2320],[-1,-1]],[[1952,2300],[-13,17],[-15,6]],[[1931,2328],[0,-4]],[[1935,2318],[20,-24]],[[2361,2850],[0,-1]],[[1921,2355],[-4,-24]],[[1940,2362],[-4,-2]],[[1963,2379],[-8,-11]],[[1972,2400],[-1,-3]],[[1995,2406],[-9,2]],[[1986,2408],[-2,0]],[[1985,2408],[1,0]],[[1986,2408],[7,2],[8,-2]],[[1857,2360],[11,-12]],[[1879,2329],[-20,38]],[[2218,2809],[0,2]],[[2218,2800],[0,-5]],[[2285,2403],[-9,51],[40,118]],[[2050,2340],[-5,-21]],[[2097,2361],[-43,30]],[[2092,2364],[5,-3]],[[2097,2361],[24,-37]],[[2048,2394],[11,-4]],[[2082,2374],[10,-10]],[[1958,2293],[-6,7]],[[2056,2408],[-8,-13]],[[2090,2115]],[[1754,2361],[8,-4]],[[1586,2155],[-3,-6]],[[2363,2850],[-10,-1]],[[2353,2849],[10,1]],[[991,4079]],[[1577,2139],[73,100],[89,80],[11,25]],[[1676,2271],[-41,-47],[-50,-70]],[[1639,2679],[1,-1]],[[1640,2678],[0,1]],[[1763,2430],[-17,49],[-62,124],[-47,52],[-1,5],[1,2]],[[1637,2662],[2,15],[1,1]],[[1652,2686],[10,6]],[[1659,2690],[-14,-5],[-8,-23]],[[1637,2662],[-2,-3],[1,-4],[109,-185]],[[1699,2297],[-23,-26]],[[1681,2211],[44,56]],[[1693,2446],[-34,62],[33,-63]],[[1693,2445],[53,-81]],[[1746,2366],[-4,7],[-49,72]],[[1701,2300],[-2,-3]],[[1738,2320],[-18,-9],[-19,-11]],[[1727,2289],[-3,3]],[[1724,2292]],[[1725,2267],[73,48]],[[1759,2312],[-2,0]],[[1757,2312],[-8,-2],[-17,-9],[-8,-9]],[[1724,2292],[-3,-3],[4,-22]],[[1762,2406],[-5,-31]],[[1757,2375],[-1,-4],[-5,-9],[2,-5],[-15,-37]],[[1738,2320],[6,40],[2,5],[6,7],[5,3]],[[1757,2375],[1,1]],[[1748,2338],[15,-3]],[[1750,2344],[8,1],[4,-2],[2,0]],[[1764,2343],[2,-1]],[[1766,2342],[20,-14]],[[1750,2344],[16,5]],[[1757,2437],[4,-20]],[[1757,2312]],[[1757,2312],[1,-3]],[[1758,2371],[6,25],[-1,9]],[[1763,2405],[0,2]],[[1758,2312],[1,1]],[[1759,2313],[2,1],[5,26]],[[1766,2340],[0,2]],[[1766,2342],[2,7],[0,2],[-2,1]],[[1759,2313],[3,20]],[[1759,2309],[0,3]],[[1783,2316],[-24,-4]],[[1760,2429],[3,-1]],[[1763,2405]],[[1763,2405],[-1,-1]],[[1762,2333],[2,10]],[[1764,2343],[2,6]],[[1763,2418],[0,9]],[[1764,2428],[-1,1]],[[1763,2427],[1,1]],[[1763,2429],[0,-1]],[[1763,2428],[0,-1]],[[1763,2427],[3,0]],[[1766,2349],[0,3]],[[1786,2325],[-19,15],[-1,0]],[[1766,2340]],[[1766,2352],[0,1]],[[1773,3911],[1,-13]],[[1773,3832],[7,5]],[[1779,3837],[-6,-2]],[[1784,3871],[-9,-7]],[[1778,3900],[-2,6],[0,-3],[2,-3]],[[1778,3900],[25,-42]],[[1803,3858],[1,-1],[14,-24]],[[1780,3838],[2,4]],[[1782,3842],[9,7],[12,9]],[[1803,3858]],[[1802,3859],[-20,-17]],[[1782,2312],[4,6]],[[1785,2346],[1,9]],[[1785,2346],[0,-4]],[[1785,2345],[0,1]],[[1785,2342],[0,1]],[[1785,2333],[0,9]],[[1785,2343],[0,2]],[[1805,2317],[-3,4],[-13,20]],[[1789,2341],[-3,4],[-1,0]],[[1785,2343],[4,-2]],[[1789,2341],[4,-2]],[[1818,3833],[-29,48]],[[1789,2316],[7,-1],[20,2]],[[1816,2317],[-25,-1]],[[1818,3833],[3,-5]],[[1820,2342],[-2,-24]],[[1818,2317],[2,-7]],[[1819,2318],[1,24]],[[1821,2308],[-2,9]],[[1822,2317],[29,5]],[[1851,2322],[-29,-5]],[[1859,2367],[-5,-2]],[[2057,2346],[-1,0]],[[1692,2445],[1,0],[0,1],[-1,0],[0,-1]],[[1780,3837],[0,1]],[[1780,3838],[-1,0],[1,-1]],[[2218,2811],[-1,17]],[[2092,1826],[100,182]],[[2209,2510],[11,-129],[-21,-80]],[[2005,2272],[-47,21]],[[2204,2295],[-28,-86]],[[2091,2114],[-1,1]],[[2048,2394],[7,11]],[[908,4035],[-1,0],[0,-1],[1,0],[0,1]],[[938,4062],[-1,-1],[1,0],[0,1]],[[2132,2839],[1,5]],[[2049,2344],[1,-4]],[[1890,2326],[-10,-8]],[[2086,2119],[1,-1]],[[1387,2037],[54,-12]],[[1919,2321],[12,0]],[[1939,2317],[-5,4]],[[1921,2354],[43,23]],[[1966,2366],[-9,-64],[-14,12]],[[1970,2397],[11,8]],[[1868,2348],[7,-30]],[[2178,2306],[-6,7]],[[2172,2313],[6,-8],[9,-7],[4,2]],[[2191,2300],[-12,5]],[[2191,2300],[13,-5]],[[1791,2316],[-8,0]],[[1786,2318],[-1,15]],[[2055,2405],[1,3]],[[2056,2408],[1,3],[4,10],[7,10]],[[2069,2431],[-13,-23]],[[2056,2408]],[[2091,2115],[1,-1]],[[1957,2302],[-3,-12]],[[2021,2388],[7,-2]],[[2051,2636],[8,-101],[36,-61],[-1,-1],[-5,-10]],[[2089,2463],[-20,-32]],[[2129,2712],[-16,-7],[-43,-47],[-6,-5],[-7,-7]],[[2068,2431],[21,32]],[[2089,2463],[5,10],[1,0],[-36,62],[-7,101],[77,76]],[[2218,2787],[-39,-46]],[[2180,2741],[38,44]],[[1529,129],[-5,4]],[[1527,133]],[[1533,131],[-3,3]],[[1572,2134],[0,-1]],[[1572,2133],[29,-80],[-26,80]],[[1573,2133],[0,1]],[[1574,2134],[-1,0]],[[1625,2109],[1,-1]],[[1712,3493],[3,14]],[[1714,3525],[-2,-25]],[[1769,3751],[-1,-21]],[[1820,2310],[6,-21]],[[1821,3828],[12,-19]],[[1826,2289],[-5,19]],[[1851,2322],[20,4]],[[1871,2326],[-20,-4]],[[1855,2333],[16,-7]],[[1879,2334],[-23,0]],[[1867,2365],[-8,2]],[[1867,2365],[-3,14]],[[1880,2318],[10,9]],[[1890,2327],[3,4],[-7,8]],[[1886,2339],[-19,26]],[[1877,2329],[-6,-3]],[[1871,2326]],[[1871,2326],[6,2],[3,6]],[[1875,2328],[-4,-2]],[[1875,2318],[-1,-5]],[[1890,2328],[-11,1]],[[1885,2344],[1,-5]],[[1886,2339],[1,-1]],[[1887,2338],[3,-10]],[[1889,2335],[-1,1],[-1,2]],[[1887,2338],[-1,0],[-1,-4]],[[1890,2328],[0,-1]],[[1890,2327],[0,-1]],[[1959,2310],[-8,7],[-7,3]],[[1944,2320],[-1,1]],[[1943,2321],[-21,9]],[[1922,2330],[-4,2],[-5,4]],[[1919,2324],[1,4],[2,2]],[[1922,2330]],[[1937,2325],[6,-4]],[[1943,2321],[1,-1]],[[1944,2320],[2,-2]],[[1943,2314],[-1,2],[2,4]],[[1944,2320]],[[1944,2320],[0,1]],[[1947,2310],[9,-11]],[[1956,2299],[1,-2]],[[1956,2299],[1,-1]],[[1957,2300],[2,5]],[[1962,2371],[1,-1]],[[1963,2371],[-1,0]],[[2068,1967],[0,-1]],[[2131,2825],[1,14]],[[2179,2305],[-1,1]],[[2189,2299],[1,1]],[[1955,2294],[2,-2]],[[2216,2860],[0,1]],[[1931,2324],[-44,0]],[[2025,2145],[-1,-3]],[[1578,2142],[5,8]],[[1956,2026],[-12,-22]],[[2005,2112],[4,2]],[[2050,2338],[-20,29]],[[1662,3468],[-47,-17]],[[2069,1967],[1,0]],[[2070,1967],[-1,0]],[[2070,1967],[3,-67]],[[2217,2828],[-1,32]],[[2108,2782],[2,7]],[[2118,2713],[-10,69]],[[2110,2789],[21,36]],[[2115,2703],[3,10]],[[2118,2713],[-1,-3]],[[1964,2377],[6,20]],[[2079,2357],[13,7]],[[2363,2850],[7,0]],[[2370,2850],[-7,0]],[[2079,2085],[-1,0]],[[1089,3420],[-26,-6]],[[1773,3815],[3,87]],[[1785,2346],[-3,2]],[[2045,2317],[0,-1]],[[1788,2359],[-2,-4]],[[1814,2310],[-26,33],[-34,18]],[[1762,2357],[51,-47]],[[1849,2307],[-27,1]],[[1822,2307],[27,0]],[[955,4096],[0,-1]],[[1957,2292],[52,-25]],[[2227,2801],[-10,0]],[[2026,2379],[15,-24]],[[2043,2393],[-15,-6]],[[2077,2084],[-9,-116]],[[2077,2084],[2,1]],[[2078,2085],[-1,-1]],[[2073,1900],[-9,-124]],[[2010,2264],[-5,8]],[[2045,2316],[-1,-3]],[[2057,2646],[-6,-10]],[[2056,2346],[-7,-1]],[[2090,2366],[-10,-8]],[[2091,2364],[1,1]],[[2162,2318],[7,0]],[[2169,2318],[3,-5]],[[2172,2313],[-3,5]],[[2009,2267],[5,-59],[7,-24],[0,-2],[4,-14],[1,-2]],[[2026,2166],[-16,98]],[[2090,2115]],[[1934,2321],[-12,-2]],[[892,3954],[-9,-4]],[[892,3954],[4,3]],[[990,4078],[-94,-121]],[[990,4078],[1,1],[-1,-1]],[[872,3944],[-1,0],[0,-1],[1,1]],[[2280,2814],[-30,-10]],[[1745,2470],[12,-33]],[[1760,2429],[46,-28]],[[1761,2417],[2,1]],[[1806,2401],[1,-1]],[[1807,2400],[-1,1]],[[1887,2324],[-1,0]],[[2090,2115],[1,0]],[[1640,1257],[12,34]],[[1650,1286],[-8,-23]],[[1692,1493],[-13,-45]],[[1680,1448],[12,45]],[[1696,1697],[-6,-64],[22,-42]],[[1713,1591],[-15,128]],[[1505,225],[3,-108],[-26,-70]],[[1482,47],[26,70],[-2,108]],[[1637,1254],[-63,-117],[-4,-25],[0,-3],[1,-47],[0,-8]],[[1571,1054],[0,-1],[0,-1]],[[1571,1052],[-27,-33],[-11,-18],[-69,-166],[-3,-31],[26,-117],[24,-69],[1,-2],[1,-2]],[[1513,614],[18,-40],[0,-97]],[[1531,477],[0,-2],[-16,-147]],[[1515,328],[16,147],[0,2]],[[1531,477],[-18,137]],[[1513,614],[0,3],[-51,187],[2,30],[21,50],[14,25],[12,18],[14,20],[11,40],[5,11],[30,54]],[[1571,1052],[0,2]],[[1571,1054],[1,1],[3,81],[23,42],[38,73]],[[1575,2137],[60,-172],[72,-158],[-11,-110]],[[1698,1719],[7,34],[0,2],[6,10],[-4,42],[-33,103],[-4,11],[-6,10],[-29,35],[-59,171]],[[1637,1253],[3,4]],[[1642,1263],[-3,-6]],[[1652,1295],[-2,-9]],[[1652,1291],[2,9]],[[1666,1402],[-2,-8],[-5,-73],[-5,-21]],[[1656,1305],[3,16],[7,77]],[[1712,3484],[12,-275],[-18,-65],[23,-246],[-49,-142],[-6,-36]],[[1675,2716],[9,12],[-3,24],[7,26],[10,17],[0,1],[6,9],[26,92],[-23,248],[17,64],[-12,275]],[[1679,1448],[-1,-2]],[[1679,1446],[1,2]],[[1694,1501],[-2,-8]],[[1692,1493],[2,8]],[[1698,1513],[-1,-2]],[[1697,1511],[-1,-4]],[[1696,1508],[1,3]],[[1697,1511],[2,8]],[[1712,1591],[0,-43]],[[1713,1573],[0,18]],[[820,3874],[-1,-1],[1,0],[0,1]],[[2080,2358],[-1,-1]],[[1917,2331],[15,-4]],[[1971,2397],[-8,-18]],[[2030,2367],[-35,39]],[[2001,2408],[25,-29]],[[2048,2395],[-3,-1]],[[2045,2315],[0,2]],[[2045,2319],[0,-2]],[[2046,2317],[0,1]],[[2223,2801],[27,3]],[[2250,2804],[-23,-3]],[[2402,2855],[-32,-5]],[[2370,2850],[32,4]],[[2026,2166],[7,-7]],[[2033,2159],[-7,7]],[[1916,2352],[47,22]],[[1963,2374],[1,4]],[[1969,2396],[16,12]],[[1886,2323],[49,-5]],[[1583,2150],[156,169],[9,19],[5,16]],[[1753,2357],[-167,-202]],[[819,3873],[-83,-58]],[[819,3873],[1,0]],[[820,3874],[-1,-1]],[[847,3924],[-27,-50]],[[820,3874]],[[998,4096]],[[2176,2208],[-24,-66],[-60,-28]],[[2316,2572],[14,142],[40,75]],[[2067,1966],[-123,38]],[[2067,1966],[2,1]],[[2068,1966],[-1,0]],[[1964,2378],[5,18]],[[2402,2855],[0,-1],[0,1]],[[880,3357],[1,0]],[[1063,3414],[-1,-1],[1,0],[1,0],[-1,1]],[[2088,2112],[-4,-14]],[[1575,2137],[-3,-3]],[[1572,2133],[4,4]],[[1822,2317],[-6,0]],[[1816,2317],[6,0]],[[1963,2374]],[[2079,2085]],[[2263,2282],[17,87]],[[1458,0],[20,36],[4,11]],[[1482,47],[-25,-47]],[[1636,1251],[1,2]],[[1639,1257],[-2,-3]],[[1654,1300],[-2,-5]],[[1654,1300],[2,5]],[[1666,1398],[13,48]],[[1678,1446],[-12,-44]],[[1696,1507],[-2,-6]],[[1694,1501],[2,7]],[[1712,1548],[-14,-35]],[[1699,1519],[14,54]],[[1772,3816],[-6,-158],[-54,-174]],[[1712,3484],[53,165],[2,19],[5,147]],[[1811,4096],[3,-20]],[[1814,4076],[-1,12],[-2,8]],[[2033,2159],[5,-5]],[[2038,2154],[-5,5]],[[2038,2154],[48,-35]],[[2087,2118],[2,-2]],[[2089,2114],[-1,-2]],[[2089,2114],[1,1]],[[2090,2115],[-1,-1]],[[2089,2116],[1,-1]],[[2090,2116],[-1,0]],[[2284,2394],[1,9]],[[1585,2154],[-10,-17]],[[1576,2137],[1,2]],[[1875,2319],[11,4]],[[2028,2387],[-5,0]],[[1792,2364],[-4,-5]],[[1792,2364],[15,36]],[[1807,2400],[5,-3]],[[1812,2397],[-5,3]],[[1812,2397],[32,-20]],[[1844,2377],[13,-17]],[[1859,2367],[-15,10]],[[1907,1603],[-23,-62],[33,2]],[[2064,1776],[8,-51]],[[2370,2789],[8,56]],[[2054,2391],[-6,4]],[[2048,2395],[-5,-2]],[[1911,2335],[-18,337],[21,287]],[[2204,2295],[59,-13]],[[1769,3714],[4,101]],[[1956,2026],[106,19]],[[2069,1967],[-1,0]],[[1914,2334],[2,18]],[[1922,2319],[-3,6]],[[2222,2801],[1,0]],[[2091,2366],[-1,0]],[[1969,1604],[-27,-9],[-23,3],[-11,4],[-4,12],[4,243],[19,105],[37,87],[-43,23],[26,53],[77,81],[-6,73],[-41,66],[-21,47],[57,18],[35,6],[22,16],[11,28],[3,38],[-10,16],[-21,15],[-29,16],[-1,23],[7,19],[9,16],[5,20],[-10,37],[-42,38],[-8,26],[20,43],[33,28],[21,33],[-14,54],[51,6],[156,46],[33,25],[23,52],[52,-35],[54,-69],[30,-50],[8,-74],[-23,-63],[-31,-53],[-21,-62],[-13,-16],[-13,-21],[-6,-34],[4,-40],[16,-74],[0,-35],[-22,-52],[-37,-59],[-41,-48],[-31,-20],[-130,-227],[-2,-70],[44,-117],[-11,-49],[-22,-15],[-55,-16],[-23,-15],[-41,-64],[-24,-29]],[[0,4096],[1834,0],[-21,-89],[-22,-27],[-10,-33],[56,-152],[25,-26],[42,-9],[40,10],[19,27],[12,33],[18,31],[53,32],[27,-38],[30,-55],[60,-16],[-23,-39],[-14,-16],[-23,-14],[28,-77],[4,-41],[-21,-17],[-36,-9],[-31,-12],[-25,4],[-20,39],[44,10],[11,27],[-17,31],[-38,22],[-30,-1],[-54,-35],[-25,-9],[-13,-13],[-97,-78],[-23,-29],[-12,-21],[-4,-27],[0,-46],[21,-128],[9,-19],[9,-3],[100,-19],[33,-42],[18,-58],[8,-147],[-31,47],[-8,18],[-18,-30],[-11,-28],[-7,-29],[-2,-36],[-10,-39],[-25,-16],[-33,-8],[-33,-14],[-38,-28],[-31,-34],[-23,-45],[-8,-62],[110,-260],[57,-17],[32,-41],[5,-58],[-25,-64],[-25,40],[-57,-37],[-61,-66],[-36,-49],[27,-46],[19,-61],[10,-66],[4,-65],[9,-18],[40,-52],[10,-31],[-16,-7],[-30,-24],[-20,-25],[17,-11],[16,-24],[105,-114],[28,-42],[-5,-26],[-21,-11],[-22,-7],[-10,-13],[11,-35],[26,-10],[26,-3],[15,-9],[-12,-59],[-87,-127],[-21,-51],[-29,-193],[10,-67],[10,-19],[14,-15],[12,-22],[5,-44],[-9,-30],[-22,-23],[-21,-17],[-9,-18],[-5,-28],[-33,-98],[-22,-134],[-38,-140],[-5,-75],[57,-57],[-46,-56],[-107,-101],[-9,-32],[-7,-55],[-1529,0],[0,4096]],[[1449,0],[1,5],[128,169],[102,77],[-20,63],[-54,4],[13,60],[-85,-47],[22,50],[-18,22],[100,68],[-19,42],[63,95],[3,18],[-48,18],[-20,145],[82,-35],[6,-20],[15,-3],[43,79],[-16,59],[30,47],[-7,22],[-38,-1],[-22,49],[35,136],[-12,36],[148,219],[-6,28],[-61,-18],[-15,73],[30,39],[35,-13],[24,54],[32,-10],[45,31],[57,148],[44,10],[7,-32],[38,-9],[31,30],[-7,40],[30,12],[196,-240],[-205,-194],[-79,-184],[-207,-967],[-21,-175],[-400,0]],[[0,4096],[496,0],[16,-53],[-26,-34],[27,2],[-13,-19],[33,-27],[-46,-17],[59,-53],[-58,10],[-36,-36],[-75,-8],[108,-65],[6,38],[65,-10],[16,-62],[-73,-58],[-111,-31],[-101,38],[31,72],[-67,18],[-30,-57],[5,-43],[38,-14],[-13,-29],[-227,-27],[35,-20],[-59,-28],[0,513]],[[0,3541],[0,15],[10,-11],[-10,-4]],[[2231,2510],[108,80],[59,147],[21,-2],[14,-29],[-102,-146],[-26,-143],[-38,-42],[-25,27],[28,44],[-39,64]],[[1652,188],[-39,-36],[-168,114],[58,61],[141,17],[-3,-43],[57,-57],[-46,-56]],[[2058,2202],[-34,8],[-6,69],[-62,113],[112,39],[121,-82],[-131,-147]],[[1863,2395],[-20,-122],[-25,40],[-57,-37],[-97,-115],[13,-22],[-92,-8],[-59,36],[-16,-38],[-31,32],[63,151],[0,73],[65,0],[-3,262],[32,72],[31,18],[107,-284],[57,-17],[32,-41]],[[1781,3808],[-45,39],[-33,102],[33,81],[96,56],[-51,-139],[43,-117],[-43,-22]],[[1028,4062],[-4,-32],[-64,0],[0,-73],[-65,-73],[-42,4],[-23,142],[-32,-1],[36,65],[188,2],[6,-34]],[[668,1679],[29,39],[61,-22],[59,48],[94,139],[213,37],[62,-58],[45,5],[-20,-69],[30,6],[-65,-57],[-2,-36],[-58,-37],[-17,-40],[23,-7],[66,54],[13,42],[41,-5],[12,75],[37,10],[-15,147],[32,-17],[-12,-27],[112,12],[-4,17],[24,-50],[65,30],[34,-38],[3,57],[73,23],[50,-29],[25,-75],[8,-191],[-56,18],[-15,-56],[-60,31],[-4,-46],[141,-116],[26,36],[70,21],[-18,31],[54,-2],[-53,-138],[43,-77],[-45,-42],[28,-27],[37,21],[41,88],[-21,-96],[-93,-67],[-123,12],[21,57],[32,-30],[54,6],[3,58],[-43,99],[-68,14],[5,-37],[-102,74],[23,-89],[-36,-28],[-159,57],[69,-136],[49,15],[3,-63],[-72,-50],[-75,8],[-18,-30],[-15,-155],[-46,-35],[24,-39],[-56,-86],[25,-64],[-77,-65],[13,-74],[-79,-74],[14,-154],[-108,-151],[-103,162],[53,163],[52,28],[17,66],[-24,1],[-10,53],[20,8],[-25,53],[71,180],[-78,41],[-24,63],[34,35],[-50,91],[30,87],[-66,70],[54,44],[-38,67],[-47,0],[-5,28],[-88,-8],[-33,20],[0,-35],[-28,9],[-14,123],[-49,49]],[[2311,3350],[0,418],[339,0],[0,-463],[-140,0],[-51,51],[-148,-6]],[[1883,2075],[23,129],[71,34],[49,-94],[61,-26],[-63,-57],[0,82],[-15,-26],[-60,11],[-66,-53]],[[1586,1157],[32,47],[1,9],[17,34],[1,6],[21,59],[2,0],[6,91],[-28,55],[41,42],[18,8],[16,77],[-1,-42],[38,20],[-19,38],[21,96],[-58,-48],[-2,12],[61,45],[-3,-119],[87,-4],[16,-72],[36,16],[-23,-62],[-15,30],[-38,-15],[-6,-72],[22,-23],[49,24],[8,-31],[-33,-77],[-100,-107],[-32,-231],[-39,19],[47,140],[-8,55],[-48,3],[-47,-55],[-5,26],[-35,6]],[[1637,1253],[139,-14],[78,70],[20,96],[-41,-87],[-35,-22],[-14,34],[31,35],[-44,55],[54,159],[-56,3],[18,-31],[-69,-21],[-17,-29],[-22,-1],[-22,-49],[49,-10],[41,-98],[-2,-55],[-54,-7],[-33,30],[-21,-58]],[[1750,1577],[4,-7],[8,0],[-1,13],[-11,-6]],[[1569,1779],[50,21],[84,-44],[-11,-91],[57,30],[-6,-116],[-72,27],[-102,173]]]}