{"objects":{"water":{"type":"GeometryCollection","geometries":[{"type":"Polygon","properties":{"source":"naturalearthdata.com","kind":"ocean","area":1576712559132672,"sort_rank":200,"min_zoom":0.0,"id":1},"arcs":[[2]]},{"type":"LineString","properties":{"source":"naturalearthdata.com","kind":"ocean","sort_rank":205,"boundary":true,"min_zoom":0.0,"id":75},"arcs":[3]}]},"buildings":{"type":"GeometryCollection","geometries":[]},"places":{"type":"GeometryCollection","geometries":[{"type":"Point","properties":{"source":"openstreetmap.org","kind":"locality","name":"Tubar\u00e3o","kind_detail":"city","population":102883,"min_zoom":8.0,"id":415524015},"coordinates":[596,3540]},{"type":"Point","properties":{"source":"openstreetmap.org","kind":"locality","name":"Laguna","kind_detail":"town","population":51691,"min_zoom":8.0,"id":283421299},"coordinates":[1274,3501]},{"type":"Point","properties":{"source":"openstreetmap.org","kind":"locality","name":"Capivari de Baixo","kind_detail":"town","population":23663,"min_zoom":8.0,"id":415524016},"coordinates":[745,3612]},{"type":"Point","properties":{"source":"openstreetmap.org","kind":"locality","name":"Jaguaruna","kind_detail":"town","population":16263,"min_zoom":8.0,"id":415523993},"coordinates":[553,3033]},{"type":"Point","properties":{"source":"openstreetmap.org","kind":"locality","name":"Morro da Fuma\u00e7a","kind_detail":"town","population":15994,"min_zoom":8.0,"id":415523995},"coordinates":[16,2938]},{"type":"Point","properties":{"source":"openstreetmap.org","kind":"locality","name":"Imarui","kind_detail":"town","population":11672,"min_zoom":8.0,"id":3428052406},"coordinates":[1176,3964]},{"type":"Point","properties":{"source":"openstreetmap.org","kind":"locality","name":"Sang\u00e3o","kind_detail":"town","population":10851,"min_zoom":8.0,"id":415523994},"coordinates":[268,2980]},{"type":"Point","properties":{"source":"openstreetmap.org","kind":"locality","name":"Gravatal","kind_detail":"town","population":10802,"min_zoom":8.0,"id":415524014},"coordinates":[532,4011]},{"type":"Point","properties":{"source":"openstreetmap.org","kind":"locality","name":"S\u00e3o Ludgero","kind_detail":"town","population":10740,"min_zoom":8.0,"id":415524013},"coordinates":[128,4029]}]},"transit":{"type":"GeometryCollection","geometries":[]},"pois":{"type":"GeometryCollection","geometries":[{"type":"Point","properties":{"kind":"protected_area","tier":2,"protect_class":"5","area":2020460000,"source":"openstreetmap.org","min_zoom":7.0,"operator":"Instituto Chico Mendes de Conserva\u00e7\u00e3o da Biodiversidade","id":-3426371,"osm_relation":true,"name":"\u00c1rea de Prote\u00e7\u00e3o Ambiental da Baleia Franca"},"coordinates":[1650,4092]}]},"boundaries":{"type":"GeometryCollection","geometries":[{"type":"LineString","properties":{"name:kg":"Brazil","name:ty":"Brazil","name:ka":"\u10d1\u10e0\u10d0\u10d6\u10d8\u10da\u10d8\u10d0","name:ko":"\ube0c\ub77c\uc9c8","name:cv":"\u0411\u0440\u0430\u0437\u0438\u043b\u0438","name:cu":"\u0411\u0440\u0430\ua641\u0457\u043b\u0457\ua657","name:kl":"Brazil","name:cs":"Braz\u00edlie","name:ki":"Brazil","name:co":"Brasile","name:kv":"\u0411\u0440\u0430\u0437\u0438\u043b\u0438\u044f","name:ku":"Braz\u00eel","name:ce":"\u0411\u0440\u0430\u0437\u0438\u043b\u0438\u044f","name:ta":"\u0baa\u0bbf\u0bb0\u0bc7\u0b9a\u0bbf\u0bb2\u0bcd","name:tg":"\u0411\u0440\u0430\u0437\u0438\u043b\u0438\u044f","name:ky":"\u0411\u0440\u0430\u0437\u0438\u043b\u0438\u044f","name:te":"\u0c2c\u0c4d\u0c30\u0c46\u0c1c\u0c3f\u0c32\u0c4d","name:da":"Brasilien","name:de":"Brasilien","name:dz":"\u0f56\u0f71\u0f62\u0f71\u0f0b\u0f5b\u0f72\u0f63\u0f0b","source":"openstreetmap.org","name:kn":"\u0cac\u0ccd\u0cb0\u0cc6\u0c9c\u0cbf\u0cb2\u0ccd","name:dv":"\u0784\u07aa\u0783\u07ac\u0792\u07a8\u078d\u07b0","name:km":"\u1794\u17d2\u179a\u17c1\u179f\u17ca\u17b8\u179b","name:lv":"Braz\u012blija","name:lt":"Brazilija","name:uz":"Braziliya","name:kk":"\u0411\u0440\u0430\u0437\u0438\u043b\u0438\u044f","name:ur":"\u0628\u0631\u0627\u0632\u06cc\u0644","name:lb":"Brasilien","name:la":"Brasilia","name:tt":"\u0411\u0440\u0430\u0437\u0438\u043b\u0438\u044f","name:uk":"\u0411\u0440\u0430\u0437\u0438\u043b\u0456\u044f","name:ug":"\u0628\u0631\u0627\u0632\u0649\u0644\u0649\u064a\u06d5","name:li":"Braziel","name:ln":"Brazil","name:el":"\u0392\u03c1\u03b1\u03b6\u03b9\u03bb\u03af\u03b1","name:eo":"Brazilo","name:en":"Brazil","name":"Brasil","name:tk":"Brazili\u00fda","name:ee":"Brazil","name:th":"\u0e1b\u0e23\u0e30\u0e40\u0e17\u0e28\u0e1a\u0e23\u0e32\u0e0b\u0e34\u0e25","name:et":"Brasiilia","name:ay":"Wrasil","name:rm":"Brasilia","name:rn":"Brazil","name:az":"Braziliya","name:ig":"Brazil","name:as":"\u09ac\u09cd\u09f0\u09be\u099c\u09bf\u09b2","name:zh-min-nan":"Pa-se","name:io":"Brazilia","name:is":"Brasil\u00eda","name:am":"\u1265\u122b\u12da\u120d","name:it":"Brasile","name:ru":"\u0411\u0440\u0430\u0437\u0438\u043b\u0438\u044f","name:rw":"Burezile","name:af":"Brasili\u00eb","name:zu":"IBrazili","kind_detail":"2","name:za":"Bahsih","name:zh-yue":"\u5df4\u897f","name:zh":"\u5df4\u897f","name:so":"Barasiil","name:sl":"Brazilija","name:sk":"Braz\u00edlia","name:ja":"\u30d6\u30e9\u30b8\u30eb","name:sh":"Brazil","name:se":"Brasilia","name:sc":"Brasile","name:br":"Brazil","name:bs":"Brazil","name:bm":"Brazil","name:bn":"\u09ac\u09cd\u09b0\u09be\u099c\u09bf\u09b2","name:bo":"\u0f54\u0f74\u0f0b\u0f62\u0f74\u0f0b\u0f5f\u0f72\u0f63\u0f0d","name:bi":"Brazil","name:sw":"Brazil","name:be":"\u0411\u0440\u0430\u0437\u0456\u043b\u0456\u044f","name:bg":"\u0411\u0440\u0430\u0437\u0438\u043b\u0438\u044f","name:ba":"\u0411\u0440\u0430\u0437\u0438\u043b\u0438\u044f","name:sq":"Brazili","name:sa":"\u092c\u094d\u0930\u093e\u0938\u0940\u0932","name:ps":"\u0628\u0631\u0627\u0632\u06cc\u0644","min_zoom":8.0,"name:ro":"Brazilia","name:pa":"\u0a2c\u0a4d\u0a30\u0a3e\u0a1c\u0a3c\u0a40\u0a32","name:os":"\u0411\u0440\u0430\u0437\u0438\u043b\u0438","name:or":"\u0b2c\u0b4d\u0b30\u0b3e\u0b1c\u0b3f\u0b32","name:pl":"Brazylia","name:st":"Brazil","sort_rank":262,"name:sr":"\u0411\u0440\u0430\u0437\u0438\u043b","osm_relation":true,"name:ar":"\u0627\u0644\u0628\u0631\u0627\u0632\u064a\u0644","name:tr":"Brezilya","name:hi":"\u092c\u094d\u0930\u093e\u091c\u093c\u0940\u0932","name:sv":"Brasilien","name:he":"\u05d1\u05e8\u05d6\u05d9\u05dc","name:hy":"\u0532\u0580\u0561\u0566\u056b\u056c\u056b\u0561","name:ht":"Brezil","name:hu":"Braz\u00edlia","name:hr":"Brazil","kind":"country","name:yi":"\u05d1\u05e8\u05d0\u05d6\u05d9\u05dc","name:mt":"Bra\u017cil","name:ms":"Brazil","name:mr":"\u092c\u094d\u0930\u093e\u091d\u0940\u0932","name:my":"\u1018\u101b\u102c\u1007\u102e\u1038\u1014\u102d\u102f\u1004\u103a\u1004\u1036","official_name":"Rep\u00fablica Federativa do Brasil","name:mg":"Brazila","name:ml":"\u0d2c\u0d4d\u0d30\u0d38\u0d40\u0d7d","name:mn":"\u0411\u0440\u0430\u0437\u0438\u043b","name:mi":"Par\u012bhi","id":-59470,"name:mk":"\u0411\u0440\u0430\u0437\u0438\u043b","name:vo":"Brasil\u00e4n","name:fa":"\u0628\u0631\u0632\u06cc\u0644","name:fi":"Brasilia","old_name:vi":"Ba T\u00e2y","alt_name:vi":"Brazil;Bra-xin","name:fr":"Br\u00e9sil","name:fy":"Brazylje","name:nl":"Brazili\u00eb","name:na":"Bradir","name:ne":"\u092c\u094d\u0930\u093e\u091c\u093f\u0932","name:wa":"Braezi","name:wo":"Breesil","name:nv":"Bwaz\u00ed\u00edl","name:ga":"An Bhrasa\u00edl","name:gd":"Braisil","name:gn":"Pindorama","maritime_boundary":true,"name:gv":"Yn Vrasseel","name:gu":"\u0aac\u0acd\u0ab0\u0abe\u0a9d\u0abf\u0ab2"},"arcs":[0]},{"type":"LineString","properties":{"name:ka":"\u10e1\u10d0\u10dc\u10e2\u10d0-\u10d9\u10d0\u10e2\u10d0\u10e0\u10d8\u10dc\u10d0","name:mr":"\u0938\u093e\u0902\u0924\u093e \u0915\u093e\u0924\u093e\u0930\u093f\u0928\u093e","name:ko":"\uc0b0\ud0c0\uce74\ud0c0\ub9ac\ub098","name:ar":"\u0633\u0627\u0646\u062a\u0627 \u0643\u0627\u062a\u0627\u0631\u064a\u0646\u0627","name:th":"\u0e0b\u0e31\u0e19\u0e15\u0e32\u0e01\u0e32\u0e15\u0e32\u0e23\u0e35\u0e19\u0e32","name:os":"\u0421\u0430\u043d\u0442\u00e6-\u041a\u0430\u0442\u0430\u0440\u0438\u043d\u00e6","name:ru":"\u0421\u0430\u043d\u0442\u0430-\u041a\u0430\u0442\u0430\u0440\u0438\u043d\u0430","name:tg":"\u0421\u0430\u043d\u0442\u0430 \u041a\u0430\u0442\u0430\u0440\u0438\u043d\u0430","name:mk":"\u0421\u0430\u043d\u0442\u0430 \u041a\u0430\u0442\u0430\u0440\u0438\u043d\u0430","name:fa":"\u0633\u0627\u0646\u062a\u0627 \u06a9\u0627\u062a\u0627\u0631\u06cc\u0646\u0627","short_name":"SC","sort_rank":256,"kind_detail":"4","name:uz":"Santa-Katarina","id":-296584,"source":"openstreetmap.org","name:zh":"\u5723\u5361\u5854\u7433\u5a1c","name:lv":"Santakatarina","name:ja":"\u30b5\u30f3\u30bf \u30ab\u30bf\u30ea\u30fc\u30ca","name:lt":"Santa Katarina","name:hi":"\u0938\u093e\u0902\u0924\u093e \u0915\u093e\u0924\u093e\u0930\u0940\u0928\u093e","name:he":"\u05e1\u05e0\u05d8\u05d4 \u05e7\u05d8\u05e8\u05d9\u05e0\u05d4","name:eo":"Sankta Katarino","name:la":"Sancta Catharina","name:uk":"\u0421\u0430\u043d\u0442\u0430-\u041a\u0430\u0442\u0430\u0440\u0456\u043d\u0430","name:hy":"\u054d\u0561\u0576\u057f\u0561 \u053f\u0561\u057f\u0561\u0580\u056b\u0576\u0561","name:be":"\u0421\u0430\u043d\u0442\u0430-\u041a\u0430\u0442\u0430\u0440\u044b\u043d\u0430","name:bg":"\u0421\u0430\u043d\u0442\u0430 \u041a\u0430\u0442\u0430\u0440\u0438\u043d\u0430","name:sr":"\u0421\u0430\u043d\u0442\u0430 \u041a\u0430\u0442\u0430\u0440\u0438\u043d\u0430","osm_relation":true,"kind":"region","name":"Santa Catarina","min_zoom":8.0,"maritime_boundary":true},"arcs":[1]}]},"roads":{"type":"GeometryCollection","geometries":[{"type":"MultiLineString","properties":{"kind":"highway","network":"BR","sort_rank":383,"landuse_kind":"urban_area","source":"openstreetmap.org","min_zoom":8.0,"all_networks":["BR"],"kind_detail":"motorway","shield_text":"101","ref":"BR-101","all_shield_texts":["101"]},"arcs":[[4],[5],[6],[7]]},{"type":"LineString","properties":{"kind":"major_road","network":"BR:SC","sort_rank":380,"kind_detail":"primary","source":"openstreetmap.org","min_zoom":8.0,"shield_text":"390","ref":"SC-390"},"arcs":[8]},{"type":"MultiLineString","properties":{"source":"openstreetmap.org","kind":"major_road","landuse_kind":"urban_area","sort_rank":380,"kind_detail":"primary","min_zoom":8.0},"arcs":[[9],[10],[11],[12],[13],[14],[15],[16],[17],[18],[19],[20],[21],[22],[23],[24],[25],[26],[27],[28],[29],[30],[31],[32],[33],[34],[35],[36],[37],[38],[39],[40],[41],[42],[43],[44],[45],[46],[47],[48],[49],[50],[51],[52],[53],[54],[55],[56],[57]]},{"type":"MultiLineString","properties":{"kind":"highway","network":"BR","sort_rank":383,"kind_detail":"motorway","source":"openstreetmap.org","min_zoom":8.0,"all_networks":["BR","BR:SC"],"shield_text":"101","ref":"BR-101","all_shield_texts":["101","441"]},"arcs":[[58],[59],[60],[61]]},{"type":"MultiLineString","properties":{"kind":"major_road","cycleway_left":"lane","sort_rank":380,"kind_detail":"primary","is_bicycle_related":true,"source":"openstreetmap.org","min_zoom":8.0,"landuse_kind":"urban_area"},"arcs":[[62],[63]]},{"type":"MultiLineString","properties":{"sort_rank":380,"kind_detail":"primary","min_zoom":8.0,"kind":"major_road","source":"openstreetmap.org"},"arcs":[[64],[65],[66],[67],[68],[69],[70],[71],[72],[73],[74],[75],[76],[77],[78],[79],[80],[81],[82],[83],[84],[85],[86]]},{"type":"MultiLineString","properties":{"kind":"major_road","network":"BR:SC","sort_rank":380,"kind_detail":"primary","source":"openstreetmap.org","min_zoom":8.0,"shield_text":"443","ref":"SC-443"},"arcs":[[87],[88],[89],[90],[91],[92]]},{"type":"MultiLineString","properties":{"kind":"highway","network":"BR","sort_rank":383,"kind_detail":"motorway","source":"openstreetmap.org","min_zoom":8.0,"all_networks":["BR"],"shield_text":"101","ref":"BR-101","all_shield_texts":["101"]},"arcs":[[93],[94],[95],[96],[97],[98],[99],[100],[101],[102]]},{"type":"LineString","properties":{"source":"openstreetmap.org","kind":"major_road","sort_rank":380,"kind_detail":"primary","ref":"SC-445","min_zoom":8.0},"arcs":[103]},{"type":"LineString","properties":{"kind":"major_road","network":"BR:SC","sort_rank":380,"kind_detail":"primary","source":"openstreetmap.org","min_zoom":8.0,"landuse_kind":"urban_area","shield_text":"370","id":473853643},"arcs":[104]},{"type":"LineString","properties":{"kind":"major_road","network":"BR:SC","sort_rank":380,"kind_detail":"primary","source":"openstreetmap.org","min_zoom":8.0,"landuse_kind":"urban_area","shield_text":"390","ref":"SC-390"},"arcs":[105]},{"type":"MultiLineString","properties":{"source":"openstreetmap.org","kind":"major_road","network":"BR:SC","sort_rank":380,"kind_detail":"primary","min_zoom":8.0,"shield_text":"443"},"arcs":[[106],[107]]},{"type":"MultiLineString","properties":{"kind":"highway","network":"BR","sort_rank":383,"landuse_kind":"protected_area","source":"openstreetmap.org","min_zoom":8.0,"all_networks":["BR"],"kind_detail":"motorway","shield_text":"101","ref":"BR-101","all_shield_texts":["101"]},"arcs":[[108],[109]]},{"type":"LineString","properties":{"source":"openstreetmap.org","kind":"major_road","network":"BR:SC","sort_rank":380,"kind_detail":"primary","min_zoom":8.0,"shield_text":"445"},"arcs":[110]},{"type":"MultiLineString","properties":{"kind":"major_road","network":"BR:SC","sort_rank":380,"kind_detail":"primary","source":"openstreetmap.org","min_zoom":8.0,"shield_text":"445","ref":"SC-445"},"arcs":[[111],[112],[113],[114],[115],[116],[117],[118],[119],[120]]}]},"earth":{"type":"GeometryCollection","geometries":[{"type":"MultiPolygon","properties":{"sort_rank":10,"source":"naturalearthdata.com","min_zoom":0.0,"kind":"earth","area":58966316154},"arcs":[[[121]]]}]},"landuse":{"type":"GeometryCollection","geometries":[{"type":"Polygon","properties":{"kind":"protected_area","protect_class":"5","area":2020460032,"sort_rank":17,"operator":"Instituto Chico Mendes de Conserva\u00e7\u00e3o da Biodiversidade","source":"openstreetmap.org","min_zoom":4.0,"tier":2,"id":-3426371,"osm_relation":true},"arcs":[[122]]},{"type":"MultiPolygon","properties":{"source":"naturalearthdata.com","kind":"urban_area","name":"","area":591291529,"sort_rank":11,"min_zoom":4.0},"arcs":[[[123]],[[124]]]}]}},"type":"Topology","transform":{"translate":[-49.21875,-29.5352295629],"scale":[0.0003433228,0.0003005002]},"arcs":[[[0,1504],[368,341],[515,392],[403,239],[265,103],[206,236],[607,854],[129,427]],[[0,1495],[177,191],[381,319],[325,232],[403,239],[265,103],[101,102],[712,988],[129,427]],[[0,2332],[471,386],[235,144],[61,65],[43,34],[82,25],[83,49],[39,11],[130,16],[31,15],[24,35],[32,68],[90,120],[27,50],[18,57],[-32,-5],[-25,-16],[-24,-24],[-34,12],[-28,23],[-28,33],[-101,57],[-25,27],[-9,13],[1,14],[5,25],[11,30],[17,30],[14,28],[-3,28],[-22,9],[-34,-4],[-31,2],[-14,26],[7,30],[28,31],[7,31],[-8,36],[-30,72],[-4,42],[27,84],[41,-9],[45,-47],[38,-28],[80,-81],[11,-37],[-11,-37],[-30,-52],[-7,-78],[12,-68],[27,-62],[38,-55],[30,-15],[28,15],[13,32],[-12,36],[-7,33],[17,41],[42,75],[34,126],[20,43],[81,98],[4,20],[1,79],[3,26],[2567,0],[0,-4096],[-4096,0],[0,2332]],[[1529,4096],[-3,-26],[-1,-79],[-4,-20],[-81,-98],[-20,-43],[-34,-126],[-42,-75],[-17,-41],[7,-33],[12,-36],[-13,-32],[-28,-15],[-30,15],[-38,55],[-27,62],[-12,68],[7,78],[30,52],[11,37],[-11,37],[-80,81],[-38,28],[-45,47],[-41,9],[-27,-84],[4,-42],[30,-72],[8,-36],[-7,-31],[-28,-31],[-7,-30],[14,-26],[31,-2],[34,4],[22,-9],[3,-28],[-14,-28],[-17,-30],[-11,-30],[-5,-25],[-1,-14],[9,-13],[25,-27],[101,-57],[28,-33],[28,-23],[34,-12],[24,24],[25,16],[32,5],[-18,-57],[-27,-50],[-90,-120],[-32,-68],[-24,-35],[-31,-15],[-130,-16],[-39,-11],[-83,-49],[-82,-25],[-43,-34],[-61,-65],[-235,-144],[-471,-386]],[[654,3562],[-74,-20],[-51,-48]],[[530,3494],[50,48],[68,15],[6,5]],[[683,3583],[28,21]],[[711,3604],[-28,-20]],[[0,3706],[25,-36],[151,-10],[60,58],[65,-45],[37,45],[37,-3],[30,-148],[95,-32]],[[531,3497],[0,7]],[[533,3496],[3,4]],[[557,3493],[-4,-1]],[[553,3492],[-18,9],[1,0],[17,-9]],[[557,3493]],[[557,3493]],[[558,3493]],[[558,3493]],[[558,3493],[55,13]],[[591,3547],[-18,-8]],[[575,3539],[24,9]],[[583,3497],[4,-2]],[[586,3495],[17,5]],[[587,3495],[-1,3]],[[603,3501],[-16,-6]],[[598,3549],[-6,-2]],[[603,3501],[-1,-1],[1,0],[0,1]],[[646,3522],[-7,-6],[-1,0],[-1,-1]],[[637,3515],[-5,-4],[-1,-1],[-3,-1]],[[628,3509],[-5,-2]],[[623,3507],[-9,-3]],[[614,3504],[-11,-3]],[[603,3500],[20,6]],[[610,3510],[3,-4]],[[613,3506],[8,5]],[[613,3506],[1,-2]],[[614,3504],[1,0]],[[623,3506],[0,1]],[[623,3507],[-3,5],[-1,4]],[[623,3506],[5,3]],[[628,3509],[9,6]],[[637,3515],[3,2],[7,5]],[[651,3562],[-12,-8]],[[645,3555],[5,3]],[[659,3532],[-12,-10]],[[647,3522],[13,10]],[[650,3558],[1,1]],[[651,3559],[4,3]],[[650,3558],[9,-10]],[[659,3548],[-8,11]],[[651,3559]],[[667,3538],[-8,10]],[[667,3538],[-7,-6]],[[660,3532],[7,5]],[[667,3538],[0,-1],[0,1]],[[557,3493]],[[557,3493],[1,0],[-1,0]],[[647,3522]],[[659,3532],[1,0],[-1,0]],[[493,3120],[-1,8]],[[492,3128],[-4,48]],[[495,3164],[-3,-36]],[[492,3128],[0,-9]],[[583,3542],[27,-32]],[[619,3516],[-26,30]],[[2,2921],[1,0]],[[3,2921],[0,1]],[[42,2892],[-39,29]],[[42,2892],[1,0]],[[43,2893],[-1,-1]],[[44,2760],[21,14]],[[65,2774],[3,1]],[[67,2775],[-2,-1]],[[70,2777],[-3,-2]],[[70,2777],[39,9]],[[102,2788],[-12,-3]],[[90,2785],[-10,-2]],[[90,2786],[0,-1]],[[90,2785],[0,-1]],[[102,2788],[3,0]],[[341,2967],[-1,3]],[[341,2973],[3,0]],[[344,2966],[8,16]],[[347,2968],[60,-81],[5,-5]],[[412,2882],[4,-5]],[[416,2877],[22,-23]],[[656,3565],[-5,-3]],[[655,3562],[1,1]],[[1,2921],[-1,-1]],[[1,2921],[1,0]],[[2,2922],[-1,-1]],[[57,2948],[-1,0]],[[56,2947],[1,1]],[[346,2969],[-131,22],[-158,-43]],[[492,3119],[-145,-143],[-68,-104],[-279,-131]],[[0,2739],[133,55],[146,78],[34,39],[35,65],[101,89],[44,55]],[[488,3176],[-2,5]],[[486,3181],[-1,2],[0,2],[-6,62],[-5,114],[56,133]],[[529,3494],[-56,-133],[5,-115],[7,-63],[1,-2]],[[486,3181],[9,-17]],[[683,3584],[-29,-22]],[[654,3562],[29,21]],[[1446,4073],[-77,-163],[-184,-263],[-50,0],[-74,47],[-122,3],[-84,-13],[-51,10],[-56,-44],[-37,-46]],[[711,3604],[7,5],[27,34],[4,6],[55,45],[51,-11],[84,13],[38,-10],[84,7],[12,-12],[62,-34],[21,-6],[5,0],[19,2],[6,3],[184,264],[46,77],[30,85]],[[84,2785],[-1,-1]],[[592,3547],[-1,0]],[[500,3535],[35,-34]],[[3,2922],[-1,0],[0,-1],[1,1]],[[56,2948],[-1,-1],[1,0],[0,1]],[[1446,4072],[12,24]],[[1457,4096],[-11,-23]],[[43,2893],[0,-1],[1,1],[-1,0]],[[54,2948],[-54,72]],[[43,2892],[1,0]],[[44,2893],[-1,0]],[[44,2892],[0,1]],[[83,2785],[-39,107]],[[44,2893],[32,28],[-19,25]],[[54,2948],[1,-1]],[[56,2948],[-2,0]],[[55,2947],[2,-1]],[[57,2946],[-1,1]],[[0,2332],[0,1764],[1529,0],[-3,-26],[-1,-79],[-4,-20],[-81,-98],[-20,-43],[-34,-126],[-42,-75],[-17,-41],[7,-33],[12,-36],[-13,-32],[-28,-15],[-30,15],[-38,55],[-27,62],[-12,68],[7,78],[30,52],[11,37],[-11,37],[-80,81],[-38,28],[-45,47],[-41,9],[-27,-84],[4,-42],[30,-72],[8,-36],[-7,-31],[-28,-31],[-7,-30],[14,-26],[31,-2],[34,4],[22,-9],[3,-28],[-14,-28],[-17,-30],[-11,-30],[-5,-25],[-1,-14],[9,-13],[25,-27],[101,-57],[28,-33],[28,-23],[34,-12],[24,24],[25,16],[32,5],[-18,-57],[-27,-50],[-90,-120],[-32,-68],[-24,-35],[-31,-15],[-130,-16],[-39,-11],[-83,-49],[-82,-25],[-43,-34],[-61,-65],[-235,-144],[-471,-386]],[[0,2522],[29,10],[44,-40],[36,15],[89,94],[-28,36],[207,156],[179,22],[1,-44],[36,24],[-26,23],[21,72],[115,49],[79,91],[137,7],[-173,157],[116,-1],[100,61],[2,55],[-39,6],[-15,35],[49,17],[-16,60],[41,79],[69,29],[-2,-44],[56,3],[62,-48],[66,11],[53,-42],[-2,-56],[67,83],[43,11],[-58,181],[-76,71],[151,261],[51,-19],[33,37],[-65,0],[17,112],[400,0],[-24,-201],[-196,-229],[-76,-251],[-189,-351],[-115,-158],[-167,-62],[-507,-281],[-331,-236],[-244,29],[0,166]],[[571,3441],[0,37],[-97,37],[48,38],[152,10],[27,63],[24,-53],[-29,-63],[-59,-51],[-66,-18]],[[1333,3487],[-58,0],[-65,117],[-8,43],[62,37],[104,-12],[-41,-84],[6,-101]]]}