{"objects":{"water":{"type":"GeometryCollection","geometries":[{"type":"Polygon","properties":{"source":"naturalearthdata.com","kind":"ocean","area":1576712559132672,"sort_rank":200,"min_zoom":0.0,"id":1},"arcs":[[2]]}]},"buildings":{"type":"GeometryCollection","geometries":[]},"places":{"type":"GeometryCollection","geometries":[]},"transit":{"type":"GeometryCollection","geometries":[]},"pois":{"type":"GeometryCollection","geometries":[]},"boundaries":{"type":"GeometryCollection","geometries":[{"type":"LineString","properties":{"name:kg":"Ngabu","name:pt":"Gab\u00e3o","name:ps":"\u06ab\u0627\u0628\u0646","name:ka":"\u10d2\u10d0\u10d1\u10dd\u10dc\u10d8","name:ko":"\uac00\ubd09","name:cv":"\u0413\u0430\u0431\u043e\u043d","name:kk":"\u0413\u0430\u0431\u043e\u043d","name:tt":"\u0413\u0430\u0431\u043e\u043d","min_zoom":8.0,"name:pa":"\u0a17\u0a2c\u0a3e\u0a28","name:os":"\u0413\u0430\u0431\u043e\u043d","name:or":"\u0b17\u0b3e\u0b2c\u0b4b\u0b28","name:ce":"\u0413\u0430\u0431\u043e\u043d","name:ta":"\u0b95\u0bbe\u0baa\u0bcb\u0ba9\u0bcd","name:tg":"\u0413\u0430\u0431\u043e\u043d","name:te":"\u0c17\u0c2c\u0c3e\u0c28\u0c4d","sort_rank":262,"name:ln":"Gab\u0254\u0301","name:de":"Gabun","name:dz":"\u0f42\u0fb7\u0f7a\u0f0b\u0f56\u0fb7\u0f7c\u0f53","source":"openstreetmap.org","osm_relation":true,"name:kn":"\u0c97\u0cac\u0cca\u0ca8\u0ccd","name:dv":"\u078e\u07ac\u0784\u07af\u0782\u07b0","name:lv":"Gabona","name:lt":"Gabonas","name:hi":"\u0917\u092c\u0949\u0928","name:he":"\u05d2\u05d1\u05d5\u05df","name:eo":"Gabono","name:ur":"\u06af\u06cc\u0628\u0648\u0646","name:lb":"Gabun","name:la":"Gabonia","name:uk":"\u0413\u0430\u0431\u043e\u043d","name:hy":"\u0533\u0561\u0562\u0578\u0576","name:ug":"\u06af\u0627\u0628\u0648\u0646","name:qu":"Gabun","name:el":"\u0393\u03ba\u03b1\u03bc\u03c0\u03cc\u03bd","kind":"country","name:ts":"Gaboni","name":"Gabon","name:th":"\u0e1b\u0e23\u0e30\u0e40\u0e17\u0e28\u0e01\u0e32\u0e1a\u0e2d\u0e07","name:yi":"\u05d2\u05d0\u05d1\u05d0\u05df","name:es":"Gab\u00f3n","name:rm":"Gabun","name:az":"Qabon","name:mr":"\u0917\u0945\u092c\u0928","name:ar":"\u0627\u0644\u063a\u0627\u0628\u0648\u0646","name:my":"\u1002\u102b\u1018\u103d\u1014\u103a\u1014\u102d\u102f\u1004\u103a\u1004\u1036","name:am":"\u130b\u1266\u1295","name:an":"Gab\u00f3n","name:ml":"\u0d17\u0d3e\u0d2c\u0d4b\u0d7a","name:mn":"\u0413\u0430\u0431\u043e\u043d","id":-192793,"name:mk":"\u0413\u0430\u0431\u043e\u043d","name:af":"Gaboen","name:zu":"IGaboni","name:ss":"IGabhoni","kind_detail":"2","name:ba":"\u0413\u0430\u0431\u043e\u043d","name:zh-yue":"\u52a0\u84ec","name:vo":"Gabun\u00e4n","name:zh":"\u52a0\u84ec","name:ja":"\u30ac\u30dc\u30f3","name:si":"\u0d9c\u0dd0\u0db6\u0ddc\u0db1\u0dca","name:fa":"\u06af\u0627\u0628\u0646","name:sg":"Gab\u00f6on","name:na":"Gabun","name:sc":"Gab\u00f2n","name:ne":"\u0917\u093e\u092c\u094b\u0928","name:sa":"\u0917\u093e\u092c\u094b\u0928","name:bn":"\u0997\u09be\u09ac\u09a8","name:bo":"\u0f42\u0f7a\u0f0b\u0f56\u0f7c\u0f53\u0f0d","name:ru":"\u0413\u0430\u0431\u043e\u043d","name:be":"\u0413\u0430\u0431\u043e\u043d","name:bg":"\u0413\u0430\u0431\u043e\u043d","name:wo":"Gabo\u014b","name:sr":"\u0413\u0430\u0431\u043e\u043d","name:nv":"Gab\u01eb\u0301\u01eb\u0301","name:sq":"Gaboni","name:ga":"An Ghab\u00fain","name:gl":"Gab\u00f3n","maritime_boundary":true,"name:yo":"G\u00e0b\u1ecd\u0300n"},"arcs":[0]},{"type":"LineString","properties":{"kind":"region","name":"Ogoou\u00e9-Maritime","sort_rank":256,"kind_detail":"4","min_zoom":8.0,"source":"openstreetmap.org","maritime_boundary":true,"id":-1243589,"osm_relation":true},"arcs":[1]}]},"roads":{"type":"GeometryCollection","geometries":[]},"earth":{"type":"GeometryCollection","geometries":[]},"landuse":{"type":"GeometryCollection","geometries":[]}},"type":"Topology","transform":{"translate":[8.4375,-4.2149431414],"scale":[0.0003433228,0.0003426689]},"arcs":[[[3751,4096],[220,-208],[125,-93]],[[3751,4096],[115,-124],[230,-172]],[[0,0],[0,4096],[4096,0],[0,-4096],[-4096,0]]]}