{"objects":{"water":{"type":"GeometryCollection","geometries":[]},"buildings":{"type":"GeometryCollection","geometries":[]},"places":{"type":"GeometryCollection","geometries":[{"type":"Point","properties":{"name:pt":"Noruega","name:ps":"\u0646\u0627\u0631\u0648\u06d0","name:cy":"Norwy","name:mt":"Norve\u0121ja","name:ko":"\ub178\ub974\uc6e8\uc774","name:kn":"\u0ca8\u0cbe\u0cb0\u0ccd\u0cb5\u0cc7","name:km":"\u1793\u17d0\u179a\u179c\u17c2\u179f","name:cs":"Norsko","alt_name:eo":"Norvegio","name:ki":"Norwe","name:tr":"Norve\u00e7","name:ku":"Norw\u00eac","name:ti":"\u1296\u122d\u12cc","name:ks":"\u0646\u0627\u0631\u0648\u06d2","name:to":"Noau\u0113","name:or":"\u0b28\u0b30\u0b71\u0b47","name:pl":"Norwegia","name:ta":"\u0ba8\u0bbe\u0bb0\u0bcd\u0bb5\u0bc7","name:tg":"\u041d\u043e\u0440\u0432\u0435\u0433\u0438\u044f","name:ca":"Noruega","name:te":"\u0c28\u0c3e\u0c30\u0c35\u0c47","name:hu":"Norv\u00e9gia","name:ro":"Norvegia","name:ka":"\u10dc\u10dd\u10e0\u10d5\u10d4\u10d2\u10d8\u10d0","name:hr":"Norve\u0161ka","name:de":"Norwegen","name:dz":"\u0f53\u0f7c\u0f62\u0f0b\u0f5d\u0f7a","source":"openstreetmap.org","name:lv":"Norv\u0113\u0123ija","name:lt":"Norvegija","name:hi":"\u0928\u0949\u0930\u094d\u0935\u0947","name:kk":"\u041d\u043e\u0440\u0432\u0435\u0433\u0438\u044f","name:he":"\u05e0\u05d5\u05e8\u05d5\u05d5\u05d2\u05d9\u05d4","kind":"country","name:ur":"\u0646\u0627\u0631\u0648\u06d2","name:lb":"Norwegen","name:la":"Norvegia","name:lg":"Nowe","name:uk":"\u041d\u043e\u0440\u0432\u0435\u0433\u0456\u044f","name:hy":"\u0546\u0578\u0580\u057e\u0565\u0563\u056b\u0561","min_zoom":2.0,"name:li":"Noorwege","name:ln":"Norivez\u025b","name:lo":"\u0e99\u0ecd\u0ec0\u0ea7","population":4785200,"name:el":"\u039d\u03bf\u03c1\u03b2\u03b7\u03b3\u03af\u03b1","name:eo":"Norvegujo","name:en":"Norway","name":"Norge","official_name":"Kongeriket Norge","name:ee":"Norway nutome","name:th":"\u0e1b\u0e23\u0e30\u0e40\u0e17\u0e28\u0e19\u0e2d\u0e23\u0e4c\u0e40\u0e27\u0e22\u0e4c","name:gu":"\u0aa8\u0ac9\u0ab0\u0acd\u0ab5\u0ac7","name:et":"Norra","name:nl":"Noorwegen","name:es":"Noruega","name:ia":"Norvegia","name:rm":"Norvegia","name:rn":"Noruveji","name:az":"Norve\u00e7","name:id":"Norwegia","name:ms":"Norway","name:mr":"\u0928\u0949\u0930\u094d\u0935\u0947","name:ar":"\u0627\u0644\u0646\u0631\u0648\u064a\u062c","name:my":"\u1014\u1031\u102c\u103a\u101d\u1031","name:io":"Norvegia","name:is":"Noregur","name:am":"\u1296\u122d\u12cc","name:it":"Norvegia","name:vi":"Na Uy","name:ru":"\u041d\u043e\u0440\u0432\u0435\u0433\u0438\u044f","name:mn":"\u041d\u043e\u0440\u0432\u0435\u0433\u0438","id":424297198,"name:mk":"\u041d\u043e\u0440\u0432\u0435\u0448\u043a\u0430","name:af":"Noorwe\u00eb","name:zu":"i-Norway","name:ha":"Norwe","name:nn":"Noreg","name:ff":"Norwees","name:fi":"Norja","name:mg":"N\u00f4rvezy","name:fo":"Noreg","name:fr":"Norv\u00e8ge","name:fy":"Noarwegen","name:vo":"Norg\u00e4n","name:zh":"\u632a\u5a01","name:gv":"Norlynn","name:so":"Noorweey","name:sn":"Norway","name:sl":"Norve\u0161ka","name:sk":"N\u00f3rsko","name:ja":"\u30ce\u30eb\u30a6\u30a7\u30fc","name:si":"\u0db1\u0ddd\u0dbb\u0dca\u0dc0\u0dda","name:fa":"\u0646\u0631\u0648\u0698","name:sg":"N\u00f6rv\u00eazi","name:se":"Norga","name:ne":"\u0928\u0930\u094d\u0935\u0947","name:br":"Norvegia","name:bs":"Norve\u0161ka","name:bm":"N\u0254riw\u025bzi","name:bn":"\u09a8\u09b0\u0993\u09af\u09bc\u09c7","name:bo":"\u0f53\u0f7c\u0f62\u0f0b\u0f5d\u0f7a\u0f0d","name:ml":"\u0d28\u0d4b\u0d7c\u0d35\u0d46","name:sw":"Norwe","name:be":"\u041d\u0430\u0440\u0432\u0435\u0433\u0456\u044f","name:bg":"\u041d\u043e\u0440\u0432\u0435\u0433\u0438\u044f","name:sr":"\u041d\u043e\u0440\u0432\u0435\u0448\u043a\u0430","name:sq":"Norvegji","name:ga":"An Iorua","name:gd":"Nirribhidh","name:gl":"Noruega","name:yo":"Or\u00edl\u1eb9\u0301\u00e8de N\u1ecd\u1ecdwii","name:ak":"N\u0254\u0254we"},"coordinates":[1930,1543]},{"type":"Point","properties":{"source":"openstreetmap.org","kind":"region","name":"Buskerud","kind_detail":"state","min_zoom":4.0,"id":3099592092},"coordinates":[918,445]}]},"transit":{"type":"GeometryCollection","geometries":[{"type":"MultiLineString","properties":{"kind":"train","name":"Bergensbanen","service":"long_distance","sort_rank":275,"source":"openstreetmap.org","min_zoom":5.0,"operator":"NSB","ref":"41","osm_relation":true,"network":"NSB Regiontog"},"arcs":[[1],[2],[3],[4],[5],[6]]}]},"pois":{"type":"GeometryCollection","geometries":[{"type":"Point","properties":{"source":"openstreetmap.org","kind":"nature_reserve","name":"Vassfaret og Vidalen","area":854543000,"tier":2,"min_zoom":7.42,"id":213201333},"coordinates":[3462,1607]}]},"boundaries":{"type":"GeometryCollection","geometries":[{"type":"LineString","properties":{"name:left":"Oppland","kind":"region","name":"Oppland - Buskerud","sort_rank":256,"kind_detail":"4","id:left":-412377,"name:right:ru":"\u0411\u0443\u0441\u043a\u0435\u0440\u0443\u0434","source":"openstreetmap.org","min_zoom":8.0,"name:left:ru":"\u041e\u043f\u043f\u043b\u0430\u043d\u043d","id:right":-412297,"id":-412377,"osm_relation":true,"name:right":"Buskerud"},"arcs":[0]}]},"roads":{"type":"GeometryCollection","geometries":[{"type":"MultiLineString","properties":{"source":"openstreetmap.org","kind":"major_road","sort_rank":381,"kind_detail":"trunk","ref":"7","min_zoom":8.0},"arcs":[[7],[8]]},{"type":"MultiLineString","properties":{"sort_rank":381,"source":"openstreetmap.org","min_zoom":8.0,"kind":"major_road","kind_detail":"trunk"},"arcs":[[9],[10],[11]]},{"type":"LineString","properties":{"kind":"major_road","network":"no:Riksvei","sort_rank":381,"kind_detail":"trunk","source":"openstreetmap.org","min_zoom":8.0,"landuse_kind":"nature_reserve","shield_text":"7","ref":"7","id":154339468},"arcs":[12]},{"type":"MultiLineString","properties":{"kind":"major_road","network":null,"sort_rank":380,"kind_detail":"primary","source":"openstreetmap.org","min_zoom":8.0,"shield_text":"40","ref":"40"},"arcs":[[13],[14],[15]]},{"type":"MultiLineString","properties":{"kind":"path","sort_rank":354,"kind_detail":"footway","is_bicycle_related":true,"bicycle_shield_text":"5","bicycle_network":"ncn","source":"openstreetmap.org","min_zoom":8.0},"arcs":[[16],[17],[18]]},{"type":"LineString","properties":{"source":"openstreetmap.org","kind":"major_road","sort_rank":380,"kind_detail":"primary","ref":"33","min_zoom":8.0},"arcs":[19]},{"type":"LineString","properties":{"kind":"major_road","sort_rank":380,"kind_detail":"primary","is_bicycle_related":true,"bicycle_shield_text":"4","bicycle_network":"ncn","source":"openstreetmap.org","min_zoom":8.0,"ref":"243"},"arcs":[20]},{"type":"MultiLineString","properties":{"source":"openstreetmap.org","kind":"major_road","sort_rank":381,"kind_detail":"trunk","ref":"E 16","min_zoom":8.0},"arcs":[[21],[22]]},{"type":"LineString","properties":{"kind":"major_road","network":"no:Fylkesvei (Oppland);no:Fylkesvei (Buskerud)","sort_rank":380,"kind_detail":"primary","is_bicycle_related":true,"bicycle_shield_text":"5","bicycle_network":"ncn","source":"openstreetmap.org","min_zoom":8.0,"shield_text":"51","ref":"51"},"arcs":[23]},{"type":"MultiLineString","properties":{"kind":"minor_road","sort_rank":360,"kind_detail":"unclassified","is_bicycle_related":true,"bicycle_shield_text":"5","bicycle_network":"ncn","source":"openstreetmap.org","min_zoom":8.0},"arcs":[[24],[25],[26]]},{"type":"MultiLineString","properties":{"source":"openstreetmap.org","kind":"major_road","sort_rank":381,"kind_detail":"trunk","ref":"52","min_zoom":8.0},"arcs":[[27],[28],[29],[30],[31]]},{"type":"LineString","properties":{"kind":"major_road","sort_rank":379,"kind_detail":"secondary","is_bicycle_related":true,"bicycle_shield_text":"5","bicycle_network":"ncn","source":"openstreetmap.org","min_zoom":8.0,"ref":"223"},"arcs":[32]},{"type":"LineString","properties":{"source":"openstreetmap.org","kind":"major_road","sort_rank":380,"kind_detail":"primary","ref":"287","min_zoom":8.0,"id":27616960},"arcs":[33]},{"type":"MultiLineString","properties":{"kind":"major_road","sort_rank":379,"kind_detail":"secondary","is_bicycle_related":true,"bicycle_shield_text":"4","bicycle_network":"ncn","source":"openstreetmap.org","min_zoom":8.0,"ref":"213"},"arcs":[[34],[35]]},{"type":"LineString","properties":{"kind":"major_road","sort_rank":377,"kind_detail":"tertiary","is_bicycle_related":true,"bicycle_shield_text":"5","bicycle_network":"ncn","source":"openstreetmap.org","min_zoom":8.0,"ref":"122","id":440245567},"arcs":[36]},{"type":"LineString","properties":{"kind":"path","footway":"crossing","sort_rank":354,"kind_detail":"footway","is_bicycle_related":true,"bicycle_shield_text":"5","bicycle_network":"ncn","source":"openstreetmap.org","min_zoom":8.0,"id":224529924},"arcs":[37]},{"type":"MultiLineString","properties":{"kind":"major_road","network":null,"sort_rank":380,"kind_detail":"primary","is_bicycle_related":true,"bicycle_shield_text":"5","bicycle_network":"ncn","source":"openstreetmap.org","min_zoom":8.0,"shield_text":"40","ref":"40"},"arcs":[[38],[39],[40],[41]]},{"type":"LineString","properties":{"kind":"minor_road","sort_rank":360,"kind_detail":"unclassified","is_bicycle_related":true,"bicycle_shield_text":"4","bicycle_network":"ncn","source":"openstreetmap.org","min_zoom":8.0},"arcs":[42]},{"type":"MultiLineString","properties":{"kind":"major_road","network":"e-road","sort_rank":381,"kind_detail":"trunk","source":"openstreetmap.org","min_zoom":8.0,"shield_text":"16","ref":"E 16"},"arcs":[[43],[44],[45]]},{"type":"LineString","properties":{"kind":"path","footway":"sidewalk","sort_rank":354,"kind_detail":"footway","is_bicycle_related":true,"bicycle_shield_text":"5","bicycle_network":"ncn","source":"openstreetmap.org","min_zoom":8.0,"id":224026206},"arcs":[46]},{"type":"MultiLineString","properties":{"kind":"major_road","sort_rank":377,"kind_detail":"tertiary","is_bicycle_related":true,"bicycle_shield_text":"4","bicycle_network":"ncn","source":"openstreetmap.org","min_zoom":8.0},"arcs":[[47],[48]]},{"type":"LineString","properties":{"kind":"major_road","sort_rank":379,"kind_detail":"secondary","is_bicycle_related":true,"bicycle_shield_text":"4","bicycle_network":"ncn","source":"openstreetmap.org","min_zoom":8.0,"ref":"243","id":239034209},"arcs":[49]},{"type":"MultiLineString","properties":{"kind":"major_road","network":"no:Riksvei","sort_rank":381,"kind_detail":"trunk","is_bicycle_related":true,"bicycle_shield_text":"4","bicycle_network":"ncn","source":"openstreetmap.org","min_zoom":8.0,"shield_text":"7","ref":"7"},"arcs":[[50],[51],[52],[53],[54],[55],[56]]},{"type":"MultiLineString","properties":{"kind":"major_road","network":"no:Fylkesvei (Oppland);no:Fylkesvei (Buskerud)","sort_rank":380,"kind_detail":"primary","source":"openstreetmap.org","min_zoom":8.0,"shield_text":"51","ref":"51"},"arcs":[[57],[58]]},{"type":"LineString","properties":{"kind":"minor_road","sort_rank":360,"kind_detail":"residential","is_bicycle_related":true,"bicycle_shield_text":"5","bicycle_network":"ncn","source":"openstreetmap.org","min_zoom":8.0},"arcs":[59]},{"type":"MultiLineString","properties":{"source":"openstreetmap.org","kind":"major_road","ref":"33","sort_rank":380,"kind_detail":"primary","is_bicycle_related":true,"min_zoom":8.0},"arcs":[[60],[61]]},{"type":"LineString","properties":{"kind":"major_road","sort_rank":377,"kind_detail":"tertiary","is_bicycle_related":true,"bicycle_shield_text":"5","bicycle_network":"ncn","source":"openstreetmap.org","min_zoom":8.0},"arcs":[62]},{"type":"MultiLineString","properties":{"source":"openstreetmap.org","kind":"major_road","sort_rank":380,"kind_detail":"primary","ref":"280","min_zoom":8.0},"arcs":[[63],[64]]},{"type":"MultiLineString","properties":{"kind":"major_road","network":"no:Riksvei","sort_rank":381,"kind_detail":"trunk","source":"openstreetmap.org","min_zoom":8.0,"shield_text":"7","ref":"7"},"arcs":[[65],[66],[67],[68],[69],[70],[71],[72]]}]},"earth":{"type":"GeometryCollection","geometries":[{"type":"Polygon","properties":{"sort_rank":10,"source":"naturalearthdata.com","kind":"earth","min_zoom":0.0,"id":4783},"arcs":[[73]]}]},"landuse":{"type":"GeometryCollection","geometries":[{"type":"MultiPolygon","properties":{"source":"openstreetmap.org","kind":"nature_reserve","tier":2,"protect_class":"1","area":572366570,"sort_rank":23,"min_zoom":8.0},"arcs":[[[74]]]},{"type":"MultiPolygon","properties":{"source":"openstreetmap.org","kind":"nature_reserve","tier":2,"protect_class":"1","area":452765290,"sort_rank":23,"min_zoom":7.0},"arcs":[[[75]]]},{"type":"MultiPolygon","properties":{"source":"openstreetmap.org","kind":"nature_reserve","tier":2,"area":152232470,"sort_rank":23,"min_zoom":8.0},"arcs":[[[76]],[[77]]]},{"type":"Polygon","properties":{"source":"openstreetmap.org","kind":"nature_reserve","area":854542976,"tier":2,"id":213201333,"min_zoom":6.0,"sort_rank":23},"arcs":[[78]]}]}},"type":"Topology","transform":{"translate":[8.4375,60.23981117],"scale":[0.0003433228,0.0001686087]},"arcs":[[[704,4096],[394,-177],[222,-24],[82,-197],[283,-138],[212,-140],[169,-57],[134,-95],[68,-120],[219,-52],[39,-99],[80,-90],[-10,-128],[-31,-56],[9,-115],[92,-74],[39,-113],[-13,-71],[50,-87],[50,-38],[74,-12],[40,-79],[-72,-100],[19,-208],[92,-23],[103,-90],[88,-5],[20,26],[251,40],[37,-185],[-24,-44],[311,-175],[240,-98],[86,13],[-13,217],[-44,112],[19,82],[-20,180],[64,140],[32,41],[1,-6]],[[3004,1169],[-98,70],[-125,-108],[-112,16],[-58,-29],[-47,119],[-91,8],[-64,58],[-30,88],[-64,10],[-28,77],[-122,25],[-75,334],[-232,337],[-41,101],[4,83],[-143,320],[-73,51],[-135,-23],[-156,-86],[-172,-15],[-129,-94],[-82,15],[-32,-31],[-120,-9],[-81,-76],[-77,-10],[-80,30],[-60,-19],[-67,-94],[-112,-49],[-302,-295]],[[3024,1132],[-20,37]],[[3620,398],[-19,114],[-48,25],[-42,95],[13,53],[-27,93],[-203,156],[-66,16],[-78,-35],[-32,40],[-22,105],[-72,72]],[[3635,359],[-15,39]],[[3635,359],[-1,8],[-14,31]],[[4096,138],[-50,33],[-111,-17],[-135,137],[-139,-1],[-26,69]],[[2974,1140],[0,-1],[1,0],[0,1],[-1,0]],[[2996,1114],[-1,-1],[1,0],[1,1],[-1,0]],[[51,3756],[-2,-5]],[[360,3689],[4,0]],[[360,3689],[0,2]],[[3722,287],[58,0]],[[144,859],[28,-278],[40,-82],[260,-338],[63,-49],[352,67],[317,-52]],[[1233,126],[104,2],[52,-29],[40,21]],[[1485,161],[56,-13]],[[1366,2711],[84,37]],[[1485,160],[2,-5]],[[1487,155],[54,-7]],[[3960,3482],[-136,14],[-85,63],[-75,126],[-175,17],[-22,-45],[-17,35],[-184,9]],[[3648,2273],[130,-46],[28,-80],[-16,-165],[41,-95],[169,-81],[96,43]],[[2876,4027]],[[3488,3186],[3,-2]],[[1450,2748],[-24,82],[29,-22],[-29,43],[94,-4],[57,30],[-21,19],[33,29],[15,146],[57,102]],[[144,859],[119,32],[119,-8],[130,87],[70,-4],[44,-45],[157,-13],[68,-40],[139,-225],[98,-102],[69,-207],[89,-70],[28,-98]],[[1429,120],[-32,-25],[-152,-10],[-12,41]],[[1683,4096],[59,-52],[76,-231],[-7,-121],[-202,-208],[52,-311]],[[0,3729],[49,22]],[[51,3756],[97,34],[78,-78],[62,13],[227,-96],[23,-79],[136,-171],[594,-387],[156,-203],[-10,-56],[30,13],[-18,-47]],[[51,3754],[0,2]],[[1426,2699],[0,-2]],[[1427,2698],[-1,1]],[[1184,2632],[182,79]],[[2686,0],[-11,41],[-46,10]],[[1796,2430],[54,-242],[120,-196],[4,-3]],[[1977,1997],[-6,-5]],[[1204,127],[-98,46]],[[1487,155]],[[0,1021],[4,-53],[91,-30],[49,-79]],[[1204,127],[29,-1]],[[1429,120],[9,38],[47,3]],[[1541,148],[72,-16],[52,-88],[-2,-44]],[[2092,2014],[-4,-103],[-43,60],[-68,26]],[[2805,4096],[176,-214],[42,-15],[83,-167],[56,-212],[83,-12],[39,-71],[0,-68],[121,-124],[80,-25]],[[3495,3182],[-10,6]],[[3495,3182],[87,-118],[92,-45],[30,-238],[108,-134],[-9,-190],[48,-38],[245,8]],[[1485,161],[0,-1]],[[763,2481],[23,39],[115,-4]],[[3316,2360],[-254,29],[-121,66],[-204,-43],[-88,40],[-85,5],[-39,-41],[-118,-1],[-66,-33],[-129,-137],[-81,19],[7,-29],[-51,-77],[5,-144]],[[3648,2273],[-132,89],[-90,-21],[-110,19]],[[0,2055],[82,39],[220,190],[76,28],[98,118],[73,30],[111,-39],[103,60]],[[901,2516],[283,116],[115,3],[126,61]],[[1425,2696],[2,0]],[[1426,2697],[-1,-1]],[[1429,2698],[-2,0]],[[1428,2697],[1,1]],[[1429,2698],[155,44],[94,-22],[118,-290]],[[1444,2746],[6,2]],[[1661,3173],[201,99],[277,312],[40,78],[165,115],[90,31],[11,199],[49,37],[9,52]],[[1485,161]],[[2977,3895],[74,-26],[75,-88],[55,-19],[23,-49],[62,-12]],[[3960,3482],[136,63]],[[1106,173],[168,-7]],[[3624,324],[34,-60],[1,-84],[-105,-75],[-66,-105]],[[3625,325],[0,-2],[2,0],[0,2],[-2,0]],[[763,2481],[138,35]],[[1796,2430],[6,-160],[100,-230],[67,-74],[130,-238],[18,-156],[64,-100],[99,-5],[19,-89],[56,-27],[109,-133],[75,-2],[22,-87],[51,-22],[69,8],[59,-36],[89,26],[54,70],[49,4],[42,-39]],[[2975,1139],[21,-25]],[[2996,1113],[88,-107],[13,-68],[124,-72],[135,13],[143,-108],[29,-218],[63,-47],[37,-197],[94,-22]],[[3780,287],[38,-10]],[[3818,277],[134,-118]],[[3952,159],[144,-44]],[[1427,2698],[-1,-1],[1,-1],[1,1],[-1,1]],[[0,0],[0,4096],[4096,0],[0,-4096],[-4096,0]],[[2853,3923],[26,26],[35,-72],[30,-4],[-2,-30],[46,9],[27,-55],[7,55],[2,-78],[81,-137],[5,-52],[-93,181],[-42,8],[-94,82],[-28,67]],[[4096,2964],[0,-154],[-27,4],[-10,60],[25,91],[12,-1]],[[3614,477],[39,1],[1,-70],[45,20],[96,-167],[-30,14],[-24,-36],[-51,132],[-28,8],[-24,-35],[-24,133]],[[3907,1167],[28,11],[12,-39],[35,5],[-15,102],[28,73],[18,-199],[-96,11],[-10,36]],[[2825,1669],[223,208],[-47,71],[-14,146],[155,-95],[134,10],[34,-29],[254,-8],[206,-291],[73,26],[82,-101],[171,-14],[0,-389],[-19,-73],[-64,-10],[-18,199],[-28,-73],[15,-102],[-35,-5],[-12,39],[-35,-6],[-56,66],[-113,34],[-269,154],[-392,102],[-63,24],[14,39],[-22,17],[-37,-28],[-137,89]]]}