{"objects":{"water":{"type":"GeometryCollection","geometries":[{"type":"MultiPolygon","properties":{"source":"naturalearthdata.com","kind":"ocean","area":1576712559132672,"sort_rank":200,"min_zoom":0.0,"id":1},"arcs":[[[11]],[[12]],[[13],[14]],[[15]]]},{"type":"MultiLineString","properties":{"source":"naturalearthdata.com","kind":"ocean","sort_rank":205,"boundary":true,"min_zoom":0.0,"id":19},"arcs":[[16],[17],[18],[19],[20],[21],[22],[23],[24]]},{"type":"LineString","properties":{"source":"naturalearthdata.com","kind":"ocean","sort_rank":205,"boundary":true,"min_zoom":0.0,"id":1177},"arcs":[25]}]},"buildings":{"type":"GeometryCollection","geometries":[]},"places":{"type":"GeometryCollection","geometries":[{"type":"Point","properties":{"kind":"locality","name:nl":"Skive (plaats)","name":"Skive","name:no":"Skive (by)","kind_detail":"town","name:sr":"\u0421\u043a\u0438\u0432\u0435","source":"openstreetmap.org","min_zoom":8.0,"name:ru":"\u0421\u043a\u0438\u0432\u0435","id":26559171,"name:mk":"\u0421\u043a\u0438\u0432\u0435","population":20815},"coordinates":[1724,34]},{"type":"Point","properties":{"kind":"locality","name:nl":"Thisted (plaats)","name":"Thisted","name:ko":"\ud2f0\uc2a4\ud14c\ub4dc","kind_detail":"town","source":"openstreetmap.org","min_zoom":8.0,"name:fi":"Thistedin kunta","name:ru":"\u0422\u0438\u0441\u0442\u0435\u0434","id":2251092237,"population":13200},"coordinates":[721,2119]},{"type":"Point","properties":{"kind":"locality","name":"Hobro","kind_detail":"town","name:sr":"\u0425\u043e\u0431\u0440\u043e","source":"openstreetmap.org","min_zoom":8.0,"name:ru":"\u0425\u043e\u0431\u0440\u043e","id":2262438016,"population":11750},"coordinates":[3951,415]},{"type":"Point","properties":{"kind":"locality","name":"Nyk\u00f8bing Mors","kind_detail":"town","name:de":"Nyk\u00f6bing Mors","source":"openstreetmap.org","min_zoom":8.0,"population":9326,"id":26559261,"name:ja":"\u30cb\u30e5\u30fc\u30af\u30d3\u30f3\u30fb\u30e2\u30fc\u30b9"},"coordinates":[1229,1254]},{"type":"Point","properties":{"kind":"locality","name:nl":"Aars (Denemarken)","name":"Aars","name:nn":"\u00c5rs","kind_detail":"town","source":"openstreetmap.org","min_zoom":8.0,"name:sv":"\u00c5rs","name:ru":"\u041e\u0440\u0441","population":8500,"id":2259729134,"name:ja":"\u30a2\u30fc\u30b9 (\u30c7\u30f3\u30de\u30fc\u30af)"},"coordinates":[3144,1302]},{"type":"Point","properties":{"kind":"locality","name":"Aabybro","kind_detail":"town","source":"openstreetmap.org","min_zoom":8.0,"name:sv":"\u00c5bybro","name:et":"\u00c5bybro","population":5528,"id":2242031830,"name:af":"Aabyro"},"coordinates":[3776,3210]},{"type":"Point","properties":{"kind":"locality","name":"L\u00f8gst\u00f8r","kind_detail":"town","name:de":"L\u00f8gst\u00f6r","source":"openstreetmap.org","min_zoom":8.0,"id":2258508084,"population":4500},"coordinates":[2368,2176]},{"type":"Point","properties":{"source":"openstreetmap.org","kind":"locality","name":"Hanstholm","kind_detail":"town","population":2253,"min_zoom":8.0,"id":2251049153},"coordinates":[516,2967]},{"type":"Point","properties":{"kind":"locality","name":"Glyng\u00f8re","kind_detail":"town","name:de":"Glyng\u00f6re","source":"openstreetmap.org","min_zoom":8.0,"id":2373988724,"population":1528},"coordinates":[1271,1069]}]},"transit":{"type":"GeometryCollection","geometries":[{"type":"MultiLineString","properties":{"kind":"train","name":"Aarhus - Aalborg - Frederikshavn","sort_rank":275,"source":"openstreetmap.org","min_zoom":6.0,"operator":"DSB","ref":"70","osm_relation":true},"arcs":[[5],[6]]},{"type":"LineString","properties":{"kind":"train","name":"Aalborg N\u00e6rbane","sort_rank":275,"source":"openstreetmap.org","min_zoom":6.0,"operator":"DSB","ref":"72","osm_relation":true},"arcs":[7]},{"type":"LineString","properties":{"kind":"train","name":"ARRIVA Struer - Aarhus","sort_rank":275,"source":"openstreetmap.org","min_zoom":6.0,"operator":"ARRIVA","ref":"54","osm_relation":true},"arcs":[8]},{"type":"MultiLineString","properties":{"kind":"train","name":"ARRIVA Struer - Thisted","sort_rank":275,"source":"openstreetmap.org","min_zoom":6.0,"operator":"ARRIVA","ref":"55","osm_relation":true},"arcs":[[9],[10]]}]},"pois":{"type":"GeometryCollection","geometries":[{"type":"Point","properties":{"source":"openstreetmap.org","kind":"military","name":"Skydeomr\u00e5de Tranum","area":33975700,"tier":3,"min_zoom":8.0,"id":71339790},"coordinates":[3066,3347]}]},"boundaries":{"type":"GeometryCollection","geometries":[{"type":"MultiLineString","properties":{"name:kg":"Danemark","name:ka":"\u10d3\u10d0\u10dc\u10d8\u10d0","name:ko":"\ub374\ub9c8\ud06c","name:cv":"\u0414\u0430\u043d\u0438","name:cu":"\u0414\u0430\u043d\u0457\ua657","name:kl":"Danmarki","name:cs":"D\u00e1nsko","name:ki":"Denmark","name:co":"Danimarca","name:kv":"\u0414\u0430\u043d\u0438\u044f","name:ku":"Dan\u00eemarka","name:tl":"Dinamarka","name:ce":"\u0414\u0430\u043d\u0438","name:ta":"\u0b9f\u0bc6\u0ba9\u0bcd\u0bae\u0bbe\u0bb0\u0bcd\u0b95\u0bcd","name:tg":"\u0414\u0430\u043d\u0438\u044f","name:ca":"Dinamarca","name:te":"\u0c21\u0c46\u0c28\u0c4d\u0c2e\u0c3e\u0c30\u0c4d\u0c15\u0c4d","name:cy":"Denmarc","name:qu":"Dansuyu","name:de":"D\u00e4nemark","name:dz":"\u0f4c\u0f7a\u0f53\u0f0b\u0f58\u0f71\u0f40\u0f0b","source":"openstreetmap.org","name:kn":"\u0ca1\u0cc6\u0ca8\u0ccd\u0cae\u0cbe\u0cb0\u0ccd\u0c95\u0ccd\u200c","name:dv":"\u0791\u07ac\u0782\u07b0\u0789\u07a7\u0786\u07aa","name:lv":"D\u0101nija","name:lt":"Danija","name:uz":"Daniya","name:kk":"\u0414\u0430\u043d\u0438\u044f","name:ur":"\u0688\u0646\u0645\u0627\u0631\u06a9","name:lb":"D\u00e4nemark","name:la":"Dania","name:lg":"Denimaaka","name:uk":"\u0414\u0430\u043d\u0456\u044f","name:ug":"\u062f\u0627\u0646\u0649\u064a\u06d5","name:li":"Denemarke","name:ln":"Danemark","name:el":"\u0394\u03b1\u03bd\u03af\u03b1","name:eo":"Danujo","name:en":"Denmark","name":"Danmark","name:tk":"Dani\u00fda","name:ee":"Denmark","name:th":"\u0e1b\u0e23\u0e30\u0e40\u0e17\u0e28\u0e40\u0e14\u0e19\u0e21\u0e32\u0e23\u0e4c\u0e01","name:eu":"Danimarka","name:et":"Taani","name:es":"Dinamarca","name:rm":"Danemarc","name:rn":"Danemarke","name:az":"Danimarka","name:ie":"Dania","name:id":"Denmark","name:ar":"\u0627\u0644\u062f\u0646\u0645\u0627\u0631\u0643","name:io":"Dania","name:is":"Danm\u00f6rk","name:am":"\u12f4\u1295\u121b\u122d\u12ad","name:it":"Danimarca","name:an":"Dinamarca","name:ru":"\u0414\u0430\u043d\u0438\u044f","name:rw":"Danimarike","name:af":"Denemarke","name:zu":"IDenimaki","kind_detail":"2","name:ky":"\u0414\u0430\u043d\u0438\u044f","name:zh-yue":"\u4e39\u9ea5","name:zh":"\u4e39\u9ea6","name:so":"Denmark","name:sl":"Danska","name:sk":"D\u00e1nsko","name:ja":"\u30c7\u30f3\u30de\u30fc\u30af","name:si":"\u0da9\u0dd9\u0db1\u0dca\u0db8\u0dcf\u0dbb\u0dca\u0d9a\u0dba","name:sh":"Danska","name:se":"D\u00e1nm\u00e1rku","name:sc":"Danimarca","name:sa":"\u0921\u0947\u0928\u092e\u093e\u0930\u094d\u0915","name:bs":"Danska","name:bn":"\u09a1\u09c7\u09a8\u09ae\u09be\u09b0\u09cd\u0995","name:bo":"\u0f51\u0f53\u0f0b\u0f58\u0fb2\u0f42","name:bi":"Denmark","name:sw":"Denmark","name:be":"\u0414\u0430\u043d\u0456\u044f","name:su":"D\u00e9nmark","name:bg":"\u0414\u0430\u043d\u0438\u044f","name:ss":"IDenimakhi","name:ba":"\u0414\u0430\u043d\u0438\u044f","name:sq":"Danimarka","name:jv":"Denmark","name:pt":"Dinamarca","name:ps":"\u0689\u06d0\u0646\u0645\u0627\u0631\u06a9","name:oc":"Danemarc","min_zoom":8.0,"name:ro":"Danemarca","name:zh-min-nan":"Tan-kok","name:os":"\u0414\u0430\u043d\u0438","name:or":"\u0b21\u0b47\u0b28\u0b2e\u0b3e\u0b30\u0b4d\u0b15","name:pl":"Dania","name:st":"Denmark","sort_rank":262,"name:sr":"\u0414\u0430\u043d\u0441\u043a\u0430","osm_relation":true,"name:tr":"Danimarka","name:hi":"\u0921\u0947\u0928\u092e\u093e\u0930\u094d\u0915","name:he":"\u05d3\u05e0\u05de\u05e8\u05e7","name:hy":"\u0534\u0561\u0576\u056b\u0561","name:ht":"Danmak","name:hu":"D\u00e1nia","name:hr":"Danska","kind":"country","name:yi":"\u05d3\u05e2\u05e0\u05de\u05d0\u05e8\u05e7","name:yo":"D\u1eb9\u0301nm\u00e1rk\u00ec","name:mt":"Danimarka","alt_name:eo":"Danio;Danlando","name:ms":"Denmark","name:mr":"\u0921\u0947\u0928\u094d\u092e\u093e\u0930\u094d\u0915","name:my":"\u1012\u102d\u1014\u103a\u1038\u1019\u1010\u103a\u1014\u102d\u102f\u1004\u103a\u1004\u1036","official_name":"Kongeriget Danmark","name:mg":"Danmarka","name:vi":"\u0110an M\u1ea1ch","name:ml":"\u0d21\u0d46\u0d28\u0d4d\u0d2e\u0d3e\u0d7c\u0d15\u0d4d\u0d15\u0d4d","name:mn":"\u0414\u0430\u043d\u0438","name:mi":"Tenem\u0101ka","id":-50046,"name:mk":"\u0414\u0430\u043d\u0441\u043a\u0430","name:vo":"Dan\u00e4n","name:fa":"\u062f\u0627\u0646\u0645\u0627\u0631\u06a9","name:fi":"Tanska","name:fr":"Danemark","name:fy":"Denemark","name:nl":"Denemarken","name:na":"Denemark","name:ne":"\u0921\u0947\u0928\u092e\u093e\u0930\u094d\u0915","name:wo":"Danmaark","name:nv":"D\u00e9inish Dine\u02bc\u00e9 Bik\u00e9yah","name:ga":"An Danmhairg","name:gd":"An Danmhairg","name:gn":"Ndinamayka","name:gl":"Dinamarca","maritime_boundary":true,"name:gv":"Yn Danvarg","name:tt":"\u0414\u0430\u043d\u0438\u044f"},"arcs":[[0],[1]]},{"type":"MultiLineString","properties":{"name:pt":"Jutl\u00e2ndia do Norte","name:ro":"Regiunea Nordjylland","name:ms":"Wilayah Nordjylland","name:ko":"\ubd81\uc70c\ub780 \uc9c0\uc5ed","name:ar":"\u0645\u0642\u0627\u0637\u0639\u0629 \u0646\u0648\u0631\u062f\u0644\u0627\u0646\u062f","name:kk":"\u0421\u043e\u043b\u0442\u04af\u0441\u0442\u0456\u043a \u042e\u0442\u043b\u0430\u043d\u0434\u0438\u044f","min_zoom":8.0,"name:it":"Jutland settentrionale","name:ru":"\u0421\u0435\u0432\u0435\u0440\u043d\u0430\u044f \u042e\u0442\u043b\u0430\u043d\u0434\u0438\u044f","name:os":"\u0426\u00e6\u0433\u0430\u0442 \u042e\u0442\u043b\u0430\u043d\u0434\u0438","name:vi":"B\u1eafc Jutland","name:ce":"\u041a\u044a\u0438\u043b\u0431\u0430\u0441\u0435\u0434\u0435\u0440\u0430 \u042e\u0442\u043b\u0430\u043d\u0434\u0438","name:pl":"Jutlandia P\u00f3\u0142nocna","name:mk":"\u0421\u0435\u0432\u0435\u0440\u043d\u0430 \u0414\u0430\u043d\u0441\u043a\u0430","name:fa":"\u0627\u0633\u062a\u0627\u0646 \u0646\u0648\u0631\u062f\u06cc\u0648\u0644\u0646\u062f","name:bg":"\u0421\u0435\u0432\u0435\u0440\u043d\u0430 \u042e\u0442\u043b\u0430\u043d\u0434\u0438\u044f","name:ka":"\u10e9\u10e0\u10d3\u10d8\u10da\u10dd\u10d4\u10d7 \u10d8\u10e3\u10e2\u10da\u10d0\u10dc\u10d3\u10d8\u10d8\u10e1 \u10e0\u10d4\u10d2\u10d8\u10dd\u10dc\u10d8","source":"openstreetmap.org","sort_rank":256,"kind_detail":"4","id":-1319936,"name:de":"Region Nordj\u00fctland","name:oc":"Jutl\u00e0ndia Septentrionala","name:fr":"Jutland du Nord","name:ca":"Jutl\u00e0ndia Septentrional","name:zh":"\u5317\u65e5\u5fb7\u5170\u5927\u533a","name:lv":"Zieme\u013cjitlandes re\u0123ions","name:ja":"\u5317\u30e6\u30e9\u30f3\u5730\u57df","name:lt":"\u0160iaur\u0117s Jutlandijos regionas","name:se":"Davvi-Jyll\u00e1ndda regiuvdna","name:eo":"Regiono Norda Jutlando","name:la":"Iutia Septentrionalis","name:sk":"Severn\u00e9 Jutsko","name:uk":"\u041f\u0456\u0432\u043d\u0456\u0447\u043d\u0430 \u042e\u0442\u043b\u0430\u043d\u0434\u0456\u044f","name:hy":"\u0540\u0575\u0578\u0582\u057d\u056b\u057d\u0561\u0575\u056b\u0576 \u0534\u0561\u0576\u056b\u0561 \u057f\u0561\u0580\u0561\u056e\u0561\u0577\u0580\u057b\u0561\u0576","name:hu":"Nordjylland r\u00e9gi\u00f3","name:hr":"Sjeverni Jutland","name:sr":"\u0421\u0435\u0432\u0435\u0440\u043d\u0430 \u0414\u0430\u043d\u0441\u043a\u0430","osm_relation":true,"kind":"region","name:en":"North Denmark Region","name":"Region Nordjylland","maritime_boundary":true,"name:fi":"Pohjois-Jyllannin alue","name:eu":"Ipar Jutlandia","name:et":"P\u00f5hja-J\u00fc\u00fctimaa piirkond","name:nl":"Noord-Jutland","name:es":"Jutlandia Septentrional"},"arcs":[[2],[3]]},{"type":"LineString","properties":{"name:pt":"Jutl\u00e2ndia Central","name:ro":"Regiunea Midtjylland","name:ms":"Wilayah Midtjylland","name:ko":"\uc911\uc559\uc70c\ub780 \uc9c0\uc5ed","name:kk":"\u041e\u0440\u0442\u0430\u043b\u044b\u049b \u042e\u0442\u043b\u0430\u043d\u0434\u0438\u044f","min_zoom":8.0,"name:it":"Jutland centrale","name:vi":"Trung Jutland","name:os":"\u0426\u0435\u043d\u0442\u0440\u0430\u043b\u043e\u043d \u042e\u0442\u043b\u0430\u043d\u0434\u0438","name:ru":"\u0426\u0435\u043d\u0442\u0440\u0430\u043b\u044c\u043d\u0430\u044f \u042e\u0442\u043b\u0430\u043d\u0434\u0438\u044f","name:ce":"\u042e\u043a\u043a\u044a\u0435\u0440\u0430 \u042e\u0442\u043b\u0430\u043d\u0434\u0438","name:de":"Region Mittelj\u00fctland","name:pl":"Jutlandia \u015arodkowa","name:mk":"\u0421\u0440\u0435\u0434\u043d\u0430 \u0414\u0430\u043d\u0441\u043a\u0430","name:fa":"\u0627\u0633\u062a\u0627\u0646 \u0645\u06cc\u062f\u06cc\u0648\u0644\u0646\u062f","name:bg":"\u0426\u0435\u043d\u0442\u0440\u0430\u043b\u043d\u0430 \u042e\u0442\u043b\u0430\u043d\u0434\u0438\u044f","name:ka":"\u10ea\u10d4\u10dc\u10e2\u10e0\u10d0\u10da\u10e3\u10e0\u10d8 \u10d8\u10e3\u10e2\u10da\u10d0\u10dc\u10d3\u10d8\u10d8\u10e1 \u10e0\u10d4\u10d2\u10d8\u10dd\u10dc\u10d8","source":"openstreetmap.org","sort_rank":256,"kind_detail":"4","id":-1319935,"name:fo":"Regi\u00f3n Mi\u00f0j\u00fatland","name:oc":"Jutl\u00e0ndia Centrala","name:fr":"Jutland central","name:ca":"Jutl\u00e0ndia Central","name:fy":"Midden-Jutl\u00e2n","name:zh":"\u4e2d\u65e5\u5fb7\u5170\u5927\u533a","name:lv":"Vidusjitlandes re\u0123ions","name:ja":"\u4e2d\u592e\u30e6\u30e9\u30f3\u5730\u57df","name:lt":"Vidurio Jutlandijos regionas","name:sh":"Sredi\u0161nji Jylland","name:se":"Gaska-Jyll\u00e1ndda regiuvdna","name:eo":"Regiono Meza Jutlando","name:br":"Kreizjutland","name:la":"Iutia Media","name:sk":"Stredn\u00e9 Jutsko","name:uk":"\u0426\u0435\u043d\u0442\u0440\u0430\u043b\u044c\u043d\u0430 \u042e\u0442\u043b\u0430\u043d\u0434\u0456\u044f","name:hy":"\u053f\u0565\u0576\u057f\u0580\u0578\u0576\u0561\u056f\u0561\u0576 \u0545\u0578\u0582\u057f\u056c\u0561\u0576\u0564\u056b\u0561 \u057f\u0561\u0580\u0561\u056e\u0561\u0577\u0580\u057b\u0561\u0576","name:sv":"Region Mittjylland","name:hu":"Midtjylland r\u00e9gi\u00f3","name:hr":"Sredi\u0161nji Jylland","name:sr":"\u0421\u0440\u0435\u0434\u0438\u0448\u045a\u0430 \u0414\u0430\u043d\u0441\u043a\u0430","osm_relation":true,"kind":"region","name:en":"Central Denmark Region","name":"Region Midtjylland","maritime_boundary":true,"name:fi":"Keski-Jyllannin alue","name:eu":"Erdialdeko Jutlandia","name:et":"Kesk-J\u00fc\u00fctimaa","name:es":"Jutlandia Central"},"arcs":[4]}]},"roads":{"type":"GeometryCollection","geometries":[{"type":"MultiLineString","properties":{"source":"openstreetmap.org","kind":"major_road","sort_rank":380,"kind_detail":"primary","ref":"55","min_zoom":8.0},"arcs":[[26],[27],[28],[29],[30],[31],[32],[33],[34],[35],[36],[37],[38],[39]]},{"type":"MultiLineString","properties":{"source":"openstreetmap.org","kind":"major_road","sort_rank":380,"kind_detail":"primary","ref":"26","min_zoom":8.0},"arcs":[[40],[41],[42],[43],[44],[45],[46],[47],[48],[49],[50],[51],[52],[53],[54],[55],[56],[57],[58],[59],[60],[61],[62],[63],[64],[65],[66],[67],[68],[69],[70],[71],[72],[73],[74],[75],[76],[77]]},{"type":"LineString","properties":{"kind":"minor_road","sort_rank":358,"kind_detail":"service","is_bicycle_related":true,"bicycle_shield_text":"2","bicycle_network":"ncn","source":"openstreetmap.org","min_zoom":8.0,"id":344438157},"arcs":[78]},{"type":"MultiLineString","properties":{"kind":"path","sort_rank":354,"kind_detail":"cycleway","is_bicycle_related":true,"bicycle_shield_text":"EV12","bicycle_network":"icn","source":"openstreetmap.org","min_zoom":8.0,"landuse_kind":"park"},"arcs":[[79],[80]]},{"type":"LineString","properties":{"kind":"major_road","sort_rank":379,"kind_detail":"secondary","is_bicycle_related":true,"bicycle_shield_text":null,"cycleway":"track","source":"openstreetmap.org","min_zoom":8.0,"bicycle_network":"icn","ref":"535","id":378259276},"arcs":[81]},{"type":"MultiLineString","properties":{"kind":"major_road","sort_rank":377,"kind_detail":"tertiary","is_bicycle_related":true,"bicycle_shield_text":null,"bicycle_network":"icn","source":"openstreetmap.org","min_zoom":8.0,"landuse_kind":"residential"},"arcs":[[82],[83],[84]]},{"type":"MultiLineString","properties":{"source":"openstreetmap.org","kind":"major_road","sort_rank":380,"kind_detail":"primary","ref":"29","min_zoom":8.0},"arcs":[[85],[86],[87],[88],[89],[90],[91],[92],[93],[94],[95],[96],[97],[98],[99],[100],[101],[102],[103],[104],[105],[106],[107],[108],[109],[110],[111],[112],[113],[114],[115],[116],[117],[118],[119],[120],[121],[122],[123],[124],[125],[126],[127],[128],[129],[130],[131],[132],[133],[134]]},{"type":"MultiLineString","properties":{"kind":"path","sort_rank":354,"kind_detail":"cycleway","is_bicycle_related":true,"bicycle_shield_text":"2","bicycle_network":"ncn","source":"openstreetmap.org","min_zoom":8.0,"landuse_kind":"urban_area"},"arcs":[[135],[136],[137]]},{"type":"MultiLineString","properties":{"kind":"minor_road","sort_rank":360,"kind_detail":"residential","is_bicycle_related":true,"bicycle_shield_text":"12","bicycle_network":"ncn","source":"openstreetmap.org","min_zoom":8.0,"cycleway":"track"},"arcs":[[138],[139],[140],[141],[142]]},{"type":"MultiLineString","properties":{"kind":"major_road","sort_rank":380,"kind_detail":"primary","is_bicycle_related":true,"cycleway":"track","source":"openstreetmap.org","min_zoom":8.0,"ref":"29"},"arcs":[[143],[144],[145],[146],[147],[148],[149],[150],[151],[152]]},{"type":"LineString","properties":{"kind":"major_road","sort_rank":379,"kind_detail":"secondary","is_bicycle_related":true,"bicycle_shield_text":"12","bicycle_network":"ncn","source":"openstreetmap.org","min_zoom":8.0,"ref":"187","id":367605037},"arcs":[153]},{"type":"LineString","properties":{"kind":"major_road","sort_rank":377,"kind_detail":"tertiary","is_bicycle_related":true,"bicycle_shield_text":null,"cycleway":"lane","source":"openstreetmap.org","min_zoom":8.0,"landuse_kind":"residential","bicycle_network":"icn","id":129145141},"arcs":[154]},{"type":"MultiLineString","properties":{"source":"openstreetmap.org","kind":"major_road","landuse_kind":"urban_area","sort_rank":380,"kind_detail":"primary","ref":"11","min_zoom":8.0},"arcs":[[155],[156],[157],[158],[159]]},{"type":"MultiLineString","properties":{"kind":"minor_road","sort_rank":360,"landuse_kind":"urban_area","is_bicycle_related":true,"bicycle_shield_text":"2","bicycle_network":"ncn","source":"openstreetmap.org","min_zoom":8.0,"kind_detail":"unclassified"},"arcs":[[160],[161]]},{"type":"LineString","properties":{"kind":"minor_road","service":"drive_through","sort_rank":356,"kind_detail":"service","is_bicycle_related":true,"bicycle_shield_text":null,"bicycle_network":"icn","source":"openstreetmap.org","min_zoom":8.0,"id":76726238},"arcs":[162]},{"type":"LineString","properties":{"kind":"path","sort_rank":354,"kind_detail":"cycleway","is_bicycle_related":true,"bicycle_shield_text":"1","bicycle_network":"ncn","source":"openstreetmap.org","min_zoom":8.0,"landuse_kind":"park"},"arcs":[163]},{"type":"MultiLineString","properties":{"kind":"minor_road","sort_rank":360,"kind_detail":"residential","is_bicycle_related":true,"bicycle_shield_text":null,"bicycle_network":"icn","source":"openstreetmap.org","min_zoom":8.0},"arcs":[[164],[165]]},{"type":"MultiLineString","properties":{"source":"openstreetmap.org","kind":"major_road","sort_rank":380,"kind_detail":"primary","ref":"11;55","min_zoom":8.0},"arcs":[[166],[167],[168],[169],[170],[171],[172],[173],[174],[175],[176],[177]]},{"type":"MultiLineString","properties":{"kind":"minor_road","sort_rank":358,"kind_detail":"service","is_bicycle_related":true,"bicycle_shield_text":"12","bicycle_network":"ncn","source":"openstreetmap.org","min_zoom":8.0},"arcs":[[178],[179],[180],[181],[182],[183],[184],[185],[186]]},{"type":"LineString","properties":{"source":"openstreetmap.org","kind":"ferry","name":"R\u00f8nbjerg - Liv\u00f8","sort_rank":355,"min_zoom":8.0,"id":93938467},"arcs":[187]},{"type":"MultiLineString","properties":{"cycleway_right":"track","sort_rank":380,"kind_detail":"primary","is_bicycle_related":true,"kind":"major_road","source":"openstreetmap.org","min_zoom":8.0,"ref":"55"},"arcs":[[188],[189]]},{"type":"MultiLineString","properties":{"kind":"major_road","sort_rank":377,"landuse_kind":"urban_area","is_bicycle_related":true,"bicycle_shield_text":"2","cycleway":"lane","source":"openstreetmap.org","min_zoom":8.0,"kind_detail":"tertiary","bicycle_network":"ncn"},"arcs":[[190],[191],[192],[193]]},{"type":"MultiLineString","properties":{"kind":"path","sort_rank":354,"kind_detail":"track","is_bicycle_related":true,"bicycle_shield_text":"2","bicycle_network":"ncn","source":"openstreetmap.org","min_zoom":8.0,"landuse_kind":"park"},"arcs":[[194],[195]]},{"type":"MultiLineString","properties":{"kind":"minor_road","sort_rank":360,"kind_detail":"residential","is_bicycle_related":true,"bicycle_shield_text":"2","bicycle_network":"ncn","source":"openstreetmap.org","min_zoom":8.0},"arcs":[[196],[197]]},{"type":"LineString","properties":{"cycleway_right":"lane","sort_rank":379,"kind_detail":"secondary","is_bicycle_related":true,"kind":"major_road","bicycle_shield_text":"12","bicycle_network":"ncn","source":"openstreetmap.org","min_zoom":8.0,"id":146366210},"arcs":[198]},{"type":"MultiLineString","properties":{"kind":"major_road","sort_rank":377,"kind_detail":"tertiary","is_bicycle_related":true,"bicycle_shield_text":null,"bicycle_network":"icn","source":"openstreetmap.org","min_zoom":8.0},"arcs":[[199],[200],[201],[202],[203],[204],[205]]},{"type":"MultiLineString","properties":{"kind":"major_road","sort_rank":380,"kind_detail":"primary","is_bicycle_related":true,"cycleway":"use_sidepath","source":"openstreetmap.org","min_zoom":8.0,"ref":"55"},"arcs":[[206],[207],[208],[209]]},{"type":"MultiLineString","properties":{"bus_network":"Nordjyllands Trafikselskab","sort_rank":377,"kind_detail":"tertiary","is_bicycle_related":true,"kind":"major_road","bicycle_shield_text":"12","bicycle_network":"ncn","source":"openstreetmap.org","min_zoom":8.0,"bus_shield_text":"950X","cycleway":"track"},"arcs":[[210],[211],[212]]},{"type":"LineString","properties":{"source":"openstreetmap.org","kind":"ferry","name":"Mors - Thy (N\u00e6ssund)","sort_rank":355,"is_bicycle_related":true,"min_zoom":8.0,"id":29254532},"arcs":[213]},{"type":"LineString","properties":{"kind":"major_road","sort_rank":377,"kind_detail":"tertiary","is_bicycle_related":true,"bicycle_shield_text":"EV12","bicycle_network":"icn","source":"openstreetmap.org","min_zoom":8.0,"landuse_kind":"residential","id":303751528},"arcs":[214]},{"type":"LineString","properties":{"kind":"major_road","sort_rank":379,"kind_detail":"secondary","is_bicycle_related":true,"bicycle_shield_text":"2","bicycle_network":"ncn","source":"openstreetmap.org","min_zoom":8.0,"landuse_kind":"residential","ref":"545","id":25728945},"arcs":[215]},{"type":"MultiLineString","properties":{"kind":"path","sort_rank":354,"kind_detail":"path","is_bicycle_related":true,"bicycle_shield_text":"12","bicycle_network":"ncn","source":"openstreetmap.org","min_zoom":8.0},"arcs":[[216],[217],[218]]},{"type":"LineString","properties":{"kind":"major_road","sort_rank":379,"kind_detail":"secondary","is_bicycle_related":true,"bicycle_shield_text":"2","bicycle_network":"ncn","source":"openstreetmap.org","min_zoom":8.0,"ref":"581","id":99550081},"arcs":[219]},{"type":"MultiLineString","properties":{"source":"openstreetmap.org","kind":"major_road","sort_rank":380,"kind_detail":"primary","ref":"11;29","min_zoom":8.0},"arcs":[[220],[221],[222],[223],[224],[225],[226],[227],[228],[229],[230],[231],[232]]},{"type":"MultiLineString","properties":{"bus_network":"Nordjyllands Trafikselskab","sort_rank":380,"kind_detail":"primary","kind":"major_road","source":"openstreetmap.org","min_zoom":8.0,"bus_shield_text":"950X","ref":"29"},"arcs":[[233],[234]]},{"type":"LineString","properties":{"kind":"major_road","sort_rank":380,"kind_detail":"primary","is_bicycle_related":true,"bicycle_shield_text":"2","bicycle_network":"ncn","source":"openstreetmap.org","min_zoom":8.0,"ref":"26"},"arcs":[235]},{"type":"LineString","properties":{"bus_network":"Nordjyllands Trafikselskab","sort_rank":377,"kind_detail":"tertiary","is_bicycle_related":true,"kind":"major_road","bicycle_shield_text":"12","bicycle_network":"ncn","source":"openstreetmap.org","min_zoom":8.0,"bus_shield_text":"950X"},"arcs":[236]},{"type":"MultiLineString","properties":{"kind":"major_road","sort_rank":379,"kind_detail":"secondary","is_bicycle_related":true,"bicycle_shield_text":"EV12","bicycle_network":"icn","source":"openstreetmap.org","min_zoom":8.0,"ref":"181"},"arcs":[[237],[238]]},{"type":"LineString","properties":{"kind":"major_road","sort_rank":379,"kind_detail":"secondary","is_bicycle_related":true,"bicycle_shield_text":"12","bicycle_network":"ncn","source":"openstreetmap.org","min_zoom":8.0,"id":367605039},"arcs":[239]},{"type":"MultiLineString","properties":{"kind":"minor_road","sort_rank":360,"kind_detail":"unclassified","is_bicycle_related":true,"bicycle_shield_text":"12","bicycle_network":"ncn","source":"openstreetmap.org","min_zoom":8.0},"arcs":[[240],[241],[242],[243],[244],[245],[246],[247],[248],[249],[250],[251],[252],[253],[254],[255],[256],[257],[258],[259],[260],[261],[262],[263],[264],[265],[266],[267],[268],[269],[270],[271],[272],[273],[274],[275],[276],[277],[278],[279],[280],[281],[282],[283],[284],[285],[286],[287],[288]]},{"type":"LineString","properties":{"kind":"path","sort_rank":354,"landuse_kind":"residential","is_bicycle_related":true,"bicycle_shield_text":"EV12","bicycle_network":"icn","source":"openstreetmap.org","min_zoom":8.0,"kind_detail":"cycleway"},"arcs":[289]},{"type":"MultiLineString","properties":{"kind":"major_road","sort_rank":379,"kind_detail":"secondary","is_bicycle_related":true,"bicycle_shield_text":"12","bicycle_network":"ncn","source":"openstreetmap.org","min_zoom":8.0,"ref":"533"},"arcs":[[290],[291],[292],[293],[294]]},{"type":"LineString","properties":{"source":"openstreetmap.org","kind":"major_road","sort_rank":380,"kind_detail":"primary","ref":"26;29","min_zoom":8.0,"id":173449425},"arcs":[295]},{"type":"LineString","properties":{"cycleway_right":"track","sort_rank":379,"kind_detail":"secondary","is_bicycle_related":true,"bus_network":"Nordjyllands Trafikselskab","bicycle_shield_text":"12","bicycle_network":"ncn","source":"openstreetmap.org","min_zoom":8.0,"bus_shield_text":"950X","ref":"187","kind":"major_road"},"arcs":[296]},{"type":"LineString","properties":{"kind":"major_road","sort_rank":379,"kind_detail":"secondary","is_bicycle_related":true,"bicycle_shield_text":"2","cycleway":"lane","source":"openstreetmap.org","min_zoom":8.0,"bicycle_network":"ncn","ref":"539"},"arcs":[297]},{"type":"LineString","properties":{"kind":"major_road","sort_rank":380,"kind_detail":"primary","is_bicycle_related":true,"bicycle_shield_text":"Panoramarute 413","cycleway":"lane","source":"openstreetmap.org","min_zoom":8.0,"bicycle_network":"lcn","ref":"55","id":497068773},"arcs":[298]},{"type":"MultiLineString","properties":{"cycleway_right":"lane","sort_rank":379,"landuse_kind":"residential","is_bicycle_related":true,"kind":"major_road","bicycle_shield_text":"12","bicycle_network":"ncn","source":"openstreetmap.org","min_zoom":8.0,"kind_detail":"secondary"},"arcs":[[299],[300],[301]]},{"type":"MultiLineString","properties":{"source":"openstreetmap.org","kind":"major_road","sort_rank":381,"kind_detail":"trunk","ref":"13","min_zoom":8.0},"arcs":[[302],[303],[304]]},{"type":"MultiLineString","properties":{"bus_network":"Nordjyllands Trafikselskab","sort_rank":381,"kind_detail":"trunk","kind":"major_road","source":"openstreetmap.org","min_zoom":8.0,"bus_shield_text":"950X","ref":"187"},"arcs":[[305],[306],[307],[308],[309],[310],[311],[312],[313],[314],[315],[316],[317],[318]]},{"type":"LineString","properties":{"kind":"major_road","sort_rank":379,"kind_detail":"secondary","is_bicycle_related":true,"bicycle_shield_text":"12","cycleway":"track","source":"openstreetmap.org","min_zoom":8.0,"bicycle_network":"ncn","ref":"533","id":372491838},"arcs":[319]},{"type":"MultiLineString","properties":{"bus_network":"Nordjyllands Trafikselskab","sort_rank":381,"kind_detail":"trunk","is_bicycle_related":true,"kind":"major_road","source":"openstreetmap.org","min_zoom":8.0,"bus_shield_text":"950X","ref":"187"},"arcs":[[320],[321],[322],[323]]},{"type":"MultiLineString","properties":{"source":"openstreetmap.org","kind":"major_road","landuse_kind":"urban_area","sort_rank":380,"kind_detail":"primary","ref":"26","min_zoom":8.0},"arcs":[[324],[325],[326],[327],[328],[329],[330],[331],[332],[333]]},{"type":"MultiLineString","properties":{"kind":"path","sort_rank":354,"kind_detail":"track","is_bicycle_related":true,"bicycle_shield_text":null,"bicycle_network":"icn","source":"openstreetmap.org","min_zoom":8.0},"arcs":[[334],[335]]},{"type":"MultiLineString","properties":{"source":"openstreetmap.org","kind":"major_road","landuse_kind":"nature_reserve","sort_rank":380,"kind_detail":"primary","ref":"11;29","min_zoom":8.0},"arcs":[[336],[337]]},{"type":"LineString","properties":{"kind":"major_road","sort_rank":377,"kind_detail":"tertiary","is_bicycle_related":true,"bicycle_shield_text":"12","bicycle_network":"ncn","source":"openstreetmap.org","min_zoom":8.0,"landuse_kind":"residential","id":188728636},"arcs":[338]},{"type":"MultiLineString","properties":{"kind":"minor_road","sort_rank":360,"kind_detail":"unclassified","is_bicycle_related":true,"bicycle_shield_text":"EV12","bicycle_network":"icn","source":"openstreetmap.org","min_zoom":8.0},"arcs":[[339],[340],[341],[342],[343],[344],[345],[346],[347]]},{"type":"MultiLineString","properties":{"kind":"minor_road","sort_rank":360,"kind_detail":"unclassified","is_bicycle_related":true,"bicycle_shield_text":null,"bicycle_network":"icn","source":"openstreetmap.org","min_zoom":8.0},"arcs":[[348],[349],[350],[351],[352],[353]]},{"type":"LineString","properties":{"kind":"path","sort_rank":354,"kind_detail":"steps","is_bicycle_related":true,"bicycle_shield_text":"2","bicycle_network":"ncn","source":"openstreetmap.org","min_zoom":8.0,"id":99550091},"arcs":[354]},{"type":"LineString","properties":{"kind":"major_road","sort_rank":380,"kind_detail":"primary","is_bicycle_related":true,"cycleway":"lane","source":"openstreetmap.org","min_zoom":8.0,"ref":"11"},"arcs":[355]},{"type":"MultiLineString","properties":{"kind":"major_road","sort_rank":377,"kind_detail":"tertiary","is_bicycle_related":true,"bicycle_shield_text":"EV12","bicycle_network":"icn","source":"openstreetmap.org","min_zoom":8.0,"cycleway":"track"},"arcs":[[356],[357]]},{"type":"LineString","properties":{"kind":"major_road","sort_rank":380,"kind_detail":"primary","is_bicycle_related":true,"bicycle_shield_text":"2","bicycle_network":"ncn","source":"openstreetmap.org","min_zoom":8.0,"cycleway":"track","ref":"26"},"arcs":[358]},{"type":"MultiLineString","properties":{"kind":"path","sort_rank":354,"kind_detail":"cycleway","is_bicycle_related":true,"bicycle_shield_text":"2","bicycle_network":"ncn","source":"openstreetmap.org","min_zoom":8.0},"arcs":[[359],[360],[361],[362],[363],[364],[365]]},{"type":"MultiLineString","properties":{"kind":"major_road","sort_rank":379,"kind_detail":"secondary","is_bicycle_related":true,"bicycle_shield_text":"12","cycleway":"lane","source":"openstreetmap.org","min_zoom":8.0,"bicycle_network":"ncn"},"arcs":[[366],[367]]},{"type":"LineString","properties":{"source":"openstreetmap.org","kind":"major_road","sort_rank":380,"kind_detail":"primary","ref":"29;535","min_zoom":8.0,"id":524697315},"arcs":[368]},{"type":"LineString","properties":{"source":"openstreetmap.org","kind":"ferry","name":"Mors - Thy (Feggesund)","sort_rank":355,"min_zoom":8.0,"id":127950259},"arcs":[369]},{"type":"LineString","properties":{"kind":"major_road","sort_rank":380,"kind_detail":"primary","is_bicycle_related":true,"bicycle_shield_text":"12","cycleway":"track","source":"openstreetmap.org","min_zoom":8.0,"bicycle_network":"ncn","ref":"11;55"},"arcs":[370]},{"type":"LineString","properties":{"source":"openstreetmap.org","kind":"major_road","sort_rank":380,"kind_detail":"primary","ref":"11;55;549","min_zoom":8.0,"id":25750664},"arcs":[371]},{"type":"LineString","properties":{"source":"openstreetmap.org","kind":"major_road","sort_rank":380,"kind_detail":"primary","ref":"11 ; 545","min_zoom":8.0,"id":102945867},"arcs":[372]},{"type":"MultiLineString","properties":{"kind":"major_road","sort_rank":377,"landuse_kind":"residential","is_bicycle_related":true,"bicycle_shield_text":"2","bicycle_network":"ncn","source":"openstreetmap.org","min_zoom":8.0,"kind_detail":"tertiary"},"arcs":[[373],[374],[375]]},{"type":"LineString","properties":{"source":"openstreetmap.org","kind":"major_road","kind_detail":"trunk","sort_rank":381,"landuse_kind":"urban_area","ref":"26","min_zoom":8.0},"arcs":[376]},{"type":"LineString","properties":{"kind":"major_road","sort_rank":380,"kind_detail":"primary","is_bicycle_related":true,"bicycle_shield_text":"Panoramarute 413","cycleway":"track","source":"openstreetmap.org","min_zoom":8.0,"bicycle_network":"lcn","ref":"55"},"arcs":[377]},{"type":"LineString","properties":{"kind":"major_road","sort_rank":379,"kind_detail":"secondary","is_bicycle_related":true,"bicycle_shield_text":null,"bicycle_network":"icn","source":"openstreetmap.org","min_zoom":8.0,"ref":"535"},"arcs":[378]},{"type":"MultiLineString","properties":{"source":"openstreetmap.org","kind":"major_road","sort_rank":380,"kind_detail":"primary","ref":"11;26","min_zoom":8.0},"arcs":[[379],[380],[381]]},{"type":"LineString","properties":{"kind":"major_road","sort_rank":380,"kind_detail":"primary","is_bicycle_related":true,"cycleway":"lane","source":"openstreetmap.org","min_zoom":8.0,"ref":"55"},"arcs":[382]},{"type":"MultiLineString","properties":{"kind":"major_road","sort_rank":379,"kind_detail":"secondary","is_bicycle_related":true,"bicycle_shield_text":"12","cycleway":"lane","source":"openstreetmap.org","min_zoom":8.0,"bicycle_network":"ncn","ref":"533"},"arcs":[[383],[384],[385]]},{"type":"MultiLineString","properties":{"kind":"minor_road","sort_rank":360,"kind_detail":"residential","is_bicycle_related":true,"bicycle_shield_text":"12","bicycle_network":"ncn","source":"openstreetmap.org","min_zoom":8.0},"arcs":[[386],[387],[388],[389],[390],[391],[392],[393],[394],[395],[396],[397],[398],[399],[400],[401],[402],[403]]},{"type":"MultiLineString","properties":{"source":"openstreetmap.org","kind":"major_road","sort_rank":380,"kind_detail":"primary","ref":"11 ; 55","min_zoom":8.0},"arcs":[[404],[405]]},{"type":"LineString","properties":{"kind":"major_road","sort_rank":380,"kind_detail":"primary","is_bicycle_related":true,"cycleway":"lane","source":"openstreetmap.org","min_zoom":8.0,"ref":"29;535","id":106525477},"arcs":[406]},{"type":"LineString","properties":{"kind":"major_road","sort_rank":380,"kind_detail":"primary","is_bicycle_related":true,"bicycle_shield_text":"EV12","bicycle_network":"icn","source":"openstreetmap.org","min_zoom":8.0,"ref":"26","id":29045786},"arcs":[407]},{"type":"LineString","properties":{"kind":"major_road","sort_rank":379,"kind_detail":"secondary","is_bicycle_related":true,"bus_network":"Nordjyllands Trafikselskab","bicycle_shield_text":"12","cycleway":"lane","source":"openstreetmap.org","min_zoom":8.0,"bus_shield_text":"950X","bicycle_network":"ncn","id":398634602},"arcs":[408]},{"type":"LineString","properties":{"kind":"major_road","sort_rank":377,"kind_detail":"tertiary","is_bicycle_related":true,"bicycle_shield_text":"EV12","cycleway":"track","source":"openstreetmap.org","min_zoom":8.0,"landuse_kind":"residential","bicycle_network":"icn","id":227149235},"arcs":[409]},{"type":"LineString","properties":{"source":"openstreetmap.org","kind":"major_road","sort_rank":380,"kind_detail":"primary","ref":"26;189;573","min_zoom":8.0,"id":25659287},"arcs":[410]},{"type":"LineString","properties":{"kind":"major_road","sort_rank":377,"landuse_kind":"residential","is_bicycle_related":true,"bicycle_shield_text":null,"bicycle_network":"icn","source":"openstreetmap.org","min_zoom":8.0,"kind_detail":"tertiary","cycleway":"track"},"arcs":[411]},{"type":"LineString","properties":{"kind":"minor_road","service":"alley","sort_rank":360,"kind_detail":"residential","is_bicycle_related":true,"bicycle_shield_text":"EV12","bicycle_network":"icn","source":"openstreetmap.org","min_zoom":8.0,"id":39816544},"arcs":[412]},{"type":"MultiLineString","properties":{"kind":"major_road","sort_rank":377,"kind_detail":"tertiary","is_bicycle_related":true,"bicycle_shield_text":null,"bicycle_network":"icn","source":"openstreetmap.org","min_zoom":8.0,"cycleway":"track"},"arcs":[[413],[414]]},{"type":"LineString","properties":{"bus_network":"Nordjyllands Trafikselskab","sort_rank":379,"kind_detail":"secondary","is_bicycle_related":true,"kind":"major_road","bicycle_shield_text":"12","bicycle_network":"ncn","source":"openstreetmap.org","min_zoom":8.0,"bus_shield_text":"950X","cycleway":"track","ref":"187"},"arcs":[415]},{"type":"LineString","properties":{"kind":"path","sort_rank":354,"kind_detail":"footway","is_bicycle_related":true,"bicycle_shield_text":"12","bicycle_network":"ncn","source":"openstreetmap.org","min_zoom":8.0},"arcs":[416]},{"type":"LineString","properties":{"kind":"minor_road","sort_rank":360,"kind_detail":"residential","is_bicycle_related":true,"bicycle_shield_text":"12","bicycle_network":"ncn","source":"openstreetmap.org","min_zoom":8.0,"landuse_kind":"residential","id":159195004},"arcs":[417]},{"type":"MultiLineString","properties":{"kind":"major_road","sort_rank":380,"kind_detail":"primary","is_bicycle_related":true,"cycleway":"track","source":"openstreetmap.org","min_zoom":8.0,"ref":"11;55"},"arcs":[[418],[419],[420]]},{"type":"LineString","properties":{"kind":"minor_road","sort_rank":360,"landuse_kind":"nature_reserve","is_bicycle_related":true,"bicycle_shield_text":"12","bicycle_network":"ncn","source":"openstreetmap.org","min_zoom":8.0,"kind_detail":"unclassified"},"arcs":[421]},{"type":"MultiLineString","properties":{"kind":"major_road","sort_rank":379,"kind_detail":"secondary","is_bicycle_related":true,"bicycle_shield_text":"12","cycleway":"lane","source":"openstreetmap.org","min_zoom":8.0,"bicycle_network":"ncn","ref":"569"},"arcs":[[422],[423]]},{"type":"LineString","properties":{"kind":"path","sort_rank":354,"kind_detail":"cycleway","is_bicycle_related":true,"bicycle_shield_text":null,"bicycle_network":"icn","source":"openstreetmap.org","min_zoom":8.0},"arcs":[424]},{"type":"LineString","properties":{"cycleway_right":"track","sort_rank":377,"kind_detail":"tertiary","is_bicycle_related":true,"kind":"major_road","bicycle_shield_text":"2","bicycle_network":"ncn","source":"openstreetmap.org","min_zoom":8.0,"landuse_kind":"urban_area","id":438222373},"arcs":[425]},{"type":"MultiLineString","properties":{"kind":"major_road","sort_rank":377,"kind_detail":"tertiary","is_bicycle_related":true,"bicycle_shield_text":"EV12","bicycle_network":"icn","source":"openstreetmap.org","min_zoom":8.0},"arcs":[[426],[427],[428],[429],[430],[431],[432],[433],[434],[435],[436]]},{"type":"LineString","properties":{"kind":"minor_road","sort_rank":360,"kind_detail":"unclassified","is_bicycle_related":true,"bicycle_shield_text":"EV12","bicycle_network":"icn","source":"openstreetmap.org","min_zoom":8.0,"landuse_kind":"park"},"arcs":[437]},{"type":"MultiLineString","properties":{"kind":"minor_road","sort_rank":360,"kind_detail":"residential","is_bicycle_related":true,"bicycle_shield_text":"EV12","bicycle_network":"icn","source":"openstreetmap.org","min_zoom":8.0},"arcs":[[438],[439],[440],[441],[442]]},{"type":"LineString","properties":{"kind":"path","sort_rank":354,"kind_detail":"path","is_bicycle_related":true,"bicycle_shield_text":null,"bicycle_network":"icn","source":"openstreetmap.org","min_zoom":8.0},"arcs":[443]},{"type":"LineString","properties":{"kind":"major_road","sort_rank":379,"landuse_kind":"park","is_bicycle_related":true,"bicycle_shield_text":null,"bicycle_network":"ncn","source":"openstreetmap.org","min_zoom":8.0,"kind_detail":"secondary","ref":"181"},"arcs":[444]},{"type":"MultiLineString","properties":{"bus_network":"Nordjyllands Trafikselskab","sort_rank":379,"kind_detail":"secondary","is_bicycle_related":true,"kind":"major_road","bicycle_shield_text":"12","cycleway":"lane","source":"openstreetmap.org","min_zoom":8.0,"bus_shield_text":"950X","bicycle_network":"ncn","ref":"533"},"arcs":[[445],[446],[447],[448]]},{"type":"MultiLineString","properties":{"kind":"minor_road","sort_rank":360,"kind_detail":"residential","is_bicycle_related":true,"bicycle_shield_text":"EV12","bicycle_network":"icn","source":"openstreetmap.org","min_zoom":8.0,"landuse_kind":"residential"},"arcs":[[449],[450]]},{"type":"MultiLineString","properties":{"source":"openstreetmap.org","kind":"major_road","sort_rank":380,"kind_detail":"primary","ref":"11","min_zoom":8.0},"arcs":[[451],[452],[453],[454],[455],[456],[457],[458],[459],[460],[461],[462],[463],[464],[465],[466],[467],[468],[469],[470]]},{"type":"MultiLineString","properties":{"kind":"major_road","sort_rank":377,"kind_detail":"tertiary","is_bicycle_related":true,"bicycle_shield_text":"12","bicycle_network":"ncn","source":"openstreetmap.org","min_zoom":8.0},"arcs":[[471],[472],[473],[474],[475],[476],[477],[478],[479],[480],[481],[482],[483],[484],[485],[486],[487],[488],[489],[490],[491],[492],[493],[494],[495],[496],[497],[498],[499],[500],[501]]},{"type":"MultiLineString","properties":{"kind":"major_road","sort_rank":380,"kind_detail":"primary","is_bicycle_related":true,"cycleway":"track","source":"openstreetmap.org","min_zoom":8.0,"ref":"11"},"arcs":[[502],[503],[504]]},{"type":"MultiLineString","properties":{"kind":"major_road","sort_rank":380,"kind_detail":"primary","is_bicycle_related":true,"cycleway":"track","source":"openstreetmap.org","min_zoom":8.0,"ref":"26"},"arcs":[[505],[506],[507]]},{"type":"MultiLineString","properties":{"kind":"major_road","sort_rank":380,"kind_detail":"primary","is_bicycle_related":true,"cycleway":"track","source":"openstreetmap.org","min_zoom":8.0,"ref":"55"},"arcs":[[508],[509],[510],[511]]},{"type":"MultiLineString","properties":{"kind":"major_road","sort_rank":379,"landuse_kind":"residential","is_bicycle_related":true,"bicycle_shield_text":"12","cycleway":"lane","source":"openstreetmap.org","min_zoom":8.0,"kind_detail":"secondary","bicycle_network":"ncn"},"arcs":[[512],[513],[514]]},{"type":"LineString","properties":{"kind":"path","sort_rank":354,"landuse_kind":"residential","is_bicycle_related":true,"bicycle_shield_text":"EV12","bicycle_network":"icn","source":"openstreetmap.org","min_zoom":8.0,"kind_detail":"path"},"arcs":[515]},{"type":"MultiLineString","properties":{"kind":"path","sort_rank":354,"kind_detail":"track","is_bicycle_related":true,"bicycle_shield_text":"12","bicycle_network":"ncn","source":"openstreetmap.org","min_zoom":8.0},"arcs":[[516],[517],[518],[519],[520],[521],[522],[523],[524],[525],[526],[527],[528]]},{"type":"LineString","properties":{"kind":"major_road","sort_rank":380,"landuse_kind":"park","source":"openstreetmap.org","min_zoom":8.0,"kind_detail":"primary","ref":"26","id":99366528},"arcs":[529]},{"type":"MultiLineString","properties":{"kind":"major_road","sort_rank":380,"kind_detail":"primary","is_bicycle_related":true,"cycleway":"track","source":"openstreetmap.org","min_zoom":8.0,"ref":"29;535"},"arcs":[[530],[531],[532],[533],[534]]},{"type":"MultiLineString","properties":{"kind":"major_road","sort_rank":377,"kind_detail":"tertiary","is_bicycle_related":true,"bicycle_shield_text":"12","bicycle_network":"ncn","source":"openstreetmap.org","min_zoom":8.0,"cycleway":"track"},"arcs":[[535],[536],[537]]},{"type":"MultiLineString","properties":{"kind":"major_road","sort_rank":379,"landuse_kind":"residential","is_bicycle_related":true,"bicycle_shield_text":"12","cycleway":"track","source":"openstreetmap.org","min_zoom":8.0,"kind_detail":"secondary","bicycle_network":"ncn"},"arcs":[[538],[539]]},{"type":"LineString","properties":{"kind":"major_road","sort_rank":379,"kind_detail":"secondary","is_bicycle_related":true,"bicycle_shield_text":"12","bicycle_network":"ncn","source":"openstreetmap.org","min_zoom":8.0,"ref":"545","id":83238427},"arcs":[540]},{"type":"LineString","properties":{"kind":"path","sort_rank":354,"kind_detail":"footway","is_bicycle_related":true,"bicycle_shield_text":null,"bicycle_network":"icn","source":"openstreetmap.org","min_zoom":8.0,"landuse_kind":"residential","id":341733917},"arcs":[541]},{"type":"LineString","properties":{"kind":"minor_road","sort_rank":360,"kind_detail":"unclassified","is_bicycle_related":true,"bicycle_shield_text":"2","bicycle_network":"ncn","source":"openstreetmap.org","min_zoom":8.0,"landuse_kind":"park"},"arcs":[542]},{"type":"MultiLineString","properties":{"kind":"major_road","sort_rank":379,"kind_detail":"secondary","is_bicycle_related":true,"bicycle_shield_text":"12","bicycle_network":"ncn","source":"openstreetmap.org","min_zoom":8.0,"ref":"569"},"arcs":[[543],[544]]},{"type":"LineString","properties":{"kind":"major_road","sort_rank":379,"kind_detail":"secondary","is_bicycle_related":true,"bicycle_shield_text":"12","bicycle_network":"ncn","source":"openstreetmap.org","min_zoom":8.0,"ref":"551","id":367588958},"arcs":[545]},{"type":"MultiLineString","properties":{"cycleway_right":"lane","sort_rank":377,"landuse_kind":"urban_area","is_bicycle_related":true,"kind":"major_road","bicycle_shield_text":"2","bicycle_network":"ncn","source":"openstreetmap.org","min_zoom":8.0,"kind_detail":"tertiary"},"arcs":[[546],[547]]},{"type":"MultiLineString","properties":{"source":"openstreetmap.org","kind":"major_road","landuse_kind":"residential","sort_rank":380,"kind_detail":"primary","ref":"11;55","min_zoom":8.0},"arcs":[[548],[549]]},{"type":"MultiLineString","properties":{"cycleway_right":"lane","sort_rank":380,"kind_detail":"primary","is_bicycle_related":true,"kind":"major_road","source":"openstreetmap.org","min_zoom":8.0,"ref":"11"},"arcs":[[550],[551]]},{"type":"LineString","properties":{"kind":"major_road","sort_rank":380,"kind_detail":"primary","is_bicycle_related":true,"cycleway":"track","source":"openstreetmap.org","min_zoom":8.0,"ref":"13"},"arcs":[552]},{"type":"LineString","properties":{"kind":"major_road","short_name":"St. Torupvej","sort_rank":377,"kind_detail":"tertiary","is_bicycle_related":true,"bicycle_shield_text":"12","bicycle_network":"ncn","source":"openstreetmap.org","min_zoom":8.0,"id":110775313},"arcs":[553]},{"type":"LineString","properties":{"kind":"major_road","sort_rank":377,"kind_detail":"tertiary","is_bicycle_related":true,"bicycle_shield_text":null,"bicycle_network":"icn","source":"openstreetmap.org","min_zoom":8.0,"landuse_kind":"urban_area"},"arcs":[554]},{"type":"MultiLineString","properties":{"kind":"major_road","sort_rank":377,"kind_detail":"tertiary","is_bicycle_related":true,"bicycle_shield_text":"2","bicycle_network":"ncn","source":"openstreetmap.org","min_zoom":8.0,"landuse_kind":"park"},"arcs":[[555],[556]]},{"type":"LineString","properties":{"kind":"major_road","sort_rank":379,"kind_detail":"secondary","is_bicycle_related":true,"bicycle_shield_text":"12","cycleway":"track","source":"openstreetmap.org","min_zoom":8.0,"bicycle_network":"ncn","ref":"569","id":125954723},"arcs":[557]},{"type":"MultiLineString","properties":{"kind":"path","sort_rank":354,"kind_detail":"track","is_bicycle_related":true,"bicycle_shield_text":"EV12","bicycle_network":"icn","source":"openstreetmap.org","min_zoom":8.0},"arcs":[[558],[559],[560],[561],[562],[563],[564],[565],[566],[567]]},{"type":"LineString","properties":{"cycleway_right":"track","sort_rank":380,"kind_detail":"primary","is_bicycle_related":true,"kind":"major_road","source":"openstreetmap.org","min_zoom":8.0,"ref":"11"},"arcs":[568]},{"type":"MultiLineString","properties":{"kind":"path","sort_rank":354,"landuse_kind":"residential","is_bicycle_related":true,"bicycle_shield_text":"12","bicycle_network":"ncn","source":"openstreetmap.org","min_zoom":8.0,"kind_detail":"cycleway"},"arcs":[[569],[570],[571]]},{"type":"LineString","properties":{"kind":"major_road","sort_rank":380,"kind_detail":"primary","is_bicycle_related":true,"source":"openstreetmap.org","min_zoom":8.0,"ref":"29","id":171632877},"arcs":[572]},{"type":"MultiLineString","properties":{"kind":"major_road","sort_rank":377,"landuse_kind":"urban_area","is_bicycle_related":true,"bicycle_shield_text":"2","bicycle_network":"ncn","source":"openstreetmap.org","min_zoom":8.0,"kind_detail":"tertiary"},"arcs":[[573],[574],[575],[576]]},{"type":"LineString","properties":{"kind":"major_road","sort_rank":379,"kind_detail":"secondary","is_bicycle_related":true,"bicycle_shield_text":"EV12","cycleway":"lane","source":"openstreetmap.org","min_zoom":8.0,"bicycle_network":"icn","ref":"559"},"arcs":[577]},{"type":"MultiLineString","properties":{"kind":"path","sort_rank":354,"kind_detail":"cycleway","is_bicycle_related":true,"bicycle_shield_text":"EV12","bicycle_network":"icn","source":"openstreetmap.org","min_zoom":8.0},"arcs":[[578],[579]]},{"type":"MultiLineString","properties":{"kind":"minor_road","service":"driveway","sort_rank":356,"kind_detail":"service","is_bicycle_related":true,"bicycle_shield_text":"12","bicycle_network":"ncn","source":"openstreetmap.org","min_zoom":8.0},"arcs":[[580],[581]]},{"type":"LineString","properties":{"cycleway_right":"track","sort_rank":377,"kind_detail":"tertiary","is_bicycle_related":true,"kind":"major_road","bicycle_shield_text":"EV12","bicycle_network":"icn","source":"openstreetmap.org","min_zoom":8.0,"id":302035729},"arcs":[582]},{"type":"LineString","properties":{"kind":"path","sort_rank":354,"kind_detail":"track","is_bicycle_related":true,"bicycle_shield_text":"EV12","bicycle_network":"icn","source":"openstreetmap.org","min_zoom":8.0,"landuse_kind":"military","id":70025425},"arcs":[583]},{"type":"LineString","properties":{"kind":"major_road","sort_rank":379,"kind_detail":"secondary","is_bicycle_related":true,"bicycle_shield_text":"12","bicycle_network":"ncn","source":"openstreetmap.org","min_zoom":8.0,"ref":"591"},"arcs":[584]},{"type":"MultiLineString","properties":{"kind":"major_road","sort_rank":377,"landuse_kind":"urban_area","is_bicycle_related":true,"bicycle_shield_text":"2","bicycle_network":"ncn","source":"openstreetmap.org","min_zoom":8.0,"kind_detail":"tertiary","cycleway":"track"},"arcs":[[585],[586],[587]]},{"type":"LineString","properties":{"kind":"major_road","sort_rank":380,"kind_detail":"primary","is_bicycle_related":true,"bicycle_shield_text":"23","bicycle_network":"rcn","source":"openstreetmap.org","min_zoom":8.0,"ref":"29","id":339921430},"arcs":[588]},{"type":"LineString","properties":{"source":"openstreetmap.org","kind":"ferry","name":"Hvalpsund - Sunds\u00f8re","sort_rank":355,"is_bicycle_related":true,"min_zoom":8.0,"id":28007758},"arcs":[589]},{"type":"LineString","properties":{"kind":"minor_road","sort_rank":360,"kind_detail":"residential","is_bicycle_related":true,"bicycle_shield_text":null,"bicycle_network":"icn","source":"openstreetmap.org","min_zoom":8.0,"landuse_kind":"residential","id":144634468},"arcs":[590]},{"type":"LineString","properties":{"kind":"minor_road","service":"rest_area","sort_rank":356,"kind_detail":"service","is_bicycle_related":true,"bicycle_shield_text":"12","bicycle_network":"ncn","source":"openstreetmap.org","min_zoom":8.0},"arcs":[591]},{"type":"LineString","properties":{"cycleway_right":"lane","sort_rank":379,"kind_detail":"secondary","is_bicycle_related":true,"kind":"major_road","bicycle_shield_text":null,"bicycle_network":"icn","source":"openstreetmap.org","min_zoom":8.0,"ref":"180","id":95147071},"arcs":[592]},{"type":"MultiLineString","properties":{"kind":"path","sort_rank":354,"kind_detail":"cycleway","is_bicycle_related":true,"bicycle_shield_text":"12","bicycle_network":"ncn","source":"openstreetmap.org","min_zoom":8.0},"arcs":[[593],[594],[595],[596],[597],[598],[599],[600],[601],[602],[603],[604],[605],[606],[607],[608],[609],[610],[611],[612],[613]]},{"type":"MultiLineString","properties":{"kind":"highway","network":"e-road","sort_rank":383,"kind_detail":"motorway","source":"openstreetmap.org","min_zoom":8.0,"all_networks":["e-road"],"shield_text":"45","ref":"E 45","all_shield_texts":["45"]},"arcs":[[614],[615],[616],[617]]},{"type":"MultiLineString","properties":{"source":"openstreetmap.org","kind":"major_road","sort_rank":381,"kind_detail":"trunk","ref":"11;26","min_zoom":8.0},"arcs":[[618],[619],[620]]},{"type":"MultiLineString","properties":{"kind":"major_road","sort_rank":379,"kind_detail":"secondary","is_bicycle_related":true,"bicycle_shield_text":"EV12","bicycle_network":"icn","source":"openstreetmap.org","min_zoom":8.0,"landuse_kind":"park","ref":"181"},"arcs":[[621],[622]]},{"type":"LineString","properties":{"source":"openstreetmap.org","kind":"major_road","sort_rank":380,"kind_detail":"primary","ref":"13; 29","min_zoom":8.0,"id":25572390},"arcs":[623]},{"type":"LineString","properties":{"kind":"major_road","sort_rank":380,"kind_detail":"primary","is_bicycle_related":true,"bicycle_shield_text":"12","bicycle_network":"ncn","source":"openstreetmap.org","min_zoom":8.0,"ref":"29","id":301904611},"arcs":[624]},{"type":"MultiLineString","properties":{"kind":"minor_road","sort_rank":360,"kind_detail":"unclassified","is_bicycle_related":true,"bicycle_shield_text":"2","bicycle_network":"ncn","source":"openstreetmap.org","min_zoom":8.0},"arcs":[[625],[626],[627],[628],[629],[630],[631],[632],[633],[634],[635],[636],[637]]},{"type":"LineString","properties":{"kind":"minor_road","sort_rank":358,"kind_detail":"service","is_bicycle_related":true,"bicycle_shield_text":null,"bicycle_network":"icn","source":"openstreetmap.org","min_zoom":8.0},"arcs":[638]},{"type":"MultiLineString","properties":{"kind":"major_road","sort_rank":379,"kind_detail":"secondary","is_bicycle_related":true,"bicycle_shield_text":"EV12","cycleway":"track","source":"openstreetmap.org","min_zoom":8.0,"bicycle_network":"icn","ref":"559"},"arcs":[[639],[640],[641]]},{"type":"LineString","properties":{"kind":"major_road","sort_rank":379,"kind_detail":"secondary","is_bicycle_related":true,"bicycle_shield_text":"12","bicycle_network":"ncn","source":"openstreetmap.org","min_zoom":8.0,"ref":"561"},"arcs":[642]},{"type":"LineString","properties":{"kind":"path","sort_rank":354,"kind_detail":"path","is_bicycle_related":true,"bicycle_shield_text":"2","bicycle_network":"ncn","source":"openstreetmap.org","min_zoom":8.0},"arcs":[643]},{"type":"MultiLineString","properties":{"source":"openstreetmap.org","kind":"major_road","sort_rank":380,"kind_detail":"primary","ref":"13","min_zoom":8.0},"arcs":[[644],[645],[646],[647],[648],[649],[650],[651],[652],[653],[654],[655],[656],[657],[658],[659],[660],[661],[662],[663],[664],[665],[666]]},{"type":"MultiLineString","properties":{"kind":"major_road","sort_rank":380,"kind_detail":"primary","is_bicycle_related":true,"bicycle_shield_text":"24","bicycle_network":"rcn","source":"openstreetmap.org","min_zoom":8.0,"ref":"11"},"arcs":[[667],[668]]},{"type":"MultiLineString","properties":{"kind":"path","sort_rank":354,"kind_detail":"track","is_bicycle_related":true,"bicycle_shield_text":"2","bicycle_network":"ncn","source":"openstreetmap.org","min_zoom":8.0},"arcs":[[669],[670],[671],[672]]},{"type":"LineString","properties":{"kind":"major_road","sort_rank":380,"kind_detail":"primary","is_bicycle_related":true,"cycleway":"lane","source":"openstreetmap.org","min_zoom":8.0,"ref":"26"},"arcs":[673]},{"type":"LineString","properties":{"bus_network":"Nordjyllands Trafikselskab","sort_rank":381,"landuse_kind":"urban_area","kind":"major_road","source":"openstreetmap.org","min_zoom":8.0,"bus_shield_text":"950X","kind_detail":"trunk","ref":"187"},"arcs":[674]},{"type":"MultiLineString","properties":{"kind":"path","sort_rank":354,"kind_detail":"cycleway","is_bicycle_related":true,"bicycle_shield_text":"1","bicycle_network":"ncn","source":"openstreetmap.org","min_zoom":8.0},"arcs":[[675],[676]]},{"type":"MultiLineString","properties":{"source":"openstreetmap.org","kind":"major_road","sort_rank":381,"kind_detail":"trunk","ref":"26","min_zoom":8.0},"arcs":[[677],[678],[679],[680],[681],[682],[683],[684],[685],[686],[687],[688],[689],[690],[691]]},{"type":"MultiLineString","properties":{"kind":"major_road","sort_rank":377,"kind_detail":"tertiary","is_bicycle_related":true,"bicycle_shield_text":"2","bicycle_network":"ncn","source":"openstreetmap.org","min_zoom":8.0},"arcs":[[692],[693],[694],[695],[696],[697],[698],[699],[700],[701],[702],[703],[704],[705],[706],[707]]}]},"earth":{"type":"GeometryCollection","geometries":[{"type":"MultiPolygon","properties":{"sort_rank":10,"source":"naturalearthdata.com","min_zoom":0.0,"kind":"earth","area":60283382479},"arcs":[[[708]],[[709]],[[710]],[[711]],[[712]],[[713]],[[714]]]},{"type":"Point","properties":{"label_placement":true,"kind":"island","name":"Mors","area":1199330048,"source":"openstreetmap.org","min_zoom":8.0,"id":-5523740,"osm_relation":true},"coordinates":[851,1429]}]},"landuse":{"type":"GeometryCollection","geometries":[{"type":"MultiPolygon","properties":{"source":"openstreetmap.org","kind":"park","tier":2,"area":971186042,"sort_rank":24,"min_zoom":6.0,"osm_relation":true},"arcs":[[[715]],[[716]]]},{"type":"MultiPolygon","properties":{"source":"openstreetmap.org","kind":"residential","tier":2,"area":266244272,"sort_rank":20,"min_zoom":8.0},"arcs":[[[717]],[[718]],[[719]],[[720]],[[721]]]},{"type":"MultiPolygon","properties":{"source":"openstreetmap.org","kind":"military","tier":3,"area":329268949,"sort_rank":45,"min_zoom":8.0},"arcs":[[[722]]]},{"type":"Polygon","properties":{"source":"openstreetmap.org","kind":"nature_reserve","area":110043000,"tier":2,"id":490087512,"min_zoom":7.0,"sort_rank":23},"arcs":[[723]]},{"type":"MultiPolygon","properties":{"source":"openstreetmap.org","kind":"nature_reserve","tier":2,"area":146093747,"sort_rank":23,"min_zoom":8.0,"osm_relation":true},"arcs":[[[724]]]},{"type":"MultiPolygon","properties":{"source":"naturalearthdata.com","kind":"urban_area","name":"","area":2882821394,"sort_rank":11,"min_zoom":4.0},"arcs":[[[725]],[[726]],[[727]],[[728]],[[729]]]},{"type":"Polygon","properties":{"kind":"residential","name":"St\u00f8vring","area":12731900,"sort_rank":20,"source":"openstreetmap.org","min_zoom":8.0,"tier":2,"id":48522189},"arcs":[[730]]},{"type":"Polygon","properties":{"kind":"residential","name":"Blokhus","area":17514900,"sort_rank":20,"source":"openstreetmap.org","min_zoom":8.0,"tier":2,"id":148851099},"arcs":[[731]]}]}},"type":"Topology","transform":{"translate":[8.4375,56.5594824838],"scale":[0.0003433228,0.0001872653]},"arcs":[[[332,4096],[-332,-92]],[[953,4096],[-74,-51],[-237,51]],[[0,707],[51,29],[171,-92],[-2,54],[43,56],[-55,-2],[31,59],[-56,15],[20,12],[-111,-5],[89,210],[-89,146],[51,73],[99,59],[41,-5],[-3,60],[119,8],[103,125],[67,120],[-26,18],[20,46],[-17,61],[43,64],[4,71],[61,57],[-14,70],[36,79],[79,-10],[-10,12],[13,14],[161,-49],[70,20],[41,57],[162,70],[-1,34],[-63,64],[79,24],[14,-32],[23,28],[74,-22],[-3,-74],[40,-19],[44,35],[-20,19],[54,100],[55,23],[52,-17],[44,68],[58,26],[82,1],[15,-78],[26,7],[122,109],[-77,-60],[8,29],[206,92],[285,-259],[78,4],[77,47],[22,-10],[54,71],[128,60],[144,22],[69,49],[73,15],[11,-19],[96,52],[27,-22],[241,-1],[10,39],[83,5],[39,65],[74,49],[-89,-9],[-23,30],[41,51],[133,65],[26,-21],[-38,-49],[-49,-7],[0,-60],[43,17],[59,-28],[35,-31],[2,-6],[2,-3],[4,-2],[132,28],[39,33],[47,113],[44,7],[-33,11],[10,53],[159,-86],[17,-18]],[[3559,4096],[-367,-560],[-407,-318],[-210,-41],[-125,-53],[-260,-34],[-251,26],[-218,84],[-75,-21],[-75,15],[-323,-213],[-325,-103],[-389,150],[-52,-24],[-11,16],[-16,-14],[18,11],[9,-16],[-25,3],[5,-18],[-15,-10],[6,36],[-10,-7],[-180,-319],[-86,-94],[-68,-6],[-109,-193]],[[0,522],[161,-160],[65,-203],[40,-45],[75,-15],[-71,48],[1,35],[51,35],[117,5],[23,102],[3,103],[-37,12],[-42,69],[59,138],[-19,58],[-26,-33],[-46,19],[-23,-30],[-35,1],[-96,-89],[-70,30],[-20,45],[29,11],[-26,9],[-79,-16],[-34,-31]],[[4052,0],[-5,7],[-216,78],[-86,149],[15,57],[132,104],[27,117],[77,58],[77,176],[23,114]],[[4096,1783],[-2,8],[2,4]],[[4096,1801],[-2,12],[2,4]],[[1750,0],[-78,40],[-108,-40]],[[734,2100],[-151,41],[-138,-33],[-122,-183],[-76,-173],[-15,-114],[-168,-217],[-64,-35]],[[0,566],[112,-45],[97,-8],[119,-89],[9,-69],[-77,-135],[3,-62],[105,-70],[10,-88]],[[4096,484],[0,-73],[-110,20],[0,37],[110,16]],[[3550,4096],[-242,-447],[-220,-245],[-249,-168],[-264,-98],[-265,-32],[-728,106],[-53,-24],[-139,-155],[-118,-61],[-263,-60],[-136,8],[-243,87],[-104,1],[-93,-88],[-240,-383],[-157,-163],[-36,-59],[0,1781],[3550,0]],[[4096,2840],[0,-199],[-101,-12],[-139,36],[-97,-61],[-114,-43],[-53,-76],[-48,-96],[-106,-170],[-29,-27],[-40,-4],[-39,20],[-22,31],[2,33],[37,25],[0,40],[-339,143],[-97,3],[-432,-146],[-9,-17],[-16,-75],[-16,-17],[-25,-3],[-22,-7],[-20,-12],[-90,-94],[-59,-86],[-55,-106],[-54,-133],[47,-51],[26,-18],[34,-7],[18,-28],[14,-62],[2,-62],[-13,-27],[-8,-25],[-67,-107],[-15,-17],[-3,-66],[11,-64],[17,-54],[15,-35],[20,-37],[25,-36],[30,-26],[73,-26],[6,-37],[-17,-75],[-30,-90],[-134,-83],[-33,-64],[26,-69],[61,4],[63,41],[29,42],[117,55],[58,8],[15,-12],[29,-33],[59,-138],[0,-1],[-26,-151],[-48,-171],[-5,-198],[-8,-2],[-9,-26],[2,-31],[14,-8],[-84,0],[-17,34],[-2,33],[-6,23],[-31,13],[26,70],[67,100],[8,52],[-26,67],[-40,5],[-44,-10],[-40,28],[-65,9],[-104,-18],[-76,18],[17,120],[-20,0],[-14,-73],[-20,-46],[-23,-42],[-22,-58],[29,24],[28,6],[24,-18],[18,-52],[-46,-10],[-52,11],[-44,-12],[-38,-175],[-48,-57],[-48,-9],[-22,52],[-12,170],[3,67],[27,76],[80,83],[31,47],[-11,49],[0,40],[74,20],[85,139],[81,20],[-38,113],[-36,60],[-47,52],[-41,74],[-17,125],[-25,65],[-58,44],[-67,22],[-51,-1],[-23,-20],[-14,-25],[-18,-23],[-34,-9],[-33,6],[-54,27],[-31,7],[-55,-13],[-137,-136],[-93,-70],[-35,-45],[-42,-84],[-27,-95],[30,-30],[127,-4],[70,-27],[-6,-12],[-161,-7],[-119,-38],[-44,-26],[-188,-323],[-134,-9],[-38,-36],[-1,-55],[49,-27],[13,-47],[5,-46],[13,-28],[22,-13],[29,-2],[90,-73],[15,-46],[-6,-18],[-5,-3],[-526,0],[-36,103],[-18,0],[-22,-57],[-24,-46],[-181,0],[-48,40],[-27,8],[-54,60],[0,462],[21,-12],[66,-64],[26,-79],[31,-63],[71,-98],[82,-76],[59,1],[-37,24],[-1,23],[25,16],[42,7],[39,17],[30,38],[43,78],[-20,51],[-44,71],[0,45],[8,102],[-8,39],[-43,17],[-205,-90],[-29,10],[-61,49],[-41,14],[-54,-16],[0,70],[10,8],[35,11],[38,-12],[68,-50],[34,-11],[38,8],[38,27],[17,46],[-21,65],[-27,12],[-117,-12],[0,33],[44,49],[3,85],[-25,181],[22,70],[48,36],[48,20],[22,21],[13,31],[31,15],[66,6],[92,144],[19,23],[14,26],[5,47],[3,12],[17,152],[38,59],[46,48],[39,63],[16,103],[31,39],[68,31],[69,15],[103,-30],[145,77],[106,99],[-43,46],[50,34],[66,7],[58,-27],[25,-72],[21,10],[51,64],[60,59],[47,-5],[48,55],[50,40],[50,12],[53,-34],[-19,-34],[50,1],[37,18],[71,54],[96,40],[23,36],[-18,70],[326,-275],[55,-25],[58,6],[666,241],[253,4],[117,49],[102,95],[56,15],[53,-53],[54,-42],[62,29],[56,59],[102,139],[24,13],[31,-11],[59,-50],[50,-19]],[[1233,1257],[-22,16],[24,-2],[20,3],[19,12],[18,27],[-50,22],[-25,55],[-24,178],[-10,27],[-13,25],[-8,34],[9,57],[12,19],[69,57],[22,-16],[23,-25],[14,-41],[1,-64],[21,19],[15,24],[24,66],[35,175],[6,11],[-6,45],[-30,74],[-5,24],[8,39],[34,67],[17,43],[-36,13],[-33,-70],[-43,-60],[-67,44],[-98,-204],[-58,-77],[-64,22],[-85,-49],[-171,-28],[-84,-32],[-20,-2],[-26,4],[-22,-2],[-10,-18],[4,-88],[6,-44],[10,4],[-25,-56],[-58,-79],[-16,-51],[32,-21],[34,-11],[36,-4],[37,3],[-73,-95],[-206,-29],[-81,-61],[8,-21],[10,-50],[5,-52],[-13,-23],[-28,-7],[-26,-17],[-22,-23],[-13,-26],[-10,-64],[30,-5],[90,35],[18,-3],[70,-36],[72,-76],[32,-44],[77,-176],[29,-15],[82,45],[232,65],[15,92],[121,99],[38,49],[39,72],[44,121],[38,60],[-19,20]],[[2725,0],[-161,0],[5,12],[90,55],[65,-36],[1,-31]],[[0,108],[54,-60],[27,-8],[48,-40]],[[310,0],[24,46],[22,57],[18,0],[36,-103]],[[936,0],[5,3],[6,18],[-15,46],[-90,73],[-29,2],[-22,13],[-13,28],[-5,46],[-13,47],[-49,27],[1,55],[38,36],[134,9],[188,323],[44,26],[119,38],[161,7],[6,12],[-70,27],[-127,4],[-30,30],[27,95],[42,84],[35,45],[93,70],[137,136],[55,13],[31,-7],[54,-27],[33,-6],[34,9],[18,23],[14,25],[23,20],[51,1],[67,-22],[58,-44],[25,-65],[17,-125],[41,-74],[47,-52],[36,-60],[38,-113],[-81,-20],[-85,-139],[-74,-20],[0,-40],[11,-49],[-31,-47],[-80,-83],[-27,-76],[-3,-67],[12,-170],[22,-52],[48,9],[48,57],[38,175],[44,12],[52,-11],[46,10],[-18,52],[-24,18],[-28,-6],[-29,-24],[22,58],[23,42],[20,46],[14,73],[20,0],[-17,-120],[76,-18],[104,18],[65,-9],[40,-28],[44,10],[40,-5],[26,-67],[-8,-52],[-67,-100],[-26,-70],[31,-13],[6,-23],[2,-33],[17,-34]],[[2725,0],[-1,31],[-65,36],[-90,-55],[-5,-12]],[[2508,0],[-14,8],[-2,31],[9,26],[8,2],[5,198],[48,171],[26,151],[0,1],[-59,138],[-29,33],[-15,12],[-58,-8],[-117,-55],[-29,-42],[-63,-41],[-61,-4],[-26,69],[33,64],[134,83],[30,90],[17,75],[-6,37],[-73,26],[-30,26],[-25,36],[-20,37],[-15,35],[-17,54],[-11,64],[3,66],[15,17],[67,107],[8,25],[13,27],[-2,62],[-14,62],[-18,28],[-34,7],[-26,18],[-47,51],[54,133],[55,106],[59,86],[90,94],[20,12],[22,7],[25,3],[16,17],[16,75],[9,17],[432,146],[97,-3],[339,-143],[0,-40],[-37,-25],[-2,-33],[22,-31],[39,-20],[40,4],[29,27],[106,170],[48,96],[53,76],[114,43],[97,61],[139,-36],[101,12]],[[4096,2840],[-50,19],[-59,50],[-31,11],[-24,-13],[-102,-139],[-56,-59],[-62,-29],[-54,42],[-53,53],[-56,-15],[-102,-95],[-117,-49],[-253,-4],[-666,-241],[-58,-6],[-55,25],[-326,275],[18,-70],[-23,-36],[-96,-40],[-71,-54],[-37,-18],[-50,-1],[19,34],[-53,34],[-50,-12],[-50,-40],[-48,-55],[-47,5],[-60,-59],[-51,-64],[-21,-10],[-25,72],[-58,27],[-66,-7],[-50,-34],[43,-46],[-106,-99],[-145,-77],[-103,30],[-69,-15],[-68,-31],[-31,-39],[-16,-103],[-39,-63],[-46,-48],[-38,-59],[-17,-152],[-3,-12],[-5,-47],[-14,-26],[-19,-23],[-92,-144],[-66,-6],[-31,-15],[-13,-31],[-22,-21],[-48,-20],[-48,-36],[-22,-70],[25,-181],[-3,-85],[-44,-49],[0,-33],[117,12],[27,-12],[21,-65],[-17,-46],[-38,-27],[-38,-8],[-34,11],[-68,50],[-38,12],[-35,-11],[-10,-8]],[[0,674],[54,16],[41,-14],[61,-49],[29,-10],[205,90],[43,-17],[8,-39],[-8,-102],[0,-45],[44,-71],[20,-51],[-43,-78],[-30,-38],[-39,-17],[-42,-7],[-25,-16],[1,-23],[37,-24],[-59,-1],[-82,76],[-71,98],[-31,63],[-26,79],[-66,64],[-21,12]],[[0,2315],[36,59],[157,163],[240,383],[93,88],[104,-1],[243,-87],[136,-8],[263,60],[118,61],[139,155],[53,24],[728,-106],[265,32],[264,98],[249,168],[220,245],[242,447]],[[4096,484],[-110,-16],[0,-37],[110,-20]],[[1131,984],[39,72],[44,121],[38,60],[-19,20],[-22,16],[24,-2],[20,3],[19,12],[18,27],[-50,22],[-25,55],[-24,178],[-10,27],[-13,25],[-8,34],[9,57],[12,19],[69,57],[22,-16],[23,-25],[14,-41],[1,-64],[21,19],[15,24],[24,66],[35,175],[6,11],[-6,45],[-30,74],[-5,24],[8,39],[34,67],[17,43],[-36,13],[-33,-70],[-43,-60],[-67,44],[-98,-204],[-58,-77],[-64,22],[-85,-49],[-171,-28],[-84,-32],[-20,-2],[-26,4],[-22,-2],[-10,-18],[4,-88],[6,-44],[10,4],[-25,-56],[-58,-79],[-16,-51],[32,-21],[34,-11],[36,-4],[37,3],[-73,-95],[-206,-29],[-81,-61],[8,-21],[10,-50],[5,-52],[-13,-23],[-28,-7],[-26,-17],[-22,-23],[-13,-26],[-10,-64],[30,-5],[90,35],[18,-3],[70,-36],[72,-76],[32,-44],[77,-176],[29,-15],[82,45],[232,65],[15,92],[121,99],[38,49]],[[3626,3640],[1,8]],[[3627,3637],[10,-95]],[[3640,3509],[-3,33]],[[3640,3509],[8,-58]],[[3648,3451],[-4,-27]],[[3644,3424],[16,-81]],[[3666,3863],[0,-1]],[[3666,3863]],[[3666,3861],[1,-1]],[[3667,3860],[0,1]],[[3708,3270],[-22,27]],[[3708,3270],[40,-84]],[[3750,3187],[-4,26],[-38,57]],[[3666,3863],[-1,-2],[2,0],[0,1],[-1,1]],[[454,1733],[0,1]],[[507,3008],[57,-35]],[[651,1713],[-67,26],[-61,-21]],[[564,2973],[0,-1]],[[565,2972],[-1,1]],[[565,2970],[1,0]],[[566,2970],[0,1]],[[700,2822],[-134,148]],[[684,1669],[-33,44]],[[698,1653],[-14,16]],[[686,2301],[22,-83]],[[700,2822],[1,-2]],[[702,2820],[-2,2]],[[701,2816],[1,2]],[[701,2819],[0,-3]],[[701,2816],[8,-171]],[[708,2218],[1,-2]],[[709,2217],[-1,1]],[[709,2634],[2,-39]],[[775,1495],[1,-2]],[[1147,1105],[-1,3],[-5,11],[4,-9],[2,-5]],[[1147,1105],[3,-23]],[[1150,1082],[12,-40]],[[1164,1040],[-2,2]],[[1228,987],[15,-20]],[[1265,940],[-22,27]],[[1265,940],[125,-102]],[[1390,838],[13,-18]],[[1403,820],[68,-106]],[[1471,714],[10,-19]],[[1481,695],[56,-107]],[[1641,42],[-2,-8]],[[1641,42],[2,7]],[[1643,49],[-2,-7]],[[1645,57],[-2,-6]],[[1644,51],[1,6]],[[1645,57],[25,19]],[[565,2972],[-1,-1],[2,-1],[0,2],[-1,0]],[[1667,580],[0,1]],[[0,2280],[73,86]],[[140,2513],[-41,-82]],[[4006,1141],[7,-1]],[[3903,464],[-15,-24]],[[3910,477],[-2,-5]],[[3958,428],[-22,10]],[[703,2819],[1,-1]],[[704,2818],[-1,1]],[[832,2771],[-128,47]],[[1233,2517],[-144,129]],[[1233,2517],[1,-2],[1,0],[-2,2]],[[2401,2767],[2,-2]],[[2403,2765],[-2,2]],[[2486,2359],[-37,295],[-46,111]],[[2506,2335],[-20,23]],[[2506,2335],[1,-2]],[[2508,2333],[-2,2]],[[2508,2332],[1,-1]],[[2639,2157],[-131,175]],[[2639,2157],[0,-1]],[[2640,2156],[-1,1]],[[2639,2156],[0,-1]],[[2640,2154],[1,-1]],[[2641,2153],[0,2]],[[2641,2155],[0,1]],[[2682,2097],[-41,56]],[[2682,2097],[1,-2]],[[2689,2076],[-6,19]],[[2689,2076],[1,-3]],[[2974,1587],[-60,95],[-82,37],[-127,228],[-15,126]],[[2974,1587],[0,-2]],[[2975,1585],[-1,2]],[[2975,1584],[1,-1]],[[2976,1583],[0,1]],[[3098,1391],[-122,192]],[[3098,1391],[1,-1]],[[3099,1390],[-1,1]],[[3100,1389],[2,-1]],[[3101,1389],[-1,1],[-1,0],[1,-1],[1,0]],[[3102,1388],[-1,1]],[[3164,1343],[-62,45]],[[3164,1343],[1,-2]],[[3166,1342],[-2,1]],[[3167,1340],[2,-1]],[[3169,1339],[-2,2]],[[3205,1305],[-36,34]],[[3205,1305],[0,-1]],[[3206,1304],[-1,1]],[[3450,809],[-40,70]],[[3453,806],[-2,1]],[[3481,783],[3,-1]],[[3484,782],[-1,0]],[[3778,577],[-208,65],[-86,140]],[[2508,2332],[0,1],[-1,0],[0,-1],[1,0]],[[2975,1585],[-1,-1],[2,0],[0,1],[-1,0]],[[3166,1342],[-1,-1],[1,-1],[1,1],[-1,1]],[[1681,182],[18,-29]],[[1694,148],[52,-93]],[[1756,52],[-11,-24]],[[2418,2178],[-2,-1]],[[2416,2177],[2,1]],[[2447,2192],[-29,-14]],[[2447,2192],[2,0]],[[2448,2192],[-1,0]],[[2509,2331],[1,-1]],[[3227,1261],[2,-1]],[[3229,1260],[-1,2]],[[3296,1140],[-67,120]],[[3296,1140],[0,-1]],[[3297,1139],[-1,1]],[[3297,1137],[1,-1]],[[3298,1136],[-1,2]],[[3410,879],[-112,257]],[[3483,782],[-33,27]],[[2215,756],[-16,-8]],[[3910,477],[-29,11]],[[756,2209],[-33,5]],[[768,2206],[-12,3]],[[798,2198],[-30,8]],[[798,2198],[19,-3]],[[859,2205],[-42,-10]],[[1166,1344],[-21,84],[-26,0]],[[1694,148],[5,5]],[[3879,268],[-7,30]],[[223,2585],[233,385]],[[3889,515],[0,21]],[[3909,398],[-9,11]],[[3749,3183],[26,-19]],[[3774,3166],[-23,18]],[[3778,3162],[8,-6]],[[3786,3156],[-8,6]],[[3787,3155],[29,-7]],[[3816,3149],[-29,7]],[[3818,3147],[5,-2],[3,-2]],[[3826,3143],[1,0]],[[3832,3139],[-6,4]],[[3826,3143],[-7,5]],[[3751,3186],[-3,0],[1,-2],[2,0]],[[3751,3184],[0,2]],[[1376,622],[-9,-24]],[[2173,1360],[10,15]],[[2215,1232],[-26,6]],[[2202,1715],[6,-6]],[[2268,1200],[-44,-22]],[[2234,1131],[-9,19]],[[2255,1660],[-6,-2]],[[2341,2160],[1,2]],[[2505,2338],[14,-1]],[[1927,1745],[191,30]],[[3666,3863]],[[3667,3860]],[[1186,1331],[14,-18]],[[1747,55],[1,0]],[[1755,49],[1,2]],[[1756,52],[0,1]],[[453,2484],[78,-1]],[[564,2784],[-7,-208]],[[1256,967],[-4,-2]],[[1263,1058],[-10,29]],[[741,2095],[-1,0],[1,-1],[1,1],[-1,0]],[[3879,268],[-113,-50],[-183,-14],[-54,-46],[30,-23],[-48,-135]],[[3812,689],[18,-39]],[[3888,440],[-31,-53]],[[3893,333],[-4,18]],[[4006,1141],[-95,-96],[39,-10]],[[3974,859],[59,19]],[[4094,1456],[-48,-1]],[[3625,3637],[2,-20]],[[3626,3644],[0,-5]],[[3627,3639],[-1,1]],[[3626,3639],[-1,-2],[1,0],[1,1],[-1,1]],[[2412,2176],[-3,-1]],[[2412,2176],[3,0]],[[2415,2177],[-3,-1]],[[193,957],[-48,7]],[[3575,4084],[-7,5]],[[1240,1257],[-32,-13]],[[1384,630],[-8,-8]],[[1385,631],[9,31]],[[2519,2336],[0,1]],[[1093,1425],[0,3]],[[1234,2514],[9,4]],[[1243,2518],[-8,-3]],[[1550,2542],[-307,-24]],[[1550,2542],[1,-1]],[[1551,2542],[-1,0]],[[1552,2541],[2,-1]],[[1554,2540],[-2,1]],[[1818,2478],[-165,12],[-99,50]],[[1959,2537],[-139,-58]],[[2396,2762],[-188,-66],[-102,-101],[-80,-31]],[[2396,2762],[5,5]],[[2401,2767],[-5,-5]],[[1552,2541],[0,1],[-1,0],[0,-1],[1,0]],[[2641,2156],[-2,0]],[[2639,2155],[2,0]],[[1164,1040],[64,-53]],[[3539,2300],[-13,-20]],[[170,2519],[48,24],[8,41]],[[455,2971],[7,12]],[[2195,743],[4,5]],[[0,756],[103,36]],[[0,1148],[60,-27]],[[145,1370],[-145,-151]],[[60,1121],[6,-4]],[[66,1117],[-12,-75],[40,-29],[-24,-59]],[[79,851],[46,55],[-34,39]],[[151,1366],[-6,4]],[[151,1366],[84,-37],[18,53],[31,7]],[[1052,2209],[34,-7],[41,50],[-4,57],[66,97],[2,85]],[[1192,2499],[1,3]],[[1198,2512],[26,10]],[[1224,2522],[3,2]],[[1226,2524],[-2,-2]],[[1248,918],[-15,-61]],[[1367,598],[-29,11],[-37,-31]],[[1394,662],[30,142]],[[1559,2565]],[[1599,1246]],[[1754,1194],[-83,16],[-56,-45]],[[1824,570],[15,-31],[-21,-55],[48,-9],[-28,-69],[-77,-13],[-90,53],[0,-32]],[[1707,2833],[54,22]],[[1914,1092],[-24,121],[-79,28],[-45,-18]],[[1862,2886],[-32,-8]],[[1836,658],[78,-23],[65,148]],[[1959,152],[27,31]],[[2033,874],[76,-27],[34,-55]],[[2110,278],[-2,-7]],[[2163,1354],[10,6]],[[2188,729],[107,-46],[49,59],[45,-2],[91,49]],[[2238,1439],[-43,-52]],[[2199,1869],[12,66],[28,16],[-2,52]],[[2272,1220],[-57,12]],[[2215,756],[25,31]],[[2252,1112],[49,-6]],[[2268,1200],[3,3]],[[2301,1106],[2,0]],[[2303,1107],[-2,-1]],[[2370,1020],[82,-81],[-130,-100]],[[2449,2654]],[[2502,2325],[3,13]],[[2864,2250],[-49,66],[-4,63],[-291,-55]],[[2526,2541],[40,13],[29,-35],[106,-1],[39,6],[25,45]],[[2555,237],[22,-197]],[[2601,653],[-26,-45],[15,-84],[47,-35]],[[2674,412],[-32,-49]],[[2909,2299],[55,73]],[[3015,2364],[44,48],[101,-85],[77,-10]],[[3416,2659],[213,111]],[[3884,2963],[116,-70]],[[3575,4084],[5,-3]],[[2238,1439],[17,221]],[[2271,1203],[1,17]],[[2370,1020],[-67,87]],[[2480,789],[76,-60]],[[2699,471],[-25,-59]],[[701,2819],[2,0],[-1,1],[-1,0],[0,-1]],[[3556,2322]],[[391,2044],[86,93]],[[3666,3776],[4,21]],[[745,2106],[-1,1],[0,-1],[1,0]],[[752,2113],[-1,-1],[1,0],[0,1]],[[778,2119],[1,0],[0,1],[-1,0],[0,-1]],[[3548,1340],[-9,-9]],[[3540,1331],[8,9]],[[3729,1417],[-181,-77]],[[3775,2394],[-49,-39]],[[3775,2394],[4,3]],[[3781,2399],[-6,-5]],[[3787,2404],[7,4]],[[3794,2408],[-5,-3]],[[3884,2412],[-90,-4]],[[3884,2412],[4,-1]],[[3891,2410],[-7,2]],[[3899,2408],[6,-1]],[[3905,2407],[-4,1]],[[4031,2422],[-126,-15]],[[4065,2426],[-22,-2]],[[4081,2426],[-16,0]],[[4096,2426],[-15,0]],[[2451,2194],[12,16]],[[3779,2397],[8,7]],[[3789,2405],[-8,-6]],[[3888,2411],[11,-3]],[[3901,2408],[-10,2]],[[1670,76],[29,23]],[[1699,99],[16,20]],[[1714,128]],[[1714,128],[1,-9]],[[1715,119],[2,3]],[[1717,122],[1,1]],[[1717,124],[0,-2]],[[1718,125],[-11,10],[7,-7]],[[1714,128],[3,-4]],[[1718,123],[1,0],[0,2],[-1,0],[0,-2]],[[3872,298],[21,35]],[[4046,1455],[14,53]],[[1820,2479],[-2,-1]],[[2026,2564],[-67,-27]],[[851,2106],[-72,13]],[[144,2516],[-1,0]],[[812,2865],[98,-29]],[[1507,2951],[-29,-57],[-144,7],[-103,-103],[-44,-11]],[[1668,3099],[52,71]],[[2693,3155],[-47,-13],[-52,21],[-4,-92],[-126,25],[48,-59]],[[2754,3188],[-40,-13]],[[2862,3248],[-1,1]],[[3292,3561],[28,-33]],[[3559,3779],[4,138],[25,5],[-28,35]],[[3812,689],[79,15],[28,46],[-12,25],[67,84]],[[3857,387],[13,-5]],[[3889,536],[-19,35]],[[3873,384],[8,-3]],[[3889,351],[-11,28],[31,19]],[[4033,878],[-45,40],[-38,117]],[[553,1728]],[[3200,2879],[-67,-11]],[[3453,3677],[9,41]],[[3471,3756],[64,7]],[[523,1718],[-18,4]],[[577,1739],[-55,-21]],[[1157,1051],[6,-9]],[[1163,1042],[-1,-1],[1,1]],[[1231,986],[-3,1]],[[1667,581],[-19,124],[-71,146],[-88,105],[-21,86],[-215,45]],[[1266,1051],[-9,-84]],[[1667,580],[-16,-111],[50,-201],[-20,-86]],[[739,2094],[2,0]],[[741,2097],[0,-2]],[[3228,1262],[0,3],[-3,0],[0,-3],[3,0]],[[1395,2253],[17,-36]],[[4040,2953],[56,-8]],[[3818,3149],[-2,0],[1,-3],[2,1],[-1,2]],[[3,982],[37,81]],[[1208,1244],[-51,-118]],[[1208,1299],[1,0]],[[1209,1298],[31,-41]],[[1685,194],[22,-59]],[[3654,3733],[12,43]],[[4096,1133],[-82,7]],[[590,2018],[-111,-188],[-19,-98]],[[591,2019],[-2,1],[0,-2],[1,0],[1,1]],[[710,2215]],[[3670,3797],[3,36]],[[2449,2193],[-1,0]],[[2449,2192],[1,0]],[[2450,2193],[-1,0]],[[852,2090],[-1,15]],[[898,2148],[0,-53],[-35,-7]],[[1193,2502],[5,10]],[[1682,2835],[25,-2]],[[2163,1354],[-11,-16]],[[2188,729],[7,14]],[[2234,1131],[18,-19]],[[2237,2003],[8,18]],[[2240,787],[20,8]],[[2395,2183],[-13,2]],[[2404,2178],[-4,3]],[[2413,2815],[-5,9]],[[2520,2324],[-1,12]],[[2612,699],[-2,-4]],[[2864,2250],[14,4]],[[3280,2258],[-3,-55]],[[3526,2280],[-55,-49]],[[3833,2559],[-40,-13]],[[3786,3156],[1,-1]],[[3787,3156],[-1,0]],[[3206,1304],[-1,0],[1,-1],[1,0],[-1,1]],[[462,2983],[45,25]],[[2416,2177],[-1,0],[0,-1],[1,0],[0,1]],[[3462,3718],[9,38]],[[1642,50],[1,-1],[1,1],[-1,1],[-1,-1]],[[3936,438],[-31,-23]],[[2861,3249],[-23,-22]],[[3905,415],[-5,-6]],[[4096,1457],[-2,-1]],[[3613,2337],[-56,-15]],[[1385,631],[-1,-1]],[[851,2105],[0,1]],[[3827,3143],[7,-7]],[[3834,3136],[-2,3]],[[4040,2953],[-206,183]],[[1761,2855],[69,23]],[[2002,2904],[12,-4]],[[2108,2869],[27,-8]],[[3870,571],[-40,79]],[[1756,51],[0,1]],[[224,2583],[-62,-17],[-18,-50]],[[507,3008],[61,-5]],[[812,2865],[39,22]],[[2413,2963],[-16,36],[-154,46],[-223,19],[3,-27]],[[2693,3155],[6,15]],[[3025,3243],[-105,52]],[[3215,3432],[38,63],[67,33]],[[3559,3779],[-19,-17]],[[3568,4089],[-2,1]],[[3539,3762],[0,-1],[1,0],[0,1]],[[3540,3762],[-1,0]],[[73,2366],[-25,15],[51,50]],[[1776,3113],[0,10]],[[2714,3175],[-15,-5]],[[2838,3227],[-25,-8]],[[2862,3248],[58,47]],[[3560,3957],[-1,0]],[[4060,1508],[36,17]],[[441,2941],[-1,4]],[[2448,2193],[0,-1]],[[2449,2192]],[[2449,2193]],[[2450,2192],[0,1]],[[3532,3975],[49,42],[-1,64]],[[3559,3957],[-24,16]],[[307,122],[-46,31],[9,97],[-53,147],[-217,135]],[[0,976],[3,6]],[[40,1063],[65,227],[103,178],[228,211],[24,53]],[[367,84],[-23,21]],[[712,2216],[-2,0]],[[710,2215],[2,1]],[[723,2214],[-11,2]],[[1221,2508],[-179,-76],[-123,-212],[-60,-15]],[[1221,2508],[13,6]],[[1235,2515],[-14,-7]],[[2401,2767],[12,12]],[[2413,2779],[-12,-12]],[[2464,2816],[-51,-37]],[[2464,2816],[17,5]],[[3133,2868],[-291,-43],[-361,-4]],[[3500,3020],[1,1]],[[3599,3112]],[[3611,3123],[135,60]],[[3746,3183],[3,1]],[[3748,3185],[-2,-2]],[[79,851],[24,-59]],[[284,1389],[180,145],[85,191]],[[548,1726],[1,-1]],[[549,1725],[0,1]],[[1052,2209],[-19,-52],[-135,-9]],[[1301,578],[-57,-37],[-1,-30],[-148,131],[-54,-8],[-31,-144],[-41,-14],[-20,-67],[-84,-95],[-12,-111],[76,-41],[1,-120],[14,-42]],[[1424,804],[-3,18],[64,-25],[3,118],[-128,50],[-46,-64],[-81,-44]],[[1256,967],[-8,-49]],[[1319,1058],[74,23],[134,207],[72,-42]],[[1599,1246],[16,-81]],[[1639,2670],[22,11],[21,154]],[[1756,1193],[0,-1]],[[1862,2886],[2,-3]],[[1914,1092],[119,-218]],[[1986,183],[54,-26],[63,63],[5,51]],[[2000,2896],[2,8]],[[2110,278],[47,-11],[65,-62],[126,31],[-16,-176]],[[2199,1869],[-69,-88],[11,-35],[61,-31]],[[2382,2185],[-40,-23]],[[2413,2813],[0,2]],[[2526,2541],[-27,115],[-50,-2]],[[2553,241],[2,-4]],[[2736,84],[-76,-1],[-83,-43]],[[2642,363],[-59,-109]],[[2610,695],[-9,-42]],[[2765,2569],[41,-4],[66,44],[94,-11],[51,25],[22,58],[113,-47],[149,21],[12,28],[103,-24]],[[2799,0],[-5,22]],[[3613,2337],[8,163],[172,46]],[[3629,2770],[48,-65],[91,16],[51,167],[65,75]],[[3969,2537],[-136,22]],[[4000,2893],[40,60]],[[3204,2880],[296,140]],[[3501,3021],[98,91]],[[3599,3112],[12,11]],[[505,1722],[-45,11]],[[775,1495],[-11,67],[-66,91]],[[1638,28],[-10,-28]],[[3627,3648],[27,85]],[[3660,3343],[26,-46]],[[3665,3864],[39,232]],[[3673,3833],[-6,26]],[[682,2100],[57,-6]],[[744,2106],[-3,-9]],[[775,2118],[3,1]],[[3535,3973],[-3,2]],[[1229,2526],[330,39]],[[1559,2565],[55,27],[25,78]],[[1864,2883],[12,2]],[[2154,1331],[35,-93]],[[2195,1387],[-12,-12]],[[2208,1709],[41,-51]],[[2224,1178],[1,-28]],[[2245,2021],[48,25],[48,114]],[[2260,795],[2,9]],[[2322,839],[-9,1]],[[2878,2254],[31,45]],[[2964,2372],[20,-20],[31,12]],[[3237,2317],[43,-59]],[[709,2645],[0,-11]],[[3206,1303],[1,-2]],[[3207,1301],[0,2]],[[3225,1266],[-18,35]],[[3225,1266],[0,-1]],[[3226,1265],[-1,1]],[[2408,2824],[-36,1]],[[2408,2789],[5,24]],[[4096,2553],[-127,-16]],[[751,2112],[-6,-5]],[[745,2107],[6,5]],[[70,954],[21,-9]],[[3958,428],[8,1]],[[453,2484],[-4,-15]],[[1227,2524],[-1,0]],[[2406,2772]],[[1824,570],[12,88]],[[1745,28],[10,21]],[[1756,51]],[[3778,3162],[-4,4]],[[3775,3164],[3,-2]],[[3202,2879],[-2,0],[2,0]],[[3202,2879],[1,1],[-1,0],[0,-1]],[[3074,72],[-24,-72]],[[2637,489],[62,-18]],[[3908,472],[-5,-8]],[[407,2352],[17,-62]],[[425,2287],[4,-22]],[[2372,2825],[-10,0]],[[910,2836],[277,-49]],[[1668,3099],[-52,-23],[-67,9],[-34,-67],[35,-18],[-43,-49]],[[1776,3123],[-56,47]],[[2023,3037],[-68,51],[-128,43],[-3,-42],[-48,24]],[[2512,3037],[-99,-74]],[[2813,3219],[-59,-31]],[[3083,3312],[-58,-69]],[[3215,3432],[-53,-127],[-60,9]],[[3416,3683],[-68,-37],[-56,-85]],[[3562,4096],[4,-6]],[[3203,2879],[0,1]],[[676,2093]],[[758,2113],[17,5],[-24,-5]],[[752,2112],[5,1]],[[1089,2646],[-257,125]],[[1166,1344],[20,-13]],[[1200,1313],[8,-14]],[[1209,1299],[-1,0]],[[1756,53],[-2,1]],[[3452,3676],[1,1]],[[143,2516],[-3,-3]],[[851,2887],[-283,116]],[[2000,2896],[-124,-11]],[[2152,1338],[2,-7]],[[3535,3763],[4,-1]],[[3102,3314],[-19,-2]],[[1979,783],[58,-24],[106,33]],[[1746,22],[34,-22]],[[1748,55],[6,-1]],[[1756,52]],[[2486,2358],[0,1]],[[2147,799],[50,-47]],[[3881,488],[8,27]],[[3542,2301],[-3,-1]],[[4013,1140],[0,-1],[1,1],[-1,0]],[[546,1727],[60,282]],[[606,2009],[70,84]],[[676,2093],[-70,-84]],[[757,2113],[1,0]],[[863,2088],[-11,2]],[[1192,2499],[-1,-8]],[[1766,1223],[-10,-30]],[[1756,1192],[10,31]],[[2011,2901],[97,-32],[-94,31]],[[2262,804],[51,36]],[[2400,2181],[-5,2]],[[2406,2772],[2,17],[-7,-22]],[[2401,2767],[48,-113]],[[2404,2178],[5,-3]],[[2449,2654],[-43,118]],[[2502,2325],[-39,-115],[39,115]],[[2583,254],[-30,-13]],[[2794,22],[-58,62]],[[3277,2203],[28,-48],[51,-11],[80,32],[35,55]],[[3542,2301],[14,21]],[[2135,2861],[227,-36]],[[4096,71],[-142,57]],[[3954,128],[-44,17],[-125,143],[-23,507],[-80,158],[-21,111],[4,107],[38,99],[61,188],[69,82],[165,213],[30,49],[44,46],[24,65]],[[4096,1924],[-24,-75],[-44,-46],[-264,-342],[-100,-291],[-4,-106],[21,-111],[81,-159],[22,-506],[126,-143],[44,-17]],[[3954,128],[142,-55]],[[590,2020],[21,121]],[[615,2150],[-4,-9]],[[615,2150],[35,47],[56,19]],[[134,2500],[36,19]],[[226,2584],[229,387]],[[3297,1137],[0,2],[-1,0],[0,-2],[1,0]],[[2401,2767]],[[315,1784],[4,145],[72,115]],[[449,2469],[-18,-60]],[[445,2187],[-11,-15]],[[453,1762],[9,-1]],[[557,2575],[86,-37],[26,-52],[-124,3]],[[595,2784],[-31,1]],[[584,1737],[-7,2]],[[872,1639],[-168,61],[-19,-15]],[[1093,1425],[-213,213]],[[1119,1428],[-26,0]],[[1231,986],[20,-20]],[[1935,148],[79,-41]],[[2075,122],[32,-8]],[[3870,382],[3,2]],[[3416,3683],[34,-6]],[[3450,3677],[2,-1]],[[3453,3677],[-3,0]],[[2612,699],[-56,30]],[[462,1761],[2,-1]],[[3074,72],[51,247]],[[3125,319],[3,10]],[[3127,329],[-2,-10]],[[3127,329],[2,0],[0,2]],[[3129,331],[-2,0],[0,-2]],[[3131,341],[-3,-10]],[[3129,331],[2,10]],[[3131,341],[64,369]],[[3195,710],[2,23]],[[3197,733],[-3,207],[101,196]],[[3295,1136],[1,1]],[[3296,1138],[-1,-2]],[[3298,1140],[-1,-1]],[[3298,1138],[0,2]],[[3298,1140],[190,139]],[[3488,1279],[1,1]],[[3489,1281],[-1,-2]],[[3492,1283],[-2,-1]],[[3491,1281],[1,2]],[[3492,1283],[38,39]],[[3530,1322],[10,9]],[[3539,1331],[-9,-9]],[[3491,1281],[-1,1],[-1,-1],[1,-1],[1,1]],[[344,105],[-37,17]],[[367,84],[-4,-84]],[[531,2483],[14,6]],[[557,2576],[0,-1]],[[564,2785],[0,-1]],[[1166,1050],[-9,1]],[[1639,34],[-1,-6]],[[4043,2424],[-12,-2]],[[223,2585],[-1,-4]],[[462,2982],[-6,-12]],[[711,2595],[22,-147],[-47,-147]],[[776,1493],[19,-41]],[[795,1452],[14,-13]],[[809,1439],[146,-33]],[[973,1395],[-18,11]],[[973,1395],[73,-61]],[[1060,1313],[-14,21]],[[1060,1313],[81,-194]],[[1537,588],[50,-114]],[[1587,474],[2,-16]],[[1590,458],[-3,16]],[[1590,456],[3,-13]],[[1593,443],[-3,13]],[[1593,443],[92,-249]],[[1590,458],[-1,-2],[1,0],[1,1],[-1,1]],[[315,1784],[138,-22]],[[431,2409],[-24,-57]],[[424,2290],[1,-3]],[[429,2265],[16,-78]],[[434,2172],[43,-35]],[[464,1760],[28,1],[13,-39]],[[517,2948],[155,-102],[-55,-65],[-22,3]],[[584,1737],[101,-52]],[[872,1639],[8,-1]],[[1150,1106],[16,-56]],[[1157,1126],[-5,-15]],[[1256,967],[1,0]],[[1266,1051],[-3,7]],[[1884,0],[32,54],[19,94]],[[2014,107],[61,15]],[[2107,114],[254,-65],[-2,-49]],[[0,674],[54,16],[41,-14],[61,-49],[29,-10],[205,90],[43,-17],[8,-39],[-8,-102],[0,-45],[44,-71],[20,-51],[-43,-78],[-30,-38],[-39,-17],[-42,-7],[-25,-16],[1,-23],[37,-24],[-59,-1],[-82,76],[-71,98],[-31,63],[-26,79],[-66,64],[-21,12],[0,104]],[[4096,411],[0,-411],[-1371,0],[-1,31],[-65,36],[-90,-55],[-5,-12],[-56,0],[-14,8],[-2,31],[9,26],[8,2],[5,198],[48,171],[26,151],[0,1],[-59,138],[-29,33],[-15,12],[-58,-8],[-117,-55],[-29,-42],[-63,-41],[-61,-4],[-26,69],[33,64],[134,83],[30,90],[17,75],[-6,37],[-73,26],[-30,26],[-25,36],[-20,37],[-15,35],[-17,54],[-11,64],[3,66],[15,17],[67,107],[8,25],[13,27],[-2,62],[-14,62],[-18,28],[-34,7],[-26,18],[-47,51],[54,133],[55,106],[59,86],[90,94],[20,12],[22,7],[25,3],[16,17],[16,75],[9,17],[432,146],[97,-3],[339,-143],[0,-40],[-37,-25],[-2,-33],[22,-31],[39,-20],[40,4],[29,27],[106,170],[48,96],[53,76],[114,43],[97,61],[139,-36],[101,12],[0,-2157],[-110,-16],[0,-37],[110,-20]],[[4096,4096],[0,-1256],[-50,19],[-59,50],[-31,11],[-24,-13],[-102,-139],[-56,-59],[-62,-29],[-54,42],[-53,53],[-56,-15],[-102,-95],[-117,-49],[-253,-4],[-666,-241],[-58,-6],[-55,25],[-326,275],[18,-70],[-23,-36],[-96,-40],[-71,-54],[-37,-18],[-50,-1],[19,34],[-53,34],[-50,-12],[-50,-40],[-48,-55],[-47,5],[-60,-59],[-51,-64],[-21,-10],[-25,72],[-58,27],[-66,-7],[-50,-34],[43,-46],[-106,-99],[-145,-77],[-103,30],[-69,-15],[-68,-31],[-31,-39],[-16,-103],[-39,-63],[-46,-48],[-38,-59],[-17,-152],[-3,-12],[-5,-47],[-14,-26],[-19,-23],[-92,-144],[-66,-6],[-31,-15],[-13,-31],[-22,-21],[-48,-20],[-48,-36],[-22,-70],[25,-181],[-3,-85],[-44,-49],[0,-33],[117,12],[27,-12],[21,-65],[-17,-46],[-38,-27],[-38,-8],[-34,11],[-68,50],[-38,12],[-35,-11],[-10,-8],[0,1571],[36,59],[157,163],[240,383],[93,88],[104,-1],[243,-87],[136,-8],[263,60],[118,61],[139,155],[53,24],[728,-106],[265,32],[264,98],[249,168],[220,245],[242,447],[546,0]],[[0,0],[0,108],[54,-60],[27,-8],[48,-40],[-129,0]],[[410,0],[-100,0],[24,46],[22,57],[18,0],[36,-103]],[[2424,0],[-1488,0],[5,3],[6,18],[-15,46],[-90,73],[-29,2],[-22,13],[-13,28],[-5,46],[-13,47],[-49,27],[1,55],[38,36],[134,9],[188,323],[44,26],[119,38],[161,7],[6,12],[-70,27],[-127,4],[-30,30],[27,95],[42,84],[35,45],[93,70],[137,136],[55,13],[31,-7],[54,-27],[33,-6],[34,9],[18,23],[14,25],[23,20],[51,1],[67,-22],[58,-44],[25,-65],[17,-125],[41,-74],[47,-52],[36,-60],[38,-113],[-81,-20],[-85,-139],[-74,-20],[0,-40],[11,-49],[-31,-47],[-80,-83],[-27,-76],[-3,-67],[12,-170],[22,-52],[48,9],[48,57],[38,175],[44,12],[52,-11],[46,10],[-18,52],[-24,18],[-28,-6],[-29,-24],[22,58],[23,42],[20,46],[14,73],[20,0],[-17,-120],[76,-18],[104,18],[65,-9],[40,-28],[44,10],[40,-5],[26,-67],[-8,-52],[-67,-100],[-26,-70],[31,-13],[6,-23],[2,-33],[17,-34]],[[1380,2118],[-8,-39],[5,-24],[30,-74],[6,-45],[-6,-11],[-35,-175],[-24,-66],[-15,-24],[-21,-19],[-1,64],[-14,41],[-23,25],[-22,16],[-69,-57],[-12,-19],[-9,-57],[8,-34],[13,-25],[10,-27],[24,-178],[25,-55],[50,-22],[-18,-27],[-19,-12],[-20,-3],[-24,2],[22,-16],[19,-20],[-38,-60],[-44,-121],[-39,-72],[-38,-49],[-121,-99],[-15,-92],[-232,-65],[-82,-45],[-29,15],[-77,176],[-32,44],[-72,76],[-70,36],[-18,3],[-90,-35],[-30,5],[10,64],[13,26],[22,23],[26,17],[28,7],[13,23],[-5,52],[-10,50],[-8,21],[81,61],[206,29],[73,95],[-37,-3],[-36,4],[-34,11],[-32,21],[16,51],[58,79],[25,56],[-10,-4],[-6,44],[-4,88],[10,18],[22,2],[26,-4],[20,2],[84,32],[171,28],[85,49],[64,-22],[58,77],[98,204],[67,-44],[43,60],[33,70],[36,-13],[-17,-43],[-34,-67]],[[0,1949],[64,-40],[-10,-48],[-10,28],[-44,-18],[0,78]],[[0,2396],[111,193],[16,-13],[-26,-32],[46,-37],[72,36],[7,41],[-37,18],[260,374],[67,-61],[100,-25],[15,-29],[-69,24],[-14,-31],[22,-7],[1,-41],[21,3],[-28,-24],[17,-42],[40,-3],[13,-29],[13,29],[15,-67],[49,-29],[-13,-73],[-17,-18],[-61,35],[-18,-33],[-5,22],[-42,-1],[22,-77],[-59,-8],[56,-32],[-60,-19],[-24,32],[-90,-7],[-13,-29],[28,-55],[-107,-13],[49,-38],[20,34],[78,-30],[-11,-38],[58,6],[26,-53],[-34,0],[-1,27],[-3,-20],[-91,14],[27,17],[-17,25],[-13,-26],[-64,-13],[-24,-45],[-3,48],[-14,-14],[-19,7],[10,24],[-18,-6],[8,23],[-20,-25],[-55,28],[-20,-75],[-20,11],[-14,-44],[-55,-7],[59,-32],[-69,-56],[-19,-74],[31,-10],[-41,2],[-9,-28],[-7,22],[-33,-10],[0,384]],[[3866,488],[42,50],[-2,-58],[103,7],[-43,-64],[33,-6],[-13,-22],[66,6],[20,-44],[-62,28],[-41,-22],[-7,-35],[-2,55],[-30,-11],[-14,25],[28,1],[1,34],[-40,-17],[2,29],[-28,-7],[31,35],[-44,16]],[[1131,1155],[46,29],[-4,56],[46,35],[-14,27],[23,-19],[13,40],[25,-1],[16,-48],[-29,7],[10,-21],[-55,-29],[31,-50],[-55,-6],[-21,-55],[-32,35]],[[640,2123],[48,39],[39,-30],[-7,43],[21,5],[66,-42],[55,3],[20,-41],[-62,10],[-4,-22],[-59,26],[-21,-24],[-63,3],[-33,30]],[[3744,3237],[21,28],[82,-20],[-6,-28],[-34,5],[-1,-9],[49,-6],[-8,-27],[-31,-13],[9,16],[-22,4],[-27,-27],[-32,77]],[[3498,3947],[73,149],[88,-8],[-26,-3],[7,-25],[-43,16],[15,-62],[-32,3],[29,-7],[-32,-11],[2,-60],[-19,19],[-62,-11]],[[2914,3304],[184,149],[10,-42],[79,-38],[-33,-51],[-98,-14],[-49,-54],[-93,50]],[[1689,2973],[16,30],[63,13],[24,-22],[86,-262],[144,-163],[-204,-91],[-17,28],[14,111],[-33,17],[-26,-49],[-34,-4],[-20,224],[63,-11],[9,52],[-39,27],[-46,100]],[[1765,2396],[53,78],[206,92],[181,-162],[-440,-8]],[[1817,0],[-143,0],[-7,136],[26,84],[47,-8],[32,-36],[21,-91],[24,-85]],[[3983,334],[-64,51],[-28,118],[35,132],[54,-19],[81,-137],[-75,-11],[0,-37],[67,-12],[2,-22],[-72,-63]],[[1255,1274],[-44,-1],[41,-36],[-37,-57],[-61,187],[-44,39],[20,47],[85,-50],[27,-68],[50,-22],[-37,-39]],[[884,2178],[-9,-43],[-33,10],[-129,-42],[-23,75],[42,45],[55,16],[55,-16],[42,-45]],[[4096,2418],[0,-105],[-106,-17],[8,107],[37,22],[61,-7]],[[4004,1699],[43,111],[32,11],[17,-65],[0,-31],[-14,-46],[14,-18],[0,-12],[-44,18],[3,42],[-21,-23],[-30,13]],[[3297,3630],[84,163],[8,-31],[52,18],[29,-6],[-19,0],[-6,-19],[54,1],[-21,-13],[7,-46],[-41,38],[-77,-75],[-34,13],[7,-17],[-43,-26]]]}