{"objects":{"water":{"type":"GeometryCollection","geometries":[{"type":"Polygon","properties":{"source":"naturalearthdata.com","kind":"ocean","area":1576712559132672,"sort_rank":200,"min_zoom":0.0,"id":1},"arcs":[[0],[1],[2]]},{"type":"LineString","properties":{"source":"naturalearthdata.com","kind":"ocean","sort_rank":205,"boundary":true,"min_zoom":0.0,"id":697},"arcs":[3]},{"type":"LineString","properties":{"source":"naturalearthdata.com","kind":"ocean","sort_rank":205,"boundary":true,"min_zoom":0.0,"id":4099},"arcs":[4]}]},"buildings":{"type":"GeometryCollection","geometries":[]},"places":{"type":"GeometryCollection","geometries":[{"type":"Point","properties":{"name:ka":"\u10d1\u10d4\u10e0\u10db\u10e3\u10d3\u10d0","name:ko":"\ubc84\ubba4\ub2e4","name:kn":"\u0cac\u0cb0\u0ccd\u0cae\u0cc1\u0ca1\u0cbe","name:km":"\u1794\u17ca\u17ba\u1798\u17bb\u1799\u178a\u17b6","name:cs":"Bermudy","name:th":"\u0e40\u0e1a\u0e2d\u0e23\u0e4c\u0e21\u0e34\u0e27\u0e14\u0e32","name:ti":"\u1264\u122d\u1219\u12f3","name:ks":"\u0628\u0654\u0631\u0645\u06cc\u0648\u0688\u0627","name:to":"P\u0113muta","name:or":"\u0b2c\u0b30\u0b2e\u0b41\u0b21\u0b3e","name:pl":"Bermudy","name:ta":"\u0baa\u0bc6\u0bb0\u0bcd\u0bae\u0bc1\u0b9f\u0bbe","name:ca":"Bermudes","name:te":"\u0c2c\u0c30\u0c4d\u0c2e\u0c2f\u0c41\u0c21\u0c3e","name:cy":"Bermwda","name:dz":"\u0f56\u0f62\u0f0b\u0f58\u0f74\u0f0b\u0f4c","source":"openstreetmap.org","name:yo":"Or\u00edl\u1eb9\u0301\u00e8de B\u00e9m\u00fad\u00e0","name:lv":"Bermudu salas","name:hi":"\u092c\u0930\u092e\u0942\u0921\u093e","name:he":"\u05d1\u05e8\u05de\u05d5\u05d3\u05d4","kind":"country","name:ha":"Barmuda","name:lg":"Beremuda","name:uk":"\u0411\u0435\u0440\u043c\u0443\u0434\u0441\u044c\u043a\u0456 \u043e\u0441\u0442\u0440\u043e\u0432\u0438","min_zoom":2.0,"name:lo":"\u0ec0\u0e9a\u0eb5\u0ea1\u0eb9\u0e94\u0eb2","population":66163,"name:el":"\u0392\u03b5\u03c1\u03bc\u03bf\u03cd\u03b4\u03b5\u03c2","name:eo":"Bermudo","name":"Bermuda","name:is":"Berm\u00fada","name:ee":"Bermuda nutome","name:mg":"Bermioda","name:es":"Bermudas","name:rm":"Bermudas","name:rn":"Berimuda","name:ig":"Bemuda","name:mr":"\u092c\u0930\u094d\u092e\u0941\u0921\u093e","name:ur":"\u0628\u0631\u0645\u0648\u062f\u0627","name:ar":"\u0628\u0631\u0645\u0648\u062f\u0627","name:my":"\u1018\u102c\u1019\u1030\u1012\u102b","name:ak":"B\u025bmuda","name:am":"\u1264\u122d\u1219\u12f3","name:ru":"\u0411\u0435\u0440\u043c\u0443\u0434\u044b","name:ml":"\u0d2c\u0d7c\u0d2e\u0d41\u0d21","name:mn":"\u0411\u0435\u0440\u043c\u0443\u0434\u044b\u043d \u0410\u0440\u0430\u043b","id":433483519,"name:mk":"\u0411\u0435\u0440\u043c\u0443\u0434\u0438","name:zu":"i-Bermuda","name:ff":"Bermudaa","name:fr":"Bermudes","name:zh":"\u767e\u6155\u5927","name:so":"Bermuuda","name:sl":"Bermudi","name:sk":"Bermudy","name:ja":"\u30d0\u30df\u30e5\u30fc\u30c0","name:si":"\u0db6\u0dbb\u0dca\u0db8\u0dd2\u0dba\u0dd4\u0da9\u0dcf","name:fa":"\u0628\u0631\u0645\u0648\u062f\u0627","name:sg":"Berem\u00fbda","name:ne":"\u092c\u0930\u094d\u092e\u0941\u0921\u093e","name:bm":"Bermudi","name:bn":"\u09ac\u09be\u09b0\u09ae\u09c1\u09a1\u09be","name:bo":"\u0f56\u0f62\u0f0b\u0f58\u0f74\u0f0b\u0f4c\u0f0d","name:be":"\u0411\u044f\u0440\u043c\u0443\u0434\u044b","name:bg":"\u0411\u0435\u0440\u043c\u0443\u0434\u0430","name:sr":"\u0411\u0435\u0440\u043c\u0443\u0434\u0438","name:ga":"Beirmi\u00fada","name:gd":"Bearm\u00f9da","name:gl":"Bermudas","name:gv":"Ny Bermioodee","name:gu":"\u0aac\u0ab0\u0acd\u0aae\u0ac1\u0aa1\u0abe"},"coordinates":[997,159]},{"type":"Point","properties":{"source":"naturalearthdata.com","kind":"locality","name":"Hamilton","country_capital":true,"population":52320,"min_zoom":5.0,"id":7092},"coordinates":[989,155]}]},"transit":{"type":"GeometryCollection","geometries":[]},"pois":{"type":"GeometryCollection","geometries":[]},"boundaries":{"type":"GeometryCollection","geometries":[]},"roads":{"type":"GeometryCollection","geometries":[]},"earth":{"type":"GeometryCollection","geometries":[{"type":"Polygon","properties":{"sort_rank":10,"source":"naturalearthdata.com","kind":"earth","min_zoom":0.0,"id":3030},"arcs":[[5]]}]},"landuse":{"type":"GeometryCollection","geometries":[]}},"type":"Topology","transform":{"translate":[-67.5,31.952162238],"scale":[0.002746582,0.0022040371]},"arcs":[[[0,0],[0,4096],[4096,0],[0,-4096],[-4096,0]],[[1011,182],[-5,-4],[-2,-5],[1,-2],[2,-1],[0,3],[3,2],[5,2],[2,-3],[-3,-3],[-1,-2],[-7,-1],[-1,1],[-4,-5],[-4,-1],[-7,-4],[-11,2],[-1,-1],[3,-5],[4,-2],[6,1],[-1,-2],[-8,-5],[-6,-4],[-4,0],[-1,-3],[-5,-3],[-4,0],[-2,4],[0,3],[5,-1],[0,2],[-6,1],[-2,1],[1,2],[1,5],[3,3],[-2,2],[-2,3],[-1,-3],[-3,1],[2,-4],[-1,-5],[0,-3],[-3,2],[1,-5],[2,-6],[6,-4],[4,-1],[6,0],[9,4],[9,5],[7,7],[3,5],[6,3],[8,7],[7,5],[8,3],[-7,3],[-3,1],[-1,4],[6,6],[2,-3],[1,2],[5,-1],[3,-3],[2,-1],[0,4],[3,4],[-11,9],[-8,-7],[-5,-4],[-4,-5]],[[979,153],[-2,0],[-2,-1],[-3,1],[-1,-1],[1,-2],[4,-1],[3,1],[3,-1],[1,1],[-3,2],[-1,1]],[[1028,198],[-8,-7],[-5,-4],[-4,-5],[-5,-4],[-2,-5],[1,-2],[2,-1],[0,3],[3,2],[5,2],[2,-3],[-3,-3],[-1,-2],[-7,-1],[-1,1],[-4,-5],[-4,-1],[-7,-4],[-11,2],[-1,-1],[3,-5],[4,-2],[6,1],[-1,-2],[-8,-5],[-6,-4],[-4,0],[-1,-3],[-5,-3],[-4,0],[-2,4],[0,3],[5,-1],[0,2],[-6,1],[-2,1],[1,2],[1,5],[3,3],[-2,2],[-2,3],[-1,-3],[-3,1],[2,-4],[-1,-5],[0,-3],[-3,2],[1,-5],[2,-6],[6,-4],[4,-1],[6,0],[9,4],[9,5],[7,7],[3,5],[6,3],[8,7],[7,5],[8,3],[-7,3],[-3,1],[-1,4],[6,6],[2,-3],[1,2],[5,-1],[3,-3],[2,-1],[0,4],[3,4],[-11,9]],[[977,153],[2,0],[1,-1],[3,-2],[-1,-1],[-3,1],[-3,-1],[-4,1],[-1,2],[1,1],[3,-1],[2,1]],[[1039,189],[-3,-4],[0,-4],[-2,1],[-3,3],[-5,1],[-1,-2],[-2,3],[-6,-6],[1,-4],[3,-1],[7,-3],[-8,-3],[-7,-5],[-8,-7],[-6,-3],[-3,-5],[-7,-7],[-9,-5],[-9,-4],[-6,0],[-4,1],[-6,4],[-2,6],[-1,5],[3,-2],[0,3],[1,5],[-2,4],[3,-1],[1,3],[2,-3],[2,-2],[-3,-3],[-1,-5],[-1,-2],[2,-1],[6,-1],[0,-2],[-5,1],[0,-3],[2,-4],[4,0],[5,3],[1,3],[4,0],[6,4],[8,5],[1,2],[-6,-1],[-4,2],[-3,5],[1,1],[11,-2],[7,4],[4,1],[4,5],[1,-1],[7,1],[1,2],[3,3],[-2,3],[-5,-2],[-3,-2],[0,-3],[-2,1],[-1,2],[2,5],[5,4],[4,5],[5,4],[8,7],[11,-9]]]}