{"objects":{"water":{"type":"GeometryCollection","geometries":[{"type":"Polygon","properties":{"source":"naturalearthdata.com","kind":"ocean","area":1576712559132672,"sort_rank":200,"min_zoom":0.0,"id":1},"arcs":[[1],[2],[3],[4],[5],[6],[7],[8],[9],[10],[11],[12],[13],[14],[15],[16],[17],[18],[19],[20],[21],[22],[23],[24],[25],[26],[27],[28],[29],[30],[31],[32],[33],[34],[35],[36],[37],[38],[39],[40],[41],[42],[43],[44],[45],[46],[47],[48],[49],[50],[51]]},{"type":"LineString","properties":{"source":"naturalearthdata.com","kind":"ocean","sort_rank":205,"boundary":true,"min_zoom":0.0,"id":517},"arcs":[52]},{"type":"LineString","properties":{"source":"naturalearthdata.com","kind":"ocean","sort_rank":205,"boundary":true,"min_zoom":0.0,"id":518},"arcs":[53]},{"type":"LineString","properties":{"source":"naturalearthdata.com","kind":"ocean","sort_rank":205,"boundary":true,"min_zoom":0.0,"id":521},"arcs":[54]},{"type":"LineString","properties":{"source":"naturalearthdata.com","kind":"ocean","sort_rank":205,"boundary":true,"min_zoom":0.0,"id":522},"arcs":[55]},{"type":"LineString","properties":{"source":"naturalearthdata.com","kind":"ocean","sort_rank":205,"boundary":true,"min_zoom":0.0,"id":523},"arcs":[56]},{"type":"LineString","properties":{"source":"naturalearthdata.com","kind":"ocean","sort_rank":205,"boundary":true,"min_zoom":0.0,"id":524},"arcs":[57]},{"type":"LineString","properties":{"source":"naturalearthdata.com","kind":"ocean","sort_rank":205,"boundary":true,"min_zoom":0.0,"id":525},"arcs":[58]},{"type":"LineString","properties":{"source":"naturalearthdata.com","kind":"ocean","sort_rank":205,"boundary":true,"min_zoom":0.0,"id":526},"arcs":[59]},{"type":"LineString","properties":{"source":"naturalearthdata.com","kind":"ocean","sort_rank":205,"boundary":true,"min_zoom":0.0,"id":527},"arcs":[60]},{"type":"LineString","properties":{"source":"naturalearthdata.com","kind":"ocean","sort_rank":205,"boundary":true,"min_zoom":0.0,"id":528},"arcs":[61]},{"type":"LineString","properties":{"source":"naturalearthdata.com","kind":"ocean","sort_rank":205,"boundary":true,"min_zoom":0.0,"id":529},"arcs":[62]},{"type":"LineString","properties":{"source":"naturalearthdata.com","kind":"ocean","sort_rank":205,"boundary":true,"min_zoom":0.0,"id":530},"arcs":[63]},{"type":"LineString","properties":{"source":"naturalearthdata.com","kind":"ocean","sort_rank":205,"boundary":true,"min_zoom":0.0,"id":531},"arcs":[64]},{"type":"LineString","properties":{"source":"naturalearthdata.com","kind":"ocean","sort_rank":205,"boundary":true,"min_zoom":0.0,"id":532},"arcs":[65]},{"type":"LineString","properties":{"source":"naturalearthdata.com","kind":"ocean","sort_rank":205,"boundary":true,"min_zoom":0.0,"id":534},"arcs":[66]},{"type":"LineString","properties":{"source":"naturalearthdata.com","kind":"ocean","sort_rank":205,"boundary":true,"min_zoom":0.0,"id":535},"arcs":[67]},{"type":"LineString","properties":{"source":"naturalearthdata.com","kind":"ocean","sort_rank":205,"boundary":true,"min_zoom":0.0,"id":536},"arcs":[68]},{"type":"LineString","properties":{"source":"naturalearthdata.com","kind":"ocean","sort_rank":205,"boundary":true,"min_zoom":0.0,"id":537},"arcs":[69]},{"type":"LineString","properties":{"source":"naturalearthdata.com","kind":"ocean","sort_rank":205,"boundary":true,"min_zoom":0.0,"id":538},"arcs":[70]},{"type":"LineString","properties":{"source":"naturalearthdata.com","kind":"ocean","sort_rank":205,"boundary":true,"min_zoom":0.0,"id":539},"arcs":[71]},{"type":"LineString","properties":{"source":"naturalearthdata.com","kind":"ocean","sort_rank":205,"boundary":true,"min_zoom":0.0,"id":540},"arcs":[72]},{"type":"LineString","properties":{"source":"naturalearthdata.com","kind":"ocean","sort_rank":205,"boundary":true,"min_zoom":0.0,"id":542},"arcs":[73]},{"type":"LineString","properties":{"source":"naturalearthdata.com","kind":"ocean","sort_rank":205,"boundary":true,"min_zoom":0.0,"id":543},"arcs":[74]},{"type":"LineString","properties":{"source":"naturalearthdata.com","kind":"ocean","sort_rank":205,"boundary":true,"min_zoom":0.0,"id":544},"arcs":[75]},{"type":"LineString","properties":{"source":"naturalearthdata.com","kind":"ocean","sort_rank":205,"boundary":true,"min_zoom":0.0,"id":546},"arcs":[76]},{"type":"MultiLineString","properties":{"source":"naturalearthdata.com","kind":"ocean","sort_rank":205,"boundary":true,"min_zoom":0.0,"id":547},"arcs":[[77],[78]]},{"type":"LineString","properties":{"source":"naturalearthdata.com","kind":"ocean","sort_rank":205,"boundary":true,"min_zoom":0.0,"id":552},"arcs":[79]},{"type":"LineString","properties":{"source":"naturalearthdata.com","kind":"ocean","sort_rank":205,"boundary":true,"min_zoom":0.0,"id":553},"arcs":[80]},{"type":"LineString","properties":{"source":"naturalearthdata.com","kind":"ocean","sort_rank":205,"boundary":true,"min_zoom":0.0,"id":554},"arcs":[81]},{"type":"LineString","properties":{"source":"naturalearthdata.com","kind":"ocean","sort_rank":205,"boundary":true,"min_zoom":0.0,"id":555},"arcs":[82]},{"type":"LineString","properties":{"source":"naturalearthdata.com","kind":"ocean","sort_rank":205,"boundary":true,"min_zoom":0.0,"id":556},"arcs":[83]},{"type":"LineString","properties":{"source":"naturalearthdata.com","kind":"ocean","sort_rank":205,"boundary":true,"min_zoom":0.0,"id":557},"arcs":[84]},{"type":"LineString","properties":{"source":"naturalearthdata.com","kind":"ocean","sort_rank":205,"boundary":true,"min_zoom":0.0,"id":558},"arcs":[85]},{"type":"LineString","properties":{"source":"naturalearthdata.com","kind":"ocean","sort_rank":205,"boundary":true,"min_zoom":0.0,"id":559},"arcs":[86]},{"type":"LineString","properties":{"source":"naturalearthdata.com","kind":"ocean","sort_rank":205,"boundary":true,"min_zoom":0.0,"id":560},"arcs":[87]},{"type":"LineString","properties":{"source":"naturalearthdata.com","kind":"ocean","sort_rank":205,"boundary":true,"min_zoom":0.0,"id":3312},"arcs":[88]},{"type":"LineString","properties":{"source":"naturalearthdata.com","kind":"ocean","sort_rank":205,"boundary":true,"min_zoom":0.0,"id":3385},"arcs":[89]},{"type":"LineString","properties":{"source":"naturalearthdata.com","kind":"ocean","sort_rank":205,"boundary":true,"min_zoom":0.0,"id":3394},"arcs":[90]},{"type":"LineString","properties":{"source":"naturalearthdata.com","kind":"ocean","sort_rank":205,"boundary":true,"min_zoom":0.0,"id":3395},"arcs":[91]},{"type":"LineString","properties":{"source":"naturalearthdata.com","kind":"ocean","sort_rank":205,"boundary":true,"min_zoom":0.0,"id":3732},"arcs":[92]},{"type":"LineString","properties":{"source":"naturalearthdata.com","kind":"ocean","sort_rank":205,"boundary":true,"min_zoom":0.0,"id":3733},"arcs":[93]},{"type":"LineString","properties":{"source":"naturalearthdata.com","kind":"ocean","sort_rank":205,"boundary":true,"min_zoom":0.0,"id":3734},"arcs":[94]},{"type":"LineString","properties":{"source":"naturalearthdata.com","kind":"ocean","sort_rank":205,"boundary":true,"min_zoom":0.0,"id":3735},"arcs":[95]},{"type":"LineString","properties":{"source":"naturalearthdata.com","kind":"ocean","sort_rank":205,"boundary":true,"min_zoom":0.0,"id":3736},"arcs":[96]},{"type":"LineString","properties":{"source":"naturalearthdata.com","kind":"ocean","sort_rank":205,"boundary":true,"min_zoom":0.0,"id":3737},"arcs":[97]},{"type":"LineString","properties":{"source":"naturalearthdata.com","kind":"ocean","sort_rank":205,"boundary":true,"min_zoom":0.0,"id":3738},"arcs":[98]},{"type":"LineString","properties":{"source":"naturalearthdata.com","kind":"ocean","sort_rank":205,"boundary":true,"min_zoom":0.0,"id":3739},"arcs":[99]},{"type":"LineString","properties":{"source":"naturalearthdata.com","kind":"ocean","sort_rank":205,"boundary":true,"min_zoom":0.0,"id":3740},"arcs":[100]},{"type":"LineString","properties":{"source":"naturalearthdata.com","kind":"ocean","sort_rank":205,"boundary":true,"min_zoom":0.0,"id":4066},"arcs":[101]},{"type":"LineString","properties":{"source":"naturalearthdata.com","kind":"ocean","sort_rank":205,"boundary":true,"min_zoom":0.0,"id":4095},"arcs":[102]},{"type":"LineString","properties":{"source":"naturalearthdata.com","kind":"ocean","sort_rank":205,"boundary":true,"min_zoom":0.0,"id":4096},"arcs":[103]},{"type":"LineString","properties":{"source":"naturalearthdata.com","kind":"ocean","sort_rank":205,"boundary":true,"min_zoom":0.0,"id":4097},"arcs":[104]},{"type":"LineString","properties":{"source":"naturalearthdata.com","kind":"ocean","sort_rank":205,"boundary":true,"min_zoom":0.0,"id":4098},"arcs":[105]}]},"buildings":{"type":"GeometryCollection","geometries":[]},"places":{"type":"GeometryCollection","geometries":[{"type":"Point","properties":{"name:ka":"\u10d1\u10d0\u10e0\u10d1\u10d0\u10d3\u10dd\u10e1\u10d8","name:ko":"\ubc14\ubca0\uc774\ub3c4\uc2a4","name:kn":"\u0cac\u0cbe\u0cb0\u0ccd\u0cac\u0ca1\u0ccb\u0cb8\u0ccd","name:km":"\u1794\u17b6\u179a\u1794\u17b6\u178a\u17bc\u179f","name:kk":"\u0411\u0430\u0440\u0431\u0430\u0434\u043e\u0441","name:ki":"Babadosi","name:th":"\u0e1b\u0e23\u0e30\u0e40\u0e17\u0e28\u0e1a\u0e32\u0e23\u0e4c\u0e40\u0e1a\u0e42\u0e14\u0e2a","name:ti":"\u1263\u122d\u1264\u12f6\u1235","name:ks":"\u0628\u0627\u0631\u0628\u06cc\u0688\u0627\u0633","name:to":"P\u0101peitosi","name:or":"\u0b2c\u0b3e\u0b30\u0b2c\u0b3e\u0b21\u0b4b\u0b38\u0b4d","name:ta":"\u0baa\u0bbe\u0bb0\u0bcd\u0baa\u0b9f\u0bcb\u0bb8\u0bcd","name:te":"\u0c2c\u0c3e\u0c30\u0c4d\u0c2c\u0c21\u0c4b\u0c38\u0c4d","name:bg":"\u0411\u0430\u0440\u0431\u0430\u0434\u043e\u0441","name:dz":"\u0f56\u0fb7\u0f62\u0f0b\u0f56\u0f7a\u0f0b\u0f4c\u0f7c\u0f66","source":"openstreetmap.org","name:lv":"Barbadosa","name:lt":"Barbadosas","name:hi":"\u092c\u093e\u0930\u092c\u093e\u0921\u094b\u0938","name:he":"\u05d1\u05e8\u05d1\u05d3\u05d5\u05e1","kind":"country","name:ha":"Barbadas","name:la":"Barbata","name:tt":"\u0411\u0430\u0440\u0431\u0430\u0434\u043e\u0441","name:uk":"\u0411\u0430\u0440\u0431\u0430\u0434\u043e\u0441","name:hy":"\u0532\u0561\u0580\u0562\u0561\u0564\u0578\u057d","min_zoom":2.0,"name:ln":"Bar\u025bbad\u025b","name:lo":"\u0e9a\u0ea3\u0eb2\u0e9a\u0eb2\u0e94\u0eb1\u0ead\u0e94","population":286705,"name:el":"\u039c\u03c0\u03b1\u03c1\u03bc\u03c0\u03ac\u03bd\u03c4\u03bf\u03c2","name:eo":"Barbado","name":"Barbados","name:ee":"Barbados nutome","name:mg":"Barbady","name:yo":"Or\u00edl\u1eb9\u0301\u00e8de B\u00e1b\u00e1d\u00f3s\u00ec","name:rn":"Barubadosi","name:mr":"\u092c\u093e\u0930\u094d\u092c\u093e\u0921\u094b\u0938","name:ar":"\u0628\u0631\u0628\u0627\u062f\u0648\u0633","official_name":"Commonwealth of the Bahamas","name:ak":"Baabados","name:am":"\u1263\u122d\u1264\u12f6\u1235","name:ru":"\u0411\u0430\u0440\u0431\u0430\u0434\u043e\u0441","name:ml":"\u0d2c\u0d3e\u0d7c\u0d2c\u0d21\u0d4b\u0d38\u0d4d","name:mn":"\u0411\u0430\u0440\u0431\u0430\u0434\u043e\u0441","id":249399285,"name:mk":"\u0411\u0430\u0440\u0431\u0430\u0434\u043e\u0441","name:vo":"Barbade\u00e4n","name:zu":"i-Barbados","name:ff":"Barbadoos","name:fr":"Barbade","name:zh":"\u5df4\u5df4\u591a\u65af","name:so":"Baarbadoos","name:ja":"\u30d0\u30eb\u30d0\u30c9\u30b9","name:si":"\u0db6\u0dcf\u0dbb\u0dca\u0db6\u0da9\u0ddd\u0dc3\u0dca","name:fa":"\u0628\u0627\u0631\u0628\u0627\u062f\u0648\u0633","name:sg":"Barab\u00e2da","name:ne":"\u092c\u093e\u0930\u094d\u092c\u093e\u0921\u094b\u0938","name:bm":"Barbadi","name:bn":"\u09ac\u09be\u09b0\u09ac\u09be\u09a6\u09cb\u09b8","name:bo":"\u0f56\u0f71\u0f62\u0fa6\u0f0b\u0f4c\u0f7c\u0f66\u0f84\u0f0d","name:sw":"Babadosi","name:be":"\u0411\u0430\u0440\u0431\u0430\u0434\u0430\u0441","name:ur":"\u0628\u0627\u0631\u0628\u0627\u062f\u0648\u0633","name:sr":"\u0411\u0430\u0440\u0431\u0430\u0434\u043e\u0441","name:ga":"Barbad\u00f3s","name:gu":"\u0aac\u0abe\u0ab0\u0acd\u0aac\u0abe\u0aa1\u0acb\u0ab8","name:lg":"Barabadosi"},"coordinates":[2904,750]},{"type":"Point","properties":{"name:pt":"Santa L\u00facia","name:ka":"\u10e1\u10d4\u10dc\u10e2-\u10da\u10e3\u10e1\u10d8\u10d0","name:ko":"\uc138\uc778\ud2b8\ub8e8\uc2dc\uc544","name:kn":"\u0cb8\u0cc7\u0c82\u0c9f\u0ccd \u0cb2\u0cc2\u0cb8\u0cbf\u0caf\u0cbe","name:km":"\u179f\u1784\u17cb\u200b\u179b\u17bc\u179f\u17c0","name:cs":"Svat\u00e1 Lucie","alt_name:eo":"Sent-Lucio","name:ki":"Santalusia","name:th":"\u0e1b\u0e23\u0e30\u0e40\u0e17\u0e28\u0e40\u0e0b\u0e19\u0e15\u0e4c\u0e25\u0e39\u0e40\u0e0b\u0e35\u0e22","name:ti":"\u1234\u1295\u1275 \u1209\u127a\u12eb","name:ks":"\u0633\u06cc\u0646\u065b\u0679 \u0644\u0648\u0657\u0633\u0650\u06cc\u0627","name:to":"Seini Lusia","name:or":"\u0b38\u0b47\u0b23\u0b4d\u0b1f \u0b32\u0b41\u0b38\u0b3f\u0b06","name:ta":"\u0b9a\u0bc6\u0baf\u0bbf\u0ba9\u0bcd\u0b9f\u0bcd \u0bb2\u0bc2\u0b9a\u0bbf\u0baf\u0bbe","name:tg":"\u0421\u0430\u043d\u0442\u0430-\u041b\u0443\u0441\u0438\u044f","name:te":"\u0c38\u0c46\u0c02\u0c1f\u0c4d \u0c32\u0c42\u0c38\u0c3f\u0c2f\u0c3e","name:ro":"Sf\u00e2nta Lucia","name:hr":"Sveta Lucija","name:de":"St. Lucia","name:dz":"\u0f66\u0f7a\u0f53\u0f4a\u0f0b \u0f63\u0f74\u0f0b\u0f66\u0f72\u0f0b\u0f61","source":"openstreetmap.org","name:lv":"Sentl\u016bsija","name:lt":"Sent Lusija","name:hi":"\u0938\u0947\u0902\u091f \u0932\u0942\u0938\u093f\u092f\u093e","name:he":"\u05e1\u05e0\u05d8 \u05dc\u05d5\u05e1\u05d9\u05d4","kind":"country","name:ur":"\u0633\u06cc\u0646\u0679 \u0644\u0648\u0633\u06cc\u0627","name:la":"Sancta Lucia","name:lg":"Senti Luciya","name:uk":"\u0421\u0435\u043d\u0442-\u041b\u044e\u0441\u0456\u044f","name:hy":"\u054d\u0561\u0576\u057f\u0561 \u053c\u0578\u0582\u0579\u056b\u0561","name:li":"Santa Lucia","name:ln":"S\u00e1ntu lisi","name:lo":"\u0ec0\u0e8a\u0eb1\u0ec9\u0e99 \u0ea5\u0eb1\u0e81\u0ec0\u0e8a\u0e8d","population":173907,"name:el":"\u0391\u03b3\u03af\u03b1 \u039b\u03bf\u03c5\u03ba\u03af\u03b1","name:eo":"Sankta Lucio","name":"Saint Lucia","name:ee":"Saint Lusia nutome","min_zoom":2.0,"name:eu":"Santa Luzia","name:es":"Santa Luc\u00eda","name:ia":"Sancte Lucia","name:mt":"Santa Lu\u010bija","name:rn":"Selusiya","name:az":"Seynt Lusiya","name:mr":"\u0938\u0947\u0902\u091f \u0932\u094d\u092f\u0942\u0938\u093f\u092f\u093e","name:ar":"\u0633\u0627\u0646\u062a \u0644\u0648\u0633\u064a\u0627","name:io":"Santa Lucia","name:is":"Sankti L\u00fas\u00eda","name:am":"\u1234\u1295\u1275 \u1209\u127a\u12eb","name:it":"Santa Lucia","name:ml":"\u0d38\u0d46\u0d7b\u0d31\u0d4d \u0d32\u0d42\u0d38\u0d3f\u0d2f","name:ru":"\u0421\u0435\u043d\u0442-\u041b\u044e\u0441\u0438\u044f","name:mn":"\u0421\u0435\u043d\u0442 \u041b\u044e\u0441\u0438\u0430","id":424316319,"name:mk":"\u0421\u0432\u0435\u0442\u0430 \u041b\u0443\u0447\u0438\u0458\u0430","name:af":"Sint Lucia","name:zu":"i-Saint Lucia","name:ha":"San Lusiya","name:nn":"St. Lucia","name:ff":"Sent Lusiyaa","name:mg":"Sainte-Lucie","name:fo":"Saint Lusia","alt_name:vi":"Santa Luxia","name:fr":"Sainte-Lucie","name:fy":"Sint Lusia","name:vo":"Sanlusiy\u00e4n","name:zh":"\u5723\u5362\u897f\u4e9a\u5c9b","name:gv":"Noo Lucia","name:sk":"Sv\u00e4t\u00e1 Lucia","name:ja":"\u30bb\u30f3\u30c8\u30eb\u30b7\u30a2","name:si":"\u0dc1\u0dcf\u0db1\u0dca\u0dad \u0dbd\u0dd4\u0dc3\u0dd2\u0dba\u0dcf","name:fa":"\u0633\u0646\u062a \u0644\u0648\u0633\u06cc\u0627","name:sg":"S\u00eant-Lis\u00efi","name:ne":"\u0938\u0947\u0928\u094d\u091f \u0932\u0941\u0938\u093f\u092f\u093e","name:br":"Santez-Lusia","name:bs":"Sent Lucija","name:bm":"Lusi-Senu","name:bn":"\u09b8\u09c7\u09a8\u09cd\u099f \u09b2\u09c1\u09b8\u09bf\u09af\u09bc\u09be","name:bo":"\u0f66\u0f7a\u0f53\u0f9a\u0f0d \u0f63\u0f74\u0f0b\u0f64\u0f72\u0f0b\u0f61\u0f0d","name:sw":"Santalusia","name:be":"\u0421\u0432\u044f\u0442\u0430\u044f \u041b\u0443\u0441\u0456\u044f","name:bg":"\u0421\u0435\u0439\u043d\u0442 \u041b\u0443\u0441\u0438\u044f","name:sr":"\u0421\u0432\u0435\u0442\u0430 \u041b\u0443\u0446\u0438\u0458\u0430","name:ga":"San Lucia","name:gd":"Naomh L\u00f9isia","name:gl":"Santa Luc\u00eda","name:yo":"Or\u00edl\u1eb9\u0301\u00e8de Lu\u1e63ia","name:gu":"\u0ab8\u0ac7\u0a82\u0a9f \u0ab2\u0ac1\u0ab8\u0abf\u0aaf\u0abe"},"coordinates":[2376,1007]},{"type":"Point","properties":{"name:pt":"S\u00e3o Vicente e Granadinas","name:cy":"Saint Vincent a'r Grenadines","name:ko":"\uc138\uc778\ud2b8\ube48\uc13c\ud2b8\uadf8\ub808\ub098\ub518","name:kn":"\u0cb8\u0cc7\u0c82\u0c9f\u0ccd \u0cb5\u0cbf\u0ca8\u0ccd\u0cb8\u0cc6\u0c82\u0c9f\u0ccd \u0cae\u0ca4\u0ccd\u0ca4\u0cc1 \u0c97\u0ccd\u0cb0\u0cc6\u0ca8\u0cc6\u0ca1\u0cc8\u0ca8\u0ccd\u0cb8\u0ccd","name:km":"\u179f\u17b6\u17c6\u1784\u200b\u179c\u17b8\u1793\u179f\u17c1\u1793 \u1793\u17b7\u1784\u200b\u178c\u17b9\u200b\u17a0\u17d2\u1782\u17d2\u179a\u17b8\u178e\u17b6\u178c\u17b8\u1793\u17b8\u179f","name:cs":"Svat\u00fd Vincenc a Grenadiny","alt_name:eo":"Sent-Vincento kaj Grenadinoj","name:ki":"Santavisenti na Grenadini","name:tr":"Saint Vincent ve Grenadinler","name:ku":"Saint Vincent \u00fb girav\u00ean Grenad\u00een","name:ti":"\u1245\u12f1\u1235 \u126a\u1295\u1234\u1295\u1275 \u12a5\u1293 \u130d\u122c\u1293\u12f2\u1295\u1235","name:ks":"\u0633\u06cc\u0646\u065b\u0679 \u0648\u06cc\u0646\u0633\u066e\u06ea\u0679 \u062a\u06c1\u0655 \u06af\u0631\u065b\u06cc\u0646\u0627\u0691\u0627\u06cc\u0646\u0655\u0632","name:to":"Seini Viniseni mo Kulenatini","name:sv":"Saint Vincent och Grenadinerna","name:or":"\u0b38\u0b47\u0b23\u0b4d\u0b1f \u0b2d\u0b3f\u0b28\u0b38\u0b47\u0b23\u0b4d\u0b1f \u0b0f\u0b2c\u0b02 \u0b26\u0b3f \u0b17\u0b4d\u0b30\u0b47\u0b28\u0b3e\u0b21\u0b3f\u0b38\u0b4d","name:pl":"Saint Vincent i Grenadyny","name:ta":"\u0b9a\u0bc6\u0baf\u0bbf\u0ba9\u0bcd \u0bb5\u0bbf\u0ba9\u0bcd\u0b9a\u0ba9\u0bcd\u0b9f\u0bcd \u0bae\u0bb1\u0bcd\u0bb1\u0bc1\u0bae\u0bcd \u0b95\u0bbf\u0bb0\u0bc6\u0ba9\u0b9f\u0bc8\u0ba9\u0bcd\u0bb8\u0bcd","name:ca":"Saint Vincent i les Grenadines","name:te":"\u0c38\u0c46\u0c02\u0c1f\u0c4d \u0c35\u0c3f\u0c28\u0c4d\u0c38\u0c46\u0c02\u0c1f\u0c4d \u0c2e\u0c30\u0c3f\u0c2f\u0c41 \u0c17\u0c4d\u0c30\u0c46\u0c28\u0c21\u0c40\u0c28\u0c4d\u0c38\u0c4d","name:hu":"Saint Vincent \u00e9s a Grenadine-szigetek","name:ro":"Sf\u00e2ntul Vincent \u0219i Grenadine","name:ka":"\u10e1\u10d4\u10dc\u10e2-\u10d5\u10d8\u10dc\u10e1\u10d4\u10dc\u10e2\u10d8 \u10d3\u10d0 \u10d2\u10e0\u10d4\u10dc\u10d0\u10d3\u10d8\u10dc\u10d4\u10d1\u10d8","name:hr":"Sveti Vincent i Grenadini","name:da":"Saint Vincent og Grenadinerne","name:de":"Saint Vincent und die Grenadinen","name:dz":"\u0f66\u0f7a\u0f53\u0f4a\u0f0b\u0f5d\u0f72\u0f53\u0f0b\u0f66\u0f7a\u0f53\u0f4c\u0f84 \u0f68\u0f7a\u0f53\u0f4c\u0f0b \u0f42\u0f72\u0f0b\u0f62\u0f7a\u0f0b\u0f53\u0f0b\u0f51\u0f72\u0f53\u0f66\u0f84","source":"openstreetmap.org","name:lv":"Sentvinsenta un Grenad\u012bnas","name:lt":"Sent Vinsentas ir Grenadinai","name:hi":"\u0938\u0947\u0902\u091f \u0935\u093f\u0928\u0938\u0947\u0902\u091f \u090f\u0902\u0921 \u0917\u094d\u0930\u0947\u0928\u093e\u0921\u093e\u0907\u0928\u094d\u0938","name:he":"\u05e1\u05e0\u05d8 \u05d5\u05d9\u05e0\u05e1\u05e0\u05d8 \u05d5\u05d4\u05d2\u05e8\u05e0\u05d3\u05d9\u05e0\u05d9\u05dd","kind":"country","name:ur":"\u0633\u06cc\u0646\u0679 \u0648\u0646\u0633\u0646\u0679 \u0627\u0648\u0631 \u06af\u0631\u06cc\u0646\u06cc\u0688\u0627\u0626\u0646\u0632","name:lb":"Saint Vincent an d\u2019Grenadinen","name:lg":"Senti Vinsenti ne Gurendadiini","name:uk":"\u0421\u0435\u043d\u0442-\u0412\u0456\u043d\u0441\u0435\u043d\u0442 \u0456 \u0490\u0440\u0435\u043d\u0430\u0434\u0438\u043d\u0438","name:hy":"\u054d\u0565\u0576\u057f \u054e\u056b\u057d\u0565\u0576\u057f-\u0533\u0580\u0565\u0576\u0561\u0564\u056b\u0576\u0576\u0565\u0580","min_zoom":2.0,"name:li":"Saint-Vincent","name:ln":"S\u00e1ntu ves\u00e1 mp\u00e9 Gelenadin\u025b","name:lo":"\u0ec0\u0e8a\u0eb1\u0ec9\u0e99 \u0ea7\u0eb4\u0e99\u0ec0\u0e8a\u0eb1\u0e99 \u0ec1\u0ea5\u0eb0 \u0ec0\u0e88\u0eb1\u0e99\u0ec0\u0e99\u0e94\u0eb5\u0ec0\u0e99\u0e94","population":117200,"name:el":"\u0386\u03b3\u03b9\u03bf\u03c2 \u0392\u03b9\u03ba\u03ad\u03bd\u03c4\u03b9\u03bf\u03c2 \u03ba\u03b1\u03b9 \u0393\u03c1\u03b5\u03bd\u03b1\u03b4\u03af\u03bd\u03b5\u03c2","name:eo":"Sankta Vincento kaj Grenadinoj","name":"Saint Vincent and the Grenadines","name:ee":"Saint Vincent kple Grenadine nutome","name:th":"\u0e1b\u0e23\u0e30\u0e40\u0e17\u0e28\u0e40\u0e0b\u0e19\u0e15\u0e4c\u0e27\u0e34\u0e19\u0e40\u0e0b\u0e19\u0e15\u0e4c\u0e41\u0e25\u0e30\u0e40\u0e01\u0e23\u0e19\u0e32\u0e14\u0e35\u0e19\u0e2a\u0e4c","name:gu":"\u0ab8\u0ac7\u0a82\u0a9f \u0ab5\u0abf\u0a82\u0ab8\u0ac7\u0a82\u0a9f \u0a8f\u0a82\u0aa1 \u0aa7 \u0a97\u0acd\u0ab0\u0ac7\u0aa8\u0ac7\u0aa1\u0abf\u0aa8\u0acd\u0ab8","name:eu":"Saint Vincent eta Grenadinak","name:et":"Saint Vincent ja Grenadiinid","name:nl":"Saint Vincent en de Grenadines","name:es":"San Vicente y las Granadinas","name:ia":"Sancte Vincente e le Grenadinas","name:rm":"Saint Vincent e las Grenadinas","name:rn":"Sevensa na Gerenadine","name:az":"Seynt Vinsent v\u0259 Qrenada","name:id":"Saint Vincent dan Grenadines","name:ms":"Saint Vincent dan Grenadines","name:mr":"\u0938\u0947\u0902\u091f \u0935\u094d\u0939\u093f\u0928\u094d\u0938\u0947\u0902\u091f \u0906\u0923\u093f \u0917\u094d\u0930\u0947\u0928\u0921\u093e\u0907\u0928\u094d\u0938","name:ar":"\u0633\u0627\u0646\u062a \u0641\u0646\u0633\u0646\u062a \u0648\u062c\u0632\u0631 \u063a\u0631\u064a\u0646\u0627\u062f\u064a\u0646","name:io":"Santa Vincent e Grenadini","name:is":"Sankti Vinsent og Grenad\u00edneyjar","name:am":"\u1245\u12f1\u1235 \u126a\u1295\u1234\u1295\u1275 \u12a5\u1293 \u130d\u122c\u1293\u12f2\u1295\u1235","name:it":"Saint Vincent e Grenadine","name:vi":"Saint Vincent v\u00e0 Grenadines","name:ru":"\u0421\u0435\u043d\u0442-\u0412\u0438\u043d\u0441\u0435\u043d\u0442 \u0438 \u0413\u0440\u0435\u043d\u0430\u0434\u0438\u043d\u044b","name:mn":"\u0421\u0435\u043d\u0442-\u0412\u0438\u043d\u0441\u0435\u043d\u0442 \u0431\u0430 \u0413\u0440\u0435\u043d\u0430\u0434\u0438\u043d","id":432425070,"name:mk":"\u0421\u0435\u043d\u0442 \u0412\u0438\u043d\u0441\u0435\u043d\u0442 \u0438 \u0413\u0440\u0435\u043d\u0430\u0434\u0438\u043d\u0438\u0442\u0435","name:af":"Sint Vincent en die Grenadines","name:zu":"i-Saint Vincent ne-Grenadines","name:ha":"San Binsan Da Girnadin","name:nn":"St. Vincent og Grenadinane","name:ff":"See Weesaa e Garnadiin","name:fi":"Saint Vincent ja Grenadiinit","name:no":"Saint Vincent og Grenadinene","name:mg":"Saint-Vincent-et-les Grenadines","name:fo":"Saint Vinsent og Grenadinoyggjar","name:fr":"Saint-Vincent-et-les-Grenadines","name:fy":"Sint Finsint en de Grenadinen","name:vo":"Saluda-Vinsente\u00e4n e Grenadine\u00e4ns","name:zh":"\u5723\u6587\u68ee\u7279\u548c\u683c\u6797\u7eb3\u4e01\u65af","name:gv":"Noo Winsen as ny Grenadeenyn","name:sl":"Saint Vincent in Grenadine","name:sk":"Sv\u00e4t\u00fd Vincent a Grenad\u00edny","name:ja":"\u30bb\u30f3\u30c8\u30d3\u30f3\u30bb\u30f3\u30c8\u30fb\u30b0\u30ec\u30ca\u30c7\u30a3\u30fc\u30f3\u8af8\u5cf6","name:si":"\u0dc1\u0dcf\u0db1\u0dca\u0dad \u0dc0\u0dd2\u0db1\u0dca\u0dc3\u0db1\u0dca\u0da7\u0dca \u0dc3\u0dc4 \u0d9c\u0dca\u200d\u0dbb\u0dd9\u0db1\u0da9\u0dd2\u0db1\u0dc3\u0dca","name:fa":"\u0633\u0646\u062a \u0648\u06cc\u0646\u0633\u0646\u062a \u0648 \u06af\u0631\u0646\u0627\u062f\u06cc\u0646","name:sg":"S\u00ean-Vens\u00e4an na \u00e2Grenad\u00eeni","name:se":"Saint Vincent ja Grenadine","name:ne":"\u0938\u0947\u0928\u094d\u091f \u092d\u093f\u0928\u094d\u0938\u0947\u0928\u094d\u091f \u0930 \u0917\u094d\u0930\u0947\u0928\u093e\u0921\u093f\u0928\u094d\u0938","name:br":"Sant Visant hag ar Grenadinez","name:bs":"Sent Vinsent i Grenadini","name:bm":"Vinis\u025bn-Senu-ni-Grenadini","name:bn":"\u09b8\u09c7\u09a8\u09cd\u099f \u09ad\u09bf\u09a8\u09b8\u09c7\u09a8\u09cd\u099f \u0993 \u09a6\u09cd\u09af\u09be \u0997\u09cd\u09b0\u09c7\u09a8\u09be\u09a1\u09bf\u09a8\u09b8","name:bo":"\u0f66\u0f7a\u0f53\u0f9a\u0f0d \u0f5d\u0f72\u0f53\u0f0b\u0f66\u0f53\u0f0d \u0f51\u0f44\u0f0c\u0f0d \u0f42\u0fb7\u0f72\u0f62\u0f72\u0f53\u0f0b\u0f4c\u0f72\u0f53\u0f0d","name:ml":"\u0d38\u0d46\u0d7b\u0d31\u0d4d \u0d35\u0d3f\u0d7b\u0d38\u0d7b\u0d31\u0d41\u0d02 \u0d17\u0d4d\u0d30\u0d28\u0d21\u0d48\u0d7b\u0d38\u0d41\u0d02","name:sw":"Santavisenti na Grenadini","name:be":"\u0421\u0432\u044f\u0442\u044b \u0412\u0456\u043d\u0446\u044d\u043d\u0442 \u0456 \u0413\u0440\u044d\u043d\u0430\u0434\u0437\u0456\u043d\u044b","name:bg":"\u0421\u0435\u0439\u043d\u0442 \u0412\u0438\u043d\u0441\u044a\u043d\u0442 \u0438 \u0413\u0440\u0435\u043d\u0430\u0434\u0438\u043d\u0438","name:sr":"\u0421\u0432\u0435\u0442\u0438 \u0412\u0438\u043d\u0441\u0435\u043d\u0442 \u0438 \u0413\u0440\u0435\u043d\u0430\u0434\u0438\u043d\u0438","name:sq":"Saint Vincent e Grenadinet","name:ga":"San Uinseann agus na Grean\u00e1id\u00edn\u00ed","name:gd":"Naomh Bhionsant agus Eileanan Greanadach","name:gl":"San Vicente e Granadinas","name:yo":"Or\u00edl\u1eb9\u0301\u00e8de Fis\u1eb9nnti ati Genadina","name:ak":"Saint Vincent ne Grenadines"},"coordinates":[2266,657]},{"type":"Point","properties":{"name:pt":"Granada","name:ka":"\u10d2\u10e0\u10d4\u10dc\u10d0\u10d3\u10d0","name:ko":"\uadf8\ub808\ub098\ub2e4","name:kn":"\u0c97\u0ccd\u0cb0\u0cc6\u0ca8\u0cc6\u0ca1\u0cbe","name:km":"\u17a0\u17d2\u1782\u17d2\u179a\u17be\u178e\u17b6\u178a","name:tt":"\u0413\u0440\u0435\u043d\u0430\u0434\u0430","name:th":"\u0e1b\u0e23\u0e30\u0e40\u0e17\u0e28\u0e40\u0e01\u0e23\u0e40\u0e19\u0e14\u0e32","name:ti":"\u130d\u122c\u1293\u12f3","name:ks":"\u06af\u0631\u065b\u0646\u06cc\u0691\u0627","name:to":"Kelenat\u0101","name:or":"\u0b17\u0b4d\u0b30\u0b47\u0b28\u0b3e\u0b21\u0b3e","name:pl":"Granada","name:ta":"\u0b95\u0bbf\u0bb0\u0ba9\u0bc6\u0b9f\u0bbe","name:te":"\u0c17\u0c4d\u0c30\u0c46\u0c28\u0c46\u0c21\u0c3e","name:bg":"\u0413\u0440\u0435\u043d\u0430\u0434\u0430","name:dz":"\u0f42\u0fb2\u0f80\u0f0b\u0f53\u0f0b\u0f4c","source":"openstreetmap.org","name:lv":"Gren\u0101da","name:hi":"\u0917\u094d\u0930\u0947\u0928\u0947\u0921\u093e","name:he":"\u05d2\u05e8\u05e0\u05d3\u05d4","kind":"country","name:ha":"Girnada","name:lb":"Granada","name:la":"Granata","name:lg":"Gurenada","name:uk":"\u0413\u0440\u0435\u043d\u0430\u0434\u0430","name:hy":"\u0533\u0580\u0565\u0576\u0561\u0564\u0561","name:ln":"Gelenad\u025b","name:lo":"\u0ec1\u0e81\u0ea3\u0e99\u0e99\u0eb2\u0e94\u0eb2","population":107850,"name:el":"\u0393\u03c1\u03b5\u03bd\u03ac\u03b4\u03b1","name:eo":"Grenado","name":"Grenada","name:ee":"Grenada nutome","min_zoom":2.0,"name:es":"Granada","name:rn":"Gerenada","name:az":"Qrenada","name:mr":"\u0917\u094d\u0930\u0947\u0928\u0947\u0921\u093e","name:ar":"\u063a\u0631\u064a\u0646\u0627\u062f\u0627","name:mg":"Grenady","name:am":"\u130d\u122c\u1293\u12f3","name:ru":"\u0413\u0440\u0435\u043d\u0430\u0434\u0430","name:ml":"\u0d17\u0d4d\u0d30\u0d28\u0d47\u0d21","name:mn":"\u0413\u0440\u0435\u043d\u0430\u0434\u0430","id":424316074,"name:mk":"\u0413\u0440\u0435\u043d\u0430\u0434\u0430","name:vo":"Grenade\u00e4n","name:zu":"i-Grenada","name:ff":"Garnaad","name:fr":"Grenade","name:zh":"\u683c\u6797\u7eb3\u8fbe","name:so":"Giriinaada","name:ja":"\u30b0\u30ec\u30ca\u30c0","name:si":"\u0d9c\u0dca\u200d\u0dbb\u0dd0\u0db1\u0da9\u0dcf\u0dc0","name:fa":"\u06af\u0631\u0646\u0627\u062f\u0627","name:sg":"Gren\u00e2da","name:ne":"\u0917\u094d\u0930\u0947\u0928\u093e\u0921\u093e","name:bm":"Granadi","name:bn":"\u0997\u09cd\u09b0\u09c7\u09a8\u09be\u09a1\u09be","name:bo":"\u0f42\u0fb7\u0f0b\u0f62\u0f72\u0f0b\u0f53\u0f0b\u0f4c\u0f0d","name:be":"\u0413\u0440\u044d\u043d\u0430\u0434\u0430","name:ur":"\u063a\u0631\u0646\u0627\u0637\u06c1","name:sr":"\u0413\u0440\u0435\u043d\u0430\u0434\u0430","name:ga":"Grean\u00e1da","name:gd":"Greanada","name:gl":"Granada","name:yo":"Or\u00edl\u1eb9\u0301\u00e8de Genada","name:gu":"\u0a97\u0acd\u0ab0\u0ac7\u0aa8\u0ac7\u0aa1\u0abe"},"coordinates":[2115,364]},{"type":"Point","properties":{"name:ka":"\u10d3\u10dd\u10db\u10d8\u10dc\u10d8\u10d9\u10d0","alt_name:el":"\u039d\u03c4\u03bf\u03bc\u03af\u03bd\u03b9\u03ba\u03b1","name:ko":"\ub3c4\ubbf8\ub2c8\uce74","name:kn":"\u0ca1\u0cca\u0cae\u0cbf\u0ca8\u0cbf\u0c95\u0cbe","name:km":"\u178a\u17bc\u1798\u17b8\u1793\u17b8\u1780\u17b6","name:cs":"Dominika","name:ki":"Dominika","name:ku":"Dom\u00een\u00eek","name:ti":"\u12f6\u121a\u1292\u12ab","name:ks":"\u0688\u0648\u0645\u0650\u0646\u0650\u06a9\u0627","name:to":"Tominika","name:or":"\u0b21\u0b4b\u0b2e\u0b3f\u0b28\u0b3e\u0b15\u0b3e","name:pl":"Dominika","name:ta":"\u0b9f\u0bca\u0bae\u0bbf\u0ba9\u0bbf\u0b95\u0bbe","name:te":"\u0c21\u0c4b\u0c2e\u0c46\u0c28\u0c3f\u0c15","source":"openstreetmap.org","name:hr":"Dominika","name:dz":"\u0f4c\u0f7c\u0f0b\u0f58\u0f72\u0f0b\u0f53\u0f72\u0f0b\u0f40","name:tr":"Dominika","name:lv":"Dominika","name:lt":"Dominika","name:hi":"\u0921\u094b\u092e\u093f\u0928\u093f\u0915\u093e","name:he":"\u05d3\u05d5\u05de\u05d9\u05e0\u05d9\u05e7\u05d4","kind":"country","name:ur":"\u0688\u0648\u0645\u0646\u06cc\u06a9\u0627","name:lg":"Dominika","name:uk":"\u0414\u043e\u043c\u0456\u043d\u0456\u043a\u0430","name:hy":"\u0534\u0578\u0574\u056b\u0576\u056b\u056f\u0561","min_zoom":2.0,"name:hu":"Dominikai K\u00f6z\u00f6ss\u00e9g","name:ln":"Dom\u00ednike","name:lo":"\u0ec2\u0e94\u0ea1\u0eb5\u0e99\u0eb4\u0e84\u0eb2","population":72514,"name:el":"\u0394\u03bf\u03bc\u03af\u03bd\u03b9\u03ba\u03b1","name:eo":"Dominiko","name":"Dominica","name:is":"D\u00f3min\u00edka","name:ee":"Dominika nutome","name:th":"\u0e1b\u0e23\u0e30\u0e40\u0e17\u0e28\u0e42\u0e14\u0e21\u0e34\u0e19\u0e34\u0e01\u0e32","name:eu":"Dominika","name:yo":"Or\u00edl\u1eb9\u0301\u00e8de D\u00f2m\u00edn\u00edk\u00e0","name:mt":"Dominika","name:rn":"Dominika","name:az":"Dominika","name:id":"Dominika","name:mr":"\u0921\u094b\u092e\u093f\u0928\u093f\u0915\u093e","name:ar":"\u062f\u0648\u0645\u064a\u0646\u064a\u0643\u0627","name:my":"\u1012\u102d\u102f\u1019\u102e\u1014\u102e\u1000\u102c","name:io":"Dominika","name:ak":"D\u0254meneka","name:am":"\u12f6\u121a\u1292\u12ab","name:it":"Domin\u00ecca","name:ml":"\u0d21\u0d4a\u0d2e\u0d3f\u0d28\u0d3f\u0d15\u0d4d\u0d15","name:ru":"\u0414\u043e\u043c\u0438\u043d\u0438\u043a\u0430","name:mn":"\u0414\u043e\u043c\u0438\u043d\u0438\u043a\u0430","id":424297496,"name:mk":"\u0414\u043e\u043c\u0438\u043d\u0438\u043a\u0430","name:af":"Dominika","name:zu":"i-Dominica","name:ha":"Dominika","name:ff":"Dominika","name:mg":"Dominika","name:fo":"Dominika","official_name":"Commonwealth of Dominica","name:fr":"Dominique","name:fy":"Dominika","name:vo":"Dominike\u00e4n","name:zh":"\u591a\u660e\u5c3c\u52a0","name:so":"Domeenika","name:sl":"Dominika","name:sk":"Dominika","name:ja":"\u30c9\u30df\u30cb\u30ab\u56fd","name:si":"\u0da9\u0ddc\u0db8\u0dd2\u0db1\u0dd2\u0d9a\u0dcf\u0dc0","name:fa":"\u062f\u0648\u0645\u06cc\u0646\u06cc\u06a9\u0627","name:sg":"D\u00f6m\u00efn\u00eeka","name:ne":"\u0921\u094b\u092e\u093f\u0928\u093f\u0915\u093e","name:br":"Dominika","name:bs":"Dominika","name:bm":"D\u0254miniki","name:bn":"\u09a1\u09cb\u09ae\u09bf\u09a8\u09bf\u0995\u09be","name:bo":"\u0f4c\u0f7c\u0f0b\u0f58\u0f72\u0f53\u0f0b\u0f53\u0f72\u0f0b\u0f40\u0f0d","name:sw":"Dominika","name:be":"\u0414\u0430\u043c\u0456\u043d\u0456\u043a\u0430","name:bg":"\u0414\u043e\u043c\u0438\u043d\u0438\u043a\u0430","name:sr":"\u0414\u043e\u043c\u0438\u043d\u0438\u043a\u0430","name:sq":"Dominik\u00eb","name:ga":"Doiminice","name:gd":"Doiminicia","name:gu":"\u0aa1\u0acb\u0aae\u0abf\u0aa8\u0abf\u0a95\u0abe","name:tt":"\u0414\u043e\u043c\u0438\u043d\u0438\u043a\u0430"},"coordinates":[2234,1611]},{"type":"Point","properties":{"name:ka":"\u10d0\u10dc\u10e2\u10d8\u10d2\u10e3\u10d0 \u10d3\u10d0 \u10d1\u10d0\u10e0\u10d1\u10e3\u10d3\u10d0","name:ko":"\uc564\ud2f0\uac00 \ubc14\ubd80\ub2e4","name:kn":"\u0c86\u0c82\u0c9f\u0cbf\u0c97\u0cc1\u0cb5\u0cbe \u0cae\u0ca4\u0ccd\u0ca4\u0cc1 \u0cac\u0cb0\u0ccd\u0cac\u0cc1\u0ca1\u0cbe","name:km":"\u17a2\u1784\u17cb\u1791\u17b8\u1782\u17d0\u179a \u1793\u17b7\u1784\u200b\u1794\u17b6\u1794\u17bb\u1799\u178a\u17b6","name:kl":"Antigua aamma Barbuda","name:cs":"Antigua a Barbuda","name:ki":"Antigua na Barbuda","name:kw":"Antiga ha Barbuda","name:ku":"Ant\u00eegua \u00fb Berb\u00fbda","name:ti":"\u12a0\u1295\u1272\u1313 \u12a5\u1293 \u1263\u1229\u12f3","name:ks":"\u0627\u066e\u06ea\u0646\u0679\u0650\u06af\u064f\u0648\u0627 \u062a\u06c1\u0655 \u0628\u0627\u0631\u0628\u0648\u0691\u0627","name:to":"Anitikua mo Palaputa","name:tl":"Antigua at Barbuda","name:ce":"\u0410\u043d\u0442\u0438\u0433\u0443\u0430 \u0430 \u0411\u0430\u0440\u0431\u0443\u0434\u0430","name:ta":"\u0b86\u0ba3\u0bcd\u0b9f\u0bbf\u0b95\u0bc1\u0bb5\u0bbe \u0bae\u0bb1\u0bcd\u0bb1\u0bc1\u0bae\u0bcd \u0baa\u0bbe\u0bb0\u0bcd\u0baa\u0bc1\u0b9f\u0bbe","name:tg":"\u0410\u043d\u0442\u0438\u0433\u0443\u0430\u044e \u0411\u0430\u0440\u0431\u0443\u0434\u0430","name:ca":"Antigua i Barbuda","name:te":"\u0c06\u0c02\u0c1f\u0c3f\u0c17\u0c4d\u0c35\u0c3e \u0c2e\u0c30\u0c3f\u0c2f\u0c41 \u0c2c\u0c3e\u0c30\u0c4d\u0c2c\u0c41\u0c21\u0c3e","name:cy":"Antigua a Barbuda","name:da":"Antigua og Barbuda","name:de":"Antigua und Barbuda","name:dz":"\u0f68\u0f53\u0f0b\u0f4a\u0f72\u0f0b\u0f42\u0f74\u0f0b\u0f5d\u0f0b \u0f68\u0f7a\u0f53\u0f4c\u0f0b \u0f56\u0fb7\u0f62\u0f0b\u0f56\u0fb7\u0f74\u0f0b\u0f4c","source":"openstreetmap.org","name:dv":"\u0787\u07ac\u0782\u07b0\u0793\u07a8\u078e\u07aa\u0787\u07a7 \u0787\u07a6\u078b\u07a8 \u0784\u07a7\u0784\u07a8\u0787\u07aa\u0791\u07a7","name:lv":"Antigva un Barbuda","name:lt":"Antigva ir Barbuda","name:uz":"Antigua va Barbuda","name:kk":"\u0410\u043d\u0442\u0438\u0433\u0443\u0430 \u0436\u04d9\u043d\u0435 \u0411\u0430\u0440\u0431\u0443\u0434\u0430","name:ur":"\u0627\u0646\u0679\u06cc\u06af\u0648\u0627 \u0627\u0648\u0631 \u0628\u0627\u0631\u0628\u0648\u062f\u0627","name:lb":"Antigua a Barbuda","name:la":"Antiqua et Barbuda","name:lg":"Antigwa ne Barabuda","name:uk":"\u0410\u043d\u0442\u0438\u0433\u0443\u0430 \u0456 \u0411\u0430\u0440\u0431\u0443\u0434\u0430","name:ug":"\u0626\u0627\u0646\u062a\u0649\u06af\u06c7\u0626\u0627 \u06cb\u06d5 \u0628\u0627\u0631\u0628\u06c7\u062f\u0627","name:li":"Antigua en Barbuda","name:ln":"Antiga mp\u00e9 Barbuda","name:lo":"\u0ec1\u0ead\u0e99\u0e95\u0eb5\u0e81\u0eb2\u0ea7 \u0ec1\u0ea5\u0eb0 \u0e9a\u0eb2\u0e9a\u0eb9\u0e94\u0eb2","name:el":"\u0391\u03bd\u03c4\u03af\u03b3\u03ba\u03bf\u03c5\u03b1 \u03ba\u03b1\u03b9 \u039c\u03c0\u03b1\u03c1\u03bc\u03c0\u03bf\u03cd\u03bd\u03c4\u03b1","name:eo":"Antigvo-Barbudo","name":"Antigua and Barbuda","name:ee":"\u0301Antigua kple Barbuda nutome","name:th":"\u0e1b\u0e23\u0e30\u0e40\u0e17\u0e28\u0e41\u0e2d\u0e19\u0e15\u0e34\u0e01\u0e32\u0e41\u0e25\u0e30\u0e1a\u0e32\u0e23\u0e4c\u0e1a\u0e39\u0e14\u0e32","name:eu":"Antigua eta Barbuda","name:et":"Antigua ja Barbuda","name:es":"Antigua y Barbuda","name:ay":"Antiwa wan Barbuda","name:rm":"Antigua e Barbuda","name:rn":"Antigwa na Baribuda","name:az":"Antiqua v\u0259 Barbuda","name:id":"Antigua dan Barbuda","name:ar":"\u0623\u0646\u062a\u064a\u063a\u0648\u0627 \u0648\u0628\u0631\u0628\u0648\u062f\u0627","name:io":"Antigua e Barbuda","name:ak":"Antigua ne Baabuda","name:am":"\u12a0\u1295\u1272\u1313 \u12a5\u1293 \u1263\u1229\u12f3","name:it":"Antigua e Barbuda","name:an":"Antigua y Barbuda","name:ru":"\u0410\u043d\u0442\u0438\u0433\u0443\u0430 \u0438 \u0411\u0430\u0440\u0431\u0443\u0434\u0430","name:rw":"Antigwa na Baribuda","name:af":"Antigua en Barbuda","name:zu":"i-Antigua and Barbuda","name:zh-yue":"\u5b89\u63d0\u74dc\u5df4\u5e03\u9054","name:zh":"\u5b89\u63d0\u74dc\u548c\u5df4\u5e03\u8fbe","name:so":"Antigua iyo Barbuda","name:sn":"Antigua ne Barbuda","name:sl":"Antigva in Barbuda","name:sk":"Antigua a Barbuda","name:ja":"\u30a2\u30f3\u30c6\u30a3\u30b0\u30a2\u30fb\u30d0\u30fc\u30d6\u30fc\u30c0","name:si":"\u0d87\u0db1\u0dca\u0da7\u0dd2\u0d9c\u0dd4\u0dc0\u0dcf \u0dc3\u0dc4 \u0db6\u0dcf\u0db6\u0dd2\u0dba\u0dd4\u0da9\u0dcf","name:sh":"Antigva i Barbuda","name:sg":"Ant\u00eegua na Barb\u00fbda","name:se":"Antigua ja Barbuda","name:sa":"\u0905\u0923\u094d\u091f\u0940\u0917\u094d\u0935\u093e","name:bs":"Antigva i Barbuda","name:bm":"Antiga-ni-Barbuda","name:bn":"\u098f\u09a8\u09cd\u099f\u09bf\u0997\u09c1\u09af\u09bc\u09be \u0993 \u09ac\u09be\u09b0\u09ac\u09c1\u09a1\u09be","name:bo":"\u0f68\u0f7a\u0f53\u0f0b\u0f4a\u0f72\u0f0b\u0f42\u0f74\u0f0b\u0f51\u0f44\u0f0b\u0f0d \u0f56\u0fb7\u0f62\u0f0b\u0f56\u0f74\u0f0b\u0f4c\u0f0d","name:br":"Antigua ha Barbuda","name:sw":"Antigua na Barbuda","name:be":"\u0410\u043d\u0442\u044b\u0433\u0443\u0430 \u0456 \u0411\u0430\u0440\u0431\u0443\u0434\u0430","name:su":"Antigua jeung Barbuda","name:bg":"\u0410\u043d\u0442\u0438\u0433\u0443\u0430 \u0438 \u0411\u0430\u0440\u0431\u0443\u0434\u0430","name:ss":"IBhabudi ne Anithikhu","name:sr":"\u0410\u043d\u0442\u0438\u0433\u0432\u0430 \u0438 \u0411\u0430\u0440\u0431\u0443\u0434\u0430","name:sq":"Antigua e Barbuda","name:jv":"Antigua lan Barbuda","name:ia":"Antigua e Barbuda","name:pt":"Ant\u00edgua e Barbuda","name:oc":"Antigua e Barbuda","min_zoom":2.0,"name:ro":"Antigua \u015fi Barbuda","name:zh-min-nan":"Antigua kap Barbuda","name:os":"\u0410\u043d\u0442\u0438\u0433\u0443\u00e6 \u00e6\u043c\u00e6 \u0411\u0430\u0440\u0431\u0443\u0434\u00e6","name:or":"\u0b06\u0b23\u0b4d\u0b1f\u0b3f\u0b17\u0b41\u0b06 \u0b0f\u0b2c\u0b02 \u0b2c\u0b3e\u0b30\u0b2c\u0b41\u0b26\u0b3e","name:pl":"Antigua i Barbuda","name:pa":"\u0a10\u0a02\u0a1f\u0a40\u0a17\u0a41\u0a06 \u0a05\u0a24\u0a47 \u0a2c\u0a30\u0a2c\u0a42\u0a21\u0a3e","name:tr":"Antigua ve Barbuda","name:hi":"\u0905\u0923\u094d\u091f\u0940\u0917\u0941\u0906 \u0914\u0930 \u092c\u093e\u0930\u092c\u0942\u0921\u093e","name:sv":"Antigua och Barbuda","name:he":"\u05d0\u05e0\u05d8\u05d9\u05d2\u05d5\u05d0\u05d4 \u05d5\u05d1\u05e8\u05d1\u05d5\u05d3\u05d4","name:ha":"Antigwa da Barbuba","name:hy":"\u0531\u0576\u057f\u056b\u0563\u0578\u0582\u0561-\u0532\u0561\u0580\u0562\u0578\u0582\u0564\u0561","name:ht":"Antigwa ak Babouda","name:hu":"Antigua \u00e9s Barbuda","name:hr":"Antigva i Barbuda","population":69842,"kind":"country","name:is":"Ant\u00edgva og Barb\u00fada","name:yo":"Or\u00edl\u1eb9\u0301\u00e8de \u00c0\u00e0nt\u00edg\u00fa\u00e0 \u00e0ti B\u00e1r\u00edb\u00fad\u00e0","name:mt":"Antigwa u Barbuda","name:ms":"Antigua dan Barbuda","name:mr":"\u0905\u0901\u091f\u093f\u0917\u094d\u0935\u093e \u0906\u0923\u093f \u092c\u0930\u094d\u092c\u0941\u0921\u093e","name:my":"\u1021\u1004\u103a\u1010\u102e\u1002\u103d\u102b\u1014\u103e\u1004\u1037\u103a \u1018\u102c\u1018\u1030\u1012\u102b\u1014\u102d\u102f\u1004\u103a\u1004\u1036","name:mg":"Antiga sy Barboda","name:ml":"\u0d06\u0d7b\u0d31\u0d3f\u0d17\u0d4d\u0d35\u0d2f\u0d41\u0d02 \u0d2c\u0d7c\u0d2c\u0d41\u0d21\u0d2f\u0d41\u0d02","name:vi":"Antigua v\u00e0 Barbuda","name:mn":"\u0410\u043d\u0442\u0438\u0433\u0443\u0430 \u0431\u0430 \u0411\u0430\u0440\u0431\u0443\u0434\u0430","id":432424929,"name:mk":"\u0410\u043d\u0442\u0438\u0433\u0432\u0430 \u0438 \u0411\u0430\u0440\u0431\u0443\u0434\u0430","name:vo":"Lantige\u00e4n e Barbude\u00e4n","name:fa":"\u0622\u0646\u062a\u06cc\u06af\u0648\u0627 \u0648 \u0628\u0627\u0631\u0628\u0648\u062f\u0627","name:ff":"Antiguwaa e Barbudaa","name:fi":"Antigua ja Barbuda","name:fo":"Antigua og Barbuda","name:fr":"Antigua-et-Barbuda","name:fy":"Antigua en Barb\u00fbda","name:nl":"Antigua en Barbuda","name:nn":"Antigua og Barbuda","name:no":"Antigua og Barbuda","name:na":"Antigua me Barbuda","name:nb":"Antigua og Barbuda","name:ne":"\u090f\u0928\u094d\u091f\u093f\u0917\u0941\u0906 \u0930 \u092c\u093e\u0930\u092c\u0941\u0921\u093e","name:wo":"Antigua ak Barbuda","name:nv":"Ant\u00ed\u00edgwa d\u00f3\u00f3 Hashk\u02bcaan Bik\u00e9yah Y\u00e1zh\u00ed","name:ga":"Antigua agus Barb\u00fada","name:gd":"Antigua agus Barbuda","name:gn":"Antigua ha Barbuda","name:gl":"Antiga e Barbuda","name:gv":"Antigua as Barbuda","name:gu":"\u0a8f\u0aa8\u0acd\u0a9f\u0ac0\u0a97\u0ac1\u0a86 \u0a85\u0aa8\u0ac7 \u0aac\u0ab0\u0aac\u0ac1\u0aa1\u0abe","name:tt":"\u0410\u043d\u0442\u0438\u0433\u0443\u0430 \u04bb\u04d9\u043c \u0411\u0430\u0440\u0431\u0443\u0434\u0430"},"coordinates":[2067,2245]},{"type":"Point","properties":{"name:pt":"S\u00e3o Crist\u00f3v\u00e3o e Nevis","name:cy":"Saint Kitts a Nevis","name:ko":"\uc138\uc778\ud2b8\ud06c\ub9ac\uc2a4\ud1a0\ud37c \ub124\ube44\uc2a4","name:kn":"\u0cb8\u0cc7\u0c82\u0c9f\u0ccd \u0c95\u0cbf\u0c9f\u0ccd\u0cb8\u0ccd \u0cae\u0ca4\u0ccd\u0ca4\u0cc1 \u0ca8\u0cc6\u0cb5\u0cbf\u0cb8\u0ccd","name:km":"\u179f\u1784\u17cb\u1783\u17b8\u178f \u1793\u17b7\u1784\u200b\u178e\u17c1\u179c\u17b8\u179f","name:kl":"Saint Kitts aamma Nevis","name:cs":"Svat\u00fd Kry\u0161tof a Nevis","alt_name:eo":"Sankta-Kito kaj Neviso","name:ki":"Santakitzi na Nevis","name:tr":"Saint Kitts ve Nevis","name:th":"\u0e1b\u0e23\u0e30\u0e40\u0e17\u0e28\u0e40\u0e0b\u0e19\u0e15\u0e4c\u0e04\u0e34\u0e15\u0e2a\u0e4c\u0e41\u0e25\u0e30\u0e40\u0e19\u0e27\u0e34\u0e2a","name:ti":"\u1245\u12f1\u1235 \u12aa\u1275\u1235 \u12a5\u1293 \u1294\u126a\u1235","name:ks":"\u0633\u06cc\u0646\u065b\u0679 \u06a9\u0650\u0679\u064e\u0633 \u062a\u06c1\u0655 \u0646\u06cc\u0648\u0650\u0633","name:to":"Seini Kitisi mo Nevisi","name:sv":"Saint Kitts och Nevis","name:or":"\u0b38\u0b47\u0b23\u0b4d\u0b1f \u0b15\u0b3f\u0b1f\u0b38\u0b4d \u0b0f\u0b23\u0b4d\u0b21 \u0b28\u0b47\u0b2d\u0b3f\u0b38\u0b4d","name:pl":"Saint Kitts i Nevis","name:ta":"\u0b9a\u0bc6\u0baf\u0bbf\u0ba9\u0bcd\u0b9f\u0bcd \u0b95\u0bbf\u0b9f\u0bcd\u0bb8\u0bcd \u0bae\u0bb1\u0bcd\u0bb1\u0bc1\u0bae\u0bcd \u0ba8\u0bc6\u0bb5\u0bbf\u0bb8\u0bcd","name:ca":"Saint Christopher i Nevis","name:te":"\u0c38\u0c46\u0c02\u0c1f\u0c4d \u0c15\u0c3f\u0c1f\u0c4d\u0c1f\u0c4d\u0c38\u0c4d \u0c2e\u0c30\u0c3f\u0c2f\u0c41 \u0c28\u0c46\u0c35\u0c3f\u0c38\u0c4d","name:hu":"Saint Christopher \u00e9s Nevis","name:ro":"Sf\u00e2ntul Kitts \u0219i Nevis","name:ka":"\u10e1\u10d4\u10dc\u10e2-\u10d9\u10d8\u10e2\u10e1\u10d8 \u10d3\u10d0 \u10dc\u10d4\u10d5\u10d8\u10e1\u10d8","name:hr":"Sveti Kristofor i Nevis","name:da":"Saint Kitts og Nevis","name:de":"St. Kitts und Nevis","name:dz":"\u0f66\u0f7a\u0f53\u0f4a\u0f0b \u0f40\u0f72\u0f4a\u0f66\u0f0b \u0f51\u0f44\u0f0b \u0f53\u0f7a\u0f0b\u0f56\u0f72\u0f66","source":"openstreetmap.org","name:lv":"Sentkitsa un Nevisa","name:lt":"Sen Kristoferis ir Nevis","name:hi":"\u0938\u0947\u0902\u091f \u0915\u093f\u091f\u094d\u0938 \u0914\u0930 \u0928\u0947\u0935\u093f\u0938","name:he":"\u05e1\u05e0\u05d8 \u05e7\u05d9\u05d8\u05e1 \u05d5\u05e0\u05d5\u05d5\u05d9\u05e1","kind":"country","name:ur":"\u0633\u06cc\u0646\u0679 \u06a9\u0679\u0633 \u0627\u0648\u0631 \u0646\u06cc\u0648\u06cc\u0633","name:lb":"Saint Kitts a Nevis","name:lg":"Senti Kitisi ne Nevisi","name:uk":"\u0421\u0435\u043d\u0442-\u041a\u0456\u0442\u0442\u0441 \u0456 \u041d\u0435\u0432\u0456\u0441","name:hy":"\u054d\u0565\u0576\u057f \u053f\u056b\u057f\u057d-\u0546\u0565\u057e\u056b\u057d","name:li":"Saint-Kitts","name:ln":"S\u00e1ntu kr\u00edstofe mp\u00e9 Nev\u025b\u0300s","name:lo":"\u0ec0\u0e8a\u0ea3\u0e99 \u0e84\u0eb4\u0e94 \u0ec1\u0ea5\u0eb0 \u0ec0\u0e99\u0ea7\u0eb4\u0e94","population":42696,"name:el":"\u0386\u03b3\u03b9\u03bf\u03c2 \u03a7\u03c1\u03b9\u03c3\u03c4\u03cc\u03c6\u03bf\u03c1\u03bf\u03c2 \u03ba\u03b1\u03b9 \u039d\u03ad\u03b2\u03b9\u03c2","name:eo":"Sankta Kristoforo kaj Neviso","name":"Saint Kitts and Nevis","official_name":"Federation of Saint Kitts and Nevis","name:ee":"Saint Kitis kple Nevis nutome","min_zoom":2.0,"name:gu":"\u0ab8\u0ac7\u0a82\u0a9f \u0a95\u0abf\u0a9f\u0acd\u0ab8 \u0a8f\u0a82\u0aa1 \u0aa8\u0ac7\u0ab5\u0abf\u0ab8","name:eu":"Saint Kitts eta Nevis","name:et":"Saint Kitts ja Nevis","name:nl":"Saint Kitts en Nevis","name:es":"San Crist\u00f3bal y Nieves","name:ia":"Sancte Christophoro e Nevis","name:rm":"Saint Kitts e Nevis","name:rn":"Sekitsi na Nevisi","name:az":"Seynt Kits v\u0259 Nevis","name:id":"Saint Kitts dan Nevis","name:ms":"Saint Kitts dan Nevis","name:mr":"\u0938\u0947\u0902\u091f \u0915\u093f\u091f\u094d\u0938 \u0906\u0923\u093f \u0928\u0947\u0935\u094d\u0939\u093f\u0938","name:ar":"\u0633\u0627\u0646\u062a \u0643\u064a\u062a\u0633 \u0648\u0646\u064a\u0641\u0633","name:io":"Santa Kitts e Nevis","name:is":"Sankti Krist\u00f3fer og Nevis","name:am":"\u1245\u12f1\u1235 \u12aa\u1275\u1235 \u12a5\u1293 \u1294\u126a\u1235","name:it":"Saint Kitts e Nevis","name:vi":"Saint Kitts v\u00e0 Nevis","name:ru":"\u0421\u0435\u043d\u0442-\u041a\u0438\u0442\u0441 \u0438 \u041d\u0435\u0432\u0438\u0441","name:mn":"\u0421\u0435\u043d\u0442-\u041a\u0438\u0442\u0442\u0441 \u0431\u0430 \u041d\u0435\u0432\u0438\u0441","id":424310758,"name:mk":"\u0421\u0435\u043d\u0442 \u041a\u0440\u0438\u0441\u0442\u043e\u0444\u0435\u0440 \u0438 \u041d\u0435\u0432\u0438\u0441","name:af":"Sint Kitts en Nevis","name:zu":"i-Saint Kitts ne-Nevis","name:ha":"San Kiti Da Nebis","name:nn":"St. Christopher og Nevis","name:ff":"Sent Kits e Newis","name:fi":"Saint Kitts ja Nevis","name:no":"Saint Kitts og Nevis","name:mg":"Saint-Christophe-et-Ni\u00e9v\u00e8s","name:fo":"Saint Kitts og Nevis","name:fr":"Saint-Christophe-et-Ni\u00e9v\u00e8s","name:fy":"Sint Kitts en Nevis","name:vo":"Sankite\u00e4n e Nevise\u00e4n","name:zh":"\u5723\u57fa\u8328\u548c\u5c3c\u7ef4\u65af","name:gv":"Noo Kitts as Nevis","name:sl":"Saint Kitts in Nevis","name:sk":"Sv\u00e4t\u00fd Kri\u0161tof a Nevis","name:ja":"\u30bb\u30f3\u30c8\u30af\u30ea\u30b9\u30c8\u30d5\u30a1\u30fc\u30fb\u30cd\u30a4\u30d3\u30b9","name:si":"\u0dc1\u0dcf\u0db1\u0dca\u0dad \u0d9a\u0dd2\u0da7\u0dca\u0dc3\u0dca \u0dc3\u0dc4 \u0db1\u0dda\u0dc0\u0dd2\u0dc3\u0dca","name:fa":"\u0633\u0646\u062a \u06a9\u06cc\u062a\u0633 \u0648 \u0646\u0648\u06cc\u0633","name:sg":"S\u00ean-Kr\u00efst\u00f4fo-na-Nev\u00eesi","name:se":"Saint Kitts ja Nevis","name:ne":"\u0938\u0947\u0928\u094d\u091f \u0915\u093f\u091f\u094d\u0938 \u0930 \u0928\u0947\u092d\u093f\u0938","name:br":"Saint Kitts ha Nevis","name:bs":"Sent Kits i Nevis","name:bm":"Krist\u0254fo-Senu-ni-\u019dev\u025bs","name:bn":"\u09b8\u09c7\u09a8\u09cd\u099f \u0995\u09bf\u099f\u09b8 \u0993 \u09a8\u09c7\u09ad\u09bf\u09b8","name:bo":"\u0f66\u0f7a\u0f53\u0f9a\u0f0d \u0f40\u0f72\u0f4a\u0f9a\u0f66\u0f84\u0f0d \u0f51\u0f44\u0f0c\u0f0d \u0f53\u0f7a\u0f0b\u0f56\u0f72\u0f66\u0f84\u0f0d","name:ml":"\u0d38\u0d46\u0d2f\u0d4d\u0d7b\u0d31\u0d4d \u0d15\u0d3f\u0d31\u0d4d\u0d31\u0d4d\u0d38\u0d41\u0d02 \u0d28\u0d46\u0d35\u0d3f\u0d38\u0d41\u0d02","name:sw":"Santakitzi na Nevis","name:be":"\u0421\u0432\u044f\u0442\u044b \u041a\u0456\u0442\u0441 \u0456 \u041d\u0435\u0432\u0456\u0441","name:bg":"\u0421\u0435\u0439\u043d\u0442 \u041a\u0438\u0442\u0441 \u0438 \u041d\u0435\u0432\u0438\u0441","name:sr":"\u0421\u0432\u0435\u0442\u0438 \u041a\u0438\u0442\u0441 \u0438 \u041d\u0435\u0432\u0438\u0441","name:sq":"Saint Kitts e Nevis","name:ga":"San Cr\u00edost\u00f3ir-Nimheas","name:gd":"Naomh Cr\u00ecstean agus Nibheis","name:gl":"San Cristovo e Nevis","name:yo":"Or\u00edl\u1eb9\u0301\u00e8de Kiiti ati Neefi","name:ak":"Saint Kitts ne N\u025bves"},"coordinates":[1723,2347]},{"type":"Point","properties":{"name:sk":"Sv\u00e4t\u00fd Martin","name:el":"\u0386\u03b3\u03b9\u03bf\u03c2 \u039c\u03b1\u03c1\u03c4\u03af\u03bd\u03bf\u03c2","name:he":"\u05e1\u05e0\u05d8 \u05de\u05d0\u05e8\u05d8\u05df","name:eo":"Sankta Marteno","official_name":"Land Sint Maarten","min_zoom":2.0,"name:uk":"\u0421\u0456\u043d\u0442-\u041c\u0430\u0440\u0442\u0435\u043d","name:ru":"\u0421\u0438\u043d\u0442-\u041c\u0430\u0440\u0442\u0435\u043d","id":271048940,"population":37429,"name:fa":"\u0633\u0646\u062a\u200c\u0645\u0627\u0631\u062a\u0646","kind":"country","name":"Sint Maarten","source":"openstreetmap.org","name:fr":"Saint-Martin","name:fy":"Sint-Marten","name:zh":"\u5723\u9a6c\u4e01\u5c9b"},"coordinates":[1618,2612]},{"type":"Point","properties":{"name:pt":"Ilhas Virgens Brit\u00e2nicas","name:cy":"Ynysoedd Prydeinig y Wyryf","name:ko":"\uc601\uad6d\ub839 \ubc84\uc9c4 \uc544\uc77c\ub79c\ub4dc","name:kn":"\u0cac\u0ccd\u0cb0\u0cbf\u0c9f\u0cbf\u0cb7\u0ccd \u0cb5\u0cb0\u0ccd\u0c9c\u0cbf\u0ca8\u0ccd \u0ca6\u0ccd\u0cb5\u0cc0\u0caa\u0c97\u0cb3\u0cc1","name:km":"\u1780\u17c4\u17c7\u200b\u179c\u17ba\u1787\u17b7\u1793\u200b\u1785\u1780\u17d2\u179a\u1797\u1796\u200b\u17a2\u1784\u17cb\u1782\u17d2\u179b\u17c1\u179f","name:cs":"Britsk\u00e9 Panensk\u00e9 ostrovy","name:ki":"Visiwa vya Virgin vya Uingereza","name:tr":"Birle\u015fik Krall\u0131k Virgin Adalar\u0131","name:th":"\u0e2b\u0e21\u0e39\u0e48\u0e40\u0e01\u0e32\u0e30\u0e1a\u0e23\u0e34\u0e15\u0e34\u0e0a\u0e40\u0e27\u0e2d\u0e23\u0e4c\u0e08\u0e34\u0e19","name:ti":"\u12e8\u12a5\u1295\u130d\u120a\u12dd \u12f5\u1295\u130d\u120d \u12f0\u1234\u1276\u127d","name:ks":"\u0628\u064e\u0631\u0637\u0627\u0646\u0648\u06cc \u0624\u0631\u062c\u0650\u0646 \u062c\u0654\u0632\u06cc\u0656\u0631\u0655","name:to":"\u02bbOtumotu Vilikini fakapilit\u0101nia","name:sv":"Brittiska Jungfru\u00f6arna","name:or":"\u0b2c\u0b4d\u0b30\u0b3f\u0b1f\u0b3f\u0b36\u0b4d \u0b2d\u0b30\u0b4d\u0b1c\u0b3f\u0b28\u0b4d \u0b26\u0b4d\u0b2c\u0b40\u0b2a\u0b2a\u0b41\u0b1e\u0b4d\u0b1c","name:pl":"Brytyjskie Wyspy Dziewicze","name:ta":"\u0baa\u0bbf\u0bb0\u0bbf\u0b9f\u0bcd\u0b9f\u0bc0\u0bb7\u0bcd \u0b95\u0ba9\u0bcd\u0ba9\u0bbf\u0ba4\u0bcd \u0ba4\u0bc0\u0bb5\u0bc1\u0b95\u0bb3\u0bcd","name:ca":"Illes Verges Brit\u00e0niques","name:te":"\u0c2c\u0c4d\u0c30\u0c3f\u0c1f\u0c3f\u0c37\u0c4d \u0c35\u0c30\u0c4d\u0c1c\u0c3f\u0c28\u0c4d \u0c26\u0c40\u0c35\u0c41\u0c32\u0c41","name:vi":"Qu\u1ea7n \u0111\u1ea3o Virgin thu\u1ed9c Anh","name:ro":"Insulele Virgine Britanice","name:hr":"Britanski Djevi\u010danski otoci","name:da":"Britiske Jomfru\u00f8er","name:de":"Britische Jungferninseln","name:dz":"\u0f5d\u0f62\u0f47\u0f72\u0f53\u0f0b\u0f42\u0fb3\u0f72\u0f44\u0f0b\u0f5a\u0f7c\u0f58\u0f0b \u0f56\u0fb2\u0f71\u0f72\u0f0b\u0f4a\u0f72\u0f64\u0f0b\u0f58\u0f44\u0f60\u0f0b\u0f41\u0f7c\u0f44\u0f66","source":"openstreetmap.org","name:lv":"Britu Vird\u017e\u012bnu salas","name:lt":"Mergel\u0117s salos (Brit\u0173)","name:hi":"\u092c\u094d\u0930\u093f\u091f\u093f\u0936 \u0935\u0930\u094d\u091c\u093f\u0928 \u0926\u094d\u0935\u0940\u092a\u0938\u092e\u0942\u0939","name:he":"\u05d0\u05d9\u05d9 \u05d4\u05d1\u05ea\u05d5\u05dc\u05d4 \u05d4\u05d1\u05e8\u05d9\u05d8\u05d9\u05d9\u05dd","kind":"country","name:ur":"\u0628\u0631\u0679\u0634 \u0648\u0631\u062c\u0646 \u0622\u0626\u0644\u06cc\u0646\u0688\u0632","name:lb":"Britesch Joffereninselen","name:la":"Britannicae Virginis Insulae","name:lg":"Bizinga ebya Virigini ebitwalibwa Bungereza","name:uk":"\u0411\u0440\u0438\u0442\u0430\u043d\u0441\u044c\u043a\u0456 \u0412\u0456\u0440\u0433\u0456\u043d\u0441\u044c\u043a\u0456 \u043e\u0441\u0442\u0440\u043e\u0432\u0438","name:hu":"Brit Virgin-szigetek","name:ln":"Bisanga bya Vierzi ya Ang\u025bl\u025bt\u025b\u0301l\u025b","name:lo":"\u0e9a\u0ea3\u0eb4\u0e97\u0eb4\u0e94\u0ec0\u0ea7\u0eb5\u0e88\u0eb4\u0e99\u0ec4\u0ead\u0ec1\u0ea5\u0e99","population":31148,"name:el":"\u0392\u03c1\u03b5\u03c4\u03b1\u03bd\u03b9\u03ba\u03ad\u03c2 \u03a0\u03b1\u03c1\u03b8\u03ad\u03bd\u03bf\u03b9 \u039d\u03ae\u03c3\u03bf\u03b9","name:eo":"Britaj Virgulininsuloj","name":"British Virgin Islands","official_name":"Virgin Islands","name:ee":"Britaint\u0254wo \u0192e Virgin \u0192udomekpowo nutome","min_zoom":2.0,"name:gu":"\u0aac\u0acd\u0ab0\u0abf\u0a9f\u0abf\u0ab6 \u0ab5\u0ab0\u0acd\u0a9c\u0abf\u0aa8 \u0a86\u0a87\u0ab2\u0ac7\u0aa8\u0acd\u0aa1","name:eu":"Birjina britainiar uharteak","name:et":"Briti Neitsisaared","name:nl":"Britse Maagdeneilanden","name:es":"Islas V\u00edrgenes Brit\u00e1nicas","name:rm":"Inslas Verginas Britannicas","name:rn":"Ibirwa by'isugi by'Abongereza","name:az":"Britaniya Virgin Adalar\u0131","name:id":"Kepulauan Virgin Britania Raya","name:mr":"\u092c\u094d\u0930\u093f\u091f\u093f\u0936 \u0935\u094d\u0939\u0930\u094d\u091c\u093f\u0928 \u092c\u0947\u091f\u0947","name:ar":"\u062c\u0632\u0631 \u0641\u064a\u0631\u062c\u0646 \u0627\u0644\u0628\u0631\u064a\u0637\u0627\u0646\u064a\u0629","name:my":"\u1017\u103c\u102d\u1010\u102d\u101e\u103b\u103e \u1017\u102c\u1002\u103b\u1004\u103a\u1038 \u1000\u103b\u103d\u1014\u103a\u1038\u1005\u102f","name:io":"Virgin Insuli Britaniana","name:is":"Bresku J\u00f3mfr\u00faaeyjar","name:am":"\u12e8\u12a5\u1295\u130d\u120a\u12dd \u12f5\u1295\u130d\u120d \u12f0\u1234\u1276\u127d","name:it":"Isole Vergini Britanniche","name:ml":"\u0d2c\u0d4d\u0d30\u0d3f\u0d1f\u0d4d\u0d1f\u0d40\u0d37\u0d4d \u0d35\u0d3f\u0d7c\u0d1c\u0d3f\u0d7b \u0d26\u0d4d\u0d35\u0d40\u0d2a\u0d41\u0d15\u0d7e","name:ru":"\u0412\u0438\u0440\u0433\u0438\u043d\u0441\u043a\u0438\u0435 \u041e\u0441\u0442\u0440\u043e\u0432\u0430 (\u0411\u0440\u0438\u0442.)","name:mn":"\u0412\u0438\u0440\u0436\u0438\u043d\u0438\u0439 \u0410\u0440\u043b\u0443\u0443\u0434, \u0411\u0440\u0438\u0442\u0430\u043d\u0438\u0439\u043d","id":424311891,"name:mk":"\u0411\u0440\u0438\u0442\u0430\u043d\u0441\u043a\u0438 \u0414\u0435\u0432\u0441\u0442\u0432\u0435\u043d\u0438 \u041e\u0441\u0442\u0440\u043e\u0432\u0438","name:af":"Brits-Maagde-eilande","name:zu":"i-British Virgin Islands","name:ha":"Tsibirin Birjin Na Birtaniya","name:nn":"Dei britiske jomfru\u00f8yane","name:ff":"duu\u0257e kecce britanii","name:fi":"Brittil\u00e4iset Neitsytsaaret","name:no":"De britiske Jomfru\u00f8yene","name:mg":"Nosy britanika virijiny","name:fo":"St\u00f3ra Bretlands J\u00f3mfr\u00faoyggjarnar","name:fr":"\u00celes Vierges britanniques","name:zh":"\u82f1\u5c5e\u7ef4\u5c14\u4eac\u7fa4\u5c9b","name:gv":"Ellanyn Goaldagh ny Moidyn","name:sn":"Zvitsuwa zveHingirandi","name:sl":"Britanski Devi\u0161ki otoki","name:sk":"Britsk\u00e9 Panensk\u00e9 ostrovy","name:ja":"\u82f1\u9818\u30f4\u30a1\u30fc\u30b8\u30f3\u8af8\u5cf6","name:si":"\u0db6\u0dca\u200d\u0dbb\u0dd2\u0dad\u0dcf\u0db1\u0dca\u200d\u0dba \u0dc0\u0dbb\u0dca\u0da2\u0dd2\u0db1\u0dca \u0daf\u0dd6\u0db4\u0dad\u0dca","name:fa":"\u062c\u0632\u0627\u06cc\u0631 \u0648\u06cc\u0631\u062c\u06cc\u0646 \u0628\u0631\u06cc\u062a\u0627\u0646\u06cc\u0627","name:sg":"\u00c2z\u00f4\u00e2 Vi\u00eer\u00eeggo t\u00ee Angl\u00ebe","name:se":"Brittania Virgin-sullot","name:ne":"\u092c\u0947\u0932\u093e\u092f\u0924\u0940 \u092d\u0930\u094d\u091c\u093f\u0928 \u091f\u093e\u092a\u0941","name:br":"Inizi Gwerc\u02bch Breizh-Veur","name:bs":"Britanska Devi\u010danska Ostrva","name:bm":"Angil\u025b ka Sungurunnin Gun","name:bn":"\u09ac\u09cd\u09b0\u09bf\u099f\u09bf\u09b6 \u09ad\u09be\u09b0\u09cd\u099c\u09bf\u09a8 \u09a6\u09cd\u09ac\u09c0\u09aa\u09aa\u09c1\u099e\u09cd\u099c","name:sw":"Visiwa vya Virgin vya Uingereza","name:be":"\u0411\u0440\u044b\u0442\u0430\u043d\u0441\u043a\u0456\u044f \u0412\u0456\u0440\u0434\u0436\u044b\u043d\u0441\u043a\u0456\u044f \u0430\u0441\u0442\u0440\u0430\u0432\u044b","name:bg":"\u0411\u0440\u0438\u0442\u0430\u043d\u0441\u043a\u0438 \u0412\u0438\u0440\u0434\u0436\u0438\u043d\u0441\u043a\u0438 \u043e\u0441\u0442\u0440\u043e\u043d\u0438","name:sr":"\u0411\u0440\u0438\u0442\u0430\u043d\u0441\u043a\u0430 \u0414\u0435\u0432\u0438\u0447\u0430\u043d\u0441\u043a\u0430 \u041e\u0441\u0442\u0440\u0432\u0430","name:ga":"Oile\u00e1in Bhriotanacha na Maighdean","name:gd":"Eileanan Breatannach na Maighdinn","name:gl":"Illas Virxes Brit\u00e1nicas","name:yo":"Or\u00edl\u1eb9\u0301\u00e8de Et\u00edkun F\u00e1g\u00edn\u00ec ti \u00ecl\u00fa B\u00edr\u00edt\u00eds\u00ec","name:ak":"Britainfo Virgin Islands"},"coordinates":[1068,2749]},{"type":"Point","properties":{"name:ka":"\u10d0\u10dc\u10d2\u10d5\u10d8\u10da\u10d0","name:ko":"\uc548\uae38\ub77c","name:kn":"\u0c86\u0c82\u0c97\u0cc1\u0caf\u0cbf\u0cb2\u0ccd\u0cb2\u0cbe","name:km":"\u17a2\u1784\u17cb\u1780\u17bc\u17a1\u17b6","name:kw":"Angwilla","name:th":"\u0e41\u0e2d\u0e07\u0e01\u0e27\u0e34\u0e25\u0e25\u0e32","name:ti":"\u12a0\u1295\u1309\u12a2\u120b","name:ks":"\u0627\u06cc\u0646\u065b\u06af\u0648\u0650\u0644\u0627","name:to":"Anikuila","name:tl":"Anggilya","name:pa":"\u0a10\u0a02\u0a17\u0a41\u0a08\u0a32\u0a3e","name:or":"\u0b06\u0b19\u0b4d\u0b17\u0b41\u0b07\u0b32\u0b4d\u0b32\u0b3e","name:ta":"\u0b85\u0b99\u0bcd\u0b95\u0bc1\u0baf\u0bcd\u0bb2\u0bbe","name:te":"\u0c06\u0c02\u0c17\u0c35\u0c3f\u0c32\u0c4d\u0c32\u0c3e","name:ln":"Angiy\u025b","name:ba":"\u0410\u043d\u0433\u0438\u043b\u044c\u044f","name:dz":"\u0f68\u0f44\u0f0b\u0f42\u0f72\u0f0b\u0f63","source":"openstreetmap.org","name:dv":"\u0787\u07a6\u0782\u07b0\u078e\u07a9\u078d\u07a7","name:lv":"Angilja","name:lt":"Angilija","name:hi":"\u090f\u0902\u0917\u0941\u0907\u0932\u093e","name:he":"\u05d0\u05e0\u05d2\u05d9\u05dc\u05d4","min_zoom":2.0,"name:eo":"Angvilo","name:ha":"Angila","name:lg":"Angwila","name:uk":"\u0410\u043d\u0433\u0456\u043b\u044c\u044f","name:hy":"\u0531\u0576\u0563\u056b\u056c\u056b\u0561","name:ug":"\u0626\u0627\u0646\u06af\u06cb\u0649\u0644\u0644\u0627","name:hr":"Angvila","name:lo":"\u0ec1\u0ead\u0e99\u0e81\u0eb4\u0ea5\u0eb2","population":15423,"name:el":"\u0391\u03b3\u03ba\u03af\u03bb\u03b1","kind":"country","name":"Anguilla","name:ee":"Anguilla nutome","name:is":"Angvilla","name:eu":"Angila","name:es":"Anguila","name:mt":"Angwilla","name:rn":"Angwila","name:az":"Angilya","name:mr":"\u0905\u0901\u0917\u094d\u0935\u093f\u0932\u093e","name:ur":"\u0627\u0646\u06af\u0648\u0626\u06cc\u0644\u0627","name:ar":"\u0623\u0646\u062c\u0648\u064a\u0644\u0627","name:my":"\u1021\u1014\u103a\u1000\u103d\u102e\u101c\u102c","name:io":"Anguila","name:ak":"Anguila","name:am":"\u12a0\u1295\u1309\u12a2\u120b","name:an":"Anguila","name:ml":"\u0d06\u0d7b\u0d17\u0d4d\u0d35\u0d3f\u0d32\u0d4d\u0d32","name:rw":"Angwiya","id":433483517,"name:mk":"\u0410\u043d\u0433\u0432\u0438\u043b\u0430","name:zu":"i-Anguilla","name:mn":"\u0410\u043d\u0433\u0438\u043b\u044c\u044f","name:ff":"Anngiyaa","name:zh-yue":"\u5b89\u572d\u62c9","name:zh":"\u5b89\u572d\u62c9","name:sn":"Anguila","name:sl":"Angvila","name:ja":"\u30a2\u30f3\u30ae\u30e9","name:si":"\u0d87\u0db1\u0dca\u0d9c\u0dd4\u0dba\u0dd2\u0dbd\u0dcf\u0dc0","name:sh":"Angvila","name:sg":"Ang\u00fb\u00eela","name:ne":"\u0906\u0919\u094d\u0917\u0941\u0907\u0932\u093e","name:bs":"Angvila","name:bm":"Angiya","name:bn":"\u098f\u09cd\u09af\u09be\u0999\u09cd\u0997\u09c1\u0987\u09b2\u09be","name:bo":"\u0f68\u0f44\u0f0b\u0f42\u0f74\u0f60\u0f72\u0f0b\u0f63\u0f0d","name:ru":"\u0410\u043d\u0433\u0438\u043b\u044c\u044f","name:be":"\u0410\u043d\u0433\u0456\u043b\u044c\u044f","name:bg":"\u0410\u043d\u0433\u0443\u0438\u043b\u0430","name:wo":"Angila","name:sr":"\u0410\u043d\u0433\u0432\u0438\u043b\u0430","name:ga":"Anga\u00edle","name:gl":"Anguila","name:fa":"\u0622\u0646\u06af\u0648\u06cc\u0644\u0627","name:yo":"Or\u00edl\u1eb9\u0301\u00e8de \u00c0\u00e0ng\u00fal\u00edl\u00e0","name:gu":"\u0a8d\u0a82\u0a97\u0acd\u0ab5\u0abf\u0ab2\u0abe"},"coordinates":[1611,2670]},{"type":"Point","properties":{"name:ka":"\u10db\u10dd\u10dc\u10e1\u10d4\u10e0\u10d0\u10e2\u10d8","name:ko":"\ubaac\ud2b8\uc138\ub77c\ud2b8","name:kn":"\u0cae\u0cbe\u0c82\u0c9f\u0ccd\u200c\u0cb8\u0cc6\u0cb0\u0cc7\u0c9f\u0ccd","name:km":"\u1798\u17c9\u17bb\u1784\u200b\u179f\u17c1\u179a\u17c9\u1784\u17cb","name:kk":"\u041c\u043e\u043d\u0442\u0441\u0435\u0440\u0440\u0430\u0442","name:ki":"Montserrati","name:th":"\u0e21\u0e2d\u0e19\u0e15\u0e4c\u0e40\u0e0b\u0e2d\u0e23\u0e4c\u0e23\u0e31\u0e15","name:ti":"\u121e\u1295\u1275\u1234\u122b\u1275","name:ks":"\u0645\u0627\u0646\u065b\u0679\u0633\u06cc\u0631\u0627\u0679","name:to":"Mo\u02bbungaselati","name:pa":"\u0a2e\u0a3e\u0a02\u0a1f\u0a38\u0a30\u0a3e\u0a24","name:or":"\u0b2e\u0b23\u0b4d\u0b1f\u0b47\u0b38\u0b47\u0b30\u0b3e\u0b1f\u0b4d","name:ta":"\u0bae\u0bcc\u0ba9\u0bcd\u0b9f\u0bcd\u0b9a\u0bc6\u0bb0\u0bbe\u0b9f\u0bcd","name:te":"\u0c2e\u0c4b\u0c02\u0c1f\u0c4d\u0c38\u0c47\u0c30\u0c4d\u0c30\u0c3e\u0c1f\u0c4d","name:hr":"Montserat","name:ru":"\u041c\u043e\u043d\u0442\u0441\u0435\u0440\u0440\u0430\u0442","name:dz":"\u0f58\u0f7c\u0f53\u0f0b\u0f66\u0f0b\u0f62\u0f4a","source":"openstreetmap.org","name:dv":"\u0789\u07ae\u0782\u07b0\u0790\u07ac\u0783\u07a7\u0793\u07aa","name:lv":"Montserrata","name:lt":"Montseratas","name:hi":"\u092e\u0949\u0928\u094d\u091f\u094d\u0938\u0947\u0930\u093e\u091f","name:he":"\u05de\u05d5\u05e0\u05e1\u05e8\u05d0\u05d8","kind":"country","name:ha":"Manserati","name:lg":"Monteseraati","name:uk":"\u041c\u043e\u043d\u0442\u0441\u0435\u0440\u0440\u0430\u0442","name:hy":"\u0544\u0578\u0576\u057f\u057d\u0565\u0580\u0561\u057f","name:ug":"\u0645\u0648\u0646\u062a\u0633\u06d5\u0631\u0631\u0627\u062a","name:ln":"M\u0254sera","name:lo":"\u0ea1\u0ead\u0e99\u0ec0\u0e8a\u0eb5\u0ea5\u0eb2\u0e94","population":4922,"name:el":"\u039c\u03bf\u03bd\u03c4\u03c3\u03b5\u03c1\u03ac\u03c4","name:eo":"Moncerato","name":"Montserrat","name:ee":"Montserrat nutome","min_zoom":2.0,"name:yo":"Or\u00edl\u1eb9\u0301\u00e8de Motserati","alt_name:el":"\u039c\u03bf\u03bd\u03c4\u03c3\u03b5\u03c1\u03c1\u03ac\u03c4","name:rn":"Monteserati","name:az":"Montserat","name:mr":"\u092e\u0949\u0928\u094d\u091f\u094d\u0938\u0947\u0930\u093e\u091f","name:ur":"\u0645\u0648\u0646\u0679\u0633\u06cc\u0631\u0627\u0679","name:ar":"\u0645\u0648\u0646\u062a\u0633\u0631\u0627\u062a","name:ak":"Mantserat","name:am":"\u121e\u1295\u1275\u1234\u122b\u1275","name:an":"Isla de Montserrat","name:ml":"\u0d2e\u0d4b\u0d23\u0d4d\u0d1f\u0d4d\u0d38\u0d46\u0d31\u0d3e\u0d31\u0d4d\u0d31\u0d4d","name:rw":"Monserati","id":424314005,"name:mk":"\u041c\u043e\u043d\u0441\u0435\u0440\u0430\u0442","name:zu":"i-Montserrat","name:mn":"\u041c\u043e\u043d\u0442\u0441\u0435\u0440\u0440\u0430\u0442","name:ff":"Monseraat","name:ba":"\u041c\u043e\u043d\u0442\u0441\u0435\u0440\u0440\u0430\u0442","name:zh-yue":"\u8499\u585e\u62c9\u7279\u5cf6","name:zh":"\u8499\u7279\u585e\u62c9\u7279","name:ja":"\u30e2\u30f3\u30c8\u30bb\u30e9\u30c8","name:si":"\u0db8\u0ddc\u0db1\u0dca\u0dc3\u0dd9\u0dbb\u0dcf\u0da7\u0dca","name:fa":"\u0645\u0648\u0646\u062a\u0633\u0631\u0627\u062a","name:sg":"Monser\u00e2te","name:ne":"\u092e\u094b\u0928\u094d\u091f\u0938\u0947\u0930\u094d\u0930\u093e\u091f","name:bs":"Monserat","name:bm":"Mo\u014bsera","name:bn":"\u09ae\u09a8\u09cd\u099f\u09b8\u09c7\u09b0\u09be\u099f","name:sw":"Montserrati","name:be":"\u041c\u0430\u043d\u0441\u0435\u0440\u0430\u0442","name:bg":"\u041c\u043e\u043d\u0441\u0435\u0440\u0430\u0442","name:sr":"\u041c\u043e\u043d\u0441\u0435\u0440\u0430\u0442","name:sq":"Montserrati","name:ga":"Montsarat","name:gd":"Montsarat","name:gl":"Illa Montserrat","name:gu":"\u0aae\u0acb\u0a82\u0a9f\u0ab8\u0ac7\u0ab0\u0abe\u0aa4"},"coordinates":[1933,2117]},{"type":"Point","properties":{"name:pt":"Guadalupe","name:ka":"\u10d2\u10d5\u10d0\u10d3\u10d4\u10da\u10e3\u10de\u10d4","name:ko":"\uacfc\ub4e4\ub8e8\ud504","name:kn":"\u0c97\u0cc1\u0ca1\u0cc6\u0cb2\u0ccb\u0caa\u0ccd","name:km":"\u17a0\u17d2\u1782\u17c4\u178a\u17ba\u17a1\u17bb\u1794","name:ki":"Gwadelupe","name:th":"\u0e01\u0e27\u0e32\u0e40\u0e14\u0e2d\u0e25\u0e39\u0e1b","name:ti":"\u1309\u12cb\u12f0\u1209\u1355","name:ks":"\u06af\u064e\u0648\u0627\u0691\u06cc\u0644\u0648\u067e","name:to":"Kuatalupe","name:or":"\u0b17\u0b4c\u0b21\u0b47\u0b32\u0b4c\u0b2a\u0b47","name:pl":"Gwadelupa","name:ta":"\u0b95\u0bcd\u0bb5\u0bbe\u0ba4\u0bc7\u0bb2\u0bcb\u0baa\u0bcd","name:ca":"Guadalupe","name:te":"\u0c17\u0c4d\u0c35\u0c3e\u0c21\u0c47\u0c32\u0c4b\u0c2a\u0c4d","name:bg":"\u0413\u0432\u0430\u0434\u0435\u043b\u0443\u043f\u0430","name:ro":"Guadelupa","source":"openstreetmap.org","name:ln":"Gwad\u025blup\u025b","name:dz":"\u0f42\u0f7c\u0f0b\u0f4c\u0f7a\u0f0b\u0f63\u0f74\u0f0b\u0f54\u0f7a","name:tr":"Guadalupe","name:ak":"Guwadelup","name:lv":"Gvadelupa","name:lt":"Gvadelupa","name:hi":"\u0917\u094d\u0935\u093e\u0921\u0947\u0932\u094b\u092a","name:he":"\u05d2\u05d5\u05d5\u05d0\u05d3\u05dc\u05d5\u05e4","kind":"region","name:ur":"\u06af\u0648\u0627\u0688\u06cc\u0644\u0648\u067e","name:la":"Guadalupa","name:lg":"Gwadalupe","name:uk":"\u0413\u0432\u0430\u0434\u0435\u043b\u0443\u043f\u0430","min_zoom":4.0,"name:hr":"Gvadalupa","name:lo":"\u0e81\u0ea7\u0e94\u0ec0\u0e94\u0ea5\u0eb9\u0e9a","population":404635,"name:el":"\u0393\u03bf\u03c5\u03b1\u03b4\u03b5\u03bb\u03bf\u03cd\u03c0\u03b7","name:eo":"Gvadelupo","name":"Guadeloupe","name:ee":"Guadelupe nutome","name:is":"Gvadel\u00fapeyjar","name:eu":"Guadalupe","name:es":"Guadalupe","name:mt":"Gwadelupe","name:rn":"Gwadelupe","name:az":"Qvadelupa","name:mr":"\u0917\u094d\u0935\u093e\u0921\u0947\u0932\u094b\u0909\u092a\u0947","name:ar":"\u063a\u0648\u0627\u062f\u0644\u0648\u0628","official_name":"R\u00e9gion de la Guadeloupe","name:mg":"Goadelopy","name:am":"\u1309\u12cb\u12f0\u1209\u1355","name:it":"Guadalupa","name:ru":"\u0413\u0432\u0430\u0434\u0435\u043b\u0443\u043f\u0430","name:ml":"\u0d17\u0d41\u0d35\u0d3e\u0d21\u0d46\u0d32\u0d4b\u0d2a\u0d4d","name:mn":"\u0413\u0443\u0430\u0434\u0435\u043b\u0443\u043f\u0435","id":433483535,"name:mk":"\u0413\u0432\u0430\u0434\u0430\u043b\u0443\u043f\u0435","name:zu":"i-Guadeloupe","name:ff":"Gwaadalup","kind_detail":"state","name:fy":"Guadel\u00fbp","name:zh":"\u74dc\u5fb7\u7f57\u666e","name:sl":"Gvadalupa","name:ja":"\u30b0\u30a2\u30c9\u30eb\u30fc\u30d7","name:si":"\u0d9c\u0dca\u0dc0\u0ddd\u0da9\u0dbd\u0ddd\u0db4\u0dca","name:fa":"\u06af\u0648\u0627\u062f\u0644\u0648\u067e","name:sg":"Guadel\u00fbpu","name:ne":"\u0917\u094d\u0935\u093e\u0921\u0947\u0932\u0941\u092a","name:br":"Gwadeloup","name:bs":"Gvadelupe","name:bm":"Gwadelup","name:bn":"\u0997\u09c1\u09af\u09bc\u09be\u09a6\u09c7\u09b2\u09cc\u09aa","name:sw":"Gwadelupe","name:be":"\u0413\u0432\u0430\u0434\u044d\u043b\u0443\u043f\u0430","name:ha":"Gwadaluf","name:sr":"\u0413\u0432\u0430\u0434\u0430\u043b\u0443\u043f\u0430","name:ga":"Guadal\u00faip","name:gd":"Guadalup","name:gl":"Guadalupe","name:yo":"Or\u00edl\u1eb9\u0301\u00e8de Gadelope","name:gu":"\u0a97\u0acd\u0ab5\u0abe\u0aa1\u0ac7\u0ab2\u0acb\u0aaa"},"coordinates":[2161,1929]},{"type":"Point","properties":{"name:pt":"Martinica","name:ka":"\u10db\u10d0\u10e0\u10e2\u10d8\u10dc\u10d8\u10d9\u10d8","name:ko":"\ub9d0\ud2f0\ub2c8\ud06c","name:kn":"\u0cae\u0cbe\u0cb0\u0ccd\u0c9f\u0cbf\u0ca8\u0cbf\u0c95\u0ccd","name:km":"\u1798\u17c9\u17b6\u1791\u17b8\u1793\u17b8\u1780","name:cs":"Martinik","name:ki":"Martiniki","min_zoom":4.0,"name:ti":"\u121b\u122d\u1272\u1292\u12ad","name:ks":"\u0645\u0627\u0631\u0679\u0650\u0646\u0650\u06a9","name:to":"Mateniki","name:or":"\u0b2e\u0b3e\u0b30\u0b4d\u0b1f\u0b3f\u0b28\u0b3f\u0b15\u0b4d\u0b5f\u0b41","name:pl":"Martynika","name:ta":"\u0bae\u0bbe\u0bb0\u0bcd\u0b9f\u0bbf\u0ba9\u0bbf\u0b95\u0bcd","name:ca":"Martinica","name:te":"\u0c2e\u0c3e\u0c30\u0c4d\u0c1f\u0c3f\u0c28\u0c3f\u0c15\u0c4d","name:bg":"\u041c\u0430\u0440\u0442\u0438\u043d\u0438\u043a\u0430","name:ro":"Martinica","source":"openstreetmap.org","name:ln":"Martiniki","name:dz":"\u0f58\u0f71\u0f62\u0f0b\u0f4a\u0f72\u0f0b\u0f53\u0f72\u0f40","name:tr":"Martinik","name:ak":"Matinik","name:lv":"Martinika","name:lt":"Martinika","name:hi":"\u092e\u093e\u0930\u094d\u091f\u0940\u0928\u093f\u0915","name:he":"\u05de\u05e8\u05d8\u05d9\u05e0\u05d9\u05e7","kind":"region","name:ur":"\u0645\u0627\u0631\u0679\u06cc\u0646\u06a9","name:la":"Martinica","name:lg":"Maritiniiki","name:uk":"\u041c\u0430\u0440\u0442\u0438\u043d\u0456\u043a\u0430","name:hr":"Martinik","name:lo":"\u0ea1\u0eb2\u0e95\u0eb4\u0e99\u0eb4\u0e81","name:oc":"Martinica","population":392291,"name:el":"\u039c\u03b1\u03c1\u03c4\u03b9\u03bd\u03af\u03ba\u03b1","name:eo":"Martiniko","name":"Martinique","name:ee":"Martiniki nutome","name:th":"\u0e21\u0e32\u0e23\u0e4c\u0e15\u0e34\u0e19\u0e35\u0e01","name:eu":"Martinika","name:es":"Martinica","name:mt":"Martinik","name:rn":"Maritiniki","name:az":"Martiniqu","name:id":"Martinik","name:mr":"\u092e\u093e\u0930\u094d\u091f\u093f\u0928\u093f\u0915","name:ar":"\u0645\u0627\u0631\u062a\u064a\u0646\u064a\u0643","official_name":"R\u00e9gion de la Martinique","name:mg":"Martinika","name:am":"\u121b\u122d\u1272\u1292\u12ad","name:it":"Martinica","name:ru":"\u041c\u0430\u0440\u0442\u0438\u043d\u0438\u043a\u0430","name:ml":"\u0d2e\u0d3e\u0d7c\u0d1f\u0d4d\u0d1f\u0d40\u0d28\u0d3f\u0d15\u0d4d","name:mn":"\u041c\u0430\u0440\u0442\u0438\u043d\u0438\u043a","id":1251670424,"name:mk":"\u041c\u0430\u0440\u0442\u0438\u043d\u0438\u043a","name:zu":"i-Martinique","name:ff":"Martinik","kind_detail":"state","name:fy":"Martinyk","name:zh":"\u99ac\u63d0\u5c3c\u514b","name:sl":"Martinik","name:sk":"Martinik","name:ja":"\u30de\u30eb\u30c6\u30a3\u30cb\u30fc\u30af","name:si":"\u0db8\u0dbb\u0dca\u0da7\u0dd2\u0db1\u0dd2\u0d9a\u0dca","name:fa":"\u0645\u0627\u0631\u062a\u06cc\u0646\u06cc\u06a9","name:sg":"M\u00e4rt\u00efn\u00eeki","name:ne":"\u092e\u093e\u0930\u094d\u091f\u093f\u0928\u093f\u0915","name:br":"Martinik","name:bs":"Martinik","name:bm":"Maritiniki","name:bn":"\u09ae\u09be\u09b0\u09cd\u099f\u09bf\u09a8\u09bf\u0995","name:sw":"Martiniki","name:be":"\u041c\u0430\u0440\u0446\u0456\u043d\u0456\u043a\u0430","name:ha":"Martinik","name:sr":"\u041c\u0430\u0440\u0442\u0438\u043d\u0438\u043a","name:ga":"Martain\u00edc","name:gd":"Mairtinic","name:gl":"Martinica","name:yo":"Or\u00edl\u1eb9\u0301\u00e8de Matinikuwi","name:gu":"\u0aae\u0abe\u0ab0\u0acd\u0a9f\u0ac0\u0aa8\u0ac0\u0a95"},"coordinates":[2380,1306]},{"type":"Point","properties":{"name:el":"\u0386\u03b3\u03b9\u03bf\u03c2 \u039c\u03b1\u03c1\u03c4\u03af\u03bd\u03bf\u03c2 (\u0393\u03b1\u03bb\u03bb\u03af\u03b1)","kind":"region","int_name":"Saint Martin (French part)","name:sk":"Sv\u00e4t\u00fd Martin","name":"Saint-Martin","kind_detail":"state","source":"openstreetmap.org","min_zoom":4.0,"name:nl":"Sint Maarten (Frankrijk)","id":271047515,"population":36286},"coordinates":[1621,2627]},{"type":"Point","properties":{"kind":"region","name:en":"Federal Dependencies","name":"Dependencias Federales","name:lt":"Venesuelos federalin\u0117s valdos","kind_detail":"state","name:eo":"Venezuelaj Federaciaj Dependa\u0135oj","official_name":"Dependencias Federales de Ultramar","source":"openstreetmap.org","min_zoom":4.0,"name:uk":"\u0424\u0435\u0434\u0435\u0440\u0430\u043b\u044c\u043d\u0456 \u0432\u043e\u043b\u043e\u0434\u0456\u043d\u043d\u044f \u0412\u0435\u043d\u0435\u0441\u0443\u0435\u043b\u0438","name:ru":"\u0424\u0435\u0434\u0435\u0440\u0430\u043b\u044c\u043d\u043e\u0435 \u0432\u043b\u0430\u0434\u0435\u043d\u0438\u0435","name:pl":"Dependencje Federalne","id":313467043,"population":3245},"coordinates":[823,587]},{"type":"Point","properties":{"name:pt":"Ilhas Virgens dos Estados Unidos","name:ro":"Insulele Virgine Americane","name:nl":"Amerikaanse Maagdeneilanden","name:nn":"Dei amerikanske Jomfru\u00f8yane","name:tr":"ABD Virjin Adalar\u0131","name:sr":"\u0410\u043c\u0435\u0440\u0438\u0447\u043a\u0430 \u0414\u0435\u0432\u0438\u0447\u0430\u043d\u0441\u043a\u0430 \u041e\u0441\u0442\u0440\u0432\u0430","name:sv":"Amerikanska Jungfru\u00f6arna","name:cs":"Americk\u00e9 Panensk\u00e9 ostrovy","official_name":"Virgin Islands of the United States","min_zoom":4.0,"name:la":"Virgines Insulae Americanae","name:sk":"Americk\u00e9 Panensk\u00e9 ostrovy","name:it":"Isole Vergini americane","name:vi":"Qu\u1ea7n \u0111\u1ea3o Virgin thu\u1ed9c M\u1ef9","name:ru":"\u0410\u043c\u0435\u0440\u0438\u043a\u0430\u043d\u0441\u043a\u0438\u0435 \u0412\u0438\u0440\u0433\u0438\u043d\u0441\u043a\u0438\u0435 \u043e\u0441\u0442\u0440\u043e\u0432\u0430","name:hu":"Amerikai Virgin-szigetek","id":356559371,"kind":"region","name":"United States Virgin Islands","name:fi":"Yhdysvaltain Neitsytsaaret","name:da":"Amerikanske Jomfru\u00f8er","name:de":"Amerikanische Jungferninseln","source":"openstreetmap.org","name:fr":"\u00celes Vierges des \u00c9tats-Unis","name:es":"Islas V\u00edrgenes de los Estados Unidos","kind_detail":"state","name:et":"USA Neitsisaared","name:be":"\u0410\u043c\u0435\u0440\u044b\u043a\u0430\u043d\u0441\u043a\u0456\u044f \u0412\u0456\u0440\u0433\u0456\u043d\u0441\u043a\u0456\u044f \u0430\u0441\u0442\u0440\u0430\u0432\u044b","name:zh":"\u7f8e\u5c6c\u7dad\u723e\u4eac\u7fa4\u5cf6","name:yo":"\u00c0w\u1ecdn Er\u00e9k\u00f9\u1e63\u00f9 W\u00fand\u00ed\u00e1 ti Am\u1eb9\u0301r\u00edk\u00e0"},"coordinates":[1017,2515]},{"type":"Point","properties":{"source":"openstreetmap.org","kind":"region","name":"Saba","kind_detail":"state","min_zoom":4.0,"id":2832371635},"coordinates":[1549,2458]},{"type":"Point","properties":{"source":"naturalearthdata.com","kind":"locality","name":"San Juan","population":2478905,"region_capital":true,"min_zoom":5.0,"id":7090},"coordinates":[499,2763]},{"type":"Point","properties":{"source":"naturalearthdata.com","kind":"locality","name":"Bridgetown","country_capital":true,"population":191152,"min_zoom":5.0,"id":6716},"coordinates":[2870,732]},{"type":"Point","properties":{"source":"naturalearthdata.com","kind":"locality","name":"Kingstown","country_capital":true,"population":49485,"min_zoom":5.0,"id":6757},"coordinates":[2289,750]},{"type":"Point","properties":{"source":"naturalearthdata.com","kind":"locality","name":"Castries","country_capital":true,"population":37963,"min_zoom":5.0,"id":6758},"coordinates":[2367,1074]},{"type":"Point","properties":{"source":"naturalearthdata.com","kind":"locality","name":"Saint John's","country_capital":true,"population":35499,"min_zoom":5.0,"id":6768},"coordinates":[2057,2260]},{"type":"Point","properties":{"source":"naturalearthdata.com","kind":"locality","name":"Saint George's","country_capital":true,"population":33734,"min_zoom":5.0,"id":6764},"coordinates":[2097,333]},{"type":"Point","properties":{"source":"naturalearthdata.com","kind":"locality","name":"Roseau","country_capital":true,"population":23336,"min_zoom":5.0,"id":6497},"coordinates":[2226,1569]},{"type":"Point","properties":{"source":"naturalearthdata.com","kind":"locality","name":"Basseterre","country_capital":true,"population":21887,"min_zoom":5.0,"id":6759},"coordinates":[1741,2330]}]},"transit":{"type":"GeometryCollection","geometries":[]},"pois":{"type":"GeometryCollection","geometries":[]},"boundaries":{"type":"GeometryCollection","geometries":[{"type":"LineString","properties":{"source":"naturalearthdata.com","kind":"country","sort_rank":262,"kind_detail":"2","min_zoom":0.0,"id":49},"arcs":[0]}]},"roads":{"type":"GeometryCollection","geometries":[{"type":"LineString","properties":{"source":"naturalearthdata.com","kind":"highway","sort_rank":355,"kind_detail":"trunk","min_zoom":4.0,"id":2802},"arcs":[106]},{"type":"LineString","properties":{"source":"naturalearthdata.com","kind":"major_road","kind_detail":"primary","sort_rank":380,"landuse_kind":"urban_area","min_zoom":4.0,"id":2804},"arcs":[107]},{"type":"LineString","properties":{"source":"naturalearthdata.com","kind":"major_road","sort_rank":380,"kind_detail":"primary","min_zoom":4.0,"id":2804},"arcs":[108]},{"type":"LineString","properties":{"source":"naturalearthdata.com","kind":"highway","kind_detail":"motorway","sort_rank":383,"landuse_kind":"urban_area","min_zoom":4.0,"id":2809},"arcs":[109]},{"type":"LineString","properties":{"source":"naturalearthdata.com","kind":"highway","sort_rank":383,"kind_detail":"motorway","min_zoom":4.0,"id":2809},"arcs":[110]},{"type":"LineString","properties":{"source":"naturalearthdata.com","kind":"highway","kind_detail":"motorway","sort_rank":383,"landuse_kind":"urban_area","min_zoom":4.0,"id":2811},"arcs":[111]},{"type":"LineString","properties":{"source":"naturalearthdata.com","kind":"highway","sort_rank":383,"kind_detail":"motorway","min_zoom":4.0,"id":2811},"arcs":[112]},{"type":"LineString","properties":{"source":"naturalearthdata.com","kind":"highway","sort_rank":383,"kind_detail":"motorway","min_zoom":4.0,"id":2813},"arcs":[113]},{"type":"LineString","properties":{"source":"naturalearthdata.com","kind":"highway","sort_rank":383,"kind_detail":"motorway","min_zoom":4.0,"id":2815},"arcs":[114]},{"type":"LineString","properties":{"source":"naturalearthdata.com","kind":"highway","sort_rank":383,"kind_detail":"motorway","min_zoom":4.0,"id":2816},"arcs":[115]},{"type":"LineString","properties":{"source":"naturalearthdata.com","kind":"highway","sort_rank":383,"kind_detail":"motorway","min_zoom":4.0,"id":2825},"arcs":[116]},{"type":"LineString","properties":{"source":"naturalearthdata.com","kind":"major_road","sort_rank":380,"kind_detail":"primary","min_zoom":4.0,"id":2831},"arcs":[117]},{"type":"LineString","properties":{"source":"naturalearthdata.com","kind":"highway","sort_rank":355,"kind_detail":"trunk","min_zoom":4.0,"id":2834},"arcs":[118]},{"type":"LineString","properties":{"source":"naturalearthdata.com","kind":"highway","sort_rank":355,"kind_detail":"trunk","min_zoom":4.0,"id":3969},"arcs":[119]},{"type":"LineString","properties":{"source":"naturalearthdata.com","kind":"highway","sort_rank":383,"kind_detail":"motorway","min_zoom":4.0,"id":3972},"arcs":[120]}]},"earth":{"type":"GeometryCollection","geometries":[{"type":"MultiPolygon","properties":{"sort_rank":10,"source":"naturalearthdata.com","min_zoom":0.0,"kind":"earth","area":1668572162659},"arcs":[[[121]],[[122]],[[123]],[[124]],[[125]],[[126]],[[127]],[[128]],[[129]],[[130]],[[131]],[[132]],[[133]],[[134]],[[135]],[[136]],[[137]],[[138]],[[139]],[[140]],[[141]],[[142]],[[143]],[[144]],[[145]],[[146]],[[147]],[[148]],[[149]],[[150]],[[151]],[[152]],[[153]]]}]},"landuse":{"type":"GeometryCollection","geometries":[{"type":"MultiPolygon","properties":{"source":"naturalearthdata.com","kind":"urban_area","name":"","area":2003622614,"sort_rank":11,"min_zoom":4.0},"arcs":[[[154]]]},{"type":"Polygon","properties":{"kind":"park","name":"Parque Nacional Archipi\u00e9lago Los Roques","area":1899229952,"sort_rank":24,"source":"openstreetmap.org","min_zoom":4.0,"tier":2,"id":208080076},"arcs":[[155]]},{"type":"Polygon","properties":{"kind":"park","name":"Saba Bank National Park","area":2594690048,"sort_rank":24,"source":"openstreetmap.org","min_zoom":4.0,"tier":2,"id":-3682043,"osm_relation":true},"arcs":[[156]]},{"type":"Polygon","properties":{"kind":"protected_area","name":"Aire d'adh\u00e9sion du Parc national de Guadeloupe","area":2446550016,"sort_rank":17,"source":"openstreetmap.org","min_zoom":4.0,"tier":2,"id":-1106908,"osm_relation":true},"arcs":[[157],[158],[159],[160],[161],[162]]}]}},"type":"Topology","transform":{"translate":[-67.5,11.1784018737],"scale":[0.002746582,0.0026280868]},"arcs":[[[1632,2608],[-25,10],[-8,1]],[[0,0],[0,4096],[4096,0],[0,-4096],[-1634,0],[21,11],[3,0],[4,-1],[5,0],[4,2],[3,3],[8,5],[1,0],[6,8],[1,1],[3,0],[4,-1],[3,1],[2,6],[3,0],[4,-1],[2,8],[2,11],[-1,10],[-2,3],[-4,-3],[-7,-9],[-3,0],[-6,4],[-4,-1],[-5,-3],[-10,-2],[-12,-5],[-4,-2],[-4,-3],[-7,-7],[-31,-20],[-3,-5],[-2,-5],[-5,-2],[-5,-1],[-3,-2],[-1105,0],[-1,0],[-1317,0]],[[1173,2862],[3,0],[-5,13],[-13,5],[-32,-1],[3,-5],[7,-2],[16,-1],[21,-9]],[[83,2733],[3,-7],[4,-5],[6,-11],[6,-2],[8,-1],[4,-8],[6,-18],[4,-4],[3,-4],[-2,-4],[-3,-3],[-3,-3],[-4,-14],[0,-12],[-4,-4],[2,-7],[1,-4],[-3,-2],[-3,-4],[0,-7],[5,-2],[5,1],[3,-2],[2,-2],[-2,-3],[-2,-1],[-4,-1],[-2,-2],[-9,-4],[0,-10],[2,-4],[5,-8],[4,0],[-3,9],[4,3],[8,-5],[13,-1],[4,-1],[6,2],[6,3],[5,4],[5,-1],[9,0],[8,-2],[7,0],[8,-9],[6,-4],[6,0],[1,3],[0,3],[2,1],[2,1],[4,-1],[5,1],[11,-1],[8,2],[8,2],[8,4],[4,6],[-5,0],[0,3],[4,2],[5,1],[4,-1],[-1,-5],[15,0],[11,-5],[3,0],[15,2],[6,-1],[2,-4],[3,1],[3,2],[5,-3],[5,1],[3,2],[4,2],[12,1],[6,1],[3,2],[6,0],[6,2],[7,-4],[5,-7],[7,-6],[8,0],[10,7],[9,2],[6,0],[3,-1],[4,-2],[2,-2],[2,-3],[2,-2],[3,-1],[10,-1],[5,-1],[4,1],[8,6],[3,-2],[1,-3],[-1,-1],[-3,-1],[0,-2],[0,-1],[2,-3],[3,2],[3,0],[4,0],[5,1],[21,11],[8,2],[11,0],[2,0],[11,4],[4,1],[8,-1],[8,-1],[8,-1],[19,7],[14,8],[7,7],[-4,11],[2,2],[9,2],[1,1],[5,7],[1,10],[13,20],[7,6],[6,3],[7,2],[7,3],[6,2],[6,-3],[4,-1],[4,3],[-4,5],[2,4],[4,0],[3,-6],[3,1],[1,3],[4,3],[-5,5],[-1,3],[1,4],[-5,-3],[-3,2],[-2,2],[1,5],[-1,4],[1,16],[3,19],[0,3],[-3,0],[-3,-2],[-3,-2],[-6,-5],[-13,2],[-10,8],[-5,-4],[-6,3],[-6,9],[-2,-1],[-4,-2],[-3,0],[2,3],[2,2],[-1,2],[-2,1],[-3,-4],[-4,-2],[-6,7],[-7,3],[-11,3],[-5,3],[-4,1],[-6,-4],[-17,5],[-8,2],[-3,-5],[-5,-2],[-6,1],[-4,1],[-6,1],[-24,8],[4,-5],[6,-5],[6,-3],[6,-1],[0,-3],[-12,-4],[-5,1],[-3,4],[-1,4],[-7,4],[1,5],[-3,1],[-3,-4],[-4,-2],[-3,2],[-1,2],[-3,3],[-4,1],[-5,-3],[-19,6],[-16,-5],[-29,9],[-31,-6],[-14,4],[-24,0],[-6,-1],[-10,3],[-9,2],[-21,-2],[-14,-4],[-6,1],[-13,5],[-5,0],[-38,-5],[-38,8],[-14,6],[-19,1],[-18,-6],[-7,-8],[1,-10],[3,-7],[0,-8],[-9,-7],[-5,-4],[-7,-2],[-8,-4],[-11,-3],[-1,-3]],[[1156,2790],[-8,-1],[-20,-1],[-1,1],[-1,1],[-1,0],[-2,0],[1,-7],[-2,-6],[-9,-13],[5,1],[8,4],[7,6],[3,4],[3,0],[7,2],[7,4],[3,5]],[[1082,2767],[-12,1],[-11,-2],[-4,1],[-9,-1],[-5,1],[-8,-4],[-1,-6],[-3,-4],[-3,-5],[-7,-1],[-5,-4],[9,-1],[5,0],[6,-1],[6,5],[3,4],[2,0],[3,2],[3,3],[0,1],[4,1],[2,-1],[2,-1],[3,-1],[3,1],[3,3],[2,3],[5,2],[6,-2],[4,0],[1,2],[-4,4]],[[936,2740],[-8,3],[3,-3],[6,-5],[-3,-1],[-6,4],[-13,0],[-9,-2],[-11,-6],[6,-5],[12,3],[4,-5],[6,-1],[7,2],[4,-3],[1,4],[4,-7],[4,-2],[11,-5],[3,4],[4,2],[3,-1],[4,0],[-5,9],[-13,8],[-14,7]],[[983,2721],[5,-5],[18,1],[12,-6],[2,9],[-4,5],[3,1],[10,-3],[5,1],[-2,4],[-6,3],[-6,2],[-5,2],[-13,3],[-3,-2],[2,-3],[-7,-2],[-6,-2],[-5,-8]],[[1065,2726],[1,-3],[2,1],[-1,5],[0,3],[-3,1],[-2,-1],[-1,0],[-3,0],[-3,-1],[1,-2],[5,-1],[4,-2]],[[819,2710],[-3,2],[4,0],[1,0],[-4,7],[-9,4],[-10,2],[-9,0],[-1,-1],[16,-14],[5,-8],[1,4],[0,3],[-4,6],[3,0],[1,-3],[2,-2],[3,0],[4,0]],[[1654,2706],[0,-3],[-1,-2],[1,-1],[4,2],[0,2],[5,1],[2,1],[-3,2],[-5,1],[-1,-2],[-2,-1]],[[1648,2701],[-4,0],[-8,-1],[-12,-2],[-6,-6],[-4,-6],[-7,-8],[-4,-2],[-9,-1],[-5,-2],[-2,-2],[-10,-11],[7,0],[5,2],[8,6],[2,-2],[2,-2],[1,-1],[23,14],[9,3],[4,2],[3,4],[7,12],[0,3]],[[770,2659],[-5,1],[-29,-5],[-3,-1],[-6,-5],[-6,-4],[-7,-2],[-8,-1],[-1,0],[-6,0],[5,-11],[11,-1],[11,1],[8,-2],[6,3],[28,6],[7,3],[5,1],[4,-3],[2,0],[2,2],[7,5],[2,1],[10,-1],[3,2],[-4,4],[-4,2],[-20,1],[-12,4]],[[1619,2640],[-6,-2],[-3,-3],[-2,-6],[-5,-3],[-6,-2],[-11,0],[-1,-2],[1,-2],[3,-2],[2,1],[5,2],[3,0],[0,-2],[0,-1],[-4,-3],[3,-3],[5,-3],[24,-6],[5,5],[2,3],[0,12],[-2,11],[0,8],[-5,0],[-8,-2]],[[1547,2700],[5,3],[-3,0],[-3,2],[-3,-2],[0,-2],[4,-1]],[[924,2713],[1,-1],[3,3],[1,2],[1,0],[2,1],[-1,2],[-2,1],[-1,-1],[-3,-3],[-1,-2],[0,-2]],[[1009,2767],[0,1],[-5,1],[-9,-2],[-2,-3],[5,0],[10,-2],[3,2],[-2,3]],[[1082,2783],[-2,1],[-1,-2],[-1,-3],[1,-4],[-1,-2],[1,-1],[2,1],[1,4],[0,2],[0,4]],[[1687,2569],[0,-4],[2,-5],[4,-6],[4,-3],[6,0],[5,4],[4,4],[2,4],[-24,4],[-3,2]],[[985,2515],[-8,-5],[-8,-4],[-14,4],[-3,-3],[-1,-4],[1,-16],[-1,-6],[-3,-6],[7,2],[75,11],[8,3],[15,7],[8,2],[10,1],[0,3],[-12,3],[-14,1],[-13,-3],[-9,-6],[-3,3],[-4,2],[-8,2],[-14,10],[-1,1],[-8,-2]],[[2056,2489],[-1,-7],[2,-4],[7,-4],[2,-9],[0,-9],[-2,-7],[-4,2],[0,4],[1,4],[0,6],[-2,4],[-6,7],[-2,4],[0,3],[-1,1],[-1,2],[-1,-8],[2,-6],[2,-6],[2,-7],[0,-15],[2,-6],[5,3],[16,-7],[7,-4],[2,-7],[6,2],[4,0],[2,1],[3,7],[1,6],[-1,6],[-2,12],[-3,6],[-4,7],[-5,6],[-6,4],[-5,1],[-7,-3],[-5,2],[2,1],[3,2],[-7,9],[-6,-3]],[[1645,2393],[8,-1],[4,3],[1,5],[-7,5],[-4,2],[-3,5],[-5,3],[1,-13],[5,-9]],[[1704,2373],[-1,-2],[-1,-1],[-5,-2],[-2,0],[-1,-1],[-1,0],[-1,-2],[-3,-12],[11,-12],[15,-10],[12,-5],[5,0],[11,0],[3,-1],[5,-5],[7,-5],[4,-14],[5,-3],[8,3],[0,6],[-4,6],[-5,3],[-6,3],[-4,7],[-7,16],[-9,10],[-36,21]],[[1555,2460],[-3,1],[-4,-2],[-1,-7],[5,-3],[3,1],[2,5],[-2,5]],[[1784,2292],[-7,-7],[-3,-16],[6,-14],[17,-2],[6,2],[2,2],[1,4],[1,4],[0,8],[-1,4],[-2,8],[-6,5],[-6,2],[-8,0]],[[2199,2029],[-1,1],[-1,-1],[-11,-6],[-4,-3],[-1,-3],[-6,-6],[-3,-5],[0,-4],[2,-4],[2,-13],[3,-1],[3,-1],[2,-2],[2,-1],[0,-3],[0,-3],[0,-4],[-1,-1],[-7,-2],[-4,-4],[-6,-20],[-1,-5],[0,-5],[1,-5],[4,-5],[5,-4],[6,-3],[7,-3],[8,-1],[7,1],[12,5],[64,15],[6,-2],[3,-1],[10,-2],[3,-1],[4,4],[-2,2],[-7,2],[-20,14],[-4,2],[-2,1],[-8,7],[-3,2],[-4,1],[-4,0],[-3,0],[-4,2],[-3,-3],[-5,3],[-5,3],[-4,4],[-3,6],[-3,6],[0,4],[0,10],[-1,10],[-4,7],[-7,7],[-12,8]],[[2352,1966],[-14,-13],[-5,-2],[9,-1],[10,4],[18,12],[-9,3],[-9,-3]],[[2278,1836],[-9,2],[-8,-4],[-7,-8],[-2,-4],[-1,-5],[-4,-5],[-1,-3],[1,-2],[1,-1],[1,-2],[1,-3],[1,-3],[5,-10],[10,-1],[13,3],[9,4],[4,4],[3,3],[1,3],[0,5],[-1,5],[-3,3],[-3,2],[-4,11],[-7,6]],[[2160,1789],[-2,1],[-3,-1],[-1,-4],[-2,-1],[-2,-2],[1,-1],[4,1],[4,3],[2,2],[-1,1],[0,1]],[[2140,1784],[-1,2],[-3,-2],[-2,-5],[4,-3],[3,2],[1,3],[-2,3]],[[2149,1833],[12,14],[3,20],[-3,21],[-5,14],[0,17],[2,4],[7,2],[2,0],[-3,8],[3,8],[-1,2],[-3,3],[-4,-1],[-4,-3],[-1,-4],[-4,4],[-1,1],[-2,-1],[-1,0],[-3,1],[6,3],[-7,7],[-12,7],[-14,5],[-9,1],[-3,2],[-3,3],[-3,3],[-7,-2],[-5,-5],[-6,-10],[-4,-4],[2,-5],[-2,-11],[0,-7],[2,-4],[3,-4],[2,-5],[-2,-5],[5,-14],[1,-30],[4,-13],[3,-3],[2,-3],[1,-5],[3,-4],[4,-4],[4,-2],[3,-3],[3,-5],[-3,-3],[2,-5],[1,-3],[18,8],[17,10]],[[1923,2097],[18,-5],[4,0],[3,2],[2,3],[1,3],[0,2],[-1,2],[-1,3],[-1,2],[-1,1],[2,5],[0,3],[-3,6],[-5,6],[-4,7],[2,7],[-3,0],[-2,1],[-5,1],[-6,-16],[-4,-19],[4,-14]],[[2099,2225],[0,3],[3,2],[6,-2],[5,-2],[4,0],[4,7],[1,4],[-2,2],[-3,2],[-3,4],[2,0],[5,1],[3,-1],[-2,5],[-1,2],[-2,1],[-3,0],[-5,-2],[-5,0],[-3,2],[-2,6],[3,0],[2,1],[1,2],[2,2],[-5,-1],[-3,1],[-3,2],[-2,3],[-3,-5],[-1,-2],[-1,-3],[-6,4],[-3,8],[-4,7],[-12,1],[-5,-3],[-3,-4],[-1,-4],[3,-6],[-8,-2],[-7,-3],[-4,-4],[8,-4],[2,-1],[-6,-3],[0,-3],[1,-4],[-1,-4],[-3,-5],[3,-4],[11,-7],[5,-1],[8,0],[5,1],[7,4],[3,0],[2,-3],[6,-5],[6,-3],[3,5],[-2,9]],[[2214,1609],[1,-7],[1,-3],[5,-11],[2,-7],[0,-10],[1,-4],[5,-6],[2,-4],[0,-1],[0,-12],[-1,-9],[0,-3],[4,-1],[5,1],[1,3],[1,0],[1,3],[5,2],[2,5],[2,2],[2,0],[3,-1],[4,1],[1,0],[2,0],[3,2],[7,14],[1,15],[0,3],[0,12],[2,14],[-2,0],[-1,2],[-2,0],[2,11],[0,14],[-4,13],[0,1],[-6,8],[-2,4],[-3,6],[-3,6],[0,3],[-19,7],[-4,-1],[-5,-3],[-5,3],[-6,9],[-4,3],[-5,2],[-4,0],[-7,0],[-4,-16],[-3,-4],[2,-1],[5,-1],[2,-1],[-2,-4],[-6,-4],[-1,-2],[0,-4],[1,-2],[2,-2],[2,-3],[0,-9],[1,-5],[2,-2],[2,-1],[2,-3],[2,-4],[1,-3],[1,-4],[8,-8],[1,-3]],[[2360,1386],[-14,7],[-17,10],[-12,4],[-13,0],[-14,-8],[-3,-3],[-3,-4],[-1,-6],[1,-5],[3,-5],[10,-11],[3,-4],[2,-4],[1,-4],[-1,-3],[-1,-3],[-1,-2],[2,-3],[1,-2],[2,-1],[0,-2],[1,-3],[2,-7],[7,-6],[13,-9],[1,-2],[3,-4],[1,-2],[2,0],[8,0],[4,0],[4,0],[4,1],[6,2],[0,-7],[3,-5],[3,-4],[1,-2],[-3,-6],[-5,-2],[-6,2],[-3,6],[-3,-3],[-10,-5],[-10,-11],[3,-2],[2,-1],[0,-2],[0,-2],[8,-12],[3,-2],[6,1],[9,4],[5,1],[22,-3],[10,2],[2,-1],[0,-4],[6,0],[5,4],[5,2],[4,-6],[0,-5],[-4,-2],[-4,-2],[-2,-4],[1,-5],[5,-2],[5,0],[4,2],[4,5],[4,11],[5,2],[0,3],[-3,5],[-1,6],[-2,5],[-5,2],[2,2],[0,1],[1,1],[2,1],[-3,4],[-1,5],[0,5],[2,5],[-5,-3],[0,3],[0,4],[-1,2],[-3,2],[-3,1],[-2,2],[0,2],[-1,2],[-8,5],[-2,3],[-3,5],[2,1],[2,1],[1,1],[3,0],[-12,5],[-4,-4],[-3,1],[0,3],[4,3],[-3,3],[10,5],[-2,2],[-2,2],[-3,0],[-3,-2],[0,9],[1,7],[2,2],[5,-7],[8,8],[-1,2],[1,2],[2,1],[3,2],[-9,0],[-9,-2],[-7,-4],[-5,-4],[-7,13],[-4,1],[-2,3],[-1,4],[-1,2],[-6,4]],[[2376,974],[7,-9],[2,0],[1,1],[2,2],[3,14],[2,4],[2,1],[4,1],[1,1],[1,3],[5,18],[-1,17],[4,29],[0,10],[-1,11],[-1,17],[-1,4],[-3,4],[-4,2],[-3,3],[2,7],[-7,2],[-5,-3],[-9,-13],[-2,-3],[-1,-7],[-1,-2],[-2,-2],[-3,-2],[-2,-2],[-9,-13],[-3,-9],[-9,-13],[-2,-5],[-1,-3],[-3,-7],[-1,-4],[0,-4],[1,-2],[1,-2],[1,-3],[0,-7],[0,-4],[-3,-6],[2,-3],[2,-2],[1,-2],[6,-8],[27,-11]],[[2294,837],[-5,-4],[-4,-8],[-3,-11],[-4,-9],[-10,-1],[2,-4],[1,-2],[-5,-10],[-1,-13],[3,-11],[22,-16],[9,-4],[7,5],[10,15],[5,23],[0,23],[-3,17],[-2,6],[-2,2],[-2,1],[-10,2],[-4,0],[-4,-1]],[[2860,754],[4,-17],[4,-8],[5,-4],[3,0],[5,0],[8,-2],[7,-4],[4,-6],[2,1],[2,1],[3,0],[2,0],[8,8],[5,3],[7,5],[9,10],[1,13],[-4,6],[-7,3],[-7,2],[-5,3],[-10,8],[-7,5],[-4,7],[-7,15],[-3,6],[-2,4],[-5,8],[-6,3],[-7,-2],[-5,-6],[-3,-5],[0,-6],[3,-51]],[[2279,695],[0,-3],[-8,-2],[-5,2],[0,-3],[4,0],[4,-1],[2,-2],[2,-2],[3,2],[-3,0],[6,5],[7,11],[5,5],[-2,1],[0,2],[0,1],[-1,2],[-4,-4],[-10,-7],[-3,-3],[1,-2],[2,-2]],[[2297,643],[0,-5],[1,0],[2,3],[3,7],[-3,1],[-3,-6]],[[2238,578],[3,-2],[4,1],[2,2],[1,3],[2,2],[2,3],[-1,3],[-1,2],[-2,0],[-4,-3],[0,-3],[1,-4],[-2,-2],[-4,-1],[-1,-1]],[[2201,500],[-5,-6],[-7,2],[-3,-4],[0,-1],[4,0],[1,0],[-1,-2],[-3,-6],[-1,-3],[6,3],[6,3],[6,2],[7,-2],[0,8],[1,7],[1,7],[-2,6],[-6,-5],[-4,-9]],[[2201,536],[4,-1],[4,1],[2,2],[-1,3],[-4,3],[-3,1],[-2,-1],[-1,-1],[1,-2],[0,-1],[-2,-2],[2,-2]],[[2151,432],[-1,-2],[-2,-3],[0,-1],[2,-1],[1,-2],[1,0],[2,4],[0,2],[1,2],[-2,2],[-2,-1]],[[2092,341],[2,-5],[1,-4],[-1,-6],[-3,-2],[-12,-8],[5,-2],[7,0],[6,1],[4,4],[3,-2],[3,-2],[3,-1],[4,0],[0,3],[2,3],[2,2],[3,2],[0,-3],[16,8],[2,4],[0,3],[0,3],[1,2],[2,1],[1,1],[-2,6],[0,3],[2,6],[2,3],[1,3],[1,18],[-1,6],[-3,6],[3,2],[0,2],[-8,5],[-8,1],[-8,-2],[-21,-26],[0,-7],[-8,-14],[-2,-9],[1,-5]],[[1049,270],[-6,-10],[-5,-4],[1,-3],[1,-1],[-1,-1],[-1,-3],[7,-3],[9,-2],[15,0],[4,3],[0,6],[-1,6],[-3,4],[-11,10],[-5,2],[-4,-4]],[[262,221],[2,1],[17,8],[-3,0],[-5,-2],[-22,-9],[-1,-1],[-2,0],[-5,-1],[-8,1],[1,-2],[9,0],[4,1],[3,1],[10,3]],[[316,235],[-7,-6],[-8,-2],[-11,3],[9,-6],[13,-2],[13,2],[7,6],[-2,0],[-5,0],[2,4],[0,5],[-2,4],[-3,3],[-6,-11]],[[505,250],[-3,-2],[5,0],[5,6],[1,5],[-1,3],[-4,3],[2,-5],[0,-6],[-2,-1],[-1,-1],[0,-1],[-2,-1]],[[272,260],[4,2],[2,-1],[9,1],[-2,1],[-6,0],[-30,1],[-1,0],[12,-1],[2,-1],[3,0],[7,-2]],[[507,246],[-9,0],[-11,0],[-6,-1],[-6,-2],[8,-8],[11,-5],[11,-1],[4,7],[0,8],[-2,2]],[[1596,82],[-2,0],[-3,-1],[-2,0],[-1,1],[0,-2],[10,-9],[2,-1],[0,1],[0,1],[-2,3],[-1,2],[0,3],[-1,2]],[[2306,749],[10,15],[5,23],[0,23],[-3,17],[-2,6],[-2,2],[-2,1],[-10,2],[-4,0],[-4,-1],[-5,-4],[-4,-8],[-3,-11],[-4,-9],[-10,-1],[2,-4],[1,-2],[-5,-10],[-1,-13],[3,-11],[22,-16],[9,-4],[7,5]],[[2166,1943],[-3,3],[-4,-1],[-4,-3],[-1,-4],[-4,4],[-1,1],[-2,-1],[-1,0],[-3,1],[6,3],[-7,7],[-12,7],[-14,5],[-9,1],[-3,2],[-3,3],[-3,3],[-7,-2],[-5,-5],[-6,-10],[-4,-4],[2,-5],[-2,-11],[0,-7],[2,-4],[3,-4],[2,-5],[-2,-5],[5,-14],[1,-30],[4,-13],[3,-3],[2,-3],[1,-5],[3,-4],[4,-4],[4,-2],[3,-3],[3,-5],[-3,-3],[2,-5],[1,-3],[18,8],[17,10],[12,14],[3,20],[-3,21],[-5,14],[0,17],[2,4],[7,2],[2,0],[-3,8],[3,8],[-1,2]],[[2168,1943],[-1,-5],[0,-5],[1,-5],[4,-5],[5,-4],[6,-3],[7,-3],[8,-1],[7,1],[12,5],[64,15],[6,-2],[3,-1],[10,-2],[3,-1],[4,4],[-2,2],[-7,2],[-20,14],[-4,2],[-2,1],[-8,7],[-3,2],[-4,1],[-4,0],[-3,0],[-4,2],[-3,-3],[-5,3],[-5,3],[-4,4],[-3,6],[-3,6],[0,4],[0,10],[-1,10],[-4,7],[-7,7],[-12,8],[-1,1],[-1,-1],[-11,-6],[-4,-3],[-1,-3],[-6,-6],[-3,-5],[0,-4],[2,-4],[2,-13],[3,-1],[3,-1],[2,-2],[2,-1],[0,-3],[0,-3],[0,-4],[-1,-1],[-7,-2],[-4,-4],[-6,-20]],[[2370,1966],[-9,3],[-9,-3],[-14,-13],[-5,-2],[9,-1],[10,4],[18,12]],[[2234,1531],[5,1],[1,3],[1,0],[1,3],[5,2],[2,5],[2,2],[2,0],[3,-1],[4,1],[1,0],[2,0],[3,2],[7,14],[1,15],[0,3],[0,12],[2,14],[-2,0],[-1,2],[-2,0],[2,11],[0,14],[-4,13],[0,1],[-6,8],[-2,4],[-3,6],[-3,6],[0,3],[-19,7],[-4,-1],[-5,-3],[-5,3],[-6,9],[-4,3],[-5,2],[-4,0],[-7,0],[-4,-16],[-3,-4],[2,-1],[5,-1],[2,-1],[-2,-4],[-6,-4],[-1,-2],[0,-4],[1,-2],[2,-2],[2,-3],[0,-9],[1,-5],[2,-2],[2,-1],[2,-3],[2,-4],[1,-3],[1,-4],[8,-8],[1,-3],[1,-7],[1,-3],[5,-11],[2,-7],[0,-10],[1,-4],[5,-6],[2,-4],[0,-1],[0,-12],[-1,-9],[0,-3],[4,-1]],[[2296,707],[-2,1],[0,2],[0,1],[-1,2],[-4,-4],[-10,-7],[-3,-3],[1,-2],[2,-2],[0,-3],[-8,-2],[-5,2],[0,-3],[4,0],[4,-1],[2,-2],[2,-2],[3,2],[-3,0],[6,5],[7,11],[5,5]],[[2045,2234],[-3,-5],[3,-4],[11,-7],[5,-1],[8,0],[5,1],[7,4],[3,0],[2,-3],[6,-5],[6,-3],[3,5],[-2,9],[0,3],[3,2],[6,-2],[5,-2],[4,0],[4,7],[1,4],[-2,2],[-3,2],[-3,4],[2,0],[5,1],[3,-1],[-2,5],[-1,2],[-2,1],[-3,0],[-5,-2],[-5,0],[-3,2],[-2,6],[3,0],[2,1],[1,2],[2,2],[-5,-1],[-3,1],[-3,2],[-2,3],[-3,-5],[-1,-2],[-1,-3],[-6,4],[-3,8],[-4,7],[-12,1],[-5,-3],[-3,-4],[-1,-4],[3,-6],[-8,-2],[-7,-3],[-4,-4],[8,-4],[2,-1],[-6,-3],[0,-3],[1,-4],[-1,-4]],[[2211,486],[0,8],[1,7],[1,7],[-2,6],[-6,-5],[-4,-9],[-5,-6],[-7,2],[-3,-4],[0,-1],[4,0],[1,0],[-1,-2],[-3,-6],[-1,-3],[6,3],[6,3],[6,2],[7,-2]],[[809,2702],[1,4],[0,3],[-4,6],[3,0],[1,-3],[2,-2],[3,0],[4,0],[-3,2],[4,0],[1,0],[-4,7],[-9,4],[-10,2],[-9,0],[-1,-1],[16,-14],[5,-8]],[[1019,2726],[10,-3],[5,1],[-2,4],[-6,3],[-6,2],[-5,2],[-13,3],[-3,-2],[2,-3],[-7,-2],[-6,-2],[-5,-8],[5,-5],[18,1],[12,-6],[2,9],[-4,5],[3,1]],[[2296,1809],[-1,5],[-3,3],[-3,2],[-4,11],[-7,6],[-9,2],[-8,-4],[-7,-8],[-2,-4],[-1,-5],[-4,-5],[-1,-3],[1,-2],[1,-1],[1,-2],[1,-3],[1,-3],[5,-10],[10,-1],[13,3],[9,4],[4,4],[3,3],[1,3],[0,5]],[[2061,2441],[16,-7],[7,-4],[2,-7],[6,2],[4,0],[2,1],[3,7],[1,6],[-1,6],[-2,12],[-3,6],[-4,7],[-5,6],[-6,4],[-5,1],[-7,-3],[-5,2],[2,1],[3,2],[-7,9],[-6,-3],[-1,-7],[2,-4],[7,-4],[2,-9],[0,-9],[-2,-7],[-4,2],[0,4],[1,4],[0,6],[-2,4],[-6,7],[-2,4],[0,3],[-1,1],[-1,2],[-1,-8],[2,-6],[2,-6],[2,-7],[0,-15],[2,-6],[5,3]],[[2143,394],[3,2],[0,2],[-8,5],[-8,1],[-8,-2],[-21,-26],[0,-7],[-8,-14],[-2,-9],[1,-5],[2,-5],[1,-4],[-1,-6],[-3,-2],[-12,-8],[5,-2],[7,0],[6,1],[4,4],[3,-2],[3,-2],[3,-1],[4,0],[0,3],[2,3],[2,2],[3,2],[0,-3],[16,8],[2,4],[0,3],[0,3],[1,2],[2,1],[1,1],[-2,6],[0,3],[2,6],[2,3],[1,3],[1,18],[-1,6],[-3,6]],[[1071,2501],[0,3],[-12,3],[-14,1],[-13,-3],[-9,-6],[-3,3],[-4,2],[-8,2],[-14,10],[-1,1],[-8,-2],[-8,-5],[-8,-4],[-14,4],[-3,-3],[-1,-4],[1,-16],[-1,-6],[-3,-6],[7,2],[75,11],[8,3],[15,7],[8,2],[10,1]],[[957,2715],[4,2],[3,-1],[4,0],[-5,9],[-13,8],[-14,7],[-8,3],[3,-3],[6,-5],[-3,-1],[-6,4],[-13,0],[-9,-2],[-11,-6],[6,-5],[12,3],[4,-5],[6,-1],[7,2],[4,-3],[1,4],[4,-7],[4,-2],[11,-5],[3,4]],[[784,2639],[2,0],[2,2],[7,5],[2,1],[10,-1],[3,2],[-4,4],[-4,2],[-20,1],[-12,4],[-5,1],[-29,-5],[-3,-1],[-6,-5],[-6,-4],[-7,-2],[-8,-1],[-1,0],[-6,0],[5,-11],[11,-1],[11,1],[8,-2],[6,3],[28,6],[7,3],[5,1],[4,-3]],[[498,246],[-11,0],[-6,-1],[-6,-2],[8,-8],[11,-5],[11,-1],[4,7],[0,8],[-2,2],[-9,0]],[[1636,2700],[-12,-2],[-6,-6],[-4,-6],[-7,-8],[-4,-2],[-9,-1],[-5,-2],[-2,-2],[-10,-11],[7,0],[5,2],[8,6],[2,-2],[2,-2],[1,-1],[23,14],[9,3],[4,2],[3,4],[7,12],[0,3],[-4,0],[-8,-1]],[[681,2702],[-1,4],[1,16],[3,19],[0,3],[-3,0],[-3,-2],[-3,-2],[-6,-5],[-13,2],[-10,8],[-5,-4],[-6,3],[-6,9],[-2,-1],[-4,-2],[-3,0],[2,3],[2,2],[-1,2],[-2,1],[-3,-4],[-4,-2],[-6,7],[-7,3],[-11,3],[-5,3],[-4,1],[-6,-4],[-17,5],[-8,2],[-3,-5],[-5,-2],[-6,1],[-4,1],[-6,1],[-24,8],[4,-5],[6,-5],[6,-3],[6,-1],[0,-3],[-12,-4],[-5,1],[-3,4],[-1,4],[-7,4],[1,5],[-3,1],[-3,-4],[-4,-2],[-3,2],[-1,2],[-3,3],[-4,1],[-5,-3],[-19,6],[-16,-5],[-29,9],[-31,-6],[-14,4],[-24,0],[-6,-1],[-10,3],[-9,2],[-21,-2],[-14,-4],[-6,1],[-13,5],[-5,0],[-38,-5],[-38,8],[-14,6],[-19,1],[-18,-6],[-7,-8],[1,-10],[3,-7],[0,-8],[-9,-7],[-5,-4],[-7,-2],[-8,-4],[-11,-3],[-1,-3],[3,-7],[4,-5],[6,-11],[6,-2],[8,-1],[4,-8],[6,-18],[4,-4],[3,-4],[-2,-4],[-3,-3],[-3,-3],[-4,-14],[0,-12],[-4,-4],[2,-7],[1,-4],[-3,-2],[-3,-4],[0,-7],[5,-2],[5,1],[3,-2],[2,-2],[-2,-3],[-2,-1],[-4,-1],[-2,-2],[-9,-4],[0,-10],[2,-4],[5,-8],[4,0],[-3,9],[4,3],[8,-5],[13,-1],[4,-1],[6,2],[6,3],[5,4],[5,-1],[9,0],[8,-2],[7,0],[8,-9],[6,-4],[6,0],[1,3],[0,3],[2,1],[2,1],[4,-1],[5,1],[11,-1],[8,2],[8,2],[8,4],[4,6],[-5,0],[0,3],[4,2],[5,1],[4,-1],[-1,-5],[15,0],[11,-5],[3,0],[15,2],[6,-1],[2,-4],[3,1],[3,2],[5,-3],[5,1],[3,2],[4,2],[12,1],[6,1],[3,2],[6,0],[6,2],[7,-4],[5,-7],[7,-6],[8,0],[10,7],[9,2],[6,0],[3,-1],[4,-2],[2,-2],[2,-3],[2,-2],[3,-1],[10,-1],[5,-1],[4,1],[8,6],[3,-2],[1,-3],[-1,-1],[-3,-1],[0,-2],[0,-1],[2,-3],[3,2],[3,0],[4,0],[5,1],[21,11],[8,2],[11,0],[2,0],[11,4],[4,1],[8,-1],[8,-1],[8,-1],[19,7],[14,8],[7,7],[-4,11],[2,2],[9,2],[1,1],[5,7],[1,10],[13,20],[7,6],[6,3],[7,2],[7,3],[6,2],[6,-3],[4,-1],[4,3],[-4,5],[2,4],[4,0],[3,-6],[3,1],[1,3],[4,3],[-5,5],[-1,3],[1,4],[-5,-3],[-3,2],[-2,2],[1,5]],[[1318,0],[-1,0]],[[1632,2642],[-5,0],[-8,-2],[-6,-2],[-3,-3],[-2,-6],[-5,-3],[-6,-2],[-11,0],[-1,-2],[1,-2],[3,-2],[2,1],[5,2],[3,0],[0,-2],[0,-1],[-4,-3],[3,-3],[5,-3],[24,-6],[5,5],[2,3],[0,12],[-2,11],[0,8]],[[2939,754],[-4,6],[-7,3],[-7,2],[-5,3],[-10,8],[-7,5],[-4,7],[-7,15],[-3,6],[-2,4],[-5,8],[-6,3],[-7,-2],[-5,-6],[-3,-5],[0,-6],[3,-51],[4,-17],[4,-8],[5,-4],[3,0],[5,0],[8,-2],[7,-4],[4,-6],[2,1],[2,1],[3,0],[2,0],[8,8],[5,3],[7,5],[9,10],[1,13]],[[1053,274],[-4,-4],[-6,-10],[-5,-4],[1,-3],[1,-1],[-1,-1],[-1,-3],[7,-3],[9,-2],[15,0],[4,3],[0,6],[-1,6],[-3,4],[-11,10],[-5,2]],[[1136,2779],[3,0],[7,2],[7,4],[3,5],[-8,-1],[-20,-1],[-1,1],[-1,1],[-1,0],[-2,0],[1,-7],[-2,-6],[-9,-13],[5,1],[8,4],[7,6],[3,4]],[[1949,2118],[-3,6],[-5,6],[-4,7],[2,7],[-3,0],[-2,1],[-5,1],[-6,-16],[-4,-19],[4,-14],[18,-5],[4,0],[3,2],[2,3],[1,3],[0,2],[-1,2],[-1,3],[-1,2],[-1,1],[2,5],[0,3]],[[2538,66],[-4,-3],[-7,-9],[-3,0],[-6,4],[-4,-1],[-5,-3],[-10,-2],[-12,-5],[-4,-2],[-4,-3],[-7,-7],[-31,-20],[-3,-5],[-2,-5],[-5,-2],[-5,-1],[-3,-2]],[[2462,0],[21,11],[3,0],[4,-1],[5,0],[4,2],[3,3],[8,5],[1,0],[6,8],[1,1],[3,0],[4,-1],[3,1],[2,6],[3,0],[4,-1],[2,8],[2,11],[-1,10],[-2,3]],[[2436,1249],[0,3],[-3,5],[-1,6],[-2,5],[-5,2],[2,2],[0,1],[1,1],[2,1],[-3,4],[-1,5],[0,5],[2,5],[-5,-3],[0,3],[0,4],[-1,2],[-3,2],[-3,1],[-2,2],[0,2],[-1,2],[-8,5],[-2,3],[-3,5],[2,1],[2,1],[1,1],[3,0],[-12,5],[-4,-4],[-3,1],[0,3],[4,3],[-3,3],[10,5],[-2,2],[-2,2],[-3,0],[-3,-2],[0,9],[1,7],[2,2],[5,-7],[8,8],[-1,2],[1,2],[2,1],[3,2],[-9,0],[-9,-2],[-7,-4],[-5,-4],[-7,13],[-4,1],[-2,3],[-1,4],[-1,2],[-6,4],[-14,7],[-17,10],[-12,4],[-13,0],[-14,-8],[-3,-3],[-3,-4],[-1,-6],[1,-5],[3,-5],[10,-11],[3,-4],[2,-4],[1,-4],[-1,-3],[-1,-3],[-1,-2],[2,-3],[1,-2],[2,-1],[0,-2],[1,-3],[2,-7],[7,-6],[13,-9],[1,-2],[3,-4],[1,-2],[2,0],[8,0],[4,0],[4,0],[4,1],[6,2],[0,-7],[3,-5],[3,-4],[1,-2],[-3,-6],[-5,-2],[-6,2],[-3,6],[-3,-3],[-10,-5],[-10,-11],[3,-2],[2,-1],[0,-2],[0,-2],[8,-12],[3,-2],[6,1],[9,4],[5,1],[22,-3],[10,2],[2,-1],[0,-4],[6,0],[5,4],[5,2],[4,-6],[0,-5],[-4,-2],[-4,-2],[-2,-4],[1,-5],[5,-2],[5,0],[4,2],[4,5],[4,11],[5,2]],[[325,230],[2,4],[0,5],[-2,4],[-3,3],[-6,-11],[-7,-6],[-8,-2],[-11,3],[9,-6],[13,-2],[13,2],[7,6],[-2,0],[-5,0]],[[2408,1077],[-1,17],[-1,4],[-3,4],[-4,2],[-3,3],[2,7],[-7,2],[-5,-3],[-9,-13],[-2,-3],[-1,-7],[-1,-2],[-2,-2],[-3,-2],[-2,-2],[-9,-13],[-3,-9],[-9,-13],[-2,-5],[-1,-3],[-3,-7],[-1,-4],[0,-4],[1,-2],[1,-2],[1,-3],[0,-7],[0,-4],[-3,-6],[2,-3],[2,-2],[1,-2],[6,-8],[27,-11],[7,-9],[2,0],[1,1],[2,2],[3,14],[2,4],[2,1],[4,1],[1,1],[1,3],[5,18],[-1,17],[4,29],[0,10],[-1,11]],[[1784,2292],[-7,-7],[-3,-16],[6,-14],[17,-2],[6,2],[2,2],[1,4],[1,4],[0,8],[-1,4],[-2,8],[-6,5],[-6,2],[-8,0]],[[1639,2415],[1,-13],[5,-9],[8,-1],[4,3],[1,5],[-7,5],[-4,2],[-3,5],[-5,3]],[[1697,2551],[6,0],[5,4],[4,4],[2,4],[-24,4],[-3,2],[0,-4],[2,-5],[4,-6],[4,-3]],[[1766,2316],[-6,3],[-4,7],[-7,16],[-9,10],[-36,21],[-1,-2],[-1,-1],[-5,-2],[-2,0],[-1,-1],[-1,0],[-1,-2],[-3,-12],[11,-12],[15,-10],[12,-5],[5,0],[11,0],[3,-1],[5,-5],[7,-5],[4,-14],[5,-3],[8,3],[0,6],[-4,6],[-5,3]],[[1043,2750],[2,0],[3,2],[3,3],[0,1],[4,1],[2,-1],[2,-1],[3,-1],[3,1],[3,3],[2,3],[5,2],[6,-2],[4,0],[1,2],[-4,4],[-12,1],[-11,-2],[-4,1],[-9,-1],[-5,1],[-8,-4],[-1,-6],[-3,-4],[-3,-5],[-7,-1],[-5,-4],[9,-1],[5,0],[6,-1],[6,5],[3,4]],[[1152,2871],[21,-9],[3,0],[-5,13],[-13,5],[-32,-1],[3,-5],[7,-2],[16,-1]],[[1483,2821],[1,3],[-2,0],[1,-3]],[[1405,1719],[-1,2],[2,1],[1,-1],[1,-2],[-1,-1],[-2,1]],[[279,263],[-30,1],[-1,0],[12,-1],[2,-1],[3,0],[7,-2],[4,2],[2,-1],[9,1],[-2,1],[-6,0]],[[273,228],[-22,-9],[-1,-1],[-2,0],[-5,-1],[-8,1],[1,-2],[9,0],[4,1],[3,1],[10,3],[2,1],[17,8],[-3,0],[-5,-2]],[[1080,2784],[-1,-2],[-1,-3],[1,-4],[-1,-2],[1,-1],[2,1],[1,4],[0,2],[0,4],[-2,1]],[[1009,2768],[-5,1],[-9,-2],[-2,-3],[5,0],[10,-2],[3,2],[-2,3],[0,1]],[[1067,2732],[-3,1],[-2,-1],[-1,0],[-3,0],[-3,-1],[1,-2],[5,-1],[4,-2],[1,-3],[2,1],[-1,5],[0,3]],[[1552,2461],[-4,-2],[-1,-7],[5,-3],[3,1],[2,5],[-2,5],[-3,1]],[[2160,1788],[0,1],[-2,1],[-3,-1],[-1,-4],[-2,-1],[-2,-2],[1,-1],[4,1],[4,3],[2,2],[-1,1]],[[2139,1786],[-3,-2],[-2,-5],[4,-3],[3,2],[1,3],[-2,3],[-1,2]],[[2297,643],[0,-5],[1,0],[2,3],[3,7],[-3,1],[-3,-6]],[[2250,592],[-2,0],[-4,-3],[0,-3],[1,-4],[-2,-2],[-4,-1],[-1,-1],[3,-2],[4,1],[2,2],[1,3],[2,2],[2,3],[-1,3],[-1,2]],[[2206,544],[-3,1],[-2,-1],[-1,-1],[1,-2],[0,-1],[-2,-2],[2,-2],[4,-1],[4,1],[2,2],[-1,3],[-4,3]],[[1547,2700],[-4,1],[0,2],[3,2],[3,-2],[3,0],[-5,-3]],[[1877,2192],[-1,-1],[0,-1],[0,-1],[1,0],[1,1],[0,2],[0,1],[-1,-1]],[[1654,2706],[0,-3],[-1,-2],[1,-1],[4,2],[0,2],[5,1],[2,1],[-3,2],[-5,1],[-1,-2],[-2,-1]],[[1571,2698],[2,-1],[-1,0],[-2,0],[-1,0],[-1,1],[1,0],[2,0]],[[1575,2696],[0,-1],[1,0],[1,0],[0,2],[-1,0],[0,-1],[-1,0]],[[658,2716],[-7,11],[-10,4],[-69,7]],[[571,2738],[-14,0],[-18,6],[-19,-2],[-4,-2]],[[572,2738],[-1,0]],[[479,2746],[10,-2],[24,0],[2,-1],[1,-3]],[[426,2750],[12,-2],[13,0],[28,-2]],[[516,2740],[-2,-13],[1,-1]],[[515,2726],[1,-4],[9,-7],[0,-17]],[[366,2755],[37,8],[11,-1],[12,-12]],[[598,2651],[1,4],[7,-2],[14,8],[24,17],[14,5],[4,8],[1,6],[-5,19]],[[598,2651],[-26,21],[-7,13],[-5,4],[-11,2],[-15,-1],[-9,8]],[[438,2596],[10,2],[4,4],[3,15],[9,10],[24,16],[30,23],[5,16],[2,16]],[[137,2690],[-1,14],[5,11],[-4,14],[5,32],[7,-1],[32,10],[21,4],[9,3],[9,-11],[5,0],[19,7],[20,1],[7,-2]],[[334,2603],[-13,-2],[-16,-9],[-6,1],[-8,3],[-29,18],[-14,-2],[-24,-10],[-12,1],[-10,5],[-25,22],[-19,11],[-14,10],[-4,7],[0,5],[3,13],[-5,7],[-1,7]],[[438,2596],[-37,14],[-26,6],[-13,2],[-15,-4],[-7,-4],[-4,-6],[-2,-1]],[[271,2772],[13,-4],[10,0],[5,-4],[21,-5],[22,-3],[24,-1]],[[2462,0],[-39,0],[3,2],[5,1],[5,2],[2,5],[3,5],[31,20],[7,7],[4,3],[4,2],[12,5],[10,2],[5,3],[4,1],[6,-4],[3,0],[7,9],[4,3],[2,-3],[1,-10],[-2,-11],[-2,-8],[-4,1],[-3,0],[-2,-6],[-3,-1],[-4,1],[-3,0],[-1,-1],[-6,-8],[-1,0],[-8,-5],[-3,-3],[-4,-2],[-5,0],[-4,1],[-3,0],[-21,-11]],[[2137,329],[-16,-8],[0,3],[-3,-2],[-2,-2],[-2,-3],[0,-3],[-4,0],[-3,1],[-3,2],[-3,2],[-4,-4],[-6,-1],[-7,0],[-5,2],[12,8],[3,2],[1,6],[-1,4],[-2,5],[-1,5],[2,9],[8,14],[0,7],[21,26],[8,2],[8,-1],[8,-5],[0,-2],[-3,-2],[3,-6],[1,-6],[-1,-18],[-1,-3],[-2,-3],[-2,-6],[0,-3],[2,-6],[-1,-1],[-2,-1],[-1,-2],[0,-3],[0,-3],[-2,-4]],[[325,230],[5,0],[2,0],[-7,-6],[-13,-2],[-13,2],[-9,6],[11,-3],[8,2],[7,6],[6,11],[3,-3],[2,-4],[0,-5],[-2,-4]],[[507,246],[2,-2],[0,-8],[-4,-7],[-11,1],[-11,5],[-8,8],[6,2],[6,1],[11,0],[9,0]],[[1073,246],[-4,-3],[-15,0],[-9,2],[-7,3],[1,3],[1,1],[-1,1],[-1,3],[5,4],[6,10],[4,4],[5,-2],[11,-10],[3,-4],[1,-6],[0,-6]],[[1318,0],[-1,0],[1,0]],[[2212,501],[-1,-7],[0,-8],[-7,2],[-6,-2],[-6,-3],[-6,-3],[1,3],[3,6],[1,2],[-1,0],[-4,0],[0,1],[3,4],[7,-2],[5,6],[4,9],[6,5],[2,-6],[-1,-7]],[[2909,715],[-2,0],[-3,0],[-2,-1],[-2,-1],[-4,6],[-7,4],[-8,2],[-5,0],[-3,0],[-5,4],[-4,8],[-4,17],[-3,51],[0,6],[3,5],[5,6],[7,2],[6,-3],[5,-8],[2,-4],[3,-6],[7,-15],[4,-7],[7,-5],[10,-8],[5,-3],[7,-2],[7,-3],[4,-6],[-1,-13],[-9,-10],[-7,-5],[-5,-3],[-8,-8]],[[2385,965],[-2,0],[-7,9],[-27,11],[-6,8],[-1,2],[-2,2],[-2,3],[3,6],[0,4],[0,7],[-1,3],[-1,2],[-1,2],[0,4],[1,4],[3,7],[1,3],[2,5],[9,13],[3,9],[9,13],[2,2],[3,2],[2,2],[1,2],[1,7],[2,3],[9,13],[5,3],[7,-2],[-2,-7],[3,-3],[4,-2],[3,-4],[1,-4],[1,-17],[1,-11],[0,-10],[-4,-29],[1,-17],[-5,-18],[-1,-3],[-1,-1],[-4,-1],[-2,-1],[-2,-4],[-3,-14],[-2,-2],[-1,-1]],[[2306,749],[-7,-5],[-9,4],[-22,16],[-3,11],[1,13],[5,10],[-1,2],[-2,4],[10,1],[4,9],[3,11],[4,8],[5,4],[4,1],[4,0],[10,-2],[2,-1],[2,-2],[2,-6],[3,-17],[0,-23],[-5,-23],[-10,-15]],[[2374,1372],[7,-13],[5,4],[7,4],[9,2],[9,0],[-3,-2],[-2,-1],[-1,-2],[1,-2],[-8,-8],[-5,7],[-2,-2],[-1,-7],[0,-9],[3,2],[3,0],[2,-2],[2,-2],[-10,-5],[3,-3],[-4,-3],[0,-3],[3,-1],[4,4],[12,-5],[-3,0],[-1,-1],[-2,-1],[-2,-1],[3,-5],[2,-3],[8,-5],[1,-2],[0,-2],[2,-2],[3,-1],[3,-2],[1,-2],[0,-4],[0,-3],[5,3],[-2,-5],[0,-5],[1,-5],[3,-4],[-2,-1],[-1,-1],[0,-1],[-2,-2],[5,-2],[2,-5],[1,-6],[3,-5],[0,-3],[-5,-2],[-4,-11],[-4,-5],[-4,-2],[-5,0],[-5,2],[-1,5],[2,4],[4,2],[4,2],[0,5],[-4,6],[-5,-2],[-5,-4],[-6,0],[0,4],[-2,1],[-10,-2],[-22,3],[-5,-1],[-9,-4],[-6,-1],[-3,2],[-8,12],[0,2],[0,2],[-2,1],[-3,2],[10,11],[10,5],[3,3],[3,-6],[6,-2],[5,2],[3,6],[-1,2],[-3,4],[-3,5],[0,7],[-6,-2],[-4,-1],[-4,0],[-4,0],[-8,0],[-2,0],[-1,2],[-3,4],[-1,2],[-13,9],[-7,6],[-2,7],[-1,3],[0,2],[-2,1],[-1,2],[-2,3],[1,2],[1,3],[1,3],[-1,4],[-2,4],[-3,4],[-10,11],[-3,5],[-1,5],[1,6],[3,4],[3,3],[14,8],[13,0],[12,-4],[17,-10],[14,-7],[6,-4],[1,-2],[1,-4],[2,-3],[4,-1]],[[2222,1681],[5,-3],[5,3],[4,1],[19,-7],[0,-3],[3,-6],[3,-6],[2,-4],[6,-8],[0,-1],[4,-13],[0,-14],[-2,-11],[2,0],[1,-2],[2,0],[-2,-14],[0,-12],[0,-3],[-1,-15],[-7,-14],[-3,-2],[-2,0],[-1,0],[-4,-1],[-3,1],[-2,0],[-2,-2],[-2,-5],[-5,-2],[-1,-3],[-1,0],[-1,-3],[-5,-1],[-4,1],[0,3],[1,9],[0,12],[0,1],[-2,4],[-5,6],[-1,4],[0,10],[-2,7],[-5,11],[-1,3],[-1,7],[-1,3],[-8,8],[-1,4],[-1,3],[-2,4],[-2,3],[-2,1],[-2,2],[-1,5],[0,9],[-2,3],[-2,2],[-1,2],[0,4],[1,2],[6,4],[2,4],[-2,1],[-5,1],[-2,1],[3,4],[4,16],[7,0],[4,0],[5,-2],[4,-3],[6,-9]],[[2352,1954],[-10,-4],[-9,1],[5,2],[14,13],[9,3],[9,-3],[-18,-12]],[[2146,1942],[1,0],[2,1],[1,-1],[4,-4],[1,4],[4,3],[4,1],[3,-3],[1,-2],[-3,-8],[3,-8],[-2,0],[-7,-2],[-2,-4],[0,-17],[5,-14],[3,-21],[-3,-20],[-12,-14],[-17,-10],[-18,-8],[-1,3],[-2,5],[3,3],[-3,5],[-3,3],[-4,2],[-4,4],[-3,4],[-1,5],[-2,3],[-3,3],[-4,13],[-1,30],[-5,14],[2,5],[-2,5],[-3,4],[-2,4],[0,7],[2,11],[-2,5],[4,4],[6,10],[5,5],[7,2],[3,-3],[3,-3],[3,-2],[9,-1],[14,-5],[12,-7],[7,-7],[-6,-3],[3,-1]],[[2238,1964],[5,-3],[3,3],[4,-2],[3,0],[4,0],[4,-1],[3,-2],[8,-7],[2,-1],[4,-2],[20,-14],[7,-2],[2,-2],[-4,-4],[-3,1],[-10,2],[-3,1],[-6,2],[-64,-15],[-12,-5],[-7,-1],[-8,1],[-7,3],[-6,3],[-5,4],[-4,5],[-1,5],[0,5],[1,5],[6,20],[4,4],[7,2],[1,1],[0,4],[0,3],[0,3],[-2,1],[-2,2],[-3,1],[-3,1],[-2,13],[-2,4],[0,4],[3,5],[6,6],[1,3],[4,3],[11,6],[1,1],[1,-1],[12,-8],[7,-7],[4,-7],[1,-10],[0,-10],[0,-4],[3,-6],[3,-6],[4,-4],[5,-3]],[[1934,2145],[2,-1],[3,0],[-2,-7],[4,-7],[5,-6],[3,-6],[0,-3],[-2,-5],[1,-1],[1,-2],[1,-3],[1,-2],[0,-2],[-1,-3],[-2,-3],[-3,-2],[-4,0],[-18,5],[-4,14],[4,19],[6,16],[5,-1]],[[2085,2263],[6,-4],[1,3],[1,2],[3,5],[2,-3],[3,-2],[3,-1],[5,1],[-2,-2],[-1,-2],[-2,-1],[-3,0],[2,-6],[3,-2],[5,0],[5,2],[3,0],[2,-1],[1,-2],[2,-5],[-3,1],[-5,-1],[-2,0],[3,-4],[3,-2],[2,-2],[-1,-4],[-4,-7],[-4,0],[-5,2],[-6,2],[-3,-2],[0,-3],[2,-9],[-3,-5],[-6,3],[-6,5],[-2,3],[-3,0],[-7,-4],[-5,-1],[-8,0],[-5,1],[-11,7],[-3,4],[3,5],[1,4],[-1,4],[0,3],[6,3],[-2,1],[-8,4],[4,4],[7,3],[8,2],[-3,6],[1,4],[3,4],[5,3],[12,-1],[4,-7],[3,-8]],[[1803,2255],[-6,-2],[-17,2],[-6,14],[3,16],[7,7],[8,0],[6,-2],[6,-5],[2,-8],[1,-4],[0,-8],[-1,-4],[-1,-4],[-2,-2]],[[1749,2342],[7,-16],[4,-7],[6,-3],[5,-3],[4,-6],[0,-6],[-8,-3],[-5,3],[-4,14],[-7,5],[-5,5],[-3,1],[-11,0],[-5,0],[-12,5],[-15,10],[-11,12],[3,12],[1,2],[1,0],[1,1],[2,0],[5,2],[1,1],[1,2],[36,-21],[9,-10]],[[2064,2480],[5,-2],[7,3],[5,-1],[6,-4],[5,-6],[4,-7],[3,-6],[2,-12],[1,-6],[-1,-6],[-3,-7],[-2,-1],[-4,0],[-6,-2],[-2,7],[-7,4],[-16,7],[-5,-3],[-2,6],[0,15],[-2,7],[-2,6],[-2,6],[1,8],[1,-2],[1,-1],[0,-3],[2,-4],[6,-7],[2,-4],[0,-6],[-1,-4],[0,-4],[4,-2],[2,7],[0,9],[-2,9],[-7,4],[-2,4],[1,7],[6,3],[7,-9],[-3,-2],[-2,-1]],[[1008,2506],[8,-2],[4,-2],[3,-3],[9,6],[13,3],[14,-1],[12,-3],[0,-3],[-10,-1],[-8,-2],[-15,-7],[-8,-3],[-75,-11],[-7,-2],[3,6],[1,6],[-1,16],[1,4],[3,3],[14,-4],[8,4],[8,5],[8,2],[1,-1],[14,-10]],[[1703,2551],[-6,0],[-4,3],[-4,6],[-2,5],[0,4],[3,-2],[24,-4],[-2,-4],[-4,-4],[-5,-4]],[[178,2788],[38,-8],[38,5],[5,0],[13,-5],[6,-1],[14,4],[21,2],[9,-2],[10,-3],[6,1],[24,0],[14,-4],[31,6],[29,-9],[16,5],[19,-6],[5,3],[4,-1],[3,-3],[1,-2],[3,-2],[4,2],[3,4],[3,-1],[-1,-5],[7,-4],[1,-4],[3,-4],[5,-1],[12,4],[0,3],[-6,1],[-6,3],[-6,5],[-4,5],[24,-8],[6,-1],[4,-1],[6,-1],[5,2],[3,5],[8,-2],[17,-5],[6,4],[4,-1],[5,-3],[11,-3],[7,-3],[6,-7],[4,2],[3,4],[2,-1],[1,-2],[-2,-2],[-2,-3],[3,0],[4,2],[2,1],[6,-9],[6,-3],[5,4],[10,-8],[13,-2],[6,5],[3,2],[3,2],[3,0],[0,-3],[-3,-19],[-1,-16],[1,-4],[-1,-5],[2,-2],[3,-2],[5,3],[-1,-4],[1,-3],[5,-5],[-4,-3],[-1,-3],[-3,-1],[-3,6],[-4,0],[-2,-4],[4,-5],[-4,-3],[-4,1],[-6,3],[-6,-2],[-7,-3],[-7,-2],[-6,-3],[-7,-6],[-13,-20],[-1,-10],[-5,-7],[-1,-1],[-9,-2],[-2,-2],[4,-11],[-7,-7],[-14,-8],[-19,-7],[-8,1],[-8,1],[-8,1],[-4,-1],[-11,-4],[-2,0],[-11,0],[-8,-2],[-21,-11],[-5,-1],[-4,0],[-3,0],[-3,-2],[-2,3],[0,1],[0,2],[3,1],[1,1],[-1,3],[-3,2],[-8,-6],[-4,-1],[-5,1],[-10,1],[-3,1],[-2,2],[-2,3],[-2,2],[-4,2],[-3,1],[-6,0],[-9,-2],[-10,-7],[-8,0],[-7,6],[-5,7],[-7,4],[-6,-2],[-6,0],[-3,-2],[-6,-1],[-12,-1],[-4,-2],[-3,-2],[-5,-1],[-5,3],[-3,-2],[-3,-1],[-2,4],[-6,1],[-15,-2],[-3,0],[-11,5],[-15,0],[1,5],[-4,1],[-5,-1],[-4,-2],[0,-3],[5,0],[-4,-6],[-8,-4],[-8,-2],[-8,-2],[-11,1],[-5,-1],[-4,1],[-2,-1],[-2,-1],[0,-3],[-1,-3],[-6,0],[-6,4],[-8,9],[-7,0],[-8,2],[-9,0],[-5,1],[-5,-4],[-6,-3],[-6,-2],[-4,1],[-13,1],[-8,5],[-4,-3],[3,-9],[-4,0],[-5,8],[-2,4],[0,10],[9,4],[2,2],[4,1],[2,1],[2,3],[-2,2],[-3,2],[-5,-1],[-5,2],[0,7],[3,4],[3,2],[-1,4],[-2,7],[4,4],[0,12],[4,14],[3,3],[3,3],[2,4],[-3,4],[-4,4],[-6,18],[-4,8],[-8,1],[-6,2],[-6,11],[-4,5],[-3,7],[1,3],[11,3],[8,4],[7,2],[5,4],[9,7],[0,8],[-3,7],[-1,10],[7,8],[18,6],[19,-1],[14,-6]],[[1634,2623],[0,-12],[-2,-3],[-5,-5],[-24,6],[-5,3],[-3,3],[4,3],[0,1],[0,2],[-3,0],[-5,-2],[-2,-1],[-3,2],[-1,2],[1,2],[11,0],[6,2],[5,3],[2,6],[3,3],[6,2],[8,2],[5,0],[0,-8],[2,-11]],[[810,2648],[-3,-2],[-10,1],[-2,-1],[-7,-5],[-2,-2],[-2,0],[-4,3],[-5,-1],[-7,-3],[-28,-6],[-6,-3],[-8,2],[-11,-1],[-11,1],[-5,11],[6,0],[1,0],[8,1],[7,2],[6,4],[6,5],[3,1],[29,5],[5,-1],[12,-4],[20,-1],[4,-2],[4,-4]],[[1625,2677],[-23,-14],[-1,1],[-2,2],[-2,2],[-8,-6],[-5,-2],[-7,0],[10,11],[2,2],[5,2],[9,1],[4,2],[7,8],[4,6],[6,6],[12,2],[8,1],[4,0],[0,-3],[-7,-12],[-3,-4],[-4,-2],[-9,-3]],[[817,2719],[4,-7],[-1,0],[-4,0],[3,-2],[-4,0],[-3,0],[-2,2],[-1,3],[-3,0],[4,-6],[0,-3],[-1,-4],[-5,8],[-16,14],[1,1],[9,0],[10,-2],[9,-4]],[[936,2740],[14,-7],[13,-8],[5,-9],[-4,0],[-3,1],[-4,-2],[-3,-4],[-11,5],[-4,2],[-4,7],[-1,-4],[-4,3],[-7,-2],[-6,1],[-4,5],[-12,-3],[-6,5],[11,6],[9,2],[13,0],[6,-4],[3,1],[-6,5],[-3,3],[8,-3]],[[1171,2875],[5,-13],[-3,0],[-21,9],[-16,1],[-7,2],[-3,5],[32,1],[13,-5]],[[1032,2728],[2,-4],[-5,-1],[-10,3],[-3,-1],[4,-5],[-2,-9],[-12,6],[-18,-1],[-5,5],[5,8],[6,2],[7,2],[-2,3],[3,2],[13,-3],[5,-2],[6,-2],[6,-3]],[[1082,2767],[4,-4],[-1,-2],[-4,0],[-6,2],[-5,-2],[-2,-3],[-3,-3],[-3,-1],[-3,1],[-2,1],[-2,1],[-4,-1],[0,-1],[-3,-3],[-3,-2],[-2,0],[-3,-4],[-6,-5],[-6,1],[-5,0],[-9,1],[5,4],[7,1],[3,5],[3,4],[1,6],[8,4],[5,-1],[9,1],[4,-1],[11,2],[12,-1]],[[1156,2790],[-3,-5],[-7,-4],[-7,-2],[-3,0],[-3,-4],[-7,-6],[-8,-4],[-5,-1],[9,13],[2,6],[-1,7],[2,0],[1,0],[1,-1],[1,-1],[20,1],[8,1]],[[2279,1790],[-13,-3],[-10,1],[-5,10],[-1,3],[-1,3],[-1,2],[-1,1],[-1,2],[1,3],[4,5],[1,5],[2,4],[7,8],[8,4],[9,-2],[7,-6],[4,-11],[3,-2],[3,-3],[1,-5],[0,-5],[-1,-3],[-3,-3],[-4,-4],[-9,-4]],[[457,2767],[99,2],[19,-30],[-73,-16],[-45,44]],[[182,198],[0,114],[182,0],[0,-114],[-182,0]],[[1309,2388],[43,-4],[107,73],[-23,49],[38,-40],[24,4],[35,-60],[30,0],[-39,-94],[-113,-3],[-35,-29],[-66,62],[-1,42]],[[1996,1938],[7,40],[181,53],[37,-28],[-16,-69],[-55,2],[14,-81],[-45,-39],[-31,53],[-79,-1],[-13,70]],[[2087,1907],[13,-45],[35,-26],[-12,71],[-36,0]],[[2130,1947],[12,-5],[9,8],[-19,3],[-2,-6]],[[2163,1946],[4,-8],[11,9],[-8,6],[-7,-7]],[[2072,1899],[11,-11],[-3,21],[-8,-10]],[[2143,1967],[9,-8],[8,9],[-17,8],[0,-9]]]}