{"objects":{"water":{"type":"GeometryCollection","geometries":[{"type":"Polygon","properties":{"kind":"lake","name":"Lago Poop","area":1741095808,"sort_rank":200,"alkaline":true,"source":"naturalearthdata.com","min_zoom":0.0,"id":1322},"arcs":[[201]]},{"type":"Polygon","properties":{"source":"naturalearthdata.com","kind":"lake","name":"Laguna Huaitunas","area":300248256,"sort_rank":200,"min_zoom":0.0,"id":743},"arcs":[[202]]},{"type":"Polygon","properties":{"source":"naturalearthdata.com","kind":"lake","name":"Laguna Ragaguado","area":332328864,"sort_rank":200,"min_zoom":0.0,"id":744},"arcs":[[203]]},{"type":"Polygon","properties":{"source":"naturalearthdata.com","kind":"lake","name":"Lago Conceptin","area":182554832,"sort_rank":200,"min_zoom":0.0,"id":714},"arcs":[[204]]},{"type":"MultiPolygon","properties":{"sort_rank":200,"source":"naturalearthdata.com","min_zoom":0.0,"kind":"lake","area":162769514},"arcs":[[[205]]]},{"type":"Polygon","properties":{"source":"naturalearthdata.com","kind":"playa","name":"Salar de Uyuni","area":9716202496,"sort_rank":200,"min_zoom":0.0,"id":3},"arcs":[[206]]},{"type":"Point","properties":{"label_placement":true,"kind":"lake","name":"Lago Poop","area":1741095808,"sort_rank":200,"alkaline":true,"source":"naturalearthdata.com","min_zoom":0.0,"id":1322},"coordinates":[116,1267]},{"type":"Point","properties":{"label_placement":true,"kind":"lake","name":"Laguna Ragaguado","area":332328864,"sort_rank":200,"source":"naturalearthdata.com","min_zoom":0.0,"id":744},"coordinates":[713,3440]},{"type":"Point","properties":{"label_placement":true,"kind":"lake","name":"Laguna Huaitunas","area":300248256,"sort_rank":200,"source":"naturalearthdata.com","min_zoom":0.0,"id":743},"coordinates":[557,3397]},{"type":"Point","properties":{"label_placement":true,"kind":"lake","name":"Lago Conceptin","area":182554832,"sort_rank":200,"source":"naturalearthdata.com","min_zoom":0.0,"id":714},"coordinates":[2216,1695]},{"type":"MultiLineString","properties":{"source":"naturalearthdata.com","kind":"playa","sort_rank":367,"boundary":true,"min_zoom":0.0,"id":3},"arcs":[[207],[208],[209]]},{"type":"LineString","properties":{"source":"naturalearthdata.com","kind":"lake","sort_rank":367,"boundary":true,"min_zoom":0.0,"id":693},"arcs":[210]},{"type":"LineString","properties":{"source":"naturalearthdata.com","kind":"lake","sort_rank":367,"boundary":true,"min_zoom":0.0,"id":714},"arcs":[211]},{"type":"LineString","properties":{"source":"naturalearthdata.com","kind":"lake","sort_rank":367,"boundary":true,"min_zoom":0.0,"id":743},"arcs":[212]},{"type":"LineString","properties":{"source":"naturalearthdata.com","kind":"lake","sort_rank":367,"boundary":true,"min_zoom":0.0,"id":744},"arcs":[213]},{"type":"LineString","properties":{"source":"naturalearthdata.com","kind":"lake","sort_rank":367,"alkaline":true,"boundary":true,"min_zoom":0.0,"id":1322},"arcs":[214]}]},"buildings":{"type":"GeometryCollection","geometries":[]},"places":{"type":"GeometryCollection","geometries":[{"type":"Point","properties":{"name:pt":"Bol\u00edvia","name:ps":"\u0628\u0648\u0644\u06d0\u0648\u06cc\u0627","name:ka":"\u10d1\u10dd\u10da\u10d8\u10d5\u10d8\u10d0","name:mt":"Bolivja","name:ko":"\ubcfc\ub9ac\ube44\uc544","name:cv":"\u0411\u043e\u043b\u0438\u0432\u0438","name:km":"\u1794\u17bc\u179b\u17b8\u179c\u17b8","name:cs":"Bol\u00edvie","name:tt":"\u0411\u043e\u043b\u0438\u0432\u0438\u044f","name:kw":"Bolivi","name:tr":"Bolivya","name:ku":"Bol\u00eevya","name:ti":"\u1266\u120a\u126a\u12eb","name:ks":"\u0628\u0648\u0644\u0650\u0648\u0650\u06cc\u0627","name:to":"Pol\u012bvia","name:tl":"Bulibya","name:pa":"\u0a2c\u0a4b\u0a32\u0a40\u0a35\u0a40\u0a06","name:os":"\u0411\u043e\u043b\u0438\u0432\u0438","name:or":"\u0b2c\u0b4b\u0b32\u0b2d\u0b3f\u0b06","name:ce":"\u0411\u043e\u043b\u0438\u0432\u0438","name:ta":"\u0baa\u0bca\u0bb2\u0bbf\u0bb5\u0bbf\u0baf\u0bbe","name:tg":"\u0411\u043e\u043b\u0438\u0432\u0438\u044f","name:ca":"Bol\u00edvia","name:te":"\u0c2c\u0c4a\u0c32\u0c40\u0c35\u0c3f\u0c2f\u0c3e","name:cy":"Bolifia","name:ln":"Bolivi","name:de":"Bolivien","name:dz":"\u0f56\u0fb7\u0f7a\u0f0b\u0f63\u0f72\u0f0b\u0f56\u0f72\u0f0b\u0f61","source":"openstreetmap.org","name:rw":"Boliviya","name:nv":"Bol\u00edbiya","name:kn":"\u0cac\u0cc6\u0cc2\u0cb2\u0cbf\u0cb5\u0cbf\u0caf\u0cbe","name:dv":"\u0784\u07ae\u078d\u07a9\u0788\u07a8\u0787\u07a7","name:lv":"Bol\u012bvija","name:lt":"Bolivija","name:uz":"Boliviya","name:kk":"\u0411\u043e\u043b\u0438\u0432\u0438\u044f","name:he":"\u05d1\u05d5\u05dc\u05d9\u05d5\u05d5\u05d9\u05d4","min_zoom":2.0,"kind":"country","name:ur":"\u0628\u0648\u0644\u06cc\u0648\u06cc\u0627","name:lb":"Bolivien","name:lg":"Boliviya","name:uk":"\u0411\u043e\u043b\u0456\u0432\u0456\u044f","name:hy":"\u0532\u0578\u056c\u056b\u057e\u056b\u0561","name:ug":"\u0628\u0648\u0644\u0649\u06cb\u0649\u064a\u06d5","name:hu":"Bol\u00edvia","name:hr":"Bolivija","name:lo":"\u0ec2\u0e9a\u0ea5\u0eb4\u0ec0\u0ea7\u0e8d","name:oc":"Bol\u00edvia","population":10027254,"name:el":"\u0392\u03bf\u03bb\u03b9\u03b2\u03af\u03b1","name:eo":"Bolivio","name":"Bolivia","name:ee":"Bolivia nutome","name:th":"\u0e1b\u0e23\u0e30\u0e40\u0e17\u0e28\u0e42\u0e1a\u0e25\u0e34\u0e40\u0e27\u0e35\u0e22","name:eu":"Bolibia","name:et":"Boliivia","name:yo":"Or\u00edl\u1eb9\u0301\u00e8de B\u1ecd\u0300l\u00edf\u00edy\u00e0","name:ay":"Wuliwya","name:yi":"\u05d1\u05d0\u05dc\u05d9\u05d5\u05d5\u05d9\u05e2","name:rn":"Boliviya","name:az":"Boliviya","name:mr":"\u092c\u094b\u0932\u093f\u0935\u094d\u0939\u093f\u092f\u093e","name:qu":"Buliwya","name:ar":"\u0628\u0648\u0644\u064a\u0641\u064a\u0627","name:my":"\u1018\u102d\u102f\u101c\u102e\u1038\u1018\u102e\u1038\u101a\u102c\u1038","official_name":"Estado Plurinacional de Bolivia","name:gn":"Vol\u00edvia","name:is":"B\u00f3liv\u00eda","name:am":"\u1266\u120a\u126a\u12eb","name:ml":"\u0d2c\u0d4a\u0d33\u0d40\u0d35\u0d3f\u0d2f","name:ru":"\u0411\u043e\u043b\u0438\u0432\u0438\u044f","name:ab":"\u0411\u043e\u043b\u0438\u0432\u0438\u0430","name:mi":"Poriwia","name:pl":"Boliwia","name:mk":"\u0411\u043e\u043b\u0438\u0432\u0438\u0458\u0430","name:af":"Bolivi\u00eb","name:zu":"i-Bolivia","name:ha":"Bolibiya","name:mn":"\u0411\u043e\u043b\u0438\u0432","name:ff":"Boliwii","name:hi":"\u092c\u094b\u0932\u093f\u0935\u093f\u092f\u093e","id":424313730,"name:fr":"Bolivie","name:wo":"Boliibi","name:ky":"\u0411\u043e\u043b\u0438\u0432\u0438\u044f","name:zh-yue":"\u73bb\u5229\u7dad\u4e9e","name:vo":"Boliv\u00e4n","name:zh":"\u73bb\u5229\u7ef4\u4e9a","name:so":"Boliifiya","name:sr":"\u0411\u043e\u043b\u0438\u0432\u0438\u0458\u0430","name:sl":"Bolivija","name:sk":"Bol\u00edvia","name:ja":"\u30dc\u30ea\u30d3\u30a2","name:si":"\u0db6\u0ddc\u0dbd\u0dd3\u0dc0\u0dd2\u0dba\u0dcf\u0dc0","name:sh":"Bolivija","name:sg":"Boliv\u00efi","name:na":"Boribiya","name:ne":"\u092c\u094b\u0932\u093f\u092d\u093f\u092f\u093e","name:sa":"\u092c\u094b\u0932\u093f\u0935\u093f\u092f\u093e","name:bs":"Bolivija","name:bm":"Bolivi","name:bn":"\u09ac\u09cb\u09b2\u09bf\u09ad\u09bf\u09af\u09bc\u09be","name:bo":"\u0f56\u0f7c\u0f0b\u0f63\u0f72\u0f0b\u0f5d\u0f72\u0f61\u0f0d","name:be":"\u0411\u0430\u043b\u0456\u0432\u0456\u044f","name:bg":"\u0411\u043e\u043b\u0438\u0432\u0438\u044f","name:ss":"IBholiviya","name:ba":"\u0411\u043e\u043b\u0438\u0432\u0438\u044f","name:sq":"Bolivi","name:ga":"An Bholaiv","name:gd":"Boilibhia","name:ht":"Bolivi","name:wa":"Boliveye","name:fa":"\u0628\u0648\u0644\u06cc\u0648\u06cc","name:gv":"Yn Volivia","name:gu":"\u0aac\u0acb\u0ab2\u0abf\u0ab5\u0abf\u0aaf\u0abe"},"coordinates":[913,1859]},{"type":"Point","properties":{"kind":"region","name":"Departamento de Alto Paraguay","kind_detail":"state","name:eo":"Alta Paragvajo","source":"openstreetmap.org","name:fr":"Alto Paraguay","old_name":"Olimpo","name:ru":"\u0410\u043b\u044c\u0442\u043e-\u041f\u0430\u0440\u0430\u0433\u0432\u0430\u0439","min_zoom":4.0,"id":313928977,"population":15008},"coordinates":[3034,549]},{"type":"Point","properties":{"source":"openstreetmap.org","kind":"region","name":"Potos\u00ed","kind_detail":"state","min_zoom":4.0,"name:eo":"Potosiio","id":2890584086},"coordinates":[303,486]},{"type":"Point","properties":{"source":"openstreetmap.org","kind":"region","name":"Chuquisaca","kind_detail":"state","min_zoom":4.0,"name:eo":"\u0108ukisakio","id":2854906388},"coordinates":[1123,739]},{"type":"Point","properties":{"source":"openstreetmap.org","kind":"region","name":"Cochabamba","kind_detail":"state","min_zoom":4.0,"name:eo":"Ko\u0109apampio","id":2854906389},"coordinates":[728,1754]},{"type":"Point","properties":{"source":"openstreetmap.org","kind":"region","name":"Tarija","kind_detail":"state","min_zoom":4.0,"name:eo":"Tari\u015dio","id":2854906393},"coordinates":[1335,137]},{"type":"Point","properties":{"source":"openstreetmap.org","kind":"region","name":"Santa Cruz","kind_detail":"state","min_zoom":4.0,"name:eo":"Santa-Kruzio","id":2854906392},"coordinates":[2185,1754]},{"type":"Point","properties":{"source":"openstreetmap.org","kind":"region","name":"Beni","kind_detail":"state","min_zoom":4.0,"name:eo":"Beniio","id":2854906387},"coordinates":[910,3022]},{"type":"Point","properties":{"source":"openstreetmap.org","kind":"region","name":"Pando","kind_detail":"state","min_zoom":4.0,"id":2854906391},"coordinates":[115,4094]},{"type":"Point","properties":{"source":"naturalearthdata.com","kind":"locality","name":"Santa Cruz","population":2102998,"region_capital":true,"min_zoom":5.0,"id":7070},"coordinates":[1555,1595]},{"type":"Point","properties":{"source":"naturalearthdata.com","kind":"locality","name":"Sucre","country_capital":true,"population":224838,"min_zoom":5.0,"id":7052},"coordinates":[816,1104]},{"type":"Point","properties":{"source":"naturalearthdata.com","kind":"locality","name":"Tarija","population":159269,"region_capital":true,"min_zoom":5.0,"id":6715},"coordinates":[1001,162]},{"type":"Point","properties":{"source":"naturalearthdata.com","kind":"locality","name":"Corumba","population":96520,"min_zoom":5.0,"id":6650},"coordinates":[3586,1114]},{"type":"Point","properties":{"source":"naturalearthdata.com","kind":"locality","name":"Trinidad","population":84259,"region_capital":true,"min_zoom":5.0,"id":6693},"coordinates":[947,2705]},{"type":"Point","properties":{"source":"naturalearthdata.com","kind":"locality","name":"Vilhena","population":63231,"min_zoom":5.0,"id":7016},"coordinates":[2688,3511]}]},"transit":{"type":"GeometryCollection","geometries":[]},"pois":{"type":"GeometryCollection","geometries":[{"type":"Point","properties":{"kind":"nature_reserve","tier":2,"protect_class":"6","short_name":"ANMI Kaa Iya del Gran Chaco","area":13255200000,"official_name":"Parque Nacional y \u00c1rea Natural de Manejo Integrado Kaa-Iya del Gran Chaco","source":"openstreetmap.org","min_zoom":5.44,"operator":"SERNAP","id":-7728781,"osm_relation":true,"name":"\u00c1rea Natural de Manejo Integrado Kaa-Iya del Gran Chaco"},"coordinates":[2028,1253]},{"type":"Point","properties":{"kind":"national_park","tier":1,"protect_class":"2","short_name":"PN Kaa Iya del Gran Chaco","area":21744200000,"official_name":"Parque Nacional y \u00c1rea Natural de Manejo Integrado Kaa-Iya del Gran Chaco","source":"openstreetmap.org","min_zoom":3.59,"operator":"SERNAP","id":-7728779,"osm_relation":true,"name":"Parque Nacional Kaa-Iya del Gran Chaco"},"coordinates":[2237,977]},{"type":"Point","properties":{"kind":"nature_reserve","tier":2,"protect_class":"24","area":6224000000,"source":"openstreetmap.org","min_zoom":5.99,"operator":"Funda\u00e7\u00e3o Nacional do \u00cdndio","id":-4218293,"osm_relation":true,"name":"Terra Ind\u00edgena Kadiw\u00e9u"},"coordinates":[3754,504]},{"type":"Point","properties":{"kind":"nature_reserve","tier":2,"protect_class":"24","area":10693800000,"source":"openstreetmap.org","min_zoom":5.6,"operator":"Funda\u00e7\u00e3o Nacional do \u00cdndio","id":-3979640,"osm_relation":true,"name":"Terra Ind\u00edgena Nambikwara"},"coordinates":[2882,3394]},{"type":"Point","properties":{"kind":"nature_reserve","tier":2,"protect_class":"24","area":7882950000,"source":"openstreetmap.org","min_zoom":5.82,"operator":"Funda\u00e7\u00e3o Nacional do \u00cdndio","id":-3979603,"osm_relation":true,"name":"Terra Ind\u00edgena Enawen\u00ea-Naw\u00ea"},"coordinates":[3052,3713]},{"type":"Point","properties":{"kind":"nature_reserve","tier":2,"protect_class":"24","area":16812500000,"source":"openstreetmap.org","min_zoom":5.27,"operator":"Funda\u00e7\u00e3o Nacional do \u00cdndio","id":-3662509,"osm_relation":true,"name":"Terra Ind\u00edgena Parque do Aripuan\u00e3"},"coordinates":[2765,3912]},{"type":"Point","properties":{"kind":"nature_reserve","tier":2,"protect_class":"1","area":6495540000,"source":"openstreetmap.org","min_zoom":5.96,"operator":"Instituto Chico Mendes de Conserva\u00e7\u00e3o da Biodiversidade","id":-3425639,"osm_relation":true,"name":"Reserva Biol\u00f3gica do Guapor\u00e9"},"coordinates":[1690,3579]},{"type":"Point","properties":{"kind":"nature_reserve","name":"Reserva Nacional de Vida Silvestre R\u00edos Blanco y Negro","area":15002500000,"source":"openstreetmap.org","min_zoom":5.35,"tier":2,"id":-447060,"osm_relation":true},"coordinates":[1743,2822]},{"type":"Point","properties":{"kind":"national_park","name:en":"Ambor\u00f3 National Park","tier":1,"name":"Parque Nacional Ambor\u00f3","area":4891360000,"source":"openstreetmap.org","min_zoom":4.66,"operator":"SERNAP","id":-443981,"osm_relation":true},"coordinates":[1235,1593]},{"type":"Point","properties":{"kind":"national_park","name:en":"Tunari National Park","tier":1,"name":"Parque Nacional Tunari","area":3627640000,"name:de":"Nationalpark Tunari","source":"openstreetmap.org","min_zoom":4.88,"operator":"SERNAP","id":-443850,"osm_relation":true},"coordinates":[422,1793]},{"type":"Point","properties":{"kind":"nature_reserve","protect_class":"2","area":8112110000,"source":"openstreetmap.org","min_zoom":5.8,"tier":2,"id":166129126,"name":"Parque Nacional Defensores del Chaco"},"coordinates":[2665,639]}]},"boundaries":{"type":"GeometryCollection","geometries":[{"type":"MultiLineString","properties":{"source":"naturalearthdata.com","kind":"country","sort_rank":262,"kind_detail":"2","min_zoom":0.0,"id":199},"arcs":[[0],[1],[2]]},{"type":"MultiLineString","properties":{"source":"naturalearthdata.com","kind":"country","sort_rank":262,"kind_detail":"2","min_zoom":0.0,"id":200},"arcs":[[3],[4],[5],[6],[7],[8],[9],[10],[11],[12],[13]]},{"type":"MultiLineString","properties":{"source":"naturalearthdata.com","kind":"country","sort_rank":262,"kind_detail":"2","min_zoom":0.0,"id":315},"arcs":[[14],[15],[16],[17],[18],[19],[20],[21],[22],[23],[24],[25],[26],[27],[28],[29],[30],[31],[32],[33],[34],[35],[36],[37],[38],[39],[40],[41],[42],[43],[44],[45],[46],[47],[48],[49],[50],[51],[52],[53],[54],[55],[56],[57],[58],[59],[60],[61],[62],[63],[64],[65],[66],[67],[68],[69],[70],[71],[72]]},{"type":"MultiLineString","properties":{"source":"naturalearthdata.com","kind":"country","sort_rank":262,"kind_detail":"2","min_zoom":0.0,"id":197},"arcs":[[73],[74]]},{"type":"MultiLineString","properties":{"source":"naturalearthdata.com","kind":"country","sort_rank":262,"kind_detail":"2","min_zoom":0.0,"id":313},"arcs":[[75],[76]]},{"type":"MultiLineString","properties":{"source":"naturalearthdata.com","kind":"region","sort_rank":256,"kind_detail":"4","min_zoom":5.0,"id":4675},"arcs":[[77],[78],[79],[80],[81],[82],[83]]},{"type":"LineString","properties":{"source":"naturalearthdata.com","kind":"region","sort_rank":256,"kind_detail":"4","min_zoom":5.5,"id":2853},"arcs":[84]},{"type":"MultiLineString","properties":{"source":"naturalearthdata.com","kind":"region","sort_rank":256,"kind_detail":"4","min_zoom":2.0,"id":4611},"arcs":[[85],[86],[87]]},{"type":"MultiLineString","properties":{"source":"naturalearthdata.com","kind":"region","sort_rank":256,"kind_detail":"4","min_zoom":2.0,"id":4643},"arcs":[[88],[89],[90],[91],[92],[93],[94],[95],[96],[97],[98]]},{"type":"MultiLineString","properties":{"source":"naturalearthdata.com","kind":"region","sort_rank":256,"kind_detail":"4","min_zoom":5.0,"id":4674},"arcs":[[99],[100]]},{"type":"LineString","properties":{"source":"naturalearthdata.com","kind":"region","sort_rank":256,"kind_detail":"4","min_zoom":5.0,"id":4676},"arcs":[101]},{"type":"LineString","properties":{"source":"naturalearthdata.com","kind":"region","sort_rank":256,"kind_detail":"4","min_zoom":5.0,"id":4677},"arcs":[102]},{"type":"MultiLineString","properties":{"source":"naturalearthdata.com","kind":"region","sort_rank":256,"kind_detail":"4","min_zoom":5.0,"id":4678},"arcs":[[103],[104],[105]]},{"type":"LineString","properties":{"source":"naturalearthdata.com","kind":"region","sort_rank":256,"kind_detail":"4","min_zoom":5.0,"id":4679},"arcs":[106]},{"type":"MultiLineString","properties":{"source":"naturalearthdata.com","kind":"region","sort_rank":256,"kind_detail":"4","min_zoom":5.0,"id":4680},"arcs":[[107],[108],[109],[110],[111],[112],[113],[114],[115],[116],[117]]},{"type":"MultiLineString","properties":{"source":"naturalearthdata.com","kind":"region","sort_rank":256,"kind_detail":"4","min_zoom":5.0,"id":4681},"arcs":[[118],[119]]},{"type":"MultiLineString","properties":{"source":"naturalearthdata.com","kind":"region","sort_rank":256,"kind_detail":"4","min_zoom":5.0,"id":4682},"arcs":[[120],[121],[122],[123],[124],[125],[126]]},{"type":"MultiLineString","properties":{"source":"naturalearthdata.com","kind":"region","sort_rank":256,"kind_detail":"4","min_zoom":5.0,"id":4683},"arcs":[[127],[128],[129],[130],[131],[132],[133],[134],[135],[136],[137]]},{"type":"MultiLineString","properties":{"source":"naturalearthdata.com","kind":"region","sort_rank":256,"kind_detail":"4","min_zoom":5.0,"id":4687},"arcs":[[138],[139],[140],[141],[142],[143],[144],[145],[146],[147]]},{"type":"MultiLineString","properties":{"source":"naturalearthdata.com","kind":"region","sort_rank":256,"kind_detail":"4","min_zoom":5.0,"id":4684},"arcs":[[148],[149],[150],[151],[152],[153],[154],[155],[156],[157],[158],[159],[160],[161],[162],[163],[164],[165],[166],[167],[168],[169],[170],[171]]},{"type":"MultiLineString","properties":{"source":"naturalearthdata.com","kind":"region","sort_rank":256,"kind_detail":"4","min_zoom":5.0,"id":4685},"arcs":[[172],[173],[174],[175],[176],[177],[178],[179]]},{"type":"MultiLineString","properties":{"source":"naturalearthdata.com","kind":"region","sort_rank":256,"kind_detail":"4","min_zoom":5.0,"id":4686},"arcs":[[180],[181],[182],[183],[184]]},{"type":"MultiLineString","properties":{"source":"naturalearthdata.com","kind":"region","sort_rank":256,"kind_detail":"4","min_zoom":5.0,"id":4688},"arcs":[[185],[186],[187],[188],[189],[190],[191],[192],[193],[194],[195],[196],[197],[198],[199]]},{"type":"LineString","properties":{"source":"naturalearthdata.com","kind":"region","sort_rank":256,"kind_detail":"4","min_zoom":5.0,"id":4690},"arcs":[200]}]},"roads":{"type":"GeometryCollection","geometries":[{"type":"LineString","properties":{"source":"naturalearthdata.com","kind":"major_road","sort_rank":379,"kind_detail":"secondary","min_zoom":3.0,"id":43679},"arcs":[215]},{"type":"LineString","properties":{"source":"naturalearthdata.com","kind":"major_road","sort_rank":379,"kind_detail":"secondary","min_zoom":3.0,"id":43703},"arcs":[216]},{"type":"LineString","properties":{"source":"naturalearthdata.com","kind":"major_road","sort_rank":379,"kind_detail":"secondary","min_zoom":3.0,"id":43719},"arcs":[217]},{"type":"LineString","properties":{"source":"naturalearthdata.com","kind":"major_road","sort_rank":379,"kind_detail":"secondary","min_zoom":3.0,"id":43722},"arcs":[218]},{"type":"LineString","properties":{"source":"naturalearthdata.com","kind":"major_road","sort_rank":379,"kind_detail":"secondary","min_zoom":3.0,"id":43842},"arcs":[219]},{"type":"LineString","properties":{"source":"naturalearthdata.com","kind":"major_road","sort_rank":379,"kind_detail":"secondary","min_zoom":3.0,"id":43847},"arcs":[220]},{"type":"LineString","properties":{"source":"naturalearthdata.com","kind":"major_road","sort_rank":379,"kind_detail":"secondary","min_zoom":3.0,"id":43936},"arcs":[221]},{"type":"LineString","properties":{"source":"naturalearthdata.com","kind":"major_road","sort_rank":379,"kind_detail":"secondary","min_zoom":3.0,"id":43952},"arcs":[222]},{"type":"LineString","properties":{"source":"naturalearthdata.com","kind":"major_road","sort_rank":379,"kind_detail":"secondary","min_zoom":4.0,"id":44052},"arcs":[223]},{"type":"LineString","properties":{"source":"naturalearthdata.com","kind":"major_road","sort_rank":379,"kind_detail":"secondary","min_zoom":4.0,"id":44066},"arcs":[224]},{"type":"LineString","properties":{"source":"naturalearthdata.com","kind":"major_road","sort_rank":379,"kind_detail":"secondary","min_zoom":4.0,"id":44103},"arcs":[225]},{"type":"LineString","properties":{"source":"naturalearthdata.com","kind":"major_road","sort_rank":379,"kind_detail":"secondary","min_zoom":4.0,"id":44107},"arcs":[226]},{"type":"LineString","properties":{"source":"naturalearthdata.com","kind":"major_road","sort_rank":379,"kind_detail":"secondary","min_zoom":4.0,"id":44123},"arcs":[227]},{"type":"MultiLineString","properties":{"source":"naturalearthdata.com","kind":"major_road","kind_detail":"secondary","sort_rank":379,"landuse_kind":"nature_reserve","min_zoom":3.0,"id":44131},"arcs":[[228],[229]]},{"type":"MultiLineString","properties":{"source":"naturalearthdata.com","kind":"major_road","sort_rank":379,"kind_detail":"secondary","min_zoom":3.0,"id":44131},"arcs":[[230],[231],[232]]},{"type":"LineString","properties":{"source":"naturalearthdata.com","kind":"major_road","sort_rank":379,"kind_detail":"secondary","min_zoom":3.0,"id":44180},"arcs":[233]},{"type":"LineString","properties":{"source":"naturalearthdata.com","kind":"major_road","sort_rank":379,"kind_detail":"secondary","min_zoom":4.0,"id":44181},"arcs":[234]},{"type":"LineString","properties":{"source":"naturalearthdata.com","kind":"major_road","sort_rank":379,"kind_detail":"secondary","min_zoom":3.0,"id":44193},"arcs":[235]},{"type":"LineString","properties":{"source":"naturalearthdata.com","kind":"major_road","sort_rank":379,"kind_detail":"secondary","min_zoom":4.0,"id":44215},"arcs":[236]},{"type":"LineString","properties":{"source":"naturalearthdata.com","kind":"major_road","sort_rank":379,"kind_detail":"secondary","min_zoom":3.0,"id":44223},"arcs":[237]},{"type":"LineString","properties":{"source":"naturalearthdata.com","kind":"major_road","sort_rank":379,"kind_detail":"secondary","min_zoom":3.0,"id":44225},"arcs":[238]},{"type":"LineString","properties":{"source":"naturalearthdata.com","kind":"major_road","sort_rank":379,"kind_detail":"secondary","min_zoom":3.0,"id":44231},"arcs":[239]},{"type":"LineString","properties":{"source":"naturalearthdata.com","kind":"major_road","sort_rank":379,"kind_detail":"secondary","min_zoom":3.0,"id":44235},"arcs":[240]},{"type":"LineString","properties":{"source":"naturalearthdata.com","kind":"major_road","sort_rank":379,"kind_detail":"secondary","min_zoom":3.0,"id":44254},"arcs":[241]},{"type":"LineString","properties":{"source":"naturalearthdata.com","kind":"major_road","sort_rank":379,"kind_detail":"secondary","min_zoom":3.0,"id":44272},"arcs":[242]},{"type":"LineString","properties":{"source":"naturalearthdata.com","kind":"major_road","sort_rank":379,"kind_detail":"secondary","min_zoom":3.0,"id":44328},"arcs":[243]},{"type":"LineString","properties":{"source":"naturalearthdata.com","kind":"major_road","sort_rank":379,"kind_detail":"secondary","min_zoom":4.0,"id":44522},"arcs":[244]},{"type":"LineString","properties":{"source":"naturalearthdata.com","kind":"major_road","kind_detail":"secondary","sort_rank":379,"landuse_kind":"urban_area","min_zoom":3.0,"id":44532},"arcs":[245]},{"type":"LineString","properties":{"source":"naturalearthdata.com","kind":"major_road","sort_rank":379,"kind_detail":"secondary","min_zoom":3.0,"id":44532},"arcs":[246]},{"type":"LineString","properties":{"source":"naturalearthdata.com","kind":"major_road","sort_rank":379,"kind_detail":"secondary","min_zoom":3.0,"id":44544},"arcs":[247]},{"type":"LineString","properties":{"source":"naturalearthdata.com","kind":"major_road","kind_detail":"secondary","sort_rank":379,"landuse_kind":"urban_area","min_zoom":3.0,"id":44562},"arcs":[248]},{"type":"LineString","properties":{"source":"naturalearthdata.com","kind":"major_road","sort_rank":379,"kind_detail":"secondary","min_zoom":3.0,"id":44562},"arcs":[249]},{"type":"LineString","properties":{"source":"naturalearthdata.com","kind":"highway","sort_rank":383,"kind_detail":"motorway","min_zoom":4.0,"id":44565},"arcs":[250]},{"type":"LineString","properties":{"source":"naturalearthdata.com","kind":"major_road","kind_detail":"secondary","sort_rank":379,"landuse_kind":"national_park","min_zoom":3.0,"id":44572},"arcs":[251]},{"type":"LineString","properties":{"source":"naturalearthdata.com","kind":"major_road","sort_rank":379,"kind_detail":"secondary","min_zoom":3.0,"id":44572},"arcs":[252]},{"type":"LineString","properties":{"source":"naturalearthdata.com","kind":"highway","sort_rank":383,"kind_detail":"motorway","min_zoom":4.0,"id":44586},"arcs":[253]},{"type":"LineString","properties":{"source":"naturalearthdata.com","kind":"major_road","sort_rank":379,"kind_detail":"secondary","min_zoom":4.0,"id":44587},"arcs":[254]},{"type":"LineString","properties":{"source":"naturalearthdata.com","kind":"major_road","sort_rank":379,"kind_detail":"secondary","min_zoom":3.0,"id":44588},"arcs":[255]},{"type":"LineString","properties":{"source":"naturalearthdata.com","kind":"major_road","sort_rank":379,"kind_detail":"secondary","min_zoom":3.0,"id":44592},"arcs":[256]},{"type":"LineString","properties":{"source":"naturalearthdata.com","kind":"major_road","sort_rank":379,"kind_detail":"secondary","min_zoom":3.0,"id":44596},"arcs":[257]},{"type":"LineString","properties":{"source":"naturalearthdata.com","kind":"major_road","kind_detail":"secondary","sort_rank":379,"landuse_kind":"national_park","min_zoom":3.0,"id":44597},"arcs":[258]},{"type":"LineString","properties":{"source":"naturalearthdata.com","kind":"major_road","sort_rank":379,"kind_detail":"secondary","min_zoom":3.0,"id":44597},"arcs":[259]},{"type":"LineString","properties":{"source":"naturalearthdata.com","kind":"major_road","sort_rank":379,"kind_detail":"secondary","min_zoom":3.0,"id":44610},"arcs":[260]},{"type":"LineString","properties":{"source":"naturalearthdata.com","kind":"major_road","sort_rank":379,"kind_detail":"secondary","min_zoom":4.0,"id":44611},"arcs":[261]},{"type":"LineString","properties":{"source":"naturalearthdata.com","kind":"major_road","kind_detail":"secondary","sort_rank":379,"landuse_kind":"urban_area","min_zoom":4.0,"id":44621},"arcs":[262]},{"type":"LineString","properties":{"source":"naturalearthdata.com","kind":"major_road","sort_rank":379,"kind_detail":"secondary","min_zoom":4.0,"id":44621},"arcs":[263]},{"type":"LineString","properties":{"source":"naturalearthdata.com","kind":"highway","kind_detail":"motorway","sort_rank":383,"landuse_kind":"urban_area","min_zoom":4.0,"id":44622},"arcs":[264]},{"type":"LineString","properties":{"source":"naturalearthdata.com","kind":"highway","sort_rank":383,"kind_detail":"motorway","min_zoom":4.0,"id":44622},"arcs":[265]},{"type":"LineString","properties":{"source":"naturalearthdata.com","kind":"major_road","sort_rank":379,"kind_detail":"secondary","min_zoom":4.0,"id":44630},"arcs":[266]},{"type":"LineString","properties":{"source":"naturalearthdata.com","kind":"major_road","kind_detail":"secondary","sort_rank":379,"landuse_kind":"urban_area","min_zoom":3.0,"id":44634},"arcs":[267]},{"type":"LineString","properties":{"source":"naturalearthdata.com","kind":"major_road","sort_rank":379,"kind_detail":"secondary","min_zoom":3.0,"id":44634},"arcs":[268]},{"type":"LineString","properties":{"source":"naturalearthdata.com","kind":"major_road","sort_rank":379,"kind_detail":"secondary","min_zoom":3.0,"id":44648},"arcs":[269]},{"type":"LineString","properties":{"source":"naturalearthdata.com","kind":"major_road","sort_rank":379,"kind_detail":"secondary","min_zoom":3.0,"id":44658},"arcs":[270]},{"type":"LineString","properties":{"source":"naturalearthdata.com","kind":"major_road","sort_rank":379,"kind_detail":"secondary","min_zoom":3.0,"id":44696},"arcs":[271]},{"type":"LineString","properties":{"source":"naturalearthdata.com","kind":"major_road","kind_detail":"secondary","sort_rank":379,"landuse_kind":"protected_area","min_zoom":3.0,"id":44703},"arcs":[272]},{"type":"LineString","properties":{"source":"naturalearthdata.com","kind":"major_road","sort_rank":379,"kind_detail":"secondary","min_zoom":3.0,"id":44703},"arcs":[273]},{"type":"LineString","properties":{"source":"naturalearthdata.com","kind":"major_road","sort_rank":379,"kind_detail":"secondary","min_zoom":3.0,"id":44712},"arcs":[274]},{"type":"LineString","properties":{"source":"naturalearthdata.com","kind":"major_road","kind_detail":"secondary","sort_rank":379,"landuse_kind":"protected_area","min_zoom":3.0,"id":44825},"arcs":[275]},{"type":"LineString","properties":{"source":"naturalearthdata.com","kind":"major_road","sort_rank":379,"kind_detail":"secondary","min_zoom":3.0,"id":44825},"arcs":[276]},{"type":"LineString","properties":{"source":"naturalearthdata.com","kind":"major_road","sort_rank":379,"kind_detail":"secondary","min_zoom":4.0,"id":44843},"arcs":[277]},{"type":"LineString","properties":{"source":"naturalearthdata.com","kind":"major_road","sort_rank":379,"kind_detail":"secondary","min_zoom":4.0,"id":44867},"arcs":[278]},{"type":"LineString","properties":{"source":"naturalearthdata.com","kind":"major_road","sort_rank":379,"kind_detail":"secondary","min_zoom":4.0,"id":44875},"arcs":[279]},{"type":"LineString","properties":{"source":"naturalearthdata.com","kind":"major_road","sort_rank":379,"kind_detail":"secondary","min_zoom":4.0,"id":44887},"arcs":[280]},{"type":"LineString","properties":{"source":"naturalearthdata.com","kind":"major_road","kind_detail":"secondary","sort_rank":379,"landuse_kind":"urban_area","min_zoom":4.0,"id":44914},"arcs":[281]},{"type":"LineString","properties":{"source":"naturalearthdata.com","kind":"major_road","sort_rank":379,"kind_detail":"secondary","min_zoom":4.0,"id":44914},"arcs":[282]},{"type":"LineString","properties":{"source":"naturalearthdata.com","kind":"major_road","sort_rank":379,"kind_detail":"secondary","min_zoom":4.0,"id":44932},"arcs":[283]},{"type":"LineString","properties":{"source":"naturalearthdata.com","kind":"major_road","sort_rank":379,"kind_detail":"secondary","min_zoom":4.0,"id":44942},"arcs":[284]},{"type":"LineString","properties":{"source":"naturalearthdata.com","kind":"major_road","sort_rank":379,"kind_detail":"secondary","min_zoom":3.0,"id":44955},"arcs":[285]},{"type":"LineString","properties":{"source":"naturalearthdata.com","kind":"major_road","sort_rank":379,"kind_detail":"secondary","min_zoom":4.0,"id":44964},"arcs":[286]},{"type":"LineString","properties":{"source":"naturalearthdata.com","kind":"major_road","sort_rank":379,"kind_detail":"secondary","min_zoom":3.0,"id":44965},"arcs":[287]},{"type":"LineString","properties":{"source":"naturalearthdata.com","kind":"major_road","kind_detail":"secondary","sort_rank":379,"landuse_kind":"urban_area","min_zoom":4.0,"id":44974},"arcs":[288]},{"type":"LineString","properties":{"source":"naturalearthdata.com","kind":"major_road","sort_rank":379,"kind_detail":"secondary","min_zoom":4.0,"id":44974},"arcs":[289]},{"type":"LineString","properties":{"source":"naturalearthdata.com","kind":"major_road","sort_rank":379,"kind_detail":"secondary","min_zoom":3.0,"id":44975},"arcs":[290]},{"type":"LineString","properties":{"source":"naturalearthdata.com","kind":"major_road","sort_rank":379,"kind_detail":"secondary","min_zoom":4.0,"id":44991},"arcs":[291]},{"type":"LineString","properties":{"source":"naturalearthdata.com","kind":"major_road","sort_rank":379,"kind_detail":"secondary","min_zoom":4.0,"id":45006},"arcs":[292]},{"type":"LineString","properties":{"source":"naturalearthdata.com","kind":"major_road","sort_rank":379,"kind_detail":"secondary","min_zoom":4.0,"id":45007},"arcs":[293]},{"type":"LineString","properties":{"source":"naturalearthdata.com","kind":"major_road","sort_rank":379,"kind_detail":"secondary","min_zoom":3.0,"id":45035},"arcs":[294]},{"type":"LineString","properties":{"source":"naturalearthdata.com","kind":"major_road","sort_rank":379,"kind_detail":"secondary","min_zoom":4.0,"id":45040},"arcs":[295]},{"type":"LineString","properties":{"source":"naturalearthdata.com","kind":"major_road","sort_rank":379,"kind_detail":"secondary","min_zoom":3.0,"id":45081},"arcs":[296]},{"type":"LineString","properties":{"source":"naturalearthdata.com","kind":"major_road","sort_rank":379,"kind_detail":"secondary","min_zoom":4.0,"id":45084},"arcs":[297]},{"type":"LineString","properties":{"source":"naturalearthdata.com","kind":"major_road","sort_rank":379,"kind_detail":"secondary","min_zoom":4.0,"id":45121},"arcs":[298]},{"type":"LineString","properties":{"source":"naturalearthdata.com","kind":"major_road","sort_rank":379,"kind_detail":"secondary","min_zoom":4.0,"id":45167},"arcs":[299]},{"type":"LineString","properties":{"source":"naturalearthdata.com","kind":"major_road","sort_rank":379,"kind_detail":"secondary","min_zoom":4.0,"id":45190},"arcs":[300]},{"type":"LineString","properties":{"source":"naturalearthdata.com","kind":"major_road","sort_rank":379,"kind_detail":"secondary","min_zoom":4.0,"id":45201},"arcs":[301]},{"type":"LineString","properties":{"source":"naturalearthdata.com","kind":"major_road","sort_rank":379,"kind_detail":"secondary","min_zoom":4.0,"id":45230},"arcs":[302]},{"type":"LineString","properties":{"source":"naturalearthdata.com","kind":"major_road","sort_rank":379,"kind_detail":"secondary","min_zoom":4.0,"id":45249},"arcs":[303]},{"type":"LineString","properties":{"source":"naturalearthdata.com","kind":"major_road","sort_rank":379,"kind_detail":"secondary","min_zoom":3.0,"id":45352},"arcs":[304]},{"type":"LineString","properties":{"source":"naturalearthdata.com","kind":"major_road","sort_rank":379,"kind_detail":"secondary","min_zoom":4.0,"id":45356},"arcs":[305]},{"type":"LineString","properties":{"source":"naturalearthdata.com","kind":"major_road","sort_rank":379,"kind_detail":"secondary","min_zoom":4.0,"id":45380},"arcs":[306]},{"type":"LineString","properties":{"source":"naturalearthdata.com","kind":"major_road","sort_rank":379,"kind_detail":"secondary","min_zoom":3.0,"id":45399},"arcs":[307]},{"type":"LineString","properties":{"source":"naturalearthdata.com","kind":"major_road","sort_rank":379,"kind_detail":"secondary","min_zoom":4.0,"id":45413},"arcs":[308]},{"type":"LineString","properties":{"source":"naturalearthdata.com","kind":"major_road","sort_rank":379,"kind_detail":"secondary","min_zoom":3.0,"id":45474},"arcs":[309]},{"type":"LineString","properties":{"source":"naturalearthdata.com","kind":"major_road","sort_rank":379,"kind_detail":"secondary","min_zoom":4.0,"id":45478},"arcs":[310]},{"type":"LineString","properties":{"source":"naturalearthdata.com","kind":"major_road","sort_rank":379,"kind_detail":"secondary","min_zoom":4.0,"id":45481},"arcs":[311]},{"type":"LineString","properties":{"source":"naturalearthdata.com","kind":"major_road","sort_rank":379,"kind_detail":"secondary","min_zoom":4.0,"id":45495},"arcs":[312]},{"type":"LineString","properties":{"source":"naturalearthdata.com","kind":"major_road","sort_rank":379,"kind_detail":"secondary","min_zoom":3.0,"id":45517},"arcs":[313]},{"type":"LineString","properties":{"source":"naturalearthdata.com","kind":"major_road","sort_rank":379,"kind_detail":"secondary","min_zoom":4.0,"id":45708},"arcs":[314]}]},"earth":{"type":"GeometryCollection","geometries":[{"type":"MultiPolygon","properties":{"sort_rank":10,"source":"naturalearthdata.com","min_zoom":0.0,"kind":"earth","area":6210523849991},"arcs":[[[315]]]},{"type":"Point","properties":{"name:ia":"America del Sud","label_placement":true,"name:pt":"Am\u00e9rica do Sul","name:ms":"Amerika Selatan","name:tr":"G\u00fcney Amerika","name:kn":"\u0ca6\u0c95\u0ccd\u0cb7\u0cbf\u0ca3 \u0c85\u0cae\u0cc7\u0cb0\u0cbf\u0c95","name:ar":"\u0623\u0645\u0631\u064a\u0643\u0627 \u0627\u0644\u062c\u0646\u0648\u0628\u064a\u0629","name:cs":"Ji\u017en\u00ed Amerika","name:io":"Sud-Amerika","min_zoom":0.0,"name:it":"America meridionale","name:tl":"Timog Amerika","name:ru":"\u042e\u0436\u043d\u0430\u044f \u0410\u043c\u0435\u0440\u0438\u043a\u0430","name:vi":"Nam M\u1ef9","name:pl":"Ameryka Po\u0142udniowa","name:mi":"Amerika ki te Tonga","id":36966069,"name:ca":"Am\u00e8rica del Sud","name:vo":"Sol\u00fcda-Merop","name:fa":"\u0622\u0645\u0631\u06cc\u06a9\u0627\u06cc \u062c\u0646\u0648\u0628\u06cc","name:hu":"D\u00e9l-Amerika","name:lt":"Piet\u0173 Amerika","name:fi":"Etel\u00e4-Amerikka","name:da":"Sydamerika","kind":"continent","name:de":"S\u00fcdamerika","source":"openstreetmap.org","name:fr":"Am\u00e9rique du Sud","name:zh":"\u5357\u7f8e\u6d32","name:sl":"Ju\u017ena Amerika","name:nl":"Zuid-Amerika","name:nn":"S\u00f8r-Amerika","name:hi":"\u0926\u0915\u094d\u0937\u093f\u0923 \u0905\u092e\u0947\u0930\u093f\u0915\u093e","name:nb":"S\u00f8r-Amerika","name:eo":"Sudameriko","name:la":"America Australis","name:sk":"Ju\u017en\u00e1 Amerika","name:uk":"\u041f\u0456\u0432\u0434\u0435\u043d\u043d\u0430 \u0410\u043c\u0435\u0440\u0438\u043a\u0430","name:be":"\u041f\u0430\u045e\u0434\u043d\u0451\u0432\u0430\u044f \u0410\u043c\u0435\u0440\u044b\u043a\u0430","name:li":"Zuud-Amerika","name:hr":"Ju\u017ena Amerika","name:sr":"\u0408\u0443\u0436\u043d\u0430 \u0410\u043c\u0435\u0440\u0438\u043a\u0430","name:el":"\u039d\u03cc\u03c4\u03b9\u03b1 \u0391\u03bc\u03b5\u03c1\u03b9\u03ba\u03ae","name:ga":"Meirice\u00e1 Theas","name":"South America","name:is":"Su\u00f0ur-Amer\u00edka","name:ku":"Amer\u00eekaya Ba\u015f\u00fbr","name:sv":"Sydamerika","name:eu":"Am\u00e9rica del Sur","name:no":"S\u00f8r-Amerika","name:es":"Am\u00e9rica del Sur"},"coordinates":[2366,359]}]},"landuse":{"type":"GeometryCollection","geometries":[{"type":"Polygon","properties":{"kind":"nature_reserve","name":"Terra Ind\u00edgena Rio Guapor\u00e9","area":1220080000,"sort_rank":23,"operator":"Funda\u00e7\u00e3o Nacional do \u00cdndio","source":"openstreetmap.org","min_zoom":4.0,"tier":2,"id":-3614770,"osm_relation":true,"protect_class":"24"},"arcs":[[316]]},{"type":"Polygon","properties":{"kind":"nature_reserve","name":"Terra Ind\u00edgena Rio Negro Ocaia","area":1097170048,"sort_rank":23,"operator":"Funda\u00e7\u00e3o Nacional do \u00cdndio","source":"openstreetmap.org","min_zoom":4.0,"tier":2,"id":-3614772,"osm_relation":true,"protect_class":"24"},"arcs":[[317]]},{"type":"Polygon","properties":{"kind":"nature_reserve","name":"Terra Ind\u00edgena Tubar\u00e3o Latunde","area":1233670016,"sort_rank":23,"operator":"Funda\u00e7\u00e3o Nacional do \u00cdndio","source":"openstreetmap.org","min_zoom":4.0,"tier":2,"id":-3979566,"osm_relation":true,"protect_class":"24"},"arcs":[[318]]},{"type":"MultiPolygon","properties":{"kind":"nature_reserve","name":"\u00c1rea Natural de Manejo Integrado Kaa-Iya del Gran Chaco","area":16833725140,"sort_rank":23,"operator":"SERNAP","source":"openstreetmap.org","min_zoom":4.0,"tier":2,"osm_relation":true,"protect_class":"6"},"arcs":[[[319]],[[320]]]},{"type":"Polygon","properties":{"kind":"park","name":"Parque Departamental Altamachi","area":4481619968,"sort_rank":24,"source":"openstreetmap.org","min_zoom":4.0,"tier":2,"id":-446358,"osm_relation":true},"arcs":[[321]]},{"type":"Polygon","properties":{"kind":"nature_reserve","name":"Terra Ind\u00edgena Serra Morena","area":1538080000,"sort_rank":23,"operator":"Funda\u00e7\u00e3o Nacional do \u00cdndio","source":"openstreetmap.org","min_zoom":4.0,"tier":2,"id":-3662513,"osm_relation":true,"protect_class":"24"},"arcs":[[322]]},{"type":"Polygon","properties":{"kind":"nature_reserve","name":"Terra Ind\u00edgena Parque do Aripuan\u00e3","area":16812499968,"sort_rank":23,"operator":"Funda\u00e7\u00e3o Nacional do \u00cdndio","source":"openstreetmap.org","min_zoom":4.0,"tier":2,"id":-3662509,"osm_relation":true,"protect_class":"24"},"arcs":[[323]]},{"type":"Polygon","properties":{"kind":"nature_reserve","name":"Terra Ind\u00edgena Kadiw\u00e9u","area":6224000000,"sort_rank":23,"operator":"Funda\u00e7\u00e3o Nacional do \u00cdndio","source":"openstreetmap.org","min_zoom":4.0,"tier":2,"id":-4218293,"osm_relation":true,"protect_class":"24"},"arcs":[[324]]},{"type":"Polygon","properties":{"kind":"nature_reserve","name":"Esta\u00e7\u00e3o Ecol\u00f3gica de Iqu\u00ea","area":2272300032,"sort_rank":23,"operator":"Instituto Chico Mendes de Conserva\u00e7\u00e3o da Biodiversidade","source":"openstreetmap.org","min_zoom":4.0,"tier":2,"id":255739394,"protect_class":"1"},"arcs":[[325]]},{"type":"Polygon","properties":{"kind":"nature_reserve","name":"Terra Ind\u00edgena Rio Branco","area":2488009984,"sort_rank":23,"operator":"Funda\u00e7\u00e3o Nacional do \u00cdndio","source":"openstreetmap.org","min_zoom":4.0,"tier":2,"id":-3614769,"osm_relation":true,"protect_class":"24"},"arcs":[[326]]},{"type":"Polygon","properties":{"kind":"nature_reserve","name":"Reserva Biol\u00f3gica do Guapor\u00e9","area":6495540224,"sort_rank":23,"operator":"Instituto Chico Mendes de Conserva\u00e7\u00e3o da Biodiversidade","source":"openstreetmap.org","min_zoom":4.0,"tier":2,"id":-3425639,"osm_relation":true,"protect_class":"1"},"arcs":[[327]]},{"type":"Polygon","properties":{"kind":"nature_reserve","name":"Terra Ind\u00edgena Uru-Eu-Wau-Wau","area":19547899904,"sort_rank":23,"operator":"Funda\u00e7\u00e3o Nacional do \u00cdndio","source":"openstreetmap.org","min_zoom":4.0,"tier":2,"id":-3614774,"osm_relation":true,"protect_class":"24"},"arcs":[[328]]},{"type":"Polygon","properties":{"kind":"nature_reserve","name":"Parque Nacional do Pantanal Matogrossense","area":1535910016,"sort_rank":23,"operator":"Instituto Chico Mendes de Conserva\u00e7\u00e3o da Biodiversidade","source":"openstreetmap.org","min_zoom":4.0,"tier":2,"id":-2525338,"osm_relation":true,"protect_class":"2"},"arcs":[[329]]},{"type":"Polygon","properties":{"kind":"nature_reserve","name":"Terra Ind\u00edgena Utiariti","area":4361619968,"sort_rank":23,"operator":"Funda\u00e7\u00e3o Nacional do \u00cdndio","source":"openstreetmap.org","min_zoom":4.0,"tier":2,"id":-3979561,"osm_relation":true,"protect_class":"24"},"arcs":[[330]]},{"type":"MultiPolygon","properties":{"source":"naturalearthdata.com","kind":"urban_area","name":"","area":3350711926,"sort_rank":11,"min_zoom":4.0},"arcs":[[[331]],[[332]],[[333]]]},{"type":"Polygon","properties":{"kind":"nature_reserve","name":"Terra Ind\u00edgena Vale do Guapor\u00e9","area":2565690112,"sort_rank":23,"operator":"Funda\u00e7\u00e3o Nacional do \u00cdndio","source":"openstreetmap.org","min_zoom":4.0,"tier":2,"id":-3979550,"osm_relation":true,"protect_class":"24"},"arcs":[[334]]},{"type":"Polygon","properties":{"kind":"nature_reserve","name":"Parque Estadual Serra de Ricardo Franco","area":1701820032,"sort_rank":23,"source":"openstreetmap.org","min_zoom":4.0,"tier":2,"id":475439680,"protect_class":"2"},"arcs":[[335]]},{"type":"Polygon","properties":{"kind":"protected_area","name":"\u00c1rea Indigena Irantxe","area":2672049920,"sort_rank":17,"source":"openstreetmap.org","min_zoom":4.0,"tier":2,"id":-3350522,"osm_relation":true},"arcs":[[336]]},{"type":"Polygon","properties":{"kind":"national_park","name":"Parque Nacional Kaa-Iya del Gran Chaco","area":21744199680,"sort_rank":18,"operator":"SERNAP","source":"openstreetmap.org","min_zoom":3.0,"tier":1,"id":-7728779,"osm_relation":true,"protect_class":"2"},"arcs":[[337]]},{"type":"Polygon","properties":{"kind":"nature_reserve","name":"Reserva Cient\u00edfica Ecol\u00f3gica Arqueol\u00f3gica Kenneth Lee","area":4706469888,"sort_rank":23,"source":"openstreetmap.org","min_zoom":4.0,"tier":2,"id":-447061,"osm_relation":true},"arcs":[[338]]},{"type":"Polygon","properties":{"kind":"nature_reserve","name":"Parque Nacional Defensores del Chaco","area":8112110080,"sort_rank":23,"source":"openstreetmap.org","min_zoom":4.0,"tier":2,"id":166129126,"protect_class":"2"},"arcs":[[339]]},{"type":"Polygon","properties":{"kind":"nature_reserve","name":"Parque Nacional Serra da Cutia","area":2974010112,"sort_rank":23,"operator":"Instituto Chico Mendes de Conserva\u00e7\u00e3o da Biodiversidade","source":"openstreetmap.org","min_zoom":4.0,"tier":2,"id":-3424881,"osm_relation":true,"protect_class":"2"},"arcs":[[340]]},{"type":"Polygon","properties":{"kind":"nature_reserve","name":"Terra Ind\u00edgena Rio Mequens","area":1138720000,"sort_rank":23,"operator":"Funda\u00e7\u00e3o Nacional do \u00cdndio","source":"openstreetmap.org","min_zoom":4.0,"tier":2,"id":-3614771,"osm_relation":true,"protect_class":"24"},"arcs":[[341]]},{"type":"Polygon","properties":{"kind":"nature_reserve","name":"Terra Ind\u00edgena Nambikwara","area":10693799936,"sort_rank":23,"operator":"Funda\u00e7\u00e3o Nacional do \u00cdndio","source":"openstreetmap.org","min_zoom":4.0,"tier":2,"id":-3979640,"osm_relation":true,"protect_class":"24"},"arcs":[[342]]},{"type":"Polygon","properties":{"kind":"nature_reserve","name":"Parque Nacional de Paca\u00e1s Novos","area":7407249920,"sort_rank":23,"operator":"Instituto Chico Mendes de Conserva\u00e7\u00e3o da Biodiversidade","source":"openstreetmap.org","min_zoom":4.0,"tier":2,"id":-3425636,"osm_relation":true,"protect_class":"2"},"arcs":[[343]]},{"type":"Polygon","properties":{"kind":"park","name":"Parque Nacional Noel Kempff Mercado","area":17003799552,"sort_rank":24,"source":"openstreetmap.org","min_zoom":4.0,"tier":2,"id":-421231,"osm_relation":true},"arcs":[[344]]},{"type":"Polygon","properties":{"kind":"nature_reserve","name":"Reserva Extrativista Barreiro das Antas","area":1112600064,"sort_rank":23,"operator":"Instituto Chico Mendes de Conserva\u00e7\u00e3o da Biodiversidade","source":"openstreetmap.org","min_zoom":4.0,"tier":2,"id":-3614761,"osm_relation":true,"protect_class":"6"},"arcs":[[345]]},{"type":"Polygon","properties":{"kind":"protected_area","name":"Lagos Poop\u00f3 y Uru Uru","area":9900739584,"sort_rank":17,"source":"openstreetmap.org","min_zoom":4.0,"tier":2,"id":-557214,"osm_relation":true},"arcs":[[346]]},{"type":"Polygon","properties":{"kind":"nature_reserve","name":"Reserva Nacional de Vida Silvestre R\u00edos Blanco y Negro","area":15002500096,"sort_rank":23,"source":"openstreetmap.org","min_zoom":4.0,"tier":2,"id":-447060,"osm_relation":true},"arcs":[[347]]},{"type":"Polygon","properties":{"kind":"protected_area","name":"Rio Negro Ocaia","area":2456120064,"sort_rank":17,"source":"openstreetmap.org","min_zoom":4.0,"tier":2,"id":-2670418,"osm_relation":true},"arcs":[[348]]},{"type":"Polygon","properties":{"kind":"nature_reserve","name":"Terra Ind\u00edgena Tirecatinga","area":1390089984,"sort_rank":23,"operator":"Funda\u00e7\u00e3o Nacional do \u00cdndio","source":"openstreetmap.org","min_zoom":4.0,"tier":2,"id":-3979571,"osm_relation":true,"protect_class":"24"},"arcs":[[349]]},{"type":"Polygon","properties":{"kind":"nature_reserve","name":"Terra Ind\u00edgena Massaco","area":4441529856,"sort_rank":23,"operator":"Funda\u00e7\u00e3o Nacional do \u00cdndio","source":"openstreetmap.org","min_zoom":4.0,"tier":2,"id":-3614767,"osm_relation":true,"protect_class":"24"},"arcs":[[350]]},{"type":"Polygon","properties":{"kind":"nature_reserve","name":"Terra Ind\u00edgena Sete de Setembro","area":2599579904,"sort_rank":23,"operator":"Funda\u00e7\u00e3o Nacional do \u00cdndio","source":"openstreetmap.org","min_zoom":4.0,"tier":2,"id":-3662514,"osm_relation":true,"protect_class":"24"},"arcs":[[351]]},{"type":"Polygon","properties":{"kind":"nature_reserve","name":"Reserva Nacional Amaz\u00f3nica Manuripi-Heath","area":7893459968,"sort_rank":23,"source":"openstreetmap.org","min_zoom":4.0,"tier":2,"id":-447057,"osm_relation":true},"arcs":[[352]]},{"type":"MultiPolygon","properties":{"kind":"nature_reserve","name":"Reserva Nacional Lagunas de Beni y Pando","area":10968872708,"sort_rank":23,"source":"openstreetmap.org","min_zoom":4.0,"tier":2,"osm_relation":true},"arcs":[[[353]],[[354]],[[355]],[[356]]]},{"type":"Polygon","properties":{"kind":"nature_reserve","name":"Terra Ind\u00edgena Enawen\u00ea-Naw\u00ea","area":7882950144,"sort_rank":23,"operator":"Funda\u00e7\u00e3o Nacional do \u00cdndio","source":"openstreetmap.org","min_zoom":4.0,"tier":2,"id":-3979603,"osm_relation":true,"protect_class":"24"},"arcs":[[357]]},{"type":"Polygon","properties":{"kind":"nature_reserve","name":"Terra Ind\u00edgena Roosevelt","area":2411869952,"sort_rank":23,"operator":"Funda\u00e7\u00e3o Nacional do \u00cdndio","source":"openstreetmap.org","min_zoom":4.0,"tier":2,"id":-3662510,"osm_relation":true,"protect_class":"24"},"arcs":[[358]]},{"type":"Polygon","properties":{"kind":"national_park","name":"Parque Nacional Tunari","area":3627640064,"sort_rank":18,"operator":"SERNAP","source":"openstreetmap.org","min_zoom":3.0,"tier":1,"id":-443850,"osm_relation":true},"arcs":[[359]]},{"type":"Polygon","properties":{"kind":"national_park","name":"Parque Nacional Ambor\u00f3","area":4891360256,"sort_rank":18,"operator":"SERNAP","source":"openstreetmap.org","min_zoom":3.0,"tier":1,"id":-443981,"osm_relation":true},"arcs":[[360]]},{"type":"Polygon","properties":{"kind":"nature_reserve","name":"Terra Ind\u00edgena Pacaas Novas","area":2942789888,"sort_rank":23,"operator":"Funda\u00e7\u00e3o Nacional do \u00cdndio","source":"openstreetmap.org","min_zoom":4.0,"tier":2,"id":-3614768,"osm_relation":true,"protect_class":"24"},"arcs":[[361]]},{"type":"Polygon","properties":{"kind":"nature_reserve","name":"Terra Ind\u00edgena Paresi","area":6030239744,"sort_rank":23,"operator":"Funda\u00e7\u00e3o Nacional do \u00cdndio","source":"openstreetmap.org","min_zoom":4.0,"tier":2,"id":-3979617,"osm_relation":true,"protect_class":"24"},"arcs":[[362]]}]}},"type":"Topology","transform":{"translate":[-67.5,-21.9430455334],"scale":[0.002746582,0.0026280868]},"arcs":[[[3510,747],[-4,-5],[-4,-6],[-5,-6],[-8,-4]],[[3489,726],[-9,3],[-6,0]],[[3474,729],[-3,-1],[-1,-4],[-2,-3],[-4,-2],[-4,-1],[-9,-3],[-12,-17],[-9,-3],[-3,-2],[-4,-6],[-2,-2],[-5,-3],[-15,-5]],[[3401,677],[0,-7],[2,-1]],[[3406,670],[3,-1],[3,-3],[3,-4],[1,-4],[-14,-5],[-2,-6],[2,-7],[7,-5]],[[3403,669],[3,1]],[[3419,640],[2,-1],[3,-3],[2,-4],[-4,-10],[1,-10],[3,-9],[3,-7],[5,-6],[8,-6],[8,-5],[7,-1],[6,-3],[-1,-7],[-6,-11],[-1,-8],[1,-10],[1,-9],[4,-9],[1,-4],[-1,-9],[1,-5],[5,-7],[2,-4],[-1,-5],[-2,-7],[0,-4],[2,-5],[4,-2]],[[3409,635],[2,1],[2,2],[2,2],[4,0]],[[3483,485],[6,-1],[5,-3],[1,-2],[2,-6],[2,-2],[2,-3],[6,-3],[3,-4],[1,-3],[-3,-3],[-4,-2],[-8,-2],[-3,-2],[-4,-4],[-6,-4],[-2,-4],[2,-2],[9,-1],[8,-1],[6,-4],[4,-6],[1,-7],[-4,-4],[-15,-8],[-3,-5],[1,-4],[2,-2],[3,-1],[1,-1]],[[3472,469],[3,0],[3,13],[5,3]],[[3498,391],[8,-7],[9,-8]],[[3496,391],[2,0]],[[3519,382],[6,-6],[1,-8],[-4,-9],[-9,-15],[0,-5],[6,-12],[2,-17],[-2,-17],[-5,-16],[-8,-12],[-10,-8],[-2,-3],[-1,-5],[2,-2],[3,-2],[1,-3],[3,-4],[6,-1],[3,-4],[-2,-10],[-25,-37],[-5,-13],[-2,-8],[1,-8],[3,-7],[6,-3],[4,-3],[-3,-7],[-4,-9],[-3,-7],[2,-6],[3,-7],[5,-5],[4,-3],[2,-3],[-16,-26],[0,-7],[2,-7],[-1,-7],[-5,-8],[-2,-7],[3,-5],[5,-7],[3,-9],[-2,-4],[-5,-10]],[[3515,376],[2,0],[2,6]],[[765,4096],[5,-6],[6,-4],[3,-5],[-2,-6],[-5,-3],[-3,-4],[0,-10],[5,-7],[7,-5],[7,-4],[3,-3],[-1,-5],[-6,-7],[-3,-5],[0,-4],[1,-3],[12,-32],[10,-11]],[[816,3975],[9,-5],[4,-3],[3,-5],[0,-4],[-3,-6],[0,-5],[1,-6],[2,-1],[3,0],[4,-1],[8,-6],[2,-3],[-8,-3],[-1,-4],[1,-9],[0,-4],[-4,-6],[0,-3],[0,-14],[2,-5],[5,-6],[6,-5],[5,-1]],[[804,3972],[12,3]],[[869,3901],[1,-3],[-1,-9],[5,-5],[7,-3],[5,-4],[4,-12],[4,-8],[2,-5],[1,-3],[-1,-8],[0,-4],[2,-8],[2,-3],[4,-2],[1,0],[4,-2],[2,-4],[0,-5],[-1,-3],[-5,-8],[-1,-7],[3,-6],[4,-4],[5,-3],[6,-2],[15,0],[8,-2],[8,-3],[7,-1]],[[855,3870],[3,3],[2,19],[1,5],[3,3],[5,1]],[[969,3777],[4,-2],[7,-1],[6,-3],[2,-6],[2,-7],[4,-8],[12,-12],[-3,-5],[2,-5],[4,-2]],[[960,3774],[9,3]],[[1023,3744],[1,-2],[2,-7],[0,-3],[-2,-5],[-1,-2],[2,-2],[3,-3],[0,-2],[4,-3],[9,-6],[17,-8],[5,0],[9,0],[3,-1],[6,-5],[7,-4]],[[1009,3726],[5,2],[0,3],[2,10],[1,2],[6,1]],[[1089,3694],[5,-1],[2,-1],[6,-5],[2,-3],[0,-4],[-1,-9],[-1,-8],[-7,-15],[1,-7],[2,-1],[8,-3],[4,-2],[3,-4],[4,-8],[3,-4],[5,-5],[5,-5],[7,-3],[9,-1]],[[1088,3691],[0,1],[1,1],[0,1]],[[1347,3610],[52,-8],[1,-1],[20,-10],[15,-13],[6,-3],[8,-1],[5,-1],[4,0],[4,-2],[3,-3],[3,-4],[0,-4],[1,-3],[1,-4],[3,-3],[3,-1],[3,-1],[1,-4],[1,-3],[14,-10],[8,-3],[5,-1],[10,-9],[5,-2]],[[1303,3576],[4,4],[3,3],[2,4],[12,16],[0,2],[7,1],[11,3],[5,1]],[[1160,3608],[6,-2],[4,-12],[3,-1]],[[1146,3605],[14,3]],[[1196,3603],[6,-2],[6,-3],[10,-11],[4,-2]],[[1173,3593],[3,1],[2,1],[3,2],[4,4],[3,1],[8,1]],[[1231,3597],[5,-7],[22,0],[8,-11]],[[1222,3585],[3,4],[6,8]],[[1284,3584],[5,-2],[4,-3],[3,-3],[7,0]],[[1266,3579],[7,1],[11,4]],[[1589,3542],[4,-1],[7,-3],[11,-3],[4,-5],[2,-14],[2,-2],[2,-2],[2,-2],[-3,-5],[-1,-2],[1,-2],[1,-2],[8,-7],[4,-5],[2,-3],[1,-9],[3,-7],[4,-6],[4,-3],[4,-2],[4,0]],[[1571,3529],[2,0],[1,2],[2,4],[2,2],[10,5],[1,0]],[[1567,3530],[4,-1]],[[1523,3516],[25,1],[4,1],[2,2],[3,4],[8,5],[2,1]],[[1664,3461],[2,-2],[1,-4],[19,-25],[2,-3],[1,-1],[4,-1],[4,0],[3,-1],[2,-2],[0,-3],[2,-7],[5,-5],[6,-4],[7,-4]],[[1655,3457],[3,1],[3,2],[3,1]],[[1752,3416],[7,-4],[4,-3],[2,-3],[2,-4],[1,-9],[1,-2],[32,-14]],[[1733,3408],[7,2],[4,3],[4,3],[4,0]],[[1727,3409],[6,-1]],[[1722,3399],[1,7],[4,3]],[[1823,3378],[8,-1],[5,-4],[10,-12],[0,-2],[1,-4],[1,0]],[[1801,3377],[22,1]],[[1940,3358],[3,-1],[9,-10],[3,-2]],[[1939,3349],[1,9]],[[1925,3357],[4,-1],[10,-7]],[[1897,3349],[6,1],[5,3],[14,4],[3,0]],[[1853,3355],[1,0],[7,-4],[2,-1],[18,-2]],[[1848,3355],[5,0]],[[1889,3352],[8,-3]],[[1881,3348],[4,0],[4,4]],[[1959,3346],[2,0],[1,-6],[0,-25],[1,-7],[3,-5],[8,-6],[16,-18],[5,-3],[1,-1],[5,-9],[2,-2],[8,-3],[7,-5],[17,-17],[4,-3],[7,-4],[3,-3],[1,-3],[8,-25],[4,-4],[8,-1]],[[1955,3345],[4,1]],[[2349,3226],[3,-4],[0,-15],[7,-8],[16,-3],[17,-1],[12,-3],[7,-6],[3,-2],[25,-11],[27,-22],[27,-22],[13,-7],[8,-1],[2,-1],[2,-2],[2,-5],[1,-1],[4,-2],[27,-7],[7,-4],[2,-7],[1,-10],[2,-11],[3,-9],[4,-9],[3,-3],[8,-7],[1,-2],[-2,-4],[2,-2],[4,-2],[2,-1],[1,-3],[-1,-3],[-3,-7],[-4,-18],[-4,-8],[-7,-6],[-8,-2],[-3,-2],[-2,-5],[-1,-9],[-1,-9],[1,-5],[5,-8],[0,-10],[-1,-10],[1,-11],[3,-7],[20,-16],[3,-7],[6,-23],[11,-27],[2,-16],[-11,-4],[6,-13],[18,-12],[4,-8],[2,-23],[1,-32],[1,-31],[2,-31],[1,-31],[1,-25],[-1,-4],[-42,-1],[-70,-1],[19,-17],[25,-30],[39,-48],[34,-41],[5,-8],[3,-9],[5,-57],[6,-77],[5,-56],[3,-41],[2,-43],[7,-16],[11,-4],[26,0],[69,-3],[69,-3],[70,-2],[69,-3],[69,-2],[70,-3],[69,-2],[69,-3],[27,-1]],[[2312,3205],[4,2],[2,8],[5,4],[16,2],[1,1],[5,3],[4,1]],[[2240,3215],[6,0],[5,-3],[13,-2],[8,-5],[4,-2]],[[2183,3194],[17,2],[15,6],[25,13]],[[2149,3210],[2,0],[1,0],[10,-10],[4,-2],[17,-4]],[[2099,3198],[7,5],[8,3],[9,2],[26,2]],[[2288,3206],[24,-1]],[[2276,3203],[4,0],[8,3]],[[2092,3201],[7,-3]],[[2070,3196],[7,1],[8,3],[7,1]],[[3316,2155],[16,0],[3,-4],[2,-37],[-2,-5],[-8,-7],[-1,-7],[8,-14],[-5,-14],[-36,-41],[-6,-12],[-3,-13],[1,-16],[8,-29],[1,-15],[-1,-2],[-3,-7],[-1,-4],[0,-4],[4,-19],[6,-12],[2,-7],[2,-26],[2,-6],[4,-7],[2,-8],[0,-34],[3,-14],[6,-12],[14,-7],[11,-2],[4,-1],[3,-2],[7,-6],[4,-2],[3,-1],[5,-1],[4,-2],[4,-5],[6,-13],[5,-4],[5,-1],[4,-1],[4,-1],[5,-3],[10,-11],[4,-3],[13,-6],[4,-2],[16,-13],[11,-5],[13,-3],[14,-1]],[[3290,2135],[8,1],[7,4],[3,4],[5,9],[3,2]],[[3512,1687],[6,-1],[8,-3],[5,-5],[4,-9],[1,-9],[-1,-9],[1,-6],[0,-15],[1,-7],[3,-7],[3,-5],[5,-4],[5,-4],[6,-2],[-3,-13],[1,-4],[7,-8],[5,-9],[0,-7],[-12,-1],[34,-59],[19,-46],[12,-24],[15,-8]],[[3493,1683],[11,3],[8,1]],[[3644,1422],[6,-1],[3,-4],[0,-8],[-25,0],[-7,-2],[-4,-4],[-6,-19],[-17,-54],[-18,-55],[-17,-54],[-17,-54],[-4,-13],[15,-1],[3,-3],[2,-8],[2,-23],[2,-16],[-20,-2],[-6,-4],[-9,-17],[-11,-24],[-25,-51],[-25,-52],[-11,-24],[-5,-9],[-10,-21],[-9,-21],[-5,-9],[-13,-27],[3,-11],[28,-24],[29,-27],[37,-33]],[[3637,1422],[7,0]],[[570,0],[-7,4],[-34,6],[-2,2],[-4,18],[-11,12],[-16,8],[-31,9]],[[465,59],[-6,-2],[-16,-57]],[[3062,1011],[7,-2],[11,-8],[11,-7],[18,-11],[34,-21],[34,-21],[34,-21],[34,-21],[34,-20],[34,-21],[34,-21],[34,-21],[14,-9],[4,-4],[1,-6],[-1,-12],[1,-12],[6,-22],[1,-12],[-1,-8],[1,-17],[-1,-7],[-5,-21],[0,-9]],[[1801,0],[9,30],[13,43],[17,55],[12,40],[14,45],[13,42],[11,39],[12,40],[2,24],[-1,1],[0,55],[-1,37],[0,33],[0,35],[3,10],[13,20],[8,11],[7,11],[17,23],[16,23],[16,23],[17,23],[6,9],[6,10],[6,9],[6,9],[4,10],[3,5],[2,4],[5,10],[5,10],[10,28],[10,28],[10,28],[11,28],[6,19],[3,4],[6,2],[33,5],[7,2],[18,2],[17,3],[8,1],[123,26],[123,27],[123,26],[124,27],[54,11],[30,1],[69,1],[68,1],[69,0],[69,1],[29,1]],[[158,3395],[5,2],[18,44],[20,87],[1,10],[-2,8],[-6,16],[10,14],[4,7],[1,7],[-3,5],[-1,5],[0,24],[0,7],[3,7]],[[152,3396],[6,-1]],[[58,2636],[-4,0],[-4,1],[-4,2],[-5,5],[-6,3],[-5,7],[-5,14],[-1,7],[0,6],[1,8],[2,8],[1,14],[0,16],[-2,8],[-3,7],[-17,16],[-6,8]],[[0,2812],[1,1],[3,7],[0,8],[-2,7],[-2,3]],[[0,3074],[3,4],[3,7],[1,7],[-5,10],[1,7],[4,16],[3,8],[5,4],[6,4],[4,5],[7,12],[15,20],[4,7],[0,7],[-7,10],[-6,35],[0,13],[6,12],[15,25],[6,6],[12,10],[30,36],[1,3],[2,8],[2,4],[2,2],[7,4],[3,2],[14,27],[6,6],[8,1]],[[261,2376],[-16,15],[-72,69],[-8,14],[-3,4],[-3,1],[-7,4],[-5,3],[-4,4],[-3,4],[-1,4],[-1,4],[0,4],[3,16],[0,4],[-1,6],[-23,47],[-10,15],[-9,10],[-4,5],[-4,5],[-6,14],[-4,5],[-5,3],[-4,1]],[[71,2637],[-4,0],[-9,-1]],[[2748,0],[-2,13],[0,4],[1,5],[5,15],[33,143],[1,4],[2,3],[6,6],[5,4],[37,22],[2,2],[1,1],[1,2],[1,2],[0,2],[1,3],[-1,4],[-15,98],[-3,8],[-2,3],[-20,27],[-7,13],[-1,3],[0,3],[1,10],[0,3],[0,4],[-2,9],[-2,5],[-5,7],[-7,10],[-2,2],[0,2],[0,2],[7,30],[-9,7],[-26,10],[-680,198],[-33,21],[-5,5]],[[2736,4096],[3,-8],[1,-6],[1,-5],[1,-8],[4,-10],[15,-33],[2,-8],[-1,-5],[-2,-4],[-3,-4],[-4,-2],[-3,-2],[-4,-3],[-3,-4],[-2,-4],[-3,-8],[-2,-4],[-5,-5],[-5,-8],[-4,-5],[-23,-17],[-3,-3],[-2,-4],[-1,-5],[-1,-18],[2,-32],[1,-5],[3,-10],[1,-4],[0,-18],[1,-5],[2,-9],[3,-6],[4,-4],[4,-2]],[[2727,3821],[4,-1],[2,-1],[4,-4],[6,-19],[8,-17],[5,-16],[13,-18],[2,-6],[1,-5],[-1,-43],[1,-6],[2,-7],[7,-19],[8,-13],[6,-10],[0,-3],[0,-5],[-7,-14],[-24,-66],[-30,-34],[-2,-4],[-2,-4],[-4,-17],[-5,-16],[-1,-10],[-2,-8],[-3,-5],[-10,-15],[-5,-5],[-4,-3],[-4,-2],[-16,-2],[-5,-2],[-5,-2],[-6,-5],[-4,-5],[-4,-7],[-14,-15],[-4,-5],[-2,-5],[0,-4],[2,-11],[-1,-5],[-3,-7],[-24,-42],[-3,-9],[-2,-8],[-2,-11],[-3,-12],[-1,-12],[-1,-5],[-3,-8],[-4,-5],[-4,-4],[-29,-16],[-64,-44],[-13,-12],[-11,-11]],[[2713,3818],[4,0],[7,2],[3,1]],[[4096,1797],[-3,-2],[-2,-2],[-12,-14],[-3,-3],[-4,-2],[-5,-2]],[[4067,1772],[-4,1],[-4,1]],[[4059,1774],[-4,0],[-7,-8],[-8,-4],[-5,-1],[-7,-2]],[[4028,1759],[-5,1],[-14,5],[-3,0]],[[4006,1765],[-3,0],[-3,-1],[-5,-2],[-51,-4]],[[3944,1758],[-29,2]],[[3915,1760],[-3,0],[-9,-7],[-1,-2],[-1,-1],[-1,-2],[0,-5],[-1,-2],[0,-2],[-1,-1],[-1,-1],[-2,-1],[-9,-3],[-3,-2],[-1,-1],[-1,-2],[-1,-2],[-1,-2],[0,-2],[1,-9],[0,-2],[-2,-11],[0,-2],[-1,-2],[-2,-2],[-2,-1],[-5,-5],[-5,-8],[-1,-1],[-1,-1],[-2,-2],[-5,-3],[-2,-1],[-4,-3],[-5,-3],[-9,-5],[-1,-1],[-1,-2],[-1,-1],[-1,-2],[0,-2],[3,-14],[0,-2],[-1,-2],[0,-2],[-1,-1],[0,-1],[-38,-41],[-6,-3],[-9,-4],[-3,-1],[-26,-5],[-8,-2],[-11,-7],[-59,-16],[-3,-1],[-2,-2],[-1,-1],[-1,-1],[-2,-3],[-5,-13],[-4,-7],[-1,-2],[0,-2]],[[3577,1599],[-3,1],[-11,3]],[[3563,1603],[-4,-2]],[[3652,1520],[-1,0],[-1,1],[0,1],[-1,2],[0,2],[1,2],[2,6],[0,2],[0,2],[-1,2],[-1,1],[-3,4],[-2,4],[-1,1],[-2,1],[-1,0],[-8,2],[-2,1],[-1,1],[-6,4],[-4,2],[-6,4],[-1,1],[-7,2],[-1,1],[-1,1],[-1,1],[-1,1],[0,2],[0,2],[0,7],[0,1],[0,1],[-2,4],[-8,10],[-2,1],[-3,0]],[[3587,1600],[-10,-1]],[[186,1671],[-9,8],[-1,2],[-9,10],[-6,9],[-5,10],[-2,4],[-2,4],[-3,3],[-6,4],[-2,1],[-3,1],[-4,1],[-4,1]],[[130,1729],[-3,-1],[-47,-13],[-8,-4],[-43,-25],[-29,-21]],[[261,2376],[-31,-26],[-13,-17],[-11,-13],[1,-1],[1,-1],[2,-1],[1,-1],[1,-3],[-1,-6],[-2,-4],[-3,-3],[-3,-5],[-1,-5],[0,-4],[2,-9],[0,-10],[-4,-28],[1,-3],[1,-3],[6,-9],[6,-10],[11,-11],[4,-7],[0,-8],[0,-6],[0,-3],[12,-4],[1,-1],[3,-5],[8,-10],[2,-5],[-2,-48],[-5,-19],[1,-9],[4,-11],[11,-19],[3,-11],[0,-29],[0,-5],[3,-17],[0,-7],[-1,-6],[-5,-8],[-8,-6],[-10,-5],[-9,-3],[-22,-3],[-8,-4],[-8,-11],[-6,-13],[-3,-7],[-1,-7],[1,-8],[0,-3],[-1,-5],[-7,-8],[-2,-3],[-2,-8],[-1,-8],[1,-7],[6,-5],[17,-7],[4,-6],[5,-6],[5,-7],[2,-5],[2,-6],[6,-27],[-1,-12],[0,-5],[2,-4],[2,-5],[3,-3],[5,-21],[-7,-14],[2,-4],[2,-4],[3,-4],[3,-3],[1,-5],[-3,-4],[-4,-3],[-47,-25]],[[319,1504],[-21,48],[-27,43],[-19,24],[-7,6],[-59,46]],[[261,2376],[102,-104],[4,-7],[5,-17],[4,-11],[2,-4],[21,-28],[60,-64],[8,-7],[36,-24],[18,-8],[28,-10],[39,-8],[18,-1]],[[1025,2321],[5,-2],[5,-1]],[[606,2083],[11,1],[127,37],[35,17],[5,7],[6,10],[20,62],[-1,12],[2,5],[11,25],[18,30],[11,8],[138,16],[36,8]],[[208,3638],[-208,100]],[[365,3996],[10,3],[19,12],[25,3],[12,3],[2,8],[1,8],[19,5],[5,7],[-3,5],[-4,4],[-2,4],[1,9],[3,6],[13,17],[3,6]],[[340,3999],[25,-3]],[[275,3905],[6,2],[5,7],[0,9],[-2,19],[2,7],[9,10],[1,8],[-1,9],[0,10],[4,7],[8,3],[33,3]],[[262,3905],[13,0]],[[235,3886],[7,1],[5,5],[4,6],[5,5],[6,2]],[[229,3888],[6,-2]],[[205,3842],[7,2],[6,4],[5,5],[4,8],[-2,5],[-4,5],[-4,6],[0,7],[4,3],[8,1]],[[199,3842],[6,0]],[[199,3817],[-3,0],[-3,7],[-2,9],[2,8],[6,1]],[[208,3638],[6,8],[3,7],[-2,7],[-2,6],[-2,8],[3,8],[5,8],[3,8],[0,10],[-3,9],[0,8],[6,18],[2,16],[-2,19],[-5,18],[-8,15],[-6,6],[-2,2]],[[204,3819],[-1,0],[-2,-2],[-2,0]],[[1514,2293],[8,0],[1,1],[-4,2],[-4,2],[-13,3],[-4,2],[-3,2],[-10,11],[-3,5],[-2,7],[-1,6],[0,9],[-1,4],[-2,4],[-8,10],[-4,9],[-4,5],[-3,4],[-3,1],[-12,5],[-4,3],[-10,9],[-4,2],[-5,0],[-4,1],[-4,3],[-17,18],[-2,5],[-2,19],[-2,5],[-5,6],[-4,3],[-10,3],[-3,3],[-4,3],[-38,60],[-13,38],[-12,19],[-2,6],[-4,18],[1,9],[3,6],[1,7],[0,11],[-2,20],[0,44],[-8,36],[17,8],[126,37],[203,119],[322,189],[194,115],[1,0]],[[1035,2318],[479,-25]],[[1035,2318],[-3,-8],[-4,-1],[-10,0],[8,-8],[2,-4],[0,-6]],[[1028,2291],[-5,2],[-5,2]],[[1018,2295],[-5,0],[-5,-4],[6,-5],[6,-6],[4,-7],[2,-8],[0,-5],[-1,-3],[-1,-2],[-1,-2],[0,-13],[2,-8],[7,-10],[1,-6],[-1,-6],[-3,-6],[-1,-7],[3,-8],[-3,-8],[0,-6],[1,-7],[-1,-8],[-8,-10],[0,-5],[8,0],[-6,-11],[-1,-4],[1,-3],[3,-4],[1,-4],[-1,-5],[-11,-27],[-1,-1],[0,-1],[-2,-11],[-3,-3],[-9,-6],[-3,-4],[-3,-5],[-3,-6],[-1,-6],[2,-6],[3,-3],[3,-1],[3,-2],[1,-3],[-1,-3],[-13,-22],[-2,-8],[-5,-8],[0,-4],[2,-4],[5,-7],[3,-3],[0,-4],[1,-7],[8,-30],[5,-9],[35,-38],[8,-4],[8,-3],[4,-2],[4,-3],[22,-24],[6,-4],[21,-13],[10,-3],[3,-2],[13,-10],[31,-35],[16,-14],[3,-2],[1,-3],[4,-10],[3,-6],[1,-7],[-2,-7],[-2,-7],[-6,-1],[-7,-1]],[[1180,1721],[-4,2]],[[1176,1723],[-3,-1],[-8,-2],[-4,0]],[[1161,1720],[-7,1]],[[1154,1721],[-3,0],[-4,-2],[-14,-9],[-3,-3],[-2,-4],[0,-4],[1,-9],[-1,-4],[-1,-3],[-58,-86],[-8,-9],[-30,-30],[-8,-7],[-5,-6],[-2,-11],[1,-7],[2,-4],[17,-17],[5,-8],[12,-23],[7,-18],[5,-6],[3,-3],[5,-3],[2,-3],[3,-4],[5,-9],[8,-10],[5,-10],[4,-15],[6,-10],[5,-4],[2,-1],[1,-3],[0,-4],[-1,-3],[-1,-2],[0,-2],[1,-2],[4,-4],[1,-2],[0,-6],[0,-3],[1,-3],[2,-5],[2,-2],[2,-2],[2,0],[6,-3],[4,-2],[5,-4],[6,-6],[4,-3],[8,-4],[2,-1],[1,-1],[1,-2],[1,-2],[0,-2],[-1,-16],[1,-3],[0,-3],[3,-6],[0,-3],[-2,-2],[-9,-11],[-7,-12]],[[785,1340],[1,-4],[0,-4],[2,-4]],[[795,1329],[4,-1],[2,-13],[2,-3],[4,-4],[4,-4],[4,-2],[4,-3],[1,-9],[0,-11],[1,-7],[5,-6],[6,-1]],[[788,1328],[3,0],[4,1]],[[977,1316],[7,-2],[3,-2],[4,-7],[2,-3],[8,-3]],[[881,1251],[5,0],[4,4],[2,5],[3,11],[3,6],[3,4],[9,8],[13,9],[20,10],[26,7],[8,1]],[[1018,1299],[7,-4],[4,-8],[3,-4],[5,-1],[0,-2],[6,-11],[3,-4],[7,-5],[3,-4],[6,-7],[3,-2],[5,-1],[19,0]],[[1001,1299],[17,0]],[[1132,1271],[8,-2],[2,-3],[3,-9],[2,-3],[3,-4]],[[1089,1246],[5,1],[5,2],[25,19],[8,3]],[[846,1268],[7,-1],[6,-3],[17,-11],[5,-2]],[[832,1265],[14,3]],[[532,1553],[-4,1],[-4,1],[-13,1]],[[511,1556],[-14,-1],[-10,-2],[-5,-2],[-29,-21],[-8,-6],[-21,-17],[-4,-2],[-3,-1],[-5,0]],[[571,1507],[-3,0],[-2,10],[-3,3],[-3,3],[-4,1],[-5,4],[-5,8],[-5,9],[-2,8]],[[539,1553],[-7,0]],[[785,1340],[-1,3],[-2,1],[-3,1],[-13,7],[-3,4],[-2,1],[-2,1],[-6,1],[-2,1],[-11,12],[-16,27],[-13,10],[-6,4],[-6,4],[-6,6],[-4,11],[-4,7],[-9,10],[-13,8],[-6,5],[-3,7],[-22,19],[-22,13],[-7,9],[-8,1]],[[595,1513],[-24,-6]],[[372,1506],[-14,2],[-3,1],[-3,0]],[[352,1509],[-9,-1],[-24,-4]],[[412,1504],[-18,3]],[[394,1507],[-22,-1]],[[1211,400],[2,-1],[4,-5],[5,-3]],[[1190,305],[2,0],[2,1],[2,2],[2,2],[1,1],[1,2],[1,2],[1,2],[0,2],[1,8],[-1,2],[-1,6],[0,1],[1,4],[1,1],[0,2],[1,3],[2,3],[2,2],[1,3],[0,2],[-3,22],[1,10],[0,3],[1,2],[3,7]],[[1232,393],[8,0],[7,-2],[3,-2],[2,-7],[3,-2],[10,-1]],[[1222,391],[5,0],[5,2]],[[1018,386],[3,-1],[1,0],[5,-3],[2,0],[2,-1]],[[972,322],[5,2],[7,2],[5,2],[3,3],[2,2],[0,5],[1,2],[3,5],[0,2],[0,2],[0,5],[1,5],[2,5],[5,8],[4,6],[3,5],[3,2],[2,1]],[[1036,381],[2,0],[2,-1],[1,-1],[1,-2],[2,-5],[1,-2],[1,-1],[7,-4],[2,-1],[2,-3],[2,-2],[7,-8],[1,-2],[9,-19],[1,-2],[1,-1],[1,-1],[2,-1],[3,-1]],[[1031,381],[5,0]],[[1272,381],[2,-1],[-3,-4],[0,-4],[2,-4],[7,-7],[0,-1],[8,0],[34,-1],[581,0]],[[1265,379],[2,1],[5,1]],[[853,379],[2,0],[2,-1],[3,-2],[2,-1],[6,-2],[2,0]],[[825,155],[1,22],[10,76],[0,8],[0,15],[0,4],[6,21],[5,70],[1,2],[1,3],[2,2],[2,1]],[[880,376],[2,0],[1,-1],[3,-2],[12,-14],[1,0],[2,-1]],[[870,373],[2,0],[5,2],[3,1]],[[903,359],[2,0],[1,0],[2,-3],[1,-1],[2,0]],[[901,358],[2,1]],[[918,357],[2,0],[2,-1],[2,-3],[2,-1],[2,-1],[2,0]],[[911,355],[2,0],[3,1],[2,1]],[[934,352],[3,-1],[2,0],[1,-2],[1,-1],[1,-2],[0,-2],[1,-2],[2,-1],[4,-1],[2,-1],[1,-1],[1,-2],[2,-1],[0,-2],[1,-1],[2,-1],[1,-2],[6,-2],[1,-1],[2,-2],[1,-1],[1,-1],[2,0]],[[930,351],[4,1]],[[1105,328],[2,0],[5,-1],[2,-1],[3,-2],[13,-11],[14,-5],[6,-2]],[[1084,324],[3,0],[11,3],[7,1]],[[1172,309],[5,-1],[10,-3],[3,0]],[[1150,306],[22,3]],[[1150,1250],[4,-3],[4,-5],[1,-5],[0,-5],[-1,-5],[0,-6],[1,-5],[6,-10],[1,-5],[3,-10],[3,-5],[7,-6],[8,-4],[7,-5],[5,-9],[1,-5],[1,-5],[1,-5],[2,-4],[5,-3],[5,-1],[11,0],[5,-2],[4,-4],[3,-4],[4,-4],[3,-1],[2,0],[3,-1],[2,-3],[15,-53],[1,-4],[1,-4],[4,-3],[5,-2],[7,-1]],[[1325,1110],[10,-3],[7,-1]],[[1284,1053],[7,1],[5,1],[5,3],[3,3],[3,5],[2,5],[3,28],[4,7],[5,4],[4,0]],[[1365,1109],[3,-6],[-8,-63],[-1,-23],[15,-264],[2,-3],[4,-11],[1,-1],[15,-154],[5,-16],[8,-1],[23,0],[17,-4],[3,0]],[[1342,1106],[23,3]],[[1504,603],[5,-3],[5,-8],[11,-26],[3,-5],[3,-2],[3,0]],[[1452,563],[3,1],[2,1],[2,2],[7,10],[2,2],[3,3],[4,1],[7,1],[3,1],[2,1],[5,4],[2,3],[5,6],[2,3],[3,1]],[[1534,559],[392,1]],[[319,1504],[-3,-8],[-4,-3],[-4,-3],[-4,-2],[-25,-8],[-3,-6],[-2,-36],[0,-8],[2,-5],[2,-4],[3,-3],[4,-3],[12,-5],[4,-1]],[[325,1411],[4,-1],[7,-3],[4,0]],[[301,1409],[5,0],[9,2],[10,0]],[[348,1407],[8,-3],[-8,-9],[-11,-7],[-16,-8],[-9,-6],[-8,-4],[-4,-3],[-1,-3],[-1,-2],[1,-13],[0,-6],[-1,-5],[-3,-17],[-1,-4],[1,-5],[0,-1],[0,-1],[5,-7],[13,-28],[3,-4],[2,-3],[4,-3],[30,-24],[11,-6],[32,-12],[23,-2],[19,-8],[6,-4],[4,-4],[2,-4],[16,-51],[1,-2],[14,-27],[18,-24],[27,-31],[6,-12],[0,-4],[-2,-3],[-3,-3],[-5,-2],[-10,-2],[-45,-3],[-76,-6],[-9,-3],[-15,-8],[-44,-40],[-27,-20],[-14,-8],[-76,-34],[-111,-48],[-94,-40]],[[340,1407],[8,0]],[[684,1358],[-3,0],[-2,1],[-1,1],[-3,1],[-4,1],[-1,1],[-1,1],[-1,3],[-1,1],[-2,1]],[[665,1369],[-2,0],[-2,-1],[-2,-1],[-1,-2],[-1,-3],[3,-14],[0,-3],[0,-2],[1,-3],[4,-4],[2,-2],[3,-2],[8,-3],[3,-3],[2,-3],[0,-4],[-2,-18],[0,-16],[8,-41],[0,-2],[-2,-3],[-3,-4],[-8,-7],[-2,-2],[-1,-2],[-1,-2],[-1,-2],[1,-3],[1,-2],[2,-1],[2,0]],[[711,1346],[-3,0],[-2,1],[-1,1],[-1,2],[-1,3],[-1,1],[-1,2],[-2,1],[-2,1],[-3,0]],[[694,1358],[-10,0]],[[773,1337],[-5,0],[-9,4],[-27,9],[-3,2],[-1,0],[-1,1]],[[727,1353],[-2,-1],[-2,0],[-10,-5],[-2,-1]],[[785,1340],[-12,-3]],[[746,1241],[2,-1],[2,-1],[2,0],[2,-2],[1,-2],[1,-2],[1,-4],[-1,-4],[-1,-4],[-4,-7],[-3,-3],[-2,-2],[-6,-3],[-13,-12],[0,-1],[-1,-2],[-1,-3],[1,-4],[1,-3],[1,-1],[3,-2],[3,-3],[1,-2],[1,-2],[1,-2],[0,-2],[1,-5],[1,-4],[0,-2],[0,-2],[-1,-2],[-5,-4],[-2,-3],[-10,-15],[-6,-10],[-1,-2],[0,-2],[-1,-1],[0,-1],[0,-1],[7,-19],[6,-10],[12,-8],[2,-2],[2,-3],[2,-5],[1,-10],[2,-4],[5,-5],[10,-7],[8,-12],[4,-5],[18,-12],[6,-5],[6,-4],[16,-3],[6,-4],[6,-4],[22,-12],[9,-3]],[[677,1214],[2,0],[2,0],[39,20],[8,3],[16,3],[2,1]],[[923,986],[10,-2],[6,-5],[6,-8],[4,-8],[2,-8]],[[884,976],[29,10],[10,0]],[[873,980],[1,-1],[1,-2],[1,0],[8,-1]],[[863,976],[7,2],[3,2]],[[952,955],[2,-3],[3,-3],[1,-2],[0,-3],[0,-4],[-2,-6],[-1,-8],[0,-7],[2,-7],[4,-8],[31,-40],[8,-15],[2,-8],[-3,-5],[-12,-17],[-29,-30],[-68,-38],[-6,-1],[-38,-4],[-8,-2],[-11,-1],[-7,-3],[-1,-1],[-8,-5],[-6,-6],[-1,-1],[-2,-1],[-4,-1],[-2,-2],[-1,-2],[0,-8],[0,-2],[2,-7],[-2,-6],[-9,-13],[-3,-4],[-2,-3],[-1,-3],[-4,-13],[0,-4],[0,-13],[1,-8],[25,-101],[-27,-65],[-2,-6],[-4,-21],[-3,-7],[-10,-16],[-2,-48],[-16,-53],[0,-8],[0,-5],[1,-4],[1,-4],[0,-2],[-4,-40],[1,-9],[0,-2],[6,-15],[52,-54],[30,-22]],[[951,955],[1,0]],[[825,155],[0,-12],[-1,-4],[-1,-4],[-6,-17],[-5,-8],[-4,-6],[-2,-1],[-1,-2],[-1,-4],[-1,-11],[-1,-3],[-2,-3],[-4,-3],[-2,-6],[-3,-18],[3,-2],[2,-1],[1,-1],[2,-2],[2,-3],[2,-3],[4,-3],[3,-3],[5,-9],[10,-17],[4,-6],[3,-3]],[[223,1138],[6,-12],[1,-14],[-7,-27],[-5,-11],[-8,-8],[-20,-12],[-7,-7],[-3,7],[-12,11],[-3,9],[0,16],[-1,2],[-3,4],[-1,2],[1,1],[1,1],[1,2],[0,2],[-5,12],[-2,7],[-1,13],[-2,6],[0,3],[-1,1],[-1,1],[-1,1],[0,2],[1,2],[1,2],[2,0],[1,0],[-2,8],[-4,6],[-18,13],[-15,8],[-6,4],[-4,4],[1,2],[3,4],[3,4],[7,3],[7,5],[4,1],[3,1],[1,3],[0,3],[-3,9],[-2,3],[-1,0],[-5,0],[-1,0],[-1,1],[1,5],[0,2],[-9,4],[-3,2],[-12,1],[-3,1],[-2,3],[-4,4],[-4,16],[9,11],[28,15],[5,6],[6,8],[4,8],[4,16],[4,4],[4,3],[5,4],[6,13],[1,17],[-2,18],[-5,15],[-17,14],[-3,0],[-3,4],[-17,16],[-15,5],[0,3],[2,5],[2,4],[2,1],[7,2],[3,5],[2,6],[5,6],[6,3],[9,3],[9,2],[7,-2],[3,-3],[8,-4],[4,-3],[0,-4],[-3,-5],[-6,-8],[-11,-27],[0,-6],[16,-20],[2,-1],[3,0],[2,-1],[0,-4],[-4,-9],[-6,-68],[-5,-13],[1,-5],[-8,-15],[-8,-33],[1,-7],[2,-4],[1,0],[2,1],[5,0],[8,-3],[5,-3],[4,-7],[11,-9],[4,-6],[13,-49],[7,-14],[18,-21]],[[585,3424],[2,-4],[2,-7],[0,-4],[-3,-3],[-5,-3],[-1,-3],[-6,-41],[-1,-3],[-4,-2],[-17,1],[-8,2],[-2,2],[-3,3],[-3,18],[1,4],[0,5],[-1,5],[-3,7],[0,5],[1,5],[1,4],[2,3],[12,9],[18,9],[4,1],[3,0],[2,-1],[4,-6],[3,-3],[2,-3]],[[737,3408],[1,-3],[0,-2],[0,-1],[-2,-1],[-5,-2],[-2,-1],[-1,-2],[2,-4],[1,-3],[-2,-2],[-1,-1],[-3,0],[-18,7],[-3,4],[-10,14],[-2,5],[2,3],[2,3],[2,4],[-3,14],[0,9],[-1,5],[-6,5],[-2,4],[-1,6],[-2,6],[1,5],[-1,5],[1,4],[1,4],[2,2],[2,0],[2,0],[10,-7],[15,-3],[3,-1],[2,-3],[-1,-8],[2,-11],[2,-3],[3,-1],[3,0],[2,-2],[1,-2],[-2,-3],[-1,-4],[1,-8],[-1,-3],[1,-4],[5,-6],[2,-3],[-3,-7],[1,-4],[1,-4]],[[2261,1703],[2,-4],[0,-17],[2,-10],[-2,-3],[-4,7],[-6,21],[-8,13],[-4,0],[-2,-3],[4,-18],[-6,-11],[-2,-2],[-18,0],[-6,2],[-8,0],[-2,2],[-6,9],[-6,4],[2,4],[6,2],[2,4],[4,2],[12,0],[14,9],[16,6],[12,2],[-4,-8],[2,-4],[4,-3],[2,-4]],[[3558,1681],[4,-2],[1,-2],[-2,-3],[-3,-1],[-2,-3],[-15,-18],[-2,-3],[-2,-3],[-1,-2],[-4,2],[-2,2],[-2,3],[-1,4],[2,3],[1,5],[-3,6],[-6,4],[-11,6],[-5,8],[-2,8],[4,4],[11,0],[21,4],[19,9],[-3,-8],[-2,-2],[-6,-7],[-5,-6],[0,-6],[6,-5],[3,1],[3,1],[4,1]],[[182,623],[13,-25],[2,-13],[-8,-6],[-29,-7],[-10,-6],[-5,-8],[-10,-32],[-8,-17],[-8,-4],[-22,1],[-12,-5],[-4,-8],[-3,-10],[-6,-10],[-12,-5],[-13,2],[-29,13],[-12,10],[-6,11],[0,297],[2,9],[-2,8],[0,34],[9,-3],[12,-1],[16,1],[41,-12],[12,-8],[6,-8],[14,-48],[12,-67],[1,-29],[3,-10],[6,-9],[7,-8],[8,-4],[9,-3],[10,-5],[10,-7],[6,-8]],[[182,623],[13,-25],[2,-13],[-8,-6],[-29,-7],[-10,-6],[-5,-8],[-10,-32],[-8,-17],[-8,-4],[-22,1],[-12,-5],[-4,-8],[-3,-10],[-6,-10],[-12,-5],[-13,2],[-29,13],[-12,10],[-6,11]],[[0,801],[2,9],[-2,8]],[[0,852],[9,-3],[12,-1],[16,1],[41,-12],[12,-8],[6,-8],[14,-48],[12,-67],[1,-29],[3,-10],[6,-9],[7,-8],[8,-4],[9,-3],[10,-5],[10,-7],[6,-8]],[[3558,1681],[4,-2],[1,-2],[-2,-3],[-3,-1],[-2,-3],[-15,-18],[-2,-3],[-2,-3],[-1,-2],[-4,2],[-2,2],[-2,3],[-1,4],[2,3],[1,5],[-3,6],[-6,4],[-11,6],[-5,8],[-2,8],[4,4],[11,0],[21,4],[19,9],[-3,-8],[-2,-2],[-6,-7],[-5,-6],[0,-6],[6,-5],[3,1],[3,1],[4,1]],[[2261,1703],[2,-4],[0,-17],[2,-10],[-2,-3],[-4,7],[-6,21],[-8,13],[-4,0],[-2,-3],[4,-18],[-6,-11],[-2,-2],[-18,0],[-6,2],[-8,0],[-2,2],[-6,9],[-6,4],[2,4],[6,2],[2,4],[4,2],[12,0],[14,9],[16,6],[12,2],[-4,-8],[2,-4],[4,-3],[2,-4]],[[585,3424],[2,-4],[2,-7],[0,-4],[-3,-3],[-5,-3],[-1,-3],[-6,-41],[-1,-3],[-4,-2],[-17,1],[-8,2],[-2,2],[-3,3],[-3,18],[1,4],[0,5],[-1,5],[-3,7],[0,5],[1,5],[1,4],[2,3],[12,9],[18,9],[4,1],[3,0],[2,-1],[4,-6],[3,-3],[2,-3]],[[737,3408],[1,-3],[0,-2],[0,-1],[-2,-1],[-5,-2],[-2,-1],[-1,-2],[2,-4],[1,-3],[-2,-2],[-1,-1],[-3,0],[-18,7],[-3,4],[-10,14],[-2,5],[2,3],[2,3],[2,4],[-3,14],[0,9],[-1,5],[-6,5],[-2,4],[-1,6],[-2,6],[1,5],[-1,5],[1,4],[1,4],[2,2],[2,0],[2,0],[10,-7],[15,-3],[3,-1],[2,-3],[-1,-8],[2,-11],[2,-3],[3,-1],[3,0],[2,-2],[1,-2],[-2,-3],[-1,-4],[1,-8],[-1,-3],[1,-4],[5,-6],[2,-3],[-3,-7],[1,-4],[1,-4]],[[223,1138],[6,-12],[1,-14],[-7,-27],[-5,-11],[-8,-8],[-20,-12],[-7,-7],[-3,7],[-12,11],[-3,9],[0,16],[-1,2],[-3,4],[-1,2],[1,1],[1,1],[1,2],[0,2],[-5,12],[-2,7],[-1,13],[-2,6],[0,3],[-1,1],[-1,1],[-1,1],[0,2],[1,2],[1,2],[2,0],[1,0],[-2,8],[-4,6],[-18,13],[-15,8],[-6,4],[-4,4],[1,2],[3,4],[3,4],[7,3],[7,5],[4,1],[3,1],[1,3],[0,3],[-3,9],[-2,3],[-1,0],[-5,0],[-1,0],[-1,1],[1,5],[0,2],[-9,4],[-3,2],[-12,1],[-3,1],[-2,3],[-4,4],[-4,16],[9,11],[28,15],[5,6],[6,8],[4,8],[4,16],[4,4],[4,3],[5,4],[6,13],[1,17],[-2,18],[-5,15],[-17,14],[-3,0],[-3,4],[-17,16],[-15,5],[0,3],[2,5],[2,4],[2,1],[7,2],[3,5],[2,6],[5,6],[6,3],[9,3],[9,2],[7,-2],[3,-3],[8,-4],[4,-3],[0,-4],[-3,-5],[-6,-8],[-11,-27],[0,-6],[16,-20],[2,-1],[3,0],[2,-1],[0,-4],[-4,-9],[-6,-68],[-5,-13],[1,-5],[-8,-15],[-8,-33],[1,-7],[2,-4],[1,0],[2,1],[5,0],[8,-3],[5,-3],[4,-7],[11,-9],[4,-6],[13,-49],[7,-14],[18,-21]],[[2039,4096],[0,-2],[0,-9]],[[2039,4085],[0,-11],[0,-11],[3,-10],[6,-9],[7,-8],[8,-6],[13,-6],[11,-3],[15,0],[13,3],[9,-3],[9,-11],[6,-5],[12,-3],[27,-2],[15,2]],[[2193,4002],[8,1],[4,-3],[16,-9],[10,-11],[24,-19],[33,-25],[3,-5],[8,-17]],[[2299,3914],[6,-10]],[[2305,3904],[7,-6],[8,-3],[16,-13],[5,-6],[12,-22],[18,-20],[4,-8],[6,-17],[8,-16],[7,-9],[12,-7],[9,-1],[27,-3],[5,-2],[3,-5],[4,-14],[3,-8],[9,-14],[8,-22],[6,-11],[15,-14],[1,-3],[0,-16],[2,-9],[6,-16],[4,-8],[11,-11],[6,-3],[15,-1],[4,-5],[9,-14],[11,-6],[16,0],[11,-5],[3,-5],[6,-20],[6,-10],[15,-25],[4,-5],[5,-3],[32,-3]],[[2664,3515],[19,-3],[3,-3]],[[2686,3509],[3,-3],[3,-17],[2,-22],[4,-21],[8,-16],[9,-11],[7,-7],[9,-4],[9,-6],[15,-15],[3,-5],[6,-16],[2,-28],[7,-17],[2,-18],[-5,-19],[0,-10],[3,-18],[8,-41],[4,-14]],[[2785,3201],[5,-20],[1,-13],[3,-7],[3,-18]],[[4096,2790],[-4,-5],[-14,-7],[-6,-7],[-1,-6],[-2,-13]],[[4069,2752],[-1,-7],[-2,-4],[-6,-3],[-12,-1],[-12,-10],[0,-3],[0,-22]],[[937,2699],[10,-3],[14,-11],[4,-2],[8,-12],[9,-6],[9,-8],[12,-14]],[[932,2696],[-15,-8],[-12,0],[-13,-1],[-20,0],[-9,0],[-6,0],[-12,-5],[-11,-5],[-16,0],[-32,-5],[-25,-9],[-8,-3],[-7,-5],[-15,-6],[-12,-8],[-11,-3],[-15,3],[-13,0],[-8,-2],[-12,0],[-10,4],[-17,7],[-15,0],[-16,0],[-9,0],[-9,5],[-21,16],[-17,8],[-4,0],[-26,3],[-13,-2],[-20,-4],[-10,-5],[-21,-5],[-61,2],[-21,3],[-21,12],[-30,2],[-9,5],[-12,-2],[-10,2],[-11,3],[-6,3]],[[4036,2702],[-1,-4],[-5,-8],[-23,-25],[-4,-10],[-2,-9],[0,-16],[-3,-11],[-1,-14],[-2,-22]],[[2819,3053],[-2,6],[-5,10],[-1,10]],[[2837,2960],[1,3],[0,8],[-5,22],[0,11],[-1,7]],[[2811,3079],[0,8],[-2,9],[-9,33],[-3,14]],[[2832,3011],[-2,7],[-4,12],[-7,23]],[[2974,2552],[-4,9],[-8,14],[-4,13],[0,11],[1,6],[12,28],[6,17],[5,24],[1,16],[0,8],[-4,15],[-6,16],[-12,17],[-8,14],[-10,11],[-12,10],[-24,22],[-14,11],[-9,9],[-7,10],[-12,21],[-12,16],[-9,14],[-6,14],[-5,16],[0,21],[4,25]],[[3185,2395],[-14,9],[-10,5],[-18,6],[-20,5],[-17,4],[-10,8],[-24,22],[-9,3],[-9,18],[-6,6],[-6,5],[-20,9],[-6,6],[-16,27],[-12,8],[-5,3],[-9,13]],[[3995,2583],[2,-11],[1,-8],[6,-11],[19,-14],[3,-5],[4,-20],[6,-9],[9,-15],[15,-12],[11,-13],[13,-9],[3,-5],[-1,-14],[4,-9],[6,-2]],[[4096,2384],[-18,-7],[-3,-1]],[[271,2696],[-3,-6],[-4,-5],[-15,-20],[-11,-11],[-15,-18],[-6,-12],[-6,-14],[-3,-11],[0,-13],[0,-16],[-3,-4],[-6,-3],[-1,-8],[-6,-3],[-14,-5],[-9,-5],[-3,-5],[-7,-4],[-2,-11],[-6,-11],[2,-10],[7,-6],[3,-6],[-1,-6],[-3,-7],[-11,-3],[-16,-1],[-8,-4],[-3,-7],[0,-11],[-6,-5],[-16,-6],[-21,-4],[-9,0],[-9,5],[-8,6],[-7,11],[-5,5],[-12,0],[-3,-6],[2,-8],[-6,-14],[0,-8],[3,-17],[0,-5],[-5,-5],[-9,-4],[-6,-5],[-3,-8],[2,-9],[-2,-10],[-1,-3]],[[3276,2321],[-18,6],[-18,11],[-18,16],[-9,6],[-10,10],[-6,9],[-5,9],[-7,7]],[[3501,2322],[-10,2],[-12,8],[-11,0],[-15,-8],[-18,0],[-7,-3]],[[3326,2329],[-14,-2],[-19,-9],[-5,-2],[-12,5]],[[3428,2321],[-9,-3],[-12,-3],[-12,0],[-26,7],[-16,-1],[-9,3],[-18,5]],[[4075,2376],[-15,3],[-7,-5],[-6,-1],[-12,0],[-14,-3],[-11,-5],[-9,-3],[-10,-8],[-9,-2],[-12,-6],[-18,-9],[-15,0],[-5,-2],[-7,-8],[-8,-3],[-9,-2],[-9,-4],[-4,-3],[-18,-2],[-8,-3],[-10,-8],[0,-11],[-6,-8],[-8,0]],[[3555,2246],[-4,4],[-6,16],[-9,19],[-17,26],[-10,8],[-8,3]],[[3845,2283],[-25,0],[-20,-1],[-13,0],[-14,-3],[-7,-4],[-29,-22],[-9,-11],[-7,-20],[-5,-6],[-10,-7],[-11,-11],[-12,-14],[-1,-9],[0,-19],[-3,-9],[-9,-8],[-6,1],[-6,5],[-8,8],[-6,3],[-12,-1],[-10,6],[-8,0],[-10,3],[-12,-2],[-8,7],[-1,6],[1,9],[5,7],[1,11],[2,9],[-2,6],[-10,8],[-19,8],[-3,3],[-3,10]],[[1003,2643],[4,0],[5,4],[25,10],[27,14],[12,3],[14,3],[15,0],[6,-1],[3,-5],[4,-14],[9,-11],[5,-5],[12,-8],[27,-30],[3,-3],[7,-1],[17,3],[9,0],[7,-2],[8,-4],[12,-11],[12,-2],[16,-6],[15,-11],[12,-8],[16,-8],[10,-3],[9,-8],[11,-19],[15,-12],[6,-14],[13,-18],[5,-4],[10,-5],[9,-5],[8,-11],[15,-30],[3,-6],[7,-5],[9,-12],[23,-13],[10,-9],[12,-16],[12,-9],[6,-10],[12,-23],[5,-7],[12,-9],[10,-3],[18,2],[12,-2],[9,-3],[8,-8],[21,-31],[9,-16],[9,-17],[9,-24],[1,-9],[9,-16],[17,-22],[18,-30],[6,-16],[27,-14],[10,-9],[23,-14],[10,5],[11,0],[5,-5],[15,-16],[16,-11],[20,-11],[1,-3],[0,-9],[-6,-16],[-22,-41],[-8,-14],[-6,-19],[2,-12],[6,-19],[6,-21],[-2,-9],[-6,-11],[-6,-5],[-16,-11],[-16,-11],[-22,-20],[-8,-5],[-19,-9],[-15,-8],[-12,-2],[-41,-15],[-15,-4],[-10,-3],[-32,-4],[-16,-5],[-20,-8]],[[495,1732],[-12,5],[-22,0],[-12,-1],[-11,-4]],[[438,1732]],[[0,1718],[4,-3]],[[512,1710],[-11,15],[-6,7]],[[530,1690],[-9,9],[-9,11]],[[1537,1748],[6,-8],[15,-23],[3,-8],[9,-22]],[[416,1678],[-3,-5]],[[438,1732],[-6,-3],[-4,-6],[-3,-14],[-6,-27],[-3,-4]],[[1570,1687],[6,-21],[3,-21]],[[1570,1687],[-9,-5],[-3,-5],[0,-11],[2,-7],[10,-10],[9,-4]],[[4,1715],[8,-5],[21,-15],[25,-16],[5,-5],[28,-20],[11,-11],[1,-2]],[[169,1634],[-9,0],[-9,4],[-28,0],[-20,3]],[[310,1640],[-12,-5],[-18,-5],[-3,-9],[-6,-2],[-6,4],[-15,15],[-4,0],[-9,-3],[-6,2],[-11,6],[-10,0],[-9,-3],[-17,-5],[-15,-1]],[[413,1673],[-7,-2]],[[406,1671],[-15,-5],[-7,-4],[-2,-11],[-4,-5],[-2,-14],[-1,-5],[-5,-1],[-10,-2],[-9,-6],[-8,8],[-7,3],[-6,0],[-6,3],[-8,8],[-6,0]],[[530,1690],[7,-3],[14,-2],[16,2],[15,0],[9,1],[12,-6],[8,0],[10,11],[23,16],[4,1],[14,2],[27,-5],[21,-3],[10,0],[17,2],[4,0],[9,-5],[18,-11],[9,-11],[17,-13],[12,-6],[15,-6],[9,-5],[6,-8],[23,-9],[7,-8],[18,-12],[6,-7],[3,-11],[5,-3],[6,0],[7,10],[8,1],[19,-1],[9,3],[12,-2],[11,-6],[1,-8]],[[1998,1643],[-28,-2],[-21,-4],[-14,-2],[-13,2],[-12,-7],[-17,-3],[-18,-1],[-21,1],[-24,0],[-19,-4],[-36,-4],[-20,0],[-35,-3],[-18,-1],[-15,-5],[-7,-3],[-15,-10],[-6,-3],[-17,-6]],[[1605,1578],[-5,-1],[-22,-3]],[[1642,1588],[-16,-5],[-21,-5]],[[1578,1603],[0,-4],[-2,-22],[2,-3]],[[1579,1645],[-1,-26],[0,-16]],[[2467,1560],[-12,6],[-47,16],[-37,4],[-12,5],[-18,14],[-14,5],[-21,0],[-12,2],[-18,6],[-9,6],[-7,3],[-29,11],[-15,8],[-18,11],[-26,3],[-7,3],[-11,8],[-6,2],[-7,-2],[-12,-9],[-21,-10],[-9,-1],[-24,-2],[-12,0],[-14,3],[-10,0],[-12,-4],[-15,-5],[-14,0]],[[1555,1561],[23,13]],[[1542,1552],[6,5],[7,4]],[[971,1588],[3,-3],[9,-6],[5,-8],[6,-3],[7,1],[9,-9],[5,1],[4,7],[11,-2],[9,-3],[7,-5],[2,-5],[0,-7],[1,-8],[3,-2],[15,0],[8,-1],[9,1],[9,-3]],[[103,1641],[12,-22],[11,-33],[3,-12],[3,-5],[7,-26],[6,-18]],[[1093,1533],[0,-5],[6,-6],[1,-9],[6,-8],[6,-17],[11,-7],[1,-8],[5,-4],[9,0],[6,-3],[10,-8],[14,-8],[10,-2],[5,3],[4,5]],[[179,1459],[-7,-9],[-1,-11]],[[145,1525],[8,-9],[22,-19],[6,-9],[2,-7],[-2,-20],[-2,-2]],[[1187,1456],[5,6],[6,0],[21,0],[9,0],[6,4],[4,6],[5,12],[9,10],[9,3],[7,0],[6,-8],[-1,-9],[4,-7],[8,-9],[9,-16],[3,-3],[14,-1],[18,-8],[15,-2],[12,-9],[7,0],[6,11],[3,3],[11,3],[13,-2],[30,-7],[9,-2],[6,3],[15,11],[9,2],[5,3],[19,25],[11,16],[6,9],[3,11],[3,17],[3,5],[10,8],[17,11]],[[171,1439],[9,-3],[1,-4]],[[181,1432],[2,-2],[4,-21],[5,-20],[3,-18],[0,-20],[1,-19],[3,-9],[5,-16],[1,-8],[6,-15],[11,-16],[9,-22],[7,-24],[3,-14],[17,-42],[1,-3],[6,-2]],[[1542,1552],[0,-14],[3,-17],[7,-21],[11,-14],[1,-5],[6,-28],[0,-9],[-3,-19],[2,-25],[-5,-19],[5,-13],[0,-8],[-5,-17],[3,-12],[0,-10],[-3,-15],[-1,-7],[-5,-26],[-4,-21],[-9,-19],[-6,-15],[-14,-18],[-3,-4],[-22,-14],[-3,-7],[-2,-12],[-7,-7],[-2,-4],[3,-8]],[[3522,1127],[9,6],[12,1],[6,-1],[15,-10]],[[2467,1560],[34,-11],[21,-8],[17,0],[7,5],[15,12],[6,0],[12,-3],[6,-6],[3,-5],[6,-19],[5,-4],[12,-7],[12,-3],[18,-3],[10,-3],[13,-10],[16,-18],[18,-16],[18,-16],[9,-6],[5,-14],[25,-17],[18,-15],[35,-22],[27,-7],[9,-5],[19,-11],[9,-8],[18,-6],[14,-8],[18,-13],[13,-6],[14,-5],[15,2],[19,0],[20,-3],[22,-10],[12,-4],[8,-7],[16,-15],[11,-3],[25,-4],[14,0],[6,-1],[5,-3],[13,-14],[5,-4],[49,-9],[11,-9],[7,-11],[8,-11],[13,-7],[17,-3],[12,2],[3,-5],[19,-16],[12,-6],[18,-5],[35,-15],[9,-7],[15,-9],[15,-5],[13,0],[23,-6],[15,-3],[13,0],[30,1],[38,7],[7,8]],[[3564,1123],[22,-9],[9,-11],[9,-14],[1,-9]],[[831,1095],[-7,7],[-3,4]],[[1114,1021],[-3,13],[-5,9],[-9,11],[-6,2],[-15,-2],[-13,2],[-3,2],[-6,9],[-18,0],[-12,-3],[-8,3],[-9,11],[-10,6],[-6,0],[-14,-9],[-9,-3],[-10,0],[-8,-7],[-1,-4],[-9,-3],[-29,-5],[-12,-3],[-18,0],[-9,3],[-16,1],[-5,5],[-5,6],[-4,13],[-5,11],[-6,6]],[[1165,996],[-15,2],[-17,6],[-16,11],[-3,6]],[[1489,1144],[2,-11],[-5,-17],[-4,-5],[-11,-9],[-7,-8],[-6,-11],[0,-11],[3,-22],[0,-16],[-2,-13],[-1,-4],[-5,-24],[-1,-11],[-6,-17],[-5,-5],[0,-4]],[[265,1161],[20,2],[12,8],[13,1],[5,-1],[9,-8],[7,-8],[3,-13],[5,-6],[7,-6],[5,-10],[6,-17],[6,-8],[10,-8],[25,-11],[10,-6],[12,-1],[6,1],[15,3],[17,-3],[12,0],[6,-3],[13,-11],[11,-9],[10,-15],[6,-12],[9,-11],[12,-22],[6,-6],[6,-3],[15,1],[6,-1],[18,-18],[14,-11],[19,-12]],[[713,910],[-12,6],[-12,11],[-17,8],[-12,2],[-10,-7],[-5,-4],[-7,-18]],[[621,937],[11,-13],[6,-16]],[[821,1106],[-2,-4],[0,-10]],[[819,1092],[0,-14],[-7,-17],[0,-5],[4,-5],[17,-12],[9,-11],[8,-8],[3,-6],[1,-8],[-3,-6],[-6,-10],[-3,-14],[-5,-36],[-4,-10],[-15,-9],[-8,-13],[-12,-7],[-15,-5],[-15,-2],[-9,3],[-6,7],[-7,3],[-26,1],[-7,2]],[[638,908],[4,-15]],[[3605,1080],[-1,-7],[-6,-11],[-12,-14],[-5,-12],[0,-11],[8,-16],[9,-11],[30,-33],[15,-13],[34,-25],[23,-14],[30,-14],[16,-6],[35,-10],[13,-4],[24,-13],[5,-3]],[[1441,956],[2,-18],[-3,-12],[-6,-14],[0,-24],[-5,-8],[0,-12],[2,-40]],[[1431,828],[-8,4],[-4,3],[-12,15],[-6,0]],[[642,893],[0,-16],[3,-41],[5,-17],[0,-6],[3,-11],[3,-7],[4,-3],[8,-1],[15,3],[16,-2],[12,-3]],[[1401,850],[-2,-6],[2,-8],[0,-23],[-5,-5],[-10,-3],[-3,-3],[-9,-14],[-3,-11],[-9,-2],[-5,3],[-15,19],[-1,5],[0,11],[-3,8],[-3,4],[-8,0],[-6,-3],[-4,-9],[-9,-7],[-8,2],[-14,3],[-19,0],[-5,3],[3,13],[2,9],[-3,21],[-5,12],[-12,11],[-3,5],[0,8],[-1,6],[-11,8],[-7,5],[-5,4],[-4,10],[-6,20],[0,8],[-6,9],[-17,8],[-4,5],[-11,16],[-7,4]],[[711,789],[23,-4],[9,-4],[9,-6],[6,-8],[4,-3],[8,-6],[12,-17],[4,-10],[5,-12]],[[3823,863],[46,-53],[3,-5],[6,-16],[8,-28],[7,-22],[9,-11],[15,-16]],[[3917,712],[11,-11],[10,-8],[20,-11],[18,-6],[24,-4],[26,-8],[9,-5],[15,-11]],[[1536,580],[-9,-1],[-44,8],[-10,3],[-2,5],[-1,20],[-3,19],[-14,30],[-6,12],[-3,14],[0,18],[5,11],[-3,14],[-3,6],[3,9],[0,11],[-3,13],[-5,11],[-3,14],[-4,19],[0,12]],[[4050,648],[13,-9],[23,-13],[10,-5]],[[1536,580],[9,-4],[3,-5],[1,-8],[0,-19],[-4,-25]],[[1944,540],[12,-8],[9,-11],[24,-21],[15,-15],[15,-13]],[[1545,519],[10,-8],[12,-12],[11,-11],[10,-8],[8,-8],[3,-9],[0,-16],[4,-1],[20,12],[7,6],[5,11],[4,8],[5,3],[10,2],[21,1],[6,2],[11,8],[3,5],[6,3],[33,3],[12,1],[4,0],[31,-3],[16,0],[18,11],[6,2],[8,0],[9,-6],[9,-2],[10,-6],[9,-3],[14,0],[12,6],[7,8],[3,6],[8,3],[19,6],[15,7]],[[791,719],[4,-11],[0,-7],[-4,-11],[3,-4],[10,-4],[6,-12],[14,-5],[13,-14],[14,-5],[5,-4],[-2,-8],[0,-8],[5,-14],[4,-8],[2,-8],[-2,-8],[2,-11],[0,-9],[-6,-14],[-2,-6],[0,-10],[-1,-9],[-8,-16],[-15,-14],[-3,-5],[-5,-17],[2,-22],[-3,-14],[1,-27],[-1,-25],[-2,-8],[2,-16],[4,-23],[2,-27],[-3,-48],[1,-7]],[[1545,519],[-11,-9],[-3,-5],[-4,-12],[-2,-16],[3,-13],[0,-12],[-1,-10],[-9,-11],[-3,-6],[-5,-11],[0,-14],[-3,-19],[0,-16],[-3,-9],[-1,-16],[-9,-39],[-2,-23],[-1,-4],[-11,-18]],[[2019,472],[2,-12],[3,-11],[6,-11],[10,-18],[11,-20],[10,-19],[5,-5],[16,-25],[8,-12],[13,-28],[8,-10],[27,-42],[10,-11],[18,-11],[23,-17],[27,-18]],[[828,260],[6,-6],[8,-3],[11,-3],[13,-11],[9,-17],[11,-7],[9,-1],[6,-8],[7,-2],[8,-6],[1,-9],[-1,-21]],[[1057,135],[-12,0],[-12,8],[-9,3],[-5,4],[-16,7],[-3,4],[4,16],[-3,2],[-4,0],[-21,-5],[-8,3],[-9,-11],[-4,-1],[-8,3],[-7,0],[-20,-2],[-4,0]],[[916,166],[-3,-9],[-6,-11],[-11,-7],[-4,-15],[-6,-14],[-5,-11],[-12,-29],[-3,-12],[-6,-5],[-10,0],[-8,-5],[-14,-1],[-16,1],[-5,-1],[-9,-6],[-10,0],[-11,-7],[-10,0],[-5,0],[-10,-15],[-11,0],[-7,-2]],[[1057,135],[7,-10],[-1,-25],[0,-15],[-2,-4],[-12,-9],[-6,-6],[2,-7],[0,-9],[-6,-13],[-8,-4],[-13,-11],[-2,-6]],[[1480,256],[-7,-18],[-2,-14],[0,-26],[2,-8],[6,-21],[4,-15],[2,-10],[-5,-15],[-15,-16],[-18,-16],[-4,-8],[-5,-11],[-4,-28],[-8,-17],[-15,-25]],[[2216,202],[14,-8],[31,-22],[11,-7],[31,-22],[23,-16],[24,-16],[13,-9],[14,-10],[16,-17],[12,-3],[8,-6],[13,-13],[14,-12],[13,-10],[6,-5],[9,-12],[11,-11],[3,-3]],[[734,17],[-6,-3],[-6,-6],[-3,-5],[-1,-3]],[[1016,16],[2,-4],[10,-9],[2,-3]],[[0,4096],[4096,0],[0,-4096],[-3873,0],[-223,0],[0,1171],[0,2925]],[[924,3815],[50,52],[69,-58],[13,34],[48,-12],[-10,-49],[-56,-40],[-30,7],[-9,-25],[-75,91]],[[964,4095],[1,1],[11,0],[-12,-1]],[[2436,3613],[66,1],[-4,-35],[70,1],[1,-116],[-63,41],[-69,-10],[-1,118]],[[2479,1301],[103,-10],[104,-298],[-175,-47],[-8,101],[85,97],[-106,92],[-3,65]],[[1851,1120],[0,72],[106,137],[34,-24],[199,233],[145,1],[86,-187],[58,-51],[-408,41],[129,-136],[-98,-130],[-29,22],[-170,-189],[0,137],[-52,74]],[[209,2258],[21,26],[67,-49],[5,27],[35,-68],[27,0],[24,-51],[37,-7],[112,-106],[29,-58],[-40,-86],[-17,31],[-22,-11],[-15,50],[55,-26],[-36,39],[20,27],[-20,57],[-28,0],[23,-56],[-57,-1],[0,-19],[-96,33],[-76,92],[-48,156]],[[3016,4096],[0,-37],[-74,19],[-13,18],[87,0]],[[2535,4083],[4,13],[388,0],[15,-18],[74,-19],[-12,-82],[-32,-25],[-48,-128],[11,-47],[-81,-20],[-24,-31],[-68,20],[9,-63],[-49,-43],[-34,-85],[-2,57],[-59,49],[-38,127],[15,13],[-42,66],[10,131],[-37,85]],[[3514,392],[88,109],[57,20],[-16,18],[70,128],[70,-33],[61,8],[-18,-43],[58,-156],[-22,-104],[-59,11],[-79,71],[-110,-58],[-76,36],[-10,-6],[3,-5],[-5,0],[3,-4],[-2,-1],[1,-12],[0,-3],[-1,-1],[-1,0],[-12,25]],[[2885,3666],[1,82],[92,70],[12,58],[36,27],[25,-99],[45,-55],[-90,-84],[-121,1]],[[1650,3702],[141,146],[94,-100],[-138,-144],[-97,98]],[[1438,3591],[25,3],[33,79],[54,-4],[61,42],[42,-6],[94,-101],[69,71],[50,-39],[61,20],[12,-70],[-48,-118],[-75,-20],[-38,6],[-35,72],[-49,-19],[-90,59],[-55,0],[4,-44],[-20,1],[-95,68]],[[1682,4096],[41,-6],[6,6],[27,0],[51,-131],[-113,-76],[-123,18],[-34,-62],[-220,1],[-5,43],[-33,-3],[-1,48],[50,124],[-144,26],[-7,12],[505,0]],[[3571,1642],[68,30],[26,39],[-8,-53],[47,41],[60,-31],[-25,-51],[-48,-11],[-34,-69],[-80,65],[-6,40]],[[3221,3073],[68,55],[42,95],[27,205],[38,-43],[-3,-53],[67,-146],[-30,-162],[-208,-2],[-1,51]],[[838,1097],[-37,-10],[0,37],[37,-3],[0,-24]],[[1559,1609],[46,-14],[0,-34],[-64,0],[18,48]],[[472,1764],[43,-12],[36,-17],[-60,-39],[-56,34],[37,34]],[[2614,3321],[27,39],[91,-33],[24,-41],[-21,-81],[-25,-13],[10,-56],[100,-63],[-4,-52],[73,-45],[19,-72],[-52,-1],[2,67],[-82,-39],[44,43],[-67,105],[-39,25],[-58,-30],[-10,17],[44,45],[-33,72],[35,8],[22,38],[-49,60],[-51,7]],[[2551,2951],[6,36],[34,-8],[1,-55],[57,-77],[-7,-51],[42,-22],[2,-69],[39,-41],[-27,-57],[-60,61],[-6,118],[-81,165]],[[3431,3457],[14,45],[156,32],[-5,120],[67,-48],[20,-138],[-46,-56],[-34,19],[-155,-17],[-17,43]],[[1846,736],[31,0],[-6,172],[32,1],[170,189],[29,-22],[98,130],[-129,136],[408,-41],[3,-65],[106,-92],[-85,-97],[8,-101],[-412,-68],[-110,-233],[-142,0],[-1,91]],[[1457,3126],[254,47],[65,-126],[62,-23],[-201,-127],[-36,49],[16,70],[-24,53],[-68,-31],[-68,88]],[[2341,708],[72,69],[53,-31],[417,-1],[1,-113],[-66,0],[0,-45],[-60,-88],[-417,209]],[[953,3892],[39,36],[146,-10],[14,21],[-50,59],[180,18],[-4,-82],[-130,-114],[-41,-3],[-36,31],[-32,-37],[-86,81]],[[2031,3550],[22,56],[43,-1],[70,-31],[2,-47],[-106,-58],[-31,81]],[[2725,3417],[104,139],[114,77],[104,14],[30,40],[65,16],[6,-86],[-29,-79],[-153,-182],[-27,-60],[0,-142],[-73,-68],[-76,115],[-24,185],[-41,31]],[[1594,4096],[3,-6],[126,0],[6,6],[27,0],[51,-131],[-103,-64],[-38,63],[17,39],[-206,5],[-53,48],[-1,40],[171,0]],[[2060,3196],[96,21],[41,-25],[61,29],[38,-22],[65,18],[3,-24],[31,4],[56,-54],[110,-43],[-10,-23],[41,-51],[-40,-75],[80,-165],[9,-181],[-121,0],[-105,127],[-57,-8],[-38,27],[-121,207],[-20,123],[-119,115]],[[955,3966],[33,2],[-6,63],[9,2],[55,-62],[50,19],[56,-54],[-85,-28],[-76,19],[-20,-27],[-16,66]],[[0,1379],[101,42],[-60,88],[99,-9],[39,-40],[14,-176],[63,-208],[-65,-34],[-12,-51],[-15,48],[-164,70],[0,270]],[[1285,2741],[153,47],[397,213],[30,-80],[116,-69],[19,-133],[59,-77],[-757,1],[-17,98]],[[1171,4096],[-64,-30],[-95,0],[-48,29],[-33,-18],[-19,19],[259,0]],[[3239,3300],[74,143],[1,36],[44,-61],[-12,-126],[-101,-26],[-6,34]],[[1603,3567],[44,76],[45,17],[55,-56],[78,80],[61,-37],[42,9],[10,-49],[-3,-70],[-44,-69],[-70,-20],[-43,6],[-35,72],[-49,-19],[-91,60]],[[2331,4096],[-20,-27],[-59,0],[0,27],[79,0]],[[0,4021],[72,13],[42,-10],[-61,-66],[-53,18],[0,45]],[[952,2522],[24,54],[59,-12],[55,-95],[-26,-32],[-51,2],[-61,83]],[[27,2932],[52,97],[119,129],[77,1],[2,-60],[-59,-125],[-124,-96],[-67,54]],[[1122,3156],[16,53],[41,27],[43,-14],[42,-55],[-28,-61],[-40,-17],[-58,25],[-16,42]],[[387,3339],[39,142],[122,72],[82,-282],[-160,-79],[-66,38],[-17,109]],[[2753,3542],[92,113],[-25,48],[25,43],[94,31],[88,126],[7,-65],[88,-49],[116,-23],[58,47],[-26,-191],[-33,-2],[-11,-37],[-72,-56],[-37,14],[31,76],[-6,86],[-65,-16],[-30,-40],[-104,-14],[-142,-110],[-48,19]],[[2539,4096],[31,-137],[-57,10],[1,37],[-50,22],[-14,68],[89,0]],[[278,1787],[50,87],[75,1],[42,42],[136,-149],[-32,-42],[-105,34],[-45,-36],[19,-52],[-37,-4],[-103,119]],[[1040,1622],[20,30],[59,5],[7,51],[63,19],[253,-147],[9,-97],[-24,-27],[-27,25],[-65,-16],[-69,109],[-143,-31],[-58,28],[-25,51]],[[918,4096],[24,-20],[25,-175],[-53,-9],[-34,37],[-50,0],[3,37],[-35,10],[8,66],[-21,7],[12,42],[-6,5],[127,0]],[[3055,2773],[26,10],[-24,152],[21,88],[350,-1],[-4,-60],[-50,-86],[-197,-82],[-69,6],[-33,-26],[-20,-1]]]}