{"objects":{"water":{"type":"GeometryCollection","geometries":[{"type":"Polygon","properties":{"source":"naturalearthdata.com","kind":"playa","name":"Salinas de Ambargasta","area":2448740096,"sort_rank":200,"min_zoom":0.0,"id":21},"arcs":[[415]]},{"type":"Polygon","properties":{"kind":"lake","name":"Mar Chiquita","area":2850446080,"sort_rank":200,"alkaline":true,"source":"naturalearthdata.com","min_zoom":0.0,"id":1311},"arcs":[[416]]},{"type":"MultiPolygon","properties":{"sort_rank":200,"source":"naturalearthdata.com","min_zoom":0.0,"kind":"playa","area":4340567164},"arcs":[[[417]],[[418]],[[419]],[[420]],[[421]]]},{"type":"Polygon","properties":{"source":"naturalearthdata.com","kind":"playa","name":"Salar de Pipanaco","area":832034240,"sort_rank":200,"min_zoom":0.0,"id":54},"arcs":[[422]]},{"type":"MultiPolygon","properties":{"source":"naturalearthdata.com","kind":"lake","name":"Laguna Iber","area":641073468,"sort_rank":200,"min_zoom":0.0},"arcs":[[[423]],[[424]]]},{"type":"Polygon","properties":{"source":"naturalearthdata.com","kind":"playa","name":"Salar de Arizaro","area":2194929664,"sort_rank":200,"min_zoom":0.0,"id":8},"arcs":[[425]]},{"type":"Point","properties":{"label_placement":true,"kind":"lake","name":"Mar Chiquita","area":2850446080,"sort_rank":200,"alkaline":true,"source":"naturalearthdata.com","min_zoom":0.0,"id":1311},"coordinates":[1795,501]},{"type":"Point","properties":{"label_placement":true,"kind":"playa","name":"Salinas de Ambargasta","area":2448740096,"sort_rank":200,"source":"naturalearthdata.com","min_zoom":0.0,"id":21},"coordinates":[1101,1111]},{"type":"Point","properties":{"label_placement":true,"kind":"playa","name":"Salar de Pipanaco","area":832034240,"sort_rank":200,"source":"naturalearthdata.com","min_zoom":0.0,"id":54},"coordinates":[401,1550]},{"type":"Point","properties":{"label_placement":true,"kind":"lake","name":"Laguna Iber","area":402975904,"sort_rank":200,"source":"naturalearthdata.com","min_zoom":0.0,"id":741},"coordinates":[3773,1439]},{"type":"Point","properties":{"label_placement":true,"kind":"lake","name":"Laguna Iber","area":238097568,"sort_rank":200,"source":"naturalearthdata.com","min_zoom":0.0,"id":742},"coordinates":[3832,1524]},{"type":"MultiLineString","properties":{"source":"naturalearthdata.com","kind":"playa","sort_rank":367,"boundary":true,"min_zoom":0.0,"id":8},"arcs":[[426],[427]]},{"type":"LineString","properties":{"source":"naturalearthdata.com","kind":"playa","sort_rank":367,"boundary":true,"min_zoom":0.0,"id":19},"arcs":[428]},{"type":"LineString","properties":{"source":"naturalearthdata.com","kind":"playa","sort_rank":367,"boundary":true,"min_zoom":0.0,"id":20},"arcs":[429]},{"type":"LineString","properties":{"source":"naturalearthdata.com","kind":"playa","sort_rank":367,"boundary":true,"min_zoom":0.0,"id":21},"arcs":[430]},{"type":"LineString","properties":{"source":"naturalearthdata.com","kind":"playa","sort_rank":367,"boundary":true,"min_zoom":0.0,"id":33},"arcs":[431]},{"type":"LineString","properties":{"source":"naturalearthdata.com","kind":"playa","sort_rank":367,"boundary":true,"min_zoom":0.0,"id":34},"arcs":[432]},{"type":"LineString","properties":{"source":"naturalearthdata.com","kind":"playa","sort_rank":367,"boundary":true,"min_zoom":0.0,"id":54},"arcs":[433]},{"type":"LineString","properties":{"source":"naturalearthdata.com","kind":"playa","sort_rank":367,"boundary":true,"min_zoom":0.0,"id":55},"arcs":[434]},{"type":"LineString","properties":{"source":"naturalearthdata.com","kind":"lake","sort_rank":367,"boundary":true,"min_zoom":0.0,"id":741},"arcs":[435]},{"type":"LineString","properties":{"source":"naturalearthdata.com","kind":"lake","sort_rank":367,"boundary":true,"min_zoom":0.0,"id":742},"arcs":[436]},{"type":"LineString","properties":{"source":"naturalearthdata.com","kind":"lake","sort_rank":367,"alkaline":true,"boundary":true,"min_zoom":0.0,"id":1311},"arcs":[437]}]},"buildings":{"type":"GeometryCollection","geometries":[]},"places":{"type":"GeometryCollection","geometries":[{"type":"Point","properties":{"name:pt":"Paraguai","name:ka":"\u10de\u10d0\u10e0\u10d0\u10d2\u10d5\u10d0\u10d8","name:ko":"\ud30c\ub77c\uacfc\uc774","name:cv":"\u041f\u0430\u0440\u0430\u0433\u0432\u0430\u0439","name:kk":"\u041f\u0430\u0440\u0430\u0433\u0432\u0430\u0439","name:tt":"\u041f\u0430\u0440\u0430\u0433\u0432\u0430\u0439","name:kw":"Paragway","min_zoom":2.0,"name:pa":"\u0a2a\u0a48\u0a30\u0a3e\u0a17\u0a41\u0a0f","name:os":"\u041f\u0430\u0440\u0430\u0433\u0432\u0430\u0439","name:or":"\u0b2a\u0b3e\u0b30\u0b3e\u0b17\u0b41\u0b0f","name:ce":"\u041f\u0430\u0440\u0430\u0433\u0432\u0430\u0439","name:ta":"\u0baa\u0bb0\u0b95\u0bc1\u0bb5\u0bc8","name:tg":"\u041f\u0430\u0440\u0430\u0433\u0432\u0430\u0439","name:ca":"Paraguai","name:hr":"Paragvaj","name:sr":"\u041f\u0430\u0440\u0430\u0433\u0432\u0430\u0458","source":"openstreetmap.org","name:kn":"\u0caa\u0cc6\u0cb0\u0c97\u0ccd\u0cb5\u0cc6","name:dv":"\u0795\u07ac\u0783\u07a6\u078e\u07aa\u0787\u07ad","name:lv":"Paragvaja","name:lt":"Paragvajus","name:hi":"\u092a\u0948\u0930\u093e\u0917\u094d\u0935\u0947","name:he":"\u05e4\u05e8\u05d2\u05d5\u05d5\u05d0\u05d9","kind":"country","name:ur":"\u067e\u06cc\u0631\u0627\u06af\u0648\u0626\u06d2","name:la":"Paraquaria","name:uk":"\u041f\u0430\u0440\u0430\u0433\u0432\u0430\u0439","name:hy":"\u054a\u0561\u0580\u0561\u0563\u057e\u0561\u0575","name:ug":"\u067e\u0627\u0631\u0627\u06af\u06cb\u0627\u064a","name:qu":"Parawayi","name:oc":"Paraguai","population":7012433,"name:el":"\u03a0\u03b1\u03c1\u03b1\u03b3\u03bf\u03c5\u03ac\u03b7","name:eo":"Paragvajo","name":"Paraguay","name:th":"\u0e1b\u0e23\u0e30\u0e40\u0e17\u0e28\u0e1b\u0e32\u0e23\u0e32\u0e01\u0e27\u0e31\u0e22","name:ln":"Palagway","name:eu":"Paraguai","name:yo":"Parag\u00fa\u00e1\u00ec","name:ay":"Parawayi","name:mt":"Paragwaj","name:az":"Paraqvay","name:mr":"\u092a\u0947\u0930\u093e\u0917\u094d\u0935\u0947","name:ar":"\u0628\u0627\u0631\u0627\u063a\u0648\u0627\u064a","name:my":"\u1015\u102b\u101b\u102c\u1002\u103d\u1031\u1038\u1014\u102d\u102f\u1004\u103a\u1004\u1036","name:is":"Paragv\u00e6","name:am":"\u1353\u122b\u1313\u12ed","name:an":"Paraguai","name:ru":"\u041f\u0430\u0440\u0430\u0433\u0432\u0430\u0439","name:rw":"Paragwe","id":1644764586,"name:mk":"\u041f\u0430\u0440\u0430\u0433\u0432\u0430\u0458","name:vo":"Paragv\u00e4n","name:fa":"\u067e\u0627\u0631\u0627\u06af\u0648\u0626\u0647","name:mn":"\u041f\u0430\u0440\u0430\u0433\u0432\u0430\u0439","name:uz":"Paragvay","name:fo":"Paraguei","name:zh-yue":"\u5df4\u62c9\u572d","name:zh":"\u5df4\u62c9\u572d","name:sl":"Paragvaj","name:sk":"Paraguaj","name:ja":"\u30d1\u30e9\u30b0\u30a2\u30a4","name:sh":"Paragvaj","name:ne":"\u092a\u093e\u0930\u093e\u0917\u094d\u0935\u0947","name:sa":"\u092a\u0947\u0930\u0947\u0917\u094d\u0935\u093e\u092f","name:bs":"Paragvaj","name:yi":"\u05e4\u05d0\u05e8\u05d0\u05d2\u05d5\u05d5\u05d9\u05d9","name:bn":"\u09aa\u09cd\u09af\u09be\u09b0\u09be\u0997\u09c1\u09af\u09bc\u09c7","name:bo":"\u0f54\u0f0b\u0f62\u0f0b\u0f42\u0f74\u0f0b\u0f61\u0f7a\u0f0d","name:ml":"\u0d2a\u0d30\u0d17\u0d4d\u0d35\u0d46","name:be":"\u041f\u0430\u0440\u0430\u0433\u0432\u0430\u0439","name:bg":"\u041f\u0430\u0440\u0430\u0433\u0432\u0430\u0439","name:wo":"Paraguwaay","name:ba":"\u041f\u0430\u0440\u0430\u0433\u0432\u0430\u0439","name:sq":"Paraguaji","name:ga":"Paragua","name:gd":"Paraguaidh","name:ht":"Paragwe","name:gn":"Paragu\u00e1i","name:gl":"Paraguai - Paraguay","name:pl":"Paragwaj","name:gv":"Yn Pharaguay"},"coordinates":[3397,3534]},{"type":"Point","properties":{"kind":"region","name":"Departamento Central","kind_detail":"state","min_zoom":4.0,"source":"openstreetmap.org","name:fr":"Central","name:ru":"\u0426\u0435\u043d\u0442\u0440\u0430\u043b\u044c\u043d\u044b\u0439 \u0434\u0435\u043f\u0430\u0440\u0442\u0430\u043c\u0435\u043d\u0442","id":313928965,"population":1363399},"coordinates":[3641,2640]},{"type":"Point","properties":{"kind":"region","name":"Departamento de San Pedro","kind_detail":"state","min_zoom":4.0,"source":"openstreetmap.org","name:fr":"San Pedro","name:ru":"\u0421\u0430\u043d-\u041f\u0435\u0434\u0440\u043e","id":313928978,"population":318787},"coordinates":[4005,3152]},{"type":"Point","properties":{"kind":"region","name":"Departamento de la Cordillera","kind_detail":"state","min_zoom":4.0,"source":"openstreetmap.org","name:fr":"Cordillera","name:ru":"\u041a\u043e\u0440\u0434\u0438\u043b\u044c\u0435\u0440\u0430","id":313928961,"population":234805},"coordinates":[3823,2743]},{"type":"Point","properties":{"kind":"region","name":"Departamento de Paraguar\u00ed","kind_detail":"state","min_zoom":4.0,"source":"openstreetmap.org","name:fr":"Paraguar\u00ed","name:ru":"\u041f\u0430\u0440\u0430\u0433\u0443\u0430\u0440\u0438","id":313928963,"population":226514},"coordinates":[3762,2436]},{"type":"Point","properties":{"kind":"region","name":"Departamento de Concepci\u00f3n","kind_detail":"state","min_zoom":4.0,"source":"openstreetmap.org","name:fr":"Concepci\u00f3n","name:ru":"\u041a\u043e\u043d\u0441\u0435\u043f\u0441\u044c\u043e\u043d","id":313928982,"population":180277},"coordinates":[3762,3591]},{"type":"Point","properties":{"kind":"region","name":"Departamento del Guair\u00e1","kind_detail":"state","min_zoom":4.0,"source":"openstreetmap.org","name:fr":"Guair\u00e1","name:ru":"\u0413\u0443\u0430\u0439\u0440\u0430","id":313928967,"population":178130},"coordinates":[4005,2538]},{"type":"Point","properties":{"source":"openstreetmap.org","kind":"region","name":"Salto","kind_detail":"state","population":123120,"min_zoom":4.0,"id":313943121},"coordinates":[3821,243]},{"type":"Point","properties":{"kind":"region","name":"Departamento de Misiones","kind_detail":"state","min_zoom":4.0,"source":"openstreetmap.org","name:fr":"Misiones","old_name":"San Ignacio","name:ru":"\u041c\u0438\u0441\u044c\u043e\u043d\u0435\u0441","id":313928980,"population":103633},"coordinates":[3823,2027]},{"type":"Point","properties":{"kind":"region","name":"Departamento de Presidente Hayes","kind_detail":"state","min_zoom":4.0,"source":"openstreetmap.org","name:fr":"Presidente Hayes","name:ru":"\u041f\u0440\u0435\u0441\u0438\u0434\u0435\u043d\u0442\u0435-\u0410\u0435\u0441","id":313928971,"population":81876},"coordinates":[3155,3459]},{"type":"Point","properties":{"source":"openstreetmap.org","kind":"region","name":"Artigas","kind_detail":"state","population":78019,"min_zoom":4.0,"id":1417530830},"coordinates":[3846,546]},{"type":"Point","properties":{"kind":"region","name":"Departamento de \u00d1eembuc\u00fa","kind_detail":"state","min_zoom":4.0,"source":"openstreetmap.org","name:fr":"\u00d1eembuc\u00fa","name:ru":"\u041d\u044c\u0435\u044d\u043c\u0431\u0443\u043a\u0443","id":313928968,"population":76738},"coordinates":[3459,2027]},{"type":"Point","properties":{"kind":"region","name":"Departamento de Boquer\u00f3n","name:ko":"\ubcf4\ucf00\ub860 \uc8fc","kind_detail":"state","min_zoom":4.0,"source":"openstreetmap.org","name:fr":"Boquer\u00f3n","name:ru":"\u0411\u043e\u043a\u0435\u0440\u043e\u043d","name:zh":"\u535a\u514b\u9f99\u7701","id":530657872,"population":45617},"coordinates":[2366,3801]},{"type":"Point","properties":{"kind":"region","name":"La Rioja","kind_detail":"state","name:eo":"Rio\u0125a Provinco","source":"openstreetmap.org","min_zoom":4.0,"name:ru":"\u041b\u0430-\u0420\u0438\u043e\u0445\u0430","id":618300945},"coordinates":[164,810]},{"type":"Point","properties":{"kind":"region","name":"Entre R\u00edos","kind_detail":"state","name:eo":"Interriveroj Provinco","source":"openstreetmap.org","min_zoom":4.0,"name:ru":"\u041c\u0435\u0436\u0434\u0443\u0440\u0435\u0447\u044c\u0435","id":618300946},"coordinates":[2966,134]},{"type":"Point","properties":{"kind":"region","name":"Santa Fe","kind_detail":"state","name:he":"\u05e1\u05e0\u05d8\u05d4 \u05e4\u05d4","name:eo":"Sankta Fido","official_name":"Provincia de Santa Fe","source":"openstreetmap.org","min_zoom":4.0,"name:uk":"\u0421\u0430\u043d\u0442\u0430-\u0424\u0435","name:ru":"\u0421\u0430\u043d\u0442\u0430-\u0424\u0435","id":618300947},"coordinates":[2307,670]},{"type":"Point","properties":{"source":"openstreetmap.org","kind":"region","name":"Corrientes","kind_detail":"state","min_zoom":4.0,"name:eo":"Provinco de Riveroj","id":618300948},"coordinates":[3481,1375]},{"type":"Point","properties":{"kind":"region","name":"Catamarca","kind_detail":"state","name:eo":"Katamarkio","source":"openstreetmap.org","min_zoom":4.0,"name:ru":"\u041a\u0430\u0442\u0430\u043c\u0430\u0440\u043a\u0430","id":618300949},"coordinates":[144,1948]},{"type":"Point","properties":{"source":"openstreetmap.org","kind":"region","name":"Tucum\u00e1n","kind_detail":"state","min_zoom":4.0,"name:eo":"Tukumano","id":1366269650},"coordinates":[953,2205]},{"type":"Point","properties":{"kind":"region","name":"Santiago del Estero","kind_detail":"state","name:eo":"Santiaga Provinco","source":"openstreetmap.org","min_zoom":4.0,"name:ru":"\u0421\u0430\u043d\u0442\u044c\u044f\u0433\u043e-\u0434\u0435\u043b\u044c-\u042d\u0441\u0442\u0435\u0440\u043e","id":618300951},"coordinates":[1441,1763]},{"type":"Point","properties":{"source":"openstreetmap.org","kind":"region","name":"Jujuy","kind_detail":"state","min_zoom":4.0,"name:eo":"\u0124u\u0125ujo","id":3573560593},"coordinates":[634,3534]},{"type":"Point","properties":{"kind":"region","name":"Salta","kind_detail":"state","name:eo":"Salta Provinco","source":"openstreetmap.org","min_zoom":4.0,"name:ru":"\u0421\u0430\u043b\u044c\u0442\u0430","id":618300953},"coordinates":[1147,2801]},{"type":"Point","properties":{"kind":"region","name":"Chaco","kind_detail":"state","name:eo":"\u0108ako","source":"openstreetmap.org","min_zoom":4.0,"name:ru":"\u0427\u0430\u043a\u043e","id":618300954},"coordinates":[2410,2279]},{"type":"Point","properties":{"kind":"region","name":"Formosa","kind_detail":"state","name:eo":"Formosa Provinco","source":"openstreetmap.org","min_zoom":4.0,"name:ru":"\u0424\u043e\u0440\u043c\u043e\u0441\u0430","id":618300955},"coordinates":[2574,3011]},{"type":"Point","properties":{"source":"naturalearthdata.com","kind":"locality","name":"Asuncion","country_capital":true,"population":1870000,"min_zoom":5.0,"id":6841},"coordinates":[3589,2725]},{"type":"Point","properties":{"source":"naturalearthdata.com","kind":"locality","name":"C\u00f3rdoba","population":1452000,"region_capital":true,"min_zoom":5.0,"id":7056},"coordinates":[1207,227]},{"type":"Point","properties":{"source":"naturalearthdata.com","kind":"locality","name":"Tucum\u00e1n","population":830000,"region_capital":true,"min_zoom":5.0,"id":6697},"coordinates":[831,2103]},{"type":"Point","properties":{"source":"naturalearthdata.com","kind":"locality","name":"Salta","population":512686,"region_capital":true,"min_zoom":5.0,"id":6696},"coordinates":[759,2934]},{"type":"Point","properties":{"source":"naturalearthdata.com","kind":"locality","name":"Santa Fe","population":489505,"region_capital":true,"min_zoom":5.0,"id":6699},"coordinates":[2479,134]},{"type":"Point","properties":{"source":"naturalearthdata.com","kind":"locality","name":"Formosa","population":221383,"region_capital":true,"min_zoom":5.0,"id":6698},"coordinates":[3392,2365]}]},"transit":{"type":"GeometryCollection","geometries":[{"type":"MultiLineString","properties":{"kind":"train","network":"Mitre","service":"long_distance","sort_rank":275,"source":"openstreetmap.org","min_zoom":5.0,"operator":"Trenes Argentinos","ref":"FCM","osm_relation":true,"name":"Ferrocarril Mitre: Retiro \u2192 C\u00f3rdoba"},"arcs":[[397],[398]]},{"type":"MultiLineString","properties":{"kind":"train","name":"Ferrocarril Mitre: Tucum\u00e1n \u2192 Retiro","service":"long_distance","sort_rank":275,"source":"openstreetmap.org","min_zoom":5.0,"operator":"Trenes Argentinos","ref":"FCM","osm_relation":true,"network":"Mitre"},"arcs":[[399],[400],[401],[402],[403],[404],[405]]},{"type":"MultiLineString","properties":{"kind":"train","network":"Mitre","service":"long_distance","sort_rank":275,"source":"openstreetmap.org","min_zoom":5.0,"operator":"Trenes Argentinos","ref":"FCM","osm_relation":true,"name":"Ferrocarril Mitre: Retiro \u2192 Tucum\u00e1n"},"arcs":[[406],[407],[408],[409],[410],[411],[412]]},{"type":"MultiLineString","properties":{"kind":"train","name":"Ferrocarril Mitre: C\u00f3rdoba \u2192 Retiro","service":"long_distance","sort_rank":275,"source":"openstreetmap.org","min_zoom":5.0,"operator":"Trenes Argentinos","ref":"FCM","osm_relation":true,"network":"Mitre"},"arcs":[[413],[414]]}]},"pois":{"type":"GeometryCollection","geometries":[{"type":"Point","properties":{"kind":"nature_reserve","name":"Reserva Ba\u00f1ados del R\u00edo Dulce y Laguna Mar Chiquita","area":14508400000,"source":"openstreetmap.org","min_zoom":5.38,"tier":2,"id":-5380907,"osm_relation":true},"coordinates":[1706,637]},{"type":"Point","properties":{"kind":"nature_reserve","name:en":"Eduardo Avaroa Andean Fauna National Reserve","tier":2,"name":"Reserva Nacional de Fauna Andina Eduardo Avaroa","area":8012540000,"source":"openstreetmap.org","min_zoom":5.81,"operator":"SERNAP","id":-445306,"osm_relation":true},"coordinates":[20,3889]},{"type":"Point","properties":{"source":"openstreetmap.org","kind":"nature_reserve","name":"Reserva Natural Provincial Laguna Blanca","area":10813500000,"tier":2,"min_zoom":5.59,"id":370668228},"coordinates":[250,2270]}]},"boundaries":{"type":"GeometryCollection","geometries":[{"type":"MultiLineString","properties":{"source":"naturalearthdata.com","kind":"country","sort_rank":262,"kind_detail":"2","min_zoom":0.0,"id":198},"arcs":[[0],[1],[2],[3],[4],[5],[6],[7],[8],[9],[10],[11],[12],[13],[14],[15],[16],[17],[18],[19],[20],[21],[22],[23],[24],[25],[26],[27],[28],[29],[30],[31],[32],[33],[34],[35],[36],[37],[38],[39],[40],[41],[42],[43],[44],[45],[46],[47],[48],[49],[50],[51]]},{"type":"MultiLineString","properties":{"source":"naturalearthdata.com","kind":"country","sort_rank":262,"kind_detail":"2","min_zoom":0.0,"id":200},"arcs":[[52],[53],[54],[55],[56],[57],[58],[59],[60],[61],[62],[63],[64],[65],[66],[67],[68],[69],[70],[71],[72],[73],[74],[75],[76],[77],[78],[79],[80],[81],[82],[83],[84],[85],[86],[87],[88],[89],[90],[91],[92]]},{"type":"LineString","properties":{"source":"naturalearthdata.com","kind":"country","sort_rank":262,"kind_detail":"2","min_zoom":0.0,"id":201},"arcs":[93]},{"type":"LineString","properties":{"source":"naturalearthdata.com","kind":"country","sort_rank":262,"kind_detail":"2","min_zoom":0.0,"id":317},"arcs":[94]},{"type":"LineString","properties":{"source":"naturalearthdata.com","kind":"disputed","sort_rank":261,"kind_detail":"2","min_zoom":0.0,"id":20},"arcs":[95]},{"type":"LineString","properties":{"source":"naturalearthdata.com","kind":"country","sort_rank":262,"kind_detail":"2","min_zoom":0.0,"id":22},"arcs":[96]},{"type":"MultiLineString","properties":{"source":"naturalearthdata.com","kind":"country","sort_rank":262,"kind_detail":"2","min_zoom":0.0,"id":57},"arcs":[[97],[98],[99],[100],[101],[102],[103],[104],[105],[106],[107],[108],[109],[110],[111]]},{"type":"MultiLineString","properties":{"source":"naturalearthdata.com","kind":"country","sort_rank":262,"kind_detail":"2","min_zoom":0.0,"id":197},"arcs":[[112],[113],[114],[115],[116],[117],[118],[119],[120],[121],[122],[123],[124],[125],[126],[127],[128],[129],[130],[131]]},{"type":"MultiLineString","properties":{"source":"naturalearthdata.com","kind":"country","sort_rank":262,"kind_detail":"2","min_zoom":0.0,"id":202},"arcs":[[132],[133],[134]]},{"type":"LineString","properties":{"source":"naturalearthdata.com","kind":"country","sort_rank":262,"kind_detail":"2","min_zoom":0.0,"id":313},"arcs":[135]},{"type":"LineString","properties":{"source":"naturalearthdata.com","kind":"region","sort_rank":256,"kind_detail":"4","min_zoom":5.5,"id":2822},"arcs":[136]},{"type":"LineString","properties":{"source":"naturalearthdata.com","kind":"region","sort_rank":256,"kind_detail":"4","min_zoom":5.5,"id":2825},"arcs":[137]},{"type":"MultiLineString","properties":{"source":"naturalearthdata.com","kind":"region","sort_rank":256,"kind_detail":"4","min_zoom":5.5,"id":2847},"arcs":[[138],[139]]},{"type":"LineString","properties":{"source":"naturalearthdata.com","kind":"region","sort_rank":256,"kind_detail":"4","min_zoom":5.0,"id":4689},"arcs":[140]},{"type":"LineString","properties":{"source":"naturalearthdata.com","kind":"region","sort_rank":256,"kind_detail":"4","min_zoom":3.0,"id":5039},"arcs":[141]},{"type":"LineString","properties":{"source":"naturalearthdata.com","kind":"region","sort_rank":256,"kind_detail":"4","min_zoom":3.0,"id":5041},"arcs":[142]},{"type":"MultiLineString","properties":{"source":"naturalearthdata.com","kind":"region","sort_rank":256,"kind_detail":"4","min_zoom":3.0,"id":5042},"arcs":[[143],[144],[145],[146]]},{"type":"LineString","properties":{"source":"naturalearthdata.com","kind":"region","sort_rank":256,"kind_detail":"4","min_zoom":3.0,"id":5046},"arcs":[147]},{"type":"LineString","properties":{"source":"naturalearthdata.com","kind":"region","sort_rank":256,"kind_detail":"4","min_zoom":3.0,"id":5048},"arcs":[148]},{"type":"LineString","properties":{"source":"naturalearthdata.com","kind":"region","sort_rank":256,"kind_detail":"4","min_zoom":3.0,"id":5058},"arcs":[149]},{"type":"LineString","properties":{"source":"naturalearthdata.com","kind":"region","sort_rank":256,"kind_detail":"4","min_zoom":3.0,"id":5059},"arcs":[150]},{"type":"MultiLineString","properties":{"source":"naturalearthdata.com","kind":"region","sort_rank":256,"kind_detail":"4","min_zoom":3.0,"id":5061},"arcs":[[151],[152],[153],[154],[155],[156],[157],[158],[159],[160]]},{"type":"LineString","properties":{"source":"naturalearthdata.com","kind":"region","sort_rank":256,"kind_detail":"4","min_zoom":5.5,"id":2817},"arcs":[161]},{"type":"LineString","properties":{"source":"naturalearthdata.com","kind":"region","sort_rank":256,"kind_detail":"4","min_zoom":5.5,"id":2827},"arcs":[162]},{"type":"LineString","properties":{"source":"naturalearthdata.com","kind":"region","sort_rank":256,"kind_detail":"4","min_zoom":5.5,"id":2851},"arcs":[163]},{"type":"MultiLineString","properties":{"source":"naturalearthdata.com","kind":"region","sort_rank":256,"kind_detail":"4","min_zoom":5.5,"id":2826},"arcs":[[164],[165],[166],[167],[168]]},{"type":"MultiLineString","properties":{"source":"naturalearthdata.com","kind":"region","sort_rank":256,"kind_detail":"4","min_zoom":5.5,"id":2818},"arcs":[[169],[170],[171],[172],[173],[174],[175],[176]]},{"type":"LineString","properties":{"source":"naturalearthdata.com","kind":"region","sort_rank":256,"kind_detail":"4","min_zoom":5.5,"id":2819},"arcs":[177]},{"type":"MultiLineString","properties":{"source":"naturalearthdata.com","kind":"region","sort_rank":256,"kind_detail":"4","min_zoom":5.5,"id":2820},"arcs":[[178],[179]]},{"type":"MultiLineString","properties":{"source":"naturalearthdata.com","kind":"region","sort_rank":256,"kind_detail":"4","min_zoom":5.5,"id":2821},"arcs":[[180],[181],[182],[183],[184],[185],[186],[187],[188],[189],[190],[191],[192],[193],[194],[195],[196],[197]]},{"type":"MultiLineString","properties":{"source":"naturalearthdata.com","kind":"region","sort_rank":256,"kind_detail":"4","min_zoom":5.5,"id":2823},"arcs":[[198],[199],[200]]},{"type":"MultiLineString","properties":{"source":"naturalearthdata.com","kind":"region","sort_rank":256,"kind_detail":"4","min_zoom":5.5,"id":2828},"arcs":[[201],[202]]},{"type":"MultiLineString","properties":{"source":"naturalearthdata.com","kind":"region","sort_rank":256,"kind_detail":"4","min_zoom":5.5,"id":2829},"arcs":[[203],[204],[205],[206],[207]]},{"type":"LineString","properties":{"source":"naturalearthdata.com","kind":"region","sort_rank":256,"kind_detail":"4","min_zoom":5.5,"id":2830},"arcs":[208]},{"type":"LineString","properties":{"source":"naturalearthdata.com","kind":"region","sort_rank":256,"kind_detail":"4","min_zoom":5.5,"id":2831},"arcs":[209]},{"type":"MultiLineString","properties":{"source":"naturalearthdata.com","kind":"region","sort_rank":256,"kind_detail":"4","min_zoom":5.5,"id":2832},"arcs":[[210],[211],[212],[213],[214]]},{"type":"MultiLineString","properties":{"source":"naturalearthdata.com","kind":"region","sort_rank":256,"kind_detail":"4","min_zoom":5.5,"id":2852},"arcs":[[215],[216],[217],[218],[219]]},{"type":"MultiLineString","properties":{"source":"naturalearthdata.com","kind":"region","sort_rank":256,"kind_detail":"4","min_zoom":5.5,"id":2835},"arcs":[[220],[221]]},{"type":"LineString","properties":{"source":"naturalearthdata.com","kind":"region","sort_rank":256,"kind_detail":"4","min_zoom":5.5,"id":2836},"arcs":[222]},{"type":"MultiLineString","properties":{"source":"naturalearthdata.com","kind":"region","sort_rank":256,"kind_detail":"4","min_zoom":5.5,"id":2853},"arcs":[[223],[224],[225]]},{"type":"MultiLineString","properties":{"source":"naturalearthdata.com","kind":"region","sort_rank":256,"kind_detail":"4","min_zoom":5.5,"id":2842},"arcs":[[226],[227],[228]]},{"type":"LineString","properties":{"source":"naturalearthdata.com","kind":"region","sort_rank":256,"kind_detail":"4","min_zoom":5.5,"id":2843},"arcs":[229]},{"type":"MultiLineString","properties":{"source":"naturalearthdata.com","kind":"region","sort_rank":256,"kind_detail":"4","min_zoom":5.5,"id":2844},"arcs":[[230],[231],[232],[233],[234]]},{"type":"MultiLineString","properties":{"source":"naturalearthdata.com","kind":"region","sort_rank":256,"kind_detail":"4","min_zoom":5.5,"id":2845},"arcs":[[235],[236],[237],[238],[239]]},{"type":"MultiLineString","properties":{"source":"naturalearthdata.com","kind":"region","sort_rank":256,"kind_detail":"4","min_zoom":5.5,"id":2846},"arcs":[[240],[241],[242],[243],[244],[245],[246],[247],[248],[249],[250]]},{"type":"LineString","properties":{"source":"naturalearthdata.com","kind":"region","sort_rank":256,"kind_detail":"4","min_zoom":5.5,"id":2848},"arcs":[251]},{"type":"MultiLineString","properties":{"source":"naturalearthdata.com","kind":"region","sort_rank":256,"kind_detail":"4","min_zoom":5.5,"id":2849},"arcs":[[252],[253],[254]]},{"type":"LineString","properties":{"source":"naturalearthdata.com","kind":"region","sort_rank":256,"kind_detail":"4","min_zoom":5.5,"id":2850},"arcs":[255]},{"type":"MultiLineString","properties":{"source":"naturalearthdata.com","kind":"region","sort_rank":256,"kind_detail":"4","min_zoom":5.5,"id":2854},"arcs":[[256],[257],[258]]},{"type":"LineString","properties":{"source":"naturalearthdata.com","kind":"region","sort_rank":256,"kind_detail":"4","min_zoom":5.0,"id":4690},"arcs":[259]},{"type":"MultiLineString","properties":{"source":"naturalearthdata.com","kind":"region","sort_rank":256,"kind_detail":"4","min_zoom":3.0,"id":5043},"arcs":[[260],[261],[262],[263],[264],[265]]},{"type":"MultiLineString","properties":{"source":"naturalearthdata.com","kind":"region","sort_rank":256,"kind_detail":"4","min_zoom":3.0,"id":5044},"arcs":[[266],[267],[268],[269],[270],[271],[272],[273],[274],[275],[276],[277]]},{"type":"MultiLineString","properties":{"source":"naturalearthdata.com","kind":"region","sort_rank":256,"kind_detail":"4","min_zoom":3.0,"id":5040},"arcs":[[278],[279],[280],[281],[282],[283],[284],[285],[286],[287],[288],[289],[290],[291],[292],[293],[294],[295],[296],[297],[298],[299],[300],[301],[302],[303],[304],[305]]},{"type":"LineString","properties":{"source":"naturalearthdata.com","kind":"region","sort_rank":256,"kind_detail":"4","min_zoom":3.0,"id":5053},"arcs":[306]},{"type":"MultiLineString","properties":{"source":"naturalearthdata.com","kind":"region","sort_rank":256,"kind_detail":"4","min_zoom":3.0,"id":5045},"arcs":[[307],[308],[309],[310],[311],[312]]},{"type":"MultiLineString","properties":{"source":"naturalearthdata.com","kind":"region","sort_rank":256,"kind_detail":"4","min_zoom":3.0,"id":5047},"arcs":[[313],[314]]},{"type":"LineString","properties":{"source":"naturalearthdata.com","kind":"region","sort_rank":256,"kind_detail":"4","min_zoom":3.0,"id":5049},"arcs":[315]},{"type":"MultiLineString","properties":{"source":"naturalearthdata.com","kind":"region","sort_rank":256,"kind_detail":"4","min_zoom":3.0,"id":5050},"arcs":[[316],[317],[318],[319],[320],[321],[322],[323],[324],[325],[326]]},{"type":"LineString","properties":{"source":"naturalearthdata.com","kind":"region","sort_rank":256,"kind_detail":"4","min_zoom":3.0,"id":5052},"arcs":[327]},{"type":"MultiLineString","properties":{"source":"naturalearthdata.com","kind":"region","sort_rank":256,"kind_detail":"4","min_zoom":3.0,"id":5054},"arcs":[[328],[329],[330],[331],[332],[333],[334],[335]]},{"type":"LineString","properties":{"source":"naturalearthdata.com","kind":"region","sort_rank":256,"kind_detail":"4","min_zoom":3.0,"id":5056},"arcs":[336]},{"type":"MultiLineString","properties":{"source":"naturalearthdata.com","kind":"region","sort_rank":256,"kind_detail":"4","min_zoom":3.0,"id":5060},"arcs":[[337],[338],[339]]},{"type":"LineString","properties":{"source":"naturalearthdata.com","kind":"region","sort_rank":256,"kind_detail":"4","min_zoom":3.0,"id":5062},"arcs":[340]},{"type":"MultiLineString","properties":{"source":"naturalearthdata.com","kind":"region","sort_rank":256,"kind_detail":"4","min_zoom":3.0,"id":5057},"arcs":[[341],[342],[343],[344],[345],[346],[347],[348],[349],[350],[351],[352],[353],[354],[355],[356],[357],[358],[359],[360],[361],[362],[363],[364],[365],[366],[367],[368],[369],[370],[371]]},{"type":"LineString","properties":{"source":"naturalearthdata.com","kind":"region","sort_rank":256,"kind_detail":"4","min_zoom":3.0,"id":5068},"arcs":[372]},{"type":"MultiLineString","properties":{"source":"naturalearthdata.com","kind":"region","sort_rank":256,"kind_detail":"4","min_zoom":3.0,"id":5069},"arcs":[[373],[374],[375]]},{"type":"MultiLineString","properties":{"source":"naturalearthdata.com","kind":"region","sort_rank":256,"kind_detail":"4","min_zoom":3.0,"id":5071},"arcs":[[376],[377],[378]]},{"type":"MultiLineString","properties":{"source":"naturalearthdata.com","kind":"region","sort_rank":256,"kind_detail":"4","min_zoom":3.0,"id":5073},"arcs":[[379],[380],[381],[382],[383],[384],[385],[386],[387],[388]]},{"type":"MultiLineString","properties":{"source":"naturalearthdata.com","kind":"region","sort_rank":256,"kind_detail":"4","min_zoom":3.0,"id":5076},"arcs":[[389],[390],[391],[392],[393]]},{"type":"MultiLineString","properties":{"source":"naturalearthdata.com","kind":"region","sort_rank":256,"kind_detail":"4","min_zoom":3.0,"id":5077},"arcs":[[394],[395],[396]]}]},"roads":{"type":"GeometryCollection","geometries":[{"type":"LineString","properties":{"source":"naturalearthdata.com","kind":"major_road","sort_rank":379,"kind_detail":"secondary","min_zoom":4.0,"id":45495},"arcs":[438]},{"type":"LineString","properties":{"source":"naturalearthdata.com","kind":"major_road","sort_rank":379,"kind_detail":"secondary","min_zoom":3.0,"id":45517},"arcs":[439]},{"type":"LineString","properties":{"source":"naturalearthdata.com","kind":"major_road","sort_rank":379,"kind_detail":"secondary","min_zoom":4.0,"id":45577},"arcs":[440]},{"type":"LineString","properties":{"source":"naturalearthdata.com","kind":"major_road","sort_rank":379,"kind_detail":"secondary","min_zoom":4.0,"id":45610},"arcs":[441]},{"type":"LineString","properties":{"source":"naturalearthdata.com","kind":"major_road","sort_rank":379,"kind_detail":"secondary","min_zoom":4.0,"id":45612},"arcs":[442]},{"type":"LineString","properties":{"source":"naturalearthdata.com","kind":"major_road","sort_rank":379,"kind_detail":"secondary","min_zoom":4.0,"id":45651},"arcs":[443]},{"type":"LineString","properties":{"source":"naturalearthdata.com","kind":"major_road","sort_rank":379,"kind_detail":"secondary","min_zoom":4.0,"id":45666},"arcs":[444]},{"type":"LineString","properties":{"source":"naturalearthdata.com","kind":"major_road","sort_rank":379,"kind_detail":"secondary","min_zoom":4.0,"id":45708},"arcs":[445]},{"type":"LineString","properties":{"source":"naturalearthdata.com","kind":"major_road","sort_rank":379,"kind_detail":"secondary","min_zoom":4.0,"id":45731},"arcs":[446]},{"type":"LineString","properties":{"source":"naturalearthdata.com","kind":"major_road","sort_rank":379,"kind_detail":"secondary","min_zoom":4.0,"id":45749},"arcs":[447]},{"type":"LineString","properties":{"source":"naturalearthdata.com","kind":"major_road","sort_rank":379,"kind_detail":"secondary","min_zoom":4.0,"id":45752},"arcs":[448]},{"type":"LineString","properties":{"source":"naturalearthdata.com","kind":"major_road","sort_rank":379,"kind_detail":"secondary","min_zoom":4.0,"id":45755},"arcs":[449]},{"type":"LineString","properties":{"source":"naturalearthdata.com","kind":"major_road","sort_rank":379,"kind_detail":"secondary","min_zoom":3.0,"id":45767},"arcs":[450]},{"type":"LineString","properties":{"source":"naturalearthdata.com","kind":"major_road","sort_rank":379,"kind_detail":"secondary","min_zoom":4.0,"id":45801},"arcs":[451]},{"type":"LineString","properties":{"source":"naturalearthdata.com","kind":"major_road","sort_rank":379,"kind_detail":"secondary","min_zoom":4.0,"id":45802},"arcs":[452]},{"type":"LineString","properties":{"source":"naturalearthdata.com","kind":"major_road","sort_rank":379,"kind_detail":"secondary","min_zoom":4.0,"id":45823},"arcs":[453]},{"type":"LineString","properties":{"source":"naturalearthdata.com","kind":"major_road","sort_rank":379,"kind_detail":"secondary","min_zoom":4.0,"id":45831},"arcs":[454]},{"type":"LineString","properties":{"source":"naturalearthdata.com","kind":"major_road","sort_rank":379,"kind_detail":"secondary","min_zoom":4.0,"id":45835},"arcs":[455]},{"type":"LineString","properties":{"source":"naturalearthdata.com","kind":"major_road","sort_rank":379,"kind_detail":"secondary","min_zoom":4.0,"id":45858},"arcs":[456]},{"type":"LineString","properties":{"source":"naturalearthdata.com","kind":"major_road","sort_rank":379,"kind_detail":"secondary","min_zoom":4.0,"id":45896},"arcs":[457]},{"type":"LineString","properties":{"source":"naturalearthdata.com","kind":"major_road","kind_detail":"secondary","sort_rank":379,"landuse_kind":"park","min_zoom":4.0,"id":45947},"arcs":[458]},{"type":"LineString","properties":{"source":"naturalearthdata.com","kind":"major_road","kind_detail":"secondary","sort_rank":379,"landuse_kind":"park","min_zoom":4.0,"id":45947},"arcs":[459]},{"type":"LineString","properties":{"source":"naturalearthdata.com","kind":"major_road","kind_detail":"secondary","sort_rank":379,"landuse_kind":"park","min_zoom":4.0,"id":45947},"arcs":[460]},{"type":"MultiLineString","properties":{"source":"naturalearthdata.com","kind":"major_road","sort_rank":379,"kind_detail":"secondary","min_zoom":4.0,"id":45947},"arcs":[[461],[462],[463]]},{"type":"LineString","properties":{"source":"naturalearthdata.com","kind":"major_road","kind_detail":"secondary","sort_rank":379,"landuse_kind":"park","min_zoom":4.0,"id":45971},"arcs":[464]},{"type":"LineString","properties":{"source":"naturalearthdata.com","kind":"major_road","kind_detail":"secondary","sort_rank":379,"landuse_kind":"park","min_zoom":4.0,"id":45981},"arcs":[465]},{"type":"MultiLineString","properties":{"source":"naturalearthdata.com","kind":"major_road","kind_detail":"secondary","sort_rank":379,"landuse_kind":"park","min_zoom":4.0,"id":45981},"arcs":[[466],[467]]},{"type":"MultiLineString","properties":{"source":"naturalearthdata.com","kind":"major_road","sort_rank":379,"kind_detail":"secondary","min_zoom":4.0,"id":45981},"arcs":[[468],[469]]},{"type":"LineString","properties":{"source":"naturalearthdata.com","kind":"major_road","sort_rank":379,"kind_detail":"secondary","min_zoom":4.0,"id":46081},"arcs":[470]},{"type":"LineString","properties":{"source":"naturalearthdata.com","kind":"major_road","kind_detail":"secondary","sort_rank":379,"landuse_kind":"urban_area","min_zoom":3.0,"id":46084},"arcs":[471]},{"type":"LineString","properties":{"source":"naturalearthdata.com","kind":"major_road","kind_detail":"secondary","sort_rank":379,"landuse_kind":"urban_area","min_zoom":3.0,"id":46084},"arcs":[472]},{"type":"MultiLineString","properties":{"source":"naturalearthdata.com","kind":"major_road","sort_rank":379,"kind_detail":"secondary","min_zoom":3.0,"id":46084},"arcs":[[473],[474]]},{"type":"LineString","properties":{"source":"naturalearthdata.com","kind":"major_road","kind_detail":"secondary","sort_rank":379,"landuse_kind":"urban_area","min_zoom":3.0,"id":46088},"arcs":[475]},{"type":"LineString","properties":{"source":"naturalearthdata.com","kind":"major_road","sort_rank":379,"kind_detail":"secondary","min_zoom":3.0,"id":46088},"arcs":[476]},{"type":"LineString","properties":{"source":"naturalearthdata.com","kind":"major_road","kind_detail":"secondary","sort_rank":379,"landuse_kind":"urban_area","min_zoom":4.0,"id":46092},"arcs":[477]},{"type":"LineString","properties":{"source":"naturalearthdata.com","kind":"major_road","sort_rank":379,"kind_detail":"secondary","min_zoom":4.0,"id":46092},"arcs":[478]},{"type":"LineString","properties":{"source":"naturalearthdata.com","kind":"major_road","kind_detail":"secondary","sort_rank":379,"landuse_kind":"park","min_zoom":4.0,"id":46097},"arcs":[479]},{"type":"LineString","properties":{"source":"naturalearthdata.com","kind":"major_road","sort_rank":379,"kind_detail":"secondary","min_zoom":4.0,"id":46097},"arcs":[480]},{"type":"LineString","properties":{"source":"naturalearthdata.com","kind":"major_road","sort_rank":379,"kind_detail":"secondary","min_zoom":4.0,"id":46103},"arcs":[481]},{"type":"LineString","properties":{"source":"naturalearthdata.com","kind":"major_road","sort_rank":379,"kind_detail":"secondary","min_zoom":3.0,"id":46120},"arcs":[482]},{"type":"LineString","properties":{"source":"naturalearthdata.com","kind":"major_road","sort_rank":379,"kind_detail":"secondary","min_zoom":4.0,"id":46151},"arcs":[483]},{"type":"LineString","properties":{"source":"naturalearthdata.com","kind":"major_road","sort_rank":379,"kind_detail":"secondary","min_zoom":3.0,"id":46154},"arcs":[484]},{"type":"LineString","properties":{"source":"naturalearthdata.com","kind":"major_road","kind_detail":"secondary","sort_rank":379,"landuse_kind":"urban_area","min_zoom":3.0,"id":46162},"arcs":[485]},{"type":"LineString","properties":{"source":"naturalearthdata.com","kind":"major_road","kind_detail":"secondary","sort_rank":379,"landuse_kind":"urban_area","min_zoom":3.0,"id":46166},"arcs":[486]},{"type":"LineString","properties":{"source":"naturalearthdata.com","kind":"major_road","sort_rank":379,"kind_detail":"secondary","min_zoom":3.0,"id":46170},"arcs":[487]},{"type":"LineString","properties":{"source":"naturalearthdata.com","kind":"major_road","kind_detail":"secondary","sort_rank":379,"landuse_kind":"urban_area","min_zoom":3.0,"id":46173},"arcs":[488]},{"type":"LineString","properties":{"source":"naturalearthdata.com","kind":"major_road","kind_detail":"secondary","sort_rank":379,"landuse_kind":"urban_area","min_zoom":3.0,"id":46176},"arcs":[489]},{"type":"LineString","properties":{"source":"naturalearthdata.com","kind":"major_road","kind_detail":"secondary","sort_rank":379,"landuse_kind":"urban_area","min_zoom":3.0,"id":46178},"arcs":[490]},{"type":"LineString","properties":{"source":"naturalearthdata.com","kind":"major_road","sort_rank":379,"kind_detail":"secondary","min_zoom":3.0,"id":46178},"arcs":[491]},{"type":"LineString","properties":{"source":"naturalearthdata.com","kind":"major_road","sort_rank":379,"kind_detail":"secondary","min_zoom":3.0,"id":46188},"arcs":[492]},{"type":"LineString","properties":{"source":"naturalearthdata.com","kind":"major_road","sort_rank":379,"kind_detail":"secondary","min_zoom":3.0,"id":46189},"arcs":[493]},{"type":"LineString","properties":{"source":"naturalearthdata.com","kind":"major_road","sort_rank":379,"kind_detail":"secondary","min_zoom":4.0,"id":46190},"arcs":[494]},{"type":"LineString","properties":{"source":"naturalearthdata.com","kind":"major_road","kind_detail":"secondary","sort_rank":379,"landuse_kind":"urban_area","min_zoom":3.0,"id":46192},"arcs":[495]},{"type":"LineString","properties":{"source":"naturalearthdata.com","kind":"major_road","sort_rank":379,"kind_detail":"secondary","min_zoom":3.0,"id":46192},"arcs":[496]},{"type":"LineString","properties":{"source":"naturalearthdata.com","kind":"major_road","sort_rank":379,"kind_detail":"secondary","min_zoom":3.0,"id":46206},"arcs":[497]},{"type":"LineString","properties":{"source":"naturalearthdata.com","kind":"major_road","sort_rank":379,"kind_detail":"secondary","min_zoom":3.0,"id":46219},"arcs":[498]},{"type":"LineString","properties":{"source":"naturalearthdata.com","kind":"major_road","sort_rank":379,"kind_detail":"secondary","min_zoom":3.0,"id":46220},"arcs":[499]},{"type":"LineString","properties":{"source":"naturalearthdata.com","kind":"major_road","kind_detail":"secondary","sort_rank":379,"landuse_kind":"urban_area","min_zoom":3.0,"id":46226},"arcs":[500]},{"type":"LineString","properties":{"source":"naturalearthdata.com","kind":"major_road","sort_rank":379,"kind_detail":"secondary","min_zoom":3.0,"id":46226},"arcs":[501]},{"type":"LineString","properties":{"source":"naturalearthdata.com","kind":"major_road","sort_rank":379,"kind_detail":"secondary","min_zoom":4.0,"id":46233},"arcs":[502]},{"type":"LineString","properties":{"source":"naturalearthdata.com","kind":"major_road","sort_rank":379,"kind_detail":"secondary","min_zoom":4.0,"id":46277},"arcs":[503]},{"type":"LineString","properties":{"source":"naturalearthdata.com","kind":"major_road","sort_rank":379,"kind_detail":"secondary","min_zoom":3.0,"id":46287},"arcs":[504]},{"type":"LineString","properties":{"source":"naturalearthdata.com","kind":"major_road","sort_rank":379,"kind_detail":"secondary","min_zoom":3.0,"id":46288},"arcs":[505]},{"type":"LineString","properties":{"source":"naturalearthdata.com","kind":"major_road","kind_detail":"secondary","sort_rank":379,"landuse_kind":"urban_area","min_zoom":3.0,"id":46330},"arcs":[506]},{"type":"LineString","properties":{"source":"naturalearthdata.com","kind":"major_road","sort_rank":379,"kind_detail":"secondary","min_zoom":3.0,"id":46330},"arcs":[507]},{"type":"LineString","properties":{"source":"naturalearthdata.com","kind":"major_road","kind_detail":"secondary","sort_rank":379,"landuse_kind":"urban_area","min_zoom":3.0,"id":46346},"arcs":[508]},{"type":"LineString","properties":{"source":"naturalearthdata.com","kind":"major_road","sort_rank":379,"kind_detail":"secondary","min_zoom":4.0,"id":46368},"arcs":[509]},{"type":"LineString","properties":{"source":"naturalearthdata.com","kind":"major_road","sort_rank":379,"kind_detail":"secondary","min_zoom":4.0,"id":46472},"arcs":[510]},{"type":"LineString","properties":{"source":"naturalearthdata.com","kind":"major_road","sort_rank":379,"kind_detail":"secondary","min_zoom":4.0,"id":46493},"arcs":[511]},{"type":"LineString","properties":{"source":"naturalearthdata.com","kind":"major_road","kind_detail":"secondary","sort_rank":379,"landuse_kind":"urban_area","min_zoom":3.0,"id":46498},"arcs":[512]},{"type":"LineString","properties":{"source":"naturalearthdata.com","kind":"major_road","sort_rank":379,"kind_detail":"secondary","min_zoom":3.0,"id":46498},"arcs":[513]},{"type":"LineString","properties":{"source":"naturalearthdata.com","kind":"major_road","kind_detail":"secondary","sort_rank":379,"landuse_kind":"urban_area","min_zoom":3.0,"id":46555},"arcs":[514]},{"type":"LineString","properties":{"source":"naturalearthdata.com","kind":"major_road","sort_rank":379,"kind_detail":"secondary","min_zoom":3.0,"id":46555},"arcs":[515]},{"type":"LineString","properties":{"source":"naturalearthdata.com","kind":"major_road","kind_detail":"secondary","sort_rank":379,"landuse_kind":"urban_area","min_zoom":3.0,"id":46589},"arcs":[516]},{"type":"LineString","properties":{"source":"naturalearthdata.com","kind":"major_road","sort_rank":379,"kind_detail":"secondary","min_zoom":3.0,"id":46589},"arcs":[517]},{"type":"LineString","properties":{"source":"naturalearthdata.com","kind":"major_road","kind_detail":"secondary","sort_rank":379,"landuse_kind":"urban_area","min_zoom":3.0,"id":46618},"arcs":[518]},{"type":"LineString","properties":{"source":"naturalearthdata.com","kind":"major_road","sort_rank":379,"kind_detail":"secondary","min_zoom":3.0,"id":46618},"arcs":[519]},{"type":"LineString","properties":{"source":"naturalearthdata.com","kind":"major_road","kind_detail":"secondary","sort_rank":379,"landuse_kind":"urban_area","min_zoom":4.0,"id":46619},"arcs":[520]},{"type":"LineString","properties":{"source":"naturalearthdata.com","kind":"major_road","sort_rank":379,"kind_detail":"secondary","min_zoom":4.0,"id":46619},"arcs":[521]},{"type":"LineString","properties":{"source":"naturalearthdata.com","kind":"major_road","kind_detail":"secondary","sort_rank":379,"landuse_kind":"urban_area","min_zoom":4.0,"id":46621},"arcs":[522]},{"type":"LineString","properties":{"source":"naturalearthdata.com","kind":"major_road","sort_rank":379,"kind_detail":"secondary","min_zoom":4.0,"id":46621},"arcs":[523]},{"type":"LineString","properties":{"source":"naturalearthdata.com","kind":"major_road","sort_rank":379,"kind_detail":"secondary","min_zoom":4.0,"id":46622},"arcs":[524]},{"type":"LineString","properties":{"source":"naturalearthdata.com","kind":"major_road","sort_rank":379,"kind_detail":"secondary","min_zoom":4.0,"id":46625},"arcs":[525]},{"type":"LineString","properties":{"source":"naturalearthdata.com","kind":"major_road","kind_detail":"secondary","sort_rank":379,"landuse_kind":"park","min_zoom":4.0,"id":46648},"arcs":[526]},{"type":"MultiLineString","properties":{"source":"naturalearthdata.com","kind":"major_road","sort_rank":379,"kind_detail":"secondary","min_zoom":4.0,"id":46648},"arcs":[[527],[528]]},{"type":"LineString","properties":{"source":"naturalearthdata.com","kind":"major_road","kind_detail":"secondary","sort_rank":379,"landuse_kind":"urban_area","min_zoom":3.0,"id":46675},"arcs":[529]},{"type":"LineString","properties":{"source":"naturalearthdata.com","kind":"major_road","sort_rank":379,"kind_detail":"secondary","min_zoom":3.0,"id":46675},"arcs":[530]},{"type":"LineString","properties":{"source":"naturalearthdata.com","kind":"major_road","kind_detail":"secondary","sort_rank":379,"landuse_kind":"urban_area","min_zoom":3.0,"id":46940},"arcs":[531]},{"type":"LineString","properties":{"source":"naturalearthdata.com","kind":"major_road","sort_rank":379,"kind_detail":"secondary","min_zoom":3.0,"id":46940},"arcs":[532]},{"type":"LineString","properties":{"source":"naturalearthdata.com","kind":"major_road","kind_detail":"secondary","sort_rank":379,"landuse_kind":"urban_area","min_zoom":3.0,"id":46947},"arcs":[533]},{"type":"LineString","properties":{"source":"naturalearthdata.com","kind":"major_road","sort_rank":379,"kind_detail":"secondary","min_zoom":3.0,"id":46947},"arcs":[534]},{"type":"LineString","properties":{"source":"naturalearthdata.com","kind":"major_road","sort_rank":379,"kind_detail":"secondary","min_zoom":3.0,"id":47003},"arcs":[535]},{"type":"LineString","properties":{"source":"naturalearthdata.com","kind":"major_road","sort_rank":379,"kind_detail":"secondary","min_zoom":3.0,"id":47004},"arcs":[536]},{"type":"LineString","properties":{"source":"naturalearthdata.com","kind":"major_road","sort_rank":379,"kind_detail":"secondary","min_zoom":3.0,"id":47031},"arcs":[537]},{"type":"LineString","properties":{"source":"naturalearthdata.com","kind":"major_road","sort_rank":379,"kind_detail":"secondary","min_zoom":3.0,"id":47034},"arcs":[538]},{"type":"LineString","properties":{"source":"naturalearthdata.com","kind":"major_road","sort_rank":379,"kind_detail":"secondary","min_zoom":3.0,"id":47035},"arcs":[539]},{"type":"LineString","properties":{"source":"naturalearthdata.com","kind":"major_road","sort_rank":379,"kind_detail":"secondary","min_zoom":3.0,"id":47045},"arcs":[540]},{"type":"LineString","properties":{"source":"naturalearthdata.com","kind":"major_road","sort_rank":379,"kind_detail":"secondary","min_zoom":4.0,"id":47096},"arcs":[541]},{"type":"LineString","properties":{"source":"naturalearthdata.com","kind":"major_road","sort_rank":379,"kind_detail":"secondary","min_zoom":3.0,"id":47113},"arcs":[542]},{"type":"LineString","properties":{"source":"naturalearthdata.com","kind":"major_road","sort_rank":379,"kind_detail":"secondary","min_zoom":4.0,"id":47140},"arcs":[543]},{"type":"LineString","properties":{"source":"naturalearthdata.com","kind":"major_road","sort_rank":379,"kind_detail":"secondary","min_zoom":3.0,"id":47143},"arcs":[544]},{"type":"LineString","properties":{"source":"naturalearthdata.com","kind":"major_road","sort_rank":379,"kind_detail":"secondary","min_zoom":3.0,"id":47188},"arcs":[545]},{"type":"LineString","properties":{"source":"naturalearthdata.com","kind":"major_road","sort_rank":379,"kind_detail":"secondary","min_zoom":3.0,"id":47193},"arcs":[546]},{"type":"LineString","properties":{"source":"naturalearthdata.com","kind":"major_road","sort_rank":379,"kind_detail":"secondary","min_zoom":4.0,"id":47202},"arcs":[547]},{"type":"LineString","properties":{"source":"naturalearthdata.com","kind":"major_road","sort_rank":379,"kind_detail":"secondary","min_zoom":4.0,"id":47209},"arcs":[548]},{"type":"LineString","properties":{"source":"naturalearthdata.com","kind":"major_road","kind_detail":"secondary","sort_rank":379,"landuse_kind":"urban_area","min_zoom":4.0,"id":47211},"arcs":[549]},{"type":"LineString","properties":{"source":"naturalearthdata.com","kind":"major_road","sort_rank":379,"kind_detail":"secondary","min_zoom":4.0,"id":47211},"arcs":[550]},{"type":"MultiLineString","properties":{"source":"naturalearthdata.com","kind":"major_road","kind_detail":"secondary","sort_rank":379,"landuse_kind":"nature_reserve","min_zoom":4.0,"id":47218},"arcs":[[551],[552],[553]]},{"type":"MultiLineString","properties":{"source":"naturalearthdata.com","kind":"major_road","sort_rank":379,"kind_detail":"secondary","min_zoom":4.0,"id":47218},"arcs":[[554],[555],[556],[557]]},{"type":"LineString","properties":{"source":"naturalearthdata.com","kind":"major_road","kind_detail":"secondary","sort_rank":379,"landuse_kind":"urban_area","min_zoom":3.0,"id":47222},"arcs":[558]},{"type":"LineString","properties":{"source":"naturalearthdata.com","kind":"major_road","sort_rank":379,"kind_detail":"secondary","min_zoom":3.0,"id":47222},"arcs":[559]},{"type":"LineString","properties":{"source":"naturalearthdata.com","kind":"major_road","kind_detail":"secondary","sort_rank":379,"landuse_kind":"urban_area","min_zoom":4.0,"id":47223},"arcs":[560]},{"type":"LineString","properties":{"source":"naturalearthdata.com","kind":"major_road","sort_rank":379,"kind_detail":"secondary","min_zoom":4.0,"id":47227},"arcs":[561]},{"type":"LineString","properties":{"source":"naturalearthdata.com","kind":"major_road","kind_detail":"secondary","sort_rank":379,"landuse_kind":"urban_area","min_zoom":3.0,"id":47231},"arcs":[562]},{"type":"LineString","properties":{"source":"naturalearthdata.com","kind":"major_road","sort_rank":379,"kind_detail":"secondary","min_zoom":4.0,"id":47232},"arcs":[563]},{"type":"LineString","properties":{"source":"naturalearthdata.com","kind":"major_road","kind_detail":"secondary","sort_rank":379,"landuse_kind":"urban_area","min_zoom":4.0,"id":47236},"arcs":[564]},{"type":"LineString","properties":{"source":"naturalearthdata.com","kind":"major_road","sort_rank":379,"kind_detail":"secondary","min_zoom":4.0,"id":47236},"arcs":[565]},{"type":"LineString","properties":{"source":"naturalearthdata.com","kind":"major_road","sort_rank":379,"kind_detail":"secondary","min_zoom":4.0,"id":47252},"arcs":[566]},{"type":"LineString","properties":{"source":"naturalearthdata.com","kind":"major_road","kind_detail":"secondary","sort_rank":379,"landuse_kind":"urban_area","min_zoom":4.0,"id":47260},"arcs":[567]},{"type":"LineString","properties":{"source":"naturalearthdata.com","kind":"major_road","sort_rank":379,"kind_detail":"secondary","min_zoom":4.0,"id":47260},"arcs":[568]},{"type":"LineString","properties":{"source":"naturalearthdata.com","kind":"major_road","sort_rank":379,"kind_detail":"secondary","min_zoom":3.0,"id":47264},"arcs":[569]},{"type":"LineString","properties":{"source":"naturalearthdata.com","kind":"major_road","kind_detail":"secondary","sort_rank":379,"landuse_kind":"nature_reserve","min_zoom":4.0,"id":47269},"arcs":[570]},{"type":"MultiLineString","properties":{"source":"naturalearthdata.com","kind":"major_road","sort_rank":379,"kind_detail":"secondary","min_zoom":4.0,"id":47269},"arcs":[[571],[572]]},{"type":"LineString","properties":{"source":"naturalearthdata.com","kind":"major_road","kind_detail":"secondary","sort_rank":379,"landuse_kind":"urban_area","min_zoom":3.0,"id":47272},"arcs":[573]},{"type":"LineString","properties":{"source":"naturalearthdata.com","kind":"major_road","sort_rank":379,"kind_detail":"secondary","min_zoom":3.0,"id":47272},"arcs":[574]},{"type":"LineString","properties":{"source":"naturalearthdata.com","kind":"major_road","kind_detail":"secondary","sort_rank":379,"landuse_kind":"urban_area","min_zoom":3.0,"id":47276},"arcs":[575]},{"type":"LineString","properties":{"source":"naturalearthdata.com","kind":"major_road","kind_detail":"secondary","sort_rank":379,"landuse_kind":"urban_area","min_zoom":3.0,"id":47277},"arcs":[576]},{"type":"LineString","properties":{"source":"naturalearthdata.com","kind":"major_road","kind_detail":"secondary","sort_rank":379,"landuse_kind":"urban_area","min_zoom":4.0,"id":47278},"arcs":[577]},{"type":"LineString","properties":{"source":"naturalearthdata.com","kind":"major_road","sort_rank":379,"kind_detail":"secondary","min_zoom":4.0,"id":47278},"arcs":[578]},{"type":"LineString","properties":{"source":"naturalearthdata.com","kind":"major_road","kind_detail":"secondary","sort_rank":379,"landuse_kind":"park","min_zoom":4.0,"id":47280},"arcs":[579]},{"type":"LineString","properties":{"source":"naturalearthdata.com","kind":"major_road","sort_rank":379,"kind_detail":"secondary","min_zoom":4.0,"id":47280},"arcs":[580]},{"type":"LineString","properties":{"source":"naturalearthdata.com","kind":"major_road","kind_detail":"secondary","sort_rank":379,"landuse_kind":"urban_area","min_zoom":3.0,"id":47290},"arcs":[581]},{"type":"LineString","properties":{"source":"naturalearthdata.com","kind":"major_road","kind_detail":"secondary","sort_rank":379,"landuse_kind":"urban_area","min_zoom":3.0,"id":47290},"arcs":[582]},{"type":"LineString","properties":{"source":"naturalearthdata.com","kind":"major_road","sort_rank":379,"kind_detail":"secondary","min_zoom":3.0,"id":47290},"arcs":[583]},{"type":"LineString","properties":{"source":"naturalearthdata.com","kind":"major_road","kind_detail":"secondary","sort_rank":379,"landuse_kind":"urban_area","min_zoom":4.0,"id":47297},"arcs":[584]},{"type":"LineString","properties":{"source":"naturalearthdata.com","kind":"major_road","sort_rank":379,"kind_detail":"secondary","min_zoom":4.0,"id":47297},"arcs":[585]},{"type":"LineString","properties":{"source":"naturalearthdata.com","kind":"major_road","sort_rank":379,"kind_detail":"secondary","min_zoom":3.0,"id":47299},"arcs":[586]},{"type":"LineString","properties":{"source":"naturalearthdata.com","kind":"major_road","kind_detail":"secondary","sort_rank":379,"landuse_kind":"urban_area","min_zoom":3.0,"id":47300},"arcs":[587]},{"type":"LineString","properties":{"source":"naturalearthdata.com","kind":"major_road","sort_rank":379,"kind_detail":"secondary","min_zoom":3.0,"id":47300},"arcs":[588]},{"type":"LineString","properties":{"source":"naturalearthdata.com","kind":"major_road","sort_rank":379,"kind_detail":"secondary","min_zoom":4.0,"id":47315},"arcs":[589]},{"type":"LineString","properties":{"source":"naturalearthdata.com","kind":"major_road","sort_rank":379,"kind_detail":"secondary","min_zoom":4.0,"id":47326},"arcs":[590]},{"type":"LineString","properties":{"source":"naturalearthdata.com","kind":"major_road","kind_detail":"secondary","sort_rank":379,"landuse_kind":"urban_area","min_zoom":4.0,"id":47337},"arcs":[591]},{"type":"LineString","properties":{"source":"naturalearthdata.com","kind":"major_road","sort_rank":379,"kind_detail":"secondary","min_zoom":4.0,"id":47337},"arcs":[592]},{"type":"LineString","properties":{"source":"naturalearthdata.com","kind":"major_road","sort_rank":379,"kind_detail":"secondary","min_zoom":4.0,"id":47351},"arcs":[593]},{"type":"LineString","properties":{"source":"naturalearthdata.com","kind":"highway","kind_detail":"motorway","sort_rank":383,"landuse_kind":"urban_area","min_zoom":3.0,"id":47381},"arcs":[594]},{"type":"LineString","properties":{"source":"naturalearthdata.com","kind":"highway","sort_rank":383,"kind_detail":"motorway","min_zoom":3.0,"id":47381},"arcs":[595]},{"type":"LineString","properties":{"source":"naturalearthdata.com","kind":"highway","kind_detail":"motorway","sort_rank":383,"landuse_kind":"urban_area","min_zoom":3.0,"id":47435},"arcs":[596]},{"type":"LineString","properties":{"source":"naturalearthdata.com","kind":"highway","sort_rank":383,"kind_detail":"motorway","min_zoom":3.0,"id":47435},"arcs":[597]},{"type":"LineString","properties":{"source":"naturalearthdata.com","kind":"major_road","sort_rank":379,"kind_detail":"secondary","min_zoom":4.0,"id":47467},"arcs":[598]}]},"earth":{"type":"GeometryCollection","geometries":[{"type":"MultiPolygon","properties":{"sort_rank":10,"source":"naturalearthdata.com","min_zoom":0.0,"kind":"earth","area":4072426933541},"arcs":[[[599]]]}]},"landuse":{"type":"GeometryCollection","geometries":[{"type":"Polygon","properties":{"kind":"park","name":"Reserva de Fauna y Flora Olaroz - Cauchari","area":2392410112,"sort_rank":24,"source":"openstreetmap.org","min_zoom":4.0,"tier":2,"id":-3521342,"osm_relation":true},"arcs":[[600]]},{"type":"Polygon","properties":{"kind":"nature_reserve","name":"Reserva H\u00eddrica Provincial Pampa de Achala","area":2198569984,"sort_rank":23,"source":"openstreetmap.org","min_zoom":4.0,"tier":2,"id":-5380845,"osm_relation":true},"arcs":[[601]]},{"type":"Polygon","properties":{"kind":"nature_reserve","name":"Parque Nacional Copo","area":1452540032,"sort_rank":23,"source":"openstreetmap.org","min_zoom":4.0,"tier":2,"id":313876873},"arcs":[[602]]},{"type":"Polygon","properties":{"kind":"park","name":"Parque Nacional El Impenetrable","area":1453929984,"sort_rank":24,"source":"openstreetmap.org","min_zoom":4.0,"tier":2,"id":328092794},"arcs":[[603]]},{"type":"Polygon","properties":{"kind":"nature_reserve","name":"Reserva Ba\u00f1ados del R\u00edo Dulce y Laguna Mar Chiquita","area":14508399616,"sort_rank":23,"source":"openstreetmap.org","min_zoom":4.0,"tier":2,"id":-5380907,"osm_relation":true},"arcs":[[604]]},{"type":"Polygon","properties":{"kind":"park","name":"Reserva Natural Esteros del Iber\u00e1","area":14381599744,"sort_rank":24,"source":"openstreetmap.org","min_zoom":4.0,"tier":2,"id":126481848},"arcs":[[605]]},{"type":"MultiPolygon","properties":{"source":"naturalearthdata.com","kind":"urban_area","name":"","area":24670838190,"sort_rank":11,"min_zoom":4.0},"arcs":[[[606]],[[607]],[[608]],[[609]],[[610]],[[611]],[[612]],[[613]],[[614]],[[615]],[[616]],[[617]]]},{"type":"Polygon","properties":{"kind":"park","name":"Parque Provincial Los Andes","area":18410600448,"sort_rank":24,"source":"openstreetmap.org","min_zoom":4.0,"tier":2,"id":-2848225,"osm_relation":true},"arcs":[[618]]},{"type":"Polygon","properties":{"kind":"nature_reserve","name":"Reserva Natural Provincial Laguna Blanca","area":10813500416,"sort_rank":23,"source":"openstreetmap.org","min_zoom":4.0,"tier":2,"id":370668228},"arcs":[[619]]},{"type":"Polygon","properties":{"kind":"nature_reserve","name":"Reserva Provincial Copo","area":1736280064,"sort_rank":23,"source":"openstreetmap.org","min_zoom":4.0,"tier":2,"id":329240941},"arcs":[[620]]},{"type":"Polygon","properties":{"kind":"nature_reserve","name":"Reserva Nacional de Fauna Andina Eduardo Avaroa","area":8012539904,"sort_rank":23,"operator":"SERNAP","source":"openstreetmap.org","min_zoom":4.0,"tier":2,"id":-445306,"osm_relation":true},"arcs":[[621]]},{"type":"Polygon","properties":{"kind":"park","name":"Parque Natural Provincial Valle F\u00e9rtil","area":10443700224,"sort_rank":24,"source":"openstreetmap.org","min_zoom":4.0,"tier":2,"id":-3302078,"osm_relation":true},"arcs":[[622]]},{"type":"Polygon","properties":{"kind":"park","name":"Reserva Provincial Altoandina de La Chinchilla","area":4256719872,"sort_rank":24,"source":"openstreetmap.org","min_zoom":4.0,"tier":2,"id":-3518442,"osm_relation":true},"arcs":[[623]]}]}},"type":"Topology","transform":{"translate":[-67.5,-31.952162238],"scale":[0.002746582,0.002443632]},"arcs":[[[1902,3863],[-2,0],[-1,3],[0,5],[0,2],[-1,2],[-3,1],[-4,2],[-13,1],[-2,1],[-8,3],[-25,18],[-6,6],[-3,7],[-3,2],[-14,5],[-5,2],[-9,12],[-6,6],[-9,2],[-4,1],[-5,1],[-4,3],[-3,4],[1,3],[2,4],[2,4],[-3,5],[3,0],[-2,4],[-3,2],[-3,2],[-3,1]],[[1929,3816],[-5,1],[-9,5],[-5,4],[0,5],[6,7],[2,7],[-3,7],[-8,10],[-2,1]],[[1905,3863],[-3,0]],[[2124,3548],[-5,1],[-3,2],[-6,7],[-5,3],[-5,3],[-4,3],[-2,8],[0,7],[-1,5],[-3,4],[-4,5],[-3,3],[-9,5],[-4,4],[-8,13],[-3,3],[-41,25],[-13,15],[-5,8],[0,2],[-1,2],[2,9],[-1,4],[-4,6],[-7,16],[-5,8],[-8,8],[-3,5],[-1,5],[-2,0],[-4,3],[-3,3],[0,1],[-3,1],[-1,4],[-1,3],[-1,3],[-10,12],[-3,4],[-1,5],[-3,3],[-5,2],[-1,2],[4,9],[-7,5],[1,5],[2,9],[-2,5],[-1,0]],[[1931,3816],[-2,0]],[[2291,3435],[-2,0],[-4,3],[-7,7],[-3,2],[-8,2],[-3,6],[-3,6],[-3,5],[-23,11],[-9,1],[-5,1],[-3,3],[-5,4],[-5,4],[-6,3],[-7,1],[-7,0],[-4,3],[-3,9],[-6,4],[0,4],[2,5],[2,3],[-7,0],[-4,1],[-3,2],[-19,20],[-5,3]],[[2141,3548],[-17,0]],[[2376,3326],[-12,8],[-3,3],[-5,9],[-3,3],[0,5],[-5,9],[-6,8],[-9,5],[-6,11],[-4,4],[4,6],[1,10],[-1,8],[-5,4],[-6,2],[-6,5],[-5,6],[-4,3],[-3,1]],[[2298,3436],[-7,-1]],[[2433,3306],[-7,1],[-11,6],[-12,11],[-13,6]],[[2390,3330],[-14,-4]],[[2480,3298],[-4,1],[-7,6],[-4,2]],[[2465,3307],[-21,-1],[-11,0]],[[2577,3259],[-23,5],[-12,8],[-6,4],[-14,0],[-2,1],[-5,13],[-1,2],[-3,1],[-6,4],[-4,1],[-5,1]],[[2496,3299],[-16,-1]],[[2611,3247],[-3,1],[-4,2],[-7,6],[-4,3],[-3,0]],[[2590,3259],[-13,0]],[[3341,2847],[-4,1],[-2,3],[-2,3],[-2,4],[-23,27],[-9,12],[-4,5],[-9,4],[-80,16],[-2,2],[-1,3],[-2,2],[-3,1],[-2,2],[-6,2],[-18,0],[-8,2],[-70,55],[-11,3],[-4,2],[-7,8],[-4,2],[-2,0],[-7,0],[-7,3],[-13,9],[-9,3],[-10,8],[-16,5],[-3,3],[-2,3],[-3,2],[-5,1],[-4,1],[-4,6],[-12,5],[-6,7],[-8,15],[-3,4],[-14,13],[-9,4],[-1,3],[-1,4],[-2,3],[-2,2],[-8,3],[-8,5],[-4,3],[-4,5],[-3,2],[-7,1],[-6,4],[-9,1],[-4,2],[-2,2],[-7,9],[-14,15],[-131,89],[-6,2]],[[2712,3253],[-8,-1],[-17,-6],[-8,-2],[-28,-1]],[[2651,3243],[-28,5]],[[2623,3248],[-12,-1]],[[3414,2840],[-4,6],[-33,23]],[[3377,2869],[-6,0],[-7,-5],[-10,-11],[-4,-3],[-5,-2],[-4,-1]],[[3447,2827],[-3,0],[-26,13]],[[3418,2840],[-4,0]],[[3590,2593],[6,0],[3,3],[1,9],[4,3],[5,1],[4,5],[2,7],[5,36],[0,7],[-3,5],[-5,5],[-22,19],[-1,4],[-11,29],[-11,8],[-7,10],[-12,27],[-4,5],[-11,6],[-6,4],[-16,19],[-5,5],[-7,3],[-29,0],[-5,2],[-2,4],[-2,4],[-2,4],[-4,1]],[[3455,2828],[-8,-1]],[[3580,2594],[10,-1]],[[3569,2578],[3,0],[4,2],[1,3],[2,10],[1,1]],[[3565,2578],[4,0]],[[3414,2353],[3,5],[3,8],[4,14],[3,4],[24,9],[12,7],[42,32],[5,6],[0,6],[-17,5],[3,6],[13,10],[2,4],[2,4],[0,5],[-9,3],[-1,3],[1,2],[8,3],[8,5],[5,3],[2,2],[4,6],[-6,14],[-1,8],[6,3],[6,2],[7,6],[6,6],[4,5],[-4,2],[-3,1],[-3,2],[-2,4],[8,12],[4,4],[8,3],[4,1]],[[3404,2362],[3,-2],[3,-2],[2,-2],[2,-3]],[[3388,2167],[4,0],[2,3],[-1,3],[-2,3],[-2,4],[0,5],[1,1],[6,5],[3,2],[-2,3],[-3,5],[-3,4],[-8,6],[-2,2],[-1,7],[1,6],[2,6],[1,8],[1,3],[5,4],[1,4],[-8,8],[-2,5],[3,7],[12,22],[2,6],[1,6],[-2,14],[0,6],[3,3],[6,1],[8,4],[6,5],[0,5],[-5,4],[-6,3],[-4,4],[-1,8]],[[3374,2170],[2,-1],[12,-2]],[[3364,2123],[3,0],[2,3],[1,31],[1,8],[2,5],[1,0]],[[3360,2123],[4,0]],[[3354,2104],[5,5],[-2,3],[-2,5],[-1,4],[6,2]],[[3341,2107],[7,-2],[6,-1]],[[3273,2002],[1,2],[0,7],[1,3],[1,3],[4,6],[6,8],[3,5],[-6,5],[0,6],[3,5],[5,4],[17,4],[7,4],[4,5],[3,4],[17,1],[5,4],[-2,7],[-7,5],[-4,6],[4,9],[6,2]],[[3264,2012],[2,-2],[1,-3],[0,-2],[0,-1],[3,-1],[3,-1]],[[3239,1897],[1,21],[0,8],[-5,8],[-9,7],[-5,5],[-2,5],[2,12],[5,8],[9,5],[18,3],[2,4],[-1,7],[0,7],[1,4],[1,3],[2,3],[2,3],[4,2]],[[3412,1916],[-40,5]],[[3372,1921],[-99,-8],[-33,-15],[-1,-1]],[[3645,1856],[-9,1],[-2,1],[-6,2],[-59,30],[-4,2],[-38,7],[-15,6],[-17,3],[-5,1],[-11,5],[-21,5],[-7,1],[-12,1]],[[3439,1921],[-22,-4],[-5,-1]],[[4096,1872],[-2,0],[-9,-5],[-2,-9],[2,-11],[-2,-9],[-4,-8],[-7,-8],[-7,-11],[-5,-12],[-7,-10],[-12,-3]],[[3783,1826],[-14,0],[-3,1],[-9,0],[-4,1],[-3,3],[-10,8],[-3,2],[-1,0],[-16,4],[-4,1],[-3,2],[-3,3],[-6,6],[-3,2],[-8,2],[-1,0]],[[3692,1861],[-10,0],[-37,-5]],[[3906,1819],[-13,8],[-22,23],[-13,5]],[[3858,1855],[-14,-1],[-13,-6],[-36,-20],[-12,-2]],[[4041,1786],[-11,5],[-11,9],[-9,11],[-7,11],[-15,18],[-24,4]],[[3964,1844],[-9,-3],[-17,-5],[-18,-14],[-14,-3]],[[3479,4096],[-3,-6],[-4,-4],[0,-4],[-8,-24],[-1,-5],[0,-7],[1,-4],[5,-2],[0,-1],[4,-3],[3,-7],[5,-5],[12,-4]],[[4033,4042],[6,0],[3,-5],[10,-25],[9,-13],[11,-11],[20,-13],[4,-4]],[[3951,3965],[1,3],[-3,8],[2,2],[4,1],[3,2],[12,9],[4,5],[6,11],[1,1],[3,2],[1,1],[2,7],[1,2],[6,9],[3,4],[4,3],[6,2],[26,5]],[[3581,4032],[4,-2],[5,-16],[5,-9],[4,-5],[7,-1]],[[3572,4028],[4,1],[3,2],[2,1]],[[3555,4030],[5,0],[4,-2],[8,0]],[[3546,4027],[2,0],[7,3]],[[3543,4029],[3,-2]],[[3533,4019],[3,1],[5,2],[-1,1],[0,2],[1,2],[0,2],[2,0]],[[3506,4023],[3,-2],[5,-6],[2,-1]],[[3493,4020],[4,0],[6,3],[3,0]],[[3526,4020],[4,0],[3,-1]],[[3516,4014],[4,1],[6,5]],[[3621,4003],[4,0],[3,-2],[9,-6]],[[3606,3999],[8,1],[4,1],[1,1],[2,1]],[[3651,3999],[3,0],[8,-3],[4,-1],[5,-2],[12,-8],[2,0]],[[3637,3995],[14,4]],[[3745,3996],[2,-2],[1,-6],[2,-2],[4,-1]],[[3724,3985],[7,2],[9,7],[5,2]],[[3702,3990],[6,-1],[16,-4]],[[3695,3984],[4,0],[2,2],[1,3],[0,1]],[[3761,3989],[6,-1],[11,-5],[3,-2],[1,-2],[1,-2],[7,-1],[2,-1],[2,0]],[[3754,3985],[2,1],[2,2],[3,1]],[[3686,3988],[3,-1],[6,-3]],[[3685,3985],[1,3]],[[3927,3985],[6,-4],[12,-15],[6,-1]],[[3916,3970],[4,3],[2,3],[3,7],[2,2]],[[3801,3977],[12,-1]],[[3794,3975],[3,1],[4,1]],[[3819,3977],[9,-3],[4,0]],[[3813,3976],[6,1]],[[3836,3977],[0,-7],[1,-2]],[[3832,3974],[4,3]],[[3858,3976],[4,-7],[4,-10],[1,-5],[8,-1]],[[3854,3965],[4,11]],[[3912,3973],[3,0],[1,-2],[0,-1]],[[3898,3969],[2,1],[12,3]],[[3893,3971],[5,-2]],[[3875,3953],[5,1],[9,10],[2,4],[0,3],[2,0]],[[3840,3969],[4,0],[6,-4],[4,0]],[[3837,3968],[3,1]],[[4096,1302],[-6,-1],[-7,-3],[-3,-6],[-3,-35],[-8,-15],[-25,-14],[-7,-16],[0,-17],[-1,-8],[-5,-7],[-6,-4],[-25,-6],[-13,-7],[-13,-9],[-12,-12],[-9,-14],[-3,-5],[-2,-6],[0,-6],[2,-6],[-4,-8],[-5,-17],[-5,-7],[-6,-6],[-4,-3],[-13,-6],[-4,-2],[-2,-3],[-2,-3],[-2,-4],[-1,-4],[0,-4],[0,-4],[-6,-3],[-3,-5],[-2,-5],[-1,-4],[-1,-3],[-29,-25],[-2,-6],[-3,-3],[-14,-12],[-6,-6],[-5,-14],[-10,-11],[-2,-4],[-3,-5],[-26,-28],[-7,-5],[-8,-3],[-16,0],[-15,-2],[-16,-6],[-10,-9],[-6,-14],[-4,-48],[-2,-6],[-32,-24],[-34,-43],[-16,-11],[-7,-2],[-16,-3]],[[0,3219],[7,2],[7,3],[3,2],[15,5],[18,11],[8,12],[8,27],[12,41]],[[0,3711],[111,25]],[[78,3322],[13,41],[1,5],[25,87],[26,87],[25,87],[7,21],[2,13],[-66,73]],[[3857,754],[-18,5]],[[3839,759],[-7,0],[-13,-2],[-3,-1],[-7,-4]],[[3967,678],[-4,1],[-6,3],[0,3],[1,4],[-1,9],[-4,5],[-5,5],[-6,4],[-12,6],[-22,15],[-4,4],[-6,11],[-14,9]],[[3884,757],[-13,0],[-14,-3]],[[3809,752],[-4,0],[-7,3],[-3,0]],[[3795,755],[-9,-6],[-10,-12],[-8,-13],[-3,-10],[-2,-13],[-7,-12],[-10,-8],[-12,-2]],[[3637,686],[-9,1],[-12,7],[-7,21],[-9,9]],[[3678,676],[-6,2],[-6,8],[-4,3]],[[3662,689],[-9,-1],[-16,-2]],[[3715,679],[-5,2],[-4,3],[-5,3],[-7,1]],[[3694,688],[-5,-3],[-8,-7],[-3,-2]],[[3734,679],[-2,1],[-5,5],[-3,1]],[[3724,686],[-2,-1],[-4,-5],[-3,-1]],[[4096,570],[-7,3],[-21,18],[-17,9],[-5,4],[-5,7],[-9,15],[-6,6],[-19,12],[-6,5],[-5,4],[-13,15],[-3,5],[-2,2],[-4,3],[-4,0]],[[3970,678],[-3,0]],[[639,4026],[-11,4],[-11,8],[-46,57],[-1,1]],[[443,4096],[-2,-6],[-3,-38],[-2,-6],[-2,-5],[-1,0]],[[1766,3977],[-3,1],[-1,3],[-1,3],[-2,4],[-4,5],[-15,12],[-18,8],[-5,6],[-2,7],[-1,13],[-2,5],[1,4],[0,4],[-2,15],[-1,4],[-6,1],[-15,3]],[[1689,4075],[-54,-3]],[[1369,4052],[-4,2],[-15,14],[-8,3],[-34,3]],[[1308,4074],[-9,-2],[-6,-2],[-1,-2],[0,-2],[-3,-9],[-2,-8],[-1,-4],[-3,-3],[-3,-1],[-2,-1],[-2,-1],[-3,-7],[-6,-23],[-11,-30],[-3,-5],[-7,-4],[-3,-3],[-27,-74],[-9,-13],[-19,-19],[-5,-10],[-16,-61],[0,-30],[-3,-7],[-9,-32],[1,-5]],[[1635,4072],[-115,1],[-114,1]],[[1406,4074],[-14,-3],[-6,-3],[-17,-16]],[[433,4041],[-1,1]],[[432,4042],[-5,-1],[-3,-2],[-3,-3],[-2,-4],[-1,-4],[-9,-7],[-49,-15],[-42,-12],[-1,-2],[-1,-3],[-2,-3],[-1,0]],[[744,4031],[-20,2],[-25,4]],[[699,4037],[-3,0],[-2,-2],[-1,-1],[-3,-2],[-51,-6]],[[1011,3998],[-14,3],[-26,15],[-68,17]],[[903,4033],[-62,-1],[-97,-1]],[[1156,3716],[-7,3],[-1,19],[-5,6],[3,10],[-1,11],[-5,9],[-8,4],[-4,3],[-10,22],[-3,3],[-4,1],[-2,3],[-1,6],[1,4],[1,8],[1,4],[1,5],[3,4],[3,4],[0,6],[-20,21],[-5,7],[-2,10],[-2,2],[-6,4],[-2,4],[0,4],[3,8],[-1,4],[-5,5],[-7,5],[-5,7],[4,10],[4,6],[3,5],[0,7],[-4,8],[-3,5],[-9,13],[-4,2],[-7,2],[-8,4],[-7,6],[-8,1],[-3,1]],[[1024,4002],[-3,-1],[-7,-3],[-3,0]],[[313,3986],[-6,2],[-7,1],[-5,1],[-3,1]],[[292,3991],[-5,-3],[-9,-7],[-5,-9],[-2,-9],[-4,-30],[-3,-10],[-5,-6],[-1,-3],[3,-12],[-1,-4],[-4,-3],[-41,-14],[-9,-5],[-8,-8],[-3,-6],[-5,-3],[-6,-1]],[[184,3858],[-8,0]],[[176,3858],[-6,0],[3,-38],[-1,-9],[-4,-6],[-27,-23],[-11,-13],[-19,-33]],[[3600,724],[-8,0],[-3,-4],[2,-9],[5,-18],[-3,-16],[-8,-13],[-71,-64],[-10,-12],[-5,-15],[1,-16],[9,-15],[5,-8],[8,-17],[3,-10],[4,-14],[2,-11],[1,-7],[1,-10],[0,-17],[0,-4],[-2,-10],[-2,-7],[-4,-1]],[[3525,426],[-9,1]],[[3516,427],[-15,-4],[-7,-5],[-3,-7],[2,-5],[16,-21],[3,-19],[-7,-14],[-9,-14],[-5,-18],[2,-18],[0,-11],[-3,-5],[-8,-15],[-2,-3],[-6,-4],[-3,-3],[-3,-8],[-2,-19],[-4,-8],[-5,-5],[-14,-8],[-7,-5],[-5,-13],[9,-10],[5,-3],[9,-7],[10,-12],[2,-18],[-3,-18],[-22,-64],[-4,-5],[-9,-4],[-17,-3],[-8,-3],[-6,-5],[-10,-10],[-2,-9],[5,-8],[11,-13],[1,-3]],[[1766,3977],[8,20],[10,39],[10,36],[7,24]],[[3915,2578],[-1,3],[0,1],[-21,44],[-2,5],[-1,4],[2,3],[90,64],[7,26],[18,108]],[[3952,2554],[-12,2],[-2,1],[-3,2],[-8,10],[-12,9]],[[3745,2850],[-8,1],[-9,2]],[[3728,2853],[-9,-1],[-4,-9],[-17,-24],[-4,-3],[-4,-3],[-5,-2],[-3,-1],[-3,-2],[-7,-7],[-3,-2],[-12,0]],[[847,4033],[-6,-1]],[[1493,2575],[112,147],[276,367],[-2,116]],[[841,4032]],[[3144,1618],[-267,-1]],[[2877,1617],[-161,0]],[[2716,1617],[-256,-1]],[[2460,1616],[-352,1]],[[2108,1617],[0,78],[0,416],[0,218],[0,47],[-4,164],[-12,34],[-599,1]],[[2108,1617],[-22,-146],[-35,-229],[-31,-198],[-17,-108],[-32,-201]],[[3331,2073]],[[1879,3205],[0,231],[-1,443]],[[597,21],[-17,0],[-6,1],[-3,1],[-2,1],[-6,4],[-2,1],[-4,1],[-17,3]],[[540,33],[-14,0],[-18,-4],[-8,-3],[-15,-9],[-18,-6],[-19,-2]],[[333,15],[-3,0],[-3,1],[-4,2],[-10,5],[-8,3],[-25,5]],[[634,27],[-37,-6]],[[366,13],[-2,0],[-8,5],[-4,2],[-3,0]],[[349,20],[-2,0],[-8,-4],[-6,-1]],[[410,8],[-3,0],[-10,5],[-5,2],[-4,0]],[[388,15],[-2,0],[-20,-2]],[[448,9],[-17,2]],[[431,11],[-5,-1],[-12,-2],[-4,0]],[[3514,3900],[-1,4],[2,3],[7,7],[-2,4],[-17,22],[-3,14],[-4,4],[-6,2],[-10,0],[-5,3],[-4,5],[-3,9],[-1,9],[4,26],[-3,7],[-2,17],[3,3],[0,1]],[[3973,2364],[-2,-13],[-2,-4],[-13,-15],[-2,-4],[-4,-16],[-1,-14],[-1,-4],[-2,-3],[-7,-6],[-2,-2],[-1,-2],[1,-4],[1,-4],[-1,-4],[-1,-4],[-5,-5],[-3,-4],[-1,-4],[0,-5],[-2,-5],[-3,-5],[-7,-6],[-4,-3],[-6,-4],[-3,-10]],[[3566,2267],[26,-151],[2,-7],[3,-8],[30,-43],[42,-50],[3,-1],[66,-10],[11,-3],[3,-7],[-3,-15],[-32,-93],[-7,-28]],[[3764,2671],[18,-34],[3,-3],[6,-4],[10,-1],[4,-1],[8,-3],[7,-1],[3,0]],[[3850,2625],[4,0],[4,-1],[3,-3],[1,-3],[2,-10],[1,-4],[2,-4],[1,-2],[0,-2],[-1,-2],[-1,-2],[-4,-5],[-5,-4],[-1,-1],[0,-2],[1,-3],[2,-1],[3,-1],[11,-1]],[[3823,2624],[27,1]],[[3894,2584],[3,0],[3,0],[15,-6]],[[3873,2574],[3,0],[3,1],[2,1],[3,2],[2,2],[4,2],[4,2]],[[3936,3713],[-2,0],[0,2],[1,5],[2,3],[2,3],[8,5],[2,3],[1,4],[-3,7],[-3,17],[-2,8],[-4,5],[-2,3],[-2,2],[-2,1],[-2,2],[0,3],[1,6],[0,3],[-1,3],[-3,4],[-2,3],[-1,4],[1,5],[1,3],[1,4],[0,5],[-1,7],[0,8],[0,2],[-2,9],[0,3],[1,2],[4,2],[1,3],[0,3],[-1,9],[0,2],[1,3],[1,2],[2,2],[12,8],[3,3],[15,23],[2,2],[9,4],[1,2],[-15,6],[-77,20],[-3,3]],[[4096,3762],[-8,21],[-1,3],[-2,2],[-5,2],[-2,1],[-2,0]],[[4076,3791],[-2,-1],[-2,-1],[-9,-7],[-2,-1],[-2,-1],[-4,-1],[-2,-1],[-2,-1],[-1,-1],[-1,-2],[-4,-8],[-3,-3],[-1,-2],[-2,-1],[-3,-2],[-2,0],[-19,-4],[-2,-1],[-2,-1],[-3,-2],[-2,-2],[-1,-1],[0,-1],[-2,-4],[0,-2],[-1,-8],[-1,-2],[-1,-2],[-4,-5],[-3,-6],[-1,-2],[-2,-1],[-4,-1],[-7,-3],[-2,-1],[-2,0]],[[3975,3709],[-3,0],[-2,1],[-2,1],[-2,2],[-4,4],[-2,2],[-2,0]],[[3958,3719],[-2,-1],[-3,-3],[-1,-1],[-2,-1],[-7,0]],[[3943,3713],[-5,0]],[[3938,3713],[-2,0]],[[4077,3524],[2,2],[1,1],[0,1],[1,2],[1,4],[1,10],[0,2],[1,2],[1,1],[2,2],[1,1],[4,2],[1,2],[1,4],[1,2],[1,0]],[[4096,2930],[-2,-2],[-3,-4],[-3,-6],[-2,-4],[-3,-6],[-5,-5],[-16,-10],[-3,-3],[-3,-4],[-1,-4],[-3,-5],[-4,-4],[-11,-6],[-4,-3],[-26,-28]],[[4096,3530],[-6,-3],[-4,-3],[-3,-2],[-2,0]],[[4081,3522],[-4,2]],[[4077,3524],[-11,-5],[-5,-5],[-3,-6],[-5,-3],[-5,-5],[-8,-5],[-3,0]],[[4037,3495],[-2,0],[-3,0],[-3,1]],[[4029,3496],[-14,-5],[-17,-8],[-2,-1],[-4,0],[-5,-1],[-12,-2],[-5,-1]],[[3900,3486],[-18,5],[-9,1]],[[3873,3492],[-3,0],[-3,-1],[-3,-3],[-2,-2],[-2,-1],[-4,0]],[[3942,3481],[-3,1],[-9,5],[-4,0],[-5,1]],[[3921,3488],[-21,-2]],[[3856,3485],[-9,1]],[[3847,3486],[-4,-1],[-5,-1],[-7,-4],[-2,0]],[[3970,3478],[-3,0],[-3,3],[-3,1],[-4,1]],[[3957,3483],[-10,-2],[-5,0]],[[3829,3480],[-3,0],[-3,1],[-2,1],[-4,0]],[[3817,3482],[-3,0],[-2,-1],[-2,-1],[-1,-2],[-3,-1],[-16,-6],[-26,-4]],[[3695,3457],[-2,0],[-4,1],[-2,1],[-9,5],[-2,1],[-2,1],[-4,2],[-10,1]],[[3764,3467],[-17,0]],[[3747,3467],[-4,0],[-2,-1],[-7,-3],[-7,-3],[-4,-1],[-3,0]],[[3720,3459]],[[3720,3459],[-25,-2]],[[3930,2880],[6,-1],[34,-14],[6,-4],[14,-16],[2,-1],[1,-2],[14,-6]],[[3795,2829],[7,1],[7,2],[4,3],[2,3],[1,2],[0,1],[0,2],[-1,3],[0,1],[0,2],[1,3],[0,1],[1,1],[4,3],[3,1],[4,2],[58,11],[20,6],[24,3]],[[3745,2850],[7,-5],[24,-11],[12,-4],[7,-1]],[[4096,2607],[-40,2]],[[4056,2609],[-7,-1],[-6,-2],[-11,-7],[-4,-2],[-5,-1],[-11,-3],[-7,-2],[-5,-3],[-17,-17],[-3,-2],[-21,-10],[-7,-5]],[[4096,2438],[-1,1]],[[4095,2439],[-5,0],[-5,-1],[-18,-8],[-3,-1]],[[4064,2429],[-3,1],[-2,2],[-3,0]],[[4056,2432],[-3,-2],[-3,-5],[-1,-5],[0,-5],[-2,-4],[-3,-3],[-6,-3],[-18,0],[-5,-2],[-4,-3],[-4,-7],[-2,-7],[-2,-18],[-3,-3],[-6,-2]],[[3994,2363],[-9,1],[-12,0]],[[3952,2554],[-7,-6],[-2,-7],[-1,-7],[1,-7],[2,-12],[3,-13],[3,-6],[3,-5],[8,-11],[3,-6],[4,-12],[0,-6],[-2,-4],[-3,-2],[-16,-4],[-2,-1],[-2,-3],[-1,-3],[0,-2],[1,-1],[2,-15],[1,-6],[2,-6],[24,-45]],[[3979,2140],[-1,4],[0,1],[1,2],[1,4],[1,4],[-1,3],[-3,3],[-6,2],[-12,1],[-5,1],[-5,2],[-16,11],[-6,5],[-6,11],[-3,6],[-4,5],[-2,3],[-10,6]],[[3877,2237],[-7,1],[-7,4],[-12,10],[-8,6],[-21,11],[-3,1],[-3,1],[-4,0]],[[3812,2271],[-3,-1],[-4,-1],[-3,-1],[-2,-1],[-6,-4],[-4,-5],[-4,-5],[-2,-5],[-1,-4],[-1,-3],[-2,-2],[-4,-2],[-2,-3],[-1,-2],[0,-2],[-2,-1],[-2,-3],[-6,-2],[-3,-2],[-2,-4],[0,-5],[0,-7],[-1,-4],[-2,-4],[-5,-3],[-19,-7],[-32,-7]],[[3699,2181],[-10,1],[-8,3],[-6,4],[-9,3],[-5,3],[-4,4],[-3,3],[-4,3],[-27,5],[-5,3],[-3,3],[-2,4],[-2,3],[-9,5],[-3,3],[-1,3],[-3,7],[-2,4],[-2,3],[-4,2],[-2,2],[-7,9],[-12,6]],[[3902,2214],[-13,21],[-3,2],[-5,1]],[[3881,2238],[-4,-1]],[[3554,2512],[-2,0],[-7,3],[-2,0]],[[3543,2515],[-2,0],[-1,-2],[-1,-1],[-1,-4],[1,-7],[0,-3],[-1,-1],[-2,-2],[-2,0]],[[3640,2431],[-5,12],[-9,12],[-2,4],[-1,4],[-1,4],[-1,2],[-2,2],[-7,4],[-4,2],[-10,8],[-8,6],[-8,7],[-5,5],[-5,7],[-3,2],[-2,2]],[[3567,2514],[-3,0],[-7,-2],[-3,0]],[[3534,2495],[-8,2],[-1,0]],[[4096,2144],[-17,-9],[-42,-17],[-6,0]],[[4031,2118],[-6,2],[-5,3],[-12,10],[-2,1],[-27,6]],[[3979,2140],[14,-149],[0,-14],[-4,-7],[-18,-2],[-3,-1],[-3,-2],[-10,-11],[-3,-3],[-3,-2],[-4,-4],[-3,-6],[-5,-17],[-1,-9],[0,-7],[3,-3],[2,-3],[13,-12],[2,-3],[1,-3],[0,-2],[-1,-3],[-1,-1],[-2,-4],[0,-2],[2,-29]],[[2756,4055],[-3,1],[-1,4],[0,13],[-4,23]],[[2970,4039],[-18,11],[-10,4],[-132,5]],[[2810,4059],[-20,-3],[-34,-1]],[[3738,2682],[-3,1],[-2,2],[-4,5],[-12,24],[-2,8],[-1,6],[-2,5],[-5,7],[-11,13],[-11,19],[-4,4],[-14,9],[-1,1],[-9,13]],[[3764,2671],[-7,12],[-4,5],[-3,0]],[[3750,2688],[-1,0],[-2,-2],[-3,-2],[-1,-1],[-2,-1],[-3,0]],[[3764,2671],[-15,-9],[-10,-10],[-3,-3],[-31,-51],[-11,-14],[-13,-12],[-5,-7],[-4,-8],[-4,-14],[-2,-12],[1,-9],[8,-28],[1,-8],[-1,-8],[-10,-19],[-8,-11],[-17,-17]],[[3039,4006],[-6,1],[-8,2],[-14,6],[-41,24]],[[3173,4002],[-78,7]],[[3095,4009],[-56,-3]],[[3514,3900],[-126,58],[-5,3],[-3,4],[-3,20],[-5,4],[-9,3],[-171,12]],[[3192,4004],[-19,-2]],[[3514,3900],[2,-10],[5,-46],[5,-13],[9,-11],[4,-7],[2,-9],[-4,-4],[-8,0]],[[3529,3800],[-16,3]],[[3513,3803],[-16,-2],[-12,-9],[-4,-12],[8,-13],[3,-2],[8,-2],[3,-2],[2,-4],[2,-10],[3,-4],[3,-2]],[[3521,3742],[4,-2],[2,-3],[1,-2],[3,-8],[3,-5],[2,-4],[0,-5],[-4,-4],[-4,-3],[-4,-4],[1,-4],[12,-12],[5,-6],[1,-9],[-7,-16],[5,-6],[16,-8],[4,-5],[2,-7],[6,-3],[14,0],[7,-3],[3,-5],[0,-7],[0,-8],[3,-7],[5,-6],[8,-5],[13,-7],[3,-2],[3,-3],[9,-12],[4,-3],[6,-6],[1,-3],[0,-9],[-1,-2],[-1,-4],[-3,-6],[-3,-2],[0,-3],[1,-6],[2,-4],[6,-6],[3,-5],[5,-4],[1,-2],[0,-3],[2,-13],[2,-4],[0,-3],[-2,-4]],[[3513,3741],[8,1]],[[3704,3282],[-4,1],[-2,3],[1,5],[3,4],[2,3],[2,2],[1,1],[8,6],[2,4],[1,13],[2,12],[1,3],[-2,2],[-2,2],[-3,3],[-1,4],[1,3],[7,3],[2,4],[0,4],[-2,3],[-6,7],[-11,10],[-26,15],[-10,12],[-9,18],[-1,5],[-1,5],[-1,9],[0,5],[1,4],[3,8],[0,4]],[[3725,3242],[-3,10],[-1,11],[-2,10],[-6,8],[-4,1]],[[3709,3282],[-5,0]],[[3742,3214],[-4,1],[-2,4],[1,4],[2,4],[2,6],[-2,8],[-6,4]],[[3733,3245],[-8,-3]],[[3769,2942],[4,0],[5,4],[2,7],[2,8],[8,16],[-3,7],[-5,5],[-5,3],[-3,5],[-2,5],[-2,5],[0,9],[2,16],[3,14],[0,4],[-4,10],[-1,6],[-4,29],[-3,12],[-2,25],[-2,6],[-4,7],[-2,5],[-7,7],[-2,3],[-1,4],[-1,5],[1,3],[0,1],[1,2],[7,8],[3,7],[6,8],[4,8],[-6,8],[-3,1]],[[3755,3215],[-13,-1]],[[3762,2944],[3,-1],[4,-1]],[[3739,2883],[-3,0],[-4,4],[0,2],[19,27],[6,23],[1,3],[4,2]],[[3745,2850],[5,1],[2,3],[-1,3],[-5,5],[-3,5],[0,4],[1,3],[1,5],[-1,6]],[[3744,2885],[-2,0],[-3,-2]],[[3611,2749],[-5,-2],[-10,-4],[-6,-3],[-4,-4],[-8,-10]],[[3647,2799],[-10,2]],[[3637,2801],[-5,-1],[-2,-5],[-1,-11],[-3,-11],[-5,-10],[-5,-9],[-5,-5]],[[3657,2799],[-10,0]],[[3640,2431],[10,-59],[-1,-5],[-1,-3],[-49,-49],[-14,-27],[-4,-7],[-8,-6],[-7,-8]],[[2970,4039],[13,-41],[1,-5],[-1,-3],[-6,-5],[-22,-14],[-9,-5],[-2,0]],[[2944,3966],[-2,1],[-3,2],[-3,2],[-4,3],[-2,2],[-4,2]],[[2926,3978],[-5,-1],[-5,-2],[-38,-23],[-5,-5],[-3,-5],[-2,-4],[0,-3],[-1,-4],[0,-3],[1,-3],[5,-10],[0,-2],[0,-4],[-3,-5],[-4,-2],[-5,-2],[-21,0],[-6,-1],[-5,-3],[-3,-3],[0,-5],[2,-19],[0,-1],[-1,-7],[-2,-5],[-70,-109],[-4,-8],[-1,-7],[0,-10],[-1,-6],[-3,-13],[-1,-4],[1,-21],[-1,-19],[3,-19],[-1,-7],[-2,-8],[-10,-28],[1,-3],[0,-3],[3,-7],[1,-5],[-1,-6],[-4,-12],[-16,-35],[-5,-15],[-3,-16],[-3,-36],[-1,0],[-3,-2],[-36,-21],[-8,-3],[-13,-3],[-118,-6],[-5,-1],[-5,-3],[-11,-6],[-13,-6],[-27,-4],[-5,-2],[-6,-3],[-3,-4],[-2,-3],[-2,-15],[-2,-4],[-5,-9],[-1,-3],[0,-2],[2,-53]],[[832,4096],[1,-1],[4,-13],[10,-48],[0,-1]],[[332,2571],[4,0],[2,1],[4,2],[18,13],[5,6],[1,3],[1,3],[-1,2],[0,4],[0,4],[9,32],[0,4],[0,4],[0,2],[-2,4],[-4,6],[-6,8],[-5,8],[-1,2],[-1,4],[-1,2],[-3,31],[-2,4],[-3,7],[-2,4],[-1,1],[-2,2],[-3,1],[-12,0]],[[327,2735],[-327,-4]],[[317,2572],[15,-1]],[[403,2277],[-2,0],[-2,1],[-2,1],[-4,3],[-11,11],[-23,27],[-7,9],[-14,34],[-9,10],[-3,5],[-5,18],[-30,38],[-29,45],[-8,14],[-5,20],[0,16],[1,11],[0,4],[1,2],[1,2],[3,3],[3,3],[2,1],[6,5],[7,7],[2,1],[1,1],[2,0],[24,0],[15,3]],[[527,2332],[-16,8],[-9,11],[-8,12],[-5,3],[-6,2],[-7,1]],[[476,2369],[-6,-1],[-6,-2],[-4,-3],[-3,-4],[-6,-14],[-10,-6],[-2,-1],[-3,-3],[-4,-7],[-16,-42],[-2,-2],[-2,-3],[-4,-3],[-2,-1],[-3,0]],[[670,2405],[3,0],[7,-5],[2,-1],[18,-5]],[[646,2313],[2,0],[3,2],[1,2],[2,3],[1,2],[1,2],[0,3],[1,3],[-1,13],[0,6],[2,9],[3,8],[0,7],[0,18],[1,5],[1,4],[1,2],[2,2],[2,1],[2,0]],[[796,2405],[1,-2],[2,-1],[1,-2],[5,-10],[3,-11],[2,-5],[3,-5],[5,-4],[70,-28]],[[749,2387],[5,0],[3,0],[2,1],[18,11],[10,4],[5,2],[4,0]],[[709,2395],[5,0],[35,-8]],[[700,2394],[9,1]],[[995,2349],[20,-5],[6,0]],[[935,2323],[3,1],[4,1],[4,1],[2,1],[6,5],[7,7],[4,2],[19,6],[11,2]],[[1021,2344],[76,2]],[[897,2339],[7,-2],[6,-5],[12,-6],[8,-2],[5,-1]],[[888,2337],[6,1],[3,1]],[[527,2332],[107,-19],[12,0]],[[791,3828],[-4,0],[-1,1],[-2,3],[3,18],[0,10],[0,3],[1,4],[9,16],[2,6],[1,7],[11,25],[3,6],[2,2],[6,10],[1,3],[1,3],[-1,24],[1,12],[4,16],[2,7],[4,7],[5,8],[1,5],[1,8]],[[958,3460],[-2,1],[-2,2],[-1,4],[-1,14],[0,3],[-2,4],[-12,25],[-5,13],[-5,11],[-5,4],[-11,6],[-3,1],[-8,2],[-2,2],[-1,1],[-1,2],[-1,2],[-1,1],[0,3],[0,4],[1,7],[7,25],[5,36],[-1,10],[0,2],[-2,5],[-1,3],[-3,3],[-5,7],[-4,2],[-3,2],[-10,1],[-30,1],[-5,1],[-4,1],[-7,7],[-5,6],[-2,2],[-1,3],[-7,27],[-2,4],[-3,5],[-1,2],[-4,39],[-1,2],[-1,5],[0,4],[0,10],[0,6],[2,7],[6,12],[-2,3],[-12,12],[-4,2]],[[796,3829],[-5,-1]],[[418,3513],[4,0],[4,-2],[17,-8]],[[339,3156],[23,1],[13,7],[19,27],[2,1],[6,2],[3,3],[2,5],[2,12],[3,8],[2,6],[3,4],[1,5],[1,12],[0,16],[4,43],[2,36],[-2,23],[-3,11],[-11,29],[-2,6],[-8,23],[0,4],[-1,11],[1,11],[10,42],[1,2],[2,3],[1,2],[2,1],[3,1]],[[453,3503],[10,-9],[6,-2]],[[443,3503],[10,0]],[[478,3493],[2,0],[2,-1],[2,-1],[52,-32],[11,-11],[2,-3],[2,-4],[0,-3],[0,-4],[-2,-15],[0,-8],[1,-19],[-4,-9],[0,-1],[1,-2],[4,-9],[0,-2],[-1,-2],[-6,-7],[-1,-1],[-4,-8],[0,-2],[-1,-4],[-1,-28],[0,-3],[1,-2],[2,-2],[1,0],[2,0],[1,-2],[0,-6],[1,-3],[1,-1],[1,-1],[1,-1],[1,-2],[-1,-3],[-2,-4],[-1,-3],[1,-6],[7,-10],[3,-4],[3,-6],[2,-1],[2,-1],[4,0]],[[469,3492],[5,0],[4,1]],[[1115,3410],[-10,7],[-3,4],[-1,2],[-1,2],[-8,9],[-6,9],[-1,2],[-8,6],[-5,6],[-12,6],[-14,4],[-2,1],[-2,1],[-1,1],[-4,5],[-3,2],[-2,1]],[[1032,3478],[-4,0],[-8,-3],[-15,-2],[-3,-1],[-4,-2],[-6,-7],[-2,-1],[-1,-2],[-3,-1],[-1,-1],[-8,-1]],[[977,3457],[-10,3],[-5,0]],[[962,3460],[-4,0]],[[1152,3083],[2,0],[2,0],[4,2],[1,1],[5,4],[10,11],[21,31],[13,24],[6,18],[1,5],[-9,263],[0,6],[-2,5],[-6,2],[-6,1],[-46,1]],[[1148,3457],[-3,-1],[-4,-1],[-3,-4],[-7,-9],[-2,-3],[-3,-18],[-3,-4],[-8,-7]],[[91,3363],[8,-10],[3,-2],[2,-1],[10,-4],[2,-1],[3,-3],[7,-9],[1,-2],[2,-1],[4,-2],[3,-1],[8,0],[4,-2],[2,-1],[3,-2],[3,-2],[10,-13],[16,-17],[1,-1],[2,-7],[1,-4],[2,-1],[2,-2],[4,0]],[[197,3275],[2,-1],[2,-1],[2,-3],[2,-7],[1,-2],[1,-2],[12,-12],[7,-10],[2,-3],[6,-4],[29,-14],[3,-2],[13,-14],[13,-20],[8,-7],[12,-7],[14,-7],[13,-3]],[[194,3275],[3,0]],[[579,3263],[3,-1],[3,-2],[5,-3],[13,-13],[4,-5],[2,-2],[17,-8],[8,-6],[1,-15],[-1,-18],[3,-7],[12,-22],[37,-51],[6,-14],[4,-7],[3,-2],[4,-2],[11,-7],[4,-1]],[[567,3256],[2,1],[2,1],[1,2],[1,1],[2,1],[2,1],[2,0]],[[1144,3083],[8,0]],[[1049,3003],[2,1],[1,0],[2,2],[2,3],[3,6],[3,10],[4,7],[6,7],[19,19],[18,4],[2,1],[3,2],[5,10],[2,2],[2,2],[3,1],[3,1],[7,0],[2,1],[2,0],[4,1]],[[731,3082],[2,0],[3,0],[3,-2],[3,-2],[8,-8],[4,-4],[9,-3],[9,0],[2,-1],[4,-1],[17,-8],[14,-4]],[[718,3077],[4,0],[2,1],[4,3],[0,1],[1,0],[2,0]],[[848,3069],[2,-1],[2,-2],[1,-2],[1,-4],[1,-2],[1,-1],[31,-26],[12,-8],[35,-13],[5,-1]],[[809,3049],[10,2],[4,2],[9,5],[15,10],[1,1]],[[973,3068],[4,-2],[70,-63],[2,0]],[[939,3009],[2,0],[2,1],[2,0],[1,2],[17,40],[5,9],[5,7]],[[764,742],[78,21],[18,10],[31,32],[40,44],[4,7],[0,7],[-11,95],[4,13],[25,9]],[[611,1697],[-7,4],[-1,2],[-3,4],[-1,5],[-2,9],[-4,16],[-2,4],[-3,3],[-5,2],[-3,3],[-4,4],[-3,3],[-1,3],[-1,4],[-3,17],[-4,10],[-13,61],[4,9],[-1,3],[-1,2],[-3,1],[-2,1],[-11,1],[-26,15],[-4,2],[-12,1],[-8,2],[-7,3],[-3,2],[-2,3],[1,2],[1,2],[9,14],[6,15],[12,13],[8,7],[7,8],[3,3],[1,2],[1,5],[1,5],[7,12],[9,11],[12,14],[26,25],[9,17],[5,10],[1,6],[0,5],[0,23],[1,6],[5,23],[0,4],[0,5],[0,4],[-1,3],[0,2],[-1,2],[-2,3],[-2,1],[-1,2],[-17,8],[-23,19],[-13,13],[-5,4],[-8,3],[-9,3],[-8,1],[-8,2],[-5,4],[-6,9],[-2,5],[0,5],[1,6],[6,20],[8,18],[3,11],[2,8],[0,7],[1,8],[2,6],[5,6],[4,4],[3,3],[3,9]],[[707,1595],[-5,2],[-30,38],[-4,5],[-5,15],[-4,22],[-3,12],[-2,3],[-3,3],[-17,9]],[[634,1704],[-6,0],[-3,-2],[-4,-3],[-10,-2]],[[832,1648],[-5,1],[-5,1],[-8,4],[-7,5],[-7,7],[-6,4],[-5,3],[-3,1]],[[786,1674],[-3,-1],[-30,-19],[-12,-11],[-12,-10],[-2,-2],[-9,-13],[-1,-1],[-8,-18],[-2,-4]],[[849,1654],[-10,-4],[-7,-2]],[[1493,2575],[-191,3],[-13,4],[-71,24],[-14,2]],[[1204,2608],[-7,-10],[-77,-173],[-2,-7],[-1,-6],[0,-12],[-1,-4],[-2,-8],[-13,-26],[-1,-2],[-3,-14]],[[849,1654],[32,-149],[3,-61],[-2,-24],[-5,-10],[-4,-6],[-9,-10],[-5,-7],[-4,-10],[-3,-2],[-6,-3],[-1,-2],[-1,-2],[1,-15],[0,-2],[1,-1],[1,-1],[3,-1],[16,-8],[7,-7],[1,-2],[1,-3],[2,-6],[6,-80],[-2,-34],[16,-120],[16,-37],[24,-42],[3,-8],[1,-2],[4,-8],[8,-11]],[[1090,2156],[2,2],[1,8],[0,15],[-3,30],[-6,42],[0,4],[1,5],[13,43],[1,12],[-2,29]],[[1067,2160],[23,-4]],[[1040,2108],[4,1],[2,0],[2,3],[2,4],[10,38],[3,5],[4,1]],[[1034,2108],[6,0]],[[901,1794],[2,0],[2,0],[2,1],[2,1],[3,3],[2,1],[2,3],[5,8],[0,2],[1,1],[-1,2],[-1,1],[-7,5],[-7,3],[-6,1],[-6,2],[-6,4],[-1,1],[22,27],[6,4],[17,21],[5,5],[3,2],[9,2],[2,2],[3,4],[8,24],[2,2],[6,9],[11,29],[4,17],[6,24],[1,3],[2,4],[3,4],[3,2],[2,2],[2,0],[5,12],[13,50],[5,19],[2,5],[3,2],[2,0]],[[893,1794],[8,0]],[[909,1708],[1,0],[1,0],[-1,6],[-10,21],[-15,36],[0,10],[4,11],[2,1],[2,1]],[[904,1708],[5,0]],[[873,1658],[4,1],[4,1],[3,2],[1,2],[3,6],[11,33],[3,4],[2,1]],[[860,1659],[3,0],[6,-1],[4,0]],[[849,1654],[5,4],[4,1],[2,0]],[[1971,735],[-17,-107],[0,-10],[3,-6],[80,-88],[18,-24],[-4,-24],[-93,-335],[-6,-14],[-16,-14],[-15,-13],[-4,-5],[-1,-4],[0,-3],[6,-9],[1,-2],[0,-2],[1,-4],[-1,-4],[-2,-19],[0,-5],[3,-25],[0,-2],[1,-2],[1,-2],[4,-7],[4,-5]],[[1182,1034],[71,-18],[3,-1],[2,-2],[0,-5],[0,-10],[-1,-5],[2,-4],[5,-4],[27,-14],[2,-2],[3,-6],[3,-3],[2,-1],[23,-5],[4,-1],[2,-2],[4,-3],[4,-3],[3,-2],[3,-1],[22,-2]],[[953,980],[106,27],[68,18],[40,9],[15,0]],[[1416,947],[5,0],[26,-8],[4,-1]],[[1366,940],[7,1],[43,6]],[[1464,941],[4,0],[2,-1],[1,-2],[1,-2],[0,-2],[0,-3],[-2,-10],[0,-3],[2,-2],[3,-1],[13,-2],[4,-1],[2,-2],[1,-2],[0,-2],[0,-8],[0,-2],[2,-3],[2,-1],[7,0],[208,-2]],[[1451,938],[13,3]],[[1838,892],[60,-2],[16,-12],[57,-143]],[[1714,890],[124,2]],[[721,0],[-25,15],[-19,9],[-11,3],[-32,0]],[[764,742],[-61,121],[-13,38],[-22,47],[-23,55],[-4,15],[-5,25],[0,5],[0,8],[0,19],[-1,4],[-2,6],[-11,21],[-65,63],[-3,2],[-8,4],[-44,45],[-16,11],[-62,28],[-7,5],[-3,4],[-5,7],[-1,2],[0,3],[1,3],[2,5],[2,3],[3,4],[7,11],[1,2],[1,3],[-1,3],[-1,2],[-5,4],[-8,3],[-2,2],[-6,4],[-12,12],[-13,18],[-3,7],[-5,33],[-3,14],[-1,2],[-2,2],[-2,4],[-4,5],[-11,10],[-13,16],[-71,30],[-71,26]],[[191,1508],[-12,0],[-8,-5],[-4,-2],[-3,-2],[-1,-1],[-1,-1],[-1,-2],[-1,-2],[-1,-3],[-7,-7],[-3,-3],[-3,-2],[-5,-2],[-27,-4],[-27,-1]],[[87,1471],[-87,4]],[[634,27],[-2,109],[-1,143],[0,71],[5,25],[24,70],[4,13],[8,21],[29,86],[1,7],[3,12],[9,28],[5,17],[1,4],[8,12],[6,12],[30,85]],[[2073,3116],[-8,1],[-14,4],[-7,1],[-3,1],[-3,1],[-13,12],[-16,10],[-4,3],[-1,3],[-2,4],[-1,2],[-2,3],[-4,4],[-2,1],[-4,1],[-5,2],[-26,4],[-79,32]],[[2130,3055],[-2,1],[-2,3],[-14,26],[-1,3],[-1,4],[-2,3],[-4,3],[-8,6],[-12,10],[-2,1],[-3,1]],[[2079,3116],[-6,0]],[[2146,3055],[-3,1],[-3,0],[-5,2]],[[2135,3058],[-2,-1],[-2,-1],[-1,-1]],[[2215,2997],[-2,0],[-8,2],[-3,2],[-17,16],[-5,7],[-14,13],[-4,5],[0,2],[-1,3],[-1,3],[0,2],[-1,2],[-1,1],[-2,2],[-4,0]],[[2152,3057],[-2,0],[-4,-2]],[[2344,2885],[-2,1],[-3,2],[-7,7],[-2,3],[-1,3],[-1,5],[0,3],[1,2],[3,3],[0,2],[-2,3],[-14,23],[-2,4],[-1,5],[1,4],[0,2],[-2,2],[-5,1],[-3,2],[-10,16],[-2,2],[-1,2],[-6,3],[-13,4],[-6,1],[-19,0],[-3,1],[-7,2],[-13,5],[-2,0]],[[2222,2998],[-3,0],[-4,-1]],[[2528,2763],[-2,1],[-8,5],[-3,2],[-3,1],[-14,4],[-2,2],[-3,2],[-4,5],[-4,3],[-10,7],[-2,0],[-23,15],[-11,4],[-2,3],[-12,12],[-9,8],[-3,1],[-4,2],[-4,2],[-51,45],[-2,1],[-1,0]],[[2351,2888],[-2,0],[-3,-3],[-2,0]],[[2670,2571],[-2,0],[-2,2],[-3,4],[-1,3],[0,3],[0,2],[0,3],[-1,2],[-2,2],[-7,9],[-2,4],[-1,3],[-1,4],[0,2],[-1,3],[-3,5],[-1,2],[1,2],[2,1],[1,1],[1,2],[0,2],[0,2],[-1,3],[-3,3],[0,1],[0,1],[-2,2],[-5,1],[-9,1],[-2,1],[-2,2],[-2,4],[0,3],[0,3],[-1,2],[-1,2],[-13,7],[-2,1],[-1,3],[1,2],[2,3],[0,2],[-1,2],[-4,8],[-3,5],[-1,2],[-2,2],[-9,4],[-5,4],[-6,6],[-4,5],[-5,9],[-5,6],[-3,5],[-5,11],[-4,7],[-1,2],[-4,2],[-5,3],[-4,0]],[[2536,2764],[-2,0],[-4,-1],[-2,0]],[[2843,2430],[-2,1],[-2,1],[-25,36],[-14,15],[-7,3],[-7,3],[-2,2],[-2,2],[-1,3],[0,3],[1,5],[-1,2],[0,2],[-2,2],[-3,3],[-12,7],[-10,4],[-2,2],[-2,2],[-4,7],[-2,3],[-2,1],[-4,2],[-11,2],[-2,1],[-2,2],[-2,2],[-1,5],[0,3],[-1,2],[-2,2],[-4,1],[-6,1],[-3,1],[-3,1],[-5,3],[-3,2],[-3,1],[-3,0],[-2,1],[-2,1],[-3,2],[-1,1],[-2,0]],[[2677,2575],[-2,-1],[-3,-2],[-2,-1]],[[2860,2379],[-3,0],[-2,1],[-2,2],[-1,3],[-1,3],[1,6],[0,10],[-2,26]],[[2850,2430],[-7,0]],[[2891,2371],[-2,0],[-3,1],[-9,5],[-8,4],[-2,0]],[[2867,2381],[-2,0],[-3,-2],[-2,0]],[[2915,2368],[-3,1],[-1,0],[-8,3],[-2,0]],[[2901,2372],[-3,0],[-7,-1]],[[2971,2296],[-3,1],[-3,2],[-3,4],[-6,9],[-2,5],[0,3],[1,1],[0,3],[-2,3],[-4,6],[-2,4],[-1,3],[-2,11],[1,5],[-1,2],[-2,2],[-4,3],[-8,4],[-5,1],[-3,1]],[[2922,2369],[-7,-1]],[[3194,2191],[-2,0],[-3,2],[-3,3],[-9,11],[-5,7],[-2,1],[-2,2],[-15,7],[-4,2],[-4,4],[-10,10],[-4,6],[-3,5],[-9,11],[-7,8],[-11,6],[-16,7],[-12,5],[-13,5],[-3,2],[-10,9],[-3,4],[-3,5],[-2,1],[-4,1]],[[3035,2315],[-2,-1],[-2,-1],[-2,-1],[-1,-1],[-2,-1],[-1,-2],[-3,-3],[-3,-3],[-3,-1],[-6,-2],[-8,-4],[-4,-1],[-2,-1],[-4,0]],[[2992,2293],[-4,1],[-9,4],[-3,0]],[[2976,2298],[-2,0],[-1,-1],[-2,-1]],[[3306,2088],[-2,1],[-4,1],[-8,4],[-2,2],[-1,2],[-3,9],[0,2],[-3,3],[-19,15],[-4,5],[-1,3],[-1,3],[-1,4],[-1,2],[-2,4],[-1,1],[-2,2],[-2,3],[-28,17],[-7,8],[-5,8],[-2,2],[-2,1],[-4,2],[-2,0]],[[3199,2192],[-5,-1]],[[3331,2073],[-1,1],[-7,3],[-1,2],[-1,2],[1,2],[0,2],[0,2],[-1,1],[-1,2],[-3,0]],[[3317,2090],[-3,0],[-6,-2],[-2,0]],[[3144,1618],[8,34],[1,7],[-2,16],[1,7],[2,8],[7,20],[1,8],[0,15],[-3,15],[-4,15],[-6,14],[-10,18],[-2,6],[-2,7],[0,8],[1,15],[3,1],[37,26],[3,2],[1,3],[27,17],[13,11],[5,2],[10,3],[4,1]],[[3101,1568],[12,3],[11,8],[9,9],[7,12],[4,18]],[[3087,1568],[14,0]],[[2854,661],[-3,18],[1,7],[7,21],[1,7],[1,16],[1,7],[3,7],[10,20],[2,7],[1,8],[-1,15],[-12,33],[-12,22],[-3,12],[3,12],[11,22],[2,6],[14,55],[0,84],[3,14],[12,48],[6,12],[8,9],[9,8],[11,5],[35,13],[11,8],[9,10],[11,8],[17,9],[5,4],[6,11],[2,14],[-1,27],[1,1],[3,7],[8,14],[3,8],[1,10],[3,14],[1,4],[0,4],[-1,3],[0,7],[2,7],[14,27],[2,7],[2,8],[1,8],[-2,31],[9,53],[-1,7],[-7,18],[-1,8],[3,23],[-1,7],[-2,15],[0,8],[1,7],[2,7],[3,6],[5,5],[6,3],[8,1]],[[2854,661],[3,-19],[3,-7],[10,-19],[1,-6],[0,-7],[-3,-16],[0,-23],[-1,-8],[-7,-19],[-2,-8],[-1,-24],[-3,-7],[-21,-39],[-20,-25],[-8,-14],[-16,-21],[-15,-27],[-22,-30],[-22,-39],[-4,-5],[-15,-13],[-3,-6],[-12,-34],[-1,0],[-2,-6],[-15,-18],[-7,-12],[-2,-2],[-2,-2],[-6,-2],[-2,-1],[-3,-2],[-2,-2],[-5,-7],[-1,-1],[-5,-2],[-5,-5],[-3,-3],[-4,-7],[-10,-11],[-18,-26],[-11,-12],[-12,-10],[-7,-4],[-7,-3],[-8,-3],[-8,-1],[-25,0]],[[2525,103],[-7,1]],[[2518,104],[-8,-1],[-10,-2],[-3,-2],[-2,-2],[-2,-3],[0,-4],[0,-4],[1,-3],[-1,-1],[-1,-1],[2,-5],[-2,-6],[-4,-12],[-2,-13],[-1,-4],[-2,-6],[-11,-13],[-3,-10],[-1,-10],[0,-2]],[[3240,737],[5,-1],[5,-1],[4,-2],[8,-6],[2,-1],[5,-2],[7,-1]],[[3136,706],[4,0],[30,6],[7,3],[6,3],[47,19],[10,0]],[[3293,724],[71,-20],[11,-9],[4,-4],[1,-3],[3,-8],[5,-10],[8,-10],[21,-21],[17,-12],[5,-8],[1,-6],[3,-18],[2,-10],[15,-28],[3,-5],[43,-43],[20,-15],[2,-1],[1,0]],[[3276,723],[17,1]],[[3093,715],[12,-1],[20,-7],[11,-1]],[[3007,658],[27,16],[8,6],[2,4],[15,12],[19,13],[9,4],[6,2]],[[2953,674],[19,-3],[35,-13]],[[2929,668],[24,6]],[[2913,672],[2,0],[1,0],[10,-4],[3,0]],[[2854,661],[30,1],[4,1],[23,9],[2,0]],[[57,43],[15,-3],[11,-3],[6,-2],[8,0]],[[43,0],[0,4],[0,4],[-2,10],[-1,4],[1,3],[0,2],[1,4],[3,4],[3,4],[9,4]],[[143,41],[5,0],[8,-2],[4,-2],[3,-1],[5,-4],[2,-2],[2,-1],[2,0],[13,-3]],[[97,35],[30,2],[13,4],[3,0]],[[187,26],[93,5]],[[253,77],[-3,0],[-3,1],[-4,3],[-2,3],[0,2],[-1,12],[-4,17],[0,3],[0,6],[-1,5],[-2,3],[-2,1],[-22,2],[-5,2],[-2,1],[-3,2],[-30,29],[-3,3],[-2,4],[0,4],[-1,22],[-2,8],[-13,25],[-4,10],[16,111],[-20,18],[-1,12],[14,42],[-1,4],[0,2],[-7,10],[-6,11],[-5,6],[-4,7],[-14,34],[-4,5],[-3,3],[-2,1],[-16,6],[-2,2],[-3,3],[-9,15],[-3,3],[-17,27],[-6,6],[-3,2],[-8,5],[-15,13],[-5,5],[-2,3],[-9,18],[-2,3],[-3,2],[-4,3]],[[280,31],[-9,25],[-10,17],[-3,3],[-3,1]],[[255,77],[-2,0]],[[1392,0],[-181,217]],[[1211,218],[0,-1],[0,1]],[[2268,0],[-128,487],[-6,137],[-76,180],[-311,362],[-69,176],[-58,72],[-86,42],[-70,83],[-107,83],[-172,106],[-151,198],[-171,145],[1,28],[-31,1]],[[1187,1727]],[[1656,1371],[0,-1]],[[1763,1150],[1,-1]],[[2022,847]],[[2193,288],[0,-1]],[[833,2100],[1,1],[-1,-1]],[[2268,0],[-128,487],[-6,137],[-76,180],[-311,362],[-69,176],[-58,72],[-86,42],[-70,83],[-107,83],[-172,106],[-151,198],[-171,145],[1,28],[-31,1]],[[1187,1727]],[[1656,1371],[0,-1]],[[1763,1150],[1,-1]],[[2022,847]],[[2193,288],[0,-1]],[[833,2100],[1,1],[-1,-1]],[[1211,217],[181,-217]],[[1211,218],[0,-1],[0,1]],[[1270,1245],[1,-3],[0,-4],[-5,-13],[-23,-37],[-29,-61],[-8,-9],[-12,-9],[-13,-6],[-12,-1],[0,5],[2,4],[8,8],[3,4],[2,9],[2,5],[4,3],[9,5],[3,5],[1,5],[-3,19],[-9,16],[-18,5],[-21,-5],[-15,-9],[-5,-16],[8,-36],[-2,-17],[-9,-18],[-3,-10],[-1,-9],[1,-7],[2,-3],[9,-6],[4,-4],[7,-9],[4,-4],[9,-6],[3,-4],[-3,-5],[-3,-2],[-7,-3],[-3,-2],[-3,-4],[-6,-13],[-3,-3],[-19,-18],[-5,-3],[-5,0],[1,6],[0,13],[1,7],[1,3],[13,23],[0,7],[-4,5],[-9,0],[-7,-6],[-5,-9],[-7,-20],[-3,-6],[-4,-4],[-9,-6],[-3,-4],[-2,-7],[0,-11],[0,-3],[-8,15],[-3,8],[-1,9],[5,20],[10,19],[8,19],[-2,21],[-11,22],[-3,11],[3,34],[-5,42],[3,18],[13,15],[19,14],[40,19],[18,3],[16,-3],[33,-14],[3,-1],[16,-4],[5,0],[5,2],[17,12],[6,2],[8,-1],[3,-2],[2,-2]],[[1923,535],[3,-15],[0,-18],[-5,-35],[-1,-3],[-4,-4],[-4,-4],[-2,-1],[-4,1],[-2,2],[-1,3],[-4,2],[-8,1],[-21,-6],[-16,-1],[-32,-5],[-7,-2],[-7,-5],[-5,0],[-20,5],[-6,2],[-5,-3],[-1,-3],[0,-4],[-2,-4],[-11,-9],[-1,-4],[-17,-11],[-6,-1],[-20,37],[-10,10],[-3,2],[-6,2],[-3,2],[1,2],[-2,5],[-3,3],[-5,-3],[-7,-2],[-5,9],[-6,20],[-6,6],[-7,2],[-16,0],[-5,2],[-1,4],[2,3],[5,3],[1,0],[1,1],[2,1],[8,0],[8,3],[11,9],[5,2],[8,0],[16,3],[7,3],[7,9],[3,2],[4,0],[6,-3],[3,0],[21,6],[4,2],[1,4],[-1,2],[-2,2],[-1,4],[0,6],[8,13],[5,1],[12,-6],[7,-1],[12,5],[6,-1],[0,-2],[5,-9],[3,-3],[3,-1],[7,-2],[7,-1],[22,1],[13,-4],[7,-1],[3,5],[-7,2],[-8,1],[-7,3],[-5,5],[18,-1],[8,-3],[14,-11],[22,-8],[11,-10],[8,-13]],[[363,1102],[16,-9],[7,-6],[-4,-40],[-7,-15],[-8,2],[-20,23],[-5,12],[-3,22],[8,15],[16,-4]],[[308,911],[9,-10],[25,-53],[0,-12],[-10,-30],[-9,-13],[-17,-2],[-22,1],[-28,-2],[-17,3],[2,17],[55,98],[12,3]],[[1022,820],[6,-21],[1,-8],[-2,-8],[-3,-7],[-6,-5],[-6,-5],[-14,-8],[-14,-5],[-32,-7],[-31,-13],[-14,0],[-3,16],[0,6],[0,13],[0,7],[10,39],[3,3],[8,5],[9,-2],[9,-5],[9,-2],[7,6],[2,10],[-2,40],[-3,15],[-10,31],[-2,8],[0,23],[-4,11],[-11,24],[1,8],[3,1],[6,1],[2,0],[2,2],[4,3],[2,2],[4,0],[5,0],[5,-2],[3,-3],[1,-9],[-6,-22],[-2,-10],[1,-6],[3,-10],[3,-23],[2,-6],[4,-10],[6,-9],[6,-7],[8,-7],[16,-9],[7,-6],[4,-8],[1,-8],[0,-15],[2,-8]],[[866,752],[5,-8],[1,-8],[-5,-6],[-10,-3],[-12,2],[-12,3],[-23,12],[-48,9],[-11,-1],[-3,-9],[2,-13],[5,-13],[7,-11],[22,-20],[11,-18],[-2,-13],[-18,0],[-25,9],[-20,12],[-11,13],[-5,13],[0,14],[1,17],[-3,15],[-12,10],[-28,16],[2,11],[20,14],[24,10],[15,1],[12,-6],[14,-4],[15,-3],[14,1],[7,3],[6,4],[7,2],[8,-2],[7,-5],[4,-5],[8,-14],[5,-7],[20,-16],[6,-6]],[[930,874],[-9,-12],[-38,-33],[-9,-15],[-10,-5],[-8,10],[-5,15],[-2,13],[3,29],[8,36],[8,10],[13,8],[15,5],[13,1],[2,0],[2,0],[2,-1],[2,-1],[8,-8],[6,-11],[4,-12],[1,-11],[-1,-9],[-5,-9]],[[462,1696],[6,-5],[2,-7],[-2,-8],[-6,-14],[-9,-26],[-23,-40],[-12,-31],[-4,-19],[-5,-39],[-6,-19],[-15,-28],[-3,-8],[-2,-27],[-8,-14],[-12,-11],[-10,-2],[-2,15],[2,6],[9,19],[2,8],[-1,6],[-3,13],[0,7],[3,8],[6,13],[3,8],[5,23],[13,30],[2,8],[2,24],[9,33],[7,16],[9,12],[16,14],[6,7],[15,25],[6,3]],[[3832,1469],[1,-2],[1,-2],[0,-2],[-1,-2],[-1,-2],[-2,-3],[-17,-15],[-13,-9],[-9,-4],[-2,-2],[-10,-12],[-1,-1],[-1,0],[-10,-4],[-3,-2],[-3,-2],[-3,-4],[-2,-1],[-21,13],[-1,9],[0,10],[1,5],[1,5],[2,4],[24,27],[2,1],[2,1],[3,0],[6,-2],[8,-4],[4,-1],[5,0],[32,4],[5,-1],[2,-1],[1,-1]],[[3867,1555],[0,-3],[1,-2],[0,-2],[-1,-3],[-4,-13],[-2,-4],[-8,-9],[-12,-11],[-1,-2],[-1,-2],[-2,-9],[-1,-2],[-2,-1],[-1,-1],[-3,-1],[-11,5],[-4,4],[-3,6],[-4,13],[-1,4],[0,3],[1,3],[1,3],[1,3],[1,1],[22,17],[7,4],[5,2],[4,1],[10,0],[3,-1],[2,-1],[1,-1],[2,-1]],[[18,3089],[8,5],[3,-8],[-2,-17],[-9,-37],[2,-10],[4,-8],[1,-10],[-19,-76],[-6,-10],[0,158],[18,13]],[[18,3089],[8,5],[3,-8],[-2,-17],[-9,-37],[2,-10],[4,-8],[1,-10],[-19,-76],[-6,-10]],[[0,3076],[18,13]],[[866,752],[5,-8],[1,-8],[-5,-6],[-10,-3],[-12,2],[-12,3],[-23,12],[-48,9],[-11,-1],[-3,-9],[2,-13],[5,-13],[7,-11],[22,-20],[11,-18],[-2,-13],[-18,0],[-25,9],[-20,12],[-11,13],[-5,13],[0,14],[1,17],[-3,15],[-12,10],[-28,16],[2,11],[20,14],[24,10],[15,1],[12,-6],[14,-4],[15,-3],[14,1],[7,3],[6,4],[7,2],[8,-2],[7,-5],[4,-5],[8,-14],[5,-7],[20,-16],[6,-6]],[[1022,820],[6,-21],[1,-8],[-2,-8],[-3,-7],[-6,-5],[-6,-5],[-14,-8],[-14,-5],[-32,-7],[-31,-13],[-14,0],[-3,16],[0,6],[0,13],[0,7],[10,39],[3,3],[8,5],[9,-2],[9,-5],[9,-2],[7,6],[2,10],[-2,40],[-3,15],[-10,31],[-2,8],[0,23],[-4,11],[-11,24],[1,8],[3,1],[6,1],[2,0],[2,2],[4,3],[2,2],[4,0],[5,0],[5,-2],[3,-3],[1,-9],[-6,-22],[-2,-10],[1,-6],[3,-10],[3,-23],[2,-6],[4,-10],[6,-9],[6,-7],[8,-7],[16,-9],[7,-6],[4,-8],[1,-8],[0,-15],[2,-8]],[[1270,1245],[1,-3],[0,-4],[-5,-13],[-23,-37],[-29,-61],[-8,-9],[-12,-9],[-13,-6],[-12,-1],[0,5],[2,4],[8,8],[3,4],[2,9],[2,5],[4,3],[9,5],[3,5],[1,5],[-3,19],[-9,16],[-18,5],[-21,-5],[-15,-9],[-5,-16],[8,-36],[-2,-17],[-9,-18],[-3,-10],[-1,-9],[1,-7],[2,-3],[9,-6],[4,-4],[7,-9],[4,-4],[9,-6],[3,-4],[-3,-5],[-3,-2],[-7,-3],[-3,-2],[-3,-4],[-6,-13],[-3,-3],[-19,-18],[-5,-3],[-5,0],[1,6],[0,13],[1,7],[1,3],[13,23],[0,7],[-4,5],[-9,0],[-7,-6],[-5,-9],[-7,-20],[-3,-6],[-4,-4],[-9,-6],[-3,-4],[-2,-7],[0,-11],[0,-3],[-8,15],[-3,8],[-1,9],[5,20],[10,19],[8,19],[-2,21],[-11,22],[-3,11],[3,34],[-5,42],[3,18],[13,15],[19,14],[40,19],[18,3],[16,-3],[33,-14],[3,-1],[16,-4],[5,0],[5,2],[17,12],[6,2],[8,-1],[3,-2],[2,-2]],[[930,874],[-9,-12],[-38,-33],[-9,-15],[-10,-5],[-8,10],[-5,15],[-2,13],[3,29],[8,36],[8,10],[13,8],[15,5],[13,1],[2,0],[2,0],[2,-1],[2,-1],[8,-8],[6,-11],[4,-12],[1,-11],[-1,-9],[-5,-9]],[[308,911],[9,-10],[25,-53],[0,-12],[-10,-30],[-9,-13],[-17,-2],[-22,1],[-28,-2],[-17,3],[2,17],[55,98],[12,3]],[[462,1696],[6,-5],[2,-7],[-2,-8],[-6,-14],[-9,-26],[-23,-40],[-12,-31],[-4,-19],[-5,-39],[-6,-19],[-15,-28],[-3,-8],[-2,-27],[-8,-14],[-12,-11],[-10,-2],[-2,15],[2,6],[9,19],[2,8],[-1,6],[-3,13],[0,7],[3,8],[6,13],[3,8],[5,23],[13,30],[2,8],[2,24],[9,33],[7,16],[9,12],[16,14],[6,7],[15,25],[6,3]],[[363,1102],[16,-9],[7,-6],[-4,-40],[-7,-15],[-8,2],[-20,23],[-5,12],[-3,22],[8,15],[16,-4]],[[3832,1469],[1,-2],[1,-2],[0,-2],[-1,-2],[-1,-2],[-2,-3],[-17,-15],[-13,-9],[-9,-4],[-2,-2],[-10,-12],[-1,-1],[-1,0],[-10,-4],[-3,-2],[-3,-2],[-3,-4],[-2,-1],[-21,13],[-1,9],[0,10],[1,5],[1,5],[2,4],[24,27],[2,1],[2,1],[3,0],[6,-2],[8,-4],[4,-1],[5,0],[32,4],[5,-1],[2,-1],[1,-1]],[[3867,1555],[0,-3],[1,-2],[0,-2],[-1,-3],[-4,-13],[-2,-4],[-8,-9],[-12,-11],[-1,-2],[-1,-2],[-2,-9],[-1,-2],[-2,-1],[-1,-1],[-3,-1],[-11,5],[-4,4],[-3,6],[-4,13],[-1,4],[0,3],[1,3],[1,3],[1,3],[1,1],[22,17],[7,4],[5,2],[4,1],[10,0],[3,-1],[2,-1],[1,-1],[2,-1]],[[1923,535],[3,-15],[0,-18],[-5,-35],[-1,-3],[-4,-4],[-4,-4],[-2,-1],[-4,1],[-2,2],[-1,3],[-4,2],[-8,1],[-21,-6],[-16,-1],[-32,-5],[-7,-2],[-7,-5],[-5,0],[-20,5],[-6,2],[-5,-3],[-1,-3],[0,-4],[-2,-4],[-11,-9],[-1,-4],[-17,-11],[-6,-1],[-20,37],[-10,10],[-3,2],[-6,2],[-3,2],[1,2],[-2,5],[-3,3],[-5,-3],[-7,-2],[-5,9],[-6,20],[-6,6],[-7,2],[-16,0],[-5,2],[-1,4],[2,3],[5,3],[1,0],[1,1],[2,1],[8,0],[8,3],[11,9],[5,2],[8,0],[16,3],[7,3],[7,9],[3,2],[4,0],[6,-3],[3,0],[21,6],[4,2],[1,4],[-1,2],[-2,2],[-1,4],[0,6],[8,13],[5,1],[12,-6],[7,-1],[12,5],[6,-1],[0,-2],[5,-9],[3,-3],[3,-1],[7,-2],[7,-1],[22,1],[13,-4],[7,-1],[3,5],[-7,2],[-8,1],[-7,3],[-5,5],[18,-1],[8,-3],[14,-11],[22,-8],[11,-10],[8,-13]],[[2482,4096],[10,-10],[14,-9]],[[718,4096],[-10,-24],[-7,-10],[-5,-12],[-1,-8],[4,-19]],[[2516,4069],[6,-5],[11,-15],[15,-31],[3,-12],[15,-17],[12,-10],[48,-37],[10,-12]],[[2636,3930],[14,-16],[32,-34],[9,-7],[15,-3],[6,-2]],[[1389,4072],[-3,-8],[-2,-15],[3,-9],[-3,-8],[8,-12],[-3,-12],[-9,-19],[-3,-11],[-2,-17],[-6,-42],[-7,-31],[-5,-12],[-7,-20]],[[2712,3868],[36,-10],[10,-9],[15,-11],[17,-11],[18,-11],[13,-19]],[[4096,3781],[-7,-4]],[[1030,4096],[4,-5],[3,-10],[0,-14],[-1,-30],[3,-19],[1,-7],[9,-8],[27,-17],[5,-18],[3,-9],[12,-8],[4,-14],[-1,-18],[-5,-12],[-1,-12],[3,-5],[9,-5],[6,-7],[3,-13],[10,-9],[5,-10],[1,-8],[3,-16],[-1,-11],[0,-11],[6,-11],[15,-12],[4,-9],[2,-10],[-3,-15],[-2,-17],[2,-10]],[[4089,3777],[-9,-7],[-23,-20],[-16,-12],[-15,-22],[-20,-24],[-17,-16]],[[2821,3797],[3,-7],[2,-12],[9,-8],[9,-5],[7,-5],[18,-19],[14,-15],[22,-20],[11,-5],[7,-7],[27,-18],[45,-33],[5,-5]],[[1350,3856],[-9,-25],[-2,-10],[-10,-24],[-3,-10],[-2,-17],[2,-10],[7,-27],[2,-10],[0,-19],[-2,-8],[-7,-36],[-2,-8],[-6,-15],[-4,-7]],[[3989,3676],[-16,-16],[-30,-32],[-2,-3]],[[699,4023],[0,-12],[-1,-8],[-3,-8],[-14,-21],[-7,-12],[-3,-10],[-5,-49],[-3,-35],[2,-27],[-3,-24],[-9,-33],[-2,-24],[0,-14],[2,-13],[6,-10],[4,-2],[15,-7],[12,-5],[18,-12],[12,-3],[12,-15],[11,-7],[16,-7],[8,-10],[3,-15],[0,-12],[4,-13],[6,-9],[3,-8],[-1,-7]],[[1314,3630],[-5,-7],[-23,-22],[-13,-10],[-17,-13],[-36,-26],[-18,-11],[-9,-7]],[[1193,3534],[-7,15],[-5,10],[-4,5],[-14,10],[-7,10],[-2,7],[0,24],[2,15],[3,17],[7,27],[2,12],[0,6],[-8,19],[-4,5]],[[3000,3638],[6,-13],[4,-29],[6,-15],[-1,-20],[3,-9],[12,-11],[12,-7],[18,-14],[27,-13],[12,-4],[9,-5],[15,-8]],[[3941,3625],[-6,-9],[-6,-6],[-19,-12],[-11,-5],[-15,-10],[-9,-9],[-13,-15],[-15,-13],[-12,-9],[-11,-7],[-12,-8],[-19,-15],[-15,-10],[-20,-12],[-16,-7],[-15,-3],[-9,-2],[-12,2],[-12,3],[-11,5],[-21,12]],[[3123,3490],[14,-12],[13,-7]],[[3662,3495],[-7,2],[-14,-2],[-10,-7],[-11,-12],[-7,-6],[-8,0],[-10,0],[-12,-2],[-16,-7],[-18,-13],[-28,-5],[-21,-4],[-12,0],[-11,4],[-10,6],[-9,4],[-15,-2],[-14,3],[-12,2],[-13,0],[-15,0],[-30,0],[-18,3],[-18,2],[-36,2],[-26,2],[-21,3],[-18,2],[-12,-2],[-25,-2],[-14,0],[-21,5]],[[0,3401],[18,-4],[7,-3],[8,-7],[16,-9],[17,-5],[18,-6],[7,-5]],[[99,3359],[3,-1],[10,-1],[8,3],[3,-2],[19,-22],[4,-2]],[[215,3274],[2,-2],[8,-10]],[[152,3332],[8,-2],[17,-9],[4,-7]],[[91,3362],[8,-3]],[[146,3334],[2,-1],[4,-1]],[[181,3314],[9,-15],[25,-25]],[[225,3262],[7,-8],[15,-26],[12,-6],[23,-7]],[[365,3179],[1,0],[6,-1],[35,-4],[12,2]],[[282,3215],[12,-4],[6,-3],[13,-13],[5,-5]],[[328,3185],[12,-2],[2,0]],[[318,3190],[4,-4],[6,-1]],[[342,3183],[23,-4]],[[896,2933],[3,51],[0,8],[2,15],[1,36],[0,33],[2,12],[4,7],[8,8],[4,9],[8,18],[16,22],[14,10],[3,7],[7,26],[2,1],[1,14],[9,64],[2,7],[9,16],[3,9],[0,8],[-2,17],[6,10],[12,10],[11,6],[12,5],[16,15],[11,18],[15,12],[21,12],[13,5],[6,3],[5,9],[1,10],[11,20],[15,24],[12,15],[9,10],[12,10],[13,9]],[[765,2958],[-1,-1],[-8,-17],[0,-10]],[[797,3183],[4,-10],[3,-15]],[[804,3158],[0,-2],[9,-17],[0,-10],[-3,-21],[2,-8],[-3,-8],[-6,-7],[-14,-12],[-4,-8],[-2,-12],[0,-29],[-3,-22],[-10,-32],[-5,-12]],[[782,3591],[-2,-12],[-9,-30],[-1,-12],[1,-23],[5,-16],[3,-17],[1,-16],[-1,-16],[-5,-17],[-6,-16],[-12,-32],[-6,-14],[-7,-22],[-5,-22],[3,-22],[3,-10],[3,-20],[6,-17],[14,-19],[7,-13],[12,-24],[11,-18]],[[756,2930],[2,-6],[3,-3],[7,0],[9,3],[4,3]],[[781,2927],[7,6],[10,-3],[9,-6],[6,0],[26,4],[11,3],[16,9],[12,1],[11,-1],[7,-7]],[[739,2917],[17,13]],[[728,2909],[10,7],[1,1]],[[419,3176],[10,-3],[9,-9],[9,-12],[6,-6],[6,-4],[12,-2]],[[471,3140],[14,-3],[10,0],[11,2],[6,-2],[7,-3],[18,-15],[26,-11],[16,-6],[8,-7],[1,-3],[5,-19],[3,-7],[12,-13],[12,-24],[6,-13],[6,-24],[4,-7],[6,-5],[6,-10],[6,-20],[6,-34],[6,-22]],[[666,2894],[3,-8],[5,-5],[7,0],[6,1],[12,9],[11,3],[18,15]],[[896,2933],[5,-5],[3,-12],[3,-25],[1,-32],[0,-16]],[[3150,3471],[6,-5],[12,-20],[14,-17],[27,-30],[36,-42],[13,-16],[9,-6],[8,-2],[6,-7],[9,-17],[6,-18],[4,-22],[9,-19],[18,-37],[6,-5],[2,-5],[0,-22],[3,-12],[3,-8],[10,-15],[18,-19],[12,-15],[3,-7],[15,-15],[14,-12],[15,-10],[7,-9],[5,-6],[1,-12],[8,-22],[4,-8],[12,-16],[11,-17],[15,-11],[10,-5],[17,-4],[4,-3],[3,-7],[5,-18],[7,-14],[8,-7],[7,-3],[5,-14],[6,-8],[24,-5],[9,-12],[9,-2],[11,-5],[6,-11],[3,-17],[4,-9],[14,-13],[-3,-9],[-15,-8],[-6,-7],[-2,-7],[2,-3]],[[908,2843],[2,-6],[0,-19],[0,-8],[-6,-32],[1,-5],[8,-6]],[[3596,2732],[-1,0]],[[3566,2734],[-3,-7]],[[913,2767],[15,-5],[6,-6],[7,-12],[5,-15],[1,-10]],[[3628,2717],[-18,8],[-14,7]],[[3646,2703],[-18,14]],[[3595,2732],[-2,-5],[0,-24],[-1,-9]],[[3592,2694],[0,-1],[-3,-1]],[[3844,2683],[-6,2],[-11,0],[-15,-4]],[[3812,2681],[-6,-1],[-18,1],[-7,2]],[[947,2719],[9,-9],[17,-18],[9,-6],[21,-5],[10,-1],[12,0],[21,5],[23,-2],[7,2],[14,5],[13,10],[6,5],[27,32],[9,14],[11,16],[10,14],[33,22],[9,3],[5,-1]],[[3659,2696],[-6,2],[-7,5]],[[3781,2683],[-8,2],[-9,-2],[-7,5],[-12,-3],[-14,3],[-3,-2],[-12,-11],[-12,3],[-25,12],[-20,6]],[[4096,2654],[-40,-1],[-18,0],[-12,1]],[[3923,2629],[-18,9],[-16,13],[-17,0],[-7,3],[-5,7],[-12,17],[-4,5]],[[4026,2654],[-13,0],[-7,-1],[-24,-10],[-26,-7],[-28,-7],[-5,0]],[[3563,2727],[-2,-9]],[[3561,2718],[-7,-25],[-9,-20],[-5,-10],[-4,-12],[-6,-7],[-12,-17],[-12,-13]],[[1213,2805],[7,-7],[17,-9],[9,-8],[4,-12],[-6,-18],[-1,-12],[1,-17],[3,-9],[8,-13],[6,-7],[15,-13],[10,-5],[17,-7],[23,-9],[21,-3],[7,-2],[24,-11],[18,-5],[17,-2],[13,2],[12,1],[14,-1],[19,-9],[32,-15],[10,-9],[20,-11]],[[1533,2594],[9,-4],[24,-3],[16,-5],[21,-12],[20,-12],[34,-18],[15,-12],[14,-9],[16,-10]],[[3506,2614],[-9,-12],[-9,-22],[-8,-18],[-7,-14],[-9,-12],[-6,-8],[-2,-9],[-4,-8],[-14,-14],[-9,-16]],[[947,2719],[0,-9],[-3,-8],[-13,-24],[-2,-10],[-1,-10],[3,-39],[4,-44],[-1,-22],[-2,-22],[-3,-12],[-6,-15],[-10,-15],[-5,-8]],[[3383,2390],[-3,-6]],[[3429,2481],[-27,-48],[-10,-18],[-5,-17],[-4,-8]],[[3380,2384],[13,-20],[0,-3]],[[1702,2509],[23,-10],[15,-2],[24,-8],[30,-14],[23,-13],[18,-12],[7,-5],[21,-20],[12,-9],[27,-16],[24,-12],[15,-7],[9,-5],[56,-29],[25,-10],[11,-3],[12,-2],[3,-2]],[[2057,2330],[19,-15],[9,-5],[9,-7],[35,-18],[16,-7],[39,-15],[12,-4],[20,-6],[32,-14],[31,-15],[18,-7],[21,-5],[23,-12],[12,-8],[13,-7],[23,-15],[25,-15],[15,-7],[24,-10],[12,-3]],[[2465,2135],[23,-7],[33,-10],[21,-10],[30,-11]],[[803,2138],[13,-17],[12,-17],[5,-17]],[[908,2481],[-10,-16],[-15,-23],[-14,-15],[-12,-12],[-11,-9],[-31,-15],[-6,-5],[-5,-7],[-3,-15],[2,-18],[-2,-17],[-3,-16],[-7,-25],[0,-8],[-2,-19],[-3,-13],[-6,-9],[-4,-5],[-2,-8],[3,-12],[12,-44],[8,-19],[6,-13]],[[3393,2361],[-3,-4],[-1,-1]],[[3389,2356],[-21,-32],[-9,-16],[-9,-18],[-12,-15],[-14,-12],[-46,-47],[-23,-22],[-7,-7],[-17,-27],[-21,-19],[-4,-6],[-6,-24],[-3,-10],[-5,-10],[-6,-10],[-16,-17],[-6,-9],[-3,-10],[-3,-3],[-11,-19],[-13,-15],[-17,-14],[-6,-10]],[[833,2087],[5,-15]],[[838,2072],[1,-5],[7,-22],[5,-20],[2,-17],[3,-22],[4,-13],[6,-14],[12,-17],[18,-17],[8,-8],[9,-12]],[[3098,1869],[-2,-8],[0,-10],[3,-14]],[[3111,1984],[-5,-17],[-3,-16],[0,-12],[3,-19],[0,-22],[-7,-22],[-1,-7]],[[3072,1866],[16,-18],[11,-11]],[[2572,2097],[37,-13],[17,-7],[16,-3],[8,-4],[23,-13],[46,-22],[11,-7],[18,-8],[25,-9],[11,-6],[10,-4],[12,-7],[12,-5],[12,-3],[20,-5],[43,0],[45,-3],[11,-2],[18,-7],[9,-7],[10,-11],[17,-21],[16,-8],[9,-7],[11,-10],[28,-34],[5,-5]],[[3099,1837],[12,-6],[9,-4],[10,0]],[[3130,1827],[2,0],[21,5]],[[3153,1832],[23,5],[16,6],[17,8],[16,5],[20,5],[19,4],[21,6],[27,5],[17,0],[21,-5],[7,0],[57,10],[20,4],[16,1],[15,0],[11,-3],[9,-8],[12,-5],[15,-4],[15,-7],[22,4],[9,-4],[11,-5],[21,-11],[20,-7],[6,-4],[10,-5]],[[3626,1827],[15,-3],[12,0],[17,3],[18,4],[12,3],[3,0],[12,-12],[28,-13],[12,-9]],[[3791,1781],[32,-13],[21,-8],[22,-5],[11,-2],[13,-2],[20,4],[7,1],[8,4],[19,17],[12,6],[14,2],[7,0],[5,-2],[15,-11],[9,-6]],[[3755,1800],[12,-8],[23,-10],[1,-1]],[[4006,1766],[1,-1],[22,-3],[19,0],[9,1],[8,7],[12,13],[10,17],[9,9]],[[1160,1705],[8,-3],[9,-8]],[[913,1905],[7,-7],[8,-12],[13,-25],[17,-40],[4,-7],[14,-10],[36,-21],[27,-11],[39,-27],[13,-5],[8,-7],[18,-10],[22,-10],[21,-8]],[[1177,1694],[3,-5],[0,-2]],[[1180,1687],[9,-44],[4,-27],[0,-6],[-3,-24],[0,-8],[6,-32],[5,-36],[3,-37],[4,-24],[5,-23],[6,-22],[4,-10],[12,-21],[8,-13],[13,-19],[17,-32],[3,-10],[4,-8],[3,-10],[3,-19],[0,-15],[-3,-14],[0,-6],[3,-19],[5,-14],[1,-10],[0,-6],[-4,-16],[0,-13],[12,-14],[14,-6],[7,-7],[5,-9],[4,-18],[2,-7],[7,-10],[15,-14],[17,-11],[9,-10],[4,-12]],[[3099,1837],[-5,-10],[-3,-4]],[[3091,1823],[-1,-1],[-17,-13],[-12,-7],[-13,-10],[-11,-15],[-15,-29],[-13,-22],[-6,-12],[-11,-25],[-1,-14],[1,-8],[5,-7],[10,-25],[8,-14],[-3,-10],[4,-13],[0,-9],[-7,-18],[-3,-20],[1,-21],[-3,-23],[-6,-24],[-3,-12],[-4,-7],[-9,-8],[-9,-15],[-9,-10],[-2,-4],[0,-27],[-3,-11],[-6,-9],[-10,-7],[-2,-10],[0,-8],[-9,-36],[-3,-8],[-6,-10],[-3,-19],[-4,-10],[-5,-10],[-10,-10],[-3,-17],[-3,-10],[-8,-20],[-6,-14],[-6,-10],[-9,-7],[0,-17],[-12,-15],[-6,-8],[-19,-12],[-6,-7],[-20,-18],[-15,-14],[-18,-7],[-36,-22],[-7,-5],[-9,-10],[-12,-7],[-21,-10],[-28,-10],[-7,-5]],[[3803,896],[9,12],[15,13],[26,19],[46,33],[33,27],[5,5],[4,11],[2,15],[4,13],[14,15],[9,14],[7,29],[9,20],[2,7],[1,25],[29,8],[18,7],[11,7],[18,12],[12,-4],[4,0],[8,5],[4,9],[3,13]],[[3803,896],[-27,22],[-6,1],[-24,0]],[[4096,809],[-21,-1],[-7,-3],[-5,-7]],[[4018,794],[-11,5],[-15,11],[-19,8],[-9,7],[-9,18],[-11,4],[-12,3],[-13,7],[-33,-5],[-18,1],[-14,6],[-15,8],[-9,8],[-15,11],[-12,10]],[[4063,798],[-16,-7],[-12,0],[-17,3]],[[3746,919],[-15,-1],[-18,-4],[-21,-8],[-21,-12],[-22,-20],[-26,-27],[-6,-5],[-30,-19],[-20,-15],[-7,-9],[-3,-6],[-9,-7],[-18,-5],[-42,-5],[-27,-5]],[[3589,609],[7,10],[2,12],[4,15],[5,17],[4,28],[8,16],[13,10],[20,12],[31,16],[18,11],[35,25],[9,10],[6,7],[1,8],[9,15],[8,11],[12,11],[6,12],[9,27],[7,14]],[[3461,771],[-6,-5],[-21,-19],[-11,-12],[-18,-22],[-16,-15],[-20,-15],[-19,-20],[-11,-14],[-6,-15],[-1,-10],[-8,-19],[-6,-6],[-9,-21],[-9,-15]],[[3567,496],[-3,11],[3,22],[5,19],[9,17],[2,5],[0,17],[0,5],[6,17]],[[1384,1031],[0,-17],[-3,-41],[-3,-25],[-1,-13],[-3,-65],[-3,-52],[-3,-22],[-5,-7],[-7,-5],[-9,-13],[-18,-53],[-15,-35],[-8,-20],[-6,-12],[-9,-32],[-3,-9],[-9,-30],[0,-20],[0,-15],[-8,-9],[-3,-5],[-3,-29],[-4,-18]],[[3300,563],[-4,-7],[-11,-11],[-6,-7],[-10,-17],[-11,-17],[-19,-25],[-26,-41],[-6,-8],[-10,-10],[-9,-7],[-18,-8],[-33,-11],[-23,-10],[-23,-15],[-15,-17],[-16,-27],[-11,-10],[-9,-5],[-15,-5],[-10,-7],[-18,-12],[-15,-10]],[[2650,1007],[-9,-10],[-3,-8],[-3,-16],[-9,-30],[-3,-20],[0,-17],[-2,-26],[-7,-30],[-2,-24],[3,-25],[0,-5],[6,-17],[0,-8],[0,-14],[-4,-28],[-6,-26],[-3,-13],[-5,-17],[-4,-37],[-3,-10],[-11,-22],[-3,-14],[-4,-12],[-5,-15],[-3,-7],[-10,-32],[-6,-8],[-9,-19],[-9,-8],[-18,-12],[-6,-5],[-6,-20],[1,-15],[-1,-12],[-8,-19],[-3,-17],[-4,-23],[-8,-34],[-12,-73]],[[450,254],[-19,2],[-29,3],[-9,0],[-30,-6],[-26,-2],[-9,0]],[[3491,244],[6,4],[18,11],[9,7],[13,19],[0,13],[3,12],[12,24],[8,17],[1,6],[-3,15],[3,12],[17,26],[2,5],[0,15],[-5,17],[-8,49]],[[1144,249],[3,0],[10,9],[5,0]],[[1106,249],[8,-10],[6,2],[15,7],[9,1]],[[927,237],[1,0],[13,6],[23,16],[2,2]],[[984,250],[1,-2],[1,-2],[8,-2]],[[1007,236],[5,-9],[4,-1]],[[886,254],[15,-11],[12,-7],[14,1]],[[966,261],[4,2],[9,0],[4,-7],[1,-6]],[[994,244],[10,-1],[3,-7]],[[1016,226],[8,1],[7,4],[11,6],[4,2],[17,-5],[13,0],[21,7],[9,8]],[[1216,256],[-9,-34]],[[1261,484],[-2,-12],[0,-13],[2,-22],[-3,-19],[-5,-8],[-10,-17],[0,-10],[1,-17],[-1,-10],[-9,-43],[-9,-28],[-5,-10],[-4,-19]],[[1162,258],[3,-2],[1,-15],[3,-7],[5,-3],[18,-4],[15,-5]],[[886,254],[-3,2],[-9,-3],[-8,-9],[-7,-3],[-26,-5],[-21,-4],[-9,-5],[-8,-12],[-7,2],[-11,14],[-15,8],[-10,2],[-24,2],[-29,1],[-40,0],[-30,2],[-95,7],[-16,5],[-23,-5],[-45,1]],[[1207,222],[1,-12]],[[87,202],[33,19],[18,6],[33,5],[34,7],[38,7],[18,2],[34,0],[20,-4],[13,7]],[[1208,210],[23,4],[7,1],[22,5]],[[1260,220],[17,4],[41,10],[24,9],[18,3],[23,-5],[21,-7],[16,-5],[15,-2],[29,0],[36,2],[34,-2],[29,-5],[12,-1],[21,-4],[27,-3],[12,-2],[54,2],[40,0],[18,1],[13,0],[52,-3],[11,0],[43,3],[17,0],[15,-1],[18,-9],[10,-3],[20,-3],[12,3],[18,2]],[[1976,204],[16,1],[18,0],[47,-6],[25,-4],[29,-7],[15,-1],[37,-9]],[[1207,222],[-20,-8],[-17,-12]],[[1170,202],[-17,-12],[-12,-10],[-15,-10],[-11,-9]],[[2982,276],[-15,-10],[-9,-8],[-11,-14],[-9,-22],[-16,-15],[-12,-8],[-24,-14],[-21,-10],[-23,-8],[-10,-4],[-42,-8],[-6,0],[-20,3],[-18,3]],[[1015,147],[0,-1],[-9,-5],[-21,-1],[-11,0],[-21,3],[-13,-3],[-5,-4]],[[935,136],[-1,-2]],[[1115,161],[-9,-6],[-15,0],[-15,-9],[-6,-1],[-6,5],[-4,10],[-12,7],[-11,-2],[-9,-5],[-13,-13]],[[2476,161],[0,-6],[-2,-31]],[[2471,259],[-1,-11],[0,-9],[6,-13],[0,-9],[-2,-20],[2,-19],[0,-17]],[[2474,124],[-22,-8]],[[2452,116],[-5,-3]],[[2432,116],[15,-3]],[[2163,178],[9,-3],[20,-8],[15,-11],[9,-1],[12,-2],[15,0],[11,-2],[36,-8],[16,-2],[71,-13],[33,-5],[16,-5],[6,-2]],[[0,162],[7,3],[12,4]],[[19,169],[18,6],[21,10],[29,17]],[[2537,89],[0,3]],[[2503,128],[-11,0],[-18,-4]],[[2537,92],[-1,4],[-2,6],[-1,9],[-8,8],[-4,5],[-17,4],[-1,0]],[[1207,222],[-9,-18],[-3,-15]],[[1195,189],[-2,-7],[-3,-10],[-4,-9],[-15,-23],[-5,-11],[-4,-11],[-3,-26],[-2,-18]],[[2746,161],[-13,0],[-18,-1],[-23,-9],[-13,-8],[-26,-15],[-24,-15],[-11,-11],[-6,-11],[-10,-12],[-6,-5],[-8,-4]],[[2569,72],[-12,2],[-15,10],[-5,5]],[[2588,70],[-12,0],[-7,2]],[[2588,70],[35,-8],[12,-5],[18,-12],[9,-3],[23,-2],[13,-5],[15,-9],[8,0],[34,0],[35,6],[9,0],[25,-7],[12,0],[9,1],[11,6],[21,13],[15,2],[18,-5],[27,1],[18,5],[22,2],[33,5],[20,4]],[[881,0],[14,3],[19,12],[5,6],[0,11],[-3,21],[3,29],[1,10],[6,12],[-1,17],[3,8],[6,5]],[[3446,226],[18,0],[8,-7]],[[3472,219],[2,-2],[5,-8],[4,-9],[2,-12],[0,-18],[-3,-25],[3,-16],[16,-27],[3,-8],[2,-12],[0,-13],[-3,-53],[0,-16]],[[3030,59],[12,1],[15,-7],[21,-6],[16,-14],[47,-20],[12,-12],[1,-1]],[[1208,210],[5,-8],[4,-5],[11,-6]],[[1228,191],[4,-3],[9,-6],[8,-9],[9,-12],[10,-16],[24,-32],[14,-16],[8,-6],[15,-21],[9,-11],[6,-9],[12,-18],[16,-19],[9,-5],[11,-5],[5,-3]],[[2447,113],[-6,-7]],[[2441,106],[-12,-12],[-13,-17],[-8,-10],[-9,-17],[-7,-17],[-5,-15],[-7,-15],[-1,-3]],[[1157,74],[-1,-21],[-3,-16],[-6,-17],[-3,-10],[-6,-10]],[[4096,4096],[0,-4096],[-4096,0],[0,1157],[0,2939],[223,0],[3873,0]],[[208,3285],[62,217],[51,0],[21,-324],[-98,50],[-36,57]],[[913,172],[16,75],[27,20],[62,-37],[-16,-28],[28,-117],[-57,-76],[-2,-9],[-51,0],[-1,12],[30,44],[-22,126],[-14,-10]],[[1975,2482],[28,95],[104,0],[0,-131],[-122,1],[-10,35]],[[2229,2861],[81,91],[104,-121],[-74,-80],[-20,44],[-32,-1],[-7,34],[-52,33]],[[1466,622],[52,182],[-9,91],[196,-47],[28,-59],[67,-16],[-14,-80],[27,-34],[126,-2],[-1,-196],[-85,-64],[-22,23],[-6,-27],[-35,-8],[8,55],[-57,-55],[-24,33],[-31,-21],[-31,18],[1,58],[-91,6],[-2,58],[-88,21],[-9,64]],[[3268,1242],[335,253],[50,142],[116,134],[35,17],[100,-32],[67,47],[37,-20],[-15,-149],[-110,-162],[-119,-90],[-387,-163],[-98,-2],[-11,25]],[[2521,68],[25,38],[26,-38],[-25,-8],[-26,8]],[[2479,110],[-51,-6],[24,68],[69,-31],[-42,-31]],[[1194,266],[69,-32],[-9,-41],[-74,-5],[-37,57],[14,57],[37,-36]],[[3446,266],[28,-15],[13,-32],[-69,0],[28,47]],[[611,1409],[22,42],[34,-16],[-22,-26],[-34,0]],[[1157,1690],[10,45],[41,12],[4,-63],[-55,6]],[[3117,1872],[14,-47],[-46,-2],[-14,43],[46,6]],[[805,2147],[44,-16],[30,-31],[-42,-28],[-45,23],[13,52]],[[3367,2355],[14,35],[32,1],[-9,-34],[-37,-2]],[[773,2963],[9,-42],[-41,-15],[-5,36],[37,21]],[[847,3150],[-39,4],[-30,27],[40,4],[29,-35]],[[3644,2765],[28,-57],[-46,-41],[-79,62],[88,57],[9,-21]],[[0,3212],[65,28],[40,139],[139,-151],[104,-59],[61,38],[6,83],[75,-42],[-30,-173],[-98,75],[53,-116],[-18,-96],[-397,3],[0,271]],[[73,2067],[52,229],[66,285],[61,-33],[-21,-13],[12,-94],[91,-71],[12,-77],[39,-6],[-3,-153],[-39,-104],[-256,-70],[-14,107]],[[1890,2426],[2,152],[111,-1],[-28,-95],[10,-35],[32,0],[-1,-84],[-126,63]],[[0,4025],[208,-154],[-36,-20],[5,-46],[-61,-65],[-116,-29],[0,314]],[[0,553],[105,-216],[-25,-130],[-80,-50],[0,396]],[[105,3379],[80,284],[-69,77],[61,65],[-5,46],[89,43],[43,-75],[-62,-4],[20,-107],[-65,-287],[23,-73],[-45,-39],[-70,70]]]}