{"objects":{"water":{"type":"GeometryCollection","geometries":[{"type":"Polygon","properties":{"source":"naturalearthdata.com","kind":"playa","name":"Hamun-i-Mashkel","area":2380792064,"sort_rank":200,"min_zoom":0.0,"id":8},"arcs":[[22]]},{"type":"Polygon","properties":{"source":"naturalearthdata.com","kind":"playa","name":"Daryacheh-ye Namak","area":2461691648,"sort_rank":200,"min_zoom":0.0,"id":19},"arcs":[[23]]},{"type":"Polygon","properties":{"source":"naturalearthdata.com","kind":"playa","name":"Namakzar-e Shadad","area":4318447104,"sort_rank":200,"min_zoom":0.0,"id":23},"arcs":[[24]]},{"type":"Polygon","properties":{"source":"naturalearthdata.com","kind":"playa","name":"Hamun-e Jaz Murian","area":1943267840,"sort_rank":200,"min_zoom":0.0,"id":9},"arcs":[[25]]},{"type":"MultiPolygon","properties":{"source":"naturalearthdata.com","kind":"playa","name":"Rann of Kutch","area":29658202112,"sort_rank":200,"min_zoom":0.0,"id":34},"arcs":[[[26]]]},{"type":"Polygon","properties":{"source":"naturalearthdata.com","kind":"playa","area":3961970688,"sort_rank":200,"min_zoom":0.0,"id":5},"arcs":[[27]]},{"type":"Polygon","properties":{"source":"naturalearthdata.com","kind":"lake","name":"Lake Sevana","area":2329639424,"sort_rank":200,"min_zoom":0.0,"id":226},"arcs":[[28]]},{"type":"Polygon","properties":{"source":"naturalearthdata.com","kind":"playa","name":"Dasht-e Kavir","area":66662014976,"sort_rank":200,"min_zoom":0.0,"id":32},"arcs":[[29]]},{"type":"MultiPolygon","properties":{"source":"naturalearthdata.com","kind":"ocean","area":1444195503964160,"sort_rank":200,"min_zoom":0.0,"id":1},"arcs":[[[30]],[[31],[32]],[[33],[34],[35],[36],[37],[38],[39],[40]]]},{"type":"Polygon","properties":{"kind":"lake","name":"Lake Hammar","area":1388999040,"sort_rank":200,"alkaline":true,"source":"naturalearthdata.com","min_zoom":0.0,"id":251},"arcs":[[41]]},{"type":"Polygon","properties":{"kind":"lake","name":"Lake Urmia","area":6793214976,"sort_rank":200,"alkaline":true,"source":"naturalearthdata.com","min_zoom":0.0,"id":83},"arcs":[[42]]},{"type":"Polygon","properties":{"source":"naturalearthdata.com","kind":"playa","name":"Kevir-e Namak (Lake Namakzar)","area":11001759744,"sort_rank":200,"min_zoom":0.0,"id":20},"arcs":[[43]]},{"type":"Point","properties":{"label_placement":true,"kind":"playa","name":"Dasht-e Kavir","area":66662014976,"sort_rank":200,"source":"naturalearthdata.com","min_zoom":0.0,"id":32},"coordinates":[1821,2709]},{"type":"Point","properties":{"label_placement":true,"kind":"playa","name":"Kevir-e Namak (Lake Namakzar)","area":11001759744,"sort_rank":200,"source":"naturalearthdata.com","min_zoom":0.0,"id":20},"coordinates":[2600,2711]},{"type":"Point","properties":{"label_placement":true,"kind":"lake","name":"Lake Urmia","area":6793214976,"sort_rank":200,"alkaline":true,"source":"naturalearthdata.com","min_zoom":0.0,"id":83},"coordinates":[87,3395]},{"type":"Point","properties":{"label_placement":true,"kind":"playa","name":"Namakzar-e Shadad","area":4318447104,"sort_rank":200,"source":"naturalearthdata.com","min_zoom":0.0,"id":23},"coordinates":[2398,1888]},{"type":"Point","properties":{"label_placement":true,"kind":"playa","name":"Daryacheh-ye Namak","area":2461691648,"sort_rank":200,"source":"naturalearthdata.com","min_zoom":0.0,"id":19},"coordinates":[1249,2713]},{"type":"Point","properties":{"label_placement":true,"kind":"playa","name":"Hamun-i-Mashkel","area":2380792064,"sort_rank":200,"source":"naturalearthdata.com","min_zoom":0.0,"id":8},"coordinates":[3291,1358]},{"type":"Point","properties":{"label_placement":true,"kind":"lake","name":"Lake Sevana","area":2329639424,"sort_rank":200,"source":"naturalearthdata.com","min_zoom":0.0,"id":226},"coordinates":[65,3966]},{"type":"Point","properties":{"label_placement":true,"kind":"playa","name":"Hamun-e Jaz Murian","area":1943267840,"sort_rank":200,"source":"naturalearthdata.com","min_zoom":0.0,"id":9},"coordinates":[2525,1179]},{"type":"Point","properties":{"label_placement":true,"kind":"lake","name":"Lake Hammar","area":1388999040,"sort_rank":200,"alkaline":true,"source":"naturalearthdata.com","min_zoom":0.0,"id":251},"coordinates":[366,1904]},{"type":"LineString","properties":{"source":"naturalearthdata.com","kind":"playa","sort_rank":367,"boundary":true,"min_zoom":0.0,"id":5},"arcs":[44]},{"type":"LineString","properties":{"source":"naturalearthdata.com","kind":"playa","sort_rank":367,"boundary":true,"min_zoom":0.0,"id":8},"arcs":[45]},{"type":"LineString","properties":{"source":"naturalearthdata.com","kind":"playa","sort_rank":367,"boundary":true,"min_zoom":0.0,"id":9},"arcs":[46]},{"type":"LineString","properties":{"source":"naturalearthdata.com","kind":"playa","sort_rank":367,"boundary":true,"min_zoom":0.0,"id":19},"arcs":[47]},{"type":"LineString","properties":{"source":"naturalearthdata.com","kind":"playa","sort_rank":367,"boundary":true,"min_zoom":0.0,"id":20},"arcs":[48]},{"type":"LineString","properties":{"source":"naturalearthdata.com","kind":"playa","sort_rank":367,"boundary":true,"min_zoom":0.0,"id":23},"arcs":[49]},{"type":"LineString","properties":{"source":"naturalearthdata.com","kind":"playa","sort_rank":367,"boundary":true,"min_zoom":0.0,"id":32},"arcs":[50]},{"type":"LineString","properties":{"source":"naturalearthdata.com","kind":"playa","sort_rank":367,"boundary":true,"min_zoom":0.0,"id":34},"arcs":[51]},{"type":"LineString","properties":{"source":"naturalearthdata.com","kind":"lake","sort_rank":367,"alkaline":true,"boundary":true,"min_zoom":0.0,"id":83},"arcs":[52]},{"type":"LineString","properties":{"source":"naturalearthdata.com","kind":"ocean","sort_rank":205,"boundary":true,"min_zoom":0.0,"id":117},"arcs":[53]},{"type":"LineString","properties":{"source":"naturalearthdata.com","kind":"lake","sort_rank":367,"boundary":true,"min_zoom":0.0,"id":226},"arcs":[54]},{"type":"LineString","properties":{"source":"naturalearthdata.com","kind":"lake","sort_rank":367,"alkaline":true,"boundary":true,"min_zoom":0.0,"id":251},"arcs":[55]},{"type":"LineString","properties":{"source":"naturalearthdata.com","kind":"ocean","sort_rank":205,"boundary":true,"min_zoom":0.0,"id":318},"arcs":[56]},{"type":"LineString","properties":{"source":"naturalearthdata.com","kind":"ocean","sort_rank":205,"boundary":true,"min_zoom":0.0,"id":320},"arcs":[57]},{"type":"LineString","properties":{"source":"naturalearthdata.com","kind":"ocean","sort_rank":205,"boundary":true,"min_zoom":0.0,"id":321},"arcs":[58]},{"type":"LineString","properties":{"source":"naturalearthdata.com","kind":"ocean","sort_rank":205,"boundary":true,"min_zoom":0.0,"id":322},"arcs":[59]},{"type":"LineString","properties":{"source":"naturalearthdata.com","kind":"ocean","sort_rank":205,"boundary":true,"min_zoom":0.0,"id":326},"arcs":[60]},{"type":"LineString","properties":{"source":"naturalearthdata.com","kind":"ocean","sort_rank":205,"boundary":true,"min_zoom":0.0,"id":328},"arcs":[61]},{"type":"MultiLineString","properties":{"source":"naturalearthdata.com","kind":"ocean","sort_rank":205,"boundary":true,"min_zoom":0.0,"id":1388},"arcs":[[62],[63],[64],[65]]},{"type":"LineString","properties":{"source":"naturalearthdata.com","kind":"ocean","sort_rank":205,"boundary":true,"min_zoom":0.0,"id":1427},"arcs":[66]},{"type":"Point","properties":{"label_placement":true,"kind":"sea","name":"\u062e\u0644\u06cc\u062c \u0641\u0627\u0631\u0633","source":"openstreetmap.org","sort_rank":200,"min_zoom":3.0,"id":305639193},"coordinates":[1092,1088]}]},"buildings":{"type":"GeometryCollection","geometries":[]},"places":{"type":"GeometryCollection","geometries":[{"type":"Point","properties":{"name:ka":"\u10d8\u10e0\u10d0\u10dc\u10d8","name:ko":"\uc774\ub780","name:cv":"\u0418\u0441\u043b\u0430\u043c \u0420\u0435\u0441\u043f\u0443\u0431\u043b\u0438\u043a\u0438 \u0418\u0440\u0430\u043d","name:km":"\u17a2\u17ca\u17b8\u179a\u17c9\u1784\u17cb","name:kl":"Iran","name:cs":"\u00cdr\u00e1n","name:tw":"Iran","name:ki":"Uajemi","name:co":"Iranu","name:kv":"\u0418\u0440\u0430\u043d","name:ku":"\u00ceran","name:ti":"\u12a2\u122b\u1295","name:ks":"\u0627\u06cc\u0656\u0631\u0627\u0646","name:to":"\u02bbIulaani","name:tl":"Iran","name:ce":"\u0418\u0440\u0430\u043d","name:ta":"\u0b88\u0bb0\u0bbe\u0ba9\u0bcd","name:tg":"\u042d\u0440\u043e\u043d","name:ca":"Iran","name:te":"\u0c07\u0c30\u0c3e\u0c28\u0c4d","name:cy":"Iran","name:hr":"Iran","name:da":"Iran","name:de":"Iran","name:dz":"\u0f68\u0f72\u0f0b\u0f62\u0f71\u0f53","source":"openstreetmap.org","name:kn":"\u0c87\u0cb0\u0cbe\u0ca8\u0ccd","name:dv":"\u0787\u07a9\u0783\u07a7\u0782\u07b0","name:lv":"Ir\u0101na","name:lt":"Iranas","name:uz":"Eron","name:kk":"\u0418\u0440\u0430\u043d","name:lb":"Iran","name:la":"Irania","name:lg":"Yiraani","name:uk":"\u0406\u0440\u0430\u043d","name:ug":"\u0626\u0649\u0631\u0627\u0646","name:li":"Iraan","name:ln":"Ir\u00e2","name:lo":"\u0ead\u0eb5\u0ea5\u0ec8\u0eb2\u0e99","name:el":"\u0399\u03c1\u03ac\u03bd","name:eo":"Irano","name:en":"Iran","name":"\u0627\u06cc\u0631\u0627\u0646","name:tk":"E\u00fdran","name:ee":"Iran nutome","name:th":"\u0e1b\u0e23\u0e30\u0e40\u0e17\u0e28\u0e2d\u0e34\u0e2b\u0e23\u0e48\u0e32\u0e19","name:eu":"Iran","name:et":"Iraan","name:es":"Ir\u00e1n","name:ia":"Iran","name:rm":"Iran","name:rn":"Irani","name:az":"\u0130ran","name:ie":"Iran","name:id":"Iran","name:ar":"\u0625\u064a\u0631\u0627\u0646","name:io":"Iran","name:ak":"Iran","name:am":"\u12a2\u122b\u1295","name:it":"Iran","name:an":"Ir\u00e1n","name:ru":"\u0418\u0440\u0430\u043d","name:rw":"Irani","name:af":"Iran","name:zu":"i-Iran","name:za":"Iran","name:zh-yue":"\u4f0a\u6717","name:zh":"\u4f0a\u6717","name:so":"Iiraan","name:sn":"Iran","name:sl":"Iran","name:sk":"Ir\u00e1n","name:ja":"\u30a4\u30e9\u30f3","name:si":"\u0d89\u0dbb\u0dcf\u0db1\u0dba","name:sh":"Iran","name:sg":"Ir\u00e4an","name:se":"Iran","name:sc":"Iran","name:sa":"\u0908\u0930\u093e\u0928","name:bs":"Iran","name:bm":"Ira\u014b","name:bn":"\u0987\u09b0\u09be\u09a8","name:bo":"\u0f68\u0f72\u0f0b\u0f62\u0f71\u0f53\u0f0d","name:br":"Iran","name:sw":"Uajemi","name:be":"\u0406\u0440\u0430\u043d","name:su":"Iran","name:bg":"\u0418\u0440\u0430\u043d","name:ss":"I-Irani","name:ba":"\u0418\u0440\u0430\u043d","name:sq":"Irani","name:jv":"Iran","name:pt":"Ir\u00e3","name:ps":"\u0627\u064a\u0631\u0627\u0646","name:oc":"Iran","min_zoom":2.0,"name:ro":"Iran","name:zh-min-nan":"Iran","name:os":"\u0418\u0440\u0430\u043d","name:or":"\u0b07\u0b30\u0b3e\u0b28\u0b4d","name:pl":"Iran","name:sr":"\u0418\u0440\u0430\u043d","name:pa":"\u0a07\u0a30\u0a3e\u0a28","name:tr":"\u0130ran","name:hi":"\u0908\u0930\u093e\u0928","name:sv":"Iran","name:he":"\u05d0\u05d9\u05e8\u05df","name:ha":"Iran","old_name:en":"Persia","name:hy":"\u053b\u0580\u0561\u0576","name:ht":"Iran","name:hu":"Ir\u00e1n","name:qu":"Iran","population":70472846,"kind":"country","name:is":"\u00cdran","name:yi":"\u05d0\u05d9\u05e8\u05d0\u05df","name:yo":"Or\u00edl\u1eb9\u0301\u00e8de Irani","name:mt":"Iran","name:ms":"Iran","name:mr":"\u0908\u0930\u093e\u0923","name:my":"\u1021\u102e\u101b\u1014\u103a","official_name":"\u062c\u0645\u0647\u0648\u0631\u06cc \u0627\u0633\u0644\u0627\u0645\u06cc \u0627\u06cc\u0631\u0627\u0646","name:kw":"Iran","name:mg":"Iran","name:ml":"\u0d07\u0d31\u0d3e\u0d7b","name:vi":"Iran","name:mn":"\u0418\u0440\u0430\u043d","name:mi":"\u012ar\u0101na","id":424298311,"name:mk":"\u0418\u0440\u0430\u043d","name:vo":"Lir\u00e4n","name:ff":"Iraan","name:fi":"Iran","name:ky":"\u0418\u0440\u0430\u043d","name:fo":"Iran","name:fr":"Iran","name:fy":"Iran","int_name":"Iran","name:nl":"Iran","name:nn":"Iran","name:no":"Iran","name:na":"Iran","name:ne":"\u0907\u0930\u093e\u0928","name:wa":"Iran","name:wo":"Iraan","name:nv":"Iiw\u0105\u0301\u0105\u0301","name:ga":"An Iar\u00e1in","name:gd":"Ior\u00e0n","name:gn":"Ir\u00e1n","name:gl":"Ir\u00e1n","name:gv":"Yn Eeraan","name:gu":"\u0a88\u0ab0\u0abe\u0aa8","name:tt":"\u0418\u0440\u0430\u043d"},"coordinates":[1447,2366]},{"type":"Point","properties":{"name:pt":"Afeganist\u00e3o","old_name:vi":"A Ph\u00fa H\u00e3n","name:ka":"\u10d0\u10d5\u10e6\u10d0\u10dc\u10d4\u10d7\u10d8","name:mt":"Afganistan","name:ko":"\uc544\ud504\uac00\ub2c8\uc2a4\ud0c4","name:kn":"\u0c85\u0cab\u0c98\u0cbe\u0ca8\u0cbf\u0cb8\u0ccd\u0ca5\u0cbe\u0ca8\u0ccd","name:km":"\u17a2\u17b6\u17a0\u17d2\u179c\u17a0\u17d2\u1782\u17b6\u1793\u17b8\u179f\u17d2\u1790\u17b6\u1793","name:kl":"Afghanistani","name:cs":"Afgh\u00e1nist\u00e1n","alt_name:eo":"Afganistano;Afganio","name:ki":"Afuganistani","name:tr":"Afganistan","name:ku":"Afxanistan","name:ti":"\u12a0\u134d\u130b\u1292\u1235\u1273\u1295","name:ks":"\u0627\u064e\u0641\u063a\u0627\u0646\u064e\u0633\u062a\u0627\u0646","name:to":"\u02bbAfik\u0101nisitani","name:tl":"Apganistan","name:sv":"Afghanistan","name:or":"\u0b06\u0b2b\u0b3e\u0b17\u0b3e\u0b28\u0b3f\u0b38\u0b4d\u0b24\u0b3e\u0b28\u0b4d","name:ce":"\u0410\u0444\u0433I\u0430\u043d\u0438\u0441\u0442\u0430\u043d","name:ta":"\u0b86\u0baa\u0bcd\u0b95\u0bbe\u0ba9\u0bbf\u0bb8\u0bcd\u0ba4\u0bbe\u0ba9\u0bcd","name:tg":"\u0410\u0444\u0493\u043e\u043d\u0438\u0441\u0442\u043e\u043d","name:ca":"Afganistan","name:te":"\u0c06\u0c2b\u0c4d\u0c18\u0c3e\u0c28\u0c3f\u0c38\u0c4d\u0c24\u0c3e\u0c28\u0c4d","name:vi":"Afghanistan","name:hu":"Afganiszt\u00e1n","name:ro":"Afganistan","name:cy":"Afghanistan","name:hr":"Afganistan","name:da":"Afghanistan","name:fr":"Afghanistan","name:de":"Afghanistan","name:dz":"\u0f68\u0f55\u0f0b\u0f42\u0fb7\u0f0b\u0f53\u0f72\u0f0b\u0f66\u0f4f\u0f71\u0f53","source":"openstreetmap.org","name:lv":"Afganist\u0101na","name:lt":"Afganistanas","name:uz":"Afg\u2019oniston","name:kk":"\u0410\u0443\u0493\u0430\u043d\u0441\u0442\u0430\u043d","name:he":"\u05d0\u05e4\u05d2\u05e0\u05d9\u05e1\u05d8\u05df","kind":"country","name:ha":"Afaganistan","name:la":"Afgania","name:lg":"Afaganisitani","name:uk":"\u0410\u0444\u0433\u0430\u043d\u0456\u0441\u0442\u0430\u043d","name:hy":"\u0531\u0586\u0572\u0561\u0576\u057d\u057f\u0561\u0576","min_zoom":2.0,"name:li":"Afganistan","name:ln":"Afiganisit\u00e1","name:lo":"\u0ead\u0eb1\u0e9a\u0e81\u0eb2\u0e99\u0eb4\u0eaa\u0eb0\u0e96\u0eb2\u0e99","population":32738376,"name:el":"\u0391\u03c6\u03b3\u03b1\u03bd\u03b9\u03c3\u03c4\u03ac\u03bd","name:eo":"Afganujo","name:en":"Afghanistan","name":"\u0627\u0641\u063a\u0627\u0646\u0633\u062a\u0627\u0646","name:is":"Afganistan","name:ee":"Afghanistan nutome","name:th":"\u0e1b\u0e23\u0e30\u0e40\u0e17\u0e28\u0e2d\u0e31\u0e1f\u0e01\u0e32\u0e19\u0e34\u0e2a\u0e16\u0e32\u0e19","name:eu":"Afganistan","name:et":"Afganistan","name:nl":"Afghanistan","name:es":"Afganist\u00e1n","name:ia":"Afghanistan","name:rm":"Afghanistan","name:rn":"Afuganisitani","name:az":"\u018ffqan\u0131stan","name:id":"Afganistan","name:ms":"Afghanistan","name:mr":"\u0905\u092b\u0917\u093e\u0923\u093f\u0938\u094d\u0924\u093e\u0928","name:as":"\u0986\u09ab\u0997\u09be\u09a8\u09bf\u09b8\u09cd\u09a4\u09be\u09a8","name:ar":"\u0623\u0641\u063a\u0627\u0646\u0633\u062a\u0627\u0646","name:my":"\u1021\u102c\u1016\u1002\u1014\u103a\u1014\u1005\u1039\u1005\u1010\u1014\u103a","name:io":"Afganistan","int_name":"Afghanistan","name:ak":"Afganistan","name:am":"\u12a0\u134d\u130b\u1292\u1235\u1273\u1295","name:it":"Afghanistan","name:an":"Afganist\u00e1n","name:ru":"\u0410\u0444\u0433\u0430\u043d\u0438\u0441\u0442\u0430\u043d","name:mn":"\u0410\u0444\u0433\u0430\u043d\u0438\u0441\u0442\u0430\u043d","name:pl":"Afganistan","name:mk":"\u0410\u0432\u0433\u0430\u043d\u0438\u0441\u0442\u0430\u043d","name:af":"Afghanistan","name:zu":"i-Afghanistan","name:nn":"Afghanistan","name:ff":"Afganistaan","name:fi":"Afganistan","name:hi":"\u0905\u092b\u093c\u0917\u093e\u0928\u093f\u0938\u094d\u0924\u093e\u0928","name:mg":"Afghanistan","id":26847706,"name:ba":"\u0410\u0444\u0493\u0430\u043d\u0441\u0442\u0430\u043d","name:fy":"Afganistan","name:vo":"Lafganist\u00e4n","name:zh":"\u963f\u5bcc\u6c57","name:gv":"Yn Afghanistaan","name:so":"Afgaanistaan","name:sn":"Afuganistani","name:sl":"Afganistan","name:sk":"Afganistan","name:ja":"\u30a2\u30d5\u30ac\u30cb\u30b9\u30bf\u30f3","name:si":"\u0d87\u0dc6\u0dca\u0d9c\u0db1\u0dd2\u0dc3\u0dca\u0dae\u0dcf\u0db1\u0dba","name:no":"Afghanistan","name:sg":"Fagan\u00efta, Afgan\u00efst\u00e4an","name:se":"Afghanistan","name:ne":"\u0905\u092b\u094d\u0917\u093e\u0928\u093f\u0937\u094d\u0924\u093e\u0928","name:br":"Afghanistan","name:bs":"Avganistan","name:bm":"Afiganista\u014b","name:bn":"\u0986\u09ab\u0997\u09be\u09a8\u09bf\u09b8\u09cd\u09a4\u09be\u09a8","name:bo":"\u0f68\u0f55\u0f0b\u0f42\u0f0b\u0f53\u0f72\u0f0b\u0f66\u0f9f\u0f71\u0f53\u0f0d","name:ml":"\u0d05\u0d2b\u0d4d\u0d17\u0d3e\u0d28\u0d3f\u0d38\u0d4d\u0d25\u0d3e\u0d7b","name:sw":"Afuganistani","name:be":"\u0410\u0444\u0433\u0430\u043d\u0456\u0441\u0442\u0430\u043d","name:bg":"\u0410\u0444\u0433\u0430\u043d\u0438\u0441\u0442\u0430\u043d","name:sr":"\u0410\u0432\u0433\u0430\u043d\u0438\u0441\u0442\u0430\u043d","name:sq":"Afganistan","name:ga":"An Afganast\u00e1in","name:gd":"Afganastan","name:gl":"Afganist\u00e1n","name:fo":"Afganistan","name:yo":"Or\u00edl\u1eb9\u0301\u00e8de \u00c0f\u00f9g\u00e0n\u00edst\u00e1n\u00ec","name:gu":"\u0a85\u0aab\u0a98\u0abe\u0aa8\u0abf\u0ab8\u0acd\u0aa4\u0abe\u0aa8"},"coordinates":[3866,2544]},{"type":"Point","properties":{"name:kg":"Azerbaidjan","name:ka":"\u10d0\u10d6\u10d4\u10e0\u10d1\u10d0\u10d8\u10ef\u10d0\u10dc\u10d8","name:ko":"\uc544\uc81c\ub974\ubc14\uc774\uc794","name:cv":"\u0410\u0437\u0435\u0440\u0431\u0430\u0439\u0434\u0436\u0430\u043d","name:cu":"\u0410\ua641\u0463\u0440\u0431\u0430\u0438\u0447\u0430\u043d\u044a","name:kl":"Aserbajdsjan","name:cs":"\u00c1zerb\u00e1jd\u017e\u00e1n","name:ki":"Azabajani","name:co":"Azerbaighjan","name:kv":"\u0410\u0437\u0435\u0440\u0431\u0430\u0439\u0434\u0436\u0430\u043d","name:ku":"Azerbaycan","name:ti":"\u12a0\u12d8\u122d\u1263\u1303\u1295","name:ks":"\u0622\u0632\u064e\u0631\u0628\u0627\u062c\u0627\u0646","name:to":"\u02bbAsapaisani","name:tl":"Aserbayan","name:ce":"\u0410\u0437\u0435\u0440\u0431\u0430\u0439\u0434\u0436\u0430\u043d","name:ta":"\u0b85\u0b9a\u0bb0\u0bcd\u0baa\u0bc8\u0b9c\u0bbe\u0ba9\u0bcd","name:tg":"\u041e\u0437\u0430\u0440\u0431\u043e\u0439\u04b7\u043e\u043d","name:ca":"Azerbaidjan","name:te":"\u0c05\u0c1c\u0c30\u0c4d\u0c2c\u0c48\u0c1c\u0c3e\u0c28\u0c4d","name:cy":"Azerbaijan","name:hr":"Azerbejd\u017ean","name:da":"Aserbajdsjan","name:de":"Aserbaidschan","name:dz":"\u0f68\u0f0b\u0f5b\u0f62\u0f0b\u0f56\u0fb7\u0f60\u0f72\u0f0b\u0f47\u0f71\u0f53","source":"openstreetmap.org","name:kn":"\u0c85\u0c9c\u0cb0\u0ccd\u0cac\u0cc8\u0c9c\u0cbe\u0ca8\u0ccd","name:dv":"\u0787\u07a6\u0792\u07a6\u0783\u07aa\u0784\u07a6\u0787\u07a8\u0796\u07a7\u0782\u07b0","name:km":"\u17a2\u17b6\u17a0\u17ca\u17d2\u179f\u17c2\u179a\u1794\u17c2\u17a0\u17d2\u179f\u1784\u17cb","name:lv":"Azerbaid\u017e\u0101na","name:lt":"Azerbaid\u017eanas","name:uz":"Ozarbayjon","name:kk":"\u04d8\u0437\u0456\u0440\u0431\u0430\u0439\u0436\u0430\u043d","name:ur":"\u0622\u0630\u0631\u0628\u0627\u0626\u062c\u0627\u0646","name:lb":"Aserbaidschan","name:la":"Adrabigania","name:lg":"Azerebayijaani","name:uk":"\u0410\u0437\u0435\u0440\u0431\u0430\u0439\u0434\u0436\u0430\u043d","name:ug":"\u0626\u06d5\u0632\u06d5\u0631\u0628\u06d5\u064a\u062c\u0627\u0646","name:li":"Azerbaidzjan","name:ln":"Az\u025bl\u025bbaiz\u00e1","name:lo":"\u0ead\u0eb2\u0ec0\u0e8a\u0eb5\u0ec4\u0e9a\u0e88\u0eb1\u0e99","name:el":"\u0391\u03b6\u03b5\u03c1\u03bc\u03c0\u03b1\u03ca\u03c4\u03b6\u03ac\u03bd","name:eo":"Azerbaj\u011dano","name:en":"Azerbaijan","name":"Az\u0259rbaycan","name:tk":"Azerba\u00fdjan","name:ee":"Azerbaijan nutome","name:th":"\u0e1b\u0e23\u0e30\u0e40\u0e17\u0e28\u0e2d\u0e32\u0e40\u0e0b\u0e2d\u0e23\u0e4c\u0e44\u0e1a\u0e08\u0e32\u0e19","name:eu":"Azerbaijan","name:et":"Aserbaid\u017eaan","name:es":"Azerbaiy\u00e1n","name:ia":"Azerbaidzhan","name:rm":"Aserbaidschan","name:rn":"Azerubayijani","name:ro":"Azerbaidjan","name:ie":"Azerbaidjan","name:id":"Azerbaijan","name:ar":"\u0623\u0630\u0631\u0628\u064a\u062c\u0627\u0646","name:io":"Azerbaijan","name:av":"\u0410\u0437\u0430\u0440\u0431\u0438\u0436\u0430\u043d","name:ak":"Azebaegyan","name:am":"\u12a0\u12d8\u122d\u1263\u1303\u1295","name:it":"Azerbaigian","name:an":"Azerbaich\u00e1n","name:ru":"\u0410\u0437\u0435\u0440\u0431\u0430\u0439\u0434\u0436\u0430\u043d","name:ab":"\u0410\u0437\u0435\u0440\u0431\u0430\u0438\u045f\u044c\u0430\u043d","name:af":"Azerbeidjan","name:zu":"i-Azerbaijan","name:za":"Ahsehbaiqgyangh","name:zh-yue":"\u963f\u585e\u62dc\u7586","name:zh":"\u963f\u585e\u62dc\u7586","name:so":"Azerbajaan","name:sn":"Azabajani","name:sm":"Azerbaijin","name:sl":"Azerbajd\u017ean","name:sk":"Azerbajd\u017ean","name:ja":"\u30a2\u30bc\u30eb\u30d0\u30a4\u30b8\u30e3\u30f3","name:si":"\u0d85\u0dc3\u0dbb\u0dca\u0db6\u0dba\u0dd2\u0da2\u0dcf\u0db1\u0dba","name:sh":"Azerbejd\u017ean","name:sg":"Zerebaidy\u00e4an, Azerbaidy\u00e4an,","name:se":"Aserbai\u017ean","name:sc":"Azerbaigi\u00e1n","name:br":"Azerbaidjan","name:bs":"Azerbejd\u017ean","name:bm":"Az\u025brbayja\u014b","name:bn":"\u0986\u099c\u09be\u09b0\u09ac\u09be\u0987\u099c\u09be\u09a8","name:bo":"\u0f68\u0f5b\u0f62\u0f0b\u0f56\u0f61\u0f7a\u0f0b\u0f47\u0f53\u0f0d","name:bi":"Azerbaijan","name:sw":"Azabajani","name:be":"\u0410\u0437\u0435\u0440\u0431\u0430\u0439\u0434\u0436\u0430\u043d","name:su":"Azerbaijan","name:bg":"\u0410\u0437\u0435\u0440\u0431\u0435\u0439\u0434\u0436\u0430\u043d","name:ss":"IZebajani","name:ba":"\u04d8\u0437\u0435\u0440\u0431\u0430\u0439\u0436\u0430\u043d","name:sq":"Azerbajxhan","name:jv":"Azerbaijan","name:sa":"\u0905\u091c\u0930\u094d\u092c\u0948\u091c\u093e\u0928","name:pt":"Azerbaij\u00e3o","name:ps":"\u0622\u0632\u0631\u0628\u0627\u064a\u062c\u0627\u0646","name:oc":"Azerbaitjan","min_zoom":2.0,"int_name":"Azerbaijan","name:zh-min-nan":"Azerbaijan","name:os":"\u0410\u0437\u0435\u0440\u0431\u0430\u0439\u0434\u0436\u0430\u043d","name:or":"\u0b06\u0b1c\u0b47\u0b30\u0b2c\u0b3e\u0b07\u0b1c\u0b3e\u0b28\u0b4d","name:pl":"Azerbejd\u017can","name:sr":"\u0410\u0437\u0435\u0440\u0431\u0435\u0458\u045f\u0430\u043d","name:pa":"\u0a05\u0a1c\u0a3c\u0a30\u0a2c\u0a3e\u0a08\u0a1c\u0a3e\u0a28","name:tr":"Azerbaycan","name:hi":"\u0905\u091c\u093c\u0930\u092c\u0948\u091c\u093e\u0928","name:sv":"Azerbajdzjan","name:he":"\u05d0\u05d6\u05e8\u05d1\u05d9\u05d9\u05d2'\u05df","name:ha":"Azarbaijan","name:hy":"\u0531\u0564\u0580\u0562\u0565\u057b\u0561\u0576","name:ht":"Azerbaydjan","name:hu":"Azerbajdzs\u00e1n","name:qu":"Asarsuyu","population":9105000,"kind":"country","name:is":"Aserba\u00eddsjan","name:yi":"\u05d0\u05d6\u05e2\u05e8\u05d1\u05d9\u05d9\u05d3\u05d6\u05e9\u05d0\u05df","name:yo":"Or\u00edl\u1eb9\u0301\u00e8de As\u1eb9\u0301b\u00e1j\u00e1n\u00ec","name:mt":"A\u017cerbaj\u0121an","name:ms":"Azerbaijan","name:mr":"\u0905\u091d\u0930\u092c\u0948\u091c\u093e\u0928","name:my":"\u1021\u1007\u102c\u1018\u102d\u102f\u1004\u103a\u1002\u103b\u1014\u103a","official_name":"Az\u0259rbaycan Respublikas\u0131","name:kw":"Azerbayjan","name:mg":"Azerbaidjan","name:ml":"\u0d05\u0d38\u0d7c\u0d2c\u0d48\u0d1c\u0d3e\u0d7b","name:vi":"Azerbaijan","name:mn":"\u0410\u0437\u0435\u0440\u0431\u0430\u0439\u0436\u0430\u043d","name:mi":"Atepaih\u0101nia","id":424313675,"name:mk":"\u0410\u0437\u0435\u0440\u0431\u0435\u0458\u045f\u0430\u043d","name:vo":"Las\u00e4rb\u00e4c\u00e4n","name:fa":"\u0622\u0630\u0631\u0628\u0627\u06cc\u062c\u0627\u0646","name:rw":"Azeribayijani","name:ff":"Ajerbayjaan","name:fi":"Azerbaid\u017ean","name:ky":"\u0410\u0437\u0435\u0440\u0431\u0430\u0439\u0436\u0430\u043d","name:fo":"Aserbajdsjan","name:fr":"Azerba\u00efdjan","name:fy":"Azerbeidzjan","name:nl":"Azerbeidzjan","name:nn":"Aserbajdsjan","name:no":"Aserbajdsjan","name:na":"Aderbaidjan","name:nb":"Aserbajdsjan","name:ne":"\u0905\u091c\u0930\u092c\u0948\u091c\u093e\u0928","name:ny":"Azerbaijan","name:wo":"Aserbayjaan","name:nv":"Az\u00e9\u00e9wii Bik\u00e9yah","name:ga":"An Asarbaise\u00e1in","name:gd":"Asarbaidean","name:gn":"Aservaij\u00e3","name:gl":"Acerbaix\u00e1n","name:gv":"Yn Asserbajaan","name:gu":"\u0a85\u0a9d\u0ab0\u0aac\u0ac8\u0a9c\u0abe\u0aa8","name:tt":"\u0410\u0437\u04d9\u0440\u0431\u0430\u0439\u0497\u0430\u043d"},"coordinates":[507,3970]},{"type":"Point","properties":{"name:ka":"\u10d7\u10e3\u10e0\u10e5\u10db\u10d4\u10dc\u10d4\u10d7\u10d8","name:ko":"\ud22c\ub974\ud06c\uba54\ub2c8\uc2a4\ud0c4","name:cv":"\u0422\u0443\u0440\u043a\u043c\u0435\u043d\u0438\u0441\u0442\u0430\u043d","name:km":"\u1791\u17bd\u1782\u1798\u17c1\u1793\u17b8\u179f\u17d2\u178f\u1784\u17cb","name:kl":"Turkmenistani","name:cs":"Turkmenist\u00e1n","name:ki":"Turukimenistani","name:co":"Turkmenistan","name:kv":"\u0422\u0443\u0440\u043a\u043c\u0435\u043d\u0438\u0441\u0442\u0430\u043d","name:ku":"Tirkmenistan","name:ti":"\u1271\u122d\u12ad\u121c\u1292\u1235\u1273\u1295","name:ks":"\u062a\u064f\u0631\u0645\u0650\u0646\u0650\u0633\u062a\u0627\u0646","name:to":"Tekimenisiteni","name:tl":"Turkmenistan","name:ta":"\u0ba4\u0bc1\u0bb0\u0bcd\u0b95\u0bcd\u0bae\u0bc6\u0ba9\u0bbf\u0bb8\u0bcd\u0ba4\u0bbe\u0ba9\u0bcd","name:tg":"\u0422\u0443\u0440\u043a\u043c\u0430\u043d\u0438\u0441\u0442\u043e\u043d","name:ca":"Turkmenistan","name:te":"\u0c24\u0c41\u0c30\u0c4d\u0c15\u0c2e\u0c46\u0c38\u0c4d\u0c24\u0c3e\u0c28\u0c4d","name:cy":"Tyrcmenistan","name:hr":"Turkmenistan","name:da":"Turkmenistan","name:de":"Turkmenistan","name:dz":"\u0f4a\u0f71\u0f62\u0f40\u0f0b\u0f58\u0f7a\u0f53\u0f60\u0f72\u0f0b\u0f66\u0f4f\u0f71\u0f53","source":"openstreetmap.org","name:kn":"\u0ca4\u0cc1\u0cb0\u0ccd\u0c95\u0cae\u0cc6\u0ca8\u0cbf\u0cb8\u0ccd\u0ca5\u0cbe\u0ca8\u0ccd","name:dv":"\u078c\u07aa\u0783\u07aa\u0786\u07aa\u0789\u07ac\u0782\u07a8\u0790\u07b0\u078c\u07a7\u0782\u07b0","name:lv":"Turkmenist\u0101na","name:lt":"Turkm\u0117nistanas","name:uz":"Turkmaniston","name:kk":"\u0422\u04af\u0440\u0456\u043a\u043c\u0435\u043d\u0441\u0442\u0430\u043d","name:ur":"\u062a\u0631\u06a9\u0645\u0627\u0646\u0633\u062a\u0627\u0646","name:la":"Turcomannia","name:lg":"Takimenesitaani","name:uk":"\u0422\u0443\u0440\u043a\u043c\u0435\u043d\u0456\u0441\u0442\u0430\u043d","name:ug":"\u062a\u06c8\u0631\u0643\u0645\u06d5\u0646\u0649\u0633\u062a\u0627\u0646","name:li":"Turkmenistan","name:ln":"Tik\u025bm\u00e9nisit\u00e1","name:lo":"\u0ec0\u0e95\u0ea3\u0eb5\u0e81\u0ec0\u0ea1\u0e99\u0eb4\u0eaa\u0eb0\u0e96\u0eb2\u0e99","name:el":"\u03a4\u03bf\u03c5\u03c1\u03ba\u03bc\u03b5\u03bd\u03b9\u03c3\u03c4\u03ac\u03bd","name:eo":"Turkmenujo","name:en":"Turkmenistan","name":"T\u00fcrkmenistan","name:ee":"T\u025bkmenistan nutome","name:th":"\u0e1b\u0e23\u0e30\u0e40\u0e17\u0e28\u0e40\u0e15\u0e34\u0e23\u0e4c\u0e01\u0e40\u0e21\u0e19\u0e34\u0e2a\u0e16\u0e32\u0e19","name:eu":"Turkmenistan","name:es":"Turkmenist\u00e1n","name:ia":"Turkmenistan","name:rm":"Turkmenistan","name:rn":"Turukumenisitani","name:az":"T\u00fcrkm\u0259nistan","name:ie":"Turkmenistan","name:id":"Turkmenistan","name:ar":"\u062a\u0631\u0643\u0645\u0627\u0646\u0633\u062a\u0627\u0646","name:io":"Turkmenistan","name:av":"\u0422\u0443\u0440\u043a\u043c\u0435\u043d\u0438\u0441\u0442\u0430\u043d","name:ak":"T\u025bkm\u025bnistan","name:am":"\u1271\u122d\u12ad\u121c\u1292\u1235\u1273\u1295","name:it":"Turkmenistan","name:an":"Turkmenist\u00e1n","name:ru":"\u0422\u0443\u0440\u043a\u043c\u0435\u043d\u0438\u044f","name:rw":"Turukimenisitani","name:pl":"Turkmenistan","name:af":"Turkmenistan","name:zu":"i-Turkmenistan","name:ky":"\u0422\u04af\u0440\u043a\u043c\u04e9\u043d\u0441\u0442\u0430\u043d","name:zh-yue":"\u571f\u5eab\u66fc","name:zh":"\u571f\u5e93\u66fc\u65af\u5766","name:so":"Turkmenistan","name:sn":"Turkmenistan","name:sl":"Turkmenistan","name:sk":"Turkm\u00e9nsko","name:ja":"\u30c8\u30eb\u30af\u30e1\u30cb\u30b9\u30bf\u30f3","name:si":"\u0dad\u0dd4\u0dbb\u0dca\u0d9a\u0dca\u0db8\u0dd9\u0db1\u0dd2\u0dc3\u0dca\u0dae\u0dcf\u0db1\u0dba","name:sh":"Turkmenistan","name:sg":"Turkumenist\u00e4an","name:se":"Turkmenistan","name:sa":"\u0924\u0941\u0930\u094d\u0915\u092e\u093f\u0928\u093f\u0938\u094d\u0925\u093e\u0928","name:bs":"Turkmenistan","name:bm":"Turikimenisitani","name:bn":"\u09a4\u09c1\u09b0\u09cd\u0995\u09ae\u09c7\u09a8\u09bf\u09af\u09bc\u09be","name:bo":"\u0f4f\u0f74\u0f62\u0f40\u0f0b\u0f58\u0f7a\u0f0b\u0f53\u0f72\u0f0b\u0f66\u0f74\u0f4f\u0f53\u0f0d","name:br":"Turkmenistan","name:sw":"Turukimenistani","name:be":"\u0422\u0443\u0440\u043a\u043c\u0435\u043d\u0456\u0441\u0442\u0430\u043d","name:su":"Turkm\u00e9nistan","name:bg":"\u0422\u0443\u0440\u043a\u043c\u0435\u043d\u0438\u0441\u0442\u0430\u043d","name:ss":"IThumekhi","name:ba":"\u0422\u04e9\u0440\u04e9\u043a\u043c\u04d9\u043d\u0441\u0442\u0430\u043d","name:sq":"Turkmenistani","name:jv":"Turkmenistan","name:pt":"Turcomenist\u00e3o","name:ps":"\u062a\u0631\u06a9\u0645\u0646\u0633\u062a\u0627\u0646","name:oc":"Turcmenistan","min_zoom":2.0,"name:ro":"Turkmenistan","name:zh-min-nan":"Turkmenistan","name:os":"\u0422\u0443\u0440\u043a\u043c\u0435\u043d\u0438","name:or":"\u0b24\u0b41\u0b30\u0b4d\u0b15\u0b2e\u0b47\u0b28\u0b3f\u0b38\u0b4d\u0b24\u0b3e\u0b28\u0b4d","alt_name:pt":"Turquemenist\u00e3o","name:sr":"\u0422\u0443\u0440\u043a\u043c\u0435\u043d\u0438\u0441\u0442\u0430\u043d","name:pa":"\u0a24\u0a41\u0a30\u0a15\u0a2e\u0a47\u0a28\u0a38\u0a24\u0a3e\u0a28","name:hi":"\u0924\u0941\u0930\u094d\u0915\u092e\u0947\u0928\u093f\u0938\u094d\u0924\u093e\u0928","name:sv":"Turkmenistan","name:he":"\u05d8\u05d5\u05e8\u05e7\u05de\u05e0\u05d9\u05e1\u05d8\u05df","name:ha":"Turkumenistan","name:hy":"\u0539\u0578\u0582\u0580\u0584\u0574\u0565\u0576\u057d\u057f\u0561\u0576","name:ht":"Tirkmenistan","name:hu":"T\u00fcrkmeniszt\u00e1n","name:qu":"Turkminsuyu","population":5110023,"kind":"country","name:is":"T\u00farkmenistan","name:yi":"\u05d8\u05d5\u05e8\u05e7\u05de\u05e2\u05e0\u05d9\u05e1\u05d8\u05d0\u05df","name:yo":"Or\u00edl\u1eb9\u0301\u00e8de T\u1ecd\u1ecdkimenisita","name:mt":"Turkmenistan","alt_name:eo":"Turkmenistano;Turkmenio","name:ms":"Turkmenistan","name:mr":"\u0924\u0941\u0930\u094d\u0915\u092e\u0947\u0928\u093f\u0938\u094d\u0924\u093e\u0928","name:my":"\u1010\u102c\u1037\u1001\u103a\u1019\u1004\u103a\u1014\u1005\u1039\u1005\u1010\u1014\u103a\u1014\u102d\u102f\u1004\u103a\u1004\u1036","name:kw":"Pow Turkmen","name:mg":"Torkmenistan","name:ml":"\u0d24\u0d41\u0d7c\u0d15\u0d4d\u0d15\u0d4d\u0d2e\u0d46\u0d28\u0d3f\u0d38\u0d4d\u0d25\u0d3e\u0d7b","name:vi":"Turkmenistan","name:mn":"\u0422\u0443\u0440\u043a\u043c\u0435\u043d\u0438\u0441\u0442\u0430\u043d","id":249399440,"name:mk":"\u0422\u0443\u0440\u043a\u043c\u0435\u043d\u0438\u0441\u0442\u0430\u043d","name:vo":"Turkmen\u00e4n","name:fa":"\u062a\u0631\u06a9\u0645\u0646\u0633\u062a\u0627\u0646","name:ff":"Turkmenistaan","name:fi":"Turkmenistan","name:fo":"Turkmenistan","name:fr":"Turkm\u00e9nistan","name:fy":"Turkmenistan","int_name":"Turkmenistan","name:nl":"Turkmenistan","name:nn":"Turkmenistan","name:no":"Turkmenistan","name:na":"Turkmenistan","name:ne":"\u0924\u0941\u0930\u094d\u0915\u092e\u0947\u0928\u093f\u0938\u094d\u0924\u093e\u0928","name:wo":"Turkumenistaan","name:nv":"T\u02bc\u00f3okmen Bik\u00e9yah","name:ga":"An Tuircm\u00e9anast\u00e1in","name:gd":"Turcmanast\u00e0n","name:gl":"Turkmenist\u00e1n","name:gv":"Yn Turkmenistaan","name:gu":"\u0aa4\u0ac1\u0ab0\u0acd\u0a95\u0acd\u0aae\u0aa8\u0abf\u0ab8\u0acd\u0aa4\u0abe\u0aa8","name:tt":"\u0422\u04e9\u0440\u0435\u043a\u043c\u04d9\u043d\u0441\u0442\u0430\u043d"},"coordinates":[2620,3751]},{"type":"Point","properties":{"name:ka":"\u10d0\u10e0\u10d0\u10d1\u10d4\u10d7\u10d8\u10e1 \u10d2\u10d0\u10d4\u10e0\u10d7\u10d8\u10d0\u10dc\u10d4\u10d1\u10e3\u10da\u10d8 \u10d4\u10db\u10d8\u10e0\u10d0\u10e2\u10d4\u10d1\u10d8","name:ko":"\uc544\ub78d\uc5d0\ubbf8\ub9ac\ud2b8 \uc5f0\ud569","name:kn":"\u0cb8\u0c82\u0caf\u0cc1\u0c95\u0ccd\u0ca4 \u0c85\u0cb0\u0cac\u0ccd \u0c8e\u0cae\u0cbf\u0cb0\u0cc7\u0c9f\u0cb8\u0ccd","name:km":"\u17a2\u17c1\u1798\u17b8\u179a\u17c9\u17c2\u1791\u17a2\u17b6\u179a\u17c9\u17b6\u1794\u17cb\u179a\u17bd\u1798","name:kl":"United Arab Emirates","name:cs":"Spojen\u00e9 arabsk\u00e9 emir\u00e1ty","name:ki":"Falme za Kiarabu","name:kw":"Pennternasedh Unys Arabek","name:kv":"\u04e6\u0442\u0443\u0432\u0442\u0447\u04e7\u043c \u0410\u0440\u0430\u0431 \u042d\u043c\u0438\u0440\u0430\u0442\u044a\u044f\u0441","name:ku":"M\u00eerni\u015f\u00een\u00ean Ereb\u00ee y\u00ean Yekb\u00fby\u00ee","name:ti":"\u12e8\u1270\u1263\u1260\u1229\u1275 \u12a0\u1228\u1265 \u12a4\u121d\u122c\u1275\u1235","name:ks":"\u0645\u064f\u062a\u062d\u062f\u06c1 \u0639\u0631\u064e\u0628 \u0627\u0645\u0627\u0631\u0627\u062a","name:to":"\u02bbAlepea Fakatahataha","name:tl":"United Arab Emirates","name:ce":"\u04c0\u0430\u0440\u0431\u0438\u0439\u043d \u0426\u0445\u044c\u0430\u044c\u043d\u0430\u043a\u0445\u0435\u0442\u0442\u0430 \u042d\u043c\u0438\u0440\u0430\u0442\u0430\u0448","name:ta":"\u0b90\u0b95\u0bcd\u0b95\u0bbf\u0baf \u0b85\u0bb0\u0baa\u0bc1 \u0b95\u0bc2\u0b9f\u0bcd\u0b9f\u0bbe\u0b9f\u0bcd\u0b9a\u0bbf","name:tg":"\u0410\u043c\u043e\u0440\u0430\u0442\u0438 \u041c\u0443\u0442\u0442\u0430\u04b3\u0438\u0434\u0430\u0438 \u0410\u0440\u0430\u0431","name:ca":"Emirats \u00c0rabs Units","name:te":"\u0c2f\u0c41\u0c28\u0c48\u0c1f\u0c46\u0c21\u0c4d \u0c06\u0c30\u0c2c\u0c4d \u0c0e\u0c2e\u0c3f\u0c30\u0c47\u0c1f\u0c4d\u0c38\u0c4d","name:cy":"Yr Emiradau Arabaidd Unedig","name:hr":"Ujedinjeni Arapski Emirati","name:da":"Forenede Arabiske Emirater","name:de":"Vereinigte Arabische Emirate","name:dz":"\u0f61\u0f74\u0f0b\u0f53\u0f71\u0f60\u0f72\u0f0b\u0f4a\u0f7a\u0f4c\u0f0b \u0f68\u0f0b\u0f62\u0f56\u0f0b \u0f68\u0f7a\u0f0b\u0f58\u0f7a\u0f0b\u0f62\u0f7a\u0f4a\u0f66","source":"openstreetmap.org","name:dv":"\u0787\u07ac\u0786\u07aa\u0788\u07ac\u0783\u07a8 \u07a2\u07a6\u0783\u07a6\u0784\u07a8 \u0787\u07a8\u0789\u07a7\u0783\u07a7\u078c\u07aa","name:lv":"Apvienotie Ar\u0101bu Emir\u0101ti","name:lt":"Jungtiniai Arab\u0173 Emyratai","name:uz":"Birlashgan Arab Amirliklari","name:kk":"\u0411\u0456\u0440\u0456\u043a\u043a\u0435\u043d \u0410\u0440\u0430\u0431 \u04d8\u043c\u0456\u0440\u043b\u0456\u043a\u0442\u0435\u0440\u0456","name:ur":"\u0645\u062a\u062d\u062f\u06c1 \u0639\u0631\u0628 \u0627\u0645\u0627\u0631\u0627\u062a","name:lb":"Vereenegt Arabesch Emirater","name:la":"Phylarchiarum Arabicarum Confoederatio","name:lg":"Emireeti","name:uk":"\u041e\u0431\u2019\u0454\u0434\u043d\u0430\u043d\u0456 \u0410\u0440\u0430\u0431\u0441\u044c\u043a\u0456 \u0415\u043c\u0456\u0440\u0430\u0442\u0438","name:ug":"\u0626\u06d5\u0631\u06d5\u0628 \u0628\u0649\u0631\u0644\u06d5\u0634\u0645\u06d5 \u062e\u06d5\u0644\u0649\u067e\u0649\u0644\u0649\u0643\u0649","name:li":"Vereinegde Arabische Emirate","name:ln":"L\u025bmila alabo","name:lo":"\u0eaa\u0eb0\u0eab\u0eb0\u0ea5\u0eb1\u0e94\u0ead\u0eb2\u0eab\u0ea5\u0eb1\u0e9a\u0ec0\u0ead\u0ea1\u0eb4\u0ec0\u0ea5\u0e94","name:el":"\u0397\u03bd\u03c9\u03bc\u03ad\u03bd\u03b1 \u0391\u03c1\u03b1\u03b2\u03b9\u03ba\u03ac \u0395\u03bc\u03b9\u03c1\u03ac\u03c4\u03b1","name:eo":"Unui\u011dintaj Arabaj Emirlandoj","name:en":"United Arab Emirates","name":"\u0627\u0644\u0625\u0645\u0627\u0631\u0627\u062a \u0627\u0644\u0639\u0631\u0628\u064a\u0629 \u0627\u0644\u0645\u062a\u062d\u062f\u0629","name:tk":"Birle\u015fen Arap Emirlikleri","name:ee":"United Arab Emirates nutome","name:th":"\u0e2a\u0e2b\u0e23\u0e31\u0e10\u0e2d\u0e32\u0e2b\u0e23\u0e31\u0e1a\u0e40\u0e2d\u0e21\u0e34\u0e40\u0e23\u0e15\u0e2a\u0e4c","name:eu":"Arabiar Emirrerri Batuak","name:et":"Araabia \u00dchendemiraadid","name:es":"Emiratos \u00c1rabes Unidos","name:ia":"Emiratos Arabe Unite","name:rm":"Emirats Arabs Unids","name:rn":"Leta Zunze Ubumwe z'Abarabu","name:az":"Birl\u0259\u015fmi\u015f \u018fr\u0259b Emiratlar\u0131","name:ie":"Unit Arabic Emiratus","name:id":"Uni Emirat Arab","name:pa":"\u0a38\u0a70\u0a2f\u0a41\u0a15\u0a24 \u0a05\u0a30\u0a2c \u0a07\u0a2e\u0a30\u0a3e\u0a24","name:io":"Unionita Araba Emirati","name:av":"\u0413I\u0430\u0440\u0430\u0431\u0430\u0437\u0443\u043b \u0426\u043e\u043b\u044a\u0430\u0440\u0430\u043b \u0418\u043c\u0430\u0440\u0430\u0442\u0430\u043b","name:ak":"United Arab Emirates","name:am":"\u12e8\u1270\u1263\u1260\u1229\u1275 \u12a0\u1228\u1265 \u12a4\u121d\u122c\u1275\u1235","name:it":"Emirati Arabi Uniti","name:an":"Emiratos Arabes Unitos","name:ru":"\u041e\u0431\u044a\u0435\u0434\u0438\u043d\u0451\u043d\u043d\u044b\u0435 \u0410\u0440\u0430\u0431\u0441\u043a\u0438\u0435 \u042d\u043c\u0438\u0440\u0430\u0442\u044b","name:rw":"Nyarabu Zunze Ubumwe","name:af":"Verenigde Arabiese Emirate","name:zu":"i-United Arab Emirates","name:ky":"\u0411\u0438\u0440\u0438\u043a\u043a\u0435\u043d \u0410\u0440\u0430\u0431 \u042d\u043c\u0438\u0440\u043b\u0438\u043a\u0442\u0435\u0440\u0438","name:zh-yue":"\u963f\u62c9\u4f2f\u806f\u5408\u914b\u9577\u570b","name:zh":"\u963f\u62c9\u4f2f\u8054\u5408\u914b\u957f\u56fd","name:so":"Imaaraadka Carabta ee Midoobay","name:sn":"United Arab Emirates","name:sl":"Zdru\u017eeni arabski emirati","name:sk":"Spojen\u00e9 arabsk\u00e9 emir\u00e1ty","name:ja":"\u30a2\u30e9\u30d6\u9996\u9577\u56fd\u9023\u90a6","name:si":"\u0d91\u0d9a\u0dca\u0dc3\u0dad\u0dca \u0d85\u0dbb\u0dcf\u0db6\u0dd2 \u0d91\u0db8\u0dd2\u0dbb\u0dca \u0dbb\u0dcf\u0da2\u0dca\u200d\u0dba\u0dba","name:sh":"Ujedinjeni Arapski Emirati","name:sg":"Ar\u00e2bo Emir\u00e2ti \u00d4ko","name:se":"Ovttastuvvan Ar\u00e1baemir\u00e1htat","name:sd":"\u06af\u068f\u064a\u0644 \u0639\u0631\u0628 \u0627\u0645\u0627\u0631\u0627\u062a","name:br":"Emirelezhio\u00f9 Arab Unanet","name:bs":"Ujedinjeni Arapski Emirati","name:bm":"Arabu mara kafoli","name:bn":"\u09b8\u0982\u09af\u09c1\u0995\u09cd\u09a4 \u0986\u09b0\u09ac \u0986\u09ae\u09bf\u09b0\u09be\u09a4","name:bo":"\u0f68\u0f0b\u0f62\u0f56\u0f0d \u0f68\u0f72\u0f0b\u0f58\u0f72\u0f0b\u0f62\u0f4a\u0f84\u0f0d \u0f46\u0f72\u0f42\u0f0b\u0f66\u0f92\u0fb2\u0f72\u0f63\u0f0b\u0f62\u0f92\u0fb1\u0f63\u0f0b\u0f41\u0f56\u0f0d","name:sw":"Falme za Kiarabu","name:be":"\u0410\u0431'\u044f\u0434\u043d\u0430\u043d\u044b\u044f \u0410\u0440\u0430\u0431\u0441\u043a\u0456\u044f \u042d\u043c\u0456\u0440\u0430\u0442\u044b","name:su":"Uni \u00c9mirat Arab","name:bg":"\u041e\u0431\u0435\u0434\u0438\u043d\u0435\u043d\u0438 \u0410\u0440\u0430\u0431\u0441\u043a\u0438 \u0415\u043c\u0438\u0440\u0441\u0442\u0432\u0430","name:ss":"Bunye bema-Arabhu","name:sr":"\u0423\u0458\u0435\u0434\u0438\u045a\u0435\u043d\u0438 \u0410\u0440\u0430\u043f\u0441\u043a\u0438 \u0415\u043c\u0438\u0440\u0430\u0442\u0438","name:sq":"Emiratet Arabe te Bashkuara","alt_name:sr":"\u0423.\u0410.\u0415; \u0423\u0410\u0415; \u0423. \u0410. \u0415.","name:jv":"Uni Emirat Arab","name:pt":"Emirados \u00c1rabes Unidos","name:ps":"\u0639\u0631\u0628\u064a \u0645\u062a\u062d\u062f\u0647 \u0627\u0645\u0627\u0631\u0627\u062a","name:oc":"Emirats Arabis Units","min_zoom":2.0,"name:ro":"Emiratele Arabe Unite","name:zh-min-nan":"A-la-pek Li\u00e2n-ha\u030dp Th\u00e2u-l\u00e2ng-kok","name:os":"\u0410\u0440\u0430\u0431\u0431\u044b \u0418\u0443\u0433\u043e\u043d\u0434 \u042d\u043c\u0438\u0440\u0430\u0442\u0442\u00e6","name:or":"\u0b38\u0b02\u0b2f\u0b41\u0b15\u0b4d\u0b24 \u0b06\u0b30\u0b2c \u0b0f\u0b2e\u0b3f\u0b30\u0b47\u0b1f\u0b38\u0b4d","name:pl":"Zjednoczone Emiraty Arabskie","name:tr":"Birle\u015fik Arap Emirlikleri","name:hi":"\u0938\u0902\u092f\u0941\u0915\u094d\u0924 \u0905\u0930\u092c \u0905\u092e\u0940\u0930\u093e\u0924","name:sv":"F\u00f6renade Arabemiraten","name:he":"\u05d0\u05d9\u05d7\u05d5\u05d3 \u05d4\u05d0\u05de\u05d9\u05e8\u05d5\u05d9\u05d5\u05ea \u05d4\u05e2\u05e8\u05d1\u05d9\u05d5\u05ea","name:ha":"Ha\u0257a\u0257\u0257iyar Daular Larabawa","name:hy":"\u0544\u056b\u0561\u0581\u0575\u0561\u056c \u0531\u0580\u0561\u0562\u0561\u056f\u0561\u0576 \u0537\u0574\u056b\u0580\u0561\u0569\u0576\u0565\u0580","name:ht":"Emira Arab Ini","name:hu":"Egyes\u00fclt Arab Em\u00edrs\u00e9gek","name:qu":"Hukllachasqa Arab Imiratukuna","population":4600000,"kind":"country","name:is":"Sameinu\u00f0u arab\u00edsku furstad\u00e6min","name:yi":"\u05e4\u05d0\u05e8\u05d0\u05d9\u05d9\u05e0\u05d9\u05d2\u05d8\u05e2 \u05d0\u05e8\u05d0\u05d1\u05d9\u05e9\u05e2 \u05e2\u05de\u05d9\u05e8\u05d0\u05d8\u05df","name:yo":"Or\u00edl\u1eb9\u0301\u00e8de \u1eb8mirate ti Aw\u1ecdn Arabu","name:mt":"Emirati G\u0127arab Maqg\u0127uda","name:ms":"Emiriah Arab Bersatu","name:mr":"\u0938\u0902\u092f\u0941\u0915\u094d\u0924 \u0905\u0930\u092c \u0905\u092e\u0940\u0930\u093e\u0924","name:my":"\u101a\u1030\u1021\u1031\u1021\u102e\u1038","int_name":"United Arab Emirates","name:mg":"Emir\u00e0 Arabo mitambatra","name:ml":"\u0d38\u0d02\u0d2f\u0d41\u0d15\u0d4d\u0d24 \u0d05\u0d31\u0d2c\u0d4d \u0d30\u0d3e\u0d37\u0d4d\u0d1f\u0d4d\u0d30\u0d02","name:vi":"C\u00e1c Ti\u1ec3u v\u01b0\u01a1ng qu\u1ed1c \u1ea2 R\u1eadp Th\u1ed1ng nh\u1ea5t","name:mn":"\u0410\u0440\u0430\u0431\u044b\u043d \u041d\u044d\u0433\u0434\u0441\u044d\u043d \u042d\u043c\u0438\u0440\u0442 \u0423\u043b\u0441","name:mi":"Te Kotahitanga o ng\u0101 Whenua \u0100rapi","id":424310703,"name:mk":"\u041e\u0431\u0435\u0434\u0438\u043d\u0435\u0442\u0438 \u0410\u0440\u0430\u043f\u0441\u043a\u0438 \u0415\u043c\u0438\u0440\u0430\u0442\u0438","name:vo":"Lemir\u00e4ns Larabik Pebal\u00f6l","name:fa":"\u0627\u0645\u0627\u0631\u0627\u062a \u0645\u062a\u062d\u062f\u0647 \u0639\u0631\u0628\u06cc","name:ff":"Emiraat Araab Denntu\u0257e","name:fi":"Yhdistyneet arabiemiirikunnat","name:fo":"Sameindu Emirr\u00edkini","name:fr":"\u00c9mirats arabes unis","name:fy":"de Feriene Arabyske Emiraten","name:nl":"Verenigde Arabische Emiraten","name:nn":"Dei sameinte arabiske emirata","name:no":"De forente arabiske emirater","name:na":"Emireitit Arabiya","name:ne":"\u0938\u0902\u092f\u0941\u0915\u094d\u0924 \u0905\u0930\u092c \u0907\u092e\u093f\u0930\u093e\u091f\u094d\u0938","name:wo":"Imaaraat yu Araab yu Bennoo yi","name:nv":"\u00c1s\u00e1\u00ed Bik\u00e9yah Y\u00e1zh\u00ed A\u0142hidadiidzoo\u00edg\u00ed\u00ed","name:ga":"Aontas na n\u00c9im\u00edr\u00edochta\u00ed Arabacha","name:gd":"Na h-Iomaratan Arabach Aonaichte","name:gn":"Aravia Emiryvy Joaju","name:gl":"Emiratos \u00c1rabes Unidos","name:gv":"Ny h-Emmiraidyn Arabagh Unnaneysit","name:gu":"\u0aaf\u0ac1\u0aa8\u0abe\u0a87\u0a9f\u0ac7\u0aa1 \u0a85\u0ab0\u0aac \u0a8f\u0aae\u0abf\u0ab0\u0ac7\u0a9f\u0acd\u0ab8","name:tt":"\u0411\u0435\u0440\u043b\u04d9\u0448\u043a\u04d9\u043d \u0413\u0430\u0440\u04d9\u043f \u04d8\u043c\u0438\u0440\u043b\u0435\u043a\u043b\u04d9\u0440\u0435"},"coordinates":[1638,443]},{"type":"Point","properties":{"source":"naturalearthdata.com","kind":"locality","name":"Riyadh","country_capital":true,"population":4465000,"min_zoom":2.0,"id":7268},"coordinates":[322,581]},{"type":"Point","properties":{"name:ka":"\u10e5\u10e3\u10d5\u10d4\u10d8\u10d7\u10d8","name:ko":"\ucfe0\uc6e8\uc774\ud2b8","name:cv":"\u041a\u0443\u0432\u0435\u0439\u0442","name:km":"\u1782\u17bb\u1799\u179c\u17c9\u17c2\u178f","name:kl":"Kuwait","name:cs":"Kuvajt","name:ki":"Kuwaiti","name:kw":"Kuwait","name:kv":"\u041a\u0443\u0432\u0435\u0439\u0442","name:ku":"Kuweyt","name:ti":"\u12ad\u12cc\u1275","name:ks":"\u06a9\u064f\u0648\u06cc\u062a","name:to":"Kueiti","name:tl":"Kuwait","name:ce":"\u041a\u0443\u0432\u0435\u0439\u0442","name:ta":"\u0b95\u0bc1\u0bb5\u0bc8\u0ba4\u0bcd","name:tg":"\u041a\u0443\u0432\u0430\u0439\u0442","name:ca":"Kuwait","name:te":"\u0c15\u0c41\u0c35\u0c48\u0c1f\u0c4d","name:cy":"Kuwait","name:hr":"Kuvajt","name:da":"Kuwait","name:de":"Kuwait","name:dz":"\u0f40\u0f74\u0f0b\u0f5d\u0f7a\u0f4a\u0f0b","source":"openstreetmap.org","name:kn":"\u0c95\u0cc1\u0cb5\u0cc8\u0ca4\u0ccd","name:dv":"\u0786\u07aa\u0788\u07ac\u0787\u07a8\u078c\u07aa","name:lv":"Kuveita","name:lt":"Kuveitas","name:uz":"Quvayt","name:kk":"\u041a\u0443\u0432\u0435\u0439\u0442","name:ur":"\u06a9\u0648\u06cc\u062a","name:lb":"Kuwait","name:la":"Cuvaitum","name:lg":"Kuweti","name:uk":"\u041a\u0443\u0432\u0435\u0439\u0442","name:ug":"\u0643\u06c7\u06cb\u06d5\u064a\u062a","name:li":"Koeweit","name:ln":"Koweti","name:lo":"\u0e84\u0eb9\u0ec0\u0ea7\u0e94","name:el":"\u039a\u03bf\u03c5\u03b2\u03ad\u03b9\u03c4","name:eo":"Kuvajto","name:en":"Kuwait","name":"\u0627\u0644\u0643\u0648\u064a\u062a","name:tk":"Kuwe\u00fdt","name:ee":"Kuwait nutome","name:th":"\u0e1b\u0e23\u0e30\u0e40\u0e17\u0e28\u0e04\u0e39\u0e40\u0e27\u0e15","name:eu":"Kuwait","name:et":"Kuveit","name:es":"Kuwait","name:ia":"Kuwait","name:rm":"Kuwait","name:rn":"Koweti","name:az":"K\u00fcveyt","name:ie":"Kuwait","name:id":"Kuwait","name:io":"Kuwait","name:ak":"Kuwete","name:am":"\u12ad\u12cc\u1275","name:it":"Kuwait","name:an":"Kuwait","name:ru":"\u041a\u0443\u0432\u0435\u0439\u0442","name:rw":"Koweti","name:af":"Koeweit","name:zu":"i-Kuwait","name:zh-yue":"\u79d1\u5a01\u7279","name:zh":"\u79d1\u5a01\u7279","name:so":"Kuwayt","name:sn":"Kuwait","name:sl":"Kuvajt","name:sk":"Kuvajt","name:ja":"\u30af\u30a6\u30a7\u30fc\u30c8","name:si":"\u0d9a\u0dd4\u0dc0\u0dda\u0da7\u0dba","name:sh":"Kuvajt","name:sg":"K\u00f6w\u00eati","name:se":"Kuwait","name:sa":"\u0915\u0941\u0935\u0948\u0924","name:bs":"Kuvajt","name:bm":"Kow\u025bti","name:bn":"\u0995\u09c1\u09af\u09bc\u09c7\u09a4","name:bo":"\u0f40\u0f74\u0f0b\u0f5d\u0f7a\u0f51\u0f0b\u0f62\u0f92\u0fb1\u0f63\u0f0b\u0f41\u0f56\u0f0d","name:br":"Koweit","name:sw":"Kuwait","name:be":"\u041a\u0443\u0432\u0435\u0439\u0442","name:su":"Kuwait","name:bg":"\u041a\u0443\u0432\u0435\u0439\u0442","name:ss":"IKhuwathi","name:ba":"\u041a\u04af\u0432\u0435\u0439\u0442","name:sq":"Kuvajti","name:jv":"Kuwait","name:pt":"Kuwait","name:ps":"\u06a9\u0648\u06cc\u067c","name:oc":"Kowait","min_zoom":2.0,"name:ro":"Kuweit","name:zh-min-nan":"Kuwait","name:os":"\u041a\u0443\u0432\u0435\u0439\u0442","name:or":"\u0b15\u0b41\u0b0f\u0b24\u0b4d","name:pl":"Kuwejt","name:sr":"\u041a\u0443\u0432\u0430\u0458\u0442","name:tr":"Kuveyt","name:hi":"\u0915\u0941\u0935\u0948\u0924","name:sv":"Kuwait","name:he":"\u05db\u05d5\u05d5\u05d9\u05ea","name:ha":"Kwiyat","name:hy":"\u0554\u0578\u0582\u057e\u0565\u0575\u0569","name:ht":"Kowet","name:hu":"Kuvait","name:qu":"Kuwait","population":3399637,"kind":"country","name:is":"K\u00faveit","name:yi":"\u05e7\u05d5\u05d0\u05d5\u05d5\u05d9\u05d9\u05d8","name:yo":"Or\u00edl\u1eb9\u0301\u00e8de Kuweti","name:mt":"Kuwajt","name:ms":"Kuwait","name:mr":"\u0915\u0941\u0935\u0948\u0924","name:my":"\u1000\u1030\u101d\u102d\u1010\u103a","official_name":"\u062f\u0648\u0644\u0629 \u0627\u0644\u0643\u0648\u064a\u062a","int_name":"Kuwait","name:mg":"K\u00f4eity","name:ml":"\u0d15\u0d41\u0d35\u0d48\u0d31\u0d4d\u0d31\u0d4d\u200c","name:vi":"Kuwait","name:mn":"\u041a\u0443\u0432\u0435\u0439\u0442","id":424313936,"name:mk":"\u041a\u0443\u0432\u0430\u0458\u0442","name:vo":"Kov\u00e4t\u00e4n","name:fa":"\u06a9\u0648\u06cc\u062a","name:ff":"Kuweyti","name:fi":"Kuwait","name:fo":"Kuveit","name:fr":"Kowe\u00eft","name:fy":"Koeweit","name:nl":"Koeweit","name:nn":"Kuwait","name:no":"Kuwait","name:na":"Kuwait","name:ne":"\u0915\u0941\u0935\u0947\u0924","name:wo":"Kowet","name:nv":"K\u00f3\u00f3wei\u02bc","name:ga":"Cu\u00e1it","name:gd":"Cubhait","name:gl":"Kuwait","name:gv":"Yn Choowait","name:gu":"\u0a95\u0ac1\u0ab5\u0ac8\u0aa4","name:tt":"\u041a\u04af\u0432\u04d9\u0439\u0442"},"coordinates":[455,1577]},{"type":"Point","properties":{"name:ka":"\u10d9\u10d0\u10e2\u10d0\u10e0\u10d8","name:ko":"\uce74\ud0c0\ub974","name:cv":"\u041a\u0430\u0442\u0430\u0440","name:km":"\u1780\u17b6\u178f\u17b6\u179a","name:kl":"Quatar","name:cs":"Katar","name:ki":"Katari","name:kw":"Katar","name:kv":"\u041a\u0430\u0442\u0430\u0440","name:ku":"Qeter","name:ti":"\u12b3\u1273\u122d","name:ks":"\u0642\u064e\u0637\u0650\u0631","name:to":"Kat\u0101","name:tl":"Katar","name:ce":"\u041a\u0430\u0442\u0430\u0440","name:ta":"\u0b95\u0ba4\u0bbe\u0bb0\u0bcd","name:tg":"\u049a\u0430\u0442\u0430\u0440","name:ca":"Qatar","name:te":"\u0c15\u0c24\u0c30\u0c4d","name:cy":"Qatar","name:hr":"Katar","name:da":"Qatar","name:de":"Katar","name:dz":"\u0f40\u0f0b\u0f4a\u0f62","source":"openstreetmap.org","name:kn":"\u0c95\u0ca4\u0cbe\u0cb0\u0ccd","name:dv":"\u07a4\u07a6\u07a0\u07a6\u0783\u07aa","name:lv":"Katara","name:lt":"Kataras","name:uz":"Qatar","name:kk":"\u041a\u0430\u0442\u0430\u0440","name:lb":"Katar","name:la":"Quataria","name:lg":"Kataa","name:uk":"\u041a\u0430\u0442\u0430\u0440","name:ug":"\u0642\u0627\u062a\u0627\u0631","name:li":"Katar","name:ln":"Katari","name:lo":"\u0e81\u0eb2\u0e95\u0eb2","name:el":"\u039a\u03b1\u03c4\u03ac\u03c1","name:eo":"Kataro","name:en":"Qatar","name":"\u0642\u0637\u0631","name:tk":"Katar","name:ee":"Katar nutome","name:th":"\u0e1b\u0e23\u0e30\u0e40\u0e17\u0e28\u0e01\u0e32\u0e15\u0e32\u0e23\u0e4c","name:eu":"Katar","name:et":"Katar","name:es":"Catar","name:ia":"Qatar","name:rm":"Katar","name:rn":"Katari","name:az":"Qatar","name:ie":"Katar","name:id":"Qatar","name:as":"\u0995\u09be\u099f\u09be\u09f0","name:io":"Katar","name:ak":"Kata","name:am":"\u12b3\u1273\u122d","name:it":"Qatar","name:an":"Qatar","name:ru":"\u041a\u0430\u0442\u0430\u0440","name:rw":"Katari","name:af":"Katar","name:zu":"i-Qatar","name:zh":"\u5361\u5854\u5c14","name:so":"Qadar","name:sn":"Qatar","name:sl":"Katar","name:sk":"Katar","name:ja":"\u30ab\u30bf\u30fc\u30eb","name:si":"\u0d9a\u0da7\u0dcf\u0dbb\u0dca\u0dba","name:sg":"Kat\u00e4ra","name:se":"Qatar","name:sa":"\u0915\u0924\u093e\u0930","name:bs":"Katar","name:bm":"Katari","name:bn":"\u0995\u09be\u09a4\u09be\u09b0","name:bo":"\u0f40\u0f0b\u0f4f\u0f71\u0f62\u0f0d","name:br":"Katar","name:sw":"Katari","name:be":"\u041a\u0430\u0442\u0430\u0440","name:su":"Qatar","name:bg":"\u041a\u0430\u0442\u0430\u0440","name:ss":"IKhathari","name:sr":"\u041a\u0430\u0442\u0430\u0440","name:sq":"Katar","name:jv":"Qatar","name:pt":"Qatar","name:oc":"Qatar","min_zoom":2.0,"name:ro":"Qatar","name:pa":"\u0a15\u0a24\u0a30","name:os":"\u041a\u0430\u0442\u0430\u0440","name:or":"\u0b15\u0b24\u0b3e\u0b30\u0b4d","name:pl":"Katar","name:tr":"Katar","name:hi":"\u0915\u093c\u0924\u0930","name:sv":"Qatar","name:he":"\u05e7\u05d8\u05e8","name:ha":"Kwatar","name:hy":"\u053f\u0561\u057f\u0561\u0580","name:ht":"Katar","name:hu":"Katar","name:qu":"Qatar","population":1699435,"kind":"country","name:is":"Katar","name:yi":"\u05e7\u05d0\u05d8\u05d0\u05e8","name:yo":"Or\u00edl\u1eb9\u0301\u00e8de Kota","name:mt":"Qatar","name:ms":"Qatar","name:mr":"\u0915\u0924\u093e\u0930","name:my":"\u1000\u102c\u1010\u102c","official_name":"\u062f\u0648\u0644\u0629 \u0642\u0637\u0631","int_name":"Qatar","name:mg":"Katar","name:ml":"\u0d16\u0d24\u0d4d\u0d24\u0d7c","name:vi":"Qatar","name:mn":"\u041a\u0430\u0442\u0430\u0440","id":432425062,"name:mk":"\u041a\u0430\u0442\u0430\u0440","name:vo":"Katar\u00e4n","name:ff":"Kataar","name:fi":"Qatar","name:fo":"Katar","name:fr":"Qatar","name:fy":"Katar","name:nl":"Qatar","name:nn":"Qatar","name:no":"Qatar","name:na":"Qatar","name:ne":"\u0915\u0924\u093e\u0930","name:wo":"Kataar","name:nv":"K\u02bcat\u00e1r","name:ga":"Catar","name:gd":"Catar","name:gl":"Qatar","name:gv":"Yn Chatar","name:gu":"\u0a95\u0aa4\u0abe\u0ab0","name:tt":"\u041a\u0430\u0442\u0430\u0440"},"coordinates":[1134,730]},{"type":"Point","properties":{"name:pt":"Bahrein","name:cy":"Bahrain","name:mt":"Ba\u0127rajn","name:ko":"\ubc14\ub808\uc778","name:kn":"\u0cac\u0cb9\u0cb0\u0cc8\u0ca8\u0ccd","name:km":"\u1794\u17b6\u179a\u17c9\u17c2\u1793","name:kl":"Bahrain","name:cs":"Bahrajn","name:ki":"Bahareni","name:tr":"Bahreyn","name:ku":"Behreyn","name:ti":"\u1263\u1205\u122c\u1295","name:ks":"\u0628\u062d\u0631\u06cc\u0656\u0646","name:to":"Paleini","name:sv":"Bahrain","name:or":"\u0b2c\u0b3e\u0b39\u0b3e\u0b30\u0b3f\u0b28\u0b4d","name:pl":"Bahrajn","name:ta":"\u0baa\u0bb9\u0bcd\u0bb0\u0bc8\u0ba9\u0bcd","name:ca":"Bahrain","name:te":"\u0c2c\u0c39\u0c30\u0c47\u0c28\u0c4d","name:hu":"Bahrein","name:ro":"Bahrein","name:ka":"\u10d1\u10d0\u10f0\u10e0\u10d4\u10d8\u10dc\u10d8","name:hr":"Bahrein","name:da":"Bahrain","name:de":"Bahrain","name:dz":"\u0f56\u0fb7\u0f0b\u0f62\u0f7a\u0f53","source":"openstreetmap.org","name:lv":"Bahreina","name:lt":"Bahreinas","name:uz":"Baxreyn","name:kk":"\u0411\u0430\u0445\u0440\u0435\u0439\u043d","name:he":"\u05d1\u05d7\u05e8\u05d9\u05d9\u05df","kind":"country","name:ur":"\u0628\u062d\u0631\u06cc\u0646","name:lb":"Bahrain","name:la":"Baharina","name:lg":"Baareeni","name:uk":"\u0411\u0430\u0445\u0440\u0435\u0439\u043d","name:hy":"\u0532\u0561\u0570\u0580\u0565\u0575\u0576","min_zoom":2.0,"name:li":"Bahrein","name:ln":"Bahr\u025bn\u025b","name:lo":"\u0e9a\u0eb2\u0ec0\u0ea5\u0e99","population":1234571,"name:el":"\u039c\u03c0\u03b1\u03c7\u03c1\u03ad\u03b9\u03bd","name:eo":"Barejno","name:en":"Bahrain","name":"\u0627\u0644\u0628\u062d\u0631\u064a\u0646","official_name":"\u200e\u0645\u0645\u0644\u0643\u0629 \u0627\u0644\u0628\u062d\u0631\u064a\u0646 (Mamlakat al-Ba\u1e25rayn)","name:ee":"Bahrain nutome","name:th":"\u0e1b\u0e23\u0e30\u0e40\u0e17\u0e28\u0e1a\u0e32\u0e2b\u0e4c\u0e40\u0e23\u0e19","name:gu":"\u0aac\u0ac7\u0ab9\u0ab0\u0ac0\u0aa8","name:eu":"Bahrain","name:et":"Bahrein","name:nl":"Bahrein","name:es":"Bahr\u00e9in","name:ia":"Bahrain","name:rm":"Bahrain","name:rn":"Bahareyini","name:az":"Bahreyn","name:id":"Bahrain","name:ms":"Bahrain","name:mr":"\u092c\u0939\u093e\u0930\u0940\u0928","name:my":"\u1018\u102c\u101b\u102d\u1014\u103a\u1038","name:io":"Bahrain","int_name":"Bahrain","name:is":"Barein","name:am":"\u1263\u1205\u122c\u1295","name:it":"Bahrain","name:vi":"Bahrain","name:ru":"\u0411\u0430\u0445\u0440\u0435\u0439\u043d","name:mn":"\u0411\u0430\u0445\u0440\u0435\u0439\u043d","id":424297207,"name:mk":"\u0411\u0430\u0445\u0440\u0435\u0438\u043d","name:af":"Bahrein","name:zu":"i-Bahrain","name:ha":"Baharan","name:nn":"Bahrain","name:ff":"Bahreyn","name:fi":"Bahrain","name:hi":"\u092c\u093e\u0939\u0930\u0947\u0928","name:mg":"Bahrain","name:fo":"Bahrain","name:fr":"Bahre\u00efn","name:fy":"De Barein","name:vo":"Bahru\u00e4ns","name:zh":"\u5df4\u6797","name:gv":"Bahrain","name:so":"Baxreyn","name:sn":"Bahareni","name:sl":"Bahrajn","name:sk":"Bahrajn","name:ja":"\u30d0\u30fc\u30ec\u30fc\u30f3","name:si":"\u0db6\u0dc4\u0dbb\u0dda\u0db1\u0dca","name:fa":"\u0628\u062d\u0631\u064a\u0646","name:sg":"Bahr\u00e2ina","name:se":"Bahrain","name:ne":"\u092c\u093e\u0939\u094d\u0930\u0947\u0928","name:br":"Bahrein","name:bs":"Bahrein","name:bm":"Bareyini","name:bn":"\u09ac\u09be\u09b9\u09b0\u09be\u0987\u09a8","name:bo":"\u0f56\u0fb7\u0f71\u0f0b\u0f62\u0f7a\u0f53\u0f0d","name:ml":"\u0d2c\u0d39\u0d4d\u0d31\u0d48\u0d7b","name:no":"Bahrain","name:sw":"Bahareni","name:be":"\u0411\u0430\u0445\u0440\u044d\u0439\u043d","name:bg":"\u0411\u0430\u0445\u0440\u0435\u0439\u043d","name:sr":"\u0411\u0430\u0445\u0440\u0435\u0438\u043d","name:sq":"Bahrein","name:ga":"Bair\u00e9in","name:gd":"Bachrain","name:gl":"Bahrein","name:yo":"Or\u00edl\u1eb9\u0301\u00e8de B\u00e1r\u00e1n\u00ec","name:ak":"Baren"},"coordinates":[1008,906]},{"type":"Point","properties":{"alt_name:eo":"Arca\u0125a Respubliko","name:az":"Da\u011fl\u0131q Qaraba\u011f Respublikas\u0131","name:ar":"\u062c\u0645\u0647\u0648\u0631\u064a\u0629 \u0645\u0631\u062a\u0641\u0639\u0627\u062a \u0642\u0631\u0629 \u0628\u0627\u063a","name:cs":"N\u00e1horn\u011b-karaba\u0161sk\u00e1 republika","name:io":"Republiko di Nagorno-Karabakh","min_zoom":2.0,"name:it":"Nagorno Karabakh","name:vi":"C\u1ed9ng h\u00f2a Nagorno-Karabakh","name:ru":"\u041d\u0430\u0433\u043e\u0440\u043d\u043e-\u041a\u0430\u0440\u0430\u0431\u0430\u0445\u0441\u043a\u0430\u044f \u0420\u0435\u0441\u043f\u0443\u0431\u043b\u0438\u043a\u0430","name:pl":"Republika G\u00f3rskiego Karabachu","id":1696853468,"name:ca":"Rep\u00fablica de l'Alt Karabagh","name:fa":"\u062c\u0645\u0647\u0648\u0631\u06cc \u0642\u0631\u0647\u200c\u0628\u0627\u063a","source":"openstreetmap.org","name:fi":"Vuoristo-Karabahin tasavalta","name:de":"Republik Bergkarabach","alt_name:vi":"C\u1ed9ng ho\u00e0 Nagorno-Karabakh","name:fr":"Haut-Karabagh","name:zh":"\u7eb3\u6208\u5c14\u8bfa-\u5361\u62c9\u5df4\u8d6b\u5171\u548c\u56fd","name:sk":"N\u00e1horn\u00fd Karabach","name:ja":"\u30ca\u30b4\u30eb\u30ce\u30fb\u30ab\u30e9\u30d0\u30d5\u5171\u548c\u56fd","name:no":"Nagorno-Karabakh","name:he":"\u05e0\u05d2\u05d5\u05e8\u05e0\u05d5-\u05e7\u05e8\u05d1\u05d7","kind":"country","name:tt":"\u0422\u0430\u0443\u043b\u044b \u041a\u0430\u0440\u0430\u0431\u0430\u0445 \u0496\u04e9\u043c\u04bb\u04af\u0440\u0438\u044f\u0442\u0435","name:uk":"\u041d\u0430\u0433\u0456\u0440\u043d\u043e-\u041a\u0430\u0440\u0430\u0431\u0430\u0441\u044c\u043a\u0430 \u0420\u0435\u0441\u043f\u0443\u0431\u043b\u0456\u043a\u0430","name:hy":"\u053c\u0565\u057c\u0576\u0561\u0575\u056b\u0576 \u0542\u0561\u0580\u0561\u0562\u0561\u0572\u056b \u0540\u0561\u0576\u0580\u0561\u057a\u0565\u057f\u0578\u0582\u0569\u0575\u0578\u0582","name:be":"\u041d\u0430\u0433\u043e\u0440\u043d\u0430-\u041a\u0430\u0440\u0430\u0431\u0430\u0445\u0441\u043a\u0430\u044f \u0420\u044d\u0441\u043f\u0443\u0431\u043b\u0456\u043a\u0430","name:hu":"Azeri Hegyi-Karabah \/ Arcak","name:sr":"\u041d\u0430\u0433\u043e\u0440\u043d\u043e-\u041a\u0430\u0440\u0430\u0431\u0430\u0445","population":144700,"name:eo":"Respubliko Montara Karaba\u0125o","name:en":"Nagorno-Karabakh Republic","name":"\u053c\u0565\u057c\u0576\u0561\u0575\u056b\u0576 \u0542\u0561\u0580\u0561\u0562\u0561\u0572\u056b \u0540\u0561\u0576\u0580\u0561\u057a\u0565\u057f\u0578\u0582\u0569\u0575\u0578\u0582 (Nagorno-Karabakh Republic)","name:ku":"Komara Qerebaxa Jor\u00een","name:nl":"Nagorno-Karabach","name:es":"Rep\u00fablica de Nagorno Karabaj"},"coordinates":[309,3844]},{"type":"Point","properties":{"source":"naturalearthdata.com","kind":"locality","name":"Tehran","country_capital":true,"population":7873000,"min_zoom":3.0,"id":7255},"coordinates":[1169,2954]},{"type":"Point","properties":{"source":"naturalearthdata.com","kind":"locality","name":"Dubai","population":1379000,"region_capital":true,"min_zoom":3.0,"id":7231},"coordinates":[1871,708]},{"type":"Point","properties":{"source":"naturalearthdata.com","kind":"locality","name":"Karachi","population":12130000,"region_capital":true,"min_zoom":4.0,"id":7137},"coordinates":[4003,630]},{"type":"Point","properties":{"name:pt":"Baluchist\u00e3o","alt_name:en":"Baluchistan","name:ja":"\u30d0\u30ed\u30fc\u30c1\u30b9\u30bf\u30fc\u30f3","name:ar":"\u0628\u0644\u0648\u0634\u0633\u062a\u0627\u0646","name:cs":"Bal\u00fa\u010dist\u00e1n","kind":"region","min_zoom":4.0,"name:it":"Belucistan","name:uk":"\u0411\u0435\u043b\u0443\u0434\u0436\u0438\u0441\u0442\u0430\u043d","name:vi":"Balochistan","name:ru":"\u0411\u0435\u043b\u0443\u0434\u0436\u0438\u0441\u0442\u0430\u043d","name:pl":"Belud\u017cystan","name:hu":"Beludzsiszt\u00e1n","name:hr":"Belud\u017eistan","id":316440942,"population":10247362,"name:eo":"Balu\u0109io","name:en":"Balochistan","name":"\u0628\u0644\u0648\u0686\u0633\u062a\u0627\u0646","kind_detail":"state","name:de":"Belutschistan","alt_name:fr":"Balouchistan","source":"openstreetmap.org","name:fr":"Baloutchistan","alt_name:hr":"Belu\u010distan","alt_name:pt":"Baluquist\u00e3o","name:es":"Beluchist\u00e1n"},"coordinates":[3823,1303]},{"type":"Point","properties":{"source":"naturalearthdata.com","kind":"locality","name":"Mashhad","population":2469000,"region_capital":true,"min_zoom":4.0,"id":7197},"coordinates":[2652,3083]},{"type":"Point","properties":{"kind":"region","name:en":"Samarkand Province","name":"Samarqand Viloyati","kind_detail":"state","name:de":"Provinz Samarkand","source":"openstreetmap.org","min_zoom":4.0,"name:ru":"\u0421\u0430\u043c\u0430\u0440\u043a\u0430\u043d\u0434\u0441\u043a\u0430\u044f \u043e\u0431\u043b\u0430\u0441\u0442\u044c","name:hu":"Szamarkandi vilajet","id":309346346,"population":2322000},"coordinates":[3846,3828]},{"type":"Point","properties":{"source":"naturalearthdata.com","kind":"locality","name":"Kuwait","country_capital":true,"population":2063000,"min_zoom":4.0,"id":7170},"coordinates":[542,1598]},{"type":"Point","properties":{"kind":"region","name:en":"Qashqadaryo province","name":"Qashqadaryo Viloyati","name:uz":"\u049a\u0430\u0448\u049b\u0430\u0434\u0430\u0440\u0451 \u0432\u0438\u043b\u043e\u044f\u0442\u0438","kind_detail":"state","name:de":"Provinz Qashqadaryo","source":"openstreetmap.org","min_zoom":4.0,"name:ru":"\u041a\u0430\u0448\u043a\u0430\u0434\u0430\u0440\u044c\u0438\u043d\u0441\u043a\u0430\u044f \u043e\u0431\u043b\u0430\u0441\u0442\u044c","name:hu":"Kaskadarjai vilajet","id":309346354,"population":2029000},"coordinates":[3738,3576]},{"type":"Point","properties":{"name:fa":"\u0633\u0631\u062e\u0627\u0646\u200c\u062f\u0631","kind":"region","name:en":"Surxondaryo Province","name":"Surxondaryo Viloyati","name:uz":"\u0421\u0443\u0440\u0445\u043e\u043d\u0434\u0430\u0440\u0451 \u0432\u0438\u043b\u043e\u044f\u0442\u0438","kind_detail":"state","name:de":"Provinz Surxondaryo","source":"openstreetmap.org","min_zoom":4.0,"name:ru":"\u0421\u0443\u0440\u0445\u0430\u043d\u0434\u0430\u0440\u044c\u0438\u043d\u0441\u043a\u0430\u044f \u043e\u0431\u043b\u0430\u0441\u0442\u044c","name:hu":"Szurkandarjai vilajet","id":309346350,"population":1676000},"coordinates":[4028,3445]},{"type":"Point","properties":{"kind":"region","name:en":"Bukhara Province","name":"Buxoro Viloyati","name:uz":"\u0411\u0443\u0445\u043e\u0440\u043e \u0432\u0438\u043b\u043e\u044f\u0442\u0438","kind_detail":"state","name:de":"Provinz Buchara","source":"openstreetmap.org","min_zoom":4.0,"name:ru":"\u0411\u0443\u0445\u0430\u0440\u0441\u043a\u0430\u044f \u043e\u0431\u043b\u0430\u0441\u0442\u044c","name:hu":"Buharai vilajet","id":309346337,"population":1384700},"coordinates":[3376,3935]},{"type":"Point","properties":{"kind":"region","name:en":"Herat","name":"\u0647\u0631\u0627\u062a","kind_detail":"state","min_zoom":4.0,"name:de":"Herat","source":"openstreetmap.org","name:fr":"H\u00e9r\u00e2t","name:uk":"\u0413\u0435\u0440\u0430\u0442","population":1182000,"name:ru":"\u0413\u0435\u0440\u0430\u0442","name:hu":"Her\u00e1t","id":312470046,"name:ja":"\u30d8\u30e9\u30fc\u30c8\u5dde"},"coordinates":[3148,2628]},{"type":"Point","properties":{"name:ja":"\u30ab\u30f3\u30c0\u30cf\u30fc\u30eb\u5dde","min_zoom":4.0,"name:uk":"\u041a\u0430\u043d\u0434\u0430\u0433\u0430\u0440","name:ru":"\u041a\u0430\u043d\u0434\u0430\u0433\u0430\u0440","name:hu":"Kandah\u00e1r","id":312470034,"population":990200,"name:fa":"\u0642\u0646\u062f\u0647\u0627\u0631","kind":"region","name:en":"Kandahar","name":"\u06a9\u0646\u062f\u06be\u0627\u0631","kind_detail":"state","name:de":"Kandahar","source":"openstreetmap.org","name:fr":"Kandah\u00e2r","name:et":"Kandah\u0101ri provints"},"coordinates":[3770,1947]},{"type":"Point","properties":{"kind":"region","name:en":"Jizzakh Province","name":"Jizzax Viloyati","name:uz":"\u0416\u0438\u0437\u0437\u0430\u0445 \u0432\u0438\u043b\u043e\u044f\u0442\u0438","kind_detail":"state","name:de":"Provinz Jizzax","source":"openstreetmap.org","min_zoom":4.0,"name:ru":"\u0414\u0436\u0438\u0437\u0430\u043a\u0441\u043a\u0430\u044f \u043e\u0431\u043b\u0430\u0441\u0442\u044c","name:hu":"Dzsizaki vilajet","id":309346342,"population":910500},"coordinates":[4088,3957]},{"type":"Point","properties":{"kind":"region","name:en":"Faryab","name":"\u0641\u0627\u0631\u064a\u0627\u0628","kind_detail":"state","min_zoom":4.0,"name:de":"Faryab","source":"openstreetmap.org","name:fr":"F\u00e2ry\u00e2b","name:uk":"\u0424\u0430\u0440'\u044f\u0431","population":858600,"name:ru":"\u0424\u0430\u0440\u044c\u044f\u0431","name:pl":"Farjab","name:hu":"F\u00e1rj\u00e1b","id":312470061,"name:ja":"\u30d5\u30a1\u30fc\u30ea\u30e4\u30fc\u30d6\u5dde"},"coordinates":[3572,3009]},{"type":"Point","properties":{"kind":"region","name:en":"Helmand","name":"\u0647\u0644\u0645\u0646\u062f","kind_detail":"state","min_zoom":4.0,"name:de":"Helmand","source":"openstreetmap.org","name:fr":"Helmand","name:uk":"\u0413\u0456\u043b\u044c\u043c\u0435\u043d\u0434","population":745000,"name:ru":"\u0413\u0438\u043b\u044c\u043c\u0435\u043d\u0434","name:hu":"Helmand","id":312470041,"name:ja":"\u30d8\u30eb\u30de\u30f3\u30c9\u5dde"},"coordinates":[3459,1949]},{"type":"Point","properties":{"kind":"region","name:en":"Gh\u014dr","name":"\u063a\u0648\u0631","kind_detail":"state","min_zoom":4.0,"name:de":"Ghor","source":"openstreetmap.org","name:fr":"Gh\u00f4r","name:uk":"\u0413\u043e\u0440","population":485000,"name:ru":"\u0413\u043e\u0440","name:hu":"Gor","id":312470043,"name:ja":"\u30b4\u30fc\u30eb\u5dde"},"coordinates":[3626,2629]},{"type":"Point","properties":{"kind":"region","name:en":"Jowzjan","name":"\u062c\u0648\u0632\u062c\u0627\u0646","kind_detail":"state","min_zoom":4.0,"name:de":"Dschuzdschan","source":"openstreetmap.org","name:fr":"Dj\u00f4zdj\u00e2n","name:uk":"\u0414\u0436\u0430\u0443\u0437\u0434\u0436\u0430\u043d","population":441000,"name:ru":"\u0414\u0436\u0430\u0443\u0437\u0434\u0436\u0430\u043d","name:pl":"D\u017cozd\u017can","name:hu":"Dzsuzdzs\u00e1n","id":312470042,"name:ja":"\u30b8\u30e7\u30a6\u30ba\u30b8\u30e3\u30fc\u30f3\u5dde"},"coordinates":[3815,3232]},{"type":"Point","properties":{"int_name":"Daikundi;D\u0101ykond\u012b;Daykundi","name:ps":"\u062f\u0627\u064a\u06a9\u0646\u062f\u064a \u0648\u0644\u0627\u064a\u062a","min_zoom":4.0,"name:uk":"\u0414\u0430\u0439\u043a\u0443\u043d\u0434\u0456","name:ru":"\u0414\u0430\u0439\u043a\u0443\u043d\u0434\u0438","name:pl":"Dajkondi","name:hu":"D\u00e1jkondi","id":2278857601,"name:ja":"\u30c0\u30fc\u30a4\u30af\u30f3\u30c7\u30a3\u30fc\u5dde","kind":"region","name:en":"Daykundi","name":"\u062f\u0627\u06cc\u06a9\u0646\u062f\u06cc","kind_detail":"state","name:de":"Daikondi","source":"openstreetmap.org","name:fr":"Deykandi","population":438500},"coordinates":[3863,2535]},{"type":"Point","properties":{"kind":"region","name:en":"Farah","name":"\u0641\u0631\u0627\u0647","kind_detail":"state","min_zoom":4.0,"name:de":"Farah","source":"openstreetmap.org","name:fr":"Far\u00e2h","name:uk":"\u0424\u0430\u0440\u0430\u0445","population":438000,"name:ru":"\u0424\u0430\u0440\u0430\u0445","name:hu":"Fer\u00e1h","id":312470032,"name:ja":"\u30d5\u30a1\u30e9\u30fc\u5dde"},"coordinates":[3217,2294]},{"type":"Point","properties":{"kind":"region","name:en":"Badghis","name":"\u0628\u0627\u062f\u063a\u06cc\u0633","kind_detail":"state","min_zoom":4.0,"name:de":"Badghis","source":"openstreetmap.org","name:fr":"B\u00e2dgh\u00ees","name:uk":"\u0411\u0430\u0434\u0433\u0456\u0441","population":429500,"name:ru":"\u0411\u0430\u0434\u0433\u0438\u0441","name:hu":"B\u00e1dgis","id":312470036,"name:ja":"\u30d0\u30fc\u30c9\u30ae\u30fc\u30b9\u5dde"},"coordinates":[3413,2809]},{"type":"Point","properties":{"kind":"region","name:en":"Uruzgan","name":"\u0627\u0631\u0648\u0632\u06af\u0627\u0646","kind_detail":"state","min_zoom":4.0,"name:de":"Urusgan","source":"openstreetmap.org","name:fr":"Orozg\u00e2n","name:uk":"\u0423\u0440\u0443\u0437\u0433\u0430\u043d","population":428000,"name:ru":"\u0423\u0440\u0443\u0437\u0433\u0430\u043d","name:pl":"Oruzgan","name:hu":"Uruzg\u00e1n","id":312470035,"name:ja":"\u30a6\u30eb\u30fc\u30ba\u30ac\u30fc\u30f3\u5dde"},"coordinates":[3826,2339]},{"type":"Point","properties":{"kind":"region","name:en":"Nimruz","name":"\u0646\u06cc\u0645\u0631\u0648\u0632","kind_detail":"state","min_zoom":4.0,"name:de":"Nimrus","source":"openstreetmap.org","name:fr":"Nimr\u00f4z","name:uk":"\u041d\u0456\u043c\u0440\u043e\u0437","population":149000,"name:ru":"\u041d\u0438\u043c\u0440\u043e\u0437","name:hu":"Nimruz","id":312470044,"name:ja":"\u30cb\u30fc\u30e0\u30eb\u30fc\u30ba\u5dde"},"coordinates":[3182,1900]},{"type":"Point","properties":{"name:ja":"\u30f4\u30a1\u30e8\u30c4\u30fb\u30be\u30eb","name:lt":"Vajocdzoro sritis","min_zoom":4.0,"name:uk":"\u0412\u0430\u0439\u043e\u0446-\u0414\u0437\u043e\u0440","name:ru":"\u0412\u0430\u0439\u043e\u0442\u0441 \u0414\u0437\u043e\u0440","name:pl":"Prowincja Wajoc Dzor","name:hu":"Vajoc Dzor","id":1884053547,"kind":"region","name:en":"Vayots Dzor","name":"\u054e\u0561\u0575\u0578\u0581 \u0541\u0578\u0580","kind_detail":"state","name:de":"Wajoz Dsor","source":"openstreetmap.org","name:fr":"Vayots Dzor","name:es":"Vayots' Dzor"},"coordinates":[83,3843]},{"type":"Point","properties":{"name:fa":"\u0645\u0631\u0648","kind":"region","name":"Mary","kind_detail":"state","source":"openstreetmap.org","min_zoom":4.0,"name:ru":"\u041c\u0430\u0440\u044b","name:hu":"Mary tartom\u00e1ny","id":677412019},"coordinates":[3168,3268]},{"type":"Point","properties":{"name:fa":"\u0644\u0628\u0627\u0628","kind":"region","name":"Lebap","kind_detail":"state","source":"openstreetmap.org","min_zoom":4.0,"name:ru":"\u041b\u0435\u0431\u0430\u043f","name:hu":"Lebap tartom\u00e1ny","id":677412015},"coordinates":[3286,3630]},{"type":"Point","properties":{"name:ja":"\u30e9\u30b6\u30f4\u30a3\u30fc\u30fb\u30db\u30e9\u30fc\u30b5\u30fc\u30f3","min_zoom":4.0,"name:uk":"\u0425\u043e\u0440\u0430\u0441\u0430\u043d-\u0420\u0435\u0437\u0430\u0432\u0456","name:ru":"\u0425\u043e\u0440\u0430\u0441\u0430\u043d-\u0420\u0435\u0437\u0430\u0432\u0438","name:pl":"Chorasan-e Rezawi","name:hu":"Razavi Hor\u00e1sz\u00e1n","name:hr":"Razavi Horasan","id":475731866,"kind":"region","name:en":"Razavi Khorasan","name":"\u062e\u0631\u0627\u0633\u0627\u0646 \u0631\u0636\u0648\u06cc","kind_detail":"state","name:ku":"Xorasana Rezew\u00ee","name:de":"Razavi-Chorasan","source":"openstreetmap.org","name:fr":"Khorasan-e-Razavi"},"coordinates":[2679,3027]},{"type":"Point","properties":{"name:ja":"\u5317\u30db\u30e9\u30fc\u30b5\u30fc\u30f3","min_zoom":4.0,"name:uk":"\u041f\u0456\u0432\u043d\u0456\u0447\u043d\u0438\u0439 \u0425\u043e\u0440\u0430\u0441\u0430\u043d","name:ru":"\u0421\u0435\u0432\u0435\u0440\u043d\u044b\u0439 \u0425\u043e\u0440\u0430\u0441\u0430\u043d","name:pl":"Chorasan P\u00f3\u0142nocny","name:hu":"\u00c9szak-Hor\u00e1sz\u00e1n","name:hr":"Sjeverni Horasan","id":475733367,"kind":"region","name:en":"North Khorasan","name":"\u062e\u0631\u0627\u0633\u0627\u0646 \u0634\u0645\u0627\u0644\u06cc","kind_detail":"state","name:ku":"Xorasana Bakur","name:de":"Nord-Chorasan","source":"openstreetmap.org","name:fr":"Khorasan septentrional"},"coordinates":[2176,3355]},{"type":"Point","properties":{"name:ja":"\u30b4\u30e0","min_zoom":4.0,"name:uk":"\u041a\u0443\u043c","name:ru":"\u041a\u0443\u043c","name:pl":"Kom","name:hu":"Kom","name:hr":"Kum","id":480271136,"kind":"region","name:en":"Qom","name":"\u0642\u0645","kind_detail":"state","name:ku":"Q\u00fbm","name:de":"Qom","source":"openstreetmap.org","name:fr":"Qom"},"coordinates":[1095,2749]},{"type":"Point","properties":{"name:ja":"\u30ac\u30ba\u30f4\u30a3\u30fc\u30f3","min_zoom":4.0,"name:uk":"\u041a\u0430\u0437\u0432\u0456\u043d","name:ru":"\u041a\u0430\u0437\u0432\u0438\u043d","name:pl":"Kazwin","name:hu":"Kazvin","name:hr":"Kazvin","id":480308979,"kind":"region","name:en":"Qazvin","name":"\u0642\u0632\u0648\u06cc\u0646","kind_detail":"state","name:ku":"Qazw\u00ean","name:de":"Qazvin","source":"openstreetmap.org","name:fr":"Qazvin"},"coordinates":[881,3028]},{"type":"Point","properties":{"name:az":"Do\u011fu Az\u0259rbaycan ostan\u0131","name:ja":"\u6771\u30a2\u30fc\u30b6\u30eb\u30d0\u30fc\u30a4\u30b8\u30e3\u30fc\u30f3","min_zoom":4.0,"name:uk":"\u0421\u0445\u0456\u0434\u043d\u0438\u0439 \u0410\u0437\u0435\u0440\u0431\u0430\u0439\u0434\u0436\u0430\u043d","name:ru":"\u0412\u043e\u0441\u0442\u043e\u0447\u043d\u044b\u0439 \u0410\u0437\u0435\u0440\u0431\u0430\u0439\u0434\u0436\u0430\u043d","name:pl":"Azerbejd\u017can Wschodni","name:hu":"Kelet-Azerbajdzs\u00e1n","name:hr":"Isto\u010dni Azerbejd\u017ean","id":480452780,"kind":"region","name:en":"East Azarbaijan","name":"\u0622\u0630\u0631\u0628\u0627\u06cc\u062c\u0627\u0646 \u0634\u0631\u0642\u06cc","kind_detail":"state","name:ku":"Azerbaycana Rojhilat","name:de":"Ost-Aserbaidschan","source":"openstreetmap.org","name:fr":"Azerba\u00efdjan oriental"},"coordinates":[240,3459]},{"type":"Point","properties":{"name:ja":"\u30b9\u30a3\u30fc\u30b9\u30bf\u30fc\u30f3\u30fb\u30d0\u30eb\u30fc\u30c1\u30a7\u30b9\u30bf\u30fc\u30f3","min_zoom":4.0,"name:uk":"\u0421\u0438\u0441\u0442\u0430\u043d \u0456 \u0411\u0435\u043b\u0443\u0434\u0436\u0438\u0441\u0442\u0430\u043d","name:ru":"\u0421\u0438\u0441\u0442\u0430\u043d \u0438 \u0411\u0435\u043b\u0443\u0434\u0436\u0438\u0441\u0442\u0430\u043d","name:pl":"Sistan i Belud\u017cystan","name:hu":"Sziszt\u00e1n \u00e9s Beludzsiszt\u00e1n","name:hr":"Sistan i Belud\u017eistan","id":485807427,"kind":"region","name:en":"Sistan and Baluchestan","name":"\u0633\u06cc\u0633\u062a\u0627\u0646 \u0648 \u0628\u0644\u0648\u0686\u0633\u062a\u0627\u0646","kind_detail":"state","name:ku":"S\u00eestan \u00fb Bel\u00fb\u00e7istan","name:de":"Sistan und Belutschistan","alt_name:fr":"Sist\u0101n et Bal\u016bchest\u0101n","source":"openstreetmap.org","name:fr":"Sistan-Baloutchistan"},"coordinates":[2881,1331]},{"type":"Point","properties":{"name:ja":"\u30de\u30eb\u30ad\u30e3\u30ba\u30a3\u30fc","min_zoom":4.0,"name:uk":"\u041c\u0435\u0440\u043a\u0435\u0437\u0456","name:ru":"\u0426\u0435\u043d\u0442\u0440\u0430\u043b\u044c\u043d\u044b\u0439 \u043e\u0441\u0442\u0430\u043d","name:pl":"Markazi","name:hu":"Markazi","name:hr":"Markazi","id":486089857,"kind":"region","name:en":"Markazi Province","name":"\u0627\u0633\u062a\u0627\u0646 \u0645\u0631\u06a9\u0632\u06cc","kind_detail":"state","name:ku":"Merkez\u00ee","name:de":"Markazi","source":"openstreetmap.org","name:fr":"Markazi"},"coordinates":[871,2708]},{"type":"Point","properties":{"name:fa":"\u0622\u062e\u0627\u0644","kind":"region","name":"Ahal","kind_detail":"state","source":"openstreetmap.org","min_zoom":4.0,"name:ru":"\u0410\u0445\u0430\u043b","name:hu":"Ahal tartom\u00e1ny","id":677412018},"coordinates":[2523,3635]},{"type":"Point","properties":{"kind":"region","name:en":"Basra","name":"\u0627\u0644\u0628\u0635\u0631\u0629","kind_detail":"state","name:eo":"Basra gubernio","alt_name:fr":"Bassorah","source":"openstreetmap.org","name:fr":"Bassora","name:pl":"Basra","name:uk":"\u0411\u0430\u0441\u0440\u0430","name:ru":"\u0411\u0430\u0441\u0440\u0430","min_zoom":4.0,"name:ku":"Besre","id":2914855216,"name:ja":"\u30d0\u30b9\u30e9"},"coordinates":[460,1777]},{"type":"Point","properties":{"kind":"region","name:en":"Dhi Qar","name":"\u0630\u064a \u0642\u0627\u0631","kind_detail":"state","min_zoom":4.0,"source":"openstreetmap.org","name:fr":"Dhi Qar","name:uk":"\u0414\u0456-\u041a\u0430\u0440","name:ru":"\u0414\u0438-\u041a\u0430\u0440","name:pl":"Zi Kar","name:hu":"Dzi K\u00e1r","name:ku":"Z\u00eeqar","id":2914855217,"name:ja":"\u30b8\u30fc\u30ab\u30fc\u30eb"},"coordinates":[238,2010]},{"type":"Point","properties":{"kind":"region","name:en":"Diyala","name":"\u062f\u064a\u0627\u0644\u0649","kind_detail":"state","name:eo":"Dijala gubernio","id":2914855218,"source":"openstreetmap.org","name:fr":"Diyala","name:uk":"\u0414\u0456\u044f\u043b\u0430","name:ru":"\u0414\u0438\u044f\u043b\u0430","min_zoom":4.0,"name:ku":"Diyala","name:pl":"Dijala","name:ja":"\u30c7\u30a3\u30e4\u30fc\u30e9\u30fc"},"coordinates":[19,2599]},{"type":"Point","properties":{"kind":"region","name:en":"Halabja","name":"Helebce","kind_detail":"state","name:ar":"\u062d\u0644\u0628\u062c\u0629","min_zoom":4.0,"name:de":"Halabdscha","source":"openstreetmap.org","name:fr":"Halabja","name:uk":"\u0425\u0430\u043b\u0430\u0431\u0434\u0436\u0430","name:ru":"\u0425\u0430\u043b\u0430\u0431\u0434\u0436\u0430","name:pl":"Halabd\u017ca","id":2914855221,"name:ja":"\u30cf\u30e9\u30d6\u30b8\u30e3"},"coordinates":[184,2865]},{"type":"Point","properties":{"kind":"region","name:en":"Maysan","name":"\u0645\u064a\u0633\u0627\u0646","kind_detail":"state","name:eo":"Majsana gubernio","id":2914855224,"source":"openstreetmap.org","name:fr":"Maysan","name:uk":"\u041c\u0430\u0439\u0441\u0430\u043d","name:ru":"\u041c\u0430\u0439\u0441\u0430\u043d","min_zoom":4.0,"name:ku":"Meysan","name:pl":"Majsan","name:ja":"\u30de\u30a4\u30b5\u30fc\u30f3"},"coordinates":[377,2168]},{"type":"Point","properties":{"kind":"region","name:en":"Muthanna","name":"\u0627\u0644\u0645\u062b\u0646\u0649","kind_detail":"state","min_zoom":4.0,"source":"openstreetmap.org","name:fr":"Mouthanna","name:uk":"\u041c\u0443\u0442\u0430\u043d\u043d\u0430","name:ru":"\u041c\u0443\u0442\u0430\u043d\u043d\u0430","name:pl":"Al-Musanna","name:ku":"Musena","id":2914855225,"name:ja":"\u30e0\u30b5\u30f3\u30ca\u30fc"},"coordinates":[53,1861]},{"type":"Point","properties":{"kind":"region","name:en":"Qadisiyah","name":"\u0627\u0644\u0642\u0627\u062f\u0633\u064a\u0629","kind_detail":"state","min_zoom":4.0,"source":"openstreetmap.org","name:fr":"Qadisiya","name:uk":"\u041a\u0430\u0434\u0456\u0441\u0456\u044f","name:ru":"\u041a\u0430\u0434\u0438\u0441\u0438\u044f","name:pl":"Al-Kadisijja","name:ku":"Qadisiye","id":2914855228,"name:ja":"\u30ab\u30fc\u30c7\u30a3\u30fc\u30b7\u30fc\u30e4"},"coordinates":[22,2155]},{"type":"Point","properties":{"kind":"region","name:en":"Sulaymaniyah","name":"Sl\u00eaman\u00ee","kind_detail":"state","name:ar":"\u0627\u0644\u0633\u0644\u064a\u0645\u0627\u0646\u064a\u0629","min_zoom":4.0,"name:de":"as-Sulaimaniyya","source":"openstreetmap.org","name:fr":"Souleimaniy\u00e9","name:uk":"\u0421\u0443\u043b\u0435\u0439\u043c\u0430\u043d\u0456\u044f","name:ru":"\u0421\u0443\u043b\u0435\u0439\u043c\u0430\u043d\u0438\u044f","name:pl":"As-Sulajmanijja","id":2914855230,"name:ja":"\u30b9\u30ec\u30a4\u30de\u30cb\u30e4"},"coordinates":[37,3006]},{"type":"Point","properties":{"kind":"region","name:en":"Wasit","name":"\u0648\u0627\u0633\u0637","kind_detail":"state","name:eo":"\u016casita gubernio","id":2914855231,"source":"openstreetmap.org","name:fr":"Wassit","name:uk":"\u0412\u0430\u0441\u0438\u0442","name:ru":"\u0412\u0430\u0441\u0438\u0442","min_zoom":4.0,"name:ku":"Wasit","name:pl":"Wasit","name:ja":"\u30ef\u30fc\u30b7\u30c8"},"coordinates":[125,2313]},{"type":"Point","properties":{"name:ja":"\u30b9\u30a3\u30fc\u30b9\u30bf\u30fc\u30f3\u30fb\u30d0\u30eb\u30fc\u30c1\u30a7\u30b9\u30bf\u30fc\u30f3","min_zoom":4.0,"name:uk":"\u0421\u0438\u0441\u0442\u0430\u043d \u0456 \u0411\u0435\u043b\u0443\u0434\u0436\u0438\u0441\u0442\u0430\u043d","name:ru":"\u0421\u0438\u0441\u0442\u0430\u043d \u0438 \u0411\u0435\u043b\u0443\u0434\u0436\u0438\u0441\u0442\u0430\u043d","name:pl":"Sistan i Belud\u017cystan","name:hu":"Sziszt\u00e1n \u00e9s Beludzsiszt\u00e1n","name:hr":"Sistan i Belud\u017eistan","id":4357317494,"kind":"region","name:en":"Sistan and Baluchestan","name":"\u0633\u06cc\u0633\u062a\u0627\u0646 \u0648 \u0628\u0644\u0648\u0686\u0633\u062a\u0627\u0646","kind_detail":"state","name:ku":"S\u00eestan \u00fb Bel\u00fb\u00e7istan","name:de":"Sistan und Belutschistan","alt_name:fr":"Sist\u0101n et Bal\u016bchest\u0101n","source":"openstreetmap.org","name:fr":"Sistan-Baloutchistan"},"coordinates":[2881,1331]},{"type":"Point","properties":{"kind":"region","name:en":"Balkh","name":"\u0628\u0644\u062e","kind_detail":"state","min_zoom":4.0,"name:de":"Balch","source":"openstreetmap.org","name:fr":"Balkh","name:uk":"\u0411\u0430\u043b\u0445","name:ru":"\u0411\u0430\u043b\u0445","name:pl":"Balch","name:hu":"Balh","id":312470038,"name:ja":"\u30d0\u30eb\u30d5\u5dde"},"coordinates":[4048,3196]},{"type":"Point","properties":{"kind":"region","name:en":"Zabul","name":"\u0632\u0627\u0628\u0644","kind_detail":"state","min_zoom":4.0,"name:de":"Zabul","source":"openstreetmap.org","name:fr":"Zaboul","name:uk":"\u0417\u0430\u0431\u0443\u043b\u044c","name:ru":"\u0417\u0430\u0431\u0443\u043b\u044c","name:pl":"Zabol","name:hu":"Z\u00e1bol","id":312470054,"name:ja":"\u30b6\u30fc\u30d6\u30eb\u5dde"},"coordinates":[4029,2230]},{"type":"Point","properties":{"kind":"region","name:en":"Sar-e Pol","name":"\u0633\u0631\u067e\u0644","kind_detail":"state","min_zoom":4.0,"name:de":"Sar-i Pul","source":"openstreetmap.org","name:fr":"Sar-\u00e9 Pol","name:uk":"\u0421\u0430\u0440\u0456-\u041f\u0443\u043b\u044c","name:ru":"\u0421\u0430\u0440\u0438-\u041f\u0443\u043b\u044c","name:hu":"Szar-e Pol","id":312470057,"name:ja":"\u30b5\u30fc\u30ec\u30dd\u30eb\u5dde"},"coordinates":[3867,2928]},{"type":"Point","properties":{"kind":"region","name:en":"Bamyan","name":"\u0628\u0627\u0645\u06cc\u0627\u0646\u200e","kind_detail":"state","min_zoom":4.0,"name:de":"Bamiyan","source":"openstreetmap.org","name:fr":"B\u00e2miy\u00e2n","name:uk":"\u0411\u0430\u043c\u0456\u0430\u043d","name:ru":"\u0411\u0430\u043c\u0438\u0430\u043d","name:pl":"Bamian","name:hu":"B\u00e1mj\u00e1n","id":312470062,"name:ja":"\u30d0\u30fc\u30df\u30e4\u30fc\u30f3\u5dde"},"coordinates":[4050,2756]},{"type":"Point","properties":{"name:fa":"\u0628\u0644\u06a9\u0627\u0646","kind":"region","name":"Balkan","kind_detail":"state","source":"openstreetmap.org","min_zoom":4.0,"name:ru":"\u0411\u0430\u043b\u043a\u0430\u043d","name:hu":"Balkan tartom\u00e1ny","id":677412013},"coordinates":[1804,3871]},{"type":"Point","properties":{"name:ja":"\u5357\u30db\u30e9\u30fc\u30b5\u30fc\u30f3","min_zoom":4.0,"name:uk":"\u041f\u0456\u0432\u0434\u0435\u043d\u043d\u0438\u0439 \u0425\u043e\u0440\u0430\u0441\u0430\u043d","name:ru":"\u042e\u0436\u043d\u044b\u0439 \u0425\u043e\u0440\u0430\u0441\u0430\u043d","name:pl":"Chorasan Po\u0142udniowy","name:hu":"D\u00e9l-Hor\u00e1sz\u00e1n","name:hr":"Ju\u017eni Horasan","id":480250680,"kind":"region","name:en":"South Khorasan","name":"\u062e\u0631\u0627\u0633\u0627\u0646 \u062c\u0646\u0648\u0628\u06cc","kind_detail":"state","name:ku":"Xorasana Ba\u015f\u00fbr","name:de":"S\u00fcd-Chorasan","source":"openstreetmap.org","name:fr":"Khorasan m\u00e9ridional"},"coordinates":[2660,2247]},{"type":"Point","properties":{"name:ja":"\u30b1\u30eb\u30de\u30fc\u30f3","min_zoom":4.0,"name:uk":"\u041a\u0435\u0440\u043c\u0430\u043d","name:ru":"\u041a\u0435\u0440\u043c\u0430\u043d","name:pl":"Kerman","name:hu":"Kerm\u00e1n","name:hr":"Kerman","id":481099514,"kind":"region","name:en":"Kerman","name":"\u06a9\u0631\u0645\u0627\u0646","kind_detail":"state","name:ku":"Kirman","name:de":"Kerman","source":"openstreetmap.org","name:fr":"Kerman"},"coordinates":[2239,1641]},{"type":"Point","properties":{"name:ja":"\u30e4\u30ba\u30c9","min_zoom":4.0,"name:uk":"\u0404\u0437\u0434","name:ru":"\u0419\u0435\u0437\u0434","name:pl":"Jazd","name:hu":"Jazd","name:hr":"Jazd","id":481109416,"kind":"region","name:en":"Yazd","name":"\u06cc\u0632\u062f","kind_detail":"state","name:ku":"Yezd","name:de":"Yazd","source":"openstreetmap.org","name:fr":"Yazd"},"coordinates":[1840,2217]},{"type":"Point","properties":{"name:ja":"\u30d5\u30a1\u30fc\u30eb\u30b9","min_zoom":4.0,"name:uk":"\u0424\u0430\u0440\u0441","name:ru":"\u0424\u0430\u0440\u0441","name:pl":"Fars","name:hu":"F\u00e1rsz","name:hr":"Fars","id":481249065,"kind":"region","name:en":"Fars","name":"\u0641\u0627\u0631\u0633","kind_detail":"state","name:ku":"Fars","name:de":"Fars","source":"openstreetmap.org","name:fr":"Fars"},"coordinates":[1496,1583]},{"type":"Point","properties":{"name:ja":"\u30a2\u30eb\u30c0\u30d3\u30fc\u30eb","min_zoom":4.0,"name:uk":"\u0410\u0440\u0434\u0435\u0431\u0456\u043b\u044c","name:ru":"\u0410\u0440\u0434\u0435\u0431\u0438\u043b\u044c","name:pl":"Ardabil","name:hu":"Ardabil","name:hr":"Ardabil","id":503188452,"kind":"region","name:en":"Ardabil","name":"\u0627\u0631\u062f\u0628\u06cc\u0644","kind_detail":"state","name:ku":"Erdeb\u00eel","name:de":"Ardabil","source":"openstreetmap.org","name:fr":"Ardabil"},"coordinates":[534,3553]},{"type":"Point","properties":{"name:ja":"\u30db\u30eb\u30e2\u30ba\u30ac\u30fc\u30f3","min_zoom":4.0,"name:uk":"\u0425\u043e\u0440\u043c\u043e\u0437\u0433\u0430\u043d","name:ru":"\u0425\u043e\u0440\u043c\u043e\u0437\u0433\u0430\u043d","name:pl":"Hormozgan","name:hu":"Hormozg\u00e1n","name:hr":"Hormozgan","id":512530445,"kind":"region","name:en":"Hormozgan","name":"\u0647\u0631\u0645\u0632\u06af\u0627\u0646","kind_detail":"state","name:ku":"Hormozgan","name:de":"Hormozgan","source":"openstreetmap.org","name:fr":"Hormozg\u00e2n"},"coordinates":[2064,1243]},{"type":"Point","properties":{"name:ja":"\u30b4\u30ec\u30b9\u30bf\u30fc\u30f3","min_zoom":4.0,"name:uk":"\u0413\u043e\u043b\u0435\u0441\u0442\u0430\u043d","name:ru":"\u0413\u043e\u043b\u0435\u0441\u0442\u0430\u043d","name:pl":"Golestan","name:hu":"Goleszt\u00e1n","name:hr":"Golestan","id":480241657,"kind":"region","name:en":"Golestan","name":"\u06af\u0644\u0633\u062a\u0627\u0646","kind_detail":"state","name:ku":"Gulistan","name:de":"Golestan","source":"openstreetmap.org","name:fr":"Golestan"},"coordinates":[1833,3282]},{"type":"Point","properties":{"name:ja":"\u30bb\u30e0\u30ca\u30fc\u30f3","min_zoom":4.0,"name:uk":"\u0421\u0435\u043c\u043d\u0430\u043d","name:ru":"\u0421\u0435\u043c\u043d\u0430\u043d","name:pl":"Semnan","name:hu":"Szemn\u00e1n","name:hr":"Semnan","id":480250674,"kind":"region","name:en":"Semnan","name":"\u0633\u0645\u0646\u0627\u0646","kind_detail":"state","name:ku":"Simnan","name:de":"Semnan","source":"openstreetmap.org","name:fr":"Semnan"},"coordinates":[1732,2876]},{"type":"Point","properties":{"name:ja":"\u30b6\u30f3\u30b8\u30e3\u30fc\u30f3","min_zoom":4.0,"name:uk":"\u0417\u0435\u043d\u0434\u0436\u0430\u043d","name:ru":"\u0417\u0435\u043d\u0434\u0436\u0430\u043d","name:pl":"Zand\u017can","name:hu":"Zandzs\u00e1n","name:hr":"Zand\u017ean","id":480431777,"kind":"region","name:en":"Zanjan","name":"\u0632\u0646\u062c\u0627\u0646","kind_detail":"state","name:ku":"Zengan","name:de":"Zandschan","source":"openstreetmap.org","name:fr":"Zanjan"},"coordinates":[634,3168]},{"type":"Point","properties":{"name:ja":"\u30a4\u30fc\u30e9\u30fc\u30e0","min_zoom":4.0,"name:uk":"\u0406\u043b\u0430\u043c","name:ru":"\u0418\u043b\u0430\u043c","name:pl":"Ilam","name:hu":"Il\u00e1m","name:hr":"Ilam","id":485934542,"kind":"region","name:en":"Ilam","name":"\u0627\u0633\u062a\u0627\u0646 \u0627\u06cc\u0644\u0627\u0645","kind_detail":"state","name:ku":"\u00celam","name:de":"Ilam","source":"openstreetmap.org","name:fr":"Ilam"},"coordinates":[320,2412]},{"type":"Point","properties":{"name:ja":"\u30ed\u30ec\u30b9\u30bf\u30fc\u30f3","min_zoom":4.0,"name:uk":"\u041b\u0443\u0440\u0435\u0441\u0442\u0430\u043d","name:ru":"\u041b\u0443\u0440\u0435\u0441\u0442\u0430\u043d","name:pl":"Lorestan","name:hu":"Loreszt\u00e1n","name:hr":"Lorestan","id":486075807,"kind":"region","name:en":"Lorestan","name":"\u0627\u0633\u062a\u0627\u0646 \u0644\u0631\u0633\u062a\u0627\u0646","kind_detail":"state","name:ku":"Luristan","name:de":"Lorestan","source":"openstreetmap.org","name:fr":"Louristan"},"coordinates":[618,2485]},{"type":"Point","properties":{"name:ja":"\u30c1\u30e3\u30cf\u30fc\u30eb=\u30de\u30cf\u30fc\u30eb\u30fb\u30d0\u30d5\u30c6\u30a3\u30e4\u30fc\u30ea\u30fc","min_zoom":4.0,"name:uk":"\u0427\u0435\u0445\u0430\u0440\u043c\u0435\u0445\u0430\u043b\u044c \u0456 \u0411\u0430\u0445\u0442\u0438\u0430\u0440\u0456\u044f","name:ru":"\u0427\u0435\u0445\u0430\u0440\u043c\u0435\u0445\u0430\u043b\u044c \u0438 \u0411\u0430\u0445\u0442\u0438\u0430\u0440\u0438\u044f","name:pl":"Czahar Mahal wa Bachtijari","name:hu":"Csah\u00e1rmah\u00e1l \u00e9s Bahtij\u00e1ri","name:hr":"\u010caharmahal i Bahtijari","id":486319228,"kind":"region","name:en":"Chaharmahal and Bakhtiari","name":"\u0686\u0647\u0627\u0631\u0645\u062d\u0627\u0644 \u0648 \u0628\u062e\u062a\u06cc\u0627\u0631\u06cc","kind_detail":"state","name:ku":"\u00c7armihal \u00fb Bextiyar\u00ee","name:de":"Tschah\u0101r Mah\u0101l und Bachtiy\u0101r\u012b","source":"openstreetmap.org","name:fr":"Chahar Mahaal et Bakhtiari"},"coordinates":[1035,2167]},{"type":"Point","properties":{"name:ja":"\u30b3\u30d5\u30ae\u30fc\u30eb\u30fc\u30a4\u30a7\u30fb\u30d6\u30fc\u30a4\u30a7\u30eb=\u30a2\u30d5\u30de\u30c9","min_zoom":4.0,"name:uk":"\u041a\u043e\u0445\u0433\u0456\u043b\u0443\u0454 \u0456 \u0411\u043e\u0454\u0440\u0430\u0445\u043c\u0435\u0434","name:ru":"\u041a\u043e\u0445\u0433\u0438\u043b\u0443\u0439\u0435 \u0438 \u0411\u043e\u0439\u0435\u0440\u0430\u0445\u043c\u0435\u0434","name:pl":"Kohgiluje wa Bujerahmad","name:hu":"Kohgiluje \u00e9s Bujer Ahmad","name:hr":"Kohkilujeh i Bujer Ahmad","id":486620783,"kind":"region","name:en":"Kohgiluyeh and Boyer-Ahmad","name":"\u06a9\u0647\u06af\u06cc\u0644\u0648\u06cc\u0647 \u0648 \u0628\u0648\u06cc\u0631\u0627\u062d\u0645\u062f","kind_detail":"state","name:ku":"K\u00fbg\u00eeluy\u00ee \u00fb Buw\u00ear Ehmed","name:de":"Kohkiluyeh und Buyer Ahmad","source":"openstreetmap.org","name:fr":"Kohkiluyeh et Buyer Ahmad"},"coordinates":[1068,1909]},{"type":"Point","properties":{"kind":"region","name:en":"Hamedan","name":"\u0647\u0645\u062f\u0627\u0646","kind_detail":"state","min_zoom":4.0,"source":"openstreetmap.org","name:ku":"Hemedan","name:uk":"\u0425\u0430\u043c\u0430\u0434\u0430\u043d","name:ru":"\u0425\u0430\u043c\u0430\u0434\u0430\u043d","id":494596154,"name:ja":"\u30cf\u30de\u30c0\u30fc\u30f3"},"coordinates":[665,2804]},{"type":"Point","properties":{"name:ja":"\u30b1\u30eb\u30de\u30fc\u30f3\u30b7\u30e3\u30fc","min_zoom":4.0,"name:uk":"\u041a\u0435\u0440\u043c\u0430\u043d\u0448\u0430\u0445","name:ru":"\u041a\u0435\u0440\u043c\u0430\u043d\u0448\u0430\u0445","name:pl":"Kermanszah","name:hu":"Kerm\u00e1ns\u00e1h","name:hr":"Kerman\u0161ah","id":495472876,"kind":"region","name:en":"Kermanshah","name":"\u06a9\u0631\u0645\u0627\u0646\u0634\u0627\u0647","kind_detail":"state","name:ku":"Kirma\u015fan","name:de":"Kermanschah","source":"openstreetmap.org","name:fr":"Kermanchahan","name:es":"Kermanshah"},"coordinates":[349,2697]},{"type":"Point","properties":{"name:ja":"\u30b3\u30eb\u30c7\u30b9\u30bf\u30fc\u30f3","min_zoom":4.0,"name:uk":"\u041a\u0443\u0440\u0434\u0438\u0441\u0442\u0430\u043d","name:ru":"\u041a\u0443\u0440\u0434\u0438\u0441\u0442\u0430\u043d","name:pl":"Kurdystan","name:hu":"Kurdiszt\u00e1n","name:hr":"Kurdistan","id":496170398,"kind":"region","name:en":"Kurdistan","name":"\u06a9\u0631\u062f\u0633\u062a\u0627\u0646","kind_detail":"state","name:ku":"Kurdistan","name:de":"Kordistan","source":"openstreetmap.org","name:fr":"Kurdistan"},"coordinates":[366,2954]},{"type":"Point","properties":{"name:az":"Q\u0259rbi Az\u0259rbaycan ostan\u0131","name:ja":"\u897f\u30a2\u30fc\u30b6\u30eb\u30d0\u30fc\u30a4\u30b8\u30e3\u30fc\u30f3","min_zoom":4.0,"name:uk":"\u0417\u0430\u0445\u0456\u0434\u043d\u0438\u0439 \u0410\u0437\u0435\u0440\u0431\u0430\u0439\u0434\u0436\u0430\u043d","name:ru":"\u0417\u0430\u043f\u0430\u0434\u043d\u044b\u0439 \u0410\u0437\u0435\u0440\u0431\u0430\u0439\u0434\u0436\u0430\u043d","name:pl":"Azerbejd\u017can Zachodni","name:hu":"Nyugat-Azerbajdzs\u00e1n","name:hr":"Zapadni Azerbejd\u017ean","id":496235899,"kind":"region","name:en":"West Azarbaijan","name":"\u0622\u0630\u0631\u0628\u0627\u06cc\u062c\u0627\u0646 \u063a\u0631\u0628\u06cc","kind_detail":"state","name:ku":"Azerbaycana Rojava","name:de":"West-Aserbaidschan","source":"openstreetmap.org","name:fr":"Azerba\u00efdjan occidental"},"coordinates":[4,3399]},{"type":"Point","properties":{"name:ja":"\u30d6\u30fc\u30b7\u30a7\u30d5\u30eb","min_zoom":4.0,"name:uk":"\u0411\u0443\u0448\u0435\u0440","name:ru":"\u0411\u0443\u0448\u0438\u0440","name:pl":"Buszehr","name:hu":"Bushehr","name:hr":"Bu\u0161ehr","id":503085943,"kind":"region","name:en":"Bushehr","name":"\u0628\u0648\u0634\u0647\u0631","kind_detail":"state","name:ku":"B\u00fb\u015f\u00eahr","name:de":"Buschehr","source":"openstreetmap.org","name:fr":"Bouchehr"},"coordinates":[1151,1496]},{"type":"Point","properties":{"name:ja":"\u30ae\u30fc\u30e9\u30fc\u30f3","min_zoom":4.0,"name:uk":"\u0413\u0456\u043b\u044f\u043d","name:ru":"\u0413\u0438\u043b\u044f\u043d","name:pl":"Gilan","name:hu":"Gil\u00e1n","name:hr":"Gilan","id":503160180,"kind":"region","name:en":"Gilan","name":"\u06af\u06cc\u0644\u0627\u0646","kind_detail":"state","name:ku":"G\u00eelan","name:de":"Gilan","source":"openstreetmap.org","name:fr":"Gilan"},"coordinates":[797,3313]},{"type":"Point","properties":{"name:ja":"\u30d5\u30fc\u30bc\u30b9\u30bf\u30fc\u30f3","min_zoom":4.0,"name:uk":"\u0425\u0443\u0437\u0435\u0441\u0442\u0430\u043d","name:ru":"\u0425\u0443\u0437\u0435\u0441\u0442\u0430\u043d","name:pl":"Chuzestan","name:hu":"Huzeszt\u00e1n","name:hr":"Huzestan","id":512530444,"kind":"region","name:en":"Khuzestan","name":"\u0627\u0633\u062a\u0627\u0646 \u062e\u0648\u0632\u0633\u062a\u0627\u0646","kind_detail":"state","name:ku":"X\u00fbzistan","name:de":"Khuzestan","source":"openstreetmap.org","name:fr":"Khouzistan"},"coordinates":[730,2068]},{"type":"Point","properties":{"name:ja":"\u30de\u30fc\u30b6\u30f3\u30c0\u30e9\u30fc\u30f3","min_zoom":4.0,"name:uk":"\u041c\u0430\u0437\u0435\u043d\u0434\u0435\u0440\u0430\u043d","name:ru":"\u041c\u0430\u0437\u0435\u043d\u0434\u0435\u0440\u0430\u043d","name:pl":"Mazandaran","name:hu":"M\u00e1zandar\u00e1n","name:hr":"Mazandaran","id":480338321,"kind":"region","name:en":"Mazandaran","name":"\u0645\u0627\u0632\u0646\u062f\u0631\u0627\u0646","kind_detail":"state","name:ku":"Mazenderan","name:de":"Mazandaran","source":"openstreetmap.org","name:fr":"Mazand\u00e9ran"},"coordinates":[1256,3092]},{"type":"Point","properties":{"name:ja":"\u30a8\u30b9\u30d5\u30a1\u30cf\u30fc\u30f3","min_zoom":4.0,"name:uk":"\u0406\u0441\u0444\u0430\u0445\u0430\u043d","name:ru":"\u0418\u0441\u0444\u0430\u0445\u0430\u043d","name:pl":"Isfahan","name:hu":"Iszfah\u00e1n","name:hr":"Isfahan","id":481002194,"kind":"region","name:en":"Isfahan","name":"\u0627\u0635\u0641\u0647\u0627\u0646","kind_detail":"state","name:ku":"\u00cesfehan","name:de":"Esfahan","source":"openstreetmap.org","name:fr":"Ispahan"},"coordinates":[1366,2421]},{"type":"Point","properties":{"kind":"region","name:en":"Syunik","name":"\u054d\u0575\u0578\u0582\u0576\u056b\u0584","name:lt":"Siuniko sritis","kind_detail":"state","min_zoom":4.0,"name:de":"Sjunik","source":"openstreetmap.org","name:fr":"Siounie","name:uk":"\u0421\u044e\u043d\u0456\u043a","name:ru":"\u0421\u044e\u043d\u0438\u043a","name:pl":"Prowincja Sjunik","name:hu":"Szjounik","id":1884053545,"name:es":"Syunik'"},"coordinates":[210,3741]},{"type":"Point","properties":{"kind":"region","name:en":"Tavush","name":"\u054f\u0561\u057e\u0578\u0582\u0577","name:lt":"Tavu\u0161o sritis","kind_detail":"state","min_zoom":4.0,"name:de":"Tawusch","source":"openstreetmap.org","name:fr":"Tavouch","name:uk":"\u0422\u0430\u0432\u0443\u0448","name:ru":"\u0422\u0430\u0432\u0443\u0448","name:pl":"Prowincja Tawusz","name:hu":"Tavous","id":1884053546,"name:es":"Tavush"},"coordinates":[34,4063]},{"type":"Point","properties":{"kind":"region","name:en":"Gegharkunik","name":"\u0533\u0565\u0572\u0561\u0580\u0584\u0578\u0582\u0576\u056b\u0584","name:lt":"Gegarkuniko sritis","kind_detail":"state","min_zoom":4.0,"name:de":"Gegharkunik","source":"openstreetmap.org","name:fr":"G\u00e9gharkounik","name:uk":"\u0490\u0435\u0433\u0430\u0440\u043a\u0443\u043d\u0456\u043a","name:ru":"\u0413\u0435\u0445\u0430\u0440\u043a\u0443\u043d\u0438\u043a","name:pl":"Prowincja Gegharkunik","name:hu":"Gegarkounik","id":1884053542,"name:es":"Geghark'unik'"},"coordinates":[68,3950]}]},"transit":{"type":"GeometryCollection","geometries":[]},"pois":{"type":"GeometryCollection","geometries":[]},"boundaries":{"type":"GeometryCollection","geometries":[{"type":"LineString","properties":{"source":"naturalearthdata.com","kind":"country","sort_rank":262,"kind_detail":"2","min_zoom":0.0,"id":91},"arcs":[0]},{"type":"LineString","properties":{"source":"naturalearthdata.com","kind":"country","sort_rank":262,"kind_detail":"2","min_zoom":0.0,"id":299},"arcs":[1]},{"type":"LineString","properties":{"source":"naturalearthdata.com","kind":"country","sort_rank":262,"kind_detail":"2","min_zoom":0.0,"id":48},"arcs":[2]},{"type":"LineString","properties":{"source":"naturalearthdata.com","kind":"country","sort_rank":262,"kind_detail":"2","min_zoom":0.0,"id":49},"arcs":[3]},{"type":"LineString","properties":{"source":"naturalearthdata.com","kind":"country","sort_rank":262,"kind_detail":"2","min_zoom":0.0,"id":79},"arcs":[4]},{"type":"LineString","properties":{"source":"naturalearthdata.com","kind":"country","sort_rank":262,"kind_detail":"2","min_zoom":0.0,"id":102},"arcs":[5]},{"type":"LineString","properties":{"source":"naturalearthdata.com","kind":"country","sort_rank":262,"kind_detail":"2","min_zoom":0.0,"id":167},"arcs":[6]},{"type":"LineString","properties":{"source":"naturalearthdata.com","kind":"country","sort_rank":262,"kind_detail":"2","min_zoom":0.0,"id":172},"arcs":[7]},{"type":"LineString","properties":{"source":"naturalearthdata.com","kind":"country","sort_rank":262,"kind_detail":"2","min_zoom":0.0,"id":212},"arcs":[8]},{"type":"LineString","properties":{"source":"naturalearthdata.com","kind":"country","sort_rank":262,"kind_detail":"2","min_zoom":0.0,"id":244},"arcs":[9]},{"type":"LineString","properties":{"source":"naturalearthdata.com","kind":"country","sort_rank":262,"kind_detail":"2","min_zoom":0.0,"id":245},"arcs":[10]},{"type":"LineString","properties":{"source":"naturalearthdata.com","kind":"country","sort_rank":262,"kind_detail":"2","min_zoom":0.0,"id":246},"arcs":[11]},{"type":"LineString","properties":{"source":"naturalearthdata.com","kind":"country","sort_rank":262,"kind_detail":"2","min_zoom":0.0,"id":317},"arcs":[12]},{"type":"LineString","properties":{"source":"naturalearthdata.com","kind":"country","sort_rank":262,"kind_detail":"2","min_zoom":0.0,"id":292},"arcs":[13]},{"type":"LineString","properties":{"source":"naturalearthdata.com","kind":"country","sort_rank":262,"kind_detail":"2","min_zoom":0.0,"id":293},"arcs":[14]},{"type":"LineString","properties":{"source":"naturalearthdata.com","kind":"country","sort_rank":262,"kind_detail":"2","min_zoom":0.0,"id":300},"arcs":[15]},{"type":"LineString","properties":{"source":"naturalearthdata.com","kind":"country","sort_rank":262,"kind_detail":"2","min_zoom":0.0,"id":301},"arcs":[16]},{"type":"LineString","properties":{"source":"naturalearthdata.com","kind":"country","sort_rank":262,"kind_detail":"2","min_zoom":0.0,"id":303},"arcs":[17]},{"type":"LineString","properties":{"source":"naturalearthdata.com","kind":"country","sort_rank":262,"kind_detail":"2","min_zoom":0.0,"id":311},"arcs":[18]},{"type":"LineString","properties":{"source":"naturalearthdata.com","kind":"country","sort_rank":262,"kind_detail":"2","min_zoom":0.0,"id":328},"arcs":[19]},{"type":"LineString","properties":{"source":"naturalearthdata.com","kind":"country","sort_rank":262,"kind_detail":"2","min_zoom":0.0,"id":329},"arcs":[20]},{"type":"LineString","properties":{"source":"naturalearthdata.com","kind":"country","sort_rank":262,"kind_detail":"2","min_zoom":0.0,"id":341},"arcs":[21]}]},"roads":{"type":"GeometryCollection","geometries":[]},"earth":{"type":"GeometryCollection","geometries":[{"type":"MultiPolygon","properties":{"sort_rank":10,"source":"naturalearthdata.com","min_zoom":0.0,"kind":"earth","area":14477188419404},"arcs":[[[67]],[[68]],[[69]],[[70]],[[71]],[[72]],[[73]]]}]},"landuse":{"type":"GeometryCollection","geometries":[{"type":"Polygon","properties":{"kind":"protected_area","name":"\u0627\u0644\u0628\u0631\u0632","area":6151719936,"sort_rank":17,"source":"openstreetmap.org","min_zoom":4.0,"tier":2,"id":-6525676,"osm_relation":true,"protect_class":"5"},"arcs":[[74]]},{"type":"Polygon","properties":{"kind":"protected_area","name":"\u0628\u062e\u062a\u06af\u0627\u0646","area":1630279936,"sort_rank":17,"source":"openstreetmap.org","min_zoom":4.0,"tier":2,"id":-6531581,"osm_relation":true,"protect_class":"4"},"arcs":[[75]]},{"type":"Polygon","properties":{"kind":"protected_area","name":"\u067e\u0627\u0631\u06a9 \u0645\u0644\u06cc \u06a9\u0648\u06cc\u0631","area":30491099136,"sort_rank":17,"source":"openstreetmap.org","min_zoom":4.0,"tier":2,"id":458203518,"protect_class":"2"},"arcs":[[76]]},{"type":"Polygon","properties":{"kind":"protected_area","name":"\u0627\u0646\u06af\u0648\u0631\u0627\u0646","area":1435670016,"sort_rank":17,"source":"openstreetmap.org","min_zoom":4.0,"tier":2,"id":-7460366,"osm_relation":true,"protect_class":"5"},"arcs":[[77]]},{"type":"Polygon","properties":{"kind":"nature_reserve","name":"Gapla\u0148gyr goraghanasy","area":29092700160,"sort_rank":23,"source":"openstreetmap.org","min_zoom":4.0,"tier":2,"id":-6313264,"osm_relation":true},"arcs":[[78]]},{"type":"Polygon","properties":{"kind":"protected_area","name":"\u06af\u0627\u0646\u062f\u0648","area":5747910144,"sort_rank":17,"source":"openstreetmap.org","min_zoom":4.0,"tier":2,"id":-6524135,"osm_relation":true,"protect_class":"5"},"arcs":[[79]]},{"type":"Polygon","properties":{"kind":"national_park","name":"\u067e\u0627\u0631\u06a9 \u0645\u0644\u06cc \u06af\u0644\u0633\u062a\u0627\u0646","area":1388290048,"sort_rank":18,"operator":"Department of Environment, Iran","source":"openstreetmap.org","min_zoom":3.0,"tier":1,"id":434996205,"protect_class":"2"},"arcs":[[80]]},{"type":"MultiPolygon","properties":{"source":"naturalearthdata.com","kind":"urban_area","name":"","area":103664771240,"sort_rank":11,"min_zoom":4.0},"arcs":[[[81]],[[82]],[[83]],[[84]],[[85]],[[86]],[[87]],[[88]],[[89]],[[90]],[[91]],[[92]],[[93]],[[94]],[[95]],[[96]],[[97]],[[98]],[[99]],[[100]],[[101]],[[102]],[[103]],[[104]],[[105]],[[106]],[[107]],[[108]],[[109]],[[110]],[[111]],[[112]],[[113]],[[114]],[[115]],[[116]],[[117]],[[118]],[[119]],[[120]],[[121]],[[122]],[[123]],[[124]],[[125]],[[126]],[[127]],[[128]],[[129]],[[130]],[[131]],[[132]],[[133]],[[134]],[[135]],[[136]],[[137]],[[138]],[[139]],[[140]],[[141]],[[142]],[[143]],[[144]],[[145]],[[146]],[[147]],[[148]],[[149]],[[150]],[[151]],[[152]],[[153]],[[154]],[[155]],[[156]],[[157]],[[158]],[[159]],[[160]],[[161]],[[162]],[[163]],[[164]],[[165]],[[166]],[[167]],[[168]],[[169]],[[170]],[[171]],[[172]],[[173]],[[174]],[[175]],[[176]],[[177]],[[178]],[[179]],[[180]],[[181]],[[182]],[[183]],[[184]],[[185]],[[186]],[[187]],[[188]],[[189]],[[190]],[[191]],[[192]],[[193]],[[194]],[[195]],[[196]],[[197]],[[198]],[[199]],[[200]],[[201]],[[202]],[[203]]]},{"type":"Polygon","properties":{"kind":"protected_area","name":"\u0647\u0627\u0645\u0648\u0646","area":3996270080,"sort_rank":17,"source":"openstreetmap.org","min_zoom":4.0,"tier":2,"id":-6531583,"osm_relation":true,"protect_class":"4"},"arcs":[[204]]},{"type":"Polygon","properties":{"kind":"nature_reserve","name":"\u0645\u0646\u0637\u0642\u0647 \u062d\u0641\u0627\u0638\u062a \u0634\u062f\u0647 \u062a\u0648\u0631\u0627\u0646","area":1543229952,"sort_rank":23,"source":"openstreetmap.org","min_zoom":4.0,"tier":2,"id":321336003,"protect_class":"2"},"arcs":[[205]]},{"type":"Polygon","properties":{"kind":"protected_area","name":"\u06a9\u06cc\u0627\u0645\u06a9\u06cc","area":1599800064,"sort_rank":17,"source":"openstreetmap.org","min_zoom":4.0,"tier":2,"id":-6531584,"osm_relation":true,"protect_class":"4"},"arcs":[[206]]}]}},"type":"Topology","transform":{"translate":[45.0,21.9430455334],"scale":[0.0054931641,0.0046476691]},"arcs":[[[1141,573],[-16,-4],[-16,-5],[-13,0],[-10,2],[-7,5],[-13,18],[-9,23]],[[279,1539],[-32,-7],[-74,7],[-82,8],[-82,7],[-9,1]],[[77,4096],[4,-7],[14,-11],[12,-11],[1,-3],[-3,-6],[-32,-21],[-4,-7],[-1,-8],[15,-22],[21,-25],[30,-19],[42,-21],[0,-12],[-6,-15],[-6,-11],[-3,-6],[-5,-3],[-41,0],[-7,-2],[-2,-3],[0,-3],[14,-4],[24,-16],[13,-16],[14,-7],[16,-12],[12,-12],[20,-15],[22,5],[29,-14],[1,-9],[-2,-8],[-18,-9],[-2,-3],[0,-3],[2,-5],[11,-7],[12,-11],[14,-16],[-6,-5],[-13,0],[-10,2],[-4,-4],[0,-5],[14,-12],[2,-9],[0,-16],[0,-19]],[[0,3833],[6,2],[8,-5],[9,-10],[4,-9],[1,-16],[3,-2],[15,5],[6,-6],[12,-8],[19,-8],[28,12],[14,3],[12,0],[6,-4],[2,-12],[-2,-15],[-3,-9],[5,-6],[23,-14],[10,-9],[-5,-14],[17,-34],[6,-14],[7,-16]],[[1854,164],[2,31],[-1,16],[2,24],[13,33],[15,43],[11,28],[9,25],[8,19],[4,21],[-2,14],[-5,5],[-4,7],[14,11],[27,7],[15,-2],[21,5],[17,5],[1,7],[-5,10],[-7,16],[-23,1],[-7,5],[8,23],[0,7],[-3,9],[-4,14],[2,19],[5,12],[0,11],[-2,21],[0,18],[5,10],[9,8],[8,5],[9,-1],[7,-3],[3,-10],[-2,-7],[-5,-1],[-2,-3],[7,-13],[10,-12],[8,2],[9,10],[9,8],[11,7],[9,14],[7,9],[6,1]],[[279,1539],[29,35],[14,19],[25,41],[13,29],[12,32],[11,26],[2,4],[6,9],[14,8],[19,9],[34,3],[23,0],[6,0],[14,-4],[41,-20]],[[0,3761],[13,-13],[8,-11],[5,-12],[9,-9],[12,-4],[14,-12],[10,-9],[16,-20],[18,-7],[63,-14],[35,-6],[10,-2],[27,9],[31,-1],[12,-1],[42,40],[12,13],[25,7],[14,15],[22,19],[28,18],[25,16],[19,10],[35,23],[22,7],[18,0],[29,-26],[23,-25],[8,-10],[-12,-10],[-22,-9],[-4,-7],[-2,-8],[1,-8],[3,-7],[27,-16],[3,-8],[0,-9],[-3,-5],[-6,-4],[-19,-4],[-16,-5],[-5,-5],[-5,-6],[0,-6],[5,-8],[33,-20],[4,-8],[7,-10],[8,-6],[14,-2],[6,-4],[32,-38],[8,-2],[37,8],[5,0]],[[4096,3783],[-2,-1],[-5,-8],[-6,-4],[-14,-48],[1,-5],[8,-5],[18,-4]],[[3091,4096],[7,-19],[14,-45],[17,-30],[20,-16],[14,-29],[12,-64],[8,-13],[7,-7],[23,-18],[47,-31],[27,-18],[43,-29],[39,-26],[39,-41],[8,-5],[34,-22],[38,-23],[27,5],[41,-35],[16,-12],[7,-5],[29,-13],[47,-29],[59,-41],[38,-24],[11,-3],[11,1],[11,5],[12,4],[21,-6],[22,-9],[14,-7],[17,-11],[13,-10],[10,-4],[34,-9],[5,-5],[4,-6],[1,-6],[-19,-31],[-3,-40],[0,-31],[2,-23]],[[627,1420],[-32,0],[-40,-1],[-32,-1],[-37,0],[-16,20],[-5,23],[-6,22],[-16,33],[-54,8],[-28,4],[-47,6],[-35,5]],[[0,3179],[4,-4],[2,-9],[-1,-13],[1,-15],[4,-12],[5,-9],[5,-4],[8,-1],[10,-2],[6,-9],[20,-65],[2,-8],[8,-3],[14,1],[14,-6],[15,-11],[15,-20],[9,-3],[30,3],[42,-3],[19,-10],[-2,-7],[-15,-7],[-26,-8],[-8,-14],[-4,-18],[1,-10],[6,-11],[18,-22],[1,-8],[4,-12],[3,-7],[-4,-15],[-16,-10],[-22,-12],[-45,-49],[-3,-11],[0,-29],[-4,-8],[-14,0],[-11,1],[0,-10],[-7,-14],[-4,-11],[16,-29],[3,-14],[-3,-14],[-15,-23],[-9,-16],[2,-4],[12,-6],[37,-51],[11,-18],[16,4],[6,0],[4,-3],[3,-6],[0,-8],[-4,-11],[20,-5],[7,-12],[23,-40],[-1,-11],[-11,-19],[0,-13],[2,-11],[4,-4],[33,-2],[15,-4],[35,-21],[40,-31],[32,-26],[28,-22],[30,2],[8,-4],[8,-7],[8,-18],[17,-41],[15,-13],[22,-33],[21,-30],[-14,-42],[-13,-43],[0,-56],[0,-30],[28,-1],[32,-1],[0,-36],[1,-36],[0,-41],[9,-2],[15,-9],[6,-13],[8,-7],[10,-2],[9,-6],[10,-12],[3,-9],[-2,-6],[2,-11],[6,-15],[8,-8],[13,-9]],[[2960,2943],[-4,8],[0,10],[4,12],[-1,23],[-9,16],[-9,8],[1,5],[4,11],[5,10],[0,20],[-6,21],[-3,31],[2,30],[-10,15],[-74,0],[-67,-1],[-4,3],[-26,38],[-21,29],[-21,17],[-47,20],[-23,9],[-20,16],[-16,17],[-4,24],[-3,8],[-4,7],[-5,2],[-7,0],[-55,27],[-22,8],[-21,-6],[-9,-1],[-18,8],[-21,-11],[-9,-1],[-13,3],[-10,4],[-28,25],[-23,10],[-17,7],[-32,9],[-35,5],[-17,5],[-13,5],[-3,4],[0,9],[-1,12],[-4,9],[-9,10],[-12,8],[-21,-1],[-31,1],[-24,8],[-20,1],[-22,-1],[-19,0],[-14,-6],[-8,-7],[-4,-21],[-5,-3],[-8,-1],[-10,1],[-22,0],[-38,3],[-48,1],[-36,-10],[-29,-15],[-27,-17],[-32,-27],[-9,-12],[-19,-47],[-8,-7],[-11,-6],[-11,-1],[-22,-7],[-29,-11],[-20,-5],[-50,3]],[[92,4028],[-5,-3],[0,-9],[7,-2],[7,4],[1,7],[-5,3],[-5,0]],[[1854,164],[14,-25],[11,-20],[15,-28],[16,-29],[16,-28],[11,-21],[-3,-13]],[[1854,164],[-12,-17],[-3,-1],[-14,2],[-5,1],[-14,2],[-21,3],[-28,4],[-33,5],[-36,5],[-40,6],[-40,5],[-41,6],[-39,6],[-37,5],[-32,5],[-28,4],[-22,3],[-13,2],[-5,1],[-16,2],[-8,12],[-10,14],[-10,14],[-10,14],[-10,14],[-10,14],[-10,14],[-10,14],[-10,14],[-10,14],[-10,15],[-10,14],[-10,14],[-10,14],[-10,14],[-10,14],[-10,14],[-7,10],[-4,10],[0,28],[0,6]],[[3020,701],[5,18],[4,65],[6,23],[-2,12],[1,4],[13,11],[3,5],[5,33],[5,36],[6,14],[5,3],[40,16],[7,11],[20,-2],[2,2],[2,13],[10,14],[13,11],[10,4],[36,7],[21,9],[6,1],[56,-2],[12,4],[1,3],[4,37],[10,6],[1,3],[-3,26],[2,17],[11,10],[0,6],[-9,12],[-11,8],[-5,1],[-46,-7],[-18,2],[-9,5],[-2,3],[2,8],[0,12],[7,19],[2,11],[-6,65],[-8,44],[5,43],[-1,9],[-2,2],[-6,0],[-27,-4],[-24,28],[-15,10],[-40,14],[-18,3],[-26,12],[-24,26],[-25,27],[-10,17],[-11,29],[-31,55],[1,15],[-4,9],[-31,36],[-21,26],[-35,42]],[[2884,1703],[48,58],[41,51],[42,51],[40,50],[5,17],[1,34],[-11,46],[-17,21],[-57,8],[-43,7],[-47,7],[-6,2],[-5,36],[2,16],[-3,30],[0,24],[7,39],[1,18],[-22,75],[-12,42],[-12,43],[-3,14],[0,17],[28,40],[9,8],[17,20],[11,11],[-2,7],[-19,4],[-27,1],[-15,6],[-11,10],[-5,16],[8,28],[-8,55],[15,26],[14,19],[45,3],[-16,21],[-8,12],[-4,4],[-2,6],[2,5],[12,3],[8,7],[12,10],[7,4],[1,12],[6,9],[9,10],[7,12],[-2,15],[7,17],[3,10],[5,10],[-4,13],[-4,11],[-1,14],[7,4],[9,4],[2,11],[5,14],[3,10],[6,9],[1,8],[-4,15]],[[2884,1703],[70,-23],[54,-18],[87,-29],[68,-23],[19,-4],[198,20],[74,-15],[23,-8],[3,5],[10,9],[17,10],[24,9],[23,4],[33,0],[22,0],[17,-3],[32,2],[16,4],[53,16],[35,10],[54,17],[39,12],[10,7],[10,11],[5,11],[-12,16],[-2,14],[8,18],[5,28],[-1,39],[-3,22],[11,42],[9,24],[18,11],[13,7],[5,5],[6,6],[19,32],[18,14],[17,9],[19,-1],[16,-12],[31,-5],[30,3],[9,3]],[[2017,886],[7,2],[9,-5],[1,-22],[-3,-21],[-1,-22],[-1,-12],[7,-9],[12,-5],[5,1],[4,5]],[[3918,3315],[56,5],[44,-8],[23,-22],[22,-5],[22,10],[11,2]],[[2960,2943],[15,2],[6,-8],[8,-10],[23,-19],[14,-6],[18,-2],[22,2],[17,4],[9,-1],[19,-14],[23,-19],[7,-9],[3,-13],[7,-4],[14,13],[14,4],[13,-2],[14,-1],[14,4],[6,4],[25,17],[22,12],[14,8],[5,27],[7,15],[9,8],[-4,11],[-4,8],[-3,12],[3,5],[9,3],[23,0],[39,12],[33,12],[30,9],[14,2],[13,-2],[6,3],[1,9],[8,10],[16,8],[32,16],[28,25],[10,19],[7,27],[13,42],[14,46],[5,20],[6,16],[25,13],[25,10],[39,2],[46,1],[10,25],[6,21],[7,11],[11,9],[4,2],[25,-13],[38,-20],[44,-10],[22,-5],[9,1]],[[2045,723],[-3,-8],[-1,-11],[5,-1],[8,5],[1,10],[-2,4],[-8,1]],[[3243,1361],[5,14],[1,22],[14,13],[14,-9],[14,-17],[34,-18],[19,-10],[8,-15],[1,-3],[-5,-6],[-2,-5],[-21,9],[-21,1],[-12,-7],[-14,-17],[-12,-8],[-18,5],[-14,7],[-10,8],[-5,14],[13,2],[10,6],[1,14]],[[1302,2699],[-1,-13],[-10,-11],[-43,-6],[-24,-1],[-19,6],[-9,18],[2,16],[15,10],[16,19],[11,21],[14,3],[27,-30],[21,-32]],[[2364,2011],[7,-12],[-5,-28],[-2,-33],[11,-21],[94,-42],[25,-36],[22,-41],[1,-20],[-11,-8],[-24,6],[-79,75],[-26,18],[-13,14],[-14,10],[-8,48],[5,27],[5,43],[12,0]],[[2534,1223],[24,-3],[11,6],[2,-9],[-6,-25],[-16,-20],[-3,-15],[-8,-21],[-19,-9],[-19,6],[-8,12],[4,40],[1,31],[8,8],[10,1],[19,-2]],[[4096,454],[0,-22],[-4,15],[-4,4],[8,3]],[[1417,2769],[-21,-10],[-20,2],[-49,18],[-53,34],[-20,9],[-4,11],[7,6],[78,6],[27,4],[29,4],[21,3],[22,1],[0,-11],[-15,-9],[-14,-10],[-1,-20],[0,-8],[11,-12],[7,-8],[-5,-10]],[[0,4017],[3,0],[14,-5],[27,-17],[13,-5],[11,-2],[12,-9],[18,-15],[12,-10],[6,-9],[3,-8],[1,-5],[-1,-5],[-8,-5],[-12,-3],[-11,0],[-17,-1],[-14,-1],[-7,3],[-5,8],[-5,21],[-7,19],[-5,4],[-5,5],[-6,7],[-10,7],[-7,4],[0,22]],[[2179,2721],[2,-18],[-4,-10],[-36,-25],[-9,3],[-13,5],[-20,-2],[-39,-40],[-8,-24],[-5,-11],[-15,-16],[-48,-78],[-11,-25],[-22,-5],[-24,31],[-16,28],[-47,19],[-4,21],[16,38],[-4,17],[-17,14],[-64,4],[-34,1],[-27,-13],[-47,-29],[-12,-22],[-10,-20],[-6,-11],[-10,-6],[-24,0],[-14,7],[-31,19],[-20,3],[-21,1],[-17,2],[-17,14],[-62,40],[-12,22],[12,19],[26,41],[11,14],[21,-4],[13,2],[19,9],[19,20],[46,8],[64,21],[105,56],[41,16],[140,34],[8,16],[13,16],[22,15],[33,11],[24,-4],[16,-27],[14,-10],[37,-48],[51,-67],[8,-38],[6,-13],[3,-21]],[[1770,4096],[0,-6],[-2,-13],[-5,-4],[-5,-3],[-20,-6],[-31,9],[-10,-8],[3,-15],[7,-16],[-9,-1],[-8,1],[-16,6],[-19,-3],[-40,-12],[-20,3],[-12,18],[-15,15],[-17,3],[-18,-8],[-16,-2],[-26,5],[-8,4],[-16,14],[-11,15],[-3,4],[317,0]],[[1443,4096],[-7,-25],[-7,-38],[-12,-30],[-9,-32],[2,-39],[11,-35],[17,-31],[12,-17],[13,-12],[-15,26],[6,19],[28,-1],[27,-5],[21,1],[9,-5],[6,-6],[-5,-17],[-2,-18],[4,-17],[11,-6],[9,-7],[4,-13],[-19,-3],[-20,0],[-15,5],[-13,11],[-20,-38],[0,-18],[6,-18],[8,11],[12,6],[13,-1],[25,-7],[12,-7],[14,-13],[16,-1],[1,-12],[2,-11],[17,-18],[9,-15],[4,-18],[-3,-27],[-4,-25],[-2,-23],[2,-24],[1,-26],[-5,-51],[-1,-26],[5,-55],[9,-55],[3,-15],[7,-35],[12,-50],[1,-11],[-2,-11],[-8,-6],[-12,-2],[-25,2],[-16,7],[27,6],[16,11],[-27,0],[-72,-14],[-215,-53],[-78,-1],[-117,27],[-35,15],[-72,44],[-35,29],[-23,41],[-7,9],[-8,5],[-27,8],[-46,8],[-47,4],[-18,5],[-37,17],[-16,14],[-12,24],[-10,24],[-6,27],[-5,28],[-5,53],[-1,10],[-3,81],[1,5],[13,27],[6,25],[10,12],[17,-11],[0,-12],[2,-5],[8,6],[7,9],[12,45],[10,10],[7,4],[1,11],[-7,22],[-1,23],[17,50],[11,53],[14,23],[21,12],[22,8],[23,6],[41,2],[41,-10],[-11,29],[-11,11],[-12,9],[-11,6],[-23,9],[-26,0],[-14,2],[-10,5],[-30,23],[-18,18],[-33,39],[665,0]],[[1460,3681],[5,-33],[10,-30],[1,10],[-10,50],[7,12],[-7,1],[-6,-10]],[[4096,432],[0,-432],[-1430,0],[1,2],[6,22],[21,36],[5,18],[2,25],[-3,19],[-23,8],[-29,7],[-19,17],[-22,29],[-21,38],[-30,35],[-8,22],[-13,21],[-15,14],[-11,26],[-35,27],[-14,0],[-20,-6],[-12,2],[-38,20],[-53,9],[-39,9],[-71,26],[-18,12],[-38,37],[-26,40],[-24,29],[-27,53],[-19,56],[-3,9],[-1,118],[-12,18],[1,12],[4,10],[9,11],[7,65],[1,22],[2,25],[-3,5],[-7,2],[-5,-10],[-8,-16],[-14,-4],[-6,2],[-6,-5],[-15,-31],[-1,-2],[-9,-29],[-15,-26],[-76,-64],[-17,-22],[-20,-21],[-3,-13],[-38,-42],[-64,-50],[-16,-20],[-6,-21],[-8,-12],[-8,-7],[-7,-15],[-7,-22],[-11,-18],[-17,-5],[-29,-18],[-46,-20],[-17,-1],[-86,6],[-55,10],[-69,2],[-25,-9],[-47,-25],[-24,-6],[-39,3],[-11,6],[-10,14],[-4,38],[-6,2],[-13,-3],[-7,11],[-4,8],[-6,-11],[-6,0],[-11,5],[-15,2],[-15,5],[11,29],[8,12],[-1,8],[-13,-1],[-13,9],[23,8],[6,5],[19,48],[10,16],[4,19],[-1,21],[-8,29],[-7,23],[-2,13],[-4,16],[7,34],[8,21],[-5,26],[-28,23],[-23,31],[-28,-16],[-19,-21],[-18,-55],[-7,-24],[-12,-25],[-7,-12],[-1,-9],[4,-48],[12,-62],[-2,-8],[-5,-14],[-15,18],[-10,20],[-20,26],[-9,48],[-10,25],[-32,31],[-7,12],[-9,28],[-11,20],[-9,25],[-9,32],[4,2],[8,-1],[7,-3],[4,0],[10,44],[-5,21],[-14,11],[-15,15],[-3,18],[0,15],[3,4],[11,-5],[9,-3],[2,0],[-29,36],[-49,28],[-33,42],[-24,6],[-23,28],[-19,27],[11,12],[-14,8],[-13,4],[-33,17],[-20,21],[2,9],[5,7],[-5,21],[-6,13],[-27,38],[-19,48],[-4,20],[-10,20],[-10,19],[-3,13],[-6,15],[-16,30],[-12,17],[-16,50],[-2,14],[-6,17],[-10,6],[-12,-4],[-16,0],[-22,6],[0,5],[17,15],[28,28],[14,-4],[7,-4],[10,-1],[-1,9],[-11,21],[-13,26],[-6,24],[1,8],[1,6],[16,7],[13,-1],[39,-18],[18,-4],[17,5],[9,3],[13,12],[30,1],[7,6],[8,13],[-1,25],[-4,19],[5,15],[22,11],[-6,13],[23,0],[17,-8],[4,-13],[-10,-8],[-17,7],[-9,-2],[-8,-5],[4,-9],[5,-5],[68,-38],[23,-22],[78,39],[16,-3],[11,-32],[7,-27],[11,-11],[29,-42],[28,-28],[19,-27],[4,-17],[-4,-28],[5,-14],[22,-6],[15,-12],[0,-13],[-6,-16],[4,-13],[28,-19],[8,-12],[5,-46],[7,-16],[27,-47],[0,-19],[44,-47],[13,-10],[14,-4],[32,1],[34,-6],[29,-23],[52,-21],[23,-27],[6,-22],[10,-14],[53,-39],[66,-30],[20,-13],[10,-20],[36,-27],[21,-4],[45,5],[32,-7],[50,-23],[23,-18],[21,0],[24,11],[48,36],[25,13],[24,-3],[17,12],[13,22],[11,10],[53,13],[32,23],[30,10],[13,2],[68,-15],[15,-9],[18,-20],[13,-19],[10,-23],[7,-26],[6,-66],[17,-46],[1,-26],[10,-26],[13,-27],[73,-14],[11,-16],[26,9],[16,-11],[33,-11],[20,-2],[39,2],[49,-8],[45,-29],[33,2],[42,11],[29,-16],[37,-1],[14,-8],[23,4],[69,-15],[20,27],[14,-5],[5,-18],[9,-11],[80,-21],[25,-9],[31,-8],[14,11],[8,9],[38,-13],[30,-1],[33,5],[11,11],[9,4],[9,-6],[12,-13],[14,4],[10,9],[23,13],[17,2],[64,-9],[28,7],[21,-6],[37,-4],[1,19],[11,12],[30,7],[39,-10],[10,2],[13,11],[12,-6],[5,-9],[71,-20],[9,-7],[12,-5],[21,27],[52,1],[63,13],[50,-4],[37,14],[64,10],[17,0],[13,-4],[12,0],[-11,8],[-9,5],[-41,-3],[5,13],[11,8],[19,2],[19,-5],[19,-20],[7,-23],[23,-33],[2,-24],[-5,-40],[4,-14],[72,-15],[13,-8],[22,-83],[2,-23],[1,-19],[10,-18],[12,-5],[5,-6],[4,-4],[4,-15]],[[1956,1022],[19,8],[8,0],[11,-6],[26,21],[17,26],[16,7],[-12,11],[-25,-5],[-30,-15],[-28,8],[-1,-4],[6,-16],[-4,-9],[-42,-22],[-33,-14],[-10,2],[0,-4],[3,-10],[5,-1],[16,-1],[21,8],[24,14],[13,2]],[[588,1720],[-8,9],[-5,-4],[-4,-14],[-3,-2],[-1,-3],[0,-5],[-6,-11],[11,-28],[7,-12],[7,-2],[10,5],[12,15],[1,5],[1,14],[-22,33]],[[993,914],[6,-29],[-4,-20],[14,-28],[6,-6],[6,17],[2,25],[-2,27],[-9,16],[5,9],[-4,1],[-17,-4],[-3,-8]],[[1716,534],[6,0],[1,4],[-7,6],[-5,8],[-4,-1],[-8,-7],[5,-6],[12,-4]],[[1531,531],[-7,-10],[-7,-5],[-26,-11],[12,-8],[14,1],[9,5],[5,6],[6,13],[-6,9]],[[1608,498],[-26,-10],[-10,-9],[15,-5],[15,-2],[5,4],[18,-3],[0,8],[-6,8],[-11,9]],[[1394,514],[-5,10],[-8,-6],[-1,-3],[4,-12],[3,2],[7,9]],[[475,1882],[-7,-6],[-14,0],[-16,3],[-29,7],[-26,7],[-12,0],[-15,-2],[-14,-1],[-5,-1],[-5,1],[-3,2],[-1,6],[0,5],[-2,3],[-5,3],[-2,2],[-6,3],[-1,6],[6,8],[10,2],[3,0],[8,1],[6,-4],[6,-2],[10,-7],[15,-6],[7,-1],[8,-2],[8,-3],[18,-6],[12,2],[13,6],[8,1],[5,-1],[1,-3],[5,-6],[11,-12],[3,-5]],[[121,3399],[15,-8],[0,-9],[1,-18],[19,-33],[-5,-18],[-23,-8],[-7,-3],[-9,-17],[-15,-16],[-15,3],[-16,16],[-13,46],[-6,38],[-1,15],[-3,17],[-27,26],[-1,22],[13,12],[6,14],[-3,8],[-14,-1],[-14,1],[2,10],[14,16],[46,0],[18,-20],[6,-21],[-8,-31],[-2,-27],[9,-11],[11,0],[22,-3]],[[2645,2689],[-4,-27],[-10,-13],[-15,11],[-12,19],[-65,45],[-40,20],[-24,9],[-35,10],[-33,5],[-42,-17],[-37,-35],[-34,-57],[-11,-54],[-12,-26],[-9,1],[-10,16],[-7,29],[7,25],[13,79],[11,25],[59,34],[37,23],[55,8],[59,9],[15,6],[11,3],[5,-19],[1,-24],[17,-19],[18,-17],[26,-4],[29,-7],[29,-27],[11,-13],[-3,-18]],[[1417,2769],[-21,-10],[-20,2],[-49,18],[-53,34],[-20,9],[-4,11],[7,6],[78,6],[27,4],[29,4],[21,3],[22,1],[0,-11],[-15,-9],[-14,-10],[-1,-20],[0,-8],[11,-12],[7,-8],[-5,-10]],[[3243,1361],[5,14],[1,22],[14,13],[14,-9],[14,-17],[34,-18],[19,-10],[8,-15],[1,-3],[-5,-6],[-2,-5],[-21,9],[-21,1],[-12,-7],[-14,-17],[-12,-8],[-18,5],[-14,7],[-10,8],[-5,14],[13,2],[10,6],[1,14]],[[2534,1223],[24,-3],[11,6],[2,-9],[-6,-25],[-16,-20],[-3,-15],[-8,-21],[-19,-9],[-19,6],[-8,12],[4,40],[1,31],[8,8],[10,1],[19,-2]],[[1302,2699],[-1,-13],[-10,-11],[-43,-6],[-24,-1],[-19,6],[-9,18],[2,16],[15,10],[16,19],[11,21],[14,3],[27,-30],[21,-32]],[[2645,2689],[-4,-27],[-10,-13],[-15,11],[-12,19],[-65,45],[-40,20],[-24,9],[-35,10],[-33,5],[-42,-17],[-37,-35],[-34,-57],[-11,-54],[-12,-26],[-9,1],[-10,16],[-7,29],[7,25],[13,79],[11,25],[59,34],[37,23],[55,8],[59,9],[15,6],[11,3],[5,-19],[1,-24],[17,-19],[18,-17],[26,-4],[29,-7],[29,-27],[11,-13],[-3,-18]],[[2364,2011],[7,-12],[-5,-28],[-2,-33],[11,-21],[94,-42],[25,-36],[22,-41],[1,-20],[-11,-8],[-24,6],[-79,75],[-26,18],[-13,14],[-14,10],[-8,48],[5,27],[5,43],[12,0]],[[2179,2721],[2,-18],[-4,-10],[-36,-25],[-9,3],[-13,5],[-20,-2],[-39,-40],[-8,-24],[-5,-11],[-15,-16],[-48,-78],[-11,-25],[-22,-5],[-24,31],[-16,28],[-47,19],[-4,21],[16,38],[-4,17],[-17,14],[-64,4],[-34,1],[-27,-13],[-47,-29],[-12,-22],[-10,-20],[-6,-11],[-10,-6],[-24,0],[-14,7],[-31,19],[-20,3],[-21,1],[-17,2],[-17,14],[-62,40],[-12,22],[12,19],[26,41],[11,14],[21,-4],[13,2],[19,9],[19,20],[46,8],[64,21],[105,56],[41,16],[140,34],[8,16],[13,16],[22,15],[33,11],[24,-4],[16,-27],[14,-10],[37,-48],[51,-67],[8,-38],[6,-13],[3,-21]],[[4096,432],[-4,15],[-4,4],[8,3]],[[121,3399],[15,-8],[0,-9],[1,-18],[19,-33],[-5,-18],[-23,-8],[-7,-3],[-9,-17],[-15,-16],[-15,3],[-16,16],[-13,46],[-6,38],[-1,15],[-3,17],[-27,26],[-1,22],[13,12],[6,14],[-3,8],[-14,-1],[-14,1],[2,10],[14,16],[46,0],[18,-20],[6,-21],[-8,-31],[-2,-27],[9,-11],[11,0],[22,-3]],[[1466,3678],[10,-50],[-1,-10],[-10,30],[-5,33],[6,10],[7,-1],[-7,-12]],[[0,4017],[3,0],[14,-5],[27,-17],[13,-5],[11,-2],[12,-9],[18,-15],[12,-10],[6,-9],[3,-8],[1,-5],[-1,-5],[-8,-5],[-12,-3],[-11,0],[-17,-1],[-14,-1],[-7,3],[-5,8],[-5,21],[-7,19],[-5,4],[-5,5],[-6,7],[-10,7],[-7,4]],[[475,1882],[-7,-6],[-14,0],[-16,3],[-29,7],[-26,7],[-12,0],[-15,-2],[-14,-1],[-5,-1],[-5,1],[-3,2],[-1,6],[0,5],[-2,3],[-5,3],[-2,2],[-6,3],[-1,6],[6,8],[10,2],[3,0],[8,1],[6,-4],[6,-2],[10,-7],[15,-6],[7,-1],[8,-2],[8,-3],[18,-6],[12,2],[13,6],[8,1],[5,-1],[1,-3],[5,-6],[11,-12],[3,-5]],[[1537,522],[-6,9],[-7,-10],[-7,-5],[-26,-11],[12,-8],[14,1],[9,5],[5,6],[6,13]],[[1384,503],[3,2],[7,9],[-5,10],[-8,-6],[-1,-3],[4,-12]],[[2016,1084],[-30,-15],[-28,8],[-1,-4],[6,-16],[-4,-9],[-42,-22],[-33,-14],[-10,2],[0,-4],[3,-10],[5,-1],[16,-1],[21,8],[24,14],[13,2],[19,8],[8,0],[11,-6],[26,21],[17,26],[16,7],[-12,11],[-25,-5]],[[1602,472],[5,4],[18,-3],[0,8],[-6,8],[-11,9],[-26,-10],[-10,-9],[15,-5],[15,-2]],[[996,922],[-3,-8],[6,-29],[-4,-20],[14,-28],[6,-6],[6,17],[2,25],[-2,27],[-9,16],[5,9],[-4,1],[-17,-4]],[[610,1687],[-22,33],[-8,9],[-5,-4],[-4,-14],[-3,-2],[-1,-3],[0,-5],[-6,-11],[11,-28],[7,-12],[7,-2],[10,5],[12,15],[1,5],[1,14]],[[1768,4077],[-5,-4],[-5,-3],[-20,-6],[-31,9],[-10,-8],[3,-15],[7,-16],[-9,-1],[-8,1],[-16,6],[-19,-3],[-40,-12],[-20,3],[-12,18],[-15,15],[-17,3],[-18,-8],[-16,-2],[-26,5],[-8,4],[-16,14],[-11,15],[-3,4]],[[1443,4096],[-7,-25],[-7,-38],[-12,-30],[-9,-32],[2,-39],[11,-35],[17,-31],[12,-17],[13,-12],[-15,26],[6,19],[28,-1],[27,-5],[21,1],[9,-5],[6,-6],[-5,-17],[-2,-18],[4,-17],[11,-6],[9,-7],[4,-13],[-19,-3],[-20,0],[-15,5],[-13,11],[-20,-38],[0,-18],[6,-18],[8,11],[12,6],[13,-1],[25,-7],[12,-7],[14,-13],[16,-1],[1,-12],[2,-11],[17,-18],[9,-15],[4,-18],[-3,-27],[-4,-25],[-2,-23],[2,-24],[1,-26],[-5,-51],[-1,-26],[5,-55],[9,-55],[3,-15],[7,-35],[12,-50],[1,-11],[-2,-11],[-8,-6],[-12,-2],[-25,2],[-16,7],[27,6],[16,11],[-27,0],[-72,-14],[-215,-53],[-78,-1],[-117,27],[-35,15],[-72,44],[-35,29],[-23,41],[-7,9],[-8,5],[-27,8],[-46,8],[-47,4],[-18,5],[-37,17],[-16,14],[-12,24],[-10,24],[-6,27],[-5,28],[-5,53],[-1,10],[-3,81],[1,5],[13,27],[6,25],[10,12],[17,-11],[0,-12],[2,-5],[8,6],[7,9],[12,45],[10,10],[7,4],[1,11],[-7,22],[-1,23],[17,50],[11,53],[14,23],[21,12],[22,8],[23,6],[41,2],[41,-10],[-11,29],[-11,11],[-12,9],[-11,6],[-23,9],[-26,0],[-14,2],[-10,5],[-30,23],[-18,18],[-33,39]],[[1770,4096],[0,-6],[-2,-13]],[[2666,0],[1,2],[6,22],[21,36],[5,18],[2,25],[-3,19],[-23,8],[-29,7],[-19,17],[-22,29],[-21,38],[-30,35],[-8,22],[-13,21],[-15,14],[-11,26],[-35,27],[-14,0],[-20,-6],[-12,2],[-38,20],[-53,9],[-39,9],[-71,26],[-18,12],[-38,37],[-26,40],[-24,29],[-27,53],[-19,56],[-3,9],[-1,118],[-12,18],[1,12],[4,10],[9,11],[7,65],[1,22],[2,25],[-3,5],[-7,2],[-5,-10],[-8,-16],[-14,-4],[-6,2],[-6,-5],[-15,-31],[-1,-2],[-9,-29],[-15,-26],[-76,-64],[-17,-22],[-20,-21],[-3,-13],[-38,-42],[-64,-50],[-16,-20],[-6,-21],[-8,-12],[-8,-7],[-7,-15],[-7,-22],[-11,-18],[-17,-5],[-29,-18],[-46,-20],[-17,-1],[-86,6],[-55,10],[-69,2],[-25,-9],[-47,-25],[-24,-6],[-39,3],[-11,6],[-10,14],[-4,38],[-6,2],[-13,-3],[-7,11],[-4,8],[-6,-11],[-6,0],[-11,5],[-15,2],[-15,5],[11,29],[8,12],[-1,8],[-13,-1],[-13,9],[23,8],[6,5],[19,48],[10,16],[4,19],[-1,21],[-8,29],[-7,23],[-2,13],[-4,16],[7,34],[8,21],[-5,26],[-28,23],[-23,31],[-28,-16],[-19,-21],[-18,-55],[-7,-24],[-12,-25],[-7,-12],[-1,-9],[4,-48],[12,-62],[-2,-8],[-5,-14],[-15,18],[-10,20],[-20,26],[-9,48],[-10,25],[-32,31],[-7,12],[-9,28],[-11,20],[-9,25],[-9,32],[4,2],[8,-1],[7,-3],[4,0],[10,44],[-5,21],[-14,11],[-15,15],[-3,18],[0,15],[3,4],[11,-5],[9,-3],[2,0],[-29,36],[-49,28],[-33,42],[-24,6],[-23,28],[-19,27],[11,12],[-14,8],[-13,4],[-33,17],[-20,21],[2,9],[5,7],[-5,21],[-6,13],[-27,38],[-19,48],[-4,20],[-10,20],[-10,19],[-3,13],[-6,15],[-16,30],[-12,17],[-16,50],[-2,14],[-6,17],[-10,6],[-12,-4],[-16,0],[-22,6],[0,5],[17,15],[28,28],[14,-4],[7,-4],[10,-1],[-1,9],[-11,21],[-13,26],[-6,24],[1,8],[1,6],[16,7],[13,-1],[39,-18],[18,-4],[17,5],[9,3],[13,12],[30,1],[7,6],[8,13],[-1,25],[-4,19],[5,15],[22,11],[-6,13],[23,0],[17,-8],[4,-13],[-10,-8],[-17,7],[-9,-2],[-8,-5],[4,-9],[5,-5],[68,-38],[23,-22],[78,39],[16,-3],[11,-32],[7,-27],[11,-11],[29,-42],[28,-28],[19,-27],[4,-17],[-4,-28],[5,-14],[22,-6],[15,-12],[0,-13],[-6,-16],[4,-13],[28,-19],[8,-12],[5,-46],[7,-16],[27,-47],[0,-19],[44,-47],[13,-10],[14,-4],[32,1],[34,-6],[29,-23],[52,-21],[23,-27],[6,-22],[10,-14],[53,-39],[66,-30],[20,-13],[10,-20],[36,-27],[21,-4],[45,5],[32,-7],[50,-23],[23,-18],[21,0],[24,11],[48,36],[25,13],[24,-3],[17,12],[13,22],[11,10],[53,13],[32,23],[30,10],[13,2],[68,-15],[15,-9],[18,-20],[13,-19],[10,-23],[7,-26],[6,-66],[17,-46],[1,-26],[10,-26],[13,-27],[73,-14],[11,-16],[26,9],[16,-11],[33,-11],[20,-2],[39,2],[49,-8],[45,-29],[33,2],[42,11],[29,-16],[37,-1],[14,-8],[23,4],[69,-15],[20,27],[14,-5],[5,-18],[9,-11],[80,-21],[25,-9],[31,-8],[14,11],[8,9],[38,-13],[30,-1],[33,5],[11,11],[9,4],[9,-6],[12,-13],[14,4],[10,9],[23,13],[17,2],[64,-9],[28,7],[21,-6],[37,-4],[1,19],[11,12],[30,7],[39,-10],[10,2],[13,11],[12,-6],[5,-9],[71,-20],[9,-7],[12,-5],[21,27],[52,1],[63,13],[50,-4],[37,14],[64,10],[17,0],[13,-4],[12,0],[-11,8],[-9,5],[-41,-3],[5,13],[11,8],[19,2],[19,-5],[19,-20],[7,-23],[23,-33],[2,-24],[-5,-40],[4,-14],[72,-15],[13,-8],[22,-83],[2,-23],[1,-19],[10,-18],[12,-5],[5,-6],[4,-4],[4,-15]],[[1716,544],[-5,8],[-4,-1],[-8,-7],[5,-6],[12,-4],[6,0],[1,4],[-7,6]],[[1021,848],[-6,-17],[-6,6],[-14,28],[4,20],[-6,29],[3,8],[17,4],[4,-1],[-5,-9],[9,-16],[2,-27],[-2,-25]],[[2037,1071],[-17,-26],[-26,-21],[-11,6],[-8,0],[-19,-8],[-13,-2],[-24,-14],[-21,-8],[-16,1],[-5,1],[-3,10],[0,4],[10,-2],[33,14],[42,22],[4,9],[-6,16],[1,4],[28,-8],[30,15],[25,5],[12,-11],[-16,-7]],[[596,1653],[-10,-5],[-7,2],[-7,12],[-11,28],[6,11],[0,5],[1,3],[3,2],[4,14],[5,4],[8,-9],[22,-33],[-1,-14],[-1,-5],[-12,-15]],[[1476,3628],[-1,-10],[-10,30],[-5,33],[6,10],[7,-1],[-7,-12],[10,-50]],[[1625,481],[0,-8],[-18,3],[-5,-4],[-15,2],[-15,5],[10,9],[26,10],[11,-9],[6,-8]],[[1517,498],[-14,-1],[-12,8],[26,11],[7,5],[7,10],[6,-9],[-6,-13],[-5,-6],[-9,-5]],[[4096,4096],[0,-3664],[-4,15],[-4,4],[-5,6],[-12,5],[-10,18],[-1,19],[-2,23],[-22,83],[-13,8],[-72,15],[-4,14],[5,40],[-2,24],[-23,33],[-7,23],[-19,20],[-19,5],[-19,-2],[-11,-8],[-5,-13],[41,3],[9,-5],[11,-8],[-12,0],[-13,4],[-17,0],[-64,-10],[-37,-14],[-50,4],[-63,-13],[-52,-1],[-21,-27],[-12,5],[-9,7],[-71,20],[-5,9],[-12,6],[-13,-11],[-10,-2],[-39,10],[-30,-7],[-11,-12],[-1,-19],[-37,4],[-21,6],[-28,-7],[-64,9],[-17,-2],[-23,-13],[-10,-9],[-14,-4],[-12,13],[-9,6],[-9,-4],[-11,-11],[-33,-5],[-30,1],[-38,13],[-8,-9],[-14,-11],[-31,8],[-25,9],[-80,21],[-9,11],[-5,18],[-14,5],[-20,-27],[-69,15],[-23,-4],[-14,8],[-37,1],[-29,16],[-42,-11],[-33,-2],[-45,29],[-49,8],[-39,-2],[-20,2],[-33,11],[-16,11],[-26,-9],[-11,16],[-73,14],[-13,27],[-10,26],[-1,26],[-17,46],[-6,66],[-7,26],[-10,23],[-13,19],[-18,20],[-15,9],[-68,15],[-13,-2],[-30,-10],[-32,-23],[-53,-13],[-11,-10],[-13,-22],[-17,-12],[-24,3],[-25,-13],[-48,-36],[-24,-11],[-21,0],[-23,18],[-50,23],[-32,7],[-45,-5],[-21,4],[-36,27],[-10,20],[-20,13],[-66,30],[-53,39],[-10,14],[-6,22],[-23,27],[-52,21],[-29,23],[-34,6],[-32,-1],[-14,4],[-13,10],[-44,47],[0,19],[-27,47],[-7,16],[-5,46],[-8,12],[-28,19],[-4,13],[6,16],[0,13],[-15,12],[-22,6],[-5,14],[4,28],[-4,17],[-19,27],[-28,28],[-29,42],[-11,11],[-7,27],[-11,32],[-16,3],[-78,-39],[-23,22],[-68,38],[-5,5],[-4,9],[8,5],[9,2],[17,-7],[10,8],[-4,13],[-17,8],[-23,0],[6,-13],[-22,-11],[-5,-15],[4,-19],[1,-25],[-8,-13],[-7,-6],[-30,-1],[-13,-12],[-9,-3],[-17,-5],[-18,4],[-39,18],[-13,1],[-16,-7],[-1,-6],[-1,-8],[6,-24],[13,-26],[11,-21],[1,-9],[-10,1],[-7,4],[-14,4],[-28,-28],[-17,-15],[0,-5],[22,-6],[16,0],[12,4],[10,-6],[6,-17],[2,-14],[16,-50],[12,-17],[16,-30],[6,-15],[3,-13],[10,-19],[10,-20],[4,-20],[19,-48],[27,-38],[6,-13],[5,-21],[-5,-7],[-2,-9],[20,-21],[33,-17],[13,-4],[14,-8],[-11,-12],[19,-27],[23,-28],[24,-6],[33,-42],[49,-28],[29,-36],[-2,0],[-9,3],[-11,5],[-3,-4],[0,-15],[3,-18],[15,-15],[14,-11],[5,-21],[-10,-44],[-4,0],[-7,3],[-8,1],[-4,-2],[9,-32],[9,-25],[11,-20],[9,-28],[7,-12],[32,-31],[10,-25],[9,-48],[20,-26],[10,-20],[15,-18],[5,14],[2,8],[-12,62],[-4,48],[1,9],[7,12],[12,25],[7,24],[18,55],[19,21],[28,16],[23,-31],[28,-23],[5,-26],[-8,-21],[-7,-34],[4,-16],[2,-13],[7,-23],[8,-29],[1,-21],[-4,-19],[-10,-16],[-19,-48],[-6,-5],[-23,-8],[13,-9],[13,1],[1,-8],[-8,-12],[-11,-29],[15,-5],[15,-2],[11,-5],[6,0],[6,11],[4,-8],[7,-11],[13,3],[6,-2],[4,-38],[10,-14],[11,-6],[39,-3],[24,6],[47,25],[25,9],[69,-2],[55,-10],[86,-6],[17,1],[46,20],[29,18],[17,5],[11,18],[7,22],[7,15],[8,7],[8,12],[6,21],[16,20],[64,50],[38,42],[3,13],[20,21],[17,22],[76,64],[15,26],[9,29],[1,2],[15,31],[6,5],[6,-2],[14,4],[8,16],[5,10],[7,-2],[3,-5],[-2,-25],[-1,-22],[-7,-65],[-9,-11],[-4,-10],[-1,-12],[12,-18],[1,-118],[3,-9],[19,-56],[27,-53],[24,-29],[26,-40],[38,-37],[18,-12],[71,-26],[39,-9],[53,-9],[38,-20],[12,-2],[20,6],[14,0],[35,-27],[11,-26],[15,-14],[13,-21],[8,-22],[30,-35],[21,-38],[22,-29],[19,-17],[29,-7],[23,-8],[3,-19],[-2,-25],[-5,-18],[-21,-36],[-6,-22],[-1,-2],[-2666,0],[0,4096],[778,0],[33,-39],[18,-18],[30,-23],[10,-5],[14,-2],[26,0],[23,-9],[11,-6],[12,-9],[11,-11],[11,-29],[-41,10],[-41,-2],[-23,-6],[-22,-8],[-21,-12],[-14,-23],[-11,-53],[-17,-50],[1,-23],[7,-22],[-1,-11],[-7,-4],[-10,-10],[-12,-45],[-7,-9],[-8,-6],[-2,5],[0,12],[-17,11],[-10,-12],[-6,-25],[-13,-27],[-1,-5],[3,-81],[1,-10],[5,-53],[5,-28],[6,-27],[10,-24],[12,-24],[16,-14],[37,-17],[18,-5],[47,-4],[46,-8],[27,-8],[8,-5],[7,-9],[23,-41],[35,-29],[72,-44],[35,-15],[117,-27],[78,1],[215,53],[72,14],[27,0],[-16,-11],[-27,-6],[16,-7],[25,-2],[12,2],[8,6],[2,11],[-1,11],[-12,50],[-7,35],[-3,15],[-9,55],[-5,55],[1,26],[5,51],[-1,26],[-2,24],[2,23],[4,25],[3,27],[-4,18],[-9,15],[-17,18],[-2,11],[-1,12],[-16,1],[-14,13],[-12,7],[-25,7],[-13,1],[-12,-6],[-8,-11],[-6,18],[0,18],[20,38],[13,-11],[15,-5],[20,0],[19,3],[-4,13],[-9,7],[-11,6],[-4,17],[2,18],[5,17],[-6,6],[-9,5],[-21,-1],[-27,5],[-28,1],[-6,-19],[15,-26],[-13,12],[-12,17],[-17,31],[-11,35],[-2,39],[9,32],[12,30],[7,38],[7,25],[10,0],[3,-4],[11,-15],[16,-14],[8,-4],[26,-5],[16,2],[18,8],[17,-3],[15,-15],[12,-18],[20,-3],[40,12],[19,3],[16,-6],[8,-1],[9,1],[-7,16],[-3,15],[10,8],[31,-9],[20,6],[5,3],[5,4],[2,13],[0,6],[2326,0]],[[1100,3000],[49,31],[-13,56],[32,78],[99,-18],[-16,-45],[26,-34],[-38,0],[-7,-32],[-36,6],[-8,-40],[-52,1],[-21,-26],[-15,23]],[[1498,1656],[23,15],[10,-28],[40,32],[36,-22],[-3,20],[52,-35],[4,-36],[-29,6],[5,-24],[-60,66],[-40,-25],[-38,31]],[[2287,1967],[8,15],[103,-44],[79,-68],[94,-10],[45,85],[45,-27],[17,52],[40,-100],[-62,-217],[-44,-4],[3,-30],[-88,22],[-108,89],[-34,2],[-23,72],[-50,28],[14,81],[-39,54]],[[403,3155],[14,40],[17,12],[60,-27],[-37,-51],[-54,26]],[[2389,4096],[-39,-118],[-153,-38],[-81,156],[273,0]],[[2942,694],[6,96],[53,39],[-20,37],[18,34],[-26,11],[13,20],[53,-48],[28,10],[8,-44],[-39,-52],[-12,-101],[-35,-26],[-47,24]],[[1952,3338],[59,13],[45,-36],[-95,-15],[-9,38]],[[2235,422],[77,-26],[4,-10],[-32,-3],[-49,39]],[[2458,366],[27,-10],[-28,-27],[-32,33],[33,4]],[[2366,385],[22,-3],[29,-22],[-22,-7],[-29,32]],[[1979,486],[0,-4],[-42,0],[21,27],[21,-23]],[[2119,544],[24,-29],[21,-33],[-54,65],[9,-3]],[[300,561],[-23,3],[34,51],[33,-13],[-44,-41]],[[839,732],[-14,15],[9,16],[28,-14],[-23,-17]],[[1189,736],[5,-17],[7,-26],[-34,7],[22,36]],[[1879,722],[28,31],[3,-4],[-19,-46],[-26,-6],[14,25]],[[4035,606],[-47,14],[24,39],[71,-39],[-48,-14]],[[1992,829],[15,26],[4,13],[3,-34],[-35,-16],[13,11]],[[1006,892],[-13,22],[20,12],[9,-35],[-16,1]],[[826,1121],[33,-42],[17,-10],[-46,19],[-4,33]],[[944,960],[1,-37],[-4,29],[-28,2],[-9,66],[40,-60]],[[2067,1131],[-30,-8],[48,50],[-9,-44],[-9,2]],[[3154,1183],[14,0],[4,-19],[-17,-4],[-1,23]],[[2224,1167],[-14,25],[18,5],[-1,-15],[-3,-15]],[[2967,1361],[-10,-15],[-16,4],[8,16],[18,-5]],[[2027,1120],[-27,-18],[-12,11],[25,16],[14,-9]],[[2187,1118],[11,20],[12,-22],[-12,-5],[-11,7]],[[2374,1475],[-7,12],[25,0],[-11,-24],[-7,12]],[[562,1578],[8,-61],[-88,78],[64,6],[16,-23]],[[2436,1531],[-20,11],[3,12],[40,-29],[-23,6]],[[1354,1646],[-3,29],[40,-18],[-12,-24],[-25,13]],[[1934,1645],[20,-20],[-3,-20],[-20,10],[3,30]],[[2870,1630],[22,19],[17,-23],[-20,-11],[-19,15]],[[767,1836],[-36,7],[-5,10],[48,6],[-7,-23]],[[876,1897],[14,3],[-5,-33],[-16,19],[7,11]],[[2217,1801],[-10,-27],[-30,8],[-9,36],[28,8],[21,-25]],[[536,1831],[-25,-2],[2,-25],[-37,6],[21,57],[39,-36]],[[574,1841],[20,-2],[23,-32],[-33,-6],[-10,40]],[[1061,1793],[-23,6],[4,22],[26,2],[-7,-30]],[[1976,1823],[21,30],[26,-24],[-7,-19],[-40,13]],[[244,1960],[-13,-13],[-17,10],[12,22],[18,-19]],[[732,1984],[-34,17],[-77,-8],[43,60],[62,-38],[67,16],[-61,-47]],[[841,2045],[-44,11],[7,16],[23,0],[14,-27]],[[163,2271],[-23,5],[5,20],[23,-8],[-5,-17]],[[420,2282],[-10,-15],[-20,-4],[0,30],[30,-11]],[[716,2225],[8,18],[18,-2],[0,-16],[-26,0]],[[1641,2246],[12,-29],[-21,-3],[-2,27],[11,5]],[[490,2232],[-7,23],[25,0],[-4,-22],[-14,-1]],[[1100,2225],[-39,3],[-12,24],[23,0],[28,-27]],[[635,2255],[-25,-14],[-9,33],[19,-3],[15,-16]],[[746,2118],[12,10],[14,-10],[-12,-10],[-14,10]],[[379,2131],[14,16],[13,-12],[-11,-12],[-16,8]],[[1684,2175],[30,-18],[8,-25],[-25,0],[-13,43]],[[795,2132],[-32,16],[-35,41],[74,-5],[-7,-52]],[[947,2476],[10,16],[18,-5],[-9,-15],[-19,4]],[[244,2517],[12,14],[16,-8],[-12,-11],[-16,5]],[[76,2613],[20,0],[14,-8],[-30,-17],[-4,25]],[[369,2684],[21,-2],[14,-9],[-41,-11],[6,22]],[[1038,2717],[11,33],[37,8],[-4,-38],[-44,-3]],[[654,2793],[7,-24],[-26,-12],[-18,34],[37,2]],[[714,2668],[-16,-14],[-16,11],[14,10],[18,-7]],[[2477,2673],[15,16],[17,-11],[-18,-11],[-14,6]],[[997,2834],[-6,-22],[-32,6],[21,35],[17,-19]],[[2577,2871],[1,20],[15,-2],[3,-22],[-19,4]],[[367,2865],[-21,16],[18,13],[22,-11],[-19,-18]],[[2463,2873],[4,-15],[-27,0],[5,19],[18,-4]],[[857,3034],[-20,-6],[32,30],[-3,-16],[-9,-8]],[[1045,2897],[-24,-11],[-9,17],[10,2],[23,-8]],[[1047,2588],[-23,0],[9,23],[16,-12],[-2,-11]],[[677,2579],[18,3],[5,-15],[-23,2],[0,10]],[[1024,2580],[-18,-12],[-24,7],[22,11],[20,-6]],[[1197,2616],[5,-39],[-60,33],[20,19],[35,-13]],[[811,2605],[32,24],[28,0],[2,-19],[-57,-24],[-18,29],[13,-10]],[[1220,2260],[-18,-38],[-21,11],[-18,-22],[-47,33],[9,36],[40,13],[-58,25],[49,4],[41,37],[7,-33],[42,-16],[-26,-50]],[[649,2301],[9,19],[21,-2],[-11,-17],[-19,0]],[[2578,2345],[-4,16],[30,-3],[-9,-12],[-17,-1]],[[1470,2345],[-12,6],[14,15],[12,-18],[-14,-3]],[[1339,3145],[15,-10],[-10,-13],[-15,5],[10,18]],[[806,3176],[15,1],[11,-9],[-19,-11],[-7,19]],[[638,3192],[11,-9],[7,-15],[-46,11],[28,13]],[[1733,3208],[-20,-9],[-10,15],[28,8],[2,-14]],[[210,3225],[-19,5],[9,17],[17,-6],[-7,-16]],[[806,3211],[19,14],[-16,-46],[-30,24],[27,8]],[[1481,3158],[3,-12],[-60,-28],[-5,20],[62,20]],[[1366,3171],[32,9],[9,-39],[-9,-6],[-32,36]],[[27,3353],[-27,2],[4,34],[16,-11],[7,-25]],[[189,3411],[-13,-12],[-17,9],[12,13],[18,-10]],[[717,3426],[13,-18],[-19,-10],[-11,18],[17,10]],[[3068,3350],[-11,38],[35,3],[-5,-22],[-19,-19]],[[1606,3437],[0,17],[28,1],[-2,-22],[-26,4]],[[2407,3451],[-12,36],[71,-49],[-37,-11],[-22,24]],[[131,3545],[9,18],[16,-16],[-11,-5],[-14,3]],[[373,3553],[-10,8],[17,12],[8,-17],[-15,-3]],[[290,3450],[-117,-4],[18,39],[-21,35],[95,-33],[25,-37]],[[584,3523],[33,5],[4,-13],[-32,-17],[-5,25]],[[4046,3276],[5,29],[25,4],[-13,-30],[-17,-3]],[[2814,3290],[12,11],[18,-3],[-11,-17],[-19,9]],[[966,3283],[9,-30],[-51,27],[-44,-8],[-16,30],[-11,-36],[-42,19],[39,59],[53,-8],[24,-45],[39,-8]],[[230,3315],[-29,-5],[-21,5],[48,27],[2,-27]],[[3671,3344],[15,6],[7,-19],[-19,0],[-3,13]],[[517,3326],[-19,-2],[-18,8],[20,16],[17,-22]],[[750,3377],[24,-56],[44,5],[-12,-49],[-64,46],[8,54]],[[3582,3632],[-14,24],[25,6],[3,-33],[-14,3]],[[3570,3695],[-8,-19],[-17,2],[9,19],[16,-2]],[[3364,3695],[18,17],[17,-20],[-18,-22],[-17,25]],[[3526,3684],[-20,2],[-17,22],[33,0],[4,-24]],[[3709,3711],[-30,-6],[-14,28],[26,-6],[18,-16]],[[3561,3705],[-23,9],[12,17],[16,-9],[-5,-17]],[[713,3802],[1,13],[18,-8],[-6,-15],[-13,10]],[[3538,3828],[-21,22],[58,-16],[-12,-11],[-25,5]],[[700,3886],[23,-2],[-9,-25],[-11,9],[-3,18]],[[3864,3891],[17,-8],[10,-16],[-23,-9],[-4,33]],[[4035,3828],[39,-41],[-23,-30],[-92,66],[34,27],[42,-22]],[[233,4028],[11,19],[17,-10],[-11,-13],[-17,4]],[[872,3947],[-37,-16],[27,35],[-35,57],[122,-34],[-27,-35],[-50,-7]],[[617,3905],[25,-8],[-32,-27],[-5,5],[12,30]],[[3717,3917],[1,-15],[-25,0],[0,20],[24,-5]],[[1461,3882],[-23,7],[2,19],[30,-13],[-9,-13]],[[750,3097],[1,-9],[58,-43],[-51,8],[-22,40],[14,4]],[[1216,2957],[30,-22],[-37,-27],[21,-30],[-31,6],[-11,38],[-83,-19],[-10,30],[-53,19],[14,46],[-107,69],[-36,-14],[-30,22],[34,30],[208,-115],[144,-11],[-12,-22],[-41,0]],[[2307,3088],[11,-7],[3,-17],[-30,13],[16,11]],[[2527,3082],[-25,-19],[-2,36],[16,-6],[11,-11]],[[2652,3069],[-51,22],[-7,27],[35,17],[50,-28],[10,-19],[-37,-19]],[[3092,3096],[-20,0],[-13,8],[35,19],[-2,-27]],[[2583,3102],[-35,5],[-2,11],[25,-1],[12,-15]],[[706,1951],[7,-27],[-29,9],[6,11],[16,7]],[[1872,1914],[3,19],[16,-14],[-5,-11],[-14,6]],[[2095,1922],[20,5],[2,-30],[-30,11],[8,14]],[[905,1942],[-62,-23],[-71,60],[76,-11],[19,-27],[22,22],[16,-21]],[[2990,1954],[12,16],[16,-5],[-13,-14],[-15,3]],[[2902,1832],[55,188],[-12,25],[95,-14],[3,-25],[-35,10],[-33,-50],[-14,-109],[-59,-25]],[[1979,2971],[47,28],[36,-11],[-1,-40],[-74,-12],[-8,35]],[[109,3619],[22,11],[-5,30],[94,-22],[11,-23],[-93,-12],[-29,16]]]}