{"objects":{"water":{"type":"GeometryCollection","geometries":[{"type":"MultiPolygon","properties":{"source":"naturalearthdata.com","kind":"ocean","area":1444195503964160,"sort_rank":200,"min_zoom":0.0,"id":1},"arcs":[[[6],[7],[8]]]},{"type":"LineString","properties":{"source":"naturalearthdata.com","kind":"ocean","sort_rank":205,"boundary":true,"min_zoom":0.0,"id":317},"arcs":[9]},{"type":"LineString","properties":{"source":"naturalearthdata.com","kind":"ocean","sort_rank":205,"boundary":true,"min_zoom":0.0,"id":319},"arcs":[10]},{"type":"MultiLineString","properties":{"source":"naturalearthdata.com","kind":"ocean","sort_rank":205,"boundary":true,"min_zoom":0.0,"id":1388},"arcs":[[11],[12]]},{"type":"Point","properties":{"label_placement":true,"kind":"sea","name":"Arabian Sea","source":"openstreetmap.org","sort_rank":200,"min_zoom":3.0,"id":305640040},"coordinates":[3641,3733]},{"type":"Point","properties":{"label_placement":true,"kind":"sea","name":"Gulf of Aden","source":"openstreetmap.org","sort_rank":200,"min_zoom":3.0,"id":316793178},"coordinates":[579,2367]}]},"buildings":{"type":"GeometryCollection","geometries":[]},"places":{"type":"GeometryCollection","geometries":[{"type":"Point","properties":{"name:ka":"\u10d8\u10d4\u10db\u10d4\u10dc\u10d8","name:ko":"\uc608\uba58","name:cv":"\u0419\u0435\u043c\u0435\u043d","name:km":"\u1799\u17c1\u1798\u17c2\u1793","name:kl":"Jemen","name:cs":"Jemen","name:ki":"Yemeni","name:co":"Yemen","name:kv":"\u0419\u0435\u043c\u0435\u043d","name:ku":"Yemen","name:ti":"\u12e8\u1218\u1295","name:ks":"\u06cc\u064e\u0645\u064e\u0646","name:to":"Iemeni","name:tl":"Yemen","name:ce":"\u0419\u0435\u043c\u0435\u043d","name:ta":"\u0b8f\u0bae\u0ba9\u0bcd","name:tg":"\u042f\u043c\u0430\u043d","name:ca":"Iemen","name:te":"\u0c2f\u0c46\u0c2e\u0c46\u0c28\u0c4d","name:cy":"Yemen","name:hr":"Jemen","name:da":"Yemen","name:de":"Jemen","name:dz":"\u0f61\u0f7a\u0f0b\u0f58\u0f7a\u0f53","source":"openstreetmap.org","name:kn":"\u0caf\u0cc6\u0cae\u0ca8\u0ccd","name:dv":"\u0794\u07a6\u0789\u07a6\u0782\u07b0","name:lv":"Jemena","name:lt":"Jemenas","name:uz":"Yaman","name:kk":"\u0419\u0435\u043c\u0435\u043d","name:ur":"\u06cc\u0645\u0646","name:lb":"Jemen","name:la":"Iemenia","name:lg":"Yemeni","name:uk":"\u0404\u043c\u0435\u043d","name:ug":"\u064a\u06d5\u0645\u06d5\u0646","name:li":"Jeme","name:ln":"Yem\u025bn\u025b","name:lo":"\u0ec0\u0ea2\u0ec0\u0ea1\u0e99","name:el":"\u03a5\u03b5\u03bc\u03ad\u03bd\u03b7","name:eo":"Jemeno","name:en":"Yemen","name":"\u0627\u0644\u064a\u064e\u0645\u064e\u0646","name:tk":"\u00ddemen","name:ee":"Yemen nutome","name:th":"\u0e1b\u0e23\u0e30\u0e40\u0e17\u0e28\u0e40\u0e22\u0e40\u0e21\u0e19","name:eu":"Yemen","name:et":"Jeemen","name:es":"Yemen","name:ia":"Yemen","name:rm":"Jemen","name:rn":"Yemeni","name:az":"Yemen","name:ie":"Yemen","name:id":"Yaman","name:ar":"\u0627\u0644\u064a\u0645\u0646","name:io":"Yemen","name:ak":"Y\u025bmen","name:am":"\u12e8\u1218\u1295","name:it":"Yemen","name:an":"Yemen","name:ru":"\u0419\u0435\u043c\u0435\u043d","name:rw":"Yemeni","name:af":"Jemen","name:zu":"i-Yemen","name:ky":"\u0419\u0435\u043c\u0435\u043d","name:zh-yue":"\u4e5f\u9580","name:zh":"\u4e5f\u95e8","name:so":"Yaman","name:sn":"Yemen","name:sl":"Jemen","name:sk":"Jemen","name:ja":"\u30a4\u30a8\u30e1\u30f3","name:si":"\u0dba\u0dda\u0db8\u0db1\u0dba","name:sh":"Jemen","name:sg":"Y\u00ebm\u00eani","name:se":"Jemen","name:sa":"\u092f\u092e\u0928","name:bs":"Jemen","name:bm":"Yem\u025bni","name:bn":"\u0987\u09ae\u09c7\u09a8","name:bo":"\u0f61\u0f7a\u0f0b\u0f58\u0f7a\u0f53\u0f0d","name:br":"Yemen","name:sw":"Yemeni","name:be":"\u0419\u0435\u043c\u0435\u043d","name:su":"Yaman","name:bg":"\u0419\u0435\u043c\u0435\u043d","name:ss":"IYemeni","name:ba":"\u0419\u0435\u043c\u0435\u043d","name:sq":"Jemen","name:jv":"Yaman","name:pt":"I\u00eamen","name:ps":"\u06cc\u0645\u0646","name:oc":"Iem\u00e8n","min_zoom":2.0,"name:ro":"Yemen","name:zh-min-nan":"Yemen","name:os":"\u0419\u0435\u043c\u0435\u043d","name:or":"\u0b5f\u0b47\u0b2e\u0b47\u0b28\u0b4d","name:pl":"Jemen","name:sr":"\u0408\u0435\u043c\u0435\u043d","name:pa":"\u0a2f\u0a2e\u0a28","name:tr":"Yemen","name:hi":"\u092f\u092e\u0928","name:sv":"Jemen","name:he":"\u05ea\u05d9\u05de\u05df","name:ha":"Yamal","name:hy":"\u0535\u0574\u0565\u0576","name:ht":"Yem\u00e8n","name:hu":"Jemen","name:qu":"Yaman","population":24184000,"kind":"country","name:is":"Jemen","name:yi":"\u05ea\u05d9\u05de\u05df","name:yo":"Or\u00edl\u1eb9\u0301\u00e8de yemeni","name:mt":"Jemen","name:ms":"Yaman","name:mr":"\u092f\u0947\u092e\u0947\u0928","name:my":"\u101a\u102e\u1019\u1004\u103a","name:kw":"Yemen","name:mg":"Yemen","name:ml":"\u0d2f\u0d2e\u0d7b","name:vi":"Yemen","name:mn":"\u0419\u0435\u043c\u0435\u043d","id":249399459,"name:mk":"\u0408\u0435\u043c\u0435\u043d","name:vo":"Y\u00e4m\u00e4n","name:fa":"\u064a\u0645\u0646","name:ff":"Yemen","name:fi":"Jemen","name:fo":"Jemen","name:fr":"Y\u00e9men","name:fy":"Jemen","int_name":"Yemen","name:nl":"Jemen","name:nn":"Yemen","name:no":"Jemen","name:na":"Yemen","name:ne":"\u092f\u0947\u092e\u0947\u0928","name:wo":"Yaman","name:nv":"Sh\u00e1di\u02bc\u00e1\u00e1hj\u00ed \u00c1s\u00e1\u00ed Bik\u00e9yah","name:ga":"\u00c9imin","name:gd":"Iemen","name:gn":"Jem\u1ebd","name:gl":"Iemen","name:gv":"Yn Yeaman","name:gu":"\u0aaf\u0ac7\u0aae\u0ac7\u0aa8","name:tt":"\u0419\u04d9\u043c\u04d9\u043d"},"coordinates":[526,3051]},{"type":"Point","properties":{"name:kg":"S\u00f4m\u00e2lia","name:ka":"\u10e1\u10dd\u10db\u10d0\u10da\u10d8","name:ko":"\uc18c\ub9d0\ub9ac\uc544","name:kn":"\u0cb8\u0cca\u0cae\u0cbe\u0cb2\u0cbf\u0caf\u0cbe","name:km":"\u179f\u17bc\u1798\u17c9\u17b6\u179b\u17b8","name:kl":"Somalia","name:cs":"Som\u00e1lsko","name:ki":"Somaria","name:kw":"Somali","name:tk":"Somali","name:ku":"Somalya","name:ti":"\u1231\u121b\u120c","name:ks":"\u0633\u0648\u0645\u0627\u0644\u0650\u06cc\u0627","name:to":"S\u014dmalia","name:tl":"Somalya","name:ce":"\u0421\u043e\u043c\u0430\u043b\u0438","name:ta":"\u0b9a\u0bca\u0bae\u0bbe\u0bb2\u0bbf\u0baf\u0bbe","name:tg":"\u0421\u043e\u043c\u0430\u043b\u0438","name:ca":"Som\u00e0lia","name:te":"\u0c38\u0c4b\u0c2e\u0c3e\u0c32\u0c3f\u0c2f\u0c3e","name:cy":"Somalia","name:hr":"Somalija","name:da":"Somalia","name:de":"Somalia","name:dz":"\u0f66\u0f7c\u0f0b\u0f58\u0f0b\u0f63\u0f72\u0f0b\u0f61","source":"openstreetmap.org","name:ts":"Somalia","name:dv":"\u0790\u07af\u0789\u07a7\u078d\u07a8\u0787\u07a7","name:lv":"Som\u0101lija","name:lt":"Somalis","name:uz":"Somali","name:kk":"\u0421\u043e\u043c\u0430\u043b\u0438","name:ur":"\u0635\u0648\u0645\u0627\u0644\u06cc\u06c1","name:lb":"Somalia","name:la":"Somalia","name:lg":"Somaliya","name:uk":"\u0421\u043e\u043c\u0430\u043b\u0456","name:ug":"\u0633\u0648\u0645\u0627\u0644\u0649","name:li":"Somali\u00eb","name:ln":"Somali","name:lo":"\u0ec2\u0e8a\u0ea1\u0eb2\u0ec0\u0ea5\u0e8d","name:el":"\u03a3\u03bf\u03bc\u03b1\u03bb\u03af\u03b1","name:eo":"Somalujo","name:en":"Somalia","name":"\u0627\u0644\u0635\u0648\u0645\u0627\u0644","name:ee":"Somalia nutome","name:th":"\u0e1b\u0e23\u0e30\u0e40\u0e17\u0e28\u0e42\u0e0b\u0e21\u0e32\u0e40\u0e25\u0e35\u0e22","name:eu":"Somalia","name:et":"Somaalia","name:es":"Somalia","name:ia":"Somalia","name:rm":"Somalia","name:rn":"Somaliya","name:az":"Somaliya","name:ie":"Somalia","name:id":"Somalia","name:pa":"\u0a38\u0a4b\u0a2e\u0a3e\u0a32\u0a40\u0a06","name:io":"Somalia","name:ak":"Somalia","name:am":"\u1231\u121b\u120c","name:it":"Somalia","name:an":"Somalia","name:ru":"\u0421\u043e\u043c\u0430\u043b\u0438","name:rw":"Somaliya","name:af":"Somali\u00eb","name:zu":"i-Somalia","name:zh-yue":"\u7d22\u99ac\u91cc","name:zh":"\u7d22\u9a6c\u91cc","name:so":"Soomaaliya","name:sn":"Somalia","name:sm":"Somalia","name:sl":"Somalija","name:sk":"Som\u00e1lsko","name:ja":"\u30bd\u30de\u30ea\u30a2","name:si":"\u0dc3\u0ddd\u0db8\u0dcf\u0dbd\u0dd2\u0dba\u0dcf\u0dc0","name:sh":"Somalija","name:sg":"Somal\u00efi","name:se":"Som\u00e1lia","name:sc":"Som\u00e0lia","name:br":"Somalia","name:bs":"Somalija","name:bm":"Somali","name:bn":"\u09b8\u09cb\u09ae\u09be\u09b2\u09bf","name:bo":"\u0f66\u0f7c\u0f0b\u0f58\u0f71\u0f63\u0f72\u0f0b\u0f61\u0f0d","name:sa":"\u0938\u094b\u092e\u093e\u0932\u093f\u092f\u093e","name:sw":"Somalia","name:be":"\u0421\u0430\u043c\u0430\u043b\u0456","name:su":"Somalia","name:bg":"\u0421\u043e\u043c\u0430\u043b\u0438\u044f","name:ss":"ISomaliya","name:ba":"\u0421\u043e\u043c\u0430\u043b\u0438","name:sq":"Somali","name:jv":"Somalia","name:pt":"Som\u00e1lia","name:ps":"\u0633\u0648\u0645\u0627\u0644\u06cc\u0627","name:om":"Somaaliyaa","name:oc":"Somalia","min_zoom":2.0,"name:ro":"Somalia","name:zh-min-nan":"Somalia","name:os":"\u0421\u043e\u043c\u0430\u043b\u0438","name:or":"\u0b38\u0b4b\u0b2e\u0b3e\u0b32\u0b3f\u0b06","name:pl":"Somalia","name:st":"Somalia","name:sr":"\u0421\u043e\u043c\u0430\u043b\u0438\u0458\u0430","name:tr":"Somali","name:hi":"\u0938\u094b\u092e\u093e\u0932\u093f\u092f\u093e","name:sv":"Somalia","name:he":"\u05e1\u05d5\u05de\u05dc\u05d9\u05d4","name:ha":"Somaliya","name:hy":"\u054d\u0578\u0574\u0561\u056c\u056b","name:ht":"Somali","name:hu":"Szom\u00e1lia","name:qu":"Sumalya","population":9558666,"kind":"country","name:is":"S\u00f3mal\u00eda","name:yi":"\u05e1\u05d0\u05de\u05d0\u05dc\u05d9\u05e2","name:yo":"Or\u00edl\u1eb9\u0301\u00e8de Somalia","name:mt":"Somalja","alt_name:eo":"Somalio","name:ms":"Somalia","name:mr":"\u0938\u094b\u092e\u093e\u0932\u093f\u092f\u093e","name:my":"\u1006\u102d\u102f\u1019\u102c\u101c\u102e\u101a\u102c","official_name":"Somali Republic","int_name":"Somalia","name:mg":"Somalia","name:ml":"\u0d38\u0d4b\u0d2e\u0d3e\u0d32\u0d3f\u0d2f","name:vi":"Somalia","name:mn":"\u0421\u043e\u043c\u0430\u043b\u0438","name:mi":"H\u016bm\u0101rie","id":424317039,"name:mk":"\u0421\u043e\u043c\u0430\u043b\u0438\u0458\u0430","name:vo":"Somal\u00e4n","name:fa":"\u0633\u0648\u0645\u0627\u0644\u06cc","name:ff":"Somalii","name:fi":"Somalia","name:fo":"Somalia","name:fr":"Somalie","name:fy":"Somaalje","name:nl":"Somali\u00eb","name:nn":"Somalia","name:no":"Somalia","name:na":"Tomariya","name:ne":"\u0938\u094b\u092e\u093e\u0932\u093f\u092f\u093e","name:wo":"Somali","name:nv":"Soom\u00e1\u00e1lii Bik\u00e9yah","name:ga":"An tSom\u00e1il","name:gd":"Som\u00e0ilia","name:gl":"Somalia","name:gv":"Yn Tomaal","name:gu":"\u0ab8\u0acb\u0aae\u0abe\u0ab2\u0abf\u0aaf\u0abe","name:tt":"\u0421\u043e\u043c\u0430\u043b\u0438"},"coordinates":[743,1562]},{"type":"Point","properties":{"name:ka":"\u10dd\u10db\u10d0\u10dc\u10d8","name:ko":"\uc624\ub9cc","name:cv":"\u041e\u043c\u0430\u043d","name:km":"\u17a2\u17bc\u1798\u17c9\u1784\u17cb","name:kl":"Oman","name:cs":"Om\u00e1n","name:ki":"Omani","name:kw":"Oman","name:kv":"\u041e\u043c\u0430\u043d","name:ku":"Oman","name:ti":"\u12a6\u121b\u1295","name:ks":"\u0627\u0648\u0645\u0627\u0646","name:to":"\u02bbOmani","name:tl":"Oman","name:ce":"\u041e\u043c\u0430\u043d","name:ta":"\u0b93\u0bae\u0ba9\u0bcd","name:tg":"\u041e\u043c\u0430\u043d","name:ca":"Oman","name:te":"\u0c12\u0c2e\u0c3e\u0c28\u0c4d","name:cy":"Oman","name:hr":"Oman","name:da":"Oman","name:de":"Oman","name:dz":"\u0f68\u0f7c\u0f0b\u0f58\u0f71\u0f53","source":"openstreetmap.org","name:kn":"\u0c93\u0cae\u0ca8\u0ccd","name:dv":"\u07a2\u07aa\u0789\u07a7\u0782\u07b0","name:lv":"Om\u0101na","name:lt":"Omanas","name:uz":"Oman","name:kk":"\u041e\u043c\u0430\u043d","name:ur":"\u0639\u0645\u0627\u0646","name:lb":"Oman","name:la":"Omania","name:lg":"Omaani","name:uk":"\u041e\u043c\u0430\u043d","name:ug":"\u0626\u0648\u0645\u0627\u0646","name:li":"Omaan","name:ln":"Om\u00e1n\u025b","name:lo":"\u0ec2\u0ead\u0ea1\u0eb2\u0e99","name:el":"\u039f\u03bc\u03ac\u03bd","name:eo":"Omano","name:en":"Oman","name":"\u0639\u064f\u0645\u0627\u0646","name:tk":"Oman","name:ee":"Oman nutome","name:th":"\u0e1b\u0e23\u0e30\u0e40\u0e17\u0e28\u0e42\u0e2d\u0e21\u0e32\u0e19","name:eu":"Oman","name:et":"Omaan","name:es":"Om\u00e1n","name:ia":"Oman","name:rm":"Oman","name:rn":"Omani","name:az":"Oman","name:ie":"Oman","name:id":"Oman","name:ar":"\u0639\u0645\u0627\u0646","name:io":"Oman","name:ak":"Oman","name:am":"\u12a6\u121b\u1295","name:it":"Oman","name:an":"Om\u00e1n","name:ru":"\u041e\u043c\u0430\u043d","name:rw":"Omani","name:af":"Oman","name:zu":"i-Oman","name:zh-yue":"\u963f\u66fc","name:zh":"\u963f\u66fc","name:so":"Cumaan","name:sn":"Oman","name:sl":"Oman","name:sk":"Om\u00e1n","name:ja":"\u30aa\u30de\u30fc\u30f3","name:si":"\u0d95\u0db8\u0dcf\u0db1\u0dba","name:sh":"Oman","name:sg":"Om\u00e2ni","name:se":"Oman","name:sa":"\u0913\u092e\u093e\u0928","name:bs":"Oman","name:bm":"Oma\u014b","name:bn":"\u0993\u09ae\u09be\u09a8","name:bo":"\u0f68\u0f7c\u0f0b\u0f58\u0f53\u0f0d","name:br":"Oman","name:sw":"Omani","name:be":"\u0410\u043c\u0430\u043d","name:su":"Oman","name:bg":"\u041e\u043c\u0430\u043d","name:ss":"IMani","name:ba":"\u041e\u043c\u0430\u043d","name:sq":"Omani","name:jv":"Oman","name:pt":"Om\u00e3","name:ps":"\u0639\u0645\u0627\u0646","name:oc":"Oman","min_zoom":2.0,"name:ro":"Oman","name:zh-min-nan":"Oman","name:os":"\u041e\u043c\u0430\u043d","name:or":"\u0b13\u0b2e\u0b3e\u0b28\u0b4d","name:pl":"Oman","name:sr":"\u041e\u043c\u0430\u043d","name:pa":"\u0a13\u0a2e\u0a3e\u0a28","name:tr":"Umman","name:hi":"\u0913\u092e\u093e\u0928","name:sv":"Oman","name:he":"\u05e2\u05d5\u05de\u05df","name:ha":"Oman","name:hy":"\u0555\u0574\u0561\u0576","name:ht":"Om\u00e0n","name:hu":"Om\u00e1n","name:qu":"Uman","population":2577000,"kind":"country","name:is":"\u00d3man","name:yi":"\u05d0\u05de\u05d0\u05df","name:yo":"Or\u00edl\u1eb9\u0301\u00e8de \u1ecc\u1ecdma","name:mt":"Oman","name:ms":"Oman","name:mr":"\u0913\u092e\u093e\u0928","name:my":"\u1021\u102d\u102f\u1019\u1014\u103a","official_name":"\u0633\u0644\u0637\u0646\u0629 \u0639\u064f\u0645\u0627\u0646","int_name":"Oman","name:mg":"Oman","name:ml":"\u0d12\u0d2e\u0d3e\u0d7b","name:vi":"Oman","name:mn":"\u041e\u043c\u0430\u043d","id":424315291,"name:mk":"\u041e\u043c\u0430\u043d","name:vo":"Lom\u00e4n","name:fa":"\u0639\u0645\u0627\u0646","name:ff":"Omaan","name:fi":"Oman","name:fo":"Oman","name:fr":"Oman","name:fy":"Oman","name:nl":"Oman","name:nn":"Oman","name:no":"Oman","name:na":"Oman","name:ne":"\u0913\u092e\u0928","name:wo":"Omaan","name:nv":"Om\u0105\u0301\u0105\u0301","name:ga":"\u00d3man","name:gd":"Om\u00e0n","name:gn":"Om\u00e3","name:gl":"Om\u00e1n","name:gv":"Yn Omaan","name:gu":"\u0a93\u0aae\u0abe\u0aa8","name:tt":"\u041e\u043c\u0430\u043d"},"coordinates":[2185,3920]},{"type":"Point","properties":{"kind":"region","name:en":"Hadramaut Governorate","name":"\u0645\u062d\u0627\u0641\u0638\u0629 \u062d\u0636\u0631\u0645\u0648\u062a","kind_detail":"state","min_zoom":4.0,"name:de":"Hadramaut","source":"openstreetmap.org","name:fr":"Hadramaout","alt_name:en":"Hadramawt","name:ru":"\u0425\u0430\u0434\u0440\u0430\u043c\u0430\u0443\u0442","name:hu":"Hadramaut","id":663081632,"population":1028556},"coordinates":[775,3242]},{"type":"Point","properties":{"kind":"region","name:en":"Al Bayda' Governorate","name":"\u0645\u062d\u0627\u0641\u0638\u0629 \u0627\u0644\u0628\u064a\u0636\u0627\u0621","kind_detail":"state","min_zoom":4.0,"source":"openstreetmap.org","name:fr":"Al Bayda'","name:ru":"\u042d\u043b\u044c-\u0411\u0435\u0439\u0434\u0430","name:hu":"El-Bajd\u00e1","id":663081627,"population":577369},"coordinates":[69,2674]},{"type":"Point","properties":{"kind":"region","name:en":"Shabwah Governorate","name":"\u0645\u062d\u0627\u0641\u0638\u0629 \u0634\u0628\u0648\u0629","kind_detail":"state","min_zoom":4.0,"name:de":"Schabwa","source":"openstreetmap.org","name:fr":"Shabwah","name:ru":"\u0428\u0430\u0431\u0432\u0430","name:hu":"Sabva","id":663081629,"population":470440},"coordinates":[329,2762]},{"type":"Point","properties":{"kind":"region","name:en":"Al Jawf Governorate","name":"\u0645\u062d\u0627\u0641\u0638\u0629 \u0627\u0644\u062c\u0648\u0641","kind_detail":"state","name:ar":"\u0627\u0644\u062c\u0648\u0641","min_zoom":4.0,"source":"openstreetmap.org","name:fr":"Al Jawf","name:ru":"\u042d\u043b\u044c-\u0414\u0436\u0430\u0443\u0444","name:hu":"El-Dzsauf","id":663081630,"population":443797},"coordinates":[112,3101]},{"type":"Point","properties":{"kind":"region","name:en":"Al Mahrah Governorate","name":"\u0645\u062d\u0627\u0641\u0638\u0629 \u0627\u0644\u0645\u0647\u0631\u0629","kind_detail":"state","min_zoom":4.0,"name:de":"al-Mahra","source":"openstreetmap.org","name:fr":"Mahra","name:ru":"\u042d\u043b\u044c-\u041c\u0430\u0445\u0440\u0430","name:hu":"El-Mahra","id":663081631,"population":88594},"coordinates":[1215,3106]},{"type":"Point","properties":{"kind":"region","name:en":"Abyan Governorate","name":"\u0623\u0628\u064a\u0646","kind_detail":"state","min_zoom":4.0,"source":"openstreetmap.org","name:fr":"Abyan","name:hu":"Abjan","id":2281453884},"coordinates":[206,2533]},{"type":"Point","properties":{"kind":"region","name:en":"Togdheer","name":"Togdheer \u062a\u0648\u062c\u062f\u064a\u0631","kind_detail":"state","name:ar":"\u062a\u0648\u062c\u062f\u064a\u0631","source":"openstreetmap.org","min_zoom":4.0,"name:ru":"\u0422\u043e\u0433\u0434\u0435\u0440","id":43528150},"coordinates":[76,1742]},{"type":"Point","properties":{"kind":"region","name:en":"Galguduud","name":"Galguduud \u062c\u0644\u062c\u062f\u0648\u062f","kind_detail":"state","name:ar":"\u062c\u0644\u062c\u062f\u0648\u062f","source":"openstreetmap.org","min_zoom":4.0,"name:ru":"\u0413\u0430\u043b\u0433\u0443\u0434\u0443\u0434","name:hu":"Galguduud","id":43528023},"coordinates":[364,933]},{"type":"Point","properties":{"kind":"region","name":"Banaadir \u0628\u0646\u0627\u062f\u0631","kind_detail":"state","name:ar":"\u0628\u0646\u0627\u062f\u0631","source":"openstreetmap.org","min_zoom":4.0,"name:ru":"\u0411\u0435\u043d\u0430\u0434\u0438\u0440","name:hu":"Banaadir","id":2208332175},"coordinates":[84,388]},{"type":"Point","properties":{"kind":"region","name:en":"Hiran","name":"Hiiraan \u0647\u064a\u0631\u0627\u0646","kind_detail":"state","name:ar":"\u0647\u064a\u0631\u0627\u0646","source":"openstreetmap.org","min_zoom":4.0,"name:ru":"\u0425\u0438\u0440\u0430\u043d","name:hu":"Hiiraan","id":43528050},"coordinates":[91,747]},{"type":"Point","properties":{"kind":"region","name:en":"Nugaal","name":"Nugaal \u0646\u0648\u062c\u0627\u0644","kind_detail":"state","name:ar":"\u0646\u0648\u062c\u0627\u0644","source":"openstreetmap.org","min_zoom":4.0,"name:ru":"\u041d\u0443\u0433\u0430\u043b\u044c","id":43528117},"coordinates":[728,1524]},{"type":"Point","properties":{"kind":"region","name:en":"Sanaag","name":"Sanaag \u0633\u0646\u0627\u062c","kind_detail":"state","name:ar":"\u0633\u0646\u0627\u062c","source":"openstreetmap.org","min_zoom":4.0,"name:ru":"\u0421\u0430\u043d\u0430\u0430\u0433","id":43528126},"coordinates":[546,1867]},{"type":"Point","properties":{"kind":"region","name:en":"Middle Shebelle","name":"Shabeellaha Dhexe \u0634\u0628\u064a\u0644\u064a \u0627\u0644\u0648\u0633\u0637\u0649","kind_detail":"state","name:ar":"\u0634\u0628\u064a\u0644\u064a \u0627\u0644\u0648\u0633\u0637\u0649","name:de":"Mittel-Shabelle","source":"openstreetmap.org","min_zoom":4.0,"name:it":"Medio Scebeli","name:ru":"\u0421\u0440\u0435\u0434\u043d\u044f\u044f \u0428\u0430\u0431\u0435\u043b\u043b\u0435","id":43528134},"coordinates":[182,560]},{"type":"Point","properties":{"kind":"region","name:en":"Sool","name":"Sool \u0633\u0648\u0644","kind_detail":"state","name:ar":"\u0633\u0648\u0644","source":"openstreetmap.org","min_zoom":4.0,"name:ru":"\u0421\u043e\u043b\u044c","id":2208326505},"coordinates":[519,1667]},{"type":"Point","properties":{"kind":"region","name:en":"Bari","name":"Bari \u0628\u0627\u0631\u064a","kind_detail":"state","name:ar":"\u0628\u0627\u0631\u064a","source":"openstreetmap.org","min_zoom":4.0,"name:ru":"\u0411\u0430\u0440\u0438","name:hu":"Bari","id":2208327000},"coordinates":[934,1902]},{"type":"Point","properties":{"kind":"region","name:en":"Mudug","name":"Mudug \u0645\u062f\u062c","kind_detail":"state","name:ar":"\u0645\u062f\u062c","source":"openstreetmap.org","min_zoom":4.0,"name:ru":"\u041c\u0443\u0434\u0443\u0433","id":2208327708},"coordinates":[601,1241]}]},"transit":{"type":"GeometryCollection","geometries":[]},"pois":{"type":"GeometryCollection","geometries":[]},"boundaries":{"type":"GeometryCollection","geometries":[{"type":"LineString","properties":{"source":"naturalearthdata.com","kind":"disputed","sort_rank":261,"kind_detail":"2","min_zoom":0.0,"id":1},"arcs":[0]},{"type":"LineString","properties":{"source":"naturalearthdata.com","kind":"indefinite","sort_rank":259,"kind_detail":"2","min_zoom":0.0,"id":2},"arcs":[1]},{"type":"LineString","properties":{"source":"naturalearthdata.com","kind":"country","sort_rank":262,"kind_detail":"2","min_zoom":0.0,"id":279},"arcs":[2]},{"type":"LineString","properties":{"source":"naturalearthdata.com","kind":"country","sort_rank":262,"kind_detail":"2","min_zoom":0.0,"id":290},"arcs":[3]},{"type":"LineString","properties":{"source":"naturalearthdata.com","kind":"country","sort_rank":262,"kind_detail":"2","min_zoom":0.0,"id":291},"arcs":[4]},{"type":"LineString","properties":{"source":"naturalearthdata.com","kind":"country","sort_rank":262,"kind_detail":"2","min_zoom":0.0,"id":292},"arcs":[5]}]},"roads":{"type":"GeometryCollection","geometries":[]},"earth":{"type":"GeometryCollection","geometries":[{"type":"MultiPolygon","properties":{"sort_rank":10,"source":"naturalearthdata.com","min_zoom":0.0,"kind":"earth","area":14477188419404},"arcs":[[[13]],[[14]],[[15]],[[16]]]}]},"landuse":{"type":"GeometryCollection","geometries":[{"type":"Polygon","properties":{"kind":"nature_reserve","name":"\u0645\u062d\u0645\u064a\u0629 \u062c\u0628\u0644 \u0633\u0645\u062d\u0627\u0646 \u0627\u0644\u0637\u0628\u064a\u0639\u064a\u0629","area":5347200000,"sort_rank":23,"source":"openstreetmap.org","min_zoom":4.0,"tier":2,"id":372822988},"arcs":[[17]]},{"type":"Polygon","properties":{"kind":"nature_reserve","name":"\u0645\u062d\u0645\u064a\u0629 \u0627\u0644\u0645\u0647\u0627 \u0627\u0644\u0639\u0631\u0628\u064a","area":3135800064,"sort_rank":23,"source":"openstreetmap.org","min_zoom":4.0,"tier":2,"id":-3474763,"osm_relation":true},"arcs":[[18]]}]}},"type":"Topology","transform":{"translate":[45.0,-0.0],"scale":[0.0054931641,0.0053571889]},"arcs":[[[542,1493],[27,42],[27,41],[28,44],[34,53],[33,50],[26,41],[0,21],[0,46],[0,31],[0,86],[0,52],[0,50],[0,52]],[[542,1493],[-45,-45],[-50,-50],[-54,-53],[-34,-33],[-55,-54],[-45,-45],[-47,-49],[-42,-45],[-55,-61],[-35,-40],[-56,-62],[-24,-27]],[[0,1618],[41,-14],[60,-21],[56,-19],[79,-27],[63,-22],[50,-17],[11,-5],[60,0],[60,0],[62,0]],[[0,3253],[27,0],[8,-1],[8,-3],[31,-16],[23,-3],[48,-5],[50,-4],[44,-5],[37,4],[30,3],[9,0],[9,-10],[18,-25],[18,-23],[30,-2],[20,9],[21,13],[14,9],[15,38],[10,25],[22,28],[19,23],[25,31],[14,17],[27,33],[27,13],[50,26],[50,24],[32,17],[27,7],[46,6],[54,8],[54,7],[58,8],[64,9],[44,6],[56,8],[47,6],[42,6],[42,6]],[[1270,3546],[8,-19],[8,-18],[8,-19],[8,-19],[9,-18],[8,-19],[8,-19],[8,-18],[8,-19],[8,-19],[8,-18],[8,-19],[8,-18],[8,-19],[8,-19],[8,-18],[8,-19],[13,-6],[8,-17],[11,-25],[11,-24],[11,-25],[11,-24]],[[1934,4096],[-3,-8],[-7,-21],[-6,-20],[-7,-21],[-7,-21],[-6,-20],[-7,-21],[-7,-21],[-6,-20],[-7,-21],[-7,-21],[-6,-20],[-7,-21],[-7,-21],[-6,-20],[-7,-21],[-7,-21],[-8,-24],[-19,-7],[-31,-11],[-32,-10],[-31,-11],[-31,-11],[-32,-11],[-31,-10],[-31,-11],[-32,-11],[-31,-10],[-31,-11],[-32,-11],[-31,-11],[-31,-10],[-31,-11],[-32,-11],[-31,-10],[-26,-9]],[[2666,4096],[1430,0],[0,-4096],[-4096,0],[0,346],[150,85],[41,31],[151,151],[115,128],[85,98],[47,85],[75,102],[73,126],[8,44],[26,69],[21,40],[40,57],[18,32],[17,36],[16,56],[46,45],[33,57],[7,21],[19,42],[38,49],[9,25],[25,35],[2,53],[7,39],[5,62],[6,15],[19,10],[31,8],[11,-5],[21,-3],[1,7],[-4,9],[-13,5],[-19,10],[-1,-4],[1,-10],[-23,-8],[-6,2],[4,5],[7,3],[2,9],[5,11],[2,11],[-3,79],[-7,48],[9,32],[15,28],[2,16],[5,16],[-12,2],[-73,27],[-28,-8],[-20,-22],[-11,-18],[-65,-37],[-85,-15],[-46,-20],[-60,-13],[-22,-2],[-6,-1],[-42,13],[-19,-1],[-24,-6],[-76,-28],[-56,-5],[-44,12],[-12,0],[-32,-14],[-47,-33],[-74,-33],[-19,-2],[-38,8],[-41,3],[-38,8],[-22,-6],[-66,-29],[-61,-34],[0,437],[7,1],[13,23],[10,11],[42,13],[25,31],[23,20],[47,10],[52,6],[54,-2],[30,3],[23,7],[34,15],[48,11],[30,10],[41,37],[41,18],[11,11],[13,6],[53,-9],[31,1],[26,8],[14,1],[20,13],[27,27],[14,17],[8,19],[10,8],[45,25],[36,16],[65,20],[48,4],[31,14],[34,21],[89,19],[56,16],[51,21],[14,8],[13,11],[15,4],[24,14],[22,9],[24,13],[1,20],[-9,37],[12,40],[16,22],[22,19],[24,14],[92,34],[39,14],[56,6],[31,18],[32,12],[21,16],[56,6],[35,-1],[17,-4],[20,-8],[53,14],[20,22],[19,30],[3,12],[-2,12],[-8,11],[3,15],[41,48],[24,8],[70,9],[50,3],[20,7],[31,33],[19,79],[31,31],[24,13],[40,14],[45,8],[46,3],[11,3],[13,8],[-4,24],[-4,20],[-1,33],[-8,33],[0,13],[4,24],[12,28],[7,30],[3,24],[16,18],[28,43],[12,3],[14,2],[-2,-17],[-4,-16],[10,-5],[15,-1],[23,3],[11,18],[28,57],[38,57],[31,33],[43,27],[12,12],[27,53],[23,30]],[[1731,2343],[-58,21],[-49,-1],[-17,-6],[-12,2],[-22,13],[-19,2],[-19,-10],[-5,-6],[-3,-6],[-13,-12],[33,-21],[18,-15],[22,-4],[75,7],[26,16],[26,7],[6,8],[11,5]],[[2540,3830],[-12,30],[-18,-34],[-27,-30],[0,-23],[4,-2],[11,3],[9,9],[12,29],[21,18]],[[1673,2364],[-49,-1],[-17,-6],[-12,2],[-22,13],[-19,2],[-19,-10],[-5,-6],[-3,-6],[-13,-12],[33,-21],[18,-15],[22,-4],[75,7],[26,16],[26,7],[6,8],[11,5],[-58,21]],[[2510,3826],[-27,-30],[0,-23],[4,-2],[11,3],[9,9],[12,29],[21,18],[-12,30],[-18,-34]],[[0,346],[150,85],[41,31],[151,151],[115,128],[85,98],[47,85],[75,102],[73,126],[8,44],[26,69],[21,40],[40,57],[18,32],[17,36],[16,56],[46,45],[33,57],[7,21],[19,42],[38,49],[9,25],[25,35],[2,53],[7,39],[5,62],[6,15],[19,10],[31,8],[11,-5],[21,-3],[1,7],[-4,9],[-13,5],[-19,10],[-1,-4],[1,-10],[-23,-8],[-6,2],[4,5],[7,3],[2,9],[5,11],[2,11],[-3,79],[-7,48],[9,32],[15,28],[2,16],[5,16],[-12,2],[-73,27],[-28,-8],[-20,-22],[-11,-18],[-65,-37],[-85,-15],[-46,-20],[-60,-13],[-22,-2],[-6,-1],[-42,13],[-19,-1],[-24,-6],[-76,-28],[-56,-5],[-44,12],[-12,0],[-32,-14],[-47,-33],[-74,-33],[-19,-2],[-38,8],[-41,3],[-38,8],[-22,-6],[-66,-29],[-61,-34]],[[0,2391],[7,1],[13,23],[10,11],[42,13],[25,31],[23,20],[47,10],[52,6],[54,-2],[30,3],[23,7],[34,15],[48,11],[30,10],[41,37],[41,18],[11,11],[13,6],[53,-9],[31,1],[26,8],[14,1],[20,13],[27,27],[14,17],[8,19],[10,8],[45,25],[36,16],[65,20],[48,4],[31,14],[34,21],[89,19],[56,16],[51,21],[14,8],[13,11],[15,4],[24,14],[22,9],[24,13],[1,20],[-9,37],[12,40],[16,22],[22,19],[24,14],[92,34],[39,14],[56,6],[31,18],[32,12],[21,16],[56,6],[35,-1],[17,-4],[20,-8],[53,14],[20,22],[19,30],[3,12],[-2,12],[-8,11],[3,15],[41,48],[24,8],[70,9],[50,3],[20,7],[31,33],[19,79],[31,31],[24,13],[40,14],[45,8],[46,3],[11,3],[13,8],[-4,24],[-4,20],[-1,33],[-8,33],[0,13],[4,24],[12,28],[7,30],[3,24],[16,18],[28,43],[12,3],[14,2],[-2,-17],[-4,-16],[10,-5],[15,-1],[23,3],[11,18],[28,57],[38,57],[31,33],[43,27],[12,12],[27,53],[23,30]],[[0,1954],[61,34],[66,29],[22,6],[38,-8],[41,-3],[38,-8],[19,2],[74,33],[47,33],[32,14],[12,0],[44,-12],[56,5],[76,28],[24,6],[19,1],[42,-13],[6,1],[22,2],[60,13],[46,20],[85,15],[65,37],[11,18],[20,22],[28,8],[73,-27],[12,-2],[-5,-16],[-2,-16],[-15,-28],[-9,-32],[7,-48],[3,-79],[-2,-11],[-5,-11],[-2,-9],[-7,-3],[-4,-5],[6,-2],[23,8],[-1,10],[1,4],[19,-10],[13,-5],[4,-9],[-1,-7],[-21,3],[-11,5],[-31,-8],[-19,-10],[-6,-15],[-5,-62],[-7,-39],[-2,-53],[-25,-35],[-9,-25],[-38,-49],[-19,-42],[-7,-21],[-33,-57],[-46,-45],[-16,-56],[-17,-36],[-18,-32],[-40,-57],[-21,-40],[-26,-69],[-8,-44],[-73,-126],[-75,-102],[-47,-85],[-85,-98],[-115,-128],[-151,-151],[-41,-31],[-150,-85],[0,1608]],[[1595,2359],[12,-2],[17,6],[49,1],[58,-21],[-11,-5],[-6,-8],[-26,-7],[-26,-16],[-75,-7],[-22,4],[-18,15],[-33,21],[13,12],[3,6],[5,6],[19,10],[19,-2],[22,-13]],[[2498,3774],[-11,-3],[-4,2],[0,23],[27,30],[18,34],[12,-30],[-21,-18],[-12,-29],[-9,-9]],[[0,4096],[2666,0],[-23,-30],[-27,-53],[-12,-12],[-43,-27],[-31,-33],[-38,-57],[-28,-57],[-11,-18],[-23,-3],[-15,1],[-10,5],[4,16],[2,17],[-14,-2],[-12,-3],[-28,-43],[-16,-18],[-3,-24],[-7,-30],[-12,-28],[-4,-24],[0,-13],[8,-33],[1,-33],[4,-20],[4,-24],[-13,-8],[-11,-3],[-46,-3],[-45,-8],[-40,-14],[-24,-13],[-31,-31],[-19,-79],[-31,-33],[-20,-7],[-50,-3],[-70,-9],[-24,-8],[-41,-48],[-3,-15],[8,-11],[2,-12],[-3,-12],[-19,-30],[-20,-22],[-53,-14],[-20,8],[-17,4],[-35,1],[-56,-6],[-21,-16],[-32,-12],[-31,-18],[-56,-6],[-39,-14],[-92,-34],[-24,-14],[-22,-19],[-16,-22],[-12,-40],[9,-37],[-1,-20],[-24,-13],[-22,-9],[-24,-14],[-15,-4],[-13,-11],[-14,-8],[-51,-21],[-56,-16],[-89,-19],[-34,-21],[-31,-14],[-48,-4],[-65,-20],[-36,-16],[-45,-25],[-10,-8],[-8,-19],[-14,-17],[-27,-27],[-20,-13],[-14,-1],[-26,-8],[-31,-1],[-53,9],[-13,-6],[-11,-11],[-41,-18],[-41,-37],[-30,-10],[-48,-11],[-34,-15],[-23,-7],[-30,-3],[-54,2],[-52,-6],[-47,-10],[-23,-20],[-25,-31],[-42,-13],[-10,-11],[-13,-23],[-7,-1],[0,1705]],[[1735,3285],[58,28],[108,13],[-30,-107],[-95,-21],[-41,87]],[[2183,3709],[0,39],[111,-1],[-19,-92],[-63,0],[2,46],[-31,8]]]}