{"objects":{"water":{"type":"GeometryCollection","geometries":[{"type":"Polygon","properties":{"source":"naturalearthdata.com","kind":"ocean","area":1444195503964160,"sort_rank":200,"min_zoom":0.0,"id":1},"arcs":[[0],[1],[2],[3],[4],[5],[6]]},{"type":"LineString","properties":{"source":"naturalearthdata.com","kind":"ocean","sort_rank":205,"boundary":true,"min_zoom":0.0,"id":116},"arcs":[7]},{"type":"LineString","properties":{"source":"naturalearthdata.com","kind":"ocean","sort_rank":205,"boundary":true,"min_zoom":0.0,"id":899},"arcs":[8]},{"type":"LineString","properties":{"source":"naturalearthdata.com","kind":"ocean","sort_rank":205,"boundary":true,"min_zoom":0.0,"id":904},"arcs":[9]},{"type":"LineString","properties":{"source":"naturalearthdata.com","kind":"ocean","sort_rank":205,"boundary":true,"min_zoom":0.0,"id":905},"arcs":[10]},{"type":"LineString","properties":{"source":"naturalearthdata.com","kind":"ocean","sort_rank":205,"boundary":true,"min_zoom":0.0,"id":906},"arcs":[11]},{"type":"LineString","properties":{"source":"naturalearthdata.com","kind":"ocean","sort_rank":205,"boundary":true,"min_zoom":0.0,"id":907},"arcs":[12]},{"type":"LineString","properties":{"source":"naturalearthdata.com","kind":"ocean","sort_rank":205,"boundary":true,"min_zoom":0.0,"id":910},"arcs":[13]}]},"buildings":{"type":"GeometryCollection","geometries":[]},"places":{"type":"GeometryCollection","geometries":[{"type":"Point","properties":{"name:kg":"Malagasi","name:ka":"\u10db\u10d0\u10d3\u10d0\u10d2\u10d0\u10e1\u10d9\u10d0\u10e0\u10d8","name:ko":"\ub9c8\ub2e4\uac00\uc2a4\uce74\ub974","name:cv":"\u041c\u0430\u0434\u0430\u0433\u0430\u0441\u043a\u0430\u0440 \u0420\u0435\u0441\u043f\u0443\u0431\u043b\u0438\u043a\u0438","name:km":"\u1798\u17c9\u17b6\u178a\u17b6\u17a0\u17d2\u1780\u17b6\u179f\u17d2\u1780\u17b6\u179a","name:kl":"Madagaskar","name:cs":"Madagaskar","name:ki":"Bukini","name:kw":"Madagaskar","name:tk":"Madagaskar","name:ku":"Madagaskar","name:ti":"\u121b\u12f3\u130b\u1235\u12ab\u122d","name:ks":"\u0645\u06cc\u0691\u0627\u06af\u0627\u0633\u06a9\u0627\u0631","name:to":"Matakasika","name:tl":"Madagaskar","name:ce":"\u041c\u0430\u0434\u0430\u0433\u0430\u0441\u043a\u0430\u0440","name:ta":"\u0bae\u0b9f\u0b95\u0bbe\u0bb8\u0bcd\u0b95\u0bb0\u0bcd","name:tg":"\u041c\u0430\u0434\u0430\u0433\u0430\u0441\u043a\u0430\u0440","name:ky":"\u041c\u0430\u0434\u0430\u0433\u0430\u0441\u043a\u0430\u0440 \u0420\u0435\u0441\u043f\u0443\u0431\u043b\u0438\u043a\u0430\u0441\u044b","name:te":"\u0c2e\u0c3e\u0c21\u0c4d\u0c17\u0c3e\u0c38\u0c4d\u0c15\u0c3e\u0c30\u0c4d","name:hr":"Madagaskar","name:da":"Madagaskar","name:de":"Madagaskar","name:dz":"\u0f58\u0f0b\u0f51\u0f71\u0f0b\u0f42\u0f7a\u0f66\u0f0b\u0f40\u0f62","source":"openstreetmap.org","name:kn":"\u0cae\u0ca1\u0c97\u0cbe\u0cb8\u0ccd\u0c95\u0cb0\u0ccd","name:dv":"\u0789\u07a6\u0791\u07a6\u078e\u07a6\u0790\u07b0\u0786\u07a6\u0783\u07a6","name:lv":"Madagaskara","name:lt":"Madagaskaras","name:uz":"Madagaskar","name:kk":"\u041c\u0430\u0434\u0430\u0433\u0430\u0441\u043a\u0430\u0440","name:ur":"\u0645\u0688\u063a\u0627\u0633\u06a9\u0631","name:lb":"Madagaskar","name:la":"Madagascaria","name:lg":"Madagasika","name:uk":"\u041c\u0430\u0434\u0430\u0433\u0430\u0441\u043a\u0430\u0440","name:ug":"\u0645\u0627\u062f\u0627\u06af\u0627\u0633\u0643\u0627\u0631","name:li":"Madagaskar","name:ln":"Madagasikari","name:lo":"\u0ea1\u0eb2\u0e94\u0eb2\u0e81\u0eb2\u0e94\u0e81\u0ec9\u0eb2","name:el":"\u039c\u03b1\u03b4\u03b1\u03b3\u03b1\u03c3\u03ba\u03ac\u03c1\u03b7","name:eo":"Madagaskaro","name":"Madagascar","name:ee":"Madagaska nutome","name:th":"\u0e1b\u0e23\u0e30\u0e40\u0e17\u0e28\u0e21\u0e32\u0e14\u0e32\u0e01\u0e31\u0e2a\u0e01\u0e32\u0e23\u0e4c","name:eu":"Madagaskar","name:et":"Madagaskar","name:rn":"Madagasikari","name:az":"Madaqaskar","name:id":"Madagaskar","name:ar":"\u0645\u062f\u063a\u0634\u0642\u0631","name:io":"Madagaskar","name:ak":"Madagaska","name:am":"\u121b\u12f3\u130b\u1235\u12ab\u122d","name:ru":"\u041c\u0430\u0434\u0430\u0433\u0430\u0441\u043a\u0430\u0440","name:rw":"Madagasikari","name:af":"Madagaskar","name:zu":"i-Madagascar","name:zh-yue":"\u99ac\u9054\u52a0\u65af\u52a0","name:zh":"\u9a6c\u8fbe\u52a0\u65af\u52a0","name:so":"Madagaskar","name:sl":"Madagaskar","name:sk":"Madagaskar","name:ja":"\u30de\u30c0\u30ac\u30b9\u30ab\u30eb","name:si":"\u0db8\u0dd0\u0da9\u0d9c\u0dc3\u0dca\u0dad\u0dbb\u0dba","name:sh":"Madagaskar","name:sg":"Madagask\u00e4ra","name:se":"Madagaskar","name:sc":"Madagasc\u00e0r","name:br":"Madagaskar","name:bs":"Madagaskar","name:bm":"Madagasikari","name:bn":"\u09ae\u09be\u09a6\u09be\u0997\u09be\u09b8\u09cd\u0995\u09be\u09b0","name:bo":"\u0f58\u0f0b\u0f51\u0f71\u0f0b\u0f42\u0fb7\u0f66\u0f90\u0f71\u0f62\u0f0d","name:sa":"\u092e\u0921\u0917\u093e\u0938\u094d\u0915\u0930","name:sw":"Bukini","name:be":"\u041c\u0430\u0434\u0430\u0433\u0430\u0441\u043a\u0430\u0440","name:su":"Madagaskar","name:bg":"\u041c\u0430\u0434\u0430\u0433\u0430\u0441\u043a\u0430\u0440","name:ss":"IMadagasikha","name:ba":"\u041c\u0430\u0434\u0430\u0433\u0430\u0441\u043a\u0430\u0440","name:sq":"Madagaskar","name:jv":"Madagaskar","name:pt":"Madag\u00e1scar","name:ps":"\u0645\u0627\u062f\u063a\u0627\u0633\u06a9\u0631","min_zoom":2.0,"name:zh-min-nan":"Madagasikara","name:os":"\u041c\u0430\u0434\u0430\u0433\u0430\u0441\u043a\u0430\u0440","name:or":"\u0b2e\u0b3e\u0b21\u0b3e\u0b17\u0b3e\u0b38\u0b4d\u0b15\u0b30\u0b4d","name:pl":"Madagaskar","name:sr":"\u041c\u0430\u0434\u0430\u0433\u0430\u0441\u043a\u0430\u0440","name:pa":"\u0a2e\u0a3e\u0a26\u0a3e\u0a17\u0a3e\u0a38\u0a15\u0a30","name:tr":"Madagaskar","name:hi":"\u092e\u0948\u0921\u093e\u0917\u093e\u0938\u094d\u0915\u0930","name:sv":"Madagaskar","name:he":"\u05de\u05d3\u05d2\u05e1\u05e7\u05e8","name:ha":"Madagaskar","name:hy":"\u0544\u0561\u0564\u0561\u0563\u0561\u057d\u056f\u0561\u0580","name:ht":"Madagaskar","name:hu":"Madagaszk\u00e1ri K\u00f6zt\u00e1rsas\u00e1g","name:qu":"Madagaskar","population":22005222,"kind":"country","name:is":"Madagaskar","name:yi":"\u05de\u05d0\u05d3\u05d0\u05d2\u05d0\u05e1\u05e7\u05d0\u05e8","name:yo":"Or\u00edl\u1eb9\u0301\u00e8de Madasika","name:mt":"Madagaskar","name:ms":"Madagaskar","name:mr":"\u092e\u093e\u0926\u093e\u0917\u093e\u0938\u094d\u0915\u0930","name:my":"\u1019\u1012\u1002\u1010\u103a\u1005\u1000\u102c","official_name":"Repoblikan'i Madagasikara","name:mg":"Madagasikara","name:ml":"\u0d2e\u0d21\u0d17\u0d3e\u0d38\u0d4d\u0d15\u0d7c","name:mn":"\u041c\u0430\u0434\u0430\u0433\u0430\u0441\u043a\u0430\u0440","name:mi":"Marak\u0101hia","id":432425028,"name:mk":"\u041c\u0430\u0434\u0430\u0433\u0430\u0441\u043a\u0430\u0440","name:vo":"Malagase\u00e4n","name:fa":"\u0645\u0627\u062f\u0627\u06af\u0627\u0633\u06a9\u0627\u0631","name:ff":"Madagaskaar","name:fi":"Madagaskar","name:fj":"Madagasikar","name:fo":"Madagaskar","alt_name:vi":"M\u00e3 \u0110\u1ea3o","name:fy":"Madagaskar","name:nl":"Madagaskar","name:nn":"Madagaskar","name:no":"Madagaskar","name:ne":"\u092e\u0921\u093e\u0917\u093e\u0938\u094d\u0915\u0930","name:wo":"Madagaskaar","name:nv":"Mada\u02bcg\u00e9\u00e9sg\u00e1\u00e1","name:gd":"Madagasgar","name:gn":"Madagaka","name:gu":"\u0aae\u0ac7\u0aa1\u0abe\u0a97\u0abe\u0ab8\u0acd\u0a95\u0ab0","name:tt":"\u041c\u0430\u0434\u0430\u0433\u0430\u0441\u043a\u0430\u0440"},"coordinates":[262,563]},{"type":"Point","properties":{"name:pt":"Maur\u00edcio","name:ml":"\u0d2e\u0d57\u0d31\u0d40\u0d37\u0d4d\u0d2f\u0d38\u0d4d","name:ps":"\u0645\u0627\u0648\u0631\u06cc\u062a\u0648\u0633","name:ka":"\u10db\u10d0\u10d5\u10e0\u10d8\u10d9\u10d8\u10d0","name:ko":"\ubaa8\ub9ac\uc154\uc2a4","name:cv":"\u041c\u0430\u0432\u0440\u0438\u043a\u0438","name:km":"\u1798\u17c9\u17bc\u179a\u17b8\u1791\u17bb\u179f","name:cs":"Mauricius","name:ki":"Morisi","name:kw":"Ynys Morrys","name:tk":"Mawriki\u00fd","name:ku":"Maur\u00eetius","name:ti":"\u121b\u1229\u1238\u1235","name:ks":"\u0645\u0648\u0631\u0650\u0634\u064e\u0633","name:to":"Maulitiusi","name:tl":"Maurisyo","name:pa":"\u0a2e\u0a3e\u0a30\u0a40\u0a38\u0a3c\u0a38","name:os":"\u041c\u0430\u0432\u0440\u0438\u043a\u0438\u0439","name:or":"\u0b2e\u0b4c\u0b30\u0b3f\u0b38\u0b38\u0b4d","name:ta":"\u0bae\u0bca\u0bb0\u0bbf\u0b9a\u0bbf\u0baf\u0bb8\u0bcd","name:tg":"\u041c\u0430\u0432\u0440\u0438\u043a\u0438\u044f","name:ca":"Maurici","name:te":"\u0c2e\u0c3e\u0c30\u0c3f\u0c37\u0c38\u0c4d","name:cy":"Mawrisiws","name:hr":"Mauricius","name:ln":"Moris\u025b","name:dz":"\u0f58\u0f7c\u0f0b\u0f62\u0f72\u0f0b\u0f64\u0f71\u0f66","source":"openstreetmap.org","name:kn":"\u0cae\u0cbe\u0cb0\u0cbf\u0cb6\u0cbf\u0caf\u0cb8\u0ccd","name:dv":"\u0789\u07ae\u0783\u07a8\u079d\u07a6\u0790\u07b0","name:lv":"Maur\u012bcija","name:lt":"Mauricijus","name:uz":"Mavritsiya","name:kk":"\u041c\u0430\u0432\u0440\u0438\u043a\u0438\u0439","name:he":"\u05de\u05d0\u05d5\u05e8\u05d9\u05e6\u05d9\u05d5\u05e1","min_zoom":2.0,"kind":"country","name:ur":"\u0645\u0627\u0631\u06cc\u0634\u0633","name:la":"Mauritia","name:lg":"Mawulisyasi","name:uk":"\u041c\u0430\u0432\u0440\u0438\u043a\u0456\u0439","name:hy":"\u0544\u0561\u057e\u0580\u056b\u057f\u0578\u057d","name:ug":"\u0645\u0627\u06cb\u0631\u0649\u062a\u0649\u0626\u06c7\u0633","name:qu":"Mawrisyu","name:lo":"\u0ea1\u0ebb\u0ea7\u0ea5\u0eb5\u0e95\u0ebd\u0e94","name:oc":"Maurici","population":1274189,"name:el":"\u039c\u03b1\u03c5\u03c1\u03af\u03ba\u03b9\u03bf\u03c2","name:eo":"Ma\u016dricio","name":"Mauritius","official_name":"Republic of Mauritius","name:ee":"mauritiusduk\u0254","nat_name":"Republic of Mauritius","name:th":"\u0e1b\u0e23\u0e30\u0e40\u0e17\u0e28\u0e21\u0e2d\u0e23\u0e34\u0e40\u0e0a\u0e35\u0e22\u0e2a","name:gu":"\u0aae\u0acb\u0ab0\u0abf\u0ab6\u0abf\u0aaf\u0ab8","name:eu":"Maurizio","name:es":"Mauricio","name:ia":"Mauritio","name:mt":"Mawrizju","name:rn":"Izinga rya Morise","name:az":"Mavritis","name:mr":"\u092e\u0949\u0930\u093f\u0936\u0938","name:ar":"\u0645\u0648\u0631\u064a\u0634\u064a\u0648\u0633","name:my":"\u1019\u1031\u102c\u101b\u1005\u103a\u101b\u103e\u1014\u102d\u102f\u1004\u103a\u1004\u1036","name:io":"Maurico","name:is":"M\u00e1rit\u00edus","name:am":"\u121b\u1229\u1238\u1235","name:an":"Mauricio","name:ru":"\u041c\u0430\u0432\u0440\u0438\u043a\u0438\u0439","name:rw":"Morise","id":1708980402,"name:mk":"\u041c\u0430\u0443\u0440\u0438\u0446\u0438\u0443\u0441","name:vo":"Morise\u00e4n","name:zu":"i-Mauritius","name:ha":"Moritus","name:mn":"\u041c\u0430\u0432\u0440\u0438\u043a\u0438\u0439","name:ff":"Moriis","name:hi":"\u092e\u0949\u0930\u093f\u0936\u0938","name:mg":"Maorisy","name:fo":"M\u00f3ritius","name:fr":"Maurice","name:wo":"M\u00f3oris","name:fy":"Mauritsius","name:zh":"\u6bdb\u91cc\u6c42\u65af","name:gv":"Ellan Wirrish","name:so":"Murishiyoos","name:sk":"Maur\u00edcius","name:ja":"\u30e2\u30fc\u30ea\u30b7\u30e3\u30b9","name:si":"\u0db8\u0dd4\u0dbb\u0dd4\u0dc3\u0dd2\u0dba","name:fa":"\u0645\u0648\u0631\u06cc\u0633","name:sg":"M\u00f6r\u00eesi","name:sc":"Mauritzius","name:ne":"\u092e\u093e\u0909\u0930\u093f\u091f\u0938","name:br":"Moris","name:bs":"Mauricius","name:bm":"Morisi","name:bn":"\u09ae\u09b0\u09bf\u09b6\u09be\u09b8","name:bo":"\u0f58\u0f7d\u0f0b\u0f62\u0f72\u0f64\u0f66\u0f84\u0f0d","name:sa":"\u092e\u093e\u0930\u093f\u0937\u0938\u094d","name:sw":"Morisi","name:be":"\u041c\u0430\u045e\u0440\u044b\u043a\u0456\u0439","name:bg":"\u041c\u0430\u0432\u0440\u0438\u0446\u0438\u0439","name:ss":"IMorishiyasi","name:sr":"\u041c\u0430\u0443\u0440\u0438\u0446\u0438\u0458\u0443\u0441","name:sq":"Mauritiusi","name:ga":"Oile\u00e1n Mhuir\u00eds","name:gd":"Na h-Eileanan Mhoiriseas","name:ht":"Moris","name:gl":"Mauricio","name:yo":"Or\u00edl\u1eb9\u0301\u00e8de Maritiusi","name:ak":"M\u0254rehye\u0254s","name:tt":"\u041c\u0430\u0432\u0440\u0438\u043a\u0438\u0439"},"coordinates":[2288,311]},{"type":"Point","properties":{"name:kg":"Seychell","name:pt":"Seicheles","name:ps":"\u0633\u06cc\u0634\u0644","name:ka":"\u10e1\u10d4\u10d8\u10e8\u10d4\u10da\u10d8\u10e1 \u10d9\u10e3\u10dc\u10eb\u10e3\u10da\u10d4\u10d1\u10d8","name:ko":"\uc250\uc774\uc258","name:cv":"\u0421\u0435\u0439\u0448\u0435\u043b \u0443\u0442\u0440\u0430\u0432\u04d7\u0441\u0435\u043c","name:km":"\u179f\u17b8\u179f\u17c2\u179b","name:cs":"Seychely","name:ki":"Shelisheli","name:kw":"Seychellys","name:tk":"Se\u00fd\u015fel Adalary","name:ku":"Sey\u015fel","name:ti":"\u1232\u123c\u120d\u1235","name:ks":"\u0633\u06cc\u0634\u064e\u0644\u0650\u0633","name:to":"\u02bbOtumotu Seiseli","name:tl":"Seyshels","name:pa":"\u0a38\u0a47\u0a38\u0a3c\u0a48\u0a32","name:os":"\u0421\u0435\u0439\u0448\u0435\u043b\u0442\u00e6","name:or":"\u0b38\u0b47\u0b1a\u0b47\u0b32\u0b38\u0b4d","name:ce":"\u0421\u0435\u0439\u0448\u0435\u043b\u0430\u043d \u0433l\u0430\u0439\u0440\u0435\u0448","name:ta":"\u0bb8\u0bc7\u0b9a\u0bc7\u0bb2\u0bcd\u0bb8\u0bcd","name:tg":"\u04b6\u0430\u0437\u0438\u0440\u0430\u04b3\u043e\u0438 \u0421\u0435\u0439\u0448\u0435\u043b","name:te":"\u0c38\u0c40\u0c37\u0c46\u0c32\u0c4d\u0c38\u0c4d","name:hu":"Seychelle-szigetek","name:hr":"Sej\u0161eli","name:ln":"S\u025bsh\u025bl\u025b","name:da":"Seychellerne","name:de":"Seychellen","name:dz":"\u0f66\u0f7a\u0f0b\u0f64\u0f71\u0f63\u0f66","source":"openstreetmap.org","name:nv":"Seishel","name:kn":"\u0cb8\u0cc0\u0cb6\u0cc6\u0cb2\u0ccd\u0cb2\u0cc6\u0cb8\u0ccd","name:dv":"\u078c\u07ad\u0782\u07b0\u078e\u07a6\u078b\u07a9\u0784\u07aa","name:lv":"Sei\u0161elu salas","name:lt":"Sei\u0161eliai","name:uz":"Seyshell orollari","name:kk":"\u0421\u0435\u0439\u0448\u0435\u043b\u044c \u0410\u0440\u0430\u043b\u0434\u0430\u0440\u044b","name:sv":"Seychellerna","name:he":"\u05e1\u05d9\u05d9\u05e9\u05dc","min_zoom":2.0,"kind":"country","name:ur":"\u0633\u0634\u0644\u06cc\u0632","name:lb":"Seychellen","name:la":"Insulae Seisellenses","name:lg":"Sesere","name:uk":"\u0421\u0435\u0439\u0448\u0435\u043b\u044c\u0441\u044c\u043a\u0456 \u041e\u0441\u0442\u0440\u043e\u0432\u0438","name:hy":"\u054d\u0565\u0575\u0577\u0565\u056c\u0576\u0565\u0580","name:ug":"\u0633\u06d0\u064a\u0634\u06d0\u0644 \u0626\u0627\u0631\u0627\u0644\u0644\u0649\u0631\u0649","name:li":"Seisjelle","name:qu":"Sichillakuna","name:lo":"\u0ec0\u0e8a\u0ec0\u0e8a\u0ea7\u0ec1\u0ea5\u0e94","name:oc":"Seich\u00e8las","population":90024,"name:el":"\u03a3\u03b5\u03cb\u03c7\u03ad\u03bb\u03bb\u03b5\u03c2","name:eo":"Sej\u015deloj","name":"Seychelles","name:is":"Seychelles-eyjar","name:ee":"Sesh\u025bls nutome","name:th":"\u0e1b\u0e23\u0e30\u0e40\u0e17\u0e28\u0e40\u0e0b\u0e40\u0e0a\u0e25\u0e2a\u0e4c","name:eu":"Seychelleak","name:et":"Sei\u0161ellid","name:nl":"Seychellen","name:yo":"Or\u00edl\u1eb9\u0301\u00e8de se\u1e63\u1eb9l\u1eb9si","name:rm":"Seychellas","name:rn":"Amazinga ya Seyisheli","name:az":"Sey\u00e7els","name:mr":"\u0938\u0947\u0936\u0947\u0932\u094d\u0938","name:ar":"\u0633\u064a\u0634\u064a\u0644","name:my":"\u1006\u1031\u1038\u101b\u103e\u1032\u1014\u102d\u102f\u1004\u103a\u1004\u1036","name:io":"Seycheli","name:ak":"Seyhy\u025bl","name:am":"\u1232\u123c\u120d\u1235","name:it":"Seicelle","name:ml":"\u0d38\u0d46\u0d2f\u0d4d\u0d37\u0d46\u0d7d\u0d38\u0d4d","name:ru":"\u0421\u0435\u0439\u0448\u0435\u043b\u044b","name:rw":"Seyishele","name:pl":"Seszele","name:mk":"\u0421\u0435\u0458\u0448\u0435\u043b\u0438","name:af":"Seychelle","name:zu":"i-Seychelles","name:ha":"Saishal","name:mn":"\u0421\u0435\u0439\u0448\u0435\u043b\u0438\u0439\u043d \u0430\u0440\u043b\u0443\u0443\u0434","name:nn":"Seychellane","name:ff":"Seysel","name:fi":"Seychellit","name:hi":"\u0938\u0947\u0936\u0947\u0932\u094d\u0938","name:mg":"Seyshela","id":424298277,"official_name":"Repiblik Sesel","name:wo":"Seysel","name:fy":"de Seysjellen","name:vo":"S\u00e4celu\u00e4ns","name:zh":"\u585e\u820c\u5c14\u7fa4\u5c9b","name:gv":"Ny h-Ellanyn Heshell","name:so":"Sishelis","name:sl":"Sej\u0161eli","name:sk":"Seychely","name:ja":"\u30bb\u30fc\u30b7\u30a7\u30eb","name:si":"\u0dc3\u0dd3\u0dc1\u0dd9\u0dbd\u0dca\u0dc3\u0dca","name:fa":"\u0633\u06cc\u0634\u0644","name:sg":"S\u00ebysh\u00eale","name:se":"Seychellsullot","name:ne":"\u0938\u0947\u091a\u0947\u0932\u0947\u0938","name:br":"Sechelez","name:bs":"Sej\u0161eli","name:bm":"Ses\u025bli","name:bn":"\u09b8\u09bf\u09b8\u09bf\u09b2\u09bf","name:bo":"\u0f66\u0f71\u0f0b\u0f64\u0f7b\u0f63\u0f0d","name:sa":"\u0938\u0947\u0936\u0947\u0932","name:no":"Seychellene","name:sw":"Shelisheli","name:be":"\u0421\u0435\u0439\u0448\u044d\u043b\u044b","name:su":"Seych\u00e9ll","name:bg":"\u0421\u0435\u0439\u0448\u0435\u043b\u0441\u043a\u0438 \u043e\u0441\u0442\u0440\u043e\u0432\u0438","name:ss":"ISeyishelesi","name:sr":"\u0421\u0435\u0458\u0448\u0435\u043b\u0438","name:sq":"Sishel","name:ga":"Na S\u00e9is\u00e9il","name:gd":"Na h-Eileanan Sheiseall","name:ht":"Sech\u00e8l","name:gl":"Seixeles","name:fo":"Seyskelloyggjarnar","name:tr":"Sey\u015feller","name:gu":"\u0ab6\u0ac7\u0ab6\u0ac7\u0ab2\u0acd\u0ab8","name:tt":"\u0421\u0435\u0439\u0448\u0435\u043b \u0443\u0442\u0440\u0430\u0443\u043b\u0430\u0440\u044b"},"coordinates":[1903,3227]},{"type":"Point","properties":{"name:wa":"Iye del Reyunion","name:pt":"Reuni\u00e3o","name:ka":"\u10e0\u10d4\u10d8\u10e3\u10dc\u10d8\u10dd\u10dc\u10d8","name:mt":"R\u00e9union","name:ko":"\ub9ac\uc720\ub2c8\uc628","name:kn":"\u0cb0\u0cc0\u0caf\u0cc2\u0ca8\u0cbf\u0caf\u0ca8\u0ccd","name:km":"\u179a\u17c9\u17c1\u17a2\u17ca\u17bb\u1799\u17c9\u17bb\u1784","name:kl":"R\u00e9union","name:cs":"R\u00e9union","name:ki":"Riyunioni","name:kw":"R\u00e9union","name:tr":"R\u00e9union","name:ku":"R\u00e9union","name:ti":"\u122a\u12e9\u1292\u12e8\u1295","name:ks":"\u0631\u0650\u06cc\u0648\u0657\u0646\u0650\u06cc\u064e\u0646","name:to":"Li\u02bbiunioni","name:tl":"R\u00e9union","name:pa":"\u0a30\u0a47\u0a0a\u0a28\u0a40\u0a13\u0a02","name:os":"\u0420\u0435\u044e\u043d\u044c\u043e\u043d","name:or":"\u0b30\u0b3f\u0b5f\u0b41\u0b28\u0b3f\u0b05\u0b28\u0b4d","name:pl":"Reunion","name:ta":"\u0bb0\u0bc0\u0baf\u0bc2\u0ba9\u0bbf\u0baf\u0ba9\u0bcd","name:ca":"Illa de la Reuni\u00f3","name:te":"\u0c30\u0c3f\u0c2f\u0c42\u0c28\u0c3f\u0c2f\u0c28\u0c4d","name:ro":"Reunion","name:cy":"R\u00e9union","name:ln":"Lenyo","name:da":"Reunion","name:de":"R\u00e9union","name:dz":"\u0f62\u0f7a\u0f0b\u0f61\u0f74\u0f0b\u0f53\u0f72\u0f0b\u0f61\u0f7c\u0f53","source":"openstreetmap.org","name:dv":"\u0783\u07a8\u0794\u07ab\u0782\u07a8\u0787\u07a6\u0782\u07b0","name:lv":"Reinjona","name:lt":"Reunjonas","name:hi":"\u0930\u093f\u092f\u0942\u0928\u093f\u092f\u0928","name:kk":"\u0420\u0435\u044e\u043d\u044c\u043e\u043d","name:sv":"R\u00e9union","name:he":"\u05e8\u05d0\u05d5\u05e0\u05d9\u05d5\u05df","kind":"region","name:ur":"\u0631\u06cc \u06cc\u0648\u0646\u06cc\u0646","name:lb":"Departement La R\u00e9union","name:la":"Reunio","name:lg":"Leyunyoni","name:uk":"\u0420\u0435\u044e\u043d\u044c\u0439\u043e\u043d","name:hy":"\u054c\u0565\u0575\u0578\u0582\u0576\u0575\u0578\u0576","min_zoom":4.0,"name:hu":"R\u00e9union","name:hr":"Reunion","name:lo":"\u0ec0\u0ea3\u0ead\u0eb9\u0e99\u0eb4\u0e8d\u0ebb\u0e87","name:oc":"Re\u00fcnion","population":828581,"name:el":"\u03a1\u03b5\u03ca\u03bd\u03b9\u03cc\u03bd","name:eo":"Reunio","name:en":"R\u00e9union","name":"La R\u00e9union","name:is":"R\u00e9union","name:ee":"R\u00e9union nutome","name:th":"\u0e40\u0e23\u0e2d\u0e39\u0e19\u0e35\u0e22\u0e07","name:eu":"Reunion","name:et":"R\u00e9union","name:nl":"R\u00e9union","name:es":"La Reuni\u00f3n","name:ia":"Reunion","name:rm":"R\u00e9union","name:rn":"Amazinga ya Reyiniyo","name:az":"Reyunion","name:id":"R\u00e9union","name:ms":"R\u00e9union","name:mr":"\u0930\u093f\u092f\u0942\u0928\u093f\u092f\u0928","name:qu":"Riyunyun","name:ar":"\u0631\u064a\u0648\u0646\u064a\u0648\u0646","name:io":"Reunion","int_name":"R\u00e9union","name:ak":"Reyuni\u0254n","name:am":"\u122a\u12e9\u1292\u12e8\u1295","name:it":"Riunione","name:vi":"R\u00e9union","name:ru":"\u0420\u0435\u044e\u043d\u044c\u043e\u043d","name:rw":"Reyiniyo","id":424297956,"name:mk":"\u0420\u0438\u0458\u0443\u043d\u0438\u043e\u043d","name:af":"R\u00e9union","name:zu":"i-R\u00e9union","name:ha":"Rawuniyan","name:mn":"\u0420\u0435\u044e\u043d\u044c\u043e\u043d","name:nn":"R\u00e9union","name:ff":"Rewi\u00f1oo","kind_detail":"state","name:no":"R\u00e9union","name:mg":"Larenion","name:fo":"R\u00e9union","name:zh":"\u7559\u5c3c\u6c6a","name:so":"R\u00e9union","name:sn":"R\u00e9union","name:sl":"Reunion","name:sk":"Reunion","name:ja":"\u30ec\u30e6\u30cb\u30aa\u30f3\u5cf6","name:si":"\u0dbb\u0dd3\u0dba\u0dd4\u0db1\u0dd2\u0dba\u0db1\u0dca","name:fa":"\u0631\u0626\u0648\u0646\u06cc\u0648\u0646","name:sg":"Rein\u00efon","name:se":"R\u00e9union","name:ne":"\u0930\u093f\u092f\u0941\u0928\u093f\u092f\u0928","name:br":"Enez ar Reunion","name:bs":"Rejunion","name:bm":"Reyu\u0272\u0254\u014b","name:bn":"\u09b0\u09bf\u0987\u0989\u09a8\u09bf\u09af\u09bc\u09a8","name:ml":"\u0d31\u0d40\u0d2f\u0d42\u0d23\u0d3f\u0d2f\u0d7b","name:sw":"Riyunioni","name:be":"\u0420\u0443\u043d\u044c\u0451\u043d","name:su":"R\u00e9union","name:bg":"\u0420\u0435\u044e\u043d\u0438\u044a\u043d","name:wo":"Rei\u00f1\u00f5o","name:sr":"\u0420\u0435\u0438\u043d\u0438\u043e\u043d","name:ga":"R\u00e9union","name:gd":"R\u00e9union","name:jv":"R\u00e9union","name:gl":"Reuni\u00f3n","name:yo":"Or\u00edl\u1eb9\u0301\u00e8de Riuniyan","name:gu":"\u0ab0\u0ac0\u0aaf\u0ac1\u0aa8\u0abf\u0aaf\u0aa8","name:fi":"R\u00e9union"},"coordinates":[1916,152]},{"type":"Point","properties":{"name:mt":"Majotte","name:rn":"Mayote","name:az":"Mayot","name:mr":"\u092e\u093e\u092f\u094b\u091f\u094d\u091f\u0947","name:ko":"\ub9c8\uc694\ud2b8","name:kn":"\u0cae\u0caf\u0cca\u0c9f\u0ccd\u0c9f\u0cc6","name:km":"\u1798\u17c9\u17b6\u1799\u17bb\u178f","name:ar":"\u0645\u0627\u064a\u0648\u062a","name:bs":"Majote","min_zoom":4.0,"name:ti":"\u121c\u12ed\u12a6\u1274","name:am":"\u121c\u12ed\u12a6\u1274","name:to":"Meioti","name:ml":"\u0d2e\u0d2f\u0d4b\u0d1f\u0d4d\u0d1f\u0d4d","loc_name":"Maore","name:or":"\u0b2e\u0b3e\u0b5f\u0b4b\u0b1f\u0b47","name:pl":"Majotta","name:ta":"\u0bae\u0baf\u0bcb\u0ba4\u0bcd","id":249399460,"name:mk":"\u041c\u0430\u0458\u043e\u0442\u0435","name:te":"\u0c2e\u0c3e\u0c2f\u0c4a\u0c1f\u0c4d\u0c1f\u0c3f","name:fa":"\u0645\u0627\u06cc\u0648\u062a","name:ha":"Mayoti","name:lt":"Majotas","name:ff":"Mayoot","kind_detail":"state","kind":"region","name:lo":"\u0ea1\u0eb2\u0ea2\u0ead\u0e94","name:dz":"\u0f58\u0f7a\u0f0b\u0f61\u0f7c\u0f4a","source":"openstreetmap.org","name:zu":"i-Mayotte","name:zh":"\u9a6c\u7ea6\u7279","name:lv":"Majota","name:ja":"\u30de\u30e8\u30c3\u30c8","name:si":"\u0db8\u0dba\u0ddd\u0da7\u0dd2","name:hi":"\u092e\u0948\u092f\u091f","name:sg":"M\u00e4y\u00f4te","name:he":"\u05de\u05d0\u05d9\u05d5\u05d8","name:ne":"\u092e\u093e\u092f\u094b\u091f\u094d\u091f","name:ur":"\u0645\u0627\u06cc\u0648\u0679","name:bm":"Mayoti","name:bn":"\u09ae\u09be\u09af\u09bc\u09cb\u09a4\u09cd\u09a4\u09c7","name:uk":"\u041c\u0430\u0439\u043e\u0442\u0442\u0430","name:ru":"\u041c\u0430\u0439\u043e\u0442\u0442\u0430","name:be":"\u041c\u0430\u0451\u0442\u0430","name:bg":"\u041c\u0435\u0439\u043e\u0442","name:hr":"Majote","name:sr":"\u041c\u0430\u0458\u043e\u0442\u0435","population":217091,"name:el":"\u039c\u03b1\u03b3\u03b9\u03cc\u03c4","name:eo":"Majoto","name":"Mayotte","name:ee":"Mayotte nutome","name:mg":"May\u00f4ty","name:ln":"Mayot\u025b","name:th":"\u0e21\u0e32\u0e22\u0e2d\u0e15","name:gu":"\u0aae\u0ac7\u0aaf\u0acb\u0a9f","name:ak":"May\u0254te","name:ks":"\u0645\u064e\u06cc\u06cc\u0679","name:yo":"Or\u00edl\u1eb9\u0301\u00e8de Mayote"},"coordinates":[28,1702]},{"type":"Point","properties":{"admin_level":"3","kind":"region","name":"Province d\u2019Antananarivo","name:lt":"Antananaryvo provincija","kind_detail":"state","min_zoom":4.0,"source":"openstreetmap.org","name:mg":"Faritany Antananarivo","id":4353436344},"coordinates":[405,586]},{"type":"Point","properties":{"admin_level":"3","kind":"region","name:en":"Toamasina Province","name":"Province de Tamatave","kind_detail":"state","min_zoom":4.0,"name:de":"Provinz Toamasina","source":"openstreetmap.org","name:mg":"Faritany Toamasina","id":4346563424},"coordinates":[683,783]},{"type":"Point","properties":{"admin_level":"3","kind":"region","name":"Province de Mahajanga","name:lt":"Mahadzangos provincija","kind_detail":"state","min_zoom":4.0,"source":"openstreetmap.org","name:mg":"Faritany Mahajanga","id":4346565729},"coordinates":[224,969]},{"type":"Point","properties":{"admin_level":"3","kind":"region","name":"Province d'Antsiranana","source":"openstreetmap.org","kind_detail":"state","min_zoom":4.0,"id":4353437324},"coordinates":[761,1534]},{"type":"Point","properties":{"admin_level":"4","kind":"region","name":"Diana","source":"openstreetmap.org","kind_detail":"state","min_zoom":4.0,"id":4343219345},"coordinates":[748,1631]},{"type":"Point","properties":{"admin_level":"4","kind":"region","name":"Sava","source":"openstreetmap.org","kind_detail":"state","min_zoom":4.0,"id":4346493551},"coordinates":[869,1428]},{"type":"Point","properties":{"admin_level":"4","kind":"region","name":"Sofia","source":"openstreetmap.org","kind_detail":"state","min_zoom":4.0,"id":4346498378},"coordinates":[593,1249]},{"type":"Point","properties":{"admin_level":"3","kind":"region","name":"Province de Fianarantsoa","name:lt":"Fianarancua provincija","kind_detail":"state","min_zoom":4.0,"source":"openstreetmap.org","name:mg":"Faritany Antananarivo","id":4353431093},"coordinates":[341,5]},{"type":"Point","properties":{"admin_level":"3","kind":"region","name":"Province de Fianarantsoa","name:lt":"Fianarancua provincija","kind_detail":"state","min_zoom":4.0,"source":"openstreetmap.org","name:mg":"Faritany Antananarivo","id":4353438824},"coordinates":[294,37]}]},"transit":{"type":"GeometryCollection","geometries":[]},"pois":{"type":"GeometryCollection","geometries":[]},"boundaries":{"type":"GeometryCollection","geometries":[]},"roads":{"type":"GeometryCollection","geometries":[]},"earth":{"type":"GeometryCollection","geometries":[{"type":"MultiPolygon","properties":{"sort_rank":10,"source":"naturalearthdata.com","min_zoom":0.0,"kind":"earth","area":548114257365},"arcs":[[[14]],[[15]],[[16]],[[17]],[[18]],[[19]],[[20]]]}]},"landuse":{"type":"GeometryCollection","geometries":[{"type":"Polygon","properties":{"kind":"park","name":"Ankarafantsika","area":1473580032,"sort_rank":24,"source":"openstreetmap.org","min_zoom":4.0,"tier":2,"id":-1156008,"osm_relation":true},"arcs":[[21]]},{"type":"Polygon","properties":{"kind":"protected_area","name":"Parc naturel marin de Mayotte","area":72573001728,"sort_rank":17,"source":"openstreetmap.org","min_zoom":4.0,"tier":2,"id":-549575,"osm_relation":true,"protect_class":"5"},"arcs":[[22],[23],[24]]},{"type":"Polygon","properties":{"kind":"park","name":"Parc National d'Ankarafantsika","area":1473580032,"sort_rank":24,"source":"openstreetmap.org","min_zoom":4.0,"tier":2,"id":32789938},"arcs":[[25]]},{"type":"MultiPolygon","properties":{"source":"naturalearthdata.com","kind":"urban_area","name":"","area":886677210,"sort_rank":11,"min_zoom":4.0},"arcs":[[[26]],[[27]],[[28]]]},{"type":"Polygon","properties":{"kind":"park","name":"Parc national de La R\u00e9union (c\u0153ur)","area":1218950016,"sort_rank":24,"source":"openstreetmap.org","min_zoom":4.0,"tier":2,"id":-1110803,"osm_relation":true},"arcs":[[29],[30]]},{"type":"Polygon","properties":{"kind":"park","name":"Parc national de Masoala","area":2242540032,"sort_rank":24,"source":"openstreetmap.org","min_zoom":4.0,"tier":2,"id":-106763,"osm_relation":true},"arcs":[[31],[32]]},{"type":"Polygon","properties":{"kind":"park","name":"Corridor forestier d'Anjozorobe","area":1053880000,"sort_rank":24,"source":"openstreetmap.org","min_zoom":4.0,"tier":2,"id":44070766},"arcs":[[33]]},{"type":"Polygon","properties":{"kind":"protected_area","name":"Parc naturel marin des Glorieuses","area":46155698176,"sort_rank":17,"source":"openstreetmap.org","min_zoom":4.0,"tier":2,"id":-2050681,"osm_relation":true,"protect_class":"5"},"arcs":[[34]]}]}},"type":"Topology","transform":{"translate":[45.0,-21.9430455334],"scale":[0.0054931641,0.0053571889]},"arcs":[[[570,0],[8,19],[32,92],[21,84],[26,82],[18,47],[16,47],[22,79],[26,77],[26,61],[17,46],[12,39],[21,82],[3,43],[-10,60],[2,20],[16,39],[11,19],[7,7],[19,8],[5,6],[-5,11],[-1,10],[14,19],[5,22],[-2,43],[-8,18],[-8,7],[-5,8],[0,28],[-3,22],[-5,21],[-4,24],[3,9],[15,13],[20,2],[7,-3],[6,-22],[17,-43],[13,-18],[17,-11],[4,0],[10,11],[5,8],[21,43],[14,45],[-7,44],[-24,40],[-14,38],[-6,41],[-5,88],[-18,86],[-20,58],[-5,37],[-11,18],[-13,18],[-31,45],[-9,19],[-9,19],[-10,16],[-22,21],[-6,9],[-3,12],[-9,8],[-10,0],[-31,-44],[-19,-23],[-6,-4],[-18,4],[-3,-6],[13,-26],[7,-21],[5,-22],[-2,-18],[-21,-62],[-32,-29],[-21,-8],[-18,-13],[-12,-19],[-15,-15],[-13,2],[-18,16],[-9,5],[-10,-3],[-8,-9],[-8,-13],[-2,-14],[3,-10],[17,-19],[-2,-4],[-5,-4],[0,-12],[-33,-56],[7,-33],[28,-24],[-17,5],[-18,2],[-11,-8],[-8,-12],[-14,-23],[-12,-24],[-9,-3],[-9,3],[3,13],[5,10],[4,10],[-2,10],[-3,10],[-5,1],[-16,-11],[-6,-11],[-7,-22],[-15,-19],[-19,-20],[0,-8],[3,-9],[5,-11],[-1,-11],[-6,-14],[-7,-4],[-6,1],[1,5],[-7,34],[-9,4],[-11,-2],[-38,-28],[-36,-25],[-17,-16],[-10,-21],[-1,-10],[3,-9],[18,-15],[-7,-6],[-9,2],[-7,2],[-22,30],[-6,1],[-28,-8],[-22,-3],[-34,-3],[-7,-5],[-3,-8],[-3,-12],[-5,-8],[-10,1],[-10,0],[-27,-9],[-7,4],[-6,9],[-8,3],[-11,-6],[-22,-21],[-8,-6],[0,3010],[4096,0],[0,-4096],[-3526,0]],[[610,1612],[-8,20],[-7,-1],[-2,-9],[-12,-1],[4,-24],[24,-2],[-1,6],[2,11]],[[25,1724],[-8,10],[-9,-9],[9,-16],[-1,-9],[-3,-11],[3,-12],[5,-5],[12,2],[0,10],[5,14],[-1,4],[4,14],[-12,7],[-4,1]],[[884,935],[-6,-28],[21,34],[15,39],[-6,-4],[-24,-41]],[[2254,269],[26,-2],[23,5],[10,10],[4,12],[10,8],[2,21],[-10,21],[-15,21],[-15,-2],[-11,-11],[-5,-16],[-13,-8],[-5,-8],[-5,-20],[1,-13],[-9,-4],[2,-4],[10,-10]],[[1929,199],[-27,2],[-25,-7],[-11,-18],[-3,-11],[14,-30],[9,-10],[36,-16],[18,-2],[26,6],[4,11],[3,26],[-18,22],[-14,22],[-12,5]],[[1919,3220],[-16,25],[-13,-9],[6,-8],[12,-8],[3,-12],[8,-5],[0,17]],[[0,1086],[8,6],[22,21],[11,6],[8,-3],[6,-9],[7,-4],[27,9],[10,0],[10,-1],[5,8],[3,12],[3,8],[7,5],[34,3],[22,3],[28,8],[6,-1],[22,-30],[7,-2],[9,-2],[7,6],[-18,15],[-3,9],[1,10],[10,21],[17,16],[36,25],[38,28],[11,2],[9,-4],[7,-34],[-1,-5],[6,-1],[7,4],[6,14],[1,11],[-5,11],[-3,9],[0,8],[19,20],[15,19],[7,22],[6,11],[16,11],[5,-1],[3,-10],[2,-10],[-4,-10],[-5,-10],[-3,-13],[9,-3],[9,3],[12,24],[14,23],[8,12],[11,8],[18,-2],[17,-5],[-28,24],[-7,33],[33,56],[0,12],[5,4],[2,4],[-17,19],[-3,10],[2,14],[8,13],[8,9],[10,3],[9,-5],[18,-16],[13,-2],[15,15],[12,19],[18,13],[21,8],[32,29],[21,62],[2,18],[-5,22],[-7,21],[-13,26],[3,6],[18,-4],[6,4],[19,23],[31,44],[10,0],[9,-8],[3,-12],[6,-9],[22,-21],[10,-16],[9,-19],[9,-19],[31,-45],[13,-18],[11,-18],[5,-37],[20,-58],[18,-86],[5,-88],[6,-41],[14,-38],[24,-40],[7,-44],[-14,-45],[-21,-43],[-5,-8],[-10,-11],[-4,0],[-17,11],[-13,18],[-17,43],[-6,22],[-7,3],[-20,-2],[-15,-13],[-3,-9],[4,-24],[5,-21],[3,-22],[0,-28],[5,-8],[8,-7],[8,-18],[2,-43],[-5,-22],[-14,-19],[1,-10],[5,-11],[-5,-6],[-19,-8],[-7,-7],[-11,-19],[-16,-39],[-2,-20],[10,-60],[-3,-43],[-21,-82],[-12,-39],[-17,-46],[-26,-61],[-26,-77],[-22,-79],[-16,-47],[-18,-47],[-26,-82],[-21,-84],[-32,-92],[-8,-19]],[[25,1724],[-8,10],[-9,-9],[9,-16],[-1,-9],[-3,-11],[3,-12],[5,-5],[12,2],[0,10],[5,14],[-1,4],[4,14],[-12,7],[-4,1]],[[2319,344],[-15,21],[-15,-2],[-11,-11],[-5,-16],[-13,-8],[-5,-8],[-5,-20],[1,-13],[-9,-4],[2,-4],[10,-10],[26,-2],[23,5],[10,10],[4,12],[10,8],[2,21],[-10,21]],[[1941,194],[-12,5],[-27,2],[-25,-7],[-11,-18],[-3,-11],[14,-30],[9,-10],[36,-16],[18,-2],[26,6],[4,11],[3,26],[-18,22],[-14,22]],[[610,1612],[-8,20],[-7,-1],[-2,-9],[-12,-1],[4,-24],[24,-2],[-1,6],[2,11]],[[884,935],[-6,-28],[21,34],[15,39],[-6,-4],[-24,-41]],[[1908,3220],[3,-12],[8,-5],[0,17],[-16,25],[-13,-9],[6,-8],[12,-8]],[[1966,113],[-26,-6],[-18,2],[-36,16],[-9,10],[-14,30],[3,11],[11,18],[25,7],[27,-2],[12,-5],[14,-22],[18,-22],[-3,-26],[-4,-11]],[[2303,272],[-23,-5],[-26,2],[-10,10],[-2,4],[9,4],[-1,13],[5,20],[5,8],[13,8],[5,16],[11,11],[15,2],[15,-21],[10,-21],[-2,-21],[-10,-8],[-4,-12],[-10,-10]],[[899,941],[-21,-34],[6,28],[24,41],[6,4],[-15,-39]],[[1919,3220],[0,-17],[-8,5],[-3,12],[-12,8],[-6,8],[13,9],[16,-25]],[[0,0],[0,1086],[8,6],[22,21],[11,6],[8,-3],[6,-9],[7,-4],[27,9],[10,0],[10,-1],[5,8],[3,12],[3,8],[7,5],[34,3],[22,3],[28,8],[6,-1],[22,-30],[7,-2],[9,-2],[7,6],[-18,15],[-3,9],[1,10],[10,21],[17,16],[36,25],[38,28],[11,2],[9,-4],[7,-34],[-1,-5],[6,-1],[7,4],[6,14],[1,11],[-5,11],[-3,9],[0,8],[19,20],[15,19],[7,22],[6,11],[16,11],[5,-1],[3,-10],[2,-10],[-4,-10],[-5,-10],[-3,-13],[9,-3],[9,3],[12,24],[14,23],[8,12],[11,8],[18,-2],[17,-5],[-28,24],[-7,33],[33,56],[0,12],[5,4],[2,4],[-17,19],[-3,10],[2,14],[8,13],[8,9],[10,3],[9,-5],[18,-16],[13,-2],[15,15],[12,19],[18,13],[21,8],[32,29],[21,62],[2,18],[-5,22],[-7,21],[-13,26],[3,6],[18,-4],[6,4],[19,23],[31,44],[10,0],[9,-8],[3,-12],[6,-9],[22,-21],[10,-16],[9,-19],[9,-19],[31,-45],[13,-18],[11,-18],[5,-37],[20,-58],[18,-86],[5,-88],[6,-41],[14,-38],[24,-40],[7,-44],[-14,-45],[-21,-43],[-5,-8],[-10,-11],[-4,0],[-17,11],[-13,18],[-17,43],[-6,22],[-7,3],[-20,-2],[-15,-13],[-3,-9],[4,-24],[5,-21],[3,-22],[0,-28],[5,-8],[8,-7],[8,-18],[2,-43],[-5,-22],[-14,-19],[1,-10],[5,-11],[-5,-6],[-19,-8],[-7,-7],[-11,-19],[-16,-39],[-2,-20],[10,-60],[-3,-43],[-21,-82],[-12,-39],[-17,-46],[-26,-61],[-26,-77],[-22,-79],[-16,-47],[-18,-47],[-26,-82],[-21,-84],[-32,-92],[-8,-19],[-570,0]],[[608,1601],[1,-6],[-24,2],[-4,24],[12,1],[2,9],[7,1],[8,-20],[-2,-11]],[[33,1674],[-12,-2],[-5,5],[-3,12],[3,11],[1,9],[-9,16],[9,9],[8,-10],[4,-1],[12,-7],[-4,-14],[1,-4],[-5,-14],[0,-10]],[[285,1058],[102,49],[28,-29],[-120,-43],[-10,23]],[[0,1839],[140,178],[164,-311],[-82,-217],[-70,-62],[-152,-36],[0,448]],[[7,1721],[7,-45],[21,-4],[8,43],[-36,6]],[[46,1710],[3,-2],[3,-5],[0,11],[-6,-4]],[[285,1058],[102,49],[28,-29],[-120,-43],[-10,23]],[[2265,326],[14,13],[5,-35],[-16,4],[-3,18]],[[378,393],[-11,-9],[-2,29],[16,-3],[-3,-17]],[[425,538],[-9,24],[25,-7],[26,29],[-29,-81],[-13,35]],[[1883,138],[8,5],[-7,37],[7,16],[39,-18],[-24,-5],[8,-14],[23,16],[31,-53],[-34,-11],[1,7],[-3,13],[1,-20],[-6,17],[9,12],[-30,-12],[-2,27],[-1,-24],[-20,7]],[[1926,151],[7,-8],[8,11],[-11,-5],[-4,2]],[[884,1237],[19,17],[19,-18],[55,21],[-35,-17],[26,-10],[-29,-96],[-19,-7],[-18,31],[11,84],[-29,-5]],[[918,1224],[7,-8],[-3,20],[-2,-4],[-2,-8]],[[522,568],[24,102],[-12,61],[14,5],[12,-89],[-38,-79]],[[140,2017],[208,91],[286,-69],[-24,-88],[-118,-174],[-188,-71],[-164,311]]]}