{"objects":{"water":{"type":"GeometryCollection","geometries":[]},"buildings":{"type":"GeometryCollection","geometries":[]},"places":{"type":"GeometryCollection","geometries":[{"type":"Point","properties":{"kind":"region","name:en":"Diyala","name":"\u062f\u064a\u0627\u0644\u0649","kind_detail":"state","name:eo":"Dijala gubernio","id":2914855218,"source":"openstreetmap.org","name:fr":"Diyala","name:uk":"\u0414\u0456\u044f\u043b\u0430","name:ru":"\u0414\u0438\u044f\u043b\u0430","min_zoom":4.0,"name:ku":"Diyala","name:pl":"Dijala","name:ja":"\u30c7\u30a3\u30e4\u30fc\u30e9\u30fc"},"coordinates":[76,1826]},{"type":"Point","properties":{"kind":"region","name:en":"Qadisiyah","name":"\u0627\u0644\u0642\u0627\u062f\u0633\u064a\u0629","kind_detail":"state","min_zoom":4.0,"source":"openstreetmap.org","name:fr":"Qadisiya","name:uk":"\u041a\u0430\u0434\u0456\u0441\u0456\u044f","name:ru":"\u041a\u0430\u0434\u0438\u0441\u0438\u044f","name:pl":"Al-Kadisijja","name:ku":"Qadisiye","id":2914855228,"name:ja":"\u30ab\u30fc\u30c7\u30a3\u30fc\u30b7\u30fc\u30e4"},"coordinates":[87,7]},{"type":"Point","properties":{"kind":"region","name:en":"Wasit","name":"\u0648\u0627\u0633\u0637","kind_detail":"state","name:eo":"\u016casita gubernio","id":2914855231,"source":"openstreetmap.org","name:fr":"Wassit","name:uk":"\u0412\u0430\u0441\u0438\u0442","name:ru":"\u0412\u0430\u0441\u0438\u0442","min_zoom":4.0,"name:ku":"Wasit","name:pl":"Wasit","name:ja":"\u30ef\u30fc\u30b7\u30c8"},"coordinates":[499,654]},{"type":"Point","properties":{"kind":"region","name:en":"Hamedan","name":"\u0647\u0645\u062f\u0627\u0646","kind_detail":"state","min_zoom":4.0,"source":"openstreetmap.org","name:ku":"Hemedan","name:uk":"\u0425\u0430\u043c\u0430\u0434\u0430\u043d","name:ru":"\u0425\u0430\u043c\u0430\u0434\u0430\u043d","id":494596154,"name:ja":"\u30cf\u30de\u30c0\u30fc\u30f3"},"coordinates":[2662,2664]},{"type":"Point","properties":{"name:ja":"\u30b3\u30eb\u30c7\u30b9\u30bf\u30fc\u30f3","min_zoom":4.0,"name:uk":"\u041a\u0443\u0440\u0434\u0438\u0441\u0442\u0430\u043d","name:ru":"\u041a\u0443\u0440\u0434\u0438\u0441\u0442\u0430\u043d","name:pl":"Kurdystan","name:hu":"Kurdiszt\u00e1n","name:hr":"Kurdistan","id":496170398,"kind":"region","name:en":"Kurdistan","name":"\u06a9\u0631\u062f\u0633\u062a\u0627\u0646","kind_detail":"state","name:ku":"Kurdistan","name:de":"Kordistan","source":"openstreetmap.org","name:fr":"Kurdistan"},"coordinates":[1465,3280]},{"type":"Point","properties":{"name:ja":"\u30ac\u30ba\u30f4\u30a3\u30fc\u30f3","min_zoom":4.0,"name:uk":"\u041a\u0430\u0437\u0432\u0456\u043d","name:ru":"\u041a\u0430\u0437\u0432\u0438\u043d","name:pl":"Kazwin","name:hu":"Kazvin","name:hr":"Kazvin","id":480308979,"kind":"region","name:en":"Qazvin","name":"\u0642\u0632\u0648\u06cc\u0646","kind_detail":"state","name:ku":"Qazw\u00ean","name:de":"Qazvin","source":"openstreetmap.org","name:fr":"Qazvin"},"coordinates":[3524,3583]},{"type":"Point","properties":{"kind":"region","name:en":"Halabja","name":"Helebce","kind_detail":"state","name:ar":"\u062d\u0644\u0628\u062c\u0629","min_zoom":4.0,"name:de":"Halabdscha","source":"openstreetmap.org","name:fr":"Halabja","name:uk":"\u0425\u0430\u043b\u0430\u0431\u0434\u0436\u0430","name:ru":"\u0425\u0430\u043b\u0430\u0431\u0434\u0436\u0430","name:pl":"Halabd\u017ca","id":2914855221,"name:ja":"\u30cf\u30e9\u30d6\u30b8\u30e3"},"coordinates":[737,2915]},{"type":"Point","properties":{"kind":"region","name:en":"Sulaymaniyah","name":"Sl\u00eaman\u00ee","kind_detail":"state","name:ar":"\u0627\u0644\u0633\u0644\u064a\u0645\u0627\u0646\u064a\u0629","min_zoom":4.0,"name:de":"as-Sulaimaniyya","source":"openstreetmap.org","name:fr":"Souleimaniy\u00e9","name:uk":"\u0421\u0443\u043b\u0435\u0439\u043c\u0430\u043d\u0456\u044f","name:ru":"\u0421\u0443\u043b\u0435\u0439\u043c\u0430\u043d\u0438\u044f","name:pl":"As-Sulajmanijja","id":2914855230,"name:ja":"\u30b9\u30ec\u30a4\u30de\u30cb\u30e4"},"coordinates":[148,3492]},{"type":"Point","properties":{"name:ja":"\u30de\u30eb\u30ad\u30e3\u30ba\u30a3\u30fc","min_zoom":4.0,"name:uk":"\u041c\u0435\u0440\u043a\u0435\u0437\u0456","name:ru":"\u0426\u0435\u043d\u0442\u0440\u0430\u043b\u044c\u043d\u044b\u0439 \u043e\u0441\u0442\u0430\u043d","name:pl":"Markazi","name:hu":"Markazi","name:hr":"Markazi","id":486089857,"kind":"region","name:en":"Markazi Province","name":"\u0627\u0633\u062a\u0627\u0646 \u0645\u0631\u06a9\u0632\u06cc","kind_detail":"state","name:ku":"Merkez\u00ee","name:de":"Markazi","source":"openstreetmap.org","name:fr":"Markazi"},"coordinates":[3485,2273]},{"type":"Point","properties":{"kind":"region","name:en":"Maysan","name":"\u0645\u064a\u0633\u0627\u0646","kind_detail":"state","name:eo":"Majsana gubernio","id":2914855224,"source":"openstreetmap.org","name:fr":"Maysan","name:uk":"\u041c\u0430\u0439\u0441\u0430\u043d","name:ru":"\u041c\u0430\u0439\u0441\u0430\u043d","min_zoom":4.0,"name:ku":"Meysan","name:pl":"Majsan","name:ja":"\u30de\u30a4\u30b5\u30fc\u30f3"},"coordinates":[1507,58]},{"type":"Point","properties":{"name:ja":"\u30a4\u30fc\u30e9\u30fc\u30e0","min_zoom":4.0,"name:uk":"\u0406\u043b\u0430\u043c","name:ru":"\u0418\u043b\u0430\u043c","name:pl":"Ilam","name:hu":"Il\u00e1m","name:hr":"Ilam","id":485934542,"kind":"region","name:en":"Ilam","name":"\u0627\u0633\u062a\u0627\u0646 \u0627\u06cc\u0644\u0627\u0645","kind_detail":"state","name:ku":"\u00celam","name:de":"Ilam","source":"openstreetmap.org","name:fr":"Ilam"},"coordinates":[1280,1060]},{"type":"Point","properties":{"name:ja":"\u30ed\u30ec\u30b9\u30bf\u30fc\u30f3","min_zoom":4.0,"name:uk":"\u041b\u0443\u0440\u0435\u0441\u0442\u0430\u043d","name:ru":"\u041b\u0443\u0440\u0435\u0441\u0442\u0430\u043d","name:pl":"Lorestan","name:hu":"Loreszt\u00e1n","name:hr":"Lorestan","id":486075807,"kind":"region","name:en":"Lorestan","name":"\u0627\u0633\u062a\u0627\u0646 \u0644\u0631\u0633\u062a\u0627\u0646","kind_detail":"state","name:ku":"Luristan","name:de":"Lorestan","source":"openstreetmap.org","name:fr":"Louristan"},"coordinates":[2473,1356]},{"type":"Point","properties":{"name:ja":"\u30b1\u30eb\u30de\u30fc\u30f3\u30b7\u30e3\u30fc","min_zoom":4.0,"name:uk":"\u041a\u0435\u0440\u043c\u0430\u043d\u0448\u0430\u0445","name:ru":"\u041a\u0435\u0440\u043c\u0430\u043d\u0448\u0430\u0445","name:pl":"Kermanszah","name:hu":"Kerm\u00e1ns\u00e1h","name:hr":"Kerman\u0161ah","id":495472876,"kind":"region","name:en":"Kermanshah","name":"\u06a9\u0631\u0645\u0627\u0646\u0634\u0627\u0647","kind_detail":"state","name:ku":"Kirma\u015fan","name:de":"Kermanschah","source":"openstreetmap.org","name:fr":"Kermanchahan","name:es":"Kermanshah"},"coordinates":[1395,2226]},{"type":"Point","properties":{"source":"naturalearthdata.com","kind":"locality","name":"Hamadan","population":528256,"region_capital":true,"min_zoom":5.0,"id":6624},"coordinates":[2560,2507]},{"type":"Point","properties":{"source":"naturalearthdata.com","kind":"locality","name":"Kermanshah","population":828313,"region_capital":true,"min_zoom":6.0,"id":5979},"coordinates":[1499,2142]},{"type":"Point","properties":{"source":"naturalearthdata.com","kind":"locality","name":"Qazvin","population":464551,"region_capital":true,"min_zoom":6.0,"id":5976},"coordinates":[3641,3807]}]},"transit":{"type":"GeometryCollection","geometries":[{"type":"LineString","properties":{"source":"openstreetmap.org","kind":"train","name":"\u062d\u0648\u0632\u0647 \u0645\u0631\u06a9\u0632\u06cc \u062a\u0647\u0631\u0627\u0646","sort_rank":275,"min_zoom":6.0,"osm_relation":true,"network":"\u0645\u0631\u06a9\u0632\u06cc"},"arcs":[175]}]},"pois":{"type":"GeometryCollection","geometries":[]},"boundaries":{"type":"GeometryCollection","geometries":[{"type":"MultiLineString","properties":{"source":"naturalearthdata.com","kind":"country","sort_rank":262,"kind_detail":"2","min_zoom":0.0,"id":251},"arcs":[[0],[1],[2],[3],[4],[5],[6],[7],[8],[9],[10],[11],[12],[13],[14],[15],[16],[17],[18],[19],[20],[21],[22],[23],[24],[25],[26],[27],[28],[29],[30],[31],[32],[33],[34],[35],[36],[37],[38],[39],[40],[41],[42],[43],[44],[45],[46],[47],[48],[49]]},{"type":"LineString","properties":{"source":"naturalearthdata.com","kind":"map_unit","sort_rank":258,"kind_detail":"2","min_zoom":5.0,"id":12},"arcs":[50]},{"type":"MultiLineString","properties":{"source":"naturalearthdata.com","kind":"region","sort_rank":256,"kind_detail":"4","min_zoom":5.0,"id":1486},"arcs":[[51],[52],[53],[54]]},{"type":"LineString","properties":{"source":"naturalearthdata.com","kind":"region","sort_rank":256,"kind_detail":"4","min_zoom":5.0,"id":1491},"arcs":[55]},{"type":"MultiLineString","properties":{"source":"naturalearthdata.com","kind":"region","sort_rank":256,"kind_detail":"4","min_zoom":5.0,"id":7377},"arcs":[[56],[57]]},{"type":"MultiLineString","properties":{"source":"naturalearthdata.com","kind":"region","sort_rank":256,"kind_detail":"4","min_zoom":5.0,"id":7396},"arcs":[[58],[59]]},{"type":"MultiLineString","properties":{"source":"naturalearthdata.com","kind":"region","sort_rank":256,"kind_detail":"4","min_zoom":5.5,"id":7329},"arcs":[[60],[61]]},{"type":"LineString","properties":{"source":"naturalearthdata.com","kind":"region","sort_rank":256,"kind_detail":"4","min_zoom":5.5,"id":7331},"arcs":[62]},{"type":"LineString","properties":{"source":"naturalearthdata.com","kind":"region","sort_rank":256,"kind_detail":"4","min_zoom":5.5,"id":7333},"arcs":[63]},{"type":"LineString","properties":{"source":"naturalearthdata.com","kind":"region","sort_rank":256,"kind_detail":"4","min_zoom":5.5,"id":7334},"arcs":[64]},{"type":"MultiLineString","properties":{"source":"naturalearthdata.com","kind":"region","sort_rank":256,"kind_detail":"4","min_zoom":5.5,"id":7335},"arcs":[[65],[66],[67]]},{"type":"MultiLineString","properties":{"source":"naturalearthdata.com","kind":"region","sort_rank":256,"kind_detail":"4","min_zoom":5.5,"id":7336},"arcs":[[68],[69],[70],[71],[72],[73],[74]]},{"type":"LineString","properties":{"source":"naturalearthdata.com","kind":"region","sort_rank":256,"kind_detail":"4","min_zoom":5.0,"id":7363},"arcs":[75]},{"type":"LineString","properties":{"source":"naturalearthdata.com","kind":"region","sort_rank":256,"kind_detail":"4","min_zoom":5.5,"id":7357},"arcs":[76]},{"type":"MultiLineString","properties":{"source":"naturalearthdata.com","kind":"region","sort_rank":256,"kind_detail":"4","min_zoom":5.5,"id":7359},"arcs":[[77],[78],[79],[80],[81],[82]]},{"type":"MultiLineString","properties":{"source":"naturalearthdata.com","kind":"region","sort_rank":256,"kind_detail":"4","min_zoom":5.0,"id":7364},"arcs":[[83],[84],[85],[86],[87],[88],[89]]},{"type":"MultiLineString","properties":{"source":"naturalearthdata.com","kind":"region","sort_rank":256,"kind_detail":"4","min_zoom":5.0,"id":7370},"arcs":[[90],[91],[92],[93],[94],[95],[96]]},{"type":"LineString","properties":{"source":"naturalearthdata.com","kind":"region","sort_rank":256,"kind_detail":"4","min_zoom":5.0,"id":7371},"arcs":[97]},{"type":"MultiLineString","properties":{"source":"naturalearthdata.com","kind":"region","sort_rank":256,"kind_detail":"4","min_zoom":5.0,"id":7372},"arcs":[[98],[99],[100],[101],[102]]},{"type":"MultiLineString","properties":{"source":"naturalearthdata.com","kind":"region","sort_rank":256,"kind_detail":"4","min_zoom":5.0,"id":7373},"arcs":[[103],[104],[105],[106],[107]]},{"type":"MultiLineString","properties":{"source":"naturalearthdata.com","kind":"region","sort_rank":256,"kind_detail":"4","min_zoom":5.0,"id":7379},"arcs":[[108],[109],[110],[111],[112]]},{"type":"MultiLineString","properties":{"source":"naturalearthdata.com","kind":"region","sort_rank":256,"kind_detail":"4","min_zoom":5.0,"id":7382},"arcs":[[113],[114]]},{"type":"MultiLineString","properties":{"source":"naturalearthdata.com","kind":"region","sort_rank":256,"kind_detail":"4","min_zoom":5.0,"id":7383},"arcs":[[115],[116],[117],[118]]},{"type":"MultiLineString","properties":{"source":"naturalearthdata.com","kind":"region","sort_rank":256,"kind_detail":"4","min_zoom":5.0,"id":7384},"arcs":[[119],[120],[121]]},{"type":"MultiLineString","properties":{"source":"naturalearthdata.com","kind":"region","sort_rank":256,"kind_detail":"4","min_zoom":5.0,"id":7386},"arcs":[[122],[123],[124]]},{"type":"MultiLineString","properties":{"source":"naturalearthdata.com","kind":"region","sort_rank":256,"kind_detail":"4","min_zoom":5.0,"id":7388},"arcs":[[125],[126],[127]]},{"type":"MultiLineString","properties":{"source":"naturalearthdata.com","kind":"region","sort_rank":256,"kind_detail":"4","min_zoom":5.0,"id":7395},"arcs":[[128],[129],[130],[131],[132]]},{"type":"MultiLineString","properties":{"source":"naturalearthdata.com","kind":"region","sort_rank":256,"kind_detail":"4","min_zoom":5.0,"id":7397},"arcs":[[133],[134],[135]]},{"type":"MultiLineString","properties":{"source":"naturalearthdata.com","kind":"region","sort_rank":256,"kind_detail":"4","min_zoom":5.0,"id":7398},"arcs":[[136],[137],[138],[139],[140],[141],[142],[143]]},{"type":"MultiLineString","properties":{"source":"naturalearthdata.com","kind":"region","sort_rank":256,"kind_detail":"4","min_zoom":5.0,"id":7399},"arcs":[[144],[145],[146],[147],[148],[149]]},{"type":"LineString","properties":{"source":"naturalearthdata.com","kind":"region","sort_rank":256,"kind_detail":"4","min_zoom":5.0,"id":7400},"arcs":[150]},{"type":"MultiLineString","properties":{"source":"naturalearthdata.com","kind":"region","sort_rank":256,"kind_detail":"4","min_zoom":5.0,"id":7401},"arcs":[[151],[152],[153],[154],[155],[156],[157],[158],[159],[160]]},{"type":"MultiLineString","properties":{"source":"naturalearthdata.com","kind":"region","sort_rank":256,"kind_detail":"4","min_zoom":5.0,"id":7402},"arcs":[[161],[162],[163]]},{"type":"LineString","properties":{"source":"naturalearthdata.com","kind":"region","sort_rank":256,"kind_detail":"4","min_zoom":5.0,"id":7403},"arcs":[164]},{"type":"MultiLineString","properties":{"source":"naturalearthdata.com","kind":"region","sort_rank":256,"kind_detail":"4","min_zoom":5.0,"id":7405},"arcs":[[165],[166],[167]]},{"type":"LineString","properties":{"source":"naturalearthdata.com","kind":"region","sort_rank":256,"kind_detail":"4","min_zoom":5.0,"id":7416},"arcs":[168]},{"type":"MultiLineString","properties":{"source":"naturalearthdata.com","kind":"region","sort_rank":256,"kind_detail":"4","min_zoom":5.0,"id":7417},"arcs":[[169],[170],[171],[172],[173]]},{"type":"LineString","properties":{"source":"naturalearthdata.com","kind":"region","sort_rank":256,"kind_detail":"4","min_zoom":5.0,"id":7424},"arcs":[174]}]},"roads":{"type":"GeometryCollection","geometries":[{"type":"LineString","properties":{"source":"naturalearthdata.com","kind":"major_road","kind_detail":"secondary","sort_rank":379,"landuse_kind":"urban_area","min_zoom":4.0,"id":22938},"arcs":[176]},{"type":"LineString","properties":{"source":"naturalearthdata.com","kind":"major_road","sort_rank":379,"kind_detail":"secondary","min_zoom":4.0,"id":22938},"arcs":[177]},{"type":"LineString","properties":{"source":"naturalearthdata.com","kind":"highway","kind_detail":"motorway","sort_rank":383,"landuse_kind":"urban_area","min_zoom":3.0,"id":22966},"arcs":[178]},{"type":"LineString","properties":{"source":"naturalearthdata.com","kind":"highway","sort_rank":383,"kind_detail":"motorway","min_zoom":3.0,"id":22966},"arcs":[179]},{"type":"LineString","properties":{"source":"naturalearthdata.com","kind":"highway","kind_detail":"motorway","sort_rank":383,"landuse_kind":"urban_area","min_zoom":3.0,"id":23183},"arcs":[180]},{"type":"LineString","properties":{"source":"naturalearthdata.com","kind":"highway","sort_rank":383,"kind_detail":"motorway","min_zoom":3.0,"id":23183},"arcs":[181]},{"type":"LineString","properties":{"source":"naturalearthdata.com","kind":"major_road","kind_detail":"secondary","sort_rank":379,"landuse_kind":"urban_area","min_zoom":4.0,"id":23196},"arcs":[182]},{"type":"LineString","properties":{"source":"naturalearthdata.com","kind":"major_road","kind_detail":"secondary","sort_rank":379,"landuse_kind":"urban_area","min_zoom":4.0,"id":23196},"arcs":[183]},{"type":"LineString","properties":{"source":"naturalearthdata.com","kind":"major_road","sort_rank":379,"kind_detail":"secondary","min_zoom":4.0,"id":23196},"arcs":[184]},{"type":"LineString","properties":{"source":"naturalearthdata.com","kind":"highway","kind_detail":"motorway","sort_rank":383,"landuse_kind":"urban_area","min_zoom":3.0,"id":23367},"arcs":[185]},{"type":"LineString","properties":{"source":"naturalearthdata.com","kind":"highway","kind_detail":"motorway","sort_rank":383,"landuse_kind":"urban_area","min_zoom":3.0,"id":23367},"arcs":[186]},{"type":"LineString","properties":{"source":"naturalearthdata.com","kind":"highway","sort_rank":383,"kind_detail":"motorway","min_zoom":3.0,"id":23367},"arcs":[187]},{"type":"LineString","properties":{"source":"naturalearthdata.com","kind":"highway","kind_detail":"motorway","sort_rank":383,"landuse_kind":"urban_area","min_zoom":3.0,"id":23399},"arcs":[188]},{"type":"LineString","properties":{"source":"naturalearthdata.com","kind":"highway","kind_detail":"motorway","sort_rank":383,"landuse_kind":"urban_area","min_zoom":3.0,"id":23399},"arcs":[189]},{"type":"LineString","properties":{"source":"naturalearthdata.com","kind":"highway","kind_detail":"motorway","sort_rank":383,"landuse_kind":"urban_area","min_zoom":3.0,"id":23399},"arcs":[190]},{"type":"MultiLineString","properties":{"source":"naturalearthdata.com","kind":"highway","sort_rank":383,"kind_detail":"motorway","min_zoom":3.0,"id":23399},"arcs":[[191],[192],[193]]},{"type":"LineString","properties":{"source":"naturalearthdata.com","kind":"major_road","kind_detail":"secondary","sort_rank":379,"landuse_kind":"urban_area","min_zoom":3.0,"id":23489},"arcs":[194]},{"type":"LineString","properties":{"source":"naturalearthdata.com","kind":"major_road","sort_rank":379,"kind_detail":"secondary","min_zoom":3.0,"id":23489},"arcs":[195]},{"type":"LineString","properties":{"source":"naturalearthdata.com","kind":"major_road","kind_detail":"secondary","sort_rank":379,"landuse_kind":"urban_area","min_zoom":4.0,"id":23565},"arcs":[196]},{"type":"LineString","properties":{"source":"naturalearthdata.com","kind":"major_road","sort_rank":379,"kind_detail":"secondary","min_zoom":4.0,"id":23565},"arcs":[197]},{"type":"MultiLineString","properties":{"source":"naturalearthdata.com","kind":"highway","kind_detail":"motorway","sort_rank":383,"landuse_kind":"urban_area","min_zoom":3.0,"id":23594},"arcs":[[198],[199],[200],[201]]},{"type":"MultiLineString","properties":{"source":"naturalearthdata.com","kind":"highway","sort_rank":383,"kind_detail":"motorway","min_zoom":3.0,"id":23594},"arcs":[[202],[203],[204]]},{"type":"LineString","properties":{"source":"naturalearthdata.com","kind":"highway","kind_detail":"motorway","sort_rank":383,"landuse_kind":"urban_area","min_zoom":4.0,"id":23816},"arcs":[205]},{"type":"LineString","properties":{"source":"naturalearthdata.com","kind":"highway","sort_rank":383,"kind_detail":"motorway","min_zoom":4.0,"id":23816},"arcs":[206]},{"type":"LineString","properties":{"source":"naturalearthdata.com","kind":"highway","sort_rank":383,"kind_detail":"motorway","min_zoom":4.0,"id":23894},"arcs":[207]},{"type":"LineString","properties":{"source":"naturalearthdata.com","kind":"major_road","kind_detail":"secondary","sort_rank":379,"landuse_kind":"urban_area","min_zoom":4.0,"id":23939},"arcs":[208]},{"type":"LineString","properties":{"source":"naturalearthdata.com","kind":"major_road","sort_rank":379,"kind_detail":"secondary","min_zoom":4.0,"id":23939},"arcs":[209]},{"type":"LineString","properties":{"source":"naturalearthdata.com","kind":"major_road","sort_rank":379,"kind_detail":"secondary","min_zoom":4.0,"id":24017},"arcs":[210]},{"type":"LineString","properties":{"source":"naturalearthdata.com","kind":"major_road","sort_rank":379,"kind_detail":"secondary","min_zoom":4.0,"id":24047},"arcs":[211]},{"type":"LineString","properties":{"source":"naturalearthdata.com","kind":"major_road","kind_detail":"secondary","sort_rank":379,"landuse_kind":"urban_area","min_zoom":4.0,"id":24059},"arcs":[212]},{"type":"LineString","properties":{"source":"naturalearthdata.com","kind":"major_road","sort_rank":379,"kind_detail":"secondary","min_zoom":4.0,"id":24059},"arcs":[213]},{"type":"LineString","properties":{"source":"naturalearthdata.com","kind":"highway","sort_rank":383,"kind_detail":"motorway","min_zoom":3.0,"id":24256},"arcs":[214]},{"type":"LineString","properties":{"source":"naturalearthdata.com","kind":"highway","sort_rank":383,"kind_detail":"motorway","min_zoom":3.0,"id":24282},"arcs":[215]},{"type":"LineString","properties":{"source":"naturalearthdata.com","kind":"highway","kind_detail":"motorway","sort_rank":383,"landuse_kind":"urban_area","min_zoom":3.0,"id":24391},"arcs":[216]},{"type":"LineString","properties":{"source":"naturalearthdata.com","kind":"highway","kind_detail":"motorway","sort_rank":383,"landuse_kind":"urban_area","min_zoom":3.0,"id":24391},"arcs":[217]},{"type":"LineString","properties":{"source":"naturalearthdata.com","kind":"highway","kind_detail":"motorway","sort_rank":383,"landuse_kind":"urban_area","min_zoom":3.0,"id":24391},"arcs":[218]},{"type":"MultiLineString","properties":{"source":"naturalearthdata.com","kind":"highway","sort_rank":383,"kind_detail":"motorway","min_zoom":3.0,"id":24391},"arcs":[[219],[220]]},{"type":"LineString","properties":{"source":"naturalearthdata.com","kind":"major_road","kind_detail":"secondary","sort_rank":379,"landuse_kind":"urban_area","min_zoom":4.0,"id":24392},"arcs":[221]},{"type":"LineString","properties":{"source":"naturalearthdata.com","kind":"major_road","kind_detail":"secondary","sort_rank":379,"landuse_kind":"urban_area","min_zoom":4.0,"id":24392},"arcs":[222]},{"type":"MultiLineString","properties":{"source":"naturalearthdata.com","kind":"major_road","sort_rank":379,"kind_detail":"secondary","min_zoom":4.0,"id":24392},"arcs":[[223],[224]]},{"type":"LineString","properties":{"source":"naturalearthdata.com","kind":"highway","kind_detail":"motorway","sort_rank":383,"landuse_kind":"urban_area","min_zoom":3.0,"id":24612},"arcs":[225]},{"type":"LineString","properties":{"source":"naturalearthdata.com","kind":"highway","sort_rank":383,"kind_detail":"motorway","min_zoom":3.0,"id":24612},"arcs":[226]},{"type":"LineString","properties":{"source":"naturalearthdata.com","kind":"highway","kind_detail":"motorway","sort_rank":383,"landuse_kind":"urban_area","min_zoom":3.0,"id":24613},"arcs":[227]},{"type":"LineString","properties":{"source":"naturalearthdata.com","kind":"highway","sort_rank":383,"kind_detail":"motorway","min_zoom":3.0,"id":24613},"arcs":[228]},{"type":"LineString","properties":{"source":"naturalearthdata.com","kind":"highway","kind_detail":"motorway","sort_rank":383,"landuse_kind":"urban_area","min_zoom":3.0,"id":24634},"arcs":[229]},{"type":"LineString","properties":{"source":"naturalearthdata.com","kind":"highway","sort_rank":383,"kind_detail":"motorway","min_zoom":3.0,"id":24634},"arcs":[230]},{"type":"LineString","properties":{"source":"naturalearthdata.com","kind":"major_road","kind_detail":"secondary","sort_rank":379,"landuse_kind":"urban_area","min_zoom":4.0,"id":24744},"arcs":[231]},{"type":"LineString","properties":{"source":"naturalearthdata.com","kind":"major_road","kind_detail":"secondary","sort_rank":379,"landuse_kind":"urban_area","min_zoom":4.0,"id":24744},"arcs":[232]},{"type":"MultiLineString","properties":{"source":"naturalearthdata.com","kind":"major_road","sort_rank":379,"kind_detail":"secondary","min_zoom":4.0,"id":24744},"arcs":[[233],[234]]},{"type":"LineString","properties":{"source":"naturalearthdata.com","kind":"highway","kind_detail":"motorway","sort_rank":383,"landuse_kind":"urban_area","min_zoom":3.0,"id":24831},"arcs":[235]},{"type":"LineString","properties":{"source":"naturalearthdata.com","kind":"highway","sort_rank":383,"kind_detail":"motorway","min_zoom":3.0,"id":24831},"arcs":[236]},{"type":"LineString","properties":{"source":"naturalearthdata.com","kind":"highway","kind_detail":"motorway","sort_rank":383,"landuse_kind":"urban_area","min_zoom":3.0,"id":24925},"arcs":[237]},{"type":"LineString","properties":{"source":"naturalearthdata.com","kind":"highway","sort_rank":383,"kind_detail":"motorway","min_zoom":3.0,"id":24925},"arcs":[238]},{"type":"LineString","properties":{"source":"naturalearthdata.com","kind":"highway","sort_rank":383,"kind_detail":"motorway","min_zoom":3.0,"id":24980},"arcs":[239]},{"type":"LineString","properties":{"source":"naturalearthdata.com","kind":"highway","sort_rank":383,"kind_detail":"motorway","min_zoom":3.0,"id":24981},"arcs":[240]},{"type":"LineString","properties":{"source":"naturalearthdata.com","kind":"major_road","sort_rank":379,"kind_detail":"secondary","min_zoom":4.0,"id":25002},"arcs":[241]},{"type":"LineString","properties":{"source":"naturalearthdata.com","kind":"major_road","kind_detail":"secondary","sort_rank":379,"landuse_kind":"urban_area","min_zoom":4.0,"id":25003},"arcs":[242]},{"type":"MultiLineString","properties":{"source":"naturalearthdata.com","kind":"major_road","sort_rank":379,"kind_detail":"secondary","min_zoom":4.0,"id":25003},"arcs":[[243],[244]]},{"type":"LineString","properties":{"source":"naturalearthdata.com","kind":"highway","sort_rank":383,"kind_detail":"motorway","min_zoom":3.0,"id":25028},"arcs":[245]},{"type":"LineString","properties":{"source":"naturalearthdata.com","kind":"highway","kind_detail":"motorway","sort_rank":383,"landuse_kind":"urban_area","min_zoom":4.0,"id":25035},"arcs":[246]},{"type":"LineString","properties":{"source":"naturalearthdata.com","kind":"highway","sort_rank":383,"kind_detail":"motorway","min_zoom":4.0,"id":25035},"arcs":[247]},{"type":"LineString","properties":{"source":"naturalearthdata.com","kind":"highway","sort_rank":383,"kind_detail":"motorway","min_zoom":3.0,"id":25066},"arcs":[248]},{"type":"LineString","properties":{"source":"naturalearthdata.com","kind":"major_road","kind_detail":"secondary","sort_rank":379,"landuse_kind":"urban_area","min_zoom":4.0,"id":25090},"arcs":[249]},{"type":"LineString","properties":{"source":"naturalearthdata.com","kind":"major_road","sort_rank":379,"kind_detail":"secondary","min_zoom":4.0,"id":25090},"arcs":[250]},{"type":"LineString","properties":{"source":"naturalearthdata.com","kind":"highway","sort_rank":383,"kind_detail":"motorway","min_zoom":3.0,"id":25105},"arcs":[251]},{"type":"LineString","properties":{"source":"naturalearthdata.com","kind":"highway","kind_detail":"motorway","sort_rank":383,"landuse_kind":"urban_area","min_zoom":3.0,"id":25121},"arcs":[252]},{"type":"LineString","properties":{"source":"naturalearthdata.com","kind":"highway","sort_rank":383,"kind_detail":"motorway","min_zoom":3.0,"id":25121},"arcs":[253]},{"type":"LineString","properties":{"source":"naturalearthdata.com","kind":"major_road","sort_rank":379,"kind_detail":"secondary","min_zoom":3.0,"id":25136},"arcs":[254]},{"type":"LineString","properties":{"source":"naturalearthdata.com","kind":"minor_road","sort_rank":355,"kind_detail":"tertiary","min_zoom":5.0,"id":25156},"arcs":[255]},{"type":"LineString","properties":{"source":"naturalearthdata.com","kind":"highway","sort_rank":383,"kind_detail":"motorway","min_zoom":3.0,"id":25157},"arcs":[256]},{"type":"LineString","properties":{"source":"naturalearthdata.com","kind":"highway","kind_detail":"motorway","sort_rank":383,"landuse_kind":"urban_area","min_zoom":4.0,"id":25164},"arcs":[257]},{"type":"LineString","properties":{"source":"naturalearthdata.com","kind":"highway","sort_rank":383,"kind_detail":"motorway","min_zoom":4.0,"id":25164},"arcs":[258]},{"type":"LineString","properties":{"source":"naturalearthdata.com","kind":"major_road","sort_rank":379,"kind_detail":"secondary","min_zoom":4.0,"id":25236},"arcs":[259]},{"type":"LineString","properties":{"source":"naturalearthdata.com","kind":"minor_road","sort_rank":355,"kind_detail":"tertiary","min_zoom":6.0,"id":25261},"arcs":[260]},{"type":"LineString","properties":{"source":"naturalearthdata.com","kind":"major_road","kind_detail":"secondary","sort_rank":379,"landuse_kind":"urban_area","min_zoom":3.0,"id":25321},"arcs":[261]},{"type":"LineString","properties":{"source":"naturalearthdata.com","kind":"major_road","kind_detail":"secondary","sort_rank":379,"landuse_kind":"urban_area","min_zoom":3.0,"id":25321},"arcs":[262]},{"type":"MultiLineString","properties":{"source":"naturalearthdata.com","kind":"major_road","sort_rank":379,"kind_detail":"secondary","min_zoom":3.0,"id":25321},"arcs":[[263],[264],[265]]},{"type":"LineString","properties":{"source":"naturalearthdata.com","kind":"major_road","kind_detail":"secondary","sort_rank":379,"landuse_kind":"urban_area","min_zoom":3.0,"id":25325},"arcs":[266]},{"type":"LineString","properties":{"source":"naturalearthdata.com","kind":"major_road","sort_rank":379,"kind_detail":"secondary","min_zoom":3.0,"id":25325},"arcs":[267]},{"type":"LineString","properties":{"source":"naturalearthdata.com","kind":"minor_road","sort_rank":355,"kind_detail":"tertiary","min_zoom":6.0,"id":25326},"arcs":[268]},{"type":"LineString","properties":{"source":"naturalearthdata.com","kind":"major_road","kind_detail":"secondary","sort_rank":379,"landuse_kind":"urban_area","min_zoom":4.0,"id":25350},"arcs":[269]},{"type":"LineString","properties":{"source":"naturalearthdata.com","kind":"major_road","sort_rank":379,"kind_detail":"secondary","min_zoom":4.0,"id":25350},"arcs":[270]},{"type":"LineString","properties":{"source":"naturalearthdata.com","kind":"major_road","sort_rank":379,"kind_detail":"secondary","min_zoom":3.0,"id":25401},"arcs":[271]},{"type":"MultiLineString","properties":{"source":"naturalearthdata.com","kind":"highway","kind_detail":"motorway","sort_rank":383,"landuse_kind":"urban_area","min_zoom":3.0,"id":25410},"arcs":[[272],[273],[274],[275],[276]]},{"type":"MultiLineString","properties":{"source":"naturalearthdata.com","kind":"highway","sort_rank":383,"kind_detail":"motorway","min_zoom":3.0,"id":25410},"arcs":[[277],[278],[279],[280],[281],[282]]},{"type":"LineString","properties":{"source":"naturalearthdata.com","kind":"major_road","kind_detail":"secondary","sort_rank":379,"landuse_kind":"urban_area","min_zoom":4.0,"id":25412},"arcs":[283]},{"type":"LineString","properties":{"source":"naturalearthdata.com","kind":"major_road","sort_rank":379,"kind_detail":"secondary","min_zoom":4.0,"id":25412},"arcs":[284]},{"type":"LineString","properties":{"source":"naturalearthdata.com","kind":"highway","sort_rank":383,"kind_detail":"motorway","min_zoom":3.0,"id":25439},"arcs":[285]},{"type":"MultiLineString","properties":{"source":"naturalearthdata.com","kind":"major_road","kind_detail":"secondary","sort_rank":379,"landuse_kind":"urban_area","min_zoom":4.0,"id":25534},"arcs":[[286],[287]]},{"type":"MultiLineString","properties":{"source":"naturalearthdata.com","kind":"major_road","sort_rank":379,"kind_detail":"secondary","min_zoom":4.0,"id":25534},"arcs":[[288],[289],[290]]},{"type":"LineString","properties":{"source":"naturalearthdata.com","kind":"major_road","sort_rank":379,"kind_detail":"secondary","min_zoom":3.0,"id":25592},"arcs":[291]},{"type":"LineString","properties":{"source":"naturalearthdata.com","kind":"highway","sort_rank":383,"kind_detail":"motorway","min_zoom":3.0,"id":25747},"arcs":[292]},{"type":"LineString","properties":{"source":"naturalearthdata.com","kind":"major_road","kind_detail":"secondary","sort_rank":379,"landuse_kind":"urban_area","min_zoom":4.0,"id":25821},"arcs":[293]},{"type":"LineString","properties":{"source":"naturalearthdata.com","kind":"major_road","sort_rank":379,"kind_detail":"secondary","min_zoom":4.0,"id":25821},"arcs":[294]},{"type":"LineString","properties":{"source":"naturalearthdata.com","kind":"major_road","sort_rank":379,"kind_detail":"secondary","min_zoom":3.0,"id":25844},"arcs":[295]},{"type":"LineString","properties":{"source":"naturalearthdata.com","kind":"major_road","kind_detail":"secondary","sort_rank":379,"landuse_kind":"urban_area","min_zoom":4.0,"id":25926},"arcs":[296]},{"type":"MultiLineString","properties":{"source":"naturalearthdata.com","kind":"major_road","sort_rank":379,"kind_detail":"secondary","min_zoom":4.0,"id":25926},"arcs":[[297],[298]]},{"type":"LineString","properties":{"source":"naturalearthdata.com","kind":"major_road","kind_detail":"secondary","sort_rank":379,"landuse_kind":"urban_area","min_zoom":4.0,"id":26026},"arcs":[299]},{"type":"LineString","properties":{"source":"naturalearthdata.com","kind":"major_road","kind_detail":"secondary","sort_rank":379,"landuse_kind":"urban_area","min_zoom":4.0,"id":26026},"arcs":[300]},{"type":"MultiLineString","properties":{"source":"naturalearthdata.com","kind":"major_road","sort_rank":379,"kind_detail":"secondary","min_zoom":4.0,"id":26026},"arcs":[[301],[302]]},{"type":"LineString","properties":{"source":"naturalearthdata.com","kind":"major_road","sort_rank":379,"kind_detail":"secondary","min_zoom":3.0,"id":26027},"arcs":[303]},{"type":"LineString","properties":{"source":"naturalearthdata.com","kind":"major_road","sort_rank":379,"kind_detail":"secondary","min_zoom":3.0,"id":26095},"arcs":[304]},{"type":"LineString","properties":{"source":"naturalearthdata.com","kind":"major_road","kind_detail":"secondary","sort_rank":379,"landuse_kind":"urban_area","min_zoom":4.0,"id":26211},"arcs":[305]},{"type":"MultiLineString","properties":{"source":"naturalearthdata.com","kind":"major_road","sort_rank":379,"kind_detail":"secondary","min_zoom":4.0,"id":26211},"arcs":[[306],[307]]},{"type":"LineString","properties":{"source":"naturalearthdata.com","kind":"major_road","kind_detail":"secondary","sort_rank":379,"landuse_kind":"urban_area","min_zoom":4.0,"id":26215},"arcs":[308]},{"type":"MultiLineString","properties":{"source":"naturalearthdata.com","kind":"major_road","sort_rank":379,"kind_detail":"secondary","min_zoom":4.0,"id":26215},"arcs":[[309],[310]]},{"type":"LineString","properties":{"source":"naturalearthdata.com","kind":"major_road","sort_rank":379,"kind_detail":"secondary","min_zoom":4.0,"id":26482},"arcs":[311]},{"type":"LineString","properties":{"source":"naturalearthdata.com","kind":"highway","kind_detail":"motorway","sort_rank":383,"landuse_kind":"urban_area","min_zoom":4.0,"id":26544},"arcs":[312]},{"type":"LineString","properties":{"source":"naturalearthdata.com","kind":"highway","sort_rank":383,"kind_detail":"motorway","min_zoom":4.0,"id":26544},"arcs":[313]},{"type":"LineString","properties":{"source":"naturalearthdata.com","kind":"minor_road","kind_detail":"tertiary","sort_rank":355,"landuse_kind":"urban_area","min_zoom":6.0,"id":26613},"arcs":[314]},{"type":"LineString","properties":{"source":"naturalearthdata.com","kind":"minor_road","sort_rank":355,"kind_detail":"tertiary","min_zoom":6.0,"id":26613},"arcs":[315]},{"type":"LineString","properties":{"source":"naturalearthdata.com","kind":"major_road","kind_detail":"secondary","sort_rank":379,"landuse_kind":"urban_area","min_zoom":3.0,"id":26620},"arcs":[316]},{"type":"LineString","properties":{"source":"naturalearthdata.com","kind":"major_road","sort_rank":379,"kind_detail":"secondary","min_zoom":3.0,"id":26620},"arcs":[317]},{"type":"LineString","properties":{"source":"naturalearthdata.com","kind":"highway","sort_rank":383,"kind_detail":"motorway","min_zoom":3.0,"id":26993},"arcs":[318]},{"type":"LineString","properties":{"source":"naturalearthdata.com","kind":"minor_road","sort_rank":355,"kind_detail":"tertiary","min_zoom":6.0,"id":27038},"arcs":[319]},{"type":"LineString","properties":{"source":"naturalearthdata.com","kind":"minor_road","sort_rank":355,"kind_detail":"tertiary","min_zoom":6.0,"id":27064},"arcs":[320]},{"type":"LineString","properties":{"source":"naturalearthdata.com","kind":"highway","kind_detail":"motorway","sort_rank":383,"landuse_kind":"urban_area","min_zoom":4.0,"id":27116},"arcs":[321]},{"type":"LineString","properties":{"source":"naturalearthdata.com","kind":"highway","sort_rank":383,"kind_detail":"motorway","min_zoom":4.0,"id":27116},"arcs":[322]},{"type":"LineString","properties":{"source":"naturalearthdata.com","kind":"highway","kind_detail":"motorway","sort_rank":383,"landuse_kind":"urban_area","min_zoom":3.0,"id":27596},"arcs":[323]},{"type":"LineString","properties":{"source":"naturalearthdata.com","kind":"highway","kind_detail":"motorway","sort_rank":383,"landuse_kind":"urban_area","min_zoom":3.0,"id":27596},"arcs":[324]},{"type":"MultiLineString","properties":{"source":"naturalearthdata.com","kind":"highway","sort_rank":383,"kind_detail":"motorway","min_zoom":3.0,"id":27596},"arcs":[[325],[326]]},{"type":"LineString","properties":{"source":"naturalearthdata.com","kind":"highway","sort_rank":383,"kind_detail":"motorway","min_zoom":3.0,"id":27858},"arcs":[327]},{"type":"LineString","properties":{"source":"naturalearthdata.com","kind":"major_road","sort_rank":379,"kind_detail":"secondary","min_zoom":3.0,"id":48466},"arcs":[328]}]},"earth":{"type":"GeometryCollection","geometries":[{"type":"MultiPolygon","properties":{"sort_rank":10,"source":"naturalearthdata.com","min_zoom":0.0,"kind":"earth","area":1287879335969},"arcs":[[[329]]]}]},"landuse":{"type":"GeometryCollection","geometries":[{"type":"Polygon","properties":{"kind":"protected_area","protect_class":"5","area":227940000,"sort_rank":17,"source":"openstreetmap.org","min_zoom":6.0,"tier":2,"id":438526518},"arcs":[[330]]},{"type":"Polygon","properties":{"kind":"protected_area","protect_class":"5","area":215024992,"sort_rank":17,"source":"openstreetmap.org","min_zoom":6.0,"tier":2,"id":-6524087,"osm_relation":true},"arcs":[[331]]},{"type":"MultiPolygon","properties":{"source":"naturalearthdata.com","kind":"urban_area","name":"","area":39099880533,"sort_rank":11,"min_zoom":4.0},"arcs":[[[332]],[[333]],[[334]],[[335]],[[336]],[[337]],[[338]],[[339]],[[340]],[[341]],[[342]],[[343]],[[344]],[[345]],[[346]],[[347]],[[348]],[[349]],[[350]],[[351]],[[352]],[[353]],[[354]],[[355]],[[356]],[[357]],[[358]],[[359]],[[360]],[[361]],[[362]],[[363]],[[364]],[[365]],[[366]],[[367]],[[368]],[[369]],[[370]],[[371]],[[372]],[[373]],[[374]],[[375]],[[376]],[[377]],[[378]],[[379]],[[380]],[[381]],[[382]],[[383]],[[384]],[[385]],[[386]],[[387]],[[388]],[[389]],[[390]],[[391]],[[392]],[[393]],[[394]],[[395]],[[396]],[[397]],[[398]],[[399]],[[400]],[[401]],[[402]],[[403]],[[404],[405]],[[406]],[[407]],[[408]],[[409]],[[410]],[[411]],[[412]],[[413]],[[414]],[[415]],[[416]],[[417]]]},{"type":"MultiPolygon","properties":{"kind":"protected_area","protect_class":"4","area":574179700,"sort_rank":17,"source":"openstreetmap.org","min_zoom":6.0,"tier":2,"osm_relation":true},"arcs":[[[418]],[[419]]]},{"type":"MultiPolygon","properties":{"kind":"protected_area","protect_class":"5","area":7472532587,"sort_rank":17,"source":"openstreetmap.org","min_zoom":4.0,"tier":2,"osm_relation":true},"arcs":[[[420]],[[421]]]}]}},"type":"Topology","transform":{"translate":[45.0,31.952162238],"scale":[0.001373291,0.0011342107]},"arcs":[[[81,3924],[-20,9],[-8,9],[-3,8],[-1,9],[-4,11],[-6,9],[-6,6],[-5,7],[0,12],[-10,10],[-11,10],[-3,2],[-4,6]],[[0,4056],[7,3],[3,2],[0,18],[5,17]],[[262,3548],[-16,3],[-13,13],[-5,14],[5,18],[9,18],[9,14],[3,18],[-10,18],[-22,29],[-4,18],[2,41],[-3,17],[-11,10],[-14,10],[-4,11],[18,11],[-14,17],[-5,16],[-2,38],[-3,20],[-8,22],[-13,16],[-18,1]],[[143,3941],[-41,-16],[-21,-1]],[[545,3402],[-13,4],[-9,11],[-18,46],[-34,47],[-22,20],[-19,3],[-10,6],[-27,25],[-28,10],[-16,5]],[[349,3579],[-19,0],[-24,-12],[-13,-3],[-1,0],[-14,-10],[-16,-6]],[[847,3390],[-14,7],[-6,4],[-5,5],[-3,6],[-4,18],[-3,3],[-5,1],[-23,9],[-12,0]],[[772,3443],[-12,-4],[-14,-8],[-14,-5]],[[732,3426],[-47,2]],[[685,3428],[-23,-8]],[[662,3420],[-8,1],[-7,2],[-7,1]],[[640,3424],[-18,-15],[-14,-7],[-15,-1]],[[886,3316],[15,2],[12,11],[10,14],[22,14],[11,10],[9,15],[1,14],[-5,11],[-12,9],[-16,1]],[[933,3417],[-13,-6],[-12,-8],[-14,-5],[-31,-7],[-16,-1]],[[593,3401],[-12,8],[-8,1]],[[573,3410],[-28,-8]],[[858,3318],[28,-2]],[[806,3295],[15,4],[37,19]],[[755,3297],[51,-2]],[[728,3192],[2,12],[-7,34],[0,14],[2,16],[6,14],[9,10],[15,5]],[[705,3198],[23,-6]],[[812,2887],[-10,7],[-2,14],[7,11],[9,11],[3,8],[2,4],[-5,26],[-18,20],[-40,36],[-47,73],[-9,26],[0,8],[1,7],[4,6],[6,4],[3,4],[1,3],[-1,4],[-3,4],[-8,17],[-6,17],[3,1],[3,0]],[[797,2763],[19,6],[9,2],[7,4],[6,11],[-15,17],[10,25],[16,27],[2,23],[-11,9]],[[840,2887],[-28,0]],[[784,2766],[13,-3]],[[735,2741],[11,3],[11,10],[20,11],[7,1]],[[670,2766],[11,-3],[15,-10],[8,-3]],[[608,2590],[11,15],[6,22],[6,16],[2,16],[-7,23],[-2,12],[0,12],[4,10],[7,8],[5,1],[10,1],[5,3],[1,4],[-2,11],[1,4],[10,16],[5,2]],[[713,2750],[22,-9]],[[704,2750],[9,0]],[[567,2609],[13,-7],[8,-5],[20,-7]],[[507,2291],[4,1],[3,5],[2,10],[0,9],[-2,6],[-8,11],[-3,15],[0,17],[-2,16],[-3,7],[-4,4],[-4,5],[-2,10],[-2,7],[-6,6],[-6,5],[-6,4],[-11,12],[5,14],[21,23],[2,11],[-2,17],[3,11],[7,10],[9,4],[21,2],[20,14],[3,21],[-1,23],[5,17],[17,1]],[[365,2327],[28,-8],[25,-13],[22,-6],[50,-4],[17,-5]],[[349,2096],[-13,10],[-10,19],[-22,72],[7,12],[38,8],[5,5],[5,6],[4,6],[4,7],[1,26],[-6,36],[3,24]],[[327,1750],[-18,2],[-17,9],[-15,21],[16,7],[7,5],[6,6],[0,1],[11,24],[6,23],[8,19],[18,16],[11,11],[29,25],[8,10],[0,9],[-5,8],[-5,8],[-3,10],[1,8],[10,16],[4,8],[10,43],[1,22],[-4,20],[-11,17],[-15,9]],[[380,2107],[-16,0],[-15,-11]],[[535,1438],[-5,6],[0,31],[-2,7],[-3,7],[-34,25],[-11,11],[-10,14],[-8,15],[-5,15],[-3,18],[-5,15],[-9,10],[-12,10],[-9,11],[-65,118],[-2,2],[-1,0],[-2,1]],[[349,1754],[-22,-4]],[[655,1344],[-22,5],[-12,11],[11,15],[35,21],[9,14],[-5,19],[-16,11],[-13,13],[3,27]],[[645,1480],[-16,-4],[-35,0],[-13,-6],[-21,-21],[-12,-8],[-13,-3]],[[793,1026],[12,2],[15,12],[20,20],[10,12],[5,12],[0,8],[-9,5],[-3,8],[0,7],[5,17],[0,9],[-7,15],[-10,11],[-23,19],[-29,41],[-24,24],[-4,13],[-1,15],[-2,18],[-6,16],[-8,16],[-24,31],[-3,1],[-2,2],[-3,1],[-1,1],[-3,0]],[[698,1362],[-4,0],[-4,-2],[-13,-13],[-22,-3]],[[781,1027],[12,-1]],[[841,878],[-42,6],[-16,35],[9,11],[12,10],[11,11],[5,15],[-4,12],[-11,10],[-13,6],[-32,3],[-10,9],[0,11],[15,8],[16,2]],[[1499,478],[-219,196],[-31,35],[-47,29],[-34,28],[-2,1],[-68,40],[-21,21],[-72,36],[-78,24]],[[927,888],[-86,-10]],[[1567,443],[-23,6],[-22,12],[-23,17]],[[1499,478]],[[1965,0],[-12,22],[-3,15],[-7,16],[-26,13],[-11,13],[-16,39],[-11,15],[-2,3],[-14,6],[-11,1],[-6,8],[-6,9],[-9,6],[-12,3],[-5,4],[-1,7],[2,12],[3,10],[4,8],[4,8],[1,13],[-4,11],[-14,11],[-4,11],[-7,4],[-4,5],[-13,18],[-3,5],[-4,5],[-21,21],[-4,5],[-4,12],[0,5],[3,3],[6,16],[4,5],[3,6],[-1,10],[-4,7],[-20,15],[-12,16],[-8,14],[-10,11],[-15,8],[-41,15],[-11,0]],[[1639,470],[-33,-19],[-13,-5],[-26,-3]],[[580,2602],[-5,10],[-7,80],[1,6],[2,2],[2,0],[5,0],[3,0],[4,-1],[2,-1],[4,0],[3,1],[3,1],[2,1],[-7,13],[-50,53],[-4,6],[-4,3],[-5,5],[-5,3],[-5,0],[-4,-3],[-7,-7],[-1,-4],[0,-6],[-3,-5],[-4,-5],[-8,-9],[-3,-6],[-3,-7],[-2,-3],[-6,-3],[-2,-1],[-2,-2],[-2,-1],[-1,0],[0,2],[0,3],[-1,1],[-2,2],[-2,-1],[-3,-3],[-4,-8],[-2,-4],[0,-7],[2,-2],[2,-1],[3,1],[1,0],[1,-1],[0,-3],[-4,-6],[-6,-4],[-3,-4],[-2,-12],[-7,-7],[1,-5],[2,-1],[7,0],[3,-1],[2,-1],[1,-1],[1,-2],[-1,-3],[0,-2],[-1,-6],[-4,-8],[-17,-27],[-6,-8],[-19,-17],[-2,0],[-2,1],[-3,-1],[-2,-1],[0,-5],[-2,-4],[-3,-6],[-7,-8],[-5,-13],[-3,-10],[-6,-17],[-1,-3],[-2,-3],[-4,-2],[-3,-3],[-4,-4],[-9,-25],[-8,-15],[-3,-6],[-1,-5],[-1,-3],[0,-3],[0,-3],[0,-3],[0,-3],[1,-2],[0,-3],[-2,-6],[-2,-5],[-8,-14],[-3,-8],[0,-3],[-1,-2],[-3,-4],[-6,-5],[-13,-7],[-8,-3],[-6,-2],[-4,0],[-8,-2],[-2,0],[-6,1],[-10,-9],[-79,-95],[-24,-14],[-2,13],[-1,4],[-2,3],[-3,1],[-2,0],[-3,0],[-5,2],[-3,2],[-1,4],[0,3],[5,10],[2,5],[1,6],[0,5],[0,4],[-5,13],[-1,6],[0,5],[1,4],[2,4],[10,11],[3,5],[2,3],[0,4],[-9,22],[-4,20],[0,6],[-1,5],[1,4],[0,5],[-3,20],[-2,31],[-3,8],[-6,10],[-6,7],[-9,8],[-8,4],[-9,3],[-15,2],[-9,-1],[-6,-2],[-17,-10],[-4,-1],[-5,1],[-5,4],[-7,9],[-15,15],[-14,9]],[[3337,4096],[20,-6]],[[3499,4064],[36,7],[48,25]],[[3394,4092],[22,-4],[16,-11],[67,-13]],[[3357,4090],[37,2]],[[2111,572],[-67,-159],[-53,-75],[1,-45],[9,-57],[-27,-43],[-76,-52],[-19,-8]],[[2688,3177],[-62,15],[-63,34],[-157,6],[-32,20],[-25,44]],[[2769,3248],[0,-16],[-26,-36],[-55,-19]],[[1962,2114],[-50,7]],[[1912,2121],[-22,-6],[-14,-9],[-2,-20],[7,-48],[-4,-49],[-36,-18],[-52,-3],[-42,-21],[-4,-12],[2,-9],[4,-6],[5,-5],[4,-7],[1,-10],[-2,-17],[1,-9],[3,-7],[-11,-17],[-12,-9]],[[134,391],[10,-1]],[[0,299],[62,43],[5,5],[9,11],[9,6],[32,21],[11,4],[6,2]],[[959,47],[17,-17],[9,-12],[1,-7],[-12,-3],[-12,-8]],[[144,390],[-1,18],[-2,28],[-9,0],[-44,2],[-12,4],[-12,8],[-14,14],[-12,17],[-29,66],[-9,31]],[[144,390],[43,-6],[4,-14],[19,-8],[51,-6],[8,-13],[16,-5],[3,-8],[-1,-8],[-10,-24],[-2,-12],[4,-13],[11,-13],[73,-71],[13,-18],[9,-17],[7,-11],[11,-7],[46,-18],[51,-15],[2,-11],[-6,-4],[-2,-4],[0,-6],[33,-78]],[[1133,26],[15,2],[20,132],[-9,16],[-14,22],[-89,40],[-13,11],[-3,13],[4,16],[31,90],[1,8],[-3,7],[-3,5],[-12,10],[-6,7],[0,8],[5,10],[10,16],[2,6],[3,12],[2,9],[1,10],[-1,54],[5,42],[47,146],[5,9],[16,11],[7,9],[12,20]],[[1050,50],[29,-3],[26,-14],[28,-7]],[[959,47],[91,3]],[[959,47],[-189,-1],[-24,-8],[-4,-4],[-3,-6],[-3,-2],[-5,0]],[[731,26],[-11,2],[-7,2],[-7,1]],[[706,31],[-6,-2],[-25,-20],[-3,-1]],[[672,8],[-4,3],[-2,2],[-2,1]],[[664,14],[-2,-1],[-3,-3],[-3,-2],[-3,0]],[[653,8],[-3,3],[-4,0]],[[646,11],[-24,-11]],[[4096,1557],[-278,-73],[-116,-70],[-60,-51]],[[0,4007],[4,9],[3,8]],[[537,1205],[3,0],[11,5],[9,6],[6,6],[8,9],[34,26],[6,3],[4,1],[4,0],[6,2],[9,3],[17,11],[8,6],[5,7],[9,32],[3,5],[11,20],[12,14]],[[528,1208],[3,-1],[3,-1],[3,-1]],[[352,982],[6,2],[8,5],[10,12],[11,13],[28,24],[5,6],[17,25],[19,24],[10,14],[7,19],[2,12],[5,10],[7,10],[26,31],[8,13],[4,4],[3,2]],[[0,1054],[11,0]],[[82,1062],[228,-67],[42,-13]],[[11,1054],[71,8]],[[4096,584],[-35,-1],[-29,-5],[-81,-54],[-33,-8]],[[3860,516],[-48,6],[-44,37],[-45,25]],[[3723,584],[-32,-6],[-23,-12],[-26,-5]],[[3642,561],[-50,7]],[[3592,568],[-143,-79]],[[3918,516],[-23,8]],[[3895,524],[-35,-8]],[[3233,3073],[0,-21],[6,-31],[17,-23],[-2,-34],[-25,-27]],[[3229,2937],[-25,5],[-14,20],[1,22],[-2,17]],[[3189,3001],[-20,-2],[-23,-28],[14,-59],[33,-54],[9,-40],[-35,-41],[-42,-13],[-22,-2],[-13,-15],[2,-13],[16,-16],[33,-17],[78,-21],[37,-18],[35,-41],[19,-44],[16,-95],[-18,-36]],[[3308,2446],[-32,4],[-24,21],[-28,34],[-12,40],[16,33],[-18,25],[-63,11]],[[3147,2614],[-132,-7],[-18,-27],[8,-52],[-9,-31],[-19,-31],[-3,-62],[13,-68],[-17,-4]],[[2970,2332],[-33,16],[-75,8]],[[2862,2356],[-26,-10],[11,-25],[37,-14],[12,-56],[6,-93],[52,-102],[11,-48],[4,-48],[14,-57],[-3,-21],[-13,-17],[-75,-69]],[[3642,1363],[-16,-35],[-3,-48],[1,-38],[-73,-150],[-4,-20],[-2,-17],[-17,-10],[-108,-31],[-42,-50],[-13,-105],[-34,-25],[-58,-20],[-16,-11],[-10,-18],[-5,-21],[1,-9]],[[3044,1523],[-20,8],[-82,7],[-48,18],[-37,22],[-10,18],[4,21],[6,20],[29,68],[-2,20],[-9,24],[5,28],[12,19]],[[3456,1431],[-22,18],[-25,27],[-55,28],[-24,20],[-7,21],[8,26],[12,25],[-1,24],[-20,34],[-32,39],[-40,13]],[[3250,1706],[-36,-21],[-40,-14],[-33,-19],[-25,-77],[-13,-14],[-59,-38]],[[3642,1363],[-6,8],[-47,25],[-5,25],[1,26],[-16,16],[-23,19],[-12,21],[-16,10]],[[3518,1513],[-26,-19],[-14,-28],[-5,-23],[-17,-12]],[[2528,1828],[-27,10],[-162,19],[-313,207],[-15,21],[-31,21],[-18,8]],[[2892,1796],[-199,85]],[[2693,1881],[-48,-5]],[[2645,1876],[-39,2]],[[2606,1878],[-19,-5],[-38,-40],[-21,-5]],[[4096,2593],[-39,-13],[-90,-14],[-43,-29],[-64,-18]],[[3860,2519],[-65,9]],[[3795,2528],[-42,-33],[-1,-58],[15,-21],[-8,-18],[-68,-38],[-6,-46],[39,-46],[32,-29],[27,-12]],[[3812,2230],[21,-13],[22,-25],[11,-26],[-3,-37],[17,-43],[34,-42],[48,-40],[134,-13]],[[3783,2227],[29,3]],[[3849,3274],[-22,4]],[[3827,3278],[-43,-3],[-131,-56],[-34,-2],[-40,-11],[-37,-19],[-128,-38],[-31,-23],[-22,-50],[-128,-3]],[[2803,3262],[79,-1],[61,-34],[28,-35],[-22,-33],[49,-37],[94,-16]],[[2769,3248],[34,14]],[[3112,3111],[104,-26],[17,-12]],[[3092,3106],[20,5]],[[2937,3471],[-1,10],[3,35],[45,49],[74,41],[132,35],[17,24],[-11,94],[-17,36],[-23,37],[-12,44],[-14,24],[-19,10],[-13,15],[-14,7],[-22,2],[-37,18],[-24,35],[-23,58],[-39,47],[-1,4]],[[2822,3504],[48,-3],[67,-30]],[[2769,3248],[-54,78],[-93,82],[-2,27],[15,11],[23,4],[31,2],[27,5],[40,29],[66,18]],[[4096,3284],[-22,0]],[[4074,3284],[-9,-24],[28,-38],[0,-15],[-8,-13]],[[4085,3194],[-18,11],[-42,37],[-71,21],[-74,4],[-31,7]],[[4051,3868],[45,-5]],[[3849,3274],[-16,26],[-18,41],[-6,27],[9,34],[40,38],[147,71],[25,23],[9,33],[35,71],[22,74]],[[4096,3715],[-33,28],[-52,15],[-26,22],[-38,50],[21,31],[83,7]],[[2076,2644],[1,-13],[-4,-25],[-24,-27],[-29,-65],[-34,-50],[-73,-9],[-23,-9],[-11,-13],[7,-36],[37,-29],[54,-30],[24,-4],[19,-11],[11,-36],[19,-28]],[[2162,2342],[14,-21],[7,-36],[-8,-58],[2,-41],[-22,-19]],[[2050,2259],[62,64],[33,15],[17,4]],[[2155,2167],[-82,18]],[[2073,2185],[-72,-6],[-27,-40],[-12,-25]],[[1738,1839],[10,-14],[16,-39],[7,-43],[-4,-28],[-10,-20],[-17,-18],[-41,-28],[-14,-20],[-255,-73],[-45,-43],[-16,-40],[-13,-1],[-13,-6],[-2,-13],[-11,-34],[1,-7],[11,-7],[17,-29],[23,-12],[19,-25],[15,-5],[40,-25],[7,-3],[3,-8],[-1,-9],[-8,-15],[2,-7],[9,-12],[10,-9],[13,-6],[27,-9],[2,-2],[1,-4],[2,-4],[5,-2]],[[1541,1225],[5,-1],[4,-4],[4,-4],[36,-28],[13,-6],[0,-11],[13,-14],[19,-12],[31,-7],[89,-46],[8,-9],[4,-11],[9,-3],[11,-1],[8,-4],[18,-20],[14,-28],[9,-11],[14,-4],[11,-5],[24,-27],[85,-115],[118,-252],[14,-21],[9,-9]],[[1528,1219],[4,1],[4,4],[5,1]],[[1738,1839],[-12,4],[-25,2]],[[1701,1845],[-117,-27],[0,-27],[20,-31],[11,-22],[-10,-57],[-16,-30]],[[1351,1625],[-85,7],[-183,59],[-53,47],[-49,30],[-59,14],[-59,4],[-109,45]],[[754,1831],[-113,-15]],[[641,1816],[-42,2]],[[599,1818],[-14,-16],[10,-34],[-8,-56],[-27,-88],[-16,-128],[-16,-14]],[[1589,1651],[-114,5]],[[1475,1656],[-124,-31]],[[2349,3296],[-107,57]],[[2242,3353],[-26,-7],[12,-35],[22,-28],[9,-18],[-1,-23],[-51,-17],[-21,-20],[-24,-11]],[[2162,3194],[-23,6],[-34,71]],[[2105,3271],[-17,-2],[-38,-42],[-11,-22],[50,-74],[79,-174],[35,-43],[30,-18],[42,-41],[20,-82],[-15,-66],[-25,-40],[-24,-21]],[[2231,2646],[-16,8],[-24,57]],[[2191,2711],[-13,-3],[-8,-25],[-27,-14],[-44,-13],[-23,-12]],[[2349,3296],[-7,19],[-14,24],[-13,12],[-201,120],[-10,23],[12,32],[29,30],[16,64],[0,90],[-14,50],[-12,1],[-3,1],[-1,7],[2,6],[3,5],[1,6],[-4,22],[1,8],[8,7],[-7,9],[-8,18],[-7,19],[-3,17],[-5,10],[-23,25],[-3,4],[-367,71],[-21,20]],[[1184,2565],[-31,21],[-175,238],[-138,108],[-21,6]],[[2054,2643],[-32,5],[-111,125],[-84,38],[-29,24],[-21,2]],[[1777,2837],[-8,-17],[14,-26],[-3,-30],[-25,-23],[-104,-6],[-8,-18],[-4,-57],[-15,-8]],[[1624,2652],[-28,2]],[[1596,2654],[-46,-5],[-43,-45],[-31,-11],[-9,-19],[-1,-25],[-15,-18],[-24,-4],[-14,-19],[-3,-29],[-28,-15],[-50,-7]],[[2076,2644],[-22,-1]],[[1223,2460],[-24,27],[-1,34],[6,26],[-3,19]],[[1201,2566],[-17,-1]],[[1332,2457],[-65,8]],[[1267,2465],[-44,-5]],[[3317,645],[-39,21],[-35,89]],[[3449,489],[19,65],[16,25],[-30,42],[-73,28]],[[3381,649],[-64,-4]],[[3719,0],[-1,2],[-19,73],[-10,23],[-12,13],[-35,11],[-10,13],[-18,13],[-18,24],[-23,59],[-110,178],[-11,54],[-3,26]],[[3189,744],[-102,10],[-170,119],[-161,16],[-45,14],[-38,37],[-75,23]],[[2598,963],[-78,-6],[-51,-16],[-179,-12],[-40,-30],[-99,-267],[-40,-60]],[[3243,755],[-54,-11]],[[1698,4016],[-36,80]],[[1698,4016],[-17,-5],[-22,-13],[-3,-17],[5,-15],[-4,-14],[-12,-24],[-31,-35],[-55,-23]],[[1559,3870],[-83,7],[-75,20],[-28,19],[-12,14],[-15,11],[-10,14],[-6,10],[-8,7]],[[1322,3972],[-377,-34]],[[945,3938],[-183,26]],[[762,3964],[-64,-25],[-16,-20],[-1,-42],[-35,-53],[-118,-37],[-22,-23],[-9,-14],[-16,-17],[-10,-42],[-40,-45],[-12,-29],[-29,-28],[-24,-15],[-1,0]],[[4096,3980],[-39,20],[-117,96]],[[4096,3545],[-327,210],[-100,34],[-58,-16],[-229,-174],[-106,4],[-95,44],[-182,185],[-339,264]],[[880,4017],[12,40]],[[892,4057],[0,3],[0,29],[-1,7]],[[2682,4091],[-5,5]],[[2755,3995],[-12,18],[-19,33],[-21,25],[-21,20]],[[3641,3798],[-64,8],[-33,7]],[[3544,3813],[-69,40],[-30,11],[-42,14],[-27,11],[-27,-3],[-27,3],[-27,0],[-15,8],[-12,25],[0,18],[6,26],[-3,25],[6,15],[0,29],[3,11],[3,14],[6,11],[3,25]],[[932,3784],[-13,14],[-15,28]],[[880,4014],[0,3]],[[904,3826],[-18,31],[-18,29],[-3,14],[12,87],[3,27]],[[3641,3798],[-34,-21],[-15,-8],[-5,-4]],[[3475,3667],[-15,-7],[-42,-36]],[[3587,3765],[-55,-47],[-12,-11],[-45,-40]],[[3418,3624],[-27,-4],[-27,-14],[-18,-4]],[[3085,3698],[-39,42],[-24,29]],[[2980,3813],[-33,25]],[[2947,3838],[-24,19],[-57,47],[-63,43],[-27,26],[-21,22]],[[3022,3769],[-15,18],[-27,26]],[[3346,3602],[-15,-4],[-12,0],[-30,8],[-42,11],[-45,7],[-33,7],[-27,15],[-39,32],[-18,20]],[[3418,3624],[-21,-18],[-21,-19],[-9,-8]],[[3367,3579],[-18,-17],[-42,-33],[-15,-7],[-18,-15],[-3,-7]],[[942,3774],[-10,10]],[[1523,3438],[0,8],[-12,14],[-12,7],[-9,15],[3,25],[-3,15],[-42,58],[-27,22],[-87,58],[-27,22],[-15,4],[-42,-4],[-60,4],[-15,3],[-12,8],[-54,43],[-15,4],[-27,-11],[-18,0],[-30,11],[-30,3],[-30,11],[-17,16]],[[3641,3798],[57,-14],[27,-11],[12,-7]],[[3820,3723],[41,-23]],[[3885,3686],[8,-4],[19,-15]],[[3929,3653],[9,-7],[66,-37],[42,-25],[50,-33]],[[3737,3766],[30,-15],[30,-14],[23,-14]],[[3861,3700],[24,-14]],[[3912,3667],[17,-14]],[[286,3184],[33,-7]],[[163,3209],[54,-7],[33,-7],[24,-8],[12,-3]],[[0,3247],[22,10],[12,-4],[30,-29],[27,-4],[12,-3],[15,-11],[12,-8],[33,11]],[[319,3177],[12,0],[3,-3]],[[334,3174],[24,-23],[15,-29],[24,-40],[27,-22]],[[634,2995],[-27,14],[-36,11],[-12,0],[-30,4],[-27,-4],[-27,7],[-42,22],[-9,11]],[[703,2966],[-9,11],[-30,7],[-30,11]],[[1460,2951],[3,44],[-6,18],[-7,11]],[[1450,3024],[-8,14],[0,29],[15,26],[12,11],[27,11],[18,25],[30,26],[15,25],[0,15],[-3,25],[0,33],[-12,33],[-18,25],[-18,44],[3,40],[12,25],[0,7]],[[3061,3220],[6,-22],[3,-29],[-9,-11],[-27,-14],[-27,7],[-15,-4],[-15,-14],[-24,-29],[-12,-44],[-6,-22],[0,-32],[-18,-48],[-24,-47],[-24,-44],[-6,-14],[-18,-29],[-15,-15],[-9,-7]],[[2821,2802],[-9,-4],[-30,-3],[-21,-11]],[[3908,2697],[9,80],[6,43],[6,11],[12,15],[1,8]],[[3989,2952],[3,3],[48,42]],[[4083,3009],[11,0],[2,0]],[[3942,2854],[2,17],[18,44],[15,25],[12,12]],[[4040,2997],[6,5],[18,7],[19,0]],[[3840,2728],[14,-6],[39,-15],[15,-10]],[[3529,2786],[2,1]],[[2821,2802],[51,-18],[99,-4],[78,-7],[45,14],[81,0],[42,-3],[42,7],[27,-11],[15,0],[69,-3],[27,3],[27,7],[30,-3],[27,-11],[18,0],[30,13]],[[3531,2787],[10,4],[42,0],[30,7],[31,4],[30,-7],[87,-26],[66,-36],[13,-5]],[[2581,2600],[-1,-9],[-21,-40],[-3,-44]],[[2761,2784],[-37,-18],[-12,-15],[-9,-11],[-45,-36],[-57,-55],[-18,-29],[-2,-20]],[[2498,2552],[34,-41],[24,-4]],[[2433,2580],[63,-25],[2,-3]],[[2271,2493],[27,25],[10,19]],[[2308,2537],[5,10],[12,4],[30,26],[42,10],[15,0],[21,-7]],[[1409,2496],[-3,26],[3,15],[9,28]],[[1463,2917],[0,20],[-3,14]],[[1382,2413],[-3,18],[6,18],[21,29],[3,15],[0,3]],[[1418,2565],[0,1],[3,11],[-6,29],[0,14],[21,26],[3,11],[-3,29],[-21,72],[-3,8],[3,29],[6,14],[12,11],[18,29],[3,15],[0,14],[9,29],[0,10]],[[3909,2693],[-1,4]],[[3935,2366],[-6,18],[-12,102],[3,43],[12,44],[3,44],[-6,29],[-20,47]],[[2266,2479],[5,14]],[[2202,2271],[12,15],[3,29],[9,29],[24,40],[6,58],[6,11],[0,14],[4,12]],[[3992,2224],[9,3],[42,30],[27,21],[26,7]],[[3992,2224],[-12,29],[-12,44],[-12,29],[-21,40]],[[1460,2202],[-6,11],[-27,76],[-6,15],[-21,69],[-18,40]],[[996,2729],[-31,34]],[[965,2763],[-12,14],[-15,10],[-28,11],[-15,11],[-12,18],[-24,19],[-33,29],[-18,18],[-27,40],[-3,14],[-6,26],[-30,-7],[-39,0]],[[1460,2202],[-21,4],[-27,14],[-12,0],[-12,7],[-27,19],[-27,18],[-24,29],[-27,14],[-24,30],[-9,14],[-9,26],[-9,18],[-9,25],[-9,15],[-12,14],[-12,26],[-9,14],[-54,55],[-9,14],[-12,29],[-27,22],[-36,73],[-15,18],[-12,7],[-20,22]],[[2097,2184],[3,0],[24,29],[27,25],[42,22],[9,11]],[[2556,2507],[27,-7],[27,-3],[14,0]],[[2624,2497],[16,0],[27,3],[15,0],[15,-7],[12,-11],[9,-29],[3,-15],[0,-72],[-9,-55],[9,-29],[0,-15],[-6,-18],[-27,-54],[-9,-18]],[[1775,2151],[12,11],[27,15],[67,25],[27,11],[15,11],[12,0],[30,-7],[24,-19],[18,0],[12,4],[27,-11],[27,0],[24,-7]],[[1556,2133],[-48,7],[-12,4],[-12,14],[-4,7]],[[1480,2165],[-14,19],[-6,18]],[[1736,2118],[21,15],[18,18]],[[1556,2133],[33,-11],[27,-6]],[[1616,2116],[3,-1],[27,-4],[69,0],[21,7]],[[265,2097],[51,32],[45,37],[36,40],[9,14],[15,37]],[[4096,2155],[-8,-11],[-15,-18],[-36,-51]],[[4037,2075],[-3,14],[-21,40],[-6,44],[-12,40],[-3,11]],[[2729,2088],[14,-6],[24,-15]],[[2679,2177],[-6,-26],[3,-29],[12,-4],[27,-25],[14,-5]],[[142,1987],[30,19],[12,11],[21,32],[30,26],[30,22]],[[103,1966],[12,3],[27,18]],[[1103,1899],[6,-2],[13,-4]],[[424,2261],[9,14],[15,7],[4,0]],[[421,2257],[3,4]],[[452,2282],[11,0],[54,-29],[27,-7],[27,-19],[15,-3],[15,-4],[15,-3],[12,-15],[33,-18],[30,-4],[27,-11],[12,4],[15,-4],[15,-25],[30,-18],[21,-26],[15,-11],[45,-22],[39,-25],[13,-11],[39,-33],[9,-14],[6,-15],[27,-25],[78,-37],[21,-8]],[[1122,1893],[2,0]],[[1501,2065],[7,2],[15,11],[15,26],[18,25],[0,4]],[[1139,1889],[12,0],[15,8],[12,14],[30,29],[15,29],[12,29],[12,15],[12,4],[45,7],[63,18],[42,7],[18,8],[69,7],[5,1]],[[1124,1893],[15,-4]],[[2761,2051],[6,16]],[[2682,1867],[-3,19],[-6,25],[3,15],[12,21],[6,19],[9,32],[12,15],[15,25],[31,11],[0,2]],[[9,1827],[13,11],[18,8],[3,7],[6,29],[21,18],[12,29],[9,11],[12,26]],[[3182,1833],[11,-5]],[[3228,1824],[49,0]],[[3287,1827],[44,11],[6,2]],[[3378,1866],[37,9],[42,-8],[24,4]],[[3488,1872],[9,2]],[[3061,1820],[57,26],[27,0],[27,-8],[10,-5]],[[3193,1828],[0,-1],[12,-3],[23,0]],[[3277,1824],[10,3]],[[3337,1840],[9,2],[24,22],[8,2]],[[3481,1871],[3,0],[4,1]],[[3497,1874],[29,8],[42,7],[27,15],[58,43],[24,30],[3,14],[39,84],[9,11],[27,25],[30,26],[30,-4],[45,4],[15,0],[30,10],[15,15],[27,40],[15,11],[30,11]],[[2767,2067],[24,-14],[5,-11]],[[2796,2042],[10,-18],[6,-26],[33,-40],[12,-11],[57,-10],[12,-8],[15,-11],[42,-58],[24,-25],[39,-11],[9,-7],[6,3]],[[4037,2075],[3,-15],[0,-33],[6,-25],[15,-55],[18,-43],[17,-37]],[[2729,1705],[-22,23]],[[2760,1690],[-2,3],[-20,8]],[[2707,1728],[-1,1],[-15,8],[-12,10],[-9,26],[-3,54],[15,40]],[[2738,1701],[-8,3],[-1,1]],[[2797,1660],[-27,18],[-10,12]],[[0,1823],[9,4]],[[2887,1417],[3,29],[12,29],[3,11],[-12,29],[-24,29],[-30,58],[-3,15],[-21,25],[-18,18]],[[2461,1332],[-1,1],[-9,-4]],[[2887,1417],[-18,0],[-12,-11],[-15,-8],[-27,11],[-33,-14],[-42,-15],[-28,-18],[-30,-15],[-27,-3],[-54,7],[-12,-4],[-27,15],[-30,-7],[-15,-4],[-27,-22],[-15,-3],[-14,6]],[[1139,1889],[3,0],[33,-51],[24,-25],[27,-15],[27,-14],[15,-15],[45,-51],[24,-32],[33,-55],[42,-36],[42,-40],[33,-26],[9,-14],[27,-4],[27,-14],[36,-44],[21,-29],[18,-4],[30,0],[12,-7],[30,-44],[27,-14],[12,-29],[15,-19]],[[2972,1336],[-1,1],[-2,0]],[[2969,1337],[-16,7],[-21,18],[-33,44],[-12,11]],[[3481,1220],[-33,26],[-24,18],[-45,18],[-45,15],[-57,7],[-15,0],[-39,11],[-54,11],[-15,0],[-87,7],[-30,-4],[-65,7]],[[2019,1136],[-6,1],[-5,-4]],[[2451,1329],[-15,-15]],[[2008,1133],[-10,-7],[-15,-29]],[[2436,1314],[-15,-14],[-27,-3],[-15,3],[-42,-3],[-42,29],[-27,3],[-30,11],[-30,4],[-42,0],[-12,-11],[3,-18],[18,-40],[0,-15],[-12,-25],[-15,-15],[-12,-3],[-21,-30],[-15,-3],[-45,-4],[-3,-14],[9,-15],[-6,-11],[-12,-7],[-24,3]],[[1751,1307],[6,-47],[21,-29],[30,-25],[9,-15],[28,-11],[12,-14],[3,-15],[12,-14],[15,-4],[69,-15],[12,-7],[15,-14]],[[1974,1024],[0,7],[3,44],[6,22]],[[3974,922],[-12,-7],[-2,-3]],[[3960,912],[-13,-15],[-9,-4]],[[3998,937],[-24,-15]],[[3767,965],[0,1],[-27,14],[-18,36]],[[3722,1016],[-3,8],[-27,25],[-27,29],[-85,66],[-24,25],[-39,26],[-15,11],[-21,14]],[[3938,893],[-9,-7],[-12,0],[-42,14],[-30,4],[-27,11],[-15,11],[-24,29],[-12,10]],[[4096,916],[-17,10],[-27,18],[-12,11],[-18,-4],[-24,-14]],[[561,526],[31,-11]],[[0,851],[12,-2],[31,-3],[12,-11],[18,-44],[15,-14],[39,-26],[57,-14],[30,-22],[30,-44],[57,-51],[12,-7],[45,-33],[12,-7],[30,-4],[54,-18],[63,-11],[27,-7],[17,-7]],[[592,515],[6,-18],[23,-33]],[[621,464],[10,-15]],[[2448,446],[-9,29],[-4,16]],[[2435,491],[-8,27],[-12,15],[-15,7],[-12,15],[0,14],[6,15],[-27,40],[-3,43],[-9,26],[-12,18],[-42,11],[-30,0],[-18,7],[-15,11],[-18,26],[-15,14],[-12,11],[-24,11],[-24,29],[-12,11],[-30,7],[-12,11],[-27,11],[-12,15],[-21,29],[-27,14],[-15,15],[-9,14],[0,44],[-6,22]],[[43,57],[0,29],[-12,36],[-6,25],[-3,30],[-10,29],[-12,17]],[[43,57],[-27,-8],[-16,-4]],[[631,449],[36,-40],[45,-54],[15,-26],[15,-29],[30,-109],[6,-29],[-6,-25],[-27,-33],[-15,-26],[-6,-29],[3,-43],[2,-6]],[[592,515],[12,0],[15,7],[30,15],[14,17]],[[663,554],[16,23],[18,10],[27,4],[39,29],[27,7],[27,11],[12,0],[12,-7],[27,-40],[27,-25],[43,-19],[54,-29],[27,-3],[42,7],[27,0],[27,-4],[24,-7],[42,-7],[15,-7],[12,-4],[15,-11],[24,-22],[9,-14],[12,-37],[15,-40],[3,-29],[-9,-29],[0,-29],[-9,-40],[-9,-29],[0,-15],[3,-25],[3,-15],[27,-7],[24,-25],[27,3],[15,-3],[12,-11],[15,-44],[3,-29],[6,-29],[5,-13]],[[2382,200],[-18,38],[-4,16]],[[2417,404],[7,2],[12,11],[12,29]],[[2360,254],[-8,28],[-6,25],[-6,15],[-3,25],[6,19],[15,7],[39,14],[12,15],[8,2]],[[2406,0],[-3,38],[0,84],[-6,33],[-6,25],[-9,20]],[[55,0],[-6,20],[-6,37]],[[3271,3500],[-6,-22],[-18,-29],[-39,-36],[-9,-15],[-15,-11],[-42,-14],[-15,-7],[-30,-40],[-15,-11],[-18,-26],[-9,-32],[-3,-11],[9,-26]],[[0,4096],[4096,0],[0,-4096],[-481,0],[-3615,0],[0,4096]],[[2806,2029],[52,68],[79,-140],[-75,-1],[-30,34],[27,27],[-53,12]],[[2591,0],[17,14],[7,44],[15,-35],[-39,-23]],[[3381,0],[17,14],[26,-11],[-1,-3],[-42,0]],[[2495,118],[-13,12],[4,39],[30,-22],[-21,-29]],[[2834,142],[25,-39],[-74,-32],[-14,56],[22,23],[41,-8]],[[2712,140],[-1,-30],[-39,-9],[16,29],[24,10]],[[3212,73],[-14,-31],[24,-42],[-178,3],[24,78],[70,-8],[19,57],[41,0],[14,-57]],[[3001,175],[51,-6],[-7,-45],[22,-22],[-65,-41],[-63,10],[-32,59],[16,30],[48,9],[0,20],[30,-14]],[[2405,208],[-57,-19],[-24,59],[55,9],[26,-49]],[[2461,723],[-40,-64],[-56,79],[40,-20],[39,30],[17,-25]],[[2712,669],[14,-20],[-36,-8],[-34,-50],[-65,19],[32,79],[89,-20]],[[3732,865],[-21,20],[5,29],[23,-17],[-7,-32]],[[4096,742],[0,-27],[-33,13],[33,14]],[[844,1012],[-23,30],[31,19],[-1,-29],[-7,-20]],[[3910,1208],[0,-79],[-33,-29],[-48,78],[81,30]],[[2048,1187],[-15,-48],[-41,-10],[-16,59],[72,-1]],[[3936,964],[34,5],[4,-55],[-81,-10],[6,48],[37,12]],[[3783,995],[-18,-34],[-58,41],[41,39],[35,-46]],[[1904,1384],[-28,6],[-5,33],[29,-23],[4,-16]],[[72,1552],[-5,-21],[-32,-10],[8,30],[29,1]],[[3222,1315],[24,59],[57,-10],[-8,-26],[-73,-23]],[[2971,1335],[-20,20],[4,29],[21,-20],[-5,-29]],[[2454,1404],[49,-25],[-54,-61],[-44,-12],[24,39],[-29,55],[37,21],[17,-17]],[[3441,1266],[-73,30],[8,29],[64,10],[33,-19],[-32,-50]],[[3876,1376],[26,-2],[-21,-71],[-28,22],[-35,-18],[-30,28],[25,49],[63,-8]],[[1994,416],[47,8],[-32,-98],[-97,-10],[0,89],[82,11]],[[297,522],[-36,10],[0,29],[67,-3],[6,-26],[-37,-10]],[[1577,558],[100,-26],[6,-29],[-111,-59],[-25,68],[17,69],[13,-23]],[[674,551],[-33,-79],[-48,-19],[-38,60],[29,63],[90,-25]],[[2494,473],[-33,-13],[82,-26],[-7,-39],[-18,-30],[-61,-10],[-36,30],[-24,117],[97,-29]],[[2292,512],[17,-40],[-58,1],[8,49],[33,-10]],[[4071,248],[-20,22],[4,37],[20,-24],[-4,-35]],[[2831,259],[-38,8],[4,31],[37,-6],[-3,-33]],[[2963,287],[-71,-9],[-31,35],[54,62],[48,-19],[0,-69]],[[361,1881],[70,-7],[8,-59],[-114,-33],[-31,92],[67,7]],[[1154,1935],[-11,-32],[-40,-19],[0,65],[39,21],[12,-35]],[[2480,2027],[25,-73],[-100,28],[24,39],[51,6]],[[3554,2060],[-24,15],[5,42],[25,-11],[-6,-46]],[[1507,2158],[73,0],[40,-20],[-4,-23],[-78,-56],[-79,13],[-17,37],[33,20],[8,58],[24,-29]],[[1876,2061],[14,0],[30,9],[-29,-32],[-15,23]],[[2834,2109],[24,-29],[-57,-40],[-72,20],[0,59],[53,12],[52,-22]],[[2753,1756],[38,-4],[-6,-74],[-81,39],[16,59],[33,-20]],[[4096,1748],[0,-28],[-33,-23],[-137,20],[8,49],[146,-15],[16,-3]],[[4096,1854],[0,-78],[0,78]],[[3431,1930],[58,12],[8,-68],[-97,-20],[-53,28],[-20,-86],[-64,-30],[-41,69],[-40,-10],[4,58],[47,28],[-11,-47],[24,-29],[25,19],[8,-39],[105,137],[47,-22]],[[455,2256],[-39,6],[-17,33],[48,30],[8,-69]],[[1960,2226],[-14,35],[46,5],[-6,-24],[-26,-16]],[[2190,2262],[-57,-22],[-27,26],[66,29],[18,-33]],[[3633,2257],[-23,9],[7,27],[74,2],[-58,-38]],[[2543,2275],[-44,-6],[-21,56],[51,19],[14,-69]],[[1095,2511],[-21,8],[-4,31],[21,-9],[4,-30]],[[1459,2560],[-41,-69],[-57,29],[25,49],[73,-9]],[[3696,2413],[-29,-20],[-51,24],[2,64],[81,-29],[-3,-39]],[[2309,2537],[15,-36],[-56,-27],[-33,66],[74,-3]],[[1903,2532],[33,8],[-10,-50],[-79,11],[32,49],[24,-18]],[[989,2716],[-32,39],[24,21],[33,-11],[-25,-49]],[[3992,2811],[-26,-46],[8,-59],[-106,-22],[-30,47],[47,54],[8,59],[71,14],[28,-47]],[[2558,2721],[-15,-34],[16,-10],[-57,-14],[-8,34],[64,24]],[[3538,2834],[17,-18],[-26,-31],[-27,22],[36,27]],[[2704,2893],[17,-30],[-57,0],[27,48],[13,-18]],[[2008,2925],[24,-47],[-12,-46],[-19,2],[7,91]],[[2065,2860],[5,-27],[-37,-9],[11,31],[21,5]],[[3424,3392],[-8,30],[73,9],[-22,-32],[-43,-7]],[[3702,3359],[-36,36],[58,27],[-5,-54],[-17,-9]],[[3950,3363],[-50,-47],[-79,8],[64,49],[65,-10]],[[682,3598],[13,-28],[-37,-31],[-65,20],[72,57],[17,-18]],[[3512,3493],[-22,-29],[-74,16],[-1,23],[42,56],[55,-66]],[[315,3210],[27,6],[8,-39],[-56,-10],[-16,37],[37,6]],[[890,3196],[10,-29],[-37,-50],[-26,63],[19,25],[34,-9]],[[4055,2982],[-40,-40],[-61,26],[-4,23],[43,2],[14,37],[48,-48]],[[4096,3064],[0,-59],[-5,-1],[-52,36],[40,42],[17,-18]],[[1475,3020],[32,10],[38,-59],[-38,-49],[-81,-10],[-40,79],[32,39],[57,-10]],[[2561,2466],[-35,5],[-40,52],[24,56],[71,21],[18,28],[41,-98],[-15,-33],[-64,-31]],[[2478,2589],[-13,31],[37,18],[13,-35],[-37,-14]],[[1030,1551],[73,-40],[-76,-50],[-62,44],[65,46]],[[999,1494],[47,-2],[-1,12],[-36,16],[-10,-26]],[[3708,1560],[-14,-49],[30,10],[24,-29],[-40,-21],[-49,11],[16,69],[33,9]],[[2671,4096],[18,0],[-11,-9],[-7,9]],[[876,4009],[-8,40],[16,19],[19,-28],[-27,-31]],[[2785,4019],[-24,9],[22,27],[2,-36]],[[377,3759],[-4,-63],[-55,0],[8,49],[51,14]],[[2632,3716],[32,-20],[-9,-16],[-56,6],[8,39],[25,-9]],[[3675,3676],[-30,14],[6,35],[17,-18],[7,-31]],[[3449,3627],[-71,-57],[-35,28],[57,88],[67,19],[14,-29],[-32,-49]],[[4096,3589],[0,-84],[-25,-5],[-9,40],[-35,-24],[4,72],[-57,10],[-56,69],[-33,0],[0,29],[-56,10],[-24,49],[-65,19],[-24,-68],[-49,39],[-46,-20],[14,49],[-97,-19],[8,78],[40,0],[-8,39],[105,30],[73,-89],[89,-9],[8,-39],[49,0],[60,-72],[115,-20],[19,-85],[0,1]],[[3034,3821],[10,-27],[49,0],[60,-98],[21,10],[64,-69],[-40,-10],[-25,30],[-40,0],[-16,49],[-81,-20],[-24,147],[22,-12]],[[958,3808],[11,-20],[-39,-19],[-54,15],[16,49],[49,-29],[13,31],[4,-27]],[[2975,3803],[-28,30],[2,47],[55,-8],[-29,-69]],[[3190,1697],[16,45],[68,-57],[-5,-62],[-50,13],[-29,61]],[[1885,4096],[138,0],[41,-87],[-96,9],[-39,29],[2,30],[-46,19]],[[1750,4096],[127,0],[-5,-12],[43,-35],[-86,-54],[10,36],[-50,51],[-38,-6],[-1,20]],[[1624,4096],[38,0],[-22,-12],[-16,12]]]}