{"objects":{"water":{"type":"GeometryCollection","geometries":[]},"buildings":{"type":"GeometryCollection","geometries":[]},"places":{"type":"GeometryCollection","geometries":[{"type":"Point","properties":{"name:ps":"\u0627\u0646\u06ab\u0648\u0644\u0627","name:ka":"\u10d0\u10dc\u10d2\u10dd\u10da\u10d0","name:ko":"\uc559\uace8\ub77c","name:kn":"\u0c85\u0c82\u0c97\u0ccb\u0cb2\u0cbe","name:km":"\u17a2\u1784\u17cb\u17a0\u17d2\u1782\u17c4\u17a1\u17b6","name:kk":"\u0410\u043d\u0433\u043e\u043b\u0430","name:tt":"\u0410\u043d\u0433\u043e\u043b\u0430","name:th":"\u0e1b\u0e23\u0e30\u0e40\u0e17\u0e28\u0e41\u0e2d\u0e07\u0e42\u0e01\u0e25\u0e32","name:ti":"\u12a0\u1295\u1310\u120b","name:ks":"\u0627\u06cc\u0646\u065b\u06af\u0648\u0644\u0627","name:to":"\u02bbEnikola","name:or":"\u0b06\u0b19\u0b4d\u0b17\u0b4b\u0b32\u0b3e","name:ta":"\u0b85\u0b99\u0bcd\u0b95\u0bcb\u0bb2\u0bbe","name:tg":"\u0410\u043d\u0433\u043e\u043b\u0430","name:te":"\u0c05\u0c02\u0c17\u0c4b\u0c32\u0c3e","name:dz":"\u0f68\u0f44\u0f0b\u0f42\u0fb7\u0f7c\u0f0b\u0f63","source":"openstreetmap.org","name:hi":"\u0905\u0902\u0917\u094b\u0932\u093e","name:he":"\u05d0\u05e0\u05d2\u05d5\u05dc\u05d4","kind":"country","name:ur":"\u0627\u0646\u06af\u0648\u0644\u0627","name:la":"Angolia","name:uk":"\u0410\u043d\u0433\u043e\u043b\u0430","name:hy":"\u0531\u0576\u0563\u0578\u056c\u0561","name:ln":"Ang\u00f3la","name:lo":"\u0ead\u0eb1\u0e99\u0ec2\u0e81\u0ea5\u0eb2","population":12531357,"name:el":"\u0391\u03b3\u03ba\u03cc\u03bb\u03b1","name:eo":"Angolo","name":"Angola","name:ee":"Angola nutome","min_zoom":2.0,"name:yo":"Or\u00edl\u1eb9\u0301\u00e8de \u00c0\u00e0ng\u00f3l\u00e0","name:az":"Anqola","name:mr":"\u0905\u0902\u0917\u094b\u0932\u093e","name:ar":"\u0623\u0646\u063a\u0648\u0644\u0627","name:my":"\u1021\u1004\u103a\u1002\u102d\u102f\u101c\u102c","official_name":"Rep\u00fablica de Angola","name:is":"Ang\u00f3la","name:am":"\u12a0\u1295\u1310\u120b","name:ru":"\u0410\u043d\u0433\u043e\u043b\u0430","name:ml":"\u0d05\u0d02\u0d17\u0d4b\u0d33","name:mn":"\u0410\u043d\u0433\u043e\u043b","id":424310875,"name:mk":"\u0410\u043d\u0433\u043e\u043b\u0430","name:vo":"Langol\u00e4n","name:zu":"i-Angola","name:ff":"Anngolaa","name:fy":"Angoala","name:zh":"\u5b89\u54e5\u62c9","name:so":"Angoola","name:ja":"\u30a2\u30f3\u30b4\u30e9","name:si":"\u0d87\u0db1\u0dca\u0d9c\u0ddd\u0dbd\u0dcf\u0dc0","name:fa":"\u0622\u0646\u06af\u0648\u0644\u0627","name:sg":"Angol\u00e4a","name:ne":"\u0905\u0919\u094d\u0917\u094b\u0932\u093e","name:bn":"\u098f\u09cd\u09af\u09be\u0999\u09cd\u0997\u09cb\u09b2\u09be","name:bo":"\u0f68\u0f44\u0f0b\u0f42\u0f7d\u0f0b\u0f63\u0f0d","name:be":"\u0410\u043d\u0433\u043e\u043b\u0430","name:bg":"\u0410\u043d\u0433\u043e\u043b\u0430","name:sr":"\u0410\u043d\u0433\u043e\u043b\u0430","name:sq":"Angol\u00eb","name:ga":"Ang\u00f3la","name:gd":"Ang\u00f2la","name:gv":"Angoley","name:gu":"\u0a85\u0a82\u0a97\u0acb\u0ab2\u0abe"},"coordinates":[2022,2015]},{"type":"Point","properties":{"kind":"region","name":"Bi\u00e9","kind_detail":"state","source":"openstreetmap.org","min_zoom":4.0,"name:uk":"\u0411\u0456\u0454","name:ru":"\u0411\u0438\u0435","id":2702989682},"coordinates":[1811,868]},{"type":"Point","properties":{"source":"naturalearthdata.com","kind":"locality","name":"Camacupa","population":19828,"min_zoom":7.0,"id":4516},"coordinates":[1733,1592]},{"type":"Point","properties":{"kind":"locality","name":"Kuito","kind_detail":"city","source":"openstreetmap.org","min_zoom":8.0,"name:uk":"\u041a\u0443\u0457\u0442\u043e","name:ru":"\u041a\u0432\u0438\u0442\u043e","id":279010365,"population":114000},"coordinates":[197,510]},{"type":"Point","properties":{"source":"openstreetmap.org","kind":"locality","name":"Camacupa","kind_detail":"town","population":19150,"min_zoom":8.0,"id":1251148044},"coordinates":[1752,1590]},{"type":"Point","properties":{"source":"openstreetmap.org","kind":"locality","name":"Catabola","kind_detail":"town","population":18858,"min_zoom":8.0,"id":1873689582},"coordinates":[1196,1227]},{"type":"Point","properties":{"source":"openstreetmap.org","kind":"locality","name":"Centralidade do Kuito","kind_detail":"town","population":2500,"min_zoom":8.0,"id":5066663654},"coordinates":[144,350]}]},"transit":{"type":"GeometryCollection","geometries":[{"type":"MultiLineString","properties":{"osm_relation":true,"source":"openstreetmap.org","kind":"train","network":"Caminho de Ferro de Benguela","sort_rank":275,"min_zoom":6.0,"operator":"CFB"},"arcs":[[1],[2],[3],[4],[5]]}]},"pois":{"type":"GeometryCollection","geometries":[]},"boundaries":{"type":"GeometryCollection","geometries":[{"type":"LineString","properties":{"name:right:uk":"\u041c\u0430\u043b\u0430\u043d\u0436\u0435","name:right:ru":"\u041c\u0430\u043b\u0430\u043d\u0436\u0435","name:left:uk":"\u0411\u0456\u0454","min_zoom":8.0,"name:left:ru":"\u0411\u0438\u0435","id:right":-422660,"id":-1802541,"osm_relation":true,"name:right":"Malanje","kind":"region","name":"Bi\u00e9 - Malanje","sort_rank":256,"kind_detail":"4","source":"openstreetmap.org","id:left":-1802541,"name:left":"Bi\u00e9"},"arcs":[0]}]},"roads":{"type":"GeometryCollection","geometries":[{"type":"LineString","properties":{"sort_rank":380,"kind_detail":"primary","min_zoom":8.0,"kind":"major_road","source":"openstreetmap.org"},"arcs":[6]},{"type":"MultiLineString","properties":{"sort_rank":381,"source":"openstreetmap.org","min_zoom":8.0,"kind":"major_road","kind_detail":"trunk"},"arcs":[[7],[8],[9],[10],[11],[12],[13],[14],[15]]},{"type":"LineString","properties":{"kind":"major_road","network":"sadc","sort_rank":380,"kind_detail":"primary","source":"openstreetmap.org","min_zoom":8.0,"landuse_kind":"urban_area","shield_text":null,"id":192267489},"arcs":[16]},{"type":"MultiLineString","properties":{"kind":"major_road","network":"sadc","sort_rank":381,"landuse_kind":"urban_area","source":"openstreetmap.org","min_zoom":8.0,"kind_detail":"trunk","shield_text":null},"arcs":[[17],[18],[19]]},{"type":"MultiLineString","properties":{"source":"openstreetmap.org","kind":"major_road","network":"sadc","sort_rank":380,"kind_detail":"primary","min_zoom":8.0,"shield_text":null},"arcs":[[20],[21],[22],[23],[24],[25],[26]]},{"type":"MultiLineString","properties":{"source":"openstreetmap.org","kind":"major_road","network":"sadc","sort_rank":381,"kind_detail":"trunk","min_zoom":8.0,"shield_text":null},"arcs":[[27],[28],[29],[30],[31],[32],[33]]},{"type":"MultiLineString","properties":{"kind":"major_road","network":"sadc","sort_rank":381,"kind_detail":"trunk","source":"openstreetmap.org","min_zoom":8.0,"landuse_kind":"residential","shield_text":null},"arcs":[[34],[35],[36],[37]]},{"type":"MultiLineString","properties":{"kind":"major_road","network":"sadc","sort_rank":380,"kind_detail":"primary","source":"openstreetmap.org","min_zoom":8.0,"landuse_kind":"residential","shield_text":null},"arcs":[[38],[39],[40],[41],[42],[43],[44],[45],[46],[47],[48],[49],[50]]}]},"earth":{"type":"GeometryCollection","geometries":[{"type":"Polygon","properties":{"sort_rank":10,"source":"naturalearthdata.com","kind":"earth","min_zoom":0.0,"id":4690},"arcs":[[51]]}]},"landuse":{"type":"GeometryCollection","geometries":[{"type":"MultiPolygon","properties":{"source":"openstreetmap.org","kind":"residential","tier":2,"area":20276856,"sort_rank":20,"min_zoom":8.0},"arcs":[[[52]],[[53]]]},{"type":"MultiPolygon","properties":{"source":"naturalearthdata.com","kind":"urban_area","name":"","area":44229851,"sort_rank":11,"min_zoom":4.0},"arcs":[[[54]],[[55]]]}]}},"type":"Topology","transform":{"translate":[16.875,-12.5545635286],"scale":[0.0003433228,0.000335977]},"arcs":[[[4096,3074],[-374,-94],[-207,41],[-106,-57],[-127,119],[-128,-30],[-110,8],[-54,69],[6,144],[-63,141],[-161,140],[48,-202],[16,-236],[-20,-87],[-278,-239],[-7,-63],[-65,-69],[-65,-1],[-68,-35],[-20,-70],[-59,-62],[-129,-14],[-42,-38],[-120,94],[-141,23],[-16,25],[66,138],[-109,217],[-5,70],[43,81],[100,66],[-24,55],[-77,-44],[-20,22],[23,116],[47,34],[22,167],[-65,57],[-77,129],[-38,225],[-23,19],[-98,-5],[-83,41],[-11,29],[59,21],[26,57],[86,20]],[[0,676],[221,-19],[35,74],[54,42],[68,-16],[301,63],[173,140],[92,0],[169,214],[238,122],[83,100],[33,-10],[163,74],[45,89],[64,34]],[[1738,1583],[14,2]],[[1739,1583],[20,2]],[[1739,1583],[13,2]],[[1752,1585],[114,49],[182,-22],[104,48],[38,-10],[23,30],[123,-11],[55,-50],[87,-33],[48,-106],[103,5],[59,-46],[54,20],[149,-108],[38,6],[178,-94],[153,-19],[154,-102],[138,44],[7,39],[32,9],[42,-75],[139,-81],[164,64],[64,-29],[96,38]],[[182,659],[-182,15]],[[140,369],[9,-17]],[[149,352],[-8,18]],[[149,352],[1,0]],[[150,352]],[[150,352],[-1,0]],[[149,352],[1,0]],[[150,352]],[[150,352]],[[150,352],[107,-138],[-5,-136],[39,-78]],[[187,553],[0,11]],[[169,427],[9,18]],[[178,445]],[[178,445],[1,1]],[[182,655],[1,4]],[[182,654],[1,5]],[[183,659],[98,-10],[231,128],[169,43],[113,83],[161,7],[100,195],[79,87],[280,196],[197,99],[76,87],[39,2]],[[1727,1576],[170,40],[159,-5],[411,87],[124,55],[737,-67],[78,-58],[107,-391],[31,-22]],[[3545,1215],[37,21],[88,-75],[29,2],[12,-59],[89,-20],[149,61],[36,-25],[111,29]],[[1726,1576],[1,0],[-1,1],[0,-1]],[[3545,1215],[-1,0],[1,-1],[0,1]],[[0,314],[77,11],[61,43]],[[138,368],[2,1]],[[139,370],[-1,-2]],[[142,371],[-2,0]],[[141,370],[1,1]],[[142,371],[27,56]],[[139,370],[0,-1],[1,0],[0,1],[-1,0]],[[178,445]],[[178,446],[0,-1]],[[178,445]],[[179,446],[-1,-1]],[[183,473],[-4,-27]],[[179,446],[4,27]],[[182,652],[0,2]],[[182,655],[0,-3]],[[187,564],[-5,88]],[[184,483],[-1,-10]],[[183,473],[2,10]],[[190,516],[-5,-32]],[[185,484],[5,32]],[[190,516],[-3,37]],[[184,473],[-1,0]],[[183,473],[1,0]],[[185,484],[-1,-1],[1,0],[0,1]],[[0,0],[0,4096],[4096,0],[0,-4096],[-4096,0]],[[139,489],[21,55],[23,-25],[-13,28],[24,8],[-5,-31],[27,12],[-12,-19],[26,20],[-18,-47],[23,31],[28,-46],[-100,-35],[-22,5],[-2,44]],[[130,602],[41,43],[-24,17],[119,-25],[-20,-24],[-18,26],[11,-30],[-20,-32],[22,-15],[-31,-20],[11,100],[-27,-15],[-4,-64],[-43,16],[19,40],[-36,-17]],[[156,424],[-29,46],[29,152],[61,-12],[35,-38],[34,-115],[-130,-33]],[[1803,1459],[-67,20],[-16,71],[119,31],[-36,-122]]]}