{"objects":{"water":{"type":"GeometryCollection","geometries":[]},"buildings":{"type":"GeometryCollection","geometries":[]},"places":{"type":"GeometryCollection","geometries":[{"type":"Point","properties":{"name:pt":"Grande Pol\u00f4nia","name:ro":"Polonia Mare","name:id":"Polandia Besar","name:ka":"\u10d3\u10d8\u10d3\u10d8 \u10de\u10dd\u10da\u10dd\u10dc\u10e3\u10e0\u10d8 \u10e1\u10d0\u10d5\u10dd\u10d4\u10d5\u10dd\u10d3\u10dd","name:ar":"\u0628\u0648\u0644\u0646\u062f\u0627 \u0627\u0644\u0643\u0628\u0631\u0649","name:cs":"Velkopolsk\u00e9","min_zoom":4.0,"int_name":"wielkopolskie","name:it":"Grande Polonia","name:ru":"\u0412\u0435\u043b\u0438\u043a\u043e\u043f\u043e\u043b\u044c\u0441\u043a\u043e\u0435 \u0432\u043e\u0435\u0432\u043e\u0434\u0441\u0442\u0432\u043e","id":504981968,"kind_detail":"state","name:de":"Gro\u00dfpolen","source":"openstreetmap.org","name:fr":"Grande-Pologne","name:zh":"\u5927\u6ce2\u5170\u7701","name:lv":"Lielpolijas","name:ja":"\u30f4\u30a3\u30a8\u30eb\u30b3\u30dd\u30eb\u30b9\u30ab\u770c","name:lt":"Did\u017eiosios Lenkijos","name:no":"Storpolske","kind":"region","name:eu":"Polonia Handia","name:sk":"Ve\u013ekopo\u013esk\u00e9","name:uk":"\u0412\u0435\u043b\u0438\u043a\u043e\u043f\u043e\u043b\u044c\u0441\u044c\u043a\u0435 \u0432\u043e\u0454\u0432\u043e\u0434\u0441\u0442\u0432\u043e","name:be":"\u0412\u044f\u043b\u0456\u043a\u0430\u043f\u043e\u043b\u044c\u0441\u043a\u0430\u0435 \u0432\u0430\u044f\u0432\u043e\u0434\u0441\u0442\u0432\u0430","name:hu":"Nagy-Lengyelorsz\u00e1gi","name:hr":"Velikopoljsko","name:sr":"\u0412\u043e\u0458\u0432\u043e\u0434\u0441\u0442\u0432\u043e \u0412\u0435\u043b\u0438\u043a\u043e\u043f\u043e\u0459\u0441\u043a\u043e","population":3386882,"name:eo":"Grandpollanda Provinco","name:en":"Greater Poland","name":"wojew\u00f3dztwo wielkopolskie","name:fi":"Ison-Puolan","name:yi":"\u05d2\u05e8\u05d5\u05d9\u05e1\u05e4\u05d5\u05d9\u05dc\u05d9\u05e9\u05e2 \u05d5\u05d5\u05d0\u05d5\u05d9\u05d5\u05d5\u05d0\u05d3\u05e2\u05e9\u05d0\u05e4\u05d8","name:et":"Suur-Poola","name:nl":"Groot-Polen","name:es":"Gran Polonia"},"coordinates":[1522,2500]},{"type":"Point","properties":{"int_name":"Poznan","name:lv":"Pozna\u0146a","name:ja":"\u30dd\u30ba\u30ca\u30f3","name:lt":"Poznan\u0117","name:he":"\u05e4\u05d5\u05d6\u05e0\u05df","name:cs":"Pozna\u0148","kind":"locality","min_zoom":8.0,"name:la":"Posnania","name:sk":"Pozna\u0148","name:uk":"\u041f\u043e\u0437\u043d\u0430\u043d\u044c","old_name":"Posen","name:ru":"\u041f\u043e\u0437\u043d\u0430\u043d\u044c","id":27161819,"population":548028,"name:eo":"Poznano","name":"Pozna\u0144","kind_detail":"city","alt_name:la":"Poznania","name:de":"Posen","source":"openstreetmap.org","name:yi":"\u05e4\u05bc\u05f1\u05d6\u05df","name:be":"\u041f\u043e\u0437\u043d\u0430\u043d\u044c"},"coordinates":[170,3743]},{"type":"Point","properties":{"kind":"locality","name:lv":"Kali\u0161a","name":"Kalisz","name:lt":"Kali\u0161as","kind_detail":"city","name:he":"\u05e7\u05d0\u05b7\u05dc\u05d9\u05e9","name:de":"Kalisch","source":"openstreetmap.org","min_zoom":8.0,"name:la":"Calisia","name:uk":"\u041a\u0430\u043b\u0456\u0448","name:ru":"\u041a\u0430\u043b\u0438\u0448\u044c","population":103997,"id":1697928657,"name:ja":"\u30ab\u30ea\u30b7\u30e5"},"coordinates":[3520,662]},{"type":"Point","properties":{"kind":"locality","name":"Konin","name:lt":"Koninas","kind_detail":"city","name:sr":"\u041a\u043e\u043d\u0438\u043d","source":"openstreetmap.org","min_zoom":8.0,"name:ru":"\u041a\u043e\u043d\u0438\u043d","id":253530808,"population":77224},"coordinates":[4011,2900]},{"type":"Point","properties":{"kind":"locality","name":"Ostr\u00f3w Wielkopolski","name:lt":"Did\u017eiosios Lenkijos Ostruvas","kind_detail":"town","name:eo":"Ostrovo","name:de":"Ostrowo","source":"openstreetmap.org","min_zoom":8.0,"name:la":"Ostrovia","name:uk":"\u041e\u0441\u0442\u0440\u0443\u0432-\u0412\u0435\u043b\u0438\u043a\u043e\u043f\u043e\u043b\u044c\u0441\u044c\u043a\u0438\u0439","name:ru":"\u041e\u0441\u0442\u0440\u0443\u0432-\u0412\u0435\u043b\u044c\u043a\u043e\u043f\u043e\u043b\u044c\u0441\u043a\u0438\u0439","id":31792887,"population":72890},"coordinates":[2738,166]},{"type":"Point","properties":{"kind":"locality","name":"Swarz\u0119dz","name:lt":"Sva\u017eendzas","kind_detail":"town","name:de":"Schwersenz","source":"openstreetmap.org","min_zoom":8.0,"name:uk":"\u0421\u0432\u0430\u0436\u0435\u043d\u0434\u0437","name:ru":"\u0421\u0432\u0430\u0436\u0435\u043d\u0434\u0437","name:zh":"\u65af\u74e6\u4efb\u5179","id":146951480,"population":31084},"coordinates":[584,3723]},{"type":"Point","properties":{"kind":"locality","int_name":"Lubon","name":"Lubo\u0144","name:lt":"Liubonis","kind_detail":"town","name:de":"Luban","source":"openstreetmap.org","min_zoom":8.0,"name:ru":"\u041b\u044e\u0431\u043e\u043d\u044c","id":354512367,"population":30676},"coordinates":[10,3447]},{"type":"Point","properties":{"name:sr":"\u0421\u0440\u0435\u043c (\u0433\u0440\u0430\u0434)","name:lv":"Srema","name:ja":"\u30b7\u30ec\u30fc\u30e0","name:lt":"Sremas","min_zoom":8.0,"name:uk":"\u0421\u044c\u0440\u0435\u043c","name:ru":"\u0421\u044c\u0440\u0435\u043c","name:be":"\u0413\u043e\u0440\u0430\u0434 \u0421\u044c\u0440\u044d\u043c","name:bg":"\u0428\u0440\u0435\u043c","id":31610025,"population":30477,"kind":"locality","name":"\u015arem","kind_detail":"town","name:de":"Schrimm","name:nl":"\u015arem (stad)","source":"openstreetmap.org","name:zh":"\u5e0c\u96f7\u59c6"},"coordinates":[410,2232]},{"type":"Point","properties":{"kind":"locality","name":"Wrze\u015bnia","name:lt":"V\u017eesnia","kind_detail":"town","name:de":"Wreschen","source":"openstreetmap.org","min_zoom":8.0,"name:uk":"\u0412\u0436\u0435\u0441\u044c\u043d\u044f","name:ru":"\u0412\u0436\u0435\u0441\u043d\u044f","name:zh":"\u5f17\u71b1\u5e0c\u5c3c\u4e9e","id":243991288,"population":29552},"coordinates":[2010,3349]},{"type":"Point","properties":{"kind":"locality","name":"Krotoszyn","name:lt":"Kroto\u0161ynas","kind_detail":"town","name:de":"Krotoschin","source":"openstreetmap.org","min_zoom":8.0,"name:ru":"\u041a\u0440\u043e\u0442\u043e\u0448\u0438\u043d","id":31797403,"population":29397},"coordinates":[1638,369]},{"type":"Point","properties":{"kind":"locality","name":"Jarocin","name:lt":"Jarocinas","kind_detail":"town","name:de":"Jarotschin","source":"openstreetmap.org","min_zoom":8.0,"id":2904651941,"population":26394},"coordinates":[1824,1686]},{"type":"Point","properties":{"kind":"locality","old_name:de":"Neumarkt","name":"\u015aroda Wielkopolska","name:lt":"Did\u017eiosios Lenkijos Sroda","kind_detail":"town","name:de":"Schroda","source":"openstreetmap.org","min_zoom":8.0,"name:ru":"\u0421\u044c\u0440\u043e\u0434\u0430-\u0412\u0435\u043b\u044c\u043a\u043e\u043f\u043e\u043b\u044c\u0441\u043a\u0430","id":2668860745,"population":22572},"coordinates":[1173,2891]},{"type":"Point","properties":{"kind":"locality","name":"Gosty\u0144","name:lt":"Gostynis","kind_detail":"town","name:de":"Gostyn","source":"openstreetmap.org","min_zoom":8.0,"name:ru":"\u0413\u043e\u0441\u0442\u044b\u043d\u044c","id":274790087,"population":20183},"coordinates":[403,1264]},{"type":"Point","properties":{"kind":"locality","name":"Pleszew","kind_detail":"town","name:de":"Pleschen","source":"openstreetmap.org","min_zoom":8.0,"name:ru":"\u041f\u043b\u0435\u0448\u0435\u0432","id":31791744,"population":17717},"coordinates":[2659,1313]},{"type":"Point","properties":{"kind":"locality","name":"S\u0142upca","kind_detail":"town","name:de":"Slupca","source":"openstreetmap.org","min_zoom":8.0,"name:ru":"\u0421\u043b\u0443\u043f\u0446\u0430","id":418747816,"population":14019},"coordinates":[2902,3170]},{"type":"Point","properties":{"kind":"locality","name":"Kostrzyn","kind_detail":"town","name:de":"Kostschin","source":"openstreetmap.org","min_zoom":8.0,"name:ru":"\u041a\u043e\u0441\u0442\u0448\u0438\u043d","id":31620845,"population":9492},"coordinates":[1035,3684]},{"type":"Point","properties":{"kind":"locality","name":"Pobiedziska","kind_detail":"town","name:de":"Pudewitz","source":"openstreetmap.org","min_zoom":8.0,"name:ru":"\u041f\u043e\u0431\u0435\u0434\u0437\u0438\u0441\u043a\u0430","id":31615002,"population":9043},"coordinates":[1200,4070]},{"type":"Point","properties":{"source":"openstreetmap.org","kind":"locality","name":"Witkowo","kind_detail":"town","population":8014,"min_zoom":8.0,"id":2668885838},"coordinates":[2614,3891]},{"type":"Point","properties":{"name:ba":"\u0411\u0443\u0440\u0433\u0448\u0442\u0435\u0434\u0442","kind":"locality","name":"K\u00f3rnik","kind_detail":"town","name:de":"Kurnik","source":"openstreetmap.org","min_zoom":8.0,"name:ru":"\u041a\u0443\u0440\u043d\u0438\u043a","id":31620966,"population":7530},"coordinates":[627,2990]},{"type":"Point","properties":{"kind":"locality","name":"Ko\u017amin Wielkopolski","kind_detail":"town","name:de":"Koschmin","source":"openstreetmap.org","min_zoom":8.0,"old_name":"Ko\u017amin","name:ru":"\u041a\u043e\u0437\u044c\u043c\u0438\u043d \u0412\u0435\u043b\u044c\u043a\u043e\u043f\u043e\u043b\u044c\u0441\u043a\u0438\u0439","id":560519383,"population":6698},"coordinates":[1683,983]},{"type":"Point","properties":{"kind":"locality","name":"Nowe Skalmierzyce","kind_detail":"town","name:de":"Neu Skalmiersch\u00fctz","source":"openstreetmap.org","min_zoom":8.0,"name:ru":"\u041d\u043e\u0432\u0435-\u0421\u043a\u0430\u043b\u044c\u043c\u0435\u0436\u0438\u0446\u0435","id":31794192,"population":4830},"coordinates":[3260,440]},{"type":"Point","properties":{"kind":"locality","name":"Zduny","kind_detail":"town","source":"openstreetmap.org","min_zoom":8.0,"name:ru":"\u0417\u0434\u0443\u043d\u044b","id":560519308,"population":4587},"coordinates":[1464,134]},{"type":"Point","properties":{"kind":"locality","name":"Golina","kind_detail":"town","source":"openstreetmap.org","min_zoom":8.0,"name:uk":"\u0413\u043e\u043b\u0456\u043d\u0430","name:ru":"\u0413\u043e\u043b\u0438\u043d\u0430","id":31623989,"population":4478},"coordinates":[3554,2959]},{"type":"Point","properties":{"kind":"locality","name":"Kleczew","kind_detail":"town","name:de":"Lehmst\u00e4dt","source":"openstreetmap.org","min_zoom":8.0,"name:ru":"\u041a\u043b\u0435\u0447\u0435\u0432","id":31621695,"population":4240},"coordinates":[3795,3565]},{"type":"Point","properties":{"kind":"locality","name":"Krobia","kind_detail":"town","name:de":"Kr\u00f6ben","source":"openstreetmap.org","min_zoom":8.0,"id":692632481,"population":4187},"coordinates":[316,741]},{"type":"Point","properties":{"source":"openstreetmap.org","kind":"locality","name":"Opat\u00f3wek","kind_detail":"town","population":3800,"min_zoom":8.0,"id":31793390},"coordinates":[3899,575]},{"type":"Point","properties":{"kind":"locality","name":"Mi\u0142os\u0142aw","kind_detail":"town","name:de":"Miloslaw","source":"openstreetmap.org","min_zoom":8.0,"name:ru":"\u041c\u0438\u043b\u043e\u0441\u043b\u0430\u0432","id":31617723,"population":3626},"coordinates":[1789,2768]},{"type":"Point","properties":{"kind":"locality","name":"Nekla","kind_detail":"town","source":"openstreetmap.org","min_zoom":8.0,"name:ru":"\u041d\u0435\u043a\u043b\u044f","id":598172733,"population":3621},"coordinates":[1566,3535]},{"type":"Point","properties":{"kind":"locality","name":"Miejska G\u00f3rka","kind_detail":"town","name:de":"G\u00f6rchen","source":"openstreetmap.org","min_zoom":8.0,"name:ru":"\u041c\u0435\u0439\u0441\u043a\u0430-\u0413\u0443\u0440\u043a\u0430","id":31795622,"population":3246},"coordinates":[237,176]},{"type":"Point","properties":{"kind":"locality","name":"Kobylin","kind_detail":"town","source":"openstreetmap.org","min_zoom":8.0,"name:ru":"\u041a\u043e\u0431\u044b\u043b\u0438\u043d","id":638344968,"population":3236},"coordinates":[1019,466]},{"type":"Point","properties":{"kind":"locality","name":"Pyzdry","kind_detail":"town","name:de":"Peisern","source":"openstreetmap.org","min_zoom":8.0,"name:ru":"\u041f\u044b\u0437\u0434\u0440\u044b","id":31613250,"population":3234},"coordinates":[2366,2612]},{"type":"Point","properties":{"kind":"locality","name":"Dobrzyca","kind_detail":"town","source":"openstreetmap.org","min_zoom":8.0,"name:ru":"\u0414\u043e\u0431\u0436\u0438\u0446\u0430","id":692632647,"population":3167},"coordinates":[2119,1178]},{"type":"Point","properties":{"kind":"locality","name":"Zag\u00f3r\u00f3w","name:lt":"Zaguruvas","kind_detail":"town","name:de":"Zagorow","source":"openstreetmap.org","min_zoom":8.0,"name:ru":"\u0417\u0430\u0433\u0443\u0440\u0443\u0432","id":31605477,"population":2995},"coordinates":[2986,2610]},{"type":"Point","properties":{"kind":"locality","name":"Ksi\u0105\u017c Wielkopolski","kind_detail":"town","name:de":"Xions","source":"openstreetmap.org","min_zoom":8.0,"name:ru":"\u041a\u0441\u0451\u043d\u0436-\u0412\u0435\u043b\u044c\u043a\u043e\u043f\u043e\u043b\u044c\u0441\u043a\u0438\u0439","id":31620215,"population":2780},"coordinates":[1062,2105]},{"type":"Point","properties":{"kind":"locality","name":"Czerniejewo","kind_detail":"town","name:de":"Schwarzenau","source":"openstreetmap.org","min_zoom":8.0,"name:ru":"\u0427\u0435\u0440\u043d\u0435\u0435\u0432\u043e","id":31625942,"population":2642},"coordinates":[1794,3841]},{"type":"Point","properties":{"kind":"locality","name":"Borek Wielkopolski","kind_detail":"town","name:de":"Borek","source":"openstreetmap.org","min_zoom":8.0,"name:ru":"\u0411\u043e\u0440\u0435\u043a-\u0412\u0435\u043b\u044c\u043a\u043e\u043f\u043e\u043b\u044c\u0441\u043a\u0438\u0439","id":31810856,"population":2533},"coordinates":[1071,1412]},{"type":"Point","properties":{"kind":"locality","name":"Rychwa\u0142","kind_detail":"town","name:de":"Rychwal","source":"openstreetmap.org","min_zoom":8.0,"name:ru":"\u0420\u044b\u0445\u0432\u0430\u043b","id":31611826,"population":2369},"coordinates":[3763,2144]},{"type":"Point","properties":{"kind":"locality","name":"\u017berk\u00f3w","kind_detail":"town","name:de":"Zerkow","source":"openstreetmap.org","min_zoom":8.0,"name:ru":"\u0416\u0435\u0440\u043a\u0443\u0432","id":1996739000,"population":2145},"coordinates":[2005,2135]},{"type":"Point","properties":{"kind":"locality","name":"Raszk\u00f3w","kind_detail":"town","name:de":"Raschkow","source":"openstreetmap.org","min_zoom":8.0,"name:ru":"\u0420\u0430\u0448\u043a\u0443\u0432","id":31789998,"population":2076},"coordinates":[2484,475]},{"type":"Point","properties":{"kind":"locality","name":"Pogorzela","kind_detail":"town","source":"openstreetmap.org","min_zoom":8.0,"name:uk":"\u041f\u043e\u0433\u043e\u0436\u0435\u043b\u044f","name:ru":"\u041f\u043e\u0433\u043e\u0436\u0435\u043b\u044f","id":31791553,"population":2046},"coordinates":[1037,968]},{"type":"Point","properties":{"kind":"locality","name":"Jutrosin","kind_detail":"town","name:de":"Jutroschin","source":"openstreetmap.org","min_zoom":8.0,"name:uk":"\u042e\u0442\u0440\u043e\u0441\u0438\u043d","name:ru":"\u042e\u0442\u0440\u043e\u0441\u0438\u043d","id":31801144,"population":1946},"coordinates":[856,169]},{"type":"Point","properties":{"source":"openstreetmap.org","kind":"locality","name":"Chocz","kind_detail":"town","population":1808,"min_zoom":8.0,"id":31809028},"coordinates":[2900,1692]},{"type":"Point","properties":{"kind":"locality","name":"Stawiszyn","kind_detail":"town","source":"openstreetmap.org","min_zoom":8.0,"name:ru":"\u0421\u0442\u0430\u0432\u0438\u0448\u0438\u043d","id":31786974,"population":1561},"coordinates":[3602,1422]},{"type":"Point","properties":{"kind":"locality","name":"Dolsk","name:lt":"Dolskas","kind_detail":"town","source":"openstreetmap.org","min_zoom":8.0,"name:ru":"\u0414\u043e\u043b\u044c\u0441\u043a","id":268225193,"population":1560},"coordinates":[554,1746]}]},"transit":{"type":"GeometryCollection","geometries":[{"type":"MultiLineString","properties":{"kind":"train","name":"EC95 Warszawa - Berlin","service":"international","sort_rank":275,"source":"openstreetmap.org","min_zoom":5.0,"operator":"DB Fernverkehr AG;PKP","ref":"EC95","osm_relation":true,"network":"DB InterCity;EuroCity"},"arcs":[[3],[4],[5]]},{"type":"MultiLineString","properties":{"kind":"train","name":"Linia kolejowa nr 272 Kluczbork - Pozna\u0144 G\u0142\u00f3wny","sort_rank":275,"source":"openstreetmap.org","min_zoom":6.0,"operator":"PKP Polskie Linie Kolejowe S.A.","ref":"272","osm_relation":true,"network":"PKP"},"arcs":[[6],[7]]},{"type":"MultiLineString","properties":{"kind":"train","name":"Frankfurt (Oder) - Pozna\u0144","sort_rank":275,"name:de":"Frankfurt (Oder) - Posen","source":"openstreetmap.org","min_zoom":6.0,"operator":"PKP","name:pl":"Linia Frankfurt nad Odr\u0105 - Pozna\u0144","ref":"RB91","osm_relation":true},"arcs":[[8],[9]]},{"type":"LineString","properties":{"kind":"train","name:en":"EN 453 : Paris \u2212 Berlin \u2212 Moscow","network":"EuroNight","service":"international","sort_rank":275,"source":"openstreetmap.org","min_zoom":5.0,"operator":"\u0420\u043e\u0441\u0441\u0438\u0439\u0441\u043a\u0438\u0435 \u0436\u0435\u043b\u0435\u0437\u043d\u044b\u0435 \u0434\u043e\u0440\u043e\u0433\u0438","ref":"EN 453","osm_relation":true,"name":"EN 453 : Paris \u2212 Berlin \u2212 Moscou"},"arcs":[10]},{"type":"MultiLineString","properties":{"kind":"train","name":"Linia kolejowa nr 354 Pozna\u0144 POD - Pi\u0142a G\u0142\u00f3wna","sort_rank":275,"source":"openstreetmap.org","min_zoom":6.0,"operator":"PKP Polskie Linie Kolejowe S.A.","ref":"354","osm_relation":true,"network":"PKP"},"arcs":[[11],[12]]},{"type":"LineString","properties":{"kind":"train","name":"EN 452 : Moscou \u2212 Berlin \u2212 Paris","service":"international","sort_rank":275,"source":"openstreetmap.org","min_zoom":5.0,"operator":"\u0420\u043e\u0441\u0441\u0438\u0439\u0441\u043a\u0438\u0435 \u0436\u0435\u043b\u0435\u0437\u043d\u044b\u0435 \u0434\u043e\u0440\u043e\u0433\u0438","ref":"EN 452","osm_relation":true,"network":"EuroNight"},"arcs":[13]},{"type":"MultiLineString","properties":{"source":"openstreetmap.org","kind":"train","name":"\u0141\u00f3d\u017a - Pozna\u0144","sort_rank":275,"ref":"R","min_zoom":6.0,"osm_relation":true},"arcs":[[14],[15],[16],[17],[18],[19],[20],[21],[22],[23],[24],[25],[26],[27],[28]]},{"type":"LineString","properties":{"kind":"train","name":"Line 356","sort_rank":275,"source":"openstreetmap.org","min_zoom":6.0,"ref":"356","id":-6762779,"osm_relation":true},"arcs":[29]},{"type":"MultiLineString","properties":{"kind":"train","network":"PKP","sort_rank":275,"source":"openstreetmap.org","min_zoom":6.0,"operator":"PKP Polskie Linie Kolejowe S.A.","ref":"353","osm_relation":true,"name":"Linia kolejowa nr 353 Pozna\u0144 Wsch\u00f3d - Skandawa"},"arcs":[[30],[31],[32]]},{"type":"MultiLineString","properties":{"kind":"train","name":"Linia kolejowa nr 351 Pozna\u0144 G\u0142\u00f3wny - Szczecin G\u0142\u00f3wny","sort_rank":275,"source":"openstreetmap.org","min_zoom":6.0,"operator":"PKP Polskie Linie Kolejowe S.A.","ref":"351","osm_relation":true,"network":"PKP"},"arcs":[[33],[34]]},{"type":"MultiLineString","properties":{"kind":"train","name":"EC95 Berlin - Warszawa","service":"international","sort_rank":275,"source":"openstreetmap.org","min_zoom":5.0,"operator":"DB Fernverkehr AG;PKP","ref":"EC95","osm_relation":true,"network":"DB InterCity;EuroCity"},"arcs":[[35],[36],[37]]},{"type":"MultiLineString","properties":{"kind":"train","name":"Linia kolejowa nr 271 Wroc\u0142aw G\u0142\u00f3wny - Pozna\u0144 G\u0142\u00f3wny","sort_rank":275,"source":"openstreetmap.org","min_zoom":6.0,"operator":"PKP Polskie Linie Kolejowe S.A.","ref":"271","osm_relation":true,"network":"PKP"},"arcs":[[38],[39]]}]},"pois":{"type":"GeometryCollection","geometries":[{"type":"Point","properties":{"kind":"nature_reserve","protect_class":"5","area":362987000,"source":"openstreetmap.org","min_zoom":8.04,"tier":2,"id":-4524351,"osm_relation":true,"name":"Nadwarcia\u0144ski Park Krajobrazowy"},"coordinates":[3281,2597]},{"type":"Point","properties":{"kind":"nature_reserve","protect_class":"5","area":421062000,"source":"openstreetmap.org","min_zoom":7.93,"tier":2,"id":-4524348,"osm_relation":true,"name":"\u017berkowsko-Czeszewski Park Krajobrazowy"},"coordinates":[1975,2376]},{"type":"Point","properties":{"kind":"nature_reserve","protect_class":"5","area":336356000,"name:de":"Rogaliner Landschaftsschutzpark","source":"openstreetmap.org","min_zoom":8.09,"tier":2,"id":-4522378,"osm_relation":true,"name":"Rogali\u0144ski Park Krajobrazowy"},"coordinates":[192,2768]},{"type":"Point","properties":{"kind":"nature_reserve","protect_class":"5","area":695114000,"source":"openstreetmap.org","min_zoom":7.57,"tier":2,"id":-4522184,"osm_relation":true,"name":"Powidzki Park Krajobrazowy"},"coordinates":[3252,3982]}]},"boundaries":{"type":"GeometryCollection","geometries":[{"type":"LineString","properties":{"name:right:nl":"Woiwodschap Groot-Polen","name:right:ja":"\u30f4\u30a3\u30a8\u30eb\u30b3\u30dd\u30eb\u30b9\u30ab\u770c","loc_name:left":"Dolno\u015bl\u0105skie","alt_name:left:en":"Lower Silesian Province","name:right:uk":"\u0412\u0435\u043b\u0438\u043a\u043e\u043f\u043e\u043b\u044c\u0441\u044c\u043a\u0435 \u0432\u043e\u0454\u0432\u043e\u0434\u0441\u0442\u0432\u043e","int_name:left":"wojewodztwo dolnoslaskie","name:left:ja":"\u30c9\u30eb\u30cc\u30a3\u30fb\u30b7\u30ed\u30f3\u30b9\u30af\u770c","id:right":-130971,"name:right:lt":"Did\u017eiosios Lenkijos vaivadija","name:left:sl":"Spodnje\u0161lezijsko vojvodstvo","min_zoom":8.0,"name:left:lt":"\u017demutin\u0117s Silezijos vaivadija","name:left:sk":"Dolnosliezske","name:left:be":"\u041d\u0456\u0436\u043d\u0435\u0441\u0456\u043b\u0435\u0437\u0441\u043a\u0430\u0435 \u0432\u0430\u044f\u0432\u043e\u0434\u0441\u0442\u0432\u0430","name:right:fr":"Grande-Pologne","name:left:hu":"Als\u00f3-Szil\u00e9ziai vajdas\u00e1g","id":-224457,"name:right":"wojew\u00f3dztwo wielkopolskie","short_name:left":"dolno\u015bl\u0105skie","name:left:eo":"Malsuprasilezia Provinco","name:left:en":"Lower Silesian Voivodeship","sort_rank":256,"kind_detail":"4","source":"openstreetmap.org","name:left:nl":"Woiwodschap Neder-Silezi\u00eb","id:left":-224457,"name:left:es":"Voivodato de Baja Silesia","name:right:cs":"Velkopolsk\u00e9 vojvodstv\u00ed","name:left:cs":"Dolnoslezsk\u00e9 vojvodstv\u00ed","name:left":"wojew\u00f3dztwo dolno\u015bl\u0105skie","name:left:ka":"\u10e5\u10d5\u10d4\u10db\u10dd \u10e1\u10d8\u10da\u10d4\u10d6\u10d8\u10d8\u10e1 \u10e1\u10d0\u10d5\u10dd\u10d4\u10d5\u10dd\u10d3\u10dd","name:left:ar":"\u0645\u062d\u0627\u0641\u0638\u0629 \u0633\u064a\u0644\u0632\u064a\u0627 \u0627\u0644\u0633\u0641\u0644\u0649","name:right:ru":"\u0412\u0435\u043b\u0438\u043a\u043e\u043f\u043e\u043b\u044c\u0441\u043a\u043e\u0435 \u0432\u043e\u0435\u0432\u043e\u0434\u0441\u0442\u0432\u043e","name:left:pt":"Voivodia da Baixa Sil\u00e9sia","name:left:ru":"\u041d\u0438\u0436\u043d\u0435\u0441\u0438\u043b\u0435\u0437\u0441\u043a\u043e\u0435 \u0432\u043e\u0435\u0432\u043e\u0434\u0441\u0442\u0432\u043e","short_name:right":"wielkopolskie","name:right:eo":"Grandpollanda Provinco","name:right:en":"Greater Poland Voivodeship","osm_relation":true,"name:left:uk":"\u041d\u0438\u0436\u043d\u044c\u043e\u0441\u0456\u043b\u0435\u0437\u044c\u043a\u0435 \u0432\u043e\u0454\u0432\u043e\u0434\u0441\u0442\u0432\u043e","kind":"region","name":"wojew\u00f3dztwo dolno\u015bl\u0105skie - wojew\u00f3dztwo wielkopolskie","name:right:de":"Woiwodschaft Gro\u00dfpolen","name:left:de":"Woiwodschaft Niederschlesien","name:right:be":"\u0412\u044f\u043b\u0456\u043a\u0430\u043f\u043e\u043b\u044c\u0441\u043a\u0430\u0435 \u0432\u0430\u044f\u0432\u043e\u0434\u0441\u0442\u0432\u0430","name:left:zh":"\u4e0b\u897f\u91cc\u897f\u4e9a\u7701","name:left:fr":"Basse-Sil\u00e9sie"},"arcs":[0]},{"type":"MultiLineString","properties":{"name:right:nl":"Woiwodschap Groot-Polen","name:right:ja":"\u30f4\u30a3\u30a8\u30eb\u30b3\u30dd\u30eb\u30b9\u30ab\u770c","loc_name:left":"Kujawsko-pomorskie","alt_name:left:en":"Kuyavian-Pomeranian Province","name:right:uk":"\u0412\u0435\u043b\u0438\u043a\u043e\u043f\u043e\u043b\u044c\u0441\u044c\u043a\u0435 \u0432\u043e\u0454\u0432\u043e\u0434\u0441\u0442\u0432\u043e","name:left:ja":"\u30af\u30e4\u30f4\u30a3\uff1d\u30dd\u30e2\u30fc\u30b8\u30a7\u770c","id:right":-130971,"name:right:lt":"Did\u017eiosios Lenkijos vaivadija","name:left:sl":"Kujavsko-Pomorjansko vojvodstvo","min_zoom":8.0,"name:left:lt":"Kujavijos Pamario vaivadija","name:left:be":"\u041a\u0443\u044f\u045e\u0441\u043a\u0430-\u041f\u0430\u043c\u043e\u0440\u0441\u043a\u0430\u0435 \u0432\u0430\u044f\u0432\u043e\u0434\u0441\u0442\u0432\u0430","alt_name:left:es":"Voivodato de Kuyavia y Pomerania","name:right:fr":"Grande-Pologne","id":-223407,"name:right":"wojew\u00f3dztwo wielkopolskie","short_name:left":"kujawsko-pomorskie","name:left:eo":"Kujavia-Pomeria Provinco","name:left:en":"Kuyavian-Pomeranian Voivodeship","sort_rank":256,"kind_detail":"4","source":"openstreetmap.org","name:left:nl":"Woiwodschap Koejavi\u00eb-Pommeren","id:left":-223407,"name:left:es":"Voivodato de Cuyavia y Pomerania","name:right:cs":"Velkopolsk\u00e9 vojvodstv\u00ed","name:left:cs":"Kujavsko-pomo\u0159sk\u00e9 vojvodstv\u00ed","name:left":"wojew\u00f3dztwo kujawsko-pomorskie","name:right:ru":"\u0412\u0435\u043b\u0438\u043a\u043e\u043f\u043e\u043b\u044c\u0441\u043a\u043e\u0435 \u0432\u043e\u0435\u0432\u043e\u0434\u0441\u0442\u0432\u043e","name:left:ru":"\u041a\u0443\u044f\u0432\u0441\u043a\u043e-\u041f\u043e\u043c\u043e\u0440\u0441\u043a\u043e\u0435 \u0432\u043e\u0435\u0432\u043e\u0434\u0441\u0442\u0432\u043e","short_name:right":"wielkopolskie","name:right:eo":"Grandpollanda Provinco","name:right:en":"Greater Poland Voivodeship","osm_relation":true,"name:left:uk":"\u041a\u0443\u044f\u0432\u0441\u044c\u043a\u043e-\u041f\u043e\u043c\u043e\u0440\u0441\u044c\u043a\u0435 \u0432\u043e\u0454\u0432\u043e\u0434\u0441\u0442\u0432\u043e","kind":"region","name":"wojew\u00f3dztwo kujawsko-pomorskie - wojew\u00f3dztwo wielkopolskie","name:right:de":"Woiwodschaft Gro\u00dfpolen","name:left:de":"Woiwodschaft Kujawien-Pommern","name:right:be":"\u0412\u044f\u043b\u0456\u043a\u0430\u043f\u043e\u043b\u044c\u0441\u043a\u0430\u0435 \u0432\u0430\u044f\u0432\u043e\u0434\u0441\u0442\u0432\u0430","name:left:fr":"Cujavie-Pom\u00e9ranie"},"arcs":[[1],[2]]}]},"roads":{"type":"GeometryCollection","geometries":[{"type":"MultiLineString","properties":{"bus_network":"Kalisz","network":"pl:national","sort_rank":380,"kind_detail":"primary","kind":"major_road","source":"openstreetmap.org","min_zoom":8.0,"bus_shield_text":"19E","shield_text":"25","ref":"25"},"arcs":[[40],[41],[42],[43],[44]]},{"type":"MultiLineString","properties":{"kind":"major_road","network":"pl:national","sort_rank":380,"kind_detail":"primary","source":"openstreetmap.org","min_zoom":8.0,"landuse_kind":"urban_area","shield_text":"92","ref":"92"},"arcs":[[45],[46],[47],[48],[49],[50],[51],[52],[53],[54],[55],[56],[57],[58],[59],[60],[61],[62],[63],[64],[65],[66],[67],[68]]},{"type":"MultiLineString","properties":{"kind":"major_road","network":"pl:national","sort_rank":381,"landuse_kind":"urban_area","source":"openstreetmap.org","min_zoom":8.0,"kind_detail":"trunk","shield_text":"11","ref":"S11;25"},"arcs":[[69],[70]]},{"type":"MultiLineString","properties":{"bus_network":null,"network":"pl:national","sort_rank":380,"kind_detail":"primary","kind":"major_road","source":"openstreetmap.org","min_zoom":8.0,"bus_shield_text":"50","shield_text":"92","landuse_kind":"urban_area","ref":"92"},"arcs":[[71],[72]]},{"type":"LineString","properties":{"kind":"major_road","network":"pl:national","sort_rank":380,"kind_detail":"primary","bus_network":"ZTM Pozna\u0144","source":"openstreetmap.org","min_zoom":8.0,"bus_shield_text":"78","shield_text":"92","landuse_kind":"urban_area","ref":"92;196","id":361069769},"arcs":[73]},{"type":"LineString","properties":{"kind":"major_road","network":"pl:national","sort_rank":380,"kind_detail":"primary","is_bicycle_related":true,"bicycle_shield_text":"R9","bicycle_network":"ncn","source":"openstreetmap.org","min_zoom":8.0,"shield_text":"36","ref":"36","id":296748113},"arcs":[74]},{"type":"MultiLineString","properties":{"kind":"major_road","network":"pl:national","sort_rank":380,"kind_detail":"primary","source":"openstreetmap.org","min_zoom":8.0,"shield_text":"25","ref":"25"},"arcs":[[75],[76],[77],[78],[79],[80],[81],[82],[83],[84],[85],[86],[87],[88],[89],[90],[91],[92],[93],[94],[95],[96],[97],[98],[99]]},{"type":"MultiLineString","properties":{"kind":"minor_road","sort_rank":360,"kind_detail":"unclassified","is_bicycle_related":true,"bicycle_shield_text":"R9","bicycle_network":"ncn","source":"openstreetmap.org","min_zoom":8.0},"arcs":[[100],[101]]},{"type":"LineString","properties":{"kind":"minor_road","cycleway_left":"lane","sort_rank":360,"kind_detail":"living_street","is_bicycle_related":true,"bicycle_shield_text":"R2","bicycle_network":"ncn","source":"openstreetmap.org","min_zoom":8.0,"landuse_kind":"urban_area","id":507306336},"arcs":[102]},{"type":"MultiLineString","properties":{"kind":"major_road","network":"pl:national","sort_rank":380,"kind_detail":"primary","source":"openstreetmap.org","min_zoom":8.0,"landuse_kind":"urban_area","shield_text":"12","ref":"12;25"},"arcs":[[103],[104],[105],[106],[107],[108],[109],[110],[111],[112],[113]]},{"type":"MultiLineString","properties":{"kind":"path","sort_rank":354,"landuse_kind":"urban_area","is_bicycle_related":true,"bicycle_shield_text":"R2","bicycle_network":"ncn","source":"openstreetmap.org","min_zoom":8.0,"kind_detail":"pedestrian"},"arcs":[[114],[115]]},{"type":"MultiLineString","properties":{"bus_network":"K\u00f3rnik","network":"pl:national","sort_rank":380,"kind_detail":"primary","kind":"major_road","source":"openstreetmap.org","min_zoom":8.0,"bus_shield_text":"581","shield_text":"11","ref":"11"},"arcs":[[116],[117],[118]]},{"type":"MultiLineString","properties":{"kind":"major_road","network":"pl:national","sort_rank":381,"kind_detail":"trunk","source":"openstreetmap.org","min_zoom":8.0,"shield_text":"11","ref":"S11;25"},"arcs":[[119],[120],[121],[122]]},{"type":"MultiLineString","properties":{"kind":"major_road","network":"pl:national","sort_rank":380,"kind_detail":"primary","source":"openstreetmap.org","min_zoom":8.0,"shield_text":"11","ref":"11"},"arcs":[[123],[124],[125],[126],[127],[128],[129],[130],[131],[132],[133],[134],[135],[136],[137],[138],[139],[140]]},{"type":"LineString","properties":{"kind":"minor_road","sort_rank":360,"kind_detail":"living_street","is_bicycle_related":true,"bicycle_shield_text":"R2","bicycle_network":"ncn","source":"openstreetmap.org","min_zoom":8.0,"landuse_kind":"urban_area","id":28904582},"arcs":[141]},{"type":"MultiLineString","properties":{"bus_network":"ZTM Pozna\u0144","network":"pl:national","sort_rank":380,"kind_detail":"primary","kind":"major_road","source":"openstreetmap.org","min_zoom":8.0,"bus_shield_text":null,"shield_text":"92","landuse_kind":"urban_area","ref":"92"},"arcs":[[142],[143],[144]]},{"type":"MultiLineString","properties":{"kind":"major_road","network":"pl:national","sort_rank":380,"kind_detail":"primary","source":"openstreetmap.org","min_zoom":8.0,"shield_text":"15","ref":"15;36"},"arcs":[[145],[146],[147],[148]]},{"type":"MultiLineString","properties":{"bus_network":"Kalisz","network":"pl:national","sort_rank":380,"kind_detail":"primary","kind":"major_road","source":"openstreetmap.org","min_zoom":8.0,"bus_shield_text":"6","shield_text":"25","landuse_kind":"urban_area","ref":"25"},"arcs":[[149],[150],[151],[152],[153],[154],[155]]},{"type":"MultiLineString","properties":{"kind":"path","sort_rank":354,"kind_detail":"cycleway","is_bicycle_related":true,"bicycle_shield_text":"R2","bicycle_network":"ncn","source":"openstreetmap.org","min_zoom":8.0,"landuse_kind":"urban_area"},"arcs":[[156],[157],[158],[159]]},{"type":"LineString","properties":{"kind":"minor_road","sort_rank":360,"kind_detail":"living_street","is_bicycle_related":true,"bicycle_shield_text":"R2","cycleway":"lane","source":"openstreetmap.org","min_zoom":8.0,"landuse_kind":"urban_area","bicycle_network":"ncn","id":37019315},"arcs":[160]},{"type":"MultiLineString","properties":{"kind":"major_road","network":"pl:national","sort_rank":381,"kind_detail":"trunk","source":"openstreetmap.org","min_zoom":8.0,"landuse_kind":"nature_reserve","shield_text":"5","ref":"S5"},"arcs":[[161],[162]]},{"type":"MultiLineString","properties":{"kind":"major_road","network":"pl:national","sort_rank":380,"kind_detail":"primary","source":"openstreetmap.org","min_zoom":8.0,"shield_text":"11","ref":"11;12"},"arcs":[[163],[164],[165],[166],[167],[168],[169],[170],[171],[172],[173]]},{"type":"MultiLineString","properties":{"kind":"major_road","network":"pl:national","sort_rank":380,"kind_detail":"primary","source":"openstreetmap.org","min_zoom":8.0,"landuse_kind":"urban_area","shield_text":"15","ref":"15"},"arcs":[[174],[175],[176],[177],[178],[179],[180],[181],[182],[183],[184],[185],[186],[187],[188],[189],[190],[191],[192]]},{"type":"LineString","properties":{"kind":"major_road","sort_rank":377,"kind_detail":"tertiary","is_bicycle_related":true,"bicycle_shield_text":"R9","bicycle_network":"ncn","source":"openstreetmap.org","min_zoom":8.0,"ref":"4966P","id":451148415},"arcs":[193]},{"type":"MultiLineString","properties":{"kind":"path","sort_rank":354,"landuse_kind":"urban_area","is_bicycle_related":true,"bicycle_shield_text":"R9","bicycle_network":"ncn","source":"openstreetmap.org","min_zoom":8.0,"kind_detail":"path"},"arcs":[[194],[195],[196],[197],[198],[199],[200],[201],[202]]},{"type":"MultiLineString","properties":{"kind":"major_road","network":"pl:national","sort_rank":380,"kind_detail":"primary","is_bicycle_related":true,"bicycle_shield_text":"TTR","bicycle_network":"rcn","source":"openstreetmap.org","min_zoom":8.0,"shield_text":"12","ref":"12"},"arcs":[[203],[204]]},{"type":"LineString","properties":{"bus_network":null,"network":"pl:national","sort_rank":380,"kind_detail":"primary","kind":"major_road","source":"openstreetmap.org","min_zoom":8.0,"bus_shield_text":"C","shield_text":"12","ref":"12"},"arcs":[205]},{"type":"MultiLineString","properties":{"bus_network":"Kalisz","network":"pl:national","sort_rank":380,"kind_detail":"primary","kind":"major_road","source":"openstreetmap.org","min_zoom":8.0,"bus_shield_text":"15","shield_text":"12","landuse_kind":"urban_area","ref":"12;25"},"arcs":[[206],[207]]},{"type":"LineString","properties":{"bus_network":"ZTM Pozna\u0144","network":"pl:national","sort_rank":380,"kind_detail":"primary","kind":"major_road","source":"openstreetmap.org","min_zoom":8.0,"bus_shield_text":"322","shield_text":"92","landuse_kind":"urban_area","ref":"92;196"},"arcs":[208]},{"type":"MultiLineString","properties":{"bus_network":"ZTM Pozna\u0144","network":"pl:national","sort_rank":380,"kind_detail":"primary","kind":"major_road","source":"openstreetmap.org","min_zoom":8.0,"bus_shield_text":"73","shield_text":"92","landuse_kind":"urban_area","ref":"92"},"arcs":[[209],[210],[211],[212],[213]]},{"type":"LineString","properties":{"kind":"minor_road","sort_rank":358,"kind_detail":"service","is_bicycle_related":true,"bicycle_shield_text":"R2","bicycle_network":"ncn","source":"openstreetmap.org","min_zoom":8.0,"id":227101747},"arcs":[214]},{"type":"MultiLineString","properties":{"kind":"major_road","network":"pl:national","sort_rank":380,"kind_detail":"primary","is_bicycle_related":true,"source":"openstreetmap.org","min_zoom":8.0,"shield_text":"15","ref":"15"},"arcs":[[215],[216],[217]]},{"type":"LineString","properties":{"kind":"major_road","network":"pl:national","sort_rank":380,"kind_detail":"primary","is_bicycle_related":true,"bicycle_shield_text":"R9","bicycle_network":"ncn","source":"openstreetmap.org","min_zoom":8.0,"shield_text":"12","ref":"12;434"},"arcs":[218]},{"type":"LineString","properties":{"kind":"major_road","sort_rank":377,"kind_detail":"tertiary","is_bicycle_related":true,"bicycle_shield_text":"R9","bicycle_network":"ncn","source":"openstreetmap.org","min_zoom":8.0,"ref":"3901P"},"arcs":[219]},{"type":"MultiLineString","properties":{"kind":"minor_road","sort_rank":360,"kind_detail":"residential","is_bicycle_related":true,"bicycle_shield_text":"R2","bicycle_network":"ncn","source":"openstreetmap.org","min_zoom":8.0},"arcs":[[220],[221],[222],[223],[224],[225]]},{"type":"MultiLineString","properties":{"kind":"major_road","network":"pl:national","sort_rank":380,"kind_detail":"primary","is_bicycle_related":true,"bicycle_shield_text":null,"bicycle_network":"lcn","source":"openstreetmap.org","min_zoom":8.0,"shield_text":"92","ref":"92"},"arcs":[[226],[227],[228],[229],[230],[231],[232],[233]]},{"type":"LineString","properties":{"bus_network":"Kalisz","network":"pl:national","sort_rank":380,"kind_detail":"primary","kind":"major_road","source":"openstreetmap.org","min_zoom":8.0,"bus_shield_text":"19E","shield_text":"12","landuse_kind":"urban_area","ref":"12"},"arcs":[234]},{"type":"MultiLineString","properties":{"bus_network":null,"network":"pl:national","sort_rank":380,"kind_detail":"primary","kind":"major_road","source":"openstreetmap.org","min_zoom":8.0,"bus_shield_text":"64","shield_text":"92","landuse_kind":"urban_area","ref":"92"},"arcs":[[235],[236]]},{"type":"MultiLineString","properties":{"kind":"path","sort_rank":354,"kind_detail":"footway","is_bicycle_related":true,"bicycle_shield_text":"R2","bicycle_network":"ncn","source":"openstreetmap.org","min_zoom":8.0},"arcs":[[237],[238],[239],[240]]},{"type":"LineString","properties":{"kind":"major_road","sort_rank":355,"kind_detail":"tertiary_link","is_bicycle_related":true,"bicycle_shield_text":"R9","bicycle_network":"ncn","source":"openstreetmap.org","min_zoom":8.0,"is_link":true,"id":393063844},"arcs":[241]},{"type":"MultiLineString","properties":{"kind":"path","sort_rank":354,"kind_detail":"cycleway","is_bicycle_related":true,"bicycle_shield_text":"R9","bicycle_network":"ncn","source":"openstreetmap.org","min_zoom":8.0,"landuse_kind":"urban_area"},"arcs":[[242],[243]]},{"type":"LineString","properties":{"kind":"major_road","network":"pl:national","sort_rank":380,"kind_detail":"primary","bus_network":"ZTM Pozna\u0144","official_name":"Rondo Edwarda Dembowskiego","source":"openstreetmap.org","min_zoom":8.0,"bus_shield_text":null,"shield_text":"92","landuse_kind":"urban_area","ref":"433","id":282420475},"arcs":[244]},{"type":"LineString","properties":{"kind":"major_road","sort_rank":377,"kind_detail":"tertiary","is_bicycle_related":true,"bicycle_shield_text":"R9","bicycle_network":"ncn","source":"openstreetmap.org","min_zoom":8.0,"ref":"3921P"},"arcs":[245]},{"type":"MultiLineString","properties":{"bus_network":"ZTM Pozna\u0144","network":"pl:national","sort_rank":380,"kind_detail":"primary","kind":"major_road","source":"openstreetmap.org","min_zoom":8.0,"bus_shield_text":"69","shield_text":"92","landuse_kind":"urban_area","ref":"92"},"arcs":[[246],[247],[248]]},{"type":"LineString","properties":{"kind":"path","sort_rank":354,"landuse_kind":"nature_reserve","is_bicycle_related":true,"bicycle_shield_text":"R9","bicycle_network":"ncn","source":"openstreetmap.org","min_zoom":8.0,"kind_detail":"track"},"arcs":[249]},{"type":"LineString","properties":{"bus_network":"Kalisz","network":"pl:national","sort_rank":380,"kind_detail":"primary","kind":"major_road","source":"openstreetmap.org","min_zoom":8.0,"bus_shield_text":"6","shield_text":"12","landuse_kind":"urban_area","ref":"12"},"arcs":[250]},{"type":"MultiLineString","properties":{"kind":"major_road","network":"pl:national","sort_rank":380,"kind_detail":"primary","source":"openstreetmap.org","min_zoom":8.0,"landuse_kind":"urban_area","shield_text":"25","ref":"25"},"arcs":[[251],[252],[253],[254],[255],[256],[257],[258],[259],[260],[261],[262]]},{"type":"LineString","properties":{"kind":"major_road","network":"pl:national","sort_rank":380,"kind_detail":"primary","bus_network":"Kalisz","source":"openstreetmap.org","min_zoom":8.0,"bus_shield_text":"8","shield_text":"25","landuse_kind":"urban_area","id":169274857},"arcs":[263]},{"type":"LineString","properties":{"kind":"path","sort_rank":354,"kind_detail":"path","is_bicycle_related":true,"bicycle_shield_text":"R9","bicycle_network":"ncn","source":"openstreetmap.org","min_zoom":8.0,"landuse_kind":"national_park","id":232530499},"arcs":[264]},{"type":"LineString","properties":{"kind":"major_road","network":"pl:national","sort_rank":380,"kind_detail":"primary","source":"openstreetmap.org","min_zoom":8.0,"shield_text":"15","id":94943084},"arcs":[265]},{"type":"MultiLineString","properties":{"bus_network":"ZTM Pozna\u0144","network":"pl:national","sort_rank":380,"kind_detail":"primary","kind":"major_road","source":"openstreetmap.org","min_zoom":8.0,"bus_shield_text":"85","shield_text":"92","landuse_kind":"urban_area","ref":"92"},"arcs":[[266],[267],[268]]},{"type":"MultiLineString","properties":{"kind":"path","sort_rank":354,"kind_detail":"cycleway","is_bicycle_related":true,"bicycle_shield_text":"R2","bicycle_network":"ncn","source":"openstreetmap.org","min_zoom":8.0},"arcs":[[269],[270]]},{"type":"LineString","properties":{"kind":"minor_road","cycleway_left":"lane","sort_rank":360,"kind_detail":"residential","is_bicycle_related":true,"bicycle_shield_text":"R2","bicycle_network":"ncn","source":"openstreetmap.org","min_zoom":8.0,"landuse_kind":"urban_area","id":232215971},"arcs":[271]},{"type":"LineString","properties":{"kind":"major_road","sort_rank":377,"kind_detail":"tertiary","is_bicycle_related":true,"bicycle_shield_text":"R9","bicycle_network":"ncn","source":"openstreetmap.org","min_zoom":8.0,"ref":"3925P"},"arcs":[272]},{"type":"LineString","properties":{"kind":"major_road","sort_rank":377,"kind_detail":"tertiary","is_bicycle_related":true,"bicycle_shield_text":"R9","bicycle_network":"ncn","source":"openstreetmap.org","min_zoom":8.0,"ref":"5481P","id":172811003},"arcs":[273]},{"type":"MultiLineString","properties":{"kind":"path","sort_rank":354,"landuse_kind":"nature_reserve","is_bicycle_related":true,"bicycle_shield_text":"R2","bicycle_network":"ncn","source":"openstreetmap.org","min_zoom":8.0,"kind_detail":"track"},"arcs":[[274],[275]]},{"type":"MultiLineString","properties":{"bus_network":"Kalisz","network":"pl:national","sort_rank":380,"kind_detail":"primary","kind":"major_road","source":"openstreetmap.org","min_zoom":8.0,"bus_shield_text":"15","shield_text":"12","landuse_kind":"urban_area","ref":"12"},"arcs":[[276],[277],[278],[279],[280]]},{"type":"MultiLineString","properties":{"kind":"path","sort_rank":354,"kind_detail":"path","is_bicycle_related":true,"bicycle_shield_text":"R9","bicycle_network":"ncn","source":"openstreetmap.org","min_zoom":8.0},"arcs":[[281],[282]]},{"type":"LineString","properties":{"bus_network":"Swarz\u0119dz","network":"pl:national","sort_rank":380,"kind_detail":"primary","kind":"major_road","source":"openstreetmap.org","min_zoom":8.0,"bus_shield_text":"401","shield_text":"92","id":287310534},"arcs":[283]},{"type":"MultiLineString","properties":{"kind":"minor_road","sort_rank":360,"kind_detail":"residential","is_bicycle_related":true,"bicycle_shield_text":"R9","bicycle_network":"ncn","source":"openstreetmap.org","min_zoom":8.0},"arcs":[[284],[285],[286],[287],[288]]},{"type":"MultiLineString","properties":{"kind":"path","sort_rank":354,"kind_detail":"track","is_bicycle_related":true,"bicycle_shield_text":"R9","bicycle_network":"ncn","source":"openstreetmap.org","min_zoom":8.0},"arcs":[[289],[290]]},{"type":"MultiLineString","properties":{"kind":"major_road","network":"pl:national","sort_rank":380,"kind_detail":"primary","source":"openstreetmap.org","min_zoom":8.0,"shield_text":"15","ref":"15"},"arcs":[[291],[292],[293],[294],[295],[296],[297],[298],[299],[300],[301],[302],[303],[304],[305],[306],[307],[308],[309],[310],[311],[312],[313],[314],[315],[316],[317],[318],[319],[320],[321],[322],[323],[324]]},{"type":"LineString","properties":{"kind":"major_road","network":"pl:regional","sort_rank":379,"kind_detail":"secondary","is_bicycle_related":true,"bicycle_shield_text":"R9","bicycle_network":"ncn","source":"openstreetmap.org","min_zoom":8.0,"shield_text":"308","ref":"308"},"arcs":[325]},{"type":"MultiLineString","properties":{"bus_network":"Kalisz","network":"pl:national","sort_rank":380,"kind_detail":"primary","kind":"major_road","source":"openstreetmap.org","min_zoom":8.0,"bus_shield_text":"1A","shield_text":"25","landuse_kind":"urban_area","ref":"25"},"arcs":[[326],[327],[328]]},{"type":"MultiLineString","properties":{"bus_network":"Kalisz","network":"pl:national","sort_rank":380,"kind_detail":"primary","kind":"major_road","source":"openstreetmap.org","min_zoom":8.0,"bus_shield_text":"19E","shield_text":"36","landuse_kind":"urban_area","ref":"36"},"arcs":[[329],[330],[331],[332],[333],[334]]},{"type":"LineString","properties":{"kind":"major_road","network":"pl:national","sort_rank":380,"kind_detail":"primary","source":"openstreetmap.org","min_zoom":8.0,"landuse_kind":"urban_area","shield_text":"15","ref":"443","id":290538955},"arcs":[335]},{"type":"LineString","properties":{"bus_network":"ZTM Pozna\u0144","network":"pl:national","sort_rank":380,"kind_detail":"primary","kind":"major_road","source":"openstreetmap.org","min_zoom":8.0,"bus_shield_text":null,"shield_text":"92","landuse_kind":"urban_area"},"arcs":[336]},{"type":"LineString","properties":{"kind":"path","sort_rank":354,"kind_detail":"pedestrian","is_bicycle_related":true,"bicycle_shield_text":"R2","cycleway":"opposite_lane","source":"openstreetmap.org","min_zoom":8.0,"landuse_kind":"urban_area","bicycle_network":"ncn","id":28904693},"arcs":[337]},{"type":"LineString","properties":{"kind":"major_road","sort_rank":380,"landuse_kind":"urban_area","source":"openstreetmap.org","min_zoom":8.0,"kind_detail":"primary","ref":"25","id":183564849},"arcs":[338]},{"type":"MultiLineString","properties":{"kind":"major_road","network":"pl:national","sort_rank":380,"kind_detail":"primary","source":"openstreetmap.org","min_zoom":8.0,"shield_text":"12","ref":"12;25"},"arcs":[[339],[340],[341]]},{"type":"LineString","properties":{"kind":"major_road","sort_rank":380,"kind_detail":"primary","bus_network":"Kalisz","source":"openstreetmap.org","min_zoom":8.0,"bus_shield_text":"12K","landuse_kind":"urban_area","id":169274861},"arcs":[342]},{"type":"LineString","properties":{"kind":"path","sort_rank":354,"kind_detail":"track","is_bicycle_related":true,"bicycle_shield_text":"R2","bicycle_network":"ncn","source":"openstreetmap.org","min_zoom":8.0,"landuse_kind":"urban_area","id":270468577},"arcs":[343]},{"type":"MultiLineString","properties":{"bus_network":null,"network":"pl:national","sort_rank":380,"kind_detail":"primary","kind":"major_road","source":"openstreetmap.org","min_zoom":8.0,"bus_shield_text":"P","shield_text":"11","ref":"11"},"arcs":[[344],[345],[346],[347],[348]]},{"type":"MultiLineString","properties":{"kind":"minor_road","sort_rank":360,"kind_detail":"residential","is_bicycle_related":true,"bicycle_shield_text":"R2","bicycle_network":"ncn","source":"openstreetmap.org","min_zoom":8.0,"landuse_kind":"urban_area"},"arcs":[[349],[350],[351],[352],[353],[354]]},{"type":"LineString","properties":{"kind":"minor_road","sort_rank":358,"kind_detail":"service","is_bicycle_related":true,"bicycle_shield_text":"R2","cycleway":"opposite_lane","source":"openstreetmap.org","min_zoom":8.0,"landuse_kind":"urban_area","bicycle_network":"ncn","id":28904584},"arcs":[355]},{"type":"MultiLineString","properties":{"bus_network":"Kalisz","network":"pl:national","sort_rank":380,"kind_detail":"primary","kind":"major_road","source":"openstreetmap.org","min_zoom":8.0,"bus_shield_text":"13","shield_text":"12","landuse_kind":"urban_area","ref":"12;25"},"arcs":[[356],[357],[358]]},{"type":"MultiLineString","properties":{"bus_network":"Kalisz","network":"pl:national","sort_rank":380,"kind_detail":"primary","kind":"major_road","source":"openstreetmap.org","min_zoom":8.0,"bus_shield_text":"19E","shield_text":"36","landuse_kind":"urban_area"},"arcs":[[359],[360],[361],[362]]},{"type":"MultiLineString","properties":{"kind":"major_road","network":"pl:national","sort_rank":380,"kind_detail":"primary","source":"openstreetmap.org","min_zoom":8.0,"landuse_kind":"nature_reserve","shield_text":"15","ref":"15"},"arcs":[[363],[364]]},{"type":"MultiLineString","properties":{"bus_network":"ZTM Pozna\u0144","network":"pl:national","sort_rank":380,"kind_detail":"primary","kind":"major_road","source":"openstreetmap.org","min_zoom":8.0,"bus_shield_text":"66","shield_text":"92","ref":"92"},"arcs":[[365],[366]]},{"type":"LineString","properties":{"kind":"path","sort_rank":354,"kind_detail":"track","is_bicycle_related":true,"bicycle_shield_text":"R9","bicycle_network":"ncn","source":"openstreetmap.org","min_zoom":8.0,"landuse_kind":"urban_area"},"arcs":[367]},{"type":"LineString","properties":{"kind":"major_road","network":"pl:regional","sort_rank":379,"kind_detail":"secondary","is_bicycle_related":true,"bicycle_shield_text":"R9","bicycle_network":"ncn","source":"openstreetmap.org","min_zoom":8.0,"shield_text":"434","ref":"434"},"arcs":[368]},{"type":"LineString","properties":{"bus_network":"Kalisz","network":"pl:national","sort_rank":380,"kind_detail":"primary","kind":"major_road","source":"openstreetmap.org","min_zoom":8.0,"bus_shield_text":"12K","shield_text":"12","ref":"12;25"},"arcs":[369]},{"type":"LineString","properties":{"kind":"major_road","network":"pl:national","sort_rank":380,"kind_detail":"primary","bus_network":"ZTM Pozna\u0144","official_name":"Rondo Edwarda Dembowskiego","source":"openstreetmap.org","min_zoom":8.0,"bus_shield_text":null,"shield_text":"92","landuse_kind":"urban_area","ref":"92","id":282420506},"arcs":[370]},{"type":"MultiLineString","properties":{"bus_network":"ZTM Pozna\u0144","network":"pl:national","sort_rank":380,"kind_detail":"primary","kind":"major_road","source":"openstreetmap.org","min_zoom":8.0,"bus_shield_text":"85","shield_text":"92","landuse_kind":"urban_area","ref":"92;196"},"arcs":[[371],[372]]},{"type":"MultiLineString","properties":{"kind":"major_road","network":"pl:expressways","sort_rank":381,"landuse_kind":"urban_area","source":"openstreetmap.org","min_zoom":8.0,"kind_detail":"trunk","shield_text":"11","ref":"S11"},"arcs":[[373],[374]]},{"type":"MultiLineString","properties":{"kind":"major_road","network":"pl:national","sort_rank":380,"kind_detail":"primary","source":"openstreetmap.org","min_zoom":8.0,"shield_text":"92","ref":"92"},"arcs":[[375],[376],[377],[378],[379],[380],[381],[382],[383],[384],[385],[386],[387],[388],[389],[390],[391],[392],[393],[394],[395],[396],[397],[398],[399],[400],[401],[402],[403],[404],[405],[406],[407],[408],[409],[410],[411],[412],[413],[414],[415],[416],[417],[418],[419],[420],[421],[422],[423],[424],[425],[426],[427],[428],[429],[430],[431],[432],[433],[434],[435],[436],[437],[438],[439],[440],[441],[442]]},{"type":"MultiLineString","properties":{"bus_network":"ZTM Pozna\u0144","network":"pl:national","sort_rank":380,"kind_detail":"primary","kind":"major_road","source":"openstreetmap.org","min_zoom":8.0,"bus_shield_text":"78","shield_text":"92","landuse_kind":"urban_area","ref":"92"},"arcs":[[443],[444]]},{"type":"LineString","properties":{"kind":"major_road","sort_rank":377,"kind_detail":"tertiary","is_bicycle_related":true,"bicycle_shield_text":"R9","bicycle_network":"ncn","source":"openstreetmap.org","min_zoom":8.0,"ref":"5494P"},"arcs":[445]},{"type":"MultiLineString","properties":{"bus_network":"Kalisz","network":"pl:national","sort_rank":380,"kind_detail":"primary","kind":"major_road","source":"openstreetmap.org","min_zoom":8.0,"bus_shield_text":"19E","shield_text":"25","landuse_kind":"urban_area","ref":"25"},"arcs":[[446],[447]]},{"type":"LineString","properties":{"kind":"major_road","network":"pl:national","sort_rank":380,"kind_detail":"primary","bus_network":"ZTM Pozna\u0144","source":"openstreetmap.org","min_zoom":8.0,"bus_shield_text":"60","shield_text":"92","landuse_kind":"urban_area","ref":"92","id":32084337},"arcs":[448]},{"type":"MultiLineString","properties":{"bus_network":"Kalisz","network":"pl:national","sort_rank":380,"kind_detail":"primary","kind":"major_road","source":"openstreetmap.org","min_zoom":8.0,"bus_shield_text":"1A","shield_text":"12","landuse_kind":"urban_area","ref":"12"},"arcs":[[449],[450],[451]]},{"type":"LineString","properties":{"kind":"minor_road","sort_rank":360,"kind_detail":"residential","is_bicycle_related":true,"cycleway_right":"lane","bicycle_shield_text":"R2","bicycle_network":"ncn","source":"openstreetmap.org","min_zoom":8.0,"landuse_kind":"urban_area"},"arcs":[452]},{"type":"MultiLineString","properties":{"kind":"major_road","network":"pl:national","sort_rank":380,"kind_detail":"primary","source":"openstreetmap.org","min_zoom":8.0,"landuse_kind":"urban_area","shield_text":"36"},"arcs":[[453],[454]]},{"type":"MultiLineString","properties":{"bus_network":"Kalisz","network":"pl:national","sort_rank":380,"kind_detail":"primary","kind":"major_road","source":"openstreetmap.org","min_zoom":8.0,"bus_shield_text":"12K","shield_text":"25","landuse_kind":"urban_area","ref":"25"},"arcs":[[455],[456]]},{"type":"LineString","properties":{"kind":"major_road","network":"pl:national","sort_rank":380,"kind_detail":"primary","is_bicycle_related":true,"bicycle_shield_text":"BSR","bicycle_network":"rcn","source":"openstreetmap.org","min_zoom":8.0,"shield_text":"25","ref":"25","id":269138882},"arcs":[457]},{"type":"MultiLineString","properties":{"kind":"major_road","network":"pl:regional","sort_rank":380,"kind_detail":"primary","source":"openstreetmap.org","min_zoom":8.0,"shield_text":"434","ref":"434"},"arcs":[[458],[459]]},{"type":"LineString","properties":{"bus_network":"K\u00f3rnik","network":"pl:national","sort_rank":381,"kind_detail":"trunk","kind":"major_road","source":"openstreetmap.org","min_zoom":8.0,"bus_shield_text":"501","shield_text":"11","ref":"11"},"arcs":[460]},{"type":"LineString","properties":{"kind":"major_road","network":"pl:national","sort_rank":381,"kind_detail":"trunk","bus_network":"K\u00f3rnik","source":"openstreetmap.org","min_zoom":8.0,"bus_shield_text":"581","shield_text":"11","ref":"S11","id":223651436},"arcs":[461]},{"type":"MultiLineString","properties":{"bus_network":"Kalisz","network":"pl:national","sort_rank":380,"kind_detail":"primary","kind":"major_road","source":"openstreetmap.org","min_zoom":8.0,"bus_shield_text":"8","shield_text":"12","landuse_kind":"urban_area","ref":"12;25"},"arcs":[[462],[463],[464],[465]]},{"type":"LineString","properties":{"kind":"major_road","network":"pl:national","sort_rank":380,"kind_detail":"primary","official_name":"Rondo Edwarda Dembowskiego","source":"openstreetmap.org","min_zoom":8.0,"landuse_kind":"urban_area","shield_text":"92","ref":"433","id":282420901},"arcs":[466]},{"type":"MultiLineString","properties":{"bus_network":null,"sort_rank":380,"kind_detail":"primary","kind":"major_road","source":"openstreetmap.org","min_zoom":8.0,"bus_shield_text":"50","landuse_kind":"urban_area"},"arcs":[[467],[468]]},{"type":"MultiLineString","properties":{"kind":"major_road","network":"pl:national","sort_rank":380,"kind_detail":"primary","source":"openstreetmap.org","min_zoom":8.0,"shield_text":"12","ref":"12;15"},"arcs":[[469],[470],[471],[472],[473],[474],[475]]},{"type":"LineString","properties":{"kind":"major_road","network":"pl:national","sort_rank":380,"kind_detail":"primary","is_bicycle_related":true,"bicycle_shield_text":null,"bicycle_network":"lcn","source":"openstreetmap.org","min_zoom":8.0,"shield_text":"25","ref":"25"},"arcs":[476]},{"type":"MultiLineString","properties":{"bus_network":"K\u00f3rnik","network":"pl:national","sort_rank":381,"kind_detail":"trunk","kind":"major_road","source":"openstreetmap.org","min_zoom":8.0,"bus_shield_text":"596","shield_text":"11","ref":"S11"},"arcs":[[477],[478]]},{"type":"MultiLineString","properties":{"bus_network":null,"network":"pl:national","sort_rank":380,"kind_detail":"primary","kind":"major_road","source":"openstreetmap.org","min_zoom":8.0,"bus_shield_text":"64","shield_text":"25","landuse_kind":"urban_area","ref":"25"},"arcs":[[479],[480],[481],[482]]},{"type":"LineString","properties":{"bus_network":"ZTM Pozna\u0144","sort_rank":377,"kind_detail":"tertiary","is_bicycle_related":true,"kind":"major_road","bicycle_shield_text":"R2","cycleway":"opposite_lane","source":"openstreetmap.org","min_zoom":8.0,"bus_shield_text":"74","landuse_kind":"urban_area","id":404626290,"bicycle_network":"ncn"},"arcs":[483]},{"type":"LineString","properties":{"kind":"major_road","network":"pl:national","sort_rank":380,"kind_detail":"primary","is_bicycle_related":true,"bicycle_shield_text":null,"bicycle_network":"lcn","source":"openstreetmap.org","min_zoom":8.0,"shield_text":"15","ref":"15"},"arcs":[484]},{"type":"MultiLineString","properties":{"kind":"major_road","network":"pl:national","sort_rank":380,"kind_detail":"primary","source":"openstreetmap.org","min_zoom":8.0,"shield_text":"12","ref":"12;434"},"arcs":[[485],[486],[487],[488],[489]]},{"type":"MultiLineString","properties":{"kind":"highway","network":"pl:national","sort_rank":383,"kind_detail":"motorway","source":"openstreetmap.org","min_zoom":8.0,"all_networks":["pl:national","e-road","pl:motorways"],"shield_text":"2","ref":"A2","all_shield_texts":["2","30","2"]},"arcs":[[490],[491],[492],[493],[494],[495],[496],[497],[498],[499],[500],[501],[502],[503],[504],[505]]},{"type":"LineString","properties":{"bus_network":"ZTM Pozna\u0144","network":"pl:regional","sort_rank":379,"kind_detail":"secondary","is_bicycle_related":true,"kind":"major_road","bicycle_shield_text":"R9","bicycle_network":"ncn","source":"openstreetmap.org","min_zoom":8.0,"bus_shield_text":"602","shield_text":"430","ref":"430","id":129705546},"arcs":[506]},{"type":"MultiLineString","properties":{"bus_network":"Swarz\u0119dz","network":"pl:national","sort_rank":380,"kind_detail":"primary","kind":"major_road","source":"openstreetmap.org","min_zoom":8.0,"bus_shield_text":"401","shield_text":"92","ref":"92"},"arcs":[[507],[508],[509]]},{"type":"LineString","properties":{"kind":"path","sort_rank":354,"kind_detail":"pedestrian","is_bicycle_related":true,"bicycle_shield_text":"R2","cycleway":"opposite","source":"openstreetmap.org","min_zoom":8.0,"landuse_kind":"urban_area","bicycle_network":"ncn","id":152139083},"arcs":[510]},{"type":"LineString","properties":{"kind":"major_road","network":"pl:national","sort_rank":380,"kind_detail":"primary","source":"openstreetmap.org","min_zoom":8.0,"landuse_kind":"urban_area","shield_text":"12","ref":"12;15","id":303872339},"arcs":[511]},{"type":"MultiLineString","properties":{"kind":"path","sort_rank":354,"landuse_kind":"urban_area","is_bicycle_related":true,"bicycle_shield_text":"R2","bicycle_network":"ncn","source":"openstreetmap.org","min_zoom":8.0,"kind_detail":"path"},"arcs":[[512],[513],[514],[515],[516],[517],[518],[519],[520]]},{"type":"MultiLineString","properties":{"kind":"major_road","network":"pl:national","sort_rank":380,"kind_detail":"primary","source":"openstreetmap.org","min_zoom":8.0,"shield_text":"11","ref":"11;15"},"arcs":[[521],[522],[523],[524],[525],[526],[527],[528],[529],[530],[531],[532],[533],[534],[535],[536],[537]]},{"type":"LineString","properties":{"kind":"major_road","network":"pl:national","sort_rank":380,"kind_detail":"primary","is_bicycle_related":true,"bicycle_shield_text":"TTR","bicycle_network":"rcn","source":"openstreetmap.org","min_zoom":8.0,"shield_text":"15","ref":"15"},"arcs":[538]},{"type":"LineString","properties":{"kind":"major_road","network":"pl:national","sort_rank":380,"kind_detail":"primary","official_name":"Rondo Edwarda Dembowskiego","source":"openstreetmap.org","min_zoom":8.0,"landuse_kind":"urban_area","shield_text":"92","ref":"92","id":282420782},"arcs":[539]},{"type":"MultiLineString","properties":{"kind":"path","sort_rank":354,"kind_detail":"track","is_bicycle_related":true,"bicycle_shield_text":"R2","bicycle_network":"ncn","source":"openstreetmap.org","min_zoom":8.0},"arcs":[[540],[541],[542],[543],[544],[545],[546],[547]]},{"type":"MultiLineString","properties":{"kind":"major_road","network":"pl:national","sort_rank":380,"kind_detail":"primary","is_bicycle_related":true,"bicycle_shield_text":"ZSR","bicycle_network":"rcn","source":"openstreetmap.org","min_zoom":8.0,"shield_text":"36","ref":"36"},"arcs":[[548],[549]]},{"type":"LineString","properties":{"kind":"path","sort_rank":354,"kind_detail":"steps","is_bicycle_related":true,"bicycle_shield_text":"R2","bicycle_network":"ncn","source":"openstreetmap.org","min_zoom":8.0,"id":177791818},"arcs":[550]},{"type":"LineString","properties":{"kind":"minor_road","sort_rank":360,"kind_detail":"unclassified","is_bicycle_related":true,"bicycle_shield_text":"R2","bicycle_network":"ncn","source":"openstreetmap.org","min_zoom":8.0,"landuse_kind":"urban_area","id":177791815},"arcs":[551]},{"type":"MultiLineString","properties":{"kind":"major_road","network":"pl:national","sort_rank":380,"kind_detail":"primary","source":"openstreetmap.org","min_zoom":8.0,"shield_text":"12","ref":"12"},"arcs":[[552],[553],[554],[555],[556],[557],[558],[559],[560],[561],[562],[563],[564],[565],[566],[567],[568],[569],[570],[571],[572],[573],[574],[575],[576],[577],[578],[579],[580],[581],[582]]},{"type":"LineString","properties":{"kind":"minor_road","sort_rank":358,"kind_detail":"service","is_bicycle_related":true,"bicycle_shield_text":"R9","bicycle_network":"ncn","source":"openstreetmap.org","min_zoom":8.0,"id":129705557},"arcs":[583]},{"type":"MultiLineString","properties":{"kind":"path","sort_rank":354,"kind_detail":"path","is_bicycle_related":true,"bicycle_shield_text":"R2","bicycle_network":"ncn","source":"openstreetmap.org","min_zoom":8.0},"arcs":[[584],[585],[586],[587]]},{"type":"LineString","properties":{"bus_network":"K\u00f3rnik","network":"pl:national","sort_rank":380,"kind_detail":"primary","kind":"major_road","source":"openstreetmap.org","min_zoom":8.0,"bus_shield_text":"596","shield_text":"11","ref":"11"},"arcs":[588]},{"type":"LineString","properties":{"kind":"major_road","network":"pl:national","sort_rank":380,"kind_detail":"primary","bus_network":null,"source":"openstreetmap.org","min_zoom":8.0,"bus_shield_text":"50","shield_text":"25","landuse_kind":"urban_area","id":432347102},"arcs":[589]},{"type":"MultiLineString","properties":{"kind":"path","sort_rank":354,"landuse_kind":"urban_area","is_bicycle_related":true,"bicycle_shield_text":"R9","bicycle_network":"ncn","source":"openstreetmap.org","min_zoom":8.0,"kind_detail":"footway"},"arcs":[[590],[591],[592]]},{"type":"LineString","properties":{"bus_network":"ZTM Pozna\u0144","network":"pl:national","sort_rank":380,"kind_detail":"primary","kind":"major_road","source":"openstreetmap.org","min_zoom":8.0,"bus_shield_text":"83","shield_text":"92","landuse_kind":"urban_area","ref":"92"},"arcs":[593]},{"type":"LineString","properties":{"bus_network":"Kalisz","network":"pl:national","sort_rank":380,"kind_detail":"primary","kind":"major_road","source":"openstreetmap.org","min_zoom":8.0,"bus_shield_text":"1A","shield_text":"12","ref":"12"},"arcs":[594]},{"type":"MultiLineString","properties":{"bus_network":null,"network":"pl:national","sort_rank":380,"kind_detail":"primary","kind":"major_road","source":"openstreetmap.org","min_zoom":8.0,"bus_shield_text":"58","shield_text":"25","landuse_kind":"urban_area","ref":"25;92"},"arcs":[[595],[596],[597]]},{"type":"MultiLineString","properties":{"source":"openstreetmap.org","kind":"major_road","network":"pl:national","sort_rank":380,"kind_detail":"primary","min_zoom":8.0,"shield_text":"12"},"arcs":[[598],[599]]},{"type":"LineString","properties":{"kind":"major_road","sort_rank":377,"landuse_kind":"nature_reserve","is_bicycle_related":true,"bicycle_shield_text":"R2","bicycle_network":"ncn","source":"openstreetmap.org","min_zoom":8.0,"kind_detail":"tertiary"},"arcs":[600]},{"type":"LineString","properties":{"bus_network":"ZTM Pozna\u0144","network":"pl:regional","sort_rank":379,"kind_detail":"secondary","is_bicycle_related":true,"kind":"major_road","bicycle_shield_text":"R9","bicycle_network":"ncn","source":"openstreetmap.org","min_zoom":8.0,"bus_shield_text":"602","shield_text":"430","landuse_kind":"urban_area","ref":"430","id":129705546},"arcs":[601]},{"type":"MultiLineString","properties":{"source":"openstreetmap.org","kind":"major_road","landuse_kind":"urban_area","sort_rank":380,"kind_detail":"primary","ref":"11;15","min_zoom":8.0},"arcs":[[602],[603]]},{"type":"MultiLineString","properties":{"kind":"highway","network":"pl:national","sort_rank":383,"landuse_kind":"nature_reserve","source":"openstreetmap.org","min_zoom":8.0,"all_networks":["pl:national","e-road","pl:motorways"],"kind_detail":"motorway","shield_text":"2","ref":"A2","all_shield_texts":["2","30","2"]},"arcs":[[604],[605]]},{"type":"MultiLineString","properties":{"bus_network":"Kalisz","sort_rank":380,"kind_detail":"primary","kind":"major_road","source":"openstreetmap.org","min_zoom":8.0,"bus_shield_text":"19E","landuse_kind":"urban_area"},"arcs":[[606],[607]]},{"type":"LineString","properties":{"bus_network":null,"network":"pl:national","sort_rank":380,"kind_detail":"primary","kind":"major_road","source":"openstreetmap.org","min_zoom":8.0,"bus_shield_text":"P","shield_text":"12","ref":"12"},"arcs":[608]},{"type":"MultiLineString","properties":{"source":"openstreetmap.org","kind":"major_road","sort_rank":380,"kind_detail":"primary","ref":"11","min_zoom":8.0},"arcs":[[609],[610]]},{"type":"MultiLineString","properties":{"kind":"major_road","network":"pl:national","sort_rank":380,"kind_detail":"primary","source":"openstreetmap.org","min_zoom":8.0,"shield_text":"36","ref":"36"},"arcs":[[611],[612],[613],[614],[615],[616],[617],[618],[619],[620],[621],[622],[623],[624],[625],[626],[627],[628],[629],[630],[631],[632],[633],[634],[635],[636],[637],[638],[639],[640],[641],[642],[643],[644],[645],[646],[647],[648],[649],[650],[651]]},{"type":"MultiLineString","properties":{"kind":"major_road","network":"pl:national","sort_rank":381,"landuse_kind":"urban_area","source":"openstreetmap.org","min_zoom":8.0,"kind_detail":"trunk","shield_text":"11","ref":"S11;15"},"arcs":[[652],[653]]},{"type":"MultiLineString","properties":{"bus_network":null,"network":"pl:national","sort_rank":380,"kind_detail":"primary","kind":"major_road","source":"openstreetmap.org","min_zoom":8.0,"bus_shield_text":"64","shield_text":"92","ref":"92"},"arcs":[[654],[655],[656]]},{"type":"MultiLineString","properties":{"source":"openstreetmap.org","bus_network":"Kalisz","bus_shield_text":"19E","sort_rank":380,"kind_detail":"primary","min_zoom":8.0,"kind":"major_road"},"arcs":[[657],[658]]},{"type":"MultiLineString","properties":{"kind":"major_road","network":"pl:national","sort_rank":380,"kind_detail":"primary","source":"openstreetmap.org","min_zoom":8.0,"landuse_kind":"urban_area","shield_text":"36","ref":"36"},"arcs":[[659],[660],[661],[662],[663],[664],[665],[666],[667],[668],[669]]},{"type":"LineString","properties":{"bus_network":null,"network":"pl:national","sort_rank":380,"kind_detail":"primary","kind":"major_road","source":"openstreetmap.org","min_zoom":8.0,"bus_shield_text":"50","shield_text":"25","landuse_kind":"urban_area","ref":"25"},"arcs":[670]},{"type":"MultiLineString","properties":{"bus_network":"Kalisz","network":"pl:national","sort_rank":380,"kind_detail":"primary","kind":"major_road","source":"openstreetmap.org","min_zoom":8.0,"bus_shield_text":"12K","shield_text":"25","landuse_kind":"urban_area"},"arcs":[[671],[672],[673]]},{"type":"LineString","properties":{"bus_network":"ZTM Pozna\u0144","sort_rank":377,"kind_detail":"tertiary","is_bicycle_related":true,"cycleway_right":"share_busway","bicycle_shield_text":"R2","cycleway":"opposite_lane","source":"openstreetmap.org","min_zoom":8.0,"bus_shield_text":"74","id":152139037,"landuse_kind":"urban_area","kind":"major_road","bicycle_network":"ncn"},"arcs":[674]},{"type":"MultiLineString","properties":{"bus_network":null,"network":"pl:national","sort_rank":380,"kind_detail":"primary","kind":"major_road","source":"openstreetmap.org","min_zoom":8.0,"bus_shield_text":"50","shield_text":"25","landuse_kind":"urban_area","ref":"25;92"},"arcs":[[675],[676]]},{"type":"MultiLineString","properties":{"kind":"highway","network":"pl:national","sort_rank":383,"landuse_kind":"urban_area","source":"openstreetmap.org","min_zoom":8.0,"all_networks":["pl:national","pl:national","pl:national","e-road","e-road","pl:motorways","pl:expressways","pl:expressways"],"kind_detail":"motorway","shield_text":"2","ref":"A2;S5;S11","all_shield_texts":["2","5","11","30","261","2","5","11"]},"arcs":[[677],[678]]},{"type":"MultiLineString","properties":{"kind":"minor_road","sort_rank":360,"kind_detail":"residential","is_bicycle_related":true,"bicycle_shield_text":"R9","bicycle_network":"ncn","source":"openstreetmap.org","min_zoom":8.0,"landuse_kind":"urban_area"},"arcs":[[679],[680]]},{"type":"MultiLineString","properties":{"sort_rank":380,"kind_detail":"primary","min_zoom":8.0,"kind":"major_road","source":"openstreetmap.org"},"arcs":[[681],[682]]},{"type":"MultiLineString","properties":{"bus_network":"K\u00f3rnik","network":"pl:national","sort_rank":381,"kind_detail":"trunk","kind":"major_road","source":"openstreetmap.org","min_zoom":8.0,"bus_shield_text":"501","shield_text":"11","ref":"S11"},"arcs":[[683],[684],[685],[686],[687],[688],[689],[690]]},{"type":"MultiLineString","properties":{"bus_network":"K\u00f3rnik","network":"pl:regional","sort_rank":381,"kind_detail":"trunk","kind":"major_road","source":"openstreetmap.org","min_zoom":8.0,"bus_shield_text":"501","shield_text":"433","ref":"433"},"arcs":[[691],[692]]},{"type":"MultiLineString","properties":{"kind":"major_road","network":"pl:national","sort_rank":381,"kind_detail":"trunk","source":"openstreetmap.org","min_zoom":8.0,"shield_text":"5","ref":"S5"},"arcs":[[693],[694],[695],[696]]},{"type":"MultiLineString","properties":{"bus_network":"ZTM Pozna\u0144","sort_rank":377,"landuse_kind":"urban_area","is_bicycle_related":true,"kind":"major_road","bicycle_shield_text":"R9","bicycle_network":"ncn","source":"openstreetmap.org","min_zoom":8.0,"bus_shield_text":"76","kind_detail":"tertiary","ref":"5770P"},"arcs":[[697],[698]]},{"type":"MultiLineString","properties":{"kind":"highway","network":"pl:national","sort_rank":383,"kind_detail":"motorway","source":"openstreetmap.org","min_zoom":8.0,"all_networks":["pl:national","pl:national","e-road","e-road","pl:motorways","pl:expressways"],"shield_text":"2","ref":"A2;S5","all_shield_texts":["2","5","30","261","2","5"]},"arcs":[[699],[700]]},{"type":"LineString","properties":{"kind":"major_road","network":"pl:national","sort_rank":380,"kind_detail":"primary","source":"openstreetmap.org","min_zoom":8.0,"landuse_kind":"urban_area","shield_text":"15","ref":"11;15","id":290544620},"arcs":[701]},{"type":"MultiLineString","properties":{"bus_network":null,"network":"pl:national","sort_rank":380,"kind_detail":"primary","kind":"major_road","source":"openstreetmap.org","min_zoom":8.0,"bus_shield_text":"58","shield_text":"92","ref":"92"},"arcs":[[702],[703],[704]]},{"type":"MultiLineString","properties":{"kind":"path","footway":"crossing","sort_rank":354,"landuse_kind":"urban_area","is_bicycle_related":true,"bicycle_shield_text":"R9","bicycle_network":"ncn","source":"openstreetmap.org","min_zoom":8.0,"kind_detail":"footway"},"arcs":[[705],[706],[707]]},{"type":"MultiLineString","properties":{"kind":"major_road","network":"pl:national","sort_rank":380,"kind_detail":"primary","source":"openstreetmap.org","min_zoom":8.0,"landuse_kind":"urban_area","shield_text":"12","ref":"12"},"arcs":[[708],[709],[710],[711],[712],[713],[714],[715],[716],[717],[718],[719]]},{"type":"MultiLineString","properties":{"kind":"path","sort_rank":354,"kind_detail":"footway","is_bicycle_related":true,"bicycle_shield_text":"R9","bicycle_network":"ncn","source":"openstreetmap.org","min_zoom":8.0},"arcs":[[720],[721]]},{"type":"MultiLineString","properties":{"kind":"minor_road","sort_rank":360,"kind_detail":"residential","is_bicycle_related":true,"bicycle_shield_text":"R2","cycleway":"opposite_lane","source":"openstreetmap.org","min_zoom":8.0,"landuse_kind":"urban_area","bicycle_network":"ncn"},"arcs":[[722],[723],[724]]},{"type":"MultiLineString","properties":{"kind":"minor_road","sort_rank":358,"landuse_kind":"urban_area","is_bicycle_related":true,"bicycle_shield_text":"R2","bicycle_network":"ncn","source":"openstreetmap.org","min_zoom":8.0,"kind_detail":"service"},"arcs":[[725],[726],[727],[728]]},{"type":"LineString","properties":{"source":"openstreetmap.org","kind":"major_road","landuse_kind":"urban_area","sort_rank":380,"kind_detail":"primary","min_zoom":8.0},"arcs":[729]},{"type":"MultiLineString","properties":{"kind":"highway","network":"pl:national","sort_rank":383,"kind_detail":"motorway","source":"openstreetmap.org","min_zoom":8.0,"all_networks":["pl:national","pl:national","pl:national","e-road","e-road","pl:motorways","pl:expressways","pl:expressways"],"shield_text":"2","ref":"A2;S5;S11","all_shield_texts":["2","5","11","30","261","2","5","11"]},"arcs":[[730],[731]]},{"type":"MultiLineString","properties":{"bus_network":"Kalisz","sort_rank":380,"kind_detail":"primary","kind":"major_road","source":"openstreetmap.org","min_zoom":8.0,"bus_shield_text":"8","landuse_kind":"urban_area","ref":"12;25"},"arcs":[[732],[733]]},{"type":"MultiLineString","properties":{"kind":"major_road","sort_rank":377,"kind_detail":"tertiary","is_bicycle_related":true,"bicycle_shield_text":"R9","bicycle_network":"ncn","source":"openstreetmap.org","min_zoom":8.0,"ref":"3919P"},"arcs":[[734],[735]]},{"type":"LineString","properties":{"kind":"major_road","sort_rank":377,"kind_detail":"tertiary","is_bicycle_related":true,"bicycle_shield_text":"R9","bicycle_network":"ncn","source":"openstreetmap.org","min_zoom":8.0,"ref":"5484P"},"arcs":[736]},{"type":"LineString","properties":{"kind":"major_road","sort_rank":380,"kind_detail":"primary","bus_network":"Kalisz","source":"openstreetmap.org","min_zoom":8.0,"bus_shield_text":"1A","landuse_kind":"urban_area","id":174793848},"arcs":[737]},{"type":"MultiLineString","properties":{"source":"openstreetmap.org","kind":"ferry","name":"Trasa statku \"Anna Maria\"","sort_rank":355,"min_zoom":8.0,"id":362071154},"arcs":[[738],[739],[740]]},{"type":"MultiLineString","properties":{"bus_network":null,"network":"pl:national","sort_rank":380,"kind_detail":"primary","kind":"major_road","source":"openstreetmap.org","min_zoom":8.0,"bus_shield_text":"P","shield_text":"36","landuse_kind":"urban_area","ref":"36"},"arcs":[[741],[742],[743],[744]]},{"type":"MultiLineString","properties":{"kind":"path","sort_rank":354,"landuse_kind":"urban_area","is_bicycle_related":true,"bicycle_shield_text":"R2","bicycle_network":"ncn","source":"openstreetmap.org","min_zoom":8.0,"kind_detail":"footway"},"arcs":[[745],[746],[747],[748]]},{"type":"LineString","properties":{"kind":"major_road","network":"pl:national","sort_rank":380,"kind_detail":"primary","is_bicycle_related":true,"bicycle_shield_text":"BSR","bicycle_network":"rcn","source":"openstreetmap.org","min_zoom":8.0,"shield_text":"72","ref":"72"},"arcs":[749]},{"type":"LineString","properties":{"kind":"major_road","network":"pl:national","sort_rank":380,"kind_detail":"primary","is_bicycle_related":true,"bicycle_shield_text":null,"bicycle_network":"lcn","source":"openstreetmap.org","min_zoom":8.0,"landuse_kind":"nature_reserve","shield_text":"15","ref":"15","id":220343606},"arcs":[750]},{"type":"MultiLineString","properties":{"bus_network":"Kalisz","network":"pl:national","sort_rank":380,"kind_detail":"primary","kind":"major_road","source":"openstreetmap.org","min_zoom":8.0,"bus_shield_text":"6","shield_text":"25","ref":"25"},"arcs":[[751],[752],[753],[754],[755],[756],[757]]},{"type":"MultiLineString","properties":{"bus_network":null,"network":"pl:national","sort_rank":380,"kind_detail":"primary","kind":"major_road","source":"openstreetmap.org","min_zoom":8.0,"bus_shield_text":"58","shield_text":"92","landuse_kind":"urban_area","ref":"92"},"arcs":[[758],[759],[760],[761],[762],[763],[764],[765]]},{"type":"MultiLineString","properties":{"kind":"major_road","sort_rank":377,"kind_detail":"tertiary","is_bicycle_related":true,"bicycle_shield_text":"R9","bicycle_network":"ncn","source":"openstreetmap.org","min_zoom":8.0},"arcs":[[766],[767],[768],[769],[770],[771]]},{"type":"LineString","properties":{"kind":"major_road","network":"pl:national","sort_rank":380,"kind_detail":"primary","is_bicycle_related":true,"bicycle_shield_text":"R9","bicycle_network":"ncn","source":"openstreetmap.org","min_zoom":8.0,"shield_text":"12","ref":"12","id":106110271},"arcs":[772]},{"type":"MultiLineString","properties":{"bus_network":"Kalisz","network":"pl:national","sort_rank":380,"kind_detail":"primary","kind":"major_road","source":"openstreetmap.org","min_zoom":8.0,"bus_shield_text":"12K","shield_text":"12","ref":"12"},"arcs":[[773],[774],[775]]},{"type":"LineString","properties":{"kind":"major_road","network":"pl:national","sort_rank":380,"kind_detail":"primary","is_bicycle_related":true,"source":"openstreetmap.org","min_zoom":8.0,"shield_text":"12","ref":"12;434","id":26475405},"arcs":[776]},{"type":"LineString","properties":{"kind":"major_road","network":"pl:national","sort_rank":380,"kind_detail":"primary","source":"openstreetmap.org","min_zoom":8.0,"shield_text":"11","ref":"11;12;15","id":486660378},"arcs":[777]},{"type":"MultiLineString","properties":{"kind":"major_road","network":"pl:national","sort_rank":380,"kind_detail":"primary","source":"openstreetmap.org","min_zoom":8.0,"landuse_kind":"urban_area","shield_text":"11","ref":"11;15"},"arcs":[[778],[779],[780],[781],[782]]},{"type":"MultiLineString","properties":{"kind":"major_road","network":"pl:national","sort_rank":380,"kind_detail":"primary","source":"openstreetmap.org","min_zoom":8.0,"shield_text":"72","ref":"72"},"arcs":[[783],[784],[785],[786],[787],[788],[789],[790],[791],[792],[793],[794]]},{"type":"MultiLineString","properties":{"bus_network":null,"network":"pl:national","sort_rank":380,"kind_detail":"primary","kind":"major_road","source":"openstreetmap.org","min_zoom":8.0,"bus_shield_text":"P","shield_text":"36","landuse_kind":"urban_area"},"arcs":[[795],[796]]},{"type":"MultiLineString","properties":{"kind":"major_road","network":"pl:national","sort_rank":381,"kind_detail":"trunk","source":"openstreetmap.org","min_zoom":8.0,"shield_text":"11","ref":"S11;15"},"arcs":[[797],[798]]},{"type":"MultiLineString","properties":{"kind":"major_road","sort_rank":377,"kind_detail":"tertiary","is_bicycle_related":true,"bicycle_shield_text":"R9","bicycle_network":"ncn","source":"openstreetmap.org","min_zoom":8.0,"ref":"3909P"},"arcs":[[799],[800]]},{"type":"LineString","properties":{"kind":"major_road","network":"pl:national","sort_rank":380,"kind_detail":"primary","is_bicycle_related":true,"source":"openstreetmap.org","min_zoom":8.0,"shield_text":"12","ref":"12","id":198478960},"arcs":[801]},{"type":"LineString","properties":{"source":"openstreetmap.org","kind":"major_road","sort_rank":380,"kind_detail":"primary","ref":"36","min_zoom":8.0,"id":540218339},"arcs":[802]},{"type":"LineString","properties":{"kind":"major_road","network":"pl:national","sort_rank":380,"kind_detail":"primary","bus_network":"Kalisz","source":"openstreetmap.org","min_zoom":8.0,"bus_shield_text":"13","shield_text":"12","landuse_kind":"urban_area","ref":"12","id":171668693},"arcs":[803]},{"type":"MultiLineString","properties":{"kind":"major_road","sort_rank":377,"kind_detail":"tertiary","is_bicycle_related":true,"bicycle_shield_text":"R2","bicycle_network":"ncn","source":"openstreetmap.org","min_zoom":8.0},"arcs":[[804],[805],[806],[807]]},{"type":"MultiLineString","properties":{"kind":"major_road","sort_rank":377,"landuse_kind":"nature_reserve","is_bicycle_related":true,"bicycle_shield_text":"R9","bicycle_network":"ncn","source":"openstreetmap.org","min_zoom":8.0,"kind_detail":"tertiary","ref":"3919P"},"arcs":[[808],[809]]},{"type":"MultiLineString","properties":{"source":"openstreetmap.org","kind":"major_road","sort_rank":380,"kind_detail":"primary","ref":"15","min_zoom":8.0},"arcs":[[810],[811]]},{"type":"MultiLineString","properties":{"kind":"major_road","network":"pl:national","sort_rank":381,"kind_detail":"trunk","source":"openstreetmap.org","min_zoom":8.0,"shield_text":"11","ref":"S11"},"arcs":[[812],[813],[814],[815],[816],[817],[818],[819],[820],[821],[822],[823],[824]]},{"type":"LineString","properties":{"kind":"major_road","network":"pl:national","sort_rank":380,"kind_detail":"primary","is_bicycle_related":true,"bicycle_shield_text":"102","bicycle_network":"lcn","source":"openstreetmap.org","min_zoom":8.0,"shield_text":"36","ref":"36","id":331152545},"arcs":[825]},{"type":"LineString","properties":{"kind":"major_road","sort_rank":377,"landuse_kind":"urban_area","is_bicycle_related":true,"bicycle_shield_text":"R2","bicycle_network":"ncn","source":"openstreetmap.org","min_zoom":8.0,"kind_detail":"tertiary"},"arcs":[826]},{"type":"MultiLineString","properties":{"kind":"major_road","network":"pl:national","sort_rank":380,"kind_detail":"primary","source":"openstreetmap.org","min_zoom":8.0,"shield_text":"15","ref":"15;92"},"arcs":[[827],[828],[829],[830],[831],[832],[833],[834],[835],[836]]}]},"earth":{"type":"GeometryCollection","geometries":[{"type":"Polygon","properties":{"sort_rank":10,"source":"naturalearthdata.com","kind":"earth","min_zoom":0.0,"id":4754},"arcs":[[837]]}]},"landuse":{"type":"GeometryCollection","geometries":[{"type":"MultiPolygon","properties":{"source":"naturalearthdata.com","kind":"urban_area","name":"","area":3224056023,"sort_rank":11,"min_zoom":4.0},"arcs":[[[838]],[[839]],[[840]],[[841]],[[842]],[[843]],[[844]]]},{"type":"MultiPolygon","properties":{"kind":"nature_reserve","protect_class":"5","area":96226639,"sort_rank":23,"source":"openstreetmap.org","min_zoom":8.0,"tier":2,"osm_relation":true},"arcs":[[[845]]]},{"type":"MultiPolygon","properties":{"source":"openstreetmap.org","kind":"aerodrome","tier":3,"area":52099276,"sort_rank":60,"min_zoom":8.0},"arcs":[[[846]]]},{"type":"MultiPolygon","properties":{"kind":"national_park","protect_class":"2","area":16839300,"sort_rank":18,"source":"openstreetmap.org","min_zoom":8.0,"tier":1,"id":-6252649,"osm_relation":true},"arcs":[[[847]],[[848]]]},{"type":"MultiPolygon","properties":{"kind":"nature_reserve","protect_class":"5","area":3436849091,"sort_rank":23,"source":"openstreetmap.org","min_zoom":6.0,"tier":2,"osm_relation":true},"arcs":[[[849]],[[850]],[[851]],[[852]],[[853]],[[854]]]}]}},"type":"Topology","transform":{"translate":[16.875,51.6180165488],"scale":[0.0003433228,0.0002111239]},"arcs":[[[1795,0],[-155,71],[-77,-9],[-237,80],[-210,-24],[-48,-28],[1,-35],[-24,21],[-53,-21],[-13,-55]],[[3915,4096],[4,0]],[[4027,4096],[13,0]],[[4096,2936],[-64,-35],[-635,179],[-517,55],[-133,132],[-163,63],[-616,93],[-125,-30],[-116,52],[-364,71],[-299,151],[-458,59],[-88,-9],[-213,82],[-70,-29],[-106,8],[-49,-180],[-80,11]],[[107,3708],[-1,-6],[3,16],[-2,-10]],[[4007,2907],[1,-1],[16,-4],[-17,5]],[[113,3734],[-20,-73],[-7,-51],[0,-5],[1,-6],[2,-6],[3,-5],[3,-2],[12,-10],[5,-4],[66,-32],[287,-281],[9,-6],[17,-10],[497,-280],[54,-45],[150,-100],[13,-35],[-6,-110],[0,-6],[0,-5],[1,-6],[1,-8],[2,-5],[2,-5],[3,-7],[38,-73],[19,-100],[35,-149],[4,-12],[27,-67],[9,-22],[5,-9],[28,-40],[36,-73],[5,-7],[6,-6],[4,-4],[5,-3],[5,-3],[5,-2],[87,-32],[121,-110],[37,-79],[25,-70],[3,-7],[3,-5],[3,-5],[2,-2],[6,-6],[3,-2],[60,-43],[12,-16],[2,-79],[2,-6],[2,-5],[3,-6],[4,-5],[6,-4],[6,-4],[68,-35],[7,-3],[228,-69],[11,-6],[64,-41],[5,-3],[5,-3],[6,-2],[8,-3],[64,-14],[68,-35],[5,-2],[72,-25],[9,-4],[76,-50],[71,-363],[1,-5],[7,-22],[50,-150],[4,-16],[27,-241],[9,-53],[7,-74],[13,-233],[9,-73],[-3,-50]],[[113,3736],[-21,-147],[84,-47],[289,-283],[523,-296],[205,-145],[13,-35],[-5,-134],[45,-91],[94,-350],[34,-51],[46,-84],[106,-44],[120,-109],[8,-11],[30,-69],[31,-82],[74,-57],[12,-17],[13,-101],[316,-115],[316,-138],[77,-50],[70,-363],[59,-177],[3,-13],[36,-294],[7,-77],[22,-306],[-1,-50]],[[109,3718],[-32,-123],[-18,-6],[-7,3],[-20,14],[-7,3],[-23,0]],[[32,3606],[19,-14],[4,-2],[4,-1],[3,0],[3,0],[3,1],[3,1],[3,1],[3,2],[3,4],[3,5],[2,5],[6,25],[19,85]],[[0,3609],[80,-11],[49,180],[106,-8],[70,29],[213,-82],[88,8],[458,-58],[294,-149],[369,-73],[110,-51],[131,29],[616,-93],[163,-64],[133,-131],[517,-55],[635,-180],[64,36]],[[115,3778],[-2,3],[-3,2],[-3,3],[-3,1],[-48,15],[-16,14],[-7,18],[-2,59],[-1,5],[-1,6],[-4,11],[-3,6],[-22,31]],[[0,3952],[29,-48],[4,-70],[7,-18],[16,-14],[59,-25]],[[4096,2936],[-64,-35],[-635,179],[-517,55],[-133,132],[-163,63],[-616,93],[-125,-30],[-116,52],[-364,71],[-299,151],[-458,59],[-88,-9],[-213,82],[-70,-29],[-106,8],[-49,-180],[-80,11]],[[2710,133],[8,146],[12,5],[76,12],[286,104],[12,0],[63,-18],[78,7],[20,21],[14,46],[11,15],[198,122]],[[3488,593],[6,3]],[[2710,126],[8,153],[12,5],[63,8],[6,1],[7,2],[286,105],[14,0],[53,-16],[3,-1],[5,-1],[6,0],[47,2],[18,3],[4,1],[3,1],[5,3],[3,2],[10,13],[2,3],[3,6],[11,40],[11,15],[50,26],[150,97]],[[3490,594],[2,1]],[[3490,594],[-2,-1]],[[3492,595],[38,-16],[5,-18],[-9,-24],[1,-14],[28,-21],[17,8],[22,35],[42,5],[113,-10],[55,2],[13,6],[51,51],[33,0]],[[3901,599],[2,0]],[[3494,596],[-2,-1]],[[3494,596],[4,2],[5,1],[5,-1],[5,-1],[4,-2],[3,-3],[9,-11],[2,-3],[2,-4],[1,-5],[1,-4],[0,-4],[-1,-4],[-1,-4],[-7,-16],[1,-14],[28,-21],[16,8],[5,8],[2,12],[1,3],[2,3],[2,2],[3,4],[4,2],[4,1],[36,5],[6,0],[71,-3],[42,-6],[55,1],[13,6],[45,47],[5,3],[5,3],[3,1],[4,0],[5,0],[15,-2]],[[3899,600],[53,-8]],[[3952,592],[11,-2]],[[3901,599],[-2,1]],[[3952,592],[3,-1]],[[3963,590],[133,-20]],[[3963,590],[133,-20]],[[301,3800],[16,136],[-18,160]],[[603,3924],[-217,-82],[-9,-3],[-80,-41],[-12,-5],[-29,-16]],[[262,3780],[552,232],[320,56],[98,28]],[[1231,4096],[-168,-40]],[[105,3712],[4,22],[6,14],[4,16],[-1,4],[-1,5],[-2,5],[-3,4],[-2,2],[-3,2],[-3,1],[-3,1],[-20,6],[-81,22]],[[0,3816],[112,-34],[-7,-70]],[[0,3609],[80,-11],[49,180],[106,-8],[70,29],[213,-82],[88,8],[458,-58],[294,-149],[369,-73],[110,-51],[131,29],[616,-93],[163,-64],[133,-131],[517,-55],[635,-180],[64,36]],[[107,3704],[-1,-2],[1,5],[3,13],[-3,-16]],[[4007,2907],[1,-1],[16,-4],[-17,5]],[[0,3240],[22,61],[3,11],[57,268],[23,132]],[[105,3712],[-105,-471]],[[2892,261],[-35,-41]],[[2867,229],[25,32]],[[3153,398],[-261,-137]],[[3424,587],[-18,-14]],[[3407,574],[17,12]],[[36,3884],[-36,-1]],[[96,3908],[-17,-9]],[[99,3909],[-3,-1]],[[96,3908],[3,0]],[[100,3909]],[[106,3908],[4,0]],[[111,3908],[46,1]],[[301,3829],[24,0]],[[325,3829],[-24,0]],[[353,3843],[-28,-14]],[[353,3843],[18,9]],[[372,3853],[-11,-5],[-8,-5]],[[392,3847],[2,-2]],[[394,3845],[-1,2]],[[406,3823],[-12,22]],[[665,3731],[-38,3]],[[627,3733],[16,-2],[22,-1]],[[1935,3307],[-30,61],[-15,16],[-139,70]],[[1751,3453],[29,-18],[46,-23],[65,-30],[43,-75]],[[2026,3286]],[[2026,3286],[10,7]],[[2036,3293],[3,2]],[[4029,2820],[11,-13]],[[4040,2807],[-6,7]],[[2865,210],[29,-51]],[[2895,160],[-5,11],[-23,38]],[[4007,2866],[22,-46]],[[4034,2814],[-26,53]],[[266,3834],[-1,1]],[[560,340],[17,0]],[[3153,398],[225,165]],[[3378,563],[29,11]],[[3406,573],[-21,1],[-7,-11]],[[3557,1059],[-13,-213]],[[3754,2120],[-64,-453],[-115,-346],[-17,-260]],[[3867,2522],[-90,-128],[-32,-261]],[[3745,2133],[3,-3]],[[3749,2130],[-4,3]],[[3749,2129],[5,-9]],[[3754,2120],[-4,9]],[[3892,2609],[-19,-78]],[[3892,2609],[14,17]],[[3915,2638],[-9,-12]],[[3915,2638],[26,48],[2,137]],[[3943,2823],[-3,-9],[-5,-33],[-1,-4],[0,-6],[-1,-55],[8,-29],[-13,-19],[-13,-30]],[[3950,2833],[-7,-10]],[[4031,3263],[2,-5]],[[4033,3264],[-1,0]],[[4033,3258],[-1,5]],[[4032,3263],[1,1]],[[4096,3320],[-63,-56]],[[4048,3175],[-15,83]],[[3750,2130],[-1,0],[-1,0],[1,-1],[1,1]],[[4032,3264],[-1,0],[0,-1]],[[4031,3263],[1,0],[0,1]],[[612,814],[-114,-2]],[[593,771],[140,-73]],[[178,3730],[2,0]],[[3481,718],[-5,-5]],[[3481,718],[3,4]],[[3483,722],[-2,-4]],[[3483,723]],[[3489,728],[-5,-5]],[[3485,722],[0,1]],[[3485,723],[4,6]],[[3508,759],[27,30]],[[3536,786],[1,0]],[[3537,786],[0,-1]],[[3538,784],[0,1]],[[175,3737],[-7,11]],[[174,3735],[1,0]],[[685,2982],[27,-10]],[[712,2972],[-27,10]],[[1045,2889],[-333,83]],[[2894,159],[21,-54],[-40,-105]],[[2876,0],[39,105],[-20,55]],[[2855,225],[10,-15]],[[2867,209],[-1,2]],[[744,2963],[8,-2]],[[875,2920],[12,-4]],[[939,2900],[12,-1]],[[1011,2892],[15,-1]],[[1047,2888],[-10,2]],[[1226,2808],[-58,7]],[[1235,2801],[-9,7]],[[1319,2698],[-84,103]],[[1319,2698],[11,-4]],[[1458,2628],[-128,66]],[[1464,2622],[-6,6]],[[1458,2628],[6,-7]],[[2575,1334],[1,-14]],[[2576,1320],[1,11]],[[2671,1237],[-79,35],[-16,48]],[[2577,1332],[0,1]],[[2766,525],[20,65]],[[2836,704],[0,64]],[[180,3730],[2,0]],[[101,3908],[5,0]],[[208,3899],[5,-2]],[[247,3855],[5,-6]],[[1639,392],[-21,-13]],[[1639,392],[2,1]],[[1640,393],[-1,-1]],[[1641,394],[-1,-1],[1,0],[1,1],[-1,0]],[[3451,657],[0,-1]],[[3452,660],[-1,-1]],[[3452,660],[-1,5]],[[3451,656],[1,1]],[[3454,640],[-3,16]],[[3452,659],[0,1]],[[3452,658],[0,1],[-1,0],[0,-1],[1,0]],[[32,3844],[-32,3]],[[138,3796],[1,-1]],[[158,3780]],[[291,3703],[-56,19]],[[178,3730],[-1,5]],[[1306,3844],[-12,-9]],[[1294,3834],[11,9]],[[1880,1594],[1,-1]],[[1881,1593],[0,1]],[[2100,1516],[-115,18],[-104,59]],[[2100,1516],[33,-6]],[[2133,1510],[-8,5],[-25,1]],[[2230,1434],[-97,76]],[[2240,1429],[-10,5]],[[2572,1335],[-332,94]],[[2572,1335],[3,-1]],[[2577,1333],[-5,2]],[[2577,1331],[0,1]],[[1981,3297],[-1,0]],[[1981,3297]],[[1999,3335],[-18,-38]],[[1994,3369],[2,1]],[[1999,3338],[-5,31]],[[1996,3370],[7,-1]],[[1999,3338],[0,-2]],[[2000,3337],[-1,1]],[[1999,3335],[1,1]],[[2000,3336],[-1,-1]],[[2004,3369],[-1,0]],[[2003,3369],[1,-1]],[[2005,3371],[0,-1]],[[2005,3371],[10,115]],[[2005,3369],[0,2]],[[2000,3337],[-1,-1]],[[1999,3336],[1,0]],[[2000,3336],[1,0],[-1,1]],[[2005,3369],[0,1],[-1,-1],[1,-1],[0,1]],[[506,427],[44,122]],[[78,3481],[-6,-9]],[[135,3625],[-57,-144]],[[136,3625]],[[136,3625]],[[151,3623],[-15,1]],[[156,3621]],[[199,3716],[8,-5]],[[212,3708],[15,-6]],[[227,3702]],[[2697,1332],[-34,-4]],[[3095,1089],[1,0],[-1,1],[-1,-1],[1,0]],[[2644,1328],[-54,2]],[[3538,785],[-3,4]],[[3537,786],[1,-2]],[[299,3829],[2,0]],[[371,3852],[4,1]],[[375,3853],[-3,0]],[[386,3853],[-11,0]],[[393,3847],[-7,6]],[[386,3853],[6,-6]],[[406,3680],[1,1]],[[1661,840],[-25,-329]],[[1684,977],[2,4]],[[1780,1218],[-16,168],[32,81]],[[430,1253],[-31,3]],[[54,1639],[22,2]],[[456,3733],[22,-2]],[[494,3744],[-4,-13]],[[553,3817],[-1,-11]],[[726,3941],[-1,15]],[[836,3986],[19,11]],[[1229,4040],[-16,26]],[[2724,3289],[37,-20]],[[3404,2976]],[[3553,2959],[-6,1]],[[3547,2959],[6,0]],[[3555,2959],[-2,0]],[[3727,2948],[-16,7]],[[3547,2959],[0,1]],[[3547,2960],[-1,0],[0,-1],[1,0]],[[3572,705],[-7,-4]],[[3894,2911],[-2,-1]],[[3892,2910],[2,0]],[[484,3730],[1,1],[1,2]],[[486,3733]],[[485,3733],[1,0]],[[486,3733],[1,-1],[3,-1]],[[133,1419],[-2,1]],[[151,3623],[5,-2]],[[207,3711],[5,-3]],[[99,3909],[0,-1]],[[69,1652],[77,18],[39,43]],[[192,3906],[11,-4]],[[203,3902],[5,-3]],[[207,3900],[-4,2]],[[124,1822],[1,-2]],[[3570,730],[15,-15]],[[3538,787],[0,-1]],[[3538,786],[0,1]],[[3544,846],[-6,-59]],[[3987,2880],[-37,-47]],[[4007,2866],[6,3]],[[4013,2869],[-5,-2]],[[4036,2885],[-23,-16]],[[4036,2885],[4,2]],[[4039,2889],[-3,-4]],[[4066,2933],[-18,242]],[[4066,2933],[-4,-10]],[[4063,2923],[2,4],[1,6]],[[3462,617],[2,1]],[[17,3299],[-16,-31]],[[1642,429],[0,1],[-1,0],[0,-1],[1,0]],[[157,3909],[35,-3]],[[252,3849],[14,-16]],[[301,3829],[-2,1]],[[418,3702],[1,2]],[[494,3744],[13,9]],[[169,3758],[-5,9]],[[33,1486],[20,151]],[[560,340],[-54,87]],[[996,4004],[37,16],[59,-21],[15,-32],[89,-23]],[[1209,4007],[20,32]],[[3535,750],[1,12]],[[3536,764],[2,19]],[[3538,784],[0,-1]],[[3538,783],[0,2]],[[3542,735],[10,-12]],[[1,3268],[-1,-2]],[[32,3331],[2,6]],[[486,3733],[-1,0]],[[178,1730],[7,-17]],[[429,1258],[36,9]],[[498,812],[1,111]],[[625,348],[-8,-45],[-40,37]],[[593,771],[19,43]],[[86,1453],[15,-27]],[[125,1820],[50,-72]],[[1323,0],[135,128]],[[1461,135],[-3,-7]],[[1458,128],[6,6]],[[1466,2622],[-2,-1]],[[1464,2621],[2,1]],[[1466,2622],[144,60]],[[1467,136],[147,198]],[[1615,335],[3,44]],[[1641,430],[-5,81]],[[1641,395],[0,-1]],[[1641,395],[1,34]],[[1641,394],[0,1]],[[1686,989],[-25,-149]],[[1686,981],[0,8]],[[1686,989],[94,229]],[[1773,2755],[-44,-23]],[[1773,2755],[6,0]],[[1786,2756],[-7,-1]],[[1871,2945],[-86,-162]],[[1796,1467],[32,145]],[[1877,2952],[-6,-7]],[[1956,3165],[-79,-213]],[[1956,3165],[0,6]],[[1956,3171],[0,-6]],[[1956,3171],[1,1],[-2,0],[1,-1]],[[1957,3178],[-1,-5]],[[1956,3173],[1,5]],[[1964,3258],[-7,-80]],[[1964,3260],[0,-2]],[[1964,3258],[1,2]],[[1980,3297],[0,-1]],[[1980,3296],[1,1]],[[2015,3486],[49,164],[28,446]],[[1614,335],[0,-1],[1,0],[0,1],[-1,0]],[[69,1652],[7,-11]],[[3458,626],[-4,14]],[[3458,626],[3,-7]],[[3462,620],[-4,6]],[[2840,206],[-48,-39]],[[2793,166],[10,7]],[[2803,174],[4,3]],[[2809,179],[17,14]],[[2828,194],[21,19]],[[2849,213],[-7,-5]],[[1895,1714],[-2,0],[1,-1],[1,0],[0,1]],[[213,3897],[34,-42]],[[172,3752],[0,-4]],[[4009,2862],[1,4]],[[3463,699],[-6,-6]],[[3458,692],[5,7]],[[3463,699],[13,14]],[[3462,620],[-1,-1]],[[620,3879],[3,1]],[[2836,768],[26,62],[-21,103],[-48,120],[-94,79],[-28,105]],[[2749,422],[-3,-13]],[[2746,397],[3,25]],[[2766,525],[-17,-103]],[[2786,590],[50,114]],[[65,3819],[-30,25]],[[164,3767],[-1,3]],[[182,3730],[4,1]],[[548,3833],[5,-16]],[[572,3844],[4,9]],[[576,3853],[44,26]],[[175,3735],[1,0]],[[3490,729],[-1,-1]],[[3489,729],[1,0]],[[3490,729],[18,30]],[[2803,173],[0,1]],[[2807,177],[2,2]],[[2826,193],[2,1]],[[2842,208],[-2,-2]],[[1610,2682],[70,29]],[[1681,2712],[48,20]],[[460,3745],[-15,8]],[[446,3751],[14,-7]],[[187,3697],[0,-2]],[[397,1261],[2,-5]],[[3458,691],[0,1]],[[99,3908],[2,0]],[[299,3830],[-33,4]],[[266,3833],[33,-4]],[[1883,1714],[11,-11]],[[1894,1703],[-3,4]],[[430,3779],[-24,44]],[[430,3779],[16,-28]],[[445,3753],[-15,26]],[[627,3734],[-18,2]],[[609,3735],[18,-2]],[[665,3730],[101,-28],[24,-5],[36,-1],[53,-12],[80,9],[66,17],[49,-13],[20,-2],[120,-69],[11,-2],[16,-1],[6,-1],[35,-2]],[[1282,3620],[12,-1],[16,-7]],[[1310,3612],[41,-19],[10,-8],[4,-2]],[[1365,3583],[14,-6]],[[1379,3577],[9,-4],[16,-6],[1,0]],[[1405,3567],[44,-2]],[[1449,3565],[10,-1],[20,1],[88,-12],[72,-53]],[[1639,3500],[18,-14]],[[1657,3486],[3,-1],[91,-32]],[[1751,3454],[-24,13],[-5,0],[-65,19]],[[1657,3486],[-1,1],[-17,13]],[[1639,3500],[-64,49],[-8,4],[-65,12],[-11,1],[-11,0],[-3,0],[-4,-1],[-24,0]],[[1449,3565],[-35,-1],[-3,1],[-6,2]],[[1405,3567],[-10,4],[-4,1],[-12,5]],[[1379,3577],[-4,1],[-7,3],[-3,2]],[[1365,3583],[-6,4],[-14,11],[-18,9],[-17,5]],[[1310,3612],[-28,8]],[[1282,3620],[-3,1],[-54,3],[-122,69],[-76,18],[-143,-26],[-219,46]],[[1934,3307],[4,-18]],[[1939,3288],[-4,19]],[[1938,3287],[0,-1]],[[1938,3289],[0,-2],[1,0],[0,1]],[[1939,3288],[-1,1]],[[1938,3286],[0,1]],[[1938,3286],[24,-24]],[[1966,3262],[-4,0]],[[1962,3262],[2,-2]],[[1964,3261],[-2,1]],[[1980,3295],[2,0]],[[1982,3295],[-1,0]],[[1982,3295],[44,-9]],[[2039,3295],[17,14]],[[2056,3309],[3,2]],[[2059,3311],[-3,-2]],[[2059,3311],[1,0],[0,1]],[[2060,3312],[-1,0],[0,-1]],[[2062,3314],[-2,-2]],[[2060,3312],[2,2]],[[2062,3314],[92,42],[487,-36],[83,-31]],[[2761,3269],[124,-86]],[[2885,3183],[0,-1]],[[2886,3183],[-1,0]],[[2886,3182],[1,-2]],[[2887,3180],[-1,2]],[[2887,3180],[14,-26],[54,-6]],[[2955,3148],[3,-1]],[[2958,3148],[-3,0]],[[2959,3147],[2,-1]],[[2960,3147],[-1,1],[-1,-1],[1,0],[1,0]],[[2961,3146],[-1,1]],[[3404,2976],[-246,30],[-197,140]],[[3542,2960],[-138,16]],[[3542,2960],[4,-1]],[[3546,2960],[-4,0]],[[3711,2955],[-156,4]],[[3757,2941],[-30,7]],[[3757,2941],[17,-4]],[[3805,2930],[-31,7]],[[3805,2930],[16,-4]],[[3841,2922],[-20,4]],[[4040,2807],[22,-29],[5,-6]],[[4066,2774],[-26,33]],[[2886,3182],[0,1],[-1,-1],[1,-1],[0,1]],[[111,3908],[-11,1]],[[265,3835],[-58,65]],[[787,16],[71,138],[-33,86],[-204,109]],[[3424,586],[4,3]],[[3429,591],[-5,-4]],[[45,3884],[-9,0]],[[3565,699],[1,-1]],[[3566,698],[-1,1]],[[3639,639],[-73,59]],[[163,3770],[0,3]],[[2761,165],[2,-1]],[[2785,166],[-5,-1]],[[3428,589],[34,28]],[[3461,619],[-32,-28]],[[3558,1061],[-1,-2]],[[375,1239],[0,-1]],[[434,1239],[0,1]],[[366,3430],[-5,22]],[[684,2983],[1,-1]],[[3483,723],[0,-1]],[[3484,723],[-1,0]],[[3484,722],[1,0]],[[3485,723]],[[101,3908],[-1,1]],[[4039,2888],[1,-1]],[[4042,2888],[-1,1]],[[1828,1612],[41,-9]],[[1871,1602]],[[1871,1602],[2,0]],[[1874,1602],[-3,0]],[[1874,1601],[5,-6]],[[1880,1596],[-4,5],[-2,1]],[[1874,1601],[0,1],[-1,0],[1,-1]],[[3867,2522],[6,9]],[[685,2982],[-70,43],[-7,1]],[[612,3025],[72,-42]],[[4045,2891],[-5,-2]],[[4058,2914],[-6,-15]],[[4058,2914],[5,9]],[[4062,2923],[-4,-9]],[[189,3723],[0,1]],[[1461,135],[6,1]],[[399,1256],[-24,-17]],[[375,1238],[21,-8]],[[396,1230],[1,-2]],[[396,1230],[1,-3]],[[401,1228],[33,11]],[[717,3325],[87,-44],[22,-8],[2,0]],[[828,3273],[505,4]],[[1333,3277],[73,0],[169,36],[25,5],[11,1]],[[1611,3319],[2,0],[283,-11],[4,-1]],[[1900,3307],[8,-2],[18,-5],[49,-15],[136,-24],[179,-68],[201,-114],[297,-79],[231,-99],[339,-130]],[[3363,2769],[-34,16],[-154,57],[-59,26],[-97,33],[-230,100],[-298,78],[-205,117],[-174,65],[-209,46],[-3,0]],[[1900,3307],[-289,12]],[[1611,3319],[-3,0],[-34,-5],[-168,-36],[-73,-1]],[[1333,3277],[-492,-7],[-7,1],[-6,2]],[[828,3273],[-9,3],[-14,5],[-79,40]],[[4096,2536],[-63,21],[-129,21],[-49,9],[-11,3]],[[3844,2590],[-1,0],[-11,4]],[[3832,2594],[-106,33],[-68,26],[-148,51]],[[3519,2700],[207,-74],[106,-32]],[[3832,2594],[12,-4]],[[3844,2590],[12,-4],[240,-63]],[[48,3411],[0,1]],[[485,3733],[-25,12]],[[460,3744],[38,-18],[11,-5],[6,0],[23,5],[43,14],[28,-5]],[[609,3736],[-21,4],[-8,1],[-60,-18],[-34,10]],[[174,3735],[1,2]],[[1869,1603],[2,-1]],[[65,3819],[72,-25]],[[139,3795],[19,-15]],[[173,3755],[-4,3]],[[189,3723],[1,-3]],[[232,3721],[-7,-19],[-34,16]],[[235,3722],[-3,-1]],[[296,3702],[-5,1]],[[333,3716],[1,-1]],[[346,3689],[52,-8]],[[1464,2621],[3,-4]],[[1467,2617],[-3,5]],[[1472,2562],[-5,55]],[[1472,2562],[2,-17]],[[1490,2357],[-16,188]],[[1490,2357],[2,-15]],[[1505,2238],[-13,104]],[[1505,2238],[5,-16]],[[1584,2172],[-74,50]],[[1584,2172],[5,-11]],[[1589,2161],[-1,4],[-4,7]],[[1714,1996],[-54,31],[-71,134]],[[1714,1996],[6,-12]],[[1725,1979],[-11,17]],[[1881,1596],[0,-1]],[[1881,1595],[0,1]],[[1881,1596],[16,86]],[[1785,2783],[1,-27]],[[100,3909],[-1,0]],[[418,3700],[0,2]],[[420,3704],[12,7]],[[478,3731],[6,-1]],[[623,3880],[103,61]],[[725,3956],[111,30]],[[958,3992],[38,12]],[[1207,4008],[2,-1]],[[1229,4039],[0,1]],[[914,426],[16,3]],[[1024,463],[-22,-22]],[[486,3733],[-1,0]],[[572,3844],[-24,-11]],[[315,1238],[-182,27],[-133,-29]],[[369,1237],[-52,1]],[[369,1237],[5,0]],[[374,1238],[-5,-1]],[[375,1239],[-1,-1]],[[375,1238]],[[397,1227],[4,1]],[[434,1239],[0,1]],[[952,1423],[-81,3],[-63,-75],[-151,-70],[-187,-31]],[[952,1423],[17,7]],[[969,1430],[134,92]],[[1103,1522],[10,9]],[[1113,1531],[117,130],[85,-1],[92,40],[354,-36],[16,-47],[51,-5]],[[2575,1334],[2,-3]],[[2590,1330],[-13,3]],[[2577,1332],[13,-2]],[[2663,1328],[-19,0]],[[3093,1092],[-151,135],[-245,105]],[[3093,1092],[1,-2]],[[3095,1090],[-2,2]],[[3095,1089],[2,-4]],[[3097,1085],[-1,4]],[[3308,786],[-66,63],[-42,115],[-103,121]],[[3901,576],[20,2]],[[3923,579],[-2,-1]],[[3921,578],[2,0]],[[3924,578],[1,0]],[[3925,578],[-1,1]],[[4096,513],[-171,65]],[[317,1238],[-1,1],[-1,-1],[1,-1],[1,1]],[[3923,578],[1,1],[-1,1],[0,-1],[0,-1]],[[48,3411]],[[398,3681],[8,-1]],[[407,3681],[11,19]],[[432,3711],[24,22]],[[552,3806],[4,-22],[-49,-31]],[[1168,2815],[-123,74]],[[4039,2888],[2,-1],[1,1],[-2,1],[-1,-1]],[[78,3481]],[[187,3695],[-7,-5]],[[199,3716],[-12,-19]],[[79,3899],[-34,-15]],[[3901,576],[-71,-15],[-80,52],[-111,26]],[[3988,2880],[17,-7]],[[3989,2881],[-1,1],[-1,-2],[1,0],[1,1]],[[4006,2872],[-4,4],[-13,5]],[[399,1228],[-2,0]],[[374,1238],[0,-1],[0,1]],[[1196,3944],[12,57]],[[48,3412],[24,60]],[[1890,1703],[0,-1]],[[1894,1713],[-1,-2]],[[3358,2771],[59,-31],[102,-40]],[[3510,2704],[-147,65]],[[2854,218],[-5,-5]],[[2849,213],[6,4]],[[2608,1326],[-18,4]],[[1881,1593],[1,4]],[[2576,1332],[0,-3]],[[57,49],[-57,23]],[[57,49],[1,-2]],[[59,48],[-2,1]],[[61,49],[-2,-1]],[[60,47],[1,2]],[[61,49],[171,123]],[[232,172],[11,4]],[[243,176],[6,1]],[[249,177],[2,2]],[[251,179],[221,89],[88,72]],[[577,340],[337,86]],[[930,429],[72,12]],[[1618,379],[-109,74],[-214,84],[-124,-8],[-147,-66]],[[1644,395],[-3,-1]],[[1642,394],[2,1]],[[1644,395],[28,-38]],[[1672,357],[0,-3]],[[1673,355],[-1,2]],[[1673,355],[0,-1]],[[1673,354],[2,-1]],[[1675,353],[-2,1]],[[1675,353],[65,-41]],[[1740,312],[0,-1]],[[1740,311],[0,1]],[[1741,310],[10,-10]],[[1741,310],[-1,1]],[[1740,311],[0,-1],[1,0]],[[1752,301],[-11,9]],[[1752,299],[2,-2]],[[1754,297],[-2,3]],[[1754,297],[64,-46],[80,31],[242,-70]],[[2615,192],[-407,-17],[-67,37]],[[2617,192],[-2,0]],[[2615,192],[2,0]],[[2617,192],[2,0]],[[2619,192],[-2,0]],[[2654,186],[-35,6]],[[58,46],[1,0],[1,1],[-1,1],[-1,-2]],[[1752,300],[0,1],[-1,-1],[1,-1]],[[1752,299],[0,1]],[[2617,192]],[[1793,1857],[90,-143]],[[1891,1707],[-97,150]],[[3891,2910],[-50,12]],[[3892,2910],[-1,0]],[[3891,2910],[1,0]],[[2857,220],[-3,-2]],[[2855,217],[12,12]],[[2690,180],[-36,6]],[[2690,180],[2,0]],[[2694,180],[-4,0]],[[2715,174],[2,1]],[[2717,175],[4,2],[13,-5],[3,-2]],[[2737,170],[1,-1],[9,-3],[14,-1]],[[2780,165],[-31,1],[-10,4],[-2,0]],[[2737,170],[-20,5]],[[2717,175],[-2,0]],[[2763,164],[19,1],[11,1]],[[2792,167],[-7,-1]],[[4052,2899],[-11,-12]],[[3461,619]],[[3462,617]],[[3464,618],[-2,2]],[[189,3724],[-2,17]],[[4005,2873],[2,-7]],[[4008,2867],[-2,5]],[[0,3486],[195,-16]],[[196,3471],[-196,16]],[[72,3472]],[[171,3681],[9,9]],[[1760,1664],[1,-1]],[[2577,1333],[-1,-1]],[[365,3432],[2,-6],[16,-19],[9,-5]],[[392,3402],[-26,28]],[[398,3398],[54,-44]],[[453,3354],[-54,44]],[[458,3345],[33,-47]],[[491,3300],[-32,43]],[[500,3269],[85,-230]],[[586,3038],[-85,232]],[[358,3465],[7,-33]],[[361,3452],[-3,13]],[[758,3324],[6,5],[198,227],[109,61],[88,126],[13,5],[122,86]],[[1294,3835],[-136,-91],[-87,-126],[-109,-61],[-199,-228]],[[1305,3843],[184,126],[100,127]],[[1589,4096],[-103,-129],[-180,-123]],[[170,3679],[-14,-58]],[[170,3679],[1,2]],[[726,3321],[-75,37],[-32,14],[-123,42],[-75,23],[-16,4],[-38,7],[-43,6]],[[338,3451],[379,-126]],[[1893,1711],[1,1]],[[4075,2769],[-9,5]],[[4067,2772],[8,-3]],[[4075,2769],[21,-7]],[[136,3625],[-1,0]],[[136,3625],[0,-1]],[[227,3702]],[[3535,750],[7,-15]],[[3536,759],[0,-2]],[[3536,762],[0,-2]],[[3536,760],[0,-1]],[[3536,759],[1,0]],[[3537,760],[-1,0]],[[3557,728],[-5,-4]],[[3552,723],[5,5]],[[3557,728],[13,2]],[[3565,701],[0,-2]],[[3565,699],[1,2]],[[3585,715],[-13,-10]],[[35,3338],[2,16]],[[37,3355],[11,56]],[[158,3780],[5,-7]],[[173,3755],[-1,-3]],[[176,3735],[1,0]],[[190,3720],[1,-2]],[[332,3713],[-36,-11]],[[332,3713],[0,2]],[[332,3715],[1,1]],[[4009,2866],[-1,-2]],[[195,3470],[143,-19]],[[324,3454],[-128,17]],[[3483,722],[1,0]],[[3485,723],[-1,0]],[[96,1833],[9,0]],[[178,1730],[-3,18]],[[755,0],[32,16]],[[3461,619],[1,-2]],[[623,2956],[4,-41],[-16,66]],[[611,2981],[-6,10],[-9,11],[-1,-9],[16,-12]],[[611,2981],[12,-25]],[[2692,180],[14,-1]],[[2706,180],[-12,0]],[[2709,178],[6,-4]],[[2715,175],[-6,3]],[[35,3844],[-3,0]],[[138,3796],[-1,-2]],[[232,3721]],[[334,3715],[12,-26]],[[4067,2646],[-21,73]],[[1680,2711],[1,1]],[[3457,692],[-5,-11],[-1,-10]],[[3451,671],[0,-1]],[[3451,670],[1,1],[-1,0]],[[3451,670],[0,-4]],[[3451,666],[0,4]],[[3451,665],[0,1]],[[3451,671],[6,20]],[[3896,2909],[2,-1]],[[3898,2908],[-2,2]],[[3947,2895],[-49,13]],[[3947,2895],[2,-1]],[[3985,2882],[-36,12]],[[3985,2882],[2,-2]],[[3987,2881],[-2,1]],[[3894,2910],[1,-1],[1,2],[-1,1],[-1,-2]],[[53,1637],[1,2]],[[397,1261],[-147,63],[-20,32],[-41,-6],[-56,69]],[[430,1253],[-1,5]],[[499,923],[63,127],[8,74],[-108,123]],[[465,1267],[5,-17]],[[550,549],[79,97],[91,16],[13,36]],[[470,1250],[-8,-3]],[[3446,698],[-138,88]],[[3446,698],[11,-6]],[[3457,692],[-11,6]],[[434,1240],[-4,13]],[[1880,1594],[1,0],[0,1],[-1,0],[0,-1]],[[1889,1700],[2,-1]],[[1893,1711],[-3,-9]],[[1891,1699],[-1,2]],[[1897,1682],[-6,17]],[[1889,1702],[0,-1],[1,-1],[0,2],[-1,0]],[[4047,2720],[-1,-1]],[[4047,2716],[0,4]],[[4069,2765],[-22,-45]],[[4073,2553],[-6,93]],[[4069,2765],[2,5],[0,1],[-1,-1],[-1,-5]],[[4071,2550],[0,-4]],[[4071,2546],[1,4]],[[4096,2500],[-25,46]],[[4073,2553],[-1,-2]],[[4073,2551],[0,2]],[[4071,2551],[0,-1]],[[4071,2550],[2,0],[0,1],[-2,0]],[[2709,178],[-3,2]],[[2706,179],[3,-1]],[[1720,1984],[73,-127]],[[1794,1857],[-13,33],[-56,89]],[[33,1486],[53,-33]],[[101,1426],[30,-6]],[[462,1247],[-27,-7]],[[63,51],[-8,0]],[[3536,764],[0,-2]],[[958,3992],[-103,5]],[[1213,4066],[-11,2]],[[1211,4096],[-8,-25]],[[1208,4001],[-1,7]],[[0,1900],[96,-67]],[[105,1833],[19,-11]],[[1464,2621]],[[1882,1597],[-3,0]],[[392,3402],[6,-4]],[[399,3398],[-7,4]],[[452,3354],[6,-9]],[[459,3343],[-6,11]],[[501,3270],[-10,30]],[[491,3298],[9,-29]],[[585,3039],[27,-14]],[[608,3026],[-22,12]],[[2746,409],[10,-51]],[[2756,358],[-10,39]],[[2825,247],[-42,29],[-27,82]],[[2825,247],[30,-22]],[[2866,211],[-41,36]],[[2141,212],[-1,0]],[[576,3853]],[[1966,3263],[-1,-2]],[[1966,3261],[0,2]],[[1966,3263],[4,9]],[[1970,3272],[2,7]],[[1972,3279],[7,14]],[[1979,3293],[1,2]],[[1979,3295],[0,-2]],[[1965,3260],[1,0],[-1,1],[-1,-1],[1,0]],[[1981,3295],[-1,1],[-1,0],[1,-1]],[[1980,3295],[1,0]],[[0,0],[0,4096],[4096,0],[0,-4096],[-4096,0]],[[3507,540],[-83,8],[0,64],[129,253],[50,7],[145,-60],[-24,-109],[-217,-163]],[[479,2127],[-113,26],[-37,46],[-12,86],[52,41],[60,-11],[45,-66],[5,-122]],[[4096,3178],[0,-313],[-12,-9],[-13,-45],[-77,-11],[-70,53],[-54,97],[-25,125],[159,91],[83,18],[9,-6]],[[393,4096],[22,-74],[129,0],[0,-52],[65,0],[25,-166],[39,-45],[-19,-68],[-77,121],[-104,23],[-26,29],[-56,-55],[10,-187],[-19,-74],[-129,0],[-52,-76],[-201,-79],[0,703],[393,0]],[[1967,3541],[130,-151],[-65,-105],[-184,42],[-77,45],[-30,124],[97,-53],[80,103],[49,-5]],[[1795,1857],[84,-86],[24,41],[27,-30],[-59,-181],[-117,166],[-13,98],[54,-8]],[[2747,64],[-88,64],[-12,157],[72,31],[187,-136],[-55,-95],[-104,-21]],[[928,4032],[93,15],[106,-19],[23,-17],[-10,-22],[64,-2],[15,61],[158,-148],[-41,-3],[-41,-73],[-4,35],[-73,34],[-71,-3],[-66,79],[-39,-9],[-41,45],[-42,-11],[-31,38]],[[168,3384],[36,66],[169,-115],[-42,-39],[-122,43],[-41,45]],[[0,3266],[28,61],[68,-8],[-2,-54],[-58,-11],[-36,-36],[0,48]],[[0,3203],[21,-16],[-21,-64],[0,80]],[[3763,4096],[-4,-44],[-69,-61],[-146,-65],[-108,-139],[-260,-154],[-46,-45],[-6,-64],[-169,17],[31,77],[-13,80],[-23,-7],[-8,28],[59,49],[-101,-6],[-79,62],[30,196],[-55,76],[967,0]],[[345,4072],[2,24],[135,0],[-46,-65],[-91,41]],[[0,2191],[0,54],[40,8],[-14,42],[-26,-5],[0,33],[40,-19],[27,50],[46,-6],[120,-86],[-42,-47],[95,-68],[-56,-48],[-18,-52],[-88,-11],[-85,-126],[114,-74],[5,-36],[-54,34],[-104,-11],[0,368]],[[1604,2645],[14,86],[101,17],[10,-16],[99,25],[17,42],[62,-4],[-22,-16],[4,-43],[-88,-4],[34,-54],[117,-22],[78,-71],[-3,-39],[146,-174],[-17,-5],[47,-90],[93,-116],[6,-94],[-117,-32],[-24,20],[-30,-32],[-53,1],[-5,-39],[-70,6],[-39,-31],[-83,207],[-90,29],[-31,49],[-73,-23],[0,-28],[-43,42],[5,62],[30,-13],[65,71],[33,-7],[18,95],[-125,53],[-66,148]],[[2245,2526],[61,-4],[132,193],[172,69],[129,22],[377,-5],[125,-56],[98,35],[240,-106],[-185,-167],[-99,34],[-54,54],[-103,-23],[-131,38],[-128,-3],[-132,44],[-38,-77],[-110,-10],[18,-33],[-88,-77],[-53,-14],[-62,103],[-98,-164],[-8,85],[-46,10],[-17,52]],[[0,2977],[48,56],[-42,19],[18,138],[-22,23],[37,38],[46,-33],[37,21],[15,-41],[-20,-36],[30,-12],[-13,-39],[50,-33],[-11,-79],[39,-103],[74,-29],[70,-73],[7,-65],[55,-65],[-23,-45],[12,-82],[-32,-64],[90,-76],[-14,-86],[-48,8],[-30,-35],[-71,158],[-74,10],[11,-50],[-75,36],[-21,81],[-16,-24],[-109,104],[63,99],[-51,69],[-30,-42],[0,252]]]}