{"objects":{"water":{"type":"GeometryCollection","geometries":[]},"buildings":{"type":"GeometryCollection","geometries":[]},"places":{"type":"GeometryCollection","geometries":[{"type":"Point","properties":{"name:pt":"Voivodia de Opole","name:sl":"Opoljsko vojvodstvo","name:sk":"Opolsk\u00e9","name:ja":"\u30aa\u30dd\u30fc\u30ec\u770c","name:ka":"\u10dd\u10de\u10dd\u10da\u10d4\u10e1 \u10e1\u10d0\u10d5\u10dd\u10d4\u10d5\u10dd\u10d3\u10dd","name:cs":"Opolsk\u00e9 vojvodstv\u00ed","kind":"region","min_zoom":4.0,"name:uk":"\u041e\u043f\u043e\u043b\u044c\u0441\u044c\u043a\u0435 \u0432\u043e\u0454\u0432\u043e\u0434\u0441\u0442\u0432\u043e","name:be":"\u0410\u043f\u043e\u043b\u044c\u0441\u043a\u0430\u0435 \u0432\u0430\u044f\u0432\u043e\u0434\u0441\u0442\u0432\u0430","name:ru":"\u041e\u043f\u043e\u043b\u044c\u0441\u043a\u043e\u0435 \u0432\u043e\u0435\u0432\u043e\u0434\u0441\u0442\u0432\u043e","name":"wojew\u00f3dztwo opolskie","id":505029615,"population":1037000,"name:eo":"Opola Provinco","name:en":"Opole Voivodeship","name:lt":"Opol\u0117s vaivadija","kind_detail":"state","name:de":"Woiwodschaft Oppeln","source":"openstreetmap.org","name:fr":"Vo\u00efvodie d'Opole","name:et":"Opole vojevoodkond","name:zh":"\u5967\u6ce2\u840a\u7701","name:es":"Voivodato de Opole"},"coordinates":[3079,722]},{"type":"Point","properties":{"name:sr":"\u0412\u0440\u043e\u0446\u043b\u0430\u0432","name:he":"\u05d5\u05e8\u05d5\u05e6\u05dc\u05d1","name:sk":"Vroclav","name:ja":"\u30f4\u30ed\u30c4\u30ef\u30d5","name:lt":"Vroclavas","name:ar":"\u0641\u0631\u0648\u062a\u0632\u0648\u0627\u0641","name:cs":"Vratislav","kind":"locality","min_zoom":8.0,"name:la":"Vratislavia","name:it":"Breslavia","name:uk":"\u0412\u0440\u043e\u0446\u043b\u0430\u0432","name:be":"\u0423\u0440\u043e\u0446\u043b\u0430\u045e","name:ru":"\u0412\u0440\u043e\u0446\u043b\u0430\u0432","name:bg":"\u0412\u0440\u043e\u0446\u043b\u0430\u0432","id":418392093,"population":634487,"name:lv":"Vroclava","name:eo":"Vroclavo","name:hu":"Boroszl\u00f3","name":"Wroc\u0142aw","kind_detail":"city","name:de":"Breslau","source":"openstreetmap.org","name:fr":"Wroclaw","name:yi":"\u05d1\u05e8\u05e2\u05e1\u05dc\u05d5\u05d9","name:zh":"\u5f17\u7f57\u8328\u74e6\u592b","name:es":"Breslavia"},"coordinates":[459,1731]},{"type":"Point","properties":{"kind":"locality","name":"Ole\u015bnica","name:lt":"Olesnica","kind_detail":"town","name:cs":"Ole\u0161nice","name:de":"Oels","source":"openstreetmap.org","min_zoom":8.0,"name:ru":"\u041e\u043b\u0435\u0441\u043d\u0438\u0446\u0430","id":259598892,"population":37303},"coordinates":[1472,2198]},{"type":"Point","properties":{"name:sr":"\u0411\u0436\u0435\u0433","name:lv":"B\u017eega","name:lt":"B\u017eegas","name:ur":"\u0628\u0631\u0632\u06af","name:th":"\u0e1a\u0e41\u0e0a\u0e01","name:uk":"\u0411\u0436\u0435\u0491 (\u043c\u0456\u0441\u0442\u043e)","name:be":"\u0413\u043e\u0440\u0430\u0434 \u0411\u0436\u044d\u0433","name:ru":"\u0411\u0436\u0435\u0433","name:bg":"\u0411\u0436\u0435\u0433","id":394581481,"population":36980,"kind":"locality","name":"Brzeg","kind_detail":"town","min_zoom":8.0,"name:de":"Brieg","source":"openstreetmap.org","name:zh":"\u5e03\u71b1\u683c"},"coordinates":[1735,581]},{"type":"Point","properties":{"kind":"locality","name":"O\u0142awa","name:lt":"Olava","kind_detail":"town","name:de":"Ohlau","source":"openstreetmap.org","min_zoom":8.0,"name:ru":"\u041e\u043b\u0430\u0432\u0430","id":323142704,"population":32240},"coordinates":[1225,959]},{"type":"Point","properties":{"kind":"locality","old_name:de":"Kreuzburg O.S.","name":"Kluczbork","name:lt":"Kliu\u010dborkas","kind_detail":"town","name:de":"Kreuzburg","source":"openstreetmap.org","min_zoom":8.0,"name:ru":"\u041a\u043b\u044e\u0447\u0431\u043e\u0440\u043a","id":56022628,"population":24544},"coordinates":[3900,1099]},{"type":"Point","properties":{"kind":"locality","name":"Namys\u0142\u00f3w","name:lt":"Namysluvas","kind_detail":"town","name:de":"Namslau","source":"openstreetmap.org","min_zoom":8.0,"name:ru":"\u041d\u0430\u043c\u044b\u0441\u043b\u0443\u0432","id":31794910,"population":16123},"coordinates":[2457,1581]},{"type":"Point","properties":{"kind":"locality","name":"K\u0119pno","name:lt":"Kempnas","kind_detail":"town","name:de":"Kempen","source":"openstreetmap.org","min_zoom":8.0,"name:ru":"\u041a\u0435\u043c\u043f\u043d\u043e","id":31795168,"population":14577},"coordinates":[3245,2527]},{"type":"Point","properties":{"kind":"locality","name":"Ostrzesz\u00f3w","kind_detail":"town","name:de":"Schildberg","source":"openstreetmap.org","min_zoom":8.0,"name:ru":"\u041e\u0441\u0442\u0448\u0435\u0448\u0443\u0432","id":31792851,"population":14515},"coordinates":[3082,3203]},{"type":"Point","properties":{"kind":"locality","name":"Trzebnica","kind_detail":"town","name:de":"Trebnitz","source":"openstreetmap.org","min_zoom":8.0,"name:ru":"\u0422\u0448\u0435\u0431\u043d\u0438\u0446\u0430","id":31785395,"population":12945},"coordinates":[546,2663]},{"type":"Point","properties":{"kind":"locality","name":"Strzelin","kind_detail":"town","name:de":"Strehlen","source":"openstreetmap.org","min_zoom":8.0,"name:ru":"\u0421\u0442\u0448\u0435\u043b\u0438\u043d","id":31916983,"population":12556},"coordinates":[567,206]},{"type":"Point","properties":{"kind":"locality","name":"Milicz","kind_detail":"town","name:de":"Militsch","source":"openstreetmap.org","min_zoom":8.0,"name:ru":"\u041c\u0438\u043b\u0438\u0447","id":31795532,"population":11758},"coordinates":[1158,3690]},{"type":"Point","properties":{"kind":"locality","old_name:de":"Polnisch-Wartenberg","name":"Syc\u00f3w","kind_detail":"town","name:de":"Gro\u00df Wartenberg","source":"openstreetmap.org","min_zoom":8.0,"name:ru":"\u0421\u044b\u0446\u0443\u0432","id":31786438,"population":10385},"coordinates":[2472,2665]},{"type":"Point","properties":{"kind":"locality","name":"Oborniki \u015al\u0105skie","kind_detail":"town","name:de":"Obernigk","source":"openstreetmap.org","min_zoom":8.0,"name:ru":"\u041e\u0431\u043e\u0440\u043d\u0438\u043a\u0438-\u0421\u043b\u0451\u043d\u0441\u043a\u0435","id":31793998,"population":9038},"coordinates":[109,2622]},{"type":"Point","properties":{"kind":"locality","old_name:de":"Werstadt","name":"Wierusz\u00f3w","kind_detail":"town","name:de":"Weruschau","source":"openstreetmap.org","min_zoom":8.0,"name:ru":"\u0412\u0435\u0440\u0443\u0448\u0443\u0432","id":31783882,"population":8848},"coordinates":[3717,2596]},{"type":"Point","properties":{"kind":"locality","name":"Twardog\u00f3ra","kind_detail":"town","name:de":"Festenberg","source":"openstreetmap.org","min_zoom":8.0,"name:ru":"\u0422\u0432\u0430\u0440\u0434\u043e\u0433\u0443\u0440\u0430","id":31785238,"population":6762},"coordinates":[1732,2918]},{"type":"Point","properties":{"kind":"locality","name":"\u017bmigr\u00f3d","kind_detail":"town","name:de":"Trachenberg","source":"openstreetmap.org","min_zoom":8.0,"name:ru":"\u0416\u043c\u0438\u0433\u0440\u0443\u0434","id":31781941,"population":6485},"coordinates":[97,3416]},{"type":"Point","properties":{"kind":"locality","name":"Siechnice","kind_detail":"town","name:de":"Tschechnitz","source":"openstreetmap.org","min_zoom":8.0,"name:ru":"\u0421\u0435\u0445\u043d\u0438\u0446\u0435","id":31788581,"population":6063},"coordinates":[803,1375]},{"type":"Point","properties":{"kind":"locality","name":"Lewin Brzeski","kind_detail":"town","name:de":"L\u00f6wen","source":"openstreetmap.org","min_zoom":8.0,"name:ru":"\u041b\u0435\u0432\u0438\u043d-\u0411\u0436\u0435\u0441\u043a\u0438\u0439","id":299491786,"population":6007},"coordinates":[2167,61]},{"type":"Point","properties":{"kind":"locality","name":"Wo\u0142czyn","kind_detail":"town","old_name:de":"Konstadt","source":"openstreetmap.org","min_zoom":8.0,"name:uk":"\u0412\u043e\u043b\u0447\u0438\u043d","name:ru":"\u0412\u043e\u043b\u0447\u0438\u043d","id":31783100,"population":5986},"coordinates":[3421,1313]},{"type":"Point","properties":{"kind":"locality","name":"Odolan\u00f3w","kind_detail":"town","name:de":"Adelnau","source":"openstreetmap.org","min_zoom":8.0,"name:ru":"\u041e\u0434\u043e\u043b\u044f\u043d\u0443\u0432","id":31793879,"population":5116},"coordinates":[2326,3892]},{"type":"Point","properties":{"kind":"locality","old_name:de":"Bernstadt an der Weide","name":"Bierut\u00f3w","alt_name:de":"Bernstadt in Schlesien","kind_detail":"town","name:de":"Bernstadt","source":"openstreetmap.org","min_zoom":8.0,"name:uk":"\u0411\u0435\u0440\u0443\u0442\u0443\u0432","name:ru":"\u0411\u0435\u0440\u0443\u0442\u0443\u0432","id":31811432,"population":5032},"coordinates":[1948,1809]},{"type":"Point","properties":{"kind":"locality","name":"Byczyna","kind_detail":"town","name:de":"Pitschen","source":"openstreetmap.org","min_zoom":8.0,"name:uk":"\u0411\u0438\u0447\u0438\u043d\u0430","name:ru":"\u0411\u044b\u0447\u0438\u043d\u0430","id":31809727,"population":3714},"coordinates":[3901,1755]},{"type":"Point","properties":{"kind":"locality","name":"Sulmierzyce","kind_detail":"town","source":"openstreetmap.org","min_zoom":8.0,"name:ru":"\u0421\u0443\u043b\u044c\u043c\u0435\u0436\u0438\u0446\u0435","id":3027588862,"population":2900},"coordinates":[1901,4042]},{"type":"Point","properties":{"kind":"locality","name":"Wi\u0105z\u00f3w","kind_detail":"town","name:de":"Wansen","source":"openstreetmap.org","min_zoom":8.0,"name:ru":"\u0412\u0451\u043d\u0437\u0443\u0432","id":31916687,"population":2327},"coordinates":[952,360]},{"type":"Point","properties":{"kind":"locality","name":"Prusice","kind_detail":"town","name:de":"Prausnitz","source":"openstreetmap.org","min_zoom":8.0,"name:ru":"\u041f\u0440\u0443\u0441\u0438\u0446\u0435","id":31790865,"population":2274},"coordinates":[255,2947]},{"type":"Point","properties":{"kind":"locality","old_name:de":"Altwerder","name":"Grab\u00f3w nad Prosn\u0105","kind_detail":"town","name:de":"Grabow","source":"openstreetmap.org","min_zoom":8.0,"name:ru":"\u0413\u0440\u0430\u0431\u0443\u0432-\u043d\u0430\u0434-\u041f\u0440\u043e\u0441\u043d\u043e\u0439","id":31803186,"population":1976},"coordinates":[3623,3576]},{"type":"Point","properties":{"kind":"locality","name":"Mikstat","kind_detail":"town","name:de":"Mixstadt","source":"openstreetmap.org","min_zoom":8.0,"name:ru":"\u041c\u0438\u043a\u0441\u0442\u0430\u0442","id":31795547,"population":1904},"coordinates":[3193,3694]}]},"transit":{"type":"GeometryCollection","geometries":[{"type":"LineString","properties":{"kind":"train","network":"PKP","sort_rank":275,"source":"openstreetmap.org","min_zoom":6.0,"operator":"PKP Polskie Linie Kolejowe S.A.","ref":"288","id":-2894389,"osm_relation":true,"name":"Linia kolejowa nr 288 Nysa - Brzeg"},"arcs":[6]},{"type":"LineString","properties":{"kind":"train","network":"PKP","sort_rank":275,"source":"openstreetmap.org","min_zoom":6.0,"operator":"PKP Polskie Linie Kolejowe S.A.","ref":"293","id":-3539682,"osm_relation":true,"name":"Linia kolejowa nr 293 Je\u0142owa - Kluczbork"},"arcs":[7]},{"type":"MultiLineString","properties":{"kind":"train","name":"Linia kolejowa nr 272 Kluczbork - Pozna\u0144 G\u0142\u00f3wny","sort_rank":275,"source":"openstreetmap.org","min_zoom":6.0,"operator":"PKP Polskie Linie Kolejowe S.A.","ref":"272","osm_relation":true,"network":"PKP"},"arcs":[[8],[9]]},{"type":"MultiLineString","properties":{"kind":"train","name":"Linia kolejowa nr 273 Wroc\u0142aw G\u0142\u00f3wny - Szczecin G\u0142\u00f3wny","sort_rank":275,"source":"openstreetmap.org","min_zoom":6.0,"operator":"PKP Polskie Linie Kolejowe S.A.","ref":"273","osm_relation":true,"network":"PKP"},"arcs":[[10],[11],[12]]},{"type":"LineString","properties":{"kind":"train","network":"KD","sort_rank":275,"source":"openstreetmap.org","min_zoom":6.0,"operator":"Koleje Dolno\u015bl\u0105skie","ref":"D11","id":-7712643,"osm_relation":true},"arcs":[13]},{"type":"MultiLineString","properties":{"kind":"train","network":"KD","sort_rank":275,"colour":"#ED1D24","source":"openstreetmap.org","min_zoom":6.0,"operator":"Dolno\u015bl\u0105ski Zak\u0142ad Przewoz\u00f3w Regionalnych","ref":"D1","osm_relation":true,"colour_name":"crimson"},"arcs":[[14],[15],[16],[17],[18],[19],[20],[21],[22]]},{"type":"LineString","properties":{"kind":"train","network":"PKP","sort_rank":275,"source":"openstreetmap.org","min_zoom":6.0,"operator":"PKP Polskie Linie Kolejowe S.A.","ref":"301","id":-3539683,"osm_relation":true,"name":"Linia kolejowa nr 301 Opole G\u0142\u00f3wne - Namys\u0142\u00f3w"},"arcs":[23]},{"type":"MultiLineString","properties":{"kind":"train","description":"Wroc\u0142aw G\u0142\u00f3wny - Szklarska Poreba","sort_rank":275,"source":"openstreetmap.org","min_zoom":6.0,"network":"PKP PLK S.A.","operator":"Przewozy Regionalne Sp\u00f3\u0142ka z o. o.","ref":"240","osm_relation":true,"name":"D6 Wroc\u0142aw G\u0142\u00f3wny - Szklarska Poreba Gorna"},"arcs":[[24],[25],[26]]},{"type":"MultiLineString","properties":{"kind":"train","name":"Linia kolejowa nr 143 Kalety - Wroc\u0142aw Miko\u0142aj\u00f3w WP2","sort_rank":275,"source":"openstreetmap.org","min_zoom":6.0,"operator":"PKP Polskie Linie Kolejowe S.A.","ref":"143","osm_relation":true,"network":"PKP"},"arcs":[[27],[28]]},{"type":"MultiLineString","properties":{"kind":"train","name":"Linia kolejowa nr 276 Wroc\u0142aw G\u0142\u00f3wny - Mi\u0119dzylesie","sort_rank":275,"source":"openstreetmap.org","min_zoom":6.0,"operator":"PKP Polskie Linie Kolejowe S.A.","ref":"276","osm_relation":true,"network":"PKP"},"arcs":[[29],[30],[31]]},{"type":"MultiLineString","properties":{"kind":"train","name":"Linia kolejowa nr 132 Bytom - Wroc\u0142aw G\u0142\u00f3wny","sort_rank":275,"source":"openstreetmap.org","min_zoom":6.0,"operator":"PKP Polskie Linie Kolejowe S.A.","ref":"132","osm_relation":true,"network":"PKP"},"arcs":[[32],[33]]},{"type":"MultiLineString","properties":{"kind":"train","name":"Linia kolejowa nr 277 Opole Groszowice - Wroc\u0142aw Broch\u00f3w","sort_rank":275,"source":"openstreetmap.org","min_zoom":6.0,"operator":"PKP Polskie Linie Kolejowe S.A.","ref":"277","osm_relation":true,"network":"PKP"},"arcs":[[34],[35],[36]]},{"type":"MultiLineString","properties":{"kind":"train","name":"Linia kolejowa nr 271 Wroc\u0142aw G\u0142\u00f3wny - Pozna\u0144 G\u0142\u00f3wny","sort_rank":275,"source":"openstreetmap.org","min_zoom":6.0,"operator":"PKP Polskie Linie Kolejowe S.A.","ref":"271","osm_relation":true,"network":"PKP"},"arcs":[[37],[38],[39],[40]]},{"type":"LineString","properties":{"kind":"train","network":"Polskie Koleje Pa\u0144stwowe Polskie Linie Kolejowe sp\u00f3\u0142ka akcyjna","sort_rank":275,"colour":"#004A8F","source":"openstreetmap.org","min_zoom":6.0,"operator":"Koleje Dolno\u015bl\u0105skie sp\u00f3\u0142ka akcyjna","ref":"D2","id":-1050561,"osm_relation":true,"colour_name":"teal"},"arcs":[41]},{"type":"MultiLineString","properties":{"kind":"train","network":"KD","sort_rank":275,"colour":"#FFDD00","source":"openstreetmap.org","min_zoom":6.0,"operator":"Koleje Dolno\u015bl\u0105skie","ref":"D3","osm_relation":true,"colour_name":"gold"},"arcs":[[42],[43],[44],[45],[46],[47],[48],[49]]}]},"pois":{"type":"GeometryCollection","geometries":[{"type":"Point","properties":{"kind":"nature_reserve","name:en":"Stobrawski Landscape Park","protect_class":"5","area":1519450000,"name:de":"Landschaftsschutzpark Stoberau","source":"openstreetmap.org","min_zoom":7.01,"tier":2,"id":-4524560,"osm_relation":true,"name":"Stobrawski Park Krajobrazowy"},"coordinates":[3008,669]},{"type":"Point","properties":{"kind":"nature_reserve","protect_class":"5","area":2223390000,"name:de":"Landschaftsschutzpark Bartschtal","source":"openstreetmap.org","min_zoom":6.73,"tier":2,"id":-4515666,"osm_relation":true,"name":"Park Krajobrazowy Dolina Baryczy"},"coordinates":[973,3540]},{"type":"Point","properties":{"kind":"protected_area","protect_class":"97","area":30731200,"source":"openstreetmap.org","min_zoom":8.0,"tier":2,"id":-2061035,"osm_relation":true,"name":"Kumaki Dobrej"},"coordinates":[836,2142]},{"type":"Point","properties":{"kind":"protected_area","protect_class":"97","area":19943700,"source":"openstreetmap.org","min_zoom":8.0,"tier":2,"ref":"PLH020082","id":-2055383,"osm_relation":true,"name":"Wzg\u00f3rza Niemcza\u0144skie"},"coordinates":[2,33]},{"type":"Point","properties":{"kind":"protected_area","protect_class":"97","area":78333400,"source":"openstreetmap.org","min_zoom":8.0,"tier":2,"id":-2012050,"osm_relation":true,"name":"Lasy Gr\u0119dzi\u0144skie"},"coordinates":[1440,1765]},{"type":"Point","properties":{"kind":"military","tier":3,"name":"24 Polowa Techniczna Baza Wojsk \u0141\u0105czno\u015bci","area":12932600,"name:de":"Sausenberg","source":"openstreetmap.org","min_zoom":8.0,"operator":"Dow\u00f3dztwo Garnizonu Warszawa","id":147149855},"coordinates":[3954,344]}]},"boundaries":{"type":"GeometryCollection","geometries":[{"type":"LineString","properties":{"name:right:nl":"Woiwodschap Lodz","name:right:ja":"\u30a6\u30c3\u30c1\u770c","loc_name:left":"Opolskie","alt_name:left:en":"Opole Province","name:right:uk":"\u041b\u043e\u0434\u0437\u044c\u043a\u0435 \u0432\u043e\u0454\u0432\u043e\u0434\u0441\u0442\u0432\u043e","name:left:ja":"\u30aa\u30dd\u30fc\u30ec\u770c","id:right":-224458,"name:right:lt":"Lodz\u0117s vaivadija","name:left:sl":"Opoljsko vojvodstvo","min_zoom":8.0,"name:left:lt":"Opol\u0117s vaivadija","alt_name:right:en":"\u0141\u00f3d\u017a Province","name:left:sk":"Opolsk\u00e9","name:left:be":"\u0410\u043f\u043e\u043b\u044c\u0441\u043a\u0430\u0435 \u0432\u0430\u044f\u0432\u043e\u0434\u0441\u0442\u0432\u0430","name:right:fr":"\u0141\u00f3d\u017a","id":-224460,"name:right":"wojew\u00f3dztwo \u0142\u00f3dzkie","short_name:left":"opolskie","name:left:eo":"Opola Provinco","name:left:en":"Opole Voivodeship","sort_rank":256,"kind_detail":"4","source":"openstreetmap.org","name:left:nl":"Woiwodschap Opole","id:left":-224460,"name:left:es":"Voivodato de Opole","name:right:cs":"Lod\u017esk\u00e9 vojvodstv\u00ed","name:left:cs":"Opolsk\u00e9 vojvodstv\u00ed","name:left":"wojew\u00f3dztwo opolskie","name:right:es":"Voivodato de \u0141\u00f3d\u017a","name:left:ka":"\u10dd\u10de\u10dd\u10da\u10d4\u10e1 \u10e1\u10d0\u10d5\u10dd\u10d4\u10d5\u10dd\u10d3\u10dd","kind":"region","name:right:ru":"\u041b\u043e\u0434\u0437\u0438\u043d\u0441\u043a\u043e\u0435 \u0432\u043e\u0435\u0432\u043e\u0434\u0441\u0442\u0432\u043e","name:left:pt":"Voivodia de Opole","name:left:ru":"\u041e\u043f\u043e\u043b\u044c\u0441\u043a\u043e\u0435 \u0432\u043e\u0435\u0432\u043e\u0434\u0441\u0442\u0432\u043e","short_name:right":"\u0142\u00f3dzkie","name:right:eo":"Lodza Provinco","name:right:en":"\u0141\u00f3d\u017a Voivodeship","osm_relation":true,"name:left:uk":"\u041e\u043f\u043e\u043b\u044c\u0441\u044c\u043a\u0435 \u0432\u043e\u0454\u0432\u043e\u0434\u0441\u0442\u0432\u043e","loc_name:right":"\u0141\u00f3dzkie","name":"wojew\u00f3dztwo opolskie - wojew\u00f3dztwo \u0142\u00f3dzkie","name:right:de":"Woiwodschaft Lodz","name:left:de":"Woiwodschaft Oppeln","name:right:be":"\u041b\u043e\u0434\u0437\u0456\u043d\u0441\u043a\u0430\u0435 \u0432\u0430\u044f\u0432\u043e\u0434\u0441\u0442\u0432\u0430","name:left:zh":"\u5967\u6ce2\u840a\u7701","name:left:fr":"Vo\u00efvodie d'Opole","name:left:et":"Opole vojevoodkond","name:right:sl":"Lodzsko vojvodstvo"},"arcs":[0]},{"type":"LineString","properties":{"name:right:es":"Voivodato de Baja Silesia","name:right:nl":"Woiwodschap Neder-Silezi\u00eb","name:right:ja":"\u30c9\u30eb\u30cc\u30a3\u30fb\u30b7\u30ed\u30f3\u30b9\u30af\u770c","loc_name:left":"Opolskie","alt_name:left:en":"Opole Province","name:right:uk":"\u041d\u0438\u0436\u043d\u044c\u043e\u0441\u0456\u043b\u0435\u0437\u044c\u043a\u0435 \u0432\u043e\u0454\u0432\u043e\u0434\u0441\u0442\u0432\u043e","name:left:ja":"\u30aa\u30dd\u30fc\u30ec\u770c","name:right:hu":"Als\u00f3-Szil\u00e9ziai vajdas\u00e1g","id:right":-224457,"name:right:lt":"\u017demutin\u0117s Silezijos vaivadija","name:left:sl":"Opoljsko vojvodstvo","name:right:sk":"Dolnosliezske","name:left:lt":"Opol\u0117s vaivadija","alt_name:right:en":"Lower Silesian Province","name:left:sk":"Opolsk\u00e9","name:left:be":"\u0410\u043f\u043e\u043b\u044c\u0441\u043a\u0430\u0435 \u0432\u0430\u044f\u0432\u043e\u0434\u0441\u0442\u0432\u0430","name:right:fr":"Basse-Sil\u00e9sie","id":-224460,"name:right":"wojew\u00f3dztwo dolno\u015bl\u0105skie","short_name:left":"opolskie","name:left:eo":"Opola Provinco","name:left:en":"Opole Voivodeship","sort_rank":256,"kind_detail":"4","int_name:right":"wojewodztwo dolnoslaskie","source":"openstreetmap.org","name:right:ar":"\u0645\u062d\u0627\u0641\u0638\u0629 \u0633\u064a\u0644\u0632\u064a\u0627 \u0627\u0644\u0633\u0641\u0644\u0649","name:left:nl":"Woiwodschap Opole","id:left":-224460,"name:left:es":"Voivodato de Opole","name:right:cs":"Dolnoslezsk\u00e9 vojvodstv\u00ed","name:left:cs":"Opolsk\u00e9 vojvodstv\u00ed","name:left":"wojew\u00f3dztwo opolskie","name:right:ka":"\u10e5\u10d5\u10d4\u10db\u10dd \u10e1\u10d8\u10da\u10d4\u10d6\u10d8\u10d8\u10e1 \u10e1\u10d0\u10d5\u10dd\u10d4\u10d5\u10dd\u10d3\u10dd","name:right:pt":"Voivodia da Baixa Sil\u00e9sia","kind":"region","name:right:ru":"\u041d\u0438\u0436\u043d\u0435\u0441\u0438\u043b\u0435\u0437\u0441\u043a\u043e\u0435 \u0432\u043e\u0435\u0432\u043e\u0434\u0441\u0442\u0432\u043e","name:left:pt":"Voivodia de Opole","name:left:ru":"\u041e\u043f\u043e\u043b\u044c\u0441\u043a\u043e\u0435 \u0432\u043e\u0435\u0432\u043e\u0434\u0441\u0442\u0432\u043e","short_name:right":"dolno\u015bl\u0105skie","min_zoom":8.0,"name:right:eo":"Malsuprasilezia Provinco","name:right:en":"Lower Silesian Voivodeship","osm_relation":true,"name:left:ka":"\u10dd\u10de\u10dd\u10da\u10d4\u10e1 \u10e1\u10d0\u10d5\u10dd\u10d4\u10d5\u10dd\u10d3\u10dd","name:left:uk":"\u041e\u043f\u043e\u043b\u044c\u0441\u044c\u043a\u0435 \u0432\u043e\u0454\u0432\u043e\u0434\u0441\u0442\u0432\u043e","loc_name:right":"Dolno\u015bl\u0105skie","name":"wojew\u00f3dztwo opolskie - wojew\u00f3dztwo dolno\u015bl\u0105skie","name:right:de":"Woiwodschaft Niederschlesien","name:left:de":"Woiwodschaft Oppeln","name:right:be":"\u041d\u0456\u0436\u043d\u0435\u0441\u0456\u043b\u0435\u0437\u0441\u043a\u0430\u0435 \u0432\u0430\u044f\u0432\u043e\u0434\u0441\u0442\u0432\u0430","name:left:zh":"\u5967\u6ce2\u840a\u7701","name:left:fr":"Vo\u00efvodie d'Opole","name:right:zh":"\u4e0b\u897f\u91cc\u897f\u4e9a\u7701","name:left:et":"Opole vojevoodkond","name:right:sl":"Spodnje\u0161lezijsko vojvodstvo"},"arcs":[1]},{"type":"LineString","properties":{"name:right:nl":"Woiwodschap Groot-Polen","name:right:ja":"\u30f4\u30a3\u30a8\u30eb\u30b3\u30dd\u30eb\u30b9\u30ab\u770c","loc_name:left":"Opolskie","alt_name:left:en":"Opole Province","name:right:uk":"\u0412\u0435\u043b\u0438\u043a\u043e\u043f\u043e\u043b\u044c\u0441\u044c\u043a\u0435 \u0432\u043e\u0454\u0432\u043e\u0434\u0441\u0442\u0432\u043e","name:left:ja":"\u30aa\u30dd\u30fc\u30ec\u770c","id:right":-130971,"name:right:lt":"Did\u017eiosios Lenkijos vaivadija","name:left:sl":"Opoljsko vojvodstvo","min_zoom":8.0,"name:left:lt":"Opol\u0117s vaivadija","name:left:sk":"Opolsk\u00e9","name:left:be":"\u0410\u043f\u043e\u043b\u044c\u0441\u043a\u0430\u0435 \u0432\u0430\u044f\u0432\u043e\u0434\u0441\u0442\u0432\u0430","name:right:fr":"Grande-Pologne","id":-224460,"name:right":"wojew\u00f3dztwo wielkopolskie","short_name:left":"opolskie","name:left:eo":"Opola Provinco","name:left:en":"Opole Voivodeship","sort_rank":256,"kind_detail":"4","source":"openstreetmap.org","name:left:nl":"Woiwodschap Opole","id:left":-224460,"name:left:es":"Voivodato de Opole","name:right:cs":"Velkopolsk\u00e9 vojvodstv\u00ed","name:left:cs":"Opolsk\u00e9 vojvodstv\u00ed","name:left":"wojew\u00f3dztwo opolskie","name:left:ka":"\u10dd\u10de\u10dd\u10da\u10d4\u10e1 \u10e1\u10d0\u10d5\u10dd\u10d4\u10d5\u10dd\u10d3\u10dd","name:right:ru":"\u0412\u0435\u043b\u0438\u043a\u043e\u043f\u043e\u043b\u044c\u0441\u043a\u043e\u0435 \u0432\u043e\u0435\u0432\u043e\u0434\u0441\u0442\u0432\u043e","name:left:pt":"Voivodia de Opole","name:left:ru":"\u041e\u043f\u043e\u043b\u044c\u0441\u043a\u043e\u0435 \u0432\u043e\u0435\u0432\u043e\u0434\u0441\u0442\u0432\u043e","short_name:right":"wielkopolskie","name:right:eo":"Grandpollanda Provinco","name:right:en":"Greater Poland Voivodeship","osm_relation":true,"name:left:uk":"\u041e\u043f\u043e\u043b\u044c\u0441\u044c\u043a\u0435 \u0432\u043e\u0454\u0432\u043e\u0434\u0441\u0442\u0432\u043e","kind":"region","name":"wojew\u00f3dztwo opolskie - wojew\u00f3dztwo wielkopolskie","name:right:de":"Woiwodschaft Gro\u00dfpolen","name:left:de":"Woiwodschaft Oppeln","name:right:be":"\u0412\u044f\u043b\u0456\u043a\u0430\u043f\u043e\u043b\u044c\u0441\u043a\u0430\u0435 \u0432\u0430\u044f\u0432\u043e\u0434\u0441\u0442\u0432\u0430","name:left:zh":"\u5967\u6ce2\u840a\u7701","name:left:fr":"Vo\u00efvodie d'Opole","name:left:et":"Opole vojevoodkond"},"arcs":[2]},{"type":"LineString","properties":{"name:right:nl":"Woiwodschap Groot-Polen","name:right:ja":"\u30f4\u30a3\u30a8\u30eb\u30b3\u30dd\u30eb\u30b9\u30ab\u770c","loc_name:left":"\u0141\u00f3dzkie","alt_name:left:en":"\u0141\u00f3d\u017a Province","name:right:uk":"\u0412\u0435\u043b\u0438\u043a\u043e\u043f\u043e\u043b\u044c\u0441\u044c\u043a\u0435 \u0432\u043e\u0454\u0432\u043e\u0434\u0441\u0442\u0432\u043e","name:left:ja":"\u30a6\u30c3\u30c1\u770c","id:right":-130971,"name:right:lt":"Did\u017eiosios Lenkijos vaivadija","name:left:sl":"Lodzsko vojvodstvo","min_zoom":8.0,"name:left:lt":"Lodz\u0117s vaivadija","name:left:be":"\u041b\u043e\u0434\u0437\u0456\u043d\u0441\u043a\u0430\u0435 \u0432\u0430\u044f\u0432\u043e\u0434\u0441\u0442\u0432\u0430","name:right:fr":"Grande-Pologne","id":-224458,"name:right":"wojew\u00f3dztwo wielkopolskie","short_name:left":"\u0142\u00f3dzkie","name:left:eo":"Lodza Provinco","name:left:en":"\u0141\u00f3d\u017a Voivodeship","sort_rank":256,"kind_detail":"4","source":"openstreetmap.org","name:left:nl":"Woiwodschap Lodz","id:left":-224458,"name:left:es":"Voivodato de \u0141\u00f3d\u017a","name:right:cs":"Velkopolsk\u00e9 vojvodstv\u00ed","name:left:cs":"Lod\u017esk\u00e9 vojvodstv\u00ed","name:left":"wojew\u00f3dztwo \u0142\u00f3dzkie","name:right:ru":"\u0412\u0435\u043b\u0438\u043a\u043e\u043f\u043e\u043b\u044c\u0441\u043a\u043e\u0435 \u0432\u043e\u0435\u0432\u043e\u0434\u0441\u0442\u0432\u043e","name:left:ru":"\u041b\u043e\u0434\u0437\u0438\u043d\u0441\u043a\u043e\u0435 \u0432\u043e\u0435\u0432\u043e\u0434\u0441\u0442\u0432\u043e","short_name:right":"wielkopolskie","name:right:eo":"Grandpollanda Provinco","name:right:en":"Greater Poland Voivodeship","osm_relation":true,"name:left:uk":"\u041b\u043e\u0434\u0437\u044c\u043a\u0435 \u0432\u043e\u0454\u0432\u043e\u0434\u0441\u0442\u0432\u043e","kind":"region","name":"wojew\u00f3dztwo \u0142\u00f3dzkie - wojew\u00f3dztwo wielkopolskie","name:right:de":"Woiwodschaft Gro\u00dfpolen","name:left:de":"Woiwodschaft Lodz","name:right:be":"\u0412\u044f\u043b\u0456\u043a\u0430\u043f\u043e\u043b\u044c\u0441\u043a\u0430\u0435 \u0432\u0430\u044f\u0432\u043e\u0434\u0441\u0442\u0432\u0430","name:left:fr":"\u0141\u00f3d\u017a"},"arcs":[3]},{"type":"MultiLineString","properties":{"name:right:nl":"Woiwodschap Groot-Polen","name:right:ja":"\u30f4\u30a3\u30a8\u30eb\u30b3\u30dd\u30eb\u30b9\u30ab\u770c","loc_name:left":"Dolno\u015bl\u0105skie","alt_name:left:en":"Lower Silesian Province","name:right:uk":"\u0412\u0435\u043b\u0438\u043a\u043e\u043f\u043e\u043b\u044c\u0441\u044c\u043a\u0435 \u0432\u043e\u0454\u0432\u043e\u0434\u0441\u0442\u0432\u043e","int_name:left":"wojewodztwo dolnoslaskie","name:left:ja":"\u30c9\u30eb\u30cc\u30a3\u30fb\u30b7\u30ed\u30f3\u30b9\u30af\u770c","id:right":-130971,"name:right:lt":"Did\u017eiosios Lenkijos vaivadija","name:left:sl":"Spodnje\u0161lezijsko vojvodstvo","min_zoom":8.0,"name:left:lt":"\u017demutin\u0117s Silezijos vaivadija","name:left:sk":"Dolnosliezske","name:left:be":"\u041d\u0456\u0436\u043d\u0435\u0441\u0456\u043b\u0435\u0437\u0441\u043a\u0430\u0435 \u0432\u0430\u044f\u0432\u043e\u0434\u0441\u0442\u0432\u0430","name:right:fr":"Grande-Pologne","name:left:hu":"Als\u00f3-Szil\u00e9ziai vajdas\u00e1g","id":-224457,"name:right":"wojew\u00f3dztwo wielkopolskie","short_name:left":"dolno\u015bl\u0105skie","name:left:eo":"Malsuprasilezia Provinco","name:left:en":"Lower Silesian Voivodeship","sort_rank":256,"kind_detail":"4","source":"openstreetmap.org","name:left:nl":"Woiwodschap Neder-Silezi\u00eb","id:left":-224457,"name:left:es":"Voivodato de Baja Silesia","name:right:cs":"Velkopolsk\u00e9 vojvodstv\u00ed","name:left:cs":"Dolnoslezsk\u00e9 vojvodstv\u00ed","name:left":"wojew\u00f3dztwo dolno\u015bl\u0105skie","name:left:ka":"\u10e5\u10d5\u10d4\u10db\u10dd \u10e1\u10d8\u10da\u10d4\u10d6\u10d8\u10d8\u10e1 \u10e1\u10d0\u10d5\u10dd\u10d4\u10d5\u10dd\u10d3\u10dd","name:left:ar":"\u0645\u062d\u0627\u0641\u0638\u0629 \u0633\u064a\u0644\u0632\u064a\u0627 \u0627\u0644\u0633\u0641\u0644\u0649","name:right:ru":"\u0412\u0435\u043b\u0438\u043a\u043e\u043f\u043e\u043b\u044c\u0441\u043a\u043e\u0435 \u0432\u043e\u0435\u0432\u043e\u0434\u0441\u0442\u0432\u043e","name:left:pt":"Voivodia da Baixa Sil\u00e9sia","name:left:ru":"\u041d\u0438\u0436\u043d\u0435\u0441\u0438\u043b\u0435\u0437\u0441\u043a\u043e\u0435 \u0432\u043e\u0435\u0432\u043e\u0434\u0441\u0442\u0432\u043e","short_name:right":"wielkopolskie","name:right:eo":"Grandpollanda Provinco","name:right:en":"Greater Poland Voivodeship","osm_relation":true,"name:left:uk":"\u041d\u0438\u0436\u043d\u044c\u043e\u0441\u0456\u043b\u0435\u0437\u044c\u043a\u0435 \u0432\u043e\u0454\u0432\u043e\u0434\u0441\u0442\u0432\u043e","kind":"region","name":"wojew\u00f3dztwo dolno\u015bl\u0105skie - wojew\u00f3dztwo wielkopolskie","name:right:de":"Woiwodschaft Gro\u00dfpolen","name:left:de":"Woiwodschaft Niederschlesien","name:right:be":"\u0412\u044f\u043b\u0456\u043a\u0430\u043f\u043e\u043b\u044c\u0441\u043a\u0430\u0435 \u0432\u0430\u044f\u0432\u043e\u0434\u0441\u0442\u0432\u0430","name:left:zh":"\u4e0b\u897f\u91cc\u897f\u4e9a\u7701","name:left:fr":"Basse-Sil\u00e9sie"},"arcs":[[4],[5]]}]},"roads":{"type":"GeometryCollection","geometries":[{"type":"MultiLineString","properties":{"kind":"major_road","network":"pl:national","sort_rank":380,"kind_detail":"primary","source":"openstreetmap.org","min_zoom":8.0,"shield_text":"39","ref":"39"},"arcs":[[50],[51],[52],[53],[54],[55],[56],[57],[58],[59],[60],[61],[62],[63],[64],[65],[66],[67],[68],[69],[70],[71],[72],[73],[74],[75],[76],[77],[78],[79],[80],[81],[82],[83],[84],[85],[86]]},{"type":"LineString","properties":{"kind":"major_road","network":"pl:national","sort_rank":380,"kind_detail":"primary","is_bicycle_related":true,"cycleway":"track","source":"openstreetmap.org","min_zoom":8.0,"shield_text":"94","ref":"94","id":200937644},"arcs":[87]},{"type":"LineString","properties":{"kind":"major_road","network":"pl:national","sort_rank":380,"kind_detail":"primary","source":"openstreetmap.org","min_zoom":8.0,"shield_text":"5","ref":"5;340"},"arcs":[88]},{"type":"MultiLineString","properties":{"kind":"major_road","network":"pl:national","sort_rank":380,"kind_detail":"primary","name:de":"Grunwaldplatz","source":"openstreetmap.org","min_zoom":8.0,"landuse_kind":"urban_area","shield_text":"98","ref":"98"},"arcs":[[89],[90]]},{"type":"LineString","properties":{"kind":"major_road","network":"pl:regional","sort_rank":379,"kind_detail":"secondary","is_bicycle_related":true,"bicycle_shield_text":"ORT","bicycle_network":"ncn","source":"openstreetmap.org","min_zoom":8.0,"landuse_kind":"nature_reserve","shield_text":"458","ref":"458","id":236058439},"arcs":[91]},{"type":"MultiLineString","properties":{"kind":"major_road","network":"pl:national","sort_rank":380,"kind_detail":"primary","source":"openstreetmap.org","min_zoom":8.0,"shield_text":"94","ref":"94;462"},"arcs":[[92],[93],[94],[95],[96]]},{"type":"MultiLineString","properties":{"kind":"major_road","network":"pl:national","sort_rank":380,"kind_detail":"primary","source":"openstreetmap.org","min_zoom":8.0,"shield_text":"25","ref":"25"},"arcs":[[97],[98],[99],[100],[101],[102],[103],[104],[105]]},{"type":"MultiLineString","properties":{"bus_network":"Wroc\u0142aw","network":"pl:national","sort_rank":380,"kind_detail":"primary","kind":"major_road","source":"openstreetmap.org","min_zoom":8.0,"bus_shield_text":"250","shield_text":"98","landuse_kind":"urban_area","ref":"98"},"arcs":[[106],[107]]},{"type":"MultiLineString","properties":{"kind":"minor_road","sort_rank":360,"kind_detail":"unclassified","is_bicycle_related":true,"bicycle_shield_text":"R9","bicycle_network":"ncn","source":"openstreetmap.org","min_zoom":8.0},"arcs":[[108],[109]]},{"type":"LineString","properties":{"kind":"major_road","old_name:de":"Pirschamer","sort_rank":377,"kind_detail":"tertiary","is_bicycle_related":true,"bus_network":"Wroc\u0142aw","bicycle_shield_text":"ORT","bicycle_network":"ncn","source":"openstreetmap.org","min_zoom":8.0,"bus_shield_text":"120","landuse_kind":"urban_area","id":28438706},"arcs":[110]},{"type":"LineString","properties":{"kind":"major_road","network":"pl:regional","sort_rank":377,"kind_detail":"tertiary","is_bicycle_related":true,"bicycle_shield_text":"ORT","bicycle_network":"ncn","source":"openstreetmap.org","min_zoom":8.0,"shield_text":"460"},"arcs":[111]},{"type":"LineString","properties":{"kind":"major_road","network":"pl:regional","sort_rank":380,"kind_detail":"primary","source":"openstreetmap.org","min_zoom":8.0,"shield_text":"356","ref":"356"},"arcs":[112]},{"type":"LineString","properties":{"kind":"minor_road","sort_rank":358,"landuse_kind":"nature_reserve","is_bicycle_related":true,"bicycle_shield_text":"R9","bicycle_network":"ncn","source":"openstreetmap.org","min_zoom":8.0,"kind_detail":"service"},"arcs":[113]},{"type":"LineString","properties":{"kind":"major_road","sort_rank":377,"kind_detail":"tertiary","is_bicycle_related":true,"bus_network":"Wroc\u0142aw","bicycle_shield_text":"ORT","bicycle_network":"ncn","source":"openstreetmap.org","min_zoom":8.0,"bus_shield_text":"123","landuse_kind":"urban_area","id":247495858},"arcs":[114]},{"type":"MultiLineString","properties":{"kind":"major_road","network":"pl:national","sort_rank":381,"kind_detail":"trunk","source":"openstreetmap.org","min_zoom":8.0,"shield_text":"11","ref":"S11;25"},"arcs":[[115],[116]]},{"type":"MultiLineString","properties":{"bus_network":"Wroc\u0142aw","network":"pl:national","sort_rank":380,"kind_detail":"primary","kind":"major_road","source":"openstreetmap.org","min_zoom":8.0,"bus_shield_text":"602","shield_text":"5","landuse_kind":"urban_area","ref":"5"},"arcs":[[117],[118],[119]]},{"type":"MultiLineString","properties":{"kind":"major_road","network":"pl:national","sort_rank":380,"kind_detail":"primary","source":"openstreetmap.org","min_zoom":8.0,"shield_text":"11","ref":"11"},"arcs":[[120],[121],[122],[123],[124],[125],[126],[127],[128],[129],[130],[131],[132],[133],[134],[135],[136],[137],[138],[139],[140],[141],[142],[143],[144],[145],[146],[147],[148],[149],[150],[151],[152],[153],[154],[155],[156],[157],[158],[159],[160],[161],[162],[163],[164],[165],[166],[167],[168],[169],[170],[171],[172],[173],[174],[175],[176],[177],[178],[179],[180],[181],[182],[183],[184],[185],[186],[187],[188],[189],[190],[191],[192],[193],[194],[195],[196],[197],[198],[199]]},{"type":"MultiLineString","properties":{"bus_network":"Wroc\u0142aw","sort_rank":377,"kind_detail":"tertiary","is_bicycle_related":true,"kind":"major_road","bicycle_shield_text":"R9","bicycle_network":"ncn","source":"openstreetmap.org","min_zoom":8.0,"bus_shield_text":"936"},"arcs":[[200],[201]]},{"type":"LineString","properties":{"kind":"major_road","network":"pl:national","sort_rank":380,"kind_detail":"primary","is_bicycle_related":true,"bicycle_shield_text":"ORT","bicycle_network":"ncn","source":"openstreetmap.org","min_zoom":8.0,"landuse_kind":"nature_reserve","shield_text":"94","ref":"94","id":196221654},"arcs":[202]},{"type":"LineString","properties":{"bus_network":"Wroc\u0142aw","sort_rank":377,"kind_detail":"tertiary","is_bicycle_related":true,"kind":"major_road","bicycle_shield_text":"R9","bicycle_network":"ncn","source":"openstreetmap.org","min_zoom":8.0,"bus_shield_text":"934","ref":"1371D"},"arcs":[203]},{"type":"MultiLineString","properties":{"kind":"major_road","network":"pl:national","sort_rank":381,"kind_detail":"trunk","source":"openstreetmap.org","min_zoom":8.0,"landuse_kind":"nature_reserve","shield_text":"5","ref":"S5"},"arcs":[[204],[205]]},{"type":"MultiLineString","properties":{"bus_network":"Wroc\u0142aw","network":"pl:national","sort_rank":380,"kind_detail":"primary","kind":"major_road","source":"openstreetmap.org","min_zoom":8.0,"bus_shield_text":"103","shield_text":"5","landuse_kind":"urban_area","ref":"5"},"arcs":[[206],[207]]},{"type":"MultiLineString","properties":{"kind":"path","sort_rank":354,"landuse_kind":"urban_area","is_bicycle_related":true,"bicycle_shield_text":"R9","bicycle_network":"ncn","source":"openstreetmap.org","min_zoom":8.0,"kind_detail":"path"},"arcs":[[208],[209],[210],[211],[212],[213],[214],[215],[216],[217],[218]]},{"type":"MultiLineString","properties":{"kind":"major_road","network":"pl:national","sort_rank":380,"kind_detail":"primary","source":"openstreetmap.org","min_zoom":8.0,"shield_text":"5","ref":"5"},"arcs":[[219],[220],[221],[222],[223],[224],[225],[226],[227],[228],[229],[230],[231],[232],[233],[234],[235],[236],[237],[238]]},{"type":"LineString","properties":{"kind":"path","sort_rank":354,"kind_detail":"path","is_bicycle_related":true,"bicycle_shield_text":"ORT","bicycle_network":"ncn","source":"openstreetmap.org","min_zoom":8.0,"landuse_kind":"urban_area","name:de":"Altstadtpromenade","id":467711180},"arcs":[239]},{"type":"MultiLineString","properties":{"kind":"path","sort_rank":354,"kind_detail":"cycleway","is_bicycle_related":true,"bicycle_shield_text":"ORT","bicycle_network":"ncn","source":"openstreetmap.org","min_zoom":8.0,"landuse_kind":"urban_area"},"arcs":[[240],[241],[242],[243],[244],[245],[246],[247],[248],[249],[250],[251],[252],[253],[254],[255],[256],[257],[258],[259],[260],[261],[262],[263],[264],[265],[266],[267],[268],[269],[270],[271],[272],[273],[274],[275],[276],[277],[278],[279],[280],[281],[282],[283],[284],[285],[286],[287],[288],[289],[290],[291],[292],[293],[294],[295],[296],[297],[298],[299],[300],[301],[302],[303],[304],[305],[306],[307],[308],[309],[310],[311],[312],[313],[314],[315],[316],[317],[318],[319],[320],[321],[322],[323],[324],[325]]},{"type":"LineString","properties":{"bus_network":"Wroc\u0142aw","sort_rank":377,"kind_detail":"tertiary","is_bicycle_related":true,"kind":"major_road","bicycle_shield_text":"R9","bicycle_network":"ncn","source":"openstreetmap.org","min_zoom":8.0,"bus_shield_text":"130"},"arcs":[326]},{"type":"MultiLineString","properties":{"kind":"major_road","network":"pl:national","sort_rank":380,"kind_detail":"primary","source":"openstreetmap.org","min_zoom":8.0,"shield_text":"94","ref":"94"},"arcs":[[327],[328],[329],[330],[331],[332],[333],[334],[335],[336],[337],[338],[339],[340],[341],[342],[343],[344],[345],[346],[347],[348],[349],[350],[351],[352],[353],[354],[355],[356],[357],[358],[359],[360]]},{"type":"LineString","properties":{"kind":"major_road","network":"pl:national","sort_rank":380,"kind_detail":"primary","is_bicycle_related":true,"bicycle_shield_text":"ORT","bicycle_network":"ncn","source":"openstreetmap.org","min_zoom":8.0,"shield_text":"94","ref":"94","id":196221654},"arcs":[361]},{"type":"MultiLineString","properties":{"bus_network":"Wroc\u0142aw","network":"pl:national","sort_rank":380,"kind_detail":"primary","kind":"major_road","source":"openstreetmap.org","min_zoom":8.0,"bus_shield_text":"914a","shield_text":"98","ref":"98"},"arcs":[[362],[363]]},{"type":"MultiLineString","properties":{"kind":"major_road","network":"pl:national","sort_rank":380,"kind_detail":"primary","source":"openstreetmap.org","min_zoom":8.0,"shield_text":"11","ref":"11;25"},"arcs":[[364],[365],[366],[367],[368],[369],[370],[371],[372],[373]]},{"type":"MultiLineString","properties":{"kind":"major_road","network":"pl:national","sort_rank":380,"kind_detail":"primary","source":"openstreetmap.org","min_zoom":8.0,"landuse_kind":"nature_reserve","shield_text":"25","ref":"25"},"arcs":[[374],[375]]},{"type":"LineString","properties":{"kind":"major_road","network":"pl:regional","sort_rank":380,"kind_detail":"primary","source":"openstreetmap.org","min_zoom":8.0,"shield_text":"346","ref":"8;346","id":55758307},"arcs":[376]},{"type":"LineString","properties":{"source":"openstreetmap.org","kind":"major_road","network":"pl:national","sort_rank":380,"kind_detail":"primary","min_zoom":8.0,"shield_text":"35"},"arcs":[377]},{"type":"MultiLineString","properties":{"kind":"major_road","cycleway_left":"track","network":"pl:national","sort_rank":380,"kind_detail":"primary","is_bicycle_related":true,"source":"openstreetmap.org","min_zoom":8.0,"shield_text":"39","ref":"39"},"arcs":[[378],[379]]},{"type":"MultiLineString","properties":{"kind":"path","sort_rank":354,"kind_detail":"cycleway","is_bicycle_related":true,"bicycle_shield_text":"R9","bicycle_network":"ncn","source":"openstreetmap.org","min_zoom":8.0,"landuse_kind":"urban_area"},"arcs":[[380],[381],[382],[383],[384],[385],[386],[387],[388],[389],[390],[391],[392],[393],[394],[395],[396],[397],[398],[399],[400],[401],[402],[403],[404],[405],[406],[407],[408],[409],[410],[411],[412],[413],[414],[415],[416],[417],[418],[419],[420],[421],[422],[423],[424],[425],[426],[427],[428],[429],[430],[431],[432],[433],[434],[435],[436],[437],[438],[439],[440],[441],[442],[443],[444],[445]]},{"type":"LineString","properties":{"kind":"minor_road","sort_rank":360,"kind_detail":"unclassified","is_bicycle_related":true,"bicycle_shield_text":"R9","bicycle_network":"ncn","source":"openstreetmap.org","min_zoom":8.0,"landuse_kind":"nature_reserve","id":130441347},"arcs":[446]},{"type":"LineString","properties":{"kind":"path","sort_rank":354,"landuse_kind":"nature_reserve","is_bicycle_related":true,"bicycle_shield_text":"R9","bicycle_network":"ncn","source":"openstreetmap.org","min_zoom":8.0,"kind_detail":"track"},"arcs":[447]},{"type":"LineString","properties":{"kind":"minor_road","sort_rank":360,"kind_detail":"residential","is_bicycle_related":true,"bicycle_shield_text":"ORT","bicycle_network":"ncn","source":"openstreetmap.org","min_zoom":8.0,"landuse_kind":"urban_area","name:de":"Neuegasse","id":164216261},"arcs":[448]},{"type":"LineString","properties":{"bus_network":"Wroc\u0142aw","network":"pl:national","sort_rank":380,"kind_detail":"primary","kind":"major_road","name:de":"Grunwaldplatz","source":"openstreetmap.org","min_zoom":8.0,"bus_shield_text":"250","shield_text":"98","landuse_kind":"urban_area","ref":"98"},"arcs":[449]},{"type":"MultiLineString","properties":{"kind":"major_road","network":"pl:expressways","sort_rank":381,"kind_detail":"trunk","source":"openstreetmap.org","min_zoom":8.0,"shield_text":"11","ref":"S11"},"arcs":[[450],[451]]},{"type":"MultiLineString","properties":{"kind":"minor_road","sort_rank":358,"landuse_kind":"urban_area","is_bicycle_related":true,"bicycle_shield_text":"R9","bicycle_network":"ncn","source":"openstreetmap.org","min_zoom":8.0,"kind_detail":"service"},"arcs":[[452],[453]]},{"type":"MultiLineString","properties":{"kind":"highway","network":"e-road","sort_rank":383,"kind_detail":"motorway","source":"openstreetmap.org","min_zoom":8.0,"all_networks":["e-road","pl:motorways"],"shield_text":"67","ref":"A8","all_shield_texts":["67","8"],"name:ja":"\u30ec\u30f3\u30b8\u30f3\u30b9\u30ad\u6a4b"},"arcs":[[454],[455]]},{"type":"MultiLineString","properties":{"bus_network":"Wroc\u0142aw","network":"pl:national","sort_rank":380,"kind_detail":"primary","kind":"major_road","source":"openstreetmap.org","min_zoom":8.0,"bus_shield_text":"A","shield_text":"5","landuse_kind":"urban_area","ref":"5;94"},"arcs":[[456],[457],[458]]},{"type":"LineString","properties":{"kind":"major_road","sort_rank":380,"kind_detail":"primary","bus_network":"Wroc\u0142aw","source":"openstreetmap.org","min_zoom":8.0,"bus_shield_text":"107","landuse_kind":"urban_area","ref":"5;94","id":53214062},"arcs":[459]},{"type":"LineString","properties":{"kind":"major_road","network":"pl:national","sort_rank":380,"kind_detail":"primary","source":"openstreetmap.org","min_zoom":8.0,"shield_text":"94","ref":"94;396"},"arcs":[460]},{"type":"MultiLineString","properties":{"bus_network":"Wroc\u0142aw","network":"pl:regional","sort_rank":379,"landuse_kind":"urban_area","is_bicycle_related":true,"kind":"major_road","bicycle_shield_text":"ORT","bicycle_network":"ncn","source":"openstreetmap.org","min_zoom":8.0,"bus_shield_text":"103","shield_text":"336","kind_detail":"secondary","ref":"336"},"arcs":[[461],[462]]},{"type":"MultiLineString","properties":{"bus_network":"Wroc\u0142aw","network":"pl:national","sort_rank":380,"kind_detail":"primary","kind":"major_road","source":"openstreetmap.org","min_zoom":8.0,"bus_shield_text":"247","shield_text":"5","landuse_kind":"urban_area","ref":"5"},"arcs":[[463],[464]]},{"type":"LineString","properties":{"bus_network":"Wroc\u0142aw","network":"pl:national","sort_rank":380,"kind_detail":"primary","kind":"major_road","source":"openstreetmap.org","min_zoom":8.0,"bus_shield_text":"N","shield_text":"98","landuse_kind":"urban_area","ref":"98"},"arcs":[465]},{"type":"LineString","properties":{"bus_network":"Wroc\u0142aw","network":"pl:national","short_name":"Pu\u0142askiego","sort_rank":380,"kind_detail":"primary","kind":"major_road","source":"openstreetmap.org","min_zoom":8.0,"bus_shield_text":"240","shield_text":"98","landuse_kind":"urban_area","ref":"98"},"arcs":[466]},{"type":"MultiLineString","properties":{"kind":"minor_road","sort_rank":360,"kind_detail":"residential","is_bicycle_related":true,"bicycle_shield_text":"R9","bicycle_network":"ncn","source":"openstreetmap.org","min_zoom":8.0},"arcs":[[467],[468],[469]]},{"type":"MultiLineString","properties":{"bus_network":"Wroc\u0142aw","network":"pl:national","sort_rank":380,"kind_detail":"primary","kind":"major_road","source":"openstreetmap.org","min_zoom":8.0,"bus_shield_text":"136","shield_text":"5","landuse_kind":"urban_area","ref":"5;94"},"arcs":[[470],[471],[472]]},{"type":"LineString","properties":{"kind":"path","sort_rank":354,"kind_detail":"track","is_bicycle_related":true,"bicycle_shield_text":"R9","bicycle_network":"ncn","source":"openstreetmap.org","min_zoom":8.0},"arcs":[473]},{"type":"MultiLineString","properties":{"kind":"major_road","network":"pl:national","sort_rank":380,"kind_detail":"primary","source":"openstreetmap.org","min_zoom":8.0,"shield_text":"15","ref":"15"},"arcs":[[474],[475],[476],[477],[478],[479]]},{"type":"MultiLineString","properties":{"kind":"major_road","network":"pl:regional","sort_rank":380,"kind_detail":"primary","source":"openstreetmap.org","min_zoom":8.0,"shield_text":"444","ref":"25"},"arcs":[[480],[481]]},{"type":"MultiLineString","properties":{"kind":"minor_road","sort_rank":358,"landuse_kind":"urban_area","is_bicycle_related":true,"bicycle_shield_text":"ORT","bicycle_network":"ncn","source":"openstreetmap.org","min_zoom":8.0,"kind_detail":"service"},"arcs":[[482],[483],[484],[485]]},{"type":"LineString","properties":{"bus_network":"Wroc\u0142aw","network":"pl:national","sort_rank":380,"kind_detail":"primary","is_bicycle_related":true,"kind":"major_road","bicycle_shield_text":"TTW","bicycle_network":"lcn","source":"openstreetmap.org","min_zoom":8.0,"bus_shield_text":"900L","shield_text":"94","landuse_kind":"urban_area","ref":"94"},"arcs":[486]},{"type":"MultiLineString","properties":{"bus_network":"Wroc\u0142aw","network":"pl:national","sort_rank":380,"kind_detail":"primary","kind":"major_road","source":"openstreetmap.org","min_zoom":8.0,"bus_shield_text":"900L","shield_text":"94","landuse_kind":"urban_area","ref":"94"},"arcs":[[487],[488]]},{"type":"LineString","properties":{"kind":"major_road","sort_rank":377,"kind_detail":"tertiary","is_bicycle_related":true,"bicycle_shield_text":"R9","bicycle_network":"ncn","source":"openstreetmap.org","min_zoom":8.0,"ref":"1371D"},"arcs":[489]},{"type":"MultiLineString","properties":{"kind":"major_road","network":"pl:national","sort_rank":380,"kind_detail":"primary","source":"openstreetmap.org","min_zoom":8.0,"landuse_kind":"nature_reserve","shield_text":"15","ref":"15"},"arcs":[[490],[491],[492]]},{"type":"LineString","properties":{"kind":"major_road","sort_rank":380,"kind_detail":"primary","bus_network":"Wroc\u0142aw","source":"openstreetmap.org","min_zoom":8.0,"bus_shield_text":"A","landuse_kind":"urban_area","ref":"5;94","id":173903958},"arcs":[493]},{"type":"MultiLineString","properties":{"bus_network":"Wroc\u0142aw","network":"pl:national","sort_rank":380,"kind_detail":"primary","kind":"major_road","source":"openstreetmap.org","min_zoom":8.0,"bus_shield_text":"C","shield_text":"5","landuse_kind":"urban_area","ref":"5"},"arcs":[[494],[495]]},{"type":"LineString","properties":{"bus_network":"Wroc\u0142aw","sort_rank":377,"landuse_kind":"urban_area","is_bicycle_related":true,"kind":"major_road","bicycle_shield_text":"R9","bicycle_network":"ncn","source":"openstreetmap.org","min_zoom":8.0,"bus_shield_text":"D","kind_detail":"tertiary","name:de":"Schweidnitzer Stra\u00dfe"},"arcs":[496]},{"type":"LineString","properties":{"cycleway_right":"lane","sort_rank":360,"kind_detail":"residential","is_bicycle_related":true,"kind":"minor_road","bicycle_shield_text":"ORT","bicycle_network":"ncn","source":"openstreetmap.org","min_zoom":8.0,"landuse_kind":"urban_area","id":134270807},"arcs":[497]},{"type":"MultiLineString","properties":{"kind":"major_road","network":"pl:national","sort_rank":380,"kind_detail":"primary","source":"openstreetmap.org","min_zoom":8.0,"landuse_kind":"urban_area","shield_text":"5","ref":"5"},"arcs":[[498],[499],[500],[501],[502]]},{"type":"MultiLineString","properties":{"bus_network":"Wroc\u0142aw","network":"pl:national","sort_rank":380,"kind_detail":"primary","kind":"major_road","source":"openstreetmap.org","min_zoom":8.0,"bus_shield_text":"119","shield_text":"5","landuse_kind":"urban_area","ref":"5"},"arcs":[[503],[504]]},{"type":"LineString","properties":{"kind":"major_road","sort_rank":377,"landuse_kind":"nature_reserve","is_bicycle_related":true,"bicycle_shield_text":"R9","bicycle_network":"ncn","source":"openstreetmap.org","min_zoom":8.0,"kind_detail":"tertiary"},"arcs":[505]},{"type":"LineString","properties":{"bus_network":"Wroc\u0142aw","network":"pl:national","short_name":"Pu\u0142askiego","sort_rank":380,"kind_detail":"primary","kind":"major_road","source":"openstreetmap.org","min_zoom":8.0,"bus_shield_text":"240","shield_text":"98","landuse_kind":"urban_area","ref":"98","old_name:de":"Br\u00fcderstra\u00dfe"},"arcs":[506]},{"type":"MultiLineString","properties":{"bus_network":"Wroc\u0142aw","network":"pl:national","sort_rank":380,"landuse_kind":"urban_area","kind":"major_road","name:de":"Grunwaldplatz","source":"openstreetmap.org","min_zoom":8.0,"bus_shield_text":"115","shield_text":"98","kind_detail":"primary","ref":"98"},"arcs":[[507],[508]]},{"type":"LineString","properties":{"bus_network":"Wroc\u0142aw","network":"pl:national","sort_rank":380,"kind_detail":"primary","kind":"major_road","source":"openstreetmap.org","min_zoom":8.0,"bus_shield_text":"126","shield_text":"5","landuse_kind":"urban_area","ref":"5"},"arcs":[509]},{"type":"MultiLineString","properties":{"bus_network":"Wroc\u0142aw","network":"pl:national","sort_rank":380,"kind_detail":"primary","kind":"major_road","source":"openstreetmap.org","min_zoom":8.0,"bus_shield_text":"243","shield_text":"94","landuse_kind":"urban_area","ref":"94"},"arcs":[[510],[511],[512],[513],[514],[515]]},{"type":"MultiLineString","properties":{"kind":"major_road","network":"e-road","sort_rank":381,"kind_detail":"trunk","source":"openstreetmap.org","min_zoom":8.0,"shield_text":"67","ref":"S8"},"arcs":[[516],[517],[518],[519],[520],[521],[522],[523],[524],[525],[526],[527],[528],[529],[530],[531],[532],[533],[534],[535],[536]]},{"type":"LineString","properties":{"bus_network":"Wroc\u0142aw","network":"pl:national","sort_rank":380,"kind_detail":"primary","kind":"major_road","name:de":"Milleniumsbr\u00fccke","source":"openstreetmap.org","min_zoom":8.0,"bus_shield_text":"C","shield_text":"5","landuse_kind":"urban_area","ref":"5"},"arcs":[537]},{"type":"LineString","properties":{"kind":"major_road","sort_rank":380,"kind_detail":"primary","bus_network":"Wroc\u0142aw","source":"openstreetmap.org","min_zoom":8.0,"bus_shield_text":"116","landuse_kind":"urban_area","id":188337249},"arcs":[538]},{"type":"LineString","properties":{"kind":"major_road","network":"pl:national","sort_rank":380,"kind_detail":"primary","bus_network":"Wroc\u0142aw","source":"openstreetmap.org","min_zoom":8.0,"bus_shield_text":"127","shield_text":"5","landuse_kind":"urban_area","ref":"94","id":134516705},"arcs":[539]},{"type":"LineString","properties":{"kind":"major_road","network":"pl:regional","sort_rank":377,"kind_detail":"tertiary","is_bicycle_related":true,"bicycle_shield_text":"ORT","bicycle_network":"ncn","source":"openstreetmap.org","min_zoom":8.0,"shield_text":"460","ref":"460"},"arcs":[540]},{"type":"LineString","properties":{"kind":"minor_road","sort_rank":360,"landuse_kind":"nature_reserve","is_bicycle_related":true,"bicycle_shield_text":"R9","bicycle_network":"ncn","source":"openstreetmap.org","min_zoom":8.0,"kind_detail":"residential"},"arcs":[541]},{"type":"LineString","properties":{"kind":"major_road","network":"pl:national","sort_rank":380,"kind_detail":"primary","source":"openstreetmap.org","min_zoom":8.0,"shield_text":"98","id":193215239},"arcs":[542]},{"type":"LineString","properties":{"bus_network":"Wroc\u0142aw","network":"pl:regional","sort_rank":379,"landuse_kind":"urban_area","is_bicycle_related":true,"kind":"major_road","bicycle_shield_text":"ORT","bicycle_network":"ncn","source":"openstreetmap.org","min_zoom":8.0,"bus_shield_text":"101","shield_text":"320","kind_detail":"secondary","cycleway":"track"},"arcs":[543]},{"type":"MultiLineString","properties":{"bus_network":"Wroc\u0142aw","network":"pl:national","sort_rank":380,"kind_detail":"primary","kind":"major_road","source":"openstreetmap.org","min_zoom":8.0,"bus_shield_text":"D","shield_text":"5","landuse_kind":"urban_area","ref":"5"},"arcs":[[544],[545]]},{"type":"MultiLineString","properties":{"kind":"major_road","sort_rank":379,"landuse_kind":"urban_area","is_bicycle_related":true,"bicycle_shield_text":"ORT","bicycle_network":"ncn","source":"openstreetmap.org","min_zoom":8.0,"kind_detail":"secondary","ref":"1193O"},"arcs":[[546],[547]]},{"type":"MultiLineString","properties":{"source":"openstreetmap.org","kind":"major_road","network":"pl:national","sort_rank":380,"kind_detail":"primary","min_zoom":8.0,"shield_text":"5"},"arcs":[[548],[549]]},{"type":"MultiLineString","properties":{"bus_network":"Wroc\u0142aw","network":"pl:national","sort_rank":380,"kind_detail":"primary","kind":"major_road","source":"openstreetmap.org","min_zoom":8.0,"bus_shield_text":"113","shield_text":"98","landuse_kind":"urban_area","ref":"98"},"arcs":[[550],[551],[552],[553]]},{"type":"MultiLineString","properties":{"kind":"major_road","network":"pl:national","sort_rank":380,"kind_detail":"primary","source":"openstreetmap.org","min_zoom":8.0,"shield_text":"45","ref":"45"},"arcs":[[554],[555],[556],[557],[558],[559],[560],[561],[562],[563],[564],[565]]},{"type":"LineString","properties":{"kind":"major_road","network":"pl:national","sort_rank":380,"kind_detail":"primary","name:de":"Grunwaldplatz","source":"openstreetmap.org","min_zoom":8.0,"landuse_kind":"urban_area","shield_text":"98","name:pl":"Plac Katedralny","ref":"98","id":115123592},"arcs":[566]},{"type":"MultiLineString","properties":{"bus_network":"Wroc\u0142aw","network":"pl:national","sort_rank":380,"kind_detail":"primary","kind":"major_road","source":"openstreetmap.org","min_zoom":8.0,"bus_shield_text":"D","shield_text":"98","landuse_kind":"urban_area","ref":"98","old_name:de":"F\u00fcrstenbr\u00fccke"},"arcs":[[567],[568]]},{"type":"MultiLineString","properties":{"bus_network":"Wroc\u0142aw","network":"pl:national","sort_rank":380,"kind_detail":"primary","kind":"major_road","source":"openstreetmap.org","min_zoom":8.0,"bus_shield_text":"900P","shield_text":"94","ref":"94"},"arcs":[[569],[570],[571],[572],[573]]},{"type":"LineString","properties":{"kind":"major_road","sort_rank":377,"kind_detail":"tertiary","is_bicycle_related":true,"bicycle_shield_text":"R9","bicycle_network":"ncn","source":"openstreetmap.org","min_zoom":8.0,"ref":"1329D"},"arcs":[574]},{"type":"LineString","properties":{"source":"openstreetmap.org","bus_network":"Wroc\u0142aw","bus_shield_text":"612","sort_rank":380,"kind_detail":"primary","min_zoom":8.0,"kind":"major_road"},"arcs":[575]},{"type":"LineString","properties":{"source":"openstreetmap.org","kind":"major_road","sort_rank":380,"kind_detail":"primary","ref":"5;340","min_zoom":8.0,"id":519742565},"arcs":[576]},{"type":"MultiLineString","properties":{"kind":"path","sort_rank":354,"kind_detail":"cycleway","is_bicycle_related":true,"bicycle_shield_text":"ORT","cycleway":"crossing","source":"openstreetmap.org","min_zoom":8.0,"landuse_kind":"urban_area","bicycle_network":"ncn"},"arcs":[[577],[578],[579],[580],[581],[582],[583],[584],[585],[586],[587],[588],[589],[590],[591],[592],[593],[594],[595],[596],[597],[598],[599],[600],[601],[602],[603],[604],[605],[606],[607],[608],[609],[610],[611],[612],[613],[614],[615],[616],[617],[618],[619],[620],[621],[622],[623],[624],[625],[626],[627],[628],[629],[630],[631],[632],[633],[634],[635],[636]]},{"type":"LineString","properties":{"bus_network":"Wroc\u0142aw","network":"pl:national","sort_rank":380,"kind_detail":"primary","kind":"major_road","name:de":"Milleniumsbr\u00fccke","source":"openstreetmap.org","min_zoom":8.0,"bus_shield_text":"103","shield_text":"5","landuse_kind":"urban_area","ref":"5"},"arcs":[637]},{"type":"LineString","properties":{"kind":"major_road","network":"pl:regional","sort_rank":379,"kind_detail":"secondary","is_bicycle_related":true,"bicycle_shield_text":"ORT","bicycle_network":"ncn","source":"openstreetmap.org","min_zoom":8.0,"shield_text":"459","ref":"459","id":196221652},"arcs":[638]},{"type":"LineString","properties":{"source":"openstreetmap.org","kind":"major_road","sort_rank":380,"kind_detail":"primary","ref":"25","min_zoom":8.0,"id":316636838},"arcs":[639]},{"type":"MultiLineString","properties":{"kind":"major_road","network":"pl:national","sort_rank":380,"kind_detail":"primary","source":"openstreetmap.org","min_zoom":8.0,"landuse_kind":"urban_area","shield_text":"39","ref":"39"},"arcs":[[640],[641],[642],[643],[644],[645],[646]]},{"type":"MultiLineString","properties":{"kind":"path","sort_rank":354,"kind_detail":"footway","is_bicycle_related":true,"bicycle_shield_text":"ORT","bicycle_network":"ncn","source":"openstreetmap.org","min_zoom":8.0},"arcs":[[647],[648],[649]]},{"type":"LineString","properties":{"kind":"minor_road","service":"parking_aisle","sort_rank":356,"kind_detail":"service","is_bicycle_related":true,"bicycle_shield_text":"R9","bicycle_network":"ncn","source":"openstreetmap.org","min_zoom":8.0,"landuse_kind":"urban_area","id":289099258},"arcs":[650]},{"type":"MultiLineString","properties":{"bus_network":"Wroc\u0142aw","network":"pl:national","sort_rank":380,"kind_detail":"primary","kind":"major_road","source":"openstreetmap.org","min_zoom":8.0,"bus_shield_text":"133","shield_text":"94","landuse_kind":"urban_area","ref":"94"},"arcs":[[651],[652]]},{"type":"MultiLineString","properties":{"bus_network":"Wroc\u0142aw","sort_rank":377,"kind_detail":"tertiary","is_bicycle_related":true,"kind":"major_road","bicycle_shield_text":"R9","bicycle_network":"ncn","source":"openstreetmap.org","min_zoom":8.0,"bus_shield_text":"936","ref":"1371D"},"arcs":[[653],[654],[655]]},{"type":"LineString","properties":{"bus_network":"Wroc\u0142aw","network":"pl:national","sort_rank":380,"kind_detail":"primary","kind":"major_road","source":"openstreetmap.org","min_zoom":8.0,"bus_shield_text":"240","shield_text":"98","landuse_kind":"urban_area","ref":"98"},"arcs":[656]},{"type":"LineString","properties":{"bus_network":"Wroc\u0142aw","sort_rank":377,"landuse_kind":"urban_area","bus_shield_text":"D","is_bicycle_related":true,"kind":"major_road","bicycle_shield_text":"R9","cycleway":"lane","source":"openstreetmap.org","min_zoom":8.0,"kind_detail":"tertiary","name:de":"Schweidnitzer Stra\u00dfe","bicycle_network":"ncn"},"arcs":[657]},{"type":"LineString","properties":{"kind":"major_road","network":"pl:national","sort_rank":380,"kind_detail":"primary","is_bicycle_related":true,"bicycle_shield_text":"TTR","bicycle_network":"rcn","source":"openstreetmap.org","min_zoom":8.0,"landuse_kind":"nature_reserve","shield_text":"25","ref":"25","id":206987380},"arcs":[658]},{"type":"MultiLineString","properties":{"bus_network":"Wroc\u0142aw","network":"pl:national","sort_rank":380,"kind_detail":"primary","kind":"major_road","source":"openstreetmap.org","min_zoom":8.0,"bus_shield_text":"245","shield_text":"98","landuse_kind":"urban_area","ref":"98"},"arcs":[[659],[660]]},{"type":"MultiLineString","properties":{"kind":"major_road","network":"pl:regional","sort_rank":379,"kind_detail":"secondary","is_bicycle_related":true,"bicycle_shield_text":"R9","bicycle_network":"ncn","source":"openstreetmap.org","min_zoom":8.0,"shield_text":"340","ref":"340"},"arcs":[[661],[662],[663]]},{"type":"MultiLineString","properties":{"bus_network":"Wroc\u0142aw","network":"pl:national","sort_rank":380,"kind_detail":"primary","kind":"major_road","source":"openstreetmap.org","min_zoom":8.0,"bus_shield_text":"122","shield_text":"98","landuse_kind":"urban_area","ref":"98"},"arcs":[[664],[665]]},{"type":"MultiLineString","properties":{"kind":"major_road","network":"pl:national","sort_rank":380,"kind_detail":"primary","source":"openstreetmap.org","min_zoom":8.0,"shield_text":"42","ref":"42"},"arcs":[[666],[667],[668],[669],[670],[671],[672],[673],[674],[675],[676],[677],[678]]},{"type":"LineString","properties":{"bus_network":"Wroc\u0142aw","network":"pl:national","sort_rank":380,"kind_detail":"primary","kind":"major_road","name:de":"Grunwaldbr\u00fccke","source":"openstreetmap.org","min_zoom":8.0,"bus_shield_text":"D","shield_text":"98","landuse_kind":"urban_area","ref":"98","old_name:de":"Kaiserbr\u00fccke"},"arcs":[679]},{"type":"MultiLineString","properties":{"bus_network":"Wroc\u0142aw","network":"pl:national","sort_rank":380,"kind_detail":"primary","kind":"major_road","source":"openstreetmap.org","min_zoom":8.0,"bus_shield_text":"308","shield_text":"5","landuse_kind":"urban_area","ref":"5"},"arcs":[[680],[681],[682]]},{"type":"LineString","properties":{"kind":"major_road","sort_rank":377,"kind_detail":"tertiary","is_bicycle_related":true,"bicycle_shield_text":"R9","bicycle_network":"ncn","source":"openstreetmap.org","min_zoom":8.0,"ref":"1331D"},"arcs":[683]},{"type":"MultiLineString","properties":{"kind":"major_road","network":"e-road","sort_rank":380,"kind_detail":"primary","source":"openstreetmap.org","min_zoom":8.0,"shield_text":"67","ref":"8"},"arcs":[[684],[685],[686],[687],[688],[689]]},{"type":"MultiLineString","properties":{"kind":"highway","network":"pl:national","sort_rank":383,"kind_detail":"motorway","source":"openstreetmap.org","min_zoom":8.0,"all_networks":["pl:national","pl:national","e-road","pl:motorways"],"shield_text":"4","ref":"A4;5","all_shield_texts":["4","5","40","4"]},"arcs":[[690],[691],[692],[693],[694],[695]]},{"type":"LineString","properties":{"kind":"major_road","network":"pl:national","sort_rank":380,"kind_detail":"primary","is_bicycle_related":true,"bicycle_shield_text":"ORT","bicycle_network":"ncn","source":"openstreetmap.org","min_zoom":8.0,"landuse_kind":"nature_reserve","shield_text":"94","ref":"94;458"},"arcs":[696]},{"type":"LineString","properties":{"source":"openstreetmap.org","kind":"major_road","network":"e-road","sort_rank":381,"kind_detail":"trunk","min_zoom":8.0,"shield_text":"67"},"arcs":[697]},{"type":"MultiLineString","properties":{"kind":"minor_road","sort_rank":358,"landuse_kind":"urban_area","is_bicycle_related":true,"bicycle_shield_text":"R9","cycleway":"opposite_lane","source":"openstreetmap.org","min_zoom":8.0,"kind_detail":"service","bicycle_network":"ncn"},"arcs":[[698],[699]]},{"type":"MultiLineString","properties":{"kind":"minor_road","sort_rank":360,"kind_detail":"residential","is_bicycle_related":true,"bicycle_shield_text":"ORT","bicycle_network":"ncn","source":"openstreetmap.org","min_zoom":8.0,"landuse_kind":"urban_area"},"arcs":[[700],[701],[702],[703],[704],[705]]},{"type":"MultiLineString","properties":{"bus_network":"Wroc\u0142aw","network":"pl:national","sort_rank":380,"kind_detail":"primary","kind":"major_road","source":"openstreetmap.org","min_zoom":8.0,"bus_shield_text":"136","shield_text":"94","landuse_kind":"urban_area","ref":"94"},"arcs":[[706],[707],[708],[709]]},{"type":"LineString","properties":{"bus_network":"Wroc\u0142aw","network":"pl:regional","sort_rank":379,"landuse_kind":"urban_area","is_bicycle_related":true,"kind":"major_road","bicycle_shield_text":"ORT","bicycle_network":"ncn","source":"openstreetmap.org","min_zoom":8.0,"bus_shield_text":"123","shield_text":"336","kind_detail":"secondary","ref":"336"},"arcs":[710]},{"type":"MultiLineString","properties":{"kind":"highway","network":"e-road","sort_rank":383,"landuse_kind":"urban_area","source":"openstreetmap.org","min_zoom":8.0,"all_networks":["e-road","pl:motorways"],"kind_detail":"motorway","shield_text":"67","ref":"A8","all_shield_texts":["67","8"]},"arcs":[[711],[712],[713],[714]]},{"type":"LineString","properties":{"kind":"major_road","network":"pl:regional","sort_rank":379,"kind_detail":"secondary","is_bicycle_related":true,"bicycle_shield_text":"ORT","bicycle_network":"ncn","source":"openstreetmap.org","min_zoom":8.0,"shield_text":"458","ref":"458"},"arcs":[715]},{"type":"LineString","properties":{"bus_network":"Wroc\u0142aw","network":"pl:national","sort_rank":380,"kind_detail":"primary","kind":"major_road","source":"openstreetmap.org","min_zoom":8.0,"bus_shield_text":"107","shield_text":"5","landuse_kind":"urban_area","ref":"5;94"},"arcs":[716]},{"type":"MultiLineString","properties":{"bus_network":"Wroc\u0142aw","network":"pl:national","sort_rank":380,"kind_detail":"primary","kind":"major_road","source":"openstreetmap.org","min_zoom":8.0,"bus_shield_text":"602","shield_text":"5","ref":"5"},"arcs":[[717],[718],[719]]},{"type":"MultiLineString","properties":{"bus_network":"Wroc\u0142aw","network":"pl:national","sort_rank":380,"kind_detail":"primary","kind":"major_road","source":"openstreetmap.org","min_zoom":8.0,"bus_shield_text":"127","shield_text":"98","landuse_kind":"urban_area","ref":"98"},"arcs":[[720],[721]]},{"type":"MultiLineString","properties":{"bus_network":"Wroc\u0142aw","network":"pl:national","sort_rank":380,"kind_detail":"primary","kind":"major_road","source":"openstreetmap.org","min_zoom":8.0,"bus_shield_text":"900L","shield_text":"94"},"arcs":[[722],[723]]},{"type":"LineString","properties":{"kind":"major_road","network":"pl:national","sort_rank":380,"kind_detail":"primary","bus_network":"Wroc\u0142aw","source":"openstreetmap.org","min_zoom":8.0,"bus_shield_text":"D","shield_text":"5","landuse_kind":"urban_area","id":32679157},"arcs":[724]},{"type":"MultiLineString","properties":{"bus_network":"Wroc\u0142aw","sort_rank":377,"landuse_kind":"urban_area","is_bicycle_related":true,"kind":"major_road","bicycle_shield_text":"R9","bicycle_network":"ncn","source":"openstreetmap.org","min_zoom":8.0,"bus_shield_text":"107","kind_detail":"tertiary"},"arcs":[[725],[726],[727],[728],[729],[730]]},{"type":"LineString","properties":{"kind":"major_road","network":"pl:national","sort_rank":380,"kind_detail":"primary","is_bicycle_related":true,"source":"openstreetmap.org","min_zoom":8.0,"shield_text":"45","ref":"45","id":27327811},"arcs":[731]},{"type":"LineString","properties":{"kind":"major_road","network":"pl:national","sort_rank":380,"kind_detail":"primary","is_bicycle_related":true,"bicycle_shield_text":"R9","bicycle_network":"ncn","source":"openstreetmap.org","min_zoom":8.0,"shield_text":"15","ref":"15;340"},"arcs":[732]},{"type":"LineString","properties":{"bus_network":"Wroc\u0142aw","network":"pl:regional","sort_rank":379,"landuse_kind":"urban_area","is_bicycle_related":true,"kind":"major_road","bicycle_shield_text":"ORT","bicycle_network":"ncn","source":"openstreetmap.org","min_zoom":8.0,"bus_shield_text":"115","shield_text":"455","kind_detail":"secondary","ref":"455"},"arcs":[733]},{"type":"MultiLineString","properties":{"bus_network":"Wroc\u0142aw","network":"pl:national","sort_rank":380,"kind_detail":"primary","kind":"major_road","name:de":"Grunwaldplatz","source":"openstreetmap.org","min_zoom":8.0,"bus_shield_text":"D","shield_text":"98","landuse_kind":"urban_area","ref":"98"},"arcs":[[734],[735],[736]]},{"type":"LineString","properties":{"kind":"major_road","network":"pl:national","sort_rank":380,"kind_detail":"primary","bus_network":"Wroc\u0142aw","source":"openstreetmap.org","min_zoom":8.0,"bus_shield_text":"101","shield_text":"94","ref":"94","id":37806261},"arcs":[737]},{"type":"MultiLineString","properties":{"bus_network":"Wroc\u0142aw","network":"pl:national","sort_rank":380,"kind_detail":"primary","kind":"major_road","source":"openstreetmap.org","min_zoom":8.0,"bus_shield_text":"100","shield_text":"94","landuse_kind":"urban_area","ref":"94"},"arcs":[[738],[739],[740]]},{"type":"MultiLineString","properties":{"kind":"major_road","sort_rank":377,"landuse_kind":"urban_area","is_bicycle_related":true,"bicycle_shield_text":"R9","bicycle_network":"ncn","source":"openstreetmap.org","min_zoom":8.0,"kind_detail":"tertiary"},"arcs":[[741],[742],[743]]},{"type":"MultiLineString","properties":{"kind":"minor_road","sort_rank":360,"kind_detail":"residential","is_bicycle_related":true,"bicycle_shield_text":"ORT","bicycle_network":"ncn","source":"openstreetmap.org","min_zoom":8.0},"arcs":[[744],[745],[746],[747],[748],[749],[750],[751],[752]]},{"type":"MultiLineString","properties":{"kind":"highway","network":"pl:national","sort_rank":383,"kind_detail":"motorway","source":"openstreetmap.org","min_zoom":8.0,"all_networks":["pl:national","e-road","pl:motorways"],"shield_text":"4","ref":"A4","all_shield_texts":["4","40","4"]},"arcs":[[753],[754],[755],[756],[757],[758]]},{"type":"LineString","properties":{"source":"openstreetmap.org","kind":"major_road","sort_rank":380,"kind_detail":"primary","ref":"35","min_zoom":8.0,"id":15921109},"arcs":[759]},{"type":"LineString","properties":{"kind":"major_road","network":"pl:national","sort_rank":380,"kind_detail":"primary","bus_network":"Wroc\u0142aw","source":"openstreetmap.org","min_zoom":8.0,"bus_shield_text":"900P","shield_text":"94","landuse_kind":"urban_area","ref":"94","id":31560727},"arcs":[760]},{"type":"MultiLineString","properties":{"kind":"path","sort_rank":354,"kind_detail":"path","is_bicycle_related":true,"bicycle_shield_text":"ORT","bicycle_network":"ncn","source":"openstreetmap.org","min_zoom":8.0},"arcs":[[761],[762],[763]]},{"type":"LineString","properties":{"bus_network":"Wroc\u0142aw","sort_rank":377,"landuse_kind":"urban_area","is_bicycle_related":true,"kind":"major_road","bicycle_shield_text":"R9","bicycle_network":"ncn","source":"openstreetmap.org","min_zoom":8.0,"bus_shield_text":"128","kind_detail":"tertiary"},"arcs":[764]},{"type":"LineString","properties":{"bus_network":"Wroc\u0142aw","network":"pl:national","sort_rank":380,"kind_detail":"primary","is_bicycle_related":true,"kind":"major_road","bicycle_shield_text":"TTW","bicycle_network":"lcn","source":"openstreetmap.org","min_zoom":8.0,"bus_shield_text":"113","shield_text":"98","landuse_kind":"urban_area","ref":"98","id":21925918},"arcs":[765]},{"type":"LineString","properties":{"bus_network":"Wroc\u0142aw","sort_rank":377,"landuse_kind":"urban_area","is_bicycle_related":true,"kind":"major_road","bicycle_shield_text":"ORT","bicycle_network":"ncn","source":"openstreetmap.org","min_zoom":8.0,"bus_shield_text":"132","kind_detail":"tertiary"},"arcs":[766]},{"type":"MultiLineString","properties":{"kind":"minor_road","sort_rank":360,"kind_detail":"unclassified","is_bicycle_related":true,"bicycle_shield_text":"ORT","bicycle_network":"ncn","source":"openstreetmap.org","min_zoom":8.0},"arcs":[[767],[768],[769],[770],[771]]},{"type":"MultiLineString","properties":{"kind":"path","sort_rank":354,"kind_detail":"cycleway","is_bicycle_related":true,"bicycle_shield_text":"R9","cycleway":"crossing","source":"openstreetmap.org","min_zoom":8.0,"landuse_kind":"urban_area","bicycle_network":"ncn"},"arcs":[[772],[773],[774],[775],[776],[777],[778],[779],[780],[781],[782],[783],[784],[785],[786],[787],[788],[789],[790],[791],[792],[793],[794],[795],[796],[797],[798],[799],[800],[801],[802],[803],[804],[805],[806],[807],[808],[809],[810],[811],[812],[813],[814],[815],[816],[817],[818],[819],[820],[821],[822],[823],[824],[825],[826],[827],[828]]},{"type":"MultiLineString","properties":{"source":"openstreetmap.org","kind":"major_road","sort_rank":380,"kind_detail":"primary","ref":"11","min_zoom":8.0},"arcs":[[829],[830]]},{"type":"MultiLineString","properties":{"bus_network":"Wroc\u0142aw","network":"pl:national","sort_rank":380,"kind_detail":"primary","kind":"major_road","source":"openstreetmap.org","min_zoom":8.0,"bus_shield_text":"128","shield_text":"94","landuse_kind":"urban_area","ref":"94"},"arcs":[[831],[832]]},{"type":"MultiLineString","properties":{"kind":"major_road","network":"pl:national","sort_rank":380,"kind_detail":"primary","source":"openstreetmap.org","min_zoom":8.0,"landuse_kind":"nature_reserve","shield_text":"11","ref":"11;25"},"arcs":[[833],[834],[835]]},{"type":"MultiLineString","properties":{"bus_network":"Wroc\u0142aw","sort_rank":377,"landuse_kind":"urban_area","is_bicycle_related":true,"kind":"major_road","bicycle_shield_text":"ORT","bicycle_network":"ncn","source":"openstreetmap.org","min_zoom":8.0,"bus_shield_text":"120","kind_detail":"tertiary"},"arcs":[[836],[837],[838]]},{"type":"MultiLineString","properties":{"bus_network":"Wroc\u0142aw","network":"pl:national","sort_rank":380,"kind_detail":"primary","kind":"major_road","source":"openstreetmap.org","min_zoom":8.0,"bus_shield_text":"126","shield_text":"5","landuse_kind":"urban_area","ref":"5;94"},"arcs":[[839],[840]]},{"type":"LineString","properties":{"bus_network":"Wroc\u0142aw","network":"pl:national","sort_rank":380,"kind_detail":"primary","kind":"major_road","name:de":"Grunwaldplatz","source":"openstreetmap.org","min_zoom":8.0,"bus_shield_text":"C","shield_text":"98","landuse_kind":"urban_area","ref":"98"},"arcs":[841]},{"type":"LineString","properties":{"kind":"highway","network":"pl:national","sort_rank":383,"kind_detail":"motorway","source":"openstreetmap.org","min_zoom":8.0,"all_networks":["pl:national","e-road","pl:motorways"],"shield_text":"4","ref":"\u04104","all_shield_texts":["4","40","4"]},"arcs":[842]},{"type":"MultiLineString","properties":{"kind":"highway","network":"e-road","sort_rank":383,"kind_detail":"motorway","source":"openstreetmap.org","min_zoom":8.0,"all_networks":["e-road","pl:motorways"],"shield_text":"67","ref":"A8","all_shield_texts":["67","8"]},"arcs":[[843],[844],[845],[846],[847],[848],[849],[850],[851],[852],[853],[854]]},{"type":"LineString","properties":{"bus_network":"Wroc\u0142aw","network":"pl:national","sort_rank":380,"kind_detail":"primary","kind":"major_road","source":"openstreetmap.org","min_zoom":8.0,"bus_shield_text":"243","shield_text":"98","landuse_kind":"urban_area","ref":"98"},"arcs":[855]},{"type":"LineString","properties":{"kind":"major_road","network":"pl:national","sort_rank":380,"kind_detail":"primary","is_bicycle_related":true,"bicycle_shield_text":"ORT","bicycle_network":"ncn","source":"openstreetmap.org","min_zoom":8.0,"shield_text":"94","ref":"94;458"},"arcs":[856]},{"type":"LineString","properties":{"bus_network":"Wroc\u0142aw","network":"pl:national","sort_rank":380,"kind_detail":"primary","kind":"major_road","source":"openstreetmap.org","min_zoom":8.0,"bus_shield_text":"101","shield_text":"5","landuse_kind":"urban_area","ref":"5"},"arcs":[857]},{"type":"LineString","properties":{"bus_network":"Wroc\u0142aw","sort_rank":380,"kind_detail":"primary","kind":"major_road","source":"openstreetmap.org","min_zoom":8.0,"bus_shield_text":"126","landuse_kind":"urban_area"},"arcs":[858]},{"type":"LineString","properties":{"source":"openstreetmap.org","kind":"major_road","network":"pl:national","sort_rank":380,"kind_detail":"primary","min_zoom":8.0,"shield_text":"94"},"arcs":[859]},{"type":"LineString","properties":{"bus_network":"Wroc\u0142aw","network":"pl:national","sort_rank":380,"kind_detail":"primary","kind":"major_road","source":"openstreetmap.org","min_zoom":8.0,"bus_shield_text":"127","shield_text":"5","landuse_kind":"urban_area","ref":"5;94"},"arcs":[860]},{"type":"MultiLineString","properties":{"kind":"major_road","network":"pl:national","sort_rank":380,"kind_detail":"primary","source":"openstreetmap.org","min_zoom":8.0,"shield_text":"11","ref":"11;42"},"arcs":[[861],[862],[863],[864],[865]]},{"type":"LineString","properties":{"kind":"major_road","network":"pl:national","sort_rank":380,"kind_detail":"primary","is_bicycle_related":true,"bicycle_shield_text":"102","bicycle_network":"lcn","source":"openstreetmap.org","min_zoom":8.0,"shield_text":"11","ref":"11;25","id":243726985},"arcs":[866]},{"type":"LineString","properties":{"source":"openstreetmap.org","kind":"major_road","sort_rank":380,"kind_detail":"primary","ref":"45","min_zoom":8.0},"arcs":[867]},{"type":"MultiLineString","properties":{"kind":"major_road","network":"pl:national","sort_rank":380,"kind_detail":"primary","source":"openstreetmap.org","min_zoom":8.0,"landuse_kind":"urban_area","shield_text":"5","ref":"5;94"},"arcs":[[868],[869]]},{"type":"MultiLineString","properties":{"bus_network":"Wroc\u0142aw","network":"pl:national","sort_rank":380,"kind_detail":"primary","kind":"major_road","source":"openstreetmap.org","min_zoom":8.0,"bus_shield_text":"243","shield_text":"94","ref":"94"},"arcs":[[870],[871],[872],[873],[874],[875]]},{"type":"MultiLineString","properties":{"kind":"path","sort_rank":354,"kind_detail":"track","is_bicycle_related":true,"bicycle_shield_text":"ORT","bicycle_network":"ncn","source":"openstreetmap.org","min_zoom":8.0,"landuse_kind":"urban_area"},"arcs":[[876],[877],[878],[879],[880]]},{"type":"LineString","properties":{"bus_network":"Wroc\u0142aw","network":"pl:national","short_name":"Pu\u0142askiego","sort_rank":380,"kind_detail":"primary","kind":"major_road","source":"openstreetmap.org","min_zoom":8.0,"bus_shield_text":"N","shield_text":"98","landuse_kind":"urban_area","ref":"98"},"arcs":[881]},{"type":"MultiLineString","properties":{"bus_network":"Wroc\u0142aw","network":"pl:national","sort_rank":380,"kind_detail":"primary","kind":"major_road","source":"openstreetmap.org","min_zoom":8.0,"bus_shield_text":"D","shield_text":"98","landuse_kind":"urban_area","ref":"98"},"arcs":[[882],[883],[884],[885],[886],[887],[888],[889]]},{"type":"LineString","properties":{"kind":"minor_road","sort_rank":360,"kind_detail":"residential","is_bicycle_related":true,"bicycle_shield_text":"R9","bicycle_network":"ncn","source":"openstreetmap.org","min_zoom":8.0,"landuse_kind":"urban_area"},"arcs":[890]},{"type":"MultiLineString","properties":{"sort_rank":380,"kind_detail":"primary","min_zoom":8.0,"kind":"major_road","source":"openstreetmap.org"},"arcs":[[891],[892],[893],[894],[895]]},{"type":"MultiLineString","properties":{"kind":"major_road","network":"pl:national","sort_rank":380,"kind_detail":"primary","source":"openstreetmap.org","min_zoom":8.0,"landuse_kind":"urban_area","shield_text":"98","ref":"98"},"arcs":[[896],[897],[898],[899],[900],[901],[902],[903],[904],[905],[906]]},{"type":"LineString","properties":{"bus_network":"Wroc\u0142aw","network":"pl:national","sort_rank":380,"kind_detail":"primary","kind":"major_road","source":"openstreetmap.org","min_zoom":8.0,"bus_shield_text":"612","shield_text":"35","ref":"35"},"arcs":[907]},{"type":"MultiLineString","properties":{"kind":"major_road","network":"pl:national","sort_rank":380,"kind_detail":"primary","source":"openstreetmap.org","min_zoom":8.0,"shield_text":"35","ref":"35"},"arcs":[[908],[909],[910],[911],[912],[913],[914],[915],[916],[917],[918],[919],[920],[921],[922],[923],[924],[925],[926],[927],[928],[929],[930],[931],[932],[933],[934],[935],[936],[937],[938],[939],[940],[941],[942],[943]]},{"type":"MultiLineString","properties":{"bus_network":"Wroc\u0142aw","network":"pl:national","sort_rank":380,"kind_detail":"primary","kind":"major_road","source":"openstreetmap.org","min_zoom":8.0,"bus_shield_text":"127","shield_text":"94","landuse_kind":"urban_area","ref":"94"},"arcs":[[944],[945]]},{"type":"MultiLineString","properties":{"bus_network":"Wroc\u0142aw","network":"pl:national","sort_rank":380,"kind_detail":"primary","kind":"major_road","source":"openstreetmap.org","min_zoom":8.0,"bus_shield_text":"119","shield_text":"5","landuse_kind":"urban_area","ref":"5;94"},"arcs":[[946],[947],[948],[949],[950]]},{"type":"LineString","properties":{"kind":"major_road","sort_rank":377,"landuse_kind":"urban_area","is_bicycle_related":true,"bicycle_shield_text":"ORT","bicycle_network":"ncn","source":"openstreetmap.org","min_zoom":8.0,"kind_detail":"tertiary"},"arcs":[951]},{"type":"LineString","properties":{"bus_network":"Wroc\u0142aw","sort_rank":377,"kind_detail":"tertiary","is_bicycle_related":true,"kind":"major_road","bicycle_shield_text":"ORT","bicycle_network":"ncn","source":"openstreetmap.org","min_zoom":8.0,"bus_shield_text":"123"},"arcs":[952]},{"type":"LineString","properties":{"kind":"minor_road","sort_rank":360,"kind_detail":"unclassified","is_bicycle_related":true,"bicycle_shield_text":"ORT","bicycle_network":"ncn","source":"openstreetmap.org","min_zoom":8.0,"landuse_kind":"urban_area","id":172897567},"arcs":[953]},{"type":"MultiLineString","properties":{"kind":"major_road","network":"pl:national","sort_rank":381,"kind_detail":"trunk","source":"openstreetmap.org","min_zoom":8.0,"shield_text":"5","ref":"S5"},"arcs":[[954],[955],[956],[957]]},{"type":"MultiLineString","properties":{"bus_network":"Wroc\u0142aw","network":"pl:national","sort_rank":380,"kind_detail":"primary","kind":"major_road","source":"openstreetmap.org","min_zoom":8.0,"bus_shield_text":"259","shield_text":"98","landuse_kind":"urban_area","ref":"98"},"arcs":[[958],[959],[960],[961],[962]]},{"type":"LineString","properties":{"bus_network":"Wroc\u0142aw","network":"pl:national","sort_rank":380,"kind_detail":"primary","kind":"major_road","name:de":"Grunwaldplatz","source":"openstreetmap.org","min_zoom":8.0,"bus_shield_text":"116","shield_text":"98","landuse_kind":"urban_area","ref":"98"},"arcs":[963]},{"type":"LineString","properties":{"kind":"major_road","network":"pl:national","sort_rank":380,"kind_detail":"primary","bus_network":"Wroc\u0142aw","source":"openstreetmap.org","min_zoom":8.0,"bus_shield_text":"144","shield_text":"98","landuse_kind":"urban_area","ref":"98","id":173757294},"arcs":[964]},{"type":"LineString","properties":{"kind":"major_road","network":"pl:national","sort_rank":380,"kind_detail":"primary","source":"openstreetmap.org","min_zoom":8.0,"shield_text":"39","ref":"39;395","id":24822299},"arcs":[965]},{"type":"MultiLineString","properties":{"kind":"path","sort_rank":354,"landuse_kind":"urban_area","is_bicycle_related":true,"bicycle_shield_text":"ORT","bicycle_network":"ncn","source":"openstreetmap.org","min_zoom":8.0,"kind_detail":"path"},"arcs":[[966],[967],[968],[969],[970],[971],[972],[973],[974],[975],[976],[977],[978],[979],[980],[981],[982],[983],[984],[985],[986],[987],[988],[989],[990],[991],[992],[993],[994],[995],[996],[997],[998],[999],[1000],[1001],[1002],[1003]]},{"type":"MultiLineString","properties":{"kind":"major_road","network":"pl:national","sort_rank":380,"kind_detail":"primary","source":"openstreetmap.org","min_zoom":8.0,"landuse_kind":"nature_reserve","shield_text":"39","ref":"39"},"arcs":[[1004],[1005]]},{"type":"LineString","properties":{"kind":"major_road","network":"pl:national","sort_rank":380,"kind_detail":"primary","is_bicycle_related":true,"bicycle_shield_text":"TTR","bicycle_network":"rcn","source":"openstreetmap.org","min_zoom":8.0,"shield_text":"11","ref":"11","id":112681213},"arcs":[1006]},{"type":"LineString","properties":{"kind":"major_road","network":"pl:national","sort_rank":380,"kind_detail":"primary","is_bicycle_related":true,"source":"openstreetmap.org","min_zoom":8.0,"shield_text":"42","ref":"42"},"arcs":[1007]},{"type":"LineString","properties":{"kind":"major_road","sort_rank":380,"kind_detail":"primary","bus_network":"Wroc\u0142aw","source":"openstreetmap.org","min_zoom":8.0,"bus_shield_text":"D","landuse_kind":"urban_area","id":32679155},"arcs":[1008]},{"type":"MultiLineString","properties":{"kind":"path","sort_rank":354,"kind_detail":"track","is_bicycle_related":true,"bicycle_shield_text":"ORT","bicycle_network":"ncn","source":"openstreetmap.org","min_zoom":8.0},"arcs":[[1009],[1010],[1011],[1012],[1013],[1014],[1015],[1016],[1017],[1018],[1019]]},{"type":"MultiLineString","properties":{"cycleway_right":"track","network":"pl:regional","sort_rank":379,"landuse_kind":"urban_area","is_bicycle_related":true,"bus_network":"Wroc\u0142aw","bicycle_shield_text":"ORT","bicycle_network":"ncn","source":"openstreetmap.org","min_zoom":8.0,"bus_shield_text":"101","shield_text":"320","kind_detail":"secondary","kind":"major_road"},"arcs":[[1020],[1021]]},{"type":"MultiLineString","properties":{"source":"openstreetmap.org","kind":"major_road","landuse_kind":"urban_area","sort_rank":380,"kind_detail":"primary","min_zoom":8.0},"arcs":[[1022],[1023],[1024]]},{"type":"MultiLineString","properties":{"kind":"major_road","network":"pl:national","sort_rank":380,"kind_detail":"primary","source":"openstreetmap.org","min_zoom":8.0,"shield_text":"42","ref":"42;45"},"arcs":[[1025],[1026],[1027]]},{"type":"MultiLineString","properties":{"kind":"major_road","network":"pl:national","sort_rank":380,"kind_detail":"primary","source":"openstreetmap.org","min_zoom":8.0,"shield_text":"98","ref":"98"},"arcs":[[1028],[1029],[1030],[1031],[1032],[1033],[1034]]},{"type":"LineString","properties":{"kind":"major_road","network":"pl:national","sort_rank":380,"kind_detail":"primary","is_bicycle_related":true,"cycleway":"track","source":"openstreetmap.org","min_zoom":8.0,"shield_text":"39","ref":"39","id":329762327},"arcs":[1035]},{"type":"LineString","properties":{"bus_network":"Wroc\u0142aw","network":"pl:national","sort_rank":380,"kind_detail":"primary","kind":"major_road","source":"openstreetmap.org","min_zoom":8.0,"bus_shield_text":"113","shield_text":"5","landuse_kind":"urban_area","ref":"5"},"arcs":[1036]},{"type":"MultiLineString","properties":{"source":"openstreetmap.org","kind":"major_road","sort_rank":380,"kind_detail":"primary","ref":"42","min_zoom":8.0},"arcs":[[1037],[1038],[1039]]},{"type":"LineString","properties":{"kind":"major_road","sort_rank":377,"kind_detail":"tertiary","is_bicycle_related":true,"bicycle_shield_text":"R9","bicycle_network":"ncn","source":"openstreetmap.org","min_zoom":8.0,"ref":"5484P"},"arcs":[1040]},{"type":"LineString","properties":{"kind":"major_road","network":"pl:national","sort_rank":380,"kind_detail":"primary","bus_network":"Wroc\u0142aw","name:de":"Opelner Strasse","source":"openstreetmap.org","min_zoom":8.0,"bus_shield_text":"900L","shield_text":"94","landuse_kind":"urban_area","ref":"94","id":304282741},"arcs":[1041]},{"type":"LineString","properties":{"bus_network":"Wroc\u0142aw","sort_rank":377,"landuse_kind":"urban_area","is_bicycle_related":true,"kind":"major_road","bicycle_shield_text":"R9","bicycle_network":"ncn","source":"openstreetmap.org","min_zoom":8.0,"bus_shield_text":"130","kind_detail":"tertiary"},"arcs":[1042]},{"type":"LineString","properties":{"kind":"major_road","network":"pl:national","sort_rank":380,"kind_detail":"primary","source":"openstreetmap.org","min_zoom":8.0,"shield_text":"39","id":229401976},"arcs":[1043]},{"type":"LineString","properties":{"kind":"major_road","network":"pl:expressways","sort_rank":380,"kind_detail":"primary","source":"openstreetmap.org","min_zoom":8.0,"shield_text":"5","ref":"S5"},"arcs":[1044]},{"type":"LineString","properties":{"kind":"path","footway":"crossing","sort_rank":354,"kind_detail":"footway","is_bicycle_related":true,"bicycle_shield_text":"ORT","bicycle_network":"ncn","source":"openstreetmap.org","min_zoom":8.0,"landuse_kind":"urban_area","id":501802204},"arcs":[1045]},{"type":"MultiLineString","properties":{"kind":"major_road","sort_rank":377,"kind_detail":"tertiary","is_bicycle_related":true,"bicycle_shield_text":"ORT","bicycle_network":"ncn","source":"openstreetmap.org","min_zoom":8.0},"arcs":[[1046],[1047],[1048],[1049],[1050]]},{"type":"LineString","properties":{"kind":"path","sort_rank":354,"kind_detail":"cycleway","is_bicycle_related":true,"bicycle_shield_text":"ORT","cycleway":"crossing","source":"openstreetmap.org","min_zoom":8.0,"bicycle_network":"ncn","id":498343006},"arcs":[1051]},{"type":"MultiLineString","properties":{"kind":"path","sort_rank":354,"kind_detail":"cycleway","is_bicycle_related":true,"bicycle_shield_text":"ORT","bicycle_network":"ncn","source":"openstreetmap.org","min_zoom":8.0},"arcs":[[1052],[1053]]},{"type":"MultiLineString","properties":{"kind":"major_road","sort_rank":377,"kind_detail":"tertiary","is_bicycle_related":true,"bicycle_shield_text":"R9","bicycle_network":"ncn","source":"openstreetmap.org","min_zoom":8.0},"arcs":[[1054],[1055],[1056],[1057],[1058]]},{"type":"MultiLineString","properties":{"bus_network":"Wroc\u0142aw","network":"pl:national","sort_rank":380,"kind_detail":"primary","kind":"major_road","source":"openstreetmap.org","min_zoom":8.0,"bus_shield_text":"116","shield_text":"98","landuse_kind":"urban_area","ref":"98"},"arcs":[[1059],[1060]]},{"type":"MultiLineString","properties":{"source":"openstreetmap.org","kind":"major_road","sort_rank":380,"kind_detail":"primary","ref":"39","min_zoom":8.0},"arcs":[[1061],[1062],[1063],[1064]]},{"type":"MultiLineString","properties":{"kind":"path","sort_rank":354,"landuse_kind":"urban_area","is_bicycle_related":true,"bicycle_shield_text":"ORT","bicycle_network":"ncn","source":"openstreetmap.org","min_zoom":8.0,"kind_detail":"footway"},"arcs":[[1065],[1066]]},{"type":"LineString","properties":{"kind":"major_road","int_name":"E67","network":"e-road","sort_rank":380,"kind_detail":"primary","source":"openstreetmap.org","min_zoom":8.0,"shield_text":"67","ref":"8"},"arcs":[1067]},{"type":"LineString","properties":{"bus_network":"Wroc\u0142aw","network":"pl:national","sort_rank":380,"kind_detail":"primary","kind":"major_road","source":"openstreetmap.org","min_zoom":8.0,"bus_shield_text":"908","shield_text":"5","landuse_kind":"urban_area","ref":"5"},"arcs":[1068]},{"type":"LineString","properties":{"kind":"major_road","network":"pl:national","sort_rank":380,"kind_detail":"primary","bus_network":"Wroc\u0142aw","source":"openstreetmap.org","min_zoom":8.0,"bus_shield_text":"126","shield_text":"94","landuse_kind":"urban_area","id":32679156},"arcs":[1069]},{"type":"MultiLineString","properties":{"kind":"major_road","network":"pl:national","sort_rank":380,"kind_detail":"primary","source":"openstreetmap.org","min_zoom":8.0,"shield_text":"39","ref":"39;94"},"arcs":[[1070],[1071],[1072],[1073]]},{"type":"MultiLineString","properties":{"source":"openstreetmap.org","kind":"major_road","network":"pl:national","sort_rank":380,"kind_detail":"primary","min_zoom":8.0,"shield_text":"45"},"arcs":[[1074],[1075]]},{"type":"LineString","properties":{"bus_network":"Wroc\u0142aw","network":"pl:national","sort_rank":380,"kind_detail":"primary","kind":"major_road","source":"openstreetmap.org","min_zoom":8.0,"bus_shield_text":"908","shield_text":"5","ref":"5"},"arcs":[1076]},{"type":"LineString","properties":{"kind":"major_road","network":"pl:national","sort_rank":380,"kind_detail":"primary","bus_network":"Wroc\u0142aw","source":"openstreetmap.org","min_zoom":8.0,"bus_shield_text":"119","shield_text":"94","landuse_kind":"urban_area","ref":"94","id":31586001},"arcs":[1077]},{"type":"MultiLineString","properties":{"bus_network":"Wroc\u0142aw","network":"pl:national","sort_rank":380,"kind_detail":"primary","kind":"major_road","source":"openstreetmap.org","min_zoom":8.0,"bus_shield_text":"900L","shield_text":"94","ref":"94"},"arcs":[[1078],[1079],[1080],[1081],[1082]]},{"type":"LineString","properties":{"kind":"major_road","network":"pl:national","sort_rank":380,"kind_detail":"primary","is_bicycle_related":true,"bicycle_shield_text":"102","bicycle_network":"lcn","source":"openstreetmap.org","min_zoom":8.0,"shield_text":"25","ref":"25"},"arcs":[1083]},{"type":"LineString","properties":{"kind":"major_road","network":"pl:regional","sort_rank":379,"kind_detail":"secondary","is_bicycle_related":true,"bicycle_shield_text":"R9","bicycle_network":"ncn","source":"openstreetmap.org","min_zoom":8.0,"landuse_kind":"nature_reserve","shield_text":"439","ref":"439","id":188376275},"arcs":[1084]},{"type":"LineString","properties":{"kind":"major_road","network":"pl:national","short_name":"Pu\u0142askiego","sort_rank":380,"kind_detail":"primary","source":"openstreetmap.org","min_zoom":8.0,"landuse_kind":"urban_area","shield_text":"98","ref":"98"},"arcs":[1085]},{"type":"MultiLineString","properties":{"kind":"major_road","network":"pl:national","sort_rank":380,"kind_detail":"primary","source":"openstreetmap.org","min_zoom":8.0,"shield_text":"15","ref":"15;340"},"arcs":[[1086],[1087],[1088]]},{"type":"LineString","properties":{"kind":"minor_road","sort_rank":360,"kind_detail":"living_street","is_bicycle_related":true,"bicycle_shield_text":"ORT","bicycle_network":"ncn","source":"openstreetmap.org","min_zoom":8.0,"landuse_kind":"urban_area","id":118501765},"arcs":[1089]},{"type":"MultiLineString","properties":{"bus_network":"Wroc\u0142aw","network":"pl:national","sort_rank":380,"kind_detail":"primary","kind":"major_road","source":"openstreetmap.org","min_zoom":8.0,"bus_shield_text":"126","shield_text":"94","landuse_kind":"urban_area","ref":"94"},"arcs":[[1090],[1091]]},{"type":"LineString","properties":{"kind":"major_road","network":"pl:national","short_name":"Pu\u0142askiego","sort_rank":380,"kind_detail":"primary","bus_network":"Wroc\u0142aw","source":"openstreetmap.org","min_zoom":8.0,"bus_shield_text":"250","shield_text":"98","landuse_kind":"urban_area","ref":"98","id":189653304},"arcs":[1092]},{"type":"LineString","properties":{"kind":"major_road","network":"pl:national","sort_rank":380,"kind_detail":"primary","is_bicycle_related":true,"bicycle_shield_text":"TTW","bicycle_network":"lcn","source":"openstreetmap.org","min_zoom":8.0,"landuse_kind":"urban_area","shield_text":"98","ref":"98","id":164756672},"arcs":[1093]},{"type":"LineString","properties":{"bus_network":"Wroc\u0142aw","network":"pl:national","sort_rank":380,"kind_detail":"primary","is_bicycle_related":true,"kind":"major_road","bicycle_shield_text":"TTW","bicycle_network":"lcn","source":"openstreetmap.org","min_zoom":8.0,"bus_shield_text":"119","shield_text":"5","landuse_kind":"urban_area","ref":"5;94"},"arcs":[1094]},{"type":"MultiLineString","properties":{"kind":"path","sort_rank":354,"landuse_kind":"nature_reserve","is_bicycle_related":true,"bicycle_shield_text":"ORT","bicycle_network":"ncn","source":"openstreetmap.org","min_zoom":8.0,"kind_detail":"track"},"arcs":[[1095],[1096]]},{"type":"LineString","properties":{"bus_network":"Wroc\u0142aw","sort_rank":377,"kind_detail":"tertiary","is_bicycle_related":true,"kind":"major_road","bicycle_shield_text":"ORT","bicycle_network":"ncn","source":"openstreetmap.org","min_zoom":8.0,"bus_shield_text":"120"},"arcs":[1097]}]},"earth":{"type":"GeometryCollection","geometries":[{"type":"Polygon","properties":{"sort_rank":10,"source":"naturalearthdata.com","kind":"earth","min_zoom":0.0,"id":4754},"arcs":[[1098]]}]},"landuse":{"type":"GeometryCollection","geometries":[{"type":"Polygon","properties":{"kind":"military","area":12932600,"sort_rank":45,"operator":"Dow\u00f3dztwo Garnizonu Warszawa","source":"openstreetmap.org","min_zoom":8.0,"tier":3,"id":147149855},"arcs":[[1099]]},{"type":"MultiPolygon","properties":{"source":"naturalearthdata.com","kind":"urban_area","name":"","area":3224056023,"sort_rank":11,"min_zoom":4.0},"arcs":[[[1100]],[[1101]],[[1102]]]},{"type":"MultiPolygon","properties":{"kind":"nature_reserve","protect_class":"5","area":3897777961,"sort_rank":23,"source":"openstreetmap.org","min_zoom":4.0,"tier":2,"osm_relation":true},"arcs":[[[1103],[1104]],[[1105]]]},{"type":"MultiPolygon","properties":{"kind":"nature_reserve","protect_class":"4","area":177286291,"sort_rank":23,"source":"openstreetmap.org","min_zoom":8.0,"tier":2,"osm_relation":true},"arcs":[[[1106]],[[1107]],[[1108]],[[1109]]]},{"type":"MultiPolygon","properties":{"kind":"protected_area","protect_class":"97","area":141932577,"sort_rank":17,"source":"openstreetmap.org","min_zoom":8.0,"tier":2,"osm_relation":true},"arcs":[[[1110]],[[1111]],[[1112]],[[1113]],[[1114]]]}]}},"type":"Topology","transform":{"translate":[16.875,50.736455137],"scale":[0.0003433228,0.000215225]},"arcs":[[[4096,1908],[-63,49],[-210,-2],[-63,36],[-6,35]],[[2680,2127],[-44,-51],[-76,16],[-43,-58],[-101,-2],[-12,-49],[-53,18],[-38,-29],[-141,68],[-27,70],[-43,-56],[6,-50],[-28,17],[-32,-43],[-30,17],[-27,-42],[-40,-11],[2,-50],[65,-27],[-7,-20],[32,-19],[-14,-55],[19,-32],[-46,-84],[58,-50],[-70,-65],[-70,6],[-45,-48],[17,-2],[-16,-38],[46,-33],[-60,-146],[41,-44],[39,2],[2,-53],[-71,-19],[-55,26],[-25,-21],[71,-40],[-16,-47],[-23,28],[-95,-17],[-14,30],[-95,-52],[-2,-99],[25,-41],[-28,-62],[19,-31],[-26,-30],[-56,0],[-23,44],[-90,26],[3,-35],[-52,-81],[132,-53],[-8,-64],[-29,0],[-3,-62],[-163,-54],[44,-101],[-73,-35],[93,-63],[13,-62],[-28,-47],[-172,50],[-37,-33],[-56,-74],[45,-7],[82,-80],[-18,-31],[28,-16],[-20,-26],[-54,33],[-35,-38]],[[3754,2026],[-115,-18],[-58,-71],[-77,60],[-23,-46],[34,-8],[-40,-24],[15,-22],[-99,-64],[-291,-102],[-49,23],[-108,-47],[-64,50],[-33,-12],[-13,24],[-73,5],[-28,91],[56,4],[56,155],[-10,54],[-64,51],[-41,-37],[-49,35]],[[4096,3239],[-200,97],[9,-32],[-80,-29],[66,-74],[-12,-109],[-40,-66],[-128,17],[-41,-142],[-24,-15],[-81,21],[-71,-57],[55,-40],[-3,-73],[60,-69],[-9,-82],[30,-30],[-45,-8],[-5,-21],[40,-13],[-39,-44],[19,-36],[49,40],[77,-23],[-7,43],[63,-20],[-15,-122],[38,-90],[-53,-82],[0,-61],[41,-5],[-36,-88]],[[2680,2127],[-81,45],[-68,182],[16,125],[-33,27],[39,25],[-3,44],[47,47],[-31,49],[26,24],[-62,57],[0,82],[-60,60],[-39,-2],[-16,37],[6,22],[27,-1],[13,69],[38,5],[-11,39],[68,14],[6,40],[-18,34],[-87,37],[0,-90],[-45,-17],[-88,73],[-47,-19],[-54,59],[-34,-22],[-40,18],[-26,-63],[-98,-20],[-86,75],[33,64],[-91,127],[24,34],[-38,85],[30,55],[-41,26],[27,42],[96,14],[53,57],[-1,172],[-35,17],[-13,66],[-99,25],[-2,73],[-51,16],[-14,31],[-22,10]],[[979,4096],[-8,-32],[18,-173],[-23,-31],[-54,43],[-50,-31],[-132,-21],[-50,50],[-128,-45],[14,-64],[-44,-34],[-24,50],[-100,-7],[-13,-24],[-74,7],[-9,-28],[-46,-1],[-8,34],[-93,2],[-33,25],[-63,97],[-59,4]],[[1605,0],[100,107],[94,313],[-26,89],[-46,36]],[[3855,1100],[32,-62],[-29,-70],[-175,-81],[-21,-70],[-73,-73],[-40,-285],[-108,-100],[-28,-87]],[[2717,4096],[0,-6],[0,-5],[0,-6],[1,-7],[2,-8],[33,-125],[105,-305],[3,-8],[10,-19],[51,-89],[57,-126],[3,-5],[2,-3],[2,-3],[3,-2],[5,-4],[6,-2],[6,-1],[6,0],[47,6],[10,0],[20,-14],[5,-17],[-12,-72],[-1,-4],[1,-5],[1,-5],[2,-6],[21,-39],[2,-4],[3,-3],[4,-4],[4,-2],[23,-7],[9,-11],[15,-37],[-2,-11],[-9,-17],[-2,-5],[0,-5],[0,-4],[1,-3],[2,-5],[2,-3],[3,-3],[34,-28],[29,-36],[50,-265],[-3,-28],[-22,-48],[-1,-4],[-1,-5],[-1,-4],[0,-4],[1,-6],[2,-5],[34,-83],[2,-8],[0,-14],[1,-6],[1,-7],[3,-6],[5,-6],[188,-246],[5,-5],[69,-55],[6,-7],[121,-205],[4,-7],[163,-159],[2,-10],[7,-98],[1,-11],[27,-122],[2,-84],[-13,-71],[-21,-172],[-11,-140],[0,-6],[1,-4],[1,-6],[2,-5],[17,-34]],[[2719,4096],[0,-27],[139,-435],[64,-116],[62,-134],[85,-6],[21,-14],[3,-9],[1,-6],[0,-4],[-10,-88],[27,-48],[31,-13],[9,-11],[15,-37],[-2,-11],[-11,-22],[3,-17],[39,-34],[29,-36],[50,-265],[-3,-28],[-24,-67],[36,-92],[2,-8],[1,-20],[5,-13],[192,-252],[74,-60],[7,-7],[123,-210],[164,-161],[2,-8],[9,-111],[25,-115],[1,-7],[1,-6],[1,-81],[0,-8],[-44,-373],[22,-57]],[[383,1700],[-19,8],[-7,-1],[-10,-5],[-5,-1],[-3,0],[-3,0],[-3,0],[-4,1],[-5,3],[-3,2],[-25,28],[-33,37],[-38,46],[-30,38],[-7,10],[-188,263]],[[485,1678],[-102,22]],[[383,1700],[-19,8],[-35,-6],[-33,33],[-296,394]],[[599,1883],[39,3],[87,-133],[46,-5],[54,-43]],[[357,1737],[11,53],[26,0],[45,21],[30,-4],[10,0],[7,3],[198,104]],[[373,1710],[-16,22],[-1,6],[0,4],[2,15]],[[473,1682],[-85,16],[-31,39]],[[357,1737],[-1,7],[2,13]],[[362,1781],[1,2],[1,2],[1,3],[2,1],[3,2],[2,0],[3,0]],[[718,1927],[-115,-42],[-41,-20],[-8,-4],[-6,-5],[-30,-28],[-32,-18],[-16,-3],[-24,4],[-4,1],[-4,-1],[-8,-2],[-3,-1],[-32,-18],[-14,0]],[[726,1930],[97,47],[84,64],[11,6],[25,13],[4,2],[6,2],[7,2],[7,1],[165,7],[96,16],[227,74],[3,1],[3,0],[6,-1]],[[726,1930],[89,43],[10,5],[90,67],[52,22]],[[1119,2074],[13,0],[13,2],[83,14],[12,3],[227,71]],[[3399,0],[8,290],[-133,164],[-468,354],[-138,284],[-119,335],[-48,93],[-76,69]],[[0,1548],[363,157],[71,-10],[51,-19]],[[213,1641],[4,2],[4,1],[-8,-3]],[[482,1677],[-15,3],[1,0],[14,-3]],[[357,1737],[11,53],[71,21],[30,-4],[6,0],[4,0],[9,3],[332,165],[131,88],[183,11],[97,17],[17,4],[210,69],[59,-16],[156,-133],[14,-9],[153,-89],[64,-64],[7,-6],[8,-6],[555,-281],[365,-66],[14,-5],[335,-155],[6,-3],[63,-19],[269,-45],[307,-141],[41,-58],[13,-8],[191,-30],[18,1]],[[362,1781],[1,3],[1,2],[3,3],[2,1],[68,21],[4,1],[4,0],[30,-5],[15,4],[28,17],[30,28],[6,5],[8,4],[41,20],[121,44],[96,47],[87,65],[11,6],[25,13],[4,2],[6,2],[7,2],[7,1],[165,7],[99,17],[14,3],[210,70],[5,1],[5,0],[8,-2],[44,-15],[3,-1],[3,-2],[150,-129],[12,-8],[122,-71],[24,-13],[9,-6],[5,-4],[6,-6],[55,-57],[13,-10],[477,-226],[4,-2],[4,-3],[6,-5],[4,-3],[14,-17],[5,-4],[41,-21],[196,-26],[31,-7],[138,-33],[9,-2],[8,-4],[336,-156],[64,-19],[247,-40],[12,-3],[11,-3],[9,-3],[6,-3],[203,-93],[88,-41],[5,-4],[3,-3],[7,-7],[2,-2],[26,-43],[12,-8],[191,-30],[18,1]],[[537,202],[-89,-202]],[[462,1683],[86,-48],[8,-8],[12,-14],[7,-9],[3,-5],[2,-5],[1,-6],[1,-4],[0,-5],[-1,-4],[-16,-86],[-9,-135],[-100,-496],[-21,-210],[1,-12],[29,-87],[79,-274],[1,-3],[1,-5],[-1,-8],[-8,-57]],[[562,1620],[20,-40],[-17,-91],[-9,-135],[-100,-495],[-21,-211],[1,-12],[108,-361],[-7,-73]],[[458,1685],[97,-57],[68,-138],[16,-22],[40,-49],[30,-42],[284,-286],[519,-383],[108,-104],[15,-13],[22,-14],[101,-49],[117,-200],[22,-28],[391,-300]],[[490,1676],[31,-18],[34,-29],[11,-12],[5,-7],[6,-8],[10,-20],[2,-5],[3,-14],[15,-29],[17,-44],[15,-22],[14,-16],[26,-33],[32,-44],[168,-159],[114,-125],[519,-383],[8,-6],[5,-5],[95,-93],[14,-12],[23,-15],[84,-38],[11,-6],[6,-5],[8,-8],[5,-7],[3,-4],[101,-181],[22,-28],[391,-300]],[[668,1433],[34,-36],[148,10],[99,-22],[92,68]],[[2945,0],[-68,115],[-16,64],[-106,70],[-340,349],[-8,16],[-13,69],[-97,93],[-57,84],[-70,138],[-31,33],[-66,43],[-80,63],[-85,37],[-7,3],[-104,57],[-43,29],[-158,44],[-140,40],[-129,71],[-286,35]],[[1041,1453],[4,2],[6,1],[36,0],[17,0],[16,-1],[12,-1],[7,-1],[111,-21],[72,-13],[5,-1],[10,-3],[8,-4],[111,-64],[140,-40],[154,-42],[4,-2],[5,-2],[4,-2],[34,-25],[109,-59],[83,-36],[4,-2],[6,-4],[76,-60],[34,-20],[30,-22],[3,-3],[4,-3],[17,-17],[4,-4],[3,-5],[59,-101],[2,-4],[1,-4],[5,-22],[3,-8],[56,-82],[92,-87],[4,-5],[3,-5],[3,-6],[3,-8],[6,-53],[8,-16],[6,-6],[67,-56],[5,-4],[262,-283],[101,-65],[3,-3],[2,-2],[1,-1],[3,-4],[2,-7],[11,-52],[56,-88],[3,-5],[8,-22]],[[486,1678],[-53,17],[-5,1],[-22,-3],[-10,2],[-37,34],[23,186],[-4,41],[-7,14],[-238,439],[-46,238],[-87,107]],[[0,3219],[65,132],[4,7],[1,5],[2,7],[1,8],[9,97],[0,7],[0,9],[-1,8],[-2,9],[-2,5],[-77,219]],[[0,3732],[82,-250],[-12,-119],[-70,-143]],[[0,2753],[86,-106],[41,-218],[2,-10],[3,-10],[5,-8],[234,-432],[6,-14],[5,-40],[-26,-171],[0,-4],[0,-4],[3,-7],[3,-5],[12,-16],[3,-3],[2,-2],[5,-3],[10,-4],[6,-2],[5,-1],[5,0],[17,2],[7,0],[30,-12],[26,-7]],[[473,1682],[-144,20],[-65,70],[-264,83]],[[357,1737],[11,53],[26,0],[45,21],[30,-4],[6,0],[4,0],[7,3],[6,2],[23,13],[3,2],[41,36],[127,52]],[[373,1710],[-12,15],[-2,4],[-2,3],[-1,6],[0,4],[2,15]],[[473,1682],[-85,16],[-31,39]],[[357,1737],[-1,7],[2,13]],[[362,1781],[1,2],[1,2],[1,3],[2,1],[3,2],[2,0],[3,0]],[[458,1810],[-15,2],[-3,0],[-4,-1],[-6,-2],[-3,-1],[-32,-18],[-14,0]],[[468,1807],[47,19],[37,33],[7,5],[40,20],[87,31]],[[686,1915],[40,29],[-66,85],[-11,76],[64,196],[-79,139],[1,80],[-52,35],[-38,87]],[[0,294],[277,-2],[26,-30],[93,-15],[43,-44],[111,5]],[[550,208],[1,-1]],[[552,208],[-2,0]],[[552,206],[10,-6]],[[562,200],[-9,6]],[[562,200],[166,-39],[97,32],[39,71],[99,94],[385,109]],[[1348,467],[1,0]],[[1349,467],[-1,0]],[[1349,467],[2,-1],[0,2]],[[1351,468],[-1,0],[-1,-1]],[[1353,468],[-2,0]],[[1351,467],[2,1]],[[1353,468],[231,92]],[[1668,518],[-2,-3]],[[1666,514],[2,4]],[[1668,518],[24,18]],[[1762,655],[10,71]],[[1772,726],[2,2]],[[1774,728],[154,124]],[[2131,1019],[6,29],[56,31]],[[2215,1124],[93,105],[51,157]],[[2359,1388],[1,1]],[[2369,1421],[7,39],[72,50],[21,65]],[[2469,1577],[0,-2]],[[2469,1575],[0,2]],[[2469,1577],[13,-2]],[[2482,1575],[-13,2]],[[2482,1575],[86,-8]],[[2568,1567],[3,-1]],[[2571,1567],[-3,0]],[[2574,1568],[-2,-1]],[[2573,1566],[1,2]],[[2574,1568],[222,221],[35,113],[215,118],[188,209],[54,215]],[[3288,2444],[1,1]],[[3289,2445],[-1,-1]],[[2469,1577]],[[2469,1577]],[[1177,997],[-13,13]],[[520,2743],[-3,-39],[-46,-50]],[[529,1738],[-7,-3]],[[537,1742],[-4,-2]],[[2413,249],[4,9]],[[1987,258],[-7,2]],[[1982,259],[5,-1]],[[1987,258],[25,-7]],[[2012,251],[4,-1]],[[2016,250],[-4,1]],[[1645,2283],[-1,-2]],[[1644,2281],[1,2]],[[1645,2283],[94,84],[120,209],[182,164],[120,209],[124,87],[99,210]],[[2409,3279],[234,243]],[[2643,3522],[7,7]],[[2650,3529],[92,40]],[[2827,3593],[2,-1]],[[2829,3593],[-2,0]],[[1643,2279],[2,1],[-1,1],[-2,0],[1,-2]],[[455,1664],[5,2]],[[507,1716],[-1,11]],[[772,2650],[-38,34]],[[737,2594],[92,-37]],[[640,1649],[28,7]],[[1847,528],[-28,10]],[[176,1860],[0,1]],[[689,3586],[-18,-25],[17,-42]],[[40,2001],[6,2]],[[2875,4096],[-22,-58],[-14,-79],[-11,-145]],[[2829,3813],[25,225],[22,58]],[[356,1511],[-24,-11],[-4,-2],[-11,-11]],[[317,1487],[49,30],[4,6],[7,18]],[[378,1547],[-10,-27]],[[2829,3593],[0,-2],[2,-6]],[[2831,3585],[-2,7]],[[2889,3486],[-58,99]],[[2889,3486],[13,-8]],[[2917,3469],[-15,9]],[[2917,3469],[12,-5]],[[3028,3262],[-99,202]],[[3028,3262],[7,-24]],[[3035,3238],[8,-17]],[[3043,3221],[5,-11]],[[3048,3210],[9,-20]],[[3057,3190],[10,-14]],[[3072,3171],[-5,5]],[[3080,3156],[-8,15]],[[3102,3077],[-22,79]],[[3102,3077],[4,-11]],[[3119,3039],[-13,27]],[[3119,3039],[8,-20]],[[3137,2815],[-29,137],[19,67]],[[3137,2815],[3,-15]],[[3152,2772],[-12,28]],[[3152,2772],[1,-3]],[[3154,2769],[-2,3]],[[3154,2767],[1,-1]],[[3155,2766],[0,1]],[[3168,2745],[-13,21]],[[3168,2745],[12,-12]],[[3233,2673],[-53,60]],[[3233,2673],[4,-9]],[[3257,2548],[11,61],[-31,55]],[[3253,2537],[4,11]],[[3287,2448],[-37,47],[3,42]],[[3287,2448],[5,-5]],[[3292,2443],[75,-94]],[[3367,2349],[9,-5]],[[3376,2344],[6,-4]],[[3382,2340],[4,-3],[4,-1],[2,-1]],[[3392,2335],[-10,5]],[[3392,2335],[2,0]],[[3394,2335],[4,-2]],[[3398,2333],[2,0]],[[3400,2333],[5,-2]],[[3405,2331],[183,-64]],[[3588,2267],[10,-1]],[[3598,2266],[10,-2]],[[3608,2264],[8,-2]],[[3616,2262],[31,-7]],[[3647,2255],[10,-2]],[[3657,2253],[34,-34]],[[3692,2217],[-1,2]],[[3692,2217],[14,-36]],[[3694,2058],[1,-11]],[[3695,2047],[2,-6]],[[3697,2041],[15,-50],[122,-94],[52,-145]],[[3699,2068],[-1,-2]],[[3701,2072],[-2,-4]],[[3703,2079],[-2,-7]],[[3704,2084],[-1,-5]],[[3707,2113],[-3,-29]],[[3706,2181],[1,-9]],[[3707,2172],[2,-41]],[[3707,2113],[1,4]],[[3708,2122],[0,-5]],[[3708,2122],[1,9]],[[3884,1747],[1,3]],[[3885,1750],[-1,-3]],[[3884,1747],[-47,-380],[51,-171]],[[3886,1752],[-1,-1]],[[3885,1750],[1,2]],[[3888,1196],[4,-5]],[[3892,1191],[-4,5]],[[4035,1099],[-9,9]],[[4026,1107],[9,-8]],[[4038,1096],[-3,3]],[[4038,1096],[10,-10]],[[4096,1065],[-48,21]],[[3155,2768],[-1,1]],[[3154,2769],[-1,-1],[1,-1]],[[3154,2767],[1,1]],[[3885,1750]],[[695,2033],[-36,41],[-4,95]],[[690,2222],[-5,-2]],[[2287,155],[20,-12]],[[716,2312],[30,35]],[[49,3608],[39,-99],[-17,-70]],[[72,3439],[3,5],[12,33],[1,32],[-3,16],[-10,25],[-26,58]],[[314,1829],[12,6]],[[361,1857],[22,93]],[[351,1642],[3,0]],[[510,1732],[10,3]],[[587,1815],[-26,2]],[[575,1758],[-5,0]],[[576,1783],[0,-25]],[[601,1861],[-5,-21]],[[631,1881],[-26,-9]],[[661,1893],[-26,-10]],[[668,1905],[-8,-12]],[[693,1915],[-11,-4]],[[697,1913],[3,15]],[[191,3011],[1,-1]],[[192,3010],[-1,1]],[[192,3010],[51,-83],[150,-46],[127,-138]],[[482,2216],[-28,-118]],[[472,2601],[-2,17]],[[472,2601],[-2,3]],[[472,2601],[26,-49]],[[498,2550],[-19,-300]],[[482,2217],[0,-1]],[[482,2239]],[[482,2220],[0,-1]],[[482,2238],[0,-1]],[[482,2216],[0,1]],[[482,2220],[0,17]],[[482,2219],[0,1]],[[482,2237],[0,1]],[[189,3011],[2,0],[0,1],[-1,1],[-1,-2]],[[483,2239],[-1,0],[-1,-1],[1,0]],[[482,2238],[1,1]],[[483,2218],[-1,1],[-1,-1],[1,-1],[1,1]],[[456,1710],[1,0]],[[79,1976],[-15,7]],[[87,1972],[-8,4]],[[89,1972],[-2,0]],[[93,1970],[26,-9]],[[119,1961],[0,-1]],[[130,1958],[17,-21]],[[188,1905],[20,-4]],[[208,1901],[7,-4]],[[215,1897]],[[222,1893],[-6,4]],[[223,1893],[6,-1]],[[244,1877],[-6,7]],[[244,1877]],[[245,1877]],[[265,1863],[-20,14]],[[265,1862]],[[275,1852],[-10,10]],[[287,1841],[-11,10]],[[287,1841]],[[333,1839],[-46,2]],[[305,1816],[7,12]],[[305,1815],[1,0]],[[306,1815]],[[312,1828]],[[312,1829]],[[318,1807],[-4,21]],[[314,1828],[0,1]],[[314,1829],[1,0]],[[315,1829],[0,1]],[[316,1831],[5,3]],[[326,1835],[8,3]],[[330,1799],[1,0]],[[359,1857],[-25,-17]],[[335,1839],[32,17]],[[343,1791],[4,-2]],[[348,1788]],[[357,1780],[3,-5]],[[362,1773],[1,-2]],[[363,1771],[2,-3]],[[368,1856]],[[378,1853],[-10,3]],[[372,1759],[0,1]],[[380,1853],[-1,0]],[[380,1852],[0,1]],[[382,1752],[-1,0]],[[382,1752]],[[383,1752],[-1,0]],[[384,1748],[33,-2]],[[417,1746],[1,0]],[[418,1746],[7,-3]],[[435,1843],[-5,0]],[[430,1739],[0,-3]],[[430,1735],[8,-13]],[[440,1843],[-4,0]],[[438,1722],[16,-12]],[[445,1842]],[[445,1843]],[[446,1844],[-1,-1]],[[446,1842],[1,0]],[[447,1843],[-1,0]],[[447,1842],[0,1]],[[447,1842]],[[454,1710]],[[454,1710],[1,0]],[[457,1710],[14,1]],[[468,1845]],[[469,1845]],[[473,1712]],[[475,1713],[-1,1]],[[504,1736],[0,1]],[[504,1736]],[[505,1736],[0,-4]],[[507,1717],[1,-1]],[[521,1713],[40,-15]],[[531,1825],[13,8]],[[552,1836],[-8,-3]],[[553,1836]],[[553,1837]],[[555,1837],[-2,1]],[[556,1837],[-1,0]],[[557,1837],[-1,0]],[[567,1835],[-7,2]],[[582,1834],[-15,1]],[[582,1834],[11,0]],[[587,1815],[14,-1]],[[592,1825],[0,-6]],[[692,1985],[3,48]],[[188,1867],[-24,2]],[[165,1868],[10,-1],[13,0]],[[701,1450],[1,-1]],[[744,1410],[-1,-1]],[[744,1408],[1,0]],[[866,1284],[292,-270]],[[1158,1014],[2,-2]],[[1160,1012],[-2,2]],[[1161,1010],[0,2],[-1,0],[0,-1],[1,-1]],[[1161,1010],[0,1]],[[1177,997],[39,-24]],[[1215,965],[17,-27]],[[1232,938],[1,-2]],[[1234,936],[-2,2]],[[1234,934],[0,-1]],[[1234,933],[0,1]],[[1234,933],[38,-128],[155,-104],[143,-57],[14,-84]],[[1234,936],[0,-2]],[[1666,513],[8,0]],[[1674,513],[-8,1]],[[1692,508],[-18,5]],[[1692,508],[13,-4]],[[1759,480],[-54,24]],[[1774,476],[-15,4]],[[1805,482],[-31,-6]],[[1822,472],[-17,10]],[[1822,472],[30,-63]],[[1856,403],[122,-135]],[[1978,268],[4,-9]],[[1980,260],[-2,8]],[[2016,250],[4,-1]],[[2020,249],[-4,1]],[[2020,249],[132,-80],[131,-11]],[[2474,0],[-124,107]],[[2283,158],[4,-3]],[[857,2021],[-42,-43]],[[816,1978],[25,23],[17,20]],[[2827,3812],[2,0],[-1,2],[-2,0],[1,-2]],[[2827,3812],[2,-13]],[[2829,3799],[-1,13]],[[2829,3595],[0,-2]],[[2829,3592],[0,3]],[[2851,3629],[-22,170]],[[2840,3612],[8,10]],[[2848,3622],[3,7]],[[2850,3624],[-2,-2]],[[2851,3629],[-1,-5]],[[2742,3569],[83,24]],[[2827,3593]],[[100,992],[12,17]],[[0,1283],[31,-3]],[[2359,1386],[0,2]],[[2360,1389],[9,32]],[[304,1665],[-2,-2]],[[305,1665]],[[306,1665],[-1,0]],[[307,1664],[0,1]],[[317,1653],[-10,10]],[[323,1651],[-6,2]],[[323,1649]],[[323,1650]],[[323,1651]],[[326,1648],[-3,1]],[[326,1648],[14,-3]],[[340,1645],[1,-1]],[[342,1644],[1,-1]],[[344,1643],[2,0]],[[354,1642],[5,-1]],[[360,1641]],[[361,1641],[7,-2]],[[368,1640],[14,-6]],[[382,1633],[11,-5]],[[393,1628],[5,-2]],[[410,1640],[-10,-14]],[[410,1640],[4,7]],[[414,1648],[8,11]],[[422,1659],[4,6]],[[439,1681],[-9,-12]],[[442,1686],[-3,-4]],[[442,1686]],[[442,1686],[1,1]],[[443,1686]],[[444,1686],[3,3]],[[447,1690],[0,1]],[[448,1691],[2,5]],[[523,1736],[-3,-1]],[[524,1736],[-1,0]],[[524,1736]],[[524,1736]],[[524,1735],[17,6]],[[541,1741],[1,1]],[[543,1742]],[[543,1742],[8,5]],[[551,1747]],[[570,1755],[-18,-8]],[[561,1817],[15,-34]],[[570,1757]],[[570,1758],[0,-1]],[[570,1757]],[[570,1756]],[[570,1758]],[[570,1756]],[[575,1758],[1,0]],[[594,1837],[-1,-1]],[[594,1837]],[[596,1840],[-1,-3]],[[602,1866],[-1,-4]],[[603,1868],[-1,-2]],[[605,1872],[-2,-4]],[[631,1881]],[[635,1883],[-4,-2]],[[660,1893],[1,0]],[[670,1906],[-2,-1]],[[696,1913],[1,0]],[[707,1938],[-7,-10]],[[708,1940],[-1,-2]],[[709,1940],[-1,0]],[[709,1941],[3,5]],[[712,1947],[4,7]],[[689,3586],[-1,11]],[[584,3283],[30,90],[-12,101],[51,47]],[[475,1714],[4,2]],[[522,1735],[17,6]],[[3294,2707],[19,-31]],[[3314,2676],[-20,32]],[[673,1907]],[[693,1915],[3,-2]],[[274,1979],[-36,-34]],[[238,1945],[36,33]],[[305,1663],[1,-1]],[[324,1650],[-18,15]],[[308,1659],[8,-7],[7,-3]],[[305,1663],[1,1]],[[1216,973],[-1,-8]],[[64,1983],[-2,0]],[[93,1970],[-4,2]],[[377,1541],[8,26],[1,7]],[[385,1569],[-7,-22]],[[608,1874],[84,41]],[[491,1681],[5,7]],[[549,3742],[45,172],[25,16],[-4,131]],[[658,2178],[32,44]],[[829,2557],[6,-6]],[[272,1761],[0,-18]],[[343,1644],[39,-11]],[[382,1634],[-14,7],[-24,4]],[[584,3283],[0,-1]],[[521,2744],[-1,0]],[[520,2743],[1,0]],[[563,2701],[-1,-1]],[[563,2701],[0,-1]],[[985,3130],[-66,-42],[-73,-140],[-96,-25],[-187,-222]],[[1215,3944],[101,145],[7,7]],[[2646,3526],[1,-1]],[[2647,3525],[0,1]],[[379,1852],[-2,1]],[[531,1825],[0,-1]],[[717,1727],[-1,1]],[[723,1700],[7,9]],[[590,1605],[-19,18]],[[590,1605],[3,-3]],[[615,1576],[59,-88]],[[840,2454],[-25,87],[20,10]],[[1155,3691],[39,-162],[-81,-307],[-128,-92]],[[1160,3700],[-5,-9]],[[1160,3700],[-16,43],[71,201]],[[306,1665],[-1,-1]],[[326,1835],[-13,-6]],[[383,1950],[-23,-93]],[[451,1700],[3,10]],[[468,1845],[-21,-3]],[[312,1828],[0,-1]],[[447,1955],[-2,-2],[-32,5],[-14,-1],[-8,-2],[-8,-5]],[[383,1950],[66,1]],[[445,1996],[-2,0]],[[444,1992],[2,1]],[[305,1815],[-2,-3]],[[313,1829],[-1,-1]],[[549,3737],[43,-89],[94,-44]],[[496,1688],[10,22]],[[550,1747],[22,10]],[[572,1757],[-20,-8]],[[312,1827],[-7,-12]],[[87,1885],[-83,15]],[[93,1883],[-6,2]],[[93,1883],[31,-6]],[[188,1867],[28,-7]],[[213,1862],[-25,5]],[[238,1841],[7,-2]],[[171,1447],[20,-184]],[[190,1259],[8,34],[0,1],[-4,42],[-23,111]],[[4096,2702],[-19,-4],[-136,-42],[-6,-1]],[[3935,2655],[-95,-7],[-8,2]],[[3832,2650],[-2,1],[-11,4],[-11,5],[-90,87],[-61,43],[-70,0],[-148,-80],[-185,-13],[-162,-27],[-85,-44],[-242,-27],[-94,36],[-3,0]],[[2668,2635],[-34,-7]],[[2634,2628],[-26,-5],[-66,-16],[-40,-12],[-151,2],[-190,48],[-83,-28],[-192,-232],[-27,-18],[-39,-25]],[[1820,2342],[-75,-47],[-5,-2]],[[1740,2293],[-8,-3],[-60,-14],[-87,26],[-115,-4],[-150,-42],[-214,32],[-149,-14],[-88,-3],[-20,-2],[-4,-1]],[[845,2268],[-2,-1]],[[843,2267],[-37,-11],[-1,0],[-62,-49],[-83,-135],[-64,-47]],[[596,2025],[64,47],[84,135],[61,48],[1,1],[37,11]],[[843,2267],[2,1]],[[845,2268],[7,1],[9,1],[10,1],[90,2],[145,15],[121,-23],[93,-9],[112,31]],[[1436,2288],[149,14],[61,-23],[18,-3],[13,0],[61,16],[2,1]],[[1740,2293],[80,49]],[[1820,2342],[39,25],[27,18],[144,157],[6,7],[40,66],[3,2],[82,27],[3,0],[179,-47],[18,-1],[121,-6],[106,28],[2,0],[44,10]],[[2634,2628],[32,7],[2,0]],[[2668,2635],[97,-37],[244,28],[83,43],[161,28],[50,-6],[16,0],[120,18],[25,7],[23,12],[101,62],[71,-2],[140,-123],[10,-6],[21,-9],[2,0]],[[3832,2650],[103,5]],[[3935,2655],[8,1],[134,42]],[[360,1857],[-34,-22]],[[537,1742],[2,-1]],[[400,1626],[-1,1]],[[2141,401],[-59,1],[-235,126]],[[688,3597],[-2,7]],[[858,2021],[0,1]],[[236,1886],[-5,5]],[[398,1626],[-11,-30],[-1,-10],[-1,-17]],[[386,1574],[14,51]],[[1777,551],[3,-3]],[[1785,538],[-4,9],[-3,4]],[[482,2241],[-3,9]],[[498,2552],[0,-2]],[[396,1553],[-28,-33]],[[397,1557],[0,2]],[[397,1559],[1,0]],[[398,1559],[-1,0]],[[3305,67],[-8,-35]],[[3297,30],[7,-30]],[[3737,381],[-195,-47],[-237,-265]],[[3738,381],[38,5],[53,128],[109,488],[-26,95]],[[3912,1097],[1,1]],[[3913,1098],[-1,-1]],[[3915,1099],[-2,0]],[[3914,1098],[1,1]],[[3915,1099],[106,8]],[[4021,1107],[5,0]],[[4026,1108],[-5,-1]],[[3737,382],[0,-1],[1,0],[-1,1]],[[533,1740],[-4,-2]],[[575,1758],[-2,-1]],[[573,1757],[2,0]],[[700,1451],[1,-1]],[[741,1412],[2,-3]],[[743,1409],[1,-1]],[[745,1408],[3,-3]],[[757,1396],[52,-57]],[[520,3118],[14,-385]],[[281,1448],[2,4]],[[472,2646],[11,23]],[[79,1976]],[[87,1972]],[[119,1961]],[[208,1901]],[[215,1897]],[[215,1897],[1,0]],[[223,1893],[-1,0]],[[244,1877]],[[245,1877],[-1,0]],[[245,1877]],[[265,1862],[0,1]],[[265,1862]],[[276,1851],[-1,1]],[[287,1841]],[[287,1841]],[[305,1816],[0,-1]],[[306,1815]],[[312,1828]],[[312,1829],[0,-1]],[[312,1829]],[[314,1828]],[[314,1829]],[[315,1829]],[[318,1807],[12,-8]],[[347,1789],[1,-1]],[[363,1771]],[[366,1767],[-1,1]],[[367,1856],[1,0]],[[368,1856]],[[372,1760]],[[373,1759],[-1,0]],[[379,1853],[-1,0]],[[380,1853]],[[381,1752],[0,1]],[[382,1752]],[[382,1752]],[[417,1746]],[[418,1746]],[[436,1843],[-1,0]],[[438,1722]],[[445,1843],[0,-1]],[[445,1843]],[[446,1843],[0,1]],[[447,1843]],[[447,1842]],[[454,1710]],[[454,1710]],[[468,1845]],[[473,1713],[0,-1]],[[489,1730],[0,1]],[[504,1736]],[[505,1736],[-1,0]],[[544,1833]],[[553,1836],[-1,0]],[[553,1837],[0,-1]],[[553,1838],[0,-1]],[[555,1837]],[[556,1837]],[[567,1835]],[[582,1834]],[[326,1835],[35,22]],[[2752,0],[-23,10]],[[2829,3592],[-1,1]],[[1692,536],[24,27]],[[1716,563],[1,1]],[[1717,564],[-1,-1]],[[1719,567],[-2,-2]],[[1718,565],[1,2]],[[1719,567],[43,88]],[[1717,564],[1,0],[0,1],[-1,0],[0,-1]],[[1261,964],[-2,-1]],[[1259,965],[2,-1]],[[1261,964],[1,-1]],[[675,1908],[-2,-1]],[[465,1611],[42,-1]],[[508,1611],[-42,1]],[[655,2169],[3,9]],[[685,2220],[10,65]],[[700,2296],[16,16]],[[503,1719],[3,-9]],[[450,1696],[1,4]],[[2825,3593],[2,0]],[[460,1666],[-5,-1]],[[460,1666],[5,1]],[[562,2700],[1,-1]],[[563,2700],[0,-1]],[[734,2684],[-146,-23],[-31,16],[6,22]],[[472,1669],[-9,-2],[-3,-1]],[[465,1667],[8,2]],[[2572,1566],[405,-149],[328,-53],[115,-49]],[[3420,1315],[8,-8]],[[3428,1307],[257,-165],[127,-36]],[[3812,1106],[2,-1]],[[3814,1105],[-2,1]],[[3815,1105],[2,0]],[[3817,1105],[-1,0]],[[3817,1105],[57,-3],[16,73]],[[3891,1180],[-1,8]],[[3890,1175],[1,2]],[[3890,1177],[0,-2]],[[3815,1104],[0,1],[0,1],[-1,-1],[1,-1]],[[3891,1178],[-1,0],[1,-1],[0,1]],[[520,1734],[-5,-2]],[[444,1998],[-14,39]],[[444,1998],[0,-25],[3,-18]],[[449,1951],[-4,16],[1,26],[-2,5]],[[554,3181],[-34,-63]],[[0,756],[100,236]],[[112,1009],[81,89],[23,71]],[[201,1230],[-11,29]],[[191,1263],[10,-33]],[[208,1225],[-7,5]],[[216,1169],[1,8],[2,16],[-1,-9],[-2,-15]],[[0,1392],[65,10],[16,4]],[[81,1406],[48,11]],[[129,1417],[5,0],[96,37],[64,-4]],[[273,1458],[-14,1],[-29,-5],[-14,-5],[-11,-4],[-76,-28]],[[129,1417],[-2,-2],[-46,-9]],[[81,1406],[-10,-2],[-71,-11]],[[2307,143],[17,-17]],[[4077,2698],[19,4]],[[346,1643],[5,-1]],[[670,1906],[3,1]],[[562,1698],[-1,0]],[[1707,610],[-60,52]],[[1778,553],[-33,33]],[[1778,553],[-1,-2]],[[1778,551],[0,2]],[[1799,546],[-14,-8]],[[267,1833],[-28,9]],[[245,1839],[21,-7]],[[436,1614],[29,-3]],[[466,1612],[-28,3]],[[62,1983],[-16,20]],[[188,1879],[39,55]],[[226,1934],[-38,-53]],[[369,2004],[211,9]],[[580,2013],[-210,-8]],[[2350,107],[63,142]],[[301,1668],[4,-5]],[[303,1475],[-20,-23]],[[303,1475],[14,12]],[[317,1487],[-14,-12]],[[436,1614],[-36,-53]],[[411,1569],[27,46]],[[744,1410],[-3,2]],[[748,1405],[-3,3]],[[400,1625],[0,1]],[[193,1686],[-1,-1]],[[192,1685],[1,1]],[[194,1690],[-1,-4]],[[282,1668],[-67,9]],[[284,1667],[-2,1]],[[302,1663],[-18,4]],[[3913,1099],[0,-1],[1,0],[-1,1]],[[534,2733],[8,-33],[21,0]],[[761,1746],[-3,5]],[[522,1735]],[[573,1757],[-1,0]],[[572,1757],[1,0]],[[3,1900],[-3,-1]],[[507,1610],[13,-1],[27,6],[5,3],[11,9]],[[571,1623],[-6,8],[-57,-20]],[[564,1628],[8,-6]],[[191,1684],[-3,-2]],[[191,1684],[1,1]],[[192,1685],[-1,-1]],[[827,1425],[-10,116]],[[872,1548],[-1,-2]],[[1226,1016],[29,-42]],[[1647,662],[-104,123],[-73,40]],[[1819,538],[-20,8]],[[2156,398],[14,-9]],[[2300,235],[5,20]],[[2659,66],[26,-19]],[[2729,10],[9,27]],[[294,1450],[232,-280],[18,-54],[8,-33],[6,-20],[19,-27],[24,-29],[475,-489],[144,-96],[92,-138],[54,-60],[27,-24],[129,-48],[2,-1]],[[1524,151],[25,-6],[9,-5],[54,-41],[1,-1]],[[1613,98],[48,-41],[2,-1],[109,-56]],[[1775,0],[-112,56],[-47,40],[-3,2]],[[1613,98],[-89,53]],[[1524,151],[-2,1],[-155,72],[-147,199],[-144,95],[-474,489],[-75,163],[-233,280]],[[279,1445],[-2,0]],[[572,1622],[7,-7]],[[778,1649],[16,-25]],[[823,1598],[50,-49]],[[1262,963],[12,-15]],[[716,1954],[2,14]],[[396,1553],[1,4]],[[472,1835],[-3,10]],[[817,1541],[4,9]],[[975,1357],[38,-14]],[[2283,158],[17,77]],[[2665,42],[0,1]],[[2685,48],[0,-1]],[[305,1665],[-1,0]],[[305,1665]],[[307,1665],[-1,0]],[[307,1663],[0,1]],[[317,1653]],[[323,1649],[0,1]],[[323,1649]],[[323,1650],[0,1]],[[326,1648]],[[340,1645]],[[341,1644],[1,0]],[[343,1643],[1,0]],[[359,1641],[1,0]],[[360,1641],[1,0]],[[368,1639],[0,1]],[[382,1634],[0,-1]],[[393,1628]],[[398,1626],[2,0]],[[410,1640]],[[414,1647],[0,1]],[[422,1659]],[[426,1665]],[[439,1682],[0,-1]],[[442,1686]],[[442,1686]],[[443,1687],[0,-1]],[[443,1686],[1,0]],[[447,1689],[0,1]],[[447,1691],[1,0]],[[520,1735]],[[523,1736]],[[524,1736]],[[524,1736]],[[524,1735],[0,1]],[[541,1741]],[[542,1742],[1,0]],[[543,1742]],[[551,1747]],[[552,1747],[-1,0]],[[570,1756],[0,-1]],[[570,1757]],[[570,1757]],[[570,1757],[0,-1]],[[570,1758]],[[570,1756]],[[594,1837]],[[595,1837],[-1,0]],[[601,1862],[0,-1]],[[602,1866]],[[603,1868]],[[631,1881]],[[660,1893]],[[707,1938]],[[708,1940]],[[709,1940],[0,1]],[[712,1946],[0,1]],[[716,1954]],[[3289,2446]],[[3290,2445]],[[239,1842],[-26,20]],[[216,1860],[22,-19]],[[2831,3601],[-2,-6]],[[2829,3595],[2,6]],[[2831,3601],[9,11]],[[562,1698],[3,-3]],[[635,1651],[5,-2]],[[668,1656],[29,10]],[[305,1813],[1,1]],[[382,1633],[16,-7]],[[543,1743],[7,4]],[[294,1450],[-21,8]],[[188,1881],[-22,-80],[-9,-186],[-1,-26]],[[156,1589],[-1,-42]],[[155,1547],[0,-4],[16,-96]],[[171,1447],[-1,7],[-12,74],[-2,14],[-1,5]],[[155,1547],[-1,5],[2,37]],[[156,1589],[1,27],[15,85],[1,21],[-6,79],[21,78]],[[238,1945],[-12,-11]],[[227,1934],[11,11]],[[370,2005],[-10,0],[-65,-13],[-21,-13]],[[274,1978],[95,26]],[[596,2025],[-16,-12]],[[580,2013],[16,12]],[[506,1710],[1,6]],[[2324,126],[26,-19]],[[306,1814],[8,15]],[[302,1815],[3,-2]],[[1856,403],[2,-3]],[[399,1627],[-17,7]],[[3911,1183],[-19,8]],[[3892,1191],[9,-6],[10,-2]],[[4013,1120],[-53,51],[-49,12]],[[4013,1120],[13,-13]],[[4026,1108],[-13,12]],[[2850,3624]],[[3919,954],[-7,-19]],[[304,1811],[1,2]],[[306,1662],[2,-3]],[[4,1900],[-1,0]],[[161,1870],[-37,7]],[[161,1870],[4,-2]],[[164,1869],[-3,1]],[[188,1867]],[[188,1867]],[[531,1824],[-7,8]],[[723,1700],[-45,51]],[[726,1667],[23,-10]],[[760,1674],[-30,35]],[[780,1705],[-21,41]],[[485,1672],[5,7]],[[506,1727],[8,5]],[[514,1732],[-3,-1]],[[515,1732],[-1,0]],[[520,1734]],[[575,1757],[1,0]],[[687,1914],[-84,-41],[-24,-110]],[[580,1761],[9,19],[2,7],[10,78],[7,9]],[[692,1915],[6,2]],[[194,1690],[21,-13]],[[176,1367],[-7,3]],[[471,2654],[-2,-35]],[[471,2627],[1,19]],[[1856,403],[-2,3]],[[3421,1315],[-1,0]],[[366,1517],[29,35]],[[448,1642],[1,2]],[[472,1669],[13,3]],[[511,1731],[-8,-12]],[[579,1763],[-4,-5]],[[576,1757],[4,4]],[[806,1971],[-29,-15]],[[777,1956],[-23,-11],[-19,-9],[-14,-11],[-11,-3],[-23,-8]],[[698,1917],[23,7],[14,12],[13,6],[29,14]],[[777,1956],[29,15]],[[758,2039]],[[271,1442],[10,6]],[[68,1285],[-35,-4]],[[33,1280],[28,1],[7,3]],[[69,1285],[-1,0]],[[68,1285],[0,-1]],[[68,1284],[1,0]],[[92,1335],[-23,-50]],[[69,1284],[0,1]],[[69,1284],[21,43],[3,8]],[[93,1336],[-1,-1]],[[92,1335],[1,0]],[[140,1380],[-47,-44]],[[94,1336],[-1,0]],[[93,1335],[1,1]],[[94,1336],[45,43]],[[140,1380],[-1,-1]],[[139,1379],[2,0]],[[141,1380],[-1,0]],[[141,1379],[0,1]],[[141,1379],[26,-9]],[[167,1370],[-26,10]],[[168,1372],[0,-2]],[[168,1370],[0,2]],[[168,1372],[39,42]],[[207,1414],[7,4]],[[214,1418],[-7,-4]],[[214,1418]],[[232,1438],[-17,-19]],[[215,1419],[18,17]],[[233,1439],[-1,-1]],[[232,1438],[1,-2]],[[233,1436],[2,2]],[[280,1448],[-47,-9]],[[235,1438],[-2,1]],[[235,1438],[36,4]],[[33,1280],[0,1],[-2,0],[1,-2],[1,1]],[[167,1369],[1,0],[1,1],[-1,0],[-1,-1]],[[400,1625],[36,-11]],[[438,1615],[-38,11]],[[272,1743],[29,-75]],[[303,1812],[-22,-33]],[[306,1665],[-33,78],[31,68]],[[323,1649],[20,-5]],[[344,1645],[-20,5]],[[510,1716],[10,-2]],[[0,1952],[40,49]],[[1719,590],[-12,20]],[[0,3741],[49,-133]],[[49,3608],[-49,136]],[[71,3439],[-41,-55],[-1,-4],[15,-68],[35,-143],[3,-4],[80,-98],[15,-54]],[[177,3012],[-13,53],[-84,105],[-36,142],[-14,68],[42,59]],[[400,1561],[-2,-1]],[[398,1559],[13,10]],[[455,1665],[-19,-51]],[[438,1615],[10,27]],[[449,1644],[6,20]],[[552,1749],[-11,-4]],[[398,1560],[0,-1]],[[552,206],[1,1],[-1,1],[-1,-1],[1,-1]],[[119,1960],[11,-2]],[[238,1884]],[[306,1815]],[[315,1830],[1,1]],[[321,1834],[5,1]],[[334,1840],[-1,-1]],[[334,1838],[1,1]],[[348,1788],[9,-8]],[[367,1856],[-8,1]],[[360,1775],[2,-2]],[[372,1760],[-6,7]],[[381,1753],[-8,6]],[[377,1853],[3,-1]],[[430,1843],[-51,9]],[[383,1752],[1,-4]],[[425,1743],[5,-4]],[[430,1736],[0,-1]],[[440,1843],[6,-1]],[[447,1842]],[[455,1710],[1,0]],[[468,1845],[1,0]],[[471,1711],[1,-3]],[[530,1826],[-57,8]],[[473,1712],[0,-2]],[[474,1714],[-1,-1]],[[475,1714],[0,-1]],[[479,1716],[8,13]],[[484,1726],[3,3]],[[487,1729],[2,1]],[[504,1737],[-15,-6]],[[507,1717],[-2,15]],[[560,1837]],[[565,1695],[0,1]],[[592,1819],[-5,-4]],[[593,1834],[-1,-9]],[[678,1752],[-77,62]],[[679,1751],[-1,0]],[[726,1667],[-29,-1]],[[1928,852],[192,96],[11,71]],[[2193,1079],[22,45]],[[3698,2066],[-4,-8]],[[3891,1178],[-1,0]],[[399,1627],[-1,-1]],[[749,1657],[16,-22]],[[778,1649],[-18,25]],[[781,1704],[-1,1]],[[794,1624],[29,-26]],[[827,1425],[148,-68]],[[873,1549],[-1,-1]],[[1367,890],[103,-65]],[[2237,323],[-67,66]],[[2305,255],[-6,10]],[[2659,66],[-7,37],[-54,42]],[[2685,48],[35,0]],[[231,1891],[-2,1]],[[238,1884],[-2,2]],[[21,1898],[-3,0]],[[45,1893],[-3,0]],[[75,1887],[-4,1]],[[4043,1113],[-17,-5]],[[4026,1107],[17,6]],[[4096,1154],[-53,-41]],[[858,2022],[-176,40],[-50,-17]],[[632,2044],[126,-5]],[[758,2039],[99,-18]],[[806,1971],[2,0]],[[808,1971],[2,2],[6,5]],[[815,1978],[-1,-1],[-2,-2],[-4,-4]],[[808,1971],[-1,0],[-1,0]],[[2360,1389],[-1,-1]],[[368,1520],[-12,-9]],[[2572,1566],[1,-1]],[[3602,1194],[12,-10]],[[3755,1118],[12,-2]],[[615,4061],[76,3],[64,32]],[[593,1602],[22,-26]],[[718,1968],[-26,17]],[[2573,1566],[-1,1],[-1,-1],[1,0],[1,0]],[[469,2619],[1,-15]],[[678,1751],[0,1]],[[1013,1343],[27,-3],[58,-95],[62,-9],[63,-137],[3,-84]],[[1259,963],[-4,11]],[[1274,948],[5,-2]],[[1323,928],[-44,18]],[[1367,890],[-44,38]],[[176,1907]],[[147,1937],[29,-30]],[[176,1907],[12,-2]],[[188,1682],[-81,-53],[-51,26],[-56,-17]],[[549,3742],[0,-5]],[[584,3282],[-30,-101]],[[772,2650],[-35,-56]],[[746,2347],[81,55],[13,52]],[[541,1745],[-4,-3]],[[539,1741],[4,2]],[[2448,1510],[1,1]],[[2517,1579],[-18,-3]],[[2534,1580],[-6,1]],[[2545,1578],[-7,2]],[[565,1696],[70,-45]],[[678,1752]],[[219,1193],[-11,32]],[[447,2079],[-17,-42]],[[398,1626],[2,-1]],[[1584,560],[74,-43]],[[1658,517],[7,-3]],[[1665,515],[-7,2]],[[1666,515],[-1,-1],[0,-1],[1,1],[0,1]],[[3297,32],[0,-2]],[[3305,69],[0,-2]],[[454,2098],[-7,-19]],[[306,1814],[-1,1]],[[674,1488],[26,-37]],[[702,1449],[39,-37]],[[745,1408],[-1,2]],[[748,1405],[9,-9]],[[809,1339],[57,-55]],[[2384,3246],[25,33]],[[653,3521],[35,-2]],[[490,1679],[1,2]],[[523,2743],[-3,0]],[[520,2742],[3,1]],[[523,2743],[11,-10]],[[560,1837],[-3,0]],[[266,1832],[36,-17]],[[305,1815],[-38,18]],[[491,1681]],[[395,1552],[1,1]],[[281,1779],[-9,-18]],[[2299,265],[-62,58]],[[2598,145],[-2,2]],[[821,1550],[-56,81]],[[0,0],[0,4096],[4096,0],[0,-4096],[-4096,0]],[[3912,395],[109,28],[6,-28],[-53,-13],[29,-114],[-44,-13],[-47,140]],[[1736,496],[-124,111],[52,80],[66,4],[56,-63],[20,-124],[-70,-8]],[[91,1794],[-91,94],[58,165],[-32,206],[76,-31],[77,-149],[-10,-89],[-78,-196]],[[446,2061],[123,-24],[40,-87],[62,17],[87,72],[45,-38],[6,-55],[-55,-135],[17,-68],[32,0],[-97,-155],[-33,-103],[-356,0],[-16,42],[-113,61],[0,362],[124,-51],[110,201],[25,4],[-1,-43]],[[1633,1076],[83,48],[14,-30],[95,17],[23,-28],[16,47],[-71,40],[25,21],[55,-26],[59,10],[16,49],[47,-34],[-5,-49],[49,-19],[1,-21],[38,23],[10,61],[132,-64],[-27,-42],[-69,17],[-55,-20],[102,-93],[-35,-66],[37,-36],[-32,-52],[48,1],[18,-44],[84,-4],[-42,-94],[97,-78],[105,20],[-26,70],[59,193],[114,40],[56,78],[47,14],[-12,28],[44,26],[-8,64],[14,36],[21,-15],[10,46],[133,-64],[118,18],[23,-17],[-39,-50],[-206,-48],[62,-200],[19,45],[123,59],[-9,25],[40,16],[17,-17],[-17,115],[82,-2],[21,32],[71,-15],[17,26],[45,-16],[62,-100],[23,12],[7,54],[79,-37],[56,18],[-3,18],[52,-19],[19,-29],[61,-13],[7,-26],[46,-5],[2,-57],[32,-31],[-126,-160],[-42,-289],[-77,-66],[-87,-1],[2,-129],[-33,63],[-149,-26],[-62,36],[-33,56],[13,17],[-114,-41],[-48,21],[-3,-17],[-17,26],[-3,-35],[-19,26],[-28,-25],[-131,5],[-112,50],[-13,98],[-38,42],[-33,-4],[7,-72],[-78,26],[-101,-25],[-6,-28],[91,-80],[36,-63],[-23,-28],[43,-12],[86,-104],[-23,-24],[12,-21],[-48,16],[-14,61],[-79,35],[-6,-17],[-46,30],[8,26],[-39,4],[-30,-24],[-18,-130],[-48,39],[28,27],[8,60],[-123,117],[75,8],[11,-55],[18,13],[-23,60],[-131,19],[-34,49],[14,57],[-27,24],[-109,32],[-39,-55],[-31,-5],[-79,24],[-70,67],[14,22],[108,-53],[27,-42],[60,49],[159,15],[-12,40],[-46,20],[25,17],[-43,64],[18,24],[-65,34],[-64,-10],[-40,44],[18,34],[-82,21],[-84,87],[21,45],[-22,15],[-117,-25],[-14,75]],[[2179,680],[3,-13],[26,-14],[6,2],[-5,33],[-30,-8]],[[0,3631],[88,-42],[15,18],[-69,106],[29,108],[-54,6],[-3,69],[54,14],[93,-118],[54,-1],[102,-60],[192,69],[47,-63],[46,12],[61,70],[-69,50],[15,9],[243,-158],[19,64],[91,-14],[6,88],[30,34],[5,158],[64,-13],[22,19],[88,-35],[-25,-55],[105,-33],[76,-67],[-12,-25],[115,40],[294,-14],[80,29],[160,-67],[69,44],[45,-20],[36,36],[158,15],[14,-41],[32,-9],[16,25],[48,-16],[33,92],[98,42],[171,-6],[67,-41],[102,-322],[-23,-35],[-93,-26],[30,95],[-117,98],[-192,73],[-6,-49],[-93,-112],[-114,-64],[-17,-189],[-67,-6],[-76,-136],[-67,-65],[-29,68],[-106,93],[20,-67],[-95,-13],[-30,-103],[-102,-15],[1,-93],[-111,-62],[-122,33],[25,41],[67,22],[12,60],[-17,84],[-92,112],[-24,-67],[-83,-39],[16,-24],[-170,-124],[-146,-11],[-78,41],[-96,10],[-119,90],[-205,47],[11,-95],[-18,-20],[-108,110],[31,12],[23,69],[-260,15],[-115,24],[2,19],[-98,38],[0,164]],[[271,3574],[64,118],[-18,50],[80,-89],[62,-12],[-49,-27],[-23,-56],[-50,-22],[-66,38]],[[601,3656],[82,117],[49,-1],[-29,-147],[29,-62],[-44,-44],[-33,0],[-17,31],[28,51],[-65,55]],[[1721,3735],[140,8],[47,-16],[-51,-16],[-28,-44],[-90,22],[-18,46]],[[1246,3729],[85,67],[246,16],[23,-28],[-35,-38],[17,-30],[-26,-92],[-70,38],[-52,-15],[-84,49],[-88,5],[-16,28]],[[0,72],[35,29],[4,71],[5,-69],[-29,-103],[-15,72]],[[923,1775],[47,33],[26,-46],[13,28],[33,2],[32,-15],[-9,-43],[31,14],[54,-23],[42,53],[50,1],[23,104],[30,11],[3,-45],[20,-4],[-19,-24],[34,-11],[38,33],[11,-16],[-41,-46],[-16,19],[-3,-27],[27,-13],[31,48],[17,-23],[-3,31],[61,9],[-32,-40],[73,-13],[-25,35],[21,28],[52,-12],[-22,-78],[-55,14],[2,-30],[119,-30],[8,-36],[-17,25],[-119,-52],[-20,52],[-122,1],[-81,37],[-75,-36],[-76,-1],[-163,86]],[[532,0],[48,5],[7,51],[11,-23],[28,0],[-6,22],[24,-14],[19,-41],[-131,0]],[[687,2076],[5,40],[74,-28],[29,98],[57,-30],[21,3],[0,28],[8,-35],[29,-6],[-32,-40],[36,32],[27,-21],[4,30],[-38,18],[49,13],[32,36],[-12,25],[31,-35],[-29,-19],[47,-14],[-57,-16],[18,-69],[-36,-5],[-20,26],[-50,-14],[-23,22],[-41,-69],[-129,30]],[[1243,2352],[12,39],[27,-11],[-1,44],[34,15],[-10,54],[24,12],[7,53],[29,-2],[-20,27],[18,41],[57,25],[4,41],[24,-41],[-23,-32],[62,-58],[-48,-44],[-27,11],[-8,79],[-53,-72],[-16,-95],[-52,-35],[8,-50],[-32,-23],[-16,22]]]}