{"objects":{"water":{"type":"GeometryCollection","geometries":[{"type":"Polygon","properties":{"source":"naturalearthdata.com","kind":"lake","name":"Lake Balaton","area":1166189440,"sort_rank":200,"min_zoom":0.0,"id":563},"arcs":[[269]]},{"type":"LineString","properties":{"source":"naturalearthdata.com","kind":"lake","sort_rank":367,"boundary":true,"min_zoom":0.0,"id":563},"arcs":[270]}]},"buildings":{"type":"GeometryCollection","geometries":[]},"places":{"type":"GeometryCollection","geometries":[{"type":"Point","properties":{"kind":"locality","name:sk":"R\u00e1b","name":"Gy\u0151r","name:ka":"\u10d3\u10d8\u10dd\u10e0\u10d8","kind_detail":"city","name:de":"Raab","source":"openstreetmap.org","min_zoom":8.0,"name:sr":"\u0402\u0435\u0440","name:uk":"\u0414\u044c\u0439\u043e\u0440","name:ru":"\u0414\u044c\u0451\u0440","id":64624269,"population":129568},"coordinates":[2213,2792]},{"type":"Point","properties":{"kind":"locality","name:sk":"Vespr\u00edm","name":"Veszpr\u00e9m","kind_detail":"city","id":334943106,"source":"openstreetmap.org","min_zoom":8.0,"name:sr":"\u0412\u0435\u0441\u043f\u0440\u0435\u043c","name:ru":"\u0412\u0435\u0441\u043f\u0440\u0435\u043c","name:de":"Wesprim","old_name:de":"Wei\u00dfbrunn","population":60392},"coordinates":[3019,222]},{"type":"Point","properties":{"kind":"locality","name":"Nov\u00e9 Z\u00e1mky","name:tr":"Uyvar","kind_detail":"town","name:de":"Neuh\u00e4usel","source":"openstreetmap.org","min_zoom":8.0,"name:la":"Novum Castrum","loc_name":"Ersekujvar,Neuhaeusel,Neuhaus,Neuhausel,Neuh\u00e4usel,Nove Zamky,Nov\u00e9 Z\u00e1mky,nove zamki,\u00c9rsek\u00fajv\u00e1r","name:ru":"\u041d\u043e\u0432\u0435 \u0417\u0430\u043c\u043a\u0438","name:pl":"Nowe Zamki","name:hu":"\u00c9rsek\u00fajv\u00e1r","id":26038282,"population":40840},"coordinates":[3752,4080]},{"type":"Point","properties":{"kind":"locality","name":"Kom\u00e1rno","kind_detail":"town","name:de":"Komorn","source":"openstreetmap.org","min_zoom":8.0,"name:hu":"Kom\u00e1rom","id":26037382,"population":36066},"coordinates":[3655,3093]},{"type":"Point","properties":{"kind":"locality","name:sk":"Mo\u0161on-Uhorsk\u00fd Starhrad","name":"Mosonmagyar\u00f3v\u00e1r","kind_detail":"town","name:de":"Wieselburg-Ungarisch Altenburg","source":"openstreetmap.org","min_zoom":8.0,"name:la":"Ad Flexum","old_name":"Magyar\u00f3v\u00e1r","name:ru":"\u041c\u043e\u0448\u043e\u043d\u043c\u0430\u0434\u044c\u044f\u0440\u043e\u0432\u0430\u0440","name:hr":"Stari Grad","id":277515388,"population":32856},"coordinates":[1157,3593]},{"type":"Point","properties":{"kind":"locality","name":"P\u00e1pa","kind_detail":"town","name:de":"Poppa","source":"openstreetmap.org","min_zoom":8.0,"name:ru":"\u041f\u0430\u043f\u0430","id":268183245,"population":31011},"coordinates":[1735,1233]},{"type":"Point","properties":{"kind":"locality","name":"Ajka","kind_detail":"town","name:de":"Eikau","source":"openstreetmap.org","min_zoom":8.0,"name:ru":"\u0410\u0439\u043a\u0430","id":285886520,"population":28284},"coordinates":[1992,282]},{"type":"Point","properties":{"kind":"locality","name":"Dunajsk\u00e1 Streda","kind_detail":"town","name:de":"Niedermarkt","source":"openstreetmap.org","min_zoom":8.0,"loc_name":"Duna-Szerdahely,Dunajska Streda,Dunajsk\u00e1 Streda,Dunaszerdahely","name:ru":"\u0414\u0443\u043d\u0430\u0439\u0441\u043a\u0430 \u0421\u0442\u0440\u0435\u0434\u0430","name:hu":"Dunaszerdahely","id":26037592,"population":23419},"coordinates":[2171,4094]},{"type":"Point","properties":{"kind":"locality","name":"V\u00e1rpalota","kind_detail":"town","name:de":"Burgschlo\u00df","source":"openstreetmap.org","min_zoom":8.0,"name:ru":"\u0412\u0430\u0440\u043f\u0430\u043b\u043e\u0442\u0430","id":285902043,"population":19640},"coordinates":[3679,684]},{"type":"Point","properties":{"kind":"locality","name:sk":"Kom\u00e1rno","name":"Kom\u00e1rom","kind_detail":"town","name:de":"Komorn","source":"openstreetmap.org","min_zoom":8.0,"name:ru":"\u041a\u043e\u043c\u0430\u0440\u043e\u043c","id":29637688,"population":18786},"coordinates":[3632,3026]},{"type":"Point","properties":{"kind":"locality","name":"S\u00e1rv\u00e1r","alt_name:de":"Rotenturm an der Raab","kind_detail":"town","name:de":"Kotenburg","source":"openstreetmap.org","min_zoom":8.0,"name:ru":"\u0428\u0430\u0440\u0432\u0430\u0440","id":25914519,"population":14797},"coordinates":[172,912]},{"type":"Point","properties":{"kind":"locality","name":"M\u00f3r","kind_detail":"town","name:de":"Moor","source":"openstreetmap.org","min_zoom":8.0,"name:ru":"\u041c\u043e\u0440","id":268154501,"population":14010},"coordinates":[3887,1431]},{"type":"Point","properties":{"kind":"locality","name":"Celld\u00f6m\u00f6lk","kind_detail":"town","name:de":"Kleinmariazell","source":"openstreetmap.org","min_zoom":8.0,"name:ru":"\u0426\u0435\u043b\u044c\u0434\u0451\u043c\u0451\u043b\u044c\u043a","name:hr":"Demlak","id":286103761,"population":10827},"coordinates":[807,939]},{"type":"Point","properties":{"kind":"locality","name":"Kol\u00e1rovo","kind_detail":"town","source":"openstreetmap.org","min_zoom":8.0,"loc_name":"Guta","name:ru":"\u041a\u043e\u043b\u0430\u0440\u043e\u0432\u043e","name:hu":"G\u00fata","id":26036979,"population":10765},"coordinates":[3267,3787]},{"type":"Point","properties":{"kind":"locality","name":"Kapuv\u00e1r","kind_detail":"town","name:de":"Kobrunn","source":"openstreetmap.org","min_zoom":8.0,"name:ru":"\u041a\u0430\u043f\u0443\u0432\u0430\u0440","name:hr":"Kapuja","id":280680112,"population":10431},"coordinates":[444,2387]},{"type":"Point","properties":{"kind":"locality","name":"Csorna","kind_detail":"town","name:de":"Gschirnau","source":"openstreetmap.org","min_zoom":8.0,"name:ru":"\u0427\u043e\u0440\u043d\u0430","name:hr":"\u010cernja","id":277119750,"population":10406},"coordinates":[1092,2472]},{"type":"Point","properties":{"kind":"locality","name":"Ve\u013ek\u00fd Meder","kind_detail":"town","name:de":"Gro\u00df-Magendorf","source":"openstreetmap.org","min_zoom":8.0,"loc_name":"Calovo,Nagy Meder,Nagy Megyer,\u010calovo","name:pl":"Wielki Meder","name:hu":"Nagymegyer","id":26036901,"population":8888},"coordinates":[2605,3517]},{"type":"Point","properties":{"kind":"locality","name":"Hurbanovo","kind_detail":"town","name:de":"Altdala","source":"openstreetmap.org","min_zoom":8.0,"loc_name":"Ogyalla,Stara \u010fala,Star\u00e1 \u010fala,\u00d3gyalla","name:hu":"\u00d3gyalla","id":26037934,"population":8118},"coordinates":[3854,3605]},{"type":"Point","properties":{"kind":"locality","name":"Zirc","kind_detail":"town","name:de":"Sirtz","source":"openstreetmap.org","min_zoom":8.0,"name:ru":"\u0417\u0438\u0440\u0446","id":285941012,"population":6899},"coordinates":[2903,954]},{"type":"Point","properties":{"kind":"locality","name":"\u00c1cs","kind_detail":"town","name:de":"Atsch","source":"openstreetmap.org","min_zoom":8.0,"name:ru":"\u0410\u0447","id":206306262,"population":6793},"coordinates":[3320,2889]},{"type":"Point","properties":{"kind":"locality","name":"J\u00e1nossomorja","kind_detail":"town","name:de":"St. Johann","source":"openstreetmap.org","min_zoom":8.0,"name:ru":"\u042f\u043d\u043e\u0448\u0448\u043e\u043c\u043e\u0440\u044c\u044f","name:hr":"\u0160omierja","id":277526831,"population":6099},"coordinates":[755,3212]},{"type":"Point","properties":{"kind":"locality","name":"Berhida","kind_detail":"town","source":"openstreetmap.org","min_zoom":8.0,"name:ru":"\u0411\u0435\u0440\u0445\u0438\u0434\u0430","id":285941295,"population":5785},"coordinates":[3664,315]},{"type":"Point","properties":{"kind":"locality","name":"Kisb\u00e9r","kind_detail":"town","name:de":"Beer","source":"openstreetmap.org","min_zoom":8.0,"name:ru":"\u041a\u0438\u0448\u0431\u0435\u0440","id":286130314,"population":5357},"coordinates":[3364,1980]},{"type":"Point","properties":{"kind":"locality","name":"Gab\u010d\u00edkovo","kind_detail":"town","old_name:de":"B\u00f6sch","source":"openstreetmap.org","min_zoom":8.0,"old_name":"Be\u0161","loc_name":"Bes,Be\u0161,Bos,B\u00f6s","name:hu":"B\u0151s","id":26036176,"population":5212},"coordinates":[2048,3687]},{"type":"Point","properties":{"kind":"locality","name":"Devecser","kind_detail":"town","name:de":"Dewetscher","source":"openstreetmap.org","min_zoom":8.0,"name:ru":"\u0414\u0435\u0432\u0435\u0447\u0435\u0440","id":285886599,"population":4246},"coordinates":[1635,275]},{"type":"Point","properties":{"kind":"locality","name":"Balatonf\u0171zf\u0151","short_name":"F\u0171zf\u0151","kind_detail":"town","source":"openstreetmap.org","min_zoom":8.0,"name:ru":"\u0411\u0430\u043b\u0430\u0442\u043e\u043d\u0444\u044e\u0437\u0444\u0451","id":244531825,"population":4084},"coordinates":[3396,94]},{"type":"Point","properties":{"kind":"locality","name":"T\u00e9t","kind_detail":"town","name:de":"Tietzing","source":"openstreetmap.org","min_zoom":8.0,"name:ru":"\u0422\u0435\u0442","id":269357447,"population":4062},"coordinates":[1869,2052]},{"type":"Point","properties":{"kind":"locality","name":"Bodajk","kind_detail":"town","source":"openstreetmap.org","min_zoom":8.0,"name:ru":"\u0411\u043e\u0434\u0430\u0439\u043a","id":286150672,"population":4015},"coordinates":[3956,1218]},{"type":"Point","properties":{"kind":"locality","name":"Pannonhalma","kind_detail":"town","source":"openstreetmap.org","min_zoom":8.0,"name:ru":"\u041f\u0430\u043d\u043d\u043e\u043d\u0445\u0430\u043b\u044c\u043c\u0430","id":277546267,"population":4001},"coordinates":[2561,2200]},{"type":"Point","properties":{"kind":"locality","name":"Fert\u0151szentmikl\u00f3s","kind_detail":"town","name:de":"Sankt Niklaus am Neusiedlersee","source":"openstreetmap.org","min_zoom":8.0,"name:hr":"Miklo\u0161","id":281950258,"population":3864},"coordinates":[7,2365]},{"type":"Point","properties":{"kind":"locality","name":"B\u00e1bolna","kind_detail":"town","source":"openstreetmap.org","min_zoom":8.0,"name:ru":"\u0411\u0430\u0431\u043e\u043b\u044c\u043d\u0430","id":277546342,"population":3840},"coordinates":[3215,2596]},{"type":"Point","properties":{"kind":"locality","name":"Herend","kind_detail":"town","name:de":"Herrendorf","source":"openstreetmap.org","min_zoom":8.0,"name:ru":"\u0425\u0435\u0440\u0435\u043d\u0434","id":285941739,"population":3367},"coordinates":[2555,400]},{"type":"Point","properties":{"kind":"locality","name":"L\u00e9b\u00e9ny","kind_detail":"town","name:de":"Leiden","source":"openstreetmap.org","min_zoom":8.0,"name:ru":"\u041b\u0435\u0431\u0435\u043d\u044c","id":279252537,"population":3229},"coordinates":[1502,2999]},{"type":"Point","properties":{"kind":"locality","name":"Beled","kind_detail":"town","source":"openstreetmap.org","min_zoom":8.0,"name:ru":"\u0411\u0435\u043b\u0435\u0434","id":282438606,"population":2632},"coordinates":[626,1837]},{"type":"Point","properties":{"source":"openstreetmap.org","kind":"locality","name":"R\u00e9pcelak","kind_detail":"town","population":2632,"min_zoom":8.0,"id":282440643},"coordinates":[409,1636]},{"type":"Point","properties":{"kind":"locality","name":"J\u00e1nosh\u00e1za","kind_detail":"town","source":"openstreetmap.org","min_zoom":8.0,"name:ru":"\u042f\u043d\u043e\u0448\u0445\u0430\u0437\u0430","id":494394144,"population":2461},"coordinates":[843,344]}]},"transit":{"type":"GeometryCollection","geometries":[{"type":"MultiLineString","properties":{"kind":"train","name":"railjet M\u00fcnchen \u2013 Budapest","service":"high_speed","sort_rank":275,"colour":"#0050FF","source":"openstreetmap.org","min_zoom":5.0,"network":"\u00d6BB railjet;DB InterCityExpress","operator":"\u00d6BB","ref":"RJ90","osm_relation":true,"colour_name":"dodgerblue"},"arcs":[[4],[5],[6],[7]]},{"type":"LineString","properties":{"kind":"train","network":"VOR","service":"regional","sort_rank":275,"source":"openstreetmap.org","min_zoom":6.0,"operator":"\u00d6BB","ref":"REX","osm_relation":true,"name":"REX Bratislava-P. \u2013 Wien \u2013 Deutschkreutz"},"arcs":[8]},{"type":"LineString","properties":{"kind":"train","name":"S10: Kom\u00e1rom => Tatab\u00e1nya => Budapest-D\u00e9li","service":"commuter","sort_rank":275,"name:de":"S10: Komorn => Totiserkolonie => Budapest-S\u00fcd","source":"openstreetmap.org","min_zoom":6.0,"operator":"M\u00c1V-Start","ref":"S10","osm_relation":true},"arcs":[9]},{"type":"LineString","properties":{"kind":"train","name":"S10: Tatab\u00e1nya => Kom\u00e1rom => Gy\u0151r","service":"commuter","sort_rank":275,"name:de":"S10: Totiserkolonie => Komorn => Raab","source":"openstreetmap.org","min_zoom":6.0,"operator":"M\u00c1V-Start","ref":"S10","osm_relation":true},"arcs":[10]},{"type":"LineString","properties":{"kind":"train","name":"REX Deutschkreutz \u2013 Wien \u2013 Bratislava-P.","service":"regional","sort_rank":275,"source":"openstreetmap.org","min_zoom":6.0,"operator":"\u00d6BB","ref":"REX","osm_relation":true,"network":"VOR"},"arcs":[11]},{"type":"LineString","properties":{"kind":"train","name":"S150: Kom\u00e1rom => Esztergom","service":"commuter","sort_rank":275,"name:de":"S150: Komorn => Gran","source":"openstreetmap.org","min_zoom":6.0,"operator":"M\u00c1V-Start","ref":"S150","id":-4662210,"osm_relation":true},"arcs":[12]},{"type":"LineString","properties":{"kind":"train","name":"Bratislava-Petr\u017ealka - Hegyeshalom","service":"commuter","sort_rank":275,"source":"openstreetmap.org","min_zoom":6.0,"operator":"ZSSK; GyS\u011aV","id":-7802319,"osm_relation":true},"arcs":[13]},{"type":"MultiLineString","properties":{"kind":"train","name":"S150: Esztergom => Kom\u00e1rom => Sz\u00e9kesfeh\u00e9rv\u00e1r","service":"commuter","sort_rank":275,"name:de":"S150: Gran => Komorn => Stuhlwei\u00dfenburg","source":"openstreetmap.org","min_zoom":6.0,"operator":"M\u00c1V-Start","ref":"S150","osm_relation":true},"arcs":[[14],[15],[16],[17],[18],[19],[20],[21],[22],[23],[24]]},{"type":"LineString","properties":{"kind":"train","name":"X10: Gy\u0151r => Kom\u00e1rom => Tatab\u00e1nya => Budapest-D\u00e9li","service":"commuter","sort_rank":275,"name:de":"X10: Raab => Komorn => Totiserkolonie => Budapest-S\u00fcd","source":"openstreetmap.org","min_zoom":6.0,"operator":"M\u00c1V-Start","ref":"X10","osm_relation":true},"arcs":[25]},{"type":"MultiLineString","properties":{"kind":"train","name":"REX Bruck \u2013 Gy\u0151r","service":"regional","sort_rank":275,"source":"openstreetmap.org","min_zoom":6.0,"ref":"REX","osm_relation":true,"network":"VOR"},"arcs":[[26],[27],[28],[29]]},{"type":"MultiLineString","properties":{"kind":"train","name":"S10: Gy\u0151r => Kom\u00e1rom => Tatab\u00e1nya => Budapest-D\u00e9li","service":"commuter","sort_rank":275,"name:de":"S10: Raab => Komorn => Totiserkolonie => Budapest-S\u00fcd","source":"openstreetmap.org","min_zoom":6.0,"operator":"M\u00c1V-Start","ref":"S10","osm_relation":true},"arcs":[[30],[31],[32],[33],[34],[35],[36],[37],[38],[39],[40],[41],[42],[43],[44],[45],[46],[47],[48],[49],[50],[51],[52],[53],[54],[55],[56],[57],[58],[59],[60],[61],[62],[63],[64],[65],[66],[67],[68],[69],[70],[71],[72],[73],[74],[75],[76],[77],[78],[79],[80],[81],[82],[83],[84],[85],[86],[87],[88],[89],[90],[91],[92],[93],[94],[95],[96],[97],[98],[99],[100],[101],[102],[103],[104],[105],[106],[107],[108],[109],[110],[111],[112],[113],[114],[115],[116],[117],[118],[119],[120],[121],[122],[123],[124],[125],[126],[127],[128],[129],[130],[131],[132],[133],[134],[135],[136],[137],[138],[139],[140],[141],[142],[143],[144],[145],[146],[147],[148],[149],[150],[151],[152],[153],[154],[155],[156],[157],[158],[159],[160],[161],[162],[163],[164],[165],[166],[167],[168],[169],[170],[171],[172],[173],[174],[175],[176],[177],[178],[179],[180],[181],[182],[183],[184],[185],[186],[187],[188],[189],[190],[191],[192],[193],[194],[195],[196],[197],[198],[199],[200],[201],[202],[203],[204],[205],[206],[207],[208],[209],[210],[211],[212],[213],[214],[215],[216],[217],[218],[219],[220],[221],[222],[223],[224],[225],[226],[227],[228],[229],[230],[231],[232],[233],[234],[235],[236],[237],[238],[239]]},{"type":"LineString","properties":{"kind":"train","name":"S10: Gy\u0151r => Kom\u00e1rom","service":"commuter","sort_rank":275,"name:de":"S10: Raab => Komorn","source":"openstreetmap.org","min_zoom":6.0,"operator":"M\u00c1V-Start","ref":"S10","id":-5875710,"osm_relation":true},"arcs":[240]},{"type":"LineString","properties":{"kind":"train","name":"S150: Sz\u00e9kesfeh\u00e9rv\u00e1r => Kom\u00e1rom","service":"commuter","sort_rank":275,"name:de":"S150: Stuhlwei\u00dfenburg => Komorn","source":"openstreetmap.org","min_zoom":6.0,"operator":"M\u00c1V-Start","ref":"S150","osm_relation":true},"arcs":[241]},{"type":"LineString","properties":{"kind":"train","name":"S10: Budapest-D\u00e9li => Tatab\u00e1nya => Kom\u00e1rom","service":"commuter","sort_rank":275,"name:de":"S10: Budapest-S\u00fcd => Totiserkolonie => Komorn","source":"openstreetmap.org","min_zoom":6.0,"operator":"M\u00c1V-Start","ref":"S10","osm_relation":true},"arcs":[242]},{"type":"LineString","properties":{"kind":"train","network":"DB InterCity","service":"long_distance","sort_rank":275,"colour":"#9D9D9D","name":"EuroCity Budapest \u2013 Berlin","source":"openstreetmap.org","min_zoom":5.0,"operator":"\u010cD;DB;START;ZSSK","ref":"EC27","osm_relation":true,"colour_name":"darkseagreen"},"arcs":[243]},{"type":"LineString","properties":{"kind":"train","name":"EuroCity Berlin \u2013 Budapest","service":"long_distance","sort_rank":275,"colour":"#9D9D9D","source":"openstreetmap.org","min_zoom":5.0,"network":"DB InterCity","operator":"\u010cD;DB;START;ZSSK","ref":"EC27","osm_relation":true,"colour_name":"darkseagreen"},"arcs":[244]},{"type":"MultiLineString","properties":{"kind":"train","name":"railjet Budapest \u2013 M\u00fcnchen","service":"high_speed","sort_rank":275,"colour":"#0050FF","source":"openstreetmap.org","min_zoom":5.0,"network":"\u00d6BB railjet;DB InterCityExpress","operator":"\u00d6BB","ref":"RJ90","osm_relation":true,"colour_name":"dodgerblue"},"arcs":[[245],[246],[247],[248],[249]]},{"type":"MultiLineString","properties":{"kind":"train","name":"S150: Sz\u00e9kesfeh\u00e9rv\u00e1r => Kom\u00e1rom => Esztergom","service":"commuter","sort_rank":275,"name:de":"S150: Stuhlwei\u00dfenburg => Komorn => Gran","source":"openstreetmap.org","min_zoom":6.0,"operator":"M\u00c1V-Start","ref":"S150","osm_relation":true},"arcs":[[250],[251],[252],[253],[254],[255],[256],[257],[258],[259],[260],[261]]},{"type":"LineString","properties":{"kind":"train","name":"S10: Budapest-D\u00e9li => Tatab\u00e1nya => Kom\u00e1rom => Gy\u0151r","service":"commuter","sort_rank":275,"name:de":"S10: Budapest-S\u00fcd => Totiserkolonie => Komorn => Raab","source":"openstreetmap.org","min_zoom":6.0,"operator":"M\u00c1V-Start","ref":"S10","osm_relation":true},"arcs":[262]},{"type":"MultiLineString","properties":{"kind":"train","name":"Ostbahn","sort_rank":275,"source":"openstreetmap.org","min_zoom":6.0,"operator":"\u00d6BB","ref":"118 01","osm_relation":true},"arcs":[[263],[264]]},{"type":"MultiLineString","properties":{"kind":"train","name":"REX Gy\u0151r \u2013 Bruck","service":"regional","sort_rank":275,"source":"openstreetmap.org","min_zoom":6.0,"ref":"REX","osm_relation":true,"network":"VOR"},"arcs":[[265],[266],[267],[268]]}]},"pois":{"type":"GeometryCollection","geometries":[{"type":"Point","properties":{"kind":"national_park","protect_class":"5","area":108949000,"name:de":"Landschaftsschutzgebiet Donauauen","source":"openstreetmap.org","min_zoom":7.41,"tier":1,"name:pl":"Obszar chronionego krajobrazu Dunajskie \u0141\u0119gi","name:hu":"Dunajsk\u00e9 luhy T\u00e1jv\u00e9delmi Ter\u00fclet","id":-4610709,"osm_relation":true,"name":"CHKO Dunajsk\u00e9 luhy"},"coordinates":[1715,3728]},{"type":"Point","properties":{"kind":"military","name":"MH P\u00e1pa B\u00e1zisrep\u00fcl\u0151t\u00e9r","area":12495700,"source":"openstreetmap.org","min_zoom":8.0,"tier":3,"id":-3134721,"osm_relation":true},"coordinates":[1809,1394]},{"type":"Point","properties":{"kind":"protected_area","protect_class":"4","area":20539400,"source":"openstreetmap.org","min_zoom":8.0,"tier":2,"id":-1216096,"osm_relation":true,"name":"Dropie"},"coordinates":[3089,3567]}]},"boundaries":{"type":"GeometryCollection","geometries":[{"type":"LineString","properties":{"name:right:yo":"Austr\u00ed\u00e0","name:right:yi":"\u05e2\u05e1\u05d8\u05e8\u05d9\u05d9\u05da","name:left:la":"Hungaria","name:right:qu":"Awstiriya","name:left:li":"Hongarie\u00eb","name:left:vi":"Hungary","name:left:sw":"Hungaria","name:left:kg":"Hongrie","name:left:ka":"\u10e3\u10dc\u10d2\u10e0\u10d4\u10d7\u10d8","name:left:km":"\u1794\u17d2\u179a\u1791\u17c1\u179f\u17a0\u17bb\u1784\u1782\u17d2\u179a\u17b8","name:left:kl":"Ungarni","name:left:ko":"\ud5dd\uac00\ub9ac","name:right:it":"Austria","name:left:ki":"Macartsa","name:left:ro":"Ungaria","name:left:kk":"\u041c\u0430\u0436\u0430\u0440\u0441\u0442\u0430\u043d","name:left:rm":"Ungaria","name:left:ku":"Macaristan","name:left:kw":"Hungari","name:left:kv":"\u041c\u0430\u0434\u044c\u044f\u0440 \u041c\u0443","name:left:rw":"Hongiriya","name:left:ru":"\u0412\u0435\u043d\u0433\u0440\u0438\u044f","name:right:ie":"Austria","name:right:id":"Austria","name:left:ky":"\u041c\u0430\u0436\u0430\u0440\u0441\u0442\u0430\u043d","name:right:ia":"Austria","name:right:bi":"Austria","name:right:bn":"\u0985\u09b8\u09cd\u099f\u09cd\u09b0\u09bf\u09af\u09bc\u09be","name:right:bo":"\u0f68\u0f7c\u0f0b\u0f66\u0f72\u0f0b\u0f50\u0fb2\u0f72\u0f0b\u0f61\u0f0d","name:left:sl":"Mad\u017earska","name:left:zh_PY":"Xiongyali","name:right:bg":"\u0410\u0432\u0441\u0442\u0440\u0438\u044f","name:right:be":"\u0410\u045e\u0441\u0442\u0440\u044b\u044f","name:right:br":"Aostria","name:left:lt":"Vengrija","name:right:nn":"Austerrike","name:right:no":"\u00d8sterrike","name:right:nl":"Oostenrijk","name:left:lv":"Ung\u0101rija","name:right:wo":"Otris","name:right:ne":"\u0905\u0937\u094d\u091f\u094d\u0930\u0940\u092f\u093e","name:right:na":"Oteriya","name:right:gv":"Yn Austeyr","name:right:nv":"\u00d3\u00f3swiya","kind_detail":"2","name:left:tr":"Macaristan","name:right:gu":"\u0a91\u0ab8\u0acd\u0a9f\u0acd\u0ab0\u0abf\u0aaf\u0abe","name:right:ps":"\u0627\u062a\u0631\u064a\u0634","name:right:pt":"\u00c1ustria","name:left:mk":"\u0423\u043d\u0433\u0430\u0440\u0438\u0458\u0430","name:left:mi":"Hanekeria","name:left:ts":"Hungary","name:left:tt":"\u041c\u0430\u0497\u0430\u0440\u0441\u0442\u0430\u043d","name:left:mn":"\u0423\u043d\u0433\u0430\u0440","name:left:ml":"\u0d39\u0d02\u0d17\u0d31\u0d3f","name:left:th":"\u0e1b\u0e23\u0e30\u0e40\u0e17\u0e28\u0e2e\u0e31\u0e07\u0e01\u0e32\u0e23\u0e35","name:right:pa":"\u0a06\u0a38\u0a1f\u0a30\u0a40\u0a06","name:left:tk":"Wengri\u00fda","name:left:tl":"Unggarya","name:left:mt":"Ungerija","name:right:gl":"Austria","name:left:my":"\u101f\u1014\u103a\u1002\u1031\u101b\u102e\u1014\u102d\u102f\u1004\u103a\u1004\u1036","name:right:gn":"Auteria","name:right:pl":"Austria","name:left:te":"\u0c39\u0c02\u0c17\u0c47\u0c30\u0c3f","name:left:tg":"\u041c\u0430\u04b7\u043e\u0440\u0438\u0441\u0442\u043e\u043d","name:left:ms":"Hungary","name:left:mr":"\u0939\u0902\u0917\u0947\u0930\u0940","name:right:tr":"Avusturya","name:left:da":"Ungarn","name:left:de":"Ungarn","name:right:ga":"An Ostair","name:left:dv":"\u0780\u07a6\u0782\u07b0\u078e\u07ad\u0783\u07a9","name:right:ug":"\u0626\u0627\u06cb\u0633\u062a\u0649\u0631\u0649\u064a\u06d5","name:left:hi":"\u0939\u0902\u0917\u0930\u0940","name:right:lb":"\u00c9istr\u00e4ich","name:right:uk":"\u0410\u0432\u0441\u0442\u0440\u0456\u044f","name:left:he":"\u05d4\u05d5\u05e0\u05d2\u05e8\u05d9\u05d4","name:right:ln":"Otrish","name:right:li":"Oosteriek","name:right:lt":"Austrija","name:right:ur":"\u0622\u0633\u0679\u0631\u06cc\u0627","name:right:lv":"Austrija","name:left:hy":"\u0540\u0578\u0582\u0576\u0563\u0561\u0580\u056b\u0561","name:left:ta":"\u0b85\u0b99\u0bcd\u0b95\u0bc7\u0bb0\u0bbf","name:left:ht":"Ongri","name:right:uz":"Avstriya","name:left:hr":"Ma\u0111arska","sort_rank":262,"name:right:gd":"An Ostair","name:right:os":"\u0410\u0432\u0441\u0442\u0440\u0438","name:right:es":"Austria","name:right:sr":"\u0410\u0443\u0441\u0442\u0440\u0438\u0458\u0430","name:right:eu":"Austria","name:right:et":"Austria","name:left:os":"\u0412\u0435\u043d\u0433\u0440\u0438","name:left:or":"\u0b39\u0b19\u0b4d\u0b17\u0b47\u0b30\u0b40","name:right:ee":"Austria","name:left:vo":"Macar\u00e4n","name:left:oc":"Ongria","name:right:eo":"A\u016dstrujo","name:right:en":"Austria","name:right:el":"\u0391\u03c5\u03c3\u03c4\u03c1\u03af\u03b1","name:left:ff":"Hunngariya","name:left:fa":"\u0645\u062c\u0627\u0631\u0633\u062a\u0627\u0646","name:left:fo":"Ungarn","name:right:sk":"Rak\u00fasko","name:left:fi":"Unkari","name:left:fr":"Hongrie","name:left:cs":"Ma\u010farsko","name:right:jv":"Austria","name:left:fy":"Hongarije","name:right:ja":"\u30aa\u30fc\u30b9\u30c8\u30ea\u30a2","name:right:sq":"Austria","name:right:ss":"IYosithiya","name:left:ja":"\u30cf\u30f3\u30ac\u30ea\u30fc","name:right:su":"Austria","name:right:st":"Austria","name:right:sw":"Austria","name:right:sv":"\u00d6sterrike","name:right:si":"\u0d94\u0dc3\u0dca\u0da7\u0dca\u200d\u0dbb\u0dd2\u0dba\u0dcf\u0dc0","name:right:sh":"Austrija","name:left:qu":"Unriya","name:right:sm":"Austilia","name:right:sl":"Avstrija","name:right:so":"Austriya","name:right:sa":"\u0906\u0938\u094d\u091f\u094d\u0930\u093f\u092f\u093e","name:right:sc":"\u00c0ustria","name:left:jv":"Hongaria","id":-21335,"name:right:co":"Austria","name:right:ca":"\u00c0ustria","name:right:se":"Nuortariika","name:right:ce":"\u0410\u0432\u0441\u0442\u0440\u0438","name:right:cy":"Awstria","name:right:zh-yue":"\u5967\u5730\u5229","name:right:cs":"Rakousko","name:right:cu":"\u0410\u0475\u0441\u0442\u0440\u0457\ua657","name:right:cv":"\u0410\u0432\u0441\u0442\u0440\u0438","name:left:ar":"\u0627\u0644\u0645\u062c\u0631","name:right:is":"Austurr\u00edki","name:left:az":"Macar\u0131stan","name:left:ay":"Hunkariya","name:right:rw":"Ositiriya","name:left:af":"Hongarye","name:left:ab":"\u041c\u0430\u0434\u0438\u0430\u0440\u0442\u04d9\u044b\u043b\u0430","name:left:an":"Hongr\u00eda","name:left:am":"\u1200\u1295\u130b\u122a","name:right:ru":"\u0410\u0432\u0441\u0442\u0440\u0438\u044f","name:right:io":"Austria","name:left:zh-yue":"\u5308\u7259\u5229","name:right:ro":"Austria","name:right:hy":"\u0531\u057e\u057d\u057f\u0580\u056b\u0561","name:left:lb":"Ungarn","alt_name:left:eo":"Hungario","name:left:su":"Hungaria","name:left:st":"Hungary","name:right:hr":"Austrija","name:left:sv":"Ungern","name:left:sq":"Hungaria","name:right:hu":"Ausztria","name:left:ss":"IHangareyi","name:left:sr":"\u041c\u0430\u0452\u0430\u0440\u0441\u043a\u0430","name:left:sm":"Hungary","name:right:hi":"\u0911\u0938\u094d\u091f\u094d\u0930\u093f\u092f\u093e","name:left:so":"Hungaria","name:left:sn":"Hungary","name:left:si":"\u0dc4\u0db1\u0dca\u0d9c\u0dda\u0dbb\u0dd2\u0dba\u0dcf\u0db1\u0dd4 \u0dc3\u0db8\u0dd4\u0dc4\u0dcf\u0dab\u0dca\u0da9\u0dd4\u0dc0","name:left:sh":"Ma\u0111arska","name:left:sk":"Ma\u010farsko","name:left:se":"U\u014bg\u00e1r","name:left:sa":"\u0939\u0902\u0917\u0930\u0940","name:right:he":"\u05d0\u05d5\u05e1\u05d8\u05e8\u05d9\u05d4","name:right:la":"Austria","name:right:af":"Oostenryk","name:left:co":"Ungheria","name:left:ce":"\u0412\u0435\u043d\u0433\u0440\u0438","name:right:an":"Austria","name:right:am":"\u12a6\u1235\u1275\u122a\u12eb","name:left:ca":"Hongria","source":"openstreetmap.org","name:left:cy":"Hwngari","name:right:ar":"\u0627\u0644\u0646\u0645\u0633\u0627","name:left:cu":"\u046a\u0433\u0440\u0438","name:left:cv":"\u0412\u0435\u043d\u0433\u0440\u0438","name:right:az":"Avstriya","name:right:ay":"Austriya","name:right:rm":"Austria","name":"Magyarorsz\u00e1g - \u00d6sterreich","name:right:zu":"I-Ostriya","name:left:zh":"\u5308\u7259\u5229","name:right:zh":"\u5967\u5730\u5229","name:left:uz":"Mojariston","name:right:ba":"\u0410\u0432\u0441\u0442\u0440\u0438\u044f","name:right:fr":"Autriche","name:left:ps":"\u0647\u0646\u06ab\u0631\u064a","name:left:nv":"H\u00e1ngewii","name:left:ur":"\u0645\u062c\u0627\u0631\u0633\u062a\u0627\u0646","id:right":-16239,"name:left:uk":"\u0423\u0433\u043e\u0440\u0449\u0438\u043d\u0430","name:left:no":"Ungern","name:left:nl":"Hongarije","alt_name:right:eo":"A\u016dstrio","name:right:fa":"\u0627\u062a\u0631\u06cc\u0634","name:right:fo":"Eysturr\u00edki","name:left:ne":"\u0939\u0902\u0917\u0947\u0930\u0940","name:left:ug":"\u06cb\u06d0\u0646\u06af\u0631\u0649\u064a\u06d5","name:left:na":"Ungari","name:left:eo":"Hungarujo","name:left:en":"Hungary","name:left:el":"\u039f\u03c5\u03b3\u03b3\u03b1\u03c1\u03af\u03b1","name:left:ee":"Hungary","name:left:pl":"W\u0119gry","name:left:es":"Hungr\u00eda","name:left:ie":"Hungaria","name:left:eu":"Hungaria","name:left:et":"Ungari","name:right:zh-min-nan":"\u00d2-t\u0113-l\u012b","name:right:oc":"\u00c0ustria","name:left:ia":"Hungaria","name:right:bs":"Austrija","osm_relation":true,"name:right:or":"\u0b05\u0b37\u0b4d\u0b1f\u0b4d\u0b30\u0b3f\u0b06","name:left:pt":"Hungria","name:right:ku":"Awistriya","name:right:tk":"Awstri\u00fda","name:left:gl":"Hungr\u00eda - Magyarorsz\u00e1g","min_zoom":8.0,"name:left:zh-min-nan":"Magyar-kok","name:left:ln":"Ungri","name:left:wo":"Ongiri","name:left:ga":"An Ung\u00e1ir","name:left:it":"Ungheria","name:left:gd":"An Ungair","int_name:right":"Austria","name:left:gn":"Hungyria","name:left:gu":"\u0ab9\u0a82\u0a97\u0ac7\u0ab0\u0ac0","name:left:gv":"Yn Ungaar","official_name:right":"Republik \u00d6sterreich","name:left":"Magyarorsz\u00e1g","name:right:mk":"\u0410\u0432\u0441\u0442\u0440\u0438\u0458\u0430","name:right:mi":"Ateria","name:right:mn":"\u0410\u0432\u0441\u0442\u0440\u0438","name:right:ml":"\u0d13\u0d38\u0d4d\u0d1f\u0d4d\u0d30\u0d3f\u0d2f","name:right:vo":"L\u00f6ster\u00e4n","name:right:mg":"Aotrisy","name:right:vi":"\u00c1o","name:right:my":"\u101e\u103c\u1005\u1010\u103c\u102e\u1038\u101a\u102c\u1038\u1014\u102d\u102f\u1004\u103a\u1004\u1036","name:right:ms":"Austria","name:right:mr":"\u0911\u0938\u094d\u091f\u094d\u0930\u093f\u092f\u093e","name:right:fy":"Eastenryk","name:right:mt":"Awstrija","name:left:nn":"Ungarn","kind":"country","name:left:br":"Hungaria","name:left:bs":"Ma\u0111arska","int_name:left":"Hungary","name:left:ba":"\u0412\u0435\u043d\u0433\u0440\u0438\u044f","name:left:bg":"\u0423\u043d\u0433\u0430\u0440\u0438\u044f","name:left:be":"\u0412\u0435\u043d\u0433\u0440\u044b\u044f","name:left:bi":"Hungary","name:left:bn":"\u09b9\u09be\u0999\u09cd\u0997\u09c7\u09b0\u09bf","name:left:bo":"\u0f67\u0f74\u0f44\u0f0b\u0f42\u0fb7\u0f0b\u0f62\u0f72\u0f0d","name:right":"\u00d6sterreich","name:left:yo":"H\u00fang\u00e1r\u00ec","name:left:yi":"\u05d0\u05d5\u05e0\u05d2\u05d0\u05e8\u05df","id:left":-21335,"name:right:fi":"It\u00e4valta","name:right:ka":"\u10d0\u10d5\u10e1\u10e2\u10e0\u10d8\u10d0","name:left:io":"Hungaria","name:left:pa":"\u0a39\u0a70\u0a17\u0a30\u0a40","name:right:kg":"Autriche","name:right:tt":"\u0410\u0432\u0441\u0442\u0440\u0438\u044f","name:right:kk":"\u0410\u0443\u0441\u0442\u0440\u0438\u044f \u0420\u0435\u0441\u043f\u0443\u0431\u043b\u0438\u043a\u0430\u0441\u044b","name:left:id":"Hongaria","name:right:kl":"\u00d8strigi","name:right:ko":"\uc624\uc2a4\ud2b8\ub9ac\uc544","name:right:kn":"\u0c86\u0cb8\u0ccd\u0c9f\u0ccd\u0cb0\u0cbf\u0caf","name:right:tl":"Austria","name:right:th":"\u0e1b\u0e23\u0e30\u0e40\u0e17\u0e28\u0e2d\u0e2d\u0e2a\u0e40\u0e15\u0e23\u0e35\u0e22","name:right:kw":"Estrych","name:right:kv":"\u0410\u0432\u0441\u0442\u0440\u0438\u044f","name:right:ky":"\u0410\u0432\u0441\u0442\u0440\u0438\u044f","name:right:te":"\u0c06\u0c38\u0c4d\u0c1f\u0c4d\u0c30\u0c3f\u0c2f\u0c3e","name:right:tg":"\u0423\u0442\u0440\u0438\u0448","name:left:is":"Ungverjaland","name:right:ta":"\u0b86\u0bb8\u0bcd\u0ba4\u0bbf\u0bb0\u0bbf\u0baf\u0bbe","name:right:da":"\u00d8strig","name:right:dz":"\u0f68\u0f66\u0f0b\u0f4a\u0f72\u0f0b\u0f61","name:right:dv":"\u0787\u07ae\u0790\u07b0\u0793\u07b0\u0783\u07a8\u0787\u07a7","name:right:ht":"Otrich"},"arcs":[0]},{"type":"LineString","properties":{"name:right:yo":"Slof\u00e1k\u00ed\u00e0","name:right:yi":"\u05e1\u05dc\u05d0\u05d5\u05d5\u05d0\u05e7\u05d9\u05d9","name:left:la":"Hungaria","name:right:qu":"Isluwakya","name:left:li":"Hongarie\u00eb","name:left:vi":"Hungary","name:left:sw":"Hungaria","name:left:kg":"Hongrie","name:left:ka":"\u10e3\u10dc\u10d2\u10e0\u10d4\u10d7\u10d8","name:left:km":"\u1794\u17d2\u179a\u1791\u17c1\u179f\u17a0\u17bb\u1784\u1782\u17d2\u179a\u17b8","name:left:kl":"Ungarni","name:left:ko":"\ud5dd\uac00\ub9ac","name:right:it":"Slovacchia","name:left:ki":"Macartsa","name:left:ro":"Ungaria","name:left:kk":"\u041c\u0430\u0436\u0430\u0440\u0441\u0442\u0430\u043d","name:left:rm":"Ungaria","name:left:ku":"Macaristan","name:left:kw":"Hungari","name:left:kv":"\u041c\u0430\u0434\u044c\u044f\u0440 \u041c\u0443","name:left:rw":"Hongiriya","name:left:ru":"\u0412\u0435\u043d\u0433\u0440\u0438\u044f","name:right:ie":"Slovacia","name:right:id":"Slowakia","name:left:ky":"\u041c\u0430\u0436\u0430\u0440\u0441\u0442\u0430\u043d","name:right:ia":"Slovachia","name:right:bi":"Slovakia","name:right:bn":"\u09b8\u09cd\u09b2\u09cb\u09ad\u09be\u0995\u09bf\u09af\u09bc\u09be","name:right:bo":"\u0f66\u0f72\u0f0b\u0f63\u0f7c\u0f0b\u0f55\u0f0b\u0f41\u0f7a\u0f0d","name:left:sl":"Mad\u017earska","name:left:zh_PY":"Xiongyali","name:right:bg":"\u0421\u043b\u043e\u0432\u0430\u043a\u0438\u044f","name:right:be":"\u0421\u043b\u0430\u0432\u0430\u043a\u0456\u044f","name:right:br":"Slovakia","name:left:lt":"Vengrija","name:right:nn":"Slovakia","name:right:no":"Slovakia","name:right:nl":"Slowakije","name:left:lv":"Ung\u0101rija","name:right:wo":"Eslowaaki","name:right:ne":"\u0938\u094d\u0932\u094b\u092d\u093e\u0915\u093f\u092f\u093e","name:right:na":"Slowakia","name:right:gv":"Yn Clovack","name:right:nv":"S\u0142\u00f3ba\u02bc Bik\u00e9yah","kind_detail":"2","name:left:tr":"Macaristan","name:right:gu":"\u0ab8\u0acd\u0ab2\u0acb\u0ab5\u0abe\u0a95\u0abf\u0aaf\u0abe","name:right:ps":"\u0633\u0644\u0648\u0627\u06a9\u064a\u0627","name:right:pt":"Eslov\u00e1quia","name:left:mk":"\u0423\u043d\u0433\u0430\u0440\u0438\u0458\u0430","name:left:mi":"Hanekeria","name:left:ts":"Hungary","name:left:tt":"\u041c\u0430\u0497\u0430\u0440\u0441\u0442\u0430\u043d","name:left:mn":"\u0423\u043d\u0433\u0430\u0440","name:left:ml":"\u0d39\u0d02\u0d17\u0d31\u0d3f","name:left:th":"\u0e1b\u0e23\u0e30\u0e40\u0e17\u0e28\u0e2e\u0e31\u0e07\u0e01\u0e32\u0e23\u0e35","name:left:mr":"\u0939\u0902\u0917\u0947\u0930\u0940","name:left:tk":"Wengri\u00fda","name:left:tl":"Unggarya","name:left:mt":"Ungerija","name:right:gl":"Eslovaquia","name:left:my":"\u101f\u1014\u103a\u1002\u1031\u101b\u102e\u1014\u102d\u102f\u1004\u103a\u1004\u1036","name:right:gn":"Elovakia","name:right:pl":"S\u0142owacja","name:left:te":"\u0c39\u0c02\u0c17\u0c47\u0c30\u0c3f","name:left:tg":"\u041c\u0430\u04b7\u043e\u0440\u0438\u0441\u0442\u043e\u043d","name:left:ms":"Hungary","name:right:gd":"An t-Sl\u00f2bhac","name:right:tr":"Slovakya","name:left:da":"Ungarn","name:left:de":"Ungarn","name:right:ga":"An tSl\u00f3vaic","name:left:dv":"\u0780\u07a6\u0782\u07b0\u078e\u07ad\u0783\u07a9","name:right:ug":"\u0633\u0644\u0648\u06cb\u0627\u0643\u0649\u064a\u06d5","name:left:hi":"\u0939\u0902\u0917\u0930\u0940","name:right:lb":"Slowakei","name:right:uk":"\u0421\u043b\u043e\u0432\u0430\u0447\u0447\u0438\u043d\u0430","name:left:he":"\u05d4\u05d5\u05e0\u05d2\u05e8\u05d9\u05d4","name:right:ln":"Slovakia","name:right:li":"Slowakie\u00eb","name:right:lt":"Slovakija","name:right:ur":"\u0633\u0644\u0648\u0648\u0627\u06a9\u06cc\u06c1","name:right:lv":"Slov\u0101kija","name:left:hy":"\u0540\u0578\u0582\u0576\u0563\u0561\u0580\u056b\u0561","name:left:ta":"\u0b85\u0b99\u0bcd\u0b95\u0bc7\u0bb0\u0bbf","name:left:ht":"Ongri","name:right:uz":"Slovakiya","name:left:hr":"Ma\u0111arska","sort_rank":262,"name:right:os":"\u0421\u043b\u043e\u0432\u0430\u043a\u0438","name:right:es":"Eslovaquia","name:right:sr":"\u0421\u043b\u043e\u0432\u0430\u0447\u043a\u0430","name:right:eu":"Eslovakia","name:right:et":"Slovakkia","name:left:os":"\u0412\u0435\u043d\u0433\u0440\u0438","name:left:or":"\u0b39\u0b19\u0b4d\u0b17\u0b47\u0b30\u0b40","name:right:ee":"Slovakia","name:left:vo":"Macar\u00e4n","name:left:oc":"Ongria","name:right:eo":"Slovakujo","name:right:en":"Slovakia","name:right:el":"\u03a3\u03bb\u03bf\u03b2\u03b1\u03ba\u03af\u03b1","name:left:ff":"Hunngariya","name:left:fa":"\u0645\u062c\u0627\u0631\u0633\u062a\u0627\u0646","name:left:fo":"Ungarn","name:left:fi":"Unkari","name:left:fr":"Hongrie","name:left:fy":"Hongarije","name:right:ja":"\u30b9\u30ed\u30d0\u30ad\u30a2","name:right:sq":"Sllovakia","name:right:ss":"Silovakhi","name:left:ja":"\u30cf\u30f3\u30ac\u30ea\u30fc","name:right:su":"Slovakia","name:right:st":"Slovakia","name:right:sw":"Slovakia","name:right:sv":"Slovakien","name:right:sh":"Slova\u010dka","name:left:qu":"Unriya","name:right:jv":"Slowakia","name:right:sl":"Slova\u0161ka","name:right:so":"Islofaakiya","name:right:sa":"\u0938\u094d\u0932\u094b\u0935\u093e\u0915\u093f\u092f\u093e","name:left:jv":"Hongaria","id":-21335,"name:right:co":"Sluvacchia","name:right:ca":"Eslov\u00e0quia","name:right:se":"Slovakia","name:right:ce":"\u0421\u043b\u043e\u0432\u0430\u043a\u0438","name:right:cy":"Slofacia","name:right:zh-yue":"\u65af\u6d1b\u4f10\u514b","name:right:cu":"\u0421\u043b\u043e\u0432\u0463\u043d\u044c\u0441\u043a\u043e","name:right:cv":"\u0421\u043b\u043e\u0432\u0430\u043a\u0438","name:left:ar":"\u0627\u0644\u0645\u062c\u0631","name:right:is":"Sl\u00f3vak\u00eda","name:left:az":"Macar\u0131stan","name:left:ay":"Hunkariya","name:right:rw":"Silovakiya","name:left:af":"Hongarye","name:left:ab":"\u041c\u0430\u0434\u0438\u0430\u0440\u0442\u04d9\u044b\u043b\u0430","name:left:an":"Hongr\u00eda","name:left:am":"\u1200\u1295\u130b\u122a","name:right:ru":"\u0421\u043b\u043e\u0432\u0430\u043a\u0438\u044f","name:right:io":"Slovakia","name:left:zh-yue":"\u5308\u7259\u5229","name:right:ro":"Slovacia","name:right:hy":"\u054d\u056c\u0578\u057e\u0561\u056f\u056b\u0561","name:left:lb":"Ungarn","alt_name:left:eo":"Hungario","name:left:su":"Hungaria","name:left:st":"Hungary","name:right:hr":"Slova\u010dka","name:left:sv":"Ungern","name:left:sq":"Hungaria","name:right:hu":"Szlov\u00e1kia","name:left:ss":"IHangareyi","name:left:sr":"\u041c\u0430\u0452\u0430\u0440\u0441\u043a\u0430","name:left:sm":"Hungary","name:right:hi":"\u0938\u094d\u0932\u094b\u0935\u093e\u0915\u093f\u092f\u093e","name:left:so":"Hungaria","name:left:sn":"Hungary","name:left:si":"\u0dc4\u0db1\u0dca\u0d9c\u0dda\u0dbb\u0dd2\u0dba\u0dcf\u0db1\u0dd4 \u0dc3\u0db8\u0dd4\u0dc4\u0dcf\u0dab\u0dca\u0da9\u0dd4\u0dc0","name:left:sh":"Ma\u0111arska","name:left:sk":"Ma\u010farsko","name:left:se":"U\u014bg\u00e1r","name:left:sa":"\u0939\u0902\u0917\u0930\u0940","name:right:he":"\u05e1\u05dc\u05d5\u05d1\u05e7\u05d9\u05d4","name:right:la":"Slovacia","name:right:af":"Slowakye","name:left:co":"Ungheria","name:left:ce":"\u0412\u0435\u043d\u0433\u0440\u0438","name:right:an":"Eslovaquia","name:right:am":"\u1235\u120e\u126b\u12aa\u12eb","name:left:ca":"Hongria","source":"openstreetmap.org","name:left:cy":"Hwngari","name:right:ar":"\u0633\u0644\u0648\u0641\u0627\u0643\u064a\u0627","name:left:cu":"\u046a\u0433\u0440\u0438","name:left:cv":"\u0412\u0435\u043d\u0433\u0440\u0438","name:right:az":"Slovakiya","name:left:cs":"Ma\u010farsko","name:right:rm":"Slovachia","name":"Magyarorsz\u00e1g - Slovensko","name:right:zu":"ISlovaki","name:left:zh":"\u5308\u7259\u5229","name:right:zh":"\u65af\u6d1b\u4f10\u514b","name:left:uz":"Mojariston","name:right:ba":"\u0421\u043b\u043e\u0432\u0430\u043a\u0438\u044f","name:right:fr":"Slovaquie","name:left:ps":"\u0647\u0646\u06ab\u0631\u064a","name:left:nv":"H\u00e1ngewii","name:left:ur":"\u0645\u062c\u0627\u0631\u0633\u062a\u0627\u0646","id:right":-14296,"name:left:uk":"\u0423\u0433\u043e\u0440\u0449\u0438\u043d\u0430","name:left:no":"Ungern","name:left:nl":"Hongarije","alt_name:right:eo":"Slovakio","name:right:fa":"\u0627\u0633\u0644\u0648\u0627\u06a9\u06cc","name:right:fo":"Slovakia","name:left:ne":"\u0939\u0902\u0917\u0947\u0930\u0940","name:left:ug":"\u06cb\u06d0\u0646\u06af\u0631\u0649\u064a\u06d5","name:left:na":"Ungari","name:left:eo":"Hungarujo","name:left:en":"Hungary","name:left:el":"\u039f\u03c5\u03b3\u03b3\u03b1\u03c1\u03af\u03b1","name:left:ee":"Hungary","name:left:pl":"W\u0119gry","name:left:es":"Hungr\u00eda","name:left:ie":"Hungaria","name:left:eu":"Hungaria","name:left:et":"Ungari","name:right:oc":"Eslovaquia","name:left:ia":"Hungaria","name:right:bs":"Slova\u010dka","osm_relation":true,"name:right:or":"\u0b38\u0b4d\u0b32\u0b4b\u0b2d\u0b3e\u0b15\u0b3f\u0b06","name:left:pt":"Hungria","name:right:ku":"Slovakya","name:right:tk":"Slowaki\u00fda","min_zoom":8.0,"name:left:ln":"Ungri","name:left:wo":"Ongiri","name:left:ga":"An Ung\u00e1ir","name:left:it":"Ungheria","name:left:gd":"An Ungair","name:left:gl":"Hungr\u00eda - Magyarorsz\u00e1g","name:left:gn":"Hungyria","name:left:gu":"\u0ab9\u0a82\u0a97\u0ac7\u0ab0\u0ac0","name:left:gv":"Yn Ungaar","official_name:right":"Slovensk\u00e1 republika","name:left":"Magyarorsz\u00e1g","name:right:mk":"\u0421\u043b\u043e\u0432\u0430\u0447\u043a\u0430","name:right:mi":"Horow\u0101kia","name:right:mn":"\u0421\u043b\u043e\u0432\u0430\u043a","name:right:ml":"\u0d38\u0d4d\u0d32\u0d4b\u0d35\u0d3e\u0d15\u0d4d\u0d2f","name:right:vo":"Slovakiy\u00e4n","name:right:vi":"Slovakia","name:right:my":"\u1006\u101c\u102d\u102f\u1017\u102c\u1038\u1000\u102e\u1038\u101a\u102c\u1038\u1014\u102d\u102f\u1004\u103a\u1004\u1036","name:right:ms":"Slovakia","name:right:mr":"\u0938\u094d\u0932\u094b\u0935\u094d\u0939\u093e\u0915\u093f\u092f\u093e","name:right:fy":"Slowakije","name:right:mt":"Slovakkja","name:left:nn":"Ungarn","kind":"country","name:left:br":"Hungaria","name:left:bs":"Ma\u0111arska","int_name:left":"Hungary","name:left:ba":"\u0412\u0435\u043d\u0433\u0440\u0438\u044f","name:left:bg":"\u0423\u043d\u0433\u0430\u0440\u0438\u044f","name:left:be":"\u0412\u0435\u043d\u0433\u0440\u044b\u044f","name:left:bi":"Hungary","name:left:bn":"\u09b9\u09be\u0999\u09cd\u0997\u09c7\u09b0\u09bf","name:left:bo":"\u0f67\u0f74\u0f44\u0f0b\u0f42\u0fb7\u0f0b\u0f62\u0f72\u0f0d","name:right":"Slovensko","name:left:yo":"H\u00fang\u00e1r\u00ec","name:left:yi":"\u05d0\u05d5\u05e0\u05d2\u05d0\u05e8\u05df","id:left":-21335,"name:right:fi":"Slovakia","name:right:ka":"\u10e1\u10da\u10dd\u10d5\u10d0\u10d9\u10d4\u10d7\u10d8","name:left:io":"Hungaria","name:left:pa":"\u0a39\u0a70\u0a17\u0a30\u0a40","name:right:kg":"Slovakia","name:right:tt":"\u0421\u043b\u043e\u0432\u0430\u043a\u0438\u044f","name:right:kk":"\u0421\u043b\u043e\u0432\u0430\u043a\u0438\u044f","name:left:id":"Hongaria","name:right:kl":"Slovakia","name:right:ko":"\uc2ac\ub85c\ubc14\ud0a4\uc544","name:right:tl":"Eslobakya","name:right:th":"\u0e1b\u0e23\u0e30\u0e40\u0e17\u0e28\u0e2a\u0e42\u0e25\u0e27\u0e32\u0e40\u0e01\u0e35\u0e22","name:right:kw":"Slovaki","name:right:kv":"\u0421\u043b\u043e\u0432\u0430\u043a\u0438\u044f","name:right:ky":"\u0421\u043b\u043e\u0432\u0430\u043a\u0438\u044f","name:left:zh-min-nan":"Magyar-kok","name:right:tg":"\u0421\u043b\u043e\u0432\u0430\u043a\u0438\u044f","name:left:is":"Ungverjaland","name:right:ta":"\u0b9a\u0bbf\u0bb2\u0bcb\u0bb5\u0bbe\u0b95\u0bcd\u0b95\u0bbf\u0baf\u0bbe","name:right:de":"Slowakei","name:right:da":"Slovakiet","name:right:dv":"\u0790\u07aa\u078d\u07ae\u0788\u07a7\u0786\u07a8\u0787\u07a7","name:right:ht":"Slovaki"},"arcs":[1]},{"type":"LineString","properties":{"name:right:nl":"Transdanubi\u00eb","name:left:he":"\u05d1\u05d5\u05e8\u05d2\u05e0\u05dc\u05e0\u05d3","name:right:hr":"Podunavlje","name:left:ja":"\u30d6\u30eb\u30b2\u30f3\u30e9\u30f3\u30c8\u5dde","id:right":-22787,"name:left:uk":"\u0411\u0443\u0440\u0433\u0435\u043d\u043b\u0430\u043d\u0434","name:left:sl":"Gradi\u0161\u010dansko","min_zoom":8.0,"name:left:bg":"\u0411\u0443\u0440\u0433\u0435\u043d\u043b\u0430\u043d\u0434","name:left:be":"\u0411\u0443\u0440\u0433\u0435\u043d\u043b\u0430\u043d\u0434","name:left:hu":"Fels\u0151\u0151rvid\u00e9k","id":-76909,"name:left:hr":"Gradi\u0161\u0107e","name:right":"Dun\u00e1nt\u00fal","name:left:eo":"Burgenlando","sort_rank":256,"kind_detail":"4","source":"openstreetmap.org","name:left:yi":"\u05d1\u05d5\u05e8\u05d2\u05e0\u05dc\u05d0\u05e0\u05d3","id:left":-76909,"name:left:cs":"Burgerlandsko","name:left":"Burgenland","name:left:ar":"\u0628\u0648\u0631\u063a\u0646\u0644\u0627\u0646\u062f","name:right:it":"Transdanubio","name:right:ru":"\u0417\u0430\u0434\u0443\u043d\u0430\u0439\u0441\u043a\u0438\u0439 \u043a\u0440\u0430\u0439","name:right:ro":"Transdanubia","name:left:ru":"\u0411\u0443\u0440\u0433\u0435\u043d\u043b\u0430\u043d\u0434","name:left:ta":"\u0baa\u0bc1\u0bb0\u0bcd\u0b95\u0bc6\u0ba9\u0bcd\u0bb2\u0bbe\u0ba9\u0bcd\u0b9f\u0bcd","name:left:sr":"\u0411\u0443\u0440\u0433\u0435\u043d\u043b\u0430\u043d\u0434","name:right:en":"Transdanubia","osm_relation":true,"kind":"region","name":"Burgenland - Dun\u00e1nt\u00fal","name:right:de":"Transdanubien","alt_name:left:cs":"Hradsko"},"arcs":[2]},{"type":"LineString","properties":{"kind":"region","name:ro":"Transdanubia","name:nl":"Transdanubi\u00eb","name":"Dun\u00e1nt\u00fal","sort_rank":256,"kind_detail":"4","name:de":"Transdanubien","source":"openstreetmap.org","min_zoom":8.0,"name:en":"Transdanubia","name:it":"Transdanubio","name:ru":"\u0417\u0430\u0434\u0443\u043d\u0430\u0439\u0441\u043a\u0438\u0439 \u043a\u0440\u0430\u0439","name:hr":"Podunavlje","id":-22787,"osm_relation":true},"arcs":[3]}]},"roads":{"type":"GeometryCollection","geometries":[{"type":"MultiLineString","properties":{"kind":"major_road","network":null,"sort_rank":380,"kind_detail":"primary","is_bicycle_related":true,"cycleway":"lane","source":"openstreetmap.org","min_zoom":8.0,"landuse_kind":"urban_area","shield_text":"1","ref":"1"},"arcs":[[271],[272],[273]]},{"type":"LineString","properties":{"kind":"minor_road","sort_rank":360,"landuse_kind":"urban_area","is_bicycle_related":true,"bicycle_shield_text":"EV6","bicycle_network":"icn","source":"openstreetmap.org","min_zoom":8.0,"kind_detail":"residential","name:hu":"Villanytelepi \u00fat"},"arcs":[274]},{"type":"LineString","properties":{"kind":"major_road","sort_rank":379,"kind_detail":"secondary","is_bicycle_related":true,"bicycle_shield_text":"EV13","cycleway":"lane","source":"openstreetmap.org","min_zoom":8.0,"bicycle_network":"icn","ref":"L206"},"arcs":[275]},{"type":"LineString","properties":{"kind":"major_road","network":"e-road","sort_rank":380,"kind_detail":"primary","source":"openstreetmap.org","min_zoom":8.0,"landuse_kind":"urban_area","shield_text":"65","ref":"86"},"arcs":[276]},{"type":"LineString","properties":{"kind":"major_road","sort_rank":380,"kind_detail":"primary","bus_network":"VOR","source":"openstreetmap.org","min_zoom":8.0,"bus_shield_text":"292","ref":"B51","id":249258712},"arcs":[277]},{"type":"LineString","properties":{"bus_network":"VOR","network":null,"sort_rank":380,"kind_detail":"primary","kind":"major_road","source":"openstreetmap.org","min_zoom":8.0,"bus_shield_text":"295","shield_text":"51","ref":"B51"},"arcs":[278]},{"type":"MultiLineString","properties":{"kind":"major_road","network":null,"sort_rank":380,"kind_detail":"primary","source":"openstreetmap.org","min_zoom":8.0,"landuse_kind":"urban_area","shield_text":"82","ref":"82"},"arcs":[[279],[280]]},{"type":"MultiLineString","properties":{"source":"openstreetmap.org","kind":"major_road","sort_rank":380,"kind_detail":"primary","ref":"834","min_zoom":8.0},"arcs":[[281],[282],[283],[284],[285],[286]]},{"type":"MultiLineString","properties":{"bus_network":null,"network":null,"sort_rank":380,"kind_detail":"primary","kind":"major_road","source":"openstreetmap.org","min_zoom":8.0,"bus_shield_text":"5R","shield_text":"82","landuse_kind":"urban_area","ref":"82"},"arcs":[[287],[288],[289],[290]]},{"type":"MultiLineString","properties":{"kind":"highway","network":"e-road","sort_rank":383,"landuse_kind":"urban_area","source":"openstreetmap.org","min_zoom":8.0,"all_networks":["e-road","e-road","e-road",null],"kind_detail":"motorway","shield_text":"60","ref":"M1","all_shield_texts":["60","65","75","1"]},"arcs":[[291],[292],[293],[294]]},{"type":"LineString","properties":{"kind":"path","sort_rank":354,"landuse_kind":"urban_area","is_bicycle_related":true,"bicycle_shield_text":"019","bicycle_network":"ncn","source":"openstreetmap.org","min_zoom":8.0,"kind_detail":"track"},"arcs":[295]},{"type":"MultiLineString","properties":{"kind":"major_road","network":"e-road","sort_rank":380,"kind_detail":"primary","source":"openstreetmap.org","min_zoom":8.0,"shield_text":"65","ref":"86"},"arcs":[[296],[297],[298],[299],[300],[301],[302],[303],[304],[305],[306],[307],[308],[309]]},{"type":"LineString","properties":{"bus_network":null,"network":null,"sort_rank":380,"kind_detail":"primary","kind":"major_road","source":"openstreetmap.org","min_zoom":8.0,"bus_shield_text":"17B","shield_text":"1","landuse_kind":"urban_area","ref":"1"},"arcs":[310]},{"type":"MultiLineString","properties":{"bus_network":"local","network":null,"sort_rank":380,"kind_detail":"primary","kind":"major_road","source":"openstreetmap.org","min_zoom":8.0,"bus_shield_text":"2T","shield_text":"1","ref":"1"},"arcs":[[311],[312]]},{"type":"MultiLineString","properties":{"bus_network":"local","network":null,"sort_rank":380,"kind_detail":"primary","kind":"major_road","source":"openstreetmap.org","min_zoom":8.0,"bus_shield_text":"3","shield_text":"1","landuse_kind":"residential","ref":"1"},"arcs":[[313],[314],[315],[316]]},{"type":"MultiLineString","properties":{"bus_network":null,"network":null,"sort_rank":380,"kind_detail":"primary","kind":"major_road","source":"openstreetmap.org","min_zoom":8.0,"bus_shield_text":"2B","shield_text":"1","landuse_kind":"urban_area","ref":"1"},"arcs":[[317],[318]]},{"type":"LineString","properties":{"bus_network":"local","name:sk":"Al\u017ebetin most","min_zoom":8.0,"bus_shield_text":"2T","name:de":"Elisabethbr\u00fccke","id":323918189,"kind":"major_road","network":"hu:regional","sort_rank":380,"landuse_kind":"residential","is_bicycle_related":true,"bicycle_network":"lcn","source":"openstreetmap.org","kind_detail":"primary","shield_text":"13","ref":"13"},"arcs":[319]},{"type":"MultiLineString","properties":{"source":"openstreetmap.org","kind":"major_road","landuse_kind":"residential","sort_rank":380,"kind_detail":"primary","ref":"832","min_zoom":8.0},"arcs":[[320],[321],[322]]},{"type":"MultiLineString","properties":{"bus_network":null,"network":null,"sort_rank":380,"kind_detail":"primary","kind":"major_road","source":"openstreetmap.org","min_zoom":8.0,"bus_shield_text":"3K","shield_text":"1","landuse_kind":"residential","ref":"1"},"arcs":[[323],[324],[325],[326]]},{"type":"MultiLineString","properties":{"kind":"highway","network":"e-road","sort_rank":383,"kind_detail":"motorway","source":"openstreetmap.org","min_zoom":8.0,"all_networks":["e-road","e-road",null],"shield_text":"60","ref":"M1","all_shield_texts":["60","75","1"]},"arcs":[[327],[328],[329],[330],[331],[332],[333],[334],[335],[336]]},{"type":"LineString","properties":{"kind":"major_road","network":"sk:regional","sort_rank":380,"kind_detail":"primary","bus_network":"MHD Kom\u00e1rno","source":"openstreetmap.org","min_zoom":8.0,"bus_shield_text":"8","shield_text":"64","landuse_kind":"urban_area","ref":"63;64","id":326019958},"arcs":[337]},{"type":"MultiLineString","properties":{"bus_network":"local","network":null,"sort_rank":380,"kind_detail":"primary","kind":"major_road","source":"openstreetmap.org","min_zoom":8.0,"bus_shield_text":"21","shield_text":"1","ref":"1"},"arcs":[[338],[339]]},{"type":"MultiLineString","properties":{"kind":"major_road","network":null,"sort_rank":380,"kind_detail":"primary","source":"openstreetmap.org","min_zoom":8.0,"shield_text":"51","ref":"B51"},"arcs":[[340],[341],[342],[343]]},{"type":"LineString","properties":{"kind":"major_road","sort_rank":379,"kind_detail":"secondary","is_bicycle_related":true,"bicycle_shield_text":"81.A","bicycle_network":"ncn","source":"openstreetmap.org","min_zoom":8.0,"ref":"7302","id":384562061},"arcs":[344]},{"type":"MultiLineString","properties":{"kind":"major_road","network":null,"sort_rank":380,"kind_detail":"primary","source":"openstreetmap.org","min_zoom":8.0,"shield_text":"84","ref":"84"},"arcs":[[345],[346],[347],[348],[349],[350],[351],[352],[353],[354],[355],[356],[357],[358],[359],[360],[361]]},{"type":"MultiLineString","properties":{"bus_network":"VOR","network":null,"sort_rank":380,"kind_detail":"primary","is_bicycle_related":true,"kind":"major_road","bicycle_shield_text":"R1","bicycle_network":"rcn","source":"openstreetmap.org","min_zoom":8.0,"bus_shield_text":"293","shield_text":"51","ref":"B51"},"arcs":[[362],[363]]},{"type":"LineString","properties":{"bus_network":"VOR","network":null,"sort_rank":380,"kind_detail":"primary","is_bicycle_related":true,"kind":"major_road","bicycle_shield_text":"R1","bicycle_network":"rcn","source":"openstreetmap.org","min_zoom":8.0,"bus_shield_text":"292","shield_text":"51","landuse_kind":"urban_area","ref":"B51","id":29186341},"arcs":[364]},{"type":"MultiLineString","properties":{"kind":"major_road","network":"e-road","sort_rank":380,"kind_detail":"primary","source":"openstreetmap.org","min_zoom":8.0,"shield_text":"575","ref":"14"},"arcs":[[365],[366],[367]]},{"type":"LineString","properties":{"kind":"major_road","network":null,"sort_rank":380,"kind_detail":"primary","is_bicycle_related":true,"bicycle_shield_text":"EV6","bicycle_network":"icn","source":"openstreetmap.org","min_zoom":8.0,"landuse_kind":"urban_area","shield_text":"1","ref":"1"},"arcs":[368]},{"type":"LineString","properties":{"source":"openstreetmap.org","kind":"major_road","sort_rank":380,"kind_detail":"primary","ref":"83","min_zoom":8.0,"id":407555959},"arcs":[369]},{"type":"MultiLineString","properties":{"bus_network":null,"network":"e-road","sort_rank":380,"landuse_kind":"urban_area","kind":"major_road","source":"openstreetmap.org","min_zoom":8.0,"bus_shield_text":"9A","shield_text":"575","kind_detail":"primary","ref":"81"},"arcs":[[370],[371]]},{"type":"LineString","properties":{"bus_network":"local","name:sk":"Al\u017ebetin most","min_zoom":8.0,"bus_shield_text":"2T","name:de":"Elisabethbr\u00fccke","id":323918189,"kind":"major_road","network":"hu:regional","sort_rank":380,"landuse_kind":"urban_area","is_bicycle_related":true,"bicycle_network":"lcn","source":"openstreetmap.org","kind_detail":"primary","shield_text":"13","ref":"13"},"arcs":[372]},{"type":"MultiLineString","properties":{"source":"openstreetmap.org","kind":"major_road","sort_rank":380,"kind_detail":"primary","ref":"85","min_zoom":8.0},"arcs":[[373],[374],[375],[376],[377],[378],[379],[380]]},{"type":"LineString","properties":{"kind":"major_road","sort_rank":379,"kind_detail":"secondary","is_bicycle_related":true,"bicycle_shield_text":"EV6","bicycle_network":"icn","source":"openstreetmap.org","min_zoom":8.0,"ref":"8152"},"arcs":[381]},{"type":"MultiLineString","properties":{"source":"openstreetmap.org","kind":"major_road","landuse_kind":"urban_area","sort_rank":380,"kind_detail":"primary","ref":"813","min_zoom":8.0},"arcs":[[382],[383],[384],[385],[386],[387],[388],[389],[390],[391],[392],[393],[394],[395],[396],[397],[398],[399],[400],[401],[402],[403],[404],[405],[406],[407],[408],[409],[410],[411],[412],[413],[414],[415],[416],[417],[418],[419],[420],[421],[422],[423],[424],[425]]},{"type":"LineString","properties":{"kind":"minor_road","sort_rank":358,"kind_detail":"service","is_bicycle_related":true,"bicycle_shield_text":"EV13","bicycle_network":"icn","source":"openstreetmap.org","min_zoom":8.0},"arcs":[426]},{"type":"LineString","properties":{"kind":"major_road","network":null,"sort_rank":380,"kind_detail":"primary","source":"openstreetmap.org","min_zoom":8.0,"landuse_kind":"urban_area","shield_text":"7429","ref":"86"},"arcs":[427]},{"type":"LineString","properties":{"kind":"major_road","network":null,"sort_rank":380,"kind_detail":"primary","source":"openstreetmap.org","min_zoom":8.0,"shield_text":"101","ref":"101"},"arcs":[428]},{"type":"LineString","properties":{"kind":"major_road","sort_rank":380,"kind_detail":"primary","bus_network":"Gy\u0151r-Ikr\u00e9ny-R\u00e1bapatona","source":"openstreetmap.org","min_zoom":8.0,"bus_shield_text":"7055","ref":"85","id":170982307},"arcs":[429]},{"type":"MultiLineString","properties":{"kind":"major_road","network":null,"sort_rank":380,"kind_detail":"primary","source":"openstreetmap.org","min_zoom":8.0,"shield_text":"7429","ref":"86"},"arcs":[[430],[431],[432]]},{"type":"MultiLineString","properties":{"kind":"major_road","network":null,"sort_rank":380,"kind_detail":"primary","source":"openstreetmap.org","min_zoom":8.0,"shield_text":"71","ref":"71"},"arcs":[[433],[434],[435],[436],[437]]},{"type":"MultiLineString","properties":{"kind":"major_road","network":"e-road","sort_rank":380,"kind_detail":"primary","source":"openstreetmap.org","min_zoom":8.0,"shield_text":"66","ref":"8"},"arcs":[[438],[439],[440],[441],[442],[443],[444],[445],[446],[447],[448],[449],[450],[451],[452],[453],[454],[455],[456],[457],[458],[459],[460],[461],[462],[463],[464],[465],[466],[467]]},{"type":"MultiLineString","properties":{"sort_rank":381,"source":"openstreetmap.org","min_zoom":8.0,"kind":"major_road","kind_detail":"trunk"},"arcs":[[468],[469]]},{"type":"LineString","properties":{"bus_network":"local","network":"sk:regional","sort_rank":380,"kind_detail":"primary","is_bicycle_related":true,"kind":"major_road","bicycle_shield_text":"EV6","bicycle_network":"icn","source":"openstreetmap.org","min_zoom":8.0,"bus_shield_text":"228","shield_text":"64","landuse_kind":"residential","ref":"64","id":4315764},"arcs":[470]},{"type":"LineString","properties":{"kind":"minor_road","sort_rank":358,"landuse_kind":"urban_area","is_bicycle_related":true,"bicycle_shield_text":"019","bicycle_network":"ncn","source":"openstreetmap.org","min_zoom":8.0,"kind_detail":"service"},"arcs":[471]},{"type":"LineString","properties":{"kind":"major_road","network":"e-road","sort_rank":380,"kind_detail":"primary","source":"openstreetmap.org","min_zoom":8.0,"shield_text":"66","ref":"8;84","id":4293415},"arcs":[472]},{"type":"LineString","properties":{"bus_network":"local","network":"hu:regional","sort_rank":380,"kind_detail":"primary","is_bicycle_related":true,"kind":"major_road","bicycle_network":"lcn","source":"openstreetmap.org","min_zoom":8.0,"bus_shield_text":"2T","shield_text":"13","landuse_kind":"residential","ref":"13"},"arcs":[473]},{"type":"LineString","properties":{"kind":"major_road","network":"e-road","sort_rank":380,"kind_detail":"primary","bus_network":null,"source":"openstreetmap.org","min_zoom":8.0,"bus_shield_text":"9A","shield_text":"575","landuse_kind":"urban_area","id":288154665},"arcs":[474]},{"type":"MultiLineString","properties":{"kind":"major_road","network":"e-road","sort_rank":380,"kind_detail":"primary","source":"openstreetmap.org","min_zoom":8.0,"landuse_kind":"urban_area","shield_text":"575","ref":"14"},"arcs":[[475],[476],[477],[478],[479],[480],[481],[482],[483]]},{"type":"MultiLineString","properties":{"source":"openstreetmap.org","kind":"major_road","sort_rank":380,"kind_detail":"primary","ref":"832","min_zoom":8.0},"arcs":[[484],[485],[486],[487],[488]]},{"type":"MultiLineString","properties":{"kind":"minor_road","sort_rank":360,"kind_detail":"unclassified","is_bicycle_related":true,"bicycle_shield_text":"EV13","bicycle_network":"icn","source":"openstreetmap.org","min_zoom":8.0},"arcs":[[489],[490],[491],[492]]},{"type":"MultiLineString","properties":{"kind":"major_road","network":null,"sort_rank":380,"kind_detail":"primary","bus_network":"rwn","source":"openstreetmap.org","min_zoom":8.0,"bus_shield_text":"1670","shield_text":"84","ref":"84"},"arcs":[[493],[494]]},{"type":"MultiLineString","properties":{"kind":"major_road","network":null,"sort_rank":380,"kind_detail":"primary","source":"openstreetmap.org","min_zoom":8.0,"landuse_kind":"residential","shield_text":"82","ref":"82"},"arcs":[[495],[496]]},{"type":"MultiLineString","properties":{"kind":"highway","network":"e-road","sort_rank":383,"kind_detail":"motorway","source":"openstreetmap.org","min_zoom":8.0,"all_networks":["e-road","e-road","e-road",null],"shield_text":"60","ref":"M1","all_shield_texts":["60","65","75","1"]},"arcs":[[497],[498],[499],[500]]},{"type":"MultiLineString","properties":{"kind":"major_road","network":"hu:regional","sort_rank":380,"kind_detail":"primary","source":"openstreetmap.org","min_zoom":8.0,"shield_text":"13","ref":"13"},"arcs":[[501],[502]]},{"type":"MultiLineString","properties":{"bus_network":"local","network":null,"sort_rank":380,"kind_detail":"primary","kind":"major_road","source":"openstreetmap.org","min_zoom":8.0,"bus_shield_text":"2T","shield_text":"1","landuse_kind":"urban_area","ref":"1"},"arcs":[[503],[504]]},{"type":"LineString","properties":{"kind":"major_road","sort_rank":380,"kind_detail":"primary","bus_network":"VOR","source":"openstreetmap.org","min_zoom":8.0,"bus_shield_text":"296","landuse_kind":"urban_area","ref":"B51","id":249258714},"arcs":[505]},{"type":"MultiLineString","properties":{"bus_network":null,"sort_rank":380,"kind_detail":"primary","kind":"major_road","source":"openstreetmap.org","min_zoom":8.0,"bus_shield_text":"12","landuse_kind":"urban_area","ref":"813"},"arcs":[[506],[507]]},{"type":"MultiLineString","properties":{"sort_rank":380,"kind_detail":"primary","min_zoom":8.0,"kind":"major_road","source":"openstreetmap.org"},"arcs":[[508],[509],[510],[511],[512]]},{"type":"LineString","properties":{"bus_network":"MHD Kom\u00e1rno","sort_rank":380,"kind_detail":"primary","kind":"major_road","source":"openstreetmap.org","min_zoom":8.0,"bus_shield_text":"8","ref":"63"},"arcs":[513]},{"type":"MultiLineString","properties":{"bus_network":"local","network":null,"sort_rank":380,"kind_detail":"primary","kind":"major_road","source":"openstreetmap.org","min_zoom":8.0,"bus_shield_text":"2T","shield_text":"1","landuse_kind":"residential","ref":"1"},"arcs":[[514],[515],[516],[517],[518]]},{"type":"LineString","properties":{"kind":"major_road","network":null,"sort_rank":380,"kind_detail":"primary","bus_network":null,"source":"openstreetmap.org","min_zoom":8.0,"bus_shield_text":"1A","shield_text":"821","landuse_kind":"urban_area","ref":"821","id":102734950},"arcs":[519]},{"type":"LineString","properties":{"kind":"major_road","network":null,"sort_rank":380,"kind_detail":"primary","bus_network":null,"source":"openstreetmap.org","min_zoom":8.0,"bus_shield_text":"4","shield_text":"82","ref":"82","id":219379745},"arcs":[520]},{"type":"MultiLineString","properties":{"bus_network":null,"network":"e-road","sort_rank":380,"kind_detail":"primary","kind":"major_road","source":"openstreetmap.org","min_zoom":8.0,"bus_shield_text":"17B","shield_text":"575","landuse_kind":"urban_area","ref":"81"},"arcs":[[521],[522]]},{"type":"LineString","properties":{"kind":"minor_road","sort_rank":360,"kind_detail":"residential","is_bicycle_related":true,"bicycle_shield_text":"EV6","cycleway":"shared_lane","source":"openstreetmap.org","min_zoom":8.0,"landuse_kind":"urban_area","bicycle_network":"icn"},"arcs":[523]},{"type":"MultiLineString","properties":{"kind":"major_road","network":null,"sort_rank":380,"kind_detail":"primary","source":"openstreetmap.org","min_zoom":8.0,"landuse_kind":"urban_area","shield_text":"85","ref":"85"},"arcs":[[524],[525],[526],[527]]},{"type":"MultiLineString","properties":{"bus_network":"MHD Kom\u00e1rno","network":"sk:regional","sort_rank":380,"kind_detail":"primary","bus_shield_text":"2","kind":"major_road","source":"openstreetmap.org","min_zoom":8.0,"landuse_kind":"residential","shield_text":"64","name:hu":"Kert\u00e9sz utca","ref":"64"},"arcs":[[528],[529]]},{"type":"LineString","properties":{"kind":"major_road","sort_rank":377,"kind_detail":"tertiary","is_bicycle_related":true,"bicycle_shield_text":"EV13","bicycle_network":"icn","source":"openstreetmap.org","min_zoom":8.0,"ref":"L206","id":46046369},"arcs":[530]},{"type":"LineString","properties":{"bus_network":"local","network":null,"sort_rank":380,"kind_detail":"primary","kind":"major_road","source":"openstreetmap.org","min_zoom":8.0,"bus_shield_text":"8659","shield_text":"1","ref":"1"},"arcs":[531]},{"type":"LineString","properties":{"kind":"major_road","sort_rank":380,"landuse_kind":"residential","source":"openstreetmap.org","min_zoom":8.0,"kind_detail":"primary","ref":"85","id":294414305},"arcs":[532]},{"type":"LineString","properties":{"bus_network":"VOR","network":null,"sort_rank":380,"kind_detail":"primary","is_bicycle_related":true,"kind":"major_road","bicycle_shield_text":"B29","cycleway":"lane","source":"openstreetmap.org","min_zoom":8.0,"bus_shield_text":"296","shield_text":"10","bicycle_network":"rcn","ref":"B10"},"arcs":[533]},{"type":"MultiLineString","properties":{"bus_network":null,"network":"e-road","sort_rank":380,"kind_detail":"primary","kind":"major_road","source":"openstreetmap.org","min_zoom":8.0,"bus_shield_text":"1Y","shield_text":"66","ref":"8"},"arcs":[[534],[535],[536]]},{"type":"MultiLineString","properties":{"kind":"major_road","sort_rank":377,"kind_detail":"tertiary","is_bicycle_related":true,"bicycle_shield_text":"EV13","bicycle_network":"icn","source":"openstreetmap.org","min_zoom":8.0},"arcs":[[537],[538]]},{"type":"LineString","properties":{"bus_network":"VOR","network":null,"sort_rank":380,"kind_detail":"primary","is_bicycle_related":true,"kind":"major_road","bicycle_shield_text":"EV13","bicycle_network":"icn","source":"openstreetmap.org","min_zoom":8.0,"bus_shield_text":"298","shield_text":"10","ref":"B10","id":511806692},"arcs":[539]},{"type":"LineString","properties":{"kind":"major_road","network":null,"sort_rank":380,"kind_detail":"primary","source":"openstreetmap.org","min_zoom":8.0,"landuse_kind":"residential","shield_text":"1","ref":"1"},"arcs":[540]},{"type":"MultiLineString","properties":{"bus_network":"MHD Kom\u00e1rno","network":"sk:regional","sort_rank":380,"kind_detail":"primary","kind":"major_road","source":"openstreetmap.org","min_zoom":8.0,"bus_shield_text":"3","shield_text":"64","landuse_kind":"residential","ref":"63;64"},"arcs":[[541],[542],[543]]},{"type":"MultiLineString","properties":{"kind":"major_road","network":null,"sort_rank":380,"kind_detail":"primary","is_bicycle_related":true,"bicycle_shield_text":"B26","bicycle_network":"rcn","source":"openstreetmap.org","min_zoom":8.0,"shield_text":"10","cycleway":"lane","ref":"B10"},"arcs":[[544],[545],[546]]},{"type":"LineString","properties":{"kind":"major_road","network":"e-road","sort_rank":380,"kind_detail":"primary","bus_network":"local","source":"openstreetmap.org","min_zoom":8.0,"bus_shield_text":"CITY","shield_text":"575","landuse_kind":"urban_area","ref":"14","id":46420199},"arcs":[547]},{"type":"MultiLineString","properties":{"bus_network":"VOR","network":null,"sort_rank":380,"kind_detail":"primary","kind":"major_road","source":"openstreetmap.org","min_zoom":8.0,"bus_shield_text":"292","shield_text":"51","ref":"B51"},"arcs":[[548],[549],[550],[551],[552],[553],[554]]},{"type":"LineString","properties":{"kind":"major_road","network":null,"sort_rank":380,"kind_detail":"primary","source":"openstreetmap.org","min_zoom":8.0,"shield_text":"63","ref":"63"},"arcs":[555]},{"type":"MultiLineString","properties":{"source":"openstreetmap.org","kind":"major_road","landuse_kind":"urban_area","sort_rank":380,"kind_detail":"primary","min_zoom":8.0},"arcs":[[556],[557]]},{"type":"MultiLineString","properties":{"bus_network":"VOR","network":null,"sort_rank":380,"kind_detail":"primary","kind":"major_road","source":"openstreetmap.org","min_zoom":8.0,"bus_shield_text":"293","shield_text":"51","ref":"B51"},"arcs":[[558],[559],[560],[561]]},{"type":"LineString","properties":{"kind":"minor_road","sort_rank":360,"kind_detail":"residential","is_bicycle_related":true,"bicycle_shield_text":"EV6","bicycle_network":"icn","source":"openstreetmap.org","min_zoom":8.0,"landuse_kind":"national_park"},"arcs":[562]},{"type":"MultiLineString","properties":{"source":"openstreetmap.org","bus_network":"VOR","bus_shield_text":"296","sort_rank":380,"kind_detail":"primary","min_zoom":8.0,"kind":"major_road"},"arcs":[[563],[564],[565]]},{"type":"LineString","properties":{"kind":"major_road","network":null,"sort_rank":380,"kind_detail":"primary","source":"openstreetmap.org","min_zoom":8.0,"landuse_kind":"urban_area","shield_text":"14","ref":"14"},"arcs":[566]},{"type":"MultiLineString","properties":{"source":"openstreetmap.org","kind":"major_road","landuse_kind":"urban_area","sort_rank":380,"kind_detail":"primary","ref":"834","min_zoom":8.0},"arcs":[[567],[568],[569]]},{"type":"LineString","properties":{"kind":"major_road","sort_rank":377,"kind_detail":"tertiary","is_bicycle_related":true,"bicycle_shield_text":"EV13","bicycle_network":"icn","source":"openstreetmap.org","min_zoom":8.0,"ref":"L211"},"arcs":[570]},{"type":"MultiLineString","properties":{"bus_network":null,"sort_rank":380,"kind_detail":"primary","kind":"major_road","source":"openstreetmap.org","min_zoom":8.0,"bus_shield_text":"5R","landuse_kind":"urban_area"},"arcs":[[571],[572],[573],[574]]},{"type":"LineString","properties":{"kind":"major_road","network":"sk:regional","sort_rank":380,"kind_detail":"primary","is_bicycle_related":true,"source":"openstreetmap.org","min_zoom":8.0,"landuse_kind":"urban_area","shield_text":"64","ref":"63;64","id":8396913},"arcs":[575]},{"type":"LineString","properties":{"kind":"path","sort_rank":354,"kind_detail":"cycleway","is_bicycle_related":true,"bicycle_shield_text":"81.A","bicycle_network":"ncn","source":"openstreetmap.org","min_zoom":8.0,"landuse_kind":"residential","id":233088613},"arcs":[576]},{"type":"LineString","properties":{"kind":"major_road","sort_rank":380,"kind_detail":"primary","is_bicycle_related":true,"source":"openstreetmap.org","min_zoom":8.0,"landuse_kind":"urban_area","ref":"63;64","id":323906712},"arcs":[577]},{"type":"MultiLineString","properties":{"kind":"path","sort_rank":354,"landuse_kind":"residential","is_bicycle_related":true,"bicycle_shield_text":"EV6","bicycle_network":"icn","source":"openstreetmap.org","min_zoom":8.0,"kind_detail":"cycleway"},"arcs":[[578],[579],[580],[581]]},{"type":"LineString","properties":{"kind":"major_road","network":null,"sort_rank":380,"kind_detail":"primary","bus_network":null,"source":"openstreetmap.org","min_zoom":8.0,"bus_shield_text":"11Y","shield_text":"821","landuse_kind":"urban_area","ref":"821","id":26382788},"arcs":[582]},{"type":"MultiLineString","properties":{"bus_network":"VOR","network":null,"sort_rank":380,"kind_detail":"primary","is_bicycle_related":true,"kind":"major_road","bicycle_shield_text":"B26","cycleway":"lane","source":"openstreetmap.org","min_zoom":8.0,"bus_shield_text":"298","shield_text":"10","bicycle_network":"rcn","ref":"B10"},"arcs":[[583],[584],[585]]},{"type":"MultiLineString","properties":{"bus_network":"VOR","network":null,"sort_rank":380,"kind_detail":"primary","kind":"major_road","source":"openstreetmap.org","min_zoom":8.0,"bus_shield_text":"296","shield_text":"10","ref":"B10"},"arcs":[[586],[587]]},{"type":"MultiLineString","properties":{"bus_network":"VOR","network":null,"sort_rank":380,"kind_detail":"primary","kind":"major_road","source":"openstreetmap.org","min_zoom":8.0,"bus_shield_text":"290","shield_text":"51","landuse_kind":"urban_area","ref":"B51"},"arcs":[[588],[589],[590]]},{"type":"MultiLineString","properties":{"kind":"path","sort_rank":354,"landuse_kind":"urban_area","is_bicycle_related":true,"bicycle_shield_text":"EV6","bicycle_network":"icn","source":"openstreetmap.org","min_zoom":8.0,"kind_detail":"cycleway"},"arcs":[[591],[592],[593],[594],[595],[596],[597],[598],[599],[600],[601],[602],[603],[604],[605],[606],[607],[608],[609],[610],[611],[612],[613],[614],[615],[616],[617],[618]]},{"type":"LineString","properties":{"kind":"major_road","network":null,"sort_rank":380,"kind_detail":"primary","is_bicycle_related":true,"bicycle_shield_text":"EV6","bicycle_network":"icn","source":"openstreetmap.org","min_zoom":8.0,"shield_text":"1","ref":"1"},"arcs":[619]},{"type":"LineString","properties":{"bus_network":"local","bicycle_shield_text":"EV6","min_zoom":8.0,"bus_shield_text":"228","name:hu":"Erzs\u00e9bet h\u00edd","id":238081999,"kind":"major_road","network":"sk:regional","sort_rank":380,"kind_detail":"primary","is_bicycle_related":true,"name:de":"Elisabethbr\u00fccke","source":"openstreetmap.org","landuse_kind":"urban_area","shield_text":"64","ref":"64","bicycle_network":"icn"},"arcs":[620]},{"type":"LineString","properties":{"bus_network":"VOR","network":null,"sort_rank":380,"kind_detail":"primary","is_bicycle_related":true,"kind":"major_road","bicycle_shield_text":"R1","bicycle_network":"rcn","source":"openstreetmap.org","min_zoom":8.0,"bus_shield_text":"292","shield_text":"51","ref":"B51","id":334629449},"arcs":[621]},{"type":"LineString","properties":{"bus_network":"MHD Kom\u00e1rno","network":"sk:regional","sort_rank":380,"kind_detail":"primary","is_bicycle_related":true,"kind":"major_road","bicycle_shield_text":"EV6","bicycle_network":"icn","source":"openstreetmap.org","min_zoom":8.0,"bus_shield_text":"2","shield_text":"64","landuse_kind":"urban_area","ref":"63;64"},"arcs":[622]},{"type":"MultiLineString","properties":{"bus_network":null,"network":null,"sort_rank":380,"kind_detail":"primary","kind":"major_road","source":"openstreetmap.org","min_zoom":8.0,"bus_shield_text":"41","shield_text":"1","landuse_kind":"urban_area","ref":"1"},"arcs":[[623],[624]]},{"type":"MultiLineString","properties":{"source":"openstreetmap.org","kind":"major_road","sort_rank":380,"kind_detail":"primary","ref":"813","min_zoom":8.0},"arcs":[[625],[626],[627],[628],[629],[630],[631],[632],[633],[634]]},{"type":"LineString","properties":{"cycleway_right":"lane","sort_rank":379,"kind_detail":"secondary","is_bicycle_related":true,"kind":"major_road","bicycle_shield_text":"EV6","cycleway":"yes","source":"openstreetmap.org","min_zoom":8.0,"bicycle_network":"icn","ref":"1401","id":349580478},"arcs":[635]},{"type":"LineString","properties":{"bus_network":null,"network":"e-road","sort_rank":380,"kind_detail":"primary","kind":"major_road","source":"openstreetmap.org","min_zoom":8.0,"bus_shield_text":"6","shield_text":"575","landuse_kind":"urban_area","ref":"14"},"arcs":[636]},{"type":"LineString","properties":{"kind":"major_road","sort_rank":380,"kind_detail":"primary","bus_network":null,"source":"openstreetmap.org","min_zoom":8.0,"bus_shield_text":"37T","landuse_kind":"urban_area","ref":"83","id":267297511},"arcs":[637]},{"type":"MultiLineString","properties":{"bus_network":null,"network":"e-road","sort_rank":380,"landuse_kind":"urban_area","kind":"major_road","source":"openstreetmap.org","min_zoom":8.0,"bus_shield_text":"7","shield_text":"575","kind_detail":"primary","ref":"81"},"arcs":[[638],[639],[640]]},{"type":"MultiLineString","properties":{"kind":"path","sort_rank":354,"kind_detail":"track","is_bicycle_related":true,"bicycle_shield_text":"EV13","bicycle_network":"icn","source":"openstreetmap.org","min_zoom":8.0,"landuse_kind":"park"},"arcs":[[641],[642]]},{"type":"LineString","properties":{"kind":"major_road","network":null,"sort_rank":380,"kind_detail":"primary","source":"openstreetmap.org","min_zoom":8.0,"landuse_kind":"residential","shield_text":"71","ref":"71","id":338585473},"arcs":[643]},{"type":"MultiLineString","properties":{"kind":"path","sort_rank":354,"kind_detail":"path","is_bicycle_related":true,"bicycle_shield_text":"EV6","bicycle_network":"icn","source":"openstreetmap.org","min_zoom":8.0},"arcs":[[644],[645],[646],[647],[648],[649],[650]]},{"type":"MultiLineString","properties":{"bus_network":"local","network":null,"sort_rank":380,"kind_detail":"primary","kind":"major_road","source":"openstreetmap.org","min_zoom":8.0,"bus_shield_text":"8659","shield_text":"1","landuse_kind":"urban_area","ref":"1"},"arcs":[[651],[652]]},{"type":"MultiLineString","properties":{"kind":"minor_road","sort_rank":360,"kind_detail":"unclassified","is_bicycle_related":true,"bicycle_shield_text":"EV6","bicycle_network":"icn","source":"openstreetmap.org","min_zoom":8.0},"arcs":[[653],[654],[655]]},{"type":"LineString","properties":{"kind":"path","sort_rank":354,"kind_detail":"track","is_bicycle_related":true,"bicycle_shield_text":"019","bicycle_network":"ncn","source":"openstreetmap.org","min_zoom":8.0},"arcs":[656]},{"type":"LineString","properties":{"kind":"major_road","sort_rank":377,"kind_detail":"tertiary","is_bicycle_related":true,"bicycle_shield_text":"EV13","cycleway":"track","source":"openstreetmap.org","min_zoom":8.0,"bicycle_network":"icn","ref":"L206","id":29314516},"arcs":[657]},{"type":"LineString","properties":{"kind":"major_road","network":null,"sort_rank":380,"kind_detail":"primary","source":"openstreetmap.org","min_zoom":8.0,"landuse_kind":"urban_area","shield_text":"84","id":265233301},"arcs":[658]},{"type":"LineString","properties":{"bus_network":"Gy\u0151r-Ikr\u00e9ny-R\u00e1bapatona","network":null,"sort_rank":380,"kind_detail":"primary","kind":"major_road","source":"openstreetmap.org","min_zoom":8.0,"bus_shield_text":"7055","shield_text":"1","landuse_kind":"urban_area","ref":"1"},"arcs":[659]},{"type":"LineString","properties":{"kind":"major_road","network":null,"sort_rank":380,"kind_detail":"primary","source":"openstreetmap.org","min_zoom":8.0,"landuse_kind":"urban_area","shield_text":"1","id":285948561},"arcs":[660]},{"type":"LineString","properties":{"kind":"major_road","network":"e-road","sort_rank":381,"landuse_kind":"urban_area","source":"openstreetmap.org","min_zoom":8.0,"kind_detail":"trunk","shield_text":"65","ref":"M15"},"arcs":[661]},{"type":"LineString","properties":{"kind":"major_road","sort_rank":380,"kind_detail":"primary","bus_network":"MHD Kom\u00e1rno","source":"openstreetmap.org","min_zoom":8.0,"bus_shield_text":"8","landuse_kind":"residential","ref":"63","id":326019921},"arcs":[662]},{"type":"LineString","properties":{"bus_network":"VOR","network":null,"sort_rank":380,"kind_detail":"primary","is_bicycle_related":true,"kind":"major_road","bicycle_shield_text":"B26","cycleway":"lane","source":"openstreetmap.org","min_zoom":8.0,"bus_shield_text":"296","shield_text":"10","bicycle_network":"rcn","ref":"B10"},"arcs":[663]},{"type":"LineString","properties":{"kind":"major_road","sort_rank":380,"kind_detail":"primary","bus_network":null,"source":"openstreetmap.org","min_zoom":8.0,"bus_shield_text":"5R","landuse_kind":"residential","ref":"150","id":61884433},"arcs":[664]},{"type":"LineString","properties":{"kind":"major_road","sort_rank":380,"kind_detail":"primary","bus_network":"VOR","source":"openstreetmap.org","min_zoom":8.0,"bus_shield_text":"292","id":249221975},"arcs":[665]},{"type":"LineString","properties":{"kind":"major_road","network":null,"sort_rank":380,"kind_detail":"primary","source":"openstreetmap.org","min_zoom":8.0,"landuse_kind":"urban_area","shield_text":"63","ref":"63"},"arcs":[666]},{"type":"MultiLineString","properties":{"kind":"major_road","network":null,"sort_rank":380,"kind_detail":"primary","source":"openstreetmap.org","min_zoom":8.0,"landuse_kind":"urban_area","shield_text":"88","ref":"88"},"arcs":[[667],[668],[669]]},{"type":"LineString","properties":{"kind":"major_road","network":null,"sort_rank":380,"kind_detail":"primary","source":"openstreetmap.org","min_zoom":8.0,"shield_text":"150","ref":"150"},"arcs":[670]},{"type":"LineString","properties":{"kind":"major_road","sort_rank":380,"kind_detail":"primary","bus_network":null,"source":"openstreetmap.org","min_zoom":8.0,"bus_shield_text":"22B","landuse_kind":"urban_area","id":294990999},"arcs":[671]},{"type":"LineString","properties":{"kind":"major_road","sort_rank":380,"kind_detail":"primary","bus_network":"MHD Kom\u00e1rno","source":"openstreetmap.org","min_zoom":8.0,"bus_shield_text":"8","landuse_kind":"residential","name:hu":"Megyercsi utca","ref":"63","id":237996145},"arcs":[672]},{"type":"LineString","properties":{"kind":"major_road","sort_rank":380,"kind_detail":"primary","bus_network":null,"source":"openstreetmap.org","min_zoom":8.0,"bus_shield_text":"5B","landuse_kind":"urban_area","ref":"82","id":286504071},"arcs":[673]},{"type":"MultiLineString","properties":{"kind":"major_road","sort_rank":377,"kind_detail":"tertiary","is_bicycle_related":true,"bicycle_shield_text":"EV6","bicycle_network":"icn","source":"openstreetmap.org","min_zoom":8.0,"ref":"1422"},"arcs":[[674],[675],[676],[677]]},{"type":"LineString","properties":{"kind":"major_road","network":"e-road","sort_rank":380,"kind_detail":"primary","bus_network":null,"source":"openstreetmap.org","min_zoom":8.0,"bus_shield_text":"2B","shield_text":"575","landuse_kind":"urban_area","ref":"14;81","id":522452347},"arcs":[678]},{"type":"MultiLineString","properties":{"bus_network":"VOR","sort_rank":380,"kind_detail":"primary","is_bicycle_related":true,"kind":"major_road","bicycle_shield_text":"B22","bicycle_network":"rcn","source":"openstreetmap.org","min_zoom":8.0,"bus_shield_text":"292","ref":"B51"},"arcs":[[679],[680]]},{"type":"LineString","properties":{"kind":"major_road","network":null,"sort_rank":380,"kind_detail":"primary","source":"openstreetmap.org","min_zoom":8.0,"landuse_kind":"residential","shield_text":"7429","ref":"86"},"arcs":[681]},{"type":"LineString","properties":{"bus_network":"Gy\u0151r-Abda","network":null,"sort_rank":380,"kind_detail":"primary","kind":"major_road","source":"openstreetmap.org","min_zoom":8.0,"bus_shield_text":null,"shield_text":"1","ref":"1"},"arcs":[682]},{"type":"LineString","properties":{"kind":"path","short_name":"Berg Guszt\u00e1v h\u00edd","sort_rank":354,"kind_detail":"track","is_bicycle_related":true,"bicycle_shield_text":"EV13","name:de":"Baron-Guszt\u00e1v-Berg-Br\u00fccke","source":"openstreetmap.org","min_zoom":8.0,"name:hu":"b\u00e1r\u00f3 Berg Guszt\u00e1v h\u00edd","id":224266695,"bicycle_network":"icn"},"arcs":[683]},{"type":"LineString","properties":{"bus_network":"MHD Kom\u00e1rno","sort_rank":380,"kind_detail":"primary","kind":"major_road","source":"openstreetmap.org","min_zoom":8.0,"bus_shield_text":"2","ref":"63"},"arcs":[684]},{"type":"LineString","properties":{"kind":"minor_road","sort_rank":358,"kind_detail":"service","is_bicycle_related":true,"bicycle_shield_text":"81.A","bicycle_network":"ncn","source":"openstreetmap.org","min_zoom":8.0},"arcs":[685]},{"type":"LineString","properties":{"kind":"major_road","network":"e-road","sort_rank":380,"kind_detail":"primary","source":"openstreetmap.org","min_zoom":8.0,"landuse_kind":"urban_area","shield_text":"575","id":288160824},"arcs":[686]},{"type":"LineString","properties":{"kind":"major_road","sort_rank":380,"kind_detail":"primary","bus_network":null,"source":"openstreetmap.org","min_zoom":8.0,"bus_shield_text":"37T","landuse_kind":"urban_area","ref":"82","id":267297515},"arcs":[687]},{"type":"LineString","properties":{"source":"openstreetmap.org","kind":"major_road","sort_rank":380,"kind_detail":"primary","ref":"81","min_zoom":8.0,"id":366805470},"arcs":[688]},{"type":"LineString","properties":{"kind":"major_road","network":null,"sort_rank":380,"kind_detail":"primary","source":"openstreetmap.org","min_zoom":8.0,"landuse_kind":"urban_area","shield_text":"150","ref":"150"},"arcs":[689]},{"type":"MultiLineString","properties":{"source":"openstreetmap.org","kind":"major_road","network":null,"sort_rank":380,"kind_detail":"primary","min_zoom":8.0,"shield_text":"83"},"arcs":[[690],[691]]},{"type":"LineString","properties":{"kind":"major_road","sort_rank":379,"kind_detail":"secondary","is_bicycle_related":true,"bicycle_shield_text":"002","bicycle_network":"ncn","source":"openstreetmap.org","min_zoom":8.0,"ref":"573"},"arcs":[692]},{"type":"MultiLineString","properties":{"bus_network":"VOR","network":null,"sort_rank":380,"kind_detail":"primary","kind":"major_road","source":"openstreetmap.org","min_zoom":8.0,"bus_shield_text":"290","shield_text":"51","ref":"B51"},"arcs":[[693],[694]]},{"type":"LineString","properties":{"bus_network":"VOR","network":null,"sort_rank":380,"kind_detail":"primary","is_bicycle_related":true,"kind":"major_road","cycleway":"lane","source":"openstreetmap.org","min_zoom":8.0,"bus_shield_text":"296","shield_text":"10","ref":"B10"},"arcs":[695]},{"type":"LineString","properties":{"bus_network":null,"network":null,"sort_rank":380,"kind_detail":"primary","kind":"major_road","source":"openstreetmap.org","min_zoom":8.0,"bus_shield_text":"22","shield_text":"73","ref":"73"},"arcs":[696]},{"type":"MultiLineString","properties":{"kind":"major_road","network":"e-road","sort_rank":380,"kind_detail":"primary","source":"openstreetmap.org","min_zoom":8.0,"landuse_kind":"urban_area","shield_text":"575","ref":"63"},"arcs":[[697],[698]]},{"type":"LineString","properties":{"bus_network":"local","name:sk":"Al\u017ebetin most","bicycle_shield_text":"EV6","min_zoom":8.0,"bus_shield_text":"228","name:hu":"Erzs\u00e9bet-h\u00edd","id":27837457,"kind":"major_road","network":"hu:regional","sort_rank":380,"kind_detail":"primary","is_bicycle_related":true,"name:de":"Elisabethbr\u00fccke","source":"openstreetmap.org","landuse_kind":"urban_area","shield_text":"13","ref":"13","bicycle_network":"icn"},"arcs":[699]},{"type":"LineString","properties":{"bus_network":"VOR","network":null,"sort_rank":380,"kind_detail":"primary","is_bicycle_related":true,"kind":"major_road","bicycle_shield_text":"B23","bicycle_network":"lcn","source":"openstreetmap.org","min_zoom":8.0,"bus_shield_text":"292","shield_text":"51","landuse_kind":"urban_area","ref":"B51"},"arcs":[700]},{"type":"LineString","properties":{"kind":"major_road","sort_rank":377,"kind_detail":"tertiary","is_bicycle_related":true,"bicycle_shield_text":"EV6","bicycle_network":"icn","source":"openstreetmap.org","min_zoom":8.0,"ref":"1381","id":61595037},"arcs":[701]},{"type":"LineString","properties":{"kind":"minor_road","sort_rank":358,"kind_detail":"service","is_bicycle_related":true,"bicycle_shield_text":"019","bicycle_network":"ncn","source":"openstreetmap.org","min_zoom":8.0},"arcs":[702]},{"type":"MultiLineString","properties":{"bus_network":"MHD Kom\u00e1rno","sort_rank":380,"kind_detail":"primary","kind":"major_road","source":"openstreetmap.org","min_zoom":8.0,"bus_shield_text":"2","landuse_kind":"residential","ref":"63"},"arcs":[[703],[704],[705],[706]]},{"type":"LineString","properties":{"bus_network":null,"network":"e-road","sort_rank":380,"kind_detail":"primary","kind":"major_road","source":"openstreetmap.org","min_zoom":8.0,"bus_shield_text":"23A","shield_text":"575","landuse_kind":"urban_area","ref":"81"},"arcs":[707]},{"type":"MultiLineString","properties":{"bus_network":"local","network":null,"sort_rank":380,"kind_detail":"primary","kind":"major_road","source":"openstreetmap.org","min_zoom":8.0,"bus_shield_text":"3","shield_text":"1","landuse_kind":"urban_area","ref":"1"},"arcs":[[708],[709]]},{"type":"MultiLineString","properties":{"bus_network":"local","network":null,"sort_rank":380,"kind_detail":"primary","is_bicycle_related":true,"kind":"major_road","bicycle_shield_text":"EV6","cycleway":"lane","source":"openstreetmap.org","min_zoom":8.0,"bus_shield_text":"8659","shield_text":"1","landuse_kind":"residential","ref":"1","bicycle_network":"icn"},"arcs":[[710],[711]]},{"type":"LineString","properties":{"kind":"major_road","sort_rank":380,"kind_detail":"primary","source":"openstreetmap.org","min_zoom":8.0,"landuse_kind":"residential","name:hu":"Pozsonyi \u00fat","ref":"63"},"arcs":[712]},{"type":"LineString","properties":{"kind":"major_road","network":null,"sort_rank":380,"kind_detail":"primary","bus_network":null,"source":"openstreetmap.org","min_zoom":8.0,"bus_shield_text":"7M","shield_text":"1","landuse_kind":"urban_area","ref":"1","id":301575804},"arcs":[713]},{"type":"LineString","properties":{"kind":"major_road","sort_rank":379,"kind_detail":"secondary","is_bicycle_related":true,"bicycle_shield_text":"EV13","bicycle_network":"icn","source":"openstreetmap.org","min_zoom":8.0,"ref":"8505"},"arcs":[714]},{"type":"LineString","properties":{"kind":"major_road","network":null,"sort_rank":380,"landuse_kind":"residential","is_bicycle_related":true,"cycleway":"lane","source":"openstreetmap.org","min_zoom":8.0,"kind_detail":"primary","shield_text":"85","ref":"85"},"arcs":[715]},{"type":"LineString","properties":{"kind":"major_road","sort_rank":377,"landuse_kind":"urban_area","is_bicycle_related":true,"bicycle_shield_text":"EV6","bicycle_network":"icn","source":"openstreetmap.org","min_zoom":8.0,"kind_detail":"tertiary","ref":"1421"},"arcs":[716]},{"type":"MultiLineString","properties":{"bus_network":"VOR","network":null,"sort_rank":380,"kind_detail":"primary","is_bicycle_related":true,"kind":"major_road","bicycle_shield_text":"B22","bicycle_network":"rcn","source":"openstreetmap.org","min_zoom":8.0,"bus_shield_text":"292","shield_text":"51","ref":"B51"},"arcs":[[717],[718],[719],[720]]},{"type":"LineString","properties":{"kind":"minor_road","sort_rank":358,"kind_detail":"service","is_bicycle_related":true,"bicycle_shield_text":"002","bicycle_network":"ncn","source":"openstreetmap.org","min_zoom":8.0},"arcs":[721]},{"type":"LineString","properties":{"kind":"path","sort_rank":354,"kind_detail":"pedestrian","is_bicycle_related":true,"bicycle_shield_text":"EV6","bicycle_network":"icn","source":"openstreetmap.org","min_zoom":8.0,"landuse_kind":"residential"},"arcs":[722]},{"type":"MultiLineString","properties":{"bus_network":"VOR","network":null,"sort_rank":380,"kind_detail":"primary","kind":"major_road","source":"openstreetmap.org","min_zoom":8.0,"bus_shield_text":"296","shield_text":"51","landuse_kind":"urban_area","ref":"B51"},"arcs":[[723],[724],[725]]},{"type":"LineString","properties":{"kind":"major_road","sort_rank":380,"kind_detail":"primary","bus_network":"local","source":"openstreetmap.org","min_zoom":8.0,"bus_shield_text":"3","landuse_kind":"residential","ref":"1;13","id":324785192},"arcs":[726]},{"type":"MultiLineString","properties":{"kind":"major_road","network":null,"sort_rank":381,"kind_detail":"trunk","source":"openstreetmap.org","min_zoom":8.0,"shield_text":"86","ref":"M86"},"arcs":[[727],[728],[729],[730],[731],[732],[733],[734],[735],[736],[737],[738],[739],[740]]},{"type":"LineString","properties":{"kind":"major_road","network":null,"sort_rank":380,"kind_detail":"primary","source":"openstreetmap.org","min_zoom":8.0,"shield_text":"131","ref":"131"},"arcs":[741]},{"type":"LineString","properties":{"kind":"major_road","network":"e-road","sort_rank":380,"kind_detail":"primary","bus_network":null,"source":"openstreetmap.org","min_zoom":8.0,"bus_shield_text":"31A","shield_text":"575","landuse_kind":"urban_area","ref":"81","id":46420201},"arcs":[742]},{"type":"LineString","properties":{"bus_network":null,"network":null,"sort_rank":380,"kind_detail":"primary","kind":"major_road","source":"openstreetmap.org","min_zoom":8.0,"bus_shield_text":"1","shield_text":"82","ref":"82"},"arcs":[743]},{"type":"MultiLineString","properties":{"kind":"path","sort_rank":354,"landuse_kind":"national_park","is_bicycle_related":true,"bicycle_shield_text":"EV6","bicycle_network":"icn","source":"openstreetmap.org","min_zoom":8.0,"kind_detail":"cycleway"},"arcs":[[744],[745],[746]]},{"type":"MultiLineString","properties":{"bus_network":"local","network":"hu:regional","sort_rank":380,"kind_detail":"primary","kind":"major_road","source":"openstreetmap.org","min_zoom":8.0,"bus_shield_text":"2T","shield_text":"13","landuse_kind":"residential","ref":"1;13"},"arcs":[[747],[748],[749]]},{"type":"MultiLineString","properties":{"bus_network":"VOR","network":null,"sort_rank":380,"kind_detail":"primary","is_bicycle_related":true,"kind":"major_road","bicycle_shield_text":"EV13","bicycle_network":"icn","source":"openstreetmap.org","min_zoom":8.0,"bus_shield_text":"295","shield_text":"51","ref":"B51"},"arcs":[[750],[751]]},{"type":"MultiLineString","properties":{"bus_network":null,"sort_rank":380,"kind_detail":"primary","kind":"major_road","source":"openstreetmap.org","min_zoom":8.0,"bus_shield_text":"30Y","ref":"813"},"arcs":[[752],[753]]},{"type":"LineString","properties":{"source":"openstreetmap.org","kind":"major_road","network":null,"sort_rank":380,"kind_detail":"primary","min_zoom":8.0,"shield_text":"10"},"arcs":[754]},{"type":"LineString","properties":{"kind":"major_road","sort_rank":380,"kind_detail":"primary","is_bicycle_related":true,"bus_network":null,"cycleway":"lane","source":"openstreetmap.org","min_zoom":8.0,"bus_shield_text":"22B","landuse_kind":"urban_area","ref":"82","id":294997384},"arcs":[755]},{"type":"MultiLineString","properties":{"bus_network":null,"network":null,"sort_rank":380,"kind_detail":"primary","kind":"major_road","source":"openstreetmap.org","min_zoom":8.0,"bus_shield_text":"23","shield_text":"82","landuse_kind":"urban_area","ref":"82"},"arcs":[[756],[757],[758],[759]]},{"type":"LineString","properties":{"kind":"major_road","network":null,"sort_rank":380,"kind_detail":"primary","is_bicycle_related":true,"bus_network":"VOR","cycleway":"lane","source":"openstreetmap.org","min_zoom":8.0,"bus_shield_text":"296","shield_text":"51","ref":"B51","id":511332567},"arcs":[760]},{"type":"LineString","properties":{"bus_network":null,"network":null,"sort_rank":380,"kind_detail":"primary","kind":"major_road","source":"openstreetmap.org","min_zoom":8.0,"bus_shield_text":"20Y","shield_text":"83","landuse_kind":"urban_area","ref":"83"},"arcs":[761]},{"type":"LineString","properties":{"kind":"major_road","network":"e-road","sort_rank":380,"kind_detail":"primary","bus_network":null,"source":"openstreetmap.org","min_zoom":8.0,"bus_shield_text":"31A","shield_text":"575","landuse_kind":"urban_area","ref":"14;81","id":522452298},"arcs":[762]},{"type":"LineString","properties":{"kind":"major_road","sort_rank":379,"kind_detail":"secondary","is_bicycle_related":true,"bus_network":"local","bicycle_shield_text":"EV6","bicycle_network":"icn","source":"openstreetmap.org","min_zoom":8.0,"bus_shield_text":"2T","id":413321302},"arcs":[763]},{"type":"MultiLineString","properties":{"bus_network":null,"network":null,"sort_rank":380,"kind_detail":"primary","kind":"major_road","source":"openstreetmap.org","min_zoom":8.0,"bus_shield_text":"23","shield_text":"82","landuse_kind":"residential","ref":"82"},"arcs":[[764],[765],[766],[767],[768]]},{"type":"MultiLineString","properties":{"kind":"path","sort_rank":354,"kind_detail":"cycleway","is_bicycle_related":true,"bicycle_shield_text":"EV13","bicycle_network":"icn","source":"openstreetmap.org","min_zoom":8.0},"arcs":[[769],[770]]},{"type":"LineString","properties":{"source":"openstreetmap.org","kind":"major_road","landuse_kind":"urban_area","sort_rank":380,"kind_detail":"primary","ref":"84","min_zoom":8.0},"arcs":[771]},{"type":"LineString","properties":{"kind":"major_road","network":null,"sort_rank":380,"kind_detail":"primary","is_bicycle_related":true,"bicycle_shield_text":null,"bicycle_network":"lcn","source":"openstreetmap.org","min_zoom":8.0,"landuse_kind":"residential","shield_text":"85","ref":"85","id":192251385},"arcs":[772]},{"type":"LineString","properties":{"kind":"major_road","network":null,"sort_rank":380,"kind_detail":"primary","bus_network":null,"source":"openstreetmap.org","min_zoom":8.0,"bus_shield_text":"20Y","shield_text":"83","ref":"83","id":122826812},"arcs":[773]},{"type":"LineString","properties":{"kind":"major_road","network":"e-road","sort_rank":380,"kind_detail":"primary","is_bicycle_related":true,"cycleway":"lane","source":"openstreetmap.org","min_zoom":8.0,"shield_text":"65","ref":"86","id":501326962},"arcs":[774]},{"type":"LineString","properties":{"kind":"path","sort_rank":354,"kind_detail":"cycleway","is_bicycle_related":true,"bicycle_shield_text":"81.A","bicycle_network":"ncn","source":"openstreetmap.org","min_zoom":8.0},"arcs":[775]},{"type":"LineString","properties":{"kind":"major_road","network":null,"sort_rank":380,"kind_detail":"primary","bus_network":null,"source":"openstreetmap.org","min_zoom":8.0,"bus_shield_text":"21B","shield_text":"83","ref":"83","id":212739837},"arcs":[776]},{"type":"LineString","properties":{"kind":"major_road","network":null,"sort_rank":380,"kind_detail":"primary","source":"openstreetmap.org","min_zoom":8.0,"shield_text":"87","ref":"87","id":88486895},"arcs":[777]},{"type":"MultiLineString","properties":{"kind":"path","sort_rank":354,"landuse_kind":"urban_area","is_bicycle_related":true,"bicycle_shield_text":"EV6","bicycle_network":"icn","source":"openstreetmap.org","min_zoom":8.0,"kind_detail":"path"},"arcs":[[778],[779]]},{"type":"LineString","properties":{"source":"openstreetmap.org","kind":"major_road","landuse_kind":"urban_area","sort_rank":380,"kind_detail":"primary","ref":"88","min_zoom":8.0},"arcs":[780]},{"type":"LineString","properties":{"cycleway_right":"lane","network":null,"sort_rank":380,"kind_detail":"primary","is_bicycle_related":true,"kind":"major_road","source":"openstreetmap.org","min_zoom":8.0,"landuse_kind":"urban_area","shield_text":"1","ref":"1","id":273054489},"arcs":[781]},{"type":"MultiLineString","properties":{"kind":"major_road","network":"sk:regional","sort_rank":380,"kind_detail":"primary","source":"openstreetmap.org","min_zoom":8.0,"landuse_kind":"residential","shield_text":"64","ref":"63;64"},"arcs":[[782],[783]]},{"type":"MultiLineString","properties":{"kind":"highway","network":"e-road","sort_rank":383,"kind_detail":"motorway","source":"openstreetmap.org","min_zoom":8.0,"all_networks":["e-road",null],"shield_text":"60","ref":"M1","all_shield_texts":["60","1"]},"arcs":[[784],[785],[786],[787]]},{"type":"MultiLineString","properties":{"kind":"path","sort_rank":354,"kind_detail":"cycleway","is_bicycle_related":true,"bicycle_shield_text":"7C","bicycle_network":"ncn","source":"openstreetmap.org","min_zoom":8.0,"landuse_kind":"residential"},"arcs":[[788],[789]]},{"type":"MultiLineString","properties":{"bus_network":"Gy\u0151r-Ikr\u00e9ny-R\u00e1bapatona","network":null,"sort_rank":380,"kind_detail":"primary","kind":"major_road","source":"openstreetmap.org","min_zoom":8.0,"bus_shield_text":"7055","shield_text":"85","ref":"85"},"arcs":[[790],[791]]},{"type":"MultiLineString","properties":{"bus_network":"VOR","network":null,"sort_rank":380,"kind_detail":"primary","is_bicycle_related":true,"kind":"major_road","cycleway":"lane","source":"openstreetmap.org","min_zoom":8.0,"bus_shield_text":"292","shield_text":"51","landuse_kind":"urban_area","ref":"B51"},"arcs":[[792],[793]]},{"type":"MultiLineString","properties":{"kind":"major_road","network":null,"sort_rank":380,"kind_detail":"primary","source":"openstreetmap.org","min_zoom":8.0,"shield_text":"85","ref":"85"},"arcs":[[794],[795],[796],[797],[798],[799],[800],[801],[802],[803],[804],[805],[806],[807],[808],[809],[810],[811],[812],[813],[814],[815],[816],[817],[818],[819],[820],[821],[822],[823],[824],[825],[826]]},{"type":"LineString","properties":{"bus_network":null,"network":"e-road","sort_rank":380,"kind_detail":"primary","kind":"major_road","source":"openstreetmap.org","min_zoom":8.0,"bus_shield_text":"17B","shield_text":"575","landuse_kind":"urban_area","ref":"14;81"},"arcs":[827]},{"type":"LineString","properties":{"kind":"major_road","network":null,"sort_rank":381,"kind_detail":"trunk","source":"openstreetmap.org","min_zoom":8.0,"shield_text":"19","ref":"M19"},"arcs":[828]},{"type":"MultiLineString","properties":{"source":"openstreetmap.org","kind":"major_road","landuse_kind":"urban_area","sort_rank":380,"kind_detail":"primary","ref":"832","min_zoom":8.0},"arcs":[[829],[830]]},{"type":"MultiLineString","properties":{"kind":"major_road","network":"e-road","sort_rank":380,"kind_detail":"primary","source":"openstreetmap.org","min_zoom":8.0,"landuse_kind":"residential","shield_text":"65","ref":"86"},"arcs":[[831],[832],[833],[834],[835],[836]]},{"type":"LineString","properties":{"bus_network":"MHD Kom\u00e1rno","name:hu":"Pozsonyi \u00fat","sort_rank":380,"kind_detail":"primary","kind":"major_road","source":"openstreetmap.org","min_zoom":8.0,"bus_shield_text":"8","landuse_kind":"residential","ref":"63"},"arcs":[837]},{"type":"MultiLineString","properties":{"bus_network":null,"network":null,"sort_rank":380,"kind_detail":"primary","kind":"major_road","source":"openstreetmap.org","min_zoom":8.0,"bus_shield_text":"3K","shield_text":"1","landuse_kind":"urban_area","ref":"1"},"arcs":[[838],[839],[840]]},{"type":"MultiLineString","properties":{"kind":"major_road","network":"e-road","sort_rank":380,"kind_detail":"primary","source":"openstreetmap.org","min_zoom":8.0,"shield_text":"65","ref":"84"},"arcs":[[841],[842],[843],[844],[845],[846]]},{"type":"MultiLineString","properties":{"kind":"major_road","network":null,"sort_rank":380,"kind_detail":"primary","is_bicycle_related":true,"cycleway":"lane","source":"openstreetmap.org","min_zoom":8.0,"shield_text":"1","ref":"1"},"arcs":[[847],[848]]},{"type":"LineString","properties":{"kind":"major_road","sort_rank":380,"kind_detail":"primary","source":"openstreetmap.org","min_zoom":8.0,"landuse_kind":"residential","name:hu":"Megyercsi utca","ref":"63","id":237996141},"arcs":[849]},{"type":"LineString","properties":{"bus_network":"VOR","bicycle_shield_text":"R1","min_zoom":8.0,"bus_shield_text":"292","cycleway":"lane","id":26264666,"kind":"major_road","network":null,"sort_rank":380,"landuse_kind":"urban_area","is_bicycle_related":true,"bicycle_network":"rcn","source":"openstreetmap.org","kind_detail":"primary","shield_text":"51","ref":"B51"},"arcs":[850]},{"type":"LineString","properties":{"bus_network":null,"network":"e-road","sort_rank":380,"kind_detail":"primary","kind":"major_road","source":"openstreetmap.org","min_zoom":8.0,"bus_shield_text":"11Y","shield_text":"575","landuse_kind":"urban_area","ref":"14"},"arcs":[851]},{"type":"LineString","properties":{"bus_network":null,"network":null,"sort_rank":380,"kind_detail":"primary","kind":"major_road","source":"openstreetmap.org","min_zoom":8.0,"bus_shield_text":"21B","shield_text":"83","landuse_kind":"urban_area","ref":"83"},"arcs":[852]},{"type":"LineString","properties":{"cycleway_right":"track","network":null,"sort_rank":380,"kind_detail":"primary","is_bicycle_related":true,"kind":"major_road","source":"openstreetmap.org","min_zoom":8.0,"shield_text":"81","ref":"81","id":123205475},"arcs":[853]},{"type":"LineString","properties":{"kind":"major_road","sort_rank":379,"kind_detail":"secondary","is_bicycle_related":true,"bicycle_shield_text":"7A","bicycle_network":"ncn","source":"openstreetmap.org","min_zoom":8.0,"ref":"7205","id":54519282},"arcs":[854]},{"type":"LineString","properties":{"kind":"major_road","network":null,"sort_rank":380,"kind_detail":"primary","bus_network":null,"source":"openstreetmap.org","min_zoom":8.0,"bus_shield_text":"5","shield_text":"82","landuse_kind":"urban_area","ref":"82","id":522452329},"arcs":[855]},{"type":"MultiLineString","properties":{"kind":"highway","network":"e-road","sort_rank":383,"kind_detail":"motorway","source":"openstreetmap.org","min_zoom":8.0,"all_networks":["e-road","AT:A-road"],"shield_text":"60","ref":"A4","all_shield_texts":["60","4"]},"arcs":[[856],[857],[858],[859],[860],[861]]},{"type":"MultiLineString","properties":{"kind":"path","sort_rank":354,"kind_detail":"track","is_bicycle_related":true,"bicycle_shield_text":"EV13","bicycle_network":"icn","source":"openstreetmap.org","min_zoom":8.0},"arcs":[[862],[863],[864],[865],[866],[867]]},{"type":"LineString","properties":{"kind":"major_road","network":null,"sort_rank":380,"kind_detail":"primary","source":"openstreetmap.org","min_zoom":8.0,"landuse_kind":"urban_area","shield_text":"101","ref":"101"},"arcs":[868]},{"type":"LineString","properties":{"kind":"major_road","network":"e-road","sort_rank":380,"kind_detail":"primary","source":"openstreetmap.org","min_zoom":8.0,"landuse_kind":"residential","shield_text":"65","ref":"85","id":23091986},"arcs":[869]},{"type":"LineString","properties":{"bus_network":"local","network":null,"sort_rank":380,"kind_detail":"primary","kind":"major_road","source":"openstreetmap.org","min_zoom":8.0,"bus_shield_text":"3F","shield_text":"1","landuse_kind":"residential","ref":"1"},"arcs":[870]},{"type":"MultiLineString","properties":{"kind":"major_road","network":"e-road","sort_rank":380,"kind_detail":"primary","source":"openstreetmap.org","min_zoom":8.0,"shield_text":"575","ref":"13"},"arcs":[[871],[872],[873],[874]]},{"type":"MultiLineString","properties":{"kind":"major_road","sort_rank":377,"landuse_kind":"national_park","is_bicycle_related":true,"bicycle_shield_text":"EV6","bicycle_network":"icn","source":"openstreetmap.org","min_zoom":8.0,"kind_detail":"tertiary","ref":"1422"},"arcs":[[875],[876],[877]]},{"type":"MultiLineString","properties":{"kind":"path","sort_rank":354,"kind_detail":"track","is_bicycle_related":true,"bicycle_shield_text":"EV6","bicycle_network":"icn","source":"openstreetmap.org","min_zoom":8.0},"arcs":[[878],[879],[880],[881],[882],[883],[884],[885],[886]]},{"type":"MultiLineString","properties":{"kind":"minor_road","sort_rank":360,"kind_detail":"residential","is_bicycle_related":true,"bicycle_shield_text":"81.A","bicycle_network":"ncn","source":"openstreetmap.org","min_zoom":8.0},"arcs":[[887],[888]]},{"type":"MultiLineString","properties":{"kind":"major_road","network":"e-road","sort_rank":380,"kind_detail":"primary","source":"openstreetmap.org","min_zoom":8.0,"landuse_kind":"urban_area","shield_text":"66","ref":"8"},"arcs":[[889],[890],[891],[892],[893],[894],[895],[896],[897],[898],[899],[900]]},{"type":"MultiLineString","properties":{"bus_network":"VOR","network":null,"sort_rank":380,"kind_detail":"primary","kind":"major_road","source":"openstreetmap.org","min_zoom":8.0,"bus_shield_text":"292","shield_text":"51","landuse_kind":"urban_area","ref":"B51"},"arcs":[[901],[902],[903],[904],[905],[906],[907],[908],[909],[910],[911]]},{"type":"LineString","properties":{"kind":"major_road","network":"e-road","sort_rank":380,"kind_detail":"primary","bus_network":"rwn","source":"openstreetmap.org","min_zoom":8.0,"bus_shield_text":"1670","shield_text":"66","ref":"8"},"arcs":[912]},{"type":"LineString","properties":{"bus_network":null,"network":null,"sort_rank":380,"kind_detail":"primary","kind":"major_road","source":"openstreetmap.org","min_zoom":8.0,"bus_shield_text":"3","shield_text":"82","ref":"82"},"arcs":[913]},{"type":"MultiLineString","properties":{"kind":"major_road","network":null,"sort_rank":380,"kind_detail":"primary","source":"openstreetmap.org","min_zoom":8.0,"landuse_kind":"urban_area","shield_text":"83","ref":"83"},"arcs":[[914],[915],[916],[917],[918],[919]]},{"type":"MultiLineString","properties":{"bus_network":"MHD Kom\u00e1rno","network":"sk:regional","sort_rank":380,"kind_detail":"primary","kind":"major_road","source":"openstreetmap.org","min_zoom":8.0,"bus_shield_text":"2","shield_text":"64","landuse_kind":"residential","ref":"63;64"},"arcs":[[920],[921]]},{"type":"MultiLineString","properties":{"kind":"major_road","network":null,"sort_rank":380,"kind_detail":"primary","source":"openstreetmap.org","min_zoom":8.0,"shield_text":"1","ref":"1"},"arcs":[[922],[923],[924],[925],[926],[927],[928],[929],[930]]},{"type":"MultiLineString","properties":{"kind":"minor_road","sort_rank":360,"kind_detail":"residential","is_bicycle_related":true,"bicycle_shield_text":"EV13","bicycle_network":"icn","source":"openstreetmap.org","min_zoom":8.0},"arcs":[[931],[932],[933],[934],[935],[936],[937],[938]]},{"type":"MultiLineString","properties":{"bus_network":null,"network":"e-road","sort_rank":380,"landuse_kind":"urban_area","kind":"major_road","source":"openstreetmap.org","min_zoom":8.0,"bus_shield_text":"19A","shield_text":"575","kind_detail":"primary","ref":"81"},"arcs":[[939],[940]]},{"type":"MultiLineString","properties":{"kind":"major_road","network":"e-road","sort_rank":380,"kind_detail":"primary","source":"openstreetmap.org","min_zoom":8.0,"shield_text":"575","ref":"63"},"arcs":[[941],[942],[943]]},{"type":"MultiLineString","properties":{"bus_network":null,"network":null,"sort_rank":380,"kind_detail":"primary","kind":"major_road","source":"openstreetmap.org","min_zoom":8.0,"bus_shield_text":"5R","shield_text":"1","landuse_kind":"residential","ref":"1"},"arcs":[[944],[945],[946],[947],[948]]},{"type":"MultiLineString","properties":{"kind":"path","sort_rank":354,"landuse_kind":"national_park","is_bicycle_related":true,"bicycle_shield_text":"EV6","bicycle_network":"icn","source":"openstreetmap.org","min_zoom":8.0,"kind_detail":"track"},"arcs":[[949],[950],[951]]},{"type":"LineString","properties":{"bus_network":null,"network":null,"sort_rank":380,"kind_detail":"primary","kind":"major_road","source":"openstreetmap.org","min_zoom":8.0,"bus_shield_text":"22B","shield_text":"1","landuse_kind":"urban_area","ref":"1"},"arcs":[952]},{"type":"MultiLineString","properties":{"kind":"major_road","network":null,"sort_rank":380,"kind_detail":"primary","source":"openstreetmap.org","min_zoom":8.0,"shield_text":"83","ref":"83"},"arcs":[[953],[954],[955],[956],[957],[958],[959],[960],[961],[962],[963],[964],[965],[966],[967],[968],[969],[970],[971]]},{"type":"LineString","properties":{"kind":"minor_road","sort_rank":358,"kind_detail":"service","is_bicycle_related":true,"bicycle_shield_text":null,"bicycle_network":"icn","source":"openstreetmap.org","min_zoom":8.0},"arcs":[972]},{"type":"MultiLineString","properties":{"kind":"minor_road","sort_rank":360,"kind_detail":"residential","is_bicycle_related":true,"bicycle_shield_text":"EV6","bicycle_network":"icn","source":"openstreetmap.org","min_zoom":8.0},"arcs":[[973],[974],[975],[976],[977],[978],[979],[980],[981],[982],[983]]},{"type":"MultiLineString","properties":{"kind":"highway","network":"e-road","sort_rank":383,"landuse_kind":"urban_area","source":"openstreetmap.org","min_zoom":8.0,"all_networks":["e-road",null],"kind_detail":"motorway","shield_text":"60","ref":"M1","all_shield_texts":["60","1"]},"arcs":[[984],[985]]},{"type":"LineString","properties":{"kind":"major_road","sort_rank":380,"kind_detail":"primary","bus_network":null,"source":"openstreetmap.org","min_zoom":8.0,"bus_shield_text":"4A","landuse_kind":"residential","ref":"150","id":61884434},"arcs":[986]},{"type":"LineString","properties":{"kind":"major_road","sort_rank":379,"kind_detail":"secondary","is_bicycle_related":true,"bus_network":"VOR","bicycle_shield_text":"EV13","bicycle_network":"icn","source":"openstreetmap.org","min_zoom":8.0,"bus_shield_text":"292","ref":"L211","id":453510842},"arcs":[987]},{"type":"MultiLineString","properties":{"kind":"major_road","network":"e-road","sort_rank":381,"kind_detail":"trunk","source":"openstreetmap.org","min_zoom":8.0,"shield_text":"65","ref":"M15"},"arcs":[[988],[989]]},{"type":"MultiLineString","properties":{"kind":"highway","network":"e-road","sort_rank":383,"landuse_kind":"urban_area","source":"openstreetmap.org","min_zoom":8.0,"all_networks":["e-road","e-road",null],"kind_detail":"motorway","shield_text":"60","ref":"M1","all_shield_texts":["60","75","1"]},"arcs":[[990],[991],[992],[993]]},{"type":"MultiLineString","properties":{"bus_network":"local","network":"hu:regional","sort_rank":380,"kind_detail":"primary","kind":"major_road","source":"openstreetmap.org","min_zoom":8.0,"bus_shield_text":"2T","shield_text":"13","landuse_kind":"residential","ref":"13"},"arcs":[[994],[995],[996]]},{"type":"LineString","properties":{"kind":"major_road","sort_rank":377,"kind_detail":"tertiary","is_bicycle_related":true,"bicycle_shield_text":"EV6","bicycle_network":"icn","source":"openstreetmap.org","min_zoom":8.0,"ref":"81329","id":69670689},"arcs":[997]},{"type":"MultiLineString","properties":{"bus_network":null,"sort_rank":380,"kind_detail":"primary","kind":"major_road","source":"openstreetmap.org","min_zoom":8.0,"bus_shield_text":"12","landuse_kind":"urban_area"},"arcs":[[998],[999]]},{"type":"LineString","properties":{"kind":"major_road","sort_rank":379,"kind_detail":"secondary","is_bicycle_related":true,"bicycle_shield_text":"7A","bicycle_network":"ncn","source":"openstreetmap.org","min_zoom":8.0},"arcs":[1000]},{"type":"LineString","properties":{"kind":"minor_road","sort_rank":360,"kind_detail":"residential","is_bicycle_related":true,"bicycle_shield_text":"002","bicycle_network":"ncn","source":"openstreetmap.org","min_zoom":8.0},"arcs":[1001]},{"type":"LineString","properties":{"kind":"major_road","sort_rank":380,"kind_detail":"primary","bus_network":null,"source":"openstreetmap.org","min_zoom":8.0,"bus_shield_text":"14B","landuse_kind":"urban_area","ref":"82","id":267297510},"arcs":[1002]},{"type":"LineString","properties":{"kind":"major_road","network":null,"sort_rank":380,"kind_detail":"primary","source":"openstreetmap.org","min_zoom":8.0,"shield_text":"88","ref":"88"},"arcs":[1003]},{"type":"MultiLineString","properties":{"kind":"major_road","network":"sk:regional","sort_rank":380,"kind_detail":"primary","source":"openstreetmap.org","min_zoom":8.0,"shield_text":"64","ref":"64"},"arcs":[[1004],[1005],[1006]]},{"type":"LineString","properties":{"kind":"major_road","cycleway_left":"track","network":null,"sort_rank":380,"kind_detail":"primary","is_bicycle_related":true,"source":"openstreetmap.org","min_zoom":8.0,"shield_text":"84","ref":"84","id":240224630},"arcs":[1007]},{"type":"LineString","properties":{"kind":"major_road","network":"e-road","sort_rank":380,"kind_detail":"primary","source":"openstreetmap.org","min_zoom":8.0,"shield_text":"575","name:hu":"Kom\u00e1romi \u00fat","ref":"63"},"arcs":[1008]},{"type":"LineString","properties":{"kind":"minor_road","sort_rank":360,"kind_detail":"residential","is_bicycle_related":true,"bicycle_shield_text":"EV6","bicycle_network":"icn","source":"openstreetmap.org","min_zoom":8.0,"landuse_kind":"residential","name:hu":"Leh\u00e1r utca","id":117556078},"arcs":[1009]},{"type":"MultiLineString","properties":{"bus_network":"local","network":"sk:regional","sort_rank":380,"kind_detail":"primary","is_bicycle_related":true,"kind":"major_road","bicycle_shield_text":"EV6","bicycle_network":"icn","source":"openstreetmap.org","min_zoom":8.0,"bus_shield_text":"228","shield_text":"64","landuse_kind":"urban_area","ref":"64"},"arcs":[[1010],[1011]]},{"type":"LineString","properties":{"source":"openstreetmap.org","kind":"major_road","landuse_kind":"residential","sort_rank":380,"kind_detail":"primary","min_zoom":8.0},"arcs":[1012]},{"type":"MultiLineString","properties":{"bus_network":"MHD Kom\u00e1rno","network":"sk:regional","sort_rank":380,"kind_detail":"primary","kind":"major_road","source":"openstreetmap.org","min_zoom":8.0,"bus_shield_text":"2","shield_text":"64","landuse_kind":"urban_area","ref":"63;64"},"arcs":[[1013],[1014],[1015]]},{"type":"LineString","properties":{"kind":"minor_road","sort_rank":358,"kind_detail":"service","is_bicycle_related":true,"bicycle_shield_text":"7C","bicycle_network":"ncn","source":"openstreetmap.org","min_zoom":8.0,"id":107837254},"arcs":[1016]},{"type":"LineString","properties":{"kind":"minor_road","sort_rank":360,"kind_detail":"unclassified","is_bicycle_related":true,"bicycle_shield_text":"EV6","bicycle_network":"icn","source":"openstreetmap.org","min_zoom":8.0,"landuse_kind":"urban_area"},"arcs":[1017]},{"type":"LineString","properties":{"bus_network":null,"network":null,"sort_rank":380,"kind_detail":"primary","kind":"major_road","source":"openstreetmap.org","min_zoom":8.0,"bus_shield_text":"22B","shield_text":"821","landuse_kind":"urban_area","ref":"821"},"arcs":[1018]},{"type":"LineString","properties":{"kind":"minor_road","sort_rank":360,"landuse_kind":"residential","is_bicycle_related":true,"bicycle_shield_text":"EV6","bicycle_network":"icn","source":"openstreetmap.org","min_zoom":8.0,"kind_detail":"residential","name:hu":"Villanytelepi \u00fat"},"arcs":[1019]},{"type":"MultiLineString","properties":{"kind":"major_road","network":null,"sort_rank":380,"kind_detail":"primary","source":"openstreetmap.org","min_zoom":8.0,"shield_text":"710","ref":"710"},"arcs":[[1020],[1021],[1022],[1023],[1024],[1025],[1026],[1027],[1028]]},{"type":"LineString","properties":{"kind":"major_road","network":null,"sort_rank":380,"kind_detail":"primary","source":"openstreetmap.org","min_zoom":8.0,"shield_text":"77","ref":"77"},"arcs":[1029]},{"type":"LineString","properties":{"kind":"major_road","network":null,"sort_rank":380,"kind_detail":"primary","bus_network":null,"source":"openstreetmap.org","min_zoom":8.0,"bus_shield_text":"21B","shield_text":"821","landuse_kind":"urban_area","ref":"821","id":102735120},"arcs":[1030]},{"type":"LineString","properties":{"bus_network":"VOR","network":null,"sort_rank":380,"kind_detail":"primary","is_bicycle_related":true,"kind":"major_road","bicycle_shield_text":"B29","bicycle_network":"rcn","source":"openstreetmap.org","min_zoom":8.0,"bus_shield_text":"296","shield_text":"10","ref":"B10","id":37882690},"arcs":[1031]},{"type":"LineString","properties":{"kind":"major_road","sort_rank":379,"kind_detail":"secondary","is_bicycle_related":true,"bicycle_shield_text":"EV6","bicycle_network":"icn","source":"openstreetmap.org","min_zoom":8.0,"ref":"8151"},"arcs":[1032]},{"type":"MultiLineString","properties":{"kind":"ferry","name":"Dunaremete - Gab\u010d\u00edkovo (B\u0151s)","sort_rank":355,"landuse_kind":"national_park","is_bicycle_related":true,"source":"openstreetmap.org","min_zoom":8.0,"id":360342712},"arcs":[[1033],[1034]]},{"type":"MultiLineString","properties":{"bus_network":"VOR","sort_rank":380,"kind_detail":"primary","kind":"major_road","source":"openstreetmap.org","min_zoom":8.0,"bus_shield_text":"292","landuse_kind":"urban_area","ref":"B51"},"arcs":[[1035],[1036]]},{"type":"LineString","properties":{"kind":"path","sort_rank":354,"kind_detail":"footway","is_bicycle_related":true,"bicycle_shield_text":"EV6","bicycle_network":"icn","source":"openstreetmap.org","min_zoom":8.0},"arcs":[1037]},{"type":"MultiLineString","properties":{"bus_network":null,"network":"e-road","sort_rank":380,"landuse_kind":"urban_area","kind":"major_road","source":"openstreetmap.org","min_zoom":8.0,"bus_shield_text":"7","shield_text":"575","kind_detail":"primary"},"arcs":[[1038],[1039]]},{"type":"MultiLineString","properties":{"kind":"major_road","sort_rank":379,"kind_detail":"secondary","is_bicycle_related":true,"bicycle_shield_text":"EV6","cycleway":"lane","source":"openstreetmap.org","min_zoom":8.0,"bicycle_network":"icn","ref":"1401"},"arcs":[[1040],[1041],[1042],[1043],[1044],[1045]]},{"type":"LineString","properties":{"bus_network":"VOR","network":null,"sort_rank":380,"kind_detail":"primary","is_bicycle_related":true,"kind":"major_road","bicycle_shield_text":"B22","bicycle_network":"rcn","source":"openstreetmap.org","min_zoom":8.0,"bus_shield_text":"293","shield_text":"51","ref":"B51","id":334629445},"arcs":[1046]},{"type":"LineString","properties":{"bus_network":"Gy\u0151r-Abda","network":null,"sort_rank":380,"kind_detail":"primary","kind":"major_road","source":"openstreetmap.org","min_zoom":8.0,"bus_shield_text":null,"shield_text":"1","landuse_kind":"urban_area","ref":"1"},"arcs":[1047]},{"type":"LineString","properties":{"kind":"minor_road","sort_rank":360,"landuse_kind":"residential","is_bicycle_related":true,"bicycle_shield_text":"EV6","bicycle_network":"icn","source":"openstreetmap.org","min_zoom":8.0,"old_name":"H\u00e1m\u00e1n Kat\u00f3 utca","kind_detail":"residential"},"arcs":[1048]},{"type":"LineString","properties":{"kind":"major_road","network":null,"sort_rank":380,"kind_detail":"primary","source":"openstreetmap.org","min_zoom":8.0,"shield_text":"73","ref":"73"},"arcs":[1049]},{"type":"MultiLineString","properties":{"bus_network":"MHD Kom\u00e1rno","sort_rank":380,"kind_detail":"primary","bus_shield_text":"2","kind":"major_road","source":"openstreetmap.org","min_zoom":8.0,"landuse_kind":"residential","name:hu":"Megyercsi utca","ref":"63"},"arcs":[[1050],[1051],[1052],[1053]]},{"type":"MultiLineString","properties":{"bus_network":"VOR","network":null,"sort_rank":380,"kind_detail":"primary","kind":"major_road","source":"openstreetmap.org","min_zoom":8.0,"bus_shield_text":"298","shield_text":"10","ref":"B10"},"arcs":[[1054],[1055]]},{"type":"LineString","properties":{"kind":"major_road","network":"e-road","sort_rank":380,"kind_detail":"primary","source":"openstreetmap.org","min_zoom":8.0,"landuse_kind":"national_park","shield_text":"575","ref":"13"},"arcs":[1056]},{"type":"MultiLineString","properties":{"kind":"major_road","network":null,"sort_rank":380,"kind_detail":"primary","source":"openstreetmap.org","min_zoom":8.0,"landuse_kind":"residential","shield_text":"85","ref":"85"},"arcs":[[1057],[1058],[1059],[1060],[1061]]},{"type":"LineString","properties":{"source":"openstreetmap.org","kind":"major_road","sort_rank":380,"kind_detail":"primary","ref":"13","min_zoom":8.0,"id":127719557},"arcs":[1062]},{"type":"MultiLineString","properties":{"kind":"major_road","network":"e-road","sort_rank":380,"kind_detail":"primary","source":"openstreetmap.org","min_zoom":8.0,"landuse_kind":"urban_area","shield_text":"575","ref":"81"},"arcs":[[1063],[1064],[1065],[1066]]},{"type":"LineString","properties":{"kind":"path","sort_rank":354,"landuse_kind":"urban_area","is_bicycle_related":true,"bicycle_shield_text":"EV6","bicycle_network":"icn","source":"openstreetmap.org","min_zoom":8.0,"kind_detail":"footway"},"arcs":[1067]},{"type":"MultiLineString","properties":{"bus_network":null,"network":null,"sort_rank":380,"kind_detail":"primary","kind":"major_road","source":"openstreetmap.org","min_zoom":8.0,"bus_shield_text":"22B","shield_text":"82","landuse_kind":"urban_area","ref":"82"},"arcs":[[1068],[1069]]},{"type":"MultiLineString","properties":{"bus_network":null,"network":null,"sort_rank":380,"kind_detail":"primary","kind":"major_road","source":"openstreetmap.org","min_zoom":8.0,"bus_shield_text":"37T","shield_text":"82","landuse_kind":"urban_area","ref":"82"},"arcs":[[1070],[1071],[1072]]},{"type":"LineString","properties":{"bus_network":"MHD Kom\u00e1rno","network":"sk:regional","sort_rank":380,"kind_detail":"primary","bus_shield_text":"2","kind":"major_road","source":"openstreetmap.org","min_zoom":8.0,"landuse_kind":"residential","shield_text":"64","name:hu":"L\u00fadpiac t\u00e9r","ref":"64"},"arcs":[1073]},{"type":"LineString","properties":{"bus_network":"local","bicycle_shield_text":"EV6","min_zoom":8.0,"bus_shield_text":"8659","cycleway":"lane","id":323918243,"kind":"major_road","network":null,"sort_rank":380,"landuse_kind":"urban_area","is_bicycle_related":true,"bicycle_network":"icn","source":"openstreetmap.org","kind_detail":"primary","shield_text":"1","ref":"1"},"arcs":[1074]},{"type":"LineString","properties":{"kind":"major_road","network":null,"sort_rank":380,"kind_detail":"primary","is_bicycle_related":true,"cycleway":"lane","source":"openstreetmap.org","min_zoom":8.0,"shield_text":"10","ref":"B10"},"arcs":[1075]},{"type":"LineString","properties":{"kind":"minor_road","sort_rank":360,"kind_detail":"residential","is_bicycle_related":true,"bicycle_shield_text":"EV6","cycleway":"lane","source":"openstreetmap.org","min_zoom":8.0,"landuse_kind":"urban_area","bicycle_network":"icn","id":117684599},"arcs":[1076]},{"type":"LineString","properties":{"kind":"major_road","network":null,"sort_rank":380,"kind_detail":"primary","bus_network":"rwn","source":"openstreetmap.org","min_zoom":8.0,"bus_shield_text":"6774","shield_text":"84","ref":"84"},"arcs":[1077]},{"type":"LineString","properties":{"bus_network":null,"network":null,"sort_rank":380,"kind_detail":"primary","kind":"major_road","source":"openstreetmap.org","min_zoom":8.0,"bus_shield_text":"15A","shield_text":"1","landuse_kind":"urban_area","ref":"1"},"arcs":[1078]},{"type":"LineString","properties":{"kind":"major_road","network":"e-road","sort_rank":380,"kind_detail":"primary","bus_network":null,"source":"openstreetmap.org","min_zoom":8.0,"bus_shield_text":"14B","shield_text":"575","landuse_kind":"urban_area","ref":"14;81","id":522452264},"arcs":[1079]},{"type":"MultiLineString","properties":{"bus_network":"VOR","network":null,"sort_rank":380,"kind_detail":"primary","is_bicycle_related":true,"kind":"major_road","bicycle_shield_text":"R1","bicycle_network":"rcn","source":"openstreetmap.org","min_zoom":8.0,"bus_shield_text":"295","shield_text":"51","ref":"B51"},"arcs":[[1080],[1081],[1082],[1083]]},{"type":"LineString","properties":{"source":"openstreetmap.org","kind":"major_road","sort_rank":380,"kind_detail":"primary","ref":"1","min_zoom":8.0,"id":203984989},"arcs":[1084]},{"type":"LineString","properties":{"kind":"minor_road","sort_rank":360,"kind_detail":"residential","is_bicycle_related":true,"bicycle_shield_text":"7C","bicycle_network":"ncn","source":"openstreetmap.org","min_zoom":8.0,"landuse_kind":"residential"},"arcs":[1085]},{"type":"MultiLineString","properties":{"kind":"major_road","network":null,"sort_rank":380,"kind_detail":"primary","source":"openstreetmap.org","min_zoom":8.0,"landuse_kind":"urban_area","shield_text":"81","ref":"81"},"arcs":[[1086],[1087]]},{"type":"LineString","properties":{"kind":"major_road","network":null,"sort_rank":380,"kind_detail":"primary","bus_network":null,"source":"openstreetmap.org","min_zoom":8.0,"bus_shield_text":"22B","shield_text":"83","ref":"83","id":102735095},"arcs":[1088]},{"type":"MultiLineString","properties":{"kind":"minor_road","sort_rank":360,"landuse_kind":"urban_area","is_bicycle_related":true,"bicycle_shield_text":"EV6","bicycle_network":"icn","source":"openstreetmap.org","min_zoom":8.0,"kind_detail":"residential"},"arcs":[[1089],[1090],[1091],[1092],[1093],[1094],[1095],[1096],[1097],[1098],[1099],[1100],[1101]]},{"type":"LineString","properties":{"kind":"major_road","network":"sk:regional","sort_rank":380,"kind_detail":"primary","source":"openstreetmap.org","min_zoom":8.0,"landuse_kind":"urban_area","shield_text":"64","ref":"63;64"},"arcs":[1102]},{"type":"LineString","properties":{"source":"openstreetmap.org","kind":"major_road","sort_rank":380,"kind_detail":"primary","ref":"82","min_zoom":8.0,"id":182038705},"arcs":[1103]},{"type":"MultiLineString","properties":{"kind":"major_road","cycleway_left":"track","network":null,"sort_rank":380,"kind_detail":"primary","is_bicycle_related":true,"source":"openstreetmap.org","min_zoom":8.0,"shield_text":"81","ref":"81"},"arcs":[[1104],[1105]]},{"type":"LineString","properties":{"kind":"major_road","network":"e-road","sort_rank":380,"kind_detail":"primary","bus_network":null,"source":"openstreetmap.org","min_zoom":8.0,"bus_shield_text":"25","shield_text":"575","landuse_kind":"urban_area","ref":"81","id":522452277},"arcs":[1106]},{"type":"LineString","properties":{"kind":"major_road","network":"hu:regional","sort_rank":380,"kind_detail":"primary","source":"openstreetmap.org","min_zoom":8.0,"landuse_kind":"residential","shield_text":"13","ref":"13","id":323918206},"arcs":[1107]},{"type":"LineString","properties":{"kind":"major_road","cycleway_left":"lane","sort_rank":379,"kind_detail":"secondary","is_bicycle_related":true,"bicycle_shield_text":"EV6","bicycle_network":"icn","source":"openstreetmap.org","min_zoom":8.0,"ref":"1401","id":349580482},"arcs":[1108]},{"type":"LineString","properties":{"kind":"major_road","sort_rank":377,"kind_detail":"tertiary","is_bicycle_related":true,"bicycle_shield_text":"81.A","bicycle_network":"ncn","source":"openstreetmap.org","min_zoom":8.0},"arcs":[1109]},{"type":"MultiLineString","properties":{"kind":"major_road","network":null,"sort_rank":380,"kind_detail":"primary","is_bicycle_related":true,"bicycle_shield_text":"EV6","bicycle_network":"icn","source":"openstreetmap.org","min_zoom":8.0,"landuse_kind":"urban_area","shield_text":"10","ref":"10"},"arcs":[[1110],[1111],[1112]]},{"type":"LineString","properties":{"kind":"major_road","network":null,"sort_rank":380,"kind_detail":"primary","source":"openstreetmap.org","min_zoom":8.0,"landuse_kind":"park","shield_text":"85","ref":"85","id":190044726},"arcs":[1113]},{"type":"MultiLineString","properties":{"kind":"minor_road","sort_rank":358,"kind_detail":"service","is_bicycle_related":true,"bicycle_shield_text":"EV6","bicycle_network":"icn","source":"openstreetmap.org","min_zoom":8.0},"arcs":[[1114],[1115],[1116]]},{"type":"MultiLineString","properties":{"kind":"major_road","network":null,"sort_rank":380,"kind_detail":"primary","source":"openstreetmap.org","min_zoom":8.0,"landuse_kind":"urban_area","shield_text":"84","ref":"84"},"arcs":[[1117],[1118],[1119],[1120]]},{"type":"LineString","properties":{"kind":"major_road","sort_rank":379,"kind_detail":"secondary","is_bicycle_related":true,"bicycle_shield_text":"EV6","bicycle_network":"icn","source":"openstreetmap.org","min_zoom":8.0,"ref":"506","id":117684601},"arcs":[1121]},{"type":"LineString","properties":{"kind":"major_road","sort_rank":377,"kind_detail":"tertiary","is_bicycle_related":true,"bus_network":"local","bicycle_shield_text":"EV6","bicycle_network":"icn","source":"openstreetmap.org","min_zoom":8.0,"bus_shield_text":"2T","ref":"13106","id":40976396},"arcs":[1122]},{"type":"LineString","properties":{"kind":"major_road","sort_rank":380,"kind_detail":"primary","is_bicycle_related":true,"bus_network":"VOR","bicycle_shield_text":"B23","bicycle_network":"lcn","source":"openstreetmap.org","min_zoom":8.0,"bus_shield_text":"292","ref":"B51","id":446973198},"arcs":[1123]},{"type":"LineString","properties":{"kind":"major_road","network":"e-road","sort_rank":380,"kind_detail":"primary","is_bicycle_related":true,"bicycle_shield_text":null,"bicycle_network":"rcn","source":"openstreetmap.org","min_zoom":8.0,"shield_text":"65","ref":"86","id":309257865},"arcs":[1124]},{"type":"MultiLineString","properties":{"source":"openstreetmap.org","kind":"major_road","sort_rank":380,"kind_detail":"primary","ref":"63","min_zoom":8.0},"arcs":[[1125],[1126],[1127],[1128]]},{"type":"LineString","properties":{"bus_network":"VOR","network":null,"sort_rank":380,"kind_detail":"primary","is_bicycle_related":true,"kind":"major_road","bicycle_shield_text":"B23","bicycle_network":"lcn","source":"openstreetmap.org","min_zoom":8.0,"bus_shield_text":"292","shield_text":"51","ref":"B51","id":36573791},"arcs":[1129]},{"type":"MultiLineString","properties":{"source":"openstreetmap.org","kind":"major_road","sort_rank":380,"kind_detail":"primary","ref":"8136","min_zoom":8.0},"arcs":[[1130],[1131],[1132],[1133],[1134],[1135],[1136],[1137],[1138],[1139],[1140],[1141],[1142],[1143],[1144],[1145]]},{"type":"LineString","properties":{"bus_network":null,"network":"e-road","sort_rank":380,"landuse_kind":"urban_area","kind":"major_road","source":"openstreetmap.org","min_zoom":8.0,"bus_shield_text":"10A","shield_text":"66","kind_detail":"primary","ref":"8"},"arcs":[1146]},{"type":"MultiLineString","properties":{"source":"openstreetmap.org","kind":"ferry","name":"Dunaremete - Gab\u010d\u00edkovo (B\u0151s)","sort_rank":355,"is_bicycle_related":true,"min_zoom":8.0,"id":360342712},"arcs":[[1147],[1148]]},{"type":"MultiLineString","properties":{"kind":"minor_road","sort_rank":360,"landuse_kind":"residential","is_bicycle_related":true,"bicycle_shield_text":"EV6","bicycle_network":"icn","source":"openstreetmap.org","min_zoom":8.0,"kind_detail":"residential"},"arcs":[[1149],[1150],[1151],[1152],[1153]]},{"type":"MultiLineString","properties":{"bus_network":"local","network":"hu:regional","sort_rank":380,"kind_detail":"primary","kind":"major_road","source":"openstreetmap.org","min_zoom":8.0,"bus_shield_text":"21","shield_text":"13","landuse_kind":"residential","ref":"13"},"arcs":[[1154],[1155],[1156]]},{"type":"LineString","properties":{"kind":"major_road","network":"hu:regional","sort_rank":380,"kind_detail":"primary","source":"openstreetmap.org","min_zoom":8.0,"landuse_kind":"residential","shield_text":"13","ref":"1;13","id":323918156},"arcs":[1157]},{"type":"MultiLineString","properties":{"bus_network":"local","sort_rank":379,"landuse_kind":"urban_area","is_bicycle_related":true,"kind":"major_road","bicycle_shield_text":"EV6","bicycle_network":"icn","source":"openstreetmap.org","min_zoom":8.0,"bus_shield_text":"2T","kind_detail":"secondary"},"arcs":[[1158],[1159]]},{"type":"LineString","properties":{"kind":"major_road","network":null,"sort_rank":380,"kind_detail":"primary","is_bicycle_related":true,"cycleway":"lane","source":"openstreetmap.org","min_zoom":8.0,"shield_text":"85","ref":"85","id":196560178},"arcs":[1160]},{"type":"MultiLineString","properties":{"source":"openstreetmap.org","kind":"major_road","network":"e-road","sort_rank":380,"kind_detail":"primary","min_zoom":8.0,"shield_text":"66"},"arcs":[[1161],[1162]]},{"type":"LineString","properties":{"bus_network":null,"network":"e-road","sort_rank":380,"kind_detail":"primary","kind":"major_road","source":"openstreetmap.org","min_zoom":8.0,"bus_shield_text":"2B","shield_text":"575","landuse_kind":"urban_area","ref":"14"},"arcs":[1163]},{"type":"LineString","properties":{"kind":"major_road","sort_rank":380,"kind_detail":"primary","bus_network":null,"source":"openstreetmap.org","min_zoom":8.0,"bus_shield_text":"23","landuse_kind":"urban_area","id":219467886},"arcs":[1164]},{"type":"LineString","properties":{"kind":"major_road","network":"e-road","sort_rank":380,"kind_detail":"primary","source":"openstreetmap.org","min_zoom":8.0,"landuse_kind":"urban_area","shield_text":"575","ref":"14;81","id":327889831},"arcs":[1165]},{"type":"MultiLineString","properties":{"source":"openstreetmap.org","kind":"major_road","sort_rank":380,"kind_detail":"primary","name:hu":"Pozsonyi \u00fat","ref":"63","min_zoom":8.0},"arcs":[[1166],[1167],[1168]]},{"type":"MultiLineString","properties":{"kind":"path","sort_rank":354,"kind_detail":"cycleway","is_bicycle_related":true,"bicycle_shield_text":"EV6","bicycle_network":"icn","source":"openstreetmap.org","min_zoom":8.0},"arcs":[[1169],[1170],[1171],[1172],[1173],[1174],[1175],[1176],[1177],[1178],[1179],[1180],[1181],[1182],[1183],[1184],[1185],[1186],[1187],[1188],[1189],[1190],[1191]]},{"type":"LineString","properties":{"bus_network":null,"network":null,"sort_rank":380,"kind_detail":"primary","kind":"major_road","source":"openstreetmap.org","min_zoom":8.0,"bus_shield_text":"30Y","shield_text":"1","landuse_kind":"urban_area","ref":"1"},"arcs":[1192]},{"type":"MultiLineString","properties":{"kind":"major_road","network":null,"sort_rank":380,"kind_detail":"primary","source":"openstreetmap.org","min_zoom":8.0,"landuse_kind":"urban_area","shield_text":"51","ref":"B51"},"arcs":[[1193],[1194],[1195]]},{"type":"MultiLineString","properties":{"bus_network":null,"network":null,"sort_rank":380,"kind_detail":"primary","kind":"major_road","source":"openstreetmap.org","min_zoom":8.0,"bus_shield_text":"14B","shield_text":"82","landuse_kind":"urban_area","ref":"82"},"arcs":[[1196],[1197]]},{"type":"MultiLineString","properties":{"kind":"major_road","network":"sk:regional","sort_rank":380,"kind_detail":"primary","source":"openstreetmap.org","min_zoom":8.0,"landuse_kind":"urban_area","shield_text":"64","ref":"64"},"arcs":[[1198],[1199],[1200],[1201],[1202],[1203]]},{"type":"MultiLineString","properties":{"source":"openstreetmap.org","kind":"major_road","sort_rank":381,"kind_detail":"trunk","ref":"M85","min_zoom":8.0},"arcs":[[1204],[1205],[1206],[1207],[1208],[1209],[1210],[1211],[1212],[1213],[1214],[1215]]},{"type":"MultiLineString","properties":{"source":"openstreetmap.org","kind":"major_road","sort_rank":380,"kind_detail":"primary","ref":"87","min_zoom":8.0},"arcs":[[1216],[1217]]},{"type":"LineString","properties":{"kind":"major_road","sort_rank":380,"landuse_kind":"residential","source":"openstreetmap.org","min_zoom":8.0,"kind_detail":"primary","ref":"63","id":326019920},"arcs":[1218]},{"type":"LineString","properties":{"kind":"major_road","network":"sk:regional","sort_rank":380,"landuse_kind":"residential","bus_network":"MHD Kom\u00e1rno","source":"openstreetmap.org","min_zoom":8.0,"bus_shield_text":"3","shield_text":"64","kind_detail":"primary","name:hu":"Kert\u00e9sz utca","ref":"64","id":4351785},"arcs":[1219]},{"type":"LineString","properties":{"kind":"path","sort_rank":354,"kind_detail":"footway","is_bicycle_related":true,"bicycle_shield_text":"7C","bicycle_network":"ncn","source":"openstreetmap.org","min_zoom":8.0,"id":422862501},"arcs":[1220]},{"type":"LineString","properties":{"bus_network":null,"network":null,"sort_rank":380,"kind_detail":"primary","kind":"major_road","source":"openstreetmap.org","min_zoom":8.0,"bus_shield_text":"12A","shield_text":"1","landuse_kind":"urban_area","ref":"1"},"arcs":[1221]},{"type":"LineString","properties":{"kind":"major_road","sort_rank":379,"kind_detail":"secondary","is_bicycle_related":true,"bicycle_shield_text":"EV13","bicycle_network":"icn","source":"openstreetmap.org","min_zoom":8.0,"ref":"L211","id":114435746},"arcs":[1222]},{"type":"LineString","properties":{"kind":"major_road","network":null,"sort_rank":380,"kind_detail":"primary","bus_network":null,"source":"openstreetmap.org","min_zoom":8.0,"bus_shield_text":"37T","shield_text":"821","landuse_kind":"urban_area","ref":"821","id":30133682},"arcs":[1223]},{"type":"LineString","properties":{"kind":"major_road","sort_rank":379,"kind_detail":"secondary","is_bicycle_related":true,"bicycle_shield_text":"EV13","bicycle_network":"icn","source":"openstreetmap.org","min_zoom":8.0,"ref":"L307","id":114435756},"arcs":[1224]},{"type":"LineString","properties":{"kind":"major_road","network":null,"sort_rank":381,"landuse_kind":"urban_area","source":"openstreetmap.org","min_zoom":8.0,"kind_detail":"trunk","shield_text":"19","ref":"M19"},"arcs":[1225]},{"type":"MultiLineString","properties":{"kind":"major_road","network":null,"sort_rank":380,"kind_detail":"primary","source":"openstreetmap.org","min_zoom":8.0,"landuse_kind":"urban_area","shield_text":"1","ref":"1"},"arcs":[[1226],[1227],[1228],[1229],[1230],[1231],[1232],[1233],[1234],[1235],[1236],[1237],[1238],[1239],[1240],[1241]]},{"type":"MultiLineString","properties":{"kind":"major_road","network":"e-road","sort_rank":380,"kind_detail":"primary","source":"openstreetmap.org","min_zoom":8.0,"landuse_kind":"residential","shield_text":"65"},"arcs":[[1242],[1243],[1244],[1245],[1246],[1247]]},{"type":"LineString","properties":{"kind":"major_road","network":null,"sort_rank":380,"kind_detail":"primary","is_bicycle_related":true,"bicycle_shield_text":"B10","bicycle_network":"rcn","source":"openstreetmap.org","min_zoom":8.0,"shield_text":"51","ref":"B51","id":207633246},"arcs":[1248]},{"type":"LineString","properties":{"kind":"major_road","cycleway_left":"lane","network":null,"sort_rank":380,"kind_detail":"primary","is_bicycle_related":true,"bus_network":null,"source":"openstreetmap.org","min_zoom":8.0,"bus_shield_text":"3K","shield_text":"1","landuse_kind":"residential","ref":"1","id":331102858},"arcs":[1249]},{"type":"MultiLineString","properties":{"bus_network":"local","network":null,"sort_rank":380,"kind_detail":"primary","is_bicycle_related":true,"kind":"major_road","bicycle_shield_text":"EV6","cycleway":"lane","source":"openstreetmap.org","min_zoom":8.0,"bus_shield_text":"3","shield_text":"1","landuse_kind":"residential","ref":"1","bicycle_network":"icn"},"arcs":[[1250],[1251]]},{"type":"LineString","properties":{"kind":"path","sort_rank":354,"kind_detail":"pedestrian","is_bicycle_related":true,"bicycle_shield_text":"EV6","bicycle_network":"icn","source":"openstreetmap.org","min_zoom":8.0,"landuse_kind":"urban_area"},"arcs":[1252]},{"type":"MultiLineString","properties":{"bus_network":null,"network":"e-road","sort_rank":380,"kind_detail":"primary","kind":"major_road","source":"openstreetmap.org","min_zoom":8.0,"bus_shield_text":"23","shield_text":"66","landuse_kind":"urban_area","ref":"8"},"arcs":[[1253],[1254],[1255],[1256]]},{"type":"MultiLineString","properties":{"source":"openstreetmap.org","kind":"major_road","kind_detail":"trunk","sort_rank":381,"landuse_kind":"urban_area","min_zoom":8.0},"arcs":[[1257],[1258],[1259]]},{"type":"LineString","properties":{"kind":"major_road","network":null,"sort_rank":380,"kind_detail":"primary","source":"openstreetmap.org","min_zoom":8.0,"landuse_kind":"residential","shield_text":"150","ref":"150","id":39627616},"arcs":[1260]},{"type":"LineString","properties":{"kind":"major_road","network":null,"sort_rank":380,"kind_detail":"primary","source":"openstreetmap.org","min_zoom":8.0,"landuse_kind":"residential","shield_text":"81","ref":"81"},"arcs":[1261]},{"type":"LineString","properties":{"bus_network":"local","bicycle_shield_text":"EV6","min_zoom":8.0,"bus_shield_text":"228","name:hu":"Leh\u00e1r utca","id":117555993,"kind":"major_road","network":"sk:regional","sort_rank":380,"landuse_kind":"residential","is_bicycle_related":true,"bicycle_network":"icn","source":"openstreetmap.org","kind_detail":"primary","shield_text":"64","ref":"64"},"arcs":[1262]},{"type":"LineString","properties":{"bus_network":null,"network":"e-road","sort_rank":380,"kind_detail":"primary","kind":"major_road","source":"openstreetmap.org","min_zoom":8.0,"bus_shield_text":"15","shield_text":"575","landuse_kind":"urban_area","ref":"81"},"arcs":[1263]},{"type":"LineString","properties":{"cycleway_right":"shared_lane","sort_rank":360,"kind_detail":"residential","is_bicycle_related":true,"kind":"minor_road","bicycle_shield_text":"EV6","bicycle_network":"icn","source":"openstreetmap.org","min_zoom":8.0,"landuse_kind":"urban_area","id":412049715},"arcs":[1264]},{"type":"MultiLineString","properties":{"bus_network":null,"network":null,"sort_rank":380,"kind_detail":"primary","kind":"major_road","source":"openstreetmap.org","min_zoom":8.0,"bus_shield_text":"5B","shield_text":"82","landuse_kind":"urban_area","ref":"82"},"arcs":[[1265],[1266],[1267]]},{"type":"MultiLineString","properties":{"kind":"major_road","network":"e-road","sort_rank":380,"kind_detail":"primary","source":"openstreetmap.org","min_zoom":8.0,"landuse_kind":"residential","shield_text":"66","ref":"8"},"arcs":[[1268],[1269]]},{"type":"LineString","properties":{"kind":"major_road","sort_rank":377,"kind_detail":"tertiary","is_bicycle_related":true,"bicycle_shield_text":"EV6","bicycle_network":"icn","source":"openstreetmap.org","min_zoom":8.0},"arcs":[1270]},{"type":"MultiLineString","properties":{"kind":"path","sort_rank":354,"kind_detail":"cycleway","is_bicycle_related":true,"bicycle_shield_text":"7C","bicycle_network":"ncn","source":"openstreetmap.org","min_zoom":8.0},"arcs":[[1271],[1272],[1273],[1274],[1275],[1276],[1277]]},{"type":"MultiLineString","properties":{"bus_network":"local","sort_rank":380,"kind_detail":"primary","kind":"major_road","source":"openstreetmap.org","min_zoom":8.0,"bus_shield_text":"2T","landuse_kind":"residential","ref":"1;13"},"arcs":[[1278],[1279]]},{"type":"LineString","properties":{"kind":"minor_road","sort_rank":360,"kind_detail":"residential","is_bicycle_related":true,"bicycle_shield_text":"EV6","bicycle_network":"icn","source":"openstreetmap.org","min_zoom":8.0,"landuse_kind":"residential","name:hu":"Duna rakpart","id":117556070},"arcs":[1280]},{"type":"MultiLineString","properties":{"kind":"major_road","network":null,"sort_rank":380,"kind_detail":"primary","source":"openstreetmap.org","min_zoom":8.0,"shield_text":"72","ref":"72"},"arcs":[[1281],[1282],[1283],[1284],[1285],[1286],[1287],[1288],[1289],[1290],[1291]]},{"type":"MultiLineString","properties":{"source":"openstreetmap.org","kind":"major_road","sort_rank":381,"kind_detail":"trunk","ref":"M86","min_zoom":8.0},"arcs":[[1292],[1293],[1294]]},{"type":"LineString","properties":{"kind":"major_road","sort_rank":380,"kind_detail":"primary","bus_network":"local","source":"openstreetmap.org","min_zoom":8.0,"bus_shield_text":"2T","landuse_kind":"residential","ref":"1","id":324785261},"arcs":[1295]},{"type":"LineString","properties":{"kind":"major_road","network":null,"sort_rank":380,"kind_detail":"primary","bus_network":null,"source":"openstreetmap.org","min_zoom":8.0,"bus_shield_text":"20Y","shield_text":"82","landuse_kind":"urban_area","ref":"82","id":267297520},"arcs":[1296]},{"type":"MultiLineString","properties":{"kind":"major_road","network":"e-road","sort_rank":381,"kind_detail":"trunk","source":"openstreetmap.org","min_zoom":8.0,"shield_text":"65","ref":"M86"},"arcs":[[1297],[1298]]},{"type":"LineString","properties":{"bus_network":null,"network":null,"sort_rank":380,"kind_detail":"primary","kind":"major_road","source":"openstreetmap.org","min_zoom":8.0,"bus_shield_text":"5K","shield_text":"150","landuse_kind":"residential","ref":"150"},"arcs":[1299]},{"type":"MultiLineString","properties":{"kind":"major_road","network":null,"sort_rank":380,"kind_detail":"primary","source":"openstreetmap.org","min_zoom":8.0,"shield_text":"81","ref":"81"},"arcs":[[1300],[1301],[1302],[1303],[1304],[1305],[1306],[1307],[1308],[1309],[1310],[1311]]},{"type":"LineString","properties":{"kind":"major_road","network":"sk:regional","sort_rank":380,"kind_detail":"primary","bus_network":"MHD Kom\u00e1rno","source":"openstreetmap.org","min_zoom":8.0,"bus_shield_text":"8","shield_text":"64","landuse_kind":"residential","ref":"63;64","id":326019958},"arcs":[1312]},{"type":"LineString","properties":{"kind":"path","sort_rank":354,"kind_detail":"footway","is_bicycle_related":true,"bicycle_shield_text":"EV13","bicycle_network":"icn","source":"openstreetmap.org","min_zoom":8.0,"landuse_kind":"park","name:hu":"Andaui h\u00edd"},"arcs":[1313]},{"type":"MultiLineString","properties":{"kind":"path","sort_rank":354,"landuse_kind":"urban_area","is_bicycle_related":true,"bicycle_shield_text":"019","bicycle_network":"ncn","source":"openstreetmap.org","min_zoom":8.0,"kind_detail":"footway"},"arcs":[[1314],[1315]]},{"type":"MultiLineString","properties":{"kind":"major_road","network":null,"sort_rank":380,"kind_detail":"primary","source":"openstreetmap.org","min_zoom":8.0,"landuse_kind":"urban_area","shield_text":"821","ref":"821"},"arcs":[[1316],[1317],[1318]]},{"type":"LineString","properties":{"kind":"major_road","network":null,"sort_rank":380,"kind_detail":"primary","bus_network":"local","source":"openstreetmap.org","min_zoom":8.0,"bus_shield_text":"3","shield_text":"1","ref":"1","id":323918229},"arcs":[1319]},{"type":"LineString","properties":{"bus_network":null,"network":null,"sort_rank":380,"kind_detail":"primary","kind":"major_road","source":"openstreetmap.org","min_zoom":8.0,"bus_shield_text":"7M","shield_text":"1","landuse_kind":"residential","ref":"1"},"arcs":[1320]},{"type":"MultiLineString","properties":{"kind":"minor_road","sort_rank":358,"landuse_kind":"urban_area","is_bicycle_related":true,"bicycle_shield_text":"EV6","bicycle_network":"icn","source":"openstreetmap.org","min_zoom":8.0,"kind_detail":"service"},"arcs":[[1321],[1322],[1323],[1324],[1325],[1326]]},{"type":"MultiLineString","properties":{"bus_network":"MHD Kom\u00e1rno","sort_rank":380,"kind_detail":"primary","bus_shield_text":"2","kind":"major_road","source":"openstreetmap.org","min_zoom":8.0,"landuse_kind":"residential","name:hu":"Pozsonyi \u00fat","ref":"63"},"arcs":[[1327],[1328],[1329]]},{"type":"LineString","properties":{"bus_network":null,"network":null,"sort_rank":380,"kind_detail":"primary","kind":"major_road","source":"openstreetmap.org","min_zoom":8.0,"bus_shield_text":"22B","shield_text":"83","landuse_kind":"urban_area","ref":"83"},"arcs":[1330]},{"type":"LineString","properties":{"bus_network":null,"network":null,"sort_rank":380,"kind_detail":"primary","kind":"major_road","source":"openstreetmap.org","min_zoom":8.0,"bus_shield_text":"4A","shield_text":"7429","landuse_kind":"residential","ref":"86"},"arcs":[1331]},{"type":"MultiLineString","properties":{"kind":"major_road","network":null,"sort_rank":380,"kind_detail":"primary","source":"openstreetmap.org","min_zoom":8.0,"shield_text":"82","ref":"82"},"arcs":[[1332],[1333],[1334]]},{"type":"MultiLineString","properties":{"kind":"major_road","network":"e-road","sort_rank":380,"kind_detail":"primary","source":"openstreetmap.org","min_zoom":8.0,"shield_text":"575","ref":"81"},"arcs":[[1335],[1336],[1337]]},{"type":"LineString","properties":{"bus_network":null,"network":"e-road","sort_rank":380,"landuse_kind":"urban_area","kind":"major_road","source":"openstreetmap.org","min_zoom":8.0,"bus_shield_text":"38A","shield_text":"575","kind_detail":"primary","ref":"81"},"arcs":[1338]},{"type":"MultiLineString","properties":{"bus_network":"VOR","network":null,"sort_rank":380,"kind_detail":"primary","kind":"major_road","source":"openstreetmap.org","min_zoom":8.0,"bus_shield_text":"296","shield_text":"51","ref":"B51"},"arcs":[[1339],[1340],[1341]]},{"type":"LineString","properties":{"bus_network":null,"network":null,"sort_rank":380,"kind_detail":"primary","kind":"major_road","source":"openstreetmap.org","min_zoom":8.0,"bus_shield_text":"37T","shield_text":"83","landuse_kind":"urban_area","ref":"83"},"arcs":[1342]},{"type":"LineString","properties":{"kind":"major_road","network":"e-road","sort_rank":380,"kind_detail":"primary","source":"openstreetmap.org","min_zoom":8.0,"shield_text":"65","ref":"84;86","id":4292009},"arcs":[1343]},{"type":"MultiLineString","properties":{"kind":"minor_road","sort_rank":360,"kind_detail":"residential","is_bicycle_related":true,"bicycle_shield_text":"7C","bicycle_network":"ncn","source":"openstreetmap.org","min_zoom":8.0},"arcs":[[1344],[1345],[1346],[1347]]},{"type":"LineString","properties":{"bus_network":null,"network":"e-road","sort_rank":380,"kind_detail":"primary","kind":"major_road","source":"openstreetmap.org","min_zoom":8.0,"bus_shield_text":"5","shield_text":"66","landuse_kind":"urban_area","ref":"8"},"arcs":[1348]},{"type":"MultiLineString","properties":{"bus_network":null,"network":null,"sort_rank":380,"kind_detail":"primary","kind":"major_road","source":"openstreetmap.org","min_zoom":8.0,"bus_shield_text":"5R","shield_text":"150","landuse_kind":"residential","ref":"150"},"arcs":[[1349],[1350]]},{"type":"MultiLineString","properties":{"kind":"path","sort_rank":354,"kind_detail":"track","is_bicycle_related":true,"bicycle_shield_text":"002","bicycle_network":"ncn","source":"openstreetmap.org","min_zoom":8.0},"arcs":[[1351],[1352]]}]},"earth":{"type":"GeometryCollection","geometries":[{"type":"Polygon","properties":{"sort_rank":10,"source":"naturalearthdata.com","kind":"earth","min_zoom":0.0,"id":4754},"arcs":[[1353]]}]},"landuse":{"type":"GeometryCollection","geometries":[{"type":"Polygon","properties":{"kind":"park","area":100014000,"sort_rank":24,"source":"openstreetmap.org","min_zoom":7.0,"tier":2,"id":-408001,"osm_relation":true},"arcs":[[1354]]},{"type":"MultiPolygon","properties":{"source":"openstreetmap.org","kind":"residential","tier":2,"area":947237147,"sort_rank":20,"min_zoom":8.0,"osm_relation":true},"arcs":[[[1355]],[[1356]],[[1357],[1358],[1359],[1360],[1361],[1362],[1363]],[[1364],[1365]],[[1366]],[[1367]],[[1368]],[[1369]],[[1370]],[[1371],[1372],[1373]]]},{"type":"MultiPolygon","properties":{"kind":"national_park","protect_class":"5","area":243571343,"sort_rank":18,"source":"openstreetmap.org","min_zoom":8.0,"tier":1,"osm_relation":true},"arcs":[[[1374]],[[1375]]]},{"type":"Polygon","properties":{"kind":"protected_area","protect_class":"4","area":20539400,"sort_rank":17,"source":"openstreetmap.org","min_zoom":8.0,"tier":2,"id":-1216096,"osm_relation":true},"arcs":[[1376]]},{"type":"MultiPolygon","properties":{"kind":"national_park","protect_class":"2","area":8118929,"sort_rank":18,"source":"openstreetmap.org","min_zoom":8.0,"tier":1,"osm_relation":true},"arcs":[[[1377]],[[1378]],[[1379]]]},{"type":"MultiPolygon","properties":{"source":"openstreetmap.org","kind":"park","tier":2,"area":39413311,"sort_rank":24,"min_zoom":8.0,"osm_relation":true},"arcs":[[[1380]],[[1381]],[[1382]]]},{"type":"MultiPolygon","properties":{"source":"openstreetmap.org","kind":"nature_reserve","tier":2,"area":53921246,"sort_rank":23,"min_zoom":8.0,"osm_relation":true},"arcs":[[[1383]],[[1384]]]},{"type":"Polygon","properties":{"source":"openstreetmap.org","kind":"park","area":10673200,"tier":2,"id":165515909,"min_zoom":8.0,"sort_rank":24},"arcs":[[1385]]},{"type":"MultiPolygon","properties":{"source":"naturalearthdata.com","kind":"urban_area","name":"","area":8928926759,"sort_rank":11,"min_zoom":4.0},"arcs":[[[1386]],[[1387]],[[1388]],[[1389]],[[1390]],[[1391]],[[1392]],[[1393]],[[1394]],[[1395]],[[1396]],[[1397]],[[1398]],[[1399]],[[1400]],[[1401]],[[1402]]]},{"type":"MultiPolygon","properties":{"source":"openstreetmap.org","kind":"residential","tier":2,"area":340489035,"sort_rank":20,"min_zoom":8.0},"arcs":[[[1403]],[[1404]],[[1405]]]},{"type":"MultiPolygon","properties":{"source":"openstreetmap.org","kind":"aerodrome","tier":3,"area":22038372,"sort_rank":60,"min_zoom":8.0,"osm_relation":true},"arcs":[[[1406],[1407]]]},{"type":"MultiPolygon","properties":{"source":"openstreetmap.org","kind":"military","tier":3,"area":645926769,"sort_rank":45,"min_zoom":8.0,"osm_relation":true},"arcs":[[[1408]]]},{"type":"Polygon","properties":{"kind":"national_park","protect_class":"5","area":108949000,"sort_rank":18,"source":"openstreetmap.org","min_zoom":7.0,"tier":1,"id":-4610709,"osm_relation":true},"arcs":[[1409]]}]}},"type":"Topology","transform":{"translate":[16.875,47.0401821448],"scale":[0.0003433228,0.00023187]},"arcs":[[[742,4096],[-102,-82],[65,-43],[-76,-114],[63,-31],[-50,-99],[25,-22],[-55,-107],[-21,13],[-110,-46],[-65,7],[-23,-43],[122,-89],[-14,-41],[80,-86],[-68,-62],[47,-117],[9,-167],[66,-86],[-526,-89],[-109,4]],[[4096,2991],[-175,37],[-130,-6],[-261,68],[-142,4],[-98,-49],[-98,50],[-70,-57],[-136,-23],[-99,28],[-251,-27],[-50,43],[-158,31],[-51,72],[-168,123],[-73,86],[-119,-29],[-119,217],[-85,9],[-127,77],[-62,153],[-86,117],[-78,46],[-110,135]],[[0,2796],[109,-4],[526,89],[-66,86],[-9,167],[-47,117],[68,62],[-80,86],[14,41],[-122,89],[23,43],[65,-7],[110,46],[21,-13],[55,107],[-25,22],[50,99],[-63,31],[76,114],[-65,43],[102,82]],[[4096,2991],[-175,37],[-130,-6],[-261,68],[-142,4],[-98,-49],[-98,50],[-70,-57],[-136,-23],[-99,28],[-247,-28],[-54,44],[-158,31],[-51,72],[-168,123],[-73,86],[-119,-29],[-119,217],[-85,9],[-127,77],[-62,153],[-86,117],[-78,46],[-109,135]],[[4096,2906],[-84,59],[-223,35],[-134,53],[-70,6],[-229,-133],[-339,-34],[-585,-116],[-188,5],[-118,-54],[-81,3],[-923,781],[-634,471],[-290,111],[-198,-10]],[[2220,2772],[-13,-7]],[[789,3767],[5,-4],[-12,10],[5,-4],[2,-2]],[[1146,3486],[-8,9],[0,-1],[8,-8]],[[0,4084],[75,7],[6,5]],[[4096,2908],[-76,56],[-231,36],[-179,59]],[[4096,2908],[-76,56],[-231,37],[-131,51],[-73,7],[-229,-133],[-339,-34],[-585,-116],[-217,-7]],[[0,4083],[75,8],[6,5]],[[4096,2946],[-26,-9],[-460,122]],[[932,4096],[37,-73],[-144,-195],[-82,-6],[49,-56]],[[3662,3051],[-4,1]],[[3658,3052],[-17,3]],[[3641,3055],[-15,2]],[[3626,3057],[-16,3]],[[3610,3060],[-5,0]],[[3605,3060],[-4,0]],[[3669,3050],[-7,1]],[[3683,3046],[-5,1]],[[3678,3047],[-9,3]],[[3683,3046],[17,-30],[-81,-128],[-173,-119],[-61,-540],[-88,-173],[81,-142],[102,-71],[309,-339],[30,-75],[277,-333]],[[4096,2946],[-26,-9],[-387,109]],[[4096,2906],[-84,59],[-223,35],[-134,53],[-70,6],[-229,-133],[-339,-34],[-582,-115],[-220,-8]],[[0,4083],[198,10],[287,-109],[637,-473],[882,-760],[101,-27],[43,11],[66,35]],[[434,4002],[8,-3]],[[2220,2772],[-11,-5]],[[616,3892],[-4,3],[4,-3]],[[4096,2910],[0,1]],[[4096,2911],[-4,3]],[[4092,2914],[-1,1]],[[4091,2915],[-4,3]],[[4087,2918],[-3,3]],[[4084,2921],[-2,2]],[[4082,2923],[-2,1]],[[4080,2924],[-1,1]],[[4079,2925],[-1,1]],[[4078,2926],[-2,1]],[[4076,2927],[-1,1]],[[4075,2928],[-1,2]],[[4074,2930],[-1,0]],[[4073,2930],[-1,1]],[[4072,2931],[-2,2]],[[4070,2933],[-1,1]],[[4069,2934],[-1,0]],[[4068,2934],[-2,2]],[[4066,2936],[-1,1]],[[4065,2937],[-1,1]],[[4064,2938],[-1,2]],[[4063,2940],[-2,1]],[[4061,2941],[-5,4]],[[4056,2945],[-1,1]],[[4055,2946],[-2,1]],[[4053,2947],[-1,1]],[[4052,2948],[-1,1]],[[4051,2949],[-3,1]],[[4048,2950],[-1,1]],[[4047,2951],[-1,0]],[[4046,2951],[-1,0]],[[4045,2951],[-3,2]],[[4042,2953],[-3,1]],[[4039,2954],[-14,8]],[[4025,2962],[-1,0]],[[4024,2962],[-2,1]],[[4022,2963],[-2,1]],[[4020,2964],[-1,0]],[[4019,2964],[-3,1]],[[4016,2965],[-2,0]],[[4014,2965],[-2,1]],[[4012,2966],[-2,1]],[[4010,2967],[-3,0]],[[4007,2967],[-2,1]],[[4005,2968],[-2,0]],[[4003,2968],[-1,0]],[[4002,2968],[-1,1]],[[4001,2969],[-2,0]],[[3999,2969],[-2,0]],[[3997,2969],[-3,0]],[[3994,2969],[-1,0]],[[3993,2969]],[[3993,2969],[-3,0]],[[3990,2969],[-2,1]],[[3988,2970],[-4,0]],[[3984,2970],[-5,0]],[[3979,2970],[-3,1]],[[3976,2971],[-2,0]],[[3974,2971],[-3,0]],[[3971,2971],[-4,0]],[[3967,2971],[-4,1]],[[3963,2972],[-5,0]],[[3958,2972],[-5,1]],[[3953,2973],[-5,0]],[[3948,2973],[-2,0]],[[3946,2973],[-1,1]],[[3945,2974],[-2,0]],[[3943,2974],[-1,0]],[[3942,2974],[-1,0]],[[3941,2974],[-1,0]],[[3940,2974]],[[3940,2974],[-1,0]],[[3939,2974],[-1,1]],[[3938,2975],[-3,0]],[[3935,2975],[-2,1]],[[3933,2976],[-1,0]],[[3932,2976],[-2,0]],[[3930,2976],[-2,1]],[[3928,2977],[-3,0]],[[3925,2977],[-3,1]],[[3922,2978],[-3,1]],[[3919,2979],[-4,0]],[[3915,2979],[-3,1]],[[3912,2980],[-4,1]],[[3908,2981],[-9,1]],[[3899,2982],[-5,1]],[[3894,2983],[-3,1]],[[3891,2984],[-3,0]],[[3888,2984],[-1,1]],[[3887,2985],[-1,0]],[[3886,2985]],[[3886,2985],[-18,3]],[[3868,2988]],[[3868,2988],[-17,3]],[[3851,2991],[-39,7]],[[3812,2998],[-6,1]],[[3806,2999],[-13,1]],[[3793,3000],[-4,0]],[[3789,3000],[-7,3]],[[3782,3003],[-39,18]],[[3743,3021],[-44,20]],[[3699,3041],[-6,2]],[[3693,3043],[-8,2]],[[3685,3045],[-2,1]],[[3683,3046],[-5,1]],[[3678,3047],[-9,2]],[[3669,3049],[-7,2]],[[3662,3051],[-7,2]],[[3655,3053],[-27,4]],[[3628,3057],[-5,0]],[[3623,3057],[-13,2]],[[3610,3059],[-4,0]],[[3606,3059],[-5,1]],[[3601,3060],[-8,0]],[[3593,3060],[-2,0]],[[3591,3060],[-1,0]],[[3590,3060]],[[3590,3060],[-2,0]],[[3588,3060],[-3,-1]],[[3585,3059],[-1,-1]],[[3584,3058],[-1,0]],[[3583,3058],[-3,-2]],[[3580,3056],[-2,-2]],[[3578,3054]],[[3578,3054],[-1,-1]],[[3577,3053],[-2,-1]],[[3575,3052],[-4,-3]],[[3571,3049],[-5,-3]],[[3566,3046],[-36,-21]],[[3530,3025],[-67,-40]],[[3463,2985],[-83,-49]],[[3380,2936],[-13,-6]],[[3367,2930],[-11,-4]],[[3356,2926],[-10,-1]],[[3346,2925],[-6,-1]],[[3340,2924],[-6,0]],[[3334,2924],[-10,-1]],[[3324,2923],[-1,0]],[[3323,2923],[-33,-3]],[[3290,2920],[-33,-4]],[[3257,2916],[-16,-3]],[[3241,2913],[-16,-1]],[[3225,2912],[-53,-5]],[[3172,2907],[-155,-15]],[[3017,2892],[-11,-2]],[[3006,2890],[-94,-19]],[[2912,2871]],[[2912,2871],[-4,-1]],[[2908,2870],[-4,-1]],[[2904,2869],[-4,0]],[[2900,2869],[-8,-2]],[[2892,2867],[-8,-1]],[[2884,2866],[-12,-3]],[[2872,2863],[-12,-2]],[[2860,2861]],[[2860,2861],[-12,-3]],[[2848,2858],[-25,-4]],[[2823,2854],[-3,-1]],[[2820,2853],[-1,0]],[[2819,2853],[-231,-46]],[[2588,2807],[-23,-5]],[[2565,2802],[-2,0]],[[2563,2802],[-6,-2]],[[2557,2800],[-20,-4]],[[2537,2796],[-17,-3]],[[2520,2793],[-1,0]],[[2519,2793],[-1,0]],[[2518,2793],[-5,-1]],[[2513,2792],[-68,-14]],[[2445,2778],[-4,0]],[[2441,2778],[-6,-1]],[[2435,2777],[-3,-1]],[[2432,2776],[-3,0]],[[2429,2776],[-5,-1]],[[2424,2775],[-4,0]],[[2420,2775],[-3,0]],[[2417,2775],[-3,0]],[[2414,2775],[-4,-1]],[[2410,2774],[-4,0]],[[2406,2774],[-4,0]],[[2402,2774],[-4,0]],[[2398,2774],[-53,3]],[[2345,2777],[-2,0]],[[2343,2777],[-10,0]],[[2333,2777],[-1,0]],[[2332,2777],[-33,2]],[[2299,2779],[-6,0]],[[2293,2779],[-4,0]],[[2289,2779],[-4,0]],[[2285,2779],[-2,1]],[[2283,2780],[-34,1]],[[2249,2781],[-1,0]],[[2248,2781],[-1,0]],[[2247,2781],[-1,0]],[[2246,2781],[-2,0]],[[2244,2781],[-1,0]],[[2243,2781],[-2,-1]],[[2241,2780],[-1,0]],[[2240,2780],[-2,-1]],[[2238,2779],[-2,0]],[[2236,2779],[-1,-1]],[[2235,2778],[-3,-1]],[[2232,2777],[-1,0]],[[2231,2777],[-2,0]],[[2229,2777],[-1,-1]],[[2228,2776],[-1,0]],[[2227,2776],[-3,-2]],[[2224,2774],[-2,-1]],[[2222,2773],[-2,-1]],[[2220,2772],[-5,-3]],[[3610,3059],[-254,-133],[-339,-34],[-582,-115],[-220,-8]],[[4096,1096],[-277,333],[-30,75],[-309,339],[-102,71],[-81,142],[88,173],[61,540],[169,115],[87,136],[-19,26],[-82,14]],[[4096,2908],[-76,56],[-419,96]],[[4096,3940],[-117,81],[-153,61],[-16,14]],[[3810,4096],[16,-14],[153,-62],[117,-81]],[[0,4083],[195,11],[277,-103],[310,-218]],[[4096,2907],[-85,59],[-222,35],[-131,51],[-73,7],[-229,-133],[-339,-34],[-585,-116],[-188,5],[-118,-53],[-81,3],[-1240,1024]],[[2220,2772],[-13,-7]],[[790,3767],[-7,5],[14,-10],[-7,5]],[[1139,3495],[8,-8],[-8,8]],[[3662,3051],[-4,1]],[[3658,3052],[-17,3]],[[3641,3055],[-15,2]],[[3626,3057],[-16,3]],[[3610,3060],[-5,0]],[[3605,3060],[-4,0]],[[3669,3050],[-7,1]],[[3683,3046],[-5,1]],[[3678,3047],[-9,3]],[[3685,3045],[-2,1]],[[3685,3045],[15,-29],[-81,-128],[-173,-119],[-61,-540],[-88,-173],[81,-142],[102,-71],[309,-339],[30,-75],[277,-333]],[[4096,2946],[-26,-9],[-385,108]],[[4096,2908],[-76,56],[-231,37],[-131,51],[-73,7],[-229,-133],[-339,-34],[-585,-116],[-217,-7]],[[0,4083],[207,8],[70,-41],[21,-10],[183,-54],[161,-112]],[[0,4083],[182,12],[6,0],[7,-1],[7,-1],[5,-2],[5,-2],[8,-4],[58,-35],[20,-9],[163,-46],[11,-4],[9,-5],[7,-4],[4,-3],[150,-105]],[[2214,2770],[-66,-35],[-43,-11],[-101,27],[-882,760],[-637,473],[-286,109],[-199,-10]],[[436,4002],[-7,1]],[[2220,2772],[-11,-5]],[[617,3892],[-5,4],[5,-4]],[[3373,0],[1,2],[11,70],[28,15],[63,-11],[127,-47],[48,-29],[-278,0]],[[3373,0],[1,2],[11,70],[28,15],[63,-11],[127,-47],[48,-29]],[[854,3755],[-80,34]],[[1186,3476],[-1,13]],[[1195,3460],[-6,7]],[[3656,3082],[39,-13],[-4,32]],[[451,3166],[10,11]],[[1092,3503],[-72,-57]],[[178,3651],[5,-2]],[[113,2879],[50,57]],[[2290,2608],[-8,26]],[[3121,474],[-46,117]],[[293,859],[-2,1]],[[291,859],[2,0]],[[773,949],[-119,38],[-124,-37],[-144,-97],[-93,6]],[[1661,1211],[-213,-120],[-31,-47],[-161,-43],[-278,77],[-121,-82]],[[1661,1211],[2,1]],[[1662,1212],[-1,-1]],[[2272,2668],[-20,34]],[[2273,2666],[-1,0]],[[2273,2665],[11,-20]],[[2284,2646],[-1,0]],[[985,3591],[58,-50]],[[1043,3541],[32,-27]],[[1075,3515],[-32,26]],[[1043,3541],[-57,48]],[[3679,4037]],[[69,1383],[-2,0]],[[68,1382],[1,1]],[[1075,2210],[62,-137],[-282,-198],[-82,10],[-144,-89],[-88,-131],[-111,-17],[-130,-117],[-231,-148]],[[1020,3446],[-244,-202],[232,-261],[18,-97],[62,-78]],[[1074,2211],[-6,7]],[[1076,2422],[-8,-203]],[[1075,2210],[0,1],[-1,0]],[[1074,2211],[-1,-1],[2,0]],[[1089,2807],[5,-249]],[[1095,2556],[1,-5]],[[1105,2507],[0,-2]],[[1066,2219],[1,-1],[1,1]],[[1068,2219],[-1,1],[-1,-1]],[[1095,2556],[0,2],[-1,-1],[0,-1],[1,0]],[[2211,2775],[-6,-3]],[[3553,3046],[23,8]],[[3580,3053],[1,0]],[[3626,3030],[-2,2]],[[3660,3011],[19,-3]],[[3679,3008],[11,-2]],[[3837,2993],[15,-4]],[[2215,2777],[-4,-2]],[[2234,2787],[-4,-3]],[[3627,3055]],[[1751,1215],[-37,-26]],[[1794,1233],[-41,-18]],[[1752,1214],[0,1],[-1,0],[0,-1],[1,0]],[[1168,3529],[-27,66]],[[1185,3495],[-16,29]],[[1185,3495],[-1,-2]],[[1185,3493],[0,2]],[[1109,3473],[171,-211],[260,-167],[558,-441]],[[2097,2655],[-557,440],[-262,169],[-168,209]],[[2197,2593],[119,-37],[4,0],[30,13],[116,74],[113,54],[132,90],[382,-32],[220,17],[131,-31],[84,-6],[270,-61]],[[3798,2674],[3,0],[1,-1]],[[3802,2673],[241,-138],[2,0],[16,-2]],[[4061,2533],[35,-3]],[[4096,2529],[-35,4]],[[4061,2533],[-16,2],[-2,1],[-236,136],[-5,1]],[[3802,2673],[-4,1]],[[3798,2674],[-240,63],[-243,36],[-223,-17],[-381,31],[-391,-230],[-123,36]],[[3682,3116]],[[3513,3021],[40,25]],[[3576,3054],[4,-1]],[[110,2792],[-6,42]],[[159,3459]],[[159,3458]],[[193,3208]],[[2898,69],[1,-1]],[[64,1384],[-64,114]],[[64,1384],[2,-2]],[[66,1383],[-2,1]],[[155,1151],[-68,210]],[[139,1060],[7,42]],[[290,862],[-14,58]],[[289,860],[0,-1]],[[290,862],[0,-2]],[[290,860],[0,2]],[[290,858],[1,0]],[[448,615],[-99,172]],[[752,334],[-273,226]],[[752,334],[0,-2]],[[753,332],[-1,2]],[[754,330],[2,-1]],[[756,329],[-1,2]],[[1012,0],[-105,196],[-151,133]],[[163,2995],[1,-9]],[[194,3208]],[[90,3706],[4,-3]],[[2225,3192],[6,9]],[[2241,3082],[-16,110]],[[2261,3248],[-30,-47]],[[4060,2945],[9,-9]],[[2270,486],[-2,1]],[[2273,2769],[0,-1]],[[2285,2757],[1,-2]],[[3627,3058],[0,-3]],[[289,2359],[3,-1]],[[333,2364],[-5,-1]],[[1380,2588],[2,0]],[[1700,2648],[1,-2]],[[1701,2646],[0,2]],[[1703,2642],[-2,4]],[[1961,2744],[8,3]],[[1701,2648],[0,1],[-1,1],[-1,-1],[2,-1]],[[2832,2984],[80,-116]],[[2242,3010],[2,0]],[[2244,3010],[-2,0]],[[2289,3007],[-45,3]],[[2291,3008],[-2,-1]],[[2289,3007],[2,0]],[[2293,3007],[1,1]],[[2294,3008],[-1,0]],[[2327,3005],[-33,3]],[[2327,3005],[2,-2]],[[2329,3004],[-2,1]],[[2330,3003],[2,-1]],[[2332,3002],[-1,1]],[[2414,2950],[-82,52]],[[2414,2950],[1,-2]],[[2416,2948],[-2,2]],[[2416,2946],[1,-1]],[[2417,2945],[0,2]],[[2428,2924],[-11,21]],[[2428,2924],[2,-2]],[[2430,2923],[-2,1]],[[2431,2921],[1,-1]],[[2432,2920],[0,1]],[[2438,2911],[-6,9]],[[2440,2911],[-2,0]],[[2438,2911],[2,-1]],[[2441,2909],[1,-1]],[[2442,2908],[0,2]],[[2452,2875],[-10,33]],[[2452,2875],[-1,-3]],[[2451,2872],[3,-2]],[[2453,2873],[-1,2]],[[2454,2870],[-1,2]],[[2455,2819],[-1,51]],[[2455,2819],[0,-1]],[[2455,2815],[1,-1]],[[2456,2818],[-1,1]],[[2456,2814],[0,1]],[[2456,2814],[3,-14]],[[2292,3009],[-1,-1],[1,-1],[1,1],[-1,1]],[[2330,3004],[-1,-1],[1,-1],[1,2],[-1,0]],[[2430,2922],[1,-1]],[[2431,2921],[1,1],[-1,1],[-1,-1]],[[2440,2912],[-1,-2],[2,-1]],[[2441,2909],[1,2],[-2,1]],[[574,3872],[1,-1]],[[1119,3515],[-27,-12]],[[892,3731],[-7,-2]],[[1706,2641],[-2,-1]],[[64,1380],[-64,-56]],[[64,1380],[2,1]],[[65,1382],[-1,-2]],[[3373,125],[-45,-118]],[[3373,125],[2,1]],[[3374,127],[-1,-2]],[[3376,128],[-1,1],[-1,-2]],[[3374,127],[2,-1],[0,2]],[[0,246],[22,20],[47,-24],[216,50],[141,-54]],[[426,238],[11,-2]],[[432,237],[-6,1]],[[562,248],[188,83]],[[750,331],[3,0]],[[752,332],[-2,-1]],[[756,332],[-1,0]],[[755,331],[1,1]],[[756,332],[81,-29],[133,42],[276,-1],[128,49],[274,-85],[208,91]],[[1945,424],[73,18]],[[2128,454],[139,32],[220,-65]],[[2487,421],[41,-28],[214,-68],[49,20],[35,-19]],[[2826,327],[-30,17],[-4,1],[-12,0],[-38,-19],[-79,34],[-55,15],[-80,18],[-41,28]],[[2902,259],[4,-7]],[[2934,211],[55,-47]],[[3016,160],[18,4]],[[3151,268],[60,29]],[[3211,297],[130,113],[138,55],[8,12]],[[3487,477],[18,24]],[[3505,501],[2,4],[4,9],[41,45]],[[3552,560],[-36,-37],[-8,-17],[-3,-5]],[[3505,501],[-12,-20],[-2,-3],[-4,-1]],[[3487,477],[-120,-55],[-60,-29],[-96,-96]],[[3801,683],[8,-1]],[[3841,677],[-5,0]],[[3836,677],[-10,1],[-7,2]],[[3824,678],[12,-1]],[[3836,677],[9,0]],[[4096,730],[-8,-3],[-69,-45],[-27,-4],[-24,7],[-77,4]],[[3891,689],[101,-11],[27,3],[77,33]],[[162,3899],[-78,-90]],[[1086,2327],[16,-5]],[[3637,3093],[-2,-3]],[[3664,4034],[11,-1]],[[753,331],[1,-1],[1,1],[-2,1],[0,-1]],[[3627,3055],[-1,-7]],[[2273,2768],[1,-1]],[[2218,2840],[-8,22]],[[2239,3009],[-26,-89]],[[2239,3009],[1,0]],[[2240,3010],[-1,-1]],[[2240,3009],[2,1],[-1,1]],[[2241,3011],[-1,0],[0,-2]],[[2241,3012],[0,-1]],[[2241,3012],[0,70]],[[2241,3011],[0,1]],[[1706,1180],[-1,-1]],[[1706,1179],[0,1]],[[1714,1189],[-8,-9]],[[1901,1272],[-95,-31]],[[2738,1755],[-180,-64],[-83,-143],[-107,-97],[-233,-71],[-64,8],[-64,-83],[-69,-21]],[[236,2908],[-57,46]],[[445,3133],[-7,-24],[149,-232]],[[552,3664],[9,-40],[-89,-54]],[[580,3847],[31,-66],[-47,-95]],[[349,787],[-60,72]],[[479,560],[-31,55]],[[3075,274]],[[3075,276]],[[986,3589],[-38,31]],[[948,3620],[-36,31]],[[913,3649],[35,-29]],[[948,3620],[27,-21],[10,-8]],[[3611,2927],[-87,-236],[16,-68],[-21,-74],[-65,-122],[-7,-108],[39,-142],[-81,-166]],[[3622,2988],[-11,-59]],[[3581,3053],[13,-6]],[[3610,3040],[1,-1]],[[202,3585],[0,-2]],[[2451,2872]],[[2452,2871],[0,2]],[[915,2379],[-3,44]],[[3818,680]],[[913,2424],[-2,1],[0,-1],[1,-1]],[[912,2423],[1,1]],[[915,2378],[2,-1],[0,2],[-1,0],[-1,-1]],[[3392,3125],[-68,9]],[[3594,3047],[12,-6]],[[3607,3041],[3,-1]],[[3611,3039],[10,-6]],[[3621,3033],[2,-1]],[[3623,3032],[-2,1]],[[2208,2731],[-8,8]],[[2922,969],[-6,13]],[[2293,2750],[-45,42]],[[2336,2732],[-16,4]],[[2268,2814],[-19,-13]],[[2029,2768],[-30,-10]],[[2029,2771],[0,-2]],[[2029,2768],[1,2],[-1,-1],[0,-1]],[[2030,2769],[1,0]],[[3652,3113],[-5,-5],[-5,-7]],[[3642,3101],[12,14]],[[489,3179],[36,1]],[[3917,2981],[100,-14]],[[1077,2463],[-1,0]],[[373,4067],[18,-17]],[[3809,682],[5,-1]],[[3891,689],[-50,-12]],[[3845,677],[46,12]],[[87,2853],[4,-4]],[[624,4096],[-57,-113],[-1,-91]],[[563,3882],[2,1]],[[1119,3610],[-1,1]],[[3654,3116],[-1,-1]],[[3662,3116],[-7,0]],[[3655,3115],[7,1]],[[598,3868],[2,-1]],[[600,3867],[-2,1]],[[600,3867],[26,-10]],[[2242,2797],[-5,5]],[[153,3664],[30,-15]],[[154,3432],[0,-1]],[[155,3429],[39,-77],[-2,-115]],[[192,3236],[0,1]],[[192,3236],[0,-27]],[[192,3209],[1,-1]],[[193,3209],[-1,0]],[[4096,3021]],[[2454,2816]],[[2454,2817]],[[194,3188],[-31,-193]],[[196,3196],[-2,-8]],[[195,3208],[1,-10]],[[196,3198],[0,-2]],[[2739,3054],[7,-1]],[[160,3462],[-1,-3]],[[159,3456],[0,2]],[[162,3467],[0,3]],[[2248,2792],[-3,2]],[[857,996],[-84,-47]],[[1662,1213],[0,-1]],[[1663,1212]],[[295,3582],[111,-27]],[[2273,2667],[-1,-1]],[[2273,2666]],[[2283,2646],[-1,1]],[[2251,2702],[1,0],[0,1],[-1,-1]],[[3713,3116],[-7,-3]],[[2979,187],[-3,-4]],[[3706,3113],[-2,0]],[[1155,3626],[0,-3]],[[1212,3627],[-55,-8]],[[3593,3046],[14,-7]],[[3611,3038],[79,-32]],[[2217,2698],[-1,5]],[[565,3883],[30,-14]],[[595,3869],[3,-1]],[[598,3868],[-3,1]],[[373,4075],[1,-5]],[[410,4009],[18,-24]],[[37,3762],[-37,43]],[[37,3762],[1,-2]],[[39,3759],[-2,3]],[[1140,3666],[-69,141]],[[1284,3647],[-72,-20]],[[1284,3647],[7,6]],[[1296,3655],[-5,-2]],[[1804,3758],[13,-12]],[[1805,3771],[60,-58]],[[1872,3707],[52,-50]],[[1900,3649],[25,-30]],[[1947,3638],[-25,24]],[[1951,3628],[48,-62]],[[2199,2853],[-4,41],[-128,100]],[[2200,2821],[0,1]],[[2204,2810],[3,-9]],[[2212,2790],[1,-2]],[[2213,2788],[2,-3]],[[2215,2785],[-2,3]],[[2213,2788],[0,1]],[[2240,2794],[6,5]],[[2246,2799],[3,2]],[[2247,2800],[-1,-1]],[[2286,2829],[-18,-14]],[[2338,2901],[81,47]],[[2441,2953],[38,6]],[[3580,3060],[22,2]],[[3588,3048],[5,-2]],[[3607,3039],[4,-1]],[[3704,3112],[4,-36],[63,-34],[210,-5],[115,-29]],[[3920,2983],[-111,14]],[[2815,2988],[17,-4]],[[3630,3074],[-1,-7]],[[194,3209]],[[3704,3113],[-14,2]],[[2321,2863],[1,1]],[[2323,2864],[1,1]],[[2459,2800],[8,-34]],[[2467,2764],[1,-1]],[[2467,2766],[1,-2]],[[2469,2765],[-2,1]],[[2468,2763],[2,-2]],[[2469,2764]],[[2470,2761],[-1,2]],[[2470,2761],[32,-52]],[[2502,2709],[0,-1]],[[2503,2708],[-1,1]],[[1805,3389],[0,-1]],[[2213,2920],[-3,-58]],[[2240,2696],[2,1]],[[2273,2769]],[[2286,2754],[1,-1]],[[2288,2753],[3,-2]],[[589,2873],[-100,-16]],[[588,2875]],[[3328,7],[-1,-7]],[[1698,3418],[-4,-4]],[[1802,3389],[1,0]],[[1803,3390],[0,-1]],[[1803,3389],[1,0]],[[1919,3161],[21,-24]],[[3528,3100],[6,0]],[[4011,2969],[-22,3]],[[3853,2989],[64,-8]],[[4017,2967],[28,-12]],[[2884,3049],[3,18]],[[3069,2896],[197,19]],[[3463,2985],[-1,1]],[[3350,3957],[230,53]],[[461,3177],[28,2]],[[203,977]],[[2205,2772],[-64,-29],[-68,8]],[[2324,2866],[0,2]],[[875,3806],[-19,143]],[[3622,3131],[-2,0]],[[391,4050],[10,-24]],[[1155,3623],[0,-1]],[[167,3417],[-1,2]],[[3723,3135],[373,-114]],[[130,980],[-71,-38]],[[143,980],[-13,0]],[[172,990],[-29,-10]],[[1072,3807],[-136,289]],[[2221,2766],[-2,3]],[[3643,3122],[-2,1]],[[2283,2643],[1,2]],[[2511,3256],[-109,-18],[-43,39],[-62,-7]],[[2577,3220],[-23,17]],[[2668,3105],[-6,58],[-64,-10],[-12,25]],[[2920,3059],[-80,8],[-28,39],[-92,-32],[-44,23]],[[2240,2796],[1,-1]],[[193,3209],[0,-1]],[[194,3208]],[[1138,3519],[-19,-4]],[[1989,2801],[-89,68]],[[370,2837],[0,-1]],[[3553,3128],[-161,-3]],[[2900,51],[-67,-51]],[[2337,2732],[2,-1]],[[2242,2697],[3,2]],[[3933,1333],[-1,1]],[[1141,3664],[-69,143]],[[1820,1955],[-15,-23]],[[2021,2232],[-44,-52]],[[3223,3836],[5,5]],[[149,3431],[5,1]],[[149,3431],[-1,0],[1,0]],[[401,4026],[9,-17]],[[3057,93],[-27,69]],[[2067,4089],[-15,7]],[[2235,4057],[-25,-7]],[[3629,3067],[-2,-9]],[[97,3701],[1,0],[-1,0]],[[1490,4070],[0,1]],[[3580,4010],[84,24]],[[3553,3128]],[[3553,3128],[1,0],[0,1],[-1,-1]],[[3565,3128]],[[3587,3126],[-1,0]],[[2287,2756],[-1,-2]],[[3809,2997],[28,-4]],[[3852,2989],[1,0]],[[3731,3001],[21,-2]],[[3774,2998],[17,-1]],[[3589,3125],[31,6]],[[1107,3618],[-3,1]],[[406,3555],[80,6]],[[1149,2477],[-43,-9]],[[1925,3619],[42,15]],[[193,3208]],[[194,3209],[-1,0]],[[193,3208],[1,0]],[[194,3208],[0,1]],[[3304,3764],[-5,8]],[[1152,3637],[0,-1]],[[204,3608],[-20,-71]],[[199,3636]],[[199,3637],[0,-1]],[[3624,3032],[-1,0]],[[1152,2396],[-26,-51],[-5,-10],[-25,-69]],[[1096,2266],[-14,-39],[-3,-3]],[[1079,2224],[-4,-5],[-16,-13],[-89,-99],[-82,-69],[-3,-4]],[[885,2034],[-67,-79]],[[818,1955],[-22,-25],[-34,-63],[-207,-207],[-155,-71],[-102,-98],[-211,-122]],[[87,1368],[211,122],[105,100],[65,26],[72,30],[16,13],[207,208],[34,63],[21,25]],[[818,1955],[56,70],[4,3],[7,6]],[[885,2034],[1,1],[8,6],[61,52],[15,13],[108,116],[1,2]],[[1079,2224],[17,42]],[[1096,2266],[19,48],[11,31],[27,50]],[[1095,2557],[52,-29]],[[1147,2528],[28,-43],[-22,-87]],[[1181,2486],[-14,28],[-20,14]],[[1154,2398],[27,85]],[[3610,2928],[-74,108]],[[2242,2795],[4,-2]],[[2912,955],[-6,9]],[[1558,3968],[96,-82]],[[2178,3343],[89,-67]],[[2416,3186],[124,-91]],[[3623,3032],[1,-1]],[[3623,3032]],[[3624,3031],[0,1]],[[103,2836],[10,43]],[[179,2954],[-16,-18]],[[2469,2764],[-2,0]],[[2468,2763],[1,1]],[[646,3845],[-12,-21]],[[2219,2769],[-2,4]],[[3082,257],[-3,8]],[[3080,283],[30,48]],[[3110,331],[0,2]],[[3110,333],[11,141]],[[159,3453],[-10,-17]],[[2222,2676],[-11,-18]],[[2242,2795]],[[3579,3058],[-3,-4]],[[3076,272],[1,6]],[[3079,265],[-3,7]],[[3077,278],[2,4]],[[3079,282],[1,1]],[[3080,283]],[[0,2923],[86,-70]],[[113,2879],[50,57]],[[191,982],[-9,5]],[[449,2382],[-1,0]],[[2121,2579],[-17,-27]],[[1096,2551],[9,-44]],[[2976,183],[-62,-97]],[[2123,2581],[-1,-1]],[[10,260],[-10,4]],[[2200,2822],[-1,31]],[[2204,2810],[-4,11]],[[160,984],[10,5]],[[1189,3467],[-3,9]],[[3653,3115],[1,0]],[[3662,3116],[20,0]],[[687,3814],[32,-28]],[[718,3788],[-31,26]],[[912,3651],[-19,18]],[[893,3664],[20,-15]],[[3328,49],[-9,-24]],[[3328,8],[5,-5]],[[1704,2640],[1,-2]],[[1705,2639],[69,44],[77,7]],[[71,3726],[16,-18]],[[103,3697],[29,-20]],[[404,2374],[-109,-16],[-170,45],[-125,-34]],[[911,2424],[-199,-51],[-225,4]],[[1013,2450],[-100,-26]],[[1073,2462],[-5,-1]],[[1229,2500],[-79,-23]],[[1229,2500],[2,1]],[[1230,2502],[-1,-2]],[[1232,2505],[-1,-2]],[[1232,2503],[0,2]],[[1241,2515],[-9,-10]],[[1241,2515],[2,0]],[[1243,2516],[-2,-1]],[[1244,2515],[2,0]],[[1246,2515],[-2,1]],[[1290,2528],[-44,-13]],[[1382,2588],[-84,-55]],[[1383,2586],[1,2],[-1,0],[-1,-1],[1,-1]],[[1384,2578],[-1,8]],[[1703,2635],[-318,-58]],[[1703,2635],[1,2]],[[1703,2637],[0,-2]],[[1704,2640],[-1,-1]],[[1705,2639],[-1,1]],[[1705,2638],[0,1]],[[1959,2745],[-108,-55]],[[1959,2745],[2,-1]],[[1969,2747],[-8,-3]],[[1969,2747],[2,1]],[[1999,2758],[-28,-10]],[[1230,2501],[2,1],[-1,1],[-1,0],[0,-2]],[[1243,2515],[1,0],[0,1],[-1,0],[0,-1]],[[1383,2577],[1,-1],[1,1]],[[1385,2577],[-2,1],[0,-1]],[[2248,2792],[-8,4]],[[2508,2904],[183,-102]],[[1806,1241],[-12,-8]],[[1938,1284],[-37,-12]],[[1077,2461],[-1,-39]],[[1077,2462],[0,-1]],[[1077,2461],[0,1]],[[1104,2469],[0,-1]],[[1105,2505],[-1,-36]],[[1104,2468],[0,1]],[[3620,3131],[-30,-6]],[[1184,3493],[0,-1]],[[1185,3492],[0,1]],[[1184,3491],[1,1],[-1,0],[0,-1]],[[67,1381],[1,-1]],[[68,1380],[0,1]],[[80,1371],[-12,9]],[[82,1370],[4,-7]],[[81,1369],[1,2],[-2,0],[0,-1],[1,-1]],[[87,1361],[1,1],[-1,1],[-1,-1],[1,-1]],[[1197,3457],[-2,3]],[[1833,2933],[-72,54]],[[3651,3118],[2,-2]],[[87,3708],[3,-2]],[[2218,2840],[19,-37]],[[2178,2624],[-55,-43]],[[2731,2479],[-33,18]],[[3954,0],[28,43]],[[2272,2666],[1,0]],[[0,4010],[87,-27],[33,-32],[64,-48],[13,-7],[26,-6],[40,-9],[39,-10],[56,-31],[1,0]],[[359,3840],[80,-25]],[[439,3815],[7,-2],[2,-1],[45,-19],[55,-4],[1,0],[91,41],[47,-16]],[[687,3814],[-21,13],[-15,3],[-11,0],[-5,-1],[-88,-39],[-100,23],[-8,2]],[[439,3815],[-68,16],[-6,5],[-3,2],[-3,2]],[[359,3840],[-4,3],[-8,5],[-45,24],[-39,10],[-66,14],[-109,88],[-88,27]],[[236,2908],[57,-87],[77,16]],[[525,3180],[-20,56],[38,49],[-73,106],[-15,37],[17,17],[-169,111]],[[370,2836],[119,21]],[[472,3570],[14,-9]],[[564,3686],[-12,-22]],[[587,2877],[1,-2]],[[885,3729],[-36,-8]],[[1103,2467],[1,0],[0,1],[-1,-1]],[[3624,3031],[36,-20]],[[2265,3254],[-4,-6]],[[2576,3544],[-264,-218],[-37,-57]],[[2577,3546],[-1,-1]],[[2577,3544],[1,1]],[[2554,3237],[-43,19]],[[2586,3178],[-9,42]],[[2676,3097],[-8,8]],[[2584,3091],[49,-4]],[[2697,3073],[40,-18]],[[2751,3053],[133,-4]],[[2913,2868],[156,28]],[[2921,3044],[32,-13],[93,49],[153,23]],[[3199,3103],[68,-38],[156,42],[105,-7]],[[3381,2917],[82,68]],[[3534,3100],[22,-7]],[[3576,3054]],[[2899,68],[1,-17]],[[2914,86],[-5,-3]],[[1856,399],[89,25]],[[2018,442],[48,-17],[62,29]],[[2891,279],[-65,48]],[[2826,326],[65,-47]],[[2891,279],[11,-20]],[[2906,252],[28,-41]],[[3034,164],[35,31]],[[3071,200],[12,55]],[[3082,255]],[[3083,256],[68,12]],[[3608,613],[1,2]],[[3689,683],[112,0]],[[38,3760],[1,-1]],[[40,3759],[1,0]],[[41,3759],[-1,1]],[[41,3759],[30,-33]],[[94,3703],[3,-2]],[[98,3701],[5,-4]],[[132,3677],[6,-4]],[[138,3673],[4,-2]],[[142,3671],[11,-7]],[[183,3649],[21,-41]],[[199,3636],[0,1]],[[432,237],[130,11]],[[2906,964],[16,5]],[[1681,1338],[-62,-75],[42,-48]],[[1661,1215],[1,-2]],[[1663,1214],[-2,1]],[[1664,1212],[1,-1]],[[1665,1211],[-1,2]],[[1664,1212],[0,2],[-1,0],[0,-2],[1,0]],[[3654,3115],[0,1]],[[3682,3116]],[[693,3826],[-1,0]],[[692,3826],[1,-1]],[[892,3735],[-9,10]],[[892,3735],[0,-4]],[[934,3718],[-42,13]],[[1761,2987],[-351,341],[-171,80],[-42,49]],[[1900,2869],[-67,64]],[[2479,2960],[336,28]],[[2832,2984],[330,32],[221,-76],[130,81]],[[87,2853],[-1,0]],[[103,2836],[-12,13]],[[289,3567],[0,18]],[[289,3567],[14,-11]],[[445,3133],[6,33]],[[563,3882],[3,10]],[[565,3883],[9,-11]],[[580,3847],[-5,24]],[[2274,2769],[-1,0]],[[2287,2753],[2,1]],[[2210,4050],[-101,-9],[-42,48]],[[2433,3917],[-63,72],[-135,68]],[[2578,3545],[-112,315]],[[1120,3609],[2,0]],[[1122,3609],[-2,1]],[[1141,3595],[-19,14]],[[1119,3609],[1,1]],[[1120,3610],[-1,0],[-1,0],[1,-1]],[[2540,3095],[44,-4]],[[2633,3087],[64,-14]],[[2737,3055],[2,-1]],[[2230,2784],[-15,-7]],[[1665,1211]],[[1665,1211]],[[1665,1211],[38,-31]],[[1805,1932],[-78,-372],[19,-59],[-65,-163]],[[1703,1180],[1,-2]],[[1705,1179],[-2,1]],[[1705,1177],[2,-1]],[[1707,1176],[-1,2]],[[1707,1176],[97,-65]],[[1807,1112],[-3,-1]],[[1804,1111],[3,0]],[[1807,1111],[1,0],[1,1]],[[1809,1112],[-2,1],[0,-2]],[[1811,1112],[-2,0]],[[1809,1111],[2,1]],[[1811,1112],[269,-259],[69,-136],[19,21],[55,-50],[44,-202]],[[1977,2180],[-95,-78],[-62,-147]],[[2104,2552],[-23,-34],[10,-101],[-70,-185]],[[1705,1179],[-1,-1],[1,-1],[1,1],[-1,1]],[[3534,3100],[18,15],[7,-20]],[[987,3990],[-5,10]],[[1690,3411],[0,-2]],[[2288,3263],[1,7]],[[2746,3053],[5,0]],[[2815,2989],[0,-1]],[[2921,3044],[-1,15]],[[3291,2917],[-25,-2]],[[3381,2917],[-40,-2]],[[3492,3049],[1,1]],[[3559,3095],[8,-2]],[[3579,3052],[4,-5]],[[893,3669],[-74,54],[-101,65]],[[719,3786],[174,-122]],[[1155,3623]],[[289,3585],[0,-1]],[[856,3949],[25,147]],[[893,3687],[-18,119]],[[1110,3473],[-22,28],[-13,14]],[[1075,3514],[34,-41]],[[2197,2593],[-100,62]],[[2098,2654],[99,-61]],[[3624,3034],[-1,-2]],[[3626,3048],[-2,-14]],[[3624,3032],[0,2]],[[3322,2889],[-31,28]],[[2454,2817],[0,-1]],[[2454,2816],[0,1]],[[3982,43],[114,67]],[[3223,3836]],[[2242,2698],[-1,3]],[[59,942],[-59,18]],[[3829,3578],[-51,-74],[41,-200],[-22,-50]],[[3813,4002],[63,-156]],[[3899,3750],[-2,-8]],[[146,1102],[9,49]],[[2466,3860],[-33,57]],[[3640,3096],[-2,-6]],[[3635,3090],[-4,-10]],[[3631,3080],[-1,-6],[1,4],[0,2]],[[3074,276],[2,-4]],[[3686,3115],[-4,1]],[[3682,3116],[4,-1]],[[3690,3115],[-4,0]],[[3381,98],[13,-2]],[[3704,3113],[0,-1]],[[2219,2690],[-2,8]],[[3648,3086],[8,-4]],[[3382,143],[2,0]],[[3384,143],[-2,1]],[[3450,171],[-66,-28]],[[3451,172],[-1,-1]],[[3450,171],[2,0]],[[3455,173],[-2,0]],[[3453,172],[2,1]],[[3735,0],[-76,73],[-144,37],[-60,63]],[[3451,172],[2,-1],[0,1],[-1,1],[-1,-1]],[[2965,168],[-207,-168]],[[2216,2703],[-8,28]],[[374,4070],[-1,-3]],[[3322,2889],[19,26]],[[1778,3589],[82,-25]],[[1898,3559],[8,-1]],[[198,3635],[1,1]],[[199,3637],[-1,0]],[[4018,2966],[-7,3]],[[2273,2771],[0,-2]],[[2333,2733],[2,-1]],[[1729,3414],[-27,8]],[[1780,3387],[22,2]],[[1803,3390],[-1,-1]],[[1805,3389]],[[1805,3388],[3,-6]],[[1940,3137],[3,-23]],[[194,3188]],[[2073,2751],[-84,50]],[[1151,3636],[4,-10]],[[3027,0],[30,93]],[[3620,3131],[22,-9]],[[3641,3123],[-12,6],[-7,2]],[[3654,3116],[-11,6]],[[3643,3122],[8,-4]],[[366,4096],[7,-21]],[[428,3985],[135,-103]],[[2275,3269],[-10,-15]],[[448,2382],[-44,-8]],[[487,2377],[-38,5]],[[1068,2461],[-55,-11]],[[1073,2462],[4,1]],[[1104,2467],[0,1]],[[3610,2928],[0,-1],[1,0],[0,1],[-1,0]],[[2273,2768],[1,1]],[[2369,2711],[-32,22]],[[2369,2711],[2,-9]],[[2378,2673],[-7,29]],[[4060,2946],[-42,20]],[[2217,2773],[-2,4]],[[2239,2709],[-18,57]],[[2242,2698],[-1,0]],[[2242,2697]],[[2251,2702],[-6,-3]],[[3642,3101]],[[3791,2997],[18,0]],[[626,3857],[20,-12]],[[2216,2782],[5,2]],[[291,856],[-2,4]],[[2234,2787],[32,23]],[[2242,2795],[1,1]],[[104,2842]],[[163,2936]],[[164,2986],[15,-32]],[[179,2954]],[[893,3731],[-1,1]],[[3336,0],[-3,3]],[[3841,1432],[-30,61]],[[3886,1380],[-19,19]],[[2122,2580],[-1,-1]],[[1135,3656],[5,10]],[[2213,2789],[-1,1]],[[2238,2793],[-23,-8]],[[2215,2785],[1,-3]],[[2221,2784],[17,9]],[[2238,2793],[2,1]],[[2299,2845],[-13,-16]],[[2299,2845]],[[2338,2901],[-39,-56]],[[2419,2948],[22,5]],[[3567,3093],[64,-13]],[[3583,3047],[5,1]],[[4060,2945],[0,1]],[[3723,3135],[-10,-19]],[[2366,2395],[1,0],[0,1],[-1,-1]],[[2698,2497],[-16,9]],[[2745,2470],[-14,9]],[[2335,2732],[1,0]],[[3622,2990],[0,-2]],[[1802,3389]],[[2909,83],[-11,-14]],[[4071,2937],[-3,-1]],[[4069,2936],[2,1]],[[4096,2943],[-25,-6]],[[1298,2533],[-8,-5]],[[2912,2868],[1,0]],[[3199,3103]],[[3556,3093],[3,2]],[[165,1000],[-26,60]],[[182,987],[-17,13]],[[165,1000],[38,-23]],[[276,920],[-73,57]],[[2297,3270],[-8,0]],[[3439,3062],[54,-12]],[[155,3430],[0,-1]],[[1088,2808],[1,-1]],[[2608,3520],[-1,0]],[[2610,3519],[-2,1]],[[2608,3520],[2,-1]],[[3324,3134],[-117,-8],[-213,117],[-168,33],[-49,171],[-72,67],[-95,5]],[[154,3431],[1,-1]],[[2503,2706],[2,-1]],[[2505,2705],[-1,2]],[[2505,2705],[39,-16]],[[2544,2689],[2,1]],[[2546,2690],[-2,-1]],[[2548,2691],[-2,-1]],[[2546,2690],[2,0]],[[2548,2690],[0,1]],[[2549,2691],[-1,0]],[[2548,2690],[1,1]],[[2567,2684],[-18,7]],[[2567,2684],[0,-1]],[[2568,2684],[-1,0]],[[2568,2684],[-1,-1],[1,-1],[1,1],[-1,1]],[[2503,2706],[1,1]],[[2504,2707],[0,1],[-2,0],[1,-2]],[[3671,669],[18,14]],[[1720,3622],[58,-33]],[[1860,3564],[38,-5]],[[1135,3656],[17,-19]],[[1152,3636],[-1,0]],[[1155,3626]],[[1155,3623],[2,-4]],[[3639,3096],[1,0]],[[3623,3028],[-1,-38]],[[3623,3031],[0,-3]],[[3623,3028],[1,3]],[[3623,3032]],[[3580,3060],[-1,-2]],[[3627,3058],[-24,4]],[[1150,2477],[-1,0]],[[3814,681],[2,0]],[[3816,681],[2,-1],[1,0],[-1,1],[-2,0]],[[2237,2803],[3,-7]],[[3081,255],[1,0]],[[2241,2795],[1,0]],[[2606,3520],[-28,25]],[[2606,3520],[1,0]],[[2607,3520],[-1,0]],[[936,4096],[46,-96]],[[1071,3807],[-84,183]],[[1490,4071],[-33,25]],[[1407,4096],[151,-128]],[[1679,3417],[-97,102],[-216,100],[-34,47],[-36,-11]],[[1490,4070],[315,-299]],[[1654,3886],[150,-128]],[[1680,3416],[-1,1]],[[1690,3409],[-10,7]],[[1694,3414],[-4,-3]],[[1702,3422],[-4,-4]],[[1780,3387],[-51,27]],[[1802,3389]],[[1804,3389],[1,-1]],[[1919,3161],[-111,221]],[[1817,3746],[83,-97]],[[1865,3713],[7,-6]],[[2067,2994],[-124,120]],[[1999,3566],[179,-223]],[[2267,3276],[91,-25],[58,-65]],[[2479,2959],[336,30]],[[3579,3052],[-87,-3]],[[3989,2972],[-69,11]],[[2266,2810],[58,55]],[[39,3761],[-1,0]],[[139,3673],[0,-1]],[[141,3671],[0,1]],[[2239,2709],[3,-12]],[[2245,2699],[-3,-1]],[[3797,3254],[-74,-119]],[[3778,4096],[13,-25]],[[3791,4071],[1,0]],[[3792,4070],[21,-68]],[[3897,3742],[-68,-164]],[[3876,3846],[23,-96]],[[925,2373],[161,-46]],[[1102,2323],[-176,51]],[[1959,2744],[-106,-58],[-133,-36],[-19,-6],[-12,-5],[-2,0]],[[1687,2639],[-11,-4],[-27,5]],[[1649,2640],[-39,7],[-7,2],[-13,0],[-16,-13]],[[1574,2636],[-54,-41],[-37,-7]],[[1483,2588],[-23,-5],[-60,-1],[-16,0],[-14,-3],[-118,-72],[-13,0],[-44,0],[-6,-3],[-13,-19],[-2,-9]],[[1175,2464],[13,38],[68,6],[113,70],[107,6],[7,4]],[[1483,2588],[91,48]],[[1574,2636],[23,13],[28,-8],[24,-1]],[[1649,2640],[38,-1]],[[1687,2639],[2,0],[164,47],[106,57]],[[11,260],[0,-2]],[[14,262],[-2,-2]],[[3642,3122],[1,0]],[[3653,3115],[-1,-2]],[[3371,67]],[[2322,2865],[1,-1]],[[289,3584],[6,-2]],[[2222,2676],[-3,14]],[[289,3567]],[[2338,2901],[170,3]],[[694,3825],[-1,1]],[[693,3825],[1,0]],[[774,3789],[-80,36]],[[883,3745],[-29,10]],[[1104,3619],[-170,99]],[[1184,3491],[1,0]],[[2323,2866],[23,43],[67,38]],[[2413,2947],[2,0]],[[2415,2947],[-2,0]],[[2415,2947],[1,0],[0,1]],[[2416,2948],[-1,0],[0,-1]],[[2417,2948],[-1,0]],[[2417,2947],[0,1]],[[2417,2948],[62,12]],[[4045,2955],[15,-10]],[[4069,2936],[27,-28]],[[1078,2462],[1,1]],[[1079,2463],[-1,0]],[[1079,2463],[23,4]],[[1102,2467],[2,0]],[[1103,2468],[-1,-1]],[[1078,2463],[-1,0],[0,-1],[1,1]],[[104,2834],[-1,2]],[[1169,3524],[-1,5]],[[3690,3006],[41,-5]],[[3752,2999],[22,-1]],[[2207,2801],[5,-11]],[[3082,255],[0,1]],[[3082,256],[1,0]],[[3083,255],[-1,1]],[[3082,256],[0,1]],[[41,3762],[-2,-1]],[[40,3761],[1,1]],[[84,3809],[-43,-47]],[[1143,3660],[-2,4]],[[3867,1399],[-26,33]],[[3639,3096],[-2,-3]],[[2293,2750],[27,-14]],[[2249,2801],[-2,-1]],[[2282,2634],[1,11]],[[2283,2646],[0,-1]],[[2284,2645],[0,1]],[[2989,164],[27,-4]],[[3069,195],[2,5]],[[3439,3062],[23,-76]],[[3319,25],[9,-17]],[[3344,80],[-16,-31]],[[3371,67],[-5,-1]],[[3371,67],[10,31]],[[3417,74],[-23,21]],[[3459,16],[-15,18]],[[3494,0],[-28,10]],[[3624,3031]],[[3624,3032]],[[3638,3090],[10,-4]],[[3230,311],[-10,5]],[[3381,147],[-43,93],[-101,70]],[[3374,131],[0,-3]],[[3374,131],[4,11]],[[3375,129],[-1,2]],[[3378,142],[2,0]],[[3379,144],[-1,-2]],[[3381,147],[-1,-2]],[[3381,145],[0,2]],[[3380,143],[1,-1],[1,2],[-2,1]],[[3380,145],[0,-2]],[[1153,2398],[-1,-2]],[[1153,2395],[1,3]],[[1181,2483],[0,3]],[[3606,3041],[1,0]],[[2242,2697],[0,1]],[[0,1252],[87,116]],[[87,1369],[-7,-7],[-80,-109]],[[1147,3594],[-2,13]],[[2441,2621],[6,-3]],[[2447,2618],[-6,4]],[[2682,2506],[-235,112]],[[3354,1992],[-242,112],[-367,366]],[[3354,1992],[1,0]],[[3355,1992],[-1,0]],[[3356,1992]],[[3356,1991],[0,1]],[[3356,1991],[-1,0]],[[3811,1493],[-393,475],[-13,43],[-49,-19]],[[3932,1334],[-46,46]],[[4096,1194],[-163,139]],[[3682,3116],[-20,0]],[[588,2875],[1,-2]],[[3675,4033],[4,4]],[[3801,4096],[-22,-44],[-100,-15]],[[2185,2754],[2,8]],[[2185,2754],[5,10]],[[2200,2739],[-15,15]],[[3679,3008]],[[1107,3618],[11,-8]],[[1924,3657],[-2,5]],[[1956,3636],[-9,2]],[[1967,3634],[-16,-6]],[[2268,2814],[0,1]],[[3602,3062],[1,0]],[[3691,3101],[-1,14]],[[3565,3128],[-11,0]],[[3586,3126],[-8,2],[-13,0],[24,-3]],[[3590,3125],[-3,1]],[[2211,2658],[-33,-34]],[[1148,3588],[-10,-69]],[[2367,2396],[-77,212]],[[2916,982],[-15,53],[52,92],[-37,81],[26,85],[-45,44],[2,135],[-278,501],[-208,307],[-47,115]],[[3075,591],[-30,123],[-133,241]],[[2423,2631],[-45,42]],[[2423,2631],[18,-10]],[[2441,2622],[-18,9]],[[2335,2733],[0,-1]],[[149,3436],[0,-5]],[[159,3459],[0,-6]],[[184,3537],[-25,-79]],[[2241,2697],[-19,-21]],[[66,1382],[0,-1],[1,0],[0,2],[-1,-1]],[[3344,80],[22,-14]],[[3394,96],[0,-1]],[[3417,74],[27,-40]],[[3466,10],[-7,6]],[[3609,615],[62,54]],[[1155,3623],[-12,37]],[[1145,3607],[10,15]],[[3228,3841],[54,-10],[35,139],[-111,126]],[[3299,3772],[-12,50],[-64,14]],[[0,0],[0,4096],[4096,0],[0,-4096],[-4096,0]],[[484,2773],[33,15],[-32,78],[237,21],[14,-57],[46,10],[-37,50],[144,15],[27,-37],[76,0],[-162,-96],[-6,-40],[-59,-62],[-23,12],[-60,-52],[0,18],[-89,-2],[-3,114],[-106,13]],[[3548,0],[20,28],[41,-26],[-1,-2],[-60,0]],[[3270,0],[33,63],[26,-15],[-16,-36],[40,-12],[-83,0]],[[2936,254],[53,45],[20,-56],[20,94],[18,-8],[34,-47],[-11,-87],[-28,12],[6,-34],[-51,-20],[-30,43],[18,48],[-49,10]],[[3000,234],[25,-19],[-1,-22],[11,3],[-12,29],[21,16],[-44,-7]],[[3006,208],[5,-8],[11,0],[-10,20],[-6,-12]],[[2988,188],[5,-5],[9,0],[-6,11],[-8,-6]],[[3028,311],[7,-11],[20,7],[-8,11],[-19,-7]],[[3056,304],[2,-18],[9,3],[-7,18],[-4,-3]],[[3051,239],[11,-6],[3,8],[-14,0],[0,-2]],[[1875,276],[55,-14],[43,85],[46,-13],[29,-32],[-20,-30],[19,-24],[-30,-25],[17,-32],[-57,30],[27,25],[-24,-1],[0,28],[-69,-51],[-26,5],[27,15],[-37,34]],[[1956,286],[5,-10],[4,1],[-4,12],[-5,-3]],[[1643,1276],[34,4],[-6,20],[44,30],[3,-20],[30,7],[-12,-24],[-22,11],[4,-20],[75,-19],[2,-75],[-33,26],[33,-59],[-98,38],[-54,81]],[[3824,1425],[19,2],[-16,59],[44,21],[35,-53],[-4,40],[28,-13],[-1,22],[9,-52],[-33,-26],[-4,-46],[-77,46]],[[2450,2914],[63,-13],[16,-55],[38,16],[-18,-26],[34,-1],[2,-28],[-120,-11],[41,24],[-40,19],[14,23],[-30,52]],[[3551,3034],[75,22],[53,-48],[180,-18],[-49,-8],[3,-43],[-28,6],[-6,48],[0,-47],[-18,42],[-119,0],[28,-16],[-62,21],[3,47],[-60,-6]],[[1085,3588],[80,108],[59,-86],[1,-93],[-35,38],[-1,-32],[20,0],[-23,-29],[-27,-19],[-39,18],[-2,75],[-33,20]],[[1010,2460],[65,55],[73,-25],[2,-24],[-27,5],[-10,-36],[-35,-16],[-18,23],[-42,-12],[-8,30]],[[1068,2462],[1,-5],[7,4],[-1,2],[-7,-1]],[[1044,2475],[6,-16],[12,2],[-1,11],[-17,3]],[[2947,3022],[98,57],[128,5],[-51,-46],[-175,-16]],[[2168,3334],[17,15],[101,-90],[72,-9],[57,-64],[29,31],[51,-4],[-5,50],[56,-20],[38,-29],[2,-46],[-37,-64],[77,-29],[28,46],[55,-62],[141,-24],[-210,-20],[-54,44],[-150,26],[-59,77],[-209,172]],[[3021,3572],[54,93],[86,-109],[14,-58],[-50,-27],[-35,72],[-69,29]],[[0,3062],[24,1],[-2,-20],[-22,-7],[0,26]],[[0,3197],[65,-49],[-47,-2],[40,-20],[-33,-42],[-25,5],[0,108]],[[0,3743],[22,-8],[-14,-54],[-8,0],[0,62]],[[1300,2791],[40,15],[2,38],[33,22],[46,3],[30,-18],[-29,-9],[13,-39],[-20,11],[-63,-70],[-1,36],[-51,11]],[[1302,2510],[69,30],[3,-27],[83,-18],[24,-51],[-58,-10],[-60,47],[-26,-21],[-35,50]],[[1150,2744],[20,14],[104,-90],[67,-102],[-50,-39],[-27,50],[-2,-3],[-10,-8],[-1,-21],[-11,-23],[11,44],[12,12],[-16,66],[8,-12],[19,12],[-74,36],[-50,64]],[[0,3062],[24,1],[-2,-20],[-22,-7],[0,26]],[[0,3197],[65,-49],[-47,-2],[40,-20],[-33,-42],[-25,5],[0,108]],[[0,3743],[22,-8],[-14,-54],[-8,0],[0,62]],[[2076,414],[-11,-44],[32,-63],[-57,-93],[-66,-48],[-77,-2],[-91,47],[64,240],[130,-48],[65,144],[65,-96],[-54,-37]],[[3068,595],[91,-55],[39,7],[1,-140],[-69,-196],[-62,-47],[-65,0],[-32,47],[-65,0],[0,48],[-65,0],[-32,144],[32,96],[162,-48],[65,144]],[[211,831],[-70,23],[-115,124],[63,78],[88,7],[77,-60],[32,-121],[-75,-51]],[[745,1181],[123,-203],[-48,-75],[-131,129],[-113,-6],[0,144],[100,62],[69,-51]],[[1963,1400],[5,-86],[-46,-46],[-19,-2],[-15,48],[-82,-48],[0,-96],[-162,48],[-62,88],[-3,56],[65,-48],[48,30],[114,162],[65,0],[0,-48],[62,-19],[30,-39]],[[4096,2051],[0,-91],[-25,24],[4,63],[21,4]],[[3947,1636],[18,-107],[-88,-168],[-62,68],[-5,68],[67,104],[32,0],[0,48],[38,-13]],[[3747,938],[195,-8],[-19,-117],[-111,-74],[-33,-158],[-153,-85],[-41,3],[0,48],[-54,59],[-9,93],[96,136],[65,0],[40,144],[25,-1],[-1,-40]],[[91,3710],[32,0],[52,-81],[13,33],[26,-10],[-7,-97],[-35,-27],[-42,3],[-130,126],[0,192],[91,-43],[0,-96]],[[1259,3486],[-42,-30],[-102,19],[-105,-32],[-45,27],[32,96],[-61,129],[-4,63],[97,1],[55,62],[75,176],[43,-15],[21,-139],[75,-56],[14,-44],[-24,-129],[-32,-48],[3,-80]],[[852,3974],[48,-360],[-43,-7],[-22,-41],[-32,15],[-33,129],[-122,183],[-7,200],[141,-7],[70,-112]],[[3678,4096],[199,0],[0,-99],[-186,13],[-41,35],[28,51]],[[2000,3566],[-47,3],[-35,42],[-48,99],[-66,44],[2,52],[164,-77],[48,-69],[-18,-94]],[[3845,3566],[-65,48],[-4,41],[36,55],[0,96],[61,17],[4,31],[35,-62],[-67,-226]],[[2504,2863],[-115,-160],[-33,-95],[-129,0],[-97,-48],[-65,191],[-65,0],[-32,144],[64,96],[150,11],[45,37],[32,96],[194,-144],[56,-67],[-5,-61]],[[4096,3021],[0,-318],[-25,0],[0,96],[-32,0],[32,49],[-65,143],[-43,15],[-118,-63],[-101,71],[-99,-3],[-60,28],[-32,96],[-162,191],[33,97],[26,-22],[6,-26],[292,48],[-3,-57],[-62,-87],[36,-50],[158,50],[0,-144],[129,0],[1,-48],[71,-37],[18,-29]],[[2040,4096],[217,0],[2,-3],[-32,-48],[-187,51]],[[399,2381],[13,34],[17,-7],[4,50],[36,7],[28,-136],[-32,-18],[17,22],[-51,0],[-32,48]],[[3553,3141],[98,37],[35,-69],[-30,-27],[-103,38],[0,21]],[[2129,4096],[76,0],[6,-12],[-36,0],[-22,-41],[-40,30],[16,23]],[[3137,153],[8,65],[21,8],[72,-65],[-48,-64],[-53,56]],[[3213,173],[8,-6],[8,-1],[-12,11],[-4,-4]],[[1748,1343],[54,114],[22,0],[39,-93],[-15,-26],[-100,5]],[[1360,4096],[227,-147],[77,-72],[26,-106],[159,-71],[122,-160],[-24,-19],[66,-22],[3,-32],[109,-93],[-103,-35],[-125,222],[-84,7],[-127,77],[-62,153],[-86,117],[-78,46],[-110,135],[10,0]]]}