{"objects":{"water":{"type":"GeometryCollection","geometries":[]},"buildings":{"type":"GeometryCollection","geometries":[]},"places":{"type":"GeometryCollection","geometries":[{"type":"Point","properties":{"name:kg":"Bosna","name:short":"BiH","name:ka":"\u10d1\u10dd\u10e1\u10dc\u10d8\u10d0 \u10d3\u10d0 \u10f0\u10d4\u10e0\u10ea\u10d4\u10d2\u10dd\u10d5\u10d8\u10dc\u10d0","name:ko":"\ubcf4\uc2a4\ub2c8\uc544 \ud5e4\ub974\uccb4\uace0\ube44\ub098","name:cv":"\u0411\u043e\u0441\u043d\u0438 \u0442\u0430\u0442\u0430 \u0413\u0435\u0440\u0446\u0435\u0433\u043e\u0432\u0438\u043d\u0430","name:cu":"\u0411\u043e\u0441\u043d\u0430\u0301","name:kl":"Bosnia aamma Herzegovina","name:cs":"Bosna a Hercegovina","name:ki":"Bosnia na Hezegovina","name:co":"Bosnia \u00e8 Erzegovina","name:kv":"\u0411\u043e\u0441\u043d\u0438\u044f \u0434\u0430 \u0413\u0435\u0440\u0446\u0435\u0433\u043e\u0432\u0438\u043d\u0430","name:ku":"Bosniya \u00fb Herzegov\u00eena","name:ti":"\u1266\u1235\u1292\u12eb \u12a5\u1293 \u1204\u122d\u12de\u130e\u126a\u1292\u12eb","name:ks":"\u092c\u093e\u0938\u094d\u0928\u093f\u092f\u093e","name:to":"Posinia mo Hesik\u014dvinia","name:tl":"Bosnia at Herzegovina","name:ce":"\u0411\u043e\u0441\u043d\u0438 \u0430 \u0413\u0435\u0440\u0446\u0435\u0433\u043e\u0432\u0438\u043d\u0430","name:ta":"\u0baa\u0bca\u0b9a\u0bc1\u0ba9\u0bbf\u0baf\u0bbe \u0b8e\u0bb0\u0bcd\u0b9a\u0bc6\u0b95\u0bcb\u0bb5\u0bbf\u0ba9\u0bbe","name:tg":"\u0411\u043e\u0441\u043d\u0438\u044f \u0432\u0430 \u04b2\u0435\u0440\u0441\u0435\u0433\u043e\u0432\u0438\u043d\u0430","name:ca":"B\u00f2snia i Hercegovina","name:te":"\u0c2c\u0c4b\u0c38\u0c4d\u0c28\u0c3f\u0c2f\u0c3e \u0c2e\u0c30\u0c3f\u0c2f\u0c41 \u0c39\u0c46\u0c30\u0c4d\u0c1c\u0c46\u0c17\u0c4a\u0c35\u0c40\u0c28\u0c3e","name:cy":"Bosnia a Hertsegovina","name:da":"Bosnien-Hercegovina","name:de":"Bosnien und Herzegowina","name:dz":"\u0f56\u0fb7\u0f7c\u0f66\u0f0b\u0f53\u0f72\u0f0b\u0f61\u0f0b \u0f68\u0f7a\u0f53\u0f4c\u0f0b \u0f67\u0f62\u0f0b\u0f5b\u0f72\u0f0b\u0f42\u0fb7\u0f7c\u0f0b\u0f56\u0f72\u0f0b\u0f53","source":"openstreetmap.org","name:kn":"\u0cac\u0cca\u0cb8\u0ccd\u0ca8\u0cbf\u0caf \u0cae\u0ca4\u0ccd\u0ca4\u0cc1 \u0cb9\u0cc6\u0cb0\u0ccd\u0c9c\u0cc6\u0c97\u0cca\u0cb5\u0cbf\u0ca8","name:dv":"\u0784\u07ae\u0790\u07b0\u0782\u07a8\u0794\u07a7 \u0780\u07a6\u0783\u07aa\u0792\u07ac\u078e\u07ae\u0788\u07a9\u0782\u07a7","name:km":"\u1794\u17bc\u179f\u17d2\u1793\u17c9\u17b8","name:lv":"Bosnija un Hercegovina","name:lt":"Bosnija ir Hercogovina","name:uz":"Bosniya va Gerzegovina","name:kk":"\u0411\u043e\u0441\u043d\u0438\u044f \u0436\u04d9\u043d\u0435 \u0413\u0435\u0440\u0446\u0435\u0433\u043e\u0432\u0438\u043d\u0430","name:ur":"\u0628\u0648\u0633\u0646\u06cc\u0627 \u0648 \u06c1\u0631\u0632\u06cc\u06af\u0648\u0648\u06cc\u0646\u0627","name:lb":"Bosnien-Herzegowina","name:la":"Bosnia et Herzegovina","name:lg":"Boziniya Hezegovina","name:uk":"\u0411\u043e\u0441\u043d\u0456\u044f \u0456 \u0413\u0435\u0440\u0446\u0435\u0433\u043e\u0432\u0438\u043d\u0430","name:ug":"\u0628\u0648\u0633\u0646\u0649\u064a\u06d5 \u06cb\u06d5 \u06be\u06d0\u0631\u0633\u06d0\u06af\u0648\u06cb\u0649\u0646\u0627","name:li":"Bosni\u00eb en Hercegovina","name:ln":"Bosnia na Erzegovina","name:lo":"\u0e9a\u0eb1\u0ead\u0e94\u0eaa\u0ec0\u0e99\u0e8d \u0ec1\u0ea5\u0eb0 \u0ec0\u0eae\u0eb5\u0e94\u0ec2\u0e81\u0ea7\u0eb4\u0ec0\u0e99\u0e8d","name:el":"\u0392\u03bf\u03c3\u03bd\u03af\u03b1 \u03ba\u03b1\u03b9 \u0395\u03c1\u03b6\u03b5\u03b3\u03bf\u03b2\u03af\u03bd\u03b7","name:eo":"Bosnujo kaj Hercegovino","name:en":"Bosnia and Herzegovina","name":"Bosna i Hercegovina","name:tk":"Bosni\u00fda we Gersegowina","name:ee":"Bosnia and Herzegovina","name:th":"\u0e1b\u0e23\u0e30\u0e40\u0e17\u0e28\u0e1a\u0e2d\u0e2a\u0e40\u0e19\u0e35\u0e22\u0e41\u0e25\u0e30\u0e40\u0e2e\u0e2d\u0e23\u0e4c\u0e40\u0e0b\u0e42\u0e01\u0e27\u0e35\u0e19\u0e32","name:eu":"Bosnia-Herzegovina","name:et":"Bosnia ja Hertsegoviina","name:es":"Bosnia y Herzegovina","name:ia":"Bosnia e Herzegovina","name:rm":"Bosnia-Erzegovina","name:rn":"Bosiniya na Herigozevine","name:az":"Bosniya v\u0259 Herseqovina","name:ie":"Bosnia e Herzegovina","name:id":"Bosnia dan Herzegovina","name:ar":"\u0627\u0644\u0628\u0648\u0633\u0646\u0629 \u0648\u0627\u0644\u0647\u0631\u0633\u0643","name:io":"Bosnia e Herzegovina","name:ak":"Bosnia ne H\u025bzegovina","name:am":"\u1266\u1235\u1292\u12eb \u12a5\u1293 \u1204\u122d\u12de\u130e\u126a\u1292\u12eb","name:it":"Bosnia-Erzegovina","name:an":"Bosnia e Erzegobina","name:ru":"\u0411\u043e\u0441\u043d\u0438\u044f \u0438 \u0413\u0435\u0440\u0446\u0435\u0433\u043e\u0432\u0438\u043d\u0430","name:rw":"Bosiniya na Herizegovina","name:af":"Bosni\u00eb-Herzegowina","name:zu":"i-Bosnia ne-Herzegovina","name:zh-yue":"\u6ce2\u65af\u5c3c\u4e9e","name:zh":"\u6ce2\u65af\u5c3c\u4e9a\u548c\u9ed1\u585e\u54e5\u7ef4\u7eb3","name:so":"Bosniya Hersigoviina","name:sn":"Boznia ne Herzegovina","name:sm":"Bosnia ma Herzegovina","name:sl":"Bosna in Hercegovina","name:sk":"Bosna a Hercegovina","name:ja":"\u30dc\u30b9\u30cb\u30a2\u30fb\u30d8\u30eb\u30c4\u30a7\u30b4\u30d3\u30ca","name:si":"\u0db6\u0ddc\u0dc3\u0dca\u0db1\u0dd2\u0dba\u0dcf\u0dc0 \u0dc3\u0dc4 \u0dc4\u0dbb\u0dca\u0dc3\u0d9c\u0ddc\u0dc0\u0dd3\u0db1\u0dcf\u0dc0","name:sg":"Bosn\u00efi na Herzegov\u00eenni","name:se":"Bosnia ja Hercegovina","name:sc":"B\u00f2snia Erzegovina","name:br":"Bosnia-ha-Herzegovina","name:bm":"Bozni-\u0190rizigovini","name:bn":"\u09ac\u09b8\u09a8\u09bf\u09af\u09bc\u09be \u0993 \u09b9\u09be\u09b0\u09cd\u099c\u09c7\u0997\u09cb\u09ad\u09bf\u09a8\u09be","name:bo":"\u0f56\u0f7c\u0f66\u0fa3\u0f72\u0f0b\u0f61\u0f0b\u0f51\u0f44\u0f0b\u0f67\u0f62\u0fab\u0f7c\u0f0b\u0f42\u0f7c\u0f0b\u0f5d\u0f72\u0f0b\u0f53\u0f0d","name:bi":"Bosnia &amp;Herzegovina","name:sw":"Bosnia na Herzegovina","name:be":"\u0411\u043e\u0441\u043d\u0456\u044f \u0456 \u0413\u0435\u0440\u0446\u0430\u0433\u0430\u0432\u0456\u043d\u0430","name:su":"Bosnia jeung H\u00e9rz\u00e9govina","name:bg":"\u0411\u043e\u0441\u043d\u0430 \u0438 \u0425\u0435\u0440\u0446\u0435\u0433\u043e\u0432\u0438\u043d\u0430","name:ss":"IBhosinya ne Hezegovi","name:sr":"\u0411\u043e\u0441\u043d\u0430 \u0438 \u0425\u0435\u0440\u0446\u0435\u0433\u043e\u0432\u0438\u043d\u0430","name:sq":"Bosnja dhe Hercegovina","alt_name:sr":"\u0411\u0438\u0425","name:jv":"Bosnia-Herzegovina","name:sa":"\u092c\u093e\u0938\u094d\u0928\u093f\u092f\u093e","name:pt":"B\u00f3snia e Herzegovina","name:ps":"\u0628\u0648\u0633\u0646\u064a\u0627 \u0627\u0648 \u0647\u06d0\u0631\u0632\u06ab\u0648\u064a\u0646\u0627","name:oc":"B\u00f2snia e Ercegovina","min_zoom":2.0,"name:ro":"Bosnia \u0219i Her\u021begovina","name:zh-min-nan":"Bosna kap Hercegovina","name:os":"\u0411\u043e\u0441\u043d\u0438 \u00e6\u043c\u00e6 \u0413\u0435\u0440\u0446\u0435\u0433\u043e\u0432\u0438\u043d\u00e6","name:or":"\u0b2c\u0b4b\u0b38\u0b28\u0b3f\u0b06 \u0b0f\u0b2c\u0b02 \u0b39\u0b30\u0b4d\u0b1c\u0b17\u0b4b\u0b2d\u0b3f\u0b28\u0b3e","name:pl":"Bo\u015bnia i Hercegowina","name:pa":"\u0a2c\u0a4b\u0a38\u0a28\u0a40\u0a06 \u0a05\u0a24\u0a47 \u0a39\u0a30\u0a1c\u0a3c\u0a47\u0a17\u0a4b\u0a35\u0a40\u0a28\u0a3e","name:tr":"Bosna Hersek","name:hi":"\u092c\u0949\u0938\u094d\u0928\u093f\u092f\u093e \u0914\u0930 \u0939\u0930\u094d\u091c\u093c\u0947\u0917\u094b\u0935\u093f\u0928\u093e","name:sv":"Bosnien och Hercegovina","name:he":"\u05d1\u05d5\u05e1\u05e0\u05d9\u05d4 \u05d4\u05e8\u05e6\u05d2\u05d5\u05d1\u05d9\u05e0\u05d4","name:ha":"Bosniya Harzagobina","name:hy":"\u0532\u0578\u057d\u0576\u056b\u0561 \u0587 \u0540\u0565\u0580\u0581\u0565\u0563\u0578\u057e\u056b\u0576\u0561","name:ht":"Bosni ak Erzegovin","name:hu":"Bosznia-Hercegovina","name:qu":"Busna-Hirsiquwina","population":4621598,"kind":"country","name:is":"Bosn\u00eda og Herseg\u00f3v\u00edna","name:yi":"\u05d1\u05d0\u05e1\u05e0\u05d9\u05e2 \u05d0\u05d5\u05df \u05d4\u05e2\u05e8\u05e6\u05e2\u05d2\u05d0\u05d5\u05d5\u05d9\u05e0\u05e2","name:yo":"Or\u00edl\u1eb9\u0301\u00e8de B\u1ecd\u0300s\u00edn\u00ed\u00e0 \u00e0ti \u1eb8tis\u1eb9g\u00f3f\u00edn\u00e0","name:mt":"Bo\u017cnija u \u0126er\u017cegovina","alt_name:eo":"Bosnio kaj Hercegovino","name:ms":"Bosnia dan Herzegovina","name:mr":"\u092c\u0949\u0938\u094d\u0928\u093f\u092f\u093e \u0906\u0923\u093f \u0939\u0930\u094d\u091d\u0917\u094b\u0935\u094d\u0939\u093f\u0928\u093e","name:my":"\u1018\u1031\u102c\u1037\u1005\u1014\u102e\u1038\u101a\u102c\u1038 \u1014\u103e\u1004\u1037\u103a \u101f\u102c\u1007\u102e\u1002\u102d\u102f\u1018\u102e\u1038\u1014\u102c\u1038","name:kw":"Bosni\u2013Hercegovina","name:mg":"Bosnia sy Herzegovina","name:ml":"\u0d2c\u0d4b\u0d38\u0d4d\u0d28\u0d3f\u0d2f \u0d39\u0d46\u0d30\u0d4d\u200d\u0d38\u0d46\u0d17\u0d4b\u0d35\u0d3f\u0d28","name:vi":"Bosna v\u00e0 Hercegovina","name:mn":"\u0411\u043e\u0441\u043d\u0438-\u0413\u0435\u0440\u0446\u0435\u0433\u043e\u0432\u0438\u043d","name:mi":"P\u014dngia-Herek\u014dmina","id":1983711862,"name:mk":"\u0411\u043e\u0441\u043d\u0430 \u0438 \u0425\u0435\u0440\u0446\u0435\u0433\u043e\u0432\u0438\u043d\u0430","name:vo":"Bosn\u00e4n e H\u00e4rzegov\u00e4n","name:fa":"\u0628\u0648\u0633\u0646\u06cc \u0648 \u0647\u0631\u0632\u06af\u0648\u0648\u06cc\u0646","name:ff":"Bosnii Hersegowiin","name:fi":"Bosnia ja Hertsegovina","name:fo":"Bosnia-Hersegovina","alt_name:vi":"Bosnia v\u00e0 Herzegovina","name:fr":"Bosnie-Herz\u00e9govine","name:fy":"Bosnje","int_name":"Bosnia and Herzegovina","name:nl":"Bosni\u00eb en Herzegovina","name:nn":"Bosnia-Hercegovina","name:no":"Bosnia-Hercegovina","name:na":"Bosnia me Herzegowina","name:ne":"\u092c\u094b\u0938\u094d\u0928\u093f\u092f\u093e \u0930 \u0939\u0930\u094d\u091c\u0917\u094b\u0935\u093f\u0928\u093e","name:wo":"Bosni","name:nv":"Bosna d\u00f3\u00f3 Hetsog Bik\u00e9yah","name:ga":"An Bhoisnia-Heirseagaiv\u00e9in","name:gd":"Bosna agus Heartsagobhana","name:gn":"Vonia ha Hesegovina","name:gl":"Bosnia e Hercegovina","name:gv":"Bosnia as Herzegovina","name:gu":"\u0aac\u0acb\u0ab8\u0acd\u0aa8\u0abf\u0aaf\u0abe \u0a85\u0aa8\u0ac7 \u0ab9\u0ab0\u0acd\u0a9d\u0ac7\u0a97\u0acb\u0ab5\u0abf\u0aa8\u0abe","name:tt":"\u0411\u043e\u0441\u043d\u0438\u044f \u04bb\u04d9\u043c \u0413\u0435\u0440\u0446\u0435\u0433\u043e\u0432\u0438\u043d\u0430"},"coordinates":[2100,891]},{"type":"Point","properties":{"kind":"locality","name":"Banja Luka","name:ko":"\ubc14\ub0d0\ub8e8\uce74","kind_detail":"city","name:sr":"\u0411\u0430\u045a\u0430 \u041b\u0443\u043a\u0430","source":"openstreetmap.org","min_zoom":8.0,"name:ru":"\u0411\u0430\u043d\u044f-\u041b\u0443\u043a\u0430","name:zh":"\u5df4\u5c3c\u4e9a\u5362\u5361","id":248407024,"population":199191},"coordinates":[917,2799]},{"type":"Point","properties":{"kind":"locality","old_name:de":"Doblitz","name":"Doboj","name:lt":"Dobojus","kind_detail":"city","id":251913823,"source":"openstreetmap.org","min_zoom":8.0,"name:uk":"\u0414\u043e\u0431\u043e\u0439","name:ru":"\u0414\u043e\u0431\u043e\u0439","name:sr":"\u0414\u043e\u0431\u043e\u0458","population":77233},"coordinates":[3532,2640]},{"type":"Point","properties":{"kind":"locality","old_name:de":"Senitza","name":"Zenica","kind_detail":"city","id":1966975750,"source":"openstreetmap.org","min_zoom":8.0,"name:ru":"\u0417\u0435\u043d\u0438\u0446\u0430","name:sr":"\u0417\u0435\u043d\u0438\u0446\u0430","population":73751},"coordinates":[3009,463]},{"type":"Point","properties":{"kind":"locality","name":"Travnik","kind_detail":"town","name:de":"Traunik","source":"openstreetmap.org","min_zoom":8.0,"name:ru":"\u0422\u0440\u0430\u0432\u043d\u0438\u043a","id":90249576,"population":54000},"coordinates":[2295,566]},{"type":"Point","properties":{"kind":"locality","name":"Novi Travnik","kind_detail":"town","old_name:sr":"\u041f\u0443\u0446\u0430\u0440\u0435\u0432\u043e","name:sr":"\u041f\u0443\u0446\u0430\u0440\u0435\u0432\u043e","source":"openstreetmap.org","min_zoom":8.0,"old_name":"Pucarevo","id":251905442,"population":25000},"coordinates":[2280,340]},{"type":"Point","properties":{"kind":"locality","name":"Mrkonji\u0107 Grad","kind_detail":"town","source":"openstreetmap.org","min_zoom":8.0,"name:ru":"\u041c\u0440\u043a\u043e\u043d\u0438\u0447-\u0413\u0440\u0430\u0434","id":90250673,"population":18136},"coordinates":[609,1346]},{"type":"Point","properties":{"kind":"locality","name":"Kne\u017eevo","kind_detail":"town","name:bs":"Skender Vakuf","source":"openstreetmap.org","min_zoom":8.0,"name:sr":"\u041a\u043d\u0435\u0436\u0435\u0432\u043e","name:hr":"Skender Vakuf","id":306466679,"population":17350},"coordinates":[1472,1646]},{"type":"Point","properties":{"kind":"locality","name":"Derventa","kind_detail":"town","name:sr":"\u0414\u0435\u0440\u0432\u0435\u043d\u0442\u0430","source":"openstreetmap.org","min_zoom":8.0,"name:uk":"\u0414\u0435\u0440\u0432\u0435\u043d\u0442\u0430","name:ru":"\u0414\u0435\u0440\u0432\u0435\u043d\u0442\u0430","id":251932204,"population":12680},"coordinates":[3007,3642]},{"type":"Point","properties":{"kind":"locality","name":"Kakanj","kind_detail":"town","source":"openstreetmap.org","min_zoom":8.0,"name:ru":"\u041a\u0430\u043a\u0430\u043d\u044c","id":78546824,"population":12256},"coordinates":[3617,163]},{"type":"Point","properties":{"kind":"locality","name":"Zavidovi\u0107i","kind_detail":"town","source":"openstreetmap.org","min_zoom":8.0,"name:ru":"\u0417\u0430\u0432\u0438\u0434\u043e\u0432\u0438\u0447\u0438","id":251913153,"population":9217},"coordinates":[3701,1441]},{"type":"Point","properties":{"kind":"locality","name":"Prnjavor","kind_detail":"town","source":"openstreetmap.org","min_zoom":8.0,"name:ru":"\u041f\u0440\u043d\u044f\u0432\u043e\u0440","id":1037420544,"population":8484},"coordinates":[2296,3195]},{"type":"Point","properties":{"kind":"locality","name":"Jajce","kind_detail":"town","source":"openstreetmap.org","min_zoom":8.0,"name:ru":"\u042f\u0439\u0446\u0435","id":2419009186,"population":8087},"coordinates":[1150,1039]},{"type":"Point","properties":{"kind":"locality","name":"Tesli\u0107","kind_detail":"town","source":"openstreetmap.org","min_zoom":8.0,"name:ru":"\u0422\u0435\u0441\u043b\u0438\u0447","id":251273093,"population":7518},"coordinates":[2868,2123]},{"type":"Point","properties":{"kind":"locality","name":"Donji Vakuf","kind_detail":"town","source":"openstreetmap.org","min_zoom":8.0,"name:ru":"\u0414\u043e\u043d\u0438-\u0412\u0430\u043a\u0443\u0444","id":251285718,"population":7139},"coordinates":[1525,233]},{"type":"Point","properties":{"kind":"locality","name":"Vitez","kind_detail":"town","source":"openstreetmap.org","min_zoom":8.0,"name:ru":"\u0412\u0438\u0442\u0435\u0437","id":251286005,"population":6633},"coordinates":[2669,257]},{"type":"Point","properties":{"kind":"locality","name":"Maglaj","kind_detail":"town","source":"openstreetmap.org","min_zoom":8.0,"name:ru":"\u041c\u0430\u0433\u043b\u0430\u0439","id":251913617,"population":6438},"coordinates":[3561,1885]},{"type":"Point","properties":{"kind":"locality","name":"\u010celinac","kind_detail":"town","name:sr":"\u0427\u0435\u043b\u0438\u043d\u0430\u0446","source":"openstreetmap.org","min_zoom":8.0,"id":251279658,"population":5802},"coordinates":[1295,2609]},{"type":"Point","properties":{"kind":"locality","name":"Te\u0161anj","kind_detail":"town","source":"openstreetmap.org","min_zoom":8.0,"name:ru":"\u0422\u0435\u0448\u0430\u043d\u044c","id":251913618,"population":5531},"coordinates":[3237,2151]}]},"transit":{"type":"GeometryCollection","geometries":[{"type":"MultiLineString","properties":{"kind":"train","name":"Pruga Sarajevo (rasputnica) - Zenica - Doboj - \u0160amac - HR","sort_rank":275,"source":"openstreetmap.org","min_zoom":6.0,"operator":"\u017dFBiH;\u017dRS","ref":"12","osm_relation":true},"arcs":[[10],[11]]},{"type":"MultiLineString","properties":{"kind":"train","name":"Pruga Bosanski Novi - Banja Luka - Doboj - Tuzla","sort_rank":275,"source":"openstreetmap.org","min_zoom":6.0,"operator":"\u017dFBIH;\u017dRS","ref":"13","osm_relation":true},"arcs":[[12],[13]]}]},"pois":{"type":"GeometryCollection","geometries":[{"type":"Point","properties":{"kind":"national_park","protect_class":"2","area":78165300,"name:sr":"\u041d\u0430\u0446\u0438\u043e\u043d\u0430\u043b\u043d\u0438 \u043f\u0430\u0440\u043a \u041a\u043e\u0437\u0430\u0440\u0430","source":"openstreetmap.org","min_zoom":8.0,"tier":1,"id":40627578,"name":"Nacionalni park Kozara"},"coordinates":[58,3796]},{"type":"Point","properties":{"source":"openstreetmap.org","kind":"military","name":"Vojni poligon Sveta Barbara","area":36099200,"tier":3,"min_zoom":8.0,"id":247040338},"coordinates":[165,138]},{"type":"Point","properties":{"source":"openstreetmap.org","kind":"military","name":"Vojni poligon Manjaca","area":41904200,"tier":3,"min_zoom":8.0,"id":357207307},"coordinates":[429,2352]}]},"boundaries":{"type":"GeometryCollection","geometries":[{"type":"MultiLineString","properties":{"name:right:yo":"Kroat\u00ed\u00e0","name:right:yi":"\u05e7\u05e8\u05d0\u05d0\u05d8\u05d9\u05e2","name:left:la":"Bosnia et Herzegovina","name:right:qu":"Hurwatsuyu","name:left:li":"Bosni\u00eb en Herzegovina","name:left:vi":"Bosna v\u00e0 Hercegovina","name:left:kg":"Bosna","name:left:ka":"\u10d1\u10dd\u10e1\u10dc\u10d8\u10d0 \u10d3\u10d0 \u10f0\u10d4\u10e0\u10ea\u10d4\u10d2\u10dd\u10d5\u10d8\u10dc\u10d0","name:left:kl":"Bosnia-Hercegovina","name:left:ko":"\ubcf4\uc2a4\ub2c8\uc544 \ud5e4\ub974\uccb4\uace0\ube44\ub098","name:left:kn":"\u0cac\u0cca\u0cb8\u0ccd\u0ca8\u0cbf\u0caf \u0cae\u0ca4\u0ccd\u0ca4\u0cc1 \u0cb9\u0cc6\u0cb0\u0ccd\u0c9c\u0cc6\u0c97\u0cca\u0cb5\u0cbf\u0ca8","name:right:is":"Kr\u00f3at\u00eda","name:right:rw":"Korowatiya","name:left:kk":"\u0411\u043e\u0441\u043d\u0438\u044f \u0436\u04d9\u043d\u0435 \u0413\u0435\u0440\u0446\u0435\u0433\u043e\u0432\u0438\u043d\u0430","name:left:rm":"Bosnia-Erzegovina","name:left:ku":"Bosniya \u00fb Herzegov\u00eena","name:left:kw":"Bosni\u2013Hercegovina","name:left:kv":"\u0411\u043e\u0441\u043d\u0438\u044f \u0434\u0430 \u0413\u0435\u0440\u0446\u0435\u0433\u043e\u0432\u0438\u043d\u0430","name:right:rn":"Croacia","name:left:rw":"Bosiniya na Herizegovina","name:left:ru":"\u0411\u043e\u0441\u043d\u0438\u044f \u0438 \u0413\u0435\u0440\u0446\u0435\u0433\u043e\u0432\u0438\u043d\u0430","name:right:ie":"Croatia","name:right:id":"Kroasia","name:right:ia":"Croatia","name:right:bi":"Croatia","name:right:bn":"\u0995\u09cd\u09b0\u09cb\u09af\u09bc\u09c7\u09b6\u09bf\u09af\u09bc\u09be","name:right:bo":"\u0f41\u0f74\u0f62\u0f7c\u0f0b\u0f64\u0f72\u0f0b\u0f61\u0f0d","name:left:sl":"Bosna in Hercegovina","name:right:ba":"\u0425\u043e\u0440\u0432\u0430\u0442\u0438\u044f","name:right:bg":"\u0425\u044a\u0440\u0432\u0430\u0442\u0438\u044f","name:right:be":"\u0425\u0430\u0440\u0432\u0430\u0442\u044b\u044f","name:right:br":"Kroatia","name:left:lt":"Bosnija ir Hercegovina","name:right:nn":"Kroatia","name:right:no":"Kroatia","name:right:nl":"Kroati\u00eb","name:right:wa":"Crowaceye","name:left:lv":"Bosnija un Hercegovina","name:right:wo":"Korwaasi","name:right:ne":"\u0915\u094d\u0930\u094b\u090f\u0936\u093f\u092f\u093e","name:right:na":"Kroaitsiya","name:right:gv":"Yn Chroit","name:right:nv":"Kw\u00f3\u00f3\u02bcad Bik\u00e9yah","kind_detail":"2","name:left:tr":"Bosna-Hersek","name:right:gu":"\u0a95\u0acd\u0ab0\u0acb\u0a8f\u0ab6\u0abf\u0aaf\u0abe","name:right:ps":"\u06a9\u0631\u0648\u0648\u0627\u0633\u064a\u0627","name:right:pt":"Cro\u00e1cia","name:left:mi":"P\u014dngia-Herek\u014dmina","name:left:tt":"\u0411\u043e\u0441\u043d\u0438\u044f \u04bb\u04d9\u043c \u0413\u0435\u0440\u0446\u0435\u0433\u043e\u0432\u0438\u043d\u0430","name:left:mn":"\u0411\u043e\u0441\u043d\u0438 \u0431\u0430 \u0425\u0435\u0440\u0446\u0435\u0433\u043e\u0432\u0438\u043d\u0430","name:left:ml":"\u0d2c\u0d4b\u0d38\u0d4d\u0d28\u0d3f\u0d2f \u0d39\u0d46\u0d7c\u0d38\u0d46\u0d17\u0d4b\u0d35\u0d3f\u0d28","name:left:th":"\u0e1b\u0e23\u0e30\u0e40\u0e17\u0e28\u0e1a\u0e2d\u0e2a\u0e40\u0e19\u0e35\u0e22\u0e41\u0e25\u0e30\u0e40\u0e2e\u0e2d\u0e23\u0e4c\u0e40\u0e0b\u0e42\u0e01\u0e27\u0e35\u0e19\u0e32","name:right:pa":"\u0a15\u0a4d\u0a30\u0a4b\u0a0f\u0a38\u0a3c\u0a40\u0a06","name:left:tk":"Bosni\u00fda we Gersegowina","name:left:tl":"Bosnia at Herzegovina","name:left:mt":"Bo\u017cnija u \u0126er\u017cegovina","name:right:gl":"Croacia","name:left:my":"\u1018\u1031\u102c\u1037\u1005\u1014\u102e\u1038\u101a\u102c\u1038\u1014\u103e\u1004\u1037\u103a \u101f\u102c\u1007\u102e\u1002\u102d\u102f\u1017\u102e\u1038\u1014\u102c\u1038\u1014\u102d\u102f\u1004\u103a\u1004\u1036","name:right:gn":"Kyoasia","name:right:pl":"Chorwacja","name:left:te":"\u0c2c\u0c4b\u0c38\u0c4d\u0c28\u0c3f\u0c2f\u0c3e \u0c2e\u0c30\u0c3f\u0c2f\u0c41 \u0c39\u0c46\u0c30\u0c4d\u0c1c\u0c46\u0c17\u0c4a\u0c35\u0c40\u0c28\u0c3e","name:left:tg":"\u0411\u043e\u0441\u043d\u0438\u044f \u0432\u0430 \u04b2\u0435\u0440\u0441\u0435\u0433\u043e\u0432\u0438\u043d\u0430","name:left:ms":"Bosnia dan Herzegovina","name:left:mr":"\u092c\u0949\u0938\u094d\u0928\u093f\u092f\u093e \u0906\u0923\u093f \u0939\u0930\u094d\u091d\u0917\u094b\u0935\u094d\u0939\u093f\u0928\u093e","name:left:da":"Bosnien-Hercegovina","name:left:de":"Bosnien und Herzegowina","name:right:ga":"An Chr\u00f3it","name:left:dv":"\u0784\u07ae\u0790\u07b0\u0782\u07a8\u0794\u07a7 \u0787\u07ac\u0782\u07b0\u0791\u07b0 \u0780\u07ac\u0783\u07b0\u0792\u07a8\u078e\u07ae\u0788\u07a9\u0782\u07a7","name:right:ug":"\u0643\u0631\u0648\u062f\u0649\u064a\u06d5","name:left:hi":"\u092c\u0949\u0938\u094d\u0928\u093f\u092f\u093e \u0914\u0930 \u0939\u0930\u094d\u091c\u093c\u0947\u0917\u094b\u0935\u093f\u0928\u093e","name:right:lb":"Kroatien","name:right:uk":"\u0425\u043e\u0440\u0432\u0430\u0442\u0456\u044f","name:left:he":"\u05d1\u05d5\u05e1\u05e0\u05d9\u05d4 \u05d5\u05d4\u05e8\u05e6\u05d2\u05d5\u05d1\u05d9\u05e0\u05d4","name:right:ln":"Kroasia","name:right:li":"Kroati\u00eb","name:right:lt":"Kroatija","name:right:ur":"\u06a9\u0631\u0648\u0634\u06cc\u0627","name:right:lv":"Horv\u0101tija","name:left:hy":"\u0532\u0578\u057d\u0576\u056b\u0561 \u0587 \u0540\u0565\u0580\u0581\u0565\u0563\u0578\u057e\u056b\u0576\u0561","name:left:ta":"\u0baa\u0bca\u0b9a\u0bc1\u0ba9\u0bbf\u0baf\u0bbe \u0b8e\u0bb0\u0bcd\u0b9a\u0bc6\u0b95\u0bcb\u0bb5\u0bbf\u0ba9\u0bbe","name:left:ht":"Bosni ak Erzegovin","name:left:hu":"Bosznia-Hercegovina","name:left:hr":"Bosna i Hercegovina","sort_rank":262,"name:right:gd":"Cro\u00e0isia","name:right:os":"\u0425\u043e\u0440\u0432\u0430\u0442\u0438","name:right:es":"Croacia","name:right:sr":"\u0425\u0440\u0432\u0430\u0442\u0441\u043a\u0430","name:right:eu":"Kroazia","name:right:et":"Horvaatia","name:left:os":"\u0411\u043e\u0441\u043d\u0438 \u00e6\u043c\u00e6 \u0413\u0435\u0440\u0446\u0435\u0433\u043e\u0432\u0438\u043d\u00e6","name:left:or":"\u0b2c\u0b4b\u0b38\u0b28\u0b3f\u0b06 \u0b13 \u0b39\u0b30\u0b1c\u0b17\u0b4b\u0b2d\u0b3f\u0b28\u0b3e","name:right:ee":"Croatia","name:left:vo":"Bosn\u00e4n e H\u00e4rzegov\u00e4n","name:left:oc":"B\u00f2snia e Ercegovina","name:right:eo":"Kroatujo","name:right:en":"Croatia","name:right:el":"\u039a\u03c1\u03bf\u03b1\u03c4\u03af\u03b1","name:left:ff":"Bosniya","name:left:fa":"\u0628\u0648\u0633\u0646\u06cc \u0648 \u0647\u0631\u0632\u06af\u0648\u06cc\u0646","name:left:ia":"Bosnia e Herzegovina","name:left:fo":"Bosnia og Hersegovina","name:right:sk":"Chorv\u00e1tsko","name:left:fi":"Bosnia ja Hertsegovina","name:left:fr":"Bosnie-Herz\u00e9govine","name:right:jv":"Kroasia","name:left:fy":"Bosnje","name:right:ja":"\u30af\u30ed\u30a2\u30c1\u30a2","name:right:sq":"Kroacia","name:right:ss":"IKhuroshiya","name:left:ja":"\u30dc\u30b9\u30cb\u30a2\u30fb\u30d8\u30eb\u30c4\u30a7\u30b4\u30d3\u30ca","name:right:su":"Kroasia","name:right:st":"Kroatia","name:right:sw":"Kroatia","name:right:sv":"Kroatien","name:left:qu":"Busna-Hirsiquwina","name:right:sm":"Croatia","name:right:sl":"Hrva\u0161ka","name:right:so":"Kroatia","name:right:sa":"\u0915\u094d\u0930\u094b\u090f\u0936\u093f\u092f\u093e","name:right:sc":"Croatzia","name:left:jv":"Bosnia-Herzegovina","id":-2528142,"name:right:sg":"Kroas\u00efi","name:right:ca":"Cr\u00f2acia","name:right:se":"Kroatia","name:right:ce":"\u0425\u043e\u0440\u0432\u0430\u0442\u0438","name:right:cy":"Croatia","name:right:zh-yue":"\u514b\u7f85\u5730\u4e9e","name:right:cs":"Chorvatsko","name:right:cu":"\u0425\u0440\u044a\u0432\u0430\u0442\u044c\u0441\u043a\u0430","name:right:it":"Croazia","name:left:ar":"\u0627\u0644\u0628\u0648\u0633\u0646\u0629 \u0648\u0627\u0644\u0647\u0631\u0633\u0643","name:left:az":"Bosniya v\u0259 Herseqovina","name:left:ro":"Bosnia \u0219i Her\u021begovina","name:left:af":"Bosni\u00eb-Herzegowina","name:left:an":"Bosnia y Herzegovina","name:left:am":"\u1266\u1235\u1292\u12eb\u1293 \u1204\u122d\u1338\u130e\u126a\u1293","name:right:ru":"\u0425\u043e\u0440\u0432\u0430\u0442\u0438\u044f","name:right:io":"Kroatia","name:left:zh-yue":"\u6ce2\u65af\u5c3c\u4e9e","name:right:ro":"Croa\u021bia","name:right:hy":"\u053d\u0578\u0580\u057e\u0561\u0569\u056b\u0561","name:left:lb":"Bosnien-Herzegowina","alt_name:left:eo":"Bosnio kaj Hercegovino","name:left:su":"Bosnia jeung H\u00e9rz\u00e9govina","int_name:left":"Bosnia and Herzegovina","name:left:sw":"Bosnia na Herzegovina","name:left:sv":"Bosnien och Hercegovina","name:left:sq":"Bosnja dhe Hercegovina","name:right:hu":"Horv\u00e1torsz\u00e1g","name:left:ln":"Bosnia na Erzegovina","name:left:sr":"\u0411\u043e\u0441\u043d\u0430 \u0438 \u0425\u0435\u0440\u0446\u0435\u0433\u043e\u0432\u0438\u043d\u0430","name:left:sm":"Bosnia ma Herzegovina","name:right:hi":"\u0915\u094d\u0930\u094b\u090f\u0936\u093f\u092f\u093e","name:left:so":"Bosniya","name:left:si":"\u0db6\u0ddc\u0dc3\u0dca\u0db1\u0dd2\u0dba\u0dcf \u0dc3\u0dc4 \u0dc4\u0dbb\u0dca\u0dc3\u0d9c\u0ddd\u0dc0\u0dd2\u0db1\u0dcf","name:left:sh":"Bosna i Hercegovina","name:left:sk":"Bosna a Hercegovina","name:left:se":"Bosnia ja Hercegovina","name:left:sa":"\u092c\u093e\u0938\u094d\u0928\u093f\u092f\u093e","name:right:he":"\u05e7\u05e8\u05d5\u05d0\u05d8\u05d9\u05d4","name:left:sc":"B\u00f2snia Erzegovina","name:right:la":"Croatia","name:right:af":"Kroasi\u00eb","name:left:co":"Bosnia \u00e8 Erzegovina","name:right:ab":"\u0425\u043e\u0440\u0432\u0430\u0442\u0438\u0430","name:left:ce":"\u0411\u043e\u0441\u043d\u0438 \u0430 \u0413\u0435\u0440\u0446\u0435\u0433\u043e\u0432\u0438\u043d\u0430","name:right:an":"Croacia","name:right:am":"\u12ad\u122e\u12a4\u123d\u12eb","name:left:ca":"B\u00f2snia i Hercegovina","source":"openstreetmap.org","name:left:cy":"Bosnia a Hercegovina","name:right:ar":"\u0643\u0631\u0648\u0627\u062a\u064a\u0627","name:left:cu":"\u0411\u043e\u0441\u043d\u0430","name:left:cv":"\u0411\u043e\u0441\u043d\u0438 \u0442\u0430\u0442\u0430 \u0413\u0435\u0440\u0446\u0435\u0433\u043e\u0432\u0438\u043d\u0430","name:right:az":"Xorvatiya","name:left:cs":"Bosna a Hercegovina","name":"Bosna i Hercegovina \/ \u0411\u043e\u0441\u043d\u0430 \u0438 \u0425\u0435\u0440\u0446\u0435\u0433\u043e\u0432\u0438\u043d\u0430 - Hrvatska","name:left:zh":"\u6ce2\u65af\u5c3c\u4e9e\u548c\u9ed1\u585e\u54e5\u7dad\u90a3","name:right:za":"Gwzlozdiya","name:right:zh":"\u514b\u7f85\u5730\u4e9e","official_name:left":"Bosna i Hercegovina","name:left:uz":"Bosniya va Gersegovina","name:right:fr":"Croatie","name:left:nv":"Bosna d\u00f3\u00f3 Hetsog Bik\u00e9yah","name:left:ur":"\u0628\u0648\u0633\u0646\u06cc\u0627 \u0648 \u06c1\u0631\u0632\u06cc\u06af\u0648\u0648\u06cc\u0646\u0627","id:right":-214885,"name:left:uk":"\u0411\u043e\u0441\u043d\u0456\u044f \u0456 \u0413\u0435\u0440\u0446\u0435\u0433\u043e\u0432\u0438\u043d\u0430","name:left:no":"Bosnia-Hercegovina","name:left:nl":"Bosni\u00eb en Herzegovina","alt_name:right:eo":"Kroatio","name:right:fa":"\u06a9\u0631\u0648\u0627\u0633\u06cc","name:right:fo":"Kroatia","name:left:ne":"\u092c\u094b\u0938\u094d\u0928\u093f\u092f\u093e \u0930 \u0939\u0930\u094d\u091c\u0917\u094b\u092d\u093f\u0928\u093e","name:left:ug":"\u0628\u0648\u0633\u0646\u0649\u064a\u06d5 \u06cb\u06d5 \u06be\u06d0\u0631\u0633\u06d0\u06af\u0648\u06cb\u0649\u0646\u0627","name:left:na":"Boteniya me Erdegobina","name:left:eo":"Bosnujo kaj Hercegovino","name:left:en":"Bosnia and Herzegovina","name:left:el":"\u0392\u03bf\u03c3\u03bd\u03af\u03b1 \u03ba\u03b1\u03b9 \u0395\u03c1\u03b6\u03b5\u03b3\u03bf\u03b2\u03af\u03bd\u03b7","name:left:ee":"Bosnia and Herzegovina","name:left:pl":"Bo\u015bnia i Hercegowina","name:left:es":"Bosnia y Herzegovina","name:left:ss":"IBhosinya ne Hezegovi","name:left:ie":"Bosnia e Herzegovina","name:left:eu":"Bosnia and Herzegovina","name:left:et":"Bosnia ja Hertsegoviina","name:right:oc":"Cro\u00e0cia","name:right:ko":"\ud06c\ub85c\uc544\ud2f0\uc544","name:right:uz":"Xorvatiya","osm_relation":true,"name:right:or":"\u0b15\u0b4d\u0b30\u0b4b\u0b0f\u0b38\u0b3f\u0b06","name:left:pt":"B\u00f3snia e Herzegovina","name:right:ku":"Kroatya","name:right:kv":"\u0425\u043e\u0440\u0432\u0430\u0442\u0438\u044f","name:left:gl":"Bosnia e Hercegovina","min_zoom":8.0,"name:left:zh-min-nan":"Bosna kap Hercegovina","name:left:wo":"Bosni","name:left:ga":"An Bhoisnia-Heirseagaiv\u00e9in","name:left:it":"Bosnia ed Erzegovina","name:left:gd":"Bosna agus Hearsagobhana","int_name:right":"Croatia","name:left:gn":"Vonia ha Hesegovina","name:left:gv":"Bosnia as Herzegovina","official_name:right":"Republika Hrvatska","name:left":"Bosna i Hercegovina \/ \u0411\u043e\u0441\u043d\u0430 \u0438 \u0425\u0435\u0440\u0446\u0435\u0433\u043e\u0432\u0438\u043d\u0430","name:right:mk":"\u0425\u0440\u0432\u0430\u0442\u0441\u043a\u0430","name:right:mi":"Koro\u0101tia","name:right:mn":"\u0425\u043e\u0440\u0432\u0430\u0442","name:right:ml":"\u0d15\u0d4d\u0d30\u0d4a\u0d2f\u0d47\u0d37\u0d4d\u0d2f","name:right:vo":"Kroas\u00e4n","name:right:vi":"Croatia","name:right:my":"\u1001\u101b\u102d\u102f\u1021\u1031\u1038\u101b\u103e\u102c\u1038\u1014\u102d\u102f\u1004\u103a\u1004\u1036","name:right:ms":"Croatia","name:right:mr":"\u0915\u094d\u0930\u094b\u090f\u0936\u093f\u092f\u093e","name:right:fy":"Kroaasje","name:right:mt":"Kroazja","name:left:nn":"Bosnia-Hercegovina","kind":"country","name:left:br":"Bosnia-ha-Herzegovina","name:left:bs":"Bosna i Hercegovina","name:left:bg":"\u0411\u043e\u0441\u043d\u0430 \u0438 \u0425\u0435\u0440\u0446\u0435\u0433\u043e\u0432\u0438\u043d\u0430","name:left:be":"\u0411\u043e\u0441\u043d\u0456\u044f \u0456 \u0413\u0435\u0440\u0446\u0430\u0433\u0430\u0432\u0456\u043d\u0430","name:left:bi":"Bosnia & Herzegovina","name:left:bn":"\u09ac\u09b8\u09a8\u09bf\u09af\u09bc\u09be \u0993 \u09b9\u09be\u09b0\u09cd\u099c\u09c7\u0997\u09cb\u09ad\u09bf\u09a8\u09be","name:left:bo":"\u0f56\u0fb7\u0f7c\u0f66\u0f74\u0f0b\u0f53\u0f72\u0f61\u0f0b\u0f51\u0f44\u0f0b\u0f67\u0f62\u0f0b\u0f5b\u0f7a\u0f0b\u0f42\u0fb7\u0f7c\u0f0b\u0f5d\u0f72\u0f0b\u0f53\u0f0d","name:right":"Hrvatska","name:left:yo":"B\u00f3sn\u00ed\u00e0 \u00e0ti H\u1eb9rj\u1eb9g\u00f2f\u00edn\u00e0","name:left:yi":"\u05d1\u05d0\u05e1\u05e0\u05d9\u05e2 \u05d0\u05d5\u05df \u05d4\u05e2\u05e8\u05e6\u05e2\u05d2\u05d0\u05d5\u05d5\u05d9\u05e0\u05e2","id:left":-2528142,"name:right:fi":"Kroatia","name:right:ka":"\u10ee\u10dd\u10e0\u10d5\u10d0\u10e2\u10d8\u10d0","name:left:io":"Bosnia e Herzegovina","name:left:pa":"\u0a2c\u0a4b\u0a38\u0a28\u0a40\u0a06 \u0a05\u0a24\u0a47 \u0a39\u0a30\u0a1c\u0a3c\u0a47\u0a17\u0a4b\u0a35\u0a40\u0a28\u0a3e","name:right:kg":"Kroatia","name:right:tt":"\u0425\u043e\u0440\u0432\u0430\u0442\u0438\u044f","name:right:kk":"\u0425\u043e\u0440\u0432\u0430\u0442\u0438\u044f","name:left:id":"Bosnia dan Herzegovina","name:right:kl":"Kroatia","name:right:tr":"H\u0131rvatistan","name:right:kn":"\u0c95\u0ccd\u0cb0\u0cca\u0caf\u0cc6\u0cb6\u0cbf\u0caf","name:right:tl":"Kroasya","name:right:th":"\u0e1b\u0e23\u0e30\u0e40\u0e17\u0e28\u0e42\u0e04\u0e23\u0e40\u0e2d\u0e40\u0e0a\u0e35\u0e22","name:right:kw":"Kroati","name:right:tk":"Horwati\u00fda","name:right:ky":"\u0425\u043e\u0440\u0432\u0430\u0442\u0438\u044f","name:right:te":"\u0c15\u0c4d\u0c30\u0c4a\u0c2f\u0c47\u0c37\u0c3f\u0c2f\u0c3e","name:right:tg":"\u0425\u043e\u0440\u0432\u0430\u0442\u0438\u044f","name:left:is":"Bosn\u00eda og Herseg\u00f3v\u00edna","name:right:ta":"\u0b95\u0bc1\u0bb0\u0bcb\u0bb5\u0bbe\u0b9a\u0bbf\u0baf\u0bbe","name:right:de":"Kroatien","name:right:da":"Kroatien","name:right:dv":"\u0786\u07aa\u0783\u07ae\u0787\u07ad\u079d\u07a8\u0787\u07a7","name:right:ht":"Kroasi"},"arcs":[[0],[1]]},{"type":"LineString","properties":{"name:right:es":"Federaci\u00f3n de Bosnia y Herzegovina","alt_name:left:ro":"Republica Srpska","name:right:hr":"Entitet Federacija Bosne i Hercegovine","name:right:sr":"\u0424\u0435\u0434\u0435\u0440\u0430\u0446\u0438\u0458\u0430 \u0411\u043e\u0441\u043de \u0438 \u0425\u0435\u0440\u0446\u0435\u0433\u043e\u0432\u0438\u043de","name:left:ro":"Republica S\u00e2rb\u0103 a Bosniei","name:left:sr":"\u0420\u0435\u043f\u0443\u0431\u043b\u0438\u043a\u0430 \u0421\u0440\u043f\u0441\u043a\u0430","name:right:lt":"Bosnijos ir Hercegovinos Federacija","min_zoom":8.0,"name:right:ro":"Federa\u021bia Bosniei \u0219i Her\u021begovinei","name:left:ru":"\u0420\u0435\u0441\u043f\u0443\u0431\u043b\u0438\u043a\u0430 \u0421\u0435\u0440\u0431\u0441\u043a\u0430\u044f","name:right:ru":"\u0424\u0435\u0434\u0435\u0440\u0430\u0446\u0438\u044f \u0411\u043e\u0441\u043d\u0438\u0438 \u0438 \u0413\u0435\u0440\u0446\u0435\u0433\u043e\u0432\u0438\u043d\u044b","name:right:eo":"Federacio Bosnio kaj Hercegovino","id":-2528145,"osm_relation":true,"name:right":"Federacija Bosne i Hercegovine","kind":"region","name:left:eo":"Serba Respubliko;Respubliko Serba","name":"Republika Srpska - Federacija Bosne i Hercegovine","source":"openstreetmap.org","sort_rank":256,"kind_detail":"4","name:right:en":"Entity Federation of Bosnia and Herzegovina","name:right:ca":"Federaci\u00f3 de B\u00f2snia i Hercegovina","name:right:de":"F\u00f6deration Bosnien und Herzegowina","name:left:es":"Rep\u00fablica Srpska","name:right:bs":"Entitet Federacija Bosne i Hercegovine","id:left":-2528145,"id:right":-2528144,"name:left":"Republika Srpska"},"arcs":[2]},{"type":"MultiLineString","properties":{"name:right:es":"Federaci\u00f3n de Bosnia y Herzegovina","alt_name:left:ro":"Republica Srpska","name:right:hr":"Entitet Federacija Bosne i Hercegovine","name:right:sr":"\u0424\u0435\u0434\u0435\u0440\u0430\u0446\u0438\u0458\u0430 \u0411\u043e\u0441\u043de \u0438 \u0425\u0435\u0440\u0446\u0435\u0433\u043e\u0432\u0438\u043de","name:left:ro":"Republica S\u00e2rb\u0103 a Bosniei","name:left:sr":"\u0420\u0435\u043f\u0443\u0431\u043b\u0438\u043a\u0430 \u0421\u0440\u043f\u0441\u043a\u0430","name:right:lt":"Bosnijos ir Hercegovinos Federacija","min_zoom":8.0,"name:right:ro":"Federa\u021bia Bosniei \u0219i Her\u021begovinei","name:left:ru":"\u0420\u0435\u0441\u043f\u0443\u0431\u043b\u0438\u043a\u0430 \u0421\u0435\u0440\u0431\u0441\u043a\u0430\u044f","name:right:ru":"\u0424\u0435\u0434\u0435\u0440\u0430\u0446\u0438\u044f \u0411\u043e\u0441\u043d\u0438\u0438 \u0438 \u0413\u0435\u0440\u0446\u0435\u0433\u043e\u0432\u0438\u043d\u044b","name:right:eo":"Federacio Bosnio kaj Hercegovino","id":-2528145,"osm_relation":true,"name:right":"Federacija Bosne i Hercegovine","kind":"region","name:left:eo":"Serba Respubliko;Respubliko Serba","name":"Republika Srpska - Federacija Bosne i Hercegovine","source":"openstreetmap.org","sort_rank":256,"kind_detail":"4","name:right:en":"Entity Federation of Bosnia and Herzegovina","name:right:ca":"Federaci\u00f3 de B\u00f2snia i Hercegovina","name:right:de":"F\u00f6deration Bosnien und Herzegowina","name:left:es":"Rep\u00fablica Srpska","name:right:bs":"Entitet Federacija Bosne i Hercegovine","id:left":-2528145,"id:right":-2528144,"name:left":"Republika Srpska"},"arcs":[[3],[4],[5],[6]]},{"type":"MultiLineString","properties":{"kind":"region","name:ro":"Republica S\u00e2rb\u0103 a Bosniei","name":"Republika Srpska","sort_rank":256,"kind_detail":"4","name:eo":"Serba Respubliko;Respubliko Serba","name:sr":"\u0420\u0435\u043f\u0443\u0431\u043b\u0438\u043a\u0430 \u0421\u0440\u043f\u0441\u043a\u0430","source":"openstreetmap.org","min_zoom":8.0,"name:es":"Rep\u00fablica Srpska","name:ru":"\u0420\u0435\u0441\u043f\u0443\u0431\u043b\u0438\u043a\u0430 \u0421\u0435\u0440\u0431\u0441\u043a\u0430\u044f","alt_name:ro":"Republica Srpska","id":-2528145,"osm_relation":true},"arcs":[[7],[8]]},{"type":"LineString","properties":{"name:ro":"Federa\u021bia Bosniei \u0219i Her\u021begovinei","name:lt":"Bosnijos ir Hercegovinos Federacija","name:eo":"Federacio Bosnio kaj Hercegovino","name:bs":"Entitet Federacija Bosne i Hercegovine","min_zoom":8.0,"id":-2528144,"name:ru":"\u0424\u0435\u0434\u0435\u0440\u0430\u0446\u0438\u044f \u0411\u043e\u0441\u043d\u0438\u0438 \u0438 \u0413\u0435\u0440\u0446\u0435\u0433\u043e\u0432\u0438\u043d\u044b","name:hr":"Entitet Federacija Bosne i Hercegovine","name:sr":"\u0424\u0435\u0434\u0435\u0440\u0430\u0446\u0438\u0458\u0430 \u0411\u043e\u0441\u043de \u0438 \u0425\u0435\u0440\u0446\u0435\u0433\u043e\u0432\u0438\u043de","osm_relation":true,"kind":"region","name:en":"Entity Federation of Bosnia and Herzegovina","name":"Federacija Bosne i Hercegovine","sort_rank":256,"kind_detail":"4","name:de":"F\u00f6deration Bosnien und Herzegowina","source":"openstreetmap.org","name:ca":"Federaci\u00f3 de B\u00f2snia i Hercegovina","name:es":"Federaci\u00f3n de Bosnia y Herzegovina"},"arcs":[9]}]},"roads":{"type":"GeometryCollection","geometries":[{"type":"LineString","properties":{"kind":"major_road","network":"e-road","sort_rank":380,"kind_detail":"primary","source":"openstreetmap.org","min_zoom":8.0,"shield_text":"761","ref":"M103","id":200671168},"arcs":[14]},{"type":"MultiLineString","properties":{"kind":"major_road","network":"e-road","sort_rank":380,"kind_detail":"primary","source":"openstreetmap.org","min_zoom":8.0,"shield_text":"661","ref":"M 109;M 5"},"arcs":[[15],[16],[17],[18],[19],[20]]},{"type":"LineString","properties":{"kind":"major_road","network":"ba:Magistralne ceste","sort_rank":380,"kind_detail":"primary","is_bicycle_related":true,"source":"openstreetmap.org","min_zoom":8.0,"shield_text":null,"ref":"M-4"},"arcs":[21]},{"type":"LineString","properties":{"kind":"major_road","network":"ba:Magistralne ceste","sort_rank":380,"kind_detail":"primary","source":"openstreetmap.org","min_zoom":8.0,"shield_text":"14.1","ref":"M 206;M-14.1","id":453492519},"arcs":[22]},{"type":"MultiLineString","properties":{"kind":"highway","network":"ba:Autoceste","sort_rank":383,"kind_detail":"motorway","source":"openstreetmap.org","min_zoom":8.0,"all_networks":["ba:Autoceste"],"shield_text":"1","ref":"A1;E 73","all_shield_texts":["1"]},"arcs":[[23],[24]]},{"type":"MultiLineString","properties":{"source":"openstreetmap.org","kind":"major_road","landuse_kind":"residential","sort_rank":380,"kind_detail":"primary","ref":"M 216","min_zoom":8.0},"arcs":[[25],[26],[27]]},{"type":"LineString","properties":{"kind":"major_road","network":"ba:Magistralne ceste","sort_rank":380,"kind_detail":"primary","source":"openstreetmap.org","min_zoom":8.0,"shield_text":null,"ref":"M 112;M-4"},"arcs":[28]},{"type":"MultiLineString","properties":{"kind":"major_road","network":"e-road","sort_rank":380,"kind_detail":"primary","is_bicycle_related":true,"bicycle_shield_text":"BiH N-S","bicycle_network":"ncn","source":"openstreetmap.org","min_zoom":8.0,"shield_text":"73","ref":"M 110;M17"},"arcs":[[29],[30],[31],[32],[33],[34],[35],[36],[37]]},{"type":"MultiLineString","properties":{"kind":"highway","network":"e-road","sort_rank":383,"kind_detail":"motorway","source":"openstreetmap.org","min_zoom":8.0,"all_networks":["e-road","e-road","ba:Autoceste","ba:Magistralne ceste","ba:Magistralne ceste"],"shield_text":"73","ref":"A1;E 73","all_shield_texts":["73","761","1","17","17"]},"arcs":[[38],[39],[40],[41],[42],[43]]},{"type":"MultiLineString","properties":{"kind":"major_road","network":"e-road","sort_rank":381,"landuse_kind":"urban_area","source":"openstreetmap.org","min_zoom":8.0,"kind_detail":"trunk","shield_text":"661","ref":"M-16"},"arcs":[[44],[45]]},{"type":"LineString","properties":{"kind":"major_road","network":"ba:Magistralne ceste","sort_rank":380,"kind_detail":"primary","source":"openstreetmap.org","min_zoom":8.0,"nat_name":"Put Srpske Vojske","shield_text":"14.1","ref":"M-16","id":158884485},"arcs":[46]},{"type":"LineString","properties":{"kind":"major_road","network":"e-road","sort_rank":380,"kind_detail":"primary","is_bicycle_related":true,"bicycle_shield_text":"BiH N-S","bicycle_network":"ncn","source":"openstreetmap.org","min_zoom":8.0,"shield_text":"661","ref":"M-5","id":198467936},"arcs":[47]},{"type":"LineString","properties":{"kind":"major_road","sort_rank":379,"kind_detail":"secondary","is_bicycle_related":true,"bicycle_shield_text":"BiH N-S","bicycle_network":"ncn","source":"openstreetmap.org","min_zoom":8.0,"id":186113999},"arcs":[48]},{"type":"MultiLineString","properties":{"sort_rank":380,"kind_detail":"primary","min_zoom":8.0,"kind":"major_road","source":"openstreetmap.org"},"arcs":[[49],[50],[51],[52],[53],[54],[55]]},{"type":"MultiLineString","properties":{"kind":"minor_road","sort_rank":360,"kind_detail":"residential","is_bicycle_related":true,"bicycle_shield_text":"BiH N-S","bicycle_network":"ncn","source":"openstreetmap.org","min_zoom":8.0},"arcs":[[56],[57]]},{"type":"MultiLineString","properties":{"kind":"major_road","network":"e-road","sort_rank":380,"kind_detail":"primary","source":"openstreetmap.org","min_zoom":8.0,"shield_text":"761","ref":"M-5"},"arcs":[[58],[59],[60],[61]]},{"type":"LineString","properties":{"kind":"major_road","sort_rank":379,"kind_detail":"secondary","is_bicycle_related":true,"bicycle_shield_text":"BiH N-S","bicycle_network":"ncn","source":"openstreetmap.org","min_zoom":8.0,"ref":"R 403;R-456","id":230246949},"arcs":[62]},{"type":"MultiLineString","properties":{"kind":"major_road","network":"ba:Magistralne ceste","sort_rank":380,"kind_detail":"primary","is_bicycle_related":true,"bicycle_shield_text":"BiH N-S","bicycle_network":"ncn","source":"openstreetmap.org","min_zoom":8.0,"shield_text":"16.4","ref":"M 218;M16.4"},"arcs":[[63],[64],[65],[66]]},{"type":"MultiLineString","properties":{"kind":"major_road","network":"ba:Magistralne ceste","sort_rank":380,"kind_detail":"primary","source":"openstreetmap.org","min_zoom":8.0,"landuse_kind":"urban_area","shield_text":null,"ref":"M-4"},"arcs":[[67],[68],[69],[70],[71],[72],[73]]},{"type":"LineString","properties":{"kind":"major_road","int_name":"E661","network":"e-road","sort_rank":380,"kind_detail":"primary","id":42943239,"source":"openstreetmap.org","min_zoom":8.0,"nat_name":"M16","shield_text":"661","ref":"M-16","name:sr":"\u041e\u043c\u043b\u0430\u0434\u0438\u043d\u0441\u043a\u0430"},"arcs":[74]},{"type":"MultiLineString","properties":{"kind":"major_road","network":"e-road","sort_rank":380,"kind_detail":"primary","source":"openstreetmap.org","min_zoom":8.0,"shield_text":"73","ref":"M 110;M-17"},"arcs":[[75],[76],[77],[78],[79],[80],[81]]},{"type":"LineString","properties":{"kind":"major_road","network":"ba:Magistralne ceste","sort_rank":380,"kind_detail":"primary","is_bicycle_related":true,"source":"openstreetmap.org","min_zoom":8.0,"old_name":"Derventska obilaznica","shield_text":"14.1","ref":"M-14.1","id":197705826},"arcs":[82]},{"type":"MultiLineString","properties":{"kind":"major_road","network":"e-road","sort_rank":380,"kind_detail":"primary","source":"openstreetmap.org","min_zoom":8.0,"shield_text":"661","ref":"M-16"},"arcs":[[83],[84],[85],[86],[87],[88]]},{"type":"MultiLineString","properties":{"kind":"major_road","network":"e-road","sort_rank":380,"kind_detail":"primary","source":"openstreetmap.org","min_zoom":8.0,"landuse_kind":"urban_area","shield_text":"661","ref":"M-16"},"arcs":[[89],[90],[91]]},{"type":"MultiLineString","properties":{"kind":"major_road","network":"ba:Magistralne ceste","sort_rank":380,"kind_detail":"primary","source":"openstreetmap.org","min_zoom":8.0,"landuse_kind":"urban_area","shield_text":null,"ref":"M-4","name:sr":"\u0411\u0443\u043b\u0435\u0432\u0430\u0440 \u0421\u0440\u043f\u0441\u043a\u0435 \u0412\u043e\u0458\u0441\u043a\u0435"},"arcs":[[92],[93]]},{"type":"LineString","properties":{"source":"openstreetmap.org","kind":"major_road","sort_rank":380,"kind_detail":"primary","ref":"R 213","min_zoom":8.0,"id":316945031},"arcs":[94]},{"type":"LineString","properties":{"kind":"major_road","network":"ba:Magistralne ceste","sort_rank":380,"kind_detail":"primary","source":"openstreetmap.org","min_zoom":8.0,"shield_text":"14.1","ref":"M 206;M 14.1"},"arcs":[95]},{"type":"LineString","properties":{"kind":"major_road","network":"ba:Magistralne ceste","sort_rank":380,"kind_detail":"primary","id":303602131,"source":"openstreetmap.org","min_zoom":8.0,"shield_text":null,"ref":"M-4","name:sr":"\u0414\u043e\u045a\u0438 \u0420\u0443\u0436\u0435\u0432\u0438\u045b"},"arcs":[96]},{"type":"LineString","properties":{"kind":"major_road","network":"e-road","sort_rank":380,"kind_detail":"primary","source":"openstreetmap.org","min_zoom":8.0,"shield_text":"661","ref":"M-5","id":177942358},"arcs":[97]},{"type":"LineString","properties":{"source":"openstreetmap.org","kind":"major_road","sort_rank":380,"kind_detail":"primary","ref":"M 217;R 413","min_zoom":8.0},"arcs":[98]},{"type":"LineString","properties":{"kind":"major_road","network":"ba:Magistralne ceste","sort_rank":380,"kind_detail":"primary","source":"openstreetmap.org","min_zoom":8.0,"shield_text":"15","ref":"M-15"},"arcs":[99]},{"type":"MultiLineString","properties":{"kind":"major_road","network":"e-road","sort_rank":380,"kind_detail":"primary","source":"openstreetmap.org","min_zoom":8.0,"shield_text":"761","ref":"M 103;M5"},"arcs":[[100],[101]]},{"type":"LineString","properties":{"kind":"major_road","int_name":"E661","network":"e-road","sort_rank":380,"kind_detail":"primary","name:sr":"\u041e\u043c\u043b\u0430\u0434\u0438\u043d\u0441\u043a\u0430","source":"openstreetmap.org","min_zoom":8.0,"nat_name":"M16","shield_text":"661","landuse_kind":"urban_area","ref":"M-16","id":42943239},"arcs":[102]},{"type":"LineString","properties":{"kind":"major_road","network":"ba:Magistralne ceste","sort_rank":380,"kind_detail":"primary","source":"openstreetmap.org","min_zoom":8.0,"shield_text":"5","ref":"M 114;M5"},"arcs":[103]},{"type":"MultiLineString","properties":{"kind":"major_road","network":"ba:Magistralne ceste","sort_rank":380,"kind_detail":"primary","source":"openstreetmap.org","min_zoom":8.0,"shield_text":null,"ref":"M-4"},"arcs":[[104],[105],[106],[107],[108],[109]]},{"type":"LineString","properties":{"kind":"major_road","network":"e-road","sort_rank":380,"kind_detail":"primary","source":"openstreetmap.org","min_zoom":8.0,"shield_text":"73","ref":"M 110;M-4 M-17","id":193771712},"arcs":[110]},{"type":"LineString","properties":{"source":"openstreetmap.org","kind":"major_road","sort_rank":380,"kind_detail":"primary","ref":"M 109;M 5","min_zoom":8.0},"arcs":[111]},{"type":"LineString","properties":{"kind":"major_road","sort_rank":377,"kind_detail":"tertiary","is_bicycle_related":true,"bicycle_shield_text":"BiH N-S","bicycle_network":"ncn","source":"openstreetmap.org","min_zoom":8.0,"ref":"R 454;R 465"},"arcs":[112]},{"type":"LineString","properties":{"kind":"major_road","int_name":"E661","network":"e-road","sort_rank":380,"kind_detail":"primary","source":"openstreetmap.org","min_zoom":8.0,"nat_name":"M16","shield_text":"661","landuse_kind":"urban_area","ref":"M-16","name:sr":"\u041a\u0440\u0430\u0458\u0438\u0448\u043a\u0438\u0445 \u0431\u0440\u0438\u0433\u0430\u0434\u0430"},"arcs":[113]},{"type":"MultiLineString","properties":{"kind":"major_road","network":"ba:Magistralne ceste","sort_rank":380,"kind_detail":"primary","source":"openstreetmap.org","min_zoom":8.0,"shield_text":"5","ref":"M 114;M 5"},"arcs":[[114],[115]]},{"type":"MultiLineString","properties":{"kind":"major_road","network":"e-road","sort_rank":380,"kind_detail":"primary","source":"openstreetmap.org","min_zoom":8.0,"shield_text":"73","ref":"M 110;M-5 M-17"},"arcs":[[116],[117]]},{"type":"MultiLineString","properties":{"kind":"major_road","network":"ba:Magistralne ceste","sort_rank":380,"kind_detail":"primary","is_bicycle_related":true,"source":"openstreetmap.org","min_zoom":8.0,"shield_text":"14.1","ref":"M-14.1"},"arcs":[[118],[119],[120],[121]]},{"type":"LineString","properties":{"source":"openstreetmap.org","kind":"major_road","sort_rank":380,"kind_detail":"primary","ref":"E 661","min_zoom":8.0,"id":202805398},"arcs":[122]},{"type":"MultiLineString","properties":{"kind":"major_road","network":"e-road","sort_rank":380,"kind_detail":"primary","is_bicycle_related":true,"source":"openstreetmap.org","min_zoom":8.0,"shield_text":"661","ref":"M-16"},"arcs":[[123],[124]]},{"type":"MultiLineString","properties":{"kind":"major_road","network":"ba:Magistralne ceste","sort_rank":380,"kind_detail":"primary","source":"openstreetmap.org","min_zoom":8.0,"shield_text":"17.2","ref":"M-17.2"},"arcs":[[125],[126]]},{"type":"MultiLineString","properties":{"kind":"major_road","sort_rank":377,"kind_detail":"tertiary","is_bicycle_related":true,"bicycle_shield_text":"BiH N-S","bicycle_network":"ncn","source":"openstreetmap.org","min_zoom":8.0,"ref":"R 455"},"arcs":[[127],[128],[129]]},{"type":"LineString","properties":{"kind":"highway","network":"e-road","sort_rank":383,"kind_detail":"motorway","source":"openstreetmap.org","min_zoom":8.0,"all_networks":["e-road","ba:Magistralne ceste","ba:Autoceste"],"shield_text":"661","ref":"E-661","id":158272032,"all_shield_texts":["661","16","661"]},"arcs":[130]},{"type":"LineString","properties":{"kind":"major_road","sort_rank":380,"kind_detail":"primary","is_bicycle_related":true,"cycleway":"lane","source":"openstreetmap.org","min_zoom":8.0,"old_name":"Borisa Kidri\u010da","landuse_kind":"residential","ref":"M 216;R 441","id":31723670},"arcs":[131]},{"type":"MultiLineString","properties":{"kind":"major_road","network":"e-road","sort_rank":380,"kind_detail":"primary","is_bicycle_related":true,"bicycle_shield_text":"BiH N-S","bicycle_network":"ncn","source":"openstreetmap.org","min_zoom":8.0,"shield_text":"661","ref":"M 109;M 5"},"arcs":[[132],[133],[134],[135]]},{"type":"LineString","properties":{"kind":"major_road","sort_rank":377,"kind_detail":"tertiary","is_bicycle_related":true,"bicycle_shield_text":"BiH N-S","bicycle_network":"ncn","source":"openstreetmap.org","min_zoom":8.0},"arcs":[136]},{"type":"LineString","properties":{"kind":"major_road","network":"ba:Magistralne ceste","sort_rank":380,"kind_detail":"primary","name:sr":"\u0411\u0443\u043b\u0435\u0432\u0430\u0440 \u0432\u043e\u0458\u0432\u043e\u0434\u0435 \u0421\u0442\u0435\u043f\u0435 \u0421\u0442\u0435\u043f\u0430\u043d\u043e\u0432\u0438\u045b\u0430","source":"openstreetmap.org","min_zoom":8.0,"landuse_kind":"urban_area","shield_text":null,"ref":"M-4","id":64489689},"arcs":[137]},{"type":"LineString","properties":{"kind":"major_road","network":"e-road","sort_rank":380,"kind_detail":"primary","source":"openstreetmap.org","min_zoom":8.0,"shield_text":"761","ref":"M 109"},"arcs":[138]},{"type":"MultiLineString","properties":{"source":"openstreetmap.org","kind":"major_road","landuse_kind":"urban_area","sort_rank":380,"kind_detail":"primary","ref":"M 216","min_zoom":8.0},"arcs":[[139],[140]]},{"type":"MultiLineString","properties":{"kind":"major_road","network":"ba:Magistralne ceste","sort_rank":380,"kind_detail":"primary","source":"openstreetmap.org","min_zoom":8.0,"shield_text":"14.1","ref":"M-14.1"},"arcs":[[141],[142],[143],[144],[145],[146]]},{"type":"MultiLineString","properties":{"source":"openstreetmap.org","kind":"major_road","sort_rank":380,"kind_detail":"primary","ref":"M 213;R 465","min_zoom":8.0},"arcs":[[147],[148]]},{"type":"LineString","properties":{"kind":"major_road","network":"e-road","sort_rank":380,"kind_detail":"primary","source":"openstreetmap.org","min_zoom":8.0,"shield_text":"73","ref":"M17"},"arcs":[149]},{"type":"MultiLineString","properties":{"kind":"major_road","network":"e-road","sort_rank":380,"kind_detail":"primary","source":"openstreetmap.org","min_zoom":8.0,"shield_text":"73","ref":"M-4;M-17"},"arcs":[[150],[151]]},{"type":"LineString","properties":{"kind":"major_road","network":"ba:Magistralne ceste","sort_rank":380,"kind_detail":"primary","is_bicycle_related":true,"source":"openstreetmap.org","min_zoom":8.0,"shield_text":"16.4","ref":"M16.4","id":198467930},"arcs":[152]},{"type":"MultiLineString","properties":{"kind":"major_road","network":"e-road","sort_rank":380,"kind_detail":"primary","source":"openstreetmap.org","min_zoom":8.0,"shield_text":"661","ref":"M-16","name:sr":"\u041c\u0430\u045a\u0430\u0447\u043a\u0438\u0445 \u0443\u0441\u0442\u0430\u043d\u0438\u043a\u0430"},"arcs":[[153],[154]]},{"type":"LineString","properties":{"kind":"major_road","sort_rank":379,"kind_detail":"secondary","is_bicycle_related":true,"bicycle_shield_text":"BiH N-S","bicycle_network":"ncn","source":"openstreetmap.org","min_zoom":8.0,"ref":"R403;R445","id":179200743},"arcs":[155]},{"type":"LineString","properties":{"kind":"major_road","int_name":"E661","network":"e-road","sort_rank":380,"kind_detail":"primary","source":"openstreetmap.org","min_zoom":8.0,"nat_name":"M16","shield_text":"661","ref":"M-16","id":33550239},"arcs":[156]},{"type":"LineString","properties":{"kind":"major_road","network":"ba:Magistralne ceste","sort_rank":380,"kind_detail":"primary","is_bicycle_related":true,"source":"openstreetmap.org","min_zoom":8.0,"shield_text":"16.1","ref":"M-16.1"},"arcs":[157]},{"type":"MultiLineString","properties":{"kind":"major_road","network":"e-road","sort_rank":380,"kind_detail":"primary","is_bicycle_related":true,"bicycle_shield_text":"BiH N-S","bicycle_network":"ncn","source":"openstreetmap.org","min_zoom":8.0,"shield_text":"73","ref":"M-17"},"arcs":[[158],[159]]},{"type":"LineString","properties":{"source":"openstreetmap.org","kind":"major_road","ref":"M-4","sort_rank":380,"kind_detail":"primary","is_bicycle_related":true,"min_zoom":8.0},"arcs":[160]},{"type":"MultiLineString","properties":{"kind":"major_road","network":"ba:Magistralne ceste","sort_rank":380,"kind_detail":"primary","source":"openstreetmap.org","min_zoom":8.0,"shield_text":"5","ref":"M 114"},"arcs":[[161],[162]]},{"type":"MultiLineString","properties":{"kind":"major_road","network":"ba:Magistralne ceste","sort_rank":380,"kind_detail":"primary","source":"openstreetmap.org","min_zoom":8.0,"landuse_kind":"urban_area","shield_text":null,"ref":"M-4","name:sr":"\u0411\u0443\u043b\u0435\u0432\u0430\u0440 \u0432\u043e\u0458\u0432\u043e\u0434\u0435 \u041f\u0435\u0442\u0440\u0430 \u0411\u043e\u0458\u043e\u0432\u0438\u045b\u0430"},"arcs":[[163],[164]]},{"type":"LineString","properties":{"kind":"major_road","sort_rank":380,"landuse_kind":"residential","source":"openstreetmap.org","min_zoom":8.0,"kind_detail":"primary","ref":"M 216;R441","id":168938517},"arcs":[165]},{"type":"LineString","properties":{"kind":"major_road","network":"ba:Regionalne ceste","sort_rank":380,"kind_detail":"primary","source":"openstreetmap.org","min_zoom":8.0,"shield_text":"467","ref":"M 213;R 467"},"arcs":[166]},{"type":"LineString","properties":{"kind":"major_road","sort_rank":377,"kind_detail":"tertiary","is_bicycle_related":true,"bicycle_shield_text":"BiH N-S","bicycle_network":"ncn","source":"openstreetmap.org","min_zoom":8.0,"ref":"R 454","id":259568778},"arcs":[167]},{"type":"MultiLineString","properties":{"kind":"major_road","sort_rank":379,"kind_detail":"secondary","is_bicycle_related":true,"bicycle_shield_text":"BiH N-S","bicycle_network":"ncn","source":"openstreetmap.org","min_zoom":8.0,"ref":"R 403"},"arcs":[[168],[169]]},{"type":"MultiLineString","properties":{"kind":"major_road","network":"ba:Magistralne ceste","sort_rank":380,"kind_detail":"primary","source":"openstreetmap.org","min_zoom":8.0,"shield_text":"16.1","ref":"M-16.1"},"arcs":[[170],[171],[172]]},{"type":"LineString","properties":{"kind":"major_road","sort_rank":380,"kind_detail":"primary","id":294584463,"source":"openstreetmap.org","min_zoom":8.0,"ref":"M-4","name:sr":"\u0443\u043b. \u041a\u0440\u0430\u0459\u0430 \u041f\u0435\u0442\u0440\u0430 \u0418"},"arcs":[173]},{"type":"MultiLineString","properties":{"kind":"major_road","network":"e-road","sort_rank":380,"kind_detail":"primary","source":"openstreetmap.org","min_zoom":8.0,"shield_text":"661","ref":"M 106;M5;M16"},"arcs":[[174],[175]]},{"type":"MultiLineString","properties":{"kind":"major_road","network":"e-road","sort_rank":380,"kind_detail":"primary","source":"openstreetmap.org","min_zoom":8.0,"shield_text":"761","ref":"M-5;M-15"},"arcs":[[176],[177]]},{"type":"LineString","properties":{"kind":"major_road","network":"e-road","sort_rank":380,"kind_detail":"primary","source":"openstreetmap.org","min_zoom":8.0,"shield_text":"661","ref":"M106;M-5 M-16","id":192488857},"arcs":[178]},{"type":"LineString","properties":{"kind":"major_road","network":"ba:Magistralne ceste","sort_rank":380,"kind_detail":"primary","is_bicycle_related":true,"bicycle_shield_text":null,"bicycle_network":"lcn","source":"openstreetmap.org","min_zoom":8.0,"shield_text":null,"ref":"M-4"},"arcs":[179]},{"type":"LineString","properties":{"kind":"major_road","sort_rank":379,"kind_detail":"secondary","is_bicycle_related":true,"bicycle_shield_text":"BiH N-S","bicycle_network":"ncn","source":"openstreetmap.org","min_zoom":8.0,"ref":"R-464","id":338858261},"arcs":[180]},{"type":"MultiLineString","properties":{"kind":"major_road","network":"ba:Magistralne ceste","sort_rank":380,"kind_detail":"primary","source":"openstreetmap.org","min_zoom":8.0,"shield_text":"16.1","ref":"M16.1"},"arcs":[[181],[182]]},{"type":"LineString","properties":{"kind":"major_road","network":"ba:Magistralne ceste","sort_rank":380,"kind_detail":"primary","source":"openstreetmap.org","min_zoom":8.0,"shield_text":"16","ref":"M 106;M16","id":452873460},"arcs":[183]},{"type":"LineString","properties":{"kind":"major_road","sort_rank":380,"kind_detail":"primary","is_bicycle_related":true,"bicycle_shield_text":"BiH N-S","bicycle_network":"ncn","source":"openstreetmap.org","min_zoom":8.0,"landuse_kind":"urban_area","ref":"M 216;R 441"},"arcs":[184]},{"type":"LineString","properties":{"kind":"major_road","sort_rank":355,"kind_detail":"secondary_link","is_bicycle_related":true,"bicycle_shield_text":"BiH N-S","bicycle_network":"ncn","source":"openstreetmap.org","min_zoom":8.0,"is_link":true,"ref":"R465"},"arcs":[185]},{"type":"LineString","properties":{"source":"openstreetmap.org","kind":"major_road","sort_rank":380,"kind_detail":"primary","ref":"M-4","min_zoom":8.0},"arcs":[186]},{"type":"LineString","properties":{"kind":"major_road","network":"e-road","sort_rank":380,"kind_detail":"primary","source":"openstreetmap.org","min_zoom":8.0,"shield_text":"761","ref":"M 103;M 5"},"arcs":[187]},{"type":"LineString","properties":{"kind":"major_road","sort_rank":380,"landuse_kind":"residential","source":"openstreetmap.org","min_zoom":8.0,"kind_detail":"primary","ref":"M 216;R 441","id":168967624},"arcs":[188]},{"type":"MultiLineString","properties":{"kind":"major_road","network":"e-road","sort_rank":380,"kind_detail":"primary","source":"openstreetmap.org","min_zoom":8.0,"shield_text":"661","ref":"M 106;M-5 M-16"},"arcs":[[189],[190]]},{"type":"MultiLineString","properties":{"kind":"major_road","network":"e-road","sort_rank":380,"kind_detail":"primary","is_bicycle_related":true,"bicycle_shield_text":"BiH N-S","bicycle_network":"ncn","source":"openstreetmap.org","min_zoom":8.0,"shield_text":"661","ref":"M 109;M5"},"arcs":[[191],[192],[193]]},{"type":"LineString","properties":{"kind":"major_road","network":"e-road","sort_rank":380,"kind_detail":"primary","source":"openstreetmap.org","min_zoom":8.0,"shield_text":"73","ref":"M 110;R 403","id":193772979},"arcs":[194]},{"type":"LineString","properties":{"source":"openstreetmap.org","kind":"major_road","network":"ba:Magistralne ceste","sort_rank":380,"kind_detail":"primary","min_zoom":8.0,"shield_text":"14.1"},"arcs":[195]},{"type":"MultiLineString","properties":{"kind":"major_road","network":"e-road","sort_rank":380,"kind_detail":"primary","is_bicycle_related":true,"bicycle_shield_text":"BiH N-S","bicycle_network":"ncn","source":"openstreetmap.org","min_zoom":8.0,"shield_text":"73","ref":"M 110;M-17"},"arcs":[[196],[197],[198],[199],[200],[201],[202],[203],[204],[205]]},{"type":"LineString","properties":{"source":"openstreetmap.org","kind":"major_road","landuse_kind":"residential","sort_rank":380,"kind_detail":"primary","min_zoom":8.0},"arcs":[206]},{"type":"MultiLineString","properties":{"sort_rank":383,"kind_detail":"motorway","min_zoom":8.0,"kind":"highway","source":"openstreetmap.org"},"arcs":[[207],[208],[209],[210],[211],[212],[213],[214],[215],[216],[217]]},{"type":"MultiLineString","properties":{"kind":"highway","network":"e-road","sort_rank":383,"kind_detail":"motorway","source":"openstreetmap.org","min_zoom":8.0,"all_networks":["e-road","ba:Autoceste"],"shield_text":"661","ref":"E-661","all_shield_texts":["661","661"]},"arcs":[[218],[219],[220],[221]]},{"type":"LineString","properties":{"kind":"major_road","network":"e-road","sort_rank":380,"kind_detail":"primary","source":"openstreetmap.org","min_zoom":8.0,"shield_text":"73","ref":"M 110","id":169763376},"arcs":[222]},{"type":"LineString","properties":{"kind":"major_road","sort_rank":379,"kind_detail":"secondary","is_bicycle_related":true,"bicycle_shield_text":"BiH N-S","bicycle_network":"ncn","source":"openstreetmap.org","min_zoom":8.0,"landuse_kind":"urban_area","ref":"R403;R445","id":179200743},"arcs":[223]},{"type":"LineString","properties":{"kind":"major_road","network":"e-road","sort_rank":380,"kind_detail":"primary","source":"openstreetmap.org","min_zoom":8.0,"shield_text":"661","ref":"M 109","id":23227093},"arcs":[224]},{"type":"LineString","properties":{"kind":"major_road","network":"ba:Magistralne ceste","sort_rank":380,"kind_detail":"primary","source":"openstreetmap.org","min_zoom":8.0,"shield_text":null,"ref":"M 112;M4"},"arcs":[225]},{"type":"LineString","properties":{"kind":"major_road","network":"e-road","sort_rank":380,"kind_detail":"primary","source":"openstreetmap.org","min_zoom":8.0,"landuse_kind":"urban_area","shield_text":"73","ref":"M 110;M17","id":168938518},"arcs":[226]},{"type":"MultiLineString","properties":{"kind":"major_road","network":"e-road","sort_rank":381,"kind_detail":"trunk","source":"openstreetmap.org","min_zoom":8.0,"shield_text":"661","ref":"M-16"},"arcs":[[227],[228],[229],[230]]},{"type":"MultiLineString","properties":{"kind":"major_road","network":"ba:Magistralne ceste","sort_rank":380,"kind_detail":"primary","source":"openstreetmap.org","min_zoom":8.0,"landuse_kind":"urban_area","shield_text":"16","ref":"M-16"},"arcs":[[231],[232],[233]]},{"type":"MultiLineString","properties":{"kind":"major_road","network":"e-road","sort_rank":380,"kind_detail":"primary","source":"openstreetmap.org","min_zoom":8.0,"landuse_kind":"urban_area","shield_text":"73","ref":"M 110;M-17"},"arcs":[[234],[235]]},{"type":"LineString","properties":{"kind":"major_road","sort_rank":380,"landuse_kind":"urban_area","source":"openstreetmap.org","min_zoom":8.0,"kind_detail":"primary","ref":"M 216;R 441","id":168967624},"arcs":[236]},{"type":"MultiLineString","properties":{"kind":"major_road","network":"e-road","sort_rank":380,"kind_detail":"primary","source":"openstreetmap.org","min_zoom":8.0,"shield_text":"661","ref":"M 106;M 16"},"arcs":[[237],[238]]},{"type":"LineString","properties":{"kind":"major_road","network":"e-road","sort_rank":380,"kind_detail":"primary","is_bicycle_related":true,"bicycle_shield_text":"BiH N-S","bicycle_network":"ncn","source":"openstreetmap.org","min_zoom":8.0,"shield_text":"73","ref":"M 107;M17","id":156963915},"arcs":[239]},{"type":"LineString","properties":{"kind":"major_road","sort_rank":380,"kind_detail":"primary","is_bicycle_related":true,"bicycle_shield_text":"BiH N-S","bicycle_network":"ncn","source":"openstreetmap.org","min_zoom":8.0,"landuse_kind":"urban_area","ref":"M 216","id":33748567},"arcs":[240]},{"type":"MultiLineString","properties":{"kind":"major_road","network":"ba:Magistralne ceste","sort_rank":380,"kind_detail":"primary","source":"openstreetmap.org","min_zoom":8.0,"shield_text":"16","ref":"M 106;M 16"},"arcs":[[241],[242]]},{"type":"MultiLineString","properties":{"kind":"major_road","network":"ba:Magistralne ceste","sort_rank":380,"kind_detail":"primary","is_bicycle_related":true,"bicycle_shield_text":"BiH N-S","bicycle_network":"ncn","source":"openstreetmap.org","min_zoom":8.0,"shield_text":"16.4","ref":"M16.4"},"arcs":[[243],[244],[245]]},{"type":"MultiLineString","properties":{"kind":"major_road","network":"ba:Magistralne ceste","sort_rank":380,"kind_detail":"primary","source":"openstreetmap.org","min_zoom":8.0,"shield_text":"16","ref":"M-16"},"arcs":[[246],[247]]},{"type":"MultiLineString","properties":{"kind":"major_road","network":"e-road","sort_rank":380,"kind_detail":"primary","source":"openstreetmap.org","min_zoom":8.0,"shield_text":"73","ref":"M 110;M17"},"arcs":[[248],[249],[250],[251],[252],[253]]},{"type":"LineString","properties":{"kind":"major_road","network":"ba:Magistralne ceste","sort_rank":380,"kind_detail":"primary","source":"openstreetmap.org","min_zoom":8.0,"shield_text":"16","ref":"M 106","id":426223429},"arcs":[254]},{"type":"MultiLineString","properties":{"kind":"major_road","sort_rank":379,"kind_detail":"secondary","is_bicycle_related":true,"bicycle_shield_text":"BiH N-S","bicycle_network":"ncn","source":"openstreetmap.org","min_zoom":8.0,"ref":"R-465"},"arcs":[[255],[256]]},{"type":"LineString","properties":{"kind":"major_road","network":"ba:Magistralne ceste","sort_rank":380,"kind_detail":"primary","is_bicycle_related":true,"source":"openstreetmap.org","min_zoom":8.0,"shield_text":"16.4","ref":"M 218;M16.4","id":169982554},"arcs":[257]},{"type":"LineString","properties":{"kind":"major_road","network":"ba:Magistralne ceste","sort_rank":380,"kind_detail":"primary","is_bicycle_related":true,"source":"openstreetmap.org","min_zoom":8.0,"shield_text":"5","ref":"M 114;M5"},"arcs":[258]},{"type":"LineString","properties":{"kind":"major_road","network":"e-road","sort_rank":380,"kind_detail":"primary","source":"openstreetmap.org","min_zoom":8.0,"shield_text":"661","ref":"M5","id":169727730},"arcs":[259]},{"type":"MultiLineString","properties":{"source":"openstreetmap.org","kind":"major_road","landuse_kind":"urban_area","sort_rank":380,"kind_detail":"primary","min_zoom":8.0},"arcs":[[260],[261]]},{"type":"LineString","properties":{"kind":"major_road","network":"e-road","sort_rank":380,"kind_detail":"primary","source":"openstreetmap.org","min_zoom":8.0,"shield_text":"761","ref":"M-5;M-16","id":226615391},"arcs":[262]},{"type":"LineString","properties":{"kind":"major_road","network":"e-road","sort_rank":380,"kind_detail":"primary","source":"openstreetmap.org","min_zoom":8.0,"landuse_kind":"residential","shield_text":"73","ref":"M 110;M-17"},"arcs":[263]},{"type":"LineString","properties":{"kind":"major_road","network":"ba:Magistralne ceste","sort_rank":380,"kind_detail":"primary","is_bicycle_related":true,"source":"openstreetmap.org","min_zoom":8.0,"shield_text":"16","ref":"M-16","id":498916347},"arcs":[264]},{"type":"LineString","properties":{"kind":"major_road","sort_rank":380,"kind_detail":"primary","is_bicycle_related":true,"bicycle_shield_text":"BiH N-S","bicycle_network":"ncn","source":"openstreetmap.org","min_zoom":8.0,"ref":"M 216;R 441","id":169483339},"arcs":[265]},{"type":"LineString","properties":{"kind":"major_road","network":"ba:Magistralne ceste","sort_rank":380,"kind_detail":"primary","source":"openstreetmap.org","min_zoom":8.0,"shield_text":"5","ref":"M-5"},"arcs":[266]},{"type":"MultiLineString","properties":{"kind":"major_road","int_name":"E661","network":"e-road","sort_rank":380,"kind_detail":"primary","source":"openstreetmap.org","min_zoom":8.0,"nat_name":"M16","shield_text":"661","landuse_kind":"urban_area","ref":"M-16"},"arcs":[[267],[268]]},{"type":"MultiLineString","properties":{"kind":"major_road","network":"ba:Magistralne ceste","sort_rank":380,"kind_detail":"primary","is_bicycle_related":true,"bicycle_shield_text":"BiH N-S","bicycle_network":"ncn","source":"openstreetmap.org","min_zoom":8.0,"shield_text":"16.4","ref":"M 218"},"arcs":[[269],[270]]},{"type":"MultiLineString","properties":{"kind":"major_road","network":"ba:Magistralne ceste","sort_rank":380,"kind_detail":"primary","source":"openstreetmap.org","min_zoom":8.0,"shield_text":null,"ref":"M 111;M-4"},"arcs":[[271],[272]]},{"type":"MultiLineString","properties":{"kind":"major_road","network":"e-road","sort_rank":380,"kind_detail":"primary","source":"openstreetmap.org","min_zoom":8.0,"shield_text":"661","ref":"M 109;M5"},"arcs":[[273],[274],[275],[276]]},{"type":"LineString","properties":{"kind":"major_road","sort_rank":379,"kind_detail":"secondary","is_bicycle_related":true,"bicycle_shield_text":"BiH N-S","bicycle_network":"ncn","source":"openstreetmap.org","min_zoom":8.0,"ref":"R 402;R-473","id":45756874},"arcs":[277]},{"type":"LineString","properties":{"source":"openstreetmap.org","kind":"major_road","sort_rank":380,"kind_detail":"primary","ref":"M4","min_zoom":8.0},"arcs":[278]},{"type":"LineString","properties":{"kind":"major_road","sort_rank":379,"landuse_kind":"urban_area","is_bicycle_related":true,"bicycle_shield_text":"BiH N-S","bicycle_network":"ncn","source":"openstreetmap.org","min_zoom":8.0,"kind_detail":"secondary","ref":"R 403;R445"},"arcs":[279]},{"type":"MultiLineString","properties":{"kind":"major_road","network":"e-road","sort_rank":380,"kind_detail":"primary","source":"openstreetmap.org","min_zoom":8.0,"shield_text":"73","ref":"M-17"},"arcs":[[280],[281]]},{"type":"LineString","properties":{"kind":"major_road","network":"e-road","sort_rank":380,"kind_detail":"primary","source":"openstreetmap.org","min_zoom":8.0,"shield_text":"73","ref":"M-17;M4"},"arcs":[282]},{"type":"LineString","properties":{"kind":"minor_road","sort_rank":360,"kind_detail":"unclassified","is_bicycle_related":true,"bicycle_shield_text":"BiH N-S","bicycle_network":"ncn","source":"openstreetmap.org","min_zoom":8.0},"arcs":[283]},{"type":"MultiLineString","properties":{"kind":"major_road","network":"ba:Magistralne ceste","sort_rank":380,"kind_detail":"primary","is_bicycle_related":true,"source":"openstreetmap.org","min_zoom":8.0,"shield_text":"17.2","ref":"M-17.2"},"arcs":[[284],[285]]},{"type":"MultiLineString","properties":{"kind":"major_road","sort_rank":379,"kind_detail":"secondary","is_bicycle_related":true,"bicycle_shield_text":"BiH N-S","bicycle_network":"ncn","source":"openstreetmap.org","min_zoom":8.0,"ref":"R465"},"arcs":[[286],[287]]},{"type":"MultiLineString","properties":{"kind":"major_road","network":"ba:Magistralne ceste","sort_rank":380,"kind_detail":"primary","is_bicycle_related":true,"bicycle_shield_text":"BiH N-S","bicycle_network":"ncn","source":"openstreetmap.org","min_zoom":8.0,"shield_text":"16.4","ref":"M 218;M 16-4"},"arcs":[[288],[289]]},{"type":"LineString","properties":{"kind":"major_road","sort_rank":379,"kind_detail":"secondary","is_bicycle_related":true,"bicycle_shield_text":"BiH N-S","bicycle_network":"ncn","source":"openstreetmap.org","min_zoom":8.0,"ref":"R 402;R 473","id":45757668},"arcs":[290]}]},"earth":{"type":"GeometryCollection","geometries":[{"type":"MultiPolygon","properties":{"sort_rank":10,"source":"naturalearthdata.com","min_zoom":0.0,"kind":"earth","area":96756666869},"arcs":[[[291]]]}]},"landuse":{"type":"GeometryCollection","geometries":[{"type":"MultiPolygon","properties":{"source":"openstreetmap.org","kind":"park","tier":2,"area":71844872,"sort_rank":24,"min_zoom":8.0},"arcs":[[[292]]]},{"type":"Polygon","properties":{"kind":"national_park","protect_class":"2","area":78165296,"sort_rank":18,"source":"openstreetmap.org","min_zoom":8.0,"tier":1,"id":40627578},"arcs":[[293]]},{"type":"Polygon","properties":{"kind":"residential","name":"Zenica","area":13063200,"sort_rank":20,"source":"openstreetmap.org","min_zoom":8.0,"tier":2,"id":263168141},"arcs":[[294]]},{"type":"MultiPolygon","properties":{"source":"openstreetmap.org","kind":"military","tier":3,"area":74402509,"sort_rank":45,"min_zoom":8.0},"arcs":[[[295]],[[296]]]},{"type":"MultiPolygon","properties":{"source":"naturalearthdata.com","kind":"urban_area","name":"","area":974705598,"sort_rank":11,"min_zoom":4.0},"arcs":[[[297]],[[298]]]}]}},"type":"Topology","transform":{"translate":[16.875,44.0875850282],"scale":[0.0003433228,0.0002444948]},"arcs":[[[3086,4096],[8,-29],[-102,-89],[-137,-65],[-79,27],[-129,132],[-93,24]],[[3901,4096],[-93,-50],[-105,37],[-82,-22],[-43,35]],[[4096,3889],[-26,33],[-76,74],[-142,58]],[[0,577],[231,-254],[259,-190],[0,-35],[108,-98]],[[1116,0],[97,223],[23,155],[-31,98],[-118,111],[-69,273],[-77,124],[-62,27],[6,94],[114,136],[-35,77],[15,144],[74,54],[18,-29],[165,-66],[67,41],[17,55],[107,-14],[140,-116],[227,-264],[84,18],[68,-78],[225,41],[66,-15],[108,93],[101,8],[222,159],[299,97],[160,127],[58,141],[-9,113],[-41,130],[-146,208],[-46,129],[2,91],[82,93],[37,117],[69,27],[76,-32],[148,6],[120,-82],[-11,-139],[44,-38],[-2,-49],[38,-10],[-12,-48],[33,-24],[7,-62],[-40,-31],[38,-119],[87,57],[222,46],[48,0],[27,-59],[43,4],[97,-56]],[[4096,2459],[-33,37],[-37,-10],[-48,37],[-70,-29],[-41,29],[10,16],[-32,-5],[-23,48],[-32,-9],[-10,33],[-92,-12],[-22,49],[35,62],[-14,62],[51,58],[200,57],[158,-36]],[[0,2148],[29,-57],[-8,-138],[55,-93],[-23,-53],[-53,-5]],[[3086,4096],[8,-29],[-102,-89],[-137,-65],[-79,27],[-129,132],[-93,24]],[[3852,4054],[-74,-6],[-82,35],[-66,-23],[-52,36]],[[3901,4096],[-49,-42]],[[3554,1806],[112,-83],[54,43],[70,-21],[-32,-81],[-83,-45],[13,-31],[67,-19],[11,-56],[-117,-97],[-9,-65],[-207,49],[-158,-41],[21,-74],[-56,-46],[54,-81],[-1,-42],[-67,-59],[-100,46],[-68,-19],[-70,-150],[-1,-84],[-56,-63],[-11,-84],[53,-26],[2,-71],[56,-140],[161,-101],[-26,-101],[-80,-33],[2,-45],[44,-30],[241,41],[91,-27],[39,23],[71,-40],[34,-45],[9,-108]],[[3556,1805],[-25,26],[57,112],[-35,132],[32,106],[-44,49],[9,47],[-69,98],[17,130],[92,169],[-42,74],[-73,22],[-18,31],[44,47],[33,151],[79,103],[-40,135],[29,127],[58,39],[183,-22],[107,146],[135,66],[11,-2]],[[0,3317],[161,-115],[81,-23],[92,41],[52,93],[99,25],[98,60],[189,-137],[120,-158],[111,-40],[-21,-224],[78,-66],[37,-73],[47,-5],[99,-76],[104,79],[90,-31],[53,77],[74,-18],[64,-49],[40,2],[85,-173],[121,62],[81,9],[76,150],[157,-52],[124,11],[74,32],[27,42],[132,35],[65,-4],[102,-76],[264,-1],[113,82],[169,-70],[170,10],[40,34],[53,-13]],[[3569,2628],[27,6],[86,-69],[99,14],[121,-90],[166,-30],[28,-17]],[[1070,1061],[0,-2]],[[1521,231],[-10,5]],[[2279,574],[-63,16]],[[2328,577],[-46,-4]],[[2346,572],[-1,1]],[[2449,488],[-2,2]],[[2939,165],[-3,0]],[[955,2992],[-3,2]],[[3850,4045],[28,18]],[[3248,190],[-55,16],[-16,77],[13,39],[3,13],[3,16]],[[3196,357],[-20,-74],[16,-78],[56,-15]],[[2994,471],[0,-3]],[[2994,472],[1,-3]],[[3008,504],[5,6]],[[4048,2504],[48,-18]],[[3099,1097],[50,3],[68,-34],[32,29],[37,57],[-48,101]],[[3242,1258],[33,18]],[[3280,1278],[-11,76]],[[3270,1355],[19,14]],[[3323,1377],[58,30]],[[3402,1440],[45,48]],[[3454,1509],[21,92]],[[3477,1611],[46,35],[-7,105],[33,53]],[[3527,1816],[27,97]],[[3597,0],[5,97],[-30,46],[-26,12],[-26,33],[-6,5],[-15,3],[-7,-4]],[[3492,192],[-28,-14],[-117,15]],[[3347,193],[-3,0],[-96,-3]],[[3248,190],[96,3],[3,0]],[[3347,193],[145,-1]],[[3492,192],[22,0],[32,-38],[29,-17],[26,-40],[-11,-97]],[[1092,3179],[9,8]],[[1095,3188],[-1,-1]],[[1262,3944],[-2,92],[-32,60]],[[2449,488]],[[2938,686],[0,1]],[[2989,3684],[2,0]],[[3558,2651],[1,0]],[[3559,2651]],[[3561,2651],[-2,0]],[[3559,2651],[-1,0]],[[2991,3685],[-1,0],[1,-1]],[[2991,3684],[1,1],[-1,0]],[[3061,1089],[38,8]],[[3565,1883],[-3,22]],[[299,1565],[-108,97],[-115,-39],[-48,9]],[[350,1473],[106,-55],[38,-68],[93,-1],[35,-61],[84,-29],[-13,-25],[125,-98],[31,-56],[36,16]],[[1070,1064],[0,-3]],[[1149,1010],[0,-1]],[[3029,999],[-24,-35]],[[1967,0],[70,29],[-2,120],[-41,52],[262,114]],[[2263,324],[56,29],[-5,23]],[[2314,377],[43,50]],[[2358,428],[79,42]],[[964,2864],[25,120],[-32,8]],[[964,2864],[-1,-2]],[[964,2862],[0,2]],[[969,2811],[1,-4]],[[976,2784],[-3,-8]],[[973,2776],[3,8]],[[1094,2761],[-38,17]],[[873,2754],[5,10]],[[3011,873],[-4,25]],[[3032,991],[6,6]],[[3066,1079],[4,5]],[[3080,431],[111,-54],[-28,-119],[-81,-35]],[[3082,222],[-1,-8]],[[3463,2504],[2,7]],[[3468,2429],[0,1]],[[2993,3685],[20,-5]],[[921,2495],[-72,53],[-40,77],[0,57]],[[833,2717],[4,3]],[[951,2983],[0,-4]],[[951,2980],[1,2]],[[1061,1510],[-79,35],[-41,-21],[-54,22],[-79,136],[-23,219],[-31,49],[-12,138],[61,110],[-12,202],[40,-17],[26,44],[96,39]],[[1173,1231],[-3,0]],[[893,2797]],[[951,2979],[-10,-33],[2,-71]],[[944,2875],[7,105]],[[963,2862],[6,-51]],[[969,2811],[-5,51]],[[3660,1391]],[[3878,4063],[38,33]],[[2805,2112],[40,56]],[[2328,577]],[[2069,633],[-198,120],[-76,142],[24,42]],[[456,1418],[-109,-58],[-49,-103],[-70,-66],[11,-100],[-53,-43],[19,-17],[-27,-95],[-67,6],[1,-32],[-46,-38],[-18,-88],[15,-68],[-63,-4]],[[885,1096],[109,-44],[46,29],[30,-17]],[[1070,1059],[72,-35]],[[878,2764],[14,24]],[[2908,86],[31,77]],[[957,2992],[-2,0]],[[1235,2600],[-68,94],[-62,31],[-11,36]],[[1330,2492],[53,-24],[0,-36],[-53,2],[70,-97],[45,-175],[83,-99],[126,-21],[29,-55],[43,-5],[39,-54],[75,31],[108,-7],[35,-37],[0,55],[46,76],[118,56],[43,61],[110,20],[308,-145],[197,74]],[[2845,2168],[30,68],[73,37]],[[3159,2319],[1,0]],[[3575,2650],[111,-51]],[[3465,2511],[5,5]],[[2279,574],[42,-1]],[[3580,1878],[1,114]],[[893,2797],[51,78]],[[2960,12],[-52,74]],[[2936,165],[3,-2]],[[3081,214],[2,-7]],[[3082,223],[0,-1]],[[2992,3685],[1,0]],[[3013,3680],[54,-11]],[[3067,3666],[82,12],[98,116],[9,79]],[[3256,3873],[-2,61],[-106,162]],[[1150,1010],[-1,0]],[[926,2496],[-5,-1]],[[953,2466],[-22,27]],[[3035,3604],[14,23]],[[3452,3139],[-169,208],[-111,55],[-20,96],[-59,63],[-47,4]],[[3554,1913],[7,-7]],[[3565,1883],[8,-4]],[[3574,1879],[6,-1]],[[1184,3224],[-29,-21]],[[2994,472],[1,5]],[[2450,487],[-1,1]],[[2519,415],[-37,40]],[[2578,346],[-9,9]],[[2729,256],[-16,4]],[[3573,1879],[1,0]],[[973,2776],[83,2]],[[3081,220],[3,-15]],[[3020,518],[4,1]],[[3020,518],[-7,-8]],[[1838,4096],[-32,-108],[-97,-19],[-31,22],[-32,-33],[-181,49],[-203,-63]],[[2513,4096],[309,-195],[103,-2],[109,-133],[-44,-79]],[[2993,3685],[-2,0]],[[3068,3665],[-1,1]],[[3256,3873]],[[3551,4096],[69,-49],[230,-2]],[[3385,1407],[11,-37],[248,-24],[16,45]],[[3660,1391],[-1,23],[67,40]],[[3622,3473],[-81,-225],[-89,-109],[31,-89],[-79,-154],[-1,-151],[152,-36]],[[3470,2516],[5,7]],[[3479,2531],[79,120]],[[2448,487],[1,1]],[[809,2682],[24,35]],[[837,2720],[22,3]],[[2969,629],[-1,-9]],[[859,2723],[14,31]],[[2835,3689],[155,-4]],[[3381,1407]],[[3536,1810],[0,1]],[[952,2994],[-88,106],[-31,95],[-167,151],[-85,31],[-109,-35],[-52,23],[-194,1],[-226,135]],[[2939,165],[0,-1]],[[2939,165],[1,0]],[[976,2784],[-7,27]],[[970,2807],[6,-23]],[[2995,477],[13,27]],[[3726,1454],[0,-18],[72,-12],[178,14],[-14,33],[26,16],[51,-17],[15,-74],[32,-14],[10,-27]],[[3579,1876],[1,2]],[[2938,687],[-18,24],[12,76],[44,54],[62,-39],[4,41],[-53,88],[16,33]],[[2969,629],[1,51],[-32,6]],[[2357,3140],[-243,166],[-238,-86],[-142,-24],[-69,-74],[-52,62],[-165,56],[-85,-52],[-169,54]],[[2569,3368],[-2,2]],[[2644,3637],[48,61],[143,-9]],[[1279,2627],[35,-30]],[[1192,741],[-8,34],[-79,47],[-20,57],[13,78],[-18,25],[53,-3],[7,19]],[[1511,236],[-69,35],[-76,163],[-30,13],[27,33],[-78,30],[-5,79],[-32,-3],[-23,43],[13,44],[-45,62]],[[28,1632],[-28,-16]],[[350,1473],[-51,92]],[[1139,1002],[10,6]],[[1314,2597],[16,-105]],[[3563,2013],[-1,0]],[[2569,3368],[28,-25],[-39,-47],[-98,-99],[-103,-57]],[[2567,3370],[16,86],[56,79],[5,102]],[[1537,167],[81,-75],[42,-79],[0,-13]],[[2939,439],[54,26]],[[3589,2642],[-3,-2]],[[1235,2600],[44,27]],[[1142,1024],[7,-14]],[[2993,467],[1,1]],[[1140,998],[-1,4]],[[1193,735],[-1,6]],[[2482,455],[-32,32]],[[2569,355],[-50,60]],[[2713,260],[-60,70],[-75,16]],[[3084,205],[44,-38],[95,8]],[[2991,3685],[-1,0]],[[3238,1253],[4,5]],[[3269,1354],[1,1]],[[3275,1276],[5,2]],[[3289,1369],[4,2]],[[3322,1378],[1,-1]],[[3381,1407],[21,33]],[[3454,1509],[-7,-21]],[[3475,1601],[2,10]],[[3536,1811],[-9,5]],[[3549,1804],[-13,6]],[[2994,468],[1,1]],[[1224,3424],[2,-11],[16,-11],[10,3]],[[1254,3406],[-29,17]],[[1254,3406],[-27,-28]],[[1228,3375],[32,29],[20,-8],[59,-6],[14,-10],[24,-38],[28,-29],[2,0],[97,-85]],[[1504,3228],[27,-24]],[[1530,3205],[-26,23]],[[1504,3228],[-97,85],[-2,1],[-52,67],[-13,9],[-86,16]],[[2334,3110],[79,34]],[[2413,3144],[10,4],[263,-57],[77,-112],[101,-16],[180,30],[53,75],[67,28],[88,-55],[66,-2],[54,-65],[12,-11]],[[3389,2960],[-70,79],[-67,2],[-89,56],[-67,-29],[-52,-74],[-180,-30],[-100,15],[-78,112],[-263,58],[-10,-5]],[[2413,3144],[-62,-32]],[[930,4096],[85,-301],[167,-243],[42,-128],[-1,-79],[-31,-62],[-5,-22],[-2,-31],[-1,-1]],[[1184,3229],[0,-5]],[[1155,3202],[29,27]],[[1184,3229],[2,1],[35,105],[9,54],[-5,34],[-43,131],[-64,102],[-49,72],[-54,67],[-4,39],[-27,101],[-54,161]],[[3083,207],[1,-2]],[[2968,620],[-6,-63]],[[2939,165],[43,37],[77,-13],[20,24]],[[3686,2599],[104,19],[178,-51],[80,-63]],[[3033,516],[-51,109]],[[1094,3187],[-21,-24],[-77,-99],[-33,-56],[-12,-25]],[[952,2982],[140,197]],[[1155,3203],[-60,-15]],[[1101,3187],[54,15]],[[893,2797]],[[943,2875],[1,0]],[[944,2876]],[[3033,516],[-1,-13]],[[3062,439],[18,-8]],[[2993,466],[0,1]],[[1170,1231],[-45,115],[-67,36],[3,128]],[[1149,1008],[84,70],[7,75],[-53,33],[-14,45]],[[3293,1371],[29,7]],[[2993,466],[0,-1]],[[1509,230],[28,-63]],[[1511,236],[-1,-4]],[[2259,317],[4,7]],[[2357,427],[1,1]],[[2448,486],[0,1]],[[1185,3221],[89,181],[15,164],[-27,378]],[[1509,231],[0,-1]],[[2982,625],[3,50],[-60,32],[11,82],[75,84]],[[3007,898],[25,93]],[[3038,997],[28,82]],[[3070,1084],[29,13]],[[3468,2430],[-5,74]],[[3554,1913],[21,68],[-44,132],[32,62],[-30,44],[8,56],[-33,9],[-44,90],[4,55]],[[1510,232],[-1,-1]],[[3516,2332],[68,-173],[-21,-146]],[[3562,2013],[19,-21]],[[2314,348],[5,5]],[[2978,0],[-18,12]],[[2282,573],[-3,1]],[[941,2946],[0,-1]],[[941,2935],[1,-4]],[[1149,1008],[0,1]],[[3032,503],[-3,-33],[33,-31]],[[929,2496],[-2,0]],[[2939,439],[-82,-18],[-4,-34],[-37,-8],[-28,-70],[-31,-5],[-28,-48]],[[2939,163],[0,1]],[[892,2788],[1,8]],[[943,2875],[-50,-78]],[[2256,315],[3,2]],[[2314,376],[0,1]],[[2948,2273],[211,46]],[[3160,2319],[153,77],[69,81],[83,34]],[[2216,590],[-68,9],[-58,42],[-218,-148],[-36,-6],[-36,32],[8,-38],[-82,30],[27,-14],[-113,-31],[-75,-70],[-19,-39],[20,-66],[-45,-60]],[[2345,573],[-17,4]],[[2447,490],[-101,82]],[[2936,165],[-207,91]],[[3029,999],[6,8]],[[3575,2650],[-13,1]],[[2962,557],[31,-91]],[[3475,2523],[4,8]],[[3622,3473],[143,-40],[59,8],[117,150],[155,33]],[[3558,2651],[-3,58]],[[3050,1059],[11,30]],[[3046,3565],[-11,39]],[[3049,3627],[18,39]],[[3586,2640],[-100,-161],[-4,-112],[34,-35]],[[3589,2642],[2,47],[-42,59],[-91,49],[39,29],[36,170],[88,119],[-47,119],[28,130],[60,38],[172,-24],[43,21],[73,138],[135,51],[11,-4]],[[2437,470],[11,16]],[[2449,488],[-1,-1]],[[3035,1007],[15,52]],[[4096,4096],[0,-4096],[-4096,0],[0,4096],[4096,0]],[[1681,4096],[-46,-52],[-101,15],[-44,37],[191,0]],[[0,3932],[5,23],[58,-22],[15,25],[37,-34],[-10,-38],[59,-92],[-10,-80],[66,-24],[-29,-47],[-88,-10],[-103,39],[0,260]],[[2985,519],[54,-18],[39,19],[13,-34],[37,-12],[-126,-67],[-17,112]],[[54,164],[8,47],[52,14],[138,-49],[15,-30],[-26,-25],[3,-69],[-92,9],[-98,103]],[[316,2391],[39,52],[82,-4],[144,-140],[-16,-31],[-149,4],[-100,119]],[[3068,604],[97,39],[65,-46],[-132,-164],[-126,-15],[-66,43],[48,154],[82,28],[32,-39]],[[1094,3006],[0,-273],[-140,5],[-119,41],[-90,58],[-32,50],[-7,74],[129,0],[46,-42],[43,10],[41,77],[97,46],[32,136],[64,-12],[-64,-170]]]}