{"objects":{"water":{"type":"GeometryCollection","geometries":[{"type":"MultiPolygon","properties":{"source":"naturalearthdata.com","kind":"ocean","area":1576712559132672,"sort_rank":200,"min_zoom":0.0,"id":1},"arcs":[[[26]],[[27]]]},{"type":"MultiLineString","properties":{"source":"naturalearthdata.com","kind":"ocean","sort_rank":205,"boundary":true,"min_zoom":0.0,"id":19},"arcs":[[28],[29]]}]},"buildings":{"type":"GeometryCollection","geometries":[]},"places":{"type":"GeometryCollection","geometries":[{"type":"Point","properties":{"name:pt":"Tarento","name:sr":"\u0422\u0430\u0440\u0430\u043d\u0442\u043e","min_zoom":8.0,"name:la":"Tarentum","name:uk":"\u0422\u0430\u0440\u0430\u043d\u0442\u043e","name:ru":"\u0422\u0430\u0440\u0430\u043d\u0442\u043e","name:pl":"Tarent","id":68528603,"name:ca":"T\u00e0rent","population":201100,"name:el":"\u03a4\u03ac\u03c1\u03b1\u03bd\u03c4\u03b1\u03c2","kind":"locality","name":"Taranto","kind_detail":"city","name:de":"Tarent","source":"openstreetmap.org","name:fr":"Tarente","name:zh":"\u5854\u5170\u6258","name:es":"Tarento"},"coordinates":[1073,2149]},{"type":"Point","properties":{"name:el":"\u039b\u03ad\u03c4\u03c3\u03b5","kind":"locality","name":"Lecce","kind_detail":"city","source":"openstreetmap.org","min_zoom":8.0,"name:ru":"\u041b\u0435\u0447\u0447\u0435","name:zh":"\u840a\u5207","id":68528599,"population":94773},"coordinates":[3777,1712]},{"type":"Point","properties":{"name:el":"M\u03c0\u03c1\u03af\u03bd\u03c4\u03b9\u03b6\u03b9","kind":"locality","name":"Brindisi","kind_detail":"city","name:sr":"\u0411\u0440\u0438\u043d\u0434\u0438\u0437\u0438","source":"openstreetmap.org","min_zoom":8.0,"name:ru":"\u0411\u0440\u0438\u043d\u0434\u0438\u0437\u0438","name:zh":"\u5e03\u6797\u8fea\u897f","id":68528589,"population":88302},"coordinates":[3118,2793]},{"type":"Point","properties":{"kind":"locality","name":"Monopoli","kind_detail":"town","source":"openstreetmap.org","min_zoom":8.0,"name:ru":"\u041c\u043e\u043d\u043e\u043f\u043e\u043b\u0438","id":68528761,"population":49133},"coordinates":[1238,3990]},{"type":"Point","properties":{"source":"openstreetmap.org","kind":"locality","name":"Martina Franca","kind_detail":"town","population":49118,"min_zoom":8.0,"id":3398354616},"coordinates":[1354,3041]},{"type":"Point","properties":{"source":"openstreetmap.org","kind":"locality","name":"Fasano","kind_detail":"town","population":39780,"min_zoom":8.0,"id":68528876},"coordinates":[1408,3539]},{"type":"Point","properties":{"source":"openstreetmap.org","kind":"locality","name":"Francavilla Fontana","kind_detail":"town","population":36641,"min_zoom":8.0,"id":68528880},"coordinates":[2061,2375]},{"type":"Point","properties":{"source":"openstreetmap.org","kind":"locality","name":"Massafra","kind_detail":"town","population":33003,"min_zoom":8.0,"id":68529962},"coordinates":[705,2599]},{"type":"Point","properties":{"source":"openstreetmap.org","kind":"locality","name":"Grottaglie","kind_detail":"town","population":32234,"min_zoom":8.0,"id":68529972},"coordinates":[1629,2398]},{"type":"Point","properties":{"source":"openstreetmap.org","kind":"locality","name":"Nard\u00f2","kind_detail":"town","population":31564,"min_zoom":8.0,"id":68529426},"coordinates":[3366,1020]},{"type":"Point","properties":{"source":"openstreetmap.org","kind":"locality","name":"Manduria","kind_detail":"town","population":31420,"min_zoom":8.0,"id":68530095},"coordinates":[2209,1883]},{"type":"Point","properties":{"source":"openstreetmap.org","kind":"locality","name":"Ostuni","kind_detail":"town","population":31318,"min_zoom":8.0,"id":68528861},"coordinates":[2043,3130]},{"type":"Point","properties":{"source":"openstreetmap.org","kind":"locality","name":"Gioia del Colle","kind_detail":"town","population":27753,"min_zoom":8.0,"id":68528652},"coordinates":[142,3395]},{"type":"Point","properties":{"source":"openstreetmap.org","kind":"locality","name":"Mesagne","kind_detail":"town","population":27164,"min_zoom":8.0,"id":68528884},"coordinates":[2718,2484]},{"type":"Point","properties":{"source":"openstreetmap.org","kind":"locality","name":"Galatina","kind_detail":"town","population":27109,"min_zoom":8.0,"id":68529706},"coordinates":[3766,1013]},{"type":"Point","properties":{"source":"openstreetmap.org","kind":"locality","name":"Putignano","kind_detail":"town","population":26859,"min_zoom":8.0,"id":68528790},"coordinates":[717,3606]},{"type":"Point","properties":{"source":"openstreetmap.org","kind":"locality","name":"Conversano","kind_detail":"town","population":26150,"min_zoom":8.0,"id":68528738},"coordinates":[695,4052]},{"type":"Point","properties":{"kind":"locality","name":"Copertino","kind_detail":"town","source":"openstreetmap.org","min_zoom":8.0,"name:ru":"\u041a\u043e\u043f\u0435\u0440\u0442\u0438\u043d\u043e","id":68529742,"population":24287},"coordinates":[3423,1385]},{"type":"Point","properties":{"source":"openstreetmap.org","kind":"locality","name":"Gallipoli","kind_detail":"town","population":20724,"min_zoom":8.0,"id":68529693},"coordinates":[3266,563]},{"type":"Point","properties":{"source":"openstreetmap.org","kind":"locality","name":"Casarano","kind_detail":"town","population":20285,"min_zoom":8.0,"id":1349636216},"coordinates":[3748,387]},{"type":"Point","properties":{"kind":"locality","name":"Ceglie Messapica","kind_detail":"town","source":"openstreetmap.org","min_zoom":8.0,"old_name":"Ceglie Messapico","id":68528826,"population":20076},"coordinates":[1870,2818]},{"type":"Point","properties":{"source":"openstreetmap.org","kind":"locality","name":"Casamassima","kind_detail":"town","population":19890,"min_zoom":8.0,"id":68528753},"coordinates":[132,4009]},{"type":"Point","properties":{"source":"openstreetmap.org","kind":"locality","name":"Castellana Grotte","kind_detail":"town","population":19635,"min_zoom":8.0,"id":68528612},"coordinates":[846,3738]},{"type":"Point","properties":{"source":"openstreetmap.org","kind":"locality","name":"San Vito dei Normanni","kind_detail":"town","population":19360,"min_zoom":8.0,"id":68528857},"coordinates":[2414,2857]},{"type":"Point","properties":{"source":"openstreetmap.org","kind":"locality","name":"Noci","kind_detail":"town","population":19283,"min_zoom":8.0,"id":68528764},"coordinates":[724,3387]},{"type":"Point","properties":{"source":"openstreetmap.org","kind":"locality","name":"Castellaneta","kind_detail":"town","population":17170,"min_zoom":8.0,"id":68529991},"coordinates":[180,2746]},{"type":"Point","properties":{"source":"openstreetmap.org","kind":"locality","name":"Carovigno","kind_detail":"town","population":16615,"min_zoom":8.0,"id":68528845},"coordinates":[2272,3055]},{"type":"Point","properties":{"source":"openstreetmap.org","kind":"locality","name":"Sava","kind_detail":"town","population":16208,"min_zoom":8.0,"id":68530146},"coordinates":[1991,1890]},{"type":"Point","properties":{"source":"openstreetmap.org","kind":"locality","name":"Palagiano","kind_detail":"town","population":16067,"min_zoom":8.0,"id":68530172},"coordinates":[473,2559]},{"type":"Point","properties":{"source":"openstreetmap.org","kind":"locality","name":"Mottola","kind_detail":"town","population":15997,"min_zoom":8.0,"id":68529945},"coordinates":[472,2769]},{"type":"Point","properties":{"source":"openstreetmap.org","kind":"locality","name":"Galatone","kind_detail":"town","population":15567,"min_zoom":8.0,"id":68529296},"coordinates":[3482,893]},{"type":"Point","properties":{"source":"openstreetmap.org","kind":"locality","name":"San Giorgio Ionico","kind_detail":"town","population":15344,"min_zoom":8.0,"id":68530185},"coordinates":[1467,2093]},{"type":"Point","properties":{"source":"openstreetmap.org","kind":"locality","name":"Oria","kind_detail":"town","population":15296,"min_zoom":8.0,"id":68528888},"coordinates":[2232,2249]},{"type":"Point","properties":{"source":"openstreetmap.org","kind":"locality","name":"Surbo","kind_detail":"town","population":15155,"min_zoom":8.0,"id":68529772},"coordinates":[3665,1861]},{"type":"Point","properties":{"source":"openstreetmap.org","kind":"locality","name":"Latiano","kind_detail":"town","population":14671,"min_zoom":8.0,"id":68528841},"coordinates":[2456,2465]},{"type":"Point","properties":{"kind":"locality","name":"Trepuzzi","kind_detail":"town","source":"openstreetmap.org","min_zoom":8.0,"name:ru":"\u0422\u0440\u0435\u043f\u0443\u0446\u0446\u0438","id":68530029,"population":14565},"coordinates":[3482,1897]},{"type":"Point","properties":{"source":"openstreetmap.org","kind":"locality","name":"Leverano","kind_detail":"town","population":14281,"min_zoom":8.0,"id":68529719},"coordinates":[3275,1453]},{"type":"Point","properties":{"source":"openstreetmap.org","kind":"locality","name":"Squinzano","kind_detail":"town","population":14207,"min_zoom":8.0,"id":68529560},"coordinates":[3399,2016]},{"type":"Point","properties":{"source":"openstreetmap.org","kind":"locality","name":"Locorotondo","kind_detail":"town","population":14162,"min_zoom":8.0,"id":68528767},"coordinates":[1315,3236]},{"type":"Point","properties":{"source":"openstreetmap.org","kind":"locality","name":"Veglie","kind_detail":"town","population":14143,"min_zoom":8.0,"id":68529523},"coordinates":[3175,1628]},{"type":"Point","properties":{"source":"openstreetmap.org","kind":"locality","name":"Monteroni di Lecce","kind_detail":"town","population":14013,"min_zoom":8.0,"id":68529440},"coordinates":[3561,1587]},{"type":"Point","properties":{"source":"openstreetmap.org","kind":"locality","name":"Statte","kind_detail":"town","population":13983,"min_zoom":8.0,"id":68530151},"coordinates":[975,2501]},{"type":"Point","properties":{"kind":"locality","name":"Crispiano","kind_detail":"town","source":"openstreetmap.org","min_zoom":8.0,"name:ru":"\u041a\u0440\u0438\u0441\u043f\u044c\u044f\u043d\u043e","id":68529987,"population":13802},"coordinates":[1040,2663]},{"type":"Point","properties":{"source":"openstreetmap.org","kind":"locality","name":"San Pietro Vernotico","kind_detail":"town","population":13786,"min_zoom":8.0,"id":68528865},"coordinates":[3274,2227]},{"type":"Point","properties":{"source":"openstreetmap.org","kind":"locality","name":"Turi","kind_detail":"town","population":13046,"min_zoom":8.0,"id":68528801},"coordinates":[426,3857]},{"type":"Point","properties":{"source":"openstreetmap.org","kind":"locality","name":"Cavallino","kind_detail":"town","population":12710,"min_zoom":8.0,"id":68529332},"coordinates":[3861,1542]},{"type":"Point","properties":{"kind":"locality","name":"Ugento","kind_detail":"town","source":"openstreetmap.org","min_zoom":8.0,"old_name":"Uxentum","name:ru":"\u0423\u0434\u0436\u0435\u043d\u0442\u043e","id":68530016,"population":12437},"coordinates":[3735,63]},{"type":"Point","properties":{"source":"openstreetmap.org","kind":"locality","name":"Taviano","kind_detail":"town","population":12186,"min_zoom":8.0,"id":68529781},"coordinates":[3530,282]},{"type":"Point","properties":{"source":"openstreetmap.org","kind":"locality","name":"Carmiano","kind_detail":"town","population":12173,"min_zoom":8.0,"id":68529193},"coordinates":[3402,1665]},{"type":"Point","properties":{"source":"openstreetmap.org","kind":"locality","name":"Taurisano","kind_detail":"town","population":11928,"min_zoom":8.0,"id":68529600},"coordinates":[3900,179]},{"type":"Point","properties":{"source":"openstreetmap.org","kind":"locality","name":"Matino","kind_detail":"town","population":11901,"min_zoom":8.0,"id":68529654},"coordinates":[3667,470]},{"type":"Point","properties":{"source":"openstreetmap.org","kind":"locality","name":"Lizzanello","kind_detail":"town","population":11824,"min_zoom":8.0,"id":68529317},"coordinates":[3925,1510]},{"type":"Point","properties":{"source":"openstreetmap.org","kind":"locality","name":"Cisternino","kind_detail":"town","population":11611,"min_zoom":8.0,"id":68528818},"coordinates":[1604,3189]},{"type":"Point","properties":{"source":"openstreetmap.org","kind":"locality","name":"Pulsano","kind_detail":"town","population":11311,"min_zoom":8.0,"id":68530177},"coordinates":[1400,1818]},{"type":"Point","properties":{"source":"openstreetmap.org","kind":"locality","name":"Racale","kind_detail":"town","population":10971,"min_zoom":8.0,"id":68529367},"coordinates":[3550,204]},{"type":"Point","properties":{"source":"openstreetmap.org","kind":"locality","name":"Alberobello","kind_detail":"town","population":10745,"min_zoom":8.0,"id":2280875727},"coordinates":[1056,3347]},{"type":"Point","properties":{"source":"openstreetmap.org","kind":"locality","name":"Torre Santa Susanna","kind_detail":"town","population":10595,"min_zoom":8.0,"id":68528852},"coordinates":[2507,2128]},{"type":"Point","properties":{"source":"openstreetmap.org","kind":"locality","name":"Campi Salentina","kind_detail":"town","population":10472,"min_zoom":8.0,"id":68529733},"coordinates":[3330,1873]},{"type":"Point","properties":{"source":"openstreetmap.org","kind":"locality","name":"Lizzano","kind_detail":"town","population":10125,"min_zoom":8.0,"id":68530088},"coordinates":[1668,1842]},{"type":"Point","properties":{"source":"openstreetmap.org","kind":"locality","name":"San Pancrazio Salentino","kind_detail":"town","population":10050,"min_zoom":8.0,"id":68528829},"coordinates":[2809,1950]}]},"transit":{"type":"GeometryCollection","geometries":[{"type":"LineString","properties":{"kind":"train","network":"FSE","sort_rank":275,"source":"openstreetmap.org","min_zoom":6.0,"operator":"FSE","ref":"5","id":-5641675,"osm_relation":true,"name":"Linea 5: Lecce - Gallipoli"},"arcs":[3]},{"type":"MultiLineString","properties":{"kind":"train","name":"Ferrovia Novoli-Gagliano del Capo","sort_rank":275,"source":"openstreetmap.org","min_zoom":6.0,"operator":"FSE","ref":"3","osm_relation":true},"arcs":[[4],[5],[6]]},{"type":"LineString","properties":{"kind":"train","name":"Ferrovia Martina Franca-Lecce","sort_rank":275,"source":"openstreetmap.org","min_zoom":6.0,"operator":"FSE","ref":"2","osm_relation":true},"arcs":[7]},{"type":"LineString","properties":{"source":"openstreetmap.org","kind":"train","name":"Altamura - Gioia del Colle","sort_rank":275,"min_zoom":6.0,"osm_relation":true,"id":-6521023},"arcs":[8]},{"type":"LineString","properties":{"source":"openstreetmap.org","kind":"train","name":"Ferrovia Adriatica - direzione Nord","sort_rank":275,"min_zoom":6.0,"osm_relation":true},"arcs":[9]},{"type":"MultiLineString","properties":{"kind":"train","name":"Ferrovia Gallipoli-Casarano","sort_rank":275,"source":"openstreetmap.org","min_zoom":6.0,"operator":"FSE","ref":"4","osm_relation":true},"arcs":[[10],[11],[12]]},{"type":"LineString","properties":{"source":"openstreetmap.org","kind":"train","name":"Ferrovia Adriatica - direzione Sud","sort_rank":275,"min_zoom":6.0,"osm_relation":true},"arcs":[13]},{"type":"LineString","properties":{"kind":"train","name":"Ferrovia Bari-Martina Franca-Taranto","sort_rank":275,"source":"openstreetmap.org","min_zoom":6.0,"operator":"FSE","ref":"1","osm_relation":true},"arcs":[14]},{"type":"LineString","properties":{"kind":"train","name":"Ferrovia Taranto-Brindisi","sort_rank":275,"source":"openstreetmap.org","min_zoom":6.0,"operator":"RFI","id":-2361943,"osm_relation":true},"arcs":[15]},{"type":"MultiLineString","properties":{"kind":"train","name":"Ferrovia Jonica","sort_rank":275,"source":"openstreetmap.org","min_zoom":6.0,"operator":"RFI","ref":"156","osm_relation":true},"arcs":[[16],[17],[18],[19],[20],[21],[22]]},{"type":"MultiLineString","properties":{"source":"openstreetmap.org","kind":"train","name":"Ferrovia Bari-Taranto","sort_rank":275,"min_zoom":6.0,"osm_relation":true},"arcs":[[23],[24]]},{"type":"LineString","properties":{"kind":"train","name":"Ferrovia Bari-Casamassima-Putignano","sort_rank":275,"source":"openstreetmap.org","min_zoom":6.0,"operator":"FSE","ref":"1 bis","id":-2204417,"osm_relation":true},"arcs":[25]}]},"pois":{"type":"GeometryCollection","geometries":[]},"boundaries":{"type":"GeometryCollection","geometries":[{"type":"LineString","properties":{"name:ty":"\u2019It\u0101ria","name:ka":"\u10d8\u10e2\u10d0\u10da\u10d8\u10d0","name:ko":"\uc774\ud0c8\ub9ac\uc544","name:cv":"\u0418\u0442\u0430\u043b\u0438","name:cu":"\u0418\u0442\u0430\u043b\u0457\ua657","name:cs":"It\u00e1lie","name:cr":"\u1403\u1455\u14d6","name:tt":"\u0418\u0442\u0430\u043b\u0438\u044f","name:kw":"Itali","name:kv":"\u0418\u0442\u0430\u043b\u0438\u044f","name:th":"\u0e1b\u0e23\u0e30\u0e40\u0e17\u0e28\u0e2d\u0e34\u0e15\u0e32\u0e25\u0e35","alt_name:cs":"\u0160v\u00fdcarsk\u00e1 konfederace","name:tl":"Italya","name:ce":"\u0418\u0442\u0430\u043b\u0438","name:ta":"\u0b87\u0ba4\u0bcd\u0ba4\u0bbe\u0bb2\u0bbf","name:tg":"\u0418\u0442\u043e\u043b\u0438\u0451","name:ca":"It\u00e0lia","name:te":"\u0c07\u0c1f\u0c32\u0c40","name:cy":"Yr Eidal","name:qu":"Italya","name:da":"Italien","name:de":"Italien","name:dz":"\u0f68\u0f80\u0f4a\u0f0b\u0f63\u0f72\u0f0b","source":"openstreetmap.org","name:kn":"\u0c87\u0c9f\u0cb2\u0cbf","name:dv":"\u0787\u07a8\u0793\u07a6\u078d\u07a9\u0788\u07a8\u078d\u07a7\u078c\u07b0","name:km":"\u17a2\u17ca\u17b8\u178f\u17b6\u179b\u17b8","name:lv":"It\u0101lija","name:lt":"Italija","name:uz":"Italiya","name:kk":"\u0418\u0442\u0430\u043b\u0438\u044f","name:tw":"Italy","name:lb":"Italien","name:lg":"Yitale","name:uk":"\u0406\u0442\u0430\u043b\u0456\u044f","name:ug":"\u0626\u0649\u062a\u0627\u0644\u0649\u064a\u06d5","name:li":"Itali\u00eb","name:ln":"Italya","name:lo":"\u0ead\u0eb4\u0e95\u0eb2\u0ea5\u0eb5","name:el":"\u0399\u03c4\u03b1\u03bb\u03af\u03b1","name:eo":"Italujo","name:en":"Italy","name":"Italia","name:tk":"Itali\u00fda","name:ee":"Italy","name:ku":"\u00cetalya","name:et":"Itaalia","name:ay":"Italiya","name:az":"\u0130taliya","name:as":"\u0987\u099f\u09be\u09b2\u09c0","name:ar":"\u0625\u064a\u0637\u0627\u0644\u064a\u0627","name:ak":"Italy","name:am":"\u1323\u120d\u12eb\u1295","name:ru":"\u0418\u0442\u0430\u043b\u0438\u044f","name:ab":"\u0418\u0442\u0430\u043b\u0438\u0430","name:af":"Itali\u00eb","name:zu":"ITaliya","kind_detail":"2","name:ky":"\u0418\u0442\u0430\u043b\u0438\u044f","name:zh-yue":"\u610f\u5927\u5229","name:zh":"\u610f\u5927\u5229","name:so":"Talyaaniga","name:sl":"Italija","name:sk":"Taliansko","name:ja":"\u30a4\u30bf\u30ea\u30a2","name:sh":"Italija","name:sg":"Ital\u00f9ii","name:se":"It\u00e1lia","name:sc":"It\u00e0lia","name:sa":"\u0907\u091f\u0932\u0940","name:bs":"Italija","name:bn":"\u0987\u09a4\u09be\u09b2\u09bf","name:bo":"\u0f68\u0f72\u0f0b\u0f4f\u0f0b\u0f63\u0f72\u0f0d","name:bi":"Itali","name:be":"\u0406\u0442\u0430\u043b\u0456\u044f","name:bg":"\u0418\u0442\u0430\u043b\u0438\u044f","name:ss":"INtaliyane","name:ba":"\u0418\u0442\u0430\u043b\u0438\u044f","osm_relation":true,"name:pt":"It\u00e1lia","name:ps":"\u0627\u06d0\u067c\u0627\u0644\u064a\u0627","name:oc":"It\u00e0lia","min_zoom":8.0,"name:pa":"\u0a07\u0a1f\u0a32\u0a40","name:os":"\u0418\u0442\u0430\u043b\u0438","name:or":"\u0b07\u0b1f\u0b3e\u0b32\u0b40","name:pl":"W\u0142ochy","sort_rank":262,"name:sr":"\u0418\u0442\u0430\u043b\u0438\u0458\u0430","name:tr":"\u0130talya","name:hi":"\u0907\u091f\u0932\u0940","name:sv":"Italien","name:he":"\u05d0\u05d9\u05d8\u05dc\u05d9\u05d4","name:hy":"\u053b\u057f\u0561\u056c\u056b\u0561","name:ht":"Itali","name:hu":"Olaszorsz\u00e1g","name:hr":"Italija","kind":"country","name:is":"\u00cdtal\u00eda","name:yi":"\u05d0\u05d9\u05d8\u05d0\u05dc\u05d9\u05e2","name:yo":"It\u00e1l\u00ed\u00e0","name:mt":"Italja","alt_name:eo":"Italio","name:ms":"Itali","name:mr":"\u0907\u091f\u0932\u0940","name:my":"\u1021\u102e\u1010\u101c\u102e\u1014\u102d\u102f\u1004\u103a\u1004\u1036","official_name":"Repubblica Italiana","name:ve":"Italy","name:vi":"\u00dd","name:ml":"\u0d07\u0d31\u0d4d\u0d31\u0d32\u0d3f","name:mn":"\u0418\u0442\u0430\u043b\u0438","name:mi":"It\u0101ria","id":-365331,"name:mk":"\u0418\u0442\u0430\u043b\u0438\u0458\u0430","name:vo":"Litaliy\u00e4n","name:fa":"\u0627\u06cc\u062a\u0627\u0644\u06cc\u0627","name:rw":"Ubutaliyani","name:ff":"Italiya","old_name:vi":"\u00dd \u0110\u1ea1i L\u1ee3i","alt_name:vi":"I-ta-li-a","name:fr":"Italie","name:fy":"Itaalje","name:nl":"Itali\u00eb","name:na":"Itari","name:ne":"\u0907\u091f\u093e\u0932\u0940","name:wa":"It\u00e5leye","name:ur":"\u0627\u0637\u0627\u0644\u06cc\u06c1","name:wo":"Itaali","name:nv":"\u00cddelii","name:ga":"An Iod\u00e1il","name:gd":"An Eadailt","name:gn":"It\u00e1lia","maritime_boundary":true,"name:gv":"Yn Iddaal","name:gu":"\u0a88\u0a9f\u0ab2\u0ac0"},"arcs":[0]},{"type":"MultiLineString","properties":{"name:pt":"Ap\u00falia","name:sl":"Apulija","name:sk":"Ap\u00falia","short_name":"PUG","name:cs":"Apulie","name:eo":"Apulio","min_zoom":8.0,"name:la":"Apulia","name:ru":"\u0410\u043f\u0443\u043b\u0438\u044f","name:pl":"Apulia","id":-40095,"name:ca":"Pulla","kind":"region","name:en":"Apulia","name":"Puglia","sort_rank":256,"kind_detail":"4","name:fr":"Pouilles","name:de":"Apulien","source":"openstreetmap.org","maritime_boundary":true,"osm_relation":true,"name:fi":"Apulia","name:es":"Apulia"},"arcs":[[1],[2]]}]},"roads":{"type":"GeometryCollection","geometries":[{"type":"MultiLineString","properties":{"kind":"major_road","network":"e-road","sort_rank":381,"landuse_kind":"urban_area","source":"openstreetmap.org","min_zoom":8.0,"kind_detail":"trunk","shield_text":"90","ref":"SS106"},"arcs":[[30],[31],[32],[33],[34]]},{"type":"LineString","properties":{"kind":"major_road","sort_rank":381,"kind_detail":"trunk","bus_network":"SGM","source":"openstreetmap.org","min_zoom":8.0,"bus_shield_text":"12","landuse_kind":"urban_area","id":332373654},"arcs":[35]},{"type":"LineString","properties":{"source":"openstreetmap.org","kind":"major_road","sort_rank":380,"kind_detail":"primary","ref":"SP55","min_zoom":8.0,"id":310651603},"arcs":[36]},{"type":"LineString","properties":{"kind":"major_road","sort_rank":380,"landuse_kind":"urban_area","source":"openstreetmap.org","min_zoom":8.0,"kind_detail":"primary","ref":"SP55","id":310651603},"arcs":[37]},{"type":"MultiLineString","properties":{"source":"openstreetmap.org","kind":"major_road","sort_rank":380,"kind_detail":"primary","ref":"SP362","min_zoom":8.0},"arcs":[[38],[39],[40],[41],[42]]},{"type":"MultiLineString","properties":{"kind":"major_road","network":null,"sort_rank":380,"kind_detail":"primary","source":"openstreetmap.org","min_zoom":8.0,"landuse_kind":"urban_area","shield_text":"361","ref":"SP361"},"arcs":[[43],[44],[45],[46],[47],[48],[49],[50],[51],[52],[53],[54]]},{"type":"LineString","properties":{"kind":"major_road","network":null,"sort_rank":381,"kind_detail":"trunk","source":"openstreetmap.org","min_zoom":8.0,"shield_text":"7","ref":"SS7","id":27233992},"arcs":[55]},{"type":"LineString","properties":{"kind":"major_road","network":null,"sort_rank":380,"kind_detail":"primary","source":"openstreetmap.org","min_zoom":8.0,"shield_text":"174","ref":"SP359"},"arcs":[56]},{"type":"MultiLineString","properties":{"kind":"major_road","network":null,"sort_rank":381,"landuse_kind":"urban_area","source":"openstreetmap.org","min_zoom":8.0,"kind_detail":"trunk","shield_text":"367","ref":"SP367"},"arcs":[[57],[58]]},{"type":"MultiLineString","properties":{"kind":"major_road","network":null,"sort_rank":381,"landuse_kind":"urban_area","source":"openstreetmap.org","min_zoom":8.0,"kind_detail":"trunk","shield_text":"7ter","ref":"SS7ter"},"arcs":[[59],[60],[61],[62],[63],[64],[65]]},{"type":"MultiLineString","properties":{"bus_network":"SGM","sort_rank":380,"kind_detail":"primary","kind":"major_road","source":"openstreetmap.org","min_zoom":8.0,"bus_shield_text":"FR","landuse_kind":"urban_area"},"arcs":[[66],[67],[68]]},{"type":"MultiLineString","properties":{"source":"openstreetmap.org","kind":"ferry","name":"Ancona-Igoumenitsa-Patras","sort_rank":355,"min_zoom":8.0,"osm_relation":true},"arcs":[[69],[70]]},{"type":"LineString","properties":{"source":"openstreetmap.org","kind":"ferry","name":"Bari-Korfu","sort_rank":355,"min_zoom":8.0,"osm_relation":true},"arcs":[71]},{"type":"MultiLineString","properties":{"kind":"major_road","network":null,"sort_rank":380,"kind_detail":"primary","source":"openstreetmap.org","min_zoom":8.0,"landuse_kind":"urban_area","shield_text":"357","ref":"SP357"},"arcs":[[72],[73],[74],[75],[76],[77],[78]]},{"type":"MultiLineString","properties":{"source":"openstreetmap.org","kind":"major_road","landuse_kind":"urban_area","sort_rank":380,"kind_detail":"primary","ref":"SP359","min_zoom":8.0},"arcs":[[79],[80],[81],[82],[83],[84],[85],[86],[87],[88],[89],[90],[91],[92],[93],[94],[95],[96],[97],[98],[99]]},{"type":"LineString","properties":{"source":"openstreetmap.org","kind":"ferry","name":"Ancona-Korfu","sort_rank":355,"min_zoom":8.0,"osm_relation":true},"arcs":[100]},{"type":"MultiLineString","properties":{"source":"openstreetmap.org","kind":"major_road","network":null,"sort_rank":380,"kind_detail":"primary","min_zoom":8.0,"shield_text":"7"},"arcs":[[101],[102],[103],[104]]},{"type":"MultiLineString","properties":{"kind":"major_road","network":null,"sort_rank":380,"kind_detail":"primary","source":"openstreetmap.org","min_zoom":8.0,"landuse_kind":"urban_area","shield_text":"7ter","ref":"SS7ter"},"arcs":[[105],[106],[107],[108],[109],[110],[111],[112],[113],[114],[115],[116],[117],[118],[119],[120],[121],[122],[123],[124],[125],[126],[127],[128],[129],[130],[131],[132],[133],[134],[135],[136],[137],[138],[139],[140],[141],[142],[143],[144],[145],[146],[147],[148],[149],[150],[151],[152],[153],[154]]},{"type":"MultiLineString","properties":{"source":"openstreetmap.org","kind":"major_road","kind_detail":"trunk","sort_rank":381,"landuse_kind":"urban_area","ref":"SS100","min_zoom":8.0},"arcs":[[155],[156],[157]]},{"type":"MultiLineString","properties":{"bus_network":"SGM","sort_rank":380,"kind_detail":"primary","kind":"major_road","source":"openstreetmap.org","min_zoom":8.0,"bus_shield_text":"27 Espressa","landuse_kind":"urban_area"},"arcs":[[158],[159]]},{"type":"MultiLineString","properties":{"kind":"highway","network":"e-road","sort_rank":383,"landuse_kind":"urban_area","source":"openstreetmap.org","min_zoom":8.0,"all_networks":["e-road",null],"kind_detail":"motorway","shield_text":"843","ref":"A14","all_shield_texts":["843","14"]},"arcs":[[160],[161],[162],[163],[164],[165]]},{"type":"MultiLineString","properties":{"source":"openstreetmap.org","kind":"major_road","sort_rank":380,"kind_detail":"primary","ref":"SS16","min_zoom":8.0},"arcs":[[166],[167]]},{"type":"LineString","properties":{"kind":"major_road","sort_rank":381,"kind_detail":"trunk","bus_network":"SGM","source":"openstreetmap.org","min_zoom":8.0,"bus_shield_text":"35","landuse_kind":"urban_area","id":378235366},"arcs":[168]},{"type":"LineString","properties":{"source":"openstreetmap.org","kind":"major_road","sort_rank":381,"kind_detail":"trunk","ref":"SS7ter","min_zoom":8.0},"arcs":[169]},{"type":"LineString","properties":{"kind":"major_road","network":"e-road","sort_rank":380,"kind_detail":"primary","source":"openstreetmap.org","min_zoom":8.0,"landuse_kind":"urban_area","shield_text":"90","ref":"SS106"},"arcs":[170]},{"type":"LineString","properties":{"sort_rank":355,"source":"openstreetmap.org","min_zoom":8.0,"name":"Bari - Cephalonia","kind":"ferry"},"arcs":[171]},{"type":"MultiLineString","properties":{"source":"openstreetmap.org","kind":"major_road","landuse_kind":"urban_area","sort_rank":380,"kind_detail":"primary","ref":"SS16","min_zoom":8.0},"arcs":[[172],[173],[174]]},{"type":"LineString","properties":{"kind":"ferry","name":"Brindisi\u2014Igoumen\u00edtsa","sort_rank":355,"landuse_kind":"urban_area","source":"openstreetmap.org","min_zoom":8.0,"all_networks":["e-road"],"shield_text":"90","id":91712030,"all_shield_texts":["90"],"network":"e-road"},"arcs":[175]},{"type":"MultiLineString","properties":{"source":"openstreetmap.org","kind":"major_road","sort_rank":381,"kind_detail":"trunk","ref":"SS106dir","min_zoom":8.0},"arcs":[[176],[177],[178],[179],[180],[181],[182],[183]]},{"type":"MultiLineString","properties":{"source":"openstreetmap.org","kind":"major_road","sort_rank":380,"kind_detail":"primary","ref":"SS172","min_zoom":8.0},"arcs":[[184],[185],[186]]},{"type":"MultiLineString","properties":{"kind":"major_road","network":"e-road","sort_rank":381,"kind_detail":"trunk","source":"openstreetmap.org","min_zoom":8.0,"shield_text":"90","ref":"SS689"},"arcs":[[187],[188]]},{"type":"MultiLineString","properties":{"source":"openstreetmap.org","kind":"major_road","sort_rank":380,"kind_detail":"primary","ref":"SP235","min_zoom":8.0},"arcs":[[189],[190],[191]]},{"type":"LineString","properties":{"kind":"ferry","name":"Brindisi-Igoumenitsa-Patras","sort_rank":355,"landuse_kind":"urban_area","source":"openstreetmap.org","min_zoom":8.0,"id":-5260934,"osm_relation":true},"arcs":[192]},{"type":"LineString","properties":{"kind":"major_road","sort_rank":380,"kind_detail":"primary","bus_network":"SGM","source":"openstreetmap.org","min_zoom":8.0,"bus_shield_text":"33","landuse_kind":"urban_area","id":377528164},"arcs":[193]},{"type":"LineString","properties":{"source":"openstreetmap.org","kind":"ferry","name":"Brindisi - Vlor\u00eb","sort_rank":355,"landuse_kind":"urban_area","min_zoom":8.0,"name:it":"Brindisi - Valona"},"arcs":[194]},{"type":"MultiLineString","properties":{"source":"openstreetmap.org","kind":"major_road","kind_detail":"trunk","sort_rank":381,"landuse_kind":"urban_area","ref":"SS16","min_zoom":8.0},"arcs":[[195],[196],[197],[198]]},{"type":"LineString","properties":{"source":"openstreetmap.org","kind":"ferry","name":"Bari - Zante","sort_rank":355,"is_bicycle_related":true,"min_zoom":8.0},"arcs":[199]},{"type":"MultiLineString","properties":{"kind":"major_road","network":"e-road","sort_rank":381,"landuse_kind":"urban_area","source":"openstreetmap.org","min_zoom":8.0,"kind_detail":"trunk","shield_text":"55","ref":"SS379"},"arcs":[[200],[201],[202]]},{"type":"LineString","properties":{"kind":"major_road","sort_rank":380,"kind_detail":"primary","bus_network":"SGM","source":"openstreetmap.org","min_zoom":8.0,"bus_shield_text":"12","landuse_kind":"urban_area","ref":"SS101","id":377548957},"arcs":[203]},{"type":"LineString","properties":{"kind":"major_road","network":null,"sort_rank":381,"kind_detail":"trunk","source":"openstreetmap.org","min_zoom":8.0,"shield_text":"172","ref":"SS172"},"arcs":[204]},{"type":"LineString","properties":{"kind":"major_road","network":"e-road","sort_rank":380,"kind_detail":"primary","source":"openstreetmap.org","min_zoom":8.0,"shield_text":"843","ref":"SS7"},"arcs":[205]},{"type":"MultiLineString","properties":{"kind":"major_road","network":null,"sort_rank":381,"kind_detail":"trunk","source":"openstreetmap.org","min_zoom":8.0,"shield_text":"7ter","ref":"SS7ter"},"arcs":[[206],[207],[208],[209],[210]]},{"type":"MultiLineString","properties":{"sort_rank":381,"source":"openstreetmap.org","min_zoom":8.0,"kind":"major_road","kind_detail":"trunk"},"arcs":[[211],[212],[213],[214],[215],[216],[217],[218],[219]]},{"type":"MultiLineString","properties":{"kind":"major_road","network":"e-road","sort_rank":380,"kind_detail":"primary","source":"openstreetmap.org","min_zoom":8.0,"landuse_kind":"urban_area","shield_text":"843","ref":"SS7"},"arcs":[[220],[221],[222],[223],[224],[225],[226],[227],[228],[229],[230],[231],[232],[233],[234],[235],[236],[237],[238],[239],[240]]},{"type":"LineString","properties":{"source":"openstreetmap.org","kind":"major_road","sort_rank":380,"kind_detail":"primary","ref":"SS851","min_zoom":8.0,"id":174074380},"arcs":[241]},{"type":"MultiLineString","properties":{"kind":"major_road","network":"e-road","sort_rank":381,"kind_detail":"trunk","source":"openstreetmap.org","min_zoom":8.0,"shield_text":"55","ref":"SS379"},"arcs":[[242],[243],[244],[245],[246],[247],[248],[249]]},{"type":"MultiLineString","properties":{"source":"openstreetmap.org","kind":"major_road","sort_rank":380,"kind_detail":"primary","ref":"SP361","min_zoom":8.0},"arcs":[[250],[251],[252],[253],[254],[255],[256],[257],[258],[259],[260],[261],[262]]},{"type":"MultiLineString","properties":{"kind":"major_road","network":null,"sort_rank":380,"kind_detail":"primary","source":"openstreetmap.org","min_zoom":8.0,"shield_text":"172","ref":"SS172dir"},"arcs":[[263],[264],[265],[266]]},{"type":"MultiLineString","properties":{"source":"openstreetmap.org","kind":"major_road","kind_detail":"trunk","sort_rank":381,"landuse_kind":"urban_area","ref":"SS7ter","min_zoom":8.0},"arcs":[[267],[268]]},{"type":"MultiLineString","properties":{"source":"openstreetmap.org","kind":"major_road","sort_rank":380,"kind_detail":"primary","ref":"SS7","min_zoom":8.0},"arcs":[[269],[270]]},{"type":"MultiLineString","properties":{"source":"openstreetmap.org","kind":"major_road","landuse_kind":"urban_area","sort_rank":380,"kind_detail":"primary","ref":"SS101","min_zoom":8.0},"arcs":[[271],[272],[273]]},{"type":"LineString","properties":{"source":"openstreetmap.org","kind":"ferry","name":"Brindisi - Vlor\u00eb","sort_rank":355,"min_zoom":8.0,"name:it":"Brindisi - Valona"},"arcs":[274]},{"type":"MultiLineString","properties":{"kind":"major_road","network":null,"sort_rank":380,"kind_detail":"primary","source":"openstreetmap.org","min_zoom":8.0,"shield_text":"172","ref":"SS172"},"arcs":[[275],[276]]},{"type":"MultiLineString","properties":{"source":"openstreetmap.org","kind":"major_road","landuse_kind":"urban_area","sort_rank":380,"kind_detail":"primary","ref":"SS7ter","min_zoom":8.0},"arcs":[[277],[278],[279],[280],[281],[282],[283],[284]]},{"type":"MultiLineString","properties":{"kind":"major_road","network":null,"sort_rank":380,"kind_detail":"primary","source":"openstreetmap.org","min_zoom":8.0,"landuse_kind":"urban_area","shield_text":"7ter"},"arcs":[[285],[286],[287],[288],[289]]},{"type":"MultiLineString","properties":{"source":"openstreetmap.org","kind":"major_road","kind_detail":"trunk","sort_rank":381,"landuse_kind":"urban_area","ref":"SS7","min_zoom":8.0},"arcs":[[290],[291]]},{"type":"MultiLineString","properties":{"source":"openstreetmap.org","kind":"major_road","sort_rank":381,"kind_detail":"trunk","ref":"SS100","min_zoom":8.0},"arcs":[[292],[293]]},{"type":"LineString","properties":{"sort_rank":355,"source":"openstreetmap.org","min_zoom":8.0,"name":"Ancona-Igoumenitsa","kind":"ferry"},"arcs":[294]},{"type":"MultiLineString","properties":{"source":"openstreetmap.org","kind":"major_road","landuse_kind":"urban_area","sort_rank":380,"kind_detail":"primary","min_zoom":8.0},"arcs":[[295],[296],[297],[298],[299],[300],[301],[302],[303],[304],[305],[306],[307],[308],[309],[310],[311],[312],[313],[314],[315],[316],[317],[318],[319],[320],[321],[322],[323],[324],[325],[326],[327],[328],[329],[330],[331],[332],[333],[334],[335],[336],[337],[338],[339],[340],[341],[342],[343],[344],[345],[346],[347],[348],[349],[350],[351],[352],[353],[354],[355],[356],[357],[358],[359],[360],[361],[362],[363],[364],[365],[366],[367],[368],[369],[370],[371],[372],[373],[374],[375],[376],[377],[378],[379],[380],[381],[382],[383],[384],[385],[386],[387],[388],[389],[390],[391],[392],[393],[394],[395],[396],[397],[398],[399],[400],[401],[402],[403],[404],[405],[406],[407],[408],[409],[410],[411],[412],[413],[414],[415],[416],[417],[418],[419],[420]]},{"type":"LineString","properties":{"kind":"ferry","name":"Brindisi\u2014Patras","sort_rank":355,"landuse_kind":"urban_area","is_bicycle_related":true,"source":"openstreetmap.org","min_zoom":8.0,"id":352477835},"arcs":[421]},{"type":"MultiLineString","properties":{"source":"openstreetmap.org","kind":"major_road","landuse_kind":"urban_area","sort_rank":380,"kind_detail":"primary","ref":"SS581","min_zoom":8.0},"arcs":[[422],[423],[424],[425],[426]]},{"type":"MultiLineString","properties":{"kind":"major_road","network":null,"sort_rank":380,"kind_detail":"primary","source":"openstreetmap.org","min_zoom":8.0,"shield_text":"7ter","ref":"SS7ter"},"arcs":[[427],[428],[429]]},{"type":"MultiLineString","properties":{"bus_network":"SGM","sort_rank":380,"kind_detail":"primary","kind":"major_road","source":"openstreetmap.org","min_zoom":8.0,"bus_shield_text":"12","landuse_kind":"urban_area"},"arcs":[[430],[431],[432],[433],[434]]},{"type":"MultiLineString","properties":{"kind":"major_road","network":"e-road","sort_rank":381,"landuse_kind":"urban_area","source":"openstreetmap.org","min_zoom":8.0,"kind_detail":"trunk","shield_text":"90","ref":"SS689"},"arcs":[[435],[436]]},{"type":"LineString","properties":{"sort_rank":355,"source":"openstreetmap.org","min_zoom":8.0,"name":"Ancona-Korfu","kind":"ferry"},"arcs":[437]},{"type":"LineString","properties":{"source":"openstreetmap.org","kind":"major_road","sort_rank":380,"kind_detail":"primary","ref":"fixme","min_zoom":8.0},"arcs":[438]},{"type":"MultiLineString","properties":{"bus_network":"SGM","sort_rank":380,"kind_detail":"primary","kind":"major_road","source":"openstreetmap.org","min_zoom":8.0,"bus_shield_text":"31","landuse_kind":"urban_area"},"arcs":[[439],[440]]},{"type":"LineString","properties":{"kind":"major_road","sort_rank":380,"landuse_kind":"urban_area","source":"openstreetmap.org","min_zoom":8.0,"kind_detail":"primary","ref":"SP321","id":178308023},"arcs":[441]},{"type":"LineString","properties":{"source":"openstreetmap.org","kind":"major_road","sort_rank":380,"kind_detail":"primary","ref":"SP237","min_zoom":8.0},"arcs":[442]},{"type":"LineString","properties":{"sort_rank":355,"source":"openstreetmap.org","min_zoom":8.0,"name":"Ancona-Patras","kind":"ferry"},"arcs":[443]},{"type":"MultiLineString","properties":{"kind":"major_road","network":null,"sort_rank":381,"landuse_kind":"urban_area","source":"openstreetmap.org","min_zoom":8.0,"kind_detail":"trunk","shield_text":"172","ref":"SS172"},"arcs":[[444],[445],[446],[447],[448],[449],[450],[451],[452]]},{"type":"MultiLineString","properties":{"kind":"major_road","network":null,"sort_rank":380,"kind_detail":"primary","source":"openstreetmap.org","min_zoom":8.0,"landuse_kind":"urban_area","shield_text":"172","ref":"SS172dir"},"arcs":[[453],[454],[455],[456],[457],[458]]},{"type":"MultiLineString","properties":{"kind":"major_road","network":null,"sort_rank":380,"kind_detail":"primary","source":"openstreetmap.org","min_zoom":8.0,"landuse_kind":"urban_area","shield_text":"174","ref":"SP174"},"arcs":[[459],[460]]},{"type":"LineString","properties":{"kind":"major_road","network":null,"sort_rank":380,"kind_detail":"primary","source":"openstreetmap.org","min_zoom":8.0,"landuse_kind":"urban_area","shield_text":"172","id":327082574},"arcs":[461]},{"type":"MultiLineString","properties":{"kind":"major_road","network":"ANAS","sort_rank":381,"kind_detail":"trunk","source":"openstreetmap.org","min_zoom":8.0,"landuse_kind":"nature_reserve","shield_text":"274","ref":"SS274"},"arcs":[[462],[463]]},{"type":"LineString","properties":{"kind":"major_road","network":null,"sort_rank":380,"kind_detail":"primary","source":"openstreetmap.org","min_zoom":8.0,"landuse_kind":"urban_area","shield_text":"174","ref":"SP359"},"arcs":[464]},{"type":"LineString","properties":{"kind":"major_road","network":null,"sort_rank":380,"kind_detail":"primary","source":"openstreetmap.org","min_zoom":8.0,"old_name":"Via Belvedere","shield_text":"7ter","landuse_kind":"urban_area","ref":"SS7ter"},"arcs":[465]},{"type":"MultiLineString","properties":{"bus_network":"SGM","sort_rank":380,"kind_detail":"primary","kind":"major_road","source":"openstreetmap.org","min_zoom":8.0,"bus_shield_text":"27 Espressa","landuse_kind":"urban_area","ref":"SS101"},"arcs":[[466],[467]]},{"type":"MultiLineString","properties":{"kind":"major_road","network":null,"sort_rank":380,"kind_detail":"primary","source":"openstreetmap.org","min_zoom":8.0,"shield_text":"361","ref":"SP361"},"arcs":[[468],[469],[470],[471],[472],[473],[474],[475],[476],[477],[478],[479],[480],[481],[482]]},{"type":"MultiLineString","properties":{"source":"openstreetmap.org","kind":"major_road","sort_rank":381,"kind_detail":"trunk","ref":"SS613","min_zoom":8.0},"arcs":[[483],[484]]},{"type":"MultiLineString","properties":{"source":"openstreetmap.org","kind":"major_road","kind_detail":"trunk","sort_rank":381,"landuse_kind":"urban_area","ref":"SS613","min_zoom":8.0},"arcs":[[485],[486],[487],[488],[489],[490],[491],[492]]},{"type":"LineString","properties":{"kind":"major_road","network":"e-road","sort_rank":381,"kind_detail":"trunk","name:da":"7 Appia","source":"openstreetmap.org","min_zoom":8.0,"landuse_kind":"urban_area","shield_text":"55","ref":"SS16"},"arcs":[493]},{"type":"LineString","properties":{"source":"openstreetmap.org","kind":"major_road","landuse_kind":"urban_area","sort_rank":380,"kind_detail":"primary","ref":"SS7","min_zoom":8.0},"arcs":[494]},{"type":"MultiLineString","properties":{"kind":"major_road","network":"e-road","sort_rank":381,"kind_detail":"trunk","source":"openstreetmap.org","min_zoom":8.0,"shield_text":"90","ref":"SS106"},"arcs":[[495],[496],[497],[498],[499],[500]]},{"type":"MultiLineString","properties":{"kind":"major_road","network":"ANAS","sort_rank":381,"landuse_kind":"urban_area","source":"openstreetmap.org","min_zoom":8.0,"kind_detail":"trunk","shield_text":"274","ref":"SS274"},"arcs":[[501],[502],[503]]},{"type":"MultiLineString","properties":{"source":"openstreetmap.org","kind":"ferry","name":"Bari-Igoumenitsa-Patras","sort_rank":355,"min_zoom":8.0,"osm_relation":true},"arcs":[[504],[505]]},{"type":"MultiLineString","properties":{"sort_rank":380,"kind_detail":"primary","min_zoom":8.0,"kind":"major_road","source":"openstreetmap.org"},"arcs":[[506],[507],[508],[509],[510],[511],[512],[513],[514],[515],[516],[517],[518],[519],[520],[521],[522],[523],[524],[525],[526],[527],[528],[529],[530],[531],[532],[533],[534],[535],[536]]},{"type":"MultiLineString","properties":{"kind":"major_road","network":null,"sort_rank":381,"landuse_kind":"urban_area","source":"openstreetmap.org","min_zoom":8.0,"kind_detail":"trunk","shield_text":"101","ref":"SS101"},"arcs":[[537],[538],[539]]},{"type":"LineString","properties":{"kind":"major_road","network":null,"sort_rank":380,"kind_detail":"primary","source":"openstreetmap.org","min_zoom":8.0,"landuse_kind":"residential","shield_text":"172","ref":"SS172dir","id":245953292},"arcs":[540]},{"type":"MultiLineString","properties":{"source":"openstreetmap.org","kind":"major_road","sort_rank":380,"kind_detail":"primary","ref":"SP321","min_zoom":8.0},"arcs":[[541],[542],[543]]},{"type":"LineString","properties":{"kind":"major_road","network":null,"sort_rank":380,"kind_detail":"primary","is_bicycle_related":true,"bicycle_shield_text":null,"bicycle_network":"lcn","source":"openstreetmap.org","min_zoom":8.0,"landuse_kind":"urban_area","shield_text":"172","ref":"SS172","id":305764352},"arcs":[544]},{"type":"MultiLineString","properties":{"bus_network":"SGM","sort_rank":380,"kind_detail":"primary","kind":"major_road","source":"openstreetmap.org","min_zoom":8.0,"bus_shield_text":"30","landuse_kind":"urban_area"},"arcs":[[545],[546],[547],[548]]},{"type":"LineString","properties":{"source":"openstreetmap.org","kind":"major_road","sort_rank":380,"kind_detail":"primary","ref":"SS 581","min_zoom":8.0,"id":335395637},"arcs":[549]},{"type":"LineString","properties":{"kind":"major_road","sort_rank":380,"kind_detail":"primary","bus_network":"SGM","source":"openstreetmap.org","min_zoom":8.0,"bus_shield_text":"29","landuse_kind":"urban_area","ref":"SS101","id":343949437},"arcs":[550]},{"type":"MultiLineString","properties":{"kind":"major_road","network":null,"sort_rank":380,"kind_detail":"primary","source":"openstreetmap.org","min_zoom":8.0,"landuse_kind":"urban_area","shield_text":"362","ref":"SP362"},"arcs":[[551],[552],[553],[554],[555],[556],[557],[558],[559],[560],[561],[562],[563],[564],[565],[566],[567],[568],[569],[570],[571],[572],[573],[574],[575],[576],[577],[578],[579],[580],[581],[582],[583],[584],[585],[586],[587],[588],[589],[590],[591],[592],[593]]},{"type":"LineString","properties":{"source":"openstreetmap.org","kind":"major_road","landuse_kind":"urban_area","sort_rank":380,"kind_detail":"primary","is_bicycle_related":true,"min_zoom":8.0},"arcs":[594]},{"type":"LineString","properties":{"kind":"major_road","sort_rank":380,"kind_detail":"primary","bus_network":"SGM","source":"openstreetmap.org","min_zoom":8.0,"bus_shield_text":"22","landuse_kind":"urban_area","id":139938540},"arcs":[595]},{"type":"LineString","properties":{"kind":"path","sort_rank":354,"kind_detail":"track","is_bicycle_related":true,"bicycle_shield_text":null,"bicycle_network":"ncn","source":"openstreetmap.org","min_zoom":8.0,"old_name":"Via Traiana"},"arcs":[596]},{"type":"LineString","properties":{"sort_rank":355,"source":"openstreetmap.org","kind":"ferry","min_zoom":8.0,"name":"Bari-Patras"},"arcs":[597]},{"type":"MultiLineString","properties":{"source":"openstreetmap.org","kind":"major_road","kind_detail":"trunk","sort_rank":381,"landuse_kind":"urban_area","min_zoom":8.0},"arcs":[[598],[599],[600],[601],[602],[603],[604],[605],[606],[607],[608],[609],[610],[611],[612],[613],[614],[615],[616],[617]]},{"type":"LineString","properties":{"kind":"major_road","network":null,"sort_rank":380,"kind_detail":"primary","source":"openstreetmap.org","min_zoom":8.0,"nat_name":"Strada Statale 172 dei Trulli","shield_text":"172","landuse_kind":"urban_area","ref":"SS172","id":47864972},"arcs":[618]},{"type":"MultiLineString","properties":{"source":"openstreetmap.org","kind":"ferry","name":"Brindisi-Igoumenitsa-Patras","sort_rank":355,"min_zoom":8.0,"osm_relation":true},"arcs":[[619],[620]]},{"type":"MultiLineString","properties":{"source":"openstreetmap.org","kind":"major_road","sort_rank":380,"kind_detail":"primary","ref":"EXSS16","min_zoom":8.0},"arcs":[[621],[622],[623],[624],[625],[626],[627],[628],[629]]},{"type":"MultiLineString","properties":{"source":"openstreetmap.org","kind":"major_road","landuse_kind":"urban_area","sort_rank":380,"kind_detail":"primary","ref":"EXSS16","min_zoom":8.0},"arcs":[[630],[631]]},{"type":"MultiLineString","properties":{"kind":"major_road","network":"e-road","sort_rank":381,"landuse_kind":"urban_area","source":"openstreetmap.org","min_zoom":8.0,"kind_detail":"trunk","shield_text":"55","ref":"SS16"},"arcs":[[632],[633],[634],[635],[636],[637],[638]]},{"type":"MultiLineString","properties":{"source":"openstreetmap.org","kind":"major_road","landuse_kind":"urban_area","sort_rank":380,"kind_detail":"primary","ref":"SP361","min_zoom":8.0},"arcs":[[639],[640],[641],[642],[643],[644]]},{"type":"LineString","properties":{"kind":"major_road","network":null,"sort_rank":381,"kind_detail":"trunk","source":"openstreetmap.org","min_zoom":8.0,"landuse_kind":"urban_area","shield_text":"7","ref":"SS7","id":27233992},"arcs":[645]},{"type":"LineString","properties":{"kind":"major_road","network":null,"sort_rank":380,"kind_detail":"primary","source":"openstreetmap.org","min_zoom":8.0,"landuse_kind":"urban_area","shield_text":"7","id":158347666},"arcs":[646]},{"type":"MultiLineString","properties":{"kind":"major_road","network":"e-road","sort_rank":381,"kind_detail":"trunk","source":"openstreetmap.org","min_zoom":8.0,"landuse_kind":"nature_reserve","shield_text":"55","ref":"SS379"},"arcs":[[647],[648],[649],[650]]},{"type":"LineString","properties":{"kind":"major_road","network":null,"sort_rank":380,"kind_detail":"primary","source":"openstreetmap.org","min_zoom":8.0,"landuse_kind":"urban_area","shield_text":"198","ref":"SP361","id":299760771},"arcs":[651]},{"type":"MultiLineString","properties":{"kind":"major_road","network":"ANAS","sort_rank":381,"landuse_kind":"urban_area","source":"openstreetmap.org","min_zoom":8.0,"kind_detail":"trunk","shield_text":"694","ref":"SS694"},"arcs":[[652],[653]]},{"type":"MultiLineString","properties":{"kind":"major_road","network":"Provincia di Lecce","sort_rank":381,"kind_detail":"trunk","source":"openstreetmap.org","min_zoom":8.0,"shield_text":"360","ref":"SP360"},"arcs":[[654],[655],[656]]},{"type":"MultiLineString","properties":{"kind":"major_road","network":null,"sort_rank":380,"kind_detail":"primary","source":"openstreetmap.org","min_zoom":8.0,"shield_text":"68","ref":"SP68"},"arcs":[[657],[658],[659],[660],[661],[662],[663],[664],[665],[666],[667],[668],[669],[670],[671],[672]]},{"type":"MultiLineString","properties":{"kind":"major_road","network":null,"sort_rank":380,"kind_detail":"primary","source":"openstreetmap.org","min_zoom":8.0,"landuse_kind":"urban_area","shield_text":"7","ref":"SS7"},"arcs":[[673],[674],[675]]},{"type":"MultiLineString","properties":{"source":"openstreetmap.org","kind":"major_road","sort_rank":380,"kind_detail":"primary","ref":"SP359","min_zoom":8.0},"arcs":[[676],[677],[678],[679],[680],[681],[682],[683],[684]]},{"type":"MultiLineString","properties":{"kind":"major_road","network":null,"sort_rank":381,"kind_detail":"trunk","source":"openstreetmap.org","min_zoom":8.0,"shield_text":"16","ref":"SS16"},"arcs":[[685],[686]]},{"type":"LineString","properties":{"kind":"ferry","network":"e-road","sort_rank":355,"source":"openstreetmap.org","min_zoom":8.0,"all_networks":["e-road"],"shield_text":"90","all_shield_texts":["90"],"name":"Brindisi\u2014Igoumen\u00edtsa"},"arcs":[687]},{"type":"LineString","properties":{"kind":"major_road","network":"e-road","sort_rank":380,"kind_detail":"primary","source":"openstreetmap.org","min_zoom":8.0,"shield_text":"90","ref":"SS106"},"arcs":[688]},{"type":"LineString","properties":{"kind":"major_road","sort_rank":380,"landuse_kind":"urban_area","source":"openstreetmap.org","min_zoom":8.0,"kind_detail":"primary","ref":"SS 581","id":335395637},"arcs":[689]},{"type":"LineString","properties":{"kind":"major_road","sort_rank":380,"landuse_kind":"urban_area","source":"openstreetmap.org","min_zoom":8.0,"kind_detail":"primary","ref":"SP134","id":160374422},"arcs":[690]},{"type":"MultiLineString","properties":{"kind":"major_road","network":null,"sort_rank":380,"kind_detail":"primary","source":"openstreetmap.org","min_zoom":8.0,"shield_text":"362","ref":"SP362"},"arcs":[[691],[692],[693],[694],[695],[696],[697],[698],[699],[700],[701],[702],[703],[704],[705],[706],[707],[708],[709],[710],[711],[712]]},{"type":"MultiLineString","properties":{"source":"openstreetmap.org","kind":"major_road","kind_detail":"trunk","sort_rank":381,"landuse_kind":"urban_area","ref":"SS106dir","min_zoom":8.0},"arcs":[[713],[714],[715],[716]]},{"type":"MultiLineString","properties":{"kind":"major_road","network":"e-road","sort_rank":381,"kind_detail":"trunk","source":"openstreetmap.org","min_zoom":8.0,"shield_text":"90","ref":"SS7"},"arcs":[[717],[718],[719],[720],[721],[722],[723],[724],[725],[726]]},{"type":"MultiLineString","properties":{"kind":"major_road","network":null,"sort_rank":381,"landuse_kind":"urban_area","source":"openstreetmap.org","min_zoom":8.0,"kind_detail":"trunk","shield_text":"16","ref":"SS16"},"arcs":[[727],[728],[729],[730],[731],[732]]},{"type":"LineString","properties":{"kind":"major_road","sort_rank":380,"kind_detail":"primary","official_name":"Corso Umberto Primo","source":"openstreetmap.org","min_zoom":8.0,"landuse_kind":"urban_area","ref":"SS7ter","id":310655425},"arcs":[733]},{"type":"MultiLineString","properties":{"source":"openstreetmap.org","kind":"major_road","landuse_kind":"urban_area","sort_rank":380,"kind_detail":"primary","ref":"fixme","min_zoom":8.0},"arcs":[[734],[735],[736],[737],[738],[739],[740]]},{"type":"MultiLineString","properties":{"bus_network":"SGM","sort_rank":380,"kind_detail":"primary","kind":"major_road","source":"openstreetmap.org","min_zoom":8.0,"bus_shield_text":"13","landuse_kind":"urban_area"},"arcs":[[741],[742],[743],[744],[745],[746]]},{"type":"MultiLineString","properties":{"source":"openstreetmap.org","kind":"major_road","landuse_kind":"urban_area","sort_rank":380,"kind_detail":"primary","ref":"SS172","min_zoom":8.0},"arcs":[[747],[748],[749],[750],[751],[752],[753],[754],[755],[756],[757],[758],[759],[760],[761]]},{"type":"MultiLineString","properties":{"kind":"major_road","network":null,"sort_rank":380,"kind_detail":"primary","source":"openstreetmap.org","min_zoom":8.0,"landuse_kind":"urban_area","shield_text":"41","ref":"SP41"},"arcs":[[762],[763],[764],[765],[766],[767],[768],[769],[770]]},{"type":"MultiLineString","properties":{"source":"openstreetmap.org","kind":"major_road","landuse_kind":"urban_area","sort_rank":380,"kind_detail":"primary","ref":"SS459","min_zoom":8.0},"arcs":[[771],[772]]},{"type":"MultiLineString","properties":{"kind":"major_road","network":null,"sort_rank":380,"kind_detail":"primary","source":"openstreetmap.org","min_zoom":8.0,"landuse_kind":"urban_area","shield_text":"68","ref":"SP68"},"arcs":[[773],[774],[775]]},{"type":"MultiLineString","properties":{"source":"openstreetmap.org","kind":"major_road","landuse_kind":"urban_area","sort_rank":380,"kind_detail":"primary","ref":"SP378","min_zoom":8.0},"arcs":[[776],[777],[778],[779],[780],[781],[782],[783],[784],[785],[786],[787],[788],[789],[790],[791],[792],[793],[794]]},{"type":"MultiLineString","properties":{"source":"openstreetmap.org","kind":"major_road","landuse_kind":"urban_area","sort_rank":380,"kind_detail":"primary","ref":"SS172dir","min_zoom":8.0},"arcs":[[795],[796]]},{"type":"LineString","properties":{"source":"openstreetmap.org","kind":"major_road","landuse_kind":"urban_area","sort_rank":380,"kind_detail":"primary","ref":"SP86","min_zoom":8.0},"arcs":[797]},{"type":"MultiLineString","properties":{"kind":"major_road","network":"e-road","sort_rank":381,"kind_detail":"trunk","source":"openstreetmap.org","min_zoom":8.0,"shield_text":"55","ref":"SS16"},"arcs":[[798],[799],[800],[801],[802]]},{"type":"MultiLineString","properties":{"kind":"major_road","network":"ANAS","sort_rank":381,"kind_detail":"trunk","source":"openstreetmap.org","min_zoom":8.0,"shield_text":"274","ref":"SS274"},"arcs":[[803],[804],[805]]},{"type":"LineString","properties":{"source":"openstreetmap.org","kind":"major_road","sort_rank":380,"kind_detail":"primary","ref":"SS100","min_zoom":8.0},"arcs":[806]},{"type":"MultiLineString","properties":{"kind":"highway","network":"e-road","sort_rank":383,"kind_detail":"motorway","source":"openstreetmap.org","min_zoom":8.0,"all_networks":["e-road",null],"shield_text":"843","ref":"A14","all_shield_texts":["843","14"]},"arcs":[[807],[808],[809],[810],[811],[812]]},{"type":"MultiLineString","properties":{"source":"openstreetmap.org","kind":"major_road","landuse_kind":"urban_area","sort_rank":380,"kind_detail":"primary","ref":"SP41","min_zoom":8.0},"arcs":[[813],[814]]},{"type":"LineString","properties":{"sort_rank":355,"source":"openstreetmap.org","min_zoom":8.0,"name":"Bari-Igoumenitsa","kind":"ferry"},"arcs":[815]},{"type":"LineString","properties":{"source":"openstreetmap.org","kind":"major_road","sort_rank":380,"kind_detail":"primary","ref":"SP3 bis","min_zoom":8.0,"id":397983596},"arcs":[816]},{"type":"MultiLineString","properties":{"kind":"major_road","network":"e-road","sort_rank":380,"kind_detail":"primary","source":"openstreetmap.org","min_zoom":8.0,"landuse_kind":"urban_area","shield_text":"843"},"arcs":[[817],[818],[819],[820],[821],[822]]},{"type":"MultiLineString","properties":{"bus_network":"SGM","sort_rank":380,"kind_detail":"primary","kind":"major_road","source":"openstreetmap.org","min_zoom":8.0,"bus_shield_text":"24","landuse_kind":"urban_area"},"arcs":[[823],[824]]},{"type":"MultiLineString","properties":{"kind":"major_road","network":"e-road","sort_rank":381,"landuse_kind":"urban_area","source":"openstreetmap.org","min_zoom":8.0,"kind_detail":"trunk","shield_text":"90","ref":"SS7"},"arcs":[[825],[826],[827],[828],[829],[830],[831],[832],[833],[834],[835],[836],[837],[838],[839],[840]]},{"type":"LineString","properties":{"kind":"major_road","network":null,"sort_rank":380,"kind_detail":"primary","source":"openstreetmap.org","min_zoom":8.0,"shield_text":"174","ref":"SP174","id":286636516},"arcs":[841]},{"type":"MultiLineString","properties":{"kind":"major_road","network":null,"sort_rank":380,"kind_detail":"primary","source":"openstreetmap.org","min_zoom":8.0,"shield_text":"7","ref":"SS7"},"arcs":[[842],[843],[844],[845],[846],[847],[848],[849],[850],[851],[852],[853],[854],[855],[856],[857],[858],[859],[860],[861]]},{"type":"LineString","properties":{"sort_rank":355,"source":"openstreetmap.org","min_zoom":8.0,"name":"Bari - Korfu","kind":"ferry"},"arcs":[862]},{"type":"MultiLineString","properties":{"source":"openstreetmap.org","kind":"major_road","sort_rank":380,"kind_detail":"primary","ref":"SS581","min_zoom":8.0},"arcs":[[863],[864],[865],[866]]},{"type":"LineString","properties":{"kind":"major_road","network":null,"sort_rank":380,"kind_detail":"primary","source":"openstreetmap.org","min_zoom":8.0,"shield_text":"174","id":27336741},"arcs":[867]},{"type":"MultiLineString","properties":{"kind":"major_road","network":null,"sort_rank":380,"kind_detail":"primary","source":"openstreetmap.org","min_zoom":8.0,"landuse_kind":"urban_area","shield_text":"172","ref":"SS172"},"arcs":[[868],[869],[870],[871],[872],[873],[874]]},{"type":"MultiLineString","properties":{"kind":"major_road","network":null,"sort_rank":381,"kind_detail":"trunk","source":"openstreetmap.org","min_zoom":8.0,"shield_text":"101","ref":"SS101"},"arcs":[[875],[876],[877],[878]]},{"type":"LineString","properties":{"source":"openstreetmap.org","kind":"ferry","name":"Brindisi\u2014Patras","sort_rank":355,"is_bicycle_related":true,"min_zoom":8.0},"arcs":[879]},{"type":"MultiLineString","properties":{"kind":"major_road","network":null,"sort_rank":381,"kind_detail":"trunk","source":"openstreetmap.org","min_zoom":8.0,"shield_text":"367","ref":"SP367"},"arcs":[[880],[881]]},{"type":"LineString","properties":{"source":"openstreetmap.org","kind":"major_road","landuse_kind":"urban_area","sort_rank":380,"kind_detail":"primary","ref":"SP215","min_zoom":8.0},"arcs":[882]},{"type":"LineString","properties":{"source":"openstreetmap.org","kind":"major_road","landuse_kind":"nature_reserve","sort_rank":380,"kind_detail":"primary","ref":"SS581","min_zoom":8.0},"arcs":[883]}]},"earth":{"type":"GeometryCollection","geometries":[{"type":"MultiPolygon","properties":{"sort_rank":10,"source":"naturalearthdata.com","min_zoom":0.0,"kind":"earth","area":19379112970},"arcs":[[[884]]]}]},"landuse":{"type":"GeometryCollection","geometries":[{"type":"Polygon","properties":{"kind":"nature_reserve","protect_class":"2","area":19279500,"sort_rank":23,"operator":"Comune di Nard\u00f2","source":"openstreetmap.org","min_zoom":8.0,"tier":2,"id":-7072452,"osm_relation":true},"arcs":[[885]]},{"type":"Polygon","properties":{"kind":"nature_reserve","protect_class":"4","area":19281500,"sort_rank":23,"operator":"Consorzio tra i comuni di Brindisi, Carovigno e WWF Italia","source":"openstreetmap.org","min_zoom":8.0,"tier":2,"id":447480422},"arcs":[[886]]},{"type":"Polygon","properties":{"kind":"nature_reserve","protect_class":"2","area":19826600,"sort_rank":23,"operator":"Comune di Martina Franca","source":"openstreetmap.org","min_zoom":8.0,"tier":2,"id":447593356},"arcs":[[887]]},{"type":"MultiPolygon","properties":{"source":"naturalearthdata.com","kind":"urban_area","name":"","area":5486001018,"sort_rank":11,"min_zoom":4.0},"arcs":[[[888]],[[889]],[[890]],[[891]],[[892]],[[893]],[[894]],[[895]],[[896]],[[897]],[[898]],[[899]],[[900]],[[901]],[[902]],[[903]]]},{"type":"MultiPolygon","properties":{"kind":"nature_reserve","protect_class":"2","area":83273290,"sort_rank":23,"operator":"Provincia di Lecce","source":"openstreetmap.org","min_zoom":8.0,"tier":2,"osm_relation":true},"arcs":[[[904]]]},{"type":"Polygon","properties":{"source":"openstreetmap.org","kind":"residential","area":15272000,"tier":2,"id":165953430,"min_zoom":8.0,"sort_rank":20},"arcs":[[905]]},{"type":"Polygon","properties":{"kind":"nature_reserve","protect_class":"4","area":12450800,"sort_rank":23,"operator":"Comune di Manduria","source":"openstreetmap.org","min_zoom":8.0,"tier":2,"id":-6947101,"osm_relation":true},"arcs":[[906]]},{"type":"MultiPolygon","properties":{"source":"openstreetmap.org","kind":"nature_reserve","tier":2,"area":71465327,"sort_rank":23,"min_zoom":8.0,"osm_relation":true},"arcs":[[[907],[908]]]}]}},"type":"Topology","transform":{"translate":[16.875,39.9097362345],"scale":[0.0003433228,0.00026127]},"arcs":[[[4096,3105],[-180,220],[-172,153],[-280,172],[-479,160],[-252,153],[-340,133]],[[0,1906],[132,161],[208,166],[236,96],[143,2],[83,-45],[-17,-46],[53,43],[-16,-43],[26,23],[31,-43],[13,12],[-21,-63],[50,11],[9,-29],[12,28],[53,-19],[-4,18],[31,7],[-7,-19],[73,-60],[-7,-52],[25,-20],[-20,9],[-45,-73],[-68,-11],[-17,-52],[62,4],[153,-89],[7,-25],[54,3],[39,-53],[86,-15],[114,-62],[43,-52],[141,-11],[46,-53],[104,-23],[39,-57],[503,37],[395,-57],[68,-35],[59,15],[24,-51],[32,4],[34,-58],[48,-15],[9,-35],[-2,-10],[-42,34],[85,-101],[-19,-99],[32,-70],[87,-80],[14,-44],[32,3],[14,-38],[23,9],[66,-120],[5,-91],[-29,-71],[-86,-47],[69,-11],[58,-67],[6,-104],[-34,-43],[-37,11],[159,-269],[85,-71]],[[4096,1920],[-138,145],[-97,74],[-215,94],[-31,52],[-104,73],[-9,48],[-92,66],[-32,59],[31,101],[-88,115],[23,54],[-55,11],[-16,18],[14,21],[-12,5],[-9,-30],[-42,5],[20,-12],[-12,-11],[-32,30],[-9,-21],[-51,-2],[0,-30],[-10,-17],[-15,37],[-32,-13],[-19,3],[69,18],[34,68],[18,-36],[10,36],[72,3],[-86,3],[-19,-5],[-8,-9],[-65,99],[-26,-26],[-254,44],[-114,68],[-1,28],[-92,28],[-175,132],[-432,153],[-185,91],[-246,190],[-70,84],[-110,48],[-43,87],[-106,110],[29,-4],[-145,91]],[[3760,1667],[23,-31],[-26,-110],[42,-129],[79,-69],[3,-70],[89,-175],[-557,-124],[-14,-177],[49,-109],[-6,-54],[-25,-18],[-75,12],[-99,-47]],[[3434,1367]],[[3434,1367],[-16,439]],[[3434,1367],[-40,-342],[40,-41],[-23,-50],[183,-145],[-57,-141],[75,-64],[57,-152],[85,-84],[44,-168],[92,-126],[117,-46],[9,-8]],[[1330,3027],[-6,51],[232,111],[85,-49],[54,-127],[165,-121],[42,-132],[117,-183],[27,-221],[45,-17],[59,-371],[47,-62],[50,-18],[542,73],[293,-72],[115,-62],[138,24],[162,-90],[204,-53],[59,-41]],[[121,3396],[-13,40],[-108,29]],[[1052,4096],[202,-141],[169,-293],[475,-353],[171,-89],[213,-25],[276,-103],[117,-213],[132,-101],[184,-47],[102,50],[67,-117],[125,-462],[222,-297],[252,-236]],[[3243,566],[8,1]],[[3249,567],[2,0]],[[3251,567],[61,-38],[198,-241],[8,-74],[126,48],[95,95]],[[1052,4096],[202,-141],[169,-293],[475,-353],[170,-89],[215,-25],[276,-103],[117,-214],[131,-100],[184,-47],[103,50],[66,-117],[126,-462],[221,-296],[252,-237]],[[649,4096],[95,-100],[106,-249],[-100,-116],[-75,-20],[-16,-41],[46,-152],[56,-42],[110,-30],[113,-3],[65,35],[32,-43],[40,0],[179,-97],[19,-44],[16,-215],[-73,-244],[-90,41],[-75,-28],[-16,-65],[-115,-158],[38,-20],[-37,-49],[84,-198],[-34,-61]],[[1017,2197],[77,80],[79,34],[366,66],[74,-6],[54,-57],[37,2],[21,33],[358,-1],[177,-59],[182,190],[244,13],[386,291],[27,-11]],[[0,1942],[335,298],[238,95],[173,-7],[150,-70],[15,-71],[106,10]],[[46,1988],[1,1],[-1,0],[0,-1]],[[264,2187],[-1,0],[1,0]],[[536,2325],[1,0],[-1,0]],[[695,2340],[1,-1],[-1,0],[0,1]],[[809,2303],[-1,1],[1,-1]],[[1019,2197],[0,-1],[-4,-1],[4,2]],[[1017,2197],[-19,-12],[-81,0],[-6,2],[-7,5],[-2,27],[1,2],[2,3],[8,9],[12,26],[-5,24],[-101,102],[-152,202],[-172,81],[-48,-3],[-88,7],[-102,-10],[-81,40],[-57,45],[-4,42],[38,147],[-4,250],[-24,121],[-6,128],[-119,195]],[[0,3631],[49,-56],[3,-4],[2,-3],[61,-116],[2,-5],[1,-4],[1,-3],[1,-4],[0,-7],[5,-123],[2,-8],[15,-55],[2,-9],[2,-10],[2,-32],[1,-9],[4,-247],[0,-3],[0,-5],[-2,-9],[-36,-130],[5,-42],[56,-45],[9,-4],[31,-10],[5,-2],[3,-1],[5,-3],[2,-2],[14,-11],[12,-6],[101,10],[7,-1],[83,-7],[33,3],[6,1],[8,-1],[6,-2],[44,-13],[8,-3],[5,-3],[12,-6],[96,-53],[3,-2],[3,-1],[2,-3],[2,-2],[99,-125],[5,-8],[3,-5],[29,-47],[7,-10],[86,-86],[11,-11],[2,-2],[2,-3],[2,-3],[1,-3],[2,-7],[1,-4],[-1,-7],[-1,-5],[-1,-4],[-10,-17],[-2,-3],[-6,-7],[-3,-5],[3,-27],[112,6]],[[66,4096],[138,-330],[185,80],[42,-3],[240,-210],[60,-7]],[[0,0],[0,1892],[108,158],[186,181],[214,101],[219,-14],[26,-10],[66,-1],[29,-13],[16,-26],[14,-35],[16,-30],[23,-13],[61,19],[53,38],[54,23],[61,-25],[-14,-20],[-6,-9],[124,41],[56,-4],[-21,-63],[-59,-33],[-141,27],[-58,-23],[59,-65],[-14,-61],[-57,-50],[-68,-30],[37,-55],[79,-41],[164,-61],[160,-95],[49,-12],[19,-11],[51,-52],[21,-16],[30,-3],[61,6],[29,-3],[156,-90],[53,-14],[977,-52],[45,-17],[145,-116],[0,-24],[-38,0],[33,-34],[17,-51],[6,-65],[2,-73],[18,-56],[43,-51],[78,-64],[87,-99],[40,-93],[-24,-83],[-103,-65],[32,-22],[78,-26],[31,-33],[18,-56],[-5,-43],[-27,-27],[-46,-2],[0,-29],[35,-35],[187,-285],[10,-7],[-3495,0]],[[4096,1930],[-32,28],[-33,36],[-60,103],[-20,14],[-58,13],[-267,153],[-240,200],[17,173],[-12,23],[-68,65],[-13,39],[-1,34],[-12,25],[-44,9],[-74,-24],[-33,1],[2,90],[-99,48],[-227,42],[-278,205],[-300,123],[-32,20],[-251,65],[-105,70],[-59,16],[-46,22],[-182,195],[-105,81],[-48,16],[-39,21],[-110,164],[-97,96],[2926,0],[0,-2166]],[[1170,4096],[97,-96],[110,-164],[39,-21],[48,-16],[105,-81],[182,-195],[46,-22],[59,-16],[105,-70],[251,-65],[32,-20],[300,-123],[278,-205],[227,-42],[99,-48],[-2,-90],[33,-1],[74,24],[44,-9],[12,-25],[1,-34],[13,-39],[68,-65],[12,-23],[-17,-173],[240,-200],[267,-153],[58,-13],[20,-14],[60,-103],[33,-36],[32,-28]],[[3495,0],[-10,7],[-187,285],[-35,35],[0,29],[46,2],[27,27],[5,43],[-18,56],[-31,33],[-78,26],[-32,22],[103,65],[24,83],[-40,93],[-87,99],[-78,64],[-43,51],[-18,56],[-2,73],[-6,65],[-17,51],[-33,34],[38,0],[0,24],[-145,116],[-45,17],[-977,52],[-53,14],[-156,90],[-29,3],[-61,-6],[-30,3],[-21,16],[-51,52],[-19,11],[-49,12],[-160,95],[-164,61],[-79,41],[-37,55],[68,30],[57,50],[14,61],[-59,65],[58,23],[141,-27],[59,33],[21,63],[-56,4],[-124,-41],[6,9],[14,20],[-61,25],[-54,-23],[-53,-38],[-61,-19],[-23,13],[-16,30],[-14,35],[-16,26],[-29,13],[-66,1],[-26,10],[-219,14],[-214,-101],[-186,-181],[-108,-158]],[[85,2174],[-79,-66]],[[6,2108],[80,66]],[[571,2362],[102,16],[143,-71]],[[818,2307],[-65,42],[-80,29],[-4,0],[-98,-16]],[[820,2305],[62,-58],[39,-24],[-102,83]],[[3881,1683],[-3,-6]],[[3565,319],[-6,-7]],[[3569,322],[-4,-3]],[[3746,1462],[1,0]],[[3753,1362],[0,2],[0,-2]],[[3753,1361],[0,-3],[0,3]],[[3756,1280],[1,-6]],[[3752,1361],[1,0],[1,1],[-1,0],[-1,-1]],[[3833,608],[-73,16],[-76,-68]],[[3836,608],[33,6]],[[3871,615],[-2,-1]],[[3869,614],[2,0]],[[3872,614],[26,12]],[[4051,824],[-3,45],[44,11]],[[4093,881],[-1,-1]],[[4092,880],[1,0]],[[4096,881],[-1,1]],[[4095,880],[1,1]],[[3871,615],[1,-1],[0,1],[0,1],[-1,-1]],[[4095,880],[0,1],[-2,0],[0,-1],[2,0]],[[606,2631],[14,-7]],[[2855,1476],[-204,95]],[[3837,1203],[247,-271]],[[4088,927],[-9,15],[-6,8],[-236,254]],[[1140,2269],[3,-23]],[[1143,2246],[-3,23]],[[1143,2240],[2,-18]],[[1146,2222],[-2,19]],[[1157,2170],[50,-48]],[[1207,2122],[-49,48]],[[1207,2122],[-6,3]],[[3772,1727],[0,-1]],[[3778,1732],[-6,-5]],[[3774,1728],[17,4]],[[4096,3970],[-138,126]],[[3985,4096],[111,-102]],[[1587,4096],[1697,-818],[812,-369]],[[3330,2120],[46,-77]],[[3431,1981],[1,-1]],[[3432,1980],[0,2]],[[3432,1980],[36,-58]],[[3527,1867],[66,-47]],[[3596,1816],[-2,3]],[[3432,1982],[-1,1],[0,-1],[1,0]],[[2987,1393],[-75,56]],[[2987,1393],[1,-1]],[[2988,1393],[-1,0]],[[2989,1391],[1,1],[-1,1],[-1,-1],[1,-1]],[[2989,1391],[1,0]],[[2990,1391],[0,1]],[[2990,1391],[10,-8]],[[3243,1152],[95,-96]],[[3338,1056],[1,-1]],[[3340,1056],[-2,0]],[[3340,1054],[2,-1]],[[3342,1053],[-1,1]],[[3369,1018],[-27,35]],[[3370,1018],[4,-9]],[[3374,1009],[1,-2]],[[3375,1007],[-1,2]],[[3376,1007],[2,-1]],[[3378,1006],[-2,1]],[[3378,1006],[59,-55]],[[3339,1055],[1,-1],[1,0]],[[3341,1054],[-1,1],[-1,0]],[[3909,4096],[187,-168]],[[167,2752],[-7,1]],[[263,2625],[0,-2],[2,0],[0,1],[-2,1]],[[285,2617],[-1,1],[-1,0],[1,-1],[1,0]],[[302,2611],[2,2],[-2,1],[-1,-2],[1,-1]],[[1221,2126],[-18,0]],[[1221,2126],[3,0]],[[1224,2126],[181,-20]],[[1406,2106],[27,-1]],[[1492,2090],[128,-58]],[[1669,2014],[52,-19]],[[1789,1968],[123,-48]],[[1912,1920],[1,-2]],[[1913,1920],[-1,0]],[[1915,1918],[2,0]],[[1917,1918],[-1,1]],[[1917,1918],[27,-11]],[[1991,1895],[140,-11]],[[2134,1884],[-3,0]],[[2131,1884],[3,-1]],[[2319,1890],[-59,-7]],[[2851,1932],[-29,9]],[[3190,1878],[-155,-2]],[[3301,1872],[-105,6]],[[3302,1873],[-1,-1]],[[3301,1872],[1,0]],[[3305,1874],[-2,-1]],[[3304,1873],[1,1]],[[3323,1889],[-18,-15]],[[3323,1889],[1,0],[0,1],[-1,-1]],[[3337,1884],[-13,5]],[[3337,1884],[1,-1]],[[3338,1884],[-1,0]],[[3338,1883],[1,-1]],[[3339,1882],[0,1]],[[3347,1871],[-8,11]],[[3347,1871],[1,-1]],[[3348,1870],[-1,1]],[[3348,1870],[1,0]],[[3348,1870],[-1,0],[1,0]],[[3348,1870]],[[3349,1870],[-1,0]],[[3370,1866],[-21,4]],[[3407,1858],[-36,7]],[[3407,1858],[4,-2]],[[3411,1857],[-4,1]],[[3413,1856],[2,0]],[[3413,1857],[-2,1],[0,-2]],[[3411,1856],[2,0],[0,1]],[[3415,1856],[-2,1]],[[3415,1856],[177,-37]],[[3593,1818],[3,-2]],[[1913,1919],[2,-1],[1,0],[-2,2],[-1,-1]],[[3338,1883],[1,0],[0,1],[-1,0]],[[3338,1884],[0,-1]],[[116,4096],[55,-97],[-14,-72],[42,-152],[-9,-20],[-3,-9],[4,-31],[5,-12],[-8,-73],[-3,-143],[7,-117]],[[192,3370],[7,404],[-41,151],[13,74],[-55,97]],[[517,2783],[33,-16],[26,-122]],[[3754,1691],[-2,-3]],[[3772,1726],[-2,-2]],[[8,3618],[65,-195]],[[74,3423],[-2,30],[-9,39],[-55,126]],[[265,2765],[2,-81],[8,-32]],[[275,2652],[-10,113]],[[517,2625],[77,1]],[[593,2626],[-74,0]],[[3137,2690],[5,-10]],[[3143,2677],[110,-401]],[[3718,1788],[13,23]],[[2783,1907],[-94,27],[-321,-38]],[[921,2223],[31,-17]],[[1581,4096],[1700,-823],[815,-933]],[[3129,2709],[8,-19]],[[3253,2276],[-13,-69],[56,-36]],[[3303,2165],[27,-45]],[[3171,2824],[-12,-7]],[[524,2362],[-13,41],[-4,11]],[[507,2414],[-23,71],[0,12]],[[484,2497],[0,1],[8,13],[7,19]],[[499,2530],[1,3]],[[500,2533],[-1,-3]],[[499,2530],[-8,-19],[-8,-13],[1,-1]],[[484,2497],[23,-83]],[[507,2414],[4,-12],[11,-36]],[[458,3801],[39,-54],[183,-119]],[[930,3498],[-78,38]],[[1036,3440],[-105,58]],[[964,2200],[13,18]],[[976,2218],[-8,-10]],[[62,3403],[-62,-1]],[[84,3403],[-22,0]],[[84,3403],[5,0]],[[3171,2824],[-15,-1]],[[3809,1718],[1,0]],[[3131,2779],[16,43]],[[3045,2739],[92,-30]],[[3137,2710],[-92,30]],[[3811,1669],[0,2]],[[4015,1088],[1,-3]],[[1582,4096],[1700,-820],[814,-931]],[[2110,3329],[-3,2],[-81,32]],[[2027,3362],[83,-33]],[[2932,2875],[97,-78]],[[3771,1726],[-1,-2]],[[1211,2603],[44,81],[-44,-81]],[[620,2624],[44,-27]],[[1143,2246],[0,-6]],[[1144,2241],[-1,5]],[[1145,2222],[12,-52]],[[1158,2170],[-12,52]],[[2368,1896],[323,38],[92,-27]],[[1331,3772],[-1,-1]],[[1330,3773],[1,-1]],[[1331,3772],[0,1]],[[3749,1319],[6,-18]],[[3761,1302],[-9,12]],[[3956,12],[0,6],[-12,4]],[[3952,19],[-1,-4]],[[3953,12],[3,0]],[[3958,2],[-2,10]],[[664,2597],[14,-9]],[[679,2587],[12,-10]],[[691,2575],[1,-1]],[[692,2574],[-1,2]],[[692,2574],[17,-23]],[[709,2551],[1,-1]],[[710,2550],[-1,1]],[[710,2549],[1,-1]],[[711,2548],[0,1]],[[711,2548],[39,-53]],[[750,2495],[14,-19]],[[764,2475],[67,-78]],[[831,2396],[133,-155]],[[964,2241],[1,-3]],[[965,2239],[-1,2]],[[965,2238],[2,-2]],[[967,2236],[-1,2]],[[967,2236],[9,-12]],[[965,2238]],[[965,2238],[1,0]],[[966,2238],[-1,1],[0,-1]],[[2200,2815],[-62,5]],[[1507,3539],[204,-14],[190,-91],[34,-24],[47,-31],[45,-17]],[[2026,3363],[-125,71],[-191,91],[-203,14]],[[2581,3096],[-176,122],[-295,111]],[[2110,3329],[12,-7],[124,-55],[158,-49],[146,-114],[31,-8]],[[2607,3089],[-25,7]],[[2583,3095],[25,-7]],[[2735,3007],[43,-33],[82,-62],[72,-37]],[[2860,2912],[-124,95]],[[3407,574],[-60,-5]],[[3407,574]],[[3407,574],[0,-1]],[[3407,573],[6,-5]],[[3413,568],[-5,5]],[[3430,571],[-17,-3]],[[3430,571],[3,1]],[[3433,572],[1,-1]],[[3468,569],[-34,2]],[[3468,569],[2,1]],[[3469,570],[-1,-1]],[[3508,562],[-37,8]],[[3470,570],[0,1],[-1,-1],[1,0]],[[1376,3432],[1,11]],[[1377,3443],[9,59]],[[1383,3426],[-6,17]],[[1377,3443],[-9,27],[9,34]],[[1135,2279],[5,-10]],[[1140,2269],[-5,10]],[[121,2831],[-1,-1],[1,-1],[1,1],[-1,1]],[[152,2775],[1,-1],[2,0],[-3,1]],[[3289,606],[0,1]],[[3312,630],[-1,-6]],[[3765,1712],[-1,0]],[[3147,2822],[87,46],[83,3],[779,-163]],[[1134,3303],[72,-35]],[[1255,2684],[31,34],[39,227]],[[1988,1892],[2,4]],[[2822,1941]],[[3322,1888],[1,1]],[[3324,1889],[1,0]],[[3367,1866],[2,-1]],[[3371,1864],[5,0]],[[3302,1872],[1,0],[1,1],[-1,0],[-1,-1]],[[3369,1865],[1,-1],[1,1],[0,1],[-2,-1]],[[1945,1907],[0,-1]],[[1947,1906],[0,1],[-2,0]],[[1945,1907],[0,-1],[2,0]],[[1947,1906]],[[2134,1885],[0,-2],[1,0],[0,1],[-1,1]],[[521,2596],[44,47],[-44,-46]],[[576,2645],[17,-7]],[[192,3370],[3,-63],[54,-72],[-54,72],[-3,63]],[[470,2804],[47,-21]],[[3985,4096],[111,-101]],[[172,2769],[-9,4]],[[165,2761],[7,8]],[[172,2769],[-6,-10]],[[166,2754],[0,1]],[[360,3889],[-7,3]],[[361,3888],[2,-1]],[[741,3591],[-3,-5]],[[795,3563],[0,-1]],[[797,3562]],[[1082,3331],[-7,32]],[[1223,2126],[1,1]],[[1325,3040],[-6,34]],[[1339,3214],[-15,-1]],[[1325,3040],[0,-2]],[[1325,3035],[0,3]],[[1329,3267],[1,0]],[[1329,3036],[19,-17]],[[1330,3267],[0,1]],[[1330,3267],[4,-6]],[[1334,3260],[24,-12]],[[1347,3218],[-7,-4]],[[1370,3223],[-22,-5]],[[1359,3248],[5,-9]],[[1364,3239],[2,-5]],[[1366,3234],[-2,5]],[[1370,3223],[-4,10]],[[1404,3608],[0,3]],[[1404,3611],[1,2]],[[1404,3614],[0,-3]],[[1405,3613],[0,2]],[[1406,3611],[-1,2]],[[1406,3604],[-1,5]],[[1433,2106],[-2,0]],[[1476,2122],[-43,-15]],[[1433,2107]],[[1433,2107],[0,-1]],[[1434,2106],[45,12]],[[1477,2120],[1,1]],[[1479,2118],[-1,4]],[[1486,2107],[-7,11]],[[1486,2107],[1,-1]],[[1487,2106],[-1,1]],[[1487,2105],[3,-13]],[[1491,2092],[-4,13]],[[1490,2092],[2,-2],[-1,2]],[[1710,1999],[6,-9]],[[1720,1982],[1,13]],[[1725,1979],[-1,0]],[[1724,1979],[0,-1]],[[1724,1978]],[[1727,1976],[1,0],[0,1]],[[1751,1967]],[[1752,1967]],[[1752,1967],[-1,0]],[[1751,1967],[1,0]],[[2135,1886],[-1,-1]],[[2135,1884],[0,2]],[[2218,1898],[-35,18],[-48,-30]],[[2229,2144],[-27,-230]],[[2218,1898],[4,0]],[[2220,1898],[0,-1]],[[2222,1897],[-1,1]],[[2260,1883],[-38,15]],[[2270,1883],[-1,1]],[[2313,1852],[-43,31]],[[2403,2839],[-51,-7]],[[2443,1716],[-48,76]],[[2443,1716],[1,-1]],[[2445,1713],[-2,3]],[[2490,1675],[-10,13]],[[3260,578],[26,26]],[[3318,521],[-53,36]],[[3286,604],[2,1]],[[3287,605],[-1,-1]],[[3304,622],[-14,-15]],[[3376,2043],[55,-60]],[[3431,1983],[0,-1]],[[3431,1983]],[[3468,1922],[4,-7]],[[3472,1915],[0,-1]],[[3472,1914],[0,1]],[[3472,1914]],[[3472,1914],[1,0],[-1,0]],[[3472,1914],[1,-1]],[[3473,1913],[0,1]],[[3473,1913],[54,-46]],[[3700,1741],[-104,75]],[[3687,1741],[3,3]],[[3689,1746],[1,-2]],[[3690,1744],[1,0]],[[3691,1744],[3,0]],[[3702,358],[1,-1]],[[3765,1733],[1,0]],[[3795,1659],[0,-1]],[[3796,1659],[-1,0]],[[360,3888],[1,0],[-1,0]],[[448,3815],[0,1],[0,-1]],[[700,2637],[0,-1],[0,1]],[[796,3562],[1,1],[-1,0],[-1,-1]],[[795,3562],[1,0]],[[1071,3374],[0,-1],[1,1],[-1,0]],[[1334,3260],[0,1],[0,-1]],[[1340,3214],[-1,0],[1,-1],[0,1]],[[1348,3218]],[[1359,3248],[-1,0],[0,-1],[1,1]],[[1370,3222],[1,1],[-1,0],[0,-1]],[[1404,3615],[0,-1],[1,1],[-1,0]],[[1405,2107],[0,-1],[1,0],[-1,1]],[[1433,2107]],[[1433,2107],[0,-2],[1,0],[0,1],[-1,1]],[[1433,2107]],[[1478,2123],[-2,-1],[1,-1],[1,0],[0,2]],[[1487,2106],[0,-1]],[[1487,2105],[0,1]],[[1490,2092],[0,-1],[1,1]],[[1491,2092],[-1,0]],[[1727,1979],[-3,0]],[[1724,1979],[0,-1]],[[1724,1978],[1,-2],[2,1],[0,2]],[[1947,1918],[-2,1],[-1,-1],[2,-1],[1,1]],[[3266,559],[0,1],[-1,0],[0,-1],[1,0]],[[3288,607],[-1,-1],[1,-1],[1,1],[-1,1]],[[3369,1018],[1,0],[-1,0]],[[3376,1007],[-1,0],[1,0]],[[3752,675],[1,-1],[0,1],[-1,0]],[[3810,1669],[1,0],[0,1],[-1,0],[0,-1]],[[3159,2817],[11,7]],[[816,2741],[-116,-104]],[[1039,2855],[-22,-31]],[[1329,3036],[-54,-23]],[[1417,3004],[-42,23]],[[1976,2807],[-84,10]],[[1620,2032],[49,-18]],[[2368,1896],[-49,-6]],[[3035,1876],[-184,56]],[[3765,1678],[6,-4]],[[3771,1674],[4,-3]],[[3810,1670],[-35,1]],[[3815,1677],[-5,-7]],[[3811,1670],[4,7],[3,12]],[[978,2220],[-2,-2]],[[977,2218],[1,2]],[[3909,4096],[187,-167]],[[1755,1967],[3,0]],[[3801,1727],[8,-8]],[[3812,1713],[3,-36]],[[3704,358],[-123,-40]],[[695,3335],[-103,-213],[-30,-222],[-82,-104]],[[4096,3970],[-138,126]],[[1066,2273],[-1,-2]],[[1066,2273],[57,66]],[[1123,2339],[15,18],[36,120]],[[1174,2477],[26,86]],[[1200,2563],[1,2],[10,38]],[[1211,2603],[-10,-37],[0,-1],[-1,-2]],[[1200,2563],[0,-1],[-12,-49],[-14,-36]],[[1174,2477],[-51,-138]],[[1123,2339],[-57,-66]],[[1314,3239],[15,28]],[[1331,3272],[38,85]],[[1377,3504],[20,77]],[[1386,3502],[11,79]],[[1397,3581],[9,23]],[[1329,3267],[2,4],[-1,0],[-1,-4]],[[2480,1688],[-37,26]],[[2494,1672],[-4,3]],[[1265,3255],[1,0],[0,1],[-1,-1]],[[3369,460],[37,-44]],[[3405,418],[-35,43]],[[2480,1688],[10,-13]],[[1948,1906],[40,-14]],[[3753,1688],[19,38]],[[3770,1724],[-16,-33]],[[3916,635],[-18,-9]],[[3916,635],[2,1]],[[3918,637],[-2,-2]],[[3921,639],[-2,-1]],[[3919,637],[2,2]],[[3921,639],[148,114],[-17,57]],[[4052,816],[-1,-1]],[[4051,813],[1,-3]],[[4052,816],[-1,8]],[[4053,815],[-1,1]],[[4052,810],[1,3]],[[3918,637],[0,-1]],[[3918,636],[1,1],[0,1]],[[3919,638],[-1,-1]],[[4051,814],[1,-2],[1,2],[-1,1],[-1,-1]],[[3147,2693],[144,-289]],[[3291,2404],[-144,289]],[[3147,2693],[-10,17]],[[3137,2709],[10,-16]],[[3291,2404],[57,-118],[285,-454],[40,-31]],[[3673,1801],[37,-30]],[[3710,1771],[11,-9],[43,-28]],[[3765,1735],[-20,15],[-35,21]],[[3710,1771],[-30,18],[-7,12]],[[3673,1801],[-325,485],[-57,118]],[[3040,2750],[-3,12]],[[524,2597],[-4,-3]],[[0,2103],[6,5]],[[6,2108],[-6,-5]],[[571,2362],[-148,-25],[-161,-68],[-3,-2],[-49,-17],[-72,-32],[-53,-44]],[[86,2174],[52,44],[121,48],[165,71],[147,25]],[[816,2307],[4,-2]],[[819,2306],[-1,1]],[[3466,348],[-61,70]],[[3406,416],[56,-66],[4,-2]],[[3466,348],[102,-29]],[[4096,2910],[-812,367],[-1702,819]],[[1591,4096],[1695,-815],[810,-365]],[[163,2773],[-8,1]],[[160,2753],[6,1]],[[166,2759],[-2,-2]],[[166,2755],[-1,6]],[[480,2796],[-1,-2]],[[700,3347],[-5,-12]],[[1758,1967],[-1,0]],[[2133,2819],[-4,-2],[4,1]],[[2135,2819],[0,1]],[[2204,2813],[0,-1]],[[2204,2812],[1,-1],[0,1],[-1,1]],[[2207,2812],[-2,0]],[[2205,2812],[2,0]],[[2352,2832],[-145,-20]],[[2237,2220],[-8,-76]],[[2395,1792],[-82,60]],[[2854,1476],[1,-1]],[[2878,2827],[-1,-1]],[[2880,2826],[2,1]],[[2906,1453],[-1,-1]],[[2908,1451],[0,1]],[[3335,514],[-17,7]],[[931,3497],[0,1],[-1,1],[0,-1],[1,-1]],[[1758,1967],[0,-1],[0,1]],[[2133,2820],[0,-1],[2,0],[0,1]],[[2135,2820],[-2,0]],[[2879,2826],[1,1],[-2,0]],[[2878,2827],[0,-1],[1,0]],[[2908,1452],[-2,1],[-1,-2],[2,0],[1,1]],[[3150,1243],[0,-2],[2,0],[0,2],[-2,0]],[[3407,574],[0,-1],[1,0],[0,1],[-1,0]],[[3557,1151],[-35,-116],[-88,-81],[-8,-13],[6,-105],[-120,-211],[2,-12],[21,-63]],[[3335,550],[-21,63],[51,72],[67,151],[-6,105],[9,13],[52,43],[35,38],[36,115]],[[3658,1474],[63,137],[-64,-137]],[[1369,3357],[14,69]],[[3559,312],[1,-1]],[[3560,311],[0,2]],[[3581,318],[-21,-7]],[[1314,3234],[0,5]],[[3791,1733],[-13,-1]],[[3788,1657],[22,12]],[[3810,1720],[-18,12]],[[3818,1689],[-8,31]],[[1743,2865],[-142,87]],[[3764,1711]],[[3736,1516],[2,1]],[[3737,1518],[-1,-2]],[[3736,1516],[3,-22]],[[3739,1520],[-1,-1]],[[3738,1518],[1,2]],[[3739,1520],[18,73]],[[3765,880],[-1,0]],[[3764,878],[1,2]],[[3765,880],[35,43]],[[3790,1125],[-2,3]],[[3791,1124],[-1,0]],[[3790,1124],[0,-2],[1,0]],[[3791,1122],[1,1],[-2,1]],[[3791,1122],[0,-2]],[[3791,1120],[0,2]],[[3805,1089],[-14,31]],[[3800,923],[1,1]],[[3800,924],[0,-1]],[[3803,925],[-1,0]],[[3802,925],[-1,0],[0,-1]],[[3801,924],[1,0],[0,1]],[[3802,924],[1,1]],[[3803,925],[34,72]],[[3805,1089],[0,-2]],[[3806,1088],[-1,1]],[[3806,1085],[1,-1]],[[3807,1084],[0,2]],[[3813,1067],[-6,17]],[[3813,1067],[-1,-1]],[[3814,1066],[-1,1]],[[3813,1064],[2,-1]],[[3815,1063],[-1,1]],[[3839,1001],[-24,62]],[[3837,998],[0,-1]],[[3837,997],[1,1]],[[3839,1001],[-1,-1]],[[3838,1000],[1,1]],[[3738,1519],[-1,-1],[0,-1],[1,1],[0,1]],[[3763,878],[1,1],[-2,1],[0,-2],[1,0]],[[3805,1088],[0,-2],[1,-1],[1,2],[-2,1]],[[3813,1066],[-1,-1],[1,-1],[1,1],[-1,1]],[[3837,1000],[-1,-2],[2,0],[0,2]],[[3838,1000],[-1,0]],[[1319,3074],[14,17]],[[3773,1728],[-2,1]],[[1879,3384],[16,52]],[[1591,4096],[1695,-815],[810,-365]],[[1107,2322],[28,-43]],[[1135,2279],[-26,45]],[[3820,1581],[100,151],[0,5],[-4,18],[-56,55],[-7,2]],[[3853,1812],[-26,6]],[[3827,1818],[-42,11],[-8,-2]],[[3777,1827],[-29,-6]],[[3748,1821],[-9,-2],[-3,-5]],[[3736,1814],[-26,-41]],[[3710,1773],[-1,-3],[-2,-2]],[[3707,1768],[2,2],[1,3]],[[3710,1773],[8,15]],[[3731,1811],[5,3]],[[3736,1814],[12,7]],[[3748,1821],[15,9],[14,-3]],[[3777,1827],[50,-9]],[[3827,1818],[23,-3],[3,-3]],[[3853,1812],[62,-57],[2,-7],[-36,-65]],[[3878,1677],[-59,-95]],[[3831,1546],[-2,3]],[[3922,1746],[0,3]],[[1347,3017],[1,2]],[[3156,2823],[95,51],[64,-4],[781,-254]],[[4096,2613],[-783,256],[-62,4],[-80,-49]],[[2546,2855],[77,-6]],[[2626,2849],[-3,0]],[[2623,2849],[2,-1]],[[2625,2848],[1,-1],[1,2],[-1,0]],[[2626,2849],[-1,-1]],[[2629,2848],[-2,1]],[[2627,2848],[2,0]],[[2876,2827],[-247,21]],[[2999,2817],[-119,10]],[[2456,2863],[90,-8]],[[3012,2816],[-13,1]],[[1086,4096],[40,-37],[-4,-40],[85,-87]],[[1207,3932],[-85,87],[5,30],[0,10],[-15,19],[-26,18]],[[1371,3669],[76,-106],[32,-13]],[[1479,3550],[-107,119]],[[3037,2762],[-11,53],[-96,61]],[[3029,2797],[11,-47],[5,-11]],[[3045,2740],[-5,10]],[[3347,569],[-78,-6]],[[3588,543],[-80,19]],[[3593,544],[-2,0]],[[3592,543],[1,1]],[[3684,556],[-62,12],[-29,-24]],[[3834,608],[0,-1],[1,0],[0,1],[-1,0]],[[593,2638],[13,-7]],[[188,2749],[-21,3]],[[2581,3096],[2,-1]],[[2582,3096],[-1,0]],[[2736,3007],[-19,15],[-86,61],[-24,6]],[[2608,3088],[127,-81]],[[3874,615],[-2,0]],[[3707,1768],[-60,-81],[-6,-29],[15,-30],[57,-34],[35,-1],[29,-10],[18,-1],[18,-1],[7,0]],[[3819,1582],[-71,12],[-35,0],[-57,34],[-9,59],[60,81]],[[3958,20],[-2,-2]],[[3957,16],[1,4]],[[3958,20],[2,11]],[[3616,271],[-35,-2]],[[3619,272],[-3,-1]],[[3616,271],[3,0]],[[3630,273],[-10,-1]],[[3620,271],[10,2]],[[3620,271],[0,1]],[[3620,272],[-1,0]],[[3619,272],[0,-1]],[[3619,271],[1,0]],[[3630,273],[50,26]],[[3680,299],[2,2]],[[3681,301],[-1,-2]],[[3683,303],[-2,-1]],[[3682,301],[1,2]],[[3683,303],[13,12]],[[3681,301],[1,0],[0,1],[-1,-1]],[[197,2690],[-9,59]],[[520,2594],[-40,-11]],[[690,2577],[0,-1]],[[2856,1474],[3,0]],[[2859,1474],[-2,2]],[[2904,1453],[-45,21]],[[2912,1449],[-3,2]],[[3000,1383],[149,-139]],[[3149,1244],[1,-1]],[[3151,1243],[-2,1]],[[3152,1241],[1,1]],[[3153,1241],[90,-89]],[[3843,1493],[9,-35],[140,-338]],[[3993,1120],[-26,72],[-58,147],[-57,119],[-9,34]],[[4096,2613],[-783,256],[-62,4],[-80,-49]],[[952,2206],[13,-5]],[[1848,2835],[-105,30]],[[1366,3233]],[[3739,1494],[5,-28]],[[3744,1466],[2,-3]],[[3746,1464],[-2,2]],[[3746,1463],[1,-3]],[[3747,1460],[0,3]],[[3753,1364],[-6,96]],[[3755,1321],[-3,1]],[[3754,1332],[-1,26]],[[3754,1332],[-4,-17],[6,-33]],[[3755,1321],[-1,11]],[[3757,1282],[-2,39]],[[3757,1280],[4,-95]],[[3761,1185],[-1,-1]],[[3761,1184],[0,1]],[[3761,1182],[1,-1]],[[3762,1181],[0,2]],[[3788,1128],[-26,53]],[[3746,1463],[1,1],[-1,0],[0,-1]],[[3746,1463]],[[3758,1281],[-2,1],[0,-1],[1,-1],[1,1]],[[3761,1184],[-1,-2],[1,0]],[[3761,1182],[1,1],[-1,1]],[[500,2533],[21,59]],[[521,2592],[0,1],[0,3]],[[521,2597],[0,-5]],[[521,2592],[0,-2],[0,-2],[-21,-55]],[[1065,2261],[11,1],[18,4]],[[1093,2266],[-27,-5]],[[1222,2306],[179,33]],[[1401,2340],[-174,-32],[-5,-1]],[[1902,2393],[-197,-2],[-28,-18]],[[1677,2373],[225,19]],[[2302,2415],[-21,-5]],[[2281,2410],[21,5]],[[3025,2728],[-199,-141]],[[2826,2587],[174,121],[25,20]],[[3810,1669],[20,-35],[-13,-41],[26,-100]],[[3843,1492],[-17,68],[-9,32],[13,37],[0,5],[-1,9],[-17,25]],[[3992,1120],[92,-188],[2,-2]],[[4086,930],[10,-10]],[[4096,918],[-8,9],[-2,3]],[[4086,930],[-6,14],[-66,147],[-21,29]],[[2811,1947],[11,-6]],[[1723,1979],[-7,11]],[[1728,1976],[22,-9]],[[1753,1967],[2,0]],[[1945,1917],[1,-10]],[[1947,1907],[1,10]],[[1948,1917],[-1,1]],[[1948,1917],[11,-6]],[[3770,1729],[1,-2]],[[3773,1727],[1,1]],[[3774,1672],[0,-1]],[[3774,1671],[1,-1]],[[3792,1732],[-1,1]],[[3791,1732],[10,-5]],[[353,3892],[-192,89]],[[358,3889],[2,-1]],[[363,3887],[-2,1]],[[449,3814],[9,-13]],[[680,3628],[66,-43]],[[738,3586],[1,-1]],[[739,3585],[-1,1]],[[739,3585],[8,-1]],[[747,3584],[48,-21]],[[852,3536],[-54,25]],[[1071,3374],[-35,66]],[[1075,3364],[-4,9]],[[1265,3256],[-1,0]],[[1266,3255],[1,0]],[[1075,3363],[1,1],[-1,0],[0,-1]],[[3712,594],[-1,-5]],[[3712,594],[0,48],[40,33]],[[3712,594],[1,-3]],[[3716,593],[-4,1]],[[3761,831],[-8,-156]],[[3761,837],[2,34]],[[3763,876],[0,-5]],[[3763,876]],[[3761,833],[1,1],[-2,1],[0,-1],[1,-1]],[[3269,563],[-3,-3]],[[3591,544],[0,-1],[1,0],[0,1],[-1,0]],[[3696,315],[18,18]],[[3714,333],[2,0]],[[3716,333],[-2,0]],[[3703,357],[1,-1]],[[3704,356],[0,1]],[[3704,356],[12,-22]],[[3717,332],[9,-11]],[[3726,321],[1,-2]],[[3727,320],[-1,1]],[[3728,319],[1,1]],[[3729,320],[-1,0]],[[3729,320],[8,2]],[[3737,322],[1,0]],[[3738,323],[-1,-1]],[[3742,323],[-2,1]],[[3740,323],[2,0]],[[3777,337],[-35,-14]],[[3704,358],[-1,0],[0,-1],[1,0]],[[3704,357],[0,1]],[[3716,334],[0,-1],[1,0],[0,1],[-1,0]],[[3727,319],[1,-1],[0,1],[-1,1],[0,-1]],[[3738,322],[2,1],[-1,1],[-1,0],[0,-2]],[[1329,3268],[0,-1]],[[1331,3271]],[[1991,1895],[-32,16]],[[1207,3932],[78,-60],[86,-203]],[[1372,3669],[-87,204],[-78,59]],[[1507,3539],[-28,11]],[[1479,3550],[28,-11]],[[2930,2876],[-70,36]],[[3333,506],[36,-46]],[[3370,461],[-35,46]],[[3966,0],[-22,22],[-133,28],[-53,73],[-129,67],[-61,129]],[[249,3235],[37,-51],[18,-136],[-15,-64],[181,-180]],[[0,3703],[5,-80],[3,-5]],[[8,3618],[-8,87]],[[73,3423],[8,-97],[43,-74],[-21,-100],[38,-103],[109,-114],[15,-170]],[[265,2765],[-1,66],[-14,104],[-2,5],[-106,109],[-38,103],[20,100],[-42,75],[-8,96]],[[275,2652],[1,-2],[20,-13],[221,-12]],[[519,2626],[-244,26]],[[3751,674],[1,0]],[[3753,675],[0,2]],[[1582,4096],[1702,-819],[812,-367]],[[1601,2952],[-14,6]],[[678,2587],[1,0],[0,1],[-1,0],[0,-1]],[[691,2576],[-1,0],[0,-1],[1,1]],[[711,2549],[0,1],[-1,0],[0,-1],[1,0]],[[750,2495],[-1,0],[1,0]],[[764,2475],[0,1],[0,-1]],[[831,2396],[0,1],[-1,-1],[1,0]],[[3752,1688],[13,-10]],[[3810,1720],[2,-7]],[[1066,2261],[-88,-41]],[[978,2220],[87,41]],[[1222,2307],[-129,-41]],[[1094,2266],[128,40]],[[1401,2339],[160,31],[73,-23],[43,26]],[[1677,2373],[-43,-25],[-73,22],[-160,-30]],[[2281,2410],[-108,-28],[-79,54],[-3,0],[-119,2],[-10,0],[-12,-3],[-33,-25],[-15,-17]],[[1902,2392],[60,46],[132,-3],[79,-53],[108,28]],[[2302,2415],[110,28],[5,2],[31,38],[292,44]],[[2740,2527],[7,5]],[[2747,2532],[79,55]],[[2826,2587],[-79,-55]],[[2747,2532],[-7,-5]],[[2740,2527],[-1,1],[-12,4],[-279,-49],[-36,-40],[-110,-28]],[[3039,2739],[-14,-11]],[[3025,2728],[14,10]],[[2651,1571],[-157,101]],[[120,2831],[-120,2]],[[152,2775],[-30,54]],[[262,2624],[-58,23],[-7,43]],[[263,2624],[-1,0]],[[262,2624],[1,-1]],[[265,2623],[1,0]],[[266,2623],[-1,1]],[[281,2619],[-15,4]],[[281,2619],[2,-2]],[[284,2618],[-3,1]],[[285,2617],[2,0]],[[287,2617],[-2,1]],[[299,2613],[-12,4]],[[301,2613],[-2,0]],[[299,2613],[2,0]],[[304,2612],[1,0]],[[305,2612],[-1,0]],[[327,2605],[-22,7]],[[332,2604],[-5,1]],[[480,2583],[-40,-11],[-108,32]],[[1587,4096],[2509,-1164]],[[948,2809],[-13,-30],[-119,-38]],[[1275,3013],[-184,-80],[-52,-78]],[[1587,2958],[-170,46]],[[2129,2817],[-153,-10]],[[2856,1477],[-1,-1],[1,-2],[1,1],[-1,2]],[[1082,3331],[52,-28]],[[1206,3268],[59,-13]],[[1266,3255],[48,-16]],[[1324,3213],[-10,21]],[[1333,3091],[-9,122]],[[1325,2945],[22,72]],[[1324,3213],[-1,0],[1,0]],[[3335,550],[-2,-44]],[[3335,507],[1,28],[1,11],[-2,4]],[[3657,1474],[-100,-323]],[[3558,1150],[100,324]],[[3170,2824],[81,50],[64,-4],[781,-254]],[[3837,1204],[-115,149],[-85,26]],[[3652,1373],[70,-20],[115,-150]],[[445,3815],[-85,16],[-7,61]],[[1017,2824],[-69,-15]],[[4096,1930],[0,-1930],[-601,0],[-10,7],[-187,285],[-35,35],[0,29],[46,2],[27,27],[5,43],[-18,56],[-31,33],[-78,26],[-32,22],[103,65],[24,83],[-40,93],[-87,99],[-78,64],[-43,51],[-18,56],[-2,73],[-6,65],[-17,51],[-33,34],[38,0],[0,24],[-145,116],[-45,17],[-977,52],[-53,14],[-156,90],[-29,3],[-61,-6],[-30,3],[-21,16],[-51,52],[-19,11],[-49,12],[-160,95],[-164,61],[-79,41],[-37,55],[68,30],[57,50],[14,61],[-59,65],[58,23],[141,-27],[59,33],[21,63],[-56,4],[-124,-41],[6,9],[14,20],[-61,25],[-54,-23],[-53,-38],[-61,-19],[-23,13],[-16,30],[-14,35],[-16,26],[-29,13],[-66,1],[-26,10],[-219,14],[-214,-101],[-186,-181],[-108,-158],[0,2204],[1170,0],[97,-96],[110,-164],[39,-21],[48,-16],[105,-81],[182,-195],[46,-22],[59,-16],[105,-70],[251,-65],[32,-20],[300,-123],[278,-205],[227,-42],[99,-48],[-2,-90],[33,-1],[74,24],[44,-9],[12,-25],[1,-34],[13,-39],[68,-65],[12,-23],[-17,-173],[240,-200],[267,-153],[58,-13],[20,-14],[60,-103],[33,-36],[32,-28]],[[3037,1113],[45,50],[16,-110],[69,-50],[58,-106],[-54,12],[-14,44],[-69,53],[-51,107]],[[2573,3078],[8,18],[31,-15],[-24,43],[106,-38],[-4,-22],[62,-58],[-69,3],[-56,-41],[-54,110]],[[890,2877],[3,37],[27,15],[-19,-18],[28,-27],[41,-2],[-11,28],[36,3],[2,-68],[34,-35],[37,57],[26,-28],[-25,-19],[7,-34],[-48,-15],[-68,24],[-70,82]],[[3002,1339],[-124,100],[-17,6],[85,6],[52,-46],[4,-66]],[[108,2050],[-46,-68],[-35,27],[-27,128],[75,37],[113,1],[-2,-49],[-78,-76]],[[2489,1666],[-36,-2],[-50,52],[-15,76],[95,-2],[67,-40],[-61,-84]],[[4096,410],[0,-105],[-662,17],[-75,24],[31,98],[195,30],[-10,41],[-183,129],[-86,-142],[-76,36],[0,42],[97,107],[0,85],[64,84],[-24,96],[-56,32],[-16,-170],[-49,43],[-48,255],[88,78],[55,18],[233,-62],[76,8],[-32,-212],[105,32],[92,219],[94,47],[-25,-70],[33,-43],[154,-15],[-29,181],[-128,79],[-5,37],[33,43],[-49,7],[-124,84],[-21,-6],[0,-43],[-65,0],[0,-42],[-45,40],[-43,-11],[-77,-130],[-117,-50],[-139,23],[-32,43],[-130,-43],[0,213],[-32,85],[-65,0],[0,85],[-32,43],[0,85],[64,0],[0,85],[-32,0],[32,85],[-32,127],[98,145],[58,9],[71,-26],[47,32],[17,138],[95,-108],[80,-10],[53,52],[66,-56],[-36,-159],[33,-59],[33,0],[0,-43],[65,0],[0,-42],[226,0],[16,-36],[171,-129],[0,-24],[-17,-44],[-170,-65],[47,-119],[140,-62],[0,-724],[-44,19],[-13,35],[-43,6],[-87,-48],[-129,42],[-3,-88],[132,-81],[-32,-171],[41,-41],[102,-8],[51,-36],[25,-21]],[[2888,2098],[18,-136],[-37,-30],[-81,1],[-84,58],[-39,-24],[-18,80],[65,0],[65,128],[97,-43],[14,-34]],[[1170,4096],[97,-96],[41,-61],[-126,-9],[-95,103],[-112,63],[195,0]],[[1061,3415],[112,19],[18,-26],[-23,-85],[-65,-39],[-77,2],[-61,37],[73,121],[24,7],[-1,-36]],[[1424,3494],[-200,42],[29,105],[100,34],[100,-34],[30,-105],[-59,-42]],[[874,4096],[-38,-50],[87,-148],[85,-29],[22,-36],[-6,-57],[-124,-113],[-64,-170],[-65,0],[32,-170],[-43,7],[-108,173],[30,106],[-9,97],[-98,96],[33,74],[-89,-21],[-124,-112],[-109,5],[-23,-72],[82,-117],[5,-108],[-84,-72],[-110,-13],[-33,42],[-123,37],[2,165],[30,46],[59,7],[-21,68],[-70,6],[0,359],[273,0],[-25,-60],[17,-84],[52,-33],[33,127],[37,50],[63,0],[38,-81],[88,-54],[0,135],[298,0]],[[1612,3493],[-87,-141],[-107,-114],[18,-51],[111,-76],[-21,-70],[-173,-58],[-32,-43],[-46,16],[0,102],[-84,160],[43,137],[41,17],[13,36],[194,0],[89,89],[41,-4]],[[1183,2624],[100,-73],[38,-121],[-56,-11],[-69,-180],[-70,-23],[20,29],[-61,25],[-168,-80],[-98,117],[-259,22],[49,144],[-18,66],[-109,-7],[-3,68],[65,43],[-31,136],[31,34],[57,-11],[8,-244],[53,3],[11,209],[108,4],[184,-174],[54,44],[-49,113],[-5,98],[97,0],[11,-114],[106,-67],[4,-50]],[[1839,2685],[-3,-64],[-76,-178],[-83,-56],[0,-170],[-65,-212],[52,-6],[45,133],[85,84],[12,44],[134,-30],[48,-52],[12,-131],[49,5],[148,104],[62,-24],[0,-42],[65,0],[0,-43],[65,-42],[-65,-85],[-12,-77],[-109,-52],[-106,44],[-194,-43],[-33,85],[-32,0],[-31,62],[-39,29],[-59,-6],[-29,-17],[36,-87],[-7,-66],[-67,5],[-92,63],[-59,-40],[-77,-123],[-430,203],[-37,55],[125,80],[14,61],[-59,65],[58,23],[137,-27],[2,-24],[233,272],[122,68],[-22,124],[22,46],[134,-12],[126,54]],[[2679,2649],[65,36],[58,-41],[72,-171],[-129,-43],[-1,-43],[-107,48],[-151,-48],[24,-63],[170,-64],[-21,-90],[-109,-208],[-97,85],[47,164],[-14,49],[-33,0],[16,101],[-48,26],[-32,-23],[-25,-83],[-170,-64],[-291,170],[-2,25],[35,18],[0,85],[32,-42],[64,-2],[100,108],[62,21],[98,-212],[64,170],[37,25],[-37,17],[32,85],[98,-85],[96,89],[65,-4],[32,-36]],[[3146,2822],[151,14],[26,-98],[52,-49],[-113,39],[-174,-53],[-52,10],[-33,128],[-97,85],[39,81],[203,-67],[-2,-90]],[[306,2652],[-71,1],[-61,60],[-18,100],[194,-85],[-44,-76]],[[2130,3153],[22,-9],[42,52],[27,-14],[118,-113],[17,-86],[55,13],[46,109],[61,6],[65,-86],[-40,-133],[7,-79],[-194,0],[-32,170],[-65,0],[-108,79],[-118,-79],[32,-43],[-43,-92],[-63,-55],[-90,-2],[-128,64],[17,84],[93,79],[117,50],[-32,43],[32,76],[103,72],[-62,143],[96,-24],[25,-225]],[[3257,346],[51,-8],[35,66],[-9,38],[49,26],[24,-55],[-64,-18],[22,-66],[-24,-28],[-49,-21],[-35,66]],[[1257,3510],[17,43],[32,-14],[-32,30],[45,-14],[-2,-25],[38,-19],[-12,-31],[28,-50],[41,-12],[16,-75],[-27,33],[-45,-27],[-10,39],[22,6],[-53,61],[20,9],[-78,46]],[[2268,1650],[48,22],[58,-38],[-12,-125],[-24,24],[12,35],[-58,25],[-24,57]],[[2591,3122],[11,141],[233,-148],[-65,-104],[-52,31],[19,33],[-119,72],[-2,-36],[-25,11]],[[2751,3035],[18,-11],[15,23],[-18,11],[-15,-23]]]}