{"objects":{"water":{"type":"GeometryCollection","geometries":[{"type":"Polygon","properties":{"source":"naturalearthdata.com","kind":"lake","name":"Wholdaia L.","area":5504797184,"sort_rank":200,"min_zoom":0.0,"id":319},"arcs":[[7]]},{"type":"Polygon","properties":{"source":"naturalearthdata.com","kind":"lake","name":"Scott L.","area":2864422656,"sort_rank":200,"min_zoom":0.0,"id":116},"arcs":[[8]]},{"type":"Polygon","properties":{"source":"naturalearthdata.com","kind":"lake","name":"Black Lake","area":1992128128,"sort_rank":200,"min_zoom":0.0,"id":275},"arcs":[[9]]},{"type":"Polygon","properties":{"source":"naturalearthdata.com","kind":"lake","name":"Clinton-Colden L.","area":4630106112,"sort_rank":200,"min_zoom":0.0,"id":315},"arcs":[[10]]},{"type":"Polygon","properties":{"source":"naturalearthdata.com","kind":"lake","name":"Great Slave Lake","area":124060934144,"sort_rank":200,"min_zoom":0.0,"id":14},"arcs":[[11]]},{"type":"Polygon","properties":{"source":"naturalearthdata.com","kind":"lake","name":"Kasba L.","area":5670968320,"sort_rank":200,"min_zoom":0.0,"id":86},"arcs":[[12]]},{"type":"Polygon","properties":{"source":"naturalearthdata.com","kind":"lake","name":"Wollaston L.","area":9414500352,"sort_rank":200,"min_zoom":0.0,"id":31},"arcs":[[13]]},{"type":"Polygon","properties":{"source":"naturalearthdata.com","kind":"lake","name":"Dubawnt Lake","area":18700115968,"sort_rank":200,"min_zoom":0.0,"id":54},"arcs":[[14]]},{"type":"Polygon","properties":{"source":"naturalearthdata.com","kind":"lake","name":"Lake Clare","area":5063995904,"sort_rank":200,"min_zoom":0.0,"id":155},"arcs":[[15]]},{"type":"Polygon","properties":{"source":"naturalearthdata.com","kind":"lake","name":"Baker Lake","area":10110698496,"sort_rank":200,"min_zoom":0.0,"id":55},"arcs":[[16]]},{"type":"Polygon","properties":{"source":"naturalearthdata.com","kind":"lake","name":"Southern Indian Lake","area":8454916096,"sort_rank":200,"min_zoom":0.0,"id":154},"arcs":[[17]]},{"type":"Polygon","properties":{"source":"naturalearthdata.com","kind":"lake","name":"Aylmer L.","area":6071506944,"sort_rank":200,"min_zoom":0.0,"id":314},"arcs":[[18]]},{"type":"Polygon","properties":{"source":"naturalearthdata.com","kind":"lake","name":"Split Lake","area":1335442048,"sort_rank":200,"min_zoom":0.0,"id":267},"arcs":[[19]]},{"type":"Polygon","properties":{"source":"naturalearthdata.com","kind":"lake","name":"Churchill L.","area":8114267136,"sort_rank":200,"min_zoom":0.0,"id":59},"arcs":[[20]]},{"type":"Polygon","properties":{"source":"naturalearthdata.com","kind":"lake","name":"Lake Athabasca","area":31390412800,"sort_rank":200,"min_zoom":0.0,"id":34},"arcs":[[21]]},{"type":"Polygon","properties":{"source":"naturalearthdata.com","kind":"lake","name":"L. \u00cele-\u00e1-la-Crosse","area":1979340160,"sort_rank":200,"min_zoom":0.0,"id":318},"arcs":[[22]]},{"type":"MultiPolygon","properties":{"sort_rank":200,"source":"naturalearthdata.com","min_zoom":0.0,"kind":"lake","area":28436353128},"arcs":[[[23]],[[24]],[[25]],[[26]],[[27]],[[28]],[[29]],[[30]],[[31]],[[32]]]},{"type":"Polygon","properties":{"source":"naturalearthdata.com","kind":"lake","name":"Tehek L.","area":3144728320,"sort_rank":200,"min_zoom":0.0,"id":320},"arcs":[[33]]},{"type":"Polygon","properties":{"source":"naturalearthdata.com","kind":"lake","name":"Point Lake","area":6615365120,"sort_rank":200,"min_zoom":0.0,"id":330},"arcs":[[34]]},{"type":"Polygon","properties":{"source":"naturalearthdata.com","kind":"lake","name":"Reindeer Lake","area":24244035584,"sort_rank":200,"min_zoom":0.0,"id":43},"arcs":[[35]]},{"type":"Polygon","properties":{"source":"naturalearthdata.com","kind":"lake","name":"Yathkyed Lake","area":6881251840,"sort_rank":200,"min_zoom":0.0,"id":279},"arcs":[[36]]},{"type":"MultiPolygon","properties":{"source":"naturalearthdata.com","kind":"ocean","area":1444195503964160,"sort_rank":200,"min_zoom":0.0,"id":1},"arcs":[[[37],[38]],[[39]],[[40]]]},{"type":"Polygon","properties":{"source":"naturalearthdata.com","kind":"lake","name":"Cree Lake","area":5608353792,"sort_rank":200,"min_zoom":0.0,"id":84},"arcs":[[41]]},{"type":"Point","properties":{"label_placement":true,"kind":"lake","name":"Lake Athabasca","area":31390412800,"sort_rank":200,"source":"naturalearthdata.com","min_zoom":0.0,"id":34},"coordinates":[442,1253]},{"type":"Point","properties":{"label_placement":true,"kind":"lake","name":"Reindeer Lake","area":24244035584,"sort_rank":200,"source":"naturalearthdata.com","min_zoom":0.0,"id":43},"coordinates":[1846,543]},{"type":"Point","properties":{"label_placement":true,"kind":"lake","name":"Dubawnt Lake","area":18700115968,"sort_rank":200,"source":"naturalearthdata.com","min_zoom":0.0,"id":54},"coordinates":[1978,2798]},{"type":"Point","properties":{"label_placement":true,"kind":"lake","name":"Baker Lake","area":10110698496,"sort_rank":200,"source":"naturalearthdata.com","min_zoom":0.0,"id":55},"coordinates":[3114,3204]},{"type":"Point","properties":{"label_placement":true,"kind":"lake","name":"Wollaston L.","area":9414500352,"sort_rank":200,"source":"naturalearthdata.com","min_zoom":0.0,"id":31},"coordinates":[1654,896]},{"type":"Point","properties":{"label_placement":true,"kind":"lake","name":"Southern Indian Lake","area":8454916096,"sort_rank":200,"source":"naturalearthdata.com","min_zoom":0.0,"id":154},"coordinates":[2559,527]},{"type":"Point","properties":{"label_placement":true,"kind":"lake","name":"Churchill L.","area":8114267136,"sort_rank":200,"source":"naturalearthdata.com","min_zoom":0.0,"id":59},"coordinates":[775,151]},{"type":"Point","properties":{"label_placement":true,"kind":"lake","name":"Yathkyed Lake","area":6881251840,"sort_rank":200,"source":"naturalearthdata.com","min_zoom":0.0,"id":279},"coordinates":[2642,2641]},{"type":"Point","properties":{"label_placement":true,"kind":"lake","name":"Aylmer L.","area":6071506944,"sort_rank":200,"source":"naturalearthdata.com","min_zoom":0.0,"id":314},"coordinates":[730,3206]},{"type":"Point","properties":{"label_placement":true,"kind":"lake","name":"Kasba L.","area":5670968320,"sort_rank":200,"source":"naturalearthdata.com","min_zoom":0.0,"id":86},"coordinates":[1865,1718]},{"type":"Point","properties":{"label_placement":true,"kind":"lake","name":"Cree Lake","area":5608353792,"sort_rank":200,"source":"naturalearthdata.com","min_zoom":0.0,"id":84},"coordinates":[1093,646]},{"type":"Point","properties":{"label_placement":true,"kind":"lake","name":"Wholdaia L.","area":5504797184,"sort_rank":200,"source":"naturalearthdata.com","min_zoom":0.0,"id":319},"coordinates":[1502,1874]},{"type":"Point","properties":{"label_placement":true,"kind":"lake","name":"Lake Clare","area":5063995904,"sort_rank":200,"source":"naturalearthdata.com","min_zoom":0.0,"id":155},"coordinates":[86,1065]},{"type":"Point","properties":{"label_placement":true,"kind":"lake","name":"Clinton-Colden L.","area":4630106112,"sort_rank":200,"source":"naturalearthdata.com","min_zoom":0.0,"id":315},"coordinates":[923,3117]},{"type":"Point","properties":{"label_placement":true,"kind":"lake","name":"Tehek L.","area":3144728320,"sort_rank":200,"source":"naturalearthdata.com","min_zoom":0.0,"id":320},"coordinates":[3074,3482]},{"type":"Point","properties":{"label_placement":true,"kind":"lake","name":"Scott L.","area":2864422656,"sort_rank":200,"source":"naturalearthdata.com","min_zoom":0.0,"id":116},"coordinates":[1164,1616]},{"type":"Point","properties":{"label_placement":true,"kind":"lake","name":"Black Lake","area":1992128128,"sort_rank":200,"source":"naturalearthdata.com","min_zoom":0.0,"id":275},"coordinates":[1265,1273]},{"type":"Point","properties":{"label_placement":true,"kind":"lake","name":"Split Lake","area":1335442048,"sort_rank":200,"source":"naturalearthdata.com","min_zoom":0.0,"id":267},"coordinates":[2973,159]},{"type":"MultiLineString","properties":{"source":"naturalearthdata.com","kind":"lake","sort_rank":367,"boundary":true,"min_zoom":0.0,"id":14},"arcs":[[42],[43],[44],[45]]},{"type":"LineString","properties":{"source":"naturalearthdata.com","kind":"lake","sort_rank":367,"boundary":true,"min_zoom":0.0,"id":31},"arcs":[46]},{"type":"LineString","properties":{"source":"naturalearthdata.com","kind":"lake","sort_rank":367,"boundary":true,"min_zoom":0.0,"id":34},"arcs":[47]},{"type":"LineString","properties":{"source":"naturalearthdata.com","kind":"lake","sort_rank":367,"boundary":true,"min_zoom":0.0,"id":43},"arcs":[48]},{"type":"LineString","properties":{"source":"naturalearthdata.com","kind":"lake","sort_rank":367,"boundary":true,"min_zoom":0.0,"id":54},"arcs":[49]},{"type":"LineString","properties":{"source":"naturalearthdata.com","kind":"lake","sort_rank":367,"boundary":true,"min_zoom":0.0,"id":55},"arcs":[50]},{"type":"MultiLineString","properties":{"source":"naturalearthdata.com","kind":"lake","sort_rank":367,"boundary":true,"min_zoom":0.0,"id":59},"arcs":[[51],[52]]},{"type":"LineString","properties":{"source":"naturalearthdata.com","kind":"lake","sort_rank":367,"boundary":true,"min_zoom":0.0,"id":84},"arcs":[53]},{"type":"LineString","properties":{"source":"naturalearthdata.com","kind":"lake","sort_rank":367,"boundary":true,"min_zoom":0.0,"id":85},"arcs":[54]},{"type":"LineString","properties":{"source":"naturalearthdata.com","kind":"lake","sort_rank":367,"boundary":true,"min_zoom":0.0,"id":86},"arcs":[55]},{"type":"LineString","properties":{"source":"naturalearthdata.com","kind":"lake","sort_rank":367,"boundary":true,"min_zoom":0.0,"id":116},"arcs":[56]},{"type":"LineString","properties":{"source":"naturalearthdata.com","kind":"lake","sort_rank":367,"boundary":true,"min_zoom":0.0,"id":154},"arcs":[57]},{"type":"LineString","properties":{"source":"naturalearthdata.com","kind":"lake","sort_rank":367,"boundary":true,"min_zoom":0.0,"id":155},"arcs":[58]},{"type":"LineString","properties":{"source":"naturalearthdata.com","kind":"lake","sort_rank":367,"boundary":true,"min_zoom":0.0,"id":267},"arcs":[59]},{"type":"LineString","properties":{"source":"naturalearthdata.com","kind":"lake","sort_rank":367,"boundary":true,"min_zoom":0.0,"id":275},"arcs":[60]},{"type":"LineString","properties":{"source":"naturalearthdata.com","kind":"lake","sort_rank":367,"boundary":true,"min_zoom":0.0,"id":279},"arcs":[61]},{"type":"LineString","properties":{"source":"naturalearthdata.com","kind":"lake","sort_rank":367,"boundary":true,"min_zoom":0.0,"id":314},"arcs":[62]},{"type":"LineString","properties":{"source":"naturalearthdata.com","kind":"lake","sort_rank":367,"boundary":true,"min_zoom":0.0,"id":315},"arcs":[63]},{"type":"LineString","properties":{"source":"naturalearthdata.com","kind":"lake","sort_rank":367,"boundary":true,"min_zoom":0.0,"id":318},"arcs":[64]},{"type":"LineString","properties":{"source":"naturalearthdata.com","kind":"lake","sort_rank":367,"boundary":true,"min_zoom":0.0,"id":319},"arcs":[65]},{"type":"LineString","properties":{"source":"naturalearthdata.com","kind":"lake","sort_rank":367,"boundary":true,"min_zoom":0.0,"id":320},"arcs":[66]},{"type":"LineString","properties":{"source":"naturalearthdata.com","kind":"lake","sort_rank":367,"boundary":true,"min_zoom":0.0,"id":330},"arcs":[67]},{"type":"LineString","properties":{"source":"naturalearthdata.com","kind":"lake","sort_rank":367,"boundary":true,"min_zoom":0.0,"id":377},"arcs":[68]},{"type":"LineString","properties":{"source":"naturalearthdata.com","kind":"lake","sort_rank":367,"boundary":true,"min_zoom":0.0,"id":378},"arcs":[69]},{"type":"LineString","properties":{"source":"naturalearthdata.com","kind":"lake","sort_rank":367,"boundary":true,"min_zoom":0.0,"id":379},"arcs":[70]},{"type":"LineString","properties":{"source":"naturalearthdata.com","kind":"lake","sort_rank":367,"boundary":true,"min_zoom":0.0,"id":380},"arcs":[71]},{"type":"LineString","properties":{"source":"naturalearthdata.com","kind":"lake","sort_rank":367,"boundary":true,"min_zoom":0.0,"id":389},"arcs":[72]},{"type":"LineString","properties":{"source":"naturalearthdata.com","kind":"lake","sort_rank":367,"boundary":true,"min_zoom":0.0,"id":391},"arcs":[73]},{"type":"LineString","properties":{"source":"naturalearthdata.com","kind":"lake","sort_rank":367,"boundary":true,"min_zoom":0.0,"id":393},"arcs":[74]},{"type":"LineString","properties":{"source":"naturalearthdata.com","kind":"lake","sort_rank":367,"boundary":true,"min_zoom":0.0,"id":394},"arcs":[75]},{"type":"LineString","properties":{"source":"naturalearthdata.com","kind":"lake","sort_rank":367,"boundary":true,"min_zoom":0.0,"id":395},"arcs":[76]},{"type":"MultiLineString","properties":{"source":"naturalearthdata.com","kind":"ocean","sort_rank":205,"boundary":true,"min_zoom":0.0,"id":1201},"arcs":[[77],[78],[79],[80]]},{"type":"LineString","properties":{"source":"naturalearthdata.com","kind":"ocean","sort_rank":205,"boundary":true,"min_zoom":0.0,"id":1276},"arcs":[81]}]},"buildings":{"type":"GeometryCollection","geometries":[]},"places":{"type":"GeometryCollection","geometries":[{"type":"Point","properties":{"name:pt":"Canad\u00e1","name:ps":"\u06a9\u0627\u0646\u0627\u0689\u0627","name:ka":"\u10d9\u10d0\u10dc\u10d0\u10d3\u10d0","name:tr":"Kanada","name:kn":"\u0c95\u0cc6\u0ca8\u0ca1\u0cbe","name:km":"\u1780\u17b6\u178e\u17b6\u178a\u17b6","name:cs":"Kanada","name:ki":"Kanada","name:ku":"Kanada","name:ti":"\u12ab\u1293\u12f3","name:ks":"\u06a9\u06cc\u0646\u064e\u0691\u0627","name:to":"K\u0101nata","name:tl":"Kanada","name:sv":"Kanada","name:or":"\u0b15\u0b3e\u0b28\u0b3e\u0b21\u0b3e","name:pl":"Kanada","name:ta":"\u0b95\u0ba9\u0b9f\u0bbe","name:tg":"\u041a\u0430\u043d\u0430\u0434\u0430","name:ca":"Canad\u00e0","name:te":"\u0c15\u0c46\u0c28\u0c21\u0c3e","name:hr":"Kanada","name:de":"Kanada","name:dz":"\u0f40\u0f7a\u0f0b\u0f53\u0f0b\u0f4c","source":"openstreetmap.org","name:iu":"\u1472\u14c7\u1455 \/ kanata","name:lv":"Kan\u0101da","name:lt":"Kanada","name:hi":"\u0915\u0928\u093e\u0921\u093e","name:kk":"\u041a\u0430\u043d\u0430\u0434\u0430","name:he":"\u05e7\u05e0\u05d3\u05d4","kind":"country","name:ur":"\u06a9\u06cc\u0646\u06cc\u0688\u0627","name:lb":"Kanada","name:lg":"Kanada","name:uk":"\u041a\u0430\u043d\u0430\u0434\u0430","name:hy":"\u053f\u0561\u0576\u0561\u0564\u0561","min_zoom":2.0,"name:hu":"Kanada","name:ln":"Kanada","name:lo":"\u0ec1\u0e84\u0e99\u0e99\u0eb2\u0e94\u0eb2","population":35056064,"name:el":"\u039a\u03b1\u03bd\u03b1\u03b4\u03ac\u03c2","name:eo":"Kanado","name":"Canada","name:ee":"Kanada nutome","name:th":"\u0e1b\u0e23\u0e30\u0e40\u0e17\u0e28\u0e41\u0e04\u0e19\u0e32\u0e14\u0e32","name:gu":"\u0a95\u0ac7\u0aa8\u0ac7\u0aa1\u0abe","name:eu":"Kanada","name:et":"Kanada","name:es":"Canad\u00e1","name:mt":"Kanada","name:rn":"Kanada","name:az":"Kanada","name:id":"Kanada","name:ms":"Kanada","name:mr":"\u0915\u0945\u0928\u0921\u093e","name:ar":"\u0643\u0646\u062f\u0627","name:my":"\u1000\u1014\u1031\u1012\u102b","name:io":"Kanada","name:is":"Kanada","name:am":"\u12ab\u1293\u12f3","name:ml":"\u0d15\u0d3e\u0d28\u0d21","name:ru":"\u041a\u0430\u043d\u0430\u0434\u0430","name:mn":"\u041a\u0430\u043d\u0430\u0434","name:mi":"K\u0101nata","id":424313760,"name:mk":"\u041a\u0430\u043d\u0430\u0434\u0430","name:af":"Kanada","name:zu":"i-Canada","name:ha":"Kanada","name:ff":"Kanadaa","name:fi":"Kanada","old_name:vi":"Gia N\u00e3 \u0110\u1ea1i","name:mg":"Kanada","name:fo":"Kanada","alt_name:vi":"Ca-na-\u0111a","name:ba":"\u041a\u0430\u043d\u0430\u0434\u0430","name:fy":"Kanada","name:vo":"Kanad\u00e4n","name:zh":"\u52a0\u62ff\u5927","name:gv":"Yn Chanadey","name:so":"Kanada","name:sn":"Kanada","name:sl":"Kanada","name:sk":"Kanada","name:ja":"\u30ab\u30ca\u30c0","name:si":"\u0d9a\u0dd0\u0db1\u0da9\u0dcf\u0dc0","name:fa":"\u06a9\u0627\u0646\u0627\u062f\u0627","name:sg":"Kanad\u00e4a","name:se":"Kan\u00e1da","name:ne":"\u0915\u094d\u092f\u093e\u0928\u093e\u0921\u093e","name:br":"Kanada","name:bs":"Kanada","name:bm":"Kanada","name:bn":"\u0995\u09be\u09a8\u09be\u09a1\u09be","name:bo":"\u0f41\u0f7a\u0f0b\u0f53\u0f0b\u0f4c\u0f0d","name:sw":"Kanada","name:be":"\u041a\u0430\u043d\u0430\u0434\u0430","name:bg":"\u041a\u0430\u043d\u0430\u0434\u0430","name:sr":"\u041a\u0430\u043d\u0430\u0434\u0430","name:sq":"Kanada","name:ko":"\uce90\ub098\ub2e4","name:ga":"Ceanada","name:gl":"Canad\u00e1","name:yo":"Or\u00edl\u1eb9\u0301\u00e8de K\u00e1n\u00e1d\u00e0","name:ak":"Kanada","name:tt":"\u041a\u0430\u043d\u0430\u0434\u0430"},"coordinates":[821,2018]}]},"transit":{"type":"GeometryCollection","geometries":[]},"pois":{"type":"GeometryCollection","geometries":[]},"boundaries":{"type":"GeometryCollection","geometries":[{"type":"LineString","properties":{"source":"naturalearthdata.com","kind":"region","sort_rank":256,"kind_detail":"4","min_zoom":2.0,"id":98},"arcs":[0]},{"type":"LineString","properties":{"source":"naturalearthdata.com","kind":"region","sort_rank":256,"kind_detail":"4","min_zoom":2.0,"id":99},"arcs":[1]},{"type":"LineString","properties":{"source":"naturalearthdata.com","kind":"region","sort_rank":256,"kind_detail":"4","min_zoom":2.0,"id":100},"arcs":[2]},{"type":"LineString","properties":{"source":"naturalearthdata.com","kind":"region","sort_rank":256,"kind_detail":"4","min_zoom":2.0,"id":101},"arcs":[3]},{"type":"LineString","properties":{"source":"naturalearthdata.com","kind":"region","sort_rank":256,"kind_detail":"4","min_zoom":2.0,"id":102},"arcs":[4]},{"type":"LineString","properties":{"source":"naturalearthdata.com","kind":"region","sort_rank":256,"kind_detail":"4","min_zoom":2.0,"id":103},"arcs":[5]},{"type":"LineString","properties":{"source":"naturalearthdata.com","kind":"region","sort_rank":256,"kind_detail":"4","min_zoom":2.0,"id":104},"arcs":[6]}]},"roads":{"type":"GeometryCollection","geometries":[]},"earth":{"type":"GeometryCollection","geometries":[{"type":"MultiPolygon","properties":{"sort_rank":10,"source":"naturalearthdata.com","min_zoom":0.0,"kind":"earth","area":22100076510577},"arcs":[[[82]],[[83]]]}]},"landuse":{"type":"GeometryCollection","geometries":[{"type":"Polygon","properties":{"kind":"park","name":"Baralzon Lake Ecological Reserve","area":1489340032,"sort_rank":24,"source":"openstreetmap.org","min_zoom":4.0,"tier":2,"id":62874100},"arcs":[[84]]},{"type":"Polygon","properties":{"kind":"nature_reserve","name":"Marguerite River Wildland Provincial Park","area":6157879808,"sort_rank":23,"source":"openstreetmap.org","min_zoom":4.0,"tier":2,"id":-6408655,"osm_relation":true},"arcs":[[85]]},{"type":"Polygon","properties":{"kind":"nature_reserve","name":"Colvin Lake Provincial Park","area":6380290048,"sort_rank":23,"operator":"Manitoba Conservation","source":"openstreetmap.org","min_zoom":4.0,"tier":2,"id":150287097},"arcs":[[86]]},{"type":"Polygon","properties":{"kind":"park","name":"Caribou River Provincial Park","area":29682300928,"sort_rank":24,"operator":"Manitoba Conservation","source":"openstreetmap.org","min_zoom":4.0,"tier":2,"id":150287095},"arcs":[[87]]},{"type":"Polygon","properties":{"kind":"park","name":"Amisk Park Reserve","area":6575159808,"sort_rank":24,"operator":"Manitoba Conservation","source":"openstreetmap.org","min_zoom":4.0,"tier":2,"id":150287073},"arcs":[[88]]},{"type":"Polygon","properties":{"kind":"park","name":"McConnell River Migratory Bird Sanctuary","area":1482840064,"sort_rank":24,"source":"openstreetmap.org","min_zoom":4.0,"tier":2,"id":62873273},"arcs":[[89]]},{"type":"Polygon","properties":{"kind":"park","name":"Richardson River Dunes Wildland Provincial Park","area":1136050048,"sort_rank":24,"source":"openstreetmap.org","min_zoom":4.0,"tier":2,"id":62312391},"arcs":[[90]]},{"type":"Polygon","properties":{"kind":"nature_reserve","name":"Birch Mountains Wildland Provincial Park","area":4996669952,"sort_rank":23,"source":"openstreetmap.org","min_zoom":4.0,"tier":2,"id":-7086885,"osm_relation":true},"arcs":[[91]]},{"type":"Polygon","properties":{"source":"openstreetmap.org","kind":"nature_reserve","area":9514240000,"tier":2,"id":425912814,"min_zoom":4.0,"sort_rank":23},"arcs":[[92]]},{"type":"Polygon","properties":{"kind":"nature_reserve","name":"Lake Nueltin Provincial Park","area":17489999872,"sort_rank":23,"operator":"Manitoba Conservation","source":"openstreetmap.org","min_zoom":4.0,"tier":2,"id":-2045492,"osm_relation":true},"arcs":[[93],[94],[95]]},{"type":"Polygon","properties":{"kind":"park","name":"Athabasca Sand Dunes Provincial Park","area":7169200128,"sort_rank":24,"source":"openstreetmap.org","min_zoom":4.0,"tier":2,"id":425917235},"arcs":[[96]]},{"type":"Polygon","properties":{"kind":"park","name":"Wapusk National Park of Canada","area":40295100416,"sort_rank":24,"source":"openstreetmap.org","min_zoom":4.0,"tier":2,"id":62885108},"arcs":[[97]]},{"type":"Polygon","properties":{"kind":"park","name":"Wood Buffalo National Park","area":174596997120,"sort_rank":24,"source":"openstreetmap.org","min_zoom":4.0,"tier":2,"id":-7087464,"osm_relation":true},"arcs":[[98]]},{"type":"Polygon","properties":{"kind":"park","name":"Sand Lakes Provincial Park","area":29253599232,"sort_rank":24,"operator":"Manitoba Conservation","source":"openstreetmap.org","min_zoom":4.0,"tier":2,"id":150289216},"arcs":[[99]]},{"type":"Polygon","properties":{"kind":"nature_reserve","name":"Colin-Cornwall Lakes Wildland Provincial Park","area":2735899904,"sort_rank":23,"source":"openstreetmap.org","min_zoom":4.0,"tier":2,"id":257862131},"arcs":[[100]]},{"type":"Polygon","properties":{"kind":"park","name":"Numaykoos Lake Provincial Park","area":12698099712,"sort_rank":24,"operator":"Manitoba Conservation","source":"openstreetmap.org","min_zoom":4.0,"tier":2,"id":150289179},"arcs":[[101]]}]}},"type":"Topology","transform":{"translate":[-112.5,55.7765730187],"scale":[0.0054931641,0.0026212616]},"arcs":[[[1911,1612],[0,91],[0,92],[0,92],[0,92],[0,91],[0,92],[0,92],[0,92],[0,91],[0,92],[0,92],[0,92],[0,91],[0,92],[-1,92],[0,92],[4,88],[-2,56],[-80,13],[-79,14],[-79,13],[-80,13],[-79,13],[-79,13],[-80,13],[-79,13],[-79,14],[-80,13],[-79,13],[-80,13],[-79,13],[-79,13],[-80,13],[-79,13],[-44,13],[-55,35],[-52,56],[-53,57],[-52,57],[-53,56],[-83,1],[-84,0],[-83,1],[-83,0]],[[1911,1612],[-91,0],[-91,0],[-91,0],[-91,0],[-91,0],[-91,0],[-91,0],[-91,0],[-91,0],[-91,0],[-91,0],[-91,0],[-91,0],[-91,0],[-91,0],[-91,0]],[[0,1612],[114,0],[114,0],[113,0],[114,0]],[[455,1612],[0,-132],[0,-131],[0,-131],[0,-131],[0,-131],[0,-132],[0,-131],[0,-131],[0,-131],[0,-132],[0,-131],[0,-131],[0,-37]],[[4096,163],[-60,-81],[-61,-82]],[[1911,1612],[82,0],[82,0],[82,0],[82,0],[82,0],[82,0],[82,0],[81,0],[82,0],[82,0],[82,0],[82,0],[82,0],[82,0],[82,0],[87,0]],[[1911,1612],[0,-100],[0,-100],[0,-100],[0,-99],[0,-100],[0,-100],[0,-100],[0,-99],[0,-100],[0,-100],[0,-100],[0,-99],[0,-100],[0,-100],[0,-100],[0,-99],[1,-16]],[[1577,1822],[-13,-18],[-5,-11],[-2,-21],[-31,-25],[-13,-6],[7,32],[3,42],[-17,20],[-19,18],[-12,19],[-13,7],[-5,9],[19,32],[9,23],[-7,12],[-8,-6],[-3,-13],[-11,-13],[-16,-1],[-9,8],[-1,8],[21,1],[4,9],[10,34],[1,11],[5,8],[15,2],[7,-8],[3,-9],[13,-17],[0,-13],[-3,-22],[2,-12],[14,4],[0,-8],[-15,-18],[1,-7],[17,5],[9,11],[10,5],[7,-3],[24,14],[14,17],[3,16],[2,14],[5,2],[13,-19],[-4,-25],[-27,-19],[-28,-30],[-21,-5],[-9,-10],[2,-17],[15,-8],[19,4],[10,11],[4,14],[9,12],[12,-3],[1,-23],[-18,-34]],[[1191,1610],[-11,-1],[-10,-13],[-2,-26],[5,-18],[-9,-13],[-11,-1],[-5,11],[-2,9],[-6,1],[-4,-14],[-3,-5],[-11,-3],[-7,10],[9,39],[-1,34],[-12,8],[-2,7],[6,10],[12,5],[6,-6],[2,-10],[7,-9],[6,-6],[2,6],[5,23],[6,18],[19,19],[26,13],[9,-5],[5,-4],[17,-8],[-12,-20],[-26,-5],[-21,-2],[-7,-11],[4,-13],[19,4],[11,-8],[1,-12],[-15,-4]],[[1294,1278],[-29,-11],[-20,-16],[-13,-29],[-10,-22],[-9,-1],[-6,8],[3,14],[9,21],[46,45],[61,56],[18,-4],[19,-9],[12,-10],[-5,-14],[-7,-10],[-37,-11],[-16,-3],[-16,-4]],[[829,3173],[20,-2],[15,-7],[14,4],[16,12],[23,6],[26,1],[15,-12],[1,-12],[-1,-12],[0,-5],[-6,-15],[9,-22],[21,-1],[3,-4],[-3,-7],[-17,-27],[-14,-18],[-41,5],[-5,3],[-5,14],[-14,16],[3,23],[-1,13],[-8,6],[-22,-2],[-3,-10],[-6,11],[-17,20],[-3,22]],[[633,2682],[19,-7],[-2,-8],[-4,-6],[-8,-5],[2,-10],[-4,-9],[-45,-35],[-7,2],[5,21],[-7,23],[-17,8],[-54,15],[-10,8],[-36,6],[-62,5],[-33,0],[-6,-3],[-19,5],[-10,-2],[-8,-7],[-10,-18],[-38,-13],[-55,-26],[-5,-10],[4,-7],[80,19],[55,-2],[4,4],[18,6],[100,-5],[17,-2],[6,-7],[-18,-16],[-22,-12],[-26,-7],[-16,-2],[-14,7],[-12,-1],[-23,-10],[-18,-2],[-38,3],[-3,-3],[18,-8],[6,-13],[-6,-24],[-4,-9],[-8,-3],[-37,6],[-20,-9],[-7,-9],[-25,-21],[-11,-8],[-1,-8],[-1,-10],[-15,-15],[-36,-24],[0,-12],[-8,-11],[-1,-4],[23,2],[2,-6],[-22,-38],[-40,-35],[-45,-46],[-21,-35],[-1,-8],[-22,-18],[-31,-22],[0,30],[8,3],[23,17],[15,40],[20,31],[38,30],[26,33],[7,30],[15,16],[-7,3],[-23,-7],[-28,-31],[-16,-22],[-43,-22],[-35,-14],[0,77],[36,21],[40,36],[22,23],[33,30],[15,19],[10,29],[9,18],[8,5],[7,15],[6,25],[15,24],[25,22],[32,21],[75,35],[27,7],[85,2],[13,-3],[17,-7],[34,-5],[12,-6],[53,-11],[30,-8],[25,-7],[4,-8]],[[1812,1734],[11,-3],[19,20],[12,22],[-9,7],[-13,22],[0,32],[15,19],[17,6],[8,-13],[7,-21],[4,-18],[9,-22],[20,-31],[20,-52],[7,-48],[-5,-29],[-2,-20],[-17,10],[-1,-17],[-7,-14],[-11,34],[-35,74],[-19,15],[-17,-6],[-20,4],[-3,24],[10,5]],[[1759,974],[-4,-5],[-9,2],[-7,-6],[-6,-12],[-4,-12],[3,-9],[9,-8],[-1,-10],[-21,-18],[-8,3],[-24,-20],[-5,-10],[-4,-27],[0,-33],[2,-11],[5,-7],[5,-2],[1,-6],[-11,-35],[-11,-15],[-5,-1],[2,13],[8,19],[-2,19],[-8,12],[-7,3],[-13,3],[-16,-3],[-31,-27],[-12,-8],[-7,1],[0,6],[7,11],[25,36],[-3,8],[-19,-3],[-5,6],[2,6],[18,22],[4,6],[0,7],[-2,9],[-5,9],[1,10],[9,17],[7,23],[1,13],[-1,6],[-8,0],[6,25],[3,23],[6,9],[5,9],[10,3],[20,-12],[27,15],[3,5],[0,15],[3,8],[4,3],[8,-7],[34,-1],[1,-11],[5,-10],[21,-25],[2,-11],[-8,-20]],[[1923,2840],[24,18],[10,26],[11,13],[10,2],[4,2],[5,6],[0,12],[7,11],[16,-5],[11,-10],[6,-8],[8,-1],[5,8],[-7,20],[10,9],[26,-23],[10,3],[3,8],[10,1],[19,26],[9,-4],[10,8],[17,2],[11,-30],[-5,-36],[-18,-21],[-9,-8],[-8,-1],[-9,2],[-12,1],[-11,-4],[-3,-9],[-1,-10],[-9,-27],[2,-26],[7,-16],[10,-3],[23,-18],[0,-19],[-18,-17],[-9,-6],[-5,-14],[6,-22],[-1,-15],[-20,-19],[-27,-18],[-17,7],[-2,14],[7,17],[6,24],[-2,24],[-9,14],[-6,-6],[-4,-26],[-7,-20],[-4,-20],[-3,-24],[-3,-4],[-4,7],[0,15],[-7,20],[-15,8],[-15,2],[-12,30],[-17,-1],[-14,3],[-8,15],[-2,30],[-8,24],[-1,4],[-6,5],[-8,12],[2,17],[15,11],[26,10]],[[124,1062],[2,-16],[-4,-13],[-2,-9],[0,-14],[2,-12],[7,-23],[-3,-11],[-16,1],[-34,16],[-19,25],[-9,18],[5,14],[0,20],[-8,10],[-11,-5],[-15,6],[-9,15],[3,25],[17,36],[33,18],[21,-2],[0,-13],[-14,-3],[-1,-16],[25,-9],[15,5],[10,-2],[8,-9],[7,-5],[6,1],[3,-10],[-19,-38]],[[3254,3198],[13,-4],[18,-4],[20,-1],[18,-5],[4,-18],[-16,-24],[-26,-6],[-31,13],[-43,13],[-80,5],[-37,-8],[-30,0],[-21,0],[-10,10],[-19,17],[-52,25],[-8,41],[13,9],[83,-9],[90,-10],[39,-14],[22,-5],[22,-3],[26,-8],[5,-14]],[[2586,655],[17,-34],[19,-5],[13,3],[6,-5],[-6,-9],[-15,-17],[-15,-39],[-6,-30],[-5,-10],[-26,-6],[-31,-13],[-22,-31],[-17,-35],[-14,-18],[-15,0],[-12,8],[-12,-6],[-27,-42],[-23,-1],[-23,0],[-15,-9],[2,-10],[-1,-11],[-4,-5],[-13,15],[-8,19],[4,9],[21,8],[25,49],[6,21],[9,11],[18,-14],[13,2],[6,19],[10,16],[10,14],[1,-13],[-5,-29],[5,-18],[19,-1],[6,8],[-2,22],[5,22],[15,4],[14,17],[6,25],[2,14],[-3,17],[7,5],[16,0],[6,9],[-2,19],[-3,41],[-10,27],[-1,22],[7,10],[3,-6],[0,-11],[3,-9],[10,2],[13,15],[19,19],[16,6],[0,-11],[-3,-17],[-9,-19],[-4,-14]],[[832,3151],[-28,3],[-14,-2],[-17,-6],[-22,-15],[-15,-15],[-37,17],[-16,18],[-20,11],[-47,4],[-51,-21],[-32,-1],[-12,13],[50,5],[38,15],[23,0],[72,25],[6,9],[0,13],[-4,19],[4,21],[11,21],[13,10],[6,-6],[-1,-32],[4,-18],[11,4],[13,15],[7,0],[-2,-15],[-14,-26],[-4,-11],[4,-9],[13,-6],[1,7],[13,7],[16,-16],[28,-16],[3,-22]],[[2995,137],[-6,-7],[-1,-7],[3,-5],[-3,-3],[-16,3],[-13,2],[-20,1],[-17,-3],[-19,-9],[-3,9],[12,25],[24,5],[17,5],[13,16],[28,20],[27,12],[11,-5],[-4,-10],[-12,-7],[-19,-9],[-12,-7],[5,-8],[6,-10],[-1,-8]],[[717,280],[-13,-9],[-11,1],[-4,12],[-1,34],[-3,22],[-9,9],[-13,7],[-2,14],[6,14],[13,11],[11,-8],[13,-29],[11,-7],[8,3],[6,-5],[13,-24],[2,-63],[16,-9],[19,-2],[16,-3],[11,-17],[-7,-28],[-14,-14],[0,-7],[2,-8],[0,-34],[10,-31],[-2,-9],[-8,-9],[-8,-19],[-5,-19],[-9,-22],[-30,-31],[-43,0],[-3,25],[-8,23],[-29,12],[-21,-1],[-12,19],[-11,33],[4,15],[9,6],[39,-16],[37,-39],[10,-35],[3,-15],[15,12],[9,22],[0,37],[6,27],[15,20],[15,13],[0,20],[-8,18],[-6,-3],[-5,1],[-21,17],[-9,14],[1,24],[1,19],[-6,12]],[[595,1278],[-9,0],[-31,-16],[-79,-30],[-34,-22],[-37,-34],[-11,-13],[-12,-22],[-7,-20],[1,-6],[12,-9],[-1,-12],[-7,-5],[-47,0],[-14,-7],[-5,-11],[-2,-15],[-5,-12],[-5,-1],[-6,45],[-5,1],[-8,-4],[-8,-10],[-8,-27],[-8,-7],[-3,8],[-2,8],[-1,9],[2,17],[-30,33],[-6,11],[-1,9],[4,13],[16,0],[8,-5],[-2,-14],[6,-1],[20,11],[26,28],[48,77],[23,27],[24,17],[58,54],[29,23],[7,12],[11,9],[-4,8],[-1,4],[18,23],[15,15],[14,10],[27,11],[25,1],[16,-5],[25,-34],[37,4],[6,-2],[-12,-37],[1,-8],[20,0],[38,19],[58,14],[49,-15],[72,-14],[58,-18],[77,-9],[37,-2],[107,-12],[1,-7],[-4,-7],[-122,4],[-90,8],[-45,8],[-25,-5],[-3,3],[-4,12],[-15,3],[-4,-1],[-5,-6],[-5,-12],[-6,-23],[-3,-5],[-22,-5],[-46,-16],[-98,-15],[-35,-2],[-30,-7],[-11,2],[-12,9]],[[861,0],[1,10],[0,35],[5,10],[11,-55],[-17,0]],[[990,17],[1,13],[8,13],[12,12],[9,3],[3,-8],[-19,-29],[2,-6],[-6,-4],[-10,6]],[[1577,1081],[7,22],[2,9],[23,4],[7,-9],[4,-7],[-4,-20],[-8,-24],[-19,11],[-9,4],[-3,10]],[[1648,2132],[-4,8],[-2,17],[4,31],[21,19],[20,31],[4,13],[12,-9],[-8,-25],[-20,-26],[-17,-48],[-10,-11]],[[1803,2625],[3,-20],[3,-20],[2,-21],[-4,-18],[-18,-12],[-12,-3],[11,57],[-3,16],[-14,25],[0,14],[14,22],[6,-1],[12,-39]],[[2347,2740],[9,17],[38,65],[9,5],[-1,-12],[-5,-21],[5,-20],[13,-9],[14,-13],[3,-23],[-18,-22],[-27,-21],[-34,-4],[-28,5],[-6,11],[-1,9],[29,33]],[[591,3364],[-5,5],[-11,18],[-4,18],[1,12],[2,9],[10,0],[9,-6],[-3,-5],[-5,-10],[3,-15],[22,-31],[-2,-13],[-12,-4],[-9,0],[7,11],[-3,11]],[[803,3410],[1,8],[7,5],[5,-2],[7,-9],[-2,-4],[-13,-5],[-5,7]],[[785,3384],[-4,-5],[-5,-3],[-44,-26],[-10,2],[7,13],[30,22],[16,11],[11,1],[-1,-15]],[[650,3366],[-11,5],[-12,-7],[-6,-3],[-2,6],[0,20],[7,12],[-2,10],[2,5],[24,-8],[7,-15],[7,-22],[6,-21],[-6,3],[-14,15]],[[92,3389],[1,12],[-29,34],[-32,30],[-3,15],[41,-19],[42,-57],[-8,-16],[-7,-7],[-5,8]],[[3140,3520],[-25,-12],[-14,-19],[0,-24],[2,-17],[-1,-10],[-5,-9],[-11,-1],[-8,8],[-5,9],[-1,7],[-2,8],[-14,10],[-16,19],[-10,-3],[-3,-16],[-2,-8],[-20,15],[-7,12],[5,20],[13,11],[14,3],[24,4],[17,7],[23,1],[46,-3],[0,-12]],[[0,3600],[7,3],[6,0],[25,0],[13,2],[0,-13],[-16,-4],[-7,-20],[10,-35],[9,-27],[-8,-6],[-6,3],[-6,21],[-12,34],[-7,19],[-8,2],[0,21]],[[1962,814],[8,3],[24,1],[2,-16],[-1,-24],[-16,-22],[-19,-43],[-17,-26],[-24,-23],[-16,-13],[-11,-21],[2,-23],[38,-24],[9,-13],[-5,-8],[-17,-4],[-13,-18],[-3,-30],[9,-23],[6,-11],[-14,-23],[-16,-19],[-9,-19],[-24,-10],[-5,-11],[-3,-14],[-8,-29],[-7,-15],[0,-12],[-5,-7],[-15,-8],[-10,-9],[-52,-34],[-7,-13],[-2,-15],[-7,-12],[-13,4],[-7,15],[-9,-2],[-12,-21],[-6,-19],[-1,-12],[-6,0],[-3,10],[3,32],[2,19],[1,15],[-8,7],[1,19],[9,11],[9,-7],[8,25],[4,55],[4,34],[7,-2],[-2,-66],[5,-41],[13,-3],[22,47],[12,10],[11,2],[7,10],[3,12],[10,5],[10,17],[4,38],[-1,26],[-6,18],[-17,15],[-12,6],[4,20],[5,22],[-5,13],[-12,15],[-12,6],[-12,-2],[-2,27],[7,33],[19,20],[17,23],[4,13],[-4,15],[1,19],[9,5],[21,11],[15,26],[43,51],[10,23],[0,18],[18,26],[11,-7],[-4,-33],[8,-15],[10,11],[9,24],[8,4],[3,-17],[-8,-47],[0,-12],[6,-9],[15,12],[2,14]],[[2645,2583],[-4,7],[-11,16],[-14,21],[-14,10],[-4,-7],[-16,-20],[-6,-1],[0,19],[-1,16],[-6,9],[-6,12],[-5,16],[-2,9],[5,0],[4,-5],[10,-1],[17,0],[10,-1],[1,7],[1,9],[9,1],[9,-5],[8,3],[13,6],[19,1],[21,-1],[9,10],[6,22],[9,12],[2,-5],[0,-16],[-3,-13],[-5,-10],[3,-14],[2,-18],[1,-25],[3,-20],[10,-9],[7,-14],[2,-13],[6,-13],[9,-12],[8,-7],[4,0],[1,4],[-1,4],[2,1],[4,-3],[4,-6],[-2,-9],[-11,-11],[-12,-4],[-15,12],[-18,15],[-14,6],[-14,0],[-12,-3],[-6,-5],[-2,-7],[-5,-4],[-9,6],[-10,12],[-5,8],[6,4],[8,4]],[[4096,479],[-14,8],[-49,37],[-45,28],[-55,13],[-39,-6],[-165,-68],[-42,-21],[-20,-14],[-3,1],[14,18],[-1,9],[-28,-3],[-10,-6],[-26,-24],[-13,-10],[-13,-4],[-1,2],[12,10],[11,14],[11,19],[12,27],[13,36],[7,27],[1,17],[-3,25],[-7,32],[-39,117],[-7,26],[-18,88],[-16,57],[-31,101],[-5,29],[-5,49],[-5,12],[-18,12],[-17,-6],[-21,1],[-53,11],[-50,-5],[-13,-9],[-15,-42],[-12,-95],[-11,-30],[0,16],[10,122],[-1,21],[-24,12],[-22,39],[-8,8],[-8,2],[-9,-2],[-7,13],[-6,27],[-5,18],[-13,11],[-20,7],[15,7],[10,24],[5,45],[2,80],[-1,181],[8,59],[13,74],[4,44],[-4,14],[-7,9],[-10,8],[15,15],[20,2],[11,24],[15,48],[22,54],[28,58],[15,44],[4,27],[-1,21],[-5,15],[4,5],[21,-4],[10,14],[0,8],[-9,30],[5,14],[37,47],[52,39],[13,13],[7,10],[0,5],[-21,13],[-12,13],[-6,9],[-10,27],[38,-5],[7,2],[11,10],[-4,8],[-13,13],[3,6],[33,1],[18,10],[10,13],[-2,6],[-8,7],[1,8],[29,25],[-2,12],[-13,15],[-35,25],[-5,5],[10,1],[52,-23],[24,-18],[16,-20],[12,-11],[10,-4],[-3,13],[-15,30],[-14,18],[-12,9],[0,11],[11,15],[21,20],[6,12],[2,17],[9,7],[18,-3],[14,3],[10,8],[11,0],[23,-16],[13,-2],[12,14],[2,6],[-4,20],[-35,8],[-17,7],[-12,11],[-7,8],[-6,15],[-2,11],[5,7],[30,3],[8,4],[8,9],[14,1],[30,-11],[76,-12],[18,6],[43,39],[20,7],[24,2],[17,10],[10,17],[5,18],[1,18],[-3,74],[-7,18],[-41,35],[-24,12],[-41,12],[-29,21],[-36,37],[-28,15],[-21,-9],[-22,-13],[-39,-30],[-32,-3],[1,6],[47,33],[8,14],[-7,6],[-26,10],[-34,10],[-116,54],[-16,9],[-23,9],[-5,-3],[5,-16],[9,-11],[11,-7],[0,-5],[-27,-1],[-26,11],[-19,29],[1,12],[10,12],[1,14],[-18,40],[49,-45],[83,-35],[77,-41],[38,-16],[26,-4],[19,3],[10,11],[10,3],[10,-3],[2,-5],[-7,-5],[0,-6],[5,-5],[46,-6],[25,-6],[78,-42],[30,-11],[24,-3],[19,6],[13,11],[7,14],[12,2],[16,-12],[14,-4],[22,7],[17,18],[26,44],[-1,9],[-8,18],[-20,39],[5,1],[26,-9],[0,-2642]],[[3551,2332],[-15,17],[-22,-6],[4,-10],[16,-19],[8,1],[8,9],[1,8]],[[4096,3822],[-9,4],[-20,3],[-80,27],[-70,13],[-15,-7],[-1,-5],[5,-22],[-44,25],[-26,20],[3,5],[19,2],[54,0],[34,-4],[31,-10],[26,-3],[35,2],[37,-17],[20,0],[1,0],[0,-33]],[[927,4096],[24,-34],[3,-10],[-6,1],[-15,13],[-19,22],[-6,8],[19,0]],[[1136,732],[14,-5],[13,-11],[-1,-22],[2,-14],[3,-9],[-1,-11],[0,-16],[-8,-19],[-10,-6],[-11,-10],[-22,-2],[-30,-16],[-12,4],[-17,-3],[-6,5],[-6,5],[-7,0],[-15,-13],[-9,-13],[-6,-13],[-12,-9],[-8,-2],[-2,5],[3,34],[-2,13],[4,10],[6,15],[-6,12],[-1,7],[9,1],[17,-6],[17,11],[32,41],[42,19],[20,22],[6,3],[4,-7]],[[633,2682],[19,-7],[-2,-8],[-4,-6],[-8,-5],[2,-10],[-4,-9],[-45,-35],[-7,2],[5,21],[-7,23],[-17,8],[-54,15],[-10,8],[-36,6],[-62,5],[-33,0],[-6,-3],[-19,5],[-10,-2],[-8,-7],[-10,-18],[-38,-13],[-55,-26],[-5,-10],[4,-7],[80,19],[55,-2],[4,4],[18,6],[100,-5],[17,-2],[6,-7],[-18,-16],[-22,-12],[-26,-7],[-16,-2],[-14,7],[-12,-1],[-23,-10],[-18,-2],[-38,3],[-3,-3],[18,-8],[6,-13],[-6,-24],[-4,-9],[-8,-3],[-37,6],[-20,-9],[-7,-9],[-25,-21],[-11,-8],[-1,-8],[-1,-10],[-15,-15],[-36,-24],[0,-12],[-8,-11],[-1,-4],[23,2],[2,-6],[-22,-38],[-40,-35],[-45,-46],[-21,-35],[-1,-8],[-22,-18],[-31,-22]],[[0,2405],[36,21],[40,36],[22,23],[33,30],[15,19],[10,29],[9,18],[8,5],[7,15],[6,25],[15,24],[25,22],[32,21],[75,35],[27,7],[85,2],[13,-3],[17,-7],[34,-5],[12,-6],[53,-11],[30,-8],[25,-7],[4,-8]],[[137,2405],[15,16],[-7,3],[-23,-7],[-28,-31],[-16,-22],[-43,-22],[-35,-14]],[[0,2221],[8,3],[23,17],[15,40],[20,31],[38,30],[26,33],[7,30]],[[1759,974],[-4,-5],[-9,2],[-7,-6],[-6,-12],[-4,-12],[3,-9],[9,-8],[-1,-10],[-21,-18],[-8,3],[-24,-20],[-5,-10],[-4,-27],[0,-33],[2,-11],[5,-7],[5,-2],[1,-6],[-11,-35],[-11,-15],[-5,-1],[2,13],[8,19],[-2,19],[-8,12],[-7,3],[-13,3],[-16,-3],[-31,-27],[-12,-8],[-7,1],[0,6],[7,11],[25,36],[-3,8],[-19,-3],[-5,6],[2,6],[18,22],[4,6],[0,7],[-2,9],[-5,9],[1,10],[9,17],[7,23],[1,13],[-1,6],[-8,0],[6,25],[3,23],[6,9],[5,9],[10,3],[20,-12],[27,15],[3,5],[0,15],[3,8],[4,3],[8,-7],[34,-1],[1,-11],[5,-10],[21,-25],[2,-11],[-8,-20]],[[595,1278],[-9,0],[-31,-16],[-79,-30],[-34,-22],[-37,-34],[-11,-13],[-12,-22],[-7,-20],[1,-6],[12,-9],[-1,-12],[-7,-5],[-47,0],[-14,-7],[-5,-11],[-2,-15],[-5,-12],[-5,-1],[-6,45],[-5,1],[-8,-4],[-8,-10],[-8,-27],[-8,-7],[-3,8],[-2,8],[-1,9],[2,17],[-30,33],[-6,11],[-1,9],[4,13],[16,0],[8,-5],[-2,-14],[6,-1],[20,11],[26,28],[48,77],[23,27],[24,17],[58,54],[29,23],[7,12],[11,9],[-4,8],[-1,4],[18,23],[15,15],[14,10],[27,11],[25,1],[16,-5],[25,-34],[37,4],[6,-2],[-12,-37],[1,-8],[20,0],[38,19],[58,14],[49,-15],[72,-14],[58,-18],[77,-9],[37,-2],[107,-12],[1,-7],[-4,-7],[-122,4],[-90,8],[-45,8],[-25,-5],[-3,3],[-4,12],[-15,3],[-4,-1],[-5,-6],[-5,-12],[-6,-23],[-3,-5],[-22,-5],[-46,-16],[-98,-15],[-35,-2],[-30,-7],[-11,2],[-12,9]],[[1962,814],[8,3],[24,1],[2,-16],[-1,-24],[-16,-22],[-19,-43],[-17,-26],[-24,-23],[-16,-13],[-11,-21],[2,-23],[38,-24],[9,-13],[-5,-8],[-17,-4],[-13,-18],[-3,-30],[9,-23],[6,-11],[-14,-23],[-16,-19],[-9,-19],[-24,-10],[-5,-11],[-3,-14],[-8,-29],[-7,-15],[0,-12],[-5,-7],[-15,-8],[-10,-9],[-52,-34],[-7,-13],[-2,-15],[-7,-12],[-13,4],[-7,15],[-9,-2],[-12,-21],[-6,-19],[-1,-12],[-6,0],[-3,10],[3,32],[2,19],[1,15],[-8,7],[1,19],[9,11],[9,-7],[8,25],[4,55],[4,34],[7,-2],[-2,-66],[5,-41],[13,-3],[22,47],[12,10],[11,2],[7,10],[3,12],[10,5],[10,17],[4,38],[-1,26],[-6,18],[-17,15],[-12,6],[4,20],[5,22],[-5,13],[-12,15],[-12,6],[-12,-2],[-2,27],[7,33],[19,20],[17,23],[4,13],[-4,15],[1,19],[9,5],[21,11],[15,26],[43,51],[10,23],[0,18],[18,26],[11,-7],[-4,-33],[8,-15],[10,11],[9,24],[8,4],[3,-17],[-8,-47],[0,-12],[6,-9],[15,12],[2,14]],[[1923,2840],[24,18],[10,26],[11,13],[10,2],[4,2],[5,6],[0,12],[7,11],[16,-5],[11,-10],[6,-8],[8,-1],[5,8],[-7,20],[10,9],[26,-23],[10,3],[3,8],[10,1],[19,26],[9,-4],[10,8],[17,2],[11,-30],[-5,-36],[-18,-21],[-9,-8],[-8,-1],[-9,2],[-12,1],[-11,-4],[-3,-9],[-1,-10],[-9,-27],[2,-26],[7,-16],[10,-3],[23,-18],[0,-19],[-18,-17],[-9,-6],[-5,-14],[6,-22],[-1,-15],[-20,-19],[-27,-18],[-17,7],[-2,14],[7,17],[6,24],[-2,24],[-9,14],[-6,-6],[-4,-26],[-7,-20],[-4,-20],[-3,-24],[-3,-4],[-4,7],[0,15],[-7,20],[-15,8],[-15,2],[-12,30],[-17,-1],[-14,3],[-8,15],[-2,30],[-8,24],[-1,4],[-6,5],[-8,12],[2,17],[15,11],[26,10]],[[3254,3198],[13,-4],[18,-4],[20,-1],[18,-5],[4,-18],[-16,-24],[-26,-6],[-31,13],[-43,13],[-80,5],[-37,-8],[-30,0],[-21,0],[-10,10],[-19,17],[-52,25],[-8,41],[13,9],[83,-9],[90,-10],[39,-14],[22,-5],[22,-3],[26,-8],[5,-14]],[[717,280],[-13,-9],[-11,1],[-4,12],[-1,34],[-3,22],[-9,9],[-13,7],[-2,14],[6,14],[13,11],[11,-8],[13,-29],[11,-7],[8,3],[6,-5],[13,-24],[2,-63],[16,-9],[19,-2],[16,-3],[11,-17],[-7,-28],[-14,-14],[0,-7],[2,-8],[0,-34],[10,-31],[-2,-9],[-8,-9],[-8,-19],[-5,-19],[-9,-22],[-30,-31]],[[692,0],[-3,25],[-8,23],[-29,12],[-21,-1],[-12,19],[-11,33],[4,15],[9,6],[39,-16],[37,-39],[10,-35],[3,-15],[15,12],[9,22],[0,37],[6,27],[15,20],[15,13],[0,20],[-8,18],[-6,-3],[-5,1],[-21,17],[-9,14],[1,24],[1,19],[-6,12]],[[1136,732],[14,-5],[13,-11],[-1,-22],[2,-14],[3,-9],[-1,-11],[0,-16],[-8,-19],[-10,-6],[-11,-10],[-22,-2],[-30,-16],[-12,4],[-17,-3],[-6,5],[-6,5],[-7,0],[-15,-13],[-9,-13],[-6,-13],[-12,-9],[-8,-2],[-2,5],[3,34],[-2,13],[4,10],[6,15],[-6,12],[-1,7],[9,1],[17,-6],[17,11],[32,41],[42,19],[20,22],[6,3],[4,-7]],[[2347,2740],[9,17],[38,65],[9,5],[-1,-12],[-5,-21],[5,-20],[13,-9],[14,-13],[3,-23],[-18,-22],[-27,-21],[-34,-4],[-28,5],[-6,11],[-1,9],[29,33]],[[1812,1734],[11,-3],[19,20],[12,22],[-9,7],[-13,22],[0,32],[15,19],[17,6],[8,-13],[7,-21],[4,-18],[9,-22],[20,-31],[20,-52],[7,-48],[-5,-29],[-2,-20],[-17,10],[-1,-17],[-7,-14],[-11,34],[-35,74],[-19,15],[-17,-6],[-20,4],[-3,24],[10,5]],[[1191,1610],[-11,-1],[-10,-13],[-2,-26],[5,-18],[-9,-13],[-11,-1],[-5,11],[-2,9],[-6,1],[-4,-14],[-3,-5],[-11,-3],[-7,10],[9,39],[-1,34],[-12,8],[-2,7],[6,10],[12,5],[6,-6],[2,-10],[7,-9],[6,-6],[2,6],[5,23],[6,18],[19,19],[26,13],[9,-5],[5,-4],[17,-8],[-12,-20],[-26,-5],[-21,-2],[-7,-11],[4,-13],[19,4],[11,-8],[1,-12],[-15,-4]],[[2586,655],[17,-34],[19,-5],[13,3],[6,-5],[-6,-9],[-15,-17],[-15,-39],[-6,-30],[-5,-10],[-26,-6],[-31,-13],[-22,-31],[-17,-35],[-14,-18],[-15,0],[-12,8],[-12,-6],[-27,-42],[-23,-1],[-23,0],[-15,-9],[2,-10],[-1,-11],[-4,-5],[-13,15],[-8,19],[4,9],[21,8],[25,49],[6,21],[9,11],[18,-14],[13,2],[6,19],[10,16],[10,14],[1,-13],[-5,-29],[5,-18],[19,-1],[6,8],[-2,22],[5,22],[15,4],[14,17],[6,25],[2,14],[-3,17],[7,5],[16,0],[6,9],[-2,19],[-3,41],[-10,27],[-1,22],[7,10],[3,-6],[0,-11],[3,-9],[10,2],[13,15],[19,19],[16,6],[0,-11],[-3,-17],[-9,-19],[-4,-14]],[[124,1062],[2,-16],[-4,-13],[-2,-9],[0,-14],[2,-12],[7,-23],[-3,-11],[-16,1],[-34,16],[-19,25],[-9,18],[5,14],[0,20],[-8,10],[-11,-5],[-15,6],[-9,15],[3,25],[17,36],[33,18],[21,-2],[0,-13],[-14,-3],[-1,-16],[25,-9],[15,5],[10,-2],[8,-9],[7,-5],[6,1],[3,-10],[-19,-38]],[[2995,137],[-6,-7],[-1,-7],[3,-5],[-3,-3],[-16,3],[-13,2],[-20,1],[-17,-3],[-19,-9],[-3,9],[12,25],[24,5],[17,5],[13,16],[28,20],[27,12],[11,-5],[-4,-10],[-12,-7],[-19,-9],[-12,-7],[5,-8],[6,-10],[-1,-8]],[[1294,1278],[-29,-11],[-20,-16],[-13,-29],[-10,-22],[-9,-1],[-6,8],[3,14],[9,21],[46,45],[61,56],[18,-4],[19,-9],[12,-10],[-5,-14],[-7,-10],[-37,-11],[-16,-3],[-16,-4]],[[2645,2583],[-4,7],[-11,16],[-14,21],[-14,10],[-4,-7],[-16,-20],[-6,-1],[0,19],[-1,16],[-6,9],[-6,12],[-5,16],[-2,9],[5,0],[4,-5],[10,-1],[17,0],[10,-1],[1,7],[1,9],[9,1],[9,-5],[8,3],[13,6],[19,1],[21,-1],[9,10],[6,22],[9,12],[2,-5],[0,-16],[-3,-13],[-5,-10],[3,-14],[2,-18],[1,-25],[3,-20],[10,-9],[7,-14],[2,-13],[6,-13],[9,-12],[8,-7],[4,0],[1,4],[-1,4],[2,1],[4,-3],[4,-6],[-2,-9],[-11,-11],[-12,-4],[-15,12],[-18,15],[-14,6],[-14,0],[-12,-3],[-6,-5],[-2,-7],[-5,-4],[-9,6],[-10,12],[-5,8],[6,4],[8,4]],[[832,3151],[-28,3],[-14,-2],[-17,-6],[-22,-15],[-15,-15],[-37,17],[-16,18],[-20,11],[-47,4],[-51,-21],[-32,-1],[-12,13],[50,5],[38,15],[23,0],[72,25],[6,9],[0,13],[-4,19],[4,21],[11,21],[13,10],[6,-6],[-1,-32],[4,-18],[11,4],[13,15],[7,0],[-2,-15],[-14,-26],[-4,-11],[4,-9],[13,-6],[1,7],[13,7],[16,-16],[28,-16],[3,-22]],[[829,3173],[20,-2],[15,-7],[14,4],[16,12],[23,6],[26,1],[15,-12],[1,-12],[-1,-12],[0,-5],[-6,-15],[9,-22],[21,-1],[3,-4],[-3,-7],[-17,-27],[-14,-18],[-41,5],[-5,3],[-5,14],[-14,16],[3,23],[-1,13],[-8,6],[-22,-2],[-3,-10],[-6,11],[-17,20],[-3,22]],[[861,0],[1,10],[0,35],[5,10],[11,-55]],[[1577,1822],[-13,-18],[-5,-11],[-2,-21],[-31,-25],[-13,-6],[7,32],[3,42],[-17,20],[-19,18],[-12,19],[-13,7],[-5,9],[19,32],[9,23],[-7,12],[-8,-6],[-3,-13],[-11,-13],[-16,-1],[-9,8],[-1,8],[21,1],[4,9],[10,34],[1,11],[5,8],[15,2],[7,-8],[3,-9],[13,-17],[0,-13],[-3,-22],[2,-12],[14,4],[0,-8],[-15,-18],[1,-7],[17,5],[9,11],[10,5],[7,-3],[24,14],[14,17],[3,16],[2,14],[5,2],[13,-19],[-4,-25],[-27,-19],[-28,-30],[-21,-5],[-9,-10],[2,-17],[15,-8],[19,4],[10,11],[4,14],[9,12],[12,-3],[1,-23],[-18,-34]],[[3140,3520],[-25,-12],[-14,-19],[0,-24],[2,-17],[-1,-10],[-5,-9],[-11,-1],[-8,8],[-5,9],[-1,7],[-2,8],[-14,10],[-16,19],[-10,-3],[-3,-16],[-2,-8],[-20,15],[-7,12],[5,20],[13,11],[14,3],[24,4],[17,7],[23,1],[46,-3],[0,-12]],[[0,3600],[7,3],[6,0],[25,0],[13,2],[0,-13],[-16,-4],[-7,-20],[10,-35],[9,-27],[-8,-6],[-6,3],[-6,21],[-12,34],[-7,19],[-8,2]],[[803,3410],[1,8],[7,5],[5,-2],[7,-9],[-2,-4],[-13,-5],[-5,7]],[[785,3384],[-4,-5],[-5,-3],[-44,-26],[-10,2],[7,13],[30,22],[16,11],[11,1],[-1,-15]],[[650,3366],[-11,5],[-12,-7],[-6,-3],[-2,6],[0,20],[7,12],[-2,10],[2,5],[24,-8],[7,-15],[7,-22],[6,-21],[-6,3],[-14,15]],[[591,3364],[-5,5],[-11,18],[-4,18],[1,12],[2,9],[10,0],[9,-6],[-3,-5],[-5,-10],[3,-15],[22,-31],[-2,-13],[-12,-4],[-9,0],[7,11],[-3,11]],[[92,3389],[1,12],[-29,34],[-32,30],[-3,15],[41,-19],[42,-57],[-8,-16],[-7,-7],[-5,8]],[[990,17],[1,13],[8,13],[12,12],[9,3],[3,-8],[-19,-29],[2,-6],[-6,-4],[-10,6]],[[1803,2625],[3,-20],[3,-20],[2,-21],[-4,-18],[-18,-12],[-12,-3],[11,57],[-3,16],[-14,25],[0,14],[14,22],[6,-1],[12,-39]],[[1648,2132],[-4,8],[-2,17],[4,31],[21,19],[20,31],[4,13],[12,-9],[-8,-25],[-20,-26],[-17,-48],[-10,-11]],[[1577,1081],[7,22],[2,9],[23,4],[7,-9],[4,-7],[-4,-20],[-8,-24],[-19,11],[-9,4],[-3,10]],[[4096,479],[-14,8],[-49,37],[-45,28],[-55,13],[-39,-6],[-165,-68],[-42,-21],[-20,-14],[-3,1],[14,18],[-1,9],[-28,-3],[-10,-6],[-26,-24],[-13,-10],[-13,-4],[-1,2],[12,10],[11,14],[11,19],[12,27],[13,36],[7,27],[1,17],[-3,25],[-7,32],[-39,117],[-7,26],[-18,88],[-16,57],[-31,101],[-5,29],[-5,49],[-5,12],[-18,12],[-17,-6],[-21,1],[-53,11],[-50,-5],[-13,-9],[-15,-42],[-12,-95],[-11,-30],[0,16],[10,122],[-1,21],[-24,12],[-22,39],[-8,8],[-8,2],[-9,-2],[-7,13],[-6,27],[-5,18],[-13,11],[-20,7],[15,7],[10,24],[5,45],[2,80],[-1,181],[2,19],[6,40],[13,74],[4,44],[-4,14],[-7,9],[-10,8],[15,15],[20,2],[11,24],[15,48],[22,54],[28,58],[15,44],[4,27],[-1,21],[-5,15],[4,5],[21,-4],[10,14],[0,8],[-9,30],[5,14],[37,47],[52,39],[13,13],[7,10],[0,5],[-21,13],[-12,13],[-6,9],[-10,27],[38,-5],[7,2],[11,10],[-4,8],[-13,13],[3,6],[33,1],[18,10],[10,13],[-2,6],[-8,7],[1,8],[29,25],[-2,12],[-13,15],[-35,25],[-5,5],[10,1],[52,-23],[24,-18],[16,-20],[12,-11],[10,-4],[-3,13],[-15,30],[-14,18],[-12,9],[0,11],[11,15],[21,20],[6,12],[2,17],[9,7],[18,-3],[14,3],[10,8],[11,0],[23,-16],[13,-2],[12,14],[2,6],[-4,20],[-35,8],[-17,7],[-12,11],[-7,8],[-6,15],[-2,11],[5,7],[30,3],[8,4],[8,9],[14,1],[30,-11],[76,-12],[18,6],[43,39],[20,7],[24,2],[17,10],[10,17],[5,18],[1,18],[-3,74],[-7,18],[-41,35],[-24,12],[-41,12],[-29,21],[-36,37],[-28,15],[-21,-9],[-22,-13],[-39,-30],[-32,-3],[1,6],[47,33],[8,14],[-7,6],[-26,10],[-34,10],[-116,54],[-16,9],[-23,9],[-5,-3],[5,-16],[9,-11],[11,-7],[0,-5],[-27,-1],[-26,11],[-19,29],[1,12],[10,12],[1,14],[-18,40],[49,-45],[83,-35],[77,-41],[38,-16],[26,-4],[19,3],[10,11],[10,3],[10,-3],[2,-5],[-7,-5],[0,-6],[5,-5],[46,-6],[25,-6],[78,-42],[30,-11],[24,-3],[19,6],[13,11],[7,14],[12,2],[16,-12],[14,-4],[22,7],[17,18],[26,44],[-1,9],[-8,18],[-20,39],[5,1],[26,-9]],[[4096,3177],[-15,9],[7,5],[8,3]],[[4096,3822],[-9,4],[-20,3],[-80,27],[-70,13],[-15,-7],[-1,-5],[5,-22],[-44,25],[-26,20],[3,5],[19,2],[54,0],[34,-4],[31,-10],[26,-3],[35,2],[37,-17],[20,0],[1,0]],[[927,4096],[24,-34],[3,-10],[-6,1],[-15,13],[-19,22],[-6,8]],[[3536,2349],[-22,-6],[4,-10],[16,-19],[8,1],[8,9],[1,8],[-15,17]],[[3542,2315],[-8,-1],[-16,19],[-4,10],[22,6],[15,-17],[-1,-8],[-8,-9]],[[4096,479],[0,-479],[-4096,0],[0,4096],[908,0],[6,-8],[19,-22],[15,-13],[6,-1],[-3,10],[-24,34],[3169,0],[0,-241],[-1,0],[-20,0],[-37,17],[-35,-2],[-26,3],[-31,10],[-34,4],[-54,0],[-19,-2],[-3,-5],[26,-20],[44,-25],[-5,22],[1,5],[15,7],[70,-13],[80,-27],[20,-3],[9,-4],[0,-628],[-8,-3],[-7,-5],[15,-9],[0,-56],[-26,9],[-5,-1],[20,-39],[8,-18],[1,-9],[-26,-44],[-17,-18],[-22,-7],[-14,4],[-16,12],[-12,-2],[-7,-14],[-13,-11],[-19,-6],[-24,3],[-30,11],[-78,42],[-25,6],[-46,6],[-5,5],[0,6],[7,5],[-2,5],[-10,3],[-10,-3],[-10,-11],[-19,-3],[-26,4],[-38,16],[-77,41],[-83,35],[-49,45],[18,-40],[-1,-14],[-10,-12],[-1,-12],[19,-29],[26,-11],[27,1],[0,5],[-11,7],[-9,11],[-5,16],[5,3],[23,-9],[16,-9],[116,-54],[34,-10],[26,-10],[7,-6],[-8,-14],[-47,-33],[-1,-6],[32,3],[39,30],[22,13],[21,9],[28,-15],[36,-37],[29,-21],[41,-12],[24,-12],[41,-35],[7,-18],[3,-74],[-1,-18],[-5,-18],[-10,-17],[-17,-10],[-24,-2],[-20,-7],[-43,-39],[-18,-6],[-76,12],[-30,11],[-14,-1],[-8,-9],[-8,-4],[-30,-3],[-5,-7],[2,-11],[6,-15],[7,-8],[12,-11],[17,-7],[35,-8],[4,-20],[-2,-6],[-12,-14],[-13,2],[-23,16],[-11,0],[-10,-8],[-14,-3],[-18,3],[-9,-7],[-2,-17],[-6,-12],[-21,-20],[-11,-15],[0,-11],[12,-9],[14,-18],[15,-30],[3,-13],[-10,4],[-12,11],[-16,20],[-24,18],[-52,23],[-10,-1],[5,-5],[35,-25],[13,-15],[2,-12],[-29,-25],[-1,-8],[8,-7],[2,-6],[-10,-13],[-18,-10],[-33,-1],[-3,-6],[13,-13],[4,-8],[-11,-10],[-7,-2],[-38,5],[10,-27],[6,-9],[12,-13],[21,-13],[0,-5],[-7,-10],[-13,-13],[-52,-39],[-37,-47],[-5,-14],[9,-30],[0,-8],[-10,-14],[-21,4],[-4,-5],[5,-15],[1,-21],[-4,-27],[-15,-44],[-28,-58],[-22,-54],[-15,-48],[-11,-24],[-20,-2],[-15,-15],[10,-8],[7,-9],[4,-14],[-4,-44],[-13,-74],[-8,-59],[1,-181],[-2,-80],[-5,-45],[-10,-24],[-15,-7],[20,-7],[13,-11],[5,-18],[6,-27],[7,-13],[9,2],[8,-2],[8,-8],[22,-39],[24,-12],[1,-21],[-10,-122],[0,-16],[11,30],[12,95],[15,42],[13,9],[50,5],[53,-11],[21,-1],[17,6],[18,-12],[5,-12],[5,-49],[5,-29],[31,-101],[16,-57],[18,-88],[7,-26],[39,-117],[7,-32],[3,-25],[-1,-17],[-7,-27],[-13,-36],[-12,-27],[-11,-19],[-11,-14],[-12,-10],[1,-2],[13,4],[13,10],[26,24],[10,6],[28,3],[1,-9],[-14,-18],[3,-1],[20,14],[42,21],[165,68],[39,6],[55,-13],[45,-28],[49,-37],[14,-8]],[[2592,1599],[0,12],[79,0],[2,-75],[-37,8],[1,-20],[-45,75]],[[305,726],[69,97],[80,-12],[0,-199],[-59,0],[0,67],[-31,0],[0,49],[-59,-2]],[[1910,1415],[9,113],[53,-8],[24,50],[69,15],[8,-56],[-47,-68],[-116,-84],[0,38]],[[2715,1389],[31,159],[152,19],[-31,44],[197,0],[-44,-245],[-50,-14],[-42,-75],[-182,48],[-31,64]],[[2533,355],[31,112],[76,-56],[136,-8],[-76,-95],[-91,0],[15,47],[-91,0]],[[3258,1851],[24,61],[-16,33],[38,23],[29,-25],[-9,-26],[-38,-70],[-28,4]],[[204,895],[1,28],[39,-9],[37,-50],[-38,-19],[-39,50]],[[0,723],[38,3],[-33,-60],[-5,3],[0,54]],[[949,1611],[144,0],[1,-80],[29,-39],[-21,-36],[20,-25],[-11,-36],[-120,31],[-42,185]],[[2225,1531],[25,80],[101,0],[93,-57],[33,-105],[-112,-119],[-26,0],[-99,127],[-15,74]],[[2249,1501],[5,4],[6,-1],[3,8],[-14,-11]],[[2247,1502],[3,-4],[12,3],[0,3],[-12,-5],[-3,3]],[[540,1258],[40,36],[37,-30],[210,52],[23,-18],[-21,-15],[14,-25],[-52,-26],[0,-26],[-224,-1],[-27,53]],[[3382,546],[16,433],[30,0],[0,66],[31,0],[1,69],[42,42],[131,-446],[29,-17],[10,-122],[-31,-67],[-81,9],[-17,33],[-161,0]],[[0,1611],[23,0],[74,-71],[68,4],[31,-84],[1,-118],[-23,-22],[27,-14],[-5,-77],[43,-31],[-28,-64],[33,-51],[21,11],[-36,-53],[-59,-22],[36,-140],[-206,0],[0,732]],[[2200,565],[136,283],[91,64],[349,-64],[46,-95],[-46,-95],[-96,95],[-131,-16],[-24,27],[-325,-199]],[[323,1410],[4,73],[127,-6],[0,-50],[-131,-17]],[[2872,753],[0,63],[26,32],[106,32],[121,0],[30,-32],[-75,-76],[0,-70],[-167,0],[-41,51]]]}