{"objects":{"water":{"type":"GeometryCollection","geometries":[]},"buildings":{"type":"GeometryCollection","geometries":[]},"places":{"type":"GeometryCollection","geometries":[]},"transit":{"type":"GeometryCollection","geometries":[]},"pois":{"type":"GeometryCollection","geometries":[]},"boundaries":{"type":"GeometryCollection","geometries":[{"type":"LineString","properties":{"name:right:hy":"\u053b\u0580\u056f\u0578\u0582\u057f\u057d\u056f\u056b \u0574\u0561\u0580\u0566","name:right:uk":"\u0406\u0440\u043a\u0443\u0442\u0441\u044c\u043a\u0430 \u043e\u0431\u043b\u0430\u0441\u0442\u044c","int_name:left":"Buryatia","name:left:sv":"Burjatien","name:right:lt":"Irkutsko sritis","min_zoom":8.0,"name:left:lt":"Buriatija","name:left:hy":"\u0532\u0578\u0582\u0580\u0575\u0561\u0569\u056b\u0561","short_name:left":"\u0411\u0443\u0440\u044f\u0442\u0438\u044f","sort_rank":256,"name:left:ca":"Buri\u00e0tia","int_name:right":"Irkutsk Oblast","source":"openstreetmap.org","osm_relation":true,"name:left:cv":"\u0411\u0443\u0440\u044f\u0442\u0438","name:right:az":"\u0130rkutsk vilay\u0259ti","name:left:cs":"Burjatsko","name:left":"\u0420\u0435\u0441\u043f\u0443\u0431\u043b\u0438\u043a\u0430 \u0411\u0443\u0440\u044f\u0442\u0438\u044f","name:right:es":"\u00d3blast de Irkutsk","name:left:ka":"\u10d1\u10e3\u10e0\u10d8\u10d0\u10e2\u10d4\u10d7\u10d8","name:left:os":"\u0411\u0443\u0440\u044f\u0442\u0438","name:right:it":"Oblast' di Irkutsk","name:left:kk":"\u0411\u0443\u0440\u044f\u0442\u0438\u044f","name:right:vi":"Irkutsk (t\u1ec9nh)","id:right":-145454,"name:right:en":"Irkutsk Oblast","name:left:vi":"Buryatia","kind":"region","name":"\u0420\u0435\u0441\u043f\u0443\u0431\u043b\u0438\u043a\u0430 \u0411\u0443\u0440\u044f\u0442\u0438\u044f - \u0418\u0440\u043a\u0443\u0442\u0441\u043a\u0430\u044f \u043e\u0431\u043b\u0430\u0441\u0442\u044c","alt_name:left:cs":"Burjatsk\u00e1 republika","name:left:zh":"\u5e03\u91cc\u4e9e\u7279\u5171\u548c\u570b","name:left:fr":"Bouriatie","name:right:zh":"\u4f0a\u5c14\u5e93\u8328\u514b\u5dde","name:right:nl":"Oblast Irkoetsk","name:right:ja":"\u30a4\u30eb\u30af\u30fc\u30c4\u30af\u5dde","name:right:fr":"Oblast d'Irkoutsk","name:left:ja":"\u30d6\u30ea\u30e4\u30fc\u30c8\u5171\u548c\u56fd","name:right:sv":"Irkutsk oblast","name:left:uk":"\u0411\u0443\u0440\u044f\u0442\u0456\u044f","name:left:nl":"Boerjati\u00eb","name:left:ba":"\u0411\u04af\u0440\u04d9\u0442 \u0420\u0435\u0441\u043f\u0443\u0431\u043b\u0438\u043a\u0430\u04bb\u044b","name:left:be":"\u0411\u0443\u0440\u0430\u0446\u0456\u044f","id":-145729,"name:right":"\u0418\u0440\u043a\u0443\u0442\u0441\u043a\u0430\u044f \u043e\u0431\u043b\u0430\u0441\u0442\u044c","name:left:en":"Buryatia","name:left:el":"\u0394\u03b7\u03bc\u03bf\u03ba\u03c1\u03b1\u03c4\u03af\u03b1 \u03c4\u03b7\u03c2 \u039c\u03c0\u03bf\u03c5\u03c1\u03b3\u03b9\u03b1\u03c4\u03af\u03b1\u03c2","name:right:ca":"Prov\u00edncia d'Irkutsk","kind_detail":"4","name:left:pl":"Buriacja","id:left":-145729,"name:left:es":"Buriatia","name:right:cs":"Irkutsk\u00e1 oblast","name:right:ka":"\u10d8\u10e0\u10d9\u10e3\u10e2\u10e1\u10d9\u10d8\u10e1 \u10dd\u10da\u10e5\u10d8","name:right:pt":"Oblast de Irkutsk","name:right:tt":"\u0418\u0440\u043a\u0443\u0442\u0441\u043a \u04e9\u043b\u043a\u04d9\u0441\u0435","name:left:tt":"\u0411\u0443\u0440\u044f\u0442\u0438\u044f","name:left:az":"Buryatiya","name:left:pt":"Buri\u00e1cia","name:left:it":"Buriazia","name:right:pl":"Obw\u00f3d irkucki","name:right:os":"\u0418\u0440\u043a\u0443\u0442\u0441\u0447\u044b \u043e\u0431\u043b\u00e6\u0441\u0442","name:right:de":"Oblast Irkutsk","name:left:de":"Burjatien","name:left:ce":"\u0411\u0443\u0440\u044f\u0442\u0438\u0439\u043d \u0420\u0435\u0441\u043f\u0443\u0431\u043b\u0438\u043a\u0430"},"arcs":[0]},{"type":"LineString","properties":{"name:pt":"Buri\u00e1cia","name:az":"Buryatiya","name:ka":"\u10d1\u10e3\u10e0\u10d8\u10d0\u10e2\u10d4\u10d7\u10d8","name:cv":"\u0411\u0443\u0440\u044f\u0442\u0438","name:cs":"Burjatsko","name:tt":"\u0411\u0443\u0440\u044f\u0442\u0438\u044f","min_zoom":8.0,"int_name":"Buryatia","alt_name:cs":"Burjatsk\u00e1 republika","name:it":"Buriazia","name:sv":"Burjatien","name:os":"\u0411\u0443\u0440\u044f\u0442\u0438","name:vi":"Buryatia","name:ce":"\u0411\u0443\u0440\u044f\u0442\u0438\u0439\u043d \u0420\u0435\u0441\u043f\u0443\u0431\u043b\u0438\u043a\u0430","name:de":"Burjatien","name:pl":"Buriacja","name:ca":"Buri\u00e0tia","name:lt":"Buriatija","sort_rank":256,"kind_detail":"4","id":-145729,"source":"openstreetmap.org","name:fr":"Bouriatie","name:zh":"\u5e03\u91cc\u4e9e\u7279\u5171\u548c\u570b","name:nl":"Boerjati\u00eb","name:ja":"\u30d6\u30ea\u30e4\u30fc\u30c8\u5171\u548c\u56fd","short_name":"\u0411\u0443\u0440\u044f\u0442\u0438\u044f","name:kk":"\u0411\u0443\u0440\u044f\u0442\u0438\u044f","name:uk":"\u0411\u0443\u0440\u044f\u0442\u0456\u044f","name:hy":"\u0532\u0578\u0582\u0580\u0575\u0561\u0569\u056b\u0561","name:be":"\u0411\u0443\u0440\u0430\u0446\u0456\u044f","name:ba":"\u0411\u04af\u0440\u04d9\u0442 \u0420\u0435\u0441\u043f\u0443\u0431\u043b\u0438\u043a\u0430\u04bb\u044b","osm_relation":true,"name:el":"\u0394\u03b7\u03bc\u03bf\u03ba\u03c1\u03b1\u03c4\u03af\u03b1 \u03c4\u03b7\u03c2 \u039c\u03c0\u03bf\u03c5\u03c1\u03b3\u03b9\u03b1\u03c4\u03af\u03b1\u03c2","kind":"region","name:en":"Buryatia","name":"\u0420\u0435\u0441\u043f\u0443\u0431\u043b\u0438\u043a\u0430 \u0411\u0443\u0440\u044f\u0442\u0438\u044f","name:es":"Buriatia"},"arcs":[1]},{"type":"LineString","properties":{"name:pt":"Oblast de Irkutsk","name:az":"\u0130rkutsk vilay\u0259ti","name:nl":"Oblast Irkoetsk","name:ja":"\u30a4\u30eb\u30af\u30fc\u30c4\u30af\u5dde","name:ka":"\u10d8\u10e0\u10d9\u10e3\u10e2\u10e1\u10d9\u10d8\u10e1 \u10dd\u10da\u10e5\u10d8","name:cs":"Irkutsk\u00e1 oblast","name:tt":"\u0418\u0440\u043a\u0443\u0442\u0441\u043a \u04e9\u043b\u043a\u04d9\u0441\u0435","min_zoom":8.0,"int_name":"Irkutsk Oblast","name:it":"Oblast' di Irkutsk","name:uk":"\u0406\u0440\u043a\u0443\u0442\u0441\u044c\u043a\u0430 \u043e\u0431\u043b\u0430\u0441\u0442\u044c","name:hy":"\u053b\u0580\u056f\u0578\u0582\u057f\u057d\u056f\u056b \u0574\u0561\u0580\u0566","name:os":"\u0418\u0440\u043a\u0443\u0442\u0441\u0447\u044b \u043e\u0431\u043b\u00e6\u0441\u0442","name:sv":"Irkutsk oblast","name:pl":"Obw\u00f3d irkucki","id":-145454,"name:ca":"Prov\u00edncia d'Irkutsk","name":"\u0418\u0440\u043a\u0443\u0442\u0441\u043a\u0430\u044f \u043e\u0431\u043b\u0430\u0441\u0442\u044c","name:vi":"Irkutsk (t\u1ec9nh)","kind":"region","name:en":"Irkutsk Oblast","name:lt":"Irkutsko sritis","sort_rank":256,"kind_detail":"4","name:de":"Oblast Irkutsk","source":"openstreetmap.org","name:fr":"Oblast d'Irkoutsk","osm_relation":true,"name:zh":"\u4f0a\u5c14\u5e93\u8328\u514b\u5dde","name:es":"\u00d3blast de Irkutsk"},"arcs":[2]}]},"roads":{"type":"GeometryCollection","geometries":[]},"earth":{"type":"GeometryCollection","geometries":[{"type":"Polygon","properties":{"sort_rank":10,"source":"naturalearthdata.com","min_zoom":0.0,"kind":"earth","area":98022885885},"arcs":[[3]]}]},"landuse":{"type":"GeometryCollection","geometries":[{"type":"Polygon","properties":{"kind":"protected_area","area":7423419904,"sort_rank":17,"source":"openstreetmap.org","min_zoom":4.0,"tier":2,"id":-7022033,"osm_relation":true},"arcs":[[4]]}]}},"type":"Topology","transform":{"translate":[98.4375,52.4827802221],"scale":[0.0003433228,0.0002070539]},"arcs":[[[4096,3506],[-13,-4],[8,-50],[-144,15],[-35,-67],[-93,-90],[-29,3],[-61,-91],[-161,-43],[-48,17],[-49,-35],[-77,-8],[-80,-81],[-124,-63],[-101,49],[-66,-15],[-64,24],[-37,-36],[-117,2],[-26,-47],[-58,2],[-47,-96],[55,-32],[16,-43],[-37,-26],[7,-128],[-82,-52],[-30,-101],[-38,-36],[-45,14],[-179,-55],[-9,-101],[-22,-11]],[[2310,2321],[121,-119],[5,-35],[-45,11],[-102,-90],[3,-133],[25,-21],[-19,-81],[-60,38],[-102,-47],[-68,13],[-199,106],[-60,8],[-126,81],[-120,128],[-40,-19],[-69,34],[-37,-28],[2,-61],[-43,-83],[-49,-31],[24,-110],[-48,-4],[-41,-38],[-2,-57],[-54,-74],[4,-55],[47,-53],[-58,-91],[217,32],[58,-48],[8,-58],[-47,-57],[24,-36],[-12,-59],[62,-88],[13,-72],[-84,-58],[27,-98],[-2,-55],[-31,-24],[7,-45],[-62,-37],[-117,39],[-18,-151],[-95,-54],[-66,19],[-9,-43],[-54,-23],[19,-150],[20,-8],[-55,-29],[10,-33],[125,-80],[8,-37],[-33,-42],[-40,26],[-9,-119],[-93,6],[-34,-59],[-50,11],[-36,-80]],[[0,2970],[101,-7],[101,53],[70,-22],[36,15],[48,-28],[225,6],[20,67],[36,2],[-12,42],[46,84],[-9,55],[42,22],[137,-21],[28,-30],[44,10],[5,-49],[46,-34],[92,11],[68,-50],[81,-12],[34,26],[50,-5],[36,-40],[22,30],[-40,65],[14,49],[46,4],[34,34],[54,-30],[23,-47],[37,-7],[15,-57],[137,-111],[132,30],[20,-26],[5,-56],[-107,-65],[-12,-63],[-64,-38],[-20,-61],[17,-86],[152,-75],[37,-45],[146,-36],[42,-49],[111,14],[30,-51],[77,-2],[77,-65]],[[4096,0],[-4096,0],[0,4096],[4096,0],[0,-4096]],[[0,589],[24,-21],[108,-3],[78,-56],[86,-3],[129,-74],[95,-5],[78,-34],[54,-67],[421,-127],[6,-41],[-22,-41],[-75,14],[-46,-62],[-50,11],[-36,-80],[-369,0],[-186,26],[-28,-26],[-267,0],[0,589]]]}