{"objects":{"water":{"type":"GeometryCollection","geometries":[{"type":"Polygon","properties":{"kind":"lake","name":"Ysyk K\u00f6l","area":11506456576,"sort_rank":200,"alkaline":true,"source":"naturalearthdata.com","min_zoom":0.0,"id":1300},"arcs":[[299]]},{"type":"Polygon","properties":{"kind":"lake","name":"Shardara Bgeni","reservoir":true,"area":1034758400,"sort_rank":200,"source":"naturalearthdata.com","min_zoom":0.0,"id":1198},"arcs":[[300]]},{"type":"Polygon","properties":{"source":"naturalearthdata.com","kind":"lake","name":"Lake Balkhash","area":36835373056,"sort_rank":200,"min_zoom":0.0,"id":474},"arcs":[[301]]},{"type":"Polygon","properties":{"kind":"lake","name":"Aydar Ko\u0091l","area":3803178496,"sort_rank":200,"alkaline":true,"source":"naturalearthdata.com","min_zoom":0.0,"id":1328},"arcs":[[302]]},{"type":"Polygon","properties":{"kind":"lake","name":"Qapshaghay Bgeni","reservoir":true,"area":1798260864,"sort_rank":200,"source":"naturalearthdata.com","min_zoom":0.0,"id":1220},"arcs":[[303]]},{"type":"Polygon","properties":{"kind":"lake","name":"Toktogul Suu Saktagychy","reservoir":true,"area":1100642176,"sort_rank":200,"source":"naturalearthdata.com","min_zoom":0.0,"id":1190},"arcs":[[304]]},{"type":"Point","properties":{"label_placement":true,"kind":"lake","name":"Lake Balkhash","area":36835373056,"sort_rank":200,"source":"naturalearthdata.com","min_zoom":0.0,"id":474},"coordinates":[2350,2546]},{"type":"Point","properties":{"label_placement":true,"kind":"lake","name":"Ysyk K\u00f6l","area":11506456576,"sort_rank":200,"alkaline":true,"source":"naturalearthdata.com","min_zoom":0.0,"id":1300},"coordinates":[3472,758]},{"type":"Point","properties":{"label_placement":true,"kind":"lake","name":"Qapshaghay Bgeni","reservoir":true,"area":1798260864,"sort_rank":200,"source":"naturalearthdata.com","min_zoom":0.0,"id":1220},"coordinates":[3689,1479]},{"type":"Point","properties":{"label_placement":true,"kind":"lake","name":"Toktogul Suu Saktagychy","reservoir":true,"area":1100642176,"sort_rank":200,"source":"naturalearthdata.com","min_zoom":0.0,"id":1190},"coordinates":[1986,421]},{"type":"Point","properties":{"label_placement":true,"kind":"lake","name":"Shardara Bgeni","reservoir":true,"area":1034758400,"sort_rank":200,"source":"naturalearthdata.com","min_zoom":0.0,"id":1198},"coordinates":[239,80]},{"type":"LineString","properties":{"source":"naturalearthdata.com","kind":"lake","sort_rank":367,"boundary":true,"min_zoom":0.0,"id":474},"arcs":[305]},{"type":"LineString","properties":{"source":"naturalearthdata.com","kind":"lake","reservoir":true,"sort_rank":367,"boundary":true,"min_zoom":0.0,"id":1190},"arcs":[306]},{"type":"LineString","properties":{"source":"naturalearthdata.com","kind":"lake","reservoir":true,"sort_rank":367,"boundary":true,"min_zoom":0.0,"id":1198},"arcs":[307]},{"type":"LineString","properties":{"source":"naturalearthdata.com","kind":"lake","reservoir":true,"sort_rank":367,"boundary":true,"min_zoom":0.0,"id":1220},"arcs":[308]},{"type":"LineString","properties":{"source":"naturalearthdata.com","kind":"lake","sort_rank":367,"alkaline":true,"boundary":true,"min_zoom":0.0,"id":1300},"arcs":[309]},{"type":"MultiLineString","properties":{"source":"naturalearthdata.com","kind":"lake","sort_rank":367,"alkaline":true,"boundary":true,"min_zoom":0.0,"id":1328},"arcs":[[310],[311]]}]},"buildings":{"type":"GeometryCollection","geometries":[]},"places":{"type":"GeometryCollection","geometries":[{"type":"Point","properties":{"name:pt":"Quirguist\u00e3o","name:cy":"Cirgistan","alt_name:el":"\u039a\u03b9\u03c1\u03b3\u03b9\u03c3\u03c4\u03ac\u03bd;\u039a\u03b9\u03c1\u03b3\u03b9\u03b6\u03c3\u03c4\u03ac\u03bd","name:ko":"\ud0a4\ub974\uae30\uc2a4\uc2a4\ud0c4","name:kn":"\u0c95\u0cbf\u0cb0\u0ccd\u0c97\u0cbf\u0cb8\u0ccd\u0ca5\u0cbe\u0ca8\u0ccd","name:km":"\u1782\u17c0\u179a\u17a0\u17d2\u1782\u17b8\u179f\u17d2\u178f\u1784\u17cb","name:cs":"Kyrgyzst\u00e1n","alt_name:eo":"Kirgizistano;Kirgizio","name:ki":"Kirigizistani","name:tr":"K\u0131rg\u0131zistan","name:ku":"Qirgizistan","name:ro":"K\u00e2rg\u00e2zstan","name:ks":"\u06a9\u0650\u0631\u06af\u0650\u0633\u062a\u0627\u0646","name:to":"Kekisiteni","name:or":"\u0b15\u0b3f\u0b30\u0b4d\u0b17\u0b3f\u0b1c\u0b3f\u0b38\u0b4d\u0b25\u0b3e\u0b28","name:pl":"Kirgistan","name:ta":"\u0b95\u0bbf\u0bb0\u0bcd\u0b95\u0bbf\u0bb8\u0bcd\u0ba4\u0bbe\u0ba9\u0bcd","name:ca":"Kirguizistan","name:te":"\u0c15\u0c3f\u0c30\u0c4d\u0c1c\u0c3f\u0c38\u0c4d\u0c24\u0c3e\u0c28\u0c4d","name:ka":"\u10e7\u10d8\u10e0\u10d2\u10d8\u10d6\u10d4\u10d7\u10d8","name:hr":"Kirgistan","name:da":"Kirgisistan","name:de":"Kirgisistan","name:dz":"\u0f40\u0f72\u0f62\u0f0b\u0f42\u0f72\u0f66\u0f0b\u0f66\u0f4f\u0f71\u0f53","source":"openstreetmap.org","name:lv":"Kirgizst\u0101na","name:lt":"Kirgiztanas","name:uz":"Qirg\u2018iziston","name:he":"\u05e7\u05d9\u05e8\u05d2\u05d9\u05d6\u05e1\u05d8\u05df","kind":"country","name:ur":"\u06a9\u0631\u063a\u0632\u0633\u062a\u0627\u0646","name:lg":"Kirigizisitaani","name:uk":"\u041a\u0438\u0440\u0433\u0438\u0437\u0441\u0442\u0430\u043d","name:hy":"\u053f\u056b\u0580\u0563\u056b\u0566\u057d\u057f\u0561\u0576","min_zoom":2.0,"name:hu":"Kirgiziszt\u00e1n","name:ln":"Kigizisit\u00e1","name:lo":"\u0e84\u0eb5\u0e81\u0eb4\u0e94\u0eaa\u0eb0\u0e96\u0eb2\u0e99","population":5543300,"name:el":"\u039a\u03b9\u03c1\u03b3\u03b9\u03b6\u03af\u03b1","name:eo":"Kirgizujo","name:en":"Kyrgyzstan","name":"\u041a\u044b\u0440\u0433\u044b\u0437\u0441\u0442\u0430\u043d","name:ee":"Kirgizstan nutome","name:gd":"C\u00ecorgastan","name:th":"\u0e04\u0e35\u0e23\u0e4c\u0e01\u0e35\u0e0b\u0e2a\u0e16\u0e32\u0e19","name:gu":"\u0a95\u0abf\u0ab0\u0acd\u0a97\u0abf\u0a9d\u0acd\u0ab8\u0acd\u0aa4\u0abe\u0aa8","name:eu":"Kirgizistan","name:et":"K\u00f5rg\u00f5zstan","name:nl":"Kirgizi\u00eb","name:es":"Kirguist\u00e1n","name:ia":"Kirghizistan","name:rm":"Kirghisistan","name:rn":"Kirigisitani","name:az":"K\u0131rq\u0131zstan","name:id":"Kirgistan","name:ms":"Kyrgyzstan","name:mr":"\u0915\u093f\u0930\u0917\u093f\u091d\u0938\u094d\u0924\u093e\u0928","name:ar":"\u0642\u0631\u063a\u064a\u0632\u0633\u062a\u0627\u0646","name:my":"\u1001\u101a\u103a\u1000\u1005\u103a\u1005\u1010\u1014\u103a","name:io":"Kirgizistan","int_name":"Kyrgyzstan","name:is":"Kirgisistan","name:am":"\u12aa\u122d\u130a\u1235\u1273\u1295","name:it":"Kirghizistan","name:vi":"Kyrgyzstan","name:ru":"\u041a\u0438\u0440\u0433\u0438\u0437\u0438\u044f","id":1700777271,"name:mk":"\u041a\u0438\u0440\u0433\u0438\u0441\u0442\u0430\u043d","name:af":"Kirgisi\u00eb","name:zu":"i-Kyrgyzstan","name:ha":"Kirgizistan","name:nn":"Kirgisistan","name:ff":"Kirgistaan","name:fi":"Kirgisia","name:hi":"\u0915\u093f\u0930\u094d\u0917\u093f\u091c\u093c\u0924\u093e\u0928","name:mg":"Kiordistan","name:fo":"Kirgisia","name:mt":"Kirgistan","alt_name:vi":"C\u01b0-r\u01a1-g\u01b0-xtan;Kirgizia","name:fr":"Kirghizstan","name:ky":"\u041a\u044b\u0440\u0433\u044b\u0437 \u0420\u0435\u0441\u043f\u0443\u0431\u043b\u0438\u043a\u0430\u0441\u044b","name:fy":"Kirgyzje","name:vo":"Kirgist\u00e4n","name:zh":"\u5409\u5c14\u5409\u65af\u65af\u5766","name:gv":"Yn Chyrgistaan","name:so":"Kirgistaan","name:sn":"Kyrgyzstan","name:sl":"Kirgizistan","name:sk":"Kirgizsko","name:ja":"\u30ad\u30eb\u30ae\u30b9","name:si":"\u0d9a\u0dd2\u0dbb\u0dca\u0d9c\u0dd2\u0dc3\u0dca\u0dad\u0dcf\u0db1\u0dba","name:fa":"\u0642\u0631\u0642\u06cc\u0632\u0633\u062a\u0627\u0646","name:sg":"Kirigizit\u00f9aan","name:se":"Kirgisistan","name:ne":"\u0915\u093f\u0930\u094d\u0917\u093f\u0938\u094d\u0925\u093e\u0928","name:br":"Kirgizstan","name:bs":"Kirgizstan","name:bm":"Kirigizisita\u014b","name:bn":"\u0995\u09bf\u09b0\u09cd\u0997\u09bf\u099c\u09bf\u09af\u09bc\u09be","name:bo":"\u0f41\u0f72\u0f62\u0f0b\u0f42\u0f72\u0f5b\u0f0b\u0f66\u0f9f\u0f71\u0f53\u0f0d","name:ml":"\u0d15\u0d3f\u0d7c\u0d17\u0d3f\u0d38\u0d4d\u0d25\u0d3e\u0d7b","name:no":"Kirgisistan","name:sw":"Kirigizistani","name:sv":"Kirgizistan","name:bg":"\u041a\u0438\u0440\u0433\u0438\u0437\u0441\u0442\u0430\u043d","name:sr":"\u041a\u0438\u0440\u0433\u0438\u0441\u0442\u0430\u043d","name:sq":"Kirgistan","name:ga":"An Chirgeast\u00e1in","alt_name:fy":"Kirgyzstan","name:gl":"Quirguicist\u00e1n","name:yo":"Or\u00edl\u1eb9\u0301\u00e8de Kuri\u1e63isitani","name:ak":"K\u025b\u025bgestan"},"coordinates":[2630,273]},{"type":"Point","properties":{"source":"naturalearthdata.com","kind":"locality","name":"Tashkent","country_capital":true,"population":2184000,"min_zoom":3.0,"id":7232},"coordinates":[653,172]},{"type":"Point","properties":{"kind":"region","name:en":"Tashkent Province","name":"Toshkent Viloyati","name:uz":"\u0422\u043e\u0448\u043a\u0435\u043d\u0442 \u0432\u0438\u043b\u043e\u044f\u0442\u0438","kind_detail":"state","min_zoom":4.0,"name:de":"Provinz Taschkent","source":"openstreetmap.org","name:fr":"Province de Tachkent","name:ru":"\u0422\u0430\u0448\u043a\u0435\u043d\u0442\u0441\u043a\u0430\u044f \u043e\u0431\u043b\u0430\u0441\u0442\u044c","name:hu":"Taskenti vilajet","id":309346345,"population":4450000},"coordinates":[681,36]},{"type":"Point","properties":{"kind":"region","name:en":"South Kazakhstan Province","name":"\u042e\u0436\u043d\u043e-\u041a\u0430\u0437\u0430\u0445\u0441\u0442\u0430\u043d\u0441\u043a\u0430\u044f \u043e\u0431\u043b\u0430\u0441\u0442\u044c","kind_detail":"state","name:kk":"\u041e\u04a3\u0442\u04af\u0441\u0442\u0456\u043a \u049a\u0430\u0437\u0430\u049b\u0441\u0442\u0430\u043d \u043e\u0431\u043b\u044b\u0441\u044b","name:eo":"Suda Kaza\u0125io","name:de":"Gebiet S\u00fcdkasachstan","source":"openstreetmap.org","min_zoom":4.0,"name:fr":"Oblys du Kazakhstan m\u00e9ridional","name:uk":"\u041f\u0456\u0432\u0434\u0435\u043d\u043d\u043e-\u041a\u0430\u0437\u0430\u0445\u0441\u0442\u0430\u043d\u0441\u044c\u043a\u0430 \u043e\u0431\u043b\u0430\u0441\u0442\u044c","name:et":"L\u00f5una-Kasahstani oblast","name:hu":"D\u00e9l-kazahszt\u00e1ni ter\u00fclet","id":974358986,"population":2429500},"coordinates":[183,746]},{"type":"Point","properties":{"kind":"region","name:en":"Almaty Province","name":"\u0410\u043b\u043c\u0430\u0442\u0438\u043d\u0441\u043a\u0430\u044f \u043e\u0431\u043b\u0430\u0441\u0442\u044c","kind_detail":"state","name:kk":"\u0410\u043b\u043c\u0430\u0442\u044b \u043e\u0431\u043b\u044b\u0441\u044b","name:eo":"Almato","name:de":"Gebiet Almaty","source":"openstreetmap.org","min_zoom":4.0,"name:fr":"Oblys d'Almaty","name:uk":"\u0410\u043b\u043c\u0430\u0442\u0438\u043d\u0441\u044c\u043a\u0430 \u043e\u0431\u043b\u0430\u0441\u0442\u044c","name:et":"Almat\u00f5 oblast","name:hu":"Almati ter\u00fcletet","id":974358575,"population":1989300},"coordinates":[3559,2194]},{"type":"Point","properties":{"kind":"region","name:en":"Namangan Province","name":"Namangan Viloyati","kind_detail":"state","min_zoom":4.0,"name:de":"Provinz Namangan","source":"openstreetmap.org","name:fr":"Province de Namangan","name:ru":"\u041d\u0430\u043c\u0430\u043d\u0433\u0430\u043d\u0441\u043a\u0430\u044f \u043e\u0431\u043b\u0430\u0441\u0442\u044c","name:hu":"Namangan","id":309346340,"population":1862000},"coordinates":[1369,12]},{"type":"Point","properties":{"name:kk":"\u049a\u0430\u0440\u0430\u0493\u0430\u043d\u0434\u044b \u043e\u0431\u043b\u044b\u0441\u044b","name:eo":"Karagando","min_zoom":4.0,"name:uk":"\u041a\u0430\u0440\u0430\u0433\u0430\u043d\u0434\u0438\u043d\u0441\u044c\u043a\u0430 \u043e\u0431\u043b\u0430\u0441\u0442\u044c","name:pl":"Obw\u00f3d karagandzki","name:hu":"Karagandi ter\u00fclet","id":959501189,"population":1344200,"kind":"region","name:en":"Qaraghandy Province","name":"\u041a\u0430\u0440\u0430\u0433\u0430\u043d\u0434\u0438\u043d\u0441\u043a\u0430\u044f \u043e\u0431\u043b\u0430\u0441\u0442\u044c","kind_detail":"state","name:de":"Gebiet Qaraghandy","source":"openstreetmap.org","name:fr":"Oblys de Karaganda","name:et":"Karagand\u00f5 oblast","name:es":"Provincia de Karagand\u00e1"},"coordinates":[961,3679]},{"type":"Point","properties":{"name:kk":"\u0416\u0430\u043c\u0431\u044b\u043b \u043e\u0431\u043b\u044b\u0441\u044b","name:eo":"\u0134ambilo","min_zoom":4.0,"name:uk":"\u0416\u0430\u043c\u0431\u0438\u043b\u044c\u0441\u044c\u043a\u0430 \u043e\u0431\u043b\u0430\u0441\u0442\u044c","old_name":"\u0414\u0436\u0430\u043c\u0431\u0443\u043b\u044c\u0441\u043a\u0430\u044f \u043e\u0431\u043b\u0430\u0441\u0442\u044c","name:hu":"Zsambili ter\u00fclet","id":974358688,"population":1025000,"kind":"region","name":"\u0416\u0430\u043c\u0431\u044b\u043b\u0441\u043a\u0430\u044f \u043e\u0431\u043b\u0430\u0441\u0442\u044c","kind_detail":"state","old_name:ru":"\u0414\u0436\u0430\u043c\u0431\u0443\u043b\u044c\u0441\u043a\u0430\u044f \u043e\u0431\u043b\u0430\u0441\u0442\u044c","name:de":"Gebiet Schambyl","source":"openstreetmap.org","name:fr":"Oblys de Djamboul","name:et":"\u017damb\u00f5li oblast"},"coordinates":[1687,1772]},{"type":"Point","properties":{"source":"naturalearthdata.com","kind":"locality","name":"Almaty","population":1209000,"region_capital":true,"min_zoom":5.0,"id":6996},"coordinates":[3427,1210]},{"type":"Point","properties":{"source":"naturalearthdata.com","kind":"locality","name":"Bishkek","country_capital":true,"population":837000,"min_zoom":5.0,"id":6927},"coordinates":[2579,977]},{"type":"Point","properties":{"source":"naturalearthdata.com","kind":"locality","name":"Shymkent","population":465392,"region_capital":true,"min_zoom":5.0,"id":6629},"coordinates":[763,691]},{"type":"Point","properties":{"source":"naturalearthdata.com","kind":"locality","name":"Taraz","population":358153,"region_capital":true,"min_zoom":5.0,"id":6630},"coordinates":[1407,990]}]},"transit":{"type":"GeometryCollection","geometries":[]},"pois":{"type":"GeometryCollection","geometries":[]},"boundaries":{"type":"GeometryCollection","geometries":[{"type":"MultiLineString","properties":{"source":"naturalearthdata.com","kind":"country","sort_rank":262,"kind_detail":"2","min_zoom":0.0,"id":55},"arcs":[[0],[1]]},{"type":"MultiLineString","properties":{"source":"naturalearthdata.com","kind":"country","sort_rank":262,"kind_detail":"2","min_zoom":0.0,"id":323},"arcs":[[2],[3],[4],[5],[6],[7],[8],[9],[10],[11],[12],[13],[14],[15],[16],[17],[18],[19],[20]]},{"type":"MultiLineString","properties":{"source":"naturalearthdata.com","kind":"country","sort_rank":262,"kind_detail":"2","min_zoom":0.0,"id":81},"arcs":[[21],[22],[23],[24],[25],[26],[27],[28],[29]]},{"type":"MultiLineString","properties":{"source":"naturalearthdata.com","kind":"country","sort_rank":262,"kind_detail":"2","min_zoom":0.0,"id":83},"arcs":[[30],[31],[32],[33],[34],[35],[36],[37],[38],[39],[40],[41],[42],[43],[44],[45],[46],[47],[48],[49],[50],[51],[52],[53],[54],[55],[56],[57],[58],[59],[60],[61],[62],[63],[64],[65],[66],[67],[68],[69],[70],[71],[72],[73],[74],[75],[76],[77],[78],[79],[80],[81],[82],[83],[84],[85],[86],[87]]},{"type":"MultiLineString","properties":{"source":"naturalearthdata.com","kind":"country","sort_rank":262,"kind_detail":"2","min_zoom":0.0,"id":91},"arcs":[[88],[89],[90],[91],[92],[93],[94],[95],[96],[97],[98],[99],[100],[101],[102],[103],[104],[105],[106],[107],[108],[109],[110],[111],[112],[113],[114],[115]]},{"type":"MultiLineString","properties":{"source":"naturalearthdata.com","kind":"country","sort_rank":262,"kind_detail":"2","min_zoom":0.0,"id":246},"arcs":[[116],[117]]},{"type":"LineString","properties":{"source":"naturalearthdata.com","kind":"region","sort_rank":256,"kind_detail":"4","min_zoom":5.0,"id":828},"arcs":[118]},{"type":"LineString","properties":{"source":"naturalearthdata.com","kind":"region","sort_rank":256,"kind_detail":"4","min_zoom":5.0,"id":7310},"arcs":[119]},{"type":"LineString","properties":{"source":"naturalearthdata.com","kind":"region","sort_rank":256,"kind_detail":"4","min_zoom":5.0,"id":831},"arcs":[120]},{"type":"LineString","properties":{"source":"naturalearthdata.com","kind":"region","sort_rank":256,"kind_detail":"4","min_zoom":5.0,"id":7323},"arcs":[121]},{"type":"MultiLineString","properties":{"source":"naturalearthdata.com","kind":"region","sort_rank":256,"kind_detail":"4","min_zoom":5.5,"id":3376},"arcs":[[122],[123],[124],[125],[126],[127],[128],[129],[130]]},{"type":"MultiLineString","properties":{"source":"naturalearthdata.com","kind":"region","sort_rank":256,"kind_detail":"4","min_zoom":5.5,"id":3377},"arcs":[[131],[132],[133],[134],[135],[136],[137],[138],[139],[140],[141]]},{"type":"MultiLineString","properties":{"source":"naturalearthdata.com","kind":"region","sort_rank":256,"kind_detail":"4","min_zoom":5.5,"id":3378},"arcs":[[142],[143],[144],[145],[146],[147],[148],[149],[150],[151],[152],[153],[154],[155],[156]]},{"type":"MultiLineString","properties":{"source":"naturalearthdata.com","kind":"region","sort_rank":256,"kind_detail":"4","min_zoom":5.5,"id":3379},"arcs":[[157],[158],[159],[160],[161],[162],[163],[164],[165],[166],[167],[168],[169],[170],[171],[172],[173],[174],[175],[176],[177],[178],[179]]},{"type":"MultiLineString","properties":{"source":"naturalearthdata.com","kind":"region","sort_rank":256,"kind_detail":"4","min_zoom":5.5,"id":3386},"arcs":[[180],[181],[182],[183]]},{"type":"MultiLineString","properties":{"source":"naturalearthdata.com","kind":"region","sort_rank":256,"kind_detail":"4","min_zoom":5.5,"id":3380},"arcs":[[184],[185],[186],[187],[188],[189],[190],[191],[192],[193],[194],[195],[196],[197],[198],[199],[200],[201],[202],[203],[204]]},{"type":"MultiLineString","properties":{"source":"naturalearthdata.com","kind":"region","sort_rank":256,"kind_detail":"4","min_zoom":5.5,"id":3381},"arcs":[[205],[206],[207],[208],[209],[210],[211],[212],[213],[214],[215],[216],[217],[218],[219]]},{"type":"MultiLineString","properties":{"source":"naturalearthdata.com","kind":"region","sort_rank":256,"kind_detail":"4","min_zoom":5.5,"id":3382},"arcs":[[220],[221],[222],[223],[224],[225],[226],[227],[228],[229],[230],[231],[232],[233],[234],[235],[236],[237],[238],[239],[240],[241],[242],[243],[244],[245],[246]]},{"type":"MultiLineString","properties":{"source":"naturalearthdata.com","kind":"region","sort_rank":256,"kind_detail":"4","min_zoom":5.5,"id":3383},"arcs":[[247],[248],[249],[250],[251],[252],[253],[254],[255],[256]]},{"type":"MultiLineString","properties":{"source":"naturalearthdata.com","kind":"region","sort_rank":256,"kind_detail":"4","min_zoom":5.0,"id":7309},"arcs":[[257],[258],[259],[260],[261],[262],[263],[264],[265],[266],[267],[268],[269],[270],[271],[272],[273],[274],[275]]},{"type":"MultiLineString","properties":{"source":"naturalearthdata.com","kind":"region","sort_rank":256,"kind_detail":"4","min_zoom":5.0,"id":7311},"arcs":[[276],[277],[278]]},{"type":"MultiLineString","properties":{"source":"naturalearthdata.com","kind":"region","sort_rank":256,"kind_detail":"4","min_zoom":5.0,"id":7312},"arcs":[[279],[280],[281],[282]]},{"type":"MultiLineString","properties":{"source":"naturalearthdata.com","kind":"region","sort_rank":256,"kind_detail":"4","min_zoom":5.0,"id":7314},"arcs":[[283],[284],[285],[286],[287],[288]]},{"type":"MultiLineString","properties":{"source":"naturalearthdata.com","kind":"region","sort_rank":256,"kind_detail":"4","min_zoom":5.0,"id":7324},"arcs":[[289],[290],[291]]},{"type":"MultiLineString","properties":{"source":"naturalearthdata.com","kind":"region","sort_rank":256,"kind_detail":"4","min_zoom":5.0,"id":7325},"arcs":[[292],[293],[294],[295],[296],[297],[298]]}]},"roads":{"type":"GeometryCollection","geometries":[{"type":"LineString","properties":{"source":"naturalearthdata.com","kind":"major_road","sort_rank":379,"kind_detail":"secondary","min_zoom":4.0,"id":15728},"arcs":[312]},{"type":"LineString","properties":{"source":"naturalearthdata.com","kind":"major_road","sort_rank":379,"kind_detail":"secondary","min_zoom":3.0,"id":15732},"arcs":[313]},{"type":"LineString","properties":{"source":"naturalearthdata.com","kind":"major_road","sort_rank":379,"kind_detail":"secondary","min_zoom":4.0,"id":15857},"arcs":[314]},{"type":"LineString","properties":{"source":"naturalearthdata.com","kind":"major_road","sort_rank":379,"kind_detail":"secondary","min_zoom":4.0,"id":15933},"arcs":[315]},{"type":"LineString","properties":{"source":"naturalearthdata.com","kind":"major_road","sort_rank":379,"kind_detail":"secondary","min_zoom":4.0,"id":15937},"arcs":[316]},{"type":"LineString","properties":{"source":"naturalearthdata.com","kind":"major_road","sort_rank":379,"kind_detail":"secondary","min_zoom":3.0,"id":15967},"arcs":[317]},{"type":"LineString","properties":{"source":"naturalearthdata.com","kind":"major_road","sort_rank":379,"kind_detail":"secondary","min_zoom":3.0,"id":16041},"arcs":[318]},{"type":"LineString","properties":{"source":"naturalearthdata.com","kind":"major_road","sort_rank":379,"kind_detail":"secondary","min_zoom":4.0,"id":16130},"arcs":[319]},{"type":"LineString","properties":{"source":"naturalearthdata.com","kind":"major_road","sort_rank":379,"kind_detail":"secondary","min_zoom":4.0,"id":16131},"arcs":[320]},{"type":"LineString","properties":{"source":"naturalearthdata.com","kind":"major_road","kind_detail":"secondary","sort_rank":379,"landuse_kind":"urban_area","min_zoom":3.0,"id":16532},"arcs":[321]},{"type":"LineString","properties":{"source":"naturalearthdata.com","kind":"major_road","sort_rank":379,"kind_detail":"secondary","min_zoom":3.0,"id":16532},"arcs":[322]},{"type":"LineString","properties":{"source":"naturalearthdata.com","kind":"major_road","kind_detail":"secondary","sort_rank":379,"landuse_kind":"urban_area","min_zoom":3.0,"id":16544},"arcs":[323]},{"type":"LineString","properties":{"source":"naturalearthdata.com","kind":"major_road","sort_rank":379,"kind_detail":"secondary","min_zoom":4.0,"id":16897},"arcs":[324]},{"type":"LineString","properties":{"source":"naturalearthdata.com","kind":"major_road","kind_detail":"secondary","sort_rank":379,"landuse_kind":"urban_area","min_zoom":3.0,"id":16899},"arcs":[325]},{"type":"LineString","properties":{"source":"naturalearthdata.com","kind":"major_road","sort_rank":379,"kind_detail":"secondary","min_zoom":3.0,"id":16899},"arcs":[326]},{"type":"LineString","properties":{"source":"naturalearthdata.com","kind":"major_road","sort_rank":379,"kind_detail":"secondary","min_zoom":3.0,"id":16975},"arcs":[327]},{"type":"LineString","properties":{"source":"naturalearthdata.com","kind":"highway","sort_rank":383,"kind_detail":"motorway","min_zoom":3.0,"id":17159},"arcs":[328]},{"type":"LineString","properties":{"source":"naturalearthdata.com","kind":"highway","sort_rank":383,"kind_detail":"motorway","min_zoom":3.0,"id":17178},"arcs":[329]},{"type":"LineString","properties":{"source":"naturalearthdata.com","kind":"highway","sort_rank":383,"kind_detail":"motorway","min_zoom":3.0,"id":17220},"arcs":[330]},{"type":"LineString","properties":{"source":"naturalearthdata.com","kind":"highway","sort_rank":383,"kind_detail":"motorway","min_zoom":3.0,"id":17316},"arcs":[331]},{"type":"LineString","properties":{"source":"naturalearthdata.com","kind":"highway","sort_rank":383,"kind_detail":"motorway","min_zoom":3.0,"id":17340},"arcs":[332]},{"type":"LineString","properties":{"source":"naturalearthdata.com","kind":"highway","sort_rank":383,"kind_detail":"motorway","min_zoom":3.0,"id":17353},"arcs":[333]},{"type":"LineString","properties":{"source":"naturalearthdata.com","kind":"highway","sort_rank":383,"kind_detail":"motorway","min_zoom":3.0,"id":17390},"arcs":[334]},{"type":"LineString","properties":{"source":"naturalearthdata.com","kind":"highway","sort_rank":383,"kind_detail":"motorway","min_zoom":3.0,"id":17417},"arcs":[335]},{"type":"LineString","properties":{"source":"naturalearthdata.com","kind":"highway","sort_rank":383,"kind_detail":"motorway","min_zoom":3.0,"id":17583},"arcs":[336]},{"type":"LineString","properties":{"source":"naturalearthdata.com","kind":"highway","sort_rank":383,"kind_detail":"motorway","min_zoom":3.0,"id":17635},"arcs":[337]},{"type":"LineString","properties":{"source":"naturalearthdata.com","kind":"major_road","sort_rank":379,"kind_detail":"secondary","min_zoom":3.0,"id":17641},"arcs":[338]},{"type":"LineString","properties":{"source":"naturalearthdata.com","kind":"highway","sort_rank":383,"kind_detail":"motorway","min_zoom":3.0,"id":17653},"arcs":[339]},{"type":"LineString","properties":{"source":"naturalearthdata.com","kind":"major_road","kind_detail":"secondary","sort_rank":379,"landuse_kind":"park","min_zoom":3.0,"id":17749},"arcs":[340]},{"type":"LineString","properties":{"source":"naturalearthdata.com","kind":"major_road","sort_rank":379,"kind_detail":"secondary","min_zoom":3.0,"id":17749},"arcs":[341]},{"type":"LineString","properties":{"source":"naturalearthdata.com","kind":"highway","sort_rank":383,"kind_detail":"motorway","min_zoom":5.0,"id":17779},"arcs":[342]},{"type":"LineString","properties":{"source":"naturalearthdata.com","kind":"highway","sort_rank":383,"kind_detail":"motorway","min_zoom":3.0,"id":17839},"arcs":[343]},{"type":"LineString","properties":{"source":"naturalearthdata.com","kind":"highway","sort_rank":383,"kind_detail":"motorway","min_zoom":3.0,"id":17849},"arcs":[344]},{"type":"LineString","properties":{"source":"naturalearthdata.com","kind":"highway","sort_rank":383,"kind_detail":"motorway","min_zoom":5.0,"id":17982},"arcs":[345]},{"type":"LineString","properties":{"source":"naturalearthdata.com","kind":"highway","sort_rank":383,"kind_detail":"motorway","min_zoom":5.0,"id":18048},"arcs":[346]},{"type":"LineString","properties":{"source":"naturalearthdata.com","kind":"highway","sort_rank":383,"kind_detail":"motorway","min_zoom":4.0,"id":18126},"arcs":[347]},{"type":"LineString","properties":{"source":"naturalearthdata.com","kind":"highway","sort_rank":383,"kind_detail":"motorway","min_zoom":3.0,"id":18173},"arcs":[348]},{"type":"LineString","properties":{"source":"naturalearthdata.com","kind":"highway","sort_rank":383,"kind_detail":"motorway","min_zoom":4.0,"id":18181},"arcs":[349]},{"type":"LineString","properties":{"source":"naturalearthdata.com","kind":"major_road","sort_rank":379,"kind_detail":"secondary","min_zoom":3.0,"id":18184},"arcs":[350]},{"type":"LineString","properties":{"source":"naturalearthdata.com","kind":"highway","sort_rank":383,"kind_detail":"motorway","min_zoom":3.0,"id":18211},"arcs":[351]},{"type":"LineString","properties":{"source":"naturalearthdata.com","kind":"highway","kind_detail":"motorway","sort_rank":383,"landuse_kind":"urban_area","min_zoom":3.0,"id":18215},"arcs":[352]},{"type":"LineString","properties":{"source":"naturalearthdata.com","kind":"highway","sort_rank":383,"kind_detail":"motorway","min_zoom":3.0,"id":18215},"arcs":[353]},{"type":"LineString","properties":{"source":"naturalearthdata.com","kind":"major_road","kind_detail":"secondary","sort_rank":379,"landuse_kind":"urban_area","min_zoom":3.0,"id":18219},"arcs":[354]},{"type":"LineString","properties":{"source":"naturalearthdata.com","kind":"highway","kind_detail":"motorway","sort_rank":383,"landuse_kind":"urban_area","min_zoom":5.0,"id":18221},"arcs":[355]},{"type":"LineString","properties":{"source":"naturalearthdata.com","kind":"highway","sort_rank":383,"kind_detail":"motorway","min_zoom":5.0,"id":18221},"arcs":[356]},{"type":"LineString","properties":{"source":"naturalearthdata.com","kind":"highway","sort_rank":383,"kind_detail":"motorway","min_zoom":4.0,"id":18239},"arcs":[357]},{"type":"LineString","properties":{"source":"naturalearthdata.com","kind":"highway","kind_detail":"motorway","sort_rank":383,"landuse_kind":"urban_area","min_zoom":3.0,"id":18240},"arcs":[358]},{"type":"LineString","properties":{"source":"naturalearthdata.com","kind":"highway","sort_rank":383,"kind_detail":"motorway","min_zoom":3.0,"id":18240},"arcs":[359]},{"type":"LineString","properties":{"source":"naturalearthdata.com","kind":"highway","sort_rank":383,"kind_detail":"motorway","min_zoom":3.0,"id":18241},"arcs":[360]},{"type":"LineString","properties":{"source":"naturalearthdata.com","kind":"highway","sort_rank":383,"kind_detail":"motorway","min_zoom":5.0,"id":18245},"arcs":[361]},{"type":"LineString","properties":{"source":"naturalearthdata.com","kind":"highway","sort_rank":383,"kind_detail":"motorway","min_zoom":3.0,"id":18276},"arcs":[362]},{"type":"LineString","properties":{"source":"naturalearthdata.com","kind":"highway","sort_rank":383,"kind_detail":"motorway","min_zoom":3.0,"id":18318},"arcs":[363]},{"type":"LineString","properties":{"source":"naturalearthdata.com","kind":"highway","sort_rank":383,"kind_detail":"motorway","min_zoom":5.0,"id":18372},"arcs":[364]},{"type":"LineString","properties":{"source":"naturalearthdata.com","kind":"major_road","sort_rank":379,"kind_detail":"secondary","min_zoom":3.0,"id":18373},"arcs":[365]},{"type":"LineString","properties":{"source":"naturalearthdata.com","kind":"highway","kind_detail":"motorway","sort_rank":383,"landuse_kind":"urban_area","min_zoom":3.0,"id":18392},"arcs":[366]},{"type":"LineString","properties":{"source":"naturalearthdata.com","kind":"highway","sort_rank":383,"kind_detail":"motorway","min_zoom":3.0,"id":18392},"arcs":[367]},{"type":"LineString","properties":{"source":"naturalearthdata.com","kind":"highway","kind_detail":"motorway","sort_rank":383,"landuse_kind":"urban_area","min_zoom":3.0,"id":18397},"arcs":[368]},{"type":"LineString","properties":{"source":"naturalearthdata.com","kind":"highway","sort_rank":383,"kind_detail":"motorway","min_zoom":3.0,"id":18397},"arcs":[369]},{"type":"LineString","properties":{"source":"naturalearthdata.com","kind":"major_road","kind_detail":"secondary","sort_rank":379,"landuse_kind":"urban_area","min_zoom":3.0,"id":18405},"arcs":[370]},{"type":"LineString","properties":{"source":"naturalearthdata.com","kind":"highway","sort_rank":383,"kind_detail":"motorway","min_zoom":5.0,"id":18420},"arcs":[371]},{"type":"LineString","properties":{"source":"naturalearthdata.com","kind":"highway","sort_rank":383,"kind_detail":"motorway","min_zoom":3.0,"id":18421},"arcs":[372]},{"type":"LineString","properties":{"source":"naturalearthdata.com","kind":"major_road","sort_rank":379,"kind_detail":"secondary","min_zoom":3.0,"id":18436},"arcs":[373]},{"type":"LineString","properties":{"source":"naturalearthdata.com","kind":"highway","kind_detail":"motorway","sort_rank":383,"landuse_kind":"urban_area","min_zoom":3.0,"id":18442},"arcs":[374]},{"type":"LineString","properties":{"source":"naturalearthdata.com","kind":"highway","sort_rank":383,"kind_detail":"motorway","min_zoom":3.0,"id":18442},"arcs":[375]},{"type":"LineString","properties":{"source":"naturalearthdata.com","kind":"highway","sort_rank":383,"kind_detail":"motorway","min_zoom":3.0,"id":18451},"arcs":[376]},{"type":"LineString","properties":{"source":"naturalearthdata.com","kind":"major_road","kind_detail":"secondary","sort_rank":379,"landuse_kind":"urban_area","min_zoom":3.0,"id":18460},"arcs":[377]},{"type":"LineString","properties":{"source":"naturalearthdata.com","kind":"major_road","sort_rank":379,"kind_detail":"secondary","min_zoom":3.0,"id":18460},"arcs":[378]},{"type":"LineString","properties":{"source":"naturalearthdata.com","kind":"highway","sort_rank":383,"kind_detail":"motorway","min_zoom":4.0,"id":18476},"arcs":[379]},{"type":"LineString","properties":{"source":"naturalearthdata.com","kind":"major_road","sort_rank":379,"kind_detail":"secondary","min_zoom":3.0,"id":18513},"arcs":[380]},{"type":"LineString","properties":{"source":"naturalearthdata.com","kind":"highway","sort_rank":383,"kind_detail":"motorway","min_zoom":5.0,"id":18559},"arcs":[381]},{"type":"LineString","properties":{"source":"naturalearthdata.com","kind":"highway","sort_rank":383,"kind_detail":"motorway","min_zoom":4.0,"id":18580},"arcs":[382]},{"type":"LineString","properties":{"source":"naturalearthdata.com","kind":"highway","kind_detail":"motorway","sort_rank":383,"landuse_kind":"urban_area","min_zoom":4.0,"id":18581},"arcs":[383]},{"type":"LineString","properties":{"source":"naturalearthdata.com","kind":"highway","sort_rank":383,"kind_detail":"motorway","min_zoom":4.0,"id":18581},"arcs":[384]},{"type":"LineString","properties":{"source":"naturalearthdata.com","kind":"major_road","sort_rank":379,"kind_detail":"secondary","min_zoom":3.0,"id":18590},"arcs":[385]},{"type":"LineString","properties":{"source":"naturalearthdata.com","kind":"highway","sort_rank":383,"kind_detail":"motorway","min_zoom":4.0,"id":18637},"arcs":[386]},{"type":"LineString","properties":{"source":"naturalearthdata.com","kind":"major_road","kind_detail":"secondary","sort_rank":379,"landuse_kind":"urban_area","min_zoom":3.0,"id":18639},"arcs":[387]},{"type":"LineString","properties":{"source":"naturalearthdata.com","kind":"major_road","sort_rank":379,"kind_detail":"secondary","min_zoom":3.0,"id":18639},"arcs":[388]},{"type":"LineString","properties":{"source":"naturalearthdata.com","kind":"major_road","kind_detail":"secondary","sort_rank":379,"landuse_kind":"urban_area","min_zoom":3.0,"id":18641},"arcs":[389]},{"type":"LineString","properties":{"source":"naturalearthdata.com","kind":"major_road","sort_rank":379,"kind_detail":"secondary","min_zoom":3.0,"id":18641},"arcs":[390]},{"type":"LineString","properties":{"source":"naturalearthdata.com","kind":"highway","sort_rank":383,"kind_detail":"motorway","min_zoom":3.0,"id":18672},"arcs":[391]},{"type":"LineString","properties":{"source":"naturalearthdata.com","kind":"highway","sort_rank":383,"kind_detail":"motorway","min_zoom":3.0,"id":18700},"arcs":[392]},{"type":"LineString","properties":{"source":"naturalearthdata.com","kind":"highway","sort_rank":383,"kind_detail":"motorway","min_zoom":4.0,"id":18711},"arcs":[393]},{"type":"LineString","properties":{"source":"naturalearthdata.com","kind":"highway","sort_rank":383,"kind_detail":"motorway","min_zoom":5.0,"id":18712},"arcs":[394]},{"type":"LineString","properties":{"source":"naturalearthdata.com","kind":"minor_road","sort_rank":355,"kind_detail":"tertiary","min_zoom":5.0,"id":18715},"arcs":[395]},{"type":"LineString","properties":{"source":"naturalearthdata.com","kind":"highway","sort_rank":383,"kind_detail":"motorway","min_zoom":5.0,"id":18733},"arcs":[396]},{"type":"LineString","properties":{"source":"naturalearthdata.com","kind":"minor_road","sort_rank":355,"kind_detail":"tertiary","min_zoom":5.0,"id":18858},"arcs":[397]},{"type":"LineString","properties":{"source":"naturalearthdata.com","kind":"minor_road","sort_rank":355,"kind_detail":"tertiary","min_zoom":5.0,"id":18859},"arcs":[398]},{"type":"LineString","properties":{"source":"naturalearthdata.com","kind":"highway","kind_detail":"motorway","sort_rank":383,"landuse_kind":"urban_area","min_zoom":3.0,"id":19012},"arcs":[399]},{"type":"LineString","properties":{"source":"naturalearthdata.com","kind":"highway","sort_rank":383,"kind_detail":"motorway","min_zoom":3.0,"id":19012},"arcs":[400]},{"type":"LineString","properties":{"source":"naturalearthdata.com","kind":"highway","sort_rank":383,"kind_detail":"motorway","min_zoom":3.0,"id":19072},"arcs":[401]},{"type":"LineString","properties":{"source":"naturalearthdata.com","kind":"highway","sort_rank":383,"kind_detail":"motorway","min_zoom":3.0,"id":19095},"arcs":[402]},{"type":"LineString","properties":{"source":"naturalearthdata.com","kind":"highway","sort_rank":383,"kind_detail":"motorway","min_zoom":4.0,"id":19103},"arcs":[403]},{"type":"LineString","properties":{"source":"naturalearthdata.com","kind":"highway","kind_detail":"motorway","sort_rank":383,"landuse_kind":"urban_area","min_zoom":3.0,"id":19156},"arcs":[404]},{"type":"LineString","properties":{"source":"naturalearthdata.com","kind":"highway","sort_rank":383,"kind_detail":"motorway","min_zoom":3.0,"id":19156},"arcs":[405]},{"type":"LineString","properties":{"source":"naturalearthdata.com","kind":"major_road","kind_detail":"secondary","sort_rank":379,"landuse_kind":"urban_area","min_zoom":3.0,"id":19163},"arcs":[406]},{"type":"LineString","properties":{"source":"naturalearthdata.com","kind":"highway","sort_rank":383,"kind_detail":"motorway","min_zoom":4.0,"id":19180},"arcs":[407]},{"type":"LineString","properties":{"source":"naturalearthdata.com","kind":"highway","kind_detail":"motorway","sort_rank":383,"landuse_kind":"urban_area","min_zoom":5.0,"id":19182},"arcs":[408]},{"type":"LineString","properties":{"source":"naturalearthdata.com","kind":"highway","sort_rank":383,"kind_detail":"motorway","min_zoom":4.0,"id":19265},"arcs":[409]},{"type":"LineString","properties":{"source":"naturalearthdata.com","kind":"major_road","sort_rank":379,"kind_detail":"secondary","min_zoom":3.0,"id":19274},"arcs":[410]},{"type":"LineString","properties":{"source":"naturalearthdata.com","kind":"minor_road","sort_rank":355,"kind_detail":"tertiary","min_zoom":5.0,"id":19300},"arcs":[411]},{"type":"LineString","properties":{"source":"naturalearthdata.com","kind":"minor_road","sort_rank":355,"kind_detail":"tertiary","min_zoom":5.0,"id":19302},"arcs":[412]},{"type":"LineString","properties":{"source":"naturalearthdata.com","kind":"highway","sort_rank":383,"kind_detail":"motorway","min_zoom":3.0,"id":19347},"arcs":[413]},{"type":"LineString","properties":{"source":"naturalearthdata.com","kind":"highway","sort_rank":383,"kind_detail":"motorway","min_zoom":3.0,"id":19349},"arcs":[414]},{"type":"LineString","properties":{"source":"naturalearthdata.com","kind":"highway","kind_detail":"motorway","sort_rank":383,"landuse_kind":"urban_area","min_zoom":4.0,"id":19358},"arcs":[415]},{"type":"LineString","properties":{"source":"naturalearthdata.com","kind":"highway","sort_rank":383,"kind_detail":"motorway","min_zoom":4.0,"id":19358},"arcs":[416]},{"type":"LineString","properties":{"source":"naturalearthdata.com","kind":"minor_road","kind_detail":"tertiary","sort_rank":355,"landuse_kind":"urban_area","min_zoom":5.0,"id":19401},"arcs":[417]},{"type":"LineString","properties":{"source":"naturalearthdata.com","kind":"minor_road","sort_rank":355,"kind_detail":"tertiary","min_zoom":5.0,"id":19401},"arcs":[418]},{"type":"LineString","properties":{"source":"naturalearthdata.com","kind":"minor_road","kind_detail":"tertiary","sort_rank":355,"landuse_kind":"urban_area","min_zoom":5.0,"id":19419},"arcs":[419]},{"type":"MultiLineString","properties":{"source":"naturalearthdata.com","kind":"minor_road","sort_rank":355,"kind_detail":"tertiary","min_zoom":5.0,"id":19419},"arcs":[[420],[421]]},{"type":"LineString","properties":{"source":"naturalearthdata.com","kind":"highway","kind_detail":"motorway","sort_rank":383,"landuse_kind":"urban_area","min_zoom":3.0,"id":19423},"arcs":[422]},{"type":"LineString","properties":{"source":"naturalearthdata.com","kind":"highway","sort_rank":383,"kind_detail":"motorway","min_zoom":3.0,"id":19423},"arcs":[423]},{"type":"LineString","properties":{"source":"naturalearthdata.com","kind":"major_road","sort_rank":379,"kind_detail":"secondary","min_zoom":4.0,"id":19430},"arcs":[424]},{"type":"LineString","properties":{"source":"naturalearthdata.com","kind":"highway","sort_rank":383,"kind_detail":"motorway","min_zoom":3.0,"id":19451},"arcs":[425]},{"type":"LineString","properties":{"source":"naturalearthdata.com","kind":"highway","sort_rank":383,"kind_detail":"motorway","min_zoom":5.0,"id":19501},"arcs":[426]},{"type":"LineString","properties":{"source":"naturalearthdata.com","kind":"minor_road","sort_rank":355,"kind_detail":"tertiary","min_zoom":5.0,"id":19591},"arcs":[427]},{"type":"LineString","properties":{"source":"naturalearthdata.com","kind":"major_road","kind_detail":"secondary","sort_rank":379,"landuse_kind":"urban_area","min_zoom":4.0,"id":19592},"arcs":[428]},{"type":"MultiLineString","properties":{"source":"naturalearthdata.com","kind":"major_road","sort_rank":379,"kind_detail":"secondary","min_zoom":4.0,"id":19592},"arcs":[[429],[430]]},{"type":"LineString","properties":{"source":"naturalearthdata.com","kind":"highway","sort_rank":383,"kind_detail":"motorway","min_zoom":4.0,"id":19767},"arcs":[431]}]},"earth":{"type":"GeometryCollection","geometries":[{"type":"Polygon","properties":{"sort_rank":10,"source":"naturalearthdata.com","min_zoom":0.0,"kind":"earth","area":6273464696677},"arcs":[[432]]}]},"landuse":{"type":"GeometryCollection","geometries":[{"type":"Polygon","properties":{"kind":"park","name":"\u0423\u0433\u0430\u043c-\u0427\u0430\u0442\u043a\u0430\u043b\u044c\u0441\u043a\u0438\u0439 \u0413\u043e\u0441\u0443\u0434\u0430\u0440\u0441\u0442\u0432\u0435\u043d\u043d\u044b\u0439 \u041f\u0440\u0438\u0440\u043e\u0434\u043d\u044b\u0439 \u041d\u0430\u0446\u0438\u043e\u043d\u0430\u043b\u044c\u043d\u044b\u0439 \u041f\u0430\u0440\u043a","area":10235599872,"sort_rank":24,"source":"openstreetmap.org","min_zoom":4.0,"tier":2,"id":-2973056,"osm_relation":true},"arcs":[[433]]},{"type":"Polygon","properties":{"kind":"park","name":"\u0410\u043a\u0441\u0443-\u0414\u0436\u0430\u0431\u0430\u0433\u043b\u0438\u043d\u0441\u043a\u0438\u0439 \u0437\u0430\u043f\u043e\u0432\u0435\u0434\u043d\u0438\u043a","area":1385980032,"sort_rank":24,"source":"openstreetmap.org","min_zoom":4.0,"tier":2,"id":-3388788,"osm_relation":true},"arcs":[[434]]},{"type":"MultiPolygon","properties":{"source":"naturalearthdata.com","kind":"urban_area","name":"","area":18615744233,"sort_rank":11,"min_zoom":4.0},"arcs":[[[435]],[[436]],[[437]],[[438]],[[439]],[[440]],[[441]],[[442]],[[443]],[[444]]]},{"type":"Polygon","properties":{"kind":"park","name":"\u043d\u0430\u0446\u0438\u043e\u043d\u0430\u043b\u044c\u043d\u0438\u0439 \u043f\u0430\u0440\u043a \u0410\u043b\u0442\u044b\u043d-\u042d\u043c\u0435\u043b\u044c","area":10115999744,"sort_rank":24,"source":"openstreetmap.org","min_zoom":4.0,"tier":2,"id":-5935486,"osm_relation":true},"arcs":[[445]]},{"type":"Polygon","properties":{"kind":"park","name":"\u0411\u0435\u0448-\u0410\u0440\u0430\u043b\u044c\u0441\u043a\u0438\u0439 \u0433\u043e\u0441\u0443\u0434\u0430\u0440\u0441\u0442\u0432\u0435\u043d\u043d\u044b\u0439 \u0437\u0430\u043f\u043e\u0432\u0435\u0434\u043d\u0438\u043a","area":1373120000,"sort_rank":24,"source":"openstreetmap.org","min_zoom":4.0,"tier":2,"id":-2982499,"osm_relation":true},"arcs":[[446]]},{"type":"Polygon","properties":{"kind":"nature_reserve","name":"\u0411\u0435\u0448-\u0410\u0440\u0430\u043b\u044c\u0441\u043a\u0438\u0439 \u0433\u043e\u0441\u0443\u0434\u0430\u0440\u0441\u0442\u0432\u0435\u043d\u043d\u044b\u0439 \u0437\u0430\u043f\u043e\u0432\u0435\u0434\u043d\u0438\u043a","area":1373120000,"sort_rank":23,"source":"openstreetmap.org","min_zoom":4.0,"tier":2,"id":-2982500,"osm_relation":true},"arcs":[[447]]}]}},"type":"Topology","transform":{"translate":[67.5,40.9798980696],"scale":[0.002746582,0.0019391116]},"arcs":[[[1139,0],[-4,7],[-9,8],[-10,5]],[[1116,20],[-6,-2],[5,-10],[0,-1],[6,-7]],[[1255,654],[-12,-11],[-12,-10],[-7,-4],[-7,-4],[-7,-1],[-7,-1]],[[1203,623],[-8,3],[-9,2]],[[1186,628],[-4,0],[-4,0],[-3,-4],[-3,-4],[-1,-4],[-2,-5],[-2,-4],[-1,-3],[-6,-7],[-5,-6],[-4,-8],[-4,-9],[-3,-9],[-4,-10],[-4,-7],[-4,-8],[-5,-3],[-6,-3]],[[1121,534],[-4,1],[-5,1],[-3,1],[-4,2],[-3,3],[-3,3],[-1,5],[-1,5],[-2,3],[-1,3],[-3,4],[-3,3],[-3,3],[-4,2],[-2,1],[-3,0]],[[1076,574],[-18,-8],[-17,-8],[-8,-7],[-8,-7],[-5,-11],[-4,-10],[-1,-5],[-2,-4],[-2,-3],[-2,-3],[-3,-1],[-3,-2],[-4,-1],[-3,-2],[-3,-1],[-3,-2],[-3,-3],[-2,-3],[-13,-23],[-12,-22],[-5,-6],[-4,-6],[-15,-12],[-16,-11],[-10,-4],[-10,-4],[-3,-3],[-3,-2],[-2,-4],[-3,-4],[-5,-7],[-6,-7],[-7,-3],[-8,-4],[-20,-1],[-20,0],[-25,-8],[-24,-7],[-4,-3],[-3,-2],[-5,-7],[-5,-6],[-19,-16],[-18,-15],[-10,-4],[-11,-3],[-5,-4],[-4,-4],[-3,-6],[-2,-7],[0,-3],[1,-3],[3,-5],[3,-6],[0,-3],[1,-3],[-3,-1],[-2,-1]],[[688,253],[-10,2],[-11,2]],[[667,257],[-3,-1],[-3,-1],[-7,-5],[-7,-4],[-2,-1],[-3,0]],[[642,245],[-6,2],[-5,2]],[[631,249],[-3,-1],[-3,0],[-10,-7],[-10,-7],[-4,-4],[-5,-5],[-1,-5],[-2,-6]],[[593,214],[-4,2],[-3,1]],[[586,217],[-3,-1],[-4,-1],[-8,-5],[-9,-4],[-1,-1],[-2,-2],[-1,-2],[0,-1],[0,-3],[1,-2],[1,-2],[2,-2],[1,-1],[1,-1],[1,-1],[0,-3],[1,-3],[0,-5],[0,-4],[-3,-24],[-3,-25],[-1,-3],[-2,-3],[-3,-3],[-3,-4],[-6,-4],[-6,-5],[-7,-3],[-6,-4],[-8,-1],[-8,-1],[-4,-1],[-3,-1],[-3,-4],[-2,-3],[-5,-8],[-4,-9],[-13,-6],[-12,-6],[-5,-6],[-5,-6],[-7,-20],[-7,-21],[-1,-2]],[[195,32],[-3,5],[-2,4],[-2,10],[-1,10],[-2,4],[-2,5],[-8,11],[-8,12],[-1,2],[-1,3],[-1,1],[-3,7],[-2,8]],[[159,114],[-4,-3],[-5,-4],[-11,-7],[-10,-8],[-4,0],[-3,-1]],[[122,91],[-4,2],[-4,1],[-8,5],[-7,4],[-4,1],[-5,1]],[[90,105],[-46,-3],[-44,-2]],[[226,0],[0,7],[-1,3],[-2,3],[-1,1],[-1,2],[-1,1],[-2,0],[2,1],[1,1],[5,3],[4,4],[-1,0],[0,1],[-2,0],[-2,1],[1,2],[0,3],[0,1],[-1,5],[0,6]],[[225,45],[-4,-1],[-4,0],[-3,-6],[-2,-6]],[[212,32],[-2,3],[-2,3],[-2,0],[-2,1]],[[204,39],[-3,-2],[-2,-1],[-2,-2],[-2,-2]],[[3844,28],[6,3],[37,34],[5,6],[5,8],[10,21],[7,14],[9,14],[6,7],[15,9],[6,6],[4,9],[-1,9],[-7,20],[2,9],[6,8],[6,5],[15,7],[34,28],[27,6],[12,6],[4,5],[3,13],[3,5],[5,5],[5,3],[28,12]],[[3774,43],[48,-7],[14,-7],[8,-1]],[[3689,8],[7,1],[5,2],[48,28],[12,4],[13,0]],[[3462,33],[10,-2],[19,-11],[11,-4],[45,-3]],[[3394,0],[5,7],[9,10],[14,7],[40,9]],[[3580,21],[20,-5],[21,-9],[11,-6],[10,0]],[[3547,13],[21,7],[12,1]],[[3670,9],[19,-1]],[[3642,1],[28,8]],[[2805,962],[-9,2],[-22,14],[-9,7],[-10,7],[-22,7],[-11,5],[-10,9],[-31,16],[-42,8],[-12,5],[-38,30],[-5,6],[-9,16],[-5,7],[-7,4],[-15,4],[-13,9],[-15,2],[-8,4],[-18,16],[-11,6],[-12,3],[-10,4],[-19,18],[-10,6]],[[2432,1177],[10,-15],[3,-8],[-1,-8],[-6,-3],[-57,-7]],[[2381,1136],[-7,2],[-13,13],[-7,3]],[[2354,1154],[-11,-9],[-12,-36],[-14,-7]],[[2317,1102],[-15,0]],[[2302,1102],[-6,-1],[-63,-27],[-17,-10],[-6,-6],[-4,-7],[-14,-42],[-7,-14],[-3,-7],[-1,-9],[1,-9],[4,-17],[1,-10],[-1,-7],[-10,-23],[-19,-45],[-4,-18],[-1,-20],[3,-17],[5,-16],[26,-54],[1,0],[-1,-9],[-10,-2]],[[3578,989],[-36,6],[-6,0],[-6,0],[-6,2],[-6,5],[-10,15],[-4,4],[-12,4],[-42,8],[-7,3]],[[3443,1036],[-7,-1],[-14,-6],[-17,-1],[-7,-1],[-7,-5],[-8,-10],[-2,-1],[-2,-1]],[[3379,1010],[-7,2]],[[3372,1012],[-3,-1],[-1,-2],[0,-2],[-2,-2],[-14,-8],[-6,-1]],[[3094,999],[-8,1],[-28,9],[-15,2]],[[3043,1011],[-18,-2],[-4,0],[-6,-2],[-4,-4],[-12,-33],[-3,-6],[-9,-10],[-10,-7],[-11,-5],[-9,-1]],[[3154,1001],[-26,7]],[[3128,1008],[-10,0],[-24,-9]],[[3627,998],[-10,3],[-6,1]],[[3611,1002],[-5,-2],[-16,-7],[-12,-4]],[[3219,991],[-32,10]],[[3187,1001],[-33,0]],[[3308,988],[-10,1],[-19,9],[-9,1]],[[3270,999],[-7,-3],[-11,-11],[-6,-2]],[[3668,984],[-6,0],[-7,4],[-6,6],[-8,4]],[[3641,998],[-14,0]],[[3346,996],[-17,0]],[[3329,996],[-14,-7],[-7,-1]],[[3246,983],[-4,2],[-4,8],[-4,2]],[[3234,995],[-4,0],[-7,-3],[-4,-1]],[[3754,975],[-5,4],[-2,2],[-1,4],[-3,3],[-24,6],[-24,1]],[[3695,995],[-8,-1],[-19,-10]],[[3834,967],[-16,3],[-21,12],[-8,4],[-8,1]],[[3781,987],[-9,-2],[-3,-1],[-6,-4],[-9,-5]],[[4096,939],[-23,2],[-6,3],[-13,11],[-15,10],[-35,13],[-25,2]],[[3979,980],[-16,-1],[-7,-3],[-14,-9],[-6,-2]],[[3936,965],[-7,0],[-15,6],[-7,1]],[[3907,972],[-17,-2]],[[3890,970],[-17,1]],[[3873,971],[-39,-4]],[[2911,951],[-82,11]],[[2829,962],[-24,0]],[[1677,913],[-12,4],[-42,24],[-23,6],[-6,3],[-5,4],[-6,2]],[[1583,956],[-6,-1],[-13,-5],[-25,-1],[-12,-4],[-40,-27],[-7,-1]],[[2957,941],[-24,11],[-7,1]],[[2926,953],[-15,-2]],[[1448,930],[-18,6]],[[1430,936],[-8,0],[-7,-6],[-4,-8],[-5,-7],[-5,-6],[-7,-3]],[[1480,917],[-4,1],[-14,13],[-4,2]],[[1458,933],[-4,0],[-6,-3]],[[1825,875],[-13,3],[-43,30],[-24,11],[-47,2]],[[1698,921],[-5,-2],[-11,-5],[-5,-1]],[[1394,906],[-7,2],[-9,4],[-8,3]],[[1370,915],[-6,-4],[-8,-15],[-5,-6],[-6,-4],[-13,-5],[-3,-5],[-1,-11],[0,-21],[-2,-7],[-5,-6],[-32,-6],[-14,-8],[4,-20],[4,-5],[12,-11]],[[1981,803],[-12,0],[-12,4],[-12,6],[-10,9],[-12,24],[-9,10],[-11,7],[-52,13]],[[1851,876],[-26,-1]],[[2176,732],[-22,9],[-33,6],[-4,7],[0,11],[1,16],[-6,7],[-8,3],[-26,2],[-7,2],[-6,3],[-7,6],[-14,6],[-16,1]],[[2028,811],[-47,-8]],[[1295,781],[3,-6],[0,-6],[-4,-6],[-5,-2]],[[1295,781]],[[1289,761],[-6,0],[-17,12]],[[1266,773],[-6,-6],[-5,-8],[-4,-10],[-2,-10],[0,-6],[3,-3],[0,-4],[-2,-6],[-12,-15],[-4,-4],[-9,-9],[-4,-8],[2,-8],[14,-15],[8,-4],[10,-3]],[[1251,545],[15,4],[51,40],[30,10],[14,10],[5,19],[-1,0],[-11,4],[-51,39],[-12,5]],[[1291,676],[-12,-2],[-16,-12],[-8,-8]],[[1233,546],[18,-1]],[[1084,219],[-2,0],[-7,0],[-5,6],[-9,18],[-6,7],[-6,6],[-13,9],[-52,6],[-13,8],[-7,16],[8,14],[59,36],[22,19],[11,6],[11,8],[9,13],[11,24],[16,20],[35,33],[12,7],[36,4],[13,6],[4,8],[1,30],[6,19],[15,4]],[[1522,228],[-3,2],[0,6],[6,29],[0,11],[-2,10],[-4,7],[-8,1]],[[1511,294],[-8,-4],[-5,-5],[-7,-20],[4,-9],[10,-14],[1,-9],[-1,-11],[-5,-17],[-13,-28],[-10,-11],[-12,-3]],[[1191,133],[-5,7],[0,9],[5,32],[-1,11],[-3,10],[-21,38],[-6,9],[-7,4]],[[1153,253],[-12,-2],[-45,-27],[-12,-5]],[[1601,106],[-9,5],[-2,21],[1,22],[-2,17],[-6,16],[-34,54],[-3,3],[-3,1]],[[1543,245],[-3,-2],[0,-11],[-3,-3]],[[1537,229],[-3,2],[-2,8],[-4,2]],[[1528,241],[-2,-3],[-1,-5],[-3,-5]],[[1465,163],[-16,8],[-17,17],[-5,2]],[[1427,190],[-2,-7],[3,-89],[-2,-18],[-8,-7]],[[1250,109],[-7,1],[-7,7],[-5,7],[-6,7],[-6,5],[-7,3]],[[1212,139],[-8,-1],[-7,-4],[-6,-1]],[[1699,10],[4,12],[3,10],[0,10],[-3,27],[-1,14],[-2,14],[-4,10],[-9,6]],[[1687,113],[-9,-1],[-9,-6],[-7,-8],[-11,-7]],[[1340,66],[-6,4],[-9,17],[-6,5],[-13,2],[-7,4],[-8,6],[-8,4],[-17,4]],[[1266,112],[-16,-3]],[[1651,91],[-7,4],[-5,8],[-9,8]],[[1630,111],[-29,-5]],[[1375,69],[-5,5],[-3,7],[-5,20],[-4,6],[-9,1]],[[1349,108],[-7,-5],[-1,-7],[2,-9],[0,-11],[-3,-10]],[[1418,69],[-25,23]],[[1393,92],[-9,-13],[-4,-10],[-5,0]],[[1814,0],[0,7],[1,3],[0,3],[-1,2],[-2,1],[-19,2],[-11,4],[-7,5],[-11,17],[-5,4]],[[1759,48],[-6,-6],[-2,-4],[-4,-13],[-3,-2],[-13,-3],[-21,-6],[-11,-4]],[[1094,0],[-8,7],[-1,2],[-1,1],[-7,8],[-5,6],[-16,7]],[[1056,31],[-13,-4],[-5,-27]],[[1082,219],[-5,-12],[-3,-7],[-18,-25],[-1,-3],[0,-4],[1,-6],[0,-7],[1,-3],[1,-2],[10,-2],[2,-4],[-2,-7],[-1,-3],[-7,-16],[-1,-3],[0,-3],[1,-4],[3,-4],[7,-11],[7,-13],[2,-11],[1,-39],[-3,-11],[0,-1]],[[2434,2566],[-1826,-10]],[[1706,0],[1,5],[3,9]],[[0,2566],[608,-10]],[[2043,598],[3,-7],[1,-2],[2,-1]],[[2051,589],[4,0],[5,-2],[19,-7],[16,-3],[4,-2],[6,-5],[2,-2],[6,0],[4,-1],[5,-2],[6,-4],[3,-3],[3,-3],[1,-2],[2,-5],[2,-9],[1,-2],[2,-1]],[[2049,588],[2,1]],[[2152,539],[3,0],[4,-2],[12,-5]],[[2142,536],[10,3]],[[2265,539],[4,0],[7,-2],[4,-1],[5,-3],[3,-7],[6,-22]],[[2235,520],[5,1],[3,2],[2,2],[2,3],[3,3],[2,2],[9,5],[2,0],[2,1]],[[2192,536],[5,-1],[34,-14],[4,-1]],[[2171,532],[6,1],[10,2],[5,1]],[[2233,758],[-4,0],[-3,1],[-3,2],[-2,1],[-2,2],[-1,2],[-1,2],[-2,9],[-1,2]],[[2214,779],[-2,0],[-3,-4],[-1,-5],[-1,-6],[0,-3],[1,-2],[0,-2],[-2,-6],[-9,-9]],[[2182,673],[6,0],[8,2],[22,10],[5,3],[11,15],[0,8],[2,5],[6,9],[10,9],[2,3],[1,4],[-1,7],[-1,3],[-4,7],[-4,2],[-2,0]],[[2243,760],[-10,-2]],[[2197,742],[-11,1]],[[2155,682],[14,-2],[3,-1],[10,-6]],[[2121,673],[5,1],[14,6],[7,2],[8,0]],[[2104,677],[7,-1],[4,-2],[6,-1]],[[2051,653],[4,1],[5,3],[4,6],[1,2],[2,1],[10,5],[8,3],[7,0],[7,3],[5,0]],[[2039,653],[12,0]],[[2043,598],[4,8],[1,3],[0,1],[0,2],[-2,1],[-1,1],[-14,4],[-2,2],[-1,3],[0,4],[0,2],[3,16],[1,4],[3,2],[4,2]],[[1804,610],[-7,1],[-4,4],[-2,5],[-3,5],[-5,6],[-5,2]],[[1778,633],[-12,-1],[-27,-4],[-7,-2],[-8,-4],[-5,-5],[-3,-6],[-2,-7],[-4,-16],[-4,-10],[-8,-10],[-7,-4],[-6,-2]],[[1427,619],[-4,1],[-49,11]],[[1374,631],[-8,-3],[-1,0]],[[1579,597],[-6,2],[-60,29],[-10,3]],[[1503,631],[-46,-2],[-4,-1],[-7,-4],[-13,-4],[-6,-1]],[[1847,599],[-7,2],[-12,9],[-13,1]],[[1815,611],[-11,-1]],[[1942,557],[-6,1],[-5,2],[-17,19],[-7,6],[-8,4],[-20,8],[-12,8]],[[1867,605],[-6,-1],[-14,-5]],[[2032,594],[-4,1],[-4,2],[-3,4],[-3,0]],[[2018,601],[-35,-9],[-10,-4],[-6,-6],[0,-5],[-1,-6],[-1,-4],[-4,-5],[-7,-3],[-12,-2]],[[1685,562],[-24,1],[-9,8],[-7,5],[-7,2],[-40,18],[-12,3]],[[1586,599],[-3,-1],[-4,-1]],[[2043,598],[-11,-4]],[[2926,737],[5,1],[19,14],[5,5],[1,3],[7,3]],[[2919,761],[2,-2],[2,-2],[0,-2],[1,-3],[0,-2],[-1,-10],[0,-3],[3,0]],[[2879,751],[6,0],[26,7],[6,3],[2,0]],[[2727,760],[3,0],[4,-2],[10,-13]],[[2683,681],[3,0],[2,2],[-1,5],[-2,7],[-17,29],[-7,18],[4,3],[53,8],[4,3],[3,2],[2,2]],[[2862,759],[15,-8],[2,0]],[[2837,750],[5,0],[10,4],[3,2],[2,1],[2,2],[3,0]],[[2767,757],[15,-5],[55,-2]],[[2744,745],[12,5],[4,4],[2,2],[2,1],[3,0]],[[2670,685],[2,0],[8,-4],[3,0]],[[2609,644],[3,1],[8,13],[14,20],[7,4],[29,3]],[[2594,654],[8,0],[2,-2],[1,-3],[1,-2],[1,-2],[2,-1]],[[2529,644],[65,10]],[[2496,651],[9,0],[14,-3],[4,-1],[2,-2],[4,-1]],[[2454,486],[3,0],[4,2],[4,4],[2,3],[1,4],[0,8],[0,4],[1,4],[3,5],[9,10],[2,4],[1,4],[-2,9],[0,3],[0,3],[2,5],[1,3],[2,3],[4,7],[4,3],[4,4],[1,1],[-1,2],[-3,4],[-3,2],[-9,2],[-1,6],[0,6],[7,42],[1,6],[1,0],[2,1],[2,1]],[[2366,524],[2,-4],[1,-2],[2,-7],[1,-3],[2,-2],[4,-3],[1,-3],[4,-8],[2,-2],[3,-2],[3,-2],[2,-1],[4,0]],[[2344,509],[7,2],[15,13]],[[2338,509],[6,0]],[[2294,504],[44,5]],[[2443,493],[2,-1],[1,-1],[4,-3],[1,-1],[3,-1]],[[2417,456],[2,2],[2,3],[2,13],[1,4],[1,3],[4,4],[10,7],[2,1],[2,0]],[[2410,489],[2,-1],[1,-2],[0,-3],[0,-4],[-2,-11],[0,-4],[1,-3],[0,-2],[2,-2],[1,-1],[2,0]],[[2397,485],[2,0],[9,4],[2,0]],[[2596,941],[3,1],[2,1],[-2,6],[0,6],[1,6],[4,4],[2,4],[4,2],[1,3],[-1,3],[-1,2],[-5,7],[-6,6],[-3,7],[-2,10],[-2,1]],[[2591,1010],[-1,-1],[-4,-8],[-4,-7],[-7,-5],[-19,-5],[-6,-7],[4,-8],[15,-13],[5,-3],[1,-7],[-1,-5],[0,-6],[2,-5],[2,-2]],[[2590,942],[6,-1]],[[2578,928],[3,0],[2,3],[2,6],[5,5]],[[2294,504],[-2,-6],[-9,-13],[-2,-5],[-1,-2],[-2,-3],[-2,-1],[-3,0],[-5,0],[-1,-1],[-1,-1],[-1,-2],[2,-2],[2,-2],[3,-2],[2,-3],[9,-11],[4,-4],[4,-2],[3,0]],[[2304,463],[1,-1],[12,-5],[2,-2],[5,-4],[2,-1]],[[2294,444],[3,1],[3,2],[2,3],[2,3],[0,3],[-1,5],[1,2]],[[2339,456],[2,-1],[4,-2],[8,-3],[2,-1],[1,-2],[2,-3],[1,-4],[1,-7],[0,-8],[-2,-28],[0,-3],[1,-1],[1,-1],[13,-3],[16,-1],[12,-3],[2,-1],[2,-3],[1,-4],[2,-11],[5,-41],[0,-4],[-3,-1]],[[2326,450],[2,0],[10,6],[1,0]],[[2410,320],[-5,0],[-12,4],[-4,4],[-3,4],[1,8],[1,3],[-1,3],[0,4],[-2,5],[-2,4],[-3,3],[-3,3],[-3,1],[-7,2],[-15,2]],[[2352,370],[-3,0],[-2,-1],[-2,-1],[-9,-9],[-2,-2],[0,-3],[2,0],[4,-6],[5,-15],[2,-4]],[[2624,337],[3,0],[10,-8],[3,-3],[1,-2],[0,-3],[-2,-4],[-4,-11],[-1,-5],[-1,-17],[-1,-6],[-3,-11],[-5,-19],[-4,-14],[-2,-5],[-13,-19],[-3,-3],[-3,-2],[-11,-4],[-13,-7],[-6,-2],[-22,-4],[-6,-2],[-6,-2],[-9,-6],[-29,-11],[-4,-3],[-2,-2],[0,-4],[5,-13],[2,-4],[10,-15],[2,-2],[1,-2],[1,-1],[0,-1],[-2,-2],[-5,-1]],[[2556,303],[6,1],[46,20],[3,2],[0,1],[1,1],[1,1],[0,4],[1,1],[3,2],[2,1],[5,0]],[[2353,331],[5,-2],[3,-2],[3,-3],[4,-5],[2,-1],[2,-1],[3,-1],[2,-1],[2,-1],[8,-8],[4,-2],[3,-2],[5,-1]],[[2347,329],[6,2]],[[2546,306],[4,-1],[4,-1],[2,-1]],[[2515,292],[4,1],[8,4],[8,7],[4,1],[7,1]],[[2420,306],[9,-2],[5,-2],[4,-3],[5,-5],[3,-2],[2,0]],[[2399,301],[4,0],[11,4],[6,1]],[[2487,299],[19,-2],[3,-2],[2,-2],[4,-1]],[[2448,292],[3,0],[3,3],[6,2],[8,1],[19,1]],[[2505,117],[-4,1],[-7,3],[-3,1],[-2,0]],[[2489,122],[-29,-7],[-19,-1],[-1,0],[-10,-7],[-3,-2],[-6,-1],[-2,-1],[-3,-3],[-4,-5],[-3,-1],[-4,-1]],[[2405,93],[-3,1],[-2,0]],[[2400,94],[-3,-2],[-3,-3],[-3,-7],[0,-4],[1,-3],[28,-25],[-1,-4],[-5,-8],[-29,-38]],[[3536,973],[2,1],[1,4],[1,4],[-4,13]],[[3528,975],[5,-1],[3,-1]],[[3487,938],[8,1],[9,4],[3,2],[2,3],[2,10],[2,4],[9,10],[2,2],[2,1],[2,0]],[[3401,940],[86,-2]],[[3382,919],[3,0],[2,2],[3,3],[1,3],[1,3],[1,4],[2,2],[2,3],[4,1]],[[3350,929],[3,-1],[17,-7],[12,-2]],[[3323,916],[5,2],[19,11],[3,0]],[[3271,926],[4,0],[23,-6]],[[3149,837],[3,1],[4,1],[9,7],[2,2],[20,26],[8,6],[8,5],[25,12],[27,7],[3,1],[2,1],[7,16],[1,3],[3,1]],[[3307,921],[11,-5],[5,0]],[[3298,920],[9,1]],[[3125,842],[8,0],[7,-4],[4,-1],[2,0],[3,0]],[[3068,829],[6,0],[51,13]],[[3040,831],[28,-2]],[[2963,763],[14,10],[3,2],[1,2],[2,5],[0,2],[0,8],[1,2],[2,2],[5,1],[4,1],[5,2],[9,8],[5,3],[9,4],[3,3],[2,2],[4,8],[3,2],[5,1]],[[2963,763],[0,-5],[5,-16],[1,-2],[2,-2],[9,-1],[3,-1],[3,-1],[2,-2],[10,-5],[3,-2],[2,-3],[6,-12],[1,-2],[2,-1],[3,-1]],[[3060,727],[3,0],[10,-3],[3,-1],[2,-3],[2,-6],[1,-8],[0,-2],[0,-3],[1,-3],[1,-2],[6,-5],[5,-5],[1,-2],[1,-3],[1,-5],[1,-4],[-1,-2],[-6,-18],[-1,-3],[-2,-13],[0,-3],[1,-3],[1,-2],[3,-1],[4,-1],[2,-1],[2,-2],[0,-4],[-1,-7],[2,-3],[2,-3],[14,-9],[3,-2],[2,-4],[4,-6],[1,-4],[0,-4],[-1,-3],[-1,-6],[-2,-3],[-1,-2],[-3,-4],[-8,-7],[-8,-6],[-1,-1],[-2,-3],[-1,-2],[0,-3],[1,-3],[2,-2],[5,-2],[4,0]],[[3015,707],[26,2],[5,2],[2,1],[3,3],[2,2],[1,3],[1,2],[1,3],[2,2],[2,0]],[[3154,544],[3,-2],[5,-3],[9,-7],[5,-3],[4,-1]],[[3112,530],[3,0],[28,9],[8,4],[3,1]],[[3197,531],[3,0],[14,-4],[8,-6],[11,-4],[3,-1],[27,-1],[5,-1],[30,-17],[11,-5],[6,-1],[3,0]],[[3180,528],[3,0],[2,0],[9,3],[3,0]],[[3331,496],[2,0],[1,-2],[-7,-17],[-3,-12],[-1,-3],[-1,-9],[-1,-3],[-3,-2],[-11,-1]],[[3318,491],[3,0],[8,5],[2,0]],[[3307,447],[-24,2]],[[3283,449],[-8,-1],[-3,-1],[-4,-3],[-4,-3],[-5,-11],[6,-8],[0,-2],[2,-3],[1,-2],[49,-2]],[[3333,419],[4,-1],[5,-3],[10,-5],[8,-5],[1,-2],[1,-2],[1,-3],[-1,-3],[-1,-9],[-2,-3],[-5,-10],[-2,-3],[0,-3],[-1,-3],[-1,-9],[-1,-3],[-2,-7],[-4,-7],[-5,-10],[-2,-2],[-1,-3],[1,-2],[3,-1]],[[3317,413],[7,1],[6,4],[3,1]],[[3583,334],[1,0],[3,-10],[-2,-22],[-3,-12],[-6,-18],[-3,-3],[-3,-1]],[[3471,311],[66,1],[3,1],[5,3],[3,2],[4,3],[4,2],[12,3],[7,3],[6,5],[2,0]],[[3352,325],[3,0],[4,-2],[2,-2],[2,-3],[1,-2],[1,-2],[2,-2],[3,-1],[18,-2]],[[3339,320],[6,2],[7,3]],[[3425,319],[26,-3],[20,-5]],[[3388,309],[9,0],[8,3],[11,5],[4,2],[5,0]],[[3570,268],[-2,0],[-1,0],[-1,0],[-3,2]],[[3563,270],[-1,0],[0,-2],[2,-5],[1,-5],[2,-6],[2,-10],[0,-3],[1,-3],[5,-5],[18,-10],[12,-8],[3,-1],[2,-3],[1,-2],[-1,-2],[-1,-3],[-5,-9],[-1,-3],[-1,-3],[-1,-6],[-4,-16],[-1,-3],[-1,-2],[-2,-2],[-4,-4],[-1,-1],[-2,-3],[0,-2],[2,-2]],[[3676,173],[12,-1],[6,-1],[3,-3],[2,-3],[0,-3],[-1,-3],[-5,-11],[-1,-3],[0,-3],[0,-6],[1,-5],[1,-2],[3,-2],[5,-1]],[[3588,146],[12,2],[60,18],[12,6],[4,1]],[[3873,140],[3,0],[4,-1],[3,-2],[2,-3],[3,-4],[3,-7],[2,-8],[2,-5],[5,-5],[7,-5]],[[3783,113],[27,0],[17,3],[9,2],[16,10],[6,5],[8,5],[4,2],[3,0]],[[3736,127],[47,-14]],[[3702,126],[34,1]],[[2244,82],[2,0],[2,-1],[2,-5],[5,-6],[1,-2],[1,-2],[0,-2],[0,-3],[-2,-3],[-31,-32],[-4,-5],[-2,-3],[-1,-2],[1,-2],[1,-1],[10,-1],[1,-1],[1,-2],[1,-3],[0,-3],[1,-3]],[[2218,56],[4,0],[6,2],[2,1],[1,2],[0,2],[-1,2],[0,2],[-1,3],[-1,3],[2,4],[1,2],[3,1],[10,2]],[[2319,76],[4,-2],[2,-2],[0,-2],[-1,-7],[1,-5],[2,-3],[8,-6],[1,-4],[1,-5],[-1,-7],[1,-7],[1,-4],[2,-3],[35,-19]],[[2263,0],[0,3],[0,4],[2,4],[3,5],[4,4],[14,11],[2,2],[20,34],[5,8],[6,1]],[[2171,59],[2,-1],[2,0]],[[2140,20],[2,0],[3,2],[3,7],[3,5],[3,3],[4,3],[3,3],[6,12],[3,3],[1,1]],[[2187,58],[31,-2]],[[2175,58],[12,0]],[[2127,32],[2,-1],[2,-2],[2,-3],[2,-4],[1,-2],[1,0],[3,0]],[[2096,0],[0,3],[2,5],[3,4],[3,4],[19,15],[2,1],[2,0]],[[3638,2919],[7,4],[32,14],[4,73],[-11,185]],[[3401,2945],[7,-5],[19,-21],[3,-2],[4,-1]],[[3435,2878],[-9,13],[-15,17],[-13,17],[-3,16],[6,4]],[[3057,2945],[96,-5],[61,-16]],[[2962,2934],[95,11]],[[3358,2941],[2,-4],[1,-5],[-2,-5],[-4,-3],[6,-10],[10,-7],[33,-13],[21,-12],[10,-4]],[[3343,2932],[7,3],[8,6]],[[2877,2939],[85,-5]],[[2434,2566],[210,229],[233,144]],[[3312,2937],[5,0],[18,-5],[8,0]],[[3284,2905],[2,6],[0,8],[0,3],[2,2],[3,3],[3,3],[18,7]],[[3243,2931],[30,-18],[8,-7],[3,-1]],[[3241,2921],[2,10]],[[3234,2927],[3,-5],[4,-1]],[[3214,2924],[20,3]],[[3466,2922],[16,-5],[14,-13],[12,-19],[0,-4],[-1,-3],[1,-3],[5,-4],[4,0]],[[3434,2916],[5,1],[9,3],[18,2]],[[3627,2920],[11,-1]],[[3517,2871],[25,6],[4,6],[4,8],[5,8],[7,5],[9,4],[30,2],[26,10]],[[2434,2566],[-47,-92],[-9,-125],[8,-85],[6,-27],[9,-25],[-90,-6],[-12,-44],[31,-49],[36,-1],[35,-8],[6,-44],[16,-34],[140,-131],[7,-71],[19,-54],[54,-51],[80,-11],[62,-37],[36,-36],[29,-37],[-3,-58],[-17,-46],[-93,-162],[31,-14],[29,-7]],[[2812,1317],[11,-16],[33,0],[31,-18],[-25,-37],[-23,-51],[6,-23],[3,-17],[5,-13],[11,-19],[31,-26],[43,-19],[30,-27],[-25,-19],[69,-11],[12,-12],[1,0]],[[2797,1311],[15,6]],[[3418,4096],[0,-31],[31,-30]],[[3530,4045],[60,-4],[5,-53],[-7,-26],[-3,-26],[-32,-35],[-48,-28],[-39,-2],[-11,-18],[-6,-23],[-17,-12],[10,-17],[28,-16],[9,-20],[37,-2],[33,-14],[-36,-14],[8,-38],[43,-25],[44,-15],[-50,-27],[-14,-44],[-25,-38],[-34,-121],[9,-11],[9,-26],[14,-64],[-65,-18],[1,-20],[-7,-28],[-15,-21],[-17,-8],[20,-12],[46,-49],[75,-20]],[[3449,4035],[81,10]],[[3555,3150],[19,39],[96,6]],[[4096,3168],[-5,6],[-35,6],[-28,25],[-105,56]],[[3923,3261],[-60,-46]],[[3863,3215],[-23,23]],[[3840,3238],[-36,-14],[-35,-27]],[[3769,3197],[-71,12]],[[3698,3209],[-28,-14]],[[967,1075],[-12,15],[-7,33],[-30,10],[-25,16],[-17,5],[-30,2],[-39,14],[-15,8],[-22,33],[2,22],[-14,14],[-19,7],[9,16],[32,47],[88,271],[12,18],[-2,39],[-39,255],[-105,374],[-80,208],[-46,74]],[[1234,701],[-2,0],[-19,19],[-1,6],[-9,7],[-2,15],[-27,11],[-37,45],[-17,6],[-10,19],[-16,22],[-25,23],[-15,6],[-26,8],[-20,30],[-4,45],[3,38],[-8,18],[5,14],[-20,17],[8,17],[-10,11]],[[982,1078],[-15,-3]],[[0,2149],[6,-4],[28,-35],[5,-392],[35,-28]],[[89,1694],[22,-10],[21,-16],[4,-16],[35,-43],[85,-65],[0,-34],[-33,0],[-25,-30],[10,-20],[3,-35],[-14,-40]],[[74,1690],[15,4]],[[197,1385],[-37,21]],[[160,1406],[-3,-52],[-26,-48],[-9,-46],[-32,-31],[6,-50]],[[120,1228],[0,-19],[14,-1],[2,-36],[25,-23],[11,-6],[-17,-19],[-155,-78]],[[96,1179],[11,42],[13,7]],[[3916,835],[18,2],[8,-4],[-3,-12],[-7,-4],[-46,6],[-8,-1],[-8,-4],[-8,-8],[-19,-30],[-10,-9],[-12,-5],[-25,-2],[-9,-2],[-26,-12],[-6,-7],[3,-9],[26,-6],[8,-9],[-13,-1],[-10,-6],[-8,-9],[-14,-25],[-38,-41],[-11,-6],[-13,-4],[-14,0],[-11,-5],[-14,-9],[-12,-3],[-7,10],[-13,-6],[-13,0],[-26,6],[-11,-1],[-42,-7],[-8,-3],[-5,-4],[-3,1],[-3,2],[-3,1],[-24,0],[-10,4],[-12,7],[-9,2],[-7,-10],[-3,0],[-3,9],[-7,7],[-9,4],[-15,3],[-8,5],[-20,18],[-3,3],[-5,1],[-5,-2],[-4,-3],[-4,-1],[-5,4],[-6,4],[-25,2],[-17,5],[-60,33],[-9,1],[-8,-6],[-6,-6],[-7,-4],[-8,-1],[-8,2],[-4,3],[-4,3],[-3,4],[-2,14],[-3,5],[-3,4],[-3,6],[1,1],[4,3],[-1,1],[-1,1],[-3,1],[2,0],[-5,6],[-2,11],[2,10],[9,5],[29,7],[10,0],[40,-8],[5,1],[3,2],[8,15],[4,4],[8,3],[20,-3],[9,2],[7,7],[13,15],[7,5],[110,22],[2,3],[5,-1],[7,-3],[5,2],[7,9],[4,3],[9,3],[19,2],[14,5],[4,-1],[4,-1],[4,-1],[5,1],[4,2],[3,2],[31,12],[9,1],[9,-2],[22,-13],[34,-3],[4,1],[4,4],[7,7],[4,3],[15,3],[30,12],[15,3],[10,4],[4,2],[5,0],[13,-4],[31,6],[14,-7],[10,0],[10,1],[8,3],[18,1],[8,1],[5,4],[7,4],[24,3],[7,-2],[5,2],[25,-2],[0,-3],[-8,-2],[-12,-7],[-6,-2],[-8,3],[-4,0],[-3,-9],[-6,-12],[-2,-3],[-5,-2],[-9,0],[-4,-1],[-4,-5],[-7,-14],[-3,-3],[0,-2],[2,-5],[4,-4],[4,-3],[53,0]],[[342,75],[4,-3],[2,-7],[-11,-6],[-3,-7],[-18,-16],[-3,0],[-13,4],[-9,-9],[-9,-12],[-16,11],[-5,3],[-2,-1],[-7,-3],[-8,6],[-19,10],[-8,-1],[-5,-11],[-4,5],[-5,1],[-4,-3],[-5,-3],[-4,8],[-3,20],[-4,9],[-16,23],[-3,5],[0,1],[-7,22],[0,1],[-2,0],[-2,0],[-2,0],[-2,3],[1,10],[6,4],[31,-1],[6,-3],[5,-5],[14,-26],[3,-4],[7,3],[10,11],[7,4],[9,1],[21,-2],[4,-4],[5,-7],[4,-9],[2,-6],[20,-12],[5,0],[13,3],[3,-1],[6,-5],[11,-1]],[[4096,2790],[-7,3],[-7,-1],[-13,-7],[-8,-3],[-5,0],[-6,0],[-6,2],[-5,2],[-17,12],[-8,2],[-19,-1],[-6,-3],[-6,-3],[-5,-6],[-3,-9],[1,-10],[5,-5],[12,-4],[4,-5],[-3,-13],[-11,-4],[-13,4],[-9,9],[3,0],[-7,14],[-11,9],[-11,3],[-11,-4],[5,-4],[-11,-8],[-41,7],[-15,-2],[0,-4],[4,-1],[3,1],[3,1],[3,3],[3,-4],[3,-2],[4,-1],[4,0],[-6,-8],[-12,0],[-32,6],[-9,7],[-15,16],[-39,29],[-22,7],[-19,-8],[0,-4],[7,3],[8,2],[8,-1],[6,-4],[-6,-3],[-8,-2],[-14,-2],[-6,-3],[-6,-6],[-5,-5],[-7,4],[4,4],[11,10],[-51,5],[-41,21],[-12,15],[-6,5],[-8,4],[-9,0],[-9,-4],[-17,-12],[-12,-4],[-7,-7],[-4,-2],[-3,2],[-3,2],[-2,4],[-3,3],[-7,3],[-9,3],[-8,0],[-7,-4],[-7,-8],[-8,-4],[-8,-1],[-11,0],[-42,15],[0,-11],[-6,0],[-44,32],[-14,7],[-130,4],[-6,2],[-28,16],[-8,2],[-6,-3],[5,-3],[2,-1],[0,-3],[-7,1],[-3,2],[1,-11],[-5,0],[-6,3],[-7,1],[2,-11],[-6,-2],[-27,4],[-14,5],[-9,1],[-1,-2],[1,-5],[3,-5],[2,-2],[2,-1],[-1,-3],[-1,-2],[-2,-1],[-3,0],[-4,3],[-2,0],[-37,-3],[0,3],[2,1],[8,3],[-4,6],[-3,2],[-10,-1],[-11,6],[-7,1],[-5,-11],[-6,-2],[-13,-1],[-3,-1],[-6,-5],[-2,-1],[-3,2],[-1,3],[-2,3],[-3,2],[-10,2],[-6,1],[-5,-3],[-4,-6],[-3,-12],[-3,-3],[-4,0],[-1,3],[-1,3],[-3,1],[-3,-1],[-9,-6],[-6,-4],[-6,-2],[-15,-1],[4,7],[11,9],[3,7],[-3,5],[-21,16],[-16,24],[-3,6],[1,6],[3,3],[3,2],[1,1],[0,5],[2,4],[2,2],[3,2],[2,-7],[1,-4],[-1,-8],[7,-3],[8,2],[6,6],[-4,3],[1,3],[3,3],[5,1],[-5,8],[-7,3],[-22,-1],[-5,-1],[-4,-2],[-4,-3],[-11,-13],[-3,-1],[-6,-5],[0,-11],[4,-12],[3,-8],[2,-3],[3,-2],[2,-4],[1,-6],[1,-6],[3,-4],[8,-6],[0,-1],[0,-2],[-1,0],[0,-1],[-5,-2],[-5,1],[-4,-1],[0,-8],[-2,2],[-4,5],[-2,3],[-4,-8],[-5,-9],[-6,-5],[-7,1],[1,1],[1,4],[0,2],[-6,2],[-3,7],[0,8],[3,4],[6,2],[-2,4],[-6,3],[-6,2],[-15,-2],[-6,-4],[-2,-6],[2,-3],[7,-4],[1,-2],[-2,-3],[-13,-4],[9,-10],[3,-6],[-3,-2],[-6,-3],[-9,-10],[-6,-2],[2,4],[-5,0],[-9,-3],[-5,-1],[-3,2],[-3,4],[-2,1],[-3,-7],[-4,5],[-4,3],[-4,2],[-6,1],[0,4],[7,5],[9,13],[7,3],[-5,7],[-8,-4],[-13,-16],[-6,-10],[-3,-11],[-5,-9],[-7,-7],[-8,-2],[-9,1],[-8,4],[-6,6],[-8,5],[-5,-6],[-11,-37],[-2,-9],[-1,-13],[-2,-11],[-5,-10],[-17,-22],[-3,-7],[1,-8],[5,-9],[4,-10],[-4,-10],[-7,-8],[-7,-5],[-20,-11],[-6,9],[-13,-5],[-10,-11],[2,-14],[-26,-13],[-4,3],[-2,-2],[-4,-8],[-5,-3],[-3,2],[-6,7],[-13,12],[-6,3],[-7,2],[-9,-2],[-17,-7],[-8,-2],[-10,1],[-5,-1],[-3,-2],[-8,-7],[-10,-6],[-1,-11],[4,-12],[3,-7],[6,-11],[5,-10],[3,-11],[1,-13],[1,-5],[6,-9],[1,-3],[1,-3],[3,-5],[1,-3],[-1,-2],[-2,-1],[-1,-1],[-1,-1],[-2,-6],[-3,-4],[-4,-3],[-4,-1],[2,5],[-1,4],[-4,3],[-4,2],[-4,-2],[-3,-4],[-2,-4],[-1,-4],[1,-11],[3,-5],[6,0],[7,5],[19,-15],[4,-6],[-3,-4],[3,-3],[-6,-8],[-8,1],[-19,10],[5,-8],[3,-9],[0,-10],[-5,-11],[-8,-7],[-27,-7],[-15,-10],[-13,-12],[-4,-9],[-1,-9],[4,-7],[6,-7],[-10,-26],[1,-8],[6,-10],[1,-9],[-2,-5],[-4,-4],[-1,-3],[3,-7],[5,-4],[7,-2],[6,0],[6,4],[-2,4],[0,3],[3,2],[4,2],[3,-19],[-3,-16],[-4,-16],[-4,-16],[1,-10],[3,-37],[9,-24],[-5,-7],[-7,-6],[-9,-3],[-10,-1],[-5,-2],[-2,-4],[1,-5],[3,-6],[14,8],[5,1],[-6,-12],[-2,-5],[6,-3],[5,-8],[1,-7],[-3,-3],[-4,1],[-10,13],[-6,-3],[-29,6],[2,5],[1,2],[-2,1],[-4,4],[-2,2],[4,4],[11,7],[3,4],[-2,3],[-12,12],[-2,6],[-2,6],[0,13],[2,3],[11,1],[5,1],[-4,2],[-4,3],[-3,4],[-2,5],[2,5],[-1,4],[-3,4],[-5,1],[0,4],[6,-1],[3,3],[-1,5],[-6,4],[-11,-6],[-11,0],[-11,4],[-9,9],[-1,2],[-2,5],[-2,3],[-2,2],[-3,0],[-2,2],[-5,4],[-4,4],[-1,6],[5,7],[-9,7],[-26,18],[5,2],[2,0],[3,-2],[2,3],[-8,4],[-8,6],[-8,9],[-6,10],[-4,10],[-7,24],[-5,10],[-7,7],[-29,21],[-7,4],[-17,1],[-6,4],[-7,8],[-4,9],[2,9],[1,4],[1,6],[-1,11],[2,6],[3,1],[16,-2],[6,0],[3,6],[1,20],[1,4],[3,2],[4,0],[5,3],[2,4],[0,3],[-6,-2],[-7,8],[-21,2],[-8,6],[-7,6],[0,4],[3,6],[2,1],[11,6],[1,2],[1,3],[1,3],[4,2],[10,-14],[3,-3],[16,-1],[3,-1],[4,6],[1,4],[1,14],[1,6],[2,3],[4,0],[-1,3],[-1,6],[0,2],[8,1],[7,6],[2,9],[-5,9],[10,10],[2,5],[-3,3],[-4,1],[5,4],[8,4],[7,1],[-1,-3],[-1,-5],[0,-2],[10,-3],[5,0],[5,3],[-7,3],[-1,5],[1,5],[-1,7],[-3,5],[-4,4],[-20,12],[-7,8],[-1,9],[8,12],[-4,2],[-3,2],[-2,3],[-1,5],[1,2],[4,1],[3,2],[5,16],[7,5],[10,0],[7,-3],[2,13],[5,9],[6,3],[2,-5],[3,-9],[17,-21],[6,15],[4,4],[8,2],[6,2],[6,-1],[6,-1],[16,-10],[4,0],[6,3],[11,9],[5,6],[2,6],[-4,-4],[-3,-1],[-9,1],[-4,2],[0,5],[2,10],[-1,5],[-5,-1],[-5,-2],[-4,0],[-2,3],[-2,12],[-3,5],[5,6],[7,2],[3,4],[-3,10],[35,38],[11,9],[12,4],[12,0],[13,-5],[6,5],[5,8],[6,8],[9,4],[10,2],[18,7],[11,1],[-1,6],[5,12],[1,9],[2,6],[5,5],[32,10],[4,3],[3,1],[3,-1],[2,0],[1,4],[0,12],[8,48],[5,9],[6,5],[3,-1],[3,-2],[6,-2],[6,2],[-2,5],[-8,10],[55,4],[17,-4],[15,0],[4,3],[5,16],[4,6],[16,-8],[6,-1],[7,14],[7,2],[5,-3],[-1,-11],[-3,-3],[-4,-2],[-2,-2],[2,-7],[4,-4],[4,0],[5,3],[3,3],[5,8],[3,3],[10,3],[0,5],[-2,6],[0,4],[8,5],[3,-9],[1,-13],[4,-7],[5,-2],[21,-16],[24,-9],[8,-7],[7,-3],[9,1],[17,4],[48,2],[36,15],[7,1],[7,2],[16,10],[5,2],[3,0],[5,-3],[2,-1],[4,1],[6,5],[4,2],[7,-1],[13,-5],[6,-2],[12,6],[12,12],[13,8],[14,-8],[-8,-5],[2,-7],[4,-7],[-3,-6],[0,-3],[8,0],[6,2],[6,2],[5,3],[4,4],[3,3],[3,3],[5,1],[4,-8],[3,-2],[1,4],[7,7],[18,-1],[29,-8],[36,-21],[13,-3],[3,-4],[1,-11],[0,-19],[2,-7],[4,-7],[4,-1],[2,10],[30,-18],[8,-7],[3,-1],[2,6],[0,8],[0,3],[2,2],[3,3],[3,3],[18,7],[5,0],[18,-5],[8,0],[7,3],[8,7],[2,-5],[1,-5],[-2,-5],[-4,-3],[6,-9],[10,-7],[33,-14],[21,-12],[10,-4],[-9,13],[-15,17],[-13,17],[-3,17],[6,3],[7,-5],[19,-21],[3,-2],[4,0],[4,0],[10,3],[18,2],[16,-5],[14,-13],[12,-19],[0,-4],[-1,-3],[1,-3],[5,-4],[4,0],[25,6],[4,6],[4,8],[5,8],[7,5],[9,4],[30,2],[26,10],[57,-5],[11,5],[-7,2],[-5,5],[-1,5],[8,2],[3,-1],[6,-5],[3,-1],[4,1],[11,6],[8,-7],[13,-4],[26,1],[14,4],[6,0],[24,-16],[29,-13],[7,-2],[5,0],[17,7],[6,0],[5,-2],[5,-7],[7,-17],[5,-5],[8,5],[5,-8],[5,-24],[5,-10],[3,-3],[12,-7],[4,-1],[6,2],[1,6],[-1,15],[2,3],[10,8],[3,5],[-1,5],[-6,12],[-1,6],[1,28],[2,16],[5,11],[4,-7],[3,-9],[0,-11],[-3,-9],[9,-6],[3,8],[0,12],[2,9],[4,4],[3,3],[4,1],[4,1],[2,-3],[-3,-5],[-7,-10],[0,-5],[2,-6],[2,-7],[3,-3],[2,2],[5,10],[2,2],[3,3],[1,5],[0,7],[1,5],[6,7],[7,9],[16,10],[2,5],[2,6],[2,5],[5,2],[8,-2],[23,-9],[5,0],[10,4],[5,0],[2,-1],[0,-179]],[[194,33],[5,3],[4,3],[-6,-20],[-5,-19],[-31,0],[5,6],[15,25],[8,11],[1,-1],[4,-8]],[[3827,1445],[-2,-2],[-3,-4],[1,0],[2,-2],[1,-3],[0,-3],[-7,-6],[-35,-1],[-3,10],[-7,4],[-17,-2],[-28,6],[-5,-1],[-8,-4],[-9,2],[-17,7],[-46,-2],[-54,13],[-6,5],[-8,4],[-10,-1],[-16,-5],[-6,2],[-10,4],[-5,2],[-5,-2],[-9,-7],[-5,-2],[3,11],[-4,9],[-6,7],[-3,7],[1,4],[6,12],[2,3],[5,-1],[9,-2],[5,0],[17,2],[8,2],[6,5],[5,5],[8,5],[9,5],[6,0],[4,-1],[5,-6],[4,-3],[15,0],[7,-5],[81,-23],[82,-10],[22,6],[20,10],[10,2],[10,-2],[14,-6],[6,0],[10,2],[5,-1],[5,-5],[-6,-2],[-7,-5],[-12,-11],[-5,4],[-4,-1],[-10,-13],[-2,0],[-3,-1],[-1,-1],[-2,-7],[0,-2],[-8,-5]],[[2109,413],[4,-4],[3,0],[-1,-1],[-3,-6],[-4,-2],[-15,0],[-27,-10],[-7,2],[-15,8],[-3,1],[-5,2],[-18,12],[-3,-1],[-25,-11],[-17,-13],[-7,-3],[-8,0],[-5,2],[-11,8],[-6,3],[-15,0],[-9,-8],[-16,-23],[-12,-11],[-11,-5],[-10,4],[-10,15],[5,3],[4,-3],[3,-5],[3,-2],[4,1],[11,6],[0,9],[14,12],[4,9],[1,6],[3,3],[3,1],[1,3],[-2,3],[-4,5],[-5,4],[-3,2],[-1,1],[-15,23],[-3,4],[-2,1],[-5,1],[-3,1],[-1,2],[-2,8],[-1,3],[-2,3],[-3,3],[-2,2],[-2,4],[3,3],[4,1],[3,-1],[3,-3],[27,-9],[55,-9],[13,1],[12,7],[3,-4],[3,-8],[3,-4],[0,-2],[1,-2],[3,-2],[2,1],[2,3],[2,3],[2,-1],[8,-5],[20,-1],[7,-3],[0,-4],[0,-12],[2,-5],[3,-3],[23,-1],[19,-7],[27,-2],[6,-3]],[[4096,2790],[-7,3],[-7,-1],[-13,-7],[-8,-3],[-5,0],[-6,0],[-6,2],[-5,2],[-17,12],[-8,2],[-19,-1],[-6,-3],[-6,-3],[-5,-6],[-3,-9],[1,-10],[5,-5],[12,-4],[4,-5],[-3,-13],[-11,-4],[-13,4],[-9,9],[3,0],[-7,14],[-11,9],[-11,3],[-11,-4],[5,-4],[-11,-8],[-41,7],[-15,-2],[0,-4],[4,-1],[3,1],[3,1],[3,3],[3,-4],[3,-2],[4,-1],[4,0],[-6,-8],[-12,0],[-32,6],[-9,7],[-15,16],[-39,29],[-22,7],[-19,-8],[0,-4],[7,3],[8,2],[8,-1],[6,-4],[-6,-3],[-8,-2],[-14,-2],[-6,-3],[-6,-6],[-5,-5],[-7,4],[4,4],[11,10],[-51,5],[-41,21],[-12,15],[-6,5],[-8,4],[-9,0],[-9,-4],[-17,-12],[-12,-4],[-7,-7],[-4,-2],[-3,2],[-3,2],[-2,4],[-3,3],[-7,3],[-9,3],[-8,0],[-7,-4],[-7,-8],[-8,-4],[-8,-1],[-11,0],[-42,15],[0,-11],[-6,0],[-44,32],[-14,7],[-130,4],[-6,2],[-28,16],[-8,2],[-6,-3],[5,-3],[2,-1],[0,-3],[-7,1],[-3,2],[1,-11],[-5,0],[-6,3],[-7,1],[2,-11],[-6,-2],[-27,4],[-14,5],[-9,1],[-1,-2],[1,-5],[3,-5],[2,-2],[2,-1],[-1,-3],[-1,-2],[-2,-1],[-3,0],[-4,3],[-2,0],[-37,-3],[0,3],[2,1],[8,3],[-4,6],[-3,2],[-10,-1],[-11,6],[-7,1],[-5,-11],[-6,-2],[-13,-1],[-3,-1],[-6,-5],[-2,-1],[-3,2],[-1,3],[-2,3],[-3,2],[-10,2],[-6,1],[-5,-3],[-4,-6],[-3,-12],[-3,-3],[-4,0],[-1,3],[-1,3],[-3,1],[-3,-1],[-9,-6],[-6,-4],[-6,-2],[-15,-1],[4,7],[11,9],[3,7],[-3,5],[-21,16],[-16,24],[-3,6],[1,6],[3,3],[3,2],[1,1],[0,5],[2,4],[2,2],[3,2],[2,-7],[1,-4],[-1,-8],[7,-3],[8,2],[6,6],[-4,3],[1,3],[3,3],[5,1],[-5,8],[-7,3],[-22,-1],[-5,-1],[-4,-2],[-4,-3],[-11,-13],[-3,-1],[-6,-5],[0,-11],[4,-12],[3,-8],[2,-3],[3,-2],[2,-4],[1,-6],[1,-6],[3,-4],[8,-6],[0,-1],[0,-2],[-1,0],[0,-1],[-5,-2],[-5,1],[-4,-1],[0,-8],[-2,2],[-4,5],[-2,3],[-4,-8],[-5,-9],[-6,-5],[-7,1],[1,1],[1,4],[0,2],[-6,2],[-3,7],[0,8],[3,4],[6,2],[-2,4],[-6,3],[-6,2],[-15,-2],[-6,-4],[-2,-6],[2,-3],[7,-4],[1,-2],[-2,-3],[-13,-4],[9,-10],[3,-6],[-3,-2],[-6,-3],[-9,-10],[-6,-2],[2,4],[-5,0],[-9,-3],[-5,-1],[-3,2],[-3,4],[-2,1],[-3,-7],[-4,5],[-4,3],[-4,2],[-6,1],[0,4],[7,5],[9,13],[7,3],[-5,7],[-8,-4],[-13,-16],[-6,-10],[-3,-11],[-5,-9],[-7,-7],[-8,-2],[-9,1],[-8,4],[-6,6],[-8,5],[-5,-6],[-11,-37],[-2,-9],[-1,-13],[-2,-11],[-5,-10],[-17,-22],[-3,-7],[1,-8],[5,-9],[4,-10],[-4,-10],[-7,-8],[-7,-5],[-20,-11],[-6,9],[-13,-5],[-10,-11],[2,-14],[-26,-13],[-4,3],[-2,-2],[-4,-8],[-5,-3],[-3,2],[-6,7],[-13,12],[-6,3],[-7,2],[-9,-2],[-17,-7],[-8,-2],[-10,1],[-5,-1],[-3,-2],[-8,-7],[-10,-6],[-1,-11],[4,-12],[3,-7],[6,-11],[5,-10],[3,-11],[1,-13],[1,-5],[6,-9],[1,-3],[1,-3],[3,-5],[1,-3],[-1,-2],[-2,-1],[-1,-1],[-1,-1],[-2,-6],[-3,-4],[-4,-3],[-4,-1],[2,5],[-1,4],[-4,3],[-4,2],[-4,-2],[-3,-4],[-2,-4],[-1,-4],[1,-11],[3,-5],[6,0],[7,5],[19,-15],[4,-6],[-3,-4],[3,-3],[-6,-8],[-8,1],[-19,10],[5,-8],[3,-9],[0,-10],[-5,-11],[-8,-7],[-27,-7],[-15,-10],[-13,-12],[-4,-9],[-1,-9],[4,-7],[6,-7],[-10,-26],[1,-8],[6,-10],[1,-9],[-2,-5],[-4,-4],[-1,-3],[3,-7],[5,-4],[7,-2],[6,0],[6,4],[-2,4],[0,3],[3,2],[4,2],[3,-19],[-3,-16],[-4,-16],[-4,-16],[1,-10],[3,-37],[9,-24],[-5,-7],[-7,-6],[-9,-3],[-10,-1],[-5,-2],[-2,-4],[1,-5],[3,-6],[14,8],[5,1],[-6,-12],[-2,-5],[6,-3],[5,-8],[1,-7],[-3,-3],[-4,1],[-10,13],[-6,-3],[-29,6],[2,5],[1,2],[-2,1],[-4,4],[-2,2],[4,4],[11,7],[3,4],[-2,3],[-12,12],[-2,6],[-2,6],[0,13],[2,3],[11,1],[5,1],[-4,2],[-4,3],[-3,4],[-2,5],[2,5],[-1,4],[-3,4],[-5,1],[0,4],[6,-1],[3,3],[-1,5],[-6,4],[-11,-6],[-11,0],[-11,4],[-9,9],[-1,2],[-2,5],[-2,3],[-2,2],[-3,0],[-2,2],[-5,4],[-4,4],[-1,6],[5,7],[-9,7],[-26,18],[5,2],[2,0],[3,-2],[2,3],[-8,4],[-8,6],[-8,9],[-6,10],[-4,10],[-7,24],[-5,10],[-7,7],[-29,21],[-7,4],[-17,1],[-6,4],[-7,8],[-4,9],[2,9],[1,4],[1,6],[-1,11],[2,6],[3,1],[16,-2],[6,0],[3,6],[1,20],[1,4],[3,2],[4,0],[5,3],[2,4],[0,3],[-6,-2],[-7,8],[-21,2],[-8,6],[-7,6],[0,4],[3,6],[2,1],[11,6],[1,2],[1,3],[1,3],[4,2],[10,-14],[3,-3],[16,-1],[3,-1],[4,6],[1,4],[1,14],[1,6],[2,3],[4,0],[-1,3],[-1,6],[0,2],[8,1],[7,6],[2,9],[-5,9],[10,10],[2,5],[-3,3],[-4,1],[5,4],[8,4],[7,1],[-1,-3],[-1,-5],[0,-2],[10,-3],[5,0],[5,3],[-7,3],[-1,5],[1,5],[-1,7],[-3,5],[-4,4],[-20,12],[-7,8],[-1,9],[8,12],[-4,2],[-3,2],[-2,3],[-1,5],[1,2],[4,1],[3,2],[5,16],[7,5],[10,0],[7,-3],[2,13],[5,9],[6,3],[2,-5],[3,-9],[17,-21],[6,15],[4,4],[8,2],[6,2],[6,-1],[6,-1],[16,-10],[4,0],[6,3],[11,9],[5,6],[2,6],[-4,-4],[-3,-1],[-9,1],[-4,2],[0,5],[2,10],[-1,5],[-5,-1],[-5,-2],[-4,0],[-2,3],[-2,12],[-3,5],[5,6],[7,2],[3,4],[-3,10],[35,38],[11,9],[12,4],[12,0],[13,-5],[6,5],[5,8],[6,8],[9,4],[10,2],[18,7],[11,1],[-1,6],[5,12],[1,9],[2,6],[5,5],[32,10],[4,3],[3,1],[3,-1],[2,0],[1,4],[0,12],[8,48],[5,9],[6,5],[3,-1],[3,-2],[6,-2],[6,2],[-2,5],[-8,10],[55,4],[17,-4],[15,0],[4,3],[5,16],[4,6],[16,-8],[6,-1],[7,14],[7,2],[5,-3],[-1,-11],[-3,-3],[-4,-2],[-2,-2],[2,-7],[4,-4],[4,0],[5,3],[3,3],[5,8],[3,3],[10,3],[0,5],[-2,6],[0,4],[8,5],[3,-9],[1,-13],[4,-7],[5,-2],[21,-16],[24,-9],[8,-7],[7,-3],[9,1],[17,4],[48,2],[36,15],[7,1],[7,2],[16,10],[5,2],[3,0],[5,-3],[2,-1],[4,1],[6,5],[4,2],[7,-1],[13,-5],[6,-2],[12,6],[12,12],[13,8],[14,-8],[-8,-5],[2,-7],[4,-7],[-3,-6],[0,-3],[8,0],[6,2],[6,2],[5,3],[4,4],[3,3],[3,3],[5,1],[4,-8],[3,-2],[1,4],[7,7],[18,-1],[29,-8],[36,-21],[13,-3],[3,-4],[1,-11],[0,-19],[2,-7],[4,-7],[4,-1],[2,10],[30,-18],[8,-7],[3,-1],[2,6],[0,8],[0,3],[2,2],[3,3],[3,3],[18,7],[5,0],[18,-5],[8,0],[7,3],[8,7],[2,-5],[1,-5],[-2,-5],[-4,-3],[6,-9],[10,-7],[33,-14],[21,-12],[10,-4],[-9,13],[-15,17],[-13,17],[-3,17],[6,3],[7,-5],[19,-21],[3,-2],[4,0],[4,0],[10,3],[18,2],[16,-5],[14,-13],[12,-19],[0,-4],[-1,-3],[1,-3],[5,-4],[4,0],[25,6],[4,6],[4,8],[5,8],[7,5],[9,4],[30,2],[26,10],[57,-5],[11,5],[-7,2],[-5,5],[-1,5],[8,2],[3,-1],[6,-5],[3,-1],[4,1],[11,6],[8,-7],[13,-4],[26,1],[14,4],[6,0],[24,-16],[29,-13],[7,-2],[5,0],[17,7],[6,0],[5,-2],[5,-7],[7,-17],[5,-5],[8,5],[5,-8],[5,-24],[5,-10],[3,-3],[12,-7],[4,-1],[6,2],[1,6],[-1,15],[2,3],[10,8],[3,5],[-1,5],[-6,12],[-1,6],[1,28],[2,16],[5,11],[4,-7],[3,-9],[0,-11],[-3,-9],[9,-6],[3,8],[0,12],[2,9],[4,4],[3,3],[4,1],[4,1],[2,-3],[-3,-5],[-7,-10],[0,-5],[2,-6],[2,-7],[3,-3],[2,2],[5,10],[2,2],[3,3],[1,5],[0,7],[1,5],[6,7],[7,9],[16,10],[2,5],[2,6],[2,5],[5,2],[8,-2],[23,-9],[5,0],[10,4],[5,0],[2,-1]],[[2109,413],[4,-4],[3,0],[-1,-1],[-3,-6],[-4,-2],[-15,0],[-27,-10],[-7,2],[-15,8],[-3,1],[-5,2],[-18,12],[-3,-1],[-25,-11],[-17,-13],[-7,-3],[-8,0],[-5,2],[-11,8],[-6,3],[-15,0],[-9,-8],[-16,-23],[-12,-11],[-11,-5],[-10,4],[-10,15],[5,3],[4,-3],[3,-5],[3,-2],[4,1],[11,6],[0,9],[14,12],[4,9],[1,6],[3,3],[3,1],[1,3],[-2,3],[-4,5],[-5,4],[-3,2],[-1,1],[-15,23],[-3,4],[-2,1],[-5,1],[-3,1],[-1,2],[-2,8],[-1,3],[-2,3],[-3,3],[-2,2],[-2,4],[3,3],[4,1],[3,-1],[3,-3],[27,-9],[55,-9],[13,1],[12,7],[3,-4],[3,-8],[3,-4],[0,-2],[1,-2],[3,-2],[2,1],[2,3],[2,3],[2,-1],[8,-5],[20,-1],[7,-3],[0,-4],[0,-12],[2,-5],[3,-3],[23,-1],[19,-7],[27,-2],[6,-3]],[[342,75],[4,-3],[2,-7],[-11,-6],[-3,-7],[-18,-16],[-3,0],[-13,4],[-9,-9],[-9,-12],[-16,11],[-5,3],[-2,-1],[-7,-3],[-8,6],[-19,10],[-8,-1],[-5,-11],[-4,5],[-5,1],[-4,-3],[-5,-3],[-4,8],[-3,20],[-4,9],[-16,23],[-3,5],[0,1],[-7,22],[0,1],[-2,0],[-2,0],[-2,0],[-2,3],[1,10],[6,4],[31,-1],[6,-3],[5,-5],[14,-26],[3,-4],[7,3],[10,11],[7,4],[9,1],[21,-2],[4,-4],[5,-7],[4,-9],[2,-6],[20,-12],[5,0],[13,3],[3,-1],[6,-5],[11,-1]],[[3827,1445],[-2,-2],[-3,-4],[1,0],[2,-2],[1,-3],[0,-3],[-7,-6],[-35,-1],[-3,10],[-7,4],[-17,-2],[-28,6],[-5,-1],[-8,-4],[-9,2],[-17,7],[-46,-2],[-54,13],[-6,5],[-8,4],[-10,-1],[-16,-5],[-6,2],[-10,4],[-5,2],[-5,-2],[-9,-7],[-5,-2],[3,11],[-4,9],[-6,7],[-3,7],[1,4],[6,12],[2,3],[5,-1],[9,-2],[5,0],[17,2],[8,2],[6,5],[5,5],[8,5],[9,5],[6,0],[4,-1],[5,-6],[4,-3],[15,0],[7,-5],[81,-23],[82,-10],[22,6],[20,10],[10,2],[10,-2],[14,-6],[6,0],[10,2],[5,-1],[5,-5],[-6,-2],[-7,-5],[-12,-11],[-5,4],[-4,-1],[-10,-13],[-2,0],[-3,-1],[-1,-1],[-2,-7],[0,-2],[-8,-5]],[[3916,835],[18,2],[8,-4],[-3,-12],[-7,-4],[-46,6],[-8,-1],[-8,-4],[-8,-8],[-19,-30],[-10,-9],[-12,-5],[-25,-2],[-9,-2],[-26,-12],[-6,-7],[3,-9],[26,-6],[8,-9],[-13,-1],[-10,-6],[-8,-9],[-14,-25],[-38,-41],[-11,-6],[-13,-4],[-14,0],[-11,-5],[-14,-9],[-12,-3],[-7,10],[-13,-6],[-13,0],[-26,6],[-11,-1],[-42,-7],[-8,-3],[-5,-4],[-3,1],[-3,2],[-3,1],[-24,0],[-10,4],[-12,7],[-9,2],[-7,-10],[-3,0],[-3,9],[-7,7],[-9,4],[-15,3],[-8,5],[-20,18],[-3,3],[-5,1],[-5,-2],[-4,-3],[-4,-1],[-5,4],[-6,4],[-25,2],[-17,5],[-60,33],[-9,1],[-8,-6],[-6,-6],[-7,-4],[-8,-1],[-8,2],[-4,3],[-4,3],[-3,4],[-2,14],[-3,5],[-3,4],[-3,6],[1,1],[4,3],[-1,1],[-1,1],[-3,1],[2,0],[-5,6],[-2,11],[2,10],[9,5],[29,7],[10,0],[40,-8],[5,1],[3,2],[8,15],[4,4],[8,3],[20,-3],[9,2],[7,7],[13,15],[7,5],[110,22],[2,3],[5,-1],[7,-3],[5,2],[7,9],[4,3],[9,3],[19,2],[14,5],[4,-1],[4,-1],[4,-1],[5,1],[4,2],[3,2],[31,12],[9,1],[9,-2],[22,-13],[34,-3],[4,1],[4,4],[7,7],[4,3],[15,3],[30,12],[15,3],[10,4],[4,2],[5,0],[13,-4],[31,6],[14,-7],[10,0],[10,1],[8,3],[18,1],[8,1],[5,4],[7,4],[24,3],[7,-2],[5,2],[25,-2],[0,-3],[-8,-2],[-12,-7],[-6,-2],[-8,3],[-4,0],[-3,-9],[-6,-12],[-2,-3],[-5,-2],[-9,0],[-4,-1],[-4,-5],[-7,-14],[-3,-3],[0,-2],[2,-5],[4,-4],[4,-3],[53,0]],[[194,33],[5,3],[4,3],[-6,-20],[-5,-19]],[[161,0],[5,6],[15,25],[8,11],[1,-1],[4,-8]],[[1646,4021],[10,9],[9,6],[27,15],[24,9],[24,4],[27,6],[21,3],[15,4],[17,4],[7,4],[8,11]],[[2257,4015],[0,28],[-3,10],[-12,24],[-6,15],[-5,4]],[[893,3834],[21,13],[29,15],[22,11],[8,4],[22,8],[20,7],[34,19],[20,6],[28,4],[14,0],[18,3],[45,8],[29,-2],[12,-6],[15,-9],[10,-4],[12,-2],[35,2],[15,2],[54,13],[30,15],[66,15],[40,6],[9,0],[9,4],[27,13],[12,4],[34,4],[7,5],[15,10],[27,13],[12,6],[2,0]],[[590,3726],[6,-2],[12,0],[7,2],[24,10],[19,5],[28,10],[48,24],[15,6],[14,2],[13,9],[18,4],[27,6],[21,5],[26,12],[25,15]],[[503,3717],[37,13],[24,4],[12,-2],[14,-6]],[[2317,3671],[-5,8],[-15,19],[-6,11],[-1,23],[3,17],[9,19],[1,5],[-15,29],[-7,9],[-12,30],[-14,38],[0,11],[5,27],[7,32],[3,19],[-1,11],[-11,28],[-1,8]],[[2377,3602],[-15,13],[-12,7],[-11,10],[-6,9],[-16,30]],[[97,3507],[11,15],[7,21],[5,8],[16,13],[14,9],[37,19],[46,21],[13,9],[15,4],[24,4],[15,4],[20,7],[42,17],[19,8],[18,9],[50,13],[12,6],[30,17],[12,6]],[[0,3575],[3,4],[13,-8],[11,-9],[16,-11],[8,-6],[9,-11],[15,-15],[22,-12]],[[2722,3039],[-7,21],[-1,6]],[[2714,3066],[-2,13],[-3,7],[-11,19],[-7,15],[-9,21],[-6,34],[-3,23],[-12,41],[-3,19],[-5,13],[-10,12],[-18,17],[-11,15],[-28,32],[-18,24],[-26,32],[-13,12],[-6,2],[-11,11],[-10,15],[-9,11],[-23,31],[-3,5],[-15,15],[-14,12],[-13,11],[-9,9],[-14,19],[-9,15],[-12,25],[-4,6]],[[2722,3018],[2,17],[-2,4]],[[0,2892],[16,17],[6,9],[23,38],[13,30],[3,10],[2,13],[4,15],[8,21],[55,117],[8,21],[3,15],[3,22],[0,12],[-3,32],[0,45],[-2,23],[0,24],[-1,10],[-8,13],[-10,15],[0,13],[3,23],[1,15],[-3,23],[-24,39]],[[2722,3039],[-1,-2],[-22,-3]],[[2699,3034],[-8,-2],[-26,-8],[-18,-9],[-36,-14],[-9,-5],[-33,-15],[-21,-12],[-15,-20],[-19,-23],[-17,-17],[-18,-17],[-30,-21],[-20,-15],[-40,-24],[-18,-14],[-12,-7],[-27,-13],[-12,-14],[-11,-22],[-36,-36],[-12,-11],[-9,-12],[-9,-17],[-9,-26],[-1,-6],[-8,-17],[-4,-9],[-6,-15]],[[2215,2613],[0,-8],[12,-4],[13,0],[3,-9],[-3,-8],[-6,-11],[-6,-23],[-12,-20],[-4,-12],[-6,-9],[-9,-2],[-26,4],[-4,0]],[[2167,2511],[-8,-2],[-6,-4],[-1,-6],[4,-28],[-3,-15],[-4,-6],[-5,-15],[-4,-43],[1,-8],[0,-15],[5,-11],[7,-10],[9,-5],[30,-10],[14,-7],[10,-2],[14,-2],[6,-6],[4,-13],[2,-11]],[[4057,2258],[12,4],[23,3],[4,1]],[[4029,2216],[10,12],[2,15],[10,11],[6,4]],[[2242,2292],[0,-4],[-3,-21],[1,-13],[8,-9],[9,-6],[13,-8],[3,-7],[6,-21],[12,-13],[20,-17],[6,-2],[16,-15],[21,-11],[5,-6],[0,-19],[1,-6]],[[3963,2075],[6,11],[13,23],[12,30],[14,26],[10,32],[11,19]],[[3949,2067],[14,8]],[[3916,2031],[27,29],[6,7]],[[2360,2114],[2,-32],[0,-11],[6,-8],[10,-11],[2,-11],[0,-10],[15,-15],[1,-9]],[[2396,2007],[14,-8],[9,-9],[15,-8],[21,-13],[14,-13],[19,-19],[20,-17],[19,-15],[11,-11],[0,-12],[-5,-9],[2,-8],[27,-17],[16,-13],[17,-17],[15,-13],[4,0]],[[3814,1737],[-5,6],[-9,5],[-1,4],[-3,17],[1,26],[0,6],[-9,13],[-3,6],[-3,11],[2,8],[13,17],[14,15],[21,23],[3,7],[-6,15],[0,4],[3,6],[14,9],[3,4],[0,13],[9,11],[-5,14],[3,5],[14,6],[16,4],[9,9],[6,10],[15,20]],[[3814,1737],[10,2],[22,11],[15,4],[21,2],[13,2],[21,2],[26,-8],[19,-9],[18,-14]],[[2614,1805],[11,-4],[21,-6],[24,-5],[19,-6],[14,-4],[18,-5],[18,-4],[16,-4],[12,-4],[21,-11],[48,-13],[21,-8],[17,-2],[18,-3],[7,0],[21,-4]],[[4005,1675],[1,-2],[3,-12],[6,-7],[23,-4],[22,-4],[11,2],[16,-4],[9,1]],[[3979,1729],[12,-20],[5,-17],[9,-17]],[[2396,2007],[-6,0],[-10,0],[-9,-4],[-8,-6],[-7,-11],[-21,-28],[-5,-12],[-1,-28],[1,-19],[-4,-24],[0,-8],[1,-34],[-1,-41],[-6,-17],[-14,-25],[0,-19],[0,-24],[-7,-8],[-2,-7],[0,-10],[-3,-11],[-19,-17],[-18,-21],[-9,-11],[-18,-17],[-9,-8],[-20,-13]],[[2920,1722],[17,-8],[17,-11],[24,-19],[24,-15],[27,-17],[24,-19],[42,-34],[15,-11],[10,-8],[17,-13],[37,-26],[6,-4],[21,-4],[14,-2]],[[3508,1524],[7,3],[8,-3],[10,0],[9,5],[9,10],[6,5],[15,0],[23,6],[34,2],[6,4],[8,11],[7,8],[6,11],[15,21],[2,2],[22,37],[9,6],[8,11],[4,12],[14,9],[15,0],[13,4],[20,11],[16,8],[12,11],[8,15],[0,4]],[[2201,1584],[8,-19],[9,-21],[7,-15],[15,-17],[9,-13],[11,-17],[7,-24],[8,-14],[16,-17],[6,-17],[0,-20]],[[2297,1390],[-4,-29],[-3,-13],[-11,-21]],[[4092,1256],[-18,9],[-9,8],[-11,15],[-12,28],[-6,4],[-27,9],[-27,4],[-19,2],[-9,2],[-17,11],[-7,2],[-18,-2],[-14,-9],[-6,-2],[-15,-4],[-16,4],[-24,-2],[-19,-4],[-13,-4],[-26,-5],[-27,-6],[-21,-6],[-18,-5],[-12,0]],[[2755,1244],[5,2],[7,-2],[12,-7],[21,-8],[15,0],[20,-7],[10,-2],[20,-4],[21,-4],[42,-2],[24,0],[38,-5],[12,0]],[[3701,1305],[-15,2],[-15,-4],[-43,-23],[-15,-11],[-21,-13],[-9,-4],[-11,-2],[-30,0],[-10,-4],[-24,-13],[-8,-6],[-12,-11],[-16,-19]],[[0,1433],[1,-2],[12,-17],[18,-21],[20,-26],[18,-19],[34,-28],[14,-13],[10,-8],[23,-19],[31,-17],[23,-17],[11,-7],[22,-12],[20,-15],[10,-11],[6,-6]],[[3002,1205],[24,0],[19,0],[18,2],[33,-2],[12,0],[21,0],[8,-4],[30,-13],[19,-4],[11,-8]],[[3437,1173],[0,5],[11,25],[4,24],[8,38],[1,8]],[[3461,1273],[3,15],[6,22],[6,31],[6,17],[-9,5],[-6,6],[-1,7],[0,8],[1,15],[2,25],[0,28],[1,11],[11,12],[-3,15],[0,5],[12,23],[7,6],[11,0]],[[3437,1173],[0,-6]],[[3470,1196],[-18,-20],[-12,-9],[-3,0]],[[3472,1197],[-2,-1]],[[4096,1255],[-4,1]],[[3382,1163],[31,13],[23,0],[1,-3]],[[3332,1150],[27,4],[23,9]],[[3215,1531],[4,-2],[11,-28],[9,-30],[19,-34],[21,-32],[6,-17],[9,-17],[17,-21],[10,-17],[17,-36],[7,-13],[3,-11],[-13,-25],[-5,-24],[2,-14],[9,-34],[-2,-15],[-7,-11]],[[2279,1327],[-10,-20],[-15,-29],[-6,-11],[-6,-28],[-9,-21],[-12,-17],[-26,-21],[-19,-13],[-12,-4],[-20,-11],[-16,-4]],[[3197,1176],[9,-9],[7,-17],[8,-8],[10,-11],[14,-4],[18,4],[9,6],[25,7],[23,0],[12,6]],[[2620,1069],[5,26],[0,13],[4,27],[8,15],[4,6],[6,5],[18,8],[8,7],[21,21],[13,13],[12,8],[20,13],[16,13]],[[2128,1148],[-8,-9],[-12,-27],[-6,-17],[-1,-15],[-3,-34],[0,-9],[0,-12],[0,-15]],[[273,1195],[11,-7],[18,-8],[30,-9],[37,-17],[11,-6],[6,-13],[21,-25],[9,-15],[9,-11],[51,-36],[24,-19],[12,-9],[16,-12]],[[1435,1000],[-7,-3]],[[1916,993],[-9,-5],[-17,3],[-10,4],[-14,0],[-28,6],[-11,2],[-18,9],[-19,6],[-14,7],[-13,4],[-12,0],[-14,-2],[-16,-5],[-12,0],[-14,3],[-9,4],[-21,2],[-18,4],[-10,4],[-12,3],[-20,0],[-15,4],[-33,4],[-15,0],[-42,-6],[-11,-7],[-9,-6],[-7,-6],[-32,-22],[-6,-3]],[[2584,988],[11,11],[8,11]],[[2603,1010],[2,4],[6,23],[3,7],[6,25]],[[1428,997],[-20,-17]],[[2098,1010],[-12,-5],[-8,-6],[-7,-15],[0,-17]],[[2071,967],[-11,4],[-16,5],[-12,2],[-32,0],[-11,2],[-21,4],[-48,11],[-4,-2]],[[528,1008],[6,-7],[8,-6],[18,-7],[13,-10],[23,-19],[28,-17]],[[2539,973],[2,1],[21,4],[18,6],[4,4]],[[2320,937],[6,5],[18,6],[13,2],[47,0],[27,9],[24,4],[39,6],[17,2],[7,0],[21,2]],[[2320,937],[-8,0],[-28,-4],[-23,-6],[-22,-2],[-59,14],[-22,7],[-27,13],[-6,2],[-32,2],[-22,4]],[[1408,980],[-11,-6]],[[1397,974],[-1,0],[-9,-3],[-28,-12],[-39,-22],[-5,-4],[-30,-15]],[[4096,902],[-31,16],[-24,7],[-14,2],[-15,-2],[-7,-3],[-14,-8],[-15,-4],[-12,-2],[-19,2]],[[1285,918],[-51,-23],[-19,-7],[-11,-6],[-9,-15],[-13,-13]],[[3969,776],[-5,17],[3,23],[0,6],[-12,20],[2,29],[-3,15],[-9,24]],[[3945,910],[-9,12],[-8,5],[-12,-2],[-22,-3],[-36,-10],[-12,-2],[-37,-2],[-36,4],[-13,0],[-39,-2],[-14,0],[-12,-2],[-42,-11],[-16,-4],[-23,-9],[-18,-4],[-22,0],[-29,-2],[-12,-2],[-39,-13],[-18,-2],[-21,-7],[-28,-8],[-15,-4],[-30,-5],[-25,-6],[-15,-9],[-10,-6],[-15,-15],[-18,-6],[-33,-2],[-11,-2],[-12,-9],[-7,0],[-8,0],[-22,0],[-9,-2],[-15,-6],[-21,-15],[-9,-9]],[[2634,978],[-17,0],[-24,6],[-9,4]],[[3152,750],[-5,7],[-6,2],[-19,8],[-21,4],[-21,3],[-14,4],[-18,8],[-9,11],[-6,15],[-4,10],[-9,7],[-3,6],[0,9],[3,6],[9,11],[3,6],[-5,11],[-4,6],[-5,15],[-4,2],[-12,4],[-11,7],[-19,17],[-17,10],[-19,7],[-8,0],[-17,-4],[-10,0],[-12,4],[-17,0],[-9,4],[-28,0],[-8,2],[-9,-2],[-10,0],[-17,6],[-22,20],[-5,2],[-46,0],[-14,-2],[-13,2],[-29,2],[-27,-2],[-1,0]],[[706,735],[-8,11],[-9,13],[-7,12],[-8,15],[-15,24],[-14,12],[-3,9],[-1,13],[-5,15],[-10,17],[-5,17],[-1,19],[3,10],[3,15],[-2,5]],[[3174,686],[-1,9],[-6,11],[-12,17],[-5,14],[2,13]],[[798,704],[-1,-1],[-24,-17],[-9,-4],[-6,0]],[[1182,854],[-24,-21],[-18,-13],[-27,-25],[-11,-2],[-12,2],[-15,2],[-30,-4],[-14,0],[-22,8],[-24,2],[-17,0],[-18,5],[-12,-3],[-10,-6],[-11,-8],[-27,-13],[-10,-9],[-14,-8],[-12,-9],[-18,-19],[-36,-27],[-2,-2]],[[746,694],[9,-8],[3,-4]],[[706,735],[7,-8],[14,-17],[18,-15],[1,-1]],[[2303,657],[6,8],[2,11],[0,19],[-3,25],[0,20],[3,23],[4,17],[-1,17],[4,8],[3,11],[5,13],[4,15],[2,13],[-2,12],[-1,9],[-2,19],[-4,32],[-3,8]],[[2087,623],[33,-5],[51,-2],[47,7],[12,0],[15,4],[22,8],[24,13],[12,9]],[[2982,606],[20,12],[10,9],[17,2],[10,6],[24,32],[5,2],[9,2],[25,0],[26,3],[24,6],[21,2],[1,4]],[[3671,603],[14,5],[16,8],[20,9],[18,15],[21,19],[18,10],[59,32],[13,15],[23,17],[7,7],[35,17],[12,8],[13,9],[6,2],[18,-2],[5,2]],[[2303,657],[15,-3],[21,-34],[15,-17],[11,-4]],[[3174,686],[8,-10],[15,-11],[9,0],[22,9],[15,2],[18,-5],[15,-10],[23,-11],[30,-21],[21,-17],[16,-13],[19,-6],[24,-9],[10,-2],[20,2],[25,-2],[18,2],[20,2],[9,3],[13,2],[14,0],[24,2],[42,0],[21,0],[25,4],[21,6]],[[2365,599],[9,0],[16,2],[15,-12],[8,-15],[4,-5],[8,-12],[7,-22],[0,-21],[-4,-17],[-3,-17],[3,-4],[6,-2],[22,-2],[11,-3],[11,-8],[16,-6]],[[2494,455],[9,-3],[9,0],[18,7],[29,19],[19,17],[3,11],[21,10],[17,9],[4,0],[8,-5],[9,-4],[40,-4],[17,4],[7,7],[50,38],[9,4],[13,4],[12,3],[18,6],[29,11],[27,14],[9,7],[22,8],[24,-2],[11,-2],[20,-2],[21,-4],[13,-2]],[[758,682],[-3,-2]],[[755,680],[-3,-2],[-6,-9],[-4,-12],[-3,-13],[7,-55],[-3,-22],[-7,-17],[-2,-15],[-9,-21],[-6,-25],[-7,-17],[-12,-13],[-11,-19],[-6,-19],[-3,-35],[0,-6],[-7,-57]],[[673,323],[0,-19],[-3,-26],[0,-13]],[[1722,227],[2,8],[15,20],[15,12],[16,9],[21,4],[11,7],[15,14],[6,3],[16,21],[8,6],[12,4],[10,0],[11,-8],[21,11],[28,10],[39,9],[3,4],[-6,8],[12,7],[29,17],[9,0],[24,-15],[6,-2],[18,-2],[11,2],[7,2],[12,11],[17,0],[9,4],[6,8],[0,9],[-5,6],[-9,5],[-21,0],[-4,2],[-5,6],[-6,11],[-4,4],[-47,13],[-15,6],[-14,0],[-19,11],[-8,6],[-21,40],[-9,11],[-3,24],[-9,25],[2,9],[16,17],[11,4],[15,2],[13,4],[6,9],[3,6],[-1,17],[4,6],[8,0],[6,-2],[24,-21],[14,-4],[9,0],[16,0],[15,-4]],[[3108,223],[6,8],[2,9],[-3,4],[-12,8],[-5,11],[-3,4],[-16,13],[-18,21],[-3,7],[-3,19],[-9,13],[-17,12],[-12,9],[-7,8],[-5,9],[0,11],[5,14],[3,9],[1,17],[-3,6],[-10,11],[0,2],[7,7],[5,8],[-2,13],[0,25],[-9,19],[-7,11],[-8,6],[-10,15],[-3,7],[0,34],[1,6],[9,7]],[[667,251],[-2,-9],[-7,-19],[-3,-15],[-7,-26]],[[670,265],[-2,-8],[-1,-6]],[[648,182],[-3,-6]],[[3108,161],[3,9],[0,8],[-7,17],[0,17],[4,11]],[[662,157],[-4,6],[-13,13]],[[3023,93],[27,17],[24,21],[24,19],[10,11]],[[1707,84],[0,22],[3,8],[11,13],[4,11],[2,10],[0,11],[-3,13],[1,8],[6,13],[2,8],[-2,7],[-12,10],[3,9]],[[1670,63],[-3,2]],[[1707,84],[-7,-8],[-6,-2],[-12,-9],[-12,-2]],[[1757,33],[-17,7],[-12,0],[-10,4],[-9,6],[-3,9],[1,25]],[[1763,31],[-6,2]],[[662,157],[23,-9],[9,-6],[3,-9],[0,-3]],[[697,130],[1,-26],[3,-11],[12,-32],[14,-25],[6,-7]],[[1610,37],[-2,-1],[-19,-9],[-11,-6],[-21,-7],[-21,-10],[-9,-4]],[[1667,65],[-11,2],[-7,0],[-9,-6],[-17,-17],[-13,-7]],[[1514,0],[-17,4],[-21,2],[-14,-4]],[[1365,0],[-9,4]],[[1462,2],[-1,-1],[-4,-1]],[[645,176],[-9,-13],[-4,-6],[-20,-11],[-22,-25],[-5,-5],[-15,-19],[-21,-21],[-1,-1]],[[548,75],[-26,-25],[-21,-23],[-27,-19],[-7,-8]],[[733,29],[16,-25],[2,-4]],[[1933,0],[-10,10],[-7,6],[-3,11],[-6,6],[-14,9],[-10,2],[-8,-2],[-10,-4],[-18,-11],[-15,-6],[-17,-5],[-13,5],[-39,10]],[[1757,33],[3,-8],[1,-21],[-1,-4]],[[1356,4],[-3,-4]],[[922,8],[18,11],[18,6],[12,2],[17,19]],[[896,0],[8,4],[18,4]],[[987,46],[2,2],[12,7],[27,8],[9,2],[6,2],[15,17],[14,9],[9,4],[6,-8],[12,-17],[15,-13],[6,-9],[20,-25],[6,-2],[7,-13],[9,-10]],[[2858,0],[4,4],[31,19],[12,6],[12,7],[11,8],[17,6],[15,9],[10,6],[11,11],[12,15],[4,4],[14,-4],[12,2]],[[4096,0],[-2289,0],[-1807,0],[0,2905],[0,1191],[4096,0],[0,-4096]],[[821,54],[51,126],[-36,60],[11,139],[119,64],[66,70],[-4,34],[56,35],[47,-52],[53,96],[100,51],[80,-33],[-9,-46],[-83,-56],[-47,12],[-11,-68],[-62,-8],[-61,-96],[-105,-56],[-14,-50],[49,3],[70,-64],[-39,-55],[22,-62],[-107,-37],[-22,27],[-18,-39],[-61,-33],[-45,38]],[[1023,685],[126,83],[48,-16],[29,-67],[-141,-88],[-24,65],[24,9],[-62,14]],[[972,46],[20,0],[-26,-39],[-45,-7],[2,53],[49,-7]],[[670,0],[-8,37],[6,29],[23,-66],[-21,0]],[[1464,33],[60,40],[69,6],[19,-46],[-56,-33],[-92,0],[-23,20],[23,13]],[[1436,138],[25,35],[40,-2],[-28,-66],[-37,33]],[[814,312],[44,9],[-157,-189],[-157,-73],[60,203],[106,-19],[104,69]],[[733,714],[51,7],[37,-46],[-51,-20],[-37,59]],[[3378,1166],[23,79],[69,33],[0,-118],[-50,-32],[-42,38]],[[2622,1003],[16,-33],[-28,-23],[-37,-10],[-37,39],[41,44],[45,-17]],[[1401,965],[-25,51],[50,6],[24,-59],[-49,2]],[[2695,3019],[14,46],[32,7],[-9,-59],[-37,6]],[[3748,1513],[22,37],[216,102],[85,97],[25,9],[0,-274],[-189,16],[-142,-26],[-17,39]],[[972,276],[14,50],[94,56],[95,-28],[-100,-120],[-54,45],[-49,-3]],[[972,276],[14,50],[94,56],[95,-28],[-100,-120],[-54,45],[-49,-3]]]}