{"objects":{"water":{"type":"GeometryCollection","geometries":[{"type":"MultiPolygon","properties":{"kind":"lake","name":"Aydar Ko\u0091l","area":3803178496,"sort_rank":200,"alkaline":true,"source":"naturalearthdata.com","min_zoom":0.0,"id":1328},"arcs":[[[880]],[[881]]]},{"type":"Polygon","properties":{"kind":"lake","name":"Tarbela Dam","reservoir":true,"area":591478656,"sort_rank":200,"source":"naturalearthdata.com","min_zoom":0.0,"id":1204},"arcs":[[882]]},{"type":"MultiPolygon","properties":{"sort_rank":200,"source":"naturalearthdata.com","min_zoom":0.0,"kind":"lake","area":9150043145},"arcs":[[[883]],[[884]],[[885]]]},{"type":"Polygon","properties":{"kind":"lake","name":"Obanbori Qayroqum","reservoir":true,"area":766906944,"sort_rank":200,"source":"naturalearthdata.com","min_zoom":0.0,"id":1214},"arcs":[[886]]},{"type":"Polygon","properties":{"source":"naturalearthdata.com","kind":"lake","name":"Banggong Co","area":435338560,"sort_rank":200,"min_zoom":0.0,"id":623},"arcs":[[887]]},{"type":"Point","properties":{"label_placement":true,"kind":"lake","name":"Obanbori Qayroqum","reservoir":true,"area":766906944,"sort_rank":200,"source":"naturalearthdata.com","min_zoom":0.0,"id":1214},"coordinates":[977,3803]},{"type":"Point","properties":{"label_placement":true,"kind":"lake","name":"Tarbela Dam","reservoir":true,"area":591478656,"sort_rank":200,"source":"naturalearthdata.com","min_zoom":0.0,"id":1204},"coordinates":[1950,1077]},{"type":"Point","properties":{"label_placement":true,"kind":"lake","name":"Banggong Co","area":435338560,"sort_rank":200,"source":"naturalearthdata.com","min_zoom":0.0,"id":623},"coordinates":[4047,850]},{"type":"MultiLineString","properties":{"source":"naturalearthdata.com","kind":"lake","sort_rank":367,"boundary":true,"min_zoom":0.0,"id":620},"arcs":[[888],[889]]},{"type":"LineString","properties":{"source":"naturalearthdata.com","kind":"lake","sort_rank":367,"boundary":true,"min_zoom":0.0,"id":623},"arcs":[890]},{"type":"LineString","properties":{"source":"naturalearthdata.com","kind":"lake","sort_rank":367,"boundary":true,"min_zoom":0.0,"id":712},"arcs":[891]},{"type":"LineString","properties":{"source":"naturalearthdata.com","kind":"lake","sort_rank":367,"boundary":true,"min_zoom":0.0,"id":713},"arcs":[892]},{"type":"LineString","properties":{"source":"naturalearthdata.com","kind":"lake","reservoir":true,"sort_rank":367,"boundary":true,"min_zoom":0.0,"id":1204},"arcs":[893]},{"type":"LineString","properties":{"source":"naturalearthdata.com","kind":"lake","reservoir":true,"sort_rank":367,"boundary":true,"min_zoom":0.0,"id":1214},"arcs":[894]},{"type":"MultiLineString","properties":{"source":"naturalearthdata.com","kind":"lake","sort_rank":367,"alkaline":true,"boundary":true,"min_zoom":0.0,"id":1328},"arcs":[[895],[896],[897]]}]},"buildings":{"type":"GeometryCollection","geometries":[]},"places":{"type":"GeometryCollection","geometries":[{"type":"Point","properties":{"name:ka":"\u10e2\u10d0\u10ef\u10d8\u10d9\u10d4\u10d7\u10d8","name:ko":"\ud0c0\uc9c0\ud0a4\uc2a4\ud0c4","name:cv":"\u0422\u0430\u0434\u0436\u0438\u043a\u0438\u0441\u0442\u0430\u043d","name:cu":"\u0422\u0430\u0434\u0436\u0438\u043a\u0438\u0441\u0442\u0430\u043d\u044a","name:kl":"Tajikistani","name:cs":"T\u00e1d\u017eikist\u00e1n","name:ki":"Tajikistani","name:kw":"Pow Tajik","name:kv":"\u0422\u0430\u0434\u0436\u0438\u043a\u0438\u0441\u0442\u0430\u043d","name:ku":"Tac\u00eekistan","name:ti":"\u1273\u1303\u12aa\u1235\u1273\u1295","name:ks":"\u062a\u0627\u062c\u06a9\u0650\u0633\u062a\u0627\u0646","name:to":"Tasikitani","name:tl":"Tayikistan","name:ce":"\u0422\u0430\u0434\u0436\u0438\u043a\u0438","name:ta":"\u0ba4\u0bbe\u0b9c\u0bbf\u0b95\u0bbf\u0bb8\u0bcd\u0ba4\u0bbe\u0ba9\u0bcd","name:ca":"Tadjikistan","name:te":"\u0c1f\u0c3e\u0c1c\u0c40\u0c15\u0c3f\u0c38\u0c4d\u0c24\u0c3e\u0c28\u0c4d","name:cy":"Tajicistan","name:hr":"Tad\u017eikistan","name:da":"Tadsjikistan","name:de":"Tadschikistan","name:dz":"\u0f4f\u0f0b\u0f47\u0f72\u0f42\u0f0b\u0f42\u0f72\u0f0b\u0f66\u0f4f\u0f71\u0f53","source":"openstreetmap.org","name:kn":"\u0ca4\u0c9c\u0cbe\u0c95\u0cbf\u0cb8\u0ccd\u0ca5\u0cbe\u0ca8\u0ccd","name:dv":"\u078c\u07a6\u0796\u07a8\u0786\u07a8\u0790\u07b0\u078c\u07a7\u0782\u07b0","name:km":"\u178f\u17b6\u178a\u17a0\u17d2\u179f\u17c9\u17b8\u1782\u17b8\u179f\u17d2\u178f\u1784\u17cb","name:lv":"Tad\u017eikist\u0101na","name:lt":"Tad\u017eikistanas","name:uz":"Tojikiston","name:kk":"\u0422\u04d9\u0436\u0456\u043a\u0441\u0442\u0430\u043d","name:ur":"\u062a\u0627\u062c\u06a9\u0633\u062a\u0627\u0646","name:lb":"Tadschikistan","name:la":"Tadzikistania","name:lg":"Tajikisitaani","name:uk":"\u0422\u0430\u0434\u0436\u0438\u043a\u0438\u0441\u0442\u0430\u043d","name:ug":"\u062a\u0627\u062c\u0649\u0643\u0649\u0633\u062a\u0627\u0646","name:li":"Tadzjikistan","name:ln":"Tazikisit\u00e1","name:lo":"\u0e97\u0eb2\u0e88\u0eb4\u0e81\u0eb4\u0eaa\u0eb0\u0e96\u0eb2\u0e99","name:el":"\u03a4\u03b1\u03c4\u03b6\u03b9\u03ba\u03b9\u03c3\u03c4\u03ac\u03bd","name:eo":"Ta\u011dikujo","name:en":"Tajikistan","name":"\u0422\u043e\u04b7\u0438\u043a\u0438\u0441\u0442\u043e\u043d","name:tk":"T\u00e4jigistan","name:ee":"Tajikistan nutome","name:th":"\u0e1b\u0e23\u0e30\u0e40\u0e17\u0e28\u0e17\u0e32\u0e08\u0e34\u0e01\u0e34\u0e2a\u0e16\u0e32\u0e19","name:eu":"Tajikistan","name:et":"Tad\u017eikistan","name:es":"Tayikist\u00e1n","name:ay":"Tayiksuyu","name:rm":"Tadschikistan","name:rn":"Tajikisitani","name:az":"Tacikistan","name:ie":"Tadjikistan","name:id":"Tajikistan","name:ar":"\u0637\u0627\u062c\u064a\u0643\u0633\u062a\u0627\u0646","name:io":"Tajikistan","name:ak":"Tajikistan","name:am":"\u1273\u1303\u12aa\u1235\u1273\u1295","name:it":"Tagikistan","name:an":"Tachiquist\u00e1n","name:ru":"\u0422\u0430\u0434\u0436\u0438\u043a\u0438\u0441\u0442\u0430\u043d","name:rw":"Tajikisitani","name:af":"Tadjikistan","name:zu":"i-Tajikistan","name:ky":"\u0422\u0430\u0436\u0438\u043a\u0441\u0442\u0430\u043d","name:zh-yue":"\u5854\u5409\u514b","name:zh":"\u5854\u5409\u514b\u65af\u5766","name:so":"Tajikistan","name:sn":"Tajikistan","name:sl":"Tad\u017eikistan","name:sk":"Tad\u017eikistan","name:ja":"\u30bf\u30b8\u30ad\u30b9\u30bf\u30f3","name:si":"\u0da7\u0da2\u0dd2\u0d9a\u0dd2\u0dc3\u0dca\u0dad\u0dcf\u0db1\u0dba","name:sh":"Tad\u017eikistan","name:sg":"Taazikiist\u00e4an","name:se":"Ta\u017eikistan","name:sa":"\u0924\u093e\u091c\u093f\u0915\u093f\u0938\u094d\u0925\u093e\u0928","name:bs":"Tad\u017eikistan","name:bm":"Tajikisitani","name:bn":"\u09a4\u09be\u099c\u09bf\u0995\u09b8\u09cd\u09a5\u09be\u09a8","name:bo":"\u0f50\u0f0b\u0f47\u0f72\u0f0b\u0f41\u0f7a\u0f0b\u0f66\u0f72\u0f0b\u0f4f\u0f53\u0f0d","name:br":"Tadjikistan","name:sw":"Tajikistani","name:be":"\u0422\u0430\u0434\u0436\u044b\u043a\u0456\u0441\u0442\u0430\u043d","name:su":"Tajikistan","name:bg":"\u0422\u0430\u0434\u0436\u0438\u043a\u0438\u0441\u0442\u0430\u043d","name:ss":"IThajiki","name:ba":"\u0422\u0430\u0436\u0438\u043a\u0441\u0442\u0430\u043d","name:sq":"Taxhikistan","name:jv":"Tajikistan","name:ia":"Tadzhikistan","name:pt":"Tadjiquist\u00e3o","name:ps":"\u062a\u0627\u062c\u06a9\u0633\u062a\u0627\u0646","name:oc":"Tatgiquistan","min_zoom":2.0,"name:ro":"Tadjikistan","name:zh-min-nan":"Tajikistan","name:os":"\u0422\u0430\u0434\u0436\u0438\u043a\u0438\u0441\u0442\u0430\u043d","name:or":"\u0b24\u0b3e\u0b1c\u0b3f\u0b15\u0b3f\u0b38\u0b4d\u0b25\u0b3e\u0b28\u0b4d","name:pl":"Tad\u017cykistan","name:sr":"\u0422\u0430\u045f\u0438\u043a\u0438\u0441\u0442\u0430\u043d","name:tr":"Tacikistan","name:hi":"\u0924\u093e\u091c\u093f\u0915\u093f\u0938\u094d\u0924\u093e\u0928","name:sv":"Tadzjikistan","name:he":"\u05d8\u05d2'\u05d9\u05e7\u05d9\u05e1\u05d8\u05df","name:ha":"Tajikistan","name:hy":"\u054f\u0561\u0573\u056b\u056f\u057d\u057f\u0561\u0576","name:ht":"Tadjikistan","name:hu":"T\u00e1dzsikiszt\u00e1n","name:qu":"Tayiksuyu","population":7215700,"kind":"country","name:is":"Tadsjikistan","name:yi":"\u05d8\u05d0\u05d3\u05d6\u05e9\u05d9\u05e7\u05d9\u05e1\u05d8\u05d0\u05df","name:yo":"Or\u00edl\u1eb9\u0301\u00e8de Takisitani","name:mt":"Ta\u0121ikistan","alt_name:eo":"Ta\u011dikistano;Ta\u011dikio","name:ms":"Tadjikistan","name:mr":"\u0924\u093e\u091c\u093f\u0915\u093f\u0938\u094d\u0924\u093e\u0928","name:my":"\u1010\u102c\u1002\u103b\u102e\u1000\u1005\u1039\u1005\u1010\u1014\u103a","int_name":"Tajikistan","name:mg":"Tajikistan","name:ml":"\u0d24\u0d3e\u0d1c\u0d3f\u0d15\u0d4d\u0d15\u0d3f\u0d38\u0d4d\u0d25\u0d3e\u0d7b","name:vi":"Tajikistan","name:mn":"\u0422\u0430\u0436\u0438\u043a\u0438\u0441\u0442\u0430\u043d","id":424314276,"name:mk":"\u0422\u0430\u045f\u0438\u043a\u0438\u0441\u0442\u0430\u043d","name:vo":"Tacikist\u00e4n","name:fa":"\u062a\u0627\u062c\u06cc\u06a9\u0633\u062a\u0627\u0646","name:ff":"Tajikistaan","name:fi":"Tad\u017eikistan","name:fo":"Tadsjikistan","name:fr":"Tadjikistan","name:fy":"Tadzjikistan","name:nl":"Tadzjikistan","name:nn":"Tadsjikistan","name:no":"Tadsjikistan","name:na":"Tadjikitan","name:ne":"\u0924\u093e\u091c\u093f\u0915\u093f\u0938\u094d\u0924\u093e\u0928","name:wo":"Tajikistaan","name:nv":"T\u02bcaji\u02bc Bik\u00e9yah","name:ga":"An T\u00e1ids\u00edceast\u00e1in","name:gd":"Taidigeast\u00e0n","name:gl":"Taxiquist\u00e1n","name:gv":"Yn Tajikistaan","name:gu":"\u0aa4\u0abe\u0a9c\u0ac0\u0a95\u0abf\u0ab8\u0acd\u0aa4\u0abe\u0aa8","name:tt":"\u0422\u0430\u0497\u0438\u043a\u0441\u0442\u0430\u043d"},"coordinates":[1207,3029]},{"type":"Point","properties":{"source":"naturalearthdata.com","kind":"locality","name":"Kabul","country_capital":true,"population":3277000,"min_zoom":3.0,"id":7259},"coordinates":[612,1164]},{"type":"Point","properties":{"int_name":"Khyber Pakhtunkhwa","name:ja":"\u30ab\u30a4\u30d0\u30eb\u30fb\u30d1\u30af\u30c8\u30a5\u30f3\u30af\u30ef","name:ar":"\u062e\u064a\u0628\u0631 \u0628\u062e\u062a\u0648\u0646\u062e\u0648\u0627","min_zoom":4.0,"name:en":"Khyber Pakhtunkhwa","old_name:en":"North-West Frontier Province","name:uk":"\u0425\u0430\u0439\u0431\u0435\u0440-\u041f\u0430\u0445\u0442\u0443\u043d\u0445\u0432\u0430","old_name":"North-West Frontier Province","loc_name":"Pukhtunkhwa","name:ru":"\u0425\u0430\u0439\u0431\u0435\u0440-\u041f\u0430\u0445\u0442\u0443\u043d\u0445\u0432\u0430","name:pl":"Chajber Pasztunchwa","name:de":"Khyber Pakhtunkhwa","old_name:de":"Nordwestliche Grenzprovinz","population":20215000,"kind":"region","name:hu":"\u00c9szaknyugati hat\u00e1rtartom\u00e1ny","name":"\u062e\u06cc\u0628\u0631 \u067e\u062e\u062a\u0648\u0646\u062e\u0648\u0627","kind_detail":"state","old_name:ru":"\u0421\u0435\u0432\u0435\u0440\u043e-\u0417\u0430\u043f\u0430\u0434\u043d\u0430\u044f \u043f\u0440\u043e\u0432\u0438\u043d\u0446\u0438\u044f","id":316441052,"source":"openstreetmap.org","name:fr":"Khyber Pakhtunkhwa","old_name:ur":"\u0633\u0631\u062d\u062f\u06cc \u0635\u0648\u0628\u06c1\u0633\u0646\u068c"},"coordinates":[1638,1156]},{"type":"Point","properties":{"name:ja":"\u9023\u90a6\u76f4\u8f44\u90e8\u65cf\u5730\u57df","name:ar":"\u0627\u0644\u0645\u0646\u0627\u0637\u0642 \u0627\u0644\u0642\u0628\u0644\u064a\u0629 \u0627\u0644\u062e\u0627\u0636\u0639\u0629 \u0644\u0644\u0625\u062f\u0627\u0631\u0629 \u0627\u0644\u0627\u062a\u062d\u0627\u062f\u064a\u0629","min_zoom":4.0,"name:it":"Aree tribali di amministrazione federale","name:uk":"\u0417\u043e\u043d\u0430 \u041f\u043b\u0435\u043c\u0435\u043d","name:vi":"C\u00e1c khu v\u1ef1c H\u00e0nh ch\u00ednh B\u1ed9 l\u1ea1c Li\u00ean bang","name:ru":"\u0417\u043e\u043d\u0430 \u041f\u043b\u0435\u043c\u0451\u043d","name:hu":"Sz\u00f6vets\u00e9gi Igazgat\u00e1s\u00fa T\u00f6rzsi Ter\u00fcletek","id":316441086,"population":6500000,"kind":"region","name:en":"Federally Administered Tribal Areas","name":"\u0648\u0641\u0627\u0642\u06cc \u0642\u0628\u0627\u0626\u0644\u06cc \u0639\u0644\u0627\u0642\u06c1 \u062c\u0627\u062a","kind_detail":"state","name:de":"Stammesgebiete unter Bundesverwaltung","source":"openstreetmap.org","name:fr":"R\u00e9gions tribales f\u00e9d\u00e9ralement administr\u00e9es"},"coordinates":[1001,475]},{"type":"Point","properties":{"name:ja":"\u30a2\u30b6\u30c9\u30fb\u30ab\u30b7\u30df\u30fc\u30eb","name:lt":"Laisvasis Ka\u0161myras","name:ar":"\u0622\u0632\u0627\u062f \u0643\u0634\u0645\u064a\u0631","official_name":"Azad State of Jammu and Kashmir","min_zoom":4.0,"name:uk":"\u0410\u0437\u0430\u0434 \u041a\u0430\u0448\u043c\u0456\u0440","name:vi":"Azad Kashmir","name:ru":"\u0410\u0437\u0430\u0434 \u041a\u0430\u0448\u043c\u0438\u0440","name:pl":"Azad D\u017cammu i Kaszmir","name:hu":"Aszad Kasm\u00edr","id":316441063,"population":4567982,"kind":"region","name:en":"Azad Kashmir","name":"\u0622\u0632\u0627\u062f \u062c\u0645\u0648\u06ba \u0648 \u06a9\u0634\u0645\u06cc\u0631","kind_detail":"state","short_name":"AJK","name:de":"Asad Kaschmir","source":"openstreetmap.org","name:fr":"Azad Cachemire"},"coordinates":[2175,1099]},{"type":"Point","properties":{"kind":"region","name:en":"Fergana Province","name":"Farg\u2018ona Viloyati","kind_detail":"state","name:de":"Provinz Farg\u02bbona","source":"openstreetmap.org","min_zoom":4.0,"population":2597000,"name:ru":"\u0424\u0435\u0440\u0433\u0430\u043d\u0441\u043a\u0430\u044f \u043e\u0431\u043b\u0430\u0441\u0442\u044c","name:hu":"Ferg\u00e1nai vilajet","id":309346343,"name:ja":"\u30d5\u30a7\u30eb\u30ac\u30ca\u5dde"},"coordinates":[1365,3878]},{"type":"Point","properties":{"old_name:ru":"\u0421\u0435\u0432\u0435\u0440\u043d\u0430\u044f \u0442\u0435\u0440\u0440\u0438\u0442\u043e\u0440\u0438\u044f","name:ja":"\u30ae\u30eb\u30ae\u30c3\u30c8\u30fb\u30d0\u30eb\u30c6\u30a3\u30b9\u30bf\u30f3","name:ar":"\u063a\u0644\u063a\u062a-\u0628\u0644\u062a\u0633\u062a\u0627\u0646","name:ur":"\u06af\u0644\u06af\u062a - \u0628\u0644\u062a\u0633\u062a\u0627\u0646","min_zoom":4.0,"name:uk":"\u0413\u0456\u043b\u0433\u0456\u0442-\u0411\u0430\u043b\u0442\u0438\u0441\u0442\u0430\u043d","name:ru":"\u0413\u0438\u043b\u0433\u0438\u0442-\u0411\u0430\u043b\u0442\u0438\u0441\u0442\u0430\u043d","name:vi":"Gilgit-Baltistan","name:pl":"Gilgit-Baltistan","name:hu":"\u00c9szaki ter\u00fcletek","old_name:de":"Nordgebiete","population":1800000,"kind":"region","name:en":"Gilgit-Baltistan","name":"\u06af\u0644\u06af\u062a \u0628\u0644\u062a\u0633\u062a\u0627\u0646","kind_detail":"state","old_name:vi":"C\u00e1c khu v\u1ef1c ph\u00eda B\u1eafc","old_name":"Northern Areas;Federally Administered Northern Areas;FANA","id":316441092,"source":"openstreetmap.org","name:fr":"Gilgit-Baltistan","old_name:ur":"\u0634\u0645\u0627\u0644\u06cc \u0639\u0644\u0627\u0642\u06c1 \u062c\u0627\u062a, Shum\u0101l\u012b Il\u0101qe J\u0101t"},"coordinates":[2731,1837]},{"type":"Point","properties":{"name:pt":"Territ\u00f3rio da Capital Islamabad","name:ja":"\u30a4\u30b9\u30e9\u30fc\u30de\u30fc\u30d0\u30fc\u30c9\u9996\u90fd\u570f","short_name":"ICT","min_zoom":4.0,"name:uk":"\u0406\u0441\u043b\u0430\u043c\u0430\u0431\u0430\u0434","name:vi":"Islamabad","name:ru":"\u0418\u0441\u043b\u0430\u043c\u0430\u0431\u0430\u0434","name:hu":"Iszl\u00e1m\u00e1b\u00e1d F\u0151v\u00e1rosi Ter\u00fclet","id":316440978,"population":955629,"kind":"region","name:en":"Islamabad Capital Territory","name":"Isl\u0101m\u0101b\u0101d Capital Territory","kind_detail":"state","name:de":"Hauptstadtterritorium Islamabad","source":"openstreetmap.org","name:fr":"Territoire f\u00e9d\u00e9ral d'Islamabad"},"coordinates":[2063,778]},{"type":"Point","properties":{"name:ps":"\u063a\u0632\u0646\u06cc","min_zoom":4.0,"name:uk":"\u0413\u0430\u0437\u043d\u0456","name:ru":"\u0413\u0430\u0437\u043d\u0438","name:hu":"Ghazni","id":312470047,"name:ja":"\u30ac\u30ba\u30cb\u30fc\u5dde","name:fa":"\u063a\u0632\u0646\u06cc","kind":"region","name:en":"Ghazni","name":"\u063a\u0632\u0646\u064a","kind_detail":"state","name:de":"Ghazni","source":"openstreetmap.org","name:fr":"Ghazni","population":931000},"coordinates":[120,618]},{"type":"Point","properties":{"name:ps":"\u0648\u0644\u0627\u064a\u062a \u0628\u062f\u062e\u0634\u0627\u0646","min_zoom":4.0,"name:uk":"\u0411\u0430\u0434\u0430\u0445\u0448\u0430\u043d","name:ru":"\u0411\u0430\u0434\u0430\u0445\u0448\u0430\u043d","name:pl":"Badachszan","name:hu":"Badahs\u00e1n","id":312470052,"name:ja":"\u30d0\u30c0\u30d5\u30b7\u30e3\u30fc\u30f3\u5dde","kind":"region","name:en":"Badakhshan","name":"\u0628\u062f\u062e\u0634\u0627\u0646","kind_detail":"state","name:de":"Badachschan","source":"openstreetmap.org","name:fr":"Badakhshan","population":823000},"coordinates":[1408,2201]},{"type":"Point","properties":{"kind":"region","name:en":"Sirdarya Province","name":"Sirdaryo Viloyati","kind_detail":"state","min_zoom":4.0,"name:de":"Provinz Sirdaryo","source":"openstreetmap.org","name:fr":"Province de Syr-Daria","name:ru":"\u0421\u044b\u0440\u0434\u0430\u0440\u044c\u0438\u043d\u0441\u043a\u0430\u044f \u043e\u0431\u043b\u0430\u0441\u0442\u044c","name:hu":"Szirdarja vilajet","id":309346344,"population":648100},"coordinates":[452,3879]},{"type":"Point","properties":{"kind":"region","name:en":"Khost","name":"\u062e\u0648\u0633\u062a","kind_detail":"state","min_zoom":4.0,"name:de":"Chost","source":"openstreetmap.org","name:fr":"Kh\u00f4st","name:uk":"\u0425\u043e\u0441\u0442","population":638849,"name:ru":"\u0425\u043e\u0441\u0442","name:pl":"Chost","name:hu":"Khost","id":312470060,"name:ja":"\u30db\u30fc\u30b9\u30c8\u5dde"},"coordinates":[871,658]},{"type":"Point","properties":{"int_name":"Nurest\u0101n;Nooristan","name:ja":"\u30cc\u30fc\u30ea\u30b9\u30bf\u30fc\u30f3\u5dde","min_zoom":4.0,"name:uk":"\u041d\u0443\u0440\u0438\u0441\u0442\u0430\u043d","old_name":"Kafiristan","name:ru":"\u041d\u0443\u0440\u0438\u0441\u0442\u0430\u043d","name:hu":"Nureszt\u00e1n","id":312470055,"population":112000,"kind":"region","name:en":"Nuristan","name":"\u0646\u0648\u0631\u0633\u062a\u0627\u0646","kind_detail":"state","name:de":"Nuristan","source":"openstreetmap.org","name:fr":"Nouristan"},"coordinates":[1214,1519]},{"type":"Point","properties":{"name:fa":"\u0648\u0644\u0627\u06cc\u062a \u062e\u062a\u0644\u0627\u0646","kind":"region","name:en":"Khatlon Province","name":"\u0412\u0438\u043b\u043e\u044f\u0442\u0438 \u0425\u0430\u0442\u043b\u043e\u043d","kind_detail":"state","name:de":"Provinz Chatlon","source":"openstreetmap.org","min_zoom":4.0,"name:short":"Khatlon","name:ru":"\u0425\u0430\u0442\u043b\u043e\u043d\u0441\u043a\u0430\u044f \u043e\u0431\u043b\u0430\u0441\u0442\u044c","id":2504653259,"name:ja":"\u30cf\u30c8\u30ed\u30f3"},"coordinates":[642,2690]},{"type":"Point","properties":{"name:fa":"\u0648\u0644\u0627\u06cc\u062a \u0633\u063a\u062f","kind":"region","name:short":"Sughd","int_name":"Sughd","name":"\u0412\u0438\u043b\u043e\u044f\u0442\u0438 \u0421\u0443\u0493\u0434","kind_detail":"state","source":"openstreetmap.org","min_zoom":4.0,"name:en":"Sughd Province","name:ru":"\u0421\u043e\u0433\u0434\u0438\u0439\u0441\u043a\u0430\u044f \u043e\u0431\u043b\u0430\u0441\u0442\u044c","id":2504653246,"name:ja":"\u30bd\u30b0\u30c9"},"coordinates":[483,3359]},{"type":"Point","properties":{"name:fa":"\u0646\u0627\u062d\u06cc\u0647 \u0647\u0627\u06cc \u062a\u0627\u0628\u0639 \u062c\u0645\u0647\u0648\u0631\u06cc","kind":"region","name:en":"Districts of Republican Subordination","name":"\u041d\u043e\u04b3\u0438\u044f\u04b3\u043e\u0438 \u0442\u043e\u0431\u0435\u0438 \u04b7\u0443\u043c\u04b3\u0443\u0440\u04e3","kind_detail":"state","name:de":"Unterstellte Gebiete der Republik","source":"openstreetmap.org","min_zoom":4.0,"name:short":"RRP","name:ru":"\u0420\u0430\u0439\u043e\u043d\u044b \u0440\u0435\u0441\u043f\u0443\u0431\u043b\u0438\u043a\u0430\u043d\u0441\u043a\u043e\u0433\u043e \u043f\u043e\u0434\u0447\u0438\u043d\u0435\u043d\u0438\u044f","id":2504653266,"name:ja":"\u5171\u548c\u56fd\u76f4\u8f44\u5730"},"coordinates":[942,3185]},{"type":"Point","properties":{"kind":"region","name:en":"Gorno-Badakhshan Autonomous Province","name":"\u0412\u0438\u043b\u043e\u044f\u0442\u0438 \u041c\u0443\u0445\u0442\u043e\u0440\u0438 \u041a\u04ef\u04b3\u0438\u0441\u0442\u043e\u043d\u0438 \u0411\u0430\u0434\u0430\u0445\u0448\u043e\u043d","kind_detail":"state","name:de":"Autonome Provinz Berg-Badachschan","source":"openstreetmap.org","min_zoom":4.0,"name:short":"GBAO","name:ru":"\u0413\u043e\u0440\u043d\u043e-\u0411\u0430\u0434\u0430\u0445\u0448\u0430\u043d\u0441\u043a\u0430\u044f \u0430\u0432\u0442\u043e\u043d\u043e\u043c\u043d\u0430\u044f \u043e\u0431\u043b\u0430\u0441\u0442\u044c","name:hu":"Badahs\u00e1n","id":2504653240,"name:ja":"\u30b4\u30eb\u30ce\u30fb\u30d0\u30c0\u30d5\u30b7\u30e3\u30f3\u81ea\u6cbb\u5dde"},"coordinates":[2002,2902]},{"type":"Point","properties":{"name:fa":"\u0648\u0644\u0627\u06cc\u062a \u0633\u063a\u062f","kind":"region","name:short":"Sughd","int_name":"Sughd","name":"\u0412\u0438\u043b\u043e\u044f\u0442\u0438 \u0421\u0443\u0493\u0434","kind_detail":"state","source":"openstreetmap.org","min_zoom":4.0,"name:en":"Sughd Province","name:ru":"\u0421\u043e\u0433\u0434\u0438\u0439\u0441\u043a\u0430\u044f \u043e\u0431\u043b\u0430\u0441\u0442\u044c","id":2504653253,"name:ja":"\u30bd\u30b0\u30c9"},"coordinates":[895,3892]},{"type":"Point","properties":{"kind":"region","name:en":"Wardak","name":"\u0645\u06cc\u062f\u0627\u0646 \u0648\u0631\u062f\u06ab","kind_detail":"state","min_zoom":4.0,"name:de":"Wardak","source":"openstreetmap.org","name:fr":"Wardak","name:uk":"\u0412\u0430\u0440\u0434\u0430\u043a","name:ru":"\u0412\u0430\u0440\u0434\u0430\u043a","name:hu":"Vardak","id":312470031,"name:ja":"\u30f4\u30a1\u30eb\u30c0\u30af\u5dde"},"coordinates":[304,1074]},{"type":"Point","properties":{"kind":"region","name:en":"Paktika","name":"\u067e\u06a9\u062a\u06cc\u06a9\u0627","kind_detail":"state","min_zoom":4.0,"name:de":"Paktika","source":"openstreetmap.org","name:fr":"Pakt\u00eek\u00e2","name:uk":"\u041f\u0430\u043a\u0442\u0438\u043a\u0430","name:ru":"\u041f\u0430\u043a\u0442\u0438\u043a\u0430","name:hu":"Paktika","id":312470033,"name:ja":"\u30d1\u30af\u30c6\u30a3\u30fc\u30ab\u30fc\u5dde"},"coordinates":[438,200]},{"type":"Point","properties":{"kind":"region","name:en":"Nangarhar","name":"\u0646\u0646\u06ab\u0631\u0647\u0627\u0631","kind_detail":"state","min_zoom":4.0,"name:de":"Nangarhar","source":"openstreetmap.org","name:fr":"Nangarh\u00e2r","name:uk":"\u041d\u0430\u043d\u0433\u0430\u0440\u0445\u0430\u0440","name:ru":"\u041d\u0430\u043d\u0433\u0430\u0440\u0445\u0430\u0440","name:hu":"Nangarhar","id":312470039,"name:ja":"\u30ca\u30f3\u30ac\u30eb\u30cf\u30fc\u30eb\u5dde"},"coordinates":[1049,1029]},{"type":"Point","properties":{"name:fa":"\u06a9\u0646\u062f\u0648\u0632","kind":"region","name:en":"Kunduz","name:ps":"\u06a9\u0646\u062f\u0648\u0632","name":"\u0643\u0646\u062f\u0632","kind_detail":"state","min_zoom":4.0,"name:de":"Kunduz","source":"openstreetmap.org","name:fr":"Kunduz","name:uk":"\u041a\u0443\u043d\u0434\u0443\u0437","name:ru":"\u041a\u0443\u043d\u0434\u0443\u0437","name:hu":"Kunduz","id":312470040,"name:ja":"\u30af\u30f3\u30c9\u30a5\u30fc\u30ba\u5dde"},"coordinates":[457,2232]},{"type":"Point","properties":{"kind":"region","name:en":"Paktia","name":"\u067e\u06a9\u062a\u064a\u0627","kind_detail":"state","min_zoom":4.0,"name:de":"Paktia","source":"openstreetmap.org","name:fr":"Paktiy\u00e2","name:uk":"\u041f\u0430\u043a\u0442\u0456\u044f","name:ru":"\u041f\u0430\u043a\u0442\u0438\u044f","name:pl":"Paktija","name:hu":"Paktia","id":312470045,"name:ja":"\u30d1\u30af\u30c6\u30a3\u30e4\u30fc\u5dde"},"coordinates":[695,796]},{"type":"Point","properties":{"kind":"region","name:en":"Baghlan","name":"\u0628\u063a\u0644\u0627\u0646","name:lt":"Baglano provincija","kind_detail":"state","min_zoom":4.0,"name:de":"Baglan","source":"openstreetmap.org","name:fr":"Baghl\u00e2n","name:uk":"\u0411\u0430\u0433\u043b\u0430\u043d","name:ru":"\u0411\u0430\u0433\u043b\u0430\u043d","name:hu":"Bagl\u00e1n","id":312470049,"name:ja":"\u30d0\u30b0\u30e9\u30fc\u30f3\u5dde"},"coordinates":[546,1723]},{"type":"Point","properties":{"kind":"region","name:en":"Takhar","name":"\u062a\u062e\u0627\u0631","kind_detail":"state","min_zoom":4.0,"name:de":"Tachar","source":"openstreetmap.org","name:fr":"Takh\u00e2r","name:uk":"\u0422\u0430\u0445\u0430\u0440","name:ru":"\u0422\u0430\u0445\u0430\u0440","name:pl":"Tachar","name:hu":"Tah\u00e1r","id":312470050,"name:ja":"\u30bf\u30cf\u30fc\u30eb\u5dde"},"coordinates":[835,2106]},{"type":"Point","properties":{"kind":"region","name:en":"Samangan","name":"\u0633\u0645\u0646\u06af\u0627\u0646\u200e","kind_detail":"state","min_zoom":4.0,"name:de":"Samangan","source":"openstreetmap.org","name:fr":"Samang\u00e2n","name:uk":"\u0421\u0430\u043c\u0430\u043d\u0433\u0430\u043d","name:ru":"\u0421\u0430\u043c\u0430\u043d\u0433\u0430\u043d","name:hu":"Szamang\u00e1n","id":312470056,"name:ja":"\u30b5\u30de\u30f3\u30ac\u30fc\u30f3\u5dde"},"coordinates":[61,1837]},{"type":"Point","properties":{"kind":"region","name:en":"Parwan","name":"\u067e\u0631\u0648\u0627\u0646","kind_detail":"state","min_zoom":4.0,"name:de":"Parwan","source":"openstreetmap.org","name:fr":"Parw\u00e2n","name:uk":"\u041f\u0430\u0440\u0432\u0430\u043d","name:ru":"\u041f\u0430\u0440\u0432\u0430\u043d","name:hu":"Parv\u00e1n","id":312470059,"name:ja":"\u30d1\u30eb\u30f4\u30a1\u30fc\u30f3\u5dde"},"coordinates":[515,1374]},{"type":"Point","properties":{"kind":"region","name:en":"Kabul","name":"\u06a9\u0627\u0628\u0644","kind_detail":"state","min_zoom":4.0,"name:de":"Kabul","source":"openstreetmap.org","name:fr":"Kaboul","name:uk":"\u041a\u0430\u0431\u0443\u043b","name:ru":"\u041a\u0430\u0431\u0443\u043b","name:hu":"Kabul","id":1732058641,"name:ja":"\u30ab\u30fc\u30d6\u30eb\u5dde"},"coordinates":[698,1156]},{"type":"Point","properties":{"kind":"region","name:en":"Kapisa","name":"\u06a9\u0627\u067e\u064a\u0633\u0627","kind_detail":"state","min_zoom":4.0,"source":"openstreetmap.org","name:fr":"K\u00e2p\u00eess\u00e2","name:uk":"\u041a\u0430\u043f\u0456\u0441\u0430","name:ru":"\u041a\u0430\u043f\u0438\u0441\u0430","name:hu":"K\u00e1pisz\u00e1","id":1732058689,"name:ja":"\u30ab\u30fc\u30d4\u30fc\u30b5\u30fc\u5dde"},"coordinates":[816,1340]},{"type":"Point","properties":{"kind":"region","name:en":"Panjshir","name":"\u067e\u0646\u062c\u0634\u06cc\u0631","kind_detail":"state","min_zoom":4.0,"name:de":"Panjshir","source":"openstreetmap.org","name:fr":"Panshir","int_name":"Pandjchir;Panjsher","name:uk":"\u041f\u0430\u043d\u0434\u0436\u0448\u0435\u0440","name:ru":"\u041f\u0430\u043d\u0434\u0436\u0448\u0435\u0440","name:pl":"Pand\u017cszir","name:hu":"Pandzssir","id":2278921325,"name:ja":"\u30d1\u30f3\u30b8\u30b7\u30fc\u30eb\u5dde"},"coordinates":[835,1580]},{"type":"Point","properties":{"kind":"region","name:en":"Laghman","name":"\u0644\u063a\u0645\u0627\u0646","kind_detail":"state","min_zoom":4.0,"name:de":"Laghman","source":"openstreetmap.org","name:fr":"Laghm\u00e2n","name:uk":"\u041b\u0430\u0433\u043c\u0430\u043d","name:ru":"\u041b\u0430\u0433\u043c\u0430\u043d","name:hu":"Laghman","id":312470029,"name:ja":"\u30e9\u30b0\u30de\u30fc\u30f3\u5dde"},"coordinates":[977,1285]},{"type":"Point","properties":{"kind":"region","name:en":"Kapisa","name":"\u06a9\u0627\u067e\u064a\u0633\u0627","kind_detail":"state","name:ar":"\u0643\u0627\u0628\u064a\u0633\u0627","name:de":"Kapisa","source":"openstreetmap.org","min_zoom":4.0,"name:ru":"\u041a\u0430\u043f\u0438\u0441\u0430","name:hu":"K\u00e1pisz\u00e1","id":312470058},"coordinates":[816,1340]},{"type":"Point","properties":{"name:hi":"\u091c\u092e\u094d\u092e\u0941 \u0914\u0930 \u0915\u0936\u094d\u092e\u093f\u0930","name:ko":"\uc7a0\ubb34 \uce74\uc288\ubbf8\ub974 \uc8fc","name:kn":"\u0c9c\u0cae\u0ccd\u0cae\u0cc1 \u0cae\u0ca4\u0ccd\u0ca4\u0cc1 \u0c95\u0cbe\u0cb6\u0ccd\u0cae\u0cc0\u0cb0","name:eo":"\u011camuo kaj Ka\u015dmiro","name:ur":"\u062c\u0645\u0648\u06ba \u0648 \u06a9\u0634\u0645\u06cc\u0631","min_zoom":4.0,"name:ta":"\u0b9a\u0bae\u0bcd\u0bae\u0bc1 \u0b95\u0bbe\u0b9a\u0bc1\u0bae\u0bc0\u0bb0\u0bcd","id":2240945372,"kind":"region","name:hu":"Dzsammu \u00e9s Kasm\u00edr","name":"Jammu and Kashmir","kind_detail":"state","name:de":"Jammu und Kaschmir","source":"openstreetmap.org","name:fr":"Jammu et Cachemire","name:zh":"\u67e5\u8c1f-\u514b\u4ec0\u7c73\u5c14\u90a6"},"coordinates":[3385,951]},{"type":"Point","properties":{"kind":"region","name:en":"Andijon Province","name":"Andijon Viloyati","kind_detail":"state","min_zoom":4.0,"name:de":"Provinz Andijon","source":"openstreetmap.org","name:fr":"Province d'Andijan","name:ru":"\u0410\u043d\u0434\u0438\u0436\u0430\u043d\u0441\u043a\u0430\u044f \u043e\u0431\u043b\u0430\u0441\u0442\u044c","id":1366625254},"coordinates":[1581,4024]},{"type":"Point","properties":{"source":"naturalearthdata.com","kind":"locality","name":"Gujranwala","population":1513000,"min_zoom":5.0,"id":6175},"coordinates":[2433,95]},{"type":"Point","properties":{"source":"naturalearthdata.com","kind":"locality","name":"Peshawar","population":1303000,"region_capital":true,"min_zoom":5.0,"id":6855},"coordinates":[1468,932]},{"type":"Point","properties":{"source":"naturalearthdata.com","kind":"locality","name":"Srinagar","population":1140000,"region_capital":true,"min_zoom":5.0,"id":6566},"coordinates":[2663,975]},{"type":"Point","properties":{"source":"naturalearthdata.com","kind":"locality","name":"Dushanbe","country_capital":true,"population":1086244,"min_zoom":5.0,"id":6836},"coordinates":[464,2998]},{"type":"Point","properties":{"source":"naturalearthdata.com","kind":"locality","name":"Jammu","population":791000,"min_zoom":5.0,"id":6190},"coordinates":[2674,346]},{"type":"Point","properties":{"source":"naturalearthdata.com","kind":"locality","name":"Islamabad","country_capital":true,"population":780000,"min_zoom":5.0,"id":6852},"coordinates":[2062,794]},{"type":"Point","properties":{"source":"naturalearthdata.com","kind":"locality","name":"Andijon","population":650000,"region_capital":true,"min_zoom":5.0,"id":6275},"coordinates":[1762,4010]},{"type":"Point","properties":{"source":"naturalearthdata.com","kind":"locality","name":"Kashgar","population":543914,"min_zoom":5.0,"id":6959},"coordinates":[3084,3414]},{"type":"Point","properties":{"source":"naturalearthdata.com","kind":"locality","name":"Shache","population":373492,"min_zoom":5.0,"id":6510},"coordinates":[3550,2937]}]},"transit":{"type":"GeometryCollection","geometries":[]},"pois":{"type":"GeometryCollection","geometries":[]},"boundaries":{"type":"GeometryCollection","geometries":[{"type":"MultiLineString","properties":{"source":"naturalearthdata.com","kind":"country","sort_rank":262,"kind_detail":"2","min_zoom":0.0,"id":53},"arcs":[[0],[1]]},{"type":"MultiLineString","properties":{"source":"naturalearthdata.com","kind":"country","sort_rank":262,"kind_detail":"2","min_zoom":0.0,"id":55},"arcs":[[2],[3]]},{"type":"MultiLineString","properties":{"source":"naturalearthdata.com","kind":"country","sort_rank":262,"kind_detail":"2","min_zoom":0.0,"id":97},"arcs":[[4],[5],[6],[7],[8],[9]]},{"type":"MultiLineString","properties":{"source":"naturalearthdata.com","kind":"country","sort_rank":262,"kind_detail":"2","min_zoom":0.0,"id":247},"arcs":[[10],[11],[12],[13],[14],[15],[16],[17],[18],[19],[20],[21],[22],[23],[24],[25],[26],[27],[28],[29],[30],[31],[32],[33],[34],[35],[36],[37],[38],[39],[40],[41],[42],[43],[44],[45],[46],[47],[48],[49],[50],[51],[52],[53],[54],[55],[56],[57],[58],[59],[60],[61],[62],[63],[64],[65],[66],[67],[68],[69],[70]]},{"type":"MultiLineString","properties":{"source":"naturalearthdata.com","kind":"country","sort_rank":262,"kind_detail":"2","min_zoom":0.0,"id":249},"arcs":[[71],[72],[73],[74],[75],[76]]},{"type":"MultiLineString","properties":{"source":"naturalearthdata.com","kind":"country","sort_rank":262,"kind_detail":"2","min_zoom":0.0,"id":323},"arcs":[[77],[78],[79],[80],[81],[82],[83],[84]]},{"type":"MultiLineString","properties":{"source":"naturalearthdata.com","kind":"country","sort_rank":262,"kind_detail":"2","min_zoom":0.0,"id":327},"arcs":[[85],[86],[87],[88],[89],[90],[91],[92],[93],[94],[95],[96],[97],[98],[99],[100],[101],[102],[103],[104],[105],[106],[107],[108],[109],[110],[111],[112],[113],[114],[115],[116],[117],[118],[119],[120],[121],[122],[123],[124],[125]]},{"type":"MultiLineString","properties":{"source":"naturalearthdata.com","kind":"country","sort_rank":262,"kind_detail":"2","min_zoom":0.0,"id":399},"arcs":[[126],[127],[128],[129],[130],[131],[132],[133],[134],[135],[136],[137],[138]]},{"type":"MultiLineString","properties":{"source":"naturalearthdata.com","kind":"disputed","sort_rank":261,"kind_detail":"2","min_zoom":0.0,"id":25},"arcs":[[139],[140],[141],[142]]},{"type":"MultiLineString","properties":{"source":"naturalearthdata.com","kind":"line_of_control","sort_rank":260,"kind_detail":"2","min_zoom":0.0,"id":32},"arcs":[[143],[144],[145],[146],[147],[148],[149],[150],[151],[152],[153],[154],[155],[156],[157],[158],[159],[160],[161]]},{"type":"MultiLineString","properties":{"source":"naturalearthdata.com","kind":"country","sort_rank":262,"kind_detail":"2","min_zoom":0.0,"id":81},"arcs":[[162],[163],[164],[165],[166],[167],[168],[169],[170],[171],[172],[173],[174],[175],[176],[177],[178]]},{"type":"MultiLineString","properties":{"source":"naturalearthdata.com","kind":"country","sort_rank":262,"kind_detail":"2","min_zoom":0.0,"id":91},"arcs":[[179],[180],[181],[182],[183],[184],[185],[186],[187],[188],[189],[190],[191],[192],[193],[194],[195],[196],[197],[198],[199],[200],[201],[202],[203],[204],[205]]},{"type":"MultiLineString","properties":{"source":"naturalearthdata.com","kind":"country","sort_rank":262,"kind_detail":"2","min_zoom":0.0,"id":95},"arcs":[[206],[207],[208],[209],[210],[211],[212],[213],[214],[215],[216],[217],[218],[219],[220],[221],[222],[223],[224],[225],[226],[227],[228],[229],[230],[231],[232],[233],[234],[235],[236],[237],[238],[239],[240],[241],[242],[243],[244],[245],[246],[247],[248],[249],[250],[251],[252],[253],[254],[255],[256],[257],[258],[259],[260]]},{"type":"MultiLineString","properties":{"source":"naturalearthdata.com","kind":"indefinite","sort_rank":259,"kind_detail":"2","min_zoom":0.0,"id":141},"arcs":[[261],[262],[263],[264],[265],[266],[267]]},{"type":"MultiLineString","properties":{"source":"naturalearthdata.com","kind":"country","sort_rank":262,"kind_detail":"2","min_zoom":0.0,"id":170},"arcs":[[268],[269],[270],[271],[272],[273],[274]]},{"type":"MultiLineString","properties":{"source":"naturalearthdata.com","kind":"country","sort_rank":262,"kind_detail":"2","min_zoom":0.0,"id":171},"arcs":[[275],[276],[277],[278],[279],[280],[281]]},{"type":"MultiLineString","properties":{"source":"naturalearthdata.com","kind":"country","sort_rank":262,"kind_detail":"2","min_zoom":0.0,"id":172},"arcs":[[282],[283]]},{"type":"LineString","properties":{"source":"naturalearthdata.com","kind":"country","sort_rank":262,"kind_detail":"2","min_zoom":0.0,"id":173},"arcs":[284]},{"type":"LineString","properties":{"source":"naturalearthdata.com","kind":"country","sort_rank":262,"kind_detail":"2","min_zoom":0.0,"id":174},"arcs":[285]},{"type":"LineString","properties":{"source":"naturalearthdata.com","kind":"country","sort_rank":262,"kind_detail":"2","min_zoom":0.0,"id":180},"arcs":[286]},{"type":"MultiLineString","properties":{"source":"naturalearthdata.com","kind":"country","sort_rank":262,"kind_detail":"2","min_zoom":0.0,"id":181},"arcs":[[287],[288],[289],[290]]},{"type":"MultiLineString","properties":{"source":"naturalearthdata.com","kind":"country","sort_rank":262,"kind_detail":"2","min_zoom":0.0,"id":427},"arcs":[[291],[292],[293],[294],[295],[296],[297],[298]]},{"type":"LineString","properties":{"source":"naturalearthdata.com","kind":"indeterminate","sort_rank":259,"kind_detail":"2","min_zoom":0.0,"id":434},"arcs":[299]},{"type":"LineString","properties":{"source":"naturalearthdata.com","kind":"indeterminate","sort_rank":259,"kind_detail":"2","min_zoom":0.0,"id":435},"arcs":[300]},{"type":"MultiLineString","properties":{"source":"naturalearthdata.com","kind":"country","sort_rank":262,"kind_detail":"2","min_zoom":0.0,"id":246},"arcs":[[301],[302],[303],[304],[305],[306],[307],[308],[309],[310],[311],[312],[313],[314],[315],[316],[317],[318],[319],[320],[321],[322],[323],[324],[325],[326],[327],[328],[329],[330],[331],[332],[333],[334],[335],[336],[337],[338],[339],[340],[341],[342],[343],[344],[345]]},{"type":"LineString","properties":{"source":"naturalearthdata.com","kind":"disputed","sort_rank":261,"kind_detail":"2","min_zoom":0.0,"id":412},"arcs":[346]},{"type":"MultiLineString","properties":{"source":"naturalearthdata.com","kind":"country","sort_rank":262,"kind_detail":"2","min_zoom":0.0,"id":408},"arcs":[[347],[348],[349]]},{"type":"MultiLineString","properties":{"source":"naturalearthdata.com","kind":"country","sort_rank":262,"kind_detail":"2","min_zoom":0.0,"id":443},"arcs":[[350],[351],[352]]},{"type":"MultiLineString","properties":{"source":"naturalearthdata.com","kind":"indefinite","sort_rank":259,"kind_detail":"2","min_zoom":0.0,"id":444},"arcs":[[353],[354],[355],[356],[357],[358],[359],[360],[361]]},{"type":"MultiLineString","properties":{"source":"naturalearthdata.com","kind":"line_of_control","sort_rank":260,"kind_detail":"2","min_zoom":0.0,"id":458},"arcs":[[362],[363],[364],[365],[366],[367],[368],[369],[370]]},{"type":"LineString","properties":{"source":"naturalearthdata.com","kind":"region","sort_rank":256,"kind_detail":"4","min_zoom":5.0,"id":838},"arcs":[371]},{"type":"LineString","properties":{"source":"naturalearthdata.com","kind":"region","sort_rank":256,"kind_detail":"4","min_zoom":2.0,"id":1159},"arcs":[372]},{"type":"MultiLineString","properties":{"source":"naturalearthdata.com","kind":"region","sort_rank":256,"kind_detail":"4","min_zoom":3.0,"id":2866},"arcs":[[373],[374],[375],[376],[377],[378],[379],[380],[381],[382],[383],[384],[385],[386],[387],[388],[389],[390],[391],[392],[393],[394],[395],[396],[397],[398],[399],[400],[401],[402],[403],[404],[405],[406],[407],[408],[409],[410],[411],[412],[413],[414],[415],[416],[417],[418],[419]]},{"type":"LineString","properties":{"source":"naturalearthdata.com","kind":"region","sort_rank":256,"kind_detail":"4","min_zoom":3.0,"id":2867},"arcs":[420]},{"type":"LineString","properties":{"source":"naturalearthdata.com","kind":"region","sort_rank":256,"kind_detail":"4","min_zoom":5.5,"id":5257},"arcs":[421]},{"type":"LineString","properties":{"source":"naturalearthdata.com","kind":"region","sort_rank":256,"kind_detail":"4","min_zoom":5.5,"id":5274},"arcs":[422]},{"type":"MultiLineString","properties":{"source":"naturalearthdata.com","kind":"region","sort_rank":256,"kind_detail":"4","min_zoom":5.5,"id":5275},"arcs":[[423],[424],[425],[426],[427],[428]]},{"type":"LineString","properties":{"source":"naturalearthdata.com","kind":"region","sort_rank":256,"kind_detail":"4","min_zoom":5.5,"id":5287},"arcs":[429]},{"type":"LineString","properties":{"source":"naturalearthdata.com","kind":"region","sort_rank":256,"kind_detail":"4","min_zoom":5.5,"id":5295},"arcs":[430]},{"type":"LineString","properties":{"source":"naturalearthdata.com","kind":"region","sort_rank":256,"kind_detail":"4","min_zoom":5.5,"id":5305},"arcs":[431]},{"type":"LineString","properties":{"source":"naturalearthdata.com","kind":"region","sort_rank":256,"kind_detail":"4","min_zoom":5.5,"id":5313},"arcs":[432]},{"type":"LineString","properties":{"source":"naturalearthdata.com","kind":"region","sort_rank":256,"kind_detail":"4","min_zoom":5.5,"id":5335},"arcs":[433]},{"type":"LineString","properties":{"source":"naturalearthdata.com","kind":"region","sort_rank":256,"kind_detail":"4","min_zoom":5.5,"id":5336},"arcs":[434]},{"type":"LineString","properties":{"source":"naturalearthdata.com","kind":"region","sort_rank":256,"kind_detail":"4","min_zoom":5.0,"id":820},"arcs":[435]},{"type":"MultiLineString","properties":{"source":"naturalearthdata.com","kind":"region","sort_rank":256,"kind_detail":"4","min_zoom":5.0,"id":821},"arcs":[[436],[437]]},{"type":"MultiLineString","properties":{"source":"naturalearthdata.com","kind":"region","sort_rank":256,"kind_detail":"4","min_zoom":5.0,"id":830},"arcs":[[438],[439],[440],[441],[442],[443],[444]]},{"type":"MultiLineString","properties":{"source":"naturalearthdata.com","kind":"region","sort_rank":256,"kind_detail":"4","min_zoom":5.0,"id":831},"arcs":[[445],[446],[447],[448],[449],[450],[451]]},{"type":"MultiLineString","properties":{"source":"naturalearthdata.com","kind":"region","sort_rank":256,"kind_detail":"4","min_zoom":5.0,"id":832},"arcs":[[452],[453],[454],[455],[456],[457],[458],[459],[460]]},{"type":"MultiLineString","properties":{"source":"naturalearthdata.com","kind":"region","sort_rank":256,"kind_detail":"4","min_zoom":3.0,"id":829},"arcs":[[461],[462],[463],[464],[465],[466],[467],[468],[469],[470],[471],[472],[473],[474],[475],[476],[477],[478],[479],[480],[481],[482],[483],[484],[485],[486],[487],[488],[489],[490],[491],[492],[493],[494],[495],[496],[497],[498],[499]]},{"type":"LineString","properties":{"source":"naturalearthdata.com","kind":"region","sort_rank":256,"kind_detail":"4","min_zoom":5.0,"id":837},"arcs":[500]},{"type":"MultiLineString","properties":{"source":"naturalearthdata.com","kind":"region","sort_rank":256,"kind_detail":"4","min_zoom":5.0,"id":839},"arcs":[[501],[502],[503]]},{"type":"MultiLineString","properties":{"source":"naturalearthdata.com","kind":"region","sort_rank":256,"kind_detail":"4","min_zoom":5.0,"id":840},"arcs":[[504],[505],[506],[507],[508],[509],[510],[511],[512],[513],[514],[515],[516],[517],[518]]},{"type":"MultiLineString","properties":{"source":"naturalearthdata.com","kind":"region","sort_rank":256,"kind_detail":"4","min_zoom":5.0,"id":841},"arcs":[[519],[520],[521],[522],[523]]},{"type":"MultiLineString","properties":{"source":"naturalearthdata.com","kind":"region","sort_rank":256,"kind_detail":"4","min_zoom":3.0,"id":860},"arcs":[[524],[525],[526],[527],[528]]},{"type":"MultiLineString","properties":{"source":"naturalearthdata.com","kind":"region","sort_rank":256,"kind_detail":"4","min_zoom":3.0,"id":861},"arcs":[[529],[530],[531],[532],[533],[534],[535],[536],[537]]},{"type":"LineString","properties":{"source":"naturalearthdata.com","kind":"region","sort_rank":256,"kind_detail":"4","min_zoom":3.0,"id":862},"arcs":[538]},{"type":"MultiLineString","properties":{"source":"naturalearthdata.com","kind":"region","sort_rank":256,"kind_detail":"4","min_zoom":3.0,"id":863},"arcs":[[539],[540],[541],[542],[543],[544],[545],[546],[547]]},{"type":"LineString","properties":{"source":"naturalearthdata.com","kind":"region","sort_rank":256,"kind_detail":"4","min_zoom":3.0,"id":864},"arcs":[548]},{"type":"MultiLineString","properties":{"source":"naturalearthdata.com","kind":"region","sort_rank":256,"kind_detail":"4","min_zoom":2.0,"id":1154},"arcs":[[549],[550],[551],[552],[553],[554],[555],[556],[557],[558],[559],[560],[561]]},{"type":"MultiLineString","properties":{"source":"naturalearthdata.com","kind":"region","sort_rank":256,"kind_detail":"4","min_zoom":2.0,"id":1157},"arcs":[[562],[563],[564],[565],[566]]},{"type":"MultiLineString","properties":{"source":"naturalearthdata.com","kind":"region","sort_rank":256,"kind_detail":"4","min_zoom":2.0,"id":1158},"arcs":[[567],[568],[569],[570],[571]]},{"type":"MultiLineString","properties":{"source":"naturalearthdata.com","kind":"region","sort_rank":256,"kind_detail":"4","min_zoom":5.5,"id":1408},"arcs":[[572],[573],[574],[575],[576],[577],[578],[579],[580],[581],[582],[583],[584],[585],[586],[587],[588],[589],[590],[591],[592],[593],[594],[595],[596]]},{"type":"MultiLineString","properties":{"source":"naturalearthdata.com","kind":"region","sort_rank":256,"kind_detail":"4","min_zoom":5.5,"id":1409},"arcs":[[597],[598],[599],[600],[601],[602],[603],[604],[605],[606],[607],[608],[609],[610],[611],[612],[613]]},{"type":"MultiLineString","properties":{"source":"naturalearthdata.com","kind":"region","sort_rank":256,"kind_detail":"4","min_zoom":5.5,"id":1410},"arcs":[[614],[615],[616],[617],[618],[619],[620],[621],[622],[623],[624],[625],[626],[627],[628],[629],[630],[631],[632]]},{"type":"LineString","properties":{"source":"naturalearthdata.com","kind":"region","sort_rank":256,"kind_detail":"4","min_zoom":5.5,"id":1411},"arcs":[633]},{"type":"MultiLineString","properties":{"source":"naturalearthdata.com","kind":"region","sort_rank":256,"kind_detail":"4","min_zoom":3.0,"id":2865},"arcs":[[634],[635]]},{"type":"MultiLineString","properties":{"source":"naturalearthdata.com","kind":"region","sort_rank":256,"kind_detail":"4","min_zoom":3.0,"id":2871},"arcs":[[636],[637],[638],[639]]},{"type":"MultiLineString","properties":{"source":"naturalearthdata.com","kind":"region","sort_rank":256,"kind_detail":"4","min_zoom":3.0,"id":2872},"arcs":[[640],[641],[642],[643],[644],[645],[646],[647],[648],[649],[650],[651],[652],[653],[654],[655],[656],[657],[658],[659],[660],[661],[662],[663],[664],[665],[666],[667],[668],[669],[670],[671]]},{"type":"MultiLineString","properties":{"source":"naturalearthdata.com","kind":"region","sort_rank":256,"kind_detail":"4","min_zoom":3.0,"id":2873},"arcs":[[672],[673],[674],[675],[676],[677]]},{"type":"MultiLineString","properties":{"source":"naturalearthdata.com","kind":"region","sort_rank":256,"kind_detail":"4","min_zoom":5.5,"id":3384},"arcs":[[678],[679],[680]]},{"type":"LineString","properties":{"source":"naturalearthdata.com","kind":"region","sort_rank":256,"kind_detail":"4","min_zoom":5.5,"id":3380},"arcs":[681]},{"type":"MultiLineString","properties":{"source":"naturalearthdata.com","kind":"region","sort_rank":256,"kind_detail":"4","min_zoom":5.5,"id":3385},"arcs":[[682],[683],[684],[685],[686],[687],[688],[689],[690],[691]]},{"type":"MultiLineString","properties":{"source":"naturalearthdata.com","kind":"region","sort_rank":256,"kind_detail":"4","min_zoom":5.5,"id":3383},"arcs":[[692],[693],[694],[695]]},{"type":"MultiLineString","properties":{"source":"naturalearthdata.com","kind":"region","sort_rank":256,"kind_detail":"4","min_zoom":5.5,"id":5258},"arcs":[[696],[697],[698]]},{"type":"LineString","properties":{"source":"naturalearthdata.com","kind":"region","sort_rank":256,"kind_detail":"4","min_zoom":5.5,"id":5259},"arcs":[699]},{"type":"LineString","properties":{"source":"naturalearthdata.com","kind":"region","sort_rank":256,"kind_detail":"4","min_zoom":5.5,"id":5260},"arcs":[700]},{"type":"LineString","properties":{"source":"naturalearthdata.com","kind":"region","sort_rank":256,"kind_detail":"4","min_zoom":5.5,"id":5261},"arcs":[701]},{"type":"MultiLineString","properties":{"source":"naturalearthdata.com","kind":"region","sort_rank":256,"kind_detail":"4","min_zoom":5.5,"id":5262},"arcs":[[702],[703],[704],[705],[706],[707]]},{"type":"LineString","properties":{"source":"naturalearthdata.com","kind":"region","sort_rank":256,"kind_detail":"4","min_zoom":5.5,"id":5263},"arcs":[708]},{"type":"MultiLineString","properties":{"source":"naturalearthdata.com","kind":"region","sort_rank":256,"kind_detail":"4","min_zoom":5.5,"id":5264},"arcs":[[709],[710]]},{"type":"MultiLineString","properties":{"source":"naturalearthdata.com","kind":"region","sort_rank":256,"kind_detail":"4","min_zoom":5.5,"id":5265},"arcs":[[711],[712],[713],[714],[715],[716],[717],[718]]},{"type":"LineString","properties":{"source":"naturalearthdata.com","kind":"region","sort_rank":256,"kind_detail":"4","min_zoom":5.5,"id":5266},"arcs":[719]},{"type":"LineString","properties":{"source":"naturalearthdata.com","kind":"region","sort_rank":256,"kind_detail":"4","min_zoom":5.5,"id":5267},"arcs":[720]},{"type":"MultiLineString","properties":{"source":"naturalearthdata.com","kind":"region","sort_rank":256,"kind_detail":"4","min_zoom":5.5,"id":5268},"arcs":[[721],[722],[723],[724],[725],[726],[727]]},{"type":"LineString","properties":{"source":"naturalearthdata.com","kind":"region","sort_rank":256,"kind_detail":"4","min_zoom":5.5,"id":5269},"arcs":[728]},{"type":"MultiLineString","properties":{"source":"naturalearthdata.com","kind":"region","sort_rank":256,"kind_detail":"4","min_zoom":5.5,"id":5271},"arcs":[[729],[730],[731],[732],[733],[734],[735],[736]]},{"type":"MultiLineString","properties":{"source":"naturalearthdata.com","kind":"region","sort_rank":256,"kind_detail":"4","min_zoom":5.5,"id":5272},"arcs":[[737],[738],[739],[740],[741],[742],[743],[744]]},{"type":"MultiLineString","properties":{"source":"naturalearthdata.com","kind":"region","sort_rank":256,"kind_detail":"4","min_zoom":5.5,"id":5273},"arcs":[[745],[746]]},{"type":"LineString","properties":{"source":"naturalearthdata.com","kind":"region","sort_rank":256,"kind_detail":"4","min_zoom":5.5,"id":5276},"arcs":[747]},{"type":"MultiLineString","properties":{"source":"naturalearthdata.com","kind":"region","sort_rank":256,"kind_detail":"4","min_zoom":5.5,"id":5281},"arcs":[[748],[749],[750],[751],[752],[753],[754],[755],[756]]},{"type":"MultiLineString","properties":{"source":"naturalearthdata.com","kind":"region","sort_rank":256,"kind_detail":"4","min_zoom":5.5,"id":5282},"arcs":[[757],[758],[759],[760],[761],[762],[763]]},{"type":"MultiLineString","properties":{"source":"naturalearthdata.com","kind":"region","sort_rank":256,"kind_detail":"4","min_zoom":5.5,"id":5283},"arcs":[[764],[765],[766],[767],[768],[769],[770],[771],[772]]},{"type":"MultiLineString","properties":{"source":"naturalearthdata.com","kind":"region","sort_rank":256,"kind_detail":"4","min_zoom":5.5,"id":5284},"arcs":[[773],[774],[775],[776]]},{"type":"MultiLineString","properties":{"source":"naturalearthdata.com","kind":"region","sort_rank":256,"kind_detail":"4","min_zoom":5.5,"id":5285},"arcs":[[777],[778],[779],[780],[781],[782],[783],[784],[785],[786]]},{"type":"MultiLineString","properties":{"source":"naturalearthdata.com","kind":"region","sort_rank":256,"kind_detail":"4","min_zoom":5.5,"id":5286},"arcs":[[787],[788],[789],[790],[791]]},{"type":"MultiLineString","properties":{"source":"naturalearthdata.com","kind":"region","sort_rank":256,"kind_detail":"4","min_zoom":5.5,"id":5288},"arcs":[[792],[793],[794],[795],[796],[797],[798]]},{"type":"LineString","properties":{"source":"naturalearthdata.com","kind":"region","sort_rank":256,"kind_detail":"4","min_zoom":5.5,"id":5290},"arcs":[799]},{"type":"MultiLineString","properties":{"source":"naturalearthdata.com","kind":"region","sort_rank":256,"kind_detail":"4","min_zoom":5.5,"id":5296},"arcs":[[800],[801],[802],[803],[804],[805],[806]]},{"type":"LineString","properties":{"source":"naturalearthdata.com","kind":"region","sort_rank":256,"kind_detail":"4","min_zoom":5.5,"id":5297},"arcs":[807]},{"type":"MultiLineString","properties":{"source":"naturalearthdata.com","kind":"region","sort_rank":256,"kind_detail":"4","min_zoom":5.5,"id":5298},"arcs":[[808],[809],[810],[811]]},{"type":"MultiLineString","properties":{"source":"naturalearthdata.com","kind":"region","sort_rank":256,"kind_detail":"4","min_zoom":5.5,"id":5299},"arcs":[[812],[813],[814]]},{"type":"MultiLineString","properties":{"source":"naturalearthdata.com","kind":"region","sort_rank":256,"kind_detail":"4","min_zoom":5.5,"id":5300},"arcs":[[815],[816],[817]]},{"type":"MultiLineString","properties":{"source":"naturalearthdata.com","kind":"region","sort_rank":256,"kind_detail":"4","min_zoom":5.5,"id":5301},"arcs":[[818],[819],[820],[821],[822],[823],[824],[825]]},{"type":"LineString","properties":{"source":"naturalearthdata.com","kind":"region","sort_rank":256,"kind_detail":"4","min_zoom":5.5,"id":5302},"arcs":[826]},{"type":"LineString","properties":{"source":"naturalearthdata.com","kind":"region","sort_rank":256,"kind_detail":"4","min_zoom":5.5,"id":5303},"arcs":[827]},{"type":"MultiLineString","properties":{"source":"naturalearthdata.com","kind":"region","sort_rank":256,"kind_detail":"4","min_zoom":5.5,"id":5304},"arcs":[[828],[829],[830],[831],[832],[833]]},{"type":"MultiLineString","properties":{"source":"naturalearthdata.com","kind":"region","sort_rank":256,"kind_detail":"4","min_zoom":5.5,"id":5306},"arcs":[[834],[835],[836],[837],[838]]},{"type":"MultiLineString","properties":{"source":"naturalearthdata.com","kind":"region","sort_rank":256,"kind_detail":"4","min_zoom":5.5,"id":5307},"arcs":[[839],[840],[841]]},{"type":"MultiLineString","properties":{"source":"naturalearthdata.com","kind":"region","sort_rank":256,"kind_detail":"4","min_zoom":5.5,"id":5308},"arcs":[[842],[843],[844],[845]]},{"type":"MultiLineString","properties":{"source":"naturalearthdata.com","kind":"region","sort_rank":256,"kind_detail":"4","min_zoom":5.5,"id":5309},"arcs":[[846],[847],[848],[849],[850],[851],[852],[853],[854]]},{"type":"MultiLineString","properties":{"source":"naturalearthdata.com","kind":"region","sort_rank":256,"kind_detail":"4","min_zoom":5.5,"id":5310},"arcs":[[855],[856],[857],[858],[859],[860],[861],[862],[863],[864]]},{"type":"MultiLineString","properties":{"source":"naturalearthdata.com","kind":"region","sort_rank":256,"kind_detail":"4","min_zoom":5.5,"id":5311},"arcs":[[865],[866],[867],[868],[869],[870]]},{"type":"MultiLineString","properties":{"source":"naturalearthdata.com","kind":"region","sort_rank":256,"kind_detail":"4","min_zoom":5.5,"id":5334},"arcs":[[871],[872],[873]]},{"type":"MultiLineString","properties":{"source":"naturalearthdata.com","kind":"region","sort_rank":256,"kind_detail":"4","min_zoom":5.5,"id":9005},"arcs":[[874],[875],[876],[877],[878],[879]]}]},"roads":{"type":"GeometryCollection","geometries":[{"type":"LineString","properties":{"source":"naturalearthdata.com","kind":"minor_road","kind_detail":"tertiary","sort_rank":355,"landuse_kind":"urban_area","min_zoom":5.0,"id":19401},"arcs":[898]},{"type":"LineString","properties":{"source":"naturalearthdata.com","kind":"minor_road","kind_detail":"tertiary","sort_rank":355,"landuse_kind":"urban_area","min_zoom":5.0,"id":19419},"arcs":[899]},{"type":"LineString","properties":{"source":"naturalearthdata.com","kind":"minor_road","sort_rank":355,"kind_detail":"tertiary","min_zoom":5.0,"id":19419},"arcs":[900]},{"type":"LineString","properties":{"source":"naturalearthdata.com","kind":"highway","sort_rank":383,"kind_detail":"motorway","min_zoom":3.0,"id":19423},"arcs":[901]},{"type":"LineString","properties":{"source":"naturalearthdata.com","kind":"major_road","sort_rank":379,"kind_detail":"secondary","min_zoom":4.0,"id":19430},"arcs":[902]},{"type":"LineString","properties":{"source":"naturalearthdata.com","kind":"major_road","sort_rank":379,"kind_detail":"secondary","min_zoom":4.0,"id":19438},"arcs":[903]},{"type":"LineString","properties":{"source":"naturalearthdata.com","kind":"highway","kind_detail":"motorway","sort_rank":383,"landuse_kind":"urban_area","min_zoom":3.0,"id":19451},"arcs":[904]},{"type":"LineString","properties":{"source":"naturalearthdata.com","kind":"highway","sort_rank":383,"kind_detail":"motorway","min_zoom":3.0,"id":19451},"arcs":[905]},{"type":"LineString","properties":{"source":"naturalearthdata.com","kind":"highway","sort_rank":383,"kind_detail":"motorway","min_zoom":3.0,"id":19459},"arcs":[906]},{"type":"LineString","properties":{"source":"naturalearthdata.com","kind":"highway","kind_detail":"motorway","sort_rank":383,"landuse_kind":"urban_area","min_zoom":5.0,"id":19501},"arcs":[907]},{"type":"LineString","properties":{"source":"naturalearthdata.com","kind":"highway","sort_rank":383,"kind_detail":"motorway","min_zoom":5.0,"id":19501},"arcs":[908]},{"type":"LineString","properties":{"source":"naturalearthdata.com","kind":"highway","sort_rank":383,"kind_detail":"motorway","min_zoom":3.0,"id":19535},"arcs":[909]},{"type":"LineString","properties":{"source":"naturalearthdata.com","kind":"minor_road","kind_detail":"tertiary","sort_rank":355,"landuse_kind":"urban_area","min_zoom":5.0,"id":19561},"arcs":[910]},{"type":"LineString","properties":{"source":"naturalearthdata.com","kind":"minor_road","sort_rank":355,"kind_detail":"tertiary","min_zoom":5.0,"id":19591},"arcs":[911]},{"type":"MultiLineString","properties":{"source":"naturalearthdata.com","kind":"major_road","sort_rank":379,"kind_detail":"secondary","min_zoom":4.0,"id":19592},"arcs":[[912],[913]]},{"type":"LineString","properties":{"source":"naturalearthdata.com","kind":"major_road","kind_detail":"secondary","sort_rank":379,"landuse_kind":"urban_area","min_zoom":3.0,"id":19617},"arcs":[914]},{"type":"LineString","properties":{"source":"naturalearthdata.com","kind":"minor_road","kind_detail":"tertiary","sort_rank":355,"landuse_kind":"urban_area","min_zoom":5.0,"id":19630},"arcs":[915]},{"type":"LineString","properties":{"source":"naturalearthdata.com","kind":"minor_road","sort_rank":355,"kind_detail":"tertiary","min_zoom":5.0,"id":19630},"arcs":[916]},{"type":"LineString","properties":{"source":"naturalearthdata.com","kind":"highway","kind_detail":"motorway","sort_rank":383,"landuse_kind":"urban_area","min_zoom":4.0,"id":19631},"arcs":[917]},{"type":"LineString","properties":{"source":"naturalearthdata.com","kind":"highway","sort_rank":383,"kind_detail":"motorway","min_zoom":4.0,"id":19631},"arcs":[918]},{"type":"LineString","properties":{"source":"naturalearthdata.com","kind":"major_road","kind_detail":"secondary","sort_rank":379,"landuse_kind":"urban_area","min_zoom":3.0,"id":19635},"arcs":[919]},{"type":"LineString","properties":{"source":"naturalearthdata.com","kind":"minor_road","sort_rank":355,"kind_detail":"tertiary","min_zoom":5.0,"id":19669},"arcs":[920]},{"type":"LineString","properties":{"source":"naturalearthdata.com","kind":"highway","sort_rank":383,"kind_detail":"motorway","min_zoom":4.0,"id":19767},"arcs":[921]},{"type":"MultiLineString","properties":{"source":"naturalearthdata.com","kind":"major_road","kind_detail":"secondary","sort_rank":379,"landuse_kind":"urban_area","min_zoom":3.0,"id":19768},"arcs":[[922],[923]]},{"type":"LineString","properties":{"source":"naturalearthdata.com","kind":"major_road","sort_rank":379,"kind_detail":"secondary","min_zoom":3.0,"id":19768},"arcs":[924]},{"type":"LineString","properties":{"source":"naturalearthdata.com","kind":"highway","kind_detail":"motorway","sort_rank":383,"landuse_kind":"urban_area","min_zoom":4.0,"id":19769},"arcs":[925]},{"type":"LineString","properties":{"source":"naturalearthdata.com","kind":"highway","sort_rank":383,"kind_detail":"motorway","min_zoom":4.0,"id":19769},"arcs":[926]},{"type":"LineString","properties":{"source":"naturalearthdata.com","kind":"minor_road","kind_detail":"tertiary","sort_rank":355,"landuse_kind":"urban_area","min_zoom":5.0,"id":19772},"arcs":[927]},{"type":"LineString","properties":{"source":"naturalearthdata.com","kind":"major_road","kind_detail":"secondary","sort_rank":379,"landuse_kind":"urban_area","min_zoom":4.0,"id":19775},"arcs":[928]},{"type":"LineString","properties":{"source":"naturalearthdata.com","kind":"major_road","sort_rank":379,"kind_detail":"secondary","min_zoom":4.0,"id":19775},"arcs":[929]},{"type":"LineString","properties":{"source":"naturalearthdata.com","kind":"minor_road","sort_rank":355,"kind_detail":"tertiary","min_zoom":5.0,"id":19783},"arcs":[930]},{"type":"LineString","properties":{"source":"naturalearthdata.com","kind":"major_road","kind_detail":"secondary","sort_rank":379,"landuse_kind":"urban_area","min_zoom":4.0,"id":19788},"arcs":[931]},{"type":"LineString","properties":{"source":"naturalearthdata.com","kind":"major_road","kind_detail":"secondary","sort_rank":379,"landuse_kind":"urban_area","min_zoom":4.0,"id":19789},"arcs":[932]},{"type":"LineString","properties":{"source":"naturalearthdata.com","kind":"minor_road","kind_detail":"tertiary","sort_rank":355,"landuse_kind":"urban_area","min_zoom":5.0,"id":19852},"arcs":[933]},{"type":"LineString","properties":{"source":"naturalearthdata.com","kind":"minor_road","sort_rank":355,"kind_detail":"tertiary","min_zoom":5.0,"id":19852},"arcs":[934]},{"type":"LineString","properties":{"source":"naturalearthdata.com","kind":"major_road","kind_detail":"secondary","sort_rank":379,"landuse_kind":"urban_area","min_zoom":4.0,"id":19900},"arcs":[935]},{"type":"LineString","properties":{"source":"naturalearthdata.com","kind":"major_road","sort_rank":379,"kind_detail":"secondary","min_zoom":4.0,"id":19900},"arcs":[936]},{"type":"LineString","properties":{"source":"naturalearthdata.com","kind":"major_road","kind_detail":"secondary","sort_rank":379,"landuse_kind":"urban_area","min_zoom":4.0,"id":19901},"arcs":[937]},{"type":"LineString","properties":{"source":"naturalearthdata.com","kind":"major_road","kind_detail":"secondary","sort_rank":379,"landuse_kind":"urban_area","min_zoom":4.0,"id":19927},"arcs":[938]},{"type":"LineString","properties":{"source":"naturalearthdata.com","kind":"major_road","kind_detail":"secondary","sort_rank":379,"landuse_kind":"urban_area","min_zoom":4.0,"id":19938},"arcs":[939]},{"type":"LineString","properties":{"source":"naturalearthdata.com","kind":"major_road","kind_detail":"secondary","sort_rank":379,"landuse_kind":"urban_area","min_zoom":4.0,"id":19938},"arcs":[940]},{"type":"LineString","properties":{"source":"naturalearthdata.com","kind":"major_road","sort_rank":379,"kind_detail":"secondary","min_zoom":4.0,"id":19938},"arcs":[941]},{"type":"LineString","properties":{"source":"naturalearthdata.com","kind":"minor_road","kind_detail":"tertiary","sort_rank":355,"landuse_kind":"urban_area","min_zoom":5.0,"id":19968},"arcs":[942]},{"type":"LineString","properties":{"source":"naturalearthdata.com","kind":"minor_road","sort_rank":355,"kind_detail":"tertiary","min_zoom":5.0,"id":19968},"arcs":[943]},{"type":"LineString","properties":{"source":"naturalearthdata.com","kind":"highway","kind_detail":"motorway","sort_rank":383,"landuse_kind":"urban_area","min_zoom":3.0,"id":19999},"arcs":[944]},{"type":"LineString","properties":{"source":"naturalearthdata.com","kind":"highway","sort_rank":383,"kind_detail":"motorway","min_zoom":3.0,"id":19999},"arcs":[945]},{"type":"LineString","properties":{"source":"naturalearthdata.com","kind":"minor_road","kind_detail":"tertiary","sort_rank":355,"landuse_kind":"urban_area","min_zoom":5.0,"id":20014},"arcs":[946]},{"type":"LineString","properties":{"source":"naturalearthdata.com","kind":"major_road","kind_detail":"secondary","sort_rank":379,"landuse_kind":"urban_area","min_zoom":4.0,"id":20025},"arcs":[947]},{"type":"LineString","properties":{"source":"naturalearthdata.com","kind":"major_road","kind_detail":"secondary","sort_rank":379,"landuse_kind":"urban_area","min_zoom":4.0,"id":20025},"arcs":[948]},{"type":"MultiLineString","properties":{"source":"naturalearthdata.com","kind":"major_road","sort_rank":379,"kind_detail":"secondary","min_zoom":4.0,"id":20025},"arcs":[[949],[950],[951]]},{"type":"LineString","properties":{"source":"naturalearthdata.com","kind":"minor_road","kind_detail":"tertiary","sort_rank":355,"landuse_kind":"urban_area","min_zoom":5.0,"id":20031},"arcs":[952]},{"type":"LineString","properties":{"source":"naturalearthdata.com","kind":"minor_road","kind_detail":"tertiary","sort_rank":355,"landuse_kind":"urban_area","min_zoom":5.0,"id":20031},"arcs":[953]},{"type":"LineString","properties":{"source":"naturalearthdata.com","kind":"minor_road","sort_rank":355,"kind_detail":"tertiary","min_zoom":5.0,"id":20031},"arcs":[954]},{"type":"LineString","properties":{"source":"naturalearthdata.com","kind":"minor_road","kind_detail":"tertiary","sort_rank":355,"landuse_kind":"urban_area","min_zoom":5.0,"id":20041},"arcs":[955]},{"type":"LineString","properties":{"source":"naturalearthdata.com","kind":"minor_road","kind_detail":"tertiary","sort_rank":355,"landuse_kind":"urban_area","min_zoom":5.0,"id":20041},"arcs":[956]},{"type":"MultiLineString","properties":{"source":"naturalearthdata.com","kind":"minor_road","sort_rank":355,"kind_detail":"tertiary","min_zoom":5.0,"id":20041},"arcs":[[957],[958],[959]]},{"type":"LineString","properties":{"source":"naturalearthdata.com","kind":"minor_road","kind_detail":"tertiary","sort_rank":355,"landuse_kind":"urban_area","min_zoom":5.0,"id":20053},"arcs":[960]},{"type":"LineString","properties":{"source":"naturalearthdata.com","kind":"minor_road","sort_rank":355,"kind_detail":"tertiary","min_zoom":5.0,"id":20053},"arcs":[961]},{"type":"LineString","properties":{"source":"naturalearthdata.com","kind":"minor_road","kind_detail":"tertiary","sort_rank":355,"landuse_kind":"urban_area","min_zoom":5.0,"id":20067},"arcs":[962]},{"type":"MultiLineString","properties":{"source":"naturalearthdata.com","kind":"minor_road","sort_rank":355,"kind_detail":"tertiary","min_zoom":5.0,"id":20067},"arcs":[[963],[964]]},{"type":"LineString","properties":{"source":"naturalearthdata.com","kind":"major_road","sort_rank":379,"kind_detail":"secondary","min_zoom":4.0,"id":20097},"arcs":[965]},{"type":"LineString","properties":{"source":"naturalearthdata.com","kind":"highway","kind_detail":"motorway","sort_rank":383,"landuse_kind":"urban_area","min_zoom":3.0,"id":20120},"arcs":[966]},{"type":"MultiLineString","properties":{"source":"naturalearthdata.com","kind":"highway","sort_rank":383,"kind_detail":"motorway","min_zoom":3.0,"id":20120},"arcs":[[967],[968]]},{"type":"LineString","properties":{"source":"naturalearthdata.com","kind":"minor_road","sort_rank":355,"kind_detail":"tertiary","min_zoom":5.0,"id":20127},"arcs":[969]},{"type":"LineString","properties":{"source":"naturalearthdata.com","kind":"major_road","sort_rank":379,"kind_detail":"secondary","min_zoom":4.0,"id":20153},"arcs":[970]},{"type":"LineString","properties":{"source":"naturalearthdata.com","kind":"highway","sort_rank":383,"kind_detail":"motorway","min_zoom":3.0,"id":20268},"arcs":[971]},{"type":"LineString","properties":{"source":"naturalearthdata.com","kind":"major_road","sort_rank":379,"kind_detail":"secondary","min_zoom":4.0,"id":20283},"arcs":[972]},{"type":"LineString","properties":{"source":"naturalearthdata.com","kind":"highway","sort_rank":383,"kind_detail":"motorway","min_zoom":3.0,"id":20375},"arcs":[973]},{"type":"LineString","properties":{"source":"naturalearthdata.com","kind":"highway","sort_rank":383,"kind_detail":"motorway","min_zoom":3.0,"id":20376},"arcs":[974]},{"type":"LineString","properties":{"source":"naturalearthdata.com","kind":"highway","sort_rank":383,"kind_detail":"motorway","min_zoom":3.0,"id":20379},"arcs":[975]},{"type":"LineString","properties":{"source":"naturalearthdata.com","kind":"highway","sort_rank":383,"kind_detail":"motorway","min_zoom":3.0,"id":20380},"arcs":[976]},{"type":"LineString","properties":{"source":"naturalearthdata.com","kind":"minor_road","sort_rank":355,"kind_detail":"tertiary","min_zoom":5.0,"id":20392},"arcs":[977]},{"type":"LineString","properties":{"source":"naturalearthdata.com","kind":"major_road","sort_rank":379,"kind_detail":"secondary","min_zoom":4.0,"id":20424},"arcs":[978]},{"type":"LineString","properties":{"source":"naturalearthdata.com","kind":"highway","sort_rank":383,"kind_detail":"motorway","min_zoom":3.0,"id":20434},"arcs":[979]},{"type":"LineString","properties":{"source":"naturalearthdata.com","kind":"highway","sort_rank":383,"kind_detail":"motorway","min_zoom":3.0,"id":20483},"arcs":[980]},{"type":"LineString","properties":{"source":"naturalearthdata.com","kind":"highway","sort_rank":383,"kind_detail":"motorway","min_zoom":3.0,"id":20487},"arcs":[981]},{"type":"LineString","properties":{"source":"naturalearthdata.com","kind":"highway","sort_rank":383,"kind_detail":"motorway","min_zoom":3.0,"id":20518},"arcs":[982]},{"type":"LineString","properties":{"source":"naturalearthdata.com","kind":"highway","sort_rank":383,"kind_detail":"motorway","min_zoom":3.0,"id":20555},"arcs":[983]},{"type":"LineString","properties":{"source":"naturalearthdata.com","kind":"major_road","sort_rank":379,"kind_detail":"secondary","min_zoom":4.0,"id":20561},"arcs":[984]},{"type":"LineString","properties":{"source":"naturalearthdata.com","kind":"minor_road","sort_rank":355,"kind_detail":"tertiary","min_zoom":5.0,"id":20620},"arcs":[985]},{"type":"LineString","properties":{"source":"naturalearthdata.com","kind":"highway","kind_detail":"motorway","sort_rank":383,"landuse_kind":"urban_area","min_zoom":3.0,"id":20642},"arcs":[986]},{"type":"LineString","properties":{"source":"naturalearthdata.com","kind":"highway","sort_rank":383,"kind_detail":"motorway","min_zoom":3.0,"id":20642},"arcs":[987]},{"type":"LineString","properties":{"source":"naturalearthdata.com","kind":"major_road","sort_rank":379,"kind_detail":"secondary","min_zoom":3.0,"id":20684},"arcs":[988]},{"type":"LineString","properties":{"source":"naturalearthdata.com","kind":"major_road","kind_detail":"secondary","sort_rank":379,"landuse_kind":"urban_area","min_zoom":3.0,"id":20686},"arcs":[989]},{"type":"LineString","properties":{"source":"naturalearthdata.com","kind":"major_road","sort_rank":379,"kind_detail":"secondary","min_zoom":3.0,"id":20686},"arcs":[990]},{"type":"LineString","properties":{"source":"naturalearthdata.com","kind":"major_road","sort_rank":379,"kind_detail":"secondary","min_zoom":4.0,"id":20710},"arcs":[991]},{"type":"LineString","properties":{"source":"naturalearthdata.com","kind":"major_road","sort_rank":379,"kind_detail":"secondary","min_zoom":3.0,"id":20711},"arcs":[992]},{"type":"LineString","properties":{"source":"naturalearthdata.com","kind":"major_road","sort_rank":379,"kind_detail":"secondary","min_zoom":3.0,"id":20772},"arcs":[993]},{"type":"LineString","properties":{"source":"naturalearthdata.com","kind":"highway","kind_detail":"motorway","sort_rank":383,"landuse_kind":"urban_area","min_zoom":4.0,"id":20798},"arcs":[994]},{"type":"LineString","properties":{"source":"naturalearthdata.com","kind":"highway","sort_rank":383,"kind_detail":"motorway","min_zoom":4.0,"id":20798},"arcs":[995]},{"type":"LineString","properties":{"source":"naturalearthdata.com","kind":"major_road","sort_rank":379,"kind_detail":"secondary","min_zoom":3.0,"id":20814},"arcs":[996]},{"type":"LineString","properties":{"source":"naturalearthdata.com","kind":"major_road","sort_rank":379,"kind_detail":"secondary","min_zoom":4.0,"id":20836},"arcs":[997]},{"type":"LineString","properties":{"source":"naturalearthdata.com","kind":"major_road","sort_rank":379,"kind_detail":"secondary","min_zoom":3.0,"id":20865},"arcs":[998]},{"type":"LineString","properties":{"source":"naturalearthdata.com","kind":"highway","sort_rank":383,"kind_detail":"motorway","min_zoom":4.0,"id":20956},"arcs":[999]},{"type":"LineString","properties":{"source":"naturalearthdata.com","kind":"major_road","sort_rank":379,"kind_detail":"secondary","min_zoom":3.0,"id":21005},"arcs":[1000]},{"type":"LineString","properties":{"source":"naturalearthdata.com","kind":"major_road","sort_rank":379,"kind_detail":"secondary","min_zoom":4.0,"id":21006},"arcs":[1001]},{"type":"LineString","properties":{"source":"naturalearthdata.com","kind":"minor_road","sort_rank":355,"kind_detail":"tertiary","min_zoom":5.0,"id":21007},"arcs":[1002]},{"type":"LineString","properties":{"source":"naturalearthdata.com","kind":"minor_road","sort_rank":355,"kind_detail":"tertiary","min_zoom":5.0,"id":21029},"arcs":[1003]},{"type":"LineString","properties":{"source":"naturalearthdata.com","kind":"highway","sort_rank":383,"kind_detail":"motorway","min_zoom":3.0,"id":21043},"arcs":[1004]},{"type":"LineString","properties":{"source":"naturalearthdata.com","kind":"major_road","sort_rank":379,"kind_detail":"secondary","min_zoom":3.0,"id":21092},"arcs":[1005]},{"type":"LineString","properties":{"source":"naturalearthdata.com","kind":"highway","sort_rank":383,"kind_detail":"motorway","min_zoom":4.0,"id":21128},"arcs":[1006]},{"type":"LineString","properties":{"source":"naturalearthdata.com","kind":"minor_road","sort_rank":355,"kind_detail":"tertiary","min_zoom":5.0,"id":21129},"arcs":[1007]},{"type":"LineString","properties":{"source":"naturalearthdata.com","kind":"highway","sort_rank":383,"kind_detail":"motorway","min_zoom":3.0,"id":21157},"arcs":[1008]},{"type":"LineString","properties":{"source":"naturalearthdata.com","kind":"major_road","sort_rank":379,"kind_detail":"secondary","min_zoom":3.0,"id":21160},"arcs":[1009]},{"type":"LineString","properties":{"source":"naturalearthdata.com","kind":"major_road","sort_rank":379,"kind_detail":"secondary","min_zoom":3.0,"id":21161},"arcs":[1010]},{"type":"LineString","properties":{"source":"naturalearthdata.com","kind":"minor_road","sort_rank":355,"kind_detail":"tertiary","min_zoom":5.0,"id":21197},"arcs":[1011]},{"type":"LineString","properties":{"source":"naturalearthdata.com","kind":"highway","sort_rank":383,"kind_detail":"motorway","min_zoom":4.0,"id":21199},"arcs":[1012]},{"type":"LineString","properties":{"source":"naturalearthdata.com","kind":"major_road","kind_detail":"secondary","sort_rank":379,"landuse_kind":"urban_area","min_zoom":3.0,"id":21237},"arcs":[1013]},{"type":"LineString","properties":{"source":"naturalearthdata.com","kind":"major_road","sort_rank":379,"kind_detail":"secondary","min_zoom":3.0,"id":21237},"arcs":[1014]},{"type":"LineString","properties":{"source":"naturalearthdata.com","kind":"major_road","kind_detail":"secondary","sort_rank":379,"landuse_kind":"urban_area","min_zoom":3.0,"id":21244},"arcs":[1015]},{"type":"LineString","properties":{"source":"naturalearthdata.com","kind":"major_road","sort_rank":379,"kind_detail":"secondary","min_zoom":3.0,"id":21244},"arcs":[1016]},{"type":"LineString","properties":{"source":"naturalearthdata.com","kind":"major_road","sort_rank":379,"kind_detail":"secondary","min_zoom":3.0,"id":21248},"arcs":[1017]},{"type":"LineString","properties":{"source":"naturalearthdata.com","kind":"major_road","sort_rank":379,"kind_detail":"secondary","min_zoom":3.0,"id":21272},"arcs":[1018]},{"type":"LineString","properties":{"source":"naturalearthdata.com","kind":"minor_road","sort_rank":355,"kind_detail":"tertiary","min_zoom":5.0,"id":21329},"arcs":[1019]},{"type":"LineString","properties":{"source":"naturalearthdata.com","kind":"major_road","sort_rank":379,"kind_detail":"secondary","min_zoom":3.0,"id":21330},"arcs":[1020]},{"type":"LineString","properties":{"source":"naturalearthdata.com","kind":"major_road","sort_rank":379,"kind_detail":"secondary","min_zoom":3.0,"id":21339},"arcs":[1021]},{"type":"LineString","properties":{"source":"naturalearthdata.com","kind":"highway","sort_rank":383,"kind_detail":"motorway","min_zoom":3.0,"id":21386},"arcs":[1022]},{"type":"LineString","properties":{"source":"naturalearthdata.com","kind":"major_road","sort_rank":379,"kind_detail":"secondary","min_zoom":3.0,"id":21388},"arcs":[1023]},{"type":"LineString","properties":{"source":"naturalearthdata.com","kind":"highway","sort_rank":383,"kind_detail":"motorway","min_zoom":3.0,"id":21434},"arcs":[1024]},{"type":"LineString","properties":{"source":"naturalearthdata.com","kind":"major_road","kind_detail":"secondary","sort_rank":379,"landuse_kind":"urban_area","min_zoom":4.0,"id":21579},"arcs":[1025]},{"type":"LineString","properties":{"source":"naturalearthdata.com","kind":"major_road","kind_detail":"secondary","sort_rank":379,"landuse_kind":"urban_area","min_zoom":4.0,"id":21579},"arcs":[1026]},{"type":"MultiLineString","properties":{"source":"naturalearthdata.com","kind":"major_road","sort_rank":379,"kind_detail":"secondary","min_zoom":4.0,"id":21579},"arcs":[[1027],[1028]]},{"type":"LineString","properties":{"source":"naturalearthdata.com","kind":"major_road","sort_rank":379,"kind_detail":"secondary","min_zoom":3.0,"id":21599},"arcs":[1029]},{"type":"LineString","properties":{"source":"naturalearthdata.com","kind":"major_road","sort_rank":379,"kind_detail":"secondary","min_zoom":3.0,"id":21620},"arcs":[1030]},{"type":"LineString","properties":{"source":"naturalearthdata.com","kind":"major_road","sort_rank":379,"kind_detail":"secondary","min_zoom":4.0,"id":21674},"arcs":[1031]},{"type":"LineString","properties":{"source":"naturalearthdata.com","kind":"highway","sort_rank":383,"kind_detail":"motorway","min_zoom":3.0,"id":21794},"arcs":[1032]},{"type":"LineString","properties":{"source":"naturalearthdata.com","kind":"major_road","sort_rank":379,"kind_detail":"secondary","min_zoom":3.0,"id":21841},"arcs":[1033]},{"type":"LineString","properties":{"source":"naturalearthdata.com","kind":"major_road","sort_rank":379,"kind_detail":"secondary","min_zoom":3.0,"id":21894},"arcs":[1034]},{"type":"LineString","properties":{"source":"naturalearthdata.com","kind":"major_road","sort_rank":379,"kind_detail":"secondary","min_zoom":3.0,"id":21913},"arcs":[1035]},{"type":"LineString","properties":{"source":"naturalearthdata.com","kind":"major_road","sort_rank":379,"kind_detail":"secondary","min_zoom":4.0,"id":21931},"arcs":[1036]},{"type":"LineString","properties":{"source":"naturalearthdata.com","kind":"major_road","sort_rank":379,"kind_detail":"secondary","min_zoom":3.0,"id":21944},"arcs":[1037]},{"type":"LineString","properties":{"source":"naturalearthdata.com","kind":"major_road","sort_rank":379,"kind_detail":"secondary","min_zoom":3.0,"id":22007},"arcs":[1038]},{"type":"LineString","properties":{"source":"naturalearthdata.com","kind":"major_road","sort_rank":379,"kind_detail":"secondary","min_zoom":3.0,"id":22155},"arcs":[1039]},{"type":"LineString","properties":{"source":"naturalearthdata.com","kind":"highway","sort_rank":383,"kind_detail":"motorway","min_zoom":4.0,"id":22176},"arcs":[1040]},{"type":"LineString","properties":{"source":"naturalearthdata.com","kind":"major_road","sort_rank":379,"kind_detail":"secondary","min_zoom":4.0,"id":22298},"arcs":[1041]},{"type":"LineString","properties":{"source":"naturalearthdata.com","kind":"major_road","sort_rank":379,"kind_detail":"secondary","min_zoom":4.0,"id":22394},"arcs":[1042]},{"type":"LineString","properties":{"source":"naturalearthdata.com","kind":"highway","sort_rank":383,"kind_detail":"motorway","min_zoom":4.0,"id":22544},"arcs":[1043]},{"type":"LineString","properties":{"source":"naturalearthdata.com","kind":"highway","sort_rank":383,"kind_detail":"motorway","min_zoom":4.0,"id":22655},"arcs":[1044]},{"type":"LineString","properties":{"source":"naturalearthdata.com","kind":"minor_road","sort_rank":355,"kind_detail":"tertiary","min_zoom":5.0,"id":22674},"arcs":[1045]},{"type":"LineString","properties":{"source":"naturalearthdata.com","kind":"highway","sort_rank":383,"kind_detail":"motorway","min_zoom":5.0,"id":22677},"arcs":[1046]},{"type":"LineString","properties":{"source":"naturalearthdata.com","kind":"major_road","sort_rank":379,"kind_detail":"secondary","min_zoom":4.0,"id":22710},"arcs":[1047]},{"type":"LineString","properties":{"source":"naturalearthdata.com","kind":"minor_road","sort_rank":355,"kind_detail":"tertiary","min_zoom":5.0,"id":22713},"arcs":[1048]},{"type":"LineString","properties":{"source":"naturalearthdata.com","kind":"major_road","sort_rank":379,"kind_detail":"secondary","min_zoom":4.0,"id":22716},"arcs":[1049]},{"type":"LineString","properties":{"source":"naturalearthdata.com","kind":"major_road","sort_rank":379,"kind_detail":"secondary","min_zoom":4.0,"id":22726},"arcs":[1050]},{"type":"LineString","properties":{"source":"naturalearthdata.com","kind":"highway","sort_rank":383,"kind_detail":"motorway","min_zoom":4.0,"id":22733},"arcs":[1051]},{"type":"LineString","properties":{"source":"naturalearthdata.com","kind":"major_road","sort_rank":379,"kind_detail":"secondary","min_zoom":4.0,"id":22735},"arcs":[1052]},{"type":"LineString","properties":{"source":"naturalearthdata.com","kind":"major_road","sort_rank":379,"kind_detail":"secondary","min_zoom":4.0,"id":22741},"arcs":[1053]},{"type":"LineString","properties":{"source":"naturalearthdata.com","kind":"major_road","sort_rank":379,"kind_detail":"secondary","min_zoom":4.0,"id":22762},"arcs":[1054]},{"type":"LineString","properties":{"source":"naturalearthdata.com","kind":"major_road","sort_rank":379,"kind_detail":"secondary","min_zoom":4.0,"id":22795},"arcs":[1055]},{"type":"LineString","properties":{"source":"naturalearthdata.com","kind":"major_road","sort_rank":379,"kind_detail":"secondary","min_zoom":4.0,"id":22804},"arcs":[1056]},{"type":"LineString","properties":{"source":"naturalearthdata.com","kind":"major_road","sort_rank":379,"kind_detail":"secondary","min_zoom":4.0,"id":22853},"arcs":[1057]},{"type":"LineString","properties":{"source":"naturalearthdata.com","kind":"major_road","sort_rank":379,"kind_detail":"secondary","min_zoom":4.0,"id":22854},"arcs":[1058]},{"type":"LineString","properties":{"source":"naturalearthdata.com","kind":"major_road","sort_rank":379,"kind_detail":"secondary","min_zoom":3.0,"id":22978},"arcs":[1059]},{"type":"LineString","properties":{"source":"naturalearthdata.com","kind":"highway","sort_rank":383,"kind_detail":"motorway","min_zoom":4.0,"id":22985},"arcs":[1060]},{"type":"LineString","properties":{"source":"naturalearthdata.com","kind":"major_road","sort_rank":379,"kind_detail":"secondary","min_zoom":3.0,"id":23025},"arcs":[1061]},{"type":"LineString","properties":{"source":"naturalearthdata.com","kind":"highway","sort_rank":383,"kind_detail":"motorway","min_zoom":4.0,"id":23134},"arcs":[1062]},{"type":"LineString","properties":{"source":"naturalearthdata.com","kind":"minor_road","sort_rank":355,"kind_detail":"tertiary","min_zoom":5.0,"id":23280},"arcs":[1063]},{"type":"LineString","properties":{"source":"naturalearthdata.com","kind":"minor_road","sort_rank":355,"kind_detail":"tertiary","min_zoom":5.0,"id":23444},"arcs":[1064]},{"type":"LineString","properties":{"source":"naturalearthdata.com","kind":"major_road","sort_rank":379,"kind_detail":"secondary","min_zoom":4.0,"id":23445},"arcs":[1065]},{"type":"LineString","properties":{"source":"naturalearthdata.com","kind":"highway","sort_rank":383,"kind_detail":"motorway","min_zoom":4.0,"id":23524},"arcs":[1066]},{"type":"LineString","properties":{"source":"naturalearthdata.com","kind":"highway","sort_rank":383,"kind_detail":"motorway","min_zoom":4.0,"id":23622},"arcs":[1067]},{"type":"LineString","properties":{"source":"naturalearthdata.com","kind":"highway","sort_rank":383,"kind_detail":"motorway","min_zoom":4.0,"id":23682},"arcs":[1068]},{"type":"LineString","properties":{"source":"naturalearthdata.com","kind":"major_road","sort_rank":379,"kind_detail":"secondary","min_zoom":4.0,"id":23750},"arcs":[1069]},{"type":"LineString","properties":{"source":"naturalearthdata.com","kind":"major_road","sort_rank":379,"kind_detail":"secondary","min_zoom":4.0,"id":23767},"arcs":[1070]},{"type":"LineString","properties":{"source":"naturalearthdata.com","kind":"highway","sort_rank":383,"kind_detail":"motorway","min_zoom":4.0,"id":23991},"arcs":[1071]},{"type":"LineString","properties":{"source":"naturalearthdata.com","kind":"major_road","sort_rank":379,"kind_detail":"secondary","min_zoom":3.0,"id":24016},"arcs":[1072]},{"type":"LineString","properties":{"source":"naturalearthdata.com","kind":"highway","sort_rank":383,"kind_detail":"motorway","min_zoom":5.0,"id":24143},"arcs":[1073]},{"type":"LineString","properties":{"source":"naturalearthdata.com","kind":"major_road","sort_rank":379,"kind_detail":"secondary","min_zoom":4.0,"id":24259},"arcs":[1074]},{"type":"LineString","properties":{"source":"naturalearthdata.com","kind":"minor_road","sort_rank":355,"kind_detail":"tertiary","min_zoom":5.0,"id":24292},"arcs":[1075]},{"type":"LineString","properties":{"source":"naturalearthdata.com","kind":"highway","sort_rank":383,"kind_detail":"motorway","min_zoom":4.0,"id":24522},"arcs":[1076]},{"type":"LineString","properties":{"source":"naturalearthdata.com","kind":"minor_road","sort_rank":355,"kind_detail":"tertiary","min_zoom":5.0,"id":24630},"arcs":[1077]},{"type":"LineString","properties":{"source":"naturalearthdata.com","kind":"minor_road","sort_rank":355,"kind_detail":"tertiary","min_zoom":5.0,"id":24825},"arcs":[1078]},{"type":"LineString","properties":{"source":"naturalearthdata.com","kind":"minor_road","sort_rank":355,"kind_detail":"tertiary","min_zoom":5.0,"id":24871},"arcs":[1079]},{"type":"LineString","properties":{"source":"naturalearthdata.com","kind":"major_road","sort_rank":379,"kind_detail":"secondary","min_zoom":3.0,"id":24878},"arcs":[1080]},{"type":"LineString","properties":{"source":"naturalearthdata.com","kind":"minor_road","sort_rank":355,"kind_detail":"tertiary","min_zoom":5.0,"id":24906},"arcs":[1081]},{"type":"LineString","properties":{"source":"naturalearthdata.com","kind":"major_road","sort_rank":379,"kind_detail":"secondary","min_zoom":4.0,"id":24922},"arcs":[1082]},{"type":"LineString","properties":{"source":"naturalearthdata.com","kind":"major_road","sort_rank":379,"kind_detail":"secondary","min_zoom":3.0,"id":24931},"arcs":[1083]},{"type":"LineString","properties":{"source":"naturalearthdata.com","kind":"major_road","sort_rank":379,"kind_detail":"secondary","min_zoom":3.0,"id":24939},"arcs":[1084]},{"type":"LineString","properties":{"source":"naturalearthdata.com","kind":"minor_road","sort_rank":355,"kind_detail":"tertiary","min_zoom":5.0,"id":24950},"arcs":[1085]},{"type":"LineString","properties":{"source":"naturalearthdata.com","kind":"major_road","sort_rank":379,"kind_detail":"secondary","min_zoom":3.0,"id":24992},"arcs":[1086]},{"type":"LineString","properties":{"source":"naturalearthdata.com","kind":"major_road","sort_rank":379,"kind_detail":"secondary","min_zoom":3.0,"id":25008},"arcs":[1087]},{"type":"LineString","properties":{"source":"naturalearthdata.com","kind":"major_road","sort_rank":379,"kind_detail":"secondary","min_zoom":3.0,"id":25025},"arcs":[1088]},{"type":"LineString","properties":{"source":"naturalearthdata.com","kind":"minor_road","sort_rank":355,"kind_detail":"tertiary","min_zoom":5.0,"id":25048},"arcs":[1089]},{"type":"LineString","properties":{"source":"naturalearthdata.com","kind":"major_road","sort_rank":379,"kind_detail":"secondary","min_zoom":3.0,"id":25063},"arcs":[1090]},{"type":"LineString","properties":{"source":"naturalearthdata.com","kind":"minor_road","sort_rank":355,"kind_detail":"tertiary","min_zoom":5.0,"id":25091},"arcs":[1091]},{"type":"LineString","properties":{"source":"naturalearthdata.com","kind":"minor_road","sort_rank":355,"kind_detail":"tertiary","min_zoom":5.0,"id":25119},"arcs":[1092]},{"type":"LineString","properties":{"source":"naturalearthdata.com","kind":"minor_road","sort_rank":355,"kind_detail":"tertiary","min_zoom":5.0,"id":25130},"arcs":[1093]},{"type":"LineString","properties":{"source":"naturalearthdata.com","kind":"major_road","sort_rank":379,"kind_detail":"secondary","min_zoom":4.0,"id":25131},"arcs":[1094]},{"type":"LineString","properties":{"source":"naturalearthdata.com","kind":"minor_road","sort_rank":355,"kind_detail":"tertiary","min_zoom":5.0,"id":25165},"arcs":[1095]},{"type":"LineString","properties":{"source":"naturalearthdata.com","kind":"minor_road","sort_rank":355,"kind_detail":"tertiary","min_zoom":5.0,"id":25174},"arcs":[1096]},{"type":"LineString","properties":{"source":"naturalearthdata.com","kind":"minor_road","sort_rank":355,"kind_detail":"tertiary","min_zoom":5.0,"id":25237},"arcs":[1097]},{"type":"LineString","properties":{"source":"naturalearthdata.com","kind":"minor_road","kind_detail":"tertiary","sort_rank":355,"landuse_kind":"urban_area","min_zoom":5.0,"id":25246},"arcs":[1098]},{"type":"LineString","properties":{"source":"naturalearthdata.com","kind":"minor_road","sort_rank":355,"kind_detail":"tertiary","min_zoom":5.0,"id":25246},"arcs":[1099]},{"type":"LineString","properties":{"source":"naturalearthdata.com","kind":"minor_road","sort_rank":355,"kind_detail":"tertiary","min_zoom":5.0,"id":25294},"arcs":[1100]},{"type":"LineString","properties":{"source":"naturalearthdata.com","kind":"minor_road","sort_rank":355,"kind_detail":"tertiary","min_zoom":5.0,"id":25331},"arcs":[1101]},{"type":"LineString","properties":{"source":"naturalearthdata.com","kind":"minor_road","sort_rank":355,"kind_detail":"tertiary","min_zoom":5.0,"id":25332},"arcs":[1102]},{"type":"LineString","properties":{"source":"naturalearthdata.com","kind":"minor_road","sort_rank":355,"kind_detail":"tertiary","min_zoom":5.0,"id":25340},"arcs":[1103]},{"type":"LineString","properties":{"source":"naturalearthdata.com","kind":"minor_road","sort_rank":355,"kind_detail":"tertiary","min_zoom":5.0,"id":25341},"arcs":[1104]},{"type":"LineString","properties":{"source":"naturalearthdata.com","kind":"major_road","sort_rank":379,"kind_detail":"secondary","min_zoom":3.0,"id":25387},"arcs":[1105]},{"type":"LineString","properties":{"source":"naturalearthdata.com","kind":"minor_road","sort_rank":355,"kind_detail":"tertiary","min_zoom":5.0,"id":25414},"arcs":[1106]},{"type":"LineString","properties":{"source":"naturalearthdata.com","kind":"minor_road","kind_detail":"tertiary","sort_rank":355,"landuse_kind":"urban_area","min_zoom":5.0,"id":25417},"arcs":[1107]},{"type":"LineString","properties":{"source":"naturalearthdata.com","kind":"major_road","kind_detail":"secondary","sort_rank":379,"landuse_kind":"urban_area","min_zoom":3.0,"id":25418},"arcs":[1108]},{"type":"LineString","properties":{"source":"naturalearthdata.com","kind":"major_road","kind_detail":"secondary","sort_rank":379,"landuse_kind":"urban_area","min_zoom":3.0,"id":25420},"arcs":[1109]},{"type":"LineString","properties":{"source":"naturalearthdata.com","kind":"major_road","sort_rank":379,"kind_detail":"secondary","min_zoom":3.0,"id":25420},"arcs":[1110]},{"type":"LineString","properties":{"source":"naturalearthdata.com","kind":"minor_road","sort_rank":355,"kind_detail":"tertiary","min_zoom":5.0,"id":25455},"arcs":[1111]},{"type":"LineString","properties":{"source":"naturalearthdata.com","kind":"minor_road","sort_rank":355,"kind_detail":"tertiary","min_zoom":5.0,"id":25471},"arcs":[1112]},{"type":"MultiLineString","properties":{"source":"naturalearthdata.com","kind":"minor_road","kind_detail":"tertiary","sort_rank":355,"landuse_kind":"urban_area","min_zoom":5.0,"id":25526},"arcs":[[1113],[1114],[1115]]},{"type":"MultiLineString","properties":{"source":"naturalearthdata.com","kind":"minor_road","sort_rank":355,"kind_detail":"tertiary","min_zoom":5.0,"id":25526},"arcs":[[1116],[1117],[1118]]},{"type":"MultiLineString","properties":{"source":"naturalearthdata.com","kind":"major_road","kind_detail":"secondary","sort_rank":379,"landuse_kind":"urban_area","min_zoom":3.0,"id":25527},"arcs":[[1119],[1120]]},{"type":"MultiLineString","properties":{"source":"naturalearthdata.com","kind":"major_road","sort_rank":379,"kind_detail":"secondary","min_zoom":3.0,"id":25527},"arcs":[[1121],[1122]]},{"type":"LineString","properties":{"source":"naturalearthdata.com","kind":"minor_road","sort_rank":355,"kind_detail":"tertiary","min_zoom":5.0,"id":25535},"arcs":[1123]},{"type":"LineString","properties":{"source":"naturalearthdata.com","kind":"major_road","kind_detail":"secondary","sort_rank":379,"landuse_kind":"urban_area","min_zoom":4.0,"id":25605},"arcs":[1124]},{"type":"MultiLineString","properties":{"source":"naturalearthdata.com","kind":"major_road","sort_rank":379,"kind_detail":"secondary","min_zoom":4.0,"id":25605},"arcs":[[1125],[1126]]},{"type":"LineString","properties":{"source":"naturalearthdata.com","kind":"major_road","kind_detail":"secondary","sort_rank":379,"landuse_kind":"urban_area","min_zoom":3.0,"id":25606},"arcs":[1127]},{"type":"MultiLineString","properties":{"source":"naturalearthdata.com","kind":"major_road","sort_rank":379,"kind_detail":"secondary","min_zoom":3.0,"id":25606},"arcs":[[1128],[1129]]},{"type":"LineString","properties":{"source":"naturalearthdata.com","kind":"major_road","sort_rank":379,"kind_detail":"secondary","min_zoom":4.0,"id":25630},"arcs":[1130]},{"type":"LineString","properties":{"source":"naturalearthdata.com","kind":"major_road","sort_rank":379,"kind_detail":"secondary","min_zoom":3.0,"id":25684},"arcs":[1131]},{"type":"LineString","properties":{"source":"naturalearthdata.com","kind":"major_road","kind_detail":"secondary","sort_rank":379,"landuse_kind":"urban_area","min_zoom":3.0,"id":25726},"arcs":[1132]},{"type":"LineString","properties":{"source":"naturalearthdata.com","kind":"major_road","sort_rank":379,"kind_detail":"secondary","min_zoom":3.0,"id":25726},"arcs":[1133]},{"type":"LineString","properties":{"source":"naturalearthdata.com","kind":"minor_road","sort_rank":355,"kind_detail":"tertiary","min_zoom":5.0,"id":25729},"arcs":[1134]},{"type":"LineString","properties":{"source":"naturalearthdata.com","kind":"major_road","kind_detail":"secondary","sort_rank":379,"landuse_kind":"urban_area","min_zoom":3.0,"id":25768},"arcs":[1135]},{"type":"LineString","properties":{"source":"naturalearthdata.com","kind":"major_road","sort_rank":379,"kind_detail":"secondary","min_zoom":3.0,"id":25768},"arcs":[1136]},{"type":"LineString","properties":{"source":"naturalearthdata.com","kind":"minor_road","sort_rank":355,"kind_detail":"tertiary","min_zoom":5.0,"id":25807},"arcs":[1137]},{"type":"LineString","properties":{"source":"naturalearthdata.com","kind":"minor_road","kind_detail":"tertiary","sort_rank":355,"landuse_kind":"urban_area","min_zoom":5.0,"id":25826},"arcs":[1138]},{"type":"LineString","properties":{"source":"naturalearthdata.com","kind":"minor_road","sort_rank":355,"kind_detail":"tertiary","min_zoom":5.0,"id":25826},"arcs":[1139]},{"type":"LineString","properties":{"source":"naturalearthdata.com","kind":"minor_road","sort_rank":355,"kind_detail":"tertiary","min_zoom":5.0,"id":25967},"arcs":[1140]},{"type":"LineString","properties":{"source":"naturalearthdata.com","kind":"minor_road","sort_rank":355,"kind_detail":"tertiary","min_zoom":5.0,"id":26010},"arcs":[1141]},{"type":"LineString","properties":{"source":"naturalearthdata.com","kind":"minor_road","sort_rank":355,"kind_detail":"tertiary","min_zoom":5.0,"id":26014},"arcs":[1142]},{"type":"LineString","properties":{"source":"naturalearthdata.com","kind":"major_road","sort_rank":379,"kind_detail":"secondary","min_zoom":4.0,"id":26035},"arcs":[1143]},{"type":"LineString","properties":{"source":"naturalearthdata.com","kind":"minor_road","sort_rank":355,"kind_detail":"tertiary","min_zoom":5.0,"id":26049},"arcs":[1144]},{"type":"LineString","properties":{"source":"naturalearthdata.com","kind":"major_road","sort_rank":379,"kind_detail":"secondary","min_zoom":3.0,"id":26054},"arcs":[1145]},{"type":"LineString","properties":{"source":"naturalearthdata.com","kind":"minor_road","sort_rank":355,"kind_detail":"tertiary","min_zoom":5.0,"id":26212},"arcs":[1146]},{"type":"LineString","properties":{"source":"naturalearthdata.com","kind":"minor_road","sort_rank":355,"kind_detail":"tertiary","min_zoom":5.0,"id":26217},"arcs":[1147]},{"type":"LineString","properties":{"source":"naturalearthdata.com","kind":"minor_road","sort_rank":355,"kind_detail":"tertiary","min_zoom":5.0,"id":26226},"arcs":[1148]},{"type":"LineString","properties":{"source":"naturalearthdata.com","kind":"major_road","kind_detail":"secondary","sort_rank":379,"landuse_kind":"urban_area","min_zoom":3.0,"id":26231},"arcs":[1149]},{"type":"LineString","properties":{"source":"naturalearthdata.com","kind":"major_road","sort_rank":379,"kind_detail":"secondary","min_zoom":3.0,"id":26231},"arcs":[1150]},{"type":"LineString","properties":{"source":"naturalearthdata.com","kind":"minor_road","sort_rank":355,"kind_detail":"tertiary","min_zoom":5.0,"id":26232},"arcs":[1151]},{"type":"LineString","properties":{"source":"naturalearthdata.com","kind":"minor_road","kind_detail":"tertiary","sort_rank":355,"landuse_kind":"urban_area","min_zoom":5.0,"id":26237},"arcs":[1152]},{"type":"LineString","properties":{"source":"naturalearthdata.com","kind":"minor_road","sort_rank":355,"kind_detail":"tertiary","min_zoom":5.0,"id":26237},"arcs":[1153]},{"type":"LineString","properties":{"source":"naturalearthdata.com","kind":"major_road","kind_detail":"secondary","sort_rank":379,"landuse_kind":"urban_area","min_zoom":3.0,"id":26243},"arcs":[1154]},{"type":"LineString","properties":{"source":"naturalearthdata.com","kind":"major_road","kind_detail":"secondary","sort_rank":379,"landuse_kind":"urban_area","min_zoom":4.0,"id":26416},"arcs":[1155]},{"type":"LineString","properties":{"source":"naturalearthdata.com","kind":"major_road","sort_rank":379,"kind_detail":"secondary","min_zoom":4.0,"id":26416},"arcs":[1156]},{"type":"LineString","properties":{"source":"naturalearthdata.com","kind":"minor_road","kind_detail":"tertiary","sort_rank":355,"landuse_kind":"urban_area","min_zoom":5.0,"id":26475},"arcs":[1157]},{"type":"LineString","properties":{"source":"naturalearthdata.com","kind":"minor_road","sort_rank":355,"kind_detail":"tertiary","min_zoom":5.0,"id":26475},"arcs":[1158]},{"type":"LineString","properties":{"source":"naturalearthdata.com","kind":"minor_road","sort_rank":355,"kind_detail":"tertiary","min_zoom":5.0,"id":26551},"arcs":[1159]},{"type":"LineString","properties":{"source":"naturalearthdata.com","kind":"major_road","kind_detail":"secondary","sort_rank":379,"landuse_kind":"urban_area","min_zoom":4.0,"id":26565},"arcs":[1160]},{"type":"LineString","properties":{"source":"naturalearthdata.com","kind":"major_road","kind_detail":"secondary","sort_rank":379,"landuse_kind":"urban_area","min_zoom":4.0,"id":26565},"arcs":[1161]},{"type":"LineString","properties":{"source":"naturalearthdata.com","kind":"major_road","sort_rank":379,"kind_detail":"secondary","min_zoom":4.0,"id":26565},"arcs":[1162]},{"type":"LineString","properties":{"source":"naturalearthdata.com","kind":"minor_road","sort_rank":355,"kind_detail":"tertiary","min_zoom":5.0,"id":26717},"arcs":[1163]},{"type":"LineString","properties":{"source":"naturalearthdata.com","kind":"minor_road","kind_detail":"tertiary","sort_rank":355,"landuse_kind":"urban_area","min_zoom":5.0,"id":26737},"arcs":[1164]},{"type":"LineString","properties":{"source":"naturalearthdata.com","kind":"minor_road","sort_rank":355,"kind_detail":"tertiary","min_zoom":5.0,"id":26737},"arcs":[1165]},{"type":"LineString","properties":{"source":"naturalearthdata.com","kind":"minor_road","kind_detail":"tertiary","sort_rank":355,"landuse_kind":"urban_area","min_zoom":5.0,"id":26764},"arcs":[1166]},{"type":"LineString","properties":{"source":"naturalearthdata.com","kind":"minor_road","sort_rank":355,"kind_detail":"tertiary","min_zoom":5.0,"id":26764},"arcs":[1167]},{"type":"LineString","properties":{"source":"naturalearthdata.com","kind":"major_road","kind_detail":"secondary","sort_rank":379,"landuse_kind":"urban_area","min_zoom":4.0,"id":26839},"arcs":[1168]},{"type":"LineString","properties":{"source":"naturalearthdata.com","kind":"major_road","kind_detail":"secondary","sort_rank":379,"landuse_kind":"urban_area","min_zoom":4.0,"id":26839},"arcs":[1169]},{"type":"LineString","properties":{"source":"naturalearthdata.com","kind":"major_road","sort_rank":379,"kind_detail":"secondary","min_zoom":4.0,"id":26839},"arcs":[1170]},{"type":"LineString","properties":{"source":"naturalearthdata.com","kind":"major_road","kind_detail":"secondary","sort_rank":379,"landuse_kind":"urban_area","min_zoom":3.0,"id":26840},"arcs":[1171]},{"type":"LineString","properties":{"source":"naturalearthdata.com","kind":"major_road","kind_detail":"secondary","sort_rank":379,"landuse_kind":"urban_area","min_zoom":3.0,"id":26840},"arcs":[1172]},{"type":"LineString","properties":{"source":"naturalearthdata.com","kind":"major_road","sort_rank":379,"kind_detail":"secondary","min_zoom":3.0,"id":26840},"arcs":[1173]},{"type":"LineString","properties":{"source":"naturalearthdata.com","kind":"highway","kind_detail":"motorway","sort_rank":383,"landuse_kind":"urban_area","min_zoom":5.0,"id":26857},"arcs":[1174]},{"type":"LineString","properties":{"source":"naturalearthdata.com","kind":"highway","sort_rank":383,"kind_detail":"motorway","min_zoom":5.0,"id":26857},"arcs":[1175]},{"type":"LineString","properties":{"source":"naturalearthdata.com","kind":"minor_road","kind_detail":"tertiary","sort_rank":355,"landuse_kind":"urban_area","min_zoom":5.0,"id":26858},"arcs":[1176]},{"type":"LineString","properties":{"source":"naturalearthdata.com","kind":"minor_road","kind_detail":"tertiary","sort_rank":355,"landuse_kind":"urban_area","min_zoom":5.0,"id":26858},"arcs":[1177]},{"type":"LineString","properties":{"source":"naturalearthdata.com","kind":"minor_road","sort_rank":355,"kind_detail":"tertiary","min_zoom":5.0,"id":26858},"arcs":[1178]},{"type":"LineString","properties":{"source":"naturalearthdata.com","kind":"major_road","sort_rank":379,"kind_detail":"secondary","min_zoom":3.0,"id":26902},"arcs":[1179]},{"type":"LineString","properties":{"source":"naturalearthdata.com","kind":"highway","kind_detail":"motorway","sort_rank":383,"landuse_kind":"urban_area","min_zoom":5.0,"id":27100},"arcs":[1180]},{"type":"LineString","properties":{"source":"naturalearthdata.com","kind":"highway","sort_rank":383,"kind_detail":"motorway","min_zoom":5.0,"id":27100},"arcs":[1181]},{"type":"LineString","properties":{"source":"naturalearthdata.com","kind":"minor_road","sort_rank":355,"kind_detail":"tertiary","min_zoom":5.0,"id":27158},"arcs":[1182]},{"type":"LineString","properties":{"source":"naturalearthdata.com","kind":"highway","kind_detail":"motorway","sort_rank":383,"landuse_kind":"urban_area","min_zoom":3.0,"id":27409},"arcs":[1183]},{"type":"LineString","properties":{"source":"naturalearthdata.com","kind":"highway","sort_rank":383,"kind_detail":"motorway","min_zoom":3.0,"id":27409},"arcs":[1184]},{"type":"LineString","properties":{"source":"naturalearthdata.com","kind":"highway","sort_rank":383,"kind_detail":"motorway","min_zoom":5.0,"id":27621},"arcs":[1185]},{"type":"LineString","properties":{"source":"naturalearthdata.com","kind":"minor_road","kind_detail":"tertiary","sort_rank":355,"landuse_kind":"urban_area","min_zoom":5.0,"id":27755},"arcs":[1186]},{"type":"LineString","properties":{"source":"naturalearthdata.com","kind":"minor_road","sort_rank":355,"kind_detail":"tertiary","min_zoom":5.0,"id":27755},"arcs":[1187]},{"type":"LineString","properties":{"source":"naturalearthdata.com","kind":"highway","kind_detail":"motorway","sort_rank":383,"landuse_kind":"urban_area","min_zoom":5.0,"id":48450},"arcs":[1188]},{"type":"LineString","properties":{"source":"naturalearthdata.com","kind":"highway","sort_rank":383,"kind_detail":"motorway","min_zoom":5.0,"id":48450},"arcs":[1189]},{"type":"LineString","properties":{"source":"naturalearthdata.com","kind":"highway","sort_rank":383,"kind_detail":"motorway","min_zoom":3.0,"id":48597},"arcs":[1190]}]},"earth":{"type":"GeometryCollection","geometries":[{"type":"MultiPolygon","properties":{"sort_rank":10,"source":"naturalearthdata.com","min_zoom":0.0,"kind":"earth","area":6230319401777},"arcs":[[[1191]]]}]},"landuse":{"type":"GeometryCollection","geometries":[{"type":"Polygon","properties":{"kind":"protected_area","name":"Kibber Wildlife Sanctuary","area":1473479936,"sort_rank":17,"source":"openstreetmap.org","min_zoom":4.0,"tier":2,"id":-4144891,"osm_relation":true,"protect_class":"4"},"arcs":[[1192]]},{"type":"MultiPolygon","properties":{"source":"naturalearthdata.com","kind":"urban_area","name":"","area":43810010683,"sort_rank":11,"min_zoom":4.0},"arcs":[[[1193]],[[1194]],[[1195]],[[1196]],[[1197]],[[1198]],[[1199]],[[1200]],[[1201]],[[1202]],[[1203]],[[1204]],[[1205]],[[1206]],[[1207]],[[1208]],[[1209]],[[1210]],[[1211]],[[1212]],[[1213]],[[1214]],[[1215]],[[1216]],[[1217]],[[1218]],[[1219]],[[1220]],[[1221]],[[1222]],[[1223]],[[1224]],[[1225]],[[1226]]]}]}},"type":"Topology","transform":{"translate":[67.5,31.952162238],"scale":[0.002746582,0.0022040371]},"arcs":[[[1544,3606],[6,1],[4,6],[8,29],[-2,5]],[[1560,3647],[-9,-3],[-13,-10],[-6,-3],[-9,0],[-6,-7],[3,-6],[8,-6],[7,-3],[9,-3]],[[1145,4076],[-1,7],[-4,11],[-1,2]],[[1121,4096],[11,-13],[6,-6],[7,-1]],[[1339,3670],[-3,1],[-1,1],[-2,1],[-20,8],[-10,6],[-6,8],[-5,12],[-6,11],[-9,5]],[[1277,3723],[-11,-6],[-6,-14],[-2,-8],[-1,-8],[2,-7],[9,-19],[4,-6],[5,-2],[10,-2],[4,-3],[2,-13],[-16,-24],[1,-11],[4,-3]],[[1316,3594],[17,5],[12,0],[5,2],[4,5],[1,14],[-16,17],[-1,12],[6,5],[17,12],[2,7],[-3,4],[-4,1]],[[1356,3678],[-10,-3],[-1,-1],[-4,-3],[-2,-1]],[[1297,3608],[6,0],[2,-4],[1,-5],[4,-4],[6,-1]],[[1282,3597],[5,3],[5,5],[5,3]],[[1292,2929],[-3,3],[-3,4],[-3,8],[-2,4],[-4,4],[-3,3],[-4,3],[-5,1]],[[1265,2959],[-9,0],[-2,-4],[1,-10],[-4,-5]],[[1251,2940],[-9,3],[-15,7]],[[1227,2950],[-4,-1],[-2,-2],[-1,-2],[-3,-1]],[[1217,2944],[-3,0],[-6,2],[-3,1],[-12,0]],[[1193,2947],[-6,-2],[-2,-3],[-5,-8],[-21,-2],[-7,-4],[0,-3],[8,-6],[-3,-5],[-13,-9],[-4,-2]],[[1370,2710],[-2,1],[-1,5],[0,5],[4,11],[3,11],[10,20],[5,19],[7,13],[2,13],[7,20],[2,10],[-2,20],[-9,13],[-12,9],[-30,12],[-23,23],[-14,10],[-10,5],[-5,1]],[[1302,2931],[-4,0],[-3,-1],[-3,-1]],[[1140,2903],[-8,0]],[[1132,2903],[-3,-2],[-2,-4],[0,-4],[0,-5],[0,-4],[-4,-15],[-4,-2],[-5,-1],[-5,-3],[-3,-11],[-11,-21],[-9,-25],[-5,-7],[-3,-4],[-13,-5],[-4,-3],[-16,-17],[-16,-21],[-3,-2],[-7,-4],[-2,-1],[-2,-2],[-1,-4],[-4,-2],[-5,-1],[-2,-1],[-2,-4],[0,-4],[2,-4],[2,-4],[-8,-3],[-9,-1]],[[1529,2144],[-17,4],[-15,8],[-12,13],[-5,8],[-4,9],[-3,9],[-3,21],[-3,9],[-21,34],[-3,8],[-1,10],[0,18],[-2,5],[-6,10],[-2,5],[-1,6],[1,27],[3,19],[2,7],[3,4],[-2,11],[14,22],[0,13],[2,6],[1,9],[-1,19],[-2,18],[1,6],[4,11],[3,18],[-5,36],[2,20],[1,3],[5,6],[1,4],[1,4],[2,14],[4,14],[1,5],[-1,5],[-3,9],[-1,5],[3,8],[14,8],[5,8],[2,9],[0,10],[-1,10],[-1,6],[3,3],[-11,13],[-11,8],[-13,1]],[[1457,2720],[-45,-16],[-6,-4],[-7,-4]],[[988,2712],[-8,2],[-7,6]],[[973,2720],[-4,-12],[1,-14],[5,-13],[7,-10],[4,-2],[12,-3],[2,-4],[1,-7],[3,-5],[3,-5],[3,-3],[-2,-6],[1,-6],[4,-13],[0,-7],[-1,-4],[-1,-4],[-1,-5],[-4,-7],[-2,-1],[-1,-2],[0,-3],[0,-5],[0,-3],[-2,-3],[-1,-1],[-2,-2]],[[1399,2696],[-8,3],[-14,11],[-4,0]],[[1373,2710],[-3,0]],[[928,2536],[-12,2],[-3,1],[-1,1],[-2,2],[-2,3],[-2,3],[-4,1],[-8,2],[-4,7],[-3,7],[-6,5],[-9,1]],[[872,2571],[-15,-8],[-8,-2],[-3,-2],[-4,-3],[-4,-2]],[[998,2570],[-1,1]],[[997,2571],[-7,-1],[-1,0],[-5,-13],[-1,-4],[-3,-1],[-12,-16],[-11,-4]],[[838,2554],[-4,2],[-2,2],[-8,3],[-3,0]],[[821,2561],[-9,-1],[-16,-7],[-8,-1]],[[788,2552],[-49,4]],[[739,2556],[-8,-3],[-6,-19],[-8,-8],[-16,-11],[-1,-3],[-3,-5],[-1,-2],[-3,-3],[-5,-4],[-2,-2],[-2,-7],[-1,-9],[0,-17],[1,-2],[4,-1],[1,-2],[-1,-2],[0,-1],[-1,0],[-1,-1],[0,-5],[1,-4],[1,-4],[2,-3],[3,-7],[2,-15],[3,-4],[-3,-10],[7,-3],[6,-1],[-1,-6],[-12,-21],[-6,-6],[-15,-9],[-6,-7],[-4,-4],[-4,-1],[-2,-1],[-8,-1],[-7,-4],[-7,-1]],[[957,2532],[-11,2],[-11,4],[-10,1]],[[925,2539],[3,-3]],[[2248,2486],[-25,7],[-44,15]],[[2179,2508],[-16,0],[-23,-12]],[[2140,2496],[-6,1],[-6,4],[-9,1]],[[2119,2502],[-9,-1],[-7,-2],[-6,-5],[-18,-18],[-3,-2]],[[2227,2396],[-5,4],[-2,9],[5,9],[7,7],[8,2],[14,2],[5,2],[6,6],[7,7],[2,6],[0,19],[0,4],[3,12],[-13,1]],[[2264,2486],[-16,0]],[[2483,2478],[-2,6]],[[2481,2484],[-4,-12],[-9,-1]],[[2519,2467],[-11,2],[-4,0],[-3,1],[-6,9],[-3,2]],[[2492,2481],[-4,0],[-5,-3]],[[2076,2474],[-8,3]],[[2068,2477],[-4,-1],[-13,-11],[-6,-7],[-6,-14],[-5,-6],[-7,-5],[-26,-2],[-26,-16],[-8,-10],[-9,-3],[-17,-3],[-15,-9],[-11,-15],[-17,-35],[-15,-24],[-2,-8],[-3,-5],[-54,-8],[-13,-6]],[[2468,2471],[-10,2]],[[2458,2473],[-10,0],[-6,-6],[0,-15],[-7,-8],[-9,-4],[-40,-8],[-28,-10],[-8,-2],[-20,-9],[-16,-2],[-7,-2],[-14,-13],[-5,-1]],[[2553,2461],[-13,4],[-8,4]],[[2532,2469],[-7,-1],[-6,-1]],[[636,2337],[-35,24],[-2,0],[-8,6],[-3,4],[-7,16],[-6,5],[-9,6],[-7,6],[-5,17],[-6,8],[-7,7],[-7,4],[-25,3],[-2,0],[-2,1]],[[505,2444],[-1,-2],[2,-5],[3,-3],[5,-5],[2,-2],[1,-6],[-2,-4],[-4,-1]],[[511,2416],[-5,2],[-5,7],[-3,7],[-4,6],[-8,2]],[[486,2440],[-8,-3],[-1,-5],[4,-14],[1,-9],[-1,-5]],[[446,2415],[-14,2]],[[432,2417],[-6,0],[-5,-5],[2,-2],[1,-2],[2,-6],[-8,-1],[-4,-6],[-2,-8],[-2,-3],[-6,-1],[-14,-4],[-7,-1],[-2,-2],[-5,-9],[-3,-2],[-4,0],[-17,-4],[-23,-2],[5,-11],[-2,-6],[-7,-4],[-10,-1]],[[481,2404],[-5,0],[-13,9],[-4,2],[-5,1]],[[454,2416],[-8,-1]],[[2261,2389],[-3,2],[-5,7],[-3,2],[-7,1]],[[2243,2401],[-16,-5]],[[2288,2393],[-6,1],[-8,1]],[[2274,2395],[-3,-1],[-6,-5],[-4,0]],[[194,2256],[-3,0],[-2,1],[-3,2],[-2,3],[-1,4],[-2,4],[-13,16],[-3,3],[-9,4],[-4,4],[-5,9],[-4,8],[-5,6],[-17,3],[-9,5],[-8,6],[-5,6],[0,7],[3,29]],[[315,2337],[-7,2],[-7,3],[-7,0]],[[294,2342],[-7,-5],[-3,-7],[1,-10],[2,-19],[-4,-6]],[[283,2295],[-9,0],[-15,5]],[[259,2300],[-9,-1],[-7,-6],[-6,-6],[-6,-3],[-5,-3],[-24,-20],[-4,-3],[-4,-2]],[[1811,2289],[-25,5]],[[1786,2294],[-16,-4],[-37,-15],[-14,-9],[-4,-4],[-5,-8],[-4,-4],[-12,-7],[-9,-10],[-106,-79],[-14,-6],[-18,-4],[-18,0]],[[22,2390],[-6,5],[-6,19],[-9,4]],[[1,2418],[-1,0]],[[69,2396],[-4,0],[-4,2],[-8,6],[-5,2]],[[48,2406],[-4,-1],[-7,-2],[-3,-1],[-3,-2],[-2,-4],[-3,-4],[-4,-2]],[[102,2376],[-2,8],[-4,6],[-6,4],[-8,2]],[[82,2396],[-13,0]],[[439,4096],[-2,-2],[-4,-5],[-11,-4],[-3,-2],[-8,-3],[-5,-3],[-5,-4],[-2,-5],[-2,-5]],[[350,3917],[-43,21],[-28,14],[-15,7],[-12,10],[-12,9],[-17,15],[-16,16],[-6,3],[-5,3],[-8,1],[-7,2],[-1,1],[-1,0],[0,2],[1,2],[2,1],[1,2],[7,3],[6,2],[3,3],[3,2],[3,3],[2,3],[2,3],[2,2],[3,6],[3,6],[3,8],[2,7],[2,8],[2,7],[0,7]],[[397,4063],[-1,0],[-1,1],[-2,0],[-1,1],[-1,0],[-1,1]],[[390,4066],[0,-3],[0,-2],[0,-5],[1,-5],[-1,-2],[0,-3],[-1,-2],[-1,-3],[-1,-1],[-1,0],[-1,-2],[-1,-1],[-1,-3],[-1,-4],[2,-19],[2,-19],[1,-4],[1,-4],[2,-2],[1,-2],[2,-1],[2,-1],[4,-1],[5,-1],[0,-3],[0,-2],[0,-3],[1,-3],[1,-3],[1,-3],[2,-2],[1,-3],[0,-1],[0,-2],[-5,-7],[-4,-7],[3,-2],[4,-1],[-1,-3],[-1,-3],[-4,-2],[-4,-3]],[[398,3923],[-5,1],[-5,1],[-7,3],[-7,4],[-2,0],[-3,0]],[[369,3932],[-1,-1],[-2,-1],[-1,-2],[-1,-2],[-1,-1],[-2,-2]],[[361,3923],[-2,0],[-3,0]],[[356,3923],[-2,-2],[-3,-2],[0,-1],[-1,-1]],[[2556,2271],[6,2],[3,15],[1,3],[1,3],[-1,3],[-2,3]],[[2533,2292],[7,-2],[1,-1],[2,-1],[6,-10],[7,-7]],[[2444,2243],[8,3],[18,14],[31,20],[9,8],[15,4],[8,0]],[[2420,2246],[24,-3]],[[2379,2207],[22,7],[3,4],[2,16],[3,6],[5,4],[6,2]],[[2236,2243],[25,-1],[1,0],[22,-1],[22,-4],[11,-5],[30,-18],[11,-3],[11,-4],[10,0]],[[2188,2235],[48,8]],[[2165,2239],[11,-2],[12,-2]],[[2141,2235],[24,4]],[[2123,2237],[18,-2]],[[2100,2230],[5,0],[18,7]],[[2072,2234],[12,-1],[11,-3],[5,0]],[[1999,2218],[4,2],[9,7],[6,2],[54,5]],[[1983,2223],[11,-4],[5,-1]],[[1922,2212],[32,1],[11,3],[9,5],[9,2]],[[1892,2216],[30,-4]],[[1796,2178],[8,2],[23,20],[17,9],[24,5],[24,2]],[[1779,2179],[17,-1]],[[1548,2014],[6,0],[5,2],[5,5],[-2,7],[-6,12],[0,14],[7,5],[24,2],[6,2],[4,4],[5,5],[5,4],[17,10],[6,6],[8,4],[15,4],[5,6],[1,4],[-2,3],[0,4],[3,4],[4,2],[9,3],[22,3],[6,4],[-3,8],[-5,8],[1,6],[6,4],[16,7],[32,8],[16,1],[15,4]],[[1503,2045],[8,-3],[21,-14],[10,-12],[6,-2]],[[1292,1179],[6,4],[4,9],[1,11],[-1,9],[-3,10],[1,7],[4,5],[25,22],[14,8],[5,5],[19,28],[6,15],[7,14],[13,10],[43,19],[6,2],[3,3],[3,5],[3,10],[3,5],[4,3],[2,4],[1,4],[-2,5],[1,20],[9,12],[25,18],[9,14],[4,9],[-2,6],[-11,9],[-20,24],[-7,11],[1,13],[11,14],[18,16],[3,7],[1,9],[-3,6],[-5,5],[-3,4],[-2,4],[-2,10],[2,8],[2,8],[0,9],[-3,7],[-6,4],[-20,10],[-7,6],[-4,8],[5,9],[6,9],[3,8],[-2,8],[-5,8],[-2,3],[-5,4],[-3,3],[-1,5],[0,4],[0,4],[0,5],[-3,6],[-12,23],[-5,7],[-16,11],[-4,7],[-2,15],[-5,7],[-11,4],[-10,3],[-10,4],[-9,10],[-5,4],[-13,7],[-4,4],[-1,2],[-1,6],[3,7],[12,12],[2,4],[2,10],[2,3],[14,10],[11,5],[3,3],[3,4],[2,10],[2,3],[23,8],[7,6],[28,31],[6,4],[7,3],[9,1],[7,4],[-2,6],[-4,7],[2,7],[9,9],[3,5],[3,7],[4,14],[4,4],[6,1]],[[1277,1182],[15,-3]],[[1252,930],[6,1],[4,4],[4,7],[7,2],[18,4],[6,6],[2,8],[-1,7],[-1,8],[4,9],[10,12],[3,6],[0,11],[-1,9],[-3,16],[0,8],[10,32],[-1,11],[-26,15],[-11,11],[-11,13],[-7,12],[-4,8],[-2,11],[1,10],[4,8],[5,2],[1,0],[8,1]],[[899,950],[12,-1],[79,-29],[21,-2],[12,-6],[7,-2],[29,-2],[30,-6],[11,-1]],[[934,803],[-19,8],[-6,1],[-9,1],[-5,4],[-4,9],[-3,9],[-3,6],[-8,14],[-4,7],[-4,17],[-4,6],[-10,11],[-3,7],[5,6],[7,7],[0,7],[-1,7],[1,7],[6,6],[10,4],[19,3]],[[1236,933],[10,-3],[6,0]],[[1198,908],[26,5],[7,14],[1,5],[4,1]],[[1149,909],[49,-1]],[[1100,901],[49,8]],[[949,562],[7,4],[61,54],[3,15],[-6,14],[-19,23],[-2,3],[-3,7],[-2,3],[-10,3],[-3,2],[-5,7],[-3,8],[-2,9],[1,9],[7,28],[1,11],[-2,3],[-3,2],[-6,3],[-3,3],[-2,3],[-2,7],[-3,18],[-3,4]],[[950,805],[-16,-2]],[[932,565],[9,-3],[8,0]],[[908,533],[5,2],[3,4],[12,24],[4,2]],[[898,534],[10,-1]],[[851,515],[16,1],[27,17],[4,1]],[[827,527],[24,-12]],[[789,510],[7,2],[17,13],[14,2]],[[779,514],[4,-1],[3,-2],[3,-1]],[[768,511],[11,3]],[[760,512],[8,-1]],[[657,0],[-1,4],[-11,34],[-7,43],[0,10],[3,19],[0,19],[2,20],[1,9],[-2,10],[-9,25],[-4,20],[2,19],[7,17],[11,14],[7,5],[15,6],[7,6],[19,30],[4,9],[1,5],[-3,16],[-1,7],[-1,4],[-2,2],[-4,1],[-3,2],[-2,3],[-2,4],[-1,9],[4,6],[12,10],[9,13],[10,7],[2,2],[4,14],[-7,49],[3,8],[4,7],[9,13],[12,8],[15,3]],[[2839,173],[11,-10],[9,-12],[2,-11],[-3,-8],[-12,-15],[-3,-7],[-4,-16],[-1,-5]],[[2838,89],[-11,1]],[[2827,90],[-5,-1],[-9,-3],[-11,-6],[-8,-9],[0,-10]],[[2771,57],[-3,0],[-22,9]],[[2746,66],[-7,-1],[3,-13],[-4,0]],[[2794,61],[-5,1],[-8,2]],[[2781,64],[-3,-1],[-4,-5],[-3,-1]],[[2738,52],[-9,0]],[[2729,52],[-3,-2],[-3,-4],[-2,-4],[-2,-3],[-4,-3],[-9,-1]],[[2706,35],[-9,1]],[[2697,36],[-7,-1],[-6,-8]],[[2684,27],[-16,6]],[[2668,33],[-6,-10],[-3,-15],[-5,-8]],[[3750,1608],[6,-10],[7,-10],[8,-7],[9,-3]],[[3818,1607],[21,-1],[4,-18],[-6,-25],[-10,-23],[-4,-35],[13,-34],[34,-63],[4,-17],[3,-34],[5,-16],[15,-19],[3,-8],[22,-86],[9,-15],[14,-14],[16,-7],[83,-15],[21,-9],[31,-25]],[[4096,970],[-7,-5],[-4,-38],[11,-33]],[[3780,1578],[11,5],[17,19],[10,5]],[[3477,1433],[-3,-2],[-7,-9],[2,-11],[3,-13],[-3,-14],[-5,-7],[-22,-18],[-7,-8],[-5,-4]],[[3430,1347],[-5,1],[-10,6],[-10,3]],[[3405,1357],[-13,-1],[-13,-5],[-8,-7],[-3,-10],[1,-25],[-3,-8],[-34,-33],[-4,-3],[-32,-7]],[[2737,1215],[-128,26],[-92,35],[-23,4]],[[2494,1280],[-23,-2],[-24,-10],[-27,-20],[-9,-5],[-58,-11],[-5,-2],[-11,-9],[0,-11],[2,-12],[1,-13],[-6,-9],[-17,-12],[-6,-11],[-1,-17],[-2,-5],[-3,-4],[-9,-5],[-4,-3],[-6,-10],[-1,-12],[2,-11],[8,-8],[9,-6],[9,-3],[10,-2]],[[3296,1258],[-6,1],[-6,2],[-16,12],[-14,2]],[[3254,1275],[-14,-5],[-50,-30],[-39,-11],[-12,0]],[[3139,1229],[-23,10]],[[3116,1239],[-13,-3],[-6,-5],[-7,-13],[-5,-7],[-3,-1],[-9,-3],[-24,-19],[-21,-22],[-8,-6],[-6,-2]],[[2969,1155],[-16,0],[-96,27],[-15,8],[-14,11],[-6,6],[-5,9],[-5,3],[-4,3],[-13,0]],[[2795,1222],[-24,-5],[-34,-2]],[[3014,1158],[-16,2]],[[2998,1160],[-8,0],[-21,-5]],[[2333,1068],[11,-1],[6,-8],[8,-22],[5,-9],[3,-10],[-1,-9],[-7,-7],[-22,-12],[-8,-9],[-4,-14],[4,-13],[8,-12],[11,-8],[11,-3]],[[2323,1067],[10,1]],[[2383,938],[7,-1],[20,-7]],[[2358,931],[25,7]],[[2450,935],[11,-8],[5,-15],[-4,-15],[-8,-13],[-10,-10],[-13,-10],[-13,-6],[-39,-7],[-8,-8],[-13,-23],[-2,-6],[-2,-5],[-1,-6],[-1,-13],[1,-8],[2,-6],[3,-6],[17,-16],[24,-13],[19,-16],[6,-25],[-8,-35],[-11,-33],[-3,-8],[-4,-6],[-5,-5],[-6,-5],[-14,-6],[-6,-4],[-3,-8],[-2,-20],[5,-14],[10,-11],[14,-9],[11,-13],[21,-29],[13,-9],[34,-6],[10,-6],[4,-10],[1,-23],[4,-24],[-1,-9],[-4,-8],[-2,-4],[-4,-6]],[[2410,930],[13,1],[14,4],[13,0]],[[3209,3807],[6,2],[12,11],[31,20],[10,9],[8,13],[12,32],[9,14],[20,14],[4,7],[1,7],[2,46],[7,16],[9,14],[12,10],[15,8],[5,6],[3,9],[0,9],[-3,9],[-1,8],[3,9],[6,6],[14,9],[0,1]],[[2921,3939],[14,0],[10,-10],[6,-19],[2,-26],[3,-8],[4,-6],[10,-9],[3,-5],[1,-8],[-3,-6],[-5,-7],[-3,-8],[1,-9],[6,-20],[3,-8],[6,-6]],[[2801,3852],[7,1],[3,4],[1,4],[2,4],[5,1],[4,1],[4,2],[79,61],[15,9]],[[2678,3884],[9,-3],[31,-21],[14,-6],[13,-2]],[[2669,3797],[11,2],[-3,15],[-4,6],[-17,15],[-3,7],[3,9],[4,10],[3,8],[1,2],[1,5],[5,6],[1,2],[7,0]],[[2781,3862],[7,-3],[6,-4],[7,-3]],[[2745,3852],[9,1],[18,7],[9,2]],[[3184,3852],[10,-4],[4,-7],[6,-28],[5,-6]],[[3150,3818],[12,8],[11,14],[11,12]],[[3122,3829],[7,-2],[14,-7],[7,-2]],[[3051,3785],[8,2],[7,5],[6,7],[4,8],[5,7],[33,14],[8,1]],[[2630,3805],[8,-1],[31,-7]],[[2477,3692],[11,2],[13,5],[39,31],[32,33],[13,9],[14,7],[6,5],[19,18],[6,3]],[[3012,3792],[8,0],[23,-6],[8,-1]],[[2979,3784],[8,0],[17,7],[8,1]],[[2441,3701],[12,-2],[13,-5],[11,-2]],[[2233,3401],[68,9],[7,4],[3,6],[4,16],[4,10],[5,6],[6,5],[8,5],[2,5],[-8,24],[-2,20],[-2,9],[-5,8],[-7,4],[-7,2],[-4,3],[-4,9],[0,8],[1,9],[3,8],[5,7],[10,8],[3,4],[2,5],[3,19],[5,9],[7,7],[6,8],[2,11],[1,6],[2,6],[3,6],[4,4],[10,8],[24,3],[11,5],[12,8],[13,5],[13,1]],[[1894,4043],[-16,2],[-14,6],[-11,11],[-16,23],[-7,3],[-9,1],[-7,3],[0,4]],[[1955,4023],[1,7],[-1,13],[-14,4]],[[1941,4047],[-47,-4]],[[2022,4031],[-7,5],[-5,6],[-6,4]],[[2004,4046],[-27,-12],[-17,-11],[-5,0]],[[1900,3908],[11,4],[4,31],[9,12],[13,5],[26,7],[31,18],[34,12],[17,10],[12,14],[-2,9],[-3,0],[-9,2]],[[2043,4032],[-21,-1]],[[1777,3929],[12,-10],[12,-13],[11,-5],[14,-2],[26,-17]],[[1773,3826],[9,2],[7,10],[4,11],[1,11],[-3,5],[-1,4],[-16,11],[-3,4],[0,5],[2,7],[0,8],[0,1],[-8,12],[2,8],[10,4]],[[1880,3914],[7,0],[13,-6]],[[1852,3882],[14,1],[6,4],[3,6],[2,6],[0,7],[3,8]],[[1724,3860],[7,-1],[3,-2],[-1,-5],[-5,-2],[-7,0],[-4,-1],[-1,-4],[-1,0],[5,-2]],[[1640,3759],[5,1],[3,5],[-2,4],[-3,1],[-2,2],[-11,5],[-7,4],[-2,7],[2,7],[31,15],[10,9],[5,13],[2,8],[4,5],[24,13],[6,1],[17,1],[2,0]],[[1737,3844],[5,-2],[21,-12],[10,-4]],[[1720,3843],[17,1]],[[1367,3799],[3,-3],[4,-5],[3,-4],[5,-2],[6,-1]],[[1336,3770],[11,1],[6,8],[3,10],[6,8],[5,2]],[[1400,3785],[7,0],[12,-10],[16,-5],[4,-6],[2,-6],[7,-6],[8,-5],[8,-3],[17,-3]],[[1388,3784],[12,1]],[[1294,3776],[42,-6]],[[1259,3760],[14,12],[21,4]],[[1503,3769],[7,-5],[5,-11],[2,-9],[0,-19],[2,-6],[8,-4]],[[1481,3741],[9,0],[3,6],[1,8],[2,8],[7,6]],[[1592,3765],[14,-3],[15,-1]],[[1527,3715],[5,2],[19,11],[6,5],[4,6],[7,15],[11,10],[13,1]],[[1627,3762],[3,0],[4,-2],[6,-1]],[[1621,3761],[4,1],[2,0]],[[1259,3760],[8,-11],[-6,-12],[-12,-8],[-12,-4]],[[972,3711],[-8,3],[-52,32],[-13,1]],[[899,3747],[-143,-49],[-6,0]],[[1237,3725],[-19,4]],[[1218,3729],[-5,-1],[-2,-2],[-7,-4]],[[1204,3722],[0,1],[-2,1],[-1,1]],[[1201,3725],[-2,0],[-2,-1],[-2,-3],[-14,-12],[-5,-3],[-23,-7],[-10,-9],[-2,-12],[1,-14],[-3,-15],[-5,-9],[-7,-6],[-7,-4],[-8,-3],[-15,0],[-4,-3],[-3,-4],[-3,-10],[-3,-4]],[[1084,3606],[-8,3],[-3,6],[1,8],[4,8],[5,7],[5,4],[6,3],[6,4],[5,10],[-3,8],[-9,5],[-9,3],[-29,4],[-14,6],[-13,2],[-6,3],[-6,6],[-5,6],[-5,6],[-8,4],[-8,0]],[[990,3712],[-18,-1]],[[750,3698],[-6,0],[-2,2],[-4,7],[-3,1]],[[735,3708],[-2,-2],[-1,-8],[-2,-3],[-7,-10],[-6,-10],[-2,-12],[3,-14],[1,-3],[1,-3],[0,-3],[0,-3],[8,-15],[1,-6],[-35,-12]],[[694,3604],[-18,29],[-11,11],[-5,1]],[[660,3645],[-1,0],[0,-3],[-2,-5],[-7,-15],[-16,-48],[-4,-18],[-1,-18],[2,-8],[6,-6],[6,-5],[5,-6],[3,-8],[1,-8],[-2,-54],[5,-11]],[[983,3479],[4,-5],[1,-8],[1,-8],[-4,-16],[0,-7],[7,-2]],[[958,3447],[6,2],[4,5],[10,21],[5,4]],[[1442,3475],[12,-7],[6,-5],[6,-7],[2,-7],[-2,-7],[-9,-13],[-4,-7],[8,-16],[15,-7],[18,-1]],[[1365,3431],[4,3],[12,13],[5,3],[12,7],[3,2],[5,5],[2,2],[4,1],[10,2],[13,6],[7,0]],[[1084,3470],[5,-2],[8,-6],[5,-3],[6,-1]],[[1050,3457],[2,1],[2,3],[2,2],[4,1],[6,1],[12,5],[6,0]],[[1121,3461],[7,-1],[9,-7],[5,-9],[7,-22],[4,-3],[8,-4],[4,-3],[2,-6],[-1,-7],[-1,-6],[-1,-5],[6,-10],[10,-5],[11,-2]],[[1108,3458],[13,3]],[[790,3460],[15,-2],[14,-4],[15,-9],[14,-4]],[[720,3438],[7,1],[6,3],[7,3],[12,10],[6,3],[32,2]],[[1035,3459],[4,0],[7,-2],[4,0]],[[992,3433],[6,2],[32,23],[5,1]],[[925,3458],[8,0],[7,-2],[13,-7],[5,-2]],[[902,3440],[4,3],[5,7],[6,6],[8,2]],[[678,3449],[2,-2],[9,-9],[7,-2]],[[655,3432],[15,5],[2,4],[1,3],[1,3],[4,2]],[[877,3447],[15,-2],[10,-5]],[[848,3441],[29,6]],[[712,3438],[8,0]],[[696,3436],[16,2]],[[1340,3435],[21,-4],[4,0]],[[1266,3377],[12,6],[6,12],[6,15],[7,13],[12,7],[15,4],[16,1]],[[2189,3410],[34,-4],[10,-5]],[[2052,3358],[12,1],[37,12],[20,4],[3,5],[1,6],[2,7],[9,6],[40,10],[13,1]],[[1538,3406],[6,-5],[3,-10],[1,-12],[-1,-9],[-4,-7],[-5,-5],[-4,-5],[-1,-10],[3,-9],[5,-7],[7,-5],[7,-2]],[[1494,3398],[37,8],[7,0]],[[1239,3389],[8,-4],[9,-5],[10,-3]],[[1225,3379],[3,2],[4,4],[7,4]],[[1222,3380],[3,-1]],[[1191,3371],[10,2],[11,6],[4,1],[6,0]],[[1869,3377],[6,-1],[68,-17]],[[1848,3361],[4,2],[7,9],[4,3],[6,2]],[[1827,3368],[6,-1],[9,-6],[6,0]],[[1806,3354],[6,1],[11,11],[4,2]],[[2028,3366],[5,-1],[6,-3],[13,-4]],[[2000,3356],[6,0],[18,9],[4,1]],[[1657,3365],[6,-5],[4,-10],[2,-11],[1,-10],[3,-7],[7,-3],[16,-2],[3,-2],[6,-4],[7,-4],[2,-3],[0,-3],[1,-5],[3,-7],[4,-5]],[[1555,3320],[13,1],[13,6],[36,25],[7,3],[13,2],[13,7],[7,1]],[[1964,3363],[7,-1],[23,-4],[6,-2]],[[1943,3359],[5,1],[16,3]],[[1788,3357],[12,-3],[6,0]],[[1722,3284],[4,0],[15,32],[8,24],[5,7],[6,2],[8,1],[14,7],[6,0]],[[3164,1748],[-9,1],[-10,9],[-4,16],[-1,19],[-3,17],[-9,17],[-11,6],[-28,2],[-11,5],[-12,11],[-8,14],[-2,16],[3,7],[5,5],[18,12],[2,2],[2,3],[1,5],[-3,9],[0,4],[5,6],[6,3],[5,4],[-1,8],[-4,6],[-9,12],[-3,7],[0,18],[7,36],[-2,11],[-2,7]],[[3378,1676],[-5,0],[-7,4],[-4,5],[-9,13],[-12,9],[-26,10],[-12,7],[-8,15],[6,37],[-4,14],[-7,2]],[[3290,1792],[-13,-14],[-9,-3],[-8,0],[-4,0],[-4,-2],[-3,-3],[-5,-7],[-2,-3],[-7,-1]],[[3235,1759],[-7,1],[-6,0]],[[3222,1760],[-14,-10],[-5,0]],[[3203,1750],[-6,2],[-7,2]],[[3190,1754],[-9,-1],[-17,-5]],[[2377,2983],[-35,1],[-6,4],[-11,10],[-6,3],[-13,5],[-6,4],[-7,7],[-3,8],[-4,19],[-2,6],[-13,21],[-2,7],[3,20],[-2,9],[-4,7],[-10,11],[-5,7],[-1,8],[3,8],[5,8],[6,5],[8,4],[17,0],[8,2],[5,6],[2,7],[-1,7],[-3,8],[-6,3],[-12,13],[-21,16],[-4,6],[-3,8],[-3,15],[-3,6],[-16,15],[-8,15],[-2,13],[3,13],[11,32],[1,7],[-1,9],[-3,26],[0,9]],[[2447,3039],[-7,1],[-22,8],[-7,0]],[[2411,3048],[-5,-4],[-5,-7],[-1,-4],[0,-4],[0,-4],[-3,-2],[-14,-5],[-3,-2],[0,-9],[5,-8],[3,-7],[-5,-7],[-6,-2]],[[2628,2981],[-8,1],[-6,5],[-6,6],[-6,6],[-62,23],[-52,25],[-7,1]],[[2481,3048],[-26,-9],[-8,0]],[[2691,2395],[8,4],[4,7],[3,8],[7,4],[9,1],[34,13],[3,5],[1,17],[4,8],[9,4],[17,6],[-11,8],[-10,10],[-19,24],[-6,6],[-33,19],[-11,10],[-9,13],[-3,16],[1,9],[4,6],[5,6],[5,7],[1,3],[1,5],[1,4],[2,4],[6,8],[3,4],[1,4],[-1,9],[-5,4],[-18,10],[-3,3],[-2,3],[-1,6],[2,2],[2,2],[6,10],[1,3],[-3,3],[-4,2],[-1,3],[0,3],[-1,12],[2,28],[-5,13],[-26,14],[-7,13],[-7,52],[0,43],[2,8],[3,8],[16,17],[4,7],[2,8],[0,9],[-3,13],[0,4],[-1,4],[-3,3],[-6,4],[-3,2],[-3,5],[-6,8],[-6,4],[-6,1]],[[2637,2981],[-9,0]],[[2656,2387],[-4,3],[-15,31],[-2,4],[-6,0]],[[2629,2425],[-4,-3],[-4,-5],[-8,-7],[-2,-1],[-7,-1],[-2,-2],[-1,-3],[-5,-5],[-1,-1],[-1,-2],[-4,-1]],[[2590,2394],[-2,1],[-4,5],[-3,1]],[[2581,2401],[-5,-1],[-16,-4],[-11,-1],[-5,-2],[-4,-7],[-3,-10],[-4,-5],[-6,-3],[-7,-1]],[[2691,2395],[-28,-7],[-7,-1]],[[2520,2367],[-14,1]],[[2506,2368],[-5,-2],[-1,-9],[6,-9],[11,-9],[23,-11],[6,-8],[5,-8],[5,-8],[8,-4]],[[2556,2461],[-3,0]],[[2559,2461],[-3,0]],[[2607,2469],[-11,-6],[-37,-2]],[[2691,2395],[-10,6],[-17,29],[-10,11],[-47,28]],[[1086,3598],[6,0]],[[1122,3545],[-2,2],[-11,17],[-3,5],[-12,8],[-5,6],[-3,8],[0,7]],[[1092,3598],[44,-14],[13,-1]],[[1160,3588],[5,-1],[2,-8],[0,-8],[-4,-4],[-12,-2],[-10,-5],[-19,-15]],[[1149,3583],[11,5]],[[2667,2288],[-12,9],[-27,1],[-9,9],[-6,7],[-5,1]],[[2608,2315],[-13,-5],[-24,-6],[-7,-4]],[[2910,2164],[-22,1],[-8,11],[-2,17],[-1,18],[-3,18],[-6,13],[-9,10],[-14,6],[-43,9],[-13,7],[-10,9],[-5,3],[-7,2]],[[2767,2288],[-31,-5],[-14,0],[-12,-3],[-7,-3],[-5,-4],[-3,-5],[-4,-14],[-2,-4],[-5,-2]],[[2684,2248],[-2,4],[-2,14],[-3,6],[-10,16]],[[2667,2288]],[[3086,2046],[-37,72],[-9,11],[-22,20],[-22,16],[-29,14],[-29,5]],[[2938,2184],[-22,-8],[-3,-5],[-1,-4],[-2,-3]],[[3477,1433],[-50,121],[-49,122]],[[3477,1433],[136,87],[137,88]],[[1166,4009],[1,9],[-3,4],[-66,71],[-4,3]],[[1038,4096],[-5,-24],[-21,-22],[-26,-15],[-38,-15],[-34,-25],[-67,-20],[-8,-3],[-8,-6],[-15,-19],[-9,-7],[-9,-3]],[[1146,4022],[13,-10],[7,-3]],[[1046,3839],[-5,6],[-1,2],[0,2],[-1,9],[6,9],[11,7],[25,5],[3,2],[4,4],[9,14],[5,5],[5,2],[5,2],[6,2],[4,4],[13,15],[22,17],[6,5],[5,4],[3,1],[6,2],[1,1],[1,3],[1,1],[6,4],[0,4],[4,15],[-14,8],[-34,7],[-5,7],[-1,8],[3,6],[7,0]],[[798,3937],[-12,4],[-4,4],[-4,5],[-7,11],[-4,4],[-9,6],[-4,4],[-14,21],[-8,7],[-12,1],[-6,3],[-4,5],[-5,4],[-7,0]],[[698,4016],[-12,-3],[-5,-3],[-6,-5],[-9,-11],[-5,-12],[-3,-13],[0,-17],[2,-24],[-1,-6],[-5,-3],[-23,-2],[-13,-9],[0,-9],[15,-23]],[[633,3876],[8,-26],[3,-8],[10,-16],[4,-9],[2,-10],[-3,-22],[-11,-2]],[[633,3876]],[[1045,3839],[1,0]],[[1071,3807],[-7,2],[-19,8],[5,16],[-1,2],[-3,3],[-1,1]],[[1152,3741],[-15,1],[-15,10],[-6,19],[-5,21],[-10,15],[-8,4]],[[1093,3811],[-7,-1],[-7,-2],[-8,-1]],[[646,3783],[-14,5]],[[632,3788],[-10,-1],[2,-14],[26,-22],[0,-11],[-14,-6]],[[1259,3760],[-7,0]],[[1252,3760],[-32,-3],[-52,-15],[-16,-1]],[[636,3734],[-18,0],[-33,10],[-12,6],[-12,5],[-8,2]],[[553,3757],[-59,-9],[-7,-3],[-13,-7],[-9,-1]],[[465,3737],[-21,4]],[[444,3741],[-8,-1],[-20,-5],[-15,-4],[-7,-5],[9,-10],[16,-10],[13,-5]],[[521,3718],[17,-12],[2,-6],[1,-7],[0,-7],[-3,-5],[-8,-1]],[[432,3701],[4,1],[85,16]],[[478,3669],[-8,14],[-6,5]],[[464,3688],[-5,-9],[1,-4],[7,-5],[1,-3],[-1,-10],[1,-4],[1,-4],[33,-43],[1,-10],[-16,-6]],[[530,3680],[-27,4]],[[503,3684],[-7,-3],[-13,-11],[-5,-1]],[[487,3590],[-8,12],[-6,20],[-7,16],[-8,5]],[[458,3643],[-2,-4],[1,-8],[4,-10],[8,-17],[0,-6],[-5,-9],[-1,-1],[-4,-1],[-1,0],[-3,-7],[0,-1],[0,-2],[0,-4],[-3,-3]],[[452,3570],[-5,2],[-10,15],[-6,5]],[[431,3592],[-12,-11]],[[419,3581],[-5,2],[-4,0]],[[410,3583],[-4,-10],[-3,-73],[-2,-11],[-5,-9],[-9,-8],[-16,-10],[-4,-7],[1,-3],[2,-5],[-7,-4],[-22,-5],[-18,-2]],[[323,3436],[-18,1],[-30,10],[-54,2],[-125,31],[-17,1]],[[79,3481],[-13,-5],[-34,-23],[-29,-4],[-3,-3]],[[0,3273],[29,-1],[15,-6],[1,-1],[3,-6],[2,-2],[3,0]],[[59,3258],[2,-1],[3,-5],[1,-6],[-4,-35],[2,-11],[0,-1],[6,-6],[47,-7]],[[53,3257],[6,1]],[[163,3199],[6,0],[6,-2],[3,-2],[5,-5],[6,-2]],[[116,3186],[10,0],[27,9],[5,2],[5,2]],[[207,3196],[3,0],[3,-1]],[[189,3188],[6,3],[6,4],[3,1],[3,0]],[[213,3195],[6,-7],[12,-26],[7,-10],[4,-5],[3,-10],[0,-10],[-3,-7],[-5,-6],[-5,-5],[-7,-4],[-8,-1]],[[213,3195]],[[217,3104],[-7,0]],[[210,3104],[-4,-3],[-1,-9],[1,-5],[2,-4],[2,-4],[0,-5],[-2,-3],[-9,-6],[-3,-7],[1,-9],[5,-16],[0,-10],[-1,-26],[1,-10],[3,-6],[9,-13],[2,-7],[0,-14],[2,-7],[3,-6],[14,-14],[14,-24],[6,-6],[19,-10],[29,-26],[9,-14],[1,-17],[-6,-27],[-9,-25],[-14,-21],[-4,-9],[-3,-8],[-2,-6],[-2,-6],[-4,-3],[-2,-1],[-6,-2],[-17,-2],[-11,-4],[-6,-7],[-16,-46],[-11,-21],[-26,-36],[-20,-19],[-19,-23],[-15,-27],[-10,-28],[-2,-19],[7,-36],[2,-19],[-2,-16],[-4,-16],[-7,-13],[-2,-7]],[[3994,124],[2,0],[14,-8],[8,-12],[6,-14],[35,-52],[11,-9],[16,-10],[4,-4],[4,-10],[-1,-5]],[[4096,252],[-5,17],[0,7],[2,8],[3,8],[0,4]],[[4096,300],[-5,7],[-8,4]],[[4083,311],[-7,-4],[-11,-14],[-6,-5],[-7,-4],[-14,-4],[-52,-1],[-14,-4],[-9,-5],[-1,-9],[10,-23],[14,-23],[2,-4],[-2,-3],[-2,-3],[-2,-4],[-1,-5],[1,-3],[1,-2],[8,-41],[0,-10],[-2,-8],[1,-6],[4,-1],[0,-1]],[[3750,1608],[-10,1]],[[3740,1609],[-4,0],[-5,-2],[-11,-8],[-10,-6],[-11,-2]],[[3699,1591],[-51,8]],[[3450,1645],[-15,1],[-7,1],[-7,3],[-6,5],[-8,13],[-5,6],[-7,3]],[[3395,1677],[-15,-1]],[[3380,1676],[-2,0]],[[3523,1620],[-13,1],[-13,6],[-5,4],[-7,11],[-5,4],[-7,2]],[[3473,1648],[-8,0],[-15,-3]],[[3609,1596],[-10,1],[-12,6],[-17,15],[-9,4],[-11,2]],[[3550,1624],[-27,-4]],[[3648,1599],[-3,1]],[[3645,1600],[-13,-1],[-23,-3]],[[2611,403],[5,-4],[1,-10],[-2,-10],[-9,-19],[-3,-10],[0,-10],[3,-19],[-1,-9],[-2,-7],[-5,-8],[-2,-8],[1,-10],[11,-31],[10,-12],[13,-5]],[[2556,360],[19,3],[8,3],[7,5],[3,7],[2,8],[3,9],[7,7],[6,1]],[[2478,389],[4,-8],[4,-7],[7,-4],[7,-2]],[[2526,378],[6,-3],[11,-11],[6,-4],[7,0]],[[2500,368],[7,2],[12,8],[7,0]],[[2672,237],[25,-13]],[[2631,231],[14,1],[13,4],[14,1]],[[2739,233],[12,-5],[13,-11],[13,-8],[25,-7],[12,-8],[25,-21]],[[2697,224],[15,1],[15,7],[12,1]],[[415,3583]],[[2839,173]],[[1436,1355],[1,-2],[6,-9],[12,-16],[1,-1],[7,-4],[8,-2],[4,-1],[2,0],[1,-1],[1,-2],[1,-4],[0,-1],[1,-2],[0,-1],[1,-1],[0,-1],[0,-2],[0,-1],[1,-2],[1,-3],[1,-4],[1,0],[0,-2],[-1,-2],[0,-1],[1,-2],[6,-6],[5,-2],[3,-1]],[[1528,1291],[13,-2],[3,-1],[2,-1],[5,-2],[2,0]],[[1500,1279],[3,1],[15,9],[6,2],[2,0],[2,0]],[[1557,1286],[1,-1],[2,-2],[1,-4],[2,-3],[2,-3],[0,-1],[-2,-1],[-2,-1],[-2,-1],[-3,-5],[-1,-2],[-1,0],[-3,0],[-1,-1],[-1,-1],[1,-3],[1,-1],[0,-1],[1,-3],[0,-4],[0,-5],[-2,-14],[-8,-7]],[[1553,1285],[1,0],[3,1]],[[1542,1222],[-1,0],[0,1],[-1,0],[-2,1],[0,1]],[[1538,1225],[-1,0],[-3,-3],[-1,-1],[-5,-6],[-2,-2],[-1,0],[-1,0],[0,-1],[-1,-1],[-1,0],[-1,-2],[-2,-4],[-3,-14],[0,-3],[0,-5],[-1,-2],[-8,-8],[6,-18],[-1,-2],[2,-5],[0,-2],[0,-3],[0,-1],[0,-1],[0,-1],[1,0],[1,-1],[2,0],[1,0]],[[1521,1139],[1,0],[1,-2],[3,-9],[-3,-1],[-1,-1],[-1,-1],[-1,-1],[-2,-1],[-1,0],[-2,-3],[-1,0],[-1,-1],[0,-1],[0,-4],[-1,-2],[0,-1],[0,-1],[1,-1],[0,-1],[0,-1],[-1,-1],[-3,-1],[-1,-1],[-1,0]],[[1519,1139],[1,0],[1,0]],[[1507,1104],[-2,0]],[[1505,1104],[-1,0],[-2,-1],[-1,0],[0,-1],[0,-5],[-1,0],[0,-1],[1,-4],[0,-1],[0,-1],[-1,0]],[[1492,1095],[-1,0],[-1,0],[-1,1]],[[1489,1096],[-1,0],[0,-1],[-5,-5],[-3,-3],[-1,-1],[-1,0],[0,-1],[0,-1],[0,-2],[0,-1],[-1,-1],[-1,-2],[-7,-6],[0,-1],[-1,0],[0,-1],[1,-2],[0,-1],[1,-1],[-2,-8],[-1,-1],[1,0],[0,-1],[1,0],[1,0],[0,-1],[0,-1],[-1,-5],[-2,-2],[-10,-9],[-3,-6],[-12,-10],[-2,-1],[-1,-1],[-6,-5],[-2,-2],[-1,-1],[-1,-1],[-28,-8],[-1,-2],[-1,-1],[0,-1],[0,-1],[0,-2],[0,-1],[0,-1],[-1,-2],[0,-1],[1,0],[2,-2],[1,0],[1,-1],[1,0],[2,-1],[1,0],[3,-3],[1,-1],[1,-1],[0,-2],[1,-4],[-1,-2],[0,-2],[-2,-1],[-1,-1],[-1,-1],[0,-1],[0,-1],[0,-2],[4,-7],[1,-1],[2,-9],[0,-5],[-1,-3],[-2,-4],[0,-1],[0,-1],[0,-4],[0,-1],[-1,-4],[1,-2],[0,-3],[3,-6],[2,-3],[4,-2],[2,-3],[3,-4],[3,-6],[2,-10],[0,-3],[-1,-9],[0,-2],[0,-1],[1,-2],[1,-1],[5,-5],[13,-10],[4,-4],[1,-2],[1,-1],[1,-2],[0,-3],[-1,-8],[0,-3],[1,-3],[3,-12],[2,-5],[1,-1],[1,-1],[2,-1],[2,0],[4,-1]],[[1500,1090],[-2,0],[-1,0],[0,1],[-1,0],[-1,2],[-2,1],[0,1],[-1,0]],[[1492,1095]],[[1542,858],[2,-1],[2,-3],[3,-9],[2,-4],[1,-2],[5,-4],[2,-2],[3,-1],[12,-2],[9,0],[2,-1],[1,-1],[1,-3],[0,-2],[-1,-3],[-1,-3],[-11,-17],[-2,-3],[-2,-4],[-8,-9],[-1,-2],[0,-1],[0,-2],[0,-1],[1,-1],[13,-9],[4,-3],[1,-1],[0,-1],[0,-2],[-1,-1],[0,-2],[-2,-1],[-1,-1],[-4,-2],[-13,-4],[-4,-2],[-5,-4],[-20,-14],[-10,-4],[-8,-1]],[[1472,806],[3,0],[17,4],[21,11],[11,8],[5,5],[7,14],[2,5],[2,4],[1,1],[1,0]],[[1342,804],[-2,1],[-6,4],[-2,1],[-7,3],[-1,0]],[[1324,813],[-2,-1],[0,-2],[-1,-19],[1,-2],[5,-13],[0,-5],[-13,-6],[-5,-3],[-1,-1],[-2,-2],[-1,-1],[0,-2],[0,-1],[0,-1],[1,-1],[2,-1],[1,-1],[2,-1],[1,-1],[1,-2],[0,-1],[-2,-1],[-14,-4],[-5,-1],[-3,-2],[-3,-3],[-4,-3],[-8,-4],[-3,0]],[[1403,761],[-3,0],[-4,2],[-3,2],[-3,3],[-6,4],[-17,10],[-9,6],[-6,6],[0,1],[-2,6],[-1,1],[-2,2],[-1,0],[-2,0]],[[1344,804],[-2,0]],[[1494,766],[-47,3],[-5,2],[-2,0]],[[1440,771],[-3,0],[-8,-3],[-15,-1],[-4,-1],[-3,-2],[-3,-3],[-1,0]],[[1512,725],[-15,2],[-9,3],[-3,2],[-2,1],[-3,3],[0,2],[0,2],[1,1],[2,2],[4,2],[13,4],[3,2],[4,3],[2,1],[1,2],[0,1],[0,2],[0,2],[-1,2],[-1,2],[-1,1],[-1,1],[-2,0]],[[1504,768],[-2,0],[-5,-1],[-3,-1]],[[1271,728],[-58,6],[-6,2],[-12,8]],[[1195,744],[-6,-1],[-2,-1],[-2,-3],[-5,-13],[-2,-7],[0,-1],[0,-2],[0,-1],[1,-5],[0,-4],[0,-2],[-1,-2],[-2,-2],[-3,0]],[[1173,700],[-2,0]],[[1171,700],[-1,0],[-11,-5],[-6,-1],[-8,0],[-2,-1],[-1,0],[-3,-2],[-10,-13],[-4,-3],[-2,-1],[-1,0],[-3,0]],[[1119,674],[-5,0]],[[1114,674],[-4,0],[-4,-1],[-5,-1],[-6,-1],[-2,-1],[-5,-4],[-1,-2],[-1,-1],[0,-2],[-1,-3],[0,-2],[1,-2],[2,-2],[4,-4],[13,-8],[4,-1],[2,-5],[3,-16],[9,-14],[5,-3],[3,-1],[3,0],[5,0],[2,-1],[11,-4],[2,-1],[5,0],[2,-1],[2,0],[1,-1],[-2,-8],[-1,-1],[1,-1],[0,-1],[1,-1],[4,-1],[12,-2]],[[1187,578],[1,-1],[5,-1],[1,0]],[[1179,577],[8,1]],[[1198,576],[2,0],[2,-1],[5,-2],[7,-2],[9,-3],[2,-1],[1,-2],[1,-2],[1,-2],[-1,-3],[-5,-9],[-24,-27],[-8,-2],[-3,-2],[-3,-2],[-5,-8],[-3,-3],[-5,-2],[-3,-1],[-9,-2],[-7,-2],[-6,-2],[-2,0],[-4,-1],[-1,0]],[[1194,576],[4,0]],[[1123,496],[-2,0],[-9,3]],[[1112,499],[-2,0],[-2,-1],[-5,-4],[-5,-6],[-3,-1],[-3,-2],[-1,-1],[-9,-30],[-2,-5],[-10,-15],[-11,-22],[-3,-5],[-3,-3]],[[1136,495],[-8,1]],[[1128,496],[-3,0],[-2,0]],[[1139,495],[-2,0]],[[1137,495],[-1,0]],[[1053,404],[-1,0]],[[1052,404],[-1,0],[-2,0],[-1,-3],[-1,-3],[0,-22],[2,-13],[-1,-3],[0,-3],[-1,-7],[0,-1],[1,-1],[3,0],[2,-1],[6,-10],[62,-83],[3,-8],[1,-3],[0,-2],[-1,-2],[-1,-2],[-4,-2],[-3,0]],[[1116,235],[-2,0],[-24,15],[-3,1],[-3,0]],[[1084,251],[-1,0],[-1,0],[-1,0],[-2,-2],[-2,-2],[-2,-6],[-4,-10],[-1,-7],[-2,-5],[-2,-4],[-8,-10],[-12,-11],[-2,-2],[-7,-13],[-2,-2],[-10,-9],[-8,-6],[-4,-2],[-1,0],[-2,0],[-1,0]],[[1009,160],[-2,0],[-5,1],[-1,1]],[[1001,162],[-11,-2],[-2,0],[-1,-1],[-2,-1],[-2,-2],[-2,-2],[-4,-9],[-4,-7],[-3,-4],[-2,-1],[-14,-10],[-9,-8],[-3,-4],[-5,-7],[-1,-3],[-1,-7],[0,-2],[0,-1],[1,-2],[10,-17],[6,-15],[3,-17],[4,-8],[14,-13],[5,-19]],[[1976,805],[18,4],[7,4],[4,5],[3,3],[6,4],[4,2],[3,1],[14,2],[8,4],[2,1],[1,1],[2,4]],[[251,2106],[-3,10],[-2,5],[-5,7],[-8,7],[-5,4],[-3,3],[-9,17],[-20,48],[-1,4],[0,26],[-4,19]],[[766,1224],[3,14],[1,3],[0,3],[-4,2],[-2,2],[-2,3],[-2,4],[-3,3],[-2,3],[-2,6],[-1,6],[-1,8],[2,23],[0,9],[1,19],[-2,10],[-12,4],[-16,7],[-22,1],[-10,11],[-7,10],[-5,3],[-6,4],[-10,2],[-9,5],[-6,7],[-2,9],[1,9],[3,25],[-2,17]],[[285,1292],[2,-8],[1,-9],[2,-5],[1,-4],[19,-20],[2,-4],[1,-3],[0,-7],[3,-14],[1,-2],[2,-2],[2,0],[7,-1]],[[384,1243],[27,-7],[5,-2],[7,-2],[1,-1],[2,-1],[7,-5],[5,-2],[5,-1]],[[328,1213],[2,0],[2,1],[3,3],[2,1],[6,2],[11,6],[22,15],[5,2],[3,0]],[[454,1223],[3,0],[5,-3],[13,-4],[11,-5],[6,-1]],[[443,1222],[11,1]],[[492,1210],[4,1]],[[251,2106],[6,-7],[12,-3]],[[463,754],[-1,-17],[1,-16],[1,-8],[1,-6],[4,-8],[4,-9],[0,-4],[0,-4],[-9,-20],[-2,-8]],[[994,1687],[3,6],[0,5],[3,23],[1,7],[2,20],[7,21]],[[201,66],[6,-21],[3,-17],[0,-3],[0,-2],[-1,-4],[-5,-12],[-2,-7]],[[873,950],[3,-5]],[[876,945]],[[63,3199]],[[63,3199],[-5,-4],[-7,-3],[-26,-1],[-5,-1],[-4,-2],[-2,-1],[-3,-2],[-2,-2],[-2,-4],[-1,-3],[0,-4],[2,-10],[3,-16],[8,-16],[1,-2],[1,-2],[0,-3],[-1,-3],[-1,-2],[0,-3],[0,-3],[0,-2],[0,-2],[1,-3],[0,-2],[1,-4],[1,-3],[0,-3],[-1,-3],[-2,-4],[-4,-5],[-2,-4],[-1,-3],[0,-8],[0,-2],[-2,-2]],[[10,3062],[-2,0],[-2,2],[-6,6]],[[1279,3995],[-11,2],[-3,2],[-3,2],[-5,2],[-8,0]],[[1249,4003],[-17,-15],[-5,0]],[[1486,4003],[-30,-10],[-32,-16],[-7,-6],[-12,-17],[-24,-21],[-8,-2]],[[1373,3931],[-5,2],[-17,8],[-7,6],[-4,2],[-7,1],[-4,1],[-2,1],[-11,11],[-2,1],[-15,1],[-2,2],[24,30]],[[1321,3997],[-42,-2]],[[1227,3988],[-10,1]],[[1217,3989],[-5,-1],[-6,-2],[-4,-5],[-3,-4],[-4,-4],[-9,-6]],[[1659,4056],[6,1],[22,1],[5,1],[2,1],[2,0],[3,3],[7,33]],[[1605,4067],[47,-11],[7,0]],[[1595,4066],[10,1]],[[1586,4067],[9,-1]],[[1559,4059],[15,7],[4,1],[8,0]],[[1547,4065],[12,-6]],[[1486,4003],[11,9],[-6,12],[-4,5],[-1,3],[2,3],[12,10],[4,4],[5,6],[38,10]],[[1510,3967],[-1,1],[-4,5],[-8,14],[-11,16]],[[1535,3969],[-4,1],[-4,1],[-10,5],[-4,0]],[[1513,3976],[-2,-1],[-1,-8]],[[1606,3931],[-9,1],[-3,1],[-3,2],[-15,19],[-3,5],[-3,3],[-4,3],[-19,6],[-6,0]],[[1541,3971],[-4,0],[-2,-2]],[[1662,3923],[-22,4],[-17,6]],[[1623,3933],[-10,-1],[-7,-1]],[[1722,3860],[-1,0],[0,2],[-3,11],[-1,6],[1,8],[1,8],[1,6],[0,2],[-1,3],[-5,4],[-19,5],[-4,1],[-3,2],[-7,10],[-5,3]],[[1676,3931],[-4,-3],[-4,-4],[-6,-1]],[[2262,2242],[-1,-9],[1,-5],[0,-1],[1,-2],[2,-2],[1,-1],[0,-1],[2,-1],[3,-1],[14,-2],[3,-2],[5,-3],[5,-5],[21,-14],[4,-4],[2,-3],[1,0],[0,-3],[1,-3],[0,-2],[0,-3],[-1,-4],[-1,-1],[0,-2],[1,-2],[0,-3],[-1,-2],[-2,-2],[-2,0]],[[2192,2168],[-2,0],[-22,8],[-9,1],[-5,1]],[[2154,2178],[-37,-14],[-7,-2],[-3,0]],[[2231,2159],[-2,0],[-2,1],[-1,1],[-2,3],[-3,5],[-2,1]],[[2219,2170],[-1,0],[-6,-3],[-2,0]],[[2082,2160],[-2,0],[-2,1],[-5,6],[-4,3],[-2,0]],[[2067,2170],[-2,-1],[-11,-8],[-4,-3],[-12,-3],[-7,0],[-2,-2],[-1,-1],[1,-2],[0,-2],[0,-10],[2,-6],[5,-15],[1,-4],[0,-1],[0,-2],[-3,-6],[-5,-7],[-1,-2],[-1,-6],[-2,-3],[-2,-5],[-3,-2],[-2,-1],[-19,-8],[-3,-1],[-1,-2],[0,-2],[1,-2],[1,-2],[1,-3],[1,-2],[-1,-3],[-1,-2],[-2,-1],[-9,-1]],[[2210,2167],[-2,0],[-3,1],[-1,1],[-4,0]],[[2200,2169],[-8,-1]],[[2321,2159],[-7,2],[-8,3],[-12,3],[-4,0]],[[2290,2167],[-1,0],[-7,-5],[-2,-1]],[[2280,2161],[-2,1],[-7,3],[-3,1],[-3,0]],[[2265,2166],[-2,-1],[-7,-6],[-4,-3],[-2,0]],[[2107,2162],[-6,1]],[[2101,2163],[-10,-1],[-9,-2]],[[2250,2156],[-2,0],[-4,2],[-3,1]],[[2241,2159],[-10,0]],[[1986,2049],[-10,0]],[[1976,2049],[-8,-1],[-3,-2],[-3,-2],[0,-2],[-1,-6],[0,-12],[0,-5],[0,-2],[-1,-3],[-2,-3],[-3,-2],[-11,-3],[-3,-1],[-3,-3],[-14,-16],[-4,-3],[-2,-1],[-6,-2],[-5,-2],[-7,-5],[-2,-2],[-7,-11],[-2,-1]],[[1889,1959],[-3,0],[-9,4],[-5,0]],[[1872,1963],[-3,0],[-4,-1],[-5,-2],[-5,-4],[-3,-2],[-3,-4],[-2,-3],[-2,-3],[-1,-3],[-4,-19],[-1,-7],[0,-1],[1,-2],[2,-5],[1,-2],[-1,-3],[-9,-13],[-1,-1],[-1,-2],[0,-3],[0,-2],[1,-3],[1,-4],[1,-1],[0,-2],[1,-2],[12,-10],[2,-3],[1,-4],[3,-7],[0,-1],[0,-2],[-27,-49],[15,-7],[35,-15],[1,-1],[34,-4],[16,-3]],[[1992,1781],[2,0],[2,-1],[1,0],[6,-3],[2,-2],[1,0],[2,-1],[6,-2],[4,-1]],[[1927,1763],[2,0],[3,0],[1,2],[2,3],[1,1],[14,9],[3,1],[3,1],[36,1]],[[2034,1781],[0,-1],[1,0],[0,-1],[1,-1],[1,-1],[5,-6],[4,-3],[4,-3],[7,-5],[1,-1],[1,-2],[0,-2],[-1,-1],[-7,-7],[-1,-1],[-1,-2],[-2,-23],[0,-4],[1,-3],[0,-2],[2,-2],[2,-3],[33,-23],[5,-4],[1,-2],[3,-2],[11,-8],[3,-2],[0,-1],[3,-2],[0,-2],[2,-5],[1,-1],[1,0],[1,0],[5,-2],[1,0]],[[2018,1771],[4,0],[2,1],[2,1],[1,1],[2,1],[3,4],[2,2]],[[2130,1654],[2,0],[4,-1],[3,-1],[3,-2],[2,-2],[1,-2],[1,-2],[1,-3],[4,-9],[1,0],[0,-1]],[[2122,1653],[8,1]],[[2164,1638],[7,-2],[1,0],[14,-11]],[[2152,1631],[12,7]],[[2232,1629],[46,-7],[1,0],[4,-2],[1,0],[2,-8],[0,-1],[1,-19],[0,-2],[1,-2],[0,-1],[0,-1],[-1,-1],[-2,-1],[-3,-2],[-9,-5],[-6,-5],[0,-1],[-1,-1],[0,-2],[-2,-5],[-9,-14],[-1,-2],[0,-2],[0,-1],[0,-3],[0,-2],[-1,-12],[0,-2],[0,-1],[0,-2],[11,-19],[1,-3],[0,-2],[-1,-7],[-1,-2],[0,-2],[0,-2],[2,-4],[2,-2],[2,-1],[1,0]],[[2186,1625],[23,4],[23,0]],[[2285,1489],[9,0],[3,0],[1,-1],[3,-1],[7,-4],[7,-7],[2,-1]],[[2270,1478],[1,0],[2,1],[1,1],[8,8],[1,1],[1,0],[1,0]],[[2326,1477],[3,0],[1,0],[4,-2],[2,-1],[3,-1],[9,-12],[2,-1],[1,0],[1,0]],[[2317,1475],[2,0],[7,2]],[[2364,1462],[1,0],[1,0],[2,-1],[0,-2],[1,-1],[1,-1],[6,-6],[2,-2],[2,0],[5,-1],[10,-1]],[[2352,1460],[3,1],[3,1],[6,0]],[[2402,1447],[1,0],[1,0],[0,-1],[0,-1],[0,-1],[0,-2],[0,-2],[1,-2],[5,-5],[1,-1],[1,-1],[0,-1],[0,-2]],[[2395,1447],[7,0]],[[0,3577],[1,-5],[-1,-4]],[[436,3702],[-16,-20],[-6,-9],[-1,-5],[0,-4],[0,-3],[0,-2],[2,-5],[1,-2],[0,-1],[1,-1],[3,-8],[1,-5],[0,-2],[1,-4],[-1,-15],[-2,-3],[-1,0]],[[418,3613],[-1,2],[-2,2],[-2,1],[-2,0]],[[411,3618],[-3,-2],[0,-2],[1,-1],[1,-2],[7,-4],[2,-1],[1,-2],[-1,-3],[-1,-3],[-2,-4],[0,-7],[-1,-4]],[[419,4083],[18,-16],[3,-4],[1,-4],[1,-11],[0,-3],[2,-2]],[[449,4046],[1,-3],[1,-8]],[[444,4043],[4,3],[1,0]],[[457,4037],[8,-1],[8,-4],[6,-3],[3,-4],[4,-8],[3,-4],[2,-1],[10,-5],[4,-3],[2,-2],[4,-8],[0,-2],[0,-5],[0,-2],[2,-2],[3,0]],[[451,4035],[6,2]],[[518,3983],[3,-1],[5,-4],[4,-6],[1,-6],[-5,-6],[6,-3]],[[516,3983],[2,0]],[[547,3964],[4,-2],[-2,-5],[-5,-9]],[[532,3957],[5,2],[5,3],[5,2]],[[559,3951],[7,-1],[4,-11],[7,-6],[1,-4],[-1,-4],[-6,-5],[0,-3],[3,-2]],[[544,3948],[15,3]],[[585,3923],[3,-1],[2,-4],[1,-3],[-10,-4],[-3,-6],[-4,-16]],[[574,3915],[3,2],[4,4],[4,2]],[[578,3889],[4,0],[3,-1],[4,-3],[-7,-3],[1,-4],[3,-3],[3,-3],[0,-4],[2,-4],[0,-4],[-1,-4],[-5,-6],[-2,-4],[-3,-4],[-1,-4],[-7,-41],[5,-13],[2,-3],[1,-7],[-5,-18],[-2,-6]],[[574,3889],[4,0]],[[244,3888],[-2,2],[-1,2],[3,17],[0,11],[1,2],[2,2],[2,1],[4,1],[20,3],[5,5],[1,18]],[[315,3754],[-83,2],[-10,1],[-1,2],[-3,3],[-1,4],[-2,12],[1,8],[2,6],[43,94],[-1,5]],[[260,3891],[-3,0],[-7,-2],[-6,-1]],[[416,3735],[-5,8],[2,4],[1,3],[5,17],[2,4],[1,2],[2,2],[2,4],[-1,0],[-1,1]],[[424,3780],[-109,-26]],[[2535,1439],[10,-2],[11,-6],[10,-12],[9,-15],[15,-34],[7,-14],[10,-10],[51,-30],[24,-11],[22,-7],[17,0]],[[2465,1422],[29,3],[22,9],[19,5]],[[2412,1428],[5,0],[13,-1],[1,0],[33,-5],[1,0]],[[2782,1324],[7,-4],[17,-18],[9,-12],[6,-15],[3,-15],[-2,-15],[-9,-21],[0,-1],[-1,-4]],[[2721,1298],[11,2],[9,3],[14,3],[7,4],[13,12],[7,2]],[[2412,1428],[-9,-3],[-4,-4],[-3,-3],[-2,-2],[-3,-8],[0,-3],[0,-2],[0,-1],[1,-1],[0,-1],[1,-1],[1,0],[0,-1],[5,-2],[1,-1],[2,-2],[1,-4],[0,-2],[-1,-1],[-2,-2],[-2,-1],[-4,-4],[-3,-4],[-1,-4],[0,-4],[0,-7],[-1,-4],[-2,-4],[-1,-1],[-4,-3],[-2,-3],[-1,-1],[-2,-4],[-2,-8],[0,-1],[-2,-2],[-1,-1],[-1,-1],[-4,-2],[-4,-2],[-2,0],[-2,-1],[-6,0],[-3,-1],[-2,-3],[-1,0],[-1,-1],[-2,-2],[-3,-5],[0,-1],[-2,-1],[0,-1],[-3,-2],[-2,-1],[-1,-1],[-7,-5],[-2,-1]],[[2324,1297],[-15,1]],[[2309,1298],[-8,-1],[-2,-1],[-6,-5],[-3,-2],[-2,0],[-3,-1]],[[2285,1288],[-6,1]],[[2279,1289],[-3,-1],[-4,-3],[-8,-6],[-3,-4],[-3,-3],[-3,-5],[-3,-10],[-2,-3],[-11,-18],[0,-2],[-1,-2],[1,-2],[1,-2],[2,-4],[1,-3],[0,-2],[0,-2],[-8,-22],[-3,-8],[-2,-1],[-1,-1],[-1,0]],[[2228,1185],[-1,1],[-1,1],[-1,3],[-1,3],[-1,1],[0,1],[-2,1],[-3,0],[-3,0]],[[2215,1196],[-3,0],[-4,-1],[-4,-3],[-7,-4],[-2,0]],[[2195,1188],[-1,0],[-8,2],[-2,0]],[[2184,1190],[-2,0],[-11,-2],[-3,-2],[-2,-2],[-1,-2],[0,-2],[0,-2],[0,-4],[-1,-1],[0,-2],[-2,-3],[-1,-2],[0,-2],[1,-12],[0,-2],[-1,-1],[0,-1],[-2,-4],[-1,-1],[0,-1],[0,-1],[0,-14],[0,-3],[-1,-1],[-2,-8],[-1,-5],[-4,-8],[-2,-2],[0,-1],[3,-9],[14,-22],[3,-6],[2,-5],[5,-6],[6,-32],[0,-8],[0,-14],[0,-1],[0,-3],[0,-5],[0,-1],[7,-27],[3,-27]],[[2412,1428]],[[2191,933],[23,-44],[1,-16],[-6,-33],[3,-12],[5,-7],[2,-7],[2,-9],[0,-8],[-2,-6],[-6,-15],[-1,-4],[1,-3],[-2,-6],[1,-3],[10,-10],[4,-5],[4,-8],[3,-9],[1,-7],[-2,-5],[-2,-1],[-2,-1],[-2,-3],[0,-4],[3,-15],[1,-3],[1,-4],[0,-4],[-2,-2],[-1,0],[-2,-1],[-4,-2],[-3,-14],[-4,-5],[-4,-6],[1,-8],[4,-6],[4,-6],[2,-4],[-1,-6],[-1,-3],[-1,-5],[0,-8],[2,-9],[0,-9],[-1,-1],[-3,-1],[-2,-1]],[[2215,584],[-1,0]],[[2214,584],[0,-5],[1,0]],[[2224,581],[2,0],[1,-1],[0,-3],[0,-3],[1,-2],[8,-5],[3,-3],[2,-5],[0,-5],[-2,-5],[-2,-4],[0,-5],[-8,-8],[7,-10],[11,-8],[22,-10],[11,-8],[4,-7],[5,-2],[7,-5],[6,-1]],[[2219,579],[2,1],[3,1]],[[2216,579],[3,0]],[[2215,579],[1,0]],[[2333,489],[7,-2],[6,-3],[3,-3],[2,-3],[1,-2],[6,-12],[2,-3],[122,-66]],[[2302,481],[2,1],[1,0],[6,4],[1,1],[3,1],[6,0],[12,1]],[[2191,933]],[[3292,581],[6,-1],[20,-17],[5,-2]],[[3074,429],[4,2],[7,4],[28,27],[9,10],[2,4],[7,5],[19,9],[16,5],[7,4],[8,5],[9,11],[3,7],[2,6],[0,5],[2,4],[5,6],[21,14],[16,8],[42,9],[11,7]],[[3364,565],[5,-1],[6,-4],[22,-28],[7,-4],[20,-19],[8,-13],[5,-5],[6,-4],[16,-8],[32,-26],[17,-11],[31,-11],[47,-16],[8,0]],[[3323,561],[41,4]],[[3718,482],[3,-1],[5,-5],[3,-7],[8,-11],[22,-23],[12,-17],[13,-32],[6,-6],[5,-7],[2,-5],[1,-24],[3,-7],[4,-6],[8,-10],[4,-5],[2,-7],[2,-6],[5,-4]],[[3594,415],[2,2],[3,6],[1,1],[2,1],[18,3],[13,3],[7,3],[15,4],[5,3],[5,3],[5,4],[10,10],[3,3],[3,1],[7,3],[3,2],[3,2],[5,6],[1,1],[7,3],[3,2],[3,1]],[[3039,449],[4,0],[4,-1],[9,-4],[3,-1],[4,-1],[3,-3],[5,-7],[3,-3]],[[3039,256],[3,4],[4,10],[0,6],[11,17],[6,6],[3,1],[1,2],[1,6],[0,5],[-1,5],[-7,17],[-1,6],[1,15],[3,9],[0,2],[-1,5],[-2,4],[-7,9],[-2,4],[-1,4],[-3,4],[-4,6],[-12,14],[-5,6],[-2,6],[-1,6],[1,6],[3,3],[5,3],[7,2]],[[3952,370],[2,0],[2,-1],[2,-2],[1,-3],[3,-11],[1,-7],[0,-7],[-2,-14],[-1,-5],[-1,-4],[-2,-4],[-4,-4],[-9,-6],[-7,-6],[-3,-4],[-2,-3],[-2,-6],[-3,-14],[-1,-6],[-3,-6],[-2,-7],[2,-5],[3,-5],[4,-4],[3,-1]],[[3906,335],[6,1],[3,2],[6,8],[4,3],[9,4],[3,2],[2,4],[-1,8],[1,2],[2,1],[3,0],[8,0]],[[3899,336],[7,-1]],[[3826,299],[13,0],[5,3],[4,6],[3,4],[3,2],[3,2],[2,2],[2,4],[4,3],[6,1],[8,2],[9,6],[5,2],[6,0]],[[3933,235],[4,1],[17,20],[8,5]],[[3039,256],[4,-1],[3,-4],[2,-3],[15,-31],[0,-2],[0,-3],[-3,-3],[-17,-10],[-29,-25],[-13,-16],[-5,-6],[-6,-4],[-7,-3],[-26,-6],[-1,-1],[-2,-2],[-2,-5],[-1,-7],[1,-7],[2,-6],[4,-3]],[[2969,112],[2,-2],[0,-3],[-1,-6],[-3,-6],[-4,-7],[-20,-24],[-2,-4],[1,-3],[4,-3],[4,-1],[22,-4],[8,-3]],[[2958,108],[3,0],[2,1],[1,1],[2,1],[3,1]],[[2985,47],[3,-3],[17,-8],[18,-12],[21,-10],[7,-5],[4,-8],[1,-1]],[[2980,46],[5,1]],[[3039,256],[-3,-4],[-4,-4],[-3,-2],[-8,-6],[-20,-8],[-2,-3],[-2,-9],[-1,-3],[-2,-3],[-6,-5],[-3,-3],[-6,-3],[-26,-2],[-14,-9],[-12,-14],[-13,-20]],[[2914,158],[-8,3],[-3,2],[-3,3],[-5,3],[-2,3],[-1,2],[0,8],[0,3],[-2,0]],[[2890,185],[-5,-3],[-4,-3],[-8,-5]],[[2873,174],[-23,2]],[[2850,176],[-11,-3]],[[1030,3368],[14,1],[38,11],[5,0],[2,2],[2,2],[2,5],[1,2],[2,1],[20,3],[5,1],[3,2],[1,2],[2,5],[1,2],[2,2],[6,3],[13,10]],[[1017,3375],[2,0],[2,-1],[3,-4],[2,-1],[4,-1]],[[954,3337],[2,0],[1,1],[8,5],[38,18],[2,2],[1,2],[3,5],[3,3],[2,2],[3,0]],[[945,3353],[4,0],[2,-2],[1,-2],[0,-2],[0,-5],[1,-3],[1,-2]],[[918,3340],[2,1],[2,2],[3,2],[4,3],[10,4],[6,1]],[[907,3348],[3,0],[2,-4],[1,-2],[3,-2],[2,0]],[[837,3317],[3,0],[3,1],[4,2],[4,2],[3,3],[4,6],[4,6],[2,3],[3,3],[3,0],[37,5]],[[822,3332],[3,-6],[2,-4],[2,-2],[3,-1],[5,-2]],[[750,3230],[1,1],[2,2],[3,4],[4,2],[5,2],[12,4],[5,2],[1,3],[0,2],[-1,2],[0,2],[0,4],[8,6],[2,2],[2,4],[1,3],[2,5],[2,19],[-1,3],[-1,3],[-5,4],[-2,3],[-1,4],[25,15],[4,0],[4,1]],[[723,3283],[4,0],[1,-1],[13,-12],[3,-3],[1,-4],[1,-5],[1,-5],[-1,-6],[-2,-8],[0,-2],[0,-3],[1,-2],[3,-2],[2,0]],[[696,3279],[27,4]],[[693,3279],[3,0]],[[666,3242],[6,1],[3,1],[1,3],[1,16],[1,3],[1,4],[2,3],[5,4],[3,2],[4,0]],[[631,3243],[35,-1]],[[570,3211],[11,5],[3,3],[1,1],[5,4],[27,14],[8,4],[6,1]],[[464,3233],[2,-2],[1,-1],[1,-2],[2,-2],[5,-1]],[[424,3219],[35,13],[5,1]],[[497,3227],[20,-2],[23,-6],[3,-1],[5,-1],[1,-1],[9,-2],[12,-3]],[[475,3225],[22,2]],[[400,3220],[24,-1]],[[348,3169],[7,1],[13,5],[4,5],[5,10],[11,8],[1,0],[0,2],[3,12],[2,5],[3,2],[3,1]],[[337,3169],[11,0]],[[316,3161],[2,0],[4,2],[2,1],[13,5]],[[303,3166],[3,0],[7,-4],[3,-1]],[[238,3152],[10,3],[18,0],[6,2],[21,8],[6,1],[4,0]],[[1546,3037],[2,0],[2,2],[2,4],[3,5],[2,3],[6,1],[6,2],[4,4],[5,5],[5,4],[10,3],[5,1],[18,1],[6,2],[7,4],[10,9],[5,5],[7,11],[10,8],[-10,11],[-4,7],[-5,10],[-1,6],[0,7],[2,4],[1,10],[4,12],[11,13],[21,19],[3,5],[1,4],[-1,4],[0,5],[1,5],[2,4],[4,3],[9,4],[12,5],[5,3],[3,4],[1,4],[0,13],[2,11]],[[1272,3110],[5,-2],[2,-3],[0,-5],[-1,-4],[0,-4],[2,-4],[11,-21],[2,-6],[-1,-10],[0,-4],[-1,-5],[-1,-6],[-4,-7],[0,-5],[4,-5],[10,-3]],[[1217,3089],[6,1],[4,1],[12,9],[18,8],[7,1],[8,1]],[[1177,3109],[5,-1],[4,-6],[4,-11],[2,-2],[3,0]],[[1070,2978],[18,15],[4,5],[2,4],[2,5],[2,6],[6,5],[11,9],[5,5],[6,11],[1,6],[-2,5],[-4,5],[-11,8],[-1,2],[1,2],[10,4],[6,4],[20,17],[6,3],[14,5],[6,3],[5,2]],[[1206,3090],[11,-1]],[[1195,3089],[11,1]],[[1539,3041],[2,-1],[4,-3],[1,0]],[[1510,3034],[5,0],[5,1],[16,6],[3,0]],[[1504,3035],[6,-1]],[[1460,2981],[3,0],[3,3],[2,4],[-1,12],[1,4],[2,3],[5,2],[4,2],[2,3],[3,6],[1,2],[3,3],[4,6],[2,2],[4,2],[6,0]],[[1335,3021],[4,-1],[5,-3],[4,-5],[2,-7],[1,-9],[2,-7],[3,-5],[10,-6],[7,-10],[2,-2],[3,-1]],[[1300,3016],[16,1],[13,3],[6,1]],[[1449,2981],[11,0]],[[1430,2960],[1,1],[1,2],[2,5],[1,3],[6,7],[3,2],[5,1]],[[1410,2977],[5,-2],[5,-3],[3,-4],[5,-7],[2,-1]],[[1378,2965],[4,0],[6,2],[9,6],[6,3],[7,1]],[[970,2992],[-1,1],[-2,4],[2,11],[2,10],[0,6],[-2,7],[-6,3],[-9,5],[-8,8],[-5,7],[-13,12],[-3,3],[-3,4],[-5,2],[-7,2]],[[910,3077],[-5,0],[-5,-3],[-17,-6],[-2,-1],[-4,-3],[-22,-23],[-13,-23],[-2,-2],[-4,-2],[-6,-2]],[[830,3012],[-3,0],[-3,1],[-1,2],[-1,2],[-2,4],[-2,1],[-2,1],[-3,1],[-5,0]],[[808,3024],[-2,-1],[-2,-1],[-34,-49],[-3,-5],[-16,-15],[-10,-6],[-9,-6],[-1,-2],[-3,-3],[-1,-1],[-7,-4],[-2,-1],[-3,-6],[-2,-2],[-2,-1],[-1,-2],[-3,-4],[-6,-7],[-8,-7],[-4,-5],[-4,-3],[-3,-1],[-3,-1]],[[1070,2978],[-2,7],[-2,7],[-1,5],[-1,2],[-2,1],[-1,2],[-15,11],[-2,2],[-1,2],[-2,1],[-2,1]],[[1039,3019],[-22,-2]],[[1017,3017],[-17,1]],[[1000,3018],[-4,-1],[-2,-1],[-2,-1],[-10,-10],[-10,-12],[-2,-1]],[[668,2891],[-3,1],[-2,3],[-2,5],[0,2],[1,3],[4,3],[1,2],[1,2],[0,2],[-4,3],[-3,1],[-30,1],[-1,9],[-1,1],[0,2],[-3,4],[-1,2],[-2,1],[-3,2],[-3,1],[-3,1],[-2,0]],[[612,2942],[-1,0],[-17,-8],[-50,-3],[-24,-9],[-8,-4],[-1,-2],[-2,-2],[-4,-9],[-2,-3],[-3,-4],[-2,-1],[-3,-1],[-14,-4]],[[481,2892],[-4,1],[-5,9],[-3,1],[-3,1]],[[466,2904],[-4,0],[-2,-1],[-3,-1],[-1,-1],[-4,-6],[-2,-2],[-3,-2],[-5,-3],[-3,0]],[[439,2888],[-3,0],[-13,2],[-13,4],[-3,0]],[[407,2894],[-3,-1],[-7,-6],[-5,-7],[-2,-2],[-1,-3],[1,-2],[4,-15],[1,-5],[1,-7],[0,-6],[-1,-5],[-1,-3],[-1,-3],[-16,-24],[-5,-12],[-1,-3],[0,-2],[1,-2],[3,-1],[5,-2],[2,-1],[0,-2],[-1,-8],[0,-11],[-1,-8],[-1,-3],[-2,-2],[-11,-5],[-5,-7],[-4,-9],[-5,-21],[-2,-3],[-3,-1],[-7,-2],[-2,0]],[[679,2891],[-7,0]],[[672,2891],[-4,0]],[[297,2701],[-9,1],[-6,4],[-3,4],[-10,8]],[[338,2700],[-2,1],[-1,1],[-1,2],[-1,2],[-2,1]],[[331,2707],[-7,-2],[-27,-4]],[[1070,2978],[-1,-7],[-4,-6],[-25,-20],[-5,-11],[-2,-10],[0,-6],[1,-3],[3,-4],[1,-2],[2,-4],[1,-8],[0,-5],[-1,-3],[-4,-11],[-3,-10],[0,-4],[0,-4],[1,-7],[1,-13],[-1,-25],[0,-6],[-5,-13],[-15,-26],[-4,-10],[0,-5],[3,-4],[6,-8]],[[861,0],[0,1],[-2,1],[-7,4],[-5,4],[-4,4],[-3,4],[-1,4],[1,3],[2,5],[4,10],[0,6],[-1,2],[-10,1]],[[835,49],[-28,-6],[-3,0],[-17,-7],[-6,-5],[-9,-15],[-6,-7],[-6,-6],[-4,-3]],[[2062,699],[7,2],[1,1],[1,0],[0,2],[5,5],[11,13],[2,4],[14,34],[4,6],[10,10],[2,6],[0,5],[-3,5],[-14,11],[-11,13],[-5,5],[-5,3],[-29,14],[-4,2]],[[1976,805],[-34,-18],[-9,-11],[-2,-12],[5,-12],[6,-9],[8,-7],[8,-1]],[[2019,760],[8,-2],[4,-4],[4,-6],[4,-8],[3,-8],[-1,-7],[-2,-6],[-1,-5],[2,-5],[5,-3],[10,-5],[7,-2]],[[1958,735],[9,1],[7,5],[6,5],[13,7],[13,5],[7,2],[6,0]],[[1879,864],[-3,0],[-3,2],[-8,7],[-2,2],[0,2],[0,3],[0,2],[1,2],[5,5],[2,2],[3,1],[1,1],[1,2],[1,1],[-1,3],[-2,1],[-5,3],[-7,1],[-16,2],[-2,1],[-2,3],[-3,3],[-3,11],[-6,15],[-6,0]],[[1824,939],[-15,-1],[-14,-4],[-11,-8],[-12,-11],[-7,-4],[-34,-7],[-5,-3],[-5,-17],[5,-43],[-2,-18]],[[1934,876],[-7,8],[-1,2],[0,1],[0,2],[0,2],[3,5],[0,2],[-1,2],[-2,2],[-2,2],[-2,2],[-2,0]],[[1920,906],[-2,-1],[-3,-1],[-7,-9],[-1,-1],[0,-2],[0,-1],[0,-3],[0,-1],[-1,-2],[-1,0],[-4,-1],[-2,-2],[-1,-2],[-4,-7],[-1,-3],[-2,-2],[-1,-1],[-2,-1],[-4,-2],[-5,0]],[[1945,850],[-2,0],[-1,0],[-2,1],[-1,1],[-1,2],[2,2],[3,2],[1,2],[1,1],[0,2],[0,6],[0,2],[0,2],[-2,3],[-1,1]],[[1942,877],[-8,-1]],[[1948,818],[-2,1],[-1,2],[-1,3],[1,8],[2,3],[2,2],[2,1],[3,1],[1,1],[1,2],[1,1],[0,2],[0,1],[0,2],[-3,2],[-3,1]],[[1951,851],[-2,0],[-2,-1],[-2,0]],[[1706,823],[-5,3],[-7,2],[-14,1],[-10,5]],[[1670,834],[-1,-1],[-8,-10],[-3,-2],[-8,-3],[-4,-4],[-4,-14],[-2,-2],[-2,-3],[-7,-18],[-2,-7],[-1,-23],[-7,-13],[0,-4],[1,-6],[-1,-10],[-3,-5],[-15,-12],[-2,-3],[-2,-6],[-1,-3],[-3,-5],[-3,-3],[0,-4],[2,-5],[-4,-2],[-1,-2],[-2,-3],[-3,-2],[-3,-1]],[[1724,823],[-4,4],[-5,1]],[[1715,828],[-4,-2],[-5,-3]],[[1969,815],[-3,0],[-2,1],[-4,3],[-2,0]],[[1958,819],[-8,-1],[-2,0]],[[1976,805],[0,6],[0,1],[1,2],[-1,1],[-2,1]],[[1974,816],[-5,-1]],[[1581,658],[-11,1]],[[1570,659],[-6,-2],[-20,-11],[-6,-9],[-1,-9],[1,-8],[-3,-7],[-4,-6],[-2,-8],[1,-7],[7,-5],[-3,0],[5,-7],[5,-5],[4,-6],[1,-10],[-2,-9],[-3,-6],[-4,-5],[-3,-5],[-3,-8],[-1,-8],[1,-10],[-5,-5]],[[1456,572],[-3,0],[-4,1],[-10,5],[-2,2],[-3,2],[-1,3],[-3,3]],[[1430,588],[-3,-3],[-1,-4],[-2,-10],[1,-5],[1,-4],[2,-1],[1,-2],[1,-1],[0,-2],[0,-2],[0,-3],[0,-1],[1,-2],[3,-6],[3,-4],[0,-2],[-3,-20],[0,-4],[0,-3],[1,0]],[[1529,503],[-17,8],[-4,3],[-3,4],[-7,9],[-3,5],[-2,5],[-1,3],[-1,3],[0,14],[-1,3],[-1,3],[-2,3],[-5,5],[-9,6],[-3,1]],[[1470,578],[-14,-6]],[[1440,510],[1,-1],[2,-2],[1,-2],[0,-2],[0,-2],[0,-4],[-2,-3],[-4,-7],[-2,-3],[-3,-1],[-5,-2],[-4,0],[-3,-1],[-5,-2],[-3,-1]],[[1435,509],[2,1],[1,0],[2,0]],[[1400,474],[-3,0],[-1,1],[-1,1],[-1,1],[-5,1],[-2,1],[-2,2],[-1,1]],[[1384,482],[-2,0],[-23,-10],[-4,-3],[-5,-3],[-4,-2],[-3,-2],[-3,-3],[-9,-15],[-2,-7],[-2,-7],[-3,-33],[-1,-7],[-4,-5],[-4,-1],[-1,-1],[-1,-2],[1,-5],[13,-28],[1,-9],[0,-9],[1,-4],[3,-16],[2,-13],[2,-4],[2,-3],[4,-2],[3,-1],[3,0]],[[1413,477],[-3,0]],[[1410,477],[-3,0],[-3,-1],[-4,-2]],[[1365,291],[2,-1],[1,-1],[2,-2],[-1,-8],[-5,-19],[1,-6],[2,-5],[2,-2],[1,-1],[2,-1]],[[1348,287],[16,4],[1,0]],[[1390,266],[3,0],[3,-2],[1,-1],[0,-3],[0,-3],[1,-1],[2,-2],[2,-5],[-1,-31],[-3,-8],[-3,-7],[-14,-20],[-3,-7],[-2,-8],[0,-9],[-1,-4],[-2,-5],[-7,-13],[-2,-5],[-3,-19],[-3,-9],[-5,-7],[-3,-3],[-11,-5],[-3,-3],[-13,-16],[-4,-6],[-2,-5],[-1,-7],[0,-9],[-1,-4],[-2,-3],[-13,-15],[-6,-7],[-4,-14]],[[1372,245],[2,1],[1,2],[1,2],[2,3],[0,2],[2,1],[2,1],[1,1],[1,0],[1,2],[0,1],[2,3],[1,1],[2,1]],[[2182,937],[2,0],[2,-1],[2,-2],[3,-1]],[[2151,911],[3,1],[3,2],[2,2],[6,12],[2,2],[2,1],[3,1],[7,3],[3,2]],[[2142,916],[2,-1],[4,-3],[1,0],[2,-1]],[[2073,842],[8,6],[9,8],[11,5],[7,4],[8,4],[2,2],[1,2],[0,2],[1,1],[1,4],[2,4],[11,16],[0,1],[0,1],[-1,2],[-1,3],[1,4],[2,3],[2,1],[2,0],[3,1]],[[2055,843],[18,-1]],[[2048,840],[7,3]],[[2632,3885],[-7,1],[-4,1],[-2,2],[-3,4],[-3,3],[-27,4],[-5,3],[-3,2],[2,6],[1,2],[1,3],[1,3],[0,2],[-1,2],[-1,3],[-2,3],[-5,5],[-4,2],[-50,18],[-8,4],[-14,12],[-7,7],[-2,4],[-3,6],[-3,3],[-12,11],[-14,13],[-6,3],[-4,3],[-1,3],[-1,2],[0,6],[-1,3],[-2,5],[-2,3],[-3,2],[-9,6],[-40,34],[-1,1],[-5,7]],[[2670,3882],[-10,4]],[[2660,3886],[-28,-1]],[[2385,4096],[-3,-4]],[[1794,3586],[-6,3],[-8,11],[-5,11],[-4,5],[-4,4],[-6,4],[-5,1],[-9,2],[-4,2],[-2,3],[0,3],[1,4],[1,4],[2,4],[1,4],[0,5],[-4,7],[-1,4],[1,4],[1,3],[1,3],[0,5],[-2,3],[-3,3],[-12,6],[-1,2],[2,2],[7,6],[3,6],[-1,6],[-2,5],[-5,4],[-16,6],[-3,3],[-1,3],[2,2],[3,2],[3,3],[1,4],[-3,5],[0,4],[0,5],[2,8],[0,5],[-2,7],[-4,3],[-6,1]],[[1706,3786],[-32,-8],[-18,-7],[-13,-1]],[[1725,3487],[13,3],[8,3],[12,3],[5,3],[4,2],[10,9],[17,7],[18,6],[13,6],[3,2],[3,2],[1,2],[2,5],[5,6],[-9,15],[-7,9],[-5,5],[-2,4],[-2,9],[-3,3],[-3,1]],[[1808,3592],[-4,-2],[-6,-4],[-4,0]],[[1541,3533],[5,-1],[2,-2],[3,-6],[2,-3],[6,-3],[5,-2],[54,-10],[5,-3],[3,-2],[2,-1],[8,-6],[5,-2],[8,-2],[5,0]],[[1460,3463],[3,8],[3,13],[1,2],[8,15],[9,8],[28,6],[6,4],[5,4],[4,6],[2,2],[5,2],[7,0]],[[1702,3491],[23,-4]],[[1673,3485],[4,1],[8,3],[6,1],[11,1]],[[1660,3491],[3,-1],[7,-5],[3,0]],[[1654,3490],[6,1]],[[2233,4096],[1,-2],[2,-1],[7,-1],[2,0],[2,-2],[5,-3],[3,-2],[4,-1]],[[2375,4096],[7,-4]],[[2259,4084],[3,0],[1,1],[0,2],[0,2],[0,6],[0,1]],[[2052,4030],[6,6],[10,9],[21,10],[5,3],[3,4],[1,3],[1,2],[0,3],[-1,3],[-1,2],[-1,3],[0,2],[1,5],[0,3],[-1,6],[0,2]],[[1010,1769],[-23,10],[-10,8],[-2,1]],[[975,1788],[-1,-2],[1,-3],[0,-4],[-2,-6],[-4,-5],[-5,-5],[-4,-4],[-9,-4],[-25,-3],[-15,-6],[-6,-4],[-1,0]],[[904,1742],[-1,1],[0,3],[-1,1],[0,1],[-1,1],[-5,1]],[[626,1971],[0,8],[0,3],[-2,5],[-3,7],[-2,4],[0,6],[1,5],[-1,4],[-1,4],[-3,4],[-4,8],[-5,16],[-3,6],[-3,5],[0,2],[0,1],[6,6],[4,1],[2,1],[0,1],[1,1],[0,2],[1,1],[1,1],[10,9],[2,2],[1,2],[2,3],[2,10],[7,15],[1,4],[-1,4],[-4,10],[-2,4],[-1,1],[-1,0],[-1,1],[-2,0],[-1,1],[0,1],[0,4],[0,4],[0,3],[-2,5],[-3,5],[0,1],[0,2],[0,2],[0,1],[3,3],[0,2],[1,10],[-2,9],[0,4],[1,1],[5,6],[16,2],[1,0],[2,1],[4,4],[4,13],[4,64],[0,4],[-1,6],[0,4],[0,4],[2,11],[1,1],[7,9],[-1,3],[0,2],[-10,12],[-1,1]],[[873,1316],[11,-33],[0,-5],[0,-7],[-2,-3],[-4,-4],[-15,-14],[-4,-6],[-2,-6],[-1,-4],[1,-7],[-1,-18],[-2,-4],[-1,-3],[-7,-8],[0,-10],[6,-14],[-1,-5],[-2,-7],[-3,-6],[-4,-10],[-1,-6],[-1,-6],[1,-4],[1,-10]],[[836,1420],[4,8],[1,4],[1,3],[1,1],[3,1],[4,1],[2,2],[12,6],[11,7],[6,6],[14,19],[2,5],[3,7]],[[714,994],[-7,15],[-8,10],[-3,5],[-2,6],[-1,3],[-2,5],[-2,4],[-11,15],[-7,6],[-5,5],[-4,6],[-9,17],[-4,3]],[[649,1094],[-30,-21],[-2,-2],[-3,-1],[-2,0]],[[589,1069],[-54,19]],[[612,1070],[-6,3]],[[606,1073],[-6,-1],[-6,-3],[-5,0]],[[723,1001],[-5,-6],[-1,-1],[-3,0]],[[463,754],[-1,10],[-2,3],[-1,2],[1,5],[-1,1],[-2,2],[-2,1],[-1,2],[-1,3],[1,4],[1,4],[2,3],[1,2],[2,0],[3,1],[1,1],[-1,2],[-1,4],[-3,7],[-3,10],[-1,3],[-1,3],[-2,1],[-11,6]],[[873,1316],[-8,-7],[-3,-7],[-1,-1],[-3,-3],[-5,-2],[-17,-8],[-6,-6],[-17,-44],[-1,-6],[-2,-5],[-2,-3],[-11,0],[-19,-5],[-4,0]],[[774,1219],[-8,5]],[[658,1465],[5,-2],[5,-3],[19,-2],[16,-6]],[[649,1456],[6,3],[3,6]],[[777,1459],[16,-1],[12,-3],[6,-4],[5,-5],[12,-17],[8,-9]],[[751,1452],[26,7]],[[722,1455],[7,-3]],[[703,1452],[7,1],[7,2],[5,0]],[[747,1453],[4,-1]],[[729,1452],[18,1]],[[873,1316],[7,11],[-4,16],[-2,6],[-11,19],[-3,8],[-1,6],[-3,6],[-1,4],[-13,10],[-6,18]],[[535,1088],[-2,6],[-6,23],[-13,9],[-2,1],[-12,4],[-2,0],[-2,2],[-1,3],[-2,6],[-1,4],[-2,3],[-1,4],[-1,5],[0,13],[4,15],[0,10],[4,15]],[[134,994],[-17,2],[-5,1],[-4,2],[-9,9],[-11,8],[-14,6],[-11,2]],[[63,1024],[-9,0],[-25,-6],[-3,-1],[-3,-2],[-5,-3],[-2,-3],[-2,-2],[-2,-10],[-1,-2],[-1,-1],[-10,-4]],[[333,831],[-2,0],[-2,1],[-2,2],[-31,34],[-2,2],[-5,6],[-17,12],[-4,6],[-2,2],[-23,9],[-4,2],[-4,2],[-3,8],[0,6],[-3,12],[-1,4],[0,4],[0,3],[0,4],[0,3],[-1,5],[-1,4],[0,4],[1,6],[0,4],[-4,20],[-2,4],[-3,5],[-11,11],[-5,3],[-8,2]],[[194,1021],[-5,-3],[-2,-1],[-2,-2],[-2,-1],[-5,-4],[-11,-6],[-23,-8],[-5,-1],[-5,-1]],[[441,834],[-9,-9],[-15,-20],[-2,-2],[-31,-19],[-3,-1],[-6,-1],[-4,0]],[[371,782],[-15,4],[-4,2],[-4,3],[-1,1],[0,1],[-1,3],[0,4],[2,7],[3,9],[0,4],[0,2],[-3,10]],[[348,832],[-8,0],[-3,-1],[-4,0]],[[535,1088],[-10,-12],[-7,-11],[-11,-27],[-5,-3],[-7,-8],[-7,-8],[-8,-18],[-3,-15],[-1,-16],[2,-6],[3,-5],[8,-8],[5,-3],[4,-3],[1,-2],[6,-14],[0,-2],[0,-1],[0,-2],[-2,-1],[-3,-1],[-17,-4],[-6,-2],[-4,-3],[-9,-8],[-4,-6],[-5,-9],[-1,-2],[1,-2],[3,-4],[2,-5],[0,-3],[-2,-16],[-3,-7],[-2,-3],[-12,-14]],[[285,1292],[-42,-22],[-10,-8],[-5,-9],[-8,-8],[-4,-4],[-3,-1]],[[213,1240],[-4,2],[-3,1]],[[206,1243],[-3,0],[-4,-1],[-3,-2],[-2,-2],[-3,-4],[-7,-9],[-1,-2],[-2,-6],[-8,-17]],[[61,1221],[-10,1],[-6,1],[-7,2],[-12,1],[-2,1],[-2,1],[-2,3],[-3,2],[-7,3],[-4,2],[-3,0]],[[3,1238],[-3,0]],[[173,1200],[-23,2],[-67,20],[-8,1]],[[75,1223],[-14,-2]],[[0,1067],[12,-6],[4,-3],[2,-3],[-4,-4],[-5,-7],[-1,-3],[-2,-4],[-1,-1],[-2,-2],[-3,-1]],[[566,1328],[-26,7]],[[540,1335],[-1,-1],[-14,-23],[-11,-32],[-1,-6],[-5,-4],[-9,-20],[2,-20],[-5,-18]],[[717,1196],[-8,1],[-5,19],[-5,21],[-9,21],[-6,6],[-8,2],[-4,3],[-2,6],[-12,20],[-3,12],[-15,9],[-5,4],[-6,5],[-6,3],[-8,1]],[[615,1329],[-10,-2]],[[605,1327],[-33,2]],[[572,1329],[-6,-1]],[[766,1224],[-13,2]],[[753,1226],[-4,0],[-3,-2],[-2,-5],[-1,-5],[-2,-4],[-4,-6],[-5,-3],[-15,-5]],[[642,1561],[0,-11],[-5,-21],[-1,-51],[-1,-8],[1,-16]],[[636,1454],[13,2]],[[285,1292],[-4,4],[-7,4],[-1,1],[-1,3],[2,14],[0,13],[-1,10],[0,12],[-5,13],[-19,21]],[[849,1703],[5,0],[6,2],[3,3],[3,4],[7,14],[3,3],[11,6],[3,2],[2,1],[4,12]],[[844,1703],[5,0]],[[749,1590],[6,3],[46,30],[18,5],[3,6],[2,5],[5,24],[1,9],[1,7],[3,9],[10,15]],[[729,1593],[20,-3]],[[693,1572],[10,9],[3,6],[2,2],[4,2],[17,2]],[[683,1572],[10,0]],[[670,1565],[3,2],[4,4],[6,1]],[[658,1566],[12,-1]],[[642,1561],[16,5]],[[269,2096],[18,-4],[9,-6],[3,-1]],[[319,2086],[59,-4],[31,-9],[4,0]],[[299,2085],[20,1]],[[445,2079],[5,-10],[23,-29],[16,-13],[4,-2],[3,-1]],[[413,2073],[4,1],[6,2],[22,3]],[[515,2033],[9,-2],[17,-3],[5,-2],[0,-1],[1,-1],[4,-4],[3,-2],[4,-6],[11,-10],[7,-4],[14,-6],[7,-1],[14,-3],[4,-2],[3,-2],[2,-3],[1,-2],[5,-8]],[[496,2024],[2,0],[3,1],[10,7],[2,1],[2,0]],[[790,1997],[4,-2],[6,-16],[1,-6],[1,-4],[0,-9],[1,-7],[1,-4],[1,-3],[2,-2],[1,-1],[2,0],[1,0]],[[692,1944],[16,5],[24,19],[4,3],[6,1],[6,1],[22,9],[12,7],[8,8]],[[626,1971],[5,-6],[6,-2],[5,0],[2,-2],[1,-2],[2,-6],[2,-4],[3,-6],[2,-2],[2,-1]],[[663,1945],[3,0],[2,-1],[2,-2],[1,-1],[1,0]],[[656,1940],[1,1],[3,2],[1,1],[2,1]],[[680,1945],[12,-1]],[[672,1941],[1,0],[1,2],[3,1],[3,1]],[[820,1944],[5,-2],[4,-9],[4,-51],[22,-21],[7,-9],[7,-13],[0,-2],[1,-1],[0,-2],[0,-2],[1,-2],[3,-9],[2,-3],[3,-2],[2,-2],[0,-1],[1,-2],[0,-4],[0,-3],[3,-3],[5,-8],[3,-4],[1,-4],[2,-35]],[[811,1943],[9,1]],[[210,1397],[-2,0],[-1,1],[-2,2],[-1,1],[-1,1],[-11,3],[-2,2],[-1,2],[-1,3],[-2,15],[0,3],[0,3],[0,3],[0,2],[-1,3],[-1,2],[0,2],[0,3],[2,10],[0,3],[2,4],[2,3],[3,2],[2,2],[9,6],[3,5],[1,4],[2,6],[1,3],[2,13],[2,5],[1,4],[1,2],[2,3],[0,3],[-3,9],[0,4],[1,5],[3,6],[1,4],[-1,3],[-5,16],[-2,7],[1,12]],[[245,1386],[-2,0],[-1,1],[-13,11],[-3,1],[-2,1]],[[224,1400],[-3,0],[-8,-2],[-3,-1]],[[249,1387],[-2,-1],[-2,0]],[[627,1570],[-13,3]],[[614,1573],[-9,-7],[-3,-5],[-3,-3],[-3,-1],[-2,-1],[-19,-8],[-4,-3],[-3,-3],[-6,-12],[-3,-5],[-3,-3],[-2,-1],[-16,-5],[-3,-2],[-1,-2],[-3,-5],[-16,-12],[-3,0],[-4,-1]],[[642,1561],[-6,9],[-2,1]],[[634,1571],[-3,0],[-4,-1]],[[508,1494],[-15,11]],[[493,1505],[-14,-4],[-2,-1],[-3,-3],[-4,-4],[-4,-6],[-6,-8],[-5,-10],[-3,-3],[-1,-1],[-27,-21],[-5,-3],[-16,-4],[-3,-1],[-1,-2],[1,-1],[0,-3],[2,-4],[1,-2],[0,-2],[-1,-5],[-10,-5],[-8,-2],[-18,-1]],[[319,1408],[-5,0],[-27,8]],[[287,1416],[-2,0],[-2,-1],[0,-2],[0,-2],[-2,-3],[-2,-3],[-4,-3],[-5,-3],[-10,-4],[-8,-4],[-3,-4]],[[366,1409],[-23,2]],[[343,1411],[-24,-3]],[[211,2092],[-72,10],[-18,2],[-8,3],[-5,3],[-2,2],[-12,7],[-20,10],[-6,2]],[[68,2131],[-5,-1],[-6,-1],[-10,-5],[-5,-1]],[[42,2123],[-42,4]],[[0,2127]],[[251,2106],[-30,-12],[-10,-2]],[[36,1596],[48,-11],[5,-1]],[[0,1589],[4,2],[23,5],[9,0]],[[182,1585],[32,7]],[[116,1591],[3,0],[2,-2],[3,-5],[2,-2],[3,-1],[2,-1]],[[89,1584],[4,0],[20,7],[3,0]],[[168,1586],[14,-1]],[[131,1580],[37,6]],[[214,1592],[20,21],[1,3],[1,4],[0,4],[2,4],[8,11],[5,8],[2,14],[-5,6],[-1,2],[-10,5],[0,4],[0,3],[0,3],[2,6],[3,6],[52,71],[2,3],[1,15],[1,5],[2,17],[0,3],[0,6],[0,3],[1,3],[2,6],[2,3],[2,3],[11,6],[34,30],[7,8],[17,28],[-1,4],[-3,4],[-2,3],[-9,9],[-24,18],[-16,9],[-4,3],[-17,23],[-25,42],[-18,26],[-1,4],[-3,7],[-2,3],[-5,7],[-1,2],[0,3],[1,4],[3,6],[1,3],[3,2],[3,1],[8,3],[5,4]],[[844,965],[2,0],[2,-1],[3,-1],[22,-13]],[[803,932],[4,2],[20,13],[13,16],[2,1],[2,1]],[[761,954],[17,-1],[12,-3],[3,-2],[3,-1],[1,-2],[1,-2],[0,-3],[-1,-3],[0,-3],[2,-2],[4,0]],[[757,954],[4,0]],[[751,954],[6,0]],[[530,749],[5,0],[5,1],[5,1],[5,3],[2,1],[5,5],[7,13],[4,12],[6,12],[4,5],[5,4],[35,28],[37,17],[11,9],[2,2],[3,6],[19,21],[2,2],[15,13],[4,3],[4,4],[6,7],[4,5],[5,12],[3,9],[3,3],[8,5],[3,1],[4,1]],[[463,754],[54,-1],[6,-1],[7,-3]],[[842,1116],[-42,-6],[-13,-2],[0,-2],[0,-1],[0,-2],[2,-7],[0,-2],[-1,-4],[-2,-4],[-15,-20],[-22,-24],[-19,-14],[-6,-4],[-2,-2],[-1,-1],[0,-3],[2,-17]],[[934,1116],[6,1],[22,11],[38,6],[21,6],[18,10],[5,4],[10,8],[9,20],[1,6],[0,8],[-6,30],[9,8],[19,7],[4,3],[3,19],[2,5],[4,5],[12,9],[12,7],[11,3]],[[913,1121],[21,-5]],[[853,1112],[39,5],[21,4]],[[842,1116],[11,-4]],[[836,748],[11,17],[2,2],[3,2],[3,0],[9,4],[6,4],[8,3],[11,7],[9,3],[2,2],[6,7],[2,3],[1,4],[0,6]],[[828,753],[1,0],[1,-1],[6,-4]],[[692,586],[2,10],[1,2],[5,6],[7,8],[1,5],[1,5],[2,3],[20,19],[8,5],[2,3],[4,6],[2,5],[8,29],[-6,7],[0,5],[2,6],[6,12],[2,5],[11,10],[5,3],[6,3],[22,7],[25,3]],[[201,348],[5,1],[22,2],[10,2],[9,4],[5,3],[15,12],[10,11],[2,5],[1,7],[1,4],[0,2],[4,3],[4,4],[26,26],[4,8],[3,5],[15,17],[16,53],[3,5],[4,6],[34,27],[22,26],[4,6],[4,8],[2,7],[2,9],[4,12],[4,7],[25,23],[1,1]],[[149,392],[31,-32],[15,-10],[3,-2],[3,0]],[[201,66],[9,24],[3,13],[0,4],[-1,4],[-4,19],[-1,5],[1,3],[1,3],[3,6],[1,16],[-3,19],[0,5],[1,5],[4,8],[0,3],[-1,4],[-2,5],[-2,14],[-7,24],[-2,3],[-1,1],[-1,1],[-8,4],[-2,1],[-16,17],[-10,7],[-4,5],[-3,11],[-33,27],[-8,9],[0,2],[0,2],[1,2],[15,28],[18,22]],[[509,661],[-4,1],[-7,4]],[[498,666],[-9,-2],[-27,-10]],[[548,545],[-1,0],[-1,3],[-2,10],[-2,5],[0,4],[1,3],[0,2],[-3,27],[0,9],[1,21],[0,5],[-1,3],[-1,2],[-6,9],[-3,8],[-2,1],[-2,2],[-8,4],[-2,0]],[[516,663],[-2,0],[-3,-1],[-2,-1]],[[652,583],[-8,2],[-11,9],[-3,2],[-1,2],[-1,1],[-2,0],[-2,1],[-2,0]],[[622,600],[-1,0],[-1,-1],[0,-3],[0,-2],[1,-2],[0,-1],[0,-1],[-3,-3],[-13,-8],[-18,-9],[-15,-9],[-9,-10],[-6,-3],[-5,-3],[-2,0],[-2,0]],[[692,586],[-7,3],[-1,1],[-3,1]],[[681,591],[-6,0],[-17,-7],[-6,-1]],[[692,586],[-4,-17],[0,-5],[1,-1],[1,-4],[2,-4],[1,-11],[0,-5],[-1,-4],[-11,-16],[-11,-13],[2,-11],[14,-1],[34,-13]],[[1119,1380],[5,-6],[2,-5],[0,-5],[0,-4],[0,-5],[2,-5],[5,-9],[2,-8],[1,-9],[0,-18],[-2,-14]],[[1164,1197],[-3,1],[-2,1],[-11,16],[-2,8],[0,8],[2,10],[1,7],[3,6],[1,3],[0,7],[0,2],[0,3],[-2,6],[-1,3],[-6,8],[-10,6]],[[1180,1170],[-3,11],[1,2],[2,3],[5,3],[2,2],[1,1],[1,2],[-2,2],[-3,2],[-7,2],[-5,0]],[[1172,1200],[-3,0],[-4,-3],[-1,0]],[[1268,1181],[-45,-3]],[[1223,1178],[-13,2]],[[1210,1180],[-19,-9],[-11,-1]],[[996,1983],[-4,2],[-6,5],[-25,30],[-21,16],[-14,8],[-2,2],[-1,4],[1,16],[0,4],[-1,5],[-5,12],[-2,11],[-3,7],[-1,11],[-1,16],[3,20],[-1,99],[0,4],[1,2],[5,4],[3,1],[2,2],[1,1],[0,4],[1,3],[5,9],[10,4],[3,2],[1,2],[2,6],[8,15],[-8,14],[-6,7],[-14,11],[-3,4],[-2,6],[0,8],[1,11],[0,5],[-2,6],[-8,21],[-1,13],[2,25],[3,12],[2,4],[4,5],[2,2],[0,2],[0,1],[-3,2],[-3,1],[-4,0],[-2,0],[-1,5],[-1,9],[-1,47],[2,9]],[[1044,1974],[-2,0],[-24,8],[-12,3]],[[1006,1985],[-3,0],[-7,-2]],[[1010,1769],[3,3],[2,1],[1,3],[2,5],[2,1],[1,1],[8,3],[16,11],[4,3],[7,9],[2,2],[19,10],[1,2],[1,4],[-2,5],[-8,11],[-2,4],[-1,3],[0,4],[2,4],[3,4],[1,3],[0,4],[0,4],[4,12],[1,8],[1,3],[1,2],[4,6],[1,13],[-2,48],[-3,5],[-1,1],[-3,2],[-4,1],[-13,2]],[[1058,1976],[-14,-2]],[[946,1597],[5,0],[8,3],[6,4],[5,6],[3,6],[2,4],[0,4],[0,2],[-2,2],[-1,2],[0,5],[1,2],[2,2],[9,5],[3,5],[2,6],[1,21],[4,11]],[[940,1599],[2,-1],[4,-1]],[[900,1490],[1,24],[-2,4],[-3,7],[-15,13],[1,6],[3,5],[3,4],[7,4],[27,14],[8,12],[2,5],[6,11],[2,0]],[[923,1429],[-3,3],[-4,7],[-1,18],[-1,5],[-2,5],[-10,15],[-2,8]],[[1048,1339],[-5,2],[-17,10],[-17,3],[-4,3],[-8,16],[-8,9],[-9,13],[-5,20],[-10,9],[-29,5]],[[936,1429],[-13,0]],[[1119,1380],[-6,-10],[-18,-14],[-4,-3],[-19,-8],[-19,-6],[-5,0]],[[1420,1537],[16,1],[3,3],[3,13],[2,3],[1,2],[9,4],[2,3],[3,4],[3,2],[7,3],[5,2],[8,6],[3,3],[3,3],[2,4]],[[1408,1543],[5,-4],[7,-2]],[[1315,1430],[4,2],[1,4],[4,9],[3,16],[2,5],[2,4],[8,10],[0,16],[2,8],[4,7],[5,8],[10,7],[43,17],[5,0]],[[1148,1443],[12,-6],[11,-7],[7,-4],[6,-2],[16,-3],[21,-7],[3,0]],[[1119,1380],[18,31],[2,6],[9,26]],[[1309,1439],[1,-1],[2,-2],[3,-6]],[[1287,1417],[15,18],[3,2],[4,2]],[[1263,1422],[5,0],[5,-1],[3,-1],[11,-3]],[[1224,1414],[5,1],[5,2],[4,1],[25,4]],[[1246,1668],[14,6],[7,13],[10,10],[2,3],[1,3],[-2,3],[-2,3],[-3,2],[-8,5],[-2,2],[-1,6],[1,7],[2,4],[1,2],[3,2],[5,2],[5,3],[3,2],[1,2],[3,6],[11,17],[2,4],[1,5],[1,8],[2,17],[2,5],[2,4],[5,3],[3,4],[3,5],[5,10],[3,5],[5,5],[5,4],[0,1]],[[1050,1700],[4,-1],[10,-6],[17,-5],[4,-3],[2,-2],[2,-3],[0,-2],[1,-7],[1,-3],[1,-3],[16,-18],[3,-4],[1,-3],[1,-4],[-1,-3],[0,-3],[-4,-9],[-2,-8],[-1,-4],[0,-7],[0,-4],[1,-7],[2,-6],[12,-1]],[[1017,1683],[9,2],[9,8],[4,3],[7,3],[4,1]],[[994,1687],[23,-4]],[[1234,1670],[3,0],[2,-1],[7,-1]],[[1222,1602],[3,1],[1,2],[4,7],[1,2],[1,3],[-1,3],[-1,6],[-1,6],[0,2],[-2,5],[-1,2],[1,6],[0,2],[-1,3],[0,3],[1,4],[3,8],[2,2],[2,1]],[[1160,1626],[3,-1],[7,-10],[6,-6],[10,-4]],[[1120,1584],[10,3],[8,4],[3,3],[3,3],[1,3],[0,2],[1,2],[-1,3],[1,3],[1,5],[6,8],[4,3],[3,0]],[[1199,1607],[18,-5],[5,0]],[[1186,1605],[13,2]],[[0,340],[43,-45],[4,-3],[12,-6],[1,-1],[-1,-1],[-25,-29],[24,-18],[5,-8],[3,-15],[1,-2],[2,0],[14,-3],[2,-1],[12,-8],[3,-4],[2,-3],[0,-2],[0,-2],[-1,-3],[-2,-2],[-4,-6],[-7,-6],[-6,-5],[-10,-5],[-2,-1],[-1,0]],[[69,161],[-2,0],[-3,1],[-6,2]],[[58,164],[-1,0],[-1,-1],[-1,-1],[-2,-1],[-2,-3],[-2,-4],[-2,-5],[-1,-6],[1,-4],[1,-3],[2,-1],[1,0]],[[65,139],[2,-1],[1,0],[2,-1],[2,-1],[3,-3],[4,-6],[2,-4],[0,-4],[-2,-17],[-1,-4],[1,-3],[1,-1],[4,-3],[5,-4],[2,-1],[23,-3],[7,-2],[5,-3],[7,-6],[10,-7],[6,-5],[4,-4],[4,-1],[3,-1]],[[51,135],[2,0],[10,3],[2,1]],[[160,54],[24,1],[2,1],[15,10]],[[811,1043],[3,0],[1,-2],[3,-3],[1,-1],[1,-1],[3,-2],[1,-1],[1,-1],[1,-2],[1,-1],[1,-1],[4,-2],[1,-1],[2,-1],[1,-2],[1,-5],[4,-7],[1,-3],[1,-2],[1,-1],[3,-3],[1,-1],[0,-2],[2,-6],[6,-7],[3,-4],[4,-6],[3,-16],[7,-9]],[[730,1000],[27,19],[43,21],[7,3],[4,0]],[[723,1001],[7,-1]],[[474,3013],[-2,7],[-2,6],[-4,7],[-2,7],[-4,3]],[[460,3043],[-1,-4],[-1,-6],[2,-8],[-2,-6],[-10,-4],[-8,-3],[-1,-4],[3,-8],[-9,-7],[2,-2]],[[454,2957],[7,0],[7,2],[1,5],[-1,7],[10,9],[11,4],[2,6],[5,7],[-7,1],[-2,6],[-6,1],[-4,2],[1,6]],[[478,3013],[-4,0]],[[444,2994],[2,-5],[-3,-5],[4,-6],[0,-6],[1,-10],[6,-5]],[[435,2991],[9,3]],[[192,4096],[-5,-21],[-14,-33],[-26,-21],[-5,-1],[-11,3],[-5,0],[-6,-3],[-5,-9],[-4,-4],[-6,0],[-5,3],[-5,4],[-4,3],[-6,2],[-4,0],[-5,0],[-5,-2],[-10,-6],[-18,-16],[-11,-4],[-21,2],[-10,-2],[-1,-1],[0,35],[15,-1],[81,27],[52,32],[13,13],[31,0]],[[0,3974],[27,-27],[6,-9],[4,-10],[1,-6],[-1,-14],[1,-7],[3,-5],[4,-6],[3,-6],[-2,-5],[-7,-2],[-11,4],[-18,12],[-4,3],[-6,8],[0,70]],[[2004,967],[5,-2],[1,-7],[-8,-6],[-15,-6],[-10,-10],[-6,-2],[-8,4],[-4,5],[-2,7],[-2,7],[-2,6],[-5,6],[-6,4],[-7,2],[-8,0],[-6,-2],[-11,-11],[-5,-2],[-6,4],[-7,9],[-3,8],[25,11],[8,6],[4,7],[1,6],[7,4],[2,5],[0,11],[-1,6],[-2,4],[6,10],[3,11],[1,24],[-1,3],[-5,11],[-1,6],[0,7],[0,6],[-1,6],[-2,6],[8,13],[0,6],[-2,2],[-2,0],[-16,4],[-3,3],[0,6],[3,5],[3,4],[2,6],[1,1],[1,2],[0,2],[-1,3],[-3,4],[-3,10],[-1,5],[3,5],[5,-3],[6,-9],[3,-11],[0,-7],[-4,-6],[-3,-8],[0,-6],[4,-3],[10,-1],[4,-4],[0,-7],[-2,-10],[-3,-19],[1,-11],[3,-4],[4,-5],[7,-29],[-5,-14],[-2,-6],[0,-10],[0,-8],[2,-7],[5,-14],[-3,-10],[3,-8],[6,-4],[5,1],[6,5],[7,3],[8,-1],[6,-5],[-5,-7],[-5,-5],[-4,-4],[1,-6],[6,-5],[15,3]],[[3157,0],[-66,0],[-3,1],[-4,2],[-3,1],[-7,1],[-2,0],[-1,1],[0,1],[2,4],[1,5],[1,2],[3,4],[2,16],[-1,3],[-2,1],[-4,2],[-2,1],[-1,2],[-1,2],[1,2],[0,3],[0,2],[0,2],[2,4],[-1,2],[-2,1],[-4,2],[-2,1],[0,2],[1,1],[1,1],[1,2],[-1,3],[0,2],[1,1],[5,1],[3,1],[1,1],[0,2],[0,2],[-5,8],[0,2],[-1,2],[1,2],[2,1],[2,1],[4,0],[7,-5],[9,-14],[3,-2],[2,0],[1,2],[4,9],[2,2],[1,2],[3,0],[1,-1],[-1,-10],[-1,-9],[0,-3],[1,-3],[1,-4],[3,-1],[2,0],[2,1],[2,1],[2,-2],[1,-3],[1,-2],[2,-1],[5,0],[3,0],[1,-2],[1,-2],[-1,-2],[-2,-7],[0,-4],[1,-3],[2,-6],[1,-2],[2,-2],[2,-1],[3,-1],[2,0],[7,2],[3,0],[2,-2],[0,-2],[-1,-2],[0,-2],[-1,0],[-3,-4],[-1,-3],[0,-2],[1,-3],[0,-3],[4,-7]],[[2311,549],[7,-6],[1,-5],[0,-4],[-2,-3],[-4,1],[-2,1],[-2,1],[-4,0],[-3,1],[-1,3],[0,3],[-1,2],[-8,6],[-24,13],[-6,8],[-3,1],[-1,-8],[0,-4],[5,-13],[-17,-9],[-7,-2],[-4,8],[1,2],[2,3],[2,5],[0,6],[-2,4],[-3,3],[-7,5],[-2,2],[0,3],[0,3],[-1,1],[-1,1],[-3,-1],[-3,-1],[-2,0],[-2,-1],[-1,1],[0,5],[1,0],[2,0],[3,2],[1,1],[0,9],[-2,9],[0,8],[2,8],[4,-5],[2,-6],[0,-6],[-3,-5],[4,-7],[7,-10],[8,-6],[7,4],[1,5],[0,5],[0,9],[2,5],[3,2],[2,3],[-2,6],[9,1],[5,4],[5,2],[1,-1],[2,-11],[-5,-12],[-7,-11],[-7,-7],[5,-2],[17,-4],[10,-4],[5,-2],[5,0],[-2,-11],[5,-4],[8,-4]],[[2603,1110],[4,1],[2,-8],[-1,-4],[-4,-2],[-4,0],[-5,3],[-5,3],[-3,3],[-3,-4],[-4,-2],[-3,0],[-2,3],[-3,-8],[4,-15],[-1,-8],[-6,-6],[-6,-1],[-5,3],[-4,7],[3,15],[-1,12],[1,4],[3,6],[4,5],[5,3],[5,0],[9,-4],[20,-6]],[[1046,3838],[3,-3],[1,-2],[-5,-16],[-3,-4],[-4,-3],[-4,-4],[-1,-6],[-4,-6],[-9,-5],[-43,-17],[-8,-2],[-3,1],[-9,5],[-3,1],[-4,-1],[-10,-4],[-62,-15],[-15,1],[-7,3],[-7,4],[-4,7],[4,9],[7,5],[27,3],[77,28],[17,11],[4,1],[2,1],[1,4],[1,2],[4,1],[3,0],[15,-4],[5,1],[4,3],[4,3],[6,-1],[5,-1],[4,-2],[-20,-16],[7,3],[8,1],[5,1],[1,4],[2,10],[-1,1],[1,5],[1,4],[1,-2],[1,-1],[5,-7],[-1,0],[1,-1]],[[4096,780],[-8,3],[-13,12],[-13,15],[-10,16],[-9,16],[-5,9],[-5,3],[-5,2],[-28,25],[-11,12],[-7,14],[0,13],[4,-6],[3,1],[3,3],[3,2],[6,0],[3,-1],[2,-2],[0,-8],[1,-3],[2,-5],[12,-19],[3,5],[3,-1],[6,-8],[4,-4],[5,-2],[3,-2],[3,-11],[7,-6],[2,-4],[13,-18],[18,-18],[8,-5],[0,-28]],[[3064,71],[1,1],[1,2],[-1,3],[0,2],[1,1],[5,1],[3,1],[1,1],[0,2],[0,2],[-5,8],[0,2],[-1,2],[1,2],[2,1],[2,1],[4,0],[7,-5],[9,-14],[3,-2],[2,0],[1,2],[4,9],[2,2],[1,2],[3,0],[1,-1],[-1,-10],[-1,-9],[0,-3],[1,-3],[1,-4],[3,-1],[2,0],[2,1],[2,1],[2,-2],[1,-3],[1,-2],[2,-1],[5,0],[3,0],[1,-2],[1,-2],[-1,-2],[-2,-7],[0,-4],[1,-3],[2,-6],[1,-2],[2,-2],[2,-1],[3,-1],[2,0],[7,2],[3,0],[2,-2],[0,-2],[-1,-2],[0,-2],[-1,0],[-3,-4],[-1,-3],[0,-2],[1,-3],[0,-3],[4,-7]],[[3091,0],[-3,1],[-4,2],[-3,1],[-7,1],[-2,0],[-1,1],[0,1],[2,4],[1,5],[1,2],[3,4],[2,16],[-1,3],[-2,1],[-4,2],[-2,1],[-1,2],[-1,2],[1,2],[0,3],[0,2],[0,2],[2,4],[-1,2],[-2,1],[-4,2],[-2,1],[0,2],[1,1]],[[4096,780],[-8,3],[-13,12],[-13,15],[-10,16],[-9,16],[-5,9],[-5,3],[-5,2],[-28,25],[-11,12],[-7,14],[0,13],[4,-6],[3,1],[3,3],[3,2],[6,0],[3,-1],[2,-2],[0,-8],[1,-3],[2,-5],[12,-19],[3,5],[3,-1],[6,-8],[4,-4],[5,-2],[3,-2],[3,-11],[7,-6],[2,-4],[13,-18],[18,-18],[8,-5]],[[2603,1110],[4,1],[2,-8],[-1,-4],[-4,-2],[-4,0],[-5,3],[-5,3],[-3,3],[-3,-4],[-4,-2],[-3,0],[-2,3],[-3,-8],[4,-15],[-1,-8],[-6,-6],[-6,-1],[-5,3],[-4,7],[3,15],[-1,12],[1,4],[3,6],[4,5],[5,3],[5,0],[9,-4],[20,-6]],[[2311,549],[7,-6],[1,-5],[0,-4],[-2,-3],[-4,1],[-2,1],[-2,1],[-4,0],[-3,1],[-1,3],[0,3],[-1,2],[-8,6],[-24,13],[-6,8],[-3,1],[-1,-8],[0,-4],[5,-13],[-17,-9],[-7,-2],[-4,8],[1,2],[2,3],[2,5],[0,6],[-2,4],[-3,3],[-7,5],[-2,2],[0,3],[0,3],[-1,1],[-1,1],[-3,-1],[-3,-1],[-2,0],[-2,-1],[-1,1],[0,5],[1,0],[2,0],[3,2],[1,1],[0,9],[-2,9],[0,8],[2,8],[4,-5],[2,-6],[0,-6],[-3,-5],[4,-7],[7,-10],[8,-6],[7,4],[1,5],[0,5],[0,9],[2,5],[3,2],[2,3],[-2,6],[9,1],[5,4],[5,2],[1,-1],[2,-11],[-5,-12],[-7,-11],[-7,-7],[5,-2],[17,-4],[10,-4],[5,-2],[5,0],[-2,-11],[5,-4],[8,-4]],[[2004,967],[5,-2],[1,-7],[-8,-6],[-15,-6],[-10,-10],[-6,-2],[-8,4],[-4,5],[-2,7],[-2,7],[-2,6],[-5,6],[-6,4],[-7,2],[-8,0],[-6,-2],[-11,-11],[-5,-2],[-6,4],[-7,9],[-3,8],[25,11],[8,6],[4,7],[1,6],[7,4],[2,5],[0,11],[-1,6],[-2,4],[6,10],[3,11],[1,24],[-1,3],[-5,11],[-1,6],[0,7],[0,6],[-1,6],[-2,6],[8,13],[0,6],[-2,2],[-2,0],[-16,4],[-3,3],[0,6],[3,5],[3,4],[2,6],[1,1],[1,2],[0,2],[-1,3],[-3,4],[-3,10],[-1,5],[3,5],[5,-3],[6,-9],[3,-11],[0,-7],[-4,-6],[-3,-8],[0,-6],[4,-3],[10,-1],[4,-4],[0,-7],[-2,-10],[-3,-19],[1,-11],[3,-4],[4,-5],[7,-29],[-5,-14],[-2,-6],[0,-10],[0,-8],[2,-7],[5,-14],[-3,-10],[3,-8],[6,-4],[5,1],[6,5],[7,3],[8,-1],[6,-5],[-5,-7],[-5,-5],[-4,-4],[1,-6],[6,-5],[15,3]],[[1046,3838],[3,-3],[1,-2],[-5,-16],[-3,-4],[-4,-3],[-4,-4],[-1,-6],[-4,-6],[-9,-5],[-43,-17],[-8,-2],[-3,1],[-9,5],[-3,1],[-4,-1],[-10,-4],[-62,-15],[-15,1],[-7,3],[-7,4],[-4,7],[4,9],[7,5],[27,3],[77,28],[17,11],[4,1],[2,1],[1,4],[1,2],[4,1],[3,0],[15,-4],[5,1],[4,3],[4,3],[6,-1],[5,-1],[4,-2],[-20,-16],[7,3],[8,1],[5,1],[1,4],[2,10],[-1,1],[1,5],[1,4],[1,-2],[1,-1],[5,-7],[-1,0],[1,-1]],[[192,4096],[-5,-21],[-14,-33],[-26,-21],[-5,-1],[-11,3],[-5,0],[-6,-3],[-5,-9],[-4,-4],[-6,0],[-5,3],[-5,4],[-4,3],[-6,2],[-4,0],[-5,0],[-5,-2],[-10,-6],[-18,-16],[-11,-4],[-21,2],[-10,-2],[-1,-1]],[[0,3974],[27,-27],[6,-9],[4,-10],[1,-6],[-1,-14],[1,-7],[3,-5],[4,-6],[3,-6],[-2,-5],[-7,-2],[-11,4],[-18,12],[-4,3],[-6,8]],[[0,4025],[15,-1],[81,27],[52,32],[13,13]],[[1527,4096],[-6,-2],[-5,1]],[[1516,4095],[-2,1]],[[1457,4096],[-17,-6],[-8,-2],[-19,0],[-17,-4],[-4,2],[-27,10]],[[467,4096],[-6,-6],[-6,-8]],[[751,4096],[9,-14],[1,-5]],[[784,4071],[-23,6]],[[1995,4071],[-4,-2],[-15,-11],[-3,0],[-5,2]],[[1968,4060],[-1,0],[-9,7],[-9,6],[-11,13],[-3,8],[-2,2]],[[455,4082],[-15,-17],[-15,-13]],[[1754,4077],[-2,-10],[0,-35]],[[1760,4096],[-5,-16],[-1,-3]],[[425,4052],[-12,-15],[-14,-20]],[[1760,4004],[3,0]],[[1353,4096],[-8,-10],[-12,-11],[-28,-24],[-33,-23],[-17,-13],[-10,-9],[-12,-13],[-5,-2],[-13,-4]],[[784,4071],[25,0],[14,2],[18,4],[28,9],[12,4],[15,6]],[[1162,4096],[6,-6],[11,-10],[4,-7],[15,-11],[8,-8],[4,-15],[8,-28],[3,-9],[-6,-15]],[[1958,3976],[19,20],[9,17],[6,17],[3,17],[5,20],[-5,4]],[[1221,3978],[1,-4],[-3,-6]],[[1215,3987],[6,-8],[0,-1]],[[1763,4004],[16,-10],[12,-13],[1,0]],[[1792,3981],[13,-13]],[[1953,3966],[5,10]],[[1543,3946],[5,0]],[[2877,3906],[-8,0],[-18,-9],[-13,-4],[-20,0],[-25,6],[-24,2],[-9,4],[-5,7],[-6,21],[-6,15],[-4,9],[0,9],[10,10],[23,20],[4,6],[0,15],[3,11],[3,6],[14,13],[12,9],[13,8],[15,15],[18,15],[4,2]],[[1934,3891],[0,4],[6,8],[9,26],[1,9]],[[1952,3961],[1,5]],[[1950,3938],[0,19],[2,4]],[[1881,3928],[2,-1],[19,-11],[18,-13],[14,-12]],[[1805,3968],[6,-7],[9,-4],[16,-4],[21,-11],[20,-13],[4,-1]],[[1934,3891],[-3,0]],[[1728,3938],[6,6],[6,5],[5,10],[15,30],[3,15]],[[1667,3890],[7,5],[17,8],[22,20],[15,15]],[[1661,3882],[6,8]],[[1257,3878],[4,6],[17,9],[12,2],[15,0],[30,2]],[[1219,3968],[-4,-5],[0,-4],[18,-19],[9,-13],[4,-11],[3,-17],[8,-21]],[[1216,3867],[2,0],[21,4],[12,2],[6,5]],[[1131,3847],[10,7],[20,11],[21,8],[7,0],[14,-4],[13,-2]],[[1612,3849],[-5,-2],[-18,-4],[-18,-8],[-13,-13]],[[1661,3882],[-9,-9],[-9,-10],[-20,-9],[-11,-5]],[[1558,3822],[-3,2],[-1,13],[-6,4]],[[1369,3807],[-6,13],[-4,15],[-9,19],[-12,37],[-3,6]],[[1548,3841],[-14,-2],[-5,-3]],[[1373,3804],[-4,3]],[[1529,3836],[-8,-4],[-29,-8],[-19,-11],[-11,-6],[-28,0],[-23,-7],[-13,-4],[-12,2],[-9,2],[-4,4]],[[1081,3812],[0,-7],[-3,-5],[-12,-10],[3,-7]],[[1131,3847],[-8,-4],[-13,-2],[-19,-8],[-7,-7],[-3,-4],[0,-10]],[[1954,3893],[-13,0],[-7,-2]],[[2167,3789],[-8,-14],[-7,-5],[-15,-8],[-11,2],[-4,4],[-14,15],[-9,6],[-25,15],[-17,16],[-22,28],[-9,17],[-11,11],[-23,8],[-12,7],[-6,2],[-20,0]],[[809,3753],[-6,2],[-18,9],[-13,6]],[[489,3792],[5,-30],[-4,-14]],[[466,3908],[1,-11],[-2,-26]],[[425,4052],[6,-26],[6,-17],[10,-31],[5,-17],[10,-40],[3,-11],[1,-2]],[[465,3871],[6,-15],[8,-24],[6,-17],[3,-17],[1,-6]],[[490,3748],[-1,-4]],[[837,3741],[-7,3],[-21,9]],[[1069,3783],[-1,-6]],[[1068,3777],[-1,-2],[-7,-5],[-9,-4],[-15,0],[-17,-13],[-7,0],[-36,9],[-21,4],[-14,0],[-28,-7],[-14,-8],[-36,-9],[-13,-2],[-11,0],[-2,1]],[[627,3741],[6,-1],[4,-4]],[[493,3747],[7,6],[6,2],[2,0]],[[489,3744],[4,3]],[[508,3755],[31,4],[16,3],[11,-2],[9,-1],[19,-10],[12,-3],[21,-5]],[[637,3736],[1,-2]],[[764,3765],[5,5],[3,0]],[[725,3729],[11,13],[16,11],[12,12]],[[657,3724],[13,-3],[16,-2],[15,4]],[[638,3734],[10,-7],[9,-3]],[[701,3723],[24,6]],[[359,3706],[31,19],[14,11],[4,2],[30,8],[23,3],[7,0],[21,-5]],[[139,3725],[-4,-4],[-3,-11],[-3,-9]],[[129,3701],[-2,-4],[-3,-4]],[[399,4017],[-19,-26],[-8,-8],[-12,-19],[-16,-26],[-38,-48],[-18,-21],[-19,-26],[-11,-10],[-22,-26],[-9,-7],[-12,-8],[-9,-11],[-11,-13],[-14,-11],[-22,-15],[-5,-8],[-13,-7],[-2,-2]],[[120,3691],[4,2]],[[124,3693],[18,-4],[30,-7],[32,0],[21,-2],[44,-6],[25,-1],[20,7],[31,17],[14,9]],[[3978,3620],[9,9],[18,15],[18,8],[21,11],[12,8],[16,9],[15,4],[9,5]],[[548,3615],[-3,9],[-2,13],[-3,7],[-4,27],[-14,18],[-7,13],[-8,17],[-7,10],[-12,11],[1,4]],[[3303,3570],[15,5],[17,8],[12,7],[12,0],[18,-2],[24,2],[8,0],[19,-13],[6,0],[35,4],[10,-4]],[[3978,3620],[-11,0],[-19,-2],[-15,-5],[-20,-4],[-16,0],[-26,4],[-24,2],[-21,5],[-6,0],[-14,-5],[-6,0],[-12,1],[-13,-5],[-8,-6],[-10,-4],[-23,-13],[-13,-7],[-23,-10],[-22,-1],[-32,-2],[-12,2],[-19,0]],[[3613,3570],[-23,-2]],[[3479,3577],[9,-4],[11,-2],[19,-1],[20,0],[12,0],[27,-2],[13,0]],[[3978,3620],[24,-20],[15,-15],[7,-14],[2,-7]],[[2877,3906],[-6,-9],[-9,-30],[-2,-11],[-3,-23],[0,-16],[-3,-27],[-1,-16],[-3,-17],[-2,-17],[0,-11],[9,-17],[23,-23],[7,-11],[11,-9],[16,-23],[14,-13],[5,-7],[1,-4],[-1,-24],[1,-12],[8,-11],[3,-9],[1,-11],[6,-6]],[[3188,3542],[7,5],[9,2],[17,2],[21,11],[9,4],[12,2],[18,0],[12,0],[10,2]],[[3144,3519],[8,6],[28,11],[8,6]],[[2098,3519],[0,8],[-5,5],[-4,0],[-11,0],[-7,2],[-2,4],[3,7],[15,6],[15,9],[9,8],[44,26],[6,7],[21,21],[6,9],[7,15],[12,19],[3,8],[-1,9],[-6,13],[-15,30],[-5,19],[2,16],[-2,10],[-4,13],[-6,7],[-6,-1]],[[0,3592],[1,2],[5,9],[19,40],[11,15],[7,3],[63,23],[14,7]],[[3078,3472],[5,13],[6,6],[7,6],[15,5],[11,2],[12,6],[10,9]],[[2952,3549],[6,-2],[12,-7],[15,-17],[8,-11],[33,-27],[15,-11],[13,-5],[6,0],[15,3],[3,0]],[[4026,3564],[0,-7],[-5,-17],[-13,-19],[-11,-15],[-10,-15],[-17,-15],[-21,-19],[-21,-11],[-16,-7],[-14,-8]],[[3086,3440],[1,-7],[-1,-11],[-3,-13]],[[3078,3472],[3,-2],[2,-15],[3,-11],[0,-4]],[[0,3408],[16,-3],[9,0],[18,7],[6,2],[11,2],[25,-4],[11,-1],[21,-8],[25,-9],[11,-2],[21,5],[16,2],[20,-2],[8,-3],[7,-2],[18,0],[24,-6],[17,-4],[12,0],[21,4],[15,4],[12,0],[12,2],[6,-4],[3,-6]],[[3108,3386],[-10,10],[-15,13]],[[3116,3381],[-5,1],[-3,4]],[[548,3615],[1,-15],[-4,-23],[-8,-9],[-19,-13],[-24,-13],[-11,-8],[-24,-32],[-16,-28],[-3,-4],[-18,-9],[-12,-11],[-12,-6],[-8,-9],[-3,-23],[2,-7],[6,-9],[-2,-4],[-7,-4],[-12,-20]],[[365,3382],[9,-14]],[[3116,3381],[6,-6],[4,-11],[11,-17],[9,-9],[4,-8]],[[3077,3403],[6,6]],[[2931,3309],[-4,12],[0,5],[3,12],[6,7],[4,2],[12,0],[38,-2],[24,0],[7,2],[8,6],[13,11],[35,39]],[[3150,3330],[5,-9],[1,-15],[3,-8]],[[3083,3287],[10,21],[5,15],[4,9],[3,17],[5,7],[1,17],[5,8]],[[3159,3298],[2,-7],[12,-21],[3,-7]],[[2928,3203],[8,13],[6,19],[3,16],[-3,23],[-11,35]],[[3176,3263],[1,-6],[0,-13],[3,-9],[2,-17],[-11,-28],[-9,-19],[-1,-7]],[[3161,3164],[-6,3],[-3,10],[-6,26],[-9,9],[-14,6],[-3,4],[-13,18],[-26,19],[-6,7],[8,21]],[[3898,3431],[-10,-9],[-15,-15],[-17,-10],[-7,-5],[-15,-6],[-29,-7],[-11,-10],[-13,-18],[-8,-6],[-13,-6],[-23,-1],[-10,-2],[-15,-4],[-17,-11],[-7,-10],[-5,-9],[-3,-11],[-3,-28],[-9,-4],[-3,-6],[-1,-20],[-5,-8],[-4,-3],[-11,-4],[-3,-4],[-7,-4],[-3,-7],[3,-13],[7,-21],[2,-7]],[[3643,3162],[9,-4],[16,-4],[14,2],[9,2]],[[2192,3149],[14,24],[13,30],[5,13],[-2,13],[-7,9],[-24,17],[-8,6],[-6,15],[-6,11],[-9,9],[-22,25],[-5,7],[-6,19],[0,9],[-6,12],[-19,20],[0,9],[4,34],[2,13],[-2,15],[-13,39],[-2,10],[5,11]],[[3200,3113],[-6,11],[-3,13],[-3,8],[-8,7],[-6,6],[-13,6]],[[2752,3081],[5,0],[21,4],[18,0],[7,6],[11,9],[9,2],[13,0],[11,2],[10,9],[5,2],[19,0],[12,0],[3,2],[5,9],[6,21],[12,39],[9,17]],[[2493,3177],[10,2],[14,7],[10,6],[11,-4],[6,-2],[19,4],[36,-25],[14,-1],[24,-10],[9,-4],[16,-9],[33,-26],[18,-8],[12,-11],[17,-11],[10,-4]],[[2191,3064],[0,6],[-8,22],[-7,15],[0,10],[12,20],[4,12]],[[952,3124],[21,-9],[13,-2],[5,-4],[3,-5],[10,-6],[15,-2],[9,-5],[6,-14],[8,-5],[13,-4],[17,-2],[16,-4]],[[1088,3062],[11,-1],[18,3]],[[2493,3177],[-24,-8],[-20,-5],[-11,-4],[-13,-4],[-18,-4],[-12,2],[-5,-2],[-10,-15],[-6,-20],[-2,-10],[-3,-43],[2,-18],[-6,-6],[-12,-2],[-30,4],[-24,-2],[-12,2],[-12,7],[-11,10],[-12,5],[-12,0],[-21,-11],[-12,2],[-16,9]],[[2752,3081],[-7,-2],[-12,-5],[-3,-4],[-6,-13],[-2,-11],[0,-8]],[[467,3027],[0,-2],[7,-19],[2,-9],[-2,-6]],[[374,3368],[6,-10],[3,-9],[0,-26],[-3,-32],[0,-11],[4,-10],[9,-2],[23,6],[13,2],[20,-6],[25,0],[6,-2],[6,-7],[11,-8],[3,-5],[0,-25],[1,-11],[-4,-5],[-18,-10],[-8,-4],[-3,-5],[2,-11],[10,-8],[5,-9],[0,-17],[6,-15],[3,-13],[0,-8],[-2,-7],[-4,-8],[-3,-7],[-2,-21],[-6,-18],[0,-12],[-3,-1],[-6,1],[-1,-7]],[[474,2991],[5,-3],[2,-1]],[[481,2987],[13,-3],[19,0],[15,4],[23,9]],[[551,2997],[30,-4],[10,-5],[9,-8],[15,-4],[17,0],[13,2],[13,4],[6,4],[12,5],[13,8],[12,7],[14,10],[19,13],[12,9],[23,15],[21,8],[24,3],[10,4],[12,9],[11,15],[13,23],[11,11],[13,6],[9,2],[9,0],[20,-4],[22,-2],[8,-4]],[[1117,3064],[11,4],[19,-4],[14,-3],[10,-6],[6,-9],[2,-13],[-3,-10],[0,-5],[10,-8],[5,-6],[9,-14],[13,-4],[2,-6],[-8,-9],[-9,-13]],[[3643,3162],[-2,-21],[-4,-7],[-9,-10],[-5,-7],[-4,-17],[-3,-8],[-6,-9],[-6,-6],[-20,-13],[-12,-13],[-9,-15],[-3,-11],[-1,-19],[3,-15],[0,-13],[-3,-22],[-5,-15],[-1,-15],[-2,-4]],[[3551,2922],[-9,6]],[[3542,2928],[-15,2],[-24,0],[-16,-2],[-11,-4],[-16,-7],[-12,0],[-12,9],[-12,5],[-23,17],[-18,17],[-17,15],[-13,13],[-8,6],[-30,15],[-28,15],[-15,7],[-20,15],[-7,8],[-30,33],[-14,15],[-1,6]],[[2386,2881],[0,7],[-8,19],[-6,8],[-12,7],[-13,6],[-8,5],[-13,17],[-32,23],[-12,7],[-10,4],[-21,4],[-8,-2],[-21,2],[-9,3],[-12,42],[-9,22],[-1,9]],[[1198,2958],[2,-4],[30,2],[7,2],[8,9],[6,0],[25,-4],[6,-2],[15,-20],[6,-4],[23,-7],[13,-10],[6,-5],[9,-19],[12,-6],[11,-3],[7,1],[6,-3],[8,-8]],[[2381,2840],[3,15],[2,26]],[[149,2861],[-1,14],[2,17]],[[441,2998],[24,-5],[9,-2]],[[87,2724],[6,2],[7,11],[5,7],[15,25],[10,22],[21,34],[0,5],[-2,31]],[[150,2892],[3,28],[4,10],[5,5],[4,-5],[8,-17],[7,-10],[5,0],[9,6],[9,28],[8,17],[10,11],[14,6],[13,0],[14,4],[9,5],[7,8],[9,3],[15,4],[15,-2],[15,-2],[27,0],[20,-5],[15,-8],[12,12],[9,5],[10,4],[12,0],[3,-1]],[[1398,2877],[19,-22],[5,-15],[0,-21],[-8,-26],[-10,-24],[-12,-38],[-5,-11],[0,-4],[5,-5],[9,-4],[4,0],[14,4],[7,2],[26,16],[6,2],[33,-7],[4,0]],[[3608,2690],[-13,19],[-15,24],[-11,32],[-10,21],[-5,13],[-1,24],[3,15],[1,13],[-1,11],[-6,19],[-2,6],[3,22],[0,13]],[[28,2660],[3,15],[5,17],[4,9],[9,10],[17,5],[21,8]],[[2027,2568],[21,8],[12,9],[17,6],[15,9],[3,6],[0,9],[9,6],[18,4],[18,5],[27,8],[13,2],[23,7],[24,4],[10,2],[27,3],[32,10],[16,7],[6,6],[3,19],[6,13],[14,2],[10,3],[-1,6],[-5,9],[5,11],[0,8],[-17,28],[0,8],[5,5],[12,2],[3,2],[12,13],[10,21],[6,11]],[[3608,2690],[6,0],[26,-7],[16,-6],[8,-4],[10,-9],[27,-19],[17,-7],[31,-21],[17,-9],[18,-10],[19,-11],[9,-4],[37,-16],[24,-8],[19,-7],[18,-10]],[[1495,2724],[8,-6],[1,-5],[-4,-12],[1,-13],[5,-11],[-2,-15],[-6,-15],[-16,-26],[1,-17],[-4,-26],[-3,-13],[-3,-17],[-2,-15],[3,-9]],[[1474,2524],[6,-4],[12,-4]],[[28,2660],[17,-30],[-5,-7],[-15,-19],[-15,-30],[-1,-19],[-6,-16],[-3,-5]],[[1492,2516],[23,6],[15,5],[7,6],[5,6],[9,16],[15,23],[6,9],[14,11],[12,4],[15,2],[21,4],[15,5],[4,0],[20,6],[13,-2],[11,-4],[6,-7],[9,-6],[6,0],[12,6],[12,2],[28,-2],[18,-4],[17,-5],[9,-6],[12,-9],[18,-25],[10,-9],[26,-13],[10,-13],[9,-8],[11,-5],[13,-4],[11,0],[12,11],[25,11],[11,4],[9,0],[4,2],[23,26],[9,9]],[[3910,2542],[17,-7],[16,-10],[15,-11],[35,-24],[4,-2],[24,-7],[9,-6]],[[4030,2475],[21,-11],[21,-12],[9,-3],[11,-2],[4,-2]],[[2722,3038],[5,-19],[4,-15],[11,-26],[4,-17],[-1,-11],[-3,-9],[-8,-13],[-13,-19],[-9,-15],[-3,-9],[-3,-12],[-3,-16],[0,-12],[3,-18],[1,-10],[8,-18],[4,-8],[14,-11],[37,-39],[15,-25],[14,-11],[4,-7],[6,-15],[3,-34],[3,-9],[6,-12],[12,-15],[6,-5],[8,-11],[6,-21],[12,-19],[3,-9],[0,-6],[-5,-17],[-3,-16],[2,-17],[3,-10],[9,-30],[0,-11],[-5,-15],[-3,-17],[2,-24],[1,-6]],[[1090,2336],[1,-7],[15,-6],[17,6],[8,0],[12,-8],[15,6],[10,0]],[[1168,2327],[6,-2],[17,-7],[4,-10],[21,-5],[6,-2],[8,-8],[12,-7]],[[2869,2379],[3,-7],[8,-6],[9,-3],[6,-8],[6,-7],[12,-25],[12,-26],[8,-24],[0,-11],[-6,-12],[-5,-15],[-5,-7],[-7,-6]],[[2910,2222],[-33,-11],[-11,-4],[-12,0],[-4,2],[-23,10],[-21,3],[-19,13],[-6,0],[-6,-7],[-5,-2],[-24,2],[-7,-4],[-11,2],[-6,-9],[2,-4],[-15,-11],[-9,-4],[-17,-2],[-7,-6],[-5,-7],[-4,-6]],[[1492,2516],[-6,-6],[-10,-22],[-3,-11],[-3,-19],[0,-22],[-5,-30],[-6,-21],[-4,-11],[-6,-23],[-2,-18],[0,-12],[3,-11],[8,-15],[4,-17],[0,-20],[2,-4],[9,-13],[7,-15],[6,-15],[3,-19],[6,-13],[6,-7]],[[2667,2177],[-8,-7]],[[0,2175],[3,-1],[22,-6],[14,-4],[25,-5]],[[494,2164],[6,-7]],[[1482,2157],[19,15]],[[64,2159],[24,-4],[17,-2],[7,0],[32,4],[30,0],[15,0],[17,0]],[[2664,2151],[-5,17],[0,2]],[[1501,2172],[14,-17],[4,-2],[12,-2],[23,0],[6,2],[18,8],[14,11],[19,18],[14,14],[9,7],[28,15],[12,9],[15,15],[24,19],[17,11],[21,12],[18,7],[19,2],[12,-2],[11,-2],[10,2],[20,13],[22,0],[11,4],[6,15],[10,15],[11,20],[6,17],[10,19],[6,4],[14,3],[9,2],[10,4],[15,7],[15,15],[9,2],[11,2],[15,-2],[6,4],[6,8],[-4,15],[0,15],[3,20],[1,21],[0,22],[-6,24]],[[590,2147],[13,4],[12,13],[8,2],[13,0],[6,8],[20,13],[8,2],[16,-2]],[[500,2157],[25,-11],[15,-4],[24,2],[15,3],[11,0]],[[686,2187],[36,-12],[5,-1],[4,-8],[8,-2],[16,0],[6,-2],[6,-5],[9,-17],[8,-4],[22,-5],[15,1],[8,6],[9,13],[10,13],[14,11],[27,15],[15,8],[22,6],[15,-2],[5,5],[-3,15],[-8,25],[-3,15],[6,13],[9,11],[12,13],[5,7],[9,27],[6,11],[10,13],[8,6],[10,11],[30,5],[23,0],[21,-13],[4,-7],[5,-15],[0,-8]],[[206,2157],[18,0],[34,-2],[29,-4],[24,-7],[15,-6],[28,-9],[15,0],[8,0],[27,9],[28,6],[15,2],[23,7],[24,11]],[[1399,2099],[9,5],[11,17],[15,11],[16,10],[26,9],[6,6]],[[1242,2286],[18,0],[6,-6],[15,-3],[0,-6],[9,-4],[0,-5],[6,-4],[3,-10],[0,-7],[4,-9],[0,-10],[-3,-5],[-1,-12],[1,-7],[-7,-17],[4,-17],[12,-15],[6,-7],[20,-13],[30,-15],[13,-10],[6,-1],[15,-4]],[[3461,2048],[-3,6],[-1,11],[-6,19],[3,11],[6,6],[10,0],[14,-6],[12,-2],[7,6],[6,5],[2,12],[-5,7],[-13,13],[-6,6],[-18,26],[0,17],[-12,20],[-6,19],[-2,17],[2,17],[-3,17],[-6,11],[-17,22],[-10,10],[0,5],[3,4],[10,0],[12,8],[17,7],[6,4]],[[2688,2046],[-5,8],[-7,11],[-17,17],[-3,6],[0,7],[3,4],[11,4],[7,5],[3,8],[-16,35]],[[3641,2026],[-15,2],[-12,7],[-6,2],[-22,-2],[-9,2],[-8,6],[-10,3],[-24,-2],[-21,-1],[-12,0],[-9,3],[-17,2],[-15,0]],[[2604,1981],[12,4],[15,0],[37,-4],[9,0],[3,4],[-4,15],[3,7],[6,11],[0,12],[3,7],[0,9]],[[500,2157],[4,-32],[6,-26],[5,-23],[0,-15],[-2,-15],[3,-16],[-1,-8],[-5,-13],[-9,-13],[-12,-4],[-9,-13],[-6,-15],[-6,-21],[-6,-13],[-10,-13],[-6,-7]],[[446,1910],[-6,-4],[-8,-13],[-4,-13],[1,-11],[-1,-12],[-3,-11],[1,-9],[8,-11]],[[64,2159],[2,-10],[3,-9],[9,-17],[18,-20],[7,-12],[8,-15],[6,-9],[6,-6],[10,-17],[3,-14],[-1,-15],[1,-10],[8,-15],[12,-17],[12,-11],[35,-20],[21,-10],[6,-5],[13,-8],[12,-4],[17,-1],[33,0],[22,-2],[15,-6],[8,-6],[12,-11],[12,-13],[12,-17],[12,-13],[6,-4],[10,-5],[15,-10],[5,-1]],[[2512,1786],[-7,13],[-3,21],[-3,6],[-17,11],[-6,9],[-3,8],[-1,15],[1,15],[-3,13],[-3,7],[5,15],[0,9],[3,10],[4,9],[6,6],[11,0],[30,-8],[12,0],[6,0],[10,8],[12,-2],[6,2],[8,13],[4,4],[20,11]],[[2580,1732],[-11,22],[-12,10],[-33,13],[-7,4],[-5,5]],[[2578,1696],[5,10],[6,2],[-5,15],[-4,9]],[[434,1661],[16,24],[6,17],[3,17],[8,24],[0,11],[4,6],[-1,8],[0,7],[-8,6],[-7,11],[-6,11],[-15,23]],[[504,1653],[-4,6],[-14,2],[-21,-2],[-9,0],[-22,2]],[[2419,1556],[6,-4],[7,0],[9,2],[17,8],[7,2],[8,0],[6,-4],[17,-6],[7,4],[11,11],[12,21],[6,7],[15,8],[13,2],[17,7],[6,6],[1,5],[0,10],[-4,17],[-5,24],[0,13],[3,7]],[[3641,2026],[6,0],[15,4],[11,-4],[9,-4],[10,-2],[23,0],[7,6],[8,5],[10,-1],[8,-4],[13,-8],[12,-7],[5,-2],[15,4],[7,3],[6,8],[6,-2],[-3,-11],[3,-10],[9,-9],[14,-6],[11,-3],[30,-4],[54,-9],[12,-2],[40,-11],[17,-4],[40,-11],[32,-8],[16,-4],[9,3]],[[3050,1481],[-5,8],[-9,24],[-4,8],[-8,0],[-24,-12],[-16,-3],[-14,1],[-12,4],[-15,10],[-19,14],[-17,15],[-29,32],[-6,4],[-13,4],[-6,7],[-6,23],[-6,9],[-2,6],[-4,7],[-11,2],[-10,2],[-15,-2],[-20,4],[-15,-2],[-10,2],[-5,9],[0,17],[-4,4],[-12,-2],[-9,2],[-11,9],[-6,9],[-15,12],[-12,3],[-7,4],[-3,0],[-6,4],[-12,0],[-5,2],[-3,11],[-4,6],[-2,20],[-1,10],[-6,5],[-9,-2],[-8,-3],[-7,0],[-8,-4],[-9,-10],[0,-11],[3,-9],[-13,-2]],[[629,1442],[0,15],[-2,15],[-7,15],[-8,4],[-12,7],[-13,11],[-20,12],[-7,5],[-11,15],[-7,17],[-2,9],[-1,17],[-2,8],[-12,13],[-6,7],[-10,25],[-5,16]],[[617,1429],[4,7],[8,6]],[[1914,1326],[12,2],[9,4],[5,7],[7,13],[5,15],[-2,23],[2,5],[3,6],[16,7],[17,10],[13,18],[14,12],[6,7],[12,13],[17,11],[18,6],[15,6],[15,7],[7,6],[2,7],[0,6],[-3,9],[-3,26],[-2,8],[6,19],[6,13],[5,15],[1,15],[8,5],[33,8],[6,-2],[10,-13],[6,-4],[17,0],[30,4],[15,-2],[54,-21],[16,-2],[20,-3],[15,-12],[28,-13],[14,-5],[15,0],[15,-6]],[[1767,1287],[6,-2],[9,0],[8,2],[6,5],[3,8],[3,30],[3,13],[3,5],[7,4],[8,-2],[18,-17],[13,-3],[8,-2],[9,4],[7,5],[8,0],[10,-9],[18,-2]],[[1650,1219],[11,6],[28,2],[15,2],[9,3],[12,13],[3,6],[15,19],[6,5],[8,4],[10,8]],[[3132,1193],[5,13],[6,13],[6,23],[1,22],[8,4],[4,7],[-1,8],[-5,9],[-1,10],[1,22],[2,6],[7,20],[-3,8],[-18,11],[-6,7],[-10,15],[-6,6],[-12,8],[-18,16],[-6,4],[-17,24],[-6,8],[-13,24]],[[799,1201],[9,-2],[10,-10]],[[3132,1193],[3,-6],[11,-9]],[[597,1171],[-16,15],[-11,16],[-1,15],[1,13],[11,29],[4,7],[11,26],[6,21],[1,22],[0,23],[5,45],[3,13],[6,13]],[[597,1171],[6,-4]],[[603,1167],[8,-2],[7,0],[23,4],[15,5],[24,12],[14,1],[27,-3],[7,-2],[15,0],[17,4],[27,13],[12,2]],[[603,1167],[6,-6]],[[818,1189],[6,-7],[6,-10],[11,-15],[12,-7],[28,2],[18,2],[24,-2],[14,-4],[25,4],[24,0],[14,-2],[13,-6],[24,-7]],[[1037,1137],[18,-6]],[[1055,1131],[14,-5]],[[3012,1120],[21,-4],[6,0],[8,6],[10,13],[6,6],[15,9],[8,13],[6,19],[3,7],[7,4],[8,2],[19,0],[3,-2]],[[492,1109],[6,5],[11,14],[22,18],[8,6],[24,13],[15,4],[19,2]],[[3146,1178],[13,-7],[15,-19],[14,-6],[10,-7],[6,-8],[8,-15],[6,-3],[28,-12],[6,0],[17,2],[13,-2],[6,-3]],[[2126,1111],[12,-6],[12,-13],[6,-2],[17,9],[4,-13]],[[2080,1081],[9,4],[15,11],[6,7],[9,6],[7,2]],[[2080,1081],[3,9],[7,17],[8,13],[4,15],[0,13],[-3,11],[-6,6],[-7,2],[-15,0],[-6,4],[-14,11],[-12,15],[-15,22],[-18,26],[-20,19],[-10,15],[0,9],[7,14],[0,7],[-4,6],[-14,5],[-15,0],[-21,-2],[-7,2],[-8,6]],[[3288,1098],[24,-23],[6,-2],[21,0],[12,-5],[14,-4],[14,-2],[7,2],[24,11],[5,2]],[[2910,1058],[21,12],[12,13],[5,20],[9,4],[30,7],[25,6]],[[2491,1023],[9,2],[17,5],[7,2],[5,-2]],[[1649,1019],[0,9],[-3,8],[-6,7],[-5,3]],[[1635,1046],[-13,7],[-12,9],[-6,9],[-8,17],[-4,23],[3,13],[6,22],[-3,15],[0,6],[12,26],[10,13],[8,4],[7,0],[15,9]],[[3415,1077],[9,2],[21,-6],[6,0],[24,-9],[4,-9],[9,-4],[5,-6],[10,0],[9,-5],[12,-2],[8,-8],[9,-2],[19,-7],[5,4],[27,-8],[15,-2],[13,-3],[18,-12],[12,-5],[17,3]],[[2384,970],[23,15],[7,4],[21,2],[8,2],[16,11],[14,2],[11,11],[7,6]],[[2177,1086],[12,-16],[8,-15],[13,-17],[12,-13],[18,-15],[15,-6],[27,-2],[8,-4],[12,-7],[19,-15],[6,-2],[24,0],[14,0],[13,-4],[6,0]],[[2661,965],[16,17],[5,5],[-3,8],[-12,7],[-6,6],[-9,15],[1,15],[5,13],[7,5],[15,-1],[17,-14],[21,-3],[18,-10],[7,0],[3,8],[6,5],[6,0],[15,6],[14,-2],[13,11],[8,2],[28,0],[14,-2],[19,-7],[14,-2],[15,4],[12,7]],[[2529,1030],[27,-18],[12,-12],[6,-3],[27,-10],[13,-7],[33,-13],[14,-2]],[[449,946],[4,11],[8,23],[9,28],[6,26],[9,28],[4,23],[2,16],[1,8]],[[2661,965],[10,-4],[20,-15],[10,-13]],[[1631,931],[4,15],[14,51],[1,9],[-1,13]],[[1470,931],[18,4],[6,0],[51,-2],[24,-2],[44,2],[18,-2]],[[1406,934],[16,3],[25,3],[15,0],[8,-1],[0,-8]],[[1069,1126],[34,-19],[11,-22],[14,-10],[39,-17],[31,-13],[21,-7],[38,-2],[13,-4],[12,-5],[12,-12],[11,-24],[6,-8],[18,-7],[13,-8],[12,-9],[17,-19],[6,-5],[13,-4],[16,3]],[[609,1161],[5,-7],[0,-15],[-3,-8],[-17,-28],[-4,-13],[-2,-15],[-3,-15],[-6,-13],[-6,-19],[-4,-5],[-5,-15],[-9,-36],[-7,-13],[-5,-15],[-1,-13],[3,-9],[6,-8],[3,-9]],[[3667,998],[0,-9],[4,-11],[6,-6],[11,-11],[12,-13],[16,-24],[20,-30]],[[1685,1011],[-21,6],[-15,2]],[[1839,895],[6,8],[12,11],[8,6]],[[1890,944],[0,8],[-6,7],[-12,4],[-21,0],[-7,1]],[[1844,964],[-8,1],[-28,7],[-42,17],[-14,6],[-36,7],[-31,9]],[[1815,858],[14,23],[10,14]],[[1865,920],[16,11],[6,6],[3,7]],[[1769,876],[-14,5],[-13,1],[-14,0],[-6,8],[0,15],[-3,7],[-6,6],[-12,7],[-13,6],[-21,2],[-36,-2]],[[1805,862],[-14,5],[-22,9]],[[1769,876]],[[1815,858],[-10,4]],[[3736,894],[4,-10],[17,-18],[7,-14]],[[1928,815],[15,30],[0,4]],[[1926,811],[2,4]],[[1943,849],[0,11],[6,21],[-2,15],[2,5],[6,9],[12,12],[9,5],[6,0],[15,-3],[15,3],[15,10],[8,5],[13,12],[11,13],[13,20],[6,6],[5,7],[1,8],[3,7],[2,15],[-3,8],[0,7],[-5,10],[-1,9],[0,17]],[[1888,842],[4,-6],[27,-15],[2,-3]],[[1815,858],[11,-13],[6,-2],[7,0],[23,13],[7,2],[8,-2],[11,-14]],[[1921,818],[5,-7]],[[2701,933],[11,-13],[12,-10],[6,-5],[9,-15],[4,-9],[6,-8],[8,-17],[6,-32],[10,-18],[0,-6]],[[1926,811],[5,-11],[4,-7],[12,-12],[12,-7],[9,-9]],[[1994,751],[16,-3],[16,-4]],[[1968,765],[6,-6],[17,-8],[3,0]],[[554,905],[6,-26],[1,-21],[6,-32],[3,-7],[14,-6],[12,-2],[13,-9],[5,-6],[6,-17],[1,-7],[2,-30]],[[2026,744],[12,-13],[8,-5]],[[2046,726],[14,-8]],[[1721,707],[13,0],[6,0],[14,-4],[19,-6],[14,-2],[7,4],[17,9],[6,6],[21,21],[7,1],[8,2],[6,-3],[7,-2],[17,11],[16,2],[14,-2],[24,0],[16,4],[12,11],[3,6]],[[1437,740],[12,-4],[4,-4]],[[1453,732],[2,-1],[30,-15],[21,-9],[21,-6],[22,6],[14,0],[23,-6],[34,-8],[18,-13],[8,0],[7,2],[14,11],[7,4],[14,2],[9,4],[15,4],[9,0]],[[877,624],[-18,-2],[-26,-5],[-21,-8],[-15,-2],[-19,4],[-11,-4],[-4,-5],[-8,0],[-7,3],[-6,8],[-2,7],[-6,8],[-15,4],[-7,7],[-6,2],[-9,-4],[-14,8],[0,15],[-6,7],[-1,10],[0,13],[-2,7],[-3,8],[-7,5],[-5,8],[-6,5],[-15,0],[-12,12],[-3,7]],[[3764,852],[9,-18],[6,-6],[14,-7],[10,-8],[12,-13],[5,-7],[12,-27],[6,-7],[6,-8],[12,-7],[8,0],[12,-6],[6,-5],[1,-8],[2,-15],[-2,-15],[3,-7],[17,-15],[16,-19],[12,-7],[15,-2],[6,-4],[17,-17],[12,-15],[21,-7],[13,-4],[6,-4],[20,-17]],[[836,574],[3,5],[9,8],[9,7],[17,25],[3,5]],[[2773,800],[0,-9],[-3,-13],[2,-10],[4,-9],[5,-8],[10,-11],[9,-17],[-1,-20],[-3,-21],[6,-17],[0,-7],[0,-15],[-3,-13],[3,-8],[-5,-20],[3,-8],[11,-9],[12,-13],[10,-11],[8,-4]],[[4062,566],[24,-9],[10,-5]],[[2060,718],[6,-10],[14,-22],[1,-15],[11,-13],[3,-10],[1,-22],[23,-41],[10,-26],[11,-15]],[[842,459],[-15,15],[-13,4],[-14,2],[-4,2],[-3,13],[-2,19],[6,5],[5,17],[3,6],[21,20],[10,12]],[[952,456],[-8,0],[-6,2],[-6,7],[-4,9]],[[928,474],[-17,-5],[-16,-4],[-5,-2],[-12,-13],[-6,0],[-7,6],[-9,3],[-14,0]],[[2240,477],[8,-10],[4,-8],[11,-13]],[[2140,544],[6,-8],[6,-5],[16,-17],[14,-6],[21,-4],[16,-7],[14,-9],[4,-6],[3,-5]],[[1790,446],[0,13],[1,15],[-4,15],[-6,15],[-3,15],[-5,8],[-10,13],[7,21],[-1,7],[-5,4],[-7,-2],[-8,0],[-7,6],[-5,7],[5,28],[3,6],[1,15],[-1,7],[-3,15],[-5,8],[-4,7],[-6,6],[0,13],[-2,7],[-4,12]],[[1126,476],[-5,-3]],[[1121,473],[-8,-8],[-8,-4],[-15,0],[-9,-3],[-17,-10],[-9,-3],[-13,3],[-14,4],[-25,9],[-21,2],[-14,0],[-16,-7]],[[2263,446],[3,-3]],[[2687,376],[-1,-1],[-4,-5],[-3,-8],[-5,-22]],[[2841,557],[-2,-17],[11,-17],[-5,-5],[-10,-12],[-3,-7],[-23,-15],[-12,-11],[-10,-19],[-9,-11],[-8,-6],[-15,-7],[-7,-2],[-8,2],[-12,3],[-6,6],[-7,17],[-3,-6],[1,-15],[-3,-20],[-6,-14],[-17,-25]],[[1133,464],[-1,1],[-6,11]],[[1186,308],[5,21],[0,7],[-5,22],[0,8],[3,35],[0,8],[-4,7],[-41,36],[-11,12]],[[1803,261],[3,9],[2,15],[-2,14],[-6,3],[-13,-2],[-6,2],[-5,10],[-6,33],[2,17],[3,17],[3,34],[3,15],[1,7],[8,11]],[[2578,267],[-9,-10]],[[2674,340],[-4,-2],[-4,-4]],[[2666,334],[-8,-9],[-15,-11],[-23,-17],[-31,-21],[-6,-4],[-5,-5]],[[1171,171],[9,17],[3,13],[0,15],[-3,17],[-3,15],[-1,8],[6,20],[3,13],[1,19]],[[1763,162],[0,7],[4,15],[1,1]],[[1768,185],[10,18],[12,23],[6,15],[7,20]],[[2686,326],[-12,14]],[[2948,147],[-3,24],[-5,8],[-10,9],[-14,0],[-12,6],[-21,17],[-6,3],[-8,0],[-13,-2],[-8,0],[-13,4],[-14,6],[-19,4],[-21,7],[-26,15],[-12,11],[-10,13],[-12,13],[-17,19],[-16,19],[-2,3]],[[2452,121],[-11,-13],[-6,-15]],[[2569,257],[-9,-16],[-6,-8]],[[2554,233],[-9,-11],[-22,-24],[-17,-19],[-16,-10],[-11,-11],[-12,-18],[-15,-19]],[[2435,93],[-9,28],[-8,21]],[[2282,422],[-16,21]],[[2418,142],[-1,1],[-9,25],[-3,16],[0,8],[2,20],[0,8],[-5,17],[-9,17],[0,30],[-3,9],[-12,11],[-10,13],[-20,30],[-25,40],[-12,11],[-29,24]],[[1873,102],[-2,-9],[-3,-6]],[[1862,183],[6,-6],[1,-9],[3,-8],[6,-6],[5,-22],[-5,-21],[-4,-5],[-1,-4]],[[1857,92],[11,-5]],[[1763,162],[10,0],[14,-4],[4,-3]],[[1791,155],[20,-15],[6,-8],[4,-15],[6,-7],[20,-14],[10,-4]],[[0,299],[3,3],[16,21],[15,17],[14,13],[30,22],[18,21],[12,11],[18,21],[15,28],[22,35],[12,15],[15,19],[13,11],[28,25],[18,18],[15,19],[20,24],[22,36],[21,39],[12,19],[11,20],[3,15],[3,15],[3,13],[7,15],[11,21],[39,64],[10,18],[14,28],[9,21]],[[1868,87],[10,-4],[21,-3],[15,-4]],[[1914,76],[6,-2],[14,-6],[24,-13],[19,-13],[20,-15],[12,-7],[33,-17],[8,-3]],[[1213,0],[-1,5],[-3,9],[-3,15],[-6,23],[-3,7],[-2,8],[-4,11],[-2,9],[-9,32],[-9,24],[-1,15],[1,13]],[[2435,93],[6,-19],[1,-8]],[[2442,66],[1,-9],[0,-45],[1,-12]],[[2954,145],[9,-17],[3,-9],[0,-8],[-11,-20],[-7,-32],[1,-17],[6,-17],[5,-24],[0,-1]],[[1756,145],[7,9],[0,8]],[[1710,0],[0,7],[3,13],[6,15],[17,35],[4,15],[2,23],[3,15],[1,5],[8,13],[2,4]],[[2011,738],[1,2]],[[1863,186],[-3,45],[0,101],[3,79],[17,56],[28,79],[32,56],[55,105],[16,31]],[[3463,2346],[9,20],[12,34],[12,13],[4,9],[8,25],[9,9],[19,19],[8,11],[10,17],[15,22],[24,53],[6,15],[8,26],[3,15],[1,24],[0,12],[-3,20]],[[4096,4096],[0,-4096],[-4096,0],[0,2895],[0,1201],[1807,0],[2289,0]],[[3821,262],[14,48],[123,57],[6,-62],[-40,-53],[34,6],[2,-96],[-81,22],[-8,39],[-50,39]],[[2418,71],[-25,61],[35,13],[30,-30],[-19,-58],[-21,14]],[[1806,161],[-42,-18],[-46,12],[46,32],[42,-26]],[[1896,92],[25,-23],[-23,-46],[-40,32],[-1,54],[39,-17]],[[1473,253],[-14,-47],[-32,1],[15,39],[31,7]],[[2702,343],[-8,-21],[-33,14],[-9,44],[51,-6],[-1,-31]],[[2560,231],[-24,11],[13,43],[34,-9],[-23,-45]],[[1473,315],[28,-33],[-60,11],[32,22]],[[2241,478],[18,17],[-32,6],[-10,52],[65,-46],[19,-81],[-88,-17],[28,69]],[[1163,484],[-33,-23],[-27,34],[35,9],[25,-20]],[[2056,466],[-42,12],[35,36],[44,-13],[-37,-35]],[[2000,495],[-51,12],[26,38],[34,-21],[-9,-29]],[[1464,760],[-11,-27],[-26,-7],[0,45],[37,-11]],[[2042,714],[-60,46],[18,58],[51,17],[12,-66],[-21,-55]],[[1948,807],[-59,24],[-5,44],[51,-17],[28,-34],[-15,-17]],[[1718,870],[-42,52],[-134,-29],[5,29],[-102,-47],[-46,70],[74,46],[-28,11],[21,60],[29,-53],[57,28],[4,-52],[37,-20],[42,14],[0,69],[35,3],[20,-32],[-23,-34],[13,-24],[29,-5],[60,-81],[65,35],[-19,17],[51,64],[37,5],[0,-40],[-102,-98],[0,-34],[-55,0],[-28,46]],[[183,2863],[-27,-5],[-24,11],[26,33],[25,-39]],[[444,3013],[16,23],[25,-32],[-11,-48],[-37,23],[7,34]],[[3114,3382],[-50,29],[13,27],[28,7],[9,-63]],[[243,3405],[-25,12],[-12,28],[79,-5],[-42,-35]],[[127,3745],[13,-22],[6,-30],[-51,23],[32,29]],[[443,3867],[-15,34],[33,15],[24,-41],[-42,-8]],[[1972,3964],[-41,-6],[23,-23],[0,-69],[-37,-6],[-37,69],[37,23],[-11,72],[25,21],[-5,-41],[24,8],[32,84],[22,0],[5,-86],[-37,-46]],[[1652,3959],[-17,40],[74,-6],[0,75],[32,17],[60,-35],[5,-57],[-70,-58],[-84,24]],[[1468,3822],[-37,-2],[51,46],[-14,-44]],[[1118,3701],[15,33],[58,-1],[-45,-36],[-28,4]],[[742,3751],[-60,-41],[-92,52],[41,23],[65,-40],[46,6]],[[511,3745],[-46,6],[9,52],[26,-20],[11,-38]],[[858,3745],[-56,-12],[-64,52],[51,35],[44,-25],[25,-50]],[[1066,3823],[28,-20],[-23,-28],[-28,16],[23,32]],[[1616,3889],[-9,-81],[43,-1],[17,-45],[-129,52],[-33,81],[56,17],[55,-23]],[[1404,3808],[-37,-5],[-56,80],[19,-52],[-33,-34],[0,52],[-60,-46],[-65,0],[14,40],[37,17],[-28,29],[14,92],[65,-17],[23,17],[60,-29],[47,-144]],[[1556,4096],[-32,-46],[-74,-23],[-9,52],[37,-6],[-14,23],[92,0]],[[664,4062],[6,34],[21,0],[5,-34],[-32,0]],[[784,4016],[-45,10],[-15,47],[74,-5],[-14,-52]]]}