{"objects":{"water":{"type":"GeometryCollection","geometries":[{"type":"MultiPolygon","properties":{"source":"naturalearthdata.com","kind":"ocean","area":1576712559132672,"sort_rank":200,"min_zoom":0.0,"id":1},"arcs":[[[0]]]},{"type":"LineString","properties":{"source":"naturalearthdata.com","kind":"ocean","sort_rank":205,"boundary":true,"min_zoom":0.0,"id":1881},"arcs":[1]}]},"buildings":{"type":"GeometryCollection","geometries":[]},"places":{"type":"GeometryCollection","geometries":[]},"transit":{"type":"GeometryCollection","geometries":[]},"pois":{"type":"GeometryCollection","geometries":[]},"boundaries":{"type":"GeometryCollection","geometries":[]},"roads":{"type":"GeometryCollection","geometries":[]},"earth":{"type":"GeometryCollection","geometries":[{"type":"Polygon","properties":{"sort_rank":10,"source":"naturalearthdata.com","kind":"earth","min_zoom":0.0,"id":4616},"arcs":[[2]]},{"type":"Point","properties":{"label_placement":true,"name:pt":"Nova Sib\u00e9ria","name:az":"Yeni Sibir","name:ko":"\ub178\ubc14\uc57c\uc2dc\ube44\ub9ac \uc12c","name:cs":"Nov\u00e1 Sibi\u0159","min_zoom":7.0,"name:it":"Nuova Siberia","name:pl":"Nowa Syberia","id":-1867831,"name:ca":"Nova Sib\u00e8ria","name:fa":"\u0646\u06cc\u0648 \u0633\u06cc\u0628\u0631\u06cc\u0627","name:nn":"Novaja Sibir","area":92876603392,"name:fi":"Uusi-Siperia","name:de":"Neusibirien","name:tr":"Novaya Sibir","name:fr":"\u00cele de Nouvelle-Sib\u00e9rie","name:zh":"\u65b0\u897f\u4f2f\u5229\u4e9a\u5c9b","name:nl":"Nieuw-Siberi\u00eb","name:lt":"Naujojo Sibiro sala","name:no":"Novaja Sibir","name:uk":"\u041d\u043e\u0432\u0438\u0439 \u0421\u0438\u0431\u0456\u0440","name:sv":"Novaja Sibir-\u00f6n","name:bg":"\u041d\u043e\u0432 \u0421\u0438\u0431\u0438\u0440","osm_relation":true,"kind":"island","name:en":"New Siberia","name":"\u043e\u0441\u0442\u0440\u043e\u0432 \u041d\u043e\u0432\u0430\u044f \u0421\u0438\u0431\u0438\u0440\u044c","name:gl":"Nova Siberia","source":"openstreetmap.org","name:et":"Uus-Siberi saar","name:es":"Isla de Nueva Siberia"},"coordinates":[1922,266]}]},"landuse":{"type":"GeometryCollection","geometries":[]}},"type":"Topology","transform":{"translate":[147.65625,75.1407778407],"scale":[0.0003433228,0.0000870067]},"arcs":[[[4096,4096],[0,-2751],[-338,-225],[-136,-178],[-335,-46],[-236,78],[-90,-12],[-182,-103],[-154,79],[-10,57],[18,129],[-234,313],[-103,247],[37,271],[198,310],[51,42],[29,60],[80,411],[-96,35],[-406,409],[-829,-12],[-829,-11],[-444,264],[-87,-2],[0,635],[4096,0]],[[4096,1345],[-338,-225],[-136,-178],[-335,-46],[-236,78],[-90,-12],[-182,-103],[-154,79],[-10,57],[18,129],[-234,313],[-103,247],[37,271],[198,310],[51,42],[29,60],[80,411],[-96,35],[-406,409],[-829,-12],[-829,-11],[-444,264],[-87,-2]],[[0,3461],[87,2],[444,-264],[829,11],[829,12],[406,-409],[96,-35],[-80,-411],[-29,-60],[-51,-42],[-198,-310],[-37,-271],[103,-247],[234,-313],[-18,-129],[10,-57],[154,-79],[182,103],[90,12],[236,-78],[335,46],[136,178],[338,225],[0,-1345],[-4096,0],[0,3461]]]}