{"objects":{"water":{"type":"GeometryCollection","geometries":[]},"buildings":{"type":"GeometryCollection","geometries":[]},"places":{"type":"GeometryCollection","geometries":[{"type":"Point","properties":{"name:ps":"\u0628\u06d0\u0644\u06cc\u0632","name:ka":"\u10d1\u10d4\u10da\u10d8\u10d6\u10d8","name:ko":"\ubca8\ub9ac\uc988","name:cv":"\u0411\u0435\u043b\u0438\u0437","name:km":"\u1794\u17c1\u179b\u17b8\u17a0\u17d2\u179f","name:kk":"\u0411\u0435\u043b\u0438\u0437","name:tt":"\u0411\u0435\u043b\u0438\u0437","name:kw":"Belisa","name:ku":"Bel\u00eeze","name:ti":"\u1264\u120a\u12d8","name:ks":"\u0628\u06cc\u0644\u0650\u062c","name:to":"Pelise","name:tl":"Belise","name:pa":"\u0a2c\u0a47\u0a32\u0a40\u0a1c\u0a3c","name:os":"\u0411\u0435\u043b\u0438\u0437","name:or":"\u0b2c\u0b47\u0b32\u0b3f\u0b1c\u0b4d","name:ce":"\u0411\u0435\u043b\u0438\u0437","name:ta":"\u0baa\u0bc6\u0bb2\u0bbf\u0bb8\u0bcd","name:tg":"\u0411\u0435\u043b\u0438\u0437","name:te":"\u0c2c\u0c46\u0c32\u0c40\u0c1c\u0c4d","name:qu":"Bilisi","name:sr":"\u0411\u0435\u043b\u0438\u0437\u0435","name:dz":"\u0f56\u0fb7\u0f7a\u0f0b\u0f63\u0f72\u0f5b","source":"openstreetmap.org","name:kn":"\u0cac\u0cc6\u0cb2\u0cbf\u0c9c\u0ccd","name:dv":"\u0784\u07ac\u078d\u07a9\u0792\u07aa","name:lv":"Beliza","name:lt":"Belizas","name:uz":"Beliz","name:he":"\u05d1\u05dc\u05d9\u05d6","min_zoom":2.0,"kind":"country","name:ur":"\u0628\u06cc\u0644\u0627\u0626\u0632","name:la":"Beliza","old_name:eo":"Brita Honduro","name:uk":"\u0411\u0435\u043b\u0456\u0437","name:hy":"\u0532\u0565\u056c\u056b\u0566","name:ug":"\u0628\u06d0\u0644\u0649\u0632","name:ln":"Beliz\u025b","name:lo":"\u0ec0\u0e9a\u0e8a\u0eb5\u0ea7","population":327719,"name:el":"\u039c\u03c0\u03b5\u03bb\u03af\u03b6","name:eo":"Belizo","name":"Belize","name:ee":"Belize nutome","name:th":"\u0e1b\u0e23\u0e30\u0e40\u0e17\u0e28\u0e40\u0e1a\u0e25\u0e35\u0e0b","name:gu":"\u0aac\u0ac7\u0ab2\u0ac0\u0a9d","name:yi":"\u05d1\u05e2\u05dc\u05d9\u05d6","name:es":"Belice","name:ay":"Wilisi","name:mt":"Beli\u017ce","name:az":"Beliz","name:mr":"\u092c\u0947\u0932\u093f\u091d\u0947","name:ar":"\u0628\u0644\u064a\u0632","name:my":"\u1018\u1031\u101c\u102e\u1007\u103a","name:is":"Bel\u00eds","name:am":"\u1264\u120a\u12d8","name:ml":"\u0d2c\u0d46\u0d32\u0d40\u0d38\u0d4d","name:ru":"\u0411\u0435\u043b\u0438\u0437","name:mn":"\u0411\u0435\u043b\u0438\u0437","id":332779764,"name:mk":"\u0411\u0435\u043b\u0438\u0437\u0435","name:vo":"Belis\u00e4n","name:zu":"i-Belize","name:ha":"Beliz","name:ff":"Beliise","name:hi":"\u092c\u0947\u0932\u0940\u091c\u093c","name:fo":"Belis","alt_name:vi":"B\u00ea-li-x\u00ea","name:fr":"B\u00e9lize","name:wo":"Beliis","name:zh-yue":"\u4f2f\u5229\u8332","name:zh":"\u4f2f\u5229\u5179","name:gv":"Yn Veleesh","name:so":"Belise","name:ja":"\u30d9\u30ea\u30fc\u30ba","name:si":"\u0db6\u0dd9\u0dbd\u0dd3\u0dc3\u0dca","name:fa":"\u0628\u0644\u06cc\u0632","name:sg":"Bel\u00eezi","name:na":"Berij","name:ne":"\u092c\u0947\u0932\u093f\u091c","name:sa":"\u092c\u0947\u0932\u0940\u091c","name:bs":"Belise","name:bm":"Belizi","name:bn":"\u09ac\u09c7\u09b2\u09bf\u09af","name:bo":"\u0f56\u0f7a\u0f0b\u0f63\u0f72\u0f5b\u0f0d","name:be":"\u0411\u0435\u043b\u0456\u0437","name:su":"B\u00e9lis","name:bg":"\u0411\u0435\u043b\u0438\u0437","name:ss":"IBhelizi","name:ba":"\u0411\u0435\u043b\u0438\u0437","name:sq":"Beliza","name:ga":"An Bheil\u00eds","name:gd":"Beilise","name:ht":"Beliz","name:gn":"Mbelise","name:gl":"Belice","name:yo":"Or\u00edl\u1eb9\u0301\u00e8de B\u00e8l\u00eds\u1eb9\u0300","name:ak":"Beliz"},"coordinates":[3611,579]},{"type":"Point","properties":{"kind":"region","name":"Pet\u00e9n","kind_detail":"state","name:eo":"Peteno","source":"openstreetmap.org","min_zoom":4.0,"name:ru":"\u041f\u0435\u0442\u0435\u043d","id":472114124},"coordinates":[291,805]},{"type":"Point","properties":{"source":"naturalearthdata.com","kind":"locality","name":"Belmopan","country_capital":true,"population":15220,"min_zoom":5.0,"id":7058},"coordinates":[3591,1879]},{"type":"Point","properties":{"source":"naturalearthdata.com","kind":"locality","name":"Flores","population":38035,"region_capital":true,"min_zoom":7.0,"id":3819},"coordinates":[340,908]},{"type":"Point","properties":{"source":"openstreetmap.org","kind":"locality","name":"Melchor de Mencos","kind_detail":"town","population":23813,"min_zoom":8.0,"id":4735465951},"coordinates":[2464,1301]},{"type":"Point","properties":{"source":"openstreetmap.org","kind":"locality","name":"Spanish Lookout","kind_detail":"town","population":2300,"min_zoom":8.0,"id":4551610941},"coordinates":[2900,1854]},{"type":"Point","properties":{"source":"openstreetmap.org","kind":"locality","name":"San Ignacio","kind_detail":"town","population":20,"min_zoom":8.0,"id":297441760},"coordinates":[2709,1589]},{"type":"Point","properties":{"kind":"locality","name":"Benque Viejo del Carmen","name:lt":"Benke Vjecho del Karmenas","kind_detail":"town","source":"openstreetmap.org","min_zoom":8.0,"id":2116862398,"population":6},"coordinates":[2513,1329]},{"type":"Point","properties":{"name:ka":"\u10d1\u10d4\u10da\u10db\u10dd\u10de\u10d0\u10dc\u10d8","name:mr":"\u092c\u0947\u0932\u094d\u092e\u094b\u092a\u093e\u0928","name:ko":"\ubca8\ubaa8\ud310","name:ar":"\u0628\u0644\u0645\u0648\u0628\u0627\u0646","name:tr":"Belmop\u00e1n","name:is":"Belm\u00f3pan","name:am":"\u1264\u120d\u121e\u1353\u1295","name:ru":"\u0411\u0435\u043b\u044c\u043c\u043e\u043f\u0430\u043d","name:ta":"\u0baa\u0bc6\u0bb2\u0bcd\u0bae\u0bcb\u0baa\u0bcd\u0baa\u0bbe\u0ba9\u0bcd","id":282294082,"name:mk":"\u0411\u0435\u043b\u043c\u043e\u043f\u0430\u043d","name:fa":"\u0628\u0644\u0645\u0648\u067e\u0627\u0646","kind_detail":"city","source":"openstreetmap.org","name:zh":"\u8c9d\u723e\u83ab\u6f58","admin_level":"2","name:lv":"Belmopana","name:ja":"\u30d9\u30eb\u30e2\u30d1\u30f3","name:lt":"Belmopanas","name:hi":"\u092c\u0947\u0932\u094d\u092e\u094b\u092a\u093e\u0928","name:he":"\u05d1\u05dc\u05de\u05d5\u05e4\u05df","kind":"locality","name:bo":"\u0f54\u0f7a\u0f62\u0f0b\u0f58\u0f7c\u0f0b\u0f55\u0f53\u0f0d","name:uk":"\u0411\u0435\u043b\u044c\u043c\u043e\u043f\u0430\u043d","name:hy":"\u0532\u0565\u056c\u0574\u0578\u057a\u0561\u0576","country_capital":true,"name:be":"\u0411\u0435\u043b\u044c\u043c\u0430\u043f\u0430\u043d","name:ht":"B\u00e8lmopan","name:bg":"\u0411\u0435\u043b\u043c\u043e\u043f\u0430\u043d","name:sr":"\u0411\u0435\u043b\u043c\u043e\u043f\u0430\u043d","name:oc":"Belmop\u00e1n","name:el":"\u039c\u03c0\u03b5\u03bb\u03bc\u03bf\u03c0\u03ac\u03bd","name:eo":"Belmopano","name":"Belmopan","min_zoom":8.0,"name:gl":"Belmop\u00e1n","name:th":"\u0e40\u0e1a\u0e25\u0e42\u0e21\u0e41\u0e1e\u0e19","name:la":"Belmopanum","name:es":"Belmop\u00e1n"},"coordinates":[3583,1873]}]},"transit":{"type":"GeometryCollection","geometries":[]},"pois":{"type":"GeometryCollection","geometries":[{"type":"Point","properties":{"kind":"national_park","tier":1,"protect_class":"2","area":1210830000,"name:es":"Parque nacional Chiquibul","name:de":"Nationalpark Chiquibul","source":"openstreetmap.org","min_zoom":5.67,"name:it":"Parco nazionale di Chiquibul","operator":"Forest Department","id":-2958267,"osm_relation":true,"name":"Chiquibul National Park"},"coordinates":[3413,279]},{"type":"Point","properties":{"kind":"national_park","tier":1,"protect_class":"2","area":118601000,"source":"openstreetmap.org","min_zoom":7.35,"operator":"Institute of Culture and History \/ Institute of Archaeology","id":-2958266,"osm_relation":true,"name":"Caracol Archaeological Reserve"},"coordinates":[2554,412]},{"type":"Point","properties":{"kind":"nature_reserve","name":"Biotopo protegido San Miguel la Palotada","area":390429000,"source":"openstreetmap.org","min_zoom":7.99,"tier":2,"id":-547326,"osm_relation":true},"coordinates":[540,1896]},{"type":"Point","properties":{"kind":"nature_reserve","name":"Biotopo Protegido Naacht\u00fan-Dos Lagunas","area":328620000,"source":"openstreetmap.org","min_zoom":8.11,"tier":2,"id":-547325,"osm_relation":true},"coordinates":[1262,3309]},{"type":"Point","properties":{"kind":"nature_reserve","name":"Corredor Biol\u00f3gico Tikal-Mirador-Rio Azul","area":490741000,"source":"openstreetmap.org","min_zoom":7.82,"tier":2,"id":-547319,"osm_relation":true},"coordinates":[1577,2449]},{"type":"Point","properties":{"kind":"protected_area","name":"Reserva arqueol\u00f3gica El Pilar","area":12289300,"source":"openstreetmap.org","min_zoom":8.0,"tier":2,"id":-547223,"osm_relation":true},"coordinates":[2428,1881]},{"type":"Point","properties":{"kind":"national_park","name":"Parque Nacional Mirador-R\u00edo Azul","area":1305800000,"source":"openstreetmap.org","min_zoom":5.61,"tier":1,"id":-546716,"osm_relation":true},"coordinates":[1964,3370]},{"type":"Point","properties":{"source":"openstreetmap.org","kind":"nature_reserve","name":"Rio Bravo Conservation Area","area":621602000,"tier":2,"min_zoom":7.65,"id":151130076},"coordinates":[2967,3438]},{"type":"Point","properties":{"kind":"national_park","tier":1,"protect_class":"2","area":56929000,"source":"openstreetmap.org","min_zoom":8.0,"operator":"Forest Department","id":251568168,"name":"Noj Ka'ax H'men Elijio Panti National Park"},"coordinates":[2796,1247]}]},"boundaries":{"type":"GeometryCollection","geometries":[{"type":"LineString","properties":{"name:right:yo":"B\u1eb9\u0300l\u00eds\u00e8","name:left:la":"Guatimalia","name:right:qu":"Bilisi","name:right:yi":"\u05d1\u05e2\u05dc\u05d9\u05d6","name:right:hy":"\u0532\u0565\u056c\u056b\u0566","name:left:su":"Guat\u00e9mala","name:right:ht":"Beliz","name:left:ln":"Gwatemala","name:left:sr":"\u0413\u0432\u0430\u0442\u0435\u043c\u0430\u043b\u0430","name:left:sm":"Tuatemala","name:right:hi":"\u092c\u0947\u0932\u0940\u091c\u093c","name:left:lt":"Gvatemala","name:left:sh":"Gvatemala","name:left:lv":"Gvatemala","name:left:vo":"Gvatem\u00e4n","name:left:sa":"\u0917\u094d\u0935\u093e\u091f\u0947\u092e\u093e\u0932\u093e","name:right:he":"\u05d1\u05dc\u05d9\u05d6","name:right:la":"Beliza","name:left:ce":"\u0413\u0432\u0430\u0442\u0435\u043c\u0430\u043b\u0430","name:right:am":"\u1264\u120a\u12dd","source":"openstreetmap.org","name:right:ar":"\u0628\u0644\u064a\u0632","name:right:el":"\u039c\u03c0\u03b5\u03bb\u03af\u03b6","name:right:az":"Beliz","name:right:ay":"Wilisi","name:left:ka":"\u10d2\u10d5\u10d0\u10e2\u10d4\u10db\u10d0\u10da\u10d0","name:right:zh-yue":"\u4f2f\u5229\u8332","name:left:km":"\u17a0\u17d2\u1782\u17b6\u178f\u17c1\u1798\u17c9\u17b6\u17a1\u17b6","name:left:ko":"\uacfc\ud14c\ub9d0\ub77c","name:left:kn":"\u0c97\u0ccd\u0cb5\u0cbe\u0c9f\u0cc6\u0cae\u0cbe\u0cb2","name:right:is":"Bel\u00eds","name:left:kk":"\u0413\u0432\u0430\u0442\u0435\u043c\u0430\u043b\u0430","name:right:ru":"\u0411\u0435\u043b\u0438\u0437","name:left:kw":"Gwatemala","name:left:rw":"Gwatemala","name:left:ru":"\u0413\u0432\u0430\u0442\u0435\u043c\u0430\u043b\u0430","name":"Guatemala - Belize","name:right:bn":"\u09ac\u09c7\u09b2\u09bf\u099c","name:right:bo":"\u0f56\u0f7a\u0f0b\u0f63\u0f72\u0f0b\u0f5b\u0f72\u0f0d","name:left:sl":"Gvatemala","name:right:ba":"\u0411\u0435\u043b\u0438\u0437","min_zoom":8.0,"name:right:be":"\u0411\u0435\u043b\u0456\u0437","name:left:zh":"\u5371\u5730\u9a6c\u62c9","name:right:bs":"Beliz","name:right:zh":"\u4f2f\u5229\u5179","name:left:uz":"Gvatemala","name:left:ur":"\u06af\u0648\u0626\u0679\u06d2 \u0645\u0627\u0644\u0627","name:right:wo":"Beliis","name:right:ne":"\u092c\u0947\u0932\u093f\u091c","id:right":-287827,"name:left:uk":"\u0413\u0432\u0430\u0442\u0435\u043c\u0430\u043b\u0430","name:right:gv":"Yn Veleesh","name:right:fa":"\u0628\u0644\u06cc\u0632","name:right:fo":"Belis","name:left:ne":"\u0917\u094d\u0935\u093e\u091f\u0947\u092e\u093e\u0932\u093e","name:left:ug":"\u06af\u06cb\u0627\u062a\u06d0\u0645\u0627\u0644\u0627","name:left:na":"Guatemara","name:left:eo":"Gvatemalo","name:left:el":"\u0393\u03bf\u03c5\u03b1\u03c4\u03b5\u03bc\u03ac\u03bb\u03b1","kind_detail":"2","name:left:pl":"Gwatemala","name:left:wo":"Guwaatemala","name:left:ss":"IGwathamala","name:right:ps":"\u0628\u06d0\u0644\u06cc\u0632","name:left:mg":"Goatemala","name:left:mk":"\u0413\u0432\u0430\u0442\u0435\u043c\u0430\u043b\u0430","name:left:tt":"\u0413\u0432\u0430\u0442\u0435\u043c\u0430\u043b\u0430","name:left:mn":"\u0413\u0432\u0430\u0442\u0435\u043c\u0430\u043b","name:left:ml":"\u0d17\u0d4d\u0d35\u0d3e\u0d1f\u0d4d\u0d1f\u0d3f\u0d2e\u0d3e\u0d32","name:left:th":"\u0e1b\u0e23\u0e30\u0e40\u0e17\u0e28\u0e01\u0e31\u0e27\u0e40\u0e15\u0e21\u0e32\u0e25\u0e32","name:left:mr":"\u0917\u094d\u0935\u093e\u0924\u0947\u092e\u093e\u0932\u093e","name:left:tl":"Guwatemala","name:left:ay":"Watimala","name:left:mt":"Gwatemala","name:left:ta":"\u0b95\u0bc1\u0bb5\u0bbe\u0ba4\u0bcd\u0ba4\u0bae\u0bbe\u0bb2\u0bbe","name:left:my":"\u1002\u103d\u102b\u1010\u102e\u1019\u102c\u101c\u102c\u1014\u102d\u102f\u1004\u103a\u1004\u1036","name:right:gn":"Mbelise","name:right:th":"\u0e1b\u0e23\u0e30\u0e40\u0e17\u0e28\u0e40\u0e1a\u0e25\u0e35\u0e0b","name:right:os":"\u0411\u0435\u043b\u0438\u0437","name:left:tg":"\u0413\u0443\u0430\u0442\u0435\u043c\u0430\u043b\u0430","name:right:pa":"\u0a2c\u0a47\u0a32\u0a40\u0a1c\u0a3c","name:left:zh-yue":"\u5371\u5730\u99ac\u62c9","name:right:ga":"An Bheil\u00eds","name:left:dv":"\u078e\u07aa\u0787\u07a6\u0793\u07ac\u0789\u07a7\u078d\u07a7","name:right:ug":"\u0628\u06d0\u0644\u0649\u0632","name:left:hi":"\u0917\u094d\u0935\u093e\u091f\u0947\u092e\u093e\u0932\u093e","name:right:uk":"\u0411\u0435\u043b\u0456\u0437","name:left:he":"\u05d2\u05d5\u05d0\u05d8\u05de\u05dc\u05d4","name:right:lt":"Belizas","name:right:ur":"\u0628\u06cc\u0644\u06cc\u0632","name:right:lv":"Beliza","name:left:hy":"\u0533\u057e\u0561\u057f\u0565\u0574\u0561\u056c\u0561","name:right:gl":"Belice","name:left:ht":"Gwatemala","name:right:uz":"Beliz","name:left:hr":"Gvatemala","name:left:ga":"Guatamala","name:left:gd":"Guatamala","sort_rank":262,"name:right:gd":"Beilise","osm_relation":true,"name:left:gv":"Yn Ghuatemaley","name:right:or":"\u0b2c\u0b47\u0b32\u0b3f\u0b1c","name:left":"Guatemala","name:right:es":"Belice","name:right:sr":"\u0411\u0435\u043b\u0438\u0437\u0435","name:right:mn":"\u0411\u0435\u043b\u0438\u0437","name:right:ml":"\u0d2c\u0d46\u0d32\u0d40\u0d38\u0d4d","name:right:vo":"Belis\u00e4n","name:left:os":"\u0413\u0432\u0430\u0442\u0435\u043c\u0430\u043b\u00e6","name:right:my":"\u1018\u101c\u102d\u1007\u103a\u1014\u102d\u102f\u1004\u103a\u1004\u1036","name:right:mr":"\u092c\u0947\u0932\u093f\u091d","name:right:na":"Berij","name:right:eo":"Belizo","name:right:mt":"Beli\u017ce","kind":"country","name:left:fa":"\u06af\u0648\u0627\u062a\u0645\u0627\u0644\u0627","name:left:fy":"G\u00fbatemala","name:left:bs":"Gvatemala","name:right:mk":"\u0411\u0435\u043b\u0438\u0437\u0435","name:right:ja":"\u30d9\u30ea\u30fc\u30ba","name:right:sq":"Beliza","name:right:ss":"IBhelizi","name:left:ja":"\u30b0\u30a2\u30c6\u30de\u30e9","name:right:su":"B\u00e9lis","name:left:qu":"Watimala","name:left:ba":"\u0413\u0432\u0430\u0442\u0435\u043c\u0430\u043b\u0430","name:left:bg":"\u0413\u0432\u0430\u0442\u0435\u043c\u0430\u043b\u0430","name:right:so":"Belise","name:left:be":"\u0413\u0432\u0430\u0442\u044d\u043c\u0430\u043b\u0430","name:right:sa":"\u092c\u0947\u0932\u0940\u091c","name:left:bn":"\u0997\u09c1\u09af\u09bc\u09be\u09a4\u09c7\u09ae\u09be\u09b2\u09be","name:left:bo":"\u0f42\u0f74\u0f0b\u0f5d\u0f7a\u0f0b\u0f50\u0f72\u0f0b\u0f58\u0f0b\u0f63\u0f0d","name:left:bm":"Gatemala","name:right:ce":"\u0411\u0435\u043b\u0438\u0437","id":-1521463,"name:left:yo":"Guat\u1eb9m\u00e1l\u00e0","name:left:yi":"\u05d2\u05d5\u05d5\u05d0\u05d8\u05e2\u05de\u05d0\u05dc\u05e2","id:left":-1521463,"name:right":"Belize","name:right:cv":"\u0411\u0435\u043b\u0438\u0437","name:right:ka":"\u10d1\u10d4\u10da\u10d8\u10d6\u10d8","name:right:bg":"\u0411\u0435\u043b\u0438\u0437","name:left:ar":"\u063a\u0648\u0627\u062a\u064a\u0645\u0627\u0644\u0627","name:right:tt":"\u0411\u0435\u043b\u0438\u0437","name:left:az":"Qvatemala","name:right:ko":"\ubca8\ub9ac\uc988","name:right:kn":"\u0cac\u0cc6\u0cb2\u0cc0\u0c9c\u0ccd","name:right:tl":"Belise","name:right:ku":"Bel\u00eeze","name:right:kw":"Belisa","name:left:ps":"\u06ab\u0648\u0627\u062a\u0645\u0627\u0644\u0627","name:right:te":"\u0c2c\u0c46\u0c32\u0c3f\u0c1c\u0c4d","name:left:am":"\u1313\u1274\u121b\u120b","name:right:tg":"\u0411\u0435\u043b\u0438\u0437","name:left:is":"Gvatemala","name:right:ta":"\u0baa\u0bc6\u0bb2\u0bc0\u0b9a\u0bc1","name:right:dz":"\u0f56\u0f7a\u0f0b\u0f63\u0f72\u0f5b\u0f0d","name:left:pa":"\u0a17\u0a41\u0a06\u0a24\u0a47\u0a2e\u0a3e\u0a32\u0a3e","name:right:dv":"\u0784\u07ac\u078d\u07a9\u0792\u07aa"},"arcs":[0]},{"type":"LineString","properties":{"name:right:yo":"M\u1eb9\u0301ks\u00edk\u00f2","name:left:la":"Guatimalia","name:right:qu":"Mishiku","name:right:dv":"\u0789\u07ac\u0786\u07b0\u0790\u07a8\u0786\u07af","name:right:yi":"\u05de\u05e2\u05e7\u05e1\u05d9\u05e7\u05d0","name:right:hy":"\u0544\u0565\u0584\u057d\u056b\u056f\u0561","name:left:su":"Guat\u00e9mala","name:right:hr":"Meksiko","name:left:ru":"\u0413\u0432\u0430\u0442\u0435\u043c\u0430\u043b\u0430","name:right:ht":"Meksik","name:right:hu":"Mexik\u00f3","name:left:ln":"Gwatemala","name:left:sr":"\u0413\u0432\u0430\u0442\u0435\u043c\u0430\u043b\u0430","name:left:sm":"Tuatemala","name:left:sl":"Gvatemala","name:left:lt":"Gvatemala","name:left:sh":"Gvatemala","name:left:lv":"Gvatemala","name:left:vo":"Gvatem\u00e4n","name:left:sa":"\u0917\u094d\u0935\u093e\u091f\u0947\u092e\u093e\u0932\u093e","name:right:he":"\u05de\u05e7\u05e1\u05d9\u05e7\u05d5","name:left:hi":"\u0917\u094d\u0935\u093e\u091f\u0947\u092e\u093e\u0932\u093e","name:right:af":"Meksiko","name:left:ce":"\u0413\u0432\u0430\u0442\u0435\u043c\u0430\u043b\u0430","name:right:an":"Mexico","name:right:am":"\u121c\u12ad\u1232\u12ae","source":"openstreetmap.org","name:right:ar":"\u0627\u0644\u0645\u0643\u0633\u064a\u0643","name:right:mt":"Messiku","name:right:az":"Meksika","name:right:ay":"M\u00efxiku","name:right:fi":"Meksiko","name:left:ka":"\u10d2\u10d5\u10d0\u10e2\u10d4\u10db\u10d0\u10da\u10d0","name:left:yi":"\u05d2\u05d5\u05d5\u05d0\u05d8\u05e2\u05de\u05d0\u05dc\u05e2","name:left:km":"\u17a0\u17d2\u1782\u17b6\u178f\u17c1\u1798\u17c9\u17b6\u17a1\u17b6","name:left:ko":"\uacfc\ud14c\ub9d0\ub77c","name:right:it":"Messico","name:right:is":"Mex\u00edk\u00f3","name:right:rw":"Megizike","name:left:kk":"\u0413\u0432\u0430\u0442\u0435\u043c\u0430\u043b\u0430","name:right:ru":"\u041c\u0435\u043a\u0441\u0438\u043a\u0430","name:right:io":"Mexikia","name:left:kw":"Gwatemala","name:right:ik":"Mexiqo","name:left:rw":"Gwatemala","name:right:rm":"Mexico","name:right:id":"Meksiko","name:right:ia":"Mexico","name":"Guatemala - M\u00e9xico","name:right:bi":"Mexico","name:right:bn":"\u09ae\u09c7\u0995\u09cd\u09b8\u09bf\u0995\u09cb","name:right:bo":"\u0f58\u0f7a\u0f42\u0f0b\u0f66\u0f72\u0f0b\u0f40\u0f7c\u0f0d","name:right:zu":"IMekisiko","name:right:bm":"M\u025bkisiki","name:right:th":"\u0e1b\u0e23\u0e30\u0e40\u0e17\u0e28\u0e40\u0e21\u0e47\u0e01\u0e0b\u0e34\u0e42\u0e01","name:right:bg":"\u041c\u0435\u043a\u0441\u0438\u043a\u043e","name:right:be":"\u041c\u0435\u043a\u0441\u0456\u043a\u0430","name:left:zh":"\u5371\u5730\u9a6c\u62c9","name:right:br":"Mec'hiko","name:right:bs":"Meksiko","name:right:zh":"\u58a8\u897f\u54e5","name:right:nn":"Mexico","name:left:uz":"Gvatemala","name:right:nl":"Mexico","name:right:ba":"\u041c\u0435\u043a\u0441\u0438\u043a\u0430","name:right:fr":"Mexique","name:left:ps":"\u06ab\u0648\u0627\u062a\u0645\u0627\u0644\u0627","name:left:ur":"\u06af\u0648\u0626\u0679\u06d2 \u0645\u0627\u0644\u0627","name:right:wo":"Meksik","name:right:ne":"\u092e\u0947\u0915\u094d\u0938\u093f\u0915\u094b","id:right":-114686,"name:left:uk":"\u0413\u0432\u0430\u0442\u0435\u043c\u0430\u043b\u0430","name:right:hi":"\u092e\u0947\u0915\u094d\u0938\u093f\u0915\u094b","name:right:fa":"\u0645\u06a9\u0632\u06cc\u06a9","name:right:nv":"M\u00e9higo","name:right:fo":"Meksiko","name:left:ne":"\u0917\u094d\u0935\u093e\u091f\u0947\u092e\u093e\u0932\u093e","name:left:ug":"\u06af\u06cb\u0627\u062a\u06d0\u0645\u0627\u0644\u0627","name:left:na":"Guatemara","name:left:eo":"Gvatemalo","name:left:el":"\u0393\u03bf\u03c5\u03b1\u03c4\u03b5\u03bc\u03ac\u03bb\u03b1","kind_detail":"2","alt_name:right:vi":"M\u00ea-hi-c\u00f4;M\u1ec5 T\u00e2y C\u01a1;M\u1ec5","name:left:pl":"Gwatemala","name:left:wo":"Guwaatemala","name:left:ss":"IGwathamala","name:right:gu":"\u0aae\u0ac7\u0a95\u0acd\u0ab8\u0abf\u0a95\u0acb","name:right:zh-min-nan":"Be\u030dk-se-ko","name:right:gv":"Meksico","name:left:mg":"Goatemala","name:left:mk":"\u0413\u0432\u0430\u0442\u0435\u043c\u0430\u043b\u0430","name:left:tt":"\u0413\u0432\u0430\u0442\u0435\u043c\u0430\u043b\u0430","name:left:mn":"\u0413\u0432\u0430\u0442\u0435\u043c\u0430\u043b","name:right:oc":"Mexic","name:left:ml":"\u0d17\u0d4d\u0d35\u0d3e\u0d1f\u0d4d\u0d1f\u0d3f\u0d2e\u0d3e\u0d32","name:left:th":"\u0e1b\u0e23\u0e30\u0e40\u0e17\u0e28\u0e01\u0e31\u0e27\u0e40\u0e15\u0e21\u0e32\u0e25\u0e32","name:right:pa":"\u0a2e\u0a48\u0a15\u0a38\u0a40\u0a15\u0a4b","name:left:tl":"Guwatemala","name:right:tr":"Meksika","name:left:mt":"Gwatemala","name:left:ta":"\u0b95\u0bc1\u0bb5\u0bbe\u0ba4\u0bcd\u0ba4\u0bae\u0bbe\u0bb2\u0bbe","name:left:my":"\u1002\u103d\u102b\u1010\u102e\u1019\u102c\u101c\u102c\u1014\u102d\u102f\u1004\u103a\u1004\u1036","name:right:gn":"M\u00e9jiko","name:right:pl":"Meksyk","osm_relation":true,"name:left:tg":"\u0413\u0443\u0430\u0442\u0435\u043c\u0430\u043b\u0430","name:left:mr":"\u0917\u094d\u0935\u093e\u0924\u0947\u092e\u093e\u0932\u093e","name:left:zh-yue":"\u5371\u5730\u99ac\u62c9","name:right:ga":"Meicsiceo","name:left:az":"Qvatemala","name:left:dv":"\u078e\u07aa\u0787\u07a6\u0793\u07ac\u0789\u07a7\u078d\u07a7","name:left:yo":"Guat\u1eb9m\u00e1l\u00e0","name:right:ug":"\u0645\u06d0\u0643\u0633\u0649\u0643\u0627","name:right:la":"Mexicum","name:right:lb":"Mexiko","name:right:no":"Mexico","name:right:uk":"\u041c\u0435\u043a\u0441\u0438\u043a\u0430","name:left:he":"\u05d2\u05d5\u05d0\u05d8\u05de\u05dc\u05d4","name:right:ln":"Mexiko","name:right:tk":"Meksika","name:right:li":"Mexico","name:right:lt":"Meksika","name:right:ur":"\u0645\u06cc\u06a9\u0633\u06cc\u06a9\u0648","name:right:lv":"Meksika","name:left:hy":"\u0533\u057e\u0561\u057f\u0565\u0574\u0561\u056c\u0561","name:left:ht":"Gwatemala","name:right:uz":"Meksika","name:left:hr":"Gvatemala","name:left:ga":"Guatamala","name:left:gd":"Guatamala","sort_rank":262,"name:right:gd":"Meagsago","name:right:os":"\u041c\u0435\u043a\u0441\u0438\u043a\u00e6","name:left:gv":"Yn Ghuatemaley","name:right:or":"\u0b2e\u0b47\u0b15\u0b4d\u0b38\u0b3f\u0b15\u0b4b","name:left":"Guatemala","name:right:mk":"\u041c\u0435\u043a\u0441\u0438\u043a\u043e","name:right:mi":"Mehiko","name:right:sr":"\u041c\u0435\u043a\u0441\u0438\u043a\u043e","name:right:mn":"\u041c\u0435\u043a\u0441\u0438\u043a","name:right:eu":"Mexiko","name:right:et":"Mehhiko","name:right:vo":"M\u00e4xik\u00e4n","name:left:os":"\u0413\u0432\u0430\u0442\u0435\u043c\u0430\u043b\u00e6","name:right:mg":"Meksika","name:right:my":"\u1019\u1000\u1039\u1000\u1006\u102e\u1000\u102d\u102f\u1014\u102d\u102f\u1004\u103a\u1004\u1036","name:right:ee":"Mexico","name:right:ms":"Mexico","name:right:mr":"\u092e\u0947\u0915\u094d\u0938\u093f\u0915\u094b","min_zoom":8.0,"name:right:na":"Meketiko","name:right:eo":"Meksiko","name:right:en":"Mexico","name:right:el":"\u039c\u03b5\u03be\u03b9\u03ba\u03cc","kind":"country","name:left:fa":"\u06af\u0648\u0627\u062a\u0645\u0627\u0644\u0627","name:right:sk":"Mexiko","name:right:jv":"M\u00e8ksiko","name:right:fy":"Meksiko","name:left:fy":"G\u00fbatemala","name:left:bs":"Gvatemala","name:right:ja":"\u30e1\u30ad\u30b7\u30b3","name:right:sq":"Meksika","name:right:ss":"IMekisikho","name:left:ja":"\u30b0\u30a2\u30c6\u30de\u30e9","name:right:su":"M\u00e9ksiko","name:right:sw":"Mexiko","name:right:sv":"Mexico","name:right:sh":"Meksiko","name:left:qu":"Watimala","name:left:ba":"\u0413\u0432\u0430\u0442\u0435\u043c\u0430\u043b\u0430","name:right:sm":"Mexico","name:left:bg":"\u0413\u0432\u0430\u0442\u0435\u043c\u0430\u043b\u0430","name:right:so":"Meksiko","name:left:be":"\u0413\u0432\u0430\u0442\u044d\u043c\u0430\u043b\u0430","name:right:sl":"Mehika","name:right:sc":"M\u00e8ssico","name:right:se":"Meksiko","name:left:bo":"\u0f42\u0f74\u0f0b\u0f5d\u0f7a\u0f0b\u0f50\u0f72\u0f0b\u0f58\u0f0b\u0f63\u0f0d","name:left:bm":"Gatemala","name:right:co":"Messicu","name:right:ca":"M\u00e8xic","name:left:bn":"\u0997\u09c1\u09af\u09bc\u09be\u09a4\u09c7\u09ae\u09be\u09b2\u09be","name:right:ml":"\u0d2e\u0d46\u0d15\u0d4d\u0d38\u0d3f\u0d15\u0d4d\u0d15\u0d4b","name:right:ce":"\u041c\u0435\u043a\u0441\u0438\u043a\u0430","id":-1521463,"name:right:cy":"Mexico","name:right:zh-yue":"\u58a8\u897f\u54e5","id:left":-1521463,"name:right:cs":"Mexiko","name:right":"M\u00e9xico","name:right:iu":"\u14a6\u1483\u14f0\u1582","name:right:cv":"\u041c\u0435\u043a\u0441\u0438\u043a\u0430","name:right:ka":"\u10db\u10d4\u10e5\u10e1\u10d8\u10d9\u10d0","name:left:kn":"\u0c97\u0ccd\u0cb5\u0cbe\u0c9f\u0cc6\u0cae\u0cbe\u0cb2","name:right:sn":"Mexico","name:left:ar":"\u063a\u0648\u0627\u062a\u064a\u0645\u0627\u0644\u0627","name:right:tt":"\u041c\u0435\u043a\u0441\u0438\u043a\u0430","name:right:kk":"\u041c\u0435\u043a\u0441\u0438\u043a\u0430","name:right:tw":"Mexico","name:right:km":"\u1798\u17c9\u17b7\u1780\u179f\u17ca\u17b7\u1780","name:right:kl":"Mexico","name:right:ko":"\uba55\uc2dc\ucf54","name:right:kn":"\u0cae\u0cc6\u0c95\u0ccd\u0cb8\u0cbf\u0c95\u0ccb","name:right:tl":"Mehiko","name:right:ku":"Meks\u00eek","name:right:kw":"Meksiko","name:right:kv":"\u041c\u0435\u043a\u0441\u0438\u043a\u0430","name:right:ky":"\u041c\u0435\u043a\u0441\u0438\u043a\u0430","name:right:te":"\u0c2e\u0c46\u0c15\u0c4d\u0c38\u0c3f\u0c15\u0c4b","name:left:am":"\u1313\u1274\u121b\u120b","name:right:tg":"\u041c\u0435\u043a\u0441\u0438\u043a\u0430","name:left:is":"Gvatemala","name:right:ta":"\u0bae\u0bc6\u0b95\u0bcd\u0b9a\u0bbf\u0b95\u0bcd\u0b95\u0bcb","name:right:de":"Mexiko","name:right:da":"Mexico","name:right:dz":"\u0f58\u0f7a\u0f40\u0f0b\u0f66\u0f72\u0f0b\u0f40\u0f7c","name:left:ay":"Watimala","name:left:pa":"\u0a17\u0a41\u0a06\u0a24\u0a47\u0a2e\u0a3e\u0a32\u0a3e","name:right:ro":"Mexic"},"arcs":[1]},{"type":"LineString","properties":{"name:right:yo":"M\u1eb9\u0301ks\u00edk\u00f2","name:left:la":"Guatimalia","name:right:qu":"Mishiku","name:right:dv":"\u0789\u07ac\u0786\u07b0\u0790\u07a8\u0786\u07af","name:right:yi":"\u05de\u05e2\u05e7\u05e1\u05d9\u05e7\u05d0","name:right:hy":"\u0544\u0565\u0584\u057d\u056b\u056f\u0561","name:left:su":"Guat\u00e9mala","name:right:hr":"Meksiko","name:left:ru":"\u0413\u0432\u0430\u0442\u0435\u043c\u0430\u043b\u0430","name:right:ht":"Meksik","name:right:hu":"Mexik\u00f3","name:left:ln":"Gwatemala","name:left:sr":"\u0413\u0432\u0430\u0442\u0435\u043c\u0430\u043b\u0430","name:left:sm":"Tuatemala","name:left:sl":"Gvatemala","name:left:lt":"Gvatemala","name:left:sh":"Gvatemala","name:left:lv":"Gvatemala","name:left:vo":"Gvatem\u00e4n","name:left:sa":"\u0917\u094d\u0935\u093e\u091f\u0947\u092e\u093e\u0932\u093e","name:right:he":"\u05de\u05e7\u05e1\u05d9\u05e7\u05d5","name:left:hi":"\u0917\u094d\u0935\u093e\u091f\u0947\u092e\u093e\u0932\u093e","name:right:af":"Meksiko","name:left:ce":"\u0413\u0432\u0430\u0442\u0435\u043c\u0430\u043b\u0430","name:right:an":"Mexico","name:right:am":"\u121c\u12ad\u1232\u12ae","source":"openstreetmap.org","name:right:ar":"\u0627\u0644\u0645\u0643\u0633\u064a\u0643","name:right:mt":"Messiku","name:right:az":"Meksika","name:right:ay":"M\u00efxiku","name:right:fi":"Meksiko","name:left:ka":"\u10d2\u10d5\u10d0\u10e2\u10d4\u10db\u10d0\u10da\u10d0","name:left:yi":"\u05d2\u05d5\u05d5\u05d0\u05d8\u05e2\u05de\u05d0\u05dc\u05e2","name:left:km":"\u17a0\u17d2\u1782\u17b6\u178f\u17c1\u1798\u17c9\u17b6\u17a1\u17b6","name:left:ko":"\uacfc\ud14c\ub9d0\ub77c","name:right:it":"Messico","name:right:is":"Mex\u00edk\u00f3","name:right:rw":"Megizike","name:left:kk":"\u0413\u0432\u0430\u0442\u0435\u043c\u0430\u043b\u0430","name:right:ru":"\u041c\u0435\u043a\u0441\u0438\u043a\u0430","name:right:io":"Mexikia","name:left:kw":"Gwatemala","name:right:ik":"Mexiqo","name:left:rw":"Gwatemala","name:right:rm":"Mexico","name:right:id":"Meksiko","name:right:ia":"Mexico","name":"Guatemala - M\u00e9xico","name:right:bi":"Mexico","name:right:bn":"\u09ae\u09c7\u0995\u09cd\u09b8\u09bf\u0995\u09cb","name:right:bo":"\u0f58\u0f7a\u0f42\u0f0b\u0f66\u0f72\u0f0b\u0f40\u0f7c\u0f0d","name:right:zu":"IMekisiko","name:right:bm":"M\u025bkisiki","name:right:th":"\u0e1b\u0e23\u0e30\u0e40\u0e17\u0e28\u0e40\u0e21\u0e47\u0e01\u0e0b\u0e34\u0e42\u0e01","name:right:bg":"\u041c\u0435\u043a\u0441\u0438\u043a\u043e","name:right:be":"\u041c\u0435\u043a\u0441\u0456\u043a\u0430","name:left:zh":"\u5371\u5730\u9a6c\u62c9","name:right:br":"Mec'hiko","name:right:bs":"Meksiko","name:right:zh":"\u58a8\u897f\u54e5","name:right:nn":"Mexico","name:left:uz":"Gvatemala","name:right:nl":"Mexico","name:right:ba":"\u041c\u0435\u043a\u0441\u0438\u043a\u0430","name:right:fr":"Mexique","name:left:ps":"\u06ab\u0648\u0627\u062a\u0645\u0627\u0644\u0627","name:left:ur":"\u06af\u0648\u0626\u0679\u06d2 \u0645\u0627\u0644\u0627","name:right:wo":"Meksik","name:right:ne":"\u092e\u0947\u0915\u094d\u0938\u093f\u0915\u094b","id:right":-114686,"name:left:uk":"\u0413\u0432\u0430\u0442\u0435\u043c\u0430\u043b\u0430","name:right:hi":"\u092e\u0947\u0915\u094d\u0938\u093f\u0915\u094b","name:right:fa":"\u0645\u06a9\u0632\u06cc\u06a9","name:right:nv":"M\u00e9higo","name:right:fo":"Meksiko","name:left:ne":"\u0917\u094d\u0935\u093e\u091f\u0947\u092e\u093e\u0932\u093e","name:left:ug":"\u06af\u06cb\u0627\u062a\u06d0\u0645\u0627\u0644\u0627","name:left:na":"Guatemara","name:left:eo":"Gvatemalo","name:left:el":"\u0393\u03bf\u03c5\u03b1\u03c4\u03b5\u03bc\u03ac\u03bb\u03b1","kind_detail":"2","alt_name:right:vi":"M\u00ea-hi-c\u00f4;M\u1ec5 T\u00e2y C\u01a1;M\u1ec5","name:left:pl":"Gwatemala","name:left:wo":"Guwaatemala","name:left:ss":"IGwathamala","name:right:gu":"\u0aae\u0ac7\u0a95\u0acd\u0ab8\u0abf\u0a95\u0acb","name:right:zh-min-nan":"Be\u030dk-se-ko","name:right:gv":"Meksico","name:left:mg":"Goatemala","name:left:mk":"\u0413\u0432\u0430\u0442\u0435\u043c\u0430\u043b\u0430","name:left:tt":"\u0413\u0432\u0430\u0442\u0435\u043c\u0430\u043b\u0430","name:left:mn":"\u0413\u0432\u0430\u0442\u0435\u043c\u0430\u043b","name:right:oc":"Mexic","name:left:ml":"\u0d17\u0d4d\u0d35\u0d3e\u0d1f\u0d4d\u0d1f\u0d3f\u0d2e\u0d3e\u0d32","name:left:th":"\u0e1b\u0e23\u0e30\u0e40\u0e17\u0e28\u0e01\u0e31\u0e27\u0e40\u0e15\u0e21\u0e32\u0e25\u0e32","name:right:pa":"\u0a2e\u0a48\u0a15\u0a38\u0a40\u0a15\u0a4b","name:left:tl":"Guwatemala","name:right:tr":"Meksika","name:left:mt":"Gwatemala","name:left:ta":"\u0b95\u0bc1\u0bb5\u0bbe\u0ba4\u0bcd\u0ba4\u0bae\u0bbe\u0bb2\u0bbe","name:left:my":"\u1002\u103d\u102b\u1010\u102e\u1019\u102c\u101c\u102c\u1014\u102d\u102f\u1004\u103a\u1004\u1036","name:right:gn":"M\u00e9jiko","name:right:pl":"Meksyk","osm_relation":true,"name:left:tg":"\u0413\u0443\u0430\u0442\u0435\u043c\u0430\u043b\u0430","name:left:mr":"\u0917\u094d\u0935\u093e\u0924\u0947\u092e\u093e\u0932\u093e","name:left:zh-yue":"\u5371\u5730\u99ac\u62c9","name:right:ga":"Meicsiceo","name:left:az":"Qvatemala","name:left:dv":"\u078e\u07aa\u0787\u07a6\u0793\u07ac\u0789\u07a7\u078d\u07a7","name:left:yo":"Guat\u1eb9m\u00e1l\u00e0","name:right:ug":"\u0645\u06d0\u0643\u0633\u0649\u0643\u0627","name:right:la":"Mexicum","name:right:lb":"Mexiko","name:right:no":"Mexico","name:right:uk":"\u041c\u0435\u043a\u0441\u0438\u043a\u0430","name:left:he":"\u05d2\u05d5\u05d0\u05d8\u05de\u05dc\u05d4","name:right:ln":"Mexiko","name:right:tk":"Meksika","name:right:li":"Mexico","name:right:lt":"Meksika","name:right:ur":"\u0645\u06cc\u06a9\u0633\u06cc\u06a9\u0648","name:right:lv":"Meksika","name:left:hy":"\u0533\u057e\u0561\u057f\u0565\u0574\u0561\u056c\u0561","name:left:ht":"Gwatemala","name:right:uz":"Meksika","name:left:hr":"Gvatemala","name:left:ga":"Guatamala","name:left:gd":"Guatamala","sort_rank":262,"name:right:gd":"Meagsago","name:right:os":"\u041c\u0435\u043a\u0441\u0438\u043a\u00e6","name:left:gv":"Yn Ghuatemaley","name:right:or":"\u0b2e\u0b47\u0b15\u0b4d\u0b38\u0b3f\u0b15\u0b4b","name:left":"Guatemala","name:right:mk":"\u041c\u0435\u043a\u0441\u0438\u043a\u043e","name:right:mi":"Mehiko","name:right:sr":"\u041c\u0435\u043a\u0441\u0438\u043a\u043e","name:right:mn":"\u041c\u0435\u043a\u0441\u0438\u043a","name:right:eu":"Mexiko","name:right:et":"Mehhiko","name:right:vo":"M\u00e4xik\u00e4n","name:left:os":"\u0413\u0432\u0430\u0442\u0435\u043c\u0430\u043b\u00e6","name:right:mg":"Meksika","name:right:my":"\u1019\u1000\u1039\u1000\u1006\u102e\u1000\u102d\u102f\u1014\u102d\u102f\u1004\u103a\u1004\u1036","name:right:ee":"Mexico","name:right:ms":"Mexico","name:right:mr":"\u092e\u0947\u0915\u094d\u0938\u093f\u0915\u094b","min_zoom":8.0,"name:right:na":"Meketiko","name:right:eo":"Meksiko","name:right:en":"Mexico","name:right:el":"\u039c\u03b5\u03be\u03b9\u03ba\u03cc","kind":"country","name:left:fa":"\u06af\u0648\u0627\u062a\u0645\u0627\u0644\u0627","name:right:sk":"Mexiko","name:right:jv":"M\u00e8ksiko","name:right:fy":"Meksiko","name:left:fy":"G\u00fbatemala","name:left:bs":"Gvatemala","name:right:ja":"\u30e1\u30ad\u30b7\u30b3","name:right:sq":"Meksika","name:right:ss":"IMekisikho","name:left:ja":"\u30b0\u30a2\u30c6\u30de\u30e9","name:right:su":"M\u00e9ksiko","name:right:sw":"Mexiko","name:right:sv":"Mexico","name:right:sh":"Meksiko","name:left:qu":"Watimala","name:left:ba":"\u0413\u0432\u0430\u0442\u0435\u043c\u0430\u043b\u0430","name:right:sm":"Mexico","name:left:bg":"\u0413\u0432\u0430\u0442\u0435\u043c\u0430\u043b\u0430","name:right:so":"Meksiko","name:left:be":"\u0413\u0432\u0430\u0442\u044d\u043c\u0430\u043b\u0430","name:right:sl":"Mehika","name:right:sc":"M\u00e8ssico","name:right:se":"Meksiko","name:left:bo":"\u0f42\u0f74\u0f0b\u0f5d\u0f7a\u0f0b\u0f50\u0f72\u0f0b\u0f58\u0f0b\u0f63\u0f0d","name:left:bm":"Gatemala","name:right:co":"Messicu","name:right:ca":"M\u00e8xic","name:left:bn":"\u0997\u09c1\u09af\u09bc\u09be\u09a4\u09c7\u09ae\u09be\u09b2\u09be","name:right:ml":"\u0d2e\u0d46\u0d15\u0d4d\u0d38\u0d3f\u0d15\u0d4d\u0d15\u0d4b","name:right:ce":"\u041c\u0435\u043a\u0441\u0438\u043a\u0430","id":-1521463,"name:right:cy":"Mexico","name:right:zh-yue":"\u58a8\u897f\u54e5","id:left":-1521463,"name:right:cs":"Mexiko","name:right":"M\u00e9xico","name:right:iu":"\u14a6\u1483\u14f0\u1582","name:right:cv":"\u041c\u0435\u043a\u0441\u0438\u043a\u0430","name:right:ka":"\u10db\u10d4\u10e5\u10e1\u10d8\u10d9\u10d0","name:left:kn":"\u0c97\u0ccd\u0cb5\u0cbe\u0c9f\u0cc6\u0cae\u0cbe\u0cb2","name:right:sn":"Mexico","name:left:ar":"\u063a\u0648\u0627\u062a\u064a\u0645\u0627\u0644\u0627","name:right:tt":"\u041c\u0435\u043a\u0441\u0438\u043a\u0430","name:right:kk":"\u041c\u0435\u043a\u0441\u0438\u043a\u0430","name:right:tw":"Mexico","name:right:km":"\u1798\u17c9\u17b7\u1780\u179f\u17ca\u17b7\u1780","name:right:kl":"Mexico","name:right:ko":"\uba55\uc2dc\ucf54","name:right:kn":"\u0cae\u0cc6\u0c95\u0ccd\u0cb8\u0cbf\u0c95\u0ccb","name:right:tl":"Mehiko","name:right:ku":"Meks\u00eek","name:right:kw":"Meksiko","name:right:kv":"\u041c\u0435\u043a\u0441\u0438\u043a\u0430","name:right:ky":"\u041c\u0435\u043a\u0441\u0438\u043a\u0430","name:right:te":"\u0c2e\u0c46\u0c15\u0c4d\u0c38\u0c3f\u0c15\u0c4b","name:left:am":"\u1313\u1274\u121b\u120b","name:right:tg":"\u041c\u0435\u043a\u0441\u0438\u043a\u0430","name:left:is":"Gvatemala","name:right:ta":"\u0bae\u0bc6\u0b95\u0bcd\u0b9a\u0bbf\u0b95\u0bcd\u0b95\u0bcb","name:right:de":"Mexiko","name:right:da":"Mexico","name:right:dz":"\u0f58\u0f7a\u0f40\u0f0b\u0f66\u0f72\u0f0b\u0f40\u0f7c","name:left:ay":"Watimala","name:left:pa":"\u0a17\u0a41\u0a06\u0a24\u0a47\u0a2e\u0a3e\u0a32\u0a3e","name:right:ro":"Mexic"},"arcs":[2]},{"type":"MultiLineString","properties":{"name:right:yo":"M\u1eb9\u0301ks\u00edk\u00f2","name:left:la":"Beliza","name:right:qu":"Mishiku","name:right:dv":"\u0789\u07ac\u0786\u07b0\u0790\u07a8\u0786\u07af","name:right:yi":"\u05de\u05e2\u05e7\u05e1\u05d9\u05e7\u05d0","name:right:hy":"\u0544\u0565\u0584\u057d\u056b\u056f\u0561","name:left:su":"B\u00e9lis","name:right:hr":"Meksiko","name:left:ru":"\u0411\u0435\u043b\u0438\u0437","name:left:sq":"Beliza","name:right:hu":"Mexik\u00f3","name:left:ss":"IBhelizi","name:left:sr":"\u0411\u0435\u043b\u0438\u0437\u0435","name:right:hi":"\u092e\u0947\u0915\u094d\u0938\u093f\u0915\u094b","name:left:so":"Belise","name:left:lt":"Belizas","name:left:lv":"Beliza","name:left:vo":"Belis\u00e4n","name:left:sa":"\u092c\u0947\u0932\u0940\u091c","name:right:he":"\u05de\u05e7\u05e1\u05d9\u05e7\u05d5","name:left:hi":"\u092c\u0947\u0932\u0940\u091c\u093c","name:right:af":"Meksiko","name:left:ce":"\u0411\u0435\u043b\u0438\u0437","name:right:an":"Mexico","name:right:am":"\u121c\u12ad\u1232\u12ae","source":"openstreetmap.org","name:right:ar":"\u0627\u0644\u0645\u0643\u0633\u064a\u0643","name:left:cv":"\u0411\u0435\u043b\u0438\u0437","name:right:az":"Meksika","name:right:ay":"M\u00efxiku","name:left:ka":"\u10d1\u10d4\u10da\u10d8\u10d6\u10d8","name:left:yi":"\u05d1\u05e2\u05dc\u05d9\u05d6","name:right:ht":"Meksik","name:left:ko":"\ubca8\ub9ac\uc988","name:right:it":"Messico","name:right:is":"Mex\u00edk\u00f3","name:right:rw":"Megizike","name:right:ru":"\u041c\u0435\u043a\u0441\u0438\u043a\u0430","name:left:ku":"Bel\u00eeze","name:left:kw":"Belisa","name:right:ik":"Mexiqo","name:right:ro":"Mexic","name:right:rm":"Mexico","name:right:id":"Meksiko","name:right:ia":"Mexico","name":"Belize - M\u00e9xico","name:right:bi":"Mexico","name:right:bn":"\u09ae\u09c7\u0995\u09cd\u09b8\u09bf\u0995\u09cb","name:right:bo":"\u0f58\u0f7a\u0f42\u0f0b\u0f66\u0f72\u0f0b\u0f40\u0f7c\u0f0d","name:right:zu":"IMekisiko","name:right:bm":"M\u025bkisiki","name:right:th":"\u0e1b\u0e23\u0e30\u0e40\u0e17\u0e28\u0e40\u0e21\u0e47\u0e01\u0e0b\u0e34\u0e42\u0e01","name:right:bg":"\u041c\u0435\u043a\u0441\u0438\u043a\u043e","name:right:be":"\u041c\u0435\u043a\u0441\u0456\u043a\u0430","name:left:zh":"\u4f2f\u5229\u5179","name:right:br":"Mec'hiko","name:right:bs":"Meksiko","name:right:zh":"\u58a8\u897f\u54e5","name:right:nn":"Mexico","name:left:uz":"Beliz","name:right:nl":"Mexico","name:right:ba":"\u041c\u0435\u043a\u0441\u0438\u043a\u0430","name:right:fr":"Mexique","name:left:ps":"\u0628\u06d0\u0644\u06cc\u0632","name:left:ur":"\u0628\u06cc\u0644\u06cc\u0632","name:right:wo":"Meksik","name:right:ne":"\u092e\u0947\u0915\u094d\u0938\u093f\u0915\u094b","id:right":-114686,"name:left:uk":"\u0411\u0435\u043b\u0456\u0437","name:right:fa":"\u0645\u06a9\u0632\u06cc\u06a9","name:right:nv":"M\u00e9higo","name:right:fo":"Meksiko","name:left:ne":"\u092c\u0947\u0932\u093f\u091c","name:left:ug":"\u0628\u06d0\u0644\u0649\u0632","name:left:na":"Berij","name:left:eo":"Belizo","name:left:el":"\u039c\u03c0\u03b5\u03bb\u03af\u03b6","kind_detail":"2","alt_name:right:vi":"M\u00ea-hi-c\u00f4;M\u1ec5 T\u00e2y C\u01a1;M\u1ec5","name:left:es":"Belice","name:right:gu":"\u0aae\u0ac7\u0a95\u0acd\u0ab8\u0abf\u0a95\u0acb","name:right:zh-min-nan":"Be\u030dk-se-ko","name:right:gv":"Meksico","name:left:mk":"\u0411\u0435\u043b\u0438\u0437\u0435","name:left:tt":"\u0411\u0435\u043b\u0438\u0437","name:left:mn":"\u0411\u0435\u043b\u0438\u0437","name:right:oc":"Mexic","name:left:ml":"\u0d2c\u0d46\u0d32\u0d40\u0d38\u0d4d","name:left:th":"\u0e1b\u0e23\u0e30\u0e40\u0e17\u0e28\u0e40\u0e1a\u0e25\u0e35\u0e0b","name:right:pa":"\u0a2e\u0a48\u0a15\u0a38\u0a40\u0a15\u0a4b","name:left:tl":"Belise","name:right:tr":"Meksika","name:left:mt":"Beli\u017ce","name:left:ta":"\u0baa\u0bc6\u0bb2\u0bc0\u0b9a\u0bc1","name:left:my":"\u1018\u101c\u102d\u1007\u103a\u1014\u102d\u102f\u1004\u103a\u1004\u1036","name:right:gn":"M\u00e9jiko","name:right:pl":"Meksyk","name:left:te":"\u0c2c\u0c46\u0c32\u0c3f\u0c1c\u0c4d","osm_relation":true,"name:left:tg":"\u0411\u0435\u043b\u0438\u0437","name:left:mr":"\u092c\u0947\u0932\u093f\u091d","name:left:zh-yue":"\u4f2f\u5229\u8332","name:left:dz":"\u0f56\u0f7a\u0f0b\u0f63\u0f72\u0f5b\u0f0d","name:right:ga":"Meicsiceo","name:left:az":"Beliz","name:left:dv":"\u0784\u07ac\u078d\u07a9\u0792\u07aa","name:left:yo":"B\u1eb9\u0300l\u00eds\u00e8","name:right:ug":"\u0645\u06d0\u0643\u0633\u0649\u0643\u0627","name:right:la":"Mexicum","name:right:lb":"Mexiko","name:right:no":"Mexico","name:right:uk":"\u041c\u0435\u043a\u0441\u0438\u043a\u0430","name:left:he":"\u05d1\u05dc\u05d9\u05d6","name:right:ln":"Mexiko","name:right:tk":"Meksika","name:right:li":"Mexico","name:right:lt":"Meksika","name:right:ur":"\u0645\u06cc\u06a9\u0633\u06cc\u06a9\u0648","name:right:lv":"Meksika","name:left:hy":"\u0532\u0565\u056c\u056b\u0566","name:left:ht":"Beliz","name:right:uz":"Meksika","name:left:wo":"Beliis","name:left:ga":"An Bheil\u00eds","name:left:gd":"Beilise","sort_rank":262,"name:right:gd":"Meagsago","name:left:gl":"Belice","name:left:gn":"Mbelise","name:right:os":"\u041c\u0435\u043a\u0441\u0438\u043a\u00e6","name:left:gv":"Yn Veleesh","name:right:or":"\u0b2e\u0b47\u0b15\u0b4d\u0b38\u0b3f\u0b15\u0b4b","name:left":"Belize","name:right:mk":"\u041c\u0435\u043a\u0441\u0438\u043a\u043e","name:right:mi":"Mehiko","name:right:sr":"\u041c\u0435\u043a\u0441\u0438\u043a\u043e","name:right:mn":"\u041c\u0435\u043a\u0441\u0438\u043a","name:right:eu":"Mexiko","name:right:et":"Mehhiko","name:right:vo":"M\u00e4xik\u00e4n","name:left:os":"\u0411\u0435\u043b\u0438\u0437","name:left:or":"\u0b2c\u0b47\u0b32\u0b3f\u0b1c","name:right:mg":"Meksika","name:right:my":"\u1019\u1000\u1039\u1000\u1006\u102e\u1000\u102d\u102f\u1014\u102d\u102f\u1004\u103a\u1004\u1036","name:right:ee":"Mexico","name:right:ms":"Mexico","name:right:mr":"\u092e\u0947\u0915\u094d\u0938\u093f\u0915\u094b","min_zoom":8.0,"name:right:na":"Meketiko","name:right:eo":"Meksiko","name:right:en":"Mexico","name:right:mt":"Messiku","kind":"country","name:left:fa":"\u0628\u0644\u06cc\u0632","name:left:fo":"Belis","name:left:qu":"Bilisi","name:right:jv":"M\u00e8ksiko","name:right:fy":"Meksiko","name:left:bg":"\u0411\u0435\u043b\u0438\u0437","name:left:bs":"Beliz","name:right:ja":"\u30e1\u30ad\u30b7\u30b3","name:right:sq":"Meksika","name:right:ss":"IMekisikho","name:left:ja":"\u30d9\u30ea\u30fc\u30ba","name:right:su":"M\u00e9ksiko","name:right:sw":"Mexiko","name:right:sv":"Mexico","name:right:sh":"Meksiko","name:right:sk":"Mexiko","name:left:ba":"\u0411\u0435\u043b\u0438\u0437","name:right:sm":"Mexico","name:right:sl":"Mehika","name:right:so":"Meksiko","name:left:be":"\u0411\u0435\u043b\u0456\u0437","name:right:sc":"M\u00e8ssico","name:right:se":"Meksiko","name:left:bo":"\u0f56\u0f7a\u0f0b\u0f63\u0f72\u0f0b\u0f5b\u0f72\u0f0d","name:right":"M\u00e9xico","name:right:co":"Messicu","name:right:ca":"M\u00e8xic","name:left:bn":"\u09ac\u09c7\u09b2\u09bf\u099c","name:right:ml":"\u0d2e\u0d46\u0d15\u0d4d\u0d38\u0d3f\u0d15\u0d4d\u0d15\u0d4b","name:right:ce":"\u041c\u0435\u043a\u0441\u0438\u043a\u0430","id":-287827,"name:right:cy":"Mexico","name:right:zh-yue":"\u58a8\u897f\u54e5","id:left":-287827,"name:right:cs":"Mexiko","name:right:fi":"Meksiko","name:right:iu":"\u14a6\u1483\u14f0\u1582","name:right:cv":"\u041c\u0435\u043a\u0441\u0438\u043a\u0430","name:right:ka":"\u10db\u10d4\u10e5\u10e1\u10d8\u10d9\u10d0","name:left:kn":"\u0cac\u0cc6\u0cb2\u0cc0\u0c9c\u0ccd","name:right:sn":"Mexico","name:left:ar":"\u0628\u0644\u064a\u0632","name:right:tt":"\u041c\u0435\u043a\u0441\u0438\u043a\u0430","name:right:kk":"\u041c\u0435\u043a\u0441\u0438\u043a\u0430","name:right:tw":"Mexico","name:right:km":"\u1798\u17c9\u17b7\u1780\u179f\u17ca\u17b7\u1780","name:right:kl":"Mexico","name:right:ko":"\uba55\uc2dc\ucf54","name:right:kn":"\u0cae\u0cc6\u0c95\u0ccd\u0cb8\u0cbf\u0c95\u0ccb","name:right:tl":"Mehiko","name:right:ku":"Meks\u00eek","name:right:kw":"Meksiko","name:right:kv":"\u041c\u0435\u043a\u0441\u0438\u043a\u0430","name:right:ky":"\u041c\u0435\u043a\u0441\u0438\u043a\u0430","name:right:te":"\u0c2e\u0c46\u0c15\u0c4d\u0c38\u0c3f\u0c15\u0c4b","name:left:am":"\u1264\u120a\u12dd","name:right:tg":"\u041c\u0435\u043a\u0441\u0438\u043a\u0430","name:left:is":"Bel\u00eds","name:right:ta":"\u0bae\u0bc6\u0b95\u0bcd\u0b9a\u0bbf\u0b95\u0bcd\u0b95\u0bcb","name:right:io":"Mexikia","name:right:de":"Mexiko","name:right:da":"Mexico","name:right:el":"\u039c\u03b5\u03be\u03b9\u03ba\u03cc","name:right:dz":"\u0f58\u0f7a\u0f40\u0f0b\u0f66\u0f72\u0f0b\u0f40\u0f7c","name:left:ay":"Wilisi","name:left:pa":"\u0a2c\u0a47\u0a32\u0a40\u0a1c\u0a3c"},"arcs":[[3],[4]]},{"type":"LineString","properties":{"name:right:uk":"\u041a\u0430\u043c\u043f\u0435\u0447\u0435","name:right:ru":"\u041a\u0430\u043c\u043f\u0435\u0447\u0435","name:left:uk":"\u041a\u0456\u043d\u0442\u0430\u043d\u0430-\u0420\u043e\u043e","min_zoom":8.0,"name:left:ru":"\u041a\u0438\u043d\u0442\u0430\u043d\u0430-\u0420\u043e\u043e","id:right":-2568834,"id":-2614434,"osm_relation":true,"name:right":"Campeche","kind":"region","name":"Quintana Roo - Campeche","sort_rank":256,"kind_detail":"4","source":"openstreetmap.org","id:left":-2614434,"name:left":"Quintana Roo"},"arcs":[5]},{"type":"MultiLineString","properties":{"kind":"region","name":"Quintana Roo","sort_rank":256,"kind_detail":"4","source":"openstreetmap.org","min_zoom":8.0,"name:uk":"\u041a\u0456\u043d\u0442\u0430\u043d\u0430-\u0420\u043e\u043e","name:ru":"\u041a\u0438\u043d\u0442\u0430\u043d\u0430-\u0420\u043e\u043e","id":-2614434,"osm_relation":true},"arcs":[[6],[7]]},{"type":"LineString","properties":{"kind":"region","name":"Campeche - Pet\u00e9n","sort_rank":256,"kind_detail":"4","id:left":-2568834,"id:right":-214699,"name:left:uk":"\u041a\u0430\u043c\u043f\u0435\u0447\u0435","source":"openstreetmap.org","min_zoom":8.0,"name:left:ru":"\u041a\u0430\u043c\u043f\u0435\u0447\u0435","name:left":"Campeche","id":-2568834,"osm_relation":true,"name:right":"Pet\u00e9n"},"arcs":[8]},{"type":"LineString","properties":{"kind":"region","name":"Campeche - Pet\u00e9n","sort_rank":256,"kind_detail":"4","id:left":-2568834,"id:right":-214699,"name:left:uk":"\u041a\u0430\u043c\u043f\u0435\u0447\u0435","source":"openstreetmap.org","min_zoom":8.0,"name:left:ru":"\u041a\u0430\u043c\u043f\u0435\u0447\u0435","name:left":"Campeche","id":-2568834,"osm_relation":true,"name:right":"Pet\u00e9n"},"arcs":[9]},{"type":"LineString","properties":{"kind":"region","name":"Campeche","sort_rank":256,"kind_detail":"4","source":"openstreetmap.org","min_zoom":8.0,"name:uk":"\u041a\u0430\u043c\u043f\u0435\u0447\u0435","name:ru":"\u041a\u0430\u043c\u043f\u0435\u0447\u0435","id":-2568834,"osm_relation":true},"arcs":[10]},{"type":"LineString","properties":{"kind":"region","name":"Toledo - Cayo","sort_rank":256,"kind_detail":"4","id:right":-962357,"source":"openstreetmap.org","min_zoom":8.0,"id:left":-962358,"name:left":"Toledo","id":-962358,"osm_relation":true,"name:right":"Cayo"},"arcs":[11]},{"type":"LineString","properties":{"kind":"region","name":"Toledo - Stann Creek","sort_rank":256,"kind_detail":"4","id:right":-962353,"source":"openstreetmap.org","min_zoom":8.0,"id:left":-962358,"name:left":"Toledo","id":-962358,"osm_relation":true,"name:right":"Stann Creek"},"arcs":[12]},{"type":"MultiLineString","properties":{"kind":"region","name":"Cayo - Stann Creek","sort_rank":256,"kind_detail":"4","id:right":-962353,"source":"openstreetmap.org","min_zoom":8.0,"id:left":-962357,"name:left":"Cayo","id":-962357,"osm_relation":true,"name:right":"Stann Creek"},"arcs":[[13],[14]]},{"type":"LineString","properties":{"kind":"region","name":"Cayo - Pet\u00e9n","sort_rank":256,"kind_detail":"4","id:right":-214699,"source":"openstreetmap.org","min_zoom":8.0,"id:left":-962357,"name:left":"Cayo","id":-962357,"osm_relation":true,"name:right":"Pet\u00e9n"},"arcs":[15]},{"type":"LineString","properties":{"kind":"region","name":"Cayo","sort_rank":256,"kind_detail":"4","source":"openstreetmap.org","min_zoom":8.0,"id":-962357,"osm_relation":true},"arcs":[16]},{"type":"LineString","properties":{"kind":"region","name":"Pet\u00e9n","sort_rank":256,"kind_detail":"4","source":"openstreetmap.org","min_zoom":8.0,"id":-214699,"osm_relation":true},"arcs":[17]}]},"roads":{"type":"GeometryCollection","geometries":[{"type":"MultiLineString","properties":{"sort_rank":380,"kind_detail":"primary","min_zoom":8.0,"kind":"major_road","source":"openstreetmap.org"},"arcs":[[18],[19],[20],[21],[22],[23],[24],[25],[26],[27],[28],[29],[30],[31],[32],[33],[34],[35],[36],[37],[38],[39],[40],[41],[42],[43],[44],[45],[46],[47],[48],[49]]},{"type":"MultiLineString","properties":{"sort_rank":355,"source":"openstreetmap.org","min_zoom":8.0,"kind":"ferry"},"arcs":[[50],[51],[52],[53],[54],[55],[56],[57],[58]]},{"type":"LineString","properties":{"source":"openstreetmap.org","kind":"major_road","sort_rank":380,"kind_detail":"primary","is_bicycle_related":true,"min_zoom":8.0},"arcs":[59]}]},"earth":{"type":"GeometryCollection","geometries":[{"type":"MultiPolygon","properties":{"sort_rank":10,"source":"naturalearthdata.com","min_zoom":0.0,"kind":"earth","area":68021412219},"arcs":[[[60]]]}]},"landuse":{"type":"GeometryCollection","geometries":[{"type":"MultiPolygon","properties":{"source":"openstreetmap.org","kind":"nature_reserve","tier":2,"area":1433979953,"sort_rank":23,"min_zoom":6.0,"osm_relation":true},"arcs":[[[61]],[[62]],[[63]],[[64]]]},{"type":"Polygon","properties":{"kind":"protected_area","area":12289300,"sort_rank":17,"source":"openstreetmap.org","min_zoom":8.0,"tier":2,"id":-547223,"osm_relation":true},"arcs":[[65]]},{"type":"Polygon","properties":{"kind":"park","protect_class":"4","area":542502016,"sort_rank":24,"operator":"Belize Audubon Society","source":"openstreetmap.org","min_zoom":6.0,"tier":2,"id":266161410},"arcs":[[66]]},{"type":"Polygon","properties":{"source":"openstreetmap.org","kind":"park","tier":2,"area":1041078895,"sort_rank":24,"min_zoom":6.0,"osm_relation":true},"arcs":[[67]]},{"type":"Polygon","properties":{"kind":"national_park","area":1305799936,"sort_rank":18,"source":"openstreetmap.org","min_zoom":3.0,"tier":1,"id":-546716,"osm_relation":true},"arcs":[[68]]},{"type":"Polygon","properties":{"source":"openstreetmap.org","kind":"park","area":588312000,"tier":2,"id":254307387,"min_zoom":6.0,"sort_rank":24},"arcs":[[69]]},{"type":"MultiPolygon","properties":{"kind":"national_park","protect_class":"2","area":1210829952,"sort_rank":18,"operator":"Forest Department","source":"openstreetmap.org","min_zoom":3.0,"tier":1,"id":-2958267,"osm_relation":true},"arcs":[[[70]],[[71]]]},{"type":"MultiPolygon","properties":{"kind":"national_park","tier":1,"protect_class":"2","area":153409360,"sort_rank":18,"source":"openstreetmap.org","min_zoom":8.0,"operator":"Forest Department"},"arcs":[[[72]],[[73]]]},{"type":"Polygon","properties":{"source":"openstreetmap.org","kind":"nature_reserve","area":621601984,"tier":2,"id":151130076,"min_zoom":6.0,"sort_rank":23},"arcs":[[74]]},{"type":"Polygon","properties":{"kind":"national_park","protect_class":"2","area":118601000,"sort_rank":18,"operator":"Institute of Culture and History \/ Institute of Archaeology","source":"openstreetmap.org","min_zoom":7.0,"tier":1,"id":-2958266,"osm_relation":true},"arcs":[[75]]},{"type":"Polygon","properties":{"kind":"nature_reserve","protect_class":"1","area":28031700,"sort_rank":23,"operator":"Belize Audubon Society","source":"openstreetmap.org","min_zoom":8.0,"tier":2,"id":207600764},"arcs":[[76]]}]}},"type":"Topology","transform":{"translate":[-90.0,16.6361918784],"scale":[0.0003433228,0.0003277689]},"arcs":[[[2394,0],[82,1290],[-6,2308]],[[1830,3598],[-1830,1]],[[2470,3598],[-640,0]],[[3537,4096],[-86,-87],[-45,-4],[-84,-72],[16,-47],[-17,-47],[-66,5],[-8,35],[-32,-5],[-30,30],[-21,-16],[-58,63],[9,31],[-22,-2],[-19,56],[-44,-22],[-69,19],[-11,-33],[-49,77],[5,19]],[[2621,4096],[-33,-27],[-65,4],[-7,-48],[-46,-49],[0,-378]],[[2310,4096],[3,-75],[156,-2],[1,-43]],[[2470,3976],[46,49],[10,51],[62,-7],[33,27]],[[2906,4096],[-5,-19],[49,-77],[11,33],[69,-19],[44,22],[19,-56],[22,2],[-9,-31],[58,-63],[21,16],[30,-30],[32,5],[8,-35],[66,-5],[17,47],[-16,47],[84,72],[45,4],[86,87]],[[0,3599],[1830,-1]],[[1830,3598],[640,0]],[[2470,3598],[0,378]],[[3597,149],[-87,-32],[-18,-60],[-43,-14],[8,-43]],[[4096,104],[-130,75],[-163,-27],[-161,24],[-45,-27]],[[3597,149],[-14,78],[129,245],[177,69],[-9,28],[-53,21],[11,42],[58,10],[5,198],[61,80],[43,10],[16,65],[70,36],[5,14]],[[4096,1372],[-13,20],[13,22]],[[2474,2072],[2,-782],[-82,-1290]],[[4096,2611],[-21,2],[-2,-34],[-31,4],[29,-19],[1,-62],[-22,26],[-112,-16],[-47,-54],[-25,19],[-85,-29],[-55,-70],[-66,-23],[-125,18],[-36,-21],[-116,4],[-108,25],[-97,-104],[-60,-14],[-86,12],[-237,-50],[-71,46],[-158,-101],[-92,-98]],[[2474,2072],[-4,1526]],[[2473,1286],[-3,0]],[[2505,1324],[14,14]],[[2694,1569]],[[2695,1570],[-1,0]],[[2694,1570],[1,-1],[0,1],[-1,0]],[[2695,1570]],[[2695,1570],[2,37]],[[2738,1635],[-41,-28]],[[2697,1607],[1,-30]],[[2712,1588],[37,24]],[[2738,1635],[17,-16]],[[2755,1620],[-17,15]],[[2749,1612],[6,7]],[[2755,1619],[-6,-7]],[[2757,1621],[-2,-1]],[[2756,1619],[1,2]],[[3531,1907],[-52,-9],[-138,-99],[-204,-3],[-61,-55],[-296,-89],[-23,-31]],[[3540,1874],[-8,33]],[[4096,2027],[-80,-69],[-442,-5],[-42,-46]],[[3547,1847],[-7,27]],[[3547,1847],[0,-2]],[[3548,1846],[-1,1]],[[3547,1845],[1,-2]],[[3548,1843],[0,2]],[[3548,1843],[23,-129],[48,-61],[-5,-43],[85,-55],[98,3],[34,36],[67,-23],[39,-53],[-34,-75],[6,-54],[157,-14],[30,-42]],[[3707,4096],[-16,-103],[-116,-221]],[[2755,1620],[0,-1],[1,0]],[[2756,1619],[-1,1]],[[3532,1907],[0,1],[-1,-1]],[[3531,1907],[1,0]],[[3539,1874],[1,0],[-1,0]],[[3547,1846],[0,-1],[1,-1],[0,1],[-1,1]],[[261,1006],[31,46]],[[292,1052],[1,0]],[[281,924],[-1,5]],[[280,929],[-18,76]],[[316,885],[-36,44]],[[280,929],[-7,8]],[[285,964],[7,88]],[[292,1052],[0,1]],[[317,884],[67,3]],[[2694,1570],[-221,-284]],[[0,4096],[4096,0],[0,-4096],[-2312,0],[-1784,0],[0,4096]],[[2214,0],[30,12],[22,383],[57,45],[-50,33],[-58,103],[-33,-9],[13,25],[-35,44],[57,56],[-35,42],[271,188],[-59,-922],[-180,0]],[[679,3598],[777,0],[0,-442],[-776,306],[-1,136]],[[338,1494],[0,661],[405,0],[0,-661],[-405,0]],[[1415,2181],[13,81],[91,71],[3,33],[-35,34],[8,166],[-34,31],[7,105],[115,251],[39,1],[14,161],[32,31],[528,0],[-52,-79],[-190,-66],[-132,-80],[-86,-128],[-72,-377],[-3,-652],[-110,-33],[-4,-38],[-29,28],[-15,155],[-52,40],[1,213],[-32,0],[-5,52]],[[2381,1919],[93,0],[1,-90],[-93,0],[-1,90]],[[3457,0],[-8,43],[43,14],[18,60],[92,21],[-25,42],[11,60],[54,84],[-6,35],[110,143],[98,27],[3,-18],[249,2],[0,-349],[-20,-4],[-48,36],[-43,-30],[-28,22],[-197,-31],[1,-157],[-304,0]],[[1451,1916],[52,-40],[25,-176],[19,-7],[4,38],[75,32],[90,14],[104,-72],[70,37],[64,-44],[54,-92],[65,14],[26,-45],[51,-8],[49,-47],[-217,-122],[-50,-83],[-55,-40],[-88,11],[-25,-25],[-55,28],[-31,-52],[-114,10],[-16,58],[-96,-19],[-2,183],[-657,-1],[0,662],[659,-1],[-1,-213]],[[0,3147],[1,452],[678,-1],[1,-136],[776,-306],[0,442],[1014,0],[1,-452],[-2471,1]],[[2670,0],[126,359],[-82,-1],[-2,193],[97,143],[15,-28],[42,28],[11,-40],[56,1],[44,36],[76,15],[-32,-43],[52,-33],[-9,-44],[37,-53],[9,-83],[109,-33],[-2,-417],[-547,0]],[[2394,0],[17,257],[277,3],[-4,307],[-253,-2],[9,137],[373,4],[-17,-60],[-84,-95],[2,-193],[82,1],[-126,-359],[-276,0]],[[3217,0],[13,729],[118,135],[39,-13],[68,39],[130,14],[44,145],[45,-7],[43,-73],[-23,-47],[27,-94],[-18,-70],[67,9],[49,-39],[77,5],[0,-91],[-58,-10],[-11,-42],[65,-37],[-44,0],[0,-25],[-136,-56],[-129,-245],[19,-89],[-92,-21],[-18,-60],[-43,-14],[8,-43],[-240,0]],[[2736,1177],[3,79],[124,84],[155,30],[108,-34],[-43,-33],[60,-66],[-91,35],[-98,-10],[-16,32],[-96,-19],[43,-76],[-75,-74],[-74,52]],[[4096,1534],[0,-81],[-38,-31],[-11,37],[37,73],[12,2]],[[2470,3598],[398,205],[325,-206],[269,1],[-6,-484],[-90,-46],[-63,24],[0,181],[-832,5],[-1,320]],[[2411,257],[20,308],[253,2],[4,-307],[-277,-3]],[[3134,1465],[84,18],[-11,46],[120,75],[24,-41],[-2,-54],[-41,-1],[23,-88],[-104,22],[-83,-15],[-10,38]]]}