{"objects":{"water":{"type":"GeometryCollection","geometries":[{"type":"MultiPolygon","properties":{"source":"naturalearthdata.com","kind":"ocean","area":1576712559132672,"sort_rank":200,"min_zoom":0.0,"id":1},"arcs":[[[15]],[[16]],[[17]]]},{"type":"MultiLineString","properties":{"source":"naturalearthdata.com","kind":"ocean","sort_rank":205,"boundary":true,"min_zoom":0.0,"id":72},"arcs":[[18],[19],[20]]},{"type":"LineString","properties":{"source":"naturalearthdata.com","kind":"lake","sort_rank":367,"boundary":true,"min_zoom":0.0,"id":316},"arcs":[21]}]},"buildings":{"type":"GeometryCollection","geometries":[]},"places":{"type":"GeometryCollection","geometries":[{"type":"Point","properties":{"name:ps":"\u0633\u0627\u0644\u0648\u06d0\u0689\u0648\u0631","name:cy":"El Salfador","name:ko":"\uc5d8\uc0b4\ubc14\ub3c4\ub974","name:kn":"\u0c8e\u0cb2\u0ccd \u0cb8\u0cbe\u0cb2\u0ccd\u0cb5\u0cc7\u0ca1\u0cbe\u0cb0\u0ccd","name:km":"\u17a2\u17c2\u179b\u179f\u17b6\u179b\u17cb\u179c\u17c9\u17b6\u178c\u17d0\u179a","name:cs":"Salvador","name:ki":"Elsavado","name:th":"\u0e1b\u0e23\u0e30\u0e40\u0e17\u0e28\u0e40\u0e2d\u0e25\u0e0b\u0e31\u0e25\u0e27\u0e32\u0e14\u0e2d\u0e23\u0e4c","name:ti":"\u12a4\u120d \u1233\u120d\u126b\u12f6\u122d","name:ks":"\u0627\u066e\u06ea\u0644 \u0633\u064e\u0644\u0648\u0627\u0691\u0648\u0631","name:to":"\u02bbEle Salavatoa","name:pa":"\u0a38\u0a3e\u0a32\u0a35\u0a3e\u0a26\u0a4b\u0a30","name:os":"\u0421\u0430\u043b\u044c\u0432\u0430\u0434\u043e\u0440","name:or":"\u0b0f\u0b32\u0b4d \u0b38\u0b3e\u0b32\u0b2d\u0b3e\u0b21\u0b4b\u0b30\u0b4d","name:ce":"\u0421\u0430\u043b\u044c\u0432\u0430\u0434\u043e\u0440","name:ta":"\u0b8e\u0bb2\u0bcd \u0b9a\u0bbe\u0bb2\u0bcd\u0bb5\u0b9f\u0bbe\u0bb0\u0bcd","name:tg":"\u0421\u0430\u043b\u0432\u0430\u0434\u043e\u0440","name:te":"\u0c0e\u0c32\u0c4d \u0c38\u0c3e\u0c32\u0c4d\u0c35\u0c21\u0c4b\u0c30\u0c4d","name:ka":"\u10e1\u10d0\u10da\u10d5\u10d0\u10d3\u10dd\u10e0\u10d8","name:hr":"Salvador","name:ln":"Savad\u0254r\u025b","name:sr":"\u0421\u0430\u043b\u0432\u0430\u0434\u043e\u0440","name:dz":"\u0f68\u0f7a\u0f63\u0f0b\u0f66\u0f63\u0f0b\u0f56\u0f0b\u0f4c\u0f7c\u0f62","source":"openstreetmap.org","name:dv":"\u0787\u07ac\u078d\u07b0\u0790\u07ac\u078d\u07b0\u0788\u07a6\u0791\u07af\u0783\u07aa","name:lv":"Salvadora","name:lt":"Salvadoras","name:hi":"\u0905\u0932 \u0938\u093e\u0932\u094d\u0935\u093e\u0921\u094b\u0930","name:kk":"\u042d\u043b\u044c-\u0421\u0430\u043b\u044c\u0432\u0430\u0434\u043e\u0440 \u0420\u0435\u0441\u043f\u0443\u0431\u043b\u0438\u043a\u0430\u0441\u044b","name:he":"\u05d0\u05dc \u05e1\u05dc\u05d1\u05d3\u05d5\u05e8","kind":"country","name:ur":"\u0627\u0644 \u0633\u0644\u0648\u0627\u0688\u0648\u0631","name:la":"Salvatoria","name:lg":"El salivado","name:uk":"\u0421\u0430\u043b\u044c\u0432\u0430\u0434\u043e\u0440","name:hy":"\u054d\u0561\u056c\u057e\u0561\u0564\u0578\u0580","name:ug":"\u0626\u06d5\u0644 \u0633\u0627\u0644\u06cb\u0627\u062f\u0648\u0631","name:qu":"Salwadur","name:lo":"\u0ead\u0eb5\u0ec1\u0ead\u0ea7 \u0e8a\u0ecd\u0ea7\u0eb2\u0e94\u0ecd","name:oc":"Lo Salvador","population":6000000,"name:el":"\u0395\u03bb \u03a3\u03b1\u03bb\u03b2\u03b1\u03b4\u03cc\u03c1","name:eo":"Salvadoro","name":"El Salvador","official_name":"Rep\u00fablica de El Salvador","name:ee":"El Salvad\u0254 nutome","min_zoom":2.0,"name:yi":"\u05e2\u05dc \u05e1\u05d0\u05dc\u05d5\u05d5\u05d0\u05d3\u05d0\u05e8","name:yo":"Or\u00edl\u1eb9\u0301\u00e8de \u1eb8\u1eb9s\u00e1f\u00e1d\u00f2","name:rn":"Eli Saluvatori","name:az":"Salvador","name:mr":"\u0905\u0932 \u0938\u093e\u0932\u094d\u0935\u093e\u0921\u094b\u0930","name:ar":"\u0627\u0644\u0633\u0644\u0641\u0627\u062f\u0648\u0631","name:my":"\u1021\u101a\u103a\u101c\u103a\u1006\u102c\u1017\u1031\u1038\u1012\u102d\u102f\u1038","name:io":"Salvadoria","name:ak":"\u0190l Salvad\u0254","name:am":"\u12a4\u120d \u1233\u120d\u126b\u12f6\u122d","name:ml":"\u0d0e\u0d7d \u0d38\u0d3e\u0d7d\u0d35\u0d26\u0d4b\u0d7c","name:ru":"\u0421\u0430\u043b\u044c\u0432\u0430\u0434\u043e\u0440","name:rw":"Saluvadoro","name:pl":"Salwador","name:mk":"\u0415\u043b \u0421\u0430\u043b\u0432\u0430\u0434\u043e\u0440","name:af":"Salvador","name:zu":"i-El Salvador","name:ha":"El Salbador","name:mn":"\u042d\u043b\u044c \u0421\u0430\u043b\u044c\u0432\u0430\u0434\u043e\u0440","name:ff":"El Salwador","id":424311802,"alt_name:vi":"En Xan-va-\u0111o","name:fr":"Salvador","name:wo":"Salbadoor","name:zh-yue":"\u85a9\u723e\u74e6\u591a","name:vo":"Salvador\u00e4n","name:zh":"\u8428\u5c14\u74e6\u591a","name:so":"El Salfador","name:sl":"Salvador","name:sk":"Salv\u00e1dor","name:ja":"\u30a8\u30eb\u30b5\u30eb\u30d0\u30c9\u30eb","name:si":"\u0d91\u0dbd\u0dca \u0dc3\u0dd0\u0dbd\u0dca\u0dc0\u0daf\u0ddd\u0dbb\u0dba","name:sh":"Salvador","name:sg":"Salvad\u00f6ro","name:na":"Ersarbador","name:ne":"\u090f\u0932\u094d \u0938\u093e\u0932\u094d\u092d\u093e\u0921\u094b\u0930","name:sa":"\u090f\u0932-\u0938\u093e\u0932\u094d\u0935\u093e\u0921\u094b\u0930","name:bs":"Salvador","name:bm":"Salivad\u0254r","name:bn":"\u098f\u09b2 \u09b8\u09be\u09b2\u09ad\u09c7\u09a6\u09b0","name:bo":"\u0f68\u0f7a\u0f63\u0f0d \u0f66\u0f71\u0f63\u0f0b\u0f5d\u0f0b\u0f4c\u0f7c\u0f62\u0f0d","name:br":"Salvador","name:sw":"Elsavado","name:be":"\u042d\u043b\u044c-\u0421\u0430\u043b\u044c\u0432\u0430\u0434\u043e\u0440","name:su":"\u00c9l Salvador","name:bg":"\u0415\u043b \u0421\u0430\u043b\u0432\u0430\u0434\u043e\u0440","name:ss":"ISalivado","name:ba":"\u0421\u0430\u043b\u044c\u0432\u0430\u0434\u043e\u0440","name:sq":"Salvadori","name:ga":"An tSalvad\u00f3ir","name:gd":"El Salbhador","name:ht":"Salvad\u00f2","name:gn":"Salvador","name:gl":"O Salvador - El Salvador","name:fa":"\u0627\u0644\u0633\u0627\u0644\u0648\u0627\u062f\u0648\u0631","name:gv":"Yn Salvador","name:gu":"\u0a8f\u0ab2 \u0ab8\u0ac7\u0ab2\u0acd\u0ab5\u0abe\u0aa1\u0acb\u0ab0","name:tt":"\u0421\u0430\u043b\u044c\u0432\u0430\u0434\u043e\u0440"},"coordinates":[3163,3727]},{"type":"Point","properties":{"name:pt":"S\u00e3o Salvador","name:ka":"\u10e1\u10d0\u10dc-\u10e1\u10d0\u10da\u10d5\u10d0\u10d3\u10dd\u10e0\u10d8","name:mr":"\u0938\u093e\u0928 \u0938\u093e\u0932\u094d\u0935\u094d\u0939\u093e\u0921\u094b\u0930","name:ko":"\uc0b0\uc0b4\ubc14\ub3c4\ub974","name:ar":"\u0633\u0627\u0646 \u0633\u0644\u0641\u0627\u062f\u0648\u0631","name:th":"\u0e0b\u0e31\u0e19\u0e0b\u0e31\u0e25\u0e27\u0e32\u0e14\u0e2d\u0e23\u0e4c","name:am":"\u1233\u1295 \u1233\u120d\u126b\u12f6\u122d","name:os":"\u0421\u0430\u043d-\u0421\u0430\u043b\u044c\u0432\u0430\u0434\u043e\u0440","name:ru":"\u0421\u0430\u043d-\u0421\u0430\u043b\u044c\u0432\u0430\u0434\u043e\u0440","name:ta":"\u0b9a\u0bbe\u0ba9\u0bcd \u0b9a\u0bb2\u0bcd\u0bb5\u0b9f\u0bcb\u0bb0\u0bcd","id":197701710,"name:mk":"\u0421\u0430\u043d \u0421\u0430\u043b\u0432\u0430\u0434\u043e\u0440","name:fa":"\u0633\u0627\u0646 \u0633\u0627\u0644\u0648\u0627\u062f\u0648\u0631","kind_detail":"city","source":"openstreetmap.org","name:zh":"\u8056\u85a9\u723e\u74e6\u591a","admin_level":"2","name:lv":"Sansalvadora","name:ja":"\u30b5\u30f3\u30b5\u30eb\u30d0\u30c9\u30eb","name:lt":"San Salvadoras","name:he":"\u05e1\u05df \u05e1\u05dc\u05d5\u05d5\u05d3\u05d5\u05e8","kind":"locality","name:ur":"\u0633\u0627\u0646 \u0633\u0644\u0648\u0627\u0688\u0648\u0631","name:la":"Urbs Sancti Salvatoris","name:uk":"\u0421\u0430\u043d-\u0421\u0430\u043b\u044c\u0432\u0430\u0434\u043e\u0440","name:hy":"\u054d\u0561\u0576 \u054d\u0561\u056c\u057e\u0561\u0564\u0578\u0580","country_capital":true,"name:be":"\u0421\u0430\u043d-\u0421\u0430\u043b\u044c\u0432\u0430\u0434\u043e\u0440","name:ug":"\u0633\u0627\u0646 \u0633\u0627\u0644\u06cb\u0627\u062f\u0648\u0631","name:bg":"\u0421\u0430\u043d \u0421\u0430\u043b\u0432\u0430\u0434\u043e\u0440","name:sr":"\u0421\u0430\u043d \u0421\u0430\u043b\u0432\u0430\u0434\u043e\u0440","name:sq":"San Salvadori","population":567698,"name:el":"\u03a3\u03b1\u03bd \u03a3\u03b1\u03bb\u03b2\u03b1\u03b4\u03cc\u03c1","name:eo":"San-Salvadoro","name":"San Salvador","name:ht":"San Salvad\u00f2","min_zoom":8.0,"name:bo":"\u0f66\u0f53\u0f0b\u0f66\u0f63\u0f0b\u0f5d\u0f0b\u0f4c\u0f7c\u0f62\u0f0d"},"coordinates":[2351,3421]},{"type":"Point","properties":{"kind":"locality","name":"Santa Tecla","kind_detail":"city","source":"openstreetmap.org","min_zoom":8.0,"name:ru":"\u0421\u0430\u043d\u0442\u0430-\u0422\u0435\u043a\u043b\u0430","id":446299774,"population":133255},"coordinates":[2075,3351]},{"type":"Point","properties":{"source":"openstreetmap.org","kind":"locality","name":"Sonsonate","kind_detail":"city","population":110501,"min_zoom":8.0,"id":322789099},"coordinates":[793,3488]},{"type":"Point","properties":{"kind":"locality","name":"Sensuntepeque","kind_detail":"city","source":"openstreetmap.org","min_zoom":8.0,"name:ru":"\u0421\u0435\u043d\u0441\u0443\u043d\u0442\u0435\u043f\u0435\u043a\u0435","id":2512895232,"population":41000},"coordinates":[3995,3955]},{"type":"Point","properties":{"source":"openstreetmap.org","kind":"locality","name":"Ayutuxtepeque","kind_detail":"town","population":60,"min_zoom":8.0,"id":4373274998},"coordinates":[2328,3534]},{"type":"Point","properties":{"source":"openstreetmap.org","kind":"locality","name":"Quezaltepeque","kind_detail":"town","min_zoom":8.0,"id":442155037},"coordinates":[2120,3820]}]},"transit":{"type":"GeometryCollection","geometries":[]},"pois":{"type":"GeometryCollection","geometries":[]},"boundaries":{"type":"GeometryCollection","geometries":[{"type":"LineString","properties":{"name:ps":"\u0627\u06d0\u0644\u0633\u0644\u0648\u0627\u062f\u0648\u0631","name:ka":"\u10e1\u10d0\u10da\u10d5\u10d0\u10d3\u10dd\u10e0\u10d8","name:ko":"\uc5d8\uc0b4\ubc14\ub3c4\ub974","name:kn":"\u0c8e\u0cb2\u0ccd \u0cb8\u0cbe\u0cb2\u0ccd\u0cb5\u0ca1\u0cbe\u0cb0\u0ccd","name:cs":"Salvador","name:tt":"\u0421\u0430\u043b\u044c\u0432\u0430\u0434\u043e\u0440","name:th":"\u0e1b\u0e23\u0e30\u0e40\u0e17\u0e28\u0e40\u0e2d\u0e25\u0e0b\u0e31\u0e25\u0e27\u0e32\u0e14\u0e2d\u0e23\u0e4c","name:pa":"\u0a38\u0a3e\u0a32\u0a35\u0a3e\u0a26\u0a4b\u0a30","name:os":"\u0421\u0430\u043b\u044c\u0432\u0430\u0434\u043e\u0440","name:or":"\u0b0f\u0b32 \u0b38\u0b3e\u0b32\u0b2d\u0b3e\u0b21\u0b4b\u0b30","name:ce":"\u0421\u0430\u043b\u044c\u0432\u0430\u0434\u043e\u0440","name:ta":"\u0b8e\u0bb2\u0bcd \u0b9a\u0bbe\u0bb2\u0bcd\u0bb5\u0b9f\u0bcb\u0bb0\u0bcd","name:tg":"\u0421\u0430\u043b\u0432\u0430\u0434\u043e\u0440","sort_rank":262,"name:hr":"Salvador","name:ba":"\u0421\u0430\u043b\u044c\u0432\u0430\u0434\u043e\u0440","source":"openstreetmap.org","name:sq":"Salvadori","name:dv":"\u0787\u07ac\u078d\u07b0\u0790\u07ac\u078d\u07b0\u0788\u07a6\u0791\u07af\u0783\u07aa","name:lv":"Salvadora","name:lt":"Salvadoras","name:hi":"\u0905\u0932 \u0938\u093e\u0932\u094d\u0935\u093e\u0921\u094b\u0930","name:kk":"\u042d\u043b\u044c-\u0421\u0430\u043b\u044c\u0432\u0430\u0434\u043e\u0440 \u0420\u0435\u0441\u043f\u0443\u0431\u043b\u0438\u043a\u0430\u0441\u044b","name:he":"\u05d0\u05dc \u05e1\u05dc\u05d5\u05d5\u05d3\u05d5\u05e8","name:eo":"Salvadoro","name:ur":"\u0627\u06cc\u0644 \u0633\u06cc\u0644\u0648\u0627\u0688\u0648\u0631","name:la":"Salvatoria","name:uk":"\u0421\u0430\u043b\u044c\u0432\u0430\u0434\u043e\u0440","name:hy":"\u054d\u0561\u056c\u057e\u0561\u0564\u0578\u0580","name:ug":"\u0626\u06d5\u0644 \u0633\u0627\u0644\u06cb\u0627\u062f\u0648\u0631","name:hu":"Salvador","name:qu":"Salwadur","name:oc":"Lo Salvador","name:el":"\u0395\u03bb \u03a3\u03b1\u03bb\u03b2\u03b1\u03b4\u03cc\u03c1","kind":"country","name":"El Salvador","min_zoom":8.0,"name:yi":"\u05e2\u05dc \u05e1\u05d0\u05dc\u05d5\u05d5\u05d0\u05d3\u05d0\u05e8","name:yo":"El Salfador","name:az":"Salvador","name:mr":"\u090f\u0932 \u0938\u093e\u0932\u094d\u0935\u094d\u0939\u093e\u0921\u094b\u0930","name:ar":"\u0627\u0644\u0633\u0644\u0641\u0627\u062f\u0648\u0631","name:my":"\u1021\u101a\u103a\u1006\u102c\u1017\u1031\u1012\u102d\u102f\u1014\u102d\u102f\u1004\u103a\u1004\u1036","name:io":"Salvadoria","name:am":"\u12a4\u120d \u1233\u120d\u126b\u12f6\u122d","name:ml":"\u0d0e\u0d7d \u0d38\u0d3e\u0d7d\u0d35\u0d26\u0d4b\u0d7c","name:ru":"\u0421\u0430\u043b\u044c\u0432\u0430\u0434\u043e\u0440","name:rw":"Saluvadoro","id":-1520612,"name:mk":"\u0415\u043b \u0421\u0430\u043b\u0432\u0430\u0434\u043e\u0440","name:vo":"Salvador\u00e4n","name:fa":"\u0627\u0644\u0633\u0627\u0644\u0648\u0627\u062f\u0648\u0631","kind_detail":"2","name:fr":"Salvador","name:wo":"Salbadoor","name:zh-yue":"\u85a9\u723e\u74e6\u591a","name:zh":"\u8428\u5c14\u74e6\u591a","name:gv":"Yn Salvador","name:so":"El Salfador","name:sl":"Salvador","name:sk":"Salv\u00e1dor","name:ja":"\u30a8\u30eb\u30b5\u30eb\u30d0\u30c9\u30eb","name:si":"\u0d91\u0dbd\u0dca \u0dc3\u0dd0\u0dbd\u0dca\u0dc0\u200d\u0da9\u0ddd","name:sh":"Salvador","name:na":"Ersarbador","name:ne":"\u090f\u0932 \u0938\u093e\u0932\u094d\u092d\u093e\u0926\u094b\u0930","name:sa":"\u090f\u0932-\u0938\u093e\u0932\u094d\u0935\u093e\u0921\u094b\u0930","name:bn":"\u098f\u09b2 \u09b8\u09be\u09b2\u09ad\u09be\u09a6\u09cb\u09b0","name:bo":"\u0f68\u0f72\u0f63\u0f0b\u0f66\u0f63\u0f0b\u0f5d\u0f0b\u0f4c\u0f7c\u0f62\u0f0d","name:be":"\u0421\u0430\u043b\u044c\u0432\u0430\u0434\u043e\u0440","name:su":"\u00c9l Salvador","name:bg":"\u0421\u0430\u043b\u0432\u0430\u0434\u043e\u0440","name:ss":"ISalivado","name:sr":"\u0421\u0430\u043b\u0432\u0430\u0434\u043e\u0440","osm_relation":true,"name:ga":"An tSalvad\u00f3ir","name:gd":"El Salbhador","name:ht":"Salvad\u00f2","name:gn":"Salvador","name:gl":"O Salvador - El Salvador","maritime_boundary":true,"name:pl":"Salwador","name:es":"Rep\u00fablica de El Salvador"},"arcs":[0]},{"type":"LineString","properties":{"kind":"region","name":"Departamento de Caba\u00f1as - Departamento de Cuscatl\u00e1n","sort_rank":256,"kind_detail":"4","id:right":-3624439,"source":"openstreetmap.org","min_zoom":8.0,"id:left":-3624451,"name:left":"Departamento de Caba\u00f1as","id":-3624451,"osm_relation":true,"name:right":"Departamento de Cuscatl\u00e1n"},"arcs":[1]},{"type":"LineString","properties":{"kind":"region","name":"Departamento de Caba\u00f1as","sort_rank":256,"kind_detail":"4","source":"openstreetmap.org","min_zoom":8.0,"id":-3624451,"osm_relation":true},"arcs":[2]},{"type":"LineString","properties":{"kind":"region","name":"Departamento de Cuscatl\u00e1n - Departamento de San Salvador","sort_rank":256,"kind_detail":"4","id:right":-3624436,"source":"openstreetmap.org","min_zoom":8.0,"id:left":-3624439,"name:left":"Departamento de Cuscatl\u00e1n","id":-3624439,"osm_relation":true,"name:right":"Departamento de San Salvador"},"arcs":[3]},{"type":"LineString","properties":{"kind":"region","name":"Departamento de Cuscatl\u00e1n","sort_rank":256,"kind_detail":"4","source":"openstreetmap.org","min_zoom":8.0,"id":-3624439,"osm_relation":true},"arcs":[4]},{"type":"LineString","properties":{"kind":"region","name":"Departamento de San Salvador - Departamento de La Libertad","sort_rank":256,"kind_detail":"4","id:right":-3624113,"source":"openstreetmap.org","min_zoom":8.0,"id:left":-3624436,"name:left":"Departamento de San Salvador","id":-3624436,"osm_relation":true,"name:right":"Departamento de La Libertad"},"arcs":[5]},{"type":"LineString","properties":{"kind":"region","name":"Departamento de San Salvador","sort_rank":256,"kind_detail":"4","source":"openstreetmap.org","min_zoom":8.0,"id":-3624436,"osm_relation":true},"arcs":[6]},{"type":"LineString","properties":{"kind":"region","name":"Departamento de La Libertad - Departamento de Santa Ana","sort_rank":256,"kind_detail":"4","id:right":-3624100,"source":"openstreetmap.org","min_zoom":8.0,"id:left":-3624113,"name:left":"Departamento de La Libertad","id":-3624113,"osm_relation":true,"name:right":"Departamento de Santa Ana"},"arcs":[7]},{"type":"LineString","properties":{"kind":"region","name":"Departamento de La Libertad","sort_rank":256,"kind_detail":"4","source":"openstreetmap.org","min_zoom":8.0,"id":-3624113,"osm_relation":true},"arcs":[8]},{"type":"LineString","properties":{"kind":"region","name":"Departamento de La Libertad","sort_rank":256,"kind_detail":"4","source":"openstreetmap.org","min_zoom":8.0,"id":-3624113,"osm_relation":true},"arcs":[9]},{"type":"LineString","properties":{"kind":"region","name":"Departamento de La Libertad","sort_rank":256,"kind_detail":"4","min_zoom":8.0,"source":"openstreetmap.org","maritime_boundary":true,"id":-3624113,"osm_relation":true},"arcs":[10]},{"type":"LineString","properties":{"kind":"region","name":"Departamento de Santa Ana - Departamento de Ahuachap\u00e1n","sort_rank":256,"kind_detail":"4","id:right":-3623374,"source":"openstreetmap.org","min_zoom":8.0,"id:left":-3624100,"name:left":"Departamento de Santa Ana","id":-3624100,"osm_relation":true,"name:right":"Departamento de Ahuachap\u00e1n"},"arcs":[11]},{"type":"LineString","properties":{"kind":"region","name":"Departamento de Santa Ana","sort_rank":256,"kind_detail":"4","source":"openstreetmap.org","min_zoom":8.0,"id":-3624100,"osm_relation":true},"arcs":[12]},{"type":"LineString","properties":{"kind":"region","name":"Departamento de Ahuachap\u00e1n","sort_rank":256,"kind_detail":"4","source":"openstreetmap.org","min_zoom":8.0,"id":-3623374,"osm_relation":true},"arcs":[13]},{"type":"LineString","properties":{"kind":"region","name":"Departamento de Ahuachap\u00e1n","sort_rank":256,"kind_detail":"4","min_zoom":8.0,"source":"openstreetmap.org","maritime_boundary":true,"id":-3623374,"osm_relation":true},"arcs":[14]}]},"roads":{"type":"GeometryCollection","geometries":[{"type":"LineString","properties":{"kind":"major_road","sort_rank":380,"kind_detail":"primary","is_bicycle_related":true,"cycleway":"opposite","source":"openstreetmap.org","min_zoom":8.0,"landuse_kind":"urban_area"},"arcs":[22]},{"type":"MultiLineString","properties":{"source":"openstreetmap.org","kind":"major_road","landuse_kind":"urban_area","sort_rank":380,"kind_detail":"primary","ref":"Prolongacion Juan Pablo II","min_zoom":8.0},"arcs":[[23],[24],[25]]},{"type":"MultiLineString","properties":{"source":"openstreetmap.org","kind":"major_road","landuse_kind":"urban_area","sort_rank":380,"kind_detail":"primary","ref":"SAL91N","min_zoom":8.0},"arcs":[[26],[27],[28],[29]]},{"type":"LineString","properties":{"source":"openstreetmap.org","kind":"major_road","sort_rank":381,"kind_detail":"trunk","ref":"CA08W","min_zoom":8.0},"arcs":[30]},{"type":"LineString","properties":{"source":"openstreetmap.org","kind":"major_road","sort_rank":381,"kind_detail":"trunk","ref":"CA12","min_zoom":8.0,"id":171113464},"arcs":[31]},{"type":"MultiLineString","properties":{"source":"openstreetmap.org","kind":"major_road","sort_rank":380,"kind_detail":"primary","ref":"CA08W","min_zoom":8.0},"arcs":[[32],[33]]},{"type":"MultiLineString","properties":{"source":"openstreetmap.org","kind":"major_road","sort_rank":381,"kind_detail":"trunk","ref":"CA 1","min_zoom":8.0},"arcs":[[34],[35],[36]]},{"type":"LineString","properties":{"source":"openstreetmap.org","kind":"major_road","sort_rank":381,"kind_detail":"trunk","ref":"CA 12","min_zoom":8.0,"id":191163221},"arcs":[37]},{"type":"LineString","properties":{"source":"openstreetmap.org","kind":"major_road","sort_rank":380,"kind_detail":"primary","ref":"CA8","min_zoom":8.0},"arcs":[38]},{"type":"LineString","properties":{"source":"openstreetmap.org","kind":"major_road","sort_rank":380,"kind_detail":"primary","ref":"RN12W","min_zoom":8.0},"arcs":[39]},{"type":"MultiLineString","properties":{"source":"openstreetmap.org","kind":"major_road","landuse_kind":"urban_area","sort_rank":380,"kind_detail":"primary","ref":"En Construccion 2016","min_zoom":8.0},"arcs":[[40],[41]]},{"type":"MultiLineString","properties":{"source":"openstreetmap.org","kind":"major_road","sort_rank":380,"kind_detail":"primary","ref":"Boulevard del Sur","min_zoom":8.0},"arcs":[[42],[43],[44],[45],[46]]},{"type":"MultiLineString","properties":{"source":"openstreetmap.org","kind":"major_road","sort_rank":381,"kind_detail":"trunk","ref":"CA 2","min_zoom":8.0},"arcs":[[47],[48]]},{"type":"LineString","properties":{"source":"openstreetmap.org","kind":"major_road","sort_rank":381,"kind_detail":"trunk","ref":"4","min_zoom":8.0},"arcs":[49]},{"type":"LineString","properties":{"source":"openstreetmap.org","kind":"major_road","sort_rank":381,"kind_detail":"trunk","ref":"CA1AE","min_zoom":8.0,"id":463342621},"arcs":[50]},{"type":"MultiLineString","properties":{"sort_rank":381,"source":"openstreetmap.org","min_zoom":8.0,"kind":"major_road","kind_detail":"trunk"},"arcs":[[51],[52],[53],[54],[55],[56],[57],[58],[59],[60],[61],[62],[63],[64],[65],[66],[67],[68],[69],[70],[71],[72],[73],[74],[75],[76],[77],[78],[79],[80],[81],[82],[83],[84],[85],[86],[87],[88],[89],[90],[91],[92],[93],[94],[95],[96],[97],[98],[99]]},{"type":"LineString","properties":{"source":"openstreetmap.org","kind":"major_road","landuse_kind":"urban_area","sort_rank":380,"kind_detail":"primary","ref":"49 Avenida Sur","min_zoom":8.0},"arcs":[100]},{"type":"LineString","properties":{"source":"openstreetmap.org","kind":"major_road","sort_rank":380,"kind_detail":"primary","ref":"CA 12S","min_zoom":8.0},"arcs":[101]},{"type":"LineString","properties":{"source":"openstreetmap.org","kind":"major_road","sort_rank":381,"kind_detail":"trunk","ref":"CA-1W","min_zoom":8.0,"id":247034730},"arcs":[102]},{"type":"MultiLineString","properties":{"source":"openstreetmap.org","kind":"major_road","kind_detail":"trunk","sort_rank":381,"landuse_kind":"urban_area","ref":"CA-1W","min_zoom":8.0},"arcs":[[103],[104]]},{"type":"MultiLineString","properties":{"source":"openstreetmap.org","kind":"major_road","landuse_kind":"urban_area","sort_rank":380,"kind_detail":"primary","ref":"SAL94W","min_zoom":8.0},"arcs":[[105],[106],[107],[108],[109],[110]]},{"type":"MultiLineString","properties":{"source":"openstreetmap.org","kind":"major_road","landuse_kind":"urban_area","sort_rank":380,"kind_detail":"primary","min_zoom":8.0},"arcs":[[111],[112],[113],[114],[115],[116],[117],[118],[119],[120],[121],[122],[123],[124],[125],[126],[127],[128],[129],[130],[131],[132],[133],[134],[135],[136],[137],[138],[139],[140],[141],[142],[143],[144],[145],[146],[147],[148],[149],[150],[151],[152],[153],[154],[155],[156],[157],[158],[159],[160],[161],[162],[163],[164],[165],[166],[167],[168],[169],[170],[171],[172],[173],[174],[175],[176],[177],[178],[179],[180],[181],[182],[183],[184],[185],[186],[187],[188],[189],[190],[191],[192],[193],[194],[195],[196],[197],[198],[199],[200],[201],[202],[203],[204],[205],[206],[207],[208],[209]]},{"type":"MultiLineString","properties":{"source":"openstreetmap.org","kind":"major_road","sort_rank":381,"kind_detail":"trunk","ref":"SAL38W","min_zoom":8.0},"arcs":[[210],[211]]},{"type":"MultiLineString","properties":{"source":"openstreetmap.org","kind":"highway","landuse_kind":"urban_area","sort_rank":383,"kind_detail":"motorway","min_zoom":8.0},"arcs":[[212],[213],[214],[215]]},{"type":"LineString","properties":{"source":"openstreetmap.org","kind":"major_road","sort_rank":380,"kind_detail":"primary","ref":"RN 10S","min_zoom":8.0},"arcs":[216]},{"type":"MultiLineString","properties":{"source":"openstreetmap.org","kind":"major_road","sort_rank":381,"kind_detail":"trunk","ref":"CA01W","min_zoom":8.0},"arcs":[[217],[218]]},{"type":"MultiLineString","properties":{"source":"openstreetmap.org","kind":"major_road","landuse_kind":"urban_area","sort_rank":380,"kind_detail":"primary","ref":"Autopista Sur","min_zoom":8.0},"arcs":[[219],[220],[221]]},{"type":"LineString","properties":{"source":"openstreetmap.org","kind":"major_road","sort_rank":380,"kind_detail":"primary","ref":"RN 4E","min_zoom":8.0},"arcs":[222]},{"type":"MultiLineString","properties":{"kind":"major_road","network":"CA","sort_rank":381,"kind_detail":"trunk","source":"openstreetmap.org","min_zoom":8.0,"shield_text":"01W","ref":"CA01W;LD La Libertad - Dv Lago de Coatepeque"},"arcs":[[223],[224]]},{"type":"MultiLineString","properties":{"source":"openstreetmap.org","kind":"highway","landuse_kind":"urban_area","sort_rank":383,"kind_detail":"motorway","ref":"SAL37N","min_zoom":8.0},"arcs":[[225],[226]]},{"type":"MultiLineString","properties":{"source":"openstreetmap.org","kind":"major_road","sort_rank":381,"kind_detail":"trunk","ref":"CA-04","min_zoom":8.0},"arcs":[[227],[228],[229],[230],[231]]},{"type":"LineString","properties":{"source":"openstreetmap.org","kind":"highway","sort_rank":383,"kind_detail":"motorway","ref":"SAL-38","min_zoom":8.0},"arcs":[232]},{"type":"MultiLineString","properties":{"source":"openstreetmap.org","kind":"major_road","sort_rank":381,"kind_detail":"trunk","ref":"CA 1W","min_zoom":8.0},"arcs":[[233],[234],[235],[236]]},{"type":"MultiLineString","properties":{"source":"openstreetmap.org","kind":"major_road","sort_rank":380,"kind_detail":"primary","ref":"CA 8","min_zoom":8.0},"arcs":[[237],[238]]},{"type":"LineString","properties":{"source":"openstreetmap.org","kind":"major_road","sort_rank":380,"kind_detail":"primary","ref":"CA 13","min_zoom":8.0,"id":181363056},"arcs":[239]},{"type":"MultiLineString","properties":{"source":"openstreetmap.org","kind":"major_road","sort_rank":380,"kind_detail":"primary","ref":"CA04N","min_zoom":8.0},"arcs":[[240],[241]]},{"type":"MultiLineString","properties":{"source":"openstreetmap.org","kind":"major_road","kind_detail":"trunk","sort_rank":381,"landuse_kind":"urban_area","ref":"CA-1","min_zoom":8.0},"arcs":[[242],[243],[244],[245],[246]]},{"type":"MultiLineString","properties":{"source":"openstreetmap.org","kind":"major_road","landuse_kind":"urban_area","sort_rank":380,"kind_detail":"primary","ref":"CA01E","min_zoom":8.0},"arcs":[[247],[248]]},{"type":"LineString","properties":{"source":"openstreetmap.org","kind":"major_road","sort_rank":381,"kind_detail":"trunk","ref":"CA-4","min_zoom":8.0},"arcs":[249]},{"type":"MultiLineString","properties":{"source":"openstreetmap.org","kind":"major_road","sort_rank":381,"kind_detail":"trunk","ref":"CA 8W","min_zoom":8.0},"arcs":[[250],[251]]},{"type":"MultiLineString","properties":{"source":"openstreetmap.org","kind":"highway","sort_rank":383,"kind_detail":"motorway","ref":"CA 1","min_zoom":8.0},"arcs":[[252],[253],[254],[255],[256],[257],[258],[259],[260]]},{"type":"MultiLineString","properties":{"source":"openstreetmap.org","kind":"major_road","sort_rank":380,"kind_detail":"primary","ref":"CA02W","min_zoom":8.0},"arcs":[[261],[262],[263]]},{"type":"LineString","properties":{"kind":"major_road","network":"CA","sort_rank":381,"kind_detail":"trunk","source":"openstreetmap.org","min_zoom":8.0,"shield_text":"01W","ref":"CA01W","id":427280312},"arcs":[264]},{"type":"MultiLineString","properties":{"source":"openstreetmap.org","kind":"major_road","kind_detail":"trunk","sort_rank":381,"landuse_kind":"urban_area","ref":"SAL93W","min_zoom":8.0},"arcs":[[265],[266],[267]]},{"type":"MultiLineString","properties":{"source":"openstreetmap.org","kind":"major_road","sort_rank":380,"kind_detail":"primary","ref":"RN-4E","min_zoom":8.0},"arcs":[[268],[269],[270],[271]]},{"type":"LineString","properties":{"source":"openstreetmap.org","kind":"major_road","sort_rank":380,"kind_detail":"primary","ref":"CA02AE","min_zoom":8.0,"id":188393976},"arcs":[272]},{"type":"MultiLineString","properties":{"source":"openstreetmap.org","kind":"major_road","sort_rank":381,"kind_detail":"trunk","ref":"CA-8","min_zoom":8.0},"arcs":[[273],[274],[275],[276],[277],[278],[279],[280],[281]]},{"type":"MultiLineString","properties":{"sort_rank":380,"kind_detail":"primary","min_zoom":8.0,"kind":"major_road","source":"openstreetmap.org"},"arcs":[[282],[283],[284],[285],[286],[287],[288],[289],[290],[291],[292],[293],[294],[295],[296],[297],[298],[299],[300],[301],[302],[303],[304],[305],[306],[307],[308],[309],[310],[311],[312],[313],[314],[315],[316],[317],[318],[319],[320],[321],[322],[323],[324],[325],[326],[327],[328],[329],[330],[331],[332],[333],[334],[335],[336],[337],[338],[339],[340],[341],[342],[343],[344],[345],[346],[347],[348],[349],[350],[351],[352],[353],[354],[355],[356],[357],[358],[359],[360],[361]]},{"type":"LineString","properties":{"kind":"major_road","network":"CA","sort_rank":381,"kind_detail":"trunk","source":"openstreetmap.org","min_zoom":8.0,"shield_text":"01W","ref":"CA 1W","id":421432818},"arcs":[362]},{"type":"MultiLineString","properties":{"source":"openstreetmap.org","kind":"major_road","sort_rank":380,"kind_detail":"primary","ref":"RN 12W","min_zoom":8.0},"arcs":[[363],[364]]},{"type":"LineString","properties":{"kind":"major_road","sort_rank":381,"kind_detail":"trunk","is_bicycle_related":true,"cycleway":"track","source":"openstreetmap.org","min_zoom":8.0,"ref":"CA-8"},"arcs":[365]},{"type":"LineString","properties":{"kind":"major_road","sort_rank":380,"landuse_kind":"urban_area","source":"openstreetmap.org","min_zoom":8.0,"kind_detail":"primary","ref":"RN 5","id":29349651},"arcs":[366]},{"type":"LineString","properties":{"source":"openstreetmap.org","kind":"major_road","sort_rank":380,"kind_detail":"primary","ref":"PAZ31N","min_zoom":8.0},"arcs":[367]},{"type":"MultiLineString","properties":{"source":"openstreetmap.org","kind":"major_road","sort_rank":381,"kind_detail":"trunk","ref":"RN07W","min_zoom":8.0},"arcs":[[368],[369]]},{"type":"MultiLineString","properties":{"source":"openstreetmap.org","kind":"major_road","kind_detail":"trunk","sort_rank":381,"landuse_kind":"urban_area","min_zoom":8.0},"arcs":[[370],[371],[372],[373],[374],[375],[376],[377],[378],[379],[380],[381],[382],[383],[384],[385],[386],[387],[388],[389],[390],[391],[392],[393]]},{"type":"MultiLineString","properties":{"source":"openstreetmap.org","kind":"major_road","sort_rank":380,"kind_detail":"primary","ref":"CA-2E","min_zoom":8.0},"arcs":[[394],[395],[396],[397]]},{"type":"MultiLineString","properties":{"source":"openstreetmap.org","kind":"major_road","kind_detail":"trunk","sort_rank":381,"landuse_kind":"urban_area","ref":"SAL37N","min_zoom":8.0},"arcs":[[398],[399],[400],[401],[402],[403],[404],[405],[406],[407],[408],[409],[410],[411],[412]]},{"type":"MultiLineString","properties":{"source":"openstreetmap.org","kind":"major_road","sort_rank":381,"kind_detail":"trunk","ref":"CA 8","min_zoom":8.0},"arcs":[[413],[414],[415],[416],[417]]},{"type":"MultiLineString","properties":{"source":"openstreetmap.org","kind":"major_road","landuse_kind":"urban_area","sort_rank":380,"kind_detail":"primary","ref":"CA01W","min_zoom":8.0},"arcs":[[418],[419]]},{"type":"MultiLineString","properties":{"source":"openstreetmap.org","kind":"highway","sort_rank":383,"kind_detail":"motorway","ref":"SAL38W","min_zoom":8.0},"arcs":[[420],[421],[422],[423],[424],[425],[426],[427],[428],[429]]},{"type":"MultiLineString","properties":{"source":"openstreetmap.org","kind":"major_road","landuse_kind":"urban_area","sort_rank":380,"kind_detail":"primary","ref":"CA04N","min_zoom":8.0},"arcs":[[430],[431],[432],[433],[434],[435],[436],[437]]},{"type":"LineString","properties":{"source":"openstreetmap.org","kind":"major_road","sort_rank":381,"kind_detail":"trunk","ref":"CA8","min_zoom":8.0,"id":423662088},"arcs":[438]},{"type":"MultiLineString","properties":{"sort_rank":383,"kind_detail":"motorway","min_zoom":8.0,"kind":"highway","source":"openstreetmap.org"},"arcs":[[439],[440],[441],[442],[443],[444],[445],[446],[447],[448],[449],[450],[451],[452],[453],[454],[455],[456],[457],[458],[459],[460]]},{"type":"LineString","properties":{"source":"openstreetmap.org","kind":"major_road","sort_rank":380,"kind_detail":"primary","ref":"RN 15S","min_zoom":8.0},"arcs":[461]},{"type":"MultiLineString","properties":{"source":"openstreetmap.org","kind":"major_road","sort_rank":381,"kind_detail":"trunk","ref":"RN05S","min_zoom":8.0},"arcs":[[462],[463],[464],[465],[466],[467],[468],[469],[470],[471],[472]]},{"type":"MultiLineString","properties":{"source":"openstreetmap.org","kind":"major_road","kind_detail":"trunk","sort_rank":381,"landuse_kind":"urban_area","ref":"RN05S","min_zoom":8.0},"arcs":[[473],[474]]},{"type":"LineString","properties":{"source":"openstreetmap.org","kind":"major_road","sort_rank":380,"kind_detail":"primary","ref":"Ruta de Las Flores \/ CA8","min_zoom":8.0},"arcs":[475]},{"type":"MultiLineString","properties":{"source":"openstreetmap.org","kind":"highway","sort_rank":383,"kind_detail":"motorway","ref":"SAL37N","min_zoom":8.0},"arcs":[[476],[477],[478],[479]]},{"type":"LineString","properties":{"source":"openstreetmap.org","kind":"major_road","sort_rank":381,"kind_detail":"trunk","ref":"RN 9W","min_zoom":8.0,"id":29346731},"arcs":[480]},{"type":"MultiLineString","properties":{"source":"openstreetmap.org","kind":"major_road","kind_detail":"trunk","sort_rank":381,"landuse_kind":"urban_area","ref":"CA01W","min_zoom":8.0},"arcs":[[481],[482],[483],[484],[485],[486]]},{"type":"MultiLineString","properties":{"source":"openstreetmap.org","kind":"major_road","sort_rank":381,"kind_detail":"trunk","ref":"CA-1","min_zoom":8.0},"arcs":[[487],[488],[489]]},{"type":"LineString","properties":{"source":"openstreetmap.org","kind":"major_road","sort_rank":380,"kind_detail":"primary","ref":"CA-12","min_zoom":8.0},"arcs":[490]},{"type":"LineString","properties":{"kind":"major_road","sort_rank":381,"kind_detail":"trunk","is_bicycle_related":true,"source":"openstreetmap.org","min_zoom":8.0,"ref":"Quezaltepeque","id":401656593},"arcs":[491]},{"type":"LineString","properties":{"kind":"major_road","sort_rank":381,"landuse_kind":"urban_area","source":"openstreetmap.org","min_zoom":8.0,"kind_detail":"trunk","ref":"Autopista Sur","id":379808080},"arcs":[492]},{"type":"LineString","properties":{"source":"openstreetmap.org","kind":"major_road","sort_rank":380,"kind_detail":"primary","ref":"RN04E","min_zoom":8.0},"arcs":[493]},{"type":"MultiLineString","properties":{"source":"openstreetmap.org","kind":"major_road","kind_detail":"trunk","sort_rank":381,"landuse_kind":"urban_area","ref":"CA1","min_zoom":8.0},"arcs":[[494],[495],[496],[497]]},{"type":"MultiLineString","properties":{"source":"openstreetmap.org","kind":"major_road","sort_rank":380,"kind_detail":"primary","ref":"CA-2","min_zoom":8.0},"arcs":[[498],[499],[500]]},{"type":"LineString","properties":{"source":"openstreetmap.org","kind":"major_road","landuse_kind":"urban_area","sort_rank":380,"kind_detail":"primary","ref":"Calle Rub\u00e9n Dar\u00edo","min_zoom":8.0},"arcs":[501]},{"type":"MultiLineString","properties":{"source":"openstreetmap.org","kind":"major_road","sort_rank":381,"kind_detail":"trunk","ref":"CA1","min_zoom":8.0},"arcs":[[502],[503]]},{"type":"MultiLineString","properties":{"source":"openstreetmap.org","kind":"major_road","sort_rank":380,"kind_detail":"primary","ref":"CA 2","min_zoom":8.0},"arcs":[[504],[505],[506],[507],[508],[509],[510],[511],[512],[513],[514],[515],[516],[517],[518],[519],[520],[521]]},{"type":"LineString","properties":{"source":"openstreetmap.org","kind":"highway","sort_rank":383,"kind_detail":"motorway","ref":"CA-04","min_zoom":8.0,"id":387024106},"arcs":[522]},{"type":"LineString","properties":{"kind":"major_road","sort_rank":380,"landuse_kind":"urban_area","source":"openstreetmap.org","min_zoom":8.0,"kind_detail":"primary","ref":"SAL93W","id":436604601},"arcs":[523]},{"type":"LineString","properties":{"source":"openstreetmap.org","kind":"major_road","sort_rank":380,"kind_detail":"primary","ref":"CA 2W","min_zoom":8.0},"arcs":[524]},{"type":"MultiLineString","properties":{"source":"openstreetmap.org","kind":"major_road","kind_detail":"trunk","sort_rank":381,"landuse_kind":"urban_area","ref":"CA 1W","min_zoom":8.0},"arcs":[[525],[526]]}]},"earth":{"type":"GeometryCollection","geometries":[{"type":"MultiPolygon","properties":{"sort_rank":10,"source":"naturalearthdata.com","min_zoom":0.0,"kind":"earth","area":23219379189},"arcs":[[[527]]]}]},"landuse":{"type":"GeometryCollection","geometries":[{"type":"Polygon","properties":{"source":"openstreetmap.org","kind":"park","area":37001000,"tier":2,"id":139806961,"min_zoom":8.0,"sort_rank":24},"arcs":[[528]]},{"type":"Polygon","properties":{"source":"naturalearthdata.com","kind":"urban_area","name":"","area":163158880,"sort_rank":11,"min_zoom":4.0,"id":5449},"arcs":[[529]]},{"type":"MultiPolygon","properties":{"source":"openstreetmap.org","kind":"park","tier":2,"area":93859411,"sort_rank":24,"min_zoom":8.0,"osm_relation":true},"arcs":[[[530]]]},{"type":"Polygon","properties":{"source":"openstreetmap.org","kind":"park","area":155752000,"tier":2,"id":136750899,"min_zoom":6.0,"sort_rank":24},"arcs":[[531]]}]}},"type":"Topology","transform":{"translate":[-90.0,12.5545635286],"scale":[0.0003433228,0.0003341895]},"arcs":[[[0,3003],[141,-62],[125,-234],[187,-180],[358,9],[492,-118],[639,-59],[1552,-701],[602,-125]],[[3004,4096],[-65,-72],[19,-109],[210,-129],[-43,-42],[24,-24],[119,-28],[57,-57]],[[3325,3635],[186,33],[133,66],[128,-33],[114,19],[205,-95],[-9,-24],[14,-14]],[[2475,4096],[81,-86],[-31,-57],[-67,-23],[40,-85],[64,21],[54,-120],[93,-15],[87,-170],[43,-139],[-57,-82]],[[2782,3340],[185,-22],[18,-37],[99,-32],[18,66],[98,14],[54,63],[47,10],[-24,57],[38,76],[10,100]],[[2275,4096],[-45,-10],[-30,-213],[-57,-110],[3,-164],[-66,-60],[61,29],[-32,-111],[43,-1],[44,-85],[46,6],[16,-63],[-37,-15],[-18,-46],[65,-44],[-30,-109],[35,-36],[-5,-48],[-32,-75],[48,-65],[25,-108],[74,-12],[29,48],[34,1]],[[2446,2805],[10,50],[35,17],[-2,69],[32,19],[-2,71],[-66,127],[115,13],[26,-24],[22,52],[166,141]],[[1613,4096],[-37,-90],[36,-111],[-11,-78],[-27,1],[19,-49],[-30,-6],[-5,-100]],[[2411,2608],[70,85],[1,41],[-45,47],[9,24]],[[1558,3663],[2,-31],[59,-14],[-1,-59],[-100,16],[1,-41],[-46,-59],[-76,-37],[-9,-26],[25,-6],[-32,-12],[-6,-37],[28,-46],[-54,-8],[46,-43],[-78,-104],[-21,9],[-9,-31],[28,-15],[-231,-243]],[[1084,2876],[301,-71],[373,4],[197,-43],[83,15],[373,-173]],[[812,4096],[-14,-56]],[[798,4040],[103,-2],[72,-48],[84,-99],[2,-36],[-48,-63],[16,-11],[30,14],[74,-33],[38,8],[6,46],[106,13],[71,-67],[35,13],[22,-31],[82,-17],[41,-36],[-15,-12],[41,-16]],[[108,3318],[106,121],[64,34],[131,-102],[116,18],[29,153],[50,42],[17,208],[56,113],[-58,98],[179,37]],[[0,3074],[108,244]],[[0,3385],[142,-65],[236,-134],[60,-37],[36,-30],[11,-69],[30,-110],[44,-31],[277,4],[97,20],[184,-61],[84,-16],[177,-44],[413,3],[76,-18],[99,0],[214,-51],[198,-87],[346,-213],[723,-337],[90,-42],[559,-104],[0,-1963],[-4096,0],[0,3385]],[[4096,2014],[-14,3],[0,21],[14,-5],[0,-19]],[[4096,2121],[-212,-23],[-82,20],[-20,-9],[-21,3],[-21,12],[-20,16],[36,16],[165,4],[118,22],[43,0],[14,-3],[0,-58]],[[0,3385],[142,-65],[236,-134],[60,-37],[36,-30],[11,-69],[30,-110],[44,-31],[277,4],[97,20],[184,-61],[84,-16],[177,-44],[413,3],[76,-18],[99,0],[214,-51],[198,-87],[346,-213],[723,-337],[90,-42],[559,-104]],[[4096,2014],[-14,3],[0,21],[14,-5]],[[4096,2121],[-212,-23],[-82,20],[-20,-9],[-21,3],[-21,12],[-20,16],[36,16],[165,4],[118,22],[43,0],[14,-3]],[[2945,4096],[0,-8],[-22,0],[-8,8]],[[2181,3383],[3,31]],[[2218,3469],[15,-9]],[[2241,3457],[28,-17],[1,0]],[[2270,3440],[-29,17]],[[2354,3490],[-69,-50],[-7,-57]],[[2279,3383],[0,4]],[[2279,3386],[0,1]],[[2279,3387],[6,53],[69,49]],[[882,3546],[-33,-5]],[[628,3218],[155,225]],[[789,3500],[9,-15]],[[798,3485],[9,-6]],[[1450,4010],[-20,21]],[[2619,3434],[29,27]],[[2659,3467],[58,27],[3,25]],[[783,3443],[-206,-288]],[[706,3806],[85,-304]],[[748,3864],[0,-7]],[[2186,3442],[0,-8]],[[2186,3434],[1,8]],[[2224,3311],[-39,4]],[[2186,3314],[38,-4]],[[2242,3306],[-16,5]],[[2226,3310],[16,-5]],[[2224,3311],[0,-1],[2,-1],[0,2],[-2,0]],[[1965,2790],[10,1]],[[1975,2791],[35,-2]],[[2076,3107],[-74,-317]],[[2648,3461],[11,6]],[[548,3123],[80,95]],[[578,3156],[-2,-2]],[[666,3265],[1,1]],[[669,3269],[0,-1]],[[754,3387]],[[755,3388]],[[783,3443],[58,20]],[[790,3457],[-6,-12]],[[882,3546],[14,-2]],[[1657,3552],[0,-1]],[[1680,3547],[0,1]],[[1682,3548],[-1,-1]],[[1769,3533],[1,-1]],[[1770,3532],[1,0]],[[2013,3777],[-187,-109]],[[1827,3657],[5,11]],[[1829,3664],[-1,3]],[[2102,3317],[-12,-36],[-14,-174]],[[2076,3064],[28,252]],[[2105,3318],[-1,-1]],[[2104,3316],[3,2]],[[2142,3809],[-2,0]],[[2359,3329],[-1,-1]],[[2367,3289],[0,1]],[[2368,3288],[0,-1]],[[2402,3698],[4,-9]],[[2406,3689],[1,-1]],[[2407,3688]],[[2407,3688],[1,0],[-1,2],[-1,0]],[[2406,3690]],[[2406,3690],[0,-1]],[[2406,3690]],[[2406,3690],[1,-2]],[[2407,3688]],[[2407,3688]],[[2407,3688],[-1,2]],[[2406,3690]],[[2503,3267],[0,1]],[[2505,3266]],[[2543,3084],[0,1]],[[2544,3087],[1,-1]],[[2652,2857],[1,0]],[[2654,2856],[-1,0]],[[2720,2766],[1,-1]],[[2741,2681],[-17,45]],[[2736,2694],[-1,-1]],[[845,3540],[0,-1],[1,1],[0,1],[-1,-1]],[[2103,3318],[-1,-2],[2,0]],[[2104,3316],[0,1],[-1,1]],[[2278,3380],[1,3]],[[845,3542],[46,267],[68,67],[-18,17],[9,113],[21,53],[18,-21],[49,58]],[[2006,3361],[-8,2]],[[2022,3359],[-16,2]],[[2104,3345],[-53,3]],[[2271,3407],[-11,2],[-4,1],[-13,-5]],[[2254,3409],[21,-3]],[[2277,3404],[-2,2]],[[2324,3406],[-22,-3],[-14,-1]],[[2324,3406],[-16,-2]],[[2324,3406],[15,-2]],[[2123,3330],[31,-12]],[[2156,3318],[-29,13]],[[2179,3357],[-1,-1],[-2,-3],[0,-1]],[[2176,3352],[0,-1],[-18,-33]],[[2159,3318],[18,34]],[[2174,3352],[2,0]],[[2176,3352],[2,0]],[[2183,3367],[-2,16]],[[2182,3367],[2,-2]],[[2186,3434],[-6,-58],[2,-9]],[[2184,3414],[3,23]],[[2185,3437],[1,-4]],[[2190,3463],[-5,-23]],[[2187,3439],[4,24]],[[2188,3438],[-1,1]],[[2187,3439],[-3,-1],[2,-1],[2,1]],[[2188,3438],[68,-6]],[[2256,3432],[-68,7]],[[2212,3488],[-16,-10],[-3,-5],[-2,-9]],[[2191,3464],[5,5]],[[2196,3469],[2,2]],[[2198,3471],[14,16]],[[2192,3469],[4,0]],[[2196,3469],[20,1]],[[2216,3470],[-18,1]],[[2198,3471],[-5,0]],[[2228,3496],[-14,-8]],[[2214,3487],[15,9]],[[2216,3470],[0,-1],[1,0],[0,1],[-1,0]],[[2217,3469],[1,0],[-1,1]],[[2242,3481],[-13,16]],[[2230,3496],[11,-16],[1,0]],[[2241,3457]],[[2242,3404],[3,1],[9,4]],[[2243,3405],[-1,0]],[[2262,3334],[-8,-16]],[[2255,3318],[6,7],[1,9]],[[2300,3366],[-38,-31]],[[2262,3335],[38,29],[0,2]],[[2387,3429],[-2,1],[-4,0]],[[2381,3430],[-30,5]],[[2351,3435],[-13,3],[-68,2]],[[2270,3440],[46,-5],[19,3],[16,-3]],[[2351,3435],[27,-3],[3,-2]],[[2381,3430],[4,-1]],[[2275,3406],[-4,1]],[[2275,3406],[2,-2]],[[2277,3382],[2,4]],[[2286,3402],[-9,2]],[[2277,3404],[2,-4]],[[2277,3404],[9,-2]],[[2278,3383],[0,-3]],[[2279,3403],[2,-1]],[[2286,3402],[-7,-2]],[[2279,3400],[1,-1]],[[2283,3431],[-4,-1]],[[2280,3429],[3,-1]],[[2283,3428],[5,1]],[[2287,3429],[-4,1]],[[2291,3447],[0,1]],[[2308,3404]],[[2316,3426],[10,-1]],[[2326,3425],[-10,1]],[[2324,3522],[-4,20]],[[2339,3404],[6,0]],[[2342,3424],[28,-4],[6,6]],[[2345,3404],[27,8]],[[2372,3413],[-27,-9]],[[2382,3428]],[[2388,3430],[1,-1]],[[2396,3413],[0,1]],[[2397,3427],[16,0]],[[2400,3428],[-2,0]],[[2418,3511],[-3,-5]],[[2425,3535],[0,-3]],[[2426,3536],[-1,0]],[[2497,3421]],[[2498,3421],[0,-1]],[[2511,3417],[0,1]],[[2511,3417]],[[2521,3415]],[[2527,3391],[12,13]],[[2532,3413],[0,1]],[[2533,3413],[-1,0]],[[2539,3404],[1,0],[-1,0]],[[2547,3410],[-7,-4]],[[2545,3411]],[[2546,3411]],[[2551,3410],[0,1]],[[2551,3411],[0,-1]],[[2605,3464]],[[2191,3464],[-1,-1],[1,0],[1,0],[-1,1]],[[2213,3488],[-1,-1],[1,0],[1,0],[-1,1]],[[2229,3496],[1,0],[-1,1]],[[2229,3497],[0,-1]],[[2243,3481],[-1,0],[0,-1]],[[2242,3480],[1,0],[0,1]],[[2262,3334],[0,1],[0,-1]],[[2308,3461],[0,-1],[2,0],[-1,1],[-1,0]],[[2314,3661],[-1,0]],[[2336,3687]],[[2604,3463],[-97,14],[-53,1]],[[2454,3478],[-4,0],[-1,81]],[[2451,3559],[3,-81]],[[2454,3478],[1,-6],[148,-10]],[[1438,4022],[-51,-165],[-148,-84],[74,-156]],[[1597,3824],[10,-43],[101,-7],[68,-58]],[[1776,3717],[-69,59],[-99,5],[-11,43]],[[2283,3383],[-10,-1]],[[2273,3381],[1,0]],[[2281,3382],[1,0]],[[3217,2848],[-296,-32]],[[1467,3981],[11,-46],[119,-111]],[[1597,3824],[-66,114],[-63,43]],[[2289,3608],[-10,-62]],[[2280,3546],[9,62]],[[2454,3760],[-52,-23]],[[2402,3737],[-5,-11],[-1,-15],[10,-21]],[[2406,3690],[-4,47]],[[2460,3765],[-6,-5]],[[2459,3846],[1,-81]],[[2395,3685],[19,4]],[[1400,4096],[29,-65],[24,-25]],[[1430,4031],[-30,65]],[[1776,3716],[48,-50],[49,-169],[55,-60]],[[1998,3363],[-125,136],[-49,169],[-48,49]],[[458,4096],[30,-75],[-36,-42],[16,-57],[-30,1],[-2,-22],[35,-32],[38,3],[72,48],[49,-42],[46,5],[30,-64]],[[497,3054],[-13,-2]],[[454,4096],[-1,-1]],[[2407,3688],[25,-66],[-13,-51]],[[2419,3570],[2,3],[11,49],[-25,66]],[[2005,3363],[15,-3]],[[2044,3345],[64,-2]],[[2136,3340],[-20,2]],[[2222,3386]],[[2553,3411],[4,1]],[[2382,3428],[15,-1]],[[2398,3428],[-10,2],[-6,-2]],[[2375,4096],[84,-250]],[[790,3457]],[[846,3540],[0,1]],[[3211,3515],[-62,-20],[-37,21],[-115,0],[-51,43],[-53,-7],[-19,15]],[[2874,3567],[-6,5]],[[2868,3572],[-1,1],[-121,-42]],[[2746,3531],[122,41]],[[2868,3572],[6,-5]],[[2874,3567],[19,-15],[53,7],[50,-43],[153,-22],[63,21]],[[3516,3348],[-131,-8],[-72,167],[-97,10]],[[3216,3517],[97,-11],[17,-45],[55,-122],[13,-1],[109,-3],[9,13]],[[4096,3133],[-20,-8],[-165,22],[-90,135],[-70,21],[-28,34],[-139,41],[-68,-30]],[[184,3390],[92,-93],[244,-106]],[[627,3214],[81,-66]],[[1036,2931],[117,-54]],[[1468,3981],[-18,29]],[[2222,3378],[36,0]],[[2278,3379],[-5,3],[-51,-4]],[[2261,3379],[12,2]],[[3310,2826],[-51,32],[-42,-10]],[[3313,2818],[-3,8]],[[3312,2824],[-2,2]],[[3314,2825],[-1,-1]],[[2309,2768],[72,-12]],[[841,3463],[47,82],[254,25],[175,46],[353,-70]],[[845,3540],[1,0]],[[1814,3509],[-33,19],[-1,0]],[[1780,3528],[-52,10]],[[1728,3538],[-55,11],[-1,1]],[[1672,3546],[56,-8]],[[1728,3538],[42,-6]],[[1771,3532],[9,-4]],[[1780,3528],[1,-1],[1,0],[31,-18]],[[453,4095],[-4,1]],[[498,3871],[1,0]],[[577,3155],[0,-1]],[[627,3216],[-3,-3]],[[701,3823],[4,0]],[[748,3857],[-16,-1]],[[789,3500],[2,2]],[[798,3485]],[[1439,4023],[-1,-1]],[[1988,2792],[-24,0]],[[2111,3822],[10,-1]],[[2121,3821],[-1,-10]],[[2121,3821],[3,35]],[[2121,3821],[3,-1]],[[2124,3820],[16,-11]],[[2141,3810],[-17,10]],[[2154,3318],[3,-1]],[[2158,3317],[-2,1]],[[2158,3318],[0,-1]],[[2158,3316],[10,-3]],[[2158,3317],[1,1]],[[2168,3314],[-9,3]],[[2184,3314],[-14,0]],[[2170,3313],[14,1]],[[2224,3103],[0,141],[32,66]],[[2254,3318],[-10,-11]],[[2244,3305],[11,13]],[[2423,3961],[-16,0]],[[2521,3378],[6,13]],[[2554,2764],[1,0]],[[2562,3413]],[[2562,3414],[0,-1]],[[2582,3419]],[[2583,3420],[0,-1]],[[2604,3425],[2,2]],[[2605,3464],[3,-17]],[[2608,3447],[-2,14],[-1,3]],[[2609,3443],[-3,-16]],[[2609,3443],[-1,4]],[[2692,2456],[-155,87],[62,124],[51,44],[5,58]],[[2719,2784],[1,-14]],[[2727,2766],[-7,5]],[[2721,2751],[-1,1]],[[2784,2406],[-12,59],[49,79],[-42,44],[-1,54],[30,12],[-19,51],[-69,45]],[[2764,3535],[-30,-5]],[[2760,3534],[4,0]],[[2764,3535],[-4,-1]],[[2765,3537],[-1,-2]],[[2764,3535]],[[2776,3537],[-10,-1]],[[2770,3536],[-3,0]],[[2769,3535],[8,2]],[[2791,2808],[-1,0]],[[3248,2205],[-275,125]],[[3149,3494],[-93,13]],[[3989,3990],[8,-68],[-65,14],[-107,-117],[-156,9],[-114,-59],[-48,-1],[-14,30],[-76,18],[-103,-33],[-33,-88],[-1,-143],[-27,-37]],[[3339,3842],[-26,-61]],[[3314,2823],[0,2]],[[3318,2814],[-2,6]],[[3330,2849],[106,17],[107,61],[28,267],[-32,50]],[[3507,3336],[1,-1]],[[3508,3335],[0,-1]],[[3508,3334],[0,1]],[[3508,3335],[-1,2]],[[3508,3335]],[[3508,3335]],[[3508,3335]],[[3508,3334],[-3,-27],[39,-33]],[[3539,3244],[5,30]],[[3662,2667],[1,0]],[[3677,2665],[-1,0]],[[3694,2664]],[[4042,3959],[-60,35],[-115,6],[-37,52],[-96,44]],[[4042,3959],[0,-5]],[[4096,3856],[-54,98]],[[2158,3317],[-1,0],[0,-1],[1,0]],[[2158,3316],[0,1]],[[2170,3313],[-1,1],[-1,-1],[1,-1],[1,1]],[[2186,3314],[-1,1],[-1,-1],[1,-1],[1,1]],[[2243,3307],[-1,-1],[1,-1],[1,1],[-1,1]],[[1453,4006],[14,-25]],[[732,3856],[-28,-35]],[[939,3893],[-129,-27],[-51,33],[-11,-35]],[[843,3537],[-53,-80]],[[2278,3380],[3,-5]],[[2691,2829],[-21,-49]],[[1832,3668],[180,109],[129,31],[67,-44]],[[2208,3764],[-66,45]],[[2222,3378],[-36,4],[-17,1],[-114,4],[-5,-3],[-24,-29]],[[2026,3355],[4,3]],[[2030,3358],[13,4]],[[2030,3358],[3,3],[3,3]],[[2036,3364],[20,22],[118,-3],[48,-5]],[[2043,3362],[-7,2]],[[2145,3361],[-40,-43]],[[2107,3318],[35,18],[1,3],[3,22]],[[2143,3381],[4,0],[0,2],[-5,-1],[1,-1]],[[2143,3381],[2,-9]],[[2146,3363],[-1,0]],[[2146,3372],[0,8]],[[2241,3377],[1,0]],[[2251,3420]],[[2257,3431],[3,-1]],[[2260,3433],[-3,-1]],[[2262,3431],[0,1]],[[2357,3331],[1,0]],[[2415,3428],[-2,0],[-41,-15]],[[2372,3412],[58,18],[123,-19]],[[2425,3430],[-8,-2]],[[2146,3362],[0,1]],[[2146,3363],[-1,0],[0,-2],[1,1]],[[2263,3381],[-1,-1],[1,-1],[1,0],[-1,2]],[[3064,2809],[122,-28],[121,41]],[[3307,2822],[3,-1]],[[3310,2821],[3,-3]],[[3330,2849],[-16,-24]],[[2252,3448],[1,4],[12,28],[0,1]],[[2265,3481],[0,1]],[[2265,3482],[1,6],[1,13],[6,13],[5,17],[1,5]],[[2262,3432],[-7,8]],[[2278,3536],[-12,-34],[-1,-19],[0,-1]],[[2265,3482],[0,-1]],[[2265,3481],[-1,-1],[-11,-28],[-1,-4],[4,-11],[3,-4]],[[2279,3546],[-1,-8]],[[2280,3537],[0,9]],[[2264,3482],[1,-1]],[[2265,3481]],[[2265,3481],[1,0],[-1,1]],[[2265,3482]],[[2265,3482],[-1,0]],[[2280,3537],[-1,1],[-1,-1],[0,-1],[2,1]],[[577,3155],[-80,-101]],[[1672,3550],[-359,66],[-416,-68],[-73,-91],[-41,-14]],[[1670,3546],[2,0]],[[1813,3509],[21,-10],[37,-9]],[[1870,3491],[-56,18]],[[2262,3431],[54,-5]],[[2316,3426],[-54,6]],[[2311,3658],[-18,-25]],[[2293,3633],[21,23]],[[2313,3661],[-2,-3]],[[2311,3658],[3,-2]],[[2314,3656],[3,3]],[[2317,3659],[20,25]],[[2317,3659],[18,26]],[[2336,3687],[-1,-2]],[[2335,3685],[2,-1]],[[2337,3684],[-1,3]],[[2389,3441],[-1,-11]],[[2397,3458],[-8,-16]],[[2390,3430],[0,11]],[[2390,3442],[7,16]],[[2420,3524],[-23,-66]],[[2419,3571],[1,-47]],[[2420,3524],[1,29],[-2,17]],[[2389,3442],[0,-1],[0,-1],[1,1],[-1,1]],[[497,3054],[51,69]],[[2395,3685],[-59,2]],[[2338,3686],[55,-2],[2,1]],[[2449,3559],[0,36]],[[2449,3595],[-1,40],[-1,3]],[[2447,3638],[-25,45]],[[2422,3683],[-3,5],[-1,0],[-10,1],[-2,0]],[[2414,3689],[5,-1],[3,-5]],[[2422,3683],[24,-39],[1,-6]],[[2447,3638],[2,-43]],[[2449,3595],[2,-36]],[[2603,3462],[38,30],[14,19],[0,1]],[[2655,3512],[31,6]],[[2686,3518],[60,13]],[[2746,3531],[-60,-13]],[[2686,3518],[-31,-6]],[[2655,3512],[-1,0],[-50,-49]],[[2623,3468],[0,-1]],[[2675,3519],[0,-1]],[[2688,3521]],[[3172,3500]],[[3216,3517],[-5,-2]],[[3212,3515],[4,2]],[[498,3871],[-28,-48],[-51,-19],[2,-79],[-20,12],[76,-289],[-29,-226]],[[2359,3331],[17,-54],[1,1]],[[2377,3278],[40,8]],[[2417,3286],[50,12],[77,-50],[24,-100],[-33,-80],[1,-1]],[[2536,3067],[13,-16]],[[2549,3051],[28,-36],[5,-99],[115,-100],[27,-90],[16,-47]],[[2724,2726],[-26,90],[-116,100],[-4,100],[-29,35]],[[2549,3051],[-13,16]],[[2536,3067],[33,81],[-25,100],[-1,2],[-75,48],[-51,-12]],[[2417,3286],[-40,-8]],[[2377,3278],[-17,54]],[[2742,2679],[-1,2]],[[2360,3332],[-4,14],[-78,33]],[[2281,3375],[40,-24],[1,0],[32,-4],[5,-16]],[[706,3819],[0,-13]],[[2208,3764],[103,-105]],[[2313,3661],[-105,103]],[[2293,3633],[-4,-25]],[[2289,3608],[4,25]],[[1702,3780],[-90,62]],[[2120,3341],[32,7]],[[2152,3348],[17,3],[20,6],[33,29]],[[2258,3430],[-48,-53],[-58,-29]],[[2152,3348],[-16,-8]],[[2200,3369],[-32,-17]],[[2222,3386],[19,17],[21,28]],[[1826,3668],[-4,3]],[[1982,3400],[23,-37]],[[2557,3412],[10,3]],[[846,3541],[-1,0]],[[2140,3809],[-127,-32]],[[2258,3378],[3,1]],[[2921,2816],[-10,18],[-120,-26],[-100,21]],[[2020,3360],[24,-15]],[[2108,3343],[12,-2]],[[2255,3440],[-3,8]],[[2557,3415],[-157,13]],[[2384,2755],[170,9]],[[2555,2764],[115,16],[51,-27]],[[3767,2638],[271,-224],[58,-28]],[[2326,3425],[16,-1]],[[1928,3437],[54,-37]],[[2567,3415],[8,2],[38,12],[6,5],[-62,-19]],[[0,3525],[184,-135]],[[520,3191],[1,-1]],[[572,3158],[5,-3]],[[627,3214]],[[708,3148],[328,-217]],[[1193,2892],[-2,-28],[46,32],[2,-28],[36,12],[10,-38],[21,27],[5,-28],[49,-16],[54,0],[33,34],[34,-33],[18,23],[96,-7],[7,-24],[75,-10],[15,37],[15,-31],[90,10],[168,-34]],[[1975,2791]],[[2010,2789],[299,-21]],[[2381,2756],[3,-1]],[[2727,2766],[-14,4]],[[2720,2754],[1,0]],[[2720,2760],[7,6]],[[2727,2766],[163,-42],[43,64],[131,21]],[[3310,2823]],[[3313,2818],[186,-172],[163,21]],[[3663,2667],[13,-2]],[[3677,2665],[17,-1]],[[3694,2664],[73,-26]],[[2406,3689],[-11,-4]],[[2274,3381],[7,1]],[[521,3190],[51,-32]],[[2051,3348],[-29,11]],[[2116,3342],[-12,3]],[[4096,2014],[0,-51],[-559,104],[-90,42],[-723,337],[-346,213],[-198,87],[-214,51],[-99,0],[-76,18],[-7,0],[-406,-3],[-177,44],[-84,16],[-184,61],[-97,-20],[-277,-4],[-44,31],[-30,110],[-11,69],[-36,30],[-60,37],[-236,134],[-142,65],[0,711],[1784,0],[2312,0],[0,-1917],[-14,3],[-43,0],[-118,-22],[-165,-4],[-36,-16],[20,-16],[21,-12],[21,-3],[20,9],[82,-20],[212,23],[0,-88],[-14,5],[0,-21],[14,-3]],[[745,4005],[5,62],[87,27],[72,-49],[20,-127],[-141,7],[-43,80]],[[2557,3415],[-1,-34],[-96,34],[-116,-97],[-248,0],[-90,30],[-3,50],[26,23],[172,93],[75,92],[54,8],[108,-53],[216,-47],[-97,-99]],[[970,3616],[28,130],[49,48],[43,-11],[12,-118],[-44,-51],[12,82],[-27,-35],[-4,42],[-29,2],[7,-24],[-47,-65]],[[889,3666],[10,110],[72,105],[12,98],[78,18],[131,-30],[34,-63],[-9,-193],[-103,-102],[-45,-12],[-115,-4],[-53,35],[-12,38]]]}