{"objects":{"water":{"type":"GeometryCollection","geometries":[{"type":"Polygon","properties":{"source":"naturalearthdata.com","kind":"ocean","area":1576712559132672,"sort_rank":200,"min_zoom":0.0,"id":1},"arcs":[[82],[83],[84],[85],[86],[87],[88],[89],[90],[91],[92],[93],[94],[95],[96]]},{"type":"MultiLineString","properties":{"source":"naturalearthdata.com","kind":"ocean","sort_rank":205,"boundary":true,"min_zoom":0.0,"id":76},"arcs":[[97],[98],[99]]},{"type":"LineString","properties":{"source":"naturalearthdata.com","kind":"ocean","sort_rank":205,"boundary":true,"min_zoom":0.0,"id":293},"arcs":[100]},{"type":"LineString","properties":{"source":"naturalearthdata.com","kind":"ocean","sort_rank":205,"boundary":true,"min_zoom":0.0,"id":296},"arcs":[101]},{"type":"LineString","properties":{"source":"naturalearthdata.com","kind":"ocean","sort_rank":205,"boundary":true,"min_zoom":0.0,"id":312},"arcs":[102]},{"type":"LineString","properties":{"source":"naturalearthdata.com","kind":"ocean","sort_rank":205,"boundary":true,"min_zoom":0.0,"id":321},"arcs":[103]},{"type":"LineString","properties":{"source":"naturalearthdata.com","kind":"ocean","sort_rank":205,"boundary":true,"min_zoom":0.0,"id":322},"arcs":[104]},{"type":"LineString","properties":{"source":"naturalearthdata.com","kind":"ocean","sort_rank":205,"boundary":true,"min_zoom":0.0,"id":324},"arcs":[105]},{"type":"LineString","properties":{"source":"naturalearthdata.com","kind":"ocean","sort_rank":205,"boundary":true,"min_zoom":0.0,"id":547},"arcs":[106]},{"type":"MultiLineString","properties":{"source":"naturalearthdata.com","kind":"ocean","sort_rank":205,"boundary":true,"min_zoom":0.0,"id":550},"arcs":[[107],[108]]},{"type":"LineString","properties":{"source":"naturalearthdata.com","kind":"ocean","sort_rank":205,"boundary":true,"min_zoom":0.0,"id":3842},"arcs":[109]},{"type":"LineString","properties":{"source":"naturalearthdata.com","kind":"ocean","sort_rank":205,"boundary":true,"min_zoom":0.0,"id":3937},"arcs":[110]},{"type":"LineString","properties":{"source":"naturalearthdata.com","kind":"ocean","sort_rank":205,"boundary":true,"min_zoom":0.0,"id":3938},"arcs":[111]}]},"buildings":{"type":"GeometryCollection","geometries":[]},"places":{"type":"GeometryCollection","geometries":[{"type":"Point","properties":{"name:pt":"Trinidad e Tobago","name:cy":"Trinidad a Tobago","alt_name:el":"\u03a4\u03c1\u03b9\u03bd\u03b9\u03bd\u03c4\u03ac\u03bd\u03c4 \u03ba\u03b1\u03b9 \u03a4\u03bf\u03bc\u03c0\u03ac\u03b3\u03ba\u03bf","name:ko":"\ud2b8\ub9ac\ub2c8\ub2e4\ub4dc \ud1a0\ubc14\uace0","name:kn":"\u0c9f\u0ccd\u0cb0\u0cbf\u0ca8\u0cbf\u0ca1\u0cbe\u0ca1\u0ccd \u0cae\u0ca4\u0ccd\u0ca4\u0cc1 \u0c9f\u0cca\u0cac\u0ccd\u0caf\u0cbe\u0c97\u0cca","name:km":"\u1791\u17d2\u179a\u17b8\u1793\u17b8\u178a\u17b6\u178f \u1793\u17b7\u1784\u200b\u178f\u17bc\u1794\u17b6\u17a0\u17d2\u1782\u17c4","name:kl":"Trinidad aamma Tobago","name:cs":"Trinidad a Tobago","name:ki":"Trinidad na Tobago","name:tr":"Trinidad ve Tobago","name:ku":"Tr\u00een\u00eedad \u00fb Tobago","name:ti":"\u1275\u122a\u1292\u12f3\u12f5 \u12a5\u1293 \u1276\u1263\u130e","name:ks":"\u0679\u0631\u065b\u0646\u0650\u0646\u062f\u0627\u062f \u062a\u06c1\u0655 \u0679\u0648\u0628\u06cc\u06af\u0648","name:to":"Tilinitati mo Topako","name:sv":"Trinidad och Tobago","name:or":"\u0b24\u0b4d\u0b30\u0b3f\u0b28\u0b3f\u0b26\u0b3e\u0b26\u0b4d \u0b0f\u0b2c\u0b02 \u0b1f\u0b4b\u0b2c\u0b3e\u0b17\u0b4b","alt_name:pt":"Trindade e Tobago","name:ta":"\u0b9f\u0bcd\u0bb0\u0bbf\u0ba9\u0bbf\u0b9f\u0bbe\u0b9f\u0bcd \u0bae\u0bb1\u0bcd\u0bb1\u0bc1\u0bae\u0bcd \u0b9f\u0bc1\u0baa\u0bbe\u0b95\u0bcb","name:ca":"Trinitat i Tobago","name:te":"\u0c1f\u0c4d\u0c30\u0c3f\u0c28\u0c3f\u0c21\u0c47\u0c21\u0c4d \u0c2e\u0c30\u0c3f\u0c2f\u0c41 \u0c1f\u0c4a\u0c2c\u0c3e\u0c17\u0c4b","name:ro":"Trinidad \u015fi Tobago","name:ka":"\u10e2\u10e0\u10d8\u10dc\u10d8\u10d3\u10d0\u10d3\u10d8 \u10d3\u10d0 \u10e2\u10dd\u10d1\u10d0\u10d2\u10dd","name:hr":"Trinidad i Tobago","name:da":"Trinidad og Tobago","name:de":"Trinidad und Tobago","name:dz":"\u0f4a\u0f72\u0f0b\u0f53\u0f72\u0f0b\u0f4c\u0f71\u0f4c\u0f0b \u0f68\u0f7a\u0f53\u0f4c\u0f0b \u0f4a\u0f7c\u0f0b\u0f56\u0fb7\u0f7a\u0f0b\u0f42\u0fb7\u0f7c","source":"openstreetmap.org","name:lv":"Trinid\u0101da un Tob\u0101go","name:lt":"Trinidadas ir Tobagas","name:hi":"\u0924\u094d\u0930\u093f\u0928\u093f\u0926\u093e\u0926 \u0914\u0930 \u091f\u094b\u092c\u0948\u0917\u094b","name:he":"\u05d8\u05e8\u05d9\u05e0\u05d9\u05d3\u05d3 \u05d5\u05d8\u05d5\u05d1\u05d2\u05d5","kind":"country","name:ur":"\u062a\u0631\u06cc\u0646\u06cc\u062f\u0627\u062f \u0627\u0648\u0631 \u0679\u0648\u0628\u0627\u06af\u0648","name:la":"Trinitas et Tabacum","name:lg":"Turindaadi ne Tobago","name:uk":"\u0422\u0440\u0456\u043d\u0456\u0434\u0430\u0434 \u0442\u0430 \u0422\u043e\u0431\u0430\u0433\u043e","name:hy":"\u054f\u0580\u056b\u0576\u056b\u0564\u0561\u0564-\u054f\u0578\u0562\u0561\u0563\u0578","min_zoom":2.0,"name:hu":"Trinidad \u00e9s Tobago","name:ln":"Tinidad\u025b mp\u00e9 Tobago","name:lo":"\u0e97\u0eb2\u0e8d\u0e99\u0eb4\u0e94\u0eb2\u0e94 \u0ec1\u0ea5\u0eb0 \u0ec2\u0e97\u0e9a\u0eb2\u0ec2\u0e81\u0ec9","population":1328019,"name:el":"\u03a4\u03c1\u03b9\u03bd\u03b9\u03b4\u03ac\u03b4 \u03ba\u03b1\u03b9 \u03a4\u03bf\u03bc\u03c0\u03ac\u03b3\u03ba\u03bf","name:eo":"Trinidado kaj Tobago","name":"Trinidad and Tobago","official_name":"Republic of Trinidad and Tobago","name:ee":"Trinidad kple Tobago nutome","name:th":"\u0e1b\u0e23\u0e30\u0e40\u0e17\u0e28\u0e15\u0e23\u0e34\u0e19\u0e34\u0e41\u0e14\u0e14\u0e41\u0e25\u0e30\u0e42\u0e15\u0e40\u0e1a\u0e42\u0e01","name:gu":"\u0aa4\u0acd\u0ab0\u0abf\u0aa8\u0abf\u0aa1\u0abe\u0aa1 \u0a85\u0aa8\u0ac7 \u0a9f\u0acb\u0aac\u0ac7\u0a97\u0acb","name:eu":"Trinidad eta Tobago","name:et":"Trinidad ja Tobago","name:nl":"Trinidad en Tobago","name:es":"Trinidad y Tobago","name:ia":"Trinidad e Tobago","name:rm":"Trinidad e Tobago","name:rn":"Tirinidadi na Tobago","name:az":"Trinidan v\u0259 Tobaqo","name:id":"Trinidad dan Tobago","name:ms":"Trinidad dan Tobago","name:mr":"\u0924\u094d\u0930\u093f\u0928\u093f\u0926\u093e\u0926 \u0906\u0923\u093f \u091f\u094b\u092c\u0945\u0917\u094b","name:ar":"\u062a\u0631\u064a\u0646\u064a\u062f\u0627\u062f \u0648\u062a\u0648\u0628\u0627\u063a\u0648","name:io":"Trinidad e Tobago","name:is":"Tr\u00ednidad og T\u00f3bag\u00f3","name:am":"\u1275\u122a\u1293\u12f3\u12f5 \u12a5\u1293 \u1276\u1264\u130e","name:it":"Trinidad e Tobago","name:vi":"Trinidad v\u00e0 Tobago","name:ru":"\u0422\u0440\u0438\u043d\u0438\u0434\u0430\u0434 \u0438 \u0422\u043e\u0431\u0430\u0433\u043e","name:mn":"\u0422\u0440\u0438\u043d\u0438\u0434\u0430\u0434 \u0431\u0430 \u0422\u043e\u0431\u0430\u0433\u043e","name:pl":"Trynidad i Tobago","name:mk":"\u0422\u0440\u0438\u043d\u0438\u0434\u0430\u0434 \u0438 \u0422\u043e\u0431\u0430\u0433\u043e","name:af":"Trinidad en Tobago","name:zu":"i-Trinidad ne-Tobago","name:ha":"Tirinidad Da Tobago","name:nn":"Trinidad og Tobago","name:ff":"Tirnidaad e Tobaago","name:fi":"Trinidad ja Tobago","name:no":"Trinidad og Tobago","name:mg":"Trinidad sy Tobag\u00f4","id":249399444,"name:mt":"Trinidad u Tobago","name:fr":"Trinit\u00e9-et-Tobago","name:fy":"Trinidad en Tobago","name:vo":"Trinidade\u00e4n e Tobage\u00e4ns","name:zh":"\u7279\u7acb\u5c3c\u8fbe\u548c\u591a\u5df4\u54e5","name:gv":"Trinaid as Tobago","name:sl":"Trinidad in Tobago","name:sk":"Trinidad a Tobago","name:ja":"\u30c8\u30ea\u30cb\u30c0\u30fc\u30c9\u30fb\u30c8\u30d0\u30b4","name:si":"\u0da7\u0dca\u200d\u0dbb\u0dd2\u0db1\u0dd2\u0da9\u0dd1\u0da9\u0dca \u0dc3\u0dc4 \u0da7\u0ddc\u0db6\u0dd0\u0d9c\u0ddd","name:fa":"\u062a\u0631\u06cc\u0646\u06cc\u062f\u0627\u062f \u0648 \u062a\u0648\u0628\u0627\u06af\u0648","name:sg":"Trinit\u00f9ee na Tobag\u00f6","name:se":"Trinidad ja Tobago","name:ne":"\u0924\u094d\u0930\u093f\u0928\u093f\u0921\u093e\u0921 \u0930 \u0924\u094b\u092c\u093e\u0917\u094b","name:br":"Trinidad ha Tobago","name:bs":"Trinidad i Tobago","name:bm":"Trinite-ni-Tobago","name:bn":"\u09a4\u09cd\u09b0\u09bf\u09a8\u09bf\u09a8\u09be\u09a6 \u0993 \u099f\u09cb\u09ac\u09cd\u09af\u09be\u0997\u09cb","name:ml":"\u0d1f\u0d4d\u0d30\u0d3f\u0d28\u0d3f\u0d21\u0d3e\u0d21\u0d41\u0d02 \u0d31\u0d4d\u0d31\u0d4a\u0d2c\u0d3e\u0d17\u0d4b\u0d2f\u0d41\u0d02","name:sw":"Trinidad na Tobago","name:be":"\u0422\u0440\u044b\u043d\u0456\u0434\u0430\u0434 \u0456 \u0422\u0430\u0431\u0430\u0433\u0430","name:bg":"\u0422\u0440\u0438\u043d\u0438\u0434\u0430\u0434 \u0438 \u0422\u043e\u0431\u0430\u0433\u043e","name:sr":"\u0422\u0440\u0438\u043d\u0438\u0434\u0430\u0434 \u0438 \u0422\u043e\u0431\u0430\u0433\u043e","name:sq":"Trinidad e Tobago","name:ga":"Oile\u00e1n na Tr\u00edon\u00f3ide agus Tob\u00e1ga","name:gd":"Trianaid agus Tobago","name:gl":"Trindade e Tobago","name:fo":"Trinidad og Tobago","name:yo":"Or\u00edl\u1eb9\u0301\u00e8de Tirinida ati Tobaga","name:ak":"Trinidad ne Tobago","name:tt":"\u0422\u0440\u0438\u043d\u0438\u0434\u0430\u0434 \u04bb\u04d9\u043c \u0422\u043e\u0431\u0430\u0433\u043e"},"coordinates":[650,3867]},{"type":"Point","properties":{"kind":"region","name:en":"Delta Amacuro State","name":"Delta Amacuro","kind_detail":"state","source":"openstreetmap.org","min_zoom":4.0,"name:ru":"\u0414\u0435\u043b\u044c\u0442\u0430-\u0410\u043c\u0430\u043a\u0443\u0440\u043e","id":313466922,"population":152700},"coordinates":[226,2218]},{"type":"Point","properties":{"source":"naturalearthdata.com","kind":"locality","name":"Port-of-Spain","country_capital":true,"population":294934,"min_zoom":5.0,"id":6257},"coordinates":[261,3708]},{"type":"Point","properties":{"source":"naturalearthdata.com","kind":"locality","name":"Georgetown","country_capital":true,"population":264350,"min_zoom":5.0,"id":6825},"coordinates":[2700,873]},{"type":"Point","properties":{"source":"naturalearthdata.com","kind":"locality","name":"New Amsterdam","population":46874,"min_zoom":6.0,"id":5522},"coordinates":[3164,467]},{"type":"Point","properties":{"source":"naturalearthdata.com","kind":"locality","name":"Linden","population":44690,"min_zoom":6.0,"id":4943},"coordinates":[2625,275]},{"type":"Point","properties":{"source":"naturalearthdata.com","kind":"locality","name":"Mabaruma","population":2972,"min_zoom":6.0,"id":5521},"coordinates":[1526,1903]},{"type":"Point","properties":{"source":"naturalearthdata.com","kind":"locality","name":"El Dorado","population":2383,"min_zoom":6.0,"id":5443},"coordinates":[176,823]}]},"transit":{"type":"GeometryCollection","geometries":[]},"pois":{"type":"GeometryCollection","geometries":[]},"boundaries":{"type":"GeometryCollection","geometries":[{"type":"MultiLineString","properties":{"source":"naturalearthdata.com","kind":"disputed","sort_rank":261,"kind_detail":"2","min_zoom":0.0,"id":307},"arcs":[[0],[1],[2],[3],[4],[5],[6],[7],[8],[9],[10],[11],[12],[13],[14],[15],[16],[17],[18],[19],[20],[21],[22],[23],[24]]},{"type":"MultiLineString","properties":{"source":"naturalearthdata.com","kind":"region","sort_rank":256,"kind_detail":"4","min_zoom":5.5,"id":904},"arcs":[[25],[26],[27],[28],[29],[30]]},{"type":"LineString","properties":{"source":"naturalearthdata.com","kind":"region","sort_rank":256,"kind_detail":"4","min_zoom":6.0,"id":222},"arcs":[31]},{"type":"LineString","properties":{"source":"naturalearthdata.com","kind":"region","sort_rank":256,"kind_detail":"4","min_zoom":6.0,"id":223},"arcs":[32]},{"type":"LineString","properties":{"source":"naturalearthdata.com","kind":"region","sort_rank":256,"kind_detail":"4","min_zoom":6.0,"id":224},"arcs":[33]},{"type":"LineString","properties":{"source":"naturalearthdata.com","kind":"region","sort_rank":256,"kind_detail":"4","min_zoom":6.0,"id":225},"arcs":[34]},{"type":"LineString","properties":{"source":"naturalearthdata.com","kind":"region","sort_rank":256,"kind_detail":"4","min_zoom":6.0,"id":226},"arcs":[35]},{"type":"LineString","properties":{"source":"naturalearthdata.com","kind":"region","sort_rank":256,"kind_detail":"4","min_zoom":6.0,"id":1798},"arcs":[36]},{"type":"MultiLineString","properties":{"source":"naturalearthdata.com","kind":"region","sort_rank":256,"kind_detail":"4","min_zoom":6.0,"id":3808},"arcs":[[37],[38],[39],[40],[41],[42],[43],[44]]},{"type":"LineString","properties":{"source":"naturalearthdata.com","kind":"region","sort_rank":256,"kind_detail":"4","min_zoom":6.0,"id":3809},"arcs":[45]},{"type":"MultiLineString","properties":{"source":"naturalearthdata.com","kind":"region","sort_rank":256,"kind_detail":"4","min_zoom":6.0,"id":3810},"arcs":[[46],[47],[48]]},{"type":"MultiLineString","properties":{"source":"naturalearthdata.com","kind":"region","sort_rank":256,"kind_detail":"4","min_zoom":6.0,"id":3811},"arcs":[[49],[50],[51]]},{"type":"LineString","properties":{"source":"naturalearthdata.com","kind":"region","sort_rank":256,"kind_detail":"4","min_zoom":6.0,"id":3812},"arcs":[52]},{"type":"LineString","properties":{"source":"naturalearthdata.com","kind":"region","sort_rank":256,"kind_detail":"4","min_zoom":6.0,"id":3813},"arcs":[53]},{"type":"LineString","properties":{"source":"naturalearthdata.com","kind":"region","sort_rank":256,"kind_detail":"4","min_zoom":6.0,"id":3814},"arcs":[54]},{"type":"LineString","properties":{"source":"naturalearthdata.com","kind":"region","sort_rank":256,"kind_detail":"4","min_zoom":6.0,"id":3815},"arcs":[55]},{"type":"MultiLineString","properties":{"source":"naturalearthdata.com","kind":"region","sort_rank":256,"kind_detail":"4","min_zoom":6.0,"id":3816},"arcs":[[56],[57],[58]]},{"type":"LineString","properties":{"source":"naturalearthdata.com","kind":"region","sort_rank":256,"kind_detail":"4","min_zoom":6.0,"id":3818},"arcs":[59]},{"type":"MultiLineString","properties":{"source":"naturalearthdata.com","kind":"region","sort_rank":256,"kind_detail":"4","min_zoom":6.0,"id":3819},"arcs":[[60],[61],[62]]},{"type":"MultiLineString","properties":{"source":"naturalearthdata.com","kind":"region","sort_rank":256,"kind_detail":"4","min_zoom":6.0,"id":3820},"arcs":[[63],[64],[65],[66],[67]]},{"type":"MultiLineString","properties":{"source":"naturalearthdata.com","kind":"region","sort_rank":256,"kind_detail":"4","min_zoom":6.0,"id":3821},"arcs":[[68],[69],[70],[71],[72],[73],[74],[75],[76],[77],[78],[79]]},{"type":"MultiLineString","properties":{"source":"naturalearthdata.com","kind":"region","sort_rank":256,"kind_detail":"4","min_zoom":6.0,"id":3825},"arcs":[[80],[81]]}]},"roads":{"type":"GeometryCollection","geometries":[{"type":"LineString","properties":{"source":"naturalearthdata.com","kind":"minor_road","sort_rank":355,"kind_detail":"tertiary","min_zoom":6.0,"id":39114},"arcs":[112]},{"type":"LineString","properties":{"source":"naturalearthdata.com","kind":"major_road","sort_rank":379,"kind_detail":"secondary","min_zoom":4.0,"id":39409},"arcs":[113]},{"type":"LineString","properties":{"source":"naturalearthdata.com","kind":"major_road","sort_rank":379,"kind_detail":"secondary","min_zoom":4.0,"id":39428},"arcs":[114]},{"type":"LineString","properties":{"source":"naturalearthdata.com","kind":"major_road","sort_rank":379,"kind_detail":"secondary","min_zoom":4.0,"id":39458},"arcs":[115]},{"type":"LineString","properties":{"source":"naturalearthdata.com","kind":"major_road","sort_rank":379,"kind_detail":"secondary","min_zoom":3.0,"id":39566},"arcs":[116]},{"type":"LineString","properties":{"source":"naturalearthdata.com","kind":"major_road","kind_detail":"secondary","sort_rank":379,"landuse_kind":"urban_area","min_zoom":3.0,"id":39656},"arcs":[117]},{"type":"LineString","properties":{"source":"naturalearthdata.com","kind":"major_road","sort_rank":379,"kind_detail":"secondary","min_zoom":3.0,"id":39656},"arcs":[118]},{"type":"LineString","properties":{"source":"naturalearthdata.com","kind":"major_road","sort_rank":379,"kind_detail":"secondary","min_zoom":4.0,"id":39677},"arcs":[119]},{"type":"LineString","properties":{"source":"naturalearthdata.com","kind":"major_road","sort_rank":379,"kind_detail":"secondary","min_zoom":4.0,"id":39836},"arcs":[120]},{"type":"LineString","properties":{"source":"naturalearthdata.com","kind":"major_road","sort_rank":379,"kind_detail":"secondary","min_zoom":4.0,"id":39837},"arcs":[121]},{"type":"LineString","properties":{"source":"naturalearthdata.com","kind":"major_road","sort_rank":379,"kind_detail":"secondary","min_zoom":4.0,"id":39845},"arcs":[122]},{"type":"LineString","properties":{"source":"naturalearthdata.com","kind":"major_road","kind_detail":"secondary","sort_rank":379,"landuse_kind":"urban_area","min_zoom":3.0,"id":39898},"arcs":[123]},{"type":"LineString","properties":{"source":"naturalearthdata.com","kind":"major_road","sort_rank":379,"kind_detail":"secondary","min_zoom":3.0,"id":39898},"arcs":[124]},{"type":"LineString","properties":{"source":"naturalearthdata.com","kind":"major_road","kind_detail":"secondary","sort_rank":379,"landuse_kind":"urban_area","min_zoom":3.0,"id":39971},"arcs":[125]},{"type":"LineString","properties":{"source":"naturalearthdata.com","kind":"major_road","sort_rank":379,"kind_detail":"secondary","min_zoom":3.0,"id":39971},"arcs":[126]},{"type":"LineString","properties":{"source":"naturalearthdata.com","kind":"major_road","sort_rank":379,"kind_detail":"secondary","min_zoom":3.0,"id":40005},"arcs":[127]},{"type":"LineString","properties":{"source":"naturalearthdata.com","kind":"minor_road","sort_rank":355,"kind_detail":"tertiary","min_zoom":6.0,"id":40009},"arcs":[128]},{"type":"LineString","properties":{"source":"naturalearthdata.com","kind":"minor_road","sort_rank":355,"kind_detail":"tertiary","min_zoom":6.0,"id":40016},"arcs":[129]},{"type":"LineString","properties":{"source":"naturalearthdata.com","kind":"major_road","sort_rank":379,"kind_detail":"secondary","min_zoom":3.0,"id":40021},"arcs":[130]},{"type":"LineString","properties":{"source":"naturalearthdata.com","kind":"major_road","sort_rank":379,"kind_detail":"secondary","min_zoom":3.0,"id":40022},"arcs":[131]},{"type":"LineString","properties":{"source":"naturalearthdata.com","kind":"minor_road","sort_rank":355,"kind_detail":"tertiary","min_zoom":6.0,"id":40023},"arcs":[132]},{"type":"LineString","properties":{"source":"naturalearthdata.com","kind":"major_road","sort_rank":379,"kind_detail":"secondary","min_zoom":3.0,"id":40044},"arcs":[133]},{"type":"LineString","properties":{"source":"naturalearthdata.com","kind":"major_road","sort_rank":379,"kind_detail":"secondary","min_zoom":3.0,"id":40058},"arcs":[134]},{"type":"LineString","properties":{"source":"naturalearthdata.com","kind":"major_road","sort_rank":379,"kind_detail":"secondary","min_zoom":3.0,"id":40059},"arcs":[135]},{"type":"MultiLineString","properties":{"source":"naturalearthdata.com","kind":"major_road","kind_detail":"secondary","sort_rank":379,"landuse_kind":"park","min_zoom":4.0,"id":40095},"arcs":[[136],[137],[138]]},{"type":"MultiLineString","properties":{"source":"naturalearthdata.com","kind":"major_road","sort_rank":379,"kind_detail":"secondary","min_zoom":4.0,"id":40095},"arcs":[[139],[140],[141],[142]]},{"type":"LineString","properties":{"source":"naturalearthdata.com","kind":"major_road","sort_rank":379,"kind_detail":"secondary","min_zoom":4.0,"id":40113},"arcs":[143]},{"type":"LineString","properties":{"source":"naturalearthdata.com","kind":"major_road","sort_rank":379,"kind_detail":"secondary","min_zoom":4.0,"id":40455},"arcs":[144]},{"type":"LineString","properties":{"source":"naturalearthdata.com","kind":"major_road","kind_detail":"secondary","sort_rank":379,"landuse_kind":"urban_area","min_zoom":4.0,"id":48534},"arcs":[145]},{"type":"LineString","properties":{"source":"naturalearthdata.com","kind":"highway","kind_detail":"motorway","sort_rank":383,"landuse_kind":"urban_area","min_zoom":4.0,"id":48535},"arcs":[146]},{"type":"MultiLineString","properties":{"source":"naturalearthdata.com","kind":"highway","sort_rank":383,"kind_detail":"motorway","min_zoom":4.0,"id":48535},"arcs":[[147],[148]]},{"type":"LineString","properties":{"source":"naturalearthdata.com","kind":"highway","kind_detail":"motorway","sort_rank":383,"landuse_kind":"urban_area","min_zoom":5.0,"id":48536},"arcs":[149]},{"type":"LineString","properties":{"source":"naturalearthdata.com","kind":"highway","sort_rank":383,"kind_detail":"motorway","min_zoom":5.0,"id":48536},"arcs":[150]}]},"earth":{"type":"GeometryCollection","geometries":[{"type":"MultiPolygon","properties":{"sort_rank":10,"source":"naturalearthdata.com","min_zoom":0.0,"kind":"earth","area":1275874275256},"arcs":[[[151]],[[152]],[[153]],[[154]],[[155]],[[156]],[[157]],[[158]],[[159]],[[160]],[[161]],[[162]],[[163]],[[164]]]}]},"landuse":{"type":"GeometryCollection","geometries":[{"type":"MultiPolygon","properties":{"source":"openstreetmap.org","kind":"park","tier":2,"area":22061953311,"sort_rank":24,"min_zoom":4.0},"arcs":[[[165]]]},{"type":"MultiPolygon","properties":{"source":"naturalearthdata.com","kind":"urban_area","name":"","area":2702557662,"sort_rank":11,"min_zoom":4.0},"arcs":[[[166]],[[167]],[[168]],[[169]]]},{"type":"MultiPolygon","properties":{"source":"openstreetmap.org","kind":"park","tier":2,"area":2146456570,"sort_rank":24,"min_zoom":6.0,"osm_relation":true},"arcs":[[[170]]]},{"type":"MultiPolygon","properties":{"source":"openstreetmap.org","kind":"park","tier":2,"area":50616634813,"sort_rank":24,"min_zoom":4.0,"osm_relation":true},"arcs":[[[171]]]}]}},"type":"Topology","transform":{"translate":[-61.875,5.6159858192],"scale":[0.001373291,0.0013580117]},"arcs":[[[1316,1779],[15,1],[13,7],[7,13],[6,29],[9,11],[1,9],[-2,9],[0,10],[5,12],[19,14],[8,9],[12,6],[37,8],[15,1],[15,5],[14,13],[9,16],[1,15],[-30,48],[-75,85],[-45,66]],[[1287,1782],[29,-3]],[[1061,1623],[31,3],[18,13],[6,17],[16,15],[35,24],[3,3],[11,9],[7,12],[9,10],[35,14],[13,10],[11,12],[15,12],[16,5]],[[999,1624],[62,-1]],[[921,1481],[7,5],[2,9],[-1,11],[11,20],[0,8],[-3,14],[1,7],[3,6],[17,20],[14,27],[10,10],[17,6]],[[910,1483],[11,-2]],[[966,1112],[-50,40],[-8,8],[-11,22],[0,22],[9,20],[18,16],[3,5],[1,5],[1,6],[-2,6],[-6,10],[-9,21],[-5,9],[-5,4],[-6,3],[-6,4],[-3,7],[0,6],[1,5],[-1,4],[-3,5],[-10,7],[-10,3],[-9,3],[-17,31],[-4,11],[-1,11],[11,19],[33,11],[11,14],[10,19],[7,10],[5,4]],[[1073,1145],[-10,0],[-8,4],[-8,5],[-9,4],[-19,0]],[[1019,1158],[-15,-6],[-12,-11],[-16,-29],[-10,0]],[[1091,974],[6,36],[6,13],[11,9],[13,8],[10,9],[7,10],[6,12],[3,13],[-1,13],[-5,11],[-9,9],[-26,14],[0,1],[-9,9],[-9,5],[-9,1]],[[1085,1147],[-12,-2]],[[1078,981],[13,-7]],[[840,842],[15,6],[12,12],[21,30],[12,10],[13,6],[53,12],[93,59],[19,4]],[[704,883],[10,-1],[16,-4],[5,-4],[5,-5],[7,-5],[8,-2]],[[670,819],[15,3],[4,3],[20,21],[1,3],[1,6],[-2,7],[-7,10],[-2,8],[4,3]],[[788,867],[14,-4],[27,-17],[11,-4]],[[755,862],[7,0],[17,4],[9,1]],[[637,824],[33,-5]],[[624,813],[13,11]],[[593,820],[15,-2],[16,-5]],[[586,807],[7,13]],[[556,813],[16,-2],[14,-4]],[[541,418],[8,2],[2,12],[0,10],[4,28],[-1,7],[-3,3],[-2,1],[-2,5],[-4,5],[-13,8],[-4,7],[-5,21],[-1,8],[4,35],[4,11],[6,8],[2,7],[0,6],[-1,6],[-2,6],[-8,11],[-7,22],[-5,11],[-11,10],[-11,6],[-7,7],[-1,15],[5,26],[11,27],[14,26],[23,27],[7,8],[13,3]],[[530,419],[11,-1]],[[552,0],[-2,2],[-55,62],[-56,61],[-55,62],[-23,26],[-13,30],[8,8],[24,14],[11,8],[34,55],[9,23],[7,11],[10,5],[24,5],[12,3],[9,6],[7,9],[7,19],[10,8],[10,2]],[[0,1975],[175,-8],[-6,-37],[0,-21],[3,-17],[22,-49],[8,-12],[5,-5],[11,-9],[16,-21],[116,-131],[27,-25],[11,-8],[17,-9]],[[646,1716],[12,0],[7,-2],[4,-2],[8,-8],[1,-2],[3,-5],[104,-120],[5,-4],[4,0]],[[566,1680],[5,0],[4,1],[14,5],[4,2],[5,4],[16,15],[5,5],[4,1],[4,1],[19,2]],[[794,1573],[4,1],[9,5],[25,21],[16,19],[3,3],[16,8],[61,45],[3,1],[4,2],[12,2],[3,2],[7,3],[9,7],[3,1],[4,1],[197,4]],[[546,1680],[20,0]],[[405,1623],[5,0],[4,1],[6,4],[7,3],[16,4],[13,1],[4,1],[14,6],[11,4],[3,2],[3,1],[11,10],[3,2],[12,3],[3,1],[19,12],[3,2],[4,0]],[[2884,808],[1,2]],[[2695,883]],[[2253,1509],[8,10]],[[2383,590]],[[2372,642]],[[3881,0],[-14,29],[-1,8],[-2,16],[-3,7],[-8,12],[-11,26],[-2,18],[-1,123],[-1,7]],[[2731,342],[8,-24],[0,-13],[-9,-30],[8,-13],[10,-5],[50,-16],[23,-5],[6,0],[30,-5],[4,-5],[5,-12],[8,-8],[14,-19],[4,-3],[7,-1]],[[3044,188],[9,3]],[[3029,189],[15,-1]],[[3002,180],[6,1],[16,6],[5,2]],[[2906,184],[10,-1],[7,-4],[12,-13],[6,-1]],[[2899,183],[7,1]],[[2969,182],[33,-2]],[[2941,165],[5,1],[5,5],[4,4],[6,4],[8,3]],[[2399,625],[15,-10],[41,-64],[9,-10],[8,-7],[29,-19],[28,-32],[9,-17],[5,-13],[1,-7],[1,-6],[0,-5],[1,-5],[12,-41],[0,-4],[-1,-7],[2,-1],[4,-1],[32,-2],[8,-2],[6,-3],[13,-8]],[[2691,368],[24,-22],[5,-3],[11,-1]],[[2641,352],[4,0],[6,1],[12,7],[28,8]],[[2622,361],[19,-9]],[[2895,675],[6,0],[6,4],[0,4],[-5,9],[-2,5],[-1,5],[2,19],[-1,7],[-2,6],[-6,11],[-5,11],[-2,10],[-1,40],[0,2]],[[2880,677],[5,0],[5,-1],[5,-1]],[[2731,342],[-7,35],[-2,39],[2,11],[2,8],[38,101],[6,10],[6,7],[5,4],[5,3],[6,4],[6,7],[16,23],[5,6],[3,2],[3,2],[10,2],[21,3],[6,2],[6,4],[3,6],[2,5],[1,5],[0,6],[-1,5],[-6,16],[-1,6],[1,7],[3,4],[4,2],[6,0]],[[2622,361],[12,19],[0,9],[-2,8],[-7,18],[-2,7],[-1,4],[-6,9],[-5,11],[0,5],[1,4],[2,4],[6,9],[5,11],[3,11],[0,7],[-1,5],[-2,3],[-7,8],[-8,7],[-3,4],[-3,6],[-4,12],[-1,8],[0,6],[1,4],[1,4],[7,16],[2,7],[0,6],[0,4],[-5,12],[-4,14],[0,5],[1,5],[2,3],[9,11],[24,25],[2,1],[1,1],[6,8],[38,75],[8,21],[0,5],[0,5],[-5,15],[-3,12],[-1,12],[0,7],[2,9],[2,5],[8,33],[0,2]],[[2443,1003],[-13,-4],[-50,-28],[-14,-10],[-6,-9],[-5,-36],[-2,-6],[-4,-7],[-5,-4],[-7,-1],[-9,0],[-13,-4],[-7,-5],[-6,-6],[-22,-34],[-6,-5],[-5,-4],[-23,-12],[-31,-19]],[[1981,1008],[-1,8],[-14,54],[-2,10],[1,11],[1,10],[41,124],[4,6],[6,7],[19,15],[5,6],[1,7],[-1,6],[-1,5],[-3,6],[-14,21],[-3,6],[-1,5],[0,6],[4,8],[9,11],[43,46],[11,6],[89,36],[15,10],[28,26],[35,45]],[[3079,0],[15,64],[13,34],[2,5],[-1,7],[-1,6],[-11,11],[-10,2],[-11,13],[-22,49]],[[3085,291],[4,1],[3,3],[4,4],[15,27],[4,12],[0,4],[-1,3],[-2,3],[-5,5],[-3,2],[-3,3],[-2,3],[-5,24],[-1,11],[1,9],[3,5],[4,4],[4,3],[4,1],[8,2],[4,0],[25,4],[11,3],[7,5],[4,4],[1,5],[0,4],[-4,15],[3,14],[4,8],[-1,5]],[[3060,303],[5,0],[3,-2],[3,-2],[6,-5],[4,-3],[4,0]],[[3053,191],[2,25],[-3,35],[-4,17],[-13,21],[9,8],[9,4],[7,2]],[[2372,0],[0,5],[0,51],[5,47],[-3,47],[3,16],[18,39],[9,14],[2,18],[0,60],[-2,8],[-7,18],[-1,15],[10,98],[-2,7],[-4,7],[-3,6],[2,5],[4,6],[2,6],[1,7],[0,6],[-2,13],[-17,35],[-2,15],[0,32],[-2,9]],[[2215,809],[12,-22],[2,-11],[-4,-42],[-3,-16],[-3,-26],[3,-8],[4,-5],[4,-1],[9,-2],[36,-1],[9,-2],[7,-3],[43,-23],[7,-3],[6,0]],[[2360,648],[11,-5],[1,-1]],[[2347,644],[3,2],[6,2],[4,0]],[[1981,1008],[0,-16],[-15,-46],[-1,-13],[2,-8],[6,-3],[5,-2],[18,-4],[4,-2],[8,-5],[4,-2],[26,-10],[9,-1],[9,-1]],[[2100,918],[19,-6],[7,-12],[1,-4],[3,-30],[4,-9],[6,-7],[6,-3],[13,-4],[11,-1]],[[2056,895],[5,0],[4,1],[4,1],[4,3],[14,14],[4,3],[9,1]],[[2193,848],[7,0],[3,-6],[0,-6],[12,-27]],[[2170,842],[4,1],[5,1],[8,3],[6,1]],[[1749,1010],[-6,3],[-4,3],[-60,62],[-5,4],[-5,3],[-75,18],[-106,58],[-7,0]],[[1481,1161],[-11,-1],[-22,-5],[-8,-5],[-6,-4],[-1,-5],[-3,-9],[-3,-5],[-10,-9],[-4,-5],[-7,-11],[-5,-4],[-5,-4],[-6,-1]],[[1222,1086],[-6,1],[-5,4],[-17,16],[-23,14],[-26,10],[-12,3]],[[1133,1134],[-13,0],[-8,-2]],[[1390,1093],[-7,1],[-29,10]],[[1354,1104],[-11,-1],[-7,-4],[-4,-4],[-2,-5],[-4,-5],[-5,-5],[-5,-4],[-5,-4],[-4,-2],[-6,-1]],[[1301,1069],[-25,7],[-23,11],[-13,2],[-8,1]],[[1232,1090],[-10,-4]],[[1981,1008],[-39,17],[-33,8],[-6,0]],[[1903,1033],[-5,0],[-8,-4],[-4,-3],[-3,-3],[-1,-4],[-3,-14],[-2,-3],[-9,-6],[-15,-13],[-8,0]],[[1845,983],[-11,2],[-44,14],[-10,9],[-5,2],[-5,2]],[[1770,1012],[-21,-2]],[[1994,0],[-8,17],[-3,4],[-14,14],[-16,21],[-5,5],[-5,4],[-6,3],[-5,1]],[[1932,69],[-7,-2],[-6,-2],[-27,-14],[-7,-7],[-8,-9],[-14,-17],[-10,-18]],[[4096,193],[-5,2],[-34,9],[-37,1],[-47,12],[-79,19],[-34,3],[-14,4],[-13,6],[-23,14],[-12,5],[-32,2],[-56,2],[-37,0],[-26,3],[-45,11],[-20,5],[-6,-1],[-8,-9],[-7,-1],[-7,-3],[-4,-3],[-9,-10],[-4,-3],[-4,-1],[-3,-3],[-5,-4],[-17,-3],[-6,-4],[-4,-7],[-3,-8],[-20,-32],[-8,-20],[-9,-30],[-1,-19],[-5,-24],[-4,-70],[-8,-36],[-14,0],[6,17],[2,40],[-17,28],[1,17],[8,18],[0,15],[3,9],[6,13],[3,13],[12,26],[-2,26],[-1,12],[-1,16],[-4,11],[-13,26],[6,-5],[10,-15],[0,8],[-2,6],[-4,8],[-2,8],[-3,18],[-6,30],[-14,27],[-15,22],[-60,62],[-30,21],[-25,17],[-9,6],[-23,13],[-14,7],[-13,6],[-15,6],[-14,1],[-3,-1],[-3,-3],[-7,-4],[-10,-10],[0,-13],[-1,-8],[-1,-7],[-6,-9],[-4,6],[-2,15],[-8,10],[-22,52],[-15,36],[-14,16],[-11,11],[-10,11],[-16,13],[-23,19],[-41,34],[-16,16],[-13,6],[-7,11],[-23,24],[-40,38],[-19,14],[-27,27],[-22,17],[-14,12],[-46,22],[-62,8],[-6,-2],[-3,-9],[-3,-3],[-3,1],[-3,2],[-6,5],[-2,3],[-4,2],[-14,13],[-44,23],[-28,9],[-30,1],[-32,-8],[-27,-19],[-19,-26],[-77,-136],[-8,-31],[-3,-97],[-12,-29],[6,-5],[-9,0],[-3,-1],[-6,1],[-10,5],[-3,-3],[-2,-4],[-2,-3],[-8,-5],[-22,-20],[-2,2],[-3,2],[48,70],[2,8],[4,16],[0,131],[2,8],[7,10],[1,7],[-1,48],[1,16],[18,44],[4,29],[5,15],[8,14],[11,14],[11,9],[17,12],[9,12],[12,78],[-3,94],[3,32],[-5,-6],[8,24],[-6,24],[-13,23],[-57,57],[-12,16],[-18,23],[-15,25],[-12,18],[-12,15],[-14,14],[-16,12],[-18,7],[-10,0],[-1,-8],[7,-18],[-2,-5],[-12,18],[-18,37],[-19,25],[-21,31],[-38,30],[-99,112],[-39,36],[-11,15],[-11,10],[-44,33],[-133,79],[-77,56],[-67,30],[-48,29],[-23,20],[-14,10],[-30,9],[-26,21],[-12,5],[-17,-3],[-2,-9],[9,-21],[6,-8],[44,-24],[67,-46],[55,-23],[30,-20],[26,-25],[17,-28],[-65,57],[-10,11],[-5,5],[-41,9],[-5,-1],[-3,2],[-1,6],[-1,1],[-7,12],[-21,4],[-21,11],[-40,30],[-18,9],[-36,10],[-21,10],[-27,27],[-42,64],[-25,26],[-24,16],[-15,6],[-32,6],[-14,6],[-25,17],[-28,12],[-30,8],[-126,8],[-24,-9],[-17,-29],[-14,-16],[-8,-17],[-3,-3],[-12,-1],[-48,11],[-45,2],[-15,4],[-8,4],[-12,7],[-10,9],[-4,7],[-14,9],[-91,-11],[-72,-8],[-15,-5],[-14,-2],[-14,5],[-7,-4],[-2,-5],[0,-5],[-1,-7],[-1,-18],[-1,-8],[-9,-7],[-4,-6],[-3,-7],[-2,-7],[-3,-5],[-6,-1],[-9,0],[-7,-1],[-8,-5],[-3,-2],[-4,-14],[1,-19],[-1,-6],[-8,3],[-2,6],[-1,8],[1,16],[5,13],[28,5],[12,10],[-2,10],[-16,1],[-34,-6],[-47,3],[-16,-3],[-10,-5],[-13,-9],[-11,-10],[-5,-9],[-4,-12],[-9,-10],[-23,-16],[-8,11],[-19,12],[-7,7],[-5,9],[-3,12],[-5,9],[-7,6],[-13,-1],[-28,-6],[-14,1],[-3,3],[-6,11],[-4,2],[-9,1],[-5,2],[-11,10],[-9,10],[-1,2],[-7,-1],[-12,-4],[-8,0],[-3,3],[-3,5],[-5,5],[-6,2],[-28,6],[-39,22],[-6,8],[1,15],[10,7],[15,3],[14,0],[28,-18],[32,-7],[127,10],[10,-2],[42,-14],[32,0],[18,15],[7,26],[4,36],[10,31],[39,58],[11,32],[-1,7],[-5,15],[1,12],[9,31],[5,11],[12,20],[3,7],[5,0],[25,28],[6,3],[9,3],[7,4],[4,7],[0,14],[2,6],[5,5],[2,6],[3,16],[2,6],[5,7],[11,11],[4,7],[-3,13],[-18,-11],[-60,-53],[-4,-6],[-2,-10],[-7,-10],[-10,-9],[-10,-5],[19,45],[14,22],[14,10],[17,6],[40,39],[17,4],[1,1],[4,2],[4,5],[4,8],[7,3],[8,4],[9,2],[8,1],[7,2],[17,10],[11,3],[10,4],[3,9],[1,12],[4,10],[6,-6],[2,-3],[2,-6],[8,14],[2,18],[-4,19],[-6,15],[-4,3],[-9,3],[-2,2],[-1,4],[-1,4],[-2,3],[-11,11],[-11,16],[-7,7],[-12,9],[-15,9],[-15,7],[-12,3],[-7,-2],[-6,-3],[-5,0],[-5,5],[-1,6],[1,24],[3,-7],[2,-2],[5,-1],[-4,13],[-12,8],[-29,9],[-27,14],[-10,1],[-28,-2],[-4,2],[-14,-8],[-39,24],[-18,0],[12,-16],[-10,-4],[-15,17],[-7,23],[-16,13],[-34,27],[-15,12],[-9,7],[-12,14],[-11,12],[-12,11],[-12,11],[-19,22],[-8,9],[-9,4],[-14,2],[-10,2],[-11,9],[-2,-2],[11,-12],[22,-8],[4,-13],[18,-23],[4,-20],[-29,35],[-10,13],[-25,18],[-24,15],[-29,19],[-21,11],[-11,6],[-8,3],[-20,1],[-4,-3],[4,-8],[10,-9],[10,-2],[2,-6],[1,-6],[12,-7],[6,-4],[5,-2],[8,-10],[9,-11],[3,-10],[-13,-9],[-51,11],[-9,1],[-57,18],[-27,6],[-21,-1],[-7,-2],[3,-5],[2,-6],[5,-7],[12,-16],[1,-5],[5,-3],[15,-4],[4,-3],[4,-8],[4,-16],[5,-8],[4,-5],[4,-5],[3,-7],[1,-9],[-1,-32],[-3,-16],[-6,-15],[-4,62],[4,14],[-7,10],[-9,19],[-11,15],[-12,1],[-11,-40],[-20,-41],[-5,0],[3,16],[14,27],[8,21],[1,8],[-3,7],[-10,10],[-2,5],[0,10],[-12,9],[-20,14],[0,166],[4,1],[14,9],[11,8],[13,6],[17,2],[64,0],[14,-2],[14,-4],[8,-4],[7,-5],[7,-4],[11,-2],[7,1],[14,3],[8,1],[21,9],[7,1],[29,-5],[1,0],[62,5],[58,-5],[46,9],[16,2],[45,-7],[10,1],[7,0],[33,8],[17,6],[12,9],[13,11],[17,10],[17,5],[16,-3],[-5,38],[0,43],[9,38],[21,22],[-27,19],[-13,20],[-5,9],[-3,10],[-8,41],[-2,13],[-1,21],[21,18],[-3,22],[-14,44],[-1,22],[4,22],[9,14],[14,-3],[38,47],[31,55],[-31,6],[-94,-11],[-13,-5],[-43,-6],[-12,-9],[-6,-4],[-84,0],[-39,5],[-3,-1],[-10,0],[-4,-4],[-14,-17],[-6,-5],[-2,0],[-14,0],[-1,-2],[-3,-3],[-4,-4],[-6,-1],[5,5],[-2,3],[-2,2],[-1,2],[0,3],[-5,0],[0,-7],[0,-3],[-5,0],[-4,9],[-4,-3],[-5,-7],[-10,-4],[-3,0],[-18,0],[-33,-8],[-30,3],[-10,-4],[-38,-26],[5,-9],[3,-4],[5,-1],[37,-3],[16,-3],[20,-10],[15,-6],[29,-20],[-5,-5],[17,-22],[8,-27],[0,-29],[-5,-28],[-10,-22],[-4,-15],[1,-11],[3,-5],[4,-14],[1,-6],[-1,-2],[-3,0],[-2,-2],[1,-4],[2,-3],[6,-5],[2,-4],[2,-14],[3,-12],[1,-7],[1,-5],[-2,-15],[-6,-9],[-9,-10],[-9,-8],[-9,-4],[-8,0],[-2,0],[-29,-1],[-37,7],[-11,-1],[-10,-5],[1,-22],[-22,-19],[-28,-14],[-3,-1],[-57,-17],[-12,-6],[-11,-9],[-8,-11],[-4,-4],[-24,-5],[-3,-1],[0,465],[9,7],[12,6],[-14,3],[-7,-1],[0,320],[750,0],[-2,-11],[6,-7],[10,-2],[11,6],[5,-12],[13,5],[19,17],[13,3],[2,1],[3269,0],[0,-3903]],[[80,3721],[4,1],[6,0],[2,2],[-5,3],[-1,2],[2,3],[2,0],[2,0],[5,-3],[1,3],[-5,6],[-7,1],[-4,-3],[-1,-2],[-1,-10],[0,-3]],[[124,3729],[2,-1],[7,-1],[2,1],[1,2],[5,3],[0,5],[1,3],[-2,3],[-5,0],[-5,-2],[-6,-13]],[[770,2644],[-8,-14],[-6,-34],[-6,-18],[15,4],[9,12],[5,14],[6,10],[20,13],[12,-1],[10,0],[8,4],[-4,4],[-4,8],[-2,3],[-12,13],[-16,-2],[-16,-8],[-11,-8]],[[744,2635],[-14,0],[-25,-7],[-22,-15],[-4,-21],[-1,-24],[-13,-25],[16,9],[36,12],[13,14],[0,-5],[7,12],[7,13],[4,14],[2,14],[-6,9]],[[688,2548],[-12,-7],[-27,-35],[-13,-14],[-15,-5],[-18,-4],[-16,-7],[-7,-11],[-4,-15],[-6,-17],[-3,-14],[8,-8],[6,2],[24,14],[4,6],[5,15],[3,6],[62,57],[11,8],[12,3],[16,0],[10,2],[6,6],[6,13],[0,-5],[2,5],[2,6],[1,7],[0,7],[-40,-14],[-17,-1]],[[650,2440],[-25,-36],[-14,-13],[-41,-30],[18,4],[98,41],[30,23],[19,20],[11,21],[-11,18],[5,0],[15,4],[-13,12],[-14,8],[-16,4],[-17,-3],[-9,-7],[-1,-7],[0,-6],[-2,-8],[-9,-7],[-9,-6],[-7,-7],[-8,-25]],[[814,2406],[-15,-10],[-39,0],[-22,0],[-8,-9],[-8,-13],[-16,-5],[-33,-4],[-17,-2],[-17,-3],[-25,-9],[-21,-8],[-25,-14],[-23,-16],[-21,-26],[-9,-16],[-1,-27],[-2,-19],[-2,-10],[-2,-15],[5,-6],[13,1],[8,4],[8,6],[14,10],[13,7],[29,4],[37,1],[25,-8],[15,4],[20,3],[26,-3],[28,2],[14,10],[15,16],[5,15],[12,16],[10,20],[16,13],[17,2],[18,11],[10,9],[-9,16],[-9,9],[-2,8],[-3,14],[-10,3],[-5,7],[7,8],[-3,10],[-18,-6]],[[776,2228],[1,-6],[13,-2],[13,0],[11,5],[16,0],[16,0],[14,4],[15,-1],[16,-5],[14,-1],[11,2],[6,13],[3,13],[-5,9],[-17,3],[-23,-1],[-9,5],[-6,12],[0,15],[7,14],[4,8],[-3,2],[-6,-3],[-9,-10],[-13,-8],[-9,-9],[-13,-2],[-11,-1],[-10,-15],[-10,-17],[-8,-13],[-8,-11]],[[565,2199],[-20,-22],[-1,-2],[-4,-3],[-3,-4],[-2,-6],[2,-1],[8,-12],[-16,7],[-23,19],[-16,5],[-19,-4],[-13,-10],[-10,-15],[-8,-17],[28,2],[77,-7],[62,8],[-2,8],[-6,10],[1,10],[17,-10],[16,8],[10,17],[-3,19],[-6,1],[-2,2],[-3,1],[-4,2],[-4,0],[-47,-3],[-9,-3]],[[425,2125],[-8,10],[-2,15],[0,13],[-7,13],[-22,1],[-18,-1],[-15,7],[-19,1],[-16,-10],[-28,-1],[-28,4],[-15,2],[-3,-7],[23,-9],[13,-2],[16,-7],[10,-8],[15,-12],[25,-4],[25,1],[20,0],[9,-11],[6,-14],[17,-14],[13,-5],[9,4],[3,12],[0,11],[-12,7],[-11,4]],[[2456,947],[9,-1],[10,15],[2,12],[12,19],[12,14],[14,8],[8,8],[-8,8],[-9,7],[-10,-1],[-7,-19],[-10,-18],[-9,-20],[-11,-20],[-3,-12]],[[2489,962],[-5,-16],[2,-13],[15,16],[36,11],[41,30],[1,4],[-33,5],[-23,1],[-6,-1],[-3,-3],[-7,-10],[-11,-9],[-7,-15]],[[2404,814],[5,-4],[7,16],[3,20],[15,21],[17,32],[10,13],[7,11],[-2,7],[-10,-3],[-15,-9],[-9,-7],[-15,-28],[-6,-16],[-3,-21],[-4,-21],[0,-11]],[[3438,60],[3,-3],[2,4],[-4,8],[0,9],[-3,14],[3,10],[3,9],[2,13],[0,13],[-1,5],[-5,-11],[-3,-8],[-2,-7],[-6,-12],[-4,-10],[6,-14],[5,-11],[4,-9]],[[0,3776],[7,1],[14,-3],[-12,-6],[-9,-7]],[[0,3098],[20,-14],[12,-9],[0,-10],[2,-5],[10,-10],[3,-7],[-1,-8],[-8,-21],[-14,-27],[-3,-16],[5,0],[20,41],[11,40],[12,-1],[11,-15],[9,-19],[7,-10],[-4,-14],[4,-62],[6,15],[3,16],[1,32],[-1,9],[-3,7],[-4,5],[-4,5],[-5,8],[-4,16],[-4,8],[-4,3],[-15,4],[-5,3],[-1,5],[-12,16],[-5,7],[-2,6],[-3,5],[7,2],[21,1],[27,-6],[57,-18],[9,-1],[51,-11],[13,9],[-3,10],[-9,11],[-8,10],[-5,2],[-6,4],[-12,7],[-1,6],[-2,6],[-10,2],[-10,9],[-4,8],[4,3],[20,-1],[8,-3],[11,-6],[21,-11],[29,-19],[24,-15],[25,-18],[10,-13],[29,-35],[-4,20],[-18,23],[-4,13],[-22,8],[-11,12],[2,2],[11,-9],[10,-2],[14,-2],[9,-4],[8,-9],[19,-22],[12,-11],[12,-11],[11,-12],[12,-14],[9,-7],[15,-12],[34,-27],[16,-13],[7,-23],[15,-17],[10,4],[-12,16],[18,0],[39,-24],[14,8],[4,-2],[28,2],[10,-1],[27,-14],[29,-9],[12,-8],[4,-13],[-5,1],[-2,2],[-3,7],[-1,-24],[1,-6],[5,-5],[5,0],[6,3],[7,2],[12,-3],[15,-7],[15,-9],[12,-9],[7,-7],[11,-16],[11,-11],[2,-3],[1,-4],[1,-4],[2,-2],[9,-3],[4,-3],[6,-15],[4,-19],[-2,-18],[-8,-14],[-2,6],[-2,3],[-6,6],[-4,-10],[-1,-12],[-3,-9],[-10,-4],[-11,-3],[-17,-10],[-7,-2],[-8,-1],[-9,-2],[-8,-4],[-7,-3],[-4,-8],[-4,-5],[-4,-2],[-1,-1],[-17,-4],[-40,-39],[-17,-6],[-14,-10],[-14,-22],[-19,-45],[10,5],[10,9],[7,10],[2,10],[4,6],[60,53],[18,11],[3,-13],[-4,-7],[-11,-11],[-5,-7],[-2,-6],[-3,-16],[-2,-6],[-5,-5],[-2,-6],[0,-14],[-4,-7],[-7,-4],[-9,-3],[-6,-3],[-25,-28],[-5,0],[-3,-7],[-12,-20],[-5,-11],[-9,-31],[-1,-12],[5,-15],[1,-7],[-11,-32],[-39,-58],[-10,-31],[-4,-36],[-7,-26],[-18,-15],[-32,0],[-42,14],[-10,2],[-127,-10],[-32,7],[-28,18],[-14,0],[-15,-3],[-10,-7],[-1,-15],[6,-8],[39,-22],[28,-6],[6,-2],[5,-5],[3,-5],[3,-3],[8,0],[12,4],[7,1],[1,-2],[9,-10],[11,-10],[5,-2],[9,-1],[4,-2],[6,-11],[3,-3],[14,-1],[28,6],[13,1],[7,-6],[5,-9],[3,-12],[5,-9],[7,-7],[19,-12],[8,-11],[23,16],[9,10],[4,12],[5,9],[11,10],[13,9],[10,5],[16,3],[47,-3],[34,6],[16,-1],[2,-10],[-12,-10],[-28,-5],[-5,-13],[-1,-16],[1,-8],[2,-6],[8,-3],[1,6],[-1,19],[4,14],[3,2],[8,5],[7,1],[9,0],[6,1],[3,5],[2,7],[3,7],[4,6],[9,7],[1,8],[1,18],[1,7],[0,5],[2,5],[7,4],[14,-5],[14,2],[15,5],[72,8],[91,11],[14,-9],[4,-7],[10,-9],[12,-7],[8,-4],[15,-4],[45,-2],[48,-11],[12,1],[3,3],[8,17],[14,16],[17,29],[24,9],[126,-8],[30,-8],[28,-12],[25,-17],[14,-6],[32,-6],[15,-6],[24,-16],[25,-26],[42,-64],[27,-27],[21,-10],[36,-10],[18,-9],[40,-30],[21,-11],[21,-4],[7,-12],[1,-1],[1,-6],[3,-2],[5,1],[41,-9],[5,-5],[10,-11],[65,-57],[-17,28],[-26,25],[-30,20],[-55,23],[-67,46],[-44,24],[-6,8],[-9,21],[2,9],[17,3],[12,-5],[26,-21],[30,-9],[14,-10],[23,-20],[48,-29],[67,-30],[77,-56],[133,-79],[44,-33],[11,-10],[11,-15],[39,-36],[99,-112],[38,-30],[21,-31],[19,-25],[18,-37],[12,-18],[2,5],[-7,18],[1,8],[10,0],[18,-7],[16,-12],[14,-14],[12,-15],[12,-18],[15,-25],[18,-23],[12,-16],[57,-57],[13,-23],[6,-24],[-8,-24],[5,6],[-3,-32],[3,-94],[-12,-78],[-9,-12],[-17,-12],[-11,-9],[-11,-14],[-8,-14],[-5,-15],[-4,-29],[-18,-44],[-1,-16],[1,-48],[-1,-7],[-7,-10],[-2,-8],[0,-131],[-4,-16],[-2,-8],[-48,-70],[3,-2],[2,-2],[22,20],[8,5],[2,3],[2,4],[3,3],[10,-5],[6,-1],[3,1],[9,0],[-6,5],[12,29],[3,97],[8,31],[77,136],[19,26],[27,19],[32,8],[30,-1],[28,-9],[44,-23],[14,-13],[4,-2],[2,-3],[6,-5],[3,-2],[3,-1],[3,3],[3,9],[6,2],[62,-8],[46,-22],[14,-12],[22,-17],[27,-27],[19,-14],[40,-38],[23,-24],[7,-11],[13,-6],[16,-16],[41,-34],[23,-19],[16,-13],[10,-11],[11,-11],[14,-16],[15,-36],[22,-52],[8,-10],[2,-15],[4,-6],[6,9],[1,7],[1,8],[0,13],[10,10],[7,4],[3,3],[3,1],[14,-1],[15,-6],[13,-6],[14,-7],[23,-13],[9,-6],[25,-17],[30,-21],[60,-62],[15,-22],[14,-27],[6,-30],[3,-18],[2,-8],[4,-8],[2,-6],[0,-8],[-10,15],[-6,5],[13,-26],[4,-11],[1,-16],[1,-12],[2,-26],[-12,-26],[-3,-13],[-6,-13],[-3,-9],[0,-15],[-8,-18],[-1,-17],[17,-28],[-2,-40],[-6,-17]],[[3440,0],[8,36],[4,70],[5,24],[1,19],[9,30],[8,20],[20,32],[3,8],[4,7],[6,4],[17,3],[5,4],[3,3],[4,1],[4,3],[9,10],[4,3],[7,3],[7,1],[8,9],[6,1],[20,-5],[45,-11],[26,-3],[37,0],[56,-2],[32,-2],[12,-5],[23,-14],[13,-6],[14,-4],[34,-3],[79,-19],[47,-12],[37,-1],[34,-9],[5,-2]],[[730,2578],[0,-5],[7,12],[7,13],[4,14],[2,14],[-6,9],[-14,0],[-25,-7],[-22,-15],[-4,-21],[-1,-24],[-13,-25],[16,9],[36,12],[13,14]],[[575,2411],[6,2],[24,14],[4,6],[5,15],[3,6],[62,57],[11,8],[12,3],[16,0],[10,2],[6,6],[6,13],[0,-5],[2,5],[2,6],[1,7],[0,7],[-40,-14],[-17,-1],[-12,-7],[-27,-35],[-13,-14],[-15,-5],[-18,-4],[-16,-7],[-7,-11],[-4,-15],[-6,-17],[-3,-14],[8,-8]],[[770,2644],[-8,-14],[-6,-34],[-6,-18],[15,4],[9,12],[5,14],[6,10],[20,13],[12,-1],[10,0],[8,4],[-4,4],[-4,8],[-2,3],[-12,13],[-16,-2],[-16,-8],[-11,-8]],[[625,2205],[-4,0],[-47,-3],[-9,-3],[-20,-22],[-1,-2],[-4,-3],[-3,-4],[-2,-6],[2,-1],[8,-12],[-16,7],[-23,19],[-16,5],[-19,-4],[-13,-10],[-10,-15],[-8,-17],[28,2],[77,-7],[62,8],[-2,8],[-6,10],[1,10],[17,-10],[16,8],[10,17],[-3,19],[-6,1],[-2,2],[-3,1],[-4,2]],[[2546,999],[-23,1],[-6,-1],[-3,-3],[-7,-10],[-11,-9],[-7,-15],[-5,-16],[2,-13],[15,16],[36,11],[41,30],[1,4],[-33,5]],[[695,2513],[-9,-7],[-1,-7],[0,-6],[-2,-8],[-9,-7],[-9,-6],[-7,-7],[-8,-25],[-25,-36],[-14,-13],[-41,-30],[18,4],[98,41],[30,23],[19,20],[11,21],[-11,18],[5,0],[15,4],[-13,12],[-14,8],[-16,4],[-17,-3]],[[750,4096],[-2,-11],[6,-7],[10,-2],[11,6],[5,-12],[13,5],[19,17],[13,3],[2,1]],[[636,3743],[38,47],[31,55],[-31,6],[-94,-11],[-13,-5],[-43,-6],[-12,-9],[-6,-4],[-84,0],[-39,5],[-3,-1],[-10,0],[-4,-4],[-14,-17],[-6,-5],[-2,0],[-14,0],[-1,-2],[-3,-3],[-4,-4],[-6,-1],[5,5],[-2,3],[-2,2],[-1,2],[0,3],[-5,0],[0,-7],[0,-3],[-5,0],[-4,9],[-4,-3],[-5,-7],[-10,-4],[-3,0],[-18,0],[-33,-8],[-30,3],[-10,-4],[-38,-26],[5,-9],[3,-4],[5,-1],[37,-3],[16,-3],[20,-10],[15,-6],[29,-20],[-5,-5],[17,-22],[8,-27],[0,-29],[-5,-28],[-10,-22],[-4,-15],[1,-11],[3,-5],[4,-14],[1,-6],[-1,-2],[-3,0],[-2,-2],[1,-4],[2,-3],[6,-5],[2,-4],[2,-14],[3,-12],[1,-7],[1,-5],[-2,-15],[-6,-9],[-9,-10],[-9,-8],[-9,-4],[-8,0],[-2,0],[-29,-1],[-37,7],[-11,-1],[-10,-5],[1,-22],[-22,-19],[-28,-14],[-3,-1],[-57,-17],[-12,-6],[-11,-9],[-8,-11],[-4,-4],[-24,-5],[-3,-1]],[[0,3264],[4,1],[14,9],[11,8],[13,6],[17,2],[64,0],[14,-2],[14,-4],[8,-4],[7,-5],[7,-4],[11,-2],[7,1],[14,3],[8,1],[21,9],[7,1],[29,-5],[1,0],[62,5],[58,-5],[46,9],[16,2],[45,-7],[10,1],[7,0],[33,8],[17,6],[12,9],[13,11],[17,10],[17,5],[16,-3],[-5,38],[0,43],[9,38],[21,22],[-27,19],[-13,20],[-5,9],[-3,10],[-8,41],[-2,13],[-1,21],[21,18],[-3,22],[-14,44],[-1,22],[4,22],[9,14],[14,-3]],[[673,2365],[33,4],[16,5],[8,13],[8,9],[22,0],[39,0],[15,10],[18,6],[3,-10],[-7,-8],[5,-7],[10,-3],[3,-14],[2,-8],[9,-9],[9,-16],[-10,-9],[-18,-11],[-17,-2],[-16,-13],[-10,-20],[-12,-16],[-5,-15],[-15,-16],[-14,-10],[-28,-2],[-26,3],[-20,-3],[-15,-4],[-25,8],[-37,-1],[-29,-4],[-13,-7],[-14,-10],[-8,-6],[-8,-4],[-13,-1],[-5,6],[2,15],[2,10],[2,19],[1,27],[9,16],[21,26],[23,16],[25,14],[21,8],[25,9],[17,3],[17,2]],[[353,2183],[15,-7],[18,1],[22,-1],[7,-13],[0,-13],[2,-15],[8,-10],[11,-4],[12,-7],[0,-11],[-3,-12],[-9,-4],[-13,5],[-17,14],[-6,14],[-9,11],[-20,0],[-25,-1],[-25,4],[-15,12],[-10,8],[-16,7],[-13,2],[-23,9],[3,7],[15,-2],[28,-4],[28,1],[16,10],[19,-1]],[[823,2285],[13,2],[9,9],[13,8],[9,10],[6,3],[3,-2],[-4,-8],[-7,-14],[0,-15],[6,-12],[9,-5],[23,1],[17,-3],[5,-9],[-3,-13],[-6,-13],[-11,-2],[-14,1],[-16,5],[-15,1],[-14,-4],[-16,0],[-16,0],[-11,-5],[-13,0],[-13,2],[-1,6],[8,11],[8,13],[10,17],[10,15],[11,1]],[[1537,1947],[-6,-31],[-9,-6],[-9,-18],[-9,-6],[-24,-9],[-15,-12],[-15,-22],[-12,-9],[-18,-3],[-12,-21],[-18,-18],[-15,-3],[-18,-3]],[[48,1279],[-9,0],[-12,15],[-9,24],[-12,18],[-6,7]],[[276,1239],[-6,9],[-15,9],[-33,3],[-15,6],[-24,9],[-42,19],[-24,9],[-24,3],[-21,-9],[-24,-18]],[[273,1190],[9,34],[-6,15]],[[2384,1315],[39,-3],[9,-3],[15,-15],[6,-9],[9,-22],[3,-36],[0,-34],[-6,-30],[9,-42],[0,-16],[-6,-39],[-6,-43],[-12,-12]],[[2706,869],[-11,5]],[[2695,874],[-7,4],[-24,18],[-21,9],[-15,15],[-21,9],[-22,0],[-48,-6],[-18,-3]],[[183,829],[6,12],[6,37],[6,33],[9,76],[6,36],[21,49],[24,76]],[[2507,595],[-21,12],[-3,-3]],[[2595,623],[-16,-4],[-21,-3],[-18,-3],[-12,-15],[-21,-3]],[[2483,604],[-9,19],[-42,6],[-15,12],[-9,-3],[0,-9],[15,-19],[-3,-9],[-15,-21]],[[2730,880],[-6,1],[-18,-12]],[[3171,468],[-3,3],[-12,30],[-27,36],[-21,34],[-15,24],[-27,28],[-54,36],[-39,36],[-18,19],[-51,51],[-18,18],[-12,19],[-27,36],[-9,9],[-30,18],[-33,10],[-45,5]],[[2706,869],[-3,-5]],[[2703,864],[-3,-5],[-6,-36],[0,-24],[3,-19],[0,-21],[-15,-45],[-24,-37],[-15,-33],[-6,-28],[0,-85],[3,-45],[0,-21],[3,-46],[6,-42],[0,-16],[-9,-33],[-18,-40],[-3,-3]],[[3432,209],[6,16],[0,18],[-18,36],[-6,46],[-12,27],[-21,34],[-33,45],[-15,9],[-24,6],[-12,9],[-27,28],[-9,6],[-12,0],[-78,-21]],[[3523,200],[-27,0]],[[3577,188],[-27,3],[-24,3],[-3,6]],[[3613,176],[-6,18],[-30,28],[-21,6],[-9,0],[-15,9],[-3,6]],[[3646,176],[-33,0]],[[3613,176],[-21,0],[-3,9],[-12,3]],[[3775,140],[-42,15],[-45,27],[-9,3],[-18,-6],[-15,-3]],[[3775,140],[3,-31]],[[4096,177],[-6,2],[-33,6],[-63,15],[-39,6],[-27,3],[-21,-3],[-12,3],[-21,0],[-30,4],[-15,-7],[-6,-12],[-9,-9],[-27,-6],[-9,-15],[-3,-24]],[[326,231],[-2,12],[12,15]],[[336,258],[3,24],[8,6]],[[356,115],[4,24]],[[347,288],[10,7],[15,-10],[15,0],[6,19],[-3,18],[-6,9],[-30,55],[-3,24],[9,18],[6,6],[30,3],[15,9],[12,16],[3,15],[-3,18],[-3,15],[-12,18],[-45,34],[-45,15],[-9,9],[-54,55],[-12,24],[-6,15],[-3,61],[-6,24],[-9,28],[-9,6],[-21,15],[-6,15]],[[360,139],[0,1],[0,18],[-9,18],[-21,21],[-6,9],[3,19],[-1,6]],[[336,258]],[[366,45],[-12,40],[0,15],[2,15]],[[2405,580],[-24,3],[-9,-6],[-6,-15],[-12,-15],[-9,-25],[-3,-33],[0,-34],[-3,-15],[-6,-21],[-3,-55],[3,-30],[-6,-33],[3,-19],[-21,-73],[-3,-9],[-12,-15],[-18,-9],[-15,-15],[-9,-21],[9,-28],[-3,-9],[-3,-24],[-6,-12],[-24,-25],[-21,-36],[-6,-6]],[[379,0],[-1,3],[-12,42]],[[219,3736],[33,-16],[15,-15],[57,-9],[6,0]],[[325,3450],[-19,-12],[7,-9]],[[313,3429],[11,-15],[24,-19]],[[330,3687],[9,-30],[0,-34],[-9,-15],[-6,-24],[0,-58],[15,-33],[0,-31],[-9,-9],[-5,-3]],[[330,3696],[42,0],[5,1]],[[377,3697],[43,8],[48,-9],[39,9]],[[2501,949],[-15,-16],[-2,13],[5,16],[7,15],[11,9],[7,10],[3,3],[6,1],[23,-1],[33,-5],[-1,-4],[-41,-30],[-36,-11]],[[353,2183],[15,-7],[18,1],[22,-1],[7,-13],[0,-13],[2,-15],[8,-10],[11,-4],[12,-7],[0,-11],[-3,-12],[-9,-4],[-13,5],[-17,14],[-6,14],[-9,11],[-20,0],[-25,-1],[-25,4],[-15,12],[-10,8],[-16,7],[-13,2],[-23,9],[3,7],[15,-2],[28,-4],[28,1],[16,10],[19,-1]],[[643,2180],[-10,-17],[-16,-8],[-17,10],[-1,-10],[6,-10],[2,-8],[-62,-8],[-77,7],[-28,-2],[8,17],[10,15],[13,10],[19,4],[16,-5],[23,-19],[16,-7],[-8,12],[-2,1],[2,6],[3,4],[4,3],[1,2],[20,22],[9,3],[47,3],[4,0],[4,-2],[3,-1],[2,-2],[6,-1],[3,-19]],[[871,2266],[9,-5],[23,1],[17,-3],[5,-9],[-3,-13],[-6,-13],[-11,-2],[-14,1],[-16,5],[-15,1],[-14,-4],[-16,0],[-16,0],[-11,-5],[-13,0],[-13,2],[-1,6],[8,11],[8,13],[10,17],[10,15],[11,1],[13,2],[9,9],[13,8],[9,10],[6,3],[3,-2],[-4,-8],[-7,-14],[0,-15],[6,-12]],[[835,2402],[-7,-8],[5,-7],[10,-3],[3,-14],[2,-8],[9,-9],[9,-16],[-10,-9],[-18,-11],[-17,-2],[-16,-13],[-10,-20],[-12,-16],[-5,-15],[-15,-16],[-14,-10],[-28,-2],[-26,3],[-20,-3],[-15,-4],[-25,8],[-37,-1],[-29,-4],[-13,-7],[-14,-10],[-8,-6],[-8,-4],[-13,-1],[-5,6],[2,15],[2,10],[2,19],[1,27],[9,16],[21,26],[23,16],[25,14],[21,8],[25,9],[17,3],[17,2],[33,4],[16,5],[8,13],[8,9],[22,0],[39,0],[15,10],[18,6],[3,-10]],[[588,2365],[-18,-4],[41,30],[14,13],[25,36],[8,25],[7,7],[9,6],[9,7],[2,8],[0,6],[1,7],[9,7],[17,3],[16,-4],[14,-8],[13,-12],[-15,-4],[-5,0],[11,-18],[-11,-21],[-19,-20],[-30,-23],[-98,-41]],[[742,2543],[-2,-5],[0,5],[-6,-13],[-6,-6],[-10,-2],[-16,0],[-12,-3],[-11,-8],[-62,-57],[-3,-6],[-5,-15],[-4,-6],[-24,-14],[-6,-2],[-8,8],[3,14],[6,17],[4,15],[7,11],[16,7],[18,4],[15,5],[13,14],[27,35],[12,7],[17,1],[40,14],[0,-7],[-1,-7],[-2,-6]],[[827,4096],[-2,-1],[-13,-3],[-19,-17],[-13,-5],[-5,12],[-11,-6],[-10,2],[-6,7],[2,11],[77,0]],[[4096,193],[0,-193],[-656,0],[8,36],[4,70],[5,24],[1,19],[9,30],[8,20],[20,32],[3,8],[4,7],[6,4],[17,3],[5,4],[3,3],[4,1],[4,3],[9,10],[4,3],[7,3],[7,1],[8,9],[6,1],[20,-5],[45,-11],[26,-3],[37,0],[56,-2],[32,-2],[12,-5],[23,-14],[13,-6],[14,-4],[34,-3],[79,-19],[47,-12],[37,-1],[34,-9],[5,-2]],[[0,3761],[0,15],[7,1],[14,-3],[-12,-6],[-9,-7]],[[3426,0],[-3426,0],[0,3098],[20,-14],[12,-9],[0,-10],[2,-5],[10,-10],[3,-7],[-1,-8],[-8,-21],[-14,-27],[-3,-16],[5,0],[20,41],[11,40],[12,-1],[11,-15],[9,-19],[7,-10],[-4,-14],[4,-62],[6,15],[3,16],[1,32],[-1,9],[-3,7],[-4,5],[-4,5],[-5,8],[-4,16],[-4,8],[-4,3],[-15,4],[-5,3],[-1,5],[-12,16],[-5,7],[-2,6],[-3,5],[7,2],[21,1],[27,-6],[57,-18],[9,-1],[51,-11],[13,9],[-3,10],[-9,11],[-8,10],[-5,2],[-6,4],[-12,7],[-1,6],[-2,6],[-10,2],[-10,9],[-4,8],[4,3],[20,-1],[8,-3],[11,-6],[21,-11],[29,-19],[24,-15],[25,-18],[10,-13],[29,-35],[-4,20],[-18,23],[-4,13],[-22,8],[-11,12],[2,2],[11,-9],[10,-2],[14,-2],[9,-4],[8,-9],[19,-22],[12,-11],[12,-11],[11,-12],[12,-14],[9,-7],[15,-12],[34,-27],[16,-13],[7,-23],[15,-17],[10,4],[-12,16],[18,0],[39,-24],[14,8],[4,-2],[28,2],[10,-1],[27,-14],[29,-9],[12,-8],[4,-13],[-5,1],[-2,2],[-3,7],[-1,-24],[1,-6],[5,-5],[5,0],[6,3],[7,2],[12,-3],[15,-7],[15,-9],[12,-9],[7,-7],[11,-16],[11,-11],[2,-3],[1,-4],[1,-4],[2,-2],[9,-3],[4,-3],[6,-15],[4,-19],[-2,-18],[-8,-14],[-2,6],[-2,3],[-6,6],[-4,-10],[-1,-12],[-3,-9],[-10,-4],[-11,-3],[-17,-10],[-7,-2],[-8,-1],[-9,-2],[-8,-4],[-7,-3],[-4,-8],[-4,-5],[-4,-2],[-1,-1],[-17,-4],[-40,-39],[-17,-6],[-14,-10],[-14,-22],[-19,-45],[10,5],[10,9],[7,10],[2,10],[4,6],[60,53],[18,11],[3,-13],[-4,-7],[-11,-11],[-5,-7],[-2,-6],[-3,-16],[-2,-6],[-5,-5],[-2,-6],[0,-14],[-4,-7],[-7,-4],[-9,-3],[-6,-3],[-25,-28],[-5,0],[-3,-7],[-12,-20],[-5,-11],[-9,-31],[-1,-12],[5,-15],[1,-7],[-11,-32],[-39,-58],[-10,-31],[-4,-36],[-7,-26],[-18,-15],[-32,0],[-42,14],[-10,2],[-127,-10],[-32,7],[-28,18],[-14,0],[-15,-3],[-10,-7],[-1,-15],[6,-8],[39,-22],[28,-6],[6,-2],[5,-5],[3,-5],[3,-3],[8,0],[12,4],[7,1],[1,-2],[9,-10],[11,-10],[5,-2],[9,-1],[4,-2],[6,-11],[3,-3],[14,-1],[28,6],[13,1],[7,-6],[5,-9],[3,-12],[5,-9],[7,-7],[19,-12],[8,-11],[23,16],[9,10],[4,12],[5,9],[11,10],[13,9],[10,5],[16,3],[47,-3],[34,6],[16,-1],[2,-10],[-12,-10],[-28,-5],[-5,-13],[-1,-16],[1,-8],[2,-6],[8,-3],[1,6],[-1,19],[4,14],[3,2],[8,5],[7,1],[9,0],[6,1],[3,5],[2,7],[3,7],[4,6],[9,7],[1,8],[1,18],[1,7],[0,5],[2,5],[7,4],[14,-5],[14,2],[15,5],[72,8],[91,11],[14,-9],[4,-7],[10,-9],[12,-7],[8,-4],[15,-4],[45,-2],[48,-11],[12,1],[3,3],[8,17],[14,16],[17,29],[24,9],[126,-8],[30,-8],[28,-12],[25,-17],[14,-6],[32,-6],[15,-6],[24,-16],[25,-26],[42,-64],[27,-27],[21,-10],[36,-10],[18,-9],[40,-30],[21,-11],[21,-4],[7,-12],[1,-1],[1,-6],[3,-2],[5,1],[41,-9],[5,-5],[10,-11],[65,-57],[-17,28],[-26,25],[-30,20],[-55,23],[-67,46],[-44,24],[-6,8],[-9,21],[2,9],[17,3],[12,-5],[26,-21],[30,-9],[14,-10],[23,-20],[48,-29],[67,-30],[77,-56],[133,-79],[44,-33],[11,-10],[11,-15],[39,-36],[99,-112],[38,-30],[21,-31],[19,-25],[18,-37],[12,-18],[2,5],[-7,18],[1,8],[10,0],[18,-7],[16,-12],[14,-14],[12,-15],[12,-18],[15,-25],[18,-23],[12,-16],[57,-57],[13,-23],[6,-24],[-8,-24],[5,6],[-3,-32],[3,-94],[-12,-78],[-9,-12],[-17,-12],[-11,-9],[-11,-14],[-8,-14],[-5,-15],[-4,-29],[-18,-44],[-1,-16],[1,-48],[-1,-7],[-7,-10],[-2,-8],[0,-131],[-4,-16],[-2,-8],[-48,-70],[3,-2],[2,-2],[22,20],[8,5],[2,3],[2,4],[3,3],[10,-5],[6,-1],[3,1],[9,0],[-6,5],[12,29],[3,97],[8,31],[77,136],[19,26],[27,19],[32,8],[30,-1],[28,-9],[44,-23],[14,-13],[4,-2],[2,-3],[6,-5],[3,-2],[3,-1],[3,3],[3,9],[6,2],[62,-8],[46,-22],[14,-12],[22,-17],[27,-27],[19,-14],[40,-38],[23,-24],[7,-11],[13,-6],[16,-16],[41,-34],[23,-19],[16,-13],[10,-11],[11,-11],[14,-16],[15,-36],[22,-52],[8,-10],[2,-15],[4,-6],[6,9],[1,7],[1,8],[0,13],[10,10],[7,4],[3,3],[3,1],[14,-1],[15,-6],[13,-6],[14,-7],[23,-13],[9,-6],[25,-17],[30,-21],[60,-62],[15,-22],[14,-27],[6,-30],[3,-18],[2,-8],[4,-8],[2,-6],[0,-8],[-10,15],[-6,5],[13,-26],[4,-11],[1,-16],[1,-12],[2,-26],[-12,-26],[-3,-13],[-6,-13],[-3,-9],[0,-15],[-8,-18],[-1,-17],[17,-28],[-2,-40],[-6,-17]],[[737,2585],[-7,-12],[0,5],[-13,-14],[-36,-12],[-16,-9],[13,25],[1,24],[4,21],[22,15],[25,7],[14,0],[6,-9],[-2,-14],[-4,-14],[-7,-13]],[[835,2634],[-8,-4],[-10,0],[-12,1],[-20,-13],[-6,-10],[-5,-14],[-9,-12],[-15,-4],[6,18],[6,34],[8,14],[11,8],[16,8],[16,2],[12,-13],[2,-3],[4,-8],[4,-4]],[[0,3264],[0,32],[3,1],[24,5],[4,4],[8,11],[11,9],[12,6],[57,17],[3,1],[28,14],[22,19],[-1,22],[10,5],[11,1],[37,-7],[29,1],[2,0],[8,0],[9,4],[9,8],[9,10],[6,9],[2,15],[-1,5],[-1,7],[-3,12],[-2,14],[-2,4],[-6,5],[-2,3],[-1,4],[2,2],[3,0],[1,2],[-1,6],[-4,14],[-3,5],[-1,11],[4,15],[10,22],[5,28],[0,29],[-8,27],[-17,22],[5,5],[-29,20],[-15,6],[-20,10],[-16,3],[-37,3],[-5,1],[-3,4],[-5,9],[38,26],[10,4],[30,-3],[33,8],[18,0],[3,0],[10,4],[5,7],[4,3],[4,-9],[5,0],[0,3],[0,7],[5,0],[0,-3],[1,-2],[2,-2],[2,-3],[-5,-5],[6,1],[4,4],[3,3],[1,2],[14,0],[2,0],[6,5],[14,17],[4,4],[10,0],[3,1],[39,-5],[84,0],[6,4],[12,9],[43,6],[13,5],[94,11],[31,-6],[-31,-55],[-38,-47],[-14,3],[-9,-14],[-4,-22],[1,-22],[14,-44],[3,-22],[-21,-18],[1,-21],[2,-13],[8,-41],[3,-10],[5,-9],[13,-20],[27,-19],[-21,-22],[-9,-38],[0,-43],[5,-38],[-16,3],[-17,-5],[-17,-10],[-13,-11],[-12,-9],[-17,-6],[-33,-8],[-7,0],[-10,-1],[-45,7],[-16,-2],[-46,-9],[-58,5],[-62,-5],[-1,0],[-29,5],[-7,-1],[-21,-9],[-8,-1],[-14,-3],[-7,-1],[-11,2],[-7,4],[-7,5],[-8,4],[-14,4],[-14,2],[-64,0],[-17,-2],[-13,-6],[-11,-8],[-14,-9],[-4,-1]],[[71,2676],[199,275],[-9,71],[-55,71],[65,5],[43,-83],[204,-105],[3,-88],[-176,-296],[-96,33],[-178,117]],[[2695,883],[15,13],[24,-13],[-28,-23],[-33,42],[22,-19]],[[300,3469],[31,-9],[-24,-41],[-13,6],[6,44]],[[258,3730],[97,-17],[33,-24],[-111,-2],[-73,45],[27,23],[27,-25]],[[293,3499],[-7,2],[-3,48],[25,-19],[-15,-31]],[[0,3742],[0,34],[9,3],[11,-10],[-20,-27]],[[361,0],[-361,0],[0,450],[1,-1],[13,41],[7,-28],[103,-57],[0,97],[34,-51],[23,1],[-3,-39],[19,-3],[-37,-28],[61,-68],[39,32],[23,-19],[41,70],[26,-100],[-41,-112],[61,-55],[-18,-20],[7,-107],[2,-3]]]}