{"objects":{"water":{"type":"GeometryCollection","geometries":[]},"buildings":{"type":"GeometryCollection","geometries":[]},"places":{"type":"GeometryCollection","geometries":[{"type":"Point","properties":{"name:pt":"Paraguai","name:ka":"\u10de\u10d0\u10e0\u10d0\u10d2\u10d5\u10d0\u10d8","name:ko":"\ud30c\ub77c\uacfc\uc774","name:cv":"\u041f\u0430\u0440\u0430\u0433\u0432\u0430\u0439","name:kk":"\u041f\u0430\u0440\u0430\u0433\u0432\u0430\u0439","name:tt":"\u041f\u0430\u0440\u0430\u0433\u0432\u0430\u0439","name:kw":"Paragway","min_zoom":2.0,"name:pa":"\u0a2a\u0a48\u0a30\u0a3e\u0a17\u0a41\u0a0f","name:os":"\u041f\u0430\u0440\u0430\u0433\u0432\u0430\u0439","name:or":"\u0b2a\u0b3e\u0b30\u0b3e\u0b17\u0b41\u0b0f","name:ce":"\u041f\u0430\u0440\u0430\u0433\u0432\u0430\u0439","name:ta":"\u0baa\u0bb0\u0b95\u0bc1\u0bb5\u0bc8","name:tg":"\u041f\u0430\u0440\u0430\u0433\u0432\u0430\u0439","name:ca":"Paraguai","name:hr":"Paragvaj","name:sr":"\u041f\u0430\u0440\u0430\u0433\u0432\u0430\u0458","source":"openstreetmap.org","name:kn":"\u0caa\u0cc6\u0cb0\u0c97\u0ccd\u0cb5\u0cc6","name:dv":"\u0795\u07ac\u0783\u07a6\u078e\u07aa\u0787\u07ad","name:lv":"Paragvaja","name:lt":"Paragvajus","name:hi":"\u092a\u0948\u0930\u093e\u0917\u094d\u0935\u0947","name:he":"\u05e4\u05e8\u05d2\u05d5\u05d5\u05d0\u05d9","kind":"country","name:ur":"\u067e\u06cc\u0631\u0627\u06af\u0648\u0626\u06d2","name:la":"Paraquaria","name:uk":"\u041f\u0430\u0440\u0430\u0433\u0432\u0430\u0439","name:hy":"\u054a\u0561\u0580\u0561\u0563\u057e\u0561\u0575","name:ug":"\u067e\u0627\u0631\u0627\u06af\u06cb\u0627\u064a","name:qu":"Parawayi","name:oc":"Paraguai","population":7012433,"name:el":"\u03a0\u03b1\u03c1\u03b1\u03b3\u03bf\u03c5\u03ac\u03b7","name:eo":"Paragvajo","name":"Paraguay","name:th":"\u0e1b\u0e23\u0e30\u0e40\u0e17\u0e28\u0e1b\u0e32\u0e23\u0e32\u0e01\u0e27\u0e31\u0e22","name:ln":"Palagway","name:eu":"Paraguai","name:yo":"Parag\u00fa\u00e1\u00ec","name:ay":"Parawayi","name:mt":"Paragwaj","name:az":"Paraqvay","name:mr":"\u092a\u0947\u0930\u093e\u0917\u094d\u0935\u0947","name:ar":"\u0628\u0627\u0631\u0627\u063a\u0648\u0627\u064a","name:my":"\u1015\u102b\u101b\u102c\u1002\u103d\u1031\u1038\u1014\u102d\u102f\u1004\u103a\u1004\u1036","name:is":"Paragv\u00e6","name:am":"\u1353\u122b\u1313\u12ed","name:an":"Paraguai","name:ru":"\u041f\u0430\u0440\u0430\u0433\u0432\u0430\u0439","name:rw":"Paragwe","id":1644764586,"name:mk":"\u041f\u0430\u0440\u0430\u0433\u0432\u0430\u0458","name:vo":"Paragv\u00e4n","name:fa":"\u067e\u0627\u0631\u0627\u06af\u0648\u0626\u0647","name:mn":"\u041f\u0430\u0440\u0430\u0433\u0432\u0430\u0439","name:uz":"Paragvay","name:fo":"Paraguei","name:zh-yue":"\u5df4\u62c9\u572d","name:zh":"\u5df4\u62c9\u572d","name:sl":"Paragvaj","name:sk":"Paraguaj","name:ja":"\u30d1\u30e9\u30b0\u30a2\u30a4","name:sh":"Paragvaj","name:ne":"\u092a\u093e\u0930\u093e\u0917\u094d\u0935\u0947","name:sa":"\u092a\u0947\u0930\u0947\u0917\u094d\u0935\u093e\u092f","name:bs":"Paragvaj","name:yi":"\u05e4\u05d0\u05e8\u05d0\u05d2\u05d5\u05d5\u05d9\u05d9","name:bn":"\u09aa\u09cd\u09af\u09be\u09b0\u09be\u0997\u09c1\u09af\u09bc\u09c7","name:bo":"\u0f54\u0f0b\u0f62\u0f0b\u0f42\u0f74\u0f0b\u0f61\u0f7a\u0f0d","name:ml":"\u0d2a\u0d30\u0d17\u0d4d\u0d35\u0d46","name:be":"\u041f\u0430\u0440\u0430\u0433\u0432\u0430\u0439","name:bg":"\u041f\u0430\u0440\u0430\u0433\u0432\u0430\u0439","name:wo":"Paraguwaay","name:ba":"\u041f\u0430\u0440\u0430\u0433\u0432\u0430\u0439","name:sq":"Paraguaji","name:ga":"Paragua","name:gd":"Paraguaidh","name:ht":"Paragwe","name:gn":"Paragu\u00e1i","name:gl":"Paraguai - Paraguay","name:pl":"Paragwaj","name:gv":"Yn Pharaguay"},"coordinates":[2698,2996]},{"type":"Point","properties":{"kind":"region","name":"Departamento Central","kind_detail":"state","min_zoom":4.0,"source":"openstreetmap.org","name:fr":"Central","name:ru":"\u0426\u0435\u043d\u0442\u0440\u0430\u043b\u044c\u043d\u044b\u0439 \u0434\u0435\u043f\u0430\u0440\u0442\u0430\u043c\u0435\u043d\u0442","id":313928965,"population":1363399},"coordinates":[3186,1248]},{"type":"Point","properties":{"kind":"region","name":"Departamento de San Pedro","kind_detail":"state","min_zoom":4.0,"source":"openstreetmap.org","name:fr":"San Pedro","name:ru":"\u0421\u0430\u043d-\u041f\u0435\u0434\u0440\u043e","id":313928978,"population":318787},"coordinates":[3914,2249]},{"type":"Point","properties":{"kind":"region","name":"Departamento de la Cordillera","kind_detail":"state","min_zoom":4.0,"source":"openstreetmap.org","name:fr":"Cordillera","name:ru":"\u041a\u043e\u0440\u0434\u0438\u043b\u044c\u0435\u0440\u0430","id":313928961,"population":234805},"coordinates":[3550,1448]},{"type":"Point","properties":{"kind":"region","name":"Departamento de Paraguar\u00ed","kind_detail":"state","min_zoom":4.0,"source":"openstreetmap.org","name:fr":"Paraguar\u00ed","name:ru":"\u041f\u0430\u0440\u0430\u0433\u0443\u0430\u0440\u0438","id":313928963,"population":226514},"coordinates":[3429,848]},{"type":"Point","properties":{"kind":"region","name":"Departamento de Concepci\u00f3n","kind_detail":"state","min_zoom":4.0,"source":"openstreetmap.org","name:fr":"Concepci\u00f3n","name:ru":"\u041a\u043e\u043d\u0441\u0435\u043f\u0441\u044c\u043e\u043d","id":313928982,"population":180277},"coordinates":[3428,3108]},{"type":"Point","properties":{"kind":"region","name":"Departamento del Guair\u00e1","kind_detail":"state","min_zoom":4.0,"source":"openstreetmap.org","name:fr":"Guair\u00e1","name:ru":"\u0413\u0443\u0430\u0439\u0440\u0430","id":313928967,"population":178130},"coordinates":[3914,1048]},{"type":"Point","properties":{"kind":"region","name":"Departamento de Misiones","kind_detail":"state","min_zoom":4.0,"source":"openstreetmap.org","name:fr":"Misiones","old_name":"San Ignacio","name:ru":"\u041c\u0438\u0441\u044c\u043e\u043d\u0435\u0441","id":313928980,"population":103633},"coordinates":[3550,47]},{"type":"Point","properties":{"kind":"region","name":"Departamento de Presidente Hayes","kind_detail":"state","min_zoom":4.0,"source":"openstreetmap.org","name:fr":"Presidente Hayes","name:ru":"\u041f\u0440\u0435\u0441\u0438\u0434\u0435\u043d\u0442\u0435-\u0410\u0435\u0441","id":313928971,"population":81876},"coordinates":[2215,2849]},{"type":"Point","properties":{"kind":"region","name":"Departamento de \u00d1eembuc\u00fa","kind_detail":"state","min_zoom":4.0,"source":"openstreetmap.org","name:fr":"\u00d1eembuc\u00fa","name:ru":"\u041d\u044c\u0435\u044d\u043c\u0431\u0443\u043a\u0443","id":313928968,"population":76738},"coordinates":[2822,47]},{"type":"Point","properties":{"kind":"region","name":"Departamento de Boquer\u00f3n","name:ko":"\ubcf4\ucf00\ub860 \uc8fc","kind_detail":"state","min_zoom":4.0,"source":"openstreetmap.org","name:fr":"Boquer\u00f3n","name:ru":"\u0411\u043e\u043a\u0435\u0440\u043e\u043d","name:zh":"\u535a\u514b\u9f99\u7701","id":530657872,"population":45617},"coordinates":[636,3519]},{"type":"Point","properties":{"kind":"region","name":"Chaco","kind_detail":"state","name:eo":"\u0108ako","source":"openstreetmap.org","min_zoom":4.0,"name:ru":"\u0427\u0430\u043a\u043e","id":618300954},"coordinates":[723,541]},{"type":"Point","properties":{"kind":"region","name":"Formosa","kind_detail":"state","name:eo":"Formosa Provinco","source":"openstreetmap.org","min_zoom":4.0,"name:ru":"\u0424\u043e\u0440\u043c\u043e\u0441\u0430","id":618300955},"coordinates":[1053,1972]},{"type":"Point","properties":{"source":"naturalearthdata.com","kind":"locality","name":"Asuncion","country_capital":true,"population":1870000,"min_zoom":5.0,"id":6841},"coordinates":[3081,1413]},{"type":"Point","properties":{"source":"naturalearthdata.com","kind":"locality","name":"Formosa","population":221383,"region_capital":true,"min_zoom":5.0,"id":6698},"coordinates":[2689,710]},{"type":"Point","properties":{"source":"naturalearthdata.com","kind":"locality","name":"Concepcion","population":59118,"region_capital":true,"min_zoom":6.0,"id":4973},"coordinates":[3234,2924]},{"type":"Point","properties":{"source":"naturalearthdata.com","kind":"locality","name":"Villarrica","population":41157,"region_capital":true,"min_zoom":6.0,"id":4974},"coordinates":[3963,1048]},{"type":"Point","properties":{"source":"naturalearthdata.com","kind":"locality","name":"Filadelfia","population":10470,"min_zoom":6.0,"id":5649},"coordinates":[1343,3778]}]},"transit":{"type":"GeometryCollection","geometries":[{"type":"LineString","properties":{"osm_relation":true,"source":"openstreetmap.org","kind":"train","name":"Tren Roque S\u00e1enz Pe\u00f1a \u2194 Chorotis","sort_rank":275,"min_zoom":6.0,"operator":"Trenes Argentinos Operadora"},"arcs":[213]}]},"pois":{"type":"GeometryCollection","geometries":[]},"boundaries":{"type":"GeometryCollection","geometries":[{"type":"MultiLineString","properties":{"source":"naturalearthdata.com","kind":"country","sort_rank":262,"kind_detail":"2","min_zoom":0.0,"id":198},"arcs":[[0],[1],[2],[3],[4],[5],[6],[7],[8],[9],[10],[11],[12],[13],[14],[15],[16],[17],[18],[19],[20],[21],[22],[23],[24],[25],[26],[27],[28],[29],[30],[31],[32],[33],[34],[35],[36]]},{"type":"MultiLineString","properties":{"source":"naturalearthdata.com","kind":"country","sort_rank":262,"kind_detail":"2","min_zoom":0.0,"id":200},"arcs":[[37],[38],[39],[40],[41],[42],[43],[44],[45],[46],[47],[48],[49],[50],[51],[52],[53],[54],[55],[56],[57],[58],[59],[60],[61],[62],[63],[64],[65],[66],[67],[68],[69],[70],[71],[72],[73],[74],[75],[76],[77]]},{"type":"LineString","properties":{"source":"naturalearthdata.com","kind":"region","sort_rank":256,"kind_detail":"4","min_zoom":5.5,"id":2822},"arcs":[78]},{"type":"LineString","properties":{"source":"naturalearthdata.com","kind":"region","sort_rank":256,"kind_detail":"4","min_zoom":5.5,"id":2825},"arcs":[79]},{"type":"MultiLineString","properties":{"source":"naturalearthdata.com","kind":"region","sort_rank":256,"kind_detail":"4","min_zoom":5.5,"id":2847},"arcs":[[80],[81]]},{"type":"LineString","properties":{"source":"naturalearthdata.com","kind":"region","sort_rank":256,"kind_detail":"4","min_zoom":3.0,"id":5046},"arcs":[82]},{"type":"LineString","properties":{"source":"naturalearthdata.com","kind":"region","sort_rank":256,"kind_detail":"4","min_zoom":3.0,"id":5058},"arcs":[83]},{"type":"LineString","properties":{"source":"naturalearthdata.com","kind":"region","sort_rank":256,"kind_detail":"4","min_zoom":5.5,"id":2817},"arcs":[84]},{"type":"LineString","properties":{"source":"naturalearthdata.com","kind":"region","sort_rank":256,"kind_detail":"4","min_zoom":5.5,"id":2827},"arcs":[85]},{"type":"LineString","properties":{"source":"naturalearthdata.com","kind":"region","sort_rank":256,"kind_detail":"4","min_zoom":5.5,"id":2851},"arcs":[86]},{"type":"MultiLineString","properties":{"source":"naturalearthdata.com","kind":"region","sort_rank":256,"kind_detail":"4","min_zoom":5.5,"id":2826},"arcs":[[87],[88],[89],[90],[91]]},{"type":"MultiLineString","properties":{"source":"naturalearthdata.com","kind":"region","sort_rank":256,"kind_detail":"4","min_zoom":5.5,"id":2818},"arcs":[[92],[93],[94],[95],[96],[97],[98],[99]]},{"type":"LineString","properties":{"source":"naturalearthdata.com","kind":"region","sort_rank":256,"kind_detail":"4","min_zoom":5.5,"id":2819},"arcs":[100]},{"type":"MultiLineString","properties":{"source":"naturalearthdata.com","kind":"region","sort_rank":256,"kind_detail":"4","min_zoom":5.5,"id":2820},"arcs":[[101],[102]]},{"type":"MultiLineString","properties":{"source":"naturalearthdata.com","kind":"region","sort_rank":256,"kind_detail":"4","min_zoom":5.5,"id":2821},"arcs":[[103],[104],[105],[106],[107],[108],[109],[110],[111],[112],[113],[114],[115],[116],[117],[118],[119],[120]]},{"type":"MultiLineString","properties":{"source":"naturalearthdata.com","kind":"region","sort_rank":256,"kind_detail":"4","min_zoom":5.5,"id":2823},"arcs":[[121],[122],[123]]},{"type":"MultiLineString","properties":{"source":"naturalearthdata.com","kind":"region","sort_rank":256,"kind_detail":"4","min_zoom":5.5,"id":2828},"arcs":[[124],[125]]},{"type":"MultiLineString","properties":{"source":"naturalearthdata.com","kind":"region","sort_rank":256,"kind_detail":"4","min_zoom":5.5,"id":2829},"arcs":[[126],[127],[128],[129],[130]]},{"type":"LineString","properties":{"source":"naturalearthdata.com","kind":"region","sort_rank":256,"kind_detail":"4","min_zoom":5.5,"id":2830},"arcs":[131]},{"type":"LineString","properties":{"source":"naturalearthdata.com","kind":"region","sort_rank":256,"kind_detail":"4","min_zoom":5.5,"id":2831},"arcs":[132]},{"type":"MultiLineString","properties":{"source":"naturalearthdata.com","kind":"region","sort_rank":256,"kind_detail":"4","min_zoom":5.5,"id":2832},"arcs":[[133],[134],[135],[136],[137]]},{"type":"MultiLineString","properties":{"source":"naturalearthdata.com","kind":"region","sort_rank":256,"kind_detail":"4","min_zoom":5.5,"id":2852},"arcs":[[138],[139],[140],[141],[142]]},{"type":"MultiLineString","properties":{"source":"naturalearthdata.com","kind":"region","sort_rank":256,"kind_detail":"4","min_zoom":5.5,"id":2835},"arcs":[[143],[144]]},{"type":"LineString","properties":{"source":"naturalearthdata.com","kind":"region","sort_rank":256,"kind_detail":"4","min_zoom":5.5,"id":2836},"arcs":[145]},{"type":"MultiLineString","properties":{"source":"naturalearthdata.com","kind":"region","sort_rank":256,"kind_detail":"4","min_zoom":5.5,"id":2853},"arcs":[[146],[147],[148]]},{"type":"MultiLineString","properties":{"source":"naturalearthdata.com","kind":"region","sort_rank":256,"kind_detail":"4","min_zoom":5.5,"id":2842},"arcs":[[149],[150],[151]]},{"type":"LineString","properties":{"source":"naturalearthdata.com","kind":"region","sort_rank":256,"kind_detail":"4","min_zoom":5.5,"id":2843},"arcs":[152]},{"type":"MultiLineString","properties":{"source":"naturalearthdata.com","kind":"region","sort_rank":256,"kind_detail":"4","min_zoom":5.5,"id":2844},"arcs":[[153],[154],[155],[156],[157]]},{"type":"MultiLineString","properties":{"source":"naturalearthdata.com","kind":"region","sort_rank":256,"kind_detail":"4","min_zoom":5.5,"id":2845},"arcs":[[158],[159],[160],[161],[162]]},{"type":"MultiLineString","properties":{"source":"naturalearthdata.com","kind":"region","sort_rank":256,"kind_detail":"4","min_zoom":5.5,"id":2846},"arcs":[[163],[164],[165],[166],[167],[168],[169],[170],[171],[172],[173]]},{"type":"LineString","properties":{"source":"naturalearthdata.com","kind":"region","sort_rank":256,"kind_detail":"4","min_zoom":5.5,"id":2848},"arcs":[174]},{"type":"MultiLineString","properties":{"source":"naturalearthdata.com","kind":"region","sort_rank":256,"kind_detail":"4","min_zoom":5.5,"id":2849},"arcs":[[175],[176],[177]]},{"type":"LineString","properties":{"source":"naturalearthdata.com","kind":"region","sort_rank":256,"kind_detail":"4","min_zoom":5.5,"id":2850},"arcs":[178]},{"type":"MultiLineString","properties":{"source":"naturalearthdata.com","kind":"region","sort_rank":256,"kind_detail":"4","min_zoom":5.5,"id":2854},"arcs":[[179],[180],[181]]},{"type":"MultiLineString","properties":{"source":"naturalearthdata.com","kind":"region","sort_rank":256,"kind_detail":"4","min_zoom":3.0,"id":5057},"arcs":[[182],[183],[184],[185],[186],[187],[188],[189],[190],[191],[192],[193],[194],[195],[196],[197],[198],[199],[200],[201],[202],[203],[204],[205],[206],[207],[208],[209],[210],[211],[212]]}]},"roads":{"type":"GeometryCollection","geometries":[{"type":"LineString","properties":{"source":"naturalearthdata.com","kind":"major_road","sort_rank":379,"kind_detail":"secondary","min_zoom":4.0,"id":45495},"arcs":[214]},{"type":"LineString","properties":{"source":"naturalearthdata.com","kind":"major_road","sort_rank":379,"kind_detail":"secondary","min_zoom":4.0,"id":45577},"arcs":[215]},{"type":"LineString","properties":{"source":"naturalearthdata.com","kind":"major_road","sort_rank":379,"kind_detail":"secondary","min_zoom":4.0,"id":45610},"arcs":[216]},{"type":"LineString","properties":{"source":"naturalearthdata.com","kind":"major_road","sort_rank":379,"kind_detail":"secondary","min_zoom":4.0,"id":45651},"arcs":[217]},{"type":"LineString","properties":{"source":"naturalearthdata.com","kind":"major_road","sort_rank":379,"kind_detail":"secondary","min_zoom":4.0,"id":45666},"arcs":[218]},{"type":"LineString","properties":{"source":"naturalearthdata.com","kind":"major_road","sort_rank":379,"kind_detail":"secondary","min_zoom":4.0,"id":45731},"arcs":[219]},{"type":"LineString","properties":{"source":"naturalearthdata.com","kind":"major_road","sort_rank":379,"kind_detail":"secondary","min_zoom":4.0,"id":45749},"arcs":[220]},{"type":"LineString","properties":{"source":"naturalearthdata.com","kind":"major_road","sort_rank":379,"kind_detail":"secondary","min_zoom":4.0,"id":45755},"arcs":[221]},{"type":"LineString","properties":{"source":"naturalearthdata.com","kind":"major_road","sort_rank":379,"kind_detail":"secondary","min_zoom":4.0,"id":45823},"arcs":[222]},{"type":"LineString","properties":{"source":"naturalearthdata.com","kind":"major_road","sort_rank":379,"kind_detail":"secondary","min_zoom":4.0,"id":45831},"arcs":[223]},{"type":"LineString","properties":{"source":"naturalearthdata.com","kind":"major_road","sort_rank":379,"kind_detail":"secondary","min_zoom":4.0,"id":45835},"arcs":[224]},{"type":"LineString","properties":{"source":"naturalearthdata.com","kind":"major_road","sort_rank":379,"kind_detail":"secondary","min_zoom":4.0,"id":45858},"arcs":[225]},{"type":"LineString","properties":{"source":"naturalearthdata.com","kind":"minor_road","sort_rank":355,"kind_detail":"tertiary","min_zoom":6.0,"id":45884},"arcs":[226]},{"type":"LineString","properties":{"source":"naturalearthdata.com","kind":"minor_road","sort_rank":355,"kind_detail":"tertiary","min_zoom":6.0,"id":45918},"arcs":[227]},{"type":"LineString","properties":{"source":"naturalearthdata.com","kind":"minor_road","sort_rank":355,"kind_detail":"tertiary","min_zoom":6.0,"id":45990},"arcs":[228]},{"type":"LineString","properties":{"source":"naturalearthdata.com","kind":"minor_road","sort_rank":355,"kind_detail":"tertiary","min_zoom":6.0,"id":46054},"arcs":[229]},{"type":"LineString","properties":{"source":"naturalearthdata.com","kind":"minor_road","sort_rank":355,"kind_detail":"tertiary","min_zoom":6.0,"id":46068},"arcs":[230]},{"type":"LineString","properties":{"source":"naturalearthdata.com","kind":"minor_road","sort_rank":355,"kind_detail":"tertiary","min_zoom":6.0,"id":46112},"arcs":[231]},{"type":"LineString","properties":{"source":"naturalearthdata.com","kind":"major_road","sort_rank":379,"kind_detail":"secondary","min_zoom":4.0,"id":46151},"arcs":[232]},{"type":"LineString","properties":{"source":"naturalearthdata.com","kind":"minor_road","kind_detail":"tertiary","sort_rank":355,"landuse_kind":"urban_area","min_zoom":6.0,"id":46159},"arcs":[233]},{"type":"LineString","properties":{"source":"naturalearthdata.com","kind":"minor_road","sort_rank":355,"kind_detail":"tertiary","min_zoom":6.0,"id":46159},"arcs":[234]},{"type":"LineString","properties":{"source":"naturalearthdata.com","kind":"major_road","kind_detail":"secondary","sort_rank":379,"landuse_kind":"urban_area","min_zoom":3.0,"id":46162},"arcs":[235]},{"type":"LineString","properties":{"source":"naturalearthdata.com","kind":"major_road","kind_detail":"secondary","sort_rank":379,"landuse_kind":"urban_area","min_zoom":3.0,"id":46166},"arcs":[236]},{"type":"LineString","properties":{"source":"naturalearthdata.com","kind":"major_road","kind_detail":"secondary","sort_rank":379,"landuse_kind":"urban_area","min_zoom":3.0,"id":46173},"arcs":[237]},{"type":"LineString","properties":{"source":"naturalearthdata.com","kind":"major_road","kind_detail":"secondary","sort_rank":379,"landuse_kind":"urban_area","min_zoom":3.0,"id":46176},"arcs":[238]},{"type":"LineString","properties":{"source":"naturalearthdata.com","kind":"major_road","kind_detail":"secondary","sort_rank":379,"landuse_kind":"urban_area","min_zoom":3.0,"id":46178},"arcs":[239]},{"type":"LineString","properties":{"source":"naturalearthdata.com","kind":"major_road","sort_rank":379,"kind_detail":"secondary","min_zoom":3.0,"id":46188},"arcs":[240]},{"type":"LineString","properties":{"source":"naturalearthdata.com","kind":"major_road","sort_rank":379,"kind_detail":"secondary","min_zoom":3.0,"id":46189},"arcs":[241]},{"type":"LineString","properties":{"source":"naturalearthdata.com","kind":"major_road","kind_detail":"secondary","sort_rank":379,"landuse_kind":"urban_area","min_zoom":3.0,"id":46192},"arcs":[242]},{"type":"LineString","properties":{"source":"naturalearthdata.com","kind":"major_road","sort_rank":379,"kind_detail":"secondary","min_zoom":3.0,"id":46192},"arcs":[243]},{"type":"LineString","properties":{"source":"naturalearthdata.com","kind":"minor_road","sort_rank":355,"kind_detail":"tertiary","min_zoom":6.0,"id":46203},"arcs":[244]},{"type":"LineString","properties":{"source":"naturalearthdata.com","kind":"major_road","sort_rank":379,"kind_detail":"secondary","min_zoom":3.0,"id":46206},"arcs":[245]},{"type":"LineString","properties":{"source":"naturalearthdata.com","kind":"major_road","sort_rank":379,"kind_detail":"secondary","min_zoom":3.0,"id":46219},"arcs":[246]},{"type":"LineString","properties":{"source":"naturalearthdata.com","kind":"major_road","sort_rank":379,"kind_detail":"secondary","min_zoom":3.0,"id":46220},"arcs":[247]},{"type":"LineString","properties":{"source":"naturalearthdata.com","kind":"major_road","kind_detail":"secondary","sort_rank":379,"landuse_kind":"urban_area","min_zoom":3.0,"id":46226},"arcs":[248]},{"type":"LineString","properties":{"source":"naturalearthdata.com","kind":"major_road","sort_rank":379,"kind_detail":"secondary","min_zoom":3.0,"id":46226},"arcs":[249]},{"type":"LineString","properties":{"source":"naturalearthdata.com","kind":"minor_road","sort_rank":355,"kind_detail":"tertiary","min_zoom":6.0,"id":46244},"arcs":[250]},{"type":"LineString","properties":{"source":"naturalearthdata.com","kind":"major_road","sort_rank":379,"kind_detail":"secondary","min_zoom":3.0,"id":46287},"arcs":[251]},{"type":"LineString","properties":{"source":"naturalearthdata.com","kind":"major_road","sort_rank":379,"kind_detail":"secondary","min_zoom":3.0,"id":46330},"arcs":[252]},{"type":"LineString","properties":{"source":"naturalearthdata.com","kind":"minor_road","sort_rank":355,"kind_detail":"tertiary","min_zoom":6.0,"id":46331},"arcs":[253]},{"type":"LineString","properties":{"source":"naturalearthdata.com","kind":"major_road","kind_detail":"secondary","sort_rank":379,"landuse_kind":"urban_area","min_zoom":3.0,"id":46346},"arcs":[254]},{"type":"LineString","properties":{"source":"naturalearthdata.com","kind":"major_road","sort_rank":379,"kind_detail":"secondary","min_zoom":3.0,"id":46346},"arcs":[255]},{"type":"LineString","properties":{"source":"naturalearthdata.com","kind":"major_road","sort_rank":379,"kind_detail":"secondary","min_zoom":4.0,"id":46368},"arcs":[256]},{"type":"LineString","properties":{"source":"naturalearthdata.com","kind":"major_road","sort_rank":379,"kind_detail":"secondary","min_zoom":4.0,"id":46472},"arcs":[257]},{"type":"LineString","properties":{"source":"naturalearthdata.com","kind":"major_road","kind_detail":"secondary","sort_rank":379,"landuse_kind":"urban_area","min_zoom":4.0,"id":46493},"arcs":[258]},{"type":"MultiLineString","properties":{"source":"naturalearthdata.com","kind":"major_road","sort_rank":379,"kind_detail":"secondary","min_zoom":4.0,"id":46493},"arcs":[[259],[260]]},{"type":"LineString","properties":{"source":"naturalearthdata.com","kind":"major_road","kind_detail":"secondary","sort_rank":379,"landuse_kind":"urban_area","min_zoom":3.0,"id":46555},"arcs":[261]},{"type":"LineString","properties":{"source":"naturalearthdata.com","kind":"major_road","sort_rank":379,"kind_detail":"secondary","min_zoom":3.0,"id":46555},"arcs":[262]},{"type":"LineString","properties":{"source":"naturalearthdata.com","kind":"major_road","sort_rank":379,"kind_detail":"secondary","min_zoom":4.0,"id":46619},"arcs":[263]},{"type":"LineString","properties":{"source":"naturalearthdata.com","kind":"minor_road","sort_rank":355,"kind_detail":"tertiary","min_zoom":6.0,"id":46644},"arcs":[264]}]},"earth":{"type":"GeometryCollection","geometries":[{"type":"Polygon","properties":{"sort_rank":10,"source":"naturalearthdata.com","min_zoom":0.0,"kind":"earth","area":1568366174169},"arcs":[[265]]}]},"landuse":{"type":"GeometryCollection","geometries":[{"type":"MultiPolygon","properties":{"source":"openstreetmap.org","kind":"nature_reserve","tier":2,"area":1540407913,"sort_rank":23,"min_zoom":6.0},"arcs":[[[266]],[[267]],[[268]]]},{"type":"MultiPolygon","properties":{"source":"openstreetmap.org","kind":"park","tier":2,"area":4731409653,"sort_rank":24,"min_zoom":6.0,"osm_relation":true},"arcs":[[[269]],[[270]]]},{"type":"MultiPolygon","properties":{"source":"openstreetmap.org","kind":"nature_reserve","tier":2,"area":14044959395,"sort_rank":23,"min_zoom":4.0},"arcs":[[[271]]]},{"type":"MultiPolygon","properties":{"source":"openstreetmap.org","kind":"park","tier":2,"area":15878806147,"sort_rank":24,"min_zoom":4.0},"arcs":[[[272]]]},{"type":"MultiPolygon","properties":{"source":"naturalearthdata.com","kind":"urban_area","name":"","area":4775363457,"sort_rank":11,"min_zoom":4.0},"arcs":[[[273]],[[274]],[[275]],[[276]],[[277]],[[278]],[[279]]]}]}},"type":"Topology","transform":{"translate":[-61.875,-27.0591257844],"scale":[0.001373291,0.001249043]},"arcs":[[[152,3023],[-10,3],[-6,4],[-12,13],[-10,7],[-11,5],[-8,7],[-3,14],[-1,15],[-2,9],[-4,8],[-8,9],[-8,7],[-16,10],[-9,8],[-16,24],[-6,6],[-22,13]],[[486,2803],[-5,1],[-7,4],[-14,15],[-6,3],[-15,5],[-8,11],[-4,12],[-6,10],[-47,22],[-17,1],[-10,2],[-7,6],[-9,8],[-11,8],[-12,5],[-13,2],[-16,1],[-7,4],[-6,19],[-12,8],[1,8],[3,9],[3,7],[-13,0],[-8,1],[-7,4],[-37,39],[-10,5]],[[186,3023],[-34,0]],[[655,2590],[-22,15],[-7,7],[-11,18],[-4,4],[-2,11],[-8,17],[-12,15],[-19,11],[-13,21],[-6,7],[6,13],[3,19],[-3,16],[-9,7],[-12,4],[-11,10],[-10,11],[-9,8],[-6,0]],[[500,2804],[-14,-1]],[[771,2550],[-16,2],[-21,13],[-24,20],[-27,13]],[[683,2598],[-28,-8]],[[863,2534],[-7,2],[-15,13],[-7,3]],[[834,2552],[-42,-2],[-21,0]],[[1057,2458],[-45,9],[-24,18],[-13,6],[-26,1],[-4,2],[-12,25],[-1,5],[-6,1],[-13,8],[-8,2],[-8,1]],[[897,2536],[-34,-2]],[[1126,2435],[-6,1],[-8,5],[-14,12],[-8,5],[-7,1]],[[1083,2459],[-26,-1]],[[2586,1652],[-9,3],[-4,5],[-2,6],[-5,8],[-46,52],[-18,24],[-9,9],[-16,9],[-161,31],[-4,4],[-1,6],[-5,4],[-6,2],[-5,4],[-10,3],[-37,1],[-16,4],[-139,106],[-23,6],[-7,5],[-15,15],[-7,4],[-5,1],[-13,0],[-15,6],[-27,18],[-17,6],[-21,15],[-30,10],[-7,6],[-4,5],[-5,4],[-11,2],[-7,3],[-10,11],[-24,9],[-12,15],[-15,28],[-6,8],[-29,25],[-17,8],[-3,6],[-2,8],[-2,5],[-5,4],[-16,7],[-16,10],[-8,6],[-8,9],[-6,4],[-13,3],[-12,7],[-19,3],[-7,2],[-5,5],[-13,18],[-28,29],[-262,175],[-13,3]],[[1328,2447],[-15,-2],[-35,-12],[-17,-4],[-55,-2]],[[1206,2427],[-57,9]],[[1149,2436],[-23,-1]],[[2731,1638],[-7,12],[-65,46]],[[2659,1696],[-14,-1],[-12,-9],[-20,-21],[-9,-7],[-9,-4],[-9,-2]],[[2798,1612],[-7,1],[-51,26]],[[2740,1639],[-9,-1]],[[3085,1156],[11,0],[5,5],[3,18],[8,6],[10,3],[9,9],[4,14],[9,69],[-1,13],[-5,11],[-10,11],[-45,35],[0,10],[-22,56],[0,1],[-23,15],[-14,20],[-23,52],[-9,10],[-23,11],[-11,9],[-32,37],[-10,9],[-15,6],[-57,0],[-10,3],[-5,8],[-3,9],[-5,7],[-6,2]],[[2815,1615],[-17,-3]],[[3063,1158],[22,-2]],[[3041,1125],[8,1],[6,5],[3,6],[4,18],[1,3]],[[3034,1126],[7,-1]],[[2731,686],[7,9],[6,17],[7,27],[8,7],[47,17],[24,14],[84,63],[10,13],[0,10],[-34,10],[6,12],[25,21],[5,6],[4,9],[-1,9],[-17,6],[-2,5],[2,6],[16,6],[15,8],[10,7],[5,4],[8,11],[-11,27],[-3,15],[11,7],[14,5],[14,11],[12,12],[8,10],[-8,2],[-7,4],[-6,4],[-4,7],[15,23],[9,9],[16,6],[8,1]],[[2712,703],[7,-3],[6,-3],[4,-5],[2,-6]],[[2679,322],[9,0],[4,5],[-2,7],[-5,7],[-3,7],[0,9],[2,3],[13,9],[5,5],[-4,4],[-7,11],[-4,7],[-17,11],[-4,5],[-3,14],[3,12],[4,12],[2,14],[2,6],[10,8],[3,8],[-18,17],[-2,10],[5,13],[24,42],[4,12],[2,13],[-4,26],[0,13],[6,5],[11,3],[17,7],[13,9],[-1,11],[-11,7],[-11,6],[-9,8],[-1,15]],[[2653,329],[3,-3],[23,-4]],[[2633,236],[5,1],[3,4],[2,62],[3,16],[4,9],[3,1]],[[2624,236],[9,0]],[[2612,198],[10,11],[-3,6],[-6,9],[-1,9],[12,3]],[[2586,204],[13,-4],[13,-2]],[[2450,0],[2,3],[1,14],[1,5],[3,6],[6,12],[13,15],[6,12],[-11,9],[-2,11],[6,10],[12,8],[32,8],[16,7],[7,10],[7,7],[33,3],[10,8],[-5,14],[-13,10],[-9,11],[9,18],[12,3]],[[2431,18],[4,-3],[2,-6],[0,-3],[1,-2],[5,-3],[0,-1],[2,0]],[[2415,0],[2,3],[3,6],[5,5],[6,4]],[[2862,4096],[-6,-12],[-7,-7],[-2,-8],[-16,-47],[-1,-11],[0,-12],[2,-8],[9,-5],[0,-1],[9,-7],[6,-12],[9,-10],[25,-9]],[[3971,3991],[10,-1],[8,-9],[19,-49],[17,-26],[22,-22],[41,-25],[8,-8]],[[3806,3839],[3,7],[-8,14],[5,5],[8,3],[6,2],[24,19],[8,9],[13,22],[1,2],[6,3],[2,4],[4,12],[2,5],[12,17],[6,7],[8,7],[12,4],[53,10]],[[3067,3970],[6,-3],[12,-32],[8,-17],[10,-9],[12,-4]],[[3048,3963],[8,2],[5,3],[6,2]],[[3014,3967],[9,0],[10,-3],[15,-1]],[[2996,3962],[3,0],[15,5]],[[2989,3964],[7,-2]],[[2971,3946],[5,1],[9,4],[-2,1],[1,5],[1,4],[2,3],[2,0]],[[2915,3953],[7,-3],[10,-12],[3,-3]],[[2890,3947],[8,0],[12,6],[5,0]],[[2956,3948],[7,-1],[8,-1]],[[2935,3935],[9,2],[12,11]],[[3146,3914],[9,-1],[6,-2],[17,-12]],[[3115,3905],[18,3],[6,3],[3,2],[4,1]],[[3206,3906],[6,0],[15,-6],[8,-1],[11,-4],[24,-15],[4,0]],[[3178,3899],[28,7]],[[3394,3900],[3,-3],[3,-13],[5,-4],[7,-1]],[[3352,3879],[14,3],[18,15],[10,3]],[[3308,3888],[12,-1],[32,-8]],[[3294,3877],[8,0],[4,4],[1,5],[1,2]],[[3426,3886],[12,-2],[21,-9],[7,-3],[0,-2],[1,-3],[4,-4],[13,-2],[4,-1],[4,-1]],[[3412,3879],[4,3],[4,2],[6,2]],[[3277,3884],[6,-1],[11,-6]],[[3274,3880],[3,4]],[[3757,3878],[12,-7],[25,-29],[12,-3]],[[3737,3850],[7,5],[4,5],[5,15],[4,3]],[[3507,3864],[23,-2]],[[3492,3859],[6,3],[9,2]],[[3542,3863],[18,-6],[8,0]],[[3530,3862],[12,1]],[[3576,3862],[-1,-12],[4,-4]],[[3568,3857],[8,5]],[[3620,3861],[9,-13],[7,-20],[2,-10],[17,-2]],[[3612,3840],[8,21]],[[3729,3856],[5,-1],[1,-3],[2,-2]],[[3699,3848],[6,1],[24,7]],[[3689,3852],[10,-4]],[[3655,3816],[9,3],[17,19],[5,7],[1,6],[2,1]],[[3585,3847],[7,0],[13,-7],[7,0]],[[3579,3846],[6,1]],[[3735,1125],[-3,7],[-1,1],[-42,87],[-4,10],[0,8],[4,5],[178,126],[15,50],[36,212]],[[3807,1080],[-23,3],[-5,2],[-6,4],[-16,20],[-22,16]],[[3394,1657],[-15,2],[-20,6]],[[3359,1665],[-17,-2],[-7,-19],[-35,-47],[-8,-6],[-9,-5],[-8,-4],[-8,-2],[-6,-3],[-13,-15],[-6,-3],[-23,0]],[[121,0],[0,212],[0,428],[-1,91],[-9,322],[-23,66],[-88,0]],[[2566,139]],[[2932,3712],[-2,9],[4,6],[14,12],[-3,9],[-34,44],[-7,26],[-7,9],[-14,3],[-18,1],[-11,4],[-7,10],[-6,18],[-3,19],[8,50],[-5,13],[-6,33],[6,7],[0,1]],[[3851,707],[-6,-26],[-3,-7],[-25,-28],[-6,-10],[-7,-30],[-3,-29],[-1,-7],[-4,-6],[-15,-11],[-3,-4],[-1,-5],[0,-7],[2,-7],[-1,-8],[-3,-9],[-10,-10],[-4,-6],[-3,-9],[-1,-9],[-3,-10],[-6,-10],[-14,-12],[-9,-5],[-10,-9],[-7,-18]],[[3036,518],[52,-295],[4,-14],[7,-16],[60,-85],[84,-96],[5,-3],[60,-9]],[[3432,1308],[36,-67],[6,-6],[12,-8],[19,-1],[9,-1],[17,-6],[13,-3],[6,0]],[[3604,1219],[7,0],[10,-2],[4,-6],[3,-7],[4,-20],[2,-6],[4,-10],[1,-3],[0,-3],[-1,-4],[-2,-4],[-9,-10],[-9,-8],[-2,-3],[-1,-3],[2,-5],[5,-3],[6,-2],[23,-2]],[[3550,1216],[54,3]],[[3691,1139],[8,-1],[5,-1],[31,-12]],[[3651,1118],[5,0],[5,2],[5,3],[5,3],[5,4],[7,5],[8,4]],[[3776,3346],[-3,1],[-1,3],[2,9],[4,7],[5,5],[16,11],[3,5],[1,9],[-4,14],[-6,33],[-6,15],[-6,11],[-5,5],[-4,3],[-4,3],[-3,3],[-2,6],[2,12],[1,6],[-2,6],[-7,9],[-3,6],[-1,7],[1,9],[2,6],[1,8],[1,9],[-2,15],[1,15],[-1,5],[-4,16],[0,6],[2,4],[7,5],[3,4],[0,6],[-3,18],[1,5],[2,5],[3,5],[3,4],[24,16],[5,5],[31,45],[4,3],[17,9],[3,3],[-29,11],[-154,40],[-7,7]],[[4096,3443],[-16,41],[-2,5],[-4,4],[-10,5],[-5,1],[-4,0]],[[4055,3499],[-4,-1],[-3,-2],[-18,-14],[-4,-3],[-3,-1],[-9,-2],[-4,-2],[-3,-2],[-3,-3],[-2,-3],[-9,-15],[-5,-7],[-2,-3],[-3,-2],[-7,-4],[-4,-1],[-39,-7],[-4,-1],[-3,-2],[-7,-5],[-4,-5],[-1,-1],[-1,-2],[-2,-7],[-1,-4],[-3,-16],[-1,-5],[-2,-3],[-8,-10],[-6,-12],[-2,-3],[-4,-2],[-8,-2],[-14,-7],[-4,-1],[-4,0]],[[3854,3339],[-5,0],[-5,1],[-4,3],[-5,4],[-6,7],[-5,4],[-5,0]],[[3819,3358],[-3,-1],[-5,-6],[-4,-2],[-4,-1],[-13,-2]],[[3790,3346],[-10,0]],[[3780,3346],[-4,0]],[[4059,2978],[3,3],[2,2],[1,3],[1,2],[2,8],[2,19],[1,5],[2,4],[2,3],[2,3],[3,2],[7,4],[3,3],[3,8],[2,3],[1,2]],[[4096,1816],[-5,-6],[-6,-8],[-5,-10],[-3,-9],[-7,-11],[-10,-10],[-31,-19],[-8,-7],[-4,-8],[-4,-8],[-5,-9],[-7,-8],[-22,-12],[-8,-5],[-53,-55]],[[4096,2989],[-12,-7],[-8,-6],[-6,-3],[-3,-1]],[[4067,2972],[-8,6]],[[4059,2978],[-24,-10],[-9,-11],[-6,-11],[-10,-7],[-9,-10],[-18,-9],[-5,0]],[[3978,2920],[-5,0],[-4,1],[-7,0]],[[3962,2921],[-29,-8],[-32,-16],[-5,-2],[-7,0],[-11,-2],[-23,-5],[-11,-1]],[[3704,2903],[-37,9],[-17,2]],[[3650,2914],[-7,0],[-4,-2],[-7,-6],[-4,-4],[-5,-1],[-6,-1]],[[3789,2894],[-7,0],[-18,10],[-7,1],[-11,1]],[[3746,2906],[-42,-3]],[[3617,2900],[-19,2]],[[3598,2902],[-7,-1],[-10,-3],[-14,-6],[-6,-2]],[[3844,2887],[-7,1],[-5,5],[-6,2],[-9,1]],[[3817,2896],[-19,-2],[-9,0]],[[3561,2890],[-5,1],[-5,2],[-6,1],[-7,1]],[[3538,2895],[-6,-1],[-4,-1],[-3,-3],[-3,-2],[-6,-3],[-32,-11],[-52,-8]],[[3295,2846],[-5,0],[-8,2],[-4,1],[-18,11],[-4,2],[-4,2],[-8,3],[-19,3]],[[3432,2866],[-34,0]],[[3398,2866],[-7,-1],[-6,-2],[-12,-6],[-15,-6],[-8,-2],[-5,0]],[[3345,2849],[-2,0]],[[3343,2849],[-48,-3]],[[3765,1716],[11,-1],[68,-27],[13,-9],[27,-30],[3,-3],[4,-3],[27,-12]],[[3494,1617],[13,1],[15,6],[8,5],[4,5],[1,4],[0,4],[0,3],[-1,5],[0,3],[0,4],[1,5],[1,2],[3,3],[6,4],[6,3],[10,4],[115,21],[40,12],[49,5]],[[3394,1657],[14,-9],[47,-22],[25,-7],[14,-2]],[[4096,1182],[-79,4]],[[4017,1186],[-15,-1],[-12,-4],[-22,-14],[-9,-4],[-9,-3],[-23,-4],[-12,-4],[-10,-6],[-35,-33],[-7,-4],[-40,-20],[-16,-9]],[[4096,853],[-3,1]],[[4093,854],[-8,0],[-11,-3],[-36,-15],[-7,-1]],[[4031,835],[-5,2],[-5,3],[-4,0]],[[4017,840],[-6,-3],[-6,-10],[-3,-9],[-1,-10],[-3,-9],[-6,-6],[-12,-4],[-35,-2],[-11,-3],[-7,-6],[-8,-14],[-5,-13],[-5,-36],[-6,-6],[-10,-4]],[[3893,705],[-19,2],[-23,0]],[[3807,1080],[-12,-12],[-5,-14],[-2,-13],[1,-14],[4,-25],[8,-25],[5,-12],[5,-9],[18,-22],[6,-12],[7,-22],[0,-12],[-4,-9],[-7,-3],[-31,-8],[-5,-3],[-4,-5],[-1,-5],[1,-5],[0,-1],[4,-31],[3,-11],[4,-11],[49,-89]],[[3861,270],[-1,6],[0,2],[1,4],[3,9],[2,7],[-2,7],[-6,6],[-12,4],[-23,0],[-11,2],[-11,5],[-30,21],[-12,11],[-14,22],[-6,11],[-6,10],[-4,5],[-21,13]],[[3657,459],[-13,2],[-14,8],[-24,20],[-15,11],[-44,22],[-5,2],[-6,1],[-7,0]],[[3529,525],[-8,0],[-7,-2],[-6,-3],[-4,-2],[-12,-9],[-8,-9],[-7,-10],[-4,-10],[-2,-7],[-3,-6],[-4,-5],[-7,-3],[-4,-5],[-3,-4],[-1,-4],[-3,-3],[-5,-5],[-10,-4],[-7,-4],[-4,-8],[-1,-10],[0,-13],[-1,-9],[-5,-8],[-9,-6],[-38,-13],[-64,-14]],[[3302,349],[-19,2],[-16,7],[-12,8],[-19,5],[-11,6],[-7,7],[-5,7],[-10,5],[-53,11],[-10,5],[-5,7],[-5,7],[-4,5],[-19,11],[-5,5],[-2,6],[-5,14],[-4,8],[-5,5],[-8,5],[-5,3],[-12,17],[-25,13]],[[3708,415],[-27,41],[-6,3],[-9,3]],[[3666,462],[-9,-3]],[[3013,996],[-5,1],[-15,5],[-3,1]],[[2990,1003],[-4,-1],[-3,-2],[-1,-4],[-1,-6],[1,-14],[0,-6],[-1,-3],[-4,-3],[-4,-1]],[[3183,839],[-9,23],[-19,24],[-4,8],[-2,6],[-1,9],[-3,5],[-3,4],[-14,6],[-8,4],[-19,17],[-17,10],[-16,14],[-10,11],[-10,13],[-6,5],[-5,2]],[[3037,1000],[-4,0],[-16,-3],[-4,-1]],[[2973,963],[-18,4],[-2,1]],[[4096,277],[-33,-17],[-85,-33],[-12,0]],[[3966,227],[-12,2],[-10,7],[-23,19],[-5,3],[-55,12]],[[3861,270],[27,-270]],[[1417,4015],[-7,3],[-2,8],[0,25],[-8,45]],[[1844,3984],[-36,22],[-21,7],[-263,11]],[[1524,4024],[-40,-7],[-67,-2]],[[3380,1330],[-5,2],[-5,4],[-7,10],[-25,46],[-5,16],[-2,12],[-4,10],[-9,14],[-22,24],[-22,38],[-7,7],[-30,19],[-2,2],[-16,25]],[[3432,1308],[-15,24],[-8,9],[-5,1]],[[3404,1342],[-3,-1],[-4,-3],[-5,-4],[-2,-2],[-5,-2],[-5,0]],[[3432,1308],[-30,-18],[-21,-19],[-5,-6],[-61,-99],[-24,-27],[-26,-25],[-8,-13],[-8,-16],[-9,-27],[-3,-24],[1,-18],[17,-55],[1,-14],[-3,-17],[-19,-37],[-17,-22],[-34,-32]],[[1982,3921],[-11,0],[-18,5],[-27,12],[-82,46]],[[2250,3911],[-155,14]],[[2095,3925],[-113,-4]],[[2932,3712],[-252,113],[-10,7],[-6,9],[-5,38],[-10,8],[-19,5],[-342,24]],[[2288,3916],[-38,-5]],[[2932,3712],[4,-19],[9,-90],[11,-25],[18,-22],[8,-13],[3,-17],[-7,-8],[-16,-1]],[[2962,3517],[-31,6]],[[2931,3523],[-33,-5],[-25,-17],[-8,-24],[16,-25],[7,-3],[17,-5],[6,-4],[4,-8],[4,-18],[4,-9],[7,-3]],[[2946,3403],[7,-4],[6,-6],[2,-4],[5,-14],[7,-11],[3,-7],[-1,-10],[-6,-8],[-10,-7],[-7,-7],[1,-8],[25,-23],[9,-13],[4,-17],[-16,-31],[11,-11],[32,-16],[7,-9],[5,-15],[11,-5],[29,0],[14,-6],[6,-10],[1,-14],[-1,-16],[5,-14],[12,-11],[14,-10],[28,-13],[4,-4],[7,-6],[18,-24],[7,-6],[12,-12],[3,-5],[0,-17],[-1,-5],[-4,-8],[-6,-11],[-4,-5],[-2,-5],[2,-12],[5,-8],[12,-12],[5,-9],[10,-8],[3,-4],[0,-6],[5,-24],[3,-8],[0,-6],[-3,-8]],[[2930,3402],[16,1]],[[3312,2503],[-9,2],[-3,6],[2,9],[5,8],[6,6],[2,4],[3,3],[17,11],[3,8],[2,25],[5,24],[0,6],[-2,4],[-6,5],[-5,5],[-3,8],[3,6],[13,5],[4,8],[0,8],[-3,7],[-11,13],[-22,19],[-53,30],[-20,22],[-18,35],[-2,12],[-1,8],[-4,17],[0,10],[2,9],[6,15],[2,9]],[[3355,2425],[-8,20],[-1,21],[-3,20],[-14,16],[-7,1]],[[3322,2503],[-10,0]],[[3387,2370],[-7,3],[-3,7],[0,8],[5,8],[5,13],[-6,13],[-12,8]],[[3369,2430],[-14,-5]],[[3441,1838],[9,1],[11,8],[4,13],[3,15],[16,32],[-5,13],[-12,10],[-9,6],[-6,10],[-5,10],[-3,10],[0,17],[3,32],[7,26],[1,8],[-9,20],[-3,11],[-8,57],[-5,24],[-5,50],[-2,10],[-8,15],[-6,8],[-14,16],[-3,6],[-2,6],[-1,11],[0,4],[1,4],[3,4],[13,15],[6,14],[12,15],[7,16],[-11,15],[-7,2]],[[3413,2372],[-26,-2]],[[3428,1843],[7,-2],[6,-3]],[[3382,1723],[-7,0],[-6,8],[0,4],[37,52],[11,46],[3,6],[8,4]],[[3394,1657],[11,4],[3,5],[-3,7],[-8,9],[-6,9],[-1,8],[3,7],[1,9],[-1,13]],[[3393,1728],[-5,-1],[-6,-4]],[[3125,1461],[-9,-5],[-21,-6],[-11,-7],[-8,-7],[-15,-19]],[[3198,1559],[-21,4]],[[3177,1563],[-9,-2],[-3,-11],[-3,-20],[-6,-22],[-10,-21],[-11,-16],[-10,-10]],[[3219,1559],[-21,0]],[[3183,839],[20,-117],[0,-8],[-4,-6],[-96,-96],[-28,-54],[-9,-12],[-16,-12],[-14,-16]],[[1844,3984],[26,-79],[2,-11],[-2,-5],[-11,-10],[-46,-28],[-17,-9],[-4,0]],[[1792,3842],[-5,1],[-6,4],[-5,4],[-7,7],[-6,4],[-7,4]],[[1756,3866],[-10,-2],[-11,-4],[-74,-46],[-10,-10],[-6,-9],[-4,-9],[-2,-4],[-1,-8],[1,-6],[1,-7],[10,-19],[1,-5],[-1,-6],[-5,-10],[-8,-5],[-11,-3],[-42,0],[-12,-2],[-11,-6],[-4,-6],[-2,-9],[5,-37],[0,-4],[-2,-12],[-4,-10],[-141,-214],[-7,-15],[-2,-13],[0,-21],[-2,-11],[-7,-25],[-1,-9],[2,-40],[-1,-37],[5,-38],[-1,-13],[-4,-17],[-20,-54],[0,-6],[2,-5],[6,-15],[2,-8],[-3,-14],[-8,-23],[-32,-68],[-10,-29],[-6,-31],[-7,-71],[0,-1],[-6,-4],[-73,-39],[-17,-7],[-25,-5],[-236,-13],[-10,-2],[-10,-5],[-23,-12],[-26,-11],[-52,-9],[-10,-3],[-12,-7],[-7,-7],[-4,-7],[-5,-28],[-3,-9],[-9,-17],[-2,-5],[-1,-6],[4,-102],[0,-1]],[[51,2178],[-17,2],[-28,9],[-6,0]],[[164,2060],[-4,2],[-4,6],[-27,49],[-3,7],[-2,9],[-5,5],[-7,6],[-16,10],[-24,22],[-4,2],[-6,1]],[[62,2179],[-11,-1]],[[196,2060],[-6,0],[-6,2],[-10,4]],[[174,2066],[-4,-2],[-3,-3],[-3,-1]],[[334,1946],[-5,0],[-15,4],[-5,3],[-34,32],[-10,13],[-29,26],[-7,10],[-2,3],[-2,7],[0,6],[-1,4],[-1,3],[-3,3],[-4,2],[-7,2]],[[209,2064],[-5,-1],[-8,-3]],[[592,1726],[-5,2],[-6,4],[-14,15],[-3,5],[-2,6],[-2,9],[1,6],[2,5],[4,6],[1,3],[-4,7],[-29,44],[-3,8],[-1,9],[1,9],[-1,4],[-2,3],[-12,3],[-5,4],[-20,31],[-3,4],[-4,3],[-10,6],[-28,9],[-11,1],[-39,1],[-5,1],[-14,3],[-25,11],[-6,0]],[[347,1948],[-5,0],[-8,-2]],[[960,1488],[-5,2],[-15,10],[-6,4],[-6,2],[-27,8],[-5,3],[-6,4],[-8,10],[-7,6],[-22,13],[-4,2],[-45,28],[-21,8],[-6,5],[-22,24],[-20,16],[-5,2],[-8,3],[-8,6],[-102,86],[-3,2],[-4,1]],[[605,1733],[-3,-1],[-6,-5],[-4,-1]],[[1245,1112],[-5,1],[-4,3],[-5,8],[-2,6],[-1,6],[0,4],[-1,5],[-1,4],[-3,5],[-14,18],[-4,6],[-3,6],[-1,9],[-1,4],[-2,5],[-7,10],[0,5],[2,3],[3,2],[3,2],[1,4],[1,4],[-2,4],[-2,5],[-5,7],[0,1],[1,1],[-1,2],[-4,2],[-9,3],[-20,2],[-4,2],[-3,4],[-3,7],[-1,6],[0,6],[-1,5],[-3,4],[-26,13],[-3,3],[-3,6],[1,3],[5,5],[0,4],[-1,5],[-9,15],[-5,11],[-3,3],[-4,3],[-18,9],[-9,7],[-13,13],[-8,10],[-11,17],[-9,12],[-6,10],[-10,22],[-8,13],[-3,4],[-7,4],[-11,4],[-6,2]],[[977,1491],[-6,-1],[-7,-2],[-4,0]],[[1590,837],[-4,1],[-5,3],[-48,70],[-30,29],[-13,7],[-14,5],[-4,3],[-3,4],[-3,7],[0,6],[1,10],[0,4],[-2,4],[-3,4],[-6,5],[-24,14],[-21,8],[-4,4],[-4,4],[-7,14],[-3,4],[-5,4],[-8,3],[-22,5],[-4,1],[-4,3],[-3,5],[-3,8],[-1,6],[-2,5],[-4,3],[-8,3],[-11,2],[-6,1],[-6,3],[-9,6],[-7,3],[-7,2],[-5,1],[-4,2],[-4,1],[-6,5],[-3,1],[-4,1]],[[1257,1121],[-3,-2],[-6,-5],[-3,-2]],[[1623,737],[-4,1],[-5,1],[-3,3],[-3,6],[-2,6],[2,11],[0,21],[-5,51]],[[1603,837],[-13,0]],[[1687,722],[-5,0],[-6,2],[-17,10],[-16,6],[-5,1]],[[1638,741],[-4,0],[-7,-3],[-4,-1]],[[1734,716],[-5,0],[-2,1],[-17,6],[-5,1]],[[1705,724],[-5,0],[-13,-2]],[[1845,575],[-4,1],[-6,4],[-7,8],[-13,17],[-3,10],[-1,6],[2,3],[0,5],[-3,6],[-9,12],[-4,7],[-2,6],[-2,23],[1,9],[-1,4],[-5,4],[-8,5],[-16,8],[-10,3],[-7,1]],[[1747,717],[-13,-1]],[[2292,370],[-5,0],[-5,3],[-7,5],[-18,22],[-8,13],[-4,4],[-5,3],[-30,13],[-9,5],[-8,7],[-19,20],[-8,12],[-6,10],[-18,22],[-15,14],[-20,13],[-33,12],[-24,10],[-26,10],[-6,4],[-20,19],[-6,7],[-5,10],[-4,3],[-8,0]],[[1975,611],[-5,-1],[-5,-1],[-3,-3],[-3,-2],[-3,-3],[-2,-3],[-5,-6],[-6,-5],[-7,-3],[-13,-4],[-14,-7],[-8,-3],[-4,0],[-10,-1]],[[1887,569],[-6,2],[-18,8],[-6,0]],[[1857,579],[-5,-1],[-3,-2],[-4,-1]],[[2516,168],[-5,1],[-8,3],[-15,8],[-3,3],[-3,4],[-5,18],[-2,4],[-5,6],[-38,29],[-8,10],[-2,6],[-2,5],[-2,9],[-2,4],[-3,7],[-3,3],[-3,4],[-6,4],[-55,33],[-15,17],[-9,16],[-3,3],[-5,3],[-7,3],[-6,0]],[[2301,371],[-9,-1]],[[2566,139],[-1,0],[-15,7],[-2,3],[-1,6],[0,3],[1,3],[1,4],[-2,3],[-4,3],[-5,1]],[[2538,172],[-5,0],[-12,-4],[-5,0]],[[594,0],[230,296],[218,-83]],[[868,4096],[21,-20],[27,-17]],[[937,4043],[12,-10],[21,-30],[30,-59],[6,-23],[30,-33],[24,-20],[96,-73],[21,-23]],[[1177,3772],[27,-33],[63,-66],[18,-13],[30,-7],[12,-3]],[[1327,3650],[72,-20],[21,-16],[30,-24],[33,-19],[36,-24],[27,-36]],[[4096,3480],[-15,-8]],[[4081,3472],[-18,-14],[-45,-39],[-33,-23],[-30,-43],[-39,-47],[-33,-33]],[[1546,3511],[6,-13],[3,-23],[18,-17],[18,-10],[15,-9],[36,-37],[27,-30],[46,-39],[21,-10],[15,-13],[54,-37],[90,-62],[9,-10]],[[3883,3273],[-33,-29],[-60,-63],[-3,-7]],[[1904,3201],[12,-27],[9,-56],[12,-30],[-3,-39],[6,-17],[24,-23],[24,-13],[36,-26],[54,-27],[24,-6],[18,-10],[30,-17]],[[3787,3174],[-12,-16],[-12,-13],[-39,-23],[-21,-10],[-30,-20],[-18,-17],[-27,-29],[-30,-27],[-24,-16],[-21,-14],[-24,-16],[-40,-30],[-30,-20],[-39,-23],[-33,-13],[-30,-7],[-18,-3],[-24,3],[-24,7],[-21,10],[-42,23]],[[2150,2910],[27,-23],[27,-13]],[[3228,2920],[-15,3],[-27,-3],[-21,-13],[-21,-23],[-15,-13],[-15,0],[-21,0],[-24,-4],[-30,-13],[-36,-26],[-57,-10],[-42,-7],[-24,0],[-21,7],[-21,13],[-18,7],[-30,-4],[-27,7],[-24,3],[-27,0],[-30,0],[-60,0],[-37,7],[-36,3],[-72,3],[-51,4],[-42,6],[-36,4],[-24,-4],[-51,-3],[-27,0],[-42,10]],[[3883,3273],[6,-6],[3,-66],[12,-70],[3,-33],[6,-69],[3,-36],[-6,-17],[-3,-13],[3,-33],[-12,-36],[12,-23],[6,-20],[6,-66],[0,-37],[-3,-10]],[[3919,2738],[-12,-62],[-12,-53],[-6,-36],[-3,-14],[-12,-13],[0,-6]],[[0,2543],[36,-26],[18,-10],[87,-39],[69,-43],[21,-13],[57,-24],[36,-26],[45,-26],[42,-23],[18,-14],[39,-39],[9,-10]],[[3874,2554],[0,-10],[9,-27],[3,-16],[12,-43],[18,-30],[6,-26],[9,-80],[0,-29],[9,-63],[21,-116],[9,-33],[3,-26],[-3,-26],[6,-24],[18,-23],[9,-23],[0,-6],[-12,-30]],[[477,2250],[30,-30],[99,-76],[18,-13],[99,-76],[30,-20],[25,-23],[93,-66],[69,-53]],[[3991,1923],[3,-30],[12,-13],[9,-20],[3,-20],[-6,-33],[0,-20],[3,-9],[21,-37],[15,-49],[3,-20]],[[2204,2874],[12,-10],[24,-40],[27,-33],[54,-59],[72,-83],[27,-29],[18,-14],[15,-3],[12,-13],[18,-33],[12,-36],[9,-43],[18,-37],[36,-72],[12,-10],[3,-10],[0,-43],[6,-23],[6,-17],[22,-29],[36,-37],[24,-29],[6,-14],[30,-29],[27,-24],[30,-19],[15,-17],[9,-13],[3,-23],[15,-43],[9,-17],[24,-29],[21,-33],[30,-23],[21,-10],[33,-7],[9,-7],[6,-13],[9,-36],[15,-27],[15,-13],[15,-6],[9,-27],[12,-16],[48,-10],[18,-23],[18,-4],[21,-9],[12,-24],[6,-33],[9,-16],[27,-27],[-6,-16],[-30,-17],[-12,-13],[-3,-13],[3,-7]],[[3063,1455],[-6,-4]],[[3141,1513],[-12,-16],[-12,-10],[-45,-26],[-9,-6]],[[3096,1428],[-3,0]],[[3036,1431],[-6,-13]],[[3159,1398],[-36,16],[-27,14]],[[3195,1371],[-36,27]],[[3093,1428],[-3,-10],[0,-47],[-3,-19],[-6,-4]],[[3592,1332],[-12,3],[-21,0],[-30,-7]],[[3529,1328],[-12,-3],[-37,3],[-15,4]],[[3221,1358],[-11,4],[-15,9]],[[3465,1332],[-15,3],[-18,-3],[-15,10],[-24,-7],[-27,7],[-6,-4],[-24,-23],[-24,7],[-51,23],[-40,13]],[[4054,1672],[0,-7],[-6,-33],[0,-13],[-9,-40],[-12,-26],[-21,-30],[-6,-20],[6,-26],[0,-20],[-12,-23],[0,-43],[-6,-13],[-15,-16],[-21,-30],[-3,-17],[6,-39]],[[4096,1275],[-81,-3],[-36,0],[-24,4]],[[3751,1226],[-36,17],[-33,26],[-33,0],[-15,7],[-9,13],[-24,33],[-9,10]],[[3955,1276],[-24,0],[-15,-4],[-48,-19],[-51,-14],[-57,-13],[-9,0]],[[3030,1418],[-3,-11]],[[3027,1407],[-15,-55],[-18,-40],[-9,-20],[-9,-23],[-12,-13],[-24,-33],[-24,-27]],[[940,1893],[48,-43],[126,-99],[45,-36],[18,-7],[39,-10],[27,-16],[15,-13],[24,-30],[36,-40],[18,-10],[24,-13],[21,-20],[15,-13],[27,-10],[36,-36],[39,-17],[9,-6],[12,-17],[15,-16],[24,-10],[12,-10],[30,-40],[27,-16],[36,-17],[19,-10],[33,-33],[39,-19],[57,-47],[39,-33],[36,-16],[36,-4],[21,-9],[66,-50],[39,-23]],[[2916,1196],[-18,-23],[-18,-43],[-15,-36],[-15,-26],[-18,-23],[-12,-17],[-3,-17],[-9,-16],[-27,-26],[-18,-33]],[[2763,936],[-54,-93],[-21,-36],[-9,-33],[-15,-27]],[[2048,1104],[48,-33],[39,-23],[36,-23],[42,-40],[21,-13],[24,-7],[30,-6],[48,-17],[60,-20],[60,-26],[69,-30],[18,-13],[12,-20],[21,-26],[19,-17],[42,-33],[12,-3],[15,-7]],[[2666,744],[25,-36],[0,-7]],[[2664,747],[2,-3]],[[0,647],[12,-2],[6,-3]],[[18,642],[39,-30],[18,-10],[18,-13],[69,-36],[33,-14],[78,-29],[24,-7],[39,-13],[63,-27],[63,-29],[36,-14],[42,-9],[45,-24],[24,-16],[27,-13],[45,-30],[51,-30],[30,-13],[49,-20],[24,-6]],[[1035,190],[2,0]],[[835,259],[45,-14],[66,-19],[42,-20],[47,-16]],[[1037,190],[11,-4]],[[2691,701],[-6,-7],[-12,-17]],[[2673,677],[-33,-49],[-18,-29],[-18,-37],[-25,-29],[-27,-23],[-93,-93],[-45,-43],[-15,-13],[-33,-53],[-42,-36],[-9,-13],[-12,-47],[-6,-19],[-9,-20],[-12,-20],[-33,-33],[-12,-17],[-6,-19],[-6,-7],[-21,-36],[-27,-30],[-14,-11]],[[1048,186],[75,-26],[33,-14],[33,-6],[15,-7],[45,-26],[93,-43],[21,-13],[36,-17],[51,-16],[21,-14],[14,-4]],[[18,642],[21,-70],[6,-36],[-6,-33],[-3,-73],[0,-23],[-9,-43],[-3,-56],[0,-13],[12,-20],[3,-10],[-6,-13],[-33,-30]],[[0,4096],[4096,0],[0,-4096],[-4096,0],[0,4096]],[[0,1274],[0,74],[119,0],[0,-74],[-73,-35],[-18,-114],[-18,-1],[-1,150],[-9,0]],[[0,1536],[0,103],[119,0],[0,-79],[-86,-39],[-33,15]],[[28,2205],[0,76],[23,-3],[17,-53],[93,-52],[-31,-35],[-27,23],[12,18],[-87,26]],[[1580,204],[0,36],[73,0],[0,-108],[-73,0],[0,72]],[[2588,1655],[66,53],[118,-96],[43,10],[30,-39],[1,-70],[-126,-8],[-132,150]],[[0,869],[0,255],[119,0],[-1,-256],[-118,1]],[[362,1680],[162,177],[13,-59],[196,-177],[-148,-156],[-41,85],[-63,-1],[-28,50],[14,17],[-75,40],[4,23],[-34,1]],[[573,0],[-13,0],[6,11],[7,-11]],[[1068,232],[4,-18],[-37,-26],[0,45],[33,-1]],[[2715,774],[-6,-82],[-56,-23],[-8,62],[70,43]],[[919,917],[9,-33],[-26,-9],[-13,34],[30,8]],[[3441,1344],[-12,19],[37,-2],[4,-16],[-29,-1]],[[3183,1474],[68,-94],[-105,-79],[-73,52],[-24,54],[-48,0],[16,44],[47,4],[-23,-21],[18,-19],[71,54],[53,5]],[[3195,1531],[24,-8],[-10,-18],[-55,0],[41,26]]]}