{"objects":{"water":{"type":"GeometryCollection","geometries":[{"type":"Polygon","properties":{"source":"naturalearthdata.com","kind":"ocean","area":1576712559132672,"sort_rank":200,"min_zoom":0.0,"id":1},"arcs":[[0],[1]]},{"type":"LineString","properties":{"source":"naturalearthdata.com","kind":"ocean","sort_rank":205,"boundary":true,"min_zoom":0.0,"id":424},"arcs":[2]},{"type":"LineString","properties":{"source":"naturalearthdata.com","kind":"ocean","sort_rank":205,"boundary":true,"min_zoom":0.0,"id":425},"arcs":[3]},{"type":"MultiLineString","properties":{"source":"naturalearthdata.com","kind":"ocean","sort_rank":205,"boundary":true,"min_zoom":0.0,"id":439},"arcs":[[4],[5],[6],[7]]}]},"buildings":{"type":"GeometryCollection","geometries":[]},"places":{"type":"GeometryCollection","geometries":[{"type":"Point","properties":{"name:pt":"Saint-Pierre e Miquelon","name:ka":"\u10e1\u10d4\u10dc\u10e2-\u10de\u10d8\u10d4\u10e0\u10d8 \u10d3\u10d0 \u10db\u10d8\u10e5\u10d4\u10da\u10dd\u10dc\u10d8","name:mt":"Saint Pierre and Miquelon","name:ko":"\uc138\uc778\ud2b8\ud53c\uc5d0\ub974-\ubbf8\ucf00\ub871","name:kn":"\u0cb8\u0cc7\u0c82\u0c9f\u0ccd \u0caa\u0cbf\u0caf\u0cb0\u0cc6 \u0cae\u0ca4\u0ccd\u0ca4\u0cc1 \u0cae\u0cbf\u0c95\u0cc6\u0cb2\u0ca8\u0ccd","name:km":"\u179f\u1784\u17cb\u1796\u17d2\u1799\u17c2\u179a \u1793\u17b7\u1784\u200b\u1798\u17b8\u1782\u17b8\u17a1\u17bb\u1784","name:kl":"Saint Pierre aamma Miquelon","name:cs":"Saint-Pierre a Miquelon","name:ki":"Santapieri na Mikeloni","name:tr":"Saint-Pierre ve Miquelon","name:th":"\u0e41\u0e0b\u0e07\u0e1b\u0e35\u0e41\u0e22\u0e23\u0e4c\u0e41\u0e25\u0e30\u0e21\u0e35\u0e40\u0e01\u0e2d\u0e25\u0e07","name:ti":"\u1245\u12f1\u1235 \u1352\u12ec\u122d \u12a5\u1293 \u121a\u12a9\u12a4\u120e\u1295","name:ks":"\u0633\u06cc\u0646\u065b\u0679 \u067e\u06cc\u0656\u0631\u06cc \u062a\u06c1\u0655 \u0645\u0648\u06a9\u06cc\u0644\u0650\u06cc\u064e\u0646","name:to":"Seini Piea mo Mikaloni","name:tl":"Santa Pierre at Miquelon","name:sv":"Saint-Pierre och Miquelon","name:or":"\u0b38\u0b47\u0b23\u0b4d\u0b1f \u0b2a\u0b3f\u0b0f\u0b30\u0b47 \u0b0f\u0b2c\u0b02 \u0b2e\u0b3f\u0b15\u0b4d\u0b2c\u0b3e\u0b32\u0b4b\u0b28\u0b4d","name:pl":"Saint-Pierre i Miquelon","name:ta":"\u0b9a\u0bc6\u0baf\u0bbf\u0ba9\u0bcd\u0b9f\u0bcd \u0baa\u0bbf\u0baf\u0bb0\u0bcd \u0bae\u0bb1\u0bcd\u0bb1\u0bc1\u0bae\u0bcd \u0bae\u0bbf\u0b95\u0bcd\u0bb5\u0bc7\u0bb2\u0bbe\u0ba9\u0bcd","name:ca":"Saint-Pierre i Miquelon","name:te":"\u0c38\u0c46\u0c02\u0c1f\u0c4d \u0c2a\u0c3f\u0c2f\u0c46\u0c30\u0c4d \u0c2e\u0c30\u0c3f\u0c2f\u0c41 \u0c2e\u0c3f\u0c15\u0c46\u0c32\u0c3e\u0c28\u0c4d","name:vi":"Saint-Pierre v\u00e0 Miquelon","name:ro":"Sf\u00e2ntul Pierre \u0219i Miquelon","name:cy":"Saint Pierre a Miquelon","name:hr":"Sveti Petar i Mikelon","name:da":"Saint Pierre og Miquelon","name:de":"Saint-Pierre und Miquelon","name:dz":"\u0f66\u0f72\u0f53\u0f4a\u0f0b\u0f54\u0f72\u0f0b\u0f61\u0f7a\u0f62\u0f0b \u0f68\u0f7a\u0f53\u0f4c\u0f0b \u0f58\u0f72\u0f40\u0f7c\u0f0b\u0f63\u0f7a\u0f53","source":"openstreetmap.org","name:lv":"Senpj\u0113ra un Mikelona","name:lt":"Sen Pjeras ir Mikelonas","name:hi":"\u0938\u0947\u0902\u091f \u092a\u093f\u090f\u0930\u0947 \u0914\u0930 \u092e\u093f\u0915\u094d\u0935\u0947\u0932\u0928","name:he":"\u05e1\u05e0\u05d8 \u05e4\u05d9\u05d9\u05e8 \u05d5\u05de\u05d9\u05e7\u05dc\u05d5\u05df","kind":"region","name:ur":"\u0633\u06cc\u0646\u0679 \u067e\u06cc\u0626\u0631 \u0627\u0648\u0631 \u0645\u06cc\u06a9\u0644\u06cc\u0626\u0648\u0646","name:lg":"Senti Piyere ne Mikeloni","name:uk":"\u0421\u0435\u043d-\u041f\u2019\u0454\u0440 \u0456 \u041c\u0456\u043a\u0435\u043b\u043e\u043d","name:hu":"Saint-Pierre \u00e9s Miquelon","name:ln":"S\u00e1ntu p\u00e9t\u00e9to mp\u00e9 Mikel\u0254","name:lo":"\u0ec0\u0e8a\u0eb1\u0ec9\u0e99 \u0e9b\u0eb5\u0ec1\u0ead \u0ec1\u0ea5\u0eb0 \u0ea1\u0eb4\u0ec0\u0e81\u0ea7\u0ea5\u0ead\u0e99","population":6080,"name:el":"\u0386\u03b3\u03b9\u03bf\u03c2 \u03a0\u03ad\u03c4\u03c1\u03bf\u03c2 \u03ba\u03b1\u03b9 \u039c\u03b9\u03ba\u03b5\u03bb\u03cc\u03bd","name:eo":"Sankta-Piero kaj Mikelono","name:en":"Saint Pierre and Miquelon","name":"Saint-Pierre-et-Miquelon","name:ee":"Saint Pierre kple Mikel\u0254n nutome","min_zoom":4.0,"name:gu":"\u0ab8\u0ac7\u0a82\u0a9f \u0aaa\u0ac0\u0a8f\u0ab0\u0ac7 \u0a8f\u0aa8\u0acd\u0aa1 \u0aae\u0abf\u0a95\u0ac0\u0ab2\u0acb\u0aa8","name:eu":"Saint-Pierre eta Mikelune","name:et":"Saint Pierre ja Miquelon","name:nl":"Saint-Pierre en Miquelon","name:es":"San Pedro y Miguel\u00f3n","name:rm":"Saint Pierre e Miquelon","name:rn":"Sempiyeri na Mikeloni","name:az":"Seynt Piyer v\u0259 Mikelon","name:id":"Saint Pierre dan Miquelon","name:ms":"Saint Pierre and Miquelon","name:mr":"\u0938\u0947\u0902\u091f \u092a\u093f\u092f\u0930\u0947 \u0906\u0923\u093f \u092e\u093f\u0915\u094d\u0935\u0947\u0932\u094b\u0928","name:ar":"\u0633\u0627\u0646 \u0628\u064a\u0627\u0631 \u0648\u0645\u064a\u0643\u0644\u0648\u0646","int_name":"Saint Pierre and Miquelon","name:is":"Sankti Pierre og Miquelon","name:am":"\u1245\u12f1\u1235 \u1352\u12ec\u122d \u12a5\u1293 \u121a\u12a9\u12a4\u120e\u1295","name:it":"Saint-Pierre e Miquelon","name:ml":"\u0d38\u0d46\u0d7b\u0d31\u0d4d \u0d2a\u0d3f\u0d31\u0d47\u0d2f\u0d41\u0d02 \u0d2e\u0d3f\u0d15\u0d4d\u0d35\u0d32\u0d23\u0d41\u0d02","name:ru":"\u0421\u0435\u043d-\u041f\u044c\u0435\u0440 \u0438 \u041c\u0438\u043a\u0435\u043b\u043e\u043d","name:mn":"\u0421\u0435\u043d\u0442 \u041f\u044c\u0435\u0440 \u0431\u0430 \u041c\u0438\u043a\u0435\u043b\u043e\u043d","id":249399410,"name:mk":"\u0421\u0435\u043d\u0442 \u041f\u0458\u0435\u0440 \u0438 \u041c\u0438\u043a\u0435\u043b\u0430\u043d","name:af":"Saint-Pierre et Miquelon","name:zu":"i-Saint Pierre kanye ne-Miquelon","name:ha":"San Piyar Da Mikelan","name:nn":"St. Pierre og Miquelon","name:ff":"See Piyeer e Mikeloo","kind_detail":"state","name:no":"Saint-Pierre og Miquelon","name:fo":"Saint Pierre og Miquelon","name:zh":"\u5723\u76ae\u57c3\u5c14\u548c\u5bc6\u514b\u9686\u7fa4\u5c9b","name:so":"Saint Pierre and Miquelon","name:sn":"Saint Pierre and Miquelon","name:sl":"Saint Pierre in Miquelon","name:sk":"Saint Pierre a Miquelon","name:ja":"\u30b5\u30f3\u30d4\u30a8\u30fc\u30eb\u5cf6\u30fb\u30df\u30af\u30ed\u30f3\u5cf6","name:si":"\u0dc1\u0dcf\u0db1\u0dca\u0dad \u0db4\u0dd2\u0dba\u0dbb\u0dda \u0dc3\u0dc4 \u0db8\u0dd0\u0d9a\u0ddd\u0dbd\u0db1\u0dca","name:fa":"\u0633\u0646\u062a \u067e\u06cc\u0631 \u0648 \u0645\u06cc\u06a9\u0644\u0648\u0646","name:sg":"S\u00ean-Py\u00eare na Mikel\u00f6on","name:se":"Saint Pierre ja Miquelon","name:ne":"\u0938\u0947\u0928\u094d\u091f \u092a\u093f\u0930\u094d\u0930\u0947 \u0930 \u092e\u093f\u0915\u094d\u0915\u0947\u0932\u094b\u0928","name:br":"Sant-P\u00ear-ha-Mikelon","name:bs":"Sen Pjer i Mikelon","name:bm":"Piy\u025bri-Senu-ni-Mikel\u0254\u014b","name:bn":"\u09b8\u09c7\u09a8\u09cd\u099f \u09aa\u09bf\u09af\u09bc\u09c7\u09b0 \u0993 \u09ae\u09bf\u0995\u09c1\u09af\u09bc\u09c7\u09b2\u09a8","name:sw":"Santapieri na Mikeloni","name:be":"\u0421\u0432\u044f\u0442\u044b \u041f\u2019\u0435\u0440 \u0456 \u041c\u0456\u043a\u0432\u0435\u043b\u043e\u043d","name:bg":"\u0421\u0435\u043d \u041f\u0438\u0435\u0440 \u0438 \u041c\u0438\u0433\u0435\u043b\u043e\u043d","name:sr":"\u0421\u0435\u043d \u041f\u0458\u0435\u0440 \u0438 \u041c\u0438\u043a\u0435\u043b\u043e\u043d","name:ga":"Saint Pierre agus Miquelon","name:gd":"Saint Pierre is Miquelon","name:gl":"San Pedro e Miguel\u00f3n","name:yo":"Or\u00edl\u1eb9\u0301\u00e8de P\u1eb9\u1eb9ri ati mikuloni","name:ak":"Saint Pierre ne Miquelon","name:fi":"Saint-Pierre ja Miquelon"},"coordinates":[55,3670]}]},"transit":{"type":"GeometryCollection","geometries":[]},"pois":{"type":"GeometryCollection","geometries":[]},"boundaries":{"type":"GeometryCollection","geometries":[]},"roads":{"type":"GeometryCollection","geometries":[{"type":"LineString","properties":{"kind":"major_road","network":"CA:??:primary","sort_rank":380,"kind_detail":"primary","source":"naturalearthdata.com","min_zoom":7.0,"shield_text":"10","ref":"10","id":514},"arcs":[8]},{"type":"LineString","properties":{"kind":"major_road","network":"CA:??:primary","sort_rank":380,"kind_detail":"primary","source":"naturalearthdata.com","min_zoom":6.0,"shield_text":"210","ref":"210","id":3309},"arcs":[9]},{"type":"LineString","properties":{"sort_rank":355,"source":"naturalearthdata.com","min_zoom":7.0,"kind":"ferry","id":3500},"arcs":[10]},{"type":"LineString","properties":{"sort_rank":355,"source":"naturalearthdata.com","min_zoom":7.0,"kind":"ferry","id":3533},"arcs":[11]},{"type":"LineString","properties":{"kind":"major_road","network":"CA:??:primary","sort_rank":380,"kind_detail":"primary","source":"naturalearthdata.com","min_zoom":6.0,"shield_text":"220","ref":"220","id":4177},"arcs":[12]},{"type":"LineString","properties":{"kind":"major_road","network":"CA:??:primary","sort_rank":380,"kind_detail":"primary","source":"naturalearthdata.com","min_zoom":7.0,"shield_text":"90","ref":"90","id":4178},"arcs":[13]}]},"earth":{"type":"GeometryCollection","geometries":[{"type":"MultiPolygon","properties":{"sort_rank":10,"source":"naturalearthdata.com","min_zoom":0.0,"kind":"earth","area":90831621766},"arcs":[[[14]],[[15]],[[16]],[[17]],[[18]],[[19]]]}]},"landuse":{"type":"GeometryCollection","geometries":[{"type":"Polygon","properties":{"kind":"nature_reserve","area":2307000064,"sort_rank":23,"source":"openstreetmap.org","min_zoom":4.0,"tier":2,"id":-2054180,"osm_relation":true},"arcs":[[20]]},{"type":"Polygon","properties":{"kind":"nature_reserve","area":137918000,"sort_rank":23,"source":"openstreetmap.org","min_zoom":7.0,"tier":2,"id":-2077520,"osm_relation":true},"arcs":[[21]]}]}},"type":"Topology","transform":{"translate":[-56.25,45.0890355648],"scale":[0.0006866455,0.0004763541]},"arcs":[[[501,4096],[-28,-45],[-56,-63],[-24,-39],[-9,-49],[7,-31],[20,-31],[25,-27],[64,-37],[81,-33],[37,-6],[71,-1],[35,-8],[20,-20],[15,31],[18,4],[46,-19],[24,2],[28,10],[48,31],[28,32],[11,11],[11,6],[9,4],[20,3],[8,-5],[3,-9],[5,-3],[14,17],[5,15],[1,19],[3,20],[11,19],[5,-47],[22,-5],[63,24],[-11,-69],[30,-45],[51,-20],[50,3],[36,14],[-2,20],[-14,25],[-1,27],[14,1],[71,-14],[42,9],[47,24],[31,37],[-5,44],[29,16],[19,33],[10,42],[3,46],[-4,21],[-4,16],[27,0],[-1,-6],[1,-23],[7,-9],[14,-13],[13,-7],[6,7],[6,46],[5,5],[1496,0],[-50,-73],[-8,-21],[-7,-45],[-5,-20],[-31,-77],[-13,-43],[-5,-45],[3,-45],[10,-64],[0,-12],[5,-4],[21,-11],[75,-16],[8,-4],[14,-19],[8,-4],[8,2],[17,9],[10,2],[21,0],[14,3],[15,8],[20,19],[34,45],[16,12],[52,10],[13,11],[8,21],[4,21],[8,16],[31,12],[34,27],[9,10],[8,18],[7,41],[5,14],[12,8],[53,20],[9,11],[63,145],[12,18],[1,0],[241,0],[-6,-8],[-30,-48],[-26,-59],[51,13],[12,-10],[-17,-40],[-5,-18],[10,-12],[14,-6],[10,-1],[6,7],[15,37],[5,14],[9,0],[7,-18],[2,-17],[-2,-18],[-7,-18],[20,-7],[18,8],[16,19],[17,23],[-3,-42],[-38,-34],[-75,-47],[-9,-22],[-11,-55],[-10,-23],[-14,-22],[-10,-19],[-7,-22],[-6,-57],[2,-9],[10,4],[37,33],[98,150],[18,16],[47,11],[20,9],[-19,-34],[-66,-17],[-15,-29],[-12,-39],[-55,-71],[-12,-32],[3,-23],[5,-24],[2,-22],[-5,-19],[-19,-30],[-27,-62],[0,-37],[2,-17],[13,-48],[5,-15],[48,-62],[51,-17],[53,22],[53,51],[14,8],[18,6],[17,9],[11,36],[5,5],[0,-3347],[-4096,0],[0,3679],[1,2],[20,62],[-21,19],[0,334],[501,0]],[[45,3567],[-31,-47],[27,-23],[38,-4],[40,9],[34,18],[-8,2],[-21,12],[2,13],[4,12],[6,10],[8,9],[5,30],[-20,8],[-27,-4],[-17,-6],[-23,-19],[-17,-20]],[[0,3679],[1,2],[20,62],[-21,19]],[[144,3578],[5,30],[-20,8],[-27,-4],[-17,-6],[-23,-19],[-17,-20],[-31,-47],[27,-23],[38,-4],[40,9],[34,18],[-8,2],[-21,12],[2,13],[4,12],[6,10],[8,9]],[[501,4096],[-28,-45],[-56,-63],[-24,-39],[-9,-49],[7,-31],[20,-31],[25,-27],[64,-37],[81,-33],[37,-6],[71,-1],[35,-8],[20,-20],[15,31],[18,4],[46,-19],[24,2],[28,10],[48,31],[28,32],[11,11],[11,6],[9,4],[20,3],[8,-5],[3,-9],[5,-3],[14,17],[5,15],[1,19],[3,20],[11,19],[5,-47],[22,-5],[63,24],[-11,-69],[30,-45],[51,-20],[50,3],[36,14],[-2,20],[-14,25],[-1,27],[14,1],[71,-14],[42,9],[47,24],[31,37],[-5,44],[29,16],[19,33],[10,42],[3,46],[-4,21],[-4,16]],[[1561,4096],[-1,-6],[1,-23],[7,-9],[14,-13],[13,-7],[6,7],[6,46],[5,5]],[[3108,4096],[-50,-73],[-8,-21],[-7,-45],[-5,-20],[-31,-77],[-13,-43],[-5,-45],[3,-45],[10,-64],[0,-12],[5,-4],[21,-11],[75,-16],[8,-4],[14,-19],[8,-4],[8,2],[17,9],[10,2],[21,0],[14,3],[15,8],[20,19],[34,45],[16,12],[52,10],[13,11],[8,21],[4,21],[8,16],[31,12],[34,27],[9,10],[8,18],[7,41],[5,14],[12,8],[53,20],[9,11],[63,145],[12,18],[1,0]],[[3858,4096],[-6,-8],[-30,-48],[-26,-59],[51,13],[12,-10],[-17,-40],[-5,-18],[10,-12],[14,-6],[10,-1],[6,7],[15,37],[5,14],[9,0],[7,-18],[2,-17],[-2,-18],[-7,-18],[20,-7],[18,8],[16,19],[17,23],[-3,-42],[-38,-34],[-75,-47],[-9,-22],[-11,-55],[-10,-23],[-14,-22],[-10,-19],[-7,-22],[-6,-57],[2,-9],[10,4],[37,33],[98,150],[18,16],[47,11],[20,9],[-19,-34],[-66,-17],[-15,-29],[-12,-39],[-55,-71],[-12,-32],[3,-23],[5,-24],[2,-22],[-5,-19],[-19,-30],[-27,-62],[0,-37],[2,-17],[13,-48],[5,-15],[48,-62],[51,-17],[53,22],[53,51],[14,8],[18,6],[17,9],[11,36],[5,5]],[[4096,3452],[-17,-21],[-33,-11],[-65,15],[-99,69],[-38,44],[-18,40],[-1,21]],[[1489,4096],[-4,-16],[-119,-167],[-56,-30],[-89,-18],[-48,7],[-75,48],[-51,3],[-46,-18],[-123,-95],[-97,-29],[-270,15],[-68,18]],[[320,4096],[-47,-176],[-5,-73],[8,-95],[-5,-193],[-36,-29],[-38,-15],[-23,-7],[-27,7]],[[0,3056],[131,11],[483,98],[352,55],[387,87],[524,172],[222,113],[250,215],[210,211],[61,78]],[[435,3821],[-18,26],[-5,36],[10,48],[28,51],[113,114]],[[3825,3609],[-1,34],[13,73],[27,58],[66,84],[56,98],[63,59],[18,43],[-3,38]],[[119,3502],[-40,-9],[-38,4],[-27,23],[31,47],[17,20],[23,19],[17,6],[27,4],[20,-8],[-5,-30],[-8,-9],[-6,-10],[-4,-12],[-2,-13],[21,-12],[8,-2],[-34,-18]],[[0,3762],[21,-19],[-20,-62],[-1,-2],[0,83]],[[3858,4096],[238,0],[0,-749],[-5,-5],[-11,-36],[-17,-9],[-18,-6],[-14,-8],[-53,-51],[-53,-22],[-51,17],[-48,62],[-5,15],[-13,48],[-2,17],[0,37],[27,62],[19,30],[5,19],[-2,22],[-5,24],[-3,23],[12,32],[55,71],[12,39],[15,29],[66,17],[19,34],[-20,-9],[-47,-11],[-18,-16],[-98,-150],[-37,-33],[-10,-4],[-2,9],[6,57],[7,22],[10,19],[14,22],[10,23],[11,55],[9,22],[75,47],[38,34],[3,42],[-17,-23],[-16,-19],[-18,-8],[-20,7],[7,18],[2,18],[-2,17],[-7,18],[-9,0],[-5,-14],[-15,-37],[-6,-7],[-10,1],[-14,6],[-10,12],[5,18],[17,40],[-12,10],[-51,-13],[26,59],[30,48],[6,8]],[[3108,4096],[509,0],[-1,0],[-12,-18],[-63,-145],[-9,-11],[-53,-20],[-12,-8],[-5,-14],[-7,-41],[-8,-18],[-9,-10],[-34,-27],[-31,-12],[-8,-16],[-4,-21],[-8,-21],[-13,-11],[-52,-10],[-16,-12],[-34,-45],[-20,-19],[-15,-8],[-14,-3],[-21,0],[-10,-2],[-17,-9],[-8,-2],[-8,4],[-14,19],[-8,4],[-75,16],[-21,11],[-5,4],[0,12],[-10,64],[-3,45],[5,45],[13,43],[31,77],[5,20],[7,45],[8,21],[50,73]],[[1561,4096],[51,0],[-5,-5],[-6,-46],[-6,-7],[-13,7],[-14,13],[-7,9],[-1,23],[1,6]],[[501,4096],[1033,0],[4,-16],[4,-21],[-3,-46],[-10,-42],[-19,-33],[-29,-16],[5,-44],[-31,-37],[-47,-24],[-42,-9],[-71,14],[-14,-1],[1,-27],[14,-25],[2,-20],[-36,-14],[-50,-3],[-51,20],[-30,45],[11,69],[-63,-24],[-22,5],[-5,47],[-11,-19],[-3,-20],[-1,-19],[-5,-15],[-14,-17],[-5,3],[-3,9],[-8,5],[-20,-3],[-9,-4],[-11,-6],[-11,-11],[-28,-32],[-48,-31],[-28,-10],[-24,-2],[-46,19],[-18,-4],[-15,-31],[-20,20],[-35,8],[-71,1],[-37,6],[-81,33],[-64,37],[-25,27],[-20,31],[-7,31],[9,49],[24,39],[56,63],[28,45]],[[4012,3688],[84,231],[0,-223],[-84,-8]],[[2891,3674],[116,-7],[30,35],[51,-54],[-4,-113],[-138,27],[-55,112]]]}