{"objects":{"water":{"type":"GeometryCollection","geometries":[{"type":"Polygon","properties":{"source":"naturalearthdata.com","kind":"ocean","area":1576712559132672,"sort_rank":200,"min_zoom":0.0,"id":1},"arcs":[[1]]}]},"buildings":{"type":"GeometryCollection","geometries":[]},"places":{"type":"GeometryCollection","geometries":[]},"transit":{"type":"GeometryCollection","geometries":[]},"pois":{"type":"GeometryCollection","geometries":[]},"boundaries":{"type":"GeometryCollection","geometries":[{"type":"LineString","properties":{"name:ay":"Republika Duminikana","name:ps":"\u0689\u0648\u0645\u0646\u064a\u06a9\u0627\u0646 \u062c\u0645\u0647\u0648\u0631\u064a\u062a","name:ka":"\u10d3\u10dd\u10db\u10d8\u10dc\u10d8\u10d9\u10d4\u10da\u10d7\u10d0 \u10e0\u10d4\u10e1\u10de\u10e3\u10d1\u10da\u10d8\u10d9\u10d0","name:ko":"\ub3c4\ubbf8\ub2c8\uce74 \uacf5\ud654\uad6d","name:kn":"\u0ca1\u0cca\u0cae\u0cbf\u0ca8\u0cbf\u0c95 \u0c97\u0ca3\u0cb0\u0cbe\u0c9c\u0ccd\u0caf","name:cs":"Dominik\u00e1nsk\u00e1 republika","name:tt":"\u0414\u043e\u043c\u0438\u043d\u0438\u043a\u0430\u043d \u0496\u04e9\u043c\u04bb\u04af\u0440\u0438\u044f\u0442\u0435","name:kw":"Repoblek Dhominikanek","name:sw":"Jamhuri ya Dominika","name:ku":"Komara Dom\u00een\u00eek","name:az":"Dominikan Respublikas\u0131","name:tl":"Republikang Dominikano","name:pa":"\u0a21\u0a4b\u0a2e\u0a3f\u0a28\u0a3f\u0a15\u0a3e\u0a08 \u0a17\u0a23\u0a30\u0a3e\u0a1c","name:os":"\u0414\u043e\u043c\u0438\u043d\u0438\u043a\u0430\u043d\u00e6\u0439\u044b \u0420\u0435\u0441\u043f\u0443\u0431\u043b\u0438\u043a\u00e6","name:or":"\u0b21\u0b4b\u0b2e\u0b47\u0b28\u0b3f\u0b15\u0b3e\u0b28 \u0b30\u0b3f\u0b2a\u0b2c\u0b4d\u0b32\u0b3f\u0b15","name:ce":"\u0414\u043e\u043c\u0438\u043d\u0438\u043a\u0430\u043d \u041f\u0430\u0447\u0445\u044c\u0430\u043b\u043a\u0445","name:ta":"\u0b9f\u0bca\u0bae\u0bbf\u0ba9\u0bbf\u0b95\u0bcd\u0b95\u0ba9\u0bcd \u0b95\u0bc1\u0b9f\u0bbf\u0baf\u0bb0\u0b9a\u0bc1","name:tg":"\u04b6\u0443\u043c\u04b3\u0443\u0440\u0438\u0438 \u0414\u043e\u043c\u0438\u043d\u0438\u043a\u0430\u043d\u0430","name:te":"\u0c21\u0c4a\u0c2e\u0c46\u0c28\u0c3f\u0c15\u0c28\u0c4d \u0c30\u0c3f\u0c2a\u0c2c\u0c4d\u0c32\u0c3f\u0c15\u0c4d","name:li":"Dominicaanse Rippubliek","name:fo":"Dominikanal\u00fd\u00f0veldi\u00f0","name:cy":"Gweriniaeth Dominica","source":"openstreetmap.org","sort_rank":262,"name:qu":"Duminikana","name:da":"Dominikanske Republik","name:de":"Dominikanische Republik","name:tr":"Dominik Cumhuriyeti","name:nv":"Domingo Bik\u00e9yah","name:be":"\u0414\u0430\u043c\u0456\u043d\u0456\u043a\u0430\u043d\u0441\u043a\u0430\u044f \u0420\u044d\u0441\u043f\u0443\u0431\u043b\u0456\u043a\u0430","name:dv":"\u0791\u07ae\u0789\u07a8\u0782\u07a8\u0786\u07a6\u0782\u07b0 \u0796\u07aa\u0789\u07b0\u0780\u07ab\u0783\u07a8\u0787\u07b0\u0794\u07a7","name:lv":"Dominik\u0101na","name:lt":"Dominikos Respublika","name:uz":"Dominika Respublikasi","name:kk":"\u0414\u043e\u043c\u0438\u043d\u0438\u043a\u0430\u043d \u0420\u0435\u0441\u043f\u0443\u0431\u043b\u0438\u043a\u0430\u0441\u044b","name:he":"\u05d4\u05e8\u05e4\u05d5\u05d1\u05dc\u05d9\u05e7\u05d4 \u05d4\u05d3\u05d5\u05de\u05d9\u05e0\u05d9\u05e7\u05e0\u05d9\u05ea","name:eo":"Domingo","name:ur":"\u062c\u0645\u06c1\u0648\u0631\u06cc\u06c1 \u0688\u0648\u0645\u06cc\u0646\u06cc\u06a9\u0646","name:lb":"Dominikanesch Republik","name:la":"Respublica Dominicana","name:uk":"\u0414\u043e\u043c\u0456\u043d\u0456\u043a\u0430\u043d\u0441\u044c\u043a\u0430 \u0420\u0435\u0441\u043f\u0443\u0431\u043b\u0456\u043a\u0430","name:hy":"\u0534\u0578\u0574\u056b\u0576\u056b\u056f\u0575\u0561\u0576 \u0540\u0561\u0576\u0580\u0561\u057a\u0565\u057f\u0578\u0582\u0569\u0575\u0578\u0582\u0576","name:ug":"\u062f\u0648\u0645\u0649\u0646\u0649\u0643\u0627\u0646 \u062c\u06c7\u0645\u06be\u06c7\u0631\u0649\u064a\u06d5\u062a\u0649","name:hu":"Dominikai K\u00f6zt\u00e1rsas\u00e1g","name:ln":"Republiki Dominikani","name:oc":"Republica Dominicana","name:el":"\u0394\u03bf\u03bc\u03b9\u03bd\u03b9\u03ba\u03b1\u03bd\u03ae \u0394\u03b7\u03bc\u03bf\u03ba\u03c1\u03b1\u03c4\u03af\u03b1","kind":"country","name:en":"Dominican Republic","name":"Rep\u00fablica Dominicana","name:ee":"Dominican Republic","min_zoom":8.0,"name:th":"\u0e2a\u0e32\u0e18\u0e32\u0e23\u0e13\u0e23\u0e31\u0e10\u0e42\u0e14\u0e21\u0e34\u0e19\u0e34\u0e01\u0e31\u0e19","name:eu":"Dominikar Errepublika","name:et":"Dominikaani Vabariik","name:yo":"Or\u00edl\u1eb9\u0300\u00f2m\u00ecnira D\u00f3m\u00edn\u00edk\u00ec","name:ht":"Dominikani","name:ia":"Republica Dominican","name:mt":"Repubblika Dominikana","name:ro":"Republica Dominican\u0103","name:id":"Republik Dominika","name:ms":"Republik Dominika","name:mr":"\u0921\u0949\u092e\u093f\u0928\u093f\u0915\u0928 \u092a\u094d\u0930\u091c\u093e\u0938\u0924\u094d\u0924\u093e\u0915","name:ar":"\u062c\u0645\u0647\u0648\u0631\u064a\u0629 \u0627\u0644\u062f\u0648\u0645\u064a\u0646\u064a\u0643\u0627\u0646","name:my":"\u1012\u102d\u102f\u1019\u102e\u1014\u102e\u1000\u1014\u103a\u101e\u1019\u1039\u1019\u1010\u1014\u102d\u102f\u1004\u103a\u1004\u1036","name:io":"Dominikana Republiko","name:is":"D\u00f3min\u00edska l\u00fd\u00f0veldi\u00f0","name:am":"\u12f6\u121a\u1292\u12ab\u1295 \u122a\u1350\u1265\u120a\u12ad","name:it":"Repubblica Dominicana","name:vi":"C\u1ed9ng h\u00f2a Dominica","name:ml":"\u0d21\u0d4a\u0d2e\u0d28\u0d3f\u0d15\u0d4d\u0d15\u0d7b \u0d31\u0d3f\u0d2a\u0d4d\u0d2a\u0d2c\u0d4d\u0d32\u0d3f\u0d15\u0d4d","name:rw":"Repubulika ya Dominikani","name:pl":"Dominikana","name:mk":"\u0414\u043e\u043c\u0438\u043d\u0438\u043a\u0430\u043d\u0441\u043a\u0430 \u0420\u0435\u043f\u0443\u0431\u043b\u0438\u043a\u0430","name:af":"Dominikaanse Republiek","name:fa":"\u062c\u0645\u0647\u0648\u0631\u06cc \u062f\u0648\u0645\u06cc\u0646\u06cc\u06a9\u0646","name:ss":"Tibuse weDomonokha","short_name":"R.D.","kind_detail":"2","name:hi":"\u0921\u094b\u092e\u093f\u0928\u093f\u0915\u0928 \u0917\u0923\u0930\u093e\u091c\u094d\u092f","id":-307828,"name:zh-min-nan":"Dominic Ki\u014dng-h\u00f4-kok","name:fr":"R\u00e9publique dominicaine","name:zh-yue":"\u591a\u660e\u5c3c\u52a0","name:fy":"Dominikaanske Republyk","name:vo":"Sandomin\u00e4n","name:zh":"\u591a\u660e\u5c3c\u52a0\u5171\u548c\u570b","name:hr":"Dominikanska Republika","name:sl":"Dominikanska republika","name:nl":"Dominicaanse Republiek","name:ja":"\u30c9\u30df\u30cb\u30ab\u5171\u548c\u56fd","name:nn":"Den dominikanske republikken","name:sh":"Dominikanska Republika","name:na":"Ripubrikin Dominika","name:se":"Dominik\u00e1na d\u00e1ssev\u00e1ldi","name:ne":"\u0921\u094b\u092e\u093f\u0928\u093f\u0915\u0928 \u0917\u0923\u0924\u0928\u094d\u0924\u094d\u0930","name:br":"Republik Dominikan","name:bs":"Dominikanska Republika","name:yi":"\u05d3\u05d0\u05de\u05d9\u05e0\u05d9\u05e7\u05d0\u05e0\u05d9\u05e9\u05e2 \u05e8\u05e2\u05e4\u05d5\u05d1\u05dc\u05d9\u05e7","name:bn":"\u09a1\u09cb\u09ae\u09bf\u09a8\u09bf\u0995\u09be\u09a8 \u09aa\u09cd\u09b0\u099c\u09be\u09a4\u09a8\u09cd\u09a4\u09cd\u09b0","name:bo":"\u0f4c\u0f7c\u0f0b\u0f58\u0f72\u0f0b\u0f53\u0f72\u0f0b\u0f40\u0f53\u0f0b\u0f66\u0fa4\u0fb1\u0f72\u0f0b\u0f58\u0f50\u0f74\u0f53\u0f0b\u0f62\u0f92\u0fb1\u0f63\u0f0b\u0f41\u0f56\u0f0d","name:sk":"Dominik\u00e1nska republika","name:sa":"\u0921\u094b\u092e\u094b\u0928\u093f\u0915\u0928 \u0930\u093f\u092a\u092c\u094d\u0932\u093f\u0915","name:no":"Den dominikanske republikk","name:ru":"\u0414\u043e\u043c\u0438\u043d\u0438\u043a\u0430\u043d\u0441\u043a\u0430\u044f \u0420\u0435\u0441\u043f\u0443\u0431\u043b\u0438\u043a\u0430","name:sv":"Dominikanska Republiken","name:su":"R\u00e9publik Dominika","name:bg":"\u0414\u043e\u043c\u0438\u043d\u0438\u043a\u0430\u043d\u0441\u043a\u0430 \u0440\u0435\u043f\u0443\u0431\u043b\u0438\u043a\u0430","name:an":"Republica Dominicana","name:sr":"\u0414\u043e\u043c\u0438\u043d\u0438\u043a\u0430\u043d\u0441\u043a\u0430 \u0420\u0435\u043f\u0443\u0431\u043b\u0438\u043a\u0430","osm_relation":true,"name:sq":"Republika Dominikane","name:ga":"An Phoblacht Dhoiminiceach","name:gd":"Poblachd Dhoiminicia","name:wo":"R\u00e9ewum Dominik","name:jv":"Republik Dominika","maritime_boundary":true,"name:gv":"Yn Phobblaght Ghominicagh","name:fi":"Dominikaaninen tasavalta"},"arcs":[0]}]},"roads":{"type":"GeometryCollection","geometries":[]},"earth":{"type":"GeometryCollection","geometries":[]},"landuse":{"type":"GeometryCollection","geometries":[]}},"type":"Topology","transform":{"translate":[-70.3125,20.6327842504],"scale":[0.0003433228,0.000319888]},"arcs":[[[3312,0],[-441,481],[-464,358],[-459,243],[-353,224],[-1595,604]],[[0,0],[0,4096],[4096,0],[0,-4096],[-4096,0]]]}