{"objects":{"water":{"type":"GeometryCollection","geometries":[{"type":"MultiPolygon","properties":{"source":"naturalearthdata.com","kind":"ocean","area":1576712559132672,"sort_rank":200,"min_zoom":0.0,"id":1},"arcs":[[[43]],[[44]],[[45]],[[46]]]},{"type":"MultiLineString","properties":{"source":"naturalearthdata.com","kind":"ocean","sort_rank":205,"boundary":true,"min_zoom":0.0,"id":551},"arcs":[[47],[48],[49],[50]]}]},"buildings":{"type":"GeometryCollection","geometries":[]},"places":{"type":"GeometryCollection","geometries":[{"type":"Point","properties":{"name:cy":"Gweriniaeth Dominica","name:tr":"Dominik Cumhuriyeti","name:kn":"\u0ca1\u0cca\u0cae\u0cc6\u0ca8\u0cbf\u0c95\u0ccd \u0cb0\u0cbf\u0caa\u0cac\u0ccd\u0cb2\u0cbf\u0c95\u0ccd","name:km":"\u179f\u17b6\u1792\u17b6\u179a\u178e\u179a\u178a\u17d2\u178b\u178a\u17bc\u1798\u17b8\u1793\u17b8\u1780\u17c2\u1793","name:cs":"Dominik\u00e1nsk\u00e1 republika","name:ki":"Jamhuri ya Dominika","name:kw":"Repoblek Dhominikanek","name:ku":"Komara Dom\u00een\u00eek","name:ti":"\u12f6\u121a\u1292\u12ad \u122a\u1351\u1265\u120a\u12ad","name:ks":"\u0921\u094b\u092e\u094b\u0928\u093f\u0915\u0928 \u0930\u093f\u092a\u092c\u094d\u0932\u093f\u0915","name:to":"Lipapilika Tominika","name:tl":"Republikang Dominikana","name:ce":"\u0414\u043e\u043c\u0438\u043d\u0438\u043a\u0430\u043d \u041f\u0430\u0447\u0445\u044c\u0430\u043b\u043a\u0445","name:ta":"\u0b9f\u0bca\u0bae\u0bbf\u0ba9\u0bbf\u0b95\u0bcd\u0b95\u0ba9\u0bcd \u0b95\u0bc1\u0b9f\u0bbf\u0baf\u0bb0\u0b9a\u0bc1","name:tg":"\u04b6\u0443\u043c\u04b3\u0443\u0440\u0438\u0438 \u0414\u043e\u043c\u0438\u043d\u0438\u043a\u0430\u043d\u0430","name:te":"\u0c21\u0c4a\u0c2e\u0c3f\u0c28\u0c3f\u0c15\u0c28\u0c4d \u0c17\u0c23 \u0c30\u0c3e\u0c1c\u0c4d\u0c2f\u0c02","name:ka":"\u10d3\u10dd\u10db\u10d8\u10dc\u10d8\u10d9\u10d4\u10da\u10d7\u10d0 \u10e0\u10d4\u10e1\u10de\u10e3\u10d1\u10da\u10d8\u10d9\u10d0","name:hr":"Dominikanska Republika","name:da":"Dominikanske Republik","name:de":"Dominikanische Republik","name:dz":"\u0f4c\u0f7c\u0f0b\u0f58\u0f72\u0f0b\u0f53\u0f72\u0f0b\u0f40\u0f71\u0f53\u0f0b \u0f62\u0f72\u0f0b\u0f54\u0f56\u0f0b\u0f63\u0f72\u0f40","source":"openstreetmap.org","name:dv":"\u0791\u07ae\u0789\u07a8\u0782\u07a8\u0786\u07a6\u0782\u07b0 \u0796\u07aa\u0789\u07b0\u0780\u07ab\u0783\u07a8\u0787\u07b0\u0794\u07a7","name:lv":"Dominik\u0101nas Republika","name:lt":"Dominikos Respublika","name:uz":"Dominika Respublikasi","name:kk":"\u0414\u043e\u043c\u0438\u043d\u0438\u043a\u0430\u043d \u0420\u0435\u0441\u043f\u0443\u0431\u043b\u0438\u043a\u0430\u0441\u044b","name:ur":"\u062c\u0645\u06c1\u0648\u0631\u06cc\u06c1 \u0688\u0648\u0645\u06cc\u0646\u06cc\u06a9\u0627","name:lb":"Dominikanesch Republik","name:la":"Respublica Dominicana","name:lg":"Lipubulika ya Dominika","name:uk":"\u0414\u043e\u043c\u0456\u043d\u0456\u043a\u0430\u043d\u0441\u044c\u043a\u0430 \u0420\u0435\u0441\u043f\u0443\u0431\u043b\u0456\u043a\u0430","name:ug":"Dominikan Jumhuriyeti","name:li":"Dominicaanse Rippebliek","name:ln":"Republiki Dominikani","name:lo":"\u0eaa\u0eb2\u0e97\u0eb2\u0ea5\u0eb0\u0e99\u0eb0\u0ea5\u0eb1\u0e94 \u0ec2\u0e94\u0ea1\u0eb4\u0e99\u0eb4\u0e81\u0eb1\u0e99","name:el":"\u0394\u03bf\u03bc\u03b9\u03bd\u03b9\u03ba\u03b1\u03bd\u03ae \u0394\u03b7\u03bc\u03bf\u03ba\u03c1\u03b1\u03c4\u03af\u03b1","name:eo":"Domingo","name:en":"Dominican Republic","name":"Rep\u00fablica Dominicana","name:ee":"Dominika rep\u0254blik nutome","name:th":"\u0e2a\u0e32\u0e18\u0e32\u0e23\u0e13\u0e23\u0e31\u0e10\u0e42\u0e14\u0e21\u0e34\u0e19\u0e34\u0e01\u0e31\u0e19","name:eu":"Dominikar Errepublika","name:et":"Dominikaani Vabariik","name:ay":"Republika Duminikana","name:rm":"Republica Dominicana","name:rn":"Repubulika ya Dominika","name:az":"Dominikan Respublikas\u0131","name:id":"Republik Dominika","name:ar":"\u0627\u0644\u062c\u0645\u0647\u0648\u0631\u064a\u0629 \u0627\u0644\u062f\u0648\u0645\u064a\u0646\u064a\u0643\u064a\u0629","name:io":"Dominikana Republiko","name:ak":"D\u0254meneka Kurok\u025bse","name:am":"\u12f6\u121a\u1292\u12ad \u122a\u1351\u1265\u120a\u12ad","name:it":"Repubblica Dominicana","name:an":"Republica Dominicana","name:ru":"\u0414\u043e\u043c\u0438\u043d\u0438\u043a\u0430\u043d\u0441\u043a\u0430\u044f \u0420\u0435\u0441\u043f\u0443\u0431\u043b\u0438\u043a\u0430","name:rw":"Repubulika ya Dominikani","name:af":"Dominikaanse Republiek","name:zu":"i-Dominican Republic","name:zh-yue":"\u591a\u660e\u5c3c\u52a0","name:zh":"\u591a\u660e\u5c3c\u52a0\u5171\u548c\u570b","name:so":"Jamhuuriyadda Domeenika","name:sn":"Dominican Republic","name:sl":"Dominikanska republika","name:sk":"Dominik\u00e1nska republika","name:ja":"\u30c9\u30df\u30cb\u30ab\u5171\u548c\u56fd","name:si":"\u0da9\u0ddc\u0db8\u0dd2\u0db1\u0dd2\u0d9a\u0dcf \u0da2\u0db1\u0dbb\u0da2\u0dba","name:sh":"Dominikanska Republika","name:sg":"K\u00f6d\u00f6r\u00f6s\u00ease t\u00ee Domin\u00eeka","name:se":"Dominik\u00e1na d\u00e1ssev\u00e1ldi","name:sa":"\u0921\u094b\u092e\u094b\u0928\u093f\u0915\u0928 \u0930\u093f\u092a\u092c\u094d\u0932\u093f\u0915","name:bs":"Dominikanska Republika","name:bm":"D\u0254mimiki republiki","name:bn":"\u09a1\u09cb\u09ae\u09bf\u09a8\u09bf\u0995\u09be\u09a8 \u09aa\u09cd\u09b0\u099c\u09be\u09a4\u09a8\u09cd\u09a4\u09cd\u09b0","name:bo":"\u0f4c\u0f7c\u0f0b\u0f58\u0f72\u0f0b\u0f53\u0f72\u0f0b\u0f40\u0f53\u0f0b\u0f66\u0fa4\u0fb1\u0f72\u0f0b\u0f58\u0f50\u0f74\u0f53\u0f0b\u0f62\u0f92\u0fb1\u0f63\u0f0b\u0f41\u0f56\u0f0d","name:br":"Republik Dominikan","name:sw":"Jamhuri ya Dominika","name:be":"\u0414\u0430\u043c\u0456\u043d\u0456\u043a\u0430\u043d\u0441\u043a\u0430\u044f \u0420\u044d\u0441\u043f\u0443\u0431\u043b\u0456\u043a\u0430","name:su":"R\u00e9publik Dominika","name:bg":"\u0414\u043e\u043c\u0438\u043d\u0438\u043a\u0430\u043d\u0441\u043a\u0430 \u0440\u0435\u043f\u0443\u0431\u043b\u0438\u043a\u0430","name:ss":"Tibuse weDomonokha","name:sr":"\u0414\u043e\u043c\u0438\u043d\u0438\u043a\u0430\u043d\u0441\u043a\u0430 \u0420\u0435\u043f\u0443\u0431\u043b\u0438\u043a\u0430","name:sq":"Republika Dominikane","name:jv":"Republik Dominika","name:ia":"Republica Dominican","name:ps":"\u0689\u0648\u0645\u0646\u064a\u06a9\u0627\u0646 \u062c\u0645\u0647\u0648\u0631\u064a\u062a","name:mt":"Republikka Domenikana","name:oc":"Republica Dominicana","min_zoom":2.0,"name:ro":"Republica Dominican\u0103","name:ko":"\ub3c4\ubbf8\ub2c8\uce74 \uacf5\ud654\uad6d","name:zh-min-nan":"Dominic Ki\u014dng-h\u00f4-kok","name:os":"\u0414\u043e\u043c\u0438\u043d\u0438\u043a\u0430\u043d\u00e6\u0439\u044b \u0420\u0435\u0441\u043f\u0443\u0431\u043b\u0438\u043a\u00e6","name:or":"\u0b21\u0b4b\u0b2e\u0b3f\u0b28\u0b15\u0b3e\u0b28\u0b4d \u0b2a\u0b4d\u0b30\u0b1c\u0b3e\u0b24\u0b28\u0b4d\u0b24\u0b4d\u0b30","name:pl":"Dominikana","name:pa":"\u0a21\u0a4b\u0a2e\u0a3f\u0a28\u0a3f\u0a15\u0a3e\u0a08 \u0a17\u0a23\u0a30\u0a3e\u0a1c","name:hi":"\u0921\u094b\u092e\u093f\u0928\u093f\u0915\u0928 \u0917\u0923\u0930\u093e\u091c\u094d\u092f","name:sv":"Dominikanska republiken","name:he":"\u05d3\u05d5\u05de\u05d9\u05e0\u05d9\u05e7","name:ha":"Jamhuriyar Dominika","name:hy":"\u0534\u0578\u0574\u056b\u0576\u056b\u056f\u0575\u0561\u0576 \u0540\u0561\u0576\u0580\u0561\u057a\u0565\u057f\u0578\u0582\u0569\u0575\u0578\u0582\u0576","name:ht":"Repiblik dominik\u00e0n","name:hu":"Dominikai K\u00f6zt\u00e1rsas\u00e1g","name:qu":"Duminikana","population":10464474,"kind":"country","name:is":"D\u00f3min\u00edska l\u00fd\u00f0veldi\u00f0","name:yi":"\u05d3\u05d0\u05de\u05d9\u05e0\u05d9\u05e7\u05d0\u05e0\u05d9\u05e9\u05e2 \u05e8\u05e2\u05e4\u05d5\u05d1\u05dc\u05d9\u05e7","name:yo":"D\u00f3m\u00edn\u00edk\u00ec Ol\u00f3m\u00ecnira","alt_name:el":"\u039d\u03c4\u03bf\u03bc\u03b9\u03bd\u03b9\u03ba\u03b1\u03bd\u03ae \u0394\u03b7\u03bc\u03bf\u03ba\u03c1\u03b1\u03c4\u03af\u03b1","name:ms":"Republik Dominika","name:mr":"\u0921\u0949\u092e\u093f\u0928\u093f\u0915\u0928 \u092a\u094d\u0930\u091c\u093e\u0938\u0924\u094d\u0924\u093e\u0915","name:my":"\u1012\u102d\u102f\u1019\u102e\u1014\u102e\u1000\u1014\u103a","name:mg":"Repoblika Dominikanina","name:ml":"\u0d21\u0d4a\u0d2e\u0d28\u0d3f\u0d15\u0d4d\u0d15\u0d28\u0d4d\u200d \u0d31\u0d3f\u0d2a\u0d4d\u0d2a\u0d2c\u0d4d\u0d32\u0d3f\u0d15\u0d4d","name:vi":"C\u1ed9ng h\u00f2a Dominicana","name:mn":"\u0414\u043e\u043c\u0438\u043d\u0438\u043a\u0430\u043d\u044b \u0411\u04af\u0433\u0434 \u041d\u0430\u0439\u0440\u0430\u043c\u0434\u0430\u0445 \u0423\u043b\u0441","id":246422158,"name:mk":"\u0414\u043e\u043c\u0438\u043d\u0438\u043a\u0430\u043d\u0441\u043a\u0430 \u0420\u0435\u043f\u0443\u0431\u043b\u0438\u043a\u0430","name:vo":"Sandomin\u00e4n","name:fa":"\u062c\u0645\u0647\u0648\u0631\u06cc \u062f\u0648\u0645\u06cc\u0646\u06cc\u06a9\u0646","name:ff":"Ndenndanndi Dominika","name:fi":"Dominikaaninen tasavalta","name:fo":"Dominikanal\u00fd\u00f0veldi\u00f0","alt_name:vi":"C\u1ed9ng ho\u00e0 Dominicana","name:fr":"R\u00e9publique Dominicaine","name:fy":"de Dominikaanske Republyk","name:nl":"Dominicaanse Republiek","name:nn":"Den dominikanske republikken","name:no":"Den dominikanske republikk","name:na":"Ripubrikin Dominika","name:ne":"\u0921\u094b\u092e\u093f\u0928\u093f\u0915\u0928 \u0917\u0923\u0924\u0928\u094d\u0924\u094d\u0930","name:wo":"R\u00e9ewum Dominik","name:nv":"Domingo Bik\u00e9yah","name:ga":"An Phoblacht Dhoiminiceach","name:gd":"Poblachd Dhoiminicia","name:gv":"Yn Phobblaght Ghominicagh","name:gu":"\u0aa1\u0acb\u0aae\u0abf\u0aa8\u0abf\u0a95\u0aa8 \u0ab0\u0ac0\u0aaa\u0aac\u0acd\u0ab2\u0abf\u0a95","name:tt":"\u0414\u043e\u043c\u0438\u043d\u0438\u043a\u0430\u043d \u0496\u04e9\u043c\u04bb\u04af\u0440\u0438\u044f\u0442\u0435"},"coordinates":[28,3439]},{"type":"Point","properties":{"source":"openstreetmap.org","kind":"region","name":"San Crist\u00f3bal","kind_detail":"state","min_zoom":4.0,"id":2652225316},"coordinates":[305,1664]},{"type":"Point","properties":{"source":"openstreetmap.org","kind":"region","name":"Santo Domingo","kind_detail":"state","min_zoom":4.0,"id":2652225336},"coordinates":[1338,1799]},{"type":"Point","properties":{"source":"openstreetmap.org","kind":"region","name":"Monte Plata","kind_detail":"state","min_zoom":4.0,"id":2652225300},"coordinates":[1478,2625]},{"type":"Point","properties":{"source":"openstreetmap.org","kind":"region","name":"San Pedro de Macor\u00eds","kind_detail":"state","min_zoom":4.0,"id":2652225326},"coordinates":[2425,1638]},{"type":"Point","properties":{"source":"openstreetmap.org","kind":"region","name":"La Romana","kind_detail":"state","min_zoom":4.0,"id":2652225281},"coordinates":[3891,1595]},{"type":"Point","properties":{"source":"openstreetmap.org","kind":"region","name":"Hato Mayor","kind_detail":"state","min_zoom":4.0,"id":2652225275},"coordinates":[2798,2733]},{"type":"Point","properties":{"source":"openstreetmap.org","kind":"region","name":"S\u00e1nchez Ram\u00edrez","kind_detail":"state","min_zoom":4.0,"id":2652225339},"coordinates":[488,3194]},{"type":"Point","properties":{"source":"openstreetmap.org","kind":"region","name":"Duarte","kind_detail":"state","min_zoom":4.0,"id":2652225270},"coordinates":[655,3888]},{"type":"Point","properties":{"source":"openstreetmap.org","kind":"region","name":"Saman\u00e1","name:ru":"\u0421\u0430\u043c\u0430\u043d\u0430","kind_detail":"state","min_zoom":4.0,"id":2652225313},"coordinates":[2387,3954]},{"type":"Point","properties":{"name:ka":"\u10e1\u10d0\u10dc\u10e2\u10dd-\u10d3\u10dd\u10db\u10d8\u10dc\u10d2\u10dd","name:mr":"\u0938\u093e\u0902\u0924\u094b \u0926\u0949\u092e\u093f\u0902\u0917\u094b","name:ko":"\uc0b0\ud1a0\ub3c4\ubc0d\uace0","name:ar":"\u0633\u0627\u0646\u062a\u0648 \u062f\u0648\u0645\u064a\u0646\u062c\u0648","official_name":"Santo Domingo de Guzm\u00e1n","name:is":"Sant\u00f3 D\u00f3ming\u00f3","name:am":"\u1233\u1295\u1276 \u12f6\u121a\u1295\u130e","name:os":"\u0421\u0430\u043d\u0442\u043e-\u0414\u043e\u043c\u0438\u043d\u0433\u043e","name:ru":"\u0421\u0430\u043d\u0442\u043e-\u0414\u043e\u043c\u0438\u043d\u0433\u043e","name:tg":"\u0412\u0438\u043b\u043e\u044f\u0442\u0438 \u0421\u0430\u043d\u0442\u043e \u0414\u043e\u043c\u0438\u043d\u0433\u043e","name:mk":"\u0421\u0430\u043d\u0442\u043e \u0414\u043e\u043c\u0438\u043d\u0433\u043e","name:fa":"\u0633\u0627\u0646\u062a\u0648 \u062f\u0648\u0645\u06cc\u0646\u06af\u0648","kind_detail":"city","id":315342451,"source":"openstreetmap.org","name:fr":"Saint-Domingue","name:zh":"\u8056\u591a\u660e\u5404","admin_level":"2","name:ja":"\u30b5\u30f3\u30c8\u30c9\u30df\u30f3\u30b4","name:lt":"Santo Domingas","name:hi":"\u0938\u0947\u0902\u091f\u094b \u0921\u094b\u092e\u093f\u0902\u0917\u094b","name:he":"\u05e1\u05e0\u05d8\u05d5 \u05d3\u05d5\u05de\u05d9\u05e0\u05d2\u05d5","kind":"locality","name:ur":"\u0633\u0627\u0646\u062a\u0648 \u062f\u0648\u0645\u0646\u06af\u0648","name:bo":"\u0f66\u0f71\u0f53\u0f0b\u0f4f\u0f7c\u0f0b\u0f4c\u0f7c\u0f0b\u0f58\u0f72\u0f44\u0f0b\u0f42\u0f7c","name:uk":"\u0421\u0430\u043d\u0442\u043e-\u0414\u043e\u043c\u0456\u043d\u0433\u043e","name:hy":"\u054d\u0561\u0576\u057f\u0578 \u0534\u0578\u0574\u056b\u0576\u0563\u0578","country_capital":true,"name:be":"\u0421\u0430\u043d\u0442\u0430-\u0414\u0430\u043c\u0456\u043d\u0433\u0430","name:ht":"Sen Domeng","name:bg":"\u0421\u0430\u043d\u0442\u043e \u0414\u043e\u043c\u0438\u043d\u0433\u043e","name:qu":"Santo Domingo llaqta","name:sr":"\u0421\u0430\u043d\u0442\u043e \u0414\u043e\u043c\u0438\u043d\u0433\u043e","name:oc":"Sant Domingo","population":965040,"name:el":"\u03a3\u03ac\u03bd\u03c4\u03bf \u039d\u03c4\u03bf\u03bc\u03af\u03b3\u03ba\u03bf","name:eo":"Sankta Domingo","name":"Santo Domingo","min_zoom":8.0,"name:th":"\u0e0b\u0e31\u0e19\u0e42\u0e15\u0e42\u0e14\u0e21\u0e34\u0e07\u0e42\u0e01","name:la":"Dominicopolis"},"coordinates":[1079,1542]},{"type":"Point","properties":{"source":"openstreetmap.org","kind":"locality","name":"San Crist\u00f3bal","kind_detail":"city","population":275232,"min_zoom":8.0,"id":250651467},"coordinates":[589,1349]},{"type":"Point","properties":{"kind":"locality","name":"San Francisco de Macoris","kind_detail":"city","source":"openstreetmap.org","min_zoom":8.0,"old_name":"La Villa del ricon de Santa Ana de San Francisco de Macoris","name:ru":"\u0421\u0430\u043d-\u0424\u0440\u0430\u043d\u0441\u0438\u0441\u043a\u043e-\u0434\u0435-\u041c\u0430\u043a\u043e\u0440\u0438\u0441","name:hu":"Santa Ana","id":1898769269,"population":245397},"coordinates":[172,4053]},{"type":"Point","properties":{"kind":"locality","name":"San Pedro de Macor\u00eds","kind_detail":"city","source":"openstreetmap.org","min_zoom":8.0,"name:ru":"\u0421\u0430\u043d-\u041f\u0435\u0434\u0440\u043e-\u0434\u0435-\u041c\u0430\u043a\u043e\u0440\u0438\u0441","id":250651104,"population":217141},"coordinates":[2941,1480]},{"type":"Point","properties":{"kind":"locality","name":"La Romana","kind_detail":"city","source":"openstreetmap.org","min_zoom":8.0,"name:ru":"\u041b\u0430-\u0420\u043e\u043c\u0430\u043d\u0430","id":250651105,"population":202488},"coordinates":[3900,1379]},{"type":"Point","properties":{"kind":"locality","name":"Saman\u00e1","kind_detail":"city","official_name":"Santa B\u00e1rbara de Saman\u00e1","source":"openstreetmap.org","min_zoom":8.0,"name:ru":"\u0421\u0430\u043c\u0430\u043d\u0430","id":250651126,"population":108179},"coordinates":[2849,3767]},{"type":"Point","properties":{"kind":"locality","name":"Cotu\u00ed","kind_detail":"city","source":"openstreetmap.org","min_zoom":8.0,"name:ru":"\u041a\u043e\u0442\u0443\u0438","id":252997068,"population":79596},"coordinates":[463,3319]},{"type":"Point","properties":{"kind":"locality","name":"Hato Mayor","kind_detail":"town","official_name":"Hato Mayor del Rey","source":"openstreetmap.org","min_zoom":8.0,"name:ru":"\u0410\u0442\u043e-\u041c\u0430\u0439\u043e\u0440","id":250651123,"population":70141},"coordinates":[3077,2411]},{"type":"Point","properties":{"kind":"locality","name":"Monte Plata","kind_detail":"city","source":"openstreetmap.org","min_zoom":8.0,"name:ru":"\u041c\u043e\u043d\u0442\u0435-\u041f\u043b\u0430\u0442\u0430","id":252996432,"population":37614},"coordinates":[1529,2556]}]},"transit":{"type":"GeometryCollection","geometries":[{"type":"LineString","properties":{"kind":"subway","network":"Metro de Santo Domingo","sort_rank":275,"colour":"red","name":"L\u00ednea 2: Maria Montez \u2192 Eduardo Brito","source":"openstreetmap.org","min_zoom":8.0,"operator":"OPRET","ref":"2","id":-7730098,"osm_relation":true,"colour_name":"red"},"arcs":[39]},{"type":"LineString","properties":{"kind":"subway","network":"Metro de Santo Domingo","sort_rank":275,"colour":"blue","name":"L\u00ednea 1: Mama Ting\u00f2 \u2192 Centro De Los H\u00e9roes","source":"openstreetmap.org","min_zoom":8.0,"operator":"OPRET","ref":"1","id":-1325782,"osm_relation":true,"colour_name":"blue"},"arcs":[40]},{"type":"LineString","properties":{"kind":"subway","network":"Metro de Santo Domingo","sort_rank":275,"colour":"red","name":"L\u00ednea 2: Eduardo Brito \u2192 Maria Montez","source":"openstreetmap.org","min_zoom":8.0,"operator":"OPRET","ref":"2","id":-7734058,"osm_relation":true,"colour_name":"red"},"arcs":[41]},{"type":"LineString","properties":{"kind":"subway","network":"Metro de Santo Domingo","sort_rank":275,"colour":"blue","name":"L\u00ednea 1: Centro De Los H\u00e9roes \u2192 Mama Ting\u00f2","source":"openstreetmap.org","min_zoom":8.0,"operator":"OPRET","ref":"1","id":-7734059,"osm_relation":true,"colour_name":"blue"},"arcs":[42]}]},"pois":{"type":"GeometryCollection","geometries":[]},"boundaries":{"type":"GeometryCollection","geometries":[{"type":"LineString","properties":{"name:ay":"Republika Duminikana","name:ps":"\u0689\u0648\u0645\u0646\u064a\u06a9\u0627\u0646 \u062c\u0645\u0647\u0648\u0631\u064a\u062a","name:ka":"\u10d3\u10dd\u10db\u10d8\u10dc\u10d8\u10d9\u10d4\u10da\u10d7\u10d0 \u10e0\u10d4\u10e1\u10de\u10e3\u10d1\u10da\u10d8\u10d9\u10d0","name:ko":"\ub3c4\ubbf8\ub2c8\uce74 \uacf5\ud654\uad6d","name:kn":"\u0ca1\u0cca\u0cae\u0cbf\u0ca8\u0cbf\u0c95 \u0c97\u0ca3\u0cb0\u0cbe\u0c9c\u0ccd\u0caf","name:cs":"Dominik\u00e1nsk\u00e1 republika","name:tt":"\u0414\u043e\u043c\u0438\u043d\u0438\u043a\u0430\u043d \u0496\u04e9\u043c\u04bb\u04af\u0440\u0438\u044f\u0442\u0435","name:kw":"Repoblek Dhominikanek","name:sw":"Jamhuri ya Dominika","name:ku":"Komara Dom\u00een\u00eek","name:az":"Dominikan Respublikas\u0131","name:tl":"Republikang Dominikano","name:pa":"\u0a21\u0a4b\u0a2e\u0a3f\u0a28\u0a3f\u0a15\u0a3e\u0a08 \u0a17\u0a23\u0a30\u0a3e\u0a1c","name:os":"\u0414\u043e\u043c\u0438\u043d\u0438\u043a\u0430\u043d\u00e6\u0439\u044b \u0420\u0435\u0441\u043f\u0443\u0431\u043b\u0438\u043a\u00e6","name:or":"\u0b21\u0b4b\u0b2e\u0b47\u0b28\u0b3f\u0b15\u0b3e\u0b28 \u0b30\u0b3f\u0b2a\u0b2c\u0b4d\u0b32\u0b3f\u0b15","name:ce":"\u0414\u043e\u043c\u0438\u043d\u0438\u043a\u0430\u043d \u041f\u0430\u0447\u0445\u044c\u0430\u043b\u043a\u0445","name:ta":"\u0b9f\u0bca\u0bae\u0bbf\u0ba9\u0bbf\u0b95\u0bcd\u0b95\u0ba9\u0bcd \u0b95\u0bc1\u0b9f\u0bbf\u0baf\u0bb0\u0b9a\u0bc1","name:tg":"\u04b6\u0443\u043c\u04b3\u0443\u0440\u0438\u0438 \u0414\u043e\u043c\u0438\u043d\u0438\u043a\u0430\u043d\u0430","name:te":"\u0c21\u0c4a\u0c2e\u0c46\u0c28\u0c3f\u0c15\u0c28\u0c4d \u0c30\u0c3f\u0c2a\u0c2c\u0c4d\u0c32\u0c3f\u0c15\u0c4d","name:li":"Dominicaanse Rippubliek","name:fo":"Dominikanal\u00fd\u00f0veldi\u00f0","name:cy":"Gweriniaeth Dominica","source":"openstreetmap.org","sort_rank":262,"name:qu":"Duminikana","name:da":"Dominikanske Republik","name:de":"Dominikanische Republik","name:tr":"Dominik Cumhuriyeti","name:nv":"Domingo Bik\u00e9yah","name:be":"\u0414\u0430\u043c\u0456\u043d\u0456\u043a\u0430\u043d\u0441\u043a\u0430\u044f \u0420\u044d\u0441\u043f\u0443\u0431\u043b\u0456\u043a\u0430","name:dv":"\u0791\u07ae\u0789\u07a8\u0782\u07a8\u0786\u07a6\u0782\u07b0 \u0796\u07aa\u0789\u07b0\u0780\u07ab\u0783\u07a8\u0787\u07b0\u0794\u07a7","name:lv":"Dominik\u0101na","name:lt":"Dominikos Respublika","name:uz":"Dominika Respublikasi","name:kk":"\u0414\u043e\u043c\u0438\u043d\u0438\u043a\u0430\u043d \u0420\u0435\u0441\u043f\u0443\u0431\u043b\u0438\u043a\u0430\u0441\u044b","name:he":"\u05d4\u05e8\u05e4\u05d5\u05d1\u05dc\u05d9\u05e7\u05d4 \u05d4\u05d3\u05d5\u05de\u05d9\u05e0\u05d9\u05e7\u05e0\u05d9\u05ea","name:eo":"Domingo","name:ur":"\u062c\u0645\u06c1\u0648\u0631\u06cc\u06c1 \u0688\u0648\u0645\u06cc\u0646\u06cc\u06a9\u0646","name:lb":"Dominikanesch Republik","name:la":"Respublica Dominicana","name:uk":"\u0414\u043e\u043c\u0456\u043d\u0456\u043a\u0430\u043d\u0441\u044c\u043a\u0430 \u0420\u0435\u0441\u043f\u0443\u0431\u043b\u0456\u043a\u0430","name:hy":"\u0534\u0578\u0574\u056b\u0576\u056b\u056f\u0575\u0561\u0576 \u0540\u0561\u0576\u0580\u0561\u057a\u0565\u057f\u0578\u0582\u0569\u0575\u0578\u0582\u0576","name:ug":"\u062f\u0648\u0645\u0649\u0646\u0649\u0643\u0627\u0646 \u062c\u06c7\u0645\u06be\u06c7\u0631\u0649\u064a\u06d5\u062a\u0649","name:hu":"Dominikai K\u00f6zt\u00e1rsas\u00e1g","name:ln":"Republiki Dominikani","name:oc":"Republica Dominicana","name:el":"\u0394\u03bf\u03bc\u03b9\u03bd\u03b9\u03ba\u03b1\u03bd\u03ae \u0394\u03b7\u03bc\u03bf\u03ba\u03c1\u03b1\u03c4\u03af\u03b1","kind":"country","name:en":"Dominican Republic","name":"Rep\u00fablica Dominicana","name:ee":"Dominican Republic","min_zoom":8.0,"name:th":"\u0e2a\u0e32\u0e18\u0e32\u0e23\u0e13\u0e23\u0e31\u0e10\u0e42\u0e14\u0e21\u0e34\u0e19\u0e34\u0e01\u0e31\u0e19","name:eu":"Dominikar Errepublika","name:et":"Dominikaani Vabariik","name:yo":"Or\u00edl\u1eb9\u0300\u00f2m\u00ecnira D\u00f3m\u00edn\u00edk\u00ec","name:ht":"Dominikani","name:ia":"Republica Dominican","name:mt":"Repubblika Dominikana","name:ro":"Republica Dominican\u0103","name:id":"Republik Dominika","name:ms":"Republik Dominika","name:mr":"\u0921\u0949\u092e\u093f\u0928\u093f\u0915\u0928 \u092a\u094d\u0930\u091c\u093e\u0938\u0924\u094d\u0924\u093e\u0915","name:ar":"\u062c\u0645\u0647\u0648\u0631\u064a\u0629 \u0627\u0644\u062f\u0648\u0645\u064a\u0646\u064a\u0643\u0627\u0646","name:my":"\u1012\u102d\u102f\u1019\u102e\u1014\u102e\u1000\u1014\u103a\u101e\u1019\u1039\u1019\u1010\u1014\u102d\u102f\u1004\u103a\u1004\u1036","name:io":"Dominikana Republiko","name:is":"D\u00f3min\u00edska l\u00fd\u00f0veldi\u00f0","name:am":"\u12f6\u121a\u1292\u12ab\u1295 \u122a\u1350\u1265\u120a\u12ad","name:it":"Repubblica Dominicana","name:vi":"C\u1ed9ng h\u00f2a Dominica","name:ml":"\u0d21\u0d4a\u0d2e\u0d28\u0d3f\u0d15\u0d4d\u0d15\u0d7b \u0d31\u0d3f\u0d2a\u0d4d\u0d2a\u0d2c\u0d4d\u0d32\u0d3f\u0d15\u0d4d","name:rw":"Repubulika ya Dominikani","name:pl":"Dominikana","name:mk":"\u0414\u043e\u043c\u0438\u043d\u0438\u043a\u0430\u043d\u0441\u043a\u0430 \u0420\u0435\u043f\u0443\u0431\u043b\u0438\u043a\u0430","name:af":"Dominikaanse Republiek","name:fa":"\u062c\u0645\u0647\u0648\u0631\u06cc \u062f\u0648\u0645\u06cc\u0646\u06cc\u06a9\u0646","name:ss":"Tibuse weDomonokha","short_name":"R.D.","kind_detail":"2","name:hi":"\u0921\u094b\u092e\u093f\u0928\u093f\u0915\u0928 \u0917\u0923\u0930\u093e\u091c\u094d\u092f","id":-307828,"name:zh-min-nan":"Dominic Ki\u014dng-h\u00f4-kok","name:fr":"R\u00e9publique dominicaine","name:zh-yue":"\u591a\u660e\u5c3c\u52a0","name:fy":"Dominikaanske Republyk","name:vo":"Sandomin\u00e4n","name:zh":"\u591a\u660e\u5c3c\u52a0\u5171\u548c\u570b","name:hr":"Dominikanska Republika","name:sl":"Dominikanska republika","name:nl":"Dominicaanse Republiek","name:ja":"\u30c9\u30df\u30cb\u30ab\u5171\u548c\u56fd","name:nn":"Den dominikanske republikken","name:sh":"Dominikanska Republika","name:na":"Ripubrikin Dominika","name:se":"Dominik\u00e1na d\u00e1ssev\u00e1ldi","name:ne":"\u0921\u094b\u092e\u093f\u0928\u093f\u0915\u0928 \u0917\u0923\u0924\u0928\u094d\u0924\u094d\u0930","name:br":"Republik Dominikan","name:bs":"Dominikanska Republika","name:yi":"\u05d3\u05d0\u05de\u05d9\u05e0\u05d9\u05e7\u05d0\u05e0\u05d9\u05e9\u05e2 \u05e8\u05e2\u05e4\u05d5\u05d1\u05dc\u05d9\u05e7","name:bn":"\u09a1\u09cb\u09ae\u09bf\u09a8\u09bf\u0995\u09be\u09a8 \u09aa\u09cd\u09b0\u099c\u09be\u09a4\u09a8\u09cd\u09a4\u09cd\u09b0","name:bo":"\u0f4c\u0f7c\u0f0b\u0f58\u0f72\u0f0b\u0f53\u0f72\u0f0b\u0f40\u0f53\u0f0b\u0f66\u0fa4\u0fb1\u0f72\u0f0b\u0f58\u0f50\u0f74\u0f53\u0f0b\u0f62\u0f92\u0fb1\u0f63\u0f0b\u0f41\u0f56\u0f0d","name:sk":"Dominik\u00e1nska republika","name:sa":"\u0921\u094b\u092e\u094b\u0928\u093f\u0915\u0928 \u0930\u093f\u092a\u092c\u094d\u0932\u093f\u0915","name:no":"Den dominikanske republikk","name:ru":"\u0414\u043e\u043c\u0438\u043d\u0438\u043a\u0430\u043d\u0441\u043a\u0430\u044f \u0420\u0435\u0441\u043f\u0443\u0431\u043b\u0438\u043a\u0430","name:sv":"Dominikanska Republiken","name:su":"R\u00e9publik Dominika","name:bg":"\u0414\u043e\u043c\u0438\u043d\u0438\u043a\u0430\u043d\u0441\u043a\u0430 \u0440\u0435\u043f\u0443\u0431\u043b\u0438\u043a\u0430","name:an":"Republica Dominicana","name:sr":"\u0414\u043e\u043c\u0438\u043d\u0438\u043a\u0430\u043d\u0441\u043a\u0430 \u0420\u0435\u043f\u0443\u0431\u043b\u0438\u043a\u0430","osm_relation":true,"name:sq":"Republika Dominikane","name:ga":"An Phoblacht Dhoiminiceach","name:gd":"Poblachd Dhoiminicia","name:wo":"R\u00e9ewum Dominik","name:jv":"Republik Dominika","maritime_boundary":true,"name:gv":"Yn Phobblaght Ghominicagh","name:fi":"Dominikaaninen tasavalta"},"arcs":[0]},{"type":"MultiLineString","properties":{"kind":"region","name":"San Crist\u00f3bal - Peravia","sort_rank":256,"kind_detail":"4","id:right":-3421246,"source":"openstreetmap.org","min_zoom":8.0,"id:left":-3422564,"name:left":"San Crist\u00f3bal","id":-3422564,"osm_relation":true,"name:right":"Peravia"},"arcs":[[1],[2]]},{"type":"MultiLineString","properties":{"kind":"region","name":"San Crist\u00f3bal - Peravia","sort_rank":256,"kind_detail":"4","min_zoom":8.0,"id:right":-3421246,"source":"openstreetmap.org","maritime_boundary":true,"id:left":-3422564,"name:right":"Peravia","id":-3422564,"osm_relation":true,"name:left":"San Crist\u00f3bal"},"arcs":[[3],[4]]},{"type":"LineString","properties":{"kind":"region","name":"San Crist\u00f3bal - Monse\u00f1or Nouel","sort_rank":256,"kind_detail":"4","id:right":-3420315,"source":"openstreetmap.org","min_zoom":8.0,"id:left":-3422564,"name:left":"San Crist\u00f3bal","id":-3422564,"osm_relation":true,"name:right":"Monse\u00f1or Nouel"},"arcs":[5]},{"type":"MultiLineString","properties":{"kind":"region","name":"San Crist\u00f3bal","sort_rank":256,"kind_detail":"4","source":"openstreetmap.org","min_zoom":8.0,"id":-3422564,"osm_relation":true},"arcs":[[6],[7]]},{"type":"MultiLineString","properties":{"kind":"region","name":"San Crist\u00f3bal","sort_rank":256,"kind_detail":"4","min_zoom":8.0,"source":"openstreetmap.org","maritime_boundary":true,"id":-3422564,"osm_relation":true},"arcs":[[8],[9]]},{"type":"MultiLineString","properties":{"kind":"region","name":"Saman\u00e1 - Mar\u00eda Trinidad S\u00e1nchez","sort_rank":256,"kind_detail":"4","id:right":-3422241,"source":"openstreetmap.org","min_zoom":8.0,"id:left":-3422242,"name:left":"Saman\u00e1","id":-3422242,"osm_relation":true,"name:right":"Mar\u00eda Trinidad S\u00e1nchez"},"arcs":[[10],[11]]},{"type":"MultiLineString","properties":{"kind":"region","name":"Saman\u00e1 - Mar\u00eda Trinidad S\u00e1nchez","sort_rank":256,"kind_detail":"4","min_zoom":8.0,"id:right":-3422241,"source":"openstreetmap.org","maritime_boundary":true,"id:left":-3422242,"name:right":"Mar\u00eda Trinidad S\u00e1nchez","id":-3422242,"osm_relation":true,"name:left":"Saman\u00e1"},"arcs":[[12],[13]]},{"type":"MultiLineString","properties":{"kind":"region","name":"Saman\u00e1 - Duarte","sort_rank":256,"kind_detail":"4","id:right":-3420664,"source":"openstreetmap.org","min_zoom":8.0,"id:left":-3422242,"name:left":"Saman\u00e1","id":-3422242,"osm_relation":true,"name:right":"Duarte"},"arcs":[[14],[15]]},{"type":"LineString","properties":{"kind":"region","name":"Saman\u00e1 - Duarte","sort_rank":256,"kind_detail":"4","min_zoom":8.0,"id:right":-3420664,"source":"openstreetmap.org","maritime_boundary":true,"id:left":-3422242,"name:right":"Duarte","id":-3422242,"osm_relation":true,"name:left":"Saman\u00e1"},"arcs":[16]},{"type":"MultiLineString","properties":{"kind":"region","name":"Saman\u00e1","sort_rank":256,"kind_detail":"4","source":"openstreetmap.org","min_zoom":8.0,"id":-3422242,"osm_relation":true},"arcs":[[17],[18]]},{"type":"MultiLineString","properties":{"kind":"region","name":"Saman\u00e1","sort_rank":256,"kind_detail":"4","min_zoom":8.0,"source":"openstreetmap.org","maritime_boundary":true,"id":-3422242,"osm_relation":true},"arcs":[[19],[20],[21],[22],[23],[24],[25]]},{"type":"LineString","properties":{"kind":"region","name":"Mar\u00eda Trinidad S\u00e1nchez - Duarte","sort_rank":256,"kind_detail":"4","id:right":-3420664,"source":"openstreetmap.org","min_zoom":8.0,"id:left":-3422241,"name:left":"Mar\u00eda Trinidad S\u00e1nchez","id":-3422241,"osm_relation":true,"name:right":"Duarte"},"arcs":[26]},{"type":"LineString","properties":{"kind":"region","name":"Mar\u00eda Trinidad S\u00e1nchez","sort_rank":256,"kind_detail":"4","source":"openstreetmap.org","min_zoom":8.0,"id":-3422241,"osm_relation":true},"arcs":[27]},{"type":"MultiLineString","properties":{"kind":"region","name":"Mar\u00eda Trinidad S\u00e1nchez","sort_rank":256,"kind_detail":"4","min_zoom":8.0,"source":"openstreetmap.org","maritime_boundary":true,"id":-3422241,"osm_relation":true},"arcs":[[28],[29]]},{"type":"LineString","properties":{"kind":"region","name":"Peravia","sort_rank":256,"kind_detail":"4","min_zoom":8.0,"source":"openstreetmap.org","maritime_boundary":true,"id":-3421246,"osm_relation":true},"arcs":[30]},{"type":"LineString","properties":{"kind":"region","name":"S\u00e1nchez Ram\u00edrez - Duarte","sort_rank":256,"kind_detail":"4","id:right":-3420664,"source":"openstreetmap.org","min_zoom":8.0,"id:left":-3420666,"name:left":"S\u00e1nchez Ram\u00edrez","id":-3420666,"osm_relation":true,"name:right":"Duarte"},"arcs":[31]},{"type":"LineString","properties":{"kind":"region","name":"S\u00e1nchez Ram\u00edrez - Monse\u00f1or Nouel","sort_rank":256,"kind_detail":"4","id:right":-3420315,"source":"openstreetmap.org","min_zoom":8.0,"id:left":-3420666,"name:left":"S\u00e1nchez Ram\u00edrez","id":-3420666,"osm_relation":true,"name:right":"Monse\u00f1or Nouel"},"arcs":[32]},{"type":"MultiLineString","properties":{"name:left":"S\u00e1nchez Ram\u00edrez","kind":"region","name":"S\u00e1nchez Ram\u00edrez - La Vega","sort_rank":256,"kind_detail":"4","name:right:ru":"\u041b\u0430-\u0412\u0435\u0433\u0430","source":"openstreetmap.org","min_zoom":8.0,"id:left":-3420666,"id:right":-3420314,"id":-3420666,"osm_relation":true,"name:right":"La Vega"},"arcs":[[33],[34]]},{"type":"LineString","properties":{"kind":"region","name":"S\u00e1nchez Ram\u00edrez","sort_rank":256,"kind_detail":"4","source":"openstreetmap.org","min_zoom":8.0,"id":-3420666,"osm_relation":true},"arcs":[35]},{"type":"LineString","properties":{"name:left":"Duarte","kind":"region","name":"Duarte - La Vega","sort_rank":256,"kind_detail":"4","name:right:ru":"\u041b\u0430-\u0412\u0435\u0433\u0430","source":"openstreetmap.org","min_zoom":8.0,"id:left":-3420664,"id:right":-3420314,"id":-3420664,"osm_relation":true,"name:right":"La Vega"},"arcs":[36]},{"type":"LineString","properties":{"kind":"region","name":"Duarte","sort_rank":256,"kind_detail":"4","source":"openstreetmap.org","min_zoom":8.0,"id":-3420664,"osm_relation":true},"arcs":[37]},{"type":"LineString","properties":{"kind":"region","name":"Monse\u00f1or Nouel","sort_rank":256,"kind_detail":"4","source":"openstreetmap.org","min_zoom":8.0,"id":-3420315,"osm_relation":true},"arcs":[38]}]},"roads":{"type":"GeometryCollection","geometries":[{"type":"MultiLineString","properties":{"sort_rank":380,"kind_detail":"primary","min_zoom":8.0,"kind":"major_road","source":"openstreetmap.org"},"arcs":[[51],[52],[53],[54],[55],[56],[57],[58],[59],[60],[61],[62],[63],[64],[65],[66],[67],[68],[69],[70],[71],[72],[73],[74],[75],[76],[77],[78],[79],[80],[81],[82],[83],[84],[85],[86],[87],[88],[89],[90],[91],[92],[93],[94],[95],[96],[97],[98],[99],[100],[101],[102],[103],[104],[105],[106],[107]]},{"type":"MultiLineString","properties":{"sort_rank":381,"source":"openstreetmap.org","min_zoom":8.0,"kind":"major_road","kind_detail":"trunk"},"arcs":[[108],[109],[110],[111],[112]]},{"type":"MultiLineString","properties":{"source":"openstreetmap.org","kind":"major_road","landuse_kind":"residential","sort_rank":381,"kind_detail":"trunk","ref":"RD-3","min_zoom":8.0},"arcs":[[113],[114],[115],[116],[117],[118]]},{"type":"MultiLineString","properties":{"source":"openstreetmap.org","kind":"major_road","landuse_kind":"residential","sort_rank":380,"kind_detail":"primary","ref":"132","min_zoom":8.0},"arcs":[[119],[120],[121],[122]]},{"type":"MultiLineString","properties":{"source":"openstreetmap.org","kind":"highway","landuse_kind":"residential","sort_rank":383,"kind_detail":"motorway","ref":"RD-3","min_zoom":8.0},"arcs":[[123],[124],[125],[126],[127],[128],[129],[130]]},{"type":"MultiLineString","properties":{"source":"openstreetmap.org","kind":"major_road","sort_rank":381,"kind_detail":"trunk","ref":"RD-7","min_zoom":8.0},"arcs":[[131],[132],[133],[134]]},{"type":"LineString","properties":{"source":"openstreetmap.org","kind":"major_road","sort_rank":380,"kind_detail":"primary","ref":"101","min_zoom":8.0},"arcs":[135]},{"type":"LineString","properties":{"source":"openstreetmap.org","kind":"major_road","sort_rank":380,"kind_detail":"primary","ref":"RD-3","min_zoom":8.0},"arcs":[136]},{"type":"LineString","properties":{"kind":"major_road","sort_rank":381,"landuse_kind":"park","source":"openstreetmap.org","min_zoom":8.0,"kind_detail":"trunk","ref":"RD-7","id":318764280},"arcs":[137]},{"type":"MultiLineString","properties":{"source":"openstreetmap.org","kind":"major_road","landuse_kind":"residential","sort_rank":380,"kind_detail":"primary","ref":"RD-3","min_zoom":8.0},"arcs":[[138],[139],[140],[141],[142],[143],[144]]},{"type":"LineString","properties":{"source":"openstreetmap.org","kind":"major_road","sort_rank":380,"kind_detail":"primary","ref":"RD-19","min_zoom":8.0,"id":273892319},"arcs":[145]},{"type":"MultiLineString","properties":{"source":"openstreetmap.org","kind":"highway","sort_rank":383,"kind_detail":"motorway","ref":"RD-6","min_zoom":8.0},"arcs":[[146],[147]]},{"type":"MultiLineString","properties":{"source":"openstreetmap.org","kind":"highway","landuse_kind":"residential","sort_rank":383,"kind_detail":"motorway","ref":"RD-6","min_zoom":8.0},"arcs":[[148],[149],[150],[151],[152],[153],[154],[155]]},{"type":"MultiLineString","properties":{"source":"openstreetmap.org","kind":"major_road","sort_rank":380,"kind_detail":"primary","ref":"RD-23","min_zoom":8.0},"arcs":[[156],[157]]},{"type":"MultiLineString","properties":{"source":"openstreetmap.org","kind":"highway","landuse_kind":"residential","sort_rank":383,"kind_detail":"motorway","min_zoom":8.0},"arcs":[[158],[159],[160]]},{"type":"MultiLineString","properties":{"source":"openstreetmap.org","kind":"major_road","landuse_kind":"urban_area","sort_rank":380,"kind_detail":"primary","min_zoom":8.0},"arcs":[[161],[162],[163]]},{"type":"MultiLineString","properties":{"source":"openstreetmap.org","kind":"major_road","landuse_kind":"residential","sort_rank":380,"kind_detail":"primary","ref":"RD-4","min_zoom":8.0},"arcs":[[164],[165],[166],[167],[168],[169],[170]]},{"type":"MultiLineString","properties":{"source":"openstreetmap.org","kind":"major_road","sort_rank":380,"kind_detail":"primary","ref":"RD-5","min_zoom":8.0},"arcs":[[171],[172],[173],[174],[175],[176],[177],[178],[179],[180]]},{"type":"MultiLineString","properties":{"source":"openstreetmap.org","kind":"major_road","sort_rank":380,"kind_detail":"primary","ref":"RD-4","min_zoom":8.0},"arcs":[[181],[182],[183],[184],[185]]},{"type":"MultiLineString","properties":{"source":"openstreetmap.org","kind":"highway","sort_rank":383,"kind_detail":"motorway","ref":"RD-1","min_zoom":8.0},"arcs":[[186],[187],[188],[189],[190],[191],[192],[193],[194],[195],[196],[197],[198],[199]]},{"type":"LineString","properties":{"source":"openstreetmap.org","kind":"major_road","sort_rank":380,"kind_detail":"primary","ref":"66","min_zoom":8.0},"arcs":[200]},{"type":"MultiLineString","properties":{"source":"openstreetmap.org","kind":"highway","landuse_kind":"residential","sort_rank":383,"kind_detail":"motorway","ref":"RD-1","min_zoom":8.0},"arcs":[[201],[202]]},{"type":"MultiLineString","properties":{"source":"openstreetmap.org","kind":"major_road","landuse_kind":"residential","sort_rank":380,"kind_detail":"primary","ref":"RD-1","min_zoom":8.0},"arcs":[[203],[204],[205],[206],[207],[208],[209],[210],[211],[212],[213],[214],[215],[216],[217]]},{"type":"MultiLineString","properties":{"source":"openstreetmap.org","kind":"major_road","sort_rank":380,"kind_detail":"primary","ref":"RD-17","min_zoom":8.0},"arcs":[[218],[219],[220],[221],[222]]},{"type":"LineString","properties":{"source":"openstreetmap.org","kind":"ferry","name":"Saman\u00e1 - Cayo Levantado","sort_rank":355,"min_zoom":8.0,"id":325730617},"arcs":[223]},{"type":"MultiLineString","properties":{"source":"openstreetmap.org","kind":"major_road","landuse_kind":"residential","sort_rank":381,"kind_detail":"trunk","min_zoom":8.0},"arcs":[[224],[225],[226],[227],[228],[229],[230],[231],[232],[233],[234],[235],[236],[237],[238],[239],[240],[241],[242],[243]]},{"type":"MultiLineString","properties":{"source":"openstreetmap.org","kind":"major_road","landuse_kind":"residential","sort_rank":380,"kind_detail":"primary","min_zoom":8.0},"arcs":[[244],[245],[246],[247],[248],[249],[250],[251],[252],[253],[254],[255],[256],[257],[258],[259],[260],[261],[262],[263],[264],[265],[266],[267],[268],[269],[270],[271],[272],[273],[274],[275],[276],[277],[278],[279],[280],[281],[282],[283],[284],[285],[286],[287],[288],[289],[290],[291],[292],[293],[294],[295],[296],[297],[298],[299],[300],[301],[302],[303],[304],[305],[306],[307],[308],[309],[310],[311],[312],[313],[314],[315],[316],[317],[318],[319],[320],[321],[322],[323],[324],[325],[326],[327],[328],[329],[330],[331],[332],[333],[334],[335],[336],[337],[338],[339],[340],[341],[342],[343],[344],[345],[346],[347],[348],[349],[350],[351],[352],[353],[354],[355],[356],[357],[358],[359],[360],[361],[362],[363],[364],[365],[366],[367],[368],[369],[370],[371],[372],[373],[374],[375],[376],[377],[378],[379],[380],[381],[382],[383],[384],[385],[386],[387],[388],[389],[390],[391],[392],[393],[394],[395],[396],[397],[398],[399],[400],[401],[402],[403],[404],[405],[406],[407],[408],[409]]},{"type":"LineString","properties":{"source":"openstreetmap.org","kind":"major_road","kind_detail":"primary","sort_rank":380,"landuse_kind":"residential","ref":"RD-17","min_zoom":8.0},"arcs":[410]},{"type":"MultiLineString","properties":{"source":"openstreetmap.org","kind":"major_road","landuse_kind":"residential","sort_rank":380,"kind_detail":"primary","ref":"RD-2","min_zoom":8.0},"arcs":[[411],[412],[413],[414],[415],[416],[417],[418],[419],[420],[421]]},{"type":"MultiLineString","properties":{"sort_rank":383,"kind_detail":"motorway","min_zoom":8.0,"kind":"highway","source":"openstreetmap.org"},"arcs":[[422],[423],[424],[425],[426],[427],[428]]},{"type":"MultiLineString","properties":{"source":"openstreetmap.org","kind":"highway","landuse_kind":"residential","sort_rank":383,"kind_detail":"motorway","ref":"RD-2","min_zoom":8.0},"arcs":[[429],[430],[431]]},{"type":"LineString","properties":{"source":"openstreetmap.org","kind":"major_road","sort_rank":380,"kind_detail":"primary","ref":"104","min_zoom":8.0},"arcs":[432]},{"type":"MultiLineString","properties":{"source":"openstreetmap.org","kind":"major_road","landuse_kind":"residential","sort_rank":380,"kind_detail":"primary","is_bicycle_related":true,"min_zoom":8.0},"arcs":[[433],[434]]},{"type":"MultiLineString","properties":{"source":"openstreetmap.org","kind":"major_road","landuse_kind":"residential","sort_rank":381,"kind_detail":"trunk","ref":"RD-1","min_zoom":8.0},"arcs":[[435],[436],[437],[438],[439]]},{"type":"MultiLineString","properties":{"source":"openstreetmap.org","kind":"major_road","landuse_kind":"residential","sort_rank":381,"kind_detail":"trunk","ref":"3","min_zoom":8.0},"arcs":[[440],[441]]},{"type":"LineString","properties":{"source":"openstreetmap.org","kind":"major_road","landuse_kind":"residential","sort_rank":380,"kind_detail":"primary","ref":"101","min_zoom":8.0},"arcs":[442]},{"type":"MultiLineString","properties":{"source":"openstreetmap.org","kind":"major_road","sort_rank":380,"kind_detail":"primary","ref":"RD-2","min_zoom":8.0},"arcs":[[443],[444],[445],[446]]},{"type":"LineString","properties":{"source":"openstreetmap.org","kind":"highway","sort_rank":383,"kind_detail":"motorway","ref":"RD-2","min_zoom":8.0},"arcs":[447]},{"type":"LineString","properties":{"source":"openstreetmap.org","kind":"major_road","sort_rank":380,"kind_detail":"primary","ref":"132","min_zoom":8.0},"arcs":[448]},{"type":"MultiLineString","properties":{"source":"openstreetmap.org","kind":"highway","sort_rank":383,"kind_detail":"motorway","ref":"RD-3","min_zoom":8.0},"arcs":[[449],[450],[451],[452],[453],[454],[455],[456],[457],[458],[459],[460],[461],[462],[463],[464],[465],[466],[467],[468],[469],[470],[471],[472],[473],[474],[475],[476],[477],[478],[479]]},{"type":"LineString","properties":{"kind":"major_road","sort_rank":381,"landuse_kind":"residential","source":"openstreetmap.org","min_zoom":8.0,"kind_detail":"trunk","ref":"RD-7","id":335456084},"arcs":[480]}]},"earth":{"type":"GeometryCollection","geometries":[{"type":"MultiPolygon","properties":{"sort_rank":10,"source":"naturalearthdata.com","min_zoom":0.0,"kind":"earth","area":18842119424},"arcs":[[[481]]]}]},"landuse":{"type":"GeometryCollection","geometries":[{"type":"Polygon","properties":{"source":"openstreetmap.org","kind":"residential","area":531339008,"tier":2,"id":512332173,"min_zoom":6.0,"sort_rank":20},"arcs":[[482]]},{"type":"Polygon","properties":{"source":"openstreetmap.org","kind":"park","area":1040659968,"tier":2,"id":489653632,"min_zoom":4.0,"sort_rank":24},"arcs":[[483]]},{"type":"MultiPolygon","properties":{"source":"openstreetmap.org","kind":"park","tier":2,"area":798537138,"sort_rank":24,"min_zoom":6.0,"osm_relation":true},"arcs":[[[484]]]},{"type":"MultiPolygon","properties":{"source":"openstreetmap.org","kind":"nature_reserve","tier":2,"area":71764880,"sort_rank":23,"min_zoom":8.0},"arcs":[[[485]]]},{"type":"MultiPolygon","properties":{"source":"naturalearthdata.com","kind":"urban_area","name":"","area":325068097,"sort_rank":11,"min_zoom":4.0},"arcs":[[[486]],[[487]]]},{"type":"MultiPolygon","properties":{"source":"openstreetmap.org","kind":"residential","tier":2,"area":180728852,"sort_rank":20,"min_zoom":8.0},"arcs":[[[488]],[[489]],[[490]],[[491]],[[492]],[[493]],[[494]]]},{"type":"Polygon","properties":{"kind":"park","area":1040659968,"sort_rank":24,"source":"openstreetmap.org","min_zoom":4.0,"tier":2,"id":-3569102,"osm_relation":true},"arcs":[[495]]}]}},"type":"Topology","transform":{"translate":[-70.3125,17.9787330956],"scale":[0.0003433228,0.0003252955]},"arcs":[[[330,0],[253,136],[2022,-136]],[[0,1583],[71,-56],[5,-66],[20,17],[48,-13],[2,-77],[54,-29],[-56,-57],[-44,6],[-28,-63],[13,-16],[24,19],[14,-81],[55,25],[68,-158],[46,-26],[18,-68],[59,-28]],[[371,898],[-13,-70]],[[358,828],[5,-60]],[[369,912],[2,-14]],[[186,2548],[-158,-97],[23,-73],[-51,-81]],[[846,1332],[58,108],[-39,41],[6,49],[-44,-47],[-57,49],[-50,-40],[3,49],[-27,4],[28,30],[-26,77],[-56,58],[-15,-34],[-80,7],[17,47],[-41,55],[14,19],[-27,2],[-45,87],[20,42],[-13,62],[72,7],[-37,11],[-16,59],[-33,22],[-8,115],[-51,68],[34,46],[-97,94],[-59,4],[-91,125]],[[374,776],[24,10]],[[363,768],[11,8]],[[398,786],[22,7],[22,-29],[33,23],[118,192],[83,64],[170,289]],[[1576,4002],[-1,-4]],[[1641,3879],[-3,-52]],[[1575,3998],[34,-26],[-3,-40],[45,14],[-10,-67]],[[1643,4017],[5,-28],[-72,13]],[[1638,3827],[194,-14],[44,-42]],[[1874,3734],[-18,-68],[-38,-25],[-31,14],[-6,-33],[-26,6],[12,-27],[-47,-32],[-33,9],[-9,42],[-35,-18],[79,-119],[3,-27],[-39,-24]],[[1876,3771],[55,-12],[-57,-25]],[[1686,3432],[78,-45],[39,-125],[202,-146],[33,150]],[[2032,3390],[-26,3]],[[2147,4096],[-51,-45],[-175,-5],[-159,-49],[-119,20]],[[2006,3393],[-45,50],[22,15],[-17,104],[34,163],[-15,1],[-4,6],[26,18],[-10,58],[0,-35],[-12,18],[13,28],[22,16],[187,-45],[241,-12],[116,-53],[47,9],[26,-28],[14,34],[180,-7],[21,29],[161,-56],[168,-4],[32,154],[136,100],[40,103],[-60,16],[-50,-37],[-57,18],[-77,-38],[-63,26],[24,52]],[[2038,3266],[25,118],[-31,6]],[[2695,4096],[-23,0]],[[2707,4096],[-1,0]],[[2714,4096],[-2,0]],[[2909,4096],[-50,-85],[-67,60],[-61,-1],[-14,26]],[[857,4096],[5,-114],[150,-7],[71,-62],[56,27],[21,-46],[44,-1],[26,-35],[92,16],[102,-29],[125,-85],[25,52],[64,15]],[[1582,4051],[-22,16]],[[1560,4067],[-33,29]],[[1643,4017],[-61,34]],[[0,765],[99,32],[123,-49],[91,42],[-10,21],[11,-10],[0,-18],[49,-15]],[[1191,3291],[-20,14],[45,135],[-93,28],[-24,54],[-49,6],[18,-87],[-124,5],[10,-54],[-33,-28],[-126,89],[-10,101],[-128,60],[-40,-13],[-14,31],[-68,-6],[-3,-28],[-21,6],[17,25],[-14,13],[-27,-28],[-77,-8],[0,38],[-35,2],[-48,-42],[-12,16],[-12,-45],[-56,24],[-7,29],[-71,-2],[1,20],[-37,-17],[-11,21],[-34,-30]],[[0,3007],[62,-78],[103,-4],[-5,-65],[58,-23],[8,-42],[39,-22],[-31,-96],[-39,-26]],[[0,3608],[0,-4]],[[88,3620],[27,-29],[-50,8],[-5,-24],[-60,36]],[[195,2651],[65,16],[94,89],[24,-24],[82,20],[104,-27],[5,72],[26,7],[44,-21],[44,22],[53,-39],[65,46],[23,-25],[40,94],[36,-23],[15,-62],[115,31],[107,214],[-26,135],[80,115]],[[0,3683],[88,-63]],[[1191,3291],[98,-15],[-19,127],[32,12],[36,-38],[81,26],[61,-19],[85,67],[121,-19]],[[186,2548],[9,103]],[[1003,1537],[177,9],[91,87],[53,-13]],[[1122,1451],[53,37],[-24,186],[46,80]],[[1003,1537],[177,9],[91,87],[53,-13]],[[1122,1451],[53,37],[-24,186],[46,80]],[[4096,1313],[0,-1313],[-4096,0],[0,797],[125,0],[55,-11],[51,-32],[36,20],[54,9],[71,2],[18,-8],[40,34],[71,82],[98,92],[12,34],[15,23],[67,35],[15,25],[20,92],[49,78],[65,58],[37,19],[30,15],[78,26],[28,14],[76,51],[91,44],[47,14],[13,1],[81,4],[449,-50],[21,-7],[24,-22],[49,-84],[16,-11],[38,-7],[40,0],[27,8],[8,28],[-6,35],[-1,35],[18,28],[43,-5],[65,-34],[159,-111],[60,1],[113,42],[378,30],[61,56],[59,-35],[57,4],[57,20],[57,11],[64,-16],[84,-72],[50,-17],[58,-9],[128,-44],[55,-10],[212,10],[141,58],[122,-17],[47,-20]],[[4096,4096],[0,-886],[-36,13],[-61,13],[-104,5],[-12,0],[-9,-13],[-31,-32],[-25,-9],[-26,0],[-11,-6],[23,-25],[-34,-24],[-71,-33],[-35,-29],[-19,33],[-38,17],[-44,13],[-40,23],[-61,100],[-45,41],[-53,-15],[1,-30],[36,-21],[18,-23],[-55,-31],[-46,-3],[-112,30],[-270,73],[-100,13],[-50,13],[-49,37],[-40,95],[-52,38],[-45,8],[-156,-8],[0,-21],[32,-4],[28,-11],[24,-14],[17,-15],[-72,-8],[-137,53],[-69,-22],[-56,20],[-160,-24],[-37,26],[-27,20],[-9,47],[21,125],[10,146],[16,41],[42,11],[371,-46],[108,-53],[59,-17],[250,19],[229,-42],[64,15],[51,37],[34,50],[12,56],[26,53],[53,48],[38,53],[-18,67],[-52,-27],[-64,-16],[-66,-1],[-58,22],[17,35],[975,0]],[[2872,4096],[-27,-55],[-49,36],[-46,19],[122,0]],[[2082,4096],[-34,-7],[-131,-6],[-58,-9],[-113,-44],[-59,-10],[-100,41],[-11,11],[-25,24],[531,0]],[[4096,3210],[-36,13],[-61,13],[-104,5],[-12,0],[-9,-13],[-31,-32],[-25,-9],[-26,0],[-11,-6],[23,-25],[-34,-24],[-71,-33],[-35,-29],[-19,33],[-38,17],[-44,13],[-40,23],[-61,100],[-45,41],[-53,-15],[1,-30],[36,-21],[18,-23],[-55,-31],[-46,-3],[-112,30],[-270,73],[-100,13],[-50,13],[-49,37],[-40,95],[-52,38],[-45,8],[-156,-8],[0,-21],[32,-4],[28,-11],[24,-14],[17,-15],[-72,-8],[-137,53],[-69,-22],[-56,20],[-160,-24],[-37,26],[-27,20],[-9,47],[21,125],[10,146],[16,41],[42,11],[371,-46],[108,-53],[59,-17],[250,19],[229,-42],[64,15],[51,37],[34,50],[12,56],[26,53],[53,48],[38,53],[-18,67],[-52,-27],[-64,-16],[-66,-1],[-58,22],[17,35]],[[2872,4096],[-27,-55],[-49,36],[-46,19]],[[2082,4096],[-34,-7],[-131,-6],[-58,-9],[-113,-44],[-59,-10],[-100,41],[-11,11],[-25,24]],[[0,797],[125,0],[55,-11],[51,-32],[36,20],[54,9],[71,2],[18,-8],[40,34],[71,82],[98,92],[12,34],[15,23],[67,35],[15,25],[20,92],[49,78],[65,58],[37,19],[30,15],[78,26],[28,14],[76,51],[91,44],[47,14],[13,1],[81,4],[449,-50],[21,-7],[24,-22],[49,-84],[16,-11],[38,-7],[40,0],[27,8],[8,28],[-6,35],[-1,35],[18,28],[43,-5],[65,-34],[159,-111],[60,1],[113,42],[378,30],[61,56],[59,-35],[57,4],[57,20],[57,11],[64,-16],[84,-72],[50,-17],[58,-9],[128,-44],[55,-10],[212,10],[141,58],[122,-17],[47,-20]],[[91,4082],[-91,-21]],[[67,3986],[-43,-46]],[[425,2887],[2,0]],[[1073,1404]],[[1073,1404]],[[1128,1437],[0,-1]],[[1272,1512],[1,-14],[87,7]],[[1351,1506],[-67,5]],[[1533,2562],[6,-4]],[[1827,1451],[11,-11]],[[1841,1440],[8,9]],[[1842,1390],[2,-6]],[[1923,1445],[-3,0]],[[1920,1445],[-1,0]],[[1919,1445],[-5,1]],[[1914,1445],[5,0]],[[1919,1445],[1,0]],[[1920,1445],[2,0]],[[1919,1445]],[[1919,1445]],[[1919,1445],[13,-61]],[[1933,1385],[-13,60]],[[1920,1445]],[[1920,1445]],[[1933,1385],[-1,-1],[1,-1],[0,1]],[[1933,1384],[0,1]],[[1958,1390],[-25,-6]],[[1933,1384],[25,6]],[[2809,1597],[12,-6]],[[2821,1591],[-6,9]],[[2851,1464],[10,-4]],[[2871,1460],[-10,0]],[[2861,1460],[10,-1]],[[3086,1469],[-51,1]],[[3687,1428],[-9,-1]],[[3678,1427],[9,1]],[[3681,2425],[-1,0]],[[3726,2393],[3,-3]],[[3849,1359],[48,-15]],[[3897,1344],[-48,15]],[[3922,1354],[-8,-3]],[[3914,1351],[-3,-1]],[[3911,1350],[-14,-6]],[[3911,1349],[0,1]],[[3911,1350],[-1,7]],[[3914,1357],[0,-6]],[[3914,1351],[0,-1]],[[3922,1354],[12,2]],[[3933,1356],[-11,-2]],[[3972,1378],[-36,-21]],[[3936,1357],[36,21]],[[3998,1434],[-26,-56]],[[2833,3765],[-1,1],[0,-1],[1,0]],[[2837,3764],[-1,0],[0,-1],[1,1]],[[2841,3762],[-1,1],[0,-1],[1,0]],[[2873,3761],[2,-2],[2,2],[-2,1],[-2,-1]],[[3709,2427]],[[539,1418],[-1,5]],[[1582,1869],[0,2]],[[1640,1685],[-6,10]],[[2399,1330],[325,69]],[[2709,1401],[-292,-64]],[[1047,1466],[-32,-14]],[[1015,1451],[9,4],[13,5],[10,6]],[[1265,1560],[-25,2],[-82,-34],[-106,-59]],[[1053,1469],[88,44]],[[1141,1513],[123,46]],[[1141,1513],[3,4]],[[150,4063],[-17,33]],[[197,4021],[10,-21]],[[207,4000],[-9,21]],[[207,4000],[4,-3]],[[1264,1559],[111,-13],[56,-47]],[[1431,1499],[-56,47],[-110,14]],[[1501,1494],[217,-18]],[[1827,1453],[-4,1]],[[3734,1492]],[[3734,1491],[1,2]],[[3755,1494],[42,-9]],[[3797,1485],[-41,9]],[[1394,3479],[4,231],[26,68],[83,63],[40,82]],[[1582,1871],[0,65],[79,181],[-69,257],[79,100],[-11,50],[23,65],[-21,52],[49,110],[-58,75],[34,67],[-10,46],[-83,90],[-135,75],[-53,179]],[[1634,1695],[-43,82],[-9,92]],[[1706,1561],[-66,124]],[[3911,1430],[-96,174],[-31,4],[-4,107],[101,152],[49,9],[-25,242],[58,101]],[[3670,1425],[8,2]],[[1406,3283],[-12,196]],[[913,1610],[21,-127]],[[934,1483],[-20,127]],[[1030,1458],[-45,-7]],[[1069,1475],[-32,-14]],[[1138,1512],[-53,-30]],[[1234,1562],[-81,-37]],[[1181,1527],[58,34]],[[0,3907],[24,33]],[[637,1394],[90,8]],[[728,1401],[-91,-7]],[[637,1394],[-15,-1]],[[622,1393],[-46,-4],[-4,-1],[-74,-94]],[[502,1296],[70,91],[4,2],[46,4]],[[622,1393],[15,1]],[[727,1402],[153,12]],[[880,1414],[4,1],[82,49]],[[966,1464],[-35,-18],[-47,-31],[-4,-1]],[[880,1414],[-20,-4],[-132,-9]],[[1509,2592],[24,-30]],[[1539,2558],[65,-133],[129,32],[70,-42],[110,-6],[58,-33],[23,-76],[-17,-204],[-45,-90],[-104,-93],[-34,-119],[-135,-111]],[[711,1801],[-24,-81],[44,-70],[36,-134],[-10,-75],[36,-71],[-4,20]],[[787,1391],[-30,50],[11,75],[-36,134],[-1,1],[-43,68],[0,1],[23,81]],[[1265,1560],[8,-2]],[[2871,1459],[28,6]],[[2899,1466],[-28,-6]],[[3035,1470],[-49,0]],[[1635,1689],[-188,15],[-33,-26],[-1,-1]],[[1413,1677],[-22,-15],[-57,-40]],[[1334,1622],[-7,-4]],[[1327,1618],[1,0],[6,4]],[[1334,1622],[33,25],[46,30]],[[1413,1677],[2,1]],[[2934,1488],[3,84]],[[2823,3769],[-36,24],[-81,-49],[-184,16],[-173,63],[-44,-14],[-278,48],[-220,66],[-252,-8],[-27,45],[18,95],[-27,41]],[[2823,3769],[9,-4]],[[2832,3766],[-9,3]],[[2833,3765],[3,-1]],[[2836,3764],[-3,1]],[[2836,3763],[4,-1]],[[2841,3763],[-4,1]],[[2874,3761],[-33,2]],[[2841,3762],[32,-1]],[[2878,3762],[-2,0]],[[2810,1597],[-210,-63],[-132,26],[-195,-36],[-82,6],[-236,125],[-102,25],[-95,-37],[-123,46]],[[3709,2427],[-575,20],[-47,-33],[40,-56],[-77,-173],[12,-290],[-89,-117],[-36,-206]],[[3681,2425],[28,2]],[[3709,2427],[17,-34]],[[4096,2124],[-93,36],[-199,231],[-75,-1],[-20,37]],[[0,2656],[127,-163],[73,-48],[38,-170],[14,-5]],[[252,2270],[62,-25]],[[314,2245],[21,-8],[19,-21],[52,-41]],[[406,2175],[5,-3],[0,-1]],[[411,2171],[15,-98],[-3,-66],[62,-107],[121,-70],[28,-12]],[[634,1818],[21,-8]],[[655,1810],[7,-3],[37,-10]],[[700,1797],[-38,10],[-7,3]],[[655,1810],[-17,6],[-4,2]],[[634,1818],[-192,158],[-30,194],[-1,1]],[[411,2171],[-5,4]],[[406,2175],[-69,61],[-2,2],[-21,7]],[[314,2245],[-62,23],[0,2]],[[252,2270],[-21,95],[0,1],[-31,79],[-72,47],[-73,117],[-18,21],[-37,27]],[[1838,1440],[4,-50],[-1,50]],[[699,1797],[17,-4]],[[716,1793],[-16,4]],[[1028,1543],[-16,-3]],[[1013,1539],[15,4]],[[1052,1548],[-19,-4]],[[1034,1544],[19,3]],[[1067,1549],[-10,-1]],[[1063,1548],[29,5]],[[1096,1552],[-10,3],[-14,-5]],[[1083,1554],[-6,-3]],[[1124,1549],[-24,2]],[[1102,1550],[22,-1]],[[1148,1548],[-17,1]],[[1132,1548],[16,-1]],[[1154,1547],[13,-1]],[[1171,1546],[-17,1]],[[1178,1545],[7,-2]],[[0,2689],[19,80],[93,81]],[[99,2851],[13,-1]],[[112,2850],[84,-13],[229,50]],[[427,2887],[40,-5],[65,85],[11,56],[-4,62],[-63,88],[1,69]],[[583,3750],[55,-142]],[[2856,3762],[158,-112]],[[511,1401],[0,-2]],[[541,1397],[-2,21]],[[542,1397],[1,-13]],[[554,1386],[-11,-2]],[[543,1374],[0,10]],[[873,1708],[-2,1]],[[880,1671]],[[881,1666],[-1,0]],[[1000,1538],[4,0]],[[1004,1538],[-4,0]],[[1003,1538],[-2,0]],[[1004,1537],[1,0]],[[1008,1539],[-4,-1]],[[1006,1538],[5,1]],[[1180,1545],[1,1]],[[1181,1546],[5,3],[15,31]],[[1201,1580],[-12,-19],[-3,-11],[-5,-4]],[[1181,1546],[-1,0]],[[1240,1561],[25,-1]],[[1663,1490],[-6,65]],[[145,4030],[-78,-44]],[[100,4084],[-9,-2]],[[142,4096],[9,-14],[18,-24]],[[169,4058],[4,-6]],[[173,4052],[24,-30]],[[197,4022],[0,-1]],[[176,4054],[-34,42]],[[145,4030],[17,-5],[15,13]],[[145,4030],[5,3]],[[159,4050],[-14,-20]],[[150,4034],[15,12]],[[151,4035],[-1,-1]],[[163,4026],[-13,8]],[[164,4054],[-3,-3]],[[161,4051],[-2,-1]],[[165,4046],[-4,5]],[[161,4051],[-11,12],[9,-13]],[[165,4055],[-1,-1]],[[164,4054],[5,-6]],[[169,4048],[1,-1],[6,-7]],[[165,4046],[4,2]],[[169,4048],[0,1]],[[169,4049],[4,3]],[[173,4052],[3,2]],[[171,4060],[-2,-2]],[[169,4058],[-4,-3]],[[176,4040],[-5,7],[-2,2]],[[169,4049],[-4,6]],[[176,4040],[2,-3],[19,-15]],[[197,4022],[1,-1],[-22,33]],[[463,3319],[-4,8]],[[571,1370],[1,0]],[[572,1370]],[[572,1369]],[[572,1369]],[[574,1363],[-2,6]],[[572,1369],[0,1]],[[572,1370],[-1,2],[-2,2],[-15,12],[20,-23]],[[574,1363],[14,-19]],[[577,1341],[3,-5],[16,11]],[[733,1651],[-3,-1]],[[912,1618],[1,-8]],[[914,1610],[0,2],[-1,6]],[[934,1483],[46,-35]],[[980,1451],[-46,32]],[[981,1446],[-39,-58],[-3,-9],[3,-7]],[[942,1372],[42,72]],[[1005,1538],[-22,-86]],[[985,1445],[45,12]],[[985,1451],[20,87]],[[985,1451],[-5,0]],[[980,1451],[2,-7],[3,2],[0,5]],[[1022,1454]],[[1023,1455],[0,-1]],[[1024,1625],[19,20],[5,11],[-8,62],[32,49],[78,-21],[26,1],[23,-5],[3,0],[99,-7]],[[1301,1735],[16,-1],[16,-8]],[[1333,1726],[2,-1],[11,-9],[44,-52],[29,-92],[-14,-63],[-54,-3]],[[1037,1460],[6,3]],[[1043,1463]],[[1043,1463],[26,12]],[[1405,1511],[14,61],[-26,87],[-3,5],[-44,53],[-11,8],[-2,1]],[[1333,1726],[-32,9]],[[1301,1735],[-48,14],[-181,18],[-32,-48],[2,-74]],[[1067,1546],[1,-4],[7,-14],[21,-40],[1,-1]],[[1097,1487],[10,-12],[18,-29]],[[1125,1446],[-17,29],[-5,6],[-6,6],[0,1]],[[1097,1488],[-29,58]],[[1073,1404],[-4,15],[-1,3],[-4,7],[-6,6],[-15,28]],[[1043,1463],[0,1],[-24,78],[23,-78],[1,-1]],[[1043,1463],[14,-28],[11,-13],[5,-18]],[[1086,1481],[11,6]],[[1097,1487],[0,1]],[[1097,1488],[17,8],[19,11],[5,4]],[[1126,1444],[2,-7]],[[1128,1438],[-2,6]],[[1139,1575],[-3,45]],[[1145,1518],[7,6]],[[1153,1525],[10,1]],[[1163,1526]],[[1163,1526],[18,1]],[[1156,1628],[6,-98],[0,-1],[1,-3]],[[1163,1526],[1,-1]],[[1164,1525],[17,-48]],[[1181,1477],[0,-1]],[[1182,1476],[-1,1]],[[1181,1477],[-12,25],[-5,23]],[[1164,1525],[-1,1]],[[1163,1526],[0,3],[0,1],[-6,98]],[[1185,1543],[2,0]],[[1345,1568],[-17,50],[-37,16],[-20,-3]],[[1271,1631],[-19,-14],[-45,-32],[-6,-5]],[[1201,1580],[15,11],[54,39],[0,1],[1,0]],[[1271,1631],[20,2],[36,-15],[17,-50]],[[1219,1494],[-2,-2]],[[1221,1495],[-2,-1]],[[1219,1494],[0,-1],[1,0],[-1,1]],[[1240,1562],[-6,0]],[[1243,1547],[0,14]],[[1249,1557],[0,1]],[[1249,1558],[-3,7]],[[1248,1565],[1,-7]],[[1249,1558],[0,-1]],[[1264,1559],[24,-2]],[[1288,1557],[45,-5]],[[1400,1517],[-52,41],[-12,-2],[-35,2]],[[1301,1558]],[[1301,1558],[-13,1]],[[1288,1559],[-23,1]],[[1267,1558],[5,-46]],[[1284,1511],[-16,47]],[[1289,1561],[-18,70]],[[1271,1631]],[[1271,1631],[-1,2]],[[1288,1557]],[[1288,1557],[0,1]],[[1289,1561],[-1,-2]],[[1288,1559],[0,-1]],[[1302,1560],[-1,-2]],[[1301,1558],[0,-2]],[[1301,1556],[0,2]],[[1301,1558],[1,2]],[[1302,1560],[1,25]],[[1343,1631]],[[1349,1567],[2,-7]],[[1351,1560],[-2,7]],[[1350,1636],[0,-1]],[[1351,1636]],[[1352,1636],[0,1]],[[1360,1505],[45,4]],[[1363,1645],[-1,0]],[[1367,1647]],[[1374,1651]],[[1377,1653]],[[1383,1656]],[[1398,1649]],[[1402,1641]],[[1404,1637]],[[1408,1629],[0,1]],[[1410,1626]],[[1411,1624]],[[1415,1616]],[[1420,1606]],[[1423,1590],[0,-1]],[[2904,1480],[-5,-14]],[[2899,1465],[5,14]],[[2974,1471],[-24,25],[-45,-15]],[[2905,1480],[39,9]],[[2933,1480],[11,9]],[[2934,1463],[52,7]],[[2944,1489],[30,-18]],[[3687,1428],[1,1]],[[3688,1429],[-1,-1]],[[3840,1395],[-152,34]],[[3840,1395],[13,-1]],[[3846,1394],[-6,1]],[[3853,1394],[-7,0]],[[3846,1394],[3,-35]],[[3849,1359],[-2,35]],[[3853,1394],[59,7]],[[3910,1357],[-2,39]],[[3913,1397],[1,-40]],[[3936,1357],[-3,-1]],[[3934,1356],[2,1]],[[599,1347],[-1,1],[-1,-1],[1,-1],[1,1]],[[1126,1446],[-2,-1],[1,-1],[2,1],[-1,1]],[[2904,1480],[0,-1],[1,0],[0,1],[-1,0]],[[477,3242],[-14,77]],[[595,1349],[-89,-48]],[[649,1371],[-49,-23]],[[828,1387],[-95,-11]],[[1058,1399],[-113,-29]],[[946,1370],[99,26]],[[1137,1453],[-63,-49]],[[1075,1405],[62,48]],[[1137,1453],[82,40]],[[1220,1494],[34,30]],[[1249,1557],[5,-33]],[[1254,1524],[-5,33]],[[0,2657],[5,-3]],[[6,2654],[-6,3]],[[16,2649],[-1,0]],[[141,2480],[1,0]],[[1110,1888],[-292,-1],[-73,-30],[-34,-56]],[[711,1801],[34,55],[73,31],[221,-11],[70,12]],[[2827,1555],[0,3]],[[498,1294],[-12,-23]],[[487,1269],[15,27]],[[945,1370],[-56,23],[-61,-6],[118,-17]],[[4096,3049],[-70,15],[-200,-61],[-131,84]],[[1042,1645],[-18,-20]],[[1405,1509],[0,2]],[[716,1793],[150,-81],[20,-76],[114,-98]],[[1000,1538],[-113,97],[-8,49],[-13,28],[-150,81]],[[1004,1538],[2,0]],[[1180,1546],[-86,7],[-16,-1],[-34,-5],[-40,-9]],[[1011,1539],[169,6]],[[1052,1469],[-5,-3]],[[1047,1466],[6,3]],[[3913,1397],[-2,33]],[[78,858],[-52,18],[-26,40]],[[733,1376],[-84,-5]],[[1045,1396],[28,7],[2,2]],[[1074,1404],[-16,-5]],[[486,1271],[-85,-160],[-16,-35],[-60,-136],[-3,-8],[-244,-74],[54,0],[190,74],[165,337]],[[211,3997],[54,-36],[152,-22],[122,-110],[59,-101],[61,82],[189,-26],[150,-59],[101,11],[53,182],[73,22],[-22,44],[29,112]],[[1431,1499],[70,-5]],[[1823,1454],[-13,4],[-55,11]],[[1755,1469],[-34,6],[-1,1],[-284,20],[-5,3]],[[1718,1476],[37,-7]],[[1755,1469],[55,-12],[17,-6],[95,-6],[72,7],[68,11],[166,-136],[64,-18],[2,1]],[[2294,1310],[19,3]],[[2313,1313],[92,19],[178,98],[83,0],[108,-43],[78,74],[-1,1]],[[2851,1462],[0,5]],[[2851,1467],[-3,33],[-21,55]],[[3734,1492],[-69,-67]],[[3665,1425],[-1,-1],[-80,7]],[[3584,1431],[-39,3],[-122,21],[-50,-14]],[[3373,1441],[-22,5]],[[3351,1446],[-111,29],[-8,3],[-25,1]],[[3207,1479],[-122,1],[-21,30]],[[3064,1510],[-27,39],[-97,60],[-92,-1],[-16,-6],[-6,-45],[19,-51],[6,-39]],[[2851,1467],[1,-5],[-1,0]],[[2851,1462],[-77,-75],[-106,43],[-85,0],[-178,-97],[-92,-20]],[[2313,1313],[-19,-4],[0,1]],[[2294,1310],[-65,17],[-76,82],[-92,54],[-234,-10]],[[2827,1558],[5,43],[108,7],[97,-60],[27,-38]],[[3064,1510],[20,-28],[123,-3]],[[3207,1479],[24,-1],[9,-3],[111,-29]],[[3351,1446],[22,-5]],[[3373,1441],[3,-1],[47,15],[122,-22],[39,-2]],[[3584,1431],[81,-6]],[[3665,1425],[5,0],[64,66]],[[3756,1494],[-17,3],[-5,-5]],[[3735,1493],[20,1]],[[4096,1425],[-97,5],[-202,55]],[[3797,1485],[182,-52],[20,-3],[97,-6]],[[1712,1479],[-6,82]],[[4096,3210],[0,-1897],[-47,20],[-122,17],[-141,-58],[-212,-10],[-55,10],[-128,44],[-58,9],[-50,17],[-84,72],[-64,16],[-57,-11],[-57,-20],[-57,-4],[-59,35],[-61,-56],[-378,-30],[-113,-42],[-60,-1],[-159,111],[-65,34],[-43,5],[-18,-28],[1,-35],[6,-35],[-8,-28],[-27,-8],[-40,0],[-38,7],[-16,11],[-49,84],[-24,22],[-21,7],[-449,50],[-81,-4],[-13,-1],[-47,-14],[-91,-44],[-76,-51],[-28,-14],[-78,-26],[-30,-15],[-37,-19],[-65,-58],[-49,-78],[-20,-92],[-15,-25],[-67,-35],[-15,-23],[-12,-34],[-98,-92],[-71,-82],[-40,-34],[-18,8],[-71,-2],[-54,-9],[-36,-20],[-51,32],[-55,11],[-125,0],[0,3299],[1551,0],[25,-24],[11,-11],[100,-41],[59,10],[113,44],[58,9],[131,6],[34,7],[668,0],[46,-19],[49,-36],[27,55],[249,0],[-17,-35],[58,-22],[66,1],[64,16],[52,27],[18,-67],[-38,-53],[-53,-48],[-26,-53],[-12,-56],[-34,-50],[-51,-37],[-64,-15],[-229,42],[-250,-19],[-59,17],[-108,53],[-371,46],[-42,-11],[-16,-41],[-10,-146],[-21,-125],[9,-47],[27,-20],[37,-26],[160,24],[56,-20],[69,22],[137,-53],[72,8],[-17,15],[-24,14],[-28,11],[-32,4],[0,21],[156,8],[45,-8],[52,-38],[40,-95],[49,-37],[50,-13],[100,-13],[270,-73],[112,-30],[46,3],[55,31],[-18,23],[-36,21],[-1,30],[53,15],[45,-41],[61,-100],[40,-23],[44,-13],[38,-17],[19,-33],[35,29],[71,33],[34,24],[-23,25],[11,6],[26,0],[25,9],[31,32],[9,13],[12,0],[104,-5],[61,-13],[36,-13]],[[666,1696],[10,93],[56,19],[371,21],[477,-38],[125,-229],[47,-24],[-19,-63],[-477,38],[-181,-108],[-140,-43],[-42,10],[-128,-154],[-99,478]],[[789,3500],[35,35],[58,3],[288,-36],[92,13],[151,-41],[103,22],[134,-54],[186,-10],[91,20],[85,-75],[174,28],[234,-16],[160,68],[102,-39],[-28,-95],[16,-313],[-136,-224],[-404,14],[-507,385],[-251,113],[-312,-79],[-1,106],[-59,55],[-202,22],[-9,98]],[[1520,3691],[121,163],[95,50],[230,-47],[46,-95],[-49,-223],[34,-144],[-68,61],[-212,-14],[25,93],[37,31],[-113,8],[-138,79],[-8,38]],[[1077,4096],[24,-38],[-52,-16],[-52,-1],[-80,53],[-53,-6],[2,8],[211,0]],[[3030,1518],[10,-93],[-76,-10],[-59,35],[-40,-35],[10,83],[57,49],[71,16],[27,-45]],[[1444,1698],[2,-192],[-197,7],[-387,-183],[-50,-45],[-42,41],[-20,46],[119,78],[-65,205],[-64,0],[0,68],[69,32],[222,-66],[44,86],[125,27],[219,-44],[25,-60]],[[4096,1359],[0,-68],[-8,-2],[-22,1],[5,20],[-96,4],[-13,24],[63,4],[-2,17],[-25,-11],[3,31],[95,-20]],[[448,1315],[50,32],[-11,37],[38,37],[119,-29],[19,-79],[-175,-45],[-40,47]],[[418,3307],[0,24],[80,25],[31,-53],[-5,-45],[-41,-23],[-65,72]],[[53,3992],[88,54],[-70,50],[116,0],[33,-21],[-11,-95],[-90,-14],[-66,26]],[[3675,1385],[15,57],[45,14],[-1,36],[57,4],[42,-81],[26,26],[12,-27],[48,19],[18,-77],[-90,3],[-9,-27],[-15,24],[-148,29]],[[2874,1551],[0,22],[64,-2],[42,-50],[-2,32],[61,-9],[-1,-50],[-27,3],[-49,-53],[44,-32],[-93,7],[-39,132]],[[1770,1507],[58,68],[-7,-43],[74,-66],[-10,-18],[-61,5],[-54,54]],[[789,3500],[35,35],[58,3],[288,-36],[92,13],[151,-41],[103,22],[134,-54],[186,-10],[91,20],[85,-75],[174,28],[234,-16],[160,68],[102,-39],[-28,-95],[16,-313],[-136,-224],[-404,14],[-507,385],[-251,113],[-312,-79],[-1,106],[-59,55],[-202,22],[-9,98]]]}