{"objects":{"water":{"type":"GeometryCollection","geometries":[{"type":"Polygon","properties":{"source":"naturalearthdata.com","kind":"ocean","area":1576712559132672,"sort_rank":200,"min_zoom":0.0,"id":1},"arcs":[[2]]},{"type":"LineString","properties":{"source":"naturalearthdata.com","kind":"ocean","sort_rank":205,"boundary":true,"min_zoom":0.0,"id":76},"arcs":[3]},{"type":"LineString","properties":{"source":"naturalearthdata.com","kind":"ocean","sort_rank":205,"boundary":true,"min_zoom":0.0,"id":510},"arcs":[4]},{"type":"LineString","properties":{"source":"naturalearthdata.com","kind":"ocean","sort_rank":205,"boundary":true,"min_zoom":0.0,"id":511},"arcs":[5]}]},"buildings":{"type":"GeometryCollection","geometries":[]},"places":{"type":"GeometryCollection","geometries":[{"type":"Point","properties":{"name:he":"\u05d0\u05e8\u05d5\u05d1\u05d4","name:ja":"\u30a2\u30eb\u30d0","name:el":"\u0391\u03c1\u03bf\u03cd\u03bc\u03c0\u03b1","name:ar":"\u0623\u0631\u0648\u0628\u0627","name:eo":"Arubo","name:is":"Ar\u00faba","name:uk":"\u0410\u0440\u0443\u0431\u0430","name:be":"\u0410\u0440\u0443\u0431\u0430","name:ru":"\u0410\u0440\u0443\u0431\u0430","id":1770467684,"population":101484,"name:fa":"\u0622\u0631\u0648\u0628\u0627","kind":"country","name":"Aruba","min_zoom":2.0,"name:sr":"\u0410\u0440\u0443\u0431\u0430","source":"openstreetmap.org","name:eu":"Aruba uhartea","name:fy":"Ar\u00fbba","name:zh":"\u963f\u9c81\u5df4"},"coordinates":[1021,3938]},{"type":"Point","properties":{"source":"openstreetmap.org","kind":"locality","name":"Punto Fijo","kind_detail":"city","population":277017,"min_zoom":8.0,"id":792183738},"coordinates":[301,1516]},{"type":"Point","properties":{"kind":"locality","name":"Coro","kind_detail":"city","source":"openstreetmap.org","min_zoom":8.0,"name:uk":"\u041a\u043e\u0440\u043e","name:ru":"\u041a\u043e\u0440\u043e","id":4415327350,"population":211266},"coordinates":[1878,676]},{"type":"Point","properties":{"name:az":"Villem\u015ftad","name:ja":"\u30a6\u30a3\u30ec\u30e0\u30b9\u30bf\u30c3\u30c9","name:ka":"\u10d5\u10d8\u10da\u10d4\u10db\u10e1\u10e2\u10d0\u10d3\u10d8","name:mr":"\u0935\u093f\u0932\u0947\u092e\u0936\u094d\u091f\u093e\u0921","name:ko":"\ube4c\ub818\uc2a4\ud0c0\ud2b8","name:ar":"\u064a\u0644\u0645\u0633\u062a\u0627\u062f","kind":"locality","name:ur":"\u0648\u06cc\u0644\u0645\u0633\u0679\u06cc\u0688","country_capital":true,"name:th":"\u0e27\u0e34\u0e25\u0e40\u0e25\u0e21\u0e2a\u0e15\u0e31\u0e14","name:uk":"\u0412\u0456\u043b\u043b\u0435\u043c\u0441\u0442\u0430\u0434","name:be":"\u0412\u0456\u043b\u0435\u043c\u0441\u0442\u0430\u0434","name:os":"\u0412\u0438\u043b\u043b\u0435\u043c\u0441\u0442\u0430\u0434","name:ru":"\u0412\u0438\u043b\u043b\u0435\u043c\u0441\u0442\u0430\u0434","name:bg":"\u0412\u0438\u043b\u0435\u043c\u0441\u0442\u0430\u0434","name":"Willemstad","id":50033577,"population":140000,"name:el":"\u0392\u03af\u03bb\u03bb\u03b5\u03bc\u03c3\u03c4\u03b1\u03bd\u03c4","name:eo":"Vilemstado","name:lt":"Vilemstadas","kind_detail":"city","name:he":"\u05d5\u05d9\u05dc\u05de\u05e1\u05d8\u05d0\u05d3","min_zoom":8.0,"name:sr":"\u0412\u0438\u043b\u0435\u043c\u0441\u0442\u0430\u0434","source":"openstreetmap.org","name:fy":"Willemst\u00ead","name:zh":"\u5a01\u5ec9\u65af\u5854\u5fb7"},"coordinates":[4022,2770]},{"type":"Point","properties":{"admin_level":"3","name:he":"\u05d0\u05d5\u05e8\u05e0\u05d9\u05d9\u05e1\u05d8\u05d0\u05d3","name:ja":"\u30aa\u30e9\u30cb\u30a8\u30b9\u30bf\u30c3\u30c9","name:ka":"\u10dd\u10e0\u10d0\u10dc\u10d4\u10e1\u10e2\u10d0\u10d3\u10d8","name:mr":"\u0913\u0930\u093e\u0902\u091c\u0947\u0936\u094d\u091f\u093e\u0921","name:ko":"\uc624\ub791\uc608\uc2a4\ud0c0\ud2b8","name:ar":"\u0623\u0648\u0631\u0646\u062c\u0633\u062a\u0627\u062f","kind":"locality","name:ur":"\u0627\u0648\u0631\u0646\u062c\u0633\u0679\u06cc\u0688","country_capital":true,"min_zoom":8.0,"name:uk":"\u041e\u0440\u0430\u043d\u044c\u0454\u0441\u0442\u0430\u0434","name:be":"\u0410\u0440\u0430\u043d'\u0435\u0441\u0442\u0430\u0434","name:os":"\u041e\u0440\u0430\u043d\u044c\u0435\u0441\u0442\u0430\u0434","name:ru":"\u041e\u0440\u0430\u043d\u044c\u0435\u0441\u0442\u0430\u0434","name:bg":"\u041e\u0440\u0430\u043d\u0435\u0441\u0442\u0430\u0434","name":"Oranjestad","id":50031810,"population":35000,"name:el":"\u039f\u03c1\u03ac\u03bd\u03b9\u03b5\u03c3\u03c4\u03b1\u03c4","name:eo":"Oranjestado","name:lt":"Oranjestadas","kind_detail":"town","name:sr":"\u041e\u0440\u0430\u045a\u0435\u0441\u0442\u0430\u0434","source":"openstreetmap.org","name:fy":"Oranjest\u00ead","name:zh":"\u5967\u62c9\u6d85\u65af\u5854\u5fb7"},"coordinates":[806,4014]},{"type":"Point","properties":{"kind":"locality","name:nl":"Sint Nicolaas","name":"San Nicolaas","kind_detail":"town","source":"openstreetmap.org","min_zoom":8.0,"id":3815721257,"population":18000},"coordinates":[1174,3744]},{"type":"Point","properties":{"kind":"locality","name":"Boca Sint Michiel","kind_detail":"town","source":"openstreetmap.org","min_zoom":8.0,"loc_name":"Boca Sam\u00ed","id":295322113,"population":5732},"coordinates":[3830,2874]},{"type":"Point","properties":{"source":"openstreetmap.org","kind":"locality","name":"Tera Cor\u00e1","kind_detail":"town","population":4388,"min_zoom":8.0,"id":3196532180},"coordinates":[3736,3109]}]},"transit":{"type":"GeometryCollection","geometries":[]},"pois":{"type":"GeometryCollection","geometries":[]},"boundaries":{"type":"GeometryCollection","geometries":[{"type":"LineString","properties":{"name:wa":"Venezwela","name:ka":"\u10d5\u10d4\u10dc\u10d4\u10e1\u10e3\u10d4\u10da\u10d0","name:ko":"\ubca0\ub124\uc218\uc5d8\ub77c","name:cv":"\u0412\u0435\u043d\u0435\u0441\u0443\u044d\u043b\u0430","name:kk":"\u0412\u0435\u043d\u0435\u0441\u0443\u044d\u043b\u0430","name:tt":"\u0412\u0435\u043d\u0435\u0441\u0443\u044d\u043b\u0430","name:kw":"Veneswela","name:tk":"Wenesuela","name:th":"\u0e1b\u0e23\u0e30\u0e40\u0e17\u0e28\u0e40\u0e27\u0e40\u0e19\u0e0b\u0e38\u0e40\u0e2d\u0e25\u0e32","name:pa":"\u0a35\u0a48\u0a28\u0a47\u0a1c\u0a3c\u0a41\u0a0f\u0a32\u0a3e","name:os":"\u0412\u0435\u043d\u0435\u0441\u0443\u044d\u043b\u00e6","name:or":"\u0b2d\u0b47\u0b28\u0b47\u0b1c\u0b41\u0b0f\u0b32\u0b3e","name:ce":"\u0412\u0435\u043d\u0435\u0441\u0443\u044d\u043b\u0430","name:ta":"\u0bb5\u0bc6\u0ba9\u0bbf\u0b9a\u0bc1\u0bb5\u0bc7\u0bb2\u0bbe","name:tg":"\u0412\u0435\u043d\u0435\u0441\u0443\u044d\u043b\u0430","name:ca":"Vene\u00e7uela","sort_rank":262,"name:ln":"Venezwela","name:ba":"\u0412\u0435\u043d\u0435\u0441\u0443\u044d\u043b\u0430","source":"openstreetmap.org","osm_relation":true,"name:kn":"\u0cb5\u0cc6\u0ca8\u0cc6\u0c9c\u0cc1\u0cb5\u0cc6\u0cb2\u0cbe","name:dv":"\u0788\u07ac\u0782\u07ac\u0792\u07aa\u0787\u07ad\u078d\u07a7","name:lv":"Venecu\u0113la","name:lt":"Venesuela","name:uz":"Venesuela","name:he":"\u05d5\u05e0\u05e6\u05d5\u05d0\u05dc\u05d4","name:eo":"Venezuelo","name:ur":"\u0648\u06cc\u0646\u06cc\u0632\u0648\u06cc\u0644\u0627","name:la":"Venetiola","name:uk":"\u0412\u0435\u043d\u0435\u0441\u0443\u0435\u043b\u0430","name:hy":"\u054e\u0565\u0576\u0565\u057d\u0578\u0582\u0565\u056c\u0561","name:ug":"\u06cb\u06d0\u0646\u06d0\u0633\u06c7\u0626\u06d0\u0644\u0627","name:qu":"Winisuyla","name:oc":"Vene\u00e7u\u00e8la","name:el":"\u0392\u03b5\u03bd\u03b5\u03b6\u03bf\u03c5\u03ad\u03bb\u03b1","kind":"country","name":"Venezuela","min_zoom":8.0,"name:yi":"\u05d5\u05d5\u05e2\u05e0\u05e2\u05d6\u05d5\u05e2\u05dc\u05e2","name:yo":"Fenesuela","name:ay":"Win\u00efxwila","name:mt":"Vene\u017cwela","name:az":"Venesuela","name:mr":"\u0935\u094d\u0939\u0947\u0928\u0947\u091d\u0941\u090f\u0932\u093e","name:ar":"\u0641\u0646\u0632\u0648\u064a\u0644\u0627","name:my":"\u1017\u1004\u103a\u1014\u102e\u1007\u103d\u1032\u101c\u102c\u1038\u1014\u102d\u102f\u1004\u103a\u1004\u1036","name:av":"\u0412\u0435\u043d\u0435\u0441\u0443\u044d\u043b\u0430","name:is":"Venes\u00faela","name:am":"\u126c\u1294\u12dd\u12cc\u120b","name:ru":"\u0412\u0435\u043d\u0435\u0441\u0443\u044d\u043b\u0430","id":-272644,"name:ml":"\u0d35\u0d46\u0d28\u0d3f\u0d38\u0d4d\u0d35\u0d47\u0d32","name:rw":"Venezuwela","name:pl":"Wenezuela","name:mk":"\u0412\u0435\u043d\u0435\u0446\u0443\u0435\u043b\u0430","name:vo":"Venesol\u00e4n","name:fa":"\u0648\u0646\u0632\u0648\u0626\u0644\u0627","name:mn":"\u0412\u0435\u043d\u0435\u0441\u0443\u044d\u043b","kind_detail":"2","name:hi":"\u0935\u0947\u0928\u0947\u091c\u093c\u0941\u090f\u0932\u093e","name:mg":"Venezoela","name:fo":"Venesuela","name:zh-yue":"\u59d4\u5167\u745e\u62c9","name:fy":"Fenezu\u00ebla","name:zh":"\u59d4\u5167\u745e\u62c9","name:so":"Fanansuwela","name:sm":"Venesuela","name:ja":"\u30d9\u30cd\u30ba\u30a8\u30e9","name:ne":"\u092d\u0947\u0928\u0947\u091c\u0941\u090f\u0932\u093e","name:sa":"\u0935\u0947\u0928\u0947\u091c\u094d\u0935\u0947\u0932\u093e","name:bs":"Venecuela","name:bn":"\u09ad\u09c7\u09a8\u09c7\u099c\u09c1\u09af\u09bc\u09c7\u09b2\u09be","name:bo":"\u0f5d\u0f7a\u0f0b\u0f53\u0f7a\u0f0b\u0f5f\u0f74\u0f60\u0f7a\u0f0b\u0f63\u0f0d","name:be":"\u0412\u0435\u043d\u0435\u0441\u0443\u044d\u043b\u0430","name:su":"V\u00e9n\u00e9zu\u00e9la","name:bg":"\u0412\u0435\u043d\u0435\u0446\u0443\u0435\u043b\u0430","name:wo":"Benesuwela","name:sr":"\u0412\u0435\u043d\u0435\u0446\u0443\u0435\u043b\u0430","name:nv":"T\u00e1\u0142k\u00e1\u00e1\u02bc Bighan Dine\u02bc\u00e9 Bik\u00e9yah","name:ga":"Veinis\u00e9ala","name:gd":"A' Bheiniseala","name:ht":"Venezwela","name:gn":"Venesu\u00e9la","maritime_boundary":true,"name:gv":"Yn Veneswaaley","name:gu":"\u0ab5\u0ac7\u0aa8\u0ac7\u0a9d\u0ac1\u0a8f\u0ab2\u0abe"},"arcs":[0]},{"type":"LineString","properties":{"kind":"region","name":"Falc\u00f3n","sort_rank":256,"kind_detail":"4","min_zoom":8.0,"source":"openstreetmap.org","maritime_boundary":true,"id":-2269792,"osm_relation":true},"arcs":[1]}]},"roads":{"type":"GeometryCollection","geometries":[{"type":"MultiLineString","properties":{"sort_rank":380,"kind_detail":"primary","min_zoom":8.0,"kind":"major_road","source":"openstreetmap.org"},"arcs":[[6],[7],[8],[9],[10],[11],[12],[13],[14],[15],[16],[17],[18],[19],[20],[21],[22],[23],[24],[25],[26],[27],[28],[29],[30],[31],[32],[33],[34],[35],[36],[37],[38],[39],[40],[41],[42],[43],[44],[45],[46],[47],[48],[49],[50],[51],[52],[53],[54],[55],[56],[57],[58]]},{"type":"MultiLineString","properties":{"sort_rank":381,"source":"openstreetmap.org","min_zoom":8.0,"kind":"major_road","kind_detail":"trunk"},"arcs":[[59],[60],[61],[62],[63],[64]]},{"type":"MultiLineString","properties":{"kind":"major_road","network":null,"sort_rank":381,"kind_detail":"trunk","source":"openstreetmap.org","min_zoom":8.0,"shield_text":"03","ref":"T-03"},"arcs":[[65],[66],[67]]},{"type":"MultiLineString","properties":{"source":"openstreetmap.org","kind":"major_road","sort_rank":380,"kind_detail":"primary","ref":"1B","min_zoom":8.0},"arcs":[[68],[69],[70],[71],[72],[73],[74],[75],[76]]},{"type":"LineString","properties":{"kind":"major_road","int_name":"Falc\u00f3n -Zulia","network":null,"sort_rank":381,"kind_detail":"trunk","source":"openstreetmap.org","min_zoom":8.0,"shield_text":"03","ref":"T-03","id":24631997},"arcs":[77]},{"type":"MultiLineString","properties":{"source":"openstreetmap.org","kind":"major_road","sort_rank":380,"kind_detail":"primary","ref":"1A","min_zoom":8.0},"arcs":[[78],[79],[80],[81],[82],[83]]},{"type":"LineString","properties":{"source":"openstreetmap.org","kind":"ferry","name":"linea maracaibo cardon","sort_rank":355,"min_zoom":8.0,"id":116338491},"arcs":[84]},{"type":"MultiLineString","properties":{"source":"openstreetmap.org","kind":"major_road","landuse_kind":"urban_area","sort_rank":380,"kind_detail":"primary","ref":"7","min_zoom":8.0},"arcs":[[85],[86]]},{"type":"MultiLineString","properties":{"source":"openstreetmap.org","kind":"major_road","landuse_kind":"urban_area","sort_rank":380,"kind_detail":"primary","ref":"4","min_zoom":8.0},"arcs":[[87],[88],[89],[90],[91],[92],[93]]},{"type":"LineString","properties":{"kind":"major_road","sort_rank":381,"landuse_kind":"urban_area","source":"openstreetmap.org","min_zoom":8.0,"kind_detail":"trunk","ref":"T-04","id":164256499},"arcs":[94]},{"type":"MultiLineString","properties":{"source":"openstreetmap.org","kind":"highway","landuse_kind":"park","sort_rank":383,"kind_detail":"motorway","ref":"T-04","min_zoom":8.0},"arcs":[[95],[96],[97],[98]]},{"type":"MultiLineString","properties":{"source":"openstreetmap.org","kind":"major_road","kind_detail":"trunk","sort_rank":381,"landuse_kind":"urban_area","min_zoom":8.0},"arcs":[[99],[100],[101],[102],[103],[104],[105],[106],[107],[108],[109],[110],[111],[112],[113],[114],[115],[116],[117],[118],[119],[120]]},{"type":"MultiLineString","properties":{"source":"openstreetmap.org","kind":"major_road","landuse_kind":"urban_area","sort_rank":380,"kind_detail":"primary","ref":"1","min_zoom":8.0},"arcs":[[121],[122],[123]]},{"type":"MultiLineString","properties":{"source":"openstreetmap.org","kind":"major_road","sort_rank":380,"kind_detail":"primary","ref":"1","min_zoom":8.0},"arcs":[[124],[125],[126],[127],[128],[129],[130],[131],[132],[133],[134],[135],[136],[137],[138],[139],[140]]},{"type":"MultiLineString","properties":{"source":"openstreetmap.org","kind":"major_road","landuse_kind":"urban_area","sort_rank":380,"kind_detail":"primary","min_zoom":8.0},"arcs":[[141],[142],[143],[144],[145],[146],[147],[148],[149],[150],[151],[152],[153],[154],[155],[156],[157],[158],[159],[160],[161],[162],[163],[164],[165],[166],[167],[168],[169],[170],[171],[172],[173],[174],[175],[176],[177],[178],[179],[180],[181],[182],[183],[184],[185],[186],[187],[188],[189],[190],[191],[192],[193],[194],[195],[196],[197],[198],[199],[200],[201],[202],[203],[204],[205],[206],[207],[208],[209],[210],[211],[212],[213],[214],[215],[216],[217],[218],[219],[220],[221],[222],[223],[224],[225],[226],[227],[228],[229],[230],[231],[232],[233],[234],[235],[236],[237],[238],[239],[240],[241],[242],[243],[244],[245],[246],[247],[248],[249],[250],[251],[252],[253],[254],[255],[256],[257],[258],[259],[260],[261],[262],[263],[264],[265],[266],[267],[268],[269],[270],[271],[272],[273],[274],[275],[276],[277],[278],[279],[280],[281],[282],[283],[284],[285],[286],[287],[288],[289],[290],[291],[292],[293],[294],[295],[296],[297],[298],[299],[300],[301],[302],[303],[304],[305],[306],[307],[308],[309],[310],[311],[312],[313],[314],[315],[316],[317]]},{"type":"MultiLineString","properties":{"source":"openstreetmap.org","kind":"major_road","name:en":"Queen Juliana Bridge","landuse_kind":"urban_area","sort_rank":380,"kind_detail":"primary","min_zoom":8.0},"arcs":[[318],[319]]},{"type":"LineString","properties":{"source":"openstreetmap.org","kind":"major_road","landuse_kind":"urban_area","sort_rank":380,"kind_detail":"primary","ref":"Av. Jacinto Lara","min_zoom":8.0},"arcs":[320]},{"type":"MultiLineString","properties":{"kind":"major_road","network":null,"sort_rank":381,"landuse_kind":"urban_area","source":"openstreetmap.org","min_zoom":8.0,"kind_detail":"trunk","shield_text":"03","ref":"T-03"},"arcs":[[321],[322],[323]]},{"type":"MultiLineString","properties":{"source":"openstreetmap.org","kind":"major_road","sort_rank":380,"kind_detail":"primary","ref":"5","min_zoom":8.0},"arcs":[[324],[325]]},{"type":"LineString","properties":{"source":"openstreetmap.org","kind":"major_road","landuse_kind":"urban_area","sort_rank":380,"kind_detail":"primary","ref":"Av Ollarvides","min_zoom":8.0},"arcs":[326]},{"type":"MultiLineString","properties":{"source":"openstreetmap.org","cycleway_right":"lane","sort_rank":380,"kind_detail":"primary","min_zoom":8.0,"is_bicycle_related":true,"kind":"major_road"},"arcs":[[327],[328],[329],[330],[331]]},{"type":"LineString","properties":{"source":"openstreetmap.org","kind":"major_road","kind_detail":"trunk","sort_rank":381,"landuse_kind":"park","min_zoom":8.0},"arcs":[332]},{"type":"MultiLineString","properties":{"source":"openstreetmap.org","kind":"major_road","landuse_kind":"urban_area","sort_rank":380,"kind_detail":"primary","ref":"1A","min_zoom":8.0},"arcs":[[333],[334],[335],[336]]},{"type":"MultiLineString","properties":{"source":"openstreetmap.org","kind":"highway","sort_rank":383,"kind_detail":"motorway","ref":"T-04","min_zoom":8.0},"arcs":[[337],[338],[339],[340]]},{"type":"MultiLineString","properties":{"source":"openstreetmap.org","kind":"major_road","kind_detail":"trunk","sort_rank":381,"landuse_kind":"urban_area","is_bicycle_related":true,"min_zoom":8.0},"arcs":[[341],[342],[343]]},{"type":"MultiLineString","properties":{"source":"openstreetmap.org","kind":"major_road","landuse_kind":"urban_area","sort_rank":380,"kind_detail":"primary","ref":"5","min_zoom":8.0},"arcs":[[344],[345]]},{"type":"MultiLineString","properties":{"source":"openstreetmap.org","kind":"highway","landuse_kind":"urban_area","sort_rank":383,"kind_detail":"motorway","ref":"T-04","min_zoom":8.0},"arcs":[[346],[347]]},{"type":"LineString","properties":{"kind":"major_road","network":null,"sort_rank":381,"kind_detail":"trunk","source":"openstreetmap.org","min_zoom":8.0,"landuse_kind":"urban_area","shield_text":"03","id":408043106},"arcs":[348]},{"type":"LineString","properties":{"source":"openstreetmap.org","kind":"major_road","sort_rank":381,"kind_detail":"trunk","ref":"T-04","min_zoom":8.0,"id":164256499},"arcs":[349]},{"type":"LineString","properties":{"kind":"major_road","network":null,"sort_rank":381,"kind_detail":"trunk","source":"openstreetmap.org","min_zoom":8.0,"landuse_kind":"park","shield_text":"03","ref":"T-03","id":64884796},"arcs":[350]},{"type":"MultiLineString","properties":{"source":"openstreetmap.org","kind":"major_road","landuse_kind":"urban_area","sort_rank":380,"kind_detail":"primary","ref":"1B","min_zoom":8.0},"arcs":[[351],[352],[353],[354],[355],[356]]},{"type":"MultiLineString","properties":{"kind":"major_road","int_name":"Falc\u00f3n -Zulia","network":null,"sort_rank":381,"landuse_kind":"park","source":"openstreetmap.org","min_zoom":8.0,"kind_detail":"trunk","shield_text":"03","ref":"T-03"},"arcs":[[357],[358]]},{"type":"MultiLineString","properties":{"kind":"major_road","int_name":"Falc\u00f3n -Zulia","network":null,"sort_rank":381,"landuse_kind":"urban_area","source":"openstreetmap.org","min_zoom":8.0,"kind_detail":"trunk","shield_text":"03","ref":"T-03"},"arcs":[[359],[360]]},{"type":"LineString","properties":{"source":"openstreetmap.org","kind":"major_road","sort_rank":380,"kind_detail":"primary","ref":"4","min_zoom":8.0},"arcs":[361]},{"type":"LineString","properties":{"cycleway_right":"lane","sort_rank":380,"kind_detail":"primary","is_bicycle_related":true,"kind":"major_road","source":"openstreetmap.org","min_zoom":8.0,"landuse_kind":"urban_area","ref":"1"},"arcs":[362]},{"type":"LineString","properties":{"source":"openstreetmap.org","kind":"major_road","landuse_kind":"nature_reserve","sort_rank":380,"kind_detail":"primary","min_zoom":8.0,"id":26974214},"arcs":[363]},{"type":"MultiLineString","properties":{"cycleway_right":"lane","sort_rank":380,"kind_detail":"primary","is_bicycle_related":true,"kind":"major_road","source":"openstreetmap.org","min_zoom":8.0,"landuse_kind":"urban_area"},"arcs":[[364],[365]]}]},"earth":{"type":"GeometryCollection","geometries":[{"type":"MultiPolygon","properties":{"sort_rank":10,"source":"naturalearthdata.com","min_zoom":0.0,"kind":"earth","area":9911861295},"arcs":[[[366]],[[367]],[[368]]]}]},"landuse":{"type":"GeometryCollection","geometries":[{"type":"MultiPolygon","properties":{"source":"openstreetmap.org","kind":"park","tier":2,"area":47163520,"sort_rank":24,"min_zoom":8.0},"arcs":[[[369]]]},{"type":"Polygon","properties":{"kind":"park","area":788345024,"sort_rank":24,"source":"openstreetmap.org","min_zoom":6.0,"tier":2,"id":-3422309,"osm_relation":true},"arcs":[[370]]},{"type":"Polygon","properties":{"source":"openstreetmap.org","kind":"nature_reserve","area":39980800,"tier":2,"id":49274642,"min_zoom":8.0,"sort_rank":23},"arcs":[[371]]},{"type":"MultiPolygon","properties":{"source":"naturalearthdata.com","kind":"urban_area","name":"","area":427739325,"sort_rank":11,"min_zoom":4.0},"arcs":[[[372]],[[373]],[[374]],[[375]],[[376]],[[377]]]},{"type":"Polygon","properties":{"kind":"nature_reserve","natural":"scrub","area":36310600,"sort_rank":23,"source":"openstreetmap.org","min_zoom":8.0,"tier":2,"id":487088056},"arcs":[[378]]}]}},"type":"Topology","transform":{"translate":[-70.3125,11.1784018737],"scale":[0.0003433228,0.000335977]},"arcs":[[[4096,1707],[-140,19],[-363,360],[-1916,1142],[-1175,304],[-70,-45],[-432,0]],[[4096,791],[-123,18],[-110,-48],[-59,24],[-43,-21],[-91,13],[-157,159],[-28,-27],[-133,32],[-64,50],[-74,-21],[-163,89],[-52,-1],[-233,-147],[-434,64],[-118,-58],[-60,-87],[-73,-2],[-69,30],[-190,221],[-207,445],[-152,545],[-5,121],[31,83],[-44,46],[-15,119],[-42,94],[-31,19],[25,-73],[-21,-5],[-31,80],[29,1],[-17,63],[-65,81],[-71,173],[-105,88],[-108,3],[-90,66],[-60,3],[-135,-68],[-226,-195],[-148,-12],[-50,-32],[-10,-33],[27,-28],[-19,-73],[-123,-199],[3,-51],[-95,-170],[-4,-113],[-32,-50],[27,26],[30,-14],[15,-119],[51,-5],[0,-59],[26,-16],[34,-99],[21,17],[-18,44],[33,12],[37,-11],[27,-55],[-23,-41],[32,-17],[-8,-37],[-22,21],[-34,-16],[-6,45],[-27,-17],[73,-94],[-20,-32],[-14,7],[-4,1],[-9,-3],[35,-79],[-70,-131],[37,-26],[-2,-28],[118,-12],[408,109],[-21,-14],[160,63],[109,25],[34,-15],[25,31],[23,-29],[-46,-6],[69,-36],[68,74],[89,-30],[33,61],[64,16],[-16,11],[28,-11],[-8,23],[17,3],[5,-4],[4,-18],[-12,20],[3,-20],[-16,-9],[35,-30],[53,46],[116,-244],[0,-106],[44,-45],[-6,-59],[48,-72],[33,-8],[-22,-45],[28,-19],[-94,-100],[-161,-113],[-103,9],[-53,27],[-17,110],[-45,-8],[-24,42],[-33,-4],[27,10],[-12,50],[-49,-26],[-42,26],[8,57],[-63,8],[-84,-69],[-81,63],[-107,-27],[-279,158],[32,-47],[128,-46],[-102,-4],[28,-4],[-35,-5],[6,-21],[95,-1],[8,-24],[31,18],[-20,-31],[18,21],[79,-17],[-15,-63],[52,-22],[-40,-129],[-51,42],[-33,-4],[-30,-10],[-32,-67],[-112,119],[-33,11],[-24,-3],[39,-8],[9,-35],[-23,-103],[-44,-10],[-2,-53],[-66,-99],[-156,-60],[-123,40],[-91,-57]],[[4096,811],[-331,-14],[-122,22],[-37,17],[-46,30],[-38,34],[-17,31],[-35,-4],[-187,77],[-30,4],[-98,-4],[-31,9],[-59,42],[-30,9],[-59,-8],[-49,-20],[-82,-53],[-119,-44],[-113,5],[-247,39],[-108,-30],[-76,-60],[-74,-46],[-101,14],[-123,90],[-101,126],[-136,274],[-179,510],[-22,127],[-2,256],[-16,127],[-38,120],[-262,429],[-55,45],[-135,30],[-38,26],[-41,16],[-69,-14],[-68,-37],[-182,-157],[-50,-32],[-52,-15],[-127,-3],[-16,-28],[3,-87],[-9,-50],[-31,-44],[-89,-104],[-19,-45],[-12,-60],[-54,-95],[-12,-49],[-3,-43],[-23,-110],[-15,-41],[32,5],[18,-7],[9,-19],[6,-62],[9,-13],[13,-9],[14,-18],[64,-111],[13,-52],[22,23],[12,34],[15,22],[31,-16],[15,-26],[6,-35],[1,-83],[-18,10],[-44,20],[-18,10],[8,-18],[26,-38],[6,-5],[0,-79],[6,-16],[9,-12],[6,-14],[-3,-21],[-12,-22],[-35,-39],[-11,-20],[10,-74],[52,-56],[74,-19],[140,69],[188,18],[64,30],[30,20],[43,9],[87,3],[33,7],[118,54],[-14,-49],[65,5],[138,44],[11,9],[16,21],[24,21],[39,10],[20,-19],[28,-30],[23,-6],[8,55],[18,0],[72,-144],[18,-89],[47,-140],[24,-34],[-12,-58],[62,-102],[-10,-67],[-38,-38],[-85,-51],[-16,-42],[-56,-33],[-89,31],[-35,67],[-58,32],[-47,28],[-19,51],[-39,-8],[-24,12],[-15,47],[-58,20],[-32,-27],[-55,-23],[-43,24],[-51,14],[-48,-5],[-51,14],[-25,7],[-52,26],[-78,42],[-80,45],[-113,28],[58,-43],[35,-20],[39,-12],[33,-13],[25,-23],[-44,-1],[-21,0],[-14,-17],[10,-8],[67,-5],[125,-43],[-6,-39],[43,-15],[-15,-20],[-3,-9],[-4,-13],[25,-9],[13,-13],[4,-20],[0,-28],[-6,-29],[-14,0],[-22,19],[-28,11],[-33,18],[-27,1],[-11,-40],[-15,-29],[-33,-13],[-29,27],[-28,33],[-23,36],[-42,20],[-39,4],[-29,-21],[33,-6],[21,-19],[5,-22],[-3,-54],[-40,-82],[-61,-75],[-149,-74],[-109,15],[-57,2],[-71,-49],[0,3613],[733,0],[-5,-23],[13,-29],[29,-18],[60,-24],[201,-178],[99,-48],[0,-20],[-60,0],[43,-43],[63,-24],[60,0],[33,28],[-10,78],[-103,130],[-26,66],[-35,37],[-87,68],[3088,0],[0,-1091],[-160,40],[-125,60],[-107,103],[-27,59],[-30,139],[-32,55],[-53,47],[-53,32],[-125,53],[-16,15],[-15,3],[-14,-11],[-16,-27],[23,-50],[5,-57],[-7,-107],[14,-40],[34,-27],[39,-21],[35,-25],[89,-146],[39,-47],[46,-17],[56,-5],[48,-20],[20,-60],[37,-65],[87,-70],[96,-56],[112,-34],[0,-1915]],[[0,483],[71,49],[57,-2],[109,-15],[149,74],[61,75],[40,82],[3,54],[-5,22],[-21,19],[-33,6],[29,21],[39,-4],[42,-20],[23,-36],[28,-33],[29,-27],[33,13],[15,29],[11,40],[27,-1],[33,-18],[28,-11],[22,-19],[14,0],[6,29],[0,28],[-4,20],[-13,13],[-25,9],[4,13],[3,9],[15,20],[-43,15],[6,39],[-125,43],[-67,5],[-10,8],[14,17],[21,0],[44,1],[-25,23],[-33,13],[-39,12],[-35,20],[-58,43],[113,-28],[80,-45],[78,-42],[52,-26],[25,-7],[51,-14],[48,5],[51,-14],[43,-24],[55,23],[32,27],[58,-20],[15,-47],[24,-12],[39,8],[19,-51],[47,-28],[58,-32],[35,-67],[89,-31],[56,33],[16,42],[85,51],[38,38],[10,67],[-62,102],[12,58],[-24,34],[-47,140],[-18,89],[-72,144],[-18,0],[-8,-55],[-23,6],[-28,30],[-20,19],[-39,-10],[-24,-21],[-16,-21],[-11,-9],[-138,-44],[-65,-5],[14,49],[-118,-54],[-33,-7],[-87,-3],[-43,-9],[-30,-20],[-64,-30],[-188,-18],[-140,-69],[-74,19],[-52,56],[-10,74],[11,20],[35,39],[12,22],[3,21],[-6,14],[-9,12],[-6,16],[0,79],[-6,5],[-26,38],[-8,18],[18,-10],[44,-20],[18,-10],[-1,83],[-6,35],[-15,26],[-31,16],[-15,-22],[-12,-34],[-22,-23],[-13,52],[-64,111],[-14,18],[-13,9],[-9,13],[-6,62],[-9,19],[-18,7],[-32,-5],[15,41],[23,110],[3,43],[12,49],[54,95],[12,60],[19,45],[89,104],[31,44],[9,50],[-3,87],[16,28],[127,3],[52,15],[50,32],[182,157],[68,37],[69,14],[41,-16],[38,-26],[135,-30],[55,-45],[262,-429],[38,-120],[16,-127],[2,-256],[22,-127],[179,-510],[136,-274],[101,-126],[123,-90],[101,-14],[74,46],[76,60],[108,30],[247,-39],[113,-5],[119,44],[82,53],[49,20],[59,8],[30,-9],[59,-42],[31,-9],[98,4],[30,-4],[187,-77],[35,4],[17,-31],[38,-34],[46,-30],[37,-17],[122,-22],[331,14]],[[733,4096],[-5,-23],[13,-29],[29,-18],[60,-24],[201,-178],[99,-48],[0,-20],[-60,0],[43,-43],[63,-24],[60,0],[33,28],[-10,78],[-103,130],[-26,66],[-35,37],[-87,68]],[[4096,3005],[-160,40],[-125,60],[-107,103],[-27,59],[-30,139],[-32,55],[-53,47],[-53,32],[-125,53],[-16,15],[-15,3],[-14,-11],[-16,-27],[23,-50],[5,-57],[-7,-107],[14,-40],[34,-27],[39,-21],[35,-25],[89,-146],[39,-47],[46,-17],[56,-5],[48,-20],[20,-60],[37,-65],[87,-70],[96,-56],[112,-34]],[[792,4002]],[[792,4002]],[[792,4002]],[[792,4002]],[[800,3989]],[[808,3982],[1,-1]],[[831,3961],[-1,0]],[[831,3986],[0,1]],[[919,3931],[-3,1]],[[942,3906],[-23,24]],[[942,3906],[0,-1],[1,-1],[0,1],[-1,1]],[[973,3873]],[[985,3859],[5,-6]],[[1006,3837],[-21,23]],[[1246,3693],[4,8]],[[1267,3733],[2,3]],[[3394,3448],[6,18]],[[3429,3356],[-43,39],[8,53]],[[3505,3502],[-25,29],[-98,18],[18,-83]],[[3441,3346],[-12,10]],[[3441,3346],[56,-76],[189,-106]],[[3639,3253],[-36,26],[-34,120]],[[3609,3317],[-1,-4]],[[3650,3238],[-11,15]],[[3686,3164],[-36,74]],[[3915,2948],[-83,49],[-146,167]],[[3918,2948],[-3,0]],[[3915,2948],[3,-1]],[[3918,2947],[1,-2]],[[3918,2950],[0,-2]],[[3918,2950],[12,48],[42,-15]],[[3919,2948],[-1,2]],[[3919,2945],[0,2]],[[3919,2945],[6,-18]],[[3927,2920],[-1,3]],[[3939,2872],[-12,47]],[[3948,2922],[6,2]],[[3955,2924],[6,-2]],[[771,4013],[0,-1],[1,1],[-1,0]],[[792,4002]],[[792,4002]],[[792,4002]],[[809,4007]],[[830,3960],[1,-1],[0,1],[0,1],[-1,-1]],[[831,3987]],[[831,3990]],[[919,3931],[-1,-1],[1,0],[0,1]],[[973,3872],[0,1],[-1,0],[0,-1],[1,0]],[[1010,3833],[-1,0],[1,-1],[0,1]],[[3919,2948],[-1,0],[0,-1]],[[3918,2947],[1,0]],[[3919,2947],[0,1]],[[3955,2924],[-1,0],[1,0]],[[219,1927],[-6,0]],[[214,1924],[5,3]],[[219,1927],[80,-30],[16,-34]],[[315,1863],[85,-74],[20,-53]],[[424,1734],[-21,54],[-88,75]],[[1741,608],[-4,-1]],[[2077,787],[58,23]],[[2135,810],[-58,-20]],[[2135,810],[94,24],[200,117],[304,-67],[102,23],[67,80],[90,25],[102,-68],[-10,-66],[99,-63],[1,-70],[34,-59],[60,-66],[109,-39],[15,-57],[60,-36],[138,38],[280,-74],[216,-260]],[[771,4013],[-14,38]],[[792,4002],[-21,10]],[[792,4002],[17,5]],[[816,4006],[-6,1]],[[830,3961],[1,25]],[[831,3990],[0,4]],[[831,3987],[0,3]],[[884,3953],[-9,-1]],[[891,3949],[25,-17]],[[1738,618],[-340,-131],[-73,-2],[-183,-93],[-143,-19],[-8,-86],[-72,-71],[-160,-7],[-90,-34],[-254,0],[-406,-175]],[[756,4052],[15,-39]],[[771,4012],[29,-23]],[[800,3989],[8,-7]],[[829,3961],[-20,20]],[[875,3952],[10,1]],[[916,3932],[-24,18]],[[515,1152],[-109,134]],[[870,3991],[-12,4]],[[880,3988],[-5,2]],[[758,4069],[3,0]],[[761,4069],[33,1]],[[818,4070],[-23,0]],[[823,4070],[34,-13]],[[859,4056],[30,-17]],[[891,4038],[33,-27]],[[925,4011],[25,-20]],[[1891,606],[4,-11]],[[1872,730],[30,190],[-164,251],[-135,355],[-16,19]],[[1587,1545],[-12,13]],[[1577,1558],[10,-13]],[[1587,1545],[14,-20],[135,-351],[166,-255],[-31,-189]],[[428,1709],[-49,-33],[21,-188]],[[403,1490],[-23,186],[50,30]],[[403,1490],[-3,-3],[2,-4],[4,3],[-3,4]],[[406,1486],[4,1]],[[420,1736],[9,-26]],[[433,1711],[-9,23]],[[428,1709],[3,-3],[3,3],[-3,3],[-3,-3]],[[1776,611],[-35,-3]],[[1775,611],[-3,3]],[[1776,611],[105,15]],[[1881,626]],[[1881,626],[34,58]],[[1880,626],[-104,-15]],[[1941,728],[-45,-72],[-16,-30]],[[1880,626],[1,0]],[[1881,626],[5,-11],[5,-9],[-5,10],[-5,10]],[[1881,626]],[[1943,732],[1,0]],[[1944,732],[-1,-1]],[[1944,732],[-1,0]],[[1945,731],[0,1],[-1,0]],[[1944,732],[0,-1],[1,0]],[[1137,3762],[8,-5]],[[1215,3737],[-11,8]],[[1267,3737],[-28,4]],[[830,3961],[0,-1]],[[830,3959],[2,-1]],[[832,3958],[-1,2]],[[832,3958],[43,-6]],[[916,3932],[2,-2]],[[919,3930],[23,-25]],[[943,3904],[29,-32]],[[972,3873],[-29,32]],[[973,3872],[12,-13]],[[985,3860],[-12,12]],[[990,3853],[19,-20]],[[1010,3833],[-4,4]],[[1010,3832],[4,-4]],[[1014,3828],[1,-2],[83,-51],[39,-13]],[[1014,3827],[0,1]],[[1014,3828],[-4,4]],[[1269,3736],[-2,1]],[[301,1501],[-1,-34],[51,-8],[1,0]],[[352,1459],[1,-1],[5,0],[45,25]],[[400,1486],[-47,-28],[-1,1]],[[352,1459],[-1,0],[-7,3],[-44,5],[1,34]],[[352,1458],[-1,-1]],[[351,1457],[-21,-26]],[[331,1431],[17,21],[3,5]],[[351,1457],[1,2]],[[352,1459]],[[352,1459],[4,7],[15,34]],[[757,4069]],[[820,4071],[0,-1]],[[821,4070],[0,1]],[[830,4003],[-1,0],[1,0]],[[830,4002],[1,0],[-1,1]],[[856,3996],[0,-1]],[[857,3995]],[[857,3995],[-1,1],[0,-1]],[[856,3995],[1,0]],[[858,4057],[0,-1]],[[858,4057],[0,-1],[0,1]],[[859,4058],[-1,-1]],[[858,4056],[1,0],[-1,0]],[[858,4057],[1,1]],[[884,4096],[-25,-38]],[[871,3991]],[[871,3986],[1,4]],[[871,3991],[0,-5]],[[876,3968],[-5,18]],[[876,3968],[4,-8]],[[880,3961],[-4,7]],[[881,3960],[5,-6]],[[886,3954],[-5,6]],[[890,4039],[0,-1]],[[890,4038]],[[924,4011]],[[925,4011]],[[1146,3757],[-1,0],[1,-1]],[[1146,3756],[1,1]],[[1215,3737],[1,0]],[[1239,3741],[-24,-4]],[[1250,3701],[17,32]],[[1851,613],[35,2],[149,155]],[[3935,2819],[0,-17]],[[3935,2801],[23,-23],[11,-3]],[[3992,2769],[-21,6]],[[3971,2775],[-2,0]],[[3969,2775],[-11,4],[-23,22]],[[3935,2802],[0,17]],[[3936,2826],[-1,-6]],[[3936,2820],[0,6]],[[3937,2858],[-1,-32]],[[3937,2858],[3,9]],[[3940,2867],[-3,-9]],[[3940,2868],[-1,4]],[[3940,2867],[0,1],[-1,-1],[1,0]],[[3961,2922],[14,-5]],[[3978,2912],[-15,-65]],[[3963,2847],[1,-3]],[[3965,2845],[-2,2]],[[3964,2841],[1,2]],[[3964,2844],[0,-3]],[[3964,2841],[2,-31]],[[3965,2843],[5,-18]],[[3970,2825],[1,-3],[0,-2]],[[3971,2820],[2,-8]],[[3973,2812]],[[3973,2812],[11,-25],[31,-8]],[[4039,2874],[-74,-29]],[[3973,2812],[-2,8]],[[3971,2820],[-1,5]],[[3970,2825],[-4,19]],[[3966,2844],[29,8],[29,13],[10,6],[6,2]],[[4040,2873],[0,1],[13,2]],[[4053,2876]],[[4053,2876],[11,-4],[6,-8],[26,-13]],[[3966,2810],[0,-1]],[[3966,2809],[0,1]],[[3966,2809]],[[3966,2809],[3,-14]],[[3973,2812]],[[3973,2812],[-7,-3]],[[3970,2778],[1,9],[-5,22]],[[3966,2809],[7,3]],[[3973,2812]],[[3968,2804]],[[3968,2800]],[[3969,2795]],[[3969,2795],[1,-17]],[[3969,2775]],[[3969,2775],[1,3]],[[3969,2775],[23,-6]],[[3971,2775]],[[3971,2775],[-1,2]],[[3972,2983],[7,-64]],[[4015,2779],[-5,4],[-5,3],[-21,2],[-11,24]],[[3975,2917],[3,-1]],[[3978,2916],[-3,1]],[[3978,2914]],[[3978,2916],[0,-2]],[[3978,2914],[0,-2]],[[3978,2914]],[[3978,2916]],[[3979,2919],[-1,-3]],[[3978,2912],[0,2]],[[3978,2914]],[[3978,2914],[3,0]],[[3978,2914],[1,5]],[[3981,2914],[-3,0]],[[3981,2914],[58,-40]],[[3993,2769],[9,-5]],[[4001,2765],[-8,4]],[[4002,2765],[-1,0]],[[4003,2766]],[[4003,2766],[-2,-1]],[[4008,2777],[-1,-6],[-4,-5]],[[4003,2766],[-1,-1]],[[4002,2764],[6,8],[1,5]],[[4029,2764],[0,1]],[[4029,2765],[-2,6]],[[4027,2774],[4,-2]],[[4031,2772],[5,-2],[11,-8],[8,-2],[23,7]],[[4078,2767],[-12,2],[-5,-2],[-6,-6],[-7,1],[-12,8],[-5,2]],[[4031,2772],[-4,2]],[[4032,2774],[-1,-2]],[[4031,2772]],[[4031,2772],[-2,-7]],[[4029,2765],[0,-1]],[[4058,2876],[-5,0]],[[4053,2876]],[[4053,2876],[-7,0],[-7,-2]],[[4039,2874],[1,-1]],[[4040,2873]],[[4058,2875],[0,1]],[[4096,2886],[-38,-10]],[[4096,2852],[-25,13],[-7,7],[-6,4]],[[4078,2767],[1,0]],[[4079,2767],[11,4]],[[4078,2767]],[[4078,2767]],[[4078,2767],[12,45],[6,39]],[[4089,2771],[-10,-4],[-1,0]],[[4078,2767]],[[4096,2851],[-18,-84]],[[4078,2767]],[[4078,2767],[1,0]],[[4079,2767],[0,-1]],[[4096,2775],[-7,-4]],[[4089,2771],[1,0]],[[4090,2771],[6,3]],[[4090,2771],[5,-4]],[[4091,2824]],[[4095,2767],[0,-1]],[[4096,2769],[-1,-2]],[[4095,2766],[1,0]],[[4096,2851]],[[754,4068],[2,0],[0,2],[-2,0],[0,-2]],[[821,4071],[-1,0],[1,-1]],[[821,4070],[0,1]],[[830,4003]],[[872,3991],[-1,0],[1,0]],[[880,3961],[0,-1],[1,0],[-1,1]],[[886,3954],[-1,-1],[1,-1],[1,1],[-1,1]],[[890,4038],[0,1]],[[890,4039],[0,-1]],[[924,4011],[1,0],[-1,0]],[[1146,3757],[0,-1],[0,1]],[[3934,2801],[1,0]],[[3935,2801],[0,1]],[[3935,2802],[-1,-1]],[[3935,2819],[1,0],[-1,1],[0,-1]],[[3966,2845],[-2,0],[0,-2],[1,0],[1,2]],[[3992,2770],[0,-1]],[[3992,2769],[1,0],[-1,1]],[[4002,2764],[0,1],[0,-1]],[[4002,2764]],[[4095,2766],[1,0],[-1,1],[0,-1]],[[4015,2779],[12,-5]],[[4027,2774],[-12,5]],[[329,1604],[0,-19],[1,-60],[2,-24],[-3,103]],[[1946,733],[9,5]],[[1955,738],[122,49]],[[2077,790],[-122,-52]],[[831,3990],[4,1]],[[929,3976],[37,-14]],[[371,1501],[-19,-43]],[[3925,2927],[2,-8]],[[3927,2919],[12,-48]],[[3928,2919],[20,3]],[[3928,2919],[-1,1],[0,-1]],[[3927,2919],[1,0]],[[1943,732]],[[755,4068],[1,-16]],[[766,4096],[-11,-26]],[[885,3953]],[[892,3950],[-5,3]],[[433,1486],[1081,93],[55,-14]],[[1569,1565],[3,0],[5,-7]],[[1575,1558],[-6,7]],[[1569,1565],[-4,6],[-51,10],[-1081,-91]],[[1915,684],[30,47]],[[1943,731],[-2,-3]],[[1945,731],[1,2]],[[835,3991],[20,4]],[[880,3988],[49,-12]],[[404,1483],[29,3]],[[433,1490],[-27,-3]],[[1946,733],[-1,-1]],[[1895,595],[29,-72],[201,33],[206,-35],[202,4],[49,-29],[52,-82],[-8,-151],[-151,-68],[-41,-44],[21,-32],[-81,-62],[-128,-25],[-29,-32]],[[1871,730],[72,3]],[[757,4051],[-1,17]],[[756,4070],[10,26]],[[829,4003],[-13,3]],[[831,3994],[0,8]],[[885,3954],[-1,-1]],[[886,3952],[5,-3]],[[1770,624],[-22,-4]],[[1871,730],[-62,-20]],[[1748,620],[-10,-2]],[[1809,710],[-39,-86]],[[973,3873],[-23,118]],[[1204,3745],[-57,12]],[[3569,3399],[-64,103]],[[1147,3757],[-1,0]],[[3939,2871],[1,-3]],[[733,4096],[275,0],[87,-68],[35,-37],[26,-66],[103,-130],[10,-78],[-33,-28],[-60,0],[-63,24],[-43,43],[60,0],[0,20],[-99,48],[-201,178],[-60,24],[-29,18],[-13,29],[5,23]],[[4096,811],[0,-811],[-4096,0],[0,483],[71,49],[57,-2],[109,-15],[149,74],[61,75],[40,82],[3,54],[-5,22],[-21,19],[-33,6],[29,21],[39,-4],[42,-20],[23,-36],[28,-33],[29,-27],[33,13],[15,29],[11,40],[27,-1],[33,-18],[28,-11],[22,-19],[14,0],[6,29],[0,28],[-4,20],[-13,13],[-25,9],[4,13],[3,9],[15,20],[-43,15],[6,39],[-125,43],[-67,5],[-10,8],[14,17],[21,0],[44,1],[-25,23],[-33,13],[-39,12],[-35,20],[-58,43],[113,-28],[80,-45],[78,-42],[52,-26],[25,-7],[51,-14],[48,5],[51,-14],[43,-24],[55,23],[32,27],[58,-20],[15,-47],[24,-12],[39,8],[19,-51],[47,-28],[58,-32],[35,-67],[89,-31],[56,33],[16,42],[85,51],[38,38],[10,67],[-62,102],[12,58],[-24,34],[-47,140],[-18,89],[-72,144],[-18,0],[-8,-55],[-23,6],[-28,30],[-20,19],[-39,-10],[-24,-21],[-16,-21],[-11,-9],[-138,-44],[-65,-5],[14,49],[-118,-54],[-33,-7],[-87,-3],[-43,-9],[-30,-20],[-64,-30],[-188,-18],[-140,-69],[-74,19],[-52,56],[-10,74],[11,20],[35,39],[12,22],[3,21],[-6,14],[-9,12],[-6,16],[0,79],[-6,5],[-26,38],[-8,18],[18,-10],[44,-20],[18,-10],[-1,83],[-6,35],[-15,26],[-31,16],[-15,-22],[-12,-34],[-22,-23],[-13,52],[-64,111],[-14,18],[-13,9],[-9,13],[-6,62],[-9,19],[-18,7],[-32,-5],[15,41],[23,110],[3,43],[12,49],[54,95],[12,60],[19,45],[89,104],[31,44],[9,50],[-3,87],[16,28],[127,3],[52,15],[50,32],[182,157],[68,37],[69,14],[41,-16],[38,-26],[135,-30],[55,-45],[262,-429],[38,-120],[16,-127],[2,-256],[22,-127],[179,-510],[136,-274],[101,-126],[123,-90],[101,-14],[74,46],[76,60],[108,30],[247,-39],[113,-5],[119,44],[82,53],[49,20],[59,8],[30,-9],[59,-42],[31,-9],[98,4],[30,-4],[187,-77],[35,4],[17,-31],[38,-34],[46,-30],[37,-17],[122,-22],[331,14]],[[4096,3005],[0,-279],[-112,34],[-96,56],[-87,70],[-37,65],[-20,60],[-48,20],[-56,5],[-46,17],[-39,47],[-89,146],[-35,25],[-39,21],[-34,27],[-14,40],[7,107],[-5,57],[-23,50],[16,27],[14,11],[15,-3],[16,-15],[125,-53],[53,-32],[53,-47],[32,-55],[30,-139],[27,-59],[107,-103],[125,-60],[160,-40]],[[989,1854],[44,95],[78,24],[15,-37],[40,-2],[-47,-74],[11,-43],[-21,31],[-12,-24],[-17,27],[-40,-19],[-51,22]],[[965,1305],[13,131],[82,1],[28,31],[20,-29],[-46,-6],[69,-36],[68,74],[89,-30],[33,61],[64,16],[-16,11],[28,-11],[-8,23],[201,19],[-89,282],[146,34],[215,-587],[169,-260],[110,-71],[-59,-147],[-137,-78],[-147,-24],[-32,-94],[-280,67],[2,49],[-65,116],[131,106],[-49,84],[-36,122],[5,69],[-61,132],[-102,-42],[-75,8],[-94,-54],[-122,39],[-55,-6]],[[3380,3513],[28,32],[90,-42],[92,-6],[11,-92],[-173,-34],[-27,36],[15,75],[-36,31]],[[2085,834],[-33,-198],[-97,0],[-126,-86],[-68,-14],[-65,232],[116,6],[46,60],[97,-66],[81,74],[49,-8]],[[261,1821],[32,-17],[16,-27],[223,-84],[12,-35],[20,-129],[-68,28],[-31,-16],[-31,-46],[-39,-218],[-28,-14],[-74,19],[-52,56],[-10,74],[61,102],[-21,121],[-40,61],[80,-40],[-7,118],[-43,47]],[[237,1777],[-6,-17],[-22,-23],[-10,38],[38,2]],[[4096,2949],[0,-224],[-112,35],[-114,71],[91,53],[0,100],[81,-6],[54,-29]],[[1259,3795],[10,-78],[-33,-28],[-123,24],[-43,43],[28,-19],[137,88],[24,-30]],[[737,4096],[271,0],[42,-33],[-160,-115],[-162,125],[9,23]],[[998,3882],[8,9],[55,19],[-12,96],[38,22],[140,-143],[-2,-38],[-50,-26],[4,34],[-24,7],[1,-62],[-27,27],[-81,2],[-4,32],[-46,21]]]}