{"objects":{"water":{"type":"GeometryCollection","geometries":[{"type":"Polygon","properties":{"kind":"lake","name":"Lake Habbaniyah","reservoir":true,"area":556768832,"sort_rank":200,"source":"naturalearthdata.com","min_zoom":0.0,"id":1053},"arcs":[[7]]},{"type":"LineString","properties":{"source":"naturalearthdata.com","kind":"lake","reservoir":true,"sort_rank":367,"boundary":true,"min_zoom":0.0,"id":1053},"arcs":[8]}]},"buildings":{"type":"GeometryCollection","geometries":[]},"places":{"type":"GeometryCollection","geometries":[{"type":"Point","properties":{"name:pt":"Bagdade","name:ka":"\u10d1\u10d0\u10e6\u10d3\u10d0\u10d3\u10d8","name:ko":"\ubc14\uadf8\ub2e4\ub4dc","name:cv":"\u041f\u0430\u0445\u0442\u0430\u0442","name:kl":"Baghdad","name:cs":"Bagd\u00e1d","name:tt":"\u0411\u0430\u0433\u0434\u0430\u0434","name:kw":"Baldak","name:tk":"Bagdat","name:ku":"Bexda","name:tl":"Baghdad","name:sv":"Bagdad","name:os":"\u0411\u0430\u0433\u0434\u0430\u0434","name:pl":"Bagdad","name:ta":"\u0baa\u0b95\u0bcd\u0ba4\u0bbe\u0ba4\u0bcd","name:tg":"\u0411\u0430\u0493\u0434\u043e\u0434","name:ky":"\u0411\u0430\u0433\u0434\u0430\u0434","name:cy":"Baghdad","source":"openstreetmap.org","name:da":"Bagdad","name:fr":"Bagdad","name:de":"Bagdad","name:tr":"Ba\u011fdat","name:kn":"\u0cac\u0cbe\u0c97\u0ccd\u0ca6\u0cbe\u0ca6\u0ccd","name:dv":"\u0784\u07a6\u07a3\u07aa\u078b\u07a7\u078b\u07aa","admin_level":"2","name:lv":"Bagd\u0101de","name:lt":"Bagdadas","name:hi":"\u092c\u0917\u093c\u0926\u093e\u0926","name:kk":"\u0411\u0430\u0493\u0434\u0430\u0442","name:he":"\u05d1\u05d2\u05d3\u05d3","min_zoom":8.0,"kind":"locality","name:la":"Bagdatum","name:uk":"\u0411\u0430\u0433\u0434\u0430\u0434","name:hy":"\u0532\u0561\u0572\u0564\u0561\u0564","country_capital":true,"name:ug":"\u0628\u0627\u063a\u062f\u0627\u062f","name:hu":"Bagdad","name:hr":"Bagdad","population":7216040,"name:el":"\u0392\u03b1\u03b3\u03b4\u03ac\u03c4\u03b7","name:eo":"Bagdado","name:en":"Baghdad","name":"\u0628\u063a\u062f\u0627\u062f","name:th":"\u0e41\u0e1a\u0e01\u0e41\u0e14\u0e14","name:yi":"\u05d1\u05d0\u05d2\u05d3\u05d0\u05d3","name:et":"Bagdad","name:nl":"Bagdad","name:es":"Bagdad","name:ml":"\u0d2c\u0d3e\u0d17\u0d4d\u0d26\u0d3e\u0d26\u0d4d","name:az":"Ba\u011fdad","name:ms":"Baghdad","name:mr":"\u092c\u0917\u0926\u093e\u0926","name:zh-min-nan":"Baghdad","name:my":"\u1018\u1002\u1039\u1002\u1012\u1000\u103a\u1019\u103c\u102d\u102f\u1037","name:is":"Bagdad","name:am":"\u1263\u130d\u12f3\u12f5","name:it":"Bagdad","name:vi":"Bagdad","name:ru":"\u0411\u0430\u0433\u0434\u0430\u0434","name:mn":"\u0411\u0430\u0433\u0434\u0430\u0434","name:mi":"Baghdad","id":21034458,"name:mk":"\u0411\u0430\u0433\u0434\u0430\u0434","name:af":"Bagdad","kind_detail":"city","alt_name:vi":"B\u00e1t-\u0111a","name:ba":"\u0411\u0430\u0493\u0434\u0430\u0434","name:zh-yue":"\u5df4\u683c\u9054","name:zh":"\u5df4\u683c\u9054","name:so":"Baqdaad","name:sk":"Bagdad","name:ja":"\u30d0\u30b0\u30c0\u30fc\u30c9","name:br":"Baghdad","name:bn":"\u09ac\u09be\u0997\u09a6\u09be\u09a6","name:bo":"\u0f54\u0f0b\u0f42\u0f0b\u0f4f","name:sw":"Baghdad","name:be":"\u0411\u0430\u0433\u0434\u0430\u0434","name:bg":"\u0411\u0430\u0433\u0434\u0430\u0434","name:sr":"\u0411\u0430\u0433\u0434\u0430\u0434","name:sq":"Bagdadi","name:gd":"Baghdad","name:yo":"Baghdad","name:fi":"Bagdad"},"coordinates":[2287,577]},{"type":"Point","properties":{"name:fa":"\u0633\u0627\u0645\u0631\u0627","kind":"locality","name:en":"Samarra","name":"\u0633\u0627\u0645\u0631\u0627\u0621","kind_detail":"city","min_zoom":8.0,"name:de":"Samarra","source":"openstreetmap.org","name:fr":"Samarra","int_name":"Samarra - \u0633\u0627\u0645\u0631\u0627\u0621","name:ru":"\u0421\u0430\u043c\u0430\u0440\u0440\u0430","id":2480261764,"population":348700},"coordinates":[892,3721]},{"type":"Point","properties":{"name:pt":"Falluja","name:ja":"\u30d5\u30a1\u30eb\u30fc\u30b8\u30e3","name:tr":"Felluce","name:he":"\u05e4\u05dc\u05d5\u05d2'\u05d4","name:eo":"Falu\u011da","min_zoom":8.0,"name:it":"Falluja","alt_name:fr":"Falloujah","name:hu":"Falludzsa","id":192581952,"population":326471,"kind":"locality","name:en":"Fallujah","name":"\u0627\u0644\u0641\u0644\u0648\u062c\u0629","kind_detail":"city","name:de":"Falludscha","source":"openstreetmap.org","name:fr":"Fallouja","name:es":"Faluya"},"coordinates":[565,755]},{"type":"Point","properties":{"kind":"locality","name:en":"Al-Karmah","name":"\u0627\u0644\u0643\u0631\u0645\u0629","kind_detail":"city","alt_name:en":"Garma;Karmah;Karma","source":"openstreetmap.org","min_zoom":8.0,"int_name":"Al-Karmah - \u0627\u0644\u0643\u0631\u0645\u0629","id":2318152545,"population":95000},"coordinates":[933,936]}]},"transit":{"type":"GeometryCollection","geometries":[]},"pois":{"type":"GeometryCollection","geometries":[{"type":"Point","properties":{"kind":"aerodrome","name:en":"Joint Base Balad","tier":3,"name":"\u0642\u0627\u0639\u062f\u0629 \u0627\u0644\u0628\u0643\u0631 \u0627\u0644\u062c\u0648\u064a\u0629\u200e","area":36706900,"source":"openstreetmap.org","min_zoom":8.81,"operator":"United States Air Force","id":82693406},"coordinates":[2262,2810]},{"type":"Point","properties":{"kind":"military","name:en":"Camp Rashid","name":"\u0645\u0639\u0633\u0643\u0631 \u0627\u0644\u0631\u0634\u064a\u062f","area":27640600,"source":"openstreetmap.org","min_zoom":8.0,"int_name":"Camp Rashid, Muaskar ar Rash\u012bd, Muaskar Rashed, Rashid, Rashid Camp, \u0645\u0639\u0633\u0643\u0631 \u0627\u0644\u0631\u0634\u064a\u062f, Camp Rashid, Muaskar ar Rashid, Muaskar Rashed, Rashid, Rashid Camp, \u0645\u0639\u0633\u0643\u0631 \u0627\u0644\u0631\u0634\u064a\u062f","tier":3,"id":82884854},"coordinates":[2612,507]},{"type":"Point","properties":{"source":"openstreetmap.org","kind":"military","name":"MEK Compound","area":11167700,"tier":3,"min_zoom":8.0,"id":255858386},"coordinates":[847,637]},{"type":"Point","properties":{"source":"openstreetmap.org","kind":"military","name":"abandoned military base","area":14463100,"tier":3,"min_zoom":8.0,"id":256252242},"coordinates":[261,333]},{"type":"Point","properties":{"kind":"aerodrome","name:en":"Al-Taqaddum Air Base","name":"\u0642\u0627\u0639\u062f\u0629 \u0627\u0644\u062a\u0642\u062f\u0645 \u0627\u0644\u062c\u0648\u064a\u0629","short_name":"TQ","area":44748400,"iata":"TQD","min_zoom":8.67,"source":"openstreetmap.org","name:fr":"Base a\u00e9rienne Al-Taqaddum","tier":3,"id":256498339},"coordinates":[20,682]},{"type":"Point","properties":{"source":"openstreetmap.org","kind":"military","name":"abandoned Al-Muthana CW facility","area":25012300,"tier":3,"min_zoom":8.0,"id":395588321},"coordinates":[710,2537]}]},"boundaries":{"type":"GeometryCollection","geometries":[{"type":"LineString","properties":{"name:right:ja":"\u30c7\u30a3\u30e4\u30fc\u30e9\u30fc","name:right:uk":"\u0414\u0456\u044f\u043b\u0430","name:left:ja":"\u30ef\u30fc\u30b7\u30c8","id:right":-3242294,"name:left:uk":"\u0412\u0430\u0441\u0438\u0442","min_zoom":8.0,"name:right:ku":"Parezgay Diyala","name:left:en":"Wasit","name:left:ru":"\u0412\u0430\u0441\u0438\u0442","name:right:ru":"\u0414\u0438\u044f\u043b\u0430","name:right:pl":"Dijala","id":-3244385,"osm_relation":true,"name:right":"\u062f\u064a\u0627\u0644\u0649","kind":"region","name":"\u0648\u0627\u0633\u0637 - \u062f\u064a\u0627\u0644\u0649","source":"openstreetmap.org","sort_rank":256,"kind_detail":"4","name:right:en":"Diyala","name:left:pl":"Wasit","id:left":-3244385,"name:left":"\u0648\u0627\u0633\u0637"},"arcs":[0]},{"type":"LineString","properties":{"kind":"region","name:en":"Wasit","name":"\u0648\u0627\u0633\u0637","sort_rank":256,"kind_detail":"4","source":"openstreetmap.org","min_zoom":8.0,"name:uk":"\u0412\u0430\u0441\u0438\u0442","name:ru":"\u0412\u0430\u0441\u0438\u0442","name:pl":"Wasit","id":-3244385,"osm_relation":true,"name:ja":"\u30ef\u30fc\u30b7\u30c8"},"arcs":[1]},{"type":"LineString","properties":{"name:right:ja":"\u30c7\u30a3\u30e4\u30fc\u30e9\u30fc","alt_name:left:en":"Salah ad Din","name:right:uk":"\u0414\u0456\u044f\u043b\u0430","name:left:ja":"\u30b5\u30e9\u30fc\u30d5\u30c3\u30c7\u30a3\u30fc\u30f3","id:right":-3242294,"name:left:uk":"\u0421\u0430\u043b\u0430\u0445-\u0435\u0434-\u0414\u0456\u043d","min_zoom":8.0,"name:right:ku":"Parezgay Diyala","name:left:en":"Saladin","name:left:ru":"\u0421\u0430\u043b\u0430\u0445-\u044d\u0434-\u0414\u0438\u043d","name:right:ru":"\u0414\u0438\u044f\u043b\u0430","name:right:pl":"Dijala","id":-3242295,"osm_relation":true,"name:right":"\u062f\u064a\u0627\u0644\u0649","name:left:ku":"Parezgay Salah aldin","kind":"region","name":"\u0635\u0644\u0627\u062d \u0627\u0644\u062f\u064a\u0646 - \u062f\u064a\u0627\u0644\u0649","source":"openstreetmap.org","sort_rank":256,"kind_detail":"4","name:right:en":"Diyala","name:left:pl":"Salah ad-Din","id:left":-3242295,"name:left":"\u0635\u0644\u0627\u062d \u0627\u0644\u062f\u064a\u0646"},"arcs":[2]},{"type":"LineString","properties":{"name:right:ja":"\u30a2\u30f3\u30d0\u30fc\u30eb","alt_name:left:en":"Salah ad Din","old_name:right:en":"Dulaim","name:right:uk":"\u0410\u043d\u0431\u0430\u0440","name:left:ja":"\u30b5\u30e9\u30fc\u30d5\u30c3\u30c7\u30a3\u30fc\u30f3","id:right":-3242292,"name:left:uk":"\u0421\u0430\u043b\u0430\u0445-\u0435\u0434-\u0414\u0456\u043d","min_zoom":8.0,"alt_name:right:en":"Anbar","name:left:en":"Saladin","name:left:ru":"\u0421\u0430\u043b\u0430\u0445-\u044d\u0434-\u0414\u0438\u043d","name:right:ru":"\u0410\u043d\u0431\u0430\u0440","name:right:pl":"Al-Anbar","name:right:he":"\u05d0\u05dc-\u05d0\u05e0\u05d1\u05e8","osm_relation":true,"name:right":"\u0627\u0644\u0623\u0646\u0628\u0627\u0631","name:left:ku":"Parezgay Salah aldin","kind":"region","name":"\u0635\u0644\u0627\u062d \u0627\u0644\u062f\u064a\u0646 - \u0627\u0644\u0623\u0646\u0628\u0627\u0631","source":"openstreetmap.org","sort_rank":256,"kind_detail":"4","id":-3242295,"name:left:pl":"Salah ad-Din","name:right:en":"Al Anbar","name:right:de":"Al-Anbar","id:left":-3242295,"name:left":"\u0635\u0644\u0627\u062d \u0627\u0644\u062f\u064a\u0646"},"arcs":[3]},{"type":"LineString","properties":{"kind":"region","name:en":"Saladin","name":"\u0635\u0644\u0627\u062d \u0627\u0644\u062f\u064a\u0646","sort_rank":256,"kind_detail":"4","min_zoom":8.0,"source":"openstreetmap.org","name:ku":"Parezgay Salah aldin","alt_name:en":"Salah ad Din","name:uk":"\u0421\u0430\u043b\u0430\u0445-\u0435\u0434-\u0414\u0456\u043d","name:ru":"\u0421\u0430\u043b\u0430\u0445-\u044d\u0434-\u0414\u0438\u043d","name:pl":"Salah ad-Din","id":-3242295,"osm_relation":true,"name:ja":"\u30b5\u30e9\u30fc\u30d5\u30c3\u30c7\u30a3\u30fc\u30f3"},"arcs":[4]},{"type":"LineString","properties":{"kind":"region","name:en":"Diyala","name":"\u062f\u064a\u0627\u0644\u0649","sort_rank":256,"kind_detail":"4","min_zoom":8.0,"source":"openstreetmap.org","name:ku":"Parezgay Diyala","name:uk":"\u0414\u0456\u044f\u043b\u0430","name:ru":"\u0414\u0438\u044f\u043b\u0430","name:pl":"Dijala","id":-3242294,"osm_relation":true,"name:ja":"\u30c7\u30a3\u30e4\u30fc\u30e9\u30fc"},"arcs":[5]},{"type":"LineString","properties":{"alt_name:en":"Anbar","name:ja":"\u30a2\u30f3\u30d0\u30fc\u30eb","name:he":"\u05d0\u05dc-\u05d0\u05e0\u05d1\u05e8","min_zoom":8.0,"old_name:en":"Dulaim","name:uk":"\u0410\u043d\u0431\u0430\u0440","name:ru":"\u0410\u043d\u0431\u0430\u0440","name:pl":"Al-Anbar","id":-3242292,"osm_relation":true,"kind":"region","name:en":"Al Anbar","name":"\u0627\u0644\u0623\u0646\u0628\u0627\u0631","sort_rank":256,"kind_detail":"4","name:de":"Al-Anbar","source":"openstreetmap.org"},"arcs":[6]}]},"roads":{"type":"GeometryCollection","geometries":[{"type":"LineString","properties":{"kind":"major_road","name:en":"Baghdad Airport Road","sort_rank":381,"kind_detail":"trunk","source":"openstreetmap.org","min_zoom":8.0,"landuse_kind":"urban_area","ref":"A13","id":4074623},"arcs":[9]},{"type":"MultiLineString","properties":{"source":"openstreetmap.org","kind":"major_road","sort_rank":381,"kind_detail":"trunk","ref":"N1","min_zoom":8.0},"arcs":[[10],[11]]},{"type":"MultiLineString","properties":{"source":"openstreetmap.org","kind":"major_road","kind_detail":"trunk","sort_rank":381,"landuse_kind":"urban_area","ref":"A86","min_zoom":8.0},"arcs":[[12],[13],[14],[15]]},{"type":"MultiLineString","properties":{"source":"openstreetmap.org","kind":"major_road","kind_detail":"trunk","sort_rank":381,"landuse_kind":"urban_area","ref":"1","min_zoom":8.0},"arcs":[[16],[17]]},{"type":"MultiLineString","properties":{"source":"openstreetmap.org","kind":"highway","landuse_kind":"residential","sort_rank":383,"kind_detail":"motorway","min_zoom":8.0},"arcs":[[18],[19],[20],[21]]},{"type":"LineString","properties":{"kind":"major_road","name:en":"Airport Highway","sort_rank":381,"kind_detail":"trunk","source":"openstreetmap.org","min_zoom":8.0,"landuse_kind":"urban_area","ref":"A86","id":4075223},"arcs":[22]},{"type":"LineString","properties":{"kind":"highway","sort_rank":383,"landuse_kind":"urban_area","source":"openstreetmap.org","min_zoom":8.0,"kind_detail":"motorway","ref":"A682\/A1","id":50915631},"arcs":[23]},{"type":"LineString","properties":{"kind":"major_road","name:en":"Sarafiya Bridge","sort_rank":380,"kind_detail":"primary","min_zoom":8.0,"name:de":"Jisr as Sarrafiyah","source":"openstreetmap.org","name:fr":"Jisr as Sarrafiyah","int_name":"Jisr a\u015f \u015earr\u0101f\u012byah, Jisr Sarrafiya, \u062c\u0633\u0631 \u0627\u0644\u0635\u0631\u0627\u0641\u064a\u0629, Jisr as Sarrafiyah, Jisr Sarrafiya, \u062c\u0633\u0631 \u0627\u0644\u0635\u0631\u0627\u0641\u064a\u0629","landuse_kind":"urban_area","id":4493479},"arcs":[24]},{"type":"MultiLineString","properties":{"source":"openstreetmap.org","kind":"major_road","name:en":"Dora Expressway","kind_detail":"trunk","sort_rank":381,"landuse_kind":"urban_area","min_zoom":8.0},"arcs":[[25],[26],[27]]},{"type":"MultiLineString","properties":{"kind":"major_road","name:en":"Muthana Bridge","sort_rank":381,"landuse_kind":"urban_area","source":"openstreetmap.org","min_zoom":8.0,"kind_detail":"trunk","ref":"A115"},"arcs":[[28],[29]]},{"type":"MultiLineString","properties":{"source":"openstreetmap.org","kind":"highway","landuse_kind":"urban_area","sort_rank":383,"kind_detail":"motorway","ref":"N14","min_zoom":8.0},"arcs":[[30],[31]]},{"type":"MultiLineString","properties":{"source":"openstreetmap.org","kind":"major_road","kind_detail":"trunk","sort_rank":381,"landuse_kind":"urban_area","ref":"A115","min_zoom":8.0},"arcs":[[32],[33]]},{"type":"MultiLineString","properties":{"source":"openstreetmap.org","kind":"highway","landuse_kind":"urban_area","sort_rank":383,"kind_detail":"motorway","ref":"D383","min_zoom":8.0},"arcs":[[34],[35],[36],[37]]},{"type":"MultiLineString","properties":{"source":"openstreetmap.org","kind":"major_road","sort_rank":380,"kind_detail":"primary","ref":"10","min_zoom":8.0},"arcs":[[38],[39],[40],[41],[42],[43],[44],[45],[46]]},{"type":"MultiLineString","properties":{"source":"openstreetmap.org","kind":"major_road","landuse_kind":"urban_area","sort_rank":380,"kind_detail":"primary","name:ar":"\u0627\u0644\u0643\u0631\u0627\u062f\u0629 \u062e\u0627\u0631\u062c","min_zoom":8.0},"arcs":[[47],[48]]},{"type":"LineString","properties":{"kind":"major_road","sort_rank":381,"landuse_kind":"urban_area","is_bicycle_related":true,"source":"openstreetmap.org","min_zoom":8.0,"kind_detail":"trunk","id":4074575},"arcs":[49]},{"type":"LineString","properties":{"kind":"major_road","sort_rank":381,"landuse_kind":"urban_area","source":"openstreetmap.org","min_zoom":8.0,"kind_detail":"trunk","ref":"4;5","id":223413367},"arcs":[50]},{"type":"MultiLineString","properties":{"kind":"highway","network":null,"sort_rank":383,"landuse_kind":"urban_area","source":"openstreetmap.org","min_zoom":8.0,"all_networks":[null],"kind_detail":"motorway","shield_text":"1","ref":"1","all_shield_texts":["1"]},"arcs":[[51],[52],[53],[54],[55],[56]]},{"type":"MultiLineString","properties":{"sort_rank":381,"source":"openstreetmap.org","min_zoom":8.0,"kind":"major_road","kind_detail":"trunk"},"arcs":[[57],[58],[59],[60],[61],[62],[63],[64],[65],[66],[67],[68],[69],[70],[71],[72],[73],[74],[75],[76],[77],[78],[79],[80],[81],[82]]},{"type":"MultiLineString","properties":{"source":"openstreetmap.org","kind":"highway","landuse_kind":"urban_area","sort_rank":383,"kind_detail":"motorway","ref":"A862\/A1","min_zoom":8.0},"arcs":[[83],[84],[85],[86],[87],[88],[89]]},{"type":"MultiLineString","properties":{"source":"openstreetmap.org","kind":"major_road","sort_rank":381,"kind_detail":"trunk","ref":"2","min_zoom":8.0},"arcs":[[90],[91],[92],[93],[94],[95],[96],[97],[98],[99]]},{"type":"LineString","properties":{"kind":"highway","sort_rank":383,"landuse_kind":"urban_area","source":"openstreetmap.org","min_zoom":8.0,"kind_detail":"motorway","ref":"A86\/A862","id":4289929},"arcs":[100]},{"type":"MultiLineString","properties":{"source":"openstreetmap.org","kind":"highway","sort_rank":383,"kind_detail":"motorway","ref":"A14","min_zoom":8.0},"arcs":[[101],[102]]},{"type":"MultiLineString","properties":{"kind":"major_road","name:en":"Two Stories Bridge","sort_rank":381,"landuse_kind":"urban_area","source":"openstreetmap.org","min_zoom":8.0,"kind_detail":"trunk","ref":"N10"},"arcs":[[103],[104]]},{"type":"MultiLineString","properties":{"source":"openstreetmap.org","kind":"highway","landuse_kind":"urban_area","sort_rank":383,"kind_detail":"motorway","ref":"A1","min_zoom":8.0},"arcs":[[105],[106],[107]]},{"type":"MultiLineString","properties":{"source":"openstreetmap.org","kind":"major_road","sort_rank":380,"kind_detail":"primary","ref":"1","min_zoom":8.0},"arcs":[[108],[109],[110],[111],[112],[113],[114],[115],[116]]},{"type":"MultiLineString","properties":{"source":"openstreetmap.org","kind":"major_road","landuse_kind":"urban_area","sort_rank":380,"kind_detail":"primary","min_zoom":8.0},"arcs":[[117],[118],[119],[120],[121],[122],[123],[124],[125],[126],[127],[128],[129],[130],[131],[132],[133],[134],[135],[136],[137],[138],[139],[140],[141],[142],[143],[144],[145],[146],[147],[148],[149],[150],[151],[152],[153],[154],[155],[156],[157],[158],[159],[160],[161],[162],[163],[164],[165],[166],[167],[168],[169],[170],[171],[172],[173],[174],[175],[176],[177],[178],[179],[180],[181],[182],[183],[184],[185],[186],[187],[188],[189],[190],[191],[192],[193],[194],[195],[196],[197],[198],[199],[200],[201],[202],[203],[204],[205],[206],[207],[208],[209],[210],[211],[212],[213],[214],[215],[216],[217],[218],[219],[220],[221],[222],[223],[224],[225],[226],[227],[228],[229],[230],[231],[232],[233],[234],[235],[236],[237],[238],[239],[240],[241],[242],[243],[244],[245],[246],[247],[248],[249],[250],[251],[252],[253],[254],[255],[256],[257],[258],[259],[260],[261],[262],[263],[264],[265],[266],[267],[268],[269],[270],[271],[272],[273],[274],[275],[276],[277],[278],[279],[280],[281],[282],[283],[284],[285],[286],[287],[288],[289],[290],[291],[292],[293],[294],[295],[296],[297],[298],[299],[300],[301],[302],[303],[304],[305],[306],[307],[308],[309],[310],[311],[312],[313],[314],[315],[316],[317],[318],[319],[320],[321],[322],[323],[324],[325],[326],[327],[328],[329],[330],[331],[332],[333],[334],[335],[336],[337],[338],[339],[340],[341],[342]]},{"type":"MultiLineString","properties":{"source":"openstreetmap.org","kind":"highway","landuse_kind":"urban_area","sort_rank":383,"kind_detail":"motorway","ref":"A82\/A862","min_zoom":8.0},"arcs":[[343],[344]]},{"type":"MultiLineString","properties":{"source":"openstreetmap.org","kind":"highway","landuse_kind":"urban_area","sort_rank":383,"kind_detail":"motorway","min_zoom":8.0},"arcs":[[345],[346],[347],[348],[349],[350],[351],[352],[353],[354],[355],[356],[357],[358]]},{"type":"MultiLineString","properties":{"source":"openstreetmap.org","kind":"major_road","kind_detail":"trunk","sort_rank":381,"landuse_kind":"urban_area","ref":"2","min_zoom":8.0},"arcs":[[359],[360],[361],[362],[363],[364],[365],[366],[367]]},{"type":"MultiLineString","properties":{"source":"openstreetmap.org","kind":"major_road","kind_detail":"trunk","sort_rank":381,"landuse_kind":"urban_area","ref":"A861","min_zoom":8.0},"arcs":[[368],[369]]},{"type":"MultiLineString","properties":{"source":"openstreetmap.org","kind":"major_road","landuse_kind":"residential","sort_rank":381,"kind_detail":"trunk","ref":"1","min_zoom":8.0},"arcs":[[370],[371]]},{"type":"MultiLineString","properties":{"source":"openstreetmap.org","kind":"major_road","kind_detail":"trunk","sort_rank":381,"landuse_kind":"urban_area","ref":"N10","min_zoom":8.0},"arcs":[[372],[373],[374],[375],[376],[377],[378],[379]]},{"type":"MultiLineString","properties":{"source":"openstreetmap.org","kind":"major_road","name:en":"Al Jami'ah Street","landuse_kind":"urban_area","sort_rank":380,"kind_detail":"primary","min_zoom":8.0},"arcs":[[380],[381]]},{"type":"LineString","properties":{"source":"openstreetmap.org","kind":"major_road","sort_rank":381,"kind_detail":"trunk","ref":"4;5","min_zoom":8.0,"id":389704169},"arcs":[382]},{"type":"MultiLineString","properties":{"source":"openstreetmap.org","kind":"highway","landuse_kind":"urban_area","sort_rank":383,"kind_detail":"motorway","ref":"A86\/N11\/D383","min_zoom":8.0},"arcs":[[383],[384],[385],[386]]},{"type":"MultiLineString","properties":{"source":"openstreetmap.org","kind":"major_road","kind_detail":"trunk","sort_rank":381,"landuse_kind":"urban_area","ref":"A1","min_zoom":8.0},"arcs":[[387],[388]]},{"type":"MultiLineString","properties":{"source":"openstreetmap.org","kind":"major_road","kind_detail":"trunk","sort_rank":381,"landuse_kind":"urban_area","ref":"3","min_zoom":8.0},"arcs":[[389],[390],[391],[392],[393],[394]]},{"type":"MultiLineString","properties":{"source":"openstreetmap.org","kind":"major_road","sort_rank":381,"kind_detail":"trunk","ref":"3","min_zoom":8.0},"arcs":[[395],[396],[397],[398],[399]]},{"type":"MultiLineString","properties":{"sort_rank":380,"kind_detail":"primary","min_zoom":8.0,"kind":"major_road","source":"openstreetmap.org"},"arcs":[[400],[401],[402],[403],[404],[405],[406],[407],[408],[409],[410],[411],[412],[413],[414],[415],[416],[417],[418],[419],[420],[421],[422],[423],[424],[425],[426],[427],[428],[429],[430],[431],[432],[433],[434],[435],[436],[437],[438],[439],[440],[441],[442],[443],[444],[445],[446],[447],[448],[449],[450],[451],[452],[453],[454],[455],[456],[457]]},{"type":"LineString","properties":{"kind":"major_road","name:en":"Dora Expressway","sort_rank":381,"kind_detail":"trunk","source":"openstreetmap.org","min_zoom":8.0,"landuse_kind":"urban_area","ref":"A10","id":4074616},"arcs":[458]},{"type":"LineString","properties":{"kind":"major_road","name:en":"Al Rubaie Street","sort_rank":380,"landuse_kind":"urban_area","source":"openstreetmap.org","min_zoom":8.0,"kind_detail":"primary","id":497097773},"arcs":[459]},{"type":"MultiLineString","properties":{"source":"openstreetmap.org","kind":"highway","landuse_kind":"urban_area","sort_rank":383,"kind_detail":"motorway","ref":"A862","min_zoom":8.0},"arcs":[[460],[461]]},{"type":"MultiLineString","properties":{"source":"openstreetmap.org","kind":"highway","landuse_kind":"urban_area","sort_rank":383,"kind_detail":"motorway","ref":"A86","min_zoom":8.0},"arcs":[[462],[463],[464],[465]]},{"type":"MultiLineString","properties":{"source":"openstreetmap.org","kind":"major_road","kind_detail":"trunk","sort_rank":381,"landuse_kind":"military","min_zoom":8.0},"arcs":[[466],[467]]},{"type":"LineString","properties":{"kind":"major_road","name:en":"14 Ramadhan St.","sort_rank":380,"landuse_kind":"urban_area","source":"openstreetmap.org","min_zoom":8.0,"kind_detail":"primary","id":445116000},"arcs":[468]},{"type":"MultiLineString","properties":{"source":"openstreetmap.org","kind":"major_road","landuse_kind":"residential","sort_rank":381,"kind_detail":"trunk","ref":"2","min_zoom":8.0},"arcs":[[469],[470],[471],[472]]},{"type":"MultiLineString","properties":{"source":"openstreetmap.org","kind":"major_road","kind_detail":"trunk","sort_rank":381,"landuse_kind":"urban_area","ref":"A10","min_zoom":8.0},"arcs":[[473],[474],[475],[476]]},{"type":"MultiLineString","properties":{"source":"openstreetmap.org","kind":"major_road","landuse_kind":"urban_area","sort_rank":380,"kind_detail":"primary","is_bicycle_related":true,"min_zoom":8.0},"arcs":[[477],[478],[479],[480]]},{"type":"MultiLineString","properties":{"source":"openstreetmap.org","kind":"highway","landuse_kind":"urban_area","sort_rank":383,"kind_detail":"motorway","ref":"A14","min_zoom":8.0},"arcs":[[481],[482],[483],[484],[485]]},{"type":"MultiLineString","properties":{"source":"openstreetmap.org","kind":"major_road","kind_detail":"trunk","sort_rank":381,"landuse_kind":"urban_area","min_zoom":8.0},"arcs":[[486],[487],[488],[489],[490],[491],[492],[493],[494],[495],[496],[497],[498],[499],[500],[501],[502],[503],[504],[505],[506],[507],[508],[509],[510],[511],[512],[513],[514],[515],[516],[517],[518],[519],[520],[521],[522],[523],[524],[525],[526],[527],[528],[529],[530],[531],[532],[533],[534],[535],[536],[537],[538],[539],[540],[541],[542],[543],[544],[545],[546],[547],[548],[549],[550],[551],[552],[553],[554],[555],[556],[557],[558],[559],[560],[561],[562],[563],[564],[565],[566],[567],[568],[569],[570],[571],[572],[573],[574],[575],[576],[577],[578],[579],[580],[581]]},{"type":"LineString","properties":{"kind":"major_road","sort_rank":380,"landuse_kind":"urban_area","source":"openstreetmap.org","min_zoom":8.0,"kind_detail":"primary","ref":"A861","id":4075199},"arcs":[582]},{"type":"MultiLineString","properties":{"source":"openstreetmap.org","kind":"major_road","landuse_kind":"urban_area","sort_rank":380,"kind_detail":"primary","ref":"10","min_zoom":8.0},"arcs":[[583],[584],[585],[586],[587],[588],[589],[590]]},{"type":"MultiLineString","properties":{"kind":"major_road","network":"IQ-roads","sort_rank":381,"landuse_kind":"urban_area","source":"openstreetmap.org","min_zoom":8.0,"kind_detail":"trunk","shield_text":"5","ref":"4;5"},"arcs":[[591],[592],[593],[594],[595],[596],[597],[598],[599],[600]]},{"type":"MultiLineString","properties":{"source":"openstreetmap.org","kind":"major_road","kind_detail":"trunk","sort_rank":381,"landuse_kind":"urban_area","ref":"N1","min_zoom":8.0},"arcs":[[601],[602],[603],[604],[605],[606],[607],[608],[609],[610],[611]]},{"type":"MultiLineString","properties":{"source":"openstreetmap.org","kind":"major_road","kind_detail":"trunk","sort_rank":381,"landuse_kind":"urban_area","ref":"A2","min_zoom":8.0},"arcs":[[612],[613]]},{"type":"MultiLineString","properties":{"kind":"major_road","network":"IQ-roads","sort_rank":381,"kind_detail":"trunk","source":"openstreetmap.org","min_zoom":8.0,"shield_text":"5","ref":"4;5"},"arcs":[[614],[615],[616],[617],[618]]},{"type":"MultiLineString","properties":{"kind":"highway","sort_rank":383,"landuse_kind":"military","source":"openstreetmap.org","min_zoom":8.0,"kind_detail":"motorway","ref":"D383","id":4074917},"arcs":[[619],[620]]},{"type":"MultiLineString","properties":{"source":"openstreetmap.org","kind":"major_road","kind_detail":"trunk","sort_rank":381,"landuse_kind":"urban_area","ref":"N363","min_zoom":8.0},"arcs":[[621],[622]]},{"type":"MultiLineString","properties":{"source":"openstreetmap.org","kind":"major_road","landuse_kind":"residential","sort_rank":380,"kind_detail":"primary","min_zoom":8.0},"arcs":[[623],[624],[625],[626],[627],[628],[629],[630],[631],[632],[633],[634],[635],[636],[637],[638],[639],[640],[641],[642],[643],[644],[645]]},{"type":"MultiLineString","properties":{"sort_rank":383,"kind_detail":"motorway","min_zoom":8.0,"kind":"highway","source":"openstreetmap.org"},"arcs":[[646],[647]]},{"type":"MultiLineString","properties":{"kind":"highway","network":null,"sort_rank":383,"kind_detail":"motorway","source":"openstreetmap.org","min_zoom":8.0,"all_networks":[null],"shield_text":"1","ref":"1","all_shield_texts":["1"]},"arcs":[[648],[649],[650],[651],[652],[653],[654],[655]]},{"type":"LineString","properties":{"kind":"major_road","sort_rank":381,"landuse_kind":"urban_area","name:ar":"\u0634\u0627\u0631\u0639 \u0627\u0644\u0633\u0639\u062f\u0648\u0646","source":"openstreetmap.org","min_zoom":8.0,"kind_detail":"trunk","id":4074578},"arcs":[656]},{"type":"LineString","properties":{"kind":"major_road","name:en":"Baghdad Airport Road","sort_rank":381,"landuse_kind":"urban_area","source":"openstreetmap.org","min_zoom":8.0,"kind_detail":"trunk","id":4074619},"arcs":[657]},{"type":"MultiLineString","properties":{"kind":"major_road","name:en":"Dora Expressway","sort_rank":381,"landuse_kind":"urban_area","source":"openstreetmap.org","min_zoom":8.0,"kind_detail":"trunk","ref":"A86"},"arcs":[[658],[659],[660],[661],[662]]},{"type":"LineString","properties":{"kind":"highway","sort_rank":383,"landuse_kind":"urban_area","source":"openstreetmap.org","min_zoom":8.0,"kind_detail":"motorway","ref":"A86\/N11\/D383;A86","id":4289928},"arcs":[663]},{"type":"LineString","properties":{"source":"openstreetmap.org","kind":"major_road","kind_detail":"trunk","sort_rank":381,"landuse_kind":"urban_area","ref":"A13","min_zoom":8.0},"arcs":[664]},{"type":"MultiLineString","properties":{"source":"openstreetmap.org","kind":"major_road","sort_rank":381,"kind_detail":"trunk","ref":"1","min_zoom":8.0},"arcs":[[665],[666],[667],[668],[669],[670],[671],[672],[673]]},{"type":"LineString","properties":{"source":"openstreetmap.org","kind":"major_road","name:en":"Dora Expressway","landuse_kind":"urban_area","sort_rank":380,"kind_detail":"primary","min_zoom":8.0},"arcs":[674]},{"type":"MultiLineString","properties":{"kind":"major_road","name:en":"Jisr al Jadriyah","sort_rank":381,"landuse_kind":"urban_area","name:fr":"Jisr al Jadriyah","name:de":"Jisr al Jadriyah","source":"openstreetmap.org","min_zoom":8.0,"int_name":"Jisr al J\u0101dr\u012byah, \u062c\u0633\u0631 \u0627\u0644\u062c\u0627\u062f\u0631\u064a\u0629, Jisr al Jadriyah, \u062c\u0633\u0631 \u0627\u0644\u062c\u0627\u062f\u0631\u064a\u0629","kind_detail":"trunk"},"arcs":[[675],[676]]},{"type":"MultiLineString","properties":{"kind":"major_road","network":"IQ-roads","sort_rank":381,"kind_detail":"trunk","source":"openstreetmap.org","min_zoom":8.0,"landuse_kind":"residential","shield_text":"5","ref":"4;5"},"arcs":[[677],[678],[679],[680],[681],[682],[683]]},{"type":"LineString","properties":{"kind":"major_road","name:en":"Dora Expressway","sort_rank":380,"kind_detail":"primary","is_bicycle_related":true,"source":"openstreetmap.org","min_zoom":8.0,"landuse_kind":"urban_area"},"arcs":[684]},{"type":"MultiLineString","properties":{"source":"openstreetmap.org","kind":"major_road","landuse_kind":"residential","sort_rank":380,"kind_detail":"primary","ref":"10","min_zoom":8.0},"arcs":[[685],[686],[687],[688],[689]]},{"type":"MultiLineString","properties":{"source":"openstreetmap.org","kind":"major_road","name:en":"The Four Streets","kind_detail":"primary","sort_rank":380,"landuse_kind":"urban_area","min_zoom":8.0},"arcs":[[690],[691],[692],[693]]},{"type":"LineString","properties":{"source":"openstreetmap.org","kind":"major_road","landuse_kind":"residential","sort_rank":381,"kind_detail":"trunk","min_zoom":8.0},"arcs":[694]},{"type":"MultiLineString","properties":{"source":"openstreetmap.org","kind":"major_road","kind_detail":"trunk","sort_rank":381,"landuse_kind":"urban_area","ref":"A110","min_zoom":8.0},"arcs":[[695],[696]]},{"type":"MultiLineString","properties":{"source":"openstreetmap.org","kind":"major_road","landuse_kind":"residential","sort_rank":381,"kind_detail":"trunk","ref":"3","min_zoom":8.0},"arcs":[[697],[698],[699]]}]},"earth":{"type":"GeometryCollection","geometries":[{"type":"Polygon","properties":{"sort_rank":10,"source":"naturalearthdata.com","kind":"earth","min_zoom":0.0,"id":4729},"arcs":[[700]]}]},"landuse":{"type":"GeometryCollection","geometries":[{"type":"Polygon","properties":{"kind":"residential","name:en":"Balad","name":"\u0628\u0644\u062f","area":11464600,"sort_rank":20,"name:fr":"Balad","name:de":"Balad","source":"openstreetmap.org","min_zoom":8.0,"int_name":"Balad - \u0628\u0644\u062f","tier":2,"id":287897721},"arcs":[[701]]},{"type":"MultiPolygon","properties":{"source":"openstreetmap.org","kind":"military","tier":3,"area":439717381,"sort_rank":45,"min_zoom":8.0},"arcs":[[[702]],[[703]],[[704]],[[705]],[[706]],[[707]],[[708]]]},{"type":"MultiPolygon","properties":{"source":"naturalearthdata.com","kind":"urban_area","name":"","area":4077917848,"sort_rank":11,"min_zoom":4.0},"arcs":[[[709]],[[710]],[[711]],[[712]],[[713]],[[714]],[[715]]]},{"type":"MultiPolygon","properties":{"source":"openstreetmap.org","kind":"aerodrome","tier":3,"area":67182680,"sort_rank":60,"min_zoom":8.0},"arcs":[[[716]],[[717]]]},{"type":"MultiPolygon","properties":{"source":"openstreetmap.org","kind":"residential","tier":2,"area":393867679,"sort_rank":20,"min_zoom":8.0},"arcs":[[[718]],[[719]],[[720]],[[721]],[[722]],[[723]],[[724]],[[725]],[[726]],[[727]]]},{"type":"Polygon","properties":{"kind":"residential","name":"\u0633\u0627\u0645\u0631\u0627\u0621","area":23416500,"sort_rank":20,"name:de":"Samarra","source":"openstreetmap.org","min_zoom":8.0,"tier":2,"id":292117867,"name:ja":"\u30b5\u30fc\u30de\u30c3\u30e9\u30fc"},"arcs":[[728]]},{"type":"Polygon","properties":{"kind":"aerodrome","area":36706900,"sort_rank":60,"operator":"United States Air Force","source":"openstreetmap.org","min_zoom":8.0,"tier":3,"id":82693406},"arcs":[[729]]},{"type":"Polygon","properties":{"kind":"residential","name:en":"Camp Ashraf","int_name":"Camp Ashraf","name":"\u0645\u0639\u0633\u0643\u0631 \u0623\u0634\u0631\u0641","area":52044400,"sort_rank":20,"source":"openstreetmap.org","min_zoom":8.0,"alt_name:en":"Ashraf City;Camp Hurriya","tier":2,"id":309757786},"arcs":[[730]]}]}},"type":"Topology","transform":{"translate":[43.59375,33.1375511923],"scale":[0.0003433228,0.0002855451]},"arcs":[[[4096,532],[-198,-42]],[[3898,490],[-56,-196],[-83,-142],[-10,-152]],[[2401,2063],[-9,79],[-73,168],[11,86],[102,179],[9,96],[55,73],[-19,184],[-126,81],[-62,89],[-223,41],[-7,141],[92,157],[4,90],[83,147],[113,58],[87,142],[126,55],[75,63],[-3,104]],[[0,2196],[186,-8],[203,-128],[693,-22],[186,-32],[96,-74],[66,-149]],[[1430,1783],[198,177],[54,139],[89,-14],[146,41],[147,-21],[97,36],[123,91],[39,-125],[78,-44]],[[2401,2063],[48,-33],[10,-47],[-112,-81],[9,-226],[-47,-14],[-4,-70],[94,-56],[-1,-47],[193,29],[16,-48],[-108,-75],[-189,-58],[-18,-254],[215,5],[14,-97],[94,65],[72,-38],[88,32],[91,-73],[4,41],[1136,-8],[-21,-181],[-87,-339]],[[1284,0],[-50,93],[-92,11],[-5,-50],[-25,-13],[-81,40],[-74,157],[-126,29],[3,-47],[70,-43],[-37,-41],[-62,7],[-50,42],[-24,134],[11,96],[53,37],[192,-116],[119,-24],[3,18],[0,30],[-56,17],[-70,66],[-60,-9],[-113,58],[0,119],[24,4],[-32,150],[175,-4],[145,-40],[15,95],[133,79],[66,111],[72,-23],[57,-58],[-32,100],[-59,18],[-4,22],[57,112],[219,2],[-13,172],[-44,3],[-17,122],[-142,307]],[[0,572],[9,-28],[-9,-47],[0,75]],[[0,572],[9,-28],[-9,-47]],[[1977,489],[82,41],[70,4]],[[1866,1433],[2,-126]],[[1869,1307],[-2,126]],[[2129,534],[71,-35],[44,-75]],[[2244,424],[-51,93],[-23,6]],[[2248,413],[18,-65]],[[2266,348],[-17,63]],[[1863,1737],[1,-193]],[[1865,1544],[-1,194]],[[1668,643],[34,4]],[[1702,647],[44,5]],[[1748,651],[-46,-4]],[[1702,647],[-29,-3]],[[2183,516],[-58,21]],[[2077,905],[-2,4]],[[2266,757],[8,0]],[[2499,541],[-6,-6]],[[2494,534],[6,6]],[[2549,583],[44,56],[22,43],[23,30],[24,45],[-114,-174]],[[2185,1019],[12,-1]],[[2197,1018],[-12,1]],[[2158,672],[11,0]],[[2169,672],[-11,2]],[[2185,1019],[-7,0],[-132,-49]],[[2046,969],[139,50]],[[2546,580],[48,-24]],[[2671,565],[-62,-15],[-62,30]],[[2609,550],[10,2]],[[2667,559],[3,0]],[[654,746],[265,5]],[[919,751],[12,0],[2,0]],[[933,751],[274,-102],[51,-30]],[[1258,619],[-51,31],[-271,101],[-3,0]],[[933,751],[-14,0]],[[919,751],[-247,9]],[[1420,567],[56,4]],[[1476,571],[-56,-3]],[[1515,575],[-39,-4]],[[2476,580],[-116,-56]],[[2360,523],[117,56]],[[2378,660],[30,-39]],[[3250,2277],[-1,-4]],[[445,915],[-58,11]],[[388,925],[57,-11]],[[517,901],[49,-9],[91,-140]],[[657,753],[-91,140],[-49,9]],[[1945,82],[-42,19]],[[1903,100],[41,-19]],[[784,3513],[-13,14],[-5,1],[-78,2],[-196,269],[4,78],[84,157],[1,3],[-8,21]],[[574,4055],[-79,-178],[-3,-79],[196,-269],[81,-2],[17,-22]],[[1937,2228],[-7,-81]],[[2462,1864],[35,79],[90,145],[107,211],[0,5]],[[2694,2304],[6,29]],[[2700,2333],[22,127]],[[2720,2461],[-20,-128]],[[2700,2333],[-5,-27],[-1,-2]],[[2694,2304],[-108,-216],[-90,-145],[-34,-77]],[[2704,3629],[73,-194],[10,-139],[-105,-659]],[[2682,2637],[30,101],[75,557],[-9,139],[-74,195]],[[2704,3629],[-15,208],[109,259]],[[2754,1484],[-29,-188]],[[2754,1484],[6,30]],[[2759,1515],[-5,-31]],[[2759,1515],[1,0],[0,1],[-1,-1]],[[2793,241],[63,-40]],[[2855,202],[-61,39]],[[2806,426],[-3,-96]],[[2805,328],[1,99]],[[2924,158],[130,-91]],[[3054,68],[-130,90]],[[3117,18],[23,-18]],[[3141,0],[-24,19]],[[4096,1869],[-284,-45],[-144,30],[-398,262]],[[2722,2461],[-1,1],[-1,-1],[2,-1],[0,1]],[[2075,909],[-40,71]],[[2058,933],[9,-41]],[[2063,881],[28,-4]],[[2078,905],[-6,-10]],[[2072,895],[-7,-10]],[[2067,887],[5,8]],[[2072,895],[5,10]],[[2682,2637],[-12,-102],[3,-4]],[[2673,2531],[42,-63]],[[2715,2468],[3,-5],[2,-2]],[[2721,2462],[-3,2],[-3,4]],[[2715,2468],[-43,58],[1,5]],[[2673,2531],[9,106]],[[2876,2352],[-17,36],[-64,40],[-4,2],[-64,28]],[[2727,2458],[-3,1],[-2,1]],[[2732,2454],[-5,4]],[[2727,2458],[-5,3]],[[2237,935],[61,-104]],[[1538,590],[-98,-88]],[[1440,501],[99,89]],[[2358,521],[15,-34]],[[2373,487],[-13,35]],[[1869,1281],[4,-28],[18,-48],[59,-113],[150,-230]],[[2035,980],[-84,112],[-82,189]],[[2101,862],[-42,69]],[[641,3722],[-38,58]],[[603,3780],[-2,2],[36,103]],[[637,3885],[1,2],[-65,171]],[[574,4055],[7,-20],[56,-150]],[[637,3885],[0,-1],[-34,-104]],[[603,3780],[-2,-5],[40,-53]],[[641,3722],[103,-16]],[[747,3706],[24,-162],[15,-39]],[[784,3513],[-12,31],[-8,104],[-16,59]],[[435,831],[-9,10]],[[443,707],[-2,-1]],[[441,705],[32,15]],[[520,804],[-26,-3]],[[494,801],[26,3]],[[520,804]],[[520,804]],[[520,804]],[[520,804],[0,-3]],[[520,801],[0,3]],[[520,804]],[[1543,569],[175,16]],[[1609,2995],[-4,22]],[[1622,3005]],[[1718,585],[4,1]],[[1722,586],[-4,-1]],[[1722,586]],[[1722,586]],[[1722,586],[-1,0],[1,0]],[[1722,586],[2,0]],[[1724,586],[-2,0]],[[1724,586],[39,7]],[[1763,593],[3,1]],[[1766,595],[-3,-2]],[[1767,594],[4,1]],[[1771,595],[-4,0]],[[1771,595],[26,5]],[[1797,600],[15,2]],[[1812,602],[67,10]],[[1879,612],[101,-18],[146,-1]],[[2126,594],[-247,18]],[[2052,433],[-24,-10],[24,9]],[[2089,512],[25,-46],[36,-30],[23,-13],[4,-1]],[[2177,422],[0,-1],[4,-2],[7,-18],[1,-53],[0,-7]],[[2189,341],[1,-49]],[[2189,341],[0,61],[-7,17],[-5,3]],[[2177,422],[-4,2],[-23,13],[-60,75]],[[2116,443],[6,4]],[[2124,447],[-68,-9],[-4,-4],[72,9]],[[2128,328],[-3,4]],[[2127,593],[52,-9]],[[2127,594],[-1,0],[0,-1]],[[2126,593],[1,0]],[[2127,593],[0,1]],[[2177,585],[-1,1]],[[2176,586],[-49,8]],[[2179,425],[-2,-3]],[[2177,422]],[[2177,422],[-54,-88],[5,-6]],[[2128,328],[56,-40]],[[2147,373],[-2,-4],[42,-27],[2,-1]],[[2189,341]],[[2169,657],[8,-69]],[[2177,588],[0,-1]],[[2177,587],[0,-2]],[[2178,586],[-1,0]],[[2177,586],[0,2]],[[2177,588],[-1,4]],[[2177,586],[-1,0]],[[2176,586],[0,-1]],[[2176,584],[1,1]],[[2177,585],[1,1]],[[2179,584],[-1,1]],[[2178,585],[-1,1]],[[2177,586],[0,1]],[[2177,587]],[[2178,586],[-1,-1]],[[2177,585]],[[2177,585],[2,-1]],[[2223,579],[-1,0]],[[2222,579]],[[2222,579],[-2,1]],[[2220,580],[-42,5]],[[2178,585],[0,1]],[[2181,560],[-2,2]],[[2179,584],[35,-6]],[[2187,514],[4,0]],[[2191,514],[3,0]],[[2194,514]],[[2194,514],[4,-1]],[[2198,513]],[[2190,292],[-1,49]],[[2195,507],[-1,6]],[[2194,513],[0,1]],[[2194,514],[-1,3]],[[2201,540],[-10,-24],[0,-2]],[[2191,514],[2,-10]],[[2194,504],[0,9]],[[2194,513],[0,1]],[[2194,514],[9,25]],[[2198,532],[4,8]],[[2202,540],[0,1]],[[2202,541],[3,5]],[[2205,546],[-3,-5]],[[2202,541],[-1,-1]],[[2201,540],[-3,-7]],[[2198,513]],[[2198,513],[11,5],[1,1]],[[2202,542],[0,-1]],[[2202,541],[-1,-1]],[[2201,540]],[[2201,540],[1,0]],[[2202,540],[1,-1]],[[2203,539],[-1,2]],[[2202,541]],[[2202,541]],[[2202,541],[0,1]],[[2214,578],[-12,-36]],[[2204,541],[18,34]],[[2214,578],[6,0]],[[2227,585],[-2,-1]],[[2225,584],[-5,-4]],[[2220,580],[-2,-2]],[[2222,714],[-3,0]],[[2221,712],[1,2]],[[2225,583],[-2,-3],[-1,-1]],[[2222,579]],[[2222,579],[-1,-1]],[[2221,578],[-1,-2],[2,-1]],[[2222,575],[1,2]],[[2223,577],[-2,1]],[[2222,714],[14,24]],[[2249,622],[-24,-38]],[[2225,584],[-3,-5]],[[2222,579]],[[2222,579],[0,-1]],[[2223,577],[27,44]],[[2223,577],[42,-1],[16,14]],[[2224,579],[2,3]],[[2281,591],[-51,-8]],[[2236,738],[23,20]],[[2259,758],[7,-1]],[[2274,757],[6,-1]],[[2280,756],[53,21]],[[2332,778],[-52,-22]],[[2372,548],[-47,-9]],[[2325,538],[47,10]],[[2331,597],[33,22],[-34,-22]],[[2372,548],[43,25],[3,35]],[[2387,845],[50,-48]],[[2437,798],[-50,48]],[[2427,624],[7,7]],[[2438,799],[-1,0]],[[2439,796],[48,-45]],[[2488,752],[-48,45]],[[2480,636],[-9,-2],[-19,-21]],[[2453,612],[27,24]],[[2476,640],[-16,15]],[[2462,573],[0,-1]],[[2462,572],[2,0]],[[2465,574],[-3,0]],[[2465,572],[0,1]],[[2476,640],[4,-4]],[[2480,637],[-4,3]],[[2491,586],[-12,-5]],[[2480,580],[11,6]],[[2480,637],[0,-1]],[[2480,636]],[[2511,670],[-31,-33]],[[2481,636],[-1,1]],[[2480,636],[1,0]],[[2480,636],[3,-2]],[[2483,634],[-2,2]],[[2497,620],[-14,14]],[[2563,653],[-39,-47],[-4,-4]],[[2520,602],[-2,-3],[-24,-11]],[[2494,587],[24,12],[2,2]],[[2520,601],[5,5],[1,1]],[[2497,620],[3,-3]],[[2501,617],[-4,3]],[[2500,617],[0,-1],[1,1]],[[2501,617],[-1,0]],[[2501,616],[2,-1]],[[2503,615],[-2,2]],[[2515,604],[-12,11]],[[2515,604],[4,-2]],[[2519,602],[1,0]],[[2520,602]],[[2520,602],[0,-1]],[[2520,601],[1,0]],[[2526,608],[-7,-6]],[[2519,602]],[[2519,602]],[[2519,603],[0,-1]],[[2519,602],[1,0]],[[2520,602]],[[2521,601],[5,6]],[[2526,607],[37,46]],[[2627,695],[-1,0]],[[2690,331],[21,-42],[3,-1]],[[2714,288],[-24,44]],[[2710,861],[1,1]],[[2711,862],[-1,2]],[[2711,862],[116,-21]],[[2711,288],[1,-1]],[[2712,287],[11,-21]],[[2713,288],[-1,0],[0,-1]],[[2712,287]],[[2714,288],[68,-42]],[[2723,266],[1,-4]],[[2725,263],[-2,3]],[[2725,261],[1,-1]],[[2726,260],[0,1]],[[2726,260],[0,-1]],[[2726,259],[11,-20]],[[2737,239],[-11,20]],[[2781,237],[2,2]],[[2784,246]],[[2784,246],[-2,0]],[[2782,246],[1,-2]],[[2785,247],[-1,-1]],[[2784,246]],[[2824,73],[36,-72],[0,-1]],[[2861,0],[0,1],[-37,72]],[[2876,2221],[51,23]],[[2926,2245],[-50,-21]],[[3251,2280],[-207,-4],[-24,-4],[-91,-25]],[[2929,2245],[115,30],[206,2]],[[1766,594],[1,0],[0,1],[-1,-1]],[[2438,796],[1,0],[0,2],[-2,0],[1,-2]],[[2477,581],[0,-2],[3,0],[-1,2]],[[2479,581],[-2,0]],[[2492,588],[-1,-1],[1,-2],[2,2],[-2,1]],[[2725,261],[1,1],[-1,1]],[[2725,263],[-1,-1]],[[2724,262],[1,-1]],[[2235,968],[2,-33]],[[2299,831],[-61,104],[4,32]],[[1673,644],[-19,-2],[-114,-51]],[[1540,590],[128,53]],[[1746,652],[26,3]],[[1780,655],[-32,-4]],[[2028,662],[88,10]],[[2077,901],[1,4]],[[2080,555],[2,-13]],[[2081,542],[2,-10]],[[2086,528],[-4,14]],[[2242,967],[-1,-10]],[[2306,822],[6,-13]],[[2368,734],[14,-14]],[[2382,720],[-13,15]],[[2532,592],[7,-17]],[[2924,2253],[-48,99]],[[2924,2253],[3,-6]],[[2928,2247],[-4,6]],[[2927,2244],[26,-76]],[[2953,2167],[-24,78]],[[2971,2115],[-1,3],[-1,2]],[[2969,2120]],[[2969,2120]],[[2969,2120],[0,-2],[1,-4],[0,-1]],[[2329,596],[-74,-38],[-43,-33],[-29,-9]],[[2201,514],[128,81]],[[1949,2432],[-4,-72]],[[1945,2360],[4,73]],[[2345,576],[4,-31]],[[2350,545],[-4,31]],[[2349,542],[8,-18]],[[2359,525],[-8,18]],[[2373,487],[25,-54]],[[2398,433],[-25,54]],[[2348,544],[1,-1],[2,1],[-3,0]],[[2358,525],[-1,-3],[2,-1],[1,3],[-2,1]],[[2357,523],[-62,-18]],[[2296,504],[61,17]],[[3748,2909],[-9,1]],[[2307,816],[61,-82]],[[2369,735],[-61,81]],[[2382,720],[164,-140]],[[2547,580],[-165,140]],[[2100,862],[7,-11]],[[2108,851],[-7,11]],[[2970,2113],[-2,-43]],[[2968,2045],[6,71],[58,9]],[[2977,2120],[-8,-5]],[[2971,2107],[0,8]],[[3033,2128],[-21,-1]],[[2968,2114],[10,5]],[[2772,1531],[-12,-15]],[[2760,1515],[12,16]],[[2926,1873],[-84,-226],[-70,-116]],[[2926,1873],[37,105],[3,36]],[[2964,2014],[-38,-141]],[[441,706],[-60,-35],[-336,143],[-45,-1]],[[0,802],[45,12],[336,-143],[60,34]],[[51,1194],[0,11]],[[116,1082],[-61,51]],[[55,1133],[-4,61]],[[51,1194],[4,-61]],[[55,1133],[1,-1],[60,-51]],[[52,1227],[-1,-22]],[[52,1237],[-1,-12]],[[52,1227],[0,8]],[[56,1355],[-4,-120]],[[56,1355],[71,60],[113,237],[126,508],[74,152],[91,70],[92,230],[12,212],[42,109],[161,217],[-21,260]],[[117,1082],[153,-131]],[[426,841],[-53,60],[-84,22],[-19,28]],[[747,3708],[-3,-2],[3,0]],[[817,3410],[5,1]],[[821,3412],[-4,-2]],[[820,3413],[0,-2]],[[1543,569],[-28,6]],[[1633,2857],[0,2]],[[1633,2859],[-20,117]],[[1626,2964],[8,-96],[-1,-9]],[[1633,2859],[0,-1]],[[2184,288],[6,-5]],[[2190,292],[0,-9]],[[2190,283],[0,9]],[[2876,2224],[-275,-120]],[[2601,2104],[-8,-4],[-2,0],[-5,-12]],[[2589,2094],[9,8]],[[2589,2094],[287,127]],[[2601,2104]],[[2601,2104],[-5,6]],[[2737,239],[19,-35]],[[2756,204],[-19,35]],[[2757,202],[-1,2]],[[2765,213],[16,24]],[[2765,213],[59,-140]],[[2824,73],[-59,140]],[[2827,841],[52,-38],[57,9],[75,-34]],[[3616,856],[-198,-33],[-163,-3]],[[3255,820],[-96,-2]],[[3159,818],[-3,0],[-67,-41],[-62,-85],[-56,-108]],[[2972,584],[118,192],[69,42]],[[3159,818],[1,0],[95,2]],[[3255,820],[164,2],[197,33]],[[2980,618],[33,157]],[[3011,778],[2,-1]],[[3013,777],[2,-1]],[[3013,779],[-2,-1]],[[3283,2090],[-53,-98],[-11,-131],[-168,-360],[-22,-189],[26,-144],[-47,-254],[5,-134]],[[3013,780],[0,-3]],[[3013,777],[0,-2]],[[3015,776],[51,-27]],[[3067,751],[-2,0]],[[3293,4096],[105,-286],[24,-158],[362,-137],[262,-285]],[[4046,3230],[32,-146]],[[4078,3084],[-32,146]],[[747,3707],[1,-1],[1,1],[-1,1],[-1,-1]],[[2397,386],[65,23],[19,104]],[[2481,636],[30,34]],[[2067,892],[-20,-45],[3,-24]],[[2051,823],[16,64]],[[2050,823],[31,-281]],[[2082,542],[-31,281]],[[2058,659],[2,-18]],[[2298,831],[9,-15]],[[2506,544],[64,-74]],[[2571,470],[-65,74]],[[2176,592],[-7,65]],[[2953,2168],[1,-3]],[[2954,2165],[15,-45]],[[2969,2120],[-3,6],[-12,39]],[[2954,2165],[-1,2]],[[2250,134],[-12,-134]],[[2238,0],[13,134]],[[2398,433],[-2,-40]],[[2397,394],[1,39]],[[2125,332],[23,40]],[[2148,372],[32,54]],[[2189,342],[-1,0],[-40,30]],[[2148,372],[0,1]],[[1772,655],[242,7]],[[2014,662],[14,0]],[[2158,674],[-42,-1],[-102,-11]],[[2014,662],[-3,0],[-231,-7]],[[2116,672],[42,0]],[[1923,460],[-9,-20]],[[1922,431],[3,28]],[[2046,970],[-3,0]],[[2044,967],[2,2]],[[2159,785],[0,1]],[[2228,453],[-49,-28]],[[2180,426],[48,27]],[[2194,514],[-3,0]],[[2191,514],[-5,1]],[[2191,515],[0,-1]],[[2191,514],[5,-9],[4,-6]],[[2197,1018],[12,-4]],[[2209,1019],[-12,-1]],[[2201,500],[0,14]],[[2209,1014],[6,-27],[496,-467],[3,0]],[[2230,979],[-16,36]],[[2217,990],[-1,0]],[[2806,427],[-48,61],[-40,32],[-151,142],[-253,238],[-98,92]],[[2244,424],[4,-11]],[[2249,411],[-5,13]],[[2269,513],[-24,-38]],[[2246,475],[23,38]],[[2266,348],[5,-129]],[[2273,218],[-7,130]],[[2271,216],[0,-4]],[[2272,212],[1,4]],[[2277,510],[19,-6]],[[2295,505],[-18,6]],[[2462,1866],[-117,-256],[-38,-165],[-17,-371]],[[2291,1074],[15,214],[2,157],[38,164],[72,155],[44,100]],[[2304,818],[-4,-38],[4,-39]],[[2304,740],[44,-43]],[[2305,741],[-1,76]],[[2349,697],[-44,43]],[[2330,597],[-1,-1]],[[2329,595],[2,2]],[[2350,695],[12,-12]],[[2363,684],[-13,11]],[[2362,683],[2,-1],[1,1],[-2,1],[-1,-1]],[[2363,682],[7,-11]],[[2370,670],[-6,12]],[[2370,671],[1,-4]],[[2370,671],[8,-11]],[[2409,622],[-39,48]],[[2373,668],[-3,2]],[[2396,393],[-1,-13]],[[2397,384],[0,10]],[[2419,609],[-8,11]],[[2418,610],[1,-1]],[[2419,608],[20,-23]],[[2439,587],[-20,22]],[[2439,587],[2,-3]],[[2506,544],[-64,41]],[[2442,584],[64,-40]],[[2570,470],[20,-23]],[[2591,448],[-20,22]],[[2591,445],[35,-49],[64,-65]],[[2690,332],[-97,114]],[[2662,757],[47,95]],[[2689,541],[4,0]],[[2693,541],[-1,3]],[[2693,541],[21,-20]],[[2708,861],[2,0]],[[2710,861],[-1,3],[-1,-1],[0,-2]],[[2708,861],[1,-9]],[[2710,868],[-1,-4]],[[2709,852],[1,9]],[[2710,864],[0,4]],[[2710,868],[15,428]],[[2714,521],[0,-1]],[[2714,520],[1,-1]],[[2714,521],[92,-95]],[[2803,330],[-19,-84]],[[2786,241],[7,0]],[[2788,245],[17,83]],[[2794,241],[-6,4]],[[2924,158],[-69,44]],[[2856,201],[68,-43]],[[3054,67],[63,-49]],[[3117,19],[-63,49]],[[3204,2183],[0,-1]],[[3270,2116],[-63,63]],[[2040,968],[2,-3],[1,1],[-1,4],[-2,-2]],[[2212,1019],[-4,-2],[3,-4],[3,2]],[[2214,1015],[-2,4]],[[2273,218],[-2,1]],[[2271,219],[0,-3]],[[2271,216],[1,0],[1,2]],[[2305,740],[0,1],[-1,0],[0,-1],[1,0]],[[2346,577],[-1,1],[0,-2],[1,0],[0,1]],[[2348,696],[2,-1],[1,1],[-2,1],[-1,-1]],[[2410,619],[1,2],[-3,1],[0,-3],[2,0]],[[2592,445],[0,2],[-1,1]],[[2591,448],[-1,-2],[2,-1]],[[2783,245],[1,-4],[4,1],[-1,4],[-4,-1]],[[2926,2246],[1,-2],[2,0],[0,3],[-3,-1]],[[2175,519],[12,-5]],[[484,723],[-41,-16]],[[672,760],[-23,1]],[[1420,568],[-73,-3]],[[1347,565],[-74,45]],[[1273,610],[-15,9]],[[1258,619],[15,-9]],[[1273,610],[74,-45]],[[1347,565],[4,-2],[69,4]],[[3032,2125],[3,0]],[[3034,2128],[-1,0]],[[3211,2191],[-93,-48]],[[3138,2163],[73,28]],[[3211,2191],[41,86]],[[3268,2290],[-15,-10]],[[3254,2278],[14,12]],[[3254,2278],[-1,2]],[[3253,2280],[-3,-3],[2,0]],[[3252,2277],[2,1]],[[1868,1307],[1,-26]],[[1869,1281],[0,26]],[[2108,848],[51,-62]],[[2159,786],[-50,62]],[[2159,787],[1,-9],[2,-1]],[[2329,599],[-170,186]],[[2161,777],[184,-200]],[[2346,577],[-17,22]],[[2329,599]],[[2107,851],[1,-3]],[[2108,848],[1,0],[-1,3],[-1,0]],[[2290,1074],[14,-256]],[[2304,817],[1,1],[4,96],[-18,160]],[[3276,2296],[-8,-6]],[[3268,2290],[8,6]],[[3276,2296],[65,42],[138,165],[141,325],[119,82],[97,7]],[[3867,2920],[55,5]],[[3993,2997],[103,95]],[[2594,556],[15,-6]],[[2619,552],[48,7]],[[2245,475],[-17,-22]],[[2232,454],[2,2],[8,10],[4,9]],[[456,807],[-21,24]],[[456,807],[9,-11]],[[466,797],[-10,10]],[[466,797]],[[466,796],[0,1]],[[466,796],[0,1]],[[466,797],[-1,-1]],[[465,796],[1,0]],[[482,800],[-16,-3]],[[482,800],[12,1]],[[494,801],[-12,-1]],[[520,801],[2,-26],[6,-36]],[[528,740],[-8,61]],[[1597,3066],[-14,6],[13,-6]],[[1597,3066],[0,-1]],[[1597,3065],[25,-57],[0,-3]],[[1605,3017],[-8,48]],[[1597,3065],[0,1]],[[1613,2976],[-4,19]],[[1622,3005],[4,-41]],[[3038,2127],[5,1]],[[503,728],[-1,0],[1,0]],[[1596,3066],[1,0],[-1,0]],[[1540,591],[-2,-1]],[[1539,590],[1,0]],[[387,926],[-152,27],[-142,131],[-16,5],[-42,6],[-35,3]],[[0,1096],[93,-13],[142,-130],[153,-28]],[[517,902],[-72,13]],[[445,914],[72,-13]],[[657,752],[57,-150],[115,-82],[268,-8],[151,39],[199,-57],[92,-92],[153,-85],[211,-217]],[[1903,101],[-211,217],[-153,85],[-78,82],[-13,9],[-23,12],[-177,46],[-151,-40],[-268,9],[-115,81],[-57,151]],[[1944,81],[163,-81]],[[2109,0],[-164,82]],[[2409,619],[9,-10]],[[2125,537],[-149,-46]],[[2493,535],[-12,-22],[-20,-104],[-196,-60]],[[2265,349],[132,37]],[[2481,513],[13,21]],[[2548,583],[-49,-42]],[[2500,540],[40,34],[9,9]],[[2308,816],[-9,15]],[[1976,491],[-57,-33],[-23,21],[21,-24],[60,34]],[[547,4096],[27,-41]],[[573,4058],[-25,38]],[[1949,2433],[3,46],[-325,385],[-323,217],[-368,182],[-84,94],[-68,156]],[[786,3505],[66,-149],[84,-93],[367,-183],[324,-217],[324,-384],[-2,-47]],[[1930,2147],[-67,-380],[0,-30]],[[1864,1738],[67,406],[7,84],[7,132]],[[1864,1544],[2,-111]],[[1867,1433],[-2,111]],[[1945,2360],[-8,-132]],[[2189,341],[76,8]],[[2269,513],[8,-3]],[[2277,511],[-8,2]],[[3037,2128],[-3,0]],[[3035,2125],[16,3],[2,1]],[[3053,2129],[85,34]],[[3118,2143],[-19,-10],[-46,-4]],[[3053,2129],[-15,-1]],[[3836,2917],[31,3]],[[3922,2925],[71,72]],[[2265,349],[-76,-7]],[[499,727],[-15,-4]],[[499,727],[3,1]],[[502,728],[-3,-1]],[[649,761],[-146,-33]],[[503,728],[151,18]],[[2202,542],[-28,29]],[[2174,571],[-17,17]],[[2159,588],[15,-17]],[[2174,571],[27,-31]],[[3038,2127],[0,1],[-1,0],[1,-1]],[[2271,212],[-21,-78]],[[2251,134],[21,78]],[[2968,2070],[-4,-56]],[[3012,2127],[-46,-1]],[[2966,2014],[2,31]],[[0,4096],[4096,0],[0,-4096],[-4096,0],[0,4096]],[[1556,3054],[55,50],[74,-75],[-56,-26],[-5,-57],[-7,33],[-21,-15],[-4,18],[30,23],[-66,49]],[[198,306],[32,58],[19,-10],[36,42],[28,-23],[-19,-56],[23,-25],[-26,-48],[-93,62]],[[808,560],[3,120],[74,1],[-3,-75],[-31,-11],[1,-36],[-44,1]],[[1867,1503],[189,-33],[-15,-76],[26,-81],[-197,-36],[-3,226]],[[610,2472],[89,132],[53,-26],[29,-83],[-37,-63],[-134,40]],[[2891,3382],[38,29],[121,1],[7,-65],[-32,-33],[-43,0],[-11,28],[-17,-27],[-62,40],[-1,27]],[[1750,503],[26,16],[101,-176],[-40,-20],[-87,180]],[[2494,533],[48,43],[69,-27],[50,17],[54,-63],[-59,-71],[-27,32],[-121,12],[-14,57]],[[446,914],[4,-34],[53,4],[55,69],[53,4],[65,-195],[-152,-79],[-75,2],[-37,88],[5,29],[32,0],[-59,101],[-5,54],[33,1],[28,-44]],[[1841,1541],[-6,163],[47,56],[88,14],[-64,-78],[4,-147],[-69,-8]],[[1873,3097],[-32,-39],[-97,39],[-104,-101],[-58,-15],[-11,20],[11,135],[137,32],[31,72],[183,-87],[5,-56],[-65,0]],[[890,3849],[47,-39],[95,27],[-14,-82],[-148,-113],[-84,114],[-13,197],[77,-42],[40,-62]],[[3266,2305],[25,-172],[-59,-48],[-97,0],[-119,-75],[-140,76],[0,272],[61,4],[101,-82],[150,112],[77,5],[1,-92]],[[2459,0],[-258,0],[28,23],[-49,169],[16,103],[-83,-45],[-122,-145],[-86,-43],[-14,233],[-46,123],[-99,92],[-197,19],[-22,148],[-42,47],[29,60],[43,19],[90,-1],[64,39],[33,-39],[144,166],[82,-11],[-16,69],[-146,87],[33,195],[63,-2],[34,-37],[33,17],[-66,99],[33,39],[57,-48],[8,-107],[104,108],[57,8],[-29,121],[-68,74],[38,39],[124,0],[97,78],[-3,63],[35,14],[0,78],[33,1],[-24,181],[24,52],[47,0],[44,-65],[-27,-208],[-64,-155],[11,-33],[53,33],[47,-40],[18,-116],[-64,-98],[-130,-19],[-1,-42],[165,-84],[30,10],[0,39],[97,-39],[174,43],[35,-38],[43,-5],[40,39],[39,-100],[-7,-173],[-65,-39],[-50,-157],[39,-297],[-86,-169],[65,-116],[97,-78],[-32,-39],[8,-30],[56,-86],[122,66],[40,-28],[-26,-62],[-396,0],[1,63],[95,2],[67,36],[-32,156],[-64,-21],[-121,9],[-58,-66],[-16,155],[-231,-160],[-60,-73],[34,-37],[127,-41],[4,-23]],[[1278,819],[13,-17],[130,5],[-1,-278],[-85,1],[-77,38],[0,78],[-56,48],[-9,81],[33,105],[52,-61]],[[0,576],[0,209],[53,-4],[53,-105],[-34,-93],[-72,-7]],[[3293,3628],[50,83],[136,-137],[-64,-70],[-122,124]],[[1647,604],[9,37],[80,14],[41,-14],[7,-42],[-69,-11],[-2,29],[-38,-38],[-28,25]],[[0,816],[0,61],[55,-9],[-17,-44],[-38,-8]],[[1588,1167],[61,5],[15,-24],[10,23],[22,-44],[-16,-34],[-90,-2],[-2,76]],[[2307,1373],[10,97],[152,11],[5,-79],[-67,-13],[-5,22],[-69,-49],[-26,11]],[[421,820],[20,17],[40,-36],[156,1],[18,-59],[-39,-18],[1,-74],[-36,-2],[25,-43],[-41,11],[-9,41],[-65,10],[-12,98],[-58,54]],[[3032,2131],[18,58],[90,-24],[-36,-37],[21,-55],[-52,-18],[-41,76]],[[1827,2495],[23,23],[96,-87],[24,19],[-18,-93],[-31,12],[-1,49],[-93,77]],[[3813,2901],[50,35],[-40,4],[-4,20],[58,23],[-1,-22],[53,-5],[5,54],[27,7],[44,-27],[-61,-51],[15,-44],[-36,8],[-2,23],[-54,-1],[-3,-56],[-51,32]],[[1780,3236],[55,5],[4,-64],[51,1],[-29,-46],[-15,-119],[-66,223]],[[2866,2199],[47,-25],[17,21],[35,-43],[50,26],[6,-49],[-55,-9],[3,-105],[-49,-11],[-1,26],[39,3],[-36,1],[-56,165]],[[785,3719],[68,55],[47,1],[48,-22],[8,-54],[-33,-51],[-118,17],[-20,54]],[[2128,2840],[75,75],[41,-7],[123,-102],[-104,-102],[-135,136]],[[2838,3122],[3,190],[183,1],[2,-194],[-188,3]]]}