{"objects":{"water":{"type":"GeometryCollection","geometries":[]},"buildings":{"type":"GeometryCollection","geometries":[]},"places":{"type":"GeometryCollection","geometries":[{"type":"Point","properties":{"kind":"region","name:en":"Sana\u02bfa Governorate","name":"\u0645\u062d\u0627\u0641\u0638\u0629 \u0635\u0646\u0639\u0627\u0621","kind_detail":"state","min_zoom":4.0,"source":"openstreetmap.org","name:fr":"Sana'a","name:ru":"\u0421\u0430\u043d\u0430","name:hu":"Szanaa","id":663081623,"population":919215},"coordinates":[2214,1028]},{"type":"Point","properties":{"kind":"region","name:en":"'Amran Governorate","name":"\u0645\u062d\u0627\u0641\u0638\u0629 \u0639\u0645\u0631\u0627\u0646","kind_detail":"state","min_zoom":4.0,"source":"openstreetmap.org","name:fr":"'Amran","name:ru":"\u0410\u043c\u0440\u0430\u043d","name:hu":"Amr\u00e1n","id":663081624,"population":877786},"coordinates":[801,3077]},{"type":"Point","properties":{"name:pt":"Sana","name:ka":"\u10e1\u10d0\u10dc\u10d0","name:ko":"\uc0ac\ub098","name:kn":"\u0cb8\u0ca8\u0cbe","name:kl":"Sana'a","name:cs":"San'\u00e1","name:tt":"\u0421\u04d9\u043d\u0433\u0430","min_zoom":8.0,"int_name":"Sanaa","name:zh-min-nan":"Sana'a","name:os":"\u0421\u0430\u043d\u00e6","name:pl":"Sana","name:ta":"\u0b9a\u0ba9\u0bcd\u0b86","name:tg":"\u0421\u0430\u043d\u044a\u043e","name:ca":"San\u00e0","name:cy":"Sana'a","name:da":"Sana\u00e1","name:de":"Sanaa","source":"openstreetmap.org","name:be":"\u0421\u0430\u043d\u0430","admin_level":"2","name:lv":"Sana","name:tr":"San'a","name:hi":"\u0938\u093e\u0928\u093e","name:kk":"\u0421\u0430\u043d\u0430","name:he":"\u05e6\u05e0\u05e2\u05d0","kind":"locality","name:lb":"Sana\u00b4a","name:la":"Sana","name:uk":"\u0421\u0430\u043d\u0430","country_capital":true,"name:hu":"Szanaa","name:hr":"Sana","population":2431000,"name:el":"\u03a3\u03b1\u03bd\u03b1\u03ac","name:eo":"Sanao","name:en":"Sana'a","name":"\u0635\u0646\u0639\u0627\u0621","name:ku":"Sana","name:th":"\u0e0b\u0e32\u0e19\u0e32","name:eu":"Sana","name:et":"\u015ean\u2018\u0101'","name:es":"San\u00e1","name:ro":"Sana'a","name:ie":"San\u00e1","name:id":"Sana'a","name:ms":"Sana'a","name:mr":"\u0938\u093e\u0928\u093e","name:is":"Sana","name:it":"San\u2019a","name:vi":"Sana\u2019a","name:ru":"\u0421\u0430\u043d\u0430","name:mn":"\u0421\u0430\u043d\u0430\u0430 \u0445\u043e\u0442","id":258013552,"name:mk":"\u0421\u0430\u043d\u0430","name:lt":"Sana","kind_detail":"city","name:sh":"Sana","name:fr":"Sanaa","name:fy":"Sana'a","name:zh":"\u85a9\u90a3","name:sl":"Sana","name:sk":"San\u00e1","name:ja":"\u30b5\u30cc\u30a2","name:nn":"San'a","name:no":"Sana\u00e1","name:br":"Sana'a","name:bs":"Sana'a","name:yi":"\u05e1\u05d0\u05e0\u05d0","name:bn":"\u09b8\u09be\u09a8\u09be","name:bo":"\u0f66\u0f0b\u0f53\u0f71\u0f0d","name:sw":"Sana'a","name:sv":"Sana","name:bg":"\u0421\u0430\u043d\u0430","name:sr":"\u0421\u0430\u043d\u0430","name:ga":"San\u2019a","name:gd":"\u1e62an'\u0101'","name:gl":"Sana","name:yo":"Sana'a"},"coordinates":[1767,175]}]},"transit":{"type":"GeometryCollection","geometries":[]},"pois":{"type":"GeometryCollection","geometries":[]},"boundaries":{"type":"GeometryCollection","geometries":[{"type":"LineString","properties":{"alt_name:left:en":"Ma'rib","name:right:ru":"\u042d\u043b\u044c-\u0414\u0436\u0430\u0443\u0444","min_zoom":8.0,"name:left:ru":"\u041c\u0430\u0440\u0438\u0431","id:right":-383899,"id":-383909,"osm_relation":true,"name:right":"\u0645\u0646\u0637\u0642\u0629 \u0627\u0644\u062c\u0648\u0641","kind":"region","name:left:en":"Ma'rib Governorate","sort_rank":256,"kind_detail":"4","name":"\u0645\u0623\u0631\u0628\u200e - \u0645\u0646\u0637\u0642\u0629 \u0627\u0644\u062c\u0648\u0641","source":"openstreetmap.org","name:right:de":"al-Dschauf","name:right:en":"Al Jawf Governorate","id:left":-383909,"name:left":"\u0645\u0623\u0631\u0628\u200e"},"arcs":[0]},{"type":"LineString","properties":{"alt_name:left:en":"Ma'rib","name:right:ru":"\u0421\u0430\u043d\u0430","min_zoom":8.0,"name:left:ru":"\u041c\u0430\u0440\u0438\u0431","id:right":-383891,"id":-383909,"osm_relation":true,"name:left:en":"Ma'rib Governorate","kind":"region","name":"\u0645\u0623\u0631\u0628\u200e - \u0635\u0646\u0639\u0627\u0621","sort_rank":256,"kind_detail":"4","name:right:en":"San\u02bfa\u02be Governorate","source":"openstreetmap.org","id:left":-383909,"name:right":"\u0635\u0646\u0639\u0627\u0621","name:left":"\u0645\u0623\u0631\u0628\u200e"},"arcs":[1]},{"type":"MultiLineString","properties":{"id:left":-383907,"name:right:ru":"\u0425\u0430\u0434\u0434\u0436\u0430","min_zoom":8.0,"name:left:ru":"\u0410\u043c\u0440\u0430\u043d","id:right":-383905,"id":-383907,"osm_relation":true,"name:left:en":"'Amran Governorate","kind":"region","name":"\u0639\u0645\u0631\u0627\u0646 - \u062d\u062c\u0629","sort_rank":256,"kind_detail":"4","name:right:en":"Hajjah Governorate","source":"openstreetmap.org","name:right:de":"Haddscha","name:right":"\u062d\u062c\u0629","name:left":"\u0639\u0645\u0631\u0627\u0646"},"arcs":[[2],[3]]},{"type":"LineString","properties":{"id:left":-383907,"name:right:ru":"\u042d\u043b\u044c-\u0414\u0436\u0430\u0443\u0444","min_zoom":8.0,"name:left:ru":"\u0410\u043c\u0440\u0430\u043d","id:right":-383899,"id":-383907,"osm_relation":true,"name:left:en":"'Amran Governorate","kind":"region","name":"\u0639\u0645\u0631\u0627\u0646 - \u0645\u0646\u0637\u0642\u0629 \u0627\u0644\u062c\u0648\u0641","sort_rank":256,"kind_detail":"4","name:right:en":"Al Jawf Governorate","source":"openstreetmap.org","name:right:de":"al-Dschauf","name:right":"\u0645\u0646\u0637\u0642\u0629 \u0627\u0644\u062c\u0648\u0641","name:left":"\u0639\u0645\u0631\u0627\u0646"},"arcs":[4]},{"type":"LineString","properties":{"name:right:ru":"\u0421\u0430\u043d\u0430","min_zoom":8.0,"name:left:ru":"\u0410\u043c\u0440\u0430\u043d","id:right":-383891,"id":-383907,"osm_relation":true,"name:left:en":"'Amran Governorate","kind":"region","name":"\u0639\u0645\u0631\u0627\u0646 - \u0635\u0646\u0639\u0627\u0621","sort_rank":256,"kind_detail":"4","name:right:en":"San\u02bfa\u02be Governorate","source":"openstreetmap.org","id:left":-383907,"name:right":"\u0635\u0646\u0639\u0627\u0621","name:left":"\u0639\u0645\u0631\u0627\u0646"},"arcs":[5]},{"type":"LineString","properties":{"kind":"region","name:en":"'Amran Governorate","name":"\u0639\u0645\u0631\u0627\u0646","sort_rank":256,"kind_detail":"4","source":"openstreetmap.org","min_zoom":8.0,"name:ru":"\u0410\u043c\u0440\u0430\u043d","id":-383907,"osm_relation":true},"arcs":[6]},{"type":"LineString","properties":{"kind":"region","name:en":"Hajjah Governorate","name":"\u062d\u062c\u0629","sort_rank":256,"kind_detail":"4","name:de":"Haddscha","source":"openstreetmap.org","min_zoom":8.0,"name:ru":"\u0425\u0430\u0434\u0434\u0436\u0430","id":-383905,"osm_relation":true},"arcs":[7]},{"type":"LineString","properties":{"name:right:ru":"\u0421\u0430\u043d\u0430","min_zoom":8.0,"name:left:ru":"\u042d\u043b\u044c-\u0414\u0436\u0430\u0443\u0444","id:right":-383891,"id":-383899,"osm_relation":true,"name:left:en":"Al Jawf Governorate","kind":"region","name":"\u0645\u0646\u0637\u0642\u0629 \u0627\u0644\u062c\u0648\u0641 - \u0635\u0646\u0639\u0627\u0621","sort_rank":256,"kind_detail":"4","name:left:de":"al-Dschauf","name:right:en":"San\u02bfa\u02be Governorate","source":"openstreetmap.org","id:left":-383899,"name:right":"\u0635\u0646\u0639\u0627\u0621","name:left":"\u0645\u0646\u0637\u0642\u0629 \u0627\u0644\u062c\u0648\u0641"},"arcs":[8]},{"type":"MultiLineString","properties":{"kind":"region","name:en":"San\u02bfa\u02be Governorate","name":"\u0635\u0646\u0639\u0627\u0621","sort_rank":256,"kind_detail":"4","source":"openstreetmap.org","min_zoom":8.0,"name:ru":"\u0421\u0430\u043d\u0430","id":-383891,"osm_relation":true},"arcs":[[9],[10],[11],[12]]}]},"roads":{"type":"GeometryCollection","geometries":[{"type":"MultiLineString","properties":{"sort_rank":380,"kind_detail":"primary","min_zoom":8.0,"kind":"major_road","source":"openstreetmap.org"},"arcs":[[13],[14],[15],[16],[17],[18],[19],[20],[21],[22],[23],[24],[25],[26],[27],[28],[29],[30],[31],[32],[33],[34],[35],[36],[37],[38],[39],[40],[41],[42],[43],[44],[45],[46]]},{"type":"MultiLineString","properties":{"sort_rank":381,"source":"openstreetmap.org","min_zoom":8.0,"kind":"major_road","kind_detail":"trunk"},"arcs":[[47],[48],[49],[50],[51],[52],[53],[54],[55],[56],[57],[58],[59]]},{"type":"MultiLineString","properties":{"kind":"major_road","name:en":"60 meters Street","sort_rank":381,"nat_name":"\u0633\u062a\u064a\u0646","source":"openstreetmap.org","min_zoom":8.0,"landuse_kind":"urban_area","kind_detail":"trunk"},"arcs":[[60],[61]]},{"type":"MultiLineString","properties":{"kind":"major_road","name:en":"Alhasaba","sort_rank":380,"kind_detail":"primary","name:ar":"\u0627\u0644\u062d\u0635\u0628\u0629","source":"openstreetmap.org","min_zoom":8.0,"landuse_kind":"urban_area"},"arcs":[[62],[63]]},{"type":"MultiLineString","properties":{"source":"openstreetmap.org","kind":"major_road","name:en":"Al Zubayri St","landuse_kind":"urban_area","sort_rank":380,"kind_detail":"primary","min_zoom":8.0},"arcs":[[64],[65],[66]]},{"type":"LineString","properties":{"kind":"major_road","name:en":"Amran Highway Bridge","sort_rank":380,"kind_detail":"primary","name:fr":"Amran Highway Bridge","name:de":"Amran Highway Bridge","source":"openstreetmap.org","min_zoom":8.0,"int_name":"Amran Highway Bridge","id":106376145},"arcs":[67]},{"type":"LineString","properties":{"source":"openstreetmap.org","kind":"major_road","sort_rank":380,"kind_detail":"primary","ref":"N5","min_zoom":8.0,"id":481693621},"arcs":[68]},{"type":"LineString","properties":{"kind":"major_road","name:en":"Ring Road","sort_rank":380,"kind_detail":"primary","source":"openstreetmap.org","min_zoom":8.0,"int_name":"Noqum Street","landuse_kind":"urban_area","id":24466251},"arcs":[69]},{"type":"LineString","properties":{"source":"openstreetmap.org","kind":"major_road","sort_rank":381,"kind_detail":"trunk","ref":"A1580","min_zoom":8.0},"arcs":[70]},{"type":"MultiLineString","properties":{"kind":"major_road","name:en":"Abu Dhabi Street","sort_rank":380,"kind_detail":"primary","name:ar":"\u0634\u0627\u0631\u0639 \u0623\u0628\u0648 \u0638\u0628\u064a","source":"openstreetmap.org","min_zoom":8.0,"landuse_kind":"urban_area"},"arcs":[[71],[72]]},{"type":"MultiLineString","properties":{"source":"openstreetmap.org","kind":"major_road","sort_rank":381,"kind_detail":"trunk","ref":"N1","min_zoom":8.0},"arcs":[[73],[74],[75]]},{"type":"MultiLineString","properties":{"source":"openstreetmap.org","kind":"major_road","name:en":"Ring Road","landuse_kind":"urban_area","sort_rank":380,"kind_detail":"primary","min_zoom":8.0},"arcs":[[76],[77],[78],[79],[80],[81]]},{"type":"MultiLineString","properties":{"kind":"major_road","name:en":"Mohammad Ali Othman Street","sort_rank":380,"kind_detail":"primary","name:ar":"\u0634\u0627\u0631\u0639 \u0645\u062d\u0645\u062f \u0639\u0644\u064a \u0639\u062b\u0645\u0627\u0646","source":"openstreetmap.org","min_zoom":8.0,"landuse_kind":"urban_area"},"arcs":[[82],[83]]},{"type":"LineString","properties":{"kind":"major_road","int_name":"\u0634\u0627\u0631\u0639 \u0627\u0644\u0633\u062a\u064a\u0646","sort_rank":381,"kind_detail":"trunk","source":"openstreetmap.org","min_zoom":8.0,"nat_name":"\u0633\u062a\u064a\u0646","landuse_kind":"urban_area","id":46154489},"arcs":[84]},{"type":"LineString","properties":{"kind":"major_road","name:en":"As Sailah St","sort_rank":380,"landuse_kind":"urban_area","source":"openstreetmap.org","min_zoom":8.0,"kind_detail":"primary","id":166045975},"arcs":[85]},{"type":"MultiLineString","properties":{"source":"openstreetmap.org","kind":"major_road","landuse_kind":"residential","sort_rank":381,"kind_detail":"trunk","ref":"N1","min_zoom":8.0},"arcs":[[86],[87],[88],[89]]},{"type":"MultiLineString","properties":{"source":"openstreetmap.org","kind":"major_road","name:en":"Al Zubayri Street","sort_rank":381,"kind_detail":"trunk","name:ar":"\u0634\u0627\u0631\u0639 \u0627\u0644\u0632\u0628\u064a\u0631\u064a","min_zoom":8.0},"arcs":[[90],[91],[92]]},{"type":"MultiLineString","properties":{"kind":"major_road","name:en":"Al Zubayri Street","sort_rank":381,"landuse_kind":"urban_area","name:ar":"\u0634\u0627\u0631\u0639 \u0627\u0644\u0632\u0628\u064a\u0631\u064a","source":"openstreetmap.org","min_zoom":8.0,"kind_detail":"trunk"},"arcs":[[93],[94]]},{"type":"MultiLineString","properties":{"kind":"major_road","name:en":"Abu Dhabi Street","sort_rank":380,"kind_detail":"primary","name:ar":"\u0634\u0627\u0631\u0639 \u0623\u0628\u0648 \u0638\u0628\u064a","source":"openstreetmap.org","min_zoom":8.0,"landuse_kind":"urban_area","nat_name":"\u0634\u0627\u0631\u0639 \u0623\u0628\u0648 \u0638\u0628\u064a"},"arcs":[[95],[96]]},{"type":"MultiLineString","properties":{"source":"openstreetmap.org","kind":"major_road","name:en":"Al Zubayri Street","kind_detail":"trunk","sort_rank":381,"landuse_kind":"urban_area","min_zoom":8.0},"arcs":[[97],[98]]},{"type":"MultiLineString","properties":{"source":"openstreetmap.org","kind":"major_road","name:en":"Hadda St","landuse_kind":"urban_area","sort_rank":380,"kind_detail":"primary","min_zoom":8.0},"arcs":[[99],[100]]},{"type":"MultiLineString","properties":{"source":"openstreetmap.org","kind":"major_road","landuse_kind":"urban_area","sort_rank":380,"kind_detail":"primary","min_zoom":8.0},"arcs":[[101],[102],[103],[104],[105],[106],[107],[108],[109],[110],[111],[112],[113],[114],[115],[116],[117],[118],[119],[120],[121],[122],[123],[124],[125],[126],[127],[128],[129],[130],[131],[132],[133],[134],[135],[136],[137],[138]]},{"type":"MultiLineString","properties":{"source":"openstreetmap.org","kind":"major_road","kind_detail":"trunk","sort_rank":381,"landuse_kind":"urban_area","min_zoom":8.0},"arcs":[[139],[140],[141],[142],[143],[144],[145],[146],[147],[148],[149],[150],[151],[152],[153],[154],[155],[156],[157],[158],[159],[160],[161],[162],[163],[164],[165],[166],[167],[168],[169],[170],[171],[172]]},{"type":"LineString","properties":{"kind":"major_road","sort_rank":381,"kind_detail":"trunk","name:ar":"\u0634\u0627\u0631\u0639 \u0627\u0644\u0633\u062a\u064a\u0646 \u0645\u062a\u0631;\u0634\u0627\u0631\u0639 \u0627\u0644\u0634\u0647\u064a\u062f \u0627\u0644\u062f\u0631\u0629","source":"openstreetmap.org","min_zoom":8.0,"nat_name":"\u0634\u0627\u0631\u0639 \u0627\u0644\u0634\u0647\u064a\u062f \u0627\u0644\u062f\u0631\u0629","landuse_kind":"urban_area","id":46154496},"arcs":[173]},{"type":"MultiLineString","properties":{"source":"openstreetmap.org","kind":"major_road","landuse_kind":"urban_area","sort_rank":380,"kind_detail":"primary","ref":"N5","min_zoom":8.0},"arcs":[[174],[175],[176]]},{"type":"LineString","properties":{"source":"openstreetmap.org","kind":"major_road","sort_rank":380,"kind_detail":"primary","ref":"5","min_zoom":8.0,"id":385440560},"arcs":[177]},{"type":"LineString","properties":{"source":"openstreetmap.org","kind":"major_road","sort_rank":381,"kind_detail":"trunk","ref":"N5","min_zoom":8.0},"arcs":[178]},{"type":"MultiLineString","properties":{"kind":"major_road","name:en":"70 days Rd","sort_rank":380,"landuse_kind":"urban_area","name:ar":"\u0634\u0627\u0631\u0639 \u0627\u0644\u0633\u0628\u0639\u064a\u0646 \u064a\u0648\u0645\u0627","source":"openstreetmap.org","min_zoom":8.0,"nat_name":"\u0634\u0627\u0631\u0639 \u0627\u0644\u0633\u0628\u0639\u064a\u0646 \u064a\u0648\u0645\u0627","kind_detail":"primary"},"arcs":[[179],[180]]},{"type":"LineString","properties":{"kind":"major_road","int_name":"\u0634\u0627\u0631\u0639 \u062a\u0639\u0632","sort_rank":380,"kind_detail":"primary","name:ar":"\u0637\u0631\u064a\u0642 \u062a\u0639\u0632","source":"openstreetmap.org","min_zoom":8.0,"landuse_kind":"urban_area"},"arcs":[181]},{"type":"MultiLineString","properties":{"kind":"major_road","name:en":"Ring Road","sort_rank":380,"landuse_kind":"urban_area","source":"openstreetmap.org","min_zoom":8.0,"kind_detail":"primary","nat_name":"\u0634\u0627\u0631\u0639 \u0627\u0644\u0623\u0645\u0645 \u0627\u0644\u0645\u062a\u062d\u062f\u0629"},"arcs":[[182],[183]]},{"type":"LineString","properties":{"kind":"major_road","sort_rank":380,"kind_detail":"primary","name:ar":"\u0634\u0627\u0631\u0639 \u062d\u062f\u0629","source":"openstreetmap.org","min_zoom":8.0,"nat_name":"\u0634\u0627\u0631\u0639 \u062d\u062f\u0629","landuse_kind":"urban_area","id":35609952},"arcs":[184]},{"type":"LineString","properties":{"kind":"major_road","name:en":"Ring Road","sort_rank":380,"kind_detail":"primary","source":"openstreetmap.org","min_zoom":8.0,"int_name":"Nashwan Al-Himyari Street","landuse_kind":"urban_area","id":45245315},"arcs":[185]},{"type":"MultiLineString","properties":{"source":"openstreetmap.org","kind":"major_road","landuse_kind":"residential","sort_rank":381,"kind_detail":"trunk","ref":"N5","min_zoom":8.0},"arcs":[[186],[187]]},{"type":"LineString","properties":{"source":"openstreetmap.org","kind":"major_road","landuse_kind":"urban_area","sort_rank":380,"kind_detail":"primary","name:ar":"\u0634\u0627\u0631\u0639 \u062a\u0639\u0632","min_zoom":8.0},"arcs":[188]},{"type":"LineString","properties":{"kind":"major_road","name:en":"Al Qods Street","sort_rank":380,"landuse_kind":"urban_area","source":"openstreetmap.org","min_zoom":8.0,"kind_detail":"primary","id":118729608},"arcs":[189]},{"type":"MultiLineString","properties":{"source":"openstreetmap.org","kind":"major_road","name:en":"Cairo Street","landuse_kind":"urban_area","sort_rank":380,"kind_detail":"primary","min_zoom":8.0},"arcs":[[190],[191],[192]]},{"type":"MultiLineString","properties":{"source":"openstreetmap.org","kind":"major_road","name:en":"Khawlan Road","landuse_kind":"urban_area","sort_rank":380,"kind_detail":"primary","min_zoom":8.0},"arcs":[[193],[194],[195],[196]]},{"type":"MultiLineString","properties":{"source":"openstreetmap.org","kind":"major_road","landuse_kind":"residential","sort_rank":381,"kind_detail":"trunk","min_zoom":8.0},"arcs":[[197],[198],[199],[200],[201],[202],[203]]},{"type":"MultiLineString","properties":{"source":"openstreetmap.org","kind":"major_road","landuse_kind":"residential","sort_rank":380,"kind_detail":"primary","min_zoom":8.0},"arcs":[[204],[205],[206],[207],[208],[209],[210],[211],[212],[213],[214],[215]]},{"type":"MultiLineString","properties":{"kind":"major_road","name:en":"60 meters St","sort_rank":381,"landuse_kind":"urban_area","name:ar":"\u0634\u0627\u0631\u0639 \u0627\u0644\u0634\u0647\u064a\u062f \u0627\u0644\u062f\u0631\u0629","source":"openstreetmap.org","min_zoom":8.0,"kind_detail":"trunk","nat_name":"\u0634\u0627\u0631\u0639 \u0627\u0644\u0634\u0647\u064a\u062f \u0627\u0644\u062f\u0631\u0629"},"arcs":[[216],[217]]},{"type":"MultiLineString","properties":{"kind":"major_road","name:en":"Khawlan Road","sort_rank":380,"kind_detail":"primary","name:ar":"\u0637\u0631\u064a\u0642 \u062e\u0648\u0644\u0627\u0646","source":"openstreetmap.org","min_zoom":8.0,"landuse_kind":"urban_area"},"arcs":[[218],[219],[220],[221]]},{"type":"MultiLineString","properties":{"source":"openstreetmap.org","kind":"major_road","landuse_kind":"urban_area","sort_rank":381,"nat_name":"\u0633\u062a\u064a\u0646","min_zoom":8.0,"kind_detail":"trunk"},"arcs":[[222],[223],[224]]},{"type":"MultiLineString","properties":{"source":"openstreetmap.org","kind":"major_road","sort_rank":380,"kind_detail":"primary","ref":"A1580","min_zoom":8.0},"arcs":[[225],[226]]},{"type":"LineString","properties":{"kind":"major_road","name:en":"Abu Dhabi Street;Al Qods Street","sort_rank":380,"kind_detail":"primary","source":"openstreetmap.org","min_zoom":8.0,"nat_name":"\u0634\u0627\u0631\u0639 \u0623\u0628\u0648 \u0638\u0628\u064a","landuse_kind":"urban_area","id":118729607},"arcs":[227]},{"type":"MultiLineString","properties":{"source":"openstreetmap.org","kind":"major_road","name:en":"Hadda Street","kind_detail":"primary","sort_rank":380,"landuse_kind":"urban_area","min_zoom":8.0},"arcs":[[228],[229],[230],[231]]},{"type":"LineString","properties":{"kind":"major_road","name:en":"Abu Dhabi Street","sort_rank":380,"landuse_kind":"urban_area","source":"openstreetmap.org","min_zoom":8.0,"kind_detail":"primary","id":106470991},"arcs":[232]},{"type":"LineString","properties":{"kind":"major_road","int_name":"\u0634\u0627\u0631\u0639 \u062a\u0639\u0632","sort_rank":381,"kind_detail":"trunk","name:ar":"\u0637\u0631\u064a\u0642 \u062a\u0639\u0632","source":"openstreetmap.org","min_zoom":8.0,"landuse_kind":"urban_area","id":290262159},"arcs":[233]},{"type":"LineString","properties":{"kind":"major_road","name:en":"Al Qods Street","sort_rank":380,"kind_detail":"primary","name:ar":"\u0634\u0627\u0631\u0639 \u0627\u0644\u0642\u062f\u0633","source":"openstreetmap.org","min_zoom":8.0,"landuse_kind":"urban_area","id":24466215},"arcs":[234]},{"type":"MultiLineString","properties":{"source":"openstreetmap.org","kind":"major_road","name:en":"Al Zubayri Street","landuse_kind":"urban_area","sort_rank":380,"kind_detail":"primary","min_zoom":8.0},"arcs":[[235],[236],[237],[238],[239],[240],[241]]},{"type":"MultiLineString","properties":{"source":"openstreetmap.org","kind":"major_road","name:en":"Alhasaba","landuse_kind":"urban_area","sort_rank":380,"kind_detail":"primary","min_zoom":8.0},"arcs":[[242],[243]]},{"type":"LineString","properties":{"kind":"major_road","sort_rank":381,"landuse_kind":"urban_area","name:ar":"\u0634\u0627\u0631\u0639 \u062a\u0639\u0632","source":"openstreetmap.org","min_zoom":8.0,"kind_detail":"trunk","id":106343604},"arcs":[244]},{"type":"LineString","properties":{"kind":"major_road","name:en":"60 meters St","sort_rank":381,"landuse_kind":"urban_area","source":"openstreetmap.org","min_zoom":8.0,"kind_detail":"trunk","id":35607524},"arcs":[245]},{"type":"LineString","properties":{"kind":"major_road","name:en":"Abu Dhabi Street;Al Qods Street","sort_rank":380,"kind_detail":"primary","name:ar":"\u0634\u0627\u0631\u0639 \u0623\u0628\u0648 \u0638\u0628\u064a;\u0634\u0627\u0631\u0639 \u0627\u0644\u0642\u062f\u0633","source":"openstreetmap.org","min_zoom":8.0,"landuse_kind":"urban_area","id":24466214},"arcs":[246]},{"type":"LineString","properties":{"kind":"major_road","sort_rank":381,"kind_detail":"trunk","name:ar":"\u0634\u0627\u0631\u0639 \u0627\u0644\u0634\u0647\u064a\u062f \u0627\u0644\u062f\u0631\u0629","source":"openstreetmap.org","min_zoom":8.0,"nat_name":"\u0634\u0627\u0631\u0639 \u0627\u0644\u0634\u0647\u064a\u062f \u0627\u0644\u062f\u0631\u0629","landuse_kind":"urban_area","id":46154497},"arcs":[247]}]},"earth":{"type":"GeometryCollection","geometries":[{"type":"MultiPolygon","properties":{"sort_rank":10,"source":"naturalearthdata.com","min_zoom":0.0,"kind":"earth","area":74173943908},"arcs":[[[248]]]}]},"landuse":{"type":"GeometryCollection","geometries":[{"type":"Polygon","properties":{"kind":"residential","name:en":"Amran","name":"\u0639\u0645\u0631\u0627\u0646","area":17568000,"sort_rank":20,"source":"openstreetmap.org","min_zoom":8.0,"int_name":"\u2018Amr\u0101n, \u2018Umr\u0101n, \u0639\u0645\u0631\u0627\u0646, Amran, Umran, \u0639\u0645\u0631\u0627\u0646","tier":2,"id":237999440},"arcs":[[249]]},{"type":"MultiPolygon","properties":{"source":"naturalearthdata.com","kind":"urban_area","name":"","area":534991833,"sort_rank":11,"min_zoom":4.0},"arcs":[[[250]],[[251]],[[252]],[[253]]]}]}},"type":"Topology","transform":{"translate":[43.59375,15.2841851141],"scale":[0.0003433228,0.0003300798]},"arcs":[[[4096,1941],[-461,320],[-722,-1],[-55,-86]],[[2858,2174],[100,-21],[156,-359],[78,-481],[79,-173],[78,-63],[132,-40],[28,-118],[-80,-71],[-259,-102],[-158,-115],[-309,-64],[-21,-87],[48,-69],[91,-43],[91,1],[277,126],[7,-298],[55,-69],[162,-17],[74,22],[42,120],[2,144],[98,-18],[467,-228]],[[0,2405],[3,-4],[22,-105],[70,-83],[-27,-72],[-68,-31]],[[0,1985],[15,-10],[123,173],[28,-15],[17,28],[55,-2],[61,-52],[32,-99],[10,-250],[56,-71],[-26,-89],[-24,19],[-17,-20],[32,-97],[-21,-78],[59,1],[67,-60],[-80,-97],[25,-135],[-43,-14],[-130,39],[-85,-55],[-16,-142],[81,-45],[-111,-156]],[[2201,2306],[-23,140],[-166,128],[-39,168],[100,323],[-15,33],[-50,-3],[-12,-39],[-39,27],[-16,308],[57,243],[-65,157],[33,15],[-120,65],[-68,77],[-72,148]],[[894,757],[48,54],[-16,77],[78,61],[68,17],[-17,-97],[31,-42],[98,18],[132,69],[111,167],[34,-9],[36,31],[-28,238],[245,320],[-97,118],[-4,111],[44,75],[9,77],[-25,108],[186,4],[100,61],[9,51],[196,-3],[69,43]],[[108,758],[56,-19],[79,77],[153,-65],[14,45],[80,-18],[32,21],[37,70],[271,-114],[64,2]],[[0,776],[108,-18]],[[2201,2306],[98,-46],[128,5],[431,-91]],[[894,757],[32,-27],[9,-70],[-53,-109],[41,-117],[-130,-141],[-133,-32],[-326,-258],[-7,-3]],[[253,0],[-3,2],[-8,-2]],[[1535,531],[181,77],[23,62],[33,-14],[-7,107],[32,53],[65,15],[8,39],[78,0],[48,86],[79,36],[130,-37],[142,-126],[-21,-50],[-84,-20],[0,68],[-24,0],[-39,-20],[-23,-91],[-91,8],[-30,-35],[-8,28],[-35,-61],[15,-97],[-87,-161],[30,-270],[27,-21],[-17,-42],[50,-65]],[[1690,0],[-55,20],[-28,41],[22,75],[-51,28],[-15,68],[-3,244],[-25,55]],[[0,1300],[102,40],[7,26],[24,-22]],[[25,1240],[-25,15]],[[25,1237]],[[25,1237]],[[25,1237]],[[25,1240],[0,-2]],[[136,1345],[47,2],[-24,20],[18,37],[31,-25],[73,14],[35,-32],[28,12],[27,-36],[-11,-30],[31,-18]],[[1345,0],[105,100]],[[1080,2157],[-2,0]],[[1078,2157],[-33,13],[-19,-22],[6,-26],[33,-2]],[[1069,2117],[-5,3],[-32,2],[-6,26],[19,22],[33,-14]],[[1078,2157]],[[1078,2157],[1,0]],[[1435,1076],[100,-44],[117,37],[96,-50],[42,44],[42,-1],[6,4]],[[1838,1066],[71,43],[122,12],[109,-45],[58,15],[-6,15],[127,50],[9,48],[64,32],[7,34],[78,-51],[69,14]],[[2546,1233],[3,1]],[[1532,164],[27,-61],[116,-70],[8,3]],[[1675,33],[-115,70],[-27,61]],[[1578,95],[0,1]],[[2290,2276],[-18,-17],[-218,14],[4,-55],[-48,-44],[28,-64],[12,-306],[-86,-133],[18,-99],[-44,-81],[7,-52],[-59,-12],[0,-46],[-54,-4],[-57,-162],[4,-43],[51,-61],[8,-45]],[[1838,1066],[10,-56],[58,-54],[-3,-191],[-56,-177]],[[1969,0],[-39,40]],[[1931,35],[26,-26]],[[1957,9],[9,-9]],[[1935,480],[1,0]],[[1956,9],[1,0]],[[1957,9],[0,1]],[[1961,526],[149,162],[68,129],[91,45],[71,84],[-4,54],[54,14],[105,91],[51,128]],[[2546,1233],[14,36],[75,32],[-10,80],[211,15],[159,46],[64,-5],[12,-38],[17,23],[76,-14],[115,36],[69,-8],[152,-62],[65,-71],[135,-66],[58,-71],[143,-40],[116,-113],[79,-23]],[[3351,0],[37,65],[89,45],[79,-26],[47,84],[-28,58],[67,135],[102,46]],[[3837,423],[85,1],[174,64]],[[25,1237]],[[25,1237],[0,-1],[1,1],[-1,0]],[[25,1237]],[[1070,1286],[236,325],[-68,140],[9,48],[-80,70],[6,46],[-49,27],[-55,175],[3,38],[22,-4],[38,76],[-24,76],[20,166],[-47,104],[27,183],[-52,95],[121,119],[207,37],[60,118],[49,34],[-12,71],[-162,248],[-146,339],[-139,46],[-181,233]],[[1005,1213],[-104,-72]],[[909,1144],[98,63]],[[1033,1223],[5,3]],[[1038,1226],[-5,-1]],[[1067,1100],[8,-17],[123,-54],[155,-162]],[[1353,867],[-155,162],[-130,71]],[[1070,2116],[1,20]],[[1621,615],[-179,160],[-36,86],[-5,-20],[-48,26]],[[1615,165],[-31,22],[-70,-21],[-64,-66]],[[1621,615],[97,-163]],[[1718,452],[-97,163]],[[1615,164],[2,1],[-1,1],[-1,-1],[0,-1]],[[1693,206],[-16,-30]],[[1677,176],[16,30]],[[1807,384],[-5,-76]],[[1803,308],[5,76]],[[1757,184],[-27,-3]],[[1730,180],[16,2]],[[1811,202],[-14,-4]],[[133,1344],[3,1]],[[1931,473],[30,53],[-31,-48]],[[1846,222],[-6,-58]],[[1406,1289],[9,-53],[0,1],[-9,52]],[[1839,164],[-10,-5]],[[1829,159],[10,4]],[[1027,1170]],[[1027,1170]],[[1030,1197],[40,89],[-40,-88]],[[1840,164],[23,82],[-68,15]],[[1795,261],[-1,0],[-6,0],[-52,-3]],[[1736,258],[53,3],[6,0]],[[1795,261],[46,-3]],[[1747,154],[15,-1]],[[1762,153],[-14,1]],[[1814,201],[15,-42]],[[1829,159],[-15,42]],[[1693,206],[3,54]],[[1822,107],[-33,146],[37,121]],[[1030,1198],[-3,-28]],[[1027,1170],[3,27]],[[1027,1170],[26,-43]],[[1054,1127],[-27,43]],[[1450,100],[64,66]],[[1533,163],[79,1],[34,5]],[[1646,170],[-30,-4]],[[1658,173],[-12,-3]],[[1646,169],[3,0],[8,4]],[[1829,159],[-44,-6]],[[1785,153],[44,6]],[[1657,173],[18,0]],[[1675,174],[-17,-1]],[[1759,184],[3,-74]],[[1763,110],[-4,74]],[[1687,38],[-4,-2]],[[1693,40],[90,-40]],[[1776,17],[-83,23]],[[1856,299],[-36,-7],[-13,-3],[-18,-6],[-54,5]],[[1735,288],[54,-5],[67,16]],[[1746,159],[-1,0]],[[1776,103],[-4,-23]],[[1772,80],[5,23]],[[1798,0],[-21,17]],[[1788,314],[-7,-25]],[[1787,242],[-3,-34],[-1,-49],[1,-13]],[[1784,146],[3,96]],[[1796,198],[1,0]],[[1797,198],[-1,0]],[[1804,446],[0,1]],[[1808,407],[-1,-23]],[[1808,384],[0,23]],[[1808,101]],[[1810,168],[1,0]],[[1814,201],[-3,1]],[[1811,201],[3,0]],[[1840,164],[-1,0]],[[1844,579],[-1,-1]],[[1844,577],[0,2]],[[1847,588],[-3,-9]],[[1858,121],[-1,0]],[[1861,115],[-1,0]],[[1870,103],[1,0],[0,1],[-1,-1]],[[1870,103],[16,-17]],[[1886,86],[43,-48],[2,-3]],[[1930,40],[-59,64]],[[1885,86],[1,0]],[[1886,86]],[[1930,468]],[[3744,407],[93,16]],[[1702,267],[0,1],[0,1],[-2,-1],[2,-1]],[[1735,288],[0,1],[0,-1]],[[1848,144],[-1,0],[1,0]],[[1807,414],[-57,5],[-8,-4]],[[1742,415],[-1,0]],[[1741,415],[-10,-6],[-47,-81],[12,-68]],[[1703,275],[-18,53],[46,81],[11,5]],[[1742,414]],[[1742,414],[8,5],[57,-6]],[[1718,452],[17,-29],[5,-6]],[[1740,417],[1,-2]],[[1741,415]],[[1741,415],[1,-1]],[[1742,414],[4,-6],[19,-29],[39,-85],[3,-5]],[[1808,289],[-43,90],[-19,30],[-4,5]],[[1742,414],[0,1]],[[1742,415],[-1,0]],[[1741,415],[-1,2]],[[1740,417],[-5,6],[-17,29]],[[1843,577],[-1,-7]],[[1842,570],[-35,-144]],[[1807,426],[-1,-4],[1,-7]],[[1808,415],[-1,7],[0,4]],[[1807,426],[9,59]],[[1816,485],[1,1],[-1,0],[0,-1]],[[1816,486],[26,84]],[[1842,570],[2,7]],[[1854,102],[0,-1]],[[1739,417],[1,-2],[1,0]],[[1741,415]],[[1741,415],[1,0],[-1,2],[-1,0]],[[1740,417]],[[1740,417],[-1,0]],[[1807,414],[1,-1],[0,2],[-1,0]],[[1807,415],[0,-1]],[[1844,577],[-1,0]],[[1843,577],[1,0]],[[1677,176],[0,-9]],[[1848,343],[50,73]],[[1930,478],[-32,-62]],[[1898,416],[33,57]],[[757,1108],[-22,7],[11,24],[-140,38],[-11,32],[-128,50],[-64,-1],[-12,31]],[[890,1130],[-133,-22],[134,22]],[[1784,146],[-8,-43]],[[1777,103],[7,43]],[[1829,159],[25,-58]],[[1736,258],[11,-104]],[[1748,154],[-12,104]],[[1705,45],[-18,-7]],[[1841,258],[22,-15],[-17,-21]],[[974,1144],[-84,-14]],[[891,1130],[82,14]],[[1854,102],[-25,57]],[[1783,153],[-21,0]],[[1736,258],[-34,11]],[[1702,268],[33,-12]],[[1734,258],[2,-1]],[[1835,172],[7,-16]],[[1843,156],[-8,16]],[[1848,143],[22,-39]],[[1871,104],[-23,40]],[[901,1141],[-6,-6]],[[895,1135],[14,9]],[[1033,1225],[-28,-12]],[[1007,1207],[26,16]],[[1054,1126],[13,-26]],[[1068,1100],[-14,27]],[[1053,1127],[1,-1],[0,1],[-1,0]],[[1003,1137],[-29,7]],[[974,1144]],[[974,1144]],[[974,1143],[0,1]],[[974,1144],[28,11]],[[1002,1156],[-28,-12]],[[974,1144],[-1,0],[30,-7]],[[1027,1165],[-25,-9]],[[1003,1155],[25,9]],[[1003,1137],[37,10]],[[1002,1155],[1,1],[-1,0]],[[1002,1156],[0,-1]],[[1677,167],[84,-57]],[[1761,110],[-84,58]],[[1833,176],[2,-4]],[[1835,172],[-1,4]],[[1842,156],[5,-12]],[[1848,144],[-5,12]],[[1696,260],[-3,-54]],[[1761,110],[12,-5],[8,-2],[46,-4],[28,2]],[[1854,101],[-93,9]],[[1406,1289],[-15,138],[-85,184]],[[1406,861],[34,250],[-25,125]],[[1785,153],[-2,0]],[[1687,38],[72,68]],[[1759,106],[4,4]],[[1762,110],[-3,-4]],[[1759,106],[-54,-61]],[[1839,163],[1,1]],[[1854,101],[36,-101]],[[1762,153],[21,0]],[[1730,181],[-55,-7]],[[1675,173],[55,7]],[[1746,182],[29,9]],[[1775,191],[4,1],[17,6]],[[1796,198],[-8,-2],[-9,-4],[-4,-1]],[[1775,191],[-18,-7]],[[1797,198],[14,3]],[[1802,308],[-8,-8],[-14,-17],[2,-16],[5,-25]],[[1787,242],[16,66]],[[1891,0],[-37,102]],[[1696,260],[7,15]],[[1783,153],[2,0]],[[1677,168],[0,8]],[[4096,4096],[0,-4096],[-4096,0],[0,4096],[4096,0]],[[885,1135],[132,50],[-14,32],[31,12],[-7,-59],[38,-3],[52,-65],[-80,-4],[-1,-37],[-24,15],[9,38],[-106,-4],[-30,25]],[[2423,83],[-60,7],[-29,35],[24,93],[77,-57],[11,-36],[-23,-42]],[[1064,83],[-76,75],[11,93],[65,-9],[29,-47],[-29,-112]],[[3815,354],[-63,22],[-16,60],[111,17],[-32,-99]],[[1935,0],[-212,0],[-41,37],[-35,113],[-6,217],[145,160],[22,61],[98,0],[33,-151],[-19,-314],[15,-123]]]}