{"objects":{"water":{"type":"GeometryCollection","geometries":[]},"buildings":{"type":"GeometryCollection","geometries":[]},"places":{"type":"GeometryCollection","geometries":[{"type":"Point","properties":{"kind":"region","name:en":"Ingushetia","name":"\u0418\u043d\u0433\u0443\u0448\u0435\u0442\u0438\u044f","kind_detail":"state","name:eo":"Ingu\u015dio","name:de":"Inguschetien","source":"openstreetmap.org","name:fr":"Ingouchie","name:be":"\u0406\u043d\u0433\u0443\u0448\u044d\u0446\u0456\u044f","name:ku":"\u00ceng\u00fb\u015fetya","name:et":"Ingu\u0161\u0161ia","min_zoom":4.0,"name:hu":"Ingusf\u00f6ld","name:zh":"\u5370\u53e4\u4ec0\u5171\u548c\u56fd","id":869606611},"coordinates":[4037,389]},{"type":"Point","properties":{"name:sr":"\u041d\u0430\u0459\u0447\u0438\u043a","int_name":"Nalchik","name:nl":"Naltsjik","name:ka":"\u10dc\u10d0\u10da\u10e9\u10d8\u10d9\u10d8","name:ar":"\u0646\u0627\u0644\u062a\u0634\u064a\u0643","min_zoom":8.0,"name:it":"Nal'\u010dik","name:hy":"\u0546\u0561\u056c\u0579\u056b\u056f","name:os":"\u041d\u0430\u043b\u0446\u044b\u043a\u043a","name:pl":"Nalczyk","name:hu":"Nalcsik","name":"\u041d\u0430\u043b\u044c\u0447\u0438\u043a","id":93711720,"name:ca":"N\u00e0ltxik","population":239040,"name:fa":"\u0646\u0639\u0644\u0686\u06cc\u06a9","kind":"locality","name:en":"Nalchik","name:lt":"Nal\u010dikas","kind_detail":"city","name:de":"Naltschik","source":"openstreetmap.org","name:fr":"Naltchik","name:eu":"Naltxik","name:et":"Nalt\u0161ik","name:zh":"\u7eb3\u5c14\u5947\u514b"},"coordinates":[69,1702]},{"type":"Point","properties":{"name:sr":"\u041d\u0430\u0437\u0440\u0430\u043d","name:ro":"Nazran","name:ja":"\u30ca\u30ba\u30e9\u30f3","name:ka":"\u10dc\u10d0\u10d6\u10e0\u10d0\u10dc\u10d8","name:tr":"Nazran","name:ar":"\u0646\u0627\u0632\u0631\u0627\u0646","min_zoom":8.0,"int_name":"Nazran","name:ce":"\u041d\u0435\u0441\u0430\u0440\u0430","name:bg":"\u041d\u0430\u0437\u0440\u0430\u043d","name":"\u041d\u0430\u0437\u0440\u0430\u043d\u044c","id":34395338,"population":113288,"name:el":"\u039d\u03b1\u03b6\u03c1\u03ac\u03bd","kind":"locality","name:en":"Nazran","name:lt":"Nazran\u0117","kind_detail":"city","name:he":"\u05e0\u05d6\u05e8\u05d0\u05df","name:de":"Nasran","source":"openstreetmap.org","name:fr":"Nazran","name:pl":"Nazra\u0144","name:eu":"Nazran","name:et":"Nazran","name:zh":"\u7d0d\u8332\u862d"},"coordinates":[3414,599]},{"type":"Point","properties":{"name:ce":"\u0415\u0445\u0430-\u0413\u04c0\u0430\u043b\u0430","name:ro":"Prohladn\u00eei","name:tr":"Prohladni","name:sr":"\u041f\u0440\u043e\u0445\u043b\u0430\u0434\u043d\u0438","name:eo":"Pro\u0125ladnij","min_zoom":8.0,"int_name":"Prokhladny","name:os":"\u041f\u0440\u043e\u0445\u043b\u0430\u0434\u043d\u00e6","name:pl":"Proch\u0142adnyj","id":287411141,"population":58083,"name:fa":"\u067e\u0631\u0648\u062e\u0644\u0627\u0646\u062f\u06cc","kind":"locality","name:en":"Prokhladny","name":"\u041f\u0440\u043e\u0445\u043b\u0430\u0434\u043d\u044b\u0439","kind_detail":"town","name:de":"Prochladny","source":"openstreetmap.org"},"coordinates":[1227,2774]},{"type":"Point","properties":{"name:pt":"Mozdok","name:id":"Mozdok","name:ka":"\u10db\u10dd\u10d6\u10d3\u10dd\u10d9\u10d8","name:ko":"\ubaa8\uc988\ub3c4\ud06c","name:sv":"Mozdok","name:ar":"\u0645\u0648\u0632\u062f\u0648\u0643","kind":"locality","min_zoom":8.0,"name:it":"Mozdok","name:hy":"\u0544\u0578\u0566\u0564\u0578\u056f","name:os":"\u041c\u00e6\u0437\u0434\u00e6\u0433","name:be":"\u041c\u0430\u0437\u0434\u043e\u043a","name:pl":"Mozdok","name":"\u041c\u043e\u0437\u0434\u043e\u043a","id":310022311,"population":40042,"name:fa":"\u0645\u0648\u0632\u062f\u0648\u06a9","name:eo":"Mozdoko","name:en":"Mozdok","name:lt":"Mozdokas","kind_detail":"town","name:de":"Mosdok","source":"openstreetmap.org","name:fr":"Mozdok","name:fi":"Mozdok","name:zh":"\u83ab\u5179\u591a\u514b","name:es":"Mozdok"},"coordinates":[3087,2681]},{"type":"Point","properties":{"name:ro":"Karabulak","name:nl":"Karaboelak","min_zoom":8.0,"int_name":"Karabulak","name:it":"Karabulak","old_name":"\u0418\u043b\u044c\u0434\u0430\u0440\u0445\u0430-\u0413I\u0430\u043b\u0430","name:ce":"\u042d\u043b\u0434\u0430\u0440\u0445\u0430\u043d-\u0413\u04c0\u0430\u043b\u0430","id":287798315,"population":38973,"kind":"locality","name:en":"Karabulak","name":"\u041a\u0430\u0440\u0430\u0431\u0443\u043b\u0430\u043a","kind_detail":"town","name:de":"Karabulak","source":"openstreetmap.org","name:fr":"Karaboulak","name:pl":"Karabu\u0142ak"},"coordinates":[3835,967]},{"type":"Point","properties":{"name:az":"Beslan","name:lt":"Beslanas","min_zoom":8.0,"int_name":"Beslan","name:hy":"\u0532\u0565\u057d\u056c\u0561\u0576","name:os":"\u0411\u0435\u0441\u043b\u00e6\u043d","name:sv":"Beslan","id":34395335,"population":37063,"kind":"locality","name:en":"Beslan","name":"\u0411\u0435\u0441\u043b\u0430\u043d","kind_detail":"town","name:de":"Beslan","source":"openstreetmap.org","name:fr":"Beslan","name:et":"Beslan","name:zh":"\u522b\u65af\u5170"},"coordinates":[2753,487]},{"type":"Point","properties":{"name:az":"Malqobek","name:ja":"\u30de\u30eb\u30b4\u30d9\u30af","name:lt":"Malgobekas","name:ar":"\u0645\u0627\u0644\u063a\u0648\u0628\u0643","name:tt":"\u041c\u0430\u043b\u0433\u043e\u0431\u04d9\u043a","min_zoom":8.0,"int_name":"Malgobek","name:hy":"\u0544\u0561\u056c\u0563\u0578\u0562\u0565\u056f","name:os":"\u041c\u00e6\u043b\u0433\u044a\u00e6\u0432\u00e6\u0433","name:be":"\u041c\u0430\u043b\u0433\u0430\u0431\u0435\u043a","name:ce":"\u041c\u0430\u043b\u0445\u0430\u0431\u0435\u043a","name:de":"Malgobek","name:pl":"Ma\u0142gobek","population":36114,"name:fa":"\u0645\u0627\u0644\u06af\u0648\u0628\u06a9","kind":"locality","name:en":"Malgobek","name":"\u041c\u0430\u043b\u0433\u043e\u0431\u0435\u043a","kind_detail":"town","id":287798582,"source":"openstreetmap.org","name:fr":"Malgobek"},"coordinates":[2895,1774]},{"type":"Point","properties":{"kind":"locality","name:en":"Nartkala","name":"\u041d\u0430\u0440\u0442\u043a\u0430\u043b\u0430","name:tr":"Nartkala","kind_detail":"town","name:eo":"Nartkala","name:de":"Nartkala","source":"openstreetmap.org","min_zoom":8.0,"int_name":"Nartkala","name:fr":"Nartkala","name:it":"Nartkala","name:pl":"Nartka\u0142a","id":2127195931,"population":30497},"coordinates":[751,1961]},{"type":"Point","properties":{"kind":"locality","name:en":"Mayskiy","name":"\u041c\u0430\u0439\u0441\u043a\u0438\u0439","kind_detail":"town","min_zoom":8.0,"name:de":"Maiski","source":"openstreetmap.org","name:fr":"Ma\u00efski","name:it":"Majskij","name:ce":"\u041c\u0430\u0439\u0441\u043a\u0438","id":413084059,"population":26831},"coordinates":[1360,2246]},{"type":"Point","properties":{"kind":"locality","name:en":"Novopavlovsk","name":"\u041d\u043e\u0432\u043e\u043f\u0430\u0432\u043b\u043e\u0432\u0441\u043a","kind_detail":"town","name:de":"Nowopawlowsk","source":"openstreetmap.org","min_zoom":8.0,"int_name":"Novopavlovsk","old_name":"\u041f\u0430\u0432\u043b\u043e\u0432\u0441\u043a\u0430\u044f \u043a\u0440\u0435\u043f\u043e\u0441\u0442\u044c, \u0441\u0442\u0430\u043d\u0438\u0446\u0430 \u041f\u0430\u0432\u043b\u043e\u0432\u0441\u043a\u0430\u044f, \u0441\u0442\u0430\u043d\u0438\u0446\u0430 \u041d\u043e\u0432\u043e\u043f\u0430\u0432\u043b\u043e\u0432\u0441\u043a\u0430\u044f","id":493613381,"population":26221},"coordinates":[109,3591]},{"type":"Point","properties":{"kind":"locality","name:en":"Ardon","name":"\u0410\u0440\u0434\u043e\u043d","kind_detail":"town","name:de":"Ardon","source":"openstreetmap.org","min_zoom":8.0,"name:os":"\u00c6\u0440\u044b\u0434\u043e\u043d","name:pl":"Ardon","name:zh":"\u963f\u5c14\u4e1c","id":411082690,"population":19453},"coordinates":[2073,430]},{"type":"Point","properties":{"kind":"locality","name:en":"Terek","name":"\u0422\u0435\u0440\u0435\u043a","name:lt":"Terekas","kind_detail":"town","name:de":"Terek","source":"openstreetmap.org","min_zoom":8.0,"name:pl":"Tieriek","id":413055139,"population":19426},"coordinates":[1599,1653]},{"type":"Point","properties":{"name:ce":"\u042d\u043a\u043a\u0430\u0436\u0430\u043a\u044a\u043e\u044c\u043d\u0433\u0438\u0439-\u042e\u0440\u0442","kind":"locality","name:en":"Ekazhevo","name":"\u042d\u043a\u0430\u0436\u0435\u0432\u043e","kind_detail":"town","name:de":"Ekaschewo","source":"openstreetmap.org","min_zoom":8.0,"name:hy":"\u0537\u056f\u0561\u056a\u0587\u0578","name:pl":"Eka\u017cewo","id":1434486585,"population":17734},"coordinates":[3568,560]},{"type":"Point","properties":{"name:ce":"\u041e\u0431\u0430\u0440\u0433-\u042e\u0440\u0442","kind":"locality","name:en":"Troitskaya","name":"\u0422\u0440\u043e\u0438\u0446\u043a\u0430\u044f","kind_detail":"town","name:de":"Troizkaja","source":"openstreetmap.org","min_zoom":8.0,"name:hy":"\u054f\u0580\u0578\u056b\u0581\u056f\u0561\u0575\u0561","name:pl":"Troickaja","id":1434486503,"population":17418},"coordinates":[4046,955]},{"type":"Point","properties":{"name:ce":"\u0422\u04c0\u043e\u0439-\u042e\u0440\u0442","kind":"locality","name:en":"Kantyshevo","name":"\u041a\u0430\u043d\u0442\u044b\u0448\u0435\u0432\u043e","kind_detail":"town","name:de":"Kantyschewo","source":"openstreetmap.org","min_zoom":8.0,"name:hy":"\u053f\u0561\u0576\u057f\u056b\u0577\u0587\u0578","name:os":"\u0422\u044a\u043e\u0439\u044b\u0445\u044a\u00e6\u0443","name:pl":"Kantysziewo","id":413326996,"population":17347},"coordinates":[3067,652]},{"type":"Point","properties":{"kind":"locality","name:en":"Zavodskoy","name":"\u0417\u0430\u0432\u043e\u0434\u0441\u043a\u043e\u0439","kind_detail":"town","name:de":"Sawodskoi","source":"openstreetmap.org","min_zoom":8.0,"name:it":"Zavodskoj","name:hy":"\u0536\u0561\u057e\u0578\u0564\u057d\u056f\u0578\u0575","name:os":"\u0417\u0430\u0432\u043e\u0434\u044b \u043f\u043e\u0441\u0451\u043b\u043e\u043a","id":2054137165,"population":16630},"coordinates":[3076,125]},{"type":"Point","properties":{"kind":"locality","name:en":"Plievo","name:ro":"Plievo","name":"\u041f\u043b\u0438\u0435\u0432\u043e","name:pl":"Plievo","kind_detail":"town","min_zoom":8.0,"name:de":"Plijewo","source":"openstreetmap.org","name:fr":"Plievo","int_name":"Plievo","name:it":"Plievo","name:ce":"\u041f\u0445\u044c\u0438\u043b\u0438\u043d\u043a\u044a\u043e\u044c\u043d\u0433\u0438\u0439\u043d-\u042e\u0440\u0442","id":1434486491,"population":15249},"coordinates":[3623,864]},{"type":"Point","properties":{"kind":"locality","name:en":"Kurskaya","name":"\u041a\u0443\u0440\u0441\u043a\u0430\u044f","kind_detail":"town","name:de":"Kurskaja","source":"openstreetmap.org","min_zoom":8.0,"name:hy":"\u053f\u0578\u0582\u0580\u057d\u056f\u0561\u0575\u0561","id":1879354147,"population":12045},"coordinates":[2499,3889]},{"type":"Point","properties":{"name:ce":"\u0421\u0443\u0440\u0445\u043e-\u0425\u0438\u0442\u04c0\u0435","kind":"locality","name:en":"Surkhakhi","name":"\u0421\u0443\u0440\u0445\u0430\u0445\u0438","kind_detail":"town","name:hy":"\u054d\u0578\u0582\u0580\u056d\u0561\u056d\u056b","name:de":"Surchachi","source":"openstreetmap.org","min_zoom":8.0,"name:uk":"\u0421\u0443\u0440\u0445\u0430\u0445\u0456","old_name":"\u041c\u0430\u043c\u0438\u0441\u043e\u043d","name:pl":"Surchachi","id":902439516,"population":11793},"coordinates":[3810,475]},{"type":"Point","properties":{"kind":"locality","name:en":"Barsuki","name:ro":"Barsuki","name":"\u0411\u0430\u0440\u0441\u0443\u043a\u0438","name:pl":"Barsuki","kind_detail":"town","min_zoom":8.0,"name:de":"Barsuki","source":"openstreetmap.org","name:fr":"Barsuki","int_name":"Barsuki","name:it":"Barsuki","name:ce":"\u0411\u0443\u0440\u0441\u043a\u04c0\u0435\u043b\u0445\u0435","id":2937136914,"population":11153},"coordinates":[3547,777]},{"type":"Point","properties":{"kind":"locality","name:en":"Digora","name":"\u0414\u0438\u0433\u043e\u0440\u0430","kind_detail":"town","name:de":"Digora","source":"openstreetmap.org","min_zoom":8.0,"name:hy":"\u0534\u056b\u0563\u0578\u0580\u0561","name:pl":"Digora","name:zh":"\u5b63\u6208\u62c9","id":413040037,"population":10273},"coordinates":[1643,369]},{"type":"Point","properties":{"source":"openstreetmap.org","kind":"locality","name":"\u042f\u043d\u0434\u0430\u0440\u0435","kind_detail":"town","population":8680,"min_zoom":8.0,"id":1434486546},"coordinates":[3838,827]},{"type":"Point","properties":{"admin_level":"4","name:ce":"\u041c\u0430\u0433\u04c0\u0430\u0441","name:sl":"Magas","name:lt":"Magasas","min_zoom":8.0,"int_name":"Magas","name:ka":"\u10db\u10d0\u10d2\u10d0\u10e1\u10d8","name:hu":"Marac","name:hr":"Magas","id":34395341,"population":6880,"kind":"locality","name:en":"Magas","name":"\u041c\u0430\u0433\u0430\u0441","kind_detail":"town","name:de":"Magas","source":"openstreetmap.org","name:fr":"Magas","name:az":"Maqas","name:et":"Magass"},"coordinates":[3540,404]},{"type":"Point","properties":{"kind":"locality","name:en":"Kashkhatau","name":"\u041a\u0430\u0448\u0445\u0430\u0442\u0430\u0443","kind_detail":"town","name:de":"Kaschchatau","source":"openstreetmap.org","min_zoom":8.0,"name:hy":"\u053f\u0561\u0577\u056d\u0561\u057f\u0561\u0578\u0582","id":1574509870,"population":5390},"coordinates":[45,1006]}]},"transit":{"type":"GeometryCollection","geometries":[{"type":"MultiLineString","properties":{"source":"openstreetmap.org","kind":"train","osm_relation":true,"sort_rank":275,"ref":"677\/678 \u0412\u043b\u0430\u0434\u0438\u043a\u0430\u0432\u043a\u0430\u0437 \u2014 \u041d\u043e\u0432\u043e\u0440\u043e\u0441\u0441\u0438\u0439\u0441\u043a","min_zoom":6.0,"operator":"\u0420\u0416\u0414"},"arcs":[[7],[8],[9],[10],[11],[12],[13],[14],[15],[16],[17],[18],[19],[20]]},{"type":"MultiLineString","properties":{"source":"openstreetmap.org","kind":"train","osm_relation":true,"sort_rank":275,"ref":"\u041f\u0440\u043e\u0445\u043b\u0430\u0434\u043d\u0430\u044f - \u041d\u0430\u043b\u044c\u0447\u0438\u043a","min_zoom":6.0,"operator":"\u0420\u0416\u0414"},"arcs":[[21],[22],[23],[24],[25],[26]]},{"type":"MultiLineString","properties":{"source":"openstreetmap.org","kind":"train","name":"\u0411\u0430\u043a\u0443 \u2014 \u0420\u043e\u0441\u0442\u043e\u0432-\u043d\u0430-\u0414\u043e\u043d\u0443","sort_rank":275,"ref":"Baku \u2014 Rostov-na-Donu","min_zoom":6.0,"osm_relation":true},"arcs":[[27],[28],[29],[30],[31],[32],[33],[34]]},{"type":"MultiLineString","properties":{"source":"openstreetmap.org","kind":"train","osm_relation":true,"sort_rank":275,"ref":"681\/682 \u041d\u0430\u0437\u0440\u0430\u043d\u044c - \u041c\u0438\u043d\u0435\u0440\u0430\u043b\u044c\u043d\u044b\u0435 \u0412\u043e\u0434\u044b","min_zoom":6.0,"operator":"\u0420\u0416\u0414"},"arcs":[[35],[36],[37],[38],[39],[40],[41],[42],[43],[44]]}]},"pois":{"type":"GeometryCollection","geometries":[]},"boundaries":{"type":"GeometryCollection","geometries":[{"type":"LineString","properties":{"name:right:hy":"\u0540\u0575\u0578\u0582\u057d\u056b\u057d\u0561\u0575\u056b\u0576 \u0555\u057d\u056b\u0561","name:right:no":"Nord-Ossetia","name:right:uk":"\u041f\u0456\u0432\u043d\u0456\u0447\u043d\u0430 \u041e\u0441\u0435\u0442\u0456\u044f","name:right:hr":"Sjeverna Osetija-Alanija","name:right:hu":"\u00c9szak-Osz\u00e9tia","name:right:lt":"\u0160iaur\u0117s Osetija","name:left:sl":"Ingu\u0161etija","min_zoom":8.0,"name:left:hy":"\u053b\u0576\u0563\u0578\u0582\u0577\u0565\u0569\u056b\u0561","name:right:uz":"Shimoliy Osetiya Alaniya","name:right:he":"\u05e6\u05e4\u05d5\u05df \u05d0\u05d5\u05e1\u05d8\u05d9\u05d4 - \u05d0\u05dc\u05e0\u05d9\u05d4","name:right:os":"\u0426\u00e6\u0433\u0430\u0442 \u0418\u0440\u044b\u0441\u0442\u043e\u043d - \u0410\u043b\u0430\u043d\u0438","name:right:af":"Noord-Osseti\u00eb-Alani\u00eb","name:right:av":"\u0428\u0438\u043c\u0430\u043b\u0438\u044f\u0431 \u0413\u044c\u0438\u0440\u0438\u0441\u0442\u0430\u043d","name:left:ce":"\u0413\u04c0\u0430\u043b\u0433\u04c0\u0430\u0439\u0447\u043e\u044c","name:left:ca":"Ing\u00faixia","source":"openstreetmap.org","name:right:ar":"\u0623\u0648\u0633\u064a\u062a\u064a\u0627 \u0627\u0644\u0634\u0645\u0627\u0644\u064a\u0629-\u0623\u0644\u0627\u0646\u064a\u0627","name:right:az":"\u015eimali Osetiya","name:left":"\u0418\u043d\u0433\u0443\u0448\u0435\u0442\u0438\u044f","name:right:mk":"\u0421\u0435\u0432\u0435\u0440\u043d\u0430 \u041e\u0441\u0435\u0442\u0438\u0458\u0430-\u0410\u043b\u0430\u043d\u0438\u0458\u0430","name:right:mn":"\u0410\u0440 \u041e\u0441\u0435\u0442-\u0410\u043b\u0430\u043d","name:right:eu":"Ipar Osetia-Alania","name:right:et":"P\u00f5hja-Osseetia","name:left:os":"\u041c\u00e6\u0445\u044a\u0445\u044a\u00e6\u043b\u044b \u0420\u0435\u0441\u043f\u0443\u0431\u043b\u0438\u043a\u00e6","name:right:it":"Ossezia Settentrionale-Alania","name:left:ro":"Ingu\u0219etia","name:right:vi":"B\u1eafc Ossetia-Alania","name:right:ro":"Osetia de Nord","name:right:ms":"Ossetia Utara-Alania","name:right:id":"Ossetia Utara\u2013Alania","name:right:en":"North Ossetia\u2013Alania","name:right:el":"\u0394\u03b7\u03bc\u03bf\u03ba\u03c1\u03b1\u03c4\u03af\u03b1 \u03c4\u03b7\u03c2 \u0392\u03cc\u03c1\u03b5\u03b9\u03b1\u03c2 \u039f\u03c3\u03b5\u03c4\u03af\u03b1\u03c2 - \u0391\u03bb\u03b1\u03bd\u03af\u03b1\u03c2","kind":"region","name":"\u0418\u043d\u0433\u0443\u0448\u0435\u0442\u0438\u044f - \u0421\u0435\u0432\u0435\u0440\u043d\u0430\u044f \u041e\u0441\u0435\u0442\u0438\u044f - \u0410\u043b\u0430\u043d\u0438\u044f","name:right:ba":"\u0422\u04e9\u043d\u044c\u044f\u04a1 \u041e\u0441\u0435\u0442\u0438\u044f \u2014 \u0410\u043b\u0430\u043d\u0438\u044f","name:right:lv":"Zieme\u013cosetija-Al\u0101nija","name:right:be":"\u041f\u0430\u045e\u043d\u043e\u0447\u043d\u0430\u044f \u0410\u0441\u0435\u0446\u0456\u044f","name:right:br":"Norzhosetia-Alania","name:right:bs":"Sjeverna Osetija-Alanija","name:right:zh":"\u5317\u5965\u585e\u68af-\u963f\u5170\u5171\u548c\u56fd","official_name:left":"\u0420\u0435\u0441\u043f\u0443\u0431\u043b\u0438\u043a\u0430 \u0418\u043d\u0433\u0443\u0448\u0435\u0442\u0438\u044f","name:right:nn":"Nord-Ossetia","name:right:es":"Osetia del Norte-Alania","name:right:nl":"Noord-Osseti\u00eb","name:right:ja":"\u5317\u30aa\u30bb\u30c1\u30a2\u5171\u548c\u56fd","name:right:fr":"Oss\u00e9tie-du-Nord-Alanie","name:right:sq":"Osetia e Veriut-Alania","name:right:sr":"\u0421\u0435\u0432\u0435\u0440\u043d\u0430 \u041e\u0441\u0435\u0442\u0438\u0458\u0430 \u2014 \u0410\u043b\u0430\u043d\u0438\u0458\u0430","name:right:sw":"Kaskazi Ossetia-Alania","id:right":-110032,"name:right:sh":"Sjeverna Osetija-Alanija","name:right:sk":"Severn\u00e9 Osetsko","name:right:fa":"\u0627\u0648\u0633\u062a\u06cc\u0627\u06cc \u0634\u0645\u0627\u0644\u06cc-\u0622\u0644\u0627\u0646\u06cc\u0627","id":-253252,"name:right":"\u0421\u0435\u0432\u0435\u0440\u043d\u0430\u044f \u041e\u0441\u0435\u0442\u0438\u044f - \u0410\u043b\u0430\u043d\u0438\u044f","name:left:en":"Ingushetia","name:right:ca":"Oss\u00e8tia del Nord - Al\u00e0nia","kind_detail":"4","name:right:ce":"\u041a\u044a\u0438\u043b\u0431\u0430\u0441\u0435\u0434\u0430 \u0425\u04c0\u0438\u0440\u0438\u0439\u0447\u043e\u044c","name:right:cy":"Gogledd Ossetia","name:right:tt":"\u0422\u04e9\u043d\u044c\u044f\u043a \u041e\u0441\u0435\u0442\u0438\u044f","name:right:zh-yue":"\u5317\u5967\u585e\u68af-\u963f\u862d","id:left":-253252,"name:right:cs":"Severn\u00ed Osetie-Alanie","name:right:fi":"Pohjois-Ossetia-Alania","name:right:cv":"\u00c7\u0443\u0440\u00e7\u0115\u0440 \u041e\u0441\u0435\u0442\u0438","name:right:ka":"\u10e9\u10e0\u10d3\u10d8\u10da\u10dd\u10d4\u10d7\u10d8 \u10dd\u10e1\u10d4\u10d7\u10d8","name:left:av":"\u0413\u044a\u0430\u043b\u0433\u044a\u0430\u0439","name:left:pl":"Republika Inguszetii","name:left:az":"\u0130nqu\u015fetiya","name:right:tr":"Kuzey Osetya-Alanya","name:right:tl":"Hilagang Osetya-Alania","name:left:de":"Inguschetien","name:right:sv":"Nordossetien","name:right:gl":"Osetia do Norte-Alania","name:right:pl":"Republika Osetii P\u00f3\u0142nocnej \u2013 Alania","osm_relation":true,"name:right:de":"Nordossetien-Alanien","name:right:da":"Republikken Nordossetien\u2013Alania","sort_rank":256},"arcs":[0]},{"type":"LineString","properties":{"name:right:hy":"\u0549\u0565\u0579\u0576\u056b\u0561","name:right:hu":"Csecsenf\u00f6ld","name:right:lt":"\u010ce\u010d\u0117nija","name:right:hi":"\u091a\u0947\u091a\u0928\u094d\u092f\u093e","min_zoom":8.0,"name:left:hy":"\u053b\u0576\u0563\u0578\u0582\u0577\u0565\u0569\u056b\u0561","name:right:os":"\u0426\u00e6\u0446\u00e6\u043d","name:right:af":"Tsjetsjni\u00eb","name:right:ab":"\u0427\u0435\u0447\u043d\u0438\u0430","name:right:av":"\u0427\u0430\u0447\u0430\u043d\u0438\u0441\u0442\u0430\u043d","sort_rank":256,"name:left:ca":"Ing\u00faixia","source":"openstreetmap.org","name:right:ar":"\u0627\u0644\u0634\u064a\u0634\u0627\u0646","name:right:az":"\u00c7e\u00e7enistan","name:left":"\u0418\u043d\u0433\u0443\u0448\u0435\u0442\u0438\u044f","name:right:mn":"\u0427\u0435\u0447\u0435\u043d\u044c","name:right:eu":"Txetxenia","name:left:os":"\u041c\u00e6\u0445\u044a\u0445\u044a\u00e6\u043b\u044b \u0420\u0435\u0441\u043f\u0443\u0431\u043b\u0438\u043a\u00e6","name:left:ro":"Ingu\u0219etia","name:right:ro":"Cecenia","name:right:id":"Chechnya","name:right:eo":"\u0108e\u0109enio","name:right:en":"Chechnya","name:right:el":"\u03a4\u03c3\u03b5\u03c4\u03c3\u03b5\u03bd\u03af\u03b1","kind":"region","name:right:bn":"\u099a\u09c7\u099a\u09a8\u09bf\u09af\u09bc\u09be","name":"\u0418\u043d\u0433\u0443\u0448\u0435\u0442\u0438\u044f - \u0427\u0435\u0447\u043d\u044f","name:left:sl":"Ingu\u0161etija","name:right:ba":"\u0427\u0435\u0447\u0435\u043d \u0420\u0435\u0441\u043f\u0443\u0431\u043b\u0438\u043a\u0430\u04bb\u044b","name:right:be":"\u0427\u0430\u0447\u043d\u044f","name:right:zh":"\u8f66\u81e3\u5171\u548c\u56fd","official_name:left":"\u0420\u0435\u0441\u043f\u0443\u0431\u043b\u0438\u043a\u0430 \u0418\u043d\u0433\u0443\u0448\u0435\u0442\u0438\u044f","name:right:nl":"Tsjetsjeni\u00eb","name:right:fr":"Tch\u00e9tch\u00e9nie","name:right:sr":"\u0427\u0435\u0447\u0435\u043d\u0438\u0458\u0430","id:right":-109877,"name:right:sh":"\u010ce\u010denija","name:right:sl":"\u010ce\u010denija","name:right:fa":"\u0686\u0686\u0646","name:right:fo":"Kekenia","id":-253252,"name:right":"\u0427\u0435\u0447\u043d\u044f","name:left:en":"Ingushetia","name:right:ca":"Txetx\u00e8nia","kind_detail":"4","name:right:ce":"\u041d\u043e\u0445\u0447\u0438\u0439\u0447\u043e\u044c","id:left":-253252,"name:right:cs":"\u010ce\u010densko","name:right:fi":"T\u0161et\u0161enia","name:right:cv":"\u0427\u0435\u0447\u0435\u043d \u0420\u0435\u0441\u043f\u0443\u0431\u043b\u0438\u043a\u0438","name:right:ka":"\u10e9\u10d4\u10e9\u10dc\u10d4\u10d7\u10d8","name:left:av":"\u0413\u044a\u0430\u043b\u0433\u044a\u0430\u0439","name:left:pl":"Republika Inguszetii","name:left:az":"\u0130nqu\u015fetiya","name:right:ko":"\uccb4\uccb8 \uacf5\ud654\uad6d","name:left:de":"Inguschetien","name:right:sv":"Tjetjenien","name:right:tr":"\u00c7e\u00e7enistan","name:right:pl":"Czeczenia","osm_relation":true,"name:right:de":"Tschetschenien","name:right:da":"Tjetjenien","name:left:ce":"\u0413\u04c0\u0430\u043b\u0433\u04c0\u0430\u0439\u0447\u043e\u044c","name:right:ga":"An tSeisnia"},"arcs":[1]},{"type":"LineString","properties":{"name:right:hy":"\u053f\u0561\u0562\u0561\u0580\u0564\u0561-\u0532\u0561\u056c\u056f\u0561\u0580\u056b\u0561","name:left:uz":"Shimoliy Osetiya Alaniya","name:right:uk":"\u041a\u0430\u0431\u0430\u0440\u0434\u0438\u043d\u043e-\u0411\u0430\u043b\u043a\u0430\u0440\u0456\u044f","name:left:he":"\u05e6\u05e4\u05d5\u05df \u05d0\u05d5\u05e1\u05d8\u05d9\u05d4 - \u05d0\u05dc\u05e0\u05d9\u05d4","name:left:sw":"Kaskazi Ossetia-Alania","name:left:sv":"Nordossetien","name:left:sq":"Osetia e Veriut-Alania","name:left:sr":"\u0421\u0435\u0432\u0435\u0440\u043d\u0430 \u041e\u0441\u0435\u0442\u0438\u0458\u0430 \u2014 \u0410\u043b\u0430\u043d\u0438\u0458\u0430","min_zoom":8.0,"name:left:lt":"\u0160iaur\u0117s Osetija","name:left:sh":"Sjeverna Osetija-Alanija","name:left:sk":"Severn\u00e9 Osetsko","name:left:hu":"\u00c9szak-Osz\u00e9tia","name:left:hr":"Sjeverna Osetija-Alanija","name:right:ab":"\u049e\u0430\u0431\u0430\u0440\u0434\u0430-\u0411\u0430\u043b\u043a\u0430\u0440\u0438\u0430\u200e","name:left:ce":"\u041a\u044a\u0438\u043b\u0431\u0430\u0441\u0435\u0434\u0430 \u0425\u04c0\u0438\u0440\u0438\u0439\u0447\u043e\u044c","name:left:ca":"Oss\u00e8tia del Nord - Al\u00e0nia","name:left:gl":"Osetia do Norte-Alania","source":"openstreetmap.org","name:left:cy":"Gogledd Ossetia","name:left:cv":"\u00c7\u0443\u0440\u00e7\u0115\u0440 \u041e\u0441\u0435\u0442\u0438","name:right:az":"Kabarda-Balkariya","name:left:cs":"Severn\u00ed Osetie-Alanie","name:left":"\u0421\u0435\u0432\u0435\u0440\u043d\u0430\u044f \u041e\u0441\u0435\u0442\u0438\u044f - \u0410\u043b\u0430\u043d\u0438\u044f","name:right:es":"Kabardia-Balkaria","name:left:ka":"\u10e9\u10e0\u10d3\u10d8\u10da\u10dd\u10d4\u10d7\u10d8 \u10dd\u10e1\u10d4\u10d7\u10d8","name:left:os":"\u0426\u00e6\u0433\u0430\u0442 \u0418\u0440\u044b\u0441\u0442\u043e\u043d - \u0410\u043b\u0430\u043d\u0438","name:left:ro":"Osetia de Nord","name:right:en":"Kabardino-Balkaria","name:left:vi":"B\u1eafc Ossetia-Alania","name:left:uk":"\u041f\u0456\u0432\u043d\u0456\u0447\u043d\u0430 \u041e\u0441\u0435\u0442\u0456\u044f","kind":"region","name":"\u0421\u0435\u0432\u0435\u0440\u043d\u0430\u044f \u041e\u0441\u0435\u0442\u0438\u044f - \u0410\u043b\u0430\u043d\u0438\u044f - \u041a\u0430\u0431\u0430\u0440\u0434\u0438\u043d\u043e-\u0411\u0430\u043b\u043a\u0430\u0440\u0438\u044f","name:left:fa":"\u0627\u0648\u0633\u062a\u06cc\u0627\u06cc \u0634\u0645\u0627\u0644\u06cc-\u0622\u0644\u0627\u0646\u06cc\u0627","name:right:be":"\u041a\u0430\u0431\u0430\u0440\u0434\u0437\u0456\u043d\u0430-\u0411\u0430\u043b\u043a\u0430\u0440\u044b\u044f","name:left:zh":"\u5317\u5965\u585e\u68af-\u963f\u5170\u5171\u548c\u56fd","name:left:fr":"Oss\u00e9tie-du-Nord-Alanie","name:left:da":"Republikken Nordossetien\u2013Alania","name:right:zh":"\u5361\u5df4\u5c14\u8fbe-\u5df4\u5c14\u5361\u5c14\u5171\u548c\u56fd","name:left:hy":"\u0540\u0575\u0578\u0582\u057d\u056b\u057d\u0561\u0575\u056b\u0576 \u0555\u057d\u056b\u0561","name:left:br":"Norzhosetia-Alania","name:left:bs":"Sjeverna Osetija-Alanija","name:right:nl":"Kabardi\u00eb-Balkari\u00eb","name:right:fr":"Kabardino-Balkarie","name:left:lv":"Zieme\u013cosetija-Al\u0101nija","name:left:ja":"\u5317\u30aa\u30bb\u30c1\u30a2\u5171\u548c\u56fd","id:right":-109879,"name:left:nn":"Nord-Ossetia","name:left:no":"Nord-Ossetia","name:left:nl":"Noord-Osseti\u00eb","name:left:ba":"\u0422\u04e9\u043d\u044c\u044f\u04a1 \u041e\u0441\u0435\u0442\u0438\u044f \u2014 \u0410\u043b\u0430\u043d\u0438\u044f","name:right:sl":"Republika Kabardino-Balkarija","name:left:be":"\u041f\u0430\u045e\u043d\u043e\u0447\u043d\u0430\u044f \u0410\u0441\u0435\u0446\u0456\u044f","name:left:fi":"Pohjois-Ossetia-Alania","id":-110032,"name:right":"\u041a\u0430\u0431\u0430\u0440\u0434\u0438\u043d\u043e-\u0411\u0430\u043b\u043a\u0430\u0440\u0438\u044f","name:left:en":"North Ossetia\u2013Alania","name:left:el":"\u0394\u03b7\u03bc\u03bf\u03ba\u03c1\u03b1\u03c4\u03af\u03b1 \u03c4\u03b7\u03c2 \u0392\u03cc\u03c1\u03b5\u03b9\u03b1\u03c2 \u039f\u03c3\u03b5\u03c4\u03af\u03b1\u03c2 - \u0391\u03bb\u03b1\u03bd\u03af\u03b1\u03c2","name:right:ca":"Kabardino-Balk\u00e0ria","kind_detail":"4","name:right:ce":"\u0413\u04c0\u0435\u0431\u0430\u0440\u0442\u043e\u0439\u043d-\u0411\u0430\u043b\u043a\u0445\u0430\u0440\u043e\u0439\u0447\u043e\u044c","name:left:mk":"\u0421\u0435\u0432\u0435\u0440\u043d\u0430 \u041e\u0441\u0435\u0442\u0438\u0458\u0430-\u0410\u043b\u0430\u043d\u0438\u0458\u0430","id:left":-110032,"name:left:es":"Osetia del Norte-Alania","name:right:cs":"Kabardsko-Balkarsko","name:left:eu":"Ipar Osetia-Alania","name:left:et":"P\u00f5hja-Osseetia","name:right:ka":"\u10e7\u10d0\u10d1\u10d0\u10e0\u10d3\u10dd-\u10d1\u10d0\u10da\u10e7\u10d0\u10e0\u10d4\u10d7\u10d8","name:left:av":"\u0428\u0438\u043c\u0430\u043b\u0438\u044f\u0431 \u0413\u044c\u0438\u0440\u0438\u0441\u0442\u0430\u043d","name:right:pt":"Cab\u00e1rdia-Balc\u00e1ria","name:left:ar":"\u0623\u0648\u0633\u064a\u062a\u064a\u0627 \u0627\u0644\u0634\u0645\u0627\u0644\u064a\u0629-\u0623\u0644\u0627\u0646\u064a\u0627","name:left:pl":"Republika Osetii P\u00f3\u0142nocnej \u2013 Alania","name:left:tr":"Kuzey Osetya-Alanya","name:left:id":"Ossetia Utara\u2013Alania","name:left:tt":"\u0422\u04e9\u043d\u044c\u044f\u043a \u041e\u0441\u0435\u0442\u0438\u044f","name:left:mn":"\u0410\u0440 \u041e\u0441\u0435\u0442-\u0410\u043b\u0430\u043d","name:left:az":"\u015eimali Osetiya","name:left:ms":"Ossetia Utara-Alania","name:left:af":"Noord-Osseti\u00eb-Alani\u00eb","name:left:tl":"Hilagang Osetya-Alania","name:left:it":"Ossezia Settentrionale-Alania","name:right:pl":"Kabardo-Ba\u0142karia","osm_relation":true,"name:right:de":"Kabardino-Balkarien","name:left:de":"Nordossetien-Alanien","sort_rank":256,"name:left:zh-yue":"\u5317\u5967\u585e\u68af-\u963f\u862d"},"arcs":[2]},{"type":"LineString","properties":{"name:right:hy":"\u0549\u0565\u0579\u0576\u056b\u0561","name:left:uz":"Shimoliy Osetiya Alaniya","name:left:he":"\u05e6\u05e4\u05d5\u05df \u05d0\u05d5\u05e1\u05d8\u05d9\u05d4 - \u05d0\u05dc\u05e0\u05d9\u05d4","name:left:sw":"Kaskazi Ossetia-Alania","name:left:sv":"Nordossetien","name:left:sq":"Osetia e Veriut-Alania","name:right:hu":"Csecsenf\u00f6ld","name:left:sr":"\u0421\u0435\u0432\u0435\u0440\u043d\u0430 \u041e\u0441\u0435\u0442\u0438\u0458\u0430 \u2014 \u0410\u043b\u0430\u043d\u0438\u0458\u0430","name:right:lt":"\u010ce\u010d\u0117nija","name:right:hi":"\u091a\u0947\u091a\u0928\u094d\u092f\u093e","min_zoom":8.0,"name:left:lt":"\u0160iaur\u0117s Osetija","name:left:sh":"Sjeverna Osetija-Alanija","name:left:lv":"Zieme\u013cosetija-Al\u0101nija","name:left:hu":"\u00c9szak-Osz\u00e9tia","name:left:hr":"Sjeverna Osetija-Alanija","name:right:os":"\u0426\u00e6\u0446\u00e6\u043d","name:right:af":"Tsjetsjni\u00eb","name:right:ab":"\u0427\u0435\u0447\u043d\u0438\u0430","source":"openstreetmap.org","name:left:ce":"\u041a\u044a\u0438\u043b\u0431\u0430\u0441\u0435\u0434\u0430 \u0425\u04c0\u0438\u0440\u0438\u0439\u0447\u043e\u044c","name:left:ca":"Oss\u00e8tia del Nord - Al\u00e0nia","name:left:gl":"Osetia do Norte-Alania","name:right:av":"\u0427\u0430\u0447\u0430\u043d\u0438\u0441\u0442\u0430\u043d","name:left:cy":"Gogledd Ossetia","name:right:ar":"\u0627\u0644\u0634\u064a\u0634\u0627\u0646","name:left:cv":"\u00c7\u0443\u0440\u00e7\u0115\u0440 \u041e\u0441\u0435\u0442\u0438","name:right:az":"\u00c7e\u00e7enistan","name:left:cs":"Severn\u00ed Osetie-Alanie","name:left":"\u0421\u0435\u0432\u0435\u0440\u043d\u0430\u044f \u041e\u0441\u0435\u0442\u0438\u044f - \u0410\u043b\u0430\u043d\u0438\u044f","name:right:sr":"\u0427\u0435\u0447\u0435\u043d\u0438\u0458\u0430","name:left:ka":"\u10e9\u10e0\u10d3\u10d8\u10da\u10dd\u10d4\u10d7\u10d8 \u10dd\u10e1\u10d4\u10d7\u10d8","name:right:mn":"\u0427\u0435\u0447\u0435\u043d\u044c","name:right:eu":"Txetxenia","name:left:os":"\u0426\u00e6\u0433\u0430\u0442 \u0418\u0440\u044b\u0441\u0442\u043e\u043d - \u0410\u043b\u0430\u043d\u0438","name:left:ro":"Osetia de Nord","name:right:ro":"Cecenia","name:right:id":"Chechnya","name:right:eo":"\u0108e\u0109enio","name:right:en":"Chechnya","name:left:vi":"B\u1eafc Ossetia-Alania","name:left:uk":"\u041f\u0456\u0432\u043d\u0456\u0447\u043d\u0430 \u041e\u0441\u0435\u0442\u0456\u044f","kind":"region","name:right:bn":"\u099a\u09c7\u099a\u09a8\u09bf\u09af\u09bc\u09be","name":"\u0421\u0435\u0432\u0435\u0440\u043d\u0430\u044f \u041e\u0441\u0435\u0442\u0438\u044f - \u0410\u043b\u0430\u043d\u0438\u044f - \u0427\u0435\u0447\u043d\u044f","name:left:fa":"\u0627\u0648\u0633\u062a\u06cc\u0627\u06cc \u0634\u0645\u0627\u0644\u06cc-\u0622\u0644\u0627\u0646\u06cc\u0627","name:right:ba":"\u0427\u0435\u0447\u0435\u043d \u0420\u0435\u0441\u043f\u0443\u0431\u043b\u0438\u043a\u0430\u04bb\u044b","name:right:fa":"\u0686\u0686\u0646","name:right:be":"\u0427\u0430\u0447\u043d\u044f","name:left:zh":"\u5317\u5965\u585e\u68af-\u963f\u5170\u5171\u548c\u56fd","name:left:fr":"Oss\u00e9tie-du-Nord-Alanie","name:left:da":"Republikken Nordossetien\u2013Alania","name:right:zh":"\u8f66\u81e3\u5171\u548c\u56fd","name:left:et":"P\u00f5hja-Osseetia","name:left:hy":"\u0540\u0575\u0578\u0582\u057d\u056b\u057d\u0561\u0575\u056b\u0576 \u0555\u057d\u056b\u0561","name:left:br":"Norzhosetia-Alania","name:left:bs":"Sjeverna Osetija-Alanija","name:right:nl":"Tsjetsjeni\u00eb","name:right:fr":"Tch\u00e9tch\u00e9nie","name:left:sk":"Severn\u00e9 Osetsko","name:left:ja":"\u5317\u30aa\u30bb\u30c1\u30a2\u5171\u548c\u56fd","name:right:sv":"Tjetjenien","name:left:nn":"Nord-Ossetia","name:right:sh":"\u010ce\u010denija","name:left:nl":"Noord-Osseti\u00eb","name:left:ba":"\u0422\u04e9\u043d\u044c\u044f\u04a1 \u041e\u0441\u0435\u0442\u0438\u044f \u2014 \u0410\u043b\u0430\u043d\u0438\u044f","name:right:sl":"\u010ce\u010denija","name:left:be":"\u041f\u0430\u045e\u043d\u043e\u0447\u043d\u0430\u044f \u0410\u0441\u0435\u0446\u0456\u044f","name:left:no":"Nord-Ossetia","name:right:fo":"Kekenia","name:left:fi":"Pohjois-Ossetia-Alania","id":-110032,"name:right:fi":"T\u0161et\u0161enia","name:left:en":"North Ossetia\u2013Alania","name:left:el":"\u0394\u03b7\u03bc\u03bf\u03ba\u03c1\u03b1\u03c4\u03af\u03b1 \u03c4\u03b7\u03c2 \u0392\u03cc\u03c1\u03b5\u03b9\u03b1\u03c2 \u039f\u03c3\u03b5\u03c4\u03af\u03b1\u03c2 - \u0391\u03bb\u03b1\u03bd\u03af\u03b1\u03c2","name:right:ca":"Txetx\u00e8nia","kind_detail":"4","name:right:ce":"\u041d\u043e\u0445\u0447\u0438\u0439\u0447\u043e\u044c","name:left:mk":"\u0421\u0435\u0432\u0435\u0440\u043d\u0430 \u041e\u0441\u0435\u0442\u0438\u0458\u0430-\u0410\u043b\u0430\u043d\u0438\u0458\u0430","id:left":-110032,"name:left:es":"Osetia del Norte-Alania","name:right:cs":"\u010ce\u010densko","name:right":"\u0427\u0435\u0447\u043d\u044f","id:right":-109877,"name:left:eu":"Ipar Osetia-Alania","name:right:cv":"\u0427\u0435\u0447\u0435\u043d \u0420\u0435\u0441\u043f\u0443\u0431\u043b\u0438\u043a\u0438","name:right:ka":"\u10e9\u10d4\u10e9\u10dc\u10d4\u10d7\u10d8","name:left:av":"\u0428\u0438\u043c\u0430\u043b\u0438\u044f\u0431 \u0413\u044c\u0438\u0440\u0438\u0441\u0442\u0430\u043d","name:left:ar":"\u0623\u0648\u0633\u064a\u062a\u064a\u0627 \u0627\u0644\u0634\u0645\u0627\u0644\u064a\u0629-\u0623\u0644\u0627\u0646\u064a\u0627","name:left:pl":"Republika Osetii P\u00f3\u0142nocnej \u2013 Alania","name:left:tr":"Kuzey Osetya-Alanya","name:left:id":"Ossetia Utara\u2013Alania","name:left:tt":"\u0422\u04e9\u043d\u044c\u044f\u043a \u041e\u0441\u0435\u0442\u0438\u044f","name:left:mn":"\u0410\u0440 \u041e\u0441\u0435\u0442-\u0410\u043b\u0430\u043d","name:right:ko":"\uccb4\uccb8 \uacf5\ud654\uad6d","name:left:az":"\u015eimali Osetiya","name:left:ms":"Ossetia Utara-Alania","name:left:af":"Noord-Osseti\u00eb-Alani\u00eb","name:left:de":"Nordossetien-Alanien","name:left:tl":"Hilagang Osetya-Alania","name:right:tr":"\u00c7e\u00e7enistan","name:left:it":"Ossezia Settentrionale-Alania","name:right:pl":"Czeczenia","osm_relation":true,"name:right:de":"Tschetschenien","name:right:da":"Tjetjenien","sort_rank":256,"name:right:el":"\u03a4\u03c3\u03b5\u03c4\u03c3\u03b5\u03bd\u03af\u03b1","name:left:zh-yue":"\u5317\u5967\u585e\u68af-\u963f\u862d","name:right:ga":"An tSeisnia"},"arcs":[3]},{"type":"LineString","properties":{"name:right:hy":"\u054d\u057f\u0561\u057e\u0580\u0578\u057a\u0578\u056c\u056b \u0565\u0580\u056f\u0580\u0561\u0574\u0561\u057d","name:left:uz":"Shimoliy Osetiya Alaniya","name:right:uk":"\u0421\u0442\u0430\u0432\u0440\u043e\u043f\u043e\u043b\u044c\u0441\u044c\u043a\u0438\u0439 \u043a\u0440\u0430\u0439","name:left:he":"\u05e6\u05e4\u05d5\u05df \u05d0\u05d5\u05e1\u05d8\u05d9\u05d4 - \u05d0\u05dc\u05e0\u05d9\u05d4","name:left:sw":"Kaskazi Ossetia-Alania","name:left:sv":"Nordossetien","name:left:sq":"Osetia e Veriut-Alania","name:left:sr":"\u0421\u0435\u0432\u0435\u0440\u043d\u0430 \u041e\u0441\u0435\u0442\u0438\u0458\u0430 \u2014 \u0410\u043b\u0430\u043d\u0438\u0458\u0430","name:right:lt":"Stavropolio kra\u0161tas","min_zoom":8.0,"name:left:lt":"\u0160iaur\u0117s Osetija","name:left:sh":"Sjeverna Osetija-Alanija","name:left:lv":"Zieme\u013cosetija-Al\u0101nija","name:left:hu":"\u00c9szak-Osz\u00e9tia","name:left:hr":"Sjeverna Osetija-Alanija","source":"openstreetmap.org","name:left:ce":"\u041a\u044a\u0438\u043b\u0431\u0430\u0441\u0435\u0434\u0430 \u0425\u04c0\u0438\u0440\u0438\u0439\u0447\u043e\u044c","name:left:ca":"Oss\u00e8tia del Nord - Al\u00e0nia","int_name:right":"Stavropol Krai","name:right:av":"\u0421\u0442\u0430\u0432\u0440\u043e\u043f\u043e\u043b \u0443\u043b\u043a\u0430","name:left:cy":"Gogledd Ossetia","name:right:os":"\u0421\u0442\u044a\u0430\u0440\u0430\u043f\u043e\u043b\u044b \u043a\u0440\u0430\u0439","name:left:cv":"\u00c7\u0443\u0440\u00e7\u0115\u0440 \u041e\u0441\u0435\u0442\u0438","name:right:az":"Stavropol diyar\u0131","name:left:cs":"Severn\u00ed Osetie-Alanie","name:left":"\u0421\u0435\u0432\u0435\u0440\u043d\u0430\u044f \u041e\u0441\u0435\u0442\u0438\u044f - \u0410\u043b\u0430\u043d\u0438\u044f","name:right:es":"Krai de St\u00e1vropol","name:left:ka":"\u10e9\u10e0\u10d3\u10d8\u10da\u10dd\u10d4\u10d7\u10d8 \u10dd\u10e1\u10d4\u10d7\u10d8","name:right:mn":"\u0421\u0442\u0430\u0432\u0440\u043e\u043f\u043e\u043b\u0438\u0439\u043d \u0445\u044f\u0437\u0433\u0430\u0430\u0440","name:left:os":"\u0426\u00e6\u0433\u0430\u0442 \u0418\u0440\u044b\u0441\u0442\u043e\u043d - \u0410\u043b\u0430\u043d\u0438","name:right:it":"Territorio di Stavropol'","name:left:ro":"Osetia de Nord","name:right:vi":"Stavropol (v\u00f9ng)","name:right:ro":"\u021ainutul Stavropol","id:right":-108081,"name:right:en":"Stavropol Krai","name:left:vi":"B\u1eafc Ossetia-Alania","name:left:uk":"\u041f\u0456\u0432\u043d\u0456\u0447\u043d\u0430 \u041e\u0441\u0435\u0442\u0456\u044f","kind":"region","name:right:tt":"\u0421\u0442\u0430\u0432\u0440\u043e\u043f\u043e\u043b\u044c \u043a\u0440\u0430\u0435","name":"\u0421\u0435\u0432\u0435\u0440\u043d\u0430\u044f \u041e\u0441\u0435\u0442\u0438\u044f - \u0410\u043b\u0430\u043d\u0438\u044f - \u0421\u0442\u0430\u0432\u0440\u043e\u043f\u043e\u043b\u044c\u0441\u043a\u0438\u0439 \u043a\u0440\u0430\u0439","name:left:fa":"\u0627\u0648\u0633\u062a\u06cc\u0627\u06cc \u0634\u0645\u0627\u0644\u06cc-\u0622\u0644\u0627\u0646\u06cc\u0627","name:right:bg":"\u0421\u0442\u0430\u0432\u0440\u043e\u043f\u043e\u043b\u0441\u043a\u0438 \u043a\u0440\u0430\u0439","name:right:be":"\u0421\u0442\u0430\u045e\u0440\u0430\u043f\u043e\u043b\u044c\u0441\u043a\u0456 \u043a\u0440\u0430\u0439","name:left:zh":"\u5317\u5965\u585e\u68af-\u963f\u5170\u5171\u548c\u56fd","name:left:fr":"Oss\u00e9tie-du-Nord-Alanie","name:left:da":"Republikken Nordossetien\u2013Alania","name:right:zh":"\u65af\u5854\u592b\u7f57\u6ce2\u5c14\u8fb9\u7586\u533a","name:left:et":"P\u00f5hja-Osseetia","name:left:hy":"\u0540\u0575\u0578\u0582\u057d\u056b\u057d\u0561\u0575\u056b\u0576 \u0555\u057d\u056b\u0561","name:left:br":"Norzhosetia-Alania","name:left:bs":"Sjeverna Osetija-Alanija","name:right:nl":"Kraj Stavropol","name:right:ja":"\u30b9\u30bf\u30f4\u30ed\u30dd\u30ea\u5730\u65b9","name:right:fr":"Kra\u00ef de Stavropol","name:left:gl":"Osetia do Norte-Alania","name:left:ja":"\u5317\u30aa\u30bb\u30c1\u30a2\u5171\u548c\u56fd","name:right:sv":"Stavropol kraj","name:left:nn":"Nord-Ossetia","name:left:no":"Nord-Ossetia","name:left:nl":"Noord-Osseti\u00eb","name:left:ba":"\u0422\u04e9\u043d\u044c\u044f\u04a1 \u041e\u0441\u0435\u0442\u0438\u044f \u2014 \u0410\u043b\u0430\u043d\u0438\u044f","name:right:sl":"Stavropolski kraj","name:left:be":"\u041f\u0430\u045e\u043d\u043e\u0447\u043d\u0430\u044f \u0410\u0441\u0435\u0446\u0456\u044f","name:left:fi":"Pohjois-Ossetia-Alania","id":-110032,"name:right":"\u0421\u0442\u0430\u0432\u0440\u043e\u043f\u043e\u043b\u044c\u0441\u043a\u0438\u0439 \u043a\u0440\u0430\u0439","name:left:en":"North Ossetia\u2013Alania","name:left:el":"\u0394\u03b7\u03bc\u03bf\u03ba\u03c1\u03b1\u03c4\u03af\u03b1 \u03c4\u03b7\u03c2 \u0392\u03cc\u03c1\u03b5\u03b9\u03b1\u03c2 \u039f\u03c3\u03b5\u03c4\u03af\u03b1\u03c2 - \u0391\u03bb\u03b1\u03bd\u03af\u03b1\u03c2","name:right:ca":"Territori de St\u00e0vropol","kind_detail":"4","name:left:sk":"Severn\u00e9 Osetsko","name:right:ce":"\u0421\u0442\u0430\u0432\u0440\u043e\u043f\u043e\u043b\u0430\u043d \u043c\u0435\u0445\u043a\u0430\u0439\u0438\u0441\u0442","name:left:mk":"\u0421\u0435\u0432\u0435\u0440\u043d\u0430 \u041e\u0441\u0435\u0442\u0438\u0458\u0430-\u0410\u043b\u0430\u043d\u0438\u0458\u0430","id:left":-110032,"name:left:es":"Osetia del Norte-Alania","name:right:cs":"Stavropolsk\u00fd kraj","name:left:eu":"Ipar Osetia-Alania","name:right:cv":"\u0421\u0442\u0430\u0432\u0440\u043e\u043f\u043e\u043b\u044c \u0415\u043d","name:right:ka":"\u10e1\u10e2\u10d0\u10d5\u10e0\u10dd\u10de\u10dd\u10da\u10d8\u10e1 \u10db\u10ee\u10d0\u10e0\u10d4","name:left:av":"\u0428\u0438\u043c\u0430\u043b\u0438\u044f\u0431 \u0413\u044c\u0438\u0440\u0438\u0441\u0442\u0430\u043d","name:right:pt":"Krai de Stavropol","name:left:ar":"\u0623\u0648\u0633\u064a\u062a\u064a\u0627 \u0627\u0644\u0634\u0645\u0627\u0644\u064a\u0629-\u0623\u0644\u0627\u0646\u064a\u0627","name:left:pl":"Republika Osetii P\u00f3\u0142nocnej \u2013 Alania","name:left:tr":"Kuzey Osetya-Alanya","name:left:id":"Ossetia Utara\u2013Alania","name:left:tt":"\u0422\u04e9\u043d\u044c\u044f\u043a \u041e\u0441\u0435\u0442\u0438\u044f","name:left:mn":"\u0410\u0440 \u041e\u0441\u0435\u0442-\u0410\u043b\u0430\u043d","name:right:tr":"Stavropol Kray\u0131","name:left:az":"\u015eimali Osetiya","name:left:ms":"Ossetia Utara-Alania","name:left:af":"Noord-Osseti\u00eb-Alani\u00eb","name:left:de":"Nordossetien-Alanien","name:left:tl":"Hilagang Osetya-Alania","name:right:kv":"\u0421\u0442\u0430\u0432\u0440\u043e\u043f\u043e\u043b\u044c \u043a\u0440\u0430\u0439","short_name:right":"\u0421\u0442\u0430\u0432\u0440\u043e\u043f\u043e\u043b\u044c\u0435","name:left:it":"Ossezia Settentrionale-Alania","name:right:pl":"Kraj Stawropolski","osm_relation":true,"name:right:de":"Region Stawropol","name:right:da":"Stavropol kraj","sort_rank":256,"name:right:el":"\u039a\u03c1\u03ac\u03b9 \u03a3\u03c4\u03b1\u03c5\u03c1\u03bf\u03cd\u03c0\u03bf\u03bb\u03b7\u03c2","name:left:zh-yue":"\u5317\u5967\u585e\u68af-\u963f\u862d"},"arcs":[4]},{"type":"LineString","properties":{"name:right:hy":"\u054d\u057f\u0561\u057e\u0580\u0578\u057a\u0578\u056c\u056b \u0565\u0580\u056f\u0580\u0561\u0574\u0561\u057d","name:right:uk":"\u0421\u0442\u0430\u0432\u0440\u043e\u043f\u043e\u043b\u044c\u0441\u044c\u043a\u0438\u0439 \u043a\u0440\u0430\u0439","name:right:lt":"Stavropolio kra\u0161tas","name:left:sl":"Republika Kabardino-Balkarija","min_zoom":8.0,"name:left:hy":"\u053f\u0561\u0562\u0561\u0580\u0564\u0561-\u0532\u0561\u056c\u056f\u0561\u0580\u056b\u0561","name:right:av":"\u0421\u0442\u0430\u0432\u0440\u043e\u043f\u043e\u043b \u0443\u043b\u043a\u0430","sort_rank":256,"name:left:ca":"Kabardino-Balk\u00e0ria","int_name:right":"Stavropol Krai","source":"openstreetmap.org","osm_relation":true,"name:right:az":"Stavropol diyar\u0131","name:left:cs":"Kabardsko-Balkarsko","name:left":"\u041a\u0430\u0431\u0430\u0440\u0434\u0438\u043d\u043e-\u0411\u0430\u043b\u043a\u0430\u0440\u0438\u044f","name:right:es":"Krai de St\u00e1vropol","name:left:ka":"\u10e7\u10d0\u10d1\u10d0\u10e0\u10d3\u10dd-\u10d1\u10d0\u10da\u10e7\u10d0\u10e0\u10d4\u10d7\u10d8","name:right:mn":"\u0421\u0442\u0430\u0432\u0440\u043e\u043f\u043e\u043b\u0438\u0439\u043d \u0445\u044f\u0437\u0433\u0430\u0430\u0440","name:right:it":"Territorio di Stavropol'","name:right:vi":"Stavropol (v\u00f9ng)","name:right:ro":"\u021ainutul Stavropol","name:right:sv":"Stavropol kraj","name:right:en":"Stavropol Krai","name:right:el":"\u039a\u03c1\u03ac\u03b9 \u03a3\u03c4\u03b1\u03c5\u03c1\u03bf\u03cd\u03c0\u03bf\u03bb\u03b7\u03c2","kind":"region","name":"\u041a\u0430\u0431\u0430\u0440\u0434\u0438\u043d\u043e-\u0411\u0430\u043b\u043a\u0430\u0440\u0438\u044f - \u0421\u0442\u0430\u0432\u0440\u043e\u043f\u043e\u043b\u044c\u0441\u043a\u0438\u0439 \u043a\u0440\u0430\u0439","name:right:bg":"\u0421\u0442\u0430\u0432\u0440\u043e\u043f\u043e\u043b\u0441\u043a\u0438 \u043a\u0440\u0430\u0439","name:right:be":"\u0421\u0442\u0430\u045e\u0440\u0430\u043f\u043e\u043b\u044c\u0441\u043a\u0456 \u043a\u0440\u0430\u0439","name:left:zh":"\u5361\u5df4\u5c14\u8fbe-\u5df4\u5c14\u5361\u5c14\u5171\u548c\u56fd","name:left:fr":"Kabardino-Balkarie","name:right:zh":"\u65af\u5854\u592b\u7f57\u6ce2\u5c14\u8fb9\u7586\u533a","name:right:nl":"Kraj Stavropol","name:right:ja":"\u30b9\u30bf\u30f4\u30ed\u30dd\u30ea\u5730\u65b9","name:right:fr":"Kra\u00ef de Stavropol","id:right":-108081,"name:left:uk":"\u041a\u0430\u0431\u0430\u0440\u0434\u0438\u043d\u043e-\u0411\u0430\u043b\u043a\u0430\u0440\u0456\u044f","name:left:nl":"Kabardi\u00eb-Balkari\u00eb","name:right:sl":"Stavropolski kraj","name:left:be":"\u041a\u0430\u0431\u0430\u0440\u0434\u0437\u0456\u043d\u0430-\u0411\u0430\u043b\u043a\u0430\u0440\u044b\u044f","id":-109879,"name:right":"\u0421\u0442\u0430\u0432\u0440\u043e\u043f\u043e\u043b\u044c\u0441\u043a\u0438\u0439 \u043a\u0440\u0430\u0439","name:left:en":"Kabardino-Balkaria","name:right:ca":"Territori de St\u00e0vropol","kind_detail":"4","name:right:ce":"\u0421\u0442\u0430\u0432\u0440\u043e\u043f\u043e\u043b\u0430\u043d \u043c\u0435\u0445\u043a\u0430\u0439\u0438\u0441\u0442","name:right:tt":"\u0421\u0442\u0430\u0432\u0440\u043e\u043f\u043e\u043b\u044c \u043a\u0440\u0430\u0435","id:left":-109879,"name:left:es":"Kabardia-Balkaria","name:right:cs":"Stavropolsk\u00fd kraj","name:right:cv":"\u0421\u0442\u0430\u0432\u0440\u043e\u043f\u043e\u043b\u044c \u0415\u043d","name:right:ka":"\u10e1\u10e2\u10d0\u10d5\u10e0\u10dd\u10de\u10dd\u10da\u10d8\u10e1 \u10db\u10ee\u10d0\u10e0\u10d4","name:right:pt":"Krai de Stavropol","name:left:pl":"Kabardo-Ba\u0142karia","name:left:az":"Kabarda-Balkariya","name:right:tr":"Stavropol Kray\u0131","name:left:pt":"Cab\u00e1rdia-Balc\u00e1ria","name:left:de":"Kabardino-Balkarien","name:left:ab":"\u049e\u0430\u0431\u0430\u0440\u0434\u0430-\u0411\u0430\u043b\u043a\u0430\u0440\u0438\u0430\u200e","name:right:kv":"\u0421\u0442\u0430\u0432\u0440\u043e\u043f\u043e\u043b\u044c \u043a\u0440\u0430\u0439","short_name:right":"\u0421\u0442\u0430\u0432\u0440\u043e\u043f\u043e\u043b\u044c\u0435","name:right:pl":"Kraj Stawropolski","name:right:os":"\u0421\u0442\u044a\u0430\u0440\u0430\u043f\u043e\u043b\u044b \u043a\u0440\u0430\u0439","name:right:de":"Region Stawropol","name:right:da":"Stavropol kraj","name:left:ce":"\u0413\u04c0\u0435\u0431\u0430\u0440\u0442\u043e\u0439\u043d-\u0411\u0430\u043b\u043a\u0445\u0430\u0440\u043e\u0439\u0447\u043e\u044c"},"arcs":[5]},{"type":"LineString","properties":{"name:right:hy":"\u054d\u057f\u0561\u057e\u0580\u0578\u057a\u0578\u056c\u056b \u0565\u0580\u056f\u0580\u0561\u0574\u0561\u057d","name:left:hi":"\u091a\u0947\u091a\u0928\u094d\u092f\u093e","name:right:uk":"\u0421\u0442\u0430\u0432\u0440\u043e\u043f\u043e\u043b\u044c\u0441\u044c\u043a\u0438\u0439 \u043a\u0440\u0430\u0439","name:left:sv":"Tjetjenien","name:left:sr":"\u0427\u0435\u0447\u0435\u043d\u0438\u0458\u0430","name:right:lt":"Stavropolio kra\u0161tas","name:left:sl":"\u010ce\u010denija","min_zoom":8.0,"name:left:lt":"\u010ce\u010d\u0117nija","name:left:sh":"\u010ce\u010denija","name:left:hu":"Csecsenf\u00f6ld","name:left:ga":"An tSeisnia","source":"openstreetmap.org","name:left:ce":"\u041d\u043e\u0445\u0447\u0438\u0439\u0447\u043e\u044c","name:left:ca":"Txetx\u00e8nia","int_name:right":"Stavropol Krai","name:right:av":"\u0421\u0442\u0430\u0432\u0440\u043e\u043f\u043e\u043b \u0443\u043b\u043a\u0430","osm_relation":true,"name:left:cv":"\u0427\u0435\u0447\u0435\u043d \u0420\u0435\u0441\u043f\u0443\u0431\u043b\u0438\u043a\u0438","name:right:az":"Stavropol diyar\u0131","name:left:cs":"\u010ce\u010densko","name:left":"\u0427\u0435\u0447\u043d\u044f","name:right:es":"Krai de St\u00e1vropol","name:left:ka":"\u10e9\u10d4\u10e9\u10dc\u10d4\u10d7\u10d8","name:right:mn":"\u0421\u0442\u0430\u0432\u0440\u043e\u043f\u043e\u043b\u0438\u0439\u043d \u0445\u044f\u0437\u0433\u0430\u0430\u0440","name:left:ko":"\uccb4\uccb8 \uacf5\ud654\uad6d","name:right:it":"Territorio di Stavropol'","name:left:ro":"Cecenia","name:right:vi":"Stavropol (v\u00f9ng)","name:right:ro":"\u021ainutul Stavropol","id:right":-108081,"name:right:en":"Stavropol Krai","name:right:el":"\u039a\u03c1\u03ac\u03b9 \u03a3\u03c4\u03b1\u03c5\u03c1\u03bf\u03cd\u03c0\u03bf\u03bb\u03b7\u03c2","kind":"region","name":"\u0427\u0435\u0447\u043d\u044f - \u0421\u0442\u0430\u0432\u0440\u043e\u043f\u043e\u043b\u044c\u0441\u043a\u0438\u0439 \u043a\u0440\u0430\u0439","name:left:fa":"\u0686\u0686\u0646","name:left:fo":"Kekenia","name:right:bg":"\u0421\u0442\u0430\u0432\u0440\u043e\u043f\u043e\u043b\u0441\u043a\u0438 \u043a\u0440\u0430\u0439","name:right:be":"\u0421\u0442\u0430\u045e\u0440\u0430\u043f\u043e\u043b\u044c\u0441\u043a\u0456 \u043a\u0440\u0430\u0439","name:left:zh":"\u8f66\u81e3\u5171\u548c\u56fd","name:left:fr":"Tch\u00e9tch\u00e9nie","name:left:da":"Tjetjenien","name:right:zh":"\u65af\u5854\u592b\u7f57\u6ce2\u5c14\u8fb9\u7586\u533a","name:left:hy":"\u0549\u0565\u0579\u0576\u056b\u0561","name:right:nl":"Kraj Stavropol","name:right:ja":"\u30b9\u30bf\u30f4\u30ed\u30dd\u30ea\u5730\u65b9","name:right:fr":"Kra\u00ef de Stavropol","name:right:sv":"Stavropol kraj","name:left:nl":"Tsjetsjeni\u00eb","name:left:ba":"\u0427\u0435\u0447\u0435\u043d \u0420\u0435\u0441\u043f\u0443\u0431\u043b\u0438\u043a\u0430\u04bb\u044b","name:right:sl":"Stavropolski kraj","name:left:be":"\u0427\u0430\u0447\u043d\u044f","name:left:fi":"T\u0161et\u0161enia","name:left:bn":"\u099a\u09c7\u099a\u09a8\u09bf\u09af\u09bc\u09be","id":-109877,"name:right":"\u0421\u0442\u0430\u0432\u0440\u043e\u043f\u043e\u043b\u044c\u0441\u043a\u0438\u0439 \u043a\u0440\u0430\u0439","name:left:eo":"\u0108e\u0109enio","name:left:en":"Chechnya","name:left:el":"\u03a4\u03c3\u03b5\u03c4\u03c3\u03b5\u03bd\u03af\u03b1","name:right:ca":"Territori de St\u00e0vropol","kind_detail":"4","name:right:ce":"\u0421\u0442\u0430\u0432\u0440\u043e\u043f\u043e\u043b\u0430\u043d \u043c\u0435\u0445\u043a\u0430\u0439\u0438\u0441\u0442","name:right:tt":"\u0421\u0442\u0430\u0432\u0440\u043e\u043f\u043e\u043b\u044c \u043a\u0440\u0430\u0435","id:left":-109877,"name:right:cs":"Stavropolsk\u00fd kraj","name:left:os":"\u0426\u00e6\u0446\u00e6\u043d","name:left:eu":"Txetxenia","name:right:cv":"\u0421\u0442\u0430\u0432\u0440\u043e\u043f\u043e\u043b\u044c \u0415\u043d","name:right:ka":"\u10e1\u10e2\u10d0\u10d5\u10e0\u10dd\u10de\u10dd\u10da\u10d8\u10e1 \u10db\u10ee\u10d0\u10e0\u10d4","name:left:av":"\u0427\u0430\u0447\u0430\u043d\u0438\u0441\u0442\u0430\u043d","name:right:pt":"Krai de Stavropol","name:left:ar":"\u0627\u0644\u0634\u064a\u0634\u0627\u0646","name:left:pl":"Czeczenia","name:left:tr":"\u00c7e\u00e7enistan","name:left:id":"Chechnya","name:left:mn":"\u0427\u0435\u0447\u0435\u043d\u044c","name:right:tr":"Stavropol Kray\u0131","name:left:az":"\u00c7e\u00e7enistan","name:left:af":"Tsjetsjni\u00eb","name:left:de":"Tschetschenien","name:left:ab":"\u0427\u0435\u0447\u043d\u0438\u0430","name:right:kv":"\u0421\u0442\u0430\u0432\u0440\u043e\u043f\u043e\u043b\u044c \u043a\u0440\u0430\u0439","short_name:right":"\u0421\u0442\u0430\u0432\u0440\u043e\u043f\u043e\u043b\u044c\u0435","name:right:pl":"Kraj Stawropolski","name:right:os":"\u0421\u0442\u044a\u0430\u0440\u0430\u043f\u043e\u043b\u044b \u043a\u0440\u0430\u0439","name:right:de":"Region Stawropol","name:right:da":"Stavropol kraj","sort_rank":256},"arcs":[6]}]},"roads":{"type":"GeometryCollection","geometries":[{"type":"LineString","properties":{"kind":"major_road","network":"e-road","sort_rank":381,"kind_detail":"trunk","source":"openstreetmap.org","min_zoom":8.0,"shield_text":"117","ref":"\u0420-217","id":435307094},"arcs":[45]},{"type":"LineString","properties":{"bus_network":null,"network":"ru:regional","sort_rank":380,"kind_detail":"primary","kind":"major_road","source":"openstreetmap.org","min_zoom":8.0,"bus_shield_text":"\u2116203","shield_text":"90\u041a","landuse_kind":"residential"},"arcs":[46]},{"type":"MultiLineString","properties":{"bus_network":null,"network":"ru:national","sort_rank":381,"kind_detail":"trunk","kind":"major_road","source":"openstreetmap.org","min_zoom":8.0,"bus_shield_text":"236","shield_text":"161","ref":"\u0410-161"},"arcs":[[47],[48],[49],[50],[51],[52],[53],[54]]},{"type":"LineString","properties":{"bus_network":null,"name:en":"Mira Street","network":"ru:national","sort_rank":381,"kind_detail":"trunk","kind":"major_road","name:de":"uliza Mira","source":"openstreetmap.org","min_zoom":8.0,"bus_shield_text":"135","shield_text":"217","ref":"\u0420-217","name:os":"\u0421\u0430\u0431\u044b\u0440\u0434\u0437\u0438\u043d\u0430\u0434\u044b \u0443\u044b\u043d\u0433"},"arcs":[55]},{"type":"LineString","properties":{"bus_network":null,"network":"ru:regional","sort_rank":380,"kind_detail":"primary","kind":"major_road","source":"openstreetmap.org","min_zoom":8.0,"bus_shield_text":"120","shield_text":"90\u041a"},"arcs":[56]},{"type":"LineString","properties":{"kind":"major_road","sort_rank":380,"landuse_kind":"residential","source":"openstreetmap.org","min_zoom":8.0,"kind_detail":"primary","ref":"\u0420262","id":151506394},"arcs":[57]},{"type":"MultiLineString","properties":{"bus_network":null,"sort_rank":380,"kind_detail":"primary","kind":"major_road","source":"openstreetmap.org","min_zoom":8.0,"bus_shield_text":"3","landuse_kind":"urban_area"},"arcs":[[58],[59],[60],[61],[62]]},{"type":"MultiLineString","properties":{"bus_network":null,"network":"ru:regional","sort_rank":380,"kind_detail":"primary","kind":"major_road","source":"openstreetmap.org","min_zoom":8.0,"bus_shield_text":"122\u0410","shield_text":"90\u041a","landuse_kind":"urban_area"},"arcs":[[63],[64]]},{"type":"LineString","properties":{"bus_network":null,"network":"ru:regional","sort_rank":380,"kind_detail":"primary","kind":"major_road","source":"openstreetmap.org","min_zoom":8.0,"bus_shield_text":"122 \u0411","shield_text":"90\u041a","landuse_kind":"urban_area"},"arcs":[65]},{"type":"MultiLineString","properties":{"bus_network":null,"sort_rank":380,"kind_detail":"primary","kind":"major_road","source":"openstreetmap.org","min_zoom":8.0,"bus_shield_text":"1","landuse_kind":"urban_area"},"arcs":[[66],[67],[68]]},{"type":"MultiLineString","properties":{"bus_network":null,"network":"ru:national","sort_rank":381,"kind_detail":"trunk","kind":"major_road","source":"openstreetmap.org","min_zoom":8.0,"bus_shield_text":"135","shield_text":"217","ref":"\u0420-217"},"arcs":[[69],[70],[71],[72]]},{"type":"LineString","properties":{"kind":"major_road","network":"ru:national","sort_rank":380,"kind_detail":"primary","source":"openstreetmap.org","min_zoom":8.0,"landuse_kind":"residential","shield_text":"164","ref":"\u0410-164","id":290805461},"arcs":[73]},{"type":"MultiLineString","properties":{"bus_network":null,"network":"ru:national","sort_rank":380,"kind_detail":"primary","kind":"major_road","source":"openstreetmap.org","min_zoom":8.0,"bus_shield_text":"146","shield_text":"164","ref":"\u0410-164"},"arcs":[[74],[75]]},{"type":"LineString","properties":{"bus_network":null,"network":"ru:regional","sort_rank":380,"kind_detail":"primary","kind":"major_road","source":"openstreetmap.org","min_zoom":8.0,"bus_shield_text":"119","shield_text":"90\u041a","landuse_kind":"urban_area"},"arcs":[76]},{"type":"LineString","properties":{"kind":"major_road","network":"ru:national","sort_rank":381,"kind_detail":"trunk","bus_network":null,"source":"openstreetmap.org","min_zoom":8.0,"bus_shield_text":"122\u0410","shield_text":"161","landuse_kind":"urban_area","ref":"\u0410-161","id":290681863},"arcs":[77]},{"type":"LineString","properties":{"bus_network":null,"network":"ru:national","sort_rank":381,"kind_detail":"trunk","kind":"major_road","source":"openstreetmap.org","min_zoom":8.0,"bus_shield_text":"122\u0410","shield_text":"161","ref":"\u0410-161"},"arcs":[78]},{"type":"LineString","properties":{"kind":"major_road","network":"ru:national","sort_rank":380,"kind_detail":"primary","bus_network":null,"source":"openstreetmap.org","min_zoom":8.0,"bus_shield_text":"146","shield_text":"164","ref":"\u0410-164","id":501385470,"name:os":"\u041b\u0435\u043d\u0438\u043d\u044b \u0443\u044b\u043d\u0433"},"arcs":[79]},{"type":"LineString","properties":{"kind":"major_road","sort_rank":380,"kind_detail":"primary","bus_network":null,"source":"openstreetmap.org","min_zoom":8.0,"bus_shield_text":"184","landuse_kind":"urban_area","ref":"P290","id":291159756},"arcs":[80]},{"type":"MultiLineString","properties":{"bus_network":null,"network":"ru:national","sort_rank":381,"landuse_kind":"residential","kind":"major_road","source":"openstreetmap.org","min_zoom":8.0,"bus_shield_text":"135","shield_text":"217","kind_detail":"trunk","ref":"\u0420-217"},"arcs":[[81],[82]]},{"type":"MultiLineString","properties":{"bus_network":null,"network":"ru:national","sort_rank":381,"kind_detail":"trunk","kind":"major_road","source":"openstreetmap.org","min_zoom":8.0,"bus_shield_text":"169","shield_text":"217","ref":"\u0420-217"},"arcs":[[83],[84]]},{"type":"MultiLineString","properties":{"kind":"major_road","network":"ru:national","sort_rank":381,"kind_detail":"trunk","source":"openstreetmap.org","min_zoom":8.0,"shield_text":"161","ref":"\u0410-161"},"arcs":[[85],[86]]},{"type":"MultiLineString","properties":{"kind":"major_road","network":"ru:national","sort_rank":381,"kind_detail":"trunk","source":"openstreetmap.org","min_zoom":8.0,"landuse_kind":"residential","shield_text":"217","ref":"\u0420-217"},"arcs":[[87],[88],[89],[90],[91],[92],[93]]},{"type":"LineString","properties":{"kind":"major_road","network":"ru:national","sort_rank":381,"kind_detail":"trunk","bus_network":null,"source":"openstreetmap.org","min_zoom":8.0,"bus_shield_text":"265","shield_text":"217","ref":"\u0420-217","id":292687809},"arcs":[94]},{"type":"LineString","properties":{"kind":"major_road","name:en":"Zheleznodorozhnaya Street","sort_rank":380,"kind_detail":"primary","name:de":"Schelesnodoroschnaja uliza","source":"openstreetmap.org","min_zoom":8.0,"name:os":"\u00c6\u0444\u0441\u00e6\u043d\u0432\u00e6\u043d\u0434\u0430\u0434\u0436\u044b \u0443\u044b\u043d\u0433","ref":"\u0420262","id":430196526},"arcs":[95]},{"type":"LineString","properties":{"kind":"major_road","network":"ru:national","sort_rank":380,"kind_detail":"primary","source":"openstreetmap.org","min_zoom":8.0,"landuse_kind":"urban_area","shield_text":"217","ref":"\u0420-217"},"arcs":[96]},{"type":"MultiLineString","properties":{"sort_rank":381,"source":"openstreetmap.org","min_zoom":8.0,"kind":"major_road","kind_detail":"trunk"},"arcs":[[97],[98],[99],[100],[101],[102],[103]]},{"type":"LineString","properties":{"kind":"major_road","sort_rank":380,"kind_detail":"primary","bus_network":null,"source":"openstreetmap.org","min_zoom":8.0,"bus_shield_text":"3","name:ru":"\u041c\u0430\u0433\u0438\u0441\u0442\u0440\u0430\u043b\u044c\u043d\u0430\u044f \u0443\u043b\u0438\u0446\u0430","landuse_kind":"urban_area","ref":"\u0420262","id":151506382},"arcs":[104]},{"type":"LineString","properties":{"bus_network":null,"sort_rank":380,"kind_detail":"primary","kind":"major_road","source":"openstreetmap.org","min_zoom":8.0,"bus_shield_text":"184","landuse_kind":"residential","ref":"P290"},"arcs":[105]},{"type":"LineString","properties":{"bus_network":null,"name:en":"Lenina Street","sort_rank":380,"kind_detail":"primary","kind":"major_road","name:de":"uliza Lenina","source":"openstreetmap.org","min_zoom":8.0,"bus_shield_text":"110","name:os":"\u041b\u0435\u043d\u0438\u043d\u044b \u0443\u044b\u043d\u0433","landuse_kind":"residential","ref":"P-296"},"arcs":[106]},{"type":"LineString","properties":{"source":"openstreetmap.org","kind":"major_road","sort_rank":381,"kind_detail":"trunk","ref":"\u0410-161","min_zoom":8.0},"arcs":[107]},{"type":"LineString","properties":{"kind":"major_road","sort_rank":380,"kind_detail":"primary","bus_network":null,"source":"openstreetmap.org","min_zoom":8.0,"bus_shield_text":"5","id":281599984},"arcs":[108]},{"type":"LineString","properties":{"bus_network":null,"network":"ru:regional","sort_rank":380,"kind_detail":"primary","kind":"major_road","source":"openstreetmap.org","min_zoom":8.0,"bus_shield_text":"122 \u0411","shield_text":"90\u041a"},"arcs":[109]},{"type":"LineString","properties":{"bus_network":null,"network":"ru:national","sort_rank":380,"kind_detail":"primary","kind":"major_road","source":"openstreetmap.org","min_zoom":8.0,"bus_shield_text":"207","shield_text":"164","ref":"\u0410-164"},"arcs":[110]},{"type":"LineString","properties":{"source":"openstreetmap.org","kind":"major_road","landuse_kind":"residential","sort_rank":380,"kind_detail":"primary","ref":"P290","min_zoom":8.0},"arcs":[111]},{"type":"LineString","properties":{"kind":"major_road","network":"ru:regional","sort_rank":380,"kind_detail":"primary","source":"openstreetmap.org","min_zoom":8.0,"landuse_kind":"residential","shield_text":"26\u041a","ref":"26\u041a-001","id":385833024},"arcs":[112]},{"type":"LineString","properties":{"kind":"major_road","sort_rank":380,"kind_detail":"primary","bus_network":null,"source":"openstreetmap.org","min_zoom":8.0,"bus_shield_text":"184","ref":"P290","id":291159756},"arcs":[113]},{"type":"MultiLineString","properties":{"kind":"major_road","network":"ru:national","sort_rank":381,"landuse_kind":"urban_area","source":"openstreetmap.org","min_zoom":8.0,"kind_detail":"trunk","shield_text":"217","ref":"\u0420-217"},"arcs":[[114],[115],[116],[117],[118],[119],[120],[121]]},{"type":"LineString","properties":{"bus_network":null,"network":"ru:regional","sort_rank":380,"kind_detail":"primary","kind":"major_road","source":"openstreetmap.org","min_zoom":8.0,"bus_shield_text":"119","shield_text":"90\u041a"},"arcs":[122]},{"type":"MultiLineString","properties":{"bus_network":null,"sort_rank":380,"kind_detail":"primary","kind":"major_road","source":"openstreetmap.org","min_zoom":8.0,"bus_shield_text":"5","landuse_kind":"urban_area"},"arcs":[[123],[124],[125]]},{"type":"MultiLineString","properties":{"source":"openstreetmap.org","kind":"major_road","kind_detail":"trunk","sort_rank":381,"landuse_kind":"urban_area","min_zoom":8.0},"arcs":[[126],[127]]},{"type":"MultiLineString","properties":{"source":"openstreetmap.org","kind":"major_road","landuse_kind":"urban_area","sort_rank":380,"kind_detail":"primary","min_zoom":8.0},"arcs":[[128],[129],[130],[131],[132],[133],[134],[135],[136],[137],[138],[139],[140],[141],[142],[143],[144],[145],[146],[147],[148],[149],[150],[151],[152],[153],[154],[155],[156],[157],[158],[159],[160]]},{"type":"MultiLineString","properties":{"bus_network":null,"network":"ru:national","sort_rank":380,"kind_detail":"primary","kind":"major_road","source":"openstreetmap.org","min_zoom":8.0,"bus_shield_text":"3","shield_text":"217","landuse_kind":"urban_area","ref":"\u0420-217"},"arcs":[[161],[162]]},{"type":"LineString","properties":{"bus_network":null,"network":"ru:regional","sort_rank":380,"kind_detail":"primary","kind":"major_road","source":"openstreetmap.org","min_zoom":8.0,"bus_shield_text":"122\u0410","shield_text":"90\u041a","landuse_kind":"residential"},"arcs":[163]},{"type":"LineString","properties":{"bus_network":null,"name:en":"Proletarskaya Street","network":"ru:regional","sort_rank":380,"kind_detail":"primary","kind":"major_road","name:de":"Proletarskaja uliza","source":"openstreetmap.org","min_zoom":8.0,"bus_shield_text":"122 \u0411","shield_text":"90\u041a","landuse_kind":"residential"},"arcs":[164]},{"type":"LineString","properties":{"source":"openstreetmap.org","kind":"major_road","sort_rank":381,"kind_detail":"trunk","ref":"\u0420-217","min_zoom":8.0,"id":510465730},"arcs":[165]},{"type":"LineString","properties":{"bus_network":null,"name:en":"Lenina Street","network":"ru:regional","sort_rank":380,"kind_detail":"primary","kind":"major_road","name:de":"uliza Lenina","source":"openstreetmap.org","min_zoom":8.0,"bus_shield_text":"\u2116203","name:os":"\u041b\u0435\u043d\u0438\u043d\u044b \u0443\u044b\u043d\u0433","shield_text":"90\u041a"},"arcs":[166]},{"type":"LineString","properties":{"bus_network":null,"network":"ru:regional","sort_rank":380,"kind_detail":"primary","kind":"major_road","source":"openstreetmap.org","min_zoom":8.0,"bus_shield_text":"122","shield_text":"90\u041a"},"arcs":[167]},{"type":"LineString","properties":{"source":"openstreetmap.org","kind":"major_road","network":"e-road","sort_rank":381,"kind_detail":"trunk","min_zoom":8.0,"shield_text":"50"},"arcs":[168]},{"type":"LineString","properties":{"bus_network":null,"network":"ru:national","sort_rank":380,"kind_detail":"primary","kind":"major_road","source":"openstreetmap.org","min_zoom":8.0,"bus_shield_text":"207","shield_text":"164","landuse_kind":"urban_area","ref":"\u0410-164"},"arcs":[169]},{"type":"MultiLineString","properties":{"source":"openstreetmap.org","kind":"major_road","landuse_kind":"urban_area","sort_rank":380,"kind_detail":"primary","ref":"P-296","min_zoom":8.0},"arcs":[[170],[171],[172]]},{"type":"LineString","properties":{"bus_network":null,"network":"ru:national","sort_rank":381,"kind_detail":"trunk","kind":"major_road","source":"openstreetmap.org","min_zoom":8.0,"bus_shield_text":"169","shield_text":"217","landuse_kind":"residential","ref":"\u0420-217"},"arcs":[173]},{"type":"MultiLineString","properties":{"bus_network":null,"sort_rank":380,"kind_detail":"primary","kind":"major_road","source":"openstreetmap.org","min_zoom":8.0,"bus_shield_text":"3","landuse_kind":"urban_area","ref":"1"},"arcs":[[174],[175]]},{"type":"LineString","properties":{"kind":"major_road","network":"ru:national","sort_rank":380,"kind_detail":"primary","bus_network":null,"source":"openstreetmap.org","min_zoom":8.0,"bus_shield_text":"125","shield_text":"164","landuse_kind":"residential","ref":"\u0410-164","id":289744837},"arcs":[176]},{"type":"MultiLineString","properties":{"sort_rank":380,"kind_detail":"primary","min_zoom":8.0,"kind":"major_road","source":"openstreetmap.org"},"arcs":[[177],[178],[179],[180],[181],[182],[183],[184],[185],[186],[187],[188],[189],[190],[191],[192],[193],[194],[195],[196],[197],[198],[199]]},{"type":"LineString","properties":{"bus_network":null,"sort_rank":380,"kind_detail":"primary","kind":"major_road","source":"openstreetmap.org","min_zoom":8.0,"bus_shield_text":"110","landuse_kind":"residential","ref":"P-296"},"arcs":[200]},{"type":"MultiLineString","properties":{"bus_network":null,"sort_rank":380,"kind_detail":"primary","kind":"major_road","source":"openstreetmap.org","min_zoom":8.0,"bus_shield_text":"110","ref":"P-296"},"arcs":[[201],[202]]},{"type":"MultiLineString","properties":{"kind":"major_road","network":"ru:national","sort_rank":380,"kind_detail":"primary","source":"openstreetmap.org","min_zoom":8.0,"shield_text":"158","ref":"\u0410-158"},"arcs":[[203],[204]]},{"type":"MultiLineString","properties":{"kind":"major_road","network":"ru:regional","sort_rank":380,"kind_detail":"primary","source":"openstreetmap.org","min_zoom":8.0,"landuse_kind":"urban_area","shield_text":"90\u041a"},"arcs":[[205],[206]]},{"type":"MultiLineString","properties":{"source":"openstreetmap.org","kind":"major_road","sort_rank":380,"kind_detail":"primary","ref":"\u0420262","min_zoom":8.0},"arcs":[[207],[208],[209],[210],[211],[212],[213],[214]]},{"type":"LineString","properties":{"kind":"major_road","network":"ru:national","sort_rank":381,"kind_detail":"trunk","bus_network":null,"source":"openstreetmap.org","min_zoom":8.0,"bus_shield_text":"119","shield_text":"161","landuse_kind":"urban_area","ref":"\u0410-161","id":169540499},"arcs":[215]},{"type":"MultiLineString","properties":{"source":"openstreetmap.org","kind":"major_road","landuse_kind":"residential","sort_rank":380,"kind_detail":"primary","ref":"P-296","min_zoom":8.0},"arcs":[[216],[217],[218]]},{"type":"LineString","properties":{"kind":"major_road","network":"ru:national","sort_rank":380,"kind_detail":"primary","bus_network":null,"source":"openstreetmap.org","min_zoom":8.0,"bus_shield_text":"207","shield_text":"164","landuse_kind":"residential","ref":"\u0410-164","id":474330972},"arcs":[219]},{"type":"LineString","properties":{"bus_network":null,"int_name":"E 50","network":"ru:national","sort_rank":381,"kind_detail":"trunk","kind":"major_road","source":"openstreetmap.org","min_zoom":8.0,"bus_shield_text":"135","shield_text":"217","ref":"\u0420-217"},"arcs":[220]},{"type":"LineString","properties":{"source":"openstreetmap.org","kind":"major_road","landuse_kind":"urban_area","sort_rank":380,"kind_detail":"primary","ref":"P290","min_zoom":8.0},"arcs":[221]},{"type":"LineString","properties":{"kind":"major_road","network":"e-road","sort_rank":381,"kind_detail":"trunk","source":"openstreetmap.org","min_zoom":8.0,"landuse_kind":"residential","shield_text":"50"},"arcs":[222]},{"type":"MultiLineString","properties":{"bus_network":null,"network":"ru:national","sort_rank":380,"kind_detail":"primary","kind":"major_road","source":"openstreetmap.org","min_zoom":8.0,"bus_shield_text":"146","shield_text":"164","landuse_kind":"urban_area","ref":"\u0410-164"},"arcs":[[223],[224]]},{"type":"LineString","properties":{"bus_network":null,"int_name":"E 117","network":"ru:national","sort_rank":381,"kind_detail":"trunk","kind":"major_road","source":"openstreetmap.org","min_zoom":8.0,"bus_shield_text":"135","shield_text":"217","ref":"\u0420-217"},"arcs":[225]},{"type":"MultiLineString","properties":{"bus_network":null,"sort_rank":380,"kind_detail":"primary","kind":"major_road","source":"openstreetmap.org","min_zoom":8.0,"bus_shield_text":"110","landuse_kind":"urban_area","ref":"P-296"},"arcs":[[226],[227]]},{"type":"LineString","properties":{"kind":"major_road","network":"ru:national","sort_rank":381,"landuse_kind":"urban_area","source":"openstreetmap.org","min_zoom":8.0,"kind_detail":"trunk","shield_text":"161","ref":"\u0410-161"},"arcs":[228]},{"type":"MultiLineString","properties":{"bus_network":null,"sort_rank":380,"kind_detail":"primary","kind":"major_road","source":"openstreetmap.org","min_zoom":8.0,"bus_shield_text":"3","landuse_kind":"urban_area","ref":"\u0420262"},"arcs":[[229],[230],[231],[232]]},{"type":"LineString","properties":{"bus_network":null,"network":"ru:regional","sort_rank":380,"kind_detail":"primary","kind":"major_road","source":"openstreetmap.org","min_zoom":8.0,"bus_shield_text":"\u2116203","shield_text":"90\u041a"},"arcs":[233]},{"type":"MultiLineString","properties":{"bus_network":null,"sort_rank":380,"kind_detail":"primary","kind":"major_road","source":"openstreetmap.org","min_zoom":8.0,"bus_shield_text":"3","landuse_kind":"residential","ref":"\u0420262"},"arcs":[[234],[235]]},{"type":"LineString","properties":{"bus_network":null,"name:en":"Lenina Street","network":"ru:regional","sort_rank":380,"kind_detail":"primary","kind":"major_road","name:de":"uliza Lenina","source":"openstreetmap.org","min_zoom":8.0,"bus_shield_text":"122\u0410","name:os":"\u041b\u0435\u043d\u0438\u043d\u044b \u0443\u044b\u043d\u0433","shield_text":"90\u041a"},"arcs":[236]},{"type":"LineString","properties":{"bus_network":null,"network":"ru:national","sort_rank":381,"landuse_kind":"urban_area","kind":"major_road","source":"openstreetmap.org","min_zoom":8.0,"bus_shield_text":"128","shield_text":"217","kind_detail":"trunk","ref":"\u0420-217"},"arcs":[237]},{"type":"MultiLineString","properties":{"bus_network":null,"network":"ru:national","sort_rank":380,"kind_detail":"primary","kind":"major_road","source":"openstreetmap.org","min_zoom":8.0,"bus_shield_text":"146","shield_text":"164","landuse_kind":"residential","ref":"\u0410-164"},"arcs":[[238],[239]]},{"type":"MultiLineString","properties":{"bus_network":null,"network":"ru:national","sort_rank":381,"landuse_kind":"urban_area","kind":"major_road","source":"openstreetmap.org","min_zoom":8.0,"bus_shield_text":"236","shield_text":"161","kind_detail":"trunk","ref":"\u0410-161"},"arcs":[[240],[241],[242],[243],[244],[245]]},{"type":"LineString","properties":{"kind":"major_road","name:en":"Trassovaya Street","sort_rank":380,"kind_detail":"primary","name:de":"Trassowaja uliza","source":"openstreetmap.org","min_zoom":8.0,"ref":"\u0420262","id":485140455},"arcs":[246]},{"type":"LineString","properties":{"bus_network":null,"sort_rank":380,"kind_detail":"primary","kind":"major_road","source":"openstreetmap.org","min_zoom":8.0,"bus_shield_text":"3","ref":"\u0420262"},"arcs":[247]},{"type":"LineString","properties":{"bus_network":null,"network":"ru:national","sort_rank":381,"kind_detail":"trunk","kind":"major_road","source":"openstreetmap.org","min_zoom":8.0,"bus_shield_text":"119","shield_text":"161","ref":"\u0410-161"},"arcs":[248]},{"type":"LineString","properties":{"kind":"major_road","network":"ru:national","sort_rank":380,"kind_detail":"primary","bus_network":null,"source":"openstreetmap.org","min_zoom":8.0,"bus_shield_text":"\u2116203","shield_text":"164","landuse_kind":"residential","ref":"\u0410-164","id":289744840},"arcs":[249]},{"type":"LineString","properties":{"bus_network":null,"name:en":"Proletarskaya Street","network":"ru:regional","sort_rank":380,"kind_detail":"primary","kind":"major_road","name:de":"Proletarskaja uliza","source":"openstreetmap.org","min_zoom":8.0,"bus_shield_text":"\u2116203","shield_text":"90\u041a","landuse_kind":"residential"},"arcs":[250]},{"type":"LineString","properties":{"kind":"major_road","network":"ru:national","sort_rank":381,"kind_detail":"trunk","bus_network":null,"source":"openstreetmap.org","min_zoom":8.0,"bus_shield_text":"135","shield_text":"217","landuse_kind":"urban_area","ref":"\u0420-217","id":290681861},"arcs":[251]},{"type":"MultiLineString","properties":{"source":"openstreetmap.org","kind":"major_road","sort_rank":380,"kind_detail":"primary","ref":"P-296","min_zoom":8.0},"arcs":[[252],[253],[254],[255],[256],[257],[258],[259]]},{"type":"MultiLineString","properties":{"kind":"major_road","network":"ru:regional","sort_rank":380,"kind_detail":"primary","source":"openstreetmap.org","min_zoom":8.0,"shield_text":"26\u041a","ref":"26\u041a-001"},"arcs":[[260],[261],[262]]},{"type":"LineString","properties":{"kind":"major_road","network":"e-road","sort_rank":381,"kind_detail":"trunk","bus_network":null,"source":"openstreetmap.org","min_zoom":8.0,"bus_shield_text":"135","shield_text":"50","landuse_kind":"residential","ref":"\u0420-217","id":297172530},"arcs":[263]},{"type":"MultiLineString","properties":{"bus_network":null,"network":"ru:regional","sort_rank":380,"kind_detail":"primary","kind":"major_road","source":"openstreetmap.org","min_zoom":8.0,"bus_shield_text":"122\u0410","shield_text":"90\u041a"},"arcs":[[264],[265]]},{"type":"LineString","properties":{"kind":"major_road","network":"ru:national","sort_rank":380,"kind_detail":"primary","source":"openstreetmap.org","min_zoom":8.0,"shield_text":"158","id":99689898},"arcs":[266]},{"type":"LineString","properties":{"bus_network":null,"network":"ru:national","sort_rank":380,"kind_detail":"primary","kind":"major_road","source":"openstreetmap.org","min_zoom":8.0,"bus_shield_text":"169","shield_text":"164","ref":"\u0410-164"},"arcs":[267]},{"type":"LineString","properties":{"bus_network":null,"network":"ru:regional","sort_rank":380,"kind_detail":"primary","kind":"major_road","source":"openstreetmap.org","min_zoom":8.0,"bus_shield_text":"\u2116203","shield_text":"90\u041a","landuse_kind":"urban_area"},"arcs":[268]},{"type":"MultiLineString","properties":{"source":"openstreetmap.org","kind":"major_road","landuse_kind":"urban_area","sort_rank":380,"kind_detail":"primary","ref":"\u0420262","min_zoom":8.0},"arcs":[[269],[270],[271],[272]]},{"type":"MultiLineString","properties":{"source":"openstreetmap.org","kind":"major_road","landuse_kind":"residential","sort_rank":381,"kind_detail":"trunk","min_zoom":8.0},"arcs":[[273],[274]]},{"type":"MultiLineString","properties":{"kind":"major_road","network":"e-road","sort_rank":381,"kind_detail":"trunk","source":"openstreetmap.org","min_zoom":8.0,"landuse_kind":"residential","shield_text":"50","ref":"\u0420-217"},"arcs":[[275],[276],[277],[278]]},{"type":"LineString","properties":{"kind":"major_road","network":"ru:regional","sort_rank":380,"kind_detail":"primary","bus_network":null,"source":"openstreetmap.org","min_zoom":8.0,"bus_shield_text":"122 \u0411","shield_text":"90\u041a","landuse_kind":"residential","id":369455915},"arcs":[279]},{"type":"LineString","properties":{"kind":"major_road","name:en":"Lenina Street","sort_rank":380,"kind_detail":"primary","bus_network":null,"name:de":"uliza Lenina","source":"openstreetmap.org","min_zoom":8.0,"bus_shield_text":"110","name:os":"\u041b\u0435\u043d\u0438\u043d\u044b \u0443\u044b\u043d\u0433","ref":"P-296","id":238172423},"arcs":[280]},{"type":"MultiLineString","properties":{"bus_network":null,"sort_rank":380,"kind_detail":"primary","kind":"major_road","source":"openstreetmap.org","min_zoom":8.0,"bus_shield_text":"3","landuse_kind":"residential"},"arcs":[[281],[282],[283],[284],[285],[286],[287]]},{"type":"MultiLineString","properties":{"kind":"major_road","network":"ru:national","sort_rank":381,"kind_detail":"trunk","source":"openstreetmap.org","min_zoom":8.0,"shield_text":"217","ref":"\u0420-217"},"arcs":[[288],[289],[290],[291],[292],[293],[294],[295],[296],[297],[298]]},{"type":"MultiLineString","properties":{"kind":"major_road","network":"e-road","sort_rank":381,"landuse_kind":"urban_area","source":"openstreetmap.org","min_zoom":8.0,"kind_detail":"trunk","shield_text":"50","ref":"\u0420-217"},"arcs":[[299],[300]]}]},"earth":{"type":"GeometryCollection","geometries":[{"type":"Polygon","properties":{"sort_rank":10,"source":"naturalearthdata.com","kind":"earth","min_zoom":0.0,"id":4743},"arcs":[[301]]}]},"landuse":{"type":"GeometryCollection","geometries":[{"type":"Polygon","properties":{"kind":"residential","name":"\u0411\u0435\u0441\u043b\u0430\u043d","area":30434700,"sort_rank":20,"name:de":"Beslan","source":"openstreetmap.org","min_zoom":8.0,"tier":2,"id":35446325,"name:os":"\u0411\u0435\u0441\u043b\u00e6\u043d"},"arcs":[[302]]},{"type":"Polygon","properties":{"kind":"residential","name":"\u041f\u0430\u0432\u043b\u043e\u0434\u043e\u043b\u044c\u0441\u043a\u0430\u044f","area":10873700,"sort_rank":20,"source":"openstreetmap.org","min_zoom":8.0,"tier":2,"id":238358307},"arcs":[[303]]},{"type":"Polygon","properties":{"kind":"residential","name":"\u0410\u0440\u0445\u043e\u043d\u0441\u043a\u0430\u044f","area":10550000,"sort_rank":20,"source":"openstreetmap.org","min_zoom":8.0,"tier":2,"id":279545297},"arcs":[[304]]},{"type":"Polygon","properties":{"kind":"residential","name":"\u0421\u043e\u0432\u0435\u0442\u0441\u043a\u0430\u044f","area":10923500,"sort_rank":20,"name:de":"Sowetskaya","source":"openstreetmap.org","min_zoom":8.0,"tier":2,"id":103295124},"arcs":[[305]]},{"type":"Polygon","properties":{"kind":"residential","name":"\u041a\u0430\u043d\u0442\u044b\u0448\u0435\u0432\u043e","area":21399900,"sort_rank":20,"source":"openstreetmap.org","min_zoom":8.0,"tier":2,"id":281151699},"arcs":[[306]]},{"type":"Polygon","properties":{"kind":"residential","name":"\u042d\u0434\u0438\u0441\u0441\u0438\u044f","area":11653200,"sort_rank":20,"source":"openstreetmap.org","min_zoom":8.0,"tier":2,"id":180978884},"arcs":[[307]]},{"type":"Polygon","properties":{"kind":"residential","name:en":"Sunzha","name":"\u0421\u0443\u043d\u0436\u0430","area":16922200,"sort_rank":20,"name:de":"Sunscha","source":"openstreetmap.org","min_zoom":8.0,"tier":2,"id":192902082,"name:os":"\u0421\u0443\u043d\u0436\u00e6"},"arcs":[[308]]},{"type":"Polygon","properties":{"kind":"residential","name:en":"Chikola","name":"\u0427\u0438\u043a\u043e\u043b\u0430","area":20044700,"sort_rank":20,"name:de":"Tschikola","source":"openstreetmap.org","min_zoom":8.0,"name:hy":"\u0549\u056b\u056f\u0578\u056c\u0561","tier":2,"id":144789009,"name:os":"\u0426\u044b\u043a\u043e\u043b\u0430"},"arcs":[[309]]},{"type":"Polygon","properties":{"kind":"residential","name":"\u0417\u0430\u043c\u0430\u043d\u043a\u0443\u043b","area":11028500,"sort_rank":20,"source":"openstreetmap.org","min_zoom":8.0,"tier":2,"id":356884949},"arcs":[[310]]},{"type":"MultiPolygon","properties":{"source":"naturalearthdata.com","kind":"urban_area","name":"","area":4553609329,"sort_rank":11,"min_zoom":4.0},"arcs":[[[311]],[[312]],[[313]],[[314]],[[315]],[[316]],[[317]],[[318]],[[319]],[[320]],[[321]],[[322]],[[323]],[[324]],[[325]],[[326]],[[327]],[[328]],[[329]],[[330]],[[331]],[[332]]]},{"type":"Polygon","properties":{"source":"openstreetmap.org","kind":"aerodrome","area":20263700,"tier":3,"id":238186875,"min_zoom":8.0,"sort_rank":60},"arcs":[[333]]},{"type":"MultiPolygon","properties":{"source":"openstreetmap.org","kind":"residential","tier":2,"area":415872374,"sort_rank":20,"min_zoom":8.0},"arcs":[[[334]],[[335]],[[336]],[[337]],[[338]],[[339]],[[340]],[[341]],[[342]],[[343]],[[344]],[[345]],[[346]],[[347]],[[348]],[[349]]]},{"type":"Polygon","properties":{"kind":"residential","name":"\u0410\u0440\u0434\u043e\u043d","area":26263700,"sort_rank":20,"name:de":"Ardon","source":"openstreetmap.org","min_zoom":8.0,"tier":2,"id":35049564},"arcs":[[350]]},{"type":"Polygon","properties":{"kind":"residential","name":"\u041a\u0443\u0440\u0441\u043a\u0430\u044f","area":38831400,"sort_rank":20,"source":"openstreetmap.org","min_zoom":8.0,"tier":2,"id":53493274},"arcs":[[351]]},{"type":"Polygon","properties":{"kind":"residential","name:en":"Troitskaya","name":"\u0422\u0440\u043e\u0438\u0446\u043a\u0430\u044f","area":15110700,"sort_rank":20,"name:de":"Troizkaja","source":"openstreetmap.org","min_zoom":8.0,"name:hy":"\u054f\u0580\u0578\u056b\u0581\u056f\u0561\u0575\u0561","tier":2,"name:pl":"Troickaja","id":173142756},"arcs":[[352]]},{"type":"Polygon","properties":{"kind":"residential","name:en":"Zhemtala","name":"\u0416\u0435\u043c\u0442\u0430\u043b\u0430","area":15247700,"sort_rank":20,"name:de":"Schemtala","source":"openstreetmap.org","min_zoom":8.0,"tier":2,"id":144968110},"arcs":[[353]]},{"type":"Polygon","properties":{"kind":"residential","name:en":"Chermen","name":"\u0427\u0435\u0440\u043c\u0435\u043d","area":15923800,"sort_rank":20,"name:de":"Tschermen","source":"openstreetmap.org","min_zoom":8.0,"tier":2,"id":276202275,"name:os":"\u0427\u0435\u0440\u043c\u0435\u043d\u044b\u0445\u044a\u00e6\u0443"},"arcs":[[354]]},{"type":"Polygon","properties":{"kind":"residential","name":"\u042d\u043b\u044c\u0445\u043e\u0442\u043e\u0432\u043e","area":16678500,"sort_rank":20,"source":"openstreetmap.org","min_zoom":8.0,"tier":2,"id":57914414},"arcs":[[355]]},{"type":"Polygon","properties":{"kind":"residential","name":"\u0414\u0438\u0433\u043e\u0440\u0430","area":21107700,"sort_rank":20,"name:de":"Digora","source":"openstreetmap.org","min_zoom":8.0,"tier":2,"id":144792202},"arcs":[[356]]},{"type":"Polygon","properties":{"kind":"residential","name:en":"Sindzikau","name":"\u041a\u0430\u0440\u043c\u0430\u043d-\u0421\u0438\u043d\u0434\u0437\u0438\u043a\u0430\u0443","area":13100700,"sort_rank":20,"name:de":"Sindsikau","source":"openstreetmap.org","min_zoom":8.0,"tier":2,"id":370696643,"name:os":"\u0421\u044b\u043d\u0434\u0437\u044b\u0445\u044a\u00e6\u0443"},"arcs":[[357]]}]}},"type":"Topology","transform":{"translate":[43.59375,43.0688877742],"scale":[0.0003433228,0.0002487054]},"arcs":[[[3653,1997],[-59,-50],[-112,16],[39,100],[-21,59],[-291,-7],[36,-177],[-105,-1],[-57,-32],[-88,16],[26,271],[-372,-105],[-9,-106],[21,-76],[-77,-108],[47,-161],[-43,-1],[-11,-31],[9,-61],[29,-17],[-6,-56],[67,-116],[64,43],[82,11],[44,-22],[-20,-714],[321,-101],[3,92],[-39,3],[3,175],[31,1],[38,-36],[233,-449],[75,36],[-3,-82],[137,-55],[5,-52],[-37,-4],[106,-82],[87,-6],[90,-112]],[[4096,1834],[-87,14],[-76,-36],[-110,34],[-23,-23],[-82,54],[-39,117],[-26,3]],[[2035,2979],[-71,4],[-2,-263],[87,-225],[105,-51],[15,27],[70,-7],[34,45],[161,-31],[-9,-112],[40,-158],[-15,-45],[118,-96],[-90,-162],[-11,-140],[21,-41],[-40,-38],[-59,-143],[82,-100],[-169,-100],[-8,-26],[-76,-16],[2,65],[-35,37],[-15,79],[-54,49],[-423,-406],[-14,211],[-69,147],[-119,-27],[-5,-60],[-193,-257],[146,-241],[30,-101],[-44,-49],[-91,-22],[-142,-149],[-86,120],[83,122],[-180,56],[-60,-179],[-25,46],[-143,43],[-6,140],[-87,98],[-232,-409],[-17,-127],[-52,-83],[70,-50],[-17,-85],[-121,-18],[-149,-121],[-14,-130]],[[3653,1997],[-43,467]],[[3610,2464],[-23,22],[33,15],[33,77],[-25,18],[-38,-31],[-68,51],[1,352],[-28,40],[-266,2],[2,69],[-107,2],[0,-34],[-202,8],[-126,-36],[0,-22],[-143,1],[0,-29],[-93,0],[0,-25],[-271,2],[0,48],[-82,-23],[-172,8]],[[2035,2979],[2,327],[75,9],[72,44],[1,167],[218,-1],[2,285],[-146,-48],[-1,-128],[-147,1],[0,-36],[-144,0],[-1,-184],[-126,1],[-2,39],[-236,1],[1,168],[-457,2],[0,63],[-124,0],[0,94],[-37,1],[0,33],[-28,9],[-173,-132],[-15,-110],[-111,-2],[-143,-130],[0,-213],[-59,-84],[14,-42],[-30,-95],[-28,16],[-7,-20],[-60,48],[-161,7],[-184,60]],[[4096,2627],[-55,-34],[-8,-55],[-47,-12],[-17,-63],[-57,-36],[-66,40],[-8,-53],[-59,-41],[-110,33],[24,112],[-83,-54]],[[180,3528],[-180,246]],[[151,3571],[0,1]],[[1041,2920],[-596,349],[-183,174]],[[1373,2724],[-18,3],[-102,50],[-25,16]],[[1388,2728],[-39,2]],[[1349,2730],[-30,15],[-8,5]],[[1349,2730],[-31,16]],[[1449,2081],[-73,51],[46,414],[-22,149],[-36,29]],[[1466,2058],[19,-150],[84,-258],[153,-291],[48,-221],[53,-121],[75,-95],[40,-103],[130,-30],[657,-290],[46,12]],[[2751,503],[2,0]],[[2753,503]],[[2753,503],[5,3]],[[2758,506],[5,2]],[[2751,503],[-3,-33],[399,-470]],[[1265,2212],[-155,-32],[-244,-149],[-301,-140],[-88,9],[-379,-211],[-30,8]],[[1268,2213],[105,-17],[48,204],[-20,292],[-37,32]],[[1388,2728],[-39,2]],[[1349,2730],[-38,20]],[[1312,2749],[43,-22],[18,-3]],[[1349,2730],[-10,6]],[[180,3528],[-180,246]],[[151,3571],[0,1]],[[1041,2920],[-596,349],[-183,174]],[[1388,2728],[-160,65]],[[1388,2728],[-39,2]],[[1349,2730],[-30,15],[-8,5]],[[1349,2730],[-31,16]],[[4096,2685],[-639,31],[-117,57],[-132,-27],[-797,8],[-748,133],[-212,-92],[-63,-67]],[[180,3528],[-180,246]],[[151,3571],[0,1]],[[1041,2920],[-596,349],[-183,174]],[[1373,2724],[-9,1],[-4,0],[-5,2],[-102,50],[-25,16]],[[1388,2728],[-39,2]],[[1349,2730],[-30,15],[-8,5]],[[1349,2730],[-31,16]],[[1449,2081],[-73,51],[46,414],[-22,149],[-36,29]],[[1466,2058],[19,-150],[84,-258],[153,-291],[48,-221],[53,-121],[75,-95],[40,-103],[130,-30],[657,-290],[46,12]],[[2751,503],[510,-34],[163,176]],[[1736,1046],[-373,-30]],[[2099,448],[3,-2]],[[2805,164],[6,-38]],[[2811,142],[-5,22]],[[2815,121],[17,-17]],[[2833,103],[-17,18]],[[2853,268],[-35,-46]],[[2819,222],[26,34]],[[2909,411],[2,26]],[[2914,434],[-2,0]],[[2298,798],[-145,15]],[[2610,194],[-183,70]],[[2990,2798],[1,0]],[[6,1952],[52,-140]],[[58,1814],[-51,138]],[[85,1748],[59,-68]],[[119,3633],[-12,-1]],[[158,3623],[-3,1],[-1,-3],[3,-1],[1,3]],[[2694,199],[-27,1]],[[2762,140],[-48,25]],[[2146,409],[-44,37]],[[1162,2826],[-39,-20],[-7,-33]],[[3208,24],[-3,-24]],[[3205,0],[3,24]],[[1806,1006],[6,4]],[[1933,837],[-91,171]],[[2153,813],[-54,38],[-111,-30]],[[2481,802],[-183,-4]],[[1886,0],[-4,7]],[[1889,34],[45,182]],[[1945,254],[29,120]],[[2762,140],[-43,22]],[[2953,21],[31,-21]],[[2832,104],[121,-83]],[[1934,216],[11,38]],[[1816,1082],[25,-66]],[[1812,1010],[3,2]],[[1817,1013],[6,2]],[[1675,1042],[61,4],[70,-40]],[[1833,1012],[9,-4]],[[2908,435],[2,2]],[[2912,455],[-2,-24],[-2,-20]],[[3326,458],[27,17]],[[3368,486],[30,22]],[[3498,573],[-96,-63]],[[3513,611],[-14,-36]],[[3549,705],[17,45],[80,45]],[[3772,866],[-11,-6]],[[3902,877],[-67,0]],[[1363,1016],[312,26]],[[3373,2754],[34,-20]],[[146,1672],[3,-7]],[[2,2183],[142,35],[77,-107],[142,-107],[68,-120]],[[467,1842],[73,-56],[56,-91]],[[2912,434],[-4,1]],[[2919,434],[-2,0]],[[2922,434],[8,-1]],[[3259,415]],[[3260,415],[0,1]],[[1385,2784],[-70,15]],[[1794,1139],[22,-57]],[[3260,405],[4,-109],[-25,-58]],[[2917,434],[-3,0]],[[1121,2705]],[[2300,316],[-154,93]],[[1987,704],[-19,81]],[[1760,1180],[34,-41]],[[2823,1770],[112,-59]],[[1841,1016],[4,-12]],[[467,1842],[-36,42]],[[843,1460],[128,-142]],[[2912,480],[-1,25],[-6,13],[-33,23],[-145,52]],[[2728,590],[141,-48],[37,-27]],[[2908,512],[3,-32]],[[3081,423],[156,-8]],[[3549,705],[-36,-94]],[[3687,818],[-41,-23]],[[2801,122],[-39,18]],[[1116,2773],[-2,-10],[0,-4]],[[1121,2705],[-6,54]],[[1115,2764],[0,-2]],[[0,2183],[2,0]],[[431,1884],[36,-42]],[[85,1748],[1,1]],[[144,1680],[5,-13]],[[147,1667],[2,-2],[100,34]],[[251,1702],[-101,-35]],[[159,3623],[-2,0]],[[158,3622],[1,1]],[[162,3624],[-3,-1]],[[426,1739],[-67,0],[-35,-12]],[[325,1725],[101,13]],[[377,1742],[0,1]],[[1114,2759],[0,-2]],[[1120,2708],[-1,-2]],[[1138,2859],[2,-1]],[[1140,2858],[5,-6]],[[1167,2845],[-6,4]],[[1161,2849],[-4,2],[-18,10]],[[1139,2858],[1,0]],[[1140,2858],[2,2]],[[1145,2852],[19,-12]],[[1145,2852],[8,-3],[8,0]],[[1161,2849],[9,-1]],[[1162,2826],[2,14]],[[1164,2840],[3,3]],[[1310,2801],[-4,0],[4,-1]],[[1311,2803],[-1,-2]],[[1311,2803],[0,67]],[[1311,2801],[0,2]],[[1311,2800],[4,-1],[-4,2]],[[1656,1682],[21,-85]],[[1747,1253],[23,8],[-21,102]],[[2125,425],[0,1]],[[1168,2845],[-2,0],[-1,-1],[2,-1],[1,2]],[[1310,2800],[1,-1],[0,1],[-1,1],[0,-1]],[[57,1815],[-1,0]],[[56,1813],[2,1]],[[2714,165],[-20,34]],[[2061,445],[33,3]],[[4096,874],[-14,1]],[[2343,292],[-18,8]],[[2427,264],[-16,6]],[[3258,415],[2,0],[2,1],[-3,-1],[-1,0]],[[2001,482],[18,70],[-32,152]],[[1574,1749],[4,-2]],[[1605,1728],[51,-46],[89,25]],[[3169,810],[3,-122],[66,-119]],[[1823,1015],[10,-3]],[[58,1812],[27,-64]],[[86,1749],[-28,65]],[[1990,442],[9,34]],[[1311,2870],[4,883],[-246,-10],[-67,135],[-840,-254]],[[249,1699],[76,26]],[[324,1727],[-73,-25]],[[300,2516],[2,-2]],[[307,2521],[-4,-1]],[[451,1739],[-25,0]],[[426,1738],[25,1]],[[451,1739],[123,-39]],[[574,1700],[26,-8]],[[574,1700],[24,-6]],[[1119,2705],[-2,-3],[3,2]],[[1119,2706],[0,-1]],[[1139,2861],[-1,-2]],[[1677,1597],[72,-234]],[[2495,241]],[[2591,203],[1,1]],[[2823,2747],[4,0]],[[3260,416],[-1,0]],[[3390,1653],[-3,-1],[3,-1]],[[3390,1651],[1,-2],[0,2]],[[1121,2705],[-2,0],[0,-1],[2,0],[0,1]],[[3330,2790],[-2,1],[-1,-2],[2,-1],[1,2]],[[3390,1653],[-1,-1],[2,-1],[1,1],[-2,1]],[[3234,208],[5,30],[-5,-30]],[[3234,208],[-5,-34]],[[3230,174],[4,34]],[[0,2387],[171,-32],[132,162]],[[1117,2702],[-107,-55],[-227,4],[-49,-38],[-430,-95]],[[2112,439],[-1,-2]],[[2112,436],[1,2]],[[2794,2746],[-358,2],[-791,141],[-191,-89]],[[2823,2747],[-10,-1]],[[2827,2747],[102,0]],[[3143,2817],[114,30],[67,-26],[6,-29]],[[3330,2792],[-2,-1]],[[3330,2790],[0,2]],[[3330,2789],[43,-35]],[[3407,2734],[44,-19],[645,-33]],[[2985,0],[-33,22]],[[1578,1747],[27,-19]],[[3292,1168],[-77,-45],[-31,-118]],[[3253,513],[7,-93]],[[1999,476],[2,6]],[[1988,821],[-55,16]],[[1747,1253],[13,-73]],[[3497,571],[1,2]],[[1886,22],[3,12]],[[1974,374],[4,18]],[[1933,837],[17,-25],[38,9]],[[3229,174],[-21,-150]],[[3208,24],[22,150]],[[2908,411],[-20,-102]],[[76,3672],[-14,17]],[[153,3623],[-34,10]],[[1306,2801],[-136,47]],[[1411,2761],[-26,23]],[[2146,408],[179,-108]],[[93,3651],[-17,21]],[[94,3643],[8,-11]],[[2381,282],[-38,10]],[[2727,593],[-63,90],[-153,120]],[[1882,7],[4,15]],[[1978,392],[8,32]],[[2818,222],[-19,-24],[6,-34]],[[2806,164],[13,58]],[[2816,121],[-5,21]],[[2811,126],[4,-5]],[[2845,256],[52,60],[7,13],[5,82]],[[2888,309],[-35,-41]],[[2813,2746],[-19,0]],[[62,3689],[-62,77]],[[2952,22],[-119,81]],[[1986,424],[4,18]],[[1990,442],[109,6]],[[2511,803],[-30,-1]],[[1745,1707],[50,14],[108,-35],[94,14],[179,113],[30,63],[135,39],[37,-36],[124,21],[142,-36]],[[3184,1005],[-15,-195]],[[3238,569],[15,-56]],[[3259,415],[1,-1]],[[3260,420],[0,-3]],[[3260,414],[0,1]],[[3260,414],[0,-6]],[[3323,1205],[-31,-37]],[[2644,1864],[179,-94]],[[2935,1711],[113,-59],[339,0]],[[3391,1649],[34,-175],[-18,-98],[-84,-171]],[[1815,1012],[2,1]],[[2381,282],[229,-88],[57,6]],[[2762,140],[41,-20]],[[302,2520],[-3,-1],[1,-3],[3,1],[-1,3]],[[1968,785],[-3,21]],[[2102,446],[44,-38]],[[1454,2800],[-43,-39]],[[2929,2747],[13,0]],[[2943,2745],[47,53]],[[2991,2798],[152,19]],[[3498,573],[1,0]],[[3499,574],[-1,0]],[[3399,509],[1,-1],[1,1]],[[3401,509],[-1,1],[-1,-1]],[[3399,509],[0,-1]],[[3401,509],[0,1]],[[2102,446],[-2,2]],[[3260,408],[0,-3]],[[0,1966],[6,-14]],[[7,1952],[-7,16]],[[96,3647],[-3,4],[1,-5]],[[94,3646],[0,-3],[1,2]],[[107,3632],[-5,0]],[[94,3647],[0,-2],[2,0],[0,2]],[[96,3647],[-2,0]],[[431,1884],[-59,105],[-153,125],[-77,106],[-142,-34]],[[467,1842],[376,-382]],[[971,1318],[276,-300],[116,-2]],[[2911,480],[1,-25]],[[3081,423],[-151,10],[-18,47]],[[3237,415],[21,0]],[[3262,416],[64,42]],[[3353,475],[15,11]],[[3761,860],[-74,-42]],[[3835,877],[-63,-11]],[[3902,877],[194,-4]],[[2704,619],[24,-29]],[[2906,515],[2,-3]],[[4096,4096],[0,-4096],[-4096,0],[0,4096],[4096,0]],[[2654,492],[19,98],[50,-51],[26,27],[65,-16],[21,-28],[-39,-32],[34,-23],[-7,-63],[-68,-4],[-101,92]],[[2494,2594],[18,38],[52,9],[-11,31],[97,-36],[-30,-35],[-126,-7]],[[2624,186],[87,16],[7,-87],[-36,-12],[-44,28],[-14,55]],[[1199,3866],[179,10],[20,-70],[-27,32],[-136,-11],[-36,39]],[[2957,687],[58,28],[-1,-36],[113,5],[1,-20],[36,-4],[-8,-92],[-83,52],[-103,5],[-13,62]],[[2712,3957],[26,15],[57,-19],[51,-42],[-10,-35],[-45,-21],[-47,36],[-7,33],[29,16],[-54,17]],[[3493,0],[46,26],[-3,28],[48,-54],[-91,0]],[[852,501],[134,86],[37,-19],[-22,-78],[-54,-47],[-35,-5],[-60,63]],[[2313,1123],[87,36],[26,-53],[-58,-43],[-55,60]],[[4096,889],[-88,82],[1,55],[87,126],[0,-263]],[[904,1421],[96,-3],[-65,-223],[-90,157],[-8,111],[67,-42]],[[1838,1211],[35,-16],[-32,-179],[-213,64],[-75,76],[-36,128],[265,90],[59,-90],[-3,-73]],[[1704,0],[7,34],[18,-4],[12,-30],[-37,0]],[[1938,33],[0,-33],[-162,0],[99,35],[63,-2]],[[2762,0],[17,78],[36,8],[25,-86],[-78,0]],[[3847,396],[-52,32],[-13,97],[130,0],[-13,-97],[-52,-32]],[[1000,681],[-1,-201],[-54,7],[-83,72],[-25,-34],[-22,21],[22,113],[117,5],[13,40],[33,-23]],[[3135,346],[-65,45],[20,62],[47,25],[128,2],[-1,-56],[-96,-33],[-33,-45]],[[1647,257],[-98,89],[-24,54],[89,170],[53,-5],[56,-80],[53,-5],[-10,-87],[-119,-136]],[[1866,737],[7,-33],[194,0],[0,-45],[97,-45],[5,-154],[-69,-159],[-27,-6],[-38,51],[-97,45],[32,134],[-129,0],[32,89],[-32,134],[25,-11]],[[3879,1061],[18,-144],[-18,-35],[-114,20],[-80,-65],[6,-92],[108,-52],[16,-79],[-82,14],[-145,-148],[-97,45],[-185,-17],[-41,17],[0,44],[-33,0],[-57,85],[-40,5],[-97,-45],[-32,-45],[0,-89],[-130,0],[0,-58],[97,-31],[15,-60],[163,-86],[92,-83],[22,6],[0,44],[97,-44],[0,-45],[161,45],[10,-107],[-25,-61],[-553,0],[-14,123],[-104,-10],[-26,10],[0,44],[-161,-89],[19,137],[153,8],[54,78],[-44,45],[-182,45],[-16,37],[-179,97],[-4,49],[69,85],[-51,80],[19,99],[582,-90],[96,61],[131,29],[65,44],[0,45],[64,0],[0,45],[162,-134],[-13,70],[-52,19],[7,44],[90,45],[65,90],[32,0],[0,44],[65,-44],[49,-90],[16,179],[65,-45],[-33,-89]],[[1387,2893],[98,-134],[0,-45],[-86,-67],[-96,-4],[-207,71],[-1,92],[68,84],[-2,92],[75,-132],[54,-2],[23,24],[10,155],[32,-14],[32,-120]],[[190,3518],[-65,-1],[-43,30],[-21,150],[94,-49],[35,-130]],[[2536,3829],[-113,46],[25,68],[57,24],[113,-47],[-25,-67],[-57,-24]],[[3295,2700],[-127,-31],[0,-45],[-65,0],[0,-44],[-65,0],[0,-45],[-129,0],[0,-45],[-98,45],[-225,-2],[-34,-43],[-24,28],[24,107],[97,45],[215,-1],[77,45],[-32,89],[32,90],[356,-134],[-2,-59]],[[1749,1694],[-5,-52],[-65,0],[0,-45],[-32,0],[0,-45],[-29,0],[-180,102],[-35,58],[-16,109],[188,95],[79,-16],[57,-79],[38,-127]],[[0,1540],[0,644],[1,0],[125,-95],[-38,-83],[-59,-52],[18,-35],[146,-93],[30,84],[187,-56],[39,56],[43,-35],[-75,-99],[33,-134],[-49,0],[-81,89],[-51,-6],[-113,-148],[-156,-37]],[[3408,1869],[-58,-1],[-118,42],[44,81],[80,47],[75,-17],[28,-111],[-51,-41]],[[2860,1907],[-75,0],[-62,46],[-9,91],[195,-89],[-49,-48]],[[810,1846],[-70,19],[-32,89],[-128,13],[-34,32],[10,45],[87,45],[62,111],[54,42],[79,-19],[7,-114],[90,-110],[-65,-124],[-60,-29]],[[1483,2182],[9,-103],[-30,-53],[-106,-27],[0,89],[-67,-94],[-63,5],[3,24],[-35,21],[62,148],[-81,134],[125,154],[56,11],[31,-45],[126,-13],[36,-32],[16,-102],[-80,-77],[-2,-40]],[[2839,2874],[1,38],[170,-1],[-15,-84],[-77,2],[-15,-26],[-41,17],[7,54],[-30,0]],[[1852,0],[33,23],[9,-4],[-4,-19],[-38,0]],[[3601,313],[38,77],[11,-31],[40,-5],[9,-94],[-98,53]],[[3742,918],[36,66],[93,29],[4,-31],[25,5],[2,-41],[-160,-28]],[[3151,1092],[31,75],[123,1],[-22,-63],[-93,-66],[-6,-35],[-33,88]],[[3753,863],[147,26],[6,-41],[-46,-11],[28,-91],[-46,59],[-59,-36],[44,66],[-74,28]],[[3742,498],[66,52],[54,-3],[19,-82],[-52,-70],[-76,54],[-11,49]],[[3247,500],[22,47],[9,-58],[58,33],[17,-49],[-94,-53],[-12,80]],[[3536,508],[10,55],[-30,-69],[-46,38],[-104,-47],[-76,168],[8,27],[24,-17],[11,50],[45,16],[20,79],[34,-2],[12,-91],[19,48],[51,-1],[-25,37],[26,13],[-26,5],[16,13],[79,-36],[8,1],[-67,26],[138,130],[-2,-43],[46,-3],[-103,-108],[39,6],[16,-37],[-73,-39],[-23,12],[-56,-134],[40,39],[5,-44],[6,33],[33,14],[14,-35],[44,-9],[14,-42],[-2,-27],[-68,-7],[44,-82],[-11,-25],[-42,66],[-48,0],[0,22]],[[0,1952],[0,96],[32,12],[39,-24],[-16,-70],[-48,-14],[-7,0]],[[3889,2376],[16,32],[104,47],[9,40],[48,-26],[-12,-32],[42,-7],[-37,-43],[-80,11],[-33,-29],[-57,7]],[[2990,2799],[28,-26],[45,18],[15,-19],[3,20],[26,-35],[100,-12],[-14,-39],[-27,5],[-26,-35],[34,-12],[-99,-16],[-85,151]],[[2696,3031],[105,46],[111,6],[97,45],[-10,-48],[-144,-8],[-47,-41],[-112,0]],[[32,3643],[47,31],[95,-139],[-58,-6],[-38,24],[-46,90]],[[3678,2356],[148,19],[14,-25],[-51,-43],[-84,12],[-27,37]],[[1537,1743],[53,5],[40,-56],[-6,-105],[-71,26],[-16,130]],[[2724,1598],[44,40],[10,81],[29,-107],[11,52],[41,5],[-33,50],[-5,77],[82,18],[86,-31],[14,33],[-3,-64],[-59,-15],[-9,-38],[47,-48],[-7,-61],[-20,2],[-20,57],[-57,-32],[-47,-72],[-20,-3],[8,48],[-92,8]],[[1952,474],[10,22],[47,-18],[58,37],[43,-47],[-30,-79],[-84,-55],[-44,140]],[[2420,3866],[31,61],[74,23],[117,17],[17,-38],[3,-41],[-99,-43],[-9,-32],[-100,-6],[-34,59]],[[3985,953],[17,43],[83,-5],[11,-86],[-111,48]],[[95,848],[117,81],[30,-17],[-3,-53],[-33,-12],[-31,-78],[-28,57],[-52,22]],[[3213,384],[4,20],[63,1],[20,-139],[-56,-62],[-19,8],[21,56],[-33,116]],[[1725,1148],[47,43],[25,-28],[40,-170],[-83,57],[-29,98]],[[1577,374],[26,52],[111,-7],[-82,-150],[-32,7],[-23,98]],[[1399,117],[125,86],[44,-12],[-60,-55],[9,-22],[-75,-36],[-43,39]]]}