{"objects":{"water":{"type":"GeometryCollection","geometries":[]},"buildings":{"type":"GeometryCollection","geometries":[]},"places":{"type":"GeometryCollection","geometries":[{"type":"Point","properties":{"name:ty":"\u2019In\u012btia","name:ka":"\u10d8\u10dc\u10d3\u10dd\u10d4\u10d7\u10d8","name:ko":"\uc778\ub3c4","name:cv":"\u0418\u043d\u0434\u0438","name:km":"\u17a5\u178e\u17d2\u178c\u17b6","name:cs":"Indie","name:tt":"\u04ba\u0438\u043d\u0434\u0441\u0442\u0430\u043d","name:kw":"Eynda","name:kv":"\u0418\u043d\u0434\u0438\u044f","name:ku":"Hindistan","name:ti":"\u1205\u1295\u12f5","name:ks":"\u06c1\u0650\u0646\u065b\u062f\u0648\u0633\u062a\u0627\u0646","name:to":"\u02bbInitia","name:tl":"Indya","name:ce":"\u0418\u043d\u0434\u0438","name:ta":"\u0b87\u0ba8\u0bcd\u0ba4\u0bbf\u0baf\u0bbe","name:tg":"\u04b2\u0438\u043d\u0434\u0443\u0441\u0442\u043e\u043d","name:ca":"\u00cdndia","name:te":"\u0c2d\u0c3e\u0c30\u0c24 \u0c26\u0c47\u0c36\u0c02","name:hr":"Indija","name:da":"Indien","name:de":"Indien","name:dz":"\u0f62\u0f92\u0fb1\u0f0b\u0f42\u0f62","source":"openstreetmap.org","name:kn":"\u0cad\u0cbe\u0cb0\u0ca4","name:dv":"\u0787\u07a8\u0782\u07b0\u0791\u07a8\u0794\u07a7","name:lv":"Indija","name:lt":"Indija","name:uz":"Hindiston","name:kk":"\u04ae\u043d\u0434\u0456\u0441\u0442\u0430\u043d","name:ur":"\u0628\u06be\u0627\u0631\u062a","name:lb":"Indien","name:lg":"Buyindi","name:uk":"\u0406\u043d\u0434\u0456\u044f","name:ug":"\u06be\u0649\u0646\u062f\u0649\u0633\u062a\u0627\u0646","name:ln":"\u00cdnd\u025b","name:lo":"\u0ead\u0eb4\u0e99\u0ec0\u0e94\u0e8d","name:el":"\u0399\u03bd\u03b4\u03af\u03b1","name:eo":"Barato","name":"India","name:tk":"Hindistan","name:ee":"India nutome","name:th":"\u0e1b\u0e23\u0e30\u0e40\u0e17\u0e28\u0e2d\u0e34\u0e19\u0e40\u0e14\u0e35\u0e22","name:ay":"Indya","name:rn":"Ubuhindi","name:az":"Hindistan","name:ig":"Ndia","name:ii":"\ua474\ua117","name:as":"\u09ad\u09be\u09f0\u09a4","name:ar":"\u0627\u0644\u0647\u0646\u062f","name:av":"\u0425\u0438\u043d\u0434\u0438\u0441\u0442\u0430\u043d","name:is":"Indland","name:am":"\u1205\u1295\u12f5","name:ru":"\u0418\u043d\u0434\u0438\u044f","name:rw":"Ubuhinde","name:af":"Indi\u00eb","name:zu":"i-India","name:za":"Yindu","name:zh-yue":"\u5370\u5ea6","name:zh":"\u5370\u5ea6","name:so":"Hindiya","name:sm":"Igitia","name:sl":"Indija","name:ja":"\u30a4\u30f3\u30c9","name:si":"\u0d89\u0db1\u0dca\u0daf\u0dd2\u0dba\u0dcf\u0dc0","name:sh":"Indija","name:sg":"\u00cannde","name:sd":"\u0680\u0627\u0631\u062a","name:sc":"\u00ccndia","name:sa":"\u092d\u093e\u0930\u0924\u092e\u094d","name:bs":"Indija","name:bm":"\u0190ndujamana","name:bn":"\u09ad\u09be\u09b0\u09a4","name:bo":"\u0f62\u0f92\u0fb1\u0f0b\u0f42\u0f62\u0f0b","name:sw":"Uhindi","name:be":"\u0406\u043d\u0434\u044b\u044f","name:bg":"\u0418\u043d\u0434\u0438\u044f","name:ss":"INdiya","name:ba":"\u04ba\u0438\u043d\u0434\u043e\u0441\u0442\u0430\u043d","name:sq":"Indi","name:pt":"\u00cdndia","name:ps":"\u0647\u0646\u062f","name:oc":"\u00cdndia","min_zoom":2.0,"name:zh-min-nan":"\u00ccn-t\u014d\u0358","name:os":"\u0418\u043d\u0434\u0438","name:or":"\u0b2d\u0b3e\u0b30\u0b24","name:pl":"Indie","name:pi":"\u092d\u093e\u0930\u0924","name:sr":"\u0418\u043d\u0434\u0438\u0458\u0430","name:pa":"\u0a2d\u0a3e\u0a30\u0a24","name:tr":"Hindistan","name:hi":"\u092d\u093e\u0930\u0924","name:sv":"Indien","name:he":"\u05d4\u05d5\u05d3\u05d5","name:ha":"Indiya","name:hy":"\u0540\u0576\u0564\u056f\u0561\u057d\u057f\u0561\u0576","name:ht":"End","name:qu":"Indya","population":1145587234,"kind":"country","name:yi":"\u05d0\u05d9\u05e0\u05d3\u05d9\u05e2","name:iu":"\u1403\u14d0\u144e\u140a\/intia","name:yo":"Or\u00edl\u1eb9\u0301\u00e8de India","name:mt":"Indja","alt_name:eo":"Hindujo;Hindio;Hinda Unio","name:mr":"\u092d\u093e\u0930\u0924","name:my":"\u1021\u102d\u1014\u1039\u1012\u102d\u101a","official_name":"\u092d\u093e\u0930\u0924 \u0917\u0923\u0930\u093e\u091c\u094d\u092f","name:mg":"Indy","name:ml":"\u0d07\u0d28\u0d4d\u0d24\u0d4d\u0d2f","name:vi":"\u1ea4n \u0110\u1ed9","name:mn":"\u042d\u043d\u044d\u0442\u0445\u044d\u0433","name:mi":"\u012ania","id":424314145,"name:mk":"\u0418\u043d\u0434\u0438\u0458\u0430","name:vo":"Lind\u00e4n","name:fa":"\u0647\u0646\u062f","name:ff":"Enndo","name:fi":"Intia","name:ky":"\u0418\u043d\u0434\u0438\u044f","name:fr":"Inde","name:fy":"Yndia","name:na":"Indjiya","name:ne":"\u092d\u093e\u0930\u0924","name:wa":"Inde","name:wo":"End","name:nv":"T\u00f3 W\u00f3naan\u00edd\u0119\u0301\u0119\u0301\u02bc Bits\u012f\u02bc Yisht\u0142izhii Bik\u00e9yah","name:ga":"An India","name:gd":"Na h-Innseachan","name:gl":"India - \u092d\u093e\u0930\u0924","name:gv":"Yn Injey","name:gu":"\u0aad\u0abe\u0ab0\u0aa4"},"coordinates":[3976,647]},{"type":"Point","properties":{"kind":"region","name":"Madhya Pradesh","name:hi":"\u092e\u0927\u094d\u092f \u092a\u094d\u0930\u0926\u0947\u0936","kind_detail":"state","name:eo":"Madhja-Prade\u015do","source":"openstreetmap.org","min_zoom":4.0,"name:uk":"\u041c\u0430\u0434\u0445'\u044f-\u041f\u0440\u0430\u0434\u0435\u0448","name:kn":"\u0cae\u0ca7\u0ccd\u0caf \u0caa\u0ccd\u0cb0\u0ca6\u0cc7\u0cb6","name:ru":"\u041c\u0430\u0434\u0445\u044c\u044f-\u041f\u0440\u0430\u0434\u0435\u0448","name:hu":"Madhja Prades","id":2240991961,"name:ja":"\u30de\u30c7\u30a3\u30e4\u30fb\u30d7\u30e9\u30c7\u30fc\u30b7\u30e5"},"coordinates":[2325,2966]},{"type":"Point","properties":{"source":"naturalearthdata.com","kind":"locality","name":"Bhopal","population":1727000,"region_capital":true,"min_zoom":5.0,"id":7003},"coordinates":[2142,2075]}]},"transit":{"type":"GeometryCollection","geometries":[]},"pois":{"type":"GeometryCollection","geometries":[]},"boundaries":{"type":"GeometryCollection","geometries":[{"type":"MultiLineString","properties":{"source":"naturalearthdata.com","kind":"region","name":"Madhya Pradesh - Uttar Pradesh","sort_rank":256,"kind_detail":"4","min_zoom":2.0,"id":1167},"arcs":[[0],[1],[2],[3],[4]]},{"type":"MultiLineString","properties":{"source":"naturalearthdata.com","kind":"region","name":"Madhya Pradesh - Rajasthan","sort_rank":256,"kind_detail":"4","min_zoom":2.0,"id":1169},"arcs":[[5],[6],[7],[8],[9],[10],[11],[12],[13],[14],[15],[16],[17]]}]},"roads":{"type":"GeometryCollection","geometries":[{"type":"LineString","properties":{"source":"naturalearthdata.com","kind":"major_road","sort_rank":379,"kind_detail":"secondary","min_zoom":3.0,"id":32643},"arcs":[18]},{"type":"LineString","properties":{"source":"naturalearthdata.com","kind":"major_road","sort_rank":379,"kind_detail":"secondary","min_zoom":4.0,"id":32706},"arcs":[19]},{"type":"LineString","properties":{"source":"naturalearthdata.com","kind":"major_road","sort_rank":379,"kind_detail":"secondary","min_zoom":3.0,"id":32791},"arcs":[20]},{"type":"LineString","properties":{"source":"naturalearthdata.com","kind":"highway","sort_rank":383,"kind_detail":"motorway","min_zoom":3.0,"id":33180},"arcs":[21]},{"type":"LineString","properties":{"source":"naturalearthdata.com","kind":"minor_road","kind_detail":"tertiary","sort_rank":355,"landuse_kind":"urban_area","min_zoom":5.0,"id":33239},"arcs":[22]},{"type":"LineString","properties":{"source":"naturalearthdata.com","kind":"minor_road","kind_detail":"tertiary","sort_rank":355,"landuse_kind":"urban_area","min_zoom":5.0,"id":33239},"arcs":[23]},{"type":"LineString","properties":{"source":"naturalearthdata.com","kind":"minor_road","kind_detail":"tertiary","sort_rank":355,"landuse_kind":"urban_area","min_zoom":5.0,"id":33239},"arcs":[24]},{"type":"MultiLineString","properties":{"source":"naturalearthdata.com","kind":"minor_road","sort_rank":355,"kind_detail":"tertiary","min_zoom":5.0,"id":33239},"arcs":[[25],[26],[27]]},{"type":"LineString","properties":{"source":"naturalearthdata.com","kind":"major_road","kind_detail":"secondary","sort_rank":379,"landuse_kind":"urban_area","min_zoom":3.0,"id":33261},"arcs":[28]},{"type":"LineString","properties":{"source":"naturalearthdata.com","kind":"major_road","kind_detail":"secondary","sort_rank":379,"landuse_kind":"urban_area","min_zoom":3.0,"id":33261},"arcs":[29]},{"type":"MultiLineString","properties":{"source":"naturalearthdata.com","kind":"major_road","sort_rank":379,"kind_detail":"secondary","min_zoom":3.0,"id":33261},"arcs":[[30],[31],[32]]},{"type":"LineString","properties":{"source":"naturalearthdata.com","kind":"major_road","sort_rank":379,"kind_detail":"secondary","min_zoom":4.0,"id":33262},"arcs":[33]},{"type":"LineString","properties":{"source":"naturalearthdata.com","kind":"minor_road","sort_rank":355,"kind_detail":"tertiary","min_zoom":6.0,"id":33627},"arcs":[34]},{"type":"LineString","properties":{"source":"naturalearthdata.com","kind":"minor_road","kind_detail":"tertiary","sort_rank":355,"landuse_kind":"urban_area","min_zoom":5.0,"id":33937},"arcs":[35]},{"type":"LineString","properties":{"source":"naturalearthdata.com","kind":"minor_road","sort_rank":355,"kind_detail":"tertiary","min_zoom":5.0,"id":33937},"arcs":[36]}]},"earth":{"type":"GeometryCollection","geometries":[{"type":"Polygon","properties":{"sort_rank":10,"source":"naturalearthdata.com","kind":"earth","min_zoom":0.0,"id":4719},"arcs":[[37]]}]},"landuse":{"type":"GeometryCollection","geometries":[{"type":"MultiPolygon","properties":{"source":"naturalearthdata.com","kind":"urban_area","name":"","area":4635189009,"sort_rank":11,"min_zoom":4.0},"arcs":[[[38]],[[39]],[[40]],[[41]],[[42]],[[43]],[[44]],[[45]],[[46]],[[47]],[[48]],[[49]],[[50]]]}]}},"type":"Topology","transform":{"translate":[75.9375,21.9430455334],"scale":[0.0006866455,0.0006308812]},"arcs":[[[3565,3738],[-22,2],[-20,10],[-16,16],[-14,19],[-8,18],[-2,18],[4,16],[27,46],[3,13],[-3,11],[-9,11],[-13,9],[-38,16],[-25,18],[-21,18],[-8,22],[-3,17],[-10,4],[-13,3],[-14,9],[-3,8],[-22,40],[-5,1],[4,13]],[[4054,3704],[-47,5],[-23,6],[-25,12],[-22,16],[-44,45],[-29,20],[-80,68],[-39,23],[-29,13],[-17,1]],[[3699,3913],[-12,-6],[-9,-10],[-8,-13],[-7,-14],[-5,-17],[-2,-17],[-1,-15],[-1,-13],[-6,-13],[-11,-15],[-17,-15],[-22,-16],[-33,-11]],[[4096,3700],[-5,3],[-15,2]],[[4076,3705],[-22,-1]],[[1559,4096],[-95,-43],[-6,-2],[-24,-4]],[[1434,4047],[-15,0],[-11,2],[-6,3],[-2,1],[-1,6],[1,26],[-1,10],[0,1]],[[1274,4096],[2,-9],[1,-13],[0,-12],[0,-6],[-12,-41],[-1,-11],[1,-11],[3,-15],[12,-42],[-3,-105],[9,-36],[16,-33],[68,-88],[19,-32],[4,-18],[-3,-14],[-10,-13],[-9,-15],[-7,-20],[-6,-14],[-11,-10],[-15,-4]],[[426,3701],[-23,9],[-17,14],[-11,15],[-7,14],[-2,10],[1,10],[4,24],[0,11],[-5,11],[-9,1]],[[357,3820],[-13,-2],[-27,-13],[-21,-13],[-12,-9],[-8,-12],[-4,-16],[-2,-47],[-8,-33],[-1,-16],[4,-31],[-5,-57],[0,-20],[4,-37],[1,-15],[-4,-26],[-49,-57],[-122,-75],[-21,-22],[-7,-17],[9,-13],[20,-22],[2,-6],[1,-4],[-2,-6],[-4,-16],[-5,-12],[-11,-18],[-20,-15],[-52,-29]],[[1207,3515],[-34,22],[-26,23],[-81,55],[-20,18],[-3,9],[2,12],[5,13],[15,28],[6,15],[2,18],[-7,17],[-13,6]],[[1053,3751],[-17,0],[-40,-13],[-41,-19],[-17,-11],[-13,-14],[-10,-18],[-14,-54],[-6,-11],[-14,-9],[-17,-7],[-28,-3]],[[685,3672],[-38,1],[-34,8],[-78,28],[-26,3]],[[509,3712],[-48,-10],[-35,-1]],[[836,3592],[-14,2],[-10,6],[-6,11],[-11,34],[-9,17],[-15,14],[-16,5]],[[755,3681],[-70,-9]],[[1332,3534],[-18,1],[-15,2]],[[1299,3537],[-11,0],[-11,-4],[-29,-17],[-41,-1]],[[1842,4096],[-9,-40],[0,-53],[-36,-78],[-84,-131],[-73,-144],[-48,-111],[-30,-85],[-36,-72],[-18,-52],[-18,-85],[-18,-46],[-24,-52],[-36,-46],[-12,-13]],[[337,4096],[0,-21],[12,-59],[6,-52],[-42,-157],[-6,-52],[0,-53],[24,-91],[0,-52],[-18,-79],[-12,-78],[-6,-59],[-6,-79],[-18,-32],[-30,-46],[-6,-52],[12,-66],[-6,-26],[-18,-19],[-24,-72],[-84,-138]],[[1400,3088],[-132,-163],[-72,-92],[-24,-20],[-30,-13],[-60,-32],[-102,-72],[-30,-20],[-90,-39],[-54,-39],[-30,-20]],[[3715,4096],[10,-21],[36,-78],[18,-59],[12,-52],[-18,-99],[0,-39],[12,-32],[48,-72],[12,-20],[42,-170],[0,-39],[30,-39],[12,-40],[42,-104],[18,-33],[12,-33],[36,-39],[59,-80]],[[2588,1323],[2,0],[0,-20]],[[2279,1885],[10,-26],[24,-38]],[[2021,2182],[16,-9],[42,-53],[54,0],[12,-58],[60,-46],[18,-33],[2,-3]],[[1400,3088],[18,-13],[36,-59],[60,-78],[42,-33],[84,-39],[31,-33],[12,-26],[-37,-26],[-6,-20],[12,-59],[-12,-13],[-36,-19],[-18,-33],[-6,-33],[0,-65],[12,-52],[18,-27],[36,-19],[12,-20],[19,-91],[48,-7],[36,-26],[78,-26],[144,-66],[38,-23]],[[2225,1980],[40,-62],[14,-33]],[[2313,1821],[24,-41],[72,-91],[54,-59],[36,-26],[-18,-52],[6,-40],[42,-143],[6,-20],[53,-26]],[[259,1703],[-36,-34],[-66,-45],[-41,-39]],[[565,2395],[-36,-26],[-41,-28]],[[116,1585],[-1,-1],[-48,-45],[-30,-46],[-30,-79],[-7,-10]],[[488,2341],[-7,-5],[-48,-52],[-114,-124],[-24,-53],[0,-72],[24,-104],[0,-52],[-12,-53],[-30,-65],[-12,-52],[-6,-6]],[[776,2578],[-43,-46],[-54,-39],[-48,-46],[-48,-39],[-18,-13]],[[115,2813],[-18,0],[-18,-19],[-6,-46],[-66,-124],[-7,-8]],[[0,833],[19,-27],[6,-26],[12,-78],[18,-66],[24,-26],[6,-32],[36,-66],[12,-26],[12,-92],[18,-26],[24,-32],[42,-59],[24,-59],[24,-85],[0,-26],[24,-52],[11,-55]],[[2600,1270],[-10,33]],[[2817,0],[-11,41],[-6,46],[0,33],[12,46],[18,59],[18,91],[6,52],[0,26],[-18,66],[-30,46],[-12,26],[-6,98],[-18,170],[-18,72],[-24,78],[-12,26],[-24,26],[-12,33],[-30,39],[0,72],[-6,46],[-6,26],[-36,46],[-2,6]],[[4096,4096],[0,-4096],[-4096,0],[0,4096],[4096,0]],[[282,387],[-16,-32],[-50,31],[39,40],[27,-39]],[[2583,1268],[-31,20],[-5,35],[73,0],[-3,-51],[-34,-4]],[[0,1182],[0,142],[24,-142],[-24,0]],[[205,1611],[-20,-41],[-81,18],[10,59],[144,64],[2,-36],[-42,-17],[-13,-47]],[[2386,1905],[-51,-78],[-95,-28],[32,88],[49,-18],[0,53],[65,-17]],[[2693,2186],[1,30],[48,41],[7,-49],[-56,-22]],[[4096,2976],[-39,23],[11,68],[28,-22],[0,-69]],[[2823,2556],[-24,-75],[-54,-19],[-48,28],[-4,66],[32,-17],[65,35],[33,-18]],[[2968,3067],[-15,-43],[-50,-15],[-49,15],[-15,43],[129,0]],[[501,2336],[-24,9],[14,24],[83,29],[-10,-37],[-63,-25]],[[1790,4034],[-68,19],[8,22],[73,13],[-13,-54]],[[1657,1979],[-32,14],[12,39],[68,28],[34,-14],[-82,-67]],[[2170,2161],[21,-10],[20,45],[37,11],[41,-91],[48,0],[-65,-141],[-192,22],[-17,34],[23,46],[-56,4],[-39,49],[30,53],[90,39],[59,-61]]]}