{"objects":{"water":{"type":"GeometryCollection","geometries":[{"type":"MultiPolygon","properties":{"source":"naturalearthdata.com","kind":"ocean","area":1576712559132672,"sort_rank":200,"min_zoom":0.0,"id":1},"arcs":[[[36]],[[37],[38],[39],[40],[41],[42],[43],[44],[45],[46],[47],[48],[49],[50],[51],[52],[53],[54],[55],[56],[57],[58],[59],[60],[61],[62],[63],[64],[65],[66],[67],[68],[69],[70]],[[71]],[[72]]]},{"type":"MultiLineString","properties":{"source":"naturalearthdata.com","kind":"ocean","sort_rank":205,"boundary":true,"min_zoom":0.0,"id":71},"arcs":[[73],[74],[75],[76]]},{"type":"LineString","properties":{"source":"naturalearthdata.com","kind":"ocean","sort_rank":205,"boundary":true,"min_zoom":0.0,"id":572},"arcs":[77]},{"type":"LineString","properties":{"source":"naturalearthdata.com","kind":"ocean","sort_rank":205,"boundary":true,"min_zoom":0.0,"id":574},"arcs":[78]},{"type":"LineString","properties":{"source":"naturalearthdata.com","kind":"ocean","sort_rank":205,"boundary":true,"min_zoom":0.0,"id":576},"arcs":[79]},{"type":"LineString","properties":{"source":"naturalearthdata.com","kind":"ocean","sort_rank":205,"boundary":true,"min_zoom":0.0,"id":577},"arcs":[80]},{"type":"LineString","properties":{"source":"naturalearthdata.com","kind":"ocean","sort_rank":205,"boundary":true,"min_zoom":0.0,"id":578},"arcs":[81]},{"type":"LineString","properties":{"source":"naturalearthdata.com","kind":"ocean","sort_rank":205,"boundary":true,"min_zoom":0.0,"id":579},"arcs":[82]},{"type":"LineString","properties":{"source":"naturalearthdata.com","kind":"ocean","sort_rank":205,"boundary":true,"min_zoom":0.0,"id":580},"arcs":[83]},{"type":"LineString","properties":{"source":"naturalearthdata.com","kind":"ocean","sort_rank":205,"boundary":true,"min_zoom":0.0,"id":3728},"arcs":[84]},{"type":"LineString","properties":{"source":"naturalearthdata.com","kind":"ocean","sort_rank":205,"boundary":true,"min_zoom":0.0,"id":3729},"arcs":[85]},{"type":"LineString","properties":{"source":"naturalearthdata.com","kind":"ocean","sort_rank":205,"boundary":true,"min_zoom":0.0,"id":3730},"arcs":[86]},{"type":"LineString","properties":{"source":"naturalearthdata.com","kind":"ocean","sort_rank":205,"boundary":true,"min_zoom":0.0,"id":3731},"arcs":[87]}]},"buildings":{"type":"GeometryCollection","geometries":[]},"places":{"type":"GeometryCollection","geometries":[{"type":"Point","properties":{"name:ps":"\u0628\u06d0\u0644\u06cc\u0632","name:ka":"\u10d1\u10d4\u10da\u10d8\u10d6\u10d8","name:ko":"\ubca8\ub9ac\uc988","name:cv":"\u0411\u0435\u043b\u0438\u0437","name:km":"\u1794\u17c1\u179b\u17b8\u17a0\u17d2\u179f","name:kk":"\u0411\u0435\u043b\u0438\u0437","name:tt":"\u0411\u0435\u043b\u0438\u0437","name:kw":"Belisa","name:ku":"Bel\u00eeze","name:ti":"\u1264\u120a\u12d8","name:ks":"\u0628\u06cc\u0644\u0650\u062c","name:to":"Pelise","name:tl":"Belise","name:pa":"\u0a2c\u0a47\u0a32\u0a40\u0a1c\u0a3c","name:os":"\u0411\u0435\u043b\u0438\u0437","name:or":"\u0b2c\u0b47\u0b32\u0b3f\u0b1c\u0b4d","name:ce":"\u0411\u0435\u043b\u0438\u0437","name:ta":"\u0baa\u0bc6\u0bb2\u0bbf\u0bb8\u0bcd","name:tg":"\u0411\u0435\u043b\u0438\u0437","name:te":"\u0c2c\u0c46\u0c32\u0c40\u0c1c\u0c4d","name:qu":"Bilisi","name:sr":"\u0411\u0435\u043b\u0438\u0437\u0435","name:dz":"\u0f56\u0fb7\u0f7a\u0f0b\u0f63\u0f72\u0f5b","source":"openstreetmap.org","name:kn":"\u0cac\u0cc6\u0cb2\u0cbf\u0c9c\u0ccd","name:dv":"\u0784\u07ac\u078d\u07a9\u0792\u07aa","name:lv":"Beliza","name:lt":"Belizas","name:uz":"Beliz","name:he":"\u05d1\u05dc\u05d9\u05d6","min_zoom":2.0,"kind":"country","name:ur":"\u0628\u06cc\u0644\u0627\u0626\u0632","name:la":"Beliza","old_name:eo":"Brita Honduro","name:uk":"\u0411\u0435\u043b\u0456\u0437","name:hy":"\u0532\u0565\u056c\u056b\u0566","name:ug":"\u0628\u06d0\u0644\u0649\u0632","name:ln":"Beliz\u025b","name:lo":"\u0ec0\u0e9a\u0e8a\u0eb5\u0ea7","population":327719,"name:el":"\u039c\u03c0\u03b5\u03bb\u03af\u03b6","name:eo":"Belizo","name":"Belize","name:ee":"Belize nutome","name:th":"\u0e1b\u0e23\u0e30\u0e40\u0e17\u0e28\u0e40\u0e1a\u0e25\u0e35\u0e0b","name:gu":"\u0aac\u0ac7\u0ab2\u0ac0\u0a9d","name:yi":"\u05d1\u05e2\u05dc\u05d9\u05d6","name:es":"Belice","name:ay":"Wilisi","name:mt":"Beli\u017ce","name:az":"Beliz","name:mr":"\u092c\u0947\u0932\u093f\u091d\u0947","name:ar":"\u0628\u0644\u064a\u0632","name:my":"\u1018\u1031\u101c\u102e\u1007\u103a","name:is":"Bel\u00eds","name:am":"\u1264\u120a\u12d8","name:ml":"\u0d2c\u0d46\u0d32\u0d40\u0d38\u0d4d","name:ru":"\u0411\u0435\u043b\u0438\u0437","name:mn":"\u0411\u0435\u043b\u0438\u0437","id":332779764,"name:mk":"\u0411\u0435\u043b\u0438\u0437\u0435","name:vo":"Belis\u00e4n","name:zu":"i-Belize","name:ha":"Beliz","name:ff":"Beliise","name:hi":"\u092c\u0947\u0932\u0940\u091c\u093c","name:fo":"Belis","alt_name:vi":"B\u00ea-li-x\u00ea","name:fr":"B\u00e9lize","name:wo":"Beliis","name:zh-yue":"\u4f2f\u5229\u8332","name:zh":"\u4f2f\u5229\u5179","name:gv":"Yn Veleesh","name:so":"Belise","name:ja":"\u30d9\u30ea\u30fc\u30ba","name:si":"\u0db6\u0dd9\u0dbd\u0dd3\u0dc3\u0dca","name:fa":"\u0628\u0644\u06cc\u0632","name:sg":"Bel\u00eezi","name:na":"Berij","name:ne":"\u092c\u0947\u0932\u093f\u091c","name:sa":"\u092c\u0947\u0932\u0940\u091c","name:bs":"Belise","name:bm":"Belizi","name:bn":"\u09ac\u09c7\u09b2\u09bf\u09af","name:bo":"\u0f56\u0f7a\u0f0b\u0f63\u0f72\u0f5b\u0f0d","name:be":"\u0411\u0435\u043b\u0456\u0437","name:su":"B\u00e9lis","name:bg":"\u0411\u0435\u043b\u0438\u0437","name:ss":"IBhelizi","name:ba":"\u0411\u0435\u043b\u0438\u0437","name:sq":"Beliza","name:ga":"An Bheil\u00eds","name:gd":"Beilise","name:ht":"Beliz","name:gn":"Mbelise","name:gl":"Belice","name:yo":"Or\u00edl\u1eb9\u0301\u00e8de B\u00e8l\u00eds\u1eb9\u0300","name:ak":"Beliz"},"coordinates":[1806,291]},{"type":"Point","properties":{"kind":"region","name":"Pet\u00e9n","kind_detail":"state","name:eo":"Peteno","source":"openstreetmap.org","min_zoom":4.0,"name:ru":"\u041f\u0435\u0442\u0435\u043d","id":472114124},"coordinates":[146,404]},{"type":"Point","properties":{"source":"naturalearthdata.com","kind":"locality","name":"Belmopan","country_capital":true,"population":15220,"min_zoom":5.0,"id":7058},"coordinates":[1796,943]},{"type":"Point","properties":{"source":"naturalearthdata.com","kind":"locality","name":"Chetumal","population":154517,"region_capital":true,"min_zoom":6.0,"id":5150},"coordinates":[2476,2854]},{"type":"Point","properties":{"source":"naturalearthdata.com","kind":"locality","name":"Belize City","population":63028,"region_capital":true,"min_zoom":7.0,"id":4448},"coordinates":[2638,1321]},{"type":"Point","properties":{"source":"naturalearthdata.com","kind":"locality","name":"Flores","population":38035,"region_capital":true,"min_zoom":7.0,"id":3819},"coordinates":[170,456]},{"type":"Point","properties":{"source":"naturalearthdata.com","kind":"locality","name":"Orange Walk","population":20835,"region_capital":true,"min_zoom":7.0,"id":4449},"coordinates":[2097,2227]}]},"transit":{"type":"GeometryCollection","geometries":[]},"pois":{"type":"GeometryCollection","geometries":[{"type":"Point","properties":{"kind":"national_park","tier":1,"protect_class":"2","area":1210830000,"name:es":"Parque nacional Chiquibul","name:de":"Nationalpark Chiquibul","source":"openstreetmap.org","min_zoom":5.67,"name:it":"Parco nazionale di Chiquibul","operator":"Forest Department","id":-2958267,"osm_relation":true,"name":"Chiquibul National Park"},"coordinates":[1706,140]},{"type":"Point","properties":{"kind":"national_park","tier":1,"protect_class":"2","area":118601000,"source":"openstreetmap.org","min_zoom":7.35,"operator":"Institute of Culture and History \/ Institute of Archaeology","id":-2958266,"osm_relation":true,"name":"Caracol Archaeological Reserve"},"coordinates":[1277,207]},{"type":"Point","properties":{"kind":"nature_reserve","name":"Biotopo protegido San Miguel la Palotada","area":390429000,"source":"openstreetmap.org","min_zoom":7.99,"tier":2,"id":-547326,"osm_relation":true},"coordinates":[270,952]},{"type":"Point","properties":{"kind":"nature_reserve","name":"Corredor Biol\u00f3gico Tikal-Mirador-Rio Azul","area":490741000,"source":"openstreetmap.org","min_zoom":7.82,"tier":2,"id":-547319,"osm_relation":true},"coordinates":[789,1229]},{"type":"Point","properties":{"kind":"national_park","name":"Parque Nacional Mirador-R\u00edo Azul","area":1305800000,"source":"openstreetmap.org","min_zoom":5.61,"tier":1,"id":-546716,"osm_relation":true},"coordinates":[982,1691]},{"type":"Point","properties":{"source":"openstreetmap.org","kind":"nature_reserve","name":"Rio Bravo Conservation Area","area":621602000,"tier":2,"min_zoom":7.65,"id":151130076},"coordinates":[1483,1725]}]},"boundaries":{"type":"GeometryCollection","geometries":[{"type":"LineString","properties":{"source":"naturalearthdata.com","kind":"indefinite","sort_rank":259,"kind_detail":"2","min_zoom":0.0,"id":300},"arcs":[0]},{"type":"LineString","properties":{"source":"naturalearthdata.com","kind":"country","sort_rank":262,"kind_detail":"2","min_zoom":0.0,"id":10},"arcs":[1]},{"type":"MultiLineString","properties":{"source":"naturalearthdata.com","kind":"country","sort_rank":262,"kind_detail":"2","min_zoom":0.0,"id":301},"arcs":[[2],[3],[4],[5],[6],[7],[8],[9],[10],[11]]},{"type":"LineString","properties":{"source":"naturalearthdata.com","kind":"country","sort_rank":262,"kind_detail":"2","min_zoom":0.0,"id":302},"arcs":[12]},{"type":"LineString","properties":{"source":"naturalearthdata.com","kind":"region","sort_rank":256,"kind_detail":"4","min_zoom":6.8,"id":310},"arcs":[13]},{"type":"LineString","properties":{"source":"naturalearthdata.com","kind":"region","sort_rank":256,"kind_detail":"4","min_zoom":6.8,"id":312},"arcs":[14]},{"type":"LineString","properties":{"source":"naturalearthdata.com","kind":"region","name":"Corozal - Belize","sort_rank":256,"kind_detail":"4","min_zoom":6.8,"id":4758},"arcs":[15]},{"type":"LineString","properties":{"source":"naturalearthdata.com","kind":"region","name":"Belize - Orange Walk","sort_rank":256,"kind_detail":"4","min_zoom":6.8,"id":4759},"arcs":[16]},{"type":"LineString","properties":{"source":"naturalearthdata.com","kind":"region","name":"Orange Walk - Corozal","sort_rank":256,"kind_detail":"4","min_zoom":6.8,"id":4760},"arcs":[17]},{"type":"LineString","properties":{"source":"naturalearthdata.com","kind":"region","name":"Stann Creek - Belize","sort_rank":256,"kind_detail":"4","min_zoom":6.8,"id":4756},"arcs":[18]},{"type":"MultiLineString","properties":{"source":"naturalearthdata.com","kind":"region","name":"Stann Creek - Toledo","sort_rank":256,"kind_detail":"4","min_zoom":6.8,"id":4757},"arcs":[[19],[20]]},{"type":"MultiLineString","properties":{"source":"naturalearthdata.com","kind":"region","name":"Belize - Cayo","sort_rank":256,"kind_detail":"4","min_zoom":6.8,"id":4761},"arcs":[[21],[22]]},{"type":"LineString","properties":{"source":"naturalearthdata.com","kind":"region","name":"Toledo - Cayo","sort_rank":256,"kind_detail":"4","min_zoom":6.8,"id":4762},"arcs":[23]},{"type":"LineString","properties":{"source":"naturalearthdata.com","kind":"region","name":"Stann Creek - Cayo","sort_rank":256,"kind_detail":"4","min_zoom":6.8,"id":4763},"arcs":[24]},{"type":"MultiLineString","properties":{"source":"naturalearthdata.com","kind":"region","name":"Cayo - Orange Walk","sort_rank":256,"kind_detail":"4","min_zoom":6.8,"id":4764},"arcs":[[25],[26],[27],[28],[29],[30],[31],[32],[33],[34]]},{"type":"LineString","properties":{"source":"naturalearthdata.com","kind":"region","name":"Quintana Roo - Campeche","sort_rank":256,"kind_detail":"4","min_zoom":5.0,"id":6977},"arcs":[35]}]},"roads":{"type":"GeometryCollection","geometries":[{"type":"LineString","properties":{"source":"naturalearthdata.com","kind":"major_road","sort_rank":380,"kind_detail":"primary","min_zoom":7.0,"id":711},"arcs":[88]},{"type":"LineString","properties":{"source":"naturalearthdata.com","kind":"major_road","sort_rank":380,"kind_detail":"primary","min_zoom":3.0,"id":712},"arcs":[89]},{"type":"LineString","properties":{"source":"naturalearthdata.com","kind":"major_road","sort_rank":380,"kind_detail":"primary","min_zoom":7.0,"id":713},"arcs":[90]},{"type":"LineString","properties":{"source":"naturalearthdata.com","kind":"major_road","sort_rank":380,"kind_detail":"primary","min_zoom":7.0,"id":714},"arcs":[91]},{"type":"LineString","properties":{"kind":"major_road","network":"MX:MX","sort_rank":380,"kind_detail":"primary","source":"naturalearthdata.com","min_zoom":3.0,"shield_text":"307","ref":"307","id":3076},"arcs":[92]},{"type":"LineString","properties":{"kind":"major_road","network":"MX:MX","sort_rank":380,"kind_detail":"primary","source":"naturalearthdata.com","min_zoom":3.0,"landuse_kind":"urban_area","shield_text":"307","ref":"307","id":3078},"arcs":[93]},{"type":"LineString","properties":{"kind":"major_road","network":"MX:MX","sort_rank":380,"kind_detail":"primary","source":"naturalearthdata.com","min_zoom":3.0,"shield_text":"307","ref":"307","id":3078},"arcs":[94]},{"type":"LineString","properties":{"kind":"major_road","network":"MX:MX","sort_rank":380,"kind_detail":"primary","source":"naturalearthdata.com","min_zoom":3.0,"shield_text":"307","ref":"307","id":3080},"arcs":[95]},{"type":"LineString","properties":{"kind":"major_road","network":"MX:MX","sort_rank":380,"kind_detail":"primary","source":"naturalearthdata.com","min_zoom":6.0,"shield_text":"186","ref":"186","id":3085},"arcs":[96]},{"type":"LineString","properties":{"kind":"major_road","network":"MX:MX","sort_rank":380,"kind_detail":"primary","source":"naturalearthdata.com","min_zoom":6.0,"shield_text":"186","ref":"186","id":3093},"arcs":[97]},{"type":"LineString","properties":{"source":"naturalearthdata.com","kind":"major_road","sort_rank":380,"kind_detail":"primary","min_zoom":3.0,"id":3145},"arcs":[98]},{"type":"LineString","properties":{"source":"naturalearthdata.com","kind":"major_road","sort_rank":380,"kind_detail":"primary","ref":"13","min_zoom":3.0,"id":3167},"arcs":[99]},{"type":"LineString","properties":{"source":"naturalearthdata.com","kind":"major_road","sort_rank":380,"kind_detail":"primary","min_zoom":3.0,"id":3823},"arcs":[100]},{"type":"LineString","properties":{"source":"naturalearthdata.com","kind":"major_road","sort_rank":380,"kind_detail":"primary","min_zoom":3.0,"id":3824},"arcs":[101]}]},"earth":{"type":"GeometryCollection","geometries":[{"type":"MultiPolygon","properties":{"sort_rank":10,"source":"naturalearthdata.com","min_zoom":0.0,"kind":"earth","area":147880041178},"arcs":[[[102]],[[103]],[[104]],[[105]],[[106]],[[107]],[[108]],[[109]],[[110]],[[111]],[[112]],[[113]]]}]},"landuse":{"type":"GeometryCollection","geometries":[{"type":"Polygon","properties":{"kind":"national_park","protect_class":"2","area":118601000,"sort_rank":18,"operator":"Institute of Culture and History \/ Institute of Archaeology","source":"openstreetmap.org","min_zoom":7.0,"tier":1,"id":-2958266,"osm_relation":true},"arcs":[[114]]},{"type":"MultiPolygon","properties":{"kind":"national_park","protect_class":"2","area":1210829952,"sort_rank":18,"operator":"Forest Department","source":"openstreetmap.org","min_zoom":3.0,"tier":1,"id":-2958267,"osm_relation":true},"arcs":[[[115]],[[116]]]},{"type":"Polygon","properties":{"source":"openstreetmap.org","kind":"nature_reserve","area":621601984,"tier":2,"id":151130076,"min_zoom":6.0,"sort_rank":23},"arcs":[[117]]},{"type":"MultiPolygon","properties":{"source":"openstreetmap.org","kind":"nature_reserve","tier":2,"area":1437983924,"sort_rank":23,"min_zoom":6.0,"osm_relation":true},"arcs":[[[118]],[[119]],[[120]],[[121]]]},{"type":"Polygon","properties":{"source":"openstreetmap.org","kind":"park","tier":2,"area":1032557508,"sort_rank":24,"min_zoom":6.0,"osm_relation":true},"arcs":[[122]]},{"type":"MultiPolygon","properties":{"source":"naturalearthdata.com","kind":"urban_area","name":"","area":228385577,"sort_rank":11,"min_zoom":4.0},"arcs":[[[123]]]},{"type":"Polygon","properties":{"kind":"nature_reserve","protect_class":"4","area":102322000,"sort_rank":23,"operator":"Forest Department","source":"openstreetmap.org","min_zoom":7.0,"tier":2,"id":-2958292,"osm_relation":true},"arcs":[[124]]},{"type":"Polygon","properties":{"kind":"national_park","area":1305799936,"sort_rank":18,"source":"openstreetmap.org","min_zoom":3.0,"tier":1,"id":-546716,"osm_relation":true},"arcs":[[125]]},{"type":"Polygon","properties":{"kind":"park","protect_class":"4","area":542502016,"sort_rank":24,"operator":"Belize Audubon Society","source":"openstreetmap.org","min_zoom":6.0,"tier":2,"id":266161410},"arcs":[[126]]},{"type":"Polygon","properties":{"kind":"park","area":5978120192,"sort_rank":24,"source":"openstreetmap.org","min_zoom":4.0,"tier":2,"id":-7771089,"osm_relation":true},"arcs":[[127]]},{"type":"Polygon","properties":{"kind":"nature_reserve","protect_class":"2","area":149000000,"sort_rank":23,"source":"openstreetmap.org","min_zoom":7.0,"tier":2,"id":471542834},"arcs":[[128]]}]}},"type":"Topology","transform":{"translate":[-90.0,16.6361918784],"scale":[0.0006866455,0.0006530643]},"arcs":[[[1201,0],[14,216],[24,397],[-2,436],[-8,424],[-6,331]],[[2470,2825],[13,-2],[22,-17],[8,-59],[14,-21],[25,-6],[174,3],[130,2],[-1,-147],[-2,-191],[11,-18],[23,-4],[72,2],[12,-1],[11,-5],[27,-15],[9,-3],[23,8],[16,15],[8,29],[14,19],[13,0],[11,-9],[-4,-34],[8,-6],[9,0],[52,0]],[[2311,2840],[8,-3],[14,-14],[11,-6]],[[2243,2817],[13,2],[29,10],[16,8],[10,3]],[[2200,2830],[15,-1],[13,-8],[15,-4]],[[1631,1918],[13,3],[8,13],[7,34],[6,11],[75,56],[14,16],[20,60],[7,14],[22,18],[20,12],[17,13],[14,22],[5,17],[4,35],[4,15],[37,61],[5,17],[-5,22],[-6,4],[42,31],[42,20],[18,14],[14,23],[4,18],[2,5],[2,24],[6,26],[14,25],[45,52],[18,29],[5,17],[5,39],[14,37],[7,46],[8,17],[11,11],[45,35]],[[2462,2827],[8,-2]],[[2344,2817],[8,1],[9,5],[11,3],[90,1]],[[1384,2087],[32,-11],[24,-22],[21,-24],[25,-19],[17,-2]],[[1223,1804],[-2,133],[11,61],[31,45],[121,44]],[[1520,2013],[14,-4],[19,-43],[19,-14],[59,-34]],[[1503,2009],[17,4]],[[0,1805],[262,0],[320,0],[321,-1],[320,0]],[[2491,765]],[[2670,2027]],[[2499,2046],[171,-19]],[[2499,2046],[-324,-84],[-77,-44],[-9,-27],[-3,-13],[-1,-15],[1,-11],[5,-21],[1,-9],[0,-20],[-9,-41],[-1,-6],[0,-9],[5,-34],[0,-9],[-5,-36],[1,-11],[7,-20],[2,-8],[-1,-10],[-6,-7],[-12,-5],[-15,-4],[-43,-21],[-16,-26],[-19,-53],[-1,-28],[18,-222]],[[2499,2046],[-201,182],[-105,145],[-67,49],[-93,41],[-15,4]],[[2491,765],[-19,-20],[-30,-12],[-7,-4],[-14,-5],[-386,-7]],[[1937,85],[33,-4],[21,-5],[51,-28],[7,-7],[4,-7],[5,-13],[3,-7],[1,-6],[-1,-6],[-1,-2]],[[1785,69],[42,13],[110,3]],[[2061,1307],[5,-9],[4,-21],[14,-305],[-1,-56],[1,-8],[17,-24],[12,-29],[1,-17],[0,-14],[-7,-19],[-2,-10],[-5,-17],[-3,-8],[-3,-3],[-4,-2],[-2,-5],[-3,-5],[-1,-7],[-5,-10],[-3,-3],[-3,-3],[-5,-3],[-33,-12]],[[1997,1252],[34,15],[9,15],[9,19],[12,6]],[[1785,69],[-24,-2],[-12,-6],[-4,-3],[-8,-9],[-16,-20],[-4,-8],[-1,-6],[4,-15]],[[2035,717],[-5,-15],[6,-13],[21,-35],[20,-17],[10,-11],[-1,-13],[-6,-7],[-8,-6],[-5,-6],[-15,-31],[-9,-25],[-9,-17],[-9,-13],[-17,-13],[-7,-7],[-10,-17],[-44,-49],[-2,-7],[-1,-7],[2,-6],[0,-9],[-4,-21],[0,-8],[2,-19],[-1,-8],[-3,-7],[-4,-5],[-5,-4],[-13,-6],[-9,-8],[-2,-5],[1,-6],[19,-14],[6,-6],[-1,-5],[-4,-4],[-6,-1],[-26,-5],[-28,-9],[-8,-6],[-7,-7],[-40,-62],[-9,-23],[-15,-29],[-9,-31],[0,-6],[5,-19]],[[1997,1252],[-21,7]],[[1976,1259],[-11,-3],[-29,-15],[-17,-3],[-25,-9],[-43,-29],[-26,-9],[-33,-4]],[[1682,1186],[-26,2],[-21,3]],[[1635,1191],[-10,-3],[-11,-12],[-8,-13],[-16,-10],[-20,-7],[-169,-19]],[[1792,1187],[-39,1]],[[1753,1188],[-21,-2]],[[1732,1186],[-15,1]],[[1717,1187],[-35,-1]],[[1401,1127],[-12,3],[-11,4]],[[1378,1134],[-16,-1],[-21,-7],[-60,-41],[-44,-36]],[[1375,4096],[27,-34],[35,-109],[-12,-95],[4,-112],[-7,-23],[4,-52],[-22,-39],[-68,-72],[9,-113],[-47,-301],[11,-90],[50,-65],[11,-80],[-18,-22],[-6,-26],[23,-9],[22,-12],[-3,-35],[-13,-34],[-7,-34],[28,-136],[9,-108],[-1,-96],[-33,-90],[-123,-149],[-16,-24],[11,-122]],[[2413,0],[8,20],[38,20],[-9,-15],[-23,-25],[-14,0]],[[3689,4096],[407,0],[0,-4096],[-1647,0],[9,9],[9,17],[13,108],[-1,15],[-7,24],[-2,19],[3,16],[8,10],[7,7],[3,8],[3,14],[7,9],[19,15],[6,1],[19,-3],[6,2],[1,9],[-4,7],[-5,4],[-2,0],[-6,26],[-28,46],[-7,28],[7,24],[17,27],[20,23],[16,15],[14,5],[13,0],[9,4],[3,18],[-8,37],[-4,49],[-7,33],[-12,29],[-17,24],[-31,10],[-14,8],[-6,19],[-8,35],[-1,14],[0,3],[-6,29],[-10,33],[5,60],[2,32],[14,155],[60,203],[4,24],[17,13],[37,-5],[38,-1],[17,30],[-14,13],[-61,10],[-14,13],[-10,23],[-52,27],[-18,19],[-6,36],[6,33],[16,28],[37,46],[12,25],[36,127],[17,127],[-9,40],[61,119],[25,17],[55,141],[4,24],[21,37],[4,24],[12,140],[-12,181],[-5,8],[-14,-2],[-15,-7],[-11,-8],[-11,-18],[-13,-6],[-11,4],[1,17],[6,6],[34,14],[28,23],[9,14],[2,22],[-7,5],[-17,-2],[-51,-16],[-44,-30],[-31,-5],[-19,6],[-42,21],[-33,4],[-24,-4],[-23,-11],[-48,-35],[-25,-28],[-12,-9],[-12,-1],[-4,7],[8,14],[34,42],[13,24],[8,22],[-69,-32],[-21,2],[-17,24],[11,22],[113,81],[28,38],[-25,23],[0,5],[0,4],[6,6],[6,3],[18,3],[13,28],[31,47],[7,25],[40,75],[34,45],[35,74],[8,2],[16,10],[9,11],[-14,8],[-15,-4],[-15,-11],[-12,-15],[-8,-12],[3,29],[10,20],[7,20],[-9,26],[-17,-30],[-25,-30],[-29,-23],[-28,-12],[4,17],[7,13],[9,12],[62,55],[12,8],[35,1],[25,7],[17,18],[5,12],[-9,-31],[-3,-27],[9,-12],[13,9],[12,22],[8,26],[3,22],[11,41],[29,44],[36,39],[34,28],[9,-61],[10,-26],[15,-22],[12,-26],[1,-33],[-7,-63],[-2,-1],[-4,-6],[-3,-9],[-2,-10],[3,-8],[7,-9],[7,-7],[4,-2],[-4,-19],[-14,-24],[-3,-14],[-12,-25],[-22,-30],[-16,-32],[10,-35],[-49,-57],[-2,-10],[-2,-23],[3,-24],[16,-11],[34,-10],[76,-43],[39,-10],[29,-2],[14,-9],[7,-16],[6,-25],[-5,-1],[-6,-11],[-2,-13],[7,-6],[4,-2],[41,-9],[5,-12],[0,-15],[-1,-13],[1,-7],[21,-25],[3,-2],[-4,-25],[-9,-16],[-4,-15],[8,-18],[8,10],[9,13],[7,15],[5,16],[1,-21],[-5,-40],[-8,-38],[-12,-18],[-13,-12],[6,-20],[18,-7],[23,30],[8,-34],[2,-41],[11,0],[0,101],[5,23],[20,48],[4,23],[8,23],[70,104],[13,35],[6,107],[8,24],[19,32],[4,32],[-8,68],[8,67],[20,55],[28,47],[35,41],[26,44],[52,187],[29,201],[33,50],[31,75],[20,47],[-12,36],[17,28],[17,82],[15,37],[38,56],[24,24],[20,10]],[[2652,1393],[-9,1],[-3,0],[2,-9],[2,-11],[1,-8],[1,3],[3,0],[7,7],[1,7],[-5,10]],[[3164,1392],[-15,-41],[-1,-10],[11,-1],[14,7],[16,15],[12,-20],[-3,-32],[-11,-30],[-14,-13],[-18,3],[-22,9],[-15,-2],[-30,-31],[-25,-19],[-19,-17],[-11,-24],[-7,-74],[-14,-54],[-3,-32],[-2,-6],[-1,-5],[-2,-5],[-5,-5],[21,-21],[1,21],[7,19],[7,16],[4,11],[9,69],[10,37],[17,19],[18,14],[15,25],[29,-23],[21,14],[15,26],[20,26],[30,60],[6,23],[-9,31],[-18,15],[-21,5],[-17,0]],[[3631,1230],[21,-9],[7,3],[5,11],[-6,12],[-15,3],[-13,-11],[1,-9]],[[2799,971],[4,26],[-8,17],[-4,-3],[-5,-15],[-1,-29],[4,-12],[2,1],[8,15]],[[3168,1005],[3,8],[4,6],[6,4],[8,3],[0,-6],[0,-15],[10,0],[0,36],[2,15],[7,11],[-25,74],[-17,27],[-18,-16],[16,-16],[5,-38],[-1,-93]],[[2833,1139],[-12,22],[-10,-8],[1,-10],[10,-15],[11,11]],[[2807,1277],[0,9],[4,7],[3,15],[-13,20],[-28,21],[-21,9],[-10,-7],[0,-9],[4,-4],[5,-8],[9,-10],[12,-6],[12,2],[2,-7],[2,-32],[2,-13],[10,-1],[7,14]],[[2701,1350],[-11,8],[-9,-1],[3,-14],[6,-9],[9,-9],[4,21],[-2,4]],[[2653,1401],[7,13],[3,6],[-3,12],[-7,-8],[-9,-18],[1,-11],[8,6]],[[2832,1419],[7,-15],[10,0],[-14,81],[-15,38],[-20,17],[19,-85],[13,-36]],[[2716,1586],[46,15],[34,31],[13,49],[-17,-7],[-82,-57],[-31,-14],[-8,-10],[-2,-4],[0,-7],[47,4]],[[2853,1680],[3,-9],[22,25],[-4,26],[2,28],[6,14],[-7,-1],[-8,-14],[-1,-18],[-3,-14],[7,-7],[1,-10],[-6,-8],[-6,2],[-6,-14]],[[2831,1862],[-22,2],[9,-12],[17,2],[12,6],[-16,2]],[[3036,2062],[12,66],[-9,0],[-2,-13],[-4,-10],[-13,-20],[-11,22],[0,11],[12,6],[9,8],[5,11],[4,16],[10,-4],[10,-7],[14,28],[30,82],[10,17],[20,18],[2,34],[-14,21],[-33,-21],[-22,10],[-15,-14],[-21,-81],[-1,-15],[-3,-12],[-7,-7],[-7,-5],[-3,-7],[-27,-96],[-6,-47],[23,1],[-8,-39],[-18,-27],[-54,-39],[-4,0],[-15,0],[0,-10],[63,17],[45,45],[28,61]],[[2878,2134],[-9,2],[-3,-27],[12,25]],[[2967,2211],[4,16],[-5,4],[-8,-4],[-5,0],[-7,-5],[-11,-15],[5,-10],[16,3],[11,11]],[[2980,2224],[5,-2],[12,9],[8,16],[-1,17],[-3,6],[-3,-2],[-2,-6],[-3,-8],[-8,-7],[-7,-4],[-3,-6],[3,-6],[2,-7]],[[3090,2375],[5,15],[1,8],[-1,7],[-5,2],[-4,1],[-5,1],[-1,-3],[3,-7],[-1,-3],[-4,4],[-6,-9],[-4,-26],[8,-8],[14,18]],[[3882,2784],[18,53],[-9,67],[26,53],[-12,-14],[-8,-13],[-6,-13],[-4,-13],[-9,-84],[-9,-39],[-8,-15],[-14,-20],[-25,-29],[-6,-12],[10,0],[56,79]],[[2853,1620],[0,27],[-8,-24],[-1,-25],[9,22]],[[4005,3085],[3,39],[-11,73],[-20,22],[15,-125],[-6,-43],[19,34]],[[2668,41],[-1,21],[-6,-4],[2,-5],[1,-7],[4,-5]],[[3219,141],[8,15],[-14,-8],[-7,-12],[13,5]],[[2763,277],[-4,21],[-5,-10],[5,-7],[1,-4],[3,0]],[[2781,355],[7,14],[-9,-4],[-1,-1],[3,-9]],[[2778,366],[-8,26],[2,-20],[4,-5],[2,-1]],[[2782,381],[2,-8],[7,19],[0,19],[-10,-12],[1,-18]],[[2848,528],[-12,2],[-9,-8],[3,-2],[18,8]],[[2870,559],[-4,16],[-4,-6],[4,-9],[4,-1]],[[2843,677],[16,0],[6,0],[4,12],[-2,7],[-25,-3],[-9,-23],[10,7]],[[3527,819],[16,19],[1,9],[-11,7],[-10,-28],[-2,-24],[6,17]],[[2786,845],[5,10],[-9,6],[-7,-13],[0,-13],[4,0],[-1,4],[8,6]],[[3621,831],[6,-2],[3,3],[-7,5],[-2,-6]],[[3635,4096],[18,0],[-3,-2],[-15,-21],[-18,-15],[18,38]],[[3385,4096],[151,0],[-8,-12],[-6,-26],[-16,-28],[-38,-46],[-30,-26],[-14,-1],[-14,11],[-27,7],[-16,15],[10,36],[31,64],[-23,6]],[[2413,0],[8,20],[38,20],[-9,-15],[-23,-25]],[[2449,0],[9,9],[9,17],[13,108],[-1,15],[-7,24],[-2,19],[3,16],[8,10],[7,7],[3,8],[3,14],[7,9],[19,15],[6,1],[19,-3],[6,2],[1,9],[-4,7],[-5,4],[-2,0],[-6,26],[-28,46],[-7,28],[7,24],[17,27],[20,23],[16,15],[14,5],[13,0],[9,4],[3,18],[-8,37],[-4,49],[-7,33],[-12,29],[-17,24],[-31,10],[-14,8],[-6,19],[-8,35],[-1,14],[0,3],[-6,29],[-10,33],[5,60],[2,32],[14,155],[60,203],[4,24],[17,13],[37,-5],[38,-1],[17,30],[-14,13],[-61,10],[-14,13],[-10,23],[-52,27],[-18,19],[-6,36],[6,33],[16,28],[37,46],[12,25],[36,127],[17,127],[-9,40],[61,119],[25,17],[55,141],[4,24],[21,37],[4,24],[12,140],[-12,181],[-5,8],[-14,-2],[-15,-7],[-11,-8],[-11,-18],[-13,-6],[-11,4],[1,17],[6,6],[34,14],[28,23],[9,14],[2,22],[-7,5],[-17,-2],[-51,-16],[-44,-30],[-31,-5],[-19,6],[-42,21],[-33,4],[-24,-4],[-23,-11],[-48,-35],[-25,-28],[-12,-9],[-12,-1],[-4,7],[8,14],[34,42],[13,24],[8,22],[-69,-32],[-21,2],[-17,24],[11,22],[113,81],[28,38],[-25,23],[0,5],[0,4],[6,6],[6,3],[18,3],[13,28],[31,47],[7,25],[40,75],[34,45],[35,74],[8,2],[16,10],[9,11],[-14,8],[-15,-4],[-15,-11],[-12,-15],[-8,-12],[3,29],[10,20],[7,20],[-9,26],[-17,-30],[-25,-30],[-29,-23],[-28,-12],[4,17],[7,13],[9,12],[62,55],[12,8],[35,1],[25,7],[17,18],[5,12],[-9,-31],[-3,-27],[9,-12],[13,9],[12,22],[8,26],[3,22],[11,41],[29,44],[36,39],[34,28],[9,-61],[10,-26],[15,-22],[12,-26],[1,-33],[-7,-63],[-2,-1],[-4,-6],[-3,-9],[-2,-10],[3,-8],[7,-9],[7,-7],[4,-2],[-4,-19],[-14,-24],[-3,-14],[-12,-25],[-22,-30],[-16,-32],[10,-35],[-49,-57],[-2,-10],[-2,-23],[3,-24],[16,-11],[34,-10],[76,-43],[39,-10],[29,-2],[14,-9],[7,-16],[6,-25],[-5,-1],[-6,-11],[-2,-13],[7,-6],[4,-2],[41,-9],[5,-12],[0,-15],[-1,-13],[1,-7],[21,-25],[3,-2],[-4,-25],[-9,-16],[-4,-15],[8,-18],[8,10],[9,13],[7,15],[5,16],[1,-21],[-5,-40],[-8,-38],[-12,-18],[-13,-12],[6,-20],[18,-7],[23,30],[8,-34],[2,-41],[11,0],[0,101],[5,23],[20,48],[4,23],[8,23],[70,104],[13,35],[6,107],[8,24],[19,32],[4,32],[-8,68],[8,67],[20,55],[28,47],[35,41],[26,44],[52,187],[29,201],[33,50],[31,75],[20,47],[-12,36],[17,28],[17,82],[15,37],[38,56],[24,24],[20,10]],[[3653,4096],[-3,-2],[-15,-21],[-18,-15],[18,38]],[[3536,4096],[-8,-12],[-6,-26],[-16,-28],[-38,-46],[-30,-26],[-14,-1],[-14,11],[-27,7],[-16,15],[10,36],[31,64],[-23,6]],[[2800,1540],[19,-85],[13,-36],[7,-15],[10,0],[-14,81],[-15,38],[-20,17]],[[3148,1152],[16,-16],[5,-38],[-1,-93],[3,8],[4,6],[6,4],[8,3],[0,-6],[0,-15],[10,0],[0,36],[2,15],[7,11],[-25,74],[-17,27],[-18,-16]],[[2679,1603],[-8,-10],[-2,-4],[0,-7],[47,4],[46,15],[34,31],[13,49],[-17,-7],[-82,-57],[-31,-14]],[[3164,1392],[-15,-41],[-1,-10],[11,-1],[14,7],[16,15],[12,-20],[-3,-32],[-11,-30],[-14,-13],[-18,3],[-22,9],[-15,-2],[-30,-31],[-25,-19],[-19,-17],[-11,-24],[-7,-74],[-14,-54],[-3,-32],[-2,-6],[-1,-5],[-2,-5],[-5,-5],[21,-21],[1,21],[7,19],[7,16],[4,11],[9,69],[10,37],[17,19],[18,14],[15,25],[29,-23],[21,14],[15,26],[20,26],[30,60],[6,23],[-9,31],[-18,15],[-21,5],[-17,0]],[[3039,2128],[-2,-13],[-4,-10],[-13,-20],[-11,22],[0,11],[12,6],[9,8],[5,11],[4,16],[10,-4],[10,-7],[14,28],[30,82],[10,17],[20,18],[2,34],[-14,21],[-33,-21],[-22,10],[-15,-14],[-21,-81],[-1,-15],[-3,-12],[-7,-7],[-7,-5],[-3,-7],[-27,-96],[-6,-47],[23,1],[-8,-39],[-18,-27],[-54,-39],[-4,0],[-15,0],[0,-10],[63,17],[45,45],[28,61],[12,66],[-9,0]],[[3887,2904],[-9,-84],[-9,-39],[-8,-15],[-14,-20],[-25,-29],[-6,-12],[10,0],[56,79],[18,53],[-9,67],[26,53],[-12,-14],[-8,-13],[-6,-13],[-4,-13]],[[3977,3219],[15,-125],[-6,-43],[19,34],[3,39],[-11,73],[-20,22]],[[3090,2407],[-4,1],[-5,1],[-1,-3],[3,-7],[-1,-3],[-4,4],[-6,-9],[-4,-26],[8,-8],[14,18],[5,15],[1,8],[-1,7],[-5,2]],[[3001,2270],[-3,-2],[-2,-6],[-3,-8],[-8,-7],[-7,-4],[-3,-6],[3,-6],[2,-7],[5,-2],[12,9],[8,16],[-1,17],[-3,6]],[[2958,2227],[-5,0],[-7,-5],[-11,-15],[5,-10],[16,3],[11,11],[4,16],[-5,4],[-8,-4]],[[2773,1349],[-21,9],[-10,-7],[0,-9],[4,-4],[5,-8],[9,-10],[12,-6],[12,2],[2,-7],[2,-32],[2,-13],[10,-1],[7,14],[0,9],[4,7],[3,15],[-13,20],[-28,21]],[[1757,951],[12,-24],[10,-69],[21,-40],[20,-16],[28,-8],[35,-6],[38,8],[18,-5],[15,-27],[2,-63],[8,-11],[68,0],[109,-93],[76,-37],[88,-14],[76,19],[56,-21],[25,10],[18,-13]],[[1868,985],[-73,0],[-46,-37],[-68,-43],[-26,-5],[-68,3],[-38,-6],[-103,-58],[-64,-27],[-35,-29],[-41,-58],[-50,-59],[-18,-34]],[[2589,496],[-81,40],[-28,5]],[[2480,541],[-28,-16],[-45,-85],[-21,-125],[-63,-157],[-68,-85],[-49,-73]],[[2237,2892],[10,56],[36,87],[73,141],[245,314],[58,59],[54,8],[32,24],[26,417],[17,98]],[[2472,2868],[-15,-16],[-16,4]],[[2441,2856],[-85,23]],[[2341,2836],[15,43],[-33,7],[-63,-15],[-23,21]],[[1236,2815],[167,-19],[222,-5],[119,34],[352,22],[141,45]],[[0,2931],[4,-5],[51,-10],[149,0],[45,-30],[26,-7],[15,15],[286,-5],[55,13],[109,-26],[496,-61]],[[1238,632],[-88,-62],[-66,-21],[-63,-58],[-31,-16],[-22,-3],[-41,11],[-20,-6],[-46,-32],[-73,-5],[-58,3],[-99,29],[-58,3],[-23,-14],[-20,-55],[-20,-22],[-76,-18],[-58,-8],[-114,13]],[[505,0],[-3,1],[-81,53],[-35,35],[-74,101],[-48,53],[-7,27],[10,40],[-10,48]],[[2634,1323],[-63,24],[-25,37],[-91,21],[-38,35],[-23,32],[-15,61],[-28,24],[-41,13],[-25,45],[-28,35],[-27,69],[-21,40],[-5,114],[-40,72],[-3,40],[8,40],[-46,93],[-17,13],[-16,27],[21,45],[-13,96],[-18,34],[-7,30],[15,55],[23,14],[27,2],[16,19],[15,80],[23,56],[12,69],[137,178]],[[1868,985],[131,-2],[26,10],[35,37],[28,27],[25,43],[74,71],[78,22],[38,29],[35,18],[18,22],[58,18],[99,-5],[30,35],[61,21]],[[4005,3085],[-19,-34],[6,43],[-15,125],[20,-22],[11,-73],[-3,-39]],[[3096,2398],[-1,-8],[-5,-15],[-14,-18],[-8,8],[4,26],[6,9],[4,-4],[1,3],[-3,7],[1,3],[5,-1],[4,-1],[5,-2],[1,-7]],[[3826,2705],[-10,0],[6,12],[25,29],[14,20],[8,15],[9,39],[9,84],[4,13],[6,13],[8,13],[12,14],[-26,-53],[9,-67],[-18,-53],[-56,-79]],[[3199,1041],[0,-36],[-10,0],[0,15],[0,6],[-8,-3],[-6,-4],[-4,-6],[-3,-8],[1,93],[-5,38],[-16,16],[18,16],[17,-27],[25,-74],[-7,-11],[-2,-15]],[[3220,1372],[9,-31],[-6,-23],[-30,-60],[-20,-26],[-15,-26],[-21,-14],[-29,23],[-15,-25],[-18,-14],[-17,-19],[-10,-37],[-9,-69],[-4,-11],[-7,-16],[-7,-19],[-1,-21],[-21,21],[5,5],[2,5],[1,5],[2,6],[3,32],[14,54],[7,74],[11,24],[19,17],[25,19],[30,31],[15,2],[22,-9],[18,-3],[14,13],[11,30],[3,32],[-12,20],[-16,-15],[-14,-7],[-11,1],[1,10],[15,41],[17,0],[21,-5],[18,-15]],[[2801,1328],[13,-20],[-3,-15],[-4,-7],[0,-9],[-7,-14],[-10,1],[-2,13],[-2,32],[-2,7],[-12,-2],[-12,6],[-9,10],[-5,8],[-4,4],[0,9],[10,7],[21,-9],[28,-21]],[[2849,1404],[-10,0],[-7,15],[-13,36],[-19,85],[20,-17],[15,-38],[14,-81]],[[2716,1586],[-47,-4],[0,7],[2,4],[8,10],[31,14],[82,57],[17,7],[-13,-49],[-34,-31],[-46,-15]],[[3135,2327],[-2,-34],[-20,-18],[-10,-17],[-30,-82],[-14,-28],[-10,7],[-10,4],[-4,-16],[-5,-11],[-9,-8],[-12,-6],[0,-11],[11,-22],[13,20],[4,10],[2,13],[9,0],[-12,-66],[-28,-61],[-45,-45],[-63,-17],[0,10],[15,0],[4,0],[54,39],[18,27],[8,39],[-23,-1],[6,47],[27,96],[3,7],[7,5],[7,7],[3,12],[1,15],[21,81],[15,14],[22,-10],[33,21],[14,-21]],[[2956,2200],[-16,-3],[-5,10],[11,15],[7,5],[5,0],[8,4],[5,-4],[-4,-16],[-11,-11]],[[2997,2231],[-12,-9],[-5,2],[-2,7],[-3,6],[3,6],[7,4],[8,7],[3,8],[2,6],[3,2],[3,-6],[1,-17],[-8,-16]],[[3653,4096],[36,0],[-20,-10],[-24,-24],[-38,-56],[-15,-37],[-17,-82],[-17,-28],[12,-36],[-20,-47],[-31,-75],[-33,-50],[-29,-201],[-52,-187],[-26,-44],[-35,-41],[-28,-47],[-20,-55],[-8,-67],[8,-68],[-4,-32],[-19,-32],[-8,-24],[-6,-107],[-13,-35],[-70,-104],[-8,-23],[-4,-23],[-20,-48],[-5,-23],[0,-101],[-11,0],[-2,41],[-8,34],[-23,-30],[-18,7],[-6,20],[13,12],[12,18],[8,38],[5,40],[-1,21],[-5,-16],[-7,-15],[-9,-13],[-8,-10],[-8,18],[4,15],[9,16],[4,25],[-3,2],[-21,25],[-1,7],[1,13],[0,15],[-5,12],[-41,9],[-4,2],[-7,6],[2,13],[6,11],[5,1],[-6,25],[-7,16],[-14,9],[-29,2],[-39,10],[-76,43],[-34,10],[-16,11],[-3,24],[2,23],[2,10],[49,57],[-10,35],[16,32],[22,30],[12,25],[3,14],[14,24],[4,19],[-4,2],[-7,7],[-7,9],[-3,8],[2,10],[3,9],[4,6],[2,1],[7,63],[-1,33],[-12,26],[-15,22],[-10,26],[-9,61],[-34,-28],[-36,-39],[-29,-44],[-11,-41],[-3,-22],[-8,-26],[-12,-22],[-13,-9],[-9,12],[3,27],[9,31],[-5,-12],[-17,-18],[-25,-7],[-35,-1],[-12,-8],[-62,-55],[-9,-12],[-7,-13],[-4,-17],[28,12],[29,23],[25,30],[17,30],[9,-26],[-7,-20],[-10,-20],[-3,-29],[8,12],[12,15],[15,11],[15,4],[14,-8],[-9,-11],[-16,-10],[-8,-2],[-35,-74],[-34,-45],[-40,-75],[-7,-25],[-31,-47],[-13,-28],[-18,-3],[-6,-3],[-6,-6],[0,-4],[0,-5],[25,-23],[-28,-38],[-113,-81],[-11,-22],[17,-24],[21,-2],[69,32],[-8,-22],[-13,-24],[-34,-42],[-8,-14],[4,-7],[12,1],[12,9],[25,28],[48,35],[23,11],[24,4],[33,-4],[42,-21],[19,-6],[31,5],[44,30],[51,16],[17,2],[7,-5],[-2,-22],[-9,-14],[-28,-23],[-34,-14],[-6,-6],[-1,-17],[11,-4],[13,6],[11,18],[11,8],[15,7],[14,2],[5,-8],[12,-181],[-12,-140],[-4,-24],[-21,-37],[-4,-24],[-55,-141],[-25,-17],[-61,-119],[9,-40],[-17,-127],[-36,-127],[-12,-25],[-37,-46],[-16,-28],[-6,-33],[6,-36],[18,-19],[52,-27],[10,-23],[14,-13],[61,-10],[14,-13],[-17,-30],[-38,1],[-37,5],[-17,-13],[-4,-24],[-60,-203],[-14,-155],[-2,-32],[-5,-60],[10,-33],[6,-29],[0,-3],[1,-14],[8,-35],[6,-19],[14,-8],[31,-10],[17,-24],[12,-29],[7,-33],[4,-49],[8,-37],[-3,-18],[-9,-4],[-13,0],[-14,-5],[-16,-15],[-20,-23],[-17,-27],[-7,-24],[7,-28],[28,-46],[6,-26],[2,0],[5,-4],[4,-7],[-1,-9],[-6,-2],[-19,3],[-6,-1],[-19,-15],[-7,-9],[-3,-14],[-3,-8],[-7,-7],[-8,-10],[-3,-16],[2,-19],[7,-24],[1,-15],[-13,-108],[-9,-17],[-9,-9],[-22,0],[23,25],[9,15],[-38,-20],[-8,-20],[-1521,0],[-892,0],[0,4096],[3385,0],[23,-6],[-31,-64],[-10,-36],[16,-15],[27,-7],[14,-11],[14,1],[30,26],[38,46],[16,28],[6,26],[8,12],[99,0],[-18,-38],[18,15],[15,21],[3,2]],[[1205,129],[11,154],[126,2],[2,-154],[-139,-2]],[[1197,0],[8,129],[139,2],[-2,154],[-126,-2],[4,69],[186,2],[-50,-77],[1,-97],[41,0],[-63,-180],[-138,0]],[[1608,0],[7,366],[59,68],[119,20],[22,72],[22,-3],[21,-37],[-7,-106],[97,-12],[0,-46],[-35,-26],[33,-18],[-90,-41],[-64,-123],[9,-45],[-46,-11],[-27,-58],[-120,0]],[[1235,1806],[199,103],[162,-104],[135,1],[-3,-243],[-45,-23],[-31,12],[-1,91],[-415,2],[-1,161]],[[1107,0],[26,198],[29,23],[-71,64],[-11,34],[29,28],[-18,21],[136,95],[-30,-463],[-90,0]],[[340,1806],[388,0],[0,-222],[-388,153],[0,69]],[[169,750],[0,331],[202,0],[0,-331],[-202,0]],[[707,1094],[7,41],[45,36],[-25,185],[57,126],[20,1],[7,80],[280,16],[-26,-40],[-161,-73],[-43,-64],[-36,-190],[-1,-327],[-58,-35],[-22,92],[-26,20],[-18,132]],[[726,962],[25,-20],[13,-89],[94,39],[52,-36],[35,18],[59,-68],[32,7],[63,-50],[-108,-61],[-53,-62],[-84,7],[-15,-26],[-57,5],[-8,29],[-48,-9],[-1,91],[-328,0],[0,332],[329,0],[0,-107]],[[2524,2897],[-24,-56],[-30,-15],[40,45],[-67,-25],[-16,68],[47,17],[50,-34]],[[2061,1529],[33,71],[-13,259],[35,121],[-3,-146],[15,24],[34,-105],[-23,-8],[-13,65],[-19,16],[-13,-163],[47,7],[-1,74],[21,-2],[33,-113],[69,-37],[7,-22],[-72,56],[-74,-4],[31,-36],[-19,-67],[1,60],[-31,47],[7,-20],[-52,-77]],[[0,1580],[1,226],[339,0],[0,-69],[388,-153],[0,222],[507,0],[1,-227],[-1236,1]],[[1728,0],[27,58],[46,11],[-7,51],[79,132],[226,6],[68,29],[115,-54],[-23,-36],[-111,-35],[8,-35],[-32,-34],[-26,31],[-3,-30],[-57,-14],[-24,19],[-134,-20],[0,-79],[-152,0]],[[2854,3871],[5,37],[38,7],[-16,104],[80,25],[5,52],[791,0],[-86,-342],[-736,-2],[9,35],[-60,84],[-30,0]],[[2305,2147],[34,100],[44,11],[107,-45],[10,-165],[-117,15],[13,69],[-49,26],[-42,-11]]]}