{"objects":{"water":{"type":"GeometryCollection","geometries":[{"type":"Polygon","properties":{"source":"naturalearthdata.com","kind":"ocean","area":1576712559132672,"sort_rank":200,"min_zoom":0.0,"id":1},"arcs":[[3]]},{"type":"LineString","properties":{"source":"naturalearthdata.com","kind":"ocean","sort_rank":205,"boundary":true,"min_zoom":0.0,"id":44},"arcs":[4]}]},"buildings":{"type":"GeometryCollection","geometries":[]},"places":{"type":"GeometryCollection","geometries":[{"type":"Point","properties":{"kind":"region","name":"Erongo Region","kind_detail":"state","name:de":"Region Erongo","source":"openstreetmap.org","min_zoom":4.0,"name:uk":"\u0415\u0440\u043e\u043d\u0433\u043e","name:ru":"\u042d\u0440\u043e\u043d\u0433\u043e","id":2696418807},"coordinates":[3865,3829]},{"type":"Point","properties":{"source":"naturalearthdata.com","kind":"locality","name":"Swakopmund","population":29491,"region_capital":true,"min_zoom":6.0,"id":5780},"coordinates":[1376,1806]},{"type":"Point","properties":{"name:sr":"\u0412\u0430\u043b\u0432\u0438\u0441 \u0411\u0435\u0458","name:he":"\u05d5\u05d0\u05dc\u05d5\u05d5\u05d9\u05e1 \u05d1\u05d9\u05d9","name:nl":"Walvisbaai","name:ja":"\u30a6\u30a9\u30eb\u30d3\u30b9\u30d9\u30a4","name:lt":"Volvis B\u0117jus","name:ko":"\uc6d4\ube44\uc2a4\ubca0\uc774","name:ar":"\u0648\u0644\u0641\u0633 \u0628\u064a","min_zoom":8.0,"name:uk":"\u0412\u043e\u043b\u0444\u0456\u0448-\u0411\u0435\u0439","name:be":"\u0423\u043e\u043b\u0432\u0456\u0441-\u0411\u044d\u0439","name:ru":"\u0423\u043e\u043b\u0444\u0438\u0448-\u0411\u0435\u0439","name:bg":"\u0423\u043e\u043b\u0444\u0438\u0448 \u0411\u0435\u0439","id":33364834,"name:af":"Walvisbaai","kind":"locality","name":"Walvis Bay","kind_detail":"city","name:de":"Walfischbucht","source":"openstreetmap.org","population":61300,"name:zh":"\u9cb8\u6e7e\u6e2f"},"coordinates":[1296,906]},{"type":"Point","properties":{"kind":"locality","name":"Swakopmund","name:lt":"Svakopmundas","kind_detail":"city","name:de":"Swakoppm\u00fcnde","source":"openstreetmap.org","min_zoom":8.0,"name:ru":"\u0421\u0432\u0430\u043a\u043e\u043f\u043c\u0443\u043d\u0434","id":33364835,"population":25000},"coordinates":[1366,1781]},{"type":"Point","properties":{"kind":"locality","name":"Henties Bay","kind_detail":"town","name:de":"Hentiesbucht","source":"openstreetmap.org","min_zoom":8.0,"name:ru":"\u0425\u0435\u043d\u0442\u0438\u0441-\u0411\u0435\u0439","population":4000,"id":175496995,"name:af":"Hentiesbaai"},"coordinates":[647,3550]}]},"transit":{"type":"GeometryCollection","geometries":[{"type":"LineString","properties":{"source":"openstreetmap.org","kind":"train","name":"Desert Express","sort_rank":275,"min_zoom":6.0,"osm_relation":true},"arcs":[2]}]},"pois":{"type":"GeometryCollection","geometries":[]},"boundaries":{"type":"GeometryCollection","geometries":[{"type":"LineString","properties":{"name:pt":"Nam\u00edbia","name:ps":"\u0646\u06d0\u0645\u0628\u06cc\u0627","name:ka":"\u10dc\u10d0\u10db\u10d8\u10d1\u10d8\u10d0","name:ko":"\ub098\ubbf8\ube44\uc544","name:cv":"\u041d\u0430\u043c\u0438\u0431\u0438","name:tr":"Namibya","name:cs":"Namibie","name:tt":"\u041d\u0430\u043c\u0438\u0431\u0438\u044f","name:kw":"Namibi","name:tk":"Namibi\u00fda","name:ku":"Nam\u00eebya","name:ti":"\u1293\u121a\u1262\u12eb","name:tl":"Namibya","name:pa":"\u0a28\u0a2e\u0a40\u0a2c\u0a40\u0a06","name:os":"\u041d\u0430\u043c\u0438\u0431\u0438","name:or":"\u0b28\u0b3e\u0b2e\u0b3f\u0b2c\u0b3f\u0b06","name:ce":"\u041d\u0430\u043c\u0438\u0431\u0438","name:ta":"\u0ba8\u0bae\u0bc0\u0baa\u0bbf\u0baf\u0bbe","name:tg":"\u041d\u0430\u043c\u0438\u0431\u0438\u044f","name:ca":"Nam\u00edbia","name:te":"\u0c28\u0c2e\u0c40\u0c2c\u0c3f\u0c2f\u0c3e","name:li":"Namibi\u00eb","sort_rank":262,"name:qu":"Namiwya","name:ba":"\u041d\u0430\u043c\u0438\u0431\u0438\u044f","source":"openstreetmap.org","osm_relation":true,"name:kn":"\u0ca8\u0cae\u0cc0\u0cac\u0cbf\u0caf","name:lv":"Nam\u012bbija","name:lt":"Namibija","name:uz":"Namibiya","name:kk":"\u041d\u0430\u043c\u0438\u0431\u0438\u044f","name:he":"\u05e0\u05de\u05d9\u05d1\u05d9\u05d4","name:eo":"Namibio","name:ur":"\u0646\u0645\u06cc\u0628\u06cc\u0627","name:lb":"Namibien","name:uk":"\u041d\u0430\u043c\u0456\u0431\u0456\u044f","name:hy":"\u0546\u0561\u0574\u056b\u0562\u056b\u0561","name:ug":"\u0646\u0627\u0645\u0649\u0628\u0649\u064a\u06d5","name:hu":"Nam\u00edbia","name:hr":"Namibija","name:el":"\u039d\u03b1\u03bc\u03af\u03bc\u03c0\u03b9\u03b1","kind":"country","name":"Namibia","min_zoom":8.0,"name:th":"\u0e1b\u0e23\u0e30\u0e40\u0e17\u0e28\u0e19\u0e32\u0e21\u0e34\u0e40\u0e1a\u0e35\u0e22","name:yi":"\u05e0\u05d0\u05de\u05d9\u05d1\u05d9\u05e2","name:et":"Namiibia","name:yo":"N\u00e0m\u00edb\u00ed\u00e0","name:mt":"Namibja","name:az":"Namibiya","name:mr":"\u0928\u093e\u092e\u093f\u092c\u093f\u092f\u093e","name:ar":"\u0646\u0627\u0645\u064a\u0628\u064a\u0627","name:my":"\u1014\u1019\u102e\u1038\u1018\u102e\u1038\u101a\u102c\u1038\u1014\u102d\u102f\u1004\u103a\u1004\u1036","name:is":"Namib\u00eda","name:am":"\u1293\u121a\u1262\u12eb","name:ru":"\u041d\u0430\u043c\u0438\u0431\u0438\u044f","name:ml":"\u0d28\u0d2e\u0d40\u0d2c\u0d3f\u0d2f","name:rw":"Namibiya","id":-195266,"name:mk":"\u041d\u0430\u043c\u0438\u0431\u0438\u0458\u0430","name:af":"Namibi\u00eb","name:zu":"INamibhiya","name:mn":"\u041d\u0430\u043c\u0438\u0431\u0438","name:ss":"INamibiya","kind_detail":"2","name:hi":"\u0928\u093e\u092e\u0940\u092c\u093f\u092f\u093e","name:fr":"Namibie","name:zh-yue":"\u7d0d\u7c73\u6bd4\u4e9e","name:fy":"Namybje","name:vo":"Namibiy\u00e4n","name:zh":"\u7eb3\u7c73\u6bd4\u4e9a","name:so":"Nambiya","name:sl":"Namibija","name:nl":"Namibi\u00eb","name:ja":"\u30ca\u30df\u30d3\u30a2","name:sh":"Namibija","name:sg":"Namib\u00f9ii","name:sc":"Nam\u00ecbia","name:sa":"\u0928\u092e\u0940\u092c\u093f\u092f\u093e","name:bs":"Namibija","name:bn":"\u09a8\u09be\u09ae\u09bf\u09ac\u09bf\u09af\u09bc\u09be","name:bo":"\u0f53\u0f0b\u0f58\u0f72\u0f0b\u0f56\u0fb7\u0f72\u0f0b\u0f61\u0f0d","name:sk":"Nam\u00edbia","name:be":"\u041d\u0430\u043c\u0456\u0431\u0456\u044f","name:bg":"\u041d\u0430\u043c\u0438\u0431\u0438\u044f","name:wo":"Namibi","name:sr":"\u041d\u0430\u043c\u0438\u0431\u0438\u0458\u0430","name:nv":"Nam\u00ed\u00edbya","name:ga":"An Namaib","name:gd":"Naimibia","name:ht":"Namibi","name:fa":"\u0646\u0627\u0645\u06cc\u0628\u06cc\u0627","maritime_boundary":true,"name:gv":"Yn Nameeb"},"arcs":[0]},{"type":"LineString","properties":{"kind":"region","name":"Erongo Region","sort_rank":256,"kind_detail":"4","min_zoom":8.0,"name:de":"Erongo","source":"openstreetmap.org","maritime_boundary":true,"name:uk":"\u0415\u0440\u043e\u043d\u0433\u043e","name:ru":"\u042d\u0440\u043e\u043d\u0433\u043e","id":-2279555,"osm_relation":true},"arcs":[1]}]},"roads":{"type":"GeometryCollection","geometries":[{"type":"LineString","properties":{"kind":"major_road","sort_rank":380,"kind_detail":"primary","source":"openstreetmap.org","min_zoom":8.0,"old_name":"Henties Bay Road","ref":"C34","id":83628240},"arcs":[5]},{"type":"LineString","properties":{"kind":"major_road","network":"na","sort_rank":380,"kind_detail":"primary","source":"openstreetmap.org","min_zoom":8.0,"landuse_kind":"park","shield_text":"28","ref":"C28;C34"},"arcs":[6]},{"type":"MultiLineString","properties":{"kind":"major_road","network":"sadc","sort_rank":381,"landuse_kind":"urban_area","source":"openstreetmap.org","min_zoom":8.0,"kind_detail":"trunk","shield_text":null,"ref":"B2"},"arcs":[[7],[8],[9],[10],[11],[12],[13],[14]]},{"type":"MultiLineString","properties":{"kind":"major_road","network":"na","sort_rank":380,"kind_detail":"primary","source":"openstreetmap.org","min_zoom":8.0,"landuse_kind":"park","shield_text":"14","ref":"C14"},"arcs":[[15],[16],[17],[18]]},{"type":"LineString","properties":{"kind":"major_road","network":"sadc","sort_rank":381,"kind_detail":"trunk","source":"openstreetmap.org","min_zoom":8.0,"shield_text":null,"id":43306316},"arcs":[19]},{"type":"MultiLineString","properties":{"kind":"major_road","sort_rank":380,"kind_detail":"primary","source":"openstreetmap.org","min_zoom":8.0,"old_name":"Henties Bay Road","landuse_kind":"urban_area","ref":"C34"},"arcs":[[20],[21],[22],[23],[24],[25],[26]]},{"type":"LineString","properties":{"kind":"major_road","network":"na","sort_rank":380,"kind_detail":"primary","source":"openstreetmap.org","min_zoom":8.0,"shield_text":"28","ref":"C28;C34","id":83531001},"arcs":[27]},{"type":"LineString","properties":{"kind":"major_road","sort_rank":380,"kind_detail":"primary","source":"openstreetmap.org","min_zoom":8.0,"old_name":"S\u00fcdring","landuse_kind":"urban_area","id":83486483},"arcs":[28]},{"type":"LineString","properties":{"kind":"major_road","network":"na","sort_rank":380,"kind_detail":"primary","source":"openstreetmap.org","min_zoom":8.0,"landuse_kind":"urban_area","shield_text":"14","ref":"C14","id":83649265},"arcs":[29]},{"type":"MultiLineString","properties":{"kind":"major_road","network":"sadc","sort_rank":381,"landuse_kind":"urban_area","source":"openstreetmap.org","min_zoom":8.0,"kind_detail":"trunk","shield_text":null},"arcs":[[30],[31],[32],[33]]},{"type":"MultiLineString","properties":{"source":"openstreetmap.org","kind":"major_road","landuse_kind":"urban_area","sort_rank":380,"kind_detail":"primary","min_zoom":8.0},"arcs":[[34],[35]]},{"type":"MultiLineString","properties":{"source":"openstreetmap.org","kind":"major_road","kind_detail":"trunk","sort_rank":381,"landuse_kind":"urban_area","min_zoom":8.0},"arcs":[[36],[37]]},{"type":"MultiLineString","properties":{"source":"openstreetmap.org","kind":"major_road","landuse_kind":"urban_area","sort_rank":380,"kind_detail":"primary","ref":"C34","min_zoom":8.0},"arcs":[[38],[39],[40],[41],[42]]},{"type":"MultiLineString","properties":{"kind":"major_road","network":"na","sort_rank":380,"kind_detail":"primary","source":"openstreetmap.org","min_zoom":8.0,"shield_text":"14","ref":"C14"},"arcs":[[43],[44],[45],[46]]},{"type":"LineString","properties":{"source":"openstreetmap.org","kind":"major_road","landuse_kind":"urban_area","sort_rank":380,"kind_detail":"primary","ref":"C14","min_zoom":8.0},"arcs":[47]},{"type":"MultiLineString","properties":{"source":"openstreetmap.org","kind":"major_road","sort_rank":380,"kind_detail":"primary","ref":"C34","min_zoom":8.0},"arcs":[[48],[49],[50]]},{"type":"MultiLineString","properties":{"kind":"major_road","network":"sadc","sort_rank":381,"landuse_kind":"urban_area","source":"openstreetmap.org","min_zoom":8.0,"old_name":"Kaiser Wilhelm St","shield_text":null,"kind_detail":"trunk","ref":"B2"},"arcs":[[51],[52]]},{"type":"MultiLineString","properties":{"kind":"major_road","sort_rank":380,"landuse_kind":"park","source":"openstreetmap.org","min_zoom":8.0,"kind_detail":"primary","ref":"C34","id":88637104},"arcs":[[53],[54],[55]]},{"type":"LineString","properties":{"kind":"major_road","network":"na","sort_rank":380,"kind_detail":"primary","source":"openstreetmap.org","min_zoom":8.0,"landuse_kind":"park","shield_text":"35","ref":"C35"},"arcs":[56]},{"type":"MultiLineString","properties":{"kind":"major_road","sort_rank":380,"kind_detail":"primary","source":"openstreetmap.org","min_zoom":8.0,"old_name":"Winter St","landuse_kind":"urban_area","ref":"C34"},"arcs":[[57],[58]]},{"type":"MultiLineString","properties":{"kind":"major_road","network":"sadc","sort_rank":381,"kind_detail":"trunk","source":"openstreetmap.org","min_zoom":8.0,"shield_text":null,"ref":"B2"},"arcs":[[59],[60],[61],[62],[63],[64],[65]]},{"type":"MultiLineString","properties":{"kind":"major_road","network":"na","sort_rank":380,"kind_detail":"primary","source":"openstreetmap.org","min_zoom":8.0,"landuse_kind":"park","shield_text":"28","ref":"C28"},"arcs":[[66],[67]]},{"type":"MultiLineString","properties":{"source":"openstreetmap.org","kind":"major_road","kind_detail":"trunk","sort_rank":381,"landuse_kind":"urban_area","ref":"B2","min_zoom":8.0},"arcs":[[68],[69]]},{"type":"MultiLineString","properties":{"kind":"major_road","network":"sadc","sort_rank":381,"landuse_kind":"urban_area","source":"openstreetmap.org","min_zoom":8.0,"old_name":"Breite St","shield_text":null,"kind_detail":"trunk","ref":"B2"},"arcs":[[70],[71]]},{"type":"LineString","properties":{"kind":"major_road","network":"na","sort_rank":380,"kind_detail":"primary","source":"openstreetmap.org","min_zoom":8.0,"shield_text":"28","ref":"C28"},"arcs":[72]},{"type":"MultiLineString","properties":{"kind":"major_road","network":"sadc","sort_rank":381,"kind_detail":"trunk","source":"openstreetmap.org","min_zoom":8.0,"landuse_kind":"park","shield_text":null,"ref":"B2"},"arcs":[[73],[74],[75],[76],[77]]},{"type":"LineString","properties":{"kind":"major_road","sort_rank":381,"kind_detail":"trunk","source":"openstreetmap.org","min_zoom":8.0,"old_name":"Kaiser Wilhelm St","landuse_kind":"urban_area","ref":"B2","id":476998295},"arcs":[78]},{"type":"LineString","properties":{"kind":"major_road","sort_rank":380,"kind_detail":"primary","source":"openstreetmap.org","min_zoom":8.0,"old_name":"Nordring","landuse_kind":"urban_area","ref":"C34","id":26139380},"arcs":[79]},{"type":"LineString","properties":{"kind":"major_road","sort_rank":381,"kind_detail":"trunk","source":"openstreetmap.org","min_zoom":8.0,"old_name":"Breite St","landuse_kind":"urban_area","ref":"B2","id":476998296},"arcs":[80]}]},"earth":{"type":"GeometryCollection","geometries":[{"type":"Polygon","properties":{"sort_rank":10,"source":"naturalearthdata.com","min_zoom":0.0,"kind":"earth","area":84122726545},"arcs":[[81]]}]},"landuse":{"type":"GeometryCollection","geometries":[{"type":"MultiPolygon","properties":{"source":"naturalearthdata.com","kind":"urban_area","name":"","area":49336662,"sort_rank":11,"min_zoom":4.0},"arcs":[[[82]],[[83]]]},{"type":"Polygon","properties":{"source":"openstreetmap.org","kind":"park","tier":2,"area":36979833496,"sort_rank":24,"min_zoom":4.0,"osm_relation":true},"arcs":[[84],[85],[86]]}]}},"type":"Topology","transform":{"translate":[14.0625,-23.2413461024],"scale":[0.0003433228,0.0003169679]},"arcs":[[[0,3306],[161,-301],[250,-306],[152,-455],[97,-209],[45,-210],[2,-170],[-166,-189],[-123,-319],[-41,-174],[-18,-262],[80,-401],[106,-310]],[[191,4096],[466,-598],[-6,-82],[101,-160],[208,-228],[102,-226],[123,-418],[117,-223],[-13,-103],[67,-195],[-22,-161],[28,-73],[-26,-77],[66,-180],[-15,-295],[-83,-86],[27,2],[-56,-68],[-42,-25],[-8,33],[13,-82],[-86,-148],[47,181],[-60,6],[-11,-31],[-59,-16],[37,165],[-19,46],[22,115],[-25,-32],[-7,-153],[-69,-67],[-18,-185],[212,-732]],[[1245,886],[81,59],[127,-99],[89,-22],[26,25],[-56,909],[-15,22],[-111,16],[212,126],[173,148],[209,72],[54,-47],[128,20],[186,128],[221,223],[105,53],[91,158],[142,106],[353,613],[96,94],[51,95],[57,30],[7,49],[74,32],[41,-49],[176,-63],[224,8],[110,62]],[[206,4096],[12,-11],[449,-593],[6,-28],[2,-76],[61,-104],[190,-215],[18,-25],[94,-200],[56,-186],[105,-218],[32,-140],[68,-113],[55,-414],[20,-552],[-14,-145],[-22,-73],[-33,-31],[-40,-27],[-66,-127],[-43,-42],[35,96],[4,35],[-61,-30],[-22,33],[5,65],[17,63],[-11,13],[-16,31],[-13,19],[17,28],[-9,12],[-17,0],[-9,-7],[0,-130],[-8,-30],[-38,-60],[-14,-30],[-3,-30],[10,-207],[20,-110],[31,-101],[42,-89],[50,-82],[31,-112],[23,-153],[-1220,0],[0,4096],[206,0]],[[206,4096],[12,-11],[449,-593],[6,-28],[2,-76],[61,-104],[190,-215],[18,-25],[94,-200],[56,-186],[105,-218],[32,-140],[68,-113],[55,-414],[20,-552],[-14,-145],[-22,-73],[-33,-31],[-40,-27],[-66,-127],[-43,-42],[35,96],[4,35],[-61,-30],[-22,33],[5,65],[17,63],[-11,13],[-16,31],[-13,19],[17,28],[-9,12],[-17,0],[-9,-7],[0,-130],[-8,-30],[-38,-60],[-14,-30],[-3,-30],[10,-207],[20,-110],[31,-101],[42,-89],[50,-82],[31,-112],[23,-153]],[[1395,1886],[4,10]],[[1522,1722],[-1,58]],[[1334,906],[15,12]],[[1349,918],[-12,-15]],[[1349,918],[54,96]],[[1359,1745],[0,4]],[[1359,1749],[1,-4]],[[1400,1783],[7,5]],[[1407,1788],[-7,-5]],[[1416,1794],[40,17]],[[1380,884],[8,-3]],[[1513,838],[5,-2]],[[1527,833],[232,-73]],[[1759,760],[471,-77],[188,38],[782,-319],[118,-61],[54,-84],[245,-173],[143,-84]],[[3202,3279],[0,3]],[[1381,1851],[11,26]],[[1392,1876],[-11,-25]],[[1392,1877]],[[1392,1877]],[[1392,1877],[2,4]],[[1394,1881],[-2,-4]],[[1394,1881],[1,5]],[[1521,1780],[-21,38]],[[1372,1779],[1,-13]],[[1338,898],[34,-12]],[[1407,1788],[1,0]],[[1408,1788],[-1,0]],[[1415,1794],[-7,-6]],[[1416,1795],[0,-1],[-1,-1],[0,1],[1,1]],[[1357,1764],[8,48]],[[1381,1851],[0,-1],[-1,0],[1,1]],[[1414,1793],[1,1]],[[1331,901],[1,4],[4,0],[-2,-4],[-3,0]],[[1369,1822],[-4,-15]],[[1365,1812],[4,11]],[[1369,1824],[11,26]],[[1381,1850],[-11,-26]],[[1369,1824],[1,-1],[-1,0],[0,1]],[[1372,886],[8,-2]],[[1388,881],[125,-43]],[[1518,836],[9,-3]],[[1759,760]],[[1336,903],[-2,-3]],[[764,3295],[-81,258],[-88,111]],[[1184,2463],[-97,324]],[[1399,1896],[-55,227]],[[1355,1777],[45,6]],[[1400,1783],[-45,-7]],[[595,3664],[-346,432]],[[1087,2787],[-100,212],[-223,296]],[[1344,2123],[-160,340]],[[992,4096],[-425,-390]],[[1415,1794],[-45,29]],[[1370,1823],[45,-28]],[[1361,1733],[-2,12]],[[1360,1745],[1,-11]],[[1404,1392],[-7,37]],[[1403,1014],[1,129]],[[1456,1811],[165,68],[220,132]],[[2450,2336],[453,394],[284,472],[15,77]],[[3202,3282],[202,367],[81,64],[160,228],[101,43],[187,-17],[155,20],[8,-2]],[[1761,1578],[-239,144]],[[4096,1025],[-547,-53],[-141,20],[-923,359],[-501,139],[-222,88]],[[1403,993],[-46,-67]],[[1416,1795]],[[1359,1749],[-4,28]],[[1355,1776],[4,-27]],[[1762,1578],[-1,0]],[[1361,1734],[1,-5],[-3,-7],[-20,-24],[19,-44]],[[1358,1654],[-20,44],[23,35]],[[1397,1429],[-39,225]],[[1404,1143],[0,249]],[[1841,2011],[78,47],[268,63],[263,215]],[[1355,1776]],[[1365,1807],[7,-28]],[[1355,1777],[0,-1]],[[1220,0],[-23,153],[-31,112],[-50,82],[-42,89],[-31,101],[-20,110],[-10,207],[3,30],[14,30],[38,60],[8,30],[0,130],[9,7],[17,0],[9,-12],[-17,-28],[13,-19],[16,-31],[11,-13],[-17,-63],[-5,-65],[22,-33],[61,30],[-4,-35],[-35,-96],[43,42],[66,127],[40,27],[33,31],[22,73],[14,145],[-20,552],[-55,414],[-68,113],[-32,140],[-105,218],[-56,186],[-94,200],[-18,25],[-190,215],[-61,104],[-2,76],[-6,28],[-449,593],[-12,11],[3890,0],[0,-4096],[-2876,0]],[[1329,842],[-30,7],[-39,86],[78,68],[15,51],[79,-63],[3,-40],[-106,-109]],[[1384,1887],[72,-8],[0,-90],[-100,-46],[-20,171],[27,7],[21,-34]],[[1217,0],[-110,292],[-117,440],[18,185],[69,67],[7,153],[39,36],[-31,-85],[14,-80],[-37,-165],[59,16],[11,31],[60,-6],[-47,-181],[50,116],[66,-40],[115,108],[45,-51],[90,2],[-3,-87],[-88,-10],[-4,-34],[32,-33],[115,-87],[73,35],[42,150],[-146,36],[-20,39],[-134,41],[97,95],[-18,163],[-62,-3],[2,273],[-67,130],[25,83],[-28,75],[47,52],[174,29],[95,82],[118,4],[-22,-958],[-53,-1],[-6,-47],[-43,-17],[2,-34],[98,6],[198,-793],[-198,797],[25,1071],[86,-23],[61,24],[-139,211],[-470,18],[-150,338],[223,0],[-148,323],[-167,1],[-112,252],[-219,253],[137,14],[-31,438],[-53,69],[-233,-181],[-363,464],[1223,0],[1213,-2059],[33,40],[9,42],[50,15],[28,67],[41,7],[102,93],[40,-72],[310,-311],[157,161],[33,-182],[118,24],[-51,-68],[84,-64],[242,19],[33,167],[25,26],[215,-3],[0,-1998],[-2879,0]],[[1931,1902],[14,5],[67,-26],[87,14],[-152,20],[-16,-13]],[[2126,1830],[69,-8],[6,20],[-43,11],[5,21],[-37,-44]]]}