{"objects":{"water":{"type":"GeometryCollection","geometries":[{"type":"MultiPolygon","properties":{"source":"naturalearthdata.com","kind":"ocean","area":1576712559132672,"sort_rank":200,"min_zoom":0.0,"id":1},"arcs":[[[42],[43],[44],[45]]]},{"type":"MultiPolygon","properties":{"source":"naturalearthdata.com","kind":"lake","name":"\u00c5snen","area":523492704,"sort_rank":200,"min_zoom":0.0,"id":733},"arcs":[[[46]],[[47]]]},{"type":"LineString","properties":{"source":"naturalearthdata.com","kind":"ocean","sort_rank":205,"boundary":true,"min_zoom":0.0,"id":49},"arcs":[48]},{"type":"MultiLineString","properties":{"source":"naturalearthdata.com","kind":"lake","sort_rank":367,"boundary":true,"min_zoom":0.0,"id":733},"arcs":[[49],[50]]}]},"buildings":{"type":"GeometryCollection","geometries":[]},"places":{"type":"GeometryCollection","geometries":[{"type":"Point","properties":{"source":"naturalearthdata.com","kind":"locality","name":"Kristianstad","population":32188,"region_capital":true,"min_zoom":7.0,"id":2532},"coordinates":[206,1345]},{"type":"Point","properties":{"kind":"locality","name":"Kristianstad","name:lt":"Kristianstadas","kind_detail":"town","source":"openstreetmap.org","min_zoom":8.0,"name:ru":"\u041a\u0440\u0438\u0441\u0442\u0438\u0430\u043d\u0441\u0442\u0430\u0434","id":27377535,"population":35711},"coordinates":[274,1323]},{"type":"Point","properties":{"kind":"locality","name":"Karlshamn","kind_detail":"town","source":"openstreetmap.org","min_zoom":8.0,"name:ru":"\u041a\u0430\u0440\u043b\u0441\u0445\u0430\u043c\u043d","id":27395889,"population":19075},"coordinates":[2332,2059]},{"type":"Point","properties":{"kind":"locality","name":"Ronneby","name:lt":"Ronebis","kind_detail":"town","source":"openstreetmap.org","min_zoom":8.0,"name:ru":"\u0420\u043e\u043d\u043d\u0435\u0431\u044e","id":27396028,"population":11767},"coordinates":[3535,2268]},{"type":"Point","properties":{"kind":"locality","name":"\u00c5hus","kind_detail":"town","source":"openstreetmap.org","min_zoom":8.0,"name:ru":"\u041e\u0445\u0443\u0441","id":28093787,"population":9423},"coordinates":[679,769]},{"type":"Point","properties":{"kind":"locality","name":"\u00c4lmhult","kind_detail":"town","source":"openstreetmap.org","min_zoom":8.0,"name:ru":"\u042d\u043b\u044c\u043c\u0445\u0443\u043b\u044c\u0442","id":755927892,"population":8955},"coordinates":[223,4053]},{"type":"Point","properties":{"kind":"locality","name":"S\u00f6lvesborg","kind_detail":"town","source":"openstreetmap.org","min_zoom":8.0,"name:ru":"\u0421\u0451\u043b\u044c\u0432\u0435\u0441\u0431\u043e\u0440\u0433","id":28093722,"population":8401},"coordinates":[1528,1434]},{"type":"Point","properties":{"kind":"locality","name":"Brom\u00f6lla","kind_detail":"town","source":"openstreetmap.org","min_zoom":8.0,"name:ru":"\u0411\u0440\u0443\u043c\u0451\u043b\u043b\u0430","id":28094074,"population":7595},"coordinates":[1182,1567]},{"type":"Point","properties":{"kind":"locality","name":"Olofstr\u00f6m","kind_detail":"town","source":"openstreetmap.org","min_zoom":8.0,"name:ru":"\u0423\u043b\u0443\u0444\u0441\u0442\u0440\u0451\u043c","id":61103888,"population":7327},"coordinates":[1371,2629]},{"type":"Point","properties":{"kind":"locality","name":"Tingsryd","kind_detail":"town","source":"openstreetmap.org","min_zoom":8.0,"name:ru":"\u0422\u0438\u043d\u0433\u0441\u0440\u044e\u0434","id":98005657,"population":3037},"coordinates":[2664,3931]},{"type":"Point","properties":{"source":"openstreetmap.org","kind":"locality","name":"Broby","kind_detail":"town","population":2920,"min_zoom":8.0,"id":122738499},"coordinates":[44,2503]}]},"transit":{"type":"GeometryCollection","geometries":[{"type":"MultiLineString","properties":{"kind":"train","network":"\u00d8resundst\u00e5g","service":"regional","sort_rank":275,"source":"openstreetmap.org","min_zoom":6.0,"operator":"Transdev;DSB \u00d8resund","ref":"95;101","osm_relation":true,"name":"T\u00e5g 95: Kalmar => Malm\u00f6 => K\u00f8benhavn => Helsing\u00f8r"},"arcs":[[10],[11]]},{"type":"MultiLineString","properties":{"kind":"train","network":"Kr\u00f6sat\u00e5gen","sort_rank":275,"source":"openstreetmap.org","min_zoom":6.0,"operator":"DSB Sm\u00e5land","ref":"92","osm_relation":true,"name":"T\u00e5g 92: V\u00e4xj\u00f6 => H\u00e4ssleholm"},"arcs":[[12],[13],[14]]},{"type":"MultiLineString","properties":{"kind":"train","name":"T\u00e5g 90: Helsing\u00f8r => K\u00f8benhavn => Malm\u00f6 => Karlskrona","service":"regional","sort_rank":275,"source":"openstreetmap.org","min_zoom":6.0,"operator":"DSB \u00d8resund;Transdev","ref":"101;90","osm_relation":true,"network":"\u00d8resundst\u00e5g"},"arcs":[[15],[16],[17],[18],[19],[20],[21]]},{"type":"MultiLineString","properties":{"kind":"train","name":"T\u00e5g 4B: Hyllie => Kristianstad","sort_rank":275,"colour":"#767fc8","source":"openstreetmap.org","min_zoom":6.0,"network":"Sk\u00e5netrafiken","ref":"4B","osm_relation":true,"colour_name":"mediumpurple"},"arcs":[[22],[23]]},{"type":"MultiLineString","properties":{"kind":"train","name":"T\u00e5g 5: Kristianstad => H\u00e4ssleholm => \u00c5storp => Helsingborg","sort_rank":275,"colour":"#767fc8","source":"openstreetmap.org","min_zoom":6.0,"network":"Sk\u00e5netrafiken","ref":"5","osm_relation":true,"colour_name":"mediumpurple"},"arcs":[[24],[25]]},{"type":"MultiLineString","properties":{"kind":"train","name":"T\u00e5g 92: H\u00e4ssleholm => V\u00e4xj\u00f6","sort_rank":275,"source":"openstreetmap.org","min_zoom":6.0,"operator":"DSB Sm\u00e5land","ref":"92","osm_relation":true,"network":"Kr\u00f6sat\u00e5gen"},"arcs":[[26],[27],[28]]},{"type":"MultiLineString","properties":{"kind":"train","name":"T\u00e5g 4B: Kristianstad => Hyllie","sort_rank":275,"colour":"#767fc8","source":"openstreetmap.org","min_zoom":6.0,"network":"Sk\u00e5netrafiken","ref":"4B","osm_relation":true,"colour_name":"mediumpurple"},"arcs":[[29],[30]]},{"type":"MultiLineString","properties":{"kind":"train","name":"T\u00e5g 5: Helsingborg => \u00c5storp => H\u00e4ssleholm => Kristianstad","sort_rank":275,"colour":"#767fc8","source":"openstreetmap.org","min_zoom":6.0,"network":"Sk\u00e5netrafiken","ref":"5","osm_relation":true,"colour_name":"mediumpurple"},"arcs":[[31],[32]]},{"type":"MultiLineString","properties":{"kind":"train","network":"\u00d8resundst\u00e5g","service":"regional","sort_rank":275,"source":"openstreetmap.org","min_zoom":6.0,"operator":"DSB \u00d8resund;Transdev","ref":"101;95","osm_relation":true,"name":"T\u00e5g 95: Helsing\u00f8r => K\u00f8benhavn => Malm\u00f6 => Kalmar"},"arcs":[[33],[34]]},{"type":"MultiLineString","properties":{"kind":"train","name":"T\u00e5g 90: Karlskrona => Malm\u00f6 => K\u00f8benhavn => Helsing\u00f8r","service":"regional","sort_rank":275,"source":"openstreetmap.org","min_zoom":6.0,"operator":"Transdev;DSB \u00d8resund","ref":"90;101","osm_relation":true,"network":"\u00d8resundst\u00e5g"},"arcs":[[35],[36],[37],[38],[39],[40],[41]]}]},"pois":{"type":"GeometryCollection","geometries":[{"type":"Point","properties":{"kind":"military","name":"Rinkaby skjutf\u00e4lt","area":37502800,"source":"openstreetmap.org","min_zoom":8.0,"tier":3,"ref":"P7","id":182937872},"coordinates":[771,952]},{"type":"Point","properties":{"kind":"military","name":"Rinkaby \u00f6vningsf\u00e4lt","area":23845300,"source":"openstreetmap.org","min_zoom":8.0,"tier":3,"ref":"P7","id":186297032},"coordinates":[696,1171]}]},"boundaries":{"type":"GeometryCollection","geometries":[{"type":"LineString","properties":{"name:kg":"Suedi","name:ka":"\u10e8\u10d5\u10d4\u10d3\u10d4\u10d7\u10d8","name:ko":"\uc2a4\uc6e8\ub374","name:cv":"\u0428\u0432\u0435\u0446\u0438","name:cu":"\u0421\u0432\u0454\u043d\u044c\u0441\u043a\u043e","name:kl":"Svenskit Nunaat","name:cs":"\u0160v\u00e9dsko","name:tw":"Sweden","name:ki":"Sweden","name:co":"Svezia","name:kv":"\u0428\u0432\u0435\u0446\u0438\u044f","name:th":"\u0e1b\u0e23\u0e30\u0e40\u0e17\u0e28\u0e2a\u0e27\u0e35\u0e40\u0e14\u0e19","name:tl":"Suwesya","name:ce":"\u0428\u0432\u0435\u0446\u0438","name:ta":"\u0b9a\u0bc1\u0bb5\u0bc0\u0b9f\u0ba9\u0bcd","name:tg":"\u0428\u0432\u0435\u0442\u0441\u0438\u044f","name:ca":"Su\u00e8cia","name:te":"\u0c38\u0c4d\u0c35\u0c40\u0c21\u0c28\u0c4d","name:cy":"Sweden","name:qu":"Suwidsuyu","name:de":"Schweden","name:dz":"\u0f66\u0f74\u0f60\u0f72\u0f0b\u0f4c\u0f53\u0f0b","source":"openstreetmap.org","name:kn":"\u0cb8\u0ccd\u0cb5\u0cc0\u0ca1\u0ca8\u0ccd","name:dv":"\u0790\u07aa\u0788\u07a8\u0791\u07a6\u0782\u07b0","name:km":"\u179f\u17ca\u17bb\u1799\u17a2\u17c2\u178f","name:lv":"Zviedrija","name:lt":"\u0160vedija","name:uz":"Shvetsiya","name:kk":"\u0428\u0432\u0435\u0446\u0438\u044f","name:ur":"\u0633\u0648\u06cc\u0688\u0646","name:lb":"Schweden","name:la":"Suecia","name:lg":"Swiiden","name:uk":"\u0428\u0432\u0435\u0446\u0456\u044f","name:ug":"\u0634\u06cb\u06d0\u062a\u0633\u0649\u064a\u06d5","name:li":"Zwede","name:ln":"Sw\u00e9di","name:el":"\u03a3\u03bf\u03c5\u03b7\u03b4\u03af\u03b1","name:eo":"Svedujo","name:en":"Sweden","name":"Sverige","name:tk":"\u015ewesi\u00fda","name:ee":"Sweden","name:ku":"Sw\u00ead","name:eu":"Suedia","name:et":"Rootsi","name:es":"Suecia","name:ia":"Svedia","name:rm":"Svezia","name:az":"\u0130sve\u00e7","name:ie":"Svedia","name:id":"Swedia","name:ar":"\u0627\u0644\u0633\u0648\u064a\u062f","name:io":"Suedia","name:ak":"Sweden","name:am":"\u1235\u12ca\u12f5\u1295","name:it":"Svezia","name:an":"Suecia","name:ru":"\u0428\u0432\u0435\u0446\u0438\u044f","name:ab":"\u0428\u0432\u0435\u0446\u0438\u0430","name:af":"Swede","name:zu":"ISwidi","kind_detail":"2","name:ky":"\u0428\u0432\u0435\u0446\u0438\u044f","name:zh-yue":"\u745e\u5178","name:zh":"\u745e\u5178","name:so":"Iswiidhan","name:sm":"Sweden","name:sl":"\u0160vedska","name:sk":"\u0160v\u00e9dsko","name:ja":"\u30b9\u30a6\u30a7\u30fc\u30c7\u30f3","name:sh":"\u0160vedska","name:se":"Ruo\u0167\u0167a","name:sc":"Isvetzia","name:br":"Sveden","name:bs":"\u0160vedska","name:bm":"Swedi","name:bn":"\u09b8\u09c1\u0987\u09a1\u09c7\u09a8","name:bo":"\u0f66\u0f72\u0f0b\u0f5d\u0f7a\u0f0b\u0f51\u0f7a\u0f53\u0f0d","name:bi":"Sweden","name:sw":"Uswidi","name:be":"\u0428\u0432\u0435\u0446\u044b\u044f","name:su":"Sw\u00e9dia","name:bg":"\u0428\u0432\u0435\u0446\u0438\u044f","name:ss":"ISwideni","name:ba":"\u0428\u0432\u0435\u0446\u0438\u044f","name:sq":"Suedia","name:jv":"Sw\u00e9dia","name:sa":"\u0938\u094d\u0935\u0940\u0921\u0928","name:pt":"Su\u00e9cia","name:ps":"\u0633\u0648\u064a\u0689\u0646","name:oc":"Su\u00e8cia","min_zoom":8.0,"name:ro":"Suedia","name:zh-min-nan":"S\u016bi-ti\u00e1n","name:os":"\u0428\u0432\u0435\u0446\u0438","name:or":"\u0b38\u0b4d\u0b35\u0b3f\u0b21\u0b47\u0b28","name:pl":"Szwecja","sort_rank":262,"name:sr":"\u0428\u0432\u0435\u0434\u0441\u043a\u0430","osm_relation":true,"name:pa":"\u0a38\u0a35\u0a40\u0a21\u0a28","name:tr":"\u0130sve\u00e7","name:hi":"\u0938\u094d\u0935\u0940\u0921\u0928","name:he":"\u05e9\u05d1\u05d3\u05d9\u05d4","name:hy":"\u0547\u057e\u0565\u0564\u056b\u0561","name:ht":"Sy\u00e8d","name:hu":"Sv\u00e9dorsz\u00e1g","name:hr":"\u0160vedska","kind":"country","name:is":"Sv\u00ed\u00fej\u00f3\u00f0","name:yi":"\u05e9\u05d5\u05d5\u05e2\u05d3\u05df","name:iu":"\u1505\u1557\u1546\u146d","name:yo":"Sw\u00edd\u00ecn","name:mt":"\u017bvezja","alt_name:eo":"Svedio","name:ms":"Sweden","name:mr":"\u0938\u094d\u0935\u0940\u0921\u0928","name:my":"\u1006\u103d\u102e\u1012\u1004\u103a\u1014\u102d\u102f\u1004\u103a\u1004\u1036","official_name":"Konungariket Sverige","name:kw":"Swedherwyk","name:mg":"Soeda","name:vi":"Th\u1ee5y \u0110i\u1ec3n","name:ml":"\u0d38\u0d4d\u0d35\u0d40\u0d21\u0d7b","name:mn":"\u0428\u0432\u0435\u0434","name:mi":"Hu\u012btene","id":-52822,"name:mk":"\u0428\u0432\u0435\u0434\u0441\u043a\u0430","name:vo":"Sved\u00e4n","name:fa":"\u0633\u0648\u0626\u062f","name:rw":"Suwede","name:fi":"Ruotsi","name:fo":"Sv\u00f8r\u00edki","name:fr":"Su\u00e8de","name:fy":"Sweden","int_name":"Sweden","name:nl":"Zweden","name:na":"Widen","name:ne":"\u0938\u094d\u0935\u0940\u0921\u0947\u0928","name:wa":"Suwedwesse","name:wo":"Suweed","name:ga":"An tSualainn","name:gd":"An t-Suain","name:gn":"Suesia","name:gl":"Suecia","maritime_boundary":true,"name:gv":"Yn Toolynn","name:gu":"\u0ab8\u0acd\u0ab5\u0abf\u0aa1\u0aa8","name:tt":"\u0428\u0432\u0435\u0446\u0438\u044f"},"arcs":[0]},{"type":"LineString","properties":{"name:right:ru":"\u0411\u043b\u0435\u043a\u0438\u043d\u0433\u0435","name:right:lt":"Bleking\u0117s l\u0117nas","min_zoom":8.0,"name:left:ru":"\u041a\u0430\u043b\u044c\u043c\u0430\u0440","id:right":-54413,"id":-54417,"osm_relation":true,"name:right":"Blekinge l\u00e4n","kind":"region","name":"Kalmar l\u00e4n - Blekinge l\u00e4n","sort_rank":256,"kind_detail":"4","name:left:de":"Provinz Kalmar","name:left:fi":"Kalmarin l\u00e4\u00e4ni","source":"openstreetmap.org","id:left":-54417,"name:right:fi":"Blekingen l\u00e4\u00e4ni","name:left":"Kalmar l\u00e4n"},"arcs":[1]},{"type":"MultiLineString","properties":{"name:right:ru":"\u041a\u0440\u0443\u043d\u0443\u0431\u0435\u0440\u0433","min_zoom":8.0,"name:left:ru":"\u041a\u0430\u043b\u044c\u043c\u0430\u0440","id:right":-54412,"id":-54417,"osm_relation":true,"name:right":"Kronobergs l\u00e4n","kind":"region","name":"Kalmar l\u00e4n - Kronobergs l\u00e4n","sort_rank":256,"kind_detail":"4","name:left:de":"Provinz Kalmar","name:left:fi":"Kalmarin l\u00e4\u00e4ni","source":"openstreetmap.org","name:right:de":"Provinz Kronoberg","id:left":-54417,"name:right:fi":"Kronobergin l\u00e4\u00e4ni","name:left":"Kalmar l\u00e4n"},"arcs":[[2],[3]]},{"type":"LineString","properties":{"name:right:ru":"\u041a\u0440\u0443\u043d\u0443\u0431\u0435\u0440\u0433","min_zoom":8.0,"name:left:lt":"Bleking\u0117s l\u0117nas","name:left:ru":"\u0411\u043b\u0435\u043a\u0438\u043d\u0433\u0435","id:right":-54412,"id":-54413,"osm_relation":true,"name:right":"Kronobergs l\u00e4n","kind":"region","name":"Blekinge l\u00e4n - Kronobergs l\u00e4n","sort_rank":256,"kind_detail":"4","name:left:fi":"Blekingen l\u00e4\u00e4ni","source":"openstreetmap.org","name:right:de":"Provinz Kronoberg","id:left":-54413,"name:right:fi":"Kronobergin l\u00e4\u00e4ni","name:left":"Blekinge l\u00e4n"},"arcs":[4]},{"type":"LineString","properties":{"name:right:ru":"\u0421\u043a\u043e\u043d\u0435","min_zoom":8.0,"name:left:lt":"Bleking\u0117s l\u0117nas","name:left:ru":"\u0411\u043b\u0435\u043a\u0438\u043d\u0433\u0435","short_name:right":"Sk\u00e5ne","id:right":-54409,"id":-54413,"osm_relation":true,"name:right":"Sk\u00e5ne l\u00e4n","kind":"region","name":"Blekinge l\u00e4n - Sk\u00e5ne l\u00e4n","sort_rank":256,"kind_detail":"4","name:left:fi":"Blekingen l\u00e4\u00e4ni","source":"openstreetmap.org","name:right:de":"Provinz Schonen","id:left":-54413,"name:right:fi":"Sk\u00e5nen l\u00e4\u00e4ni","name:left":"Blekinge l\u00e4n"},"arcs":[5]},{"type":"LineString","properties":{"id:left":-54413,"name:right:ru":"\u0421\u043a\u043e\u043d\u0435","min_zoom":8.0,"name:left:lt":"Bleking\u0117s l\u0117nas","name:left:ru":"\u0411\u043b\u0435\u043a\u0438\u043d\u0433\u0435","short_name:right":"Sk\u00e5ne","id:right":-54409,"id":-54413,"osm_relation":true,"name:right":"Sk\u00e5ne l\u00e4n","kind":"region","name":"Blekinge l\u00e4n - Sk\u00e5ne l\u00e4n","sort_rank":256,"kind_detail":"4","name:left:fi":"Blekingen l\u00e4\u00e4ni","source":"openstreetmap.org","maritime_boundary":true,"name:right:de":"Provinz Schonen","name:right:fi":"Sk\u00e5nen l\u00e4\u00e4ni","name:left":"Blekinge l\u00e4n"},"arcs":[6]},{"type":"LineString","properties":{"kind":"region","name":"Blekinge l\u00e4n","name:lt":"Bleking\u0117s l\u0117nas","sort_rank":256,"kind_detail":"4","min_zoom":8.0,"source":"openstreetmap.org","maritime_boundary":true,"name:fi":"Blekingen l\u00e4\u00e4ni","name:ru":"\u0411\u043b\u0435\u043a\u0438\u043d\u0433\u0435","id":-54413,"osm_relation":true},"arcs":[7]},{"type":"MultiLineString","properties":{"name:right:ru":"\u0421\u043a\u043e\u043d\u0435","min_zoom":8.0,"name:left:ru":"\u041a\u0440\u0443\u043d\u0443\u0431\u0435\u0440\u0433","short_name:right":"Sk\u00e5ne","id:right":-54409,"id":-54412,"osm_relation":true,"name:right":"Sk\u00e5ne l\u00e4n","kind":"region","name":"Kronobergs l\u00e4n - Sk\u00e5ne l\u00e4n","sort_rank":256,"kind_detail":"4","name:left:de":"Provinz Kronoberg","name:left:fi":"Kronobergin l\u00e4\u00e4ni","source":"openstreetmap.org","name:right:de":"Provinz Schonen","id:left":-54412,"name:right:fi":"Sk\u00e5nen l\u00e4\u00e4ni","name:left":"Kronobergs l\u00e4n"},"arcs":[[8],[9]]}]},"roads":{"type":"GeometryCollection","geometries":[{"type":"LineString","properties":{"kind":"highway","network":null,"sort_rank":383,"kind_detail":"motorway","source":"openstreetmap.org","min_zoom":8.0,"all_networks":[null],"landuse_kind":"urban_area","shield_text":"19","ref":"19","id":31283570,"all_shield_texts":["19"]},"arcs":[51]},{"type":"MultiLineString","properties":{"kind":"major_road","network":null,"sort_rank":380,"kind_detail":"primary","source":"openstreetmap.org","min_zoom":8.0,"shield_text":"15","ref":"15"},"arcs":[[52],[53]]},{"type":"MultiLineString","properties":{"kind":"major_road","network":null,"sort_rank":380,"kind_detail":"primary","source":"openstreetmap.org","min_zoom":8.0,"landuse_kind":"urban_area","shield_text":"21","ref":"21"},"arcs":[[54],[55]]},{"type":"LineString","properties":{"kind":"major_road","network":null,"sort_rank":377,"kind_detail":"tertiary","is_bicycle_related":true,"bicycle_shield_text":"Cykelsp\u00e5ret (2)","bicycle_network":"ncn","source":"openstreetmap.org","min_zoom":8.0,"landuse_kind":"urban_area","shield_text":"548","ref":"K 548","id":39809960},"arcs":[56]},{"type":"LineString","properties":{"bus_network":"Sk\u00e5netrafiken","network":null,"sort_rank":380,"kind_detail":"primary","kind":"major_road","source":"openstreetmap.org","min_zoom":8.0,"bus_shield_text":"562","shield_text":"15","ref":"15;119"},"arcs":[57]},{"type":"LineString","properties":{"bus_network":"Sk\u00e5netrafiken","network":null,"sort_rank":380,"kind_detail":"primary","is_bicycle_related":true,"kind":"major_road","bicycle_shield_text":"Sverigeleden (36)","bicycle_network":"ncn","source":"openstreetmap.org","min_zoom":8.0,"bus_shield_text":"Sk\u00e5neExpressen 3","shield_text":"19","ref":"19"},"arcs":[58]},{"type":"LineString","properties":{"kind":"major_road","network":null,"sort_rank":377,"kind_detail":"tertiary","is_bicycle_related":true,"bicycle_shield_text":"Sverigeleden (35)","bicycle_network":"ncn","source":"openstreetmap.org","min_zoom":8.0,"shield_text":"601","ref":"K 601","id":195995877},"arcs":[59]},{"type":"LineString","properties":{"kind":"major_road","network":null,"sort_rank":377,"kind_detail":"tertiary","is_bicycle_related":true,"bicycle_shield_text":"Cykelsp\u00e5ret (2)","bicycle_network":"ncn","source":"openstreetmap.org","min_zoom":8.0,"shield_text":"669","ref":"K 669","id":33218612},"arcs":[60]},{"type":"MultiLineString","properties":{"kind":"major_road","sort_rank":380,"kind_detail":"primary","is_bicycle_related":true,"bus_network":"Blekingetrafiken","cycleway":"track","source":"openstreetmap.org","min_zoom":8.0,"bus_shield_text":"630","landuse_kind":"urban_area","ref":"E 22.02"},"arcs":[[61],[62],[63]]},{"type":"MultiLineString","properties":{"kind":"major_road","network":null,"sort_rank":381,"kind_detail":"trunk","source":"openstreetmap.org","min_zoom":8.0,"shield_text":"22.01","ref":"E 22.01"},"arcs":[[64],[65],[66]]},{"type":"LineString","properties":{"kind":"major_road","network":null,"sort_rank":377,"kind_detail":"tertiary","is_bicycle_related":true,"bicycle_shield_text":"Cykelsp\u00e5ret (2)","bicycle_network":"ncn","source":"openstreetmap.org","min_zoom":8.0,"shield_text":"630","ref":"K 630","id":32794220},"arcs":[67]},{"type":"LineString","properties":{"kind":"minor_road","sort_rank":360,"landuse_kind":"urban_area","is_bicycle_related":true,"bicycle_shield_text":"Sverigeleden (35)","bicycle_network":"ncn","source":"openstreetmap.org","min_zoom":8.0,"kind_detail":"residential"},"arcs":[68]},{"type":"LineString","properties":{"kind":"major_road","sort_rank":381,"kind_detail":"trunk","bus_network":"Blekingetrafiken","source":"openstreetmap.org","min_zoom":8.0,"bus_shield_text":"256","ref":"E 22","id":31283685},"arcs":[69]},{"type":"LineString","properties":{"kind":"major_road","sort_rank":380,"landuse_kind":"urban_area","source":"openstreetmap.org","min_zoom":8.0,"kind_detail":"primary","ref":"E 22.03","id":448703884},"arcs":[70]},{"type":"LineString","properties":{"kind":"path","sort_rank":354,"kind_detail":"cycleway","is_bicycle_related":true,"bicycle_shield_text":"Sverigeleden (35)","bicycle_network":"ncn","source":"openstreetmap.org","min_zoom":8.0,"landuse_kind":"urban_area","id":44023250},"arcs":[71]},{"type":"LineString","properties":{"kind":"major_road","network":null,"sort_rank":377,"kind_detail":"tertiary","is_bicycle_related":true,"bicycle_shield_text":"Cykelsp\u00e5ret (2)","bicycle_network":"ncn","source":"openstreetmap.org","min_zoom":8.0,"landuse_kind":"urban_area","shield_text":"522","ref":"K 522","id":27347572},"arcs":[72]},{"type":"MultiLineString","properties":{"bus_network":"Sk\u00e5netrafiken","network":null,"sort_rank":380,"kind_detail":"primary","kind":"major_road","source":"openstreetmap.org","min_zoom":8.0,"bus_shield_text":"545","shield_text":"19"},"arcs":[[73],[74]]},{"type":"LineString","properties":{"bus_network":"Sk\u00e5netrafiken","network":null,"sort_rank":377,"kind_detail":"tertiary","is_bicycle_related":true,"kind":"major_road","bicycle_shield_text":"Sverigeleden (36)","bicycle_network":"ncn","source":"openstreetmap.org","min_zoom":8.0,"bus_shield_text":"553","shield_text":"1628","ref":"M 1628"},"arcs":[75]},{"type":"MultiLineString","properties":{"kind":"path","sort_rank":354,"kind_detail":"cycleway","is_bicycle_related":true,"bicycle_shield_text":"Cykelsp\u00e5ret (1)","bicycle_network":"ncn","source":"openstreetmap.org","min_zoom":8.0},"arcs":[[76],[77],[78]]},{"type":"MultiLineString","properties":{"kind":"major_road","sort_rank":377,"kind_detail":"tertiary","is_bicycle_related":true,"bicycle_shield_text":"Cykelsp\u00e5ret (2)","bicycle_network":"ncn","source":"openstreetmap.org","min_zoom":8.0},"arcs":[[79],[80],[81],[82],[83]]},{"type":"LineString","properties":{"source":"openstreetmap.org","kind":"major_road","sort_rank":380,"kind_detail":"primary","ref":"29","min_zoom":8.0,"id":403366268},"arcs":[84]},{"type":"LineString","properties":{"kind":"major_road","network":null,"sort_rank":377,"kind_detail":"tertiary","is_bicycle_related":true,"bus_network":"Blekingetrafiken","bicycle_shield_text":"Cykelsp\u00e5ret (3)","bicycle_network":"ncn","source":"openstreetmap.org","min_zoom":8.0,"bus_shield_text":"154","shield_text":"673","ref":"K 673"},"arcs":[85]},{"type":"LineString","properties":{"kind":"major_road","network":null,"sort_rank":377,"kind_detail":"tertiary","is_bicycle_related":true,"bicycle_shield_text":"Cykelsp\u00e5ret (2)","bicycle_network":"ncn","source":"openstreetmap.org","min_zoom":8.0,"shield_text":"668","ref":"K 668"},"arcs":[86]},{"type":"LineString","properties":{"source":"openstreetmap.org","kind":"ferry","name":"J\u00e4rnavik - Tj\u00e4r\u00f6","sort_rank":355,"min_zoom":8.0,"id":65157131},"arcs":[87]},{"type":"MultiLineString","properties":{"kind":"major_road","network":"e-road","sort_rank":381,"landuse_kind":"urban_area","source":"openstreetmap.org","min_zoom":8.0,"kind_detail":"trunk","shield_text":"22","ref":"E 22;15"},"arcs":[[88],[89],[90],[91]]},{"type":"LineString","properties":{"source":"openstreetmap.org","kind":"major_road","sort_rank":381,"kind_detail":"trunk","ref":"E 22","min_zoom":8.0,"id":31283683},"arcs":[92]},{"type":"LineString","properties":{"kind":"major_road","network":null,"sort_rank":377,"kind_detail":"tertiary","is_bicycle_related":true,"bicycle_shield_text":"Cykelsp\u00e5ret (2)","bicycle_network":"ncn","source":"openstreetmap.org","min_zoom":8.0,"shield_text":"547","ref":"K 547"},"arcs":[93]},{"type":"LineString","properties":{"kind":"major_road","network":null,"sort_rank":377,"kind_detail":"tertiary","is_bicycle_related":true,"bus_network":"Sk\u00e5netrafiken","bicycle_shield_text":"Cykelsp\u00e5ret (2)","bicycle_network":"ncn","source":"openstreetmap.org","min_zoom":8.0,"bus_shield_text":"558","shield_text":"1669","landuse_kind":"urban_area","ref":"M 1669","id":448521252},"arcs":[94]},{"type":"MultiLineString","properties":{"kind":"highway","network":null,"sort_rank":383,"landuse_kind":"urban_area","source":"openstreetmap.org","min_zoom":8.0,"all_networks":[null],"kind_detail":"motorway","shield_text":"21","ref":"21","all_shield_texts":["21"]},"arcs":[[95],[96]]},{"type":"MultiLineString","properties":{"kind":"major_road","sort_rank":380,"kind_detail":"primary","bus_network":"Blekingetrafiken","source":"openstreetmap.org","min_zoom":8.0,"bus_shield_text":"630","landuse_kind":"urban_area","ref":"E 22.03"},"arcs":[[97],[98]]},{"type":"MultiLineString","properties":{"kind":"major_road","network":null,"sort_rank":380,"kind_detail":"primary","is_bicycle_related":true,"bus_network":"Blekingetrafiken","bicycle_shield_text":"Cykelsp\u00e5ret (2)","bicycle_network":"ncn","source":"openstreetmap.org","min_zoom":8.0,"bus_shield_text":"630","shield_text":"15","ref":"15"},"arcs":[[99],[100],[101]]},{"type":"MultiLineString","properties":{"kind":"path","sort_rank":354,"kind_detail":"path","is_bicycle_related":true,"bicycle_shield_text":"Cykelsp\u00e5ret (2)","bicycle_network":"ncn","source":"openstreetmap.org","min_zoom":8.0},"arcs":[[102],[103],[104],[105],[106],[107]]},{"type":"LineString","properties":{"kind":"major_road","network":null,"sort_rank":377,"kind_detail":"tertiary","is_bicycle_related":true,"bicycle_shield_text":"Cykelsp\u00e5ret (2)","bicycle_network":"ncn","source":"openstreetmap.org","min_zoom":8.0,"shield_text":"548","ref":"K 548","id":39809960},"arcs":[108]},{"type":"LineString","properties":{"kind":"major_road","sort_rank":377,"kind_detail":"tertiary","is_bicycle_related":true,"bicycle_shield_text":"Sverigeleden (35)","bicycle_network":"ncn","source":"openstreetmap.org","min_zoom":8.0,"ref":"G 648","id":160261834},"arcs":[109]},{"type":"MultiLineString","properties":{"kind":"minor_road","sort_rank":360,"kind_detail":"residential","is_bicycle_related":true,"bicycle_shield_text":"Cykelsp\u00e5ret (2)","bicycle_network":"ncn","source":"openstreetmap.org","min_zoom":8.0},"arcs":[[110],[111]]},{"type":"LineString","properties":{"kind":"major_road","network":null,"sort_rank":380,"kind_detail":"primary","source":"openstreetmap.org","min_zoom":8.0,"landuse_kind":"urban_area","shield_text":"19","id":421884376},"arcs":[112]},{"type":"LineString","properties":{"sort_rank":380,"kind_detail":"primary","min_zoom":8.0,"kind":"major_road","source":"openstreetmap.org"},"arcs":[113]},{"type":"LineString","properties":{"kind":"major_road","network":null,"sort_rank":380,"kind_detail":"primary","bus_network":"Blekingetrafiken","source":"openstreetmap.org","min_zoom":8.0,"bus_shield_text":"21","shield_text":"27","ref":"27","id":25111468},"arcs":[114]},{"type":"LineString","properties":{"kind":"major_road","sort_rank":377,"kind_detail":"tertiary","is_bicycle_related":true,"bicycle_shield_text":"Sverigeleden (35)","bicycle_network":"ncn","source":"openstreetmap.org","min_zoom":8.0,"ref":"G 681"},"arcs":[115]},{"type":"LineString","properties":{"kind":"major_road","network":null,"sort_rank":377,"kind_detail":"tertiary","is_bicycle_related":true,"bicycle_shield_text":"Sverigeleden (35)","bicycle_network":"ncn","source":"openstreetmap.org","min_zoom":8.0,"shield_text":"578","ref":"K 578"},"arcs":[116]},{"type":"MultiLineString","properties":{"kind":"major_road","network":null,"sort_rank":377,"kind_detail":"tertiary","is_bicycle_related":true,"bicycle_shield_text":"Cykelsp\u00e5ret (1)","bicycle_network":"ncn","source":"openstreetmap.org","min_zoom":8.0,"shield_text":"1662","ref":"M 1662"},"arcs":[[117],[118]]},{"type":"LineString","properties":{"bus_network":"Sk\u00e5netrafiken","sort_rank":377,"landuse_kind":"urban_area","is_bicycle_related":true,"kind":"major_road","bicycle_shield_text":"Cykelsp\u00e5ret (1)","bicycle_network":"ncn","source":"openstreetmap.org","min_zoom":8.0,"bus_shield_text":"551","kind_detail":"tertiary"},"arcs":[119]},{"type":"LineString","properties":{"kind":"major_road","network":null,"sort_rank":377,"kind_detail":"tertiary","is_bicycle_related":true,"bus_network":"Blekingetrafiken","bicycle_shield_text":"Cykelsp\u00e5ret (2)","bicycle_network":"ncn","source":"openstreetmap.org","min_zoom":8.0,"bus_shield_text":"211","shield_text":"638","ref":"K 638"},"arcs":[120]},{"type":"LineString","properties":{"kind":"minor_road","sort_rank":360,"kind_detail":"residential","is_bicycle_related":true,"bicycle_shield_text":"Sverigeleden (36)","bicycle_network":"ncn","source":"openstreetmap.org","min_zoom":8.0,"id":37417244},"arcs":[121]},{"type":"MultiLineString","properties":{"kind":"highway","network":"e-road","sort_rank":383,"landuse_kind":"urban_area","source":"openstreetmap.org","min_zoom":8.0,"all_networks":["e-road",null],"kind_detail":"motorway","shield_text":"22","ref":"E 22;19","all_shield_texts":["22","19"]},"arcs":[[122],[123]]},{"type":"LineString","properties":{"kind":"major_road","network":null,"sort_rank":380,"kind_detail":"primary","bus_network":"Sk\u00e5netrafiken","source":"openstreetmap.org","min_zoom":8.0,"bus_shield_text":"Sk\u00e5neExpressen 3","shield_text":"19","landuse_kind":"urban_area","ref":"19","id":102729308},"arcs":[124]},{"type":"LineString","properties":{"kind":"major_road","network":null,"sort_rank":377,"kind_detail":"tertiary","is_bicycle_related":true,"bicycle_shield_text":"Sverigeleden (35)","bicycle_network":"ncn","source":"openstreetmap.org","min_zoom":8.0,"shield_text":"2056","ref":"M 2056","id":448356202},"arcs":[125]},{"type":"MultiLineString","properties":{"kind":"minor_road","sort_rank":360,"kind_detail":"residential","is_bicycle_related":true,"bicycle_shield_text":"Cykelsp\u00e5ret (1)","bicycle_network":"ncn","source":"openstreetmap.org","min_zoom":8.0},"arcs":[[126],[127]]},{"type":"LineString","properties":{"kind":"major_road","sort_rank":380,"kind_detail":"primary","is_bicycle_related":true,"bus_network":"Blekingetrafiken","cycleway":"track","source":"openstreetmap.org","min_zoom":8.0,"bus_shield_text":"22"},"arcs":[128]},{"type":"MultiLineString","properties":{"kind":"minor_road","sort_rank":360,"kind_detail":"unclassified","is_bicycle_related":true,"bicycle_shield_text":"Sverigeleden (35)","bicycle_network":"ncn","source":"openstreetmap.org","min_zoom":8.0},"arcs":[[129],[130],[131],[132],[133],[134],[135]]},{"type":"LineString","properties":{"kind":"major_road","network":null,"sort_rank":380,"kind_detail":"primary","is_bicycle_related":true,"bicycle_shield_text":"Kronobergstrampen","bicycle_network":"rcn","source":"openstreetmap.org","min_zoom":8.0,"shield_text":"29","ref":"29","id":119950823},"arcs":[136]},{"type":"LineString","properties":{"kind":"major_road","network":null,"sort_rank":377,"kind_detail":"tertiary","is_bicycle_related":true,"bicycle_shield_text":"Sverigeleden (35)","bicycle_network":"ncn","source":"openstreetmap.org","min_zoom":8.0,"shield_text":"2063","ref":"M 2063","id":36732704},"arcs":[137]},{"type":"LineString","properties":{"bus_network":"Sk\u00e5netrafiken","network":null,"sort_rank":377,"landuse_kind":"urban_area","is_bicycle_related":true,"kind":"major_road","bicycle_shield_text":"Sverigeleden (35)","bicycle_network":"ncn","source":"openstreetmap.org","min_zoom":8.0,"bus_shield_text":"549","shield_text":"2041","kind_detail":"tertiary","ref":"M 2041"},"arcs":[138]},{"type":"MultiLineString","properties":{"kind":"major_road","sort_rank":380,"kind_detail":"primary","is_bicycle_related":true,"bicycle_shield_text":"Cykelsp\u00e5ret (2)","bicycle_network":"ncn","source":"openstreetmap.org","min_zoom":8.0,"ref":"15"},"arcs":[[139],[140]]},{"type":"MultiLineString","properties":{"kind":"major_road","network":null,"sort_rank":380,"kind_detail":"primary","bus_network":"Blekingetrafiken","source":"openstreetmap.org","min_zoom":8.0,"bus_shield_text":"310","shield_text":"29","landuse_kind":"urban_area","ref":"29"},"arcs":[[141],[142]]},{"type":"LineString","properties":{"kind":"major_road","network":null,"sort_rank":377,"kind_detail":"tertiary","is_bicycle_related":true,"bicycle_shield_text":"Cykelsp\u00e5ret (2)","bicycle_network":"ncn","source":"openstreetmap.org","min_zoom":8.0,"shield_text":"535","ref":"K 535","id":29207728},"arcs":[143]},{"type":"MultiLineString","properties":{"kind":"major_road","network":null,"sort_rank":380,"kind_detail":"primary","source":"openstreetmap.org","min_zoom":8.0,"landuse_kind":"urban_area","shield_text":"15","ref":"29;15"},"arcs":[[144],[145],[146],[147],[148],[149],[150],[151]]},{"type":"MultiLineString","properties":{"bus_network":"Sk\u00e5netrafiken","network":null,"sort_rank":380,"kind_detail":"primary","kind":"major_road","source":"openstreetmap.org","min_zoom":8.0,"bus_shield_text":"549","shield_text":"19","landuse_kind":"urban_area","ref":"19"},"arcs":[[152],[153],[154]]},{"type":"LineString","properties":{"kind":"major_road","network":null,"sort_rank":380,"kind_detail":"primary","bus_network":"Sk\u00e5netrafiken","source":"openstreetmap.org","min_zoom":8.0,"bus_shield_text":"562","shield_text":"15","id":39673835},"arcs":[155]},{"type":"LineString","properties":{"bus_network":"Sk\u00e5netrafiken","network":null,"sort_rank":377,"kind_detail":"tertiary","is_bicycle_related":true,"kind":"major_road","bicycle_shield_text":"Sverigeleden (35)","bicycle_network":"ncn","source":"openstreetmap.org","min_zoom":8.0,"bus_shield_text":"544","shield_text":"2056","ref":"M 2056"},"arcs":[156]},{"type":"MultiLineString","properties":{"kind":"path","sort_rank":354,"landuse_kind":"residential","is_bicycle_related":true,"bicycle_shield_text":"Sverigeleden (35)","bicycle_network":"ncn","source":"openstreetmap.org","min_zoom":8.0,"kind_detail":"cycleway"},"arcs":[[157],[158]]},{"type":"LineString","properties":{"kind":"major_road","network":null,"sort_rank":377,"kind_detail":"tertiary","is_bicycle_related":true,"bicycle_shield_text":"Sverigeleden (35)","bicycle_network":"ncn","source":"openstreetmap.org","min_zoom":8.0,"landuse_kind":"urban_area","shield_text":"563","ref":"K 563;K 567","id":160376176},"arcs":[159]},{"type":"LineString","properties":{"kind":"minor_road","sort_rank":360,"kind_detail":"residential","is_bicycle_related":true,"bicycle_shield_text":"Sverigeleden (36)","bicycle_network":"ncn","source":"openstreetmap.org","min_zoom":8.0,"landuse_kind":"urban_area","id":37417244},"arcs":[160]},{"type":"MultiLineString","properties":{"kind":"major_road","network":null,"sort_rank":380,"kind_detail":"primary","bus_network":"Blekingetrafiken","source":"openstreetmap.org","min_zoom":8.0,"bus_shield_text":"240","shield_text":"27","ref":"27"},"arcs":[[161],[162],[163],[164]]},{"type":"LineString","properties":{"bus_network":"Sk\u00e5netrafiken","network":null,"sort_rank":377,"kind_detail":"tertiary","is_bicycle_related":true,"kind":"major_road","bicycle_shield_text":"Sverigeleden (36)","bicycle_network":"ncn","source":"openstreetmap.org","min_zoom":8.0,"bus_shield_text":"553","shield_text":"1632","ref":"M 1632"},"arcs":[165]},{"type":"LineString","properties":{"kind":"major_road","sort_rank":377,"kind_detail":"tertiary","is_bicycle_related":true,"bicycle_shield_text":"Sverigeleden (35)","bicycle_network":"ncn","source":"openstreetmap.org","min_zoom":8.0,"ref":"G 649","id":35021322},"arcs":[166]},{"type":"LineString","properties":{"kind":"major_road","network":null,"sort_rank":377,"kind_detail":"tertiary","is_bicycle_related":true,"bicycle_shield_text":"Sverigeleden (36)","bicycle_network":"ncn","source":"openstreetmap.org","min_zoom":8.0,"shield_text":"1655","ref":"M 1655","id":202851883},"arcs":[167]},{"type":"LineString","properties":{"kind":"major_road","network":null,"sort_rank":377,"kind_detail":"tertiary","is_bicycle_related":true,"bicycle_shield_text":"Cykelsp\u00e5ret (2)","bicycle_network":"ncn","source":"openstreetmap.org","min_zoom":8.0,"shield_text":"670","ref":"K 670","id":25100820},"arcs":[168]},{"type":"MultiLineString","properties":{"kind":"major_road","network":null,"sort_rank":380,"kind_detail":"primary","source":"openstreetmap.org","min_zoom":8.0,"shield_text":"15","ref":"15;116"},"arcs":[[169],[170],[171]]},{"type":"MultiLineString","properties":{"kind":"path","sort_rank":354,"landuse_kind":"urban_area","is_bicycle_related":true,"bicycle_shield_text":"Cykelsp\u00e5ret (2)","bicycle_network":"ncn","source":"openstreetmap.org","min_zoom":8.0,"kind_detail":"path"},"arcs":[[172],[173],[174],[175],[176],[177]]},{"type":"LineString","properties":{"kind":"major_road","network":null,"sort_rank":380,"kind_detail":"primary","source":"openstreetmap.org","min_zoom":8.0,"landuse_kind":"nature_reserve","shield_text":"29","ref":"29"},"arcs":[178]},{"type":"LineString","properties":{"kind":"major_road","network":null,"sort_rank":377,"kind_detail":"tertiary","is_bicycle_related":true,"bicycle_shield_text":"Sverigeleden (35)","bicycle_network":"ncn","source":"openstreetmap.org","min_zoom":8.0,"shield_text":"527","ref":"K 527","id":44397546},"arcs":[179]},{"type":"LineString","properties":{"kind":"major_road","network":null,"sort_rank":377,"kind_detail":"tertiary","is_bicycle_related":true,"bicycle_shield_text":"Sverigeleden (35)","bicycle_network":"ncn","source":"openstreetmap.org","min_zoom":8.0,"shield_text":"2085.01","ref":"M 2085.01"},"arcs":[180]},{"type":"MultiLineString","properties":{"kind":"major_road","network":"e-road","sort_rank":381,"kind_detail":"trunk","source":"openstreetmap.org","min_zoom":8.0,"shield_text":"22","ref":"E 22"},"arcs":[[181],[182],[183],[184],[185],[186],[187],[188],[189],[190],[191],[192],[193],[194],[195],[196],[197],[198],[199],[200],[201],[202],[203],[204],[205],[206],[207],[208],[209],[210],[211],[212],[213],[214],[215],[216],[217],[218]]},{"type":"LineString","properties":{"kind":"major_road","network":null,"sort_rank":380,"kind_detail":"primary","source":"openstreetmap.org","min_zoom":8.0,"shield_text":"19","id":122193172},"arcs":[219]},{"type":"MultiLineString","properties":{"bus_network":"Sk\u00e5netrafiken","network":"e-road","sort_rank":381,"kind_detail":"trunk","kind":"major_road","source":"openstreetmap.org","min_zoom":8.0,"bus_shield_text":"558","shield_text":"22","ref":"E 22"},"arcs":[[220],[221],[222],[223]]},{"type":"LineString","properties":{"kind":"major_road","network":null,"sort_rank":380,"kind_detail":"primary","bus_network":"Blekingetrafiken","source":"openstreetmap.org","min_zoom":8.0,"bus_shield_text":"21","shield_text":"22.04","ref":"27"},"arcs":[224]},{"type":"LineString","properties":{"kind":"major_road","network":null,"sort_rank":377,"kind_detail":"tertiary","is_bicycle_related":true,"bicycle_shield_text":"Cykelsp\u00e5ret (2)","bicycle_network":"ncn","source":"openstreetmap.org","min_zoom":8.0,"shield_text":"638","ref":"K 638"},"arcs":[225]},{"type":"MultiLineString","properties":{"kind":"major_road","network":null,"sort_rank":380,"kind_detail":"primary","bus_network":"Blekingetrafiken","source":"openstreetmap.org","min_zoom":8.0,"bus_shield_text":"310","shield_text":"606","landuse_kind":"urban_area","ref":"K 606"},"arcs":[[226],[227],[228],[229]]},{"type":"LineString","properties":{"kind":"major_road","sort_rank":377,"kind_detail":"tertiary","is_bicycle_related":true,"bicycle_shield_text":"Sverigeleden (36)","bicycle_network":"ncn","source":"openstreetmap.org","min_zoom":8.0,"landuse_kind":"urban_area","id":32430133},"arcs":[230]},{"type":"LineString","properties":{"kind":"major_road","network":null,"sort_rank":379,"kind_detail":"secondary","is_bicycle_related":true,"bus_network":"Blekingetrafiken","bicycle_shield_text":"Cykelsp\u00e5ret (2)","bicycle_network":"ncn","source":"openstreetmap.org","min_zoom":8.0,"bus_shield_text":"250","shield_text":"620","ref":"K 620"},"arcs":[231]},{"type":"LineString","properties":{"kind":"major_road","network":null,"sort_rank":377,"kind_detail":"tertiary","is_bicycle_related":true,"bicycle_shield_text":"Sverigeleden (35)","bicycle_network":"ncn","source":"openstreetmap.org","min_zoom":8.0,"shield_text":"2092","ref":"M 2092"},"arcs":[232]},{"type":"LineString","properties":{"kind":"major_road","network":null,"sort_rank":380,"kind_detail":"primary","source":"openstreetmap.org","min_zoom":8.0,"shield_text":"27","ref":"27;29;120","id":23206227},"arcs":[233]},{"type":"MultiLineString","properties":{"kind":"major_road","network":null,"sort_rank":380,"kind_detail":"primary","source":"openstreetmap.org","min_zoom":8.0,"landuse_kind":"urban_area","shield_text":"29","ref":"29"},"arcs":[[234],[235],[236],[237],[238],[239],[240],[241],[242],[243]]},{"type":"LineString","properties":{"kind":"major_road","network":null,"sort_rank":377,"kind_detail":"tertiary","is_bicycle_related":true,"bicycle_shield_text":"Sverigeleden (35)","bicycle_network":"ncn","source":"openstreetmap.org","min_zoom":8.0,"landuse_kind":"urban_area","shield_text":"2052","ref":"M 2052","id":36732251},"arcs":[244]},{"type":"LineString","properties":{"kind":"major_road","network":null,"sort_rank":377,"kind_detail":"tertiary","is_bicycle_related":true,"bus_network":"Sk\u00e5netrafiken","bicycle_shield_text":"Sverigeleden (36)","bicycle_network":"ncn","source":"openstreetmap.org","min_zoom":8.0,"bus_shield_text":"2","shield_text":"1655","landuse_kind":"urban_area","ref":"M 1655","id":240735847},"arcs":[245]},{"type":"LineString","properties":{"source":"openstreetmap.org","kind":"ferry","name":"Karlshamn-Kastellet","sort_rank":355,"min_zoom":8.0,"id":83921679},"arcs":[246]},{"type":"LineString","properties":{"bus_network":"Sk\u00e5netrafiken","sort_rank":377,"landuse_kind":"urban_area","is_bicycle_related":true,"kind":"major_road","bicycle_shield_text":"Sverigeleden (36)","bicycle_network":"ncn","source":"openstreetmap.org","min_zoom":8.0,"bus_shield_text":"554","kind_detail":"tertiary"},"arcs":[247]},{"type":"LineString","properties":{"kind":"major_road","network":null,"sort_rank":380,"kind_detail":"primary","bus_network":"Blekingetrafiken","source":"openstreetmap.org","min_zoom":8.0,"bus_shield_text":"635","shield_text":"15","ref":"15;116"},"arcs":[248]},{"type":"LineString","properties":{"kind":"major_road","network":null,"sort_rank":377,"kind_detail":"tertiary","is_bicycle_related":true,"bicycle_shield_text":"Sverigeleden (36)","bicycle_network":"ncn","source":"openstreetmap.org","min_zoom":8.0,"landuse_kind":"urban_area","shield_text":"1655","ref":"M 1655","id":37417245},"arcs":[249]},{"type":"LineString","properties":{"kind":"major_road","sort_rank":380,"kind_detail":"primary","bus_network":"Blekingetrafiken","source":"openstreetmap.org","min_zoom":8.0,"bus_shield_text":"250","ref":"E 22.03"},"arcs":[250]},{"type":"LineString","properties":{"kind":"major_road","network":null,"sort_rank":377,"kind_detail":"tertiary","is_bicycle_related":true,"bicycle_shield_text":"Sverigeleden (35)","bicycle_network":"ncn","source":"openstreetmap.org","min_zoom":8.0,"shield_text":"569","ref":"K 569","id":34420320},"arcs":[251]},{"type":"LineString","properties":{"kind":"major_road","network":null,"sort_rank":380,"kind_detail":"primary","bus_network":"Blekingetrafiken","source":"openstreetmap.org","min_zoom":8.0,"bus_shield_text":"21","shield_text":"22.04","landuse_kind":"urban_area","ref":"E 22.04"},"arcs":[252]},{"type":"MultiLineString","properties":{"bus_network":null,"network":"e-road","sort_rank":381,"kind_detail":"trunk","kind":"major_road","source":"openstreetmap.org","min_zoom":8.0,"bus_shield_text":"Sk\u00e5neExpressen 1","shield_text":"22","ref":"E 22"},"arcs":[[253],[254]]},{"type":"LineString","properties":{"kind":"major_road","network":null,"sort_rank":377,"kind_detail":"tertiary","is_bicycle_related":true,"bicycle_shield_text":"Cykelsp\u00e5ret (3)","bicycle_network":"ncn","source":"openstreetmap.org","min_zoom":8.0,"shield_text":"672","ref":"K 672"},"arcs":[255]},{"type":"LineString","properties":{"kind":"major_road","network":null,"sort_rank":380,"kind_detail":"primary","is_bicycle_related":true,"bus_network":"Blekingetrafiken","bicycle_shield_text":"Kronobergstrampen","bicycle_network":"rcn","source":"openstreetmap.org","min_zoom":8.0,"bus_shield_text":"240","shield_text":"27","ref":"27","id":120074099},"arcs":[256]},{"type":"LineString","properties":{"kind":"major_road","network":null,"sort_rank":380,"kind_detail":"primary","bus_network":"Blekingetrafiken","source":"openstreetmap.org","min_zoom":8.0,"bus_shield_text":"630","shield_text":"15","ref":"15"},"arcs":[257]},{"type":"MultiLineString","properties":{"kind":"major_road","network":null,"sort_rank":377,"landuse_kind":"military","is_bicycle_related":true,"bicycle_shield_text":"Cykelsp\u00e5ret (1)","bicycle_network":"ncn","source":"openstreetmap.org","min_zoom":8.0,"kind_detail":"tertiary","shield_text":"1662","ref":"M 1662"},"arcs":[[258],[259]]},{"type":"LineString","properties":{"kind":"major_road","network":null,"sort_rank":377,"kind_detail":"tertiary","is_bicycle_related":true,"bicycle_shield_text":"Sverigeleden (35)","bicycle_network":"ncn","source":"openstreetmap.org","min_zoom":8.0,"shield_text":"2052","ref":"M 2052","id":36732251},"arcs":[260]},{"type":"LineString","properties":{"bus_network":"Sk\u00e5netrafiken","network":"e-road","sort_rank":381,"kind_detail":"trunk","kind":"major_road","source":"openstreetmap.org","min_zoom":8.0,"bus_shield_text":"Sk\u00e5neExpressen 3","shield_text":"22","ref":"E 22;19"},"arcs":[261]},{"type":"MultiLineString","properties":{"kind":"major_road","network":null,"sort_rank":377,"kind_detail":"tertiary","is_bicycle_related":true,"bicycle_shield_text":"Cykelsp\u00e5ret (1)","bicycle_network":"ncn","source":"openstreetmap.org","min_zoom":8.0,"landuse_kind":"urban_area","shield_text":"1662","ref":"M 1662","id":205849673},"arcs":[[262],[263]]},{"type":"LineString","properties":{"kind":"major_road","network":null,"sort_rank":377,"kind_detail":"tertiary","is_bicycle_related":true,"bicycle_shield_text":"Sverigeleden (35)","bicycle_network":"ncn","source":"openstreetmap.org","min_zoom":8.0,"shield_text":"567","ref":"K 567","id":160376177},"arcs":[264]},{"type":"MultiLineString","properties":{"kind":"highway","network":"e-road","sort_rank":383,"kind_detail":"motorway","source":"openstreetmap.org","min_zoom":8.0,"all_networks":["e-road",null],"shield_text":"22","ref":"E 22;19","all_shield_texts":["22","19"]},"arcs":[[265],[266]]},{"type":"LineString","properties":{"kind":"major_road","network":null,"sort_rank":377,"kind_detail":"tertiary","is_bicycle_related":true,"bus_network":"Blekingetrafiken","bicycle_shield_text":"Cykelsp\u00e5ret (2)","bicycle_network":"ncn","source":"openstreetmap.org","min_zoom":8.0,"bus_shield_text":"150","shield_text":"669","ref":"K 669"},"arcs":[267]},{"type":"LineString","properties":{"kind":"major_road","network":null,"sort_rank":377,"kind_detail":"tertiary","is_bicycle_related":true,"bicycle_shield_text":"Cykelsp\u00e5ret (2)","bicycle_network":"ncn","source":"openstreetmap.org","min_zoom":8.0,"landuse_kind":"urban_area","shield_text":"569","ref":"K 569","id":5008026},"arcs":[268]},{"type":"LineString","properties":{"bus_network":"Sk\u00e5netrafiken","sort_rank":377,"kind_detail":"tertiary","is_bicycle_related":true,"kind":"major_road","bicycle_shield_text":"Cykelsp\u00e5ret (1)","bicycle_network":"ncn","source":"openstreetmap.org","min_zoom":8.0,"bus_shield_text":"551"},"arcs":[269]},{"type":"MultiLineString","properties":{"kind":"path","sort_rank":354,"landuse_kind":"urban_area","is_bicycle_related":true,"bicycle_shield_text":"Cykelsp\u00e5ret (2)","bicycle_network":"ncn","source":"openstreetmap.org","min_zoom":8.0,"kind_detail":"footway"},"arcs":[[270],[271]]},{"type":"MultiLineString","properties":{"bus_network":"Sk\u00e5netrafiken","network":null,"sort_rank":380,"kind_detail":"primary","kind":"major_road","source":"openstreetmap.org","min_zoom":8.0,"bus_shield_text":"562","shield_text":"15","ref":"15"},"arcs":[[272],[273],[274]]},{"type":"LineString","properties":{"kind":"major_road","network":null,"sort_rank":377,"kind_detail":"tertiary","is_bicycle_related":true,"bicycle_shield_text":"Sverigeleden (35)","bicycle_network":"ncn","source":"openstreetmap.org","min_zoom":8.0,"shield_text":"534","ref":"K 534"},"arcs":[275]},{"type":"MultiLineString","properties":{"kind":"highway","network":"e-road","sort_rank":383,"kind_detail":"motorway","source":"openstreetmap.org","min_zoom":8.0,"all_networks":["e-road"],"shield_text":"22","ref":"E 22","all_shield_texts":["22"]},"arcs":[[276],[277],[278],[279],[280],[281],[282],[283],[284],[285],[286],[287]]},{"type":"MultiLineString","properties":{"kind":"major_road","network":null,"sort_rank":380,"kind_detail":"primary","bus_network":"Blekingetrafiken","source":"openstreetmap.org","min_zoom":8.0,"bus_shield_text":"150","shield_text":"22.05","landuse_kind":"urban_area","ref":"E 22.05"},"arcs":[[288],[289],[290],[291]]},{"type":"LineString","properties":{"kind":"minor_road","sort_rank":360,"kind_detail":"residential","is_bicycle_related":true,"bicycle_shield_text":"Cykelsp\u00e5ret (3)","bicycle_network":"ncn","source":"openstreetmap.org","min_zoom":8.0},"arcs":[292]},{"type":"MultiLineString","properties":{"kind":"major_road","network":null,"sort_rank":380,"kind_detail":"primary","source":"openstreetmap.org","min_zoom":8.0,"shield_text":"23","ref":"23"},"arcs":[[293],[294],[295],[296],[297],[298],[299],[300],[301],[302],[303],[304],[305]]},{"type":"LineString","properties":{"kind":"minor_road","sort_rank":360,"landuse_kind":"urban_area","is_bicycle_related":true,"bicycle_shield_text":"Sverigeleden (35)","bicycle_network":"ncn","source":"openstreetmap.org","min_zoom":8.0,"kind_detail":"unclassified"},"arcs":[306]},{"type":"MultiLineString","properties":{"kind":"major_road","sort_rank":380,"kind_detail":"primary","bus_network":"Blekingetrafiken","source":"openstreetmap.org","min_zoom":8.0,"bus_shield_text":"250","landuse_kind":"urban_area","ref":"E 22.03"},"arcs":[[307],[308],[309],[310],[311]]},{"type":"LineString","properties":{"kind":"major_road","sort_rank":380,"kind_detail":"primary","bus_network":"Sk\u00e5netrafiken","source":"openstreetmap.org","min_zoom":8.0,"bus_shield_text":"549","landuse_kind":"urban_area","id":36788513},"arcs":[312]},{"type":"LineString","properties":{"kind":"major_road","network":null,"sort_rank":377,"kind_detail":"tertiary","is_bicycle_related":true,"bicycle_shield_text":"Sverigeleden (35)","bicycle_network":"ncn","source":"openstreetmap.org","min_zoom":8.0,"landuse_kind":"urban_area","shield_text":"2013","ref":"M 2013","id":143299071},"arcs":[313]},{"type":"MultiLineString","properties":{"bus_network":"Sk\u00e5netrafiken","network":null,"sort_rank":380,"kind_detail":"primary","kind":"major_road","source":"openstreetmap.org","min_zoom":8.0,"bus_shield_text":"Sk\u00e5neExpressen 3","shield_text":"19","ref":"19"},"arcs":[[314],[315],[316],[317]]},{"type":"LineString","properties":{"kind":"major_road","sort_rank":377,"kind_detail":"tertiary","is_bicycle_related":true,"bicycle_shield_text":"Sverigeleden (35)","bicycle_network":"ncn","source":"openstreetmap.org","min_zoom":8.0,"ref":"G 650","id":35021320},"arcs":[318]},{"type":"LineString","properties":{"kind":"minor_road","sort_rank":360,"kind_detail":"unclassified","is_bicycle_related":true,"bicycle_shield_text":"Cykelsp\u00e5ret (3)","bicycle_network":"ncn","source":"openstreetmap.org","min_zoom":8.0},"arcs":[319]},{"type":"LineString","properties":{"kind":"major_road","network":null,"sort_rank":380,"kind_detail":"primary","bus_network":"Sk\u00e5netrafiken","source":"openstreetmap.org","min_zoom":8.0,"bus_shield_text":"562","shield_text":"15","ref":"15;116","id":431557204},"arcs":[320]},{"type":"LineString","properties":{"bus_network":"Sk\u00e5netrafiken","network":null,"sort_rank":377,"kind_detail":"tertiary","is_bicycle_related":true,"kind":"major_road","bicycle_shield_text":"Sverigeleden (36)","bicycle_network":"ncn","source":"openstreetmap.org","min_zoom":8.0,"bus_shield_text":"553","shield_text":"1626","ref":"M 1626"},"arcs":[321]},{"type":"LineString","properties":{"kind":"major_road","network":null,"sort_rank":380,"kind_detail":"primary","is_bicycle_related":true,"bicycle_shield_text":"Cykelsp\u00e5ret (2)","bicycle_network":"ncn","source":"openstreetmap.org","min_zoom":8.0,"shield_text":"15","ref":"15","id":305412517},"arcs":[322]},{"type":"MultiLineString","properties":{"kind":"major_road","network":null,"sort_rank":380,"kind_detail":"primary","source":"openstreetmap.org","min_zoom":8.0,"shield_text":"22.04","ref":"E 22.04"},"arcs":[[323],[324],[325],[326],[327],[328],[329],[330],[331]]},{"type":"MultiLineString","properties":{"bus_network":"Sk\u00e5netrafiken","network":null,"sort_rank":380,"kind_detail":"primary","kind":"major_road","source":"openstreetmap.org","min_zoom":8.0,"bus_shield_text":"542","shield_text":"19","ref":"19;119"},"arcs":[[332],[333],[334]]},{"type":"LineString","properties":{"kind":"major_road","network":null,"sort_rank":377,"landuse_kind":"urban_area","is_bicycle_related":true,"bicycle_shield_text":"Sverigeleden (35)","bicycle_network":"ncn","source":"openstreetmap.org","min_zoom":8.0,"kind_detail":"tertiary","shield_text":"2041","ref":"M 2041"},"arcs":[335]},{"type":"MultiLineString","properties":{"kind":"path","sort_rank":354,"kind_detail":"cycleway","is_bicycle_related":true,"bicycle_shield_text":"Sverigeleden (35)","bicycle_network":"ncn","source":"openstreetmap.org","min_zoom":8.0},"arcs":[[336],[337],[338],[339],[340],[341],[342]]},{"type":"LineString","properties":{"kind":"major_road","sort_rank":377,"kind_detail":"tertiary","is_bicycle_related":true,"bus_network":"Sk\u00e5netrafiken","bicycle_shield_text":"Sverigeleden (35)","bicycle_network":"ncn","source":"openstreetmap.org","min_zoom":8.0,"bus_shield_text":"557","id":214445283},"arcs":[343]},{"type":"LineString","properties":{"bus_network":"Sk\u00e5netrafiken","network":null,"sort_rank":377,"kind_detail":"tertiary","is_bicycle_related":true,"kind":"major_road","bicycle_shield_text":"Sverigeleden (35)","bicycle_network":"ncn","source":"openstreetmap.org","min_zoom":8.0,"bus_shield_text":"550","shield_text":"2060","landuse_kind":"urban_area","ref":"M 2060","id":36732374},"arcs":[344]},{"type":"MultiLineString","properties":{"kind":"major_road","network":"e-road","sort_rank":381,"kind_detail":"trunk","bus_network":"Blekingetrafiken","source":"openstreetmap.org","min_zoom":8.0,"bus_shield_text":"150","shield_text":"22","ref":"E 22"},"arcs":[[345],[346],[347],[348],[349],[350]]},{"type":"MultiLineString","properties":{"kind":"major_road","network":"e-road","sort_rank":381,"kind_detail":"trunk","source":"openstreetmap.org","min_zoom":8.0,"shield_text":"22","ref":"E 22;15"},"arcs":[[351],[352],[353],[354],[355],[356],[357],[358],[359],[360],[361],[362]]},{"type":"MultiLineString","properties":{"kind":"major_road","network":null,"sort_rank":380,"kind_detail":"primary","source":"openstreetmap.org","min_zoom":8.0,"shield_text":"29","ref":"29"},"arcs":[[363],[364],[365],[366],[367]]},{"type":"MultiLineString","properties":{"kind":"path","sort_rank":354,"kind_detail":"cycleway","is_bicycle_related":true,"bicycle_shield_text":"Cykelsp\u00e5ret (2)","bicycle_network":"ncn","source":"openstreetmap.org","min_zoom":8.0},"arcs":[[368],[369]]},{"type":"LineString","properties":{"kind":"major_road","network":null,"sort_rank":380,"kind_detail":"primary","source":"openstreetmap.org","min_zoom":8.0,"shield_text":"15","ref":"15;119"},"arcs":[370]},{"type":"LineString","properties":{"bus_network":"Sk\u00e5netrafiken","network":"e-road","sort_rank":381,"kind_detail":"trunk","kind":"major_road","source":"openstreetmap.org","min_zoom":8.0,"bus_shield_text":"Sk\u00e5neExpressen 3","shield_text":"22","landuse_kind":"urban_area","ref":"E 22;19"},"arcs":[371]},{"type":"MultiLineString","properties":{"kind":"major_road","network":null,"sort_rank":380,"kind_detail":"primary","source":"openstreetmap.org","min_zoom":8.0,"shield_text":"27","ref":"27"},"arcs":[[372],[373],[374]]},{"type":"LineString","properties":{"bus_network":"Sk\u00e5netrafiken","sort_rank":377,"landuse_kind":"urban_area","is_bicycle_related":true,"kind":"major_road","bicycle_shield_text":"Cykelsp\u00e5ret (1)","cycleway":"lane","source":"openstreetmap.org","min_zoom":8.0,"bus_shield_text":"551","kind_detail":"tertiary","bicycle_network":"ncn"},"arcs":[375]},{"type":"LineString","properties":{"bus_network":"Sk\u00e5netrafiken","network":null,"sort_rank":377,"kind_detail":"tertiary","is_bicycle_related":true,"kind":"major_road","bicycle_shield_text":"Sverigeleden (35)","bicycle_network":"ncn","source":"openstreetmap.org","min_zoom":8.0,"bus_shield_text":"558","shield_text":"2062","ref":"M 2062","id":36732706},"arcs":[376]},{"type":"MultiLineString","properties":{"kind":"minor_road","sort_rank":360,"kind_detail":"unclassified","is_bicycle_related":true,"bicycle_shield_text":"Cykelsp\u00e5ret (1)","bicycle_network":"ncn","source":"openstreetmap.org","min_zoom":8.0},"arcs":[[377],[378]]},{"type":"MultiLineString","properties":{"kind":"minor_road","sort_rank":360,"kind_detail":"residential","is_bicycle_related":true,"bicycle_shield_text":"Sverigeleden (35)","bicycle_network":"ncn","source":"openstreetmap.org","min_zoom":8.0},"arcs":[[379],[380],[381],[382],[383]]},{"type":"LineString","properties":{"kind":"major_road","network":null,"sort_rank":377,"kind_detail":"tertiary","is_bicycle_related":true,"bicycle_shield_text":"Sverigeleden (36)","bicycle_network":"ncn","source":"openstreetmap.org","min_zoom":8.0,"shield_text":"1653","ref":"M 1653","id":37417243},"arcs":[384]},{"type":"LineString","properties":{"kind":"major_road","network":null,"sort_rank":380,"kind_detail":"primary","bus_network":"Blekingetrafiken","source":"openstreetmap.org","min_zoom":8.0,"bus_shield_text":"211","shield_text":"22.05","landuse_kind":"urban_area","ref":"E 22.05"},"arcs":[385]},{"type":"LineString","properties":{"kind":"major_road","network":null,"sort_rank":380,"kind_detail":"primary","source":"openstreetmap.org","min_zoom":8.0,"shield_text":"23","ref":"23;120"},"arcs":[386]},{"type":"LineString","properties":{"bus_network":"Sk\u00e5netrafiken","network":null,"sort_rank":377,"kind_detail":"tertiary","is_bicycle_related":true,"kind":"major_road","bicycle_shield_text":"Sverigeleden (36)","bicycle_network":"ncn","source":"openstreetmap.org","min_zoom":8.0,"bus_shield_text":"553","shield_text":"1631","ref":"M 1631"},"arcs":[387]},{"type":"LineString","properties":{"kind":"path","sort_rank":354,"landuse_kind":"urban_area","is_bicycle_related":true,"bicycle_shield_text":"Cykelsp\u00e5ret (2)","bicycle_network":"ncn","source":"openstreetmap.org","min_zoom":8.0,"kind_detail":"cycleway"},"arcs":[388]},{"type":"MultiLineString","properties":{"bus_network":"Sk\u00e5netrafiken","network":null,"sort_rank":379,"landuse_kind":"urban_area","is_bicycle_related":true,"kind":"major_road","bicycle_shield_text":"Cykelsp\u00e5ret (1)","bicycle_network":"ncn","source":"openstreetmap.org","min_zoom":8.0,"bus_shield_text":"551","shield_text":"118","kind_detail":"secondary"},"arcs":[[389],[390]]},{"type":"MultiLineString","properties":{"sort_rank":355,"source":"openstreetmap.org","min_zoom":8.0,"kind":"ferry","osm_relation":true},"arcs":[[391],[392],[393]]},{"type":"MultiLineString","properties":{"bus_network":"Sk\u00e5netrafiken","network":null,"sort_rank":379,"landuse_kind":"urban_area","is_bicycle_related":true,"kind":"major_road","bicycle_shield_text":"Cykelsp\u00e5ret (1)","bicycle_network":"ncn","source":"openstreetmap.org","min_zoom":8.0,"bus_shield_text":"551","shield_text":"118","kind_detail":"secondary","ref":"118"},"arcs":[[394],[395],[396],[397],[398],[399],[400],[401],[402],[403]]},{"type":"MultiLineString","properties":{"kind":"highway","network":"e-road","sort_rank":383,"landuse_kind":"urban_area","source":"openstreetmap.org","min_zoom":8.0,"all_networks":["e-road"],"kind_detail":"motorway","shield_text":"22","ref":"E 22","all_shield_texts":["22"]},"arcs":[[404],[405],[406],[407],[408],[409],[410],[411],[412],[413]]},{"type":"LineString","properties":{"kind":"major_road","network":null,"sort_rank":377,"kind_detail":"tertiary","is_bicycle_related":true,"bicycle_shield_text":"Sverigeleden (35)","bicycle_network":"ncn","source":"openstreetmap.org","min_zoom":8.0,"shield_text":"2071","ref":"M 2071"},"arcs":[414]},{"type":"MultiLineString","properties":{"source":"openstreetmap.org","kind":"major_road","landuse_kind":"urban_area","sort_rank":380,"kind_detail":"primary","ref":"E 22.02","min_zoom":8.0},"arcs":[[415],[416],[417]]},{"type":"LineString","properties":{"kind":"major_road","network":null,"sort_rank":377,"kind_detail":"tertiary","is_bicycle_related":true,"bicycle_shield_text":"Sverigeleden (35)","bicycle_network":"ncn","source":"openstreetmap.org","min_zoom":8.0,"shield_text":"575","ref":"K 575","id":160229336},"arcs":[418]},{"type":"LineString","properties":{"kind":"major_road","network":null,"sort_rank":377,"kind_detail":"tertiary","is_bicycle_related":true,"bicycle_shield_text":"Cykelsp\u00e5ret (2)","bicycle_network":"ncn","source":"openstreetmap.org","min_zoom":8.0,"shield_text":"1669","ref":"M 1669"},"arcs":[419]},{"type":"LineString","properties":{"kind":"minor_road","sort_rank":360,"kind_detail":"unclassified","is_bicycle_related":true,"bicycle_shield_text":"Sverigeleden (35)","bicycle_network":"ncn","source":"openstreetmap.org","min_zoom":8.0,"landuse_kind":"residential","id":38545555},"arcs":[420]},{"type":"LineString","properties":{"kind":"major_road","sort_rank":380,"kind_detail":"primary","bus_network":"Blekingetrafiken","source":"openstreetmap.org","min_zoom":8.0,"bus_shield_text":"22","ref":"27","id":221490852},"arcs":[421]},{"type":"LineString","properties":{"kind":"major_road","sort_rank":380,"kind_detail":"primary","bus_network":"Blekingetrafiken","source":"openstreetmap.org","min_zoom":8.0,"bus_shield_text":"630","landuse_kind":"urban_area","ref":"E 22.02","id":163202697},"arcs":[422]},{"type":"LineString","properties":{"kind":"major_road","network":null,"sort_rank":377,"kind_detail":"tertiary","is_bicycle_related":true,"bicycle_shield_text":"Sverigeleden (36)","bicycle_network":"ncn","source":"openstreetmap.org","min_zoom":8.0,"shield_text":"1616","ref":"M 1616"},"arcs":[423]},{"type":"MultiLineString","properties":{"kind":"major_road","network":null,"sort_rank":380,"kind_detail":"primary","source":"openstreetmap.org","min_zoom":8.0,"shield_text":"27","ref":"27;29"},"arcs":[[424],[425]]},{"type":"MultiLineString","properties":{"kind":"minor_road","sort_rank":360,"landuse_kind":"residential","is_bicycle_related":true,"bicycle_shield_text":"Sverigeleden (35)","bicycle_network":"ncn","source":"openstreetmap.org","min_zoom":8.0,"kind_detail":"residential"},"arcs":[[426],[427],[428]]},{"type":"MultiLineString","properties":{"kind":"major_road","network":null,"sort_rank":380,"kind_detail":"primary","source":"openstreetmap.org","min_zoom":8.0,"landuse_kind":"urban_area","shield_text":"19","ref":"19"},"arcs":[[429],[430],[431]]},{"type":"MultiLineString","properties":{"bus_network":"Sk\u00e5netrafiken","network":null,"sort_rank":380,"kind_detail":"primary","kind":"major_road","source":"openstreetmap.org","min_zoom":8.0,"bus_shield_text":"545","shield_text":"19","ref":"19"},"arcs":[[432],[433],[434],[435],[436],[437],[438]]},{"type":"LineString","properties":{"kind":"major_road","network":null,"sort_rank":377,"kind_detail":"tertiary","is_bicycle_related":true,"bicycle_shield_text":"Sverigeleden (35)","bicycle_network":"ncn","source":"openstreetmap.org","min_zoom":8.0,"shield_text":"534","ref":"M 2092","id":26189898},"arcs":[439]},{"type":"LineString","properties":{"kind":"major_road","network":null,"sort_rank":377,"kind_detail":"tertiary","is_bicycle_related":true,"bicycle_shield_text":"Sverigeleden (35)","bicycle_network":"ncn","source":"openstreetmap.org","min_zoom":8.0,"landuse_kind":"urban_area","shield_text":"566","ref":"K 566","id":34420322},"arcs":[440]},{"type":"MultiLineString","properties":{"kind":"major_road","sort_rank":380,"kind_detail":"primary","bus_network":"Blekingetrafiken","source":"openstreetmap.org","min_zoom":8.0,"bus_shield_text":"21","landuse_kind":"urban_area"},"arcs":[[441],[442]]},{"type":"LineString","properties":{"kind":"major_road","network":null,"sort_rank":377,"landuse_kind":"urban_area","is_bicycle_related":true,"bicycle_shield_text":"Sverigeleden (35)","bicycle_network":"ncn","source":"openstreetmap.org","min_zoom":8.0,"kind_detail":"tertiary","shield_text":"2052.01","ref":"M 2052.01"},"arcs":[443]},{"type":"MultiLineString","properties":{"bus_network":"Sk\u00e5netrafiken","network":null,"sort_rank":377,"kind_detail":"tertiary","is_bicycle_related":true,"kind":"major_road","bicycle_shield_text":"Sverigeleden (35)","bicycle_network":"ncn","source":"openstreetmap.org","min_zoom":8.0,"bus_shield_text":"557","shield_text":"2073","ref":"M 2073"},"arcs":[[444],[445]]},{"type":"MultiLineString","properties":{"kind":"major_road","network":null,"sort_rank":377,"landuse_kind":"urban_area","is_bicycle_related":true,"bicycle_shield_text":"Sverigeleden (35)","bicycle_network":"ncn","source":"openstreetmap.org","min_zoom":8.0,"kind_detail":"tertiary","shield_text":"567","ref":"K 567"},"arcs":[[446],[447]]},{"type":"LineString","properties":{"kind":"major_road","network":null,"sort_rank":377,"kind_detail":"tertiary","is_bicycle_related":true,"bicycle_shield_text":"Sverigeleden (35)","bicycle_network":"ncn","source":"openstreetmap.org","min_zoom":8.0,"landuse_kind":"urban_area","shield_text":"541","ref":"K 541","id":34420330},"arcs":[448]},{"type":"MultiLineString","properties":{"kind":"major_road","network":null,"sort_rank":380,"kind_detail":"primary","source":"openstreetmap.org","min_zoom":8.0,"shield_text":"19","ref":"19"},"arcs":[[449],[450],[451],[452],[453],[454]]},{"type":"MultiLineString","properties":{"kind":"major_road","network":null,"sort_rank":379,"kind_detail":"secondary","is_bicycle_related":true,"bicycle_shield_text":"Cykelsp\u00e5ret (1)","bicycle_network":"ncn","source":"openstreetmap.org","min_zoom":8.0,"landuse_kind":"urban_area","shield_text":"118","ref":"118"},"arcs":[[455],[456],[457],[458],[459]]},{"type":"LineString","properties":{"bus_network":"Sk\u00e5netrafiken","network":null,"sort_rank":377,"kind_detail":"tertiary","is_bicycle_related":true,"kind":"major_road","bicycle_shield_text":"Sverigeleden (35)","bicycle_network":"ncn","source":"openstreetmap.org","min_zoom":8.0,"bus_shield_text":"557","shield_text":"2073","landuse_kind":"urban_area","ref":"M 2073","id":26189359},"arcs":[460]},{"type":"MultiLineString","properties":{"bus_network":"Sk\u00e5netrafiken","network":"e-road","sort_rank":381,"kind_detail":"trunk","kind":"major_road","source":"openstreetmap.org","min_zoom":8.0,"bus_shield_text":"558","shield_text":"22","landuse_kind":"urban_area","ref":"E 22"},"arcs":[[461],[462]]},{"type":"MultiLineString","properties":{"kind":"major_road","network":null,"sort_rank":380,"kind_detail":"primary","bus_network":"Blekingetrafiken","source":"openstreetmap.org","min_zoom":8.0,"bus_shield_text":"150","shield_text":"22.05","ref":"E 22.05"},"arcs":[[463],[464],[465],[466]]},{"type":"LineString","properties":{"kind":"major_road","network":null,"sort_rank":377,"kind_detail":"tertiary","is_bicycle_related":true,"bicycle_shield_text":"Sverigeleden (35)","bicycle_network":"ncn","source":"openstreetmap.org","min_zoom":8.0,"shield_text":"2062","ref":"M 2062","id":448521247},"arcs":[467]},{"type":"MultiLineString","properties":{"kind":"major_road","network":null,"sort_rank":380,"kind_detail":"primary","bus_network":"Blekingetrafiken","source":"openstreetmap.org","min_zoom":8.0,"bus_shield_text":"21","shield_text":"22.04","ref":"E 22.04"},"arcs":[[468],[469],[470],[471]]},{"type":"LineString","properties":{"kind":"major_road","network":null,"sort_rank":379,"kind_detail":"secondary","is_bicycle_related":true,"bicycle_shield_text":"Sverigeleden (35)","bicycle_network":"ncn","source":"openstreetmap.org","min_zoom":8.0,"shield_text":"120","ref":"120","id":44397485},"arcs":[472]},{"type":"LineString","properties":{"kind":"major_road","network":null,"sort_rank":379,"landuse_kind":"urban_area","is_bicycle_related":true,"bicycle_shield_text":"Cykelsp\u00e5ret (2)","bicycle_network":"ncn","source":"openstreetmap.org","min_zoom":8.0,"kind_detail":"secondary","shield_text":"606","ref":"K 606"},"arcs":[473]},{"type":"LineString","properties":{"source":"openstreetmap.org","kind":"ferry","name":"Karlshamn-Kastellet","sort_rank":355,"landuse_kind":"urban_area","min_zoom":8.0,"id":83921679},"arcs":[474]},{"type":"LineString","properties":{"sort_rank":355,"source":"openstreetmap.org","min_zoom":8.0,"name":"Karlshamn - Klaip\u0117da","kind":"ferry"},"arcs":[475]},{"type":"MultiLineString","properties":{"kind":"highway","network":"e-road","sort_rank":383,"kind_detail":"motorway","source":"openstreetmap.org","min_zoom":8.0,"all_networks":["e-road",null],"shield_text":"22","ref":"E 22;15","all_shield_texts":["22","15"]},"arcs":[[476],[477],[478],[479]]},{"type":"LineString","properties":{"kind":"major_road","network":null,"sort_rank":377,"kind_detail":"tertiary","is_bicycle_related":true,"bicycle_shield_text":"Sverigeleden (35)","bicycle_network":"ncn","source":"openstreetmap.org","min_zoom":8.0,"shield_text":"591","ref":"K 591"},"arcs":[480]},{"type":"LineString","properties":{"kind":"major_road","network":null,"sort_rank":377,"kind_detail":"tertiary","is_bicycle_related":true,"bicycle_shield_text":"Cykelsp\u00e5ret (2)","bicycle_network":"ncn","source":"openstreetmap.org","min_zoom":8.0,"shield_text":"698","ref":"K 698","id":25348870},"arcs":[481]},{"type":"MultiLineString","properties":{"bus_network":"Sk\u00e5netrafiken","network":null,"sort_rank":380,"kind_detail":"primary","kind":"major_road","source":"openstreetmap.org","min_zoom":8.0,"bus_shield_text":"549","shield_text":"19","landuse_kind":"urban_area"},"arcs":[[482],[483],[484]]},{"type":"LineString","properties":{"bus_network":null,"network":"e-road","sort_rank":381,"kind_detail":"trunk","kind":"major_road","source":"openstreetmap.org","min_zoom":8.0,"bus_shield_text":"Sk\u00e5neExpressen 1","shield_text":"22","ref":"E 22;19"},"arcs":[485]},{"type":"MultiLineString","properties":{"source":"openstreetmap.org","kind":"major_road","landuse_kind":"urban_area","sort_rank":380,"kind_detail":"primary","min_zoom":8.0},"arcs":[[486],[487]]},{"type":"MultiLineString","properties":{"kind":"major_road","network":null,"sort_rank":380,"kind_detail":"primary","source":"openstreetmap.org","min_zoom":8.0,"shield_text":"22.05","ref":"E 22.05"},"arcs":[[488],[489],[490]]},{"type":"LineString","properties":{"source":"openstreetmap.org","kind":"ferry","name":"Karlshamn - Klaip\u0117da","sort_rank":355,"ref":"Karlshamn - Klaip\u0117da","min_zoom":8.0,"osm_relation":true},"arcs":[491]},{"type":"MultiLineString","properties":{"kind":"major_road","network":"e-road","sort_rank":381,"landuse_kind":"urban_area","source":"openstreetmap.org","min_zoom":8.0,"kind_detail":"trunk","shield_text":"22","ref":"E 22"},"arcs":[[492],[493],[494],[495]]},{"type":"LineString","properties":{"kind":"major_road","network":null,"sort_rank":380,"kind_detail":"primary","source":"openstreetmap.org","min_zoom":8.0,"landuse_kind":"urban_area","shield_text":"15","id":23205732},"arcs":[496]},{"type":"LineString","properties":{"kind":"major_road","network":null,"sort_rank":377,"kind_detail":"tertiary","is_bicycle_related":true,"bicycle_shield_text":"Sverigeleden (35)","bicycle_network":"ncn","source":"openstreetmap.org","min_zoom":8.0,"shield_text":"541","ref":"K 541"},"arcs":[497]},{"type":"MultiLineString","properties":{"kind":"major_road","network":null,"sort_rank":380,"kind_detail":"primary","bus_network":"Blekingetrafiken","source":"openstreetmap.org","min_zoom":8.0,"bus_shield_text":"630","shield_text":"15","ref":"15;116"},"arcs":[[498],[499],[500],[501]]},{"type":"MultiLineString","properties":{"kind":"major_road","network":null,"sort_rank":380,"kind_detail":"primary","source":"openstreetmap.org","min_zoom":8.0,"landuse_kind":"urban_area","shield_text":"29","ref":"29;15"},"arcs":[[502],[503]]},{"type":"LineString","properties":{"kind":"major_road","network":null,"sort_rank":377,"kind_detail":"tertiary","is_bicycle_related":true,"bicycle_shield_text":"Sverigeleden (35)","bicycle_network":"ncn","source":"openstreetmap.org","min_zoom":8.0,"shield_text":"2079","ref":"M 2079","id":38545150},"arcs":[504]},{"type":"LineString","properties":{"kind":"major_road","sort_rank":380,"kind_detail":"primary","is_bicycle_related":true,"bus_network":"Blekingetrafiken","cycleway":"track","source":"openstreetmap.org","min_zoom":8.0,"bus_shield_text":"22","landuse_kind":"urban_area"},"arcs":[505]},{"type":"LineString","properties":{"kind":"major_road","network":null,"sort_rank":377,"kind_detail":"tertiary","is_bicycle_related":true,"bicycle_shield_text":"Sverigeleden (35)","bicycle_network":"ncn","source":"openstreetmap.org","min_zoom":8.0,"shield_text":"545","ref":"K 545"},"arcs":[506]},{"type":"LineString","properties":{"kind":"major_road","network":null,"sort_rank":377,"landuse_kind":"urban_area","is_bicycle_related":true,"bicycle_shield_text":"Sverigeleden (35)","bicycle_network":"ncn","source":"openstreetmap.org","min_zoom":8.0,"kind_detail":"tertiary","shield_text":"2063","ref":"M 2063"},"arcs":[507]},{"type":"LineString","properties":{"kind":"major_road","network":null,"sort_rank":377,"kind_detail":"tertiary","is_bicycle_related":true,"bus_network":"Blekingetrafiken","bicycle_shield_text":"Cykelsp\u00e5ret (2)","bicycle_network":"ncn","source":"openstreetmap.org","min_zoom":8.0,"bus_shield_text":"250","shield_text":"638","ref":"K 638"},"arcs":[508]},{"type":"LineString","properties":{"bus_network":"Sk\u00e5netrafiken","network":null,"sort_rank":377,"kind_detail":"tertiary","is_bicycle_related":true,"kind":"major_road","bicycle_shield_text":"Cykelsp\u00e5ret (2)","bicycle_network":"ncn","source":"openstreetmap.org","min_zoom":8.0,"bus_shield_text":"558","shield_text":"1669","ref":"M 1669"},"arcs":[509]},{"type":"MultiLineString","properties":{"kind":"minor_road","sort_rank":360,"kind_detail":"unclassified","is_bicycle_related":true,"bicycle_shield_text":"Cykelsp\u00e5ret (2)","bicycle_network":"ncn","source":"openstreetmap.org","min_zoom":8.0},"arcs":[[510],[511]]},{"type":"LineString","properties":{"kind":"major_road","network":null,"sort_rank":377,"kind_detail":"tertiary","is_bicycle_related":true,"bicycle_shield_text":"Cykelsp\u00e5ret (2)","bicycle_network":"ncn","source":"openstreetmap.org","min_zoom":8.0,"shield_text":"618","ref":"K 618","id":45017018},"arcs":[512]},{"type":"LineString","properties":{"kind":"major_road","network":null,"sort_rank":377,"kind_detail":"tertiary","is_bicycle_related":true,"bicycle_shield_text":"Cykelsp\u00e5ret (2)","bicycle_network":"ncn","source":"openstreetmap.org","min_zoom":8.0,"shield_text":"522","ref":"K 522"},"arcs":[513]},{"type":"LineString","properties":{"kind":"major_road","network":null,"sort_rank":380,"kind_detail":"primary","bus_network":"Blekingetrafiken","source":"openstreetmap.org","min_zoom":8.0,"bus_shield_text":"22","shield_text":"22.04","ref":"E 22.04"},"arcs":[514]},{"type":"LineString","properties":{"kind":"major_road","network":null,"sort_rank":379,"kind_detail":"secondary","is_bicycle_related":true,"bus_network":"Sk\u00e5netrafiken","bicycle_shield_text":"Sverigeleden (35)","bicycle_network":"ncn","source":"openstreetmap.org","min_zoom":8.0,"bus_shield_text":"561","shield_text":"116","ref":"116","id":44818386},"arcs":[515]},{"type":"LineString","properties":{"source":"openstreetmap.org","kind":"ferry","name":"Nogersund-Han\u00f6","sort_rank":355,"min_zoom":8.0,"id":83949566},"arcs":[516]},{"type":"LineString","properties":{"kind":"major_road","network":null,"sort_rank":377,"kind_detail":"tertiary","is_bicycle_related":true,"bicycle_shield_text":"Sverigeleden (36)","bicycle_network":"ncn","source":"openstreetmap.org","min_zoom":8.0,"shield_text":"1632","ref":"M 1632"},"arcs":[517]},{"type":"LineString","properties":{"bus_network":"Sk\u00e5netrafiken","network":null,"sort_rank":377,"kind_detail":"tertiary","is_bicycle_related":true,"kind":"major_road","bicycle_shield_text":"Sverigeleden (35)","bicycle_network":"ncn","source":"openstreetmap.org","min_zoom":8.0,"bus_shield_text":"544","shield_text":"2056","landuse_kind":"urban_area","ref":"M 2056","id":24851023},"arcs":[518]},{"type":"MultiLineString","properties":{"bus_network":"Sk\u00e5netrafiken","network":null,"sort_rank":380,"kind_detail":"primary","kind":"major_road","source":"openstreetmap.org","min_zoom":8.0,"bus_shield_text":"542","shield_text":"119","ref":"119"},"arcs":[[519],[520]]},{"type":"LineString","properties":{"kind":"major_road","sort_rank":380,"kind_detail":"primary","is_bicycle_related":true,"cycleway":"track","source":"openstreetmap.org","min_zoom":8.0,"landuse_kind":"urban_area","ref":"E 22.02","id":59145754},"arcs":[521]},{"type":"MultiLineString","properties":{"kind":"major_road","network":null,"sort_rank":380,"kind_detail":"primary","bus_network":"Blekingetrafiken","source":"openstreetmap.org","min_zoom":8.0,"bus_shield_text":"840","shield_text":"27","ref":"27"},"arcs":[[522],[523]]},{"type":"LineString","properties":{"kind":"path","sort_rank":354,"kind_detail":"footway","is_bicycle_related":true,"bicycle_shield_text":"Cykelsp\u00e5ret (2)","bicycle_network":"ncn","source":"openstreetmap.org","min_zoom":8.0,"id":147250766},"arcs":[524]},{"type":"LineString","properties":{"kind":"major_road","network":null,"sort_rank":377,"kind_detail":"tertiary","is_bicycle_related":true,"bicycle_shield_text":"Sverigeleden (36)","bicycle_network":"ncn","source":"openstreetmap.org","min_zoom":8.0,"shield_text":"1626","ref":"M 1626"},"arcs":[525]},{"type":"LineString","properties":{"kind":"major_road","network":null,"sort_rank":377,"kind_detail":"tertiary","is_bicycle_related":true,"bicycle_shield_text":"Cykelsp\u00e5ret (2)","bicycle_network":"ncn","source":"openstreetmap.org","min_zoom":8.0,"shield_text":"532","ref":"K 532","id":29207730},"arcs":[526]},{"type":"LineString","properties":{"source":"openstreetmap.org","kind":"major_road","sort_rank":380,"kind_detail":"primary","ref":"15","min_zoom":8.0,"id":304379405},"arcs":[527]},{"type":"LineString","properties":{"kind":"major_road","network":null,"sort_rank":380,"kind_detail":"primary","bus_network":"Blekingetrafiken","source":"openstreetmap.org","min_zoom":8.0,"bus_shield_text":"22","shield_text":"27","ref":"27","id":232469752},"arcs":[528]}]},"earth":{"type":"GeometryCollection","geometries":[{"type":"MultiPolygon","properties":{"sort_rank":10,"source":"naturalearthdata.com","min_zoom":0.0,"kind":"earth","area":65850130556},"arcs":[[[529]]]}]},"landuse":{"type":"GeometryCollection","geometries":[{"type":"Polygon","properties":{"kind":"aerodrome","area":12178100,"sort_rank":60,"operator":"Swedish Air Force\/Swedavia","source":"openstreetmap.org","min_zoom":8.0,"tier":3,"id":237051782},"arcs":[[530]]},{"type":"MultiPolygon","properties":{"source":"openstreetmap.org","kind":"nature_reserve","tier":2,"area":746063961,"sort_rank":23,"min_zoom":8.0},"arcs":[[[531]],[[532]],[[533]],[[534]]]},{"type":"MultiPolygon","properties":{"source":"naturalearthdata.com","kind":"urban_area","name":"","area":1252894859,"sort_rank":11,"min_zoom":4.0},"arcs":[[[535]],[[536]],[[537],[538]],[[539]],[[540]],[[541]],[[542]],[[543]],[[544]]]},{"type":"Polygon","properties":{"source":"openstreetmap.org","kind":"residential","area":12100300,"tier":2,"id":198563987,"min_zoom":8.0,"sort_rank":20},"arcs":[[545]]},{"type":"MultiPolygon","properties":{"source":"openstreetmap.org","kind":"military","tier":3,"area":162345747,"sort_rank":45,"min_zoom":8.0},"arcs":[[[546]],[[547]]]},{"type":"MultiPolygon","properties":{"source":"openstreetmap.org","kind":"nature_reserve","tier":2,"area":623412248,"sort_rank":23,"min_zoom":8.0,"osm_relation":true},"arcs":[[[548]],[[549]],[[550]],[[551]],[[552],[553],[554],[555],[556]]]}]}},"type":"Topology","transform":{"translate":[14.0625,55.7765730187],"scale":[0.0003433228,0.00019114]},"arcs":[[[1876,0],[285,93],[384,51],[193,72],[323,225],[115,195],[425,-47],[495,-490]],[[3793,3691],[7,57],[57,40],[122,-52],[28,19],[26,-62],[62,25],[1,0]],[[3837,4096],[13,-31],[-41,4],[-3,27]],[[3789,4096],[8,-23],[-26,-10],[9,-66],[-28,-38],[19,-51],[-58,-180],[28,-33],[52,-4]],[[3793,3691],[-129,-139],[-99,7],[-64,74],[-46,-39],[-117,-21],[33,-45],[-16,-56],[-81,-64],[-116,43],[-68,100],[-215,-17],[1,-76],[-48,69],[-96,-27],[-62,-61],[-41,-177],[-100,-86],[-80,-133],[-127,14],[-233,113],[-76,-13],[-218,38],[-46,80],[-40,7],[-72,85],[-27,91],[-293,117]],[[1317,3575],[-123,-270],[-171,-42],[15,-173],[-18,-1],[-66,-344],[54,15],[-9,-52],[73,-23],[-13,-157],[27,-34],[-24,-30],[40,-97],[73,-23],[4,77],[151,-130],[40,48],[99,2],[56,-496],[-23,-166],[-65,-76],[-6,-87],[-63,-154],[55,-543]],[[1423,819],[104,-819]],[[1876,0],[285,93],[384,51],[193,72],[323,225],[115,195],[425,-47],[495,-490]],[[0,3867],[0,40]],[[0,3925],[84,31],[40,-12],[40,-29],[20,-98],[51,7],[107,-70],[64,12],[91,-29],[120,82],[5,-44],[123,-21],[76,-51],[266,-77],[68,15],[35,-45],[127,-21]],[[0,3478],[139,236],[90,382]],[[217,4053],[-1,-6],[2,6],[-1,0]],[[229,4096],[-90,-382],[-139,-236]],[[107,3657],[-3,-5],[3,5]],[[217,4053],[-1,-6],[2,6],[-1,0]],[[0,1401],[64,-21],[143,10],[44,-39]],[[251,1351],[64,79],[206,0],[178,-45],[380,58],[118,80],[206,-23],[98,-99],[97,139],[-3,74],[71,275],[8,171],[119,97],[147,17],[125,-81],[86,0],[50,32],[48,-31],[72,10],[104,-34],[81,43],[106,190],[97,-20],[62,-40],[136,5],[48,-28],[63,30],[55,136],[84,34],[139,131],[217,-76],[17,-36],[-21,-153],[95,-70],[274,132],[113,19],[105,-45]],[[251,1351],[1,-1]],[[252,1350],[1,-4]],[[253,1346],[5,-11]],[[1217,1521],[7,-1]],[[259,1333],[-5,11],[7,-14],[-2,3]],[[0,1401],[57,-21],[152,10],[29,-17],[8,-11],[13,-29]],[[254,1344],[5,-11],[-5,11]],[[0,1401],[57,-21],[152,10],[49,-55]],[[259,1333],[-5,11],[7,-14],[-2,3]],[[0,3479],[139,235],[88,382]],[[107,3657],[-3,-4],[0,-1],[3,5]],[[217,4056],[-1,-9],[1,8],[0,1]],[[259,1333],[-13,29],[-8,11],[-29,17],[-152,-10],[-57,21]],[[254,1344],[5,-11],[-5,11]],[[0,1401],[57,-21],[152,10],[49,-55]],[[259,1333],[-5,11],[7,-14],[-2,3]],[[0,3479],[139,235],[88,382]],[[217,4056],[-1,-9],[1,8],[0,1]],[[0,1401],[64,-21],[143,10],[44,-39]],[[251,1351],[64,79],[206,0],[178,-45],[380,58],[118,80],[206,-23],[98,-99],[97,139],[-3,74],[71,275],[8,171],[119,97],[147,17],[125,-81],[86,0],[50,32],[48,-31],[72,10],[104,-34],[81,43],[106,190],[97,-20],[62,-40],[136,5],[48,-28],[63,30],[55,136],[84,34],[139,131],[217,-76],[17,-36],[-21,-153],[95,-70],[274,132],[113,19],[105,-45]],[[251,1351],[1,-1]],[[252,1350],[1,-4]],[[253,1346],[5,-11]],[[1217,1520],[7,0]],[[259,1333],[-5,11],[7,-14],[-2,3]],[[4096,1679],[0,-1679],[-3701,0],[1,18],[29,216],[77,217],[105,166],[118,66],[34,45],[30,98],[38,99],[58,44],[56,23],[65,57],[110,134],[97,152],[54,46],[78,17],[27,11],[67,50],[37,14],[-7,-13],[13,-25],[32,-37],[61,75],[-1,-64],[14,-46],[22,-36],[25,-30],[-41,-48],[5,-22],[30,-5],[81,1],[23,-6],[21,-14],[24,-6],[18,20],[19,41],[59,0],[13,-55],[15,-22],[23,22],[26,40],[34,38],[36,31],[33,18],[-28,93],[-28,64],[-83,125],[-16,42],[-12,48],[-20,39],[-42,17],[-20,24],[-3,54],[5,60],[8,44],[46,73],[69,33],[144,1],[62,-34],[51,-59],[49,-39],[57,25],[-5,87],[73,4],[96,-19],[65,18],[73,44],[102,-20],[176,-81],[-11,31],[-20,83],[-10,32],[28,4],[71,28],[20,3],[18,-33],[10,-91],[23,-18],[110,0],[23,10],[22,20],[23,9],[22,-21],[89,-61],[123,22],[114,74],[63,89],[62,-131],[17,-50],[-23,-2],[-56,-31],[35,-29],[40,-12],[129,8],[14,20],[0,34],[19,51],[49,73],[30,24],[42,10],[44,-14],[31,-32],[24,-36],[22,-25],[26,-22],[0,-183],[-40,-11],[-33,-38],[-16,-2],[-2,-28],[9,-28],[12,-12],[36,-3],[8,-11],[15,-4],[11,9]],[[2286,1172],[22,67],[-19,26],[-29,6],[-13,-9],[4,-60],[18,-30],[17,0]],[[2673,1793],[-1,32],[-15,-13],[-31,-8],[-29,8],[3,-19],[31,-15],[24,-29],[18,44]],[[3897,1928],[18,55],[-39,36],[0,-71],[21,-20]],[[2106,4096],[12,-21],[34,-93],[-69,30],[-34,24],[-14,37],[-5,23],[76,0]],[[1904,4096],[-6,-12],[-28,-42],[-36,-24],[-21,78],[91,0]],[[4096,1990],[-26,22],[-22,25],[-24,36],[-31,32],[-44,14],[-42,-10],[-30,-24],[-49,-73],[-19,-51],[0,-34],[-14,-20],[-129,-8],[-40,12],[-35,29],[56,31],[23,2],[-17,50],[-62,131],[-63,-89],[-114,-74],[-123,-22],[-89,61],[-22,21],[-23,-9],[-22,-20],[-23,-10],[-110,0],[-23,18],[-10,91],[-18,33],[-20,-3],[-71,-28],[-28,-4],[10,-32],[20,-83],[11,-31],[-176,81],[-102,20],[-73,-44],[-65,-18],[-96,19],[-73,-4],[5,-87],[-57,-25],[-49,39],[-51,59],[-62,34],[-144,-1],[-69,-33],[-46,-73],[-8,-44],[-5,-60],[3,-54],[20,-24],[42,-17],[20,-39],[12,-48],[16,-42],[83,-125],[28,-64],[28,-93],[-33,-18],[-36,-31],[-34,-38],[-26,-40],[-23,-22],[-15,22],[-13,55],[-59,0],[-19,-41],[-18,-20],[-24,6],[-21,14],[-23,6],[-81,-1],[-30,5],[-5,22],[41,48],[-25,30],[-22,36],[-14,46],[1,64],[-61,-75],[-32,37],[-13,25],[7,13],[-37,-14],[-67,-50],[-27,-11],[-78,-17],[-54,-46],[-97,-152],[-110,-134],[-65,-57],[-56,-23],[-58,-44],[-38,-99],[-30,-98],[-34,-45],[-118,-66],[-105,-166],[-77,-217],[-29,-216],[-1,-18]],[[2106,4096],[12,-21],[34,-93],[-69,30],[-34,24],[-14,37],[-5,23]],[[1904,4096],[-6,-12],[-28,-42],[-36,-24],[-21,78]],[[156,1252],[1,4]],[[0,3212],[50,12],[138,-71],[253,11],[120,-23]],[[1789,2045],[0,1]],[[0,1347],[146,-79]],[[142,1271],[-142,77]],[[1970,2176],[12,0]],[[758,3250],[-7,-2]],[[92,346],[-7,-72]],[[1864,2879],[-1,-1]],[[3902,2317],[10,11]],[[2340,2081],[4,-8]],[[2344,2073],[5,-14]],[[2350,2059],[-6,14]],[[1473,1458],[-15,56]],[[1473,1458],[0,-4]],[[1474,1454],[-1,4]],[[2633,2046],[-43,160]],[[1181,1547],[0,41]],[[3905,2212],[1,1]],[[2352,2054]],[[1222,1629]],[[1599,1560],[-31,-43]],[[81,1735],[1,-2]],[[83,1734],[0,1]],[[146,615],[104,-182]],[[466,432],[2,5]],[[499,546],[1,6]],[[501,554],[83,118]],[[1789,2045],[1,0]],[[1790,2045],[-1,1]],[[1790,2045],[11,-5]],[[2389,2019],[5,-7]],[[2400,2003],[34,9]],[[2761,3618],[-1,0]],[[4096,2183],[-13,-73]],[[3717,2192],[51,108],[79,32],[55,-15]],[[2875,2078],[41,-10],[27,51]],[[2068,2128],[-113,-33]],[[1956,2097],[112,31]],[[2210,2149],[-18,2]],[[2192,2150],[4,-1]],[[3905,2214],[-1,-1]],[[1801,2040],[-7,129]],[[1172,1396],[0,-3]],[[170,1261],[-28,10]],[[146,1268],[32,-10]],[[2349,2059],[3,-5]],[[2352,2055],[-2,4]],[[1726,2070],[52,-20]],[[1778,2050],[11,-5]],[[1780,2050],[-2,0]],[[1339,1403],[18,10]],[[1411,1499],[56,-44]],[[1477,1453],[-10,2]],[[1534,1477],[-57,-24]],[[2044,2200],[99,41],[29,-14]],[[2394,2012],[6,-9]],[[1794,2169],[176,7]],[[2076,3171],[-7,59]],[[2394,2012]],[[2526,2007],[4,-1]],[[157,1283],[-1,0]],[[83,1735],[-2,0]],[[3486,2388],[0,-1],[2,-1],[0,2],[-2,0]],[[2143,4096],[36,-146]],[[2033,2502],[35,25]],[[746,1094],[-25,-11]],[[897,1286],[-14,-100],[-136,-91]],[[611,695],[48,38]],[[3387,2046],[-76,-32],[-3,23],[-114,-9],[-20,25]],[[60,1111],[3,11]],[[156,1256],[-69,-140]],[[88,1116],[68,136]],[[63,533],[25,-162]],[[312,1733],[1,5]],[[494,547],[5,-1]],[[500,552],[1,2]],[[3526,2280],[-3,1]],[[1063,1422],[-9,18]],[[1153,1501],[-24,-20]],[[1260,1686],[26,21]],[[1305,2137],[-11,4]],[[1320,1740],[11,15]],[[1606,2162],[-39,65]],[[1863,2878],[-2,5]],[[2731,3567],[-1,-1]],[[508,1487],[20,-68]],[[62,1551],[12,7]],[[1783,2048],[-3,2]],[[1789,2046],[-3,1]],[[2207,2354],[-2,-4]],[[2205,2350],[2,3]],[[1726,2070],[-42,4]],[[2215,2139],[-7,13]],[[2211,2145],[4,-6]],[[2215,2139],[40,-51]],[[2255,2088],[1,-1]],[[2257,2087],[-2,1]],[[2257,2085],[3,-2]],[[2260,2083],[-2,3]],[[2322,2057],[-31,-8],[-31,34]],[[63,1560],[15,-158],[75,-120]],[[155,1283],[-2,-1]],[[153,1282],[2,0]],[[751,3249],[-1,-1],[1,0],[0,1]],[[358,1583],[-46,150]],[[1180,1644],[2,0]],[[1222,1629],[-2,-2]],[[1984,2343],[-1,1]],[[63,1122],[9,29]],[[2771,3594],[-10,24]],[[3223,2926],[-182,268],[-157,173],[-110,221]],[[3223,2926],[29,-111],[120,-155]],[[3373,2660],[-121,155],[-29,111]],[[152,807],[-18,-169]],[[2203,3254],[-134,-24]],[[60,1104],[0,7]],[[3934,2321],[16,31]],[[1357,2524],[34,-102]],[[1391,2422],[1,-3]],[[1393,2419],[-2,3]],[[1172,1396],[167,7]],[[1357,1413],[28,85],[26,1]],[[1534,1477],[34,40]],[[2000,2183],[44,17]],[[2172,2227],[10,-5]],[[2349,2059],[1,0]],[[2285,2562],[-17,-29]],[[1602,2153],[4,9]],[[1286,1707],[16,19]],[[606,1350],[-7,-2]],[[600,1348],[6,1]],[[993,1389],[-2,0]],[[992,1389],[1,0]],[[2335,2165],[12,2]],[[2347,2167],[32,6],[122,-14]],[[2501,2159],[20,-2]],[[2521,2157],[4,-1],[51,5],[16,3]],[[2592,2164],[1,1]],[[2593,2165],[5,1],[3,0],[40,24],[0,1]],[[2641,2191],[48,32],[8,2]],[[2697,2225],[58,13],[17,0],[48,3],[97,13],[74,17],[54,25],[0,1],[23,10]],[[3068,2307],[11,6],[73,13],[65,-10]],[[3217,2316],[64,-10],[53,18]],[[3334,2324],[16,6]],[[3350,2330],[3,1],[7,4],[7,4],[7,4]],[[3374,2343],[36,20],[13,5]],[[3423,2368],[8,3]],[[3431,2371],[2,0],[52,1],[3,-1]],[[3488,2371],[1,0],[37,-21]],[[3526,2350],[-37,22],[-1,-1]],[[3488,2371],[-57,0]],[[3431,2371],[-3,-1],[-5,-2]],[[3423,2368],[-49,-25]],[[3374,2343],[-7,-4],[-8,-4],[-9,-5]],[[3350,2330],[-11,-5],[-5,-1]],[[3334,2324],[-117,-8]],[[3217,2316],[-2,-1],[-147,-8]],[[3068,2307],[-1,0],[-161,-51],[-86,-15],[-75,-3],[-41,-9],[-7,-4]],[[2697,2225],[-56,-34]],[[2641,2191],[-1,-1],[-40,-24],[-2,0],[-5,-1]],[[2593,2165],[0,-1],[-1,0]],[[2592,2164],[-71,-7]],[[2521,2157],[-3,-1],[-17,3]],[[2501,2159],[-109,17],[-45,-9]],[[2347,2167],[-12,-2]],[[3605,2298],[80,-46],[139,-39]],[[3824,2214],[-219,85]],[[82,1733],[1,1]],[[643,1358],[-37,-8]],[[606,1349],[37,9]],[[658,1362],[86,24],[184,-24],[64,27]],[[991,1389],[-5,-1],[-43,-20],[-44,-2],[-20,7],[-38,7],[-18,2],[-43,2],[-7,2],[-20,1],[-22,-2],[-14,-3],[-59,-19]],[[3486,2386],[6,-21]],[[3174,2053],[-119,70],[-65,91]],[[2283,2159],[4,-10]],[[2288,2149],[-4,9]],[[2283,2159],[1,-1]],[[2284,2158],[1,2],[-1,1],[-1,-2]],[[18,1242],[-18,13]],[[2590,2206],[79,14],[42,36],[91,-33],[207,77]],[[1305,2150],[105,-44],[85,15]],[[2627,3938],[77,-75]],[[2201,2342],[-21,-102]],[[2180,2240],[4,-27]],[[2184,2213],[19,-53]],[[2201,2342],[4,8]],[[2205,2350],[-4,-8]],[[2203,2160],[4,-7]],[[2208,2152],[-5,8]],[[2213,2364],[-6,-10]],[[2207,2353],[6,11]],[[2222,2391],[-9,-27]],[[194,1707],[44,11]],[[72,1152],[3,5]],[[2332,2025],[3,-16]],[[75,1157],[-57,85]],[[1335,2632],[22,-108]],[[72,1151],[0,1]],[[2400,2050],[121,111]],[[2033,2499],[0,3]],[[3526,2273],[23,-15]],[[0,913],[1,1]],[[0,914]],[[3961,2355],[35,-42],[97,-41],[3,-31]],[[2774,3588],[-3,6]],[[1404,2395],[13,-43],[98,-57],[84,-127],[127,-98]],[[691,1085],[-40,2]],[[747,1095],[-1,-1]],[[238,1718],[75,20]],[[72,1077],[-72,-163]],[[651,1087],[-42,2]],[[721,1083],[-30,2]],[[1973,2377],[7,102],[53,20]],[[87,1116],[-15,-39]],[[73,1077],[15,39]],[[3630,2204],[87,-12]],[[1981,2173],[1,3]],[[584,672],[27,23]],[[2315,2098],[35,-39]],[[2389,2022],[-40,37]],[[1330,2675],[14,66],[-192,468],[-213,17],[-38,-28],[-143,52]],[[1330,2675],[1,-18]],[[1334,2641],[-3,16]],[[1500,2125],[102,28]],[[427,1297],[173,51]],[[599,1348],[-43,-7],[-109,-32],[-19,-11]],[[1151,1484],[-5,-1],[-48,-51],[-3,-4],[-22,-25]],[[1073,1403],[-1,-1],[-10,-7],[-29,-8],[-3,0]],[[1030,1387],[-2,0],[-1,0],[-34,2]],[[993,1389],[35,-3],[2,1]],[[1030,1387],[43,16]],[[1073,1403],[3,1],[72,61]],[[1551,1511],[-157,17]],[[1396,1525],[28,-16],[127,2]],[[1794,2060],[-38,-78],[-18,-239],[-77,-204]],[[1661,1538],[27,25],[50,180],[19,239],[41,80]],[[3557,2252],[4,-3]],[[3561,2249],[0,1],[0,-1]],[[3561,2249]],[[3577,2238],[-16,11]],[[3950,2352],[11,3]],[[0,3441],[86,119],[1,3]],[[87,3563],[46,94],[15,48]],[[148,3705],[1,3],[31,94]],[[180,3802],[2,5],[11,25]],[[193,3832],[5,11],[26,52],[3,17]],[[227,3912],[6,28],[2,8]],[[235,3948],[-7,-35],[-1,-1]],[[227,3912],[-29,-69],[-5,-11]],[[193,3832],[-13,-30]],[[180,3802],[-2,-4],[-23,-72],[-7,-21]],[[148,3705],[-20,-67],[-32,-63],[-9,-12]],[[87,3563],[-48,-62],[-39,-59]],[[235,3948],[48,83]],[[1177,1518],[-24,-17]],[[2352,2054],[8,-2]],[[2360,2052],[-8,3]],[[2360,2052],[20,-5]],[[2380,2047],[13,-3]],[[2393,2044],[7,6]],[[155,1282],[1,0]],[[0,1526],[62,25]],[[0,914],[30,-73],[-5,-185]],[[49,622],[14,-89]],[[85,274],[120,-74],[46,-73],[-27,-127]],[[88,371],[4,-25]],[[2143,3939],[-18,-120],[44,-47],[39,-122],[-5,-396]],[[4083,2110],[13,-3]],[[1334,2641],[1,-9]],[[250,433],[-35,-26]],[[1789,2046]],[[3506,2317],[9,-5]],[[3515,2312],[-9,6]],[[3515,2311],[4,-9]],[[3519,2303],[-3,9]],[[3519,2302],[1,0],[-1,1]],[[3519,2303],[0,-1]],[[3519,2302],[3,-21]],[[3523,2281],[-3,21]],[[3516,2312],[-1,0],[0,-1],[1,1]],[[0,2453]],[[1,2456]],[[1,2454],[1,1]],[[74,1558],[68,58],[15,77]],[[1054,1440],[75,41]],[[1227,1635],[-5,-6]],[[1249,1671],[-7,-8]],[[1294,2141],[-7,-52]],[[1289,2073],[47,-148],[-5,-170]],[[1861,2883],[-52,224]],[[2068,2527],[-204,352]],[[621,1398],[-1,0],[0,-1],[1,1]],[[351,1533],[81,20]],[[3824,2213],[172,-12],[1,0]],[[3997,2201],[86,1]],[[4083,2202],[2,0],[11,1]],[[4096,2204],[-3,0],[-10,-2]],[[4083,2202],[-29,-4],[-54,2],[-3,1]],[[3997,2201],[-1,0],[-2,0],[-55,9],[-34,4],[-81,0]],[[1899,2086],[28,3],[8,3]],[[1935,2092],[7,3],[14,2]],[[1955,2095],[-20,-3]],[[1935,2092],[-2,0],[-32,-5]],[[2068,2128]],[[2068,2128],[65,33]],[[2133,2161],[5,3],[38,-10]],[[2176,2154],[16,-4]],[[2192,2151],[-16,3]],[[2176,2154],[-43,7]],[[2133,2161],[-7,1],[-58,-34]],[[2068,2128]],[[2268,2533],[-46,-142]],[[2730,3566],[-281,-377],[-71,-480],[-93,-147]],[[2759,3617],[-28,-50]],[[2759,3617],[2,1]],[[2760,3620],[-1,-3]],[[2434,2012],[1,10]],[[3387,2046],[139,86],[21,-58],[59,21],[24,108]],[[750,3248],[-106,-30],[-83,-77]],[[157,1269],[-1,-13]],[[3444,2504],[42,-116]],[[3487,2388],[-43,115]],[[3488,2382],[0,4]],[[647,756],[12,-23]],[[620,1398],[-32,4]],[[392,0],[0,157],[74,275]],[[468,437],[26,110]],[[1181,1588],[-5,31]],[[1227,1635],[15,28]],[[1249,1671],[11,15]],[[1287,2089],[1,-16],[32,11]],[[1320,1740],[-18,-14]],[[165,932],[-13,71],[-92,101]],[[3550,2258],[7,-6]],[[283,4031],[54,65]],[[146,615],[-12,23]],[[2315,2098],[-63,115],[-70,9]],[[658,766],[1,0],[0,1],[-1,0],[0,-1]],[[662,800],[1,0],[0,2],[-1,-1],[0,-1]],[[1964,1196],[0,-27]],[[1964,1169],[124,49]],[[2088,1218],[162,5]],[[612,1044],[-3,45]],[[612,1044],[20,-52]],[[642,914],[-10,78]],[[642,914],[1,-12]],[[655,835],[-12,67]],[[657,764],[-10,-8]],[[655,835],[7,-33]],[[663,801],[-8,34]],[[657,764],[2,1]],[[658,766],[-1,-2]],[[428,1298],[-258,-37]],[[178,1258],[249,39]],[[1148,1465],[52,32],[72,-1],[13,3],[5,3]],[[1290,1502],[81,37],[1,-1]],[[1372,1538],[24,-13]],[[1394,1528],[-20,11],[-2,-1]],[[1372,1538],[-72,-33],[-7,-2],[-3,-1]],[[1290,1502],[-16,-5],[-74,1],[-49,-14]],[[1551,1511],[8,0],[83,8],[19,19]],[[1661,1539],[-110,-28]],[[1004,1416],[-87,35],[-63,101],[-32,0]],[[2287,2149],[14,-33]],[[2301,2116],[-13,33]],[[2301,2116],[14,-19]],[[2087,3114],[-11,57]],[[1166,1374],[-30,-120],[-45,-31],[-194,63]],[[1181,1521],[-4,-3]],[[3493,2365],[-3,12]],[[2349,2059]],[[81,280],[-81,-78]],[[2578,4096],[49,-158]],[[2704,3863],[57,-245]],[[1176,1619],[4,25]],[[1181,1521],[0,26]],[[1220,1627],[-38,17]],[[77,1695],[-25,-60],[11,-75]],[[155,1282],[2,-13]],[[157,1256],[1,10],[-2,16]],[[0,2453],[28,-32]],[[28,2421],[-27,33]],[[28,2421],[25,-232]],[[67,2150],[47,-102]],[[82,1739],[-1,-4]],[[106,1980],[14,-71],[-38,-170]],[[83,1735],[-1,4]],[[1495,2121],[5,4]],[[1963,2257],[27,2]],[[3550,2259],[4,5]],[[3550,2258],[-1,0],[1,0]],[[157,1693],[37,14]],[[621,1398],[9,7]],[[748,1492],[74,60]],[[1983,2344],[-10,33]],[[1990,2259],[-6,84]],[[1953,2267],[10,-10]],[[1,2456],[-1,0]],[[2,2455],[-1,1]],[[25,656],[24,-34]],[[53,2189],[14,-39]],[[82,1733],[-5,-38]],[[114,2048],[-8,-68]],[[660,768],[-1,-1]],[[660,767],[0,1]],[[662,799],[-2,-31]],[[662,800],[0,-1]],[[662,799],[1,1]],[[630,1405],[118,87]],[[658,1363],[-15,-5]],[[643,1358],[15,4]],[[3632,2225],[-55,13]],[[3632,2225],[1,0]],[[3633,2226],[-1,-1]],[[3633,2226],[2,-1],[0,1],[-1,1],[-1,-1]],[[588,1402],[-60,17]],[[3492,2365],[13,-47]],[[3523,2280],[3,-7]],[[3505,2318],[1,0],[0,1],[-1,0],[0,-1]],[[3522,2281],[1,-1],[0,1],[0,1],[-1,-1]],[[2179,3950],[-36,-11]],[[1981,2173],[19,10]],[[2328,2048],[4,-23]],[[4096,956],[-362,27],[-1300,527],[-199,263],[-38,233]],[[1901,2087],[-36,-1],[-18,-7]],[[1847,2079],[-53,-19]],[[1798,2062],[49,17]],[[1847,2079],[18,7],[34,0]],[[1809,3107],[83,-29],[195,36]],[[3912,2328],[22,-7]],[[156,1283],[-1,0]],[[155,1282]],[[156,1282],[1,1]],[[1,914],[72,163]],[[155,1283],[0,-1]],[[3554,2265],[-1,0]],[[3637,2227],[-2,0]],[[3635,2226],[2,1]],[[3676,2260],[-39,-33]],[[4096,956],[-362,27],[-1300,527],[-199,263],[-38,233]],[[2196,2149],[139,16]],[[2335,2165],[-125,-16]],[[3526,2350],[33,-30],[46,-22]],[[3605,2299],[-79,51]],[[2256,2086],[2,-1],[0,2],[-1,0],[-1,-1]],[[1576,2365],[133,74],[126,-51],[118,-121]],[[1392,2417],[2,-4]],[[1394,2413],[-1,4]],[[1394,2413],[10,-18]],[[1392,2419],[-1,-1],[2,-1],[0,2],[-1,0]],[[2207,2153],[2,-4]],[[2210,2148],[1,-3]],[[1063,1422],[-59,-6]],[[3554,2264],[-28,16]],[[1567,2227],[9,138]],[[432,1553],[76,-66]],[[3009,2300],[8,-50],[-27,-36]],[[1172,1393],[-6,-19]],[[2435,2022],[52,25],[32,-7],[7,-33]],[[2530,2006],[59,3],[44,37]],[[3630,2204],[0,-1]],[[1688,1935],[-104,-304],[15,-71]],[[3505,2319],[-12,46]],[[1305,2150],[0,-13]],[[1964,1196],[0,-27],[124,49],[162,5]],[[165,932],[-13,-125]],[[351,1533],[7,50]],[[1,2456],[-1,0]],[[0,2453],[1,1]],[[2315,2097],[25,-16]],[[3372,2660],[72,-156]],[[3444,2503],[-71,157]],[[2389,2022],[0,-3]],[[215,407],[-45,-5],[-89,-81]],[[1684,2074],[4,-139]],[[1780,2050]],[[3490,2377],[-2,5]],[[0,4096],[4096,0],[0,-2106],[-26,22],[-22,25],[-24,36],[-31,32],[-44,14],[-42,-10],[-30,-24],[-49,-73],[-19,-51],[0,-34],[-14,-20],[-129,-8],[-40,12],[-35,29],[56,31],[23,2],[-17,50],[-62,131],[-63,-89],[-114,-74],[-123,-22],[-89,61],[-22,21],[-23,-9],[-22,-20],[-23,-10],[-110,0],[-23,18],[-10,91],[-18,33],[-20,-3],[-71,-28],[-28,-4],[10,-32],[20,-83],[11,-31],[-176,81],[-102,20],[-73,-44],[-65,-18],[-96,19],[-73,-4],[5,-87],[-57,-25],[-49,39],[-51,59],[-62,34],[-144,-1],[-69,-33],[-46,-73],[-8,-44],[-5,-60],[3,-54],[20,-24],[42,-17],[20,-39],[12,-48],[16,-42],[83,-125],[28,-64],[28,-93],[-33,-18],[-36,-31],[-34,-38],[-26,-40],[-23,-22],[-15,22],[-13,55],[-59,0],[-19,-41],[-18,-20],[-24,6],[-21,14],[-23,6],[-81,-1],[-30,5],[-5,22],[41,48],[-25,30],[-22,36],[-14,46],[1,64],[-61,-75],[-32,37],[-13,25],[7,13],[-37,-14],[-67,-50],[-27,-11],[-78,-17],[-54,-46],[-97,-152],[-110,-134],[-65,-57],[-56,-23],[-58,-44],[-38,-99],[-30,-98],[-34,-45],[-118,-66],[-105,-166],[-77,-217],[-29,-216],[-1,-18],[-395,0],[0,4096]],[[3467,2513],[20,17],[33,134],[1,-52],[44,-64],[-6,-59],[-92,24]],[[324,1063],[40,90],[134,-131],[4,-83],[-57,-33],[24,45],[-53,8],[-92,104]],[[165,1417],[9,140],[53,-4],[36,-41],[-62,-83],[46,-43],[-63,6],[-19,25]],[[2249,2552],[4,17],[45,-9],[41,32],[16,-26],[-2,-74],[-28,-13],[33,-43],[-22,-31],[-41,-13],[-16,129],[-30,31]],[[428,3864],[60,50],[126,0],[-15,-94],[-79,-67],[-15,39],[-28,-16],[14,-29],[-50,12],[-1,87],[17,3],[-29,15]],[[48,321],[-43,53],[-5,159],[96,0],[-5,-159],[-43,-53]],[[725,683],[-47,-27],[-190,112],[-3,172],[64,58],[32,186],[65,-12],[98,-116],[-20,-192],[51,-86],[-50,-95]],[[0,1638],[64,57],[65,0],[97,58],[17,-48],[48,-10],[58,-116],[88,31],[80,-31],[-18,-184],[-79,-107],[-111,-71],[-18,-45],[-162,0],[-33,-58],[-50,12],[-46,56],[0,456]],[[129,1404],[43,-38],[42,28],[44,185],[-100,-24],[-29,-151]],[[1663,1531],[-58,-197],[-30,139],[-65,-71],[30,95],[46,58],[64,24],[13,-48]],[[1213,1335],[-69,99],[19,134],[58,61],[70,2],[68,-45],[77,-130],[-223,-121]],[[646,1346],[-32,116],[77,101],[20,74],[60,-69],[-18,-68],[-107,-154]],[[2385,2086],[27,-65],[-124,6],[-2,-90],[-65,109],[-48,175],[-6,114],[46,55],[19,3],[33,-116],[120,-191]],[[1988,2397],[50,-4],[37,-132],[-5,-43],[-32,1],[61,-186],[-157,13],[31,114],[-32,175],[47,62]],[[3526,2218],[0,349],[98,-58],[-16,-204],[-29,-66],[-53,-21]],[[1153,1513],[37,45],[-3,45],[15,-31],[9,11],[-48,50],[-2,40],[35,5],[-13,-24],[63,-40],[11,-78],[-104,-23]],[[623,1055],[29,34],[54,-6],[11,-52],[125,-59],[14,-84],[-77,-65],[-10,71],[-135,111],[-11,50]],[[632,1119],[21,124],[92,0],[17,-20],[-17,-59],[29,2],[-2,-26],[-38,-13],[13,-33],[-107,-5],[-8,30]],[[1956,1224],[38,83],[-22,38],[29,-24],[29,46],[74,-3],[-85,-154],[-63,14]],[[1171,2524],[50,13],[-13,26],[70,-40],[30,5],[-99,37],[41,110],[-32,55],[29,-29],[17,-95],[88,-72],[-2,-35],[-63,12],[58,-30],[-8,-19],[-21,11],[17,-34],[-162,85]],[[3479,1901],[22,77],[180,18],[-20,-60],[43,-9],[-44,-58],[-21,7],[16,36],[-20,15],[-92,-10],[94,-22],[-2,-52],[22,-9],[28,-121],[-109,10],[-71,80],[-26,98]],[[3867,1745],[4,109],[51,113],[29,5],[50,-59],[12,-98],[-72,-39],[-10,-33],[-64,2]],[[2675,2059],[42,-13],[-39,28],[-10,126],[56,-6],[-4,-23],[35,-36],[-10,15],[41,-25],[14,-48],[48,-33],[-3,-39],[-33,-11],[22,-61],[-128,27],[-31,99]],[[2728,2038],[-2,-36],[7,32],[-5,4]],[[2725,1991],[0,-2],[78,-25],[-78,27]],[[2817,2045],[0,1],[-1,1],[1,-2]],[[2729,2114],[2,-10],[18,2],[-11,20],[-9,-12]]]}