{"objects":{"water":{"type":"GeometryCollection","geometries":[{"type":"MultiPolygon","properties":{"sort_rank":200,"source":"naturalearthdata.com","min_zoom":0.0,"kind":"lake","area":69278787},"arcs":[[[112]],[[113]]]},{"type":"MultiLineString","properties":{"source":"naturalearthdata.com","kind":"lake","sort_rank":367,"boundary":true,"min_zoom":0.0,"id":757},"arcs":[[114],[115]]},{"type":"LineString","properties":{"source":"naturalearthdata.com","kind":"lake","sort_rank":367,"boundary":true,"min_zoom":0.0,"id":767},"arcs":[116]}]},"buildings":{"type":"GeometryCollection","geometries":[]},"places":{"type":"GeometryCollection","geometries":[{"type":"Point","properties":{"name:pt":"Lub\u00fasquia","name:sk":"Lubusk\u00e9","name:ja":"\u30eb\u30d6\u30b7\u30e5\u770c","name:ka":"\u10da\u10e3\u10d1\u10e3\u10e8\u10d8\u10e1 \u10e1\u10d0\u10d5\u10dd\u10d4\u10d5\u10dd\u10d3\u10dd","kind":"region","min_zoom":4.0,"name:uk":"\u041b\u044e\u0431\u0443\u0441\u044c\u043a\u0435 \u0432\u043e\u0454\u0432\u043e\u0434\u0441\u0442\u0432\u043e","name:be":"\u041b\u044e\u0431\u0443\u0448\u0441\u043a\u0430\u0435 \u0432\u0430\u044f\u0432\u043e\u0434\u0441\u0442\u0432\u0430","name:ru":"\u041b\u044e\u0431\u0443\u0448\u0441\u043a\u043e\u0435 \u0432\u043e\u0435\u0432\u043e\u0434\u0441\u0442\u0432\u043e","name":"wojew\u00f3dztwo lubuskie","id":505016447,"population":1009000,"name:eo":"Lubu\u015da Provinco","name:en":"Lubusz","name:lt":"Liubu\u0161o vaivadija","kind_detail":"state","name:de":"Lebus","source":"openstreetmap.org","name:fr":"Lubusz","name:et":"Lubuszi","name:zh":"\u76e7\u5e03\u65af\u5361\u7701"},"coordinates":[3781,2284]},{"type":"Point","properties":{"kind":"locality","name":"Cottbus - Ch\u00f3\u015bebuz","name:lt":"Kotbusas","kind_detail":"town","name:cs":"Chot\u011bbuz","name:de":"Cottbus","source":"openstreetmap.org","min_zoom":8.0,"name:sr":"\u041a\u043e\u0442\u0431\u0443\u0441","name:ru":"\u041a\u043e\u0442\u0431\u0443\u0441","name:pl":"Chociebu\u017c","population":99913,"id":1628927045,"name:ja":"\u30b3\u30c8\u30d6\u30b9"},"coordinates":[796,657]},{"type":"Point","properties":{"kind":"locality","name":"Frankfurt (Oder)","kind_detail":"town","source":"openstreetmap.org","min_zoom":8.0,"name:uk":"\u0424\u0440\u0430\u043d\u043a\u0444\u0443\u0440\u0442-\u043d\u0430-\u041e\u0434\u0435\u0440\u0456","name:ru":"\u0424\u0440\u0430\u043d\u043a\u0444\u0443\u0440\u0442-\u043d\u0430-\u041e\u0434\u0435\u0440\u0435","name:pl":"Frankfurt nad Odr\u0105","id":291222598,"name:ca":"Frankfurt de l'Oder","population":61969},"coordinates":[1418,3426]},{"type":"Point","properties":{"kind":"locality","name":"\u017bary","name:lt":"\u017darai","kind_detail":"town","name:de":"Sorau","source":"openstreetmap.org","min_zoom":8.0,"name:ru":"\u0416\u0430\u0440\u044b","id":31782197,"population":38527},"coordinates":[3145,97]},{"type":"Point","properties":{"kind":"locality","name":"F\u00fcrstenwalde\/Spree","kind_detail":"town","source":"openstreetmap.org","min_zoom":8.0,"name:ru":"\u0424\u044e\u0440\u0441\u0442\u0435\u043d\u0432\u0430\u043b\u044c\u0434\u0435 (\u0428\u043f\u0440\u0435)","id":240097247,"population":30967},"coordinates":[7,3505]},{"type":"Point","properties":{"kind":"locality","name":"Eisenh\u00fcttenstadt","kind_detail":"town","source":"openstreetmap.org","min_zoom":8.0,"name:ru":"\u0410\u0439\u0437\u0435\u043d\u0445\u044e\u0442\u0442\u0435\u043d\u0448\u0442\u0430\u0434\u0442","id":568025275,"population":30234},"coordinates":[1651,2496]},{"type":"Point","properties":{"kind":"locality","name":"\u017baga\u0144","name:lt":"\u017daganis","kind_detail":"town","name:de":"Sagan","source":"openstreetmap.org","min_zoom":8.0,"name:ru":"\u0416\u0430\u0433\u0430\u043d\u044c","id":31782520,"population":26492},"coordinates":[3627,5]},{"type":"Point","properties":{"kind":"locality","name":"Forst (Lausitz)","kind_detail":"town","name:he":"\u05e4\u05d5\u05e8\u05e1\u05d8","source":"openstreetmap.org","min_zoom":8.0,"name:uk":"\u0424\u043e\u0440\u0441\u0442","name:ru":"\u0424\u043e\u0440\u0441\u0442 (\u041b\u0443\u0436\u0438\u0446\u0430)","id":1649632068,"population":19053},"coordinates":[1698,596]},{"type":"Point","properties":{"kind":"locality","name":"Guben","kind_detail":"town","source":"openstreetmap.org","min_zoom":8.0,"name:ru":"\u0413\u0443\u0431\u0435\u043d","name:pl":"Gubin (Niemcy)","id":599322452,"population":17655},"coordinates":[1902,1574]},{"type":"Point","properties":{"kind":"locality","name":"Gubin","name:lt":"Gubinas","kind_detail":"town","old_name:de":"Guben","source":"openstreetmap.org","min_zoom":8.0,"name:uk":"\u0413\u0443\u0431\u0456\u043d","name:ru":"\u0413\u0443\u0431\u0438\u043d","id":31802728,"population":16952},"coordinates":[1936,1577]},{"type":"Point","properties":{"kind":"locality","old_name:de":"Dammvorstadt","name":"S\u0142ubice","name:lt":"Slubic\u0117s","old_name:pl":"Zulbice","kind_detail":"town","name:de":"Dammvorstadt","source":"openstreetmap.org","min_zoom":8.0,"name:ru":"\u0421\u043b\u0443\u0431\u0438\u0446\u0435","id":26433240,"population":16908},"coordinates":[1453,3472]},{"type":"Point","properties":{"kind":"locality","old_name:de":"Sommerfeld","name":"Lubsko","kind_detail":"town","name:de":"Sommerfeld","source":"openstreetmap.org","min_zoom":8.0,"name:uk":"\u041b\u044e\u0431\u0441\u044c\u043a\u043e","name:ru":"\u041b\u044e\u0431\u0441\u043a\u043e","id":31796132,"population":14554},"coordinates":[2651,806]},{"type":"Point","properties":{"kind":"locality","name":"Krosno Odrza\u0144skie","name:lt":"Odros Krosnas","kind_detail":"town","name:de":"Crossen an der Oder","source":"openstreetmap.org","min_zoom":8.0,"name:uk":"\u041a\u0440\u043e\u0441\u043d\u043e-\u041e\u0434\u0436\u0430\u043d\u0441\u044c\u043a\u0435","name:ru":"\u041a\u0440\u043e\u0441\u043d\u043e-\u041e\u0434\u0436\u0430\u043d\u044c\u0441\u043a\u0435","id":26433204,"population":11983},"coordinates":[3016,2063]},{"type":"Point","properties":{"kind":"locality","name":"Sul\u0119cin","kind_detail":"town","name:de":"Zielenzig","source":"openstreetmap.org","min_zoom":8.0,"name:uk":"\u0421\u0443\u043b\u0435\u043d\u0446\u0438\u043d","old_name":"Zielenzig","name:ru":"\u0421\u0443\u043b\u0435\u043d\u0446\u0438\u043d","id":31609265,"population":10265},"coordinates":[3069,3900]},{"type":"Point","properties":{"kind":"locality","name":"Vetschau\/Spreewald - W\u011bto\u0161ow\/B\u0142ota","kind_detail":"town","name:de":"Vetschau\/Spreewald","source":"openstreetmap.org","min_zoom":8.0,"name:ru":"\u0424\u0435\u0447\u0430\u0443","id":1676297345,"population":8491},"coordinates":[36,780]},{"type":"Point","properties":{"kind":"locality","name":"Beeskow","kind_detail":"town","source":"openstreetmap.org","min_zoom":8.0,"name:ru":"\u0411\u0435\u0441\u043a\u043e\u0432","id":305332222,"population":7964},"coordinates":[538,2625]},{"type":"Point","properties":{"kind":"locality","name":"Rzepin","kind_detail":"town","name:de":"Reppen","source":"openstreetmap.org","min_zoom":8.0,"name:ru":"\u0416\u0435\u043f\u0438\u043d","id":31611779,"population":6689},"coordinates":[2228,3461]},{"type":"Point","properties":{"name:fa":"\u062f\u0631\u0628\u06a9\u0627\u0626\u0648","kind":"locality","name":"Drebkau - Drjowk","kind_detail":"town","name:de":"Drebkau","source":"openstreetmap.org","min_zoom":8.0,"name:sr":"\u0414\u0440\u0435\u0431\u043a\u0430\u0443","name:ru":"\u0414\u0440\u0435\u0431\u043a\u0430\u0443","name:zh":"\u5fb7\u96f7\u5e03\u8003","id":1649654504,"name:mk":"\u0414\u0440\u0435\u0431\u043a\u0430\u0443","population":5734},"coordinates":[460,188]},{"type":"Point","properties":{"kind":"locality","name":"Nowogr\u00f3d Bobrza\u0144ski","kind_detail":"town","old_name:de":"Naumburg am Bober","source":"openstreetmap.org","min_zoom":8.0,"name:ru":"\u041d\u043e\u0432\u043e\u0433\u0440\u0443\u0434-\u0411\u043e\u0431\u0436\u0430\u043d\u044c\u0441\u043a\u0438\u0439","id":31794151,"population":5161},"coordinates":[3420,856]},{"type":"Point","properties":{"source":"openstreetmap.org","kind":"locality","name":"M\u00fcllrose","kind_detail":"town","population":4463,"min_zoom":8.0,"id":240070062},"coordinates":[1036,2978]},{"type":"Point","properties":{"kind":"locality","old_name:de":"Gassen","name":"Jasie\u0144","kind_detail":"town","name:de":"Gassen","source":"openstreetmap.org","min_zoom":8.0,"name:ru":"\u042f\u0441\u0435\u043d\u044c","id":274497581,"population":4463},"coordinates":[2767,632]},{"type":"Point","properties":{"kind":"locality","name":"Peitz - Picnjo","kind_detail":"town","name:de":"Peitz","source":"openstreetmap.org","min_zoom":8.0,"id":1086123995,"population":4449},"coordinates":[1015,1139]},{"type":"Point","properties":{"kind":"locality","name":"O\u015bno Lubuskie","kind_detail":"town","name:de":"Drossen","source":"openstreetmap.org","min_zoom":8.0,"name:uk":"\u041e\u0441\u044c\u043d\u043e-\u041b\u044e\u0431\u0443\u0441\u044c\u043a\u0435","old_name":"O\u015bno","name:ru":"\u041e\u0441\u044c\u043d\u043e-\u041b\u044e\u0431\u0443\u0441\u043a\u0435","id":31616006,"population":3889},"coordinates":[2347,3965]},{"type":"Point","properties":{"source":"openstreetmap.org","kind":"locality","name":"Lebus","kind_detail":"town","population":3144,"min_zoom":8.0,"id":1692107914},"coordinates":[1373,3832]},{"type":"Point","properties":{"kind":"locality","name":"Friedland","kind_detail":"town","source":"openstreetmap.org","min_zoom":8.0,"name:ru":"\u0424\u0440\u0438\u0434\u043b\u0430\u043d\u0434","id":240057011,"population":3077},"coordinates":[587,2309]},{"type":"Point","properties":{"kind":"locality","name":"Cybinka","kind_detail":"town","name:de":"Ziebingen","source":"openstreetmap.org","min_zoom":8.0,"name:uk":"\u0426\u0438\u0431\u0456\u043d\u043a\u0430","name:ru":"\u0426\u044b\u0431\u0438\u043d\u043a\u0430","id":31626050,"population":2809},"coordinates":[2139,2728]},{"type":"Point","properties":{"kind":"locality","name":"Torzym","kind_detail":"town","name:ar":"\u062a\u0648\u0631\u0632\u064a\u0645","name:de":"Sternberg in der Neumark","source":"openstreetmap.org","min_zoom":8.0,"name:uk":"\u0422\u043e\u0436\u0438\u043c","name:ru":"\u0422\u043e\u0436\u0438\u043c","id":31607924,"population":2597},"coordinates":[2971,3296]},{"type":"Point","properties":{"source":"openstreetmap.org","kind":"locality","name":"Lieberose","kind_detail":"town","population":1464,"min_zoom":8.0,"id":448867771},"coordinates":[693,1739]}]},"transit":{"type":"GeometryCollection","geometries":[{"type":"MultiLineString","properties":{"kind":"train","network":"Verkehrsverbund Berlin-Brandenburg","service":"regional","sort_rank":275,"colour":"#5C64B8","name":"RB43: Falkenberg (Elster) => Cottbus","source":"openstreetmap.org","min_zoom":6.0,"operator":"DB Regio AG","ref":"RB43","osm_relation":true,"colour_name":"steelblue"},"arcs":[[4],[5],[6]]},{"type":"MultiLineString","properties":{"kind":"train","network":"Verkehrsverbund Berlin-Brandenburg","sort_rank":275,"colour":"#4D66FF","name":"RB35: Bad Saarow Klinikum => F\u00fcrstenwalde","source":"openstreetmap.org","min_zoom":6.0,"operator":"NEB Betriebsgesellschaft mbH","ref":"RB35","osm_relation":true,"colour_name":"royalblue"},"arcs":[[7],[8],[9],[10],[11]]},{"type":"LineString","properties":{"kind":"train","network":"DB InterCity","service":"long_distance","sort_rank":275,"source":"openstreetmap.org","min_zoom":5.0,"operator":"DB Fernverkehr AG","ref":"IC 56","id":-6181528,"osm_relation":true,"name":"IC 56: Cottbus => Norddeich"},"arcs":[12]},{"type":"MultiLineString","properties":{"kind":"train","name":"OE65: Zittau => Cottbus","service":"regional","sort_rank":275,"colour":"#0080FF","source":"openstreetmap.org","min_zoom":6.0,"network":"Verkehrsverbund Berlin-Brandenburg;ZVON","operator":"Ostdeutsche Eisenbahn Gesellschaft","ref":"OE65","osm_relation":true,"colour_name":"dodgerblue"},"arcs":[[13],[14]]},{"type":"MultiLineString","properties":{"kind":"train","network":"Verkehrsverbund Berlin-Brandenburg","sort_rank":275,"colour":"#4D66FF","name":"RB35: F\u00fcrstenwalde => Bad Saarow Klinikum","source":"openstreetmap.org","min_zoom":6.0,"operator":"NEB Betriebsgesellschaft mbH","ref":"RB35","osm_relation":true,"colour_name":"royalblue"},"arcs":[[15],[16],[17],[18],[19]]},{"type":"LineString","properties":{"kind":"train","network":"PKP","sort_rank":275,"source":"openstreetmap.org","min_zoom":6.0,"operator":"PKP Polskie Linie Kolejowe S.A.","ref":"370","id":-4755010,"osm_relation":true,"name":"Linia kolejowa nr 370 Zielona G\u00f3ra - \u017bary"},"arcs":[20]},{"type":"LineString","properties":{"kind":"train","network":"Verkehrsverbund Berlin-Brandenburg","service":"regional","sort_rank":275,"colour":"#59FF00","name":"RB60: Frankfurt (Oder) => Eberswalde","source":"openstreetmap.org","min_zoom":6.0,"operator":"NEB Betriebsgesellschaft mbH","ref":"RB60","id":-373297,"osm_relation":true,"colour_name":"limegreen"},"arcs":[21]},{"type":"MultiLineString","properties":{"kind":"train","name":"Frankfurt (Oder) - Pozna\u0144","sort_rank":275,"name:de":"Frankfurt (Oder) - Posen","source":"openstreetmap.org","min_zoom":6.0,"operator":"PKP","name:pl":"Linia Frankfurt nad Odr\u0105 - Pozna\u0144","ref":"RB91","osm_relation":true},"arcs":[[22],[23],[24],[25],[26],[27],[28],[29]]},{"type":"LineString","properties":{"kind":"train","network":"Verkehrsverbund Berlin-Brandenburg","sort_rank":275,"colour":"#90244B","name":"RB 49: Falkenberg (Elster) => Cottbus, Hauptbahnhof","source":"openstreetmap.org","min_zoom":6.0,"operator":"DB Regio","ref":"RB49","id":-3490565,"osm_relation":true,"colour_name":"brown"},"arcs":[30]},{"type":"MultiLineString","properties":{"kind":"train","network":"Verkehrsverbund Berlin-Brandenburg","sort_rank":275,"colour":"#FF0000","name":"RE 1: Magdeburg => Brandenburg => Berlin => Frankfurt (O) => Eisenh\u00fcttenstadt","source":"openstreetmap.org","min_zoom":6.0,"operator":"DB Regio Nordost","ref":"RE 1","osm_relation":true,"colour_name":"red"},"arcs":[[31],[32],[33],[34],[35],[36],[37]]},{"type":"MultiLineString","properties":{"kind":"train","name":"EC95 Warszawa - Berlin","service":"international","sort_rank":275,"source":"openstreetmap.org","min_zoom":5.0,"operator":"DB Fernverkehr AG;PKP","ref":"EC95","osm_relation":true,"network":"DB InterCity;EuroCity"},"arcs":[[38],[39]]},{"type":"MultiLineString","properties":{"kind":"train","network":"Verkehrsverbund Berlin-Brandenburg","sort_rank":275,"colour":"#399FDF","name":"RB 11: Frankfurt (Oder) => Cottbus, Hauptbahnhof","source":"openstreetmap.org","min_zoom":6.0,"operator":"DB Regio","ref":"RB 11","osm_relation":true,"colour_name":"dodgerblue"},"arcs":[[40],[41]]},{"type":"MultiLineString","properties":{"kind":"train","network":"Verkehrsverbund Berlin-Brandenburg","service":"regional","sort_rank":275,"colour":"#FFE600","name":"RE2: Wismar => Cottbus","source":"openstreetmap.org","min_zoom":6.0,"operator":"Ostdeutsche Eisenbahn Gesellschaft","ref":"RE2","osm_relation":true,"colour_name":"gold"},"arcs":[[42],[43],[44],[45]]},{"type":"MultiLineString","properties":{"kind":"train","network":"Verkehrsverbund Berlin-Brandenburg; Mitteldeutscher Verkehrsverbund","service":"regional","sort_rank":275,"colour":"#A05936","name":"RE10: Cottbus => Leipzig Hbf","source":"openstreetmap.org","min_zoom":6.0,"operator":"DB Regio S\u00fcdost","ref":"RE10","osm_relation":true,"colour_name":"brown"},"arcs":[[46],[47]]},{"type":"LineString","properties":{"kind":"train","network":"PKP","sort_rank":275,"source":"openstreetmap.org","min_zoom":6.0,"operator":"PKP Polskie Linie Koejowe S.A.","ref":"436","id":-5956753,"osm_relation":true,"name":"Linia kolejowa nr 436 Czerwie\u0144sk Po\u0142udnie - Czerwie\u0144sk Wsch\u00f3d"},"arcs":[48]},{"type":"LineString","properties":{"kind":"train","network":"DB InterCity","service":"long_distance","sort_rank":275,"source":"openstreetmap.org","min_zoom":5.0,"operator":"DB Fernverkehr AG","ref":"IC 56","id":-2500638,"osm_relation":true,"name":"IC 56: Norddeich => Cottbus"},"arcs":[49]},{"type":"MultiLineString","properties":{"source":"openstreetmap.org","kind":"train","name":"Line 358","sort_rank":275,"ref":"358","min_zoom":6.0,"osm_relation":true},"arcs":[[50],[51],[52],[53],[54]]},{"type":"LineString","properties":{"kind":"train","network":"VVO;Verkehrsverbund Berlin-Brandenburg","service":"regional","sort_rank":275,"colour":"#0474EC","name":"RE18: Cottbus => Ruhland => Gro\u00dfenhain => Dresden","source":"openstreetmap.org","min_zoom":6.0,"operator":"DB Regio Nordost","ref":"RE18","id":-2046557,"osm_relation":true,"colour_name":"dodgerblue"},"arcs":[55]},{"type":"MultiLineString","properties":{"kind":"train","network":"Verkehrsverbund Berlin-Brandenburg; Mitteldeutscher Verkehrsverbund","service":"regional","sort_rank":275,"colour":"#A05936","name":"RE10: Leipzig Hbf => Cottbus","source":"openstreetmap.org","min_zoom":6.0,"operator":"DB Regio Nordost","ref":"RE10","osm_relation":true,"colour_name":"brown"},"arcs":[[56],[57]]},{"type":"MultiLineString","properties":{"kind":"train","name":"EC95 Berlin - Warszawa","service":"international","sort_rank":275,"source":"openstreetmap.org","min_zoom":5.0,"operator":"DB Fernverkehr AG;PKP","ref":"EC95","osm_relation":true,"network":"DB InterCity;EuroCity"},"arcs":[[58],[59]]},{"type":"MultiLineString","properties":{"kind":"train","name":"Forst - \u017baga\u0144","sort_rank":275,"name:de":"Forst - Sagan","source":"openstreetmap.org","min_zoom":6.0,"operator":"Deutsche Bahn","ref":"RB93","osm_relation":true},"arcs":[[60],[61]]},{"type":"MultiLineString","properties":{"kind":"train","network":"Verkehrsverbund Berlin-Brandenburg","sort_rank":275,"colour":"#E64DFF","name":"RB46:Forst(Lausitz) => Cottbus, Hauptbahnhof","source":"openstreetmap.org","min_zoom":6.0,"operator":"Ostdeutsche Eisenbahn","ref":"RB46","osm_relation":true,"colour_name":"violet"},"arcs":[[62],[63],[64],[65]]},{"type":"LineString","properties":{"kind":"train","name":"D19 Wegliniec - Zielona Gora","sort_rank":275,"source":"openstreetmap.org","min_zoom":6.0,"operator":"PKP Polskie Linie Kolejowe S.A.","ref":"356","osm_relation":true,"description":"some services continue from Wegliniec to Luban Slaski and Jelenia Gora"},"arcs":[66]},{"type":"MultiLineString","properties":{"kind":"train","network":"Verkehrsverbund Berlin-Brandenburg","sort_rank":275,"colour":"#399FDF","name":"RB 11: Cottbus, Hauptbahnhof => Frankfurt (Oder)","source":"openstreetmap.org","min_zoom":6.0,"operator":"DB Regio","ref":"RB 11","osm_relation":true,"colour_name":"dodgerblue"},"arcs":[[67],[68]]},{"type":"MultiLineString","properties":{"kind":"train","network":"Verkehrsverbund Berlin-Brandenburg","service":"regional","sort_rank":275,"colour":"#994D19","name":"RB36: K\u00f6nigs Wusterhausen => Frankfurt (Oder)","source":"openstreetmap.org","min_zoom":6.0,"operator":"NEB Betriebsgesellschaft mbH","ref":"RB36","osm_relation":true,"colour_name":"brown"},"arcs":[[69],[70],[71],[72],[73],[74],[75],[76]]},{"type":"LineString","properties":{"kind":"train","name":"EN 452 : Moscou \u2212 Berlin \u2212 Paris","service":"international","sort_rank":275,"source":"openstreetmap.org","min_zoom":5.0,"operator":"\u0420\u043e\u0441\u0441\u0438\u0439\u0441\u043a\u0438\u0435 \u0436\u0435\u043b\u0435\u0437\u043d\u044b\u0435 \u0434\u043e\u0440\u043e\u0433\u0438","ref":"EN 452","osm_relation":true,"network":"EuroNight"},"arcs":[77]},{"type":"MultiLineString","properties":{"kind":"train","network":"Verkehrsverbund Berlin-Brandenburg","service":"regional","sort_rank":275,"colour":"#994D19","name":"RB36: Frankfurt (Oder) => K\u00f6nigs Wusterhausen","source":"openstreetmap.org","min_zoom":6.0,"operator":"NEB Betriebsgesellschaft mbH","ref":"RB36","osm_relation":true,"colour_name":"brown"},"arcs":[[78],[79],[80],[81],[82],[83],[84],[85]]},{"type":"LineString","properties":{"kind":"train","network":"Verkehrsverbund Berlin-Brandenburg","service":"regional","sort_rank":275,"colour":"#59FF00","name":"RB60: Eberswalde => Frankfurt (Oder)","source":"openstreetmap.org","min_zoom":6.0,"operator":"NEB Betriebsgesellschaft mbH","ref":"RB60","id":-7711812,"osm_relation":true,"colour_name":"limegreen"},"arcs":[86]},{"type":"LineString","properties":{"kind":"train","name:en":"EN 453 : Paris \u2212 Berlin \u2212 Moscow","network":"EuroNight","service":"international","sort_rank":275,"source":"openstreetmap.org","min_zoom":5.0,"operator":"\u0420\u043e\u0441\u0441\u0438\u0439\u0441\u043a\u0438\u0435 \u0436\u0435\u043b\u0435\u0437\u043d\u044b\u0435 \u0434\u043e\u0440\u043e\u0433\u0438","ref":"EN 453","osm_relation":true,"name":"EN 453 : Paris \u2212 Berlin \u2212 Moscou"},"arcs":[87]},{"type":"MultiLineString","properties":{"kind":"train","network":"Verkehrsverbund Berlin-Brandenburg","sort_rank":275,"colour":"#FF0000","name":"RE 1: Eisenh\u00fcttenstadt => Frankfurt (O) => Berlin => Brandenburg => Magdeburg","source":"openstreetmap.org","min_zoom":6.0,"operator":"DB Regio Nordost","ref":"RE 1","osm_relation":true,"colour_name":"red"},"arcs":[[88],[89],[90],[91],[92],[93],[94]]},{"type":"MultiLineString","properties":{"kind":"train","name":"Linia kolejowa nr 273 Wroc\u0142aw G\u0142\u00f3wny - Szczecin G\u0142\u00f3wny","sort_rank":275,"source":"openstreetmap.org","min_zoom":6.0,"operator":"PKP Polskie Linie Kolejowe S.A.","ref":"273","osm_relation":true,"network":"PKP"},"arcs":[[95],[96]]},{"type":"LineString","properties":{"kind":"train","network":"Verkehrsverbund Berlin-Brandenburg","sort_rank":275,"colour":"#90244B","name":"RB 49: Cottbus, Hauptbahnhof => Falkenberg (Elster)","source":"openstreetmap.org","min_zoom":6.0,"operator":"DB Regio","ref":"RB49","id":-377879,"osm_relation":true,"colour_name":"brown"},"arcs":[97]},{"type":"MultiLineString","properties":{"kind":"train","network":"Verkehrsverbund Berlin-Brandenburg","service":"regional","sort_rank":275,"colour":"#FFE600","name":"RE2: Cottbus => Wismar","source":"openstreetmap.org","min_zoom":6.0,"operator":"Ostdeutsche Eisenbahn Gesellschaft","ref":"RE2","osm_relation":true,"colour_name":"gold"},"arcs":[[98],[99],[100],[101]]},{"type":"LineString","properties":{"kind":"train","network":"VVO;Verkehrsverbund Berlin-Brandenburg","service":"regional","sort_rank":275,"colour":"#0474EC","name":"RE18: Dresden => Gro\u00dfenhain => Ruhland => Cottbus","source":"openstreetmap.org","min_zoom":6.0,"operator":"DB Regio Nordost","ref":"RE18","id":-3705112,"osm_relation":true,"colour_name":"dodgerblue"},"arcs":[102]},{"type":"MultiLineString","properties":{"kind":"train","name":"OE65: Cottbus => Zittau","service":"regional","sort_rank":275,"colour":"#0080FF","source":"openstreetmap.org","min_zoom":6.0,"network":"Verkehrsverbund Berlin-Brandenburg;ZVON","operator":"Ostdeutsche Eisenbahn Gesellschaft","ref":"OE65","osm_relation":true,"colour_name":"dodgerblue"},"arcs":[[103],[104]]},{"type":"MultiLineString","properties":{"kind":"train","network":"Verkehrsverbund Berlin-Brandenburg","sort_rank":275,"colour":"#E64DFF","name":"RB46:Cottbus, Hauptbahnhof => Forst(Lausitz)","source":"openstreetmap.org","min_zoom":6.0,"operator":"Ostdeutsche Eisenbahn","ref":"RB46","osm_relation":true,"colour_name":"violet"},"arcs":[[105],[106],[107],[108]]},{"type":"MultiLineString","properties":{"kind":"train","network":"Verkehrsverbund Berlin-Brandenburg","service":"regional","sort_rank":275,"colour":"#5C64B8","name":"RB43: Cottbus => Falkenberg (Elster)","source":"openstreetmap.org","min_zoom":6.0,"operator":"DB Regio AG","ref":"RB43","osm_relation":true,"colour_name":"steelblue"},"arcs":[[109],[110],[111]]}]},"pois":{"type":"GeometryCollection","geometries":[{"type":"Point","properties":{"kind":"protected_area","protect_class":"24","area":6509100000,"source":"openstreetmap.org","min_zoom":7.0,"tier":2,"id":-6001479,"osm_relation":true,"name":"anerkanntes sorbisches Siedlungsgebiet"},"coordinates":[447,966]},{"type":"Point","properties":{"kind":"protected_area","name":"W\u00fcste","area":21572500,"source":"openstreetmap.org","min_zoom":8.0,"tier":2,"id":-5927438,"osm_relation":true},"coordinates":[890,1500]},{"type":"Point","properties":{"kind":"protected_area","name":"Schie\u00dfbahn","area":50257700,"source":"openstreetmap.org","min_zoom":8.0,"tier":2,"id":-5927437,"osm_relation":true},"coordinates":[662,1462]},{"type":"Point","properties":{"kind":"protected_area","protect_class":"4","area":176925000,"source":"openstreetmap.org","min_zoom":7.0,"tier":2,"id":-5873810,"osm_relation":true,"name":"Lieberoser Endmor\u00e4ne"},"coordinates":[740,1505]},{"type":"Point","properties":{"kind":"protected_area","protect_class":"4","area":10223100,"source":"openstreetmap.org","min_zoom":8.0,"tier":2,"id":-5869622,"osm_relation":true,"name":"Biotopverbund Spreeaue"},"coordinates":[917,403]},{"type":"Point","properties":{"kind":"protected_area","tier":2,"protect_class":"4","area":22452200,"source":"openstreetmap.org","min_zoom":8.0,"operator":"Land Brandenburg","id":-4763316,"osm_relation":true,"name":"Byhleguhrer See"},"coordinates":[275,1328]},{"type":"Point","properties":{"kind":"nature_reserve","name:en":"\u0141ag\u00f3w Landscape Park","protect_class":"5","area":124719000,"name:de":"Landschaftsschutzpark \u0141ag\u00f3w","source":"openstreetmap.org","min_zoom":8.81,"tier":2,"id":-4524597,"osm_relation":true,"name":"\u0141agowsko-Sul\u0119ci\u0144ski Park Krajobrazowy"},"coordinates":[3595,3500]},{"type":"Point","properties":{"kind":"nature_reserve","protect_class":"5","area":226500000,"name:de":"Landschaftsschutzpark Kr\u00e4sen","source":"openstreetmap.org","min_zoom":8.38,"tier":2,"id":-4524308,"osm_relation":true,"name":"Krzesi\u0144ski Park Krajobrazowy"},"coordinates":[2205,2142]},{"type":"Point","properties":{"source":"openstreetmap.org","kind":"military","name":"ehem. Munitions-Hauptdepot Weichensdorf","area":15109200,"tier":3,"min_zoom":8.0,"id":99218984},"coordinates":[935,2107]}]},"boundaries":{"type":"GeometryCollection","geometries":[{"type":"LineString","properties":{"name:right:yo":"Polandi","name:right:yi":"\u05e4\u05d5\u05d9\u05dc\u05df","name:left:la":"Germania","name:right:qu":"Pulunya","name:left:pl":"Niemcy","name:left:li":"Duutsjlandj","name:left:vi":"\u0110\u1ee9c","name:left:sw":"Ujerumani","name:left:kg":"Alemanyi","name:left:ka":"\u10d2\u10d4\u10e0\u10db\u10d0\u10dc\u10d8\u10d0","name:left:km":"\u17a2\u17b6\u179b\u17d2\u179b\u17ba\u1798\u17c9\u1784\u17cb","name:left:kl":"Tyskit Nunaat","name:left:ko":"\ub3c5\uc77c","name:left:kn":"\u0c9c\u0cb0\u0ccd\u0cae\u0ca8\u0cbf","name:left:ki":"Germany","name:left:ro":"Germania","name:left:kk":"\u0413\u0435\u0440\u043c\u0430\u043d\u0438\u044f \u0424\u0435\u0434\u0435\u0440\u0430\u0442\u0438\u0432\u0442\u0456\u043a \u0420\u0435\u0441\u043f\u0443\u0431\u043b\u0438\u043a\u0430\u0441\u044b","name:left:rm":"Germania","name:left:ku":"Almanya","name:left:kw":"Almayn","name:left:kv":"\u0413\u0435\u0440\u043c\u0430\u043d\u0438\u044f","name:right:rn":"Polonia","name:right:ro":"Polonia","name:left:ru":"\u0413\u0435\u0440\u043c\u0430\u043d\u0438\u044f","name:right:ig":"Poland","name:right:ie":"Polonia","name:right:id":"Polandia","name:left:ky":"\u0413\u0435\u0440\u043c\u0430\u043d\u0438\u044f","name:right:ia":"Polonia","name:right:bi":"Poland","name:right:bn":"\u09aa\u09cb\u09b2\u09cd\u09af\u09be\u09a8\u09cd\u09a1","name:right:bo":"\u0f55\u0f7c\u0f0b\u0f63\u0f53\u0f0d","name:left:sl":"Nem\u010dija","name:right:ba":"\u041f\u043e\u043b\u044c\u0448\u0430","name:right:bg":"\u041f\u043e\u043b\u0448\u0430","name:right:be":"\u041f\u043e\u043b\u044c\u0448\u0447\u0430","name:right:br":"Polonia","name:left:lt":"Vokietija","name:right:nn":"Polen","name:right:no":"Polen","name:right:nl":"Polen","name:right:wa":"Pologne","name:left:lv":"V\u0101cija","name:right:wo":"Polo\u00f1","name:right:ne":"\u092a\u094b\u0932\u094d\u092f\u093e\u0923\u094d\u0921","name:right:na":"Poran","name:right:gv":"Yn Pholynn","name:right:nv":"P\u00f3olish Dine\u02bc\u00e9 Bik\u00e9yah","name:left:mg":"Alemaina","kind_detail":"2","name:left:tr":"Almanya","name:right:gu":"\u0aaa\u0acb\u0ab2\u0ac7\u0a82\u0aa1","name:left:ty":"Heremani","name:right:ps":"\u067e\u0648\u0644\u0646\u0689","name:right:pt":"Pol\u00f3nia","name:left:mk":"\u0413\u0435\u0440\u043c\u0430\u043d\u0438\u0458\u0430","name:left:mi":"Tiamana","name:left:ts":"Jarimani","name:left:tt":"\u0410\u043b\u043c\u0430\u043d\u0438\u044f","name:left:mn":"\u0413\u0435\u0440\u043c\u0430\u043d","name:left:tw":"Gyaaman","name:left:th":"\u0e1b\u0e23\u0e30\u0e40\u0e17\u0e28\u0e40\u0e22\u0e2d\u0e23\u0e21\u0e19\u0e35","name:left:mr":"\u091c\u0930\u094d\u092e\u0928\u0940","name:left:tk":"Germani\u00fda","name:left:tl":"Alemanya","name:left:mt":"\u0120ermanja","name:right:gl":"Polonia","name:left:my":"\u1002\u103b\u102c\u1019\u1014\u102e\u1014\u102d\u102f\u1004\u103a\u1004\u1036","name:right:gn":"Polo\u00f1a","name:left:te":"\u0c1c\u0c30\u0c4d\u0c2e\u0c28\u0c40","name:left:tg":"\u041e\u043b\u043c\u043e\u043d","name:left:ms":"Jerman","name:left:ti":"\u1300\u122d\u1218\u1295","name:right:tr":"Polonya","name:left:da":"Tyskland","name:left:dz":"\u0f47\u0f71\u0f62\u0f0b\u0f58\u0f0b\u0f53\u0f72","name:right:ga":"An Pholainn","name:left:dv":"\u0796\u07a6\u0783\u07aa\u0789\u07a6\u0782\u07aa\u0788\u07a8\u078d\u07a7\u078c\u07b0","name:right:lg":"Bupoolo","name:right:ug":"\u067e\u0648\u0644\u0634\u0627","name:left:hi":"\u091c\u0930\u094d\u092e\u0928\u0940","name:right:lb":"Polen","name:right:uk":"\u041f\u043e\u043b\u044c\u0449\u0430","name:left:he":"\u05d2\u05e8\u05de\u05e0\u05d9\u05d4","name:right:ln":"Poloni","name:left:ha":"Jamus","name:right:lt":"Lenkija","name:right:ur":"\u067e\u0648\u0644\u06cc\u0646\u0688","name:right:lv":"Polija","name:left:hy":"\u0533\u0565\u0580\u0574\u0561\u0576\u056b\u0561","name:left:ta":"\u0b9a\u0bc6\u0bb0\u0bc1\u0bae\u0ba9\u0bbf","name:left:ht":"Almay","name:left:hu":"N\u00e9metorsz\u00e1g","name:left:hr":"Njema\u010dka","sort_rank":262,"name:right:gd":"A' Ph\u00f2lainn","name:right:os":"\u041f\u043e\u043b\u044c\u0448\u00e6","name:right:es":"Polonia","name:right:sr":"\u041f\u043e\u0459\u0441\u043a\u0430","name:right:eu":"Polonia","name:right:et":"Poola","name:left:os":"\u0413\u0435\u0440\u043c\u0430\u043d","name:left:or":"\u0b1c\u0b30\u0b4d\u0b2e\u0b3e\u0b28\u0b40","name:right:pa":"\u0a2a\u0a4b\u0a32\u0a48\u0a02\u0a21","name:right:ee":"Poland","name:left:vo":"Deut\u00e4n","name:left:oc":"Alemanha","name:right:eo":"Polujo","name:right:en":"Poland","name:right:el":"\u03a0\u03bf\u03bb\u03c9\u03bd\u03af\u03b1","name:left:ff":"Almaanya","name:left:fa":"\u0622\u0644\u0645\u0627\u0646","name:left:fo":"T\u00fdskland","name:right:sk":"Po\u013esko","name:left:fi":"Saksa","name:left:fr":"Allemagne","name:left:cs":"N\u011bmecko","name:right:jv":"Polandia","name:left:fy":"D\u00fatsl\u00e2n","name:right:ja":"\u30dd\u30fc\u30e9\u30f3\u30c9","name:right:sq":"Polonia","name:right:ss":"IPholandi","name:left:ja":"\u30c9\u30a4\u30c4","name:right:su":"Polandia","name:right:st":"Poland","name:right:sw":"Poland","name:right:sv":"Polen","name:right:si":"\u0db4\u0ddd\u0dbd\u0db1\u0dca\u0dad\u0dba","name:right:sh":"Poljska","name:left:qu":"Alimanya","name:right:sm":"Polagi","name:right:sl":"Poljska","name:right:so":"Boland","name:right:sa":"\u092a\u094b\u0932\u0948\u0902\u0921","name:right:sc":"Polonia","name:left:jv":"Jerman","id":-51477,"name:right:sg":"P\u00f6l\u00f4ni","name:right:co":"Polonia","name:right:ca":"Pol\u00f2nia","name:right:ce":"\u041f\u043e\u043b\u044c\u0448\u0430","name:right:cy":"Gwlad Pwyl","name:right:zh-yue":"\u6ce2\u862d","name:right:cs":"Polsko","name:right":"Polska","name:right:cu":"\u041f\u043e\u043b\u0484\u044c\u0441\u043a\u0430","name:right:iu":"\u1433\u14da\u14d0\u1466","name:right:cv":"\u041f\u043e\u043b\u044c\u0448\u0430","name:left:av":"\u0410\u043b\u043c\u0430\u043d\u0438\u044f","name:right:it":"Polonia","name:left:ar":"\u0623\u0644\u0645\u0627\u0646\u064a\u0627","name:right:is":"P\u00f3lland","name:left:az":"Almaniya","name:left:ay":"Alima\u00f1a","name:right:rw":"Polonye","name:left:af":"Duitsland","name:left:ab":"\u0410\u043b\u043c\u0430\u043d\u0442\u04d9\u044b\u043b\u0430","name:left:an":"Alemanya","name:left:am":"\u1300\u122d\u1218\u1295","name:right:ru":"\u041f\u043e\u043b\u044c\u0448\u0430","name:left:ak":"Germany","name:right:io":"Polonia","name:left:xh":"IJamani","name:left:zh-yue":"\u5fb7\u570b","name:left:rw":"Ubudage","name:right:hy":"\u053c\u0565\u0570\u0561\u057d\u057f\u0561\u0576","name:left:lb":"D\u00e4itschland","alt_name:left:eo":"Germanio","name:left:lg":"Girimane","name:left:su":"J\u00e9rman","int_name:left":"Germany","name:right:hr":"Poljska","name:left:sv":"Tyskland","name:left:sq":"Gjermania","name:right:hu":"Lengyelorsz\u00e1g","name:left:ss":"IJalimane","name:left:sr":"\u041d\u0435\u043c\u0430\u0447\u043a\u0430","name:left:sm":"Siamani","name:right:hi":"\u092a\u094b\u0932\u0948\u0902\u0921","name:left:so":"Jarmalka","name:left:si":"\u0da2\u0dbb\u0dca\u0db8\u0db1\u0dd2\u0dba","name:left:sh":"Nema\u010dka","name:left:sk":"Nemecko","name:left:se":"Duiska","name:right:ha":"Poland","name:left:sa":"\u091c\u0930\u094d\u092e\u0928\u0940","name:right:he":"\u05e4\u05d5\u05dc\u05d9\u05df","name:left:sc":"Germ\u00e0nia","name:right:la":"Polonia","name:right:af":"Pole","name:left:co":"Germania","name:right:ab":"\u041f\u043e\u043b\u0448\u0430","name:left:ce":"\u0413\u0435\u0440\u043c\u0430\u043d\u0438","name:right:an":"Polonia","name:right:am":"\u1356\u120b\u1295\u12f5","name:left:ca":"Alemanya","source":"openstreetmap.org","name:left:cy":"Yr Almaen","name:right:ar":"\u0628\u0648\u0644\u0646\u062f\u0627","name:left:cu":"\u041d\u0463\u043c\u044c\u0446\u0438","name:left:cv":"\u0413\u0435\u0440\u043c\u0430\u043d\u0438","name:right:az":"Pol\u015fa","name:right:ay":"Pulu\u00f1a","name:right:ak":"Poland","name:right:li":"Pole","name:right:rm":"Pologna","name":"Deutschland - Polska","name:right:zu":"IPolandi","name:left:zu":"IJalimani","name:left:zh":"\u5fb7\u56fd","name:right:zh":"\u6ce2\u5170","name:left:za":"Dwzgoz","official_name:left":"Bundesrepublik Deutschland","name:left:uz":"Olmoniya","name:right:fr":"Pologne","name:left:ps":"\u0622\u0644\u0645\u0627\u0646","name:left:nv":"B\u00e9\u00e9sh Bich\u02bcahii Bik\u00e9yah","name:left:ur":"\u062c\u0631\u0645\u0646\u06cc","id:right":-49715,"name:left:uk":"\u041d\u0456\u043c\u0435\u0447\u0447\u0438\u043d\u0430","name:left:no":"Tyskland","name:left:nl":"Duitsland","alt_name:right:eo":"Pollando;Polio","name:right:fa":"\u0644\u0647\u0633\u062a\u0627\u0646","name:right:fo":"P\u00f3lland","name:left:ne":"\u091c\u0930\u094d\u092e\u0928\u0940","name:left:ug":"\u06af\u06d0\u0631\u0645\u0627\u0646\u0649\u064a\u06d5","name:left:na":"Djermani","name:left:ml":"\u0d1c\u0d7c\u0d2e\u0d4d\u0d2e\u0d28\u0d3f","name:left:eo":"Germanujo","name:left:en":"Germany","name:left:el":"\u0393\u03b5\u03c1\u03bc\u03b1\u03bd\u03af\u03b1","name:left:ee":"Germany","name:right:tt":"\u041f\u043e\u043b\u044c\u0448\u0430","name:left:es":"Alemania","name:left:ie":"Germania","name:left:eu":"Alemania","name:left:et":"Saksamaa","name:right:oc":"Polonha","name:left:ia":"Germania","name:right:bs":"Poljska","short_name:right":"RP","name:right:uz":"Polsha","osm_relation":true,"name:right:or":"\u0b2a\u0b4b\u0b32\u0b3e\u0b23\u0b4d\u0b21","name:left:pt":"Alemanha","name:right:ku":"Polonya","name:right:tk":"Pol\u015fa","name:left:wa":"Almagne","min_zoom":8.0,"name:left:zh-min-nan":"Tek-kok","name:left:ln":"Al\u00e9mani","name:left:wo":"Almaa\u00f1","name:left:ga":"An Ghearm\u00e1in","name:left:it":"Germania","name:left:gd":"A' Ghearmailt","name:left:gl":"Alema\u00f1a","name:left:gn":"Alema\u00f1a","name:left:gu":"\u0a9c\u0ab0\u0acd\u0aae\u0aa8\u0ac0","name:left:gv":"Yn Ghermaan","name:left:lo":"\u0e9b\u0eb0\u0ec0\u0e97\u0e94\u0ec0\u0ea2\u0eb1\u0ebd\u0ea5\u0eb0\u0ea1\u0eb1\u0e99","name:left":"Deutschland","name:right:mk":"\u041f\u043e\u043b\u0441\u043a\u0430","name:right:mi":"P\u014drana","name:right:mn":"\u041f\u043e\u043b\u044c\u0448","name:right:ml":"\u0d2a\u0d4b\u0d33\u0d23\u0d4d\u0d1f\u0d4d","name:right:vo":"Pol\u00e4n","name:right:mg":"Polonia","name:right:vi":"Ba Lan","official_name:right":"Rzeczpospolita Polska","name:right:my":"\u1015\u102d\u102f\u101c\u1014\u103a\u1014\u102d\u102f\u1004\u103a\u1004\u1036","name:right:ms":"Poland","name:right:mr":"\u092a\u094b\u0932\u0902\u0921","name:right:fy":"Poalen","name:right:mt":"Polonja","name:left:nn":"Tyskland","kind":"country","name:left:br":"Alamagn","name:left:bs":"Njema\u010dka","name:left:ba":"\u0413\u0435\u0440\u043c\u0430\u043d\u0438\u044f","name:left:bg":"\u0413\u0435\u0440\u043c\u0430\u043d\u0438\u044f","name:left:be":"\u0413\u0435\u0440\u043c\u0430\u043d\u0456\u044f","name:right:ff":"Poloonya","name:left:bi":"Germany","name:left:bn":"\u099c\u09be\u09b0\u09cd\u09ae\u09be\u09a8\u09bf","name:left:bo":"\u0f60\u0f47\u0f62\u0f0b\u0f58\u0f53\u0f0d","name:left:bm":"Jermani","name:left:yo":"J\u1eb9\u0301m\u00e1n\u00ec","name:left:yi":"\u05d3\u05d9\u05d9\u05d8\u05e9\u05dc\u05d0\u05e0\u05d3","id:left":-51477,"name:right:fi":"Puola","name:right:ka":"\u10de\u10dd\u10da\u10dd\u10dc\u10d4\u10d7\u10d8","name:left:io":"Germania","name:left:pa":"\u0a1c\u0a30\u0a2e\u0a28\u0a40","name:right:kg":"Pologne","name:left:ig":"J\u00e9man\u1ecb","name:right:kk":"\u041f\u043e\u043b\u044c\u0448\u0430","name:left:id":"Jerman","name:right:km":"\u1794\u17d2\u179a\u1791\u17c1\u179f\u1794\u17c9\u17bc\u17a1\u17bc\u1789","name:right:kl":"Poleni","name:right:ko":"\ud3f4\ub780\ub4dc","name:right:kn":"\u0caa\u0ccb\u0cb2\u0cc6\u0c82\u0ca1\u0ccd","name:right:tl":"Polonya","name:right:th":"\u0e1b\u0e23\u0e30\u0e40\u0e17\u0e28\u0e42\u0e1b\u0e41\u0e25\u0e19\u0e14\u0e4c","name:right:kw":"Poloni","name:right:kv":"\u041f\u043e\u043b\u044c\u0448\u0430","name:right:ky":"\u041f\u043e\u043b\u044c\u0448\u0430","name:right:te":"\u0c2a\u0c4b\u0c32\u0c3e\u0c02\u0c21\u0c4d","name:left:iu":"\u152e\u14aa\u14c2","name:right:tg":"\u041b\u0430\u04b3\u0438\u0441\u0442\u043e\u043d","name:left:is":"\u00de\u00fdskaland","name:right:ta":"\u0baa\u0bcb\u0bb2\u0ba8\u0bcd\u0ba4\u0bc1","name:right:de":"Polen","name:right:da":"Polen","name:left:rn":"Ubudagi","name:right:dv":"\u0795\u07ae\u078d\u07ac\u0782\u07b0\u0791\u07aa","name:right:ht":"Pol\u00f2y"},"arcs":[0]},{"type":"LineString","properties":{"name:right:hy":"\u0532\u0580\u0561\u0576\u0564\u0565\u0576\u0562\u0578\u0582\u0580\u0563","alt_name:left:en":"Lubusz Province","name:right:yi":"\u05d1\u05e8\u05d0\u05e0\u05d3\u05e0\u05d1\u05d5\u05e8\u05d2","name:right:uk":"\u0411\u0440\u0430\u043d\u0434\u0435\u043d\u0431\u0443\u0440\u0433","name:right:li":"Brandeburg","name:right:lt":"Brandenburgas","name:right:hi":"\u092c\u094d\u0930\u0948\u0902\u0921\u0947\u0928\u092c\u0930\u094d\u0917","min_zoom":8.0,"name:left:lt":"Liubu\u0161o vaivadija","alt_name:left:es":"Voivodato de Lubusz","name:right:fr":"Brandebourg","name:right:he":"\u05d1\u05e8\u05e0\u05d3\u05e0\u05d1\u05d5\u05e8\u05d2","name:right:la":"Brandenburgum","name:right:os":"\u0411\u0440\u0430\u043d\u0434\u0435\u043d\u0431\u0443\u0440\u0433","short_name:left":"lubuskie","sort_rank":256,"name:right:an":"Brandemburgo","name:right:am":"\u1265\u122b\u1295\u12f0\u1295\u1261\u122d\u130d","source":"openstreetmap.org","name:right:ar":"\u0628\u0631\u0627\u0646\u062f\u0646\u0628\u0648\u0631\u063a","alt_name:right:cs":"Zem\u011b Braniborsko","name:right:az":"Brandenburq","name:left:cs":"Lubu\u0161sk\u00e9 vojvodstv\u00ed","name:left":"wojew\u00f3dztwo lubuskie","name:right:mk":"\u0411\u0440\u0430\u043d\u0434\u0435\u043d\u0431\u0443\u0440\u0433","name:right:ne":"\u092c\u094d\u0930\u093e\u0928\u094d\u0921\u0947\u0928\u092c\u0930\u094d\u0917","name:right:mn":"\u0411\u0440\u0430\u043d\u0434\u0435\u043d\u0431\u0443\u0440\u0433","name:right:eu":"Brandenburgo","name:right:vo":"Brand\u00e4nburg\u00e4n","name:right:it":"Brandeburgo","name:right:is":"Brandenborg","name:right:ru":"\u0411\u0440\u0430\u043d\u0434\u0435\u043d\u0431\u0443\u0440\u0433","name:left:ru":"\u041b\u044e\u0431\u0443\u0441\u043a\u043e\u0435 \u0432\u043e\u0435\u0432\u043e\u0434\u0441\u0442\u0432\u043e","name:right:mr":"\u092c\u094d\u0930\u093e\u0902\u0921\u0947\u0928\u092c\u0941\u0930\u094d\u0917","name:right:ie":"Brandenburgia","id:right":-62504,"name:right:eo":"Brandenburgio","name:right:ia":"Brandeburgo","name:right:el":"\u0392\u03c1\u03b1\u03bd\u03b4\u03b5\u03bc\u03b2\u03bf\u03cd\u03c1\u03b3\u03bf","kind":"region","name:right:bn":"\u09ac\u09cd\u09b0\u09be\u09a8\u09cd\u09a1\u09c7\u09a8\u09ac\u09c1\u09b0\u09cd\u0997","name":"wojew\u00f3dztwo lubuskie - Brandenburg","name:left:sl":"Lubu\u0161ko vojvodstvo","name:right:ba":"\u0411\u0440\u0430\u043d\u0434\u0435\u043d\u0431\u0443\u0440\u0433","name:right:fa":"\u0628\u0631\u0627\u0646\u062f\u0646\u0628\u0648\u0631\u06af","name:right:lv":"Brandenburga","name:right:be":"\u0411\u0440\u0430\u043d\u0434\u044d\u043d\u0431\u0443\u0440\u0433","name:left:fr":"Lubusz","name:right:ay":"Brandenburg suyu","name:right:zh":"\u52c3\u5170\u767b\u5821","name:right:es":"Brandemburgo","name:right:ja":"\u30d6\u30e9\u30f3\u30c7\u30f3\u30d6\u30eb\u30af\u5dde","loc_name:left":"Lubuskie","name:right:sq":"Brandenburgu","name:right:sr":"\u0411\u0440\u0430\u043d\u0434\u0435\u043d\u0431\u0443\u0440\u0433","name:right:fy":"Brandenburch","name:left:uk":"\u041b\u044e\u0431\u0443\u0441\u044c\u043a\u0435 \u0432\u043e\u0454\u0432\u043e\u0434\u0441\u0442\u0432\u043e","name:right:sk":"Brandenbursko","name:left:be":"\u041b\u044e\u0431\u0443\u0448\u0441\u043a\u0430\u0435 \u0432\u0430\u044f\u0432\u043e\u0434\u0441\u0442\u0432\u0430","name:left:ja":"\u30eb\u30d6\u30b7\u30e5\u770c","id":-130969,"name:right":"Brandenburg","name:left:eo":"Lubu\u015da Provinco","name:left:en":"Lubusz Voivodeship","kind_detail":"4","name:right:ce":"\u0411\u0440\u0430\u043d\u0434\u0435\u043d\u0431\u0443\u0440\u0433","name:left:nl":"Woiwodschap Lubusz","id:left":-130969,"name:left:es":"Voivodato de Lubus","name:right:cs":"Braniborsko","name:right:cv":"\u0411\u0440\u0430\u043d\u0434\u0435\u043d\u0431\u0443\u0440\u0433","name:right:ka":"\u10d1\u10e0\u10d0\u10dc\u10d3\u10d4\u10dc\u10d1\u10e3\u10e0\u10d2\u10d8","name:right:ps":"\u0628\u0631\u0627\u0646\u062f\u0646\u0628\u0648\u0631\u06af","name:right:pt":"Brandemburgo","name:right:kk":"\u0411\u0440\u0430\u043d\u0434\u0435\u043d\u0431\u0443\u0440\u0433","name:right:oc":"Brandeborg","name:right:bg":"\u0411\u0440\u0430\u043d\u0434\u0435\u043d\u0431\u0443\u0440\u0433","name:right:tl":"Brandeburgo","name:right:pa":"\u0a2c\u0a4d\u0a30\u0a3e\u0a02\u0a21\u0a28\u0a2c\u0a41\u0a30\u0a15","name:right:th":"\u0e23\u0e31\u0e10\u0e1a\u0e23\u0e31\u0e19\u0e40\u0e14\u0e34\u0e19\u0e1a\u0e27\u0e23\u0e4c\u0e04","name:right:ko":"\ube0c\ub780\ub374\ubd80\ub974\ud06c \uc8fc","name:right:gl":"Brandeburgo","name:right:gn":"Brandeburgo","name:right:pl":"Brandenburgia","osm_relation":true,"name:right:ur":"\u0628\u0631\u0646\u062f\u0646\u0628\u0631\u06af","name:left:de":"Woiwodschaft Lebus"},"arcs":[1]},{"type":"MultiLineString","properties":{"source":"openstreetmap.org","kind":"aboriginal_lands","name":"anerkanntes sorbisches Siedlungsgebiet","sort_rank":250,"min_zoom":8.0,"osm_relation":true,"id":-6001479},"arcs":[[2],[3]]}]},"roads":{"type":"GeometryCollection","geometries":[{"type":"LineString","properties":{"kind":"major_road","network":"Landesstra\u00dfen Brandenburg","sort_rank":380,"kind_detail":"primary","source":"openstreetmap.org","min_zoom":8.0,"landuse_kind":"protected_area","shield_text":"48","ref":"B112"},"arcs":[117]},{"type":"LineString","properties":{"kind":"major_road","network":"pl:national","sort_rank":380,"kind_detail":"primary","source":"openstreetmap.org","min_zoom":8.0,"landuse_kind":"urban_area","shield_text":"92","ref":"92"},"arcs":[118]},{"type":"MultiLineString","properties":{"kind":"minor_road","sort_rank":360,"kind_detail":"residential","is_bicycle_related":true,"bicycle_shield_text":"D12","bicycle_network":"ncn","source":"openstreetmap.org","min_zoom":8.0,"landuse_kind":"residential"},"arcs":[[119],[120],[121],[122]]},{"type":"MultiLineString","properties":{"kind":"major_road","network":"pl:national","sort_rank":380,"kind_detail":"primary","source":"openstreetmap.org","min_zoom":8.0,"shield_text":"27","ref":"27"},"arcs":[[123],[124],[125],[126],[127],[128]]},{"type":"LineString","properties":{"kind":"major_road","network":null,"sort_rank":380,"kind_detail":"primary","is_bicycle_related":true,"cycleway":"shared_lane","source":"openstreetmap.org","min_zoom":8.0,"old_name":"Ernst-Th\u00e4lmann-Stra\u00dfe","shield_text":"246","landuse_kind":"urban_area","ref":"B 246","id":313907058},"arcs":[129]},{"type":"MultiLineString","properties":{"kind":"path","sort_rank":354,"landuse_kind":"nature_reserve","is_bicycle_related":true,"bicycle_shield_text":"D12","bicycle_network":"ncn","source":"openstreetmap.org","min_zoom":8.0,"kind_detail":"track"},"arcs":[[130],[131],[132],[133],[134],[135],[136],[137],[138],[139],[140]]},{"type":"MultiLineString","properties":{"bus_network":"Verkehrsverbund Berlin-Brandenburg","network":null,"sort_rank":380,"kind_detail":"primary","kind":"major_road","source":"openstreetmap.org","min_zoom":8.0,"bus_shield_text":"3N","shield_text":"169","landuse_kind":"protected_area","ref":"B 169"},"arcs":[[141],[142],[143],[144]]},{"type":"MultiLineString","properties":{"kind":"path","sort_rank":354,"landuse_kind":"residential","is_bicycle_related":true,"bicycle_shield_text":"D12","bicycle_network":"ncn","source":"openstreetmap.org","min_zoom":8.0,"kind_detail":"cycleway"},"arcs":[[145],[146]]},{"type":"MultiLineString","properties":{"bus_network":null,"network":"pl:national","sort_rank":381,"landuse_kind":"urban_area","kind":"major_road","source":"openstreetmap.org","min_zoom":8.0,"bus_shield_text":"253","shield_text":"2","kind_detail":"trunk","ref":"2"},"arcs":[[147],[148]]},{"type":"MultiLineString","properties":{"bus_network":"Verkehrsverbund Berlin-Brandenburg","network":null,"sort_rank":380,"kind_detail":"primary","kind":"major_road","source":"openstreetmap.org","min_zoom":8.0,"bus_shield_text":"858","shield_text":"112","ref":"B 112"},"arcs":[[149],[150],[151]]},{"type":"MultiLineString","properties":{"kind":"major_road","network":null,"sort_rank":380,"kind_detail":"primary","source":"openstreetmap.org","min_zoom":8.0,"shield_text":"112","ref":"B 112"},"arcs":[[152],[153],[154],[155],[156],[157],[158],[159],[160],[161],[162],[163]]},{"type":"LineString","properties":{"cycleway_right":"track","network":null,"sort_rank":380,"kind_detail":"primary","is_bicycle_related":true,"kind":"major_road","bicycle_shield_text":"TB","bicycle_network":"rcn","source":"openstreetmap.org","min_zoom":8.0,"shield_text":"168","ref":"B 168"},"arcs":[164]},{"type":"LineString","properties":{"kind":"major_road","sort_rank":380,"landuse_kind":"urban_area","id":4706297,"source":"openstreetmap.org","min_zoom":8.0,"kind_detail":"primary","old_name:de":"Kleine Blumenstra\u00dfe"},"arcs":[165]},{"type":"MultiLineString","properties":{"kind":"major_road","network":"pl:national","sort_rank":381,"kind_detail":"trunk","source":"openstreetmap.org","min_zoom":8.0,"shield_text":"2","ref":"2"},"arcs":[[166],[167]]},{"type":"LineString","properties":{"kind":"major_road","sort_rank":380,"landuse_kind":"urban_area","source":"openstreetmap.org","min_zoom":8.0,"kind_detail":"primary","ref":"B 168","id":6248593},"arcs":[168]},{"type":"MultiLineString","properties":{"kind":"highway","network":"pl:national","sort_rank":383,"kind_detail":"motorway","source":"openstreetmap.org","min_zoom":8.0,"all_networks":["pl:national","e-road","pl:motorways"],"shield_text":"2","ref":"A2","all_shield_texts":["2","30","2"]},"arcs":[[169],[170],[171],[172],[173],[174]]},{"type":"LineString","properties":{"bus_network":"Verkehrsverbund Berlin-Brandenburg","network":null,"sort_rank":380,"kind_detail":"primary","kind":"major_road","source":"openstreetmap.org","min_zoom":8.0,"bus_shield_text":"856","shield_text":"115","ref":"B 115"},"arcs":[175]},{"type":"LineString","properties":{"kind":"major_road","network":null,"sort_rank":381,"landuse_kind":"urban_area","source":"openstreetmap.org","min_zoom":8.0,"kind_detail":"trunk","shield_text":"87","ref":"B 87"},"arcs":[176]},{"type":"LineString","properties":{"kind":"major_road","network":"Landesstra\u00dfen Brandenburg","sort_rank":380,"kind_detail":"primary","source":"openstreetmap.org","min_zoom":8.0,"shield_text":"453","ref":"L 453"},"arcs":[177]},{"type":"MultiLineString","properties":{"kind":"major_road","network":null,"sort_rank":380,"kind_detail":"primary","source":"openstreetmap.org","min_zoom":8.0,"landuse_kind":"residential","shield_text":"320","ref":"B 320"},"arcs":[[178],[179]]},{"type":"MultiLineString","properties":{"source":"openstreetmap.org","kind":"ferry","sort_rank":355,"landuse_kind":"protected_area","min_zoom":8.0,"osm_relation":true},"arcs":[[180],[181],[182],[183]]},{"type":"LineString","properties":{"bus_network":"Verkehrsverbund Berlin-Brandenburg","network":null,"sort_rank":380,"kind_detail":"primary","kind":"major_road","source":"openstreetmap.org","min_zoom":8.0,"bus_shield_text":"877","shield_text":"168","landuse_kind":"protected_area","ref":"B 168"},"arcs":[184]},{"type":"LineString","properties":{"kind":"major_road","network":null,"sort_rank":380,"kind_detail":"primary","is_bicycle_related":true,"bicycle_shield_text":"SPR","cycleway":"track","source":"openstreetmap.org","min_zoom":8.0,"shield_text":"87","bicycle_network":"rcn"},"arcs":[185]},{"type":"MultiLineString","properties":{"kind":"path","sort_rank":354,"landuse_kind":"protected_area","is_bicycle_related":true,"bicycle_shield_text":"D12","bicycle_network":"ncn","source":"openstreetmap.org","min_zoom":8.0,"kind_detail":"track"},"arcs":[[186],[187],[188],[189]]},{"type":"MultiLineString","properties":{"kind":"path","sort_rank":354,"landuse_kind":"protected_area","is_bicycle_related":true,"bicycle_shield_text":"D12","bicycle_network":"ncn","source":"openstreetmap.org","min_zoom":8.0,"kind_detail":"path"},"arcs":[[190],[191],[192],[193],[194]]},{"type":"LineString","properties":{"kind":"major_road","network":null,"sort_rank":380,"kind_detail":"primary","source":"openstreetmap.org","min_zoom":8.0,"landuse_kind":"urban_area","shield_text":"320","ref":"B 320"},"arcs":[195]},{"type":"LineString","properties":{"kind":"major_road","network":null,"sort_rank":380,"kind_detail":"primary","source":"openstreetmap.org","min_zoom":8.0,"old_name":"Ernst-Th\u00e4lmann-Stra\u00dfe","shield_text":"112","landuse_kind":"urban_area","ref":"B 112"},"arcs":[196]},{"type":"LineString","properties":{"bus_network":"Verkehrsverbund Berlin-Brandenburg","network":null,"sort_rank":380,"kind_detail":"primary","kind":"major_road","source":"openstreetmap.org","min_zoom":8.0,"bus_shield_text":"877","shield_text":"169","landuse_kind":"protected_area","ref":"B 169"},"arcs":[197]},{"type":"LineString","properties":{"kind":"minor_road","service":"driveway","sort_rank":356,"kind_detail":"service","is_bicycle_related":true,"bicycle_shield_text":"D12","bicycle_network":"ncn","source":"openstreetmap.org","min_zoom":8.0,"landuse_kind":"residential","id":70410460},"arcs":[198]},{"type":"LineString","properties":{"kind":"major_road","network":null,"sort_rank":380,"kind_detail":"primary","is_bicycle_related":true,"bicycle_shield_text":null,"bicycle_network":"rcn","source":"openstreetmap.org","min_zoom":8.0,"landuse_kind":"protected_area","shield_text":"320","ref":"B 320"},"arcs":[199]},{"type":"LineString","properties":{"kind":"major_road","sort_rank":377,"kind_detail":"tertiary","is_bicycle_related":true,"bicycle_shield_text":"D12","bicycle_network":"ncn","source":"openstreetmap.org","min_zoom":8.0,"ref":"K 6702"},"arcs":[200]},{"type":"MultiLineString","properties":{"kind":"major_road","network":null,"sort_rank":380,"kind_detail":"primary","source":"openstreetmap.org","min_zoom":8.0,"shield_text":"87","ref":"B 87"},"arcs":[[201],[202],[203],[204],[205],[206],[207],[208],[209]]},{"type":"MultiLineString","properties":{"kind":"major_road","cycleway_left":"track","network":null,"sort_rank":380,"kind_detail":"primary","is_bicycle_related":true,"source":"openstreetmap.org","min_zoom":8.0,"shield_text":"87","ref":"B 87"},"arcs":[[210],[211]]},{"type":"LineString","properties":{"bus_network":"VBB","network":null,"sort_rank":380,"kind_detail":"primary","is_bicycle_related":true,"kind":"major_road","cycleway":"track","source":"openstreetmap.org","min_zoom":8.0,"bus_shield_text":"411 (1)","shield_text":"168","landuse_kind":"urban_area","ref":"B 168","id":257238101},"arcs":[212]},{"type":"MultiLineString","properties":{"kind":"major_road","network":null,"sort_rank":380,"kind_detail":"primary","source":"openstreetmap.org","min_zoom":8.0,"landuse_kind":"protected_area","shield_text":"97","ref":"B 97"},"arcs":[[213],[214],[215],[216],[217],[218],[219]]},{"type":"MultiLineString","properties":{"bus_network":"Verkehrsverbund Berlin-Brandenburg","network":"pl:national","sort_rank":380,"kind_detail":"primary","kind":"major_road","source":"openstreetmap.org","min_zoom":8.0,"bus_shield_text":"983","shield_text":"29","landuse_kind":"urban_area","ref":"29"},"arcs":[[220],[221]]},{"type":"MultiLineString","properties":{"kind":"major_road","network":"pl:national","sort_rank":380,"kind_detail":"primary","source":"openstreetmap.org","min_zoom":8.0,"shield_text":"29","ref":"29"},"arcs":[[222],[223],[224],[225],[226],[227],[228],[229]]},{"type":"MultiLineString","properties":{"kind":"highway","network":"BAB","sort_rank":383,"landuse_kind":"protected_area","source":"openstreetmap.org","min_zoom":8.0,"all_networks":["BAB","e-road"],"kind_detail":"motorway","shield_text":"15","ref":"A 15","all_shield_texts":["15","36"]},"arcs":[[230],[231],[232],[233],[234],[235],[236],[237],[238],[239],[240],[241],[242],[243],[244],[245]]},{"type":"LineString","properties":{"bus_network":"Verkehrsverbund Berlin-Brandenburg","network":null,"sort_rank":380,"kind_detail":"primary","kind":"major_road","source":"openstreetmap.org","min_zoom":8.0,"bus_shield_text":"877","shield_text":"320","ref":"B 320"},"arcs":[246]},{"type":"LineString","properties":{"sort_rank":380,"kind_detail":"primary","min_zoom":8.0,"kind":"major_road","source":"openstreetmap.org"},"arcs":[247]},{"type":"MultiLineString","properties":{"kind":"major_road","network":null,"sort_rank":380,"kind_detail":"primary","source":"openstreetmap.org","min_zoom":8.0,"landuse_kind":"protected_area","shield_text":"168","ref":"B 168"},"arcs":[[248],[249],[250],[251],[252],[253],[254],[255],[256],[257],[258],[259]]},{"type":"LineString","properties":{"source":"openstreetmap.org","kind":"major_road","network":null,"sort_rank":380,"kind_detail":"primary","min_zoom":8.0,"shield_text":"112"},"arcs":[260]},{"type":"MultiLineString","properties":{"cycleway_right":"lane","name:en":"City Bridge","network":null,"sort_rank":380,"kind_detail":"primary","is_bicycle_related":true,"bus_network":"Verkehrsverbund Berlin-Brandenburg","source":"openstreetmap.org","min_zoom":8.0,"bus_shield_text":"983","shield_text":"5","name:pl":"Most Miejski","landuse_kind":"urban_area","ref":"B 5","kind":"major_road"},"arcs":[[261],[262]]},{"type":"MultiLineString","properties":{"bus_network":"VBB","network":null,"sort_rank":380,"kind_detail":"primary","kind":"major_road","source":"openstreetmap.org","min_zoom":8.0,"bus_shield_text":"403","shield_text":"168","ref":"B 168"},"arcs":[[263],[264]]},{"type":"LineString","properties":{"kind":"major_road","network":null,"sort_rank":381,"landuse_kind":"urban_area","source":"openstreetmap.org","min_zoom":8.0,"kind_detail":"trunk","shield_text":"112","ref":"B 112"},"arcs":[265]},{"type":"LineString","properties":{"bus_network":"Verkehrsverbund Berlin-Brandenburg","network":"Landesstra\u00dfen Brandenburg","sort_rank":380,"kind_detail":"primary","is_bicycle_related":true,"kind":"major_road","bicycle_shield_text":"NBBT","bicycle_network":"rcn","source":"openstreetmap.org","min_zoom":8.0,"bus_shield_text":"856","shield_text":"48","landuse_kind":"protected_area","ref":"B 112","id":146575501},"arcs":[266]},{"type":"LineString","properties":{"kind":"major_road","sort_rank":379,"landuse_kind":"urban_area","is_bicycle_related":true,"bicycle_shield_text":"D12","bicycle_network":"ncn","source":"openstreetmap.org","min_zoom":8.0,"kind_detail":"secondary","ref":"L 381"},"arcs":[267]},{"type":"MultiLineString","properties":{"bus_network":"VBB","network":null,"sort_rank":380,"kind_detail":"primary","kind":"major_road","source":"openstreetmap.org","min_zoom":8.0,"bus_shield_text":"968","shield_text":"5","landuse_kind":"urban_area","ref":"B 5"},"arcs":[[268],[269],[270],[271],[272],[273],[274],[275],[276],[277],[278],[279]]},{"type":"LineString","properties":{"cycleway_right":"track","network":null,"sort_rank":380,"kind_detail":"primary","is_bicycle_related":true,"kind":"major_road","source":"openstreetmap.org","min_zoom":8.0,"shield_text":"168","ref":"B 168;B 246","id":362779171},"arcs":[280]},{"type":"LineString","properties":{"kind":"major_road","network":null,"sort_rank":380,"kind_detail":"primary","is_bicycle_related":true,"cycleway":"track","source":"openstreetmap.org","min_zoom":8.0,"landuse_kind":"urban_area","shield_text":"168","ref":"B 168"},"arcs":[281]},{"type":"MultiLineString","properties":{"kind":"major_road","network":null,"sort_rank":380,"kind_detail":"primary","source":"openstreetmap.org","min_zoom":8.0,"shield_text":"115","ref":"B 112\/ B 115"},"arcs":[[282],[283],[284]]},{"type":"LineString","properties":{"bus_network":"VBB","network":null,"sort_rank":380,"kind_detail":"primary","is_bicycle_related":true,"kind":"major_road","bicycle_shield_text":"MST","bicycle_network":"lcn","source":"openstreetmap.org","min_zoom":8.0,"bus_shield_text":"403","shield_text":"168","ref":"B 168","id":40200866},"arcs":[285]},{"type":"LineString","properties":{"kind":"major_road","sort_rank":377,"kind_detail":"tertiary","is_bicycle_related":true,"bicycle_shield_text":"D12","bicycle_network":"ncn","source":"openstreetmap.org","min_zoom":8.0,"landuse_kind":"nature_reserve","ref":"K 6702","id":23678061},"arcs":[286]},{"type":"MultiLineString","properties":{"kind":"minor_road","sort_rank":360,"kind_detail":"residential","is_bicycle_related":true,"bicycle_shield_text":"R1","bicycle_network":"icn","source":"openstreetmap.org","min_zoom":8.0},"arcs":[[287],[288]]},{"type":"LineString","properties":{"kind":"path","sort_rank":354,"kind_detail":"path","is_bicycle_related":true,"bicycle_shield_text":"D12","bicycle_network":"ncn","source":"openstreetmap.org","min_zoom":8.0,"landuse_kind":"nature_reserve","id":121136936},"arcs":[289]},{"type":"LineString","properties":{"kind":"major_road","network":null,"sort_rank":381,"kind_detail":"trunk","source":"openstreetmap.org","min_zoom":8.0,"landuse_kind":"protected_area","shield_text":"97","ref":"B 97","id":107921178},"arcs":[290]},{"type":"LineString","properties":{"bus_network":"VBB","cycleway_left":"track","network":null,"sort_rank":380,"kind_detail":"primary","is_bicycle_related":true,"kind":"major_road","source":"openstreetmap.org","min_zoom":8.0,"bus_shield_text":"430","shield_text":"246","ref":"B 246"},"arcs":[291]},{"type":"MultiLineString","properties":{"cycleway_right":"track","network":null,"sort_rank":380,"kind_detail":"primary","is_bicycle_related":true,"kind":"major_road","bicycle_shield_text":"TB","bicycle_network":"rcn","source":"openstreetmap.org","min_zoom":8.0,"shield_text":"168","ref":"B 168;B 246"},"arcs":[[292],[293]]},{"type":"LineString","properties":{"kind":"major_road","network":"pl:regional","sort_rank":379,"kind_detail":"secondary","is_bicycle_related":true,"bicycle_shield_text":"R1","bicycle_network":"icn","source":"openstreetmap.org","min_zoom":8.0,"shield_text":"137","ref":"137;138","id":160319688},"arcs":[294]},{"type":"LineString","properties":{"kind":"minor_road","sort_rank":360,"landuse_kind":"nature_reserve","is_bicycle_related":true,"bicycle_shield_text":"D12","bicycle_network":"ncn","source":"openstreetmap.org","min_zoom":8.0,"kind_detail":"unclassified"},"arcs":[295]},{"type":"MultiLineString","properties":{"kind":"major_road","network":null,"sort_rank":380,"kind_detail":"primary","source":"openstreetmap.org","min_zoom":8.0,"landuse_kind":"urban_area","shield_text":"112","ref":"B 112"},"arcs":[[296],[297],[298],[299],[300],[301],[302],[303],[304],[305],[306],[307]]},{"type":"LineString","properties":{"kind":"path","sort_rank":354,"kind_detail":"steps","is_bicycle_related":true,"bicycle_shield_text":"D12","bicycle_network":"ncn","source":"openstreetmap.org","min_zoom":8.0,"landuse_kind":"urban_area","id":139530536},"arcs":[308]},{"type":"MultiLineString","properties":{"kind":"major_road","network":"pl:regional","sort_rank":379,"landuse_kind":"urban_area","is_bicycle_related":true,"bicycle_shield_text":"R1","bicycle_network":"icn","source":"openstreetmap.org","min_zoom":8.0,"kind_detail":"secondary","shield_text":"137","ref":"137;138"},"arcs":[[309],[310],[311]]},{"type":"LineString","properties":{"cycleway_right":"track","network":null,"sort_rank":380,"kind_detail":"primary","is_bicycle_related":true,"kind":"major_road","bicycle_shield_text":null,"bicycle_network":"rcn","source":"openstreetmap.org","min_zoom":8.0,"landuse_kind":"protected_area","shield_text":"320","ref":"B 320"},"arcs":[312]},{"type":"LineString","properties":{"kind":"major_road","network":"pl:national","sort_rank":380,"kind_detail":"primary","official_name":"Rondo imienia genera\u0142a broni Tadeusza Buka","source":"openstreetmap.org","min_zoom":8.0,"landuse_kind":"urban_area","shield_text":"12","ref":"12","id":172042900},"arcs":[313]},{"type":"LineString","properties":{"bus_network":"Verkehrsverbund Berlin-Brandenburg","network":"pl:national","sort_rank":380,"kind_detail":"primary","kind":"major_road","source":"openstreetmap.org","min_zoom":8.0,"bus_shield_text":"983","shield_text":"31","landuse_kind":"urban_area","ref":"31","old_name:de":"Ro\u00dfmarkt"},"arcs":[314]},{"type":"MultiLineString","properties":{"kind":"minor_road","sort_rank":360,"kind_detail":"residential","is_bicycle_related":true,"bicycle_shield_text":"D12","bicycle_network":"ncn","source":"openstreetmap.org","min_zoom":8.0,"landuse_kind":"urban_area"},"arcs":[[315],[316],[317],[318]]},{"type":"MultiLineString","properties":{"kind":"major_road","network":"pl:national","sort_rank":380,"kind_detail":"primary","source":"openstreetmap.org","min_zoom":8.0,"landuse_kind":"urban_area","shield_text":"29","ref":"29","old_name:de":"Crossener Stra\u00dfe"},"arcs":[[319],[320]]},{"type":"MultiLineString","properties":{"kind":"minor_road","sort_rank":360,"kind_detail":"residential","is_bicycle_related":true,"bicycle_shield_text":"D12","bicycle_network":"ncn","source":"openstreetmap.org","min_zoom":8.0},"arcs":[[321],[322],[323],[324],[325],[326],[327],[328],[329],[330],[331],[332],[333],[334],[335],[336],[337]]},{"type":"LineString","properties":{"kind":"major_road","network":"pl:national","sort_rank":380,"kind_detail":"primary","source":"openstreetmap.org","min_zoom":8.0,"landuse_kind":"nature_reserve","shield_text":"92","ref":"92"},"arcs":[338]},{"type":"MultiLineString","properties":{"bus_network":"VBB","network":null,"sort_rank":380,"kind_detail":"primary","kind":"major_road","source":"openstreetmap.org","min_zoom":8.0,"bus_shield_text":"970","shield_text":"5","ref":"B 5"},"arcs":[[339],[340],[341],[342]]},{"type":"MultiLineString","properties":{"kind":"major_road","network":null,"sort_rank":380,"kind_detail":"primary","source":"openstreetmap.org","min_zoom":8.0,"landuse_kind":"urban_area","shield_text":"87","ref":"B 87"},"arcs":[[343],[344],[345],[346],[347],[348],[349],[350],[351],[352],[353]]},{"type":"LineString","properties":{"source":"openstreetmap.org","kind":"major_road","network":"pl:national","sort_rank":380,"kind_detail":"primary","min_zoom":8.0,"shield_text":"92"},"arcs":[354]},{"type":"LineString","properties":{"kind":"major_road","network":"pl:national","sort_rank":380,"kind_detail":"primary","is_bicycle_related":true,"bicycle_shield_text":"ZiO","bicycle_network":"rcn","source":"openstreetmap.org","min_zoom":8.0,"shield_text":"29","ref":"29"},"arcs":[355]},{"type":"MultiLineString","properties":{"kind":"major_road","network":"pl:national","sort_rank":380,"kind_detail":"primary","source":"openstreetmap.org","min_zoom":8.0,"landuse_kind":"urban_area","shield_text":"12","ref":"12;27"},"arcs":[[356],[357],[358],[359],[360],[361],[362]]},{"type":"MultiLineString","properties":{"kind":"highway","network":"BAB","sort_rank":383,"kind_detail":"motorway","source":"openstreetmap.org","min_zoom":8.0,"all_networks":["BAB","e-road"],"shield_text":"12","ref":"A 12","all_shield_texts":["12","30"]},"arcs":[[363],[364],[365],[366],[367],[368]]},{"type":"MultiLineString","properties":{"kind":"major_road","network":"pl:national","sort_rank":380,"kind_detail":"primary","source":"openstreetmap.org","min_zoom":8.0,"shield_text":"32","ref":"32"},"arcs":[[369],[370],[371],[372],[373],[374],[375],[376],[377],[378],[379],[380],[381],[382],[383],[384],[385],[386]]},{"type":"LineString","properties":{"kind":"major_road","network":null,"sort_rank":380,"kind_detail":"primary","bus_network":"Verkehrsverbund Berlin-Brandenburg","source":"openstreetmap.org","min_zoom":8.0,"bus_shield_text":"980","shield_text":"87","landuse_kind":"urban_area","ref":"B 87","id":506290500},"arcs":[387]},{"type":"LineString","properties":{"kind":"major_road","network":null,"sort_rank":380,"kind_detail":"primary","source":"openstreetmap.org","min_zoom":8.0,"old_name":"Ernst-Th\u00e4lmann-Stra\u00dfe","shield_text":"246","ref":"B 246","id":533210228},"arcs":[388]},{"type":"LineString","properties":{"bus_network":"Verkehrsverbund Berlin-Brandenburg","network":null,"sort_rank":380,"kind_detail":"primary","kind":"major_road","source":"openstreetmap.org","min_zoom":8.0,"bus_shield_text":"877","shield_text":"320","landuse_kind":"urban_area","ref":"B 320"},"arcs":[389]},{"type":"MultiLineString","properties":{"kind":"major_road","network":null,"sort_rank":380,"kind_detail":"primary","is_bicycle_related":true,"bicycle_shield_text":"OST","bicycle_network":"rcn","source":"openstreetmap.org","min_zoom":8.0,"shield_text":"246","ref":"B 246"},"arcs":[[390],[391],[392]]},{"type":"LineString","properties":{"bus_network":"Verkehrsverbund Berlin-Brandenburg","network":"pl:national","sort_rank":380,"kind_detail":"primary","kind":"major_road","source":"openstreetmap.org","min_zoom":8.0,"bus_shield_text":"983","shield_text":"29","landuse_kind":"urban_area","ref":"29;31"},"arcs":[393]},{"type":"LineString","properties":{"bus_network":"VBB","network":null,"sort_rank":380,"kind_detail":"primary","is_bicycle_related":true,"cycleway_right":"track","bicycle_shield_text":"OBB","bicycle_network":"lcn","source":"openstreetmap.org","min_zoom":8.0,"bus_shield_text":"968","shield_text":"167","ref":"B 167","id":198818983,"kind":"major_road"},"arcs":[394]},{"type":"LineString","properties":{"bus_network":"Verkehrsverbund Berlin-Brandenburg","network":null,"sort_rank":380,"kind_detail":"primary","kind":"major_road","source":"openstreetmap.org","min_zoom":8.0,"bus_shield_text":"981","shield_text":"87","landuse_kind":"urban_area","ref":"B 87"},"arcs":[395]},{"type":"MultiLineString","properties":{"kind":"major_road","network":null,"sort_rank":380,"kind_detail":"primary","is_bicycle_related":true,"bicycle_shield_text":"NBBT","bicycle_network":"rcn","source":"openstreetmap.org","min_zoom":8.0,"landuse_kind":"residential","shield_text":"112","ref":"B 112"},"arcs":[[396],[397]]},{"type":"MultiLineString","properties":{"kind":"path","sort_rank":354,"kind_detail":"cycleway","is_bicycle_related":true,"bicycle_shield_text":"D12","bicycle_network":"ncn","source":"openstreetmap.org","min_zoom":8.0},"arcs":[[398],[399],[400],[401]]},{"type":"LineString","properties":{"kind":"major_road","network":"pl:national","sort_rank":380,"kind_detail":"primary","source":"openstreetmap.org","min_zoom":8.0,"landuse_kind":"urban_area","shield_text":"12","ref":"12;296","id":30737488},"arcs":[402]},{"type":"LineString","properties":{"bus_network":"VBB","network":null,"sort_rank":380,"kind_detail":"primary","is_bicycle_related":true,"kind":"major_road","bicycle_shield_text":"OBB","bicycle_network":"lcn","source":"openstreetmap.org","min_zoom":8.0,"bus_shield_text":"970","shield_text":"5","ref":"B 5","id":298196052},"arcs":[403]},{"type":"MultiLineString","properties":{"kind":"major_road","network":"pl:regional","sort_rank":379,"kind_detail":"secondary","is_bicycle_related":true,"bicycle_shield_text":"ORT","bicycle_network":"ncn","source":"openstreetmap.org","min_zoom":8.0,"shield_text":"276","ref":"276"},"arcs":[[404],[405]]},{"type":"LineString","properties":{"kind":"major_road","network":null,"sort_rank":380,"kind_detail":"primary","is_bicycle_related":true,"bicycle_shield_text":"GUR","bicycle_network":"rcn","source":"openstreetmap.org","min_zoom":8.0,"landuse_kind":"protected_area","shield_text":"168","ref":"B 168","id":23842123},"arcs":[406]},{"type":"MultiLineString","properties":{"bus_network":"Verkehrsverbund Berlin-Brandenburg","network":null,"sort_rank":380,"kind_detail":"primary","is_bicycle_related":true,"cycleway_right":"shared_lane","source":"openstreetmap.org","min_zoom":8.0,"bus_shield_text":"983","shield_text":"5","landuse_kind":"urban_area","ref":"B 5","kind":"major_road"},"arcs":[[407],[408]]},{"type":"LineString","properties":{"kind":"path","sort_rank":354,"landuse_kind":"nature_reserve","is_bicycle_related":true,"bicycle_shield_text":"D12","bicycle_network":"ncn","source":"openstreetmap.org","min_zoom":8.0,"kind_detail":"cycleway"},"arcs":[409]},{"type":"MultiLineString","properties":{"kind":"major_road","sort_rank":377,"kind_detail":"tertiary","is_bicycle_related":true,"bicycle_shield_text":"R1","bicycle_network":"icn","source":"openstreetmap.org","min_zoom":8.0},"arcs":[[410],[411],[412],[413],[414],[415],[416],[417],[418],[419],[420],[421]]},{"type":"LineString","properties":{"kind":"minor_road","service":"parking_aisle","sort_rank":356,"kind_detail":"service","is_bicycle_related":true,"bicycle_shield_text":"D12","bicycle_network":"ncn","source":"openstreetmap.org","min_zoom":8.0,"id":40272876},"arcs":[422]},{"type":"LineString","properties":{"kind":"major_road","network":"Landesstra\u00dfen Brandenburg","sort_rank":380,"kind_detail":"primary","source":"openstreetmap.org","min_zoom":8.0,"landuse_kind":"protected_area","shield_text":"48","ref":"B 112"},"arcs":[423]},{"type":"LineString","properties":{"kind":"major_road","network":"pl:national","sort_rank":380,"kind_detail":"primary","source":"openstreetmap.org","min_zoom":8.0,"landuse_kind":"urban_area","shield_text":"29","id":267173515},"arcs":[424]},{"type":"MultiLineString","properties":{"kind":"path","sort_rank":354,"landuse_kind":"residential","is_bicycle_related":true,"bicycle_shield_text":"D12","bicycle_network":"ncn","source":"openstreetmap.org","min_zoom":8.0,"kind_detail":"path"},"arcs":[[425],[426],[427],[428]]},{"type":"MultiLineString","properties":{"kind":"major_road","network":"pl:national","sort_rank":380,"kind_detail":"primary","source":"openstreetmap.org","min_zoom":8.0,"shield_text":"92","ref":"92"},"arcs":[[429],[430],[431],[432],[433],[434],[435],[436],[437],[438],[439],[440],[441],[442],[443],[444],[445],[446]]},{"type":"LineString","properties":{"kind":"major_road","network":null,"sort_rank":380,"kind_detail":"primary","bus_network":"Verkehrsverbund Berlin-Brandenburg","source":"openstreetmap.org","min_zoom":8.0,"bus_shield_text":"858","shield_text":"112","id":500169137},"arcs":[447]},{"type":"MultiLineString","properties":{"kind":"major_road","network":"pl:regional","sort_rank":379,"kind_detail":"secondary","is_bicycle_related":true,"bicycle_shield_text":"ORT","bicycle_network":"ncn","source":"openstreetmap.org","min_zoom":8.0,"shield_text":"280","ref":"280"},"arcs":[[448],[449]]},{"type":"LineString","properties":{"sort_rank":381,"source":"openstreetmap.org","min_zoom":8.0,"kind":"major_road","kind_detail":"trunk"},"arcs":[450]},{"type":"MultiLineString","properties":{"kind":"major_road","network":null,"sort_rank":381,"landuse_kind":"protected_area","source":"openstreetmap.org","min_zoom":8.0,"kind_detail":"trunk","shield_text":"169","ref":"B 169"},"arcs":[[451],[452],[453]]},{"type":"LineString","properties":{"kind":"major_road","network":null,"sort_rank":380,"kind_detail":"primary","is_bicycle_related":true,"bicycle_shield_text":"SPR","bicycle_network":"rcn","source":"openstreetmap.org","min_zoom":8.0,"shield_text":"87","id":119087823},"arcs":[454]},{"type":"MultiLineString","properties":{"kind":"path","sort_rank":354,"kind_detail":"track","is_bicycle_related":true,"bicycle_shield_text":"D12","bicycle_network":"ncn","source":"openstreetmap.org","min_zoom":8.0,"landuse_kind":"urban_area"},"arcs":[[455],[456],[457],[458]]},{"type":"LineString","properties":{"kind":"major_road","network":"pl:national","sort_rank":380,"kind_detail":"primary","source":"openstreetmap.org","min_zoom":8.0,"shield_text":"29","ref":"29;134"},"arcs":[459]},{"type":"LineString","properties":{"bus_network":"Verkehrsverbund Berlin-Brandenburg","network":"Landesstra\u00dfen Brandenburg","sort_rank":380,"kind_detail":"primary","kind":"major_road","source":"openstreetmap.org","min_zoom":8.0,"bus_shield_text":"856","shield_text":"48","landuse_kind":"protected_area","ref":"B 112"},"arcs":[460]},{"type":"MultiLineString","properties":{"bus_network":"Verkehrsverbund Berlin-Brandenburg","network":null,"sort_rank":380,"kind_detail":"primary","kind":"major_road","source":"openstreetmap.org","min_zoom":8.0,"bus_shield_text":"858","shield_text":"112","landuse_kind":"protected_area"},"arcs":[[461],[462]]},{"type":"MultiLineString","properties":{"kind":"major_road","network":null,"sort_rank":380,"kind_detail":"primary","source":"openstreetmap.org","min_zoom":8.0,"landuse_kind":"urban_area","shield_text":"5","ref":"B 5"},"arcs":[[463],[464],[465],[466]]},{"type":"LineString","properties":{"kind":"major_road","network":"Landesstra\u00dfen Brandenburg","sort_rank":380,"kind_detail":"primary","is_bicycle_related":true,"bicycle_shield_text":"NBBT","bicycle_network":"rcn","source":"openstreetmap.org","min_zoom":8.0,"landuse_kind":"protected_area","shield_text":"48","ref":"B 112"},"arcs":[467]},{"type":"LineString","properties":{"cycleway_right":"track","network":null,"sort_rank":380,"kind_detail":"primary","is_bicycle_related":true,"bus_network":"VBB","source":"openstreetmap.org","min_zoom":8.0,"bus_shield_text":"430","shield_text":"246","ref":"B 246","kind":"major_road"},"arcs":[468]},{"type":"LineString","properties":{"kind":"major_road","network":"pl:regional","sort_rank":379,"kind_detail":"secondary","is_bicycle_related":true,"bicycle_shield_text":"ORT","bicycle_network":"ncn","source":"openstreetmap.org","min_zoom":8.0,"landuse_kind":"urban_area","shield_text":"276","ref":"276","id":416585759},"arcs":[469]},{"type":"LineString","properties":{"kind":"major_road","network":null,"sort_rank":380,"kind_detail":"primary","source":"openstreetmap.org","min_zoom":8.0,"landuse_kind":"protected_area","shield_text":"115","ref":"B 112\/B 115"},"arcs":[470]},{"type":"LineString","properties":{"kind":"major_road","network":null,"sort_rank":380,"kind_detail":"primary","is_bicycle_related":true,"bicycle_shield_text":null,"bicycle_network":"rcn","source":"openstreetmap.org","min_zoom":8.0,"shield_text":"168","ref":"B 168"},"arcs":[471]},{"type":"LineString","properties":{"kind":"major_road","network":"pl:national","sort_rank":380,"kind_detail":"primary","source":"openstreetmap.org","min_zoom":8.0,"shield_text":"31","ref":"31"},"arcs":[472]},{"type":"LineString","properties":{"kind":"major_road","sort_rank":379,"kind_detail":"secondary","is_bicycle_related":true,"bicycle_shield_text":"D12","bicycle_network":"ncn","source":"openstreetmap.org","min_zoom":8.0,"ref":"L 381"},"arcs":[473]},{"type":"LineString","properties":{"kind":"major_road","network":null,"sort_rank":380,"kind_detail":"primary","source":"openstreetmap.org","min_zoom":8.0,"landuse_kind":"protected_area","shield_text":"87","ref":"B 87","id":319279914},"arcs":[474]},{"type":"MultiLineString","properties":{"bus_network":null,"network":"pl:national","sort_rank":380,"kind_detail":"primary","kind":"major_road","source":"openstreetmap.org","min_zoom":8.0,"bus_shield_text":"253","shield_text":"29","landuse_kind":"urban_area","ref":"29"},"arcs":[[475],[476],[477]]},{"type":"LineString","properties":{"kind":"major_road","sort_rank":380,"kind_detail":"primary","bus_network":"Verkehrsverbund Berlin-Brandenburg","source":"openstreetmap.org","min_zoom":8.0,"bus_shield_text":"983","landuse_kind":"urban_area","id":4706298},"arcs":[478]},{"type":"MultiLineString","properties":{"kind":"path","sort_rank":354,"kind_detail":"track","is_bicycle_related":true,"bicycle_shield_text":"D12","bicycle_network":"ncn","source":"openstreetmap.org","min_zoom":8.0},"arcs":[[479],[480],[481],[482],[483],[484],[485],[486],[487],[488],[489],[490],[491],[492],[493],[494]]},{"type":"LineString","properties":{"bus_network":"VBB","network":null,"sort_rank":380,"kind_detail":"primary","is_bicycle_related":true,"kind":"major_road","cycleway":"lane","source":"openstreetmap.org","min_zoom":8.0,"bus_shield_text":"968","shield_text":"5","landuse_kind":"urban_area","ref":"B 5"},"arcs":[495]},{"type":"MultiLineString","properties":{"bus_network":"Verkehrsverbund Berlin-Brandenburg","network":null,"sort_rank":380,"kind_detail":"primary","kind":"major_road","source":"openstreetmap.org","min_zoom":8.0,"bus_shield_text":"Linie 33","shield_text":"169","landuse_kind":"protected_area","ref":"B 169"},"arcs":[[496],[497]]},{"type":"LineString","properties":{"kind":"major_road","network":null,"sort_rank":380,"kind_detail":"primary","is_bicycle_related":true,"bicycle_shield_text":"TB","bicycle_network":"rcn","source":"openstreetmap.org","min_zoom":8.0,"shield_text":"168","ref":"B 168","id":39811815},"arcs":[498]},{"type":"LineString","properties":{"kind":"major_road","network":"pl:national","sort_rank":380,"kind_detail":"primary","bus_network":"Verkehrsverbund Berlin-Brandenburg","old_name:de":"Blumen Stra\u00dfe","source":"openstreetmap.org","min_zoom":8.0,"bus_shield_text":"983","shield_text":"29","landuse_kind":"urban_area","ref":"29","id":195646081},"arcs":[499]},{"type":"LineString","properties":{"kind":"major_road","network":"pl:national","sort_rank":380,"kind_detail":"primary","source":"openstreetmap.org","min_zoom":8.0,"landuse_kind":"urban_area","shield_text":"29","ref":"29;31","id":297765404},"arcs":[500]},{"type":"MultiLineString","properties":{"kind":"minor_road","sort_rank":360,"kind_detail":"unclassified","is_bicycle_related":true,"bicycle_shield_text":"D12","bicycle_network":"ncn","source":"openstreetmap.org","min_zoom":8.0},"arcs":[[501],[502]]},{"type":"MultiLineString","properties":{"kind":"highway","network":"BAB","sort_rank":383,"landuse_kind":"urban_area","source":"openstreetmap.org","min_zoom":8.0,"all_networks":["BAB","e-road"],"kind_detail":"motorway","shield_text":"15","ref":"A 15","all_shield_texts":["15","36"]},"arcs":[[503],[504]]},{"type":"LineString","properties":{"kind":"major_road","sort_rank":377,"kind_detail":"tertiary","is_bicycle_related":true,"bicycle_shield_text":"R1","bicycle_network":"icn","source":"openstreetmap.org","min_zoom":8.0,"landuse_kind":"urban_area","ref":"1278F","id":28285993},"arcs":[505]},{"type":"MultiLineString","properties":{"source":"openstreetmap.org","kind":"major_road","sort_rank":381,"kind_detail":"trunk","ref":"18","min_zoom":8.0},"arcs":[[506],[507],[508]]},{"type":"MultiLineString","properties":{"kind":"major_road","network":null,"sort_rank":381,"kind_detail":"trunk","source":"openstreetmap.org","min_zoom":8.0,"shield_text":"112","ref":"B 112"},"arcs":[[509],[510],[511],[512],[513],[514],[515],[516],[517],[518]]},{"type":"MultiLineString","properties":{"kind":"major_road","network":null,"sort_rank":380,"kind_detail":"primary","source":"openstreetmap.org","min_zoom":8.0,"shield_text":"320","ref":"B 320"},"arcs":[[519],[520]]},{"type":"LineString","properties":{"bus_network":"VBB","network":null,"sort_rank":380,"kind_detail":"primary","kind":"major_road","source":"openstreetmap.org","min_zoom":8.0,"bus_shield_text":"968","shield_text":"5","ref":"B 5"},"arcs":[521]},{"type":"MultiLineString","properties":{"kind":"major_road","network":null,"sort_rank":380,"kind_detail":"primary","source":"openstreetmap.org","min_zoom":8.0,"landuse_kind":"urban_area","shield_text":"115","ref":"B 112\/ B 115"},"arcs":[[522],[523]]},{"type":"LineString","properties":{"bus_network":"VBB","network":null,"sort_rank":380,"kind_detail":"primary","is_bicycle_related":true,"kind":"major_road","cycleway":"lane","source":"openstreetmap.org","min_zoom":8.0,"bus_shield_text":"968","shield_text":"5","ref":"B 5"},"arcs":[524]},{"type":"LineString","properties":{"kind":"major_road","network":"pl:national","sort_rank":380,"kind_detail":"primary","source":"openstreetmap.org","min_zoom":8.0,"landuse_kind":"urban_area","shield_text":"31","ref":"31","old_name:de":"Sonnenburger Stra\u00dfe"},"arcs":[525]},{"type":"MultiLineString","properties":{"cycleway_right":"lane","name:en":"City Bridge","network":"pl:national","sort_rank":380,"kind_detail":"primary","is_bicycle_related":true,"bus_network":"Verkehrsverbund Berlin-Brandenburg","name:de":"Stadtbr\u00fccke","source":"openstreetmap.org","min_zoom":8.0,"bus_shield_text":"983","shield_text":"29","landuse_kind":"urban_area","ref":"29;31","kind":"major_road"},"arcs":[[526],[527]]},{"type":"MultiLineString","properties":{"kind":"major_road","network":null,"sort_rank":380,"kind_detail":"primary","source":"openstreetmap.org","min_zoom":8.0,"shield_text":"97","ref":"B 97"},"arcs":[[528],[529]]},{"type":"MultiLineString","properties":{"kind":"major_road","network":null,"sort_rank":380,"kind_detail":"primary","source":"openstreetmap.org","min_zoom":8.0,"landuse_kind":"protected_area","shield_text":"320","ref":"B 320"},"arcs":[[530],[531]]},{"type":"MultiLineString","properties":{"kind":"major_road","network":"pl:national","sort_rank":380,"kind_detail":"primary","source":"openstreetmap.org","min_zoom":8.0,"landuse_kind":"urban_area","shield_text":"31","ref":"31"},"arcs":[[532],[533],[534]]},{"type":"MultiLineString","properties":{"kind":"major_road","network":null,"sort_rank":380,"kind_detail":"primary","source":"openstreetmap.org","min_zoom":8.0,"landuse_kind":"residential","shield_text":"112","ref":"B 112"},"arcs":[[535],[536],[537],[538]]},{"type":"MultiLineString","properties":{"sort_rank":355,"landuse_kind":"protected_area","min_zoom":8.0,"kind":"ferry","source":"openstreetmap.org"},"arcs":[[539],[540],[541],[542]]},{"type":"LineString","properties":{"bus_network":"Verkehrsverbund Berlin-Brandenburg","network":"Landesstra\u00dfen Brandenburg","sort_rank":380,"kind_detail":"primary","kind":"major_road","source":"openstreetmap.org","min_zoom":8.0,"bus_shield_text":"856","shield_text":"482","landuse_kind":"protected_area","ref":"B 112"},"arcs":[543]},{"type":"MultiLineString","properties":{"kind":"path","sort_rank":354,"landuse_kind":"protected_area","is_bicycle_related":true,"bicycle_shield_text":"D12","bicycle_network":"ncn","source":"openstreetmap.org","min_zoom":8.0,"kind_detail":"cycleway"},"arcs":[[544],[545],[546],[547],[548],[549],[550],[551]]},{"type":"LineString","properties":{"bus_network":"Verkehrsverbund Berlin-Brandenburg","network":null,"sort_rank":380,"kind_detail":"primary","is_bicycle_related":true,"kind":"major_road","bicycle_shield_text":"FP","bicycle_network":"rcn","source":"openstreetmap.org","min_zoom":8.0,"bus_shield_text":"43","shield_text":"168","landuse_kind":"protected_area","ref":"B 168","id":23842124},"arcs":[552]},{"type":"MultiLineString","properties":{"bus_network":"Verkehrsverbund Berlin-Brandenburg","network":null,"sort_rank":380,"kind_detail":"primary","kind":"major_road","source":"openstreetmap.org","min_zoom":8.0,"bus_shield_text":"43","shield_text":"168","landuse_kind":"protected_area","ref":"B 168"},"arcs":[[553],[554],[555],[556]]},{"type":"LineString","properties":{"kind":"major_road","sort_rank":379,"kind_detail":"secondary","is_bicycle_related":true,"bicycle_shield_text":"D12","bicycle_network":"ncn","source":"openstreetmap.org","min_zoom":8.0,"ref":"L 451"},"arcs":[557]},{"type":"LineString","properties":{"kind":"major_road","network":"pl:regional","sort_rank":379,"kind_detail":"secondary","is_bicycle_related":true,"bicycle_shield_text":"ORT","bicycle_network":"ncn","source":"openstreetmap.org","min_zoom":8.0,"shield_text":"278","ref":"278"},"arcs":[558]},{"type":"LineString","properties":{"kind":"major_road","network":null,"sort_rank":380,"kind_detail":"primary","bus_network":"VBB","source":"openstreetmap.org","min_zoom":8.0,"bus_shield_text":"432","shield_text":"168","ref":"B 168","id":157319453},"arcs":[559]},{"type":"LineString","properties":{"kind":"major_road","network":null,"sort_rank":380,"kind_detail":"primary","bus_network":"Verkehrsverbund Berlin-Brandenburg","source":"openstreetmap.org","min_zoom":8.0,"bus_shield_text":"509","shield_text":"320","landuse_kind":"protected_area","ref":"B 320","id":38325676},"arcs":[560]},{"type":"MultiLineString","properties":{"kind":"major_road","network":"pl:national","sort_rank":380,"kind_detail":"primary","source":"openstreetmap.org","min_zoom":8.0,"shield_text":"12","ref":"12"},"arcs":[[561],[562],[563],[564],[565],[566],[567],[568],[569]]},{"type":"LineString","properties":{"kind":"major_road","network":null,"sort_rank":380,"kind_detail":"primary","is_bicycle_related":true,"bicycle_shield_text":"FP","bicycle_network":"rcn","source":"openstreetmap.org","min_zoom":8.0,"landuse_kind":"protected_area","shield_text":"112","ref":"B 112","id":151936502},"arcs":[570]},{"type":"MultiLineString","properties":{"kind":"major_road","network":"pl:national","sort_rank":380,"kind_detail":"primary","source":"openstreetmap.org","min_zoom":8.0,"landuse_kind":"urban_area","shield_text":"32","ref":"32"},"arcs":[[571],[572],[573],[574],[575]]},{"type":"MultiLineString","properties":{"bus_network":"VBB","network":null,"sort_rank":380,"kind_detail":"primary","kind":"major_road","source":"openstreetmap.org","min_zoom":8.0,"bus_shield_text":"433","shield_text":"5","ref":"B 5"},"arcs":[[576],[577]]},{"type":"MultiLineString","properties":{"kind":"highway","network":"BAB","sort_rank":383,"kind_detail":"motorway","source":"openstreetmap.org","min_zoom":8.0,"all_networks":["BAB","e-road"],"shield_text":"15","ref":"A 15","all_shield_texts":["15","36"]},"arcs":[[578],[579],[580],[581]]},{"type":"LineString","properties":{"sort_rank":355,"source":"openstreetmap.org","kind":"ferry","min_zoom":8.0,"id":26627348},"arcs":[582]},{"type":"LineString","properties":{"kind":"major_road","network":null,"sort_rank":380,"kind_detail":"primary","is_bicycle_related":true,"bicycle_shield_text":"HiSt 6","bicycle_network":"rcn","source":"openstreetmap.org","min_zoom":8.0,"shield_text":"87","ref":"B 87"},"arcs":[583]},{"type":"LineString","properties":{"kind":"path","sort_rank":354,"kind_detail":"track","is_bicycle_related":true,"bicycle_shield_text":"D12","bicycle_network":"ncn","source":"openstreetmap.org","min_zoom":8.0,"landuse_kind":"residential","id":70764097},"arcs":[584]},{"type":"LineString","properties":{"kind":"minor_road","sort_rank":360,"landuse_kind":"protected_area","is_bicycle_related":true,"bicycle_shield_text":"D12","bicycle_network":"ncn","source":"openstreetmap.org","min_zoom":8.0,"kind_detail":"unclassified"},"arcs":[585]},{"type":"MultiLineString","properties":{"kind":"major_road","network":null,"sort_rank":380,"kind_detail":"primary","source":"openstreetmap.org","min_zoom":8.0,"landuse_kind":"protected_area","shield_text":"112","ref":"B 112"},"arcs":[[586],[587],[588],[589],[590],[591],[592]]},{"type":"LineString","properties":{"kind":"major_road","network":"pl:national","sort_rank":380,"kind_detail":"primary","source":"openstreetmap.org","min_zoom":8.0,"landuse_kind":"urban_area","shield_text":"32"},"arcs":[593]},{"type":"MultiLineString","properties":{"kind":"major_road","network":null,"sort_rank":380,"kind_detail":"primary","source":"openstreetmap.org","min_zoom":8.0,"old_name":"Ernst-Th\u00e4lmann-Stra\u00dfe","shield_text":"246","landuse_kind":"urban_area","ref":"B 246"},"arcs":[[594],[595]]},{"type":"LineString","properties":{"kind":"major_road","network":null,"sort_rank":380,"kind_detail":"primary","source":"openstreetmap.org","min_zoom":8.0,"shield_text":"97","ref":"B 97; B 112"},"arcs":[596]},{"type":"MultiLineString","properties":{"bus_network":"VBB","network":null,"sort_rank":380,"kind_detail":"primary","kind":"major_road","source":"openstreetmap.org","min_zoom":8.0,"bus_shield_text":"968","shield_text":"112","ref":"B 112"},"arcs":[[597],[598]]},{"type":"LineString","properties":{"kind":"minor_road","sort_rank":360,"kind_detail":"residential","is_bicycle_related":true,"bicycle_shield_text":"ORT","bicycle_network":"ncn","source":"openstreetmap.org","min_zoom":8.0},"arcs":[599]},{"type":"LineString","properties":{"kind":"major_road","network":null,"sort_rank":380,"kind_detail":"primary","is_bicycle_related":true,"bicycle_shield_text":"TB","cycleway":"track","source":"openstreetmap.org","min_zoom":8.0,"shield_text":"168","bicycle_network":"rcn","ref":"B 168","id":134214399},"arcs":[600]},{"type":"LineString","properties":{"cycleway_right":"track","network":null,"sort_rank":380,"kind_detail":"primary","is_bicycle_related":true,"kind":"major_road","bicycle_shield_text":"OST","bicycle_network":"rcn","source":"openstreetmap.org","min_zoom":8.0,"shield_text":"168","ref":"B 168;B 246","id":362779170},"arcs":[601]},{"type":"LineString","properties":{"bus_network":"VBB","network":null,"sort_rank":380,"kind_detail":"primary","kind":"major_road","source":"openstreetmap.org","min_zoom":8.0,"bus_shield_text":"968","shield_text":"112","landuse_kind":"urban_area","ref":"B 112"},"arcs":[602]},{"type":"MultiLineString","properties":{"bus_network":null,"network":"pl:national","sort_rank":381,"kind_detail":"trunk","kind":"major_road","source":"openstreetmap.org","min_zoom":8.0,"bus_shield_text":"253","shield_text":"2","ref":"2"},"arcs":[[603],[604]]},{"type":"LineString","properties":{"kind":"major_road","network":null,"sort_rank":380,"kind_detail":"primary","is_bicycle_related":true,"bicycle_shield_text":"SPR","bicycle_network":"rcn","source":"openstreetmap.org","min_zoom":8.0,"landuse_kind":"protected_area","shield_text":"168","ref":"B 168","id":292399530},"arcs":[605]},{"type":"MultiLineString","properties":{"kind":"major_road","network":"pl:national","sort_rank":380,"kind_detail":"primary","source":"openstreetmap.org","min_zoom":8.0,"landuse_kind":"urban_area","shield_text":"29","ref":"29"},"arcs":[[606],[607],[608],[609],[610],[611],[612],[613],[614],[615],[616],[617]]},{"type":"LineString","properties":{"kind":"major_road","network":null,"sort_rank":380,"kind_detail":"primary","source":"openstreetmap.org","min_zoom":8.0,"shield_text":"168","ref":"B 168;B 320"},"arcs":[618]},{"type":"LineString","properties":{"bus_network":"Verkehrsverbund Berlin-Brandenburg","network":null,"sort_rank":380,"kind_detail":"primary","kind":"major_road","source":"openstreetmap.org","min_zoom":8.0,"bus_shield_text":"Linie 33","shield_text":"168","landuse_kind":"protected_area","ref":"B 168"},"arcs":[619]},{"type":"LineString","properties":{"source":"openstreetmap.org","kind":"major_road","network":"pl:national","sort_rank":380,"kind_detail":"primary","min_zoom":8.0,"shield_text":"32"},"arcs":[620]},{"type":"MultiLineString","properties":{"bus_network":"VBB","network":null,"sort_rank":380,"kind_detail":"primary","kind":"major_road","source":"openstreetmap.org","min_zoom":8.0,"bus_shield_text":"970","shield_text":"5","landuse_kind":"urban_area","ref":"B 5"},"arcs":[[621],[622],[623]]},{"type":"LineString","properties":{"kind":"minor_road","sort_rank":360,"kind_detail":"unclassified","is_bicycle_related":true,"bicycle_shield_text":"ORT","bicycle_network":"ncn","source":"openstreetmap.org","min_zoom":8.0},"arcs":[624]},{"type":"MultiLineString","properties":{"cycleway_right":"track","network":null,"sort_rank":380,"kind_detail":"primary","is_bicycle_related":true,"kind":"major_road","source":"openstreetmap.org","min_zoom":8.0,"landuse_kind":"urban_area","shield_text":"168","ref":"B 168"},"arcs":[[625],[626]]},{"type":"LineString","properties":{"kind":"major_road","sort_rank":380,"kind_detail":"primary","old_name:de":"Blumen Stra\u00dfe","source":"openstreetmap.org","min_zoom":8.0,"landuse_kind":"urban_area","ref":"29","id":165621296},"arcs":[627]},{"type":"MultiLineString","properties":{"kind":"path","sort_rank":354,"kind_detail":"path","is_bicycle_related":true,"bicycle_shield_text":"D12","bicycle_network":"ncn","source":"openstreetmap.org","min_zoom":8.0},"arcs":[[628],[629],[630],[631],[632],[633],[634],[635],[636],[637],[638],[639],[640]]},{"type":"MultiLineString","properties":{"kind":"highway","network":"pl:national","sort_rank":383,"landuse_kind":"nature_reserve","source":"openstreetmap.org","min_zoom":8.0,"all_networks":["pl:national","e-road","pl:motorways"],"kind_detail":"motorway","shield_text":"2","ref":"A2","all_shield_texts":["2","30","2"]},"arcs":[[641],[642]]},{"type":"LineString","properties":{"kind":"minor_road","cycleway_left":"track","sort_rank":360,"kind_detail":"residential","is_bicycle_related":true,"bicycle_shield_text":"D12","bicycle_network":"ncn","source":"openstreetmap.org","min_zoom":8.0},"arcs":[643]},{"type":"LineString","properties":{"kind":"major_road","network":"pl:regional","sort_rank":379,"kind_detail":"secondary","is_bicycle_related":true,"bus_network":null,"bicycle_shield_text":"R1","bicycle_network":"icn","source":"openstreetmap.org","min_zoom":8.0,"bus_shield_text":"253","shield_text":"134","ref":"134;137","id":243872706},"arcs":[644]},{"type":"MultiLineString","properties":{"kind":"highway","network":"e-road","sort_rank":383,"landuse_kind":"urban_area","source":"openstreetmap.org","min_zoom":8.0,"all_networks":["e-road"],"kind_detail":"motorway","shield_text":"30","all_shield_texts":["30"]},"arcs":[[645],[646]]},{"type":"LineString","properties":{"bus_network":"Verkehrsverbund Berlin-Brandenburg","network":"pl:national","sort_rank":380,"kind_detail":"primary","kind":"major_road","source":"openstreetmap.org","min_zoom":8.0,"bus_shield_text":"983","shield_text":"29","landuse_kind":"urban_area","ref":"29","old_name:de":"Crossener Stra\u00dfe"},"arcs":[647]},{"type":"LineString","properties":{"kind":"major_road","network":"pl:national","sort_rank":380,"kind_detail":"primary","bus_network":"Verkehrsverbund Berlin-Brandenburg","old_name:de":"Sonnenburger Stra\u00dfe","source":"openstreetmap.org","min_zoom":8.0,"bus_shield_text":"983","shield_text":"31","landuse_kind":"urban_area","ref":"31","id":169254558},"arcs":[648]},{"type":"LineString","properties":{"bus_network":"Verkehrsverbund Berlin-Brandenburg","sort_rank":380,"kind_detail":"primary","kind":"major_road","source":"openstreetmap.org","min_zoom":8.0,"bus_shield_text":"980","landuse_kind":"urban_area","ref":"B 5"},"arcs":[649]},{"type":"LineString","properties":{"kind":"major_road","network":"Landesstra\u00dfen Brandenburg","sort_rank":380,"kind_detail":"primary","source":"openstreetmap.org","min_zoom":8.0,"shield_text":"431","ref":"L 431"},"arcs":[650]},{"type":"LineString","properties":{"kind":"major_road","network":null,"sort_rank":380,"kind_detail":"primary","is_bicycle_related":true,"cycleway":"track","source":"openstreetmap.org","min_zoom":8.0,"shield_text":"168","ref":"B 168","id":270662534},"arcs":[651]},{"type":"LineString","properties":{"bus_network":null,"network":null,"sort_rank":380,"kind_detail":"primary","kind":"major_road","source":"openstreetmap.org","min_zoom":8.0,"bus_shield_text":"Linie 16","shield_text":"97","landuse_kind":"protected_area","ref":"B 97"},"arcs":[652]},{"type":"MultiLineString","properties":{"kind":"major_road","network":null,"sort_rank":380,"kind_detail":"primary","source":"openstreetmap.org","min_zoom":8.0,"landuse_kind":"urban_area","shield_text":"168","ref":"B 168"},"arcs":[[653],[654]]},{"type":"LineString","properties":{"kind":"major_road","network":null,"sort_rank":380,"kind_detail":"primary","is_bicycle_related":true,"bicycle_shield_text":"HiSt 6","bicycle_network":"rcn","source":"openstreetmap.org","min_zoom":8.0,"shield_text":"87","id":490713796},"arcs":[655]},{"type":"MultiLineString","properties":{"kind":"highway","network":"BAB","sort_rank":383,"kind_detail":"motorway","source":"openstreetmap.org","min_zoom":8.0,"all_networks":["BAB","e-road"],"landuse_kind":"urban_area","shield_text":"12","ref":"A 12","all_shield_texts":["12","30"]},"arcs":[[656],[657],[658],[659]]},{"type":"MultiLineString","properties":{"source":"openstreetmap.org","kind":"major_road","landuse_kind":"urban_area","sort_rank":380,"kind_detail":"primary","ref":"B 5","min_zoom":8.0},"arcs":[[660],[661]]},{"type":"LineString","properties":{"kind":"major_road","network":"Landesstra\u00dfen Brandenburg","sort_rank":380,"kind_detail":"primary","source":"openstreetmap.org","min_zoom":8.0,"landuse_kind":"protected_area","shield_text":"48","ref":"L 48"},"arcs":[662]},{"type":"LineString","properties":{"source":"openstreetmap.org","kind":"major_road","landuse_kind":"protected_area","sort_rank":380,"kind_detail":"primary","ref":"B 168","min_zoom":8.0},"arcs":[663]},{"type":"LineString","properties":{"kind":"major_road","network":"pl:national","sort_rank":380,"kind_detail":"primary","old_name:de":"Ro\u00dfmarkt","source":"openstreetmap.org","min_zoom":8.0,"landuse_kind":"urban_area","shield_text":"31","ref":"31","id":158334330},"arcs":[664]},{"type":"MultiLineString","properties":{"kind":"major_road","network":"pl:national","sort_rank":380,"kind_detail":"primary","source":"openstreetmap.org","min_zoom":8.0,"landuse_kind":"nature_reserve","shield_text":"12","ref":"12"},"arcs":[[665],[666],[667],[668],[669]]},{"type":"LineString","properties":{"kind":"major_road","network":null,"sort_rank":380,"kind_detail":"primary","source":"openstreetmap.org","min_zoom":8.0,"landuse_kind":"protected_area","shield_text":"97","id":65272460},"arcs":[670]},{"type":"LineString","properties":{"bus_network":"Verkehrsverbund Berlin-Brandenburg","network":"Landesstra\u00dfen Brandenburg","sort_rank":380,"kind_detail":"primary","kind":"major_road","source":"openstreetmap.org","min_zoom":8.0,"bus_shield_text":"856","shield_text":"482","ref":"B 112"},"arcs":[671]},{"type":"LineString","properties":{"kind":"minor_road","sort_rank":358,"kind_detail":"service","is_bicycle_related":true,"bicycle_shield_text":"D12","bicycle_network":"ncn","source":"openstreetmap.org","min_zoom":8.0},"arcs":[672]},{"type":"MultiLineString","properties":{"source":"openstreetmap.org","kind":"major_road","landuse_kind":"protected_area","sort_rank":380,"kind_detail":"primary","ref":"B 169","min_zoom":8.0},"arcs":[[673],[674],[675],[676]]},{"type":"LineString","properties":{"kind":"major_road","network":null,"sort_rank":380,"kind_detail":"primary","source":"openstreetmap.org","min_zoom":8.0,"shield_text":"115","ref":"B 112\/B115","id":258301822},"arcs":[677]},{"type":"LineString","properties":{"kind":"major_road","sort_rank":377,"kind_detail":"tertiary","is_bicycle_related":true,"bicycle_shield_text":"R1","bicycle_network":"icn","source":"openstreetmap.org","min_zoom":8.0,"ref":"1291F"},"arcs":[678]},{"type":"LineString","properties":{"bus_network":null,"network":"pl:national","sort_rank":380,"kind_detail":"primary","kind":"major_road","source":"openstreetmap.org","min_zoom":8.0,"bus_shield_text":"253","shield_text":"29","ref":"29"},"arcs":[679]},{"type":"LineString","properties":{"cycleway_right":"track","network":null,"sort_rank":380,"kind_detail":"primary","is_bicycle_related":true,"kind":"major_road","source":"openstreetmap.org","min_zoom":8.0,"landuse_kind":"protected_area","shield_text":"168","ref":"B 168"},"arcs":[680]},{"type":"LineString","properties":{"kind":"major_road","network":"pl:national","sort_rank":380,"kind_detail":"primary","id":460243590,"source":"openstreetmap.org","min_zoom":8.0,"shield_text":"31","ref":"31","old_name:de":"Sonnenburger Stra\u00dfe"},"arcs":[681]},{"type":"LineString","properties":{"kind":"major_road","network":"pl:national","sort_rank":380,"kind_detail":"primary","old_name:de":"Blumen Stra\u00dfe","source":"openstreetmap.org","min_zoom":8.0,"landuse_kind":"urban_area","shield_text":"29","ref":"29","id":111390685},"arcs":[682]},{"type":"MultiLineString","properties":{"cycleway_right":"track","network":null,"sort_rank":380,"kind_detail":"primary","is_bicycle_related":true,"bus_network":"VBB","source":"openstreetmap.org","min_zoom":8.0,"bus_shield_text":"411 (1)","shield_text":"168","landuse_kind":"urban_area","ref":"B 168","kind":"major_road"},"arcs":[[683],[684]]},{"type":"LineString","properties":{"kind":"major_road","network":null,"sort_rank":380,"kind_detail":"primary","source":"openstreetmap.org","min_zoom":8.0,"landuse_kind":"protected_area","shield_text":"169","ref":"B 168","id":127103057},"arcs":[685]},{"type":"LineString","properties":{"bus_network":"Verkehrsverbund Berlin-Brandenburg","network":null,"sort_rank":380,"kind_detail":"primary","is_bicycle_related":true,"kind":"major_road","bicycle_shield_text":"TB","bicycle_network":"rcn","source":"openstreetmap.org","min_zoom":8.0,"bus_shield_text":"877","shield_text":"168","landuse_kind":"protected_area","ref":"B 168"},"arcs":[686]},{"type":"MultiLineString","properties":{"kind":"path","sort_rank":354,"landuse_kind":"urban_area","is_bicycle_related":true,"bicycle_shield_text":"D12","bicycle_network":"ncn","source":"openstreetmap.org","min_zoom":8.0,"kind_detail":"path"},"arcs":[[687],[688],[689],[690],[691],[692],[693],[694],[695],[696],[697],[698],[699],[700]]},{"type":"LineString","properties":{"kind":"major_road","sort_rank":380,"kind_detail":"primary","is_bicycle_related":true,"bus_network":"Verkehrsverbund Berlin-Brandenburg","source":"openstreetmap.org","min_zoom":8.0,"bus_shield_text":"983","landuse_kind":"urban_area","id":292970282},"arcs":[701]},{"type":"LineString","properties":{"kind":"minor_road","sort_rank":360,"landuse_kind":"urban_area","is_bicycle_related":true,"bicycle_shield_text":"ORT","bicycle_network":"ncn","source":"openstreetmap.org","min_zoom":8.0,"kind_detail":"unclassified"},"arcs":[702]},{"type":"LineString","properties":{"kind":"major_road","network":"pl:national","sort_rank":380,"kind_detail":"primary","source":"openstreetmap.org","min_zoom":8.0,"landuse_kind":"nature_reserve","shield_text":"31","ref":"31"},"arcs":[703]},{"type":"LineString","properties":{"kind":"major_road","sort_rank":377,"kind_detail":"tertiary","is_bicycle_related":true,"bicycle_shield_text":"R1","bicycle_network":"icn","source":"openstreetmap.org","min_zoom":8.0,"ref":"1278F"},"arcs":[704]},{"type":"MultiLineString","properties":{"kind":"path","sort_rank":354,"landuse_kind":"urban_area","is_bicycle_related":true,"bicycle_shield_text":"D12","bicycle_network":"ncn","source":"openstreetmap.org","min_zoom":8.0,"kind_detail":"footway"},"arcs":[[705],[706]]},{"type":"MultiLineString","properties":{"kind":"major_road","network":"pl:regional","sort_rank":379,"kind_detail":"secondary","is_bicycle_related":true,"bicycle_shield_text":"R1","bicycle_network":"icn","source":"openstreetmap.org","min_zoom":8.0,"shield_text":"134","ref":"134"},"arcs":[[707],[708],[709]]},{"type":"LineString","properties":{"kind":"major_road","network":null,"sort_rank":380,"kind_detail":"primary","source":"openstreetmap.org","min_zoom":8.0,"landuse_kind":"urban_area","shield_text":"115","ref":"B 112\/B 115","id":40579113},"arcs":[710]},{"type":"LineString","properties":{"kind":"major_road","network":null,"sort_rank":380,"kind_detail":"primary","bus_network":"Verkehrsverbund Berlin-Brandenburg","source":"openstreetmap.org","min_zoom":8.0,"bus_shield_text":"3N","shield_text":"169","landuse_kind":"protected_area","ref":"B 168","id":131254234},"arcs":[711]},{"type":"MultiLineString","properties":{"kind":"major_road","network":"pl:national","sort_rank":380,"kind_detail":"primary","source":"openstreetmap.org","min_zoom":8.0,"landuse_kind":"urban_area","shield_text":"12","ref":"12"},"arcs":[[712],[713],[714],[715],[716],[717],[718],[719],[720],[721],[722],[723],[724],[725],[726]]},{"type":"LineString","properties":{"kind":"major_road","sort_rank":379,"kind_detail":"secondary","is_bicycle_related":true,"bicycle_shield_text":"D12","cycleway":"track","source":"openstreetmap.org","min_zoom":8.0,"landuse_kind":"urban_area","bicycle_network":"ncn","ref":"L 381","id":44354075},"arcs":[727]},{"type":"MultiLineString","properties":{"bus_network":"Verkehrsverbund Berlin-Brandenburg","network":null,"sort_rank":380,"kind_detail":"primary","kind":"major_road","source":"openstreetmap.org","min_zoom":8.0,"bus_shield_text":"980","shield_text":"5","landuse_kind":"urban_area","ref":"B 5"},"arcs":[[728],[729]]},{"type":"LineString","properties":{"bus_network":"VBB","network":null,"sort_rank":380,"kind_detail":"primary","is_bicycle_related":true,"cycleway_right":"track","id":40398740,"source":"openstreetmap.org","min_zoom":8.0,"bus_shield_text":"968","shield_text":"167","ref":"B 167","kind":"major_road"},"arcs":[730]},{"type":"MultiLineString","properties":{"kind":"major_road","network":null,"sort_rank":381,"kind_detail":"trunk","source":"openstreetmap.org","min_zoom":8.0,"shield_text":"87","ref":"B 87"},"arcs":[[731],[732],[733]]},{"type":"MultiLineString","properties":{"kind":"major_road","network":null,"sort_rank":380,"kind_detail":"primary","source":"openstreetmap.org","min_zoom":8.0,"shield_text":"115","ref":"B 112\/B 115"},"arcs":[[734],[735],[736]]},{"type":"LineString","properties":{"kind":"major_road","sort_rank":380,"landuse_kind":"urban_area","source":"openstreetmap.org","min_zoom":8.0,"kind_detail":"primary","ref":"31","id":130538922},"arcs":[737]},{"type":"LineString","properties":{"kind":"major_road","sort_rank":381,"landuse_kind":"nature_reserve","source":"openstreetmap.org","min_zoom":8.0,"kind_detail":"trunk","ref":"18","id":159065053},"arcs":[738]},{"type":"MultiLineString","properties":{"kind":"major_road","network":"pl:national","sort_rank":381,"kind_detail":"trunk","source":"openstreetmap.org","min_zoom":8.0,"landuse_kind":"nature_reserve","shield_text":"18","ref":"18"},"arcs":[[739],[740]]},{"type":"MultiLineString","properties":{"bus_network":"VBB","network":null,"sort_rank":380,"kind_detail":"primary","kind":"major_road","source":"openstreetmap.org","min_zoom":8.0,"bus_shield_text":"433","shield_text":"168","landuse_kind":"urban_area","ref":"B 168"},"arcs":[[741],[742]]},{"type":"MultiLineString","properties":{"bus_network":"Verkehrsverbund Berlin-Brandenburg","network":null,"sort_rank":380,"kind_detail":"primary","kind":"major_road","source":"openstreetmap.org","min_zoom":8.0,"bus_shield_text":"Linie 25","shield_text":"169","landuse_kind":"protected_area","ref":"B 169"},"arcs":[[743],[744]]},{"type":"MultiLineString","properties":{"kind":"highway","network":"pl:national","sort_rank":383,"landuse_kind":"urban_area","source":"openstreetmap.org","min_zoom":8.0,"all_networks":["pl:national","e-road","pl:motorways"],"kind_detail":"motorway","shield_text":"2","ref":"A2","all_shield_texts":["2","30","2"]},"arcs":[[745],[746]]},{"type":"MultiLineString","properties":{"bus_network":"VBB","network":null,"sort_rank":380,"kind_detail":"primary","kind":"major_road","source":"openstreetmap.org","min_zoom":8.0,"bus_shield_text":"430","shield_text":"246","ref":"B 246"},"arcs":[[747],[748]]},{"type":"MultiLineString","properties":{"source":"openstreetmap.org","kind":"major_road","landuse_kind":"urban_area","sort_rank":380,"kind_detail":"primary","min_zoom":8.0},"arcs":[[749],[750]]},{"type":"LineString","properties":{"bus_network":null,"network":null,"sort_rank":380,"kind_detail":"primary","kind":"major_road","source":"openstreetmap.org","min_zoom":8.0,"bus_shield_text":"Linie 16","shield_text":"169","landuse_kind":"protected_area","ref":"B 169"},"arcs":[751]},{"type":"MultiLineString","properties":{"bus_network":"VBB","network":null,"sort_rank":380,"kind_detail":"primary","kind":"major_road","source":"openstreetmap.org","min_zoom":8.0,"bus_shield_text":"967","shield_text":"5","ref":"B 5"},"arcs":[[752],[753]]},{"type":"LineString","properties":{"kind":"path","sort_rank":354,"landuse_kind":"residential","is_bicycle_related":true,"bicycle_shield_text":"D12","bicycle_network":"ncn","source":"openstreetmap.org","min_zoom":8.0,"kind_detail":"footway"},"arcs":[754]},{"type":"LineString","properties":{"kind":"major_road","cycleway_left":"track","network":null,"sort_rank":380,"kind_detail":"primary","is_bicycle_related":true,"source":"openstreetmap.org","min_zoom":8.0,"shield_text":"168","ref":"B 168","id":270662533},"arcs":[755]},{"type":"MultiLineString","properties":{"kind":"major_road","network":"pl:national","sort_rank":381,"kind_detail":"trunk","source":"openstreetmap.org","min_zoom":8.0,"shield_text":"18","ref":"18"},"arcs":[[756],[757],[758],[759]]},{"type":"LineString","properties":{"kind":"major_road","network":null,"sort_rank":380,"kind_detail":"primary","bus_network":null,"source":"openstreetmap.org","min_zoom":8.0,"bus_shield_text":"Linie 16","shield_text":"97","landuse_kind":"protected_area","ref":"B 168","id":187045857},"arcs":[760]},{"type":"MultiLineString","properties":{"bus_network":"Verkehrsverbund Berlin-Brandenburg","network":null,"sort_rank":380,"landuse_kind":"protected_area","kind":"major_road","source":"openstreetmap.org","min_zoom":8.0,"bus_shield_text":"513","shield_text":"320","kind_detail":"primary","ref":"B 320"},"arcs":[[761],[762]]},{"type":"LineString","properties":{"kind":"major_road","sort_rank":380,"kind_detail":"primary","bus_network":"Verkehrsverbund Berlin-Brandenburg","source":"openstreetmap.org","min_zoom":8.0,"bus_shield_text":"877","landuse_kind":"protected_area","ref":"B 168","id":255573114},"arcs":[763]},{"type":"MultiLineString","properties":{"kind":"major_road","network":"pl:national","sort_rank":380,"kind_detail":"primary","source":"openstreetmap.org","min_zoom":8.0,"landuse_kind":"urban_area","shield_text":"27","ref":"27"},"arcs":[[764],[765],[766],[767],[768],[769],[770]]},{"type":"LineString","properties":{"kind":"major_road","network":"pl:national","sort_rank":380,"kind_detail":"primary","is_bicycle_related":true,"bus_network":"Verkehrsverbund Berlin-Brandenburg","source":"openstreetmap.org","min_zoom":8.0,"bus_shield_text":"983","shield_text":"29","landuse_kind":"urban_area","ref":"29;31","id":165621310},"arcs":[771]},{"type":"LineString","properties":{"kind":"major_road","network":"pl:regional","sort_rank":379,"kind_detail":"secondary","is_bicycle_related":true,"bicycle_shield_text":"R1","bicycle_network":"icn","source":"openstreetmap.org","min_zoom":8.0,"shield_text":"137","ref":"137"},"arcs":[772]},{"type":"MultiLineString","properties":{"bus_network":"Verkehrsverbund Berlin-Brandenburg","network":"pl:national","sort_rank":380,"kind_detail":"primary","kind":"major_road","source":"openstreetmap.org","min_zoom":8.0,"bus_shield_text":"983","shield_text":"31","landuse_kind":"urban_area","ref":"31"},"arcs":[[773],[774],[775],[776]]},{"type":"MultiLineString","properties":{"kind":"minor_road","sort_rank":360,"landuse_kind":"protected_area","is_bicycle_related":true,"bicycle_shield_text":"D12","bicycle_network":"ncn","source":"openstreetmap.org","min_zoom":8.0,"kind_detail":"residential"},"arcs":[[777],[778],[779]]},{"type":"LineString","properties":{"kind":"major_road","network":null,"sort_rank":380,"kind_detail":"primary","is_bicycle_related":true,"bicycle_shield_text":"NBBT","bicycle_network":"rcn","source":"openstreetmap.org","min_zoom":8.0,"landuse_kind":"protected_area","shield_text":"112","ref":"B 112","id":151936503},"arcs":[780]},{"type":"LineString","properties":{"kind":"major_road","network":null,"sort_rank":380,"kind_detail":"primary","source":"openstreetmap.org","min_zoom":8.0,"shield_text":"320","ref":"B 168;B 320","id":382968354},"arcs":[781]},{"type":"LineString","properties":{"cycleway_right":"track","network":null,"sort_rank":380,"kind_detail":"primary","is_bicycle_related":true,"bus_network":"VBB","source":"openstreetmap.org","min_zoom":8.0,"bus_shield_text":"433","shield_text":"168","landuse_kind":"urban_area","ref":"B 168","kind":"major_road"},"arcs":[782]},{"type":"MultiLineString","properties":{"kind":"major_road","sort_rank":377,"kind_detail":"tertiary","is_bicycle_related":true,"bicycle_shield_text":"R1","bicycle_network":"icn","source":"openstreetmap.org","min_zoom":8.0,"ref":"1275F"},"arcs":[[783],[784],[785]]},{"type":"MultiLineString","properties":{"kind":"major_road","network":null,"sort_rank":380,"kind_detail":"primary","source":"openstreetmap.org","min_zoom":8.0,"shield_text":"168","ref":"B 168"},"arcs":[[786],[787],[788],[789],[790],[791],[792],[793],[794],[795],[796],[797],[798],[799]]},{"type":"LineString","properties":{"kind":"major_road","cycleway_left":"track","network":null,"sort_rank":380,"kind_detail":"primary","is_bicycle_related":true,"source":"openstreetmap.org","min_zoom":8.0,"landuse_kind":"nature_reserve","shield_text":"87","ref":"B 87","id":125301249},"arcs":[800]},{"type":"LineString","properties":{"bus_network":"VBB","network":null,"sort_rank":380,"kind_detail":"primary","is_bicycle_related":true,"kind":"major_road","bicycle_shield_text":"OBB","bicycle_network":"lcn","source":"openstreetmap.org","min_zoom":8.0,"bus_shield_text":"433","shield_text":"5","ref":"B 5","id":62025001},"arcs":[801]},{"type":"LineString","properties":{"kind":"major_road","network":"pl:national","sort_rank":380,"kind_detail":"primary","source":"openstreetmap.org","min_zoom":8.0,"old_name":"Micha\u0142a \u017bymierskiego","shield_text":"29","ref":"29","id":28332779},"arcs":[802]},{"type":"LineString","properties":{"kind":"major_road","network":"pl:national","sort_rank":380,"kind_detail":"primary","is_bicycle_related":true,"bicycle_shield_text":null,"bicycle_network":"rcn","source":"openstreetmap.org","min_zoom":8.0,"shield_text":"92","ref":"92"},"arcs":[803]},{"type":"MultiLineString","properties":{"kind":"major_road","network":null,"sort_rank":380,"kind_detail":"primary","source":"openstreetmap.org","min_zoom":8.0,"landuse_kind":"protected_area","shield_text":"169","ref":"B 169"},"arcs":[[804],[805],[806],[807],[808],[809],[810],[811],[812],[813],[814],[815],[816],[817],[818],[819]]},{"type":"LineString","properties":{"cycleway_right":"track","network":null,"sort_rank":380,"kind_detail":"primary","is_bicycle_related":true,"bus_network":"VBB","source":"openstreetmap.org","min_zoom":8.0,"bus_shield_text":"403","shield_text":"168","ref":"B 168","kind":"major_road"},"arcs":[820]},{"type":"LineString","properties":{"bus_network":"Verkehrsverbund Berlin-Brandenburg","network":null,"sort_rank":380,"kind_detail":"primary","kind":"major_road","source":"openstreetmap.org","min_zoom":8.0,"bus_shield_text":"43","shield_text":"97","landuse_kind":"protected_area","ref":"B 97"},"arcs":[821]},{"type":"LineString","properties":{"kind":"minor_road","sort_rank":358,"landuse_kind":"urban_area","is_bicycle_related":true,"bicycle_shield_text":"D12","bicycle_network":"ncn","source":"openstreetmap.org","min_zoom":8.0,"kind_detail":"service"},"arcs":[822]},{"type":"LineString","properties":{"kind":"major_road","network":"Landesstra\u00dfen Brandenburg","sort_rank":380,"kind_detail":"primary","is_bicycle_related":true,"bicycle_shield_text":"SI","bicycle_network":"rcn","source":"openstreetmap.org","min_zoom":8.0,"landuse_kind":"protected_area","shield_text":"48","ref":"L 48","id":146575502},"arcs":[823]},{"type":"LineString","properties":{"kind":"major_road","network":null,"sort_rank":380,"kind_detail":"primary","source":"openstreetmap.org","min_zoom":8.0,"landuse_kind":"nature_reserve","shield_text":"168","ref":"B 168","id":38138978},"arcs":[824]},{"type":"MultiLineString","properties":{"bus_network":null,"network":null,"sort_rank":380,"kind_detail":"primary","kind":"major_road","source":"openstreetmap.org","min_zoom":8.0,"bus_shield_text":"Linie 14","shield_text":"169","landuse_kind":"protected_area","ref":"B 169"},"arcs":[[825],[826]]},{"type":"LineString","properties":{"bus_network":"VBB","network":null,"sort_rank":380,"kind_detail":"primary","kind":"major_road","source":"openstreetmap.org","min_zoom":8.0,"bus_shield_text":"969","shield_text":"112","ref":"B 112"},"arcs":[827]},{"type":"LineString","properties":{"bus_network":"Verkehrsverbund Berlin-Brandenburg","network":null,"sort_rank":380,"kind_detail":"primary","is_bicycle_related":true,"kind":"major_road","cycleway":"track","source":"openstreetmap.org","min_zoom":8.0,"bus_shield_text":"856","shield_text":"115","ref":"B 115"},"arcs":[828]},{"type":"LineString","properties":{"cycleway_right":"track","sort_rank":380,"kind_detail":"primary","is_bicycle_related":true,"kind":"major_road","bus_network":"VBB","source":"openstreetmap.org","min_zoom":8.0,"bus_shield_text":"433","landuse_kind":"urban_area","ref":"B 168","id":179146928},"arcs":[829]},{"type":"LineString","properties":{"bus_network":"Verkehrsverbund Berlin-Brandenburg","network":null,"sort_rank":380,"kind_detail":"primary","kind":"major_road","source":"openstreetmap.org","min_zoom":8.0,"bus_shield_text":"877","shield_text":"320","landuse_kind":"residential","ref":"B 320"},"arcs":[830]},{"type":"LineString","properties":{"bus_network":"VBB","network":null,"sort_rank":380,"kind_detail":"primary","old_name":"Steinh\u00f6feler Chaussee","is_bicycle_related":true,"kind":"major_road","cycleway":"track","source":"openstreetmap.org","min_zoom":8.0,"bus_shield_text":"411 (1)","shield_text":"168","landuse_kind":"urban_area","ref":"B 168","id":179160066},"arcs":[831]},{"type":"MultiLineString","properties":{"kind":"major_road","network":null,"sort_rank":380,"kind_detail":"primary","source":"openstreetmap.org","min_zoom":8.0,"landuse_kind":"protected_area","shield_text":"115","ref":"B 112\/ B 115"},"arcs":[[832],[833]]},{"type":"MultiLineString","properties":{"bus_network":"VBB","network":null,"sort_rank":380,"kind_detail":"primary","kind":"major_road","source":"openstreetmap.org","min_zoom":8.0,"bus_shield_text":"968","shield_text":"167","ref":"B 167"},"arcs":[[834],[835]]},{"type":"LineString","properties":{"source":"openstreetmap.org","kind":"major_road","landuse_kind":"urban_area","sort_rank":380,"kind_detail":"primary","ref":"B 87","min_zoom":8.0},"arcs":[836]},{"type":"MultiLineString","properties":{"bus_network":"Verkehrsverbund Berlin-Brandenburg","sort_rank":380,"kind_detail":"primary","kind":"major_road","source":"openstreetmap.org","min_zoom":8.0,"bus_shield_text":"983","landuse_kind":"urban_area","ref":"B 5"},"arcs":[[837],[838]]},{"type":"LineString","properties":{"kind":"minor_road","sort_rank":360,"landuse_kind":"nature_reserve","is_bicycle_related":true,"bicycle_shield_text":"D12","bicycle_network":"ncn","source":"openstreetmap.org","min_zoom":8.0,"kind_detail":"residential"},"arcs":[839]},{"type":"MultiLineString","properties":{"bus_network":"Verkehrsverbund Berlin-Brandenburg","network":null,"sort_rank":380,"kind_detail":"primary","kind":"major_road","source":"openstreetmap.org","min_zoom":8.0,"bus_shield_text":"858","shield_text":"112","landuse_kind":"protected_area","ref":"B 112"},"arcs":[[840],[841],[842]]},{"type":"LineString","properties":{"kind":"major_road","network":"pl:national","sort_rank":380,"kind_detail":"primary","is_bicycle_related":true,"source":"openstreetmap.org","min_zoom":8.0,"landuse_kind":"urban_area","shield_text":"29","ref":"29;31","id":292970284},"arcs":[843]},{"type":"MultiLineString","properties":{"kind":"major_road","network":null,"sort_rank":380,"kind_detail":"primary","source":"openstreetmap.org","min_zoom":8.0,"shield_text":"246","ref":"B 246"},"arcs":[[844],[845]]},{"type":"LineString","properties":{"bus_network":"Verkehrsverbund Berlin-Brandenburg","network":null,"sort_rank":380,"kind_detail":"primary","kind":"major_road","source":"openstreetmap.org","min_zoom":8.0,"bus_shield_text":"502","shield_text":"87","landuse_kind":"protected_area","ref":"B 87"},"arcs":[846]},{"type":"LineString","properties":{"bus_network":null,"network":null,"sort_rank":380,"kind_detail":"primary","kind":"major_road","source":"openstreetmap.org","min_zoom":8.0,"bus_shield_text":"Linie 16","shield_text":"97","landuse_kind":"protected_area"},"arcs":[847]},{"type":"LineString","properties":{"kind":"highway","sort_rank":383,"landuse_kind":"urban_area","is_bicycle_related":true,"source":"openstreetmap.org","min_zoom":8.0,"kind_detail":"motorway","id":487640183},"arcs":[848]}]},"earth":{"type":"GeometryCollection","geometries":[{"type":"Polygon","properties":{"sort_rank":10,"source":"naturalearthdata.com","min_zoom":0.0,"kind":"earth","area":98022885885},"arcs":[[849]]}]},"landuse":{"type":"GeometryCollection","geometries":[{"type":"Polygon","properties":{"source":"openstreetmap.org","kind":"nature_reserve","tier":2,"area":31252861,"sort_rank":23,"min_zoom":8.0},"arcs":[[850],[851]]},{"type":"MultiPolygon","properties":{"source":"openstreetmap.org","kind":"protected_area","tier":2,"area":76015889,"sort_rank":17,"min_zoom":8.0,"osm_relation":true},"arcs":[[[852]],[[853]]]},{"type":"Polygon","properties":{"kind":"nature_reserve","protect_class":"5","area":124719000,"sort_rank":23,"source":"openstreetmap.org","min_zoom":7.0,"tier":2,"id":-4524597,"osm_relation":true},"arcs":[[854]]},{"type":"MultiPolygon","properties":{"kind":"nature_reserve","protect_class":"5","area":4112056337,"sort_rank":23,"source":"openstreetmap.org","min_zoom":6.0,"tier":2,"osm_relation":true},"arcs":[[[855]],[[856],[857],[858]],[[859]]]},{"type":"Polygon","properties":{"kind":"protected_area","protect_class":"4","area":22452200,"sort_rank":17,"operator":"Land Brandenburg","source":"openstreetmap.org","min_zoom":8.0,"tier":2,"id":-4763316,"osm_relation":true},"arcs":[[860]]},{"type":"Polygon","properties":{"kind":"protected_area","protect_class":"4","area":10223100,"sort_rank":17,"source":"openstreetmap.org","min_zoom":8.0,"tier":2,"id":-5869622,"osm_relation":true},"arcs":[[861]]},{"type":"MultiPolygon","properties":{"kind":"nature_reserve","protect_class":"5","area":136441987,"sort_rank":23,"source":"openstreetmap.org","min_zoom":8.0,"tier":2,"osm_relation":true},"arcs":[[[862]]]},{"type":"MultiPolygon","properties":{"source":"openstreetmap.org","kind":"nature_reserve","tier":2,"protect_class":"4","area":149603540,"sort_rank":23,"min_zoom":8.0},"arcs":[[[863]],[[864]],[[865]],[[866]]]},{"type":"Polygon","properties":{"kind":"nature_reserve","protect_class":"4","area":14395400,"sort_rank":23,"operator":"Land Brandenburg","source":"openstreetmap.org","min_zoom":8.0,"tier":2,"id":154096373},"arcs":[[867]]},{"type":"MultiPolygon","properties":{"source":"openstreetmap.org","kind":"military","tier":3,"area":920144089,"sort_rank":45,"min_zoom":8.0},"arcs":[[[868]]]},{"type":"MultiPolygon","properties":{"source":"naturalearthdata.com","kind":"urban_area","name":"","area":3898555972,"sort_rank":11,"min_zoom":4.0},"arcs":[[[869]],[[870]],[[871]],[[872]],[[873]],[[874]],[[875]],[[876]],[[877]],[[878]],[[879]],[[880]],[[881]],[[882]]]},{"type":"Polygon","properties":{"kind":"protected_area","protect_class":"24","area":6509100032,"sort_rank":17,"source":"openstreetmap.org","min_zoom":4.0,"tier":2,"id":-6001479,"osm_relation":true},"arcs":[[883]]},{"type":"Polygon","properties":{"kind":"residential","name":"Nuhnenvorstadt","area":11638600,"sort_rank":20,"source":"openstreetmap.org","min_zoom":8.0,"tier":2,"id":70087013},"arcs":[[884]]},{"type":"Polygon","properties":{"kind":"protected_area","protect_class":"98","area":1247769984,"sort_rank":17,"operator":"Ministerium f\u00fcr Umwelt, Gesundheit und Verbraucherschutz des Landes Brandenburg","source":"openstreetmap.org","min_zoom":4.0,"tier":2,"id":-534268,"osm_relation":true},"arcs":[[885]]},{"type":"MultiPolygon","properties":{"kind":"protected_area","protect_class":"4","area":206701963,"sort_rank":17,"source":"openstreetmap.org","min_zoom":6.0,"tier":2,"osm_relation":true},"arcs":[[[886]],[[887]]]},{"type":"MultiPolygon","properties":{"source":"openstreetmap.org","kind":"residential","tier":2,"area":130296846,"sort_rank":20,"min_zoom":8.0},"arcs":[[[888]],[[889]]]}]}},"type":"Topology","transform":{"translate":[14.0625,51.6180165488],"scale":[0.0003433228,0.0002111239]},"arcs":[[[2028,0],[-16,46],[12,158],[-57,82],[-5,48],[-134,96],[-64,81],[-35,72],[23,74],[-38,22],[8,105],[-24,57],[-111,39],[-49,79],[0,85],[41,7],[1,39],[22,-13],[-4,56],[95,47],[56,109],[35,-2],[-1,22],[57,36],[27,137],[46,52],[6,45],[-48,117],[49,87],[-22,44],[100,134],[-9,103],[40,56],[-52,93],[-119,61],[-54,83],[-5,131],[74,121],[-57,119],[65,84],[21,116],[-76,97],[-264,74],[-64,72],[23,89],[-28,77],[-40,25],[-29,227],[-49,87],[39,181],[90,44],[134,195]],[[1638,4096],[-134,-195],[-90,-44],[-39,-181],[49,-87],[29,-227],[40,-25],[28,-77],[-23,-89],[64,-72],[264,-74],[76,-97],[-21,-116],[-65,-84],[57,-119],[-74,-121],[5,-131],[54,-83],[119,-61],[52,-93],[-40,-56],[9,-103],[-100,-134],[22,-44],[-49,-87],[48,-117],[-6,-45],[-46,-52],[-27,-137],[-57,-36],[1,-22],[-35,2],[-56,-109],[-95,-47],[4,-56],[-22,13],[-1,-39],[-41,-7],[-1,-81],[50,-83],[111,-39],[24,-57],[-8,-105],[38,-22],[-23,-74],[35,-72],[64,-81],[134,-96],[5,-48],[57,-80],[-12,-160],[16,-46]],[[0,374],[144,9],[-58,-120],[39,-44],[33,2],[30,-113],[31,-21],[-5,-87]],[[1438,0],[-2,2],[28,225],[54,4],[30,51],[-23,36],[19,106],[46,18],[10,-36],[51,-4],[69,24],[20,-41],[88,-20],[-19,-142],[71,-46],[127,-9],[18,34],[-58,84],[-5,48],[-134,96],[-64,81],[-35,72],[23,74],[-38,22],[8,105],[-24,57],[-111,39],[-49,79],[0,85],[41,7],[1,39],[22,-13],[-16,35],[53,27],[6,37],[-8,17],[-104,-3],[-11,24],[26,21],[-26,43],[-96,39],[-21,124],[-63,64],[48,114],[-123,-25],[-79,68],[-51,-28],[-73,-103],[-134,-42],[-109,6],[-68,141],[-89,-20],[-65,24],[11,27],[-58,135],[-20,-36],[-61,42],[16,21],[-28,32],[36,57],[102,25],[7,20],[-144,43],[-17,52],[-4,72],[49,69],[52,22],[-59,-7],[-30,-34],[-37,40],[-30,-137],[-100,-2],[-62,-41],[-38,14],[-40,169],[-134,63],[-10,37]],[[0,599],[455,-1],[306,32]],[[519,609],[5,1]],[[754,630],[12,1],[-12,-1]],[[0,3544],[121,-21],[-55,-102],[-6,-105],[-60,-56]],[[0,3252],[7,-54],[3,-41]],[[70,3428],[2,2]],[[6,3202],[1,0],[0,-3],[-1,3]],[[10,3159],[0,-2],[0,2]],[[761,630],[-135,8],[-520,149],[-106,55]],[[1062,0],[-24,293],[-213,272],[-18,54],[-46,10]],[[1062,169],[-1,6]],[[0,3544],[121,-21],[-55,-102],[-6,-105],[-60,-56]],[[0,3252],[7,-54],[3,-41]],[[70,3428],[2,2]],[[6,3202],[1,0],[0,-3],[-1,3]],[[10,3159],[0,-2],[0,2]],[[4096,1558],[-218,-80],[-217,-118],[-10,-56],[31,-56],[-34,-68],[-124,-92],[-164,-305],[12,-178],[-58,-136],[-97,-3],[-127,-89],[-19,-272],[78,-34]],[[1415,3398],[-176,144],[3,184],[-146,370]],[[1420,3388],[-12,20]],[[1421,3379],[0,-50],[3,-9],[4,-5],[24,-8],[4,0],[4,2],[26,15]],[[1560,3406],[-17,-10],[-5,-5],[-5,-5],[-5,-9],[-15,-31],[-5,-8],[-54,-31],[-30,14],[-1,49]],[[1494,3329],[11,6],[3,3],[3,3],[3,5],[14,31],[8,12],[24,17]],[[1679,3428],[566,39],[17,-5],[220,-97],[8,-3],[12,-3],[13,-3],[7,-1],[6,0],[26,1],[98,6],[21,-2],[243,-75],[21,-14],[27,-40],[4,-6],[6,-6],[8,-8],[5,-5],[20,-17],[11,-8],[6,-5],[10,-5],[6,-4],[11,-4],[91,-35],[101,-73],[6,-3],[6,-3],[10,-2],[9,-1],[169,-4],[35,-2],[10,1],[6,1],[4,1],[54,17],[61,1],[9,0],[7,2],[9,4],[9,5],[58,42]],[[3705,3114],[-73,-50],[-80,-4],[-63,-19],[-224,6],[-123,81],[-124,53],[-80,90],[-22,14],[-243,75],[-21,2],[-124,-7],[-26,4],[-240,103],[-17,5],[-566,-39]],[[3860,3094],[86,-40],[7,-3],[7,-2],[6,-1],[90,-9],[40,-15]],[[4096,3025],[-39,14],[-104,13],[-93,42]],[[344,0],[173,237],[65,174],[113,194],[66,23]],[[0,3543],[574,-73],[262,-86],[196,29],[363,2],[25,-30],[3,-87],[87,-182],[-29,-148],[245,-397],[9,-60]],[[300,3501],[6,-1],[-6,1]],[[636,3451],[5,-2],[-5,2]],[[857,3386],[0,-1],[-6,-1],[0,1],[6,1]],[[973,3404],[7,1],[-7,-1]],[[1193,3409],[6,2],[-6,-2]],[[1735,2508],[1,9],[1,0],[-2,-9]],[[4096,3012],[-143,40],[-168,72],[-66,-2],[-93,-59],[-138,-22],[-226,7],[-244,133],[-102,104],[-243,75],[-171,-1],[-269,111],[-635,-48],[-151,-116],[-24,18],[-5,66],[-36,30],[-218,-21],[-132,15],[-196,-30],[-262,86],[-574,74]],[[2181,3467],[3,1],[14,1],[-17,-2]],[[1406,3406],[16,-106],[89,-186],[-30,-146],[254,-417],[-27,-276],[55,-77],[115,-46],[74,-140],[-5,-50],[-123,-205],[69,-216],[-415,-272],[-322,-152],[-75,-152],[-154,-40],[-56,-254],[-113,-39]],[[1735,2508],[1,9],[1,0],[-2,-9]],[[0,842],[104,-54],[403,-117],[181,-50],[73,8]],[[56,812],[5,-2]],[[543,663],[6,-2]],[[371,712],[-7,2],[7,-2]],[[761,630],[-305,-32],[-456,1]],[[754,630],[12,1],[-12,-1]],[[3995,1831],[16,43],[55,32]],[[0,842],[104,-54],[403,-117],[181,-50],[73,8]],[[3957,1877],[-5,0],[-7,0],[-20,5]],[[3957,1877],[-9,0]],[[3948,1877],[-23,5]],[[3964,1882],[-16,-5]],[[4096,1921],[-139,-44]],[[758,632],[-55,-7],[-121,-214],[-65,-174],[-173,-237]],[[0,599],[455,-1],[306,32]],[[754,630],[12,1],[-12,-1]],[[0,3543],[574,-73],[262,-86],[196,29],[132,-15],[219,21],[66,-113],[149,115],[634,49],[270,-111],[171,1],[243,-75],[102,-104],[244,-134],[226,-6],[139,21],[92,60],[66,2],[168,-73],[143,-40]],[[2184,3467],[16,1],[-12,-1],[-4,0]],[[3372,0],[-98,23],[-172,66],[-222,-1],[-147,68],[-293,79],[-148,3],[-517,315],[-101,20]],[[1676,573],[-5,0],[5,0]],[[1674,573],[-60,3],[-562,36],[-145,52],[-146,-34]],[[1325,595],[4,-1]],[[851,650],[-3,-2],[-3,0],[6,2]],[[1676,573],[-5,0],[5,0]],[[3195,0],[-11,43],[-112,58],[3,231],[19,51],[122,83],[98,3],[58,136],[-12,178],[164,305],[124,92],[34,68],[-31,56],[11,58],[216,116],[218,80]],[[758,632],[113,39],[56,254],[154,40],[75,152],[322,152],[416,272],[-70,216],[123,205],[5,50],[-74,140],[-112,44],[-56,77],[25,278],[-254,417],[31,143],[-90,189],[-14,108]],[[1735,2508],[1,9],[1,0],[-2,-9]],[[0,2752],[196,21],[240,-162],[136,44],[238,-77],[102,-1],[60,180],[83,75],[46,168],[236,301],[80,42],[-11,63]],[[313,2700],[-2,1],[2,-1]],[[545,2650],[-4,-1],[4,1]],[[609,2627],[-2,0],[-1,1],[3,-1]],[[921,2591],[0,3],[1,0],[-1,-3]],[[968,2749],[-1,-4],[1,4]],[[1083,2958],[-1,-6],[2,6],[-1,0]],[[1407,3335],[2,1],[0,1],[1,0],[-3,-2]],[[4096,3012],[-143,40],[-168,72],[-66,-2],[-93,-59],[-138,-22],[-226,7],[-244,133],[-102,104],[-243,75],[-171,-1],[-269,111],[-635,-48],[-151,-116],[-24,18],[-5,67],[-36,29],[-218,-21],[-132,15],[-196,-30],[-262,86],[-574,74]],[[0,2752],[196,21],[240,-162],[136,44],[238,-77],[102,-1],[60,180],[83,75],[46,168],[236,301],[80,42],[-11,63]],[[313,2700],[-2,1],[2,-1]],[[548,2651],[4,0],[-4,-1],[0,1]],[[609,2627],[-2,0],[-1,1],[3,-1]],[[921,2591],[0,3],[1,0],[-1,-3]],[[968,2749],[-1,-4],[1,4]],[[1083,2958],[-1,-6],[2,6],[-1,0]],[[1407,3335],[2,1],[0,1],[1,0],[-3,-2]],[[1415,3398],[-176,144],[3,184],[-146,370]],[[0,3543],[574,-73],[262,-86],[196,29],[132,-15],[219,21],[66,-113],[149,115],[634,49],[270,-111],[171,1],[243,-75],[102,-104],[244,-134],[226,-6],[139,21],[92,60],[66,2],[168,-73],[143,-40]],[[1736,2510],[1,13],[1,6],[-1,12],[-10,30],[-246,397],[30,146],[-89,186],[-24,114],[-366,0],[-183,-30],[-13,0],[-262,86],[-574,74]],[[300,3501],[6,0],[-6,0]],[[641,3449],[-5,2],[5,-2]],[[857,3386],[-6,-1],[6,1]],[[974,3405],[5,1],[-5,-1]],[[1193,3409],[6,2],[-6,-2]],[[1735,2508],[1,9],[1,0],[-2,-9]],[[4096,1579],[-3,0],[-4,2],[-28,16],[-4,2],[-4,3],[-26,23],[-5,6],[-3,4],[-10,17],[-3,6],[-2,5],[-1,5],[0,5],[0,8],[7,41],[-2,10],[-17,49],[-1,7],[-1,7],[1,8],[7,45],[-9,25],[-15,8],[-5,1],[-27,-1],[-6,0],[-35,9],[-7,3],[-6,4],[-4,3],[-4,4],[-68,82],[-15,19],[-2,4],[-3,5],[-14,43],[-12,17],[-278,179],[-29,16],[-53,3],[-5,0],[-4,1],[-6,2],[-2,1],[-9,6],[-233,160],[-152,68],[-6,4],[-5,3],[-3,3],[-5,5],[-187,237],[-3,5],[-47,99],[-7,10],[-5,5],[-71,60],[-9,8],[-81,98],[-99,78],[-83,84],[-3,4],[-22,30],[-75,102],[-10,13],[-146,45],[-7,3],[-4,3],[-5,3],[-4,4],[-5,6],[-3,5],[-2,5],[-2,7],[-1,9],[0,48],[-1,10],[-22,38],[-3,6],[-2,5],[-92,319],[-7,14],[-49,58],[-3,4],[-2,4],[-29,51],[-41,91]],[[4096,1580],[-43,22],[-48,61],[6,58],[-2,11],[-19,56],[7,60],[-9,25],[-15,8],[-86,16],[-91,108],[-19,53],[-12,16],[-280,181],[-17,11],[-7,3],[-5,1],[-68,6],[-242,167],[-163,74],[-195,245],[-50,104],[-7,10],[-166,171],[-181,162],[-101,136],[-10,13],[-165,58],[-15,90],[-118,369],[-8,13],[-54,66],[-69,142]],[[761,628],[-66,-23],[-113,-194],[-65,-174],[-173,-237]],[[761,630],[-135,8],[-520,149],[-106,55]],[[56,812],[5,-2]],[[543,663],[6,-2]],[[371,712],[-7,2],[7,-2]],[[344,0],[173,237],[65,174],[121,214],[55,7]],[[1062,0],[-24,293],[-213,272],[-18,54],[-46,10]],[[1061,174],[0,6]],[[1674,573],[-60,3],[-562,36],[-145,52],[-146,-34]],[[1325,595],[4,-1]],[[851,650],[-3,-2],[-3,0],[6,2]],[[1676,573],[-5,0],[5,0]],[[761,630],[-305,-32],[-456,1]],[[519,610],[5,1]],[[754,630],[12,1],[-12,-1]],[[962,0],[-32,0],[17,134],[34,99],[53,-74],[-27,-31],[-22,-36],[-30,-64],[7,-28]],[[443,2230],[46,-12],[47,17],[0,-29],[-26,-7],[-18,-11],[-15,-20],[-21,-29],[21,-43],[3,-57],[-13,-55],[-30,-40],[-12,14],[-10,7],[-37,12],[12,-28],[7,-32],[-5,-26],[-24,-11],[-17,23],[6,52],[13,46],[8,11],[16,148],[-5,68],[-32,42],[0,33],[80,35],[-17,-68],[23,-40]],[[947,134],[34,99],[53,-74],[-27,-31],[-22,-36],[-30,-64],[7,-28]],[[930,0],[17,134]],[[443,2230],[46,-12],[47,17],[0,-29],[-26,-7],[-18,-11],[-15,-20],[-21,-29],[21,-43],[3,-57],[-13,-55],[-30,-40],[-12,14],[-10,7],[-37,12],[12,-28],[7,-32],[-5,-26],[-24,-11],[-17,23],[6,52],[13,46],[8,11],[16,148],[-5,68],[-32,42],[0,33],[80,35],[-17,-68],[23,-40]],[[1258,0],[14,14]],[[2568,3336],[109,17]],[[1746,529],[0,17]],[[1865,1663],[3,2]],[[1892,1604],[-7,16]],[[1906,1576],[0,2]],[[3069,59],[-28,-59]],[[3166,252],[80,213],[19,155],[151,235],[45,-3],[38,58],[78,34],[176,155],[99,192],[94,75]],[[3946,1366],[10,22]],[[3956,1388],[-7,52],[58,111]],[[4007,1551],[3,4]],[[4009,1556],[-2,-5]],[[1596,2532],[-23,-9]],[[1534,3115],[160,-71]],[[1760,3036],[102,-81]],[[1798,2408],[-14,49]],[[1809,2729],[28,-55]],[[1843,2266],[-9,4]],[[1874,2842],[-25,-43]],[[1862,2624],[-1,-7]],[[1990,1959],[-50,-65]],[[1979,2182],[-28,34]],[[1983,2073],[0,-7]],[[2040,5],[-11,26]],[[784,599],[2,16]],[[786,620],[-2,-21]],[[796,567],[-12,32]],[[786,621]],[[1746,548],[-9,14]],[[1885,1620],[-13,43]],[[1501,3304],[32,5]],[[1538,3311],[-37,-7]],[[1662,1236],[45,22]],[[1718,1263],[2,6]],[[1721,1271],[18,20]],[[1199,3333],[33,-69]],[[1354,3274],[5,-9]],[[1667,2443],[15,-30]],[[1705,2259],[-18,132]],[[1704,1256],[2,1]],[[1707,1258],[11,5]],[[1715,2208],[31,-28],[0,-47]],[[1720,1269],[1,2]],[[1726,1280],[3,5]],[[1739,1291],[0,3]],[[1799,1350],[-1,4]],[[1199,3470],[1,-8],[3,-8],[-2,7],[-2,9]],[[572,2602],[0,-1]],[[1469,3460],[0,-3]],[[1662,3355],[-64,-20]],[[1599,3335],[63,20]],[[70,3615],[0,1]],[[1662,3355],[19,-2],[106,-3],[361,47],[122,-32],[20,2],[123,28],[23,1],[28,-3],[39,-1],[68,11]],[[2572,3403],[-161,-7],[-141,-30],[-116,32],[-150,-2],[-217,-46],[-125,5]],[[2678,3391],[253,-45],[232,10],[271,-84]],[[3434,3272],[-271,85],[-35,-1],[-197,-9],[-148,37],[-105,8]],[[3490,3227],[27,-18],[47,-5],[313,114],[200,-9],[19,3]],[[4096,3313],[-19,-4],[-199,10],[-314,-115],[-71,21]],[[1492,57],[48,-41]],[[606,2733],[-86,22]],[[1705,2259],[-38,-10]],[[1791,1604],[41,6]],[[1856,1613],[8,0]],[[341,1920],[1,43]],[[342,1963],[50,52]],[[379,1900],[-38,20]],[[400,2032],[-6,57],[47,77],[-41,-134]],[[910,805],[30,91]],[[297,2205],[11,0]],[[1548,1071],[19,27]],[[1581,858],[19,14]],[[1590,1130],[53,32]],[[1990,252],[32,-53]],[[1730,581],[0,-7]],[[1731,598],[0,-11]],[[1797,468],[-55,54]],[[1963,327],[-100,78]],[[1969,283],[-5,32]],[[1832,1610],[24,3]],[[1633,2535],[46,-13]],[[864,684],[43,114]],[[1892,1604],[0,-1]],[[352,1861],[-1,1]],[[1909,1904],[27,-8]],[[184,2054],[113,151]],[[322,2237],[-5,-16]],[[441,2520],[-1,-6]],[[661,2712],[140,156],[146,52]],[[1212,3236],[-119,-144]],[[1212,3236],[14,14]],[[1226,3250],[13,28]],[[1239,3278],[8,13]],[[1247,3291],[50,41]],[[395,2416],[-73,-179]],[[440,2514],[-40,-88]],[[33,3602],[-2,0]],[[864,318],[10,-318]],[[861,427],[6,-78]],[[864,318],[3,31]],[[1168,618],[-21,-91],[25,-80]],[[1168,619],[56,239]],[[1286,899],[30,34]],[[1317,934],[21,60],[-28,82],[47,102],[152,105]],[[1446,3462],[-3,-1]],[[1466,3461],[-9,1]],[[1695,3284],[-63,48],[-8,6],[5,-3],[66,-51]],[[1949,2993],[-94,144],[-160,147]],[[2917,2136],[-579,497],[-230,119],[-155,234]],[[3102,1898],[-88,85]],[[3018,2028],[-1,7]],[[3018,2012],[0,6]],[[3102,1898],[-1,-2]],[[3101,1896],[1,2]],[[0,803],[365,-278],[315,-19],[235,-38],[113,-49],[100,16],[47,13],[3,0]],[[1178,448],[33,4],[16,-2]],[[1227,450],[3,-1],[1,0],[159,-17]],[[1390,432],[14,-2]],[[1404,430],[7,-1],[150,18]],[[1561,447],[16,2],[1,0]],[[1578,449],[8,-2],[34,-11],[51,-27]],[[1676,411],[-56,25],[-40,13],[-2,0]],[[1578,449],[-17,-2]],[[1561,447],[-157,-17]],[[1404,430],[-14,2]],[[1390,432],[-159,18],[-1,0],[-3,0]],[[1227,450],[-49,-2]],[[1178,448],[-5,0],[-145,-28],[-113,48],[-234,38],[-315,20],[-366,278]],[[1820,304],[48,-44],[79,-29],[18,-2],[24,0],[17,2]],[[2006,231],[-138,30],[-48,44]],[[1555,1573],[220,29]],[[2751,2278],[-21,15]],[[760,1620],[-12,14]],[[786,1580],[-3,7]],[[928,1193],[-132,353]],[[913,794],[42,-25],[37,-99],[-5,-94]],[[955,921],[-15,-25],[-25,-78]],[[940,896],[16,25]],[[1003,1113],[-54,-40],[-5,-87]],[[990,1149],[-23,16]],[[1015,1140],[-13,4]],[[1015,1140],[2,-1]],[[1017,1139],[-2,1]],[[1032,550],[115,-23]],[[1700,2217],[15,-9]],[[1435,3457],[-2,-1]],[[1433,3456],[2,1]],[[154,3325],[135,-236],[1,-152],[108,-119]],[[419,2816],[50,-4],[29,-55]],[[1567,2732],[-2,-114]],[[1339,84],[-12,-9]],[[1447,3260],[-6,14]],[[1236,3564],[9,-1]],[[1246,3563],[52,-8]],[[1246,3563],[-1,0],[1,-1],[0,1]],[[1298,3555],[1,-1]],[[1300,3554],[-2,1]],[[1300,3554],[2,-1]],[[1302,3553],[-2,1]],[[1302,3553],[32,-9]],[[1334,3544],[4,-2]],[[1367,3521],[-33,23]],[[1338,3541],[23,-14]],[[1300,3554],[-1,0],[1,-1],[0,1]],[[572,2602]],[[31,3602],[-31,-1]],[[1494,60],[35,99]],[[1574,347]],[[1579,365],[2,8]],[[398,2818],[21,-2]],[[1936,1896],[4,-2]],[[2933,3823],[2,10]],[[3059,3900],[14,6]],[[1864,1688],[1,12]],[[1316,933],[1,1]],[[73,2809],[66,-32]],[[572,2602]],[[572,2601],[0,1]],[[3069,3915],[4,-9]],[[1520,3045],[14,70]],[[1333,3328],[1,-6]],[[1334,3322],[-1,6]],[[1334,3322],[20,-48]],[[1565,2618],[16,-50],[50,-31]],[[1631,2537],[2,-2]],[[1666,2492],[9,18]],[[1666,2492],[1,-49]],[[1679,2522],[-4,-12]],[[1682,2413],[5,-19]],[[1687,2392],[0,1],[0,1]],[[1687,2394],[-1,-1],[1,-1]],[[1687,2391],[0,1]],[[1441,3444]],[[3064,3924],[5,-9]],[[3064,3925],[-1,-1],[0,-1],[1,1]],[[3064,3924],[0,1]],[[363,1853],[-11,8]],[[3577,49],[1,-1],[1,1],[-1,1],[-1,-1]],[[1451,3478],[-1,-5]],[[1345,3560],[61,-22],[11,-30]],[[1353,3744],[10,-6]],[[1781,2470],[-12,19],[38,47]],[[1834,2566],[2,2]],[[1488,3459],[3,0]],[[1518,3438],[-26,21]],[[1347,3747],[6,-3]],[[1372,3792],[27,60]],[[1410,3158],[14,-14]],[[1491,3064],[-7,6]],[[1507,3040],[12,2]],[[1714,1249],[4,13]],[[1730,1280],[12,-2]],[[1850,1757],[-1,-1]],[[1849,1835],[3,-21]],[[1858,1770],[-8,-13]],[[1850,1756],[0,1]],[[1863,2954],[1,-1]],[[1909,1904],[-20,-30]],[[1989,254],[6,8]],[[2008,2132],[-6,-8]],[[2008,106],[-5,-14]],[[2010,2142],[-6,2]],[[3518,3213],[51,16]],[[318,4096],[101,-99],[6,-34]],[[549,3827],[23,-5]],[[573,3821],[231,-112]],[[959,3689],[10,1]],[[1297,3332],[4,3]],[[1322,3352],[10,-17]],[[1332,3335],[7,-6]],[[1339,3329],[7,5]],[[1346,3334],[20,7],[4,4],[0,2]],[[1370,3347],[4,11]],[[1374,3358],[2,7],[-1,23],[8,12],[6,11],[3,16],[-5,22]],[[1383,3400],[-8,-12],[0,-19],[-1,-11]],[[1374,3358],[-1,-8],[-3,-3]],[[1370,3347],[-1,-2],[-23,-11]],[[1387,3449],[1,-38]],[[2970,3289],[-5,2]],[[3014,1983],[4,29]],[[3074,81],[-3,79],[85,14]],[[3074,81],[0,-2]],[[3074,80],[0,1]],[[3158,174],[-2,0]],[[3156,174],[2,0]],[[3074,79],[1,-1],[1,1],[-1,1],[-1,-1]],[[3158,173],[2,0],[0,1],[-1,1],[-1,-2]],[[149,3398],[134,18],[65,22],[94,-32],[118,-16],[42,-23],[18,-8],[3,0]],[[623,3359],[119,-14]],[[742,3345],[80,-9],[144,-9],[336,-3]],[[1302,3324],[-333,3],[-147,9],[-80,9]],[[742,3345],[-115,13],[-4,1]],[[623,3359],[-5,2],[-5,1],[-8,4],[-44,25],[-213,48],[-198,-40]],[[1840,1351],[12,2]],[[1852,1353],[18,3]],[[1870,1356],[96,82],[133,39],[36,111],[177,111],[461,87],[178,83],[143,28]],[[3094,1897],[6,-2]],[[3100,1896],[-6,1]],[[3102,1895],[8,-3]],[[3110,1892],[-8,3]],[[3110,1892],[298,-146]],[[3408,1746],[8,1]],[[3416,1747],[234,-3],[272,-179],[81,-7]],[[4008,1558],[-5,0]],[[4003,1558],[5,-1]],[[4014,1562],[-3,-3]],[[4012,1559],[2,3]],[[4014,1562],[44,47]],[[3101,1896],[-1,-1]],[[3100,1895],[1,-1],[1,1]],[[3102,1895],[-1,1]],[[1388,3411],[-5,-11]],[[1571,2523],[-5,-1]],[[1775,1602],[6,1]],[[573,2602],[2,-1]],[[575,2601],[-2,1]],[[589,2595],[-14,6]],[[1448,3461],[-2,1]],[[1083,4081],[7,-9]],[[1301,3335],[21,17]],[[1682,566],[1,3]],[[1681,567],[0,-1],[0,-1],[1,1],[-1,1]],[[1399,3852],[18,38]],[[1538,1036],[2,9]],[[1561,921],[-22,36]],[[1716,710],[6,-36]],[[3687,8],[0,1],[-1,0],[0,-1],[1,0]],[[572,3822],[1,-1]],[[3230,2130],[129,61],[161,28]],[[3520,2219],[7,-2]],[[1002,1144],[-10,4]],[[1433,3456],[-6,-1]],[[1427,3454],[6,2]],[[2040,0],[0,5]],[[2367,3955],[-33,14]],[[2369,3956],[-2,-1]],[[2367,3955],[2,0]],[[2369,3955],[1,0]],[[2370,3955]],[[2406,3886],[-36,69]],[[2406,3886],[1,-2]],[[2408,3884],[-2,2]],[[3049,3906],[1,1]],[[3054,3909],[5,-9]],[[3772,4096],[-7,-78],[87,-83],[17,-55]],[[2370,3955],[-1,1],[0,-1],[1,0]],[[1494,3062]],[[1323,71],[-51,-57]],[[3061,2060],[-2,-1]],[[1865,1663],[-1,25]],[[1882,1518],[28,36]],[[1892,1603],[15,-25]],[[1911,1560],[-5,16]],[[2378,3393],[2,0]],[[2380,3393],[-1,1]],[[2385,3390],[-5,3]],[[2385,3390],[1,-2]],[[2387,3389],[-2,1]],[[2387,3387],[2,0]],[[2389,3387],[-1,1]],[[2389,3387],[179,-51]],[[2677,3353],[47,4]],[[2724,3357],[28,3]],[[2752,3360],[83,-43],[145,-28]],[[2980,3289],[-10,0]],[[2980,3289],[538,-76]],[[3569,3229],[56,-5],[250,-159]],[[3889,3052],[207,-37]],[[2378,3395],[-1,-1],[1,-1]],[[2378,3393],[1,2],[-1,0]],[[2387,3389],[-1,-1],[1,-1],[1,2],[-1,0]],[[1668,1239],[-37,-46]],[[3978,2070],[-17,-74]],[[3993,2091],[-10,-20]],[[1482,2960],[1,-2]],[[593,344],[-70,-119],[-29,-124],[-86,-3],[-54,-29]],[[593,344],[2,2]],[[599,349],[-6,-5]],[[308,2205],[4,1]],[[1784,2457],[-3,13]],[[1822,2754],[-13,-25]],[[1861,2617],[-25,-49]],[[1837,2674],[25,-50]],[[1953,2986],[-4,7]],[[1405,122],[-66,-38]],[[1624,1184],[-73,-67]],[[1631,1193],[-6,-8]],[[1367,3520],[-2,-31]],[[1366,3488],[0,13],[1,20]],[[1366,3475],[21,-26]],[[1387,3449],[-21,26]],[[1327,75],[-4,-4]],[[450,2610],[-40,11]],[[3228,2130],[2,0]],[[1597,436],[2,4]],[[573,2221],[4,89]],[[1757,3914],[-25,-181],[-62,-93],[-89,12],[-73,-38]],[[1410,3158],[37,102]],[[181,2050],[3,4]],[[1532,3409],[-10,13]],[[1532,3409],[12,-9]],[[1592,3363],[-48,37]],[[1457,3462],[-1,1]],[[1417,3890],[75,21],[131,185]],[[1484,3070],[-60,74]],[[1643,1162],[20,12]],[[1681,1179],[33,70]],[[1694,3044],[66,-8]],[[1849,2799],[-27,-45]],[[1951,2216],[-108,50]],[[1889,1874],[-40,-39]],[[1852,1814],[6,-44]],[[1864,2950],[10,-108]],[[1864,2953],[0,-1]],[[2004,2144],[-25,38]],[[2002,2124],[-19,-51]],[[1983,2066],[7,-107]],[[2029,31],[-26,61]],[[2022,199],[-14,-93]],[[1194,3571],[41,-7]],[[862,683],[-20,-46]],[[843,637],[21,47]],[[577,2310],[-5,5]],[[1488,3460],[-22,1]],[[1443,3461],[1,1]],[[1519,3042],[1,3]],[[1663,1174],[18,5]],[[1671,409],[6,-4]],[[1678,409],[-2,2]],[[3063,3925],[33,81]],[[2200,174],[2,-1]],[[2203,171],[7,-7]],[[2211,162]],[[1199,3470],[-46,114]],[[1203,3454],[5,-76]],[[1208,3378],[-5,-6],[-3,-6],[-1,-28],[0,-5],[9,45]],[[1359,3265],[35,-94]],[[1418,3143],[-24,28]],[[1418,3143],[66,-77],[-2,-106]],[[1483,2958],[9,-68],[64,-70],[11,-88]],[[1746,2133],[59,-262]],[[1798,1354],[-102,201],[7,132],[47,114],[51,52]],[[1805,1871],[-4,-18]],[[585,1723],[99,-6]],[[708,1762],[140,8],[549,-68],[129,-55],[29,-74]],[[969,3690],[208,-113]],[[1573,344],[1,3]],[[1581,373],[13,53]],[[1177,3577],[17,-6]],[[1455,3490],[45,118]],[[1442,3461],[-7,-4]],[[1435,3457],[7,4]],[[1509,1283],[62,45],[168,-34]],[[1799,1350],[41,1]],[[351,1862],[-19,-5]],[[585,1723],[-122,0],[-100,130]],[[1444,3462],[2,0]],[[1450,3472],[1,1]],[[1452,3468],[3,-5]],[[1649,535],[31,31]],[[1649,534],[0,1]],[[1649,535],[-1,0],[0,-1],[1,0]],[[1650,505],[-1,29]],[[392,2015],[-50,-52],[-1,-43]],[[341,1920],[23,-42]],[[379,1900],[-38,20]],[[400,2032],[-6,57],[47,77],[-41,-134]],[[1405,122],[42,-33]],[[1539,957],[-20,17],[19,62]],[[1540,1045],[8,26]],[[1571,866],[-10,55]],[[1567,1098],[23,32]],[[1600,872],[97,-35],[19,-127]],[[1722,674],[26,-16],[-17,-60]],[[1737,562],[-7,12]],[[1747,546],[-1,2]],[[1013,1125],[2,4]],[[944,986],[11,-65]],[[956,921],[-7,149],[54,42]],[[1003,1112],[2,1],[-1,1],[-1,-1],[0,-1]],[[1004,1114],[9,11]],[[2010,2142],[-2,-10]],[[3527,2217],[17,-52],[64,-36],[167,-23],[73,36],[134,-37]],[[38,4096],[-38,-47]],[[6,1805],[-1,0]],[[2254,73],[-26,-2]],[[2358,82],[236,-11],[143,31],[193,-45],[117,15]],[[3205,120],[-1,1]],[[3205,120],[0,-1]],[[3206,119],[-1,1]],[[3206,117],[2,-1]],[[3208,116],[-1,2]],[[3575,48],[-367,68]],[[3207,117],[0,2],[-1,0],[-1,-1],[2,-1]],[[1685,574],[2,3]],[[4058,1609],[19,7]],[[4077,1616],[7,0]],[[4083,1618],[-6,-2]],[[4096,1621],[-9,-2]],[[4088,1617],[8,1]],[[425,3963],[14,-8]],[[442,3957],[107,-130]],[[1677,405],[143,-101]],[[1820,305],[-87,79],[-55,25]],[[2011,232],[-5,-1]],[[2006,231],[5,0]],[[0,2977],[23,58],[-23,14]],[[317,2221],[-3,-11]],[[1868,1665],[4,-2]],[[1571,866],[10,-8]],[[1526,1083],[4,2]],[[1546,1106],[2,4]],[[1550,1115],[1,2]],[[1590,673],[-28,37]],[[1600,443],[50,62]],[[1638,618],[-22,22]],[[1687,577],[-6,26]],[[4084,1616],[3,-1],[1,4],[-4,0],[0,-3]],[[1573,2523],[-2,0]],[[1631,2535],[-35,-3]],[[1739,1294],[60,56]],[[1344,3565],[-20,137],[45,128]],[[1369,3830],[1,0],[-1,1],[0,-1]],[[3982,2105],[11,-14]],[[571,2599],[0,1]],[[572,2602],[0,-1]],[[1361,3527],[-17,38]],[[1533,3309],[13,3],[53,23]],[[1598,3335],[-60,-24]],[[992,1148],[-2,1]],[[1443,3461],[0,-1]],[[1444,3462]],[[1457,3462],[-3,-1]],[[1492,3459],[-4,1]],[[1522,3422],[-4,16]],[[3008,2072],[-91,64]],[[3008,2072],[4,-2]],[[3012,2070],[49,-11]],[[3017,2035],[43,19]],[[3060,2054],[2,5]],[[3061,2059],[-1,-5]],[[3062,2059],[0,1],[-1,-1],[1,0]],[[694,1754],[-9,-37]],[[987,576],[45,-26]],[[4012,1559],[-4,-1],[1,-3],[3,1],[0,3]],[[1235,3564],[1,0]],[[1338,3542],[0,-1]],[[1361,3527],[6,-7]],[[3961,1996],[135,-8]],[[46,3607],[3,2]],[[49,3608],[1,1]],[[1456,3462],[13,-2]],[[1344,3566],[-20,119],[23,62]],[[1368,3754],[4,19]],[[1495,3062],[-4,2]],[[1494,3062],[13,-22]],[[1495,3062],[-1,0]],[[1508,3040],[-13,22]],[[1718,1262],[12,18]],[[1742,1278],[87,66],[53,174]],[[1863,405],[-66,63]],[[1849,1756],[10,-26]],[[1859,1731],[-9,25]],[[1964,315],[-1,12]],[[1995,262],[-26,21]],[[3493,3225],[-45,45],[-14,2]],[[3434,3272],[56,-45]],[[1372,3773],[0,19]],[[2408,3883],[0,1],[-1,-1],[1,0]],[[1501,3304],[-5,-1]],[[1496,3303],[5,1]],[[1443,3460],[45,-1]],[[1453,3482],[2,7]],[[1422,3454],[-20,-2]],[[1667,2249],[33,-32]],[[569,2594],[2,5]],[[840,464],[21,-37]],[[70,3615],[52,-94],[-11,-81],[36,-50]],[[576,2606],[8,7]],[[312,2206],[2,4]],[[0,3391],[149,7]],[[150,3399],[-137,-5],[-13,-2]],[[1496,3303],[-194,21]],[[1302,3324],[33,-4],[23,-11],[54,-11],[56,1],[28,4]],[[1402,3452],[-15,-3]],[[1387,3449],[35,5]],[[1172,447],[5,-5]],[[915,818],[-8,-19]],[[1451,3473],[2,9]],[[2193,70],[-59,-70]],[[2194,70],[0,1],[-1,0],[0,-1]],[[2193,70],[1,0]],[[2228,71],[-34,-1]],[[2254,73],[104,9]],[[1168,618],[0,1]],[[1447,89],[45,-32]],[[1864,2952],[0,-2]],[[276,21],[3,3]],[[625,373],[2,2]],[[632,398],[0,4]],[[722,530],[-3,-3]],[[1493,58],[-1,-1]],[[2244,4096],[90,-127]],[[1624,3338],[-32,25]],[[967,1165],[-39,28]],[[1500,3608],[8,6]],[[1454,3461],[-6,0]],[[48,3609],[-2,-2]],[[50,3609],[-1,-1]],[[792,619]],[[1015,1129],[2,10]],[[1345,3560],[-1,6]],[[1363,3738],[5,16]],[[1441,3444],[-24,64]],[[1434,3300],[-3,11]],[[1432,3313],[15,112]],[[1441,3274],[-7,25]],[[1441,3444]],[[1443,3434],[1,-9]],[[1731,587],[-1,-6]],[[1859,1730],[7,-18]],[[1866,1712],[-7,19]],[[1865,1700],[1,12]],[[1910,1554],[1,6]],[[1807,2536],[27,30]],[[1442,3461],[1,-1]],[[3061,2055],[150,14],[17,61]],[[1703,4096],[54,-182]],[[3096,4006],[36,90]],[[1434,3299],[0,1]],[[1447,3425],[-3,0]],[[2407,3883],[2,-2]],[[2409,3881],[-1,2]],[[2421,3858],[-12,23]],[[1548,239],[25,105]],[[786,615],[0,1]],[[3047,72],[26,6]],[[3074,79],[-1,-1]],[[3073,78],[1,0]],[[3160,173],[2,0]],[[3162,173],[-2,1]],[[3204,121],[-42,52]],[[3575,48],[2,1]],[[3580,51],[-1,-1]],[[3579,50],[1,1]],[[3685,10],[-53,55],[-52,-14]],[[3685,10],[1,-1]],[[3686,10],[-1,0]],[[3687,8],[1,0]],[[3688,8],[-1,1]],[[3696,0],[-8,8]],[[1431,3311],[1,2]],[[1365,3489],[1,-14]],[[1366,3475],[0,13]],[[1090,4072],[4,-4]],[[520,2755],[-64,-56],[-15,-179]],[[606,2733],[55,-21]],[[1093,3092],[-116,-73],[-6,-75],[-24,-24]],[[1494,60],[-1,-2]],[[1529,159],[19,80]],[[1574,347],[5,18]],[[1455,3463],[1,-1]],[[2211,162],[1,-1]],[[2339,102],[-128,61]],[[2212,161],[129,-60]],[[50,3609],[3,0]],[[65,3614],[5,1]],[[786,616],[1,4]],[[787,621],[-1,0]],[[2571,3403],[107,-12]],[[2678,3392],[-106,11]],[[139,2777],[271,-156]],[[454,2609],[-4,1]],[[3020,2048],[-2,0]],[[3577,49],[-1,-1]],[[697,506],[92,61]],[[959,3689],[-88,30],[-66,-10]],[[804,3709],[1,-1],[0,1],[-1,0]],[[1907,1578],[-1,0]],[[568,2586],[1,8]],[[2211,163],[-9,10],[-55,56],[-68,10],[-68,-7]],[[2011,231],[135,-2],[54,-55]],[[2504,0],[-102,33],[-47,56],[-8,10],[-8,3]],[[2341,101],[61,-68],[101,-33]],[[839,464],[1,0]],[[5,1805],[-5,4]],[[332,1857],[-178,-71],[-148,19]],[[907,798],[3,7]],[[3074,77],[-5,-18]],[[3074,77],[1,1]],[[3074,78],[0,-1]],[[3158,176],[-1,-2]],[[3158,177],[8,75]],[[3158,177],[0,-2]],[[3159,175],[-1,2]],[[1443,3461],[-1,0]],[[3869,3880],[131,-84],[96,28]],[[1450,3473],[0,-2],[2,-3]],[[1456,3463],[-6,9]],[[1453,3482],[-2,-4]],[[1455,3489],[0,1]],[[1742,522],[4,7]],[[1746,546],[1,0]],[[1989,254],[1,-2]],[[1683,569],[2,5]],[[690,1742],[0,2]],[[65,3614],[-15,-4]],[[2421,3858],[193,-33],[111,-62],[106,47],[102,13]],[[2935,3833],[114,73]],[[3050,3907],[4,2]],[[147,3390],[7,-65]],[[568,2353],[0,233]],[[568,2351],[0,2]],[[572,2315],[-4,36]],[[574,2604],[-2,-1]],[[573,2602],[1,2]],[[707,1810],[0,117],[-134,294]],[[574,2604],[2,2]],[[584,2613],[80,98]],[[748,1634],[-63,82]],[[694,1754],[13,52]],[[783,1587],[-23,33]],[[796,1546],[-10,34]],[[685,1717],[-1,0],[1,-1],[0,1]],[[400,2426],[-5,-10]],[[439,3955],[3,2]],[[3018,2018],[0,10]],[[3875,3065],[14,-13]],[[354,69],[-85,-69]],[[595,346],[10,7]],[[605,353],[-6,-4]],[[668,474],[-63,-121]],[[670,478],[1,1]],[[672,481],[25,25]],[[786,621],[0,-1]],[[787,620],[5,-1]],[[842,637],[-55,-16]],[[792,619],[9,1],[24,7],[11,5],[7,5]],[[796,567]],[[907,799],[-48,-86]],[[859,713],[0,-1]],[[860,713],[-1,0]],[[859,712],[1,0]],[[859,712],[3,-29]],[[498,2757],[4,-13]],[[1286,899],[-62,-41]],[[1443,3434],[-2,10]],[[1272,14]],[[707,1806],[0,4]],[[670,478],[-2,-4]],[[671,479],[1,2]],[[1370,3831],[14,265]],[[1540,16],[10,-16]],[[70,3616],[-5,-2]],[[1781,1603],[10,1]],[[46,3607],[-13,-5]],[[1594,426],[3,10]],[[1599,440],[1,3]],[[1070,4096],[13,-15]],[[1094,4068],[74,-165],[201,-72]],[[1333,3328],[0,1]],[[1427,3455],[-5,-1]],[[1422,3454],[5,0]],[[1862,2955],[1,-1]],[[1562,710],[8,174],[-51,87],[5,109],[26,35]],[[1616,640],[-26,33]],[[1681,603],[-43,15]],[[1442,3461],[1,0]],[[0,2802],[73,7]],[[1566,2522],[-435,-84],[-95,40],[-49,72],[-121,63],[-88,-11],[-38,-52],[-151,45]],[[0,1869],[181,181]],[[834,475],[5,-11]],[[1758,2566],[-1,1]],[[0,0],[0,4096],[4096,0],[0,-4096],[-4096,0]],[[1491,3179],[63,-73],[23,-11],[254,-72],[71,-95],[-21,-116],[-67,-82],[58,-97],[-1,-34],[-16,-26],[7,54],[-54,100],[67,118],[-11,108],[-105,84],[-65,7],[3,-1],[-7,2],[-8,0],[-6,3],[-5,1],[-1,-20],[-12,25],[-2,1],[-24,-29],[-38,19],[-38,-26],[-37,26],[14,66],[-21,-70],[-21,138]],[[1534,3114]],[[495,1359],[23,7],[-22,43],[32,18],[7,41],[29,12],[10,-23],[72,61],[-12,30],[65,42],[42,-6],[66,-63],[9,-30],[-213,-121],[-98,-37],[-10,26]],[[800,1548],[14,40],[73,-35],[56,15],[34,-149],[-31,-7],[-22,57],[-99,7],[-25,72]],[[3406,3384],[109,82],[43,104],[35,19],[-52,30],[6,32],[-24,17],[106,121],[24,-49],[55,-31],[-21,-28],[96,-64],[-15,-20],[-59,26],[-4,-31],[-48,-34],[-44,-132],[87,12],[-33,-25],[-6,-52],[-62,-46],[-22,-83],[-63,-21],[-77,51],[-31,122]],[[2430,0],[-394,0],[-20,88],[243,-19],[-51,43],[7,101],[-34,6],[1,78],[-87,55],[19,39],[124,48],[91,-19],[34,17],[35,-15],[3,-29],[44,5],[11,-51],[68,-13],[-39,-110],[-23,4],[-11,-70],[-64,-15],[33,-52],[-83,15],[93,-106]],[[1800,2458],[70,-12],[-8,-29],[69,-104],[49,9],[-28,-68],[165,29],[146,-41],[83,-65],[1,-26],[62,-15],[-2,-70],[97,2],[32,-102],[-122,-35],[-171,145],[-41,-75],[68,-74],[-79,-102],[-109,31],[-75,53],[-79,-63],[70,114],[-9,106],[40,57],[-52,90],[-156,105],[-21,140]],[[1996,2053],[7,-33],[17,-18],[15,1],[9,-10],[1,1],[6,107],[-19,8],[-36,-56]],[[2132,2105],[20,-15],[12,34],[-27,-8],[-5,-11]],[[1798,4096],[37,-68],[-9,-44],[-75,-35],[6,-35],[-131,6],[-35,87],[18,67],[30,22],[159,0]],[[185,1352],[40,60],[57,-31],[-14,-30],[69,14],[25,-46],[-111,-74],[-66,107]],[[820,593],[1,10],[6,7],[32,-47],[2,-99],[65,-37],[5,-47],[53,-32],[28,-51],[-5,-73],[-33,-2],[-11,-28],[-26,14],[62,54],[-14,80],[-61,24],[-31,72],[-35,21],[-6,84],[-32,50]],[[3467,2487],[58,222],[97,1],[-35,-186],[50,-115],[-41,-32],[15,-98],[-23,-48],[-77,39],[6,116],[-50,101]],[[978,0],[-54,0],[-22,28],[39,107],[-9,56],[90,-16],[-46,-95],[2,-80]],[[1784,2458],[3,26],[16,23],[1,-148],[24,-52],[149,-94],[52,-92],[-6,-25],[-34,-30],[13,-54],[-5,-53],[-67,-111],[-32,-19],[16,-25],[5,-23],[-14,-54],[-33,-24],[5,-19],[0,-26],[-15,35],[53,94],[-20,41],[32,31],[-33,-13],[97,113],[-8,114],[43,52],[-93,113],[-99,31],[-39,77],[-11,112]],[[395,2416],[75,145],[96,43],[-68,-102],[-26,-5],[-45,-81],[-4,-60],[-19,22],[16,47],[-25,-9]],[[541,1830],[100,0],[22,61],[46,-85],[-87,-6],[14,-47],[-95,77]],[[1443,1831],[53,-13],[-9,-78],[60,-28],[4,-10],[-2,-1],[-2,-2],[2,-2],[74,3],[-30,55],[14,4],[48,-115],[-55,26],[-126,6],[-2,20],[68,7],[-53,25],[-23,96],[-19,-21],[-2,28]],[[855,2149],[34,28],[69,-36],[32,-72],[-70,-28],[-27,21],[-2,61],[-36,26]],[[3736,0],[-145,0],[0,22],[-50,81],[50,130],[112,-141],[34,-84],[-1,-8]],[[3133,24],[-92,51],[40,173],[70,24],[56,-74],[-4,-123],[-70,-51]],[[1673,375],[1,-138],[-24,-57],[-63,17],[-131,141],[19,57],[40,-2],[70,-55],[-32,263],[175,49],[51,-49],[-32,-105],[-65,-53],[-9,-68]],[[1294,970],[42,5],[22,47],[37,-75],[-4,-30],[-65,0],[-64,-211],[-163,53],[-32,52],[-40,-31],[-186,-390],[-107,90],[-40,66],[-15,108],[-57,-16],[-62,-80],[-43,43],[0,211],[129,53],[118,105],[77,0],[291,-105],[36,33],[-36,177],[143,133],[19,-238]],[[4096,1769],[0,-285],[-52,169],[-65,1],[-32,158],[127,-26],[22,-17]],[[1954,1524],[-93,-4],[-82,28],[-5,59],[70,47],[32,158],[56,18],[59,-9],[51,-39],[28,-76],[-37,-127],[-79,-55]],[[582,2601],[-49,40],[-17,93],[34,183],[48,-41],[18,-92],[-34,-183]],[[1671,2759],[31,-56],[77,4],[32,52],[30,-14],[57,-111],[10,-86],[-178,-149],[-48,-9],[0,53],[-65,0],[0,53],[-32,0],[-25,49],[-40,161],[97,53],[-24,62],[-103,121],[30,28],[132,-142],[19,-69]],[[3175,2026],[-159,9],[-105,93],[63,85],[86,4],[175,-89],[-19,-71],[-41,-31]],[[176,3674],[-15,-178],[-36,-31],[4,-22],[32,0],[-19,-71],[-40,-29],[-58,8],[-44,24],[0,286],[113,58],[48,-12],[15,-33]],[[2006,3759],[-46,34],[-18,74],[31,155],[46,-34],[18,-74],[-31,-155]],[[3097,3913],[-64,5],[-51,57],[-6,100],[51,-10],[111,-95],[-41,-57]],[[2588,3285],[-23,60],[23,203],[25,2],[66,-123],[-2,-75],[-29,-56],[-60,-11]],[[1476,3660],[77,-164],[164,32],[62,-32],[-73,-133],[-108,20],[-13,-45],[-160,-90],[-99,37],[-32,53],[-59,19],[-45,237],[6,113],[53,-8],[36,-126],[41,-24],[31,29],[-16,134],[17,47],[69,-34],[49,-65]],[[0,2323],[10,-37],[134,-63],[40,-169],[38,-14],[62,41],[100,2],[30,137],[37,-40],[30,34],[59,7],[-52,-22],[-49,-69],[4,-72],[17,-52],[144,-43],[-109,-45],[-36,-57],[28,-32],[-16,-21],[61,-42],[20,36],[58,-135],[-11,-27],[65,-24],[89,20],[68,-141],[109,-6],[134,42],[73,103],[51,28],[79,-68],[123,25],[-48,-114],[63,-64],[21,-124],[96,-39],[26,-43],[-26,-21],[11,-24],[104,3],[8,-17],[-6,-37],[-53,-27],[16,-35],[-22,13],[-1,-39],[-41,-7],[0,-85],[49,-79],[111,-39],[24,-57],[-8,-105],[38,-22],[-23,-74],[35,-72],[64,-81],[134,-96],[5,-48],[57,-82],[-17,-36],[-127,9],[-71,46],[19,142],[-88,20],[-20,41],[-69,-24],[-51,4],[-10,36],[-46,-18],[-19,-106],[23,-36],[-30,-51],[-54,-4],[-28,-225],[2,-2],[-1224,0],[5,87],[-31,21],[-30,113],[-33,-2],[-39,44],[58,120],[-144,-9],[0,1949]],[[1214,3478],[65,23],[60,-29],[17,-54],[-79,-3],[-7,23],[-42,-1],[-14,41]],[[0,1511],[66,-26],[48,-68],[59,-27],[135,86],[58,-117],[-14,-123],[28,0],[46,-130],[120,-2],[21,-105],[-37,-66],[-50,-18],[-116,-200],[-340,116],[-24,-10],[0,690]],[[0,1315],[166,-86],[-6,-23],[-60,4],[-51,-32],[-19,-188],[-30,19],[0,306]],[[327,1544],[33,104],[78,42],[9,-92],[33,-43],[35,-5],[2,-51],[116,53],[7,39],[43,32],[12,-32],[34,19],[48,-66],[22,3],[-42,105],[122,5],[8,-30],[36,10],[54,-218],[-31,-7],[-9,44],[-104,-20],[-8,39],[-86,-26],[10,-36],[-276,-92],[-21,95],[-61,-32],[5,21],[-25,3],[9,-27],[-44,25],[35,38],[-44,100]],[[1586,485],[21,40],[19,-7],[-10,26],[56,26],[70,-8],[9,-32],[-40,-9],[0,-37],[-30,-15],[-28,37],[-67,-21]],[[1881,1664],[4,28],[64,20],[23,-12],[-37,-44],[52,-37],[56,-10],[38,40],[59,-19],[-109,-51],[8,-50],[-75,16],[8,-30],[-44,7],[-2,-27],[-8,90],[-5,8],[4,-9],[-15,-58],[-64,-26],[-18,11],[12,41],[-79,16],[34,15],[-8,30],[23,35],[29,-13],[3,-50],[20,-10],[7,101],[-22,31],[26,-8],[16,-35]]]}