{"objects":{"water":{"type":"GeometryCollection","geometries":[{"type":"Polygon","properties":{"source":"naturalearthdata.com","kind":"ocean","area":1576712559132672,"sort_rank":200,"min_zoom":0.0,"id":1},"arcs":[[52]]},{"type":"LineString","properties":{"source":"naturalearthdata.com","kind":"ocean","sort_rank":205,"boundary":true,"min_zoom":0.0,"id":19},"arcs":[53]},{"type":"LineString","properties":{"source":"naturalearthdata.com","kind":"ocean","sort_rank":205,"boundary":true,"min_zoom":0.0,"id":1103},"arcs":[54]},{"type":"LineString","properties":{"source":"naturalearthdata.com","kind":"ocean","sort_rank":205,"boundary":true,"min_zoom":0.0,"id":1112},"arcs":[55]}]},"buildings":{"type":"GeometryCollection","geometries":[]},"places":{"type":"GeometryCollection","geometries":[{"type":"Point","properties":{"name:pt":"Eslov\u00eania","name:ps":"\u0633\u0644\u0648\u0648\u06d0\u0646\u064a\u0627","name:ka":"\u10e1\u10da\u10dd\u10d5\u10d4\u10dc\u10d8\u10d0","name:mt":"Slovenja","name:ko":"\uc2ac\ub85c\ubca0\ub2c8\uc544","name:kn":"\u0cb8\u0ccd\u0cb2\u0ccb\u0cb5\u0cc7\u0ca8\u0cbf\u0caf\u0cbe","name:km":"\u179f\u17d2\u179b\u17bc\u179c\u17c1\u1793\u17b8","name:kl":"Slovenia","name:cs":"Slovinsko","alt_name:eo":"Slovenio","name:ki":"Slovenia","name:tr":"Slovenya","name:ku":"Slovenya","name:ti":"\u1235\u120e\u126c\u1292\u12eb","name:ks":"\u0633\u064e\u0644\u0648\u0648\u06cc\u0646\u0650\u06cc\u0627","name:to":"Sil\u014dvenia","name:tl":"Slovenia","name:sv":"Slovenien","name:or":"\u0b38\u0b4d\u0b32\u0b4b\u0b2d\u0b47\u0b28\u0b3f\u0b06","name:pl":"S\u0142owenia","name:ta":"\u0bb8\u0bcd\u0bb2\u0bcb\u0bb5\u0bc7\u0ba9\u0bbf\u0baf\u0bbe","name:tg":"\u0421\u043b\u043e\u0432\u0435\u043d\u0438\u044f","name:ca":"Eslov\u00e8nia","name:te":"\u0c38\u0c4d\u0c32\u0c4b\u0c35\u0c47\u0c28\u0c3f\u0c2f\u0c3e","name:hu":"Szlov\u00e9nia","name:ro":"Slovenia","name:cy":"Slofenia","name:da":"Slovenien","name:de":"Slowenien","name:dz":"\u0f66\u0f74\u0f0b\u0f63\u0f7c\u0f0b\u0f56\u0f72\u0f0b\u0f53\u0f72\u0f0b\u0f61","source":"openstreetmap.org","name:lv":"Slov\u0113nija","name:lt":"Slov\u0117nija","name:hi":"\u0938\u094d\u0932\u094b\u0935\u0947\u0928\u093f\u092f\u093e","name:he":"\u05e1\u05dc\u05d5\u05d1\u05e0\u05d9\u05d4","kind":"country","name:ur":"\u0633\u0644\u0648\u0648\u06cc\u0646\u06cc\u0627","name:lb":"Slowenien","name:la":"Slovenia","name:lg":"Sirovenya","name:uk":"\u0421\u043b\u043e\u0432\u0435\u043d\u0456\u044f","name:hy":"\u054d\u056c\u0578\u057e\u0565\u0576\u056b\u0561","min_zoom":2.0,"name:li":"Sloveni\u00eb","name:ln":"Siloveni","name:lo":"\u0eaa\u0eb0\u0ec2\u0ea5\u0ec0\u0ea7\u0ec0\u0e99\u0e8d","population":2058000,"name:el":"\u03a3\u03bb\u03bf\u03b2\u03b5\u03bd\u03af\u03b1","name:eo":"Slovenujo","name:en":"Slovenia","name":"Slovenija","official_name":"Republika Slovenija","name:ee":"Sloveenia","name:th":"\u0e1b\u0e23\u0e30\u0e40\u0e17\u0e28\u0e2a\u0e42\u0e25\u0e27\u0e35\u0e40\u0e19\u0e35\u0e22","name:gu":"\u0ab8\u0acd\u0ab2\u0acb\u0ab5\u0ac7\u0aa8\u0abf\u0aaf\u0abe","name:eu":"Eslovenia","name:et":"Sloveenia","name:nl":"Sloveni\u00eb","name:es":"Eslovenia","name:ia":"Slovenia","name:rm":"Slovenia","name:rn":"Siloveniya","name:az":"Sloveniya","name:id":"Slovenia","name:ms":"Slovenia","name:mr":"\u0938\u094d\u0932\u094b\u0935\u094d\u0939\u0947\u0928\u093f\u092f\u093e","name:ar":"\u0633\u0644\u0648\u0641\u064a\u0646\u064a\u0627","name:my":"\u1005\u101c\u102d\u102f\u1017\u1031\u1038\u1014\u102e\u1038\u101a\u102c\u1038","name:io":"Slovenia","name:is":"Sl\u00f3ven\u00eda","name:am":"\u1235\u120e\u126c\u1292\u12eb","name:it":"Slovenia","name:vi":"Slovenia","name:ru":"\u0421\u043b\u043e\u0432\u0435\u043d\u0438\u044f","name:mn":"\u0421\u043b\u043e\u0432\u0435\u043d\u0438","id":208592566,"name:mk":"\u0421\u043b\u043e\u0432\u0435\u043d\u0438\u0458\u0430","name:af":"Sloweni\u00eb","name:zu":"i-Slovenia","name:ha":"Sulobeniya","name:nn":"Slovenia","name:ff":"Slowenii","name:fi":"Slovenia","name:no":"Slovenia","name:mg":"Slovenia","name:fo":"Slovenia","name:fr":"Slov\u00e9nie","name:fy":"Sloveenje","name:vo":"Sloveniy\u00e4n","name:zh":"\u65af\u6d1b\u6587\u5c3c\u4e9a","name:gv":"Yn Clovean","name:so":"Slovenia","name:sn":"Slovenia","name:sk":"Slovinsko","name:ja":"\u30b9\u30ed\u30d9\u30cb\u30a2","name:si":"\u0dc3\u0dca\u0dbd\u0ddd\u0dc0\u0dda\u0db1\u0dd2\u0dba\u0dcf\u0dc0","name:fa":"\u0627\u0633\u0644\u0648\u0648\u0646\u06cc","name:sg":"Soloven\u00efi","name:se":"Slovenia","name:ne":"\u0938\u094d\u0932\u094b\u092d\u0947\u0928\u093f\u092f\u093e","name:br":"Slovenia","name:bm":"Sloveni","name:bn":"\u09b8\u09cd\u09b2\u09cb\u09ad\u09be\u09a8\u09bf\u09af\u09bc\u09be","name:bo":"\u0f66\u0f0b\u0f63\u0f7d\u0f0b\u0f5d\u0f7a\u0f0b\u0f53\u0f72\u0f0b\u0f61\u0f0d","name:ml":"\u0d38\u0d4d\u0d32\u0d4b\u0d35\u0d47\u0d28\u0d3f\u0d2f","name:sw":"Slovenia","name:be":"\u0421\u043b\u0430\u0432\u0435\u043d\u0456\u044f","name:bg":"\u0421\u043b\u043e\u0432\u0435\u043d\u0438\u044f","name:sr":"\u0421\u043b\u043e\u0432\u0435\u043d\u0438\u0458\u0430","name:sq":"Slloveni","name:ga":"An tSl\u00f3iv\u00e9in","name:gd":"Sloibh\u00ecnia","name:gl":"Eslovenia","name:yo":"Or\u00edl\u1eb9\u0301\u00e8de Silofania","name:ak":"Slovinia"},"coordinates":[1218,3014]},{"type":"Point","properties":{"name:pt":"Liubliana","name:az":"Lyublyana","name:ka":"\u10da\u10d8\u10e3\u10d1\u10da\u10d8\u10d0\u10dc\u10d0","name:mr":"\u0932\u093f\u092f\u0941\u092c\u094d\u0932\u093f\u092f\u093e\u0928\u093e","name:ko":"\ub958\ube14\ub7b4\ub098","name:cv":"\u041b\u044e\u0431\u043b\u044f\u043d\u0430","name:cu":"\u041b\u044e\u0431\u043b\ua657\u043d\u0430","name:ar":"\u0644\u064a\u0648\u0628\u0644\u064a\u0627\u0646\u0627","name:cs":"Lubla\u0148","country_capital":true,"name:th":"\u0e25\u0e39\u0e1a\u0e25\u0e34\u0e22\u0e32\u0e19\u0e32","name:am":"\u120d\u12e9\u1265\u120d\u12eb\u1293","name:it":"Lubiana","name:os":"\u041b\u044e\u0431\u043b\u044f\u043d\u00e6","name:ru":"\u041b\u044e\u0431\u043b\u044f\u043d\u0430","name:pl":"Lublana","name:ta":"\u0bb2\u0bbf\u0baf\u0bc1\u0baa\u0bcd\u0bb2\u0bbf\u0baf\u0bbe\u0ba9\u0bbe","name:tg":"\u041b\u044e\u0431\u043b\u044f\u043d\u0430","name:mk":"\u0409\u0443\u0431\u0459\u0430\u043d\u0430","name:fa":"\u0644\u06cc\u0648\u0628\u0644\u06cc\u0627\u0646\u0627","kind_detail":"city","kind":"locality","id":6968827,"source":"openstreetmap.org","name:de":"Laibach","name:zh":"\u76e7\u5e03\u723e\u96c5\u90a3","admin_level":"2","name:lv":"\u013bub\u013cana","name:ja":"\u30ea\u30e5\u30d6\u30ea\u30e3\u30ca","name:lt":"Liubliana","name:kk":"\u041b\u044e\u0431\u043b\u044f\u043d\u0430","name:he":"\u05dc\u05d9\u05d5\u05d1\u05dc\u05d9\u05d0\u05e0\u05d4","name:sc":"Lubiana","name:ga":"Li\u00faible\u00e1na","name:ur":"\u0644\u06cc\u0648\u0628\u0644\u06cc\u0627\u0646\u0627","name:bn":"\u09b2\u09bf\u0989\u09ac\u09cd\u09b2\u09bf\u09af\u09bc\u09be\u09a8\u09be","name:la":"Aemona","name:sk":"\u013dub\u013eana","name:uk":"\u041b\u044e\u0431\u043b\u044f\u043d\u0430","name:hy":"\u053c\u0575\u0578\u0582\u0562\u056c\u0575\u0561\u0576\u0561","name:sw":"Lyublyana","name:be":"\u041b\u044e\u0431\u043b\u044f\u043d\u0430","name:ug":"\u0644\u064a\u06c7\u0628\u0644\u064a\u0627\u0646\u0627","name:bg":"\u041b\u044e\u0431\u043b\u044f\u043d\u0430","name:wo":"Jubaljana","name:sr":"\u0409\u0443\u0431\u0459\u0430\u043d\u0430","name:sq":"Lubjana","population":272000,"name:el":"\u039b\u03b9\u03bf\u03c5\u03bc\u03c0\u03bb\u03b9\u03ac\u03bd\u03b1","name:eo":"Ljubljano","name":"Ljubljana","name:ht":"Lyoubyana","min_zoom":8.0,"name:gl":"Liubliana - Ljubljana","name:ln":"Lyublyana","name:bo":"\u0f63\u0f72\u0f0b\u0f54\u0f7c\u0f0b\u0f61\u0f0b\u0f53\u0f0d","name:es":"Liubliana"},"coordinates":[1294,3999]},{"type":"Point","properties":{"old_name:la":"Tarsatica","kind":"locality","name:sl":"Reka","name":"Rijeka","kind_detail":"city","id":29098860,"source":"openstreetmap.org","min_zoom":8.0,"name:la":"Vitopolis","name:it":"Fiume","name:ru":"\u0420\u0438\u0435\u043a\u0430","name:sr":"\u0420\u0438\u0458\u0435\u043a\u0430","name:hu":"Fiume","old_name:de":"Sankt Veit am Flaum","population":128384},"coordinates":[1102,990]},{"type":"Point","properties":{"name:el":"\u039d\u03cc\u03b2\u03bf \u039c\u03ad\u03c3\u03c4\u03bf","kind":"locality","name:sl":"Novo Mesto","name":"Novo mesto","name:lt":"Novo Mestas","alt_name:de":"Neust\u00e4dtel;Rudolfswerth","kind_detail":"town","name:de":"Neustadtl","source":"openstreetmap.org","min_zoom":8.0,"name:uk":"\u041d\u043e\u0432\u043e \u041c\u0435\u0441\u0442\u043e","name:ru":"\u041d\u043e\u0432\u043e-\u041c\u0435\u0441\u0442\u043e","name:zh":"\u65b0\u6885\u65af\u6258","id":57074435,"population":23200},"coordinates":[3227,2962]},{"type":"Point","properties":{"kind":"locality","name":"Ivan\u010dna Gorica","kind_detail":"town","name:de":"Johannsb\u00fcchel","source":"openstreetmap.org","min_zoom":8.0,"name:ru":"\u0418\u0432\u0430\u043d\u0447\u043d\u0430-\u0413\u043e\u0440\u0438\u0446\u0430","id":446096371,"population":14500},"coordinates":[2160,3536]},{"type":"Point","properties":{"kind":"locality","name":"Kastav","kind_detail":"town","name:sr":"\u041a\u0430\u0441\u0442\u0430\u0432","source":"openstreetmap.org","min_zoom":8.0,"name:la":"Castra","name:it":"Castua","name:ru":"\u041a\u0430\u0441\u0442\u0430\u0432","id":1575626358,"population":10440},"coordinates":[832,1183]},{"type":"Point","properties":{"kind":"locality","name":"Postojna","name:lt":"Postoina","kind_detail":"town","old_name:it":"Postumia Grotte","name:de":"Adelsberg","source":"openstreetmap.org","min_zoom":8.0,"name:it":"Postumia","name:ru":"\u041f\u043e\u0441\u0442\u043e\u0439\u043d\u0430","id":28844011,"population":9100},"coordinates":[435,2856]},{"type":"Point","properties":{"kind":"locality","name":"Ko\u010devje","kind_detail":"town","name:de":"Gottschee","source":"openstreetmap.org","min_zoom":8.0,"name:it":"Cocevie","name:ru":"\u041a\u043e\u0447\u0435\u0432\u044c\u0435","id":57099014,"population":8800},"coordinates":[2322,2303]},{"type":"Point","properties":{"kind":"locality","name":"Logatec","kind_detail":"town","name:de":"Loitsch","source":"openstreetmap.org","min_zoom":8.0,"name:la":"Longaticum","name:it":"Longatico","name:ru":"\u041b\u043e\u0433\u0430\u0442\u0435\u0446","id":57103061,"population":8800},"coordinates":[488,3449]},{"type":"Point","properties":{"kind":"locality","name":"Ogulin","name:lt":"Ogulinas","kind_detail":"town","name:sr":"\u041e\u0433\u0443\u043b\u0438\u043d","source":"openstreetmap.org","min_zoom":8.0,"name:ru":"\u041e\u0433\u0443\u043b\u0438\u043d","id":87184260,"population":8216},"coordinates":[3386,740]},{"type":"Point","properties":{"kind":"locality","name":"Vrhnika","kind_detail":"town","name:de":"Oberlaibach","source":"openstreetmap.org","min_zoom":8.0,"name:la":"Nauportus","name:it":"Nauporto","name:ru":"\u0412\u0440\u0445\u043d\u0438\u043a\u0430","id":57102712,"population":8200},"coordinates":[681,3642]},{"type":"Point","properties":{"kind":"locality","name":"Grosuplje","name:lt":"Grosupl\u0117s","kind_detail":"town","name:de":"Gro\u00dflupp","source":"openstreetmap.org","min_zoom":8.0,"name:ru":"\u0413\u0440\u043e\u0441\u0443\u043f\u043b\u0435","id":56756941,"population":7000},"coordinates":[1726,3612]},{"type":"Point","properties":{"kind":"locality","name":"Labin","kind_detail":"town","id":290854348,"source":"openstreetmap.org","min_zoom":8.0,"name:la":"Albona","name:it":"Albona","name:ru":"\u041b\u0430\u0431\u0438\u043d","name:sr":"\u041b\u0430\u0431\u0438\u043d","old_name:de":"T\u00fcberg","population":6893},"coordinates":[177,24]},{"type":"Point","properties":{"kind":"locality","name":"Crikvenica","kind_detail":"town","source":"openstreetmap.org","min_zoom":8.0,"name:ru":"\u0426\u0440\u0438\u043a\u0432\u0435\u043d\u0438\u0446\u0430","id":1879717722,"population":6860},"coordinates":[1836,352]},{"type":"Point","properties":{"kind":"locality","name":"Opatija","kind_detail":"town","name:de":"Abbazia","source":"openstreetmap.org","min_zoom":8.0,"name:la":"Abbatia","name:it":"Abbazia","name:ru":"\u041e\u043f\u0430\u0442\u0438\u044f","name:sr":"\u041e\u043f\u0430\u0442\u0438\u0458\u0430","name:hu":"Abb\u00e1zia","id":60706665,"population":6657},"coordinates":[700,1014]},{"type":"Point","properties":{"kind":"locality","name":"\u0160entjernej","kind_detail":"town","name:de":"Sankt Barthlem\u00e4","source":"openstreetmap.org","min_zoom":8.0,"name:ru":"\u0428\u0435\u043d\u0442\u044c\u0435\u0440\u043d\u0435\u0439","id":57093426,"population":6583},"coordinates":[3717,3139]},{"type":"Point","properties":{"kind":"locality","name":"Litija","kind_detail":"town","name:de":"Littai","source":"openstreetmap.org","min_zoom":8.0,"name:ru":"\u041b\u0438\u0442\u0438\u044f","id":56756021,"population":6500},"coordinates":[2229,4037]},{"type":"Point","properties":{"kind":"locality","name":"\u010crnomelj","name:lt":"\u010crnomelis","kind_detail":"town","name:de":"Tschernembl","source":"openstreetmap.org","min_zoom":8.0,"name:ru":"\u0427\u0440\u043d\u043e\u043c\u0435\u043b\u044c","id":57096731,"population":5800},"coordinates":[3292,2000]},{"type":"Point","properties":{"kind":"locality","name":"\u0160martno pri Litiji","kind_detail":"town","name:de":"St. Martin bei Littai","source":"openstreetmap.org","min_zoom":8.0,"id":276620053,"population":5200},"coordinates":[2274,3975]},{"type":"Point","properties":{"kind":"locality","name":"Sevnica","kind_detail":"town","name:de":"Lichtenwald","source":"openstreetmap.org","min_zoom":8.0,"name:ru":"\u0421\u0435\u0432\u043d\u0438\u0446\u0430","id":57092168,"population":4700},"coordinates":[3606,3829]},{"type":"Point","properties":{"kind":"locality","name":"Ilirska Bistrica","kind_detail":"town","name:de":"Illyrisch Feistritz","source":"openstreetmap.org","min_zoom":8.0,"name:la":"Bistertia Illyrica","name:it":"Villa del Nevoso","name:ru":"\u0418\u043b\u0438\u0440\u0441\u043a\u0430-\u0411\u0438\u0441\u0442\u0440\u0438\u0446\u0430","id":1603396944,"population":4600},"coordinates":[516,2012]},{"type":"Point","properties":{"kind":"locality","name":"Delnice","kind_detail":"town","name:sr":"\u0414\u0435\u043b\u043d\u0438\u0446\u0435","source":"openstreetmap.org","min_zoom":8.0,"name:ru":"\u0414\u0435\u043b\u043d\u0438\u0446\u0435","id":556713829,"population":4379},"coordinates":[2154,1291]},{"type":"Point","properties":{"kind":"locality","name":"Novi Vinodolski","kind_detail":"town","source":"openstreetmap.org","min_zoom":8.0,"name:ru":"\u041d\u043e\u0432\u0438-\u0412\u0438\u043d\u043e\u0434\u043e\u043b\u0441\u043a\u0438","id":1946800676,"population":4005},"coordinates":[2123,158]},{"type":"Point","properties":{"kind":"locality","name":"Cerknica","kind_detail":"town","name:de":"Zirknitz","source":"openstreetmap.org","min_zoom":8.0,"name:it":"Circonio","name:ru":"\u0426\u0435\u0440\u043a\u043d\u0438\u0446\u0430","id":87279980,"population":3900},"coordinates":[868,2942]},{"type":"Point","properties":{"kind":"locality","name":"Matulji","kind_detail":"town","source":"openstreetmap.org","min_zoom":8.0,"name:it":"Mattuglie","id":60706664,"population":3731},"coordinates":[762,1144]},{"type":"Point","properties":{"kind":"locality","name":"Ribnica","kind_detail":"town","name:de":"Reifnitz","source":"openstreetmap.org","min_zoom":8.0,"name:ru":"\u0420\u0438\u0431\u043d\u0438\u0446\u0430","id":57099335,"population":3600},"coordinates":[1950,2708]},{"type":"Point","properties":{"kind":"locality","name":"\u017diri","kind_detail":"town","name:de":"Sairach","source":"openstreetmap.org","min_zoom":8.0,"name:ru":"\u0416\u0438\u0440\u0438","id":3426274016,"population":3600},"coordinates":[140,4004]},{"type":"Point","properties":{"kind":"locality","name":"Trebnje","name:lt":"Trebn\u0117","kind_detail":"town","name:de":"Treffen","source":"openstreetmap.org","min_zoom":8.0,"name:ru":"\u0422\u0440\u0435\u0431\u043d\u0435","id":57076536,"population":3500},"coordinates":[2759,3409]},{"type":"Point","properties":{"kind":"locality","name":"Lovran","kind_detail":"town","name:de":"Lauran","source":"openstreetmap.org","min_zoom":8.0,"name:la":"Castrum Laureanae","name:it":"Laurana","id":1572920176,"population":3336},"coordinates":[623,848]},{"type":"Point","properties":{"kind":"locality","old_name:de":"Merling","name":"Metlika","kind_detail":"town","name:de":"M\u00f6ttling","source":"openstreetmap.org","min_zoom":8.0,"name:ru":"\u041c\u0435\u0442\u043b\u0438\u043a\u0430","id":2548559572,"population":3225},"coordinates":[3662,2318]},{"type":"Point","properties":{"source":"openstreetmap.org","kind":"locality","name":"Vi\u0161kovo","kind_detail":"town","population":3068,"min_zoom":8.0,"id":1312200179},"coordinates":[941,1208]},{"type":"Point","properties":{"kind":"locality","name":"Kraljevica","kind_detail":"town","name:sr":"\u041a\u0440\u0430\u0459\u0435\u0432\u0438\u0446\u0430","source":"openstreetmap.org","min_zoom":8.0,"name:it":"Porto Re","name:ru":"\u041a\u0440\u0430\u043b\u0435\u0432\u0438\u0446\u0430","name:hu":"Portor\u00e9","id":556751557,"population":2857},"coordinates":[1479,768]},{"type":"Point","properties":{"kind":"locality","name":"Rade\u010de","kind_detail":"town","name:de":"Ratschach","source":"openstreetmap.org","min_zoom":8.0,"name:ru":"\u0420\u0430\u0434\u0435\u0447\u0435","id":57091959,"population":2296},"coordinates":[3263,4066]},{"type":"Point","properties":{"kind":"locality","name":"Pivka","kind_detail":"town","old_name:it":"San Pietro del Carso","old_name:de":"St. Peter in Krain","source":"openstreetmap.org","min_zoom":8.0,"name:ru":"\u041f\u0438\u0432\u043a\u0430","id":270516271,"population":2059},"coordinates":[388,2470]},{"type":"Point","properties":{"kind":"locality","name":"Semi\u010d","kind_detail":"town","name:de":"Semitsch","source":"openstreetmap.org","min_zoom":8.0,"name:ru":"\u0421\u0435\u043c\u0438\u0447","id":57098450,"population":1905},"coordinates":[3265,2342]},{"type":"Point","properties":{"kind":"locality","name":"Vrbovsko","kind_detail":"town","name:sr":"\u0412\u0440\u0431\u043e\u0432\u0441\u043a\u043e","source":"openstreetmap.org","min_zoom":8.0,"name:ru":"\u0412\u0440\u0431\u043e\u0432\u0441\u043a\u043e","id":467096090,"population":1673},"coordinates":[2938,1188]},{"type":"Point","properties":{"kind":"locality","name":"Bakar","name:lt":"Bakaras","kind_detail":"town","name:sr":"\u0411\u0430\u043a\u0430\u0440","source":"openstreetmap.org","min_zoom":8.0,"name:it":"Buccari","name:ru":"\u0411\u0430\u043a\u0430\u0440","id":60706661,"population":1473},"coordinates":[1384,908]},{"type":"Point","properties":{"kind":"locality","name":"Rakek","kind_detail":"town","source":"openstreetmap.org","min_zoom":8.0,"name:ru":"\u0420\u0430\u043a\u0435\u043a","id":87279639,"population":1381},"coordinates":[748,3013]},{"type":"Point","properties":{"kind":"locality","name":"Velike La\u0161\u010de","kind_detail":"town","source":"openstreetmap.org","min_zoom":8.0,"name:ru":"\u0412\u0435\u043b\u0438\u043a\u0435-\u041b\u0430\u0448\u0447\u0435","id":445411425,"population":721},"coordinates":[1677,3094]},{"type":"Point","properties":{"kind":"locality","name":"Kostanjevica na Krki","kind_detail":"town","name:de":"Landstra\u00df an der Gurk","source":"openstreetmap.org","min_zoom":8.0,"name:ru":"\u041a\u043e\u0441\u0442\u0430\u043d\u0435\u0432\u0438\u0446\u0430-\u043d\u0430-\u041a\u0440\u043a\u0438","id":387482821,"population":700},"coordinates":[3953,3151]},{"type":"Point","properties":{"kind":"locality","name":"\u010cabar","kind_detail":"town","name:sr":"\u0427\u0430\u0431\u0430\u0440","source":"openstreetmap.org","min_zoom":8.0,"name:ru":"\u0427\u0430\u0431\u0430\u0440","id":380412879,"population":412},"coordinates":[1702,2110]},{"type":"Point","properties":{"kind":"locality","name":"\u0160entrupert","kind_detail":"town","name:de":"Sankt Ruprecht","source":"openstreetmap.org","min_zoom":8.0,"name:ru":"\u0428\u0435\u043d\u0442\u0440\u0443\u043f\u0435\u0440\u0442","id":308084240,"population":348},"coordinates":[2997,3696]}]},"transit":{"type":"GeometryCollection","geometries":[{"type":"LineString","properties":{"kind":"train","name":"Sevnica - Trebnje","sort_rank":275,"name:de":"Lichtenwald - Treffen","source":"openstreetmap.org","min_zoom":6.0,"operator":"S\u017d Infrastruktura","ref":"R","id":-3437105,"osm_relation":true},"arcs":[3]},{"type":"LineString","properties":{"kind":"train","network":"regional","sort_rank":275,"source":"openstreetmap.org","min_zoom":6.0,"operator":"Hrvatske \u017deljeznice","ref":"ZG-MO","osm_relation":true,"name":"Zagreb Glavni Kolodvor - Moravice"},"arcs":[4]},{"type":"LineString","properties":{"kind":"train","name":"Pivka - Ilirska Bistrica - dr\u017eavna meja","sort_rank":275,"source":"openstreetmap.org","min_zoom":6.0,"operator":"S\u017d Infrastruktura","ref":"64","id":-3437045,"osm_relation":true},"arcs":[5]},{"type":"MultiLineString","properties":{"source":"openstreetmap.org","kind":"train","name":"IC 311: Villach -> Zagreb","sort_rank":275,"ref":"IC 311","min_zoom":6.0,"osm_relation":true},"arcs":[[6],[7],[8],[9],[10],[11],[12],[13],[14]]},{"type":"LineString","properties":{"kind":"train","name:en":"Ljubljana - Jesenice railway","name":"\u017delezni\u0161ka proga Ljubljana - Jesenice","sort_rank":275,"name:de":"Bahnstrecke Laibach - A\u00dfling","source":"openstreetmap.org","min_zoom":6.0,"operator":"Slovenske \u017eeleznice","id":-1973077,"osm_relation":true},"arcs":[15]},{"type":"LineString","properties":{"kind":"train","name":"Koper - Ljubjana","sort_rank":275,"name:de":"Gafers - Laibach","source":"openstreetmap.org","min_zoom":6.0,"ref":"R","osm_relation":true},"arcs":[16]},{"type":"MultiLineString","properties":{"source":"openstreetmap.org","kind":"train","name":"EC 213: Villach -> Zagreb","sort_rank":275,"ref":"EC 213","min_zoom":6.0,"osm_relation":true},"arcs":[[17],[18],[19],[20],[21],[22],[23],[24],[25]]},{"type":"LineString","properties":{"kind":"train","name":"IC Koper - Maribor","sort_rank":275,"name:de":"IC Gafers - Marburg an der Drau","source":"openstreetmap.org","min_zoom":6.0,"ref":"IC 504, IC505","osm_relation":true},"arcs":[26]},{"type":"LineString","properties":{"kind":"train","network":"H\u017d ICN","service":"long_distance","sort_rank":275,"colour":"#9D9D9D","name":"ICN Zagreb-Split","source":"openstreetmap.org","min_zoom":5.0,"operator":"H\u017d","ref":"ICN","osm_relation":true,"colour_name":"darkseagreen"},"arcs":[27]},{"type":"LineString","properties":{"kind":"train","network":"international","sort_rank":275,"source":"openstreetmap.org","min_zoom":6.0,"operator":"H\u017d Infrastruktura","ref":"M203","id":-1646412,"osm_relation":true,"name":"Rijeka \u2013 \u0160apjane \u2013 Dr\u017eavna granica \u2013 (Ilirska Bistrica)"},"arcs":[28]},{"type":"MultiLineString","properties":{"source":"openstreetmap.org","kind":"train","name":"EC 150: Emona","sort_rank":275,"ref":"EC 150","min_zoom":6.0,"osm_relation":true},"arcs":[[29],[30],[31],[32],[33],[34]]},{"type":"LineString","properties":{"kind":"train","name":"Villa Opicina - Ljubjana","sort_rank":275,"name:de":"Optschinach - Laibach","source":"openstreetmap.org","min_zoom":6.0,"ref":"R","osm_relation":true},"arcs":[35]},{"type":"MultiLineString","properties":{"kind":"train","name":"Dr\u017eavna meja - Metlika - Ljubljana","sort_rank":275,"source":"openstreetmap.org","min_zoom":6.0,"operator":"S\u017d Infrastruktura","ref":"R","osm_relation":true},"arcs":[[36],[37]]},{"type":"LineString","properties":{"kind":"train","network":"international","sort_rank":275,"source":"openstreetmap.org","min_zoom":6.0,"operator":"H\u017d Infrastruktura","ref":"M202","osm_relation":true,"name":"Zagreb Glavni kolodvor \u2013 Karlovac \u2013 Rijeka"},"arcs":[38]},{"type":"MultiLineString","properties":{"source":"openstreetmap.org","kind":"train","name":"Buzet - Pula \/ Buzet - Ra\u0161a","sort_rank":275,"ref":"S","min_zoom":6.0,"osm_relation":true},"arcs":[[39],[40],[41],[42],[43],[44],[45],[46],[47],[48],[49],[50],[51]]}]},"pois":{"type":"GeometryCollection","geometries":[{"type":"Point","properties":{"kind":"nature_reserve","protect_class":"4","area":694580000,"name:de":"Naturpark Sichelgebirge und die Samobor-Berge","source":"openstreetmap.org","min_zoom":7.57,"tier":2,"id":-6482172,"osm_relation":true,"name":"Park prirode \u017dumberak - Samoborsko gorje"},"coordinates":[3992,2746]},{"type":"Point","properties":{"kind":"nature_reserve","protect_class":"4","area":323879000,"name:de":"Naturpark U\u010dka","source":"openstreetmap.org","min_zoom":8.12,"tier":2,"id":143725654,"name":"Park prirode U\u010dka"},"coordinates":[385,760]},{"type":"Point","properties":{"kind":"nature_reserve","name:en":"Risnjak National Park","protect_class":"2","name:lt":"Risnjako nacionalinis parkas","area":131718000,"name:de":"Nationalpark Risnjak","source":"openstreetmap.org","min_zoom":8.77,"tier":2,"id":321048598,"name":"Nacionalni park Risnjak"},"coordinates":[1472,1571]},{"type":"Point","properties":{"source":"openstreetmap.org","kind":"military","name":"OSVAD Po\u010dek","area":43319700,"tier":3,"min_zoom":8.0,"id":499655345},"coordinates":[520,2734]}]},"boundaries":{"type":"GeometryCollection","geometries":[{"type":"MultiLineString","properties":{"name:right:yo":"Kroat\u00ed\u00e0","name:right:yi":"\u05e7\u05e8\u05d0\u05d0\u05d8\u05d9\u05e2","name:left:la":"Slovenia","name:left:lb":"Slowenien","name:left:li":"Sloveni\u00eb","name:left:vi":"Slovenia","name:left:kg":"Slovenia","name:left:ka":"\u10e1\u10da\u10dd\u10d5\u10d4\u10dc\u10d8\u10d0","name:left:kl":"Slovenia","name:left:ko":"\uc2ac\ub85c\ubca0\ub2c8\uc544","name:right:it":"Croazia","name:right:is":"Kr\u00f3at\u00eda","name:right:rw":"Korowatiya","name:left:kk":"\u0421\u043b\u043e\u0432\u0435\u043d\u0438\u044f","name:left:rm":"Slovenia","name:left:ku":"Slovenya","name:left:kw":"Sloveni","name:left:kv":"\u0421\u043b\u043e\u0432\u0435\u043d\u0438\u044f","name:right:rn":"Croacia","name:left:rw":"Siloveniya","name:left:ru":"\u0421\u043b\u043e\u0432\u0435\u043d\u0438\u044f","name:right:ie":"Croatia","name:right:id":"Kroasia","name:right:ia":"Croatia","name:right:bi":"Croatia","name:right:bn":"\u0995\u09cd\u09b0\u09cb\u09af\u09bc\u09c7\u09b6\u09bf\u09af\u09bc\u09be","name:right:bo":"\u0f41\u0f74\u0f62\u0f7c\u0f0b\u0f64\u0f72\u0f0b\u0f61\u0f0d","name:right:ba":"\u0425\u043e\u0440\u0432\u0430\u0442\u0438\u044f","name:right:bg":"\u0425\u044a\u0440\u0432\u0430\u0442\u0438\u044f","name:right:be":"\u0425\u0430\u0440\u0432\u0430\u0442\u044b\u044f","name:right:br":"Kroatia","name:right:nn":"Kroatia","name:right:no":"Kroatia","name:right:nl":"Kroati\u00eb","name:right:wa":"Crowaceye","name:left:lv":"Slov\u0113nija","name:right:wo":"Korwaasi","name:right:ne":"\u0915\u094d\u0930\u094b\u090f\u0936\u093f\u092f\u093e","name:right:na":"Kroaitsiya","name:right:gv":"Yn Chroit","name:right:nv":"Kw\u00f3\u00f3\u02bcad Bik\u00e9yah","kind_detail":"2","name:left:tr":"Slovenya","name:right:gu":"\u0a95\u0acd\u0ab0\u0acb\u0a8f\u0ab6\u0abf\u0aaf\u0abe","name:right:ps":"\u06a9\u0631\u0648\u0648\u0627\u0633\u064a\u0627","name:right:pt":"Cro\u00e1cia","name:left:mk":"\u0421\u043b\u043e\u0432\u0435\u043d\u0438\u0458\u0430","name:left:mi":"Horowinia","name:left:tt":"\u0421\u043b\u043e\u0432\u0435\u043d\u0438\u044f","name:left:mn":"\u0421\u043b\u043e\u0432\u0435\u043d","name:left:ml":"\u0d38\u0d4d\u0d32\u0d4a\u0d35\u0d40\u0d28\u0d4d\u0d2f","name:left:th":"\u0e1b\u0e23\u0e30\u0e40\u0e17\u0e28\u0e2a\u0e42\u0e25\u0e27\u0e35\u0e40\u0e19\u0e35\u0e22","name:right:pa":"\u0a15\u0a4d\u0a30\u0a4b\u0a0f\u0a38\u0a3c\u0a40\u0a06","name:left:tk":"Sloweni\u00fda","name:left:tl":"Eslobenya","name:left:mt":"Slovenja","name:right:gl":"Croacia","name:left:my":"\u1006\u101c\u102d\u102f\u1017\u1031\u1038\u1014\u102e\u1038\u101a\u102c\u1038\u1014\u102d\u102f\u1004\u103a\u1004\u1036","name:right:gn":"Kyoasia","name:right:pl":"Chorwacja","name:left:te":"\u0c38\u0c4d\u0c32\u0c4b\u0c35\u0c47\u0c28\u0c3f\u0c2f\u0c3e","name:left:tg":"\u0421\u043b\u043e\u0432\u0435\u043d\u0438\u044f","name:left:ms":"Slovenia","name:left:mr":"\u0938\u094d\u0932\u094b\u0935\u094d\u0939\u0947\u0928\u093f\u092f\u093e","name:left:da":"Slovenien","name:left:de":"Slowenien","name:right:ga":"An Chr\u00f3it","name:left:dv":"\u0790\u07aa\u078d\u07ae\u0788\u07a9\u0782\u07a8\u0787\u07a7","name:right:ug":"\u0643\u0631\u0648\u062f\u0649\u064a\u06d5","name:left:hi":"\u0938\u094d\u0932\u094b\u0935\u0947\u0928\u093f\u092f\u093e","name:right:lb":"Kroatien","name:right:uk":"\u0425\u043e\u0440\u0432\u0430\u0442\u0456\u044f","name:left:he":"\u05e1\u05dc\u05d5\u05d1\u05e0\u05d9\u05d4","name:right:ln":"Kroasia","name:right:li":"Kroati\u00eb","name:right:lt":"Kroatija","name:right:ur":"\u06a9\u0631\u0648\u0634\u06cc\u0627","name:right:lv":"Horv\u0101tija","name:left:hy":"\u054d\u056c\u0578\u057e\u0565\u0576\u056b\u0561","name:left:ta":"\u0b9a\u0bc1\u0bb2\u0bcb\u0bb5\u0bc0\u0ba9\u0bbf\u0baf\u0bbe","name:left:ht":"Sloveni","name:left:hu":"Szlov\u00e9nia","sort_rank":262,"name:right:gd":"Cro\u00e0isia","name:right:os":"\u0425\u043e\u0440\u0432\u0430\u0442\u0438","name:right:es":"Croacia","name:right:sr":"\u0425\u0440\u0432\u0430\u0442\u0441\u043a\u0430","name:right:eu":"Kroazia","name:right:et":"Horvaatia","name:left:os":"\u0421\u043b\u043e\u0432\u0435\u043d\u0438","name:left:or":"\u0b38\u0b4d\u0b32\u0b4b\u0b2d\u0b47\u0b28\u0b3f\u0b06","name:right:ee":"Croatia","name:left:vo":"Sloveniy\u00e4n","name:left:oc":"Eslov\u00e8nia","name:right:eo":"Kroatujo","name:right:en":"Croatia","name:right:el":"\u039a\u03c1\u03bf\u03b1\u03c4\u03af\u03b1","name:left:fa":"\u0627\u0633\u0644\u0648\u0648\u0646\u06cc","name:left:ia":"Slovenia","name:left:fo":"Slovenia","name:left:qu":"Isluwinya","name:left:fi":"Slovenia","name:left:fr":"Slov\u00e9nie","name:right:jv":"Kroasia","name:left:fy":"Sloveenje","name:right:ja":"\u30af\u30ed\u30a2\u30c1\u30a2","name:right:sq":"Kroacia","name:right:ss":"IKhuroshiya","name:left:ja":"\u30b9\u30ed\u30d9\u30cb\u30a2","name:right:su":"Kroasia","name:right:st":"Kroatia","name:right:sw":"Kroatia","name:right:sv":"Kroatien","name:right:sk":"Chorv\u00e1tsko","name:right:sm":"Croatia","name:right:sl":"Hrva\u0161ka","name:right:so":"Kroatia","name:right:sa":"\u0915\u094d\u0930\u094b\u090f\u0936\u093f\u092f\u093e","name:right:sc":"Croatzia","name:left:jv":"Slov\u00e9nia","id":-218657,"name:right:sg":"Kroas\u00efi","name:right:ca":"Cr\u00f2acia","name:right:se":"Kroatia","name:right:ce":"\u0425\u043e\u0440\u0432\u0430\u0442\u0438","name:right:cy":"Croatia","name:right:zh-yue":"\u514b\u7f85\u5730\u4e9e","name:right:cs":"Chorvatsko","name:right:cu":"\u0425\u0440\u044a\u0432\u0430\u0442\u044c\u0441\u043a\u0430","name:left:ar":"\u0633\u0644\u0648\u0641\u064a\u0646\u064a\u0627","name:left:az":"Sloveniya","name:left:ro":"Slovenia","name:left:af":"Sloweni\u00eb","name:left:an":"Eslovenia","name:left:am":"\u1235\u120e\u126c\u1292\u12eb","name:right:ru":"\u0425\u043e\u0440\u0432\u0430\u0442\u0438\u044f","name:right:io":"Kroatia","name:left:zh-yue":"\u65af\u6d1b\u6587\u5c3c\u4e9e","name:right:ro":"Croa\u021bia","name:right:hy":"\u053d\u0578\u0580\u057e\u0561\u0569\u056b\u0561","name:right:qu":"Hurwatsuyu","alt_name:left:eo":"Slovenio","name:left:su":"Slov\u00e9nia","name:left:st":"Slovenia","name:left:sw":"Slovenia","name:left:sv":"Slovenien","name:left:sq":"Sllovenia","name:right:hu":"Horv\u00e1torsz\u00e1g","name:left:ln":"Slovenia","name:left:sr":"\u0421\u043b\u043e\u0432\u0435\u043d\u0438\u0458\u0430","name:left:sm":"Slovenia","name:right:hi":"\u0915\u094d\u0930\u094b\u090f\u0936\u093f\u092f\u093e","name:left:so":"Isloveeniya","name:left:lt":"Slov\u0117nija","name:left:sk":"Slovinsko","name:left:se":"Slovenia","name:left:sa":"\u0938\u094d\u0932\u094b\u0935\u0940\u0928\u093f\u092f\u093e","name:right:he":"\u05e7\u05e8\u05d5\u05d0\u05d8\u05d9\u05d4","name:left:sc":"Islov\u00e8nia","name:right:la":"Croatia","name:right:af":"Kroasi\u00eb","name:left:co":"Sluvenia","name:right:ab":"\u0425\u043e\u0440\u0432\u0430\u0442\u0438\u0430","name:left:ce":"\u0421\u043b\u043e\u0432\u0435\u043d\u0438","name:right:an":"Croacia","name:right:am":"\u12ad\u122e\u12a4\u123d\u12eb","name:left:ca":"Eslov\u00e8nia","source":"openstreetmap.org","name:left:cy":"Slofenia","name:right:ar":"\u0643\u0631\u0648\u0627\u062a\u064a\u0627","name:left:cu":"\u0407\u043b\u043b\u0477\u0440\u0457\u0438\u0441\u043a\u0430 \u0421\u043b\u043e\u0432\u0463\u043d\u0457\ua657","name:left:cv":"\u0421\u043b\u043e\u0432\u0435\u043d\u0438","name:right:az":"Xorvatiya","name:left:cs":"Slovinsko","name":"Slovenija - Hrvatska","name:left:zh":"\u65af\u6d1b\u6587\u5c3c\u4e9e","name:right:za":"Gwzlozdiya","name:right:zh":"\u514b\u7f85\u5730\u4e9e","official_name:left":"Republika Slovenija","name:left:uz":"Sloveniya","name:right:fr":"Croatie","name:left:nv":"S\u0142ob\u00ed\u00edn Bik\u00e9yah","name:left:ur":"\u0633\u0644\u0648\u0648\u06cc\u0646\u06cc\u0627","id:right":-214885,"name:left:uk":"\u0421\u043b\u043e\u0432\u0435\u043d\u0456\u044f","name:left:no":"Slovenia","name:left:nl":"Sloveni\u00eb","alt_name:right:eo":"Kroatio","name:right:fa":"\u06a9\u0631\u0648\u0627\u0633\u06cc","name:right:fo":"Kroatia","name:left:ne":"\u0938\u094d\u0932\u094b\u092d\u0947\u0928\u093f\u092f\u093e","name:left:ug":"Slow\u00e9niye","name:right:fi":"Kroatia","name:left:eo":"Slovenujo","name:left:en":"Slovenia","name:left:el":"\u03a3\u03bb\u03bf\u03b2\u03b5\u03bd\u03af\u03b1","name:left:ee":"Slovenia","name:left:pl":"S\u0142owenia","name:left:es":"Eslovenia","name:left:ss":"Siloveni","name:left:ie":"Slovenia","name:left:eu":"Eslovenia","name:left:et":"Sloveenia","name:right:oc":"Cro\u00e0cia","name:right:ko":"\ud06c\ub85c\uc544\ud2f0\uc544","name:right:uz":"Xorvatiya","osm_relation":true,"name:right:or":"\u0b15\u0b4d\u0b30\u0b4b\u0b0f\u0b38\u0b3f\u0b06","name:left:pt":"Eslov\u00e9nia","name:right:ku":"Kroatya","name:right:tk":"Horwati\u00fda","name:left:gl":"Eslovenia","min_zoom":8.0,"name:left:zh-min-nan":"Slovenia","name:left:wo":"Esloweeni","name:left:ga":"An tSl\u00f3iv\u00e9in","name:left:it":"Slovenia","name:left:gd":"Sloibh\u00ecnia","int_name:right":"Croatia","name:left:gn":"Elove\u00f1a","name:left:gu":"\u0ab8\u0acd\u0ab2\u0acb\u0ab5\u0ac7\u0aa8\u0abf\u0aaf\u0abe","name:left:gv":"Yn Clovean","official_name:right":"Republika Hrvatska","name:left":"Slovenija","name:right:mk":"\u0425\u0440\u0432\u0430\u0442\u0441\u043a\u0430","name:right:mi":"Koro\u0101tia","name:right:mn":"\u0425\u043e\u0440\u0432\u0430\u0442","name:right:ml":"\u0d15\u0d4d\u0d30\u0d4a\u0d2f\u0d47\u0d37\u0d4d\u0d2f","name:right:vo":"Kroas\u00e4n","name:right:vi":"Croatia","name:right:my":"\u1001\u101b\u102d\u102f\u1021\u1031\u1038\u101b\u103e\u102c\u1038\u1014\u102d\u102f\u1004\u103a\u1004\u1036","name:right:ms":"Croatia","name:right:mr":"\u0915\u094d\u0930\u094b\u090f\u0936\u093f\u092f\u093e","name:right:fy":"Kroaasje","name:right:mt":"Kroazja","name:left:nn":"Slovenia","kind":"country","name:left:br":"Slovenia","int_name:left":"Slovenia","name:left:ba":"\u0421\u043b\u043e\u0432\u0435\u043d\u0438\u044f","name:left:bg":"\u0421\u043b\u043e\u0432\u0435\u043d\u0438\u044f","name:right:kv":"\u0425\u043e\u0440\u0432\u0430\u0442\u0438\u044f","name:left:be":"\u0421\u043b\u0430\u0432\u0435\u043d\u0456\u044f","name:left:bi":"Slovenia","name:left:bn":"\u09b8\u09cd\u09b2\u09cb\u09ad\u09c7\u09a8\u09bf\u09af\u09bc\u09be","name:left:bo":"\u0f66\u0f72\u0f0b\u0f63\u0f7c\u0f0b\u0f5d\u0f7a\u0f0b\u0f53\u0f72\u0f0b\u0f61\u0f0d","name:right":"Hrvatska","name:left:yo":"Slof\u00e9n\u00ed\u00e0","name:left:yi":"\u05e1\u05dc\u05d0\u05d5\u05d5\u05e2\u05e0\u05d9\u05e2","id:left":-218657,"name:left:na":"Tsirobeniya","name:right:ka":"\u10ee\u10dd\u10e0\u10d5\u10d0\u10e2\u10d8\u10d0","name:left:io":"Slovenia","name:right:kg":"Kroatia","name:right:tt":"\u0425\u043e\u0440\u0432\u0430\u0442\u0438\u044f","name:right:kk":"\u0425\u043e\u0440\u0432\u0430\u0442\u0438\u044f","name:left:id":"Slovenia","name:right:kl":"Kroatia","name:right:tr":"H\u0131rvatistan","name:right:kn":"\u0c95\u0ccd\u0cb0\u0cca\u0caf\u0cc6\u0cb6\u0cbf\u0caf","name:right:tl":"Kroasya","name:right:th":"\u0e1b\u0e23\u0e30\u0e40\u0e17\u0e28\u0e42\u0e04\u0e23\u0e40\u0e2d\u0e40\u0e0a\u0e35\u0e22","name:right:kw":"Kroati","name:left:ps":"\u0633\u0644\u0648\u0648\u0627\u0646\u06cc\u0627","name:right:ky":"\u0425\u043e\u0440\u0432\u0430\u0442\u0438\u044f","name:right:te":"\u0c15\u0c4d\u0c30\u0c4a\u0c2f\u0c47\u0c37\u0c3f\u0c2f\u0c3e","name:right:tg":"\u0425\u043e\u0440\u0432\u0430\u0442\u0438\u044f","name:left:is":"Sl\u00f3ven\u00eda","name:right:ta":"\u0b95\u0bc1\u0bb0\u0bcb\u0bb5\u0bbe\u0b9a\u0bbf\u0baf\u0bbe","name:right:de":"Kroatien","name:right:da":"Kroatien","name:right:dv":"\u0786\u07aa\u0783\u07ae\u0787\u07ad\u079d\u07a8\u0787\u07a7","name:right:ht":"Kroasi"},"arcs":[[0],[1]]},{"type":"LineString","properties":{"name:kg":"Slovenia","name:ka":"\u10e1\u10da\u10dd\u10d5\u10d4\u10dc\u10d8\u10d0","name:ko":"\uc2ac\ub85c\ubca0\ub2c8\uc544","name:cv":"\u0421\u043b\u043e\u0432\u0435\u043d\u0438","name:cu":"\u0407\u043b\u043b\u0477\u0440\u0457\u0438\u0441\u043a\u0430 \u0421\u043b\u043e\u0432\u0463\u043d\u0457\ua657","name:kl":"Slovenia","name:cs":"Slovinsko","name:tt":"\u0421\u043b\u043e\u0432\u0435\u043d\u0438\u044f","name:co":"Sluvenia","name:kv":"\u0421\u043b\u043e\u0432\u0435\u043d\u0438\u044f","name:ku":"Slovenya","name:tl":"Eslobenya","name:ce":"\u0421\u043b\u043e\u0432\u0435\u043d\u0438","name:ta":"\u0b9a\u0bc1\u0bb2\u0bcb\u0bb5\u0bc0\u0ba9\u0bbf\u0baf\u0bbe","name:tg":"\u0421\u043b\u043e\u0432\u0435\u043d\u0438\u044f","name:ca":"Eslov\u00e8nia","name:te":"\u0c38\u0c4d\u0c32\u0c4b\u0c35\u0c47\u0c28\u0c3f\u0c2f\u0c3e","name:cy":"Slofenia","name:da":"Slovenien","name:de":"Slowenien","source":"openstreetmap.org","name:dv":"\u0790\u07aa\u078d\u07ae\u0788\u07a9\u0782\u07a8\u0787\u07a7","name:lv":"Slov\u0113nija","name:lt":"Slov\u0117nija","name:uz":"Sloveniya","name:kk":"\u0421\u043b\u043e\u0432\u0435\u043d\u0438\u044f","name:ur":"\u0633\u0644\u0648\u0648\u06cc\u0646\u06cc\u0627","name:lb":"Slowenien","name:la":"Slovenia","name:uk":"\u0421\u043b\u043e\u0432\u0435\u043d\u0456\u044f","name:ug":"Slow\u00e9niye","name:li":"Sloveni\u00eb","name:ln":"Slovenia","name:el":"\u03a3\u03bb\u03bf\u03b2\u03b5\u03bd\u03af\u03b1","name:eo":"Slovenujo","name:en":"Slovenia","name":"Slovenija","name:tk":"Sloweni\u00fda","name:ee":"Slovenia","name:th":"\u0e1b\u0e23\u0e30\u0e40\u0e17\u0e28\u0e2a\u0e42\u0e25\u0e27\u0e35\u0e40\u0e19\u0e35\u0e22","name:eu":"Eslovenia","name:et":"Sloveenia","name:es":"Eslovenia","name:ia":"Slovenia","name:rm":"Slovenia","name:az":"Sloveniya","name:ie":"Slovenia","name:id":"Slovenia","name:ar":"\u0633\u0644\u0648\u0641\u064a\u0646\u064a\u0627","name:io":"Slovenia","name:is":"Sl\u00f3ven\u00eda","name:am":"\u1235\u120e\u126c\u1292\u12eb","name:it":"Slovenia","name:an":"Eslovenia","name:ru":"\u0421\u043b\u043e\u0432\u0435\u043d\u0438\u044f","name:rw":"Siloveniya","name:af":"Sloweni\u00eb","kind_detail":"2","name:zh-yue":"\u65af\u6d1b\u6587\u5c3c\u4e9e","name:zh":"\u65af\u6d1b\u6587\u5c3c\u4e9e","name:so":"Isloveeniya","name:sm":"Slovenia","name:sk":"Slovinsko","name:ja":"\u30b9\u30ed\u30d9\u30cb\u30a2","name:se":"Slovenia","name:sc":"Islov\u00e8nia","name:br":"Slovenia","name:bn":"\u09b8\u09cd\u09b2\u09cb\u09ad\u09c7\u09a8\u09bf\u09af\u09bc\u09be","name:bo":"\u0f66\u0f72\u0f0b\u0f63\u0f7c\u0f0b\u0f5d\u0f7a\u0f0b\u0f53\u0f72\u0f0b\u0f61\u0f0d","name:bi":"Slovenia","name:sw":"Slovenia","name:be":"\u0421\u043b\u0430\u0432\u0435\u043d\u0456\u044f","name:su":"Slov\u00e9nia","name:bg":"\u0421\u043b\u043e\u0432\u0435\u043d\u0438\u044f","name:ss":"Siloveni","name:ba":"\u0421\u043b\u043e\u0432\u0435\u043d\u0438\u044f","name:sq":"Sllovenia","name:jv":"Slov\u00e9nia","name:sa":"\u0938\u094d\u0932\u094b\u0935\u0940\u0928\u093f\u092f\u093e","name:pt":"Eslov\u00e9nia","name:ps":"\u0633\u0644\u0648\u0648\u0627\u0646\u06cc\u0627","name:oc":"Eslov\u00e8nia","min_zoom":8.0,"name:ro":"Slovenia","name:zh-min-nan":"Slovenia","name:os":"\u0421\u043b\u043e\u0432\u0435\u043d\u0438","name:or":"\u0b38\u0b4d\u0b32\u0b4b\u0b2d\u0b47\u0b28\u0b3f\u0b06","name:pl":"S\u0142owenia","name:st":"Slovenia","sort_rank":262,"name:sr":"\u0421\u043b\u043e\u0432\u0435\u043d\u0438\u0458\u0430","osm_relation":true,"name:tr":"Slovenya","name:hi":"\u0938\u094d\u0932\u094b\u0935\u0947\u0928\u093f\u092f\u093e","name:sv":"Slovenien","name:he":"\u05e1\u05dc\u05d5\u05d1\u05e0\u05d9\u05d4","name:hy":"\u054d\u056c\u0578\u057e\u0565\u0576\u056b\u0561","name:ht":"Sloveni","name:hu":"Szlov\u00e9nia","name:qu":"Isluwinya","kind":"country","name:yi":"\u05e1\u05dc\u05d0\u05d5\u05d5\u05e2\u05e0\u05d9\u05e2","name:yo":"Slof\u00e9n\u00ed\u00e0","name:mt":"Slovenja","alt_name:eo":"Slovenio","name:ms":"Slovenia","name:mr":"\u0938\u094d\u0932\u094b\u0935\u094d\u0939\u0947\u0928\u093f\u092f\u093e","name:my":"\u1006\u101c\u102d\u102f\u1017\u1031\u1038\u1014\u102e\u1038\u101a\u102c\u1038\u1014\u102d\u102f\u1004\u103a\u1004\u1036","official_name":"Republika Slovenija","name:kw":"Sloveni","name:ml":"\u0d38\u0d4d\u0d32\u0d4a\u0d35\u0d40\u0d28\u0d4d\u0d2f","name:vi":"Slovenia","name:mn":"\u0421\u043b\u043e\u0432\u0435\u043d","name:mi":"Horowinia","id":-218657,"name:mk":"\u0421\u043b\u043e\u0432\u0435\u043d\u0438\u0458\u0430","name:vo":"Sloveniy\u00e4n","name:fa":"\u0627\u0633\u0644\u0648\u0648\u0646\u06cc","name:fi":"Slovenia","name:fo":"Slovenia","name:fr":"Slov\u00e9nie","name:fy":"Sloveenje","int_name":"Slovenia","name:nl":"Sloveni\u00eb","name:nn":"Slovenia","name:no":"Slovenia","name:na":"Tsirobeniya","name:ne":"\u0938\u094d\u0932\u094b\u092d\u0947\u0928\u093f\u092f\u093e","name:wo":"Esloweeni","name:nv":"S\u0142ob\u00ed\u00edn Bik\u00e9yah","name:ga":"An tSl\u00f3iv\u00e9in","name:gd":"Sloibh\u00ecnia","name:gn":"Elove\u00f1a","name:gl":"Eslovenia","name:gv":"Yn Clovean","name:gu":"\u0ab8\u0acd\u0ab2\u0acb\u0ab5\u0ac7\u0aa8\u0abf\u0aaf\u0abe"},"arcs":[2]}]},"roads":{"type":"GeometryCollection","geometries":[{"type":"LineString","properties":{"bus_network":"PPP - Urbana","network":"SI:R3","sort_rank":380,"kind_detail":"primary","kind":"major_road","source":"openstreetmap.org","min_zoom":8.0,"bus_shield_text":"74","shield_text":"646","ref":"646"},"arcs":[56]},{"type":"MultiLineString","properties":{"kind":"path","sort_rank":354,"landuse_kind":"residential","is_bicycle_related":true,"bicycle_shield_text":"D-2","bicycle_network":"ncn","source":"openstreetmap.org","min_zoom":8.0,"kind_detail":"footway"},"arcs":[[57],[58]]},{"type":"MultiLineString","properties":{"bus_network":"MPP Ljubljana - Urbana","network":"SI:R3","sort_rank":380,"kind_detail":"primary","kind":"major_road","source":"openstreetmap.org","min_zoom":8.0,"bus_shield_text":"3G","shield_text":"646"},"arcs":[[59],[60],[61],[62],[63],[64],[65],[66]]},{"type":"LineString","properties":{"kind":"major_road","network":"Dr\u017eavne ceste","sort_rank":380,"kind_detail":"primary","source":"openstreetmap.org","min_zoom":8.0,"shield_text":"203","ref":"D203"},"arcs":[67]},{"type":"LineString","properties":{"kind":"major_road","network":"\u017dupanijske ceste","sort_rank":379,"kind_detail":"secondary","is_bicycle_related":true,"bicycle_shield_text":"N6","bicycle_network":"ncn","source":"openstreetmap.org","min_zoom":8.0,"shield_text":"3174","ref":"3174","id":123386622},"arcs":[68]},{"type":"LineString","properties":{"kind":"major_road","sort_rank":380,"kind_detail":"primary","old_name":"Masarykova cesta (-1942);Cesta so\u0161ke divizije (1942-1944);Cesta 800 let Ljubljane (1944-)","bus_network":"MPP Ljubljana - Urbana","source":"openstreetmap.org","min_zoom":8.0,"bus_shield_text":"27K","landuse_kind":"residential","id":17263510},"arcs":[69]},{"type":"LineString","properties":{"bus_network":"MPP Ljubljana - Urbana","network":"SI:G2","sort_rank":380,"kind_detail":"primary","kind":"major_road","source":"openstreetmap.org","min_zoom":8.0,"bus_shield_text":"N3B","shield_text":"106","ref":"106"},"arcs":[70]},{"type":"MultiLineString","properties":{"bus_network":null,"network":"Dr\u017eavne ceste","sort_rank":380,"kind_detail":"primary","kind":"major_road","source":"openstreetmap.org","min_zoom":8.0,"name:it":"Via Zvonimir","bus_shield_text":"1A","shield_text":"8","landuse_kind":"urban_area","ref":"D8"},"arcs":[[71],[72]]},{"type":"MultiLineString","properties":{"kind":"major_road","network":"Dr\u017eavne ceste","sort_rank":380,"kind_detail":"primary","is_bicycle_related":true,"bicycle_shield_text":"4","bicycle_network":"rcn","source":"openstreetmap.org","min_zoom":8.0,"shield_text":"6","ref":"D6"},"arcs":[[73],[74],[75],[76]]},{"type":"MultiLineString","properties":{"cycleway_right":"track","sort_rank":380,"kind_detail":"primary","bus_shield_text":"Alpetour","is_bicycle_related":true,"bus_network":null,"source":"openstreetmap.org","min_zoom":8.0,"old_name":"Masarykova cesta (-1942);Cesta so\u0161ke divizije (1942-1944);Cesta 800 let Ljubljane (1944-)","landuse_kind":"residential","kind":"major_road"},"arcs":[[77],[78]]},{"type":"MultiLineString","properties":{"sort_rank":380,"kind_detail":"primary","min_zoom":8.0,"kind":"major_road","source":"openstreetmap.org"},"arcs":[[79],[80],[81],[82],[83],[84],[85],[86],[87],[88],[89],[90]]},{"type":"LineString","properties":{"bus_network":"MPP Ljubljana - Urbana","network":"SI:R3","sort_rank":377,"kind_detail":"tertiary","is_bicycle_related":true,"kind":"major_road","bicycle_shield_text":"D-2","cycleway":"track","source":"openstreetmap.org","min_zoom":8.0,"bus_shield_text":"6B","shield_text":"742","bicycle_network":"ncn","ref":"742","id":153078670},"arcs":[91]},{"type":"LineString","properties":{"kind":"major_road","sort_rank":380,"kind_detail":"primary","bus_shield_text":"45","is_bicycle_related":true,"bus_network":"PPP","cycleway":"track","source":"openstreetmap.org","min_zoom":8.0,"old_name":"Tivolska cesta","landuse_kind":"residential","id":42689596},"arcs":[92]},{"type":"LineString","properties":{"bus_network":"MPP Ljubljana - Urbana","sort_rank":380,"kind_detail":"primary","is_bicycle_related":true,"kind":"major_road","cycleway":"track","source":"openstreetmap.org","min_zoom":8.0,"bus_shield_text":"N3","landuse_kind":"residential"},"arcs":[93]},{"type":"LineString","properties":{"bus_network":"MPP Ljubljana - Urbana","sort_rank":379,"landuse_kind":"residential","is_bicycle_related":true,"kind":"major_road","bicycle_shield_text":null,"bicycle_network":"icn","source":"openstreetmap.org","min_zoom":8.0,"bus_shield_text":"20Z","kind_detail":"secondary"},"arcs":[94]},{"type":"LineString","properties":{"bus_network":"MPP Ljubljana - Urbana","sort_rank":380,"kind_detail":"primary","kind":"major_road","source":"openstreetmap.org","min_zoom":8.0,"bus_shield_text":"27K","landuse_kind":"residential"},"arcs":[95]},{"type":"LineString","properties":{"kind":"major_road","network":"Autoceste","sort_rank":381,"landuse_kind":"urban_area","source":"openstreetmap.org","min_zoom":8.0,"kind_detail":"trunk","shield_text":"8","ref":"A8"},"arcs":[96]},{"type":"LineString","properties":{"cycleway_right":"track","cycleway_left":"lane","sort_rank":380,"kind_detail":"primary","is_bicycle_related":true,"kind":"major_road","bus_network":"MPP Ljubljana - Urbana","source":"openstreetmap.org","min_zoom":8.0,"bus_shield_text":"20Z","landuse_kind":"residential","id":424064678},"arcs":[97]},{"type":"LineString","properties":{"kind":"minor_road","sort_rank":360,"kind_detail":"residential","is_bicycle_related":true,"bicycle_shield_text":"N1","bicycle_network":"ncn","source":"openstreetmap.org","min_zoom":8.0},"arcs":[98]},{"type":"LineString","properties":{"bus_network":null,"network":"Dr\u017eavne ceste","sort_rank":380,"kind_detail":"primary","kind":"major_road","source":"openstreetmap.org","min_zoom":8.0,"bus_shield_text":"18","shield_text":"304","landuse_kind":"urban_area","ref":"D304"},"arcs":[99]},{"type":"MultiLineString","properties":{"bus_network":"MPP Ljubljana - Urbana","sort_rank":380,"kind_detail":"primary","is_bicycle_related":true,"kind":"major_road","cycleway":"track","source":"openstreetmap.org","min_zoom":8.0,"bus_shield_text":"6B","landuse_kind":"residential"},"arcs":[[100],[101],[102],[103]]},{"type":"MultiLineString","properties":{"bus_network":"Furman","sort_rank":377,"kind_detail":"tertiary","is_bicycle_related":true,"kind":"major_road","bicycle_shield_text":null,"bicycle_network":"icn","source":"openstreetmap.org","min_zoom":8.0,"bus_shield_text":"1"},"arcs":[[104],[105],[106],[107]]},{"type":"MultiLineString","properties":{"kind":"major_road","network":"SI:G2","sort_rank":380,"kind_detail":"primary","source":"openstreetmap.org","min_zoom":8.0,"shield_text":"105","ref":"105"},"arcs":[[108],[109],[110],[111],[112],[113],[114]]},{"type":"LineString","properties":{"kind":"minor_road","cycleway_left":"lane","sort_rank":360,"kind_detail":"residential","is_bicycle_related":true,"bicycle_shield_text":null,"bicycle_network":"icn","source":"openstreetmap.org","min_zoom":8.0,"landuse_kind":"residential","id":173611978},"arcs":[115]},{"type":"MultiLineString","properties":{"kind":"minor_road","sort_rank":360,"kind_detail":"unclassified","is_bicycle_related":true,"bicycle_shield_text":null,"cycleway":"lane","source":"openstreetmap.org","min_zoom":8.0,"bicycle_network":"icn"},"arcs":[[116],[117]]},{"type":"LineString","properties":{"kind":"major_road","network":"e-road","sort_rank":380,"kind_detail":"primary","source":"openstreetmap.org","min_zoom":8.0,"shield_text":"65","ref":"5064","id":215826653},"arcs":[118]},{"type":"LineString","properties":{"kind":"major_road","network":"Dr\u017eavne ceste","sort_rank":380,"kind_detail":"primary","source":"openstreetmap.org","min_zoom":8.0,"shield_text":"64","ref":"D64"},"arcs":[119]},{"type":"LineString","properties":{"kind":"major_road","network":"Dr\u017eavne ceste","sort_rank":380,"kind_detail":"primary","source":"openstreetmap.org","min_zoom":8.0,"landuse_kind":"urban_area","shield_text":"427","ref":"D427"},"arcs":[120]},{"type":"MultiLineString","properties":{"kind":"path","sort_rank":354,"kind_detail":"track","is_bicycle_related":true,"bicycle_shield_text":null,"bicycle_network":"icn","source":"openstreetmap.org","min_zoom":8.0},"arcs":[[121],[122],[123],[124],[125],[126]]},{"type":"LineString","properties":{"bus_network":"PPP","network":"SI:G2","sort_rank":380,"kind_detail":"primary","is_bicycle_related":true,"kind":"major_road","source":"openstreetmap.org","min_zoom":8.0,"bus_shield_text":"68","shield_text":"106","ref":"106"},"arcs":[127]},{"type":"LineString","properties":{"kind":"major_road","network":"Dr\u017eavne ceste","sort_rank":380,"kind_detail":"primary","source":"openstreetmap.org","min_zoom":8.0,"shield_text":"402","ref":"D402"},"arcs":[128]},{"type":"LineString","properties":{"kind":"major_road","network":"Dr\u017eavne ceste","sort_rank":380,"kind_detail":"primary","bus_network":null,"source":"openstreetmap.org","min_zoom":8.0,"bus_shield_text":"10a","shield_text":"8","ref":"D8","id":424892677},"arcs":[129]},{"type":"LineString","properties":{"kind":"major_road","network":"\u017dupanijske ceste","sort_rank":379,"kind_detail":"secondary","is_bicycle_related":true,"bicycle_shield_text":"N6","bicycle_network":"ncn","source":"openstreetmap.org","min_zoom":8.0,"shield_text":"3175","ref":"3175"},"arcs":[130]},{"type":"LineString","properties":{"kind":"major_road","network":"Dr\u017eavne ceste","sort_rank":380,"kind_detail":"primary","is_bicycle_related":true,"bicycle_shield_text":"403","bicycle_network":"lcn","source":"openstreetmap.org","min_zoom":8.0,"shield_text":"500","ref":"D500"},"arcs":[131]},{"type":"LineString","properties":{"kind":"major_road","network":"Dr\u017eavne ceste","sort_rank":380,"kind_detail":"primary","source":"openstreetmap.org","min_zoom":8.0,"name:it":"Via Trpimir","landuse_kind":"urban_area","shield_text":"8","ref":"D8","id":438321330},"arcs":[132]},{"type":"MultiLineString","properties":{"source":"openstreetmap.org","bus_network":"PPP","bus_shield_text":"68","sort_rank":380,"kind_detail":"primary","min_zoom":8.0,"kind":"major_road"},"arcs":[[133],[134],[135]]},{"type":"MultiLineString","properties":{"kind":"major_road","network":"Dr\u017eavne ceste","sort_rank":380,"kind_detail":"primary","source":"openstreetmap.org","min_zoom":8.0,"landuse_kind":"urban_area","shield_text":"8","ref":"D8"},"arcs":[[136],[137]]},{"type":"LineString","properties":{"bus_network":null,"network":"Dr\u017eavne ceste","sort_rank":380,"kind_detail":"primary","kind":"major_road","source":"openstreetmap.org","min_zoom":8.0,"name:it":"Via Trpimir","bus_shield_text":"1A","shield_text":"8","landuse_kind":"urban_area","ref":"D8"},"arcs":[138]},{"type":"LineString","properties":{"kind":"major_road","network":"Dr\u017eavne ceste","sort_rank":380,"kind_detail":"primary","source":"openstreetmap.org","min_zoom":8.0,"landuse_kind":"urban_area","shield_text":"40","ref":"D40"},"arcs":[139]},{"type":"MultiLineString","properties":{"bus_network":"MPP Ljubljana - Urbana","network":"SI:R3","sort_rank":377,"kind_detail":"tertiary","is_bicycle_related":true,"kind":"major_road","bicycle_shield_text":null,"bicycle_network":"icn","source":"openstreetmap.org","min_zoom":8.0,"bus_shield_text":"19B","shield_text":"642","ref":"642"},"arcs":[[140],[141]]},{"type":"LineString","properties":{"bus_network":null,"network":"Dr\u017eavne ceste","sort_rank":380,"kind_detail":"primary","kind":"major_road","source":"openstreetmap.org","min_zoom":8.0,"name:it":"Via Zajc","bus_shield_text":"18b","shield_text":"8","landuse_kind":"urban_area","ref":"D8","id":143300219},"arcs":[142]},{"type":"LineString","properties":{"kind":"major_road","sort_rank":380,"kind_detail":"primary","bus_network":null,"source":"openstreetmap.org","min_zoom":8.0,"bus_shield_text":"22","landuse_kind":"urban_area","id":173854173},"arcs":[143]},{"type":"LineString","properties":{"kind":"minor_road","sort_rank":360,"kind_detail":"living_street","is_bicycle_related":true,"bicycle_shield_text":null,"bicycle_network":"icn","source":"openstreetmap.org","min_zoom":8.0,"landuse_kind":"residential","id":42081768},"arcs":[144]},{"type":"LineString","properties":{"kind":"path","sort_rank":354,"landuse_kind":"urban_area","is_bicycle_related":true,"bicycle_shield_text":null,"bicycle_network":"icn","source":"openstreetmap.org","min_zoom":8.0,"kind_detail":"track"},"arcs":[145]},{"type":"MultiLineString","properties":{"kind":"major_road","network":"Dr\u017eavne ceste","sort_rank":381,"landuse_kind":"urban_area","source":"openstreetmap.org","min_zoom":8.0,"kind_detail":"trunk","shield_text":"404","ref":"D404"},"arcs":[[146],[147],[148]]},{"type":"LineString","properties":{"bus_network":"MPP Ljubljana - Urbana","sort_rank":379,"landuse_kind":"residential","is_bicycle_related":true,"kind":"major_road","bicycle_shield_text":"D-2","bicycle_network":"ncn","source":"openstreetmap.org","min_zoom":8.0,"bus_shield_text":"1B","kind_detail":"secondary","cycleway":"track"},"arcs":[149]},{"type":"MultiLineString","properties":{"kind":"highway","network":"Autoceste","sort_rank":383,"kind_detail":"motorway","source":"openstreetmap.org","min_zoom":8.0,"all_networks":["Autoceste","e-road"],"shield_text":"6","ref":"A6","all_shield_texts":["6","65"]},"arcs":[[150],[151],[152],[153],[154],[155]]},{"type":"LineString","properties":{"kind":"major_road","network":"Dr\u017eavne ceste","sort_rank":380,"kind_detail":"primary","is_bicycle_related":true,"bicycle_shield_text":"N6","bicycle_network":"ncn","source":"openstreetmap.org","min_zoom":8.0,"landuse_kind":"urban_area","shield_text":"3","ref":"D3","id":330437498},"arcs":[156]},{"type":"LineString","properties":{"kind":"major_road","network":"Dr\u017eavne ceste","sort_rank":380,"kind_detail":"primary","is_bicycle_related":true,"bicycle_shield_text":"3","bicycle_network":"rcn","source":"openstreetmap.org","min_zoom":8.0,"shield_text":"228","ref":"D228"},"arcs":[157]},{"type":"LineString","properties":{"kind":"major_road","network":"Dr\u017eavne ceste","sort_rank":380,"kind_detail":"primary","is_bicycle_related":true,"bicycle_shield_text":"405","bicycle_network":"lcn","source":"openstreetmap.org","min_zoom":8.0,"shield_text":"66","ref":"D66; 5103","id":172912575},"arcs":[158]},{"type":"LineString","properties":{"kind":"major_road","network":"SI:R1","sort_rank":379,"kind_detail":"secondary","is_bicycle_related":true,"bicycle_shield_text":null,"bicycle_network":"icn","source":"openstreetmap.org","min_zoom":8.0,"shield_text":"212","ref":"212","id":430617764},"arcs":[159]},{"type":"LineString","properties":{"bus_network":null,"network":"Dr\u017eavne ceste","sort_rank":380,"kind_detail":"primary","kind":"major_road","source":"openstreetmap.org","min_zoom":8.0,"bus_shield_text":"18b","shield_text":"304","landuse_kind":"urban_area","ref":"D304"},"arcs":[160]},{"type":"LineString","properties":{"bus_network":"MPP Ljubljana - Urbana","sort_rank":380,"kind_detail":"primary","is_bicycle_related":true,"kind":"major_road","cycleway":"track","source":"openstreetmap.org","min_zoom":8.0,"bus_shield_text":"12D","landuse_kind":"urban_area"},"arcs":[161]},{"type":"MultiLineString","properties":{"bus_network":"MPP Ljubljana - Urbana","sort_rank":380,"kind_detail":"primary","kind":"major_road","source":"openstreetmap.org","min_zoom":8.0,"bus_shield_text":"9","landuse_kind":"residential"},"arcs":[[162],[163]]},{"type":"LineString","properties":{"kind":"major_road","network":"Autoceste","sort_rank":381,"landuse_kind":"urban_area","source":"openstreetmap.org","min_zoom":8.0,"name:it":"San Cosimo Nord","kind_detail":"trunk","shield_text":"7","ref":"A7"},"arcs":[164]},{"type":"LineString","properties":{"kind":"major_road","network":"Dr\u017eavne ceste","sort_rank":380,"kind_detail":"primary","source":"openstreetmap.org","min_zoom":8.0,"shield_text":"228","ref":"D228"},"arcs":[165]},{"type":"LineString","properties":{"bus_network":"MPP Ljubljana - Urbana","network":"SI:G2","sort_rank":380,"kind_detail":"primary","is_bicycle_related":true,"kind":"major_road","bicycle_shield_text":null,"bicycle_network":"icn","source":"openstreetmap.org","min_zoom":8.0,"bus_shield_text":"N3B","shield_text":"106","ref":"106","id":430616207},"arcs":[166]},{"type":"MultiLineString","properties":{"kind":"highway","network":"e-road","sort_rank":383,"kind_detail":"motorway","source":"openstreetmap.org","min_zoom":8.0,"all_networks":["e-road","e-road","SI:AC"],"shield_text":"61","ref":"A1","all_shield_texts":["61","70","1"]},"arcs":[[167],[168],[169],[170],[171],[172],[173],[174],[175],[176]]},{"type":"MultiLineString","properties":{"kind":"major_road","network":"SI:RT","sort_rank":377,"kind_detail":"tertiary","is_bicycle_related":true,"bicycle_shield_text":null,"bicycle_network":"icn","source":"openstreetmap.org","min_zoom":8.0,"shield_text":"914","ref":"914"},"arcs":[[177],[178]]},{"type":"MultiLineString","properties":{"kind":"major_road","network":"Lokalne ceste","sort_rank":377,"kind_detail":"tertiary","is_bicycle_related":true,"bicycle_shield_text":"N6","bicycle_network":"ncn","source":"openstreetmap.org","min_zoom":8.0,"shield_text":"58039","ref":"58039"},"arcs":[[179],[180]]},{"type":"LineString","properties":{"bus_network":"PPP - Urbana","network":"SI:R3","sort_rank":377,"kind_detail":"tertiary","is_bicycle_related":true,"kind":"major_road","bicycle_shield_text":"D-2","cycleway":"shared_lane","source":"openstreetmap.org","min_zoom":8.0,"bus_shield_text":"43","shield_text":"742","bicycle_network":"ncn","ref":"742","id":8080640},"arcs":[181]},{"type":"MultiLineString","properties":{"kind":"highway","network":"Autoceste","sort_rank":383,"kind_detail":"motorway","reg_name":"Dalmatina","source":"openstreetmap.org","min_zoom":8.0,"all_networks":["Autoceste","e-road"],"shield_text":"1","ref":"A1","all_shield_texts":["1","71"]},"arcs":[[182],[183],[184],[185],[186],[187]]},{"type":"LineString","properties":{"kind":"major_road","network":"Dr\u017eavne ceste","sort_rank":380,"kind_detail":"primary","source":"openstreetmap.org","min_zoom":8.0,"shield_text":"23","ref":"D23"},"arcs":[188]},{"type":"LineString","properties":{"bus_network":null,"network":"Dr\u017eavne ceste","sort_rank":380,"kind_detail":"primary","kind":"major_road","source":"openstreetmap.org","min_zoom":8.0,"name:it":"Via Zamet","bus_shield_text":"2A","shield_text":"304","landuse_kind":"urban_area","ref":"D304"},"arcs":[189]},{"type":"LineString","properties":{"kind":"major_road","network":"Dr\u017eavne ceste","sort_rank":380,"kind_detail":"primary","bus_network":null,"source":"openstreetmap.org","min_zoom":8.0,"bus_shield_text":"10","shield_text":"8","ref":"D8","id":150574927},"arcs":[190]},{"type":"LineString","properties":{"kind":"major_road","name:en":"Krk Bridge","network":"Dr\u017eavne ceste","sort_rank":380,"kind_detail":"primary","name:de":"Krk-Br\u00fccke","source":"openstreetmap.org","min_zoom":8.0,"name:it":"Ponte di Veglia","old_name":"Titov most","shield_text":"102","ref":"D102","id":93567081},"arcs":[191]},{"type":"LineString","properties":{"bus_network":"MPP Ljubljana - Urbana","network":"SI:G2","sort_rank":380,"kind_detail":"primary","is_bicycle_related":true,"kind":"major_road","cycleway":"track","source":"openstreetmap.org","min_zoom":8.0,"bus_shield_text":"N3B","shield_text":"106","ref":"106","id":164801882},"arcs":[192]},{"type":"LineString","properties":{"bus_network":null,"network":"Dr\u017eavne ceste","sort_rank":380,"kind_detail":"primary","kind":"major_road","source":"openstreetmap.org","min_zoom":8.0,"bus_shield_text":"35","shield_text":"66","landuse_kind":"urban_area","ref":"D66"},"arcs":[193]},{"type":"MultiLineString","properties":{"bus_network":"MPP Ljubljana - Urbana","sort_rank":380,"kind_detail":"primary","is_bicycle_related":true,"kind":"major_road","cycleway":"track","source":"openstreetmap.org","min_zoom":8.0,"bus_shield_text":"7L","landuse_kind":"urban_area"},"arcs":[[194],[195]]},{"type":"LineString","properties":{"bus_network":"MPP Ljubljana - Urbana","network":"SI:R3","sort_rank":377,"kind_detail":"tertiary","is_bicycle_related":true,"kind":"major_road","bicycle_shield_text":"D-2","bicycle_network":"ncn","source":"openstreetmap.org","min_zoom":8.0,"bus_shield_text":"19I","shield_text":"642","ref":"642"},"arcs":[196]},{"type":"LineString","properties":{"kind":"major_road","sort_rank":377,"kind_detail":"tertiary","is_bicycle_related":true,"bus_network":"MPP Ljubljana - Urbana","bicycle_shield_text":null,"cycleway":"track","source":"openstreetmap.org","min_zoom":8.0,"bus_shield_text":"27","landuse_kind":"residential","id":513334656,"bicycle_network":"icn"},"arcs":[197]},{"type":"MultiLineString","properties":{"bus_network":null,"network":"Dr\u017eavne ceste","sort_rank":380,"kind_detail":"primary","kind":"major_road","source":"openstreetmap.org","min_zoom":8.0,"bus_shield_text":"22","shield_text":"8","landuse_kind":"urban_area","ref":"D8"},"arcs":[[198],[199],[200],[201],[202],[203],[204]]},{"type":"LineString","properties":{"bus_network":"MPP Novo mesto","network":"SI:G2","sort_rank":380,"kind_detail":"primary","kind":"major_road","source":"openstreetmap.org","min_zoom":8.0,"bus_shield_text":"2","shield_text":"105","landuse_kind":"urban_area","ref":"105"},"arcs":[205]},{"type":"LineString","properties":{"kind":"major_road","network":"Dr\u017eavne ceste","sort_rank":380,"kind_detail":"primary","source":"openstreetmap.org","min_zoom":8.0,"landuse_kind":"urban_area","shield_text":"103","ref":"D103","id":256286906},"arcs":[206]},{"type":"LineString","properties":{"kind":"major_road","network":"SI:R3","sort_rank":380,"kind_detail":"primary","is_bicycle_related":true,"bus_network":"PPP - Urbana","source":"openstreetmap.org","min_zoom":8.0,"bus_shield_text":"71","shield_text":"646","id":26383256},"arcs":[207]},{"type":"MultiLineString","properties":{"kind":"major_road","network":"SI:R2","sort_rank":379,"kind_detail":"secondary","is_bicycle_related":true,"bicycle_shield_text":null,"bicycle_network":"icn","source":"openstreetmap.org","min_zoom":8.0,"shield_text":"409","ref":"409"},"arcs":[[208],[209]]},{"type":"LineString","properties":{"kind":"major_road","cycleway_left":"lane","sort_rank":380,"kind_detail":"primary","is_bicycle_related":true,"source":"openstreetmap.org","min_zoom":8.0,"landuse_kind":"urban_area","id":167277602},"arcs":[210]},{"type":"MultiLineString","properties":{"kind":"highway","network":"Autoceste","sort_rank":383,"kind_detail":"motorway","source":"openstreetmap.org","min_zoom":8.0,"all_networks":["Autoceste","e-road","e-road"],"shield_text":"1","ref":"A1","all_shield_texts":["1","65","71"]},"arcs":[[211],[212],[213],[214],[215],[216],[217],[218],[219],[220],[221],[222],[223],[224]]},{"type":"LineString","properties":{"kind":"major_road","network":"SI:G1","sort_rank":380,"kind_detail":"primary","is_bicycle_related":true,"bicycle_shield_text":"3","bicycle_network":"lcn","source":"openstreetmap.org","min_zoom":8.0,"shield_text":"6","ref":"6","id":343518964},"arcs":[225]},{"type":"LineString","properties":{"kind":"major_road","sort_rank":380,"kind_detail":"primary","bus_network":"MPP Novo mesto","source":"openstreetmap.org","min_zoom":8.0,"bus_shield_text":"4","landuse_kind":"urban_area","id":28928974},"arcs":[226]},{"type":"MultiLineString","properties":{"bus_network":"MPP Ljubljana - Urbana","network":"SI:G2","sort_rank":380,"kind_detail":"primary","is_bicycle_related":true,"kind":"major_road","bicycle_shield_text":"D-2","bicycle_network":"ncn","source":"openstreetmap.org","min_zoom":8.0,"bus_shield_text":"N3B","shield_text":"106","cycleway":"track","ref":"106"},"arcs":[[227],[228]]},{"type":"LineString","properties":{"bus_network":null,"network":"Dr\u017eavne ceste","sort_rank":380,"kind_detail":"primary","kind":"major_road","source":"openstreetmap.org","min_zoom":8.0,"bus_shield_text":"30","shield_text":"8","ref":"D8"},"arcs":[229]},{"type":"LineString","properties":{"kind":"major_road","network":"Dr\u017eavne ceste","sort_rank":380,"kind_detail":"primary","is_bicycle_related":true,"bicycle_shield_text":"TZKZ 3","bicycle_network":"lcn","source":"openstreetmap.org","min_zoom":8.0,"shield_text":"6","ref":"D6","id":267390745},"arcs":[230]},{"type":"LineString","properties":{"kind":"major_road","network":"Dr\u017eavne ceste","sort_rank":380,"kind_detail":"primary","source":"openstreetmap.org","min_zoom":8.0,"shield_text":"44","ref":"D44"},"arcs":[231]},{"type":"LineString","properties":{"bus_network":"PPP","network":"SI:R3","sort_rank":380,"kind_detail":"primary","kind":"major_road","source":"openstreetmap.org","min_zoom":8.0,"bus_shield_text":"68","shield_text":"646","ref":"646"},"arcs":[232]},{"type":"LineString","properties":{"kind":"major_road","network":"Dr\u017eavne ceste","sort_rank":380,"kind_detail":"primary","is_bicycle_related":true,"bus_network":null,"source":"openstreetmap.org","min_zoom":8.0,"bus_shield_text":"KRK","shield_text":"102","landuse_kind":"urban_area","ref":"D102","id":230969934},"arcs":[233]},{"type":"LineString","properties":{"kind":"major_road","network":"e-road","sort_rank":381,"kind_detail":"trunk","source":"openstreetmap.org","min_zoom":8.0,"landuse_kind":"urban_area","shield_text":"65","ref":"A6","id":171708655},"arcs":[234]},{"type":"MultiLineString","properties":{"source":"openstreetmap.org","kind":"major_road","landuse_kind":"urban_area","sort_rank":380,"kind_detail":"primary","min_zoom":8.0},"arcs":[[235],[236],[237],[238]]},{"type":"LineString","properties":{"kind":"ferry","name":"Brestova-Porozina (Cres)","sort_rank":355,"is_bicycle_related":true,"source":"openstreetmap.org","min_zoom":8.0,"name:it":"Brestova-Faresina (Cherso)","ref":"334","id":8100884},"arcs":[239]},{"type":"LineString","properties":{"kind":"major_road","sort_rank":380,"kind_detail":"primary","source":"openstreetmap.org","min_zoom":8.0,"old_name":"Tivolska cesta","landuse_kind":"residential","id":150154691},"arcs":[240]},{"type":"LineString","properties":{"bus_network":null,"network":"Dr\u017eavne ceste","sort_rank":380,"kind_detail":"primary","kind":"major_road","source":"openstreetmap.org","min_zoom":8.0,"bus_shield_text":"1","shield_text":"8","ref":"D8"},"arcs":[241]},{"type":"LineString","properties":{"bus_network":"PPP","network":"SI:G2","sort_rank":380,"kind_detail":"primary","is_bicycle_related":true,"kind":"major_road","source":"openstreetmap.org","min_zoom":8.0,"bus_shield_text":"\u017delimlje - Kompolje","shield_text":"106","ref":"106"},"arcs":[242]},{"type":"LineString","properties":{"bus_network":"MPP Ljubljana - Urbana","network":"SI:R3","sort_rank":380,"kind_detail":"primary","is_bicycle_related":true,"kind":"major_road","source":"openstreetmap.org","min_zoom":8.0,"bus_shield_text":"3G","shield_text":"646","ref":"646"},"arcs":[243]},{"type":"LineString","properties":{"bus_network":null,"network":"Dr\u017eavne ceste","sort_rank":380,"kind_detail":"primary","kind":"major_road","source":"openstreetmap.org","min_zoom":8.0,"name:it":"Via de Adamich","bus_shield_text":"1A","shield_text":"8","landuse_kind":"urban_area","ref":"D8"},"arcs":[244]},{"type":"LineString","properties":{"bus_network":null,"network":"Dr\u017eavne ceste","sort_rank":380,"kind_detail":"primary","kind":"major_road","source":"openstreetmap.org","min_zoom":8.0,"name:it":"Via della Fiumara","bus_shield_text":"1A","shield_text":"8","landuse_kind":"urban_area","ref":"D8"},"arcs":[245]},{"type":"MultiLineString","properties":{"kind":"major_road","network":"SI:G1","sort_rank":380,"kind_detail":"primary","source":"openstreetmap.org","min_zoom":8.0,"shield_text":"5","ref":"5"},"arcs":[[246],[247],[248]]},{"type":"LineString","properties":{"kind":"major_road","network":"Dr\u017eavne ceste","sort_rank":380,"kind_detail":"primary","source":"openstreetmap.org","min_zoom":8.0,"shield_text":"6","ref":"D6"},"arcs":[249]},{"type":"MultiLineString","properties":{"kind":"highway","network":"e-road","sort_rank":383,"kind_detail":"motorway","source":"openstreetmap.org","min_zoom":8.0,"all_networks":["e-road","SI:AC"],"shield_text":"70","ref":"A2","all_shield_texts":["70","2"]},"arcs":[[250],[251],[252],[253],[254],[255],[256],[257],[258],[259],[260],[261],[262],[263],[264],[265],[266],[267],[268],[269]]},{"type":"MultiLineString","properties":{"kind":"major_road","name:en":"Adriatic Road","network":"Dr\u017eavne ceste","sort_rank":380,"kind_detail":"primary","source":"openstreetmap.org","min_zoom":8.0,"shield_text":"8","ref":"D8"},"arcs":[[270],[271]]},{"type":"MultiLineString","properties":{"kind":"major_road","network":"Dr\u017eavne ceste","sort_rank":380,"kind_detail":"primary","is_bicycle_related":true,"source":"openstreetmap.org","min_zoom":8.0,"shield_text":"102","ref":"D102"},"arcs":[[272],[273]]},{"type":"MultiLineString","properties":{"kind":"major_road","network":"Autoceste","sort_rank":381,"kind_detail":"trunk","source":"openstreetmap.org","min_zoom":8.0,"shield_text":"6","ref":"A6"},"arcs":[[274],[275],[276],[277]]},{"type":"LineString","properties":{"kind":"major_road","network":"Dr\u017eavne ceste","sort_rank":380,"kind_detail":"primary","bus_network":null,"source":"openstreetmap.org","min_zoom":8.0,"bus_shield_text":"19","shield_text":"427","ref":"D427;5017","id":371694562},"arcs":[278]},{"type":"MultiLineString","properties":{"kind":"highway","network":"SI:AC","sort_rank":383,"kind_detail":"motorway","source":"openstreetmap.org","min_zoom":8.0,"all_networks":["SI:AC"],"shield_text":"1","ref":"A1","all_shield_texts":["1"]},"arcs":[[279],[280]]},{"type":"MultiLineString","properties":{"kind":"major_road","network":"SI:R3","sort_rank":377,"kind_detail":"tertiary","is_bicycle_related":true,"bicycle_shield_text":"D-2","bicycle_network":"ncn","source":"openstreetmap.org","min_zoom":8.0,"shield_text":"728","ref":"728"},"arcs":[[281],[282]]},{"type":"LineString","properties":{"kind":"major_road","network":"Dr\u017eavne ceste","sort_rank":380,"kind_detail":"primary","is_bicycle_related":true,"bicycle_shield_text":"404","bicycle_network":"lcn","source":"openstreetmap.org","min_zoom":8.0,"shield_text":"64","ref":"D64","id":260174234},"arcs":[283]},{"type":"LineString","properties":{"kind":"major_road","sort_rank":380,"kind_detail":"primary","is_bicycle_related":true,"bus_network":"MPP Ljubljana - Urbana","cycleway":"track","source":"openstreetmap.org","min_zoom":8.0,"bus_shield_text":"11B","landuse_kind":"urban_area","id":150059330},"arcs":[284]},{"type":"LineString","properties":{"kind":"major_road","network":"Dr\u017eavne ceste","sort_rank":380,"kind_detail":"primary","bus_network":null,"source":"openstreetmap.org","min_zoom":8.0,"bus_shield_text":"23","shield_text":"8","ref":"D8","id":150851812},"arcs":[285]},{"type":"LineString","properties":{"bus_network":"MPP Ljubljana - Urbana","sort_rank":380,"kind_detail":"primary","kind":"major_road","source":"openstreetmap.org","min_zoom":8.0,"bus_shield_text":"19B","landuse_kind":"residential"},"arcs":[286]},{"type":"MultiLineString","properties":{"kind":"major_road","network":"Autoceste","sort_rank":381,"kind_detail":"trunk","source":"openstreetmap.org","min_zoom":8.0,"shield_text":"7","ref":"A7"},"arcs":[[287],[288],[289],[290],[291],[292],[293],[294],[295],[296],[297],[298],[299],[300],[301]]},{"type":"MultiLineString","properties":{"bus_network":"MPP Ljubljana - Urbana","network":"SI:R3","sort_rank":377,"kind_detail":"tertiary","is_bicycle_related":true,"kind":"major_road","bicycle_shield_text":"D-2","bicycle_network":"ncn","source":"openstreetmap.org","min_zoom":8.0,"bus_shield_text":"6B","shield_text":"742","ref":"742"},"arcs":[[302],[303]]},{"type":"LineString","properties":{"kind":"major_road","name:en":"Krk Bridge","network":"Dr\u017eavne ceste","sort_rank":380,"kind_detail":"primary","name:de":"Krk-Br\u00fccke","source":"openstreetmap.org","min_zoom":8.0,"old_name":"Titov most","shield_text":"102","ref":"D102","id":93567088},"arcs":[304]},{"type":"MultiLineString","properties":{"kind":"major_road","network":"Dr\u017eavne ceste","sort_rank":380,"kind_detail":"primary","source":"openstreetmap.org","min_zoom":8.0,"shield_text":"204","ref":"D204"},"arcs":[[305],[306],[307]]},{"type":"MultiLineString","properties":{"bus_network":"PPP","network":"SI:G2","sort_rank":380,"kind_detail":"primary","kind":"major_road","source":"openstreetmap.org","min_zoom":8.0,"bus_shield_text":"\u017delimlje - Kompolje","shield_text":"106","ref":"106"},"arcs":[[308],[309]]},{"type":"MultiLineString","properties":{"kind":"highway","network":"e-road","sort_rank":383,"landuse_kind":"urban_area","source":"openstreetmap.org","min_zoom":8.0,"all_networks":["e-road","SI:AC"],"kind_detail":"motorway","shield_text":"70","ref":"A2","all_shield_texts":["70","2"]},"arcs":[[310],[311]]},{"type":"LineString","properties":{"kind":"major_road","network":"Autoceste","sort_rank":381,"landuse_kind":"urban_area","source":"openstreetmap.org","min_zoom":8.0,"name:it":"San Cosimo Sud","kind_detail":"trunk","shield_text":"7","ref":"A7"},"arcs":[312]},{"type":"MultiLineString","properties":{"bus_network":"MPP Ljubljana - Urbana","sort_rank":380,"kind_detail":"primary","is_bicycle_related":true,"kind":"major_road","source":"openstreetmap.org","min_zoom":8.0,"bus_shield_text":"N3","landuse_kind":"urban_area"},"arcs":[[313],[314]]},{"type":"LineString","properties":{"kind":"path","sort_rank":354,"landuse_kind":"residential","is_bicycle_related":true,"bicycle_shield_text":null,"cycleway":"track","source":"openstreetmap.org","min_zoom":8.0,"kind_detail":"path","bicycle_network":"icn"},"arcs":[315]},{"type":"MultiLineString","properties":{"bus_network":null,"network":"Dr\u017eavne ceste","sort_rank":380,"kind_detail":"primary","kind":"major_road","source":"openstreetmap.org","min_zoom":8.0,"bus_shield_text":"22","shield_text":"8","ref":"D8"},"arcs":[[316],[317]]},{"type":"MultiLineString","properties":{"bus_network":null,"network":"Dr\u017eavne ceste","sort_rank":380,"kind_detail":"primary","kind":"major_road","source":"openstreetmap.org","min_zoom":8.0,"bus_shield_text":"1A","shield_text":"8","landuse_kind":"urban_area","ref":"D8"},"arcs":[[318],[319],[320],[321]]},{"type":"LineString","properties":{"kind":"major_road","network":"\u017dupanijske ceste","sort_rank":379,"kind_detail":"secondary","is_bicycle_related":true,"bicycle_shield_text":"N1","bicycle_network":"ncn","source":"openstreetmap.org","min_zoom":8.0,"shield_text":"3175","ref":"3175"},"arcs":[322]},{"type":"LineString","properties":{"kind":"major_road","sort_rank":377,"kind_detail":"tertiary","is_bicycle_related":true,"bus_network":"MPP Ljubljana - Urbana","bicycle_shield_text":null,"cycleway":"track","source":"openstreetmap.org","min_zoom":8.0,"bus_shield_text":"19B","landuse_kind":"residential","id":513334654,"bicycle_network":"icn"},"arcs":[323]},{"type":"MultiLineString","properties":{"bus_network":"MPP Ljubljana - Urbana","sort_rank":380,"kind_detail":"primary","is_bicycle_related":true,"kind":"major_road","cycleway":"track","source":"openstreetmap.org","min_zoom":8.0,"bus_shield_text":"11B","landuse_kind":"residential"},"arcs":[[324],[325],[326],[327]]},{"type":"LineString","properties":{"kind":"major_road","network":"SI:R2","sort_rank":380,"kind_detail":"primary","source":"openstreetmap.org","min_zoom":8.0,"shield_text":"448","id":83834541},"arcs":[328]},{"type":"LineString","properties":{"bus_network":"MPP Ljubljana - Urbana","sort_rank":380,"kind_detail":"primary","is_bicycle_related":true,"kind":"major_road","cycleway":"track","source":"openstreetmap.org","min_zoom":8.0,"bus_shield_text":"27K","landuse_kind":"residential"},"arcs":[329]},{"type":"LineString","properties":{"kind":"major_road","network":"Dr\u017eavne ceste","sort_rank":380,"kind_detail":"primary","is_bicycle_related":true,"bicycle_shield_text":"402","bicycle_network":"lcn","source":"openstreetmap.org","min_zoom":8.0,"shield_text":"66","ref":"D66","id":170488237},"arcs":[330]},{"type":"MultiLineString","properties":{"kind":"major_road","network":"Dr\u017eavne ceste","sort_rank":380,"kind_detail":"primary","source":"openstreetmap.org","min_zoom":8.0,"landuse_kind":"urban_area","shield_text":"102","ref":"D102"},"arcs":[[331],[332]]},{"type":"LineString","properties":{"kind":"major_road","sort_rank":380,"kind_detail":"primary","bus_network":"MPP Ljubljana - Urbana","source":"openstreetmap.org","min_zoom":8.0,"bus_shield_text":"20Z","landuse_kind":"urban_area","id":150059328},"arcs":[333]},{"type":"LineString","properties":{"kind":"major_road","network":"Dr\u017eavne ceste","sort_rank":380,"kind_detail":"primary","source":"openstreetmap.org","min_zoom":8.0,"landuse_kind":"nature_reserve","shield_text":"32","ref":"D32"},"arcs":[334]},{"type":"MultiLineString","properties":{"bus_network":"MPP Ljubljana - Urbana","sort_rank":380,"kind_detail":"primary","is_bicycle_related":true,"kind":"major_road","cycleway":"track","source":"openstreetmap.org","min_zoom":8.0,"bus_shield_text":"1B","landuse_kind":"residential"},"arcs":[[335],[336]]},{"type":"LineString","properties":{"bus_network":"MPP Ljubljana - Urbana","sort_rank":377,"landuse_kind":"residential","is_bicycle_related":true,"kind":"major_road","bicycle_shield_text":null,"bicycle_network":"icn","source":"openstreetmap.org","min_zoom":8.0,"bus_shield_text":"19B","kind_detail":"tertiary"},"arcs":[337]},{"type":"MultiLineString","properties":{"bus_network":null,"network":"Dr\u017eavne ceste","sort_rank":380,"kind_detail":"primary","kind":"major_road","source":"openstreetmap.org","min_zoom":8.0,"bus_shield_text":"10a","shield_text":"8","landuse_kind":"urban_area","ref":"D8"},"arcs":[[338],[339],[340],[341],[342],[343]]},{"type":"MultiLineString","properties":{"bus_network":"MPP Ljubljana - Urbana","sort_rank":380,"kind_detail":"primary","kind":"major_road","source":"openstreetmap.org","min_zoom":8.0,"bus_shield_text":"1B","landuse_kind":"residential"},"arcs":[[344],[345]]},{"type":"LineString","properties":{"kind":"major_road","network":"Dr\u017eavne ceste","sort_rank":380,"kind_detail":"primary","bus_network":null,"source":"openstreetmap.org","min_zoom":8.0,"bus_shield_text":"32","shield_text":"66","ref":"D66","id":457044891},"arcs":[346]},{"type":"LineString","properties":{"kind":"major_road","network":"Dr\u017eavne ceste","sort_rank":380,"kind_detail":"primary","is_bicycle_related":true,"bicycle_shield_text":"8","bicycle_network":"rcn","source":"openstreetmap.org","min_zoom":8.0,"shield_text":"42","ref":"D42"},"arcs":[347]},{"type":"LineString","properties":{"bus_network":null,"network":"Dr\u017eavne ceste","sort_rank":380,"kind_detail":"primary","kind":"major_road","source":"openstreetmap.org","min_zoom":8.0,"name:it":"Via Liburnia","bus_shield_text":"1A","shield_text":"8","ref":"D8"},"arcs":[348]},{"type":"LineString","properties":{"source":"openstreetmap.org","kind":"ferry","sort_rank":355,"min_zoom":8.0,"osm_relation":true,"id":-6432594},"arcs":[349]},{"type":"LineString","properties":{"bus_network":"MPP Ljubljana - Urbana","network":"SI:R3","sort_rank":377,"kind_detail":"tertiary","is_bicycle_related":true,"kind":"major_road","bicycle_shield_text":null,"bicycle_network":"icn","source":"openstreetmap.org","min_zoom":8.0,"bus_shield_text":"19I","shield_text":"642","ref":"642","id":430616221},"arcs":[350]},{"type":"LineString","properties":{"kind":"major_road","network":"Dr\u017eavne ceste","sort_rank":380,"kind_detail":"primary","source":"openstreetmap.org","min_zoom":8.0,"landuse_kind":"nature_reserve","shield_text":"500","ref":"D500"},"arcs":[351]},{"type":"MultiLineString","properties":{"kind":"path","sort_rank":354,"landuse_kind":"residential","is_bicycle_related":true,"bicycle_shield_text":null,"bicycle_network":"icn","source":"openstreetmap.org","min_zoom":8.0,"kind_detail":"footway"},"arcs":[[352],[353],[354],[355]]},{"type":"MultiLineString","properties":{"kind":"major_road","network":"Autoceste","sort_rank":381,"landuse_kind":"urban_area","source":"openstreetmap.org","min_zoom":8.0,"kind_detail":"trunk","shield_text":"7","ref":"A7"},"arcs":[[356],[357],[358],[359],[360],[361],[362],[363],[364],[365],[366],[367],[368],[369],[370],[371],[372],[373],[374],[375],[376],[377],[378],[379],[380],[381]]},{"type":"MultiLineString","properties":{"bus_network":"Furman","network":"SI:R2","sort_rank":379,"kind_detail":"secondary","is_bicycle_related":true,"kind":"major_road","bicycle_shield_text":null,"bicycle_network":"icn","source":"openstreetmap.org","min_zoom":8.0,"bus_shield_text":"1","shield_text":"409","ref":"409"},"arcs":[[382],[383]]},{"type":"LineString","properties":{"kind":"major_road","network":"Dr\u017eavne ceste","sort_rank":380,"kind_detail":"primary","bus_network":null,"source":"openstreetmap.org","min_zoom":8.0,"name:it":"Via Zvonimir","bus_shield_text":"18b","shield_text":"8","landuse_kind":"urban_area","ref":"D8","id":96751047},"arcs":[384]},{"type":"LineString","properties":{"bus_network":"PPP - Urbana","network":"SI:R3","sort_rank":377,"kind_detail":"tertiary","is_bicycle_related":true,"kind":"major_road","bicycle_shield_text":"D-2","bicycle_network":"ncn","source":"openstreetmap.org","min_zoom":8.0,"bus_shield_text":"42","shield_text":"728","ref":"728"},"arcs":[385]},{"type":"MultiLineString","properties":{"kind":"highway","network":"e-road","sort_rank":383,"landuse_kind":"urban_area","source":"openstreetmap.org","min_zoom":8.0,"all_networks":["e-road","SI:AC","SI:AC"],"kind_detail":"motorway","shield_text":"70","ref":"A1","all_shield_texts":["70","1","2"]},"arcs":[[386],[387]]},{"type":"LineString","properties":{"bus_network":"MPP Novo Mesto","network":"SI:G2","sort_rank":380,"kind_detail":"primary","kind":"major_road","source":"openstreetmap.org","min_zoom":8.0,"bus_shield_text":"1B","shield_text":"105","ref":"105"},"arcs":[388]},{"type":"LineString","properties":{"kind":"major_road","network":"Dr\u017eavne ceste","sort_rank":380,"kind_detail":"primary","is_bicycle_related":true,"bicycle_shield_text":"N1","bicycle_network":"ncn","source":"openstreetmap.org","min_zoom":8.0,"shield_text":"23","ref":"D23;D42"},"arcs":[389]},{"type":"MultiLineString","properties":{"bus_network":"MPP Ljubljana - Urbana","sort_rank":380,"kind_detail":"primary","is_bicycle_related":true,"kind":"major_road","cycleway":"track","source":"openstreetmap.org","min_zoom":8.0,"bus_shield_text":"9","landuse_kind":"residential"},"arcs":[[390],[391]]},{"type":"MultiLineString","properties":{"bus_network":null,"sort_rank":380,"kind_detail":"primary","kind":"major_road","source":"openstreetmap.org","min_zoom":8.0,"bus_shield_text":"AIR","landuse_kind":"urban_area","ref":"D103"},"arcs":[[392],[393]]},{"type":"MultiLineString","properties":{"kind":"major_road","network":"\u017dupanijske ceste","sort_rank":379,"kind_detail":"secondary","is_bicycle_related":true,"bicycle_shield_text":"N6","bicycle_network":"ncn","source":"openstreetmap.org","min_zoom":8.0,"shield_text":"5034","ref":"5034"},"arcs":[[394],[395]]},{"type":"LineString","properties":{"kind":"major_road","network":"Dr\u017eavne ceste","sort_rank":380,"kind_detail":"primary","bus_network":null,"source":"openstreetmap.org","min_zoom":8.0,"bus_shield_text":"KBC","shield_text":"8","landuse_kind":"urban_area","ref":"D8","id":99427800},"arcs":[396]},{"type":"MultiLineString","properties":{"bus_network":"MPP Ljubljana - Urbana","cycleway":"track","sort_rank":380,"kind_detail":"primary","is_bicycle_related":true,"kind":"major_road","bicycle_shield_text":"D-2","bicycle_network":"ncn","source":"openstreetmap.org","min_zoom":8.0,"bus_shield_text":"N1","landuse_kind":"residential"},"arcs":[[397],[398],[399],[400],[401],[402]]},{"type":"MultiLineString","properties":{"bus_network":"MPP Ljubljana - Urbana","sort_rank":380,"kind_detail":"primary","kind":"major_road","source":"openstreetmap.org","min_zoom":8.0,"bus_shield_text":"N1","landuse_kind":"residential"},"arcs":[[403],[404]]},{"type":"MultiLineString","properties":{"kind":"highway","network":"Autoceste","sort_rank":383,"kind_detail":"motorway","source":"openstreetmap.org","min_zoom":8.0,"all_networks":["Autoceste"],"shield_text":"7","ref":"A7","all_shield_texts":["7"]},"arcs":[[405],[406]]},{"type":"MultiLineString","properties":{"kind":"major_road","network":"Dr\u017eavne ceste","sort_rank":380,"kind_detail":"primary","source":"openstreetmap.org","min_zoom":8.0,"shield_text":"500","ref":"D500"},"arcs":[[407],[408]]},{"type":"MultiLineString","properties":{"bus_network":"MPP Ljubljana - Urbana","sort_rank":377,"landuse_kind":"residential","is_bicycle_related":true,"kind":"major_road","bicycle_shield_text":null,"bicycle_network":"icn","source":"openstreetmap.org","min_zoom":8.0,"bus_shield_text":"27","kind_detail":"tertiary"},"arcs":[[409],[410]]},{"type":"MultiLineString","properties":{"kind":"major_road","network":"Autoceste","sort_rank":381,"kind_detail":"trunk","source":"openstreetmap.org","min_zoom":8.0,"shield_text":"8","ref":"A8"},"arcs":[[411],[412]]},{"type":"LineString","properties":{"kind":"major_road","network":"e-road","sort_rank":380,"kind_detail":"primary","source":"openstreetmap.org","min_zoom":8.0,"shield_text":"61","ref":"7"},"arcs":[413]},{"type":"LineString","properties":{"source":"openstreetmap.org","kind":"ferry","name":"Rijeka-Cres-Martin\u0161\u0107ica(Cres)-Unije-Susak-Ilovik-Mali Lo\u0161inj","sort_rank":355,"min_zoom":8.0,"id":81221704},"arcs":[414]},{"type":"MultiLineString","properties":{"kind":"major_road","network":"Dr\u017eavne ceste","sort_rank":380,"kind_detail":"primary","is_bicycle_related":true,"bicycle_shield_text":"403","bicycle_network":"lcn","source":"openstreetmap.org","min_zoom":8.0,"shield_text":"64","ref":"D64"},"arcs":[[415],[416],[417],[418]]},{"type":"MultiLineString","properties":{"kind":"major_road","network":"SI:R2","sort_rank":380,"kind_detail":"primary","source":"openstreetmap.org","min_zoom":8.0,"shield_text":"448","ref":"448"},"arcs":[[419],[420],[421],[422],[423],[424]]},{"type":"MultiLineString","properties":{"source":"openstreetmap.org","kind":"major_road","landuse_kind":"urban_area","sort_rank":380,"kind_detail":"primary","ref":"D103","min_zoom":8.0},"arcs":[[425],[426]]},{"type":"MultiLineString","properties":{"bus_network":"PPP","network":"SI:G2","sort_rank":380,"kind_detail":"primary","kind":"major_road","source":"openstreetmap.org","min_zoom":8.0,"bus_shield_text":"48~avtocesta","shield_text":"102","ref":"102"},"arcs":[[427],[428],[429]]},{"type":"LineString","properties":{"bus_network":null,"network":"Dr\u017eavne ceste","sort_rank":380,"kind_detail":"primary","kind":"major_road","source":"openstreetmap.org","min_zoom":8.0,"bus_shield_text":"27","shield_text":"8","landuse_kind":"urban_area","ref":"D8"},"arcs":[430]},{"type":"MultiLineString","properties":{"kind":"major_road","network":"Dr\u017eavne ceste","sort_rank":380,"kind_detail":"primary","source":"openstreetmap.org","min_zoom":8.0,"shield_text":"501","ref":"D501"},"arcs":[[431],[432],[433],[434]]},{"type":"MultiLineString","properties":{"bus_network":"MPP Ljubljana - Urbana","sort_rank":377,"kind_detail":"tertiary","is_bicycle_related":true,"kind":"major_road","bicycle_shield_text":null,"bicycle_network":"icn","source":"openstreetmap.org","min_zoom":8.0,"bus_shield_text":"27"},"arcs":[[435],[436],[437]]},{"type":"MultiLineString","properties":{"kind":"major_road","network":"Dr\u017eavne ceste","sort_rank":380,"kind_detail":"primary","source":"openstreetmap.org","min_zoom":8.0,"landuse_kind":"urban_area","shield_text":"66","ref":"D66"},"arcs":[[438],[439],[440]]},{"type":"LineString","properties":{"kind":"major_road","network":"Dr\u017eavne ceste","sort_rank":380,"kind_detail":"primary","source":"openstreetmap.org","min_zoom":8.0,"landuse_kind":"urban_area","shield_text":"404","ref":"D404"},"arcs":[441]},{"type":"LineString","properties":{"bus_network":"PPP - Urbana","network":"SI:R3","sort_rank":377,"kind_detail":"tertiary","is_bicycle_related":true,"kind":"major_road","bicycle_shield_text":null,"bicycle_network":"icn","source":"openstreetmap.org","min_zoom":8.0,"bus_shield_text":"44","shield_text":"643","ref":"643"},"arcs":[442]},{"type":"LineString","properties":{"bus_network":null,"network":"Dr\u017eavne ceste","sort_rank":380,"landuse_kind":"urban_area","kind":"major_road","source":"openstreetmap.org","min_zoom":8.0,"bus_shield_text":"32","shield_text":"66","kind_detail":"primary","ref":"D66"},"arcs":[443]},{"type":"MultiLineString","properties":{"kind":"highway","network":"e-road","sort_rank":383,"landuse_kind":"urban_area","source":"openstreetmap.org","min_zoom":8.0,"all_networks":["e-road","SI:AC"],"kind_detail":"motorway","shield_text":"61","ref":"A2","all_shield_texts":["61","2"]},"arcs":[[444],[445]]},{"type":"MultiLineString","properties":{"kind":"major_road","network":"SI:G2","sort_rank":380,"kind_detail":"primary","source":"openstreetmap.org","min_zoom":8.0,"shield_text":"108","ref":"108"},"arcs":[[446],[447],[448],[449],[450],[451],[452],[453]]},{"type":"MultiLineString","properties":{"kind":"minor_road","sort_rank":360,"kind_detail":"residential","is_bicycle_related":true,"bicycle_shield_text":null,"bicycle_network":"icn","source":"openstreetmap.org","min_zoom":8.0},"arcs":[[454],[455],[456],[457],[458],[459],[460],[461],[462],[463],[464],[465],[466],[467],[468],[469],[470],[471],[472]]},{"type":"MultiLineString","properties":{"kind":"highway","network":"e-road","sort_rank":383,"landuse_kind":"urban_area","source":"openstreetmap.org","min_zoom":8.0,"all_networks":["e-road","e-road","SI:AC"],"kind_detail":"motorway","shield_text":"61","ref":"A1","all_shield_texts":["61","70","1"]},"arcs":[[473],[474]]},{"type":"MultiLineString","properties":{"bus_network":null,"network":"Dr\u017eavne ceste","sort_rank":380,"kind_detail":"primary","kind":"major_road","source":"openstreetmap.org","min_zoom":8.0,"bus_shield_text":"7A","shield_text":"427","landuse_kind":"urban_area","ref":"D427"},"arcs":[[475],[476],[477]]},{"type":"MultiLineString","properties":{"bus_network":"PPP","sort_rank":380,"kind_detail":"primary","is_bicycle_related":true,"kind":"major_road","source":"openstreetmap.org","min_zoom":8.0,"bus_shield_text":"68"},"arcs":[[478],[479]]},{"type":"MultiLineString","properties":{"bus_network":null,"network":"Dr\u017eavne ceste","sort_rank":380,"kind_detail":"primary","kind":"major_road","source":"openstreetmap.org","min_zoom":8.0,"bus_shield_text":"AIR","shield_text":"102","landuse_kind":"urban_area","ref":"D102"},"arcs":[[480],[481]]},{"type":"MultiLineString","properties":{"kind":"major_road","network":"SI:G2","sort_rank":380,"kind_detail":"primary","source":"openstreetmap.org","min_zoom":8.0,"shield_text":"102","ref":"102"},"arcs":[[482],[483],[484],[485],[486],[487]]},{"type":"MultiLineString","properties":{"kind":"major_road","sort_rank":377,"kind_detail":"tertiary","is_bicycle_related":true,"bicycle_shield_text":null,"bicycle_network":"icn","source":"openstreetmap.org","min_zoom":8.0},"arcs":[[488],[489],[490],[491],[492],[493],[494]]},{"type":"LineString","properties":{"kind":"major_road","network":"Dr\u017eavne ceste","sort_rank":380,"kind_detail":"primary","source":"openstreetmap.org","min_zoom":8.0,"shield_text":"3","ref":"D3;D204","id":83425998},"arcs":[495]},{"type":"LineString","properties":{"kind":"path","sort_rank":354,"kind_detail":"footway","is_bicycle_related":true,"bicycle_shield_text":null,"bicycle_network":"icn","source":"openstreetmap.org","min_zoom":8.0},"arcs":[496]},{"type":"LineString","properties":{"bus_network":null,"network":"SI:R2","sort_rank":379,"kind_detail":"secondary","is_bicycle_related":true,"kind":"major_road","bicycle_shield_text":null,"bicycle_network":"icn","source":"openstreetmap.org","min_zoom":8.0,"bus_shield_text":"LJ - GO","shield_text":"444","ref":"444","id":120433731},"arcs":[497]},{"type":"MultiLineString","properties":{"bus_network":"MPP Novo Mesto","network":"SI:R3","sort_rank":380,"landuse_kind":"urban_area","kind":"major_road","source":"openstreetmap.org","min_zoom":8.0,"bus_shield_text":"1B","shield_text":"651","kind_detail":"primary","ref":"651"},"arcs":[[498],[499],[500]]},{"type":"LineString","properties":{"bus_network":null,"network":"SI:R2","sort_rank":355,"kind_detail":"secondary_link","is_bicycle_related":true,"kind":"major_road","bicycle_shield_text":null,"bicycle_network":"icn","source":"openstreetmap.org","min_zoom":8.0,"is_link":true,"bus_shield_text":"LJ - GO","shield_text":"444","ref":"444","id":41983946},"arcs":[501]},{"type":"LineString","properties":{"kind":"major_road","network":"Dr\u017eavne ceste","sort_rank":380,"kind_detail":"primary","is_bicycle_related":true,"bicycle_shield_text":"N1","bicycle_network":"ncn","source":"openstreetmap.org","min_zoom":8.0,"shield_text":"3","ref":"D3"},"arcs":[502]},{"type":"LineString","properties":{"bus_network":null,"network":"Dr\u017eavne ceste","sort_rank":380,"kind_detail":"primary","kind":"major_road","source":"openstreetmap.org","min_zoom":8.0,"bus_shield_text":"26","shield_text":"501","ref":"D501"},"arcs":[503]},{"type":"LineString","properties":{"kind":"major_road","network":"Dr\u017eavne ceste","sort_rank":380,"kind_detail":"primary","is_bicycle_related":true,"bicycle_shield_text":"9","bicycle_network":"rcn","source":"openstreetmap.org","min_zoom":8.0,"shield_text":"23","ref":"D23"},"arcs":[504]},{"type":"LineString","properties":{"kind":"major_road","network":"Dr\u017eavne ceste","sort_rank":380,"kind_detail":"primary","source":"openstreetmap.org","min_zoom":8.0,"shield_text":"305","ref":"D305"},"arcs":[505]},{"type":"LineString","properties":{"bus_network":null,"network":"Dr\u017eavne ceste","sort_rank":380,"kind_detail":"primary","kind":"major_road","source":"openstreetmap.org","min_zoom":8.0,"bus_shield_text":"2A","shield_text":"3","landuse_kind":"urban_area","ref":"D3"},"arcs":[506]},{"type":"MultiLineString","properties":{"kind":"highway","network":"e-road","sort_rank":383,"landuse_kind":"urban_area","source":"openstreetmap.org","min_zoom":8.0,"all_networks":["e-road","SI:AC","SI:AC"],"kind_detail":"motorway","shield_text":"70","ref":"A1","all_shield_texts":["70","1","36"]},"arcs":[[507],[508]]},{"type":"MultiLineString","properties":{"kind":"major_road","network":"Dr\u017eavne ceste","sort_rank":380,"kind_detail":"primary","is_bicycle_related":true,"bicycle_shield_text":"7","bicycle_network":"rcn","source":"openstreetmap.org","min_zoom":8.0,"shield_text":"42","ref":"D42"},"arcs":[[509],[510]]},{"type":"MultiLineString","properties":{"kind":"minor_road","sort_rank":360,"landuse_kind":"urban_area","is_bicycle_related":true,"bicycle_shield_text":null,"bicycle_network":"icn","source":"openstreetmap.org","min_zoom":8.0,"kind_detail":"residential"},"arcs":[[511],[512]]},{"type":"LineString","properties":{"kind":"major_road","network":"Dr\u017eavne ceste","sort_rank":380,"kind_detail":"primary","bus_network":null,"source":"openstreetmap.org","min_zoom":8.0,"name:it":"Strada Maestra Adriatica","bus_shield_text":"29","shield_text":"8","ref":"D8","id":352729794},"arcs":[513]},{"type":"LineString","properties":{"kind":"major_road","network":"Autoceste","sort_rank":381,"kind_detail":"trunk","source":"openstreetmap.org","min_zoom":8.0,"landuse_kind":"nature_reserve","shield_text":"8"},"arcs":[514]},{"type":"MultiLineString","properties":{"kind":"major_road","network":"SI:AC","sort_rank":381,"kind_detail":"trunk","source":"openstreetmap.org","min_zoom":8.0,"shield_text":"15B","ref":"H3"},"arcs":[[515],[516],[517],[518]]},{"type":"LineString","properties":{"bus_network":null,"network":"Dr\u017eavne ceste","sort_rank":380,"kind_detail":"primary","kind":"major_road","source":"openstreetmap.org","min_zoom":8.0,"name:it":"Via Zajc","bus_shield_text":"8a","shield_text":"8","landuse_kind":"urban_area","ref":"D8","id":438413976},"arcs":[519]},{"type":"LineString","properties":{"source":"openstreetmap.org","kind":"highway","sort_rank":383,"kind_detail":"motorway","ref":"A6","min_zoom":8.0,"id":121295150},"arcs":[520]},{"type":"LineString","properties":{"cycleway_right":"lane","sort_rank":380,"kind_detail":"primary","is_bicycle_related":true,"kind":"major_road","bus_network":"MPP Ljubljana - Urbana","source":"openstreetmap.org","min_zoom":8.0,"bus_shield_text":"9","landuse_kind":"residential","id":4697901},"arcs":[521]},{"type":"LineString","properties":{"kind":"major_road","network":"Dr\u017eavne ceste","sort_rank":380,"kind_detail":"primary","is_bicycle_related":true,"bicycle_shield_text":"403","bicycle_network":"lcn","source":"openstreetmap.org","min_zoom":8.0,"shield_text":"66","id":252933189},"arcs":[522]},{"type":"MultiLineString","properties":{"kind":"path","sort_rank":354,"kind_detail":"cycleway","is_bicycle_related":true,"bicycle_shield_text":null,"bicycle_network":"icn","source":"openstreetmap.org","min_zoom":8.0},"arcs":[[523],[524]]},{"type":"LineString","properties":{"kind":"major_road","network":"Dr\u017eavne ceste","sort_rank":380,"kind_detail":"primary","source":"openstreetmap.org","min_zoom":8.0,"shield_text":"100","ref":"D100","id":370639306},"arcs":[525]},{"type":"MultiLineString","properties":{"bus_network":"MPP Ljubljana - Urbana","sort_rank":380,"kind_detail":"primary","is_bicycle_related":true,"kind":"major_road","cycleway":"track","source":"openstreetmap.org","min_zoom":8.0,"bus_shield_text":"N5","landuse_kind":"residential"},"arcs":[[526],[527]]},{"type":"MultiLineString","properties":{"bus_network":null,"network":"Dr\u017eavne ceste","sort_rank":380,"kind_detail":"primary","is_bicycle_related":true,"kind":"major_road","source":"openstreetmap.org","min_zoom":8.0,"bus_shield_text":"32","shield_text":"66","ref":"D66"},"arcs":[[528],[529],[530]]},{"type":"MultiLineString","properties":{"kind":"highway","network":"Autoceste","sort_rank":383,"kind_detail":"motorway","reg_name":"Dalmatina","source":"openstreetmap.org","min_zoom":8.0,"all_networks":["Autoceste","e-road","e-road"],"shield_text":"1","ref":"A1","all_shield_texts":["1","65","71"]},"arcs":[[531],[532],[533],[534],[535],[536],[537],[538]]},{"type":"LineString","properties":{"bus_network":"PPP","sort_rank":380,"kind_detail":"primary","old_name":"Tivolska cesta","kind":"major_road","source":"openstreetmap.org","min_zoom":8.0,"bus_shield_text":"45","landuse_kind":"residential"},"arcs":[539]},{"type":"MultiLineString","properties":{"kind":"path","sort_rank":354,"landuse_kind":"residential","is_bicycle_related":true,"bicycle_shield_text":null,"bicycle_network":"icn","source":"openstreetmap.org","min_zoom":8.0,"kind_detail":"path"},"arcs":[[540],[541]]},{"type":"LineString","properties":{"kind":"major_road","network":"SI:AC","sort_rank":381,"kind_detail":"trunk","source":"openstreetmap.org","min_zoom":8.0,"shield_text":"43","ref":"H4","id":343702017},"arcs":[542]},{"type":"LineString","properties":{"kind":"major_road","network":"Dr\u017eavne ceste","sort_rank":380,"kind_detail":"primary","old_name:it":"Piazza Zichy","source":"openstreetmap.org","min_zoom":8.0,"landuse_kind":"urban_area","shield_text":"8","ref":"D8","id":48420039},"arcs":[543]},{"type":"LineString","properties":{"bus_network":"MPP Ljubljana - Urbana","network":"SI:R3","sort_rank":377,"kind_detail":"tertiary","is_bicycle_related":true,"kind":"major_road","bicycle_shield_text":"D-2","bicycle_network":"ncn","source":"openstreetmap.org","min_zoom":8.0,"bus_shield_text":"19B","shield_text":"742","ref":"742"},"arcs":[544]},{"type":"MultiLineString","properties":{"kind":"major_road","network":"Dr\u017eavne ceste","sort_rank":380,"kind_detail":"primary","source":"openstreetmap.org","min_zoom":8.0,"shield_text":"102","ref":"D102"},"arcs":[[545],[546],[547],[548],[549],[550],[551]]},{"type":"LineString","properties":{"kind":"minor_road","sort_rank":360,"kind_detail":"unclassified","is_bicycle_related":true,"bicycle_shield_text":null,"bicycle_network":"icn","source":"openstreetmap.org","min_zoom":8.0,"landuse_kind":"residential"},"arcs":[552]},{"type":"MultiLineString","properties":{"kind":"minor_road","sort_rank":360,"kind_detail":"residential","is_bicycle_related":true,"bicycle_shield_text":"D-2","bicycle_network":"ncn","source":"openstreetmap.org","min_zoom":8.0,"landuse_kind":"residential","cycleway":"track"},"arcs":[[553],[554]]},{"type":"LineString","properties":{"kind":"major_road","network":"Dr\u017eavne ceste","sort_rank":380,"kind_detail":"primary","source":"openstreetmap.org","min_zoom":8.0,"landuse_kind":"urban_area","shield_text":"501","ref":"D501"},"arcs":[555]},{"type":"LineString","properties":{"kind":"path","sort_rank":354,"kind_detail":"footway","is_bicycle_related":true,"bicycle_shield_text":null,"cycleway":"track","source":"openstreetmap.org","min_zoom":8.0,"landuse_kind":"residential","bicycle_network":"icn","id":6144042},"arcs":[556]},{"type":"LineString","properties":{"bus_network":"MPP Ljubljana - Urbana","sort_rank":380,"kind_detail":"primary","kind":"major_road","source":"openstreetmap.org","min_zoom":8.0,"bus_shield_text":"9","landuse_kind":"urban_area"},"arcs":[557]},{"type":"MultiLineString","properties":{"kind":"major_road","network":"Dr\u017eavne ceste","sort_rank":380,"kind_detail":"primary","is_bicycle_related":true,"bicycle_shield_text":"N1","bicycle_network":"ncn","source":"openstreetmap.org","min_zoom":8.0,"shield_text":"42","ref":"D42"},"arcs":[[558],[559],[560]]},{"type":"MultiLineString","properties":{"bus_network":null,"network":"Dr\u017eavne ceste","sort_rank":380,"kind_detail":"primary","is_bicycle_related":true,"kind":"major_road","source":"openstreetmap.org","min_zoom":8.0,"bus_shield_text":"32","shield_text":"66","landuse_kind":"urban_area","ref":"D66"},"arcs":[[561],[562]]},{"type":"LineString","properties":{"bus_network":null,"sort_rank":380,"kind_detail":"primary","old_name":"Masarykova cesta (-1942);Cesta so\u0161ke divizije (1942-1944);Cesta 800 let Ljubljane (1944-)","is_bicycle_related":true,"kind":"major_road","cycleway":"track","source":"openstreetmap.org","min_zoom":8.0,"bus_shield_text":"Alpetour","landuse_kind":"residential"},"arcs":[563]},{"type":"LineString","properties":{"kind":"major_road","sort_rank":380,"kind_detail":"primary","bus_network":"MPP Ljubljana - Urbana","source":"openstreetmap.org","min_zoom":8.0,"bus_shield_text":"3G","id":497608509},"arcs":[564]},{"type":"LineString","properties":{"kind":"major_road","network":"Dr\u017eavne ceste","sort_rank":380,"kind_detail":"primary","source":"openstreetmap.org","min_zoom":8.0,"name:it":"Ponte di Veglia","old_name":"Titov most","shield_text":"102","ref":"D102","id":24025835},"arcs":[565]},{"type":"LineString","properties":{"kind":"major_road","network":"Lokalne ceste","sort_rank":377,"kind_detail":"tertiary","is_bicycle_related":true,"bicycle_shield_text":"N6","bicycle_network":"ncn","source":"openstreetmap.org","min_zoom":8.0,"shield_text":"34057","ref":"34057","id":230289066},"arcs":[566]},{"type":"MultiLineString","properties":{"bus_network":null,"sort_rank":380,"kind_detail":"primary","is_bicycle_related":true,"kind":"major_road","cycleway":"track","source":"openstreetmap.org","min_zoom":8.0,"bus_shield_text":"Alpetour","landuse_kind":"residential"},"arcs":[[567],[568]]},{"type":"LineString","properties":{"bus_network":"MPP Novo Mesto","network":"SI:R3","sort_rank":380,"kind_detail":"primary","kind":"major_road","source":"openstreetmap.org","min_zoom":8.0,"bus_shield_text":"1B","shield_text":"651","ref":"651"},"arcs":[569]},{"type":"LineString","properties":{"kind":"major_road","sort_rank":380,"kind_detail":"primary","bus_shield_text":"Alpetour","bus_network":null,"source":"openstreetmap.org","min_zoom":8.0,"old_name":"Masarykova cesta (-1942);Cesta so\u0161ke divizije (1942-1944);Cesta 800 let Ljubljane (1944-)","landuse_kind":"residential","id":532159102},"arcs":[570]},{"type":"MultiLineString","properties":{"kind":"major_road","network":"Dr\u017eavne ceste","sort_rank":380,"kind_detail":"primary","is_bicycle_related":true,"bicycle_shield_text":"N6","bicycle_network":"ncn","source":"openstreetmap.org","min_zoom":8.0,"shield_text":"3","ref":"D3"},"arcs":[[571],[572],[573],[574]]},{"type":"MultiLineString","properties":{"source":"openstreetmap.org","kind":"major_road","landuse_kind":"residential","sort_rank":380,"kind_detail":"primary","min_zoom":8.0},"arcs":[[575],[576],[577],[578],[579]]},{"type":"MultiLineString","properties":{"kind":"major_road","network":"Autoceste","sort_rank":380,"kind_detail":"primary","source":"openstreetmap.org","min_zoom":8.0,"shield_text":"7","ref":"A7"},"arcs":[[580],[581]]},{"type":"MultiLineString","properties":{"bus_network":"MPP Ljubljana - Urbana","sort_rank":380,"kind_detail":"primary","kind":"major_road","source":"openstreetmap.org","min_zoom":8.0,"bus_shield_text":"20Z","landuse_kind":"residential"},"arcs":[[582],[583],[584]]},{"type":"LineString","properties":{"kind":"major_road","network":"Dr\u017eavne ceste","sort_rank":380,"kind_detail":"primary","source":"openstreetmap.org","min_zoom":8.0,"name:it":"Via Zvonimir","landuse_kind":"urban_area","shield_text":"8","ref":"D8"},"arcs":[585]},{"type":"LineString","properties":{"kind":"major_road","network":"SI:G2","sort_rank":380,"kind_detail":"primary","is_bicycle_related":true,"source":"openstreetmap.org","min_zoom":8.0,"shield_text":"106","ref":"106"},"arcs":[586]},{"type":"LineString","properties":{"kind":"minor_road","sort_rank":360,"kind_detail":"unclassified","is_bicycle_related":true,"bicycle_shield_text":null,"bicycle_network":"icn","source":"openstreetmap.org","min_zoom":8.0,"landuse_kind":"urban_area"},"arcs":[587]},{"type":"LineString","properties":{"kind":"major_road","network":"SI:G2","sort_rank":380,"kind_detail":"primary","is_bicycle_related":true,"bicycle_shield_text":null,"bicycle_network":"icn","source":"openstreetmap.org","min_zoom":8.0,"shield_text":"108","ref":"108"},"arcs":[588]},{"type":"MultiLineString","properties":{"kind":"major_road","network":"SI:G2","sort_rank":380,"kind_detail":"primary","source":"openstreetmap.org","min_zoom":8.0,"shield_text":"106","ref":"106"},"arcs":[[589],[590],[591],[592],[593]]},{"type":"LineString","properties":{"bus_network":"MPP Ljubljana - Urbana","sort_rank":377,"landuse_kind":"residential","is_bicycle_related":true,"kind":"major_road","bicycle_shield_text":null,"cycleway":"lane","source":"openstreetmap.org","min_zoom":8.0,"bus_shield_text":"19B","kind_detail":"tertiary","bicycle_network":"icn"},"arcs":[594]},{"type":"LineString","properties":{"kind":"major_road","sort_rank":380,"kind_detail":"primary","bus_network":null,"source":"openstreetmap.org","min_zoom":8.0,"bus_shield_text":"KRK","ref":"D104","id":427416008},"arcs":[595]},{"type":"MultiLineString","properties":{"kind":"highway","network":"SI:AC","sort_rank":383,"kind_detail":"motorway","source":"openstreetmap.org","min_zoom":8.0,"all_networks":["SI:AC"],"shield_text":"31","ref":"A1","all_shield_texts":["31"]},"arcs":[[596],[597]]},{"type":"MultiLineString","properties":{"kind":"highway","network":"e-road","sort_rank":383,"kind_detail":"motorway","source":"openstreetmap.org","min_zoom":8.0,"all_networks":["e-road","SI:AC"],"shield_text":"61","ref":"A2","all_shield_texts":["61","2"]},"arcs":[[598],[599]]},{"type":"LineString","properties":{"bus_network":"MPP Ljubljana - Urbana","network":"SI:R3","sort_rank":377,"kind_detail":"tertiary","is_bicycle_related":true,"kind":"major_road","bicycle_shield_text":"D-2","bicycle_network":"ncn","source":"openstreetmap.org","min_zoom":8.0,"bus_shield_text":"19B","shield_text":"642","ref":"642","id":330403650},"arcs":[600]},{"type":"MultiLineString","properties":{"kind":"highway","network":"e-road","sort_rank":383,"kind_detail":"motorway","source":"openstreetmap.org","min_zoom":8.0,"all_networks":["e-road","SI:AC","SI:AC"],"shield_text":"70","ref":"A1","all_shield_texts":["70","1","2"]},"arcs":[[601],[602]]},{"type":"LineString","properties":{"kind":"major_road","network":"Dr\u017eavne ceste","sort_rank":380,"kind_detail":"primary","is_bicycle_related":true,"bicycle_shield_text":"7","bicycle_network":"rcn","source":"openstreetmap.org","min_zoom":8.0,"shield_text":"23","ref":"D23"},"arcs":[603]},{"type":"LineString","properties":{"kind":"major_road","network":"Dr\u017eavne ceste","sort_rank":380,"kind_detail":"primary","is_bicycle_related":true,"bicycle_shield_text":"4","bicycle_network":"rcn","source":"openstreetmap.org","min_zoom":8.0,"shield_text":"228","ref":"D228"},"arcs":[604]},{"type":"LineString","properties":{"cycleway_right":"lane","sort_rank":377,"kind_detail":"tertiary","is_bicycle_related":true,"kind":"major_road","bicycle_shield_text":null,"bicycle_network":"icn","bus_network":"MPP Ljubljana - Urbana","source":"openstreetmap.org","min_zoom":8.0,"bus_shield_text":"27","landuse_kind":"residential","id":4806090},"arcs":[605]},{"type":"MultiLineString","properties":{"kind":"path","sort_rank":354,"landuse_kind":"urban_area","is_bicycle_related":true,"bicycle_shield_text":null,"bicycle_network":"icn","source":"openstreetmap.org","min_zoom":8.0,"kind_detail":"footway"},"arcs":[[606],[607]]},{"type":"MultiLineString","properties":{"bus_network":"MPP Ljubljana - Urbana","network":"SI:R3","sort_rank":380,"kind_detail":"primary","is_bicycle_related":true,"kind":"major_road","source":"openstreetmap.org","min_zoom":8.0,"bus_shield_text":"3G","shield_text":"646"},"arcs":[[608],[609]]},{"type":"LineString","properties":{"bus_network":null,"network":"Dr\u017eavne ceste","sort_rank":380,"kind_detail":"primary","kind":"major_road","source":"openstreetmap.org","min_zoom":8.0,"bus_shield_text":"29","shield_text":"501","ref":"D501"},"arcs":[610]},{"type":"MultiLineString","properties":{"kind":"minor_road","sort_rank":360,"landuse_kind":"residential","is_bicycle_related":true,"bicycle_shield_text":null,"bicycle_network":"icn","source":"openstreetmap.org","min_zoom":8.0,"kind_detail":"residential"},"arcs":[[611],[612],[613],[614],[615],[616],[617]]},{"type":"MultiLineString","properties":{"kind":"highway","network":"e-road","sort_rank":383,"landuse_kind":"urban_area","source":"openstreetmap.org","min_zoom":8.0,"all_networks":["e-road","SI:AC"],"kind_detail":"motorway","shield_text":"57","ref":"A1","all_shield_texts":["57","1"]},"arcs":[[618],[619]]},{"type":"LineString","properties":{"bus_network":"MPP Novo Mesto","network":"SI:G2","sort_rank":380,"kind_detail":"primary","kind":"major_road","source":"openstreetmap.org","min_zoom":8.0,"bus_shield_text":"1B","shield_text":"105","landuse_kind":"urban_area","ref":"105"},"arcs":[620]},{"type":"MultiLineString","properties":{"kind":"major_road","network":"Dr\u017eavne ceste","sort_rank":380,"kind_detail":"primary","source":"openstreetmap.org","min_zoom":8.0,"shield_text":"8","ref":"D8"},"arcs":[[621],[622],[623]]},{"type":"MultiLineString","properties":{"bus_network":"MPP Ljubljana - Urbana","sort_rank":380,"kind_detail":"primary","is_bicycle_related":true,"kind":"major_road","cycleway":"track","source":"openstreetmap.org","min_zoom":8.0,"bus_shield_text":"6B","landuse_kind":"urban_area"},"arcs":[[624],[625],[626],[627]]},{"type":"LineString","properties":{"kind":"major_road","sort_rank":377,"kind_detail":"tertiary","is_bicycle_related":true,"bicycle_shield_text":null,"cycleway":"lane","source":"openstreetmap.org","min_zoom":8.0,"bicycle_network":"icn"},"arcs":[628]},{"type":"MultiLineString","properties":{"bus_network":"MPP Ljubljana - Urbana","sort_rank":380,"kind_detail":"primary","is_bicycle_related":true,"kind":"major_road","cycleway":"track","source":"openstreetmap.org","min_zoom":8.0,"bus_shield_text":"20Z","landuse_kind":"residential"},"arcs":[[629],[630],[631],[632],[633],[634],[635],[636],[637],[638]]},{"type":"LineString","properties":{"kind":"major_road","network":"Dr\u017eavne ceste","sort_rank":380,"kind_detail":"primary","bus_network":null,"source":"openstreetmap.org","min_zoom":8.0,"bus_shield_text":"27","shield_text":"8","ref":"D8","id":150574926},"arcs":[639]},{"type":"MultiLineString","properties":{"kind":"major_road","network":"SI:AC","sort_rank":381,"landuse_kind":"urban_area","source":"openstreetmap.org","min_zoom":8.0,"kind_detail":"trunk","shield_text":"27","ref":"H3"},"arcs":[[640],[641]]},{"type":"LineString","properties":{"kind":"major_road","network":"\u017dupanijske ceste","sort_rank":379,"kind_detail":"secondary","is_bicycle_related":true,"bicycle_shield_text":"N1","bicycle_network":"ncn","source":"openstreetmap.org","min_zoom":8.0,"shield_text":"3142","ref":"3142","id":146645374},"arcs":[642]},{"type":"MultiLineString","properties":{"kind":"major_road","network":"Autoceste","sort_rank":381,"kind_detail":"trunk","source":"openstreetmap.org","min_zoom":8.0,"landuse_kind":"nature_reserve","shield_text":"8","ref":"A8"},"arcs":[[643],[644],[645],[646]]},{"type":"MultiLineString","properties":{"bus_network":null,"network":"Dr\u017eavne ceste","sort_rank":380,"kind_detail":"primary","kind":"major_road","source":"openstreetmap.org","min_zoom":8.0,"bus_shield_text":"29","shield_text":"8","ref":"D8"},"arcs":[[647],[648],[649],[650]]},{"type":"MultiLineString","properties":{"bus_network":"PPP","sort_rank":380,"kind_detail":"primary","is_bicycle_related":true,"kind":"major_road","cycleway":"track","source":"openstreetmap.org","min_zoom":8.0,"bus_shield_text":"Lj. - Let. Brnik","landuse_kind":"residential"},"arcs":[[651],[652],[653]]},{"type":"LineString","properties":{"kind":"major_road","network":"Dr\u017eavne ceste","sort_rank":380,"kind_detail":"primary","is_bicycle_related":true,"bicycle_shield_text":"5","bicycle_network":"rcn","source":"openstreetmap.org","min_zoom":8.0,"shield_text":"204","ref":"D204"},"arcs":[654]},{"type":"MultiLineString","properties":{"kind":"major_road","network":"Dr\u017eavne ceste","sort_rank":380,"kind_detail":"primary","source":"openstreetmap.org","min_zoom":8.0,"shield_text":"3","ref":"D3"},"arcs":[[655],[656],[657],[658],[659],[660],[661],[662],[663]]},{"type":"MultiLineString","properties":{"kind":"major_road","sort_rank":380,"kind_detail":"primary","is_bicycle_related":true,"cycleway":"track","source":"openstreetmap.org","min_zoom":8.0,"landuse_kind":"residential"},"arcs":[[664],[665],[666],[667]]},{"type":"MultiLineString","properties":{"kind":"major_road","network":"SI:R3","sort_rank":380,"kind_detail":"primary","source":"openstreetmap.org","min_zoom":8.0,"shield_text":"646","ref":"646"},"arcs":[[668],[669],[670]]},{"type":"MultiLineString","properties":{"kind":"major_road","network":"Dr\u017eavne ceste","sort_rank":380,"kind_detail":"primary","source":"openstreetmap.org","min_zoom":8.0,"shield_text":"32","ref":"D32"},"arcs":[[671],[672]]},{"type":"MultiLineString","properties":{"kind":"major_road","network":"SI:AC","sort_rank":381,"landuse_kind":"urban_area","source":"openstreetmap.org","min_zoom":8.0,"kind_detail":"trunk","shield_text":"3","ref":"H3"},"arcs":[[673],[674],[675],[676]]},{"type":"MultiLineString","properties":{"bus_network":"PPP","network":"SI:R2","sort_rank":379,"kind_detail":"secondary","is_bicycle_related":true,"kind":"major_road","bicycle_shield_text":"D1","bicycle_network":"ncn","source":"openstreetmap.org","min_zoom":8.0,"bus_shield_text":"46","shield_text":"409","ref":"409"},"arcs":[[677],[678],[679],[680],[681],[682]]},{"type":"MultiLineString","properties":{"kind":"highway","network":"SI:AC","sort_rank":383,"landuse_kind":"urban_area","source":"openstreetmap.org","min_zoom":8.0,"all_networks":["SI:AC","SI:AC"],"kind_detail":"motorway","shield_text":"2","ref":"A2","all_shield_texts":["2","36"]},"arcs":[[683],[684]]},{"type":"LineString","properties":{"cycleway_right":"shared_lane","cycleway_left":"opposite_lane","sort_rank":360,"kind_detail":"residential","is_bicycle_related":true,"kind":"minor_road","bicycle_shield_text":null,"cycleway":"opposite_lane","source":"openstreetmap.org","min_zoom":8.0,"landuse_kind":"residential","bicycle_network":"icn","id":430614165},"arcs":[685]},{"type":"LineString","properties":{"kind":"major_road","network":"Dr\u017eavne ceste","sort_rank":380,"kind_detail":"primary","is_bicycle_related":true,"bicycle_shield_text":"6","bicycle_network":"rcn","source":"openstreetmap.org","min_zoom":8.0,"shield_text":"23","ref":"D23"},"arcs":[686]},{"type":"LineString","properties":{"kind":"major_road","network":"Dr\u017eavne ceste","sort_rank":380,"kind_detail":"primary","is_bicycle_related":true,"bicycle_shield_text":"1","bicycle_network":"rcn","source":"openstreetmap.org","min_zoom":8.0,"shield_text":"6","ref":"D6","id":52093325},"arcs":[687]},{"type":"LineString","properties":{"bus_network":"PPP","sort_rank":380,"kind_detail":"primary","old_name":"Tivolska cesta","kind":"major_road","source":"openstreetmap.org","min_zoom":8.0,"bus_shield_text":"48~avtocesta","landuse_kind":"residential"},"arcs":[688]},{"type":"MultiLineString","properties":{"kind":"highway","network":"e-road","sort_rank":383,"landuse_kind":"urban_area","source":"openstreetmap.org","min_zoom":8.0,"all_networks":["e-road","SI:AC"],"kind_detail":"motorway","shield_text":"61","ref":"A2","all_shield_texts":["61","36"]},"arcs":[[689],[690]]},{"type":"LineString","properties":{"cycleway_right":"track","sort_rank":380,"kind_detail":"primary","is_bicycle_related":true,"kind":"major_road","bus_network":"MPP Ljubljana - Urbana","source":"openstreetmap.org","min_zoom":8.0,"bus_shield_text":"20Z","landuse_kind":"residential","id":113759225},"arcs":[691]},{"type":"MultiLineString","properties":{"bus_network":"MPP Ljubljana - Urbana","sort_rank":380,"kind_detail":"primary","is_bicycle_related":true,"kind":"major_road","cycleway":"track","source":"openstreetmap.org","min_zoom":8.0,"bus_shield_text":"22","landuse_kind":"residential"},"arcs":[[692],[693],[694]]},{"type":"MultiLineString","properties":{"kind":"major_road","network":"SI:R3","sort_rank":377,"kind_detail":"tertiary","is_bicycle_related":true,"bicycle_shield_text":null,"bicycle_network":"icn","source":"openstreetmap.org","min_zoom":8.0,"shield_text":"643","ref":"643"},"arcs":[[695],[696]]},{"type":"MultiLineString","properties":{"kind":"major_road","network":"e-road","sort_rank":381,"kind_detail":"trunk","source":"openstreetmap.org","min_zoom":8.0,"landuse_kind":"nature_reserve","shield_text":"751"},"arcs":[[697],[698],[699],[700]]},{"type":"LineString","properties":{"bus_network":"PPP - Urbana","network":"SI:R3","sort_rank":377,"kind_detail":"tertiary","is_bicycle_related":true,"kind":"major_road","bicycle_shield_text":null,"bicycle_network":"icn","source":"openstreetmap.org","min_zoom":8.0,"bus_shield_text":"40~\u0161olska","shield_text":"642","ref":"642"},"arcs":[701]},{"type":"MultiLineString","properties":{"bus_network":null,"network":"Dr\u017eavne ceste","sort_rank":380,"kind_detail":"primary","is_bicycle_related":true,"kind":"major_road","source":"openstreetmap.org","min_zoom":8.0,"bus_shield_text":"KRK","shield_text":"102","ref":"D102"},"arcs":[[702],[703]]},{"type":"MultiLineString","properties":{"kind":"highway","network":"e-road","sort_rank":383,"kind_detail":"motorway","source":"openstreetmap.org","min_zoom":8.0,"all_networks":["e-road","SI:AC","SI:AC"],"shield_text":"70","ref":"A2","all_shield_texts":["70","2","31"]},"arcs":[[704],[705]]},{"type":"LineString","properties":{"source":"openstreetmap.org","kind":"major_road","landuse_kind":"nature_reserve","sort_rank":381,"kind_detail":"trunk","min_zoom":8.0},"arcs":[706]},{"type":"LineString","properties":{"kind":"major_road","network":"Dr\u017eavne ceste","sort_rank":380,"kind_detail":"primary","source":"openstreetmap.org","min_zoom":8.0,"shield_text":"42","ref":"D42"},"arcs":[707]},{"type":"MultiLineString","properties":{"kind":"minor_road","sort_rank":360,"kind_detail":"unclassified","is_bicycle_related":true,"bicycle_shield_text":"N6","bicycle_network":"ncn","source":"openstreetmap.org","min_zoom":8.0},"arcs":[[708],[709],[710]]},{"type":"MultiLineString","properties":{"bus_network":"MPP Ljubljana - Urbana","sort_rank":380,"kind_detail":"primary","is_bicycle_related":true,"kind":"major_road","source":"openstreetmap.org","min_zoom":8.0,"bus_shield_text":"N3"},"arcs":[[711],[712],[713],[714]]},{"type":"MultiLineString","properties":{"bus_network":"MPP Ljubljana - Urbana","sort_rank":380,"kind_detail":"primary","is_bicycle_related":true,"kind":"major_road","cycleway":"track","source":"openstreetmap.org","min_zoom":8.0,"bus_shield_text":"N1","landuse_kind":"residential"},"arcs":[[715],[716]]},{"type":"MultiLineString","properties":{"kind":"major_road","network":"Dr\u017eavne ceste","sort_rank":380,"kind_detail":"primary","source":"openstreetmap.org","min_zoom":8.0,"shield_text":"66","ref":"D66"},"arcs":[[717],[718],[719],[720],[721],[722],[723],[724],[725],[726],[727],[728],[729],[730],[731],[732],[733]]},{"type":"MultiLineString","properties":{"kind":"major_road","network":"SI:R3","sort_rank":377,"kind_detail":"tertiary","is_bicycle_related":true,"bus_network":"PPP - Urbana","bicycle_shield_text":"D-2","bicycle_network":"ncn","source":"openstreetmap.org","min_zoom":8.0,"bus_shield_text":"43","shield_text":"742","ref":"742"},"arcs":[[734],[735]]},{"type":"LineString","properties":{"kind":"major_road","network":"SI:R2","sort_rank":380,"kind_detail":"primary","bus_network":"PPP","source":"openstreetmap.org","min_zoom":8.0,"bus_shield_text":"69","shield_text":"416","ref":"416","id":61275278},"arcs":[736]},{"type":"MultiLineString","properties":{"kind":"minor_road","sort_rank":360,"kind_detail":"unclassified","is_bicycle_related":true,"bicycle_shield_text":null,"bicycle_network":"icn","source":"openstreetmap.org","min_zoom":8.0},"arcs":[[737],[738],[739],[740],[741],[742],[743],[744],[745],[746],[747],[748],[749],[750]]},{"type":"LineString","properties":{"kind":"major_road","network":"SI:R3","sort_rank":380,"kind_detail":"primary","bus_network":"MPP Novo mesto","source":"openstreetmap.org","min_zoom":8.0,"bus_shield_text":"4","shield_text":"651","landuse_kind":"urban_area","ref":"651","id":537127925},"arcs":[751]},{"type":"LineString","properties":{"kind":"major_road","sort_rank":380,"kind_detail":"primary","is_bicycle_related":true,"bus_network":"MPP Ljubljana - Urbana","cycleway":"lane","source":"openstreetmap.org","min_zoom":8.0,"bus_shield_text":"20Z","landuse_kind":"residential","id":6064800},"arcs":[752]},{"type":"LineString","properties":{"kind":"major_road","network":"Dr\u017eavne ceste","sort_rank":380,"kind_detail":"primary","is_bicycle_related":true,"bicycle_shield_text":"N6","bicycle_network":"ncn","source":"openstreetmap.org","min_zoom":8.0,"shield_text":"42","ref":"D42"},"arcs":[753]},{"type":"LineString","properties":{"bus_network":"MPP Ljubljana - Urbana","network":"SI:G2","sort_rank":380,"kind_detail":"primary","is_bicycle_related":true,"kind":"major_road","bicycle_shield_text":"L-046","bicycle_network":"rcn","source":"openstreetmap.org","min_zoom":8.0,"bus_shield_text":"N3B","shield_text":"106","ref":"106","id":39542340},"arcs":[754]},{"type":"LineString","properties":{"kind":"major_road","network":"Dr\u017eavne ceste","sort_rank":380,"kind_detail":"primary","bus_network":null,"source":"openstreetmap.org","min_zoom":8.0,"name:it":"Via Liburnia","bus_shield_text":"1A","shield_text":"8","landuse_kind":"urban_area","ref":"D8","id":143311113},"arcs":[755]},{"type":"MultiLineString","properties":{"kind":"major_road","network":"SI:AC","sort_rank":381,"kind_detail":"trunk","source":"openstreetmap.org","min_zoom":8.0,"shield_text":"3","ref":"H3"},"arcs":[[756],[757]]},{"type":"LineString","properties":{"bus_network":null,"sort_rank":380,"kind_detail":"primary","is_bicycle_related":true,"kind":"major_road","cycleway":"track","source":"openstreetmap.org","min_zoom":8.0,"bus_shield_text":"Urban","landuse_kind":"residential"},"arcs":[758]},{"type":"LineString","properties":{"kind":"major_road","network":"Dr\u017eavne ceste","sort_rank":380,"kind_detail":"primary","bus_network":null,"source":"openstreetmap.org","min_zoom":8.0,"bus_shield_text":"15a","shield_text":"3","landuse_kind":"urban_area","ref":"D3","id":150616367},"arcs":[759]},{"type":"MultiLineString","properties":{"kind":"major_road","network":"Autoceste","sort_rank":381,"landuse_kind":"urban_area","source":"openstreetmap.org","min_zoom":8.0,"kind_detail":"trunk","shield_text":"6","ref":"A6"},"arcs":[[760],[761],[762],[763],[764],[765],[766],[767]]},{"type":"LineString","properties":{"kind":"major_road","network":"Dr\u017eavne ceste","sort_rank":380,"kind_detail":"primary","is_bicycle_related":true,"bicycle_shield_text":"TZKZ 5","bicycle_network":"lcn","source":"openstreetmap.org","min_zoom":8.0,"shield_text":"3","ref":"D3"},"arcs":[768]},{"type":"LineString","properties":{"kind":"major_road","network":"Dr\u017eavne ceste","sort_rank":380,"kind_detail":"primary","is_bicycle_related":true,"bicycle_shield_text":null,"bicycle_network":"lcn","source":"openstreetmap.org","min_zoom":8.0,"shield_text":"3","ref":"D3","id":307346123},"arcs":[769]},{"type":"MultiLineString","properties":{"kind":"highway","network":"Autoceste","sort_rank":383,"kind_detail":"motorway","source":"openstreetmap.org","min_zoom":8.0,"all_networks":["Autoceste","e-road"],"shield_text":"7","ref":"A7","all_shield_texts":["7","61"]},"arcs":[[770],[771],[772],[773],[774],[775],[776],[777],[778],[779],[780],[781],[782],[783],[784],[785],[786],[787]]},{"type":"MultiLineString","properties":{"kind":"path","sort_rank":354,"kind_detail":"steps","is_bicycle_related":true,"bicycle_shield_text":null,"bicycle_network":"icn","source":"openstreetmap.org","min_zoom":8.0,"landuse_kind":"residential"},"arcs":[[788],[789]]},{"type":"LineString","properties":{"kind":"path","sort_rank":354,"landuse_kind":"urban_area","is_bicycle_related":true,"bicycle_shield_text":null,"bicycle_network":"icn","source":"openstreetmap.org","min_zoom":8.0,"kind_detail":"path"},"arcs":[790]},{"type":"LineString","properties":{"kind":"major_road","network":"Dr\u017eavne ceste","sort_rank":380,"kind_detail":"primary","is_bicycle_related":true,"bicycle_shield_text":"5","bicycle_network":"rcn","source":"openstreetmap.org","min_zoom":8.0,"shield_text":"6","ref":"D6"},"arcs":[791]},{"type":"MultiLineString","properties":{"bus_network":null,"network":"Dr\u017eavne ceste","sort_rank":380,"kind_detail":"primary","kind":"major_road","source":"openstreetmap.org","min_zoom":8.0,"bus_shield_text":"29","shield_text":"8","landuse_kind":"urban_area","ref":"D8"},"arcs":[[792],[793]]},{"type":"LineString","properties":{"kind":"minor_road","sort_rank":360,"kind_detail":"residential","is_bicycle_related":true,"bicycle_shield_text":null,"cycleway":"opposite_lane","source":"openstreetmap.org","min_zoom":8.0,"landuse_kind":"residential","bicycle_network":"icn","id":384163585},"arcs":[794]},{"type":"LineString","properties":{"kind":"major_road","sort_rank":377,"kind_detail":"tertiary","is_bicycle_related":true,"bus_network":"MPP Ljubljana - Urbana","bicycle_shield_text":null,"bicycle_network":"icn","source":"openstreetmap.org","min_zoom":8.0,"bus_shield_text":"27","landuse_kind":"urban_area","id":513334657},"arcs":[795]},{"type":"LineString","properties":{"kind":"major_road","network":"\u017dupanijske ceste","sort_rank":379,"kind_detail":"secondary","is_bicycle_related":true,"bicycle_shield_text":"N6","bicycle_network":"ncn","source":"openstreetmap.org","min_zoom":8.0,"shield_text":"5067","ref":"5067"},"arcs":[796]},{"type":"MultiLineString","properties":{"kind":"path","sort_rank":354,"kind_detail":"pedestrian","is_bicycle_related":true,"bicycle_shield_text":null,"bicycle_network":"icn","source":"openstreetmap.org","min_zoom":8.0,"landuse_kind":"residential"},"arcs":[[797],[798]]},{"type":"LineString","properties":{"kind":"major_road","network":"\u017dupanijske ceste","sort_rank":379,"kind_detail":"secondary","is_bicycle_related":true,"bicycle_shield_text":"N1","bicycle_network":"ncn","source":"openstreetmap.org","min_zoom":8.0,"shield_text":"3179","ref":"3179"},"arcs":[799]},{"type":"MultiLineString","properties":{"kind":"minor_road","cycleway_left":"opposite_lane","sort_rank":360,"landuse_kind":"residential","is_bicycle_related":true,"bicycle_shield_text":null,"bicycle_network":"icn","source":"openstreetmap.org","min_zoom":8.0,"kind_detail":"residential"},"arcs":[[800],[801]]},{"type":"LineString","properties":{"kind":"major_road","network":"SI:R3","sort_rank":377,"kind_detail":"tertiary","is_bicycle_related":true,"bus_network":"PPP - Urbana","bicycle_shield_text":null,"bicycle_network":"icn","source":"openstreetmap.org","min_zoom":8.0,"bus_shield_text":"43","shield_text":"642","ref":"642"},"arcs":[802]},{"type":"LineString","properties":{"kind":"major_road","network":"Dr\u017eavne ceste","sort_rank":380,"kind_detail":"primary","is_bicycle_related":true,"bicycle_shield_text":"N1","bicycle_network":"ncn","source":"openstreetmap.org","min_zoom":8.0,"shield_text":"23","ref":"D23"},"arcs":[803]},{"type":"LineString","properties":{"bus_network":null,"network":"Dr\u017eavne ceste","sort_rank":380,"kind_detail":"primary","is_bicycle_related":true,"kind":"major_road","bicycle_shield_text":"N6","bicycle_network":"ncn","source":"openstreetmap.org","min_zoom":8.0,"bus_shield_text":"15a","shield_text":"3","landuse_kind":"urban_area","ref":"D3"},"arcs":[804]},{"type":"LineString","properties":{"kind":"ferry","name":"Rijeka - Rab - Novalja(Pag)","sort_rank":355,"source":"openstreetmap.org","min_zoom":8.0,"name:it":"Fiume - Arbe - Novalja (Pago)","ref":"9309","id":160528605},"arcs":[805]},{"type":"MultiLineString","properties":{"bus_network":null,"network":"SI:R2","sort_rank":379,"kind_detail":"secondary","is_bicycle_related":true,"kind":"major_road","bicycle_shield_text":null,"bicycle_network":"icn","source":"openstreetmap.org","min_zoom":8.0,"bus_shield_text":"LJ - GO","shield_text":"409","ref":"409"},"arcs":[[806],[807],[808],[809],[810]]},{"type":"MultiLineString","properties":{"source":"openstreetmap.org","kind":"major_road","kind_detail":"trunk","sort_rank":381,"landuse_kind":"urban_area","min_zoom":8.0},"arcs":[[811],[812]]},{"type":"LineString","properties":{"kind":"major_road","network":"SI:R3","sort_rank":380,"kind_detail":"primary","source":"openstreetmap.org","min_zoom":8.0,"shield_text":"651","ref":"651"},"arcs":[813]},{"type":"MultiLineString","properties":{"bus_network":"MPP Ljubljana - Urbana","sort_rank":380,"kind_detail":"primary","is_bicycle_related":true,"kind":"major_road","cycleway":"track","source":"openstreetmap.org","min_zoom":8.0,"bus_shield_text":"19B","landuse_kind":"residential"},"arcs":[[814],[815]]},{"type":"MultiLineString","properties":{"bus_network":null,"network":"Dr\u017eavne ceste","sort_rank":380,"kind_detail":"primary","kind":"major_road","source":"openstreetmap.org","min_zoom":8.0,"bus_shield_text":"AIR","shield_text":"103","landuse_kind":"urban_area","ref":"D103"},"arcs":[[816],[817],[818],[819],[820],[821],[822]]},{"type":"LineString","properties":{"kind":"major_road","sort_rank":380,"kind_detail":"primary","bus_network":"MPP Ljubljana - Urbana","source":"openstreetmap.org","min_zoom":8.0,"bus_shield_text":"7L","landuse_kind":"residential","id":440082385},"arcs":[823]},{"type":"LineString","properties":{"bus_network":null,"network":"Dr\u017eavne ceste","sort_rank":380,"kind_detail":"primary","kind":"major_road","source":"openstreetmap.org","min_zoom":8.0,"name:it":"Via beli","bus_shield_text":"18b","shield_text":"304","landuse_kind":"urban_area","ref":"D304"},"arcs":[824]},{"type":"MultiLineString","properties":{"bus_network":"MPP Ljubljana - Urbana","network":"SI:G2","sort_rank":380,"kind_detail":"primary","is_bicycle_related":true,"kind":"major_road","source":"openstreetmap.org","min_zoom":8.0,"bus_shield_text":"N3B","shield_text":"106","ref":"106"},"arcs":[[825],[826],[827],[828]]},{"type":"MultiLineString","properties":{"bus_network":"MPP Ljubljana - Urbana","network":"SI:G2","sort_rank":380,"kind_detail":"primary","is_bicycle_related":true,"kind":"major_road","bicycle_shield_text":"D-2","bicycle_network":"ncn","source":"openstreetmap.org","min_zoom":8.0,"bus_shield_text":"N3B","shield_text":"106","ref":"106"},"arcs":[[829],[830]]},{"type":"MultiLineString","properties":{"bus_network":null,"network":"Dr\u017eavne ceste","sort_rank":380,"kind_detail":"primary","kind":"major_road","source":"openstreetmap.org","min_zoom":8.0,"bus_shield_text":"18b","shield_text":"8","landuse_kind":"urban_area","ref":"D8"},"arcs":[[831],[832],[833]]},{"type":"MultiLineString","properties":{"kind":"major_road","network":"\u017dupanijske ceste","sort_rank":379,"kind_detail":"secondary","is_bicycle_related":true,"bicycle_shield_text":"N6","bicycle_network":"ncn","source":"openstreetmap.org","min_zoom":8.0,"shield_text":"5032","ref":"5032"},"arcs":[[834],[835]]},{"type":"MultiLineString","properties":{"kind":"major_road","network":"Dr\u017eavne ceste","sort_rank":380,"kind_detail":"primary","is_bicycle_related":true,"bicycle_shield_text":"403","bicycle_network":"lcn","source":"openstreetmap.org","min_zoom":8.0,"shield_text":"66","ref":"D66"},"arcs":[[836],[837],[838]]},{"type":"MultiLineString","properties":{"bus_network":"MPP Ljubljana - Urbana","sort_rank":380,"kind_detail":"primary","is_bicycle_related":true,"kind":"major_road","cycleway":"track","source":"openstreetmap.org","min_zoom":8.0,"bus_shield_text":"20Z","landuse_kind":"urban_area"},"arcs":[[839],[840],[841],[842]]},{"type":"LineString","properties":{"kind":"path","sort_rank":354,"kind_detail":"pedestrian","is_bicycle_related":true,"bus_network":null,"bicycle_shield_text":null,"bicycle_network":"icn","source":"openstreetmap.org","min_zoom":8.0,"bus_shield_text":"Urban","landuse_kind":"residential","id":5033321},"arcs":[843]},{"type":"MultiLineString","properties":{"kind":"major_road","network":"SI:G1","sort_rank":380,"kind_detail":"primary","source":"openstreetmap.org","min_zoom":8.0,"shield_text":"6","ref":"6"},"arcs":[[844],[845],[846],[847],[848],[849]]},{"type":"MultiLineString","properties":{"bus_network":"MPP Ljubljana - Urbana","sort_rank":380,"kind_detail":"primary","is_bicycle_related":true,"kind":"major_road","source":"openstreetmap.org","min_zoom":8.0,"bus_shield_text":"N3","landuse_kind":"residential"},"arcs":[[850],[851]]},{"type":"MultiLineString","properties":{"kind":"major_road","network":"SI:R3","sort_rank":377,"kind_detail":"tertiary","is_bicycle_related":true,"bicycle_shield_text":null,"bicycle_network":"icn","source":"openstreetmap.org","min_zoom":8.0,"shield_text":"642","ref":"642"},"arcs":[[852],[853]]},{"type":"MultiLineString","properties":{"bus_network":"MPP Ljubljana - Urbana","sort_rank":380,"kind_detail":"primary","kind":"major_road","source":"openstreetmap.org","min_zoom":8.0,"bus_shield_text":"N3","landuse_kind":"residential"},"arcs":[[854],[855]]},{"type":"MultiLineString","properties":{"kind":"major_road","network":"SI:G2","sort_rank":380,"kind_detail":"primary","source":"openstreetmap.org","min_zoom":8.0,"landuse_kind":"urban_area","shield_text":"105","ref":"105"},"arcs":[[856],[857],[858],[859],[860],[861],[862]]},{"type":"MultiLineString","properties":{"kind":"major_road","network":"Dr\u017eavne ceste","sort_rank":380,"kind_detail":"primary","is_bicycle_related":true,"bicycle_shield_text":"402","bicycle_network":"lcn","source":"openstreetmap.org","min_zoom":8.0,"shield_text":"66","ref":"D66; 5081"},"arcs":[[863],[864]]},{"type":"MultiLineString","properties":{"source":"openstreetmap.org","kind":"major_road","sort_rank":380,"kind_detail":"primary","ref":"102","min_zoom":8.0},"arcs":[[865],[866]]},{"type":"LineString","properties":{"kind":"major_road","network":"\u017dupanijske ceste","sort_rank":379,"kind_detail":"secondary","is_bicycle_related":true,"bicycle_shield_text":"N1","bicycle_network":"ncn","source":"openstreetmap.org","min_zoom":8.0,"shield_text":"3174","ref":"3174","id":52923740},"arcs":[867]},{"type":"MultiLineString","properties":{"kind":"highway","network":"Autoceste","sort_rank":383,"kind_detail":"motorway","source":"openstreetmap.org","min_zoom":8.0,"all_networks":["Autoceste","e-road"],"shield_text":"1","ref":"A1","all_shield_texts":["1","71"]},"arcs":[[868],[869],[870],[871],[872],[873],[874],[875],[876],[877],[878],[879]]},{"type":"LineString","properties":{"kind":"major_road","sort_rank":379,"kind_detail":"secondary","is_bicycle_related":true,"bus_network":"MPP Ljubljana - Urbana","bicycle_shield_text":"D-2","cycleway":"track","source":"openstreetmap.org","min_zoom":8.0,"bus_shield_text":"N1","landuse_kind":"residential","id":149731565,"bicycle_network":"ncn"},"arcs":[880]},{"type":"LineString","properties":{"kind":"major_road","network":"SI:R3","sort_rank":377,"kind_detail":"tertiary","is_bicycle_related":true,"bicycle_shield_text":"D-2","bicycle_network":"ncn","source":"openstreetmap.org","min_zoom":8.0,"shield_text":"642","ref":"642"},"arcs":[881]},{"type":"MultiLineString","properties":{"kind":"major_road","network":"Dr\u017eavne ceste","sort_rank":380,"kind_detail":"primary","is_bicycle_related":true,"source":"openstreetmap.org","min_zoom":8.0,"shield_text":"66","ref":"D66"},"arcs":[[882],[883],[884]]},{"type":"MultiLineString","properties":{"kind":"highway","network":"e-road","sort_rank":383,"kind_detail":"motorway","source":"openstreetmap.org","min_zoom":8.0,"all_networks":["e-road","SI:AC"],"shield_text":"57","ref":"A1","all_shield_texts":["57","1"]},"arcs":[[885],[886]]},{"type":"LineString","properties":{"kind":"major_road","network":"SI:G2","sort_rank":380,"kind_detail":"primary","bus_network":"PPP","source":"openstreetmap.org","min_zoom":8.0,"bus_shield_text":"68","shield_text":"106","ref":"106","id":154348473},"arcs":[887]},{"type":"LineString","properties":{"kind":"major_road","network":"Dr\u017eavne ceste","sort_rank":380,"kind_detail":"primary","is_bicycle_related":true,"bicycle_shield_text":"5","bicycle_network":"rcn","source":"openstreetmap.org","min_zoom":8.0,"shield_text":"3","ref":"D3","id":162464214},"arcs":[888]},{"type":"LineString","properties":{"kind":"major_road","sort_rank":380,"kind_detail":"primary","is_bicycle_related":true,"bus_network":"MPP Ljubljana - Urbana","cycleway":"lane","source":"openstreetmap.org","min_zoom":8.0,"bus_shield_text":"9","landuse_kind":"residential","id":294042080},"arcs":[889]},{"type":"LineString","properties":{"bus_network":"PPP","network":"SI:G2","sort_rank":380,"kind_detail":"primary","is_bicycle_related":true,"kind":"major_road","source":"openstreetmap.org","min_zoom":8.0,"bus_shield_text":"79","shield_text":"106","ref":"106"},"arcs":[890]},{"type":"MultiLineString","properties":{"bus_network":"MPP Ljubljana - Urbana","sort_rank":380,"kind_detail":"primary","is_bicycle_related":true,"kind":"major_road","cycleway":"track","source":"openstreetmap.org","min_zoom":8.0,"bus_shield_text":"7L","landuse_kind":"residential"},"arcs":[[891],[892],[893]]},{"type":"MultiLineString","properties":{"source":"openstreetmap.org","bus_network":"MPP Ljubljana - Urbana","bus_shield_text":"N3B","sort_rank":380,"kind_detail":"primary","min_zoom":8.0,"kind":"major_road"},"arcs":[[894],[895]]},{"type":"MultiLineString","properties":{"bus_network":null,"network":"Dr\u017eavne ceste","sort_rank":380,"kind_detail":"primary","kind":"major_road","source":"openstreetmap.org","min_zoom":8.0,"bus_shield_text":"12","shield_text":"3","landuse_kind":"urban_area","ref":"D3"},"arcs":[[896],[897]]},{"type":"MultiLineString","properties":{"bus_network":"MPP Ljubljana - Urbana","sort_rank":380,"kind_detail":"primary","kind":"major_road","source":"openstreetmap.org","min_zoom":8.0,"bus_shield_text":"22","landuse_kind":"residential"},"arcs":[[898],[899]]},{"type":"LineString","properties":{"kind":"major_road","network":"Dr\u017eavne ceste","sort_rank":380,"kind_detail":"primary","is_bicycle_related":true,"bicycle_shield_text":"9","bicycle_network":"rcn","source":"openstreetmap.org","min_zoom":8.0,"shield_text":"42","ref":"D42","id":178462831},"arcs":[900]}]},"earth":{"type":"GeometryCollection","geometries":[{"type":"MultiPolygon","properties":{"sort_rank":10,"source":"naturalearthdata.com","min_zoom":0.0,"kind":"earth","area":96676069294},"arcs":[[[901]],[[902]],[[903]]]},{"type":"Point","properties":{"label_placement":true,"kind":"island","name":"Krk","area":812945024,"source":"openstreetmap.org","min_zoom":8.0,"name:it":"Veglia","name:ru":"\u043e\u0441\u0442\u0440\u043e\u0432 \u041a\u0440\u043a","id":-1924210,"osm_relation":true},"coordinates":[1419,5]}]},"landuse":{"type":"GeometryCollection","geometries":[{"type":"MultiPolygon","properties":{"source":"openstreetmap.org","kind":"residential","tier":2,"area":116784493,"sort_rank":20,"min_zoom":8.0,"osm_relation":true},"arcs":[[[904]]]},{"type":"MultiPolygon","properties":{"source":"openstreetmap.org","kind":"military","tier":3,"area":276299155,"sort_rank":45,"min_zoom":8.0},"arcs":[[[905]],[[906]]]},{"type":"MultiPolygon","properties":{"source":"naturalearthdata.com","kind":"urban_area","name":"","area":2956313692,"sort_rank":11,"min_zoom":4.0},"arcs":[[[907]],[[908]],[[909]],[[910]]]},{"type":"Polygon","properties":{"kind":"nature_reserve","protect_class":"1","area":18192100,"sort_rank":23,"source":"openstreetmap.org","min_zoom":8.0,"tier":2,"id":492316627},"arcs":[[911]]},{"type":"MultiPolygon","properties":{"kind":"nature_reserve","protect_class":"4","area":694579968,"sort_rank":23,"source":"openstreetmap.org","min_zoom":6.0,"tier":2,"id":-6482172,"osm_relation":true},"arcs":[[[912]],[[913]]]},{"type":"MultiPolygon","properties":{"source":"openstreetmap.org","kind":"nature_reserve","tier":2,"protect_class":"4","area":678222934,"sort_rank":23,"min_zoom":6.0},"arcs":[[[914]]]},{"type":"Polygon","properties":{"kind":"nature_reserve","protect_class":"2","area":131718000,"sort_rank":23,"source":"openstreetmap.org","min_zoom":7.0,"tier":2,"id":321048598},"arcs":[[915]]}]}},"type":"Topology","transform":{"translate":[14.0625,45.0890355648],"scale":[0.0003433228,0.000240282]},"arcs":[[[0,1676],[31,-30],[185,-40],[106,19],[101,-43],[8,83],[71,69],[30,-1],[56,-94],[64,31],[57,-42],[31,11],[18,-52],[80,63],[84,11],[45,25],[11,36],[50,30],[57,-2],[162,118],[29,47],[-4,110],[24,57],[-18,77],[98,25],[83,139],[19,107],[25,-32],[54,18],[32,-22],[-36,-155],[92,-53],[70,-93],[77,-10],[37,-37],[29,-74],[-34,-41],[5,-110],[29,-5],[8,38],[51,-2],[113,-98],[27,7],[-1,-26],[79,-11],[64,-182],[262,73],[24,71],[-6,101],[51,45],[163,-136],[73,4],[46,-50],[75,37],[95,-48],[-2,-65],[154,-96],[24,-54],[58,-38],[43,4],[37,57],[26,-43],[66,0],[51,109],[89,56],[156,-56],[54,16],[41,86],[75,49],[-157,91],[-49,51],[-3,36],[-34,17],[-10,199],[-63,87],[90,40],[-8,75],[132,19],[-21,38],[80,1],[56,-36],[47,53],[-32,14],[-76,166],[-18,-64],[-43,-28],[5,50],[42,40],[-21,88],[-51,2],[-61,-80],[12,-89],[-50,62],[15,37],[-34,-2],[0,-22],[19,13],[-20,-20],[-6,12],[9,-30],[-34,27],[-12,72],[-42,-10],[-35,72],[123,124],[239,103],[51,54],[202,15]],[[4096,2986],[-8,49],[8,1]],[[3609,2500],[5,1],[9,5],[-9,-9],[-5,3]],[[3597,3843],[-59,-54],[-57,2],[-51,-44],[-74,-6],[10,-54],[-58,-35],[-94,9],[-136,-47],[-133,-2],[-128,-143],[-12,-66],[-49,0]],[[4096,1327],[-100,-30],[-97,-173],[-67,-44],[-42,-76],[-14,-98],[-35,-1],[-36,-70],[-51,-4],[-48,-61],[95,-162],[-12,-60],[-295,196],[-68,0],[-58,41],[-30,202],[-37,37],[-123,28],[-59,71],[-61,21],[-27,124],[-61,9],[-91,113]],[[529,1732],[-17,59],[29,29],[-39,101],[22,60],[-81,104],[-10,53],[-83,59],[4,38],[-27,20],[76,61],[-39,66],[10,57]],[[1245,4096],[43,-60]],[[1288,4036],[1,0]],[[1288,4036],[174,1]],[[1488,4037],[6,0]],[[1626,4045],[-134,-4]],[[1580,4037],[34,0],[4,1],[6,5]],[[1627,4046],[53,50]],[[2206,4096],[-13,-45],[20,-20],[94,65]],[[3261,4096],[20,-29],[47,-26],[7,-38],[77,-38],[94,20],[1,-95],[114,-75],[68,-6],[52,-39],[355,-30]],[[1241,4096],[38,-56],[41,-3]],[[1306,4034],[-279,-183],[-54,-200],[-97,-129],[43,-121],[-174,203],[-49,-45],[-68,-14],[-31,49],[-56,-29],[-38,-155],[91,-96],[20,-90],[112,-139],[11,-97],[-30,-24],[-66,39],[-171,-96],[-9,-112],[-51,-41],[-6,-52],[-46,-43],[25,-201],[-17,-33],[-142,53],[-130,-102],[-94,38]],[[1245,4096],[43,-60]],[[1288,4036],[1,0]],[[1288,4036],[174,1]],[[1488,4037],[6,0]],[[1626,4045],[-134,-4]],[[1580,4037],[34,0],[4,1],[6,5]],[[1627,4046],[53,50]],[[2206,4096],[-13,-45],[20,-20],[94,65]],[[3261,4096],[20,-29],[47,-26],[7,-38],[77,-38],[94,20],[1,-95],[114,-75],[68,-6],[52,-39],[355,-30]],[[1306,4034],[-279,-183],[-54,-200],[-97,-129],[43,-121],[-174,203],[-49,-45],[-68,-14],[-31,49],[-56,-29],[-38,-155],[91,-96],[20,-90],[112,-139],[11,-97],[-30,-24],[-66,39],[-171,-96],[-9,-112],[-51,-41],[-6,-52],[-46,-43],[25,-201],[-17,-33],[-142,53],[-130,-102],[-94,38]],[[4096,1327],[-100,-30],[-97,-173],[-67,-44],[-42,-76],[-14,-98],[-35,-1],[-36,-70],[-51,-4],[-48,-61],[95,-162],[-7,-54],[-116,59],[-41,-85],[31,-42],[19,-112],[49,-19],[150,-212],[-8,-89],[39,-54]],[[1071,1003],[-140,50],[-161,96],[-75,-11],[48,67],[-44,105],[5,73],[-54,86],[-107,59],[-21,54],[22,99],[-15,51]],[[1306,4034],[156,3]],[[1626,4045],[-12,-6],[-222,-3]],[[1488,4037],[6,0]],[[1580,4037],[34,0],[4,1],[6,5]],[[1627,4046],[53,50]],[[2206,4096],[-13,-45],[22,-20],[92,65]],[[1306,4034],[-279,-183],[-54,-200],[-97,-129],[43,-121],[-174,203],[-49,-45],[-68,-14],[-31,49],[-56,-29],[-38,-155],[91,-96],[20,-90],[112,-139],[11,-97],[-30,-24],[-66,39],[-171,-96],[-9,-112],[-51,-41],[-6,-52],[-46,-43],[25,-201],[-17,-33],[-142,53],[-130,-102],[-94,38]],[[1303,4034],[56,-11],[-40,-69],[61,-54],[24,-77],[66,-83],[29,-23],[67,35],[-9,-53],[89,-26],[86,-89],[54,2],[55,-59],[71,7],[32,79],[25,8],[104,-55],[24,-39],[110,2]],[[2207,3529],[235,46],[59,-48],[97,17],[40,-23],[50,-111],[143,-24],[46,-62],[70,-23],[16,-50],[52,-19],[-3,-59],[163,-119],[28,-77],[-18,-84],[29,-75],[-88,-78],[11,-87],[-38,-38],[80,-223],[52,-53],[-50,-72],[28,-176],[71,-48],[55,17],[96,96],[-4,80],[48,-5],[53,37],[96,-4],[47,38]],[[4096,1327],[-100,-30],[-97,-173],[-67,-44],[-42,-76],[-14,-98],[-35,-1],[-36,-70],[-51,-4],[-48,-61],[95,-162],[-13,-61],[-19,33],[-55,11],[-220,153],[-68,0],[-58,41],[-16,172],[-38,59],[-136,36],[-59,71],[-63,22],[-25,123],[-61,9],[-62,97],[-126,71],[-17,76],[-55,52],[-49,-70],[-123,-25],[24,-126],[-39,-52],[-81,12],[-42,-49],[-99,32],[-80,-40],[46,-75],[-48,-55],[-53,31],[-6,-73],[-84,-53],[-56,-134],[-57,-29],[39,-70],[-23,-68],[-60,18],[-171,134],[-18,-39],[31,-59],[-33,-28],[-5,73],[-195,213],[-50,-98],[-31,-9],[-126,70],[-25,-55],[-125,54]],[[119,1118],[1,-1]],[[120,1117],[11,-17],[4,-4]],[[135,1096],[2,-2]],[[137,1094],[-3,-20],[-71,18],[-31,-30],[-6,-89],[-26,-34]],[[119,1118],[-119,138]],[[119,1118],[2,-2]],[[121,1116],[13,-19]],[[134,1097],[4,-4]],[[120,1117],[11,-17],[4,-4]],[[264,965],[-11,7]],[[253,972],[-115,121]],[[138,1093],[-1,1]],[[253,972],[11,-6]],[[334,0],[9,10],[37,59],[7,62],[-47,58],[87,-34],[68,96],[5,15],[2,7],[38,132],[31,289],[39,143],[55,126],[60,98],[53,42],[47,-10],[52,-29],[113,-25],[315,-162],[40,-46],[26,-20],[29,0],[26,17],[10,33],[-9,7],[-53,63],[107,-79],[33,-35],[-40,-39],[22,-57],[49,-52],[40,-23],[149,-198],[315,-247],[179,-97],[44,-35],[30,-50],[3,-19],[-551,0],[-17,80],[35,146],[-16,77],[-63,-21],[-91,10],[-44,30],[77,38],[-38,94],[-43,76],[-14,15],[-12,18],[-9,24],[-5,31],[9,1],[31,-1],[-95,51],[-42,-4],[-43,-47],[28,-7],[15,-24],[2,-36],[-5,-46],[-32,-36],[-3,-31],[10,-31],[7,-33],[-6,-35],[-16,-35],[-38,-55],[26,-58],[-47,-24],[-110,-3],[-27,-18],[-3,-39],[2,-39],[-11,-18],[-34,0],[-28,-5],[-25,-17],[-18,-28],[-181,0],[-5,19],[-7,100],[10,166],[-23,49],[-70,27],[-53,-14],[-41,-42],[-32,-56],[-32,-87],[2,-61],[26,-51],[41,-50],[-362,0]],[[2305,0],[-3,19],[-30,50],[-44,35],[-179,97],[-315,247],[-149,198],[-40,23],[-49,52],[-22,57],[40,39],[-33,35],[-107,79],[53,-63],[9,-7],[-10,-33],[-26,-17],[-29,0],[-26,20],[-40,46],[-315,162],[-113,25],[-52,29],[-47,10],[-53,-42],[-60,-98],[-55,-126],[-39,-143],[-31,-289],[-38,-132],[-2,-7],[-5,-15],[-68,-96],[-87,34],[47,-58],[-7,-62],[-37,-59],[-9,-10]],[[880,0],[-5,19],[-7,100],[10,166],[-23,49],[-70,27],[-53,-14],[-41,-42],[-32,-56],[-32,-87],[2,-61],[26,-51],[41,-50]],[[1754,0],[-17,80],[35,146],[-16,77],[-63,-21],[-91,10],[-44,30],[77,38],[-38,94],[-43,76],[-14,15],[-12,18],[-9,24],[-5,31],[9,1],[31,-1],[-95,51],[-42,-4],[-43,-47],[28,-7],[15,-24],[2,-36],[-5,-46],[-32,-36],[-3,-31],[10,-31],[7,-33],[-6,-35],[-16,-35],[-38,-55],[26,-58],[-47,-24],[-110,-3],[-27,-18],[-3,-39],[2,-39],[-11,-18],[-34,0],[-28,-5],[-25,-17],[-18,-28]],[[1748,3609],[85,12],[51,-32],[101,10]],[[1257,4060],[7,-16],[5,-4]],[[1260,4055],[9,-15]],[[1702,3626],[0,1],[-1,-1],[1,0]],[[1713,3620],[-11,6]],[[1713,3620],[0,-1],[0,1]],[[1720,3615],[-7,4]],[[1747,3609],[-4,1]],[[1721,3615],[-1,0]],[[1720,3615],[0,-1],[1,1]],[[1748,3608],[0,1],[-1,0],[0,-1],[1,0]],[[2158,1274],[137,168],[-19,-4],[27,121]],[[3573,1343],[-8,7]],[[1309,4031],[6,0]],[[1402,3855],[0,-24]],[[993,1039],[90,-38]],[[1090,996],[-6,5]],[[3671,2260],[4,-67]],[[3757,2020],[138,-250]],[[3895,1770],[-2,-1]],[[3895,1770],[39,-1],[5,-26]],[[1299,4031],[6,0]],[[1309,4031]],[[477,2032],[53,-67]],[[627,1667],[4,-8]],[[631,1660],[-3,7]],[[1405,88],[0,-1]],[[1406,89],[-1,1]],[[1714,2095]],[[3673,2261],[-1,6]],[[477,2032],[0,1],[0,-1]],[[1406,89],[-1,0],[0,-1],[1,0],[0,1]],[[1494,3708],[-1,0],[1,0]],[[2308,2320],[1,0],[-1,0]],[[2324,2280]],[[1021,3841],[3,12]],[[1278,4027],[-1,-2]],[[1277,3984],[13,-2]],[[1305,4006],[0,-4]],[[1315,4031],[14,-1]],[[795,1141],[-80,-24],[-61,-81],[-6,-48],[-64,-6]],[[1345,4012],[16,6]],[[3573,1343],[-3,-6]],[[861,1121],[-42,29],[5,23]],[[1238,3979],[-4,-2]],[[1234,3977],[-18,-10]],[[1219,3971],[15,6]],[[1234,3977],[4,1]],[[398,2843],[1,0]],[[399,2844],[6,3]],[[432,2845],[2,-2]],[[434,2843],[1,0],[-1,0]],[[3251,3092],[4,-6]],[[3253,2868],[52,-49],[11,-62],[75,-68],[-24,-20],[44,-13],[-2,-59],[76,-63],[0,-28],[44,-9],[86,-159]],[[3667,2290],[-51,47]],[[3667,2290],[1,-1]],[[3668,2289],[0,1],[-1,0]],[[3668,2289],[4,-22]],[[3616,2337],[0,1],[-1,0],[0,-1],[1,0]],[[1362,4016],[2,0]],[[391,2841],[-5,-6]],[[410,2847],[-5,-1]],[[2110,163],[0,-1],[1,1],[-1,0]],[[0,456],[47,-47]],[[975,1097],[-23,33]],[[11,2662],[-11,-13]],[[654,2950],[49,-31]],[[1334,3642],[-22,-9]],[[1332,3645],[29,-3]],[[1362,3637],[41,35],[6,81],[16,-1]],[[1400,3831],[15,-16]],[[1492,3725],[83,-20]],[[443,288],[27,-57]],[[1268,896],[26,-23]],[[3560,1354],[5,-4]],[[206,431],[0,-7]],[[1090,996],[-1,0]],[[1581,3700],[-1,3]],[[1580,3703],[0,1],[1,0],[0,-1],[-1,0]],[[1658,3662],[-1,1],[0,-1],[1,0]],[[1121,982],[1,1]],[[730,1144],[0,1],[-1,0],[0,-1],[1,0]],[[1095,993],[-5,3]],[[1355,931],[0,-36]],[[1045,3680],[39,-10]],[[1043,3681],[0,-1],[1,1],[-1,0]],[[1106,985],[7,-4]],[[778,1120],[0,1],[-1,-1],[1,0]],[[1301,4002],[4,0]],[[1517,3997],[-6,-1]],[[1158,965],[45,-17],[46,15]],[[1249,963],[2,4],[1,4]],[[1251,971],[-2,-8]],[[1279,4026],[8,-8]],[[3457,1318],[-6,-2],[-19,-11],[-71,-13],[-24,-10],[-46,-44],[-45,-4],[-26,-5],[-36,-20],[-66,-7],[-69,-20],[-45,-19],[-29,-19],[-18,-15],[-30,-8],[-37,70],[-45,5],[-8,0],[-27,-5],[-7,-2],[-11,-1],[-18,1],[-22,-4],[-89,6],[-18,0],[-84,31],[-99,9],[-147,-14],[-97,51],[-34,-13],[-20,-15],[-107,-94],[-145,-199],[-187,39],[-79,-16],[-23,19],[-3,1]],[[1620,990],[-7,4]],[[1613,994],[-8,4],[-44,14],[-15,59],[-9,11],[-44,46],[-36,8],[-19,-1],[-38,45],[-25,17],[-8,2],[-9,1],[-19,-3]],[[1339,1197],[33,1],[66,-64],[55,-6],[52,-57],[15,-58],[11,-8],[12,-6],[20,-2],[10,-3]],[[1613,994],[5,-2],[2,-2]],[[1620,990],[4,-3],[8,-10],[8,-5],[9,-4],[76,17],[187,-39],[35,19],[111,180],[159,122],[98,-51],[150,14],[180,-40],[107,-6],[138,7],[37,-70],[30,8],[92,53],[135,26],[42,22],[65,7],[46,44],[71,16],[24,8],[25,13]],[[1291,1190],[-25,-3]],[[3918,2316],[111,-6],[62,-129],[5,0]],[[148,7],[0,1],[-1,0],[0,-1],[1,0]],[[875,2931],[3,0]],[[911,1077],[-50,44]],[[1422,4085],[3,0]],[[1276,3974],[-1,0]],[[1275,3925],[0,1]],[[1364,927],[-10,-1]],[[3872,2265],[46,51]],[[1437,3788],[4,-7]],[[0,2791],[48,-2],[159,23],[84,-17],[55,-5],[35,2],[20,4],[8,2],[15,5],[17,7],[47,117],[144,61],[3,6]],[[635,2994],[14,34]],[[649,3028],[1,1],[2,25],[10,17],[15,30],[0,8],[-114,267],[65,174],[75,46],[6,22],[-1,53],[100,107]],[[808,3778],[18,19],[123,65],[110,28],[7,2],[0,1]],[[1066,3893],[11,3],[10,4],[24,13],[5,5]],[[1115,3919],[-27,-18],[-17,-7],[-5,-1]],[[1066,3893],[-161,-64],[-22,-12],[-22,-5],[-53,-34]],[[808,3778],[-45,-30],[-55,-76],[-5,-76],[-75,-46],[-66,-175],[114,-266],[-26,-58],[0,-22],[-1,-1]],[[649,3028],[-6,-30],[-8,-4]],[[635,2994],[-132,-56],[-15,-11],[-68,-125],[-213,11],[-207,-22]],[[656,2940],[-22,41],[-134,-43]],[[794,2943],[-65,-2],[-30,-31],[-43,28]],[[3219,1359],[101,-90]],[[3321,1268],[47,0]],[[988,3729],[50,-41]],[[3449,111],[-89,-111]],[[3361,0],[89,112]],[[3503,578],[-1,-3]],[[3502,575],[2,3]],[[3541,870],[-2,-5]],[[3539,865],[2,5]],[[3824,1062],[-31,-57],[-17,-179],[-58,-99],[-4,-50]],[[949,1062],[44,-23]],[[1294,873],[6,-4]],[[1493,671],[-21,-20]],[[1488,3729],[4,-4]],[[754,1109],[-63,-92]],[[1424,4086],[-47,-14]],[[1377,4072],[45,13]],[[1328,3627],[26,-8]],[[1311,3930],[2,-1]],[[725,1183],[4,-38]],[[730,1144],[47,-5],[0,-18]],[[777,1121],[0,-1]],[[778,1121],[-1,0]],[[779,1120],[-1,1]],[[778,1120],[1,0]],[[828,1088],[-49,32]],[[3246,3019],[8,-10]],[[1444,577],[1,0]],[[1743,3610],[-5,1]],[[0,2732],[4,-8]],[[431,2845],[1,0]],[[3195,3052],[29,-4]],[[3494,1327],[36,8],[4,3],[12,11]],[[3546,1350],[-38,-19]],[[4032,1682],[-1,-5],[-43,-44],[-10,-12],[-1,-1]],[[3977,1620],[-3,-3],[-143,-86]],[[3831,1531],[-2,-1],[-42,-47],[-230,-124]],[[3557,1359],[231,124],[32,29],[4,7],[7,12]],[[3831,1531],[5,8],[5,6],[136,75]],[[3977,1620],[1,0],[52,54],[2,8]],[[4062,1721],[-27,-28]],[[4035,1693],[27,28]],[[4078,1738],[-2,-2]],[[4078,1736],[1,2]],[[4096,1757],[-11,-11]],[[4086,1746],[10,8]],[[384,2777],[0,-1]],[[3195,3052],[-8,1]],[[1492,3725],[3,-5]],[[1495,3717],[0,-6]],[[700,1348],[-58,157],[2,89],[-141,57]],[[3750,2025],[7,-5]],[[0,1248],[140,-182]],[[2244,3575],[-145,-46],[-93,74]],[[1458,456],[-8,-34]],[[1186,1044],[1,-1]],[[1175,3945]],[[1273,3906],[-5,-17]],[[1347,4096],[1,-4]],[[1349,4091],[-1,5]],[[649,175],[-179,56]],[[1260,3989],[0,-1]],[[938,1042],[-76,22]],[[1487,3548],[0,44]],[[1670,3648],[-88,51]],[[1104,988],[-9,5]],[[1121,991],[-2,-3]],[[3259,4096],[22,-42],[63,-87],[76,-25],[59,13],[23,-71],[71,-37]],[[3574,3847],[12,-23],[302,-99],[198,9],[10,-11]],[[3574,3848],[-1,-1],[0,-1],[1,1],[0,1]],[[3675,2193],[75,-168]],[[1454,3841],[114,-126],[15,-11],[80,-37],[6,-2],[62,-3],[11,0],[8,3],[26,11],[192,-52],[139,-99],[42,-7],[51,-1],[110,-25],[1,-1],[25,-5]],[[2336,3486],[58,-13]],[[2394,3473],[2,0],[29,-1],[79,30],[116,-82],[55,-25],[46,-13],[122,-12],[37,4],[9,-6],[10,-16],[1,0]],[[2900,3352],[12,-11]],[[2912,3341],[25,-25],[29,-28],[15,-12],[10,-6],[15,-6],[10,0],[17,2],[82,-41],[44,-63],[14,-18],[29,-27],[20,-13]],[[3222,3104],[-107,122],[-74,38],[-60,12],[-20,17],[-49,48]],[[2912,3341],[-12,11]],[[2900,3352],[-4,9],[-5,6],[-10,7],[-206,22],[-171,107],[-90,-29],[-10,0],[-10,-1]],[[2394,3473],[-1,0],[-9,2],[-48,11]],[[2336,3486],[-25,6],[-1,0],[-110,25],[-93,8],[-249,178],[-60,-11],[-59,-29],[-74,4],[-96,49],[-111,125]],[[4096,3431],[-25,2],[-2,0]],[[4069,3433],[-156,-16],[-34,-8],[-75,-3],[-22,-3]],[[3782,3403],[-55,-8],[-75,-49],[-2,-1],[-18,-26],[-3,-7],[-3,-9],[-20,-41]],[[3606,3262],[-2,-4],[-1,0]],[[3603,3258],[-109,-40],[-1,0],[-64,-54],[-82,-45],[-59,-47],[-26,7]],[[3263,3078],[25,-6],[141,92],[64,53],[109,40],[1,1]],[[3603,3258],[3,4]],[[3606,3262],[17,25],[29,59],[130,57]],[[3782,3403],[7,3],[278,27],[2,0]],[[4069,3433],[2,-1],[5,-1],[1,0],[19,-4]],[[1823,375],[216,-182],[71,-30]],[[2111,163],[77,-48],[109,11],[8,-126]],[[1421,308],[-14,-37]],[[1418,141],[-10,50]],[[1291,1194],[21,3],[3,-1]],[[1315,1196],[1,0],[13,0],[10,1]],[[1339,1197],[-19,0],[-5,-1]],[[1315,1196],[-24,-2]],[[946,1313],[-7,25]],[[1441,3858],[-17,-11]],[[1431,3844],[13,15]],[[1372,3604],[42,49]],[[1414,3653],[79,55]],[[95,431],[139,-92]],[[1423,4025],[-2,0]],[[700,1348],[1,-12]],[[1349,4083],[2,-13],[1,0],[-2,13],[-1,0]],[[749,1194],[2,-2]],[[751,1192],[-2,2]],[[1380,924],[1,0]],[[1381,924],[2,0]],[[1382,924],[-1,0]],[[1381,924],[-1,0]],[[1539,733],[42,8],[-2,9],[-19,34],[-27,28],[-6,12],[-3,4]],[[1524,828],[-1,1]],[[1523,829],[-3,3],[-7,4],[-3,0]],[[1510,836],[-1,1]],[[1509,837],[1,-1]],[[1510,836],[1,0],[6,-2],[6,-5]],[[1523,829],[1,-1]],[[1524,828],[3,-5],[5,-12],[28,-27],[5,-12],[8,-15],[6,-7],[2,-9],[-38,5],[-3,-2],[-3,-6],[2,-5]],[[1539,733],[1,-19]],[[988,3740],[33,101]],[[1024,3853],[10,38]],[[1472,651],[-3,-2]],[[3457,1525],[42,-52]],[[3554,1359],[-60,111]],[[3560,1354],[20,15]],[[1605,3277],[6,36],[-72,78],[-52,157]],[[1671,3099],[-66,173]],[[3222,3104],[26,-18],[6,-4],[9,-4]],[[3262,3079],[-40,25]],[[1351,925],[15,1]],[[1389,3885],[-11,18]],[[1378,3903],[12,-18]],[[1428,3998],[-33,18]],[[701,1336],[38,-113],[-14,-40]],[[862,1064],[-34,24]],[[1084,1001],[-1,0]],[[1119,988],[-15,0]],[[1139,981],[-18,10]],[[1125,983],[11,-3]],[[3386,740],[14,25],[77,-11],[-17,74],[23,120],[51,29],[-22,52],[60,83],[4,33],[-39,55],[32,55],[-23,60],[24,22]],[[1310,3931],[1,-1]],[[1314,3970],[11,7],[7,18]],[[1331,3995],[-6,-17]],[[1421,4025],[47,-5]],[[1468,4020],[-45,5]],[[2647,3419],[-1,1],[-1,0],[1,-1],[1,0]],[[1361,4062],[-16,-13],[-6,-8],[-4,-1],[0,-3],[0,3],[4,0],[22,22]],[[170,125],[-1,5]],[[1450,631],[-6,-54]],[[1464,538],[-6,-82]],[[1518,4015],[-1,0]],[[1860,1510],[31,3],[-7,-65]],[[1260,3989],[-22,-10]],[[1238,3978],[22,10]],[[1287,3946],[23,-15]],[[1136,980],[62,-44]],[[1198,936],[-58,44]],[[1198,936],[28,13],[16,-30]],[[1242,919]],[[1242,919],[0,-1],[0,1]],[[1242,919],[26,-23]],[[1260,3988],[17,-4]],[[1277,3984],[-17,5]],[[686,988],[-2,-21]],[[3386,740],[-69,10]],[[989,1039],[-51,3]],[[649,175],[-179,56]],[[1362,3637],[-1,5]],[[256,972],[68,-13]],[[1293,3978],[-1,0]],[[1293,3982],[1,0]],[[1428,4002],[0,-3]],[[1461,4002],[-33,0]],[[751,1192],[24,-36],[29,-26],[27,-18],[3,-1]],[[834,1111],[16,-5],[3,-2]],[[853,1104],[5,-3],[5,-5],[3,-2]],[[866,1094],[23,-14]],[[889,1080],[3,-1],[117,-22],[42,8],[69,-45],[34,-1],[36,13],[6,-11],[1,-2],[2,-3]],[[1199,1016],[1,-2],[0,-1]],[[1200,1013],[1,-5],[0,-2]],[[1201,1006],[2,-3]],[[1203,1003],[4,-9],[1,0],[26,-7],[35,-27],[82,-35]],[[1354,926],[-85,35],[-11,11],[-24,15],[-6,3],[-25,13]],[[1203,1003],[-1,1],[-1,2]],[[1201,1006],[0,4],[0,1],[-1,2]],[[1200,1013],[-1,3]],[[1199,1016],[-2,4],[-2,6],[-3,6],[-4,1],[-33,-13],[-9,5],[-14,2],[-12,-6],[-51,36],[-18,9],[-7,0],[-34,-8],[-57,16],[-36,6],[-28,0]],[[889,1080],[-3,0],[-7,3],[-13,11]],[[866,1094],[-3,2],[-7,7],[-3,1]],[[853,1104],[-18,6],[-1,1]],[[834,1111],[-3,1],[-22,15],[-7,4],[-7,8],[-2,2],[-5,4],[-10,9],[-5,6],[-1,2],[-21,30]],[[1380,924],[-1,0],[-2,1]],[[1377,925],[-4,0],[-9,2]],[[1366,926],[7,-1],[4,0]],[[1377,925],[3,-1]],[[1509,837],[-3,0],[-121,87]],[[1385,924],[0,1],[-3,-1]],[[1383,924],[2,0]],[[1385,924],[124,-87]],[[432,2845],[-1,0]],[[385,2833],[0,1],[-1,-1],[1,0]],[[1083,1001],[7,-6]],[[1354,3619],[18,-15]],[[1146,3945],[84,-39],[100,-34]],[[1331,3872],[-30,16],[-5,3],[-17,5],[-50,11],[-54,28],[-27,11]],[[3253,2906],[0,-38]],[[3560,415],[10,-39]],[[1275,3974],[-1,-24]],[[1274,3950],[2,24]],[[1483,564],[-1,0]],[[1483,563]],[[2399,1238],[35,0]],[[2434,1236],[62,-50],[427,27],[10,-23],[47,2]],[[1140,980],[-1,1]],[[1234,4096],[16,-24],[3,-5]],[[1253,4067],[5,-7]],[[1259,4055],[-6,12]],[[1253,4067],[-3,5],[-15,24]],[[1269,4040],[10,-14]],[[1279,4027],[-10,13]],[[1258,4060],[11,-20]],[[1279,4026],[0,1]],[[633,1657],[-19,-72]],[[614,1585],[14,32],[6,40]],[[206,431],[36,85],[1,76],[-69,247],[36,47],[12,100],[34,-14]],[[206,424],[53,-56],[-5,-48]],[[1313,3929],[3,-2]],[[1356,3901],[3,-4]],[[220,1010],[-70,58],[-79,18],[-71,-177]],[[584,982],[-28,-36]],[[0,1916],[157,-58],[153,-128],[136,-53]],[[1097,979],[-73,11],[-448,-626],[-59,-156],[-35,-208]],[[47,409],[48,22]],[[234,339],[51,-57]],[[285,282],[0,-1]],[[286,281],[-1,1]],[[2647,3420],[152,-27]],[[2800,3393],[96,-14]],[[2896,3379],[0,-1],[1,0]],[[2897,3378],[0,1],[-1,0]],[[2897,3378],[76,-11],[68,-97],[98,-52],[112,-126]],[[2799,3394],[0,-2],[1,0],[0,1],[-1,1]],[[1482,564],[1,-1]],[[1483,563],[0,1]],[[454,3442],[-43,-24],[-36,-64]],[[455,3443],[-1,-1]],[[454,3442],[1,0],[0,1]],[[1323,859],[58,8],[-28,42]],[[1620,1150],[1,-57],[-108,-80]],[[1527,857],[-4,-7]],[[1547,805],[51,-90]],[[1589,668],[34,-54]],[[1373,3881],[1,-1]],[[1374,3879],[1,0],[0,1],[-1,0]],[[1374,3880],[0,-1]],[[776,1120],[-22,-11]],[[777,1120],[-1,0]],[[776,1120],[1,0]],[[1118,978],[40,-13]],[[1039,3609],[53,-48],[-33,-51],[31,-94],[-17,-9],[11,-72]],[[691,1017],[-5,-29]],[[1139,4027],[-4,-14],[-14,-24],[-2,-9],[0,-10],[3,-7]],[[1124,3963],[15,64]],[[2221,4096],[-30,-44],[18,-24]],[[2209,4028],[0,-1],[1,1]],[[2210,4028],[-1,0]],[[2210,4028],[19,5]],[[2233,4028],[21,12]],[[2254,4040],[1,0],[0,1]],[[2255,4041],[-1,0],[0,-1]],[[2255,4041],[88,55]],[[151,2801],[7,1]],[[410,2846],[6,-3]],[[435,2843],[21,2]],[[451,2863],[4,5]],[[455,2865],[2,0]],[[870,2930],[-63,-30]],[[871,2930],[-2,-3]],[[875,2931],[-6,1]],[[878,2931],[16,28]],[[935,3030],[10,4]],[[1035,3611],[4,-2]],[[1332,3645],[2,-3]],[[1375,3879],[5,-10]],[[1437,3788],[-12,21]],[[1441,3781],[-16,-29]],[[1591,4007],[4,-5]],[[1631,4038],[0,12]],[[2229,4033],[25,25]],[[2233,4028],[-2,-3]],[[1121,3933],[-6,-14]],[[1116,3918],[8,20]],[[1001,1065],[-26,32]],[[1002,1064],[0,1],[-1,0]],[[1001,1065],[0,-1],[1,0]],[[1657,3662],[-3,4]],[[1670,3648],[-12,14]],[[1444,577],[20,-39]],[[1464,538]],[[84,3621],[-84,43]],[[84,3620],[0,1]],[[84,3621],[0,-1]],[[375,3354],[-145,104],[-5,42],[-141,120]],[[455,3442],[28,-16]],[[484,3425],[0,1],[-1,0],[0,-1],[1,0]],[[399,2843],[-1,0]],[[399,2844],[-1,-1]],[[405,2847],[-1,-1]],[[435,2844],[-3,2]],[[456,2845],[-2,9]],[[1045,3680],[-1,1]],[[1631,4050],[74,46]],[[3499,1473],[-5,-3]],[[410,2846],[0,1]],[[14,2782],[-14,-2]],[[3186,3053],[-1,38]],[[3186,3053],[-1,0]],[[3186,3052],[0,1]],[[21,2784],[-7,-2]],[[3930,1528],[-19,-29]],[[1523,850],[24,-45]],[[3654,526],[-93,-110]],[[1635,2104],[34,21],[45,-30]],[[1125,994],[0,1]],[[1148,3946],[-21,-1],[-6,-12]],[[1124,3938],[22,7]],[[3534,552],[0,1]],[[3391,722],[0,1],[-1,0],[1,-1]],[[1517,3997],[47,-2]],[[1572,3995],[19,12]],[[1473,802],[-6,-7]],[[524,942],[6,-1]],[[1156,4095],[6,-4],[-14,-12],[-1,-18]],[[1150,4071],[4,10]],[[1152,4081],[2,0]],[[1154,4081],[8,9]],[[1113,981],[2,-1]],[[1579,1001],[23,-4]],[[1329,4030],[1,-9]],[[286,280],[0,1],[-1,0],[0,-1],[1,0]],[[417,2843],[13,2]],[[1400,3831],[-2,11]],[[737,0],[-34,57],[-57,20],[-14,57],[17,41]],[[1281,4030],[-3,-3]],[[1330,4012],[0,-3]],[[633,889],[-48,-159]],[[651,921],[-3,-5]],[[684,967],[-13,-8]],[[3557,1359],[-11,-9]],[[3546,1349],[11,10]],[[4035,1693],[-3,-11]],[[4032,1682],[3,11]],[[4076,1736],[-14,-15]],[[4062,1721],[16,15]],[[4085,1746],[-7,-8]],[[4079,1738],[7,8]],[[1277,4025],[-17,-36]],[[1379,4022],[14,-5]],[[1428,3999],[0,-1]],[[0,2791],[8,0]],[[1089,996],[1,-1]],[[1042,3684],[1,-3]],[[1391,0],[15,88]],[[1406,91],[12,48]],[[1455,638],[-5,-7]],[[1496,673],[-3,-2]],[[1496,673],[7,6]],[[1537,710],[-34,-31]],[[1417,140],[1,0],[1,0],[0,1],[-2,-1]],[[1301,3963],[0,-1]],[[1258,4060],[-1,0]],[[1260,4055],[-1,0]],[[1513,1013],[14,-156]],[[1394,4016],[-1,1]],[[1273,3906],[2,19]],[[3391,723],[-5,17]],[[3534,553],[-143,169]],[[3534,552],[26,-137]],[[648,916],[-15,-27]],[[671,959],[-20,-38]],[[1292,4031],[7,0]],[[1581,3699],[0,1],[1,0],[0,-1],[-1,0]],[[1469,649],[-14,-11]],[[3560,1354],[-68,-38]],[[1299,4032],[-18,-2]],[[1291,4031],[1,0]],[[3185,3091],[0,11]],[[1305,4031],[4,0]],[[1638,1143],[-112,29],[-93,68],[-22,2],[-13,-38],[-23,30],[-3,-36],[-81,-8]],[[2172,1277],[-40,-18],[-8,-51],[-74,-73]],[[2397,1239],[-39,-18],[-73,19],[-17,34],[-96,4]],[[3219,1359],[-30,-19],[-118,40],[-48,-157]],[[1275,3926],[0,3]],[[1277,3984]],[[1348,4092],[1,-9]],[[1350,4083],[-1,8]],[[1349,4082],[1,0]],[[631,1659],[2,-2]],[[634,1657],[-3,3]],[[1297,4049],[2,7]],[[1330,4003],[1,-8]],[[1332,3995],[-1,8]],[[1083,1001],[6,-5]],[[2023,2578],[-202,267]],[[1572,3995],[-7,0]],[[2229,4033],[4,-5]],[[1605,3272],[0,5]],[[1821,2845],[-59,160],[-91,94]],[[2308,2320],[-98,146],[-152,53],[-35,59]],[[2302,1561],[141,107],[-62,89],[-65,18],[27,229],[66,32],[-1,157],[-84,87]],[[2324,2280],[-15,40]],[[1301,3962],[-14,-16]],[[1318,0],[65,19]],[[1441,3858],[13,-17]],[[1458,3841],[-14,18]],[[1151,4096],[-12,-69]],[[1139,4027],[13,69]],[[1044,3680],[1,0]],[[1330,3872],[19,-10],[43,-11],[39,-7]],[[1424,3847],[-93,25]],[[3714,676],[-18,-111],[-42,-39]],[[3671,2260],[201,5]],[[1316,3927],[40,-26]],[[1464,4002],[-3,0]],[[1565,3995],[-1,0]],[[1701,3626],[-31,22]],[[1738,3611],[-17,4]],[[1598,715],[-9,-47]],[[1293,3978],[1,1]],[[1294,3985],[-1,-3]],[[1301,3963],[2,2]],[[1331,4000],[-26,6]],[[1348,4010],[-13,-10]],[[1358,4014],[4,2]],[[1375,4021],[4,1]],[[1504,4096],[-3,-9],[-10,-42],[-2,-15],[2,-23],[4,-20],[0,-13]],[[1496,3973],[5,111],[4,12]],[[3255,2957],[-2,-51]],[[446,1677],[57,-26]],[[1481,781],[23,-28]],[[1553,685],[270,-310]],[[1216,3967],[-19,-9]],[[1197,3958],[-5,-2],[-17,-11]],[[1175,3945],[17,10],[5,3]],[[1197,3958],[22,13]],[[454,2854],[-3,9]],[[1295,4042],[-4,-11]],[[1292,4031],[5,18]],[[1299,4056]],[[1331,4003],[-1,0]],[[1361,4018],[26,7]],[[1387,4025],[6,-1]],[[1393,4024],[-6,1]],[[1414,4024],[7,1]],[[1484,4020],[-16,0]],[[1468,4020],[16,0]],[[1300,869],[23,-10]],[[1501,4087],[-26,-14]],[[1484,4073],[10,-13]],[[4037,1617],[-68,-90],[-39,1]],[[321,954],[-101,56]],[[321,954],[2,-5]],[[323,949],[201,-7]],[[556,946],[-26,-5]],[[1391,912],[10,-3]],[[1410,902],[100,-110],[-37,10]],[[1467,795],[14,-14]],[[1504,753],[49,-68]],[[1303,4074],[1,0],[3,22]],[[1307,4096],[-4,-21]],[[1327,4062],[8,-22]],[[3560,1354],[-6,5]],[[1638,1143],[188,-100],[6,40],[76,31],[100,-30],[42,51]],[[2172,1278],[0,-1]],[[2455,1431],[24,-109],[-83,-51],[1,-32]],[[3023,1223],[-33,-5],[-93,143],[-59,7],[-93,107],[-79,41],[-211,-83]],[[3494,1470],[-128,-85],[-79,6],[-68,-32]],[[3703,1494],[-89,19],[-115,-40]],[[3911,1499],[-201,-8]],[[4022,1517],[-92,11]],[[4096,1531],[-74,-14]],[[1274,3950],[0,-6]],[[1274,3944],[0,6]],[[1275,3929],[-1,15]],[[1335,4040],[-8,22]],[[2006,3603],[-21,-4]],[[2347,3568],[-103,7]],[[2618,3423],[-101,79],[-35,-5],[-113,60]],[[1453,2317],[85,-72],[9,-44],[86,-96],[48,-226],[52,-48],[-62,-70],[17,-58],[105,-81],[67,-112]],[[1884,1448],[-10,-71],[57,36],[69,-34],[9,-56],[51,-22],[20,-62],[35,-3]],[[1493,4053],[-1,20],[-3,1]],[[1489,4074],[-2,0],[-32,-2],[-40,24]],[[1397,4096],[57,-24],[21,0],[9,1],[5,1]],[[1489,4074],[8,0],[6,18]],[[706,3686],[-15,-24]],[[711,3693],[-4,-6]],[[826,3802],[-114,-108]],[[706,3686],[1,1],[-1,0],[0,-1]],[[712,3694],[-1,0],[0,-1]],[[711,3693],[1,-1],[0,2]],[[1122,3963],[24,-18]],[[1148,3946],[-24,17]],[[1292,3978],[3,-6]],[[4096,1377],[-36,-14],[-236,-301]],[[4071,1769],[25,7]],[[1260,3988],[19,38]],[[1122,3963],[-1,-30]],[[1124,3938],[0,25]],[[1299,4056],[-4,-14]],[[1265,4069],[38,5]],[[1303,4075],[-38,-5]],[[1299,4056]],[[1084,3335],[-61,-121],[11,-81],[-39,-32],[0,-45],[-34,-19]],[[1022,3656],[13,-45]],[[530,941],[-4,1]],[[526,942],[-1,0]],[[530,941],[-4,1]],[[526,942],[-1,0]],[[1182,3676],[14,-23],[56,2]],[[1407,271],[1,-80]],[[1450,422],[-29,-114]],[[1458,3841],[-34,6]],[[1431,3844],[23,-3]],[[321,954],[2,-5]],[[3317,750],[-51,36],[-20,143],[-74,41],[-12,35],[-105,35],[-15,78],[-51,25],[-9,49]],[[1822,1233],[106,-97]],[[3459,1298],[-12,-11]],[[3492,1316],[-31,-18]],[[1400,3867]],[[1400,3867],[-11,18]],[[1390,3885],[9,-13],[1,-5]],[[1400,3867]],[[1269,4040],[-10,15]],[[1279,4027],[12,4]],[[146,8],[-38,-8]],[[147,8],[-1,0]],[[146,8],[1,-1]],[[148,9],[0,-1]],[[148,9],[7,29]],[[148,8],[0,1]],[[153,43],[2,23]],[[155,66],[1,1]],[[156,68],[-1,-2]],[[157,70],[-1,-1]],[[157,70],[13,55]],[[157,69],[0,1]],[[169,130],[115,150]],[[284,280],[1,0]],[[285,281],[-1,-1]],[[301,282],[41,-77]],[[156,67],[1,1],[-1,1],[-1,-1],[1,-1]],[[988,3729],[0,11]],[[1040,3686],[2,-2]],[[2347,3568],[22,-11]],[[4,2724],[21,-26],[-14,-36]],[[158,2802],[69,41]],[[386,2835],[-1,-1]],[[398,2843],[-7,-2]],[[457,2865],[43,73]],[[760,2931],[47,-31]],[[935,3030],[-41,-71]],[[961,3037],[-16,-3]],[[1380,3869],[18,-27]],[[1415,3815],[10,-6]],[[1595,4002],[28,-10],[8,46]],[[2231,4025],[-49,14],[20,57]],[[2254,4058],[56,38]],[[1381,3869],[-1,0],[0,-1],[1,1]],[[3185,3053],[1,-1]],[[1330,4009],[15,3]],[[2980,1192],[43,31]],[[1433,3797],[4,-9]],[[993,1039],[-4,0]],[[1162,4090],[8,6]],[[1169,4096],[-7,-5]],[[1325,3978],[-11,-8]],[[1240,1128],[-1,-14]],[[1291,1194],[-5,0]],[[1286,1194],[-40,-3],[-1,-1],[6,-113],[-6,-4]],[[1245,1073],[-7,-5],[-2,0]],[[1236,1068],[-42,14],[-12,6],[-7,-2],[-1,-21],[8,-18],[4,-3]],[[1188,1041],[-13,44],[50,-19],[7,1],[4,1]],[[1236,1068],[9,5]],[[1245,1073],[6,3],[-5,113],[1,1],[39,4]],[[1286,1194],[5,0]],[[4022,1517]],[[2455,1433],[0,-2]],[[614,1585],[5,-120],[3,-6],[56,-59]],[[678,1400],[12,-12],[0,-4]],[[690,1384],[2,-59]],[[692,1325],[2,-33]],[[694,1292],[0,-3],[1,-7]],[[695,1282]],[[695,1282],[-1,-12],[0,-7],[3,-6]],[[697,1257],[27,-45]],[[724,1212],[3,-5],[22,-13]],[[749,1194],[-9,9],[-16,9]],[[724,1212],[-20,12],[-7,33]],[[697,1257],[-3,11],[1,8],[0,6]],[[695,1282]],[[695,1282],[-1,9],[0,1]],[[694,1292],[-2,7],[0,26]],[[692,1325],[0,55],[-2,4]],[[690,1384],[-12,16]],[[678,1400],[-12,16],[-46,48],[-6,121]],[[1395,4016],[-1,0]],[[1428,4002]],[[1464,4002],[47,-6]],[[3939,1743],[132,26]],[[1353,909],[38,3]],[[1401,909],[9,-7]],[[1295,3972],[8,-7]],[[1359,3897],[14,-16]],[[1928,1136],[49,-23],[73,22]],[[1294,3982],[0,-3]],[[1295,4000],[-1,-15]],[[4096,1608],[-59,9]],[[1348,4010],[10,4]],[[1364,4016],[11,5]],[[1043,3681],[-21,-25]],[[3570,376],[-11,-68],[-70,-104],[-45,-24],[-43,-135],[-41,22],[-10,-67]],[[1266,1187],[-26,-18],[0,-41]],[[1098,976],[-37,-46],[-24,-930]],[[151,2801],[-130,-17]],[[384,2833],[-90,28],[-67,-18]],[[425,2843],[-8,-2]],[[425,2843],[6,2]],[[431,2846],[-6,-3]],[[780,1151],[4,-15]],[[795,1141],[0,-2]],[[3185,3102],[2,40]],[[1304,4075],[-5,-19]],[[1299,4056],[5,18]],[[1445,577],[36,-14]],[[1481,563],[2,0]],[[1482,564],[-1,-1]],[[1483,562],[-1,-11]],[[1482,551],[3,-8]],[[1483,563],[0,-1]],[[1483,562],[0,2]],[[1352,4070],[-1,0]],[[911,1077],[38,-15]],[[1401,3859],[0,-26]],[[1402,3855],[0,4]],[[1402,3831],[31,-34]],[[1441,3781],[47,-52]],[[1495,3711],[-1,-3]],[[1495,3720],[0,-3]],[[1090,995],[16,-10]],[[1115,980],[6,2]],[[1122,983],[3,0]],[[1638,1143],[57,-8],[11,31],[80,21]],[[1787,1188],[35,45]],[[287,281],[-1,0]],[[286,280],[1,1]],[[287,281],[14,1]],[[1421,4025],[-28,-1]],[[1393,4024],[21,0]],[[1484,4020],[6,-1],[28,-4]],[[1517,4015],[-33,5]],[[1295,4000],[6,2]],[[396,2834],[-12,-57]],[[384,2776],[-24,-104],[31,-189]],[[391,2483],[0,-1],[1,0],[-1,1]],[[391,2482],[-14,-59],[-21,-23],[-35,14],[21,-31],[-77,-59],[9,-60],[-20,-9],[159,-133],[4,-45],[60,-45]],[[530,1964],[11,-165],[67,-72],[14,-50]],[[531,1965],[-1,0],[1,-1],[0,1]],[[1378,3903],[-53,50]],[[1370,3914],[8,-11]],[[1084,3670],[57,22],[41,-16]],[[1252,3655],[60,-22]],[[1325,3953],[-7,12],[-3,3],[-12,10],[-6,3],[-3,1],[-17,2]],[[1290,3982],[80,-68]],[[3225,3046],[21,-27]],[[3253,3065],[-28,-18]],[[3225,3047],[-1,1],[-1,-1],[2,-1]],[[3225,3046],[0,1]],[[3254,3009],[1,-52]],[[3255,3086],[-1,-20]],[[3254,3066],[-1,-1],[1,-1],[1,1],[-1,1]],[[155,39],[-2,4]],[[155,38],[1,1],[-1,0],[0,-1]],[[95,3606],[5,-2]],[[484,3425],[80,-14]],[[3911,1499],[-80,-94],[-138,-43],[-62,18],[-58,-37]],[[3502,575],[-17,-59],[56,-161],[-17,-71],[-1,-17],[4,-15],[-8,-23]],[[3519,229],[-5,-14],[-1,0]],[[3513,215],[-1,-1],[-17,-8],[-5,-5],[-12,-14],[-26,-13],[-8,-9],[-3,-5],[8,-49]],[[3450,112],[-9,48],[37,26],[17,19],[18,9],[0,1]],[[3513,215],[6,14]],[[3519,229],[9,23],[14,102],[-56,162],[16,59]],[[3541,870],[10,59],[1,51],[-14,133],[-68,178],[-12,15]],[[3458,1306],[-1,2],[37,19]],[[3539,865],[-36,-287]],[[3504,578],[35,287]],[[3508,1331],[-50,-25]],[[3458,1306],[-1,-1],[80,-187],[4,-248]],[[1288,4018],[-9,9]],[[1312,3633],[16,-6]],[[342,205],[71,-66],[31,150],[53,117],[28,1],[20,224]],[[546,632],[20,-7],[19,105]],[[546,631],[0,1],[-1,-1],[1,0]],[[1495,3974],[-54,-116]],[[1444,3859],[52,114]],[[1575,3705],[5,-2]],[[3710,1491],[-7,3]],[[1330,4021],[0,-9]],[[1494,3708],[-7,-116]],[[1250,4072]],[[1377,4072],[-5,-2],[-11,-8]],[[1361,4062],[16,10]],[[1400,3867],[1,-8]],[[1402,3859],[-2,8]],[[1125,995],[57,37],[-12,64],[37,-19],[32,37]],[[1125,992],[0,2]],[[1250,4072],[15,-3]],[[1265,4070],[-15,2]],[[3570,376],[63,-24],[90,-132],[34,-15],[39,-89],[-40,-89],[36,-27]],[[1459,669],[95,-51],[-31,1],[-9,-1],[5,-31],[9,-24],[12,-18],[14,-15],[43,-76],[38,-94],[-77,-38],[44,-30],[91,-10],[63,21],[16,-77],[-35,-146],[17,-80],[-693,0],[18,28],[25,17],[28,5],[34,0],[11,18],[-2,39],[3,39],[27,18],[110,3],[47,24],[-26,58],[38,55],[16,35],[6,35],[-7,33],[-10,31],[3,31],[32,36],[5,46],[-2,36],[-15,24],[-28,7],[43,47],[42,4]],[[696,0],[-41,50],[-26,51],[-2,61],[32,87],[32,56],[41,42],[53,14],[70,-27],[23,-49],[-10,-166],[7,-100],[5,-19],[-184,0]],[[0,4096],[4096,0],[0,-4096],[-1791,0],[-3,19],[-30,50],[-44,35],[-179,97],[-315,247],[-149,198],[-40,23],[-49,52],[-22,57],[40,39],[-33,35],[-107,79],[53,-63],[9,-7],[-10,-33],[-26,-17],[-29,0],[-26,20],[-40,46],[-315,162],[-113,25],[-52,29],[-47,10],[-53,-42],[-60,-98],[-55,-126],[-39,-143],[-31,-289],[-38,-132],[-2,-7],[-5,-15],[-68,-96],[-87,34],[47,-58],[-7,-62],[-37,-59],[-9,-10],[-334,0],[0,4096]],[[1288,4096],[49,0],[23,-9],[-11,-25],[28,10],[17,-49],[84,5],[9,-6],[-86,-65],[-10,34],[-68,-20],[58,-67],[-29,-10],[-2,-26],[-9,7],[-3,-4],[-7,4],[23,24],[-35,26],[0,-45],[-13,41],[-29,-24],[1,29],[-48,-4],[-11,42],[-8,-31],[-27,3],[93,91],[-31,36],[-81,24],[20,9],[69,0],[22,-24],[12,24]],[[4096,331],[0,-331],[-62,0],[-322,423],[79,53],[200,-56],[58,-88],[47,-1]],[[394,2677],[73,116],[10,62],[105,-88],[47,-1],[-20,-77],[-120,-55],[-51,-5],[-44,48]],[[1456,417],[-68,59],[26,29],[-10,102],[36,29],[78,-41],[-62,-178]],[[1283,1279],[11,-122],[65,-139],[120,8],[56,-21],[24,-114],[-57,-62],[-128,102],[62,-70],[-10,-33],[-55,-17],[-66,66],[-315,162],[-212,64],[-53,-42],[-94,-177],[-55,48],[18,121],[99,118],[342,125],[32,-139],[39,-2],[58,94],[88,11],[9,36],[22,-17]],[[3289,3057],[11,-143],[-53,-9],[-76,101],[-33,0],[26,77],[65,24],[60,-50]],[[1182,4096],[416,0],[-13,-165],[-97,46],[-97,-92],[-81,-18],[-243,64],[18,56],[111,83],[-14,26]],[[2522,613],[20,21],[175,-57],[-44,-52],[-99,0],[-52,88]],[[3479,2621],[52,88],[73,60],[239,103],[51,54],[202,13],[0,-419],[-64,-10],[29,-134],[35,-5],[0,-12],[-61,-49],[-147,31],[-82,174],[-57,-99],[1,57],[42,40],[-21,88],[-51,2],[-61,-80],[12,-89],[-50,62],[15,37],[-34,-2],[0,-22],[19,13],[-20,-20],[-6,12],[9,-30],[-34,27],[-14,74],[-40,-12],[-6,40],[-31,8]],[[4096,3011],[-8,24],[8,1],[0,-25]],[[170,1064],[49,144],[252,12],[122,-72],[-37,-192],[-1,-157],[-44,-92],[-7,-109],[-93,-301],[-35,-6],[-53,51],[45,94],[-32,107],[7,60],[-108,145],[28,216],[-93,100]],[[1418,1594],[23,39],[97,-76],[16,-47],[72,104],[50,-50],[-8,-28],[33,-49],[155,11],[9,26],[-25,18],[19,39],[-43,18],[-13,71],[-42,8],[1,20],[69,37],[36,105],[40,-52],[-38,-16],[32,-25],[10,-53],[-22,3],[-2,-62],[28,-68],[-17,-2],[27,-14],[-26,-9],[17,-29],[-35,-72],[-61,-13],[4,-76],[-27,-28],[-17,16],[-66,-35],[-21,16],[-66,-20],[-209,293]]]}