{"objects":{"water":{"type":"GeometryCollection","geometries":[{"type":"Polygon","properties":{"source":"naturalearthdata.com","kind":"ocean","area":1576712559132672,"sort_rank":200,"min_zoom":0.0,"id":1},"arcs":[[3],[4],[5],[6],[7],[8],[9],[10],[11],[12],[13],[14],[15],[16],[17]]},{"type":"MultiLineString","properties":{"source":"naturalearthdata.com","kind":"ocean","sort_rank":205,"boundary":true,"min_zoom":0.0,"id":19},"arcs":[[18],[19],[20],[21]]},{"type":"MultiLineString","properties":{"source":"naturalearthdata.com","kind":"ocean","sort_rank":205,"boundary":true,"min_zoom":0.0,"id":1103},"arcs":[[22],[23]]},{"type":"LineString","properties":{"source":"naturalearthdata.com","kind":"ocean","sort_rank":205,"boundary":true,"min_zoom":0.0,"id":1104},"arcs":[24]},{"type":"LineString","properties":{"source":"naturalearthdata.com","kind":"ocean","sort_rank":205,"boundary":true,"min_zoom":0.0,"id":1107},"arcs":[25]},{"type":"LineString","properties":{"source":"naturalearthdata.com","kind":"ocean","sort_rank":205,"boundary":true,"min_zoom":0.0,"id":1110},"arcs":[26]},{"type":"LineString","properties":{"source":"naturalearthdata.com","kind":"ocean","sort_rank":205,"boundary":true,"min_zoom":0.0,"id":1111},"arcs":[27]},{"type":"MultiLineString","properties":{"source":"naturalearthdata.com","kind":"ocean","sort_rank":205,"boundary":true,"min_zoom":0.0,"id":1112},"arcs":[[28],[29]]},{"type":"LineString","properties":{"source":"naturalearthdata.com","kind":"ocean","sort_rank":205,"boundary":true,"min_zoom":0.0,"id":1113},"arcs":[30]},{"type":"LineString","properties":{"source":"naturalearthdata.com","kind":"ocean","sort_rank":205,"boundary":true,"min_zoom":0.0,"id":1114},"arcs":[31]},{"type":"LineString","properties":{"source":"naturalearthdata.com","kind":"ocean","sort_rank":205,"boundary":true,"min_zoom":0.0,"id":3608},"arcs":[32]},{"type":"LineString","properties":{"source":"naturalearthdata.com","kind":"ocean","sort_rank":205,"boundary":true,"min_zoom":0.0,"id":3609},"arcs":[33]},{"type":"LineString","properties":{"source":"naturalearthdata.com","kind":"ocean","sort_rank":205,"boundary":true,"min_zoom":0.0,"id":3610},"arcs":[34]},{"type":"LineString","properties":{"source":"naturalearthdata.com","kind":"ocean","sort_rank":205,"boundary":true,"min_zoom":0.0,"id":3756},"arcs":[35]}]},"buildings":{"type":"GeometryCollection","geometries":[]},"places":{"type":"GeometryCollection","geometries":[{"type":"Point","properties":{"kind":"locality","name":"Zadar","name:lt":"Zadaras","kind_detail":"city","old_name:hu":"Z\u00e1ra","name:sr":"\u0417\u0430\u0434\u0430\u0440","source":"openstreetmap.org","min_zoom":8.0,"name:la":"Iadera","name:it":"Zara","old_name":"Iader","name:ru":"\u0417\u0430\u0434\u0430\u0440","name:hu":"Z\u00e1ra","id":1832917478,"population":71471},"coordinates":[3407,128]},{"type":"Point","properties":{"kind":"locality","name":"Gospi\u0107","name:lt":"Gospi\u010dius","kind_detail":"town","name:de":"Gospitsch","source":"openstreetmap.org","min_zoom":8.0,"name:sr":"\u0413\u043e\u0441\u043f\u0438\u045b","name:ru":"\u0413\u043e\u0441\u043f\u0438\u0447","name:hu":"Goszpics","id":549267536,"population":6575},"coordinates":[3817,1880]},{"type":"Point","properties":{"kind":"locality","name":"Mali Lo\u0161inj","name:lt":"Mali Lo\u0161inis","kind_detail":"town","name:de":"Klein-L\u00f6tzing","source":"openstreetmap.org","min_zoom":8.0,"name:it":"Lussinpiccolo","name:ru":"\u041c\u0430\u043b\u0438-\u041b\u043e\u0448\u0438\u043d\u044c","name:sr":"\u041c\u0430\u043b\u0438 \u041b\u043e\u0448\u0438\u045a","id":64412522,"population":6091},"coordinates":[1184,1817]},{"type":"Point","properties":{"kind":"locality","name":"Senj","name:lt":"Senis","kind_detail":"town","name:de":"Zengg","source":"openstreetmap.org","min_zoom":8.0,"name:la":"Senia","name:it":"Segna","name:ru":"\u0421\u0435\u043d\u044c","name:sr":"\u0421\u0435\u045a","name:hu":"Zengg","id":341477322,"population":4810},"coordinates":[2448,3690]},{"type":"Point","properties":{"kind":"locality","name":"Oto\u010dac","kind_detail":"town","name:de":"Ottocan","source":"openstreetmap.org","min_zoom":8.0,"name:sr":"\u041e\u0442\u043e\u0447\u0430\u0446","name:ru":"\u041e\u0442\u043e\u0447\u0430\u0446","name:hu":"Otocs\u00e1n","id":556791080,"population":4240},"coordinates":[3410,3200]},{"type":"Point","properties":{"kind":"locality","name":"Krk","name:lt":"Krkas","kind_detail":"town","name:sr":"\u041a\u0440\u043a","source":"openstreetmap.org","min_zoom":8.0,"name:it":"Veglia","name:ru":"\u041a\u0440\u043a","id":247369379,"population":3730},"coordinates":[1496,3839]},{"type":"Point","properties":{"kind":"locality","name":"Pag","kind_detail":"town","name:sr":"\u041f\u0430\u0433","source":"openstreetmap.org","min_zoom":8.0,"name:it":"Pago","name:ru":"\u041f\u0430\u0433","id":1598928451,"population":2849},"coordinates":[2896,1461]},{"type":"Point","properties":{"kind":"locality","name":"Novalja","name:lt":"Novalia","kind_detail":"town","id":253901428,"source":"openstreetmap.org","min_zoom":8.0,"name:it":"Novaglia","name:ru":"\u041d\u043e\u0432\u0430\u043b\u044f","name:sr":"\u041d\u043e\u0432\u0430\u0459\u0430","old_name:de":"Navala","population":2358},"coordinates":[2394,1916]},{"type":"Point","properties":{"kind":"locality","name":"Cres","name:lt":"Cresas","kind_detail":"town","name:sr":"\u0426\u0440\u0435\u0441","source":"openstreetmap.org","min_zoom":8.0,"name:it":"Cherso","name:uk":"\u0426\u0440\u0435\u0441","name:ru":"\u0426\u0440\u0435\u0441","id":60648272,"population":2289},"coordinates":[1008,3570]},{"type":"Point","properties":{"kind":"locality","name":"Nin","kind_detail":"town","name:sr":"\u041d\u0438\u043d","source":"openstreetmap.org","min_zoom":8.0,"name:it":"Nona","name:ru":"\u041d\u0438\u043d","id":455570662,"population":1132},"coordinates":[3267,636]},{"type":"Point","properties":{"kind":"locality","name":"Rab","name:lt":"Rabas","kind_detail":"town","source":"openstreetmap.org","min_zoom":8.0,"name:it":"Arbe","name:uk":"\u0420\u0430\u0431","nat_name":"Grad Rab","name:ru":"\u0420\u0430\u0431","id":91800068,"population":437},"coordinates":[2031,2741]}]},"transit":{"type":"GeometryCollection","geometries":[{"type":"MultiLineString","properties":{"kind":"train","network":"H\u017d ICN","service":"long_distance","sort_rank":275,"colour":"#9D9D9D","name":"ICN Zagreb-Split","source":"openstreetmap.org","min_zoom":5.0,"operator":"H\u017d","ref":"ICN","osm_relation":true,"colour_name":"darkseagreen"},"arcs":[[1],[2]]}]},"pois":{"type":"GeometryCollection","geometries":[{"type":"Point","properties":{"kind":"nature_reserve","protect_class":"4","area":4003740000,"name:de":"Naturpark Velebit","source":"openstreetmap.org","min_zoom":6.31,"tier":2,"id":-6722980,"osm_relation":true,"name":"Park prirode Velebit"},"coordinates":[3222,1832]}]},"boundaries":{"type":"GeometryCollection","geometries":[{"type":"LineString","properties":{"name:kg":"Kroatia","name:ka":"\u10ee\u10dd\u10e0\u10d5\u10d0\u10e2\u10d8\u10d0","name:ko":"\ud06c\ub85c\uc544\ud2f0\uc544","name:kn":"\u0c95\u0ccd\u0cb0\u0cca\u0caf\u0cc6\u0cb6\u0cbf\u0caf","name:cu":"\u0425\u0440\u044a\u0432\u0430\u0442\u044c\u0441\u043a\u0430","name:kl":"Kroatia","name:cs":"Chorvatsko","name:tt":"\u0425\u043e\u0440\u0432\u0430\u0442\u0438\u044f","name:kw":"Kroati","name:kv":"\u0425\u043e\u0440\u0432\u0430\u0442\u0438\u044f","name:ku":"Kroatya","name:tl":"Kroasya","name:ce":"\u0425\u043e\u0440\u0432\u0430\u0442\u0438","name:ta":"\u0b95\u0bc1\u0bb0\u0bcb\u0bb5\u0bbe\u0b9a\u0bbf\u0baf\u0bbe","name:tg":"\u0425\u043e\u0440\u0432\u0430\u0442\u0438\u044f","name:ca":"Cr\u00f2acia","name:te":"\u0c15\u0c4d\u0c30\u0c4a\u0c2f\u0c47\u0c37\u0c3f\u0c2f\u0c3e","name:cy":"Croatia","name:da":"Kroatien","name:de":"Kroatien","source":"openstreetmap.org","name:dv":"\u0786\u07aa\u0783\u07ae\u0787\u07ad\u079d\u07a8\u0787\u07a7","name:lv":"Horv\u0101tija","name:lt":"Kroatija","name:uz":"Xorvatiya","name:kk":"\u0425\u043e\u0440\u0432\u0430\u0442\u0438\u044f","name:ur":"\u06a9\u0631\u0648\u0634\u06cc\u0627","name:lb":"Kroatien","name:la":"Croatia","name:uk":"\u0425\u043e\u0440\u0432\u0430\u0442\u0456\u044f","name:ug":"\u0643\u0631\u0648\u062f\u0649\u064a\u06d5","name:li":"Kroati\u00eb","name:ln":"Kroasia","name:el":"\u039a\u03c1\u03bf\u03b1\u03c4\u03af\u03b1","name:eo":"Kroatujo","name:en":"Croatia","name":"Hrvatska","name:tk":"Horwati\u00fda","name:ee":"Croatia","name:th":"\u0e1b\u0e23\u0e30\u0e40\u0e17\u0e28\u0e42\u0e04\u0e23\u0e40\u0e2d\u0e40\u0e0a\u0e35\u0e22","name:eu":"Kroazia","name:et":"Horvaatia","name:es":"Croacia","name:ia":"Croatia","name:rn":"Croacia","name:az":"Xorvatiya","name:ie":"Croatia","name:id":"Kroasia","name:ar":"\u0643\u0631\u0648\u0627\u062a\u064a\u0627","name:io":"Kroatia","name:is":"Kr\u00f3at\u00eda","name:am":"\u12ad\u122e\u12a4\u123d\u12eb","name:it":"Croazia","name:an":"Croacia","name:ru":"\u0425\u043e\u0440\u0432\u0430\u0442\u0438\u044f","name:ab":"\u0425\u043e\u0440\u0432\u0430\u0442\u0438\u0430","name:af":"Kroasi\u00eb","kind_detail":"2","name:za":"Gwzlozdiya","name:zh-yue":"\u514b\u7f85\u5730\u4e9e","name:zh":"\u514b\u7f85\u5730\u4e9e","name:so":"Kroatia","name:sm":"Croatia","name:sl":"Hrva\u0161ka","name:sk":"Chorv\u00e1tsko","name:ja":"\u30af\u30ed\u30a2\u30c1\u30a2","name:sg":"Kroas\u00efi","name:se":"Kroatia","name:sc":"Croatzia","name:br":"Kroatia","name:bn":"\u0995\u09cd\u09b0\u09cb\u09af\u09bc\u09c7\u09b6\u09bf\u09af\u09bc\u09be","name:bo":"\u0f41\u0f74\u0f62\u0f7c\u0f0b\u0f64\u0f72\u0f0b\u0f61\u0f0d","name:sa":"\u0915\u094d\u0930\u094b\u090f\u0936\u093f\u092f\u093e","name:sw":"Kroatia","name:be":"\u0425\u0430\u0440\u0432\u0430\u0442\u044b\u044f","name:su":"Kroasia","name:bg":"\u0425\u044a\u0440\u0432\u0430\u0442\u0438\u044f","name:ss":"IKhuroshiya","name:ba":"\u0425\u043e\u0440\u0432\u0430\u0442\u0438\u044f","name:sq":"Kroacia","name:jv":"Kroasia","name:bi":"Croatia","name:pt":"Cro\u00e1cia","name:ps":"\u06a9\u0631\u0648\u0648\u0627\u0633\u064a\u0627","name:oc":"Cro\u00e0cia","min_zoom":8.0,"name:ro":"Croa\u021bia","name:pa":"\u0a15\u0a4d\u0a30\u0a4b\u0a0f\u0a38\u0a3c\u0a40\u0a06","name:os":"\u0425\u043e\u0440\u0432\u0430\u0442\u0438","name:or":"\u0b15\u0b4d\u0b30\u0b4b\u0b0f\u0b38\u0b3f\u0b06","name:pl":"Chorwacja","name:st":"Kroatia","sort_rank":262,"name:sr":"\u0425\u0440\u0432\u0430\u0442\u0441\u043a\u0430","osm_relation":true,"name:tr":"H\u0131rvatistan","name:hi":"\u0915\u094d\u0930\u094b\u090f\u0936\u093f\u092f\u093e","name:sv":"Kroatien","name:he":"\u05e7\u05e8\u05d5\u05d0\u05d8\u05d9\u05d4","name:hy":"\u053d\u0578\u0580\u057e\u0561\u0569\u056b\u0561","name:ht":"Kroasi","name:hu":"Horv\u00e1torsz\u00e1g","name:qu":"Hurwatsuyu","kind":"country","name:yi":"\u05e7\u05e8\u05d0\u05d0\u05d8\u05d9\u05e2","name:yo":"Kroat\u00ed\u00e0","name:mt":"Kroazja","alt_name:eo":"Kroatio","name:ms":"Croatia","name:mr":"\u0915\u094d\u0930\u094b\u090f\u0936\u093f\u092f\u093e","name:my":"\u1001\u101b\u102d\u102f\u1021\u1031\u1038\u101b\u103e\u102c\u1038\u1014\u102d\u102f\u1004\u103a\u1004\u1036","official_name":"Republika Hrvatska","int_name":"Croatia","name:vi":"Croatia","name:ml":"\u0d15\u0d4d\u0d30\u0d4a\u0d2f\u0d47\u0d37\u0d4d\u0d2f","name:mn":"\u0425\u043e\u0440\u0432\u0430\u0442","name:mi":"Koro\u0101tia","id":-214885,"name:mk":"\u0425\u0440\u0432\u0430\u0442\u0441\u043a\u0430","name:vo":"Kroas\u00e4n","name:fa":"\u06a9\u0631\u0648\u0627\u0633\u06cc","name:rw":"Korowatiya","name:fi":"Kroatia","name:ky":"\u0425\u043e\u0440\u0432\u0430\u0442\u0438\u044f","name:fo":"Kroatia","name:fr":"Croatie","name:fy":"Kroaasje","name:nl":"Kroati\u00eb","name:nn":"Kroatia","name:no":"Kroatia","name:na":"Kroaitsiya","name:ne":"\u0915\u094d\u0930\u094b\u090f\u0936\u093f\u092f\u093e","name:wa":"Crowaceye","name:wo":"Korwaasi","name:nv":"Kw\u00f3\u00f3\u02bcad Bik\u00e9yah","name:ga":"An Chr\u00f3it","name:gd":"Cro\u00e0isia","name:gn":"Kyoasia","name:gl":"Croacia","maritime_boundary":true,"name:gv":"Yn Chroit","name:gu":"\u0a95\u0acd\u0ab0\u0acb\u0a8f\u0ab6\u0abf\u0aaf\u0abe"},"arcs":[0]}]},"roads":{"type":"GeometryCollection","geometries":[{"type":"LineString","properties":{"kind":"ferry","name":"Zadar - I\u017e - Rava","sort_rank":355,"source":"openstreetmap.org","min_zoom":8.0,"ref":"405","id":-2389490,"osm_relation":true},"arcs":[36]},{"type":"LineString","properties":{"kind":"major_road","network":"Dr\u017eavne ceste","sort_rank":380,"kind_detail":"primary","source":"openstreetmap.org","min_zoom":8.0,"landuse_kind":"nature_reserve","shield_text":"405","id":291612586},"arcs":[37]},{"type":"LineString","properties":{"source":"openstreetmap.org","kind":"ferry","name":"Unije - Susak","sort_rank":355,"ref":"310","min_zoom":8.0,"id":110378641},"arcs":[38]},{"type":"LineString","properties":{"source":"openstreetmap.org","kind":"ferry","name":"Novalja (Pag) - Rab (Rab)","sort_rank":355,"ref":"638","min_zoom":8.0,"id":72676047},"arcs":[39]},{"type":"LineString","properties":{"source":"openstreetmap.org","kind":"ferry","name":"Zadar - Rivanj","sort_rank":355,"ref":"9404","min_zoom":8.0,"id":179041212},"arcs":[40]},{"type":"LineString","properties":{"source":"openstreetmap.org","kind":"ferry","sort_rank":355,"ref":"9404","min_zoom":8.0,"id":179024957},"arcs":[41]},{"type":"LineString","properties":{"source":"openstreetmap.org","kind":"ferry","name":"Trieste - Durr\u00ebs","sort_rank":355,"min_zoom":8.0,"name:it":"Trieste - Durazzo"},"arcs":[42]},{"type":"MultiLineString","properties":{"kind":"major_road","network":"Dr\u017eavne ceste","sort_rank":380,"kind_detail":"primary","source":"openstreetmap.org","min_zoom":8.0,"shield_text":"422","ref":"D422"},"arcs":[[43],[44]]},{"type":"MultiLineString","properties":{"kind":"major_road","network":"Dr\u017eavne ceste","sort_rank":380,"kind_detail":"primary","source":"openstreetmap.org","min_zoom":8.0,"old_name":"Jadranska","shield_text":"8","landuse_kind":"urban_area","ref":"D8"},"arcs":[[45],[46]]},{"type":"LineString","properties":{"sort_rank":355,"source":"openstreetmap.org","min_zoom":8.0,"name":"Ilovik - Silba","kind":"ferry"},"arcs":[47]},{"type":"LineString","properties":{"kind":"major_road","network":"Dr\u017eavne ceste","sort_rank":380,"kind_detail":"primary","source":"openstreetmap.org","min_zoom":8.0,"shield_text":"66","ref":"D66","id":215848210},"arcs":[48]},{"type":"LineString","properties":{"kind":"major_road","network":"Dr\u017eavne ceste","sort_rank":380,"kind_detail":"primary","source":"openstreetmap.org","min_zoom":8.0,"landuse_kind":"nature_reserve","shield_text":"25","ref":"D25"},"arcs":[49]},{"type":"LineString","properties":{"kind":"major_road","network":"Dr\u017eavne ceste","sort_rank":380,"kind_detail":"primary","source":"openstreetmap.org","min_zoom":8.0,"landuse_kind":"nature_reserve","shield_text":"405","ref":"D405"},"arcs":[50]},{"type":"MultiLineString","properties":{"kind":"major_road","name:en":"Adriatic Road","network":"Dr\u017eavne ceste","sort_rank":380,"kind_detail":"primary","source":"openstreetmap.org","min_zoom":8.0,"landuse_kind":"nature_reserve","shield_text":"8","ref":"D8"},"arcs":[[51],[52],[53]]},{"type":"MultiLineString","properties":{"sort_rank":380,"kind_detail":"primary","min_zoom":8.0,"kind":"major_road","source":"openstreetmap.org"},"arcs":[[54],[55],[56]]},{"type":"MultiLineString","properties":{"kind":"highway","network":"Autoceste","sort_rank":383,"kind_detail":"motorway","reg_name":"Dalmatina","source":"openstreetmap.org","min_zoom":8.0,"all_networks":["Autoceste","e-road"],"shield_text":"1","ref":"A1","all_shield_texts":["1","71"]},"arcs":[[57],[58],[59],[60],[61],[62]]},{"type":"MultiLineString","properties":{"source":"openstreetmap.org","kind":"ferry","name":"Zadar - Sestrunj - Molat - Ist","sort_rank":355,"ref":"433","min_zoom":8.0,"osm_relation":true},"arcs":[[63],[64],[65],[66],[67],[68],[69],[70],[71],[72],[73],[74],[75],[76],[77],[78]]},{"type":"MultiLineString","properties":{"source":"openstreetmap.org","kind":"ferry","name":"Zadar - Olib","sort_rank":355,"min_zoom":8.0,"id":179030093},"arcs":[[79],[80]]},{"type":"MultiLineString","properties":{"source":"openstreetmap.org","kind":"ferry","name":"Zadar - Rivanj","sort_rank":355,"min_zoom":8.0,"id":335795665},"arcs":[[81],[82]]},{"type":"LineString","properties":{"source":"openstreetmap.org","kind":"ferry","name":"Misniak - Stinica","sort_rank":355,"min_zoom":8.0,"id":25626587},"arcs":[83]},{"type":"LineString","properties":{"kind":"major_road","network":"Dr\u017eavne ceste","sort_rank":380,"kind_detail":"primary","source":"openstreetmap.org","min_zoom":8.0,"shield_text":"405","ref":"D405","id":291611741},"arcs":[84]},{"type":"LineString","properties":{"kind":"ferry","name":"Prizna - \u017digljen (Pag)","sort_rank":355,"landuse_kind":"nature_reserve","is_bicycle_related":true,"source":"openstreetmap.org","min_zoom":8.0,"ref":"335","id":23446604},"arcs":[85]},{"type":"LineString","properties":{"kind":"major_road","network":"Dr\u017eavne ceste","sort_rank":380,"kind_detail":"primary","source":"openstreetmap.org","min_zoom":8.0,"shield_text":"502","ref":"D502"},"arcs":[86]},{"type":"LineString","properties":{"kind":"major_road","network":"Dr\u017eavne ceste","sort_rank":380,"kind_detail":"primary","source":"openstreetmap.org","min_zoom":8.0,"shield_text":"56","ref":"D56"},"arcs":[87]},{"type":"MultiLineString","properties":{"source":"openstreetmap.org","kind":"ferry","sort_rank":355,"ref":"401","min_zoom":8.0,"osm_relation":true},"arcs":[[88],[89],[90],[91],[92],[93],[94],[95]]},{"type":"LineString","properties":{"kind":"ferry","name":"Zadar - Sali - Zaglav","sort_rank":355,"source":"openstreetmap.org","min_zoom":8.0,"ref":"405a","id":-2389411,"osm_relation":true},"arcs":[96]},{"type":"LineString","properties":{"kind":"major_road","network":"Dr\u017eavne ceste","sort_rank":380,"kind_detail":"primary","bus_network":"local","source":"openstreetmap.org","min_zoom":8.0,"bus_shield_text":"1","shield_text":"407","id":146379465},"arcs":[97]},{"type":"LineString","properties":{"source":"openstreetmap.org","kind":"major_road","sort_rank":380,"kind_detail":"primary","ref":"D104","min_zoom":8.0,"id":172162739},"arcs":[98]},{"type":"LineString","properties":{"source":"openstreetmap.org","kind":"ferry","name":"MALI LO\u0160INJ - ILOVIK -SUSAK - UNIJE - MARTIN\u0160\u0106ICA - CRES - RIJEKA","sort_rank":355,"min_zoom":8.0,"id":126768120},"arcs":[99]},{"type":"LineString","properties":{"kind":"major_road","network":"Dr\u017eavne ceste","sort_rank":380,"kind_detail":"primary","source":"openstreetmap.org","min_zoom":8.0,"shield_text":"52","ref":"D52"},"arcs":[100]},{"type":"LineString","properties":{"source":"openstreetmap.org","kind":"ferry","name":"Zadar - Sali (Dugi Otok) - Zaglav (Dugi Otok) - Br\u0161anj (I\u017e)","sort_rank":355,"ref":"9406","min_zoom":8.0,"osm_relation":true},"arcs":[101]},{"type":"LineString","properties":{"kind":"major_road","network":"Dr\u017eavne ceste","sort_rank":380,"kind_detail":"primary","is_bicycle_related":true,"bicycle_shield_text":"2","bicycle_network":"lcn","source":"openstreetmap.org","min_zoom":8.0,"shield_text":"52","ref":"D52"},"arcs":[102]},{"type":"LineString","properties":{"kind":"major_road","network":"Dr\u017eavne ceste","sort_rank":380,"kind_detail":"primary","is_bicycle_related":true,"bicycle_shield_text":null,"bicycle_network":"lcn","source":"openstreetmap.org","min_zoom":8.0,"shield_text":"422","ref":"D422"},"arcs":[103]},{"type":"LineString","properties":{"bus_network":"local","network":"Dr\u017eavne ceste","sort_rank":380,"kind_detail":"primary","kind":"major_road","source":"openstreetmap.org","min_zoom":8.0,"bus_shield_text":"4","shield_text":"407","landuse_kind":"urban_area","ref":"D407"},"arcs":[104]},{"type":"LineString","properties":{"bus_network":"local","network":"Dr\u017eavne ceste","sort_rank":380,"kind_detail":"primary","kind":"major_road","source":"openstreetmap.org","min_zoom":8.0,"bus_shield_text":"2","shield_text":"407","ref":"D407"},"arcs":[105]},{"type":"MultiLineString","properties":{"kind":"major_road","network":"Dr\u017eavne ceste","sort_rank":380,"kind_detail":"primary","is_bicycle_related":true,"bicycle_shield_text":"N1","bicycle_network":"ncn","source":"openstreetmap.org","min_zoom":8.0,"shield_text":"50","ref":"D50"},"arcs":[[106],[107],[108],[109],[110],[111],[112]]},{"type":"MultiLineString","properties":{"kind":"major_road","network":"Dr\u017eavne ceste","sort_rank":380,"kind_detail":"primary","is_bicycle_related":true,"bicycle_shield_text":null,"bicycle_network":"lcn","source":"openstreetmap.org","min_zoom":8.0,"shield_text":"100","ref":"D100"},"arcs":[[113],[114],[115],[116]]},{"type":"MultiLineString","properties":{"kind":"highway","network":"Autoceste","sort_rank":383,"kind_detail":"motorway","reg_name":"Dalmatina","name:de":"Br\u00fcndl","source":"openstreetmap.org","min_zoom":8.0,"all_networks":["Autoceste","e-road"],"shield_text":"1","ref":"A1","all_shield_texts":["1","71"]},"arcs":[[117],[118]]},{"type":"LineString","properties":{"source":"openstreetmap.org","kind":"ferry","name":"Pula - Unije","sort_rank":355,"min_zoom":8.0,"id":178632651},"arcs":[119]},{"type":"LineString","properties":{"source":"openstreetmap.org","kind":"ferry","name":"Zadar - Sali","sort_rank":355,"min_zoom":8.0,"id":179044169},"arcs":[120]},{"type":"MultiLineString","properties":{"kind":"major_road","network":"Dr\u017eavne ceste","sort_rank":380,"kind_detail":"primary","source":"openstreetmap.org","min_zoom":8.0,"shield_text":"25","ref":"D25"},"arcs":[[121],[122]]},{"type":"LineString","properties":{"source":"openstreetmap.org","kind":"major_road","sort_rank":380,"kind_detail":"primary","ref":"D109","min_zoom":8.0,"id":172684008},"arcs":[123]},{"type":"LineString","properties":{"source":"openstreetmap.org","kind":"ferry","name":"Venezia-Patras","sort_rank":355,"is_bicycle_related":true,"min_zoom":8.0},"arcs":[124]},{"type":"LineString","properties":{"source":"openstreetmap.org","kind":"ferry","name":"Zadar - Premuda","sort_rank":355,"min_zoom":8.0,"id":154070386},"arcs":[125]},{"type":"MultiLineString","properties":{"kind":"major_road","network":"Dr\u017eavne ceste","sort_rank":380,"kind_detail":"primary","source":"openstreetmap.org","min_zoom":8.0,"shield_text":"100","ref":"D100"},"arcs":[[126],[127],[128],[129],[130],[131],[132],[133],[134],[135],[136],[137]]},{"type":"MultiLineString","properties":{"source":"openstreetmap.org","kind":"ferry","name":"Zadar - Ist","sort_rank":355,"min_zoom":8.0,"id":179030086},"arcs":[[138],[139]]},{"type":"MultiLineString","properties":{"kind":"highway","network":"Autoceste","sort_rank":383,"kind_detail":"motorway","reg_name":"Dalmatina","source":"openstreetmap.org","min_zoom":8.0,"all_networks":["Autoceste","e-road","e-road"],"shield_text":"1","ref":"A1","all_shield_texts":["1","65","71"]},"arcs":[[140],[141],[142],[143],[144],[145],[146],[147],[148],[149],[150],[151],[152],[153],[154],[155],[156],[157],[158],[159],[160],[161],[162],[163],[164],[165],[166],[167],[168],[169]]},{"type":"LineString","properties":{"sort_rank":355,"source":"openstreetmap.org","min_zoom":8.0,"name":"Molat - Kosira\u010da","kind":"ferry"},"arcs":[170]},{"type":"LineString","properties":{"kind":"major_road","network":"Dr\u017eavne ceste","sort_rank":380,"kind_detail":"primary","source":"openstreetmap.org","min_zoom":8.0,"shield_text":"109","ref":"D109"},"arcs":[171]},{"type":"MultiLineString","properties":{"kind":"major_road","network":"Dr\u017eavne ceste","sort_rank":380,"kind_detail":"primary","source":"openstreetmap.org","min_zoom":8.0,"shield_text":"102","ref":"D102"},"arcs":[[172],[173],[174],[175]]},{"type":"MultiLineString","properties":{"kind":"major_road","network":"Dr\u017eavne ceste","sort_rank":380,"kind_detail":"primary","source":"openstreetmap.org","min_zoom":8.0,"landuse_kind":"nature_reserve","shield_text":"23","ref":"D23"},"arcs":[[176],[177],[178],[179],[180],[181]]},{"type":"LineString","properties":{"source":"openstreetmap.org","kind":"ferry","name":"Silba - Premuda","sort_rank":355,"min_zoom":8.0,"id":154070394},"arcs":[182]},{"type":"LineString","properties":{"source":"openstreetmap.org","kind":"ferry","name":"O\u0161ljak - Zadar","sort_rank":355,"ref":"431","min_zoom":8.0,"id":119280397},"arcs":[183]},{"type":"MultiLineString","properties":{"kind":"major_road","network":"Dr\u017eavne ceste","sort_rank":381,"kind_detail":"trunk","source":"openstreetmap.org","min_zoom":8.0,"shield_text":"424","ref":"D424"},"arcs":[[184],[185],[186],[187],[188],[189],[190],[191],[192],[193],[194]]},{"type":"MultiLineString","properties":{"kind":"major_road","network":"Dr\u017eavne ceste","sort_rank":380,"kind_detail":"primary","source":"openstreetmap.org","min_zoom":8.0,"landuse_kind":"nature_reserve","shield_text":"8","ref":"D8"},"arcs":[[195],[196],[197],[198],[199],[200],[201],[202],[203],[204],[205]]},{"type":"MultiLineString","properties":{"kind":"major_road","network":"Dr\u017eavne ceste","sort_rank":380,"kind_detail":"primary","source":"openstreetmap.org","min_zoom":8.0,"shield_text":"50","ref":"D50"},"arcs":[[206],[207],[208]]},{"type":"MultiLineString","properties":{"kind":"major_road","name:en":"Adriatic Road","network":"Dr\u017eavne ceste","sort_rank":380,"kind_detail":"primary","is_bicycle_related":true,"source":"openstreetmap.org","min_zoom":8.0,"shield_text":"8","ref":"D8"},"arcs":[[209],[210]]},{"type":"LineString","properties":{"bus_network":"local","network":"Dr\u017eavne ceste","sort_rank":380,"kind_detail":"primary","kind":"major_road","source":"openstreetmap.org","min_zoom":8.0,"bus_shield_text":"4","shield_text":"8","landuse_kind":"urban_area","ref":"D8"},"arcs":[211]},{"type":"LineString","properties":{"kind":"major_road","network":"Dr\u017eavne ceste","sort_rank":380,"kind_detail":"primary","source":"openstreetmap.org","min_zoom":8.0,"shield_text":"110","ref":"D110"},"arcs":[212]},{"type":"LineString","properties":{"bus_network":"local","network":"Dr\u017eavne ceste","sort_rank":380,"kind_detail":"primary","is_bicycle_related":true,"kind":"major_road","bicycle_shield_text":null,"bicycle_network":"lcn","source":"openstreetmap.org","min_zoom":8.0,"bus_shield_text":"10","shield_text":"8","ref":"D8"},"arcs":[213]},{"type":"MultiLineString","properties":{"kind":"major_road","network":"Dr\u017eavne ceste","sort_rank":380,"kind_detail":"primary","source":"openstreetmap.org","min_zoom":8.0,"shield_text":"407","ref":"D407"},"arcs":[[214],[215],[216],[217],[218],[219],[220],[221]]},{"type":"LineString","properties":{"kind":"major_road","network":"Dr\u017eavne ceste","sort_rank":380,"kind_detail":"primary","source":"openstreetmap.org","min_zoom":8.0,"shield_text":"25","ref":"D25;D50","id":468849906},"arcs":[222]},{"type":"MultiLineString","properties":{"source":"openstreetmap.org","kind":"ferry","name":"Mali Losinj - Susak - Mali Losinj","sort_rank":355,"ref":"310","min_zoom":8.0},"arcs":[[223],[224],[225],[226],[227]]},{"type":"LineString","properties":{"kind":"major_road","network":"Dr\u017eavne ceste","sort_rank":380,"kind_detail":"primary","is_bicycle_related":true,"source":"openstreetmap.org","min_zoom":8.0,"landuse_kind":"nature_reserve","shield_text":"406","ref":"D406"},"arcs":[228]},{"type":"LineString","properties":{"kind":"major_road","name:en":"Adriatic Road","network":"Dr\u017eavne ceste","sort_rank":380,"kind_detail":"primary","is_bicycle_related":true,"source":"openstreetmap.org","min_zoom":8.0,"landuse_kind":"nature_reserve","shield_text":"8","ref":"D8"},"arcs":[229]},{"type":"LineString","properties":{"source":"openstreetmap.org","kind":"ferry","name":"Zadar - Br\u0161anj","sort_rank":355,"min_zoom":8.0,"id":179001802},"arcs":[230]},{"type":"MultiLineString","properties":{"sort_rank":355,"source":"openstreetmap.org","min_zoom":8.0,"kind":"ferry"},"arcs":[[231],[232],[233],[234],[235],[236],[237],[238],[239],[240],[241],[242],[243],[244],[245],[246],[247],[248],[249],[250],[251],[252],[253],[254],[255],[256],[257],[258],[259],[260],[261],[262],[263],[264],[265]]},{"type":"LineString","properties":{"bus_network":"local","network":"Dr\u017eavne ceste","sort_rank":380,"kind_detail":"primary","bus_shield_text":"10","is_bicycle_related":true,"kind":"major_road","bicycle_shield_text":null,"bicycle_network":"lcn","source":"openstreetmap.org","min_zoom":8.0,"old_name":"Jadranska","shield_text":"8","landuse_kind":"urban_area","ref":"D8"},"arcs":[266]},{"type":"LineString","properties":{"source":"openstreetmap.org","kind":"ferry","name":"Mali Lo\u0161inj - Premuda","sort_rank":355,"min_zoom":8.0,"id":178995980},"arcs":[267]},{"type":"LineString","properties":{"kind":"major_road","network":"Dr\u017eavne ceste","sort_rank":380,"kind_detail":"primary","source":"openstreetmap.org","min_zoom":8.0,"old_name":"Hrvatskog sabora","shield_text":"306","landuse_kind":"urban_area","ref":"D306"},"arcs":[268]},{"type":"LineString","properties":{"source":"openstreetmap.org","kind":"ferry","name":"Venezia-Igoumenitsa","sort_rank":355,"is_bicycle_related":true,"min_zoom":8.0},"arcs":[269]},{"type":"LineString","properties":{"kind":"major_road","network":"Dr\u017eavne ceste","sort_rank":380,"kind_detail":"primary","is_bicycle_related":true,"bicycle_shield_text":"N1","bicycle_network":"ncn","source":"openstreetmap.org","min_zoom":8.0,"shield_text":"23","ref":"D23"},"arcs":[270]},{"type":"MultiLineString","properties":{"kind":"major_road","network":"Dr\u017eavne ceste","sort_rank":380,"kind_detail":"primary","source":"openstreetmap.org","min_zoom":8.0,"landuse_kind":"urban_area","shield_text":"306","ref":"D306"},"arcs":[[271],[272]]},{"type":"LineString","properties":{"kind":"major_road","network":"Dr\u017eavne ceste","sort_rank":380,"kind_detail":"primary","is_bicycle_related":true,"bicycle_shield_text":null,"bicycle_network":"lcn","source":"openstreetmap.org","min_zoom":8.0,"shield_text":"407","ref":"D407","id":122697893},"arcs":[273]},{"type":"LineString","properties":{"source":"openstreetmap.org","kind":"ferry","sort_rank":355,"min_zoom":8.0,"osm_relation":true,"id":-6359081},"arcs":[274]},{"type":"LineString","properties":{"kind":"major_road","network":"Dr\u017eavne ceste","sort_rank":380,"kind_detail":"primary","source":"openstreetmap.org","min_zoom":8.0,"shield_text":"539","ref":"D539"},"arcs":[275]},{"type":"LineString","properties":{"kind":"major_road","network":"Dr\u017eavne ceste","sort_rank":380,"kind_detail":"primary","source":"openstreetmap.org","min_zoom":8.0,"landuse_kind":"urban_area","shield_text":"424","ref":"D424","id":175819889},"arcs":[276]},{"type":"MultiLineString","properties":{"source":"openstreetmap.org","kind":"ferry","sort_rank":355,"ref":"9403","min_zoom":8.0,"osm_relation":true},"arcs":[[277],[278],[279],[280],[281],[282],[283],[284],[285]]},{"type":"LineString","properties":{"source":"openstreetmap.org","kind":"ferry","name":"Susak - Ilovik","sort_rank":355,"min_zoom":8.0,"id":178643853},"arcs":[286]},{"type":"LineString","properties":{"source":"openstreetmap.org","kind":"ferry","name":"Bo\u017eava-Brbinj","sort_rank":355,"ref":"9404","min_zoom":8.0,"id":335795662},"arcs":[287]},{"type":"LineString","properties":{"kind":"major_road","network":"Dr\u017eavne ceste","sort_rank":380,"kind_detail":"primary","source":"openstreetmap.org","min_zoom":8.0,"shield_text":"23","ref":"D8"},"arcs":[288]},{"type":"LineString","properties":{"source":"openstreetmap.org","kind":"ferry","name":"Zadar - Ancona","sort_rank":355,"ref":"51","min_zoom":8.0,"name:it":"Zara - Ancona"},"arcs":[289]},{"type":"MultiLineString","properties":{"source":"openstreetmap.org","kind":"major_road","sort_rank":380,"kind_detail":"primary","ref":"D105","min_zoom":8.0},"arcs":[[290],[291],[292],[293],[294],[295],[296]]},{"type":"LineString","properties":{"kind":"ferry","name":"Prizna - \u017digljen (Pag)","sort_rank":355,"is_bicycle_related":true,"source":"openstreetmap.org","min_zoom":8.0,"ref":"335","id":23446604},"arcs":[297]},{"type":"LineString","properties":{"kind":"ferry","name":"Valbiska (Krk) - Merag (Cres)","sort_rank":355,"is_bicycle_related":true,"source":"openstreetmap.org","min_zoom":8.0,"name:it":"Valbisca (Veglia) - Smergo (Cherso)","id":146474160},"arcs":[298]},{"type":"MultiLineString","properties":{"kind":"major_road","network":"Dr\u017eavne ceste","sort_rank":380,"kind_detail":"primary","source":"openstreetmap.org","min_zoom":8.0,"landuse_kind":"urban_area","shield_text":"8","ref":"D8"},"arcs":[[299],[300],[301],[302]]},{"type":"LineString","properties":{"source":"openstreetmap.org","kind":"major_road","network":"Dr\u017eavne ceste","sort_rank":380,"kind_detail":"primary","min_zoom":8.0,"shield_text":"405"},"arcs":[303]},{"type":"MultiLineString","properties":{"sort_rank":355,"source":"openstreetmap.org","min_zoom":8.0,"name":"Sestrunj - Zverinac","kind":"ferry"},"arcs":[[304],[305],[306],[307],[308]]},{"type":"LineString","properties":{"source":"openstreetmap.org","kind":"ferry","name":"Rijeka - Rab - Novalja(Pag)","sort_rank":355,"ref":"9309","min_zoom":8.0,"name:it":"Fiume - Arbe - Novalja (Pago)"},"arcs":[309]},{"type":"MultiLineString","properties":{"kind":"major_road","network":"Dr\u017eavne ceste","sort_rank":380,"kind_detail":"primary","is_bicycle_related":true,"bicycle_shield_text":"N1","bicycle_network":"ncn","source":"openstreetmap.org","min_zoom":8.0,"shield_text":"25","ref":"D25;D50"},"arcs":[[310],[311]]},{"type":"LineString","properties":{"source":"openstreetmap.org","kind":"ferry","name":"Zadar - Preko (Ugljan)","sort_rank":355,"ref":"409","min_zoom":8.0,"id":73993964},"arcs":[312]},{"type":"LineString","properties":{"source":"openstreetmap.org","kind":"ferry","name":"Zverinac-Bo\u017eava","sort_rank":355,"ref":"9404","min_zoom":8.0,"id":335795666},"arcs":[313]},{"type":"MultiLineString","properties":{"source":"openstreetmap.org","kind":"ferry","name":"Venezia-Igoumenitsa-Patras","sort_rank":355,"min_zoom":8.0,"osm_relation":true},"arcs":[[314],[315]]},{"type":"LineString","properties":{"kind":"major_road","name:en":"Adriatic Road","network":"Dr\u017eavne ceste","sort_rank":380,"kind_detail":"primary","source":"openstreetmap.org","min_zoom":8.0,"shield_text":"8"},"arcs":[316]},{"type":"LineString","properties":{"kind":"major_road","network":"Dr\u017eavne ceste","sort_rank":380,"kind_detail":"primary","is_bicycle_related":true,"bicycle_shield_text":"403","bicycle_network":"lcn","source":"openstreetmap.org","min_zoom":8.0,"shield_text":"66","ref":"D66"},"arcs":[317]},{"type":"LineString","properties":{"kind":"major_road","network":"Dr\u017eavne ceste","sort_rank":380,"kind_detail":"primary","source":"openstreetmap.org","min_zoom":8.0,"shield_text":"101","ref":"D101","id":146418162},"arcs":[318]},{"type":"LineString","properties":{"source":"openstreetmap.org","kind":"major_road","sort_rank":380,"kind_detail":"primary","ref":"D8","min_zoom":8.0},"arcs":[319]},{"type":"LineString","properties":{"kind":"major_road","sort_rank":380,"kind_detail":"primary","name:cs":"Pa\u017esk\u00fd most","source":"openstreetmap.org","min_zoom":8.0,"name:it":"Ponte di Pago","ref":"D106","id":145558689},"arcs":[320]},{"type":"MultiLineString","properties":{"kind":"major_road","network":"Dr\u017eavne ceste","sort_rank":380,"kind_detail":"primary","source":"openstreetmap.org","min_zoom":8.0,"shield_text":"23","ref":"D23"},"arcs":[[321],[322],[323],[324],[325],[326],[327]]},{"type":"LineString","properties":{"source":"openstreetmap.org","kind":"ferry","name":"Ilovik","sort_rank":355,"min_zoom":8.0,"id":232019168},"arcs":[328]},{"type":"LineString","properties":{"bus_network":null,"sort_rank":380,"kind_detail":"primary","kind":"major_road","source":"openstreetmap.org","min_zoom":8.0,"bus_shield_text":"KRK","ref":"D104"},"arcs":[329]},{"type":"LineString","properties":{"source":"openstreetmap.org","kind":"ferry","name":"Ancona-Zadar","sort_rank":355,"min_zoom":8.0,"osm_relation":true,"id":-5291162},"arcs":[330]},{"type":"LineString","properties":{"kind":"major_road","network":"Dr\u017eavne ceste","sort_rank":380,"kind_detail":"primary","bus_network":"local","source":"openstreetmap.org","min_zoom":8.0,"bus_shield_text":"4","shield_text":"407","ref":"D407","id":146379464},"arcs":[331]},{"type":"MultiLineString","properties":{"kind":"major_road","network":"Dr\u017eavne ceste","sort_rank":380,"kind_detail":"primary","source":"openstreetmap.org","min_zoom":8.0,"shield_text":"106","ref":"D106"},"arcs":[[332],[333],[334]]},{"type":"LineString","properties":{"source":"openstreetmap.org","kind":"ferry","name":"Misniak - Stinica","sort_rank":355,"landuse_kind":"nature_reserve","min_zoom":8.0,"id":25626587},"arcs":[335]},{"type":"LineString","properties":{"source":"openstreetmap.org","kind":"ferry","name":"Rijeka-Cres-Martin\u0161\u0107ica(Cres)-Unije-Susak-Ilovik-Mali Lo\u0161inj","sort_rank":355,"min_zoom":8.0,"id":81221704},"arcs":[336]},{"type":"LineString","properties":{"source":"openstreetmap.org","kind":"ferry","name":"Silba - Olib","sort_rank":355,"min_zoom":8.0,"id":154070398},"arcs":[337]},{"type":"LineString","properties":{"kind":"ferry","name":"Zadar - Premuda - Silba - Olib","sort_rank":355,"source":"openstreetmap.org","min_zoom":8.0,"ref":"9401","id":-2074185,"osm_relation":true},"arcs":[338]},{"type":"LineString","properties":{"source":"openstreetmap.org","kind":"ferry","name":"Zadar - Silba","sort_rank":355,"min_zoom":8.0,"id":178638414},"arcs":[339]},{"type":"MultiLineString","properties":{"kind":"highway","network":"Autoceste","sort_rank":383,"kind_detail":"motorway","source":"openstreetmap.org","min_zoom":8.0,"all_networks":["Autoceste","e-road","e-road"],"shield_text":"1","ref":"A1","all_shield_texts":["1","65","71"]},"arcs":[[340],[341],[342],[343],[344],[345],[346],[347],[348],[349],[350],[351],[352],[353],[354],[355],[356],[357],[358],[359],[360],[361],[362],[363],[364],[365],[366],[367],[368],[369],[370],[371],[372],[373],[374],[375],[376],[377],[378],[379],[380],[381]]},{"type":"MultiLineString","properties":{"kind":"highway","network":"Autoceste","sort_rank":383,"kind_detail":"motorway","source":"openstreetmap.org","min_zoom":8.0,"all_networks":["Autoceste","e-road"],"shield_text":"1","ref":"A1","all_shield_texts":["1","71"]},"arcs":[[382],[383],[384],[385],[386],[387],[388],[389],[390],[391],[392],[393]]},{"type":"MultiLineString","properties":{"kind":"major_road","network":"Dr\u017eavne ceste","sort_rank":381,"landuse_kind":"urban_area","source":"openstreetmap.org","min_zoom":8.0,"kind_detail":"trunk","shield_text":"424","ref":"D424"},"arcs":[[394],[395],[396]]},{"type":"LineString","properties":{"sort_rank":355,"source":"openstreetmap.org","min_zoom":8.0,"name":"Rivanj - Sestrunj","kind":"ferry"},"arcs":[397]},{"type":"LineString","properties":{"kind":"ferry","name":"Valbiska (Krk) - Lopar (Rab)","sort_rank":355,"source":"openstreetmap.org","min_zoom":8.0,"name:it":"Valbisca (Veglia) - Loparo (Arbe)","ref":"338","id":8100818},"arcs":[398]},{"type":"MultiLineString","properties":{"source":"openstreetmap.org","kind":"ferry","name":"Zadar - Brbinj (Dugi otok)","sort_rank":355,"ref":"434","min_zoom":8.0,"id":335795663},"arcs":[[399],[400]]},{"type":"LineString","properties":{"bus_network":"local","network":"Dr\u017eavne ceste","sort_rank":380,"kind_detail":"primary","is_bicycle_related":true,"kind":"major_road","bicycle_shield_text":null,"bicycle_network":"lcn","source":"openstreetmap.org","min_zoom":8.0,"bus_shield_text":"10","shield_text":"8","landuse_kind":"urban_area","ref":"D8"},"arcs":[401]},{"type":"LineString","properties":{"source":"openstreetmap.org","kind":"ferry","name":"Zadar - Silba - Ilovik - Mali Lo\u0161inj - Unije - Pula","sort_rank":355,"min_zoom":8.0,"osm_relation":true},"arcs":[402]},{"type":"LineString","properties":{"kind":"major_road","network":"Dr\u017eavne ceste","sort_rank":380,"kind_detail":"primary","source":"openstreetmap.org","min_zoom":8.0,"shield_text":"407","id":146352844},"arcs":[403]},{"type":"LineString","properties":{"kind":"major_road","network":"Dr\u017eavne ceste","sort_rank":380,"kind_detail":"primary","source":"openstreetmap.org","min_zoom":8.0,"shield_text":"534","ref":"D534"},"arcs":[404]},{"type":"MultiLineString","properties":{"kind":"major_road","network":"Dr\u017eavne ceste","sort_rank":380,"kind_detail":"primary","source":"openstreetmap.org","min_zoom":8.0,"shield_text":"306","ref":"D306"},"arcs":[[405],[406],[407]]},{"type":"LineString","properties":{"bus_network":"local","network":"Dr\u017eavne ceste","sort_rank":380,"kind_detail":"primary","is_bicycle_related":true,"kind":"major_road","bicycle_shield_text":null,"bicycle_network":"lcn","source":"openstreetmap.org","min_zoom":8.0,"bus_shield_text":"1","shield_text":"407","ref":"D407","id":184685784},"arcs":[408]},{"type":"MultiLineString","properties":{"sort_rank":355,"source":"openstreetmap.org","min_zoom":8.0,"name":"Zverinac - Molat","kind":"ferry"},"arcs":[[409],[410],[411],[412],[413]]},{"type":"LineString","properties":{"source":"openstreetmap.org","kind":"ferry","name":"Preko - Zadar","sort_rank":355,"ref":"431","min_zoom":8.0,"id":335800136},"arcs":[414]},{"type":"LineString","properties":{"kind":"major_road","network":"Dr\u017eavne ceste","sort_rank":380,"kind_detail":"primary","source":"openstreetmap.org","min_zoom":8.0,"landuse_kind":"urban_area","shield_text":"407","ref":"D407"},"arcs":[415]},{"type":"MultiLineString","properties":{"kind":"major_road","network":"Dr\u017eavne ceste","sort_rank":380,"kind_detail":"primary","source":"openstreetmap.org","min_zoom":8.0,"shield_text":"8","ref":"D8"},"arcs":[[416],[417],[418],[419],[420],[421],[422],[423],[424],[425],[426],[427],[428]]},{"type":"MultiLineString","properties":{"bus_network":"local","network":"Dr\u017eavne ceste","sort_rank":380,"kind_detail":"primary","kind":"major_road","source":"openstreetmap.org","min_zoom":8.0,"bus_shield_text":"1","shield_text":"407","ref":"D407"},"arcs":[[429],[430]]},{"type":"MultiLineString","properties":{"kind":"major_road","name:en":"Adriatic Road","network":"Dr\u017eavne ceste","sort_rank":380,"kind_detail":"primary","source":"openstreetmap.org","min_zoom":8.0,"shield_text":"8","ref":"D8"},"arcs":[[431],[432],[433],[434]]},{"type":"LineString","properties":{"kind":"major_road","network":"Dr\u017eavne ceste","sort_rank":380,"kind_detail":"primary","is_bicycle_related":true,"bicycle_shield_text":"9","bicycle_network":"rcn","source":"openstreetmap.org","min_zoom":8.0,"shield_text":"42","ref":"D42"},"arcs":[435]}]},"earth":{"type":"GeometryCollection","geometries":[{"type":"MultiPolygon","properties":{"sort_rank":10,"source":"naturalearthdata.com","min_zoom":0.0,"kind":"earth","area":48208844227},"arcs":[[[436]],[[437]],[[438]],[[439]],[[440]],[[441]],[[442]],[[443]],[[444]],[[445]],[[446]],[[447]],[[448]],[[449]],[[450]],[[451]]]},{"type":"Point","properties":{"label_placement":true,"kind":"island","name":"Pag","area":557572992,"source":"openstreetmap.org","min_zoom":8.0,"name:it":"Pago","name:ru":"\u043e\u0441\u0442\u0440\u043e\u0432 \u041f\u0430\u0433","id":-2025533,"osm_relation":true},"coordinates":[2582,1674]},{"type":"Point","properties":{"label_placement":true,"kind":"island","name":"Cres","area":809593024,"source":"openstreetmap.org","min_zoom":8.0,"name:la":"Crepsa","name:it":"Cherso","name:ru":"\u043e\u0441\u0442\u0440\u043e\u0432 \u0426\u0440\u0435\u0441","id":-1924207,"osm_relation":true},"coordinates":[935,3281]}]},"landuse":{"type":"GeometryCollection","geometries":[{"type":"MultiPolygon","properties":{"source":"openstreetmap.org","kind":"military","tier":3,"area":248931332,"sort_rank":45,"min_zoom":8.0},"arcs":[[[452]]]},{"type":"MultiPolygon","properties":{"source":"naturalearthdata.com","kind":"urban_area","name":"","area":668281589,"sort_rank":11,"min_zoom":4.0},"arcs":[[[453]]]},{"type":"Polygon","properties":{"kind":"nature_reserve","protect_class":"4","area":4003739904,"sort_rank":23,"source":"openstreetmap.org","min_zoom":4.0,"tier":2,"id":-6722980,"osm_relation":true},"arcs":[[454]]},{"type":"MultiPolygon","properties":{"source":"openstreetmap.org","kind":"park","tier":2,"area":1743319793,"sort_rank":24,"min_zoom":6.0},"arcs":[[[455]],[[456]],[[457]],[[458]]]}]}},"type":"Topology","transform":{"translate":[14.0625,44.0875850282],"scale":[0.0003433228,0.0002444948]},"arcs":[[[0,1203],[989,-798],[357,-405]],[[3817,4096],[-42,-89],[32,-38],[35,15],[93,-73],[-8,-50],[-58,9],[0,-44],[160,-254],[53,-127],[-29,-28],[11,-61],[32,-23]],[[4096,3180],[-27,-18],[-39,32],[-5,-43],[-75,-50],[-6,-30],[-83,15],[5,-38],[-56,-61],[13,-111],[36,-59],[-100,-23],[48,-42],[-21,-26],[7,-71],[-67,-54],[43,-123],[-11,-49],[93,-101],[97,-187],[-25,-212],[-57,-83],[230,-189]],[[0,3621],[7,13],[31,31],[-12,40],[-21,9],[-5,1],[0,71],[38,-34],[24,-76],[-12,-34],[-23,-37],[-8,-80],[19,0],[14,32],[27,38],[34,32],[35,13],[32,-9],[22,-13],[23,-3],[34,25],[36,74],[7,95],[-20,88],[-45,52],[0,26],[10,-9],[20,-9],[12,-8],[-12,77],[0,29],[12,34],[18,-30],[37,37],[362,0],[115,-137],[17,-33],[87,-248],[43,-71],[58,-54],[-21,-28],[-40,45],[-4,-41],[13,-64],[11,-23],[-12,-59],[-17,-23],[-30,-4],[-51,2],[-27,18],[-52,79],[-21,17],[-69,28],[-26,-12],[26,-74],[-15,-26],[-3,-12],[-3,-18],[58,-61],[46,-244],[47,-55],[31,-3],[14,-16],[4,-38],[4,-132],[11,-54],[19,-30],[26,16],[11,-8],[8,-7],[8,-6],[13,-4],[-8,-180],[97,-209],[132,-148],[85,0],[32,-6],[21,11],[20,23],[20,29],[-20,56],[-36,-24],[-19,13],[-1,33],[17,36],[-37,66],[-46,56],[-39,65],[-18,90],[5,50],[18,51],[-3,44],[-10,32],[-36,60],[-15,45],[43,25],[-5,68],[-38,120],[-10,134],[5,59],[27,71],[-22,28],[31,56],[25,73],[7,72],[-22,50],[-35,18],[-67,9],[-39,32],[-15,23],[-72,145],[-52,149],[-15,55],[181,0],[-5,-7],[40,-69],[62,-74],[74,-59],[73,-24],[233,-36],[77,6],[-40,30],[0,28],[51,27],[16,-34],[-7,-146],[2,-65],[13,-30],[84,-34],[141,-95],[50,-14],[54,6],[43,16],[12,26],[-40,36],[0,25],[40,31],[33,-25],[36,-9],[37,9],[34,25],[18,0],[-44,113],[-175,160],[2,118],[-130,1],[-52,17],[-37,40],[-2,7],[551,0],[8,-51],[168,-389],[21,-93],[-19,-77],[-28,-62],[-63,-259],[-7,-71],[7,-226],[11,-84],[19,-71],[3,-60],[-33,-52],[51,-136],[291,-457],[18,-36],[23,-3],[95,-76],[12,-20],[82,-39],[81,-91],[137,-192],[404,-417],[42,-43],[285,-138],[24,-16],[87,-115],[15,-13],[57,-8],[0,-83],[-129,20],[-46,17],[-209,121],[-82,31],[-82,74],[-56,21],[22,-50],[27,-43],[32,-31],[39,-13],[-14,-21],[-8,-15],[-13,-12],[-26,-8],[40,-142],[-46,5],[-33,27],[-60,80],[-144,97],[9,-17],[15,-50],[-22,0],[-13,14],[-1,-1],[-3,-7],[-22,-6],[65,-52],[-29,-63],[-62,-30],[-34,46],[-21,78],[-50,9],[-53,-31],[-35,-43],[62,-40],[60,-79],[24,-90],[-46,-73],[152,-159],[46,-34],[-11,-41],[12,-29],[26,-22],[33,-20],[124,-136],[-252,0],[-369,304],[26,-63],[12,-23],[-11,-8],[-2,-2],[-1,-3],[-6,-15],[53,-42],[102,-129],[23,-19],[-364,0],[7,22],[-39,-21],[-26,13],[-25,23],[-40,13],[-24,14],[-17,32],[-13,38],[-15,28],[-164,131],[-57,67],[-10,2],[-13,2],[-16,-4],[39,-60],[14,-36],[6,-46],[202,-218],[-2554,0],[0,3621]],[[2315,264],[-20,0],[-22,-16],[-22,11],[-23,29],[-15,44],[-7,-64],[45,-47],[61,-19],[38,15],[-16,31],[-19,16]],[[2124,756],[-53,52],[-40,28],[-19,-4],[0,-31],[-10,-13],[-30,0],[-4,-33],[30,-43],[33,-7],[18,21],[27,6],[42,1],[6,23]],[[2857,826],[43,-16],[33,1],[12,13],[8,22],[14,14],[19,4],[67,-30],[13,-22],[5,-18],[24,4],[27,13],[8,10],[-9,13],[-19,4],[-18,12],[-4,3],[-24,27],[-42,29],[-33,-4],[-22,17],[-19,22],[-18,10],[-26,0],[-21,7],[-12,13],[-42,4],[-16,-47],[14,-70],[38,-35]],[[1692,974],[-87,62],[-54,25],[11,-32],[122,-112],[49,-27],[11,14],[-52,70]],[[2105,1060],[46,-15],[30,28],[-16,73],[-23,40],[-3,15],[8,26],[16,33],[-5,40],[-25,37],[-35,18],[-32,-4],[-14,-5],[-10,-5],[14,-128],[-31,-49],[-4,-33],[52,-48],[32,-23]],[[1819,1315],[-43,13],[-21,-20],[-10,-31],[17,-31],[36,-14],[28,-58],[2,-28],[8,-32],[13,-10],[11,-1],[37,-25],[27,2],[-2,49],[-18,19],[-26,18],[-15,22],[-4,37],[4,21],[7,17],[-8,21],[-43,31]],[[2537,1322],[37,-13],[23,1],[9,-17],[11,-15],[5,18],[-22,36],[-26,24],[-169,152],[-4,-20],[18,-39],[118,-127]],[[2842,1291],[31,-35],[26,-2],[46,26],[27,4],[26,-9],[74,-50],[-15,-31],[-15,-18],[-21,-6],[-31,2],[24,-52],[15,-17],[23,-15],[0,-30],[-40,0],[0,-25],[42,-64],[52,-51],[59,-36],[68,-17],[0,26],[-121,86],[0,25],[69,-6],[129,-57],[62,-18],[-15,9],[-12,10],[-8,14],[-5,23],[60,0],[-33,48],[-44,46],[-52,34],[-52,11],[0,28],[65,-31],[71,-56],[68,-40],[57,16],[-38,45],[-82,74],[-42,48],[-65,42],[-272,289],[-121,60],[27,-87],[41,-71],[46,-55],[46,-38],[-141,99],[-239,345],[-160,89],[0,28],[51,0],[39,-20],[31,-24],[59,-22],[120,-72],[-7,-15],[-13,-43],[61,-5],[81,-70],[57,-8],[-41,68],[-29,63],[-30,46],[-109,35],[-43,43],[-66,110],[-82,85],[-100,65],[-69,-4],[10,-120],[-112,85],[-190,282],[-113,131],[-9,7],[-13,0],[29,-93],[52,-89],[304,-378],[32,-27],[2,-34],[84,-125],[36,-67],[-17,-7],[-28,-17],[-17,-6],[0,-25],[152,-94],[27,-5],[180,-151],[51,-109]],[[995,2138],[-13,111],[-13,65],[-14,36],[21,96],[-48,53],[-74,35],[-58,39],[4,-70],[22,-127],[14,-54],[77,-132],[19,-81],[-52,-65],[12,-22],[3,-9],[-20,0],[0,-26],[34,-24],[35,-8],[30,15],[21,43],[54,-24],[45,-38],[81,-106],[-19,10],[-62,18],[0,-28],[40,-28],[97,-128],[78,-75],[65,8],[-22,80],[-236,255],[-104,143],[-17,38]],[[752,1724],[-13,4],[-2,-7],[-13,5],[-9,5],[-17,30],[-34,15],[-23,2],[20,-68],[27,-38],[17,8],[12,28],[35,16]],[[635,2413],[-43,8],[-63,-74],[-25,-78],[-6,-31],[-3,-36],[21,-25],[37,-12],[34,-22],[21,4],[-16,53],[-20,35],[-6,12],[-1,22],[6,23],[-5,21],[1,15],[7,6],[4,5],[39,9],[17,25],[1,40]],[[1408,3601],[-53,74],[-122,-10],[13,-24],[65,-47],[13,-15],[52,-28],[23,-1],[14,22],[-5,29]],[[2236,3269],[16,0],[-12,47],[-8,21],[-63,70],[-79,50],[-20,4],[-15,-21],[0,-44],[31,-39],[150,-88]],[[1915,3137],[12,-41],[8,-17],[-58,19],[-62,9],[12,-43],[7,-13],[40,-27],[24,-35],[37,-80],[-20,0],[-12,18],[-48,40],[6,-23],[0,-12],[3,-9],[10,-14],[0,-26],[-32,16],[-35,10],[-36,3],[-37,-3],[121,-137],[31,10],[44,-1],[46,-13],[38,-27],[-32,33],[-7,19],[0,32],[94,-73],[142,-163],[82,-71],[27,58],[-23,81],[-84,140],[-31,32],[-71,41],[-114,113],[-22,15],[0,25],[45,37],[-8,41],[-41,31],[-56,5]],[[3534,0],[-124,136],[-33,20],[-26,22],[-12,29],[11,41],[-46,34],[-152,159],[46,73],[-24,90],[-60,79],[-62,40],[35,43],[53,31],[50,-9],[21,-78],[34,-46],[62,30],[29,63],[-65,52],[22,6],[3,7],[1,1],[13,-14],[22,0],[-15,50],[-9,17],[144,-97],[60,-80],[33,-27],[46,-5],[-40,142],[26,8],[13,12],[8,15],[14,21],[-39,13],[-32,31],[-27,43],[-22,50],[56,-21],[82,-74],[82,-31],[209,-121],[46,-17],[129,-20]],[[4096,801],[-57,8],[-15,13],[-87,115],[-24,16],[-285,138],[-42,43],[-404,417],[-137,192],[-81,91],[-82,39],[-12,20],[-95,76],[-23,3],[-18,36],[-291,457],[-51,136],[33,52],[-3,60],[-19,71],[-11,84],[-7,226],[7,71],[63,259],[28,62],[19,77],[-21,93],[-168,389],[-8,51]],[[334,4096],[-37,-37],[-18,30],[-12,-34],[0,-29],[12,-77],[-12,8],[-20,9],[-10,9],[0,-26],[45,-52],[20,-88],[-7,-95],[-36,-74],[-34,-25],[-23,3],[-22,13],[-32,9],[-35,-13],[-34,-32],[-27,-38],[-14,-32],[-19,0],[8,80],[23,37],[12,34],[-24,76],[-38,34]],[[0,3715],[5,-1],[21,-9],[12,-40],[-31,-31],[-7,-13]],[[1315,2350],[-37,66],[-46,56],[-39,65],[-18,90],[5,50],[18,51],[-3,44],[-10,32],[-36,60],[-15,45],[43,25],[-5,68],[-38,120],[-10,134],[5,59],[27,71],[-22,28],[31,56],[25,73],[7,72],[-22,50],[-35,18],[-67,9],[-39,32],[-15,23],[-72,145],[-52,149],[-15,55]],[[696,4096],[115,-137],[17,-33],[87,-248],[43,-71],[58,-54],[-21,-28],[-40,45],[-4,-41],[13,-64],[11,-23],[-12,-59],[-17,-23],[-30,-4],[-51,2],[-27,18],[-52,79],[-21,17],[-69,28],[-26,-12],[26,-74],[-15,-26],[-3,-12],[-3,-18],[58,-61],[46,-244],[47,-55],[31,-3],[14,-16],[4,-38],[4,-132],[11,-54],[19,-30],[26,16],[11,-8],[8,-7],[8,-6],[13,-4],[-8,-180],[97,-209],[132,-148],[85,0],[32,-6],[21,11],[20,23],[20,29],[-20,56],[-36,-24],[-19,13],[-1,33],[17,36]],[[1116,1957],[-104,143],[-17,38],[-13,111],[-13,65],[-14,36],[21,96],[-48,53],[-74,35],[-58,39],[4,-70],[22,-127],[14,-54],[77,-132],[19,-81],[-52,-65],[12,-22],[3,-9],[-20,0],[0,-26],[34,-24],[35,-8],[30,15],[21,43],[54,-24],[45,-38],[81,-106],[-19,10],[-62,18],[0,-28],[40,-28],[97,-128],[78,-75],[65,8],[-22,80],[-236,255]],[[2745,0],[7,22],[-39,-21],[-26,13],[-25,23],[-40,13],[-24,14],[-17,32],[-13,38],[-15,28],[-164,131],[-57,67],[-10,2],[-13,2],[-16,-4],[39,-60],[14,-36],[6,-46],[202,-218]],[[2372,1931],[2,-34],[84,-125],[36,-67],[-17,-7],[-28,-17],[-17,-6],[0,-25],[152,-94],[27,-5],[180,-151],[51,-109],[31,-35],[26,-2],[46,26],[27,4],[26,-9],[74,-50],[-15,-31],[-15,-18],[-21,-6],[-31,2],[24,-52],[15,-17],[23,-15],[0,-30],[-40,0],[0,-25],[42,-64],[52,-51],[59,-36],[68,-17],[0,26],[-121,86],[0,25],[69,-6],[129,-57],[62,-18],[-15,9],[-12,10],[-8,14],[-5,23],[60,0],[-33,48],[-44,46],[-52,34],[-52,11],[0,28],[65,-31],[71,-56],[68,-40],[57,16],[-38,45],[-82,74],[-42,48],[-65,42],[-272,289],[-121,60],[27,-87],[41,-71],[46,-55],[46,-38],[-141,99],[-239,345],[-160,89],[0,28],[51,0],[39,-20],[31,-24],[59,-22],[120,-72],[-7,-15],[-13,-43],[61,-5],[81,-70],[57,-8],[-41,68],[-29,63],[-30,46],[-109,35],[-43,43],[-66,110],[-82,85],[-100,65],[-69,-4],[10,-120],[-112,85],[-190,282],[-113,131],[-9,7],[-13,0],[29,-93],[52,-89],[304,-378],[32,-27]],[[1975,2825],[94,-73],[142,-163],[82,-71],[27,58],[-23,81],[-84,140],[-31,32],[-71,41],[-114,113],[-22,15],[0,25],[45,37],[-8,41],[-41,31],[-56,5],[12,-41],[8,-17],[-58,19],[-62,9],[12,-43],[7,-13],[40,-27],[24,-35],[37,-80],[-20,0],[-12,18],[-48,40],[6,-23],[0,-12],[3,-9],[10,-14],[0,-26],[-32,16],[-35,10],[-36,3],[-37,-3],[121,-137],[31,10],[44,-1],[46,-13],[38,-27],[-32,33],[-7,19],[0,32]],[[1925,3500],[54,6],[43,16],[12,26],[-40,36],[0,25],[40,31],[33,-25],[36,-9],[37,9],[34,25],[18,0],[-44,113],[-175,160],[2,118],[-130,1],[-52,17],[-37,40],[-2,7]],[[1061,4096],[-5,-7],[40,-69],[62,-74],[74,-59],[73,-24],[233,-36],[77,6],[-40,30],[0,28],[51,27],[16,-34],[-7,-146],[2,-65],[13,-30],[84,-34],[141,-95],[50,-14]],[[2273,248],[-22,11],[-23,29],[-15,44],[-7,-64],[45,-47],[61,-19],[38,15],[-16,31],[-19,16],[-20,0],[-22,-16]],[[3282,0],[-369,304],[26,-63],[12,-23],[-11,-8],[-2,-2],[-1,-3],[-6,-15],[53,-42],[102,-129],[23,-19]],[[529,2347],[-25,-78],[-6,-31],[-3,-36],[21,-25],[37,-12],[34,-22],[21,4],[-16,53],[-20,35],[-6,12],[-1,22],[6,23],[-5,21],[1,15],[7,6],[4,5],[39,9],[17,25],[1,40],[-43,8],[-63,-74]],[[2142,1186],[-3,15],[8,26],[16,33],[-5,40],[-25,37],[-35,18],[-32,-4],[-14,-5],[-10,-5],[14,-128],[-31,-49],[-4,-33],[52,-48],[32,-23],[46,-15],[30,28],[-16,73],[-23,40]],[[2031,836],[-19,-4],[0,-31],[-10,-13],[-30,0],[-4,-33],[30,-43],[33,-7],[18,21],[27,6],[42,1],[6,23],[-53,52],[-40,28]],[[1605,1036],[-54,25],[11,-32],[122,-112],[49,-27],[11,14],[-52,70],[-87,62]],[[3402,0],[-41,116],[31,5]],[[2415,2588],[-1,-1]],[[536,2244],[-77,21],[-5,-70],[212,-287],[65,-117],[-6,-53]],[[2388,1914],[-115,26],[-74,79],[-311,439],[24,90],[129,176]],[[3392,121],[-396,237],[-91,-62],[-9,-92]],[[3392,121],[-394,239],[-94,-63],[-8,-92],[-41,7],[-36,56]],[[0,1677],[1449,-1677]],[[3642,12],[3,3]],[[3652,24],[100,19]],[[3471,109],[27,-43]],[[3523,39],[-21,22],[-14,27],[-17,21]],[[2023,784],[-32,45],[-30,329],[115,39]],[[108,4096],[-43,-29]],[[3583,1697],[-200,16],[-46,43],[-256,59],[27,-34],[-50,4],[30,-57],[-81,75],[-77,7]],[[2426,2587],[66,-30]],[[2458,3209],[-24,-263],[23,-248],[44,-180],[99,-213]],[[2479,3362],[-20,-141]],[[2470,3653],[48,-113]],[[1624,3898],[0,-1]],[[2325,2528],[-4,0]],[[2435,1860],[-1,0],[0,-1],[1,0],[0,1]],[[3317,3962],[-20,-12]],[[3297,3949],[20,13]],[[3332,3984],[-14,-19]],[[3319,3964],[13,20]],[[3360,4096],[-31,-62]],[[3330,4033],[31,63]],[[2357,510],[-80,-63],[-60,-8],[-83,149],[-117,82],[-47,52],[-18,29],[2,44],[65,-2],[-63,-1],[1,-42],[60,-77],[50,-1],[42,41],[9,4],[27,-10],[-35,5],[-12,-33],[134,-233],[125,64]],[[2761,208],[-7,-41],[-12,-3]],[[2742,164],[-3,-1]],[[2739,163],[-20,-6],[-22,2]],[[2697,159],[-9,1]],[[2688,160],[-90,10],[-60,34],[-114,100]],[[2424,304],[-6,5]],[[2418,309],[-22,20],[-52,106],[13,75]],[[2761,208],[-19,-44]],[[2742,164],[0,-1],[-3,0]],[[2739,163],[-42,-4]],[[2697,159],[-4,-1],[-5,2]],[[2688,160],[-150,47],[-45,43],[-8,48],[-61,6]],[[2424,304],[-3,0],[-3,5]],[[2418,309],[-72,127],[11,74]],[[2761,208],[35,-58],[55,17],[-38,101],[42,-56],[41,-7],[5,11],[-1,66],[4,15],[94,63],[394,-239],[-396,237],[-91,-62],[-4,-14],[1,-66],[-2,-7],[-4,-5],[-43,-39],[-57,-17],[-35,60]],[[3485,12],[-12,-12]],[[3466,0],[-43,21],[-681,494],[-721,366],[-35,65],[-20,212],[110,39]],[[2819,268],[34,-59],[39,-11],[14,97],[65,-10],[448,-272],[39,-13]],[[3475,0],[10,12]],[[2409,2581],[-59,-62],[-25,9]],[[2423,2589],[3,-2]],[[2640,2098],[4,6]],[[4096,136],[-183,-30]],[[3881,104],[215,-45]],[[2076,1197],[-114,-27],[0,-12]],[[1962,1158],[0,-6]],[[1962,1152],[-1,-77],[-41,-31],[-54,20],[-50,61],[16,45],[-313,-47],[-30,-37],[51,-64],[-54,63],[-440,770],[-6,61],[42,13],[87,-87]],[[2076,1197],[-110,-39],[20,-212],[35,-65],[721,-366],[681,-494],[43,-21]],[[3473,0],[12,12],[-11,-12]],[[3463,0],[-42,17],[-680,495],[-700,347],[-45,-15],[27,-60],[-33,51],[-28,317]],[[1962,1152],[-1,6],[1,0]],[[1962,1158],[114,39]],[[3403,0],[-40,116],[29,5]],[[3409,88],[0,-1]],[[1266,3846],[-24,82]],[[1009,3557],[-293,-16],[-81,-123],[108,-418],[77,-59],[19,49]],[[3524,3142],[103,22],[116,-12],[91,-43],[138,15],[112,-31]],[[3401,0],[-39,116],[30,5]],[[4084,3093],[12,0]],[[3645,15],[7,9]],[[3445,87],[26,21]],[[3412,96],[-28,29]],[[2950,3586],[147,-66],[38,-99],[107,-85],[82,-107],[78,-30]],[[3403,3198],[76,-15],[44,-41]],[[3634,2989],[-110,153]],[[3641,2982],[-5,5]],[[3793,2655],[-4,96],[-31,40],[17,57],[-80,45],[-53,87]],[[3794,2655],[18,-29],[-17,-33],[32,-30],[16,-252],[93,-195]],[[3817,1872],[247,-196],[32,-38]],[[875,3975],[-105,93]],[[1020,3083],[-9,132]],[[1025,3334],[20,81],[21,-7],[-44,159]],[[1029,2972],[-5,59]],[[3009,3683],[-12,-55]],[[2998,3627],[12,56]],[[0,2453],[536,-209]],[[3404,0],[-41,116],[29,5]],[[3817,1872],[-64,-12],[-48,-65],[-75,-29],[-47,-69]],[[4096,2182],[-159,-66]],[[2446,181],[-134,11],[-11,30]],[[130,0],[-130,132]],[[1545,1021],[172,-164],[49,-8],[183,64],[187,-31],[613,-349],[640,-410]],[[770,4068],[-33,28]],[[1021,3582],[-8,83],[-138,310]],[[1208,1800],[-170,190],[-34,79],[-48,189],[14,223]],[[971,2482],[67,146],[28,147],[-37,197]],[[971,2482],[-1,0],[1,-1],[0,1]],[[1011,3215],[14,119]],[[1024,3031],[-4,52]],[[1021,3581],[1,1],[-1,0]],[[1021,3582],[0,-1]],[[1022,3567],[-1,14]],[[1209,1800],[76,-40]],[[1208,1800],[1,0],[-1,0]],[[3485,12],[-11,-12]],[[3463,0],[-42,17],[-680,495],[-700,347],[-45,-15],[27,-60]],[[3231,3457],[-2,-5]],[[3229,3452],[2,5]],[[3243,3360],[4,-11]],[[3248,3349],[-5,11]],[[3332,3216],[3,-14]],[[3335,3201],[-1,16]],[[3340,3176],[9,-14]],[[3350,3162],[-10,14]],[[3418,3107],[7,-6]],[[3426,3102],[-8,5]],[[3526,2990],[76,-37]],[[3602,2954],[-75,36]],[[3678,2876],[9,-7]],[[3687,2869],[-9,8]],[[3720,2850],[16,-42]],[[3736,2809],[-16,42]],[[3770,2763],[2,-4]],[[3772,2760],[-2,3]],[[3884,2504],[3,-3]],[[3887,2501],[-3,4]],[[4004,1860],[1,-2]],[[4006,1858],[-1,2]],[[4008,2093],[0,-3]],[[4008,2090],[1,3]],[[4011,2228],[0,-5]],[[4011,2223],[1,5]],[[4019,1833],[1,-1]],[[4020,1832],[0,1]],[[4041,519],[-2,-3]],[[4039,516],[2,2]],[[2357,510],[-80,-63],[-60,-8],[-120,175],[-80,56],[-67,115],[35,17],[38,-18]],[[2446,181],[122,-144],[58,-37]],[[1478,3905],[-87,191]],[[1625,3898],[-65,-41],[-81,47]],[[1972,3627],[-199,228],[-103,59],[-45,-15]],[[1625,3898],[-1,1],[0,-1],[1,0]],[[2544,3664],[40,-17]],[[2608,3633],[45,-28]],[[2652,3608],[-8,18]],[[2669,3656],[2,-1]],[[2674,3653],[88,-49]],[[2679,3613],[-2,13]],[[1832,1170],[-313,-47],[-30,-37],[56,-65]],[[3453,0],[32,12]],[[3507,27],[-10,-8]],[[3497,18],[10,8]],[[3497,18],[-1,1],[-1,-1],[1,-1],[1,1]],[[3540,36],[103,-21],[14,-15]],[[3797,0],[63,54],[34,39],[8,10],[2,1]],[[3904,104],[16,8]],[[3920,112],[30,14],[1,0],[52,-15]],[[4004,112],[-12,7],[-42,8],[-1,-1],[-29,-14]],[[3920,112],[-16,-8]],[[3904,104],[-1,-1],[-112,-103]],[[3658,0],[-15,16],[-101,24]],[[2459,3221],[-1,-12]],[[2600,2305],[95,-212],[274,-322]],[[2994,1759],[20,-10]],[[3044,1710],[10,-18]],[[3060,1682],[15,-26]],[[3077,1653],[286,-280]],[[3413,1306],[9,-11]],[[3439,1271],[125,-144]],[[3577,1122],[1,0]],[[3588,1118],[11,-4]],[[3663,1067],[262,-123],[103,-121],[49,-22]],[[3402,3199],[1,-1]],[[3642,2980],[-1,2]],[[3794,2655],[-1,0]],[[2492,3417],[-12,-39]],[[2504,3484],[-2,-27]],[[3471,108],[77,39]],[[3253,0],[-79,31],[-190,170],[-47,0]],[[3536,20],[14,-20]],[[3384,125],[-10,-1]],[[3374,124],[-1,-1]],[[3409,87]],[[3411,86],[-1,1]],[[3444,87],[-6,-4]],[[3438,83],[-2,-2],[-6,-4]],[[3438,83]],[[3438,83],[-2,-1]],[[3937,2115],[0,1],[-1,0],[1,-1]],[[725,1738],[288,159]],[[1013,1897],[59,33],[4,-4]],[[1076,1926],[99,-95],[-93,97],[-6,-2]],[[1076,1926],[-63,-29]],[[1013,1897],[-27,-12],[-79,13],[-123,98],[-33,-1],[-42,66],[-220,96],[-33,93],[36,15],[44,-21]],[[2666,2155],[-22,-51]],[[2502,3457],[-10,-40]],[[3485,0],[0,12]],[[1647,3820],[-33,20]],[[2023,784],[-67,8],[1,-42],[60,-77],[50,-1],[41,36]],[[2108,708],[2,2]],[[2110,710],[1,1]],[[2111,711],[1,1]],[[2112,712],[1,1]],[[2113,713],[5,4],[27,-10]],[[2145,707],[-32,6]],[[2113,713],[-37,7],[-24,30]],[[3392,121],[-647,402],[-148,-9],[-173,-105],[-193,33],[-7,13]],[[2224,455],[-70,120]],[[2154,575],[-59,103],[13,30]],[[2108,708],[2,4],[2,0]],[[2112,712],[33,-5]],[[2357,510],[-53,-36]],[[2304,474],[-36,-26],[-22,3]],[[2246,451],[-15,3]],[[2231,454],[-7,1]],[[2224,455],[-4,0],[-66,120]],[[2154,575],[-56,104],[12,31]],[[2110,710],[0,2],[1,-1]],[[2111,711],[34,-4]],[[2261,563],[13,-106],[-28,-6]],[[2246,451],[-13,-2],[-2,5]],[[2231,454],[-130,224],[10,33],[34,-4]],[[2261,563],[27,-81],[16,-8]],[[2304,474],[46,-24]],[[2350,450],[62,-33]],[[2412,417],[11,-6],[173,106],[150,9],[646,-405]],[[2357,510],[-73,-1],[-23,54]],[[3392,121],[-644,409],[-153,-10],[-172,-106],[-11,3]],[[2412,417],[-64,21],[2,12]],[[2350,450],[7,60]],[[2440,291],[53,-41]],[[3400,0],[-39,116],[31,5]],[[3498,66],[24,-27]],[[1169,1842],[-87,87],[-42,-13],[6,-61],[440,-770],[59,-64]],[[3396,212],[37,-5]],[[0,136],[134,-136]],[[3350,4096],[26,-55],[-40,16],[3,-103],[-70,-14],[-20,-68],[-123,-131],[-179,-34],[3,-121]],[[3299,341],[97,-129]],[[3433,207],[76,-83]],[[3434,84],[2,-3]],[[1919,3068],[-213,270],[-441,481],[1,27],[-30,-69],[-112,-127]],[[4096,292],[-102,147]],[[3524,39]],[[2145,707],[-69,13],[-24,30]],[[3392,121],[-647,402],[-148,-9],[-173,-105],[-193,33],[-136,236],[15,34],[35,-5]],[[2261,563],[13,-106],[-41,-8],[-132,229],[10,33],[34,-4]],[[2261,563],[27,-81],[62,-32]],[[2350,450],[62,-33]],[[2412,417],[11,-6],[173,106],[150,9],[646,-405]],[[3392,121],[-644,409],[-153,-10],[-172,-106],[-11,3]],[[2412,417],[-64,21],[2,12]],[[2350,450],[7,60],[-73,-1],[-23,54]],[[725,1738],[182,-16],[510,-192]],[[2462,213],[232,-156],[21,-57]],[[2477,3677],[-37,25]],[[3485,12],[-61,12],[-680,495],[-145,-7],[-175,-106],[-208,5],[-713,-411]],[[1948,3037],[-29,31]],[[1947,3036],[1,0]],[[1947,3036]],[[2321,2528],[-60,3],[-313,356],[-56,108],[55,41]],[[1948,3037]],[[1948,3037]],[[1947,3036],[1,0],[0,1],[-1,-1]],[[2581,2017],[59,81]],[[1266,3846],[-30,-69],[-112,-127]],[[3554,152],[-83,-43]],[[3536,20],[-13,19]],[[3548,147],[6,5]],[[3611,194],[-57,-42]],[[2423,2589],[-8,-1]],[[2485,298],[8,-48],[99,-73]],[[2592,177],[7,-5],[11,-1]],[[2610,171],[132,-8],[19,45],[-16,-47],[-102,0],[-33,10]],[[2610,171],[-18,6]],[[2592,177],[-26,8],[-73,65]],[[1037,4096],[3,-65],[173,-370],[509,-850],[117,-106],[137,-21],[65,40]],[[3824,1874],[-7,-2]],[[3936,2116],[-111,-241]],[[3392,121],[-33,-3],[-45,-118]],[[2485,298],[-3,-81],[-20,-4]],[[130,0],[-130,132]],[[0,136],[134,-136]],[[2458,3666],[7,-7]],[[0,3979],[65,88]],[[1013,3665],[122,-118],[44,71],[-16,42],[-39,-10]],[[2476,3676],[-18,-10]],[[3479,974],[8,-7]],[[2477,3677],[67,-13]],[[2584,3647],[24,-14]],[[2644,3626],[35,-13]],[[2653,3605],[-1,3]],[[2677,3626],[-8,30]],[[2671,3655],[3,-2]],[[2762,3604],[63,-34],[68,30],[57,-14]],[[1417,1530],[-47,71]],[[1242,3928],[2,105],[74,63]],[[3485,12],[-61,12],[-680,495],[-145,-7],[-175,-106],[-208,5],[-713,-411]],[[3437,81],[8,6]],[[2435,1860],[18,45],[138,59],[-10,53]],[[3479,974],[-352,243],[-203,212],[-97,36],[11,-38],[-86,25],[-125,103],[-24,72],[32,4],[-54,107],[-146,121]],[[3487,967],[408,-353],[200,-103]],[[2414,2587],[-5,-6]],[[482,4096],[35,-80],[354,-417],[138,-42]],[[2076,1197],[-114,-27],[-1,-95],[-41,-31],[-54,20],[-50,61],[16,45]],[[2076,1197],[-114,-27],[2,-82],[-33,-42],[-93,47],[-26,48],[20,29],[-313,-47],[-30,-37],[228,-229],[49,-8],[183,64],[187,-31],[613,-349],[630,-398]],[[1832,1170],[-21,-50],[70,-98],[272,-125],[1228,-770]],[[3231,3457],[-40,61],[-113,38],[-17,5]],[[3077,3556],[114,-38],[40,-61]],[[3229,3452],[-13,-27],[0,-5],[1,-2]],[[3217,3418],[2,-7]],[[3219,3411],[3,-11],[2,-5],[19,-35]],[[3243,3360],[-18,34],[-2,6],[-4,11]],[[3219,3411],[-2,6],[0,1]],[[3217,3418],[-1,4],[13,30]],[[3247,3349],[85,-133]],[[3334,3217],[-1,3],[-18,31],[-17,23],[-6,14],[-44,61]],[[3335,3202],[0,-4],[3,-16],[2,-6]],[[3340,3176],[-5,25]],[[3349,3162],[12,-9],[57,-46]],[[3418,3107],[-68,55]],[[3425,3101],[101,-111]],[[3527,2990],[-101,112]],[[3602,2953],[2,-2],[39,-45],[35,-30]],[[3678,2877],[-76,77]],[[3687,2869],[33,-19]],[[3720,2851],[-9,7],[-24,11]],[[3736,2808],[7,-12],[27,-33]],[[3770,2763],[-34,46]],[[3772,2759],[55,-57],[57,-198]],[[3884,2505],[-58,200],[-8,15],[-5,6],[-41,34]],[[3887,2501],[124,-273]],[[4012,2228],[-55,147],[-70,126]],[[4008,2090],[-32,-89],[-1,-6],[-2,-23],[31,-112]],[[4005,1860],[-31,119],[34,111]],[[4005,1858],[14,-25]],[[4020,1833],[-14,25]],[[4011,2223],[-3,-130]],[[4009,2093],[2,130]],[[4020,1832],[76,-58]],[[4096,1782],[-76,50]],[[4039,516],[-47,-109],[-1,-3],[-3,-7]],[[3988,397],[-1,-4],[-34,-78]],[[3953,315],[-1,-3],[2,-101],[59,-88],[13,-13],[65,-56],[5,-3]],[[4096,58],[-68,51],[-73,102],[-2,104]],[[3953,315],[0,1],[35,81]],[[3988,397],[2,5],[2,6],[8,15],[39,93]],[[4096,538],[-23,1],[-8,-2],[-8,-5],[-11,-8],[-5,-5]],[[4041,518],[32,21],[23,-1]],[[2997,3628],[-1,-19],[2,-10],[2,-2]],[[3000,3597],[42,-33]],[[3042,3564],[1,-1],[34,-7]],[[3061,3561],[-18,2],[-1,1]],[[3042,3564],[-27,11],[-7,7],[-8,15]],[[3000,3597],[-2,4],[0,2],[0,24]],[[3297,3950],[-38,-13],[-95,-134],[-155,-120]],[[3010,3683],[154,120],[15,15],[13,24],[16,15],[52,80],[37,12]],[[3318,3965],[-1,-3]],[[3317,3962],[2,2]],[[3329,4034],[3,-50]],[[3332,3984],[2,28],[-4,21]],[[3524,39],[-17,-12]],[[3507,26],[33,10]],[[3542,40],[-12,3],[-6,-4]],[[2896,204],[-43,-39],[-57,-17],[-35,60],[35,-58],[55,17],[-32,101]],[[1919,3068],[-213,270],[-441,481],[1,27]],[[3485,12],[-9,-12]],[[3452,0],[-34,9],[-500,293],[-31,-131],[-173,-162],[3,-9]],[[3522,39],[14,-19]],[[0,2453],[536,-209],[-74,19],[-5,-67],[268,-266],[146,-63],[119,16],[73,45],[18,0],[94,-97],[-111,96],[-28,-48],[45,-70],[215,-228],[203,-80],[77,-59],[175,-225],[81,-47],[-23,-39],[48,-89],[296,-145],[1228,-770]],[[3409,87],[0,1]],[[3869,2002],[91,-14]],[[2983,869],[85,-20]],[[3069,848],[42,-92],[144,-159],[-4,-164],[48,-92]],[[3069,849],[-1,0],[1,-1],[0,1]],[[3433,86],[-2,2]],[[2440,291],[-8,12]],[[2432,303],[-74,112]],[[2358,415],[-14,20],[13,75],[-11,-74],[12,-21]],[[2358,415],[63,-111],[11,-1]],[[2432,303],[53,-5]],[[3444,0],[41,12]],[[3471,109],[-27,-22]],[[2969,1771],[25,-12]],[[3014,1749],[30,-39]],[[3054,1692],[6,-10]],[[3075,1656],[2,-3]],[[3363,1373],[50,-67]],[[3422,1295],[17,-24]],[[3550,0],[-14,20]],[[3564,1127],[13,-5]],[[3578,1122],[10,-4]],[[3599,1114],[64,-47]],[[4096,506],[-32,-3],[-62,-62],[-88,-20],[-141,-93],[-162,-134]],[[4077,801],[19,-13]],[[2440,3702],[0,1],[0,-1]],[[3409,87],[24,-1]],[[3431,88],[-22,0]],[[2305,4096],[135,-393]],[[2465,3659],[5,-6]],[[2480,3378],[-1,-16]],[[2518,3540],[-14,-56]],[[4096,3688],[-3,16],[-118,6],[0,44],[-41,58],[13,103],[-26,19],[28,33],[-166,97],[9,32]],[[2049,726],[-18,-21],[-33,7],[-30,43],[4,33],[30,0],[10,13],[0,31],[19,4],[40,-28],[53,-52],[-6,-23],[-42,-1],[-27,-6]],[[0,3715],[5,-1],[21,-9],[12,-40],[-31,-31],[-7,-13],[0,94]],[[334,4096],[-37,-37],[-18,30],[-12,-34],[0,-29],[12,-77],[-12,8],[-20,9],[-10,9],[0,-26],[45,-52],[20,-88],[-7,-95],[-36,-74],[-34,-25],[-23,3],[-22,13],[-32,9],[-35,-13],[-34,-32],[-27,-38],[-14,-32],[-19,0],[8,80],[23,37],[12,34],[-24,76],[-38,34],[0,310],[334,0]],[[608,2147],[-21,-4],[-34,22],[-37,12],[-21,25],[3,36],[6,31],[25,78],[63,74],[43,-8],[-1,-40],[-17,-25],[-39,-9],[-4,-5],[-7,-6],[-1,-15],[5,-21],[-6,-23],[1,-22],[6,-12],[20,-35],[16,-53]],[[1012,2100],[104,-143],[236,-255],[22,-80],[-65,-8],[-78,75],[-97,128],[-40,28],[0,28],[62,-18],[19,-10],[-81,106],[-45,38],[-54,24],[-21,-43],[-30,-15],[-35,8],[-34,24],[0,26],[20,0],[-3,9],[-12,22],[52,65],[-19,81],[-77,132],[-14,54],[-22,127],[-4,70],[58,-39],[74,-35],[48,-53],[-21,-96],[14,-36],[13,-65],[13,-111],[17,-38]],[[1190,3543],[-25,-73],[-31,-56],[22,-28],[-27,-71],[-5,-59],[10,-134],[38,-120],[5,-68],[-43,-25],[15,-45],[36,-60],[10,-32],[3,-44],[-18,-51],[-5,-50],[18,-90],[39,-65],[46,-56],[37,-66],[-17,-36],[1,-33],[19,-13],[36,24],[20,-56],[-20,-29],[-20,-23],[-21,-11],[-32,6],[-85,0],[-132,148],[-97,209],[8,180],[-13,4],[-8,6],[-8,7],[-11,8],[-26,-16],[-19,30],[-11,54],[-4,132],[-4,38],[-14,16],[-31,3],[-47,55],[-46,244],[-58,61],[3,18],[3,12],[15,26],[-26,74],[26,12],[69,-28],[21,-17],[52,-79],[27,-18],[51,-2],[30,4],[17,23],[12,59],[-11,23],[-13,64],[4,41],[40,-45],[21,28],[-58,54],[-43,71],[-87,248],[-17,33],[-115,137],[184,0],[15,-55],[52,-149],[72,-145],[15,-23],[39,-32],[67,-9],[35,-18],[22,-50],[-7,-72]],[[1744,904],[-11,-14],[-49,27],[-122,112],[-11,32],[54,-25],[87,-62],[52,-70]],[[2181,1073],[-30,-28],[-46,15],[-32,23],[-52,48],[4,33],[31,49],[-14,128],[10,5],[14,5],[32,4],[35,-18],[25,-37],[5,-40],[-16,-33],[-8,-26],[3,-15],[23,-40],[16,-73]],[[1754,4096],[2,-7],[37,-40],[52,-17],[130,-1],[-2,-118],[175,-160],[44,-113],[-18,0],[-34,-25],[-37,-9],[-36,9],[-33,25],[-40,-31],[0,-25],[40,-36],[-12,-26],[-43,-16],[-54,-6],[-50,14],[-141,95],[-84,34],[-13,30],[-2,65],[7,146],[-16,34],[-51,-27],[0,-28],[40,-30],[-77,-6],[-233,36],[-73,24],[-74,59],[-62,74],[-40,69],[5,7],[693,0]],[[2745,0],[-191,0],[-202,218],[-6,46],[-14,36],[-39,60],[16,4],[13,-2],[10,-2],[57,-67],[164,-131],[15,-28],[13,-38],[17,-32],[24,-14],[40,-13],[25,-23],[26,-13],[39,21],[-7,-22]],[[3282,0],[-173,0],[-23,19],[-102,129],[-53,42],[6,15],[1,3],[2,2],[11,8],[-12,23],[-26,63],[369,-304]],[[2251,259],[22,-11],[22,16],[20,0],[19,-16],[16,-31],[-38,-15],[-61,19],[-45,47],[7,64],[15,-44],[23,-29]],[[4096,718],[0,-718],[-562,0],[-124,136],[-33,20],[-26,22],[-12,29],[11,41],[-46,34],[-152,159],[46,73],[-24,90],[-60,79],[-62,40],[35,43],[53,31],[50,-9],[21,-78],[34,-46],[62,30],[29,63],[-65,52],[22,6],[3,7],[1,1],[13,-14],[22,0],[-15,50],[-9,17],[144,-97],[60,-80],[33,-27],[46,-5],[-40,142],[26,8],[13,12],[8,15],[14,21],[-39,13],[-32,31],[-27,43],[-22,50],[56,-21],[82,-74],[82,-31],[209,-121],[46,-17],[129,-20]],[[4096,4096],[0,-3295],[-57,8],[-15,13],[-87,115],[-24,16],[-285,138],[-42,43],[-404,417],[-137,192],[-81,91],[-82,39],[-12,20],[-95,76],[-23,3],[-18,36],[-291,457],[-51,136],[33,52],[-3,60],[-19,71],[-11,84],[-7,226],[7,71],[63,259],[28,62],[19,77],[-21,93],[-168,389],[-8,51],[1791,0]],[[2280,2098],[112,-85],[-10,120],[69,4],[100,-65],[82,-85],[66,-110],[43,-43],[109,-35],[30,-46],[29,-63],[41,-68],[-57,8],[-81,70],[-61,5],[13,43],[7,15],[-120,72],[-59,22],[-31,24],[-39,20],[-51,0],[0,-28],[160,-89],[239,-345],[141,-99],[-46,38],[-46,55],[-41,71],[-27,87],[121,-60],[272,-289],[65,-42],[42,-48],[82,-74],[38,-45],[-57,-16],[-68,40],[-71,56],[-65,31],[0,-28],[52,-11],[52,-34],[44,-46],[33,-48],[-60,0],[5,-23],[8,-14],[12,-10],[15,-9],[-62,18],[-129,57],[-69,6],[0,-25],[121,-86],[0,-26],[-68,17],[-59,36],[-52,51],[-42,64],[0,25],[40,0],[0,30],[-23,15],[-15,17],[-24,52],[31,-2],[21,6],[15,18],[15,31],[-74,50],[-26,9],[-27,-4],[-46,-26],[-26,2],[-31,35],[-51,109],[-180,151],[-27,5],[-152,94],[0,25],[17,6],[28,17],[17,7],[-36,67],[-84,125],[-2,34],[-32,27],[-304,378],[-52,89],[-29,93],[13,0],[9,-7],[113,-131],[190,-282]],[[2012,3101],[8,-41],[-45,-37],[0,-25],[22,-15],[114,-113],[71,-41],[31,-32],[84,-140],[23,-81],[-27,-58],[-82,71],[-142,163],[-94,73],[0,-32],[7,-19],[32,-33],[-38,27],[-46,13],[-44,1],[-31,-10],[-121,137],[37,3],[36,-3],[35,-10],[32,-16],[0,26],[-10,14],[-3,9],[0,12],[-6,23],[48,-40],[12,-18],[20,0],[-37,80],[-24,35],[-40,27],[-7,13],[-12,43],[62,-9],[58,-19],[-8,17],[-12,41],[56,-5],[41,-31]],[[4096,4096],[0,-283],[-51,-17],[-44,19],[-25,120],[84,92],[-26,69],[62,0]],[[3615,158],[-24,-61],[-32,0],[-28,-93],[-180,174],[-1,70],[-71,60],[30,49],[282,13],[24,-212]],[[2378,2912],[17,242],[13,-19],[15,25],[-6,79],[42,113],[14,-15],[48,196],[-53,120],[86,13],[103,-64],[-27,31],[49,-22],[-5,43],[-21,6],[24,2],[142,-97],[37,-54],[75,-238],[142,-208],[3,-29],[-28,-2],[107,-62],[-16,-53],[28,-91],[134,-111],[-125,-176],[-78,21],[-19,-112],[63,-60],[-16,-85],[195,-41],[-43,-96],[54,-18],[193,-260],[-3,-87],[-41,10],[36,-63],[57,-6],[14,-70],[111,-80],[48,-16],[41,69],[64,-34],[43,-48],[-59,-65],[23,-40],[20,51],[61,13],[108,-90],[48,0],[0,-642],[-16,11],[-28,-19],[-132,155],[-200,82],[-106,87],[-76,29],[-183,248],[-69,39],[-85,109],[-34,-2],[-42,39],[-101,173],[-83,42],[-147,163],[-21,-18],[-29,44],[-48,16],[10,18],[-17,-8],[-59,118],[-10,104],[-87,74],[-12,85],[-56,57],[10,24],[-25,-6],[-23,36],[23,13],[-26,-1],[-16,85],[28,-2],[-20,32],[20,60],[-26,35],[-32,198]],[[4096,961],[0,-115],[-29,11],[29,104]],[[4096,1248],[0,-282],[-43,67],[-117,-5],[-73,40],[22,27],[126,-41],[42,60],[-15,57],[-110,-26],[32,180],[136,-77]],[[2486,3140],[147,-64],[38,-38],[-3,-38],[29,-3],[16,-124],[27,-1],[71,-78],[36,-11],[6,25],[36,-27],[15,-44],[-146,-73],[-65,-79],[61,2],[51,-53],[63,10],[31,-29],[-6,-34],[-311,-8],[-64,182],[16,33],[-48,452]],[[4096,3444],[0,-77],[-18,67],[18,10]]]}