{"objects":{"water":{"type":"GeometryCollection","geometries":[{"type":"Polygon","properties":{"source":"naturalearthdata.com","kind":"ocean","area":1576712559132672,"sort_rank":200,"min_zoom":0.0,"id":1},"arcs":[[3],[4],[5],[6]]},{"type":"LineString","properties":{"source":"naturalearthdata.com","kind":"ocean","sort_rank":205,"boundary":true,"min_zoom":0.0,"id":19},"arcs":[7]},{"type":"LineString","properties":{"source":"naturalearthdata.com","kind":"ocean","sort_rank":205,"boundary":true,"min_zoom":0.0,"id":1105},"arcs":[8]},{"type":"MultiLineString","properties":{"source":"naturalearthdata.com","kind":"ocean","sort_rank":205,"boundary":true,"min_zoom":0.0,"id":1107},"arcs":[[9],[10]]},{"type":"LineString","properties":{"source":"naturalearthdata.com","kind":"ocean","sort_rank":205,"boundary":true,"min_zoom":0.0,"id":1108},"arcs":[11]},{"type":"MultiLineString","properties":{"source":"naturalearthdata.com","kind":"ocean","sort_rank":205,"boundary":true,"min_zoom":0.0,"id":1114},"arcs":[[12],[13]]},{"type":"Point","properties":{"label_placement":true,"kind":"sea","name":"Adriatic Sea","source":"openstreetmap.org","sort_rank":200,"min_zoom":3.0,"id":4348295445},"coordinates":[1763,2546]}]},"buildings":{"type":"GeometryCollection","geometries":[]},"places":{"type":"GeometryCollection","geometries":[{"type":"Point","properties":{"kind":"locality","name":"Biograd na Moru","name:lt":"Paj\u016brio Biogradas","kind_detail":"town","name:de":"Wei\u00dfenburg","source":"openstreetmap.org","min_zoom":8.0,"name:it":"Zaravecchia","name:ru":"\u0411\u0438\u043e\u0433\u0440\u0430\u0434-\u043d\u0430-\u041c\u043e\u0440\u0443","name:sr":"\u0411\u0438\u043e\u0433\u0440\u0430\u0434 \u043d\u0430 \u041c\u043e\u0440\u0443","name:hu":"Tengerfeh\u00e9rv\u00e1r","id":279245687,"population":5569},"coordinates":[4029,3490]}]},"transit":{"type":"GeometryCollection","geometries":[]},"pois":{"type":"GeometryCollection","geometries":[{"type":"Point","properties":{"kind":"nature_reserve","protect_class":"4","area":134643000,"name:de":"Naturpark Tela\u0161\u0107ica","source":"openstreetmap.org","min_zoom":8.75,"tier":2,"id":-6572145,"osm_relation":true,"name":"Park prirode Tela\u0161\u0107ica"},"coordinates":[3261,3295]}]},"boundaries":{"type":"GeometryCollection","geometries":[{"type":"LineString","properties":{"name:ty":"\u2019It\u0101ria","name:ka":"\u10d8\u10e2\u10d0\u10da\u10d8\u10d0","name:ko":"\uc774\ud0c8\ub9ac\uc544","name:cv":"\u0418\u0442\u0430\u043b\u0438","name:cu":"\u0418\u0442\u0430\u043b\u0457\ua657","name:cs":"It\u00e1lie","name:cr":"\u1403\u1455\u14d6","name:tt":"\u0418\u0442\u0430\u043b\u0438\u044f","name:kw":"Itali","name:kv":"\u0418\u0442\u0430\u043b\u0438\u044f","name:th":"\u0e1b\u0e23\u0e30\u0e40\u0e17\u0e28\u0e2d\u0e34\u0e15\u0e32\u0e25\u0e35","alt_name:cs":"\u0160v\u00fdcarsk\u00e1 konfederace","name:tl":"Italya","name:ce":"\u0418\u0442\u0430\u043b\u0438","name:ta":"\u0b87\u0ba4\u0bcd\u0ba4\u0bbe\u0bb2\u0bbf","name:tg":"\u0418\u0442\u043e\u043b\u0438\u0451","name:ca":"It\u00e0lia","name:te":"\u0c07\u0c1f\u0c32\u0c40","name:cy":"Yr Eidal","name:qu":"Italya","name:da":"Italien","name:de":"Italien","name:dz":"\u0f68\u0f80\u0f4a\u0f0b\u0f63\u0f72\u0f0b","source":"openstreetmap.org","name:kn":"\u0c87\u0c9f\u0cb2\u0cbf","name:dv":"\u0787\u07a8\u0793\u07a6\u078d\u07a9\u0788\u07a8\u078d\u07a7\u078c\u07b0","name:km":"\u17a2\u17ca\u17b8\u178f\u17b6\u179b\u17b8","name:lv":"It\u0101lija","name:lt":"Italija","name:uz":"Italiya","name:kk":"\u0418\u0442\u0430\u043b\u0438\u044f","name:tw":"Italy","name:lb":"Italien","name:lg":"Yitale","name:uk":"\u0406\u0442\u0430\u043b\u0456\u044f","name:ug":"\u0626\u0649\u062a\u0627\u0644\u0649\u064a\u06d5","name:li":"Itali\u00eb","name:ln":"Italya","name:lo":"\u0ead\u0eb4\u0e95\u0eb2\u0ea5\u0eb5","name:el":"\u0399\u03c4\u03b1\u03bb\u03af\u03b1","name:eo":"Italujo","name:en":"Italy","name":"Italia","name:tk":"Itali\u00fda","name:ee":"Italy","name:ku":"\u00cetalya","name:et":"Itaalia","name:ay":"Italiya","name:az":"\u0130taliya","name:as":"\u0987\u099f\u09be\u09b2\u09c0","name:ar":"\u0625\u064a\u0637\u0627\u0644\u064a\u0627","name:ak":"Italy","name:am":"\u1323\u120d\u12eb\u1295","name:ru":"\u0418\u0442\u0430\u043b\u0438\u044f","name:ab":"\u0418\u0442\u0430\u043b\u0438\u0430","name:af":"Itali\u00eb","name:zu":"ITaliya","kind_detail":"2","name:ky":"\u0418\u0442\u0430\u043b\u0438\u044f","name:zh-yue":"\u610f\u5927\u5229","name:zh":"\u610f\u5927\u5229","name:so":"Talyaaniga","name:sl":"Italija","name:sk":"Taliansko","name:ja":"\u30a4\u30bf\u30ea\u30a2","name:sh":"Italija","name:sg":"Ital\u00f9ii","name:se":"It\u00e1lia","name:sc":"It\u00e0lia","name:sa":"\u0907\u091f\u0932\u0940","name:bs":"Italija","name:bn":"\u0987\u09a4\u09be\u09b2\u09bf","name:bo":"\u0f68\u0f72\u0f0b\u0f4f\u0f0b\u0f63\u0f72\u0f0d","name:bi":"Itali","name:be":"\u0406\u0442\u0430\u043b\u0456\u044f","name:bg":"\u0418\u0442\u0430\u043b\u0438\u044f","name:ss":"INtaliyane","name:ba":"\u0418\u0442\u0430\u043b\u0438\u044f","osm_relation":true,"name:pt":"It\u00e1lia","name:ps":"\u0627\u06d0\u067c\u0627\u0644\u064a\u0627","name:oc":"It\u00e0lia","min_zoom":8.0,"name:pa":"\u0a07\u0a1f\u0a32\u0a40","name:os":"\u0418\u0442\u0430\u043b\u0438","name:or":"\u0b07\u0b1f\u0b3e\u0b32\u0b40","name:pl":"W\u0142ochy","sort_rank":262,"name:sr":"\u0418\u0442\u0430\u043b\u0438\u0458\u0430","name:tr":"\u0130talya","name:hi":"\u0907\u091f\u0932\u0940","name:sv":"Italien","name:he":"\u05d0\u05d9\u05d8\u05dc\u05d9\u05d4","name:hy":"\u053b\u057f\u0561\u056c\u056b\u0561","name:ht":"Itali","name:hu":"Olaszorsz\u00e1g","name:hr":"Italija","kind":"country","name:is":"\u00cdtal\u00eda","name:yi":"\u05d0\u05d9\u05d8\u05d0\u05dc\u05d9\u05e2","name:yo":"It\u00e1l\u00ed\u00e0","name:mt":"Italja","alt_name:eo":"Italio","name:ms":"Itali","name:mr":"\u0907\u091f\u0932\u0940","name:my":"\u1021\u102e\u1010\u101c\u102e\u1014\u102d\u102f\u1004\u103a\u1004\u1036","official_name":"Repubblica Italiana","name:ve":"Italy","name:vi":"\u00dd","name:ml":"\u0d07\u0d31\u0d4d\u0d31\u0d32\u0d3f","name:mn":"\u0418\u0442\u0430\u043b\u0438","name:mi":"It\u0101ria","id":-365331,"name:mk":"\u0418\u0442\u0430\u043b\u0438\u0458\u0430","name:vo":"Litaliy\u00e4n","name:fa":"\u0627\u06cc\u062a\u0627\u0644\u06cc\u0627","name:rw":"Ubutaliyani","name:ff":"Italiya","old_name:vi":"\u00dd \u0110\u1ea1i L\u1ee3i","alt_name:vi":"I-ta-li-a","name:fr":"Italie","name:fy":"Itaalje","name:nl":"Itali\u00eb","name:na":"Itari","name:ne":"\u0907\u091f\u093e\u0932\u0940","name:wa":"It\u00e5leye","name:ur":"\u0627\u0637\u0627\u0644\u06cc\u06c1","name:wo":"Itaali","name:nv":"\u00cddelii","name:ga":"An Iod\u00e1il","name:gd":"An Eadailt","name:gn":"It\u00e1lia","maritime_boundary":true,"name:gv":"Yn Iddaal","name:gu":"\u0a88\u0a9f\u0ab2\u0ac0"},"arcs":[0]},{"type":"MultiLineString","properties":{"name:kg":"Kroatia","name:ka":"\u10ee\u10dd\u10e0\u10d5\u10d0\u10e2\u10d8\u10d0","name:ko":"\ud06c\ub85c\uc544\ud2f0\uc544","name:kn":"\u0c95\u0ccd\u0cb0\u0cca\u0caf\u0cc6\u0cb6\u0cbf\u0caf","name:cu":"\u0425\u0440\u044a\u0432\u0430\u0442\u044c\u0441\u043a\u0430","name:kl":"Kroatia","name:cs":"Chorvatsko","name:tt":"\u0425\u043e\u0440\u0432\u0430\u0442\u0438\u044f","name:kw":"Kroati","name:kv":"\u0425\u043e\u0440\u0432\u0430\u0442\u0438\u044f","name:ku":"Kroatya","name:tl":"Kroasya","name:ce":"\u0425\u043e\u0440\u0432\u0430\u0442\u0438","name:ta":"\u0b95\u0bc1\u0bb0\u0bcb\u0bb5\u0bbe\u0b9a\u0bbf\u0baf\u0bbe","name:tg":"\u0425\u043e\u0440\u0432\u0430\u0442\u0438\u044f","name:ca":"Cr\u00f2acia","name:te":"\u0c15\u0c4d\u0c30\u0c4a\u0c2f\u0c47\u0c37\u0c3f\u0c2f\u0c3e","name:cy":"Croatia","name:da":"Kroatien","name:de":"Kroatien","source":"openstreetmap.org","name:dv":"\u0786\u07aa\u0783\u07ae\u0787\u07ad\u079d\u07a8\u0787\u07a7","name:lv":"Horv\u0101tija","name:lt":"Kroatija","name:uz":"Xorvatiya","name:kk":"\u0425\u043e\u0440\u0432\u0430\u0442\u0438\u044f","name:ur":"\u06a9\u0631\u0648\u0634\u06cc\u0627","name:lb":"Kroatien","name:la":"Croatia","name:uk":"\u0425\u043e\u0440\u0432\u0430\u0442\u0456\u044f","name:ug":"\u0643\u0631\u0648\u062f\u0649\u064a\u06d5","name:li":"Kroati\u00eb","name:ln":"Kroasia","name:el":"\u039a\u03c1\u03bf\u03b1\u03c4\u03af\u03b1","name:eo":"Kroatujo","name:en":"Croatia","name":"Hrvatska","name:tk":"Horwati\u00fda","name:ee":"Croatia","name:th":"\u0e1b\u0e23\u0e30\u0e40\u0e17\u0e28\u0e42\u0e04\u0e23\u0e40\u0e2d\u0e40\u0e0a\u0e35\u0e22","name:eu":"Kroazia","name:et":"Horvaatia","name:es":"Croacia","name:ia":"Croatia","name:rn":"Croacia","name:az":"Xorvatiya","name:ie":"Croatia","name:id":"Kroasia","name:ar":"\u0643\u0631\u0648\u0627\u062a\u064a\u0627","name:io":"Kroatia","name:is":"Kr\u00f3at\u00eda","name:am":"\u12ad\u122e\u12a4\u123d\u12eb","name:it":"Croazia","name:an":"Croacia","name:ru":"\u0425\u043e\u0440\u0432\u0430\u0442\u0438\u044f","name:ab":"\u0425\u043e\u0440\u0432\u0430\u0442\u0438\u0430","name:af":"Kroasi\u00eb","kind_detail":"2","name:za":"Gwzlozdiya","name:zh-yue":"\u514b\u7f85\u5730\u4e9e","name:zh":"\u514b\u7f85\u5730\u4e9e","name:so":"Kroatia","name:sm":"Croatia","name:sl":"Hrva\u0161ka","name:sk":"Chorv\u00e1tsko","name:ja":"\u30af\u30ed\u30a2\u30c1\u30a2","name:sg":"Kroas\u00efi","name:se":"Kroatia","name:sc":"Croatzia","name:br":"Kroatia","name:bn":"\u0995\u09cd\u09b0\u09cb\u09af\u09bc\u09c7\u09b6\u09bf\u09af\u09bc\u09be","name:bo":"\u0f41\u0f74\u0f62\u0f7c\u0f0b\u0f64\u0f72\u0f0b\u0f61\u0f0d","name:sa":"\u0915\u094d\u0930\u094b\u090f\u0936\u093f\u092f\u093e","name:sw":"Kroatia","name:be":"\u0425\u0430\u0440\u0432\u0430\u0442\u044b\u044f","name:su":"Kroasia","name:bg":"\u0425\u044a\u0440\u0432\u0430\u0442\u0438\u044f","name:ss":"IKhuroshiya","name:ba":"\u0425\u043e\u0440\u0432\u0430\u0442\u0438\u044f","name:sq":"Kroacia","name:jv":"Kroasia","name:bi":"Croatia","name:pt":"Cro\u00e1cia","name:ps":"\u06a9\u0631\u0648\u0648\u0627\u0633\u064a\u0627","name:oc":"Cro\u00e0cia","min_zoom":8.0,"name:ro":"Croa\u021bia","name:pa":"\u0a15\u0a4d\u0a30\u0a4b\u0a0f\u0a38\u0a3c\u0a40\u0a06","name:os":"\u0425\u043e\u0440\u0432\u0430\u0442\u0438","name:or":"\u0b15\u0b4d\u0b30\u0b4b\u0b0f\u0b38\u0b3f\u0b06","name:pl":"Chorwacja","name:st":"Kroatia","sort_rank":262,"name:sr":"\u0425\u0440\u0432\u0430\u0442\u0441\u043a\u0430","osm_relation":true,"name:tr":"H\u0131rvatistan","name:hi":"\u0915\u094d\u0930\u094b\u090f\u0936\u093f\u092f\u093e","name:sv":"Kroatien","name:he":"\u05e7\u05e8\u05d5\u05d0\u05d8\u05d9\u05d4","name:hy":"\u053d\u0578\u0580\u057e\u0561\u0569\u056b\u0561","name:ht":"Kroasi","name:hu":"Horv\u00e1torsz\u00e1g","name:qu":"Hurwatsuyu","kind":"country","name:yi":"\u05e7\u05e8\u05d0\u05d0\u05d8\u05d9\u05e2","name:yo":"Kroat\u00ed\u00e0","name:mt":"Kroazja","alt_name:eo":"Kroatio","name:ms":"Croatia","name:mr":"\u0915\u094d\u0930\u094b\u090f\u0936\u093f\u092f\u093e","name:my":"\u1001\u101b\u102d\u102f\u1021\u1031\u1038\u101b\u103e\u102c\u1038\u1014\u102d\u102f\u1004\u103a\u1004\u1036","official_name":"Republika Hrvatska","int_name":"Croatia","name:vi":"Croatia","name:ml":"\u0d15\u0d4d\u0d30\u0d4a\u0d2f\u0d47\u0d37\u0d4d\u0d2f","name:mn":"\u0425\u043e\u0440\u0432\u0430\u0442","name:mi":"Koro\u0101tia","id":-214885,"name:mk":"\u0425\u0440\u0432\u0430\u0442\u0441\u043a\u0430","name:vo":"Kroas\u00e4n","name:fa":"\u06a9\u0631\u0648\u0627\u0633\u06cc","name:rw":"Korowatiya","name:fi":"Kroatia","name:ky":"\u0425\u043e\u0440\u0432\u0430\u0442\u0438\u044f","name:fo":"Kroatia","name:fr":"Croatie","name:fy":"Kroaasje","name:nl":"Kroati\u00eb","name:nn":"Kroatia","name:no":"Kroatia","name:na":"Kroaitsiya","name:ne":"\u0915\u094d\u0930\u094b\u090f\u0936\u093f\u092f\u093e","name:wa":"Crowaceye","name:wo":"Korwaasi","name:nv":"Kw\u00f3\u00f3\u02bcad Bik\u00e9yah","name:ga":"An Chr\u00f3it","name:gd":"Cro\u00e0isia","name:gn":"Kyoasia","name:gl":"Croacia","maritime_boundary":true,"name:gv":"Yn Chroit","name:gu":"\u0a95\u0acd\u0ab0\u0acb\u0a8f\u0ab6\u0abf\u0aaf\u0abe"},"arcs":[[1],[2]]}]},"roads":{"type":"GeometryCollection","geometries":[{"type":"LineString","properties":{"source":"openstreetmap.org","kind":"ferry","name":"Ancona-Korfu","sort_rank":355,"min_zoom":8.0,"osm_relation":true,"id":-5384332},"arcs":[14]},{"type":"LineString","properties":{"kind":"ferry","name":"Zadar - I\u017e - Rava","sort_rank":355,"source":"openstreetmap.org","min_zoom":8.0,"ref":"405","id":-2389490,"osm_relation":true},"arcs":[15]},{"type":"LineString","properties":{"source":"openstreetmap.org","kind":"ferry","name":"Trieste - Durr\u00ebs","sort_rank":355,"min_zoom":8.0,"name:it":"Trieste - Durazzo"},"arcs":[16]},{"type":"LineString","properties":{"source":"openstreetmap.org","kind":"ferry","name":"Zaglav - Sali","sort_rank":355,"min_zoom":8.0,"id":179045477},"arcs":[17]},{"type":"MultiLineString","properties":{"sort_rank":380,"kind_detail":"primary","min_zoom":8.0,"kind":"major_road","source":"openstreetmap.org"},"arcs":[[18],[19],[20]]},{"type":"LineString","properties":{"kind":"major_road","network":"Dr\u017eavne ceste","sort_rank":380,"kind_detail":"primary","is_bicycle_related":true,"source":"openstreetmap.org","min_zoom":8.0,"shield_text":"110","ref":"D110"},"arcs":[21]},{"type":"LineString","properties":{"kind":"major_road","network":"Dr\u017eavne ceste","sort_rank":380,"kind_detail":"primary","is_bicycle_related":true,"bicycle_shield_text":null,"bicycle_network":"lcn","source":"openstreetmap.org","min_zoom":8.0,"shield_text":"8","ref":"D8"},"arcs":[22]},{"type":"LineString","properties":{"source":"openstreetmap.org","kind":"ferry","name":"Zadar - Olib","sort_rank":355,"min_zoom":8.0,"id":179030093},"arcs":[23]},{"type":"LineString","properties":{"source":"openstreetmap.org","kind":"ferry","name":"Zadar - Rivanj","sort_rank":355,"min_zoom":8.0,"id":335795665},"arcs":[24]},{"type":"MultiLineString","properties":{"source":"openstreetmap.org","kind":"ferry","sort_rank":355,"ref":"401","min_zoom":8.0,"osm_relation":true},"arcs":[[25],[26]]},{"type":"LineString","properties":{"kind":"ferry","name":"Zadar - Sali - Zaglav","sort_rank":355,"source":"openstreetmap.org","min_zoom":8.0,"ref":"405a","id":-2389411,"osm_relation":true},"arcs":[27]},{"type":"LineString","properties":{"sort_rank":355,"source":"openstreetmap.org","min_zoom":8.0,"name":"Ancona-Patras","kind":"ferry"},"arcs":[28]},{"type":"MultiLineString","properties":{"source":"openstreetmap.org","kind":"ferry","name":"Zadar - Sali (Dugi Otok) - Zaglav (Dugi Otok) - Br\u0161anj (I\u017e)","sort_rank":355,"ref":"9406","min_zoom":8.0,"osm_relation":true},"arcs":[[29],[30],[31],[32]]},{"type":"MultiLineString","properties":{"source":"openstreetmap.org","kind":"ferry","name":"Ancona-Igoumenitsa-Patras","sort_rank":355,"min_zoom":8.0,"osm_relation":true},"arcs":[[33],[34]]},{"type":"LineString","properties":{"source":"openstreetmap.org","kind":"ferry","name":"Rava - Mala Rava","sort_rank":355,"min_zoom":8.0,"id":179006031},"arcs":[35]},{"type":"LineString","properties":{"sort_rank":355,"source":"openstreetmap.org","min_zoom":8.0,"name":"Ancona-Igoumenitsa","kind":"ferry"},"arcs":[36]},{"type":"LineString","properties":{"source":"openstreetmap.org","kind":"ferry","name":"Zadar - Sali","sort_rank":355,"min_zoom":8.0,"id":179044169},"arcs":[37]},{"type":"LineString","properties":{"source":"openstreetmap.org","kind":"ferry","name":"Venezia-Patras","sort_rank":355,"is_bicycle_related":true,"min_zoom":8.0},"arcs":[38]},{"type":"LineString","properties":{"source":"openstreetmap.org","kind":"ferry","name":"Split - Ancona","sort_rank":355,"ref":"53","is_bicycle_related":true,"min_zoom":8.0},"arcs":[39]},{"type":"LineString","properties":{"sort_rank":355,"source":"openstreetmap.org","min_zoom":8.0,"name":"Bar - Ancona","kind":"ferry"},"arcs":[40]},{"type":"LineString","properties":{"source":"openstreetmap.org","kind":"major_road","sort_rank":380,"kind_detail":"primary","ref":"D503","min_zoom":8.0,"id":235323789},"arcs":[41]},{"type":"LineString","properties":{"source":"openstreetmap.org","kind":"ferry","name":"Br\u0161anj - Rava","sort_rank":355,"min_zoom":8.0,"id":179002607},"arcs":[42]},{"type":"LineString","properties":{"source":"openstreetmap.org","kind":"ferry","name":"Zadar - Ist","sort_rank":355,"min_zoom":8.0,"id":179030086},"arcs":[43]},{"type":"MultiLineString","properties":{"kind":"major_road","network":"Dr\u017eavne ceste","sort_rank":380,"kind_detail":"primary","source":"openstreetmap.org","min_zoom":8.0,"shield_text":"109","ref":"D109"},"arcs":[[44],[45]]},{"type":"LineString","properties":{"source":"openstreetmap.org","kind":"ferry","name":"O\u0161ljak - Zadar","sort_rank":355,"ref":"431","min_zoom":8.0,"id":119280397},"arcs":[46]},{"type":"MultiLineString","properties":{"kind":"major_road","network":"Dr\u017eavne ceste","sort_rank":381,"kind_detail":"trunk","source":"openstreetmap.org","min_zoom":8.0,"shield_text":"424","ref":"D424"},"arcs":[[47],[48]]},{"type":"LineString","properties":{"source":"openstreetmap.org","kind":"ferry","name":"Biograd - Tkon (Pa\u0161man)","sort_rank":355,"ref":"432","min_zoom":8.0,"id":41714525},"arcs":[49]},{"type":"LineString","properties":{"kind":"major_road","network":"Dr\u017eavne ceste","sort_rank":380,"kind_detail":"primary","source":"openstreetmap.org","min_zoom":8.0,"shield_text":"110","ref":"D110"},"arcs":[50]},{"type":"LineString","properties":{"bus_network":"local","network":"Dr\u017eavne ceste","sort_rank":380,"kind_detail":"primary","is_bicycle_related":true,"kind":"major_road","bicycle_shield_text":null,"bicycle_network":"lcn","source":"openstreetmap.org","min_zoom":8.0,"bus_shield_text":"10","shield_text":"8","ref":"D8"},"arcs":[51]},{"type":"LineString","properties":{"source":"openstreetmap.org","kind":"ferry","name":"Zadar - Br\u0161anj","sort_rank":355,"min_zoom":8.0,"id":179001802},"arcs":[52]},{"type":"LineString","properties":{"sort_rank":355,"source":"openstreetmap.org","min_zoom":8.0,"kind":"ferry"},"arcs":[53]},{"type":"LineString","properties":{"sort_rank":355,"source":"openstreetmap.org","min_zoom":8.0,"name":"Ancona-Korfu","kind":"ferry"},"arcs":[54]},{"type":"LineString","properties":{"source":"openstreetmap.org","kind":"ferry","name":"Venezia-Igoumenitsa","sort_rank":355,"is_bicycle_related":true,"min_zoom":8.0},"arcs":[55]},{"type":"LineString","properties":{"source":"openstreetmap.org","kind":"ferry","name":"Ancona-Split","sort_rank":355,"min_zoom":8.0,"osm_relation":true,"id":-5291161},"arcs":[56]},{"type":"LineString","properties":{"kind":"major_road","network":"Dr\u017eavne ceste","sort_rank":380,"kind_detail":"primary","source":"openstreetmap.org","min_zoom":8.0,"shield_text":"124","ref":"D124"},"arcs":[57]},{"type":"LineString","properties":{"source":"openstreetmap.org","kind":"ferry","name":"Bo\u017eava-Brbinj","sort_rank":355,"ref":"9404","min_zoom":8.0,"id":335795662},"arcs":[58]},{"type":"LineString","properties":{"source":"openstreetmap.org","kind":"ferry","name":"Zadar - Ancona","sort_rank":355,"ref":"51","min_zoom":8.0,"name:it":"Zara - Ancona"},"arcs":[59]},{"type":"LineString","properties":{"source":"openstreetmap.org","kind":"ferry","name":"Ancona - Durr\u00ebs","sort_rank":355,"min_zoom":8.0,"name:it":"Ancona - Durazzo"},"arcs":[60]},{"type":"LineString","properties":{"source":"openstreetmap.org","kind":"ferry","name":"Zadar - Preko (Ugljan)","sort_rank":355,"ref":"409","min_zoom":8.0,"id":73993964},"arcs":[61]},{"type":"MultiLineString","properties":{"source":"openstreetmap.org","kind":"ferry","name":"Venezia-Igoumenitsa-Patras","sort_rank":355,"min_zoom":8.0,"osm_relation":true},"arcs":[[62],[63]]},{"type":"LineString","properties":{"source":"openstreetmap.org","kind":"major_road","sort_rank":380,"kind_detail":"primary","ref":"D8","min_zoom":8.0},"arcs":[64]},{"type":"LineString","properties":{"source":"openstreetmap.org","kind":"ferry","name":"Ancona-Zadar","sort_rank":355,"min_zoom":8.0,"osm_relation":true,"id":-5291162},"arcs":[65]},{"type":"LineString","properties":{"kind":"major_road","network":"Dr\u017eavne ceste","sort_rank":380,"kind_detail":"primary","source":"openstreetmap.org","min_zoom":8.0,"landuse_kind":"nature_reserve","shield_text":"109","ref":"D109","id":172684009},"arcs":[66]},{"type":"LineString","properties":{"kind":"major_road","network":"Dr\u017eavne ceste","sort_rank":380,"kind_detail":"primary","source":"openstreetmap.org","min_zoom":8.0,"shield_text":"109","id":238979399},"arcs":[67]},{"type":"MultiLineString","properties":{"source":"openstreetmap.org","kind":"ferry","name":"Zadar - Brbinj (Dugi otok)","sort_rank":355,"ref":"434","min_zoom":8.0,"id":335795663},"arcs":[[68],[69]]},{"type":"LineString","properties":{"source":"openstreetmap.org","kind":"ferry","name":"Preko - Zadar","sort_rank":355,"ref":"431","min_zoom":8.0,"id":335800136},"arcs":[70]},{"type":"MultiLineString","properties":{"kind":"major_road","network":"Dr\u017eavne ceste","sort_rank":380,"kind_detail":"primary","source":"openstreetmap.org","min_zoom":8.0,"shield_text":"8","ref":"D8"},"arcs":[[71],[72],[73]]},{"type":"LineString","properties":{"kind":"major_road","network":"Dr\u017eavne ceste","sort_rank":380,"kind_detail":"primary","source":"openstreetmap.org","min_zoom":8.0,"shield_text":"503","ref":"D503"},"arcs":[74]},{"type":"LineString","properties":{"source":"openstreetmap.org","kind":"ferry","name":"Preko (Ugljan) - O\u0161ljak","sort_rank":355,"ref":"431","min_zoom":8.0,"id":119280395},"arcs":[75]},{"type":"LineString","properties":{"kind":"major_road","network":"Dr\u017eavne ceste","sort_rank":380,"kind_detail":"primary","is_bicycle_related":true,"bicycle_shield_text":"1","bicycle_network":"lcn","source":"openstreetmap.org","min_zoom":8.0,"shield_text":"110","ref":"D110","id":391341779},"arcs":[76]}]},"earth":{"type":"GeometryCollection","geometries":[{"type":"MultiPolygon","properties":{"sort_rank":10,"source":"naturalearthdata.com","min_zoom":0.0,"kind":"earth","area":48208844227},"arcs":[[[77]],[[78]],[[79]],[[80]],[[81]]]}]},"landuse":{"type":"GeometryCollection","geometries":[{"type":"Polygon","properties":{"kind":"nature_reserve","protect_class":"4","area":134643008,"sort_rank":23,"source":"openstreetmap.org","min_zoom":7.0,"tier":2,"id":-6572145,"osm_relation":true},"arcs":[[82]]},{"type":"Polygon","properties":{"kind":"park","natural":"archipelago","area":416441984,"sort_rank":24,"source":"openstreetmap.org","min_zoom":6.0,"tier":2,"id":-6572144,"osm_relation":true},"arcs":[[83]]}]}},"type":"Topology","transform":{"translate":[14.0625,43.0688877742],"scale":[0.0003433228,0.0002487054]},"arcs":[[[202,0],[-62,344],[-140,369]],[[1346,4096],[285,-319],[467,-371],[300,-455],[160,-152],[355,-424],[600,-491],[492,-353],[91,-40]],[[4096,891],[-106,7],[-148,-32],[-240,-119],[-216,-237],[-108,-304],[-1,-206]],[[3534,4096],[7,-8],[-2,-13],[122,-149],[59,-24],[54,-55],[75,-114],[160,-192],[20,-33],[12,-28],[15,-25],[32,-26],[8,-4],[0,-3425],[-4096,0],[0,4096],[2554,0],[46,-48],[81,-38],[59,-56],[115,-249],[71,-84],[115,-177],[43,-52],[44,-38],[105,-62],[8,-14],[27,-28],[29,-18],[13,20],[-6,35],[-17,5],[-22,-3],[-23,16],[-17,17],[-73,52],[-13,20],[-7,20],[-13,13],[36,11],[145,-116],[72,25],[-10,46],[-210,148],[-81,118],[-9,20],[-43,5],[-31,18],[-137,148],[-27,40],[-12,49],[-4,55],[-11,40],[-24,23],[-41,6],[7,15],[6,18],[364,0],[55,-45],[61,-71],[57,-44],[28,44],[7,-15],[6,-10],[6,-11],[3,-18],[18,0],[31,20],[26,-36],[28,-54],[37,-40],[-22,116],[-62,78],[-106,86],[252,0]],[[3801,2900],[-38,41],[-35,46],[-221,182],[-15,40],[-60,55],[-38,-25],[17,-49],[42,-53],[39,-37],[79,-58],[59,-80],[56,-37],[172,-78],[25,-18],[-82,71]],[[3145,3855],[-98,106],[-3,25],[-22,33],[-48,36],[-31,14],[-6,-20],[8,-27],[-1,-32],[13,-33],[238,-217],[-3,17],[-33,90],[-14,8]],[[3518,3745],[78,-89],[16,-47],[20,-32],[47,-41],[52,-35],[39,-17],[-7,-16],[-13,-9],[25,-39],[39,-22],[75,-24],[11,-13],[6,-18],[10,-17],[24,-7],[25,-1],[22,-5],[22,-9],[21,-12],[-10,46],[-21,49],[-25,43],[-24,29],[-22,15],[-39,17],[-18,20],[-6,22],[-8,68],[-8,23],[-16,6],[-83,19],[-156,117],[-47,21],[-55,1],[26,-43]],[[4096,3425],[-8,4],[-32,26],[-15,25],[-12,28],[-20,33],[-160,192],[-75,114],[-54,55],[-59,24],[-122,149],[2,13],[-7,8]],[[3612,3609],[20,-32],[47,-41],[52,-35],[39,-17],[-7,-16],[-13,-9],[25,-39],[39,-22],[75,-24],[11,-13],[6,-18],[10,-17],[24,-7],[25,-1],[22,-5],[22,-9],[21,-12],[-10,46],[-21,49],[-25,43],[-24,29],[-22,15],[-39,17],[-18,20],[-6,22],[-8,68],[-8,23],[-16,6],[-83,19],[-156,117],[-47,21],[-55,1],[26,-43],[78,-89],[16,-47]],[[3152,3541],[-81,118],[-9,20],[-43,5],[-31,18],[-137,148],[-27,40],[-12,49],[-4,55],[-11,40],[-24,23],[-41,6],[7,15],[6,18]],[[2554,4096],[46,-48],[81,-38],[59,-56],[115,-249],[71,-84],[115,-177],[43,-52],[44,-38],[105,-62],[8,-14],[27,-28],[29,-18],[13,20],[-6,35],[-17,5],[-22,-3],[-23,16],[-17,17],[-73,52],[-13,20],[-7,20],[-13,13],[36,11],[145,-116],[72,25],[-10,46],[-210,148]],[[3492,3209],[-60,55],[-38,-25],[17,-49],[42,-53],[39,-37],[79,-58],[59,-80],[56,-37],[172,-78],[25,-18],[-82,71],[-38,41],[-35,46],[-221,182],[-15,40]],[[3472,3816],[-22,116],[-62,78],[-106,86]],[[3109,4096],[55,-45],[61,-71],[57,-44],[28,44],[7,-15],[6,-10],[6,-11],[3,-18],[18,0],[31,20],[26,-36],[28,-54],[37,-40]],[[0,1313],[2160,-1313]],[[2904,3836],[-28,12],[0,114],[45,115],[26,14],[110,-70],[-6,-70],[88,-27],[0,-65],[309,-82],[47,59],[-93,260]],[[1449,4096],[2647,-3040]],[[3151,3541],[67,-17],[0,-34]],[[2720,4082],[4,-1]],[[3292,4045],[5,6]],[[4011,3500],[4,0]],[[3956,3428],[-65,32],[-64,104],[-178,154],[-84,25],[-36,46],[-47,3]],[[3647,3930],[-56,65],[-34,92]],[[3473,4096],[-2,-2],[-5,2]],[[3458,4096],[14,-4],[3,4]],[[3466,4096],[5,-2],[2,2]],[[3474,4096],[-3,-3],[-8,3]],[[3151,3541],[28,7],[50,-37],[-10,-22],[25,4],[252,338],[-93,265]],[[2295,0],[-2295,1348]],[[3157,3841],[26,7],[30,-32],[23,-96],[-85,-179],[67,-17],[11,-37],[45,72],[-49,243],[-33,44],[-8,4],[-7,0]],[[3177,3850],[-20,-9]],[[3157,3841],[20,9]],[[3177,3850],[7,3],[246,-86],[62,61],[-91,268]],[[2295,0],[-2295,1348]],[[0,1369],[2369,-1369]],[[2904,3836],[-28,12],[16,46]],[[0,1369],[2369,-1369]],[[3218,3490],[30,7],[249,339],[-93,260]],[[4096,115],[-3966,3981]],[[4096,1726],[-4096,418]],[[0,1388],[2442,-1388]],[[4015,3500],[5,0]],[[3157,3841],[26,5],[26,-32],[20,-97],[-298,57],[-34,32],[7,30]],[[3474,4096],[-3,-3],[-8,3]],[[2626,4096],[105,-67],[49,-64],[-11,-68],[186,-229],[48,-33],[42,9],[11,-53],[90,-83]],[[3154,3491],[37,-12]],[[3333,4050],[120,46]],[[3657,4096],[62,-66],[78,66]],[[3791,4096],[-73,-66],[-60,66]],[[4011,3500],[-39,-21],[-16,-50]],[[3466,3801],[-41,118],[-96,68],[-75,109],[-1,0]],[[3550,4096],[7,-9]],[[3157,3841],[27,11],[265,-76],[47,60],[-11,260]],[[2892,3894],[-23,2],[7,66],[56,127],[125,-68],[-6,-70],[88,-27],[0,-65],[291,-91],[62,60],[-92,268]],[[0,1313],[2160,-1313]],[[134,4096],[3962,-3975]],[[4096,1726],[-4096,418]],[[2725,4036],[-5,46]],[[2715,4096],[5,-14]],[[1503,4096],[-1503,-854]],[[0,1334],[2230,-1334]],[[3314,4096],[-17,-45]],[[4096,115],[-3966,3981]],[[134,4096],[3962,-3975]],[[3947,3606],[-66,53]],[[1503,4096],[-1503,-854]],[[3146,3508],[8,-17]],[[3191,3479],[24,2]],[[3476,4096],[-3,-5],[-21,5]],[[2717,4096],[3,-14]],[[3303,4054],[141,42]],[[3557,4087],[-7,9]],[[3881,3659],[-125,179],[-109,92]],[[4096,3496],[-149,110]],[[4096,3556],[-40,-42],[-45,-14]],[[3297,4051],[36,-1]],[[3482,3792],[-16,9]],[[2554,4096],[191,0],[-6,-18],[-7,-15],[41,-6],[24,-23],[11,-40],[4,-55],[12,-49],[27,-40],[137,-148],[31,-18],[43,-5],[9,-20],[81,-118],[210,-148],[10,-46],[-72,-25],[-145,116],[-36,-11],[13,-13],[7,-20],[13,-20],[73,-52],[17,-17],[23,-16],[22,3],[17,-5],[6,-35],[-13,-20],[-29,18],[-27,28],[-8,14],[-105,62],[-44,38],[-43,52],[-115,177],[-71,84],[-115,249],[-59,56],[-81,38],[-46,48]],[[3109,4096],[173,0],[106,-86],[62,-78],[22,-116],[-37,40],[-28,54],[-26,36],[-31,-20],[-18,0],[-3,18],[-6,11],[-6,10],[-7,15],[-28,-44],[-57,44],[-61,71],[-55,45]],[[3801,2900],[82,-71],[-25,18],[-172,78],[-56,37],[-59,80],[-79,58],[-39,37],[-42,53],[-17,49],[38,25],[60,-55],[15,-40],[221,-182],[35,-46],[38,-41]],[[4020,3338],[10,-46],[-21,12],[-22,9],[-22,5],[-25,1],[-24,7],[-10,17],[-6,18],[-11,13],[-75,24],[-39,22],[-25,39],[13,9],[7,16],[-39,17],[-52,35],[-47,41],[-20,32],[-16,47],[-78,89],[-26,43],[55,-1],[47,-21],[156,-117],[83,-19],[16,-6],[8,-23],[8,-68],[6,-22],[18,-20],[39,-17],[22,-15],[24,-29],[25,-43],[21,-49]],[[3534,4096],[562,0],[0,-671],[-8,4],[-32,26],[-15,25],[-12,28],[-20,33],[-160,192],[-75,114],[-54,55],[-59,24],[-122,149],[2,13],[-7,8]],[[2970,3420],[156,98],[28,-14],[1,-35],[141,-90],[50,-8],[4,29],[111,-145],[-134,-27],[50,-98],[-77,-62],[-330,352]],[[3300,3068],[77,62],[-50,98],[77,28],[98,-20],[84,-57],[-56,-26],[206,-165],[92,-112],[187,-133],[81,-44],[0,-274],[-108,26],[-178,179],[-386,282],[-124,156]]]}