{"objects":{"water":{"type":"GeometryCollection","geometries":[{"type":"Polygon","properties":{"source":"naturalearthdata.com","kind":"ocean","area":1576712559132672,"sort_rank":200,"min_zoom":0.0,"id":1},"arcs":[[11]]},{"type":"LineString","properties":{"source":"naturalearthdata.com","kind":"ocean","sort_rank":205,"boundary":true,"min_zoom":0.0,"id":19},"arcs":[12]}]},"buildings":{"type":"GeometryCollection","geometries":[]},"places":{"type":"GeometryCollection","geometries":[{"type":"Point","properties":{"admin_level":"8","kind":"locality","name":"Pescara","name:el":"\u03a0\u03b5\u03c3\u03ba\u03ac\u03c1\u03b1","kind_detail":"city","source":"openstreetmap.org","min_zoom":8.0,"name:uk":"\u041f\u0435\u0441\u043a\u0430\u0440\u0430","name:ru":"\u041f\u0435\u0441\u043a\u0430\u0440\u0430","name:zh":"\u4f69\u65af\u5361\u62c9","id":1778115456,"population":116286},"coordinates":[441,1707]},{"type":"Point","properties":{"kind":"locality","name":"Montesilvano","kind_detail":"town","source":"openstreetmap.org","min_zoom":8.0,"name:ru":"\u041c\u043e\u043d\u0442\u0435\u0441\u0438\u043b\u044c\u0432\u0430\u043d\u043e","id":70993342,"population":53738},"coordinates":[260,1900]},{"type":"Point","properties":{"name:el":"\u039a\u03b9\u03ad\u03c4\u03b9","kind":"locality","name":"Chieti","kind_detail":"city","source":"openstreetmap.org","min_zoom":8.0,"name:ru":"\u041a\u044c\u0435\u0442\u0438","name:zh":"\u57fa\u8036\u8482","id":70990208,"population":51815},"coordinates":[301,1232]},{"type":"Point","properties":{"source":"openstreetmap.org","kind":"locality","name":"Vasto","kind_detail":"town","population":41087,"min_zoom":8.0,"id":70992107},"coordinates":[1874,361]},{"type":"Point","properties":{"source":"openstreetmap.org","kind":"locality","name":"Lanciano","kind_detail":"town","population":35444,"min_zoom":8.0,"id":70991800},"coordinates":[956,781]},{"type":"Point","properties":{"source":"openstreetmap.org","kind":"locality","name":"Francavilla al Mare","kind_detail":"town","population":25422,"min_zoom":8.0,"id":70990636},"coordinates":[654,1533]},{"type":"Point","properties":{"source":"openstreetmap.org","kind":"locality","name":"Ortona","kind_detail":"town","population":23446,"min_zoom":8.0,"id":70990834},"coordinates":[994,1252]},{"type":"Point","properties":{"source":"openstreetmap.org","kind":"locality","name":"San Salvo","kind_detail":"town","population":20016,"min_zoom":8.0,"id":70991066},"coordinates":[1936,41]},{"type":"Point","properties":{"source":"openstreetmap.org","kind":"locality","name":"Spoltore","kind_detail":"town","population":19366,"min_zoom":8.0,"id":70993479},"coordinates":[229,1663]},{"type":"Point","properties":{"source":"openstreetmap.org","kind":"locality","name":"Silvi","kind_detail":"town","population":15626,"min_zoom":8.0,"id":70993644},"coordinates":[173,2027]},{"type":"Point","properties":{"source":"openstreetmap.org","kind":"locality","name":"Pineto","kind_detail":"town","population":14904,"min_zoom":8.0,"id":3715237646},"coordinates":[14,2271]},{"type":"Point","properties":{"source":"openstreetmap.org","kind":"locality","name":"San Giovanni Teatino","kind_detail":"town","population":14100,"min_zoom":8.0,"id":1221403356},"coordinates":[403,1487]},{"type":"Point","properties":{"source":"openstreetmap.org","kind":"locality","name":"Cepagatti","kind_detail":"town","population":10887,"min_zoom":8.0,"id":70993325},"coordinates":[27,1310]},{"type":"Point","properties":{"source":"openstreetmap.org","kind":"locality","name":"Atessa","kind_detail":"town","population":10639,"min_zoom":8.0,"id":70991478},"coordinates":[1132,144]}]},"transit":{"type":"GeometryCollection","geometries":[{"type":"LineString","properties":{"source":"openstreetmap.org","kind":"train","name":"Ferrovia Adriatica - direzione Sud","sort_rank":275,"min_zoom":6.0,"osm_relation":true},"arcs":[7]},{"type":"LineString","properties":{"source":"openstreetmap.org","kind":"train","name":"Ferrovia Adriatico Sangritana","sort_rank":275,"min_zoom":6.0,"osm_relation":true,"id":-2445411},"arcs":[8]},{"type":"LineString","properties":{"source":"openstreetmap.org","kind":"train","name":"Ferrovia Roma-Pescara","sort_rank":275,"min_zoom":6.0,"osm_relation":true,"id":-396099},"arcs":[9]},{"type":"LineString","properties":{"source":"openstreetmap.org","kind":"train","name":"Ferrovia Adriatica - direzione Nord","sort_rank":275,"min_zoom":6.0,"osm_relation":true},"arcs":[10]}]},"pois":{"type":"GeometryCollection","geometries":[]},"boundaries":{"type":"GeometryCollection","geometries":[{"type":"LineString","properties":{"name:ty":"\u2019It\u0101ria","name:ka":"\u10d8\u10e2\u10d0\u10da\u10d8\u10d0","name:ko":"\uc774\ud0c8\ub9ac\uc544","name:cv":"\u0418\u0442\u0430\u043b\u0438","name:cu":"\u0418\u0442\u0430\u043b\u0457\ua657","name:cs":"It\u00e1lie","name:cr":"\u1403\u1455\u14d6","name:tt":"\u0418\u0442\u0430\u043b\u0438\u044f","name:kw":"Itali","name:kv":"\u0418\u0442\u0430\u043b\u0438\u044f","name:th":"\u0e1b\u0e23\u0e30\u0e40\u0e17\u0e28\u0e2d\u0e34\u0e15\u0e32\u0e25\u0e35","alt_name:cs":"\u0160v\u00fdcarsk\u00e1 konfederace","name:tl":"Italya","name:ce":"\u0418\u0442\u0430\u043b\u0438","name:ta":"\u0b87\u0ba4\u0bcd\u0ba4\u0bbe\u0bb2\u0bbf","name:tg":"\u0418\u0442\u043e\u043b\u0438\u0451","name:ca":"It\u00e0lia","name:te":"\u0c07\u0c1f\u0c32\u0c40","name:cy":"Yr Eidal","name:qu":"Italya","name:da":"Italien","name:de":"Italien","name:dz":"\u0f68\u0f80\u0f4a\u0f0b\u0f63\u0f72\u0f0b","source":"openstreetmap.org","name:kn":"\u0c87\u0c9f\u0cb2\u0cbf","name:dv":"\u0787\u07a8\u0793\u07a6\u078d\u07a9\u0788\u07a8\u078d\u07a7\u078c\u07b0","name:km":"\u17a2\u17ca\u17b8\u178f\u17b6\u179b\u17b8","name:lv":"It\u0101lija","name:lt":"Italija","name:uz":"Italiya","name:kk":"\u0418\u0442\u0430\u043b\u0438\u044f","name:tw":"Italy","name:lb":"Italien","name:lg":"Yitale","name:uk":"\u0406\u0442\u0430\u043b\u0456\u044f","name:ug":"\u0626\u0649\u062a\u0627\u0644\u0649\u064a\u06d5","name:li":"Itali\u00eb","name:ln":"Italya","name:lo":"\u0ead\u0eb4\u0e95\u0eb2\u0ea5\u0eb5","name:el":"\u0399\u03c4\u03b1\u03bb\u03af\u03b1","name:eo":"Italujo","name:en":"Italy","name":"Italia","name:tk":"Itali\u00fda","name:ee":"Italy","name:ku":"\u00cetalya","name:et":"Itaalia","name:ay":"Italiya","name:az":"\u0130taliya","name:as":"\u0987\u099f\u09be\u09b2\u09c0","name:ar":"\u0625\u064a\u0637\u0627\u0644\u064a\u0627","name:ak":"Italy","name:am":"\u1323\u120d\u12eb\u1295","name:ru":"\u0418\u0442\u0430\u043b\u0438\u044f","name:ab":"\u0418\u0442\u0430\u043b\u0438\u0430","name:af":"Itali\u00eb","name:zu":"ITaliya","kind_detail":"2","name:ky":"\u0418\u0442\u0430\u043b\u0438\u044f","name:zh-yue":"\u610f\u5927\u5229","name:zh":"\u610f\u5927\u5229","name:so":"Talyaaniga","name:sl":"Italija","name:sk":"Taliansko","name:ja":"\u30a4\u30bf\u30ea\u30a2","name:sh":"Italija","name:sg":"Ital\u00f9ii","name:se":"It\u00e1lia","name:sc":"It\u00e0lia","name:sa":"\u0907\u091f\u0932\u0940","name:bs":"Italija","name:bn":"\u0987\u09a4\u09be\u09b2\u09bf","name:bo":"\u0f68\u0f72\u0f0b\u0f4f\u0f0b\u0f63\u0f72\u0f0d","name:bi":"Itali","name:be":"\u0406\u0442\u0430\u043b\u0456\u044f","name:bg":"\u0418\u0442\u0430\u043b\u0438\u044f","name:ss":"INtaliyane","name:ba":"\u0418\u0442\u0430\u043b\u0438\u044f","osm_relation":true,"name:pt":"It\u00e1lia","name:ps":"\u0627\u06d0\u067c\u0627\u0644\u064a\u0627","name:oc":"It\u00e0lia","min_zoom":8.0,"name:pa":"\u0a07\u0a1f\u0a32\u0a40","name:os":"\u0418\u0442\u0430\u043b\u0438","name:or":"\u0b07\u0b1f\u0b3e\u0b32\u0b40","name:pl":"W\u0142ochy","sort_rank":262,"name:sr":"\u0418\u0442\u0430\u043b\u0438\u0458\u0430","name:tr":"\u0130talya","name:hi":"\u0907\u091f\u0932\u0940","name:sv":"Italien","name:he":"\u05d0\u05d9\u05d8\u05dc\u05d9\u05d4","name:hy":"\u053b\u057f\u0561\u056c\u056b\u0561","name:ht":"Itali","name:hu":"Olaszorsz\u00e1g","name:hr":"Italija","kind":"country","name:is":"\u00cdtal\u00eda","name:yi":"\u05d0\u05d9\u05d8\u05d0\u05dc\u05d9\u05e2","name:yo":"It\u00e1l\u00ed\u00e0","name:mt":"Italja","alt_name:eo":"Italio","name:ms":"Itali","name:mr":"\u0907\u091f\u0932\u0940","name:my":"\u1021\u102e\u1010\u101c\u102e\u1014\u102d\u102f\u1004\u103a\u1004\u1036","official_name":"Repubblica Italiana","name:ve":"Italy","name:vi":"\u00dd","name:ml":"\u0d07\u0d31\u0d4d\u0d31\u0d32\u0d3f","name:mn":"\u0418\u0442\u0430\u043b\u0438","name:mi":"It\u0101ria","id":-365331,"name:mk":"\u0418\u0442\u0430\u043b\u0438\u0458\u0430","name:vo":"Litaliy\u00e4n","name:fa":"\u0627\u06cc\u062a\u0627\u0644\u06cc\u0627","name:rw":"Ubutaliyani","name:ff":"Italiya","old_name:vi":"\u00dd \u0110\u1ea1i L\u1ee3i","alt_name:vi":"I-ta-li-a","name:fr":"Italie","name:fy":"Itaalje","name:nl":"Itali\u00eb","name:na":"Itari","name:ne":"\u0907\u091f\u093e\u0932\u0940","name:wa":"It\u00e5leye","name:ur":"\u0627\u0637\u0627\u0644\u06cc\u06c1","name:wo":"Itaali","name:nv":"\u00cddelii","name:ga":"An Iod\u00e1il","name:gd":"An Eadailt","name:gn":"It\u00e1lia","maritime_boundary":true,"name:gv":"Yn Iddaal","name:gu":"\u0a88\u0a9f\u0ab2\u0ac0"},"arcs":[0]},{"type":"LineString","properties":{"name:kg":"Kroatia","name:ka":"\u10ee\u10dd\u10e0\u10d5\u10d0\u10e2\u10d8\u10d0","name:ko":"\ud06c\ub85c\uc544\ud2f0\uc544","name:kn":"\u0c95\u0ccd\u0cb0\u0cca\u0caf\u0cc6\u0cb6\u0cbf\u0caf","name:cu":"\u0425\u0440\u044a\u0432\u0430\u0442\u044c\u0441\u043a\u0430","name:kl":"Kroatia","name:cs":"Chorvatsko","name:tt":"\u0425\u043e\u0440\u0432\u0430\u0442\u0438\u044f","name:kw":"Kroati","name:kv":"\u0425\u043e\u0440\u0432\u0430\u0442\u0438\u044f","name:ku":"Kroatya","name:tl":"Kroasya","name:ce":"\u0425\u043e\u0440\u0432\u0430\u0442\u0438","name:ta":"\u0b95\u0bc1\u0bb0\u0bcb\u0bb5\u0bbe\u0b9a\u0bbf\u0baf\u0bbe","name:tg":"\u0425\u043e\u0440\u0432\u0430\u0442\u0438\u044f","name:ca":"Cr\u00f2acia","name:te":"\u0c15\u0c4d\u0c30\u0c4a\u0c2f\u0c47\u0c37\u0c3f\u0c2f\u0c3e","name:cy":"Croatia","name:da":"Kroatien","name:de":"Kroatien","source":"openstreetmap.org","name:dv":"\u0786\u07aa\u0783\u07ae\u0787\u07ad\u079d\u07a8\u0787\u07a7","name:lv":"Horv\u0101tija","name:lt":"Kroatija","name:uz":"Xorvatiya","name:kk":"\u0425\u043e\u0440\u0432\u0430\u0442\u0438\u044f","name:ur":"\u06a9\u0631\u0648\u0634\u06cc\u0627","name:lb":"Kroatien","name:la":"Croatia","name:uk":"\u0425\u043e\u0440\u0432\u0430\u0442\u0456\u044f","name:ug":"\u0643\u0631\u0648\u062f\u0649\u064a\u06d5","name:li":"Kroati\u00eb","name:ln":"Kroasia","name:el":"\u039a\u03c1\u03bf\u03b1\u03c4\u03af\u03b1","name:eo":"Kroatujo","name:en":"Croatia","name":"Hrvatska","name:tk":"Horwati\u00fda","name:ee":"Croatia","name:th":"\u0e1b\u0e23\u0e30\u0e40\u0e17\u0e28\u0e42\u0e04\u0e23\u0e40\u0e2d\u0e40\u0e0a\u0e35\u0e22","name:eu":"Kroazia","name:et":"Horvaatia","name:es":"Croacia","name:ia":"Croatia","name:rn":"Croacia","name:az":"Xorvatiya","name:ie":"Croatia","name:id":"Kroasia","name:ar":"\u0643\u0631\u0648\u0627\u062a\u064a\u0627","name:io":"Kroatia","name:is":"Kr\u00f3at\u00eda","name:am":"\u12ad\u122e\u12a4\u123d\u12eb","name:it":"Croazia","name:an":"Croacia","name:ru":"\u0425\u043e\u0440\u0432\u0430\u0442\u0438\u044f","name:ab":"\u0425\u043e\u0440\u0432\u0430\u0442\u0438\u0430","name:af":"Kroasi\u00eb","kind_detail":"2","name:za":"Gwzlozdiya","name:zh-yue":"\u514b\u7f85\u5730\u4e9e","name:zh":"\u514b\u7f85\u5730\u4e9e","name:so":"Kroatia","name:sm":"Croatia","name:sl":"Hrva\u0161ka","name:sk":"Chorv\u00e1tsko","name:ja":"\u30af\u30ed\u30a2\u30c1\u30a2","name:sg":"Kroas\u00efi","name:se":"Kroatia","name:sc":"Croatzia","name:br":"Kroatia","name:bn":"\u0995\u09cd\u09b0\u09cb\u09af\u09bc\u09c7\u09b6\u09bf\u09af\u09bc\u09be","name:bo":"\u0f41\u0f74\u0f62\u0f7c\u0f0b\u0f64\u0f72\u0f0b\u0f61\u0f0d","name:sa":"\u0915\u094d\u0930\u094b\u090f\u0936\u093f\u092f\u093e","name:sw":"Kroatia","name:be":"\u0425\u0430\u0440\u0432\u0430\u0442\u044b\u044f","name:su":"Kroasia","name:bg":"\u0425\u044a\u0440\u0432\u0430\u0442\u0438\u044f","name:ss":"IKhuroshiya","name:ba":"\u0425\u043e\u0440\u0432\u0430\u0442\u0438\u044f","name:sq":"Kroacia","name:jv":"Kroasia","name:bi":"Croatia","name:pt":"Cro\u00e1cia","name:ps":"\u06a9\u0631\u0648\u0648\u0627\u0633\u064a\u0627","name:oc":"Cro\u00e0cia","min_zoom":8.0,"name:ro":"Croa\u021bia","name:pa":"\u0a15\u0a4d\u0a30\u0a4b\u0a0f\u0a38\u0a3c\u0a40\u0a06","name:os":"\u0425\u043e\u0440\u0432\u0430\u0442\u0438","name:or":"\u0b15\u0b4d\u0b30\u0b4b\u0b0f\u0b38\u0b3f\u0b06","name:pl":"Chorwacja","name:st":"Kroatia","sort_rank":262,"name:sr":"\u0425\u0440\u0432\u0430\u0442\u0441\u043a\u0430","osm_relation":true,"name:tr":"H\u0131rvatistan","name:hi":"\u0915\u094d\u0930\u094b\u090f\u0936\u093f\u092f\u093e","name:sv":"Kroatien","name:he":"\u05e7\u05e8\u05d5\u05d0\u05d8\u05d9\u05d4","name:hy":"\u053d\u0578\u0580\u057e\u0561\u0569\u056b\u0561","name:ht":"Kroasi","name:hu":"Horv\u00e1torsz\u00e1g","name:qu":"Hurwatsuyu","kind":"country","name:yi":"\u05e7\u05e8\u05d0\u05d0\u05d8\u05d9\u05e2","name:yo":"Kroat\u00ed\u00e0","name:mt":"Kroazja","alt_name:eo":"Kroatio","name:ms":"Croatia","name:mr":"\u0915\u094d\u0930\u094b\u090f\u0936\u093f\u092f\u093e","name:my":"\u1001\u101b\u102d\u102f\u1021\u1031\u1038\u101b\u103e\u102c\u1038\u1014\u102d\u102f\u1004\u103a\u1004\u1036","official_name":"Republika Hrvatska","int_name":"Croatia","name:vi":"Croatia","name:ml":"\u0d15\u0d4d\u0d30\u0d4a\u0d2f\u0d47\u0d37\u0d4d\u0d2f","name:mn":"\u0425\u043e\u0440\u0432\u0430\u0442","name:mi":"Koro\u0101tia","id":-214885,"name:mk":"\u0425\u0440\u0432\u0430\u0442\u0441\u043a\u0430","name:vo":"Kroas\u00e4n","name:fa":"\u06a9\u0631\u0648\u0627\u0633\u06cc","name:rw":"Korowatiya","name:fi":"Kroatia","name:ky":"\u0425\u043e\u0440\u0432\u0430\u0442\u0438\u044f","name:fo":"Kroatia","name:fr":"Croatie","name:fy":"Kroaasje","name:nl":"Kroati\u00eb","name:nn":"Kroatia","name:no":"Kroatia","name:na":"Kroaitsiya","name:ne":"\u0915\u094d\u0930\u094b\u090f\u0936\u093f\u092f\u093e","name:wa":"Crowaceye","name:wo":"Korwaasi","name:nv":"Kw\u00f3\u00f3\u02bcad Bik\u00e9yah","name:ga":"An Chr\u00f3it","name:gd":"Cro\u00e0isia","name:gn":"Kyoasia","name:gl":"Croacia","maritime_boundary":true,"name:gv":"Yn Chroit","name:gu":"\u0a95\u0acd\u0ab0\u0acb\u0a8f\u0ab6\u0abf\u0aaf\u0abe"},"arcs":[1]},{"type":"LineString","properties":{"name:left:pl":"Abruzja","short_name:left":"ABR","id:right":-41256,"name:left:sl":"Abruci","min_zoom":8.0,"name:right:sl":"Molize","name:left:ru":"\u0410\u0431\u0440\u0443\u0446\u0446\u043e","short_name:right":"MOL","name:right:ru":"\u041c\u043e\u043b\u0438\u0437\u0435","id":-53937,"osm_relation":true,"name:right":"Molise","kind":"region","name":"Abruzzo - Molise","sort_rank":256,"kind_detail":"4","name:left:ca":"Abru\u00e7os","name:left:de":"Abruzzen","source":"openstreetmap.org","name:left:fr":"Abruzzes","id:left":-53937,"name:left:es":"Abruzos","name:left":"Abruzzo"},"arcs":[2]},{"type":"LineString","properties":{"name:sl":"Abruci","short_name":"ABR","min_zoom":8.0,"name:ru":"\u0410\u0431\u0440\u0443\u0446\u0446\u043e","name:pl":"Abruzja","id":-53937,"osm_relation":true,"kind":"region","name":"Abruzzo","sort_rank":256,"kind_detail":"4","name:de":"Abruzzen","source":"openstreetmap.org","name:fr":"Abruzzes","name:ca":"Abru\u00e7os","name:es":"Abruzos"},"arcs":[3]},{"type":"LineString","properties":{"name:sl":"Abruci","short_name":"ABR","min_zoom":8.0,"name:ru":"\u0410\u0431\u0440\u0443\u0446\u0446\u043e","name:pl":"Abruzja","id":-53937,"osm_relation":true,"kind":"region","name":"Abruzzo","sort_rank":256,"kind_detail":"4","name:fr":"Abruzzes","name:de":"Abruzzen","source":"openstreetmap.org","maritime_boundary":true,"name:ca":"Abru\u00e7os","name:es":"Abruzos"},"arcs":[4]},{"type":"LineString","properties":{"kind":"region","name:sl":"Molize","name":"Molise","short_name":"MOL","sort_rank":256,"kind_detail":"4","source":"openstreetmap.org","min_zoom":8.0,"name:ru":"\u041c\u043e\u043b\u0438\u0437\u0435","id":-41256,"osm_relation":true},"arcs":[5]},{"type":"LineString","properties":{"kind":"region","name:sl":"Molize","name":"Molise","short_name":"MOL","sort_rank":256,"kind_detail":"4","min_zoom":8.0,"source":"openstreetmap.org","maritime_boundary":true,"name:ru":"\u041c\u043e\u043b\u0438\u0437\u0435","id":-41256,"osm_relation":true},"arcs":[6]}]},"roads":{"type":"GeometryCollection","geometries":[{"type":"MultiLineString","properties":{"kind":"major_road","network":null,"sort_rank":380,"kind_detail":"primary","source":"openstreetmap.org","min_zoom":8.0,"landuse_kind":"urban_area","shield_text":"16","ref":"SS16"},"arcs":[[13],[14],[15],[16],[17],[18],[19],[20],[21],[22],[23],[24],[25],[26],[27],[28],[29],[30],[31],[32],[33],[34],[35],[36],[37],[38],[39],[40],[41],[42],[43],[44],[45],[46],[47],[48],[49],[50],[51],[52],[53],[54],[55],[56],[57],[58],[59],[60],[61],[62],[63],[64],[65],[66],[67],[68],[69],[70],[71],[72],[73],[74],[75],[76],[77],[78],[79],[80],[81],[82],[83],[84],[85],[86],[87],[88],[89],[90],[91],[92],[93],[94],[95],[96],[97],[98]]},{"type":"LineString","properties":{"source":"openstreetmap.org","kind":"major_road","sort_rank":380,"kind_detail":"primary","ref":"SS16","min_zoom":8.0,"id":189656704},"arcs":[99]},{"type":"LineString","properties":{"kind":"major_road","network":null,"sort_rank":380,"kind_detail":"primary","bus_network":null,"source":"openstreetmap.org","min_zoom":8.0,"bus_shield_text":"38","shield_text":"16","landuse_kind":"urban_area","id":32261575},"arcs":[100]},{"type":"LineString","properties":{"kind":"major_road","sort_rank":381,"landuse_kind":"urban_area","source":"openstreetmap.org","min_zoom":8.0,"kind_detail":"trunk","loc_name":"Circonvallazione di Pescara","ref":"SS714dir"},"arcs":[101]},{"type":"MultiLineString","properties":{"bus_network":null,"network":null,"sort_rank":380,"kind_detail":"primary","kind":"major_road","source":"openstreetmap.org","min_zoom":8.0,"bus_shield_text":"38","shield_text":"16","landuse_kind":"residential"},"arcs":[[102],[103],[104],[105],[106]]},{"type":"MultiLineString","properties":{"bus_network":null,"network":null,"sort_rank":380,"kind_detail":"primary","kind":"major_road","source":"openstreetmap.org","min_zoom":8.0,"bus_shield_text":"8\/","shield_text":"81","landuse_kind":"urban_area","ref":"SS81"},"arcs":[[107],[108],[109]]},{"type":"MultiLineString","properties":{"kind":"highway","network":"e-road","sort_rank":383,"landuse_kind":"urban_area","source":"openstreetmap.org","min_zoom":8.0,"all_networks":["e-road",null],"kind_detail":"motorway","shield_text":"55","ref":"A14","all_shield_texts":["55","14"]},"arcs":[[110],[111],[112],[113],[114],[115],[116],[117],[118],[119],[120],[121],[122],[123]]},{"type":"LineString","properties":{"source":"openstreetmap.org","kind":"ferry","name":"Ancona-Korfu","sort_rank":355,"min_zoom":8.0,"osm_relation":true},"arcs":[124]},{"type":"MultiLineString","properties":{"sort_rank":380,"kind_detail":"primary","min_zoom":8.0,"kind":"major_road","source":"openstreetmap.org"},"arcs":[[125],[126],[127],[128],[129]]},{"type":"LineString","properties":{"source":"openstreetmap.org","kind":"major_road","sort_rank":380,"kind_detail":"primary","ref":"SS84","min_zoom":8.0},"arcs":[130]},{"type":"MultiLineString","properties":{"kind":"major_road","network":null,"sort_rank":380,"kind_detail":"primary","source":"openstreetmap.org","min_zoom":8.0,"shield_text":"81","ref":"SS81"},"arcs":[[131],[132],[133],[134],[135],[136],[137],[138],[139]]},{"type":"MultiLineString","properties":{"source":"openstreetmap.org","kind":"major_road","landuse_kind":"residential","sort_rank":380,"kind_detail":"primary","ref":"SP25bis","min_zoom":8.0},"arcs":[[140],[141],[142],[143],[144]]},{"type":"LineString","properties":{"kind":"major_road","sort_rank":380,"kind_detail":"primary","bus_network":null,"source":"openstreetmap.org","min_zoom":8.0,"bus_shield_text":"14","landuse_kind":"residential","ref":"SR16bis","id":183713785},"arcs":[145]},{"type":"LineString","properties":{"kind":"major_road","network":null,"sort_rank":380,"kind_detail":"primary","bus_network":null,"source":"openstreetmap.org","min_zoom":8.0,"bus_shield_text":"16","shield_text":"16","landuse_kind":"urban_area","ref":"SS16","id":31983904},"arcs":[146]},{"type":"LineString","properties":{"bus_network":null,"sort_rank":380,"kind_detail":"primary","kind":"major_road","source":"openstreetmap.org","min_zoom":8.0,"bus_shield_text":"7","landuse_kind":"urban_area","ref":"SP222"},"arcs":[147]},{"type":"LineString","properties":{"kind":"major_road","network":null,"sort_rank":380,"kind_detail":"primary","bus_network":null,"source":"openstreetmap.org","min_zoom":8.0,"bus_shield_text":"3\/","shield_text":"5","ref":"SS5","id":115464508},"arcs":[148]},{"type":"LineString","properties":{"sort_rank":355,"source":"openstreetmap.org","min_zoom":8.0,"name":"Ancona-Patras","kind":"ferry"},"arcs":[149]},{"type":"LineString","properties":{"kind":"major_road","sort_rank":380,"kind_detail":"primary","bus_network":null,"source":"openstreetmap.org","min_zoom":8.0,"bus_shield_text":"16","landuse_kind":"residential","id":9898434},"arcs":[150]},{"type":"MultiLineString","properties":{"source":"openstreetmap.org","kind":"major_road","sort_rank":380,"kind_detail":"primary","ref":"SS652","min_zoom":8.0},"arcs":[[151],[152]]},{"type":"MultiLineString","properties":{"bus_network":null,"network":null,"sort_rank":380,"kind_detail":"primary","kind":"major_road","source":"openstreetmap.org","min_zoom":8.0,"bus_shield_text":"2\/","shield_text":"16","landuse_kind":"residential"},"arcs":[[153],[154]]},{"type":"LineString","properties":{"kind":"major_road","network":null,"sort_rank":380,"kind_detail":"primary","source":"openstreetmap.org","min_zoom":8.0,"shield_text":"81","id":6059429},"arcs":[155]},{"type":"MultiLineString","properties":{"source":"openstreetmap.org","kind":"ferry","name":"Ancona-Igoumenitsa-Patras","sort_rank":355,"min_zoom":8.0,"osm_relation":true},"arcs":[[156],[157]]},{"type":"LineString","properties":{"kind":"major_road","network":null,"sort_rank":380,"kind_detail":"primary","bus_network":null,"source":"openstreetmap.org","min_zoom":8.0,"bus_shield_text":"1\/","shield_text":"81","landuse_kind":"urban_area","id":237869924},"arcs":[158]},{"type":"MultiLineString","properties":{"kind":"major_road","network":null,"sort_rank":380,"kind_detail":"primary","source":"openstreetmap.org","min_zoom":8.0,"nat_name":"Strada Regionale 5 Via Tiburtina Valeria","shield_text":"5","landuse_kind":"urban_area","ref":"SR5"},"arcs":[[159],[160]]},{"type":"MultiLineString","properties":{"kind":"major_road","network":null,"sort_rank":381,"landuse_kind":"urban_area","source":"openstreetmap.org","min_zoom":8.0,"kind_detail":"trunk","shield_text":"714","ref":"SS714"},"arcs":[[161],[162],[163],[164],[165],[166],[167],[168]]},{"type":"MultiLineString","properties":{"bus_network":null,"sort_rank":380,"kind_detail":"primary","kind":"major_road","source":"openstreetmap.org","min_zoom":8.0,"bus_shield_text":"7","ref":"SP222"},"arcs":[[169],[170]]},{"type":"MultiLineString","properties":{"bus_network":null,"network":null,"sort_rank":380,"kind_detail":"primary","kind":"major_road","source":"openstreetmap.org","min_zoom":8.0,"bus_shield_text":"1\/","shield_text":"81","landuse_kind":"urban_area","ref":"SS81"},"arcs":[[171],[172]]},{"type":"LineString","properties":{"sort_rank":355,"source":"openstreetmap.org","min_zoom":8.0,"name":"Ancona-Igoumenitsa","kind":"ferry"},"arcs":[173]},{"type":"MultiLineString","properties":{"kind":"major_road","network":null,"sort_rank":380,"kind_detail":"primary","source":"openstreetmap.org","min_zoom":8.0,"nat_name":"Strada Regionale 5 Via Tiburtina Valeria","shield_text":"5","ref":"SS5"},"arcs":[[174],[175]]},{"type":"MultiLineString","properties":{"kind":"major_road","network":null,"sort_rank":380,"kind_detail":"primary","source":"openstreetmap.org","min_zoom":8.0,"nat_name":"Strada Statale 16 Adriatica","shield_text":"16","landuse_kind":"urban_area","ref":"SS16"},"arcs":[[176],[177],[178],[179],[180],[181],[182],[183]]},{"type":"MultiLineString","properties":{"bus_network":null,"sort_rank":380,"kind_detail":"primary","bus_shield_text":"4\/","kind":"major_road","source":"openstreetmap.org","min_zoom":8.0,"old_name":"Via Salaria","landuse_kind":"residential"},"arcs":[[184],[185]]},{"type":"MultiLineString","properties":{"kind":"highway","network":"e-road","sort_rank":383,"landuse_kind":"urban_area","source":"openstreetmap.org","min_zoom":8.0,"all_networks":["e-road","IT:A-road"],"kind_detail":"motorway","shield_text":"80","ref":"A25","all_shield_texts":["80","25"]},"arcs":[[186],[187]]},{"type":"MultiLineString","properties":{"bus_network":null,"sort_rank":380,"kind_detail":"primary","kind":"major_road","source":"openstreetmap.org","min_zoom":8.0,"bus_shield_text":"14","landuse_kind":"residential"},"arcs":[[188],[189]]},{"type":"LineString","properties":{"source":"openstreetmap.org","kind":"highway","landuse_kind":"urban_area","sort_rank":383,"kind_detail":"motorway","ref":"RA12","min_zoom":8.0},"arcs":[190]},{"type":"LineString","properties":{"sort_rank":355,"source":"openstreetmap.org","min_zoom":8.0,"name":"Bar - Ancona","kind":"ferry"},"arcs":[191]},{"type":"MultiLineString","properties":{"source":"openstreetmap.org","kind":"major_road","kind_detail":"trunk","sort_rank":381,"landuse_kind":"urban_area","ref":"SS714dirB","min_zoom":8.0},"arcs":[[192],[193],[194]]},{"type":"MultiLineString","properties":{"bus_network":null,"network":null,"sort_rank":380,"kind_detail":"primary","kind":"major_road","source":"openstreetmap.org","min_zoom":8.0,"bus_shield_text":"16","shield_text":"16","landuse_kind":"residential"},"arcs":[[195],[196],[197]]},{"type":"LineString","properties":{"kind":"major_road","sort_rank":380,"kind_detail":"primary","bus_network":null,"source":"openstreetmap.org","min_zoom":8.0,"bus_shield_text":"16","landuse_kind":"urban_area","ref":"SP25bis","id":50552567},"arcs":[198]},{"type":"LineString","properties":{"kind":"major_road","sort_rank":380,"landuse_kind":"urban_area","source":"openstreetmap.org","min_zoom":8.0,"kind_detail":"primary","ref":"SP221","id":358638515},"arcs":[199]},{"type":"LineString","properties":{"source":"openstreetmap.org","kind":"major_road","landuse_kind":"urban_area","sort_rank":380,"kind_detail":"primary","ref":"SS652","min_zoom":8.0},"arcs":[200]},{"type":"MultiLineString","properties":{"kind":"major_road","sort_rank":380,"kind_detail":"primary","source":"openstreetmap.org","min_zoom":8.0,"landuse_kind":"urban_area","ref":"SP221","nat_name":"Strada Provinciale 221 exSS649 di Fondo Valle Alento"},"arcs":[[201],[202],[203],[204],[205],[206],[207],[208],[209],[210],[211],[212],[213],[214],[215],[216]]},{"type":"LineString","properties":{"bus_network":null,"sort_rank":380,"kind_detail":"primary","kind":"major_road","source":"openstreetmap.org","min_zoom":8.0,"bus_shield_text":"4","ref":"SP222"},"arcs":[217]},{"type":"MultiLineString","properties":{"source":"openstreetmap.org","kind":"major_road","kind_detail":"trunk","sort_rank":381,"landuse_kind":"urban_area","ref":"SP656","min_zoom":8.0},"arcs":[[218],[219],[220]]},{"type":"MultiLineString","properties":{"kind":"major_road","network":null,"sort_rank":380,"kind_detail":"primary","source":"openstreetmap.org","min_zoom":8.0,"landuse_kind":"urban_area","shield_text":"81","ref":"SS81"},"arcs":[[221],[222],[223],[224]]},{"type":"LineString","properties":{"kind":"major_road","sort_rank":380,"kind_detail":"primary","bus_network":null,"source":"openstreetmap.org","min_zoom":8.0,"bus_shield_text":"3\/","id":57385255},"arcs":[225]},{"type":"MultiLineString","properties":{"bus_network":null,"network":null,"sort_rank":380,"kind_detail":"primary","kind":"major_road","source":"openstreetmap.org","min_zoom":8.0,"bus_shield_text":"3\/","shield_text":"5","landuse_kind":"urban_area","ref":"SR5","nat_name":"Strada Regionale 5 Via Tiburtina Valeria"},"arcs":[[226],[227],[228]]},{"type":"LineString","properties":{"kind":"major_road","sort_rank":380,"landuse_kind":"urban_area","source":"openstreetmap.org","min_zoom":8.0,"kind_detail":"primary","ref":"SP25bis","id":24931581},"arcs":[229]},{"type":"LineString","properties":{"source":"openstreetmap.org","kind":"major_road","landuse_kind":"urban_area","sort_rank":380,"kind_detail":"primary","ref":"SPexSS649","min_zoom":8.0},"arcs":[230]},{"type":"MultiLineString","properties":{"source":"openstreetmap.org","kind":"major_road","sort_rank":380,"kind_detail":"primary","ref":"SP222","min_zoom":8.0},"arcs":[[231],[232],[233],[234],[235],[236],[237],[238],[239]]},{"type":"LineString","properties":{"sort_rank":355,"source":"openstreetmap.org","min_zoom":8.0,"name":"Ancona-Korfu","kind":"ferry"},"arcs":[240]},{"type":"MultiLineString","properties":{"bus_network":null,"sort_rank":380,"kind_detail":"primary","kind":"major_road","source":"openstreetmap.org","min_zoom":8.0,"bus_shield_text":"38","landuse_kind":"residential"},"arcs":[[241],[242]]},{"type":"MultiLineString","properties":{"kind":"major_road","network":null,"sort_rank":380,"kind_detail":"primary","source":"openstreetmap.org","min_zoom":8.0,"nat_name":"Strada Regionale 5 Via Tiburtina Valeria","shield_text":"5","ref":"SR5"},"arcs":[[243],[244],[245]]},{"type":"MultiLineString","properties":{"bus_network":null,"sort_rank":380,"kind_detail":"primary","kind":"major_road","source":"openstreetmap.org","min_zoom":8.0,"bus_shield_text":"38","landuse_kind":"residential","ref":"SR16bis"},"arcs":[[246],[247],[248]]},{"type":"LineString","properties":{"source":"openstreetmap.org","kind":"major_road","old_name":"Strada Statale 649 di Fondo Valle Alento","sort_rank":380,"kind_detail":"primary","ref":"SP221","min_zoom":8.0},"arcs":[249]},{"type":"LineString","properties":{"kind":"major_road","network":null,"sort_rank":380,"kind_detail":"primary","bus_network":null,"source":"openstreetmap.org","min_zoom":8.0,"bus_shield_text":"8\/","shield_text":"81","landuse_kind":"urban_area","id":12345198},"arcs":[250]},{"type":"MultiLineString","properties":{"bus_network":null,"network":null,"sort_rank":380,"kind_detail":"primary","kind":"major_road","source":"openstreetmap.org","min_zoom":8.0,"bus_shield_text":"14","shield_text":"16","landuse_kind":"residential"},"arcs":[[251],[252]]},{"type":"MultiLineString","properties":{"source":"openstreetmap.org","kind":"major_road","kind_detail":"trunk","sort_rank":381,"landuse_kind":"urban_area","min_zoom":8.0},"arcs":[[253],[254],[255]]},{"type":"MultiLineString","properties":{"bus_network":null,"sort_rank":380,"kind_detail":"primary","kind":"major_road","source":"openstreetmap.org","min_zoom":8.0,"bus_shield_text":"4\/","landuse_kind":"residential"},"arcs":[[256],[257],[258],[259],[260]]},{"type":"MultiLineString","properties":{"bus_network":null,"sort_rank":380,"kind_detail":"primary","kind":"major_road","source":"openstreetmap.org","min_zoom":8.0,"bus_shield_text":"16","landuse_kind":"residential","ref":"SP25bis"},"arcs":[[261],[262],[263]]},{"type":"MultiLineString","properties":{"kind":"major_road","network":null,"sort_rank":380,"kind_detail":"primary","source":"openstreetmap.org","min_zoom":8.0,"landuse_kind":"urban_area","shield_text":"16"},"arcs":[[264],[265],[266],[267],[268],[269],[270],[271],[272],[273],[274],[275],[276],[277],[278]]},{"type":"MultiLineString","properties":{"source":"openstreetmap.org","kind":"major_road","landuse_kind":"residential","sort_rank":380,"kind_detail":"primary","min_zoom":8.0},"arcs":[[279],[280],[281],[282],[283],[284],[285],[286]]},{"type":"MultiLineString","properties":{"sort_rank":383,"kind_detail":"motorway","min_zoom":8.0,"kind":"highway","source":"openstreetmap.org"},"arcs":[[287],[288],[289]]},{"type":"LineString","properties":{"kind":"major_road","sort_rank":380,"landuse_kind":"urban_area","source":"openstreetmap.org","min_zoom":8.0,"kind_detail":"primary","ref":"SS650","id":35915618},"arcs":[290]},{"type":"MultiLineString","properties":{"kind":"major_road","sort_rank":380,"kind_detail":"primary","source":"openstreetmap.org","min_zoom":8.0,"landuse_kind":"urban_area","ref":"SP214","nat_name":"Strada Provinciale 214 Ex-Statale 263 di Val di Foro e di Bocca di Valle"},"arcs":[[291],[292],[293],[294],[295],[296],[297]]},{"type":"MultiLineString","properties":{"bus_network":null,"network":null,"sort_rank":380,"kind_detail":"primary","kind":"major_road","source":"openstreetmap.org","min_zoom":8.0,"bus_shield_text":"3\/","shield_text":"5","ref":"SS5","nat_name":"Strada Regionale 5 Via Tiburtina Valeria"},"arcs":[[298],[299]]},{"type":"MultiLineString","properties":{"source":"openstreetmap.org","kind":"major_road","kind_detail":"trunk","sort_rank":381,"landuse_kind":"urban_area","ref":"SS16dir\/C","min_zoom":8.0},"arcs":[[300],[301]]},{"type":"LineString","properties":{"source":"openstreetmap.org","kind":"ferry","name":"Termoli-San Domino","sort_rank":355,"min_zoom":8.0,"id":69741093},"arcs":[302]},{"type":"LineString","properties":{"source":"openstreetmap.org","kind":"ferry","name":"Ancona - Durr\u00ebs","sort_rank":355,"min_zoom":8.0,"name:it":"Ancona - Durazzo"},"arcs":[303]},{"type":"LineString","properties":{"kind":"major_road","sort_rank":380,"kind_detail":"primary","bus_network":null,"source":"openstreetmap.org","min_zoom":8.0,"bus_shield_text":"1\/","landuse_kind":"urban_area","id":238005486},"arcs":[304]},{"type":"MultiLineString","properties":{"source":"openstreetmap.org","kind":"major_road","old_name":"Via Salaria","sort_rank":380,"kind_detail":"primary","landuse_kind":"residential","min_zoom":8.0},"arcs":[[305],[306],[307],[308]]},{"type":"LineString","properties":{"kind":"major_road","sort_rank":380,"kind_detail":"primary","source":"openstreetmap.org","min_zoom":8.0,"nat_name":"Strada Provinciale 221 exSS649 di Fondo Valle Alento","ref":"SP221","id":36809969},"arcs":[309]},{"type":"MultiLineString","properties":{"kind":"highway","network":"e-road","sort_rank":383,"kind_detail":"motorway","source":"openstreetmap.org","min_zoom":8.0,"all_networks":["e-road",null],"shield_text":"55","ref":"A14","all_shield_texts":["55","14"]},"arcs":[[310],[311],[312],[313],[314],[315],[316],[317],[318],[319],[320],[321],[322],[323],[324],[325]]},{"type":"MultiLineString","properties":{"source":"openstreetmap.org","kind":"major_road","landuse_kind":"urban_area","sort_rank":380,"kind_detail":"primary","ref":"SP2","min_zoom":8.0},"arcs":[[326],[327],[328],[329],[330],[331]]},{"type":"MultiLineString","properties":{"source":"openstreetmap.org","kind":"major_road","landuse_kind":"urban_area","sort_rank":380,"kind_detail":"primary","ref":"SS16","min_zoom":8.0},"arcs":[[332],[333]]},{"type":"LineString","properties":{"kind":"major_road","network":null,"sort_rank":380,"kind_detail":"primary","source":"openstreetmap.org","min_zoom":8.0,"landuse_kind":"urban_area","shield_text":"650","ref":"SS650"},"arcs":[334]},{"type":"LineString","properties":{"kind":"major_road","sort_rank":380,"kind_detail":"primary","bus_shield_text":"14","bus_network":null,"source":"openstreetmap.org","min_zoom":8.0,"old_name":"Via Salaria","landuse_kind":"residential","id":10166886},"arcs":[335]},{"type":"MultiLineString","properties":{"bus_network":null,"network":null,"sort_rank":380,"kind_detail":"primary","kind":"major_road","source":"openstreetmap.org","min_zoom":8.0,"bus_shield_text":"4\/","shield_text":"16","landuse_kind":"residential"},"arcs":[[336],[337]]},{"type":"LineString","properties":{"source":"openstreetmap.org","kind":"major_road","sort_rank":380,"kind_detail":"primary","ref":"SPexSS649","min_zoom":8.0},"arcs":[338]},{"type":"LineString","properties":{"kind":"major_road","sort_rank":380,"landuse_kind":"urban_area","source":"openstreetmap.org","min_zoom":8.0,"kind_detail":"primary","ref":"SP23","id":31715590},"arcs":[339]},{"type":"MultiLineString","properties":{"bus_network":null,"network":null,"sort_rank":380,"kind_detail":"primary","kind":"major_road","source":"openstreetmap.org","min_zoom":8.0,"bus_shield_text":"16","shield_text":"16","landuse_kind":"residential","ref":"SS16"},"arcs":[[340],[341],[342],[343],[344],[345],[346],[347],[348]]},{"type":"LineString","properties":{"kind":"major_road","sort_rank":380,"landuse_kind":"urban_area","source":"openstreetmap.org","min_zoom":8.0,"kind_detail":"primary","ref":"SP222","id":57381028},"arcs":[349]},{"type":"MultiLineString","properties":{"source":"openstreetmap.org","kind":"major_road","landuse_kind":"urban_area","sort_rank":380,"kind_detail":"primary","min_zoom":8.0},"arcs":[[350],[351],[352],[353],[354],[355],[356],[357],[358],[359],[360],[361],[362],[363],[364],[365],[366],[367],[368],[369],[370],[371],[372],[373],[374],[375],[376],[377],[378],[379],[380],[381],[382],[383],[384],[385],[386],[387],[388],[389],[390],[391],[392],[393],[394],[395],[396],[397],[398]]},{"type":"MultiLineString","properties":{"kind":"highway","network":"e-road","sort_rank":383,"kind_detail":"motorway","source":"openstreetmap.org","min_zoom":8.0,"all_networks":["e-road","IT:A-road"],"shield_text":"80","ref":"A25","all_shield_texts":["80","25"]},"arcs":[[399],[400]]},{"type":"LineString","properties":{"kind":"major_road","network":null,"sort_rank":380,"kind_detail":"primary","bus_network":null,"source":"openstreetmap.org","min_zoom":8.0,"bus_shield_text":"38","shield_text":"16","landuse_kind":"residential","ref":"SS16","id":31983640},"arcs":[401]},{"type":"MultiLineString","properties":{"source":"openstreetmap.org","kind":"major_road","sort_rank":380,"kind_detail":"primary","ref":"SP221","min_zoom":8.0},"arcs":[[402],[403],[404]]},{"type":"LineString","properties":{"source":"openstreetmap.org","kind":"highway","landuse_kind":"urban_area","sort_rank":383,"kind_detail":"motorway","min_zoom":8.0},"arcs":[405]},{"type":"MultiLineString","properties":{"kind":"major_road","network":null,"sort_rank":381,"kind_detail":"trunk","source":"openstreetmap.org","min_zoom":8.0,"landuse_kind":"residential","shield_text":"714","ref":"SS714"},"arcs":[[406],[407]]},{"type":"MultiLineString","properties":{"bus_network":null,"network":null,"sort_rank":380,"kind_detail":"primary","kind":"major_road","source":"openstreetmap.org","min_zoom":8.0,"bus_shield_text":"3\/","shield_text":"5","ref":"SR5","nat_name":"Strada Regionale 5 Via Tiburtina Valeria"},"arcs":[[408],[409]]},{"type":"MultiLineString","properties":{"kind":"major_road","network":null,"sort_rank":380,"kind_detail":"primary","source":"openstreetmap.org","min_zoom":8.0,"shield_text":"16","ref":"SS16"},"arcs":[[410],[411],[412],[413],[414],[415],[416],[417],[418],[419],[420],[421],[422],[423],[424],[425],[426],[427],[428],[429],[430]]},{"type":"MultiLineString","properties":{"kind":"major_road","network":null,"sort_rank":380,"kind_detail":"primary","source":"openstreetmap.org","min_zoom":8.0,"landuse_kind":"urban_area","shield_text":"81"},"arcs":[[431],[432]]},{"type":"LineString","properties":{"bus_network":null,"sort_rank":380,"kind_detail":"primary","kind":"major_road","source":"openstreetmap.org","min_zoom":8.0,"bus_shield_text":"38","landuse_kind":"urban_area"},"arcs":[433]},{"type":"LineString","properties":{"source":"openstreetmap.org","kind":"major_road","kind_detail":"trunk","sort_rank":381,"landuse_kind":"urban_area","ref":"SP656dir","min_zoom":8.0},"arcs":[434]},{"type":"LineString","properties":{"source":"openstreetmap.org","kind":"major_road","kind_detail":"trunk","sort_rank":381,"landuse_kind":"urban_area","ref":"SS714dirA","min_zoom":8.0},"arcs":[435]}]},"earth":{"type":"GeometryCollection","geometries":[{"type":"MultiPolygon","properties":{"sort_rank":10,"source":"naturalearthdata.com","min_zoom":0.0,"kind":"earth","area":40700477080},"arcs":[[[436]]]}]},"landuse":{"type":"GeometryCollection","geometries":[{"type":"MultiPolygon","properties":{"source":"naturalearthdata.com","kind":"urban_area","name":"","area":6537020209,"sort_rank":11,"min_zoom":4.0},"arcs":[[[437]],[[438]],[[439]],[[440]],[[441]]]},{"type":"MultiPolygon","properties":{"source":"openstreetmap.org","kind":"residential","tier":2,"area":39133722,"sort_rank":20,"min_zoom":8.0},"arcs":[[[442]],[[443]]]},{"type":"MultiPolygon","properties":{"source":"openstreetmap.org","kind":"park","tier":2,"area":2939424009,"sort_rank":24,"min_zoom":4.0,"osm_relation":true},"arcs":[[[444]]]}]}},"type":"Topology","transform":{"translate":[14.0625,42.0329743324],"scale":[0.0003433228,0.0002529086]},"arcs":[[[4096,1209],[-118,-26],[-1083,-388],[-555,439],[-406,170],[-148,171],[-181,271],[-165,142],[-325,217],[-314,342],[-245,422],[-140,331],[-55,307],[-159,489]],[[3277,4096],[51,-205],[51,-102],[204,-232],[283,-137],[230,-13]],[[2095,0],[4,12],[-62,28],[51,106]],[[2088,146],[-9,6]],[[2079,152],[-89,49],[-79,84],[6,199],[-24,98],[-12,-23],[-33,3],[-265,112],[-280,190],[-21,81],[-223,213],[0,36],[-36,30],[30,25],[-36,-14],[-8,49],[43,-27],[-8,18],[34,-1],[-62,9],[-60,63],[-184,111],[-229,186],[-62,76],[26,-10],[-9,22],[-29,-9],[-49,38],[-282,334],[-138,219]],[[2098,141],[-10,5]],[[2352,0],[-254,141]],[[0,2300],[208,-331],[248,-322],[74,-10],[232,-184],[195,-115],[45,-50],[26,-106],[85,-138],[165,-191],[248,-174],[179,-63],[172,-101],[20,-44],[2,-200],[80,-91],[317,-179],[5,-1]],[[1006,1254],[-4,21]],[[433,1682],[19,-45],[-44,-20],[-96,-132],[-124,-283],[-141,-69],[-47,-49]],[[0,2300],[208,-331],[248,-322],[74,-10],[224,-178],[203,-121],[45,-50],[26,-106],[85,-138],[165,-192],[248,-173],[179,-63],[172,-101],[20,-44],[2,-200],[80,-92],[306,-173],[20,-6]],[[2345,0],[-94,44],[-103,88],[-58,35],[-49,11],[-17,3],[-49,23],[-32,57],[-20,78],[-16,164],[-23,60],[-46,40],[-117,22],[-167,69],[-104,68],[-382,380],[-122,202],[-91,79],[-209,140],[-186,166],[-423,508],[-18,43],[-17,60],[-2,4],[0,1752],[4096,0],[0,-4096],[-1751,0]],[[0,2344],[2,-4],[17,-60],[18,-43],[423,-508],[186,-166],[209,-140],[91,-79],[122,-202],[382,-380],[104,-68],[167,-69],[117,-22],[46,-40],[23,-60],[16,-164],[20,-78],[32,-57],[49,-23],[17,-3],[49,-11],[58,-35],[103,-88],[94,-44]],[[0,2281],[17,-28]],[[110,2122],[-22,34]],[[200,1974],[-1,1],[0,-1]],[[200,1973],[1,-1]],[[201,1972],[0,1]],[[201,1972],[30,-33]],[[231,1939],[0,-1]],[[232,1938],[-1,1]],[[232,1937],[1,0]],[[233,1937],[-1,0]],[[233,1937],[5,-6]],[[242,1926],[5,-6]],[[532,1635],[-16,14]],[[532,1635],[1,-2]],[[533,1634],[-1,1]],[[534,1633],[1,-1]],[[534,1633],[-1,1]],[[533,1634],[0,-1],[1,-1],[0,1]],[[535,1632],[-1,1]],[[553,1615],[-18,17]],[[553,1615],[0,-1]],[[554,1614],[-1,1]],[[553,1614],[1,-1]],[[554,1613],[0,1],[-1,0]],[[554,1613],[1,0]],[[555,1613],[-1,1]],[[574,1595],[-19,18]],[[574,1595],[2,-1]],[[576,1595],[-2,0]],[[576,1594]],[[576,1594],[1,-1]],[[577,1593],[0,1]],[[625,1551],[-48,42]],[[626,1549],[1,0]],[[627,1549],[-1,1]],[[633,1545],[-6,4]],[[633,1545],[1,-1]],[[634,1544],[-1,1]],[[634,1544],[2,-1]],[[636,1543],[-2,1]],[[652,1535],[-16,8]],[[652,1534],[78,-61]],[[730,1473],[1,-1]],[[731,1473],[-1,0]],[[731,1472],[2,-1]],[[733,1471],[-1,1]],[[733,1471],[16,-10]],[[749,1461],[1,-2]],[[751,1460],[-2,1]],[[753,1459],[-2,1]],[[751,1459],[0,1],[-1,0],[1,-1]],[[751,1459],[2,0]],[[753,1459],[22,-14]],[[872,1381],[61,-70],[15,-65],[47,-16]],[[1000,1233],[19,-45]],[[1278,908],[0,25]],[[1737,530],[9,-2]],[[1746,528],[1,0]],[[1747,528],[-1,0]],[[1748,527],[1,0]],[[1749,527],[-1,1]],[[1749,527],[56,-2]],[[2010,171],[-104,96],[6,120],[-31,120],[-35,27],[-39,-9]],[[2010,171],[65,-37]],[[2075,134],[0,-1]],[[2075,134]],[[2076,133],[1,0]],[[2077,133],[-1,0]],[[2149,96],[-72,37]],[[200,1974],[0,-1],[1,0],[0,1],[-1,0]],[[232,1937],[0,1],[-1,0],[0,-1],[1,0]],[[625,1550],[0,-1],[1,0],[0,1]],[[626,1550],[-1,0]],[[634,1544]],[[651,1534],[1,0]],[[652,1534],[0,1],[-1,-1]],[[732,1472],[-1,1],[0,-1],[1,0]],[[1748,528],[-1,0]],[[1747,528],[0,-1],[1,0]],[[1748,527],[0,1]],[[1807,525],[0,1],[-2,0],[0,-2],[2,1]],[[2011,171],[-1,1],[0,-1]],[[2010,171],[1,0]],[[2076,134],[-1,-1]],[[2075,133],[1,0]],[[2076,133],[0,1]],[[1686,518],[-1,1],[-1,0],[0,-2],[2,1]],[[337,1820],[4,-4]],[[320,1816],[-17,-16],[17,16]],[[334,1823],[1,-1]],[[335,1821],[1,0]],[[336,1821],[-1,1]],[[336,1821],[1,-1]],[[341,1816],[27,-31]],[[258,1327],[1,-1]],[[260,1325]],[[273,1313],[2,-2]],[[71,2079],[133,-129],[-49,-109],[-9,-71]],[[146,1770],[9,71],[51,104],[-1,5],[-134,130]],[[246,1508],[26,-58],[64,-22],[40,18],[73,58],[37,2]],[[486,1507],[-37,-2],[-113,-77],[-64,23],[-25,58]],[[657,1421],[-42,47]],[[616,1467],[41,-45]],[[856,1242],[39,-49],[74,-48]],[[969,1145],[-113,97]],[[1081,994],[2,-59],[58,-76],[22,-23],[40,-26]],[[1203,811],[-119,123],[-2,60]],[[1702,485],[149,-242]],[[1851,243],[1,6],[-3,12],[-31,46],[-7,11],[-107,166],[-2,1]],[[2138,86],[-15,9],[-15,2],[-56,-7],[-82,21],[-49,45],[-22,7],[-13,16],[-13,6]],[[1874,184],[25,-22],[22,-6],[49,-45],[82,-22],[86,-3]],[[2160,4096],[1936,-1163]],[[664,353],[-1,-1]],[[667,355],[-2,-2]],[[893,292],[8,-4]],[[147,1177],[0,-1],[1,0],[-1,1]],[[665,354],[-1,-1],[1,-1],[1,1],[-1,1]],[[893,292],[-31,33],[-65,-7],[-131,35]],[[144,1345],[-68,-30],[-76,19]],[[144,1345],[1,1]],[[145,1346],[-1,-1]],[[148,1346],[-1,1]],[[147,1346],[1,0]],[[153,1347],[-5,-1]],[[349,1123],[-62,-68],[-23,-73],[27,-103],[134,-138]],[[469,698],[-32,38]],[[665,352],[-171,186],[-29,56],[18,22],[-16,76]],[[210,1855],[1,-1]],[[211,1854],[-1,1]],[[211,1854],[8,-2]],[[219,1852],[2,-1]],[[221,1851],[-2,1]],[[421,1709],[0,1],[0,-1]],[[247,1920],[3,-3]],[[346,1263],[24,23]],[[38,1114],[1,1]],[[4096,3051],[-1801,1045]],[[221,1851],[0,1],[0,-1]],[[905,311],[-76,-211],[34,-100]],[[1332,825],[-136,-196]],[[407,1741],[4,-5]],[[412,1736],[-3,10]],[[147,1346],[-1,1],[-1,0],[1,-2],[1,1]],[[4096,3051],[-1801,1045]],[[2369,4096],[1727,-986]],[[260,1326],[-1,0]],[[207,1216],[1,0]],[[208,1217]],[[233,1842],[64,-47]],[[297,1795],[4,-22]],[[302,1773],[-1,11],[-4,11]],[[303,1746],[46,-99],[39,-32],[31,-24],[61,20]],[[480,1611],[-61,-20],[-31,24],[-84,132]],[[480,1611],[264,-167]],[[744,1444],[1,-1]],[[746,1444],[-2,0]],[[370,1286],[4,4]],[[393,1297],[32,-5]],[[259,1326],[-14,14]],[[260,1326],[13,-13]],[[2369,4096],[1727,-986]],[[37,1114],[0,-1]],[[38,1114]],[[178,2013],[-68,109]],[[178,2013],[0,-1]],[[179,2012],[-1,1]],[[179,2010],[1,-1]],[[180,2009],[-1,2]],[[180,2009],[19,-34]],[[995,1230],[5,3]],[[178,2012],[-1,-1],[1,-1],[1,1],[-1,1]],[[414,1716],[7,-6]],[[421,1710],[1,0]],[[239,1491],[-58,-130],[-2,-8],[-13,-89],[-2,-29]],[[164,1235],[17,126],[57,126]],[[405,1743],[2,-2]],[[423,1712],[-3,0]],[[365,1624],[-94,-208],[-53,-50],[-24,-158],[24,158],[54,49],[94,210]],[[2442,4096],[1654,-929]],[[676,1446],[-2,-1]],[[675,1445],[1,1]],[[676,1446],[21,18]],[[329,1829],[6,-7]],[[335,1821],[0,1]],[[335,1822],[0,-1]],[[232,1842],[-8,7]],[[582,1505],[20,40]],[[1196,629],[-137,-194],[-154,-124]],[[613,1547],[-9,-1]],[[604,1546],[-2,-1]],[[613,1547],[1,0]],[[614,1547],[-1,0]],[[614,1547],[1,0]],[[615,1547],[-1,0]],[[615,1547]],[[615,1547]],[[615,1547],[3,0]],[[620,1547],[-2,0]],[[618,1547],[1,-1]],[[619,1546],[1,0],[0,1]],[[620,1547],[-1,-1]],[[621,1548],[-1,-1]],[[621,1547],[0,1]],[[621,1548],[4,1]],[[444,1293],[-14,-1]],[[335,1268],[-50,30],[-15,33],[17,82]],[[335,1268],[-38,31]],[[342,1263],[-7,5]],[[203,1349],[-50,-2]],[[245,1340],[-41,9]],[[204,1349],[-1,0]],[[203,1349],[0,-1],[1,0],[0,1]],[[187,1193],[-9,-3]],[[208,1215],[-12,-18]],[[208,1215],[0,2]],[[208,1217],[0,-2]],[[232,1842],[1,0]],[[625,1549]],[[374,1290],[9,7]],[[383,1297],[10,0]],[[399,1298],[-16,-1]],[[401,1299],[-2,-1]],[[402,1298],[-1,0]],[[404,1298],[-2,1]],[[430,1292],[-8,1]],[[425,1292],[4,-1],[6,2]],[[444,1293],[13,0]],[[2160,4096],[1936,-1163]],[[429,1700],[0,1]],[[210,1855],[0,1],[0,-1]],[[0,1105],[35,8]],[[35,1113],[2,1]],[[37,1114],[-2,-1]],[[212,1859],[-2,-3]],[[210,1856],[2,2]],[[212,1859],[0,-1],[0,1]],[[349,1123],[83,123]],[[259,1326],[1,-1]],[[368,1785],[9,-11]],[[380,1771],[25,-27]],[[288,1299],[-5,-4]],[[284,1409],[3,3]],[[424,1693],[1,4]],[[406,1731],[4,4]],[[422,1710],[6,-8]],[[428,1703],[-5,8]],[[428,1702],[1,-1],[0,1],[-1,1]],[[428,1703],[0,-1]],[[221,1851],[2,-1]],[[223,1850],[-2,1]],[[224,1849],[-1,1]],[[238,1931],[4,-5]],[[481,1656],[-2,-2]],[[479,1654],[0,-1],[1,1]],[[480,1654],[-1,0]],[[480,1654],[1,2]],[[480,1653],[18,-1]],[[498,1652],[-18,2]],[[498,1652],[1,0],[0,1],[-1,-1]],[[499,1652],[14,-2]],[[514,1651],[-15,2]],[[514,1651],[0,-1],[0,1]],[[514,1650],[2,-1],[-2,1]],[[625,1550]],[[1808,526],[-1,0]],[[482,1656],[0,1],[-1,0],[0,-1],[1,0]],[[206,1866],[4,-6]],[[210,1860],[2,-1]],[[212,1859],[-2,1]],[[404,1729],[0,1]],[[420,1712],[-1,0]],[[422,1711],[1,1]],[[428,1701],[1,-1]],[[423,1712],[0,-1],[0,1]],[[151,1203],[5,0]],[[156,1203],[-5,1]],[[191,1203],[-35,0]],[[2063,141],[-2,3]],[[747,1444],[-1,0]],[[746,1443],[1,1]],[[747,1444],[3,14]],[[750,1458],[1,1]],[[750,1459],[0,-1]],[[746,1443],[0,1]],[[746,1444],[-1,-1],[1,0]],[[39,1115],[-2,-1]],[[37,1113],[1,1]],[[441,1699],[-30,-10],[-18,-10],[-24,-37],[-4,-18]],[[366,1625],[28,53],[47,21]],[[3240,0],[856,239]],[[2230,4096],[1866,-1095]],[[274,1312],[-1,1]],[[410,1721],[-6,9]],[[410,1721],[4,-5]],[[416,1715],[-6,6]],[[419,1712],[-2,1]],[[503,1337],[3,8]],[[0,2244],[44,-123],[9,-21],[18,-21]],[[71,2080],[-71,165]],[[146,1770],[-1,-10],[18,-80],[5,-80],[78,-92]],[[247,1509],[-78,91],[-5,80],[-18,90]],[[486,1506],[88,6],[42,-45]],[[615,1468],[-41,44],[-88,-5]],[[657,1422],[31,-62],[107,-63],[45,-20],[16,-35]],[[856,1242],[-16,35],[-25,15],[-20,5],[-67,44],[-40,20],[-31,60]],[[969,1145],[37,-32],[37,-15],[38,-104]],[[1082,994],[-38,104],[-75,47]],[[1203,810],[48,-101],[30,-46],[10,-8],[7,-1],[6,0],[83,24],[167,-49],[36,-70],[8,-6],[49,-27],[4,-5],[15,-11],[36,-25]],[[1702,485],[-55,41],[-57,34],[-36,69],[-167,50],[-95,-23],[-89,155]],[[1851,243],[-2,-16],[21,-41],[4,-2]],[[1873,185],[-22,58]],[[2138,86],[125,-86]],[[2264,0],[-126,86]],[[217,1927],[-1,-1]],[[216,1925],[1,2]],[[217,1927],[13,9]],[[230,1936],[1,1]],[[231,1938],[-1,-2]],[[216,1926],[-1,-1],[0,-1],[1,1],[0,1]],[[2010,172],[-1,0]],[[2011,171]],[[1991,0],[31,33],[41,108]],[[419,1712],[1,-1]],[[377,1774],[3,-3]],[[409,1746],[-3,-2]],[[432,1246],[71,91]],[[664,1442],[6,2]],[[250,1917],[6,-7]],[[256,1910],[1,-1]],[[257,1910],[-1,0]],[[257,1909],[1,-1]],[[258,1908],[-1,1]],[[258,1908],[22,-24]],[[325,1834],[4,-5]],[[256,1910]],[[257,1909],[0,1],[0,-1]],[[345,1263],[1,0]],[[195,1882],[23,19]],[[196,1881],[10,-15]],[[215,1909],[1,-1]],[[216,1911],[-1,-1]],[[216,1908],[0,1]],[[218,1903],[-2,5]],[[216,1909],[0,2]],[[216,1924],[2,0]],[[218,1924],[-2,-13]],[[218,1924],[-2,1]],[[224,1347],[-7,5]],[[218,1901]],[[218,1901]],[[218,1903],[0,-1]],[[219,1902],[-1,1]],[[224,1347],[-1,-1]],[[225,1345],[-1,2]],[[284,1438],[2,1],[-1,1],[-1,0],[0,-2]],[[284,1438],[8,-8],[2,-1],[4,2]],[[294,1430],[-9,8]],[[297,1432],[-1,-1]],[[296,1430],[2,1]],[[438,1687],[19,-23]],[[457,1664],[1,-1]],[[458,1663],[-1,1]],[[458,1663],[1,-1]],[[459,1662],[0,1]],[[459,1662],[22,-6]],[[615,1536],[4,5]],[[619,1541],[1,1]],[[620,1543],[-1,-2]],[[620,1546],[0,-3]],[[620,1543],[0,-1],[1,0],[0,1]],[[621,1543],[-1,0]],[[621,1543],[-1,3]],[[673,1445],[-3,-1],[3,-1]],[[1804,525],[-1,0]],[[2061,106],[-21,-1]],[[196,1881],[0,1],[-1,0],[0,-1],[1,0]],[[215,1910],[0,-1],[1,0],[0,1],[-1,0]],[[218,1902],[0,-1]],[[218,1901],[1,0],[0,1],[-1,0]],[[223,1344],[1,0],[0,1],[-1,0],[0,-1]],[[295,1429],[1,1],[0,1]],[[296,1431],[-2,0],[1,-2]],[[299,1432],[-1,1],[0,-2],[1,0],[0,1]],[[459,1663],[-1,0]],[[458,1663],[1,0]],[[673,1444],[1,-1],[1,2],[-2,0],[0,-1]],[[0,1109],[164,126]],[[164,1235],[-164,-126]],[[280,1884],[45,-50]],[[506,1345],[65,139]],[[572,1485],[10,20]],[[571,1484],[1,0],[-1,1],[0,-1]],[[204,1204],[-13,-1]],[[301,1773],[2,-27]],[[304,1747],[-2,26]],[[39,1115],[108,61]],[[196,1197],[-48,-20]],[[34,2230],[-17,23]],[[34,2230],[5,-2]],[[39,2229],[-5,1]],[[39,2228],[2,-1]],[[41,2227],[-1,1]],[[88,2156],[-47,71]],[[775,1445],[97,-64]],[[1019,1188],[19,-43],[240,-212]],[[1286,881],[-8,27]],[[1286,881],[1,0]],[[1287,881],[-1,0]],[[1287,880]],[[1287,880]],[[1287,880],[277,-220],[80,-22]],[[1683,522],[-37,116]],[[1688,518],[49,12]],[[2338,0],[-189,96]],[[39,2228],[1,0],[-1,1],[0,-1]],[[1287,881],[0,-1],[0,1]],[[1645,639],[-1,-1],[1,-1],[1,1]],[[1646,638],[-1,1]],[[259,1326]],[[260,1325],[0,1]],[[429,1700],[9,-13]],[[283,1295],[-79,-91]],[[520,1642],[-34,-27]],[[0,0],[0,2344],[2,-4],[17,-60],[18,-43],[423,-508],[186,-166],[209,-140],[91,-79],[122,-202],[382,-380],[104,-68],[167,-69],[117,-22],[46,-40],[23,-60],[16,-164],[20,-78],[32,-57],[49,-23],[17,-3],[49,-11],[58,-35],[103,-88],[94,-44],[-2345,0]],[[2008,0],[-158,0],[-6,2],[32,176],[-25,65],[-169,67],[21,184],[76,80],[32,0],[0,34],[27,-5],[69,-100],[16,-164],[52,-135],[187,-84],[-16,-31],[-108,-43],[-30,-46]],[[0,2344],[32,-95],[0,-6],[-32,23],[0,78]],[[646,1563],[137,-91],[-19,-61],[-64,-37],[-128,141],[-73,27],[-28,-72],[-83,-62],[-33,-220],[-62,-17],[-2,-26],[-58,9],[-105,123],[37,104],[158,247],[-24,36],[-138,51],[0,45],[-65,44],[0,130],[-35,102],[31,136],[368,-443],[186,-166]],[[1002,310],[-97,0],[-1,58],[98,30],[93,195],[4,68],[-97,44],[-97,0],[33,132],[-52,79],[19,97],[72,-35],[221,34],[96,-95],[-65,-36],[-33,-88],[-64,-44],[-32,-88],[117,-39],[141,-4],[-41,-113],[-77,-67],[-205,-84],[-33,-44]],[[1012,1174],[-42,-29],[-64,0],[-137,-132],[-58,0],[34,107],[125,138],[3,150],[73,-64],[82,-137],[-16,-33]],[[278,1767],[47,13],[36,-20],[-40,48],[34,13],[110,-106],[-83,-35],[-63,30],[-9,39],[-30,-12],[16,19],[-18,11]],[[167,1822],[98,111],[-9,-18],[23,10],[76,-104],[-32,-2],[-60,67],[-87,-81],[-9,17]],[[0,0],[0,773],[26,13],[1,47],[57,-4],[81,-83],[23,-74],[51,46],[50,-37],[19,-25],[-10,-46],[57,-35],[42,-176],[62,-56],[-65,-125],[29,-85],[-89,-133],[-334,0]]]}