{"objects":{"water":{"type":"GeometryCollection","geometries":[{"type":"MultiPolygon","properties":{"source":"naturalearthdata.com","kind":"ocean","area":1576712559132672,"sort_rank":200,"min_zoom":0.0,"id":1},"arcs":[[[8]],[[9],[10],[11],[12],[13],[14],[15]]]},{"type":"LineString","properties":{"source":"naturalearthdata.com","kind":"ocean","sort_rank":205,"boundary":true,"min_zoom":0.0,"id":1115},"arcs":[16]},{"type":"LineString","properties":{"source":"naturalearthdata.com","kind":"ocean","sort_rank":205,"boundary":true,"min_zoom":0.0,"id":1118},"arcs":[17]},{"type":"LineString","properties":{"source":"naturalearthdata.com","kind":"ocean","sort_rank":205,"boundary":true,"min_zoom":0.0,"id":1119},"arcs":[18]},{"type":"MultiLineString","properties":{"source":"naturalearthdata.com","kind":"ocean","sort_rank":205,"boundary":true,"min_zoom":0.0,"id":1121},"arcs":[[19],[20]]},{"type":"LineString","properties":{"source":"naturalearthdata.com","kind":"ocean","sort_rank":205,"boundary":true,"min_zoom":0.0,"id":3335},"arcs":[21]},{"type":"LineString","properties":{"source":"naturalearthdata.com","kind":"ocean","sort_rank":205,"boundary":true,"min_zoom":0.0,"id":3337},"arcs":[22]},{"type":"LineString","properties":{"source":"naturalearthdata.com","kind":"ocean","sort_rank":205,"boundary":true,"min_zoom":0.0,"id":3338},"arcs":[23]}]},"buildings":{"type":"GeometryCollection","geometries":[]},"places":{"type":"GeometryCollection","geometries":[{"type":"Point","properties":{"kind":"locality","name":"Barcellona Pozzo di Gotto","short_name":"Barcellona","kind_detail":"town","source":"openstreetmap.org","min_zoom":8.0,"id":67254944,"population":41583},"coordinates":[3358,1585]},{"type":"Point","properties":{"source":"openstreetmap.org","kind":"locality","name":"Milazzo","kind_detail":"town","population":31646,"min_zoom":8.0,"id":1819880627},"coordinates":[3434,1863]},{"type":"Point","properties":{"source":"openstreetmap.org","kind":"locality","name":"Giarre","kind_detail":"town","population":27659,"min_zoom":8.0,"id":67254592},"coordinates":[3277,31]},{"type":"Point","properties":{"source":"openstreetmap.org","kind":"locality","name":"Bronte","kind_detail":"town","population":19172,"min_zoom":8.0,"id":67254505},"coordinates":[2247,254]},{"type":"Point","properties":{"source":"openstreetmap.org","kind":"locality","name":"Riposto","kind_detail":"town","population":14838,"min_zoom":8.0,"id":67254806},"coordinates":[3326,49]},{"type":"Point","properties":{"source":"openstreetmap.org","kind":"locality","name":"Nicosia","kind_detail":"town","population":14812,"min_zoom":8.0,"id":67254855},"coordinates":[975,107]},{"type":"Point","properties":{"source":"openstreetmap.org","kind":"locality","name":"Mascali","kind_detail":"town","population":14282,"min_zoom":8.0,"id":67254716},"coordinates":[3306,155]},{"type":"Point","properties":{"source":"openstreetmap.org","kind":"locality","name":"Patti","kind_detail":"town","population":13431,"min_zoom":8.0,"id":67255926},"coordinates":[2628,1559]},{"type":"Point","properties":{"source":"openstreetmap.org","kind":"locality","name":"Capo d'Orlando","kind_detail":"town","population":13254,"min_zoom":8.0,"id":67255370},"coordinates":[1987,1636]},{"type":"Point","properties":{"source":"openstreetmap.org","kind":"locality","name":"Lipari","kind_detail":"town","population":12753,"min_zoom":8.0,"id":67256057},"coordinates":[2599,2781]},{"type":"Point","properties":{"source":"openstreetmap.org","kind":"locality","name":"Sant'Agata di Militello","kind_detail":"town","population":12624,"min_zoom":8.0,"id":67255232},"coordinates":[1663,1297]},{"type":"Point","properties":{"kind":"locality","name":"Taormina","kind_detail":"town","min_zoom":8.0,"source":"openstreetmap.org","name:fr":"Taormine","name:ru":"\u0422\u0430\u043e\u0440\u043c\u0438\u043d\u0430","id":67255598,"population":10960},"coordinates":[3563,494]},{"type":"Point","properties":{"source":"openstreetmap.org","kind":"locality","name":"Randazzo","kind_detail":"town","population":10900,"min_zoom":8.0,"id":67254815},"coordinates":[2584,584]}]},"transit":{"type":"GeometryCollection","geometries":[{"type":"MultiLineString","properties":{"kind":"train","name":"Palermo - Messina","sort_rank":275,"source":"openstreetmap.org","min_zoom":6.0,"operator":"Trenitalia","name:pl":"Linia kolejowa Palermo \u2013 Mesyna","osm_relation":true},"arcs":[[4],[5],[6]]},{"type":"LineString","properties":{"source":"openstreetmap.org","kind":"train","name":"Ferrovia Messina-Siracusa","sort_rank":275,"min_zoom":6.0,"osm_relation":true},"arcs":[7]}]},"pois":{"type":"GeometryCollection","geometries":[{"type":"Point","properties":{"kind":"nature_reserve","name:en":"Mount Etna","tier":2,"protect_class":"4","area":923868000,"min_zoom":7.36,"name:de":"Park des \u00c4tna","source":"openstreetmap.org","name:fr":"Parc de l'Etna","operator":"Ente Parco dell'Etna","id":35763274,"name:es":"Parque del Etna","name":"Parco dell'Etna"},"coordinates":[2634,113]},{"type":"Point","properties":{"kind":"protected_area","name:en":"Etna Summit Craters","tier":2,"protect_class":"15","area":22018900,"source":"openstreetmap.org","min_zoom":8.0,"old_name":"Mongibello","operator":"Protezione Civile Italiana, Ente Parco dell'Etna-Nicolosi","id":216204085,"name:es":"Crateres centrales del Etna","name":"Area Sommitale dell'Etna"},"coordinates":[2757,111]}]},"boundaries":{"type":"GeometryCollection","geometries":[{"type":"MultiLineString","properties":{"name:ty":"\u2019It\u0101ria","name:ka":"\u10d8\u10e2\u10d0\u10da\u10d8\u10d0","name:ko":"\uc774\ud0c8\ub9ac\uc544","name:cv":"\u0418\u0442\u0430\u043b\u0438","name:cu":"\u0418\u0442\u0430\u043b\u0457\ua657","name:cs":"It\u00e1lie","name:cr":"\u1403\u1455\u14d6","name:tt":"\u0418\u0442\u0430\u043b\u0438\u044f","name:kw":"Itali","name:kv":"\u0418\u0442\u0430\u043b\u0438\u044f","name:th":"\u0e1b\u0e23\u0e30\u0e40\u0e17\u0e28\u0e2d\u0e34\u0e15\u0e32\u0e25\u0e35","alt_name:cs":"\u0160v\u00fdcarsk\u00e1 konfederace","name:tl":"Italya","name:ce":"\u0418\u0442\u0430\u043b\u0438","name:ta":"\u0b87\u0ba4\u0bcd\u0ba4\u0bbe\u0bb2\u0bbf","name:tg":"\u0418\u0442\u043e\u043b\u0438\u0451","name:ca":"It\u00e0lia","name:te":"\u0c07\u0c1f\u0c32\u0c40","name:cy":"Yr Eidal","name:qu":"Italya","name:da":"Italien","name:de":"Italien","name:dz":"\u0f68\u0f80\u0f4a\u0f0b\u0f63\u0f72\u0f0b","source":"openstreetmap.org","name:kn":"\u0c87\u0c9f\u0cb2\u0cbf","name:dv":"\u0787\u07a8\u0793\u07a6\u078d\u07a9\u0788\u07a8\u078d\u07a7\u078c\u07b0","name:km":"\u17a2\u17ca\u17b8\u178f\u17b6\u179b\u17b8","name:lv":"It\u0101lija","name:lt":"Italija","name:uz":"Italiya","name:kk":"\u0418\u0442\u0430\u043b\u0438\u044f","name:tw":"Italy","name:lb":"Italien","name:lg":"Yitale","name:uk":"\u0406\u0442\u0430\u043b\u0456\u044f","name:ug":"\u0626\u0649\u062a\u0627\u0644\u0649\u064a\u06d5","name:li":"Itali\u00eb","name:ln":"Italya","name:lo":"\u0ead\u0eb4\u0e95\u0eb2\u0ea5\u0eb5","name:el":"\u0399\u03c4\u03b1\u03bb\u03af\u03b1","name:eo":"Italujo","name:en":"Italy","name":"Italia","name:tk":"Itali\u00fda","name:ee":"Italy","name:ku":"\u00cetalya","name:et":"Itaalia","name:ay":"Italiya","name:az":"\u0130taliya","name:as":"\u0987\u099f\u09be\u09b2\u09c0","name:ar":"\u0625\u064a\u0637\u0627\u0644\u064a\u0627","name:ak":"Italy","name:am":"\u1323\u120d\u12eb\u1295","name:ru":"\u0418\u0442\u0430\u043b\u0438\u044f","name:ab":"\u0418\u0442\u0430\u043b\u0438\u0430","name:af":"Itali\u00eb","name:zu":"ITaliya","kind_detail":"2","name:ky":"\u0418\u0442\u0430\u043b\u0438\u044f","name:zh-yue":"\u610f\u5927\u5229","name:zh":"\u610f\u5927\u5229","name:so":"Talyaaniga","name:sl":"Italija","name:sk":"Taliansko","name:ja":"\u30a4\u30bf\u30ea\u30a2","name:sh":"Italija","name:sg":"Ital\u00f9ii","name:se":"It\u00e1lia","name:sc":"It\u00e0lia","name:sa":"\u0907\u091f\u0932\u0940","name:bs":"Italija","name:bn":"\u0987\u09a4\u09be\u09b2\u09bf","name:bo":"\u0f68\u0f72\u0f0b\u0f4f\u0f0b\u0f63\u0f72\u0f0d","name:bi":"Itali","name:be":"\u0406\u0442\u0430\u043b\u0456\u044f","name:bg":"\u0418\u0442\u0430\u043b\u0438\u044f","name:ss":"INtaliyane","name:ba":"\u0418\u0442\u0430\u043b\u0438\u044f","osm_relation":true,"name:pt":"It\u00e1lia","name:ps":"\u0627\u06d0\u067c\u0627\u0644\u064a\u0627","name:oc":"It\u00e0lia","min_zoom":8.0,"name:pa":"\u0a07\u0a1f\u0a32\u0a40","name:os":"\u0418\u0442\u0430\u043b\u0438","name:or":"\u0b07\u0b1f\u0b3e\u0b32\u0b40","name:pl":"W\u0142ochy","sort_rank":262,"name:sr":"\u0418\u0442\u0430\u043b\u0438\u0458\u0430","name:tr":"\u0130talya","name:hi":"\u0907\u091f\u0932\u0940","name:sv":"Italien","name:he":"\u05d0\u05d9\u05d8\u05dc\u05d9\u05d4","name:hy":"\u053b\u057f\u0561\u056c\u056b\u0561","name:ht":"Itali","name:hu":"Olaszorsz\u00e1g","name:hr":"Italija","kind":"country","name:is":"\u00cdtal\u00eda","name:yi":"\u05d0\u05d9\u05d8\u05d0\u05dc\u05d9\u05e2","name:yo":"It\u00e1l\u00ed\u00e0","name:mt":"Italja","alt_name:eo":"Italio","name:ms":"Itali","name:mr":"\u0907\u091f\u0932\u0940","name:my":"\u1021\u102e\u1010\u101c\u102e\u1014\u102d\u102f\u1004\u103a\u1004\u1036","official_name":"Repubblica Italiana","name:ve":"Italy","name:vi":"\u00dd","name:ml":"\u0d07\u0d31\u0d4d\u0d31\u0d32\u0d3f","name:mn":"\u0418\u0442\u0430\u043b\u0438","name:mi":"It\u0101ria","id":-365331,"name:mk":"\u0418\u0442\u0430\u043b\u0438\u0458\u0430","name:vo":"Litaliy\u00e4n","name:fa":"\u0627\u06cc\u062a\u0627\u0644\u06cc\u0627","name:rw":"Ubutaliyani","name:ff":"Italiya","old_name:vi":"\u00dd \u0110\u1ea1i L\u1ee3i","alt_name:vi":"I-ta-li-a","name:fr":"Italie","name:fy":"Itaalje","name:nl":"Itali\u00eb","name:na":"Itari","name:ne":"\u0907\u091f\u093e\u0932\u0940","name:wa":"It\u00e5leye","name:ur":"\u0627\u0637\u0627\u0644\u06cc\u06c1","name:wo":"Itaali","name:nv":"\u00cddelii","name:ga":"An Iod\u00e1il","name:gd":"An Eadailt","name:gn":"It\u00e1lia","maritime_boundary":true,"name:gv":"Yn Iddaal","name:gu":"\u0a88\u0a9f\u0ab2\u0ac0"},"arcs":[[0],[1]]},{"type":"MultiLineString","properties":{"name:pt":"Sic\u00edlia","name:sl":"Sicilija","name:sk":"Sic\u00edlia","name:lt":"Sicilija","name:ko":"\uc2dc\uce60\ub9ac\uc544","name:ar":"\u0635\u0642\u0644\u064a\u0629","name:cs":"Sic\u00edlie","official_name":"Regione Siciliana","min_zoom":8.0,"name:ru":"\u0421\u0438\u0446\u0438\u043b\u0438\u044f","name:sv":"Sicilien","name:pl":"Sycylia","name:hu":"Szic\u00edlia","id":-39152,"name:ca":"Sic\u00edlia","name:el":"\u03a3\u03b9\u03ba\u03b5\u03bb\u03af\u03b1","kind":"region","name:en":"Sicily","name":"Sicilia","sort_rank":256,"kind_detail":"4","name:fr":"Sicile","name:de":"Sizilien","source":"openstreetmap.org","maritime_boundary":true,"osm_relation":true,"name:eu":"Sizilia","name:nl":"Sicili\u00eb"},"arcs":[[2],[3]]}]},"roads":{"type":"GeometryCollection","geometries":[{"type":"MultiLineString","properties":{"bus_network":"Rete urbana di Messina","network":null,"sort_rank":380,"kind_detail":"primary","kind":"major_road","source":"openstreetmap.org","min_zoom":8.0,"bus_shield_text":"81","shield_text":"113","landuse_kind":"urban_area"},"arcs":[[24],[25],[26]]},{"type":"MultiLineString","properties":{"kind":"highway","network":"e-road","sort_rank":383,"landuse_kind":"urban_area","source":"openstreetmap.org","min_zoom":8.0,"all_networks":["e-road","IT:A-road"],"kind_detail":"motorway","shield_text":"90","ref":"A20","all_shield_texts":["90","20"]},"arcs":[[27],[28],[29],[30],[31],[32],[33],[34],[35],[36],[37],[38],[39],[40],[41],[42],[43],[44],[45],[46]]},{"type":"LineString","properties":{"source":"openstreetmap.org","kind":"ferry","name":"Salina - Lipari","sort_rank":355,"min_zoom":8.0,"id":115056265},"arcs":[47]},{"type":"MultiLineString","properties":{"kind":"highway","network":"e-road","sort_rank":383,"kind_detail":"motorway","source":"openstreetmap.org","min_zoom":8.0,"all_networks":["e-road","IT:A-road"],"shield_text":"90","ref":"A20","all_shield_texts":["90","20"]},"arcs":[[48],[49],[50],[51],[52],[53],[54],[55],[56],[57],[58],[59],[60],[61],[62],[63],[64],[65],[66],[67],[68],[69],[70]]},{"type":"LineString","properties":{"source":"openstreetmap.org","kind":"major_road","sort_rank":380,"kind_detail":"primary","ref":"SS114","min_zoom":8.0,"id":396673456},"arcs":[71]},{"type":"MultiLineString","properties":{"kind":"major_road","network":null,"sort_rank":380,"kind_detail":"primary","source":"openstreetmap.org","min_zoom":8.0,"shield_text":"117ter","ref":"SS117ter"},"arcs":[[72],[73],[74],[75]]},{"type":"MultiLineString","properties":{"kind":"major_road","network":null,"sort_rank":380,"kind_detail":"primary","source":"openstreetmap.org","min_zoom":8.0,"landuse_kind":"urban_area","shield_text":"113"},"arcs":[[76],[77],[78],[79],[80],[81],[82],[83],[84],[85],[86],[87],[88],[89],[90],[91],[92],[93],[94],[95],[96]]},{"type":"LineString","properties":{"kind":"major_road","sort_rank":380,"kind_detail":"primary","is_bicycle_related":true,"cycleway":"shared_lane","source":"openstreetmap.org","min_zoom":8.0,"ref":"SS185","id":196553392},"arcs":[97]},{"type":"LineString","properties":{"source":"openstreetmap.org","kind":"ferry","name":"Napoli - Stromboli","sort_rank":355,"min_zoom":8.0,"id":358662362},"arcs":[98]},{"type":"LineString","properties":{"source":"openstreetmap.org","kind":"ferry","sort_rank":355,"landuse_kind":"urban_area","min_zoom":8.0,"id":346217866},"arcs":[99]},{"type":"LineString","properties":{"source":"openstreetmap.org","kind":"ferry","name":"Rinella - Lipari","sort_rank":355,"min_zoom":8.0,"id":185810569},"arcs":[100]},{"type":"LineString","properties":{"kind":"major_road","network":null,"sort_rank":380,"kind_detail":"primary","source":"openstreetmap.org","min_zoom":8.0,"landuse_kind":"urban_area","shield_text":"113dir","id":524168371},"arcs":[101]},{"type":"MultiLineString","properties":{"source":"openstreetmap.org","kind":"major_road","network":null,"sort_rank":380,"kind_detail":"primary","min_zoom":8.0,"shield_text":"113"},"arcs":[[102],[103],[104],[105],[106],[107],[108],[109],[110],[111],[112],[113],[114],[115],[116],[117],[118],[119],[120],[121],[122],[123],[124],[125],[126],[127],[128],[129],[130],[131],[132],[133],[134],[135],[136],[137],[138],[139],[140],[141],[142],[143],[144],[145],[146],[147],[148]]},{"type":"MultiLineString","properties":{"sort_rank":380,"kind_detail":"primary","min_zoom":8.0,"kind":"major_road","source":"openstreetmap.org"},"arcs":[[149],[150],[151],[152],[153],[154],[155],[156],[157],[158],[159],[160],[161],[162],[163],[164],[165],[166],[167],[168],[169],[170],[171],[172],[173],[174],[175],[176],[177],[178],[179],[180],[181],[182],[183],[184],[185],[186],[187],[188],[189],[190],[191],[192],[193],[194],[195],[196],[197],[198],[199],[200],[201],[202],[203],[204],[205],[206],[207],[208],[209],[210],[211],[212],[213],[214],[215],[216],[217],[218],[219],[220],[221],[222]]},{"type":"MultiLineString","properties":{"kind":"major_road","network":null,"sort_rank":380,"kind_detail":"primary","source":"openstreetmap.org","min_zoom":8.0,"landuse_kind":"urban_area","shield_text":"185"},"arcs":[[223],[224]]},{"type":"MultiLineString","properties":{"source":"openstreetmap.org","kind":"major_road","network":null,"sort_rank":380,"kind_detail":"primary","min_zoom":8.0,"shield_text":"117ter"},"arcs":[[225],[226],[227],[228],[229]]},{"type":"LineString","properties":{"source":"openstreetmap.org","kind":"ferry","name":"Panarea - Ginostra","sort_rank":355,"min_zoom":8.0,"id":171995349},"arcs":[230]},{"type":"MultiLineString","properties":{"source":"openstreetmap.org","kind":"major_road","network":null,"sort_rank":380,"kind_detail":"primary","min_zoom":8.0,"shield_text":"163"},"arcs":[[231],[232]]},{"type":"MultiLineString","properties":{"kind":"major_road","network":null,"sort_rank":380,"kind_detail":"primary","source":"openstreetmap.org","min_zoom":8.0,"shield_text":"114","ref":"SS114"},"arcs":[[233],[234],[235],[236],[237],[238],[239],[240],[241],[242],[243],[244],[245],[246],[247],[248],[249],[250]]},{"type":"MultiLineString","properties":{"kind":"major_road","network":null,"sort_rank":380,"kind_detail":"primary","source":"openstreetmap.org","min_zoom":8.0,"old_name":"Via Nazionale","shield_text":"114","landuse_kind":"urban_area","ref":"SS114"},"arcs":[[251],[252],[253],[254]]},{"type":"LineString","properties":{"source":"openstreetmap.org","kind":"major_road","landuse_kind":"urban_area","sort_rank":380,"kind_detail":"primary","ref":"SS113","min_zoom":8.0},"arcs":[255]},{"type":"MultiLineString","properties":{"bus_network":"Rete urbana di Messina","network":null,"sort_rank":380,"kind_detail":"primary","kind":"major_road","source":"openstreetmap.org","min_zoom":8.0,"bus_shield_text":"81\/","shield_text":"113dir","landuse_kind":"urban_area","ref":"SS113dir"},"arcs":[[256],[257]]},{"type":"MultiLineString","properties":{"source":"openstreetmap.org","kind":"major_road","network":null,"sort_rank":380,"kind_detail":"primary","min_zoom":8.0,"shield_text":"120"},"arcs":[[258],[259],[260],[261],[262],[263],[264],[265],[266],[267],[268],[269],[270],[271],[272],[273],[274],[275],[276]]},{"type":"LineString","properties":{"kind":"major_road","network":null,"sort_rank":380,"kind_detail":"primary","source":"openstreetmap.org","min_zoom":8.0,"landuse_kind":"urban_area","shield_text":"118\/a"},"arcs":[277]},{"type":"MultiLineString","properties":{"kind":"major_road","network":null,"sort_rank":380,"kind_detail":"primary","source":"openstreetmap.org","min_zoom":8.0,"shield_text":"117","ref":"SS117"},"arcs":[[278],[279],[280],[281],[282],[283],[284],[285]]},{"type":"MultiLineString","properties":{"kind":"major_road","network":null,"sort_rank":380,"kind_detail":"primary","source":"openstreetmap.org","min_zoom":8.0,"landuse_kind":"nature_reserve","shield_text":"120","ref":"SS120"},"arcs":[[286],[287]]},{"type":"LineString","properties":{"source":"openstreetmap.org","kind":"ferry","name":"Salina - Vulcano","sort_rank":355,"min_zoom":8.0,"id":303931111},"arcs":[288]},{"type":"MultiLineString","properties":{"kind":"major_road","network":null,"sort_rank":380,"kind_detail":"primary","source":"openstreetmap.org","min_zoom":8.0,"landuse_kind":"urban_area","shield_text":"113","ref":"SS113"},"arcs":[[289],[290],[291],[292],[293],[294],[295],[296],[297],[298],[299],[300],[301],[302],[303],[304],[305],[306],[307],[308],[309],[310],[311],[312],[313],[314],[315]]},{"type":"MultiLineString","properties":{"kind":"highway","network":"e-road","sort_rank":383,"kind_detail":"motorway","source":"openstreetmap.org","min_zoom":8.0,"all_networks":["e-road","IT:A-road"],"landuse_kind":"park","shield_text":"45","ref":"A18","all_shield_texts":["45","18"]},"arcs":[[316],[317]]},{"type":"LineString","properties":{"kind":"major_road","network":null,"sort_rank":380,"kind_detail":"primary","source":"openstreetmap.org","min_zoom":8.0,"landuse_kind":"park","shield_text":"286"},"arcs":[318]},{"type":"MultiLineString","properties":{"kind":"major_road","network":null,"sort_rank":380,"kind_detail":"primary","source":"openstreetmap.org","min_zoom":8.0,"landuse_kind":"park","shield_text":"120","ref":"SS120"},"arcs":[[319],[320],[321]]},{"type":"LineString","properties":{"kind":"major_road","network":null,"sort_rank":380,"kind_detail":"primary","source":"openstreetmap.org","min_zoom":8.0,"landuse_kind":"nature_reserve","shield_text":"120","id":129971881},"arcs":[322]},{"type":"MultiLineString","properties":{"kind":"major_road","network":null,"sort_rank":380,"kind_detail":"primary","source":"openstreetmap.org","min_zoom":8.0,"shield_text":"120","ref":"SS120"},"arcs":[[323],[324],[325],[326],[327],[328],[329],[330],[331],[332],[333],[334],[335],[336],[337],[338],[339],[340],[341],[342],[343],[344],[345],[346]]},{"type":"LineString","properties":{"source":"openstreetmap.org","kind":"ferry","name":"Salina - Rinella","sort_rank":355,"min_zoom":8.0,"id":228664914},"arcs":[347]},{"type":"MultiLineString","properties":{"kind":"major_road","network":null,"sort_rank":380,"kind_detail":"primary","source":"openstreetmap.org","min_zoom":8.0,"landuse_kind":"urban_area","shield_text":"114","ref":"SS114"},"arcs":[[348],[349],[350],[351],[352],[353],[354],[355],[356]]},{"type":"MultiLineString","properties":{"source":"openstreetmap.org","kind":"major_road","network":null,"sort_rank":380,"kind_detail":"primary","min_zoom":8.0,"shield_text":"117"},"arcs":[[357],[358],[359],[360],[361],[362]]},{"type":"LineString","properties":{"source":"openstreetmap.org","kind":"ferry","name":"Panarea - Stromboli","sort_rank":355,"min_zoom":8.0,"id":346318835},"arcs":[363]},{"type":"MultiLineString","properties":{"kind":"major_road","network":null,"sort_rank":380,"kind_detail":"primary","source":"openstreetmap.org","min_zoom":8.0,"shield_text":"163","ref":"SP163"},"arcs":[[364],[365]]},{"type":"LineString","properties":{"source":"openstreetmap.org","kind":"ferry","name":"Milazzo - Stromboli","sort_rank":355,"landuse_kind":"urban_area","min_zoom":8.0,"id":186178529},"arcs":[366]},{"type":"LineString","properties":{"kind":"major_road","network":null,"sort_rank":380,"kind_detail":"primary","source":"openstreetmap.org","min_zoom":8.0,"landuse_kind":"urban_area","shield_text":"120","id":457015548},"arcs":[367]},{"type":"LineString","properties":{"bus_network":"Rete urbana di Messina","network":null,"sort_rank":380,"kind_detail":"primary","kind":"major_road","source":"openstreetmap.org","min_zoom":8.0,"bus_shield_text":"81\/","shield_text":"113dir","ref":"SS113dir"},"arcs":[368]},{"type":"MultiLineString","properties":{"kind":"highway","network":"e-road","sort_rank":383,"landuse_kind":"urban_area","source":"openstreetmap.org","min_zoom":8.0,"all_networks":["e-road","IT:A-road"],"kind_detail":"motorway","shield_text":"45","ref":"A18","all_shield_texts":["45","18"]},"arcs":[[369],[370],[371],[372],[373],[374],[375],[376],[377],[378]]},{"type":"MultiLineString","properties":{"kind":"highway","network":"e-road","sort_rank":383,"kind_detail":"motorway","source":"openstreetmap.org","min_zoom":8.0,"all_networks":["e-road","IT:A-road"],"shield_text":"90","all_shield_texts":["90","20"]},"arcs":[[379],[380],[381],[382],[383]]},{"type":"MultiLineString","properties":{"bus_network":"Rete urbana di Messina","network":null,"sort_rank":380,"kind_detail":"primary","kind":"major_road","source":"openstreetmap.org","min_zoom":8.0,"bus_shield_text":"81\/","shield_text":"113dir","landuse_kind":"urban_area"},"arcs":[[384],[385]]},{"type":"LineString","properties":{"source":"openstreetmap.org","kind":"ferry","name":"Salina - Filicudi","sort_rank":355,"min_zoom":8.0,"id":185977440},"arcs":[386]},{"type":"MultiLineString","properties":{"kind":"highway","network":"e-road","sort_rank":383,"landuse_kind":"urban_area","source":"openstreetmap.org","min_zoom":8.0,"all_networks":["e-road","IT:A-road"],"kind_detail":"motorway","shield_text":"90","all_shield_texts":["90","20"]},"arcs":[[387],[388],[389],[390],[391],[392],[393],[394],[395],[396],[397],[398],[399],[400]]},{"type":"LineString","properties":{"kind":"major_road","network":null,"sort_rank":380,"kind_detail":"primary","source":"openstreetmap.org","min_zoom":8.0,"landuse_kind":"urban_area","shield_text":"120","ref":"SS120","id":480764437},"arcs":[401]},{"type":"MultiLineString","properties":{"kind":"major_road","network":null,"sort_rank":380,"kind_detail":"primary","source":"openstreetmap.org","min_zoom":8.0,"landuse_kind":"urban_area","shield_text":"284","ref":"SS284"},"arcs":[[402],[403]]},{"type":"MultiLineString","properties":{"kind":"major_road","network":null,"sort_rank":380,"kind_detail":"primary","source":"openstreetmap.org","min_zoom":8.0,"shield_text":"286","ref":"SS286"},"arcs":[[404],[405],[406]]},{"type":"MultiLineString","properties":{"sort_rank":355,"source":"openstreetmap.org","min_zoom":8.0,"name":"Catania - Napoli","kind":"ferry"},"arcs":[[407],[408]]},{"type":"MultiLineString","properties":{"kind":"highway","network":"e-road","sort_rank":383,"kind_detail":"motorway","source":"openstreetmap.org","min_zoom":8.0,"all_networks":["e-road","IT:A-road"],"shield_text":"45","ref":"A18","all_shield_texts":["45","18"]},"arcs":[[409],[410],[411],[412],[413],[414],[415],[416]]},{"type":"MultiLineString","properties":{"sort_rank":355,"source":"openstreetmap.org","min_zoom":8.0,"kind":"ferry"},"arcs":[[417],[418]]},{"type":"LineString","properties":{"sort_rank":355,"source":"openstreetmap.org","kind":"ferry","min_zoom":8.0,"name":"Messina - Stromboli"},"arcs":[419]},{"type":"LineString","properties":{"kind":"major_road","network":null,"sort_rank":380,"kind_detail":"primary","source":"openstreetmap.org","min_zoom":8.0,"landuse_kind":"urban_area","shield_text":"118\/a","ref":"SP118\/a","id":159666945},"arcs":[420]},{"type":"LineString","properties":{"kind":"highway","network":"e-road","sort_rank":383,"landuse_kind":"urban_area","source":"openstreetmap.org","min_zoom":8.0,"all_networks":["e-road","IT:A-road"],"kind_detail":"motorway","shield_text":"45","all_shield_texts":["45","18"]},"arcs":[421]},{"type":"LineString","properties":{"source":"openstreetmap.org","kind":"ferry","name":"Palermo - Alicudi","sort_rank":355,"min_zoom":8.0,"id":179691125},"arcs":[422]},{"type":"LineString","properties":{"bus_network":"Rete urbana di Messina","network":null,"sort_rank":380,"kind_detail":"primary","kind":"major_road","source":"openstreetmap.org","min_zoom":8.0,"bus_shield_text":"81\/","shield_text":"113","landuse_kind":"urban_area","ref":"SS113"},"arcs":[423]},{"type":"MultiLineString","properties":{"source":"openstreetmap.org","kind":"major_road","network":null,"sort_rank":380,"kind_detail":"primary","min_zoom":8.0,"shield_text":"157"},"arcs":[[424],[425]]},{"type":"LineString","properties":{"kind":"major_road","network":null,"sort_rank":380,"kind_detail":"primary","source":"openstreetmap.org","min_zoom":8.0,"shield_text":"30","ref":"SP30"},"arcs":[426]},{"type":"LineString","properties":{"kind":"major_road","network":null,"sort_rank":380,"kind_detail":"primary","bus_network":"Rete urbana di Messina","source":"openstreetmap.org","min_zoom":8.0,"bus_shield_text":"81\/","shield_text":"113","landuse_kind":"urban_area","id":160448928},"arcs":[427]},{"type":"MultiLineString","properties":{"kind":"major_road","network":null,"sort_rank":380,"kind_detail":"primary","source":"openstreetmap.org","min_zoom":8.0,"shield_text":"118\/a","ref":"SP118\/a"},"arcs":[[428],[429],[430]]},{"type":"LineString","properties":{"source":"openstreetmap.org","kind":"ferry","name":"Salina - Panarea","sort_rank":355,"min_zoom":8.0,"id":185977442},"arcs":[431]},{"type":"MultiLineString","properties":{"kind":"major_road","network":null,"sort_rank":380,"kind_detail":"primary","source":"openstreetmap.org","min_zoom":8.0,"shield_text":"284","ref":"SS284"},"arcs":[[432],[433],[434],[435],[436],[437]]},{"type":"LineString","properties":{"sort_rank":355,"source":"openstreetmap.org","min_zoom":8.0,"name":"Messina - Salerno","kind":"ferry"},"arcs":[438]},{"type":"MultiLineString","properties":{"source":"openstreetmap.org","kind":"major_road","network":null,"sort_rank":380,"kind_detail":"primary","min_zoom":8.0,"shield_text":"284"},"arcs":[[439],[440],[441],[442]]},{"type":"LineString","properties":{"source":"openstreetmap.org","kind":"major_road","old_name":"Via Marina","sort_rank":380,"kind_detail":"primary","min_zoom":8.0,"id":516467441},"arcs":[443]},{"type":"MultiLineString","properties":{"kind":"highway","network":"e-road","sort_rank":383,"kind_detail":"motorway","source":"openstreetmap.org","min_zoom":8.0,"all_networks":["e-road","IT:A-road"],"landuse_kind":"park","shield_text":"90","ref":"A20","all_shield_texts":["90","20"]},"arcs":[[444],[445],[446],[447]]},{"type":"MultiLineString","properties":{"kind":"major_road","network":null,"sort_rank":380,"kind_detail":"primary","source":"openstreetmap.org","min_zoom":8.0,"shield_text":"113","ref":"SS113"},"arcs":[[448],[449],[450],[451],[452],[453],[454],[455],[456],[457],[458],[459],[460],[461],[462],[463],[464],[465],[466],[467],[468],[469],[470],[471],[472],[473],[474],[475],[476],[477],[478],[479],[480],[481],[482],[483],[484],[485],[486],[487],[488],[489],[490],[491],[492],[493],[494],[495],[496],[497],[498],[499],[500],[501],[502],[503],[504],[505],[506],[507]]},{"type":"LineString","properties":{"source":"openstreetmap.org","kind":"ferry","name":"Vulcano-Lipari","sort_rank":355,"min_zoom":8.0,"id":158856870},"arcs":[508]},{"type":"LineString","properties":{"kind":"major_road","network":null,"sort_rank":380,"kind_detail":"primary","bus_network":"Rete urbana di Messina","source":"openstreetmap.org","min_zoom":8.0,"bus_shield_text":"81","shield_text":"113","landuse_kind":"urban_area","ref":"SS113","id":60141969},"arcs":[509]},{"type":"MultiLineString","properties":{"kind":"major_road","network":null,"sort_rank":380,"kind_detail":"primary","source":"openstreetmap.org","min_zoom":8.0,"landuse_kind":"urban_area","shield_text":"114"},"arcs":[[510],[511],[512],[513]]},{"type":"MultiLineString","properties":{"source":"openstreetmap.org","kind":"major_road","landuse_kind":"urban_area","sort_rank":380,"kind_detail":"primary","min_zoom":8.0},"arcs":[[514],[515],[516],[517],[518],[519],[520],[521],[522],[523],[524],[525],[526],[527],[528],[529],[530],[531],[532],[533],[534],[535],[536],[537],[538],[539],[540],[541],[542],[543],[544],[545],[546],[547],[548],[549],[550],[551],[552],[553],[554],[555],[556],[557],[558],[559],[560],[561],[562],[563],[564],[565],[566],[567],[568],[569],[570],[571],[572],[573],[574],[575],[576],[577],[578],[579],[580],[581],[582]]},{"type":"LineString","properties":{"kind":"major_road","network":null,"sort_rank":380,"kind_detail":"primary","source":"openstreetmap.org","min_zoom":8.0,"old_name":"Via Nazionale","shield_text":"114","landuse_kind":"park","ref":"SS114","id":255145806},"arcs":[583]},{"type":"LineString","properties":{"source":"openstreetmap.org","kind":"ferry","name":"Milazzo - Stromboli","sort_rank":355,"min_zoom":8.0,"id":186178529},"arcs":[584]},{"type":"LineString","properties":{"kind":"major_road","network":null,"sort_rank":380,"kind_detail":"primary","source":"openstreetmap.org","min_zoom":8.0,"old_name":"Via Piano Pozzo","shield_text":"113","ref":"SS113"},"arcs":[585]},{"type":"LineString","properties":{"kind":"major_road","network":null,"sort_rank":380,"kind_detail":"primary","source":"openstreetmap.org","min_zoom":8.0,"landuse_kind":"nature_reserve","shield_text":"284","ref":"SS284"},"arcs":[586]},{"type":"LineString","properties":{"kind":"major_road","network":null,"sort_rank":380,"kind_detail":"primary","source":"openstreetmap.org","min_zoom":8.0,"landuse_kind":"park","shield_text":"286","ref":"SS286","id":199397166},"arcs":[587]},{"type":"LineString","properties":{"kind":"highway","network":"e-road","sort_rank":383,"kind_detail":"motorway","source":"openstreetmap.org","min_zoom":8.0,"all_networks":["e-road","IT:A-road"],"shield_text":"45","all_shield_texts":["45","18"]},"arcs":[588]},{"type":"LineString","properties":{"source":"openstreetmap.org","kind":"ferry","name":"Filicudi - Alicudi","sort_rank":355,"min_zoom":8.0,"id":171995350},"arcs":[589]},{"type":"LineString","properties":{"kind":"major_road","network":null,"sort_rank":380,"kind_detail":"primary","source":"openstreetmap.org","min_zoom":8.0,"old_name":"Via Comunale Vigliatore","shield_text":"113","ref":"SS113","id":141470291},"arcs":[590]},{"type":"MultiLineString","properties":{"source":"openstreetmap.org","kind":"major_road","network":null,"sort_rank":380,"kind_detail":"primary","min_zoom":8.0,"shield_text":"114"},"arcs":[[591],[592],[593],[594],[595],[596],[597],[598],[599],[600]]},{"type":"MultiLineString","properties":{"kind":"major_road","network":null,"sort_rank":380,"kind_detail":"primary","source":"openstreetmap.org","min_zoom":8.0,"landuse_kind":"urban_area","shield_text":"185","ref":"SS185"},"arcs":[[601],[602],[603],[604],[605],[606]]},{"type":"LineString","properties":{"kind":"major_road","network":null,"sort_rank":380,"kind_detail":"primary","source":"openstreetmap.org","min_zoom":8.0,"shield_text":"119","ref":"SP119"},"arcs":[607]},{"type":"LineString","properties":{"kind":"major_road","network":null,"sort_rank":380,"kind_detail":"primary","source":"openstreetmap.org","min_zoom":8.0,"landuse_kind":"park","shield_text":"114","ref":"SS114"},"arcs":[608]}]},"earth":{"type":"GeometryCollection","geometries":[{"type":"MultiPolygon","properties":{"sort_rank":10,"source":"naturalearthdata.com","min_zoom":0.0,"kind":"earth","area":31844826358},"arcs":[[[609]],[[610]],[[611]],[[612]],[[613]],[[614]],[[615]]]}]},"landuse":{"type":"GeometryCollection","geometries":[{"type":"Polygon","properties":{"kind":"nature_reserve","protect_class":"97","area":27538800,"sort_rank":23,"operator":"Ente Parcodell'Etna","source":"openstreetmap.org","min_zoom":8.0,"tier":2,"id":-6878746,"osm_relation":true},"arcs":[[616]]},{"type":"MultiPolygon","properties":{"source":"naturalearthdata.com","kind":"urban_area","name":"","area":1767658007,"sort_rank":11,"min_zoom":4.0},"arcs":[[[617]],[[618]],[[619]],[[620]],[[621]],[[622]],[[623]],[[624]],[[625]]]},{"type":"Polygon","properties":{"kind":"protected_area","natural":"scree","protect_class":"15","area":22018900,"sort_rank":17,"source":"openstreetmap.org","min_zoom":8.0,"operator":"Protezione Civile Italiana, Ente Parco dell'Etna-Nicolosi","tier":2,"id":216204085},"arcs":[[626]]},{"type":"Polygon","properties":{"kind":"nature_reserve","area":10409200,"sort_rank":23,"operator":"Dipartimento Regionale Azienda Foreste Demaniali","source":"openstreetmap.org","min_zoom":8.0,"tier":2,"id":-3380313,"osm_relation":true},"arcs":[[627]]},{"type":"MultiPolygon","properties":{"kind":"park","area":644035968,"sort_rank":24,"operator":"Ente Parco delle Madonie","source":"openstreetmap.org","min_zoom":6.0,"tier":2,"id":-3311607,"osm_relation":true},"arcs":[[[628]],[[629]]]},{"type":"Polygon","properties":{"kind":"nature_reserve","protect_class":"4","area":73921000,"sort_rank":23,"operator":"Dipartimento Regionale Azienda Foreste Demaniali","source":"openstreetmap.org","min_zoom":8.0,"tier":2,"id":224454232},"arcs":[[630]]},{"type":"Polygon","properties":{"kind":"protected_area","protect_class":"98","area":308584000,"sort_rank":17,"source":"openstreetmap.org","min_zoom":6.0,"tier":2,"id":-7585417,"osm_relation":true},"arcs":[[631]]},{"type":"Polygon","properties":{"kind":"nature_reserve","protect_class":"97","area":49693400,"sort_rank":23,"operator":"Ente Parco dell'Etna","source":"openstreetmap.org","min_zoom":8.0,"tier":2,"id":-6867718,"osm_relation":true},"arcs":[[632]]},{"type":"Polygon","properties":{"kind":"park","protect_class":"4","area":30900000,"sort_rank":24,"operator":"Ente Parco Fluviale dell'Alcantara","source":"openstreetmap.org","min_zoom":8.0,"tier":2,"id":-3308923,"osm_relation":true},"arcs":[[633]]},{"type":"Polygon","properties":{"kind":"nature_reserve","protect_class":"4","area":923868032,"sort_rank":23,"operator":"Ente Parco dell'Etna","source":"openstreetmap.org","min_zoom":6.0,"tier":2,"id":35763274},"arcs":[[634]]}]}},"type":"Topology","transform":{"translate":[14.0625,37.7185903256],"scale":[0.0003433228,0.0002695314]},"arcs":[[[2527,4096],[-157,-134],[-297,-7],[-245,-75],[-299,89],[-341,-17],[-250,-99],[-204,-4],[-154,-37],[-254,-147],[-196,-255],[-62,-186],[-15,-159],[15,-167],[49,-160],[89,-158],[113,-122],[219,-135],[264,-59],[254,25],[212,95],[258,-38],[279,53],[3,-17],[-1808,-394]],[[4096,2894],[-572,-80],[166,176],[89,175],[35,144],[171,159],[111,187]],[[3354,0],[-27,66],[20,65],[98,160],[92,92],[-22,23],[11,29],[37,43],[36,-12],[21,27],[-25,36],[25,59],[118,122],[55,114],[303,402]],[[4096,2032],[-114,-89],[-237,-97],[-181,-37],[-131,40],[25,-3],[-19,34],[31,74],[-42,96],[-24,1],[-19,-11],[33,-9],[15,-86],[-79,-203],[-111,-125],[-189,-101],[5,-3],[3,-12],[-5,-11],[-11,3],[12,11],[-6,9],[2,6],[-65,-29],[-85,32],[-14,40],[28,14],[-48,7],[-9,25],[-210,0],[-76,91],[-90,60],[-77,-77],[-296,-76],[-76,19],[-37,35],[-200,-241],[-123,-101],[-37,-14],[-12,22],[-104,-63],[-83,6],[-91,-68],[-158,-35],[-130,28],[-155,-91],[-93,12],[-137,-45],[-364,42],[-65,44],[-61,-50],[-186,9]],[[0,1114],[131,-16],[116,39],[241,-57],[192,-11],[146,44],[84,-11],[167,78],[118,-17],[155,36],[108,63],[97,3],[208,100],[218,263],[134,-25],[284,70],[88,74],[69,-41],[97,-114]],[[2653,1592],[1,-1],[6,-2],[76,-31],[63,-29],[102,-54],[8,-3],[9,-4],[8,-3],[9,-2],[11,-3],[7,-1],[7,-2],[9,-1],[10,0],[6,-1],[17,1],[7,0],[12,2],[7,1],[64,14],[7,1],[8,3],[10,3],[8,4],[9,4],[6,3],[13,8],[12,8],[19,14],[30,21],[3,2],[39,39],[72,42],[5,3],[4,4],[4,4],[3,4],[19,30],[18,24],[3,6],[2,4],[1,5],[8,36],[5,11],[20,20],[30,7],[70,-11],[10,0],[231,40],[106,63],[155,47],[74,-45],[0,-1]],[[3521,1772],[-62,10],[-10,1],[-15,-2],[-11,-4],[-4,-2],[-4,-2],[-11,-10],[-4,-6],[-3,-6],[-2,-4],[-1,-4],[-7,-35],[-4,-10],[-18,-26],[-21,-32],[-7,-8],[-81,-49],[-103,-84],[-70,-28],[-148,-8],[-136,66],[-63,29],[-83,34]],[[4096,1219],[-270,-325],[-94,-182],[-114,-116],[-15,-99],[-65,-43],[-41,-72],[-101,-22],[-62,-60],[-50,-166],[15,-134]],[[3367,0],[-30,68],[-5,40],[19,51],[82,127],[73,60],[50,78],[56,117],[262,415],[222,285],[0,-1241],[-729,0]],[[4096,2032],[-102,-49],[-35,-32],[-64,-44],[-229,-81],[-85,-14],[-52,2],[-48,10],[-36,26],[-13,48],[16,90],[-9,39],[-18,0],[11,-12],[-11,-30],[-3,-10],[5,-8],[9,-28],[-109,-215],[-76,-100],[-159,-57],[-51,-28],[-50,-19],[-56,11],[-16,16],[-30,48],[-12,12],[-29,6],[-92,-6],[-74,24],[-35,4],[-20,15],[-53,69],[-28,15],[-82,6],[-28,-6],[-27,-12],[-41,-26],[-221,-57],[-60,-4],[-96,8],[-32,-14],[-110,-136],[-82,-81],[-97,-66],[-358,-137],[-138,-27],[-94,45],[-138,-73],[-155,-43],[-169,-11],[-355,51],[-89,-23],[-42,-4],[-68,8],[-60,24],[0,2940],[4096,0],[0,-2064]],[[2633,2597],[0,53],[-22,0],[-40,-76],[9,-59],[45,-55],[67,-65],[34,26],[26,24],[-16,51],[-24,43],[-33,35],[-46,23]],[[2608,2981],[-96,1],[-44,-26],[-27,-62],[-3,-63],[24,-29],[40,-19],[38,-37],[41,-29],[52,9],[0,28],[-15,15],[-10,17],[-15,44],[77,0],[0,23],[-15,9],[-25,28],[-19,16],[21,53],[-24,22]],[[869,3044],[-11,45],[-42,-14],[11,-45],[42,14]],[[2218,3091],[110,-46],[4,36],[17,43],[9,17],[14,16],[-29,43],[-45,14],[-106,-4],[-62,-45],[88,-74]],[[1461,3213],[-52,12],[-11,-4],[4,-45],[23,-48],[64,-19],[34,3],[0,13],[-17,20],[-10,39],[-35,29]],[[3394,4050],[-27,7],[-19,-6],[-9,-17],[-15,-16],[-28,-13],[-21,-20],[0,-14],[56,-51],[33,-8],[21,14],[15,23],[8,23],[14,25],[6,30],[-14,14],[-20,9]],[[2332,3081],[17,43],[9,17],[14,16],[-29,43],[-45,14],[-106,-4],[-62,-45],[88,-74],[110,-46],[4,36]],[[2633,2650],[-22,0],[-40,-76],[9,-59],[45,-55],[67,-65],[34,26],[26,24],[-16,51],[-24,43],[-33,35],[-46,23],[0,53]],[[2462,2802],[40,-19],[38,-37],[41,-29],[52,9],[0,28],[-15,15],[-10,17],[-15,44],[77,0],[0,23],[-15,9],[-25,28],[-19,16],[21,53],[-24,22],[-96,1],[-44,-26],[-27,-62],[-3,-63],[24,-29]],[[4096,2032],[-102,-49],[-35,-32],[-64,-44],[-229,-81],[-85,-14],[-52,2],[-48,10],[-36,26],[-13,48],[16,90],[-9,39],[-18,0],[11,-12],[-11,-30],[-3,-10],[5,-8],[9,-28],[-109,-215],[-76,-100],[-159,-57],[-51,-28],[-50,-19],[-56,11],[-16,16],[-30,48],[-12,12],[-29,6],[-92,-6],[-74,24],[-35,4],[-20,15],[-53,69],[-28,15],[-82,6],[-28,-6],[-27,-12],[-41,-26],[-221,-57],[-60,-4],[-96,8],[-32,-14],[-110,-136],[-82,-81],[-97,-66],[-358,-137],[-138,-27],[-94,45],[-138,-73],[-155,-43],[-169,-11],[-355,51],[-89,-23],[-42,-4],[-68,8],[-60,24]],[[3367,0],[-30,68],[-5,40],[19,51],[82,127],[73,60],[50,78],[56,117],[262,415],[222,285]],[[3394,4050],[-27,7],[-19,-6],[-9,-17],[-15,-16],[-28,-13],[-21,-20],[0,-14],[56,-51],[33,-8],[21,14],[15,23],[8,23],[14,25],[6,30],[-14,14],[-20,9]],[[1496,3184],[-35,29],[-52,12],[-11,-4],[4,-45],[23,-48],[64,-19],[34,3],[0,13],[-17,20],[-10,39]],[[827,3030],[42,14],[-11,45],[-42,-14],[11,-45]],[[4040,1952],[4,1]],[[4042,1954],[-2,-1]],[[4049,1950],[-1,1]],[[2562,1668],[72,-65],[96,-28]],[[2730,1576],[-96,27],[-36,35],[-32,28],[-4,3]],[[2731,1576]],[[2731,1575],[0,1]],[[3358,1663],[-44,-15],[-241,-146]],[[3084,1502],[273,159]],[[3359,1662],[33,14]],[[3391,1677],[-31,-13]],[[3526,1755],[-134,-78]],[[3393,1677],[133,78]],[[3529,1757],[-3,-1]],[[3526,1755],[3,1]],[[3536,1759],[-7,-2]],[[3529,1756],[6,2]],[[3536,1758],[101,12]],[[3638,1770],[-102,-11]],[[3955,1903],[-199,-92]],[[3757,1810],[36,8],[34,14],[128,70]],[[3955,1902],[35,-1],[47,42],[18,20],[41,3]],[[4096,1977],[-41,-13],[-4,-2],[-25,-27],[-9,-5],[-18,-17],[-10,-11],[-34,0]],[[2358,3113],[298,-136],[37,-156],[-91,-28]],[[0,1090],[64,2]],[[65,1093],[-18,1],[-47,-3]],[[179,1093],[-82,-2]],[[102,1090],[74,2]],[[1631,1263],[-193,-45],[-25,-12],[-61,-36],[-69,-10],[-22,-11],[-13,-12],[-58,3],[-38,-3],[-59,-20],[-58,5],[-34,-2],[-111,-28],[-15,-6],[-43,-24],[-17,-3],[-42,8],[-212,-30],[-66,31],[-220,14]],[[277,1080],[217,-13],[68,-32],[146,4],[32,22],[38,3],[37,-5],[17,2],[136,48]],[[972,1110],[121,5],[60,21],[95,-1],[35,25],[70,9],[82,45],[196,49]],[[2562,1669],[-48,4],[-155,-109],[-80,50],[-67,-33],[-91,4],[-55,18],[-3,0]],[[2063,1603],[-12,-3]],[[2051,1600],[-2,0],[-73,-44],[-8,-7],[-53,-114],[-46,-34],[-39,-37],[-63,-24],[-21,-13],[-44,-43],[-71,-20]],[[1632,1263],[32,6],[39,14],[12,10],[31,34],[21,13],[26,6],[30,13],[7,5],[39,36],[38,26],[8,9],[53,114],[9,7],[60,35],[12,8],[2,1]],[[2051,1600],[7,3],[5,0]],[[2063,1603],[4,-1],[53,-18],[92,-4],[67,34],[57,-43],[14,-8],[9,0],[155,109],[48,-4]],[[2731,1576],[86,16],[64,-54],[7,-35],[7,-10],[29,-24],[2,-1]],[[2926,1468],[11,-2]],[[2937,1466],[12,-2],[26,3],[19,-2],[25,2],[65,35]],[[3073,1502],[-55,-34],[-24,-2],[-19,1],[-16,-1],[-22,0]],[[2937,1466],[-7,0],[-4,2]],[[2926,1468],[-1,1],[-3,2],[-30,26],[-10,42],[-50,45],[-15,9],[-19,2],[-67,-19]],[[3637,1770],[41,12]],[[3678,1783],[-40,-13]],[[3756,1811],[-78,-28]],[[3678,1782],[17,2],[62,26]],[[3771,802],[3,-3]],[[923,156],[-31,-36]],[[965,155],[-42,1]],[[987,168],[-18,-12]],[[991,169],[-1,-14]],[[2623,1626]],[[3314,1574],[-2,0]],[[3506,1710],[-9,-7]],[[3506,1710]],[[3506,1711],[0,-1]],[[3506,1710],[1,0],[0,1],[-1,0],[0,-1]],[[3527,1744],[-1,0]],[[3540,1765],[-3,-1]],[[3578,1783],[-1,0]],[[3761,1840],[-1,0]],[[3817,1867],[-1,0]],[[3862,1880],[0,-1]],[[3883,1884],[-1,-1]],[[3953,1909]],[[3984,1915],[-1,0]],[[3988,1919],[-1,0]],[[4030,1941],[-1,0]],[[4044,1953],[-2,1]],[[3516,1725],[1,0],[0,1],[-1,0],[0,-1]],[[3527,1743],[0,1],[-1,0]],[[3526,1744],[0,-1],[1,0]],[[3135,1379],[-4,-3]],[[3471,4096],[1,-60],[-42,-33]],[[3432,1853],[13,-3]],[[2232,3072],[7,-43],[304,-366],[76,1],[24,31],[4,71],[-45,27]],[[4042,1954],[3,4]],[[120,1101],[1,-2]],[[268,1128]],[[532,1078]],[[560,1072]],[[645,1072]],[[647,1071]],[[665,1067],[-1,0]],[[677,1068]],[[684,1068]],[[702,1070],[-1,0]],[[721,1072]],[[739,1075]],[[766,1083]],[[820,1062],[-3,0],[1,-1]],[[821,1060],[1,2],[-2,0]],[[934,1114]],[[957,1121],[-2,0]],[[978,1124]],[[1605,1250],[-3,1]],[[1785,1354]],[[1814,1383],[-1,-1]],[[2120,1596]],[[2203,1621],[-1,-1],[2,0]],[[2204,1621],[1,0],[-2,0]],[[2217,1625]],[[2217,1625],[1,0],[-1,0]],[[2244,1623],[6,2]],[[2251,1625],[-1,0]],[[2353,1662],[-1,0]],[[2393,1664],[-1,0]],[[2520,1730]],[[2530,1719],[0,1]],[[2554,1691],[0,1]],[[2736,1558]],[[2872,1481]],[[2991,1474],[-1,0]],[[3036,1455],[-1,1]],[[3036,1455],[1,0]],[[3042,1453]],[[3042,1453]],[[3677,1799]],[[3696,1810],[-6,-4]],[[821,1061],[-2,1],[-1,-2],[2,-1],[1,2]],[[2203,1621],[1,-1]],[[2204,1620],[0,1],[-1,0]],[[2217,1625]],[[2217,1625],[0,-1],[0,1]],[[121,1099],[-1,2]],[[121,1099],[0,-1]],[[122,1097],[-1,2]],[[125,1099],[-4,0]],[[875,782],[-1,0]],[[887,108],[2,4]],[[986,137],[11,5]],[[990,154],[1,0]],[[1523,273],[19,-21]],[[1542,252],[-2,1]],[[1542,252],[40,2]],[[1628,1282],[-2,0]],[[1644,1281],[-1,0]],[[1643,1281],[1,0]],[[1644,1281],[28,2]],[[1672,1283]],[[1672,1284],[0,-1]],[[1673,1284]],[[1673,1283],[0,1]],[[1673,1284],[30,17]],[[1704,1301],[-1,0]],[[1703,1301],[1,0]],[[1706,1301],[-1,0]],[[1705,1301],[1,0]],[[1706,1301],[23,18]],[[1729,1319],[1,0]],[[1729,1320],[0,-1]],[[1730,1320]],[[1868,1436],[1,1]],[[1870,1437],[-2,0]],[[1869,1437],[0,1]],[[1869,1439],[1,-2]],[[1896,1431],[-26,6]],[[1896,1431],[1,0]],[[1898,1432],[-2,-1]],[[1898,1432],[0,-1]],[[1899,1431],[0,1]],[[2240,1600],[7,22]],[[2240,1600],[0,-1]],[[2240,1599],[0,1]],[[2244,1623],[3,-1]],[[2247,1624]],[[2247,1624],[-2,0]],[[2248,1625],[-1,-1]],[[2247,1624],[0,-1]],[[2247,1622],[2,3]],[[2525,561]],[[2552,576],[9,2]],[[2723,1553],[1,1]],[[2724,1555],[-1,-2]],[[3218,352],[0,-2]],[[3219,352],[-1,-2]],[[3218,350],[11,-3]],[[3229,347],[2,1]],[[3229,347],[2,-1]],[[3253,323],[-1,-5]],[[3324,259],[-1,-1]],[[3333,281],[-9,-22]],[[3324,259]],[[3340,280],[-7,1]],[[3334,282],[-1,-1]],[[3334,281],[-1,0]],[[3774,799],[-3,3]],[[3829,882],[2,-2],[-57,-81]],[[3827,892],[21,20]],[[3856,918],[52,68]],[[3929,1015],[2,-2]],[[1673,1283],[0,1],[-1,0],[0,-1],[1,0]],[[1704,1301],[1,0],[-1,0]],[[1704,1301]],[[1729,1320]],[[1729,1320],[1,0]],[[1730,1320],[-1,0]],[[2240,1598],[0,1],[0,-1]],[[3504,392],[1,-1]],[[3505,391],[-1,1]],[[889,112],[-3,0]],[[923,156]],[[969,156],[-4,-1]],[[992,154],[-2,-1]],[[987,168],[4,1]],[[2958,3411],[324,547]],[[1629,1281],[-1,1]],[[1643,1282],[-1,-1],[0,-1],[1,0],[0,2]],[[3321,244],[40,70]],[[3373,324],[-11,-9]],[[3391,326],[-18,-1]],[[3430,357],[-39,-31]],[[3594,504],[-14,-24]],[[3647,629],[-26,-27]],[[3693,684],[-46,-55]],[[3733,738],[-40,-54]],[[3734,741],[-1,-3]],[[3771,802],[-37,-61]],[[3849,918],[-20,-36]],[[3849,918],[6,0]],[[3851,920],[-2,-2]],[[3855,918],[-4,2]],[[3987,1084],[-132,-165]],[[4059,1190],[-72,-105]],[[4060,1191],[19,20]],[[4096,1234],[-17,-23]],[[3501,386],[-50,-16]],[[3504,389],[-2,-2]],[[3504,389],[4,9]],[[3511,410],[-3,-12]],[[3325,1579],[-4,-4]],[[4052,1965],[-7,-7]],[[4075,1992],[-23,-26]],[[791,230],[2,-1]],[[842,174]],[[886,116],[0,-4]],[[1207,308],[2,0]],[[2469,549],[1,0]],[[2642,588]],[[2823,577],[1,0]],[[2852,559]],[[3045,511]],[[3151,424],[0,1]],[[3219,352],[-1,0]],[[3231,346],[0,2]],[[3253,326],[-2,2]],[[3255,321],[0,2]],[[3305,315],[1,-1]],[[3307,315]],[[3313,314],[0,-1]],[[3306,315],[0,-1]],[[3306,314],[1,1],[0,1],[-1,-1]],[[2723,1586],[-5,0]],[[803,1080],[21,-147],[-23,-13],[8,-64],[65,-74]],[[803,1080],[15,-20]],[[817,1061],[-3,6],[-11,13]],[[875,782],[-22,-89],[77,-63],[54,-169]],[[984,460],[-1,-7]],[[983,452],[1,-11]],[[985,434],[20,-9]],[[1005,425],[30,-46],[-23,-36],[58,-36],[-84,-170]],[[2229,480],[175,79]],[[2406,561],[14,-3]],[[2616,2584],[62,41],[24,138],[-46,214],[-298,136]],[[2623,1626],[-52,49]],[[3269,1543],[-69,0]],[[3312,1574],[-33,-2]],[[3321,1575],[-7,-1]],[[3497,1703],[-53,-56]],[[3516,1725],[-9,-14]],[[3508,1711],[8,14]],[[3526,1743],[-10,-16]],[[3517,1726],[10,17]],[[3537,1764],[-11,-19]],[[3556,1775],[-16,-10]],[[3567,1783],[-11,-8]],[[3577,1783],[-10,0]],[[3660,1795],[-82,-12]],[[3760,1840],[-25,-19]],[[3816,1867],[-55,-27]],[[3862,1879],[-45,-12]],[[3882,1883],[-20,-3]],[[3951,1909],[-68,-25]],[[3953,1909],[8,-1]],[[3961,1908],[-8,1]],[[3965,1908],[-4,0]],[[3965,1908],[3,2]],[[3983,1915],[-15,-5]],[[3987,1919],[-3,-4]],[[4029,1941],[-41,-22]],[[4038,1950],[-8,-9]],[[3440,388],[-10,-8]],[[3431,380],[9,7]],[[108,1067],[0,1]],[[51,293],[-14,-25]],[[288,307],[-33,72],[-93,-74]],[[297,310],[23,19]],[[2404,559],[2,2]],[[37,268],[-37,-10]],[[162,305],[-26,-39],[-59,75],[-26,-48]],[[288,307],[9,3]],[[320,329],[20,16],[53,-19],[29,-52],[188,34],[119,-48]],[[730,260],[61,-30]],[[793,229],[49,-55]],[[842,174],[44,-58]],[[886,112],[1,-4]],[[997,142],[75,37],[10,74],[34,1],[37,46],[57,-23],[-3,31]],[[1209,308],[15,24],[21,-22],[5,34],[7,-29],[14,33],[16,-20],[19,26],[100,24],[-13,-27],[130,-78]],[[1582,254],[117,113],[57,0],[8,21],[16,-15],[14,26],[21,-24],[31,28],[36,-10],[3,65],[81,-51],[83,26],[50,-31],[73,80],[57,-2]],[[2420,558],[49,-9]],[[2470,549],[82,27]],[[2642,588],[181,-11]],[[2824,577],[28,-18]],[[2852,559],[193,-48]],[[3151,425],[-11,42],[-95,44]],[[3218,352],[-67,72]],[[3231,348],[-12,4]],[[3251,328],[-20,18]],[[3255,323],[-2,3]],[[3304,315],[-49,6]],[[3313,314],[-5,1]],[[3336,276],[-23,37]],[[2358,3113],[23,-73],[-31,-27],[-81,14],[-37,45]],[[3317,215],[4,29]],[[3448,369],[-18,-12]],[[3545,461],[-34,-51]],[[3580,480],[-35,-19]],[[3593,534],[-2,-10]],[[3591,524],[3,-20]],[[3594,542],[-1,-8]],[[3610,584],[-16,-42]],[[3621,602],[-11,-18]],[[819,1059],[-2,2]],[[874,782],[1,0]],[[983,453],[0,-1]],[[984,461],[0,-1]],[[984,441],[1,-7]],[[1005,425]],[[3430,4003],[-33,-90],[-287,-251],[-152,-251]],[[1626,1282],[3,-1],[12,0]],[[1642,1282],[-13,-1]],[[3432,1852],[25,-7]],[[2641,588],[1,0]],[[4096,2011],[-21,-19]],[[3234,0],[1,53],[4,38],[1,26],[50,161]],[[3285,283],[-13,-38],[-32,-128],[-1,-26],[-4,-38],[-2,-53]],[[3430,379],[1,1]],[[3430,380]],[[3488,442],[-3,-2],[-20,-27],[-25,-25]],[[3440,387],[17,13],[28,39],[24,12],[8,10]],[[3516,461],[-18,-13]],[[3528,479],[55,42],[38,84]],[[3597,555],[-69,-74]],[[3621,605],[-24,-50]],[[968,1109],[4,1]],[[1631,1264],[0,-1]],[[1631,1263],[1,0]],[[3678,1783]],[[3678,1782]],[[4045,1958],[-5,-5]],[[4052,1966],[0,-1]],[[2358,3113],[18,87],[-61,34],[-164,3],[-639,-107]],[[2731,1576],[-1,0]],[[2730,1575],[1,0]],[[3357,1661],[2,1]],[[3360,1664],[-2,-1]],[[3392,1677],[-1,0]],[[3392,1676],[1,1]],[[3526,1755]],[[3526,1756],[0,-1]],[[3529,1757]],[[3529,1756]],[[3535,1758],[1,0]],[[3536,1759]],[[3955,1902]],[[3955,1902],[0,1]],[[2637,590],[4,-2]],[[2222,235],[-2,-7]],[[2289,282],[14,35]],[[121,1092],[-3,-5]],[[120,1100],[1,-8]],[[121,1092],[1,8]],[[3595,0],[501,873]],[[4096,3385],[-335,711]],[[3430,380],[-82,-30],[-63,-67]],[[3290,278],[59,72],[78,27],[3,2]],[[3498,448],[-10,-6]],[[3528,481],[-12,-20]],[[3517,461],[11,18]],[[4039,1172],[-24,-26],[-11,-30],[-69,-75],[-125,-162],[-54,-77],[-46,-98],[-89,-99]],[[3621,605],[7,6],[34,34],[50,60],[18,29],[27,68],[27,32],[22,34],[4,11],[27,29],[8,13],[15,17],[29,34],[30,38],[16,31],[21,18],[48,56],[12,30],[14,13],[27,35],[39,37]],[[4096,1254],[-55,-80]],[[3445,1850],[25,-5],[6,52],[2,107],[-27,79],[-776,504],[-59,-3]],[[3282,3958],[6,-44],[62,-26],[60,46],[20,69]],[[4096,2996],[-666,1007]],[[2720,1584],[2,-21]],[[3597,555]],[[870,3024],[-870,-474]],[[4040,1952],[-2,-2]],[[1897,1431],[2,0]],[[1899,1432],[-1,0]],[[4061,1193],[-4,-4]],[[4040,1953],[0,-1]],[[2722,1563],[0,-10]],[[2723,1553],[-1,0]],[[2722,1553],[1,0]],[[2358,3113],[70,11],[519,230],[27,45],[-16,12]],[[2224,216],[-6,-49]],[[2220,228],[2,-9]],[[2220,162],[5,-15]],[[2254,0],[-29,144]],[[2303,317],[1,3]],[[2507,522],[18,39]],[[4096,3986],[-36,110]],[[2218,167],[2,-5]],[[2222,219],[2,-3]],[[2225,147],[0,-3]],[[2525,562],[4,1]],[[3908,986],[23,27]],[[64,1092],[38,-2]],[[97,1091],[-32,2]],[[176,1092],[101,-12]],[[275,1082],[-96,11]],[[127,1098],[-127,15]],[[121,1099],[6,-1]],[[259,1131],[-132,-33]],[[259,1131],[9,-3]],[[268,1128],[-9,3]],[[445,1088],[-176,40]],[[445,1088],[14,0]],[[532,1078],[-73,10]],[[560,1072],[-28,6]],[[645,1072],[-85,0]],[[647,1071],[-2,1]],[[664,1067],[-17,4]],[[677,1068],[-12,-1]],[[684,1068],[-7,0]],[[701,1070],[-17,-2]],[[721,1072],[-19,-2]],[[739,1075],[-18,-3]],[[766,1083],[-27,-8]],[[817,1062],[-19,37],[-32,-16]],[[934,1114],[-102,-18],[-10,-34]],[[955,1121],[-21,-7]],[[978,1124],[-21,-3]],[[1602,1251],[-142,4],[-112,-57],[-116,-27],[-156,6],[-98,-53]],[[1619,1280],[-14,-30]],[[1619,1280],[7,2]],[[1626,1282],[-7,-2]],[[1785,1354],[-18,-38],[-33,7]],[[1813,1382],[-28,-28]],[[1867,1436],[-53,-53]],[[1867,1436],[3,3]],[[2120,1596],[-134,26],[-116,-183]],[[2202,1620],[-82,-24]],[[2214,1625],[-9,-4]],[[2250,1625],[-32,0]],[[2352,1662],[-39,6],[-62,-43]],[[2392,1664],[-39,-2]],[[2520,1730],[-36,21],[-91,-87]],[[2530,1720],[-10,10]],[[2554,1692],[-24,27]],[[2571,1675],[-17,16]],[[2736,1558],[-14,1]],[[2872,1481],[-22,74],[-114,3]],[[2928,1470],[-56,11]],[[2928,1470],[11,3]],[[2990,1474],[-51,-1]],[[3032,1458],[-41,16]],[[3032,1458],[4,-3]],[[3035,1456],[-3,2]],[[3042,1453],[-6,2]],[[3037,1455],[5,-2]],[[3046,1459],[-4,-6]],[[3042,1453],[4,6]],[[3050,1467],[-4,-8]],[[3062,1468],[-12,-1]],[[3116,1501],[-54,-33]],[[3134,1513],[-7,-2]],[[3200,1543],[-59,-25]],[[3677,1799],[-17,-4]],[[3690,1806],[-13,-7]],[[3735,1821],[-39,-11]],[[2602,2793],[48,-25],[17,-55],[-1,-86],[-50,-43]],[[4049,1950],[-5,3]],[[3502,387],[-1,-1]],[[3545,461]],[[3591,524]],[[3610,584]],[[2225,241],[-3,-6]],[[2225,241],[4,-2]],[[2289,282],[-60,-43]],[[2561,578],[76,12]],[[2639,1603],[-16,23]],[[2639,1603],[0,-2]],[[2715,1585],[-76,16]],[[2643,1602],[0,-1]],[[2728,1585],[-4,0]],[[2724,1585],[-2,0]],[[2722,1585],[-5,0]],[[2717,1585],[-2,0]],[[2715,1585],[6,1],[2,-1]],[[2723,1585],[1,0]],[[2724,1585],[3,0]],[[2717,1585]],[[2717,1585],[3,0]],[[2721,1585],[1,0]],[[2722,1585],[1,0]],[[2723,1585],[2,1]],[[3254,0],[17,62]],[[3279,1572],[-10,-29]],[[3271,69],[0,-1]],[[3271,68]],[[3271,62],[1,1]],[[3271,70],[0,-2]],[[3271,68],[0,-6]],[[3271,64],[1,-1]],[[3271,70],[46,145]],[[3271,69],[0,1]],[[3272,63],[-1,6]],[[3318,226],[2,10]],[[3328,1579],[1,1],[-1,0],[0,-1]],[[3328,1580],[-3,-1],[3,0]],[[3331,1580],[-3,0]],[[3329,1579],[2,1]],[[3338,1582],[-7,-2]],[[3338,1582],[2,0]],[[3340,1582],[5,1],[57,29],[9,8]],[[3411,1620],[1,0]],[[3412,1620],[1,1]],[[3413,1621],[-2,-1]],[[3411,1620]],[[3411,1620],[-11,-6],[-57,-28],[-5,-4]],[[3340,1583],[0,-1]],[[3340,1582]],[[3411,1620]],[[3411,1620]],[[3411,1620]],[[3412,1620]],[[3412,1620],[-1,0]],[[3411,1620]],[[3444,1647],[-31,-26]],[[3488,404],[5,-4]],[[3494,400],[-5,4]],[[3507,395]],[[3507,395],[-1,-1]],[[3506,395],[1,0]],[[3507,395]],[[3519,429],[27,31]],[[3528,1746],[-1,-2]],[[3527,1744],[2,1]],[[3812,1861],[1,1]],[[3813,1862]],[[3813,1862],[8,3]],[[3821,1865],[0,1]],[[4040,1953],[2,1]],[[4042,1955],[0,-2]],[[3529,1746],[-1,0],[1,0]],[[3451,370],[-1,-1]],[[3457,1845],[53,76],[15,168],[-21,1553],[-27,241],[-47,120]],[[3141,1518],[-7,-5]],[[2304,320],[20,50],[81,16],[102,136]],[[118,1087],[-10,-15]],[[4041,1174],[-2,-2]],[[1512,3130],[34,-3],[12,-35],[-688,-68]],[[3127,1511],[-11,-10]],[[3361,314],[1,1]],[[3373,324],[0,1]],[[3391,326]],[[3647,629]],[[3693,684]],[[3851,920]],[[3987,1085],[0,-1]],[[4059,1190],[1,1]],[[4079,1211]],[[3856,918],[0,1],[-1,-1],[1,0]],[[3493,400],[11,-8]],[[3504,392],[-10,8]],[[3505,391],[0,1]],[[3505,392],[2,4]],[[3506,393],[-1,-1]],[[3505,392],[0,-1]],[[2722,1559],[2,-5]],[[3448,369],[2,0]],[[4096,2032],[0,-791],[-222,-285],[-262,-415],[-56,-117],[-50,-78],[-73,-60],[-82,-127],[-19,-51],[5,-40],[30,-68],[-3367,0],[0,1156],[60,-24],[68,-8],[42,4],[89,23],[355,-51],[169,11],[155,43],[138,73],[94,-45],[138,27],[358,137],[97,66],[82,81],[110,136],[32,14],[96,-8],[60,4],[221,57],[41,26],[27,12],[28,6],[82,-6],[28,-15],[53,-69],[20,-15],[35,-4],[74,-24],[92,6],[29,-6],[12,-12],[30,-48],[16,-16],[56,-11],[50,19],[51,28],[159,57],[76,100],[109,215],[-9,28],[-5,8],[3,10],[11,30],[-11,12],[18,0],[9,-39],[-16,-90],[13,-48],[36,-26],[48,-10],[52,-2],[85,14],[229,81],[64,44],[35,32],[102,49]],[[869,3044],[-42,-14],[-11,45],[42,14],[11,-45]],[[1523,3112],[-34,-3],[-64,19],[-23,48],[-4,45],[11,4],[52,-12],[35,-29],[10,-39],[17,-20],[0,-13]],[[3385,3926],[-21,-14],[-33,8],[-56,51],[0,14],[21,20],[28,13],[15,16],[9,17],[19,6],[27,-7],[20,-9],[14,-14],[-6,-30],[-14,-25],[-8,-23],[-15,-23]],[[2726,2421],[-34,-26],[-67,65],[-45,55],[-9,59],[40,76],[22,0],[0,-53],[46,-23],[33,-35],[24,-43],[16,-51],[-26,-24]],[[2633,2726],[-52,-9],[-41,29],[-38,37],[-40,19],[-24,29],[3,63],[27,62],[44,26],[96,-1],[24,-22],[-21,-53],[19,-16],[25,-28],[15,-9],[0,-23],[-77,0],[15,-44],[10,-17],[15,-15],[0,-28]],[[2332,3081],[-4,-36],[-110,46],[-88,74],[62,45],[106,4],[45,-14],[29,-43],[-14,-16],[-9,-17],[-17,-43]],[[2855,233],[136,70],[-15,-38],[60,4],[35,-46],[-71,-75],[-122,18],[-23,67]],[[2263,218],[-55,12],[-35,39],[-6,75],[122,-11],[34,-38],[6,-75],[-66,-2]],[[3129,0],[-66,0],[10,55],[55,-44],[1,-11]],[[3365,0],[-134,0],[-5,102],[42,201],[103,-114],[-39,-81],[33,-108]],[[2524,2817],[19,97],[65,67],[24,-22],[-21,-53],[33,-45],[-120,-44]],[[2652,1534],[-76,32],[-21,97],[36,28],[52,-56],[96,-24],[-10,-45],[-77,-32]],[[3529,1814],[127,11],[6,-43],[-71,-37],[-22,-123],[-43,0],[-32,41],[-65,-83],[-97,-41],[20,-108],[-20,-57],[-68,57],[-29,108],[-52,5],[-110,-46],[2,62],[172,64],[118,121],[2,67],[65,127],[-11,88],[27,-39],[-3,-138],[84,-36]],[[4096,1992],[0,-107],[-52,-16],[-55,-69],[-74,28],[0,41],[-121,-76],[-74,35],[175,79],[114,83],[87,2]],[[3506,346],[-21,-18],[-56,16],[2,60],[95,64],[33,288],[52,-6],[13,-191],[-118,-213]],[[2602,566],[-65,19],[-14,89],[162,0],[-17,-73],[-66,-35]],[[2682,117],[18,50],[62,17],[75,-58],[5,-75],[-71,-8],[-89,74]],[[1389,3188],[14,29],[30,1],[63,-18],[15,-28],[-56,-16],[-18,-42],[-48,74]],[[0,1053],[71,44],[75,-16],[100,37],[31,-39],[36,-2],[-31,-59],[-83,19],[-52,-44],[-50,11],[-1,27],[-71,-4],[-25,-38],[0,64]],[[0,799],[33,-60],[29,0],[51,-55],[114,8],[26,15],[-51,33],[31,12],[-1,40],[-47,19],[-27,-16],[-46,57],[59,20],[9,26],[28,-37],[30,47],[46,6],[-59,-98],[29,-91],[40,-38],[-38,-58],[19,-42],[-27,-95],[77,-149],[-9,-27],[-53,-16],[-5,-79],[-35,16],[-12,40],[-42,6],[-16,50],[-52,-18],[-20,69],[-38,-114],[-43,-12],[0,541]],[[3649,1211],[44,89],[64,14],[-39,69],[40,45],[44,-10],[-11,-38],[65,25],[-9,-45],[41,1],[-13,-35],[49,8],[30,-54],[-1,-41],[-53,-18],[-44,61],[-36,-49],[-1,-99],[-34,-33],[-79,11],[-57,99]],[[2289,20],[98,85],[-6,49],[-76,4],[-8,44],[44,22],[-5,42],[68,-18],[43,17],[78,-42],[39,147],[52,-6],[25,115],[24,-4],[-16,-74],[39,-10],[48,48],[62,11],[35,0],[52,-50],[33,43],[46,-19],[-81,-99],[-121,-83],[144,21],[-20,-93],[87,-100],[12,-70],[-28,0],[-5,21],[-11,-21],[-197,0],[-10,64],[-34,-64],[-190,0],[20,20],[-6,36],[-118,-39],[-43,32],[-51,-46],[-23,17]],[[2753,70],[64,73],[98,-22],[69,-54],[12,-67],[-235,0],[-2,3],[-6,67]],[[2781,670],[86,-17],[75,39],[128,-58],[69,34],[57,-6],[55,-77],[30,7],[25,-41],[26,15],[119,-196],[-2,-35],[37,-5],[-40,2],[2,37],[-65,41],[19,8],[-24,66],[-41,11],[-54,77],[-81,-78],[-56,44],[-13,55],[74,25],[-36,29],[-139,-18],[-86,37],[-73,-24],[-92,28]],[[2222,189],[69,44],[15,99],[-17,30],[116,37],[-56,55],[-63,-37],[-62,68],[31,34],[150,44],[58,-17],[-3,-23],[171,-2],[21,57],[85,-18],[41,19],[70,-47],[197,-23],[55,-78],[-14,-32],[30,-161],[-38,-138],[-42,9],[10,-109],[-791,0],[-33,189]]]}