{"objects":{"water":{"type":"GeometryCollection","geometries":[{"type":"MultiPolygon","properties":{"sort_rank":200,"source":"naturalearthdata.com","min_zoom":0.0,"kind":"lake","area":1174824462},"arcs":[[[0]]]},{"type":"LineString","properties":{"source":"naturalearthdata.com","kind":"lake","sort_rank":367,"boundary":true,"min_zoom":0.0,"id":871},"arcs":[1]}]},"buildings":{"type":"GeometryCollection","geometries":[]},"places":{"type":"GeometryCollection","geometries":[{"type":"Point","properties":{"name:pt":"Regi\u00e3o Aut\u00f3noma do Tibete","name:ro":"Regiunea Autonom\u0103 Tibet","name:sk":"Auton\u00f3mna oblas\u0165 Tibet","name:ja":"\u30c1\u30d9\u30c3\u30c8\u81ea\u6cbb\u533a","name:lt":"Tibeto autonominis regionas","name:hi":"\u0924\u093f\u092c\u094d\u092c\u0924","name:kn":"\u0c9f\u0cbf\u0cac\u0cc6\u0c9f\u0ccd","kind":"region","name:zh_PY":"X\u012bz\u00e0ng Z\u00eczh\u00ecq\u016b","min_zoom":4.0,"name:it":"Regione Autonoma del Tibet","name:uk":"\u0422\u0438\u0431\u0435\u0442\u0441\u044c\u043a\u0438\u0439 \u0430\u0432\u0442\u043e\u043d\u043e\u043c\u043d\u0438\u0439 \u0440\u0430\u0439\u043e\u043d","name:vi":"Khu t\u1ef1 tr\u1ecb T\u00e2y T\u1ea1ng","name:ru":"\u0422\u0438\u0431\u0435\u0442\u0441\u043a\u0438\u0439 \u0430\u0432\u0442\u043e\u043d\u043e\u043c\u043d\u044b\u0439 \u0440\u0430\u0439\u043e\u043d","name:pl":"Tybeta\u0144ski Region Autonomiczny","name:hu":"Tibeti Auton\u00f3m Tartom\u00e1ny","name:hr":"Autonomna regija Tibet","id":244082468,"name:eo":"Tibeto","name:en":"Tibet Autonomous Region","name":"\u897f\u85cf\u81ea\u6cbb\u533a (\u0f56\u0f7c\u0f51\u0f0b\u0f62\u0f44\u0f0b\u0f66\u0f90\u0fb1\u0f7c\u0f44\u0f0b\u0f63\u0f97\u0f7c\u0f44\u0f66\u0f0b)","kind_detail":"state","name:de":"Autonomes Gebiet Tibet","source":"openstreetmap.org","name:fr":"R\u00e9gion autonome du Tibet","name:sr":"\u0422\u0438\u0431\u0435\u0442","name:zh":"\u897f\u85cf\u81ea\u6cbb\u533a","name:es":"Regi\u00f3n Aut\u00f3noma del T\u00edbet"},"coordinates":[4096,165]}]},"transit":{"type":"GeometryCollection","geometries":[]},"pois":{"type":"GeometryCollection","geometries":[]},"boundaries":{"type":"GeometryCollection","geometries":[]},"roads":{"type":"GeometryCollection","geometries":[]},"earth":{"type":"GeometryCollection","geometries":[{"type":"Polygon","properties":{"sort_rank":10,"source":"naturalearthdata.com","kind":"earth","min_zoom":0.0,"id":4733},"arcs":[[2]]}]},"landuse":{"type":"GeometryCollection","geometries":[{"type":"Polygon","properties":{"kind":"glacier","natural":"glacier","area":19258100,"sort_rank":29,"source":"openstreetmap.org","min_zoom":8.0,"tier":3,"id":361137116},"arcs":[[3]]}]}},"type":"Topology","transform":{"translate":[88.59375,31.952162238],"scale":[0.0003433228,0.0002894016]},"arcs":[[[4096,1572],[-40,31],[-134,-25],[-177,5],[-20,9],[3,94],[9,41],[21,17],[30,5],[13,15],[14,23],[32,31],[37,19],[82,28],[40,21],[54,56],[34,28],[2,1],[0,-399]],[[4096,1572],[-40,31],[-134,-25],[-177,5],[-20,9],[3,94],[9,41],[21,17],[30,5],[13,15],[14,23],[32,31],[37,19],[82,28],[40,21],[54,56],[34,28],[2,1]],[[4096,4096],[0,-4096],[-4096,0],[0,4096],[4096,0]],[[0,3831],[15,-21],[-15,6],[0,15]]]}