{"objects":{"water":{"type":"GeometryCollection","geometries":[{"type":"Polygon","properties":{"source":"naturalearthdata.com","kind":"lake","area":67944648,"sort_rank":200,"min_zoom":0.0,"id":773},"arcs":[[4]]},{"type":"LineString","properties":{"source":"naturalearthdata.com","kind":"lake","sort_rank":367,"boundary":true,"min_zoom":0.0,"id":773},"arcs":[5]}]},"buildings":{"type":"GeometryCollection","geometries":[]},"places":{"type":"GeometryCollection","geometries":[{"type":"Point","properties":{"kind":"locality","name:en":"Kosh-Agach","name":"\u041a\u043e\u0448-\u0410\u0433\u0430\u0447","kind_detail":"town","name:de":"Kosch-Agatsch","source":"openstreetmap.org","min_zoom":8.0,"int_name":"Kosh-Agach","population":9212,"id":280515128,"name:ja":"\u30b3\u30b7=\u30a2\u30ac\u30c1"},"coordinates":[201,714]}]},"transit":{"type":"GeometryCollection","geometries":[]},"pois":{"type":"GeometryCollection","geometries":[]},"boundaries":{"type":"GeometryCollection","geometries":[{"type":"LineString","properties":{"name:ka":"\u10db\u10dd\u10dc\u10e6\u10dd\u10da\u10d4\u10d7\u10d8","name:ko":"\ubabd\uace8","name:cv":"\u041c\u043e\u043d\u0433\u043e\u043b\u0438","name:cu":"\u041c\u046b\u0433\u043e\u043b\u0438","name:kl":"Mongolia","name:cs":"Mongolsko","name:tt":"\u041c\u043e\u043d\u0433\u043e\u043b\u0438\u044f","name:kw":"Mongoli","name:kv":"\u041c\u043e\u043d\u0433\u043e\u043b\u0438\u044f","name:ku":"Mongolya","name:tl":"Monggolya","name:ce":"\u041c\u043e\u043d\u0433\u043e\u043b\u0438","name:ta":"\u0bae\u0b99\u0bcd\u0b95\u0bcb\u0bb2\u0bbf\u0baf\u0bbe","name:tg":"\u041c\u0443\u0493\u0443\u043b\u0438\u0441\u0442\u043e\u043d","name:ca":"Mong\u00f2lia","name:te":"\u0c2e\u0c02\u0c17\u0c4b\u0c32\u0c3f\u0c2f\u0c3e","name:cy":"Mongolia","name:hr":"Mongolija","name:da":"Mongoliet","name:de":"Mongolei","name:dz":"\u0f66\u0f7c\u0f42\u0f0b\u0f54\u0f7c\u0f0b","source":"openstreetmap.org","name:kn":"\u0cae\u0c82\u0c97\u0ccb\u0cb2\u0cbf\u0caf","name:dv":"\u0789\u07ae\u0782\u07b0\u078e\u07af\u078d\u07a8\u0787\u07a7","name:km":"\u1798\u17c9\u17bb\u1784\u17a0\u17d2\u1782\u17c4\u179b\u17b8","name:lv":"Mongolija","name:lt":"Mongolija","name:uz":"Mo\u02bbg\u02bbuliston","name:kk":"\u041c\u043e\u04a3\u0493\u043e\u043b\u0438\u044f","name:ur":"\u0645\u0646\u06af\u0648\u0644\u06cc\u0627","name:lb":"Mongolei","name:la":"Mongolia","name:uk":"\u041c\u043e\u043d\u0433\u043e\u043b\u0456\u044f","name:ug":"\u0645\u0648\u06ad\u063a\u06c7\u0644\u0649\u064a\u06d5","name:li":"Mongoli\u00eb","name:ln":"Mongol\u00ed","name:el":"\u039c\u03bf\u03b3\u03b3\u03bf\u03bb\u03af\u03b1","name:eo":"Mongolujo","name:en":"Mongolia","name":"\u041c\u043e\u043d\u0433\u043e\u043b \u0443\u043b\u0441","name:tk":"Mongoli\u00fda","name:ee":"Mongolia","name:th":"\u0e1b\u0e23\u0e30\u0e40\u0e17\u0e28\u0e21\u0e2d\u0e07\u0e42\u0e01\u0e40\u0e25\u0e35\u0e22","name:eu":"Mongolia","name:et":"Mongoolia","name:es":"Mongolia","name:ia":"Mongolia","name:az":"Monqolustan","name:ie":"Mongolia","name:id":"Mongolia","name:as":"\u09ae\u0999\u09cd\u0997\u09cb\u09b2\u09bf\u09af\u09bc\u09be","name:ar":"\u0645\u0646\u063a\u0648\u0644\u064a\u0627","name:io":"Mongolia","name:is":"Mong\u00f3l\u00eda","name:am":"\u121e\u1295\u130e\u120d\u12eb","name:it":"Mongolia","name:an":"Mongolia","name:ru":"\u041c\u043e\u043d\u0433\u043e\u043b\u0438\u044f","name:rw":"Mongoliya","name:af":"Mongoli\u00eb","kind_detail":"2","name:za":"Mungzguj","name:zh-yue":"\u8499\u53e4\u570b","name:zh":"\u8499\u53e4\u56fd","name:so":"Mongolia","name:sm":"Mogitolia","name:sl":"Mongolija","name:sk":"Mongolsko","name:ja":"\u30e2\u30f3\u30b4\u30eb\u56fd","name:si":"\u0db8\u0ddc\u0d82\u0d9c\u0ddd\u0dbd\u0dd2\u0dba\u0dcf\u0dc0","name:sh":"Mongolija","name:se":"Mongolia","name:br":"Mongolia","name:bs":"Mongolija","name:bn":"\u09ae\u0999\u09cd\u0997\u09cb\u09b2\u09bf\u09af\u09bc\u09be","name:bo":"\u0f58\u0f7c\u0f44\u0f0b\u0f42\u0f7c\u0f63\u0f0d","name:sa":"\u092e\u0902\u0917\u094b\u0932\u093f\u092f\u093e","name:sw":"Mongolia","name:be":"\u041c\u0430\u043d\u0433\u043e\u043b\u0456\u044f","name:su":"Mongolia","name:bg":"\u041c\u043e\u043d\u0433\u043e\u043b\u0438\u044f","name:ss":"IMongoliya","name:ba":"\u041c\u043e\u043d\u0433\u043e\u043b\u0438\u044f","name:sq":"Mongolia","name:jv":"Mongolia","name:pt":"Mong\u00f3lia","name:ps":"\u0645\u063a\u0648\u0644\u0633\u062a\u0627\u0646","name:oc":"Mongolia","min_zoom":8.0,"name:ro":"Mongolia","name:zh-min-nan":"B\u00f4ng-k\u00f3\u0358","name:os":"\u041c\u0430\u043d\u0433\u043e\u043b","name:or":"\u0b2e\u0b19\u0b4d\u0b17\u0b4b\u0b32\u0b3f\u0b06","name:pl":"Mongolia","sort_rank":262,"name:sr":"\u041c\u043e\u043d\u0433\u043e\u043b\u0438\u0458\u0430","osm_relation":true,"name:pa":"\u0a2e\u0a70\u0a17\u0a4b\u0a32\u0a40\u0a06","name:tr":"Mo\u011folistan","name:hi":"\u092e\u0902\u0917\u094b\u0932\u093f\u092f\u093e","name:sv":"Mongoliet","name:he":"\u05de\u05d5\u05e0\u05d2\u05d5\u05dc\u05d9\u05d4","name:hy":"\u0544\u0578\u0576\u0572\u0578\u056c\u056b\u0561","name:ht":"Mongoli","name:hu":"Mong\u00f3lia","name:qu":"Mungul suyu","kind":"country","name:yi":"\u05de\u05d0\u05e0\u05d2\u05d0\u05dc\u05d9\u05d9","name:yo":"M\u00f2ng\u00f3l\u00ed\u00e0","alt_name:eo":"Mongolio","name:ms":"Mongolia","name:mr":"\u092e\u0902\u0917\u094b\u0932\u093f\u092f\u093e","name:my":"\u1019\u103d\u1014\u103a\u1002\u102d\u102f\u1038\u101c\u102e\u1038\u101a\u102c\u1038\u1014\u102d\u102f\u1004\u103a\u1004\u1036","int_name":"Mongolia","name:ml":"\u0d2e\u0d02\u0d17\u0d4b\u0d33\u0d3f\u0d2f","name:vi":"M\u00f4ng C\u1ed5","name:mi":"Mong\u014dria","id":-161033,"name:mk":"\u041c\u043e\u043d\u0433\u043e\u043b\u0438\u0458\u0430","name:vo":"Mongol\u00e4n","name:fa":"\u0645\u063a\u0648\u0644\u0633\u062a\u0627\u0646","name:fi":"Mongolia","name:ky":"\u041c\u043e\u04a3\u0433\u043e\u043b\u0441\u0442\u0430\u043d","name:fo":"Mongolia","name:fr":"Mongolie","name:fy":"Mongoalje","name:nl":"Mongoli\u00eb","name:nn":"Mongolia","name:no":"Mongolia","name:na":"Mongoriya","name:ne":"\u092e\u0919\u094d\u0917\u094b\u0932\u093f\u092f\u093e","name:wo":"Mongoli","name:nv":"Ch\u02bcah Di\u02bcilii Bik\u00e9yah","name:ga":"An Mhong\u00f3il","name:gd":"Mong\u00f2ilia","name:gn":"Mongolia","name:gl":"Mongolia","name:gv":"Yn Vongoil","name:gu":"\u0aae\u0a82\u0a97\u0acb\u0ab2\u0abf\u0aaf\u0abe"},"arcs":[0]},{"type":"LineString","properties":{"name:right:hy":"\u0531\u056c\u0569\u0561\u0575\u056b \u0540\u0561\u0576\u0580\u0561\u057a\u0565\u057f\u0578\u0582\u0569\u0575\u0578\u0582\u0576","name:right:ja":"\u30a2\u30eb\u30bf\u30a4\u5171\u548c\u56fd","name:right:fr":"R\u00e9publique de l'Alta\u00ef","name:right:uk":"\u0420\u0435\u0441\u043f\u0443\u0431\u043b\u0456\u043a\u0430 \u0410\u043b\u0442\u0430\u0439","name:left:ja":"\u30d0\u30e4\u30f3\u30fb\u30a6\u30eb\u30ae\u30fc","id:right":-145194,"name:right:lt":"Altajaus Respublika","min_zoom":8.0,"id":-3382266,"name:right":"\u0420\u0435\u0441\u043f\u0443\u0431\u043b\u0438\u043a\u0430 \u0410\u043b\u0442\u0430\u0439","name:left:en":"Bayan-\u00d6lgii","name:right:ca":"Rep\u00fablica de l'Altai","kind_detail":"4","source":"openstreetmap.org","id:left":-3382266,"name:right:cs":"Altajsk\u00e1 republika","name:right:az":"Altay Respublikas\u0131","name:left":"\u0411\u0430\u044f\u043d-\u04e8\u043b\u0433\u0438\u0439","name:right:ka":"\u10d0\u10da\u10d7\u10d0\u10d8\u10e1 \u10e0\u10d4\u10e1\u10de\u10e3\u10d1\u10da\u10d8\u10d9\u10d0","name:right:pt":"Rep\u00fablica de Altai","name:right:et":"Altai Vabariik","name:right:tt":"\u0410\u043b\u0442\u0430\u0439 \u0420\u0435\u0441\u043f\u0443\u0431\u043b\u0438\u043a\u0430\u0441\u044b","name:right:kk":"\u0410\u043b\u0442\u0430\u0439 \u0420\u0435\u0441\u043f\u0443\u0431\u043b\u0438\u043a\u0430\u0441\u044b","name:right:it":"Repubblica dell'Altaj","name:right:tr":"Altay Cumhuriyeti","name:right:es":"Rep\u00fablica de Alt\u00e1i","name:right:kv":"\u0410\u043b\u0442\u0430\u0439 \u0440\u0435\u0441\u043f\u0443\u0431\u043b\u0438\u043a\u0430","name:right:ky":"\u0410\u043b\u0442\u0430\u0439 \u0420\u0435\u0441\u043f\u0443\u0431\u043b\u0438\u043a\u0430\u0441\u044b","name:left:ru":"\u0411\u0430\u044f\u043d-\u0423\u043b\u0433\u0438\u0439","name:right:pl":"Republika A\u0142taju","name:right:en":"Altai Republic","osm_relation":true,"name:right:el":"\u0394\u03b7\u03bc\u03bf\u03ba\u03c1\u03b1\u03c4\u03af\u03b1 \u03c4\u03c9\u03bd \u0391\u03bb\u03c4\u03ac\u03b9","kind":"region","name":"\u0411\u0430\u044f\u043d-\u04e8\u043b\u0433\u0438\u0439 - \u0420\u0435\u0441\u043f\u0443\u0431\u043b\u0438\u043a\u0430 \u0410\u043b\u0442\u0430\u0439","name:right:de":"Republik Altai","name:right:lv":"Altaja Republika","name:right:ba":"\u0410\u043b\u0442\u0430\u0439 \u0420\u0435\u0441\u043f\u0443\u0431\u043b\u0438\u043a\u0430\u04bb\u044b","name:left:de":"Bajan-\u00d6lgii","sort_rank":256,"name:left:fr":"Bayan-\u00d6lgiy","alt_name:right:cs":"Republika Altaj"},"arcs":[1]},{"type":"LineString","properties":{"kind":"region","name:en":"Bayan-\u00d6lgii","name":"\u0411\u0430\u044f\u043d-\u04e8\u043b\u0433\u0438\u0439","sort_rank":256,"kind_detail":"4","min_zoom":8.0,"name:de":"Bajan-\u00d6lgii","source":"openstreetmap.org","name:fr":"Bayan-\u00d6lgiy","name:ru":"\u0411\u0430\u044f\u043d-\u0423\u043b\u0433\u0438\u0439","id":-3382266,"osm_relation":true,"name:ja":"\u30d0\u30e4\u30f3\u30fb\u30a6\u30eb\u30ae\u30fc"},"arcs":[2]},{"type":"LineString","properties":{"name:pt":"Rep\u00fablica de Altai","name:az":"Altay Respublikas\u0131","name:ka":"\u10d0\u10da\u10d7\u10d0\u10d8\u10e1 \u10e0\u10d4\u10e1\u10de\u10e3\u10d1\u10da\u10d8\u10d9\u10d0","name:tr":"Altay Cumhuriyeti","name:cs":"Altajsk\u00e1 republika","name:tt":"\u0410\u043b\u0442\u0430\u0439 \u0420\u0435\u0441\u043f\u0443\u0431\u043b\u0438\u043a\u0430\u0441\u044b","name:kv":"\u0410\u043b\u0442\u0430\u0439 \u0440\u0435\u0441\u043f\u0443\u0431\u043b\u0438\u043a\u0430","min_zoom":8.0,"alt_name:cs":"Republika Altaj","name:it":"Repubblica dell'Altaj","name:pl":"Republika A\u0142taju","id":-145194,"name:ky":"\u0410\u043b\u0442\u0430\u0439 \u0420\u0435\u0441\u043f\u0443\u0431\u043b\u0438\u043a\u0430\u0441\u044b","sort_rank":256,"kind_detail":"4","name:de":"Republik Altai","source":"openstreetmap.org","name:fr":"R\u00e9publique de l'Alta\u00ef","name:ca":"Rep\u00fablica de l'Altai","name:lv":"Altaja Republika","name:ja":"\u30a2\u30eb\u30bf\u30a4\u5171\u548c\u56fd","name:lt":"Altajaus Respublika","name:kk":"\u0410\u043b\u0442\u0430\u0439 \u0420\u0435\u0441\u043f\u0443\u0431\u043b\u0438\u043a\u0430\u0441\u044b","name:uk":"\u0420\u0435\u0441\u043f\u0443\u0431\u043b\u0456\u043a\u0430 \u0410\u043b\u0442\u0430\u0439","name:hy":"\u0531\u056c\u0569\u0561\u0575\u056b \u0540\u0561\u0576\u0580\u0561\u057a\u0565\u057f\u0578\u0582\u0569\u0575\u0578\u0582\u0576","name:ba":"\u0410\u043b\u0442\u0430\u0439 \u0420\u0435\u0441\u043f\u0443\u0431\u043b\u0438\u043a\u0430\u04bb\u044b","osm_relation":true,"name:el":"\u0394\u03b7\u03bc\u03bf\u03ba\u03c1\u03b1\u03c4\u03af\u03b1 \u03c4\u03c9\u03bd \u0391\u03bb\u03c4\u03ac\u03b9","kind":"region","name:en":"Altai Republic","name":"\u0420\u0435\u0441\u043f\u0443\u0431\u043b\u0438\u043a\u0430 \u0410\u043b\u0442\u0430\u0439","name:et":"Altai Vabariik","name:es":"Rep\u00fablica de Alt\u00e1i"},"arcs":[3]}]},"roads":{"type":"GeometryCollection","geometries":[{"type":"LineString","properties":{"kind":"major_road","network":"ru:national","sort_rank":381,"kind_detail":"trunk","source":"openstreetmap.org","min_zoom":8.0,"shield_text":"256","ref":"\u0420-256"},"arcs":[6]}]},"earth":{"type":"GeometryCollection","geometries":[{"type":"Polygon","properties":{"sort_rank":10,"source":"naturalearthdata.com","kind":"earth","min_zoom":0.0,"id":4760},"arcs":[[7]]}]},"landuse":{"type":"GeometryCollection","geometries":[{"type":"Polygon","properties":{"kind":"park","area":807537984,"sort_rank":24,"source":"openstreetmap.org","min_zoom":6.0,"tier":2,"id":-3087266,"osm_relation":true},"arcs":[[8]]},{"type":"MultiPolygon","properties":{"source":"openstreetmap.org","kind":"park","tier":2,"area":7619342014,"sort_rank":24,"min_zoom":4.0,"osm_relation":true},"arcs":[[[9]]]}]}},"type":"Topology","transform":{"translate":[88.59375,49.8379824531],"scale":[0.0003433228,0.0002193537]},"arcs":[[[4096,659],[-73,-51],[-268,-84],[-63,30],[-113,-35],[-339,-36],[-328,-144],[94,-32],[15,-27],[0,-64],[-47,-34],[-9,-66],[54,-83],[38,-9],[-7,-24]],[[2912,339],[94,-32],[15,-27],[0,-64],[-47,-34],[-9,-66],[54,-83],[38,-9],[-7,-24]],[[4096,659],[-73,-51],[-268,-84],[-63,30],[-113,-35],[-339,-36],[-328,-144]],[[2912,339],[62,122],[-29,42],[11,70],[47,33],[-76,62],[-17,141],[-73,20],[-69,-22],[-56,111],[33,66],[-6,55],[62,11],[20,35],[49,3],[38,34],[-22,18],[-6,86],[-49,-4],[-26,41],[-132,20],[-4,42],[65,88],[-36,200],[-123,46],[-108,8],[-108,-117],[-30,34],[-76,-16],[-171,119],[71,39],[-4,127],[36,90],[135,101],[9,84],[39,42],[-79,4],[5,110],[94,-8],[242,122],[-12,50],[26,49],[-59,65],[30,207],[56,21],[-23,45],[193,-129],[60,-16],[68,-245],[57,18],[66,-39],[27,70],[125,-4],[82,114],[149,48],[94,-39],[30,109],[54,30],[52,139],[-69,127],[19,121],[-121,31],[-51,79],[-47,-21],[-72,27],[-57,76],[-74,-1],[-50,35],[-64,-27],[-44,31],[-17,164],[-34,19],[40,70],[-17,47],[-43,21],[-123,-7],[-46,73],[10,59],[-65,58],[-45,148],[-105,75]],[[3190,3059],[138,-62],[102,-100],[-68,-63],[-86,8],[-148,55],[-33,141],[95,21]],[[3190,3059],[138,-62],[102,-100],[-68,-63],[-86,8],[-148,55],[-33,141],[95,21]],[[0,824],[50,-31],[114,32],[57,-52],[1,-85],[193,-198],[10,-58],[138,-182],[373,-250]],[[0,4096],[4096,0],[0,-4096],[-4096,0],[0,4096]],[[3709,1796],[248,264],[73,31],[66,-8],[0,-600],[-92,-42],[-81,86],[-44,208],[-170,61]],[[2630,4096],[105,-75],[45,-148],[65,-58],[-10,-59],[46,-73],[123,7],[43,-21],[17,-47],[-40,-70],[34,-19],[17,-164],[44,-31],[64,27],[50,-35],[74,1],[57,-76],[72,-27],[47,21],[51,-79],[129,-38],[-27,-114],[57,-80],[-7,-124],[-33,-62],[-54,-30],[-30,-109],[-94,39],[-149,-48],[-82,-114],[-125,4],[-27,-70],[-66,39],[-57,-18],[-68,245],[-60,16],[-193,129],[23,-45],[-56,-21],[-30,-207],[59,-65],[-26,-49],[12,-50],[-242,-122],[-94,8],[-5,-110],[79,-4],[-39,-42],[-9,-84],[-89,-72],[-174,-10],[-215,90],[-64,152],[30,118],[-56,165],[-6,153],[112,99],[-6,202],[-131,12],[-36,-130],[-59,60],[-165,-53],[6,-187],[-67,-143],[-120,133],[15,303],[-30,369],[-51,67],[53,39],[-4,48],[-56,106],[-57,44],[28,136],[-5,60],[-38,45],[-306,20],[-310,-130],[-55,238],[-220,31],[-30,87],[2416,0]]]}