{"objects":{"water":{"type":"GeometryCollection","geometries":[{"type":"MultiPolygon","properties":{"source":"naturalearthdata.com","kind":"lake","area":1209191750,"sort_rank":200,"alkaline":true,"min_zoom":0.0},"arcs":[[[3]],[[4]]]},{"type":"Polygon","properties":{"kind":"lake","name":"Lake Mackay","area":4214311936,"sort_rank":200,"alkaline":true,"source":"naturalearthdata.com","min_zoom":0.0,"id":1265},"arcs":[[5]]},{"type":"MultiPolygon","properties":{"source":"naturalearthdata.com","kind":"ocean","area":1576712559132672,"sort_rank":200,"min_zoom":0.0,"id":1},"arcs":[[[6]],[[7]]]},{"type":"Polygon","properties":{"kind":"lake","name":"Lake Amadeus","area":1297262336,"sort_rank":200,"alkaline":true,"source":"naturalearthdata.com","min_zoom":0.0,"id":1273},"arcs":[[8]]},{"type":"Polygon","properties":{"kind":"lake","name":"Lake Neale","area":555134784,"sort_rank":200,"alkaline":true,"source":"naturalearthdata.com","min_zoom":0.0,"id":1280},"arcs":[[9]]},{"type":"Polygon","properties":{"kind":"lake","name":"Lake Everard","area":1741076608,"sort_rank":200,"alkaline":true,"source":"naturalearthdata.com","min_zoom":0.0,"id":1277},"arcs":[[10]]},{"type":"Point","properties":{"label_placement":true,"kind":"lake","name":"Lake Mackay","area":4214311936,"sort_rank":200,"alkaline":true,"source":"naturalearthdata.com","min_zoom":0.0,"id":1265},"coordinates":[1836,3936]},{"type":"Point","properties":{"label_placement":true,"kind":"lake","name":"Lake Amadeus","area":1297262336,"sort_rank":200,"alkaline":true,"source":"naturalearthdata.com","min_zoom":0.0,"id":1273},"coordinates":[2593,2948]},{"type":"Point","properties":{"label_placement":true,"kind":"lake","name":"Lake Neale","area":555134784,"sort_rank":200,"alkaline":true,"source":"naturalearthdata.com","min_zoom":0.0,"id":1280},"coordinates":[2271,3122]},{"type":"MultiLineString","properties":{"source":"naturalearthdata.com","kind":"ocean","sort_rank":205,"boundary":true,"min_zoom":0.0,"id":62},"arcs":[[11],[12]]},{"type":"LineString","properties":{"source":"naturalearthdata.com","kind":"lake","sort_rank":367,"alkaline":true,"boundary":true,"min_zoom":0.0,"id":1265},"arcs":[13]},{"type":"LineString","properties":{"source":"naturalearthdata.com","kind":"lake","sort_rank":367,"alkaline":true,"boundary":true,"min_zoom":0.0,"id":1273},"arcs":[14]},{"type":"LineString","properties":{"source":"naturalearthdata.com","kind":"lake","sort_rank":367,"alkaline":true,"boundary":true,"min_zoom":0.0,"id":1277},"arcs":[15]},{"type":"LineString","properties":{"source":"naturalearthdata.com","kind":"lake","sort_rank":367,"alkaline":true,"boundary":true,"min_zoom":0.0,"id":1279},"arcs":[16]},{"type":"LineString","properties":{"source":"naturalearthdata.com","kind":"lake","sort_rank":367,"alkaline":true,"boundary":true,"min_zoom":0.0,"id":1280},"arcs":[17]},{"type":"LineString","properties":{"source":"naturalearthdata.com","kind":"lake","sort_rank":367,"alkaline":true,"boundary":true,"min_zoom":0.0,"id":1284},"arcs":[18]}]},"buildings":{"type":"GeometryCollection","geometries":[]},"places":{"type":"GeometryCollection","geometries":[{"type":"Point","properties":{"name:pt":"Austr\u00e1lia","old_name:vi":"\u00dac \u0110\u1ea1i L\u1ee3i","name:cy":"Awstralia","name:ko":"\uc624\uc2a4\ud2b8\ub808\uc77c\ub9ac\uc544","name:kn":"\u0c86\u0cb8\u0ccd\u0c9f\u0ccd\u0cb0\u0cc7\u0cb2\u0cbf\u0caf","name:km":"\u17a2\u17bc\u179f\u17d2\u178f\u17d2\u179a\u17b6\u179b\u17b8","name:cs":"Austr\u00e1lie","name:tr":"Avustralya","name:ku":"Awistralya","name:ti":"\u12a0\u12cd\u1235\u1275\u122c\u120a\u12eb","name:ks":"\u0622\u0633\u0679\u0631\u06cc\u0644\u0650\u06cc\u0627","name:to":"\u02bbAositel\u0113lia","name:sv":"Australien","name:or":"\u0b05\u0b37\u0b4d\u0b1f\u0b4d\u0b30\u0b47\u0b32\u0b3f\u0b06","name:ta":"\u0b86\u0bb8\u0bcd\u0ba4\u0bbf\u0bb0\u0bc7\u0bb2\u0bbf\u0baf\u0bbe","name:tg":"\u0410\u0432\u0441\u0442\u0440\u0430\u043b\u0438\u044f","name:ca":"Austr\u00e0lia","name:te":"\u0c06\u0c38\u0c4d\u0c1f\u0c4d\u0c30\u0c47\u0c32\u0c3f\u0c2f\u0c3e","name:vi":"\u00dac","name:hu":"Ausztr\u00e1lia","name:ka":"\u10d0\u10d5\u10e1\u10e2\u10e0\u10d0\u10da\u10d8\u10d0","name:hr":"Australija","name:da":"Australien","name:de":"Australien","name:dz":"\u0f68\u0f71\u0f7c\u0f66\u0f0b\u0f4a\u0fb2\u0f7a\u0f63\u0f0b\u0f63\u0f72\u0f0b\u0f61","source":"openstreetmap.org","name:iu":"\u140a\u1505\u1466\u154c\u14d5\u140a \/ astraalia","name:lv":"Austr\u0101lija","name:lt":"Australija","name:uz":"Avstraliya","name:kk":"\u0410\u0432\u0441\u0442\u0440\u0430\u043b\u0438\u044f","name:he":"\u05d0\u05d5\u05e1\u05d8\u05e8\u05dc\u05d9\u05d4","kind":"country","name:ur":"\u0622\u0633\u0679\u0631\u06cc\u0644\u06cc\u0627","name:lb":"Australien","name:lg":"Awusitureliya","name:uk":"\u0410\u0432\u0441\u0442\u0440\u0430\u043b\u0456\u044f","name:hy":"\u0531\u057e\u057d\u057f\u0580\u0561\u056c\u056b\u0561","min_zoom":2.0,"name:li":"Australi\u00eb","name:ln":"Osit\u00e1li","name:lo":"\u0ead\u0ead\u0e94\u0eaa\u0eb0\u0ec0\u0e95\u0ec0\u0ea5\u0e8d","population":20600856,"name:el":"\u0391\u03c5\u03c3\u03c4\u03c1\u03b1\u03bb\u03af\u03b1","name:eo":"A\u016dstralio","name":"Australia","name:ee":"Australia nutome","name:th":"\u0e1b\u0e23\u0e30\u0e40\u0e17\u0e28\u0e2d\u0e2d\u0e2a\u0e40\u0e15\u0e23\u0e40\u0e25\u0e35\u0e22","name:gu":"\u0a91\u0ab8\u0acd\u0a9f\u0acd\u0ab0\u0ac7\u0ab2\u0abf\u0aaf\u0abe","name:et":"Austraalia","name:nl":"Australi\u00eb","name:yo":"Or\u00edl\u1eb9\u0301\u00e8de \u00c1str\u00e0l\u00ec\u00e1","name:mt":"Awstralja","name:rn":"Ositaraliya","name:az":"Avstraliya","name:mr":"\u0911\u0938\u094d\u091f\u094d\u0930\u0947\u0932\u093f\u092f\u093e","name:ar":"\u0623\u0633\u062a\u0631\u0627\u0644\u064a\u0627","name:my":"\u1029\u1005\u1010\u103c\u1031\u1038\u101c\u103b\u103e\u102c\u1038","official_name":"Commonwealth of Australia","name:is":"\u00c1stral\u00eda","name:am":"\u12a0\u12cd\u1235\u1275\u122c\u120a\u12eb","name:ml":"\u0d13\u0d38\u0d4d\u0d1f\u0d4d\u0d30\u0d47\u0d32\u0d3f\u0d2f","name:ru":"\u0410\u0432\u0441\u0442\u0440\u0430\u043b\u0438\u044f","name:mn":"\u0410\u0432\u0441\u0442\u0440\u0430\u043b\u0438","name:mi":"Ahitereiria","id":424315584,"name:mk":"\u0410\u0432\u0441\u0442\u0440\u0430\u043b\u0438\u0458\u0430","name:af":"Australi\u00eb","name:zu":"i-Australia","name:ha":"Ostareliya","name:ff":"Ostaraalii","name:hi":"\u0911\u0938\u094d\u091f\u094d\u0930\u0947\u0932\u093f\u092f\u093e","name:mg":"Aostralia","name:fo":"Avstralia","name:fr":"Australie","name:fy":"Austraalje","name:vo":"Laustral\u00e4n","name:zh":"\u6fb3\u5927\u5229\u4e9a","name:so":"Awstaraaliya","name:sl":"Avstralija","name:sk":"Austr\u00e1lia","name:ja":"\u30aa\u30fc\u30b9\u30c8\u30e9\u30ea\u30a2","name:si":"\u0d95\u0dc3\u0dca\u0da7\u0dca\u200d\u0dbb\u0dda\u0dbd\u0dd2\u0dba\u0dcf\u0dc0","name:fa":"\u0627\u0633\u062a\u0631\u0627\u0644\u06cc\u0627","name:sg":"Ostral\u00efi, Sotral\u00efi","name:se":"Austr\u00e1lia","name:ne":"\u0905\u0937\u094d\u091f\u094d\u0930\u0947\u0932\u093f\u092f\u093e","name:br":"Aostralia","name:bs":"Australija","name:bm":"Ositirali","name:bn":"\u0985\u09b8\u09cd\u099f\u09cd\u09b0\u09c7\u09b2\u09bf\u09af\u09bc\u09be","name:bo":"\u0f68\u0f66\u0f9f\u0fb2\u0f7a\u0f0b\u0f63\u0f72\u0f0b\u0f61\u0f0d","name:be":"\u0410\u045e\u0441\u0442\u0440\u0430\u043b\u0456\u044f","name:bg":"\u0410\u0432\u0441\u0442\u0440\u0430\u043b\u0438\u044f","name:sr":"\u0410\u0443\u0441\u0442\u0440\u0430\u043b\u0438\u0458\u0430","name:sq":"Australi","name:ga":"An Astr\u00e1il","name:gd":"Astr\u00e0ilia","name:gv":"Yn Austrail","name:ak":"\u0186strelia"},"coordinates":[4007,2937]},{"type":"Point","properties":{"source":"naturalearthdata.com","kind":"locality","name":"Alice Springs","population":27710,"min_zoom":5.0,"id":7080},"coordinates":[3688,3377]}]},"transit":{"type":"GeometryCollection","geometries":[]},"pois":{"type":"GeometryCollection","geometries":[{"type":"Point","properties":{"kind":"national_park","protect_class":"2","area":2453190000,"source":"openstreetmap.org","min_zoom":5.16,"tier":1,"id":-5611722,"osm_relation":true,"name":"West MacDonnell National Park"},"coordinates":[3266,3434]},{"type":"Point","properties":{"kind":"nature_reserve","name":"Gibson Desert Nature Reserve","area":22701600000,"name:de":"Naturschutzgebiet Gibsonw\u00fcste","source":"openstreetmap.org","min_zoom":5.05,"tier":2,"id":353342897},"coordinates":[634,2835]}]},"boundaries":{"type":"GeometryCollection","geometries":[{"type":"LineString","properties":{"source":"naturalearthdata.com","kind":"region","sort_rank":256,"kind_detail":"4","min_zoom":2.0,"id":4995},"arcs":[0]},{"type":"LineString","properties":{"source":"naturalearthdata.com","kind":"region","sort_rank":256,"kind_detail":"4","min_zoom":2.0,"id":4996},"arcs":[1]},{"type":"LineString","properties":{"source":"naturalearthdata.com","kind":"region","sort_rank":256,"kind_detail":"4","min_zoom":2.0,"id":4998},"arcs":[2]}]},"roads":{"type":"GeometryCollection","geometries":[{"type":"LineString","properties":{"source":"naturalearthdata.com","kind":"highway","sort_rank":355,"kind_detail":"trunk","min_zoom":3.0,"id":45760},"arcs":[19]},{"type":"LineString","properties":{"source":"naturalearthdata.com","kind":"highway","kind_detail":"trunk","sort_rank":355,"landuse_kind":"national_park","min_zoom":3.0,"id":45888},"arcs":[20]},{"type":"LineString","properties":{"source":"naturalearthdata.com","kind":"highway","sort_rank":355,"kind_detail":"trunk","min_zoom":3.0,"id":45888},"arcs":[21]},{"type":"LineString","properties":{"source":"naturalearthdata.com","kind":"highway","kind_detail":"trunk","sort_rank":355,"landuse_kind":"national_park","min_zoom":3.0,"id":46150},"arcs":[22]},{"type":"LineString","properties":{"source":"naturalearthdata.com","kind":"highway","sort_rank":355,"kind_detail":"trunk","min_zoom":3.0,"id":46150},"arcs":[23]},{"type":"LineString","properties":{"source":"naturalearthdata.com","kind":"highway","sort_rank":355,"kind_detail":"trunk","min_zoom":4.0,"id":46169},"arcs":[24]},{"type":"LineString","properties":{"source":"naturalearthdata.com","kind":"highway","kind_detail":"trunk","sort_rank":355,"landuse_kind":"protected_area","min_zoom":3.0,"id":47182},"arcs":[25]},{"type":"LineString","properties":{"source":"naturalearthdata.com","kind":"highway","kind_detail":"trunk","sort_rank":355,"landuse_kind":"protected_area","min_zoom":3.0,"id":47182},"arcs":[26]},{"type":"MultiLineString","properties":{"source":"naturalearthdata.com","kind":"highway","sort_rank":355,"kind_detail":"trunk","min_zoom":3.0,"id":47182},"arcs":[[27],[28]]},{"type":"MultiLineString","properties":{"source":"naturalearthdata.com","kind":"highway","kind_detail":"trunk","sort_rank":355,"landuse_kind":"park","min_zoom":3.0,"id":47385},"arcs":[[29],[30],[31]]},{"type":"MultiLineString","properties":{"source":"naturalearthdata.com","kind":"highway","sort_rank":355,"kind_detail":"trunk","min_zoom":3.0,"id":47385},"arcs":[[32],[33],[34],[35]]}]},"earth":{"type":"GeometryCollection","geometries":[{"type":"MultiPolygon","properties":{"sort_rank":10,"source":"naturalearthdata.com","min_zoom":0.0,"kind":"earth","area":3226517869700},"arcs":[[[36]]]}]},"landuse":{"type":"GeometryCollection","geometries":[{"type":"Polygon","properties":{"kind":"park","name":"Pureba Conservation Park","area":3150259968,"sort_rank":24,"operator":"Department of Environment, Water and Natural Resources (South Australia)","source":"openstreetmap.org","min_zoom":4.0,"tier":2,"id":-540816,"osm_relation":true},"arcs":[[37]]},{"type":"Polygon","properties":{"kind":"park","name":"Nullarbor Regional Reserve","area":26268899328,"sort_rank":24,"operator":"Department of Environment, Water and Natural Resources (South Australia)","source":"openstreetmap.org","min_zoom":4.0,"tier":2,"id":-6196945,"osm_relation":true,"protect_class":"VI"},"arcs":[[38]]},{"type":"MultiPolygon","properties":{"kind":"park","name":"Lake Gairdner National Park","area":1592029952,"sort_rank":24,"operator":"Department of Environment, Water and Natural Resources (South Australia)","source":"openstreetmap.org","min_zoom":4.0,"tier":2,"id":-1204236,"osm_relation":true,"protect_class":"VI"},"arcs":[[[39]]]},{"type":"Polygon","properties":{"kind":"nature_reserve","name":"Gibson Desert Nature Reserve","area":22701600768,"sort_rank":23,"source":"openstreetmap.org","min_zoom":4.0,"tier":2,"id":353342897},"arcs":[[40]]},{"type":"Polygon","properties":{"kind":"park","name":"Yellabinna Regional Reserve","area":27509499904,"sort_rank":24,"operator":"Department of Environment, Water and Natural Resources (South Australia)","source":"openstreetmap.org","min_zoom":4.0,"tier":2,"id":-6195423,"osm_relation":true},"arcs":[[41]]},{"type":"Polygon","properties":{"kind":"park","name":"Nullarbor Wilderness Area","area":11633899520,"sort_rank":24,"operator":"Department of Environment, Water and Natural Resources (South Australia)","source":"openstreetmap.org","min_zoom":4.0,"tier":2,"id":-6196953,"osm_relation":true,"protect_class":"1b"},"arcs":[[42]]},{"type":"Polygon","properties":{"kind":"protected_area","name":"Maralinga Tjarutja","area":139804999680,"sort_rank":17,"operator":"Council of Maralinga Tjarutja","source":"openstreetmap.org","min_zoom":4.0,"tier":2,"id":-6799756,"osm_relation":true,"protect_class":"24"},"arcs":[[43],[44]]},{"type":"Polygon","properties":{"kind":"park","name":"Tallaringa Conservation Park","area":16610100224,"sort_rank":24,"operator":"Department of Environment, Water and Natural Resources (South Australia)","source":"openstreetmap.org","min_zoom":4.0,"tier":2,"id":-6195202,"osm_relation":true},"arcs":[[45]]},{"type":"Polygon","properties":{"kind":"park","name":"Yumbarra Conservation Park","area":4517250048,"sort_rank":24,"operator":"Department of Environment, Water and Natural Resources (South Australia)","source":"openstreetmap.org","min_zoom":4.0,"tier":2,"id":-6198702,"osm_relation":true},"arcs":[[46]]},{"type":"Polygon","properties":{"kind":"park","name":"Great Australian Bight Marine National Park","area":1269080064,"sort_rank":24,"operator":"Department of Environment, Water and Natural Resources (South Australia)","source":"openstreetmap.org","min_zoom":4.0,"tier":2,"id":-540817,"osm_relation":true,"protect_class":"II"},"arcs":[[47]]},{"type":"Polygon","properties":{"kind":"park","name":"Mamungari Conservation Park","area":27901999104,"sort_rank":24,"source":"openstreetmap.org","min_zoom":4.0,"tier":2,"id":-6386456,"osm_relation":true,"protect_class":"1"},"arcs":[[48]]},{"type":"Polygon","properties":{"kind":"national_park","name":"West MacDonnell National Park","area":2453189888,"sort_rank":18,"source":"openstreetmap.org","min_zoom":3.0,"tier":1,"id":-5611722,"osm_relation":true,"protect_class":"2"},"arcs":[[49],[50],[51]]},{"type":"Polygon","properties":{"kind":"protected_area","name":"Anangu Pitjantjatjara Yankunytjatjara","area":129429559042,"sort_rank":17,"source":"openstreetmap.org","min_zoom":4.0,"tier":2,"osm_relation":true,"protect_class":"24"},"arcs":[[52]]},{"type":"Polygon","properties":{"kind":"park","name":"Yellabinna WIlderness Protection Area","area":6877550080,"sort_rank":24,"operator":"Department of Environment, Water and Natural Resources (South Australia)","source":"openstreetmap.org","min_zoom":4.0,"tier":2,"id":-6195453,"osm_relation":true,"protect_class":"Ib"},"arcs":[[53]]}]}},"type":"Topology","transform":{"translate":[123.75,-31.952162238],"scale":[0.002746582,0.002443632]},"arcs":[[[1912,2436],[0,142],[0,142],[0,143],[0,142],[0,142],[0,143],[0,142],[0,142],[0,143],[0,142],[0,142],[0,95]],[[4096,2436],[-34,0],[-102,0],[-103,0],[-102,0],[-103,0],[-102,0],[-102,0],[-103,0],[-16,0],[-86,0],[-103,0],[-102,0],[-102,0],[-103,0],[-102,0],[-103,0],[-102,0],[-102,0],[-103,0],[-102,0],[-103,0],[-102,0],[-102,0]],[[1912,108],[0,144],[0,145],[0,146],[0,146],[0,145],[0,146],[0,145],[0,146],[0,146],[0,145],[0,146],[0,145],[0,146],[0,146],[0,145],[0,146]],[[2612,1065],[9,8],[10,3],[12,-1],[10,-4],[6,-3],[4,-4],[5,-4],[4,-5],[1,-4],[1,-3],[0,-7],[1,-8],[3,-7],[2,-9],[-2,-7],[-10,-12],[-2,-5],[-4,-11],[-3,-5],[-3,2],[-8,7],[-4,2],[-10,2],[-7,5],[-9,14],[-6,5],[-2,0],[-5,0],[-2,1],[-1,1],[-1,3],[-2,1],[-3,0],[-9,-1],[-3,1],[-1,5],[5,5],[11,8],[4,6],[5,14],[4,7]],[[1920,3509],[13,-12],[-2,-11],[-7,-12],[-3,-15],[3,-6],[9,-11],[1,-7],[-21,-3],[-64,27],[-17,3],[-5,3],[-12,10],[-6,3],[-8,2],[-3,-1],[-6,-3],[-3,0],[-3,1],[-2,2],[-1,2],[-2,2],[-15,5],[-5,3],[6,6],[11,3],[134,11],[8,-2]],[[1820,3797],[-28,6],[-17,7],[-62,8],[-29,7],[-22,13],[5,9],[1,9],[-1,9],[-6,20],[-1,11],[3,9],[10,6],[7,-2],[2,-18],[7,-7],[10,-1],[8,5],[6,9],[3,9],[0,5],[-2,8],[1,5],[4,7],[9,8],[10,5],[15,-5],[9,1],[41,13],[67,59],[16,23],[3,23],[36,14],[10,8],[10,-7],[5,-3],[7,-1],[15,-1],[8,-1],[7,-3],[6,-11],[-9,-7],[-29,-8],[0,-15],[-3,-6],[-5,-6],[-18,-14],[-4,-5],[-2,-6],[1,-4],[4,-5],[4,-6],[2,-10],[1,-9],[3,-8],[6,-6],[9,-3],[20,0],[9,-2],[9,-5],[5,-4],[3,-3],[2,-7],[-1,-2],[-3,-1],[-5,-2],[-9,-8],[-1,-2],[1,-3],[-1,-2],[-2,-2],[-4,1],[-10,9],[-4,2],[-9,-1],[-5,-7],[-2,-10],[0,-10],[5,-17],[-2,-7],[-9,-6],[-10,-2],[-19,-2],[-10,-4],[-8,-6],[-7,-6],[-5,-8],[-4,-9],[-3,-10],[-2,-6],[-5,-1],[-47,5]],[[3049,0],[-1361,0],[98,44],[25,17],[11,4],[6,6],[59,29],[21,7],[4,1],[33,4],[12,0],[5,0],[22,9],[8,1],[24,-1],[8,1],[21,4],[31,0],[7,1],[24,8],[79,3],[69,10],[49,-2],[21,8],[8,1],[40,0],[16,-5],[86,0],[54,-8],[34,-1],[16,2],[58,20],[36,25],[16,7],[15,-1],[61,-22],[70,-30],[90,-50],[51,-40],[56,-34],[11,-10],[6,-8]],[[3288,0],[-109,0],[5,2],[8,2],[17,3],[9,0],[26,-6],[16,-1],[18,1],[8,0],[2,-1]],[[2731,2880],[52,-7],[12,-8],[2,-10],[-11,-2],[-80,8],[-7,1],[-6,5],[-9,8],[-10,6],[-6,-2],[-6,-7],[-9,-7],[-9,11],[-16,23],[-11,10],[-55,33],[-45,36],[-9,5],[-41,13],[-40,23],[-11,8],[-5,9],[5,9],[10,-1],[32,-17],[13,-5],[14,-3],[16,-1],[18,-4],[32,-18],[17,-7],[12,0],[23,2],[12,0],[0,-7],[-5,-9],[-1,-6],[4,-7],[9,-8],[53,-35],[-4,-8],[4,-5],[15,-5],[41,-21]],[[2298,3115],[5,-4],[7,-1],[6,-1],[6,-1],[8,-4],[32,-25],[4,-8],[-2,-5],[-12,0],[-25,11],[-9,2],[-21,1],[-7,4],[-17,22],[-10,10],[-11,7],[-14,6],[-38,12],[-11,7],[3,9],[0,17],[2,5],[33,0],[6,-4],[8,-14],[6,-6],[42,-8],[8,-3],[-2,-4],[-3,-4],[-4,-4],[-1,-2],[0,-6],[3,-4],[8,-5]],[[4096,140],[-3,-9],[-7,-10],[-10,-6],[-11,2],[-5,6],[-9,26],[-3,3],[-3,1],[-2,2],[2,7],[12,23],[2,12],[-11,10],[-8,0],[-16,-8],[-9,0],[3,7],[11,21],[0,4],[-1,3],[0,2],[4,1],[3,0],[36,-20],[10,-3],[7,2],[6,6],[2,2],[0,-84]],[[3288,0],[-2,1],[-8,0],[-18,-1],[-16,1],[-26,6],[-9,0],[-17,-3],[-8,-2],[-5,-2]],[[3049,0],[-6,8],[-11,10],[-56,34],[-51,40],[-90,50],[-70,30],[-61,22],[-15,1],[-16,-7],[-36,-25],[-58,-20],[-16,-2],[-34,1],[-54,8],[-86,0],[-16,5],[-40,0],[-8,-1],[-21,-8],[-49,2],[-69,-10],[-79,-3],[-24,-8],[-7,-1],[-31,0],[-21,-4],[-8,-1],[-24,1],[-8,-1],[-22,-9],[-5,0],[-12,0],[-33,-4],[-4,-1],[-21,-7],[-59,-29],[-6,-6],[-11,-4],[-25,-17],[-98,-44]],[[1820,3797],[-28,6],[-17,7],[-62,8],[-29,7],[-22,13],[5,9],[1,9],[-1,9],[-6,20],[-1,11],[3,9],[10,6],[7,-2],[2,-18],[7,-7],[10,-1],[8,5],[6,9],[3,9],[0,5],[-2,8],[1,5],[4,7],[9,8],[10,5],[15,-5],[9,1],[41,13],[67,59],[16,23],[3,23],[36,14],[10,8],[10,-7],[5,-3],[7,-1],[15,-1],[8,-1],[7,-3],[6,-11],[-9,-7],[-29,-8],[0,-15],[-3,-6],[-5,-6],[-18,-14],[-4,-5],[-2,-6],[1,-4],[4,-5],[4,-6],[2,-10],[1,-9],[3,-8],[6,-6],[9,-3],[20,0],[9,-2],[9,-5],[5,-4],[3,-3],[2,-7],[-1,-2],[-3,-1],[-5,-2],[-9,-8],[-1,-2],[1,-3],[-1,-2],[-2,-2],[-4,1],[-10,9],[-4,2],[-9,-1],[-5,-7],[-2,-10],[0,-10],[5,-17],[-2,-7],[-9,-6],[-10,-2],[-19,-2],[-10,-4],[-8,-6],[-7,-6],[-5,-8],[-4,-9],[-3,-10],[-2,-6],[-5,-1],[-47,5]],[[2731,2880],[52,-7],[12,-8],[2,-10],[-11,-2],[-80,8],[-7,1],[-6,5],[-9,8],[-10,6],[-6,-2],[-6,-7],[-9,-7],[-9,11],[-16,23],[-11,10],[-55,33],[-45,36],[-9,5],[-41,13],[-40,23],[-11,8],[-5,9],[5,9],[10,-1],[32,-17],[13,-5],[14,-3],[16,-1],[18,-4],[32,-18],[17,-7],[12,0],[23,2],[12,0],[0,-7],[-5,-9],[-1,-6],[4,-7],[9,-8],[53,-35],[-4,-8],[4,-5],[15,-5],[41,-21]],[[4096,140],[-3,-9],[-7,-10],[-10,-6],[-11,2],[-5,6],[-9,26],[-3,3],[-3,1],[-2,2],[2,7],[12,23],[2,12],[-11,10],[-8,0],[-16,-8],[-9,0],[3,7],[11,21],[0,4],[-1,3],[0,2],[4,1],[3,0],[36,-20],[10,-3],[7,2],[6,6],[2,2]],[[1920,3509],[13,-12],[-2,-11],[-7,-12],[-3,-15],[3,-6],[9,-11],[1,-7],[-21,-3],[-64,27],[-17,3],[-5,3],[-12,10],[-6,3],[-8,2],[-3,-1],[-6,-3],[-3,0],[-3,1],[-2,2],[-1,2],[-2,2],[-15,5],[-5,3],[6,6],[11,3],[134,11],[8,-2]],[[2298,3115],[5,-4],[7,-1],[6,-1],[6,-1],[8,-4],[32,-25],[4,-8],[-2,-5],[-12,0],[-25,11],[-9,2],[-21,1],[-7,4],[-17,22],[-10,10],[-11,7],[-14,6],[-38,12],[-11,7],[3,9],[0,17],[2,5],[33,0],[6,-4],[8,-14],[6,-6],[42,-8],[8,-3],[-2,-4],[-3,-4],[-4,-4],[-1,-2],[0,-6],[3,-4],[8,-5]],[[2612,1065],[9,8],[10,3],[12,-1],[10,-4],[6,-3],[4,-4],[5,-4],[4,-5],[1,-4],[1,-3],[0,-7],[1,-8],[3,-7],[2,-9],[-2,-7],[-10,-12],[-2,-5],[-4,-11],[-3,-5],[-3,2],[-8,7],[-4,2],[-10,2],[-7,5],[-9,14],[-6,5],[-2,0],[-5,0],[-2,1],[-1,1],[-1,3],[-2,1],[-3,0],[-9,-1],[-3,1],[-1,5],[5,5],[11,8],[4,6],[5,14],[4,7]],[[3534,4096],[-12,-19],[-4,-12],[-9,-15],[-5,-12],[-1,-20],[1,-17],[-1,-18],[-6,-21],[-9,-21],[-9,-24],[-12,-36],[-3,-25],[1,-17],[3,-10],[8,-25],[4,-15],[5,-9],[9,-25],[18,-29],[9,-10],[12,-8],[9,-5],[21,-21],[30,-33],[6,-9],[10,-10],[3,-8]],[[3664,3408],[1,-16]],[[3612,3622],[5,-9],[6,-10],[10,-41],[3,-15],[3,-10],[5,-29],[12,-49],[4,-25],[3,-20],[1,-6]],[[3665,3392],[0,-12],[1,-8]],[[3666,3372],[2,-9],[-2,-8],[-4,-7],[-12,-8],[-8,-10],[-22,-34],[-8,-9],[-9,-11],[-7,-11],[-15,-13],[-12,-9],[-9,-10],[-9,-6],[-9,-11],[-5,-10],[-7,-20],[-6,-13],[-9,-14],[1,-5],[5,-7],[1,-8],[-6,-9],[-9,-8],[-48,-47],[-9,-9],[-7,-20],[-6,-10],[-12,-14],[-3,-8],[0,-10],[-8,-26],[-1,-15],[0,-10],[1,-18],[3,-31],[0,-44],[-1,-22],[-2,-62]],[[3414,2776],[-15,-2],[-6,-1],[-37,-11],[-20,4],[-12,-5],[-10,-5],[-14,-4],[-9,4],[-24,13],[-12,7],[-18,8],[-24,7],[-9,0],[-20,-2],[-15,2],[-18,-2],[-13,7],[-11,7],[-12,2],[-9,1],[-25,0],[-17,2],[-31,5],[-9,-2],[-14,-6],[-9,-5],[-12,-7],[-7,-9],[-11,-27],[-4,-11],[-8,-9],[-12,-8],[-15,-7],[-10,-2],[-18,2],[-12,3],[-12,5],[-12,4],[-18,3],[-46,12],[-24,5],[-27,5],[-43,12],[-20,7],[-25,6],[-6,2],[-21,3],[-8,0],[-13,-1],[-17,-5],[-10,-10],[-3,-11],[1,-13]],[[3492,2142],[3,-7],[3,-7],[3,-10]],[[3501,2118],[6,-21],[2,-10],[9,-37],[12,-23],[4,-9],[17,-37],[7,-13]],[[3414,2776],[2,-10],[4,-20],[2,-12],[-2,-32],[3,-14],[5,-15],[1,-14],[0,-21],[-3,-24],[2,-10],[7,-22],[5,-19],[1,-8],[14,-15],[3,-9],[-3,-7],[-6,-8],[-11,-17],[-4,-10],[-2,-8],[-7,-14],[-6,-13],[1,-7],[9,-19],[5,-3],[3,-9],[1,-11],[2,-11],[-2,-10],[-4,-15],[1,-17],[2,-8],[6,-24],[1,-28],[5,-31],[10,-34],[8,-27],[16,-37],[3,-7],[6,-14]],[[3558,1968],[0,-1],[21,-27],[5,-6],[21,-26],[1,-8],[11,-19],[9,-13],[12,-10],[36,-44],[6,-9],[12,-13],[31,-37],[6,-9],[15,-27],[4,-10],[9,-32],[10,-52],[6,-25],[6,-39],[2,-12],[7,-32],[6,-22],[6,-32],[5,-19],[7,-13],[9,-14],[9,-10],[8,-8],[31,-34],[6,-9],[9,-8],[6,-8],[9,-9],[14,-17],[10,-8],[5,-7],[18,-18],[16,-21],[15,-18],[9,-10],[12,-16],[15,-15],[8,-5],[9,-8],[15,-12],[9,-12],[7,-12],[5,-5],[15,-29],[7,-20],[8,-20]],[[1912,134],[9,4],[12,3],[22,-5],[19,-3],[42,3],[45,4],[12,1],[44,5],[19,2],[32,2],[72,9]],[[2241,159],[3,1],[36,1],[12,0],[24,2],[21,2],[21,-2],[18,-3],[9,0]],[[2407,161],[22,2],[29,4],[25,0],[24,1],[6,1]],[[1081,0],[22,6],[24,10],[24,4],[18,0],[42,-5],[72,0],[18,-2],[18,-2],[21,0],[21,2],[26,3],[36,7],[21,5],[36,7],[23,2],[27,5],[33,5],[28,5],[23,1],[19,2],[24,0],[18,2],[36,12],[51,15],[39,10],[41,7],[15,5],[33,18],[22,10]],[[2240,159],[1,0]],[[2385,160],[14,0],[8,1]],[[2513,169],[18,4],[32,17],[25,9],[39,8],[11,3],[21,11],[13,5],[12,3],[21,7],[33,7],[14,1],[19,0],[20,-1],[21,-4],[15,-7],[18,-8],[17,-5],[16,-7],[54,-30],[14,-7],[15,-7],[15,-8],[31,-10],[17,-12],[12,-15],[6,-7],[7,-12],[35,-39],[12,-12],[9,-5],[10,-1],[27,3],[21,3],[33,0],[44,-3],[42,2],[10,-2],[13,-3],[21,-12],[30,-20],[7,-5],[12,-2],[20,0],[25,-2],[26,-3],[13,-2],[15,0],[27,5],[14,0],[6,-5],[4,-1]],[[4096,842],[0,-842],[-808,0],[-2,1],[-8,0],[-18,-1],[-16,1],[-26,6],[-9,0],[-17,-3],[-8,-2],[-5,-2],[-130,0],[-6,8],[-11,10],[-56,34],[-51,40],[-90,50],[-70,30],[-61,22],[-15,1],[-16,-7],[-36,-25],[-58,-20],[-16,-2],[-34,1],[-54,8],[-86,0],[-16,5],[-40,0],[-8,-1],[-21,-8],[-49,2],[-69,-10],[-79,-3],[-24,-8],[-7,-1],[-31,0],[-21,-4],[-8,-1],[-24,1],[-8,-1],[-22,-9],[-5,0],[-12,0],[-33,-4],[-4,-1],[-21,-7],[-59,-29],[-6,-6],[-11,-4],[-25,-17],[-98,-44],[-1688,0],[0,4096],[239,0],[3857,0],[0,-3254]],[[3681,0],[9,29],[267,6],[25,-35],[-240,0],[-14,8],[-26,-8],[-21,0]],[[1912,485],[1035,126],[50,-33],[37,-88],[2,-213],[-435,-4],[5,128],[-342,0],[-11,-144],[-341,1],[0,227]],[[3990,172],[41,44],[-4,25],[44,-33],[25,14],[0,-95],[-20,-13],[-40,48],[25,50],[-42,-15],[-6,-43],[-23,18]],[[328,2681],[1,408],[611,-4],[1,-55],[-67,0],[0,-41],[66,0],[1,-314],[-613,6]],[[2947,611],[231,-13],[134,-36],[149,15],[138,-16],[-36,-82],[-92,-34],[0,-157],[176,-7],[0,-48],[207,0],[0,157],[-103,0],[0,48],[-37,0],[0,-55],[-60,0],[0,62],[30,0],[0,20],[234,-19],[40,-26],[22,-75],[0,-70],[-48,-127],[41,-85],[-16,-28],[-181,-1],[0,131],[-472,1],[0,112],[-125,0],[0,-106],[-137,0],[-8,318],[-37,88],[-50,33]],[[1912,242],[342,4],[10,155],[342,0],[12,-167],[-113,-69],[-262,-11],[-7,17],[5,-17],[-66,-14],[-215,-20],[-48,8],[0,114]],[[1912,1570],[1454,-1],[5,-801],[37,-64],[-37,-20],[-1,-118],[-207,36],[-339,0],[11,14],[21,41],[-1,9],[-32,-64],[-395,-53],[-10,29],[2,-30],[-320,-39],[-3,5],[-14,9],[-9,14],[-25,27],[-35,19],[-44,12],[-17,116],[-30,0],[-3,21],[0,-23],[30,0],[18,-116],[80,-31],[35,-39],[15,-12],[-186,-24],[0,1083]],[[2803,715],[19,0],[-1,163],[-18,0],[0,-163]],[[3366,1569],[306,18],[-1,-593],[-304,29],[-1,546]],[[3366,166],[410,-1],[0,-136],[-273,20],[-58,33],[-79,-1],[0,85]],[[1912,108],[419,45],[216,-12],[0,-20],[-214,12],[-421,-46],[0,21]],[[1912,1570],[728,0],[0,-259],[-545,0],[-1,-580],[-182,1],[0,838]],[[3107,3373],[0,24],[79,-5],[0,37],[-42,18],[0,68],[34,-17],[-19,-27],[37,-24],[116,8],[121,-59],[105,-11],[41,33],[109,-13],[-25,-38],[-84,0],[0,23],[-146,-22],[-76,31],[5,-46],[-85,23],[-170,-3]],[[3248,3391],[4,-12],[7,-1],[4,10],[-15,3]],[[3206,3406],[21,-13],[1,27],[-14,-5],[-8,-9]],[[1912,2436],[1497,0],[-24,-259],[19,-35],[97,0],[0,-2],[1,2],[137,0],[-37,-172],[-55,-2],[-43,59],[-1,7],[0,-6],[44,-62],[-17,-169],[84,0],[0,-115],[-115,0],[-1,-112],[-1586,0],[0,866]],[[3471,445],[92,34],[36,82],[28,-4],[1,-92],[56,0],[0,-20],[-30,0],[0,-62],[60,0],[0,55],[37,0],[0,-48],[103,0],[0,-157],[-207,0],[0,48],[-176,7],[0,157]]]}