{"objects":{"water":{"type":"GeometryCollection","geometries":[{"type":"MultiPolygon","properties":{"source":"naturalearthdata.com","kind":"ocean","area":1576712559132672,"sort_rank":200,"min_zoom":0.0,"id":1},"arcs":[[[2],[3],[4],[5]],[[6]],[[7]]]},{"type":"LineString","properties":{"source":"naturalearthdata.com","kind":"ocean","sort_rank":205,"boundary":true,"min_zoom":0.0,"id":273},"arcs":[8]},{"type":"MultiLineString","properties":{"source":"naturalearthdata.com","kind":"ocean","sort_rank":205,"boundary":true,"min_zoom":0.0,"id":274},"arcs":[[9],[10],[11],[12]]},{"type":"LineString","properties":{"source":"naturalearthdata.com","kind":"ocean","sort_rank":205,"boundary":true,"min_zoom":0.0,"id":275},"arcs":[13]},{"type":"MultiLineString","properties":{"source":"naturalearthdata.com","kind":"ocean","sort_rank":205,"boundary":true,"min_zoom":0.0,"id":276},"arcs":[[14],[15]]},{"type":"LineString","properties":{"source":"naturalearthdata.com","kind":"ocean","sort_rank":205,"boundary":true,"min_zoom":0.0,"id":286},"arcs":[16]}]},"buildings":{"type":"GeometryCollection","geometries":[]},"places":{"type":"GeometryCollection","geometries":[{"type":"Point","properties":{"kind":"region","name:sk":"Galap\u00e1gy","name":"Gal\u00e1pagos","kind_detail":"state","name:cs":"Galap\u00e1gy","min_zoom":4.0,"source":"openstreetmap.org","name:ku":"Girav\u00ean Galapagos\u00ea","name:ru":"\u0413\u0430\u043b\u0430\u043f\u0430\u0433\u043e\u0441\u0441\u043a\u0438\u0435 \u043e\u0441\u0442\u0440\u043e\u0432\u0430","id":249420307},"coordinates":[2133,3919]},{"type":"Point","properties":{"source":"naturalearthdata.com","kind":"locality","name":"Santa Cruz","population":11262,"min_zoom":5.0,"id":6490},"coordinates":[3077,2542]}]},"transit":{"type":"GeometryCollection","geometries":[]},"pois":{"type":"GeometryCollection","geometries":[]},"boundaries":{"type":"GeometryCollection","geometries":[{"type":"LineString","properties":{"name:pt":"Equador","name:ps":"\u0627\u06d0\u06a9\u0648\u0627\u062f\u0648\u0631","name:ka":"\u10d4\u10d9\u10d5\u10d0\u10d3\u10dd\u10e0\u10d8","name:ko":"\uc5d0\ucf70\ub3c4\ub974","name:kn":"\u0c8e\u0c95\u0ccd\u0cb5\u0ca1\u0cbe\u0cb0\u0ccd","name:cs":"Ekv\u00e1dor","name:tt":"\u042d\u043a\u0432\u0430\u0434\u043e\u0440","name:kw":"Pow Ekwadorel","name:ku":"Ekuador","name:pa":"\u0a0f\u0a15\u0a41\u0a06\u0a26\u0a4b\u0a30","name:os":"\u042d\u043a\u0432\u0430\u0434\u043e\u0440","name:or":"\u0b0f\u0b15\u0b4d\u0b35\u0b3e\u0b21\u0b4b\u0b30","name:ce":"\u042d\u043a\u0432\u0430\u0434\u043e\u0440","name:ta":"\u0b8e\u0b95\u0bcd\u0b95\u0bc1\u0bb5\u0b9f\u0bcb\u0bb0\u0bcd","name:tg":"\u042d\u043a\u0443\u0430\u0434\u043e\u0440","name:ca":"Equador","name:te":"\u0c08\u0c15\u0c4d\u0c35\u0c21\u0c3e\u0c30\u0c4d","source":"openstreetmap.org","sort_rank":262,"name:qu":"Ikwadur","name:ba":"\u042d\u043a\u0432\u0430\u0434\u043e\u0440","name:tr":"Ekvador","name:nv":"K\u00e9yah Nahasdz\u00e1\u00e1n A\u0142n\u00edi\u02bcgi Si\u02bc\u00e1n\u00edg\u00ed\u00ed","name:cv":"\u042d\u043a\u0432\u0430\u0434\u043e\u0440","name:dv":"\u0787\u07a8\u0786\u07aa\u0787\u07ac\u0791\u07af\u0783\u07aa","name:lv":"Ekvadora","name:lt":"Ekvadoras","name:uz":"Ekvador","name:kk":"\u042d\u043a\u0432\u0430\u0434\u043e\u0440","name:he":"\u05d0\u05e7\u05d5\u05d5\u05d3\u05d5\u05e8","name:eo":"Ekvadoro","name:ur":"\u0627\u06cc\u06a9\u0648\u0627\u0688\u0648\u0631","name:la":"Aequatoria","name:uk":"\u0415\u043a\u0432\u0430\u0434\u043e\u0440","name:hy":"\u0537\u056f\u057e\u0561\u0564\u0578\u0580","name:ug":"\u0626\u06d0\u0643\u06cb\u0627\u062f\u0648\u0631","name:ln":"Republ\u00edki ya Ekwat\u00e9li","name:oc":"Eq\u00fcator","name:el":"\u0399\u03c3\u03b7\u03bc\u03b5\u03c1\u03b9\u03bd\u03cc\u03c2 (\u03c7\u03ce\u03c1\u03b1)","kind":"country","name":"Ecuador","min_zoom":8.0,"name:th":"\u0e1b\u0e23\u0e30\u0e40\u0e17\u0e28\u0e40\u0e2d\u0e01\u0e27\u0e32\u0e14\u0e2d\u0e23\u0e4c","name:eu":"Ekuador","name:jv":"Ekuador","name:yo":"\u1eb8\u0300k\u00f9\u00e0d\u1ecd\u0300r","name:ay":"Ikwadur","name:mt":"Ekwador","name:az":"Ekvador","name:id":"Ekuador","name:mr":"\u0907\u0915\u094d\u0935\u0947\u0921\u094b\u0930","name:ar":"\u0627\u0644\u0625\u0643\u0648\u0627\u062f\u0648\u0631","name:my":"\u1021\u102e\u1000\u103d\u1031\u1012\u1031\u102b\u1014\u102d\u102f\u1004\u103a\u1004\u1036","name:io":"Equador","name:is":"Ekvador","name:am":"\u12a4\u12b3\u12f6\u122d","name:ru":"\u042d\u043a\u0432\u0430\u0434\u043e\u0440","id":-108089,"name:ml":"\u0d07\u0d15\u0d4d\u0d35\u0d21\u0d4b\u0d7c","name:rw":"Ekwadoro","name:mi":"Ekuatoa","name:pl":"Ekwador","name:mk":"\u0415\u043a\u0432\u0430\u0434\u043e\u0440","name:vo":"Lekvador\u00e4n","name:fa":"\u0627\u06a9\u0648\u0627\u062f\u0648\u0631","name:mn":"\u042d\u043a\u0432\u0430\u0434\u043e\u0440","kind_detail":"2","name:hi":"\u0908\u0915\u094d\u0935\u093e\u0921\u094b\u0930","name:fo":"Ekvador","name:fr":"\u00c9quateur","name:zh-yue":"\u5384\u74dc\u591a\u723e","name:fy":"Ekwador","name:zh":"\u5384\u74dc\u591a\u5c14","name:hr":"Ekvador","name:so":"Ikwadoor","name:sl":"Ekvador","name:nl":"Equador","name:ja":"\u30a8\u30af\u30a2\u30c9\u30eb","name:sh":"Ekvador","name:na":"Ekwador","name:ne":"\u0907\u0915\u094d\u0935\u0947\u0921\u0930","name:sa":"\u090f\u0915\u094d\u0935\u093e\u0921\u094b\u0930","name:bs":"Ekvador","name:yi":"\u05e2\u05e7\u05d5\u05d5\u05d0\u05d3\u05d0\u05e8","name:bn":"\u0987\u0995\u09c1\u09af\u09bc\u09c7\u09a1\u09b0","name:bo":"\u0f68\u0f7a\u0f0b\u0f41\u0f7c\u0f60\u0f7c\u0f0b\u0f4c\u0f7c\u0f62\u0f0d","name:sk":"Ekv\u00e1dor","name:sw":"Ekuador","name:be":"\u042d\u043a\u0432\u0430\u0434\u043e\u0440","name:su":"\u00c9kuador","name:bg":"\u0415\u043a\u0432\u0430\u0434\u043e\u0440","name:wo":"Ekwadoor","name:sr":"\u0415\u043a\u0432\u0430\u0434\u043e\u0440","osm_relation":true,"name:sq":"Ekuadori","name:ga":"Eacuad\u00f3r","name:gd":"Eacuador","name:ht":"Ekwat\u00e8","name:gn":"Ekuator","maritime_boundary":true,"name:gu":"\u0a88\u0a95\u0acd\u0ab5\u0ac7\u0aa1\u0acb\u0ab0"},"arcs":[0]},{"type":"LineString","properties":{"kind":"region","name:en":"Gal\u00e1pagos Province","name":"Provincia de Gal\u00e1pagos","name:lt":"Galapagai","name:ko":"\uac08\ub77c\ud30c\uace0\uc2a4 \uc81c\ub3c4","kind_detail":"4","min_zoom":8.0,"source":"openstreetmap.org","maritime_boundary":true,"osm_relation":true,"name:ru":"\u0413\u0430\u043b\u0430\u043f\u0430\u0433\u043e\u0441","id":-1628150,"name:es":"Gal\u00e1pagos","sort_rank":256},"arcs":[1]}]},"roads":{"type":"GeometryCollection","geometries":[{"type":"LineString","properties":{"kind":"major_road","network":"EC:national","sort_rank":380,"kind_detail":"primary","source":"openstreetmap.org","min_zoom":8.0,"landuse_kind":"park","shield_text":"5","ref":"E5"},"arcs":[17]},{"type":"MultiLineString","properties":{"kind":"major_road","sort_rank":380,"kind_detail":"primary","is_bicycle_related":true,"cycleway":"lane","source":"openstreetmap.org","min_zoom":8.0,"landuse_kind":"park"},"arcs":[[18],[19]]},{"type":"LineString","properties":{"kind":"major_road","network":"EC:national","sort_rank":380,"kind_detail":"primary","source":"openstreetmap.org","min_zoom":8.0,"landuse_kind":"nature_reserve","shield_text":"5","ref":"E5","id":164513634},"arcs":[20]},{"type":"LineString","properties":{"kind":"major_road","network":"EC:national","sort_rank":380,"kind_detail":"primary","is_bicycle_related":true,"cycleway":"lane","source":"openstreetmap.org","min_zoom":8.0,"landuse_kind":"park","shield_text":"5","id":239282023},"arcs":[21]},{"type":"LineString","properties":{"source":"openstreetmap.org","kind":"major_road","landuse_kind":"park","sort_rank":380,"kind_detail":"primary","min_zoom":8.0},"arcs":[22]}]},"earth":{"type":"GeometryCollection","geometries":[{"type":"MultiPolygon","properties":{"sort_rank":10,"source":"naturalearthdata.com","min_zoom":0.0,"kind":"earth","area":6579826039},"arcs":[[[23]],[[24]],[[25]],[[26]],[[27]]]},{"type":"Point","properties":{"label_placement":true,"kind":"island","name":"Isla Isabela","area":4732109824,"source":"openstreetmap.org","min_zoom":7.0,"name:uk":"\u0406\u0441\u0430\u0431\u0435\u043b\u0430","name:ru":"\u0418\u0441\u0430\u0431\u0435\u043b\u0430","id":-2129921,"osm_relation":true},"coordinates":[924,2798]},{"type":"Point","properties":{"label_placement":true,"kind":"island","name":"Isla Santiago","name:lt":"Santjago sala","area":579179008,"name:de":"San Salvador","source":"openstreetmap.org","min_zoom":8.0,"id":-2129890,"osm_relation":true},"coordinates":[1992,3336]},{"type":"Point","properties":{"label_placement":true,"kind":"island","name":"Isla Santa Cruz","name:lt":"Santa Kruso sala","area":990579008,"name:de":"Santa Cruz","source":"openstreetmap.org","min_zoom":8.0,"id":-2129845,"osm_relation":true},"coordinates":[3035,2264]}]},"landuse":{"type":"GeometryCollection","geometries":[{"type":"MultiPolygon","properties":{"source":"openstreetmap.org","kind":"park","tier":2,"area":69633885,"sort_rank":24,"min_zoom":8.0,"osm_relation":true},"arcs":[[[28]],[[29]],[[30]]]},{"type":"Polygon","properties":{"kind":"park","area":4732109824,"sort_rank":24,"source":"openstreetmap.org","min_zoom":4.0,"tier":2,"id":-447664,"osm_relation":true},"arcs":[[31]]},{"type":"Polygon","properties":{"source":"openstreetmap.org","kind":"nature_reserve","area":147727007744,"tier":2,"id":542174480,"min_zoom":4.0,"sort_rank":23},"arcs":[[32]]},{"type":"MultiPolygon","properties":{"source":"openstreetmap.org","kind":"park","tier":2,"area":2383089118,"sort_rank":24,"min_zoom":6.0,"osm_relation":true},"arcs":[[[33]],[[34]],[[35]],[[36]]]}]}},"type":"Topology","transform":{"translate":[-91.40625,-1.4061088354],"scale":[0.0003433228,0.0003432883]},"arcs":[[[0,516],[1428,-516]],[[0,516],[1428,-516]],[[1052,1205],[93,69],[56,15],[93,8],[48,-5],[49,-23],[32,47],[75,84],[34,49],[63,-20],[6,54],[-11,71],[91,285],[25,15],[70,28],[14,18],[-3,43],[-9,10],[-18,0],[-27,15],[-102,103],[-40,16],[20,40],[-19,34],[-27,26],[-34,16],[-41,5],[5,65],[-60,32],[-124,22],[-13,45],[-2,54],[-19,25],[-65,-42],[24,46],[78,67],[17,55],[-12,121],[-26,110],[4,9],[8,15],[7,17],[-1,17],[-46,12],[-13,8],[-38,40],[-17,24],[-7,27],[-21,32],[-297,187],[-9,9],[-21,5],[-20,13],[-10,34],[1,33],[-3,17],[-11,14],[-121,110],[-32,50],[-54,326],[7,135],[-5,72],[-20,51],[-20,11],[-29,6],[-62,3],[-19,11],[3652,0],[0,-4096],[-4096,0],[0,1135],[19,-6],[328,5],[261,-37],[45,14],[65,-16],[334,110]],[[2837,175],[96,59],[16,18],[3,13],[-6,36],[3,12],[14,7],[38,11],[8,11],[4,10],[7,8],[7,11],[2,20],[-8,20],[-14,13],[-14,10],[-6,8],[-30,35],[-71,33],[-79,16],[-58,-16],[-28,42],[-33,-16],[-29,-46],[-19,-88],[-18,-42],[-25,-38],[-27,-30],[60,-36],[40,-39],[42,-30],[106,-16],[19,4]],[[1832,3666],[-12,-15],[-9,-1],[-21,16],[-54,-11],[-48,-37],[-24,-51],[17,-52],[-7,-38],[-124,-171],[73,-13],[30,-62],[19,-75],[41,-49],[65,26],[54,-18],[52,-32],[56,-18],[204,0],[124,-38],[66,-8],[53,18],[22,60],[61,94],[20,52],[-40,23],[18,13],[8,4],[12,3],[-83,53],[-151,171],[-95,36],[-71,12],[-199,67],[-57,41]],[[2968,2618],[-33,-22],[-27,-8],[-22,3],[-66,16],[-32,1],[-33,-9],[-80,-34],[-28,-19],[-45,-49],[-43,-61],[-32,-71],[-17,-76],[-5,-141],[5,-37],[31,-30],[51,-24],[54,-13],[43,5],[25,-29],[62,-91],[22,-19],[16,-7],[13,-14],[20,-14],[63,-12],[99,-35],[54,-4],[51,9],[39,29],[15,58],[14,9],[143,-3],[15,5],[27,18],[35,43],[31,54],[35,45],[49,20],[-1,15],[25,64],[7,8],[-4,33],[-17,42],[-1,35],[37,122],[7,68],[-33,30],[-33,3],[-57,13],[-30,2],[-22,12],[-3,28],[3,33],[-6,29],[-12,13],[-16,12],[-18,10],[-16,6],[-64,-32],[-276,-31],[-19,-8]],[[0,3674],[1,-9],[21,-43],[53,-76],[-70,-21],[-5,-52],[0,201]],[[0,3464],[37,-62],[58,-35],[-4,-92],[67,-74],[177,-94],[28,-47],[10,-13],[18,-8],[39,-4],[23,-8],[35,-27],[9,-30],[-5,-84],[27,-97],[56,-105],[69,-93],[69,-63],[34,-16],[86,-25],[39,-18],[37,-32],[22,-38],[-3,-43],[-34,-48],[-44,17],[-40,-45],[-27,-61],[0,-31],[-16,-8],[-28,-44],[-15,-17],[-30,-12],[-32,3],[-50,17],[-15,8],[-13,12],[-18,13],[-32,8],[-35,0],[-101,-27],[-74,-30],[-45,-5],[-10,-14],[0,-19],[-15,-24],[-254,-165],[0,884],[15,9],[0,250],[12,111],[-7,61],[-20,15],[0,250]],[[2450,3266],[18,13],[8,4],[12,3],[-83,53],[-151,171],[-95,36],[-71,12],[-199,67],[-57,41],[-12,-15],[-9,-1],[-21,16],[-54,-11],[-48,-37],[-24,-51],[17,-52],[-7,-38],[-124,-171],[73,-13],[30,-62],[19,-75],[41,-49],[65,26],[54,-18],[52,-32],[56,-18],[204,0],[124,-38],[66,-8],[53,18],[22,60],[61,94],[20,52],[-40,23]],[[1733,1968],[-102,103],[-40,16],[20,40],[-19,34],[-27,26],[-34,16],[-41,5],[5,65],[-60,32],[-124,22],[-13,45],[-2,54],[-19,25],[-65,-42],[24,46],[78,67],[17,55],[-12,121],[-26,110],[4,9],[8,15],[7,17],[-1,17],[-46,12],[-13,8],[-38,40],[-17,24],[-7,27],[-21,32],[-297,187],[-9,9],[-21,5],[-20,13],[-10,34],[1,33],[-3,17],[-11,14],[-121,110],[-32,50],[-54,326],[7,135],[-5,72],[-20,51],[-20,11],[-29,6],[-62,3],[-19,11]],[[0,3674],[1,-9],[21,-43],[53,-76],[-70,-21],[-5,-52]],[[0,3464],[37,-62],[58,-35],[-4,-92],[67,-74],[177,-94],[28,-47],[10,-13],[18,-8],[39,-4],[23,-8],[35,-27],[9,-30],[-5,-84],[27,-97],[56,-105],[69,-93],[69,-63],[34,-16],[86,-25],[39,-18],[37,-32],[22,-38],[-3,-43],[-34,-48],[-44,17],[-40,-45],[-27,-61],[0,-31],[-16,-8],[-28,-44],[-15,-17],[-30,-12],[-32,3],[-50,17],[-15,8],[-13,12],[-18,13],[-32,8],[-35,0],[-101,-27],[-74,-30],[-45,-5],[-10,-14],[0,-19],[-15,-24],[-254,-165]],[[0,1135],[19,-6],[328,5],[261,-37],[45,14],[65,-16],[334,110],[93,69],[56,15],[93,8],[48,-5],[49,-23],[32,47],[75,84],[34,49],[63,-20],[6,54],[-11,71],[91,285],[25,15],[70,28],[14,18],[-3,43],[-9,10],[-18,0],[-27,15]],[[2987,442],[-30,35],[-71,33],[-79,16],[-58,-16],[-28,42],[-33,-16],[-29,-46],[-19,-88],[-18,-42],[-25,-38],[-27,-30],[60,-36],[40,-39],[42,-30],[106,-16],[19,4],[96,59],[16,18],[3,13],[-6,36],[3,12],[14,7],[38,11],[8,11],[4,10],[7,8],[7,11],[2,20],[-8,20],[-14,13],[-14,10],[-6,8]],[[15,2777],[0,250],[12,111],[-7,61],[-20,15]],[[0,2768],[15,9]],[[3537,2528],[-33,3],[-57,13],[-30,2],[-22,12],[-3,28],[3,33],[-6,29],[-12,13],[-16,12],[-18,10],[-16,6],[-64,-32],[-276,-31],[-19,-8],[-33,-22],[-27,-8],[-22,3],[-66,16],[-32,1],[-33,-9],[-80,-34],[-28,-19],[-45,-49],[-43,-61],[-32,-71],[-17,-76],[-5,-141],[5,-37],[31,-30],[51,-24],[54,-13],[43,5],[25,-29],[62,-91],[22,-19],[16,-7],[13,-14],[20,-14],[63,-12],[99,-35],[54,-4],[51,9],[39,29],[15,58],[14,9],[143,-3],[15,5],[27,18],[35,43],[31,54],[35,45],[49,20],[-1,15],[25,64],[7,8],[-4,33],[-17,42],[-1,35],[37,122],[7,68],[-33,30]],[[3150,1946],[-12,127],[-94,19],[-129,111],[355,458]],[[3161,1936],[-5,4]],[[3178,1928],[-3,4]],[[3270,2661],[11,14]],[[3156,1940],[-6,6]],[[3175,1932],[-14,4]],[[2721,552],[28,-42],[58,16],[79,-16],[71,-33],[30,-35],[6,-8],[14,-10],[14,-13],[8,-20],[-2,-20],[-7,-11],[-7,-8],[-4,-10],[-8,-11],[-38,-11],[-14,-7],[-3,-12],[6,-36],[-3,-13],[-16,-18],[-96,-59],[-19,-4],[-106,16],[-42,30],[-40,39],[-60,36],[27,30],[25,38],[18,42],[19,88],[29,46],[33,16]],[[3395,2619],[-3,-33],[3,-28],[22,-12],[30,-2],[57,-13],[33,-3],[33,-30],[-7,-68],[-37,-122],[1,-35],[17,-42],[4,-33],[-7,-8],[-25,-64],[1,-15],[-49,-20],[-35,-45],[-31,-54],[-35,-43],[-27,-18],[-15,-5],[-143,3],[-14,-9],[-15,-58],[-39,-29],[-51,-9],[-54,4],[-99,35],[-63,12],[-20,14],[-13,14],[-16,7],[-22,19],[-62,91],[-25,29],[-43,-5],[-54,13],[-51,24],[-31,30],[-5,37],[5,141],[17,76],[32,71],[43,61],[45,49],[28,19],[80,34],[33,9],[32,-1],[66,-16],[22,-3],[27,8],[33,22],[19,8],[276,31],[64,32],[16,-6],[18,-10],[16,-12],[12,-13],[6,-29]],[[0,4096],[444,0],[19,-11],[62,-3],[29,-6],[20,-11],[20,-51],[5,-72],[-7,-135],[54,-326],[32,-50],[121,-110],[11,-14],[3,-17],[-1,-33],[10,-34],[20,-13],[21,-5],[9,-9],[297,-187],[21,-32],[7,-27],[17,-24],[38,-40],[13,-8],[46,-12],[1,-17],[-7,-17],[-8,-15],[-4,-9],[26,-110],[12,-121],[-17,-55],[-78,-67],[-24,-46],[65,42],[19,-25],[2,-54],[13,-45],[124,-22],[60,-32],[-5,-65],[41,-5],[34,-16],[27,-26],[19,-34],[-20,-40],[40,-16],[102,-103],[27,-15],[18,0],[9,-10],[3,-43],[-14,-18],[-70,-28],[-25,-15],[-91,-285],[11,-71],[-6,-54],[-63,20],[-34,-49],[-75,-84],[-32,-47],[-49,23],[-48,5],[-93,-8],[-56,-15],[-93,-69],[-334,-110],[-65,16],[-45,-14],[-261,37],[-328,-5],[-19,6],[0,749],[254,165],[15,24],[0,19],[10,14],[45,5],[74,30],[101,27],[35,0],[32,-8],[18,-13],[13,-12],[15,-8],[50,-17],[32,-3],[30,12],[15,17],[28,44],[16,8],[0,31],[27,61],[40,45],[44,-17],[34,48],[3,43],[-22,38],[-37,32],[-39,18],[-86,25],[-34,16],[-69,63],[-69,93],[-56,105],[-27,97],[5,84],[-9,30],[-35,27],[-23,8],[-39,4],[-18,8],[-10,13],[-28,47],[-177,94],[-67,74],[4,92],[-58,35],[-37,62],[0,9],[5,52],[70,21],[-53,76],[-21,43],[-1,9],[0,422]],[[0,2768],[0,446],[20,-15],[7,-61],[-12,-111],[0,-250],[-15,-9]],[[1832,3666],[57,-41],[199,-67],[71,-12],[95,-36],[151,-171],[83,-53],[-12,-3],[-8,-4],[-18,-13],[40,-23],[-20,-52],[-61,-94],[-22,-60],[-53,-18],[-66,8],[-124,38],[-204,0],[-56,18],[-52,32],[-54,18],[-65,-26],[-41,49],[-19,75],[-30,62],[-73,13],[124,171],[7,38],[-17,52],[24,51],[48,37],[54,11],[21,-16],[9,1],[12,15]],[[3829,1705],[25,31],[-13,33],[125,-2],[36,-25],[14,-55],[-11,-33],[-46,-5],[-119,33],[-11,23]],[[2091,2340],[18,32],[53,8],[52,-43],[11,-45],[-23,-36],[-46,-2],[-55,31],[-10,55]],[[3226,2710],[7,59],[44,40],[-26,17],[14,39],[-26,23],[52,11],[84,-156],[-87,-55],[-49,-2],[-13,24]],[[0,4096],[538,0],[24,-57],[40,-5],[42,-209],[-26,-169],[53,-210],[176,-152],[11,-57],[34,-29],[-30,-8],[268,-169],[158,-186],[46,7],[-22,-71],[39,-61],[-1,-93],[-31,-33],[10,-92],[-17,-42],[-73,-45],[63,7],[20,-20],[-16,-92],[44,-7],[22,-37],[120,59],[3,-44],[36,-15],[-6,-42],[51,-14],[-10,-19],[39,-20],[-14,-35],[58,-31],[-27,-27],[0,-19],[-16,-7],[1,-9],[76,2],[20,-29],[-27,-15],[7,-23],[68,10],[-25,-44],[83,-11],[2,-82],[-23,1],[-24,-44],[-71,-15],[-13,-110],[-31,-21],[5,-68],[-40,-73],[7,-91],[-98,0],[-62,-111],[-72,-31],[-161,21],[-95,-93],[-128,-36],[-2,-33],[-46,21],[-152,-59],[-21,13],[-8,-34],[-73,-9],[12,-25],[-25,-28],[-39,27],[-84,-8],[-50,51],[-263,40],[-203,-16],[-51,21],[0,700],[69,34],[119,123],[33,4],[2,53],[27,26],[186,-2],[32,48],[85,22],[79,-35],[14,-32],[41,8],[85,63],[-6,34],[67,12],[13,36],[68,-18],[8,46],[52,37],[-23,41],[28,15],[3,10],[-79,16],[-17,50],[-85,41],[-127,130],[-111,71],[-44,98],[7,180],[-34,-10],[-5,23],[-64,14],[-67,90],[-139,48],[-78,100],[-32,121],[-34,-23],[-20,22],[-22,107],[41,51],[-67,122],[-1,291],[-4,9],[0,179]],[[0,4096],[4096,0],[0,-4096],[-4096,0],[0,4096]],[[2607,263],[48,58],[20,128],[37,62],[58,-26],[98,53],[1,-33],[119,-46],[82,-82],[-102,-164],[-135,-79],[-173,48],[-53,81]],[[0,2713],[0,516],[73,-148],[13,-137],[-52,-112],[20,-65],[-54,-54]],[[1559,3320],[9,62],[40,10],[65,95],[-18,89],[32,20],[-5,23],[110,50],[121,-14],[42,-44],[101,-24],[9,-39],[148,-22],[3,-23],[112,-38],[71,-62],[21,-127],[71,-53],[14,-55],[-54,-22],[-43,-112],[-55,-31],[-161,33],[-49,49],[-64,-32],[-28,16],[-114,-23],[-91,76],[-35,-10],[-14,30],[-36,-23],[-53,24],[-32,-15],[-6,104],[-35,15],[-9,47],[-67,26]],[[2494,2261],[57,130],[-15,54],[51,23],[14,77],[70,6],[39,43],[18,-20],[163,52],[148,-31],[21,63],[57,7],[30,-38],[2,29],[83,-7],[135,42],[66,-148],[171,-118],[-44,-101],[20,-67],[-29,-85],[32,-17],[-58,-44],[-8,-51],[-68,10],[-39,-137],[-38,-17],[-171,20],[-24,-19],[23,-48],[-71,9],[-40,-22],[15,18],[-28,-1],[-24,-35],[-45,32],[-66,-28],[-41,15],[-15,27],[-97,30],[-49,78],[-52,-5],[0,22],[-123,35],[-45,64],[19,22],[-44,131]]]}