{"objects":{"water":{"type":"GeometryCollection","geometries":[{"type":"MultiPolygon","properties":{"source":"naturalearthdata.com","kind":"ocean","area":1576712559132672,"sort_rank":200,"min_zoom":0.0,"id":1},"arcs":[[[24],[25]],[[26]],[[27],[28],[29],[30],[31]]]},{"type":"MultiLineString","properties":{"source":"naturalearthdata.com","kind":"ocean","sort_rank":205,"boundary":true,"min_zoom":0.0,"id":55},"arcs":[[32],[33],[34],[35]]},{"type":"LineString","properties":{"source":"naturalearthdata.com","kind":"ocean","sort_rank":205,"boundary":true,"min_zoom":0.0,"id":4068},"arcs":[36]},{"type":"LineString","properties":{"source":"naturalearthdata.com","kind":"ocean","sort_rank":205,"boundary":true,"min_zoom":0.0,"id":4087},"arcs":[37]},{"type":"LineString","properties":{"source":"naturalearthdata.com","kind":"ocean","sort_rank":205,"boundary":true,"min_zoom":0.0,"id":4088},"arcs":[38]},{"type":"LineString","properties":{"source":"naturalearthdata.com","kind":"ocean","sort_rank":205,"boundary":true,"min_zoom":0.0,"id":4089},"arcs":[39]},{"type":"LineString","properties":{"source":"naturalearthdata.com","kind":"ocean","sort_rank":205,"boundary":true,"min_zoom":0.0,"id":4090},"arcs":[40]}]},"buildings":{"type":"GeometryCollection","geometries":[]},"places":{"type":"GeometryCollection","geometries":[{"type":"Point","properties":{"name:ka":"\u10d9\u10d0\u10e2\u10d0\u10e0\u10d8","name:ko":"\uce74\ud0c0\ub974","name:cv":"\u041a\u0430\u0442\u0430\u0440","name:km":"\u1780\u17b6\u178f\u17b6\u179a","name:kl":"Quatar","name:cs":"Katar","name:ki":"Katari","name:kw":"Katar","name:kv":"\u041a\u0430\u0442\u0430\u0440","name:ku":"Qeter","name:ti":"\u12b3\u1273\u122d","name:ks":"\u0642\u064e\u0637\u0650\u0631","name:to":"Kat\u0101","name:tl":"Katar","name:ce":"\u041a\u0430\u0442\u0430\u0440","name:ta":"\u0b95\u0ba4\u0bbe\u0bb0\u0bcd","name:tg":"\u049a\u0430\u0442\u0430\u0440","name:ca":"Qatar","name:te":"\u0c15\u0c24\u0c30\u0c4d","name:cy":"Qatar","name:hr":"Katar","name:da":"Qatar","name:de":"Katar","name:dz":"\u0f40\u0f0b\u0f4a\u0f62","source":"openstreetmap.org","name:kn":"\u0c95\u0ca4\u0cbe\u0cb0\u0ccd","name:dv":"\u07a4\u07a6\u07a0\u07a6\u0783\u07aa","name:lv":"Katara","name:lt":"Kataras","name:uz":"Qatar","name:kk":"\u041a\u0430\u0442\u0430\u0440","name:lb":"Katar","name:la":"Quataria","name:lg":"Kataa","name:uk":"\u041a\u0430\u0442\u0430\u0440","name:ug":"\u0642\u0627\u062a\u0627\u0631","name:li":"Katar","name:ln":"Katari","name:lo":"\u0e81\u0eb2\u0e95\u0eb2","name:el":"\u039a\u03b1\u03c4\u03ac\u03c1","name:eo":"Kataro","name:en":"Qatar","name":"\u0642\u0637\u0631","name:tk":"Katar","name:ee":"Katar nutome","name:th":"\u0e1b\u0e23\u0e30\u0e40\u0e17\u0e28\u0e01\u0e32\u0e15\u0e32\u0e23\u0e4c","name:eu":"Katar","name:et":"Katar","name:es":"Catar","name:ia":"Qatar","name:rm":"Katar","name:rn":"Katari","name:az":"Qatar","name:ie":"Katar","name:id":"Qatar","name:as":"\u0995\u09be\u099f\u09be\u09f0","name:io":"Katar","name:ak":"Kata","name:am":"\u12b3\u1273\u122d","name:it":"Qatar","name:an":"Qatar","name:ru":"\u041a\u0430\u0442\u0430\u0440","name:rw":"Katari","name:af":"Katar","name:zu":"i-Qatar","name:zh":"\u5361\u5854\u5c14","name:so":"Qadar","name:sn":"Qatar","name:sl":"Katar","name:sk":"Katar","name:ja":"\u30ab\u30bf\u30fc\u30eb","name:si":"\u0d9a\u0da7\u0dcf\u0dbb\u0dca\u0dba","name:sg":"Kat\u00e4ra","name:se":"Qatar","name:sa":"\u0915\u0924\u093e\u0930","name:bs":"Katar","name:bm":"Katari","name:bn":"\u0995\u09be\u09a4\u09be\u09b0","name:bo":"\u0f40\u0f0b\u0f4f\u0f71\u0f62\u0f0d","name:br":"Katar","name:sw":"Katari","name:be":"\u041a\u0430\u0442\u0430\u0440","name:su":"Qatar","name:bg":"\u041a\u0430\u0442\u0430\u0440","name:ss":"IKhathari","name:sr":"\u041a\u0430\u0442\u0430\u0440","name:sq":"Katar","name:jv":"Qatar","name:pt":"Qatar","name:oc":"Qatar","min_zoom":2.0,"name:ro":"Qatar","name:pa":"\u0a15\u0a24\u0a30","name:os":"\u041a\u0430\u0442\u0430\u0440","name:or":"\u0b15\u0b24\u0b3e\u0b30\u0b4d","name:pl":"Katar","name:tr":"Katar","name:hi":"\u0915\u093c\u0924\u0930","name:sv":"Qatar","name:he":"\u05e7\u05d8\u05e8","name:ha":"Kwatar","name:hy":"\u053f\u0561\u057f\u0561\u0580","name:ht":"Katar","name:hu":"Katar","name:qu":"Qatar","population":1699435,"kind":"country","name:is":"Katar","name:yi":"\u05e7\u05d0\u05d8\u05d0\u05e8","name:yo":"Or\u00edl\u1eb9\u0301\u00e8de Kota","name:mt":"Qatar","name:ms":"Qatar","name:mr":"\u0915\u0924\u093e\u0930","name:my":"\u1000\u102c\u1010\u102c","official_name":"\u062f\u0648\u0644\u0629 \u0642\u0637\u0631","int_name":"Qatar","name:mg":"Katar","name:ml":"\u0d16\u0d24\u0d4d\u0d24\u0d7c","name:vi":"Qatar","name:mn":"\u041a\u0430\u0442\u0430\u0440","id":432425062,"name:mk":"\u041a\u0430\u0442\u0430\u0440","name:vo":"Katar\u00e4n","name:ff":"Kataar","name:fi":"Qatar","name:fo":"Katar","name:fr":"Qatar","name:fy":"Katar","name:nl":"Qatar","name:nn":"Qatar","name:no":"Qatar","name:na":"Qatar","name:ne":"\u0915\u0924\u093e\u0930","name:wo":"Kataar","name:nv":"K\u02bcat\u00e1r","name:ga":"Catar","name:gd":"Catar","name:gl":"Qatar","name:gv":"Yn Chatar","name:gu":"\u0a95\u0aa4\u0abe\u0ab0","name:tt":"\u041a\u0430\u0442\u0430\u0440"},"coordinates":[1761,2596]},{"type":"Point","properties":{"name:pt":"Doha","name:ps":"\u062f\u0648\u0647\u0627","name:ka":"\u10d3\u10dd\u10f0\u10d0","name:mr":"\u0926\u094b\u0939\u093e","name:ko":"\ub3c4\ud558","name:kn":"\u0ca6\u0cca\u0cb9\u0cbe","name:cs":"Dauh\u00e1","min_zoom":8.0,"name:am":"\u12f6\u1203","name:it":"Doha","name:pa":"\u0a26\u0a4b\u0a39\u0a3e","name:os":"\u0414\u043e\u0445\u00e6","name:ml":"\u0d26\u0d4b\u0d39","name:pl":"Ad-Dauha","name:mn":"\u0414\u043e\u0445\u0430","name:tg":"\u0414\u043e\u04b3\u0430","name:mk":"\u0414\u043e\u0445\u0430","name:vo":"D\u00e4uha","name:fa":"\u062f\u0648\u062d\u0647","name:ta":"\u0ba4\u0bcb\u0b95\u0bbe","old_name:pl":"Al-Bida","kind_detail":"city","id":1676664890,"source":"openstreetmap.org","name:fr":"Doha","name:de":"Doha","name:be":"\u0414\u043e\u0445\u0430","name:zh":"\u591a\u54c8","admin_level":"2","name:sl":"Doha","name:sk":"Dauh\u00e1","name:ja":"\u30c9\u30fc\u30cf","name:he":"\u05d3\u05d5\u05d7\u05d4","kind":"locality","name:ur":"\u062f\u0648\u062d\u06c1","name:bn":"\u09a6\u09cb\u09b9\u09be","name:bo":"\u0f51\u0fb7\u0f7c\u0f0b\u0f67\u0f0d","name:uk":"\u0414\u043e\u0445\u0430","name:hy":"\u0534\u0578\u0570\u0561","country_capital":true,"name:sv":"Doha","name:ug":"\u062f\u0648\u06be\u0627","name:hu":"Doha","name:hr":"Doha","name:sr":"\u0414\u043e\u0445\u0430","population":1312947,"name:el":"\u039d\u03c4\u03cc\u03c7\u03b1","name:eo":"Doho","name:en":"Doha","name":"\u0627\u0644\u062f\u0648\u062d\u0629","name:is":"Doha","name:ku":"Dohe","name:th":"\u0e42\u0e14\u0e2e\u0e32","name:bg":"\u0414\u043e\u0445\u0430","name:et":"Ad-Daw\u1e29ah","name:ru":"\u0414\u043e\u0445\u0430","name:es":"Doha"},"coordinates":[2626,2441]}]},"transit":{"type":"GeometryCollection","geometries":[]},"pois":{"type":"GeometryCollection","geometries":[{"type":"Point","properties":{"source":"openstreetmap.org","kind":"military","name":"Umm Garn Camp","area":13176900,"tier":3,"min_zoom":8.0,"id":224835315},"coordinates":[1896,3961]},{"type":"Point","properties":{"kind":"military","name:en":"Al Qalail Artillery Firing Range","name":"\u0627\u0644\u0645\u062f\u0641\u0639\u064a\u0629 \u0631\u0645\u0627\u064a\u0629 \u0627\u0644\u0642\u0644\u064a\u0644","area":267264000,"source":"openstreetmap.org","min_zoom":8.0,"tier":3,"id":224838630},"coordinates":[1058,869]},{"type":"Point","properties":{"kind":"military","name:en":"Border Exclusion Zone","name":"\u0645\u0646\u0637\u0642\u0629 \u0627\u0633\u062a\u0628\u0639\u0627\u062f \u0627\u0644\u062d\u062f\u0648\u062f","area":624292000,"source":"openstreetmap.org","min_zoom":8.0,"tier":3,"id":229757778},"coordinates":[1848,252]},{"type":"Point","properties":{"kind":"aerodrome","name:en":"Al Udeid Air Base","name":"\u0642\u0627\u0639\u062f\u0629 \u0627\u0644\u0639\u062f\u064a\u062f \u0627\u0644\u062c\u0648\u064a\u0629","area":33798100,"iata":"IUD","source":"openstreetmap.org","min_zoom":8.87,"tier":3,"name:pl":"Port lotniczy Al Udeid","id":245526659},"coordinates":[2017,1888]}]},"boundaries":{"type":"GeometryCollection","geometries":[{"type":"LineString","properties":{"name:right:yo":"Katar","name:right:yi":"\u05e7\u05d0\u05d8\u05d0\u05e8","name:right:hy":"\u0554\u0561\u0569\u0561\u0580","name:left:mr":"\u092c\u0939\u0930\u0948\u0928","name:right:qu":"Qatar","name:left:ro":"Bahrain","alt_name:left:tl":"Bahrein","alt_name:left:ta":"\u0baa\u0bb9\u0bb0\u0bc8\u0ba9\u0bcd","int_name:left":"al-Ba\u1e25rayn","name:right:el":"\u039a\u03b1\u03c4\u03ac\u03c1","name:left:sw":"Bahrain","name:left:kg":"Bahrain","name:left:ka":"\u10d1\u10d0\u10f0\u10e0\u10d4\u10d8\u10dc\u10d8","name:left:km":"\u1794\u17b6\u179a\u17c9\u17c2\u1793","name:left:kl":"Bahrain","name:left:ko":"\ubc14\ub808\uc778","name:left:kn":"\u0cac\u0cb9\u0cb0\u0cc7\u0ca8\u0ccd","name:left:ki":"Bahrain","alt_name:left:de":"Bahrein","name:left:kk":"\u0411\u0430\u0445\u0440\u0435\u0439\u043d","name:left:rm":"Bahrain","name:left:ku":"Behreyn","name:left:kw":"Bahreyn","name:left:kv":"\u0411\u0430\u0445\u0440\u0435\u0439\u043d","name:right:ro":"Qatar","name:left:ks":"\u0628\u062d\u0631\u06cc\u0656\u0646","name:left:ru":"\u0411\u0430\u0445\u0440\u0435\u0301\u0439\u043d","name:right:ie":"Katar","alt_name:left:sv":"Bahrein","name:left:ky":"\u0411\u0430\u0445\u0440\u0435\u0301\u0439\u043d","name:right:bn":"\u0995\u09be\u09a4\u09be\u09b0","name:right:bo":"\u0f41\u0f0b\u0f4f\u0f62\u0f0d","name:right:hi":"\u0915\u093c\u0924\u0930","name:right:bg":"\u041a\u0430\u0442\u0430\u0440","name:right:be":"\u041a\u0430\u0442\u0430\u0440","name:right:br":"Katar","name:right:bs":"Katar","name:right:nn":"Qatar","name:right:no":"Qatar","name:right:nl":"Qatar","name:left:sk":"Bahrajn","name:right:wo":"Kataar","name:right:na":"Qatar","alt_name:left:es":"Bahr\u00e9in","name:right:ps":"\u0642\u0637\u0631","name:right:nv":"K\u02bcat\u00e1r","name:right:pt":"Catar","kind_detail":"2","old_name:left:el":"\u03a4\u03cd\u03bb\u03bf\u03c2","name:left:mt":"Ba\u0127rejn","name:right:gu":"\u0a95\u0aa4\u0abe\u0ab0 (\u0a85\u0ab0\u0aac\u0ab8\u0acd\u0aa4\u0abe\u0aa8)","name:right:gv":"Yn Chatar","name:left:mg":"Baharainy","name:left:mk":"\u0411\u0430\u0445\u0440\u0435\u0438\u043d","name:left:tr":"Bahreyn","name:left:tt":"\u0411\u04d9\u0445\u0440\u04d9\u0439\u043d","name:left:mn":"\u0411\u0430\u0445\u0440\u0435\u0439\u043d","name:left:ml":"\u0d2c\u0d39\u0d4d\u200c\u0d31\u0d48\u0d7b","name:left:th":"\u0e1a\u0e32\u0e2b\u0e4c\u0e40\u0e23\u0e19","name:left:ti":"\u1263\u1205\u122c\u1295","name:left:tk":"Bahre\u00fdn","name:left:tl":"Bahrain","name:left:to":"Paleini","name:right:gl":"Qatar - \u0642\u0637\u0631","name:left:my":"\u1018\u102c\u101b\u102d\u1014\u103a\u1038\u1014\u102d\u102f\u1004\u103a\u1004\u1036","name:right:pl":"Katar","name:left:te":"\u0c2c\u0c39\u0c4d\u0c30\u0c2f\u0c3f\u0c28\u0c4d","name:left:tg":"\u0411\u0430\u04b3\u0440\u0430\u0439\u043d","name:left:ms":"Bahrain","name:right:ka":"\u10d9\u10d0\u10e2\u10d0\u10e0\u10d8","name:right:pa":"\u0a15\u0a24\u0a30","name:right:tr":"Katar","name:left:da":"Bahrain","name:left:de":"Bahrain","name:left:dz":"\u0f56\u0f67\u0f0b\u0f62\u0f7a\u0f53\u0f0b","name:right:ga":"Catar","name:left:dv":"\u0784\u07a6\u0799\u07b0\u0783\u07a6\u0787\u07a8\u0782\u07b0","name:right:ug":"\u0642\u0627\u062a\u0627\u0631","name:left:hi":"\u092c\u0939\u0930\u0940\u0928","name:right:lb":"Katar","name:right:uk":"\u041a\u0430\u0442\u0430\u0440","name:left:he":"\u05d1\u05d7\u05e8\u05d9\u05d9\u05df","name:right:ln":"Katar","alt_name:left:it":"Bahrain","name:left:ha":"Baharain","alt_name:left:pt":"Bar\u00e9m;Barein;Bareine","name:right:ur":"\u0642\u0637\u0631","name:right:lv":"Katara","name:left:hy":"\u0532\u0561\u0570\u0580\u0565\u0575\u0576","name:left:ta":"\u0baa\u0b95\u0bc1\u0bb0\u0bc8\u0ba9\u0bcd","name:left:ht":"Barayn","name:right:uz":"Qatar","name:left:hr":"Bahrein","sort_rank":262,"name:right:gd":"Catar","osm_relation":true,"name:right:as":"\u0995\u09be\u099f\u09be\u09f0","name:right:es":"Qatar","name:left:ja":"\u30d0\u30fc\u30ec\u30fc\u30f3","name:right:eu":"Qatar","name:right:et":"Katar","name:left:os":"\u0411\u0430\u0445\u0440\u0435\u0439\u043d","name:left:or":"\u0b2c\u0b3e\u0b39\u0b3e\u0b30\u0b3f\u0b28\u0b4d","name:left:om":"Baahireen","name:right:ee":"Qatar","name:left:vo":"Bahru\u00e4ns","name:left:oc":"Bahrain","name:right:eo":"Kataro","name:right:en":"Qatar","name:left:vi":"Bahrain","name:left:ff":"Bahreyn","name:left:fa":"\u0628\u062d\u0631\u06cc\u0646","name:left:fo":"Barein","name:right:sk":"Katar (\u0161t\u00e1t)","name:left:fi":"Bahrain","name:left:fr":"Bahre\u00efn","name:left:fy":"Bachrein","name:right:ja":"\u30ab\u30bf\u30fc\u30eb","name:right:sq":"Katari","name:right:ss":"IKhathari","name:right:sr":"\u041a\u0430\u0442\u0430\u0440","name:right:su":"Qatar","name:right:sw":"Qatar","name:right:sv":"Qatar","name:left:qu":"Bahrayn","name:right:jv":"Qatar","name:right:sl":"Katar","name:right:so":"Qatar","name:right:sa":"\u0915\u0924\u093e\u0930","name:left:jv":"Bahrain","id":-378734,"name:right:ca":"Qatar","name:right:se":"Qatar","name:right:ce":"\u041a\u0430\u0442\u0430\u0440","alt_name:left:rw":"Bahrayeni","name:right:cy":"Qatar","name:right:cs":"Katar","name:left:bm":"Bareyini","name:right:cv":"\u041a\u0430\u0442\u0430\u0440","name:right:it":"Qatar","name:left:as":"\u09ac\u09be\u09b9\u09f0\u09c7\u0987\u09a8","name:right:is":"Katar","name:left:az":"B\u0259hreyn","name:right:rw":"Katari","name:left:af":"Bahrein","name:left:an":"Bahrein","name:left:am":"\u1263\u1215\u122c\u1295","name:right:ru":"\u041a\u0430\u0442\u0430\u0440","name:left:ak":"Baren","alt_name:left:yo":"Bahrain","name:right:io":"Katar","name:left:zh-yue":"\u5df4\u6797","name:left:rw":"Bahirayini","name:left:la":"Baharina","name:left:lb":"Bahrain","name:left:lg":"Baareeni","name:left:su":"Bahrain","name:left:li":"Bahrein","name:right:hr":"Katar","name:left:sv":"Bahrain","name:left:sq":"Bahraini","name:right:hu":"Katar","name:left:ln":"Bahrein","name:left:lo":"\u0e9a\u0eb2\u0ec0\u0ea5\u0e99","name:left:sm":"Bahrain","name:left:sl":"Bahr\u00e1jn","name:left:so":"Baxrayn","name:left:sn":"Bahrain","name:left:lt":"Bahreinas","name:left:sh":"Bahrein","name:left:lv":"Bahreina","name:left:se":"Bahrain","name:left:sd":"\u0628\u062d\u0631\u064a\u0646","name:left:sg":"Bahr\u00e2ina","name:left:sa":"\u092c\u0939\u0930\u0948\u0928","name:right:he":"\u05e7\u05d8\u05d0\u05e8","name:right:la":"Quataria","name:right:af":"Katar","name:right:id":"Qatar","name:left:ce":"\u0411\u0430\u0445\u044c\u0440\u0430\u0439\u043d","name:right:an":"Qatar","name:right:am":"\u1243\u1323\u122d","name:left:ca":"Bahrain","source":"openstreetmap.org","name:left:cy":"Bahrein","name:left:cv":"\u0411\u0430\u0445\u0440\u0435\u0439\u043d","name:right:az":"Q\u0259t\u0259r","name:left:cs":"Bahrajn","name:right:li":"Katar","name:right:lt":"Kataras","name":"\u200f\u0627\u0644\u0628\u062d\u0631\u064a\u0646\u200e - \u200f\u0642\u0637\u0631\u200e","name:left:zu":"i-Bahrain","name:left:zh":"\u5df4\u6797","name:right:zh":"\u5361\u5854\u5c14","official_name:left":"\u0645\u0645\u0644\u0643\u0629 \u0627\u0644\u0628\u062d\u0631\u064a\u0646","name:left:uz":"Baxreyn","name:right:fr":"Qatar","name:left:ps":"\u0628\u062d\u0631\u06cc\u0646","name:left:ur":"\u0628\u062d\u0631\u06cc\u0646","id:right":-305095,"name:left:uk":"\u0411\u0430\u0445\u0440\u0435\u0301\u0439\u043d","name:left:no":"Bahrain","name:left:nl":"Bahrein","name:right:fa":"\u0642\u0637\u0631","name:right:fo":"Katar","name:left:ne":"\u092c\u0939\u0930\u093e\u0907\u0928","name:left:ug":"\u0628\u06d5\u06be\u0631\u06d0\u064a\u0649\u0646","name:left:na":"Bahrain","name:left:eo":"Barejno","name:left:en":"Bahrain","name:left:el":"\u039c\u03c0\u03b1\u03c7\u03c1\u03ad\u03b9\u03bd","name:left:ee":"Bahrain nutome","name:right:tt":"\u041a\u0430\u0442\u0430\u0440","name:left:es":"Bar\u00e9in","name:left:ss":"iBhaharayi","name:right:kk":"\u041a\u0430\u0442\u0430\u0440","name:left:eu":"Bahrain","name:left:et":"Bahrein","name:right:oc":"Qatar","name:right:kl":"Qatar","name:left:ia":"Bahrain","name:left:sr":"\u0411\u0430\u0445\u0440\u0435\u0438\u043d","name:right:os":"\u041a\u0430\u0442\u0430\u0440","name:right:or":"\u0b15\u0b24\u0b30","name:right:tl":"Katar","name:right:th":"\u0e1b\u0e23\u0e30\u0e40\u0e17\u0e28\u0e01\u0e32\u0e15\u0e32\u0e23\u0e4c","name:right:kv":"\u041a\u0430\u0442\u0430\u0440","min_zoom":8.0,"name:left:hu":"Bahrein","name:right:te":"\u0c15\u0c24\u0c30\u0c4d","name:left:wo":"Bahrayni","name:left:ga":"Bair\u00e9in","name:right:tg":"\u049a\u0430\u0442\u0430\u0440","name:left:gd":"Bachrain","name:left:gl":"Bahrein","name:left:gn":"Var\u00e9\u0129","name:left:gu":"\u0aac\u0ab9\u0ac7\u0ab0\u0ac0\u0aa8","name:left:gv":"Bahrain","name:left":"\u200f\u0627\u0644\u0628\u062d\u0631\u064a\u0646\u200e","name:right:mk":"\u041a\u0430\u0442\u0430\u0440","name:right:mn":"\u041a\u0430\u0442\u0430\u0440","name:right:ml":"\u0d16\u0d24\u0d4d\u0d24\u0d7c","name:right:vo":"Katar\u00e4n","name:right:vi":"Qatar","name:right:my":"\u1000\u102c\u1010\u102c\u1014\u102d\u102f\u1004\u103a\u1004\u1036","name:right:ms":"Qatar","name:right:mr":"\u0915\u0924\u093e\u0930","name:right:fy":"Katar","name:right:mt":"Qatar","name:left:nn":"Bahrain","kind":"country","name:left:si":"\u0db6\u0dc4\u0dbb\u0dda\u0db1\u0dca","alt_name:left:gd":"Bairean;Bair\u00e8in;Bahrain","alt_name:left:gl":"Bahrain","alt_name:left:gn":"Tet\u00e3 Var\u00e1\u0129","name:left:br":"Bahrein","name:left:bs":"Bahrein","name:left:ba":"\u0411\u0430\u0445\u0440\u0435\u0301\u0439\u043d","name:left:bg":"\u0411\u0430\u0445\u0440\u0435\u0439\u043d","name:left:be":"\u0411\u0430\u0445\u0440\u044d\u0301\u0439\u043d","name:left:bn":"\u09ac\u09be\u09b9\u09b0\u09be\u0987\u09a8","name:left:bo":"\u0f56\u0fb7\u0f67\u0f0b\u0f62\u0f61\u0f72\u0f53\u0f0d","name:right":"\u200f\u0642\u0637\u0631\u200e","name:left:yo":"B\u00e1h\u00e1r\u00e1\u00ecn\u00ec","name:left:yi":"\u05d1\u05d0\u05db\u05e8\u05d9\u05d9\u05df","id:left":-378734,"name:right:fi":"Qatar","name:left:io":"Bahrain","name:left:pa":"\u0a2c\u0a39\u0a3f\u0a30\u0a40\u0a28","name:left:pl":"Bahrajn","name:left:ie":"Bahrain","name:left:id":"Bahrain","name:left:pi":"\u092c\u0939\u0930\u0948\u0928","name:right:ko":"\uce74\ud0c0\ub974","name:right:kn":"\u0c95\u0c9f\u0cbe\u0cb0\u0ccd","name:left:pt":"Bahrein","name:right:ku":"Qeter","name:right:kw":"Katar","name:right:tk":"Katar","name:left:zh-min-nan":"Bahrain","name:left:it":"Bahrein","name:left:is":"Barein","name:right:ta":"\u0b95\u0ba4\u0bcd\u0ba4\u0bbe\u0bb0\u0bcd","alt_name:left:as":"\u0995\u09bf\u0982\u09a1\u09ae \u0985\u09f1 \u09ac\u09be\u09b9\u09f0\u09c7\u0987\u09a8","name:right:de":"Katar","name:right:da":"Qatar","name:left:rn":"Bahareyini","maritime_boundary":true,"name:right:dz":"\u0f40\u0f0b\u0f4f\u0f62\u0f0b","name:right:dv":"\u07a4\u07a6\u07a0\u07a6\u0783\u07aa","name:right:ht":"Katar"},"arcs":[0]},{"type":"LineString","properties":{"name:right:yo":"S\u00e1\u00fad\u00ed Ar\u00e1b\u00ed\u00e0","name:right:yi":"\u05e1\u05d0\u05d5\u05d3\u05d9 \u05d0\u05e8\u05d0\u05d1\u05d9\u05e2","name:right:hy":"\u054d\u0561\u0578\u0582\u0564\u0575\u0561\u0576 \u0531\u0580\u0561\u0562\u056b\u0561","name:left:lb":"Vereenegt Arabesch Emiraten","name:right:ko":"\uc0ac\uc6b0\ub514\uc544\ub77c\ube44\uc544","name:right:el":"\u03a3\u03b1\u03bf\u03c5\u03b4\u03b9\u03ba\u03ae \u0391\u03c1\u03b1\u03b2\u03af\u03b1","name:right:hr":"Saudijska Arabija","name:left:ka":"\u10d0\u10e0\u10d0\u10d1\u10d7\u10d0 \u10d2\u10d0\u10d4\u10e0\u10d7\u10d8\u10d0\u10dc\u10d4\u10d1\u10e3\u10da\u10d8 \u10e1\u10d0\u10d0\u10db\u10d8\u10e0\u10dd\u10d4\u10d1\u10d8","name:left:kl":"United Arab Emirates","name:left:ko":"\uc544\ub78d\uc5d0\ubbf8\ub9ac\ud2b8","name:left:kn":"\u0cb8\u0c82\u0caf\u0cc1\u0c95\u0ccd\u0ca4 \u0c85\u0cb0\u0cac \u0c85\u0cae\u0cc0\u0cb0\u0cbe\u0ca4","name:left:ki":"United Arab Emirates","name:right:rw":"Arabiya Sawudite","name:left:kk":"\u0411\u0456\u0440\u0456\u043a\u043a\u0435\u043d \u0410\u0440\u0430\u0431 \u04d8\u043c\u0456\u0440\u043b\u0456\u043a\u0442\u0435\u0440\u0456","name:right:ru":"\u0421\u0430\u0443\u0434\u043e\u0432\u0441\u043a\u0430\u044f \u0410\u0440\u0430\u0432\u0438\u044f","name:left:ku":"M\u00eerni\u015f\u00een\u00ean Ereb\u00ee y\u00ean Yekb\u00fby\u00ee","name:left:kw":"Pennternasedh Unys Arabek","name:left:kv":"\u04e6\u0442\u0443\u0432\u0442\u0447\u04e7\u043c \u0410\u0440\u0430\u0431 \u042d\u043c\u0438\u0440\u0430\u0442\u044a\u044f\u0441","name:right:ro":"Arabia Saudit\u0103","name:left:ru":"\u041e\u0431\u044a\u0435\u0434\u0438\u043d\u0451\u043d\u043d\u044b\u0435 \u0410\u0440\u0430\u0431\u0441\u043a\u0438\u0435 \u042d\u043c\u0438\u0440\u0430\u0442\u044b","name:right:ie":"Saudi Arabia","name:right:id":"Arab Saudi","name:left:ky":"\u0411\u0438\u0440\u0438\u043a\u043a\u0435\u043d \u0410\u0440\u0430\u0431 \u042d\u043c\u0438\u0440\u043b\u0438\u043a\u0442\u0435\u0440\u0438","name:right:ia":"Arabia Saudita","name:right:bn":"\u09b8\u09cc\u09a6\u09bf \u0986\u09b0\u09ac","name:right:bo":"\u0f66\u0f60\u0f74\u0f0b\u0f51\u0f72\u0f0b\u0f68\u0f0b\u0f62\u0f0b\u0f54\u0f72\u0f0b\u0f61\u0f0d","name:right:bm":"Saudia Arabu ka Faamamara","name:right:ba":"\u0421\u04d9\u0493\u04af\u0434 \u0492\u04d9\u0440\u04d9\u0431\u0441\u0442\u0430\u043d\u044b","name:right:bg":"\u0421\u0430\u0443\u0434\u0438\u0442\u0441\u043a\u0430 \u0410\u0440\u0430\u0431\u0438\u044f","name:right:be":"\u0421\u0430\u0443\u0434\u0430\u045e\u0441\u043a\u0430\u044f \u0410\u0440\u0430\u0432\u0456\u044f","name:right:br":"Arabia Saoudat","name:right:bs":"Saudijska Arabija","name:right:nn":"Saudi-Arabia","name:right:no":"Saudi-Arabia","name:right:nl":"Saoedi-Arabi\u00eb","name:left:sk":"Spojen\u00e9 arabsk\u00e9 emir\u00e1ty","name:right:wo":"Araabi Sawdit","name:right:ne":"\u0938\u093e\u0909\u0926\u0940 \u0905\u0930\u092c","name:right:na":"Taudiarabiya","name:right:ps":"\u0633\u0639\u0648\u062f\u064a \u0639\u0631\u0628\u0633\u062a\u0627\u0646","name:right:hi":"\u0938\u0909\u0926\u0940 \u0905\u0930\u092c","name:right:nv":"\u00c1s\u00e1\u00ed Bik\u00e9yah Sa\u02bcood\u00ed","kind_detail":"2","alt_name:right:vi":"\u1ea2 R\u1eadp X\u00ea \u00dat;A-r\u1eadp X\u00ea-\u00fat","name:right:gu":"\u0ab8\u0abe\u0a89\u0aa6\u0ac0 \u0a85\u0ab0\u0ac7\u0aac\u0abf\u0aaf\u0abe","name:right:gv":"Yn Araab Saudi","name:right:pt":"Ar\u00e1bia Saudita","name:left:mk":"\u041e\u0431\u0435\u0434\u0438\u043d\u0435\u0442\u0438 \u0410\u0440\u0430\u043f\u0441\u043a\u0438 \u0415\u043c\u0438\u0440\u0430\u0442\u0438","name:left:tr":"Birle\u015fik Arap Emirlikleri","name:left:tt":"\u0411\u0435\u0440\u043b\u04d9\u0448\u043a\u04d9\u043d \u0413\u0430\u0440\u04d9\u043f \u04d8\u043c\u0438\u0440\u043b\u0435\u043a\u043b\u04d9\u0440\u0435","name:left:mn":"\u0410\u0440\u0430\u0431\u044b\u043d \u041d\u044d\u0433\u0434\u0441\u044d\u043d \u042d\u043c\u0438\u0440\u0442 \u0423\u043b\u0441","name:left:ml":"\u0d10\u0d15\u0d4d\u0d2f \u0d05\u0d31\u0d2c\u0d4d \u0d0e\u0d2e\u0d3f\u0d31\u0d47\u0d31\u0d4d\u0d31\u0d41\u0d15\u0d7e","name:left:th":"\u0e2a\u0e2b\u0e23\u0e31\u0e10\u0e2d\u0e32\u0e2b\u0e23\u0e31\u0e1a\u0e40\u0e2d\u0e21\u0e34\u0e40\u0e23\u0e15\u0e2a\u0e4c","name:right:pa":"\u0a38\u0a09\u0a26\u0a40 \u0a05\u0a30\u0a2c","name:left:tk":"Birle\u015fen Arap Emirlikleri","name:left:tl":"United Arab Emirates","name:left:mt":"Emirati G\u0127arab Mag\u0127quda","name:right:gl":"Arabia Saud\u00ed","name:left:my":"\u1021\u102c\u101b\u1015\u103a\u1005\u1031\u102c\u103a\u1018\u103d\u102c\u1038\u1019\u103b\u102c\u1038\u1015\u103c\u100a\u103a\u1011\u1031\u102c\u1004\u103a\u1005\u102f\u1014\u102d\u102f\u1004\u103a\u1004\u1036","name:right:gn":"Aravia Saud\u00edta","name:right:pl":"Arabia Saudyjska","name:left:te":"\u0c2f\u0c41\u0c28\u0c48\u0c1f\u0c46\u0c21\u0c4d \u0c05\u0c30\u0c2c\u0c4d \u0c0e\u0c2e\u0c3f\u0c30\u0c47\u0c1f\u0c4d\u0c38\u0c4d","name:left:tg":"\u0410\u043c\u043e\u0440\u0430\u0442\u0438 \u041c\u0443\u0442\u0442\u0430\u04b3\u0438\u0434\u0430\u0438 \u0410\u0440\u0430\u0431","name:left:ms":"Emiriah Arab Bersatu","name:left:mr":"\u0938\u0902\u092f\u0941\u0915\u094d\u0924 \u0905\u0930\u092c \u0905\u092e\u093f\u0930\u093e\u0924\u0940","name:left:da":"Forenede Arabiske Emirater","name:left:de":"Vereinigte Arabische Emirate","name:left:dz":"\u0f61\u0f74\u0f0b\u0f53\u0f60\u0f72\u0f0b\u0f4a\u0f7a\u0f4a\u0f0b\u0f68\u0f0b\u0f62\u0f56\u0f0b\u0f68\u0f7a\u0f0b\u0f58\u0f72\u0f0b\u0f62\u0f7a\u0f4a\u0f66\u0f72\u0f0b","name:right:ga":"An Araib Sh\u00e1dach","name:left:dv":"\u0787\u07ac\u0786\u07aa\u0788\u07ac\u0783\u07a8 \u07a2\u07a6\u0783\u07a6\u0784\u07a8 \u0787\u07a8\u0789\u07a7\u0783\u07a7\u078c\u07aa","name:right:ug":"\u0633\u06d5\u0626\u06c7\u062f\u0649 \u0626\u06d5\u0631\u06d5\u0628\u0649\u0633\u062a\u0627\u0646","name:left:hi":"\u0938\u0902\u092f\u0941\u0915\u094d\u0924 \u0905\u0930\u092c \u0905\u092e\u0940\u0930\u093e\u0924","name:right:lb":"Saudi-Arabien","name:right:uk":"\u0421\u0430\u0443\u0434\u0456\u0432\u0441\u044c\u043a\u0430 \u0410\u0440\u0430\u0432\u0456\u044f","name:left:he":"\u05d0\u05d9\u05d7\u05d5\u05d3 \u05d4\u05d0\u05de\u05d9\u05e8\u05d5\u05d9\u05d5\u05ea \u05d4\u05e2\u05e8\u05d1\u05d9\u05d5\u05ea","name:right:ln":"Saudi Arabia","name:right:li":"Saoedi-Arabi\u00eb","name:right:lt":"Saudo Arabija","name:right:ur":"\u0633\u0639\u0648\u062f\u06cc \u0639\u0631\u0628","name:right:lv":"Sa\u016bda Ar\u0101bija","name:left:hy":"\u0531\u0580\u0561\u0562\u0561\u056f\u0561\u0576 \u0544\u056b\u0561\u0581\u0575\u0561\u056c \u0537\u0574\u056b\u0580\u0578\u0582\u0569\u0575\u0578\u0582\u0576\u0576\u0565\u0580","name:left:ta":"\u0b90\u0b95\u0bcd\u0b95\u0bbf\u0baf \u0b85\u0bb0\u0baa\u0bc1 \u0b85\u0bae\u0bc0\u0bb0\u0b95\u0bae\u0bcd","name:left:ht":"Emira Arab Ini","name:left:hu":"Egyes\u00fclt Arab Em\u00edrs\u00e9gek","name:left:hr":"Ujedinjeni Arapski Emirati","name:right:av":"\u0421\u0430\u0433I\u0443\u0434\u0438\u044f\u0437\u0443\u043b \u0413I\u0430\u0440\u0430\u0431\u0438\u044f","sort_rank":262,"name:right:gd":"Ar\u00e0ibia nan Sabhd","osm_relation":true,"name:right:es":"Arabia Saudita","name:left:ja":"\u30a2\u30e9\u30d6\u9996\u9577\u56fd\u9023\u90a6","name:right:eu":"Saudi Arabia","name:right:et":"Saudi Araabia","name:left:os":"\u0410\u0440\u0430\u0431\u0431\u044b \u0418\u0443\u0433\u043e\u043d\u0434 \u042d\u043c\u0438\u0440\u0430\u0442\u0442\u00e6","name:left:or":"\u0b5f\u0b41\u0b28\u0b3e\u0b07\u0b1f\u0b47\u0b21\u0b3c \u0b06\u0b30\u0b2c \u0b0f\u0b2e\u0b3f\u0b30\u0b1f","name:left:vo":"Lemir\u00e4ns Larabik Pebal\u00f6l","name:left:oc":"Emirats Arabis Units","name:right:eo":"Sauda Arabujo","name:right:en":"Saudi Arabia","name:left:vi":"C\u00e1c Ti\u1ec3u v\u01b0\u01a1ng qu\u1ed1c \u1ea2 R\u1eadp Th\u1ed1ng nh\u1ea5t","name:left:fa":"\u0627\u0645\u0627\u0631\u0627\u062a \u0645\u062a\u062d\u062f\u0647 \u0639\u0631\u0628\u06cc","name:left:fo":"Sameindu Emirr\u00edkini","name:left:qu":"Hukllachasqa Arab Imiratukuna","name:left:fi":"Yhdistyneet arabiemiirikunnat","name:left:fr":"\u00c9mirats arabes unis","name:left:fy":"Feriene Arabyske Emiraten","name:right:ja":"\u30b5\u30a6\u30b8\u30a2\u30e9\u30d3\u30a2","name:right:sq":"Arabia Saudite","name:right:ss":"I-Arabhiya","name:right:sr":"\u0421\u0430\u0443\u0434\u0438\u0458\u0441\u043a\u0430 \u0410\u0440\u0430\u0431\u0438\u0458\u0430","name:right:su":"Saudi Arabia","name:right:sw":"Saudia","name:right:sv":"Saudiarabien","name:right:si":"\u0dc3\u0dc0\u0dd4\u0daf\u0dd2 \u0d85\u0dbb\u0dcf\u0db6\u0dd2\u0dba\u0dcf\u0dc0","name:right:sh":"Saudijska Arabija","name:right:sk":"Saudsk\u00e1 Ar\u00e1bia","name:right:jv":"Arab Saudi","name:right:sl":"Saudova Arabija","name:right:so":"Sacuudi Carabiya","name:right:sa":"\u0938\u090a\u0926\u0940 \u0905\u0930\u092c","name:left:jv":"Uni Emirat Arab","id":-307763,"old_name:left:vi":"C\u00e1c qu\u1ed1c gia ng\u1eebng b\u1eafn;Oman ng\u1eebng b\u1eafn","name:right:ca":"Ar\u00e0bia Saudita","name:right:se":"Saudi-Ar\u00e1bia","name:right:ce":"\u0421\u0430\u0443\u0434\u0438\u0439\u043d \u0410\u0440\u0430\u0432\u0438","name:right:cy":"Saudi Arabia","name:right:zh-yue":"\u6c99\u5730\u963f\u62c9\u4f2f","name:right:cs":"Sa\u00fadsk\u00e1 Ar\u00e1bie","name:right:cv":"\u0421\u0430\u0443\u0434 \u0410\u0440\u0430\u0432\u0438\u0439\u0115","name:left:av":"\u0413I\u0430\u0440\u0430\u0431\u0430\u0437\u0443\u043b \u0426\u043e\u043b\u044a\u0430\u0440\u0430\u043b \u0418\u043c\u0430\u0440\u0430\u0442\u0430\u043b","name:right:it":"Arabia Saudita","name:left:ar":"\u0627\u0644\u0625\u0645\u0627\u0631\u0627\u062a \u0627\u0644\u0639\u0631\u0628\u064a\u0629 \u0627\u0644\u0645\u062a\u062d\u062f\u0629","name:right:is":"S\u00e1d\u00ed-Arab\u00eda","name:left:az":"Birl\u0259\u015fmi\u015f \u018fr\u0259b \u018fmirlikl\u0259ri","name:left:ro":"Emiratele Arabe Unite","name:left:af":"Verenigde Arabiese Emirate","name:left:an":"Emiratos Arabes Unitos","name:left:am":"\u12e8\u1270\u1263\u1260\u1229\u1275 \u12e8\u12d3\u1228\u1265 \u130d\u12db\u1276\u127d","name:right:io":"Saudia Arabia","name:left:zh-yue":"\u963f\u62c9\u4f2f\u806f\u5408\u914b\u9577\u570b","name:left:rw":"Nyarabu Zunze Ubumwe","name:left:la":"Phylarchiarum Arabicarum Confoederatio","name:right:qu":"Sawud Arabya","name:left:su":"Uni \u00c9mirat Arab","name:left:li":"Vereinegde Arabische Emiraote","name:left:sw":"Falme za Kiarabu","name:left:sv":"F\u00f6renade Arabemiraten","name:left:sq":"Emiratet e Bashkuara Arabe","name:right:hu":"Sza\u00fad-Ar\u00e1bia","name:left:ss":"Bunye bema-Arabhu","name:left:sr":"\u0423\u0458\u0435\u0434\u0438\u045a\u0435\u043d\u0438 \u0410\u0440\u0430\u043f\u0441\u043a\u0438 \u0415\u043c\u0438\u0440\u0430\u0442\u0438","name:left:sl":"Zdru\u017eeni arabski emirati","name:left:so":"Imaaraatka Carabta","name:left:lt":"Jungtiniai Arab\u0173 Emyratai","name:left:sh":"Ujedinjeni Arapski Emirati","name:left:lv":"Apvienotie Ar\u0101bu Emir\u0101ti","name:left:se":"Ovttastuvvan ar\u00e1baemir\u00e1htat","name:left:sd":"\u06af\u068f\u064a\u0644 \u0639\u0631\u0628 \u0627\u0645\u0627\u0631\u0627\u062a","name:right:he":"\u05e2\u05e8\u05d1 \u05d4\u05e1\u05e2\u05d5\u05d3\u05d9\u05ea","name:right:la":"Arabia Saudiana","name:right:af":"Saoedi-Arabi\u00eb","name:left:ce":"\u04c0\u0430\u0440\u0431\u0438\u0439\u043d \u0426\u0445\u044c\u0430\u044c\u043d\u0430\u043a\u0445\u0435\u0442\u0442\u0430 \u042d\u043c\u0438\u0440\u0430\u0442\u0430\u0448","name:right:an":"Arabia Saud\u00ed","name:right:am":"\u1233\u12d1\u12f2 \u12a0\u1228\u1262\u12eb","name:left:ca":"Emirats \u00c0rabs Units","source":"openstreetmap.org","name:left:cy":"Yr Emiradau Arabaidd Unedig","name:right:az":"S\u0259udiyy\u0259 \u018fr\u0259bistan\u0131","name:left:cs":"Spojen\u00e9 arabsk\u00e9 emir\u00e1ty","name:right:rm":"Arabia Saudita","name":"\u0627\u0644\u0625\u0645\u0627\u0631\u0627\u062a \u0627\u0644\u0639\u0631\u0628\u064a\u0651\u0629 \u0627\u0644\u0645\u062a\u0651\u062d\u062f\u0629 - \u0627\u0644\u0633\u0639\u0648\u062f\u064a\u0629","name:left:zh":"\u963f\u62c9\u4f2f\u8054\u5408\u914b\u957f\u56fd","name:right:zh":"\u6c99\u7279\u963f\u62c9\u4f2f","name:left:uz":"Birlashgan Arab Amirliklari","name:right:fr":"Arabie saoudite","name:left:nv":"\u00c1s\u00e1\u00ed Bik\u00e9yah Y\u00e1zh\u00ed A\u0142hidadiidzoo\u00edg\u00ed\u00ed","name:left:ur":"\u0645\u062a\u062d\u062f\u06c1 \u0639\u0631\u0628 \u0627\u0645\u0627\u0631\u0627\u062a","id:right":-307584,"name:left:uk":"\u041e\u0431'\u0454\u0434\u043d\u0430\u043d\u0456 \u0410\u0440\u0430\u0431\u0441\u044c\u043a\u0456 \u0415\u043c\u0456\u0440\u0430\u0442\u0438","name:left:no":"De forente arabiske emirater","name:left:nl":"Verenigde Arabische Emiraten","alt_name:right:eo":"Sauda Arabio;Saud-Arabujo;Saud-Arabio","name:right:fa":"\u0639\u0631\u0628\u0633\u062a\u0627\u0646 \u0633\u0639\u0648\u062f\u06cc","name:right:fo":"Saudi-Arabia","name:left:ne":"\u0938\u0902\u092f\u0941\u0915\u094d\u0924 \u0905\u0930\u092c \u0907\u092e\u093f\u0930\u0947\u091f\u094d\u0938","name:left:ug":"\u0626\u06d5\u0631\u06d5\u0628 \u0628\u0649\u0631\u0644\u06d5\u0634\u0645\u06d5 \u062e\u06d5\u0644\u0649\u067e\u0649\u0644\u0649\u0643\u0649","name:left:na":"Emireitit Arabiya","name:left:eo":"Unui\u011dintaj Arabaj Emirlandoj","name:left:en":"United Arab Emirates","name:left:el":"\u0397\u03bd\u03c9\u03bc\u03ad\u03bd\u03b1 \u0391\u03c1\u03b1\u03b2\u03b9\u03ba\u03ac \u0395\u03bc\u03b9\u03c1\u03ac\u03c4\u03b1","name:right:tt":"\u0421\u043e\u0433\u0443\u0434 \u0413\u0430\u0440\u04d9\u0431\u0441\u0442\u0430\u043d\u044b","name:left:es":"Emiratos \u00c1rabes Unidos","name:right:kk":"\u0421\u0430\u0443\u0434 \u0410\u0440\u0430\u0431\u0438\u044f\u0441\u044b","name:left:eu":"Arabiar Emirerri Batuak","name:left:et":"Araabia \u00dchendemiraadid","name:right:zh-min-nan":"Saud \u00ea A-la-pek","name:right:oc":"Arabia Saudita","name:right:tr":"Suudi Arabistan","name:right:uz":"Saudiya Arabistoni","name:right:os":"\u0421\u0430\u0443\u0434\u044b \u0410\u0440\u0430\u0432\u0438","name:right:or":"\u0b38\u0b3e\u0b09\u0b26\u0b3f \u0b06\u0b30\u0b2c","name:right:tl":"Arabyang Saudi","name:right:th":"\u0e1b\u0e23\u0e30\u0e40\u0e17\u0e28\u0e0b\u0e32\u0e2d\u0e38\u0e14\u0e35\u0e2d\u0e32\u0e23\u0e30\u0e40\u0e1a\u0e35\u0e22","name:right:kv":"\u0421\u0430\u0443\u0434\u0441\u0430 \u0410\u0440\u0430\u0432\u0438\u044f","min_zoom":8.0,"name:right:te":"\u0c38\u0c4c\u0c26\u0c40 \u0c05\u0c30\u0c47\u0c2c\u0c3f\u0c2f\u0c3e","name:left:wo":"Imaaraat yu Araab yu Bennoo yi","name:left:ga":"Aontas na n\u00c9im\u00edr\u00edochta\u00ed Arabacha","name:right:tg":"\u0410\u0440\u0430\u0431\u0438\u0441\u0442\u043e\u043d\u0438 \u0421\u0430\u0443\u0434\u04e3","name:left:gd":"Na h-Iomaratan Arabach Aonaichte","name:left:gl":"Emiratos \u00c1rabes Unidos","name:left:gn":"Aravia Emiryvy Joaju","name:right:tk":"Saud Arabystany","name:left:gv":"Ny h-Emmiraidyn Arabagh Unnaneysit","official_name:right":"\u200f\u0627\u0644\u0645\u0645\u0644\u0643\u0629 \u0627\u0644\u0639\u0631\u0628\u064a\u0629 \u0627\u0644\u0633\u0639\u0648\u062f\u064a\u0629\u200e","name:left":"\u0627\u0644\u0625\u0645\u0627\u0631\u0627\u062a \u0627\u0644\u0639\u0631\u0628\u064a\u0651\u0629 \u0627\u0644\u0645\u062a\u0651\u062d\u062f\u0629","name:right:mk":"\u0421\u0430\u0443\u0434\u0438\u0441\u043a\u0430 \u0410\u0440\u0430\u0431\u0438\u0458\u0430","name:right:mn":"\u0421\u0430\u0443\u0434\u044b\u043d \u0410\u0440\u0430\u0431","name:right:ml":"\u0d38\u0d57\u0d26\u0d3f \u0d05\u0d31\u0d47\u0d2c\u0d4d\u0d2f","name:right:vo":"Sauda-Larab\u00e4n","name:right:vi":"\u1ea2 R\u1eadp Saudi","name:right:my":"\u1006\u1031\u102c\u103a\u1012\u102e\u1021\u102c\u101b\u1031\u1017\u103b\u1014\u102d\u102f\u1004\u103a\u1004\u1036","name:right:ms":"Arab Saudi","name:right:mr":"\u0938\u094c\u0926\u0940 \u0905\u0930\u0947\u092c\u093f\u092f\u093e","name:right:fy":"Sa\u00fbdy-Araabje","name:right:mt":"Arabja Sawdija","name:left:nn":"Dei sameinte arabiske emirata","kind":"country","name:left:br":"Emirelezhio\u00f9 Arab Unanet","name:left:bs":"Ujedinjeni Arapski Emirati","name:left:bg":"\u041e\u0431\u0435\u0434\u0438\u043d\u0435\u043d\u0438 \u0430\u0440\u0430\u0431\u0441\u043a\u0438 \u0435\u043c\u0438\u0440\u0441\u0442\u0432\u0430","name:left:be":"\u0410\u0431'\u044f\u0434\u043d\u0430\u043d\u044b\u044f \u0410\u0440\u0430\u0431\u0441\u043a\u0456\u044f \u042d\u043c\u0456\u0440\u0430\u0442\u044b","name:left:bn":"\u09b8\u0982\u09af\u09c1\u0995\u09cd\u09a4 \u0986\u09b0\u09ac \u0986\u09ae\u09bf\u09b0\u09be\u09a4","name:left:bo":"\u0f61\u0f72\u0f0b\u0f53\u0f7a\u0f0b\u0f41\u0fb2\u0f7a\u0f0b\u0f40\u0fb2\u0f72\u0f0b\u0f68\u0f0b\u0f62\u0f56\u0f0b\u0f68\u0f7a\u0f0b\u0f58\u0f7a\u0f0b\u0f62\u0f7a\u0f0b\u0f41\u0fb2\u0f72\u0f0d","name:right":"\u0627\u0644\u0633\u0639\u0648\u062f\u064a\u0629","name:left:yo":"\u00c0w\u1ecdn \u1eb8\u0301m\u00edr\u00e9t\u00ec \u00c1r\u00e1b\u00f9 A\u1e63\u1ecd\u0300kan","name:left:yi":"\u05e4\u05d0\u05e8\u05d0\u05d9\u05d9\u05e0\u05d9\u05d2\u05d8\u05e2 \u05d0\u05e8\u05d0\u05d1\u05d9\u05e9\u05e2 \u05e2\u05de\u05d9\u05e8\u05d0\u05d8\u05df","id:left":-307763,"name:right:fi":"Saudi-Arabia","name:right:ka":"\u10e1\u10d0\u10e3\u10d3\u10d8\u10e1 \u10d0\u10e0\u10d0\u10d1\u10d4\u10d7\u10d8","name:left:io":"Unionita Araba Emirati","name:left:pa":"\u0a38\u0a70\u0a2f\u0a41\u0a15\u0a24 \u0a05\u0a30\u0a2c \u0a07\u0a2e\u0a30\u0a3e\u0a24","name:left:pl":"Zjednoczone Emiraty Arabskie","name:left:ie":"Unit Arabic Emiratus","name:left:id":"Uni Emirat Arab","name:right:km":"\u17a2\u17b6\u179a\u17c9\u17b6\u1794\u17ca\u17b8\u179f\u17b6\u17a2\u17bc\u178c\u17b8\u178f","name:right:kl":"Saudi Arabia","name:left:ia":"Emiratos Arabe Unite","name:right:kn":"\u0cb8\u0ccc\u0ca6\u0cbf \u0c85\u0cb0\u0cc6\u0cac\u0cbf\u0caf","name:left:pt":"Emirados \u00c1rabes Unidos","name:right:ku":"Erebistana Siy\u00fbd\u00ee","name:right:kw":"Arabi Saoudek","name:left:ps":"\u0639\u0631\u0628\u064a \u0645\u062a\u062d\u062f\u0647 \u0627\u0645\u0627\u0631\u0627\u062a","name:right:ky":"\u0421\u0430\u0443\u0434 \u0410\u0440\u0430\u0431\u0438\u044f \u041f\u0430\u0434\u044b\u0448\u0430\u043b\u044b\u0433\u044b","name:left:zh-min-nan":"A-la-pek Li\u00e2n-ha\u030dp Th\u00e2u-l\u00e2ng-kok","name:left:it":"Emirati Arabi Uniti","name:left:is":"Sameinu\u00f0u arab\u00edsku furstad\u00e6min","name:right:ta":"\u0b9a\u0bb5\u0bc2\u0ba4\u0bbf \u0b85\u0bb0\u0bc7\u0baa\u0bbf\u0baf\u0bbe","name:right:de":"Saudi-Arabien","name:right:da":"Saudi-Arabien","maritime_boundary":true,"name:right:dz":"\u0f66\u0f60\u0f74\u0f0b\u0f51\u0f72\u0f0b\u0f68\u0f7a\u0f0b\u0f62\u0f0b\u0f66\u0fa6\u0f72\u0f0b\u0f61\u0f0b","name:right:dv":"\u0790\u07a6\u0787\u07ab\u078b\u07a9 \u0787\u07a6\u0783\u07a6\u0784\u07a8\u0787\u07b0\u0794\u07a7","name:right:ht":"Arabi Sawoudit"},"arcs":[1]},{"type":"LineString","properties":{"name:right:yo":"Katar","name:left:la":"Phylarchiarum Arabicarum Confoederatio","name:right:qu":"Qatar","name:right:yi":"\u05e7\u05d0\u05d8\u05d0\u05e8","name:right:hy":"\u0554\u0561\u0569\u0561\u0580","name:left:su":"Uni \u00c9mirat Arab","name:left:li":"Vereinegde Arabische Emiraote","name:left:sw":"Falme za Kiarabu","name:left:sv":"F\u00f6renade Arabemiraten","name:left:sq":"Emiratet e Bashkuara Arabe","name:left:lb":"Vereenegt Arabesch Emiraten","name:left:ss":"Bunye bema-Arabhu","name:left:sr":"\u0423\u0458\u0435\u0434\u0438\u045a\u0435\u043d\u0438 \u0410\u0440\u0430\u043f\u0441\u043a\u0438 \u0415\u043c\u0438\u0440\u0430\u0442\u0438","name:left:sl":"Zdru\u017eeni arabski emirati","name:left:so":"Imaaraatka Carabta","name:left:lt":"Jungtiniai Arab\u0173 Emyratai","name:left:sh":"Ujedinjeni Arapski Emirati","name:left:lv":"Apvienotie Ar\u0101bu Emir\u0101ti","name:right:mr":"\u0915\u0924\u093e\u0930","name:left:se":"Ovttastuvvan ar\u00e1baemir\u00e1htat","name:left:sd":"\u06af\u068f\u064a\u0644 \u0639\u0631\u0628 \u0627\u0645\u0627\u0631\u0627\u062a","name:right:he":"\u05e7\u05d8\u05d0\u05e8","name:right:la":"Quataria","name:right:af":"Katar","name:left:ce":"\u04c0\u0430\u0440\u0431\u0438\u0439\u043d \u0426\u0445\u044c\u0430\u044c\u043d\u0430\u043a\u0445\u0435\u0442\u0442\u0430 \u042d\u043c\u0438\u0440\u0430\u0442\u0430\u0448","name:right:an":"Qatar","name:right:am":"\u1243\u1323\u122d","name:right:ko":"\uce74\ud0c0\ub974","name:left:ca":"Emirats \u00c0rabs Units","name:left:qu":"Hukllachasqa Arab Imiratukuna","source":"openstreetmap.org","name:left:cy":"Yr Emiradau Arabaidd Unedig","name:left:vi":"C\u00e1c Ti\u1ec3u v\u01b0\u01a1ng qu\u1ed1c \u1ea2 R\u1eadp Th\u1ed1ng nh\u1ea5t","name:right:az":"Q\u0259t\u0259r","name:left:cs":"Spojen\u00e9 arabsk\u00e9 emir\u00e1ty","name:left:ka":"\u10d0\u10e0\u10d0\u10d1\u10d7\u10d0 \u10d2\u10d0\u10d4\u10e0\u10d7\u10d8\u10d0\u10dc\u10d4\u10d1\u10e3\u10da\u10d8 \u10e1\u10d0\u10d0\u10db\u10d8\u10e0\u10dd\u10d4\u10d1\u10d8","name:left:kl":"United Arab Emirates","name:left:ko":"\uc544\ub78d\uc5d0\ubbf8\ub9ac\ud2b8","name:left:kn":"\u0cb8\u0c82\u0caf\u0cc1\u0c95\u0ccd\u0ca4 \u0c85\u0cb0\u0cac \u0c85\u0cae\u0cc0\u0cb0\u0cbe\u0ca4","name:left:ki":"United Arab Emirates","name:right:rw":"Katari","name:left:kk":"\u0411\u0456\u0440\u0456\u043a\u043a\u0435\u043d \u0410\u0440\u0430\u0431 \u04d8\u043c\u0456\u0440\u043b\u0456\u043a\u0442\u0435\u0440\u0456","name:right:hu":"Katar","name:left:ku":"M\u00eerni\u015f\u00een\u00ean Ereb\u00ee y\u00ean Yekb\u00fby\u00ee","name:left:kw":"Pennternasedh Unys Arabek","name:left:kv":"\u04e6\u0442\u0443\u0432\u0442\u0447\u04e7\u043c \u0410\u0440\u0430\u0431 \u042d\u043c\u0438\u0440\u0430\u0442\u044a\u044f\u0441","name:right:ro":"Qatar","name:left:ru":"\u041e\u0431\u044a\u0435\u0434\u0438\u043d\u0451\u043d\u043d\u044b\u0435 \u0410\u0440\u0430\u0431\u0441\u043a\u0438\u0435 \u042d\u043c\u0438\u0440\u0430\u0442\u044b","name:left:ro":"Emiratele Arabe Unite","name:right:ie":"Katar","name:right:id":"Qatar","name:left:ky":"\u0411\u0438\u0440\u0438\u043a\u043a\u0435\u043d \u0410\u0440\u0430\u0431 \u042d\u043c\u0438\u0440\u043b\u0438\u043a\u0442\u0435\u0440\u0438","name:right:bo":"\u0f41\u0f0b\u0f4f\u0f62\u0f0d","name:right:bn":"\u0995\u09be\u09a4\u09be\u09b0","name":"\u0627\u0644\u0625\u0645\u0627\u0631\u0627\u062a \u0627\u0644\u0639\u0631\u0628\u064a\u0651\u0629 \u0627\u0644\u0645\u062a\u0651\u062d\u062f\u0629 - \u200f\u0642\u0637\u0631\u200e","name:right:hi":"\u0915\u093c\u0924\u0930","name:right:kl":"Qatar","name:right:th":"\u0e1b\u0e23\u0e30\u0e40\u0e17\u0e28\u0e01\u0e32\u0e15\u0e32\u0e23\u0e4c","name:right:bg":"\u041a\u0430\u0442\u0430\u0440","name:right:be":"\u041a\u0430\u0442\u0430\u0440","name:left:zh":"\u963f\u62c9\u4f2f\u8054\u5408\u914b\u957f\u56fd","name:right:br":"Katar","name:right:bs":"Katar","name:right:zh":"\u5361\u5854\u5c14","name:right:nn":"Qatar","name:left:uz":"Birlashgan Arab Amirliklari","name:right:nl":"Qatar","name:right:fr":"Qatar","name:left:sk":"Spojen\u00e9 arabsk\u00e9 emir\u00e1ty","name:left:nv":"\u00c1s\u00e1\u00ed Bik\u00e9yah Y\u00e1zh\u00ed A\u0142hidadiidzoo\u00edg\u00ed\u00ed","name:left:ur":"\u0645\u062a\u062d\u062f\u06c1 \u0639\u0631\u0628 \u0627\u0645\u0627\u0631\u0627\u062a","name:right:wo":"Kataar","id:right":-305095,"name:left:uk":"\u041e\u0431'\u0454\u0434\u043d\u0430\u043d\u0456 \u0410\u0440\u0430\u0431\u0441\u044c\u043a\u0456 \u0415\u043c\u0456\u0440\u0430\u0442\u0438","name:left:no":"De forente arabiske emirater","name:left:nl":"Verenigde Arabische Emiraten","name:right:ps":"\u0642\u0637\u0631","name:right:fa":"\u0642\u0637\u0631","name:right:nv":"K\u02bcat\u00e1r","name:right:fo":"Katar","name:left:ne":"\u0938\u0902\u092f\u0941\u0915\u094d\u0924 \u0905\u0930\u092c \u0907\u092e\u093f\u0930\u0947\u091f\u094d\u0938","name:left:ug":"\u0626\u06d5\u0631\u06d5\u0628 \u0628\u0649\u0631\u0644\u06d5\u0634\u0645\u06d5 \u062e\u06d5\u0644\u0649\u067e\u0649\u0644\u0649\u0643\u0649","name:left:na":"Emireitit Arabiya","name:left:eo":"Unui\u011dintaj Arabaj Emirlandoj","name:left:en":"United Arab Emirates","name:left:el":"\u0397\u03bd\u03c9\u03bc\u03ad\u03bd\u03b1 \u0391\u03c1\u03b1\u03b2\u03b9\u03ba\u03ac \u0395\u03bc\u03b9\u03c1\u03ac\u03c4\u03b1","kind_detail":"2","name:right:tt":"\u041a\u0430\u0442\u0430\u0440","name:left:hr":"Ujedinjeni Arapski Emirati","name:left:es":"Emiratos \u00c1rabes Unidos","name:right:kk":"\u041a\u0430\u0442\u0430\u0440","name:left:eu":"Arabiar Emirerri Batuak","name:left:et":"Araabia \u00dchendemiraadid","name:right:gu":"\u0a95\u0aa4\u0abe\u0ab0 (\u0a85\u0ab0\u0aac\u0ab8\u0acd\u0aa4\u0abe\u0aa8)","name:right:gv":"Yn Chatar","name:right:pt":"Catar","name:left:mk":"\u041e\u0431\u0435\u0434\u0438\u043d\u0435\u0442\u0438 \u0410\u0440\u0430\u043f\u0441\u043a\u0438 \u0415\u043c\u0438\u0440\u0430\u0442\u0438","name:left:tr":"Birle\u015fik Arap Emirlikleri","name:left:tt":"\u0411\u0435\u0440\u043b\u04d9\u0448\u043a\u04d9\u043d \u0413\u0430\u0440\u04d9\u043f \u04d8\u043c\u0438\u0440\u043b\u0435\u043a\u043b\u04d9\u0440\u0435","name:left:mn":"\u0410\u0440\u0430\u0431\u044b\u043d \u041d\u044d\u0433\u0434\u0441\u044d\u043d \u042d\u043c\u0438\u0440\u0442 \u0423\u043b\u0441","name:right:oc":"Qatar","name:left:ml":"\u0d10\u0d15\u0d4d\u0d2f \u0d05\u0d31\u0d2c\u0d4d \u0d0e\u0d2e\u0d3f\u0d31\u0d47\u0d31\u0d4d\u0d31\u0d41\u0d15\u0d7e","name:left:th":"\u0e2a\u0e2b\u0e23\u0e31\u0e10\u0e2d\u0e32\u0e2b\u0e23\u0e31\u0e1a\u0e40\u0e2d\u0e21\u0e34\u0e40\u0e23\u0e15\u0e2a\u0e4c","name:right:pa":"\u0a15\u0a24\u0a30","name:left:tk":"Birle\u015fen Arap Emirlikleri","name:left:tl":"United Arab Emirates","name:right:tr":"Katar","name:left:mt":"Emirati G\u0127arab Mag\u0127quda","name:right:gl":"Qatar - \u0642\u0637\u0631","name:left:my":"\u1021\u102c\u101b\u1015\u103a\u1005\u1031\u102c\u103a\u1018\u103d\u102c\u1038\u1019\u103b\u102c\u1038\u1015\u103c\u100a\u103a\u1011\u1031\u102c\u1004\u103a\u1005\u102f\u1014\u102d\u102f\u1004\u103a\u1004\u1036","name:right:pl":"Katar","name:left:te":"\u0c2f\u0c41\u0c28\u0c48\u0c1f\u0c46\u0c21\u0c4d \u0c05\u0c30\u0c2c\u0c4d \u0c0e\u0c2e\u0c3f\u0c30\u0c47\u0c1f\u0c4d\u0c38\u0c4d","name:right:os":"\u041a\u0430\u0442\u0430\u0440","name:left:tg":"\u0410\u043c\u043e\u0440\u0430\u0442\u0438 \u041c\u0443\u0442\u0442\u0430\u04b3\u0438\u0434\u0430\u0438 \u0410\u0440\u0430\u0431","name:right:tl":"Katar","name:right:ka":"\u10d9\u10d0\u10e2\u10d0\u10e0\u10d8","name:left:mr":"\u0938\u0902\u092f\u0941\u0915\u094d\u0924 \u0905\u0930\u092c \u0905\u092e\u093f\u0930\u093e\u0924\u0940","name:left:da":"Forenede Arabiske Emirater","name:left:ar":"\u0627\u0644\u0625\u0645\u0627\u0631\u0627\u062a \u0627\u0644\u0639\u0631\u0628\u064a\u0629 \u0627\u0644\u0645\u062a\u062d\u062f\u0629","name:left:de":"Vereinigte Arabische Emirate","name:left:dz":"\u0f61\u0f74\u0f0b\u0f53\u0f60\u0f72\u0f0b\u0f4a\u0f7a\u0f4a\u0f0b\u0f68\u0f0b\u0f62\u0f56\u0f0b\u0f68\u0f7a\u0f0b\u0f58\u0f72\u0f0b\u0f62\u0f7a\u0f4a\u0f66\u0f72\u0f0b","name:right:ga":"Catar","name:left:dv":"\u0787\u07ac\u0786\u07aa\u0788\u07ac\u0783\u07a8 \u07a2\u07a6\u0783\u07a6\u0784\u07a8 \u0787\u07a8\u0789\u07a7\u0783\u07a7\u078c\u07aa","name:right:ug":"\u0642\u0627\u062a\u0627\u0631","name:left:hi":"\u0938\u0902\u092f\u0941\u0915\u094d\u0924 \u0905\u0930\u092c \u0905\u092e\u0940\u0930\u093e\u0924","name:right:lb":"Katar","name:right:no":"Qatar","name:right:uk":"\u041a\u0430\u0442\u0430\u0440","name:left:he":"\u05d0\u05d9\u05d7\u05d5\u05d3 \u05d4\u05d0\u05de\u05d9\u05e8\u05d5\u05d9\u05d5\u05ea \u05d4\u05e2\u05e8\u05d1\u05d9\u05d5\u05ea","name:right:ln":"Katar","name:right:kv":"\u041a\u0430\u0442\u0430\u0440","name:right:li":"Katar","name:right:lt":"Kataras","name:right:ur":"\u0642\u0637\u0631","name:right:lv":"Katara","name:left:hy":"\u0531\u0580\u0561\u0562\u0561\u056f\u0561\u0576 \u0544\u056b\u0561\u0581\u0575\u0561\u056c \u0537\u0574\u056b\u0580\u0578\u0582\u0569\u0575\u0578\u0582\u0576\u0576\u0565\u0580","name:left:ta":"\u0b90\u0b95\u0bcd\u0b95\u0bbf\u0baf \u0b85\u0bb0\u0baa\u0bc1 \u0b85\u0bae\u0bc0\u0bb0\u0b95\u0bae\u0bcd","name:left:ht":"Emira Arab Ini","name:left:hu":"Egyes\u00fclt Arab Em\u00edrs\u00e9gek","name:left:wo":"Imaaraat yu Araab yu Bennoo yi","name:left:ga":"Aontas na n\u00c9im\u00edr\u00edochta\u00ed Arabacha","name:left:it":"Emirati Arabi Uniti","name:left:gd":"Na h-Iomaratan Arabach Aonaichte","sort_rank":262,"name:right:gd":"Catar","name:left:gl":"Emiratos \u00c1rabes Unidos","name:left:gn":"Aravia Emiryvy Joaju","osm_relation":true,"name:right:tk":"Katar","name:left:gv":"Ny h-Emmiraidyn Arabagh Unnaneysit","name:right:as":"\u0995\u09be\u099f\u09be\u09f0","name:right:or":"\u0b15\u0b24\u0b30","name:left":"\u0627\u0644\u0625\u0645\u0627\u0631\u0627\u062a \u0627\u0644\u0639\u0631\u0628\u064a\u0651\u0629 \u0627\u0644\u0645\u062a\u0651\u062d\u062f\u0629","name:right:es":"Qatar","name:left:an":"Emiratos Arabes Unitos","name:left:ja":"\u30a2\u30e9\u30d6\u9996\u9577\u56fd\u9023\u90a6","name:right:mn":"\u041a\u0430\u0442\u0430\u0440","name:right:eu":"Qatar","name:right:et":"Katar","name:right:vo":"Katar\u00e4n","name:left:os":"\u0410\u0440\u0430\u0431\u0431\u044b \u0418\u0443\u0433\u043e\u043d\u0434 \u042d\u043c\u0438\u0440\u0430\u0442\u0442\u00e6","name:left:or":"\u0b5f\u0b41\u0b28\u0b3e\u0b07\u0b1f\u0b47\u0b21\u0b3c \u0b06\u0b30\u0b2c \u0b0f\u0b2e\u0b3f\u0b30\u0b1f","name:right:vi":"Qatar","name:right:my":"\u1000\u102c\u1010\u102c\u1014\u102d\u102f\u1004\u103a\u1004\u1036","name:right:ee":"Qatar","name:right:uz":"Qatar","name:left:vo":"Lemir\u00e4ns Larabik Pebal\u00f6l","name:left:oc":"Emirats Arabis Units","name:right:na":"Qatar","name:right:eo":"Kataro","name:right:en":"Qatar","name:right:mt":"Qatar","name:left:nn":"Dei sameinte arabiske emirata","kind":"country","name:left:fa":"\u0627\u0645\u0627\u0631\u0627\u062a \u0645\u062a\u062d\u062f\u0647 \u0639\u0631\u0628\u06cc","name:left:fo":"Sameindu Emirr\u00edkini","name:right:sk":"Katar (\u0161t\u00e1t)","name:left:fi":"Yhdistyneet arabiemiirikunnat","name:right:te":"\u0c15\u0c24\u0c30\u0c4d","name:left:fr":"\u00c9mirats arabes unis","name:right:fy":"Katar","name:left:fy":"Feriene Arabyske Emiraten","name:left:br":"Emirelezhio\u00f9 Arab Unanet","name:left:bs":"Ujedinjeni Arapski Emirati","name:right:ja":"\u30ab\u30bf\u30fc\u30eb","name:right:sq":"Katari","name:right:ss":"IKhathari","name:right:sr":"\u041a\u0430\u0442\u0430\u0440","name:right:su":"Qatar","name:right:sw":"Qatar","name:right:sv":"Qatar","name:right:ms":"Qatar","name:right:cy":"Qatar","name:right:jv":"Qatar","name:left:bg":"\u041e\u0431\u0435\u0434\u0438\u043d\u0435\u043d\u0438 \u0430\u0440\u0430\u0431\u0441\u043a\u0438 \u0435\u043c\u0438\u0440\u0441\u0442\u0432\u0430","name:right:so":"Qatar","name:left:be":"\u0410\u0431'\u044f\u0434\u043d\u0430\u043d\u044b\u044f \u0410\u0440\u0430\u0431\u0441\u043a\u0456\u044f \u042d\u043c\u0456\u0440\u0430\u0442\u044b","name:right:sa":"\u0915\u0924\u093e\u0930","name:right:sl":"Katar","name:left:jv":"Uni Emirat Arab","name:left:bo":"\u0f61\u0f72\u0f0b\u0f53\u0f7a\u0f0b\u0f41\u0fb2\u0f7a\u0f0b\u0f40\u0fb2\u0f72\u0f0b\u0f68\u0f0b\u0f62\u0f56\u0f0b\u0f68\u0f7a\u0f0b\u0f58\u0f7a\u0f0b\u0f62\u0f7a\u0f0b\u0f41\u0fb2\u0f72\u0f0d","name:right":"\u200f\u0642\u0637\u0631\u200e","old_name:left:vi":"C\u00e1c qu\u1ed1c gia ng\u1eebng b\u1eafn;Oman ng\u1eebng b\u1eafn","name:right:ca":"Qatar","name:right:se":"Qatar","name:right:ml":"\u0d16\u0d24\u0d4d\u0d24\u0d7c","name:right:ce":"\u041a\u0430\u0442\u0430\u0440","maritime_boundary":true,"name:right:tg":"\u049a\u0430\u0442\u0430\u0440","id":-307763,"name:left:yo":"\u00c0w\u1ecdn \u1eb8\u0301m\u00edr\u00e9t\u00ec \u00c1r\u00e1b\u00f9 A\u1e63\u1ecd\u0300kan","name:right:dz":"\u0f40\u0f0b\u0f4f\u0f62\u0f0b","name:left:yi":"\u05e4\u05d0\u05e8\u05d0\u05d9\u05d9\u05e0\u05d9\u05d2\u05d8\u05e2 \u05d0\u05e8\u05d0\u05d1\u05d9\u05e9\u05e2 \u05e2\u05de\u05d9\u05e8\u05d0\u05d8\u05df","id:left":-307763,"min_zoom":8.0,"name:right:cs":"Katar","name:right:fi":"Qatar","name:right:cv":"\u041a\u0430\u0442\u0430\u0440","name:right:mk":"\u041a\u0430\u0442\u0430\u0440","name:left:av":"\u0413I\u0430\u0440\u0430\u0431\u0430\u0437\u0443\u043b \u0426\u043e\u043b\u044a\u0430\u0440\u0430\u043b \u0418\u043c\u0430\u0440\u0430\u0442\u0430\u043b","name:right:hr":"Katar","name:right:it":"Qatar","name:left:io":"Unionita Araba Emirati","name:left:pa":"\u0a38\u0a70\u0a2f\u0a41\u0a15\u0a24 \u0a05\u0a30\u0a2c \u0a07\u0a2e\u0a30\u0a3e\u0a24","name:left:pl":"Zjednoczone Emiraty Arabskie","name:right:is":"Katar","name:left:ie":"Unit Arabic Emiratus","name:left:id":"Uni Emirat Arab","name:left:az":"Birl\u0259\u015fmi\u015f \u018fr\u0259b \u018fmirlikl\u0259ri","name:left:ia":"Emiratos Arabe Unite","name:right:kn":"\u0c95\u0c9f\u0cbe\u0cb0\u0ccd","name:left:pt":"Emirados \u00c1rabes Unidos","name:left:af":"Verenigde Arabiese Emirate","name:right:ku":"Qeter","name:right:kw":"Katar","name:left:ps":"\u0639\u0631\u0628\u064a \u0645\u062a\u062d\u062f\u0647 \u0627\u0645\u0627\u0631\u0627\u062a","name:left:zh-min-nan":"A-la-pek Li\u00e2n-ha\u030dp Th\u00e2u-l\u00e2ng-kok","name:left:am":"\u12e8\u1270\u1263\u1260\u1229\u1275 \u12e8\u12d3\u1228\u1265 \u130d\u12db\u1276\u127d","name:right:ru":"\u041a\u0430\u0442\u0430\u0440","name:left:is":"Sameinu\u00f0u arab\u00edsku furstad\u00e6min","name:right:ta":"\u0b95\u0ba4\u0bcd\u0ba4\u0bbe\u0bb0\u0bcd","name:right:io":"Katar","name:right:de":"Katar","name:left:ms":"Emiriah Arab Bersatu","name:right:da":"Qatar","name:right:el":"\u039a\u03b1\u03c4\u03ac\u03c1","name:left:zh-yue":"\u963f\u62c9\u4f2f\u806f\u5408\u914b\u9577\u570b","name:right:dv":"\u07a4\u07a6\u07a0\u07a6\u0783\u07aa","name:left:bn":"\u09b8\u0982\u09af\u09c1\u0995\u09cd\u09a4 \u0986\u09b0\u09ac \u0986\u09ae\u09bf\u09b0\u09be\u09a4","name:right:ht":"Katar","name:left:rw":"Nyarabu Zunze Ubumwe"},"arcs":[2]},{"type":"LineString","properties":{"name:ka":"\u10d0\u10e0\u10d0\u10d1\u10d7\u10d0 \u10d2\u10d0\u10d4\u10e0\u10d7\u10d8\u10d0\u10dc\u10d4\u10d1\u10e3\u10da\u10d8 \u10e1\u10d0\u10d0\u10db\u10d8\u10e0\u10dd\u10d4\u10d1\u10d8","name:ko":"\uc544\ub78d\uc5d0\ubbf8\ub9ac\ud2b8","name:kn":"\u0cb8\u0c82\u0caf\u0cc1\u0c95\u0ccd\u0ca4 \u0c85\u0cb0\u0cac \u0c85\u0cae\u0cc0\u0cb0\u0cbe\u0ca4","name:kl":"United Arab Emirates","name:cs":"Spojen\u00e9 arabsk\u00e9 emir\u00e1ty","name:ki":"United Arab Emirates","name:kw":"Pennternasedh Unys Arabek","name:kv":"\u04e6\u0442\u0443\u0432\u0442\u0447\u04e7\u043c \u0410\u0440\u0430\u0431 \u042d\u043c\u0438\u0440\u0430\u0442\u044a\u044f\u0441","name:ku":"M\u00eerni\u015f\u00een\u00ean Ereb\u00ee y\u00ean Yekb\u00fby\u00ee","name:tl":"United Arab Emirates","name:ce":"\u04c0\u0430\u0440\u0431\u0438\u0439\u043d \u0426\u0445\u044c\u0430\u044c\u043d\u0430\u043a\u0445\u0435\u0442\u0442\u0430 \u042d\u043c\u0438\u0440\u0430\u0442\u0430\u0448","name:ta":"\u0b90\u0b95\u0bcd\u0b95\u0bbf\u0baf \u0b85\u0bb0\u0baa\u0bc1 \u0b85\u0bae\u0bc0\u0bb0\u0b95\u0bae\u0bcd","name:tg":"\u0410\u043c\u043e\u0440\u0430\u0442\u0438 \u041c\u0443\u0442\u0442\u0430\u04b3\u0438\u0434\u0430\u0438 \u0410\u0440\u0430\u0431","name:ca":"Emirats \u00c0rabs Units","name:te":"\u0c2f\u0c41\u0c28\u0c48\u0c1f\u0c46\u0c21\u0c4d \u0c05\u0c30\u0c2c\u0c4d \u0c0e\u0c2e\u0c3f\u0c30\u0c47\u0c1f\u0c4d\u0c38\u0c4d","name:cy":"Yr Emiradau Arabaidd Unedig","name:qu":"Hukllachasqa Arab Imiratukuna","name:da":"Forenede Arabiske Emirater","name:de":"Vereinigte Arabische Emirate","name:dz":"\u0f61\u0f74\u0f0b\u0f53\u0f60\u0f72\u0f0b\u0f4a\u0f7a\u0f4a\u0f0b\u0f68\u0f0b\u0f62\u0f56\u0f0b\u0f68\u0f7a\u0f0b\u0f58\u0f72\u0f0b\u0f62\u0f7a\u0f4a\u0f66\u0f72\u0f0b","source":"openstreetmap.org","name:dv":"\u0787\u07ac\u0786\u07aa\u0788\u07ac\u0783\u07a8 \u07a2\u07a6\u0783\u07a6\u0784\u07a8 \u0787\u07a8\u0789\u07a7\u0783\u07a7\u078c\u07aa","name:lv":"Apvienotie Ar\u0101bu Emir\u0101ti","name:lt":"Jungtiniai Arab\u0173 Emyratai","name:uz":"Birlashgan Arab Amirliklari","name:kk":"\u0411\u0456\u0440\u0456\u043a\u043a\u0435\u043d \u0410\u0440\u0430\u0431 \u04d8\u043c\u0456\u0440\u043b\u0456\u043a\u0442\u0435\u0440\u0456","name:ur":"\u0645\u062a\u062d\u062f\u06c1 \u0639\u0631\u0628 \u0627\u0645\u0627\u0631\u0627\u062a","name:lb":"Vereenegt Arabesch Emiraten","name:la":"Phylarchiarum Arabicarum Confoederatio","name:tt":"\u0411\u0435\u0440\u043b\u04d9\u0448\u043a\u04d9\u043d \u0413\u0430\u0440\u04d9\u043f \u04d8\u043c\u0438\u0440\u043b\u0435\u043a\u043b\u04d9\u0440\u0435","name:uk":"\u041e\u0431'\u0454\u0434\u043d\u0430\u043d\u0456 \u0410\u0440\u0430\u0431\u0441\u044c\u043a\u0456 \u0415\u043c\u0456\u0440\u0430\u0442\u0438","name:ug":"\u0626\u06d5\u0631\u06d5\u0628 \u0628\u0649\u0631\u0644\u06d5\u0634\u0645\u06d5 \u062e\u06d5\u0644\u0649\u067e\u0649\u0644\u0649\u0643\u0649","name:li":"Vereinegde Arabische Emiraote","name:el":"\u0397\u03bd\u03c9\u03bc\u03ad\u03bd\u03b1 \u0391\u03c1\u03b1\u03b2\u03b9\u03ba\u03ac \u0395\u03bc\u03b9\u03c1\u03ac\u03c4\u03b1","name:eo":"Unui\u011dintaj Arabaj Emirlandoj","name:en":"United Arab Emirates","name":"\u0627\u0644\u0625\u0645\u0627\u0631\u0627\u062a \u0627\u0644\u0639\u0631\u0628\u064a\u0651\u0629 \u0627\u0644\u0645\u062a\u0651\u062d\u062f\u0629","name:tk":"Birle\u015fen Arap Emirlikleri","name:th":"\u0e2a\u0e2b\u0e23\u0e31\u0e10\u0e2d\u0e32\u0e2b\u0e23\u0e31\u0e1a\u0e40\u0e2d\u0e21\u0e34\u0e40\u0e23\u0e15\u0e2a\u0e4c","name:eu":"Arabiar Emirerri Batuak","name:et":"Araabia \u00dchendemiraadid","name:es":"Emiratos \u00c1rabes Unidos","name:ia":"Emiratos Arabe Unite","name:az":"Birl\u0259\u015fmi\u015f \u018fr\u0259b \u018fmirlikl\u0259ri","name:ie":"Unit Arabic Emiratus","name:id":"Uni Emirat Arab","name:ar":"\u0627\u0644\u0625\u0645\u0627\u0631\u0627\u062a \u0627\u0644\u0639\u0631\u0628\u064a\u0629 \u0627\u0644\u0645\u062a\u062d\u062f\u0629","name:io":"Unionita Araba Emirati","name:av":"\u0413I\u0430\u0440\u0430\u0431\u0430\u0437\u0443\u043b \u0426\u043e\u043b\u044a\u0430\u0440\u0430\u043b \u0418\u043c\u0430\u0440\u0430\u0442\u0430\u043b","name:is":"Sameinu\u00f0u arab\u00edsku furstad\u00e6min","name:am":"\u12e8\u1270\u1263\u1260\u1229\u1275 \u12e8\u12d3\u1228\u1265 \u130d\u12db\u1276\u127d","name:it":"Emirati Arabi Uniti","name:an":"Emiratos Arabes Unitos","name:ru":"\u041e\u0431\u044a\u0435\u0434\u0438\u043d\u0451\u043d\u043d\u044b\u0435 \u0410\u0440\u0430\u0431\u0441\u043a\u0438\u0435 \u042d\u043c\u0438\u0440\u0430\u0442\u044b","name:rw":"Nyarabu Zunze Ubumwe","name:af":"Verenigde Arabiese Emirate","kind_detail":"2","name:ky":"\u0411\u0438\u0440\u0438\u043a\u043a\u0435\u043d \u0410\u0440\u0430\u0431 \u042d\u043c\u0438\u0440\u043b\u0438\u043a\u0442\u0435\u0440\u0438","name:zh-yue":"\u963f\u62c9\u4f2f\u806f\u5408\u914b\u9577\u570b","name:zh":"\u963f\u62c9\u4f2f\u8054\u5408\u914b\u957f\u56fd","name:so":"Imaaraatka Carabta","name:sl":"Zdru\u017eeni arabski emirati","name:sk":"Spojen\u00e9 arabsk\u00e9 emir\u00e1ty","name:ja":"\u30a2\u30e9\u30d6\u9996\u9577\u56fd\u9023\u90a6","name:sh":"Ujedinjeni Arapski Emirati","name:se":"Ovttastuvvan ar\u00e1baemir\u00e1htat","name:sd":"\u06af\u068f\u064a\u0644 \u0639\u0631\u0628 \u0627\u0645\u0627\u0631\u0627\u062a","name:br":"Emirelezhio\u00f9 Arab Unanet","name:bs":"Ujedinjeni Arapski Emirati","name:bn":"\u09b8\u0982\u09af\u09c1\u0995\u09cd\u09a4 \u0986\u09b0\u09ac \u0986\u09ae\u09bf\u09b0\u09be\u09a4","name:bo":"\u0f61\u0f72\u0f0b\u0f53\u0f7a\u0f0b\u0f41\u0fb2\u0f7a\u0f0b\u0f40\u0fb2\u0f72\u0f0b\u0f68\u0f0b\u0f62\u0f56\u0f0b\u0f68\u0f7a\u0f0b\u0f58\u0f7a\u0f0b\u0f62\u0f7a\u0f0b\u0f41\u0fb2\u0f72\u0f0d","name:sw":"Falme za Kiarabu","name:be":"\u0410\u0431'\u044f\u0434\u043d\u0430\u043d\u044b\u044f \u0410\u0440\u0430\u0431\u0441\u043a\u0456\u044f \u042d\u043c\u0456\u0440\u0430\u0442\u044b","name:su":"Uni \u00c9mirat Arab","name:bg":"\u041e\u0431\u0435\u0434\u0438\u043d\u0435\u043d\u0438 \u0430\u0440\u0430\u0431\u0441\u043a\u0438 \u0435\u043c\u0438\u0440\u0441\u0442\u0432\u0430","name:ss":"Bunye bema-Arabhu","name:sr":"\u0423\u0458\u0435\u0434\u0438\u045a\u0435\u043d\u0438 \u0410\u0440\u0430\u043f\u0441\u043a\u0438 \u0415\u043c\u0438\u0440\u0430\u0442\u0438","name:sq":"Emiratet e Bashkuara Arabe","name:jv":"Uni Emirat Arab","name:pt":"Emirados \u00c1rabes Unidos","name:ps":"\u0639\u0631\u0628\u064a \u0645\u062a\u062d\u062f\u0647 \u0627\u0645\u0627\u0631\u0627\u062a","name:oc":"Emirats Arabis Units","min_zoom":8.0,"name:ro":"Emiratele Arabe Unite","name:zh-min-nan":"A-la-pek Li\u00e2n-ha\u030dp Th\u00e2u-l\u00e2ng-kok","name:os":"\u0410\u0440\u0430\u0431\u0431\u044b \u0418\u0443\u0433\u043e\u043d\u0434 \u042d\u043c\u0438\u0440\u0430\u0442\u0442\u00e6","name:or":"\u0b5f\u0b41\u0b28\u0b3e\u0b07\u0b1f\u0b47\u0b21\u0b3c \u0b06\u0b30\u0b2c \u0b0f\u0b2e\u0b3f\u0b30\u0b1f","name:pl":"Zjednoczone Emiraty Arabskie","sort_rank":262,"osm_relation":true,"name:pa":"\u0a38\u0a70\u0a2f\u0a41\u0a15\u0a24 \u0a05\u0a30\u0a2c \u0a07\u0a2e\u0a30\u0a3e\u0a24","name:tr":"Birle\u015fik Arap Emirlikleri","name:hi":"\u0938\u0902\u092f\u0941\u0915\u094d\u0924 \u0905\u0930\u092c \u0905\u092e\u0940\u0930\u093e\u0924","name:sv":"F\u00f6renade Arabemiraten","name:he":"\u05d0\u05d9\u05d7\u05d5\u05d3 \u05d4\u05d0\u05de\u05d9\u05e8\u05d5\u05d9\u05d5\u05ea \u05d4\u05e2\u05e8\u05d1\u05d9\u05d5\u05ea","name:hy":"\u0531\u0580\u0561\u0562\u0561\u056f\u0561\u0576 \u0544\u056b\u0561\u0581\u0575\u0561\u056c \u0537\u0574\u056b\u0580\u0578\u0582\u0569\u0575\u0578\u0582\u0576\u0576\u0565\u0580","name:ht":"Emira Arab Ini","name:hu":"Egyes\u00fclt Arab Em\u00edrs\u00e9gek","name:hr":"Ujedinjeni Arapski Emirati","kind":"country","name:yi":"\u05e4\u05d0\u05e8\u05d0\u05d9\u05d9\u05e0\u05d9\u05d2\u05d8\u05e2 \u05d0\u05e8\u05d0\u05d1\u05d9\u05e9\u05e2 \u05e2\u05de\u05d9\u05e8\u05d0\u05d8\u05df","name:yo":"\u00c0w\u1ecdn \u1eb8\u0301m\u00edr\u00e9t\u00ec \u00c1r\u00e1b\u00f9 A\u1e63\u1ecd\u0300kan","name:mt":"Emirati G\u0127arab Mag\u0127quda","name:ms":"Emiriah Arab Bersatu","name:mr":"\u0938\u0902\u092f\u0941\u0915\u094d\u0924 \u0905\u0930\u092c \u0905\u092e\u093f\u0930\u093e\u0924\u0940","name:my":"\u1021\u102c\u101b\u1015\u103a\u1005\u1031\u102c\u103a\u1018\u103d\u102c\u1038\u1019\u103b\u102c\u1038\u1015\u103c\u100a\u103a\u1011\u1031\u102c\u1004\u103a\u1005\u102f\u1014\u102d\u102f\u1004\u103a\u1004\u1036","name:vi":"C\u00e1c Ti\u1ec3u v\u01b0\u01a1ng qu\u1ed1c \u1ea2 R\u1eadp Th\u1ed1ng nh\u1ea5t","name:ml":"\u0d10\u0d15\u0d4d\u0d2f \u0d05\u0d31\u0d2c\u0d4d \u0d0e\u0d2e\u0d3f\u0d31\u0d47\u0d31\u0d4d\u0d31\u0d41\u0d15\u0d7e","name:mn":"\u0410\u0440\u0430\u0431\u044b\u043d \u041d\u044d\u0433\u0434\u0441\u044d\u043d \u042d\u043c\u0438\u0440\u0442 \u0423\u043b\u0441","id":-307763,"name:mk":"\u041e\u0431\u0435\u0434\u0438\u043d\u0435\u0442\u0438 \u0410\u0440\u0430\u043f\u0441\u043a\u0438 \u0415\u043c\u0438\u0440\u0430\u0442\u0438","name:vo":"Lemir\u00e4ns Larabik Pebal\u00f6l","name:fa":"\u0627\u0645\u0627\u0631\u0627\u062a \u0645\u062a\u062d\u062f\u0647 \u0639\u0631\u0628\u06cc","name:fi":"Yhdistyneet arabiemiirikunnat","old_name:vi":"C\u00e1c qu\u1ed1c gia ng\u1eebng b\u1eafn;Oman ng\u1eebng b\u1eafn","name:fo":"Sameindu Emirr\u00edkini","name:fr":"\u00c9mirats arabes unis","name:fy":"Feriene Arabyske Emiraten","name:nl":"Verenigde Arabische Emiraten","name:nn":"Dei sameinte arabiske emirata","name:no":"De forente arabiske emirater","name:na":"Emireitit Arabiya","name:ne":"\u0938\u0902\u092f\u0941\u0915\u094d\u0924 \u0905\u0930\u092c \u0907\u092e\u093f\u0930\u0947\u091f\u094d\u0938","name:wo":"Imaaraat yu Araab yu Bennoo yi","name:nv":"\u00c1s\u00e1\u00ed Bik\u00e9yah Y\u00e1zh\u00ed A\u0142hidadiidzoo\u00edg\u00ed\u00ed","name:ga":"Aontas na n\u00c9im\u00edr\u00edochta\u00ed Arabacha","name:gd":"Na h-Iomaratan Arabach Aonaichte","name:gn":"Aravia Emiryvy Joaju","name:gl":"Emiratos \u00c1rabes Unidos","maritime_boundary":true,"name:gv":"Ny h-Emmiraidyn Arabagh Unnaneysit"},"arcs":[3]},{"type":"LineString","properties":{"name:right:yo":"Katar","name:right:yi":"\u05e7\u05d0\u05d8\u05d0\u05e8","name:left:la":"Arabia Saudiana","name:right:qu":"Qatar","name:left:vi":"\u1ea2 R\u1eadp Saudi","name:left:sw":"Saudia","name:left:ka":"\u10e1\u10d0\u10e3\u10d3\u10d8\u10e1 \u10d0\u10e0\u10d0\u10d1\u10d4\u10d7\u10d8","name:left:km":"\u17a2\u17b6\u179a\u17c9\u17b6\u1794\u17ca\u17b8\u179f\u17b6\u17a2\u17bc\u178c\u17b8\u178f","name:left:kl":"Saudi Arabia","name:left:ko":"\uc0ac\uc6b0\ub514\uc544\ub77c\ube44\uc544","name:left:kn":"\u0cb8\u0ccc\u0ca6\u0cbf \u0c85\u0cb0\u0cc6\u0cac\u0cbf\u0caf","name:right:is":"Katar","name:right:rw":"Katari","name:left:kk":"\u0421\u0430\u0443\u0434 \u0410\u0440\u0430\u0431\u0438\u044f\u0441\u044b","name:left:rm":"Arabia Saudita","name:left:ku":"Erebistana Siy\u00fbd\u00ee","name:left:kw":"Arabi Saoudek","name:left:kv":"\u0421\u0430\u0443\u0434\u0441\u0430 \u0410\u0440\u0430\u0432\u0438\u044f","name:right:ro":"Qatar","name:left:ru":"\u0421\u0430\u0443\u0434\u043e\u0432\u0441\u043a\u0430\u044f \u0410\u0440\u0430\u0432\u0438\u044f","name:right:ie":"Katar","name:right:id":"Qatar","name:left:ky":"\u0421\u0430\u0443\u0434 \u0410\u0440\u0430\u0431\u0438\u044f \u041f\u0430\u0434\u044b\u0448\u0430\u043b\u044b\u0433\u044b","name:right:bn":"\u0995\u09be\u09a4\u09be\u09b0","name:right:bo":"\u0f41\u0f0b\u0f4f\u0f62\u0f0d","name:left:sl":"Saudova Arabija","name:right:bg":"\u041a\u0430\u0442\u0430\u0440","name:right:be":"\u041a\u0430\u0442\u0430\u0440","name:right:br":"Katar","name:left:lt":"Saudo Arabija","name:right:nn":"Qatar","name:right:no":"Qatar","name:right:nl":"Qatar","name:left:lv":"Sa\u016bda Ar\u0101bija","name:right:wo":"Kataar","name:right:na":"Qatar","name:right:gv":"Yn Chatar","alt_name:left:vi":"\u1ea2 R\u1eadp X\u00ea \u00dat;A-r\u1eadp X\u00ea-\u00fat","name:right:nv":"K\u02bcat\u00e1r","kind_detail":"2","name:right:gu":"\u0a95\u0aa4\u0abe\u0ab0 (\u0a85\u0ab0\u0aac\u0ab8\u0acd\u0aa4\u0abe\u0aa8)","name:right:ps":"\u0642\u0637\u0631","name:right:pt":"Catar","name:left:mk":"\u0421\u0430\u0443\u0434\u0438\u0441\u043a\u0430 \u0410\u0440\u0430\u0431\u0438\u0458\u0430","name:left:tr":"Suudi Arabistan","name:left:tt":"\u0421\u043e\u0433\u0443\u0434 \u0413\u0430\u0440\u04d9\u0431\u0441\u0442\u0430\u043d\u044b","name:left:mn":"\u0421\u0430\u0443\u0434\u044b\u043d \u0410\u0440\u0430\u0431","name:left:ml":"\u0d38\u0d57\u0d26\u0d3f \u0d05\u0d31\u0d47\u0d2c\u0d4d\u0d2f","name:left:th":"\u0e1b\u0e23\u0e30\u0e40\u0e17\u0e28\u0e0b\u0e32\u0e2d\u0e38\u0e14\u0e35\u0e2d\u0e32\u0e23\u0e30\u0e40\u0e1a\u0e35\u0e22","name:right:pa":"\u0a15\u0a24\u0a30","name:left:tk":"Saud Arabystany","name:left:tl":"Arabyang Saudi","name:left:mt":"Arabja Sawdija","name:right:gl":"Qatar - \u0642\u0637\u0631","name:left:my":"\u1006\u1031\u102c\u103a\u1012\u102e\u1021\u102c\u101b\u1031\u1017\u103b\u1014\u102d\u102f\u1004\u103a\u1004\u1036","name:right:pl":"Katar","name:left:te":"\u0c38\u0c4c\u0c26\u0c40 \u0c05\u0c30\u0c47\u0c2c\u0c3f\u0c2f\u0c3e","name:left:tg":"\u0410\u0440\u0430\u0431\u0438\u0441\u0442\u043e\u043d\u0438 \u0421\u0430\u0443\u0434\u04e3","name:left:ms":"Arab Saudi","name:left:mr":"\u0938\u094c\u0926\u0940 \u0905\u0930\u0947\u092c\u093f\u092f\u093e","name:left:da":"Saudi-Arabien","name:left:de":"Saudi-Arabien","name:left:dz":"\u0f66\u0f60\u0f74\u0f0b\u0f51\u0f72\u0f0b\u0f68\u0f7a\u0f0b\u0f62\u0f0b\u0f66\u0fa6\u0f72\u0f0b\u0f61\u0f0b","name:right:ga":"Catar","name:left:dv":"\u0790\u07a6\u0787\u07ab\u078b\u07a9 \u0787\u07a6\u0783\u07a6\u0784\u07a8\u0787\u07b0\u0794\u07a7","name:right:ug":"\u0642\u0627\u062a\u0627\u0631","name:left:hi":"\u0938\u0909\u0926\u0940 \u0905\u0930\u092c","name:right:lb":"Katar","name:right:uk":"\u041a\u0430\u0442\u0430\u0440","name:left:he":"\u05e2\u05e8\u05d1 \u05d4\u05e1\u05e2\u05d5\u05d3\u05d9\u05ea","name:right:ln":"Katar","name:right:li":"Katar","name:right:lt":"Kataras","name:right:ur":"\u0642\u0637\u0631","name:right:lv":"Katara","name:left:hy":"\u054d\u0561\u0578\u0582\u0564\u0575\u0561\u0576 \u0531\u0580\u0561\u0562\u056b\u0561","name:left:ta":"\u0b9a\u0bb5\u0bc2\u0ba4\u0bbf \u0b85\u0bb0\u0bc7\u0baa\u0bbf\u0baf\u0bbe","name:left:ht":"Arabi Sawoudit","name:left:hu":"Sza\u00fad-Ar\u00e1bia","name:left:hr":"Saudijska Arabija","sort_rank":262,"name:right:gd":"Catar","name:right:os":"\u041a\u0430\u0442\u0430\u0440","name:left:cy":"Saudi Arabia","name:right:es":"Qatar","name:right:sr":"\u041a\u0430\u0442\u0430\u0440","name:right:eu":"Qatar","name:right:et":"Katar","name:left:os":"\u0421\u0430\u0443\u0434\u044b \u0410\u0440\u0430\u0432\u0438","name:left:or":"\u0b38\u0b3e\u0b09\u0b26\u0b3f \u0b06\u0b30\u0b2c","name:right:ee":"Qatar","name:left:vo":"Sauda-Larab\u00e4n","name:left:oc":"Arabia Saudita","name:right:eo":"Kataro","name:right:en":"Qatar","name:right:el":"\u039a\u03b1\u03c4\u03ac\u03c1","name:left:fa":"\u0639\u0631\u0628\u0633\u062a\u0627\u0646 \u0633\u0639\u0648\u062f\u06cc","name:left:ia":"Arabia Saudita","name:left:fo":"Saudi-Arabia","name:right:sk":"Katar (\u0161t\u00e1t)","name:left:fi":"Saudi-Arabia","name:left:fr":"Arabie saoudite","name:left:fy":"Sa\u00fbdy-Araabje","name:right:ja":"\u30ab\u30bf\u30fc\u30eb","name:right:sq":"Katari","name:right:ss":"IKhathari","name:left:ja":"\u30b5\u30a6\u30b8\u30a2\u30e9\u30d3\u30a2","name:right:su":"Qatar","name:right:sw":"Qatar","name:right:sv":"Qatar","name:left:qu":"Sawud Arabya","name:right:jv":"Qatar","name:right:sl":"Katar","name:right:so":"Qatar","name:right:sa":"\u0915\u0924\u093e\u0930","name:left:jv":"Arab Saudi","id":-307584,"name:right:ca":"Qatar","name:right:se":"Qatar","name:right:ce":"\u041a\u0430\u0442\u0430\u0440","name:right:cy":"Qatar","name:right:cs":"Katar","name:right":"\u200f\u0642\u0637\u0631\u200e","name:right:cv":"\u041a\u0430\u0442\u0430\u0440","name:left:av":"\u0421\u0430\u0433I\u0443\u0434\u0438\u044f\u0437\u0443\u043b \u0413I\u0430\u0440\u0430\u0431\u0438\u044f","name:right:it":"Qatar","name:left:az":"S\u0259udiyy\u0259 \u018fr\u0259bistan\u0131","name:left:ro":"Arabia Saudit\u0103","name:left:af":"Saoedi-Arabi\u00eb","name:left:an":"Arabia Saud\u00ed","name:left:am":"\u1233\u12d1\u12f2 \u12a0\u1228\u1262\u12eb","name:right:ru":"\u041a\u0430\u0442\u0430\u0440","name:right:io":"Katar","name:left:zh-yue":"\u6c99\u5730\u963f\u62c9\u4f2f","name:left:rw":"Arabiya Sawudite","name:right:hy":"\u0554\u0561\u0569\u0561\u0580","name:left:lb":"Saudi-Arabien","alt_name:left:eo":"Sauda Arabio;Saud-Arabujo;Saud-Arabio","name:left:su":"Saudi Arabia","name:left:li":"Saoedi-Arabi\u00eb","name:right:hr":"Katar","name:left:sv":"Saudiarabien","name:left:sq":"Arabia Saudite","name:right:hu":"Katar","name:left:ln":"Saudi Arabia","name:left:sr":"\u0421\u0430\u0443\u0434\u0438\u0458\u0441\u043a\u0430 \u0410\u0440\u0430\u0431\u0438\u0458\u0430","name:right:hi":"\u0915\u093c\u0924\u0930","name:left:so":"Sacuudi Carabiya","name:left:si":"\u0dc3\u0dc0\u0dd4\u0daf\u0dd2 \u0d85\u0dbb\u0dcf\u0db6\u0dd2\u0dba\u0dcf\u0dc0","name:left:sh":"Saudijska Arabija","name:left:sk":"Saudsk\u00e1 Ar\u00e1bia","name:left:se":"Saudi-Ar\u00e1bia","name:left:sa":"\u0938\u090a\u0926\u0940 \u0905\u0930\u092c","name:right:he":"\u05e7\u05d8\u05d0\u05e8","name:right:la":"Quataria","name:right:af":"Katar","name:left:ce":"\u0421\u0430\u0443\u0434\u0438\u0439\u043d \u0410\u0440\u0430\u0432\u0438","name:right:an":"Qatar","name:right:am":"\u1243\u1323\u122d","name:left:ca":"Ar\u00e0bia Saudita","source":"openstreetmap.org","name:right:as":"\u0995\u09be\u099f\u09be\u09f0","name:left:cv":"\u0421\u0430\u0443\u0434 \u0410\u0440\u0430\u0432\u0438\u0439\u0115","name:right:az":"Q\u0259t\u0259r","name:left:cs":"Sa\u00fadsk\u00e1 Ar\u00e1bie","name":"\u0627\u0644\u0633\u0639\u0648\u062f\u064a\u0629 - \u200f\u0642\u0637\u0631\u200e","name:left:zh":"\u6c99\u7279\u963f\u62c9\u4f2f","name:right:zh":"\u5361\u5854\u5c14","official_name:left":"\u200f\u0627\u0644\u0645\u0645\u0644\u0643\u0629 \u0627\u0644\u0639\u0631\u0628\u064a\u0629 \u0627\u0644\u0633\u0639\u0648\u062f\u064a\u0629\u200e","name:left:uz":"Saudiya Arabistoni","name:right:fr":"Qatar","name:left:nv":"\u00c1s\u00e1\u00ed Bik\u00e9yah Sa\u02bcood\u00ed","name:left:ur":"\u0633\u0639\u0648\u062f\u06cc \u0639\u0631\u0628","id:right":-305095,"name:left:uk":"\u0421\u0430\u0443\u0434\u0456\u0432\u0441\u044c\u043a\u0430 \u0410\u0440\u0430\u0432\u0456\u044f","name:left:no":"Saudi-Arabia","name:left:nl":"Saoedi-Arabi\u00eb","name:right:fa":"\u0642\u0637\u0631","name:right:fo":"Katar","name:left:ne":"\u0938\u093e\u0909\u0926\u0940 \u0905\u0930\u092c","name:left:ug":"\u0633\u06d5\u0626\u06c7\u062f\u0649 \u0626\u06d5\u0631\u06d5\u0628\u0649\u0633\u062a\u0627\u0646","name:left:na":"Taudiarabiya","name:left:eo":"Sauda Arabujo","name:left:en":"Saudi Arabia","name:left:el":"\u03a3\u03b1\u03bf\u03c5\u03b4\u03b9\u03ba\u03ae \u0391\u03c1\u03b1\u03b2\u03af\u03b1","name:left:pl":"Arabia Saudyjska","name:left:es":"Arabia Saudita","name:left:ss":"I-Arabhiya","name:left:ie":"Saudi Arabia","name:left:eu":"Saudi Arabia","name:left:et":"Saudi Araabia","name:right:oc":"Qatar","name:right:ko":"\uce74\ud0c0\ub974","name:right:bs":"Katar","name:right:uz":"Qatar","osm_relation":true,"name:right:or":"\u0b15\u0b24\u0b30","name:left:pt":"Ar\u00e1bia Saudita","name:right:ku":"Qeter","name:right:tk":"Katar","min_zoom":8.0,"name:left:zh-min-nan":"Saud \u00ea A-la-pek","name:left:wo":"Araabi Sawdit","name:left:ga":"An Araib Sh\u00e1dach","name:left:it":"Arabia Saudita","name:left:gd":"Ar\u00e0ibia nan Sabhd","name:left:gl":"Arabia Saud\u00ed","name:left:gn":"Aravia Saud\u00edta","name:left:gu":"\u0ab8\u0abe\u0a89\u0aa6\u0ac0 \u0a85\u0ab0\u0ac7\u0aac\u0abf\u0aaf\u0abe","name:left:gv":"Yn Araab Saudi","name:left":"\u0627\u0644\u0633\u0639\u0648\u062f\u064a\u0629","name:right:mk":"\u041a\u0430\u0442\u0430\u0440","name:right:mn":"\u041a\u0430\u0442\u0430\u0440","name:right:ml":"\u0d16\u0d24\u0d4d\u0d24\u0d7c","name:right:vo":"Katar\u00e4n","name:right:vi":"Qatar","name:right:my":"\u1000\u102c\u1010\u102c\u1014\u102d\u102f\u1004\u103a\u1004\u1036","name:right:ms":"Qatar","name:right:mr":"\u0915\u0924\u093e\u0930","name:right:fy":"Katar","name:right:mt":"Qatar","name:left:nn":"Saudi-Arabia","kind":"country","name:left:br":"Arabia Saoudat","name:left:bs":"Saudijska Arabija","name:left:ba":"\u0421\u04d9\u0493\u04af\u0434 \u0492\u04d9\u0440\u04d9\u0431\u0441\u0442\u0430\u043d\u044b","name:left:bg":"\u0421\u0430\u0443\u0434\u0438\u0442\u0441\u043a\u0430 \u0410\u0440\u0430\u0431\u0438\u044f","name:right:kv":"\u041a\u0430\u0442\u0430\u0440","name:left:be":"\u0421\u0430\u0443\u0434\u0430\u045e\u0441\u043a\u0430\u044f \u0410\u0440\u0430\u0432\u0456\u044f","name:left:bn":"\u09b8\u09cc\u09a6\u09bf \u0986\u09b0\u09ac","name:left:bo":"\u0f66\u0f60\u0f74\u0f0b\u0f51\u0f72\u0f0b\u0f68\u0f0b\u0f62\u0f0b\u0f54\u0f72\u0f0b\u0f61\u0f0d","name:left:bm":"Saudia Arabu ka Faamamara","name:left:yo":"S\u00e1\u00fad\u00ed Ar\u00e1b\u00ed\u00e0","name:left:yi":"\u05e1\u05d0\u05d5\u05d3\u05d9 \u05d0\u05e8\u05d0\u05d1\u05d9\u05e2","id:left":-307584,"name:right:fi":"Qatar","name:right:ka":"\u10d9\u10d0\u10e2\u10d0\u10e0\u10d8","name:left:io":"Saudia Arabia","name:left:pa":"\u0a38\u0a09\u0a26\u0a40 \u0a05\u0a30\u0a2c","name:right:tt":"\u041a\u0430\u0442\u0430\u0440","name:right:kk":"\u041a\u0430\u0442\u0430\u0440","name:left:id":"Arab Saudi","name:right:kl":"Qatar","name:right:tr":"Katar","name:right:kn":"\u0c95\u0c9f\u0cbe\u0cb0\u0ccd","name:right:tl":"Katar","name:right:th":"\u0e1b\u0e23\u0e30\u0e40\u0e17\u0e28\u0e01\u0e32\u0e15\u0e32\u0e23\u0e4c","name:right:kw":"Katar","name:left:ps":"\u0633\u0639\u0648\u062f\u064a \u0639\u0631\u0628\u0633\u062a\u0627\u0646","name:right:te":"\u0c15\u0c24\u0c30\u0c4d","name:right:tg":"\u049a\u0430\u0442\u0430\u0440","name:left:is":"S\u00e1d\u00ed-Arab\u00eda","name:right:ta":"\u0b95\u0ba4\u0bcd\u0ba4\u0bbe\u0bb0\u0bcd","name:right:de":"Katar","name:right:da":"Qatar","name:right:dz":"\u0f40\u0f0b\u0f4f\u0f62\u0f0b","name:right:dv":"\u07a4\u07a6\u07a0\u07a6\u0783\u07aa","name:right:ht":"Katar"},"arcs":[4]},{"type":"MultiLineString","properties":{"name:right:yo":"Katar","name:right:yi":"\u05e7\u05d0\u05d8\u05d0\u05e8","name:right:hy":"\u0554\u0561\u0569\u0561\u0580","name:left:lb":"Saudi-Arabien","name:right:el":"\u039a\u03b1\u03c4\u03ac\u03c1","name:right:hr":"Katar","name:left:ka":"\u10e1\u10d0\u10e3\u10d3\u10d8\u10e1 \u10d0\u10e0\u10d0\u10d1\u10d4\u10d7\u10d8","name:left:km":"\u17a2\u17b6\u179a\u17c9\u17b6\u1794\u17ca\u17b8\u179f\u17b6\u17a2\u17bc\u178c\u17b8\u178f","name:left:kl":"Saudi Arabia","name:left:ko":"\uc0ac\uc6b0\ub514\uc544\ub77c\ube44\uc544","name:left:kn":"\u0cb8\u0ccc\u0ca6\u0cbf \u0c85\u0cb0\u0cc6\u0cac\u0cbf\u0caf","name:right:is":"Katar","name:right:rw":"Katari","name:left:kk":"\u0421\u0430\u0443\u0434 \u0410\u0440\u0430\u0431\u0438\u044f\u0441\u044b","name:left:rm":"Arabia Saudita","name:left:ku":"Erebistana Siy\u00fbd\u00ee","name:left:kw":"Arabi Saoudek","name:left:kv":"\u0421\u0430\u0443\u0434\u0441\u0430 \u0410\u0440\u0430\u0432\u0438\u044f","name:right:ro":"Qatar","name:left:ru":"\u0421\u0430\u0443\u0434\u043e\u0432\u0441\u043a\u0430\u044f \u0410\u0440\u0430\u0432\u0438\u044f","name:right:ie":"Katar","name:right:id":"Qatar","name:left:ky":"\u0421\u0430\u0443\u0434 \u0410\u0440\u0430\u0431\u0438\u044f \u041f\u0430\u0434\u044b\u0448\u0430\u043b\u044b\u0433\u044b","name:right:bn":"\u0995\u09be\u09a4\u09be\u09b0","name:right:bo":"\u0f41\u0f0b\u0f4f\u0f62\u0f0d","name:right:hi":"\u0915\u093c\u0924\u0930","name:right:bg":"\u041a\u0430\u0442\u0430\u0440","name:right:be":"\u041a\u0430\u0442\u0430\u0440","name:right:br":"Katar","name:left:si":"\u0dc3\u0dc0\u0dd4\u0daf\u0dd2 \u0d85\u0dbb\u0dcf\u0db6\u0dd2\u0dba\u0dcf\u0dc0","name:right:nn":"Qatar","name:right:no":"Qatar","name:right:nl":"Qatar","name:left:sk":"Saudsk\u00e1 Ar\u00e1bia","name:right:wo":"Kataar","name:right:na":"Qatar","name:right:ps":"\u0642\u0637\u0631","alt_name:left:vi":"\u1ea2 R\u1eadp X\u00ea \u00dat;A-r\u1eadp X\u00ea-\u00fat","name:right:nv":"K\u02bcat\u00e1r","kind_detail":"2","name:right:gu":"\u0a95\u0aa4\u0abe\u0ab0 (\u0a85\u0ab0\u0aac\u0ab8\u0acd\u0aa4\u0abe\u0aa8)","name:right:gv":"Yn Chatar","name:right:pt":"Catar","name:left:mk":"\u0421\u0430\u0443\u0434\u0438\u0441\u043a\u0430 \u0410\u0440\u0430\u0431\u0438\u0458\u0430","name:left:tr":"Suudi Arabistan","name:left:tt":"\u0421\u043e\u0433\u0443\u0434 \u0413\u0430\u0440\u04d9\u0431\u0441\u0442\u0430\u043d\u044b","name:left:mn":"\u0421\u0430\u0443\u0434\u044b\u043d \u0410\u0440\u0430\u0431","name:left:ml":"\u0d38\u0d57\u0d26\u0d3f \u0d05\u0d31\u0d47\u0d2c\u0d4d\u0d2f","name:left:th":"\u0e1b\u0e23\u0e30\u0e40\u0e17\u0e28\u0e0b\u0e32\u0e2d\u0e38\u0e14\u0e35\u0e2d\u0e32\u0e23\u0e30\u0e40\u0e1a\u0e35\u0e22","name:right:pa":"\u0a15\u0a24\u0a30","name:left:tk":"Saud Arabystany","name:left:tl":"Arabyang Saudi","name:left:mt":"Arabja Sawdija","name:right:gl":"Qatar - \u0642\u0637\u0631","name:left:my":"\u1006\u1031\u102c\u103a\u1012\u102e\u1021\u102c\u101b\u1031\u1017\u103b\u1014\u102d\u102f\u1004\u103a\u1004\u1036","name:right:pl":"Katar","name:left:te":"\u0c38\u0c4c\u0c26\u0c40 \u0c05\u0c30\u0c47\u0c2c\u0c3f\u0c2f\u0c3e","name:left:tg":"\u0410\u0440\u0430\u0431\u0438\u0441\u0442\u043e\u043d\u0438 \u0421\u0430\u0443\u0434\u04e3","name:left:ms":"Arab Saudi","name:left:mr":"\u0938\u094c\u0926\u0940 \u0905\u0930\u0947\u092c\u093f\u092f\u093e","name:left:da":"Saudi-Arabien","name:left:de":"Saudi-Arabien","name:left:dz":"\u0f66\u0f60\u0f74\u0f0b\u0f51\u0f72\u0f0b\u0f68\u0f7a\u0f0b\u0f62\u0f0b\u0f66\u0fa6\u0f72\u0f0b\u0f61\u0f0b","name:right:ga":"Catar","name:left:dv":"\u0790\u07a6\u0787\u07ab\u078b\u07a9 \u0787\u07a6\u0783\u07a6\u0784\u07a8\u0787\u07b0\u0794\u07a7","name:right:ug":"\u0642\u0627\u062a\u0627\u0631","name:left:hi":"\u0938\u0909\u0926\u0940 \u0905\u0930\u092c","name:right:lb":"Katar","name:right:uk":"\u041a\u0430\u0442\u0430\u0440","name:left:he":"\u05e2\u05e8\u05d1 \u05d4\u05e1\u05e2\u05d5\u05d3\u05d9\u05ea","name:right:ln":"Katar","name:right:li":"Katar","name:right:lt":"Kataras","name:right:ur":"\u0642\u0637\u0631","name:right:lv":"Katara","name:left:hy":"\u054d\u0561\u0578\u0582\u0564\u0575\u0561\u0576 \u0531\u0580\u0561\u0562\u056b\u0561","name:left:ta":"\u0b9a\u0bb5\u0bc2\u0ba4\u0bbf \u0b85\u0bb0\u0bc7\u0baa\u0bbf\u0baf\u0bbe","name:left:ht":"Arabi Sawoudit","name:left:hu":"Sza\u00fad-Ar\u00e1bia","name:left:hr":"Saudijska Arabija","sort_rank":262,"name:right:gd":"Catar","osm_relation":true,"name:right:as":"\u0995\u09be\u099f\u09be\u09f0","name:right:es":"Qatar","name:left:ja":"\u30b5\u30a6\u30b8\u30a2\u30e9\u30d3\u30a2","name:right:eu":"Qatar","name:right:et":"Katar","name:left:os":"\u0421\u0430\u0443\u0434\u044b \u0410\u0440\u0430\u0432\u0438","name:left:or":"\u0b38\u0b3e\u0b09\u0b26\u0b3f \u0b06\u0b30\u0b2c","name:right:ee":"Qatar","name:left:vo":"Sauda-Larab\u00e4n","name:left:oc":"Arabia Saudita","name:right:eo":"Kataro","name:right:en":"Qatar","name:left:vi":"\u1ea2 R\u1eadp Saudi","name:left:fa":"\u0639\u0631\u0628\u0633\u062a\u0627\u0646 \u0633\u0639\u0648\u062f\u06cc","name:left:fo":"Saudi-Arabia","name:left:qu":"Sawud Arabya","name:left:fi":"Saudi-Arabia","name:left:fr":"Arabie saoudite","name:left:fy":"Sa\u00fbdy-Araabje","name:right:ja":"\u30ab\u30bf\u30fc\u30eb","name:right:sq":"Katari","name:right:ss":"IKhathari","name:right:sr":"\u041a\u0430\u0442\u0430\u0440","name:right:su":"Qatar","name:right:sw":"Qatar","name:right:sv":"Qatar","name:right:sk":"Katar (\u0161t\u00e1t)","name:right:jv":"Qatar","name:right:sl":"Katar","name:right:so":"Qatar","name:right:sa":"\u0915\u0924\u093e\u0930","name:left:jv":"Arab Saudi","id":-307584,"name:right:ca":"Qatar","name:right:se":"Qatar","name:right:ce":"\u041a\u0430\u0442\u0430\u0440","name:right:cy":"Qatar","name:right:cs":"Katar","name:left:bm":"Saudia Arabu ka Faamamara","name:right:cv":"\u041a\u0430\u0442\u0430\u0440","name:left:av":"\u0421\u0430\u0433I\u0443\u0434\u0438\u044f\u0437\u0443\u043b \u0413I\u0430\u0440\u0430\u0431\u0438\u044f","name:right:it":"Qatar","name:left:az":"S\u0259udiyy\u0259 \u018fr\u0259bistan\u0131","name:left:ro":"Arabia Saudit\u0103","name:left:af":"Saoedi-Arabi\u00eb","name:left:an":"Arabia Saud\u00ed","name:left:am":"\u1233\u12d1\u12f2 \u12a0\u1228\u1262\u12eb","name:right:ru":"\u041a\u0430\u0442\u0430\u0440","name:right:io":"Katar","name:left:zh-yue":"\u6c99\u5730\u963f\u62c9\u4f2f","name:left:rw":"Arabiya Sawudite","name:left:la":"Arabia Saudiana","name:right:qu":"Qatar","alt_name:left:eo":"Sauda Arabio;Saud-Arabujo;Saud-Arabio","name:left:su":"Saudi Arabia","name:left:li":"Saoedi-Arabi\u00eb","name:left:sw":"Saudia","name:left:sv":"Saudiarabien","name:left:sq":"Arabia Saudite","name:right:hu":"Katar","name:left:ln":"Saudi Arabia","name:left:sr":"\u0421\u0430\u0443\u0434\u0438\u0458\u0441\u043a\u0430 \u0410\u0440\u0430\u0431\u0438\u0458\u0430","name:left:sl":"Saudova Arabija","name:left:so":"Sacuudi Carabiya","name:left:lt":"Saudo Arabija","name:left:sh":"Saudijska Arabija","name:left:lv":"Sa\u016bda Ar\u0101bija","name:left:se":"Saudi-Ar\u00e1bia","name:left:sa":"\u0938\u090a\u0926\u0940 \u0905\u0930\u092c","name:right:he":"\u05e7\u05d8\u05d0\u05e8","name:right:la":"Quataria","name:right:af":"Katar","name:left:ce":"\u0421\u0430\u0443\u0434\u0438\u0439\u043d \u0410\u0440\u0430\u0432\u0438","name:right:an":"Qatar","name:right:am":"\u1243\u1323\u122d","name:left:ca":"Ar\u00e0bia Saudita","source":"openstreetmap.org","name:left:cy":"Saudi Arabia","name:left:cv":"\u0421\u0430\u0443\u0434 \u0410\u0440\u0430\u0432\u0438\u0439\u0115","name:right:az":"Q\u0259t\u0259r","name:left:cs":"Sa\u00fadsk\u00e1 Ar\u00e1bie","name":"\u0627\u0644\u0633\u0639\u0648\u062f\u064a\u0629 - \u200f\u0642\u0637\u0631\u200e","name:left:zh":"\u6c99\u7279\u963f\u62c9\u4f2f","name:right:zh":"\u5361\u5854\u5c14","official_name:left":"\u200f\u0627\u0644\u0645\u0645\u0644\u0643\u0629 \u0627\u0644\u0639\u0631\u0628\u064a\u0629 \u0627\u0644\u0633\u0639\u0648\u062f\u064a\u0629\u200e","name:left:uz":"Saudiya Arabistoni","name:right:fr":"Qatar","name:left:ps":"\u0633\u0639\u0648\u062f\u064a \u0639\u0631\u0628\u0633\u062a\u0627\u0646","name:left:nv":"\u00c1s\u00e1\u00ed Bik\u00e9yah Sa\u02bcood\u00ed","name:left:ur":"\u0633\u0639\u0648\u062f\u06cc \u0639\u0631\u0628","id:right":-305095,"name:left:uk":"\u0421\u0430\u0443\u0434\u0456\u0432\u0441\u044c\u043a\u0430 \u0410\u0440\u0430\u0432\u0456\u044f","name:left:no":"Saudi-Arabia","name:left:nl":"Saoedi-Arabi\u00eb","name:right:fa":"\u0642\u0637\u0631","name:right:fo":"Katar","name:left:ne":"\u0938\u093e\u0909\u0926\u0940 \u0905\u0930\u092c","name:left:ug":"\u0633\u06d5\u0626\u06c7\u062f\u0649 \u0626\u06d5\u0631\u06d5\u0628\u0649\u0633\u062a\u0627\u0646","name:left:na":"Taudiarabiya","name:left:eo":"Sauda Arabujo","name:left:en":"Saudi Arabia","name:left:el":"\u03a3\u03b1\u03bf\u03c5\u03b4\u03b9\u03ba\u03ae \u0391\u03c1\u03b1\u03b2\u03af\u03b1","name:right:tt":"\u041a\u0430\u0442\u0430\u0440","name:left:es":"Arabia Saudita","name:left:ss":"I-Arabhiya","name:right:kk":"\u041a\u0430\u0442\u0430\u0440","name:left:eu":"Saudi Arabia","name:left:et":"Saudi Araabia","name:right:oc":"Qatar","name:right:tr":"Katar","name:right:bs":"Katar","name:right:uz":"Qatar","name:right:os":"\u041a\u0430\u0442\u0430\u0440","name:right:or":"\u0b15\u0b24\u0b30","name:right:tl":"Katar","name:right:th":"\u0e1b\u0e23\u0e30\u0e40\u0e17\u0e28\u0e01\u0e32\u0e15\u0e32\u0e23\u0e4c","name:right:ko":"\uce74\ud0c0\ub974","min_zoom":8.0,"name:right:te":"\u0c15\u0c24\u0c30\u0c4d","name:left:wo":"Araabi Sawdit","name:left:ga":"An Araib Sh\u00e1dach","name:right:tg":"\u049a\u0430\u0442\u0430\u0440","name:left:gd":"Ar\u00e0ibia nan Sabhd","name:left:gl":"Arabia Saud\u00ed","name:left:gn":"Aravia Saud\u00edta","name:left:gu":"\u0ab8\u0abe\u0a89\u0aa6\u0ac0 \u0a85\u0ab0\u0ac7\u0aac\u0abf\u0aaf\u0abe","name:right:tk":"Katar","name:left:gv":"Yn Araab Saudi","name:left":"\u0627\u0644\u0633\u0639\u0648\u062f\u064a\u0629","name:right:mk":"\u041a\u0430\u0442\u0430\u0440","name:right:mn":"\u041a\u0430\u0442\u0430\u0440","name:right:ml":"\u0d16\u0d24\u0d4d\u0d24\u0d7c","name:right:vo":"Katar\u00e4n","name:right:vi":"Qatar","name:right:my":"\u1000\u102c\u1010\u102c\u1014\u102d\u102f\u1004\u103a\u1004\u1036","name:right:ms":"Qatar","name:right:mr":"\u0915\u0924\u093e\u0930","name:right:fy":"Katar","name:right:mt":"Qatar","name:left:nn":"Saudi-Arabia","kind":"country","name:left:br":"Arabia Saoudat","name:left:bs":"Saudijska Arabija","name:left:ba":"\u0421\u04d9\u0493\u04af\u0434 \u0492\u04d9\u0440\u04d9\u0431\u0441\u0442\u0430\u043d\u044b","name:left:bg":"\u0421\u0430\u0443\u0434\u0438\u0442\u0441\u043a\u0430 \u0410\u0440\u0430\u0431\u0438\u044f","name:left:be":"\u0421\u0430\u0443\u0434\u0430\u045e\u0441\u043a\u0430\u044f \u0410\u0440\u0430\u0432\u0456\u044f","name:left:bn":"\u09b8\u09cc\u09a6\u09bf \u0986\u09b0\u09ac","name:left:bo":"\u0f66\u0f60\u0f74\u0f0b\u0f51\u0f72\u0f0b\u0f68\u0f0b\u0f62\u0f0b\u0f54\u0f72\u0f0b\u0f61\u0f0d","name:right":"\u200f\u0642\u0637\u0631\u200e","name:left:yo":"S\u00e1\u00fad\u00ed Ar\u00e1b\u00ed\u00e0","name:left:yi":"\u05e1\u05d0\u05d5\u05d3\u05d9 \u05d0\u05e8\u05d0\u05d1\u05d9\u05e2","id:left":-307584,"name:right:fi":"Qatar","name:right:ka":"\u10d9\u10d0\u10e2\u10d0\u10e0\u10d8","name:left:io":"Saudia Arabia","name:left:pa":"\u0a38\u0a09\u0a26\u0a40 \u0a05\u0a30\u0a2c","name:left:pl":"Arabia Saudyjska","name:left:ie":"Saudi Arabia","name:left:id":"Arab Saudi","name:right:kl":"Qatar","name:left:ia":"Arabia Saudita","name:right:kn":"\u0c95\u0c9f\u0cbe\u0cb0\u0ccd","name:left:pt":"Ar\u00e1bia Saudita","name:right:ku":"Qeter","name:right:kw":"Katar","name:right:kv":"\u041a\u0430\u0442\u0430\u0440","name:left:zh-min-nan":"Saud \u00ea A-la-pek","name:left:it":"Arabia Saudita","name:left:is":"S\u00e1d\u00ed-Arab\u00eda","name:right:ta":"\u0b95\u0ba4\u0bcd\u0ba4\u0bbe\u0bb0\u0bcd","name:right:de":"Katar","name:right:da":"Qatar","maritime_boundary":true,"name:right:dz":"\u0f40\u0f0b\u0f4f\u0f62\u0f0b","name:right:dv":"\u07a4\u07a6\u07a0\u07a6\u0783\u07aa","name:right:ht":"Katar"},"arcs":[[5],[6]]},{"type":"LineString","properties":{"name:pt":"Catar","name:ps":"\u0642\u0637\u0631","name:ka":"\u10d9\u10d0\u10e2\u10d0\u10e0\u10d8","name:ko":"\uce74\ud0c0\ub974","name:cv":"\u041a\u0430\u0442\u0430\u0440","name:tr":"Katar","name:kl":"Qatar","name:cs":"Katar","name:tt":"\u041a\u0430\u0442\u0430\u0440","name:kw":"Katar","name:kv":"\u041a\u0430\u0442\u0430\u0440","name:ku":"Qeter","name:az":"Q\u0259t\u0259r","name:tl":"Katar","name:pa":"\u0a15\u0a24\u0a30","name:os":"\u041a\u0430\u0442\u0430\u0440","name:or":"\u0b15\u0b24\u0b30","name:ce":"\u041a\u0430\u0442\u0430\u0440","name:ta":"\u0b95\u0ba4\u0bcd\u0ba4\u0bbe\u0bb0\u0bcd","name:tg":"\u049a\u0430\u0442\u0430\u0440","name:ca":"Qatar","name:te":"\u0c15\u0c24\u0c30\u0c4d","name:li":"Katar","name:fo":"Katar","name:cy":"Qatar","sort_rank":262,"name:qu":"Qatar","name:da":"Qatar","name:sw":"Qatar","name:de":"Katar","name:dz":"\u0f40\u0f0b\u0f4f\u0f62\u0f0b","source":"openstreetmap.org","name:nv":"K\u02bcat\u00e1r","name:kn":"\u0c95\u0c9f\u0cbe\u0cb0\u0ccd","name:be":"\u041a\u0430\u0442\u0430\u0440","name:dv":"\u07a4\u07a6\u07a0\u07a6\u0783\u07aa","name:lv":"Katara","name:lt":"Kataras","name:uz":"Qatar","name:kk":"\u041a\u0430\u0442\u0430\u0440","name:he":"\u05e7\u05d8\u05d0\u05e8","name:eo":"Kataro","name:ur":"\u0642\u0637\u0631","name:lb":"Katar","name:la":"Quataria","name:uk":"\u041a\u0430\u0442\u0430\u0440","name:hy":"\u0554\u0561\u0569\u0561\u0580","name:ug":"\u0642\u0627\u062a\u0627\u0631","name:hu":"Katar","name:ln":"Katar","name:oc":"Qatar","name:el":"\u039a\u03b1\u03c4\u03ac\u03c1","kind":"country","name:en":"Qatar","name":"\u200f\u0642\u0637\u0631\u200e","name:tk":"Katar","name:ee":"Qatar","min_zoom":8.0,"name:th":"\u0e1b\u0e23\u0e30\u0e40\u0e17\u0e28\u0e01\u0e32\u0e15\u0e32\u0e23\u0e4c","name:eu":"Qatar","name:et":"Katar","name:es":"Qatar","name:mt":"Qatar","name:ro":"Qatar","name:ie":"Katar","name:id":"Qatar","name:ms":"Qatar","name:mr":"\u0915\u0924\u093e\u0930","name:as":"\u0995\u09be\u099f\u09be\u09f0","name:an":"Qatar","name:my":"\u1000\u102c\u1010\u102c\u1014\u102d\u102f\u1004\u103a\u1004\u1036","name:io":"Katar","name:is":"Katar","name:am":"\u1243\u1323\u122d","name:it":"Qatar","name:ml":"\u0d16\u0d24\u0d4d\u0d24\u0d7c","name:vi":"Qatar","name:rw":"Katari","name:pl":"Katar","name:mk":"\u041a\u0430\u0442\u0430\u0440","name:af":"Katar","name:fa":"\u0642\u0637\u0631","name:mn":"\u041a\u0430\u0442\u0430\u0440","name:ss":"IKhathari","kind_detail":"2","name:hi":"\u0915\u093c\u0924\u0930","id":-305095,"name:fr":"Qatar","name:fy":"Katar","name:vo":"Katar\u00e4n","name:zh":"\u5361\u5854\u5c14","name:hr":"Katar","name:so":"Qatar","name:sl":"Katar","name:nl":"Qatar","name:ja":"\u30ab\u30bf\u30fc\u30eb","name:nn":"Qatar","name:no":"Qatar","name:na":"Qatar","name:se":"Qatar","name:sa":"\u0915\u0924\u093e\u0930","name:bs":"Katar","name:yi":"\u05e7\u05d0\u05d8\u05d0\u05e8","name:bn":"\u0995\u09be\u09a4\u09be\u09b0","name:bo":"\u0f41\u0f0b\u0f4f\u0f62\u0f0d","name:sk":"Katar (\u0161t\u00e1t)","name:br":"Katar","name:ru":"\u041a\u0430\u0442\u0430\u0440","name:sv":"Qatar","name:su":"Qatar","name:bg":"\u041a\u0430\u0442\u0430\u0440","name:wo":"Kataar","name:sr":"\u041a\u0430\u0442\u0430\u0440","osm_relation":true,"name:sq":"Katari","name:ga":"Catar","name:gd":"Catar","name:yo":"Katar","name:ht":"Katar","name:jv":"Qatar","name:gl":"Qatar - \u0642\u0637\u0631","maritime_boundary":true,"name:gv":"Yn Chatar","name:gu":"\u0a95\u0aa4\u0abe\u0ab0 (\u0a85\u0ab0\u0aac\u0ab8\u0acd\u0aa4\u0abe\u0aa8)","name:fi":"Qatar"},"arcs":[7]},{"type":"LineString","properties":{"kind":"region","name:en":"Abu Dhabi","name":"\u0623\u0628\u0648 \u0638\u0628\u064a","sort_rank":256,"kind_detail":"4","min_zoom":8.0,"name:de":"Abu Dhabi","source":"openstreetmap.org","maritime_boundary":true,"name:ru":"\u0410\u0431\u0443-\u0414\u0430\u0431\u0438","id":-3766481,"osm_relation":true},"arcs":[8]},{"type":"LineString","properties":{"id:right":-27336,"min_zoom":8.0,"name:left:ru":"\u042d\u0448-\u0428\u0430\u0440\u043a\u0438\u0439\u044f","id":-3667294,"osm_relation":true,"name:left:en":"Eastern Region","kind":"region","name":"\u0627\u0644\u0645\u0646\u0637\u0642\u0629 \u0627\u0644\u0634\u0631\u0642\u064a\u0629 - \u062c\u0631\u064a\u0627\u0646 \u0627\u0644\u0628\u0627\u0637\u0646\u0629","sort_rank":256,"kind_detail":"4","name:left:de":"\u00d6stliche Provinz","name:right:en":"Jariyan Al Batnah","source":"openstreetmap.org","id:left":-3667294,"name:right":"\u062c\u0631\u064a\u0627\u0646 \u0627\u0644\u0628\u0627\u0637\u0646\u0629","name:left:cs":"provincie Damm\u00e1m","name:left":"\u0627\u0644\u0645\u0646\u0637\u0642\u0629 \u0627\u0644\u0634\u0631\u0642\u064a\u0629"},"arcs":[9]},{"type":"LineString","properties":{"kind":"region","name:en":"Eastern Region","name":"\u0627\u0644\u0645\u0646\u0637\u0642\u0629 \u0627\u0644\u0634\u0631\u0642\u064a\u0629","sort_rank":256,"kind_detail":"4","name:cs":"provincie Damm\u00e1m","name:de":"\u00d6stliche Provinz","source":"openstreetmap.org","min_zoom":8.0,"name:ru":"\u042d\u0448-\u0428\u0430\u0440\u043a\u0438\u0439\u044f","id":-3667294,"osm_relation":true},"arcs":[10]},{"type":"MultiLineString","properties":{"kind":"region","name:en":"Eastern Region","name":"\u0627\u0644\u0645\u0646\u0637\u0642\u0629 \u0627\u0644\u0634\u0631\u0642\u064a\u0629","sort_rank":256,"kind_detail":"4","name:cs":"provincie Damm\u00e1m","min_zoom":8.0,"name:de":"\u00d6stliche Provinz","source":"openstreetmap.org","maritime_boundary":true,"name:ru":"\u042d\u0448-\u0428\u0430\u0440\u043a\u0438\u0439\u044f","id":-3667294,"osm_relation":true},"arcs":[[11],[12]]},{"type":"LineString","properties":{"kind":"region","name:en":"Southern Governorate","name":"\u0627\u0644\u0645\u062d\u0627\u0641\u0638\u0629 \u0627\u0644\u062c\u0646\u0648\u0628\u064a\u0629","sort_rank":256,"kind_detail":"4","min_zoom":8.0,"source":"openstreetmap.org","maritime_boundary":true,"name:ru":"\u042e\u0436\u043d\u0430\u044f \u043f\u0440\u043e\u0432\u0438\u043d\u0446\u0438\u044f","name:bg":"\u042e\u0436\u043d\u0430 \u043f\u0440\u043e\u0432\u0438\u043d\u0446\u0438\u044f","id":-2522430,"osm_relation":true},"arcs":[13]},{"type":"MultiLineString","properties":{"kind":"region","name:en":"Jariyan Al Batnah","name":"\u062c\u0631\u064a\u0627\u0646 \u0627\u0644\u0628\u0627\u0637\u0646\u0629","sort_rank":256,"kind_detail":"4","source":"openstreetmap.org","min_zoom":8.0,"id":-27336,"osm_relation":true},"arcs":[[14],[15],[16],[17],[18]]},{"type":"MultiLineString","properties":{"kind":"region","name:en":"Jariyan Al Batnah","name":"\u062c\u0631\u064a\u0627\u0646 \u0627\u0644\u0628\u0627\u0637\u0646\u0629","sort_rank":256,"kind_detail":"4","min_zoom":8.0,"source":"openstreetmap.org","maritime_boundary":true,"id":-27336,"osm_relation":true},"arcs":[[19],[20],[21],[22],[23]]}]},"roads":{"type":"GeometryCollection","geometries":[{"type":"MultiLineString","properties":{"source":"openstreetmap.org","kind":"highway","landuse_kind":"urban_area","sort_rank":383,"kind_detail":"motorway","ref":"G Ring","min_zoom":8.0},"arcs":[[41],[42]]},{"type":"MultiLineString","properties":{"kind":"highway","name:en":"E Ring Road","sort_rank":383,"kind_detail":"motorway","source":"openstreetmap.org","min_zoom":8.0,"landuse_kind":"urban_area","ref":"E Ring"},"arcs":[[43],[44]]},{"type":"MultiLineString","properties":{"source":"openstreetmap.org","kind":"major_road","name:en":"Al Luqta","landuse_kind":"urban_area","sort_rank":380,"kind_detail":"primary","min_zoom":8.0},"arcs":[[45],[46],[47],[48],[49],[50]]},{"type":"MultiLineString","properties":{"source":"openstreetmap.org","kind":"major_road","alt_name:en":"Street 6","name:en":"Energy Street","sort_rank":380,"kind_detail":"primary","min_zoom":8.0},"arcs":[[51],[52],[53]]},{"type":"LineString","properties":{"kind":"major_road","name:en":"Al Corniche Street","sort_rank":380,"kind_detail":"primary","source":"openstreetmap.org","min_zoom":8.0,"landuse_kind":"urban_area","ref":"C Ring"},"arcs":[54]},{"type":"MultiLineString","properties":{"kind":"highway","name:en":"F Ring Road","sort_rank":383,"kind_detail":"motorway","source":"openstreetmap.org","min_zoom":8.0,"landuse_kind":"urban_area","ref":"F Ring"},"arcs":[[55],[56],[57],[58]]},{"type":"MultiLineString","properties":{"source":"openstreetmap.org","kind":"major_road","name:en":"Suhaim Bin Hamad Street","landuse_kind":"urban_area","sort_rank":380,"kind_detail":"primary","min_zoom":8.0},"arcs":[[59],[60]]},{"type":"MultiLineString","properties":{"source":"openstreetmap.org","kind":"major_road","name:en":"Al Tarfa","sort_rank":380,"kind_detail":"primary","min_zoom":8.0},"arcs":[[61],[62]]},{"type":"LineString","properties":{"kind":"major_road","name:en":"E Ring Road","sort_rank":380,"landuse_kind":"urban_area","source":"openstreetmap.org","min_zoom":8.0,"kind_detail":"primary","id":306437472},"arcs":[63]},{"type":"MultiLineString","properties":{"source":"openstreetmap.org","kind":"major_road","name:en":"Onaiza Street","landuse_kind":"urban_area","sort_rank":380,"kind_detail":"primary","min_zoom":8.0},"arcs":[[64],[65]]},{"type":"MultiLineString","properties":{"source":"openstreetmap.org","kind":"major_road","name:en":"Al Rayyan Al Jadeed Street","sort_rank":380,"kind_detail":"primary","ref":"Q3","min_zoom":8.0},"arcs":[[66],[67]]},{"type":"MultiLineString","properties":{"source":"openstreetmap.org","kind":"major_road","name:en":"Najma Street","sort_rank":380,"kind_detail":"primary","min_zoom":8.0},"arcs":[[68],[69]]},{"type":"MultiLineString","properties":{"source":"openstreetmap.org","kind":"major_road","name:en":"Al Khaleej Street","landuse_kind":"urban_area","sort_rank":380,"kind_detail":"primary","min_zoom":8.0},"arcs":[[70],[71],[72],[73]]},{"type":"MultiLineString","properties":{"source":"openstreetmap.org","kind":"major_road","name:en":"Al Waab Street","kind_detail":"primary","sort_rank":380,"landuse_kind":"urban_area","min_zoom":8.0},"arcs":[[74],[75],[76],[77]]},{"type":"LineString","properties":{"kind":"major_road","name:en":"B Ring Road","sort_rank":380,"kind_detail":"primary","bus_network":null,"source":"openstreetmap.org","min_zoom":8.0,"alt_name:en":"Street 220","bus_shield_text":"76","landuse_kind":"urban_area","ref":"B Ring","id":492402221},"arcs":[78]},{"type":"MultiLineString","properties":{"source":"openstreetmap.org","kind":"major_road","name:en":"Ahmed Bin Ali Street","landuse_kind":"urban_area","sort_rank":380,"kind_detail":"primary","min_zoom":8.0},"arcs":[[79],[80]]},{"type":"MultiLineString","properties":{"bus_network":null,"name:en":"Al Corniche Street","sort_rank":380,"kind_detail":"primary","kind":"major_road","source":"openstreetmap.org","min_zoom":8.0,"bus_shield_text":"76","landuse_kind":"urban_area","ref":"C Ring"},"arcs":[[81],[82],[83],[84]]},{"type":"MultiLineString","properties":{"source":"openstreetmap.org","kind":"highway","name:en":"Ras Bu Abboud Street","landuse_kind":"urban_area","sort_rank":383,"kind_detail":"motorway","min_zoom":8.0},"arcs":[[85],[86]]},{"type":"LineString","properties":{"kind":"major_road","name:en":"Shaqab Roundabout","sort_rank":380,"landuse_kind":"urban_area","source":"openstreetmap.org","min_zoom":8.0,"kind_detail":"primary","id":25931004},"arcs":[87]},{"type":"LineString","properties":{"kind":"highway","name:en":"F Ring Road","sort_rank":383,"kind_detail":"motorway","source":"openstreetmap.org","min_zoom":8.0,"landuse_kind":"aerodrome","ref":"F Ring","id":154119625},"arcs":[88]},{"type":"MultiLineString","properties":{"source":"openstreetmap.org","kind":"major_road","name:en":"Al Khor Coastal Road","landuse_kind":"residential","sort_rank":380,"kind_detail":"primary","min_zoom":8.0},"arcs":[[89],[90],[91],[92]]},{"type":"LineString","properties":{"kind":"major_road","name:en":"Al Matar Street","sort_rank":380,"kind_detail":"primary","bus_network":null,"source":"openstreetmap.org","min_zoom":8.0,"bus_shield_text":"94","landuse_kind":"urban_area","ref":"Q1A","id":158426276},"arcs":[93]},{"type":"MultiLineString","properties":{"source":"openstreetmap.org","kind":"major_road","name:en":"East Industrial Street","landuse_kind":"urban_area","sort_rank":380,"kind_detail":"primary","min_zoom":8.0},"arcs":[[94],[95],[96],[97]]},{"type":"LineString","properties":{"bus_network":null,"name:en":"Wadi Mushaireb Street","sort_rank":380,"kind_detail":"primary","kind":"major_road","source":"openstreetmap.org","min_zoom":8.0,"bus_shield_text":"94","landuse_kind":"urban_area"},"arcs":[98]},{"type":"MultiLineString","properties":{"source":"openstreetmap.org","kind":"major_road","name:en":"Bu Shaddad","landuse_kind":"urban_area","sort_rank":380,"kind_detail":"primary","min_zoom":8.0},"arcs":[[99],[100],[101],[102]]},{"type":"MultiLineString","properties":{"source":"openstreetmap.org","kind":"major_road","alt_name:en":"Street 245","name:en":"Al Samur Street","sort_rank":380,"kind_detail":"primary","min_zoom":8.0},"arcs":[[103],[104]]},{"type":"MultiLineString","properties":{"source":"openstreetmap.org","kind":"major_road","name:en":"Dakhira Road","sort_rank":380,"kind_detail":"primary","min_zoom":8.0},"arcs":[[105],[106]]},{"type":"MultiLineString","properties":{"source":"openstreetmap.org","kind":"major_road","name:en":"Mesaieed Road","landuse_kind":"urban_area","sort_rank":380,"kind_detail":"primary","min_zoom":8.0},"arcs":[[107],[108],[109],[110]]},{"type":"MultiLineString","properties":{"source":"openstreetmap.org","kind":"major_road","name:en":"Jasim Bin Hamad Street","landuse_kind":"urban_area","sort_rank":380,"kind_detail":"primary","min_zoom":8.0},"arcs":[[111],[112],[113],[114],[115],[116]]},{"type":"MultiLineString","properties":{"bus_network":null,"name:en":"B Ring Road","sort_rank":380,"kind_detail":"primary","kind":"major_road","source":"openstreetmap.org","min_zoom":8.0,"bus_shield_text":"10","landuse_kind":"urban_area","ref":"B Ring"},"arcs":[[117],[118]]},{"type":"LineString","properties":{"bus_network":null,"name:en":"Jaidah Roundabout","sort_rank":380,"kind_detail":"primary","kind":"major_road","source":"openstreetmap.org","min_zoom":8.0,"bus_shield_text":"94","landuse_kind":"urban_area"},"arcs":[119]},{"type":"MultiLineString","properties":{"source":"openstreetmap.org","kind":"major_road","name:en":"Rawdat Al Khail Street","landuse_kind":"urban_area","sort_rank":380,"kind_detail":"primary","min_zoom":8.0},"arcs":[[120],[121],[122],[123],[124],[125],[126]]},{"type":"MultiLineString","properties":{"kind":"major_road","name:en":"Al Wakra Road","sort_rank":380,"kind_detail":"primary","source":"openstreetmap.org","min_zoom":8.0,"landuse_kind":"urban_area","ref":"Q1A"},"arcs":[[127],[128]]},{"type":"MultiLineString","properties":{"source":"openstreetmap.org","kind":"major_road","name:en":"Salwa Road","landuse_kind":"urban_area","sort_rank":380,"kind_detail":"primary","min_zoom":8.0},"arcs":[[129],[130],[131],[132]]},{"type":"LineString","properties":{"source":"openstreetmap.org","kind":"major_road","name:en":"Al Maszhabiya","sort_rank":380,"kind_detail":"primary","min_zoom":8.0,"id":178011159},"arcs":[133]},{"type":"MultiLineString","properties":{"source":"openstreetmap.org","kind":"major_road","landuse_kind":"urban_area","sort_rank":380,"kind_detail":"primary","ref":"Q55","min_zoom":8.0},"arcs":[[134],[135]]},{"type":"LineString","properties":{"kind":"major_road","name:en":"Salwa Road","sort_rank":380,"kind_detail":"primary","bus_network":null,"source":"openstreetmap.org","min_zoom":8.0,"bus_shield_text":"94","landuse_kind":"urban_area","ref":"Q5","id":156958397},"arcs":[136]},{"type":"MultiLineString","properties":{"source":"openstreetmap.org","kind":"major_road","name:en":"Industrial Area Road","landuse_kind":"urban_area","sort_rank":380,"kind_detail":"primary","min_zoom":8.0},"arcs":[[137],[138]]},{"type":"LineString","properties":{"kind":"major_road","name:en":"Al Khaleej Street","sort_rank":380,"kind_detail":"primary","bus_network":null,"source":"openstreetmap.org","min_zoom":8.0,"bus_shield_text":"94","landuse_kind":"urban_area","id":492430452},"arcs":[139]},{"type":"MultiLineString","properties":{"kind":"highway","name:en":"Al Amir Street","sort_rank":383,"kind_detail":"motorway","source":"openstreetmap.org","min_zoom":8.0,"landuse_kind":"urban_area","ref":"Q1"},"arcs":[[140],[141]]},{"type":"MultiLineString","properties":{"kind":"major_road","name:en":"B Ring Road","sort_rank":380,"kind_detail":"primary","source":"openstreetmap.org","min_zoom":8.0,"alt_name:en":"Street 220","landuse_kind":"urban_area","ref":"B Ring"},"arcs":[[142],[143]]},{"type":"MultiLineString","properties":{"source":"openstreetmap.org","kind":"major_road","name:en":"Al Luqta","sort_rank":380,"kind_detail":"primary","min_zoom":8.0},"arcs":[[144],[145],[146],[147]]},{"type":"MultiLineString","properties":{"kind":"major_road","name:en":"Grand Hamad Street","sort_rank":380,"kind_detail":"primary","source":"openstreetmap.org","min_zoom":8.0,"landuse_kind":"urban_area","ref":"Q1A"},"arcs":[[148],[149]]},{"type":"MultiLineString","properties":{"bus_network":null,"name:en":"C Ring Road","sort_rank":380,"kind_detail":"primary","kind":"major_road","source":"openstreetmap.org","min_zoom":8.0,"bus_shield_text":"94","landuse_kind":"urban_area","ref":"C Ring"},"arcs":[[150],[151],[152]]},{"type":"LineString","properties":{"kind":"major_road","name:en":"Methkher","sort_rank":380,"kind_detail":"primary","source":"openstreetmap.org","min_zoom":8.0,"int_name":"\u0627\u0644\u0631\u064a\u0627\u0646 \u0627\u0644\u062c\u062f\u064a\u062f","landuse_kind":"urban_area","ref":"Q3"},"arcs":[153]},{"type":"MultiLineString","properties":{"source":"openstreetmap.org","kind":"major_road","name:en":"Khalifa Street","landuse_kind":"urban_area","sort_rank":380,"kind_detail":"primary","min_zoom":8.0},"arcs":[[154],[155],[156],[157],[158],[159],[160],[161],[162],[163]]},{"type":"LineString","properties":{"kind":"major_road","name:en":"Al Rayyan Road","sort_rank":380,"landuse_kind":"urban_area","source":"openstreetmap.org","min_zoom":8.0,"kind_detail":"primary","id":492626580},"arcs":[164]},{"type":"LineString","properties":{"kind":"major_road","name:en":"D Ring Road","sort_rank":380,"kind_detail":"primary","bus_network":null,"source":"openstreetmap.org","min_zoom":8.0,"bus_shield_text":"94","landuse_kind":"urban_area","ref":"D Ring","id":158426420},"arcs":[165]},{"type":"MultiLineString","properties":{"bus_network":null,"name:en":"Al Matar Street","sort_rank":380,"kind_detail":"primary","kind":"major_road","source":"openstreetmap.org","min_zoom":8.0,"bus_shield_text":"10","landuse_kind":"urban_area","ref":"Q1A"},"arcs":[[166],[167],[168]]},{"type":"MultiLineString","properties":{"sort_rank":381,"source":"openstreetmap.org","min_zoom":8.0,"kind":"major_road","kind_detail":"trunk"},"arcs":[[169],[170]]},{"type":"MultiLineString","properties":{"source":"openstreetmap.org","kind":"major_road","name:en":"Masaieed Main Street","landuse_kind":"urban_area","sort_rank":380,"kind_detail":"primary","min_zoom":8.0},"arcs":[[171],[172],[173],[174],[175],[176],[177],[178]]},{"type":"LineString","properties":{"source":"openstreetmap.org","kind":"highway","name:en":"Dukhan Road","sort_rank":383,"kind_detail":"motorway","min_zoom":8.0,"id":492626581},"arcs":[179]},{"type":"LineString","properties":{"bus_network":null,"name:en":"Ahmed Bin Mohammed Bin Thani Street","sort_rank":380,"landuse_kind":"urban_area","kind":"major_road","source":"openstreetmap.org","min_zoom":8.0,"bus_shield_text":"94","kind_detail":"primary"},"arcs":[180]},{"type":"MultiLineString","properties":{"kind":"highway","name:en":"Al Shamal Road","sort_rank":383,"kind_detail":"motorway","source":"openstreetmap.org","min_zoom":8.0,"landuse_kind":"urban_area","ref":"Q1"},"arcs":[[181],[182]]},{"type":"MultiLineString","properties":{"source":"openstreetmap.org","kind":"major_road","sort_rank":381,"kind_detail":"trunk","ref":"615","min_zoom":8.0},"arcs":[[183],[184],[185],[186],[187],[188],[189],[190]]},{"type":"MultiLineString","properties":{"source":"openstreetmap.org","kind":"major_road","name:en":"Al Mazrouah Road","sort_rank":380,"kind_detail":"primary","min_zoom":8.0},"arcs":[[191],[192],[193],[194],[195],[196],[197],[198],[199],[200],[201],[202],[203],[204]]},{"type":"MultiLineString","properties":{"kind":"major_road","name:en":"D Ring Road","sort_rank":380,"kind_detail":"primary","source":"openstreetmap.org","min_zoom":8.0,"landuse_kind":"urban_area","ref":"D Ring"},"arcs":[[205],[206],[207],[208]]},{"type":"MultiLineString","properties":{"source":"openstreetmap.org","kind":"highway","name:en":"F Ring Road","sort_rank":383,"kind_detail":"motorway","ref":"F Ring","min_zoom":8.0},"arcs":[[209],[210],[211],[212]]},{"type":"LineString","properties":{"bus_network":null,"name:en":"Jawaan Street","sort_rank":380,"kind_detail":"primary","kind":"major_road","source":"openstreetmap.org","min_zoom":8.0,"bus_shield_text":"94","landuse_kind":"urban_area"},"arcs":[213]},{"type":"LineString","properties":{"source":"openstreetmap.org","kind":"major_road","landuse_kind":"military","sort_rank":380,"kind_detail":"primary","min_zoom":8.0,"id":157923308},"arcs":[214]},{"type":"MultiLineString","properties":{"source":"openstreetmap.org","kind":"major_road","name:en":"Wadi Al Wasah","sort_rank":380,"kind_detail":"primary","min_zoom":8.0},"arcs":[[215],[216],[217],[218],[219],[220]]},{"type":"MultiLineString","properties":{"kind":"major_road","name:en":"Wadi Mushaireb Street","sort_rank":380,"kind_detail":"primary","source":"openstreetmap.org","min_zoom":8.0,"landuse_kind":"urban_area","ref":"Q5"},"arcs":[[221],[222]]},{"type":"LineString","properties":{"kind":"major_road","name:en":"Haloul Rundabout","sort_rank":380,"landuse_kind":"urban_area","source":"openstreetmap.org","min_zoom":8.0,"kind_detail":"primary","id":206495667},"arcs":[223]},{"type":"LineString","properties":{"kind":"major_road","name:en":"Al Furousiya Street","sort_rank":380,"kind_detail":"primary","source":"openstreetmap.org","min_zoom":8.0,"landuse_kind":"urban_area","ref":"Q3","id":489622222},"arcs":[224]},{"type":"MultiLineString","properties":{"source":"openstreetmap.org","kind":"major_road","name:en":"East Industrial Street","sort_rank":380,"kind_detail":"primary","min_zoom":8.0},"arcs":[[225],[226],[227],[228],[229],[230],[231],[232],[233],[234],[235],[236],[237]]},{"type":"MultiLineString","properties":{"source":"openstreetmap.org","kind":"major_road","name:en":"Al Gharrafa Street","landuse_kind":"urban_area","sort_rank":380,"kind_detail":"primary","min_zoom":8.0},"arcs":[[238],[239]]},{"type":"MultiLineString","properties":{"source":"openstreetmap.org","kind":"major_road","name:en":"West Industrial Street","landuse_kind":"urban_area","sort_rank":380,"kind_detail":"primary","min_zoom":8.0},"arcs":[[240],[241],[242],[243],[244],[245]]},{"type":"MultiLineString","properties":{"source":"openstreetmap.org","kind":"highway","name:en":"Orbital Highway","sort_rank":383,"kind_detail":"motorway","ref":"Q55","min_zoom":8.0},"arcs":[[246],[247],[248],[249],[250],[251],[252],[253],[254],[255],[256],[257],[258],[259],[260],[261],[262],[263],[264],[265],[266],[267],[268],[269],[270],[271],[272],[273],[274],[275],[276],[277],[278],[279],[280],[281],[282],[283],[284],[285],[286]]},{"type":"MultiLineString","properties":{"bus_network":null,"alt_name:en":"Street 200","sort_rank":380,"kind_detail":"primary","kind":"major_road","source":"openstreetmap.org","min_zoom":8.0,"name:en":"Al Corniche Street","bus_shield_text":"76","ref":"C Ring"},"arcs":[[287],[288]]},{"type":"LineString","properties":{"kind":"major_road","name:en":"Omar Al Mukhtar Street","sort_rank":380,"kind_detail":"primary","bus_network":null,"source":"openstreetmap.org","min_zoom":8.0,"bus_shield_text":"76","id":490160968},"arcs":[289]},{"type":"MultiLineString","properties":{"source":"openstreetmap.org","kind":"highway","name:en":"Mesaimeer Road","landuse_kind":"urban_area","sort_rank":383,"kind_detail":"motorway","min_zoom":8.0},"arcs":[[290],[291]]},{"type":"MultiLineString","properties":{"kind":"major_road","name:en":"Al Rayyan Road","sort_rank":380,"kind_detail":"primary","source":"openstreetmap.org","min_zoom":8.0,"landuse_kind":"urban_area","ref":"Q3"},"arcs":[[292],[293],[294]]},{"type":"LineString","properties":{"kind":"major_road","name:en":"Al Rayyan Al Jadeed Street","sort_rank":380,"kind_detail":"primary","source":"openstreetmap.org","min_zoom":8.0,"int_name":"\u0627\u0644\u0631\u064a\u0627\u0646 \u0627\u0644\u062c\u062f\u064a\u062f","landuse_kind":"urban_area","ref":"Q3","id":25935365},"arcs":[295]},{"type":"MultiLineString","properties":{"source":"openstreetmap.org","kind":"major_road","landuse_kind":"urban_area","sort_rank":380,"kind_detail":"primary","min_zoom":8.0},"arcs":[[296],[297],[298],[299],[300],[301],[302],[303],[304],[305],[306],[307],[308],[309],[310],[311],[312],[313],[314],[315],[316],[317],[318],[319],[320],[321],[322],[323],[324],[325],[326],[327],[328],[329],[330],[331],[332],[333]]},{"type":"MultiLineString","properties":{"source":"openstreetmap.org","kind":"major_road","name:en":"Al Markhiya Street","landuse_kind":"urban_area","sort_rank":380,"kind_detail":"primary","min_zoom":8.0},"arcs":[[334],[335],[336],[337],[338],[339]]},{"type":"MultiLineString","properties":{"source":"openstreetmap.org","kind":"major_road","name:en":"Al Markhiya Street","sort_rank":380,"kind_detail":"primary","min_zoom":8.0},"arcs":[[340],[341],[342],[343],[344],[345],[346]]},{"type":"MultiLineString","properties":{"source":"openstreetmap.org","kind":"major_road","name:en":"Huwar Street","landuse_kind":"urban_area","sort_rank":380,"kind_detail":"primary","min_zoom":8.0},"arcs":[[347],[348],[349],[350]]},{"type":"MultiLineString","properties":{"kind":"major_road","name:en":"Ras Bu Abboud Street","sort_rank":380,"kind_detail":"primary","source":"openstreetmap.org","min_zoom":8.0,"alt_name:en":"Street 210","landuse_kind":"urban_area"},"arcs":[[351],[352]]},{"type":"MultiLineString","properties":{"source":"openstreetmap.org","kind":"major_road","name:en":"Industrial Area Road","sort_rank":380,"kind_detail":"primary","min_zoom":8.0},"arcs":[[353],[354]]},{"type":"MultiLineString","properties":{"source":"openstreetmap.org","kind":"major_road","name:en":"Al Samur Street","sort_rank":380,"kind_detail":"primary","min_zoom":8.0},"arcs":[[355],[356],[357],[358]]},{"type":"MultiLineString","properties":{"source":"openstreetmap.org","kind":"major_road","name:en":"Al Diwan Street","landuse_kind":"urban_area","sort_rank":380,"kind_detail":"primary","min_zoom":8.0},"arcs":[[359],[360],[361],[362]]},{"type":"MultiLineString","properties":{"kind":"major_road","name:en":"Al Rayyan Road","sort_rank":380,"kind_detail":"primary","source":"openstreetmap.org","min_zoom":8.0,"alt_name:en":"Street 150","landuse_kind":"urban_area","ref":"Q3"},"arcs":[[363],[364]]},{"type":"LineString","properties":{"kind":"major_road","name:en":"Television Roundabout","sort_rank":380,"landuse_kind":"urban_area","source":"openstreetmap.org","min_zoom":8.0,"kind_detail":"primary","id":95741981},"arcs":[365]},{"type":"LineString","properties":{"kind":"major_road","name:en":"Nursery Roundabout","sort_rank":380,"landuse_kind":"urban_area","source":"openstreetmap.org","min_zoom":8.0,"kind_detail":"primary","id":121901920},"arcs":[366]},{"type":"MultiLineString","properties":{"source":"openstreetmap.org","kind":"major_road","name:en":"Qalat Al Askar Street","landuse_kind":"urban_area","sort_rank":380,"kind_detail":"primary","min_zoom":8.0},"arcs":[[367],[368],[369],[370]]},{"type":"MultiLineString","properties":{"source":"openstreetmap.org","kind":"major_road","name:en":"Al Furousiya Street","kind_detail":"primary","sort_rank":380,"landuse_kind":"urban_area","min_zoom":8.0},"arcs":[[371],[372],[373],[374],[375],[376],[377],[378],[379],[380]]},{"type":"MultiLineString","properties":{"source":"openstreetmap.org","kind":"major_road","name:en":"Al Ebb","sort_rank":380,"kind_detail":"primary","min_zoom":8.0},"arcs":[[381],[382]]},{"type":"LineString","properties":{"kind":"major_road","name:en":"Ahmed Bin Mohammed Bin Thani Street","sort_rank":380,"kind_detail":"primary","bus_network":null,"source":"openstreetmap.org","min_zoom":8.0,"bus_shield_text":"10","landuse_kind":"urban_area","id":95475538},"arcs":[383]},{"type":"MultiLineString","properties":{"source":"openstreetmap.org","kind":"major_road","name:en":"Wadi Al Gaeya","sort_rank":380,"kind_detail":"primary","min_zoom":8.0},"arcs":[[384],[385],[386],[387],[388]]},{"type":"MultiLineString","properties":{"source":"openstreetmap.org","kind":"major_road","name:en":"Najma Street","landuse_kind":"urban_area","sort_rank":380,"kind_detail":"primary","min_zoom":8.0},"arcs":[[389],[390]]},{"type":"MultiLineString","properties":{"source":"openstreetmap.org","kind":"major_road","name:en":"Wadi Mushaireb Street","landuse_kind":"urban_area","sort_rank":380,"kind_detail":"primary","min_zoom":8.0},"arcs":[[391],[392],[393],[394],[395]]},{"type":"MultiLineString","properties":{"source":"openstreetmap.org","kind":"major_road","name:en":"Ras Bu Abboud Street","landuse_kind":"urban_area","sort_rank":380,"kind_detail":"primary","min_zoom":8.0},"arcs":[[396],[397]]},{"type":"MultiLineString","properties":{"source":"openstreetmap.org","kind":"major_road","name:en":"Al Furousiya Street","sort_rank":380,"kind_detail":"primary","min_zoom":8.0},"arcs":[[398],[399],[400],[401]]},{"type":"MultiLineString","properties":{"source":"openstreetmap.org","kind":"highway","name:en":"Salwa Road","sort_rank":383,"kind_detail":"motorway","ref":"Q5","min_zoom":8.0},"arcs":[[402],[403],[404],[405],[406],[407],[408],[409]]},{"type":"MultiLineString","properties":{"source":"openstreetmap.org","kind":"major_road","name:en":"Mesaieed Road","sort_rank":381,"kind_detail":"trunk","min_zoom":8.0},"arcs":[[410],[411],[412],[413]]},{"type":"MultiLineString","properties":{"kind":"major_road","alt_name:en":"Street 200","sort_rank":380,"kind_detail":"primary","source":"openstreetmap.org","min_zoom":8.0,"name:en":"Al Corniche Street","ref":"C Ring"},"arcs":[[414],[415]]},{"type":"MultiLineString","properties":{"source":"openstreetmap.org","kind":"highway","name:en":"Sawda Nathil","sort_rank":383,"kind_detail":"motorway","ref":"Q3","min_zoom":8.0},"arcs":[[416],[417]]},{"type":"MultiLineString","properties":{"source":"openstreetmap.org","kind":"major_road","name:en":"Omar Al Mukhtar Street","sort_rank":380,"kind_detail":"primary","min_zoom":8.0},"arcs":[[418],[419]]},{"type":"LineString","properties":{"kind":"major_road","name:en":"Al Luqta Roundabout","sort_rank":380,"landuse_kind":"urban_area","source":"openstreetmap.org","min_zoom":8.0,"kind_detail":"primary","id":25936782},"arcs":[420]},{"type":"MultiLineString","properties":{"source":"openstreetmap.org","kind":"major_road","name:en":"Al Khor Road","sort_rank":380,"kind_detail":"primary","min_zoom":8.0},"arcs":[[421],[422]]},{"type":"MultiLineString","properties":{"source":"openstreetmap.org","kind":"major_road","name:en":"Al Khor Coastal Road","sort_rank":381,"kind_detail":"trunk","ref":"Q1A","min_zoom":8.0},"arcs":[[423],[424],[425],[426],[427],[428]]},{"type":"MultiLineString","properties":{"bus_network":null,"name:en":"Dar Al Kutub Roundabout","sort_rank":380,"kind_detail":"primary","kind":"major_road","source":"openstreetmap.org","min_zoom":8.0,"bus_shield_text":"10","landuse_kind":"urban_area"},"arcs":[[429],[430]]},{"type":"LineString","properties":{"kind":"major_road","name:en":"Mohammed Bin Thani Street","sort_rank":380,"kind_detail":"primary","source":"openstreetmap.org","min_zoom":8.0,"alt_name:en":"street 361","id":95741916},"arcs":[431]},{"type":"MultiLineString","properties":{"kind":"highway","name:en":"Salwa Road","sort_rank":383,"landuse_kind":"urban_area","source":"openstreetmap.org","min_zoom":8.0,"kind_detail":"motorway","ref":"Q5"},"arcs":[[432],[433]]},{"type":"MultiLineString","properties":{"sort_rank":380,"kind_detail":"primary","min_zoom":8.0,"kind":"major_road","source":"openstreetmap.org"},"arcs":[[434],[435],[436],[437],[438],[439],[440],[441],[442],[443],[444],[445],[446],[447],[448],[449],[450],[451],[452],[453],[454],[455],[456],[457],[458],[459],[460],[461],[462],[463],[464],[465],[466],[467],[468],[469],[470],[471],[472],[473],[474],[475],[476],[477],[478],[479],[480],[481],[482],[483],[484],[485],[486],[487],[488],[489],[490],[491],[492],[493],[494],[495],[496],[497],[498],[499],[500],[501],[502],[503],[504],[505],[506],[507],[508],[509],[510],[511],[512],[513],[514],[515],[516],[517],[518],[519],[520],[521],[522],[523],[524],[525],[526],[527],[528],[529],[530],[531],[532],[533],[534],[535],[536],[537],[538],[539],[540],[541],[542],[543],[544],[545],[546],[547],[548],[549],[550],[551],[552],[553],[554],[555],[556],[557],[558],[559],[560],[561],[562],[563],[564],[565],[566],[567],[568],[569],[570],[571],[572],[573],[574],[575],[576],[577],[578],[579],[580],[581],[582],[583],[584],[585],[586],[587],[588],[589],[590],[591],[592],[593],[594],[595],[596],[597],[598],[599],[600],[601],[602],[603],[604],[605],[606],[607],[608],[609],[610],[611],[612],[613],[614],[615],[616],[617],[618],[619],[620],[621],[622],[623],[624],[625],[626],[627],[628],[629],[630],[631],[632],[633],[634],[635],[636],[637],[638],[639],[640],[641],[642],[643],[644],[645],[646],[647],[648],[649],[650],[651],[652],[653],[654],[655],[656],[657],[658],[659],[660],[661],[662],[663],[664],[665],[666],[667],[668],[669],[670],[671],[672],[673],[674],[675],[676],[677],[678],[679],[680],[681],[682],[683],[684],[685],[686],[687],[688],[689],[690],[691],[692],[693],[694],[695]]},{"type":"MultiLineString","properties":{"source":"openstreetmap.org","kind":"major_road","name:en":"Al Hanaa","landuse_kind":"urban_area","sort_rank":380,"kind_detail":"primary","min_zoom":8.0},"arcs":[[696],[697]]},{"type":"LineString","properties":{"bus_network":null,"name:en":"Al Matar Street","sort_rank":380,"kind_detail":"primary","kind":"major_road","source":"openstreetmap.org","min_zoom":8.0,"bus_shield_text":"11","landuse_kind":"urban_area","ref":"Q1A"},"arcs":[698]},{"type":"MultiLineString","properties":{"source":"openstreetmap.org","kind":"major_road","name:en":"Al Hamm","landuse_kind":"urban_area","sort_rank":380,"kind_detail":"primary","min_zoom":8.0},"arcs":[[699],[700]]},{"type":"MultiLineString","properties":{"source":"openstreetmap.org","kind":"major_road","name:en":"Masaieed Main Street","sort_rank":380,"kind_detail":"primary","min_zoom":8.0},"arcs":[[701],[702],[703]]},{"type":"MultiLineString","properties":{"source":"openstreetmap.org","kind":"major_road","alt_name:en":"Hazm Al Bambara","name:en":"Street 33","sort_rank":380,"kind_detail":"primary","min_zoom":8.0},"arcs":[[704],[705],[706],[707]]},{"type":"MultiLineString","properties":{"source":"openstreetmap.org","kind":"major_road","name:en":"Bu Erayyen","landuse_kind":"urban_area","sort_rank":380,"kind_detail":"primary","min_zoom":8.0},"arcs":[[708],[709],[710],[711]]},{"type":"MultiLineString","properties":{"source":"openstreetmap.org","kind":"highway","name:en":"Orbital Highway","sort_rank":383,"kind_detail":"motorway","min_zoom":8.0},"arcs":[[712],[713],[714],[715],[716],[717],[718],[719],[720]]},{"type":"LineString","properties":{"source":"openstreetmap.org","kind":"major_road","name:en":"Duhail Interchange","sort_rank":380,"kind_detail":"primary","min_zoom":8.0,"id":228176618},"arcs":[721]},{"type":"MultiLineString","properties":{"source":"openstreetmap.org","kind":"major_road","name:en":"Al Wakra Road","sort_rank":380,"kind_detail":"primary","min_zoom":8.0},"arcs":[[722],[723],[724],[725]]},{"type":"MultiLineString","properties":{"kind":"major_road","alt_name:en":"Street 361","sort_rank":380,"kind_detail":"primary","source":"openstreetmap.org","min_zoom":8.0,"name:en":"Mohammed Bin Thani Street","landuse_kind":"urban_area"},"arcs":[[726],[727],[728]]},{"type":"LineString","properties":{"bus_network":null,"name:en":"Grand Hamad Street","sort_rank":380,"kind_detail":"primary","kind":"major_road","source":"openstreetmap.org","min_zoom":8.0,"bus_shield_text":"10","landuse_kind":"urban_area","ref":"Q1A"},"arcs":[729]},{"type":"LineString","properties":{"source":"openstreetmap.org","kind":"major_road","name:en":"Majlis Al Taawon Street","sort_rank":380,"kind_detail":"primary","min_zoom":8.0,"id":484364509},"arcs":[730]},{"type":"MultiLineString","properties":{"kind":"major_road","alt_name:en":"Street 380","sort_rank":380,"kind_detail":"primary","source":"openstreetmap.org","min_zoom":8.0,"name:en":"Al Markhiya Street","landuse_kind":"urban_area"},"arcs":[[731],[732],[733],[734]]},{"type":"LineString","properties":{"kind":"major_road","name:en":"Corniche Roundabout","sort_rank":380,"landuse_kind":"residential","source":"openstreetmap.org","min_zoom":8.0,"kind_detail":"primary","id":155241263},"arcs":[735]},{"type":"MultiLineString","properties":{"source":"openstreetmap.org","kind":"major_road","name:en":"Sealine Road","sort_rank":380,"kind_detail":"primary","min_zoom":8.0},"arcs":[[736],[737],[738],[739],[740],[741]]},{"type":"MultiLineString","properties":{"source":"openstreetmap.org","kind":"major_road","sort_rank":380,"kind_detail":"primary","ref":"Q55","min_zoom":8.0},"arcs":[[742],[743],[744],[745],[746],[747],[748],[749],[750],[751]]},{"type":"LineString","properties":{"kind":"major_road","name:en":"Fereej Kulaib Roundabout","sort_rank":380,"landuse_kind":"urban_area","source":"openstreetmap.org","min_zoom":8.0,"kind_detail":"primary","id":25936795},"arcs":[752]},{"type":"MultiLineString","properties":{"kind":"major_road","name:en":"Al Rayyan Al Jadeed Street","sort_rank":380,"kind_detail":"primary","source":"openstreetmap.org","min_zoom":8.0,"landuse_kind":"urban_area","ref":"Q3"},"arcs":[[753],[754],[755],[756]]},{"type":"MultiLineString","properties":{"source":"openstreetmap.org","kind":"major_road","kind_detail":"trunk","sort_rank":381,"landuse_kind":"urban_area","min_zoom":8.0},"arcs":[[757],[758],[759],[760],[761]]},{"type":"MultiLineString","properties":{"source":"openstreetmap.org","kind":"major_road","alt_name:en":"Street 380","name:en":"Al Markhiya Street","sort_rank":380,"kind_detail":"primary","min_zoom":8.0},"arcs":[[762],[763]]},{"type":"MultiLineString","properties":{"source":"openstreetmap.org","kind":"major_road","name:en":"Al Istiqlal Street","landuse_kind":"urban_area","sort_rank":380,"kind_detail":"primary","min_zoom":8.0},"arcs":[[764],[765]]},{"type":"MultiLineString","properties":{"source":"openstreetmap.org","kind":"major_road","name:en":"Ahmed Bin Mohammed Bin Thani Street","landuse_kind":"urban_area","sort_rank":380,"kind_detail":"primary","min_zoom":8.0},"arcs":[[766],[767],[768]]},{"type":"MultiLineString","properties":{"kind":"major_road","alt_name:en":"Street 311","sort_rank":380,"kind_detail":"primary","source":"openstreetmap.org","min_zoom":8.0,"name:en":"Al Wakra Road","landuse_kind":"urban_area"},"arcs":[[769],[770]]},{"type":"MultiLineString","properties":{"source":"openstreetmap.org","kind":"major_road","name:en":"Al Khafji Street","landuse_kind":"urban_area","sort_rank":380,"kind_detail":"primary","min_zoom":8.0},"arcs":[[771],[772]]},{"type":"MultiLineString","properties":{"source":"openstreetmap.org","kind":"major_road","name:en":"Sawda Nathil","sort_rank":380,"kind_detail":"primary","min_zoom":8.0},"arcs":[[773],[774],[775]]},{"type":"MultiLineString","properties":{"kind":"highway","name:en":"22 February","sort_rank":383,"kind_detail":"motorway","source":"openstreetmap.org","min_zoom":8.0,"landuse_kind":"urban_area","ref":"Q1"},"arcs":[[776],[777]]},{"type":"MultiLineString","properties":{"source":"openstreetmap.org","kind":"major_road","name:en":"Dakhira Road","landuse_kind":"residential","sort_rank":380,"kind_detail":"primary","min_zoom":8.0},"arcs":[[778],[779],[780],[781]]},{"type":"LineString","properties":{"kind":"major_road","name:en":"Khalifa Street","sort_rank":380,"kind_detail":"primary","source":"openstreetmap.org","min_zoom":8.0,"alt_name:en":"Street 370","landuse_kind":"urban_area","id":489854922},"arcs":[782]},{"type":"MultiLineString","properties":{"source":"openstreetmap.org","kind":"major_road","name:en":"Wadi Al Wasah","landuse_kind":"residential","sort_rank":380,"kind_detail":"primary","min_zoom":8.0},"arcs":[[783],[784]]},{"type":"MultiLineString","properties":{"source":"openstreetmap.org","kind":"major_road","name:en":"Sealine Road","landuse_kind":"urban_area","sort_rank":380,"kind_detail":"primary","min_zoom":8.0},"arcs":[[785],[786],[787],[788],[789],[790]]},{"type":"MultiLineString","properties":{"kind":"major_road","name:en":"Mesaimeer Road","sort_rank":380,"kind_detail":"primary","source":"openstreetmap.org","min_zoom":8.0,"alt_name:en":"Street 990","landuse_kind":"urban_area"},"arcs":[[791],[792],[793],[794],[795],[796]]},{"type":"MultiLineString","properties":{"source":"openstreetmap.org","kind":"major_road","name:en":"Al Bustan Street","landuse_kind":"urban_area","sort_rank":380,"kind_detail":"primary","min_zoom":8.0},"arcs":[[797],[798]]},{"type":"MultiLineString","properties":{"source":"openstreetmap.org","kind":"major_road","alt_name:en":"Al Rufaa Street","name:en":"Wadi Al Salamiya","sort_rank":380,"kind_detail":"primary","min_zoom":8.0},"arcs":[[799],[800],[801],[802],[803],[804]]},{"type":"MultiLineString","properties":{"kind":"highway","name:en":"D Ring Road","sort_rank":383,"kind_detail":"motorway","source":"openstreetmap.org","min_zoom":8.0,"landuse_kind":"urban_area","ref":"D Ring"},"arcs":[[805],[806]]},{"type":"MultiLineString","properties":{"source":"openstreetmap.org","kind":"major_road","name:en":"Al Wakra Main Street","landuse_kind":"urban_area","sort_rank":380,"kind_detail":"primary","min_zoom":8.0},"arcs":[[807],[808]]},{"type":"MultiLineString","properties":{"source":"openstreetmap.org","kind":"major_road","name:en":"Mesaieed Road","kind_detail":"trunk","sort_rank":381,"landuse_kind":"urban_area","min_zoom":8.0},"arcs":[[809],[810]]},{"type":"LineString","properties":{"kind":"major_road","name:en":"Mohammed Bin Thani Street","sort_rank":380,"kind_detail":"primary","source":"openstreetmap.org","min_zoom":8.0,"alt_name:en":"Street 361","id":224002571},"arcs":[811]},{"type":"LineString","properties":{"source":"openstreetmap.org","kind":"major_road","name:en":"Al Wakra Road","sort_rank":381,"kind_detail":"trunk","min_zoom":8.0,"id":492031719},"arcs":[812]},{"type":"MultiLineString","properties":{"source":"openstreetmap.org","kind":"major_road","landuse_kind":"residential","sort_rank":380,"kind_detail":"primary","min_zoom":8.0},"arcs":[[813],[814],[815],[816]]},{"type":"MultiLineString","properties":{"kind":"highway","alt_name:en":"G Ring Road","sort_rank":383,"kind_detail":"motorway","source":"openstreetmap.org","min_zoom":8.0,"name:en":"Khor Al Edaid","landuse_kind":"urban_area","ref":"G Ring"},"arcs":[[817],[818]]},{"type":"MultiLineString","properties":{"kind":"major_road","name:en":"B Ring Road","sort_rank":380,"kind_detail":"primary","source":"openstreetmap.org","min_zoom":8.0,"landuse_kind":"urban_area","ref":"B Ring"},"arcs":[[819],[820],[821],[822]]},{"type":"MultiLineString","properties":{"sort_rank":383,"kind_detail":"motorway","min_zoom":8.0,"kind":"highway","source":"openstreetmap.org"},"arcs":[[823],[824],[825],[826],[827]]},{"type":"MultiLineString","properties":{"source":"openstreetmap.org","kind":"major_road","name:en":"Street 33","sort_rank":380,"kind_detail":"primary","min_zoom":8.0},"arcs":[[828],[829],[830],[831]]},{"type":"MultiLineString","properties":{"source":"openstreetmap.org","kind":"major_road","name:en":"West Industrial Street","sort_rank":380,"kind_detail":"primary","min_zoom":8.0},"arcs":[[832],[833]]},{"type":"MultiLineString","properties":{"source":"openstreetmap.org","kind":"major_road","name:en":"Al Hanaa","sort_rank":380,"kind_detail":"primary","min_zoom":8.0},"arcs":[[834],[835]]},{"type":"MultiLineString","properties":{"source":"openstreetmap.org","kind":"highway","name:en":"Al Shamal Road","sort_rank":383,"kind_detail":"motorway","ref":"Q1","min_zoom":8.0},"arcs":[[836],[837],[838],[839],[840],[841],[842],[843],[844],[845]]},{"type":"MultiLineString","properties":{"source":"openstreetmap.org","kind":"major_road","landuse_kind":"urban_area","sort_rank":380,"kind_detail":"primary","ref":"Q3","min_zoom":8.0},"arcs":[[846],[847]]},{"type":"LineString","properties":{"source":"openstreetmap.org","kind":"major_road","name:en":"Khalifa Street","sort_rank":380,"kind_detail":"primary","min_zoom":8.0,"id":107939213},"arcs":[848]},{"type":"MultiLineString","properties":{"source":"openstreetmap.org","kind":"major_road","name:en":"Mesaimeer Road","landuse_kind":"urban_area","sort_rank":380,"kind_detail":"primary","min_zoom":8.0},"arcs":[[849],[850],[851]]},{"type":"LineString","properties":{"bus_network":null,"name:en":"Al Rayyan Road","sort_rank":380,"kind_detail":"primary","kind":"major_road","source":"openstreetmap.org","min_zoom":8.0,"bus_shield_text":"94","landuse_kind":"urban_area","ref":"Q3"},"arcs":[852]},{"type":"MultiLineString","properties":{"source":"openstreetmap.org","kind":"major_road","alt_name:en":"Street 311","name:en":"Al Wakra Road","sort_rank":380,"kind_detail":"primary","min_zoom":8.0},"arcs":[[853],[854]]},{"type":"MultiLineString","properties":{"source":"openstreetmap.org","kind":"major_road","name:en":"Al Khor Road","landuse_kind":"residential","sort_rank":380,"kind_detail":"primary","min_zoom":8.0},"arcs":[[855],[856],[857],[858]]},{"type":"MultiLineString","properties":{"source":"openstreetmap.org","kind":"major_road","name:en":"Al Gharrafa Street","sort_rank":380,"kind_detail":"primary","min_zoom":8.0},"arcs":[[859],[860]]},{"type":"MultiLineString","properties":{"source":"openstreetmap.org","kind":"major_road","name:en":"Jawaan Street","landuse_kind":"urban_area","sort_rank":380,"kind_detail":"primary","min_zoom":8.0},"arcs":[[861],[862],[863]]},{"type":"MultiLineString","properties":{"source":"openstreetmap.org","kind":"major_road","name:en":"Golf Course Street","sort_rank":380,"kind_detail":"primary","min_zoom":8.0},"arcs":[[864],[865],[866],[867],[868]]},{"type":"MultiLineString","properties":{"source":"openstreetmap.org","kind":"major_road","name:en":"Industrial Area Road","kind_detail":"trunk","sort_rank":381,"landuse_kind":"urban_area","min_zoom":8.0},"arcs":[[869],[870],[871],[872],[873],[874]]},{"type":"MultiLineString","properties":{"kind":"major_road","name:en":"Al Matar Street","sort_rank":380,"kind_detail":"primary","source":"openstreetmap.org","min_zoom":8.0,"landuse_kind":"urban_area","ref":"Q1A"},"arcs":[[875],[876],[877],[878],[879]]},{"type":"LineString","properties":{"kind":"major_road","name:en":"B Ring Road","sort_rank":380,"kind_detail":"primary","bus_network":null,"source":"openstreetmap.org","min_zoom":8.0,"bus_shield_text":"94","landuse_kind":"urban_area","ref":"B Ring","id":158194855},"arcs":[880]},{"type":"MultiLineString","properties":{"source":"openstreetmap.org","kind":"major_road","name:en":"Al Khafji Street","sort_rank":380,"kind_detail":"primary","min_zoom":8.0},"arcs":[[881],[882],[883]]},{"type":"MultiLineString","properties":{"source":"openstreetmap.org","kind":"highway","name:en":"Dukhan Road","sort_rank":383,"kind_detail":"motorway","ref":"Q3","min_zoom":8.0},"arcs":[[884],[885],[886],[887],[888],[889],[890],[891],[892],[893],[894],[895],[896],[897],[898],[899],[900],[901],[902],[903],[904],[905],[906],[907],[908],[909],[910],[911]]},{"type":"MultiLineString","properties":{"source":"openstreetmap.org","kind":"highway","sort_rank":383,"kind_detail":"motorway","ref":"G Ring","min_zoom":8.0},"arcs":[[912],[913]]},{"type":"MultiLineString","properties":{"source":"openstreetmap.org","kind":"major_road","alt_name:en":"Street 363","name:en":"Al Sailiya Road","sort_rank":380,"kind_detail":"primary","min_zoom":8.0},"arcs":[[914],[915],[916],[917],[918],[919]]},{"type":"LineString","properties":{"kind":"major_road","name:en":"D Ring Road","sort_rank":380,"kind_detail":"primary","bus_network":null,"source":"openstreetmap.org","min_zoom":8.0,"bus_shield_text":"11","landuse_kind":"urban_area","ref":"D Ring","id":187482402},"arcs":[920]},{"type":"LineString","properties":{"kind":"major_road","name:en":"C Ring Road","sort_rank":380,"kind_detail":"primary","bus_network":null,"source":"openstreetmap.org","min_zoom":8.0,"bus_shield_text":"76","landuse_kind":"urban_area","ref":"C Ring","id":487518214},"arcs":[921]},{"type":"MultiLineString","properties":{"kind":"major_road","name:en":"E Ring Road","sort_rank":380,"kind_detail":"primary","source":"openstreetmap.org","min_zoom":8.0,"landuse_kind":"urban_area","ref":"E Ring"},"arcs":[[922],[923],[924],[925],[926],[927]]},{"type":"MultiLineString","properties":{"source":"openstreetmap.org","kind":"major_road","name:en":"Street 6","sort_rank":380,"kind_detail":"primary","min_zoom":8.0},"arcs":[[928],[929]]},{"type":"MultiLineString","properties":{"source":"openstreetmap.org","kind":"major_road","name:en":"Lusail Street","sort_rank":380,"kind_detail":"primary","min_zoom":8.0},"arcs":[[930],[931],[932],[933],[934],[935],[936],[937],[938],[939],[940]]},{"type":"MultiLineString","properties":{"source":"openstreetmap.org","kind":"major_road","name:en":"Mohammed Bin Thani Street","landuse_kind":"urban_area","sort_rank":380,"kind_detail":"primary","min_zoom":8.0},"arcs":[[941],[942],[943],[944]]},{"type":"LineString","properties":{"source":"openstreetmap.org","kind":"major_road","sort_rank":381,"kind_detail":"trunk","ref":"95","min_zoom":8.0,"id":157923514},"arcs":[945]},{"type":"MultiLineString","properties":{"source":"openstreetmap.org","kind":"major_road","name:en":"Al Mazrouah Road","sort_rank":380,"kind_detail":"primary","ref":"Q55","min_zoom":8.0},"arcs":[[946],[947]]},{"type":"MultiLineString","properties":{"source":"openstreetmap.org","kind":"major_road","name:en":"Al Waab Street","sort_rank":380,"kind_detail":"primary","min_zoom":8.0},"arcs":[[948],[949],[950],[951]]},{"type":"LineString","properties":{"kind":"major_road","name:en":"Mohammed Bin Thani Street","sort_rank":380,"kind_detail":"primary","source":"openstreetmap.org","min_zoom":8.0,"alt_name:en":"street 361","landuse_kind":"urban_area","id":95741916},"arcs":[952]},{"type":"MultiLineString","properties":{"source":"openstreetmap.org","kind":"major_road","name:en":"Al Luqta","sort_rank":380,"kind_detail":"primary","ref":"Q3","min_zoom":8.0},"arcs":[[953],[954]]},{"type":"MultiLineString","properties":{"kind":"major_road","name:en":"Huwar Street","sort_rank":380,"kind_detail":"primary","source":"openstreetmap.org","min_zoom":8.0,"landuse_kind":"urban_area","ref":"Q3"},"arcs":[[955],[956]]},{"type":"LineString","properties":{"source":"openstreetmap.org","kind":"major_road","name:en":"Emirates Road","sort_rank":381,"kind_detail":"trunk","ref":"95","min_zoom":8.0},"arcs":[957]},{"type":"MultiLineString","properties":{"kind":"major_road","name:en":"C Ring Road","sort_rank":380,"kind_detail":"primary","source":"openstreetmap.org","min_zoom":8.0,"landuse_kind":"urban_area","ref":"C Ring"},"arcs":[[958],[959],[960],[961],[962],[963],[964]]},{"type":"LineString","properties":{"kind":"major_road","name:en":"Jaidah Roundabout","sort_rank":380,"landuse_kind":"urban_area","source":"openstreetmap.org","min_zoom":8.0,"kind_detail":"primary","id":88239542},"arcs":[965]},{"type":"LineString","properties":{"source":"openstreetmap.org","kind":"major_road","name:en":"University","sort_rank":380,"kind_detail":"primary","min_zoom":8.0,"id":26177675},"arcs":[966]},{"type":"MultiLineString","properties":{"kind":"highway","name:en":"Ras Bu Abboud Street","sort_rank":383,"kind_detail":"motorway","source":"openstreetmap.org","min_zoom":8.0,"landuse_kind":"urban_area","ref":"G Ring"},"arcs":[[967],[968]]},{"type":"MultiLineString","properties":{"source":"openstreetmap.org","kind":"major_road","name:en":"Al Beday Street","landuse_kind":"urban_area","sort_rank":380,"kind_detail":"primary","min_zoom":8.0},"arcs":[[969],[970],[971],[972],[973],[974]]},{"type":"MultiLineString","properties":{"source":"openstreetmap.org","kind":"major_road","name:en":"Zekreet","sort_rank":380,"kind_detail":"primary","alt_name:en":"Street 595","min_zoom":8.0},"arcs":[[975],[976]]},{"type":"MultiLineString","properties":{"source":"openstreetmap.org","kind":"major_road","name:en":"Salwa Road","sort_rank":381,"kind_detail":"trunk","ref":"Q5","min_zoom":8.0},"arcs":[[977],[978],[979],[980],[981],[982],[983],[984],[985],[986],[987],[988],[989],[990],[991],[992],[993],[994],[995],[996],[997],[998],[999]]},{"type":"MultiLineString","properties":{"kind":"major_road","name:en":"Salwa Road","sort_rank":380,"kind_detail":"primary","source":"openstreetmap.org","min_zoom":8.0,"landuse_kind":"urban_area","ref":"Q5"},"arcs":[[1000],[1001],[1002],[1003]]},{"type":"MultiLineString","properties":{"source":"openstreetmap.org","kind":"major_road","name:en":"Al Hamm","sort_rank":380,"kind_detail":"primary","min_zoom":8.0},"arcs":[[1004],[1005]]},{"type":"MultiLineString","properties":{"source":"openstreetmap.org","kind":"major_road","sort_rank":380,"kind_detail":"primary","ref":"Q77","min_zoom":8.0},"arcs":[[1006],[1007]]},{"type":"MultiLineString","properties":{"source":"openstreetmap.org","kind":"major_road","name:en":"Mesaieed Road","sort_rank":380,"kind_detail":"primary","min_zoom":8.0},"arcs":[[1008],[1009],[1010]]},{"type":"MultiLineString","properties":{"source":"openstreetmap.org","kind":"major_road","alt_name:en":"Street 660","name:en":"Al Gharrafa Street","sort_rank":380,"kind_detail":"primary","min_zoom":8.0},"arcs":[[1011],[1012]]},{"type":"MultiLineString","properties":{"source":"openstreetmap.org","kind":"major_road","name:en":"Al Wakra Road","landuse_kind":"urban_area","sort_rank":380,"kind_detail":"primary","min_zoom":8.0},"arcs":[[1013],[1014]]},{"type":"MultiLineString","properties":{"source":"openstreetmap.org","kind":"major_road","name:en":"Al Maszhabiya","sort_rank":380,"kind_detail":"primary","alt_name:en":"Street 920","min_zoom":8.0},"arcs":[[1015],[1016],[1017]]},{"type":"MultiLineString","properties":{"source":"openstreetmap.org","kind":"major_road","name:en":"Dakhira Road","landuse_kind":"urban_area","sort_rank":380,"kind_detail":"primary","min_zoom":8.0},"arcs":[[1018],[1019]]},{"type":"LineString","properties":{"bus_network":null,"name:en":"D Ring Road","sort_rank":380,"kind_detail":"primary","kind":"major_road","source":"openstreetmap.org","min_zoom":8.0,"bus_shield_text":"10","landuse_kind":"urban_area","ref":"D Ring"},"arcs":[1020]},{"type":"MultiLineString","properties":{"source":"openstreetmap.org","kind":"major_road","name:en":"Bu Shaddad","sort_rank":380,"kind_detail":"primary","min_zoom":8.0},"arcs":[[1021],[1022],[1023],[1024]]},{"type":"MultiLineString","properties":{"kind":"major_road","name:en":"Street 33","sort_rank":380,"kind_detail":"primary","source":"openstreetmap.org","min_zoom":8.0,"alt_name:en":"Hazm Al Bambara","landuse_kind":"urban_area"},"arcs":[[1025],[1026]]},{"type":"LineString","properties":{"kind":"major_road","name:en":"Ahmed Bin Mohammed Bin Thani Street","sort_rank":380,"kind_detail":"primary","bus_network":null,"source":"openstreetmap.org","min_zoom":8.0,"bus_shield_text":"76","landuse_kind":"urban_area","id":158426132},"arcs":[1027]},{"type":"LineString","properties":{"kind":"highway","name:en":"Dukhan Road","sort_rank":383,"landuse_kind":"urban_area","source":"openstreetmap.org","min_zoom":8.0,"kind_detail":"motorway","ref":"Q3"},"arcs":[1028]},{"type":"MultiLineString","properties":{"source":"openstreetmap.org","kind":"major_road","name:en":"Onaiza Street","sort_rank":380,"kind_detail":"primary","min_zoom":8.0},"arcs":[[1029],[1030]]},{"type":"MultiLineString","properties":{"source":"openstreetmap.org","kind":"major_road","alt_name:en":"Street 233","name:en":"University Street","sort_rank":380,"kind_detail":"primary","min_zoom":8.0},"arcs":[[1031],[1032]]},{"type":"MultiLineString","properties":{"source":"openstreetmap.org","kind":"major_road","name:en":"Abdul Aziz Bin Jasim Street","landuse_kind":"urban_area","sort_rank":380,"kind_detail":"primary","min_zoom":8.0},"arcs":[[1033],[1034]]},{"type":"MultiLineString","properties":{"bus_network":null,"name:en":"Ras Bu Abboud Street","sort_rank":380,"landuse_kind":"urban_area","kind":"major_road","source":"openstreetmap.org","min_zoom":8.0,"bus_shield_text":"76","kind_detail":"primary"},"arcs":[[1035],[1036]]},{"type":"MultiLineString","properties":{"source":"openstreetmap.org","kind":"major_road","name:en":"Izghawa Street","sort_rank":380,"kind_detail":"primary","min_zoom":8.0},"arcs":[[1037],[1038],[1039],[1040]]},{"type":"MultiLineString","properties":{"bus_network":null,"alt_name:en":"Street 200","sort_rank":380,"kind_detail":"primary","kind":"major_road","source":"openstreetmap.org","min_zoom":8.0,"name:en":"Al Corniche Street","bus_shield_text":"76","landuse_kind":"urban_area","ref":"C Ring"},"arcs":[[1041],[1042]]},{"type":"LineString","properties":{"kind":"major_road","name:en":"Al Bidda Roundabout","sort_rank":380,"landuse_kind":"urban_area","source":"openstreetmap.org","min_zoom":8.0,"kind_detail":"primary","id":95475528},"arcs":[1043]},{"type":"MultiLineString","properties":{"source":"openstreetmap.org","kind":"major_road","name:en":"Zekreet","sort_rank":380,"kind_detail":"primary","min_zoom":8.0},"arcs":[[1044],[1045],[1046]]},{"type":"MultiLineString","properties":{"source":"openstreetmap.org","kind":"major_road","name:en":"Energy Street","sort_rank":380,"kind_detail":"primary","min_zoom":8.0},"arcs":[[1047],[1048]]},{"type":"MultiLineString","properties":{"kind":"major_road","alt_name:en":"Street 233","sort_rank":380,"kind_detail":"primary","source":"openstreetmap.org","min_zoom":8.0,"name:en":"University Street","landuse_kind":"urban_area"},"arcs":[[1049],[1050]]}]},"earth":{"type":"GeometryCollection","geometries":[{"type":"MultiPolygon","properties":{"sort_rank":10,"source":"naturalearthdata.com","min_zoom":0.0,"kind":"earth","area":15421555326},"arcs":[[[1051]],[[1052]],[[1053]]]}]},"landuse":{"type":"GeometryCollection","geometries":[{"type":"MultiPolygon","properties":{"source":"openstreetmap.org","kind":"military","tier":3,"area":743457463,"sort_rank":45,"min_zoom":8.0},"arcs":[[[1054]],[[1055]],[[1056]]]},{"type":"MultiPolygon","properties":{"source":"naturalearthdata.com","kind":"urban_area","name":"","area":370546429,"sort_rank":11,"min_zoom":4.0},"arcs":[[[1057]],[[1058]],[[1059]],[[1060]]]},{"type":"Polygon","properties":{"kind":"residential","name":"Jeri Muraijeel","area":13184800,"sort_rank":20,"source":"openstreetmap.org","min_zoom":8.0,"tier":2,"id":228890109},"arcs":[[1061]]},{"type":"MultiPolygon","properties":{"source":"openstreetmap.org","kind":"residential","tier":2,"area":27206489,"sort_rank":20,"min_zoom":8.0},"arcs":[[[1062]],[[1063]]]},{"type":"Polygon","properties":{"kind":"aerodrome","area":15857200,"sort_rank":60,"source":"openstreetmap.org","min_zoom":8.0,"tier":3,"id":-7391028,"osm_relation":true},"arcs":[[1064]]},{"type":"Polygon","properties":{"kind":"aerodrome","natural":"sand","area":33798100,"sort_rank":60,"source":"openstreetmap.org","min_zoom":8.0,"tier":3,"id":245526659},"arcs":[[1065]]}]}},"type":"Topology","transform":{"translate":[50.625,24.5271348226],"scale":[0.0003433228,0.0003107315]},"arcs":[[[0,3402],[320,-38],[84,-46],[18,-36],[76,-5],[41,-33],[14,30],[9,57],[-110,98],[53,96],[120,52],[-13,64],[78,104],[-27,54],[45,135],[-53,162]],[[2799,441],[16,-85],[-20,-125],[-56,-148],[-65,-83]],[[3507,609],[-708,-168]],[[4096,702],[-17,42],[-572,-135]],[[968,0],[-84,63],[-340,636]],[[544,699],[-52,429],[-25,53],[-115,19],[-115,74],[42,272],[-21,113],[-65,99],[-74,206],[-55,382],[0,206],[-64,285]],[[2799,441],[-553,-115],[-50,-149],[-64,-37],[-95,-140]],[[3507,609],[-6,273],[-72,170],[159,329],[48,218],[-28,221],[-72,151],[81,532],[-55,237],[-176,235],[-117,271],[133,264],[64,263],[9,323]],[[4096,702],[-17,42],[-1280,-303],[16,-85],[-20,-125],[-56,-148],[-65,-83]],[[968,0],[-84,63],[-340,636]],[[544,699],[-12,-2]],[[532,697],[-48,2],[-65,-78],[-63,203],[-1,116],[-51,72],[-3,95],[-64,60],[-64,2],[-33,60],[1,115],[-141,222]],[[2307,0],[31,32],[54,-13],[-6,40],[34,42],[93,-1],[-7,22],[57,30],[-51,20],[-31,52],[1,-21],[-50,-1],[6,-22],[-28,-11],[0,87],[-33,51],[-29,-1],[-15,-37],[-71,48],[2,-82],[-55,-72],[-79,-37],[-29,-44],[11,-60],[-34,-22]],[[0,3402],[320,-38],[84,-46],[18,-36],[76,-5],[41,-33],[14,30],[9,57],[-110,98],[53,96],[120,52],[-13,64],[78,104],[-27,54],[45,135],[-53,162]],[[429,1926]],[[429,1931]],[[429,1936],[1,-2]],[[2491,741],[-389,17],[-16,1039],[-120,45],[0,41],[-129,75],[257,145],[-135,452],[-427,-6],[-21,-140],[-286,-12],[3,-448],[-797,-10]],[[556,703],[-12,-4]],[[429,1926],[4,-60],[60,-50],[8,-22],[-19,-6],[1,-3],[39,-13],[18,-57],[8,-66],[-46,-75],[-1,-105],[73,-82],[11,-60],[71,-60],[40,-135],[-28,-143],[48,-107],[-24,-101],[-136,-78]],[[429,1931],[0,-5]],[[430,1934],[-1,-3]],[[431,1939],[-2,-3]],[[1968,0],[-2,145],[14,40],[34,30],[2,4],[-1,13],[-8,-18],[-17,30],[-30,-33],[-23,39],[-16,-15],[-2,61],[-18,-33],[-20,24],[-47,-19],[-114,27],[15,77],[17,12],[19,-24],[22,33],[49,-8],[54,28],[15,-30],[21,96],[52,-131],[1,28],[42,-22],[12,52],[55,13],[-1,-33],[39,-25],[5,-63],[-43,-55],[-2,36],[0,-59],[-35,10],[20,-135],[90,75],[-23,15],[50,24],[-19,31],[76,169],[18,-2],[-22,-59],[43,56],[18,-42],[50,52],[-1,78],[18,-19],[38,135],[78,133]],[[2318,0],[33,37],[12,1],[22,51],[51,28],[61,19],[47,22],[0,24],[-45,27],[-45,1],[-35,6],[-15,42],[-19,40],[-45,10],[-54,5],[-42,22],[1,-74],[-23,-36],[-37,-26],[-41,-41],[-80,-142],[-21,-16],[-86,0],[8,94],[-8,6],[-14,31],[-5,34],[16,17],[19,9],[12,24],[3,29],[-3,25],[-33,-26],[-26,18],[-24,34],[-27,18],[-149,-22],[-7,27],[-1,4],[-7,21],[25,34],[47,19],[51,5],[39,14],[29,22],[19,-1],[4,-57],[103,11],[52,-7],[23,-36],[-16,-65],[-26,-51],[-11,-45],[34,-48],[27,44],[40,41],[37,50],[16,74],[24,24],[118,71],[38,49],[20,135],[16,61],[34,26],[15,35],[5,16],[75,292],[15,28],[19,13],[26,8],[24,13],[30,78],[101,115],[38,61],[45,194],[25,28],[-15,38],[31,331],[-6,266],[-10,57],[-10,57],[-25,63],[-26,29],[-171,27],[-37,16],[-16,36],[-4,71],[11,169],[9,139],[-5,45],[-17,46],[-107,186],[-7,30],[16,31],[24,30],[17,29],[0,4],[6,49],[-6,168],[20,-7],[20,-13],[39,22],[50,12],[40,28],[10,70],[-17,33],[-36,32],[-44,28],[-42,17],[99,54],[40,12],[11,-84],[58,23],[39,75],[-47,74],[-11,-24],[-19,-19],[-25,-3],[-26,24],[-4,30],[10,37],[21,31],[23,14],[25,-11],[17,-46],[17,-11],[23,16],[9,37],[1,44],[-13,90],[1284,0],[0,-4096],[-1778,0]],[[3169,211],[17,-16],[-3,13],[3,0],[-1,6],[4,-1],[4,0],[3,4],[0,-13],[1,-11],[11,5],[-7,-20],[3,-43],[15,-12],[8,24],[12,28],[2,10],[5,20],[-12,28],[-33,25],[-13,1],[-23,-18],[4,-30]],[[1015,4096],[-1,-8],[-27,-44],[-42,-27],[-1,38],[-10,36],[-3,5],[84,0]],[[865,4096],[-5,-18],[-14,-25],[-40,10],[0,-97],[3,-14],[15,-19],[4,-13],[-7,-17],[-28,-24],[-7,-14],[-21,-152],[3,-46],[42,-85],[62,-25],[74,13],[81,31],[-22,-39],[-41,-94],[-19,-23],[-40,2],[-24,22],[-20,11],[-33,-35],[-13,-34],[-2,-77],[-12,-75],[2,-16],[-6,-8],[-29,-9],[-21,18],[-14,18],[-23,61],[-3,24],[0,67],[19,87],[6,54],[-16,24],[-21,7],[-19,30],[-19,7],[-12,-10],[-18,-49],[-10,-19],[-39,-21],[-40,-5],[-39,-11],[-33,-41],[34,-16],[64,-12],[23,-16],[18,-39],[-1,-40],[-11,-38],[-6,-36],[4,-58],[10,-56],[46,-130],[-78,14],[0,63],[-25,24],[-10,59],[-33,41],[-55,-9],[-79,-104],[37,-40],[-4,-63],[-33,-139],[41,-242],[2,-67],[-23,-174],[3,-71],[13,-71],[5,-68],[-21,-58],[26,-76],[5,-118],[21,-110],[78,-48],[18,-25],[3,-57],[-7,-63],[-31,-91],[10,-47],[124,-234],[25,-82],[24,-306],[-20,-82],[-76,-69],[-54,-7],[-64,-62],[-43,-1],[-31,30],[-31,54],[-25,56],[-12,38],[-6,197],[-26,123],[-57,55],[-74,49],[-57,212],[-49,49],[-33,53],[-25,31],[0,2506],[865,0]],[[439,3944],[14,-24],[32,12],[-4,20],[-20,2],[-22,-10]],[[483,3858],[-24,-18],[-24,4],[-17,-16],[-38,-47],[-30,-47],[-11,-43],[-4,-38],[-1,-29],[25,-28],[0,-45],[2,-31],[-22,-51],[-11,-30],[22,-35],[33,-16],[10,8],[-8,21],[15,28],[16,29],[19,18],[-13,18],[-17,12],[4,27],[11,20],[20,8],[-5,21],[-22,30],[-13,43],[11,12],[24,23],[16,12],[36,-8],[11,16],[-23,25],[-14,14],[22,28],[22,33],[7,28],[0,21],[-29,-17]],[[522,3677],[12,-18],[24,16],[10,31],[-45,2],[-7,-15],[6,-16]],[[470,3577],[13,-26],[15,8],[20,4],[15,-4],[11,-4],[11,16],[3,25],[-14,16],[-35,6],[-19,2],[-18,2],[-6,-14],[9,-14],[-5,-17]],[[2318,0],[33,37],[12,1],[22,51],[51,28],[61,19],[47,22],[0,24],[-45,27],[-45,1],[-35,6],[-15,42],[-19,40],[-45,10],[-54,5],[-42,22],[1,-74],[-23,-36],[-37,-26],[-41,-41],[-80,-142],[-21,-16]],[[1957,0],[8,94],[-8,6],[-14,31],[-5,34],[16,17],[19,9],[12,24],[3,29],[-3,25],[-33,-26],[-26,18],[-24,34],[-27,18],[-149,-22],[-7,27],[-1,4],[-7,21],[25,34],[47,19],[51,5],[39,14],[29,22],[19,-1],[4,-57],[103,11],[52,-7],[23,-36],[-16,-65],[-26,-51],[-11,-45],[34,-48],[27,44],[40,41],[37,50],[16,74],[24,24],[118,71],[38,49],[20,135],[16,61],[34,26],[15,35],[5,16],[75,292],[15,28],[19,13],[26,8],[24,13],[30,78],[101,115],[38,61],[45,194],[25,28],[-15,38],[31,331],[-6,266],[-10,57],[-10,57],[-25,63],[-26,29],[-171,27],[-37,16],[-16,36],[-4,71],[11,169],[9,139],[-5,45],[-17,46],[-107,186],[-7,30],[16,31],[24,30],[17,29],[0,4],[6,49],[-6,168],[20,-7],[20,-13],[39,22],[50,12],[40,28],[10,70],[-17,33],[-36,32],[-44,28],[-42,17],[99,54],[40,12],[11,-84],[58,23],[39,75],[-47,74],[-11,-24],[-19,-19],[-25,-3],[-26,24],[-4,30],[10,37],[21,31],[23,14],[25,-11],[17,-46],[17,-11],[23,16],[9,37],[1,44],[-13,90]],[[1015,4096],[-1,-8],[-27,-44],[-42,-27],[-1,38],[-10,36],[-3,5]],[[865,4096],[-5,-18],[-14,-25],[-40,10],[0,-97],[3,-14],[15,-19],[4,-13],[-7,-17],[-28,-24],[-7,-14],[-21,-152],[3,-46],[42,-85],[62,-25],[74,13],[81,31],[-22,-39],[-41,-94],[-19,-23],[-40,2],[-24,22],[-20,11],[-33,-35],[-13,-34],[-2,-77],[-12,-75],[2,-16],[-6,-8],[-29,-9],[-21,18],[-14,18],[-23,61],[-3,24],[0,67],[19,87],[6,54],[-16,24],[-21,7],[-19,30],[-19,7],[-12,-10],[-18,-49],[-10,-19],[-39,-21],[-40,-5],[-39,-11],[-33,-41],[34,-16],[64,-12],[23,-16],[18,-39],[-1,-40],[-11,-38],[-6,-36],[4,-58],[10,-56],[46,-130],[-78,14],[0,63],[-25,24],[-10,59],[-33,41],[-55,-9],[-79,-104],[37,-40],[-4,-63],[-33,-139],[41,-242],[2,-67],[-23,-174],[3,-71],[13,-71],[5,-68],[-21,-58],[26,-76],[5,-118],[21,-110],[78,-48],[18,-25],[3,-57],[-7,-63],[-31,-91],[10,-47],[124,-234],[25,-82],[24,-306],[-20,-82],[-76,-69],[-54,-7],[-64,-62],[-43,-1],[-31,30],[-31,54],[-25,56],[-12,38],[-6,197],[-26,123],[-57,55],[-74,49],[-57,212],[-49,49],[-33,53],[-25,31]],[[3201,258],[33,-25],[12,-28],[-5,-20],[-2,-10],[-12,-28],[-8,-24],[-15,12],[-3,43],[7,20],[-11,-5],[-1,11],[0,13],[-3,-4],[-4,0],[-4,1],[1,-6],[-3,0],[3,-13],[-17,16],[-4,30],[23,18],[13,-1]],[[435,3844],[24,-4],[24,18],[29,17],[0,-21],[-7,-28],[-22,-33],[-22,-28],[14,-14],[23,-25],[-11,-16],[-36,8],[-16,-12],[-24,-23],[-11,-12],[13,-43],[22,-30],[5,-21],[-20,-8],[-11,-20],[-4,-27],[17,-12],[13,-18],[-19,-18],[-16,-29],[-15,-28],[8,-21],[-10,-8],[-33,16],[-22,35],[11,30],[22,51],[-2,31],[0,45],[-25,28],[1,29],[4,38],[11,43],[30,47],[38,47],[17,16]],[[439,3944],[14,-24],[32,12],[-4,20],[-20,2],[-22,-10]],[[523,3708],[-7,-15],[6,-16],[12,-18],[24,16],[10,31],[-45,2]],[[490,3620],[-18,2],[-6,-14],[9,-14],[-5,-17],[13,-26],[15,8],[20,4],[15,-4],[11,-4],[11,16],[3,25],[-14,16],[-35,6],[-19,2]],[[2815,2254],[-32,-16]],[[2784,2238],[32,16]],[[2556,2349],[22,-21]],[[2579,2328],[-16,17]],[[2396,2552],[-14,-1],[-2,0]],[[2380,2551],[-67,-11]],[[2314,2543],[7,6],[59,2]],[[2380,2551],[16,-1]],[[2459,2553],[-58,-1]],[[2401,2550],[58,3]],[[2252,2098],[-35,62]],[[2251,2095],[18,-42]],[[2269,2054],[-16,42]],[[2699,2440],[0,-4]],[[2561,2267],[35,-33]],[[2596,2235],[-34,32]],[[2860,2316],[-32,-13],[-56,-36],[-28,-8]],[[2745,2259],[28,8],[87,49]],[[2568,2456],[12,-58]],[[2580,2399],[-11,58]],[[2396,2695],[118,75]],[[2514,2770],[-118,-74]],[[2621,2286],[-6,0]],[[2589,2556],[-4,-5]],[[2585,2551],[4,3]],[[2284,2509],[13,-3]],[[2298,2507],[-11,6]],[[2704,2266],[46,-78]],[[2751,2189],[-46,77]],[[2569,2493],[13,-22],[7,-4]],[[2589,2467],[-19,26]],[[2589,2466],[12,-39]],[[2605,2420],[-15,47]],[[2516,2408],[-38,-17]],[[2478,2391],[-54,-25]],[[2424,2367],[54,24]],[[2478,2391],[39,17]],[[2678,2432],[0,-1]],[[2536,2544],[2,-21],[30,-67]],[[2569,2457],[-32,86]],[[2677,2460],[2,-1]],[[2679,2459],[17,-10],[3,-9]],[[2700,2436],[-21,23]],[[2679,2459],[-2,2]],[[2711,2435],[-10,0],[-10,-1]],[[2692,2434],[27,1]],[[2396,2550],[4,-3],[1,5],[-4,1],[-1,-3]],[[2880,2347],[1,0]],[[2539,3711],[12,-20]],[[2552,3691],[-11,20]],[[2551,3689],[0,-30]],[[2552,3659],[0,30]],[[2695,2384],[15,-12]],[[2350,2246],[16,-25]],[[2350,2247],[16,-25]],[[2367,2222],[-13,20],[-3,6]],[[2360,2233],[-8,14]],[[2605,2419],[14,9]],[[2510,2559],[0,1],[-1,3]],[[2509,2563],[-5,14]],[[2504,2578],[4,-11],[1,-4]],[[2509,2563],[0,-3],[0,-1]],[[2487,2645],[9,-43]],[[2497,2610],[-8,28]],[[2573,3819],[-4,-14]],[[2570,3805],[5,13]],[[2846,2006],[-15,-36]],[[2832,1970],[15,35]],[[2861,2041],[-14,-34]],[[2848,2007],[14,34]],[[2499,2469],[18,-4],[-2,43]],[[2509,2559],[1,-24]],[[2511,2535],[-1,24]],[[2510,2534],[4,-24]],[[2515,2510],[-4,24]],[[2514,2508],[2,-42]],[[2661,2409],[-22,-3]],[[2640,2406],[20,1]],[[2603,2419],[2,0]],[[2614,2286],[-38,-35]],[[2577,2250],[38,35]],[[2615,2286],[-2,-3]],[[2619,2314],[-4,-27]],[[2616,2287],[4,27]],[[2631,2422],[-11,-54],[-1,-53]],[[2620,2315],[12,107]],[[2770,2266],[6,-14]],[[2777,2252],[-7,14]],[[2322,2229],[28,17]],[[2349,2248],[-24,-16]],[[2530,2366],[-179,-117]],[[2352,2247],[183,120]],[[2368,2661],[24,-27]],[[2769,1464],[-92,-24]],[[2705,1439],[66,24]],[[2580,2398],[-21,-13]],[[2574,2250],[-4,-6]],[[2571,2243],[4,6]],[[2601,2427],[2,-8]],[[2475,2475],[43,-68]],[[2517,2410],[-41,65]],[[2678,2431],[-15,-20]],[[2671,2418],[7,14]],[[2297,2523],[7,6],[5,10],[2,1]],[[2311,2540],[3,3]],[[2313,2540],[-2,0]],[[2311,2540],[-2,0],[-10,-14]],[[2649,2458],[2,-35]],[[2650,2441],[-1,17]],[[2603,2375],[-18,18]],[[2638,2368],[-31,5]],[[2699,2425],[0,-33]],[[2378,2481],[0,-16]],[[2536,2546],[-29,13],[-2,0]],[[2505,2559],[-40,-4]],[[2465,2555],[-2,-1],[-4,-1]],[[2459,2553],[4,1],[2,1]],[[2465,2555],[11,3]],[[2501,2560],[3,-1],[1,0]],[[2505,2559],[2,0],[6,-3],[23,-11]],[[2539,2543],[53,-24]],[[2592,2519],[-53,26]],[[2596,2519],[-4,0]],[[2494,2469],[10,-1]],[[2712,2367],[-13,-14]],[[2651,2422],[1,-2]],[[2663,2411],[-11,11]],[[2655,2416],[5,-4]],[[358,768],[-2,2],[-2,-3],[3,-1],[1,2]],[[2740,1755],[-17,-6],[9,-16],[17,6],[-9,16]],[[2704,1566],[-13,-18]],[[2691,1547],[1,-76]],[[2692,1470],[9,-52]],[[2692,1548],[13,17]],[[2693,1471],[-1,76]],[[2702,1417],[-9,53]],[[2723,1327],[29,-22]],[[2752,1306],[-29,21]],[[2284,2509],[3,4]],[[2621,2428],[27,-6]],[[2450,2578],[9,-20]],[[2460,2558],[-10,20]],[[0,986],[210,-1],[115,-46],[29,-171]],[[357,769],[-32,171],[-115,46],[-210,0]],[[356,766],[62,-151],[2,1]],[[420,616],[27,5]],[[447,621],[128,22]],[[575,644],[-128,-23]],[[447,621],[-27,-5]],[[420,616],[-62,151]],[[2151,2736],[-3,-65]],[[2148,2671],[0,-5]],[[2148,2666],[-40,-35]],[[2109,2630],[39,35],[0,1]],[[2148,2666],[0,5]],[[2148,2671],[5,65]],[[2186,2888],[-35,-151]],[[2153,2737],[34,151]],[[2209,2915],[-22,-26]],[[2187,2889],[22,25]],[[2257,2957],[-48,-41]],[[2210,2915],[48,41]],[[2284,2964],[-26,-7]],[[2259,2956],[25,7]],[[2591,2340],[64,0]],[[2653,2340],[-62,1]],[[2659,2340],[25,3],[29,25],[1,2]],[[2713,2370],[-1,-3]],[[2596,2234],[149,25]],[[2744,2259],[-148,-24]],[[2881,2347],[9,-17],[-30,-14]],[[2860,2316],[16,5],[15,8],[0,8],[-2,9]],[[2529,2420],[4,8]],[[1354,0],[-79,176]],[[2307,2971],[-23,-7]],[[2284,2963],[23,7]],[[2360,2980],[-52,-9]],[[2308,2970],[53,9]],[[2457,2998],[-74,-14]],[[2393,2985],[64,12]],[[2594,2411],[9,7]],[[2602,2418],[-5,-4]],[[2513,2333],[1,-1],[1,1],[-1,1],[-1,-1]],[[2381,2465],[13,11]],[[2366,2221],[12,-18]],[[2366,2222],[13,-20]],[[2414,2148],[-47,74]],[[2392,2183],[10,-16]],[[2409,2155],[8,-13]],[[2424,2132],[10,-16]],[[2434,2117],[-9,14]],[[2434,2115],[13,-20]],[[2448,2096],[-13,20]],[[2448,2095],[10,-17]],[[2459,2078],[-11,17]],[[2459,2077],[2,-4]],[[2463,2071],[-3,7]],[[2398,2584],[1,-31]],[[2401,2553],[-3,31]],[[2277,2199],[11,-19]],[[2288,2181],[-11,18]],[[2288,2180],[32,-53]],[[2321,2127],[-32,53]],[[2321,2126],[6,-12]],[[2328,2114],[-7,12]],[[2014,2531],[-53,-85]],[[1961,2446],[-19,-30],[9,-66]],[[1951,2349],[95,-273],[90,-79]],[[1952,2350],[-9,65],[18,31]],[[1961,2446],[29,48]],[[2138,1998],[-91,78],[-95,274]],[[2138,1995],[14,-6]],[[2152,1989],[60,-27],[5,-5]],[[2217,1957],[4,-3]],[[2221,1954],[31,-28]],[[2252,1926],[1,-1]],[[2253,1925],[8,-7],[31,-122]],[[2292,1796],[2,-5]],[[2294,1791],[1,-3],[222,-205]],[[2520,1582],[-11,17],[-217,197],[-30,129],[-12,9]],[[2250,1934],[-1,1]],[[2249,1935],[-17,14]],[[2232,1949],[-5,3]],[[2227,1952],[-18,15],[-70,30]],[[2520,1582],[-4,4]],[[2516,1586],[-99,93]],[[2417,1679],[-125,117]],[[2292,1796],[-1,2]],[[2291,1798],[-3,2],[-24,85]],[[2264,1885],[-11,40]],[[2253,1925],[-3,9]],[[2250,1934],[-2,8],[-21,10]],[[2227,1952],[-10,5]],[[2217,1957],[-65,32]],[[2152,1989],[-10,5]],[[2144,1991],[77,-37]],[[2221,1954],[11,-5]],[[2232,1949],[15,-7],[2,-7]],[[2249,1935],[3,-9]],[[2252,1926],[12,-41]],[[2264,1885],[27,-87]],[[2291,1798],[1,-6],[2,-1]],[[2294,1791],[123,-112]],[[2417,1679],[90,-82],[9,-11]],[[2516,1586],[2,-2],[19,-26],[72,-60]],[[2604,1502],[-84,80]],[[2652,2560],[-48,-42],[-4,-17],[14,-25]],[[2626,2473],[-25,29],[41,47]],[[2629,2569]],[[2557,2272],[4,-5]],[[2562,2267],[-5,5]],[[2595,2454],[-100,16],[-23,2]],[[2472,2471],[84,-12]],[[2587,2454],[8,-1]],[[2347,2487],[31,-6]],[[2595,2454],[0,-1]],[[2596,2453],[0,1]],[[2646,1502],[0,-1]],[[2646,1502],[1,0]],[[2678,1440],[27,-1]],[[2710,1626],[29,-6]],[[2721,1625],[-11,2]],[[2717,1295],[58,90]],[[2774,1385],[-57,-88]],[[2770,1465],[-1,-1]],[[2771,1463],[1,-1]],[[2771,2268],[1,-2]],[[2785,1403],[-10,-16]],[[2776,1386],[10,17]],[[2835,1978],[-1,-3]],[[2288,2180],[1,0],[-1,1],[0,-1]],[[2320,2127],[1,-1],[0,1],[-1,0]],[[2350,2431],[3,1],[-1,2],[-2,0],[0,-3]],[[2351,2249],[1,-3],[-1,3]],[[2413,2502],[0,-1],[1,0],[0,1],[-1,0]],[[2447,2482],[1,1],[0,1],[-1,0],[0,-2]],[[2460,2553],[1,-1],[1,2],[-1,1],[-1,-2]],[[2470,2419],[-2,1],[0,-2],[1,0],[1,1]],[[2475,2474],[-1,-3],[3,-1],[1,3],[-3,1]],[[2514,2508],[1,1],[0,1],[-2,-1],[1,-1]],[[2574,2250],[2,-1],[1,1],[-1,1],[-2,-1]],[[2589,2467],[0,-1],[1,1],[-1,0]],[[2615,2287],[-1,-1],[2,0],[0,1],[-1,0]],[[2617,2446],[0,-1],[0,1]],[[2619,2315],[0,-2],[1,1],[0,1],[-1,0]],[[2658,1504],[-1,2],[-2,-1],[1,-1],[2,0]],[[2693,1548],[-1,1],[-1,-1],[1,-1],[1,1]],[[2693,1471],[-1,0],[0,-1],[1,1]],[[2776,1385],[-1,2]],[[2775,1387],[-1,-1],[1,-1],[1,0]],[[2785,1404],[0,-1],[1,0],[0,1],[-1,0]],[[2855,2092],[-2,1],[0,-2],[1,0],[1,1]],[[2862,2043],[-1,-1],[1,-1],[1,1],[-1,1]],[[2563,2579]],[[2564,2579],[-1,1]],[[2584,2551],[1,-1],[4,-6]],[[2589,2544],[3,-3]],[[2592,2540],[-3,4]],[[2589,2544],[-4,7]],[[2496,2601],[-46,-9],[-5,-2]],[[2445,2590],[51,10]],[[2496,2601],[0,-1]],[[2496,2600],[2,0]],[[2497,2601],[-1,0]],[[2592,2541],[16,-17]],[[2607,2525],[-15,15]],[[2399,2547],[14,-45]],[[2413,2501],[-12,-10]],[[2414,2502],[-13,46]],[[2407,2490],[7,10]],[[2677,2432],[-11,-2]],[[2666,2429],[11,2]],[[2570,2244],[-18,-24]],[[2553,2220],[18,23]],[[2461,2737],[26,-92]],[[2489,2638],[-5,36],[-22,63]],[[2496,2602],[0,-1]],[[2497,2601],[0,9]],[[2616,2451],[1,-5]],[[2617,2445],[3,-16]],[[2617,2446],[0,5]],[[2621,2429],[-4,16]],[[2616,2451],[-20,3]],[[2596,2453],[21,-2]],[[2537,2543],[2,1],[-1,2],[-3,-1],[2,-2]],[[2847,2007],[-1,0],[1,-2],[1,1],[-1,1]],[[2617,2459],[-1,-8]],[[2617,2451],[1,7]],[[2619,2469],[-2,-8]],[[2618,2461],[4,7]],[[2348,2306],[0,-51],[1,-3]],[[2349,2252],[0,-3],[1,-2]],[[2348,2273],[1,-21]],[[2349,2252],[0,-4]],[[2351,2248],[-2,7],[0,51]],[[2351,2249],[-2,26]],[[2350,2432],[-1,-7]],[[2351,2425],[0,6]],[[2378,2465],[-26,-31]],[[2353,2433],[28,32]],[[2453,2781],[-79,-39]],[[2374,2741],[79,40]],[[2665,2430],[-11,-5]],[[2593,2809],[-19,-6]],[[2574,2803],[-14,-5],[-11,-6]],[[2549,2791],[12,7],[13,5]],[[2574,2803],[16,5]],[[2574,2804],[20,7]],[[2654,2340],[50,-74]],[[2705,2266],[-50,74]],[[2596,2413],[16,11]],[[2612,2424],[-15,-10]],[[2612,2424],[-7,-4]],[[2620,2430],[-8,-6]],[[2619,2428],[2,1]],[[2680,2432],[-3,0]],[[2677,2431],[1,0]],[[2349,2425],[-1,-35]],[[2348,2389],[0,-83]],[[2349,2306],[0,83]],[[2349,2390],[2,35]],[[2271,2197],[-90,-57],[-164,-74],[-109,-47]],[[1908,2019],[-301,-131]],[[1607,1888],[-7,-3],[-40,-25],[-242,-216],[-172,-176],[-105,-167],[-311,-280],[-11,-37]],[[719,984],[-5,-17]],[[716,975],[3,9]],[[719,984],[15,41],[81,56],[1,1],[229,222],[166,231],[392,351],[4,2]],[[1607,1888],[15,9],[286,122]],[[1908,2019],[111,47],[167,76],[85,54]],[[2731,1734],[-33,-132]],[[2699,1602],[35,131]],[[2800,1898],[-60,-143]],[[2742,1754],[60,145]],[[2642,2549],[12,12]],[[2654,2561],[-2,-1]],[[466,2586],[62,-459],[52,-124],[73,-140],[94,-157],[133,-207],[190,-176]],[[1068,1325],[-187,174],[-300,504],[-52,122],[-62,461]],[[2612,2588]],[[2629,2570]],[[2433,2527],[2,0],[-2,3],[-1,-1],[1,-2]],[[2498,3681],[-80,-60]],[[2419,3620],[80,60]],[[2551,3656],[-150,-361],[-8,-86],[1,-2]],[[2394,3207],[2,-4]],[[2396,3203],[38,-96]],[[2435,3107],[-39,96]],[[2396,3203],[-2,4]],[[2394,3207],[7,88],[78,163],[73,198]],[[2665,2431],[0,-1]],[[2665,2431],[-1,-2],[1,0],[1,1],[-1,1]],[[2600,2501],[-1,0]],[[2553,2381],[-282,-184]],[[2271,2196],[121,78],[171,112]],[[1275,176],[-3,5]],[[2202,4096],[43,-43],[125,-105],[106,1]],[[2477,3950],[-107,-2],[-158,148]],[[2144,2592],[-18,-30],[-15,-27]],[[2112,2535],[33,56]],[[2320,2715],[-91,-9],[-57,-8],[-27,-104]],[[2146,2594],[27,104],[148,17]],[[2416,3620],[-180,-102]],[[2236,3517],[28,4],[153,98]],[[2329,1959],[14,-22]],[[2344,1938],[-14,21]],[[2344,1938],[-1,-1],[1,-1],[1,1],[-1,1]],[[2378,2203],[3,-3]],[[2379,2202],[13,-19]],[[2552,2220],[-11,-18],[-61,-32],[-59,-27],[-1,0]],[[2420,2143],[-1,-1]],[[2419,2142],[-1,0]],[[2418,2142]],[[2418,2142]],[[2418,2142]],[[2418,2142],[-1,-1]],[[2417,2141],[-1,0]],[[2416,2141],[-2,-1]],[[2414,2140],[-28,-11]],[[2398,2132],[18,8]],[[2416,2140],[1,1]],[[2417,2141],[1,0]],[[2418,2141]],[[2418,2141],[1,0]],[[2419,2141]],[[2419,2141],[1,1]],[[2420,2142],[1,0]],[[2421,2142],[4,2]],[[2425,2144],[13,6]],[[2437,2151],[-17,-8]],[[2420,2143]],[[2420,2143],[-2,-1]],[[2418,2142]],[[2418,2142]],[[2418,2142]],[[2418,2142],[-1,-1]],[[2417,2141],[-1,0]],[[2416,2141],[-2,-1]],[[2414,2140],[-16,-7]],[[2402,2167],[14,-23]],[[2416,2144],[1,-1],[1,-1]],[[2418,2142]],[[2418,2142]],[[2418,2142]],[[2418,2142],[0,-1]],[[2418,2141]],[[2418,2141]],[[2418,2141]],[[2418,2141],[2,-2]],[[2420,2139],[4,-7]],[[2417,2140]],[[2417,2140],[0,1]],[[2417,2141]],[[2417,2141],[1,1]],[[2418,2142]],[[2418,2142]],[[2418,2142]],[[2418,2142]],[[2418,2142],[0,1],[-1,1]],[[2417,2144],[-7,11]],[[2425,2131],[-5,8]],[[2420,2139],[-1,2]],[[2419,2141]],[[2419,2141]],[[2419,2141]],[[2419,2141],[-1,1]],[[2418,2142]],[[2418,2142]],[[2418,2142]],[[2418,2142],[-1,2]],[[2417,2144],[-3,4]],[[2420,2144],[-3,0]],[[2417,2144]],[[2417,2144],[-1,0]],[[2416,2144],[0,-3]],[[2417,2140],[-1,0]],[[2416,2140]],[[2416,2140],[0,1]],[[2416,2141]],[[2416,2141]],[[2428,2127],[-7,12]],[[2421,2139],[-1,2],[-1,0]],[[2419,2141]],[[2419,2141],[-1,0]],[[2418,2141]],[[2418,2141]],[[2418,2141],[-1,0]],[[2417,2141]],[[2417,2141]],[[2417,2141],[-1,0]],[[2416,2140]],[[2416,2140],[1,0]],[[2417,2140],[1,1]],[[2418,2141]],[[2418,2141],[1,0]],[[2419,2141]],[[2419,2141],[1,1]],[[2420,2142],[1,0]],[[2421,2142],[4,2]],[[2425,2144],[53,24],[2,1],[62,33],[11,18]],[[2417,2140],[2,-2],[1,0]],[[2420,2138],[0,1]],[[2420,2139]],[[2420,2139],[1,0]],[[2421,2139],[0,3]],[[2417,2142],[1,0]],[[2418,2142]],[[2418,2142]],[[2418,2142]],[[2418,2142]],[[2418,2142],[1,0]],[[2419,2142],[1,0]],[[2420,2142]],[[2420,2142],[1,0]],[[2420,2144],[0,-1]],[[2420,2143],[-1,-1]],[[2419,2142]],[[2419,2142],[0,-1]],[[2419,2141]],[[2419,2141]],[[2419,2141]],[[2419,2141],[-1,0]],[[2418,2141],[0,-1],[2,-2]],[[2420,2138],[5,-8]],[[2420,2144],[0,-1]],[[2420,2143]],[[2420,2143],[1,-1]],[[2421,2142]],[[2421,2142]],[[2435,3105],[40,-96]],[[2476,3009],[-40,96]],[[2475,3008],[-16,-10]],[[2459,2997],[16,10]],[[2461,2073],[8,-40],[33,-106]],[[2503,1928],[-40,143]],[[2475,3663],[-4,-3]],[[2476,3008],[1,1]],[[2477,3947],[69,-104]],[[2501,2994],[-24,14]],[[2548,3844],[-70,104]],[[2501,2994],[3,-3]],[[2506,2992],[-5,2]],[[2502,1927],[99,-106],[122,-73]],[[2724,1750],[-121,71],[-100,106]],[[2504,2991],[2,0],[0,1],[-1,0],[-1,-1]],[[2531,1573],[15,1]],[[2548,3842],[25,-23]],[[2574,3820],[-25,23]],[[2550,3657],[2,1]],[[2570,1590],[-16,-27]],[[2554,1563],[16,26]],[[2710,1627],[-10,2],[-67,0],[-62,-38]],[[2572,1590],[61,38],[77,-2]],[[2572,1590],[-1,1],[-1,-2],[2,1]],[[2576,2846],[8,-17]],[[2588,1080],[3,7]],[[2591,1087],[29,59]],[[2619,1147],[-28,-60]],[[2591,1087],[-2,-6]],[[2590,2814],[1,-6]],[[2590,2812],[1,-3]],[[2604,1502],[-11,11]],[[2595,2606],[15,10]],[[2600,1505],[10,-7]],[[2609,2756],[-1,3]],[[2608,2759],[-4,13]],[[2606,2611],[3,2]],[[2608,2759]],[[2608,2759],[-1,2]],[[2607,2675],[1,0]],[[2609,2637],[-2,-2]],[[2610,2619],[-2,-3]],[[2609,2684],[1,-43]],[[2610,2641],[2,-53]],[[2609,2610],[1,5]],[[2610,2634],[0,7]],[[2610,2641],[-1,42]],[[2610,2692],[2,-1]],[[2613,2693],[-2,1]],[[2616,2726],[2,1]],[[2619,2711],[-2,2]],[[2623,2715],[-6,3]],[[2654,1214],[-34,-67]],[[2620,1147],[-1,0]],[[2619,1147],[0,-1],[1,0],[0,1]],[[2620,1146],[35,68]],[[2635,2758],[4,2]],[[2650,1445],[28,-5]],[[2669,1265],[-14,-50]],[[2655,1215],[-1,-1]],[[2654,1214],[1,0]],[[2655,1214],[1,1]],[[2656,1215],[-1,0]],[[2656,1215],[14,50]],[[2702,1276],[-26,-10]],[[2676,1265],[27,10]],[[2676,1265],[0,1],[-2,-1],[1,-1],[1,1]],[[2717,1297],[-13,-21]],[[2704,1276],[13,19]],[[2704,1276],[0,1],[-1,-1],[0,-1],[1,1]],[[2751,2187],[50,-60]],[[2802,2127],[-50,60]],[[2780,2200],[-28,-12]],[[2752,2188],[28,11]],[[2781,2200],[13,5],[-14,-5]],[[2795,2207],[0,-2]],[[2831,1970],[0,-2]],[[2831,1968],[8,-36],[-39,-34]],[[2802,1899],[38,32],[-9,37]],[[2831,1968]],[[2830,2138],[2,1]],[[2045,2563],[-1,0],[0,-1],[1,0],[0,1]],[[2108,2631],[-1,-1],[1,-1],[1,1],[-1,1]],[[2145,2594],[-1,-1],[1,-2],[2,1],[-2,2]],[[2151,2737],[0,-1],[2,0],[0,1],[-2,0]],[[2186,2890],[0,-1],[1,-1],[0,1],[-1,1]],[[2209,2916],[0,-1],[1,0],[0,1],[-1,0]],[[2235,3518],[-1,-1],[1,-1],[1,2],[-1,0]],[[2243,2268],[0,1],[-2,1],[0,-2],[2,0]],[[2251,2098],[0,-2],[2,0],[0,2],[-2,0]],[[2258,2957],[-1,-1],[2,0],[0,1],[-1,0]],[[2269,2284],[2,-1],[0,2],[-2,0],[0,-1]],[[2308,2971],[-1,0],[0,-1],[1,0],[0,1]],[[2315,2312],[2,1],[0,1],[-2,0],[0,-2]],[[2322,2715],[0,1],[-1,0],[0,-1],[1,0]],[[2329,2111],[1,-1],[0,1],[-1,1],[0,-1]],[[2329,1961],[0,-1],[0,-1],[1,1],[-1,1]],[[2337,2751],[-1,1],[0,-1],[1,0]],[[2339,2724],[-1,1],[0,-1],[1,-1],[0,1]],[[2349,2389],[0,1],[-1,0],[0,-1],[1,0]],[[2350,2729],[-1,1],[0,-1],[1,0]],[[2368,2660],[2,2],[0,1],[-2,-1],[0,-2]],[[2369,2120],[1,1],[-2,1],[0,-1],[1,-1]],[[2388,2691],[-1,1],[-1,0],[1,-1],[1,0]],[[2393,2633],[0,1],[-1,0],[0,-1],[1,0]],[[2407,2618],[1,1],[-1,1],[-1,-1],[1,-1]],[[2417,3621],[-1,-1],[2,-1],[1,2],[-2,0]],[[2435,3107],[-1,-2],[1,0],[1,1],[-1,1]],[[2435,2116],[-1,1],[0,-1],[0,-1],[1,1]],[[2448,2095],[0,1],[-1,-1],[1,0]],[[2458,2998],[-1,0],[1,-2],[1,1]],[[2459,2997],[-1,1]],[[2460,2078],[-1,0],[-1,0],[1,-1],[1,1]],[[2475,3009],[0,-1],[1,-1],[1,2]],[[2477,3009],[-2,0]],[[2477,3949],[-1,-1],[2,-1],[0,2],[-1,0]],[[2502,1927],[1,0],[0,1],[-1,0],[0,-1]],[[2531,1573],[-1,1],[-1,-1],[1,0],[1,0]],[[2547,3844],[-1,-1],[2,-1]],[[2548,3842],[1,2],[-2,0]],[[2548,2792],[0,-1],[1,0],[0,1],[-1,0]],[[2573,3819],[3,0]],[[2575,2736],[-1,1],[-1,-1],[1,-1],[1,1]],[[2624,1367],[-1,1],[-1,0],[0,-2],[2,1]],[[2669,1265],[1,1],[-1,0],[-1,-1],[1,0]],[[2751,2189],[-1,-1],[1,-1],[1,1],[-1,1]],[[2781,2200],[-1,0],[0,-1],[1,1]],[[2440,2579],[-7,-27]],[[2433,2553],[7,26]],[[2660,2412],[16,-12]],[[2277,2199],[-6,11]],[[2271,2209],[6,-10]],[[2701,1418],[22,-91]],[[2723,1327],[-21,90]],[[2752,1305],[16,-11],[-16,12]],[[2253,2096],[30,6]],[[2281,2103],[-28,-5]],[[2323,2109],[6,1]],[[2329,2111],[-5,-1]],[[2449,2468],[19,-48]],[[2469,2420],[-19,48]],[[2469,2418],[8,-29]],[[2478,2390],[-8,28]],[[1990,2494],[39,54],[4,80]],[[2032,2628],[-18,-97]],[[2234,3518],[-67,-10],[-11,-7],[-15,-21]],[[2141,3480],[-12,-15]],[[2129,3465],[-14,-18],[-30,-467],[-22,-170],[-32,-66],[1,-115]],[[2033,2629],[-1,114],[32,67],[22,170],[31,465],[12,20]],[[2129,3465],[9,14],[3,1]],[[2141,3480],[93,37]],[[2032,2628],[1,0],[0,1],[-1,-1]],[[2426,2631],[-2,-2],[2,-1],[3,3],[-3,0]],[[2783,2239],[12,-32]],[[2832,2141],[-48,97]],[[2795,2205],[25,-50]],[[2821,2153],[9,-15]],[[2592,2501],[-23,-7]],[[2570,2493],[22,7]],[[2593,2501],[6,1]],[[2652,2422],[-2,19]],[[2629,2553]],[[2510,2596],[53,-17]],[[2563,2580],[-53,17]],[[2563,2579],[21,-28]],[[2585,2551],[-21,28]],[[2549,3746],[-1,-2],[1,0],[1,1],[-1,1]],[[2622,1367],[46,-101]],[[2623,1369],[-1,-1]],[[2623,1369],[1,96],[5,20]],[[2623,1368],[0,1]],[[2669,1266],[-46,101]],[[2624,1463],[6,22]],[[1990,2494],[55,68]],[[2044,2563],[-30,-32]],[[2063,2588],[-19,-25]],[[2045,2563],[18,25]],[[2593,1513],[-63,61]],[[2546,1574],[36,-48],[18,-21]],[[2677,1440],[-27,6],[-9,11]],[[2641,1457],[-37,45]],[[2610,1498],[31,-41]],[[2641,1457],[9,-12]],[[2510,2535],[1,-1],[1,1],[-1,0],[-1,0]],[[2297,2506],[50,-19]],[[2393,2479],[-95,28]],[[2394,2476],[46,-9],[18,2],[14,2]],[[2472,2472],[-58,4]],[[2730,1442],[2,-5],[42,-51]],[[2774,1386],[-44,57]],[[2706,1565],[0,2],[-1,0],[0,-2],[1,0]],[[2723,1514],[0,-2],[1,0],[1,2],[-2,0]],[[2723,1492],[0,-1],[1,0],[1,1],[-2,0]],[[2510,2597],[-13,4]],[[2498,2600],[12,-4]],[[2585,2551],[-16,-58]],[[2570,2493],[15,58]],[[2620,2429],[1,-1]],[[2654,2424],[-33,5]],[[2648,2422],[3,0],[13,7]],[[2834,2130],[19,-37]],[[2854,2093],[-18,39]],[[2525,2644],[61,12]],[[2586,2656],[-61,-11]],[[1080,1306],[-12,19]],[[1070,1323],[10,-17]],[[1080,1306],[120,-231],[76,-246],[19,-266],[-43,-200],[20,-182]],[[2459,2558],[16,-83]],[[2476,2475],[-13,74],[-3,9]],[[2548,3744],[-10,-32]],[[2539,3712],[10,32]],[[2550,3748],[-1,-2]],[[2550,3745],[1,3]],[[2476,2558],[25,2]],[[2383,2984],[-23,-4]],[[2361,2979],[32,6]],[[2646,1502],[-17,-17]],[[2630,1485],[16,16]],[[2656,1505],[-9,-2]],[[2647,1502],[9,2]],[[2657,1504],[34,-13],[32,0]],[[2723,1492],[-66,13]],[[2505,2346],[8,-12]],[[2514,2334],[-6,9]],[[2514,2332],[7,-9]],[[2521,2323],[43,-59],[-21,25]],[[2543,2289],[-5,7],[-17,27]],[[2521,2323],[-6,10]],[[2477,2389],[25,-37],[3,-5]],[[2505,2347],[-27,43]],[[2338,2724],[-16,-8]],[[2322,2715],[16,8]],[[2349,2729],[-10,-4]],[[2339,2724],[10,5]],[[2374,2742],[-24,-12]],[[2350,2729],[24,12]],[[2591,2341],[-35,9],[-39,60]],[[2518,2407],[29,-48],[8,-9],[7,-5],[10,-4],[19,-1]],[[2853,2091],[8,-48]],[[2863,2043],[-8,49]],[[2698,1602],[7,-36]],[[2706,1567],[-7,35]],[[2599,2502],[2,0]],[[2820,2155],[1,-2]],[[2552,3658],[-2,-1]],[[2518,3694],[-1,1],[-1,0],[1,-2],[1,1]],[[2539,3712],[0,-1],[2,0],[-1,1],[-1,0]],[[2551,3691],[-1,-1],[2,-1],[1,2],[-2,0]],[[2747,2430],[68,-176]],[[2816,2254],[4,14],[-8,34],[-17,46],[-31,66],[-16,17]],[[2603,2418],[27,-12],[10,0]],[[2639,2406],[-35,12]],[[2660,2407],[3,3]],[[2663,2411],[-2,-2]],[[2246,1954],[-1,-1]],[[2671,2163],[16,-48],[110,-165],[0,-59]],[[2802,1899],[-3,51],[-121,210]],[[1951,2350],[0,-1],[1,0],[0,1],[-1,0]],[[2139,1997],[-2,0],[0,-1],[1,-1],[1,2]],[[2368,2121],[-38,-9]],[[2330,2111],[38,9]],[[2386,2129],[-17,-7]],[[2370,2121],[46,19]],[[2327,2114],[2,-3]],[[2330,2112],[-2,2]],[[2445,2590],[-5,-11]],[[2440,2579],[5,11]],[[2123,4096],[119,-494],[60,-260]],[[2302,3342],[0,-2],[-14,-377]],[[2288,2963],[-1,-14],[2,-5]],[[2289,2944],[73,-171]],[[2362,2773],[12,-30],[76,-165]],[[2450,2578],[-63,139],[-25,56]],[[2362,2773],[-30,65],[-8,18],[-34,85],[-1,3]],[[2289,2944],[-1,19]],[[2288,2963],[-9,109],[23,270]],[[2302,3342],[0,7],[-61,260],[-24,101],[0,1],[-92,385]],[[2596,2454],[-1,0]],[[2595,2453],[1,0]],[[2605,2520],[-9,-1]],[[2505,2347],[0,-1]],[[2508,2343],[-3,4]],[[2543,2289]],[[2556,2459],[31,-5]],[[2830,2138],[4,-8]],[[2836,2132],[-4,9]],[[2516,3694],[-18,-13]],[[2499,3680],[18,13]],[[2538,3712],[-21,-17]],[[2518,3694],[21,17]],[[2406,2619],[-8,-35]],[[2398,2584],[9,34]],[[2539,2462],[-23,-54]],[[2517,2408],[12,12]],[[2533,2428],[6,34]],[[2550,2736],[24,-1]],[[2573,2736],[-22,1]],[[2639,2760],[-31,-10],[-27,-12],[-6,-1]],[[2575,2736],[5,1],[27,12],[28,9]],[[2594,2743],[10,4]],[[2705,1565],[18,-51]],[[2724,1514],[-18,51]],[[2723,1512],[0,-20]],[[2723,1491],[7,-49]],[[2730,1443],[-6,48]],[[2724,1492],[0,20]],[[2651,2423],[0,-1]],[[2652,2420],[3,-4]],[[2770,2266],[-56,103],[-51,42]],[[2676,2400],[19,-16]],[[2710,2372],[60,-106]],[[2663,2410],[8,8]],[[2525,2645],[-41,1],[-30,-5],[-26,-10]],[[2429,2630],[96,14]],[[2586,2656]],[[2280,2518],[-59,8],[-155,57]],[[2066,2583],[-245,107],[-37,26]],[[1784,2716],[-116,80],[-62,53],[-90,61],[-112,1],[-190,-15],[-10,0]],[[1204,2896],[-24,1],[-10,4]],[[1170,2901],[-86,32]],[[1084,2933],[-205,78]],[[879,3011],[-15,6],[-24,-4]],[[840,3013],[-9,-1]],[[831,3012],[-13,-1],[-2,-1],[-3,-2]],[[813,3008],[-90,-56]],[[723,2952],[-5,-3],[-60,-47],[-101,-22],[-4,-2]],[[553,2878],[-79,-30]],[[474,2848],[-8,-3],[-17,-167],[17,-92]],[[467,2586],[-17,92],[2,22],[22,148]],[[474,2848],[1,8]],[[478,2859],[75,19]],[[553,2878],[4,1],[27,3],[75,19],[12,8],[48,40],[4,3]],[[723,2952],[47,39],[26,12],[17,5]],[[813,3008],[3,1],[2,1],[13,2]],[[831,3012],[6,2],[3,-1]],[[840,3013],[39,-2]],[[879,3011],[20,-1],[185,-77]],[[1084,2933],[76,-31],[10,-1]],[[1170,2901],[34,-5]],[[1204,2896],[10,-1],[301,14],[90,-60],[62,-54],[111,-77],[6,-2]],[[1784,2716],[225,-93],[28,-16],[29,-24]],[[2066,2583],[6,-4],[149,-54],[63,-16]],[[908,3006],[4,-1]],[[2783,2238],[-178,-86],[-94,-77],[-266,-122]],[[2253,1955],[263,121],[94,77],[174,85]],[[2269,2284],[-26,-14]],[[2243,2268],[26,15]],[[2315,2313],[-44,-27]],[[2271,2284],[44,28]],[[2349,2334],[-33,-20]],[[2317,2313],[31,20]],[[2655,2340],[4,0]],[[2700,2434],[0,2]],[[2578,2328],[36,-42]],[[2615,2287],[-36,41]],[[2616,2285],[70,7],[28,10]],[[2714,2302],[34,11]],[[2748,2312],[-34,-10]],[[2714,2302],[-29,-10],[-69,-5]],[[2269,2053],[60,-93]],[[2330,1960],[-61,94]],[[2620,2725],[-36,107],[-7,18]],[[2577,2850],[-11,24],[23,54]],[[2589,2928],[1,4],[-83,33],[82,-32],[0,-5]],[[2589,2928],[-12,-78]],[[2577,2850],[-1,-4]],[[2584,2829],[6,-15]],[[2590,2808],[1,-3]],[[2591,2808],[26,-86]],[[2617,2718],[-9,-68]],[[2608,2650],[15,65]],[[2612,2590],[-2,44]],[[2569,2494],[-14,-7],[-16,-25]],[[2539,2462],[31,31]],[[2593,2501],[-1,0]],[[2592,2500],[1,1]],[[354,768],[-44,-80],[0,-72],[136,-243],[94,-107],[340,-266]],[[2107,2630],[-40,-35],[-4,-7]],[[2063,2588],[44,41]],[[2348,2333],[30,13]],[[2378,2346],[46,21]],[[2424,2366],[-7,-4],[-39,-16]],[[2378,2346],[-29,-12]],[[2599,2501],[-6,0]],[[2299,2526],[-19,-8]],[[2287,2513],[10,10]],[[2401,2491],[-8,-12]],[[2414,2476],[-7,14]],[[881,0],[-380,304],[-194,338],[48,124]],[[2580,2398],[10,-14],[29,-16],[40,-1],[36,18],[2,3]],[[2697,2388],[5,15],[-2,31]],[[2585,2393],[-5,6]],[[2607,2373],[-4,2]],[[2699,2392],[-2,-4]],[[2697,2388],[-2,-3],[-1,-1],[-35,-16],[-21,0]],[[2699,2436],[0,-11]],[[2605,2419],[-2,0]],[[2549,2738],[-1,-1],[2,-1],[0,2],[-1,0]],[[2748,2431],[-4,2],[-11,4],[-22,-2]],[[2719,2435],[28,-5]],[[2433,2552],[0,-22]],[[2434,2529],[-1,24]],[[2433,2527],[14,-43]],[[2447,2484],[-12,43]],[[2447,2482],[2,-14]],[[2450,2468],[-2,14]],[[2349,2729],[20,-66]],[[2370,2663],[-20,66]],[[660,718],[-85,-74]],[[575,643],[46,34],[28,27]],[[649,704],[9,10]],[[631,688],[7,6]],[[632,688],[6,6]],[[633,689],[5,5]],[[649,706],[-8,-8]],[[642,697],[11,11]],[[642,697],[7,7]],[[649,704],[4,5]],[[644,698],[2,2]],[[644,698],[2,3]],[[644,699],[2,2]],[[645,698],[7,9]],[[654,710],[4,4]],[[658,714],[4,2]],[[714,967],[1,-5]],[[715,962],[7,-81],[-16,-43]],[[706,838],[-44,-119]],[[663,717],[41,81],[2,40]],[[706,838],[9,124]],[[715,962],[1,13]],[[663,718],[-2,1],[-1,-2],[2,-1],[1,2]],[[2553,2380],[27,17]],[[2559,2385],[-6,-4]],[[2597,2414],[-17,-15]],[[2581,2398],[13,13]],[[2242,2267],[29,-58]],[[2271,2210],[-28,58]],[[2559,4096],[-81,-147]],[[2478,3948],[82,148]],[[2215,2163],[-16,25],[15,-25]],[[2831,1970]],[[2831,1968],[1,2]],[[2424,2629],[-17,-9]],[[2408,2619],[17,9]],[[2776,2252],[7,-13]],[[2784,2238],[-7,14]],[[2393,2634],[-24,26]],[[2393,2633],[13,-14]],[[2407,2620],[-14,13]],[[2569,3805],[-19,-57]],[[2551,3748],[19,57]],[[2699,2353],[-46,-13]],[[2496,2600],[0,-1],[6,-16]],[[2502,2583],[2,-5]],[[2504,2577],[-2,6]],[[2502,2583],[-5,16],[0,2]],[[2324,2110],[-43,-7]],[[2283,2102],[40,7]],[[2654,2425],[0,-1]],[[475,2856],[3,3]],[[2597,2583],[-8,-27]],[[2589,2554],[9,18],[0,14]],[[2548,2737],[-7,-60]],[[2544,2678],[5,58]],[[2563,2580],[-27,-34]],[[2538,2546],[26,33]],[[2678,2431],[14,3]],[[2691,2434],[-11,-2]],[[2386,2692],[-24,3]],[[2362,2694],[25,-3]],[[2396,2696],[-9,-4]],[[2388,2692],[8,3]],[[2614,2476],[22,-15],[27,-3],[14,2]],[[2677,2461],[-51,12]],[[2617,2461],[-1,-2],[2,0],[1,1],[-2,1]],[[2336,2752],[-23,38],[23,-39]],[[2336,2751],[13,-21]],[[2349,2730],[-12,21]],[[2214,2163],[37,-65]],[[2217,2160],[-2,3]],[[2541,2677],[22,-97]],[[2564,2579],[-20,99]],[[2043,0],[21,16],[80,142],[41,41],[37,26],[23,36],[-1,74],[42,-22],[54,-5],[45,-10],[19,-40],[15,-42],[35,-6],[45,-1],[45,-27],[0,-24],[-47,-22],[-61,-19],[-51,-28],[-22,-51],[-12,-1],[-33,-37],[-275,0]],[[3234,233],[12,-28],[-5,-20],[-2,-10],[-12,-28],[-8,-24],[-15,12],[-3,43],[7,20],[-11,-5],[-1,11],[0,13],[-3,-4],[-4,0],[-4,1],[1,-6],[-3,0],[3,-13],[-17,16],[-4,30],[23,18],[13,-1],[33,-25]],[[1015,4096],[1797,0],[13,-90],[-1,-44],[-9,-37],[-23,-16],[-17,11],[-17,46],[-25,11],[-23,-14],[-21,-31],[-10,-37],[4,-30],[26,-24],[25,3],[19,19],[11,24],[47,-74],[-39,-75],[-58,-23],[-11,84],[-40,-12],[-99,-54],[42,-17],[44,-28],[36,-32],[17,-33],[-10,-70],[-40,-28],[-50,-12],[-39,-22],[-20,13],[-20,7],[6,-168],[-6,-49],[0,-4],[-17,-29],[-24,-30],[-16,-31],[7,-30],[107,-186],[17,-46],[5,-45],[-9,-139],[-11,-169],[4,-71],[16,-36],[37,-16],[171,-27],[26,-29],[25,-63],[10,-57],[10,-57],[6,-266],[-31,-331],[15,-38],[-25,-28],[-45,-194],[-38,-61],[-101,-115],[-30,-78],[-24,-13],[-26,-8],[-19,-13],[-15,-28],[-75,-292],[-5,-16],[-15,-35],[-34,-26],[-16,-61],[-20,-135],[-38,-49],[-118,-71],[-24,-24],[-16,-74],[-37,-50],[-40,-41],[-27,-44],[-34,48],[11,45],[26,51],[16,65],[-23,36],[-52,7],[-103,-11],[-4,57],[-19,1],[-29,-22],[-39,-14],[-51,-5],[-47,-19],[-25,-34],[7,-21],[1,-4],[7,-27],[149,22],[27,-18],[24,-34],[26,-18],[33,26],[3,-25],[-3,-29],[-12,-24],[-19,-9],[-16,-17],[5,-34],[14,-31],[8,-6],[-8,-94],[-1957,0],[0,1590],[25,-31],[33,-53],[49,-49],[57,-212],[74,-49],[57,-55],[26,-123],[6,-197],[12,-38],[25,-56],[31,-54],[31,-30],[43,1],[64,62],[54,7],[76,69],[20,82],[-24,306],[-25,82],[-124,234],[-10,47],[31,91],[7,63],[-3,57],[-18,25],[-78,48],[-21,110],[-5,118],[-26,76],[21,58],[-5,68],[-13,71],[-3,71],[23,174],[-2,67],[-41,242],[33,139],[4,63],[-37,40],[79,104],[55,9],[33,-41],[10,-59],[25,-24],[0,-63],[78,-14],[-46,130],[-10,56],[-4,58],[6,36],[11,38],[1,40],[-18,39],[-23,16],[-64,12],[-34,16],[33,41],[39,11],[40,5],[39,21],[10,19],[18,49],[12,10],[19,-7],[19,-30],[21,-7],[16,-24],[-6,-54],[-19,-87],[0,-67],[3,-24],[23,-61],[14,-18],[21,-18],[29,9],[6,8],[-2,16],[12,75],[2,77],[13,34],[33,35],[20,-11],[24,-22],[40,-2],[19,23],[41,94],[22,39],[-81,-31],[-74,-13],[-62,25],[-42,85],[-3,46],[21,152],[7,14],[28,24],[7,17],[-4,13],[-15,19],[-3,14],[0,97],[40,-10],[14,25],[5,18],[66,0],[3,-5],[10,-36],[1,-38],[42,27],[27,44],[1,8]],[[1864,3888],[2,146],[59,0],[2,-146],[-63,0]],[[576,641],[52,41],[50,-68],[48,-154],[279,-195],[192,-102],[451,75],[87,64],[184,-3],[106,-46],[-42,-253],[-1015,0],[-84,63],[-308,578]],[[875,1026],[95,146],[117,0],[84,-111],[98,-422],[-3,-70],[-289,-76],[-102,533]],[[2868,1605],[-66,-233],[-95,-126],[28,141],[-109,101],[12,42],[32,0],[0,72],[32,0],[33,107],[57,3],[69,-38],[7,-69]],[[2583,2585],[20,-107],[208,-43],[26,-29],[45,-177],[5,-275],[-98,29],[1,80],[55,84],[-23,70],[-88,48],[-107,4],[-32,-36],[-107,47],[-55,-11],[-65,-36],[-13,-93],[-52,-50],[-32,18],[0,161],[153,73],[2,99],[-114,-24],[-41,31],[65,143],[167,-18],[30,99],[55,34],[-5,-121]],[[440,2818],[-63,-3],[9,137],[98,-35],[6,-44],[-50,-55]],[[2706,3820],[66,-82],[-58,-23],[-11,84],[-139,-66],[79,-41],[-60,4],[-60,43],[43,66],[140,15]],[[2360,2982],[95,9],[0,-100],[-72,-7],[-23,98]],[[2089,2401],[80,4],[46,-144],[-23,-9],[-43,63],[-22,-9],[-38,95]],[[2484,3709],[55,42],[89,-26],[-24,-56],[-89,-19],[-31,59]],[[2800,2466],[27,-18],[39,44],[62,-156],[-42,28],[-12,-40],[-24,-4],[-50,146]],[[1941,1952],[11,39],[87,-1],[58,-143],[-2,-51],[-48,-12],[-95,51],[-11,117]]]}