{"objects":{"water":{"type":"GeometryCollection","geometries":[{"type":"MultiPolygon","properties":{"source":"naturalearthdata.com","kind":"ocean","area":1576712559132672,"sort_rank":200,"min_zoom":0.0,"id":1},"arcs":[[[5]]]},{"type":"LineString","properties":{"source":"naturalearthdata.com","kind":"ocean","sort_rank":205,"boundary":true,"min_zoom":0.0,"id":2228},"arcs":[6]}]},"buildings":{"type":"GeometryCollection","geometries":[]},"places":{"type":"GeometryCollection","geometries":[]},"transit":{"type":"GeometryCollection","geometries":[{"type":"LineString","properties":{"kind":"train","alt_name:en":"New Eurasian Continental Bridge","network":"Eurasian Land Bridge","alt_name:de":"Zweite eurasische Kontinentalbr\u00fccke","sort_rank":275,"name:de":"Neue eurasische Kontinentalbr\u00fccke","source":"openstreetmap.org","min_zoom":6.0,"osm_relation":true,"name":"New Eurasian Land Bridge"},"arcs":[2]},{"type":"MultiLineString","properties":{"source":"openstreetmap.org","kind":"train","name":"Trans-Caspian Railway","sort_rank":275,"min_zoom":6.0,"osm_relation":true},"arcs":[[3],[4]]}]},"pois":{"type":"GeometryCollection","geometries":[]},"boundaries":{"type":"GeometryCollection","geometries":[{"type":"LineString","properties":{"name:kg":"Azerbaidjan","name:ty":"Atepaih\u0101nia","name:ka":"\u10d0\u10d6\u10d4\u10e0\u10d1\u10d0\u10d8\u10ef\u10d0\u10dc\u10d8","name:tr":"Azerbaycan","name:ts":"Azerbaijan","name:km":"\u17a2\u17b6\u179f\u17ca\u17c2\u1794\u17c3\u17a0\u17d2\u179f\u1784\u17cb","name:kl":"Aserbajdsjan","name:kk":"\u04d8\u0437\u0456\u0440\u0431\u0430\u0439\u0436\u0430\u043d","name:tw":"Azerbaijan","name:tt":"\u0410\u0437\u04d9\u0440\u0431\u0430\u0439\u0497\u0430\u043d","name:kw":"Azerbayjan","name:tk":"Azerba\u00fdjan","name:ku":"Azerbaycan","name:ti":"\u12a0\u12d8\u122d\u1263\u1303\u1295","name:ks":"\u0622\u0632\u064e\u0631\u0628\u0627\u062c\u0627\u0646","name:to":"\u02bbAsapaisani","name:tl":"Aserbayan","name:ce":"\u0410\u0437\u0435\u0440\u0431\u0430\u0439\u0434\u0436\u0430\u0301\u043d","name:ta":"\u0b85\u0b9a\u0bb0\u0bcd\u0baa\u0bc8\u0b9c\u0bbe\u0ba9\u0bcd","name:tg":"\u041e\u0437\u0430\u0440\u0431\u043e\u0439\u04b7\u043e\u043d","name:ky":"\u0410\u0437\u0435\u0440\u0431\u0430\u0439\u0436\u0430\u043d","name:te":"\u0c05\u0c1c\u0c30\u0c4d\u200c\u0c2c\u0c48\u0c1c\u0c3e\u0c28\u0c4d","name:cy":"Aserbaijan","name:qu":"Asarsuyu","alt_name:la":"Azerbaigiania","name:de":"Aserbaidschan","name:dz":"\u0f68\u0f5b\u0f62\u0f0b\u0f56\u0f61\u0f7a\u0f0b\u0f47\u0f53\u0f0d","source":"openstreetmap.org","name:kn":"\u0c85\u0c9c\u0cc6\u0cb0\u0ccd\u0cac\u0cc8\u0c9c\u0cbe\u0ca8\u0ccd","name:dv":"\u0787\u07a6\u0792\u07a6\u0783\u07aa\u0784\u07a6\u0787\u07a8\u0796\u07a7\u0782\u07b0","name:cu":"\u0410\ua641\u0463\u0440\u0431\u0430\u0438\u0447\u0430\u0301\u043d\u044a","name:za":"Ahsehbaiqgyangh","name:lv":"Azerbaid\u017e\u0101na","name:lt":"Azerbaid\u017eanas","name:uz":"Ozarbayjon","name:cs":"\u00c1zerb\u00e1jd\u017e\u00e1n","name:ur":"\u0622\u0630\u0631\u0628\u0627\u0626\u06cc\u062c\u0627\u0646","name:lb":"Aserbaidschan","name:la":"Atropatene","name:ki":"Azerbaijan","name:uk":"\u0410\u0437\u0435\u0440\u0431\u0430\u0439\u0434\u0436\u0430\u0301\u043d","name:ug":"\u0626\u06d5\u0632\u06d5\u0631\u0628\u06d5\u064a\u062c\u0627\u0646","name:li":"Azerbaidzjan","name:ln":"Az\u025brbayz\u00e1ni","name:lo":"\u0e9b\u0eb0\u0ec0\u0e97\u0e94\u0ead\u0eb2\u0ec1\u0e8a\u0e81\u0e9a\u0eb2\u0e8d\u0e8a\u0eb1\u0e87","name:el":"\u0391\u03b6\u03b5\u03c1\u03bc\u03c0\u03b1\u03ca\u03c4\u03b6\u03ac\u03bd","name:eo":"Azerbaj\u011dano","name:en":"Azerbaijan","name":"Az\u0259rbaycan","name:kv":"\u0410\u0437\u0435\u0440\u0431\u0430\u0439\u0434\u0436\u0430\u0301\u043d","name:ee":"Azerbaijan","name:th":"\u0e2d\u0e32\u0e40\u0e0b\u0e2d\u0e23\u0e4c\u0e44\u0e1a\u0e08\u0e32\u0e19","name:eu":"Azerbaijan","name:et":"Aserbaid\u017eaan","name:es":"Azerbaiy\u00e1n","name:ia":"Azerbaidzhan","name:rm":"Aserbeidschan","name:ro":"Azerbaidjan","name:ie":"Azerbaidjan","name:id":"Azerbaijan","name:as":"\u0986\u099c\u09c7\u09f0\u09ac\u09be\u0987\u099c\u09be\u09a8","name:ar":"\u0623\u0630\u0631\u0628\u064a\u062c\u0627\u0646","name:io":"Azerbaijan","name:av":"\u0410\u0437\u0430\u0440\u0431\u0438\u0436\u0430\u043d","name:is":"Aserba\u00edsjan","name:sl":"Azerbajd\u017ean","name:am":"\u12a0\u12d8\u122d\u1263\u12ed\u1303\u1295","name:it":"Azerbaigian","name:co":"Azerbaighjan","name:an":"Azerbaich\u00e1n","name:ru":"\u0410\u0437\u0435\u0440\u0431\u0430\u0439\u0434\u0436\u0430\u0301\u043d","name:ab":"\u0410\u0437\u0435\u0440\u0431\u0430\u0438\u045f\u044c\u0430\u043d","name:af":"Azerbeidjan","name:zu":"Azerbaijan","alt_name:gn":"Aseyvaij\u00e3","kind_detail":"2","name:ca":"Azerbaidjan","name:zh-yue":"\u963f\u585e\u62dc\u7586","name:zh":"\u963f\u585e\u62dc\u7586","name:so":"Aserbiijaan","name:sn":"Azerbaijan","name:sm":"Azerbaijin","alt_name:bg":"\u0410\u0437\u044a\u0440\u0431\u0430\u0439\u0434\u0436\u0430\u043d","name:sk":"Azerbajd\u017ean","name:ja":"\u30a2\u30bc\u30eb\u30d0\u30a4\u30b8\u30e3\u30f3","name:si":"\u0d85\u0dc3\u0dbb\u0dca\u0db6\u0dba\u0dd2\u0da2\u0dcf\u0db1\u0dba","name:sh":"Azerbejd\u017ean","name:sg":"Zerebaidy\u00e4an","name:se":"Aserbai\u017ean","name:sc":"Azerbaigi\u00e1n","name:sa":"\u0905\u091c\u0930\u094d\u092c\u0948\u091c\u093e\u0928","name:bs":"Azerbejd\u017ean","name:bm":"Az\u025brbayja\u014b","name:bn":"\u0986\u099c\u09be\u09b0\u09ac\u09be\u0987\u099c\u09be\u09a8","name:bo":"\u0f68\u0f0b\u0f5b\u0f62\u0f0b\u0f56\u0f61\u0f72\u0f0b\u0f47\u0f53\u0f0d","name:br":"Azerbaidjan","name:sw":"Azerbaijan","name:be":"\u0410\u0437\u0435\u0440\u0431\u0430\u0439\u0434\u0436\u0430\u0301\u043d","name:su":"Azerbaijan","name:bg":"\u0410\u0437\u0435\u0440\u0431\u0430\u0439\u0434\u0436\u0430\u043d","name:ss":"iZebajani","name:sr":"\u0410\u0437\u0435\u0440\u0431\u0435\u0458\u045f\u0430\u043d","name:sq":"Azerbajxhani","name:jv":"Azerbaijan","alt_name:sg":"Azerbaidy\u00e4an","name:bi":"Azerbaijan","name:pt":"Azerbaij\u00e3o","name:da":"Aserbajdsjan","name:ps":"\u0622\u0632\u0631\u0628\u0627\u06cc\u062c\u0627\u0646","name:om":"Azarbaajan","name:oc":"Azerbaitjan","alt_name:gd":"Asarbajan","min_zoom":8.0,"int_name":"Azerbaijan","name:ko":"\uc544\uc81c\ub974\ubc14\uc774\uc794","name:zh-min-nan":"Azerbaijan","name:os":"\u0410\u0437\u0435\u0440\u0431\u0430\u0439\u0434\u0436\u0430\u043d","name:or":"\u0b06\u0b1c\u0b3e\u0b30\u0b2c\u0b3e\u0b07\u0b1c\u0b3e\u0b28","name:pl":"Azerbejd\u017can","name:pi":"\u0905\u091c\u0930\u094d\u092c\u0948\u091c\u093e\u0928","sort_rank":262,"name:ba":"\u04d8\u0437\u0435\u0440\u0431\u0430\u0439\u0436\u0430\u043d","osm_relation":true,"name:pa":"\u0a05\u0a1c\u0a3c\u0a30\u0a2c\u0a3e\u0a08\u0a1c\u0a3e\u0a28","name:cv":"\u0410\u0437\u0435\u0440\u0431\u0430\u0439\u0434\u0436\u0430\u043d","name:hi":"\u0905\u091c\u093c\u0930\u092c\u0948\u091c\u093e\u0928","name:sv":"Azerbajdzjan","name:he":"\u05d0\u05b8\u05d6\u05b7\u05e8\u05b0\u05d1\u05b7\u05bc\u05d9\u05b0\u05d9\u05d2\u05b8'\u05df","name:ha":"Azerbaijan","name:hy":"\u0531\u0564\u0580\u0562\u0565\u057b\u0561\u0576","name:ht":"Azerbaydjan","name:hu":"Azerbajdzs\u00e1n","name:hr":"Azerbajd\u017ean","kind":"country","name:ak":"Azerbaijan","name:yi":"\u05d0\u05b7\u05d6\u05e2\u05e8\u05d1\u05f2\u05b7\u05d3\u05d6\u05e9\u05d0\u05b7\u05df","name:yo":"Azerbaijan","name:mt":"A\u017cerbaj\u0121an","name:ms":"Azerbaijan","name:mr":"\u0905\u091d\u0930\u092c\u0948\u091c\u093e\u0928","name:my":"\u1021\u1007\u102c\u1018\u102d\u102f\u1004\u103a\u1002\u103b\u1014\u103a\u1014\u102d\u102f\u1004\u103a\u1004\u1036","official_name":"Az\u0259rbaycan Respublikas\u0131","name:mg":"Azerbaijana","name:ml":"\u0d05\u0d38\u0d7c\u0d2c\u0d46\u0d2f\u0d4d\u0d1c\u0d3e\u0d7b","name:vi":"Azerbaijan","name:mn":"\u0410\u0437\u0435\u0440\u0431\u0430\u0439\u0436\u0430\u043d","name:mi":"Atepaih\u0101nia","id":-364110,"name:mk":"\u0410\u0437\u0435\u0440\u0431\u0435\u0458\u045f\u0430\u043d","name:vo":"Las\u00e4rb\u00e4c\u00e4n","name:fa":"\u0622\u0630\u0631\u0628\u0627\u06cc\u062c\u0627\u0646","name:rw":"Azeribayijani","name:ff":"Aserbayjan","name:fi":"Azerbaid\u017ean","name:fo":"Aserbadsjan","name:fr":"Azerba\u00efdjan","name:fy":"Azerbeidzjan","alt_name:af":"Azerbaidjan;Aserbeidjan","alt_name:qu":"Asirwayan","name:nl":"Azerbeidzjan","name:nn":"Aserbajdsjan","name:no":"Aserbajdsjan","name:na":"Aderbaidjan","name:ne":"\u0905\u091c\u0930\u092c\u0948\u091c\u093e\u0928","name:ny":"Azerbaijan","name:wo":"Aserbayjaan","name:nv":"Az\u00e9\u00e9wii Bik\u00e9yah","name:ga":"an Asarbaise\u00e1in","name:gd":"Asarbaide\u00e0n","name:gn":"Aservaij\u00e3","name:gl":"Acerbaix\u00e1n","maritime_boundary":true,"name:gv":"yn Asserbajaan","name:gu":"\u0a85\u0a9d\u0ac7\u0ab0\u0aac\u0ac0\u0a9c\u0abe\u0aa8","alt_name:sh":"Azerbajd\u017ean","name:lg":"Azerebayijaani"},"arcs":[0]},{"type":"LineString","properties":{"kind":"region","name":"Bak\u0131 \u0130nzibati \u018frazisi","sort_rank":256,"kind_detail":"4","min_zoom":8.0,"source":"openstreetmap.org","maritime_boundary":true,"name:ru":"\u0411\u0430\u043a\u0438\u043d\u0441\u043a\u0430\u044f \u0410\u0434\u043c\u0438\u043d\u0438\u0441\u0442\u0440\u0430\u0446\u0438\u044f","id":-3764541,"osm_relation":true,"name:ja":"\u30d0\u30af\u30fc"},"arcs":[1]}]},"roads":{"type":"GeometryCollection","geometries":[{"type":"LineString","properties":{"sort_rank":355,"source":"openstreetmap.org","min_zoom":8.0,"kind":"ferry"},"arcs":[7]},{"type":"LineString","properties":{"source":"openstreetmap.org","kind":"ferry","name":"Neft Da\u015flar\u0131","sort_rank":355,"min_zoom":8.0,"id":278929552},"arcs":[8]},{"type":"LineString","properties":{"kind":"ferry","network":"e-road","sort_rank":355,"source":"openstreetmap.org","min_zoom":8.0,"all_networks":["e-road"],"shield_text":"60","all_shield_texts":["60"]},"arcs":[9]},{"type":"LineString","properties":{"source":"openstreetmap.org","kind":"ferry","name:az":"Bak\u0131 - Aqtau","name":"Baku - Aktau","sort_rank":355,"name:ru":"\u0411\u0430\u043a\u0443 - \u0410\u043a\u0442\u0430\u0443","min_zoom":8.0},"arcs":[10]},{"type":"LineString","properties":{"sort_rank":355,"source":"openstreetmap.org","min_zoom":8.0,"kind":"ferry","osm_relation":true},"arcs":[11]}]},"earth":{"type":"GeometryCollection","geometries":[]},"landuse":{"type":"GeometryCollection","geometries":[]}},"type":"Topology","transform":{"translate":[50.625,39.9097362345],"scale":[0.0003433228,0.00026127]},"arcs":[[[0,963],[835,-44],[284,972],[-1119,417]],[[0,963],[835,-44],[284,972],[-1119,417]],[[2199,4096],[1897,-2854]],[[2199,4096],[1897,-2854]],[[0,958],[4096,-728]],[[4096,4096],[0,-4096],[-4096,0],[0,1529],[2,4],[-2,10],[0,2553],[4096,0]],[[0,1543],[2,-10],[-2,-4]],[[4096,1242],[-1897,2854]],[[0,1079],[191,-4],[382,62],[105,86]],[[0,958],[4096,-728]],[[0,1274],[153,47],[137,252],[206,2523]],[[4096,1242],[-1897,2854]]]}