{"objects":{"water":{"type":"GeometryCollection","geometries":[{"type":"MultiPolygon","properties":{"source":"naturalearthdata.com","kind":"ocean","area":1576712559132672,"sort_rank":200,"min_zoom":0.0,"id":1},"arcs":[[[62],[63],[64],[65],[66],[67],[68],[69],[70],[71],[72],[73],[74],[75],[76],[77],[78]],[[79]]]},{"type":"Polygon","properties":{"kind":"lake","name":"Lago Enriquillo","area":318874176,"sort_rank":200,"alkaline":true,"source":"naturalearthdata.com","min_zoom":0.0,"id":1290},"arcs":[[80]]},{"type":"Polygon","properties":{"kind":"lake","name":"Etang Saum\u00e2tre","area":143084096,"sort_rank":200,"alkaline":true,"source":"naturalearthdata.com","min_zoom":0.0,"id":1295},"arcs":[[81]]},{"type":"Point","properties":{"label_placement":true,"kind":"lake","name":"Lago Enriquillo","area":318874176,"sort_rank":200,"alkaline":true,"source":"naturalearthdata.com","min_zoom":0.0,"id":1290},"coordinates":[1085,1426]},{"type":"Point","properties":{"label_placement":true,"kind":"lake","name":"Etang Saum\u00e2tre","area":143084096,"sort_rank":200,"alkaline":true,"source":"naturalearthdata.com","min_zoom":0.0,"id":1295},"coordinates":[808,1493]},{"type":"LineString","properties":{"source":"naturalearthdata.com","kind":"ocean","sort_rank":205,"boundary":true,"min_zoom":0.0,"id":503},"arcs":[82]},{"type":"LineString","properties":{"source":"naturalearthdata.com","kind":"ocean","sort_rank":205,"boundary":true,"min_zoom":0.0,"id":504},"arcs":[83]},{"type":"LineString","properties":{"source":"naturalearthdata.com","kind":"ocean","sort_rank":205,"boundary":true,"min_zoom":0.0,"id":505},"arcs":[84]},{"type":"LineString","properties":{"source":"naturalearthdata.com","kind":"ocean","sort_rank":205,"boundary":true,"min_zoom":0.0,"id":506},"arcs":[85]},{"type":"MultiLineString","properties":{"source":"naturalearthdata.com","kind":"ocean","sort_rank":205,"boundary":true,"min_zoom":0.0,"id":507},"arcs":[[86],[87]]},{"type":"LineString","properties":{"source":"naturalearthdata.com","kind":"ocean","sort_rank":205,"boundary":true,"min_zoom":0.0,"id":508},"arcs":[88]},{"type":"LineString","properties":{"source":"naturalearthdata.com","kind":"ocean","sort_rank":205,"boundary":true,"min_zoom":0.0,"id":509},"arcs":[89]},{"type":"LineString","properties":{"source":"naturalearthdata.com","kind":"ocean","sort_rank":205,"boundary":true,"min_zoom":0.0,"id":513},"arcs":[90]},{"type":"LineString","properties":{"source":"naturalearthdata.com","kind":"ocean","sort_rank":205,"boundary":true,"min_zoom":0.0,"id":519},"arcs":[91]},{"type":"LineString","properties":{"source":"naturalearthdata.com","kind":"ocean","sort_rank":205,"boundary":true,"min_zoom":0.0,"id":520},"arcs":[92]},{"type":"LineString","properties":{"source":"naturalearthdata.com","kind":"ocean","sort_rank":205,"boundary":true,"min_zoom":0.0,"id":545},"arcs":[93]},{"type":"LineString","properties":{"source":"naturalearthdata.com","kind":"ocean","sort_rank":205,"boundary":true,"min_zoom":0.0,"id":549},"arcs":[94]},{"type":"MultiLineString","properties":{"source":"naturalearthdata.com","kind":"ocean","sort_rank":205,"boundary":true,"min_zoom":0.0,"id":551},"arcs":[[95],[96],[97]]},{"type":"LineString","properties":{"source":"naturalearthdata.com","kind":"ocean","sort_rank":205,"boundary":true,"min_zoom":0.0,"id":627},"arcs":[98]},{"type":"LineString","properties":{"source":"naturalearthdata.com","kind":"lake","sort_rank":367,"alkaline":true,"boundary":true,"min_zoom":0.0,"id":1290},"arcs":[99]},{"type":"LineString","properties":{"source":"naturalearthdata.com","kind":"lake","sort_rank":367,"alkaline":true,"boundary":true,"min_zoom":0.0,"id":1295},"arcs":[100]},{"type":"LineString","properties":{"source":"naturalearthdata.com","kind":"ocean","sort_rank":205,"boundary":true,"min_zoom":0.0,"id":3717},"arcs":[101]},{"type":"LineString","properties":{"source":"naturalearthdata.com","kind":"ocean","sort_rank":205,"boundary":true,"min_zoom":0.0,"id":3718},"arcs":[102]},{"type":"LineString","properties":{"source":"naturalearthdata.com","kind":"ocean","sort_rank":205,"boundary":true,"min_zoom":0.0,"id":3721},"arcs":[103]},{"type":"LineString","properties":{"source":"naturalearthdata.com","kind":"ocean","sort_rank":205,"boundary":true,"min_zoom":0.0,"id":3722},"arcs":[104]},{"type":"LineString","properties":{"source":"naturalearthdata.com","kind":"ocean","sort_rank":205,"boundary":true,"min_zoom":0.0,"id":3723},"arcs":[105]},{"type":"LineString","properties":{"source":"naturalearthdata.com","kind":"ocean","sort_rank":205,"boundary":true,"min_zoom":0.0,"id":3724},"arcs":[106]}]},"buildings":{"type":"GeometryCollection","geometries":[]},"places":{"type":"GeometryCollection","geometries":[{"type":"Point","properties":{"name:cy":"Gweriniaeth Dominica","name:tr":"Dominik Cumhuriyeti","name:kn":"\u0ca1\u0cca\u0cae\u0cc6\u0ca8\u0cbf\u0c95\u0ccd \u0cb0\u0cbf\u0caa\u0cac\u0ccd\u0cb2\u0cbf\u0c95\u0ccd","name:km":"\u179f\u17b6\u1792\u17b6\u179a\u178e\u179a\u178a\u17d2\u178b\u178a\u17bc\u1798\u17b8\u1793\u17b8\u1780\u17c2\u1793","name:cs":"Dominik\u00e1nsk\u00e1 republika","name:ki":"Jamhuri ya Dominika","name:kw":"Repoblek Dhominikanek","name:ku":"Komara Dom\u00een\u00eek","name:ti":"\u12f6\u121a\u1292\u12ad \u122a\u1351\u1265\u120a\u12ad","name:ks":"\u0921\u094b\u092e\u094b\u0928\u093f\u0915\u0928 \u0930\u093f\u092a\u092c\u094d\u0932\u093f\u0915","name:to":"Lipapilika Tominika","name:tl":"Republikang Dominikana","name:ce":"\u0414\u043e\u043c\u0438\u043d\u0438\u043a\u0430\u043d \u041f\u0430\u0447\u0445\u044c\u0430\u043b\u043a\u0445","name:ta":"\u0b9f\u0bca\u0bae\u0bbf\u0ba9\u0bbf\u0b95\u0bcd\u0b95\u0ba9\u0bcd \u0b95\u0bc1\u0b9f\u0bbf\u0baf\u0bb0\u0b9a\u0bc1","name:tg":"\u04b6\u0443\u043c\u04b3\u0443\u0440\u0438\u0438 \u0414\u043e\u043c\u0438\u043d\u0438\u043a\u0430\u043d\u0430","name:te":"\u0c21\u0c4a\u0c2e\u0c3f\u0c28\u0c3f\u0c15\u0c28\u0c4d \u0c17\u0c23 \u0c30\u0c3e\u0c1c\u0c4d\u0c2f\u0c02","name:ka":"\u10d3\u10dd\u10db\u10d8\u10dc\u10d8\u10d9\u10d4\u10da\u10d7\u10d0 \u10e0\u10d4\u10e1\u10de\u10e3\u10d1\u10da\u10d8\u10d9\u10d0","name:hr":"Dominikanska Republika","name:da":"Dominikanske Republik","name:de":"Dominikanische Republik","name:dz":"\u0f4c\u0f7c\u0f0b\u0f58\u0f72\u0f0b\u0f53\u0f72\u0f0b\u0f40\u0f71\u0f53\u0f0b \u0f62\u0f72\u0f0b\u0f54\u0f56\u0f0b\u0f63\u0f72\u0f40","source":"openstreetmap.org","name:dv":"\u0791\u07ae\u0789\u07a8\u0782\u07a8\u0786\u07a6\u0782\u07b0 \u0796\u07aa\u0789\u07b0\u0780\u07ab\u0783\u07a8\u0787\u07b0\u0794\u07a7","name:lv":"Dominik\u0101nas Republika","name:lt":"Dominikos Respublika","name:uz":"Dominika Respublikasi","name:kk":"\u0414\u043e\u043c\u0438\u043d\u0438\u043a\u0430\u043d \u0420\u0435\u0441\u043f\u0443\u0431\u043b\u0438\u043a\u0430\u0441\u044b","name:ur":"\u062c\u0645\u06c1\u0648\u0631\u06cc\u06c1 \u0688\u0648\u0645\u06cc\u0646\u06cc\u06a9\u0627","name:lb":"Dominikanesch Republik","name:la":"Respublica Dominicana","name:lg":"Lipubulika ya Dominika","name:uk":"\u0414\u043e\u043c\u0456\u043d\u0456\u043a\u0430\u043d\u0441\u044c\u043a\u0430 \u0420\u0435\u0441\u043f\u0443\u0431\u043b\u0456\u043a\u0430","name:ug":"Dominikan Jumhuriyeti","name:li":"Dominicaanse Rippebliek","name:ln":"Republiki Dominikani","name:lo":"\u0eaa\u0eb2\u0e97\u0eb2\u0ea5\u0eb0\u0e99\u0eb0\u0ea5\u0eb1\u0e94 \u0ec2\u0e94\u0ea1\u0eb4\u0e99\u0eb4\u0e81\u0eb1\u0e99","name:el":"\u0394\u03bf\u03bc\u03b9\u03bd\u03b9\u03ba\u03b1\u03bd\u03ae \u0394\u03b7\u03bc\u03bf\u03ba\u03c1\u03b1\u03c4\u03af\u03b1","name:eo":"Domingo","name:en":"Dominican Republic","name":"Rep\u00fablica Dominicana","name:ee":"Dominika rep\u0254blik nutome","name:th":"\u0e2a\u0e32\u0e18\u0e32\u0e23\u0e13\u0e23\u0e31\u0e10\u0e42\u0e14\u0e21\u0e34\u0e19\u0e34\u0e01\u0e31\u0e19","name:eu":"Dominikar Errepublika","name:et":"Dominikaani Vabariik","name:ay":"Republika Duminikana","name:rm":"Republica Dominicana","name:rn":"Repubulika ya Dominika","name:az":"Dominikan Respublikas\u0131","name:id":"Republik Dominika","name:ar":"\u0627\u0644\u062c\u0645\u0647\u0648\u0631\u064a\u0629 \u0627\u0644\u062f\u0648\u0645\u064a\u0646\u064a\u0643\u064a\u0629","name:io":"Dominikana Republiko","name:ak":"D\u0254meneka Kurok\u025bse","name:am":"\u12f6\u121a\u1292\u12ad \u122a\u1351\u1265\u120a\u12ad","name:it":"Repubblica Dominicana","name:an":"Republica Dominicana","name:ru":"\u0414\u043e\u043c\u0438\u043d\u0438\u043a\u0430\u043d\u0441\u043a\u0430\u044f \u0420\u0435\u0441\u043f\u0443\u0431\u043b\u0438\u043a\u0430","name:rw":"Repubulika ya Dominikani","name:af":"Dominikaanse Republiek","name:zu":"i-Dominican Republic","name:zh-yue":"\u591a\u660e\u5c3c\u52a0","name:zh":"\u591a\u660e\u5c3c\u52a0\u5171\u548c\u570b","name:so":"Jamhuuriyadda Domeenika","name:sn":"Dominican Republic","name:sl":"Dominikanska republika","name:sk":"Dominik\u00e1nska republika","name:ja":"\u30c9\u30df\u30cb\u30ab\u5171\u548c\u56fd","name:si":"\u0da9\u0ddc\u0db8\u0dd2\u0db1\u0dd2\u0d9a\u0dcf \u0da2\u0db1\u0dbb\u0da2\u0dba","name:sh":"Dominikanska Republika","name:sg":"K\u00f6d\u00f6r\u00f6s\u00ease t\u00ee Domin\u00eeka","name:se":"Dominik\u00e1na d\u00e1ssev\u00e1ldi","name:sa":"\u0921\u094b\u092e\u094b\u0928\u093f\u0915\u0928 \u0930\u093f\u092a\u092c\u094d\u0932\u093f\u0915","name:bs":"Dominikanska Republika","name:bm":"D\u0254mimiki republiki","name:bn":"\u09a1\u09cb\u09ae\u09bf\u09a8\u09bf\u0995\u09be\u09a8 \u09aa\u09cd\u09b0\u099c\u09be\u09a4\u09a8\u09cd\u09a4\u09cd\u09b0","name:bo":"\u0f4c\u0f7c\u0f0b\u0f58\u0f72\u0f0b\u0f53\u0f72\u0f0b\u0f40\u0f53\u0f0b\u0f66\u0fa4\u0fb1\u0f72\u0f0b\u0f58\u0f50\u0f74\u0f53\u0f0b\u0f62\u0f92\u0fb1\u0f63\u0f0b\u0f41\u0f56\u0f0d","name:br":"Republik Dominikan","name:sw":"Jamhuri ya Dominika","name:be":"\u0414\u0430\u043c\u0456\u043d\u0456\u043a\u0430\u043d\u0441\u043a\u0430\u044f \u0420\u044d\u0441\u043f\u0443\u0431\u043b\u0456\u043a\u0430","name:su":"R\u00e9publik Dominika","name:bg":"\u0414\u043e\u043c\u0438\u043d\u0438\u043a\u0430\u043d\u0441\u043a\u0430 \u0440\u0435\u043f\u0443\u0431\u043b\u0438\u043a\u0430","name:ss":"Tibuse weDomonokha","name:sr":"\u0414\u043e\u043c\u0438\u043d\u0438\u043a\u0430\u043d\u0441\u043a\u0430 \u0420\u0435\u043f\u0443\u0431\u043b\u0438\u043a\u0430","name:sq":"Republika Dominikane","name:jv":"Republik Dominika","name:ia":"Republica Dominican","name:ps":"\u0689\u0648\u0645\u0646\u064a\u06a9\u0627\u0646 \u062c\u0645\u0647\u0648\u0631\u064a\u062a","name:mt":"Republikka Domenikana","name:oc":"Republica Dominicana","min_zoom":2.0,"name:ro":"Republica Dominican\u0103","name:ko":"\ub3c4\ubbf8\ub2c8\uce74 \uacf5\ud654\uad6d","name:zh-min-nan":"Dominic Ki\u014dng-h\u00f4-kok","name:os":"\u0414\u043e\u043c\u0438\u043d\u0438\u043a\u0430\u043d\u00e6\u0439\u044b \u0420\u0435\u0441\u043f\u0443\u0431\u043b\u0438\u043a\u00e6","name:or":"\u0b21\u0b4b\u0b2e\u0b3f\u0b28\u0b15\u0b3e\u0b28\u0b4d \u0b2a\u0b4d\u0b30\u0b1c\u0b3e\u0b24\u0b28\u0b4d\u0b24\u0b4d\u0b30","name:pl":"Dominikana","name:pa":"\u0a21\u0a4b\u0a2e\u0a3f\u0a28\u0a3f\u0a15\u0a3e\u0a08 \u0a17\u0a23\u0a30\u0a3e\u0a1c","name:hi":"\u0921\u094b\u092e\u093f\u0928\u093f\u0915\u0928 \u0917\u0923\u0930\u093e\u091c\u094d\u092f","name:sv":"Dominikanska republiken","name:he":"\u05d3\u05d5\u05de\u05d9\u05e0\u05d9\u05e7","name:ha":"Jamhuriyar Dominika","name:hy":"\u0534\u0578\u0574\u056b\u0576\u056b\u056f\u0575\u0561\u0576 \u0540\u0561\u0576\u0580\u0561\u057a\u0565\u057f\u0578\u0582\u0569\u0575\u0578\u0582\u0576","name:ht":"Repiblik dominik\u00e0n","name:hu":"Dominikai K\u00f6zt\u00e1rsas\u00e1g","name:qu":"Duminikana","population":10464474,"kind":"country","name:is":"D\u00f3min\u00edska l\u00fd\u00f0veldi\u00f0","name:yi":"\u05d3\u05d0\u05de\u05d9\u05e0\u05d9\u05e7\u05d0\u05e0\u05d9\u05e9\u05e2 \u05e8\u05e2\u05e4\u05d5\u05d1\u05dc\u05d9\u05e7","name:yo":"D\u00f3m\u00edn\u00edk\u00ec Ol\u00f3m\u00ecnira","alt_name:el":"\u039d\u03c4\u03bf\u03bc\u03b9\u03bd\u03b9\u03ba\u03b1\u03bd\u03ae \u0394\u03b7\u03bc\u03bf\u03ba\u03c1\u03b1\u03c4\u03af\u03b1","name:ms":"Republik Dominika","name:mr":"\u0921\u0949\u092e\u093f\u0928\u093f\u0915\u0928 \u092a\u094d\u0930\u091c\u093e\u0938\u0924\u094d\u0924\u093e\u0915","name:my":"\u1012\u102d\u102f\u1019\u102e\u1014\u102e\u1000\u1014\u103a","name:mg":"Repoblika Dominikanina","name:ml":"\u0d21\u0d4a\u0d2e\u0d28\u0d3f\u0d15\u0d4d\u0d15\u0d28\u0d4d\u200d \u0d31\u0d3f\u0d2a\u0d4d\u0d2a\u0d2c\u0d4d\u0d32\u0d3f\u0d15\u0d4d","name:vi":"C\u1ed9ng h\u00f2a Dominicana","name:mn":"\u0414\u043e\u043c\u0438\u043d\u0438\u043a\u0430\u043d\u044b \u0411\u04af\u0433\u0434 \u041d\u0430\u0439\u0440\u0430\u043c\u0434\u0430\u0445 \u0423\u043b\u0441","id":246422158,"name:mk":"\u0414\u043e\u043c\u0438\u043d\u0438\u043a\u0430\u043d\u0441\u043a\u0430 \u0420\u0435\u043f\u0443\u0431\u043b\u0438\u043a\u0430","name:vo":"Sandomin\u00e4n","name:fa":"\u062c\u0645\u0647\u0648\u0631\u06cc \u062f\u0648\u0645\u06cc\u0646\u06cc\u06a9\u0646","name:ff":"Ndenndanndi Dominika","name:fi":"Dominikaaninen tasavalta","name:fo":"Dominikanal\u00fd\u00f0veldi\u00f0","alt_name:vi":"C\u1ed9ng ho\u00e0 Dominicana","name:fr":"R\u00e9publique Dominicaine","name:fy":"de Dominikaanske Republyk","name:nl":"Dominicaanse Republiek","name:nn":"Den dominikanske republikken","name:no":"Den dominikanske republikk","name:na":"Ripubrikin Dominika","name:ne":"\u0921\u094b\u092e\u093f\u0928\u093f\u0915\u0928 \u0917\u0923\u0924\u0928\u094d\u0924\u094d\u0930","name:wo":"R\u00e9ewum Dominik","name:nv":"Domingo Bik\u00e9yah","name:ga":"An Phoblacht Dhoiminiceach","name:gd":"Poblachd Dhoiminicia","name:gv":"Yn Phobblaght Ghominicagh","name:gu":"\u0aa1\u0acb\u0aae\u0abf\u0aa8\u0abf\u0a95\u0aa8 \u0ab0\u0ac0\u0aaa\u0aac\u0acd\u0ab2\u0abf\u0a95","name:tt":"\u0414\u043e\u043c\u0438\u043d\u0438\u043a\u0430\u043d \u0496\u04e9\u043c\u04bb\u04af\u0440\u0438\u044f\u0442\u0435"},"coordinates":[2055,1900]},{"type":"Point","properties":{"name:kg":"Ayiti","name:ps":"\u0647\u06d0\u064a\u0627\u062a\u064a","name:ka":"\u10f0\u10d0\u10d8\u10e2\u10d8","name:ko":"\uc544\uc774\ud2f0","name:cv":"\u0413\u0430\u0438\u0442\u0438","name:km":"\u17a0\u17c3\u1791\u17b8","name:kk":"\u0410\u0438\u0442\u0438","name:tt":"\u0413\u0430\u0438\u0442\u0438","name:kw":"Hayti","name:ku":"Ha\u00eet\u00ee","name:ti":"\u1200\u12ed\u1272","name:ks":"\u06c1\u0627\u06cc\u062a\u06cc","name:tl":"Hayti","name:pa":"\u0a39\u0a48\u0a24\u0a40","name:os":"\u0413\u0430\u0438\u0442\u0438","name:or":"\u0b39\u0b3e\u0b07\u0b24\u0b3f","name:ce":"\u0413\u0430\u0438\u0442\u0438 \u041f\u0430\u0447\u0445\u044c\u0430\u043b\u043a\u0445","name:ta":"\u0b8e\u0baf\u0bbf\u0b9f\u0bcd\u0b9f\u0bbf","name:ht":"Ayiti","name:ca":"Hait\u00ed","name:te":"\u0c39\u0c48\u0c1f\u0c3f","name:qu":"Ayti","name:dz":"\u0f67\u0f7a\u0f0b\u0f4a\u0f72","source":"openstreetmap.org","name:nv":"H\u00e9\u00edtii","name:kn":"\u0cb9\u0cc8\u0c9f\u0cbf","name:dv":"\u0780\u07a6\u0787\u07a8\u0793\u07a9","name:lt":"Haitis","name:uz":"Gaiti","name:he":"\u05d4\u05d0\u05d9\u05d8\u05d9","min_zoom":2.0,"kind":"country","name:ur":"\u06c1\u06cc\u0679\u06cc","name:la":"Haitia","name:lg":"Hayiti","name:uk":"\u0413\u0430\u0457\u0442\u0456","name:hy":"\u0540\u0561\u0575\u056b\u0569\u056b","name:ug":"\u06be\u0627\u064a\u062a\u0649","name:li":"Ha\u00efti","name:ln":"Ayiti","name:lo":"\u0ec4\u0eae\u0e95\u0eb4","name:oc":"Hait\u00ed","population":9801664,"name:el":"\u0391\u03ca\u03c4\u03ae","name:eo":"Haitio","name":"Haiti","name:is":"Ha\u00edt\u00ed","name:ee":"Haiti nutome","name:th":"\u0e1b\u0e23\u0e30\u0e40\u0e17\u0e28\u0e40\u0e2e\u0e15\u0e34","name:yi":"\u05d4\u05d0\u05d9\u05d8\u05d9","name:es":"Hait\u00ed","name:ay":"Ayti","name:mt":"\u0126aiti","name:rn":"Hayiti","name:az":"Haiti Respublikas\u0131","name:ig":"Hati","name:mr":"\u0939\u0948\u0924\u0940","name:ar":"\u0647\u0627\u064a\u062a\u064a","name:my":"\u101f\u1031\u1010\u102e","official_name":"Repiblik Ayiti","name:ak":"Heiti","name:am":"\u1200\u12ed\u1272","name:an":"Ait\u00ed","name:ru":"\u0413\u0430\u0438\u0442\u0438","name:rw":"Hayiti","id":424297281,"name:mk":"\u0425\u0430\u0438\u0442\u0438","name:af":"Ha\u00efti","name:zu":"i-Haiti","name:mn":"\u0413\u0430\u0439\u0442\u0438","name:ff":"Haytii","name:hi":"\u0939\u0948\u0924\u0940","name:fr":"Ha\u00efti","name:zh-yue":"\u6d77\u5730","name:fy":"Ha\u00efty","name:vo":"Haitiy\u00e4n","name:zh":"\u6d77\u5730","name:so":"Hayti","name:nl":"Ha\u00efti","name:ja":"\u30cf\u30a4\u30c1","name:si":"\u0dc4\u0dba\u0dd2\u0da7\u0dd2","name:fa":"\u0647\u0627\u0626\u06cc\u062a\u06cc","name:sg":"Hait\u00efi","name:na":"Aiti","name:ne":"\u0939\u0948\u091f\u0940","name:bm":"Ayiti","name:bn":"\u09b9\u09be\u0987\u09a4\u09bf","name:bo":"\u0f67\u0f60\u0f72\u0f0b\u0f4f\u0f72\u0f0d","name:ml":"\u0d39\u0d46\u0d2f\u0d4d\u0d31\u0d4d\u0d31\u0d3f","name:be":"\u0413\u0430\u0456\u0446\u0456","name:bg":"\u0425\u0430\u0438\u0442\u0438","name:ss":"IHayithi","name:sr":"\u0425\u0430\u0438\u0442\u0438","name:sq":"Haitia","name:ga":"H\u00e1it\u00ed","name:gd":"Haidhti","name:wo":"Ayiti","name:wa":"Ayiti","name:gl":"Hait\u00ed","name:yo":"H\u00e0\u00edt\u00ec","name:gu":"\u0ab9\u0ac8\u0aa4\u0ac0"},"coordinates":[559,1933]},{"type":"Point","properties":{"name:pt":"Turks e Caicos","name:cy":"Ynysoedd Turks a Caicos","alt_name:el":"\u039d\u03b7\u03c3\u03b9\u03ac \u03a4\u03b5\u03c1\u03ba\u03c2 \u03ba\u03b1\u03b9 \u039a\u03ac\u03b9\u03ba\u03bf\u03c2","name:ko":"\ud130\ud06c\uc2a4 \ucf00\uc774\ucee4\uc2a4 \uc81c\ub3c4","name:cv":"\u0422\u04d7\u0440\u043a\u0441 \u0442\u0430\u0442\u0430 \u041a\u0430\u0439\u043a\u043e\u0441","name:km":"\u1780\u17c4\u17c7\u200b\u1780\u17c3\u1780\u17bc\u179f \u1793\u17b7\u1784\u1791\u17bc\u1780","name:cs":"Turks a Caicos","name:ki":"Visiwa vya Turki na Kaiko","name:kw":"Turks ha Kaykos","name:tr":"Turks ve Caicos Adalar\u0131","name:th":"\u0e2b\u0e21\u0e39\u0e48\u0e40\u0e01\u0e32\u0e30\u0e40\u0e15\u0e34\u0e23\u0e4c\u0e01\u0e41\u0e25\u0e30\u0e44\u0e04\u0e04\u0e2d\u0e2a","name:ti":"\u12e8\u1271\u122d\u12ae\u127d\u1293 \u12e8\u12ab\u12a2\u12ae\u1235 \u12f0\u1234\u1276\u127d","name:ks":"\u062a\u064f\u0631\u064f\u06a9 \u062a\u06c1\u0655 \u06a9\u06cc\u06a9\u0648\u0633 \u062c\u0654\u0632\u06cc\u0656\u0631\u0655","name:to":"\u02bbOtumotu Teki mo Keikosi","name:zh-min-nan":"Turks kap Caicos K\u00fbn-t\u00f3","name:or":"\u0b24\u0b41\u0b30\u0b4d\u0b15\u0b38\u0b4d \u0b0f\u0b2c\u0b02 \u0b38\u0b3e\u0b07\u0b15\u0b38\u0b4d \u0b26\u0b4d\u0b2c\u0b40\u0b2a\u0b2a\u0b41\u0b1e\u0b4d\u0b1c","name:pl":"Turks i Caicos","name:ta":"\u0ba4\u0bc1\u0bb0\u0bcd\u0b95\u0b9a\u0bc1 \u0b95\u0bc8\u0b95\u0bcb\u0b9a\u0bc1 \u0ba4\u0bc0\u0bb5\u0bc1\u0b95\u0bb3\u0bcd","name:ca":"Illes Turks i Caicos","name:te":"\u0c24\u0c41\u0c30\u0c4d\u0c15\u0c4d \u0c2e\u0c30\u0c3f\u0c2f\u0c41 \u0c15\u0c3e\u0c32\u0c3f\u0c15\u0c4b\u0c38\u0c4d \u0c26\u0c40\u0c35\u0c41\u0c32\u0c41","name:vi":"Qu\u1ea7n \u0111\u1ea3o Turks v\u00e0 Caicos","name:ro":"Insulele Turks \u015fi Caicos","name:hr":"Otoci Turks i Caicos","name:da":"Turks- og Caicos\u00f8erne","name:de":"Turks- und Caicosinseln","name:dz":"\u0f4f\u0f74\u0f62\u0f90\u0f66\u0f84\u0f0b \u0f68\u0f7a\u0f53\u0f4c\u0f0b \u0f40\u0f0b\u0f40\u0f7c\u0f66\u0f0b\u0f42\u0fb3\u0f72\u0f44\u0f0b\u0f5a\u0f7c\u0f58","source":"openstreetmap.org","name:kn":"\u0c9f\u0cb0\u0ccd\u0c95\u0ccd\u0cb8\u0ccd \u0cae\u0ca4\u0ccd\u0ca4\u0cc1 \u0c95\u0cc8\u0c95\u0ccb\u0cb8\u0ccd \u0ca6\u0ccd\u0cb5\u0cc0\u0caa\u0c97\u0cb3\u0cc1","name:dv":"\u0793\u07a7\u0786\u07a6\u0790\u07b0 \u0787\u07a6\u078b\u07a8 \u0786\u07a6\u0787\u07a8\u0786\u07af \u0796\u07a6\u0792\u07a9\u0783\u07a7","name:lv":"T\u0113rksas un Kaikosas","name:lt":"Terksas ir Kaikosas","name:hi":"\u091f\u0930\u094d\u0915\u094d\u0938 \u0914\u0930 \u0915\u0947\u0915\u094b\u0938 \u0926\u094d\u0935\u0940\u092a-\u0938\u092e\u0942\u0939","name:sv":"Turks- och Caicos\u00f6arna","name:he":"\u05d0\u05d9\u05d9 \u05d8\u05d5\u05e8\u05e7\u05e1 \u05d5\u05e7\u05d0\u05d9\u05e7\u05d5\u05e1","kind":"country","name:ur":"\u062a\u0631\u06a9\u0633 \u0627\u0648\u0631 \u06a9\u06cc\u06a9\u0627\u0624\u0633 \u062c\u0632\u0627\u0626\u0631","name:lg":"Bizinga by'eTaaka ne Kayikosi","name:uk":"\u041e\u0441\u0442\u0440\u043e\u0432\u0438 \u0422\u0435\u0440\u043a\u0441 \u0456 \u041a\u0430\u0439\u043a\u043e\u0441","name:ug":"Turks we Kaykos Taqim Aralliri","name:hu":"Turks- \u00e9s Caicos-szigetek","name:ln":"Bisanga bya Turki mp\u00e9 Kaiko","name:lo":"\u0ec0\u0e88\u0eb5 \u0ec1\u0ea5\u0eb0 \u0e84\u0eb2\u0e8d\u0e84\u0ead\u0e94 \u0ead\u0eb4\u0e94\u0ec1\u0ea5\u0e99","population":41000,"name:el":"\u039d\u03ae\u03c3\u03bf\u03b9 \u03a4\u03b5\u03c1\u03ba\u03c2 \u03ba\u03b1\u03b9 \u039a\u03ac\u03b9\u03ba\u03bf\u03c2","name:eo":"Turkoj kaj Kajkoj","name":"Turks and Caicos Islands","name:ee":"T\u025bks kple Kaikos \u0192udomekpowo nutome","min_zoom":2.0,"name:gu":"\u0a9f\u0ab0\u0acd\u0a95\u0acd\u0ab8 \u0a8f\u0aa8\u0acd\u0aa1 \u0a95\u0ac8\u0a95\u0acb\u0ab8 \u0a86\u0a87\u0ab2\u0ac7\u0aa8\u0acd\u0aa1\u0acd\u0ab8","name:eu":"Turks eta Caicos uharteak","name:et":"Turks ja Caicos","name:nl":"Turks- en Caicoseilanden","name:es":"Islas Turcas y Caicos","name:ia":"Insulas Turcos e Caicos","name:rm":"Inslas Turks e Caicos","name:rn":"Amazinga ya Turkisi na Cayikosi","name:az":"T\u00fcrk v\u0259 Kaykos Adalar\u0131","name:id":"Kepulauan Turks dan Caicos","name:ms":"Kepulauan Turks dan Caicos","name:mr":"\u091f\u0930\u094d\u0915\u094d\u0938 \u0906\u0923\u093f \u0915\u0948\u0915\u093e\u0938 \u0926\u094d\u0935\u0940\u092a\u0938\u092e\u0942\u0939","name:ar":"\u062c\u0632\u0631 \u062a\u0631\u0643\u0633 \u0648\u0643\u0627\u064a\u0643\u0648\u0633","name:io":"Turks e Kaikos-Insuli","name:is":"Turks- og Caicoseyjar","name:am":"\u12e8\u1271\u122d\u12ae\u127d\u1293 \u12e8\u12ab\u12a2\u12ae\u1235 \u12f0\u1234\u1276\u127d","name:it":"Turks e Caicos","name:an":"Islas Turcas e Caicos","name:ru":"\u041e\u0441\u0442\u0440\u043e\u0432\u0430 \u0422\u0451\u0440\u043a\u0441 \u0438 \u041a\u0430\u0439\u043a\u043e\u0441","name:mn":"\u0422\u0443\u0440\u043a\u0441 \u0431\u0430 \u041a\u0430\u0439\u043a\u043e\u0441\u044b\u043d \u0410\u0440\u043b\u0443\u0443\u0434","id":424311814,"name:mk":"\u0422\u0443\u0440\u043a \u0438 \u041a\u0430\u0438\u043a\u043e\u0441 \u041e\u0441\u0442\u0440\u043e\u0432\u0438","name:af":"Turks en Caicos Eilande","name:zu":"i-Turks and Caicos Islands","name:ha":"Turkis Da Tsibiran Kaikwas","name:nn":"Turks- og Caicos\u00f8yane","name:ff":"Duu\u0257e Turke e Keikoos","name:fi":"Turks- ja Caicossaaret","name:no":"Turks- og Caicos\u00f8yene","name:mg":"Nosy Turks sy Ca\u00efques","name:fo":"Turks- og Caicosoyggjarnar","name:fr":"\u00celes Turques-et-Ca\u00efques","name:fy":"Turks- en Kaikoseilannen","name:zh":"\u7279\u514b\u65af\u548c\u51f1\u79d1\u65af\u7fa4\u5cf6","name:gv":"Ellanyn ny Turkee as Caicos","name:sn":"Zvitsuwa zveTurk neCaico","name:sl":"Turks in Caicos","name:sk":"Turks a Caicos","name:ja":"\u30bf\u30fc\u30af\u30b9\u30fb\u30ab\u30a4\u30b3\u30b9\u8af8\u5cf6","name:si":"\u0da7\u0dbb\u0dca\u0d9a\u0dca\u0dc3\u0dca \u0dc3\u0dc4 \u0d9a\u0dba\u0dd2\u0d9a\u0ddc\u0dc3\u0dca \u0daf\u0dd6\u0db4\u0dad\u0dca","name:sh":"Turks i Caicos Otoci","name:sg":"\u00c2z\u00fb\u00e2 Turku na Ka\u00eeki","name:se":"Turks ja Caicos-sullot","name:ne":"\u0924\u0941\u0930\u094d\u0915 \u0930 \u0915\u093e\u0907\u0915\u094b\u0938 \u091f\u093e\u092a\u0941","name:br":"Inizi Turks ha Caicos","name:bs":"Ostrva Turks i Caicos","name:bm":"Turiki Gun ni Kayiki","name:bn":"\u099f\u09be\u09b0\u09cd\u0995\u09b8\u09cd\u200c \u0993 \u0995\u09c7\u0987\u0995\u09cb\u09b8 \u09a6\u09cd\u09ac\u09c0\u09aa\u09aa\u09c1\u099e\u09cd\u099c","name:ml":"\u0d1f\u0d7c\u0d15\u0d4d\u0d15\u0d4d\u0d38\u0d41\u0d02 \u0d15\u0d48\u0d15\u0d4d\u0d15\u0d4b \u0d26\u0d4d\u0d35\u0d40\u0d2a\u0d41\u0d15\u0d33\u0d41\u0d02","name:sw":"Visiwa vya Turks na Caicos","name:be":"\u0422\u044d\u0440\u043a\u0441 \u0456 \u041a\u0430\u0439\u043a\u0430\u0441 \u0430\u0441\u0442\u0440\u0430\u0432\u044b","name:bg":"\u0422\u044a\u0440\u043a\u0441 \u0438 \u041a\u0430\u0439\u043a\u043e\u0441","name:sr":"\u0422\u0443\u0440\u043a\u0441 \u0438 \u041a\u0430\u0458\u043a\u043e\u0441","name:sq":"Turks dhe Kaikos","name:ga":"Oile\u00e1in na dTurcach agus Caicos","name:gd":"Oile\u00e1in na dTurcach agus Caicos","name:jv":"Kapuloan Turks lan Caicos","name:gl":"Turks e Caicos","name:fa":"\u062c\u0632\u0627\u06cc\u0631 \u062a\u0648\u0631\u06a9\u0633 \u0648 \u06a9\u0627\u06cc\u06a9\u0648\u0633","name:yo":"Or\u00edl\u1eb9\u0301\u00e8de T\u1ecd\u1ecdki ati Etikun Kak\u1ecdsi","name:ak":"Turks ne Caicos Islands"},"coordinates":[1096,3925]},{"type":"Point","properties":{"source":"naturalearthdata.com","kind":"locality","name":"Santo Domingo","country_capital":true,"population":2154000,"min_zoom":4.0,"id":7188},"coordinates":[2347,1417]},{"type":"Point","properties":{"source":"openstreetmap.org","kind":"region","name":"Peravia","kind_detail":"state","min_zoom":4.0,"id":2652225306},"coordinates":[2005,1308]},{"type":"Point","properties":{"source":"openstreetmap.org","kind":"region","name":"San Jos\u00e9 de Ocoa","kind_detail":"state","min_zoom":4.0,"id":2652225320},"coordinates":[1913,1524]},{"type":"Point","properties":{"source":"openstreetmap.org","kind":"region","name":"Monse\u00f1or Nouel","kind_detail":"state","min_zoom":4.0,"id":2652225292},"coordinates":[1971,1733]},{"type":"Point","properties":{"source":"openstreetmap.org","kind":"region","name":"Santiago","kind_detail":"state","min_zoom":4.0,"id":2652225332},"coordinates":[1618,2078]},{"type":"Point","properties":{"source":"openstreetmap.org","kind":"region","name":"Hermanas Mirabal","kind_detail":"state","min_zoom":4.0,"id":2652225276},"coordinates":[1989,2140]},{"type":"Point","properties":{"source":"openstreetmap.org","kind":"region","name":"Espaillat","kind_detail":"state","min_zoom":4.0,"id":2652225274},"coordinates":[1925,2270]},{"type":"Point","properties":{"source":"openstreetmap.org","kind":"region","name":"San Crist\u00f3bal","kind_detail":"state","min_zoom":4.0,"id":2652225316},"coordinates":[2124,1454]},{"type":"Point","properties":{"source":"openstreetmap.org","kind":"region","name":"Santo Domingo","kind_detail":"state","min_zoom":4.0,"id":2652225336},"coordinates":[2382,1488]},{"type":"Point","properties":{"source":"openstreetmap.org","kind":"region","name":"Monte Plata","kind_detail":"state","min_zoom":4.0,"id":2652225300},"coordinates":[2418,1695]},{"type":"Point","properties":{"source":"openstreetmap.org","kind":"region","name":"San Pedro de Macor\u00eds","kind_detail":"state","min_zoom":4.0,"id":2652225326},"coordinates":[2654,1448]},{"type":"Point","properties":{"source":"openstreetmap.org","kind":"region","name":"La Romana","kind_detail":"state","min_zoom":4.0,"id":2652225281},"coordinates":[3021,1437]},{"type":"Point","properties":{"source":"openstreetmap.org","kind":"region","name":"Hato Mayor","kind_detail":"state","min_zoom":4.0,"id":2652225275},"coordinates":[2747,1722]},{"type":"Point","properties":{"source":"openstreetmap.org","kind":"region","name":"S\u00e1nchez Ram\u00edrez","kind_detail":"state","min_zoom":4.0,"id":2652225339},"coordinates":[2170,1838]},{"type":"Point","properties":{"source":"openstreetmap.org","kind":"region","name":"Duarte","kind_detail":"state","min_zoom":4.0,"id":2652225270},"coordinates":[2212,2012]},{"type":"Point","properties":{"source":"openstreetmap.org","kind":"region","name":"Mar\u00eda Trinidad S\u00e1nchez","kind_detail":"state","min_zoom":4.0,"id":2652225288},"coordinates":[2287,2168]},{"type":"Point","properties":{"source":"openstreetmap.org","kind":"region","name":"La Altagracia","kind_detail":"state","min_zoom":4.0,"id":2652225278},"coordinates":[3252,1502]},{"type":"Point","properties":{"source":"openstreetmap.org","kind":"region","name":"Puerto Plata","kind_detail":"state","min_zoom":4.0,"id":2652225309},"coordinates":[1693,2399]},{"type":"Point","properties":{"source":"openstreetmap.org","kind":"region","name":"Azua","name:ru":"\u0410\u0441\u0443\u0430","kind_detail":"state","min_zoom":4.0,"id":2652225266},"coordinates":[1669,1498]},{"type":"Point","properties":{"source":"openstreetmap.org","kind":"region","name":"La Vega","name:ru":"\u041b\u0430-\u0412\u0435\u0433\u0430","kind_detail":"state","min_zoom":4.0,"id":2652225284},"coordinates":[1816,1865]},{"type":"Point","properties":{"source":"openstreetmap.org","kind":"region","name":"Saman\u00e1","name:ru":"\u0421\u0430\u043c\u0430\u043d\u0430","kind_detail":"state","min_zoom":4.0,"id":2652225313},"coordinates":[2645,2029]},{"type":"Point","properties":{"source":"openstreetmap.org","kind":"region","name":"Pedernales","kind_detail":"state","min_zoom":4.0,"id":2652225303},"coordinates":[1160,1021]},{"type":"Point","properties":{"source":"openstreetmap.org","kind":"region","name":"Independencia","kind_detail":"state","min_zoom":4.0,"id":2652225277},"coordinates":[1082,1349]},{"type":"Point","properties":{"source":"openstreetmap.org","kind":"region","name":"Bahoruco","kind_detail":"state","min_zoom":4.0,"id":2652225267},"coordinates":[1307,1449]},{"type":"Point","properties":{"source":"openstreetmap.org","kind":"region","name":"El\u00edas Pi\u00f1a","kind_detail":"state","min_zoom":4.0,"id":2652225273},"coordinates":[1041,1821]},{"type":"Point","properties":{"source":"openstreetmap.org","kind":"region","name":"Dajab\u00f3n","kind_detail":"state","min_zoom":4.0,"id":2652225269},"coordinates":[1109,2178]},{"type":"Point","properties":{"source":"openstreetmap.org","kind":"region","name":"Santiago Rodr\u00edguez","kind_detail":"state","min_zoom":4.0,"id":2652225329},"coordinates":[1322,2120]},{"type":"Point","properties":{"source":"openstreetmap.org","kind":"region","name":"Valverde","kind_detail":"state","min_zoom":4.0,"id":2652225342},"coordinates":[1514,2274]},{"type":"Point","properties":{"source":"openstreetmap.org","kind":"region","name":"Monte Cristi","kind_detail":"state","min_zoom":4.0,"id":2652225296},"coordinates":[1222,2383]},{"type":"Point","properties":{"source":"openstreetmap.org","kind":"region","name":"Barahona","name:ru":"\u0411\u0430\u0440\u0430\u043e\u043d\u0430","kind_detail":"state","min_zoom":4.0,"id":2652225268},"coordinates":[1395,1185]},{"type":"Point","properties":{"source":"openstreetmap.org","kind":"region","name":"San Juan","name:ru":"\u0421\u0430\u043d-\u0425\u0443\u0430\u043d","kind_detail":"state","min_zoom":4.0,"id":2652225323},"coordinates":[1339,1732]},{"type":"Point","properties":{"kind":"region","name":"Centre","kind_detail":"state","source":"openstreetmap.org","min_zoom":4.0,"name:pl":"Departament Centralny","name:ru":"\u0426\u0435\u043d\u0442\u0440\u0430\u043b\u044c\u043d\u044b\u0439 \u0434\u0435\u043f\u0430\u0440\u0442\u0430\u043c\u0435\u043d\u0442","name:ht":"Sant","id":618755470},"coordinates":[823,1817]},{"type":"Point","properties":{"kind":"region","name":"Nord","kind_detail":"state","source":"openstreetmap.org","min_zoom":4.0,"name:pl":"Departament P\u00f3\u0142nocny","name:ru":"\u0421\u0435\u0432\u0435\u0440\u043d\u044b\u0439 \u0434\u0435\u043f\u0430\u0440\u0442\u0430\u043c\u0435\u043d\u0442","name:ht":"N\u00f2","id":618759492},"coordinates":[623,2307]},{"type":"Point","properties":{"kind":"region","name:en":"North-East","name":"Nord-Est","kind_detail":"state","name:de":"Nordost","source":"openstreetmap.org","min_zoom":4.0,"name:pl":"Departament P\u00f3\u0142nocno-Wschodni","name:ru":"\u0421\u0435\u0432\u0435\u0440\u043e-\u0412\u043e\u0441\u0442\u043e\u0447\u043d\u044b\u0439 \u0434\u0435\u043f\u0430\u0440\u0442\u0430\u043c\u0435\u043d\u0442","name:ht":"N\u00f2d\u00e8s","id":618760787},"coordinates":[912,2224]},{"type":"Point","properties":{"kind":"region","name:en":"North-West","name":"Nord-Ouest","kind_detail":"state","name:de":"Nordwest","source":"openstreetmap.org","min_zoom":4.0,"name:pl":"Departament P\u00f3\u0142nocno-Zachodni","name:ru":"\u0421\u0435\u0432\u0435\u0440\u043e-\u0417\u0430\u043f\u0430\u0434\u043d\u044b\u0439 \u0434\u0435\u043f\u0430\u0440\u0442\u0430\u043c\u0435\u043d\u0442","name:ht":"N\u00f2dw\u00e8s","id":618761050},"coordinates":[48,2478]},{"type":"Point","properties":{"kind":"region","name:en":"West","name":"Ouest","kind_detail":"state","name:de":"West","source":"openstreetmap.org","min_zoom":4.0,"name:pl":"Departament Zachodni","name:ru":"\u0417\u0430\u043f\u0430\u0434\u043d\u044b\u0439 \u0434\u0435\u043f\u0430\u0440\u0442\u0430\u043c\u0435\u043d\u0442","name:ht":"Lw\u00e8s","id":618762860},"coordinates":[500,1645]},{"type":"Point","properties":{"kind":"region","name:en":"South-East","name":"Sud-Est","kind_detail":"state","name:de":"S\u00fcdost","source":"openstreetmap.org","min_zoom":4.0,"name:pl":"Departament Po\u0142udniowo-Wschodni","name:ru":"\u042e\u0433\u043e-\u0412\u043e\u0441\u0442\u043e\u0447\u043d\u044b\u0439 \u0434\u0435\u043f\u0430\u0440\u0442\u0430\u043c\u0435\u043d\u0442","name:ht":"Sid\u00e8s","id":618769644},"coordinates":[546,1282]},{"type":"Point","properties":{"source":"openstreetmap.org","kind":"region","name":"Artibonite","kind_detail":"state","min_zoom":4.0,"id":620051802},"coordinates":[394,1992]},{"type":"Point","properties":{"source":"naturalearthdata.com","kind":"locality","name":"Port-au-Prince","country_capital":true,"population":1998000,"min_zoom":5.0,"id":6827},"coordinates":[573,1472]},{"type":"Point","properties":{"source":"naturalearthdata.com","kind":"locality","name":"Santiago","population":1550753,"region_capital":true,"min_zoom":5.0,"id":6493},"coordinates":[1788,2210]},{"type":"Point","properties":{"source":"naturalearthdata.com","kind":"locality","name":"Cap-Haitien","population":281487,"region_capital":true,"min_zoom":6.0,"id":4949},"coordinates":[664,2410]},{"type":"Point","properties":{"source":"naturalearthdata.com","kind":"locality","name":"San Juan","population":72950,"region_capital":true,"min_zoom":6.0,"id":5857},"coordinates":[1379,1677]}]},"transit":{"type":"GeometryCollection","geometries":[]},"pois":{"type":"GeometryCollection","geometries":[]},"boundaries":{"type":"GeometryCollection","geometries":[{"type":"MultiLineString","properties":{"source":"naturalearthdata.com","kind":"country","sort_rank":262,"kind_detail":"2","min_zoom":0.0,"id":149},"arcs":[[0],[1],[2],[3],[4]]},{"type":"LineString","properties":{"source":"naturalearthdata.com","kind":"region","sort_rank":256,"kind_detail":"4","min_zoom":6.7,"id":220},"arcs":[5]},{"type":"LineString","properties":{"source":"naturalearthdata.com","kind":"region","sort_rank":256,"kind_detail":"4","min_zoom":6.7,"id":221},"arcs":[6]},{"type":"LineString","properties":{"source":"naturalearthdata.com","kind":"region","sort_rank":256,"kind_detail":"4","min_zoom":6.7,"id":218},"arcs":[7]},{"type":"LineString","properties":{"source":"naturalearthdata.com","kind":"region","sort_rank":256,"kind_detail":"4","min_zoom":6.7,"id":219},"arcs":[8]},{"type":"LineString","properties":{"source":"naturalearthdata.com","kind":"region","sort_rank":256,"kind_detail":"4","min_zoom":6.7,"id":3803},"arcs":[9]},{"type":"LineString","properties":{"source":"naturalearthdata.com","kind":"region","sort_rank":256,"kind_detail":"4","min_zoom":6.7,"id":3790},"arcs":[10]},{"type":"MultiLineString","properties":{"source":"naturalearthdata.com","kind":"region","sort_rank":256,"kind_detail":"4","min_zoom":6.7,"id":3791},"arcs":[[11],[12],[13],[14]]},{"type":"MultiLineString","properties":{"source":"naturalearthdata.com","kind":"region","sort_rank":256,"kind_detail":"4","min_zoom":6.7,"id":3792},"arcs":[[15],[16],[17]]},{"type":"LineString","properties":{"source":"naturalearthdata.com","kind":"region","sort_rank":256,"kind_detail":"4","min_zoom":6.7,"id":3793},"arcs":[18]},{"type":"LineString","properties":{"source":"naturalearthdata.com","kind":"region","sort_rank":256,"kind_detail":"4","min_zoom":6.7,"id":3794},"arcs":[19]},{"type":"MultiLineString","properties":{"source":"naturalearthdata.com","kind":"region","sort_rank":256,"kind_detail":"4","min_zoom":6.7,"id":3795},"arcs":[[20],[21],[22],[23]]},{"type":"MultiLineString","properties":{"source":"naturalearthdata.com","kind":"region","sort_rank":256,"kind_detail":"4","min_zoom":6.7,"id":3796},"arcs":[[24],[25],[26]]},{"type":"MultiLineString","properties":{"source":"naturalearthdata.com","kind":"region","sort_rank":256,"kind_detail":"4","min_zoom":6.7,"id":3797},"arcs":[[27],[28],[29],[30],[31],[32],[33],[34],[35],[36],[37],[38],[39],[40],[41],[42]]},{"type":"LineString","properties":{"source":"naturalearthdata.com","kind":"region","sort_rank":256,"kind_detail":"4","min_zoom":6.7,"id":3799},"arcs":[43]},{"type":"LineString","properties":{"source":"naturalearthdata.com","kind":"region","sort_rank":256,"kind_detail":"4","min_zoom":6.7,"id":3800},"arcs":[44]},{"type":"LineString","properties":{"source":"naturalearthdata.com","kind":"region","sort_rank":256,"kind_detail":"4","min_zoom":6.7,"id":3802},"arcs":[45]},{"type":"MultiLineString","properties":{"source":"naturalearthdata.com","kind":"region","sort_rank":256,"kind_detail":"4","min_zoom":6.7,"id":3804},"arcs":[[46],[47],[48],[49],[50],[51],[52]]},{"type":"MultiLineString","properties":{"source":"naturalearthdata.com","kind":"region","sort_rank":256,"kind_detail":"4","min_zoom":6.7,"id":3805},"arcs":[[53],[54]]},{"type":"MultiLineString","properties":{"source":"naturalearthdata.com","kind":"region","sort_rank":256,"kind_detail":"4","min_zoom":6.7,"id":3806},"arcs":[[55],[56],[57],[58]]},{"type":"MultiLineString","properties":{"source":"naturalearthdata.com","kind":"region","sort_rank":256,"kind_detail":"4","min_zoom":6.7,"id":3807},"arcs":[[59],[60],[61]]}]},"roads":{"type":"GeometryCollection","geometries":[{"type":"LineString","properties":{"source":"naturalearthdata.com","kind":"major_road","sort_rank":380,"kind_detail":"primary","min_zoom":4.0,"id":2835},"arcs":[107]},{"type":"LineString","properties":{"source":"naturalearthdata.com","kind":"major_road","sort_rank":380,"kind_detail":"primary","min_zoom":4.0,"id":2857},"arcs":[108]},{"type":"LineString","properties":{"source":"naturalearthdata.com","kind":"highway","kind_detail":"motorway","sort_rank":383,"landuse_kind":"urban_area","min_zoom":4.0,"id":2858},"arcs":[109]},{"type":"LineString","properties":{"source":"naturalearthdata.com","kind":"highway","sort_rank":383,"kind_detail":"motorway","min_zoom":4.0,"id":2858},"arcs":[110]},{"type":"LineString","properties":{"source":"naturalearthdata.com","kind":"major_road","sort_rank":380,"kind_detail":"primary","min_zoom":3.0,"id":2871},"arcs":[111]},{"type":"LineString","properties":{"source":"naturalearthdata.com","kind":"major_road","sort_rank":380,"kind_detail":"primary","min_zoom":3.0,"id":2884},"arcs":[112]},{"type":"LineString","properties":{"source":"naturalearthdata.com","kind":"major_road","sort_rank":380,"kind_detail":"primary","min_zoom":4.0,"id":2885},"arcs":[113]},{"type":"LineString","properties":{"source":"naturalearthdata.com","kind":"major_road","sort_rank":380,"kind_detail":"primary","min_zoom":4.0,"id":2906},"arcs":[114]},{"type":"LineString","properties":{"source":"naturalearthdata.com","kind":"highway","kind_detail":"motorway","sort_rank":383,"landuse_kind":"urban_area","min_zoom":4.0,"id":3970},"arcs":[115]},{"type":"LineString","properties":{"source":"naturalearthdata.com","kind":"highway","sort_rank":383,"kind_detail":"motorway","min_zoom":4.0,"id":3970},"arcs":[116]},{"type":"LineString","properties":{"source":"naturalearthdata.com","kind":"highway","kind_detail":"motorway","sort_rank":383,"landuse_kind":"urban_area","min_zoom":3.0,"id":3971},"arcs":[117]},{"type":"LineString","properties":{"source":"naturalearthdata.com","kind":"highway","sort_rank":383,"kind_detail":"motorway","min_zoom":3.0,"id":3971},"arcs":[118]}]},"earth":{"type":"GeometryCollection","geometries":[{"type":"MultiPolygon","properties":{"sort_rank":10,"source":"naturalearthdata.com","min_zoom":0.0,"kind":"earth","area":188537003575},"arcs":[[[119]],[[120]],[[121]],[[122]],[[123]],[[124]],[[125]],[[126]],[[127]],[[128]],[[129]],[[130]],[[131]],[[132]],[[133]]]}]},"landuse":{"type":"GeometryCollection","geometries":[{"type":"MultiPolygon","properties":{"source":"openstreetmap.org","kind":"park","tier":2,"area":1983098965,"sort_rank":24,"min_zoom":6.0,"osm_relation":true},"arcs":[[[134],[135]],[[136]],[[137]]]},{"type":"MultiPolygon","properties":{"source":"openstreetmap.org","kind":"park","tier":2,"area":3688145958,"sort_rank":24,"min_zoom":4.0},"arcs":[[[138]],[[139]]]},{"type":"MultiPolygon","properties":{"source":"openstreetmap.org","kind":"park","tier":2,"area":2602708180,"sort_rank":24,"min_zoom":4.0,"osm_relation":true},"arcs":[[[140]],[[141]]]},{"type":"MultiPolygon","properties":{"source":"naturalearthdata.com","kind":"urban_area","name":"","area":1040919724,"sort_rank":11,"min_zoom":4.0},"arcs":[[[142]],[[143]],[[144]],[[145]]]},{"type":"MultiPolygon","properties":{"source":"openstreetmap.org","kind":"park","tier":2,"area":1443347311,"sort_rank":24,"min_zoom":6.0},"arcs":[[[146]],[[147]]]},{"type":"Polygon","properties":{"kind":"nature_reserve","protect_class":"2","area":152004992,"sort_rank":23,"operator":"Bahamas National Trust","source":"openstreetmap.org","min_zoom":6.0,"tier":2,"id":-6482408,"osm_relation":true},"arcs":[[148]]},{"type":"MultiPolygon","properties":{"source":"openstreetmap.org","kind":"nature_reserve","tier":2,"area":1898771657,"sort_rank":23,"min_zoom":6.0},"arcs":[[[149]]]}]}},"type":"Topology","transform":{"translate":[-73.125,16.6361918784],"scale":[0.001373291,0.0012956186]},"arcs":[[[996,2373],[6,-22],[3,-13],[-1,-13],[-1,-20],[3,-17],[21,-49],[8,-60],[0,-35],[-8,-17],[-5,-5],[-9,-23],[-7,-6],[-19,-11],[-5,-5],[4,-15],[13,-19],[3,-3],[24,-24],[47,-23],[9,-5],[-3,-46],[-4,-13],[-9,-14],[-25,-18],[-11,-10],[-22,-30],[-31,-35],[-10,-6],[-37,-10],[-13,-9],[2,-13]],[[951,1792],[17,-1],[6,-5],[11,-22],[6,-8],[17,-15],[5,-7],[4,-14],[1,-32],[6,-30],[-1,-15],[-4,-14],[-5,-13],[-8,-14],[-11,-9],[-19,-12],[-5,-3],[-2,-1],[-10,-11],[-15,-26],[-9,-10],[-29,-10]],[[919,1784],[13,2],[19,6]],[[906,1520],[-54,10]],[[852,1530],[-27,-6],[-13,-9],[7,-13],[65,-68],[5,-7],[2,-12],[-4,-4],[-5,-3],[-3,-9],[4,-14],[11,-6],[28,-7],[7,-6],[11,-16],[6,-7],[27,-19],[39,-14],[11,-7],[6,-6],[2,-3],[-9,-14],[0,-1],[-33,-56],[-5,-15],[-2,-15],[1,-7],[8,-22],[1,-9],[0,-13],[1,-22],[-2,-14],[-9,-23]],[[3,2310]],[[408,2500]],[[50,1406]],[[85,1192]],[[784,2374],[-3,-7]],[[781,2367],[-3,-6]],[[835,2084],[26,-16],[26,-12],[14,-12],[20,-2],[16,-4]],[[977,2037],[24,3],[1,0]],[[951,2039],[26,-2]],[[937,2038],[14,1]],[[674,2057],[-34,-47],[-4,-55],[20,-20],[-7,-17],[1,-18],[5,-23],[-10,-39],[5,-39],[2,-20],[-10,-26],[-3,-23],[-17,-10]],[[622,1720],[-35,4]],[[587,1724],[-34,-2]],[[82,1223],[-1,17],[-1,17],[10,22],[3,23]],[[50,1406],[4,-8],[1,-9],[-12,-20],[2,-20],[18,-1],[13,-13],[5,-19],[12,-14]],[[446,1792],[-17,2],[-55,8],[-47,2]],[[327,1804],[-12,-10],[-10,-13]],[[553,1722],[-17,18],[-19,14],[-20,8],[-18,8],[-7,12],[-8,11]],[[464,1793],[-18,-1]],[[742,1597],[-55,19],[-44,44],[-22,15],[-25,6],[-24,15],[-19,26]],[[971,1578],[-5,6],[-28,17],[-30,8],[-25,9],[-25,8]],[[858,1626],[-58,-10],[-58,-19]],[[521,1344],[-13,7],[-20,10],[-26,2]],[[462,1363],[-24,-12],[-18,-22],[-7,-5],[-9,-1],[-18,-7],[-17,-2],[-9,-2],[-9,-7],[-14,-2],[-14,0],[-8,-8],[-8,-7]],[[622,1319],[-61,3],[-10,12],[-9,12]],[[542,1346],[-21,-2]],[[810,1295],[-63,14],[-63,13]],[[684,1322],[-62,-3]],[[112,1271],[-9,17],[-10,14]],[[307,1288],[-13,2],[-11,6]],[[283,1296],[-2,-11],[-4,-10],[-9,-7],[-6,-11]],[[958,1268],[-38,24],[-49,4]],[[871,1296],[-61,-1]],[[1022,1280],[0,-1],[-64,-11]],[[193,1256],[-16,8],[-8,12],[-11,0],[-11,1]],[[147,1277],[-20,-4],[-15,-2]],[[262,1257],[-24,7],[-25,8]],[[213,1272],[-12,-7],[-8,-9]],[[82,1223],[-19,26],[-5,33],[-24,22],[-27,23],[-7,2]],[[82,1223],[2,-13],[2,-14],[-1,-4]],[[835,2084],[-13,39],[-36,38],[-14,4],[-13,3],[7,12],[2,20],[-12,20],[-8,23],[-9,18],[-3,19],[3,9],[0,11],[9,6],[11,2],[16,23],[3,30]],[[353,2399],[-2,18],[-15,11],[-9,19]],[[494,2233],[-26,11],[-22,17],[-20,20],[-12,32],[-10,30],[-18,8],[-9,13],[7,26],[-15,12]],[[369,2402],[-16,-3]],[[674,2057],[-8,21],[-12,22],[-4,22],[4,22],[-12,27],[-29,15],[-29,26],[-3,49],[-14,7],[-11,5]],[[556,2273],[-12,-1],[-14,-13]],[[530,2259],[-14,1]],[[516,2260],[0,-20],[-22,-7]],[[718,2024],[14,1],[50,32],[53,27]],[[674,2057],[21,-7],[16,-16],[7,-10]],[[327,2447],[-22,3]],[[305,2450],[-18,-13],[-12,-7],[-15,-4],[-45,-38],[-55,-10]],[[160,2378],[-30,5],[-30,3],[-30,7]],[[70,2393],[-28,-3],[-34,-36],[-6,-42],[1,-2]],[[366,2455],[10,9],[8,7],[6,5],[5,9],[7,11],[6,4]],[[340,2464],[11,-3],[7,-5],[8,-1]],[[327,2447],[0,5],[2,9],[11,3]],[[4096,4096],[0,-4096],[-4096,0],[0,1199],[6,-1],[19,1],[77,-8],[27,-8],[26,-10],[19,-11],[20,7],[40,-4],[20,14],[5,-4],[5,-1],[10,-1],[-1,3],[-2,9],[-2,4],[18,-2],[86,8],[11,-2],[20,-7],[8,0],[7,7],[-5,30],[4,3],[9,-3],[14,-8],[58,10],[106,2],[75,-1],[59,10],[28,0],[24,-9],[23,-13],[58,-20],[25,-16],[22,-20],[51,-67],[12,-8],[41,-16],[26,-22],[13,-15],[6,-13],[-5,-30],[0,-9],[2,-4],[8,-12],[11,-22],[3,-12],[1,-17],[-5,-10],[-23,-24],[-7,-6],[25,-6],[58,8],[24,-9],[12,-14],[51,-83],[7,-7],[0,-3],[6,-6],[8,-3],[30,42],[7,14],[25,73],[9,13],[2,6],[5,15],[3,3],[6,1],[4,3],[4,5],[3,7],[-5,0],[3,2],[1,2],[1,6],[3,-3],[2,-1],[5,-2],[5,13],[5,9],[6,8],[9,8],[15,7],[7,5],[3,6],[6,18],[69,102],[12,31],[14,21],[0,9],[-4,8],[-12,42],[-5,8],[-5,5],[-3,6],[-2,9],[2,9],[6,11],[2,7],[4,12],[12,4],[14,0],[32,-7],[8,-3],[7,-6],[5,-7],[4,-8],[4,-6],[7,-3],[18,2],[10,7],[19,23],[4,2],[10,3],[2,3],[0,3],[5,10],[2,3],[7,7],[4,2],[9,-1],[7,1],[10,7],[5,3],[7,-1],[15,-5],[9,0],[8,2],[5,4],[22,22],[2,6],[-3,16],[7,14],[16,4],[18,-2],[14,-3],[17,-7],[10,-6],[16,-21],[4,-9],[2,-14],[-1,-17],[-3,-15],[-4,-5],[-5,-3],[-4,-4],[-2,-7],[3,-7],[14,-10],[6,-7],[5,-3],[5,-5],[2,-8],[-4,-5],[-6,-4],[-6,-5],[1,-7],[12,-5],[50,0],[17,4],[30,17],[16,5],[93,0],[14,-3],[13,-8],[9,6],[13,2],[18,0],[4,-2],[10,9],[18,20],[25,24],[3,8],[4,6],[16,9],[4,6],[5,23],[12,20],[16,14],[10,5],[7,4],[20,6],[7,4],[19,12],[23,12],[11,3],[3,0],[21,1],[112,-12],[5,-2],[6,-6],[12,-21],[5,-2],[9,-2],[10,0],[7,2],[2,7],[-2,9],[0,8],[5,8],[10,-2],[16,-8],[40,-28],[15,0],[28,11],[95,7],[15,14],[15,-9],[14,1],[15,5],[14,3],[16,-4],[21,-18],[12,-4],[15,-2],[32,-11],[14,-3],[53,3],[35,14],[30,-4],[30,-13],[23,-16],[22,-25],[24,-36],[18,-38],[1,-28],[13,-5],[61,5],[9,3],[4,8],[11,45],[6,14],[9,12],[6,15],[-4,15],[-2,13],[12,8],[11,-3],[28,-20],[14,-4],[17,0],[15,2],[12,6],[8,13],[2,8],[-2,26],[3,8],[4,5],[5,4],[69,105],[4,30],[-20,31],[-42,26],[-33,32],[-5,3],[-9,4],[-31,22],[-44,34],[-31,38],[-85,79],[-7,3],[-13,1],[-7,4],[-6,4],[-1,1],[-7,2],[-16,1],[-26,5],[-1,0],[-15,5],[-3,3],[-1,3],[0,3],[-1,2],[-12,7],[-14,5],[-15,3],[-26,1],[-3,0],[-3,-3],[-7,-8],[-6,-2],[-7,-1],[-3,-1],[6,-6],[-8,-6],[-18,-9],[-9,-7],[-5,8],[-9,4],[-11,4],[-10,6],[-15,25],[-12,10],[-13,-4],[0,-7],[9,-6],[5,-5],[-14,-8],[-11,-1],[-28,8],[-68,18],[-25,3],[-13,4],[-12,9],[-10,24],[-13,9],[-11,2],[-39,-2],[0,-5],[8,-1],[7,-3],[6,-3],[4,-4],[-18,-2],[-34,13],[-17,-5],[-14,5],[-40,-6],[-9,6],[-7,5],[-3,12],[6,31],[2,37],[4,10],[11,3],[93,-11],[27,-14],[14,-4],[63,5],[57,-11],[16,4],[13,9],[8,13],[3,14],[7,13],[13,12],[9,14],[-4,16],[-13,-6],[-16,-5],[-16,0],[-15,6],[11,22],[5,18],[-5,9],[-21,-7],[-33,-18],[-13,-12],[-9,-17],[-12,9],[-42,17],[-8,-5],[-5,-1],[-3,4],[-1,4],[-3,2],[-4,1],[-4,1],[-8,-1],[-17,-5],[-10,2],[-15,8],[-8,1],[-8,-2],[-22,-14],[-14,-6],[-15,-3],[-33,-2],[-14,-2],[-29,-11],[-14,-2],[-25,10],[-3,3],[-22,21],[-48,73],[-5,12],[-2,15],[0,36],[-5,13],[-15,6],[12,43],[1,19],[-8,18],[-25,27],[-11,6],[-9,1],[-20,-2],[-40,1],[-14,-6],[-26,-29],[-7,-5],[-7,-3],[-11,0],[-49,9],[-27,10],[-33,4],[-15,4],[-13,7],[-12,8],[-27,29],[-44,47],[-29,9],[-7,-3],[-10,-5],[-9,-6],[-3,-5],[-4,-2],[-44,0],[-33,5],[-28,10],[-26,13],[-28,24],[-10,5],[-28,0],[4,7],[-3,8],[-32,38],[-8,6],[-9,0],[-21,-5],[-11,-1],[-35,6],[2,-4],[3,-12],[-5,0],[-14,6],[4,12],[-6,10],[-12,6],[-11,3],[-13,-1],[-24,-12],[-11,-3],[-9,-6],[-13,-25],[-8,-6],[-11,-1],[-10,-3],[-10,0],[-11,4],[2,-5],[0,-2],[2,-1],[6,-2],[-2,-5],[-3,-5],[-4,-3],[-6,-4],[-8,21],[-6,7],[-9,-4],[-4,-8],[0,-7],[-2,-6],[-9,-3],[-32,1],[-10,5],[-15,11],[-19,-8],[-21,4],[-69,37],[-19,6],[-19,3],[-75,-6],[-3,-1],[-5,-8],[-2,-1],[-6,1],[-8,4],[-6,1],[-9,-3],[-4,-6],[1,-9],[5,-9],[-9,-8],[-6,-3],[-7,-2],[-8,-3],[-5,-4],[-8,-10],[-5,-2],[-8,0],[-3,0],[-4,-3],[-11,-12],[-8,-13],[2,-8],[20,-1],[0,-6],[-1,-7],[13,-30],[3,-15],[-13,6],[-14,4],[-31,0],[-19,5],[-8,0],[-5,-5],[-2,-7],[3,-7],[5,-5],[16,-4],[2,-6],[-4,-10],[-4,-3],[-8,5],[-13,11],[-11,-1],[-14,-4],[-12,1],[-8,15],[21,-1],[8,2],[6,4],[5,9],[-5,4],[-20,3],[-35,11],[-21,0],[-14,-11],[-8,-2],[-5,-6],[-4,-6],[-5,-2],[-7,1],[-10,8],[-7,3],[-2,4],[-3,3],[-6,2],[-25,0],[-7,2],[-11,11],[-5,3],[-4,1],[-2,0],[-29,-5],[-12,2],[-12,7],[6,19],[-10,8],[-14,-1],[-8,-7],[-6,-12],[-13,-4],[-15,2],[-10,5],[-5,0],[3,-8],[2,-2],[0,-5],[-2,2],[-1,-3],[-2,-3],[0,-1],[2,0],[5,0],[2,0],[-9,-11],[3,-7],[-3,-1],[-13,3],[-3,3],[-9,23],[11,-3],[4,-2],[0,5],[-36,33],[-4,12],[-9,-3],[-21,6],[-22,8],[-13,7],[-11,-7],[-21,7],[-19,13],[-15,19],[-3,4],[-43,13],[-15,7],[-19,12],[-74,17],[-23,1],[-24,-3],[-23,-6],[-19,-8],[-15,5],[-16,-1],[-14,-8],[-5,-12],[-8,8],[-10,3],[-11,1],[-11,-1],[-14,-4],[-5,-1],[-9,0],[-10,2],[-19,7],[-11,1],[-7,-1],[0,837],[20,58],[46,58],[6,22],[15,82],[1,18],[-6,13],[-16,7],[-14,-9],[-11,-15],[-35,-56],[-6,-11],[0,556],[795,0],[-2,-3],[8,-5],[0,-7],[-1,-7],[3,-8],[7,-3],[8,-2],[7,2],[3,6],[17,20],[12,7],[6,-14],[-3,-9],[-11,-18],[-1,-10],[5,-8],[8,-7],[8,-4],[7,-2],[9,-5],[11,-9],[13,-3],[14,12],[-23,2],[-10,16],[-7,45],[3,12],[-1,2],[3211,0]],[[928,4029],[2,-28],[3,-9],[6,-13],[6,-4],[18,1],[45,6],[18,-6],[12,-21],[4,0],[1,3],[5,8],[13,-19],[7,-5],[10,2],[-6,15],[-13,26],[-6,18],[8,-10],[6,-12],[8,-11],[13,-4],[-18,38],[-7,9],[-10,5],[-9,-1],[-21,-4],[-45,6],[-6,-1],[-7,-2],[-7,0],[-12,9],[-6,2],[-6,2],[-6,0]],[[1117,3950],[13,-14],[32,-14],[15,-9],[17,-24],[10,-10],[9,2],[5,20],[-7,16],[-14,11],[-15,6],[-17,5],[-13,5],[-24,16],[-2,-5],[-2,-2],[-3,-1],[-4,-2]],[[504,3893],[0,23],[-20,-3],[0,-15],[-2,-17],[-5,-14],[-8,-8],[0,-4],[21,11],[14,27]],[[1182,3807],[-5,-13],[0,-18],[-5,-4],[-9,1],[-9,-6],[2,-13],[12,-8],[12,3],[6,11],[-1,17],[1,26],[-1,5],[-3,-1]],[[1441,3750],[-4,-17],[0,-17],[5,-15],[8,12],[4,20],[-2,20],[-5,12],[-6,-15]],[[153,3743],[3,15],[-7,7],[-14,7],[-14,8],[-8,6],[-9,12],[-7,4],[-11,-8],[-12,-15],[-14,-8],[-17,-6],[-7,-6],[2,-16],[10,-14],[5,-15],[-2,-10],[1,-8],[7,1],[8,8],[24,12],[9,2],[12,11],[27,4],[14,9]],[[1395,3632],[-4,-7],[-3,-14],[4,-3],[9,9],[6,10],[-5,4],[-7,1]],[[1090,3608],[-1,10],[-4,-4],[-4,-12],[4,-7],[5,13]],[[1053,3599],[4,6],[-5,-2],[-5,-3],[-9,-7],[3,-1],[12,7]],[[163,2660],[-34,-12],[-4,-3],[-2,-1],[-3,0],[10,-10],[16,-8],[18,-6],[16,-3],[7,1],[9,3],[8,2],[12,-6],[36,-8],[28,-11],[62,-8],[12,-5],[8,18],[-29,18],[-69,27],[-17,10],[-12,6],[-14,2],[-21,-1],[-37,-5]],[[3837,1141],[-5,1],[-42,-1],[-8,-4],[-5,-12],[5,-10],[21,-12],[4,-7],[4,-2],[6,-1],[7,1],[3,2],[1,6],[3,4],[3,3],[7,14],[4,5],[0,5],[-8,8]],[[3317,1142],[-6,14],[-8,15],[-7,10],[-10,3],[-38,-1],[-34,5],[-8,3],[-11,8],[-13,6],[-12,3],[-11,-4],[6,-19],[12,-20],[18,-17],[26,-7],[12,2],[23,7],[13,2],[12,-3],[23,-11],[12,-2],[1,6]],[[1207,729],[-18,18],[-11,7],[-10,6],[-8,-15],[-7,-20],[0,-16],[12,-7],[13,4],[18,19],[11,4]],[[745,4041],[2,-6],[4,2],[5,5],[0,6],[-2,4],[-4,-3],[-5,-8]],[[571,3996],[3,-10],[4,5],[16,12],[-3,-10],[-10,-17],[-2,-10],[-3,1],[-1,0],[0,1],[-1,3],[-2,-4],[0,-4],[0,-3],[2,-5],[10,3],[6,5],[1,8],[-2,11],[25,-12],[5,-4],[1,-8],[-6,-2],[-6,3],[-5,7],[-5,0],[9,-20],[13,2],[29,23],[0,-11],[10,3],[19,-3],[10,6],[-2,2],[-2,2],[-3,0],[-3,1],[21,11],[1,-5],[3,-11],[6,7],[20,19],[0,5],[-16,10],[-8,-2],[-6,-9],[-11,-10],[-9,-3],[-14,-2],[-15,-1],[-9,4],[-46,42],[-16,8],[0,-13],[-8,-25]],[[722,4022],[7,0],[6,5],[-3,3],[-4,-2],[-6,-6]],[[0,1777],[0,532],[2,1],[1,0],[7,-1],[15,-3],[7,-1],[45,-17],[8,3],[4,-1],[26,-22],[12,-5],[14,-4],[39,-24],[46,-21],[14,-10],[9,-12],[7,-10],[9,-7],[38,-2],[7,-4],[14,-28],[-9,0],[-7,3],[-5,5],[-4,2],[-10,2],[-2,1],[2,-4],[1,-18],[3,-6],[-1,-6],[-8,-5],[-7,-2],[-7,3],[-6,4],[-4,5],[-4,-10],[-1,-16],[3,-15],[9,-7],[14,-1],[8,-4],[10,-21],[-8,1],[-12,0],[-12,-2],[-7,-4],[-5,-7],[-8,-18],[-7,-7],[-1,-4],[1,-2],[-1,-1],[-5,-4],[5,-12],[17,-31],[8,-10],[12,-7],[13,-5],[11,-7],[4,-15],[-7,-11],[-15,-5],[-28,-2],[-31,-13],[4,-20],[76,-83],[14,-7],[12,-4],[15,-9],[15,-12],[10,-11],[38,-58],[6,-15],[6,-7],[25,-15],[18,2],[14,-11],[13,-16],[15,-13],[8,-3],[18,0],[9,-2],[33,-16],[7,-5],[3,-9],[-2,-6],[-6,-6],[-5,-11],[-1,-8],[1,-47],[-2,-18],[-5,-13],[-13,-4],[-7,4],[-15,17],[-3,1],[-1,2],[-2,2],[-5,1],[-2,-1],[-1,-4],[-2,-4],[-5,-1],[-121,11],[-23,-6],[-18,-22],[-12,-27],[-15,-24],[-20,-17],[-28,-6],[-51,9],[-11,4],[-13,0],[-19,-7],[-14,-2],[4,12],[-63,16],[-52,-10],[-18,-3],[-12,1],[-11,4],[-9,5],[0,267],[64,-41],[23,-6],[22,-2],[65,-14],[17,-1],[5,-2],[6,-5],[7,-14],[5,-5],[8,3],[8,16],[2,19],[-2,20],[-6,17],[-21,26],[-52,22],[-55,28],[-50,17],[-46,19]],[[1133,1448],[44,-28],[10,-9],[-11,-17],[-5,-5],[-8,-5],[-35,-7],[-5,-5],[-10,-1],[-15,3],[-6,3],[-9,9],[-5,4],[-18,5],[-13,7],[-20,5],[-4,7],[-4,3],[-26,15],[-21,4],[-10,3],[-7,12],[-5,11],[0,8],[13,-6],[15,-14],[15,4],[15,13],[12,15],[16,9],[14,-4],[14,-8],[30,-14],[6,-4],[9,-7],[7,-2],[8,-1],[9,-3]],[[857,1462],[12,-18],[19,-12],[-11,-5],[-17,-4],[-15,-1],[-7,7],[-5,15],[-13,8],[-16,5],[-11,7],[-17,27],[-3,26],[9,23],[21,19],[6,-5],[3,-7],[1,-22],[3,-12],[6,-6],[8,-5],[8,-7],[10,-14],[9,-19]],[[484,3913],[0,-15],[-2,-17],[-5,-14],[-8,-8],[0,-4],[21,11],[14,27],[0,23],[-20,-3]],[[200,2665],[-37,-5],[-34,-12],[-4,-3],[-2,-1],[-3,0],[10,-10],[16,-8],[18,-6],[16,-3],[7,1],[9,3],[8,2],[12,-6],[36,-8],[28,-11],[62,-8],[12,-5],[8,18],[-29,18],[-69,27],[-17,10],[-12,6],[-14,2],[-21,-1]],[[574,3986],[4,5],[16,12],[-3,-10],[-10,-17],[-2,-10],[-3,1],[-1,0],[0,1],[-1,3],[-2,-4],[0,-4],[0,-3],[2,-5],[10,3],[6,5],[1,8],[-2,11],[25,-12],[5,-4],[1,-8],[-6,-2],[-6,3],[-5,7],[-5,0],[9,-20],[13,2],[29,23],[0,-11],[10,3],[19,-3],[10,6],[-2,2],[-2,2],[-3,0],[-3,1],[21,11],[1,-5],[3,-11],[6,7],[20,19],[0,5],[-16,10],[-8,-2],[-6,-9],[-11,-10],[-9,-3],[-14,-2],[-15,-1],[-9,4],[-46,42],[-16,8],[0,-13],[-8,-25],[3,-10]],[[1177,3913],[17,-24],[10,-10],[9,2],[5,20],[-7,16],[-14,11],[-15,6],[-17,5],[-13,5],[-24,16],[-2,-5],[-2,-2],[-3,-1],[-4,-2],[13,-14],[32,-14],[15,-9]],[[803,4066],[7,-3],[8,-2],[7,2],[3,6],[17,20],[12,7],[6,-14],[-3,-9],[-11,-18],[-1,-10],[5,-8],[8,-7],[8,-4],[7,-2],[9,-5],[11,-9],[13,-3],[14,12],[-23,2],[-10,16],[-7,45],[3,12],[-1,2]],[[795,4096],[-2,-3],[8,-5],[0,-7],[-1,-7],[3,-8]],[[91,3717],[9,2],[12,11],[27,4],[14,9],[3,15],[-7,7],[-14,7],[-14,8],[-8,6],[-9,12],[-7,4],[-11,-8],[-12,-15],[-14,-8],[-17,-6],[-7,-6],[2,-16],[10,-14],[5,-15],[-2,-10],[1,-8],[7,1],[8,8],[24,12]],[[963,3976],[45,6],[18,-6],[12,-21],[4,0],[1,3],[5,8],[13,-19],[7,-5],[10,2],[-6,15],[-13,26],[-6,18],[8,-10],[6,-12],[8,-11],[13,-4],[-18,38],[-7,9],[-10,5],[-9,-1],[-21,-4],[-45,6],[-6,-1],[-7,-2],[-7,0],[-12,9],[-6,2],[-6,2],[-6,0],[2,-28],[3,-9],[6,-13],[6,-4],[18,1]],[[1165,702],[13,4],[18,19],[11,4],[-18,18],[-11,7],[-10,6],[-8,-15],[-7,-20],[0,-16],[12,-7]],[[1447,3765],[-6,-15],[-4,-17],[0,-17],[5,-15],[8,12],[4,20],[-2,20],[-5,12]],[[3248,1183],[-34,5],[-8,3],[-11,8],[-13,6],[-12,3],[-11,-4],[6,-19],[12,-20],[18,-17],[26,-7],[12,2],[23,7],[13,2],[12,-3],[23,-11],[12,-2],[1,6],[-6,14],[-8,15],[-7,10],[-10,3],[-38,-1]],[[3837,1141],[-5,1],[-42,-1],[-8,-4],[-5,-12],[5,-10],[21,-12],[4,-7],[4,-2],[6,-1],[7,1],[3,2],[1,6],[3,4],[3,3],[7,14],[4,5],[0,5],[-8,8]],[[0,1680],[64,-41],[23,-6],[22,-2],[65,-14],[17,-1],[5,-2],[6,-5],[7,-14],[5,-5],[8,3],[8,16],[2,19],[-2,20],[-6,17],[-21,26],[-52,22],[-55,28],[-50,17],[-46,19]],[[3473,1559],[-42,26],[-33,32],[-5,3],[-9,4],[-31,22],[-44,34],[-31,38],[-85,79],[-7,3],[-13,1],[-7,4],[-6,4],[-1,1],[-7,2],[-16,1],[-26,5],[-1,0],[-15,5],[-3,3],[-1,3],[0,3],[-1,2],[-12,7],[-14,5],[-15,3],[-26,1],[-3,0],[-3,-3],[-7,-8],[-6,-2],[-7,-1],[-3,-1],[6,-6],[-8,-6],[-18,-9],[-9,-7],[-5,8],[-9,4],[-11,4],[-10,6],[-15,25],[-12,10],[-13,-4],[0,-7],[9,-6],[5,-5],[-14,-8],[-11,-1],[-28,8],[-68,18],[-25,3],[-13,4],[-12,9],[-10,24],[-13,9],[-11,2],[-39,-2],[0,-5],[8,-1],[7,-3],[6,-3],[4,-4],[-18,-2],[-34,13],[-17,-5],[-14,5],[-40,-6],[-9,6],[-7,5],[-3,12],[6,31],[2,37],[4,10],[11,3],[93,-11],[27,-14],[14,-4],[63,5],[57,-11],[16,4],[13,9],[8,13],[3,14],[7,13],[13,12],[9,14],[-4,16],[-13,-6],[-16,-5],[-16,0],[-15,6],[11,22],[5,18],[-5,9],[-21,-7],[-33,-18],[-13,-12],[-9,-17],[-12,9],[-42,17],[-8,-5],[-5,-1],[-3,4],[-1,4],[-3,2],[-4,1],[-4,1],[-8,-1],[-17,-5],[-10,2],[-15,8],[-8,1],[-8,-2],[-22,-14],[-14,-6],[-15,-3],[-33,-2],[-14,-2],[-29,-11],[-14,-2],[-25,10],[-3,3],[-22,21],[-48,73],[-5,12],[-2,15],[0,36],[-5,13],[-15,6],[12,43],[1,19],[-8,18],[-25,27],[-11,6],[-9,1],[-20,-2],[-40,1],[-14,-6],[-26,-29],[-7,-5],[-7,-3],[-11,0],[-49,9],[-27,10],[-33,4],[-15,4],[-13,7],[-12,8],[-27,29],[-44,47],[-29,9],[-7,-3],[-10,-5],[-9,-6],[-3,-5],[-4,-2],[-44,0],[-33,5],[-28,10],[-26,13],[-28,24],[-10,5],[-28,0],[4,7],[-3,8],[-32,38],[-8,6],[-9,0],[-21,-5],[-11,-1],[-35,6],[2,-4],[3,-12],[-5,0],[-14,6],[4,12],[-6,10],[-12,6],[-11,3],[-13,-1],[-24,-12],[-11,-3],[-9,-6],[-13,-25],[-8,-6],[-11,-1],[-10,-3],[-10,0],[-11,4],[2,-5],[0,-2],[2,-1],[6,-2],[-2,-5],[-3,-5],[-4,-3],[-6,-4],[-8,21],[-6,7],[-9,-4],[-4,-8],[0,-7],[-2,-6],[-9,-3],[-32,1],[-10,5],[-15,11],[-19,-8],[-21,4],[-69,37],[-19,6],[-19,3],[-75,-6],[-3,-1],[-5,-8],[-2,-1],[-6,1],[-8,4],[-6,1],[-9,-3],[-4,-6],[1,-9],[5,-9],[-9,-8],[-6,-3],[-7,-2],[-8,-3],[-5,-4],[-8,-10],[-5,-2],[-8,0],[-3,0],[-4,-3],[-11,-12],[-8,-13],[2,-8],[20,-1],[0,-6],[-1,-7],[13,-30],[3,-15],[-13,6],[-14,4],[-31,0],[-19,5],[-8,0],[-5,-5],[-2,-7],[3,-7],[5,-5],[16,-4],[2,-6],[-4,-10],[-4,-3],[-8,5],[-13,11],[-11,-1],[-14,-4],[-12,1],[-8,15],[21,-1],[8,2],[6,4],[5,9],[-5,4],[-20,3],[-35,11],[-21,0],[-14,-11],[-8,-2],[-5,-6],[-4,-6],[-5,-2],[-7,1],[-10,8],[-7,3],[-2,4],[-3,3],[-6,2],[-25,0],[-7,2],[-11,11],[-5,3],[-4,1],[-2,0],[-29,-5],[-12,2],[-12,7],[6,19],[-10,8],[-14,-1],[-8,-7],[-6,-12],[-13,-4],[-15,2],[-10,5],[-5,0],[3,-8],[2,-2],[0,-5],[-2,2],[-1,-3],[-2,-3],[0,-1],[2,0],[5,0],[2,0],[-9,-11],[3,-7],[-3,-1],[-13,3],[-3,3],[-9,23],[11,-3],[4,-2],[0,5],[-36,33],[-4,12],[-9,-3],[-21,6],[-22,8],[-13,7],[-11,-7],[-21,7],[-19,13],[-15,19],[-3,4],[-43,13],[-15,7],[-19,12],[-74,17],[-23,1],[-24,-3],[-23,-6],[-19,-8],[-15,5],[-16,-1],[-14,-8],[-5,-12],[-8,8],[-10,3],[-11,1],[-11,-1],[-14,-4],[-5,-1],[-9,0],[-10,2],[-19,7],[-11,1],[-7,-1]],[[0,2309],[2,1],[1,0],[7,-1],[15,-3],[7,-1],[45,-17],[8,3],[4,-1],[26,-22],[12,-5],[14,-4],[39,-24],[46,-21],[14,-10],[9,-12],[7,-10],[9,-7],[38,-2],[7,-4],[14,-28],[-9,0],[-7,3],[-5,5],[-4,2],[-10,2],[-2,1],[2,-4],[1,-18],[3,-6],[-1,-6],[-8,-5],[-7,-2],[-7,3],[-6,4],[-4,5],[-4,-10],[-1,-16],[3,-15],[9,-7],[14,-1],[8,-4],[10,-21],[-8,1],[-12,0],[-12,-2],[-7,-4],[-5,-7],[-8,-18],[-7,-7],[-1,-4],[1,-2],[-1,-1],[-5,-4],[5,-12],[17,-31],[8,-10],[12,-7],[13,-5],[11,-7],[4,-15],[-7,-11],[-15,-5],[-28,-2],[-31,-13],[4,-20],[76,-83],[14,-7],[12,-4],[15,-9],[15,-12],[10,-11],[38,-58],[6,-15],[6,-7],[25,-15],[18,2],[14,-11],[13,-16],[15,-13],[8,-3],[18,0],[9,-2],[33,-16],[7,-5],[3,-9],[-2,-6],[-6,-6],[-5,-11],[-1,-8],[1,-47],[-2,-18],[-5,-13],[-13,-4],[-7,4],[-15,17],[-3,1],[-1,2],[-2,2],[-5,1],[-2,-1],[-1,-4],[-2,-4],[-5,-1],[-121,11],[-23,-6],[-18,-22],[-12,-27],[-15,-24],[-20,-17],[-28,-6],[-51,9],[-11,4],[-13,0],[-19,-7],[-14,-2],[4,12],[-63,16],[-52,-10],[-18,-3],[-12,1],[-11,4],[-9,5]],[[0,1199],[6,-1],[19,1],[77,-8],[27,-8],[26,-10],[19,-11],[20,7],[40,-4],[20,14],[5,-4],[5,-1],[10,-1],[-1,3],[-2,9],[-2,4],[18,-2],[86,8],[11,-2],[20,-7],[8,0],[7,7],[-5,30],[4,3],[9,-3],[14,-8],[58,10],[106,2],[75,-1],[59,10],[28,0],[24,-9],[23,-13],[58,-20],[25,-16],[22,-20],[51,-67],[12,-8],[41,-16],[26,-22],[13,-15],[6,-13],[-5,-30],[0,-9],[2,-4],[8,-12],[11,-22],[3,-12],[1,-17],[-5,-10],[-23,-24],[-7,-6],[25,-6],[58,8],[24,-9],[12,-14],[51,-83],[7,-7],[0,-3],[6,-6],[8,-3],[30,42],[7,14],[25,73],[9,13],[2,6],[5,15],[3,3],[6,1],[4,3],[4,5],[3,7],[-5,0],[3,2],[1,2],[1,6],[3,-3],[2,-1],[5,-2],[5,13],[5,9],[6,8],[9,8],[15,7],[7,5],[3,6],[6,18],[69,102],[12,31],[14,21],[0,9],[-4,8],[-12,42],[-5,8],[-5,5],[-3,6],[-2,9],[2,9],[6,11],[2,7],[4,12],[12,4],[14,0],[32,-7],[8,-3],[7,-6],[5,-7],[4,-8],[4,-6],[7,-3],[18,2],[10,7],[19,23],[4,2],[10,3],[2,3],[0,3],[5,10],[2,3],[7,7],[4,2],[9,-1],[7,1],[10,7],[5,3],[7,-1],[15,-5],[9,0],[8,2],[5,4],[22,22],[2,6],[-3,16],[7,14],[16,4],[18,-2],[14,-3],[17,-7],[10,-6],[16,-21],[4,-9],[2,-14],[-1,-17],[-3,-15],[-4,-5],[-5,-3],[-4,-4],[-2,-7],[3,-7],[14,-10],[6,-7],[5,-3],[5,-5],[2,-8],[-4,-5],[-6,-4],[-6,-5],[1,-7],[12,-5],[50,0],[17,4],[30,17],[16,5],[93,0],[14,-3],[13,-8],[9,6],[13,2],[18,0],[4,-2],[10,9],[18,20],[25,24],[3,8],[4,6],[16,9],[4,6],[5,23],[12,20],[16,14],[10,5],[7,4],[20,6],[7,4],[19,12],[23,12],[11,3],[3,0],[21,1],[112,-12],[5,-2],[6,-6],[12,-21],[5,-2],[9,-2],[10,0],[7,2],[2,7],[-2,9],[0,8],[5,8],[10,-2],[16,-8],[40,-28],[15,0],[28,11],[95,7],[15,14],[15,-9],[14,1],[15,5],[14,3],[16,-4],[21,-18],[12,-4],[15,-2],[32,-11],[14,-3],[53,3],[35,14],[30,-4],[30,-13],[23,-16],[22,-25],[24,-36],[18,-38],[1,-28],[13,-5],[61,5],[9,3],[4,8],[11,45],[6,14],[9,12],[6,15],[-4,15],[-2,13],[12,8],[11,-3],[28,-20],[14,-4],[17,0],[15,2],[12,6],[8,13],[2,8],[-2,26],[3,8],[4,5],[5,4],[69,105],[4,30],[-20,31]],[[0,3373],[20,58],[46,58],[6,22],[15,82],[1,18],[-6,13],[-16,7],[-14,-9],[-11,-15],[-35,-56],[-6,-11]],[[1133,1448],[44,-28],[10,-9],[-11,-17],[-5,-5],[-8,-5],[-35,-7],[-5,-5],[-10,-1],[-15,3],[-6,3],[-9,9],[-5,4],[-18,5],[-13,7],[-20,5],[-4,7],[-4,3],[-26,15],[-21,4],[-10,3],[-7,12],[-5,11],[0,8],[13,-6],[15,-14],[15,4],[15,13],[12,15],[16,9],[14,-4],[14,-8],[30,-14],[6,-4],[9,-7],[7,-2],[8,-1],[9,-3]],[[857,1462],[12,-18],[19,-12],[-11,-5],[-17,-4],[-15,-1],[-7,7],[-5,15],[-13,8],[-16,5],[-11,7],[-17,27],[-3,26],[9,23],[21,19],[6,-5],[3,-7],[1,-22],[3,-12],[6,-6],[8,-5],[8,-7],[10,-14],[9,-19]],[[750,4049],[-5,-8],[2,-6],[4,2],[5,5],[0,6],[-2,4],[-4,-3]],[[728,4028],[-6,-6],[7,0],[6,5],[-3,3],[-4,-2]],[[1185,3808],[-3,-1],[-5,-13],[0,-18],[-5,-4],[-9,1],[-9,-6],[2,-13],[12,-8],[12,3],[6,11],[-1,17],[1,26],[-1,5]],[[1395,3632],[-4,-7],[-3,-14],[4,-3],[9,9],[6,10],[-5,4],[-7,1]],[[1085,3614],[-4,-12],[4,-7],[5,13],[-1,10],[-4,-4]],[[1047,3600],[-9,-7],[3,-1],[12,7],[4,6],[-5,-2],[-5,-3]],[[1792,2207],[-197,94],[-68,24],[-257,71],[-105,52],[-35,11],[-26,-1],[-11,-11],[-5,-20],[4,-70],[-16,-20],[-45,-18]],[[2668,1421],[75,0],[72,8],[7,47],[6,121],[7,25],[19,3],[35,-7],[165,-69],[133,-67],[125,-71],[3,-6],[6,-39],[11,-22]],[[2241,1468],[47,-59]],[[1805,2173],[4,-28],[16,-41],[58,-104],[112,-172],[29,-75],[30,-61],[32,-49],[34,-42],[120,-131],[1,-2]],[[2163,1316],[-26,-39],[-13,-12],[-18,-8],[-23,-2],[-29,7],[-56,28],[-141,86],[-45,21],[-115,45],[-48,26],[-15,11],[-37,40],[-32,47],[-5,18],[-8,9],[-14,8],[-156,48],[-154,69],[-83,25],[-48,7],[-40,-3],[-34,-9],[-44,-20]],[[979,1718],[-64,-28],[-127,-39],[-35,-19],[-27,-28],[-16,-30],[-17,-59],[-34,-31],[-38,-25]],[[1031,2319],[-35,-8],[-54,-6],[-54,-3],[-96,4],[-42,11],[-52,39],[-29,13],[-12,-4],[-13,-12],[-6,-1],[-99,8],[-11,-22],[-29,-35],[-9,-20],[6,-59],[-5,-12],[-27,-8],[-87,3],[-11,-30],[1,-32],[6,-37],[35,-144],[-7,-115],[22,-68],[41,-53],[52,-40],[53,-36],[45,-36],[27,-44],[2,-58],[-22,-55]],[[621,1459],[-21,-11],[-110,-37],[-144,-42],[-114,-28],[-26,-3],[-125,22],[-21,-7],[-43,-25],[-17,-7]],[[2288,1409],[21,15],[26,11],[35,9],[39,5]],[[2409,1449],[18,2],[59,-4],[62,-16],[76,-11],[44,1]],[[2288,1409],[-28,-15]],[[2260,1394],[-62,-34],[-25,-28],[-10,-16]],[[3824,1094],[-7,-1],[-6,1],[-4,2],[-4,7],[-21,12],[-5,10],[5,12],[8,4],[42,1],[5,-1],[8,-8],[0,-5],[-4,-5],[-7,-14],[-3,-3],[-3,-4],[-1,-6],[-3,-2]],[[0,1680],[0,97],[46,-19],[50,-17],[55,-28],[52,-22],[21,-26],[6,-17],[2,-20],[-2,-19],[-8,-16],[-8,-3],[-5,5],[-7,14],[-6,5],[-5,2],[-17,1],[-65,14],[-22,2],[-23,6],[-64,41]],[[1178,706],[-13,-4],[-12,7],[0,16],[7,20],[8,15],[10,-6],[11,-7],[18,-18],[-11,-4],[-18,-19]],[[3214,1188],[34,-5],[38,1],[10,-3],[7,-10],[8,-15],[6,-14],[-1,-6],[-12,2],[-23,11],[-12,3],[-13,-2],[-23,-7],[-12,-2],[-26,7],[-18,17],[-12,20],[-6,19],[11,4],[12,-3],[13,-6],[11,-8],[8,-3]],[[1450,3713],[-8,-12],[-5,15],[0,17],[4,17],[6,15],[5,-12],[2,-20],[-4,-20]],[[1213,3881],[-9,-2],[-10,10],[-17,24],[-15,9],[-32,14],[-13,14],[4,2],[3,1],[2,2],[2,5],[24,-16],[13,-5],[17,-5],[15,-6],[14,-11],[7,-16],[-5,-20]],[[1185,3777],[1,-17],[-6,-11],[-12,-3],[-12,8],[-2,13],[9,6],[9,-1],[5,4],[0,18],[5,13],[3,1],[1,-5],[-1,-26]],[[0,3373],[0,167],[6,11],[35,56],[11,15],[14,9],[16,-7],[6,-13],[-1,-18],[-15,-82],[-6,-22],[-46,-58],[-20,-58]],[[59,3697],[-7,-1],[-1,8],[2,10],[-5,15],[-10,14],[-2,16],[7,6],[17,6],[14,8],[12,15],[11,8],[7,-4],[9,-12],[8,-6],[14,-8],[14,-7],[7,-7],[-3,-15],[-14,-9],[-27,-4],[-12,-11],[-9,-2],[-24,-12],[-8,-8]],[[490,3866],[-21,-11],[0,4],[8,8],[5,14],[2,17],[0,15],[20,3],[0,-23],[-14,-27]],[[958,4016],[7,0],[7,2],[6,1],[45,-6],[21,4],[9,1],[10,-5],[7,-9],[18,-38],[-13,4],[-8,11],[-6,12],[-8,10],[6,-18],[13,-26],[6,-15],[-10,-2],[-7,5],[-13,19],[-5,-8],[-1,-3],[-4,0],[-12,21],[-18,6],[-45,-6],[-18,-1],[-6,4],[-6,13],[-3,9],[-2,28],[6,0],[6,-2],[6,-2],[12,-9]],[[595,4026],[46,-42],[9,-4],[15,1],[14,2],[9,3],[11,10],[6,9],[8,2],[16,-10],[0,-5],[-20,-19],[-6,-7],[-3,11],[-1,5],[-21,-11],[3,-1],[3,0],[2,-2],[2,-2],[-10,-6],[-19,3],[-10,-3],[0,11],[-29,-23],[-13,-2],[-9,20],[5,0],[5,-7],[6,-3],[6,2],[-1,8],[-5,4],[-25,12],[2,-11],[-1,-8],[-6,-5],[-10,-3],[-2,5],[0,3],[0,4],[2,4],[1,-3],[0,-1],[1,0],[3,-1],[2,10],[10,17],[3,10],[-16,-12],[-4,-5],[-3,10],[8,25],[0,13],[16,-8]],[[885,4096],[1,-2],[-3,-12],[7,-45],[10,-16],[23,-2],[-14,-12],[-13,3],[-11,9],[-9,5],[-7,2],[-8,4],[-8,7],[-5,8],[1,10],[11,18],[3,9],[-6,14],[-12,-7],[-17,-20],[-3,-6],[-7,-2],[-8,2],[-7,3],[-3,8],[1,7],[0,7],[-8,5],[2,3],[90,0]],[[264,2648],[69,-27],[29,-18],[-8,-18],[-12,5],[-62,8],[-28,11],[-36,8],[-12,6],[-8,-2],[-9,-3],[-7,-1],[-16,3],[-18,6],[-16,8],[-10,10],[3,0],[2,1],[4,3],[34,12],[37,5],[21,1],[14,-2],[12,-6],[17,-10]],[[0,2309],[0,227],[7,1],[11,-1],[19,-7],[10,-2],[9,0],[5,1],[14,4],[11,1],[11,-1],[10,-3],[8,-8],[5,12],[14,8],[16,1],[15,-5],[19,8],[23,6],[24,3],[23,-1],[74,-17],[19,-12],[15,-7],[43,-13],[3,-4],[15,-19],[19,-13],[21,-7],[11,7],[13,-7],[22,-8],[21,-6],[9,3],[4,-12],[36,-33],[0,-5],[-4,2],[-11,3],[9,-23],[3,-3],[13,-3],[3,1],[-3,7],[9,11],[-2,0],[-5,0],[-2,0],[0,1],[2,3],[1,3],[2,-2],[0,5],[-2,2],[-3,8],[5,0],[10,-5],[15,-2],[13,4],[6,12],[8,7],[14,1],[10,-8],[-6,-19],[12,-7],[12,-2],[29,5],[2,0],[4,-1],[5,-3],[11,-11],[7,-2],[25,0],[6,-2],[3,-3],[2,-4],[7,-3],[10,-8],[7,-1],[5,2],[4,6],[5,6],[8,2],[14,11],[21,0],[35,-11],[20,-3],[5,-4],[-5,-9],[-6,-4],[-8,-2],[-21,1],[8,-15],[12,-1],[14,4],[11,1],[13,-11],[8,-5],[4,3],[4,10],[-2,6],[-16,4],[-5,5],[-3,7],[2,7],[5,5],[8,0],[19,-5],[31,0],[14,-4],[13,-6],[-3,15],[-13,30],[1,7],[0,6],[-20,1],[-2,8],[8,13],[11,12],[4,3],[3,0],[8,0],[5,2],[8,10],[5,4],[8,3],[7,2],[6,3],[9,8],[-5,9],[-1,9],[4,6],[9,3],[6,-1],[8,-4],[6,-1],[2,1],[5,8],[3,1],[75,6],[19,-3],[19,-6],[69,-37],[21,-4],[19,8],[15,-11],[10,-5],[32,-1],[9,3],[2,6],[0,7],[4,8],[9,4],[6,-7],[8,-21],[6,4],[4,3],[3,5],[2,5],[-6,2],[-2,1],[0,2],[-2,5],[11,-4],[10,0],[10,3],[11,1],[8,6],[13,25],[9,6],[11,3],[24,12],[13,1],[11,-3],[12,-6],[6,-10],[-4,-12],[14,-6],[5,0],[-3,12],[-2,4],[35,-6],[11,1],[21,5],[9,0],[8,-6],[32,-38],[3,-8],[-4,-7],[28,0],[10,-5],[28,-24],[26,-13],[28,-10],[33,-5],[44,0],[4,2],[3,5],[9,6],[10,5],[7,3],[29,-9],[44,-47],[27,-29],[12,-8],[13,-7],[15,-4],[33,-4],[27,-10],[49,-9],[11,0],[7,3],[7,5],[26,29],[14,6],[40,-1],[20,2],[9,-1],[11,-6],[25,-27],[8,-18],[-1,-19],[-12,-43],[15,-6],[5,-13],[0,-36],[2,-15],[5,-12],[48,-73],[22,-21],[3,-3],[25,-10],[14,2],[29,11],[14,2],[33,2],[15,3],[14,6],[22,14],[8,2],[8,-1],[15,-8],[10,-2],[17,5],[8,1],[4,-1],[4,-1],[3,-2],[1,-4],[3,-4],[5,1],[8,5],[42,-17],[12,-9],[9,17],[13,12],[33,18],[21,7],[5,-9],[-5,-18],[-11,-22],[15,-6],[16,0],[16,5],[13,6],[4,-16],[-9,-14],[-13,-12],[-7,-13],[-3,-14],[-8,-13],[-13,-9],[-16,-4],[-57,11],[-63,-5],[-14,4],[-27,14],[-93,11],[-11,-3],[-4,-10],[-2,-37],[-6,-31],[3,-12],[7,-5],[9,-6],[40,6],[14,-5],[17,5],[34,-13],[18,2],[-4,4],[-6,3],[-7,3],[-8,1],[0,5],[39,2],[11,-2],[13,-9],[10,-24],[12,-9],[13,-4],[25,-3],[68,-18],[28,-8],[11,1],[14,8],[-5,5],[-9,6],[0,7],[13,4],[12,-10],[15,-25],[10,-6],[11,-4],[9,-4],[5,-8],[9,7],[18,9],[8,6],[-6,6],[3,1],[7,1],[6,2],[7,8],[3,3],[3,0],[26,-1],[15,-3],[14,-5],[12,-7],[1,-2],[0,-3],[1,-3],[3,-3],[15,-5],[1,0],[26,-5],[16,-1],[7,-2],[1,-1],[6,-4],[7,-4],[13,-1],[7,-3],[85,-79],[31,-38],[44,-34],[31,-22],[9,-4],[5,-3],[33,-32],[42,-26],[20,-31],[-4,-30],[-69,-105],[-5,-4],[-4,-5],[-3,-8],[2,-26],[-2,-8],[-8,-13],[-12,-6],[-15,-2],[-17,0],[-14,4],[-28,20],[-11,3],[-12,-8],[2,-13],[4,-15],[-6,-15],[-9,-12],[-6,-14],[-11,-45],[-4,-8],[-9,-3],[-61,-5],[-13,5],[-1,28],[-18,38],[-24,36],[-22,25],[-23,16],[-30,13],[-30,4],[-35,-14],[-53,-3],[-14,3],[-32,11],[-15,2],[-12,4],[-21,18],[-16,4],[-14,-3],[-15,-5],[-14,-1],[-15,9],[-15,-14],[-95,-7],[-28,-11],[-15,0],[-40,28],[-16,8],[-10,2],[-5,-8],[0,-8],[2,-9],[-2,-7],[-7,-2],[-10,0],[-9,2],[-5,2],[-12,21],[-6,6],[-5,2],[-112,12],[-21,-1],[-3,0],[-11,-3],[-23,-12],[-19,-12],[-7,-4],[-20,-6],[-7,-4],[-10,-5],[-16,-14],[-12,-20],[-5,-23],[-4,-6],[-16,-9],[-4,-6],[-3,-8],[-25,-24],[-18,-20],[-10,-9],[-4,2],[-18,0],[-13,-2],[-9,-6],[-13,8],[-14,3],[-93,0],[-16,-5],[-30,-17],[-17,-4],[-50,0],[-12,5],[-1,7],[6,5],[6,4],[4,5],[-2,8],[-5,5],[-5,3],[-6,7],[-14,10],[-3,7],[2,7],[4,4],[5,3],[4,5],[3,15],[1,17],[-2,14],[-4,9],[-16,21],[-10,6],[-17,7],[-14,3],[-18,2],[-16,-4],[-7,-14],[3,-16],[-2,-6],[-22,-22],[-5,-4],[-8,-2],[-9,0],[-15,5],[-7,1],[-5,-3],[-10,-7],[-7,-1],[-9,1],[-4,-2],[-7,-7],[-2,-3],[-5,-10],[0,-3],[-2,-3],[-10,-3],[-4,-2],[-19,-23],[-10,-7],[-18,-2],[-7,3],[-4,6],[-4,8],[-5,7],[-7,6],[-8,3],[-32,7],[-14,0],[-12,-4],[-4,-12],[-2,-7],[-6,-11],[-2,-9],[2,-9],[3,-6],[5,-5],[5,-8],[12,-42],[4,-8],[0,-9],[-14,-21],[-12,-31],[-69,-102],[-6,-18],[-3,-6],[-7,-5],[-15,-7],[-9,-8],[-6,-8],[-5,-9],[-5,-13],[-5,2],[-2,1],[-3,3],[-1,-6],[-1,-2],[-3,-2],[5,0],[-3,-7],[-4,-5],[-4,-3],[-6,-1],[-3,-3],[-5,-15],[-2,-6],[-9,-13],[-25,-73],[-7,-14],[-30,-42],[-8,3],[-6,6],[0,3],[-7,7],[-51,83],[-12,14],[-24,9],[-58,-8],[-25,6],[7,6],[23,24],[5,10],[-1,17],[-3,12],[-11,22],[-8,12],[-2,4],[0,9],[5,30],[-6,13],[-13,15],[-26,22],[-41,16],[-12,8],[-51,67],[-22,20],[-25,16],[-58,20],[-23,13],[-24,9],[-28,0],[-59,-10],[-75,1],[-106,-2],[-58,-10],[-14,8],[-9,3],[-4,-3],[5,-30],[-7,-7],[-8,0],[-20,7],[-11,2],[-86,-8],[-18,2],[2,-4],[2,-9],[1,-3],[-10,1],[-5,1],[-5,4],[-20,-14],[-40,4],[-20,-7],[-19,11],[-26,10],[-27,8],[-77,8],[-19,-1],[-6,1],[0,214],[9,-5],[11,-4],[12,-1],[18,3],[52,10],[63,-16],[-4,-12],[14,2],[19,7],[13,0],[11,-4],[51,-9],[28,6],[20,17],[15,24],[12,27],[18,22],[23,6],[121,-11],[5,1],[2,4],[1,4],[2,1],[5,-1],[2,-2],[1,-2],[3,-1],[15,-17],[7,-4],[13,4],[5,13],[2,18],[-1,47],[1,8],[5,11],[6,6],[2,6],[-3,9],[-7,5],[-33,16],[-9,2],[-18,0],[-8,3],[-15,13],[-13,16],[-14,11],[-18,-2],[-25,15],[-6,7],[-6,15],[-38,58],[-10,11],[-15,12],[-15,9],[-12,4],[-14,7],[-76,83],[-4,20],[31,13],[28,2],[15,5],[7,11],[-4,15],[-11,7],[-13,5],[-12,7],[-8,10],[-17,31],[-5,12],[5,4],[1,1],[-1,2],[1,4],[7,7],[8,18],[5,7],[7,4],[12,2],[12,0],[8,-1],[-10,21],[-8,4],[-14,1],[-9,7],[-3,15],[1,16],[4,10],[4,-5],[6,-4],[7,-3],[7,2],[8,5],[1,6],[-3,6],[-1,18],[-2,4],[2,-1],[10,-2],[4,-2],[5,-5],[7,-3],[9,0],[-14,28],[-7,4],[-38,2],[-9,7],[-7,10],[-9,12],[-14,10],[-46,21],[-39,24],[-14,4],[-12,5],[-26,22],[-4,1],[-8,-3],[-45,17],[-7,1],[-15,3],[-7,1],[-1,0],[-2,-1]],[[3138,1310],[164,19],[21,-198],[-92,3],[-71,17],[-22,159]],[[3160,1187],[66,-45],[92,2],[-28,35],[-117,27],[-13,-19]],[[2428,1963],[54,54],[57,-12],[8,-116],[-70,11],[16,32],[-65,31]],[[913,2493],[0,17],[196,33],[-6,-44],[-34,-14],[-18,-136],[-37,8],[-34,84],[-67,52]],[[2245,1915],[182,-1],[124,-30],[142,20],[26,-10],[-3,-102],[-34,-56],[-102,3],[-189,125],[-78,-20],[0,27],[-66,19],[-2,25]],[[1223,2020],[25,22],[2,-1],[-22,42],[34,42],[90,-20],[36,23],[152,-119],[46,-82],[68,15],[33,-23],[-48,-24],[-12,-34],[2,0],[64,-25],[-6,-32],[-39,4],[-36,-59],[-73,-39],[-66,20],[-43,-22],[-49,35],[-25,80],[-81,104],[11,32],[-63,61]],[[997,1060],[31,14],[49,-47],[104,-40],[12,-69],[69,-36],[78,56],[-77,-189],[-117,-107],[-83,-7],[71,143],[-20,42],[-86,46],[41,66],[-72,128]],[[2245,1915],[182,-1],[124,-30],[142,20],[26,-10],[-3,-102],[-34,-56],[-102,3],[-189,125],[-78,-20],[0,27],[-66,19],[-2,25]],[[2805,1417],[3,-23],[-44,-2],[17,33],[24,-8]],[[2409,1462],[1,-48],[-169,-45],[24,31],[-32,69],[73,-9],[42,29],[61,-27]],[[1765,2158],[-32,24],[-10,24],[73,-8],[-31,-40]],[[570,1512],[22,-7],[12,-38],[-39,2],[5,43]],[[966,1358],[3,34],[244,-54],[83,-43],[35,-48],[-44,-24],[-211,20],[-45,46],[13,25],[-78,44]],[[1671,1718],[38,31],[106,-45],[-75,-57],[-63,38],[-6,33]],[[36,3760],[57,40],[61,-44],[-101,-60],[-17,64]],[[3141,1309],[143,16],[-20,-103],[-80,9],[-43,78]]]}