{"objects":{"water":{"type":"GeometryCollection","geometries":[{"type":"Polygon","properties":{"source":"naturalearthdata.com","kind":"ocean","area":1576712559132672,"sort_rank":200,"min_zoom":0.0,"id":1},"arcs":[[47]]},{"type":"LineString","properties":{"source":"naturalearthdata.com","kind":"ocean","sort_rank":205,"boundary":true,"min_zoom":0.0,"id":74},"arcs":[48]}]},"buildings":{"type":"GeometryCollection","geometries":[]},"places":{"type":"GeometryCollection","geometries":[{"type":"Point","properties":{"name:wa":"Tchili","old_name:vi":"Ch\u00ed L\u1ee3i","name:ps":"\u0686\u06d0\u0644\u064a","name:ka":"\u10e9\u10d8\u10da\u10d4","name:mt":"\u010aili","name:tr":"\u015eili","name:cv":"\u0427\u0438\u043b\u0438","name:km":"\u179f\u17ca\u17b8\u179b\u17b8","name:kk":"\u0427\u0438\u043b\u0438","name:tt":"\u0427\u0438\u043b\u0438","name:co":"Cile","name:kv":"\u0427\u0438\u043b\u0438","name:ku":"\u015e\u00eele","name:ti":"\u127a\u120a","name:ks":"\u0686\u0650\u0644\u06cc","name:to":"Sili","name:tl":"Tsile","name:pa":"\u0a1a\u0a3f\u0a32\u0a47","name:os":"\u0427\u0438\u043b\u0438","name:or":"\u0b1a\u0b3f\u0b32\u0b4d\u0b32\u0b40","name:ce":"\u0427\u0438\u043b\u0438","name:ta":"\u0b9a\u0bbf\u0bb2\u0bbf","name:tg":"\u0427\u0438\u043b\u0438","name:ca":"Xile","name:te":"\u0c1a\u0c3f\u0c32\u0c3f","name:hr":"\u010cile","name:ln":"S\u00edli","name:sr":"\u0427\u0438\u043b\u0435","name:dz":"\u0f45\u0f72\u0f0b\u0f63\u0f72","source":"openstreetmap.org","name:rw":"Shili","name:nv":"Ch\u00edilii","name:kn":"\u0c9a\u0cbf\u0cb2\u0cbf","name:dv":"\u0797\u07a8\u078d\u07a9","name:lv":"\u010c\u012ble","name:lt":"\u010cil\u0117","name:uz":"Chili","name:he":"\u05e6'\u05d9\u05dc\u05d4","min_zoom":2.0,"kind":"country","name:ur":"\u0686\u0644\u06cc","name:la":"Chilia","name:lg":"Cile","name:uk":"\u0427\u0456\u043b\u0456","name:hy":"\u0549\u056b\u056c\u056b","name:ug":"\u0686\u0649\u0644\u0649","name:li":"Chili","name:qu":"Chili","name:lo":"\u0e8a\u0eb4\u0eaa\u0eb4","population":16634603,"name:el":"\u03a7\u03b9\u03bb\u03ae","name:eo":"\u0108ilio","name":"Chile","official_name":"Rep\u00fablica de Chile","name:tk":"\u00c7ili","name:ee":"Tsile nutome","name:th":"\u0e1b\u0e23\u0e30\u0e40\u0e17\u0e28\u0e0a\u0e34\u0e25\u0e35","name:eu":"Txile","name:et":"T\u0161iili","name:nl":"Chili","name:yo":"Or\u00edl\u1eb9\u0301\u00e8de \u1e63\u00edl\u00e8","name:ay":"Chili","name:yi":"\u05d8\u05e9\u05d9\u05dc\u05e2","name:rn":"Shili","name:az":"\u00c7ile","name:id":"Chili","name:ms":"Cile","name:mr":"\u091a\u093f\u0932\u0940","name:ar":"\u0634\u064a\u0644\u064a","name:my":"\u1001\u103b\u102e\u101c\u102e","name:io":"Chili","name:ak":"Kyili","name:am":"\u127a\u120a","name:it":"Cile","name:ml":"\u0d1a\u0d3f\u0d32\u0d3f","name:ru":"\u0427\u0438\u043b\u0438","name:ab":"\u0427\u0438\u043b\u0438","name:mi":"Hiri","id":424311104,"name:mk":"\u0427\u0438\u043b\u0435","name:af":"Chili","name:zu":"i-Chile","name:ha":"Cayile","name:mn":"\u0427\u0438\u043b\u0438","name:ff":"Cilii","name:hi":"\u091a\u093f\u0932\u0940","name:mg":"Shili","name:fo":"Kili","alt_name:vi":"Chi-l\u00ea","name:fr":"Chili","name:wo":"Sili","name:ky":"\u0427\u0438\u043b\u0438","name:zh-yue":"\u667a\u5229","name:fy":"Sily","name:vo":"Cil\u00e4n","name:zh":"\u667a\u5229","name:so":"Jili","name:sl":"\u010cile","name:sk":"\u010cile","name:ja":"\u30c1\u30ea","name:si":"\u0da0\u0dd2\u0dbd\u0dd3","name:sh":"\u010cile","name:sg":"Shil\u00efi","name:na":"Tsire","name:se":"\u010ciile","name:sc":"Cile","name:ne":"\u091a\u093f\u0932\u0940","name:sa":"\u091a\u093f\u0932\u0947","name:bs":"\u010cile","name:bm":"Sili","name:bn":"\u099a\u09bf\u09b2\u09bf","name:bo":"\u0f45\u0f72\u0f0b\u0f63\u0f72\u0f0d","name:be":"\u0427\u044b\u043b\u0456","name:su":"Chili","name:bg":"\u0427\u0438\u043b\u0438","name:ss":"IShile","name:ba":"\u0427\u0438\u043b\u0438","name:sq":"Kili","name:ko":"\uce60\ub808","name:ga":"An tSile","name:gd":"An t-Sile","name:ht":"Chili","name:jv":"Chili","name:fa":"\u0634\u06cc\u0644\u06cc","name:gv":"Yn \u00c7hillee","name:gu":"\u0a9a\u0abf\u0ab2\u0ac0"},"coordinates":[1315,160]},{"type":"Point","properties":{"kind":"region","name:en":"Coquimbo Region","name":"Regi\u00f3n de Coquimbo","kind_detail":"state","name:pt":"Regi\u00e3o de Coquimbo","name:la":"Regio Cucimpensis seu Cucimpi","source":"openstreetmap.org","name:fr":"Coquimbo","name:eo":"Kokimbio","name:ru":"\u041a\u043e\u043a\u0438\u043c\u0431\u043e","min_zoom":4.0,"id":647623220,"population":687659},"coordinates":[1620,1002]},{"type":"Point","properties":{"name:ro":"Regiunea Atacama","name:ja":"\u30a2\u30bf\u30ab\u30de\u5dde","name:eo":"Atakamo","min_zoom":4.0,"name:it":"Regione di Atacama","name:uk":"III \u0420\u0435\u0433\u0456\u043e\u043d \u0410\u0442\u0430\u043a\u0430\u043c\u0430","name:ru":"\u0410\u0442\u0430\u043a\u0430\u043c\u0430","id":647624375,"population":272402,"kind":"region","name:en":"Atacama Region","name":"Regi\u00f3n de Atacama","kind_detail":"state","source":"openstreetmap.org","name:fr":"Atacama","name:zh":"\u963f\u5854\u5361\u9a6c\u5927\u533a"},"coordinates":[2264,3679]},{"type":"Point","properties":{"kind":"region","name":"San Juan","kind_detail":"state","name:eo":"Sankta-Johana Provinco","source":"openstreetmap.org","min_zoom":4.0,"name:ru":"\u0421\u0430\u043d-\u0425\u0443\u0430\u043d","id":618300944},"coordinates":[2859,1044]},{"type":"Point","properties":{"source":"naturalearthdata.com","kind":"locality","name":"San Juan","population":447048,"region_capital":true,"min_zoom":5.0,"id":6690},"coordinates":[3353,337]},{"type":"Point","properties":{"source":"naturalearthdata.com","kind":"locality","name":"La Serena","population":154521,"region_capital":true,"min_zoom":5.0,"id":6588},"coordinates":[1365,1718]},{"type":"Point","properties":{"source":"naturalearthdata.com","kind":"locality","name":"Copiapo","population":129280,"region_capital":true,"min_zoom":5.0,"id":6587},"coordinates":[2028,3844]},{"type":"Point","properties":{"source":"naturalearthdata.com","kind":"locality","name":"Ovalle","population":77138,"min_zoom":6.0,"id":5926},"coordinates":[1402,1140]},{"type":"Point","properties":{"source":"naturalearthdata.com","kind":"locality","name":"Vallenar","population":44895,"min_zoom":6.0,"id":5924},"coordinates":[1722,2831]},{"type":"Point","properties":{"source":"naturalearthdata.com","kind":"locality","name":"Chanaral","population":13543,"min_zoom":6.0,"id":5925},"coordinates":[1234,2446]}]},"transit":{"type":"GeometryCollection","geometries":[]},"pois":{"type":"GeometryCollection","geometries":[{"type":"Point","properties":{"kind":"nature_reserve","name":"Reserva de la Biosfera Bosque Fray Jorge","area":1802030000,"source":"openstreetmap.org","min_zoom":6.88,"tier":2,"id":-6958709,"osm_relation":true},"coordinates":[1109,1046]},{"type":"Point","properties":{"source":"openstreetmap.org","kind":"nature_reserve","name":"Parque Nacional San Guillermo","area":1917590000,"tier":2,"min_zoom":6.84,"id":368823207},"coordinates":[2802,2243]},{"type":"Point","properties":{"source":"openstreetmap.org","kind":"nature_reserve","name":"Parque Nacional Talampaya","area":2895380000,"tier":2,"min_zoom":6.54,"id":379767268},"coordinates":[3840,1706]},{"type":"Point","properties":{"source":"openstreetmap.org","kind":"nature_reserve","name":"Reserva de Bi\u00f3sfera y Reserva Provincial San Guillermo","area":12968900000,"tier":2,"min_zoom":5.46,"id":431048773},"coordinates":[2655,2355]}]},"boundaries":{"type":"GeometryCollection","geometries":[{"type":"MultiLineString","properties":{"source":"naturalearthdata.com","kind":"country","sort_rank":262,"kind_detail":"2","min_zoom":0.0,"id":317},"arcs":[[0],[1],[2],[3],[4],[5],[6],[7],[8],[9],[10],[11],[12],[13],[14]]},{"type":"LineString","properties":{"source":"naturalearthdata.com","kind":"region","sort_rank":256,"kind_detail":"4","min_zoom":3.0,"id":483},"arcs":[15]},{"type":"MultiLineString","properties":{"source":"naturalearthdata.com","kind":"region","sort_rank":256,"kind_detail":"4","min_zoom":3.0,"id":5060},"arcs":[[16],[17],[18],[19],[20],[21],[22],[23],[24],[25],[26],[27],[28]]},{"type":"MultiLineString","properties":{"source":"naturalearthdata.com","kind":"region","sort_rank":256,"kind_detail":"4","min_zoom":3.0,"id":5077},"arcs":[[29],[30],[31],[32],[33],[34],[35],[36],[37],[38],[39]]},{"type":"MultiLineString","properties":{"source":"naturalearthdata.com","kind":"region","sort_rank":256,"kind_detail":"4","min_zoom":3.0,"id":7885},"arcs":[[40],[41],[42],[43],[44],[45],[46]]}]},"roads":{"type":"GeometryCollection","geometries":[{"type":"LineString","properties":{"source":"naturalearthdata.com","kind":"minor_road","sort_rank":355,"kind_detail":"tertiary","min_zoom":6.0,"id":46588},"arcs":[49]},{"type":"LineString","properties":{"source":"naturalearthdata.com","kind":"minor_road","kind_detail":"tertiary","sort_rank":355,"landuse_kind":"urban_area","min_zoom":6.0,"id":46606},"arcs":[50]},{"type":"LineString","properties":{"source":"naturalearthdata.com","kind":"minor_road","sort_rank":355,"kind_detail":"tertiary","min_zoom":6.0,"id":46606},"arcs":[51]},{"type":"LineString","properties":{"source":"naturalearthdata.com","kind":"major_road","sort_rank":379,"kind_detail":"secondary","min_zoom":3.0,"id":46607},"arcs":[52]},{"type":"LineString","properties":{"source":"naturalearthdata.com","kind":"major_road","kind_detail":"secondary","sort_rank":379,"landuse_kind":"urban_area","min_zoom":3.0,"id":46612},"arcs":[53]},{"type":"LineString","properties":{"source":"naturalearthdata.com","kind":"major_road","sort_rank":379,"kind_detail":"secondary","min_zoom":3.0,"id":46612},"arcs":[54]},{"type":"LineString","properties":{"source":"naturalearthdata.com","kind":"highway","kind_detail":"motorway","sort_rank":383,"landuse_kind":"nature_reserve","min_zoom":3.0,"id":46783},"arcs":[55]},{"type":"MultiLineString","properties":{"source":"naturalearthdata.com","kind":"highway","sort_rank":383,"kind_detail":"motorway","min_zoom":3.0,"id":46783},"arcs":[[56],[57]]},{"type":"LineString","properties":{"source":"naturalearthdata.com","kind":"major_road","kind_detail":"secondary","sort_rank":379,"landuse_kind":"urban_area","min_zoom":3.0,"id":46812},"arcs":[58]},{"type":"MultiLineString","properties":{"source":"naturalearthdata.com","kind":"major_road","sort_rank":379,"kind_detail":"secondary","min_zoom":3.0,"id":46812},"arcs":[[59],[60]]},{"type":"LineString","properties":{"source":"naturalearthdata.com","kind":"major_road","sort_rank":379,"kind_detail":"secondary","min_zoom":3.0,"id":46946},"arcs":[61]},{"type":"LineString","properties":{"source":"naturalearthdata.com","kind":"major_road","kind_detail":"secondary","sort_rank":379,"landuse_kind":"urban_area","min_zoom":3.0,"id":47026},"arcs":[62]},{"type":"LineString","properties":{"source":"naturalearthdata.com","kind":"major_road","sort_rank":379,"kind_detail":"secondary","min_zoom":3.0,"id":47026},"arcs":[63]},{"type":"LineString","properties":{"source":"naturalearthdata.com","kind":"major_road","kind_detail":"secondary","sort_rank":379,"landuse_kind":"urban_area","min_zoom":4.0,"id":47044},"arcs":[64]},{"type":"LineString","properties":{"source":"naturalearthdata.com","kind":"major_road","sort_rank":379,"kind_detail":"secondary","min_zoom":4.0,"id":47044},"arcs":[65]},{"type":"LineString","properties":{"source":"naturalearthdata.com","kind":"major_road","sort_rank":379,"kind_detail":"secondary","min_zoom":4.0,"id":47059},"arcs":[66]},{"type":"LineString","properties":{"source":"naturalearthdata.com","kind":"major_road","sort_rank":379,"kind_detail":"secondary","min_zoom":4.0,"id":47086},"arcs":[67]},{"type":"LineString","properties":{"source":"naturalearthdata.com","kind":"highway","kind_detail":"motorway","sort_rank":383,"landuse_kind":"nature_reserve","min_zoom":3.0,"id":47131},"arcs":[68]},{"type":"LineString","properties":{"source":"naturalearthdata.com","kind":"highway","kind_detail":"motorway","sort_rank":383,"landuse_kind":"urban_area","min_zoom":3.0,"id":47131},"arcs":[69]},{"type":"LineString","properties":{"source":"naturalearthdata.com","kind":"highway","sort_rank":383,"kind_detail":"motorway","min_zoom":3.0,"id":47131},"arcs":[70]},{"type":"LineString","properties":{"source":"naturalearthdata.com","kind":"highway","kind_detail":"motorway","sort_rank":383,"landuse_kind":"nature_reserve","min_zoom":3.0,"id":47229},"arcs":[71]},{"type":"LineString","properties":{"source":"naturalearthdata.com","kind":"highway","sort_rank":383,"kind_detail":"motorway","min_zoom":3.0,"id":47229},"arcs":[72]},{"type":"LineString","properties":{"source":"naturalearthdata.com","kind":"major_road","kind_detail":"secondary","sort_rank":379,"landuse_kind":"urban_area","min_zoom":4.0,"id":47244},"arcs":[73]},{"type":"LineString","properties":{"source":"naturalearthdata.com","kind":"major_road","sort_rank":379,"kind_detail":"secondary","min_zoom":4.0,"id":47244},"arcs":[74]},{"type":"LineString","properties":{"source":"naturalearthdata.com","kind":"highway","sort_rank":383,"kind_detail":"motorway","min_zoom":3.0,"id":47258},"arcs":[75]},{"type":"LineString","properties":{"source":"naturalearthdata.com","kind":"major_road","kind_detail":"secondary","sort_rank":379,"landuse_kind":"urban_area","min_zoom":4.0,"id":47275},"arcs":[76]},{"type":"LineString","properties":{"source":"naturalearthdata.com","kind":"major_road","kind_detail":"secondary","sort_rank":379,"landuse_kind":"urban_area","min_zoom":4.0,"id":47275},"arcs":[77]},{"type":"LineString","properties":{"source":"naturalearthdata.com","kind":"major_road","sort_rank":379,"kind_detail":"secondary","min_zoom":4.0,"id":47275},"arcs":[78]},{"type":"MultiLineString","properties":{"source":"naturalearthdata.com","kind":"major_road","kind_detail":"secondary","sort_rank":379,"landuse_kind":"park","min_zoom":4.0,"id":47280},"arcs":[[79],[80]]},{"type":"LineString","properties":{"source":"naturalearthdata.com","kind":"major_road","kind_detail":"secondary","sort_rank":379,"landuse_kind":"urban_area","min_zoom":4.0,"id":47280},"arcs":[81]},{"type":"MultiLineString","properties":{"source":"naturalearthdata.com","kind":"major_road","sort_rank":379,"kind_detail":"secondary","min_zoom":4.0,"id":47280},"arcs":[[82],[83]]},{"type":"LineString","properties":{"source":"naturalearthdata.com","kind":"highway","sort_rank":383,"kind_detail":"motorway","min_zoom":3.0,"id":47310},"arcs":[84]},{"type":"LineString","properties":{"source":"naturalearthdata.com","kind":"highway","sort_rank":383,"kind_detail":"motorway","min_zoom":3.0,"id":47382},"arcs":[85]},{"type":"LineString","properties":{"source":"naturalearthdata.com","kind":"major_road","kind_detail":"secondary","sort_rank":379,"landuse_kind":"urban_area","min_zoom":4.0,"id":47418},"arcs":[86]},{"type":"LineString","properties":{"source":"naturalearthdata.com","kind":"major_road","sort_rank":379,"kind_detail":"secondary","min_zoom":4.0,"id":47418},"arcs":[87]},{"type":"LineString","properties":{"source":"naturalearthdata.com","kind":"highway","kind_detail":"motorway","sort_rank":383,"landuse_kind":"urban_area","min_zoom":3.0,"id":48498},"arcs":[88]},{"type":"LineString","properties":{"source":"naturalearthdata.com","kind":"highway","sort_rank":383,"kind_detail":"motorway","min_zoom":3.0,"id":48498},"arcs":[89]}]},"earth":{"type":"GeometryCollection","geometries":[{"type":"Polygon","properties":{"sort_rank":10,"source":"naturalearthdata.com","min_zoom":0.0,"kind":"earth","area":480562846973},"arcs":[[90]]}]},"landuse":{"type":"GeometryCollection","geometries":[{"type":"MultiPolygon","properties":{"source":"openstreetmap.org","kind":"nature_reserve","tier":2,"area":96438112792,"sort_rank":23,"min_zoom":4.0,"osm_relation":true},"arcs":[[[91]]]},{"type":"MultiPolygon","properties":{"source":"openstreetmap.org","kind":"nature_reserve","tier":2,"area":15860413467,"sort_rank":23,"min_zoom":4.0},"arcs":[[[92]],[[93]]]},{"type":"MultiPolygon","properties":{"source":"openstreetmap.org","kind":"park","tier":2,"area":3798094559,"sort_rank":24,"min_zoom":6.0,"osm_relation":true},"arcs":[[[94]],[[95]],[[96]],[[97]],[[98]],[[99]],[[100]]]},{"type":"MultiPolygon","properties":{"source":"naturalearthdata.com","kind":"urban_area","name":"","area":1660998329,"sort_rank":11,"min_zoom":4.0},"arcs":[[[101]],[[102]],[[103]],[[104]],[[105]],[[106]],[[107]],[[108]],[[109]],[[110]],[[111]],[[112]],[[113]]]},{"type":"MultiPolygon","properties":{"source":"openstreetmap.org","kind":"nature_reserve","tier":2,"area":1200272547,"sort_rank":23,"min_zoom":6.0},"arcs":[[[114]],[[115]],[[116]]]},{"type":"MultiPolygon","properties":{"source":"openstreetmap.org","kind":"park","tier":2,"area":17252300649,"sort_rank":24,"min_zoom":4.0,"osm_relation":true},"arcs":[[[117]]]},{"type":"MultiPolygon","properties":{"source":"openstreetmap.org","kind":"nature_reserve","tier":2,"area":650328542,"sort_rank":23,"min_zoom":6.0,"osm_relation":true},"arcs":[[[118]]]}]}},"type":"Topology","transform":{"translate":[-73.125,-31.952162238],"scale":[0.001373291,0.001194589]},"arcs":[[[3287,4007],[18,2],[8,11],[4,17],[9,19],[13,14],[16,11],[17,7],[37,2],[16,4],[5,2]],[[3175,4058],[34,-2],[26,-17],[24,-20],[28,-12]],[[2698,3130],[6,9],[16,34],[16,26],[27,65],[14,14],[0,6],[-2,5],[1,7],[7,13],[9,8],[11,6],[44,12],[18,14],[13,23],[28,127],[7,32],[5,10],[7,5],[20,10],[4,7],[-4,12],[-5,10],[-4,11],[0,14],[5,9],[17,16],[7,9],[18,40],[7,23],[2,20],[-3,11],[0,11],[2,11],[5,10],[12,9],[26,14],[12,10],[8,12],[35,84],[3,13],[-2,33],[1,15],[7,19],[30,53],[11,13],[10,6],[26,7]],[[2657,3151],[15,-7],[15,-10],[11,-4]],[[2306,1557],[-11,2],[-5,14],[3,12],[25,38],[10,31],[4,31],[5,112],[-10,73],[-6,11],[-19,16],[-7,17],[0,19],[3,25],[1,25],[-17,80],[-4,9],[-4,10],[-6,7],[-7,44],[-5,12],[-6,11],[-5,11],[-2,15],[3,40],[7,17],[15,9],[8,3],[7,5],[7,6],[4,8],[-1,6],[-9,11],[-1,5],[3,5],[4,2],[4,1],[11,10],[20,13],[7,8],[5,10],[1,6],[2,4],[12,5],[37,7],[16,8],[13,18],[5,18],[1,22],[-4,42],[-3,17],[-1,17],[3,17],[6,16],[7,12],[9,11],[4,7],[1,7],[-1,7],[2,8],[21,38],[2,15],[-2,19],[-11,35],[-4,19],[2,29],[9,27],[14,25],[15,22],[6,4],[6,2],[5,3],[2,9],[2,88],[13,48],[1,2],[33,35],[40,32],[31,42],[7,15],[8,43],[10,9]],[[2254,1302],[26,7],[21,11],[20,17],[19,21],[6,14],[2,16],[2,31],[3,16],[2,8],[3,6],[7,7],[14,6],[7,6],[9,31],[-10,29],[-23,23],[-27,10]],[[2335,1561],[-29,-4]],[[2169,1338],[60,-30],[25,-6]],[[2073,764],[8,3],[0,10],[-9,11],[-21,19],[-12,14],[-8,13],[-2,15],[14,115],[10,29],[4,7],[13,17],[4,10],[0,8],[-2,8],[0,11],[3,17],[4,13],[14,26],[11,29],[13,64],[15,24],[13,8],[11,6],[9,8],[6,17],[-4,18],[-18,30],[0,15],[20,9]],[[2042,769],[31,-5]],[[1967,668],[11,3],[11,11],[9,13],[6,25],[8,16],[16,26],[14,7]],[[1935,722],[14,-7],[6,-17],[3,-19],[9,-11]],[[1989,62],[-25,7],[-26,26],[-8,16],[-7,18],[-3,20],[1,36],[-7,14],[-22,25],[-39,77],[-7,21],[-1,15],[7,37],[3,31],[-1,30],[3,16],[12,26],[3,16],[-4,18],[-5,16],[-2,15],[16,34],[3,14],[0,33],[1,17],[4,13],[41,63],[9,6]],[[2099,0],[-1,8],[-9,14],[-14,16],[-15,13],[-13,8],[-32,4]],[[2015,63],[-26,-1]],[[1193,2294]],[[3432,3297],[-5,1],[-6,2],[-10,7],[-1,2],[-1,1],[-2,7],[-1,4],[0,5],[2,11],[10,42],[1,5],[0,5],[-1,5],[-1,4],[-8,14],[-2,4],[-1,8],[-1,10],[1,10],[1,5],[12,40],[1,11],[0,4],[0,5],[-1,4],[-2,4],[-2,3],[-5,3],[-8,3],[-34,4]],[[3368,3530],[-7,-2],[-8,-3],[-9,-7],[-6,-6],[-6,-6],[-3,-2],[-11,-5],[-6,0]],[[3312,3499],[-7,0],[-11,2],[-6,3],[-16,10],[-5,1],[-6,1]],[[3261,3516],[-8,0],[-18,-5],[-52,-6],[-7,-2],[-14,-8],[-49,-14]],[[3113,3481],[-197,16],[-10,2]],[[3541,3234],[-5,0],[-6,2],[-6,3],[-7,7],[-7,9],[-8,14],[-10,13],[-7,5],[-7,5],[-5,2],[-7,2],[-12,2],[-13,0]],[[3441,3298],[-9,-1]],[[3670,3178],[-5,1],[-7,3],[-9,7],[-8,10],[-2,3],[-8,10],[-6,6],[-3,2],[-8,3],[-31,10],[-19,3]],[[3564,3236],[-23,-2]],[[3860,2988],[-6,10],[-4,8],[-2,14],[-1,4],[-2,3],[-4,7],[-11,12],[-34,50],[-2,4],[-8,29],[-2,33],[-3,12],[0,5],[2,16],[0,5],[-2,5],[-4,3],[-8,2]],[[3769,3210],[-10,-1],[-5,-2],[-12,-6],[-7,-1],[-12,0],[-4,-1],[-11,-4],[-14,-8],[-15,-7],[-9,-2]],[[4096,3017],[-149,7]],[[3947,3024],[-45,-11],[-12,-6],[-19,-17],[-11,-2]],[[2618,2941],[-10,1],[-6,2],[-6,3],[-14,10],[-5,3],[-50,13]],[[2710,2905],[-6,1],[-7,3],[-8,6],[-5,4],[-3,4],[-12,21],[-5,5],[-5,2]],[[2659,2951],[-4,0],[-8,-2],[-7,-3],[-13,-4],[-9,-1]],[[3020,1939],[-26,11],[-3,4],[-3,5],[-2,9],[-1,24],[5,42],[2,10],[2,5],[10,16],[10,14],[3,5],[2,8],[-1,8],[-4,23],[5,50],[3,11],[3,7],[4,2],[4,1],[4,2],[4,3],[4,7],[1,5],[-1,5],[-2,3],[-3,3],[-6,14],[-6,15],[-13,12],[-11,13],[-4,31],[1,38],[4,28],[18,32],[6,8],[8,5],[8,2],[10,5],[7,5],[7,14],[1,8],[0,7],[-3,11],[-2,4],[-4,6],[-5,7],[-8,7],[-18,15],[-7,8],[-5,9],[-12,30],[-8,27],[-9,16],[-11,14],[-49,44],[-8,24],[-6,32],[-9,26],[-10,19],[-10,30],[-21,23],[-106,92],[-7,3],[-6,2]],[[2746,2908],[-36,-3]],[[3311,1929],[-8,0],[-12,2],[-7,2],[-5,2],[-42,28],[-8,3],[-7,1]],[[3222,1967],[-18,-2],[-21,-5],[-38,-16],[-6,-2],[-6,-1],[-12,0]],[[3121,1941],[-8,2],[-21,8],[-7,2],[-6,0]],[[3079,1953],[-42,-13],[-17,-1]],[[4096,1282],[-39,24],[-6,5],[-3,5],[-2,4],[-2,9],[-7,34],[-10,21],[-23,35],[-6,8],[-101,79],[-8,10],[-19,30],[-5,5],[-5,4],[-36,15],[-10,6],[-19,16],[-11,10],[-19,31],[-5,5],[-5,4],[-26,16],[-5,5],[-3,4],[-6,16],[-4,12],[-35,37],[-16,12],[-33,10],[-5,3],[-4,3],[-2,4],[-1,4],[-3,8],[-4,11],[-6,9],[-9,8],[-43,28],[-28,21],[-12,11],[-17,28],[-5,4],[-6,2],[-21,3],[-91,31],[-22,1]],[[3348,1933],[-9,0],[-18,-3],[-10,-1]],[[1772,2413],[14,-1],[49,-17],[12,-8],[11,-14],[16,-50],[59,-249],[11,-30],[9,-18],[14,-19],[47,-33],[8,-9],[8,-12],[13,-32],[13,-15],[20,-13],[61,-13],[17,-8],[21,-13],[19,-8],[17,-5],[62,-1]],[[1493,2148],[16,0],[13,8],[9,13],[11,24],[5,18],[12,70],[3,10],[4,7],[16,10],[26,9],[90,19],[22,9],[11,10],[7,12],[3,13],[1,11],[3,8],[4,7],[11,6],[12,1]],[[1262,2317],[20,-2],[20,-5],[28,-13],[13,-8],[12,-10],[9,-11],[6,-12],[12,-37],[8,-14],[12,-15],[13,-5],[12,0]],[[1193,2294],[1,1],[25,14],[43,8]],[[1457,2192],[5,-2],[5,-4],[3,-7],[1,-6],[3,-7],[6,-8],[13,-10]],[[1427,2185],[22,6],[8,1]],[[2273,1845],[6,1],[8,4],[25,14],[15,6]],[[1657,4096],[0,-2],[-2,-8],[-4,-6],[-5,-5],[-4,-7],[-1,-8],[2,-7],[-2,-6],[-9,-8],[-6,-3],[-6,-1],[-6,2],[-2,11],[-4,8],[-9,0],[-9,-5],[-4,-9],[-1,-7],[-8,-25],[-1,-5],[0,-11],[1,-6],[8,-14],[2,-8],[-7,-24],[5,-16],[7,-16],[4,-14],[-3,-24],[-6,-19],[0,-19],[21,-36],[8,-22],[7,-24],[3,-19],[-2,-8],[-17,-35],[-1,-35],[5,-20],[0,-10],[-7,-4],[-6,-3],[-7,-7],[-5,-9],[-4,-10],[-14,1],[-30,-10],[-6,6],[-3,8],[-5,-2],[-5,-7],[-2,-10],[-1,-20],[-4,-18],[-7,-18],[-15,-30],[-3,-18],[0,-9],[-1,-8],[-4,-6],[-8,-3],[-3,-5],[1,-11],[5,-18],[-5,-9],[-6,-5],[-5,-4],[-4,-5],[-6,-19],[-4,-18],[-7,-87],[-3,-13],[-5,-8],[-7,-8],[-4,-7],[10,-23],[2,-19],[-2,-58],[-7,-32],[-2,-15],[-11,-14],[-5,-8],[4,-4],[4,-2],[3,-6],[5,-15],[-1,-28],[-11,-38],[-16,-35],[-17,-19],[-5,-1],[-7,0],[-7,-1],[-6,-4],[-1,-7],[6,-30],[-6,-16],[-14,-10],[-14,-8],[-6,-9],[3,-9],[6,-7],[7,-6],[4,-7],[1,-10],[-10,-47],[-13,-14],[-28,-26],[-8,-15],[-9,-33],[-8,-16],[-7,-6],[-29,-13],[-11,-3],[-23,-16],[-17,-37],[-8,-43],[6,-31],[9,6],[3,-5],[-1,-8],[-2,-4],[10,-38],[-1,-9],[-7,-12],[-2,-7],[3,-9],[6,-5],[5,-6],[1,-12],[-2,-4],[-6,-8],[-2,-4],[-1,-6],[0,-4],[1,-3],[0,-42],[6,-16],[13,-14],[68,-45],[11,-11],[10,-18],[3,-16],[1,-18],[4,-20],[4,-8],[11,-8],[4,-7],[2,-10],[-2,-10],[-3,-9],[-4,-24],[-10,-27],[-2,-17],[2,-17],[7,-19],[9,-16],[9,-6],[8,-8],[-7,-16],[-19,-28],[3,-8],[1,-13],[-2,-13],[-4,-6],[-7,-6],[0,-14],[8,-50],[4,-10],[5,-8],[14,-14],[6,-9],[2,-12],[0,-24],[-3,-26],[-8,-19],[-16,-8],[-5,1],[-7,8],[-3,2],[-8,-1],[-2,-2],[0,-4],[-3,-4],[-2,-6],[1,-5],[0,-5],[-12,-3],[-3,-3],[-3,-6],[-1,-7],[-6,5],[-6,0],[-4,-3],[-4,-8],[13,-21],[9,-24],[4,-28],[-1,-30],[-3,-27],[-4,-13],[-8,-12],[-12,-9],[-7,3],[-6,9],[-9,9],[-30,-54],[-3,-9],[-10,-1],[-2,-4],[3,-6],[1,-9],[-3,-8],[-9,-6],[-17,-6],[-15,-1],[-18,2],[-16,8],[-9,24],[-5,5],[-5,2],[-2,-3],[-1,-9],[-27,-76],[-7,-89],[-10,-30],[-3,-20],[5,-17],[1,-13],[-10,-41],[-3,-18],[7,-69],[3,-9],[-6,-59],[14,-54],[2,-27],[4,-17],[2,-19],[2,-6],[4,-4],[3,-5],[7,-33],[3,-39],[-1,-39],[-11,-68],[1,-16],[14,-27],[28,-183],[11,-20],[18,-63],[-1,-60],[5,-14],[35,-140],[1,-13],[-6,-13],[-12,-15],[-1,-11],[25,-27],[3,-17],[-3,-4],[-6,-4],[-6,-6],[-4,-8],[-1,-12],[2,-9],[5,-8],[0,-1],[-1169,0],[0,4096],[1657,0]],[[1169,0],[0,1],[-5,8],[-2,9],[1,12],[4,8],[6,6],[6,4],[3,4],[-3,17],[-25,27],[1,11],[12,15],[6,13],[-1,13],[-35,140],[-5,14],[1,60],[-18,63],[-11,20],[-28,183],[-14,27],[-1,16],[11,68],[1,39],[-3,39],[-7,33],[-3,5],[-4,4],[-2,6],[-2,19],[-4,17],[-2,27],[-14,54],[6,59],[-3,9],[-7,69],[3,18],[10,41],[-1,13],[-5,17],[3,20],[10,30],[7,89],[27,76],[1,9],[2,3],[5,-2],[5,-5],[9,-24],[16,-8],[18,-2],[15,1],[17,6],[9,6],[3,8],[-1,9],[-3,6],[2,4],[10,1],[3,9],[30,54],[9,-9],[6,-9],[7,-3],[12,9],[8,12],[4,13],[3,27],[1,30],[-4,28],[-9,24],[-13,21],[4,8],[4,3],[6,0],[6,-5],[1,7],[3,6],[3,3],[12,3],[0,5],[-1,5],[2,6],[3,4],[0,4],[2,2],[8,1],[3,-2],[7,-8],[5,-1],[16,8],[8,19],[3,26],[0,24],[-2,12],[-6,9],[-14,14],[-5,8],[-4,10],[-8,50],[0,14],[7,6],[4,6],[2,13],[-1,13],[-3,8],[19,28],[7,16],[-8,8],[-9,6],[-9,16],[-7,19],[-2,17],[2,17],[10,27],[4,24],[3,9],[2,10],[-2,10],[-4,7],[-11,8],[-4,8],[-4,20],[-1,18],[-3,16],[-10,18],[-11,11],[-68,45],[-13,14],[-6,16],[0,42],[-1,3],[0,4],[1,6],[2,4],[6,8],[2,4],[-1,12],[-5,6],[-6,5],[-3,9],[2,7],[7,12],[1,9],[-10,38],[2,4],[1,8],[-3,5],[-9,-6],[-6,31],[8,43],[17,37],[23,16],[11,3],[29,13],[7,6],[8,16],[9,33],[8,15],[28,26],[13,14],[10,47],[-1,10],[-4,7],[-7,6],[-6,7],[-3,9],[6,9],[14,8],[14,10],[6,16],[-6,30],[1,7],[6,4],[7,1],[7,0],[5,1],[17,19],[16,35],[11,38],[1,28],[-5,15],[-3,6],[-4,2],[-4,4],[5,8],[11,14],[2,15],[7,32],[2,58],[-2,19],[-10,23],[4,7],[7,8],[5,8],[3,13],[7,87],[4,18],[6,19],[4,5],[5,4],[6,5],[5,9],[-5,18],[-1,11],[3,5],[8,3],[4,6],[1,8],[0,9],[3,18],[15,30],[7,18],[4,18],[1,20],[2,10],[5,7],[5,2],[3,-8],[6,-6],[30,10],[14,-1],[4,10],[5,9],[7,7],[6,3],[7,4],[0,10],[-5,20],[1,35],[17,35],[2,8],[-3,19],[-7,24],[-8,22],[-21,36],[0,19],[6,19],[3,24],[-4,14],[-7,16],[-5,16],[7,24],[-2,8],[-8,14],[-1,6],[0,11],[1,5],[8,25],[1,7],[4,9],[9,5],[9,0],[4,-8],[2,-11],[6,-2],[6,1],[6,3],[9,8],[2,6],[-2,7],[1,8],[4,7],[5,5],[4,6],[2,8],[0,2]],[[2288,4096],[2,-71],[-9,-11],[-6,-3],[-48,-42],[-30,-27],[-27,-24],[-33,-18]],[[2083,3865],[-9,-6],[-24,-17],[-12,-14]],[[2137,3900],[-36,-24],[-18,-11]],[[1690,4096],[-19,-9]],[[2038,3828],[-8,-17]],[[2030,3811],[-1,-4]],[[1949,3679],[-10,-31],[-17,-64]],[[1922,3584],[-4,-15],[-3,-42],[0,-27],[-21,-69],[-9,-24],[-33,-114],[-27,-62],[-6,-25],[-12,-13],[-12,-25],[-42,-51],[-9,-28],[-6,-28],[-3,-34],[-12,-73],[-3,-17]],[[2029,3807],[-21,-31],[-21,-28],[-21,-34],[-15,-31],[-2,-4]],[[1706,2846],[2,-21]],[[1720,2937],[-16,-55],[0,-21],[2,-15]],[[1708,2825],[2,-19]],[[1710,2806],[0,-38],[-3,-21],[-12,-27],[-6,-25],[-9,-51],[-6,-25],[-24,-51],[-33,-49],[-15,-58],[-6,-52],[-18,-38],[-6,-7],[-27,-28],[-15,-20],[-9,-21],[-18,-80],[-9,-24],[-15,-20],[-18,0],[-15,3],[-15,0],[-18,-14],[-12,-21],[-12,-31],[-15,-38]],[[1368,1770],[0,-3],[-3,-18],[-21,-31],[-6,-14],[6,-13]],[[1374,2070],[-9,-34],[-9,-45],[-3,-45],[3,-31],[-3,-21],[-12,-24],[-9,-27],[15,-28],[18,-28],[3,-17]],[[1344,1691],[36,10],[12,3],[12,-6],[6,-3]],[[1410,1695],[21,-11],[33,-24],[18,-7],[15,-11],[18,-7],[21,0],[36,4],[18,3],[33,-10],[39,-21],[24,-14],[34,-10],[33,-7],[30,-3],[42,7],[45,10],[6,7],[-3,14],[-18,41],[-3,21]],[[1852,1677],[0,24],[3,10],[21,38],[27,25],[18,6],[27,0],[33,-6],[45,-25],[39,-27],[39,-38],[15,-4],[12,-24],[9,-7],[57,-24],[18,-7],[15,-17],[12,-35],[12,-27],[24,-42],[9,-24],[9,-7],[15,4],[15,17],[48,31],[12,0],[15,-10]],[[2401,1508],[9,0],[9,-18],[0,-17],[-12,-69],[-3,-45],[9,-27],[15,-18],[12,4],[21,20],[21,4],[24,-7],[15,-21],[9,-3],[18,3],[27,14],[24,7],[18,-7],[28,4],[39,13],[27,4],[39,0],[21,3],[9,14],[9,31],[9,21],[6,7],[18,7],[27,-14],[15,3],[36,21],[24,10],[30,0],[42,-6],[57,0],[33,3],[39,7],[12,0],[12,-7],[42,-21]],[[1173,1287],[-6,-14],[-15,-24],[-6,-21],[-3,-31],[3,-55],[-3,-28],[-9,-21],[0,-7],[15,-34]],[[1344,1691],[3,-11],[-3,-24],[-10,-16]],[[1334,1640],[-20,-32],[-6,-14],[-12,-86],[-6,-21],[-12,-21],[-33,-38],[-15,-17],[-12,-24],[-36,-76],[-9,-24]],[[1149,1052],[-9,-21],[-27,-48],[-12,-24],[-21,-62],[0,-28],[3,-14],[21,-52],[6,-20],[-3,-18],[-3,-11]],[[1104,754],[-9,-30],[0,-14],[3,-34],[12,-35],[3,-24],[0,-45],[12,-14],[0,-27],[9,-52],[0,-28],[3,-10]],[[3337,423],[1,-3],[0,-21],[3,-20]],[[3191,1428],[27,-7],[9,-7],[6,-13],[21,-97],[6,-24],[6,-17],[12,-66],[3,-28],[3,-13],[3,-35],[3,-55],[3,-42],[6,-45],[3,-86],[-3,-114],[-6,-59],[-3,-24],[3,-38],[3,-41],[0,-10],[-12,-25],[-3,-27],[6,-14],[27,-38],[6,-31],[12,-28],[5,-21]],[[1137,441],[12,-14],[3,-17],[12,-38],[6,-28],[0,-14]],[[3513,266],[15,-19]],[[3341,379],[18,-14],[24,-17],[32,-20]],[[3415,328],[1,-1],[45,-17],[30,-21],[12,-10],[10,-13]],[[3735,213],[15,0],[63,17],[21,7],[42,14],[29,9]],[[4049,312],[25,11],[22,9]],[[3528,247],[13,-6]],[[3541,241],[8,-4],[27,-3],[27,-7],[45,-7],[33,-4],[48,-3],[6,0]],[[3905,260],[16,5],[18,3],[27,0],[18,4],[39,27],[26,13]],[[1170,330],[-9,-38],[0,-7],[18,-38],[0,-20],[-3,-49],[15,-34],[12,-59],[0,-7]],[[1203,78],[-3,-24],[-15,-34],[-3,-11],[6,-9]],[[3341,379],[9,-56],[-3,-24],[-9,-49]],[[3338,250],[-3,-13],[-3,-48],[3,-28],[0,-38],[3,-24],[12,-28],[9,-10],[48,-61]],[[2029,3875],[0,-16],[9,-31]],[[1671,4087],[-9,-7],[6,-21],[9,-24],[3,-17],[0,-31],[6,-11],[21,-24],[10,-31],[12,-21],[12,-14],[24,-10],[12,0],[48,7],[39,14],[48,14],[24,3],[42,4],[24,-7],[18,-14],[9,-17],[0,-5]],[[1169,0],[0,1],[-5,8],[-2,9],[1,12],[4,8],[6,6],[6,4],[3,4],[-3,17],[-25,27],[1,11],[12,15],[6,13],[-1,13],[-35,140],[-5,14],[1,60],[-18,63],[-11,20],[-28,183],[-14,27],[-1,16],[11,68],[1,39],[-3,39],[-7,33],[-3,5],[-4,4],[-2,6],[-2,19],[-4,17],[-2,27],[-14,54],[6,59],[-3,9],[-7,69],[3,18],[10,41],[-1,13],[-5,17],[3,20],[10,30],[7,89],[27,76],[1,9],[2,3],[5,-2],[5,-5],[9,-24],[16,-8],[18,-2],[15,1],[17,6],[9,6],[3,8],[-1,9],[-3,6],[2,4],[10,1],[3,9],[30,54],[9,-9],[6,-9],[7,-3],[12,9],[8,12],[4,13],[3,27],[1,30],[-4,28],[-9,24],[-13,21],[4,8],[4,3],[6,0],[6,-5],[1,7],[3,6],[3,3],[12,3],[0,5],[-1,5],[2,6],[3,4],[0,4],[2,2],[8,1],[3,-2],[7,-8],[5,-1],[16,8],[8,19],[3,26],[0,24],[-2,12],[-6,9],[-14,14],[-5,8],[-4,10],[-8,50],[0,14],[7,6],[4,6],[2,13],[-1,13],[-3,8],[19,28],[7,16],[-8,8],[-9,6],[-9,16],[-7,19],[-2,17],[2,17],[10,27],[4,24],[3,9],[2,10],[-2,10],[-4,7],[-11,8],[-4,8],[-4,20],[-1,18],[-3,16],[-10,18],[-11,11],[-68,45],[-13,14],[-6,16],[0,42],[-1,3],[0,4],[1,6],[1,2],[1,2],[6,8],[2,4],[-1,12],[-5,6],[-6,5],[-3,9],[2,7],[7,12],[1,9],[-10,38],[2,4],[1,8],[-3,5],[-9,-6],[-6,31],[8,43],[17,37],[23,16],[11,3],[29,13],[7,6],[8,16],[9,33],[8,15],[28,26],[13,14],[10,47],[-1,10],[-4,7],[-7,6],[-6,7],[-3,9],[6,9],[14,8],[14,10],[6,16],[-6,30],[1,7],[6,4],[7,1],[7,0],[5,1],[17,19],[16,35],[11,38],[1,28],[-5,15],[-3,6],[-4,2],[-4,4],[5,8],[11,14],[2,15],[7,32],[2,58],[-2,19],[-10,23],[4,7],[7,8],[5,8],[3,13],[7,87],[4,18],[6,19],[4,5],[5,4],[6,5],[5,9],[-5,18],[-1,11],[3,5],[8,3],[4,6],[1,8],[0,9],[3,18],[15,30],[7,18],[4,18],[1,20],[2,10],[5,7],[5,2],[3,-8],[6,-6],[30,10],[14,-1],[4,10],[5,9],[7,7],[6,3],[7,4],[0,10],[-5,20],[1,35],[17,35],[2,8],[-3,19],[-7,24],[-8,22],[-21,36],[0,19],[6,19],[3,24],[-4,14],[-7,16],[-5,16],[7,24],[-2,8],[-8,14],[-1,6],[0,11],[1,5],[8,25],[1,7],[4,9],[9,5],[9,0],[4,-8],[2,-11],[6,-2],[6,1],[6,3],[9,8],[2,6],[-2,7],[1,8],[4,7],[5,5],[4,6],[2,8],[0,2],[2439,0],[0,-1729],[0,-2367],[-2927,0]],[[1025,1130],[28,213],[42,1],[49,-54],[53,-5],[-14,-174],[-23,-36],[30,-35],[-16,-18],[20,-107],[-48,-102],[19,-27],[-21,-37],[-40,-5],[-2,29],[-39,-10],[16,28],[-46,181],[-8,158]],[[3537,1838],[1,79],[271,-45],[2,94],[171,-43],[-7,-469],[-169,118],[-114,146],[-76,12],[-24,83],[-55,25]],[[2879,2446],[31,-12],[35,-59],[2,-2],[-1,-5],[-1,-81],[-5,-20],[-5,-59],[-61,-168],[-9,-29],[20,-101],[-212,-96],[-321,-80],[-13,67],[28,82],[-48,43],[-19,196],[-41,44],[17,62],[46,37],[-11,48],[56,43],[63,6],[17,195],[52,106],[-27,28],[1,49],[56,120],[-21,54],[35,34],[-12,28],[96,-32],[32,14],[41,-29],[74,35],[82,-155],[-3,-82],[37,-75],[5,-76],[-41,-103],[25,-27]],[[3143,0],[4,44],[82,-6],[-19,-38],[-67,0]],[[2725,0],[4,153],[134,-2],[37,-151],[-175,0]],[[2816,598],[88,287],[26,2],[26,-15],[-11,-149],[-27,-17],[24,-50],[-43,-44],[6,-32],[-89,18]],[[3607,1651],[12,79],[73,-12],[63,-92],[110,-93],[-9,-49],[-74,-25],[-55,23],[-120,169]],[[1424,3169],[57,25],[-23,90],[44,12],[124,-133],[-28,-58],[-137,-28],[-2,67],[-35,25]],[[2802,3813],[26,-20],[97,11],[7,-62],[-100,-4],[-30,75]],[[2843,4096],[230,0],[7,-69],[-262,31],[25,38]],[[3546,262],[-6,-23],[-33,18],[17,28],[22,-23]],[[1428,1178],[41,-10],[-8,-37],[-79,-6],[1,40],[45,13]],[[1413,286],[40,-10],[0,-13],[-34,-11],[-6,34]],[[3340,425],[62,-10],[17,-112],[-114,-74],[-12,26],[27,27],[-71,105],[91,38]],[[1238,1480],[-14,-52],[-43,-8],[42,78],[15,-18]],[[1771,1599],[-19,6],[30,28],[9,-19],[-20,-15]],[[1542,1466],[-18,-36],[-79,-1],[0,28],[97,9]],[[1428,1745],[25,-28],[-41,-19],[-40,-65],[-104,18],[24,41],[39,-2],[9,78],[64,5],[24,-28]],[[4096,2314],[-21,27],[21,25],[0,-52]],[[1730,2853],[45,3],[9,-4],[-32,-47],[-73,34],[51,14]],[[1408,2910],[-27,9],[22,34],[26,-18],[-21,-25]],[[2068,3689],[10,44],[30,2],[-14,-31],[-26,-15]],[[2128,3813],[-12,-22],[-73,0],[-48,74],[69,21],[64,-73]],[[2816,598],[88,287],[26,2],[26,-15],[-11,-149],[-27,-17],[24,-50],[-43,-44],[6,-32],[-89,18]],[[1877,1407],[48,16],[11,-29],[23,9],[31,-38],[50,-11],[84,-86],[-14,-43],[-46,17],[-17,45],[-61,-31],[-38,48],[-26,0],[3,32],[-48,71]],[[3264,1462],[39,178],[49,-6],[-43,-179],[-45,7]],[[3716,1145],[380,-15],[0,-809],[-162,-33],[-128,-123],[-70,13],[-20,967]],[[1755,3742],[143,52],[-17,-41],[19,-4],[-2,-35],[55,-38],[-23,-97],[-94,54],[-81,109]]]}