{"objects":{"water":{"type":"GeometryCollection","geometries":[{"type":"Polygon","properties":{"source":"naturalearthdata.com","kind":"ocean","area":1576712559132672,"sort_rank":200,"min_zoom":0.0,"id":1},"arcs":[[0],[1],[2],[3],[4],[5],[6],[7]]},{"type":"LineString","properties":{"source":"naturalearthdata.com","kind":"ocean","sort_rank":205,"boundary":true,"min_zoom":0.0,"id":2506},"arcs":[8]},{"type":"MultiLineString","properties":{"source":"naturalearthdata.com","kind":"ocean","sort_rank":205,"boundary":true,"min_zoom":0.0,"id":2508},"arcs":[[9],[10]]},{"type":"LineString","properties":{"source":"naturalearthdata.com","kind":"ocean","sort_rank":205,"boundary":true,"min_zoom":0.0,"id":2510},"arcs":[11]},{"type":"LineString","properties":{"source":"naturalearthdata.com","kind":"ocean","sort_rank":205,"boundary":true,"min_zoom":0.0,"id":2511},"arcs":[12]},{"type":"LineString","properties":{"source":"naturalearthdata.com","kind":"ocean","sort_rank":205,"boundary":true,"min_zoom":0.0,"id":2512},"arcs":[13]},{"type":"LineString","properties":{"source":"naturalearthdata.com","kind":"ocean","sort_rank":205,"boundary":true,"min_zoom":0.0,"id":2513},"arcs":[14]},{"type":"MultiLineString","properties":{"source":"naturalearthdata.com","kind":"ocean","sort_rank":205,"boundary":true,"min_zoom":0.0,"id":2514},"arcs":[[15],[16]]}]},"buildings":{"type":"GeometryCollection","geometries":[]},"places":{"type":"GeometryCollection","geometries":[{"type":"Point","properties":{"name:ka":"\u10e1\u10dd\u10da\u10dd\u10db\u10dd\u10dc\u10d8\u10e1 \u10d9\u10e3\u10dc\u10eb\u10e3\u10da\u10d4\u10d1\u10d8","name:ko":"\uc194\ub85c\ubaac \uc81c\ub3c4","name:cv":"\u0421\u043e\u043b\u043e\u043c\u043e\u043d \u0423\u0442\u0440\u0430\u0432\u04d7\u0441\u0435\u043c","name:km":"\u1780\u17c4\u17c7\u200b\u179f\u17ca\u17bc\u17a1\u17bc\u1798\u17c9\u17bb\u1784","name:cs":"\u0160alamounovy ostrovy","name:ki":"Visiwa vya Solomon","name:kw":"Ynysow Salamon","name:ku":"Girav\u00ean Salomon","name:ti":"\u1230\u120e\u121e\u1295 \u12f0\u1234\u1275","name:ks":"\u0633\u0648\u0644\u0627\u0645\u0627\u0646 \u062c\u0654\u0632\u06cc\u0656\u0631\u0655","name:to":"\u02bbOtumotu Solomone","name:tl":"Kapuluang Solomon","name:ce":"\u0421\u043e\u043b\u043e\u043c\u043e\u043d\u0430\u043d \u0433\u04c0\u0430\u0439\u0440\u0435\u0448","name:ta":"\u0b9a\u0bbe\u0bb2\u0bae\u0ba9\u0bcd \u0ba4\u0bc0\u0bb5\u0bc1\u0b95\u0bb3\u0bcd","name:tg":"\u04b6\u0430\u0437\u0438\u0440\u0430\u04b3\u043e\u0438 \u0421\u043e\u043b\u043e\u043c\u043e\u043d","name:ca":"Salom\u00f3","name:te":"\u0c38\u0c4b\u0c32\u0c4b\u0c2e\u0c28\u0c4d \u0c26\u0c40\u0c35\u0c41\u0c32\u0c41","name:cy":"Ynysoedd Solomon","name:hr":"Salomonski Otoci","name:da":"Salomon\u00f8erne","name:de":"Salomonen","name:dz":"\u0f66\u0f7c\u0f0b\u0f63\u0f7c\u0f0b\u0f58\u0f7c\u0f53\u0f0b \u0f42\u0fb3\u0f72\u0f44\u0f0b\u0f5a\u0f7c\u0f58","source":"openstreetmap.org","name:kn":"\u0cb8\u0cca\u0cb2\u0cca\u0cae\u0ca8\u0ccd \u0ca6\u0ccd\u0cb5\u0cc0\u0caa\u0c97\u0cb3\u0cc1","name:dv":"\u0790\u07ae\u078d\u07ae\u0789\u07ae\u0782\u07b0 \u0796\u07a6\u0792\u07a9\u0783\u07a7","name:lv":"Z\u0101lamana salas","name:lt":"Saliamono salos","name:uz":"Solomon Orollari","name:kk":"\u0421\u043e\u043b\u043e\u043c\u043e\u043d \u0410\u0440\u0430\u043b\u0434\u0430\u0440\u044b","name:ur":"\u0633\u0648\u0644\u0648\u0645\u0646 \u0622\u0626\u0644\u06cc\u0646\u0688\u0632","name:lb":"Salomonen","name:la":"Insulae Salomonis","name:lg":"Bizanga by'eSolomooni","name:uk":"\u0421\u043e\u043b\u043e\u043c\u043e\u043d\u043e\u0432\u0456 \u041e\u0441\u0442\u0440\u043e\u0432\u0438","name:ug":"\u0633\u0648\u0644\u0648\u0645\u0648\u0646 \u062a\u0627\u0642\u0649\u0645 \u0626\u0627\u0631\u0627\u0644\u0644\u0649\u0631\u0649","name:li":"Salomonseilen","name:ln":"Bisanga Solom\u0254","name:lo":"\u0eab\u0ea1\u0eb9\u0ec8\u0ec0\u0e81\u0eb2\u0eb0\u0ec2\u0e8a\u0ec2\u0ea5\u0ea1\u0ead\u0e99","name:el":"\u039d\u03ae\u03c3\u03bf\u03b9 \u03a3\u03bf\u03bb\u03bf\u03bc\u03ce\u03bd\u03c4\u03bf\u03c2","name:eo":"Salomonoj","name":"Solomon Islands","name:ee":"Solomon \u0192udomekpowo nutome","name:th":"\u0e2b\u0e21\u0e39\u0e48\u0e40\u0e01\u0e32\u0e30\u0e42\u0e0b\u0e42\u0e25\u0e21\u0e2d\u0e19","name:eu":"Salomon uharteak","name:et":"Saalomoni Saared","name:es":"Islas Salom\u00f3n","name:ia":"Insulas Solomon","name:rm":"Salomonas","name:rn":"Amazinga ya Salumoni","name:az":"Solomon Adalar\u0131","name:id":"Kepulauan Solomon","name:ar":"\u062c\u0632\u0631 \u0633\u0644\u064a\u0645\u0627\u0646","name:io":"Salomon Insuli","name:is":"Sal\u00f3monseyjar","name:am":"\u1230\u120e\u121e\u1295 \u12f0\u1234\u1275","name:it":"Isole Salomone","name:an":"Islas Salom\u00f3n","name:ru":"\u0421\u043e\u043b\u043e\u043c\u043e\u043d\u043e\u0432\u044b \u041e\u0441\u0442\u0440\u043e\u0432\u0430","name:rw":"Ibirwa bya Solomoni","name:af":"Solomon Eilande","name:zu":"i-Solomon Islands","name:zh-yue":"\u6240\u7f85\u9580\u7fa4\u5cf6","name:zh":"\u6240\u7f57\u95e8\u7fa4\u5c9b","name:so":"Jasiiradaha Solomon","name:sn":"Zvitsuwa zvaSolomon","name:sl":"Salomonovi otoki","name:sk":"\u0160alam\u00fanove ostrovy","name:ja":"\u30bd\u30ed\u30e2\u30f3\u8af8\u5cf6","name:si":"\u0dc3\u0ddc\u0dbd\u0db8\u0db1\u0dca \u0daf\u0dd6\u0db4\u0dad\u0dca","name:sh":"Solomonski Otoci","name:sg":"Z\u00fb\u00e2 Salom\u00f6on","name:se":"Salomon-sullot","name:sa":"\u0938\u094b\u0932\u094b\u092e\u0928-\u0926\u094d\u0935\u0940\u092a","name:bs":"Solomonska Ostrva","name:bm":"Salomo Gun","name:bn":"\u09b8\u09b2\u09cb\u09ae\u09a8 \u09a6\u09cd\u09ac\u09c0\u09aa\u09aa\u09c1\u099e\u09cd\u099c","name:bo":"\u0f66\u0f7c\u0f0b\u0f63\u0f7c\u0f0b\u0f58\u0f7c\u0f53\u0f0d \u0f42\u0fb3\u0f72\u0f44\u0f0b\u0f55\u0fb2\u0f53\u0f0b\u0f5a\u0f7c\u0f0b\u0f41\u0f42\u0f0d","name:br":"Inizi Solomon","name:sw":"Visiwa vya Solomon","name:be":"\u0421\u0430\u043b\u0430\u043c\u043e\u043d\u0430\u0432\u044b \u0410\u0441\u0442\u0440\u0430\u0432\u044b","name:su":"Kapuloan Solomon","name:bg":"\u0421\u043e\u043b\u043e\u043c\u043e\u043d\u043e\u0432\u0438 \u043e\u0441\u0442\u0440\u043e\u0432\u0438","name:sr":"\u0421\u043e\u043b\u043e\u043c\u043e\u043d\u0441\u043a\u0430 \u041e\u0441\u0442\u0440\u0432\u0430","name:sq":"Ishujt Solomon","name:jv":"Kapuloan Solomon","name:pt":"Ilhas Salom\u00e3o","name:mt":"G\u017cejjer Solomon","name:oc":"Illas Salamon","min_zoom":2.0,"name:ro":"Insulele Solomon","name:zh-min-nan":"S\u00f3\u0358-l\u00f4-b\u00fbn K\u00fbn-t\u00f3","name:os":"\u0421\u043e\u043b\u043e\u043c\u043e\u043d\u044b \u0441\u0430\u043a\u044a\u0430\u0434\u00e6\u0445\u0442\u00e6","name:or":"\u0b38\u0b4b\u0b32\u0b4b\u0b2e\u0b28\u0b4d \u0b26\u0b4d\u0b2c\u0b40\u0b2a\u0b2a\u0b41\u0b1e\u0b4d\u0b1c","name:pl":"Wyspy Salomona","name:pa":"\u0a38\u0a4b\u0a32\u0a4b\u0a2e\u0a28 \u0a1f\u0a3e\u0a2a\u0a42","name:tr":"Solomon Adalar\u0131","name:hi":"\u0938\u094b\u0932\u094b\u092e\u0928 \u0926\u094d\u0935\u0940\u092a","name:sv":"Solomon\u00f6arna","name:he":"\u05d0\u05d9\u05d9 \u05e9\u05dc\u05de\u05d4","name:ha":"Tsibiran Salaman","name:hy":"\u054d\u0578\u056c\u0578\u0574\u0578\u0576\u0575\u0561\u0576 \u056f\u0572\u0566\u056b\u0576\u0565\u0580","name:ht":"Salomon","name:hu":"Salamon-szigetek","name:qu":"Salumun wat'akuna","population":538000,"kind":"country","name:yo":"Or\u00edl\u1eb9\u0301\u00e8de Etikun Solomoni","alt_name:el":"\u039d\u03b7\u03c3\u03b9\u03ac \u03a3\u03bf\u03bb\u03bf\u03bc\u03ce\u03bd\u03c4\u03bf\u03c2;\u039d\u03b7\u03c3\u03b9\u03ac \u03a3\u03bf\u03bb\u03bf\u03bc\u03ce\u03bd\u03c4\u03b1;\u039d\u03ae\u03c3\u03bf\u03b9 \u03a3\u03bf\u03bb\u03bf\u03bc\u03ce\u03bd\u03c4\u03b1","name:ms":"Kepulauan Solomon","name:mr":"\u0938\u094b\u0932\u094b\u092e\u0928 \u092c\u0947\u091f\u0947","name:my":"\u1006\u1031\u102c\u103a\u101c\u1019\u103d\u1014\u103a\u1000\u103b\u103d\u1014\u103a\u1038\u1005\u102f","name:mg":"Nosy Salomona","name:ml":"\u0d38\u0d4b\u0d33\u0d2e\u0d7b\u200d \u0d26\u0d4d\u0d35\u0d40\u0d2a\u0d41\u0d15\u0d7e","name:vi":"Qu\u1ea7n \u0111\u1ea3o Solomon","id":823750101,"name:mk":"\u0421\u043e\u043b\u043e\u043c\u043e\u043d\u043e\u0432\u0438\u0442\u0435 \u041e\u0441\u0442\u0440\u043e\u0432\u0438","name:vo":"Solomonu\u00e4ns","name:fa":"\u062c\u0632\u0627\u06cc\u0631 \u0633\u0644\u06cc\u0645\u0627\u0646","name:ff":"Duu\u0257e Solomon","name:fi":"Salomonsaaret","name:fo":"S\u00e1lomonoyggjarnar","name:fr":"Salomon","name:fy":"Salomonseilannen","name:nl":"Salomonseilanden","name:nn":"Salomon\u00f8yane","name:no":"Salomon\u00f8yene","name:ne":"\u0938\u094b\u0932\u094b\u092e\u094b\u0928 \u091f\u093e\u092a\u0941","name:wo":"Duni Solomon","name:nv":"S\u00f3lomon T\u00f3 Bin\u00e1haazy\u00edn\u00edg\u00ed\u00ed","name:ga":"Oile\u00e1in Sholaimh","name:gd":"Eileanan Sholaimh","name:gl":"Illas Salom\u00f3n","name:gv":"Ny h-Ellanyn Holomon","name:gu":"\u0ab8\u0acb\u0ab2\u0acb\u0aae\u0aa8 \u0a86\u0a87\u0ab2\u0ac7\u0aa8\u0acd\u0aa1"},"coordinates":[3665,2133]}]},"transit":{"type":"GeometryCollection","geometries":[]},"pois":{"type":"GeometryCollection","geometries":[]},"boundaries":{"type":"GeometryCollection","geometries":[]},"roads":{"type":"GeometryCollection","geometries":[]},"earth":{"type":"GeometryCollection","geometries":[{"type":"MultiPolygon","properties":{"sort_rank":10,"source":"naturalearthdata.com","min_zoom":0.0,"kind":"earth","area":20314198750},"arcs":[[[17]],[[18]],[[19]],[[20]],[[21]],[[22]],[[23]]]},{"type":"Point","properties":{"label_placement":true,"kind":"island","name":"Malaita","area":3874439936,"source":"openstreetmap.org","min_zoom":7.0,"id":-4097323,"osm_relation":true},"coordinates":[931,3285]},{"type":"Point","properties":{"label_placement":true,"kind":"island","name":"Makira","area":3173949952,"source":"openstreetmap.org","min_zoom":7.0,"id":-4097322,"osm_relation":true},"coordinates":[2202,973]}]},"landuse":{"type":"GeometryCollection","geometries":[]}},"type":"Topology","transform":{"translate":[160.3125,-11.1784018737],"scale":[0.0006866455,0.0006765707]},"arcs":[[[4096,4096],[0,-4096],[-4096,0],[0,2016],[11,-1],[23,-8],[12,-8],[43,-17],[7,-7],[10,-19],[3,-5],[7,-1],[17,2],[6,-1],[13,-16],[11,-16],[12,-13],[19,-6],[60,11],[32,-6],[93,-44],[105,-26],[26,21],[31,16],[57,18],[110,23],[38,25],[2,44],[-8,14],[-10,9],[-8,9],[-4,14],[1,32],[-1,16],[-5,7],[-18,8],[-4,18],[1,21],[-3,15],[-12,6],[-49,14],[-30,19],[-15,8],[-19,3],[-23,-7],[-16,0],[-7,12],[-4,62],[-6,30],[-10,25],[-38,42],[-61,46],[-67,29],[-54,-7],[-40,64],[-24,27],[-59,20],[-30,42],[-29,13],[-9,7],[-6,6],[-3,4],[-9,-1],[-15,-8],[-5,-1],[-49,0],[0,379],[18,-7],[29,-17],[31,-10],[11,10],[20,12],[21,40],[18,18],[-11,11],[-14,6],[-17,3],[-22,0],[-16,11],[-39,70],[-25,3],[-4,-8],[0,975],[436,0],[39,-39],[19,-9],[7,-14],[57,-77],[35,-77],[0,-13],[-26,-7],[-43,-38],[-26,-17],[47,-104],[3,-14],[1,-79],[5,-21],[60,-121],[21,-32],[22,-74],[1,-22],[8,-11],[2,-9],[-2,-8],[-8,-11],[19,-35],[26,-73],[106,-196],[32,-34],[82,-37],[34,-30],[3,-11],[-2,-24],[4,-11],[10,-5],[24,2],[11,-2],[20,-15],[40,-46],[-7,-25],[68,-10],[34,-41],[100,-51],[69,-71],[16,-26],[4,-16],[3,-29],[4,-14],[7,-14],[58,-76],[10,-22],[4,-26],[14,-1],[76,-53],[21,-11],[16,5],[9,19],[1,31],[-18,116],[-28,51],[-20,28],[-16,12],[-13,14],[-46,115],[-16,24],[-58,60],[-12,17],[-3,16],[14,8],[13,-7],[8,-14],[9,-10],[19,11],[-17,17],[-9,53],[-9,12],[-8,8],[-6,17],[-1,17],[5,8],[15,1],[39,9],[0,11],[-28,8],[-11,2],[5,19],[-8,14],[-17,4],[-19,-7],[-6,10],[-9,8],[-27,12],[37,29],[5,7],[-4,16],[-8,8],[-10,6],[-9,6],[-10,5],[-10,1],[-7,3],[-3,16],[0,16],[-1,12],[-6,9],[-13,7],[8,23],[-9,24],[-17,18],[-17,7],[-13,8],[5,17],[14,12],[19,-8],[-26,37],[-33,33],[-37,26],[-34,16],[-2,-2],[-6,-4],[-10,-1],[-12,7],[-8,14],[3,9],[6,8],[-1,10],[-12,15],[-40,30],[-13,6],[-35,-16],[-21,-4],[-9,15],[-6,13],[-27,26],[-7,22],[-3,21],[-5,19],[1,19],[23,40],[0,20],[-6,19],[-10,20],[28,14],[33,12],[27,18],[12,31],[-6,27],[-14,28],[-35,46],[-59,50],[-75,81],[-49,76],[-6,5],[-21,13],[-4,7],[0,13],[3348,0]],[[1547,2630],[0,-30],[7,2],[16,5],[6,3],[5,-31],[12,-24],[4,-24],[-24,-43],[0,-18],[3,-33],[0,-86],[0,-91],[9,-31],[21,-36],[25,-34],[24,-26],[15,26],[11,41],[15,5],[16,-8],[10,-16],[13,-36],[60,-67],[6,-30],[14,6],[14,26],[7,33],[-4,33],[-21,49],[-5,25],[2,53],[-3,26],[-10,27],[-19,34],[-11,17],[-14,15],[-12,16],[-11,32],[-7,13],[-18,21],[-37,75],[-44,62],[-6,24],[-10,14],[-50,31],[-20,20],[-12,18],[-7,1],[-10,-8],[31,-52],[9,-29]],[[2425,2205],[-18,-8],[-19,2],[-17,-2],[-15,-22],[-3,-20],[18,-103],[14,-40],[20,-33],[20,-17],[7,25],[0,24],[-18,122],[-9,22],[5,4],[3,5],[2,11],[9,10],[2,8],[-1,12]],[[1466,1445],[-28,-9],[-12,-28],[1,-32],[10,-23],[-7,-4],[-3,-4],[-4,-4],[-7,-7],[7,-17],[-13,-32],[6,-22],[12,-11],[16,-6],[38,-5],[10,-7],[10,-1],[11,2],[8,6],[6,7],[9,5],[32,2],[20,-1],[9,-6],[7,-11],[17,-4],[39,0],[20,-4],[9,-9],[7,-10],[10,-8],[9,0],[22,2],[8,-2],[11,-10],[3,-7],[-8,-3],[-11,-7],[-10,-17],[-15,-37],[24,-8],[1,-22],[-11,-24],[-14,-17],[17,1],[30,6],[9,-2],[7,-15],[-1,-16],[2,-14],[16,-10],[-30,-92],[21,-6],[20,-3],[18,5],[12,15],[12,-10],[8,-10],[3,-10],[-3,-11],[13,-5],[10,-5],[7,-9],[0,-13],[27,-27],[15,-10],[7,13],[9,5],[20,-13],[19,-18],[8,-9],[22,-6],[8,-14],[4,-17],[11,-14],[19,-5],[19,3],[18,-1],[13,-18],[-2,-11],[7,-15],[11,-10],[14,6],[5,-8],[11,-12],[4,-10],[21,8],[17,-5],[32,-24],[2,10],[8,22],[11,-26],[10,-11],[14,-4],[6,-3],[15,-14],[9,-4],[19,5],[8,3],[-2,3],[61,-17],[14,-8],[13,-3],[42,14],[19,3],[13,-5],[23,-20],[64,-25],[11,-9],[9,-9],[11,-8],[14,-4],[40,1],[18,-3],[16,-9],[32,30],[34,4],[104,-40],[20,-4],[25,-1],[15,-2],[11,-7],[20,10],[18,-1],[17,-6],[19,-3],[20,9],[1,18],[-10,12],[-15,-8],[-46,9],[-58,-2],[-47,7],[-9,37],[5,9],[9,9],[11,8],[9,3],[5,7],[0,85],[-6,23],[-15,18],[-52,35],[-19,17],[-12,22],[-8,49],[-7,6],[-10,3],[-11,9],[-6,10],[-30,79],[-12,23],[-16,10],[-17,12],[-39,55],[-29,13],[-14,0],[-13,-3],[-10,-7],[-6,-32],[-8,-3],[-24,5],[-48,-5],[-17,5],[-15,11],[-22,28],[-12,11],[-21,-9],[-25,2],[-54,18],[-21,-14],[-34,-7],[-32,1],[-14,15],[-8,10],[-43,27],[-18,8],[-18,1],[-22,-2],[-23,3],[-22,13],[-29,46],[-19,11],[-27,-11],[-86,71],[-156,98],[-155,69],[-80,-15],[-8,8],[-8,5],[-8,3],[-8,4]],[[2080,1315],[10,-2],[33,17],[-2,39],[-24,41],[-32,26],[-19,-17],[0,-19],[19,-36],[7,-3],[10,-2],[5,-6],[-7,-14],[-6,-10],[1,-8],[5,-6]],[[2412,1402],[-10,17],[-8,-10],[7,-17],[15,-8],[0,-1],[-1,-5],[-5,-2],[-1,-4],[4,-5],[4,2],[2,6],[8,-10],[-3,-23],[9,32],[-21,28]],[[3149,483],[22,23],[-12,27],[-20,16],[-20,-10],[2,-25],[-7,-8],[-2,-3],[3,-19],[18,-5],[16,4]],[[3088,413],[26,-2],[-9,26],[-26,-8],[-4,-7],[13,-9]],[[0,2979],[18,-7],[29,-17],[31,-10],[11,10],[20,12],[21,40],[18,18],[-11,11],[-14,6],[-17,3],[-22,0],[-16,11],[-39,70],[-25,3],[-4,-8]],[[748,1982],[-8,14],[-10,9],[-8,9],[-4,14],[1,32],[-1,16],[-5,7],[-18,8],[-4,18],[1,21],[-3,15],[-12,6],[-49,14],[-30,19],[-15,8],[-19,3],[-23,-7],[-16,0],[-7,12],[-4,62],[-6,30],[-10,25],[-38,42],[-61,46],[-67,29],[-54,-7],[-40,64],[-24,27],[-59,20],[-30,42],[-29,13],[-9,7],[-6,6],[-3,4],[-9,-1],[-15,-8],[-5,-1],[-49,0]],[[0,2016],[11,-1],[23,-8],[12,-8],[43,-17],[7,-7],[10,-19],[3,-5],[7,-1],[17,2],[6,-1],[13,-16],[11,-16],[12,-13],[19,-6],[60,11],[32,-6],[93,-44],[105,-26],[26,21],[31,16],[57,18],[110,23],[38,25],[2,44]],[[2080,1339],[-6,-10],[1,-8],[5,-6],[10,-2],[33,17],[-2,39],[-24,41],[-32,26],[-19,-17],[0,-19],[19,-36],[7,-3],[10,-2],[5,-6],[-7,-14]],[[2425,1962],[7,25],[0,24],[-18,122],[-9,22],[5,4],[3,5],[2,11],[9,10],[2,8],[-1,12],[-18,-8],[-19,2],[-17,-2],[-15,-22],[-3,-20],[18,-103],[14,-40],[20,-33],[20,-17]],[[1576,2610],[5,-31],[12,-24],[4,-24],[-24,-43],[0,-18],[3,-33],[0,-86],[0,-91],[9,-31],[21,-36],[25,-34],[24,-26],[15,26],[11,41],[15,5],[16,-8],[10,-16],[13,-36],[60,-67],[6,-30],[14,6],[14,26],[7,33],[-4,33],[-21,49],[-5,25],[2,53],[-3,26],[-10,27],[-19,34],[-11,17],[-14,15],[-12,16],[-11,32],[-7,13],[-18,21],[-37,75],[-44,62],[-6,24],[-10,14],[-50,31],[-20,20],[-12,18],[-7,1],[-10,-8],[31,-52],[9,-29],[0,-30],[7,2],[16,5],[6,3]],[[3004,524],[-46,9],[-58,-2],[-47,7],[-9,37],[5,9],[9,9],[11,8],[9,3],[5,7],[0,85],[-6,23],[-15,18],[-52,35],[-19,17],[-12,22],[-8,49],[-7,6],[-10,3],[-11,9],[-6,10],[-30,79],[-12,23],[-16,10],[-17,12],[-39,55],[-29,13],[-14,0],[-13,-3],[-10,-7],[-6,-32],[-8,-3],[-24,5],[-48,-5],[-17,5],[-15,11],[-22,28],[-12,11],[-21,-9],[-25,2],[-54,18],[-21,-14],[-34,-7],[-32,1],[-14,15],[-8,10],[-43,27],[-18,8],[-18,1],[-22,-2],[-23,3],[-22,13],[-29,46],[-19,11],[-27,-11],[-86,71],[-156,98],[-155,69],[-80,-15],[-8,8],[-8,5],[-8,3],[-8,4],[-28,-9],[-12,-28],[1,-32],[10,-23],[-7,-4],[-3,-4],[-4,-4],[-7,-7],[7,-17],[-13,-32],[6,-22],[12,-11],[16,-6],[38,-5],[10,-7],[10,-1],[11,2],[8,6],[6,7],[9,5],[32,2],[20,-1],[9,-6],[7,-11],[17,-4],[39,0],[20,-4],[9,-9],[7,-10],[10,-8],[9,0],[22,2],[8,-2],[11,-10],[3,-7],[-8,-3],[-11,-7],[-10,-17],[-15,-37],[24,-8],[1,-22],[-11,-24],[-14,-17],[17,1],[30,6],[9,-2],[7,-15],[-1,-16],[2,-14],[16,-10],[-30,-92],[21,-6],[20,-3],[18,5],[12,15],[12,-10],[8,-10],[3,-10],[-3,-11],[13,-5],[10,-5],[7,-9],[0,-13],[27,-27],[15,-10],[7,13],[9,5],[20,-13],[19,-18],[8,-9],[22,-6],[8,-14],[4,-17],[11,-14],[19,-5],[19,3],[18,-1],[13,-18],[-2,-11],[7,-15],[11,-10],[14,6],[5,-8],[11,-12],[4,-10],[21,8],[17,-5],[32,-24],[2,10],[8,22],[11,-26],[10,-11],[14,-4],[6,-3],[15,-14],[9,-4],[19,5],[8,3],[-2,3],[61,-17],[14,-8],[13,-3],[42,14],[19,3],[13,-5],[23,-20],[64,-25],[11,-9],[9,-9],[11,-8],[14,-4],[40,1],[18,-3],[16,-9],[32,30],[34,4],[104,-40],[20,-4],[25,-1],[15,-2],[11,-7],[20,10],[18,-1],[17,-6],[19,-3],[20,9],[1,18],[-10,12],[-15,-8]],[[1527,2307],[21,-11],[16,5],[9,19],[1,31],[-18,116],[-28,51],[-20,28],[-16,12],[-13,14],[-46,115],[-16,24],[-58,60],[-12,17],[-3,16],[14,8],[13,-7],[8,-14],[9,-10],[19,11],[-17,17],[-9,53],[-9,12],[-8,8],[-6,17],[-1,17],[5,8],[15,1],[39,9],[0,11],[-28,8],[-11,2],[5,19],[-8,14],[-17,4],[-19,-7],[-6,10],[-9,8],[-27,12],[37,29],[5,7],[-4,16],[-8,8],[-10,6],[-9,6],[-10,5],[-10,1],[-7,3],[-3,16],[0,16],[-1,12],[-6,9],[-13,7],[8,23],[-9,24],[-17,18],[-17,7],[-13,8],[5,17],[14,12],[19,-8],[-26,37],[-33,33],[-37,26],[-34,16],[-2,-2],[-6,-4],[-10,-1],[-12,7],[-8,14],[3,9],[6,8],[-1,10],[-12,15],[-40,30],[-13,6],[-35,-16],[-21,-4],[-9,15],[-6,13],[-27,26],[-7,22],[-3,21],[-5,19],[1,19],[23,40],[0,20],[-6,19],[-10,20],[28,14],[33,12],[27,18],[12,31],[-6,27],[-14,28],[-35,46],[-59,50],[-75,81],[-49,76],[-6,5],[-21,13],[-4,7],[0,13]],[[436,4096],[39,-39],[19,-9],[7,-14],[57,-77],[35,-77],[0,-13],[-26,-7],[-43,-38],[-26,-17],[47,-104],[3,-14],[1,-79],[5,-21],[60,-121],[21,-32],[22,-74],[1,-22],[8,-11],[2,-9],[-2,-8],[-8,-11],[19,-35],[26,-73],[106,-196],[32,-34],[82,-37],[34,-30],[3,-11],[-2,-24],[4,-11],[10,-5],[24,2],[11,-2],[20,-15],[40,-46],[-7,-25],[68,-10],[34,-41],[100,-51],[69,-71],[16,-26],[4,-16],[3,-29],[4,-14],[7,-14],[58,-76],[10,-22],[4,-26],[14,-1],[76,-53]],[[1490,1433],[8,-8],[80,15],[155,-69],[156,-98],[86,-71],[27,11],[19,-11],[29,-46],[22,-13],[23,-3],[22,2],[18,-1],[18,-8],[43,-27],[8,-10],[14,-15],[32,-1],[34,7],[21,14],[54,-18],[25,-2],[21,9],[12,-11],[22,-28],[15,-11],[17,-5],[48,5],[24,-5],[8,3],[6,32],[10,7],[13,3],[14,0],[29,-13],[39,-55],[17,-12],[16,-10],[12,-23],[30,-79],[6,-10],[11,-9],[10,-3],[7,-6],[8,-49],[12,-22],[19,-17],[52,-35],[15,-18],[6,-23],[0,-85],[-5,-7],[-9,-3],[-11,-8],[-9,-9],[-5,-9],[9,-37],[47,-7],[58,2],[46,-9],[15,8],[10,-12],[-1,-18],[-20,-9],[-19,3],[-17,6],[-18,1],[-20,-10],[-11,7],[-15,2],[-25,1],[-20,4],[-104,40],[-34,-4],[-32,-30],[-16,9],[-18,3],[-40,-1],[-14,4],[-11,8],[-9,9],[-11,9],[-64,25],[-23,20],[-13,5],[-19,-3],[-42,-14],[-13,3],[-14,8],[-61,17],[2,-3],[-8,-3],[-19,-5],[-9,4],[-15,14],[-6,3],[-14,4],[-10,11],[-11,26],[-8,-22],[-2,-10],[-32,24],[-17,5],[-21,-8],[-4,10],[-11,12],[-5,8],[-14,-6],[-11,10],[-7,15],[2,11],[-13,18],[-18,1],[-19,-3],[-19,5],[-11,14],[-4,17],[-8,14],[-22,6],[-8,9],[-19,18],[-20,13],[-9,-5],[-7,-13],[-15,10],[-27,27],[0,13],[-7,9],[-10,5],[-13,5],[3,11],[-3,10],[-8,10],[-12,10],[-12,-15],[-18,-5],[-20,3],[-21,6],[30,92],[-16,10],[-2,14],[1,16],[-7,15],[-9,2],[-30,-6],[-17,-1],[14,17],[11,24],[-1,22],[-24,8],[15,37],[10,17],[11,7],[8,3],[-3,7],[-11,10],[-8,2],[-22,-2],[-9,0],[-10,8],[-7,10],[-9,9],[-20,4],[-39,0],[-17,4],[-7,11],[-9,6],[-20,1],[-32,-2],[-9,-5],[-6,-7],[-8,-6],[-11,-2],[-10,1],[-10,7],[-38,5],[-16,6],[-12,11],[-6,22],[13,32],[-7,17],[7,7],[4,4],[3,4],[7,4],[-10,23],[-1,32],[12,28],[28,9],[8,-4],[8,-3],[8,-5]],[[2123,1330],[-33,-17],[-10,2],[-5,6],[-1,8],[6,10],[7,14],[-5,6],[-10,2],[-7,3],[-19,36],[0,19],[19,17],[32,-26],[24,-41],[2,-39]],[[2425,2205],[1,-12],[-2,-8],[-9,-10],[-2,-11],[-3,-5],[-5,-4],[9,-22],[18,-122],[0,-24],[-7,-25],[-20,17],[-20,33],[-14,40],[-18,103],[3,20],[15,22],[17,2],[19,-2],[18,8]],[[0,2979],[0,142],[4,8],[25,-3],[39,-70],[16,-11],[22,0],[17,-3],[14,-6],[11,-11],[-18,-18],[-21,-40],[-20,-12],[-11,-10],[-31,10],[-29,17],[-18,7]],[[0,2016],[0,584],[49,0],[5,1],[15,8],[9,1],[3,-4],[6,-6],[9,-7],[29,-13],[30,-42],[59,-20],[24,-27],[40,-64],[54,7],[67,-29],[61,-46],[38,-42],[10,-25],[6,-30],[4,-62],[7,-12],[16,0],[23,7],[19,-3],[15,-8],[30,-19],[49,-14],[12,-6],[3,-15],[-1,-21],[4,-18],[18,-8],[5,-7],[1,-16],[-1,-32],[4,-14],[8,-9],[10,-9],[8,-14],[-2,-44],[-38,-25],[-110,-23],[-57,-18],[-31,-16],[-26,-21],[-105,26],[-93,44],[-32,6],[-60,-11],[-19,6],[-12,13],[-11,16],[-13,16],[-6,1],[-17,-2],[-7,1],[-3,5],[-10,19],[-7,7],[-43,17],[-12,8],[-23,8],[-11,1]],[[1622,2611],[44,-62],[37,-75],[18,-21],[7,-13],[11,-32],[12,-16],[14,-15],[11,-17],[19,-34],[10,-27],[3,-26],[-2,-53],[5,-25],[21,-49],[4,-33],[-7,-33],[-14,-26],[-14,-6],[-6,30],[-60,67],[-13,36],[-10,16],[-16,8],[-15,-5],[-11,-41],[-15,-26],[-24,26],[-25,34],[-21,36],[-9,31],[0,91],[0,86],[-3,33],[0,18],[24,43],[-4,24],[-12,24],[-5,31],[-6,-3],[-16,-5],[-7,-2],[0,30],[-9,29],[-31,52],[10,8],[7,-1],[12,-18],[20,-20],[50,-31],[10,-14],[6,-24]],[[436,4096],[312,0],[0,-13],[4,-7],[21,-13],[6,-5],[49,-76],[75,-81],[59,-50],[35,-46],[14,-28],[6,-27],[-12,-31],[-27,-18],[-33,-12],[-28,-14],[10,-20],[6,-19],[0,-20],[-23,-40],[-1,-19],[5,-19],[3,-21],[7,-22],[27,-26],[6,-13],[9,-15],[21,4],[35,16],[13,-6],[40,-30],[12,-15],[1,-10],[-6,-8],[-3,-9],[8,-14],[12,-7],[10,1],[6,4],[2,2],[34,-16],[37,-26],[33,-33],[26,-37],[-19,8],[-14,-12],[-5,-17],[13,-8],[17,-7],[17,-18],[9,-24],[-8,-23],[13,-7],[6,-9],[1,-12],[0,-16],[3,-16],[7,-3],[10,-1],[10,-5],[9,-6],[10,-6],[8,-8],[4,-16],[-5,-7],[-37,-29],[27,-12],[9,-8],[6,-10],[19,7],[17,-4],[8,-14],[-5,-19],[11,-2],[28,-8],[0,-11],[-39,-9],[-15,-1],[-5,-8],[1,-17],[6,-17],[8,-8],[9,-12],[9,-53],[17,-17],[-19,-11],[-9,10],[-8,14],[-13,7],[-14,-8],[3,-16],[12,-17],[58,-60],[16,-24],[46,-115],[13,-14],[16,-12],[20,-28],[28,-51],[18,-116],[-1,-31],[-9,-19],[-16,-5],[-21,11],[-76,53],[-14,1],[-4,26],[-10,22],[-58,76],[-7,14],[-4,14],[-3,29],[-4,16],[-16,26],[-69,71],[-100,51],[-34,41],[-68,10],[7,25],[-40,46],[-20,15],[-11,2],[-24,-2],[-10,5],[-4,11],[2,24],[-3,11],[-34,30],[-82,37],[-32,34],[-106,196],[-26,73],[-19,35],[8,11],[2,8],[-2,9],[-8,11],[-1,22],[-22,74],[-21,32],[-60,121],[-5,21],[-1,79],[-3,14],[-47,104],[26,17],[43,38],[26,7],[0,13],[-35,77],[-57,77],[-7,14],[-19,9],[-39,39]]]}