{"objects":{"water":{"type":"GeometryCollection","geometries":[{"type":"MultiPolygon","properties":{"source":"naturalearthdata.com","kind":"ocean","area":1576712559132672,"sort_rank":200,"min_zoom":0.0,"id":1},"arcs":[[[4]],[[5]]]},{"type":"MultiLineString","properties":{"source":"naturalearthdata.com","kind":"ocean","sort_rank":205,"boundary":true,"min_zoom":0.0,"id":55},"arcs":[[6],[7]]}]},"buildings":{"type":"GeometryCollection","geometries":[]},"places":{"type":"GeometryCollection","geometries":[]},"transit":{"type":"GeometryCollection","geometries":[]},"pois":{"type":"GeometryCollection","geometries":[]},"boundaries":{"type":"GeometryCollection","geometries":[{"type":"LineString","properties":{"name:ka":"\u10e1\u10d0\u10e3\u10d3\u10d8\u10e1 \u10d0\u10e0\u10d0\u10d1\u10d4\u10d7\u10d8","name:ko":"\uc0ac\uc6b0\ub514\uc544\ub77c\ube44\uc544","name:cv":"\u0421\u0430\u0443\u0434 \u0410\u0440\u0430\u0432\u0438\u0439\u0115","name:km":"\u17a2\u17b6\u179a\u17c9\u17b6\u1794\u17ca\u17b8\u179f\u17b6\u17a2\u17bc\u178c\u17b8\u178f","name:kl":"Saudi Arabia","name:cs":"Sa\u00fadsk\u00e1 Ar\u00e1bie","name:tt":"\u0421\u043e\u0433\u0443\u0434 \u0413\u0430\u0440\u04d9\u0431\u0441\u0442\u0430\u043d\u044b","name:kw":"Arabi Saoudek","name:kv":"\u0421\u0430\u0443\u0434\u0441\u0430 \u0410\u0440\u0430\u0432\u0438\u044f","name:ku":"Erebistana Siy\u00fbd\u00ee","name:tl":"Arabyang Saudi","name:ce":"\u0421\u0430\u0443\u0434\u0438\u0439\u043d \u0410\u0440\u0430\u0432\u0438","name:ta":"\u0b9a\u0bb5\u0bc2\u0ba4\u0bbf \u0b85\u0bb0\u0bc7\u0baa\u0bbf\u0baf\u0bbe","name:tg":"\u0410\u0440\u0430\u0431\u0438\u0441\u0442\u043e\u043d\u0438 \u0421\u0430\u0443\u0434\u04e3","name:ca":"Ar\u00e0bia Saudita","name:te":"\u0c38\u0c4c\u0c26\u0c40 \u0c05\u0c30\u0c47\u0c2c\u0c3f\u0c2f\u0c3e","name:cy":"Saudi Arabia","name:qu":"Sawud Arabya","name:da":"Saudi-Arabien","name:de":"Saudi-Arabien","name:dz":"\u0f66\u0f60\u0f74\u0f0b\u0f51\u0f72\u0f0b\u0f68\u0f7a\u0f0b\u0f62\u0f0b\u0f66\u0fa6\u0f72\u0f0b\u0f61\u0f0b","source":"openstreetmap.org","name:kn":"\u0cb8\u0ccc\u0ca6\u0cbf \u0c85\u0cb0\u0cc6\u0cac\u0cbf\u0caf","name:dv":"\u0790\u07a6\u0787\u07ab\u078b\u07a9 \u0787\u07a6\u0783\u07a6\u0784\u07a8\u0787\u07b0\u0794\u07a7","name:lv":"Sa\u016bda Ar\u0101bija","name:lt":"Saudo Arabija","name:uz":"Saudiya Arabistoni","name:kk":"\u0421\u0430\u0443\u0434 \u0410\u0440\u0430\u0431\u0438\u044f\u0441\u044b","name:ur":"\u0633\u0639\u0648\u062f\u06cc \u0639\u0631\u0628","name:lb":"Saudi-Arabien","name:la":"Arabia Saudiana","name:uk":"\u0421\u0430\u0443\u0434\u0456\u0432\u0441\u044c\u043a\u0430 \u0410\u0440\u0430\u0432\u0456\u044f","name:ug":"\u0633\u06d5\u0626\u06c7\u062f\u0649 \u0626\u06d5\u0631\u06d5\u0628\u0649\u0633\u062a\u0627\u0646","name:li":"Saoedi-Arabi\u00eb","name:ln":"Saudi Arabia","name:el":"\u03a3\u03b1\u03bf\u03c5\u03b4\u03b9\u03ba\u03ae \u0391\u03c1\u03b1\u03b2\u03af\u03b1","name:eo":"Sauda Arabujo","name:en":"Saudi Arabia","name":"\u0627\u0644\u0633\u0639\u0648\u062f\u064a\u0629","name:tk":"Saud Arabystany","name:th":"\u0e1b\u0e23\u0e30\u0e40\u0e17\u0e28\u0e0b\u0e32\u0e2d\u0e38\u0e14\u0e35\u0e2d\u0e32\u0e23\u0e30\u0e40\u0e1a\u0e35\u0e22","name:eu":"Saudi Arabia","name:et":"Saudi Araabia","name:es":"Arabia Saudita","name:ia":"Arabia Saudita","name:rm":"Arabia Saudita","name:az":"S\u0259udiyy\u0259 \u018fr\u0259bistan\u0131","name:ie":"Saudi Arabia","name:id":"Arab Saudi","name:zh-min-nan":"Saud \u00ea A-la-pek","name:io":"Saudia Arabia","name:av":"\u0421\u0430\u0433I\u0443\u0434\u0438\u044f\u0437\u0443\u043b \u0413I\u0430\u0440\u0430\u0431\u0438\u044f","name:is":"S\u00e1d\u00ed-Arab\u00eda","name:am":"\u1233\u12d1\u12f2 \u12a0\u1228\u1262\u12eb","name:it":"Arabia Saudita","name:an":"Arabia Saud\u00ed","name:ru":"\u0421\u0430\u0443\u0434\u043e\u0432\u0441\u043a\u0430\u044f \u0410\u0440\u0430\u0432\u0438\u044f","name:rw":"Arabiya Sawudite","name:af":"Saoedi-Arabi\u00eb","kind_detail":"2","name:ky":"\u0421\u0430\u0443\u0434 \u0410\u0440\u0430\u0431\u0438\u044f \u041f\u0430\u0434\u044b\u0448\u0430\u043b\u044b\u0433\u044b","name:zh-yue":"\u6c99\u5730\u963f\u62c9\u4f2f","name:zh":"\u6c99\u7279\u963f\u62c9\u4f2f","name:so":"Sacuudi Carabiya","name:sl":"Saudova Arabija","name:sk":"Saudsk\u00e1 Ar\u00e1bia","name:ja":"\u30b5\u30a6\u30b8\u30a2\u30e9\u30d3\u30a2","name:si":"\u0dc3\u0dc0\u0dd4\u0daf\u0dd2 \u0d85\u0dbb\u0dcf\u0db6\u0dd2\u0dba\u0dcf\u0dc0","name:sh":"Saudijska Arabija","name:se":"Saudi-Ar\u00e1bia","name:br":"Arabia Saoudat","name:bs":"Saudijska Arabija","name:bm":"Saudia Arabu ka Faamamara","name:bn":"\u09b8\u09cc\u09a6\u09bf \u0986\u09b0\u09ac","name:bo":"\u0f66\u0f60\u0f74\u0f0b\u0f51\u0f72\u0f0b\u0f68\u0f0b\u0f62\u0f0b\u0f54\u0f72\u0f0b\u0f61\u0f0d","name:sa":"\u0938\u090a\u0926\u0940 \u0905\u0930\u092c","name:sw":"Saudia","name:be":"\u0421\u0430\u0443\u0434\u0430\u045e\u0441\u043a\u0430\u044f \u0410\u0440\u0430\u0432\u0456\u044f","name:su":"Saudi Arabia","name:bg":"\u0421\u0430\u0443\u0434\u0438\u0442\u0441\u043a\u0430 \u0410\u0440\u0430\u0431\u0438\u044f","name:ss":"I-Arabhiya","name:ba":"\u0421\u04d9\u0493\u04af\u0434 \u0492\u04d9\u0440\u04d9\u0431\u0441\u0442\u0430\u043d\u044b","name:sq":"Arabia Saudite","name:jv":"Arab Saudi","name:pt":"Ar\u00e1bia Saudita","name:ps":"\u0633\u0639\u0648\u062f\u064a \u0639\u0631\u0628\u0633\u062a\u0627\u0646","name:oc":"Arabia Saudita","min_zoom":8.0,"name:ro":"Arabia Saudit\u0103","name:pa":"\u0a38\u0a09\u0a26\u0a40 \u0a05\u0a30\u0a2c","name:os":"\u0421\u0430\u0443\u0434\u044b \u0410\u0440\u0430\u0432\u0438","name:or":"\u0b38\u0b3e\u0b09\u0b26\u0b3f \u0b06\u0b30\u0b2c","name:pl":"Arabia Saudyjska","sort_rank":262,"name:sr":"\u0421\u0430\u0443\u0434\u0438\u0458\u0441\u043a\u0430 \u0410\u0440\u0430\u0431\u0438\u0458\u0430","osm_relation":true,"name:tr":"Suudi Arabistan","name:hi":"\u0938\u0909\u0926\u0940 \u0905\u0930\u092c","name:sv":"Saudiarabien","name:he":"\u05e2\u05e8\u05d1 \u05d4\u05e1\u05e2\u05d5\u05d3\u05d9\u05ea","name:hy":"\u054d\u0561\u0578\u0582\u0564\u0575\u0561\u0576 \u0531\u0580\u0561\u0562\u056b\u0561","name:ht":"Arabi Sawoudit","name:hu":"Sza\u00fad-Ar\u00e1bia","name:hr":"Saudijska Arabija","kind":"country","name:yi":"\u05e1\u05d0\u05d5\u05d3\u05d9 \u05d0\u05e8\u05d0\u05d1\u05d9\u05e2","name:yo":"S\u00e1\u00fad\u00ed Ar\u00e1b\u00ed\u00e0","name:mt":"Arabja Sawdija","alt_name:eo":"Sauda Arabio;Saud-Arabujo;Saud-Arabio","name:ms":"Arab Saudi","name:mr":"\u0938\u094c\u0926\u0940 \u0905\u0930\u0947\u092c\u093f\u092f\u093e","name:my":"\u1006\u1031\u102c\u103a\u1012\u102e\u1021\u102c\u101b\u1031\u1017\u103b\u1014\u102d\u102f\u1004\u103a\u1004\u1036","official_name":"\u200f\u0627\u0644\u0645\u0645\u0644\u0643\u0629 \u0627\u0644\u0639\u0631\u0628\u064a\u0629 \u0627\u0644\u0633\u0639\u0648\u062f\u064a\u0629\u200e","name:vi":"\u1ea2 R\u1eadp Saudi","name:ml":"\u0d38\u0d57\u0d26\u0d3f \u0d05\u0d31\u0d47\u0d2c\u0d4d\u0d2f","name:mn":"\u0421\u0430\u0443\u0434\u044b\u043d \u0410\u0440\u0430\u0431","id":-307584,"name:mk":"\u0421\u0430\u0443\u0434\u0438\u0441\u043a\u0430 \u0410\u0440\u0430\u0431\u0438\u0458\u0430","name:vo":"Sauda-Larab\u00e4n","name:fa":"\u0639\u0631\u0628\u0633\u062a\u0627\u0646 \u0633\u0639\u0648\u062f\u06cc","name:fi":"Saudi-Arabia","name:fo":"Saudi-Arabia","alt_name:vi":"\u1ea2 R\u1eadp X\u00ea \u00dat;A-r\u1eadp X\u00ea-\u00fat","name:fr":"Arabie saoudite","name:fy":"Sa\u00fbdy-Araabje","name:nl":"Saoedi-Arabi\u00eb","name:nn":"Saudi-Arabia","name:no":"Saudi-Arabia","name:na":"Taudiarabiya","name:ne":"\u0938\u093e\u0909\u0926\u0940 \u0905\u0930\u092c","name:wo":"Araabi Sawdit","name:nv":"\u00c1s\u00e1\u00ed Bik\u00e9yah Sa\u02bcood\u00ed","name:ga":"An Araib Sh\u00e1dach","name:gd":"Ar\u00e0ibia nan Sabhd","name:gn":"Aravia Saud\u00edta","name:gl":"Arabia Saud\u00ed","maritime_boundary":true,"name:gv":"Yn Araab Saudi","name:gu":"\u0ab8\u0abe\u0a89\u0aa6\u0ac0 \u0a85\u0ab0\u0ac7\u0aac\u0abf\u0aaf\u0abe"},"arcs":[0]},{"type":"MultiLineString","properties":{"kind":"region","name:en":"Eastern Region","name":"\u0627\u0644\u0645\u0646\u0637\u0642\u0629 \u0627\u0644\u0634\u0631\u0642\u064a\u0629","sort_rank":256,"kind_detail":"4","name:cs":"provincie Damm\u00e1m","min_zoom":8.0,"name:de":"\u00d6stliche Provinz","source":"openstreetmap.org","maritime_boundary":true,"name:ru":"\u042d\u0448-\u0428\u0430\u0440\u043a\u0438\u0439\u044f","id":-3667294,"osm_relation":true},"arcs":[[1],[2],[3]]}]},"roads":{"type":"GeometryCollection","geometries":[{"type":"MultiLineString","properties":{"source":"openstreetmap.org","kind":"major_road","sort_rank":381,"kind_detail":"trunk","ref":"85","min_zoom":8.0},"arcs":[[8],[9],[10],[11],[12],[13],[14],[15]]},{"type":"MultiLineString","properties":{"source":"openstreetmap.org","kind":"major_road","landuse_kind":"residential","sort_rank":381,"kind_detail":"trunk","ref":"75","min_zoom":8.0},"arcs":[[16],[17]]},{"type":"LineString","properties":{"source":"openstreetmap.org","kind":"highway","sort_rank":383,"kind_detail":"motorway","ref":"85","min_zoom":8.0},"arcs":[18]},{"type":"MultiLineString","properties":{"source":"openstreetmap.org","kind":"major_road","landuse_kind":"residential","sort_rank":381,"kind_detail":"trunk","ref":"85","min_zoom":8.0},"arcs":[[19],[20]]},{"type":"MultiLineString","properties":{"sort_rank":380,"kind_detail":"primary","min_zoom":8.0,"kind":"major_road","source":"openstreetmap.org"},"arcs":[[21],[22],[23],[24],[25],[26],[27],[28],[29],[30],[31],[32],[33]]},{"type":"MultiLineString","properties":{"sort_rank":381,"source":"openstreetmap.org","min_zoom":8.0,"kind":"major_road","kind_detail":"trunk"},"arcs":[[34],[35],[36],[37],[38],[39],[40],[41],[42],[43],[44],[45]]},{"type":"MultiLineString","properties":{"source":"openstreetmap.org","kind":"major_road","sort_rank":381,"kind_detail":"trunk","ref":"75","min_zoom":8.0},"arcs":[[46],[47],[48],[49],[50],[51],[52],[53],[54],[55],[56],[57]]},{"type":"MultiLineString","properties":{"source":"openstreetmap.org","kind":"major_road","landuse_kind":"residential","sort_rank":381,"kind_detail":"trunk","ref":"603","min_zoom":8.0},"arcs":[[58],[59],[60]]},{"type":"MultiLineString","properties":{"source":"openstreetmap.org","kind":"major_road","landuse_kind":"residential","sort_rank":380,"kind_detail":"primary","min_zoom":8.0},"arcs":[[61],[62],[63]]},{"type":"MultiLineString","properties":{"sort_rank":383,"kind_detail":"motorway","min_zoom":8.0,"kind":"highway","source":"openstreetmap.org"},"arcs":[[64],[65],[66],[67]]},{"type":"MultiLineString","properties":{"source":"openstreetmap.org","kind":"major_road","sort_rank":381,"kind_detail":"trunk","ref":"95","min_zoom":8.0},"arcs":[[68],[69],[70],[71],[72],[73],[74],[75],[76]]},{"type":"MultiLineString","properties":{"source":"openstreetmap.org","kind":"highway","sort_rank":383,"kind_detail":"motorway","ref":"95","min_zoom":8.0},"arcs":[[77],[78],[79],[80]]},{"type":"MultiLineString","properties":{"source":"openstreetmap.org","kind":"major_road","sort_rank":381,"kind_detail":"trunk","ref":"603","min_zoom":8.0},"arcs":[[81],[82],[83],[84],[85]]},{"type":"MultiLineString","properties":{"source":"openstreetmap.org","kind":"major_road","landuse_kind":"residential","sort_rank":381,"kind_detail":"trunk","min_zoom":8.0},"arcs":[[86],[87],[88],[89]]}]},"earth":{"type":"GeometryCollection","geometries":[{"type":"MultiPolygon","properties":{"sort_rank":10,"source":"naturalearthdata.com","min_zoom":0.0,"kind":"earth","area":27874490223},"arcs":[[[90]]]}]},"landuse":{"type":"GeometryCollection","geometries":[{"type":"MultiPolygon","properties":{"source":"naturalearthdata.com","kind":"urban_area","name":"","area":1355644196,"sort_rank":11,"min_zoom":4.0},"arcs":[[[91]]]},{"type":"Polygon","properties":{"kind":"residential","name":"Nairyah","area":39802300,"sort_rank":20,"source":"openstreetmap.org","min_zoom":8.0,"tier":2,"id":31302841},"arcs":[[92]]}]}},"type":"Topology","transform":{"translate":[47.8125,27.0591257844],"scale":[0.0003433228,0.0003040173]},"arcs":[[[4096,3799],[-189,297]],[[4096,827],[-3,0],[3,9]],[[4096,1055],[-46,-16],[5,67],[-38,-22],[-75,66],[-49,11],[-61,-33],[-15,13],[12,44],[24,-2],[11,72],[74,-60],[25,60],[46,16],[17,-59],[-32,-36],[93,98],[9,-5]],[[4096,1564],[-1,0],[-45,79],[-48,-45],[-1,60],[-24,-27],[15,-35],[-148,-22],[-104,17],[-56,51],[-53,21],[-41,9],[47,-12],[-60,-11],[13,21],[-51,18],[-52,95],[-118,69],[-174,-103],[-17,-44],[26,1],[-9,27],[30,31],[18,-63],[-63,-37],[-28,11],[6,69],[55,117],[-56,16],[-37,-96],[-29,-16],[-90,46],[24,59],[33,-5],[4,-42],[29,-19],[-1,50],[-69,63],[50,36],[15,-50],[17,8],[19,24],[-10,85],[-14,-26],[-52,-16],[-8,-13],[14,8],[9,-4],[-30,-5],[-19,8],[14,21],[8,-1],[-1,-16],[2,1],[5,97],[-35,57],[-3,-46],[-51,-37],[-28,61],[29,107],[-29,35],[-22,4],[-7,-11],[18,5],[-28,-105],[-39,-20],[-15,28],[33,53],[12,97],[29,42],[-2,144],[53,48],[7,-136],[-52,-42],[28,16],[-11,-72],[-43,-12],[51,-17],[49,42],[-21,14],[9,103],[54,59],[54,-87],[-17,-43],[-65,-41],[55,6],[-6,-90],[-55,-45],[106,67],[32,48],[22,60],[-20,-32],[-41,38],[30,102],[26,-3],[-27,78],[-171,108],[-20,63],[17,50],[-85,7],[-137,162],[-1,88],[83,15],[36,49],[-25,-52],[-93,-36],[70,15],[61,45],[2,29],[-291,57],[-30,41],[-5,-17],[-47,25],[-6,52],[-119,126],[-19,69],[27,8],[-1,-7],[11,2],[11,-5],[8,2],[-22,17],[-41,-11],[-10,15],[0,162],[33,99],[25,18],[4,-33],[12,24],[-146,190],[-128,93],[-38,77]],[[4096,1129],[-18,-18],[-16,-6],[-15,12],[-19,25],[-36,16],[-20,15],[-17,17],[-26,20],[-33,14],[-64,19],[-24,14],[110,57],[51,-1],[20,-56],[21,0],[57,55],[29,-3],[0,-180]],[[4096,1616],[-29,4],[-58,17],[-30,3],[-24,-7],[-51,-30],[-25,-8],[-111,9],[-50,14],[-49,22],[16,-37],[-18,-23],[-37,-4],[-41,19],[56,40],[-28,40],[-108,55],[-103,97],[-39,19],[-57,-5],[-67,-16],[-31,-18],[-23,-30],[6,-22],[23,-22],[13,-23],[-22,-25],[-51,2],[-16,53],[12,65],[35,36],[-20,47],[-19,0],[-27,-59],[-41,-31],[-52,-4],[-61,26],[21,35],[29,1],[71,-36],[-10,20],[-30,72],[32,3],[19,10],[3,20],[-14,30],[15,15],[6,20],[-1,57],[-15,-33],[-22,-32],[-28,-16],[-36,14],[5,55],[-3,43],[-21,37],[-15,-35],[-27,-28],[-27,-5],[-12,35],[0,147],[-21,-21],[-21,-55],[-16,-16],[-33,-3],[-3,18],[10,22],[6,8],[2,53],[55,231],[25,45],[23,5],[15,-63],[-6,-37],[-54,-142],[49,34],[47,122],[43,46],[14,-47],[-10,-27],[-16,-27],[-9,-46],[6,-81],[-4,-27],[-21,-39],[40,29],[37,55],[26,52],[7,23],[-10,17],[-2,39],[3,42],[26,66],[-14,33],[-117,117],[-65,98],[-2,15],[-54,23],[-67,53],[-58,60],[-28,44],[-4,45],[13,21],[50,25],[22,-7],[19,-1],[19,8],[11,16],[10,22],[1,21],[-12,9],[-35,7],[-58,32],[-26,8],[-99,-4],[-32,4],[-100,45],[-45,27],[3,13],[4,38],[-19,35],[-92,126],[-29,53],[-17,70],[3,64],[21,62],[42,63],[-15,39],[-243,269],[-10,18],[2002,0],[0,-2480]],[[4096,1129],[-18,-18],[-16,-6],[-15,12],[-19,25],[-36,16],[-20,15],[-17,17],[-26,20],[-33,14],[-64,19],[-24,14],[110,57],[51,-1],[20,-56],[21,0],[57,55],[29,-3]],[[4096,1616],[-29,4],[-58,17],[-30,3],[-24,-7],[-51,-30],[-25,-8],[-111,9],[-50,14],[-49,22],[16,-37],[-18,-23],[-37,-4],[-41,19],[56,40],[-28,40],[-108,55],[-103,97],[-39,19],[-57,-5],[-67,-16],[-31,-18],[-23,-30],[6,-22],[23,-22],[13,-23],[-22,-25],[-51,2],[-16,53],[12,65],[35,36],[-20,47],[-19,0],[-27,-59],[-41,-31],[-52,-4],[-61,26],[21,35],[29,1],[71,-36],[-10,20],[-30,72],[32,3],[19,10],[3,20],[-14,30],[15,15],[6,20],[-1,57],[-15,-33],[-22,-32],[-28,-16],[-36,14],[5,55],[-3,43],[-21,37],[-15,-35],[-27,-28],[-27,-5],[-12,35],[0,147],[-21,-21],[-21,-55],[-16,-16],[-33,-3],[-3,18],[10,22],[6,8],[2,53],[55,231],[25,45],[23,5],[15,-63],[-6,-37],[-54,-142],[49,34],[47,122],[43,46],[14,-47],[-10,-27],[-16,-27],[-9,-46],[6,-81],[-4,-27],[-21,-39],[40,29],[37,55],[26,52],[7,23],[-10,17],[-2,39],[3,42],[26,66],[-14,33],[-117,117],[-65,98],[-2,15],[-54,23],[-67,53],[-58,60],[-28,44],[-4,45],[13,21],[50,25],[22,-7],[19,-1],[19,8],[11,16],[10,22],[1,21],[-12,9],[-35,7],[-58,32],[-26,8],[-99,-4],[-32,4],[-100,45],[-45,27],[3,13],[4,38],[-19,35],[-92,126],[-29,53],[-17,70],[3,64],[21,62],[42,63],[-15,39],[-243,269],[-10,18]],[[0,2141],[1563,-649],[179,-39],[147,5],[38,-27]],[[1929,1430],[-40,29],[-147,-5],[-178,39],[-1564,649]],[[3399,796],[-134,-26]],[[3265,770],[-1,-1],[-81,37]],[[3183,806],[-139,62]],[[3044,867],[139,-61]],[[3183,806],[82,-36]],[[3265,770],[5,-3],[132,29]],[[1913,1345],[-23,-48]],[[1892,1296],[25,47]],[[3402,797],[-3,-1]],[[1927,1431],[57,-41]],[[1984,1391],[-55,39]],[[0,2109],[12,27]],[[1608,1484],[235,-105]],[[1988,4096],[108,-78],[220,-525],[-71,-223],[16,-51],[69,-69]],[[2330,3150],[0,-2]],[[2331,3149],[-1,1]],[[2330,3147],[2,-2]],[[2332,3145],[-1,2]],[[2709,2483],[-154,430],[-223,232]],[[2709,2483],[2,-9]],[[2803,2004],[-92,470]],[[2803,2004],[17,-24]],[[2821,1980],[-18,24]],[[2332,3148],[-2,1],[0,-2],[1,0],[1,1]],[[3044,868],[-111,52],[-139,61],[-642,276],[-23,17]],[[2129,1274],[-81,61]],[[2049,1338],[80,-64]],[[2129,1274],[22,-18],[893,-389]],[[2825,1949],[207,-348],[-206,348]],[[3283,1133],[1,-1]],[[3285,1133],[-1,1]],[[3402,796],[-1,-1]],[[1768,657],[1,-1],[0,1],[0,1],[-1,-1]],[[1771,684],[1,0],[-1,1],[0,-1]],[[1777,731],[1,0],[0,1],[-1,0],[0,-1]],[[2821,1979],[-1,1],[-1,-1],[2,-1],[0,1]],[[1760,571],[-45,-571]],[[1760,571],[9,85]],[[1768,656],[-8,-85]],[[1771,684],[-2,-26]],[[1769,657],[2,27]],[[1777,731],[-6,-46]],[[1772,684],[6,47]],[[1791,801],[-14,-69]],[[1778,732],[13,69]],[[1860,1237],[-69,-436]],[[1860,1237],[32,59]],[[1890,1297],[-30,-60]],[[1918,1343],[74,36],[27,19]],[[2019,1398],[-101,-54]],[[1914,1347],[-1,-2],[5,-1],[0,1],[-4,2]],[[1843,1379],[65,-30]],[[1908,1349],[5,-3]],[[1913,1347],[-5,2]],[[3399,796],[1,1]],[[3401,796],[1,1]],[[3905,294],[1,0]],[[3906,294],[-1,1]],[[1891,4096],[116,-281]],[[2007,3815],[191,-465],[47,-113],[580,-1288]],[[2826,1949],[-552,1225],[-75,176],[-192,465]],[[2007,3815],[-117,281]],[[3245,1246],[-38,104],[-175,251]],[[3245,1246],[38,-113]],[[3284,1134],[-39,112]],[[3284,1132],[116,-335]],[[3401,796],[-116,337]],[[3400,797],[51,-108],[214,-189],[240,-206]],[[3905,295],[-453,395],[-51,106]],[[3906,294],[190,-175]],[[4096,121],[-34,31],[-156,142]],[[2026,1403],[-7,-5]],[[2019,1398],[7,5]],[[2769,1946],[-528,-409],[-215,-134]],[[2769,1946],[51,32]],[[2819,1979],[-50,-33]],[[1984,1390],[3,-3]],[[1987,1387],[62,-49]],[[2048,1335],[-48,36],[-13,16]],[[1987,1387],[-3,4]],[[4096,1129],[0,-1129],[-4096,0],[0,4096],[2094,0],[10,-18],[243,-269],[15,-39],[-42,-63],[-21,-62],[-3,-64],[17,-70],[29,-53],[92,-126],[19,-35],[-4,-38],[-3,-13],[45,-27],[100,-45],[32,-4],[99,4],[26,-8],[58,-32],[35,-7],[12,-9],[-1,-21],[-10,-22],[-11,-16],[-19,-8],[-19,1],[-22,7],[-50,-25],[-13,-21],[4,-45],[28,-44],[58,-60],[67,-53],[54,-23],[2,-15],[65,-98],[117,-117],[14,-33],[-26,-66],[-3,-42],[2,-39],[10,-17],[-7,-23],[-26,-52],[-37,-55],[-40,-29],[21,39],[4,27],[-6,81],[9,46],[16,27],[10,27],[-14,47],[-43,-46],[-47,-122],[-49,-34],[54,142],[6,37],[-15,63],[-23,-5],[-25,-45],[-55,-231],[-2,-53],[-6,-8],[-10,-22],[3,-18],[33,3],[16,16],[21,55],[21,21],[0,-147],[12,-35],[27,5],[27,28],[15,35],[21,-37],[3,-43],[-5,-55],[36,-14],[28,16],[22,32],[15,33],[1,-57],[-6,-20],[-15,-15],[14,-30],[-3,-20],[-19,-10],[-32,-3],[30,-72],[10,-20],[-71,36],[-29,-1],[-21,-35],[61,-26],[52,4],[41,31],[27,59],[19,0],[20,-47],[-35,-36],[-12,-65],[16,-53],[51,-2],[22,25],[-13,23],[-23,22],[-6,22],[23,30],[31,18],[67,16],[57,5],[39,-19],[103,-97],[108,-55],[28,-40],[-56,-40],[41,-19],[37,4],[18,23],[-16,37],[49,-22],[50,-14],[111,-9],[25,8],[51,30],[24,7],[30,-3],[58,-17],[29,-4],[0,-307],[-29,3],[-57,-55],[-21,0],[-20,56],[-51,1],[-110,-57],[24,-14],[64,-19],[33,-14],[26,-20],[17,-17],[20,-15],[36,-16],[19,-25],[15,-12],[16,6],[18,18]],[[3067,2481],[-31,19],[19,106],[62,-81],[-50,-44]],[[1840,1407],[55,30],[111,-22],[47,-65],[-30,-96],[-174,56],[-9,97]]]}