{"objects":{"water":{"type":"GeometryCollection","geometries":[{"type":"Polygon","properties":{"source":"naturalearthdata.com","kind":"ocean","area":1576712559132672,"sort_rank":200,"min_zoom":0.0,"id":1},"arcs":[[4]]},{"type":"MultiLineString","properties":{"source":"naturalearthdata.com","kind":"ocean","sort_rank":205,"boundary":true,"min_zoom":0.0,"id":3768},"arcs":[[5],[6]]}]},"buildings":{"type":"GeometryCollection","geometries":[]},"places":{"type":"GeometryCollection","geometries":[]},"transit":{"type":"GeometryCollection","geometries":[{"type":"LineString","properties":{"kind":"train","alt_name:en":"New Eurasian Continental Bridge","network":"Eurasian Land Bridge","alt_name:de":"Zweite eurasische Kontinentalbr\u00fccke","sort_rank":275,"name:de":"Neue eurasische Kontinentalbr\u00fccke","source":"openstreetmap.org","min_zoom":6.0,"id":-3227421,"osm_relation":true,"name":"New Eurasian Land Bridge"},"arcs":[2]},{"type":"LineString","properties":{"source":"openstreetmap.org","kind":"train","name":"Trans-Caspian Railway","sort_rank":275,"min_zoom":6.0,"osm_relation":true,"id":-5739794},"arcs":[3]}]},"pois":{"type":"GeometryCollection","geometries":[]},"boundaries":{"type":"GeometryCollection","geometries":[{"type":"MultiLineString","properties":{"name:pt":"Daguest\u00e3o","name:az":"Da\u011f\u0131stan","name:id":"Dagestan","name:ka":"\u10d3\u10d0\u10e6\u10d4\u10e1\u10e2\u10d0\u10dc\u10d8\u10e8 \u10e0\u10d4\u10e1\u10de\u10e3\u10d1\u10da\u10d8\u10d9\u10d0","name:tr":"Da\u011f\u0131stan","name:ar":"\u062f\u0627\u063a\u0633\u062a\u0627\u0646","name:av":"\u0414\u0430\u0433\u044a\u0438\u0441\u0442\u0430\u043d","name:tk":"Dagystan","min_zoom":8.0,"name:it":"Daghestan","name:pl":"Republika Dagestanu","id":-109876,"name:ca":"Daguestan","name:fa":"\u062f\u0627\u063a\u0633\u062a\u0627\u0646","sort_rank":256,"kind_detail":"4","name:de":"Dagestan","source":"openstreetmap.org","name:tg":"\u0414\u043e\u0493\u0438\u0441\u0442\u043e\u043d","name:lt":"Dagestanas","name:he":"\u05d3\u05d0\u05d2\u05e1\u05d8\u05df","name:lb":"Dagestan","name:hy":"\u0534\u0561\u0572\u057d\u057f\u0561\u0576","name:sv":"Dagestan","osm_relation":true,"name:el":"\u039d\u03c4\u03b1\u03b3\u03ba\u03b5\u03c3\u03c4\u03ac\u03bd","kind":"region","name:en":"Dagestan","name":"\u0414\u0430\u0433\u0435\u0441\u0442\u0430\u043d","name:zh":"\u8fbe\u5409\u65af\u5766\u5171\u548c\u56fd","name:ku":"Daxistan","maritime_boundary":true,"name:es":"Daguest\u00e1n"},"arcs":[[0],[1]]}]},"roads":{"type":"GeometryCollection","geometries":[{"type":"LineString","properties":{"source":"openstreetmap.org","kind":"ferry","sort_rank":355,"landuse_kind":"protected_area","min_zoom":8.0,"osm_relation":true,"id":-1523010},"arcs":[7]},{"type":"LineString","properties":{"source":"openstreetmap.org","kind":"ferry","sort_rank":355,"min_zoom":8.0,"osm_relation":true,"id":-1523010},"arcs":[8]},{"type":"LineString","properties":{"sort_rank":355,"source":"openstreetmap.org","min_zoom":8.0,"kind":"ferry"},"arcs":[9]},{"type":"LineString","properties":{"sort_rank":355,"landuse_kind":"protected_area","min_zoom":8.0,"kind":"ferry","source":"openstreetmap.org"},"arcs":[10]}]},"earth":{"type":"GeometryCollection","geometries":[{"type":"MultiPolygon","properties":{"sort_rank":10,"source":"naturalearthdata.com","min_zoom":0.0,"kind":"earth","area":2558745629},"arcs":[[[11]]]}]},"landuse":{"type":"GeometryCollection","geometries":[{"type":"Polygon","properties":{"kind":"protected_area","area":158055006208,"sort_rank":17,"source":"openstreetmap.org","min_zoom":4.0,"tier":2,"id":-3316473,"osm_relation":true},"arcs":[[12]]}]}},"type":"Topology","transform":{"translate":[47.8125,43.0688877742],"scale":[0.0003433228,0.0002487054]},"arcs":[[[0,488],[59,439],[-59,370]],[[0,1781],[52,159],[60,386],[239,427],[365,346],[140,179],[85,211],[23,226],[-21,150],[-58,164],[-42,67]],[[2247,4096],[1849,-2782]],[[2247,4096],[1849,-2782]],[[4096,0],[-4096,0],[0,3562],[158,117],[1,30],[-15,12],[-32,20],[-36,5],[-74,-5],[-2,-1],[0,356],[4096,0],[0,-4096]],[[112,3741],[-36,5],[-74,-5],[-2,-1]],[[0,3562],[158,117],[1,30],[-15,12],[-32,20]],[[4096,1314],[-637,962]],[[3459,2276],[-1212,1820]],[[3459,2276],[-1212,1820]],[[4096,1314],[-637,962]],[[112,3741],[32,-20],[15,-12],[-1,-30],[-158,-117],[0,178],[2,1],[74,5],[36,-5]],[[3459,1010],[0,3002],[637,0],[0,-3099],[-637,97]]]}