{"objects":{"water":{"type":"GeometryCollection","geometries":[{"type":"Polygon","properties":{"source":"naturalearthdata.com","kind":"ocean","area":1576712559132672,"sort_rank":200,"min_zoom":0.0,"id":1},"arcs":[[8]]},{"type":"LineString","properties":{"source":"naturalearthdata.com","kind":"ocean","sort_rank":205,"boundary":true,"min_zoom":0.0,"id":979},"arcs":[9]}]},"buildings":{"type":"GeometryCollection","geometries":[]},"places":{"type":"GeometryCollection","geometries":[{"type":"Point","properties":{"name:pt":"Derbente","name:az":"D\u0259rb\u0259nd","name:ka":"\u10d3\u10d0\u10e0\u10e3\u10d1\u10d0\u10dc\u10d3\u10d8","name:ko":"\ub370\ub974\ubca4\ud2b8","name:ar":"\u062f\u0631\u0628\u0646\u062f","name:tt":"\u0414\u04d9\u0440\u0431\u04d9\u043d\u0442","name:av":"\u0414\u0435\u0440\u0431\u0435\u043d\u0434","min_zoom":8.0,"int_name":"Derbent","name:it":"Derbent","name:be":"\u0414\u0437\u0435\u0440\u0431\u0435\u043d\u0442","name:lv":"Derbenta","name:pl":"Derbent","id":191903740,"name:fa":"\u062f\u0631\u0628\u0646\u062f","kind_detail":"city","name:de":"Derbent","source":"openstreetmap.org","name:fr":"Derbent","name:zh":"\u5091\u723e\u8cd3\u7279","name:nl":"Derbent","name:ja":"\u30c7\u30eb\u30d9\u30f3\u30c8","name:lt":"Derbentas","name:uz":"Darband","name:he":"\u05d3\u05e8\u05d1\u05e0\u05d8","kind":"locality","name:la":"Derbentum","name:hy":"\u0534\u0565\u0580\u0562\u0565\u0576\u0564","name:sv":"Derbent","population":122354,"name:el":"\u039d\u03c4\u03b5\u03c1\u03bc\u03c0\u03ad\u03bd\u03c4","name:eo":"Derbent","name:en":"Derbent","name":"\u0414\u0435\u0440\u0431\u0435\u043d\u0442"},"coordinates":[1402,98]},{"type":"Point","properties":{"kind":"locality","name:en":"Izberbash","name":"\u0418\u0437\u0431\u0435\u0440\u0431\u0430\u0448","name:tr":"\u0130zberba\u015f","kind_detail":"town","name:de":"Isberbasch","source":"openstreetmap.org","min_zoom":8.0,"int_name":"Izberbash","name:az":"\u0130zberba\u015f","name:pl":"Izberbasz","id":287661153,"population":57511},"coordinates":[147,2128]},{"type":"Point","properties":{"name:az":"Da\u011f\u0131stan \u0130\u015f\u0131qlar\u0131","name:ar":"\u062f\u0627\u063a\u064a\u0633\u062a\u0627\u0646\u0633\u0643\u064a \u0623\u0648\u063a\u0646\u064a","name:av":"\u0414\u0430\u0433\u044a\u0438\u0441\u0442\u0430\u043d\u0430\u043b\u044a\u0443\u043b \u0446\u04c0\u0430\u044f\u043b","min_zoom":8.0,"int_name":"Dagestanskiye Ogni","name:uk":"\u0414\u0430\u0433\u0435\u0441\u0442\u0430\u043d\u0441\u044c\u043a\u0456 \u041e\u0433\u043d\u0456","name:ce":"\u0414\u0430\u0433\u0435\u0441\u0442\u0430\u043d\u0441\u043a\u0438 \u041e\u0433\u043d\u0438","id":287673747,"population":28887,"name:fa":"\u062f\u0627\u06af\u0633\u062a\u0627\u0646\u0633\u06a9\u06cc\u0647 \u0627\u0648\u06af\u0646\u06cc","kind":"locality","name:en":"Dagestanskiye Ogni","name":"\u0414\u0430\u0433\u0435\u0441\u0442\u0430\u043d\u0441\u043a\u0438\u0435 \u041e\u0433\u043d\u0438","kind_detail":"town","name:de":"Dagestanskije Ogni","source":"openstreetmap.org","name:fr":"Daguestanskie Ogni"},"coordinates":[1089,325]},{"type":"Point","properties":{"kind":"locality","name:en":"Mamedkala","name":"\u041c\u0430\u043c\u0435\u0434\u043a\u0430\u043b\u0430","kind_detail":"town","name:de":"Mamedkala","source":"openstreetmap.org","min_zoom":8.0,"name:az":"M\u0259mm\u0259dqala","name:hy":"\u0544\u0561\u0574\u0565\u0564\u056f\u0561\u056c\u0561","id":894075018,"population":11052},"coordinates":[895,538]},{"type":"Point","properties":{"kind":"locality","name:en":"Kayakent","name":"\u041a\u0430\u044f\u043a\u0435\u043d\u0442","kind_detail":"town","name:av":"\u0413\u044a\u0430\u044f\u043a\u0435\u043d\u0442","source":"openstreetmap.org","min_zoom":8.0,"int_name":"Kayakent","name:az":"Qayak\u0259nd","name:de":"Kajakent","id":892835005,"population":11027},"coordinates":[261,1408]},{"type":"Point","properties":{"kind":"locality","name:en":"Madzhalis","name":"\u041c\u0430\u0434\u0436\u0430\u043b\u0438\u0441","kind_detail":"town","min_zoom":8.0,"name:av":"\u041c\u0430\u0436\u0430\u043b\u0438\u0441","source":"openstreetmap.org","name:fr":"Madjalis","name:az":"M\u0259c\u0259lis","name:de":"Madschalis","id":900689532,"population":6815},"coordinates":[64,347]},{"type":"Point","properties":{"kind":"locality","name:en":"Novokayakent","name":"\u041d\u043e\u0432\u043e\u043a\u0430\u044f\u043a\u0435\u043d\u0442","kind_detail":"town","name:de":"Nowokajakent","source":"openstreetmap.org","min_zoom":8.0,"name:az":"Yeni Qayak\u0259nd","id":903973187,"population":6000},"coordinates":[514,1405]}]},"transit":{"type":"GeometryCollection","geometries":[{"type":"MultiLineString","properties":{"kind":"train","name":"Baku - Harkiv","sort_rank":275,"source":"openstreetmap.org","min_zoom":6.0,"name:ru":"\u0411\u0430\u043a\u0443 \u2014 \u0425\u0430\u0440\u044c\u043a\u043e\u0432","ref":"Baku - Harkiv","osm_relation":true},"arcs":[[1],[2]]},{"type":"LineString","properties":{"source":"openstreetmap.org","kind":"train","name":"\u0411\u0430\u043a\u0443 \u2014 \u0420\u043e\u0441\u0442\u043e\u0432-\u043d\u0430-\u0414\u043e\u043d\u0443","sort_rank":275,"ref":"Baku \u2014 Rostov-na-Donu","min_zoom":6.0,"osm_relation":true},"arcs":[3]},{"type":"MultiLineString","properties":{"kind":"train","name":"Baku - Kyiv","sort_rank":275,"source":"openstreetmap.org","min_zoom":6.0,"name:ru":"\u0411\u0430\u043a\u0443 \u2014 \u041a\u0438\u0435\u0432","ref":"Baku - Kyiv","osm_relation":true},"arcs":[[4],[5]]},{"type":"LineString","properties":{"source":"openstreetmap.org","kind":"train","name":"Baku - Sankt-Peterburg","sort_rank":275,"name:ru":"\u0411\u0430\u043a\u0443 \u2014 \u0421\u0430\u043d\u043a\u0442-\u041f\u0435\u0442\u0435\u0440\u0431\u0443\u0440\u0433","min_zoom":6.0,"osm_relation":true},"arcs":[6]},{"type":"LineString","properties":{"kind":"train","name:en":"Baku \u2014 Moscow","name":"\u0411\u0430\u043a\u0443 \u2014 \u041c\u043e\u0441\u043a\u0432\u0430","sort_rank":275,"name:de":"Baku \u2014 Moskau","source":"openstreetmap.org","min_zoom":6.0,"ref":"055","osm_relation":true},"arcs":[7]}]},"pois":{"type":"GeometryCollection","geometries":[]},"boundaries":{"type":"GeometryCollection","geometries":[{"type":"LineString","properties":{"name:pt":"Daguest\u00e3o","name:az":"Da\u011f\u0131stan","name:id":"Dagestan","name:ka":"\u10d3\u10d0\u10e6\u10d4\u10e1\u10e2\u10d0\u10dc\u10d8\u10e8 \u10e0\u10d4\u10e1\u10de\u10e3\u10d1\u10da\u10d8\u10d9\u10d0","name:tr":"Da\u011f\u0131stan","name:ar":"\u062f\u0627\u063a\u0633\u062a\u0627\u0646","name:av":"\u0414\u0430\u0433\u044a\u0438\u0441\u0442\u0430\u043d","name:tk":"Dagystan","min_zoom":8.0,"name:it":"Daghestan","name:pl":"Republika Dagestanu","id":-109876,"name:ca":"Daguestan","name:fa":"\u062f\u0627\u063a\u0633\u062a\u0627\u0646","sort_rank":256,"kind_detail":"4","name:de":"Dagestan","source":"openstreetmap.org","name:tg":"\u0414\u043e\u0493\u0438\u0441\u0442\u043e\u043d","name:lt":"Dagestanas","name:he":"\u05d3\u05d0\u05d2\u05e1\u05d8\u05df","name:lb":"Dagestan","name:hy":"\u0534\u0561\u0572\u057d\u057f\u0561\u0576","name:sv":"Dagestan","osm_relation":true,"name:el":"\u039d\u03c4\u03b1\u03b3\u03ba\u03b5\u03c3\u03c4\u03ac\u03bd","kind":"region","name:en":"Dagestan","name":"\u0414\u0430\u0433\u0435\u0441\u0442\u0430\u043d","name:zh":"\u8fbe\u5409\u65af\u5766\u5171\u548c\u56fd","name:ku":"Daxistan","maritime_boundary":true,"name:es":"Daguest\u00e1n"},"arcs":[0]}]},"roads":{"type":"GeometryCollection","geometries":[{"type":"MultiLineString","properties":{"kind":"major_road","network":"ru:national","sort_rank":381,"landuse_kind":"urban_area","source":"openstreetmap.org","min_zoom":8.0,"kind_detail":"trunk","shield_text":"217","ref":"\u0420-217"},"arcs":[[10],[11],[12],[13],[14],[15],[16]]},{"type":"MultiLineString","properties":{"kind":"major_road","name:en":"Gagarina Street","sort_rank":380,"kind_detail":"primary","name:de":"uliza Gagarina","source":"openstreetmap.org","min_zoom":8.0,"name:az":"Qaqarin k\u00fc\u00e7\u0259si","landuse_kind":"residential"},"arcs":[[17],[18],[19],[20],[21],[22]]},{"type":"LineString","properties":{"kind":"major_road","name:en":"Salmana Street","sort_rank":380,"kind_detail":"primary","name:de":"uliza Salmana","source":"openstreetmap.org","min_zoom":8.0,"name:az":"Salman k\u00fc\u00e7\u0259si","landuse_kind":"residential"},"arcs":[23]},{"type":"LineString","properties":{"kind":"major_road","name:en":"Gagarina Street","sort_rank":380,"kind_detail":"primary","name:de":"uliza Gagarina","source":"openstreetmap.org","min_zoom":8.0,"name:az":"Qaqarin k\u00fc\u00e7\u0259si","landuse_kind":"urban_area","id":84672919},"arcs":[24]},{"type":"MultiLineString","properties":{"source":"openstreetmap.org","kind":"major_road","network":"ru:national","sort_rank":381,"kind_detail":"trunk","min_zoom":8.0,"shield_text":"217"},"arcs":[[25],[26]]},{"type":"LineString","properties":{"kind":"major_road","name:en":"Svobody Square","sort_rank":380,"kind_detail":"primary","name:de":"ploschtschad Swobody","source":"openstreetmap.org","min_zoom":8.0,"name:az":"Azadl\u0131q meydan\u0131","landuse_kind":"residential","id":383057270},"arcs":[27]},{"type":"LineString","properties":{"source":"openstreetmap.org","kind":"major_road","landuse_kind":"residential","sort_rank":380,"kind_detail":"primary","min_zoom":8.0},"arcs":[28]},{"type":"MultiLineString","properties":{"kind":"major_road","network":"ru:national","sort_rank":381,"kind_detail":"trunk","source":"openstreetmap.org","min_zoom":8.0,"shield_text":"217","ref":"\u0420-217"},"arcs":[[29],[30],[31],[32],[33],[34]]},{"type":"MultiLineString","properties":{"kind":"major_road","network":"ru:national","sort_rank":381,"kind_detail":"trunk","source":"openstreetmap.org","min_zoom":8.0,"landuse_kind":"residential","shield_text":"217","ref":"\u0420-217"},"arcs":[[35],[36],[37],[38],[39],[40]]},{"type":"LineString","properties":{"kind":"major_road","name:en":"S. D. Kurbanova Street","sort_rank":380,"kind_detail":"primary","name:de":"uliza S. D. Kurbanowa","source":"openstreetmap.org","min_zoom":8.0,"name:az":"S. D. Qurbanov k\u00fc\u00e7\u0259si","old_name":"\u0443\u043b\u0438\u0446\u0430 \u041a\u043e\u043c\u043c\u0443\u043d\u0430\u0440\u043e\u0432","landuse_kind":"residential","id":383057269},"arcs":[41]}]},"earth":{"type":"GeometryCollection","geometries":[{"type":"Polygon","properties":{"sort_rank":10,"source":"naturalearthdata.com","kind":"earth","min_zoom":0.0,"id":4743},"arcs":[[42]]}]},"landuse":{"type":"GeometryCollection","geometries":[{"type":"MultiPolygon","properties":{"source":"naturalearthdata.com","kind":"urban_area","name":"","area":553119933,"sort_rank":11,"min_zoom":4.0},"arcs":[[[43]],[[44]]]},{"type":"MultiPolygon","properties":{"source":"openstreetmap.org","kind":"residential","tier":2,"area":128364488,"sort_rank":20,"min_zoom":8.0},"arcs":[[[45]],[[46]],[[47]]]}]}},"type":"Topology","transform":{"translate":[47.8125,42.0329743324],"scale":[0.0003433228,0.0002529086]},"arcs":[[[2596,0],[-54,73],[-373,354],[-111,280],[-234,316],[-294,536],[-339,375],[-99,156],[-196,485],[-396,583],[-55,328],[-85,200],[-94,136],[-266,246]],[[1402,172],[-123,132],[-302,120],[-107,107],[-165,307],[-260,752],[-222,394],[-78,221],[-145,38]],[[1479,0],[-12,30]],[[1480,0],[-124,243],[-116,82],[-263,99],[-107,107],[-165,307],[-260,752],[-222,394],[-78,221],[-145,38]],[[1402,172],[-123,132],[-302,120],[-107,107],[-165,307],[-260,752],[-222,394],[-78,221],[-145,38]],[[1479,0],[-12,30]],[[1480,0],[-124,243],[-116,82],[-263,99],[-107,107],[-165,307],[-260,752],[-222,394],[-78,221],[-145,38]],[[1480,0],[-124,243],[-116,82],[-263,99],[-107,107],[-165,307],[-260,752],[-222,394],[-78,221],[-145,38]],[[1503,0],[-10,23],[-28,85],[-11,86],[-22,82],[-52,71],[-107,102],[-79,113],[-368,691],[-50,51],[-161,119],[-89,106],[-159,243],[-206,409],[-88,80],[-73,37],[0,1798],[4096,0],[0,-4096],[-2593,0]],[[0,2298],[73,-37],[88,-80],[206,-409],[159,-243],[89,-106],[161,-119],[50,-51],[368,-691],[79,-113],[107,-102],[52,-71],[22,-82],[11,-86],[28,-85],[10,-23]],[[7,2198],[116,-95],[32,-60]],[[164,2026],[6,-12]],[[207,1944],[61,-119]],[[671,746],[176,-223]],[[930,417],[91,-81]],[[1151,273],[168,-89]],[[1350,106],[-30,74]],[[1319,184],[61,-51]],[[1380,133],[2,-1]],[[1383,133],[-3,0]],[[1383,130],[1,-3]],[[1384,127],[0,3]],[[1384,127],[10,-26]],[[1386,95],[17,-85]],[[1319,184]],[[397,1374],[-1,-1]],[[397,1372],[1,0]],[[1389,99],[-3,-4]],[[1385,130],[0,2],[-3,1],[1,-3],[2,0]],[[0,2200],[7,-2]],[[170,2014],[37,-70]],[[268,1825],[117,-302],[12,-148]],[[398,1369],[25,-137],[195,-418],[53,-68]],[[847,523],[83,-106]],[[397,1372],[1,1],[-1,1],[-1,-2],[1,0]],[[155,2043],[9,-17]],[[1021,336],[130,-63]],[[1320,180],[-1,4]],[[1397,18],[-47,88]],[[1397,18],[7,-12]],[[1404,6],[2,-6]],[[1394,101],[-5,-2]],[[0,2298],[73,-37],[88,-80],[206,-409],[159,-243],[89,-106],[161,-119],[50,-51],[368,-691],[79,-113],[107,-102],[52,-71],[22,-82],[11,-86],[28,-85],[10,-23],[-1503,0],[0,2298]],[[1500,0],[-202,0],[-97,175],[-52,-5],[-12,49],[-65,0],[0,44],[-122,10],[-40,34],[32,175],[-48,40],[-178,4],[-46,123],[-51,9],[65,110],[0,66],[39,-24],[58,-152],[35,-12],[127,57],[32,-132],[33,0],[32,-88],[65,0],[64,-88],[87,-43],[85,32],[91,-108],[68,-276]],[[298,1820],[-87,16],[-43,50],[46,67],[-113,155],[-101,55],[23,124],[138,-106],[175,-347],[-38,-14]],[[1438,0],[-42,0],[-55,75],[10,33],[-32,76],[31,25],[-32,73],[29,37],[44,-31],[-9,-26],[114,-262],[-28,0],[-22,49],[-36,3],[-1,-46],[29,-6]],[[1019,334],[50,50],[121,-51],[-43,-66],[12,-14],[-46,-27],[4,50],[-69,8],[10,20],[-39,30]],[[23,2209],[110,23],[55,-37],[37,-163],[34,-41],[2,60],[18,-100],[-39,10],[-5,39],[-58,40],[-14,-15],[-40,84],[-100,100]]]}