{"objects":{"water":{"type":"GeometryCollection","geometries":[]},"buildings":{"type":"GeometryCollection","geometries":[]},"places":{"type":"GeometryCollection","geometries":[{"type":"Point","properties":{"name:ty":"\u2019In\u012btia","name:ka":"\u10d8\u10dc\u10d3\u10dd\u10d4\u10d7\u10d8","name:ko":"\uc778\ub3c4","name:cv":"\u0418\u043d\u0434\u0438","name:km":"\u17a5\u178e\u17d2\u178c\u17b6","name:cs":"Indie","name:tt":"\u04ba\u0438\u043d\u0434\u0441\u0442\u0430\u043d","name:kw":"Eynda","name:kv":"\u0418\u043d\u0434\u0438\u044f","name:ku":"Hindistan","name:ti":"\u1205\u1295\u12f5","name:ks":"\u06c1\u0650\u0646\u065b\u062f\u0648\u0633\u062a\u0627\u0646","name:to":"\u02bbInitia","name:tl":"Indya","name:ce":"\u0418\u043d\u0434\u0438","name:ta":"\u0b87\u0ba8\u0bcd\u0ba4\u0bbf\u0baf\u0bbe","name:tg":"\u04b2\u0438\u043d\u0434\u0443\u0441\u0442\u043e\u043d","name:ca":"\u00cdndia","name:te":"\u0c2d\u0c3e\u0c30\u0c24 \u0c26\u0c47\u0c36\u0c02","name:hr":"Indija","name:da":"Indien","name:de":"Indien","name:dz":"\u0f62\u0f92\u0fb1\u0f0b\u0f42\u0f62","source":"openstreetmap.org","name:kn":"\u0cad\u0cbe\u0cb0\u0ca4","name:dv":"\u0787\u07a8\u0782\u07b0\u0791\u07a8\u0794\u07a7","name:lv":"Indija","name:lt":"Indija","name:uz":"Hindiston","name:kk":"\u04ae\u043d\u0434\u0456\u0441\u0442\u0430\u043d","name:ur":"\u0628\u06be\u0627\u0631\u062a","name:lb":"Indien","name:lg":"Buyindi","name:uk":"\u0406\u043d\u0434\u0456\u044f","name:ug":"\u06be\u0649\u0646\u062f\u0649\u0633\u062a\u0627\u0646","name:ln":"\u00cdnd\u025b","name:lo":"\u0ead\u0eb4\u0e99\u0ec0\u0e94\u0e8d","name:el":"\u0399\u03bd\u03b4\u03af\u03b1","name:eo":"Barato","name":"India","name:tk":"Hindistan","name:ee":"India nutome","name:th":"\u0e1b\u0e23\u0e30\u0e40\u0e17\u0e28\u0e2d\u0e34\u0e19\u0e40\u0e14\u0e35\u0e22","name:ay":"Indya","name:rn":"Ubuhindi","name:az":"Hindistan","name:ig":"Ndia","name:ii":"\ua474\ua117","name:as":"\u09ad\u09be\u09f0\u09a4","name:ar":"\u0627\u0644\u0647\u0646\u062f","name:av":"\u0425\u0438\u043d\u0434\u0438\u0441\u0442\u0430\u043d","name:is":"Indland","name:am":"\u1205\u1295\u12f5","name:ru":"\u0418\u043d\u0434\u0438\u044f","name:rw":"Ubuhinde","name:af":"Indi\u00eb","name:zu":"i-India","name:za":"Yindu","name:zh-yue":"\u5370\u5ea6","name:zh":"\u5370\u5ea6","name:so":"Hindiya","name:sm":"Igitia","name:sl":"Indija","name:ja":"\u30a4\u30f3\u30c9","name:si":"\u0d89\u0db1\u0dca\u0daf\u0dd2\u0dba\u0dcf\u0dc0","name:sh":"Indija","name:sg":"\u00cannde","name:sd":"\u0680\u0627\u0631\u062a","name:sc":"\u00ccndia","name:sa":"\u092d\u093e\u0930\u0924\u092e\u094d","name:bs":"Indija","name:bm":"\u0190ndujamana","name:bn":"\u09ad\u09be\u09b0\u09a4","name:bo":"\u0f62\u0f92\u0fb1\u0f0b\u0f42\u0f62\u0f0b","name:sw":"Uhindi","name:be":"\u0406\u043d\u0434\u044b\u044f","name:bg":"\u0418\u043d\u0434\u0438\u044f","name:ss":"INdiya","name:ba":"\u04ba\u0438\u043d\u0434\u043e\u0441\u0442\u0430\u043d","name:sq":"Indi","name:pt":"\u00cdndia","name:ps":"\u0647\u0646\u062f","name:oc":"\u00cdndia","min_zoom":2.0,"name:zh-min-nan":"\u00ccn-t\u014d\u0358","name:os":"\u0418\u043d\u0434\u0438","name:or":"\u0b2d\u0b3e\u0b30\u0b24","name:pl":"Indie","name:pi":"\u092d\u093e\u0930\u0924","name:sr":"\u0418\u043d\u0434\u0438\u0458\u0430","name:pa":"\u0a2d\u0a3e\u0a30\u0a24","name:tr":"Hindistan","name:hi":"\u092d\u093e\u0930\u0924","name:sv":"Indien","name:he":"\u05d4\u05d5\u05d3\u05d5","name:ha":"Indiya","name:hy":"\u0540\u0576\u0564\u056f\u0561\u057d\u057f\u0561\u0576","name:ht":"End","name:qu":"Indya","population":1145587234,"kind":"country","name:yi":"\u05d0\u05d9\u05e0\u05d3\u05d9\u05e2","name:iu":"\u1403\u14d0\u144e\u140a\/intia","name:yo":"Or\u00edl\u1eb9\u0301\u00e8de India","name:mt":"Indja","alt_name:eo":"Hindujo;Hindio;Hinda Unio","name:mr":"\u092d\u093e\u0930\u0924","name:my":"\u1021\u102d\u1014\u1039\u1012\u102d\u101a","official_name":"\u092d\u093e\u0930\u0924 \u0917\u0923\u0930\u093e\u091c\u094d\u092f","name:mg":"Indy","name:ml":"\u0d07\u0d28\u0d4d\u0d24\u0d4d\u0d2f","name:vi":"\u1ea4n \u0110\u1ed9","name:mn":"\u042d\u043d\u044d\u0442\u0445\u044d\u0433","name:mi":"\u012ania","id":424314145,"name:mk":"\u0418\u043d\u0434\u0438\u0458\u0430","name:vo":"Lind\u00e4n","name:fa":"\u0647\u0646\u062f","name:ff":"Enndo","name:fi":"Intia","name:ky":"\u0418\u043d\u0434\u0438\u044f","name:fr":"Inde","name:fy":"Yndia","name:na":"Indjiya","name:ne":"\u092d\u093e\u0930\u0924","name:wa":"Inde","name:wo":"End","name:nv":"T\u00f3 W\u00f3naan\u00edd\u0119\u0301\u0119\u0301\u02bc Bits\u012f\u02bc Yisht\u0142izhii Bik\u00e9yah","name:ga":"An India","name:gd":"Na h-Innseachan","name:gl":"India - \u092d\u093e\u0930\u0924","name:gv":"Yn Injey","name:gu":"\u0aad\u0abe\u0ab0\u0aa4"},"coordinates":[3856,1287]},{"type":"Point","properties":{"source":"openstreetmap.org","kind":"locality","name":"Soghagpur","kind_detail":"town","population":10000,"min_zoom":8.0,"id":245708839},"coordinates":[2483,2386]},{"type":"Point","properties":{"source":"openstreetmap.org","kind":"locality","name":"Seoni Malwa","kind_detail":"town","population":10000,"min_zoom":8.0,"id":2046851906},"coordinates":[358,1606]},{"type":"Point","properties":{"source":"openstreetmap.org","kind":"locality","name":"Itarsi","kind_detail":"town","population":10000,"min_zoom":8.0,"id":2046843969},"coordinates":[1220,2112]},{"type":"Point","properties":{"source":"openstreetmap.org","kind":"locality","name":"Pipariya","kind_detail":"town","population":10000,"min_zoom":8.0,"id":245709458},"coordinates":[2929,2585]},{"type":"Point","properties":{"source":"openstreetmap.org","kind":"locality","name":"Hoshangabad","kind_detail":"town","population":10000,"min_zoom":8.0,"id":2041145739},"coordinates":[1095,2560]},{"type":"Point","properties":{"source":"openstreetmap.org","kind":"locality","name":"Bari","kind_detail":"town","population":5000,"min_zoom":8.0,"id":245711263},"coordinates":[2132,3440]},{"type":"Point","properties":{"source":"openstreetmap.org","kind":"locality","name":"Bareli","kind_detail":"town","population":5000,"min_zoom":8.0,"id":2194902700},"coordinates":[2583,3348]},{"type":"Point","properties":{"source":"openstreetmap.org","kind":"locality","name":"Shahpur","kind_detail":"town","population":5000,"min_zoom":8.0,"id":2159535594},"coordinates":[1635,791]},{"type":"Point","properties":{"source":"openstreetmap.org","kind":"locality","name":"Bankheri","kind_detail":"town","population":5000,"min_zoom":8.0,"id":245709447},"coordinates":[3467,2613]},{"type":"Point","properties":{"source":"openstreetmap.org","kind":"locality","name":"Budhni","kind_detail":"town","population":1000,"min_zoom":8.0,"id":3401466806},"coordinates":[988,2655]},{"type":"Point","properties":{"source":"openstreetmap.org","kind":"locality","name":"Jinnaurdeo","kind_detail":"town","population":1000,"min_zoom":8.0,"id":245702909},"coordinates":[3643,795]},{"type":"Point","properties":{"kind":"locality","name":"Pachmarhi","name:hi":"\u092a\u091a\u092e\u095d\u0940","kind_detail":"town","source":"openstreetmap.org","min_zoom":8.0,"id":2213255853,"population":1000},"coordinates":[3182,1674]}]},"transit":{"type":"GeometryCollection","geometries":[]},"pois":{"type":"GeometryCollection","geometries":[{"type":"Point","properties":{"source":"openstreetmap.org","kind":"museum","name":"Indira Gandhi Rashtriya Manav Sangrahalaya","area":1175720,"min_zoom":8.6,"id":377970683},"coordinates":[101,4068]}]},"boundaries":{"type":"GeometryCollection","geometries":[]},"roads":{"type":"GeometryCollection","geometries":[{"type":"MultiLineString","properties":{"sort_rank":380,"kind_detail":"primary","min_zoom":8.0,"kind":"major_road","source":"openstreetmap.org"},"arcs":[[0],[1]]},{"type":"MultiLineString","properties":{"kind":"major_road","network":"IN:NH","sort_rank":381,"landuse_kind":"urban_area","source":"openstreetmap.org","min_zoom":8.0,"kind_detail":"trunk","shield_text":null,"ref":"NH46"},"arcs":[[2],[3]]},{"type":"LineString","properties":{"kind":"major_road","network":"IN:SH:MP","sort_rank":380,"kind_detail":"primary","source":"openstreetmap.org","min_zoom":8.0,"landuse_kind":"urban_area","shield_text":"15","ref":"SH22","id":22865846},"arcs":[4]},{"type":"LineString","properties":{"kind":"major_road","network":"IN:NH","sort_rank":381,"kind_detail":"trunk","source":"openstreetmap.org","min_zoom":8.0,"shield_text":"146B","ref":"NH146B"},"arcs":[5]},{"type":"MultiLineString","properties":{"kind":"major_road","network":"IN:NH","sort_rank":381,"kind_detail":"trunk","source":"openstreetmap.org","min_zoom":8.0,"shield_text":"46","ref":"NH46"},"arcs":[[6],[7]]},{"type":"LineString","properties":{"kind":"major_road","network":"IN:NH","sort_rank":381,"kind_detail":"trunk","source":"openstreetmap.org","min_zoom":8.0,"shield_text":null,"ref":"NH347"},"arcs":[8]},{"type":"MultiLineString","properties":{"source":"openstreetmap.org","kind":"major_road","landuse_kind":"urban_area","sort_rank":380,"kind_detail":"primary","min_zoom":8.0},"arcs":[[9],[10],[11],[12],[13],[14],[15],[16],[17],[18],[19],[20],[21],[22],[23],[24],[25],[26],[27],[28],[29],[30],[31],[32],[33],[34],[35],[36],[37],[38],[39],[40],[41],[42],[43],[44],[45]]},{"type":"LineString","properties":{"kind":"major_road","network":"IN:SH:MP","sort_rank":380,"kind_detail":"primary","source":"openstreetmap.org","min_zoom":8.0,"landuse_kind":"urban_area","shield_text":"22","ref":"SH22"},"arcs":[46]},{"type":"MultiLineString","properties":{"kind":"major_road","network":"IN:NH","sort_rank":381,"landuse_kind":"urban_area","source":"openstreetmap.org","min_zoom":8.0,"kind_detail":"trunk","shield_text":"46","ref":"NH46"},"arcs":[[47],[48]]},{"type":"MultiLineString","properties":{"kind":"major_road","network":"IN:SH:MP","sort_rank":380,"kind_detail":"primary","source":"openstreetmap.org","min_zoom":8.0,"landuse_kind":"urban_area","shield_text":"15","ref":"SH15"},"arcs":[[49],[50]]},{"type":"LineString","properties":{"kind":"major_road","network":"IN:NH","sort_rank":381,"kind_detail":"trunk","source":"openstreetmap.org","min_zoom":8.0,"shield_text":null,"ref":"NH45"},"arcs":[51]},{"type":"MultiLineString","properties":{"kind":"major_road","network":"IN:SH:MP","sort_rank":380,"kind_detail":"primary","source":"openstreetmap.org","min_zoom":8.0,"shield_text":"19","ref":"SH19"},"arcs":[[52],[53]]},{"type":"MultiLineString","properties":{"source":"openstreetmap.org","kind":"major_road","network":"IN:NH","sort_rank":380,"kind_detail":"primary","min_zoom":8.0,"shield_text":null},"arcs":[[54],[55]]},{"type":"MultiLineString","properties":{"source":"openstreetmap.org","kind":"major_road","sort_rank":381,"kind_detail":"trunk","ref":"NH12","min_zoom":8.0},"arcs":[[56],[57]]},{"type":"LineString","properties":{"kind":"major_road","network":"IN:SH:MP","sort_rank":380,"kind_detail":"primary","source":"openstreetmap.org","min_zoom":8.0,"shield_text":"19A","ref":"SH19A"},"arcs":[58]},{"type":"LineString","properties":{"source":"openstreetmap.org","kind":"major_road","sort_rank":380,"kind_detail":"primary","ref":"SH19","min_zoom":8.0,"id":440544230},"arcs":[59]},{"type":"LineString","properties":{"kind":"major_road","network":"IN:NH","sort_rank":381,"kind_detail":"trunk","source":"openstreetmap.org","min_zoom":8.0,"landuse_kind":"residential","shield_text":null,"ref":"NH46"},"arcs":[60]},{"type":"LineString","properties":{"source":"openstreetmap.org","kind":"major_road","sort_rank":380,"kind_detail":"primary","ref":"SH43","min_zoom":8.0},"arcs":[61]},{"type":"MultiLineString","properties":{"kind":"major_road","network":"IN:SH:MP","sort_rank":380,"kind_detail":"primary","source":"openstreetmap.org","min_zoom":8.0,"shield_text":"44","ref":"SH44"},"arcs":[[62],[63]]},{"type":"MultiLineString","properties":{"kind":"major_road","network":"IN:SH:MP","sort_rank":380,"kind_detail":"primary","source":"openstreetmap.org","min_zoom":8.0,"shield_text":"15","ref":"SH15"},"arcs":[[64],[65],[66],[67]]},{"type":"LineString","properties":{"kind":"major_road","network":"IN:SH:MP","sort_rank":380,"kind_detail":"primary","source":"openstreetmap.org","min_zoom":8.0,"shield_text":"22","ref":"SH22"},"arcs":[68]},{"type":"MultiLineString","properties":{"kind":"major_road","network":"IN:NH","sort_rank":380,"kind_detail":"primary","source":"openstreetmap.org","min_zoom":8.0,"landuse_kind":"urban_area","shield_text":null},"arcs":[[69],[70],[71],[72],[73],[74]]},{"type":"LineString","properties":{"kind":"major_road","network":"IN:NH","sort_rank":381,"kind_detail":"trunk","source":"openstreetmap.org","min_zoom":8.0,"shield_text":"47","osm_relation":true},"arcs":[75]},{"type":"MultiLineString","properties":{"kind":"major_road","network":"IN:NH","sort_rank":381,"kind_detail":"trunk","source":"openstreetmap.org","min_zoom":8.0,"shield_text":null,"ref":"NH46"},"arcs":[[76],[77],[78],[79]]},{"type":"LineString","properties":{"kind":"major_road","network":"IN:NH","sort_rank":381,"kind_detail":"trunk","source":"openstreetmap.org","min_zoom":8.0,"shield_text":null,"ref":"NH12","id":240745681},"arcs":[80]},{"type":"LineString","properties":{"kind":"major_road","network":"IN:NH","sort_rank":381,"kind_detail":"trunk","source":"openstreetmap.org","min_zoom":8.0,"shield_text":null,"ref":"NH47"},"arcs":[81]}]},"earth":{"type":"GeometryCollection","geometries":[{"type":"Polygon","properties":{"sort_rank":10,"source":"naturalearthdata.com","kind":"earth","min_zoom":0.0,"id":4719},"arcs":[[82]]}]},"landuse":{"type":"GeometryCollection","geometries":[{"type":"MultiPolygon","properties":{"source":"openstreetmap.org","kind":"residential","tier":2,"area":28023966,"sort_rank":20,"min_zoom":8.0},"arcs":[[[83]]]},{"type":"MultiPolygon","properties":{"source":"naturalearthdata.com","kind":"urban_area","name":"","area":642940237,"sort_rank":11,"min_zoom":4.0},"arcs":[[[84]],[[85]],[[86]]]}]}},"type":"Topology","transform":{"translate":[77.34375,21.9430455334],"scale":[0.0003433228,0.0003169679]},"arcs":[[[0,3945],[62,32]],[[312,3936],[64,-107]],[[520,3621],[-78,117]],[[1097,2528],[-90,36]],[[1092,2539],[0,3]],[[973,2624],[-73,-20],[-112,16],[-113,-101],[-119,-53],[-97,-5],[-147,94],[-89,-104],[-177,-24],[-46,-14]],[[409,3781],[76,63],[3,171]],[[488,4016],[0,-88],[-1,-67],[-2,-17],[0,-2],[-32,-32],[-43,-30]],[[3942,0],[154,64]],[[97,3993],[-35,-16]],[[105,4013],[-8,-20]],[[97,3993],[4,14],[3,6]],[[105,4014],[0,1]],[[131,4052],[-26,-37]],[[105,4015],[0,-1]],[[105,4013],[-1,0]],[[104,4013],[1,1]],[[105,4014],[0,-1]],[[131,4053],[36,31]],[[218,4064],[-50,6],[-1,14],[-36,-31]],[[167,4084],[-7,12]],[[161,4096],[6,-12]],[[167,4084],[1,-14]],[[168,4070]],[[168,4070]],[[168,4070],[50,-5]],[[259,4064],[-41,0]],[[218,4065],[40,-1]],[[285,4071],[-14,25]],[[294,3991],[-9,16],[-2,9],[-11,24]],[[272,4040],[-4,6],[0,1],[-9,17]],[[259,4064],[10,-17],[14,-31],[2,-9],[6,-8],[3,-8]],[[270,4039],[1,1]],[[271,4039],[1,1]],[[272,4040]],[[286,4017],[-1,53]],[[290,4002],[-4,14]],[[131,4053]],[[131,4053],[0,-1]],[[131,4052],[0,1]],[[167,4084]],[[217,4064],[1,1],[1,-1],[-1,0],[-1,0]],[[258,4064],[0,1],[1,-1],[-1,0]],[[285,4071]],[[285,4071],[1,0],[-1,-1],[0,1]],[[286,4016],[0,1],[0,-1]],[[1092,2542],[48,-5]],[[488,4096],[0,-80]],[[488,4015],[-1,81]],[[1071,2525],[21,17]],[[1091,2634],[55,-4]],[[4096,3770],[-83,-31],[-84,14],[-326,-160],[-199,-36],[-121,82],[-209,44],[-238,-48],[-286,-342],[-87,4],[-326,136],[-37,6],[-39,-47],[-11,37],[-19,-24],[-29,19],[-66,-22],[-82,15],[-59,77],[19,69],[-37,75],[-165,29],[-65,-25],[-113,8],[-172,-93],[-45,9],[-330,-201],[-173,-43]],[[1734,4096],[11,-54],[43,-42],[-6,-173],[-54,-42],[-69,-121]],[[2936,2605],[24,-41],[-18,-83],[45,-152],[85,-157],[65,-53],[73,-12],[36,-54],[169,8],[11,-68],[43,2],[27,-57],[90,-56],[12,-98],[56,-48],[-3,-61],[79,-245],[-17,-91],[74,-41],[-38,-32],[186,0],[30,-32],[-9,-105],[46,-27],[18,-88],[53,-5],[9,-127]],[[306,3954],[6,-18]],[[409,3782],[-99,173]],[[409,3782],[1,0]],[[411,3782],[-2,-1]],[[3246,2053],[68,-81],[-4,-55],[30,-23],[-183,-55],[80,-77],[-22,-8],[5,-47],[-69,-63],[-16,-144]],[[4096,828],[-14,54]],[[1278,2066],[-33,95]],[[1664,0],[64,108],[91,40],[170,188],[14,175],[-42,69],[314,-2],[148,-65],[81,22],[34,-33],[70,0],[104,56],[65,88],[394,38],[43,76],[54,22],[130,-17],[47,41],[90,-7],[42,-29],[126,31],[37,-30],[150,-3],[68,60],[17,-53],[121,11]],[[3377,3582],[22,20],[-5,243],[41,95],[-19,119],[-36,37]],[[3404,3557],[-15,-43],[50,-203],[60,-23],[88,-81],[312,-131],[137,-17]],[[0,1475],[307,103],[78,-9],[66,130],[153,96],[12,83],[108,47],[130,118],[58,130],[116,142],[43,210]],[[1041,2707],[50,-73]],[[1146,2630],[115,82],[-7,62],[106,142],[92,59],[453,15],[226,221],[6,222]],[[2893,3642],[-125,199],[-32,104],[102,61],[242,90]],[[1140,2537],[284,-126],[740,-54],[319,32],[191,227],[246,-27],[158,27],[362,-14],[148,111],[83,104],[123,43],[158,133],[79,32],[5,34],[60,-5]],[[272,4096],[13,-25]],[[286,4017],[-1,54]],[[286,4016],[4,-13],[1,-4]],[[291,3999],[15,-45]],[[310,3955],[-19,44]],[[291,3999],[-1,3]],[[1087,0],[-24,86],[-174,184],[-223,129],[-117,-5],[-81,74],[-5,42],[-24,11],[12,135],[41,109],[-72,17],[-78,-30],[-69,9],[-148,245],[-67,52],[-54,-19],[-4,7]],[[442,3738],[-33,43]],[[1007,2564],[-34,60],[23,64],[45,19],[-134,160],[-27,296],[-110,70],[-250,388]],[[1245,2161],[-57,185],[-91,182]],[[1536,0],[-22,339],[120,458],[-34,173],[-77,112],[-71,390],[-8,217],[-45,146],[-121,231]],[[409,3781],[0,1]],[[1087,0],[-24,86],[-215,205],[-182,108],[-117,-5],[-64,56],[-46,71],[12,135],[42,109],[-73,17],[-128,-31],[-167,255],[-61,47],[-61,-13],[-3,5]],[[4096,4096],[0,-4096],[-4096,0],[0,4096],[4096,0]],[[1168,2087],[27,18],[-5,38],[27,22],[27,-11],[5,29],[19,-79],[21,-6],[-9,-32],[-55,-11],[-14,32],[-34,-26],[-9,26]],[[1071,2525],[-64,38],[-8,71],[145,0],[17,-35],[-22,-67],[-68,-7]],[[676,3791],[-32,-97],[-70,-57],[-190,-56],[65,175],[97,-35],[0,105],[130,-35]],[[78,4096],[436,0],[0,-25],[-65,-140],[-97,35],[-130,-35],[-32,35],[-125,9],[-37,26],[2,42],[49,34],[-1,19]]]}