{"objects":{"water":{"type":"GeometryCollection","geometries":[{"type":"MultiPolygon","properties":{"source":"naturalearthdata.com","kind":"ocean","area":1576712559132672,"sort_rank":200,"min_zoom":0.0,"id":1},"arcs":[[[12]]]},{"type":"LineString","properties":{"source":"naturalearthdata.com","kind":"ocean","sort_rank":205,"boundary":true,"min_zoom":0.0,"id":78},"arcs":[13]}]},"buildings":{"type":"GeometryCollection","geometries":[]},"places":{"type":"GeometryCollection","geometries":[{"type":"Point","properties":{"kind":"locality","name":"Tirunelveli","name:lt":"Tirunelvelis","kind_detail":"city","source":"openstreetmap.org","min_zoom":8.0,"name:kn":"\u0ca4\u0cbf\u0cb0\u0cc1\u0ca8\u0cc6\u0cb2\u0ccd\u0cb5\u0cc7\u0cb2\u0cbf","population":100000,"name:ta":"\u0ba4\u0bbf\u0bb0\u0bc1\u0ba8\u0bc6\u0bb2\u0bcd\u0bb5\u0bc7\u0bb2\u0bbf","id":245581857,"name:ja":"\u30c6\u30a3\u30eb\u30cd\u30eb\u30f4\u30a7\u30fc\u30ea"},"coordinates":[995,951]},{"type":"Point","properties":{"name:ja":"\u30c8\u30a5\u30fc\u30c6\u30a3\u30b3\u30fc\u30ea\u30f3","name:hi":"\u0924\u0942\u0924\u0941\u0915\u0941\u0921\u0940","name:kn":"\u0ca4\u0cc2\u0ca4\u0ccd\u0ca4\u0cc1\u0c95\u0ccd\u0c95\u0cc1\u0ca1\u0cbf","min_zoom":8.0,"name:uk":"\u0422\u0443\u0442\u0456\u043a\u043e\u0440\u0456\u043d","name:ml":"\u0d24\u0d42\u0d24\u0d4d\u0d24\u0d41\u0d15\u0d4d\u0d15\u0d41\u0d1f\u0d3f","name:ru":"\u0422\u0443\u0442\u0438\u043a\u043e\u0440\u0438\u043d","name:ta":"\u0ba4\u0bc2\u0ba4\u0bcd\u0ba4\u0bc1\u0b95\u0bcd\u0b95\u0bc1\u0b9f\u0bbf","id":245581933,"population":100000,"kind":"locality","name":"Thoothukudi","kind_detail":"city","alt_name:ja":"\u30c8\u30a5\u30fc\u30c3\u30c8\u30a5\u30c3\u30af\u30c7\u30a3","source":"openstreetmap.org","name:zh":"\u675c\u8482\u6208\u6797"},"coordinates":[2335,1175]},{"type":"Point","properties":{"kind":"locality","name":"Palayamkottai","kind_detail":"town","source":"openstreetmap.org","min_zoom":8.0,"name:ta":"\u0baa\u0bbe\u0bb3\u0bc8\u0baf\u0b99\u0bcd\u0b95\u0bcb\u0b9f\u0bcd\u0b9f\u0bc8","id":3421197613,"population":100000},"coordinates":[1157,910]},{"type":"Point","properties":{"kind":"locality","name":"Kovilpatti","kind_detail":"town","source":"openstreetmap.org","min_zoom":8.0,"name:kn":"\u0c95\u0ccb\u0cb5\u0cbf\u0cb2\u0ccd\u0caa\u0c9f\u0ccd\u0c9f\u0cbf","name:ta":"\u0b95\u0bcb\u0bb5\u0bbf\u0bb2\u0bcd\u0baa\u0bcd\u0baa\u0b9f\u0bcd\u0b9f\u0bbf","id":3866823157,"population":95000},"coordinates":[1529,2267]},{"type":"Point","properties":{"kind":"locality","name":"Rajapalaiyam","kind_detail":"town","source":"openstreetmap.org","min_zoom":8.0,"name:kn":"\u0cb0\u0cbe\u0c9c\u0caa\u0cbe\u0cb3\u0ccd\u0caf\u0c82","name:ta":"\u0b87\u0bb0\u0bbe\u0b9c\u0baa\u0bbe\u0bb3\u0bc8\u0baf\u0bae\u0bcd","id":245584040,"population":50000},"coordinates":[613,3063]},{"type":"Point","properties":{"admin_level":"6","kind":"locality","name":"Paramakkudi","kind_detail":"town","source":"openstreetmap.org","min_zoom":8.0,"name:kn":"\u0caa\u0cb0\u0cae\u0c95\u0cc1\u0ca1\u0cbf","name:ta":"\u0baa\u0bb0\u0bae\u0b95\u0bcd\u0b95\u0bc1\u0b9f\u0bbf","id":4708946777,"population":10000},"coordinates":[3636,3345]},{"type":"Point","properties":{"kind":"locality","name":"Nazareth","kind_detail":"town","source":"openstreetmap.org","min_zoom":8.0,"name:ta":"\u0ba8\u0bbe\u0b9a\u0bb0\u0bc6\u0ba4\u0bcd","id":245581609,"population":10000},"coordinates":[1830,451]},{"type":"Point","properties":{"kind":"locality","name":"Ambasamudram","kind_detail":"town","source":"openstreetmap.org","min_zoom":8.0,"name:ta":"\u0b85\u0bae\u0bcd\u0baa\u0bbe\u0b9a\u0bae\u0bc1\u0ba4\u0bcd\u0ba4\u0bbf\u0bb0\u0bae\u0bcd","id":979026871,"population":10000},"coordinates":[285,880]},{"type":"Point","properties":{"source":"openstreetmap.org","kind":"locality","name":"Ettaiyapuram","kind_detail":"town","population":10000,"min_zoom":8.0,"id":245582795},"coordinates":[1903,2187]},{"type":"Point","properties":{"source":"openstreetmap.org","kind":"locality","name":"Srivilliputtur","kind_detail":"town","population":10000,"min_zoom":8.0,"id":4920901964},"coordinates":[844,3248]},{"type":"Point","properties":{"kind":"locality","name":"Aruppukkottai","kind_detail":"town","source":"openstreetmap.org","min_zoom":8.0,"population":10000,"name:ta":"\u0b85\u0bb0\u0bc1\u0baa\u0bcd\u0baa\u0bc1\u0b95\u0bcd\u0b95\u0bc7\u0bbe\u0b9f\u0bcd\u0b9f\u0bc8","id":245584138,"name:ja":"\u30a2\u30eb\u30c3\u30d7\u30c3\u30b3\u30fc\u30c3\u30bf\u30a4"},"coordinates":[2191,3246]},{"type":"Point","properties":{"kind":"locality","name":"Kayalpattinam","kind_detail":"town","source":"openstreetmap.org","min_zoom":8.0,"name:ta":"\u0b95\u0bbe\u0baf\u0bb2\u0bcd\u0baa\u0b9f\u0bcd\u0b9f\u0bbf\u0ba9\u0bae\u0bcd","id":3421197610,"population":10000},"coordinates":[2284,461]},{"type":"Point","properties":{"kind":"locality","name":"Tiruchchendur","kind_detail":"town","source":"openstreetmap.org","min_zoom":8.0,"name:ta":"\u0ba4\u0bbf\u0bb0\u0bc1\u0b9a\u0bcd\u0b9a\u0bc6\u0ba8\u0bcd\u0ba4\u0bc2\u0bb0\u0bcd","id":3421197615,"population":10000},"coordinates":[2271,261]},{"type":"Point","properties":{"source":"openstreetmap.org","kind":"locality","name":"Kallidaikurichchi","kind_detail":"town","population":10000,"min_zoom":8.0,"id":1706649882},"coordinates":[350,815]},{"type":"Point","properties":{"kind":"locality","name":"Virudhunagar","kind_detail":"town","source":"openstreetmap.org","min_zoom":8.0,"name:kn":"\u0cb5\u0cbf\u0cb0\u0cc1\u0ca7\u0cc1\u0ca8\u0c97","name:ta":"\u0bb5\u0bbf\u0bb0\u0bc1\u0ba4\u0bc1\u0ba8\u0b95\u0bb0\u0bcd","id":245584469,"population":10000},"coordinates":[1777,3466]},{"type":"Point","properties":{"source":"openstreetmap.org","kind":"locality","name":"Puliyangudi","kind_detail":"town","population":10000,"min_zoom":8.0,"id":245583048},"coordinates":[155,2267]},{"type":"Point","properties":{"kind":"locality","name":"Kamuthi","kind_detail":"town","source":"openstreetmap.org","min_zoom":8.0,"name:ta":"\u0b95\u0bae\u0bc1\u0ba4\u0bbf","id":2517558236,"population":10000},"coordinates":[2985,2954]},{"type":"Point","properties":{"source":"openstreetmap.org","kind":"locality","name":"Kadaiyanallur","kind_detail":"town","population":10000,"min_zoom":8.0,"id":2149339903},"coordinates":[7,1997]},{"type":"Point","properties":{"admin_level":"8","kind":"locality","name":"Nanguneri","kind_detail":"town","source":"openstreetmap.org","min_zoom":8.0,"name:ta":"\u0ba8\u0bbe\u0b99\u0bcd\u0b95\u0bc1\u0ba8\u0bc7\u0bb0\u0bbf","id":245581303,"population":5000},"coordinates":[920,242]},{"type":"Point","properties":{"kind":"locality","name":"Sivakasi","kind_detail":"town","source":"openstreetmap.org","min_zoom":8.0,"name:kn":"\u0cb6\u0cbf\u0cb5\u0c95\u0cbe\u0cb6\u0cbf","name:ta":"\u0b9a\u0bbf\u0bb5\u0b95\u0bbe\u0b9a\u0bbf","id":3415500140,"population":5000},"coordinates":[1322,3079]},{"type":"Point","properties":{"source":"openstreetmap.org","kind":"locality","name":"Vilattikulam","kind_detail":"town","population":5000,"min_zoom":8.0,"id":245582675},"coordinates":[2399,2135]},{"type":"Point","properties":{"kind":"locality","name":"Sattur","kind_detail":"town","source":"openstreetmap.org","min_zoom":8.0,"name:ta":"\u0b9a\u0bbe\u0ba4\u0bcd\u0ba4\u0bc2\u0bb0\u0bcd","id":245583914,"population":5000},"coordinates":[1681,2786]},{"type":"Point","properties":{"kind":"locality","name":"Kalugumalai","kind_detail":"town","source":"openstreetmap.org","min_zoom":8.0,"name:ta":"\u0b95\u0bb4\u0bc1\u0b95\u0bc1\u0bae\u0bb2\u0bc8","id":4722075244,"population":5000},"coordinates":[1044,2184]},{"type":"Point","properties":{"kind":"locality","name":"Manamadurai","kind_detail":"town","source":"openstreetmap.org","min_zoom":8.0,"name:kn":"\u0cae\u0ca8\u0cae\u0ca6\u0cc1\u0cb0\u0cc8","name:ta":"\u0bae\u0bbe\u0ba9\u0bbe\u0bae\u0ba4\u0bc1\u0bb0\u0bc8","id":245584682,"population":5000},"coordinates":[3228,3766]},{"type":"Point","properties":{"kind":"locality","name":"Peraiyur","kind_detail":"town","source":"openstreetmap.org","min_zoom":8.0,"name:ta":"\u0baa\u0bc7\u0bb0\u0bc8\u0baf\u0bc2\u0bb0\u0bcd","id":3464221908,"population":5000},"coordinates":[1304,3935]},{"type":"Point","properties":{"kind":"locality","name":"Srivaikuntam","kind_detail":"town","source":"openstreetmap.org","min_zoom":8.0,"name:ta":"\u0ba4\u0bbf\u0bb0\u0bc1\u0bb5\u0bc8\u0b95\u0bc1\u0ba3\u0bcd\u0b9f\u0bae\u0bcd","id":3931863594,"population":5000},"coordinates":[1653,662]},{"type":"Point","properties":{"kind":"locality","name":"Sankarankovil","kind_detail":"town","source":"openstreetmap.org","min_zoom":8.0,"name:ta":"\u0b9a\u0b99\u0bcd\u0b95\u0bb0\u0ba9\u0bcd\u0b95\u0bc7\u0bbe\u0bb5\u0bbf\u0bb2\u0bcd","id":245582958,"population":5000},"coordinates":[558,2251]},{"type":"Point","properties":{"source":"openstreetmap.org","kind":"locality","name":"Kayathar","kind_detail":"town","population":5000,"min_zoom":8.0,"id":648672820},"coordinates":[1248,1595]},{"type":"Point","properties":{"source":"openstreetmap.org","kind":"locality","name":"Pandalkudi","kind_detail":"town","population":5000,"min_zoom":8.0,"id":2038225925},"coordinates":[2216,2905]}]},"transit":{"type":"GeometryCollection","geometries":[{"type":"LineString","properties":{"source":"openstreetmap.org","kind":"train","name":"Tirunelveli - Nagercoil mainline","sort_rank":275,"min_zoom":6.0,"osm_relation":true,"id":-1289113},"arcs":[3]},{"type":"LineString","properties":{"kind":"train","network":"Southern Railway","sort_rank":275,"colour":"Blue","name":"SCT TEN","source":"openstreetmap.org","min_zoom":6.0,"operator":"Madurai Divn","ref":"56796","id":-2427359,"osm_relation":true,"colour_name":"blue"},"arcs":[4]},{"type":"LineString","properties":{"source":"openstreetmap.org","kind":"train","name":"Vanchi - Tirunelveli mainline","sort_rank":275,"min_zoom":6.0,"osm_relation":true,"id":-1289121},"arcs":[5]},{"type":"MultiLineString","properties":{"source":"openstreetmap.org","kind":"train","name":"Tuticorin - Vanchi mainline","sort_rank":275,"min_zoom":6.0,"osm_relation":true},"arcs":[[6],[7],[8],[9],[10],[11]]}]},"pois":{"type":"GeometryCollection","geometries":[{"type":"Point","properties":{"kind":"national_park","protect_class":"2","area":93679400,"source":"openstreetmap.org","min_zoom":8.0,"tier":1,"id":-415570,"osm_relation":true,"name":"Gulf of Mannar Marine National Park"},"coordinates":[2566,1358]}]},"boundaries":{"type":"GeometryCollection","geometries":[{"type":"LineString","properties":{"name:pt":"\u00cdndia","name:ty":"\u2019In\u012btia","name:ps":"\u0647\u0646\u062f","name:ka":"\u10d8\u10dc\u10d3\u10dd\u10d4\u10d7\u10d8","name:ko":"\uc778\ub3c4","name:cv":"\u0418\u043d\u0434\u0438","name:km":"\u17a5\u178e\u17d2\u178c\u17b6","name:cs":"Indie","name:rn":"Ubuhindi","name:tt":"\u04ba\u0438\u043d\u0434\u0441\u0442\u0430\u043d","name:kw":"Eynda","name:kv":"\u0418\u043d\u0434\u0438\u044f","name:ku":"Hindistan","name:ks":"\u0628\u064b\u0627\u0631\u062a","name:to":"\u02bbInitia","name:tl":"Indiya","name:zh-min-nan":"\u00ccn-t\u014d\u0358","name:os":"\u0418\u043d\u0434\u0438","name:or":"\u0b2d\u0b3e\u0b30\u0b24","name:ce":"\u0418\u043d\u0434\u0438","name:ta":"\u0b87\u0ba8\u0bcd\u0ba4\u0bbf\u0baf\u0bbe","name:tg":"\u04b2\u0438\u043d\u0434\u0443\u0441\u0442\u043e\u043d","name:ca":"\u00cdndia","name:te":"\u0c2d\u0c3e\u0c30\u0c24 \u0c26\u0c47\u0c36\u0c02","name:bg":"\u0418\u043d\u0434\u0438\u044f","source":"openstreetmap.org","sort_rank":262,"name:hr":"Indija","name:da":"Indien","name:sw":"Uhindi","name:de":"Indien","name:dz":"\u0f62\u0f92\u0fb1\u0f0b\u0f42\u0f62","name:tr":"Hindistan","osm_relation":true,"name:kn":"\u0cad\u0cbe\u0cb0\u0ca4","name:be":"\u0406\u043d\u0434\u044b\u044f","name:dv":"\u0787\u07a8\u0782\u07b0\u0791\u07a8\u0794\u07a7","name:za":"Yindu","name:ba":"\u04ba\u0438\u043d\u0434\u043e\u0441\u0442\u0430\u043d","name:ar":"\u0627\u0644\u0647\u0646\u062f","name:lv":"Indija","name:lt":"Indija","name:uz":"Hindiston","name:kk":"\u04ae\u043d\u0434\u0456\u0441\u0442\u0430\u043d","name:he":"\u05d4\u05d5\u05d3\u05d5","name:eo":"Barato","name:ur":"\u0628\u06be\u0627\u0631\u062a","name:lb":"Indien","name:uk":"\u0406\u043d\u0434\u0456\u044f","name:hy":"\u0540\u0576\u0564\u056f\u0561\u057d\u057f\u0561\u0576","name:ug":"\u06be\u0649\u0646\u062f\u0649\u0633\u062a\u0627\u0646","name:qu":"Indya","name:oc":"\u00cdndia","name:el":"\u0399\u03bd\u03b4\u03af\u03b1","kind":"country","name":"India","name:tk":"Hindistan","min_zoom":8.0,"name:th":"\u0e1b\u0e23\u0e30\u0e40\u0e17\u0e28\u0e2d\u0e34\u0e19\u0e40\u0e14\u0e35\u0e22","name:yi":"\u05d0\u05d9\u05e0\u05d3\u05d9\u05e2","name:iu":"\u1403\u14d0\u144e\u140a","name:yo":"\u00cdnd\u00ed\u00e0","name:mt":"Indja","alt_name:eo":"Hindujo;Hindio","name:az":"Hindistan","name:ig":"Ndia","name:mr":"\u092d\u093e\u0930\u0924","name:pa":"\u0a2d\u0a3e\u0a30\u0a24","name:my":"\u1021\u102d\u1014\u1039\u1012\u102d\u101a\u1014\u102d\u102f\u1004\u103a\u1004\u1036","name:is":"Indland","name:am":"\u1205\u1295\u12f5","name:vi":"\u1ea4n \u0110\u1ed9","name:ml":"\u0d07\u0d28\u0d4d\u0d24\u0d4d\u0d2f","name:rw":"Ubuhinde","name:mi":"\u012ania","name:pl":"Indie","name:mk":"\u0418\u043d\u0434\u0438\u0458\u0430","name:vo":"Lind\u00e4n","name:zu":"INdiya","name:mn":"\u042d\u043d\u044d\u0442\u0445\u044d\u0433","name:ss":"INdiya","kind_detail":"2","name:hi":"\u092d\u093e\u0930\u0924","id":-304716,"alt_name:vi":"Thi\u00ean Tr\u00fac;Quy\u00ean \u0110\u1ed9c","name:fr":"Inde","name:ky":"\u0418\u043d\u0434\u0438\u044f","name:zh-yue":"\u5370\u5ea6","name:fy":"Yndia","name:pi":"\u092d\u093e\u0930\u0924","name:zh":"\u5370\u5ea6","name:so":"Hindiya","name:sm":"Igitia","name:sl":"Indija","name:ja":"\u30a4\u30f3\u30c9","name:si":"\u0db7\u0dcf\u0dbb\u0dad \u0da2\u0db1\u0dbb\u0da2\u0dba","name:sh":"Indija","name:na":"Indjiya","name:sd":"\u0680\u0627\u0631\u062a","name:sc":"\u00ccndia","name:ne":"\u092d\u093e\u0930\u0924","name:sa":"\u092d\u093e\u0930\u0924\u092e\u094d","name:bs":"Indija","name:bn":"\u09ad\u09be\u09b0\u09a4","name:bo":"\u0f62\u0f92\u0fb1\u0f0b\u0f42\u0f62\u0f0d","name:ru":"\u0418\u043d\u0434\u0438\u044f","name:sv":"Indien","name:ha":"Indiya","name:wo":"End","name:sr":"\u0418\u043d\u0434\u0438\u0458\u0430","name:nv":"T\u00f3 W\u00f3naan\u00edd\u0119\u0301\u0119\u0301\u02bc Bits\u012f\u02bc Yisht\u0142izhii Bik\u00e9yah","name:ga":"An India","name:gd":"Na h-Innseachan","name:ht":"End","name:wa":"Inde","name:fa":"\u0647\u0646\u062f","maritime_boundary":true,"name:gv":"Yn Injey","name:gu":"\u0aad\u0abe\u0ab0\u0aa4","name:fi":"Intia"},"arcs":[0]},{"type":"LineString","properties":{"name:right:ja":"\u30bf\u30df\u30eb\u30fb\u30ca\u30fc\u30c9\u30a5","name:left:hi":"\u0915\u0947\u0930\u0932","name:right:ml":"\u0d24\u0d2e\u0d3f\u0d34\u0d4d\u200c\u0d28\u0d3e\u0d1f\u0d4d","name:right:uk":"\u0422\u0430\u043c\u0456\u043b-\u041d\u0430\u0434\u0443","name:left:ja":"\u30b1\u30fc\u30e9\u30e9","name:right:ko":"\ud0c0\ubc00\ub098\ub450 \uc8fc","id:right":-96905,"name:left:uk":"\u041a\u0435\u0440\u0430\u043b\u0430","name:right:hi":"\u0924\u092e\u093f\u0932 \u0928\u093e\u0921\u0941","min_zoom":8.0,"name:left:ru":"\u041a\u0435\u0440\u0430\u043b\u0430","name:right:te":"\u0c24\u0c2e\u0c3f\u0c33\u0c28\u0c3e\u0c21\u0c41","name:left:ta":"\u0b95\u0bc7\u0bb0\u0bb3\u0bae\u0bcd","name:left:ml":"\u0d15\u0d47\u0d30\u0d33\u0d02","id":-2018151,"osm_relation":true,"name:right":"Tamil Nadu","kind":"region","name":"Kerala - Tamil Nadu","name:right:kn":"\u0ca4\u0cae\u0cbf\u0cb3\u0cc1\u0ca8\u0cbe\u0ca1\u0cc1","sort_rank":256,"kind_detail":"4","name:right:ru":"\u0422\u0430\u043c\u0438\u043b\u043d\u0430\u0434","name:right:ta":"\u0ba4\u0bae\u0bbf\u0bb4\u0bcd\u0ba8\u0bbe\u0b9f\u0bc1","source":"openstreetmap.org","name:left:zh":"\u5580\u62c9\u62c9\u90a6","name:left:kn":"\u0c95\u0cc7\u0cb0\u0cb3","id:left":-2018151,"name:right:zh":"\u6cf0\u7c73\u5c14\u7eb3\u5fb7\u90a6","name:left":"Kerala"},"arcs":[1]},{"type":"LineString","properties":{"name:ja":"\u30bf\u30df\u30eb\u30fb\u30ca\u30fc\u30c9\u30a5","name:hi":"\u0924\u092e\u093f\u0932 \u0928\u093e\u0921\u0941","name:ko":"\ud0c0\ubc00\ub098\ub450 \uc8fc","name:kn":"\u0ca4\u0cae\u0cbf\u0cb3\u0cc1\u0ca8\u0cbe\u0ca1\u0cc1","min_zoom":8.0,"name:uk":"\u0422\u0430\u043c\u0456\u043b-\u041d\u0430\u0434\u0443","name:ru":"\u0422\u0430\u043c\u0438\u043b\u043d\u0430\u0434","name:ml":"\u0d24\u0d2e\u0d3f\u0d34\u0d4d\u200c\u0d28\u0d3e\u0d1f\u0d4d","name:ta":"\u0ba4\u0bae\u0bbf\u0bb4\u0bcd\u0ba8\u0bbe\u0b9f\u0bc1","id":-96905,"osm_relation":true,"name:te":"\u0c24\u0c2e\u0c3f\u0c33\u0c28\u0c3e\u0c21\u0c41","kind":"region","name":"Tamil Nadu","sort_rank":256,"kind_detail":"4","source":"openstreetmap.org","maritime_boundary":true,"name:zh":"\u6cf0\u7c73\u5c14\u7eb3\u5fb7\u90a6"},"arcs":[2]}]},"roads":{"type":"GeometryCollection","geometries":[{"type":"LineString","properties":{"source":"openstreetmap.org","kind":"highway","sort_rank":383,"kind_detail":"motorway","name:ta":"\u0b85\u0b95\u0bae\u0bc1\u0b9f\u0bc8\u0baf\u0bbe\u0bb0\u0bcd \u0bae\u0bb9\u0bbe\u0bb2\u0bcd","min_zoom":8.0,"id":543124130},"arcs":[14]},{"type":"LineString","properties":{"source":"openstreetmap.org","kind":"major_road","sort_rank":380,"kind_detail":"primary","ref":"SH39A","min_zoom":8.0},"arcs":[15]},{"type":"LineString","properties":{"source":"openstreetmap.org","kind":"major_road","sort_rank":380,"kind_detail":"primary","ref":"SH41","min_zoom":8.0},"arcs":[16]},{"type":"LineString","properties":{"source":"openstreetmap.org","kind":"highway","sort_rank":383,"kind_detail":"motorway","ref":"\u0bae\u0bc6\u0baf\u0bbf\u0ba9\u0bcd  \u0baa\u0b9c\u0bbe\u0bb0\u0bcd","min_zoom":8.0,"id":543125227},"arcs":[17]},{"type":"MultiLineString","properties":{"source":"openstreetmap.org","kind":"major_road","sort_rank":380,"kind_detail":"primary","ref":"SH75","min_zoom":8.0},"arcs":[[18],[19],[20],[21]]},{"type":"MultiLineString","properties":{"source":"openstreetmap.org","kind":"major_road","sort_rank":380,"kind_detail":"primary","ref":"SH44","min_zoom":8.0},"arcs":[[22],[23],[24]]},{"type":"LineString","properties":{"source":"openstreetmap.org","kind":"major_road","sort_rank":380,"kind_detail":"primary","ref":"SH183","min_zoom":8.0,"id":93453283},"arcs":[25]},{"type":"MultiLineString","properties":{"source":"openstreetmap.org","kind":"major_road","sort_rank":380,"kind_detail":"primary","ref":"SH184","min_zoom":8.0},"arcs":[[26],[27],[28],[29],[30]]},{"type":"LineString","properties":{"source":"openstreetmap.org","kind":"major_road","sort_rank":380,"kind_detail":"primary","ref":"SH41A","min_zoom":8.0},"arcs":[31]},{"type":"LineString","properties":{"source":"openstreetmap.org","kind":"major_road","sort_rank":380,"kind_detail":"primary","ref":"ECR","min_zoom":8.0},"arcs":[32]},{"type":"MultiLineString","properties":{"sort_rank":380,"kind_detail":"primary","min_zoom":8.0,"kind":"major_road","source":"openstreetmap.org"},"arcs":[[33],[34],[35],[36],[37],[38],[39],[40],[41],[42],[43],[44],[45],[46],[47],[48],[49],[50],[51],[52],[53],[54],[55],[56],[57],[58],[59],[60],[61],[62],[63],[64],[65],[66],[67],[68],[69],[70],[71],[72],[73],[74],[75],[76],[77],[78],[79],[80],[81],[82],[83],[84],[85],[86],[87],[88],[89],[90],[91],[92],[93],[94],[95],[96],[97],[98],[99],[100],[101],[102],[103],[104],[105],[106],[107],[108],[109],[110],[111],[112],[113],[114],[115],[116],[117]]},{"type":"MultiLineString","properties":{"source":"openstreetmap.org","kind":"major_road","sort_rank":380,"kind_detail":"primary","ref":"SH92","min_zoom":8.0},"arcs":[[118],[119],[120],[121]]},{"type":"LineString","properties":{"kind":"major_road","network":"AsianHighway","sort_rank":381,"kind_detail":"trunk","source":"openstreetmap.org","min_zoom":8.0,"shield_text":"43","ref":"NH87"},"arcs":[122]},{"type":"MultiLineString","properties":{"source":"openstreetmap.org","kind":"major_road","sort_rank":380,"kind_detail":"primary","ref":"SH39","min_zoom":8.0},"arcs":[[123],[124],[125]]},{"type":"MultiLineString","properties":{"source":"openstreetmap.org","kind":"major_road","sort_rank":380,"kind_detail":"primary","ref":"SH77","min_zoom":8.0},"arcs":[[126],[127]]},{"type":"LineString","properties":{"source":"openstreetmap.org","kind":"major_road","landuse_kind":"residential","sort_rank":381,"kind_detail":"trunk","min_zoom":8.0},"arcs":[128]},{"type":"LineString","properties":{"kind":"major_road","sort_rank":380,"kind_detail":"primary","is_bicycle_related":true,"bus_network":"TNSTC","source":"openstreetmap.org","min_zoom":8.0,"bus_shield_text":"121","ref":"SH39","id":178457213},"arcs":[129]},{"type":"LineString","properties":{"source":"openstreetmap.org","kind":"major_road","sort_rank":381,"kind_detail":"trunk","ref":"SH39","min_zoom":8.0},"arcs":[130]},{"type":"LineString","properties":{"kind":"major_road","sort_rank":380,"kind_detail":"primary","source":"openstreetmap.org","min_zoom":8.0,"name:ta":"\u0ba4\u0bc2\u0ba4\u0bcd\u0ba4\u0bc1\u0b95\u0bcd\u0b95\u0bc1\u0b9f\u0bbf - \u0ba4\u0bbf\u0bb0\u0bc1\u0b9a\u0bcd\u0b9a\u0bc6\u0ba8\u0bcd\u0ba4\u0bc2\u0bb0\u0bcd - \u0b95\u0ba9\u0bcd\u0ba9\u0bbf\u0baf\u0bbe\u0b95\u0bc1\u0bae\u0bb0\u0bbf \u0b9a\u0bbe\u0bb2\u0bc8","ref":"SH176","id":96424984},"arcs":[131]},{"type":"LineString","properties":{"source":"openstreetmap.org","kind":"major_road","sort_rank":380,"kind_detail":"primary","ref":"SH177","min_zoom":8.0},"arcs":[132]},{"type":"LineString","properties":{"kind":"major_road","network":"IN:NH","sort_rank":381,"kind_detail":"trunk","source":"openstreetmap.org","min_zoom":8.0,"shield_text":null,"ref":"NH36"},"arcs":[133]},{"type":"LineString","properties":{"source":"openstreetmap.org","kind":"major_road","sort_rank":380,"kind_detail":"primary","ref":"SH76","min_zoom":8.0},"arcs":[134]},{"type":"MultiLineString","properties":{"source":"openstreetmap.org","kind":"major_road","sort_rank":380,"kind_detail":"primary","ref":"SH40","min_zoom":8.0},"arcs":[[135],[136]]},{"type":"MultiLineString","properties":{"source":"openstreetmap.org","kind":"major_road","sort_rank":380,"kind_detail":"primary","ref":"SH182","min_zoom":8.0},"arcs":[[137],[138]]},{"type":"LineString","properties":{"source":"openstreetmap.org","kind":"major_road","sort_rank":380,"kind_detail":"primary","ref":"SH 101","min_zoom":8.0},"arcs":[139]},{"type":"MultiLineString","properties":{"source":"openstreetmap.org","kind":"major_road","sort_rank":380,"kind_detail":"primary","ref":"NH7","min_zoom":8.0},"arcs":[[140],[141],[142]]},{"type":"MultiLineString","properties":{"kind":"major_road","network":"IN:NH","sort_rank":381,"kind_detail":"trunk","source":"openstreetmap.org","min_zoom":8.0,"landuse_kind":"residential","shield_text":null,"ref":"NH44"},"arcs":[[143],[144],[145],[146]]},{"type":"MultiLineString","properties":{"source":"openstreetmap.org","kind":"major_road","landuse_kind":"residential","sort_rank":380,"kind_detail":"primary","ref":"SH42","min_zoom":8.0},"arcs":[[147],[148]]},{"type":"LineString","properties":{"source":"openstreetmap.org","kind":"highway","sort_rank":383,"kind_detail":"motorway","name:ta":"\u0ba4\u0bbf\u0bb0\u0bc1\u0b9a\u0bcd\u0b9a\u0bc1\u0bb4\u0bbf  \u0bb0\u0bcb\u0b9f\u0bc1","min_zoom":8.0,"id":543126171},"arcs":[149]},{"type":"MultiLineString","properties":{"source":"openstreetmap.org","kind":"major_road","sort_rank":380,"kind_detail":"primary","ref":"SH 89","min_zoom":8.0},"arcs":[[150],[151],[152],[153]]},{"type":"LineString","properties":{"source":"openstreetmap.org","kind":"major_road","landuse_kind":"residential","sort_rank":380,"kind_detail":"primary","ref":"SH184","min_zoom":8.0},"arcs":[154]},{"type":"LineString","properties":{"source":"openstreetmap.org","kind":"major_road","sort_rank":380,"kind_detail":"primary","is_bicycle_related":true,"min_zoom":8.0},"arcs":[155]},{"type":"MultiLineString","properties":{"source":"openstreetmap.org","kind":"major_road","sort_rank":380,"kind_detail":"primary","ref":"SH176","min_zoom":8.0},"arcs":[[156],[157]]},{"type":"LineString","properties":{"kind":"major_road","network":"IN:NH","sort_rank":381,"kind_detail":"trunk","source":"openstreetmap.org","min_zoom":8.0,"shield_text":"38","ref":"NH38"},"arcs":[158]},{"type":"LineString","properties":{"kind":"major_road","int_name":"Surandai - Shenkottai","sort_rank":380,"kind_detail":"primary","source":"openstreetmap.org","min_zoom":8.0,"ref":"SH39A","id":84272324},"arcs":[159]},{"type":"LineString","properties":{"source":"openstreetmap.org","kind":"major_road","landuse_kind":"urban_area","sort_rank":380,"kind_detail":"primary","ref":"SH176","min_zoom":8.0},"arcs":[160]},{"type":"MultiLineString","properties":{"kind":"major_road","network":"IN:NH","sort_rank":381,"kind_detail":"trunk","source":"openstreetmap.org","min_zoom":8.0,"shield_text":null,"ref":"NH44"},"arcs":[[161],[162],[163],[164],[165],[166],[167],[168],[169],[170],[171],[172],[173],[174],[175],[176],[177],[178],[179],[180],[181],[182],[183]]},{"type":"MultiLineString","properties":{"sort_rank":381,"source":"openstreetmap.org","min_zoom":8.0,"kind":"major_road","kind_detail":"trunk"},"arcs":[[184],[185],[186],[187]]},{"type":"LineString","properties":{"source":"openstreetmap.org","kind":"highway","sort_rank":383,"kind_detail":"motorway","name:ta":"\u0baa\u0ba8\u0bcd\u0ba4\u0bb2\u0bcd\u0b95\u0bc1\u0b9f\u0bbf  \u0bb0\u0bcb\u0b9f\u0bc1","min_zoom":8.0,"id":543125799},"arcs":[188]},{"type":"LineString","properties":{"kind":"major_road","network":"IN:NH","sort_rank":381,"kind_detail":"trunk","source":"openstreetmap.org","min_zoom":8.0,"shield_text":null,"ref":"NH744"},"arcs":[189]},{"type":"LineString","properties":{"source":"openstreetmap.org","kind":"major_road","sort_rank":380,"kind_detail":"primary","ref":"SH89","min_zoom":8.0,"id":157811323},"arcs":[190]},{"type":"LineString","properties":{"source":"openstreetmap.org","kind":"major_road","sort_rank":380,"kind_detail":"primary","ref":"SH93","min_zoom":8.0},"arcs":[191]},{"type":"MultiLineString","properties":{"kind":"major_road","network":"IN:NH","sort_rank":381,"kind_detail":"trunk","source":"openstreetmap.org","min_zoom":8.0,"shield_text":null,"ref":"NH38"},"arcs":[[192],[193],[194],[195],[196],[197],[198],[199],[200],[201],[202]]},{"type":"LineString","properties":{"source":"openstreetmap.org","kind":"major_road","sort_rank":380,"kind_detail":"primary","ref":"SH186","min_zoom":8.0},"arcs":[203]},{"type":"MultiLineString","properties":{"source":"openstreetmap.org","kind":"major_road","landuse_kind":"residential","sort_rank":380,"kind_detail":"primary","min_zoom":8.0},"arcs":[[204],[205]]},{"type":"MultiLineString","properties":{"sort_rank":383,"kind_detail":"motorway","min_zoom":8.0,"kind":"highway","source":"openstreetmap.org"},"arcs":[[206],[207],[208]]},{"type":"LineString","properties":{"kind":"major_road","network":"IN:NH","sort_rank":381,"kind_detail":"trunk","source":"openstreetmap.org","min_zoom":8.0,"shield_text":null,"ref":"NH7","id":239536329},"arcs":[209]},{"type":"LineString","properties":{"source":"openstreetmap.org","kind":"major_road","sort_rank":380,"kind_detail":"primary","ref":"SH38","min_zoom":8.0},"arcs":[210]},{"type":"MultiLineString","properties":{"source":"openstreetmap.org","kind":"major_road","sort_rank":380,"kind_detail":"primary","ref":"SH 154","min_zoom":8.0},"arcs":[[211],[212],[213],[214],[215],[216],[217]]},{"type":"MultiLineString","properties":{"source":"openstreetmap.org","kind":"major_road","landuse_kind":"urban_area","sort_rank":380,"kind_detail":"primary","min_zoom":8.0},"arcs":[[218],[219],[220],[221],[222],[223],[224],[225],[226],[227],[228],[229]]},{"type":"MultiLineString","properties":{"source":"openstreetmap.org","kind":"major_road","sort_rank":380,"kind_detail":"primary","ref":"SH187","min_zoom":8.0},"arcs":[[230],[231],[232],[233]]},{"type":"MultiLineString","properties":{"source":"openstreetmap.org","kind":"major_road","landuse_kind":"residential","sort_rank":380,"kind_detail":"primary","is_bicycle_related":true,"min_zoom":8.0},"arcs":[[234],[235]]},{"type":"MultiLineString","properties":{"source":"openstreetmap.org","kind":"major_road","sort_rank":380,"kind_detail":"primary","ref":"SH42","min_zoom":8.0},"arcs":[[236],[237],[238]]},{"type":"LineString","properties":{"kind":"major_road","network":"IN:NH","sort_rank":381,"kind_detail":"trunk","source":"openstreetmap.org","min_zoom":8.0,"shield_text":"36","ref":"NH36"},"arcs":[239]},{"type":"LineString","properties":{"kind":"major_road","int_name":"Pavoorchatram - Surandai - Shencottai","sort_rank":380,"kind_detail":"primary","source":"openstreetmap.org","min_zoom":8.0,"ref":"SH39A","id":158788130},"arcs":[240]},{"type":"LineString","properties":{"source":"openstreetmap.org","kind":"major_road","sort_rank":380,"kind_detail":"primary","ref":"SH47","min_zoom":8.0},"arcs":[241]},{"type":"MultiLineString","properties":{"kind":"major_road","network":"IN:NH","sort_rank":381,"kind_detail":"trunk","source":"openstreetmap.org","min_zoom":8.0,"shield_text":null,"ref":"NH138"},"arcs":[[242],[243],[244]]},{"type":"MultiLineString","properties":{"source":"openstreetmap.org","kind":"major_road","sort_rank":380,"kind_detail":"primary","ref":"SH28","min_zoom":8.0},"arcs":[[245],[246],[247]]},{"type":"MultiLineString","properties":{"source":"openstreetmap.org","kind":"major_road","sort_rank":380,"kind_detail":"primary","ref":"SH34","min_zoom":8.0},"arcs":[[248],[249]]}]},"earth":{"type":"GeometryCollection","geometries":[{"type":"Polygon","properties":{"sort_rank":10,"source":"naturalearthdata.com","kind":"earth","min_zoom":0.0,"id":4707},"arcs":[[250]]}]},"landuse":{"type":"GeometryCollection","geometries":[{"type":"Polygon","properties":{"kind":"national_park","protect_class":"2","area":302860992,"sort_rank":18,"source":"openstreetmap.org","min_zoom":3.0,"tier":1,"id":-415570,"osm_relation":true},"arcs":[[251]]},{"type":"MultiPolygon","properties":{"source":"naturalearthdata.com","kind":"urban_area","name":"","area":819127416,"sort_rank":11,"min_zoom":4.0},"arcs":[[[252]]]},{"type":"MultiPolygon","properties":{"kind":"national_park","protect_class":"2","area":172112657,"sort_rank":18,"source":"openstreetmap.org","min_zoom":8.0,"tier":1,"osm_relation":true},"arcs":[[[253]],[[254]]]},{"type":"MultiPolygon","properties":{"source":"openstreetmap.org","kind":"residential","tier":2,"area":71073448,"sort_rank":20,"min_zoom":8.0},"arcs":[[[255]]]},{"type":"Polygon","properties":{"kind":"park","natural":"wood","area":968326016,"sort_rank":24,"source":"openstreetmap.org","min_zoom":6.0,"tier":2,"id":51830755},"arcs":[[256]]}]}},"type":"Topology","transform":{"translate":[77.34375,8.4071681636],"scale":[0.0003433228,0.0003389916]},"arcs":[[[3287,0],[211,1299],[598,259]],[[0,3013],[24,47],[43,47],[77,-2],[19,109],[36,41],[-35,21],[1,30],[-43,-26],[-59,48],[-1,43],[-40,52],[25,32],[-6,46],[24,14],[-32,16],[-33,-64]],[[3287,0],[211,1299],[598,259]],[[827,0],[101,196],[59,304],[4,185],[70,266]],[[0,1560],[91,-46],[-19,-121],[60,-129],[-48,-122],[67,-119],[186,-211],[69,-15],[98,24],[115,-28],[51,35],[26,71],[287,19],[78,33]],[[1061,953],[18,119],[321,265],[142,8],[56,31],[-177,702],[45,139],[203,219],[25,339]],[[1602,1384],[-5,10]],[[2177,1191],[-25,4]],[[2152,1195],[-158,41],[-123,79],[-269,69]],[[1602,1384],[-3,3],[-1,2]],[[1694,2775],[-2,7]],[[2376,1174],[-199,17]],[[2123,0],[21,73],[21,25],[80,76],[26,34],[14,31],[41,309],[-20,97],[-61,95],[82,0],[-17,35],[11,32],[42,54],[28,81],[13,21],[51,33],[52,25],[31,36],[-14,67],[-29,-55],[-34,-12],[-38,-5],[-39,-30],[24,54],[12,66],[10,197],[14,47],[101,183],[65,78],[401,330],[101,66],[110,50],[105,24],[387,46],[46,12],[42,21],[18,29],[18,47],[43,20],[150,10],[38,16],[27,19],[0,-2337],[-1973,0]],[[2123,0],[21,73],[21,25],[80,76],[26,34],[14,31],[41,309],[-20,97],[-61,95],[82,0],[-17,35],[11,32],[42,54],[28,81],[13,21],[51,33],[52,25],[31,36],[-14,67],[-29,-55],[-34,-12],[-38,-5],[-39,-30],[24,54],[12,66],[10,197],[14,47],[101,183],[65,78],[401,330],[101,66],[110,50],[105,24],[387,46],[46,12],[42,21],[18,29],[18,47],[43,20],[150,10],[38,16],[27,19]],[[2188,3247],[3,-1]],[[16,1752],[-16,0]],[[995,952],[9,72],[-92,170],[-5,202],[-128,503],[-79,151],[-91,79],[-51,122],[-5,205],[40,170],[-3,115],[46,94],[-19,223]],[[2183,3251],[5,-4]],[[1204,967],[89,26],[55,62],[14,83],[245,208],[96,-13],[272,153]],[[1975,1498],[210,55],[120,69],[152,135],[70,21]],[[2399,2135],[-100,323],[8,175],[-23,94],[-53,92],[-37,9]],[[2497,1769],[2,85],[-96,154],[4,88],[-45,30]],[[1523,2267],[-253,116],[-30,83],[-110,3],[-148,54]],[[1895,2186],[-369,81]],[[1910,2188],[489,-53],[142,-56],[296,-17],[125,-66],[163,118],[84,135]],[[1034,2814],[142,216],[133,39]],[[1320,3074],[3,-1]],[[1323,3073],[4,-1]],[[1323,3073]],[[1323,3073],[59,-143],[12,-26],[262,-51]],[[2497,3327],[-126,138],[-143,55],[-88,14],[-192,-48],[-102,9]],[[973,941],[-119,-46],[-229,8],[-154,111],[-169,41],[-101,90],[-78,11]],[[3671,2395],[109,85],[130,-5],[26,-66],[160,26]],[[540,3725],[-1,68],[-53,99]],[[507,4010],[-10,60],[272,26]],[[558,2255],[-11,-3]],[[593,2628],[250,-63],[99,-56],[40,14]],[[862,3625],[-199,45],[-72,-19],[-7,57],[18,-3]],[[810,0],[7,26]],[[1007,3418],[-23,71],[-84,67],[-37,70]],[[926,214],[0,4]],[[928,219],[-1,-5]],[[973,941],[4,14]],[[1049,1017],[-38,-31]],[[1056,949],[-38,-1]],[[1050,1015],[-1,1]],[[1049,1017],[1,1]],[[1050,1018],[56,93]],[[1050,1015],[-1,2]],[[1049,1017],[1,-1]],[[1050,1018]],[[1050,1018],[0,-3]],[[1050,1015]],[[1103,957],[-8,21],[-5,4],[-40,33]],[[1050,1015]],[[1070,949],[8,2]],[[1080,744],[1,2]],[[1081,746],[-1,-2]],[[1080,745],[1,0]],[[1081,746],[36,109]],[[1083,947],[2,-1]],[[1100,936],[-15,10]],[[1103,957],[-2,-21]],[[1103,954],[-2,-17]],[[1102,954],[1,3]],[[1117,855],[-22,25],[7,75]],[[1129,896],[-12,-41]],[[1130,937],[-5,4]],[[1133,918],[2,1],[39,-24],[52,11]],[[1136,917],[-3,0]],[[1151,944],[53,23]],[[1220,910],[7,-5]],[[1320,3074],[-7,5]],[[1313,3079],[-1,1]],[[1312,3080],[-11,8]],[[1307,3099],[29,8],[8,-46]],[[1316,3080],[-3,0]],[[1313,3080],[-1,0]],[[1312,3080],[-5,-1]],[[1334,3069],[-25,-5]],[[1312,3075],[1,4]],[[1313,3079],[0,1]],[[1313,3080]],[[1326,3076],[-5,7]],[[1568,2358],[8,-41],[-93,-72]],[[1678,2754],[-12,70]],[[1911,2162],[-6,17]],[[1910,2188],[4,9]],[[1987,1378],[132,-2],[134,-55]],[[2049,3322],[5,-2]],[[2114,3284],[-8,2]],[[2183,3251],[17,106]],[[2189,3371],[0,1]],[[2191,3370],[-1,0]],[[2190,3370],[0,2]],[[2199,3358],[-9,12]],[[2190,3371],[0,-1]],[[2201,3175],[-10,71]],[[2208,3791],[-12,-99]],[[2200,3357],[-1,1]],[[2288,1150],[-67,-35]],[[2235,1395],[124,-19]],[[2322,1182],[-9,10],[-2,5]],[[2311,1197],[-53,131]],[[2373,1172],[8,30],[-40,-3]],[[2341,1199],[-30,-2]],[[2311,1197],[-2,0]],[[2320,1180],[0,4]],[[2342,1193],[-1,6]],[[2341,1199],[-14,92],[30,83]],[[2359,1376],[-2,-1]],[[2359,1376],[76,147],[3,128],[55,40],[-16,71]],[[2527,1778],[105,53],[112,98],[93,133]],[[4096,3473],[-119,31]],[[3977,3504],[-10,2],[-165,-18]],[[4065,4096],[-12,-32],[12,-156],[-72,-114],[-16,-290]],[[3977,3504],[-44,-143]],[[3939,3363],[100,27],[57,45]],[[780,1],[-18,118],[128,133]],[[890,252],[0,1],[1,0]],[[891,253],[0,-1],[-1,0]],[[891,253]],[[4096,2860],[-53,19],[-173,163],[-59,134],[-62,75],[-49,16],[-36,62],[-120,97],[-310,61],[-38,201],[24,117],[-239,204],[-98,45],[-46,42]],[[1101,945],[-104,7]],[[1078,951],[5,-4]],[[1220,910],[-118,35]],[[2104,1029],[-141,170],[21,261],[-34,114],[-169,242],[-37,20],[-21,156],[-108,91],[-36,123],[-42,52]],[[2100,1027],[-29,-24],[33,-84],[-68,-139],[-1,-65],[-55,-76],[130,21]],[[1786,3556],[-1,0]],[[978,955],[-459,369],[-331,117],[-188,112]],[[1220,910],[7,-2]],[[2237,237],[18,37]],[[641,0],[-16,340],[36,47],[-33,150],[39,94],[-22,158]],[[3251,3824],[19,74],[-20,63],[32,135]],[[1407,2154],[-364,28],[-162,50],[-120,-11],[-203,30],[-126,55],[-94,-27],[-168,14]],[[1133,917],[-158,-142],[-136,-34],[-380,91],[-63,-31],[-43,8],[-8,39],[-164,164],[-19,113],[-140,214],[-22,54]],[[2257,274],[-83,45],[-95,192],[-40,32],[-377,76],[-28,40],[-211,71],[-195,174]],[[1237,3610],[-49,52],[-245,36],[-73,-9],[-7,-63]],[[1244,3612],[300,-32],[93,-36],[79,-76]],[[497,4070],[-18,26]],[[1101,937],[-1,-8]],[[1106,1111],[1,0]],[[1130,937],[3,-20]],[[1758,3348],[-15,148],[3,4],[32,23],[2,8],[2,11],[4,19],[0,1]],[[1786,3562],[3,14]],[[1788,3576],[0,-1],[-2,-13]],[[1786,3562],[-3,-20],[-4,-19],[-36,-28],[15,-147]],[[1776,3460],[-46,9]],[[1850,3420],[-56,35]],[[2191,3246],[42,-13]],[[926,218],[-13,13]],[[913,231],[-22,22]],[[892,253],[21,-22]],[[913,231],[14,-15]],[[1801,3454],[1,41],[44,0]],[[978,955],[19,-3]],[[2059,0],[178,237]],[[2302,1078],[-176,-410],[-4,-103],[70,-89],[65,-202]],[[2452,1022],[-129,21],[-177,158],[109,135]],[[218,1677],[-86,69],[-116,6]],[[2335,1175],[24,-20],[-57,-77]],[[779,0],[62,44],[82,165],[0,14],[-37,37],[-3,17]],[[883,277]],[[883,277],[0,1],[6,15],[58,82],[48,151],[-2,82],[90,138],[89,23],[37,33],[1,1]],[[1210,803],[21,17],[0,14]],[[1231,834],[-1,5],[1,28],[-3,23],[-1,34],[-120,183],[155,209],[-26,106],[-6,159],[4,25],[16,30],[5,46],[2,5]],[[1257,1687],[31,113],[2,5],[60,236]],[[1350,2041],[6,22],[51,90],[69,85],[12,50],[14,11],[44,38]],[[1546,2337],[18,16],[8,16]],[[1572,2369],[61,137],[45,245],[-15,28],[-7,73],[0,9],[5,19],[18,154],[59,131],[20,183]],[[1261,1337],[1,-20],[-20,-38],[-135,-172],[9,-11],[93,-138],[3,-4],[5,-9],[10,-21],[2,-34],[2,-24],[1,-30],[-1,-2]],[[1231,834],[-21,-31]],[[1210,803],[-1,-1],[-37,-33],[-89,-24],[-55,-93],[-6,-12],[-28,-33],[1,-83],[-48,-149],[-59,-84],[-5,-14]],[[883,277]],[[883,277],[3,-17],[38,-36],[-1,-16],[-28,-75],[-34,-54],[-5,-10],[-15,-25],[-61,-44]],[[1758,3348],[-20,-182],[-81,-305],[-1,-9],[8,-20],[2,-18],[0,-30],[-3,-5],[15,-28],[-4,-39],[-41,-207],[-61,-135],[0,-1]],[[1572,2369],[-26,-32]],[[1546,2337],[-3,-4],[-54,-45],[-13,-50],[-32,-45],[-37,-40],[-4,-7],[-53,-105]],[[1350,2041],[-3,-7],[-89,-336],[-1,-11]],[[1257,1687],[-2,-18],[-5,-33],[-15,-31],[7,-56],[-6,-127],[31,-73],[-5,-11]],[[1866,4096],[0,-10],[-36,-293],[-26,-136]],[[1804,3657],[-16,-81]],[[1789,3576],[15,81]],[[1804,3657],[25,136],[19,189],[17,103],[0,11]],[[1799,3631]],[[1846,3972],[0,-1]],[[1080,744]],[[1227,908],[1,0],[1,0],[-2,-1],[0,1]],[[2191,3246],[5,-29]],[[0,1897],[13,16],[29,197],[66,31],[64,157],[-14,69],[36,94],[-8,77],[66,225],[150,183],[178,95],[68,90],[140,64],[56,52],[1,35],[164,139],[130,68],[212,239],[31,67],[269,239],[114,62]],[[928,219],[164,-113],[104,-106]],[[1523,0],[135,116],[168,337],[-49,28],[15,104]],[[2188,4096],[19,-308],[-36,-45],[27,-56],[-24,-289],[70,-91],[0,-1]],[[2244,3306],[-4,-24]],[[2240,3282],[-6,-49],[-33,-60],[-3,-165],[46,-93],[-209,-462],[-124,-296]],[[1911,2157],[2,-9]],[[1913,2148],[30,-110],[311,-698]],[[2254,1340],[-312,698],[-29,110]],[[1913,2148],[-2,9]],[[1911,2157],[-1,2],[125,295],[209,461],[-47,93],[3,166],[33,59],[0,1],[7,48]],[[2240,3282],[4,23],[0,1]],[[2244,3306],[-70,93],[5,93],[19,196],[-28,55],[37,46],[-20,307]],[[2255,1336],[-1,4]],[[1237,2730],[-134,74],[-146,34],[-118,81],[-2,61],[-122,-5],[-106,88]],[[1766,3462],[11,36]],[[1776,3460],[18,-5]],[[2177,3245],[3,7]],[[2180,3252],[12,29]],[[2198,3297],[0,2]],[[1262,1338],[-1,-1]],[[2307,3216],[118,-132],[131,-89],[144,-233],[140,-319],[110,-86],[216,-65],[43,-43],[107,5],[210,109],[145,32],[120,-161]],[[1320,4096],[-18,-155],[176,-66]],[[1830,3810],[-296,28],[-50,42]],[[1953,3763],[-1,-2],[-5,2]],[[1947,3763],[-104,26]],[[1843,3789],[-8,2],[-1,0],[-4,2],[13,-4]],[[1843,3789],[101,-29],[3,3]],[[1947,3763],[34,28],[104,3],[86,-51]],[[2317,1166],[-29,-16]],[[2309,1161],[8,5]],[[2317,1166],[13,6]],[[2330,1172],[-13,-6]],[[2317,1166]],[[2317,1166],[3,14]],[[2330,1172],[-8,10]],[[2343,1174],[-1,19]],[[2359,1170],[13,-2]],[[2372,1168],[1,0]],[[2359,1155],[9,-1],[4,14]],[[2372,1168],[1,4]],[[1042,2185],[56,111],[40,171]],[[1144,2467],[32,151],[93,177],[42,280]],[[1318,3077],[-3,1],[0,-1],[2,-1],[1,1]],[[1659,2870],[-50,47],[-182,65],[-109,95]],[[1765,3407],[10,54]],[[1777,3498],[1,23]],[[1320,3079],[-295,127],[-193,40]],[[1320,3074],[182,334],[228,61]],[[1850,3420],[341,-174],[116,-30],[169,42],[21,69],[81,12],[28,46],[270,136],[153,6],[117,-63],[80,1]],[[3251,3824],[-31,-19]],[[218,1677],[-37,-128],[-73,-47]],[[3233,3487],[-25,-397],[-78,-76],[-73,-37],[-467,-40]],[[1337,898],[-108,9]],[[1229,908],[108,-10]],[[2221,1115],[-176,-126],[-93,-25],[-402,4],[-116,-71],[-97,1]],[[3344,2268],[-15,64],[33,72],[5,271],[53,133],[51,38],[65,182],[18,175],[60,169]],[[3614,3372],[0,1]],[[3614,3373],[49,1],[82,240],[-15,121],[45,277],[-24,84]],[[3724,3597],[-121,87],[6,32],[-99,136],[-8,100],[-94,144]],[[4096,3124],[-139,89],[-19,145],[-215,188]],[[4096,2337],[-27,-19],[-38,-16],[-150,-10],[-43,-20],[-18,-47],[-18,-29],[-42,-21],[-46,-12],[-387,-46],[-105,-24],[-110,-50],[-101,-66],[-401,-330],[-65,-78],[-101,-183],[-14,-47],[-10,-197],[-12,-66],[-24,-54],[39,30],[38,5],[34,12],[29,55],[14,-67],[-31,-36],[-52,-25],[-51,-33],[-13,-21],[-28,-81],[-42,-54],[-11,-32],[17,-35],[-82,0],[61,-95],[20,-97],[-41,-309],[-14,-31],[-26,-34],[-80,-76],[-21,-25],[-21,-73],[-2123,0],[0,4096],[4096,0],[0,-1759]],[[3884,2260],[212,25],[0,-145],[-198,-24],[-14,144]],[[2390,1122],[-32,-60],[-84,24],[-16,36],[78,73],[35,-15],[19,-58]],[[2459,1224],[90,343],[96,115],[101,-72],[-78,-119],[-68,-290],[-141,23]],[[3261,2062],[417,67],[24,-121],[-423,-74],[-18,128]],[[1730,3501],[17,66],[27,14],[33,-11],[41,-78],[2,-80],[-57,-57],[-35,-7],[-26,31],[-2,122]],[[0,3468],[32,63],[33,-16],[-25,-14],[6,-52],[-24,-25],[40,-53],[1,-43],[59,-48],[43,26],[-1,-30],[35,-21],[-36,-41],[-19,-109],[-43,-15],[-34,17],[-52,-63],[-15,-29],[0,453]]]}