{"objects":{"water":{"type":"GeometryCollection","geometries":[{"type":"Polygon","properties":{"source":"naturalearthdata.com","kind":"ocean","area":1576712559132672,"sort_rank":200,"min_zoom":0.0,"id":1},"arcs":[[61],[62],[63]]},{"type":"MultiLineString","properties":{"source":"naturalearthdata.com","kind":"ocean","sort_rank":205,"boundary":true,"min_zoom":0.0,"id":68},"arcs":[[64],[65],[66]]}]},"buildings":{"type":"GeometryCollection","geometries":[]},"places":{"type":"GeometryCollection","geometries":[{"type":"Point","properties":{"name:pt":"S\u00e3o Francisco","name:ja":"\u30b5\u30f3\u30d5\u30e9\u30f3\u30b7\u30b9\u30b3","short_name":"SF","name:hi":"\u0938\u0948\u0928 \u092b\u094d\u0930\u093e\u0902\u0938\u093f\u0938\u094d\u0915\u094b","name:ko":"\uc0cc\ud504\ub780\uc2dc\uc2a4\ucf54","name:kn":"\u0cb8\u0cbe\u0ca8\u0ccd \u0cab\u0ccd\u0cb0\u0cbe\u0ca8\u0ccd\u0cb8\u0cbf\u0cb8\u0ccd\u0c95\u0cca","min_zoom":8.0,"name:ru":"\u0421\u0430\u043d-\u0424\u0440\u0430\u043d\u0446\u0438\u0441\u043a\u043e","name:ta":"\u0bb8\u0bbe\u0ba9\u0bcd \u0baa\u0bcd\u00b2\u0bb0\u0bbe\u0ba9\u0bcd\u0bb8\u0bbf\u0bb8\u0bcd\u0b95\u0bca","id":26819236,"population":864816,"name:fa":"\u0633\u0627\u0646 \u0641\u0631\u0627\u0646\u0633\u06cc\u0633\u06a9\u0648","kind":"locality","name":"San Francisco","kind_detail":"city","source":"openstreetmap.org","name:zh":"\u65e7\u91d1\u5c71"},"coordinates":[3876,225]},{"type":"Point","properties":{"source":"openstreetmap.org","kind":"locality","name":"Santa Rosa","kind_detail":"city","population":174972,"min_zoom":8.0,"id":150934574},"coordinates":[3016,2678]},{"type":"Point","properties":{"kind":"locality","name":"Richmond","kind_detail":"city","source":"openstreetmap.org","min_zoom":8.0,"name:zh":"\u5217\u6cbb\u6587","id":150981381,"population":102120},"coordinates":[4084,806]},{"type":"Point","properties":{"source":"openstreetmap.org","kind":"locality","name":"Petaluma","kind_detail":"city","population":60438,"min_zoom":8.0,"id":150956306},"coordinates":[3243,1907]},{"type":"Point","properties":{"source":"openstreetmap.org","kind":"locality","name":"San Rafael","kind_detail":"town","population":56008,"min_zoom":8.0,"id":150964497},"coordinates":[3550,946]},{"type":"Point","properties":{"source":"openstreetmap.org","kind":"locality","name":"Novato","kind_detail":"town","population":51518,"min_zoom":8.0,"id":150973078},"coordinates":[3442,1438]},{"type":"Point","properties":{"source":"openstreetmap.org","kind":"locality","name":"Rohnert Park","kind_detail":"town","population":41083,"min_zoom":8.0,"id":150948591},"coordinates":[3055,2304]},{"type":"Point","properties":{"source":"openstreetmap.org","kind":"locality","name":"San Pablo","kind_detail":"town","population":31044,"min_zoom":8.0,"id":150955856},"coordinates":[4091,904]},{"type":"Point","properties":{"source":"openstreetmap.org","kind":"locality","name":"Windsor","kind_detail":"town","population":25294,"min_zoom":8.0,"id":150936720},"coordinates":[2719,3074]},{"type":"Point","properties":{"kind":"locality","name":"Mill Valley","kind_detail":"town","source":"openstreetmap.org","min_zoom":8.0,"name:zh":"\u7c73\u5c14\u8c37","id":150934874,"population":13323},"coordinates":[3510,695]},{"type":"Point","properties":{"source":"openstreetmap.org","kind":"locality","name":"San Anselmo","kind_detail":"town","population":12043,"min_zoom":8.0,"id":150980690},"coordinates":[3462,949]},{"type":"Point","properties":{"source":"openstreetmap.org","kind":"locality","name":"Larkspur","kind_detail":"town","population":11746,"min_zoom":8.0,"id":150964342},"coordinates":[3538,800]},{"type":"Point","properties":{"source":"openstreetmap.org","kind":"locality","name":"Healdsburg","kind_detail":"town","population":10961,"min_zoom":8.0,"id":150953250},"coordinates":[2563,3310]}]},"transit":{"type":"GeometryCollection","geometries":[{"type":"MultiLineString","properties":{"kind":"subway","name":"Richmond-Millbrae","sort_rank":275,"colour":"#EF1B23","source":"openstreetmap.org","min_zoom":8.0,"operator":"BART","ref":"Red","osm_relation":true,"colour_name":"crimson"},"arcs":[[2],[3],[4]]},{"type":"LineString","properties":{"kind":"subway","name":"Richmond-Fremont","sort_rank":275,"colour":"#FAA61A","source":"openstreetmap.org","min_zoom":8.0,"operator":"BART","ref":"Orange","id":-2851510,"osm_relation":true,"colour_name":"orange"},"arcs":[5]},{"type":"MultiLineString","properties":{"kind":"subway","name":"Pittsburg\/Bay Point-SFO","sort_rank":275,"colour":"#FFEC00","source":"openstreetmap.org","min_zoom":8.0,"operator":"BART","ref":"Yellow","osm_relation":true,"colour_name":"yellow"},"arcs":[[6],[7]]},{"type":"MultiLineString","properties":{"kind":"train","network":"Amtrak","service":"regional","sort_rank":275,"colour":"#F0E68C","name":"San Joaquin","source":"openstreetmap.org","min_zoom":6.0,"operator":"Amtrak California","ref":"711-717","osm_relation":true,"colour_name":"khaki"},"arcs":[[8],[9]]},{"type":"LineString","properties":{"kind":"train","name":"Napa Valley Wine Train","service":"tourism","sort_rank":275,"colour":"#6E2A24","source":"openstreetmap.org","min_zoom":6.0,"osm_relation":true,"colour_name":"brown"},"arcs":[10]},{"type":"MultiLineString","properties":{"kind":"subway","name":"Daly City-Warm Springs\/South Fremont","sort_rank":275,"colour":"#4DB948","source":"openstreetmap.org","min_zoom":8.0,"operator":"BART","ref":"Green","osm_relation":true,"colour_name":"limegreen"},"arcs":[[11],[12]]},{"type":"LineString","properties":{"kind":"subway","name":"Richmond-Warm Springs\/South Fremont","sort_rank":275,"colour":"#FAA61A","source":"openstreetmap.org","min_zoom":8.0,"operator":"BART","ref":"Orange","id":-7110027,"osm_relation":true,"colour_name":"orange"},"arcs":[13]},{"type":"LineString","properties":{"kind":"train","network":"Amtrak","service":"long_distance","sort_rank":275,"colour":"#191970","name":"Coast Starlight","source":"openstreetmap.org","min_zoom":5.0,"operator":"Amtrak","ref":"11-14","osm_relation":true,"colour_name":"navy"},"arcs":[14]},{"type":"LineString","properties":{"kind":"subway","name":"Warm Springs\/South Fremont-Richmond","sort_rank":275,"colour":"#FAA61A","source":"openstreetmap.org","min_zoom":8.0,"operator":"BART","ref":"Orange","id":-7110029,"osm_relation":true,"colour_name":"orange"},"arcs":[15]},{"type":"LineString","properties":{"kind":"subway","name":"Fremont-Richmond","sort_rank":275,"colour":"#FAA61A","source":"openstreetmap.org","min_zoom":8.0,"operator":"BART","ref":"Orange","id":-2851512,"osm_relation":true,"colour_name":"orange"},"arcs":[16]},{"type":"MultiLineString","properties":{"kind":"subway","name":"Daly City-Fremont","sort_rank":275,"colour":"#4DB948","source":"openstreetmap.org","min_zoom":8.0,"operator":"BART","ref":"Green","osm_relation":true,"colour_name":"limegreen"},"arcs":[[17],[18]]},{"type":"MultiLineString","properties":{"kind":"subway","name":"SFO-Pittsburg\/Bay Point","sort_rank":275,"colour":"#FFEC00","source":"openstreetmap.org","min_zoom":8.0,"operator":"BART","ref":"Yellow","osm_relation":true,"colour_name":"yellow"},"arcs":[[19],[20]]},{"type":"MultiLineString","properties":{"kind":"subway","name":"Richmond-Daly City","sort_rank":275,"colour":"red","source":"openstreetmap.org","min_zoom":8.0,"operator":"BART","ref":"Red","id":-2851509,"osm_relation":true,"colour_name":"red"},"arcs":[[21],[22]]},{"type":"MultiLineString","properties":{"kind":"train","network":"Amtrak","service":"long_distance","sort_rank":275,"colour":"#005480","name":"California Zephyr","source":"openstreetmap.org","min_zoom":5.0,"operator":"Amtrak","ref":"5-6","osm_relation":true,"colour_name":"teal"},"arcs":[[23],[24],[25]]},{"type":"MultiLineString","properties":{"kind":"train","network":"Amtrak","service":"regional","sort_rank":275,"colour":"#F0E68C","name":"San Joaquin","source":"openstreetmap.org","min_zoom":6.0,"operator":"Amtrak California","ref":"712-718","osm_relation":true,"colour_name":"khaki"},"arcs":[[26],[27]]},{"type":"MultiLineString","properties":{"kind":"train","network":"Caltrain","service":"commuter","sort_rank":275,"colour":"yellow","name":"Limited","source":"openstreetmap.org","min_zoom":6.0,"operator":"TransitAmerica Services","ref":"206-289","osm_relation":true,"colour_name":"yellow"},"arcs":[[28],[29],[30]]},{"type":"MultiLineString","properties":{"kind":"subway","name":"Daly City-Dublin\/Pleasanton","sort_rank":275,"colour":"#00B1FA","source":"openstreetmap.org","min_zoom":8.0,"operator":"BART","ref":"Blue","osm_relation":true,"colour_name":"dodgerblue"},"arcs":[[31],[32]]},{"type":"MultiLineString","properties":{"kind":"subway","name":"Warm Springs\/South Fremont-Daly City","sort_rank":275,"colour":"#4DB948","source":"openstreetmap.org","min_zoom":8.0,"operator":"BART","ref":"Green","osm_relation":true,"colour_name":"limegreen"},"arcs":[[33],[34]]},{"type":"MultiLineString","properties":{"kind":"subway","name":"Millbrae-Richmond","sort_rank":275,"colour":"#EF1B23","source":"openstreetmap.org","min_zoom":8.0,"operator":"BART","ref":"Red","osm_relation":true,"colour_name":"crimson"},"arcs":[[35],[36],[37]]},{"type":"LineString","properties":{"kind":"subway","name":"Dublin\/Pleasanton-Daly City","sort_rank":275,"colour":"#00B1FA","source":"openstreetmap.org","min_zoom":8.0,"operator":"BART","ref":"Blue","id":-2851725,"osm_relation":true,"colour_name":"dodgerblue"},"arcs":[38]},{"type":"MultiLineString","properties":{"kind":"subway","name":"Pittsburg\/Bay Point-Millbrae","sort_rank":275,"colour":"#FFEC00","source":"openstreetmap.org","min_zoom":8.0,"operator":"BART","ref":"Yellow","osm_relation":true,"colour_name":"yellow"},"arcs":[[39],[40]]},{"type":"MultiLineString","properties":{"kind":"subway","name":"Fremont-Daly City","sort_rank":275,"colour":"#4DB948","source":"openstreetmap.org","min_zoom":8.0,"operator":"BART","ref":"Green","osm_relation":true,"colour_name":"limegreen"},"arcs":[[41],[42]]},{"type":"MultiLineString","properties":{"kind":"train","name":"SMART","sort_rank":275,"colour":"darkgreen","source":"openstreetmap.org","min_zoom":6.0,"operator":"Sonoma-Marin Area Rail Transit","ref":"1-34, 51-60","osm_relation":true,"colour_name":"green"},"arcs":[[43],[44],[45],[46],[47]]},{"type":"MultiLineString","properties":{"kind":"subway","name":"Daly City-Richmond","sort_rank":275,"colour":"#EF1B23","source":"openstreetmap.org","min_zoom":8.0,"operator":"BART","ref":"Red","osm_relation":true,"colour_name":"crimson"},"arcs":[[48],[49],[50]]},{"type":"MultiLineString","properties":{"kind":"train","name":"Capitol Corridor","service":"regional","sort_rank":275,"colour":"#e6ac11","source":"openstreetmap.org","min_zoom":6.0,"operator":"Amtrak","ref":"518-533; 720-751","osm_relation":true,"colour_name":"goldenrod"},"arcs":[[51],[52]]},{"type":"MultiLineString","properties":{"kind":"train","network":"Caltrain","service":"commuter","sort_rank":275,"colour":"white","name":"Local","source":"openstreetmap.org","min_zoom":6.0,"operator":"TransitAmerica Services","ref":"100s","osm_relation":true,"colour_name":"white"},"arcs":[[53],[54],[55]]},{"type":"MultiLineString","properties":{"kind":"train","name":"Baby Bullet","service":"commuter","sort_rank":275,"colour":"red","source":"openstreetmap.org","min_zoom":6.0,"network":"Caltrain","operator":"TransitAmerica Services","ref":"305-386","osm_relation":true,"colour_name":"red"},"arcs":[[56],[57],[58]]},{"type":"MultiLineString","properties":{"kind":"subway","name":"Millbrae-Pittsburg\/Bay Point","sort_rank":275,"colour":"#FFEC00","source":"openstreetmap.org","min_zoom":8.0,"operator":"BART","ref":"Yellow","osm_relation":true,"colour_name":"yellow"},"arcs":[[59],[60]]}]},"pois":{"type":"GeometryCollection","geometries":[{"type":"Point","properties":{"kind":"nature_reserve","tier":2,"protect_class":"4","area":123256000,"source":"openstreetmap.org","min_zoom":8.82,"operator":"Marin Municipal Water District","id":-7473345,"osm_relation":true,"name":"Mount Tamalpais Watershed"},"coordinates":[3271,886]},{"type":"Point","properties":{"kind":"national_park","tier":1,"protect_class":"5","area":54298900,"source":"openstreetmap.org","min_zoom":8.0,"operator":"United States National Park Service","id":-3947724,"osm_relation":true,"name":"Marin Headlands (GGNRA)"},"coordinates":[3541,510]},{"type":"Point","properties":{"kind":"national_park","protect_class":"2","area":469789000,"source":"openstreetmap.org","min_zoom":6.35,"tier":1,"id":-1250137,"osm_relation":true,"name":"Point Reyes National Seashore"},"coordinates":[2425,1307]}]},"boundaries":{"type":"GeometryCollection","geometries":[{"type":"LineString","properties":{"name:ty":"Fenua Marite","name:cy":"Unol Daleithiau America","name:ko":"\ubbf8\uad6d","name:cv":"\u0410\u043c\u0435\u0440\u0438\u043a\u0103\u0440\u0438 \u041f\u0115\u0440\u043b\u0435\u0448\u04f3\u043b\u043b\u0115 \u0428\u0442\u0430\u0442\u0441\u0435\u043c","name:cu":"\u0410\u043c\u0454\u0440\u0438\u043a\u0430\u0301\u043d\u044c\u0441\u043a\ua651 \u0464\u0434\u044c\u043d\u0465\u043d\ua651\u0301 \u0414\u0440\u044c\u0436\u0430\u0301\u0432\ua651","name:kl":"Naalagaaffeqatigiit","name:cs":"Spojen\u00e9 st\u00e1ty americk\u00e9","name:tw":"USA","name:ki":"United States","name:co":"Stati Uniti d'America","name:kv":"\u0410\u043c\u0435\u0440\u0438\u043a\u0430\u0441\u0430 \u04e6\u0442\u0443\u0432\u0442\u04e7\u043c \u0428\u0442\u0430\u0442\u044a\u044f\u0441","name:th":"\u0e2a\u0e2b\u0e23\u0e31\u0e10\u0e2d\u0e40\u0e21\u0e23\u0e34\u0e01\u0e32","name:ks":"\u0938\u0902\u092f\u0941\u0915\u094d\u0924 \u0930\u093e\u091c\u094d\u200d\u092f \u0905\u092e\u0947\u0930\u093f\u0915\u093e","name:to":"Pule\u02bbanga Fakataha 'o 'Amelika","name:tl":"Estados Unidos","name:ce":"I\u0430\u043c\u0435\u0440\u043a\u0430 \u043f\u0430\u0447\u0445\u044c\u0430\u043b\u043a","name:ta":"\u0b85\u0bae\u0bc6\u0bb0\u0bbf\u0b95\u0bcd\u0b95 \u0b90\u0b95\u0bcd\u0b95\u0bbf\u0baf \u0ba8\u0bbe\u0b9f\u0bc1","name:tg":"\u0418\u0451\u043b\u043e\u0442\u0438 \u041c\u0443\u0442\u0442\u0430\u04b3\u0438\u0434\u0430\u0438 \u0410\u043c\u0440\u0438\u043a\u043e","name:ca":"Estats Units d'Am\u00e8rica","name:te":"\u0c05\u0c2e\u0c46\u0c30\u0c3f\u0c15\u0c3e \u0c38\u0c02\u0c2f\u0c41\u0c15\u0c4d\u0c24 \u0c30\u0c3e\u0c37\u0c4d\u0c1f\u0c4d\u0c30\u0c3e\u0c32\u0c41","name:ka":"\u10d0\u10db\u10d4\u10e0\u10d8\u10d9\u10d8\u10e1 \u10e8\u10d4\u10d4\u10e0\u10d7\u10d4\u10d1\u10e3\u10da\u10d8 \u10e8\u10e2\u10d0\u10e2\u10d4\u10d1\u10d8","name:qu":"Hukllachasqa Amirika Suyukuna","name:da":"Amerikas Forenede Stater","name:de":"Vereinigte Staaten von Amerika","name:dz":"\u0f61\u0f74\u0f0b\u0f53\u0f60\u0f72\u0f4a\u0f7a\u0f4a\u0f0b\u0f66\u0f72\u0f0b\u0f4a\u0f7a\u0f66","source":"openstreetmap.org","name:kn":"\u0c85\u0cae\u0cc7\u0cb0\u0cbf\u0c95 \u0cb8\u0c82\u0caf\u0cc1\u0c95\u0ccd\u0ca4 \u0cb8\u0c82\u0cb8\u0ccd\u0ca5\u0cbe\u0ca8","name:dv":"\u0787\u07ac\u0789\u07ac\u0783\u07a8\u0786\u07a7","name:km":"\u179f\u17a0\u179a\u178a\u17d2\u178b\u17a2\u17b6\u1798\u17c1\u179a\u17b7\u1780","name:lv":"Amerikas Savienot\u0101s Valstis","name:lt":"Jungtin\u0117s Amerikos Valstijos","name:uz":"Amerika Qo\u02bbshma Shtatlari","name:kk":"\u0410\u043c\u0435\u0440\u0438\u043a\u0430 \u049a\u04b1\u0440\u0430\u043c\u0430 \u0428\u0442\u0430\u0442\u0442\u0430\u0440\u044b","name:ur":"\u0631\u06cc\u0627\u0633\u062a\u06c1\u0627\u0626\u06d2 \u0645\u062a\u062d\u062f\u06c1 \u0627\u0645\u0631\u06cc\u06a9\u06c1","name:lb":"Vereenegt Staate vun Amerika","name:la":"Civitates Foederatae Americae","name:lg":"Amereka","name:uk":"\u0421\u043f\u043e\u043b\u0443\u0447\u0435\u043d\u0456 \u0428\u0442\u0430\u0442\u0438 \u0410\u043c\u0435\u0440\u0438\u043a\u0438","name:ug":"\u0626\u0627\u0645\u06d0\u0631\u0649\u0643\u0627 \u0642\u0648\u0634\u0645\u0627 \u0634\u062a\u0627\u062a\u0644\u0649\u0631\u0649","name:li":"Vereinegde State van Amerika","name:ln":"Lisang\u00e1 lya Amer\u00edka","name:lo":"\u0eaa\u0eb0\u0eab\u0eb0\u0ea5\u0eb1\u0e94\u0ead\u0eb2\u0ec0\u0ea1\u0ea5\u0eb4\u0e81\u0eb2","name:kw":"Statys Unys Amerika","name:eo":"Usono","name":"United States of America","name:tk":"Amerikany\u0148 Birle\u015fen \u015etatlary","name:ee":"United States","name:ku":"Dewlet\u00ean Yekb\u00fby\u00ee y\u00ean Amer\u00eekay\u00ea","name:eu":"Ameriketako Estatu Batuak","name:tn":"USA","name:es":"Estados Unidos de Am\u00e9rica","name:ay":"Istadus Unidus","name:rm":"Stadis Unids da l'America","name:rn":"Leta Zunze Ubumwe za Amerika","name:az":"Amerika Birl\u0259\u015fmi\u015f \u015etatlar\u0131","name:ie":"Unit States de America","name:id":"Amerika Serikat","name:ig":"Njikota Obodo Amerika","name:el":"\u0397\u03bd\u03c9\u03bc\u03ad\u03bd\u03b5\u03c2 \u03a0\u03bf\u03bb\u03b9\u03c4\u03b5\u03af\u03b5\u03c2 \u03c4\u03b7\u03c2 \u0391\u03bc\u03b5\u03c1\u03b9\u03ba\u03ae\u03c2","name:as":"\u09ae\u09be\u09f0\u09cd\u0995\u09bf\u09a8 \u09af\u09c1\u0995\u09cd\u09a4\u09f0\u09be\u09b7\u09cd\u099f\u09cd\u09f0","name:ar":"\u0627\u0644\u0648\u0644\u0627\u064a\u0627\u062a \u0627\u0644\u0645\u062a\u0651\u062d\u062f\u0629 \u0627\u0644\u0623\u0645\u0631\u064a\u0643\u064a\u0651\u0629","name:io":"Unionita Stati di Amerika","name:av":"\u0410\u043c\u0435\u0440\u0438\u043a\u0430\u043b\u044a\u0443\u043b \u0426\u043e\u043b\u044a\u0430\u0440\u0430\u043b \u0428\u0442\u0430\u0442\u0430\u043b","name:is":"Bandar\u00edki Nor\u00f0ur-Amer\u00edku","name:am":"\u12e8\u1270\u1263\u1260\u1229\u1275 \u12e8\u12a0\u121c\u122a\u12ab \u130d\u12db\u1276\u127d","name:it":"Stati Uniti d'America","name:an":"Estatos Unitos d'America","name:ru":"\u0421\u043e\u0435\u0434\u0438\u043d\u0451\u043d\u043d\u044b\u0435 \u0428\u0442\u0430\u0442\u044b \u0410\u043c\u0435\u0440\u0438\u043a\u0438","name:ab":"\u0410\u043c\u0435\u0440\u0438\u043a\u0430 \u0415\u0438\u0434\u0443 \u0410\u0448\u0442\u0430\u0442\u049b\u04d9\u0430","name:af":"Verenigde State van Amerika","name:zu":"IMelika","kind_detail":"2","old_name:ru":"\u0421\u0435\u0432\u0435\u0440\u043e-\u0410\u043c\u0435\u0440\u0438\u043a\u0430\u043d\u0441\u043a\u0438\u0435 \u0421\u043e\u0435\u0434\u0438\u043d\u0451\u043d\u043d\u044b\u0435 \u0428\u0442\u0430\u0442\u044b","name:za":"Meijgoz","name:zh-yue":"\u5373\u7f8e\u5229\u5805\u5408\u773e\u570b","name:zh":"\u7f8e\u5229\u575a\u5408\u4f17\u56fd","name:so":"Mareykanka","name:sm":"Iunaite Sitete o Amerika","name:sl":"Zdru\u017eene dr\u017eave Amerike","name:sk":"Spojen\u00e9 \u0161t\u00e1ty americk\u00e9","name:ja":"\u30a2\u30e1\u30ea\u30ab\u5408\u8846\u56fd","name:si":"\u0d85'\u0db8\u0dd9\u0dbb\u0dd2\u0d9a\u0dcf\u200d\u0dc0\u0dda \u0d91\u0d9a\u0dca\u0dc3\u0dad\u0dca \u0dbb\u0dcf\u0da2\u0dca\u200d\u0dba\u0dba\u0db1\u0dca","name:sh":"Sjedinjene Ameri\u010dke Dr\u017eave","name:sg":"\u00c2K\u00f6d\u00f6r\u00f6-\u00f4ko t\u00ee Amer\u00eeka","name:se":"Amerihk\u00e1 ovttastuvvan st\u00e1htat","name:sd":"\u0622\u0645\u0631\u064a\u06aa\u0627","name:sc":"Istados Unidos de America","name:sa":"\u0938\u0902\u092f\u0941\u0915\u094d\u0924\u093e\u0928\u093f \u0930\u093e\u091c\u094d\u092f\u093e\u0928\u093f","name:bs":"Sjedinjene Ameri\u010dke Dr\u017eave","name:bm":"Amerika ka Kelenyalen Jamanaw","name:bn":"\u09ae\u09be\u09b0\u09cd\u0995\u09bf\u09a8 \u09af\u09c1\u0995\u09cd\u09a4\u09b0\u09be\u09b7\u09cd\u099f\u09cd\u09b0","name:bo":"\u0f68\u0f0b\u0f58\u0f7a\u0f0b\u0f62\u0f72\u0f0b\u0f41\u0f0b\u0f62\u0f92\u0fb1\u0f63\u0f0b\u0f55\u0fb2\u0f53\u0f0b\u0f58\u0f49\u0f58\u0f0b\u0f60\u0f56\u0fb2\u0f7a\u0f63\u0f0b\u0f62\u0f92\u0fb1\u0f63\u0f0b\u0f41\u0f56\u0f0d","name:br":"Stado\u00f9-Unanet Amerika","name:et":"Ameerika \u00dchendriigid","name:sw":"Muungano wa Madola ya Amerika","name:be":"\u0417\u043b\u0443\u0447\u0430\u043d\u044b\u044f \u0428\u0442\u0430\u0442\u044b \u0410\u043c\u0435\u0440\u044b\u043a\u0456","name:su":"Am\u00e9rika Sarikat","name:bg":"\u0421\u044a\u0435\u0434\u0438\u043d\u0435\u043d\u0438 \u0430\u043c\u0435\u0440\u0438\u043a\u0430\u043d\u0441\u043a\u0438 \u0449\u0430\u0442\u0438","name:ss":"IMelika","name:ba":"\u0410\u043c\u0435\u0440\u0438\u043a\u0430 \u04a0\u0443\u0448\u043c\u0430 \u0428\u0442\u0430\u0442\u0442\u0430\u0440\u044b","name:sq":"Shtetet e Bashkuara t\u00eb Amerik\u00ebs","name:jv":"Am\u00e9rika Sar\u00e9kat","name:bi":"Yunaeted Stet blong Amerika","name:ia":"Statos Unite de America","name:pt":"Estados Unidos da Am\u00e9rica","name:ps":"\u062f \u0627\u0645\u0631\u064a\u06a9\u0627 \u0645\u062a\u062d\u062f\u0647 \u0627\u064a\u0627\u0644\u0627\u062a","name:om":"USA","name:oc":"Estats Units d'America","min_zoom":8.0,"name:ro":"Statele Unite ale Americii","name:zh-min-nan":"America Ha\u030dp-chi\u00f2ng-kok","name:os":"\u0410\u043c\u0435\u0440\u0438\u043a\u00e6\u0439\u044b \u0418\u0443\u0433\u043e\u043d\u0434 \u0428\u0442\u0430\u0442\u0442\u00e6","name:or":"\u0b2f\u0b41\u0b15\u0b4d\u0b24\u0b30\u0b3e\u0b37\u0b4d\u0b1f\u0b4d\u0b30 \u0b06\u0b2e\u0b47\u0b30\u0b3f\u0b15\u0b3e","name:pl":"Stany Zjednoczone Ameryki","sort_rank":262,"name:sr":"\u0421\u0458\u0435\u0434\u0438\u045a\u0435\u043d\u0435 \u0410\u043c\u0435\u0440\u0438\u0447\u043a\u0435 \u0414\u0440\u0436\u0430\u0432\u0435","osm_relation":true,"name:xh":"IYunayithedi Steyitsi","name:pa":"\u0a38\u0a70\u0a2f\u0a41\u0a15\u0a24 \u0a30\u0a3e\u0a1c \u0a05\u0a2e\u0a30\u0a40\u0a15\u0a3e","name:tr":"Amerika Birle\u015fik Devletleri","name:hi":"\u0938\u0902\u092f\u0941\u0915\u094d\u0924 \u0930\u093e\u091c\u094d\u092f \u0905\u092e\u0947\u0930\u093f\u0915\u093e","name:sv":"Amerikas F\u00f6renta Stater","name:he":"\u05d0\u05e8\u05e6\u05d5\u05ea \u05d4\u05d1\u05e8\u05d9\u05ea","name:ha":"kunkiyar taraiyar Amurika","name:hy":"\u0531\u0574\u0565\u0580\u056b\u056f\u0561\u0575\u056b \u0544\u056b\u0561\u0581\u0575\u0561\u056c \u0546\u0561\u0570\u0561\u0576\u0563\u0576\u0565\u0580","name:ht":"Etazini","name:hu":"Amerikai Egyes\u00fclt \u00c1llamok","name:hr":"Sjedinjene Ameri\u010dke Dr\u017eave","kind":"country","name:ts":"United States","name:yi":"\u05e4\u05d0\u05e8\u05d0\u05d9\u05d9\u05e0\u05d9\u05e7\u05d8\u05e2 \u05e9\u05d8\u05d0\u05d8\u05df \u05e4\u05d5\u05df \u05d0\u05de\u05e2\u05e8\u05d9\u05e7\u05e2","name:iu":"\u140a\u14a5\u140a\u14d5\u1472","name:yo":"\u00c0w\u1ecdn \u00ccp\u00ednl\u1eb9\u0300 A\u1e63\u1ecd\u0300kan Am\u1eb9\u0301r\u00edk\u00e0","name:mt":"Stati Uniti tal-Amerika","name:ms":"Amerika Syarikat","name:mr":"\u0905\u092e\u0947\u0930\u093f\u0915\u0947\u091a\u0940 \u0938\u0902\u092f\u0941\u0915\u094d\u0924 \u0938\u0902\u0938\u094d\u0925\u093e\u0928\u0947","name:my":"\u1021\u1019\u1031\u101b\u102d\u1000\u1014\u103a\u1015\u103c\u100a\u103a\u1011\u1031\u102c\u1004\u103a\u1005\u102f","name:mg":"Etazonia","name:vi":"Hoa K\u1ef3","name:ml":"\u0d05\u0d2e\u0d47\u0d30\u0d3f\u0d15\u0d4d\u0d15\u0d28\u0d4d\u200d \u0d10\u0d15\u0d4d\u0d2f\u0d28\u0d3e\u0d1f\u0d41\u0d15\u0d33\u0d4d\u200d","name:mn":"\u0410\u043c\u0435\u0440\u0438\u043a\u0438\u0439\u043d \u041d\u044d\u0433\u0434\u0441\u044d\u043d \u0423\u043b\u0441","name:mi":"Hononga-o-Amerika","id":-148838,"name:mk":"\u0421\u043e\u0435\u0434\u0438\u043d\u0435\u0442\u0438 \u0410\u043c\u0435\u0440\u0438\u043a\u0430\u043d\u0441\u043a\u0438 \u0414\u0440\u0436\u0430\u0432\u0438","name:vo":"Lamerik\u00e4n","name:fa":"\u0627\u06cc\u0627\u0644\u0627\u062a \u0645\u062a\u062d\u062f\u0647 \u0622\u0645\u0631\u06cc\u06a9\u0627","name:rw":"Leta Zunze Ubumwe z\u2019Amerika","name:ff":"Dowlaaji Dentu\u0257i","name:fi":"Amerikan yhdysvallat","name:ky":"\u0410\u043c\u0435\u0440\u0438\u043a\u0430 \u041a\u043e\u0448\u043c\u043e \u0428\u0442\u0430\u0442\u0442\u0430\u0440\u044b","old_name:vi":"M\u1ef9 L\u1ee3i Ki\u00ean;Ma Ly C\u0103n;Nh\u00e3 Di L\u00fd","name:fo":"Sambandsr\u00edki\u00f0 Amerika","alt_name:vi":"Hoa K\u00ec;M\u1ef9;M\u0129","name:fr":"\u00c9tats-Unis d'Am\u00e9rique","name:fy":"Feriene Steaten fan Amearika","name:nl":"Verenigde Staten van Amerika","name:nn":"USA","name:no":"Amerikas forente stater","name:na":"Eben Merika","name:ne":"\u0938\u0902\u092f\u0941\u0915\u094d\u0924 \u0930\u093e\u091c\u094d\u092f \u0905\u092e\u0947\u0930\u093f\u0915\u093e","name:wa":"Estats Unis d' Amerike","name:wo":"Diwaan-yu-Bennoo yu Aamerig","name:nv":"W\u00e1\u00e1shindoon Bik\u00e9yah A\u0142hidadiidzoo\u00edg\u00ed\u00ed","name:ga":"St\u00e1it Aontaithe Mheirice\u00e1","name:gd":"Na St\u00e0itean Aonaichte","name:gn":"Tet\u00e3 pete\u0129 reko Am\u00e9rikagua","name:gl":"Estados Unidos de Am\u00e9rica","maritime_boundary":true,"name:gv":"Steatyn Unnaneysit America","name:gu":"\u0ab8\u0a82\u0aaf\u0ac1\u0a95\u0acd\u0aa4 \u0ab0\u0abe\u0a9c\u0acd\u0aaf \u0a85\u0aae\u0ac7\u0ab0\u0abf\u0a95\u0abe","name:tt":"\u0410\u043c\u0435\u0440\u0438\u043a\u0430 \u041a\u0443\u0448\u043c\u0430 \u0428\u0442\u0430\u0442\u043b\u0430\u0440\u044b"},"arcs":[0]},{"type":"LineString","properties":{"name:pt":"Calif\u00f3rnia","name:cy":"Califfornia","name:ko":"\uce98\ub9ac\ud3ec\ub2c8\uc544","name:cv":"\u041a\u0430\u043b\u0438\u0444\u043e\u0440\u043d\u0438","name:cs":"Kalifornie","name:kw":"Kaliforni","min_zoom":8.0,"name:tl":"Kaliporniya","name:sv":"Kalifornien","name:os":"\u041a\u0430\u043b\u0438\u0444\u043e\u0440\u043d\u0438","name:pl":"Kalifornia","name:ta":"\u0b95\u0bb2\u0bbf\u0baa\u0bcb\u0bb0\u0bcd\u0ba9\u0bbf\u0baf\u0bbe","name:ca":"Calif\u00f2rnia","name:ka":"\u10d9\u10d0\u10da\u10d8\u10e4\u10dd\u10e0\u10dc\u10d8\u10d0","sort_rank":256,"name:da":"Californien","name:de":"Kalifornien","source":"openstreetmap.org","osm_relation":true,"name:kn":"\u0c95\u0ccd\u0caf\u0cbe\u0cb2\u0cbf\u0cab\u0cca\u0cb0\u0ccd\u0ca8\u0cbf\u0caf","name:tr":"Kaliforniya","name:uz":"Kaliforniya","name:he":"\u05e7\u05dc\u05d9\u05e4\u05d5\u05e8\u05e0\u05d9\u05d4","name:eo":"Kalifornio","name:uk":"\u041a\u0430\u043b\u0456\u0444\u043e\u0440\u043d\u0456\u044f","name:hy":"\u053f\u0561\u056c\u056b\u0586\u0578\u0580\u0576\u056b\u0561","name:ht":"Kalif\u00f2ni","name:hu":"Kalifornia","name:hr":"Kalifornija","name:oc":"Calif\u00f2rnia","name:el":"\u039a\u03b1\u03bb\u03b9\u03c6\u03cc\u03c1\u03bd\u03b9\u03b1","kind":"region","name":"California","name:th":"\u0e23\u0e31\u0e10\u0e41\u0e04\u0e25\u0e34\u0e1f\u0e2d\u0e23\u0e4c\u0e40\u0e19\u0e35\u0e22","name:yi":"\u05e7\u05d0\u05dc\u05d9\u05e4\u05d0\u05e8\u05e0\u05d9\u05e2","name:az":"Kaliforniya","name:mr":"\u0915\u0945\u0932\u093f\u092b\u094b\u0930\u094d\u0928\u093f\u092f\u093e","name:ar":"\u0643\u0627\u0644\u064a\u0641\u0648\u0631\u0646\u064a\u0627","name:is":"Kaliforn\u00eda","name:iu":"\u1473\u14d6\u1434\u1550\u14c3\u140a","name:ml":"\u0d15\u0d3e\u0d32\u0d3f\u0d2b\u0d4b\u0d30\u0d4d\u200d\u0d23\u0d3f\u0d2f","name:vi":"Ca Li","name:mn":"\u041a\u0430\u043b\u0438\u0444\u043e\u0440\u043d\u0438","name:mi":"Karap\u014dnia","id":-165475,"name:af":"Kaliforni\u00eb","name:fa":"\u06a9\u0627\u0644\u06cc\u0641\u0631\u0646\u06cc\u0627","name:lt":"Kalifornija","kind_detail":"4","name:hi":"\u0915\u0948\u0932\u093f\u092b\u093c\u094b\u0930\u094d\u0928\u093f\u092f\u093e","name:mg":"Kalifornia","name:fo":"Kalifornia","name:fr":"Californie","name:fy":"Kalifornje","name:zh":"\u52a0\u5229\u798f\u5c3c\u4e9a\u5dde","name:sl":"Kalifornija","name:nl":"Californi\u00eb","name:ja":"\u30ab\u30ea\u30d5\u30a9\u30eb\u30cb\u30a2\u5dde","name:sh":"Kalifornija","name:br":"Kalifornia","name:eu":"Kalifornia","name:bn":"\u0995\u09cd\u09af\u09be\u09b2\u09bf\u09ab\u09cb\u09b0\u09cd\u09a8\u09bf\u09af\u09bc\u09be","name:sk":"Kalifornia","name:ru":"\u041a\u0430\u043b\u0438\u0444\u043e\u0440\u043d\u0438\u044f","name:be":"\u041a\u0430\u043b\u0456\u0444\u043e\u0440\u043d\u0456\u044f","name:bg":"\u041a\u0430\u043b\u0438\u0444\u043e\u0440\u043d\u0438\u044f","name:sr":"\u041a\u0430\u043b\u0438\u0444\u043e\u0440\u043d\u0438\u0458\u0430","name:nv":"Ak\u00e9\u00e9h\u00e1sh\u012f\u0301\u012f\u0301 Hahoodzo","name:gd":"Calaf\u00f2rnia","maritime_boundary":true,"name:fi":"Kalifornia"},"arcs":[1]}]},"roads":{"type":"GeometryCollection","geometries":[{"type":"LineString","properties":{"bus_network":null,"sort_rank":380,"kind_detail":"primary","old_name":"Howard Street","kind":"major_road","source":"openstreetmap.org","min_zoom":8.0,"bus_shield_text":"12","landuse_kind":"urban_area"},"arcs":[67]},{"type":"MultiLineString","properties":{"kind":"major_road","network":"US:CA","sort_rank":380,"kind_detail":"primary","is_bicycle_related":true,"bicycle_shield_text":null,"bicycle_network":"rcn","source":"openstreetmap.org","min_zoom":8.0,"landuse_kind":"national_park","shield_text":"1","ref":"CA 1"},"arcs":[[68],[69]]},{"type":"MultiLineString","properties":{"source":"openstreetmap.org","kind":"highway","landuse_kind":"urban_area","sort_rank":383,"kind_detail":"motorway","ref":"US 101","min_zoom":8.0},"arcs":[[70],[71]]},{"type":"LineString","properties":{"source":"openstreetmap.org","kind":"ferry","name":"San Francisco Pier 41 - San Francisco Ferry Building","sort_rank":355,"min_zoom":8.0,"id":98752545},"arcs":[72]},{"type":"MultiLineString","properties":{"cycleway_right":"lane","sort_rank":380,"kind_detail":"primary","is_bicycle_related":true,"bus_network":null,"bicycle_shield_text":"50","bicycle_network":"lcn","source":"openstreetmap.org","min_zoom":8.0,"bus_shield_text":"23","landuse_kind":"urban_area","kind":"major_road"},"arcs":[[73],[74],[75],[76]]},{"type":"LineString","properties":{"kind":"ferry","name":"Sausalito - San Francisco Pier 41","sort_rank":355,"landuse_kind":"urban_area","is_bicycle_related":true,"source":"openstreetmap.org","min_zoom":8.0,"id":24354980},"arcs":[77]},{"type":"LineString","properties":{"kind":"major_road","sort_rank":380,"kind_detail":"primary","is_bicycle_related":true,"bicycle_shield_text":"30","bicycle_network":"rcn","source":"openstreetmap.org","min_zoom":8.0,"landuse_kind":"urban_area","id":24603573},"arcs":[78]},{"type":"LineString","properties":{"kind":"ferry","name":"Angel Island - San Francisco Pier 41 (Seasonal)","sort_rank":355,"landuse_kind":"urban_area","is_bicycle_related":true,"source":"openstreetmap.org","min_zoom":8.0,"id":98752555},"arcs":[79]},{"type":"LineString","properties":{"source":"openstreetmap.org","kind":"ferry","name":"Sausalito - San Francisco Pier 41","sort_rank":355,"is_bicycle_related":true,"min_zoom":8.0,"id":24354980},"arcs":[80]},{"type":"MultiLineString","properties":{"bus_network":null,"sort_rank":380,"kind_detail":"primary","is_bicycle_related":true,"cycleway_right":"shared_lane","bicycle_shield_text":"90","bicycle_network":"lcn","source":"openstreetmap.org","min_zoom":8.0,"bus_shield_text":"8BX","landuse_kind":"urban_area","kind":"major_road"},"arcs":[[81],[82]]},{"type":"MultiLineString","properties":{"kind":"major_road","network":"US:CA","sort_rank":380,"kind_detail":"primary","source":"openstreetmap.org","min_zoom":8.0,"shield_text":"116","ref":"CA 116"},"arcs":[[83],[84],[85],[86]]},{"type":"LineString","properties":{"source":"openstreetmap.org","kind":"major_road","sort_rank":380,"kind_detail":"primary","ref":"CA 12;CA 121","min_zoom":8.0,"id":496941615},"arcs":[87]},{"type":"LineString","properties":{"bus_network":null,"network":"US:US","sort_rank":381,"landuse_kind":"urban_area","is_bicycle_related":true,"kind":"major_road","source":"openstreetmap.org","min_zoom":8.0,"bus_shield_text":"30X","shield_text":"101","kind_detail":"trunk","ref":"US 101"},"arcs":[88]},{"type":"MultiLineString","properties":{"bus_network":null,"network":"US:US","sort_rank":381,"kind_detail":"trunk","old_name":"Marlette Street","is_bicycle_related":true,"kind":"major_road","source":"openstreetmap.org","min_zoom":8.0,"bus_shield_text":"47","shield_text":"101","landuse_kind":"urban_area","ref":"US 101"},"arcs":[[89],[90],[91]]},{"type":"MultiLineString","properties":{"kind":"highway","network":"US:I","sort_rank":383,"landuse_kind":"urban_area","source":"openstreetmap.org","min_zoom":8.0,"all_networks":["US:I"],"kind_detail":"motorway","shield_text":"280","ref":"I 280","all_shield_texts":["280"]},"arcs":[[92],[93],[94],[95],[96],[97],[98],[99],[100]]},{"type":"MultiLineString","properties":{"kind":"major_road","network":"US:CA","sort_rank":380,"kind_detail":"primary","is_bicycle_related":true,"bicycle_shield_text":"PCB","bicycle_network":"rcn","source":"openstreetmap.org","min_zoom":8.0,"landuse_kind":"park","shield_text":"1","ref":"CA 1"},"arcs":[[101],[102],[103],[104],[105]]},{"type":"LineString","properties":{"source":"openstreetmap.org","kind":"ferry","name":"Alameda Harbor Bay - San Francisco Ferry Building","sort_rank":355,"min_zoom":8.0,"id":98752535},"arcs":[106]},{"type":"LineString","properties":{"source":"openstreetmap.org","kind":"ferry","name":"San Francisco - Larkspur Ferry","sort_rank":355,"landuse_kind":"urban_area","min_zoom":8.0,"id":31772645},"arcs":[107]},{"type":"LineString","properties":{"bus_network":null,"sort_rank":380,"kind_detail":"primary","kind":"major_road","source":"openstreetmap.org","min_zoom":8.0,"bus_shield_text":"27","landuse_kind":"urban_area"},"arcs":[108]},{"type":"MultiLineString","properties":{"kind":"major_road","network":"US:CA","sort_rank":381,"landuse_kind":"urban_area","is_bicycle_related":true,"bicycle_shield_text":"PCB","bicycle_network":"rcn","source":"openstreetmap.org","min_zoom":8.0,"kind_detail":"trunk","shield_text":"35","ref":"CA 35"},"arcs":[[109],[110]]},{"type":"LineString","properties":{"kind":"major_road","network":"US:CA","sort_rank":380,"kind_detail":"primary","source":"openstreetmap.org","min_zoom":8.0,"shield_text":"116","ref":"SR 116"},"arcs":[111]},{"type":"LineString","properties":{"kind":"major_road","cycleway_left":"shared_lane","sort_rank":380,"kind_detail":"primary","is_bicycle_related":true,"bus_network":null,"bicycle_shield_text":"30","bicycle_network":"rcn","source":"openstreetmap.org","min_zoom":8.0,"bus_shield_text":"7X","landuse_kind":"urban_area","id":397079282},"arcs":[112]},{"type":"MultiLineString","properties":{"kind":"highway","network":"US:US","sort_rank":383,"landuse_kind":"national_park","source":"openstreetmap.org","min_zoom":8.0,"all_networks":["US:US","US:CA"],"old_name":"Waldo Tunnel","shield_text":"101","kind_detail":"motorway","ref":"US 101;CA 1","all_shield_texts":["101","1"]},"arcs":[[113],[114]]},{"type":"MultiLineString","properties":{"cycleway_right":"lane","sort_rank":380,"kind_detail":"primary","is_bicycle_related":true,"bus_network":null,"source":"openstreetmap.org","min_zoom":8.0,"bus_shield_text":"7X","landuse_kind":"urban_area","kind":"major_road"},"arcs":[[115],[116],[117]]},{"type":"LineString","properties":{"kind":"major_road","sort_rank":380,"kind_detail":"primary","is_bicycle_related":true,"bicycle_shield_text":"5","bicycle_network":"lcn","source":"openstreetmap.org","min_zoom":8.0,"landuse_kind":"urban_area"},"arcs":[118]},{"type":"LineString","properties":{"bus_network":null,"sort_rank":380,"kind_detail":"primary","kind":"major_road","source":"openstreetmap.org","min_zoom":8.0,"bus_shield_text":"82X","landuse_kind":"urban_area"},"arcs":[119]},{"type":"MultiLineString","properties":{"bus_network":null,"network":"US:CA","sort_rank":380,"kind_detail":"primary","is_bicycle_related":true,"kind":"major_road","bicycle_shield_text":"91","bicycle_network":"lcn","source":"openstreetmap.org","min_zoom":8.0,"bus_shield_text":"18","shield_text":"35","landuse_kind":"urban_area","ref":"CA 35"},"arcs":[[120],[121],[122]]},{"type":"MultiLineString","properties":{"bus_network":null,"sort_rank":380,"kind_detail":"primary","kind":"major_road","source":"openstreetmap.org","min_zoom":8.0,"bus_shield_text":"18","landuse_kind":"urban_area"},"arcs":[[123],[124]]},{"type":"MultiLineString","properties":{"sort_rank":380,"kind_detail":"primary","min_zoom":8.0,"kind":"major_road","source":"openstreetmap.org"},"arcs":[[125],[126],[127],[128],[129],[130],[131]]},{"type":"LineString","properties":{"bus_network":null,"sort_rank":380,"kind_detail":"primary","is_bicycle_related":true,"cycleway_right":"lane","bicycle_shield_text":"30","bicycle_network":"rcn","source":"openstreetmap.org","min_zoom":8.0,"bus_shield_text":"12","landuse_kind":"urban_area","kind":"major_road"},"arcs":[132]},{"type":"LineString","properties":{"cycleway_right":"lane","sort_rank":380,"kind_detail":"primary","is_bicycle_related":true,"kind":"major_road","bicycle_shield_text":"50","bicycle_network":"lcn","source":"openstreetmap.org","min_zoom":8.0,"landuse_kind":"urban_area"},"arcs":[133]},{"type":"MultiLineString","properties":{"bus_network":null,"sort_rank":380,"kind_detail":"primary","is_bicycle_related":true,"cycleway_right":"lane","bicycle_shield_text":"50","bicycle_network":"lcn","source":"openstreetmap.org","min_zoom":8.0,"bus_shield_text":"43","landuse_kind":"urban_area","kind":"major_road"},"arcs":[[134],[135],[136],[137]]},{"type":"MultiLineString","properties":{"bus_network":null,"sort_rank":380,"kind_detail":"primary","kind":"major_road","source":"openstreetmap.org","min_zoom":8.0,"bus_shield_text":"1AX","landuse_kind":"urban_area"},"arcs":[[138],[139]]},{"type":"LineString","properties":{"cycleway_right":"lane","sort_rank":380,"kind_detail":"primary","is_bicycle_related":true,"kind":"major_road","bicycle_shield_text":"30","bicycle_network":"rcn","bus_network":null,"source":"openstreetmap.org","min_zoom":8.0,"bus_shield_text":"82X","landuse_kind":"urban_area","id":242896157},"arcs":[140]},{"type":"MultiLineString","properties":{"kind":"major_road","sort_rank":380,"kind_detail":"primary","is_bicycle_related":true,"bicycle_shield_text":null,"bicycle_network":"rcn","source":"openstreetmap.org","min_zoom":8.0},"arcs":[[141],[142]]},{"type":"MultiLineString","properties":{"cycleway_right":"track","sort_rank":380,"kind_detail":"primary","is_bicycle_related":true,"bus_network":null,"bicycle_shield_text":"50","bicycle_network":"lcn","source":"openstreetmap.org","min_zoom":8.0,"bus_shield_text":"L-Owl","landuse_kind":"urban_area","kind":"major_road"},"arcs":[[143],[144]]},{"type":"LineString","properties":{"kind":"major_road","sort_rank":380,"landuse_kind":"urban_area","source":"openstreetmap.org","min_zoom":8.0,"kind_detail":"primary","ref":"CA 12","id":322508792},"arcs":[145]},{"type":"MultiLineString","properties":{"kind":"major_road","sort_rank":380,"kind_detail":"primary","is_bicycle_related":true,"cycleway":"track","source":"openstreetmap.org","min_zoom":8.0,"landuse_kind":"urban_area"},"arcs":[[146],[147]]},{"type":"LineString","properties":{"kind":"major_road","cycleway_left":"shared_lane","sort_rank":380,"kind_detail":"primary","is_bicycle_related":true,"bus_network":null,"bicycle_shield_text":"50","bicycle_network":"lcn","source":"openstreetmap.org","min_zoom":8.0,"bus_shield_text":"L-Owl","landuse_kind":"urban_area","id":310458108},"arcs":[148]},{"type":"MultiLineString","properties":{"source":"openstreetmap.org","kind":"major_road","old_name":"Howard Street","sort_rank":380,"kind_detail":"primary","landuse_kind":"urban_area","min_zoom":8.0},"arcs":[[149],[150],[151],[152]]},{"type":"MultiLineString","properties":{"cycleway_right":"lane","sort_rank":380,"kind_detail":"primary","is_bicycle_related":true,"kind":"major_road","bicycle_shield_text":"45","bicycle_network":"lcn","source":"openstreetmap.org","min_zoom":8.0,"landuse_kind":"urban_area"},"arcs":[[153],[154],[155],[156],[157]]},{"type":"MultiLineString","properties":{"bus_network":null,"sort_rank":380,"kind_detail":"primary","kind":"major_road","source":"openstreetmap.org","min_zoom":8.0,"bus_shield_text":"83X","landuse_kind":"urban_area"},"arcs":[[158],[159]]},{"type":"MultiLineString","properties":{"kind":"highway","network":"US:US","sort_rank":383,"kind_detail":"motorway","source":"openstreetmap.org","min_zoom":8.0,"all_networks":["US:US","US:CA"],"shield_text":"101","ref":"US 101;CA 128","all_shield_texts":["101","128"]},"arcs":[[160],[161]]},{"type":"LineString","properties":{"kind":"major_road","network":"US:CA","sort_rank":380,"kind_detail":"primary","is_bicycle_related":true,"bicycle_shield_text":"91","bicycle_network":"lcn","source":"openstreetmap.org","min_zoom":8.0,"landuse_kind":"urban_area","shield_text":"35","ref":"CA 35"},"arcs":[162]},{"type":"LineString","properties":{"cycleway_right":"lane","sort_rank":380,"kind_detail":"primary","is_bicycle_related":true,"kind":"major_road","bicycle_shield_text":"50","bicycle_network":"lcn","bus_network":null,"source":"openstreetmap.org","min_zoom":8.0,"bus_shield_text":"7R","landuse_kind":"urban_area","id":224197570},"arcs":[163]},{"type":"LineString","properties":{"cycleway_right":"track","sort_rank":380,"kind_detail":"primary","is_bicycle_related":true,"kind":"major_road","bicycle_shield_text":"50","bicycle_network":"lcn","bus_network":null,"source":"openstreetmap.org","min_zoom":8.0,"bus_shield_text":"N-Owl","landuse_kind":"urban_area","id":465213825},"arcs":[164]},{"type":"LineString","properties":{"kind":"major_road","sort_rank":380,"kind_detail":"primary","is_bicycle_related":true,"bicycle_network":"lcn","source":"openstreetmap.org","min_zoom":8.0,"landuse_kind":"urban_area","id":511075047},"arcs":[165]},{"type":"MultiLineString","properties":{"bus_network":null,"sort_rank":380,"kind_detail":"primary","kind":"major_road","source":"openstreetmap.org","min_zoom":8.0,"bus_shield_text":"81X","landuse_kind":"urban_area"},"arcs":[[166],[167]]},{"type":"LineString","properties":{"source":"openstreetmap.org","kind":"ferry","name":"Oakland Jack London Square- AT&T Park (Seasonal)","sort_rank":355,"is_bicycle_related":true,"min_zoom":8.0,"id":98763155},"arcs":[168]},{"type":"MultiLineString","properties":{"kind":"highway","network":"US:CA","sort_rank":383,"landuse_kind":"urban_area","source":"openstreetmap.org","min_zoom":8.0,"all_networks":["US:CA"],"kind_detail":"motorway","shield_text":"12","ref":"CA 12","all_shield_texts":["12"]},"arcs":[[169],[170]]},{"type":"LineString","properties":{"bus_network":null,"sort_rank":380,"kind_detail":"primary","kind":"major_road","source":"openstreetmap.org","min_zoom":8.0,"bus_shield_text":"8AX","landuse_kind":"urban_area","name:zh":"\u4e7e\u5c3c\u8857"},"arcs":[171]},{"type":"LineString","properties":{"source":"openstreetmap.org","kind":"ferry","name":"Oakland Jack London Square - South San Francisco","sort_rank":355,"is_bicycle_related":true,"min_zoom":8.0,"id":184265695},"arcs":[172]},{"type":"LineString","properties":{"bus_network":null,"sort_rank":380,"kind_detail":"primary","is_bicycle_related":true,"kind":"major_road","bicycle_shield_text":"20","bicycle_network":"lcn","source":"openstreetmap.org","min_zoom":8.0,"bus_shield_text":"43","landuse_kind":"urban_area"},"arcs":[173]},{"type":"MultiLineString","properties":{"cycleway_right":"lane","sort_rank":380,"kind_detail":"primary","is_bicycle_related":true,"bus_network":null,"bicycle_shield_text":"25","bicycle_network":"lcn","source":"openstreetmap.org","min_zoom":8.0,"bus_shield_text":"9R","landuse_kind":"urban_area","kind":"major_road"},"arcs":[[174],[175],[176]]},{"type":"LineString","properties":{"cycleway_right":"lane","sort_rank":380,"kind_detail":"primary","is_bicycle_related":true,"kind":"major_road","bicycle_shield_text":"45","bicycle_network":"lcn","bus_network":null,"source":"openstreetmap.org","min_zoom":8.0,"bus_shield_text":"N-Owl","landuse_kind":"urban_area","id":160325579},"arcs":[177]},{"type":"LineString","properties":{"bus_network":null,"sort_rank":380,"kind_detail":"primary","is_bicycle_related":true,"kind":"major_road","bicycle_shield_text":"30","cycleway":"lane","source":"openstreetmap.org","min_zoom":8.0,"bus_shield_text":"5R","landuse_kind":"urban_area","bicycle_network":"rcn"},"arcs":[178]},{"type":"MultiLineString","properties":{"bus_network":null,"sort_rank":380,"kind_detail":"primary","is_bicycle_related":true,"kind":"major_road","bicycle_shield_text":"55","bicycle_network":"lcn","source":"openstreetmap.org","min_zoom":8.0,"bus_shield_text":"31BX","landuse_kind":"urban_area"},"arcs":[[179],[180],[181]]},{"type":"LineString","properties":{"bus_network":null,"sort_rank":380,"kind_detail":"primary","is_bicycle_related":true,"cycleway_right":"shared_lane","bicycle_shield_text":"50","bicycle_network":"lcn","source":"openstreetmap.org","min_zoom":8.0,"bus_shield_text":"48","landuse_kind":"urban_area","kind":"major_road"},"arcs":[182]},{"type":"LineString","properties":{"bus_network":null,"sort_rank":381,"landuse_kind":"urban_area","kind":"major_road","source":"openstreetmap.org","min_zoom":8.0,"bus_shield_text":"72M","kind_detail":"trunk"},"arcs":[183]},{"type":"MultiLineString","properties":{"bus_network":null,"sort_rank":380,"kind_detail":"primary","kind":"major_road","source":"openstreetmap.org","min_zoom":8.0,"bus_shield_text":"K-Owl","landuse_kind":"urban_area"},"arcs":[[184],[185]]},{"type":"MultiLineString","properties":{"kind":"highway","network":"US:US","sort_rank":383,"landuse_kind":"urban_area","source":"openstreetmap.org","min_zoom":8.0,"all_networks":["US:US"],"kind_detail":"motorway","shield_text":"101","ref":"US 101","all_shield_texts":["101"]},"arcs":[[186],[187],[188],[189],[190],[191],[192],[193],[194],[195],[196],[197],[198],[199],[200],[201],[202],[203],[204],[205],[206],[207]]},{"type":"LineString","properties":{"bus_network":null,"sort_rank":380,"kind_detail":"primary","is_bicycle_related":true,"cycleway_right":"shared_lane","bicycle_shield_text":"5","bicycle_network":"lcn","source":"openstreetmap.org","min_zoom":8.0,"bus_shield_text":"N-Owl","landuse_kind":"urban_area","kind":"major_road"},"arcs":[208]},{"type":"MultiLineString","properties":{"bus_network":null,"sort_rank":380,"kind_detail":"primary","is_bicycle_related":true,"kind":"major_road","bicycle_shield_text":"50","bicycle_network":"lcn","source":"openstreetmap.org","min_zoom":8.0,"bus_shield_text":"23","landuse_kind":"urban_area"},"arcs":[[209],[210],[211],[212]]},{"type":"MultiLineString","properties":{"kind":"highway","network":"US:CA","sort_rank":383,"kind_detail":"motorway","source":"openstreetmap.org","min_zoom":8.0,"all_networks":["US:CA"],"shield_text":"37","ref":"CA 37","all_shield_texts":["37"]},"arcs":[[213],[214],[215],[216],[217],[218]]},{"type":"LineString","properties":{"kind":"highway","network":"US:US","sort_rank":383,"kind_detail":"motorway","source":"openstreetmap.org","min_zoom":8.0,"all_networks":["US:US"],"nat_name":"United States Route 101","shield_text":"101","landuse_kind":"urban_area","ref":"US 101","id":25025833,"all_shield_texts":["101"]},"arcs":[219]},{"type":"MultiLineString","properties":{"bus_network":null,"network":"US:US","sort_rank":381,"kind_detail":"trunk","old_name":"Marlette Street","is_bicycle_related":true,"kind":"major_road","source":"openstreetmap.org","min_zoom":8.0,"bus_shield_text":"30X","shield_text":"101","landuse_kind":"urban_area","ref":"US 101"},"arcs":[[220],[221],[222]]},{"type":"MultiLineString","properties":{"bus_network":null,"network":"US:US","sort_rank":381,"kind_detail":"trunk","bus_shield_text":"76X","is_bicycle_related":true,"kind":"major_road","source":"openstreetmap.org","min_zoom":8.0,"old_name":"Marlette Street","shield_text":"101","landuse_kind":"urban_area","ref":"US 101"},"arcs":[[223],[224]]},{"type":"MultiLineString","properties":{"bus_network":null,"sort_rank":380,"kind_detail":"primary","is_bicycle_related":true,"cycleway_right":"lane","bicycle_shield_text":"50","bicycle_network":"lcn","source":"openstreetmap.org","min_zoom":8.0,"bus_shield_text":"K-Owl","landuse_kind":"urban_area","kind":"major_road"},"arcs":[[225],[226],[227]]},{"type":"MultiLineString","properties":{"bus_network":null,"network":"US:US","sort_rank":381,"kind_detail":"trunk","is_bicycle_related":true,"kind":"major_road","source":"openstreetmap.org","min_zoom":8.0,"bus_shield_text":"76X","shield_text":"101","landuse_kind":"urban_area","ref":"US 101"},"arcs":[[228],[229],[230],[231]]},{"type":"MultiLineString","properties":{"bus_network":null,"network":"US:CA","sort_rank":381,"kind_detail":"trunk","is_bicycle_related":true,"kind":"major_road","source":"openstreetmap.org","min_zoom":8.0,"bus_shield_text":"28R","shield_text":"1","landuse_kind":"urban_area","ref":"CA 1"},"arcs":[[232],[233]]},{"type":"LineString","properties":{"bus_network":null,"network":"US:US","sort_rank":381,"kind_detail":"trunk","is_bicycle_related":true,"kind":"major_road","source":"openstreetmap.org","min_zoom":8.0,"bus_shield_text":"14R","shield_text":"101","landuse_kind":"urban_area","ref":"US 101"},"arcs":[234]},{"type":"LineString","properties":{"kind":"major_road","network":"US:CA","sort_rank":380,"kind_detail":"primary","source":"openstreetmap.org","min_zoom":8.0,"landuse_kind":"park","shield_text":"29","ref":"CA 29","id":288605158},"arcs":[235]},{"type":"LineString","properties":{"bus_network":null,"sort_rank":380,"kind_detail":"primary","is_bicycle_related":true,"kind":"major_road","bicycle_shield_text":"90","bicycle_network":"lcn","source":"openstreetmap.org","min_zoom":8.0,"bus_shield_text":"8BX","landuse_kind":"urban_area","id":30642929},"arcs":[236]},{"type":"LineString","properties":{"bus_network":null,"sort_rank":380,"kind_detail":"primary","old_name":"Marlette Street","kind":"major_road","source":"openstreetmap.org","min_zoom":8.0,"bus_shield_text":"30X","landuse_kind":"urban_area"},"arcs":[237]},{"type":"MultiLineString","properties":{"kind":"major_road","network":"US:CA","sort_rank":380,"kind_detail":"primary","source":"openstreetmap.org","min_zoom":8.0,"shield_text":"128","ref":"CA 128"},"arcs":[[238],[239],[240],[241]]},{"type":"MultiLineString","properties":{"kind":"highway","network":"US:US","sort_rank":383,"kind_detail":"motorway","is_bicycle_related":true,"source":"openstreetmap.org","min_zoom":8.0,"all_networks":["US:US"],"shield_text":"101","ref":"US 101","all_shield_texts":["101"]},"arcs":[[242],[243],[244],[245],[246]]},{"type":"LineString","properties":{"kind":"highway","network":"US:US","sort_rank":383,"kind_detail":"motorway","source":"openstreetmap.org","min_zoom":8.0,"all_networks":["US:US","US:US","US:CA"],"shield_text":"101","ref":"US 101;CA 1","id":537838948,"all_shield_texts":["101","101","1"]},"arcs":[247]},{"type":"MultiLineString","properties":{"bus_network":null,"sort_rank":380,"kind_detail":"primary","kind":"major_road","source":"openstreetmap.org","min_zoom":8.0,"bus_shield_text":"KX","landuse_kind":"urban_area"},"arcs":[[248],[249]]},{"type":"MultiLineString","properties":{"kind":"major_road","network":"US:CA","sort_rank":380,"kind_detail":"primary","source":"openstreetmap.org","min_zoom":8.0,"landuse_kind":"urban_area","shield_text":"116","ref":"CA 116"},"arcs":[[250],[251],[252]]},{"type":"MultiLineString","properties":{"kind":"highway","network":"US:US","sort_rank":383,"kind_detail":"motorway","source":"openstreetmap.org","min_zoom":8.0,"all_networks":["US:US","US:CA"],"shield_text":"101","ref":"US 101;CA 116","all_shield_texts":["101","116"]},"arcs":[[253],[254]]},{"type":"MultiLineString","properties":{"cycleway_right":"track","sort_rank":380,"kind_detail":"primary","is_bicycle_related":true,"kind":"major_road","source":"openstreetmap.org","min_zoom":8.0,"landuse_kind":"urban_area"},"arcs":[[255],[256],[257],[258],[259]]},{"type":"LineString","properties":{"kind":"major_road","sort_rank":380,"kind_detail":"primary","is_bicycle_related":true,"bus_network":null,"bicycle_network":"lcn","source":"openstreetmap.org","min_zoom":8.0,"bus_shield_text":"23","landuse_kind":"urban_area","id":133743899},"arcs":[260]},{"type":"MultiLineString","properties":{"kind":"major_road","network":"US:CA","sort_rank":380,"kind_detail":"primary","source":"openstreetmap.org","min_zoom":8.0,"shield_text":"1","ref":"CA 1"},"arcs":[[261],[262],[263],[264],[265],[266]]},{"type":"LineString","properties":{"source":"openstreetmap.org","kind":"ferry","name":"San Francisco Pier 41 - San Francisco Ferry Building","sort_rank":355,"landuse_kind":"urban_area","min_zoom":8.0,"id":98752545},"arcs":[267]},{"type":"MultiLineString","properties":{"kind":"major_road","sort_rank":380,"kind_detail":"primary","is_bicycle_related":true,"bicycle_shield_text":"PCB","bicycle_network":"rcn","source":"openstreetmap.org","min_zoom":8.0},"arcs":[[268],[269],[270]]},{"type":"LineString","properties":{"bus_network":null,"sort_rank":380,"kind_detail":"primary","is_bicycle_related":true,"cycleway_right":"shared_lane","bicycle_shield_text":"50","bicycle_network":"lcn","source":"openstreetmap.org","min_zoom":8.0,"bus_shield_text":"43","landuse_kind":"urban_area","kind":"major_road"},"arcs":[271]},{"type":"MultiLineString","properties":{"kind":"major_road","sort_rank":380,"kind_detail":"primary","is_bicycle_related":true,"bicycle_shield_text":"24","bicycle_network":"lcn","source":"openstreetmap.org","min_zoom":8.0,"landuse_kind":"urban_area"},"arcs":[[272],[273]]},{"type":"LineString","properties":{"cycleway_right":"shared_lane","sort_rank":380,"kind_detail":"primary","is_bicycle_related":true,"kind":"major_road","bicycle_shield_text":"50","bicycle_network":"lcn","source":"openstreetmap.org","min_zoom":8.0,"landuse_kind":"urban_area"},"arcs":[274]},{"type":"MultiLineString","properties":{"bus_network":null,"sort_rank":380,"kind_detail":"primary","is_bicycle_related":true,"kind":"major_road","bicycle_shield_text":"210","bicycle_network":"lcn","source":"openstreetmap.org","min_zoom":8.0,"bus_shield_text":"30X","landuse_kind":"urban_area"},"arcs":[[275],[276]]},{"type":"LineString","properties":{"source":"openstreetmap.org","kind":"ferry","name":"Berkeley - San Francisco Pier 1 1\/2 (Weekdays only)","sort_rank":355,"is_bicycle_related":true,"min_zoom":8.0,"id":470184134},"arcs":[277]},{"type":"LineString","properties":{"kind":"major_road","sort_rank":380,"kind_detail":"primary","is_bicycle_related":true,"bicycle_shield_text":"28","bicycle_network":"lcn","source":"openstreetmap.org","min_zoom":8.0,"landuse_kind":"urban_area","id":279605414},"arcs":[278]},{"type":"LineString","properties":{"kind":"major_road","sort_rank":380,"kind_detail":"primary","is_bicycle_related":true,"bicycle_shield_text":"7","cycleway":"shared_lane","source":"openstreetmap.org","min_zoom":8.0,"landuse_kind":"urban_area","bicycle_network":"lcn","id":133755901},"arcs":[279]},{"type":"LineString","properties":{"bus_network":null,"cycleway_left":"lane","sort_rank":380,"kind_detail":"primary","is_bicycle_related":true,"cycleway_right":"track","bicycle_shield_text":"50","bicycle_network":"lcn","source":"openstreetmap.org","min_zoom":8.0,"bus_shield_text":"7R","landuse_kind":"urban_area","id":228228520,"kind":"major_road"},"arcs":[280]},{"type":"LineString","properties":{"bus_network":null,"sort_rank":380,"kind_detail":"primary","kind":"major_road","source":"openstreetmap.org","min_zoom":8.0,"bus_shield_text":"F","landuse_kind":"urban_area"},"arcs":[281]},{"type":"MultiLineString","properties":{"cycleway_right":"shared_lane","sort_rank":380,"kind_detail":"primary","is_bicycle_related":true,"bus_network":null,"source":"openstreetmap.org","min_zoom":8.0,"bus_shield_text":"7X","landuse_kind":"urban_area","kind":"major_road"},"arcs":[[282],[283]]},{"type":"MultiLineString","properties":{"cycleway_right":"lane","sort_rank":380,"kind_detail":"primary","is_bicycle_related":true,"bus_network":null,"bicycle_shield_text":"50","bicycle_network":"lcn","source":"openstreetmap.org","min_zoom":8.0,"bus_shield_text":"L-Owl","landuse_kind":"urban_area","kind":"major_road"},"arcs":[[284],[285],[286]]},{"type":"MultiLineString","properties":{"cycleway_right":"lane","sort_rank":380,"kind_detail":"primary","is_bicycle_related":true,"kind":"major_road","bicycle_shield_text":"60","bicycle_network":"lcn","source":"openstreetmap.org","min_zoom":8.0,"landuse_kind":"urban_area"},"arcs":[[287],[288],[289],[290],[291],[292],[293]]},{"type":"MultiLineString","properties":{"kind":"major_road","sort_rank":380,"kind_detail":"primary","is_bicycle_related":true,"bicycle_shield_text":"60","bicycle_network":"lcn","source":"openstreetmap.org","min_zoom":8.0,"landuse_kind":"urban_area"},"arcs":[[294],[295]]},{"type":"LineString","properties":{"kind":"major_road","sort_rank":380,"kind_detail":"primary","is_bicycle_related":true,"bicycle_shield_text":"10","cycleway":"lane","source":"openstreetmap.org","min_zoom":8.0,"landuse_kind":"urban_area","bicycle_network":"lcn"},"arcs":[296]},{"type":"LineString","properties":{"kind":"major_road","network":"US:CA","sort_rank":380,"kind_detail":"primary","source":"openstreetmap.org","min_zoom":8.0,"shield_text":"12","ref":"CA 12;CA 121"},"arcs":[297]},{"type":"LineString","properties":{"kind":"major_road","sort_rank":380,"kind_detail":"primary","is_bicycle_related":true,"bicycle_shield_text":"25","bicycle_network":"lcn","source":"openstreetmap.org","min_zoom":8.0,"landuse_kind":"urban_area","id":8915436},"arcs":[298]},{"type":"MultiLineString","properties":{"source":"openstreetmap.org","kind":"major_road","landuse_kind":"park","sort_rank":380,"kind_detail":"primary","min_zoom":8.0},"arcs":[[299],[300],[301]]},{"type":"MultiLineString","properties":{"kind":"major_road","sort_rank":380,"kind_detail":"primary","is_bicycle_related":true,"bicycle_shield_text":"PCB","bicycle_network":"rcn","source":"openstreetmap.org","min_zoom":8.0,"landuse_kind":"urban_area"},"arcs":[[302],[303],[304],[305]]},{"type":"LineString","properties":{"kind":"highway","network":"US:US","sort_rank":383,"kind_detail":"motorway","source":"openstreetmap.org","min_zoom":8.0,"all_networks":["US:US","US:US","US:CA"],"landuse_kind":"urban_area","shield_text":"101","ref":"US 101;CA 1","id":537838948,"all_shield_texts":["101","101","1"]},"arcs":[306]},{"type":"LineString","properties":{"source":"openstreetmap.org","kind":"ferry","name":"Oakland Jack London Square - San Francisco Ferry Building","sort_rank":355,"is_bicycle_related":true,"min_zoom":8.0,"id":31934807},"arcs":[307]},{"type":"LineString","properties":{"kind":"major_road","network":"US:CA","sort_rank":380,"kind_detail":"primary","is_bicycle_related":true,"bicycle_shield_text":null,"cycleway":"lane","source":"openstreetmap.org","min_zoom":8.0,"shield_text":"128","bicycle_network":"rcn","ref":"CA 128"},"arcs":[308]},{"type":"LineString","properties":{"cycleway_right":"shared_lane","sort_rank":380,"kind_detail":"primary","is_bicycle_related":true,"kind":"major_road","bus_network":null,"source":"openstreetmap.org","min_zoom":8.0,"bus_shield_text":"T-Owl","landuse_kind":"urban_area","id":27041776},"arcs":[309]},{"type":"LineString","properties":{"kind":"highway","network":"US:US","sort_rank":383,"landuse_kind":"urban_area","is_bicycle_related":true,"source":"openstreetmap.org","min_zoom":8.0,"all_networks":["US:US"],"kind_detail":"motorway","shield_text":"101","ref":"US 101","all_shield_texts":["101"]},"arcs":[310]},{"type":"LineString","properties":{"cycleway_right":"shared_lane","sort_rank":380,"kind_detail":"primary","is_bicycle_related":true,"kind":"major_road","bicycle_shield_text":"45","bicycle_network":"lcn","source":"openstreetmap.org","min_zoom":8.0,"landuse_kind":"urban_area"},"arcs":[311]},{"type":"MultiLineString","properties":{"kind":"major_road","network":"US:CA","sort_rank":380,"kind_detail":"primary","source":"openstreetmap.org","min_zoom":8.0,"shield_text":"29","ref":"CA 29;CA 128"},"arcs":[[312],[313],[314]]},{"type":"LineString","properties":{"bus_network":null,"sort_rank":380,"kind_detail":"primary","kind":"major_road","source":"openstreetmap.org","min_zoom":8.0,"bus_shield_text":"30X","landuse_kind":"urban_area"},"arcs":[315]},{"type":"LineString","properties":{"source":"openstreetmap.org","kind":"ferry","name":"Alameda Main Street - AT&T Park (Seasonal)","sort_rank":355,"landuse_kind":"urban_area","min_zoom":8.0,"id":98763131},"arcs":[316]},{"type":"LineString","properties":{"kind":"major_road","sort_rank":380,"kind_detail":"primary","is_bicycle_related":true,"bicycle_shield_text":"20","cycleway":"lane","source":"openstreetmap.org","min_zoom":8.0,"landuse_kind":"urban_area","bicycle_network":"lcn","id":265976553},"arcs":[317]},{"type":"MultiLineString","properties":{"cycleway_right":"track","cycleway_left":"lane","sort_rank":380,"kind_detail":"primary","is_bicycle_related":true,"bus_network":null,"bicycle_shield_text":"25","bicycle_network":"lcn","source":"openstreetmap.org","min_zoom":8.0,"bus_shield_text":"9R","landuse_kind":"urban_area","kind":"major_road"},"arcs":[[318],[319]]},{"type":"MultiLineString","properties":{"bus_network":null,"network":"US:CA","sort_rank":381,"landuse_kind":"urban_area","kind":"major_road","source":"openstreetmap.org","min_zoom":8.0,"bus_shield_text":"28","shield_text":"1","kind_detail":"trunk","ref":"CA 1"},"arcs":[[320],[321]]},{"type":"LineString","properties":{"source":"openstreetmap.org","kind":"ferry","name":"San Francisco - Larkspur Ferry","sort_rank":355,"min_zoom":8.0,"id":31772645},"arcs":[322]},{"type":"MultiLineString","properties":{"bus_network":null,"sort_rank":380,"kind_detail":"primary","is_bicycle_related":true,"kind":"major_road","bicycle_shield_text":"25","bicycle_network":"lcn","source":"openstreetmap.org","min_zoom":8.0,"bus_shield_text":"9R","landuse_kind":"urban_area"},"arcs":[[323],[324],[325]]},{"type":"LineString","properties":{"cycleway_right":"shared_lane","sort_rank":380,"kind_detail":"primary","is_bicycle_related":true,"bus_network":null,"bicycle_shield_text":"25","bicycle_network":"lcn","source":"openstreetmap.org","min_zoom":8.0,"bus_shield_text":"9R","landuse_kind":"urban_area","kind":"major_road"},"arcs":[326]},{"type":"LineString","properties":{"source":"openstreetmap.org","kind":"ferry","name":"Alameda Main Street - AT&T Park (Seasonal)","sort_rank":355,"min_zoom":8.0,"id":98763131},"arcs":[327]},{"type":"LineString","properties":{"kind":"major_road","sort_rank":380,"kind_detail":"primary","is_bicycle_related":true,"bus_network":null,"bicycle_shield_text":"50","cycleway":"lane","source":"openstreetmap.org","min_zoom":8.0,"bus_shield_text":"36","landuse_kind":"urban_area","id":396985417,"bicycle_network":"lcn"},"arcs":[328]},{"type":"LineString","properties":{"source":"openstreetmap.org","kind":"ferry","name":"Vallejo - San Francisco Ferry Building","sort_rank":355,"min_zoom":8.0,"id":177121377},"arcs":[329]},{"type":"MultiLineString","properties":{"cycleway_right":"lane","sort_rank":380,"kind_detail":"primary","is_bicycle_related":true,"kind":"major_road","bicycle_shield_text":"7","bicycle_network":"lcn","source":"openstreetmap.org","min_zoom":8.0,"landuse_kind":"urban_area"},"arcs":[[330],[331]]},{"type":"LineString","properties":{"kind":"major_road","network":"US:US","sort_rank":381,"kind_detail":"trunk","is_bicycle_related":true,"source":"openstreetmap.org","min_zoom":8.0,"old_name":"Howard Street","shield_text":"101","landuse_kind":"urban_area","ref":"US 101","id":254759955},"arcs":[332]},{"type":"LineString","properties":{"kind":"major_road","sort_rank":380,"kind_detail":"primary","is_bicycle_related":true,"bus_network":null,"bicycle_shield_text":"30","cycleway":"lane","source":"openstreetmap.org","min_zoom":8.0,"bus_shield_text":"7R","landuse_kind":"urban_area","id":468204142,"bicycle_network":"rcn"},"arcs":[333]},{"type":"LineString","properties":{"bus_network":null,"cycleway_left":"shared_lane","sort_rank":380,"kind_detail":"primary","is_bicycle_related":true,"kind":"major_road","bicycle_shield_text":"11","bicycle_network":"lcn","source":"openstreetmap.org","min_zoom":8.0,"bus_shield_text":"30X","landuse_kind":"urban_area"},"arcs":[334]},{"type":"LineString","properties":{"kind":"major_road","sort_rank":380,"kind_detail":"primary","is_bicycle_related":true,"bus_network":null,"bicycle_shield_text":"5","bicycle_network":"lcn","source":"openstreetmap.org","min_zoom":8.0,"bus_shield_text":"81X","landuse_kind":"urban_area","id":27656675},"arcs":[335]},{"type":"LineString","properties":{"bus_network":null,"sort_rank":380,"kind_detail":"primary","is_bicycle_related":true,"kind":"major_road","bicycle_shield_text":"30","cycleway":"lane","source":"openstreetmap.org","min_zoom":8.0,"bus_shield_text":"30X","landuse_kind":"urban_area","bicycle_network":"rcn"},"arcs":[336]},{"type":"MultiLineString","properties":{"kind":"highway","network":"US:I","sort_rank":383,"landuse_kind":"urban_area","source":"openstreetmap.org","min_zoom":8.0,"all_networks":["US:I"],"kind_detail":"motorway","shield_text":"580","ref":"I 580","all_shield_texts":["580"]},"arcs":[[337],[338],[339],[340],[341],[342],[343],[344]]},{"type":"LineString","properties":{"kind":"major_road","sort_rank":380,"kind_detail":"primary","is_bicycle_related":true,"bicycle_shield_text":"10","cycleway":"shared_lane","source":"openstreetmap.org","min_zoom":8.0,"landuse_kind":"urban_area","bicycle_network":"lcn"},"arcs":[345]},{"type":"MultiLineString","properties":{"bus_network":null,"sort_rank":380,"kind_detail":"primary","is_bicycle_related":true,"cycleway_right":"lane","bicycle_shield_text":"45","bicycle_network":"lcn","source":"openstreetmap.org","min_zoom":8.0,"bus_shield_text":"44","landuse_kind":"urban_area","kind":"major_road"},"arcs":[[346],[347]]},{"type":"MultiLineString","properties":{"bus_network":null,"sort_rank":380,"kind_detail":"primary","kind":"major_road","source":"openstreetmap.org","min_zoom":8.0,"bus_shield_text":"9R","landuse_kind":"urban_area"},"arcs":[[348],[349]]},{"type":"LineString","properties":{"bus_network":null,"sort_rank":380,"kind_detail":"primary","kind":"major_road","source":"openstreetmap.org","min_zoom":8.0,"bus_shield_text":"8BX","landuse_kind":"urban_area"},"arcs":[350]},{"type":"LineString","properties":{"bus_network":null,"sort_rank":380,"kind_detail":"primary","is_bicycle_related":true,"kind":"major_road","bicycle_shield_text":"50","cycleway":"shared_lane","source":"openstreetmap.org","min_zoom":8.0,"bus_shield_text":"L-Owl","landuse_kind":"urban_area","bicycle_network":"lcn"},"arcs":[351]},{"type":"LineString","properties":{"bus_network":null,"network":"US:CA","sort_rank":381,"kind_detail":"trunk","is_bicycle_related":true,"kind":"major_road","bicycle_shield_text":"PCB","bicycle_network":"rcn","cycleway_right":"lane","source":"openstreetmap.org","min_zoom":8.0,"bus_shield_text":"18","shield_text":"35","landuse_kind":"urban_area","ref":"CA 35"},"arcs":[352]},{"type":"MultiLineString","properties":{"bus_network":null,"sort_rank":380,"kind_detail":"primary","is_bicycle_related":true,"cycleway_right":"lane","bicycle_shield_text":"60","bicycle_network":"lcn","source":"openstreetmap.org","min_zoom":8.0,"bus_shield_text":"27","landuse_kind":"urban_area","kind":"major_road"},"arcs":[[353],[354],[355]]},{"type":"LineString","properties":{"kind":"major_road","network":"US:CA","sort_rank":380,"kind_detail":"primary","is_bicycle_related":true,"bicycle_shield_text":"PCB","bicycle_network":"rcn","source":"openstreetmap.org","min_zoom":8.0,"landuse_kind":"national_park","shield_text":"1","ref":"CA 1"},"arcs":[356]},{"type":"MultiLineString","properties":{"bus_network":null,"network":"US:CA","sort_rank":381,"landuse_kind":"urban_area","is_bicycle_related":true,"kind":"major_road","bicycle_shield_text":"91","bicycle_network":"lcn","source":"openstreetmap.org","min_zoom":8.0,"bus_shield_text":"18","shield_text":"35","kind_detail":"trunk","ref":"CA 35"},"arcs":[[357],[358]]},{"type":"LineString","properties":{"kind":"major_road","sort_rank":380,"kind_detail":"primary","is_bicycle_related":true,"bus_network":null,"bicycle_shield_text":"30","cycleway":"lane","source":"openstreetmap.org","min_zoom":8.0,"bus_shield_text":"7X","landuse_kind":"urban_area","id":133733583,"bicycle_network":"rcn"},"arcs":[359]},{"type":"LineString","properties":{"kind":"highway","network":"US:I","sort_rank":383,"kind_detail":"motorway","source":"openstreetmap.org","min_zoom":8.0,"all_networks":["US:I"],"old_name":"CA 82","shield_text":"280","landuse_kind":"urban_area","ref":"I 280","id":123867420,"all_shield_texts":["280"]},"arcs":[360]},{"type":"MultiLineString","properties":{"kind":"highway","network":"US:CA","sort_rank":383,"kind_detail":"motorway","is_bicycle_related":true,"source":"openstreetmap.org","min_zoom":8.0,"all_networks":["US:CA"],"shield_text":"37","ref":"CA 37","all_shield_texts":["37"]},"arcs":[[361],[362]]},{"type":"MultiLineString","properties":{"bus_network":null,"sort_rank":380,"kind_detail":"primary","kind":"major_road","source":"openstreetmap.org","min_zoom":8.0,"bus_shield_text":"31AX","landuse_kind":"urban_area"},"arcs":[[363],[364],[365]]},{"type":"MultiLineString","properties":{"kind":"major_road","network":"US:CA","sort_rank":381,"kind_detail":"trunk","source":"openstreetmap.org","min_zoom":8.0,"shield_text":"29","ref":"CA 29"},"arcs":[[366],[367],[368]]},{"type":"MultiLineString","properties":{"kind":"highway","network":"US:CA","sort_rank":383,"landuse_kind":"urban_area","source":"openstreetmap.org","min_zoom":8.0,"all_networks":["US:CA"],"kind_detail":"motorway","shield_text":"1","ref":"CA 1","all_shield_texts":["1"]},"arcs":[[369],[370],[371],[372]]},{"type":"MultiLineString","properties":{"kind":"major_road","network":"US:CA","sort_rank":380,"kind_detail":"primary","source":"openstreetmap.org","min_zoom":8.0,"landuse_kind":"urban_area","shield_text":"12","ref":"CA 12"},"arcs":[[373],[374],[375],[376],[377]]},{"type":"LineString","properties":{"bus_network":null,"sort_rank":380,"kind_detail":"primary","is_bicycle_related":true,"kind":"major_road","bicycle_shield_text":"55","bicycle_network":"lcn","source":"openstreetmap.org","min_zoom":8.0,"bus_shield_text":"43","landuse_kind":"urban_area"},"arcs":[378]},{"type":"MultiLineString","properties":{"bus_network":null,"network":"US:CA","sort_rank":380,"kind_detail":"primary","is_bicycle_related":true,"cycleway_right":"shared_lane","bicycle_shield_text":"50","bicycle_network":"lcn","source":"openstreetmap.org","min_zoom":8.0,"bus_shield_text":"23","shield_text":"35","landuse_kind":"urban_area","ref":"CA 35","kind":"major_road"},"arcs":[[379],[380],[381],[382]]},{"type":"MultiLineString","properties":{"bus_network":null,"sort_rank":380,"kind_detail":"primary","is_bicycle_related":true,"kind":"major_road","bicycle_network":"lcn","source":"openstreetmap.org","min_zoom":8.0,"bus_shield_text":"7X","landuse_kind":"urban_area"},"arcs":[[383],[384],[385],[386],[387],[388],[389],[390],[391]]},{"type":"LineString","properties":{"kind":"major_road","sort_rank":380,"kind_detail":"primary","is_bicycle_related":true,"bicycle_shield_text":"20","bicycle_network":"lcn","source":"openstreetmap.org","min_zoom":8.0},"arcs":[392]},{"type":"LineString","properties":{"bus_network":null,"sort_rank":380,"kind_detail":"primary","is_bicycle_related":true,"cycleway_right":"lane","bicycle_shield_text":"5","bicycle_network":"lcn","source":"openstreetmap.org","min_zoom":8.0,"bus_shield_text":"82X","landuse_kind":"urban_area","kind":"major_road"},"arcs":[393]},{"type":"MultiLineString","properties":{"bus_network":null,"sort_rank":380,"kind_detail":"primary","is_bicycle_related":true,"kind":"major_road","bicycle_shield_text":"50","bicycle_network":"lcn","source":"openstreetmap.org","min_zoom":8.0,"bus_shield_text":"L-Owl","landuse_kind":"urban_area"},"arcs":[[394],[395]]},{"type":"LineString","properties":{"cycleway_right":"shared_lane","sort_rank":380,"kind_detail":"primary","is_bicycle_related":true,"kind":"major_road","bicycle_shield_text":"30","bicycle_network":"rcn","source":"openstreetmap.org","min_zoom":8.0,"landuse_kind":"urban_area","id":406944771},"arcs":[396]},{"type":"LineString","properties":{"kind":"major_road","sort_rank":380,"kind_detail":"primary","is_bicycle_related":true,"bus_network":null,"bicycle_shield_text":"16","bicycle_network":"lcn","source":"openstreetmap.org","min_zoom":8.0,"bus_shield_text":"2","landuse_kind":"urban_area","id":133733590},"arcs":[397]},{"type":"LineString","properties":{"source":"openstreetmap.org","kind":"major_road","sort_rank":380,"kind_detail":"primary","ref":"CA 116","min_zoom":8.0},"arcs":[398]},{"type":"MultiLineString","properties":{"bus_network":null,"sort_rank":380,"kind_detail":"primary","kind":"major_road","source":"openstreetmap.org","min_zoom":8.0,"bus_shield_text":"12","landuse_kind":"urban_area"},"arcs":[[399],[400]]},{"type":"LineString","properties":{"bus_network":null,"sort_rank":380,"kind_detail":"primary","is_bicycle_related":true,"cycleway_right":"lane","bicycle_shield_text":"30","bicycle_network":"rcn","source":"openstreetmap.org","min_zoom":8.0,"bus_shield_text":"N-Owl","landuse_kind":"urban_area","kind":"major_road"},"arcs":[401]},{"type":"MultiLineString","properties":{"bus_network":null,"sort_rank":380,"kind_detail":"primary","kind":"major_road","source":"openstreetmap.org","min_zoom":8.0,"bus_shield_text":"T-Owl","landuse_kind":"urban_area"},"arcs":[[402],[403],[404],[405],[406]]},{"type":"LineString","properties":{"kind":"major_road","sort_rank":380,"kind_detail":"primary","is_bicycle_related":true,"bus_network":null,"bicycle_shield_text":"30","bicycle_network":"rcn","source":"openstreetmap.org","min_zoom":8.0,"bus_shield_text":"7X","landuse_kind":"urban_area","id":32928873},"arcs":[407]},{"type":"LineString","properties":{"cycleway_right":"shared_lane","sort_rank":380,"kind_detail":"primary","is_bicycle_related":true,"kind":"major_road","bicycle_shield_text":"25","bicycle_network":"lcn","bus_network":null,"source":"openstreetmap.org","min_zoom":8.0,"bus_shield_text":"KX","landuse_kind":"urban_area","id":27029264},"arcs":[408]},{"type":"LineString","properties":{"kind":"major_road","sort_rank":380,"kind_detail":"primary","is_bicycle_related":true,"bicycle_shield_text":null,"bicycle_network":"rcn","source":"openstreetmap.org","min_zoom":8.0,"landuse_kind":"nature_reserve","id":284557072},"arcs":[409]},{"type":"LineString","properties":{"kind":"major_road","network":"US:CA","sort_rank":380,"kind_detail":"primary","source":"openstreetmap.org","min_zoom":8.0,"landuse_kind":"residential","shield_text":"29","ref":"CA 29","id":164658063},"arcs":[410]},{"type":"MultiLineString","properties":{"bus_network":null,"sort_rank":380,"kind_detail":"primary","is_bicycle_related":true,"cycleway_right":"shared_lane","source":"openstreetmap.org","min_zoom":8.0,"bus_shield_text":"23","landuse_kind":"urban_area","kind":"major_road"},"arcs":[[411],[412],[413],[414]]},{"type":"LineString","properties":{"kind":"major_road","sort_rank":380,"kind_detail":"primary","is_bicycle_related":true,"bus_network":null,"bicycle_shield_text":"10","cycleway":"shared_lane","source":"openstreetmap.org","min_zoom":8.0,"bus_shield_text":"10","landuse_kind":"urban_area","id":224384010,"bicycle_network":"lcn"},"arcs":[415]},{"type":"LineString","properties":{"source":"openstreetmap.org","kind":"ferry","name":"Angel Island - San Francisco Pier 41 (Seasonal)","sort_rank":355,"is_bicycle_related":true,"min_zoom":8.0,"id":98752555},"arcs":[416]},{"type":"LineString","properties":{"kind":"major_road","network":"US:CA","sort_rank":380,"kind_detail":"primary","is_bicycle_related":true,"source":"openstreetmap.org","min_zoom":8.0,"shield_text":"29","ref":"CA 29;CA 128"},"arcs":[417]},{"type":"LineString","properties":{"cycleway_right":"track","sort_rank":380,"kind_detail":"primary","is_bicycle_related":true,"bus_network":null,"bicycle_shield_text":"50","bicycle_network":"lcn","source":"openstreetmap.org","min_zoom":8.0,"bus_shield_text":"7R","landuse_kind":"urban_area","kind":"major_road"},"arcs":[418]},{"type":"MultiLineString","properties":{"cycleway_right":"lane","sort_rank":380,"kind_detail":"primary","is_bicycle_related":true,"bus_network":null,"bicycle_shield_text":"50","bicycle_network":"lcn","source":"openstreetmap.org","min_zoom":8.0,"bus_shield_text":"N-Owl","landuse_kind":"urban_area","kind":"major_road"},"arcs":[[419],[420],[421],[422]]},{"type":"MultiLineString","properties":{"kind":"major_road","sort_rank":380,"kind_detail":"primary","is_bicycle_related":true,"bicycle_shield_text":null,"bicycle_network":"rcn","source":"openstreetmap.org","min_zoom":8.0,"cycleway":"lane"},"arcs":[[423],[424]]},{"type":"LineString","properties":{"kind":"major_road","sort_rank":380,"kind_detail":"primary","is_bicycle_related":true,"bus_network":null,"bicycle_shield_text":"50","bicycle_network":"lcn","source":"openstreetmap.org","min_zoom":8.0,"bus_shield_text":"K-Owl","landuse_kind":"urban_area","id":397148789},"arcs":[425]},{"type":"MultiLineString","properties":{"source":"openstreetmap.org","kind":"highway","landuse_kind":"urban_area","sort_rank":383,"kind_detail":"motorway","min_zoom":8.0},"arcs":[[426],[427],[428],[429]]},{"type":"MultiLineString","properties":{"cycleway_right":"shared_lane","sort_rank":380,"kind_detail":"primary","is_bicycle_related":true,"kind":"major_road","bicycle_shield_text":"25","bicycle_network":"lcn","source":"openstreetmap.org","min_zoom":8.0,"landuse_kind":"urban_area"},"arcs":[[430],[431],[432],[433]]},{"type":"MultiLineString","properties":{"kind":"major_road","network":"US:CA","sort_rank":381,"kind_detail":"trunk","source":"openstreetmap.org","min_zoom":8.0,"landuse_kind":"nature_reserve","shield_text":"37","ref":"CA 37"},"arcs":[[434],[435],[436],[437],[438],[439],[440]]},{"type":"LineString","properties":{"source":"openstreetmap.org","kind":"ferry","name":"Alcatraz Cruises, LLC","sort_rank":355,"min_zoom":8.0,"id":27989500},"arcs":[441]},{"type":"LineString","properties":{"kind":"major_road","sort_rank":380,"kind_detail":"primary","is_bicycle_related":true,"bicycle_shield_text":"5","cycleway":"lane","source":"openstreetmap.org","min_zoom":8.0,"landuse_kind":"urban_area","bicycle_network":"lcn","id":23968587},"arcs":[442]},{"type":"MultiLineString","properties":{"bus_network":null,"sort_rank":380,"kind_detail":"primary","is_bicycle_related":true,"cycleway_right":"lane","bicycle_shield_text":"5","bicycle_network":"lcn","source":"openstreetmap.org","min_zoom":8.0,"bus_shield_text":"N-Owl","landuse_kind":"urban_area","kind":"major_road"},"arcs":[[443],[444]]},{"type":"LineString","properties":{"kind":"major_road","sort_rank":380,"kind_detail":"primary","bus_network":null,"source":"openstreetmap.org","min_zoom":8.0,"bus_shield_text":"48","landuse_kind":"urban_area","id":183198770},"arcs":[445]},{"type":"MultiLineString","properties":{"kind":"major_road","sort_rank":380,"kind_detail":"primary","is_bicycle_related":true,"bicycle_shield_text":null,"bicycle_network":"rcn","source":"openstreetmap.org","min_zoom":8.0,"landuse_kind":"park"},"arcs":[[446],[447],[448]]},{"type":"MultiLineString","properties":{"bus_network":null,"sort_rank":380,"kind_detail":"primary","kind":"major_road","source":"openstreetmap.org","min_zoom":8.0,"bus_shield_text":"8AX","landuse_kind":"urban_area"},"arcs":[[449],[450],[451]]},{"type":"MultiLineString","properties":{"bus_network":null,"sort_rank":380,"kind_detail":"primary","kind":"major_road","source":"openstreetmap.org","min_zoom":8.0,"bus_shield_text":"NX","landuse_kind":"urban_area"},"arcs":[[452],[453]]},{"type":"LineString","properties":{"source":"openstreetmap.org","kind":"ferry","name":"Angel Island - Tiburon","sort_rank":355,"min_zoom":8.0,"id":98752561},"arcs":[454]},{"type":"MultiLineString","properties":{"cycleway_right":"lane","sort_rank":380,"kind_detail":"primary","is_bicycle_related":true,"bus_network":null,"bicycle_shield_text":"50","bicycle_network":"lcn","source":"openstreetmap.org","min_zoom":8.0,"bus_shield_text":"48","landuse_kind":"urban_area","kind":"major_road"},"arcs":[[455],[456],[457],[458]]},{"type":"LineString","properties":{"kind":"major_road","sort_rank":380,"kind_detail":"primary","is_bicycle_related":true,"bus_network":null,"bicycle_shield_text":"10","cycleway":"lane","source":"openstreetmap.org","min_zoom":8.0,"bus_shield_text":"30X","landuse_kind":"urban_area","id":87376695,"bicycle_network":"lcn"},"arcs":[459]},{"type":"LineString","properties":{"kind":"major_road","cycleway_left":"lane","sort_rank":380,"kind_detail":"primary","is_bicycle_related":true,"bus_network":null,"bicycle_shield_text":"30","bicycle_network":"rcn","source":"openstreetmap.org","min_zoom":8.0,"bus_shield_text":"7X","landuse_kind":"urban_area","id":133733584},"arcs":[460]},{"type":"MultiLineString","properties":{"kind":"highway","network":"US:I","sort_rank":383,"kind_detail":"motorway","source":"openstreetmap.org","min_zoom":8.0,"all_networks":["US:I"],"shield_text":"580","ref":"I 580","all_shield_texts":["580"]},"arcs":[[461],[462],[463],[464]]},{"type":"LineString","properties":{"kind":"major_road","sort_rank":380,"kind_detail":"primary","is_bicycle_related":true,"bicycle_shield_text":"907","bicycle_network":"lcn","source":"openstreetmap.org","min_zoom":8.0,"landuse_kind":"urban_area","id":27239375},"arcs":[465]},{"type":"LineString","properties":{"bus_network":null,"sort_rank":380,"kind_detail":"primary","kind":"major_road","source":"openstreetmap.org","min_zoom":8.0,"bus_shield_text":"72","landuse_kind":"urban_area"},"arcs":[466]},{"type":"MultiLineString","properties":{"source":"openstreetmap.org","kind":"major_road","kind_detail":"trunk","sort_rank":381,"landuse_kind":"urban_area","min_zoom":8.0},"arcs":[[467],[468],[469]]},{"type":"LineString","properties":{"bus_network":null,"sort_rank":380,"kind_detail":"primary","kind":"major_road","source":"openstreetmap.org","min_zoom":8.0,"bus_shield_text":"31","landuse_kind":"urban_area"},"arcs":[470]},{"type":"LineString","properties":{"cycleway_right":"shared_lane","cycleway_left":"lane","sort_rank":380,"kind_detail":"primary","is_bicycle_related":true,"kind":"major_road","bus_network":null,"source":"openstreetmap.org","min_zoom":8.0,"bus_shield_text":"9R","landuse_kind":"urban_area","id":397138006},"arcs":[471]},{"type":"LineString","properties":{"source":"openstreetmap.org","kind":"ferry","name":"Alameda Main Street - South San Francisco","sort_rank":355,"min_zoom":8.0,"id":184266426},"arcs":[472]},{"type":"MultiLineString","properties":{"kind":"major_road","network":"US:CA","sort_rank":380,"kind_detail":"primary","is_bicycle_related":true,"bicycle_shield_text":null,"bicycle_network":"rcn","source":"openstreetmap.org","min_zoom":8.0,"shield_text":"1","ref":"CA 1"},"arcs":[[473],[474],[475],[476],[477],[478],[479],[480],[481],[482]]},{"type":"MultiLineString","properties":{"kind":"highway","network":"US:US","sort_rank":383,"kind_detail":"motorway","source":"openstreetmap.org","min_zoom":8.0,"all_networks":["US:US","US:CA"],"shield_text":"101","ref":"US 101;CA 1","all_shield_texts":["101","1"]},"arcs":[[483],[484]]},{"type":"LineString","properties":{"kind":"major_road","sort_rank":380,"kind_detail":"primary","is_bicycle_related":true,"cycleway":"lane","source":"openstreetmap.org","min_zoom":8.0,"landuse_kind":"urban_area"},"arcs":[485]},{"type":"LineString","properties":{"cycleway_right":"lane","sort_rank":380,"kind_detail":"primary","is_bicycle_related":true,"kind":"major_road","bicycle_shield_text":"5","bicycle_network":"lcn","source":"openstreetmap.org","min_zoom":8.0},"arcs":[486]},{"type":"LineString","properties":{"bus_network":null,"network":"US:US","sort_rank":381,"kind_detail":"trunk","old_name":"Marlette Street","is_bicycle_related":true,"kind":"major_road","source":"openstreetmap.org","min_zoom":8.0,"bus_shield_text":"49","shield_text":"101","landuse_kind":"urban_area","ref":"US 101","id":8919006},"arcs":[487]},{"type":"LineString","properties":{"bus_network":null,"sort_rank":380,"kind_detail":"primary","kind":"major_road","source":"openstreetmap.org","min_zoom":8.0,"bus_shield_text":"L-Owl","landuse_kind":"urban_area"},"arcs":[488]},{"type":"LineString","properties":{"bus_network":null,"sort_rank":380,"kind_detail":"primary","is_bicycle_related":true,"kind":"major_road","cycleway":"shared_lane","source":"openstreetmap.org","min_zoom":8.0,"bus_shield_text":"31AX","landuse_kind":"urban_area"},"arcs":[489]},{"type":"LineString","properties":{"cycleway_right":"shared_lane","sort_rank":380,"kind_detail":"primary","is_bicycle_related":true,"kind":"major_road","bus_network":null,"source":"openstreetmap.org","min_zoom":8.0,"bus_shield_text":"8AX","landuse_kind":"urban_area","id":254299111},"arcs":[490]},{"type":"LineString","properties":{"kind":"major_road","sort_rank":380,"kind_detail":"primary","is_bicycle_related":true,"bicycle_shield_text":"20","cycleway":"lane","source":"openstreetmap.org","min_zoom":8.0,"bicycle_network":"lcn"},"arcs":[491]},{"type":"MultiLineString","properties":{"bus_network":null,"sort_rank":380,"kind_detail":"primary","is_bicycle_related":true,"kind":"major_road","bicycle_shield_text":"10","bicycle_network":"lcn","source":"openstreetmap.org","min_zoom":8.0,"bus_shield_text":"30X","landuse_kind":"urban_area"},"arcs":[[492],[493]]},{"type":"LineString","properties":{"kind":"major_road","sort_rank":380,"kind_detail":"primary","is_bicycle_related":true,"bus_network":null,"bicycle_shield_text":"60","bicycle_network":"lcn","source":"openstreetmap.org","min_zoom":8.0,"bus_shield_text":"27","landuse_kind":"urban_area","id":397098178},"arcs":[494]},{"type":"LineString","properties":{"bus_network":null,"sort_rank":380,"kind_detail":"primary","is_bicycle_related":true,"cycleway_right":"shared_lane","source":"openstreetmap.org","min_zoom":8.0,"bus_shield_text":"9R","landuse_kind":"urban_area","kind":"major_road"},"arcs":[495]},{"type":"LineString","properties":{"kind":"major_road","network":"US:CA","sort_rank":380,"kind_detail":"primary","source":"openstreetmap.org","min_zoom":8.0,"landuse_kind":"park","shield_text":"29","ref":"CA 29;CA 128","id":493600264},"arcs":[496]},{"type":"LineString","properties":{"kind":"major_road","sort_rank":380,"kind_detail":"primary","is_bicycle_related":true,"bicycle_shield_text":"34","bicycle_network":"lcn","source":"openstreetmap.org","min_zoom":8.0,"landuse_kind":"urban_area","id":225840329},"arcs":[497]},{"type":"MultiLineString","properties":{"cycleway_right":"lane","sort_rank":380,"kind_detail":"primary","is_bicycle_related":true,"kind":"major_road","bicycle_shield_text":"30","bicycle_network":"rcn","source":"openstreetmap.org","min_zoom":8.0,"landuse_kind":"urban_area"},"arcs":[[498],[499],[500]]},{"type":"LineString","properties":{"kind":"major_road","sort_rank":380,"kind_detail":"primary","is_bicycle_related":true,"bus_network":null,"bicycle_shield_text":"45","cycleway":"lane","source":"openstreetmap.org","min_zoom":8.0,"bus_shield_text":"44","landuse_kind":"urban_area","id":417392492,"bicycle_network":"lcn"},"arcs":[501]},{"type":"MultiLineString","properties":{"bus_network":null,"sort_rank":380,"kind_detail":"primary","is_bicycle_related":true,"kind":"major_road","bicycle_shield_text":"25","cycleway":"lane","source":"openstreetmap.org","min_zoom":8.0,"bus_shield_text":"9R","landuse_kind":"urban_area","bicycle_network":"lcn"},"arcs":[[502],[503]]},{"type":"MultiLineString","properties":{"bus_network":null,"network":"US:CA","sort_rank":380,"kind_detail":"primary","is_bicycle_related":true,"cycleway_right":"lane","bicycle_shield_text":"50","bicycle_network":"lcn","source":"openstreetmap.org","min_zoom":8.0,"bus_shield_text":"23","shield_text":"35","landuse_kind":"urban_area","ref":"CA 35","kind":"major_road"},"arcs":[[504],[505]]},{"type":"MultiLineString","properties":{"bus_network":null,"sort_rank":380,"kind_detail":"primary","old_name":"Marlette Street","is_bicycle_related":true,"kind":"major_road","source":"openstreetmap.org","min_zoom":8.0,"bus_shield_text":"28","landuse_kind":"urban_area"},"arcs":[[506],[507]]},{"type":"LineString","properties":{"bus_network":null,"sort_rank":380,"kind_detail":"primary","is_bicycle_related":true,"kind":"major_road","bicycle_shield_text":"90","cycleway":"shared_lane","source":"openstreetmap.org","min_zoom":8.0,"bus_shield_text":"8BX","landuse_kind":"urban_area","bicycle_network":"lcn"},"arcs":[508]},{"type":"LineString","properties":{"source":"openstreetmap.org","kind":"ferry","name":"South San Francisco - San Francisco Ferry Building (Wednesday & Friday only)","sort_rank":355,"min_zoom":8.0,"id":289694213},"arcs":[509]},{"type":"MultiLineString","properties":{"bus_network":null,"sort_rank":380,"kind_detail":"primary","is_bicycle_related":true,"cycleway_right":"shared_lane","bicycle_shield_text":"50","bicycle_network":"lcn","source":"openstreetmap.org","min_zoom":8.0,"bus_shield_text":"23","landuse_kind":"urban_area","kind":"major_road"},"arcs":[[510],[511],[512]]},{"type":"LineString","properties":{"source":"openstreetmap.org","kind":"ferry","name":"Alameda Main Street - San Francisco Ferry Building","sort_rank":355,"min_zoom":8.0,"id":98759345},"arcs":[513]},{"type":"LineString","properties":{"kind":"major_road","network":"US:US","sort_rank":381,"landuse_kind":"urban_area","is_bicycle_related":true,"source":"openstreetmap.org","min_zoom":8.0,"old_name":"Marlette Street","shield_text":"101","kind_detail":"trunk","ref":"US 101"},"arcs":[514]},{"type":"MultiLineString","properties":{"bus_network":null,"network":"US:US","sort_rank":381,"landuse_kind":"urban_area","is_bicycle_related":true,"kind":"major_road","source":"openstreetmap.org","min_zoom":8.0,"bus_shield_text":"28R","shield_text":"101","kind_detail":"trunk","ref":"US 101"},"arcs":[[515],[516]]},{"type":"MultiLineString","properties":{"kind":"major_road","network":"US:CA","sort_rank":380,"kind_detail":"primary","source":"openstreetmap.org","min_zoom":8.0,"shield_text":"12","ref":"CA 12"},"arcs":[[517],[518],[519],[520]]},{"type":"MultiLineString","properties":{"kind":"major_road","sort_rank":380,"kind_detail":"primary","is_bicycle_related":true,"bicycle_shield_text":"7","cycleway":"lane","source":"openstreetmap.org","min_zoom":8.0,"landuse_kind":"urban_area","bicycle_network":"lcn"},"arcs":[[521],[522],[523]]},{"type":"MultiLineString","properties":{"kind":"major_road","network":"US:CA","sort_rank":380,"kind_detail":"primary","is_bicycle_related":true,"bicycle_shield_text":"PCB","bicycle_network":"rcn","source":"openstreetmap.org","min_zoom":8.0,"shield_text":"1","ref":"CA 1"},"arcs":[[524],[525],[526],[527],[528],[529],[530]]},{"type":"MultiLineString","properties":{"kind":"highway","network":"US:I","sort_rank":383,"landuse_kind":"urban_area","is_bicycle_related":true,"bicycle_shield_text":null,"cycleway":"lane","source":"openstreetmap.org","min_zoom":8.0,"all_networks":["US:I"],"kind_detail":"motorway","shield_text":"580","bicycle_network":"lcn","ref":"I 580","all_shield_texts":["580"]},"arcs":[[531],[532]]},{"type":"MultiLineString","properties":{"bus_network":null,"sort_rank":380,"kind_detail":"primary","kind":"major_road","source":"openstreetmap.org","min_zoom":8.0,"bus_shield_text":"7X","landuse_kind":"urban_area"},"arcs":[[533],[534],[535],[536],[537],[538],[539],[540]]},{"type":"LineString","properties":{"bus_network":null,"sort_rank":380,"kind_detail":"primary","is_bicycle_related":true,"kind":"major_road","cycleway":"lane","source":"openstreetmap.org","min_zoom":8.0,"bus_shield_text":"9R","landuse_kind":"urban_area"},"arcs":[541]},{"type":"LineString","properties":{"kind":"major_road","sort_rank":380,"kind_detail":"primary","bus_network":null,"source":"openstreetmap.org","min_zoom":8.0,"bus_shield_text":"43","landuse_kind":"urban_area","id":133856261},"arcs":[542]},{"type":"LineString","properties":{"kind":"highway","network":"US:US","sort_rank":383,"kind_detail":"motorway","source":"openstreetmap.org","min_zoom":8.0,"all_networks":["US:US","US:US","US:CA"],"landuse_kind":"national_park","shield_text":"101","ref":"US 101;CA 1","id":537838948,"all_shield_texts":["101","101","1"]},"arcs":[543]},{"type":"LineString","properties":{"kind":"major_road","network":"US:CA","sort_rank":380,"kind_detail":"primary","source":"openstreetmap.org","min_zoom":8.0,"shield_text":"175","ref":"CA 175"},"arcs":[544]},{"type":"LineString","properties":{"bus_network":null,"sort_rank":380,"kind_detail":"primary","is_bicycle_related":true,"kind":"major_road","bicycle_shield_text":"60","cycleway":"lane","source":"openstreetmap.org","min_zoom":8.0,"bus_shield_text":"19","landuse_kind":"urban_area","bicycle_network":"lcn"},"arcs":[545]},{"type":"MultiLineString","properties":{"bus_network":null,"sort_rank":380,"kind_detail":"primary","is_bicycle_related":true,"cycleway_right":"lane","bicycle_shield_text":"60","bicycle_network":"lcn","source":"openstreetmap.org","min_zoom":8.0,"bus_shield_text":"12","landuse_kind":"urban_area","kind":"major_road"},"arcs":[[546],[547]]},{"type":"MultiLineString","properties":{"cycleway_right":"shared_lane","sort_rank":380,"kind_detail":"primary","is_bicycle_related":true,"bus_network":null,"bicycle_shield_text":"5","bicycle_network":"lcn","source":"openstreetmap.org","min_zoom":8.0,"bus_shield_text":"T-Owl","landuse_kind":"urban_area","kind":"major_road"},"arcs":[[548],[549],[550],[551]]},{"type":"LineString","properties":{"cycleway_right":"shared_lane","sort_rank":380,"kind_detail":"primary","is_bicycle_related":true,"kind":"major_road","bicycle_shield_text":"30","bicycle_network":"rcn","bus_network":null,"source":"openstreetmap.org","min_zoom":8.0,"bus_shield_text":"N-Owl","landuse_kind":"urban_area","id":204965181},"arcs":[552]},{"type":"MultiLineString","properties":{"bus_network":null,"sort_rank":380,"kind_detail":"primary","kind":"major_road","source":"openstreetmap.org","min_zoom":8.0,"bus_shield_text":"38R","landuse_kind":"urban_area"},"arcs":[[553],[554],[555],[556],[557],[558]]},{"type":"LineString","properties":{"bus_network":null,"sort_rank":380,"kind_detail":"primary","is_bicycle_related":true,"cycleway_right":"lane","source":"openstreetmap.org","min_zoom":8.0,"bus_shield_text":"14X","landuse_kind":"urban_area","kind":"major_road"},"arcs":[559]},{"type":"MultiLineString","properties":{"kind":"highway","network":"US:US","sort_rank":383,"landuse_kind":"urban_area","source":"openstreetmap.org","min_zoom":8.0,"all_networks":["US:US","US:CA"],"kind_detail":"motorway","shield_text":"101","ref":"US 101;CA 116","all_shield_texts":["101","116"]},"arcs":[[560],[561],[562],[563]]},{"type":"LineString","properties":{"kind":"major_road","sort_rank":380,"kind_detail":"primary","is_bicycle_related":true,"bus_network":null,"bicycle_shield_text":"50","bicycle_network":"lcn","source":"openstreetmap.org","min_zoom":8.0,"bus_shield_text":"48","landuse_kind":"urban_area","id":133743884},"arcs":[564]},{"type":"LineString","properties":{"cycleway_right":"shared_lane","sort_rank":380,"kind_detail":"primary","is_bicycle_related":true,"kind":"major_road","bicycle_shield_text":"30","bicycle_network":"rcn","bus_network":null,"source":"openstreetmap.org","min_zoom":8.0,"bus_shield_text":"5R","landuse_kind":"urban_area","id":99231475},"arcs":[565]},{"type":"MultiLineString","properties":{"kind":"major_road","network":"US:CA","sort_rank":380,"kind_detail":"primary","is_bicycle_related":true,"bicycle_shield_text":null,"bicycle_network":"rcn","source":"openstreetmap.org","min_zoom":8.0,"landuse_kind":"park","shield_text":"1","ref":"CA 1"},"arcs":[[566],[567],[568]]},{"type":"LineString","properties":{"cycleway_right":"shared_lane","sort_rank":380,"kind_detail":"primary","is_bicycle_related":true,"kind":"major_road","bicycle_shield_text":"5","bicycle_network":"lcn","source":"openstreetmap.org","min_zoom":8.0,"landuse_kind":"urban_area"},"arcs":[569]},{"type":"LineString","properties":{"bus_network":null,"sort_rank":380,"kind_detail":"primary","is_bicycle_related":true,"kind":"major_road","cycleway":"shared_lane","source":"openstreetmap.org","min_zoom":8.0,"bus_shield_text":"23","landuse_kind":"urban_area"},"arcs":[570]},{"type":"MultiLineString","properties":{"bus_network":null,"sort_rank":380,"kind_detail":"primary","is_bicycle_related":true,"cycleway_right":"shared_lane","bicycle_shield_text":"50","bicycle_network":"lcn","source":"openstreetmap.org","min_zoom":8.0,"bus_shield_text":"7R","landuse_kind":"urban_area","kind":"major_road"},"arcs":[[571],[572]]},{"type":"LineString","properties":{"bus_network":null,"sort_rank":380,"kind_detail":"primary","is_bicycle_related":true,"cycleway_right":"shared_lane","bicycle_shield_text":"50","bicycle_network":"lcn","source":"openstreetmap.org","min_zoom":8.0,"bus_shield_text":"K-Owl","landuse_kind":"urban_area","kind":"major_road"},"arcs":[573]},{"type":"LineString","properties":{"bus_network":null,"sort_rank":380,"kind_detail":"primary","kind":"major_road","source":"openstreetmap.org","min_zoom":8.0,"bus_shield_text":"25","landuse_kind":"urban_area"},"arcs":[574]},{"type":"MultiLineString","properties":{"cycleway_right":"track","sort_rank":380,"kind_detail":"primary","is_bicycle_related":true,"bus_network":null,"bicycle_shield_text":"25","bicycle_network":"lcn","source":"openstreetmap.org","min_zoom":8.0,"bus_shield_text":"9R","landuse_kind":"urban_area","kind":"major_road"},"arcs":[[575],[576]]},{"type":"LineString","properties":{"bus_network":null,"sort_rank":380,"kind_detail":"primary","is_bicycle_related":true,"cycleway_right":"lane","bicycle_shield_text":"30","bicycle_network":"rcn","source":"openstreetmap.org","min_zoom":8.0,"bus_shield_text":"F","landuse_kind":"urban_area","kind":"major_road"},"arcs":[577]},{"type":"LineString","properties":{"bus_network":null,"cycleway_left":"shared_lane","sort_rank":380,"kind_detail":"primary","is_bicycle_related":true,"kind":"major_road","source":"openstreetmap.org","min_zoom":8.0,"bus_shield_text":"81X","landuse_kind":"urban_area"},"arcs":[578]},{"type":"LineString","properties":{"kind":"major_road","network":"US:US","sort_rank":381,"kind_detail":"trunk","bus_network":null,"source":"openstreetmap.org","min_zoom":8.0,"bus_shield_text":"14R","shield_text":"101","landuse_kind":"urban_area","ref":"US 101","id":143666210},"arcs":[579]},{"type":"MultiLineString","properties":{"bus_network":null,"sort_rank":380,"kind_detail":"primary","is_bicycle_related":true,"cycleway_right":"shared_lane","bicycle_shield_text":"50","bicycle_network":"lcn","source":"openstreetmap.org","min_zoom":8.0,"bus_shield_text":"L-Owl","landuse_kind":"urban_area","kind":"major_road"},"arcs":[[580],[581]]},{"type":"LineString","properties":{"bus_network":null,"cycleway_left":"shared_lane","sort_rank":380,"kind_detail":"primary","is_bicycle_related":true,"kind":"major_road","bicycle_shield_text":"10","bicycle_network":"lcn","source":"openstreetmap.org","min_zoom":8.0,"bus_shield_text":"30X","landuse_kind":"urban_area"},"arcs":[582]},{"type":"MultiLineString","properties":{"bus_network":null,"sort_rank":380,"kind_detail":"primary","kind":"major_road","source":"openstreetmap.org","min_zoom":8.0,"bus_shield_text":"24","landuse_kind":"urban_area"},"arcs":[[583],[584],[585]]},{"type":"LineString","properties":{"kind":"major_road","sort_rank":380,"kind_detail":"primary","is_bicycle_related":true,"bus_network":null,"cycleway":"shared_lane","source":"openstreetmap.org","min_zoom":8.0,"bus_shield_text":"81X","landuse_kind":"urban_area","id":26943623},"arcs":[586]},{"type":"MultiLineString","properties":{"kind":"major_road","network":"US:CA","sort_rank":381,"kind_detail":"trunk","source":"openstreetmap.org","min_zoom":8.0,"shield_text":"37","ref":"CA 37"},"arcs":[[587],[588],[589],[590],[591],[592],[593],[594],[595],[596],[597],[598],[599],[600],[601],[602],[603],[604]]},{"type":"MultiLineString","properties":{"bus_network":null,"sort_rank":380,"kind_detail":"primary","is_bicycle_related":true,"cycleway_right":"lane","source":"openstreetmap.org","min_zoom":8.0,"bus_shield_text":"9R","landuse_kind":"urban_area","kind":"major_road"},"arcs":[[605],[606]]},{"type":"MultiLineString","properties":{"kind":"highway","network":"US:US","sort_rank":383,"kind_detail":"motorway","source":"openstreetmap.org","min_zoom":8.0,"all_networks":["US:US"],"shield_text":"101","ref":"US 101","all_shield_texts":["101"]},"arcs":[[607],[608],[609],[610],[611],[612],[613],[614],[615],[616],[617],[618],[619],[620],[621]]},{"type":"LineString","properties":{"bus_network":null,"sort_rank":380,"kind_detail":"primary","old_name":"Marlette Street","is_bicycle_related":true,"kind":"major_road","source":"openstreetmap.org","min_zoom":8.0,"bus_shield_text":"30X","landuse_kind":"urban_area"},"arcs":[622]},{"type":"LineString","properties":{"cycleway_right":"track","sort_rank":380,"kind_detail":"primary","is_bicycle_related":true,"kind":"major_road","bicycle_shield_text":"45","bicycle_network":"lcn","bus_network":null,"source":"openstreetmap.org","min_zoom":8.0,"bus_shield_text":"N-Owl","landuse_kind":"urban_area","id":529815282},"arcs":[623]},{"type":"LineString","properties":{"kind":"major_road","network":"US:CA","sort_rank":380,"kind_detail":"primary","is_bicycle_related":true,"bicycle_shield_text":null,"bicycle_network":"rcn","source":"openstreetmap.org","min_zoom":8.0,"shield_text":"128","ref":"CA 128","id":179214551},"arcs":[624]},{"type":"LineString","properties":{"bus_network":null,"sort_rank":380,"kind_detail":"primary","is_bicycle_related":true,"cycleway_right":"shared_lane","bicycle_shield_text":"210","bicycle_network":"lcn","source":"openstreetmap.org","min_zoom":8.0,"bus_shield_text":"30X","landuse_kind":"urban_area","kind":"major_road"},"arcs":[625]},{"type":"MultiLineString","properties":{"source":"openstreetmap.org","kind":"major_road","landuse_kind":"urban_area","sort_rank":380,"kind_detail":"primary","min_zoom":8.0},"arcs":[[626],[627],[628],[629],[630],[631],[632],[633],[634],[635],[636],[637],[638],[639],[640],[641],[642],[643],[644],[645],[646],[647],[648],[649],[650],[651],[652],[653],[654],[655],[656],[657],[658],[659],[660],[661],[662],[663],[664],[665],[666],[667],[668],[669],[670],[671],[672],[673],[674],[675],[676],[677],[678],[679],[680],[681],[682],[683],[684],[685],[686],[687],[688],[689],[690],[691],[692],[693],[694],[695],[696],[697],[698],[699],[700],[701],[702]]},{"type":"LineString","properties":{"bus_network":null,"network":"US:CA","sort_rank":381,"kind_detail":"trunk","is_bicycle_related":true,"kind":"major_road","bicycle_shield_text":"PCB","bicycle_network":"rcn","source":"openstreetmap.org","min_zoom":8.0,"bus_shield_text":"18","shield_text":"35","landuse_kind":"urban_area","ref":"CA 35"},"arcs":[703]},{"type":"MultiLineString","properties":{"bus_network":null,"sort_rank":380,"kind_detail":"primary","kind":"major_road","source":"openstreetmap.org","min_zoom":8.0,"bus_shield_text":"7R","landuse_kind":"urban_area"},"arcs":[[704],[705],[706],[707],[708]]},{"type":"LineString","properties":{"cycleway_right":"shared_lane","sort_rank":380,"kind_detail":"primary","is_bicycle_related":true,"kind":"major_road","source":"openstreetmap.org","min_zoom":8.0,"landuse_kind":"urban_area"},"arcs":[709]},{"type":"MultiLineString","properties":{"bus_network":null,"network":"US:CA","sort_rank":381,"landuse_kind":"urban_area","kind":"major_road","source":"openstreetmap.org","min_zoom":8.0,"bus_shield_text":"28R","shield_text":"1","kind_detail":"trunk","ref":"CA 1"},"arcs":[[710],[711],[712],[713],[714]]},{"type":"MultiLineString","properties":{"bus_network":null,"sort_rank":380,"kind_detail":"primary","kind":"major_road","source":"openstreetmap.org","min_zoom":8.0,"bus_shield_text":"29","landuse_kind":"urban_area"},"arcs":[[715],[716]]},{"type":"MultiLineString","properties":{"bus_network":null,"sort_rank":380,"kind_detail":"primary","kind":"major_road","source":"openstreetmap.org","min_zoom":8.0,"bus_shield_text":"14X","landuse_kind":"urban_area"},"arcs":[[717],[718],[719],[720]]},{"type":"MultiLineString","properties":{"kind":"major_road","sort_rank":380,"kind_detail":"primary","is_bicycle_related":true,"bicycle_shield_text":"SFB","cycleway":"lane","source":"openstreetmap.org","min_zoom":8.0,"landuse_kind":"urban_area","bicycle_network":"rcn"},"arcs":[[721],[722],[723]]},{"type":"MultiLineString","properties":{"kind":"highway","network":"US:I","sort_rank":383,"landuse_kind":"urban_area","source":"openstreetmap.org","min_zoom":8.0,"all_networks":["US:I"],"kind_detail":"motorway","shield_text":"80","ref":"I 80","all_shield_texts":["80"]},"arcs":[[724],[725],[726],[727]]},{"type":"LineString","properties":{"source":"openstreetmap.org","kind":"major_road","old_name":"Marlette Street","sort_rank":380,"kind_detail":"primary","landuse_kind":"urban_area","min_zoom":8.0},"arcs":[728]},{"type":"LineString","properties":{"bus_network":null,"sort_rank":380,"kind_detail":"primary","is_bicycle_related":true,"kind":"major_road","bicycle_shield_text":"19","cycleway":"shared_lane","source":"openstreetmap.org","min_zoom":8.0,"bus_shield_text":"8AX","landuse_kind":"urban_area","bicycle_network":"lcn"},"arcs":[729]},{"type":"LineString","properties":{"bus_network":null,"sort_rank":380,"kind_detail":"primary","old_name":"Howard Street","kind":"major_road","source":"openstreetmap.org","min_zoom":8.0,"bus_shield_text":"27","landuse_kind":"urban_area"},"arcs":[730]},{"type":"LineString","properties":{"source":"openstreetmap.org","kind":"ferry","name":"Angel Island - San Francisco Ferry Building","sort_rank":355,"is_bicycle_related":true,"min_zoom":8.0,"id":98759351},"arcs":[731]},{"type":"LineString","properties":{"bus_network":null,"sort_rank":380,"kind_detail":"primary","is_bicycle_related":true,"kind":"major_road","bicycle_shield_text":"68","cycleway":"shared_lane","source":"openstreetmap.org","min_zoom":8.0,"bus_shield_text":"19","landuse_kind":"urban_area","bicycle_network":"lcn"},"arcs":[732]},{"type":"MultiLineString","properties":{"bus_network":null,"sort_rank":380,"kind_detail":"primary","is_bicycle_related":true,"kind":"major_road","bicycle_shield_text":"34","bicycle_network":"lcn","source":"openstreetmap.org","min_zoom":8.0,"bus_shield_text":"18","landuse_kind":"urban_area"},"arcs":[[733],[734]]},{"type":"MultiLineString","properties":{"kind":"highway","network":"US:I","sort_rank":383,"kind_detail":"motorway","source":"openstreetmap.org","min_zoom":8.0,"all_networks":["US:I"],"shield_text":"80","ref":"I 80","all_shield_texts":["80"]},"arcs":[[735],[736],[737],[738]]},{"type":"LineString","properties":{"kind":"major_road","network":"US:US","sort_rank":381,"landuse_kind":"urban_area","source":"openstreetmap.org","min_zoom":8.0,"old_name":"Howard Street","shield_text":"101","kind_detail":"trunk","ref":"US 101"},"arcs":[739]},{"type":"LineString","properties":{"kind":"major_road","sort_rank":381,"kind_detail":"trunk","bus_network":null,"source":"openstreetmap.org","min_zoom":8.0,"bus_shield_text":"28R","landuse_kind":"urban_area","ref":"CA 1","id":514611115},"arcs":[740]},{"type":"MultiLineString","properties":{"kind":"major_road","network":"US:CA","sort_rank":380,"kind_detail":"primary","source":"openstreetmap.org","min_zoom":8.0,"shield_text":"29","ref":"CA 29"},"arcs":[[741],[742],[743],[744]]},{"type":"LineString","properties":{"source":"openstreetmap.org","kind":"ferry","name":"Tiburon - San Francisco Ferry Building","sort_rank":355,"is_bicycle_related":true,"min_zoom":8.0,"id":98759331},"arcs":[745]},{"type":"LineString","properties":{"kind":"major_road","sort_rank":381,"kind_detail":"trunk","bus_shield_text":"30X","is_bicycle_related":true,"bus_network":null,"source":"openstreetmap.org","min_zoom":8.0,"old_name":"Marlette Street","landuse_kind":"urban_area","id":85644954},"arcs":[746]},{"type":"LineString","properties":{"source":"openstreetmap.org","kind":"ferry","name":"Sausalito - San Francisco Ferry Building","sort_rank":355,"is_bicycle_related":true,"min_zoom":8.0,"id":98771919},"arcs":[747]},{"type":"MultiLineString","properties":{"kind":"major_road","sort_rank":380,"kind_detail":"primary","is_bicycle_related":true,"bicycle_shield_text":"SFB","bicycle_network":"rcn","source":"openstreetmap.org","min_zoom":8.0,"landuse_kind":"urban_area"},"arcs":[[748],[749]]},{"type":"LineString","properties":{"kind":"major_road","network":"US:CA","sort_rank":381,"landuse_kind":"urban_area","is_bicycle_related":true,"source":"openstreetmap.org","min_zoom":8.0,"kind_detail":"trunk","shield_text":"12","ref":"CA 12"},"arcs":[750]},{"type":"MultiLineString","properties":{"bus_network":null,"sort_rank":380,"kind_detail":"primary","is_bicycle_related":true,"cycleway_right":"lane","bicycle_shield_text":"30","bicycle_network":"rcn","source":"openstreetmap.org","min_zoom":8.0,"bus_shield_text":"7X","landuse_kind":"urban_area","kind":"major_road"},"arcs":[[751],[752]]},{"type":"LineString","properties":{"cycleway_right":"track","cycleway_left":"shared_lane","sort_rank":380,"kind_detail":"primary","is_bicycle_related":true,"kind":"major_road","bicycle_shield_text":"25","bicycle_network":"lcn","bus_network":null,"source":"openstreetmap.org","min_zoom":8.0,"bus_shield_text":"9R","landuse_kind":"urban_area","id":406944760},"arcs":[753]},{"type":"LineString","properties":{"kind":"major_road","network":"US:CA","sort_rank":380,"kind_detail":"primary","source":"openstreetmap.org","min_zoom":8.0,"shield_text":"12","ref":"SR 12"},"arcs":[754]},{"type":"MultiLineString","properties":{"bus_network":null,"sort_rank":380,"kind_detail":"primary","is_bicycle_related":true,"kind":"major_road","bicycle_shield_text":"5","bicycle_network":"lcn","source":"openstreetmap.org","min_zoom":8.0,"bus_shield_text":"T-Owl","landuse_kind":"urban_area"},"arcs":[[755],[756],[757],[758],[759]]},{"type":"LineString","properties":{"kind":"ferry","name":"Oakland Jack London Square- AT&T Park (Seasonal)","sort_rank":355,"landuse_kind":"urban_area","is_bicycle_related":true,"source":"openstreetmap.org","min_zoom":8.0,"id":98763155},"arcs":[760]},{"type":"LineString","properties":{"bus_network":null,"cycleway_left":"track","sort_rank":380,"kind_detail":"primary","is_bicycle_related":true,"kind":"major_road","bicycle_shield_text":"30","bicycle_network":"rcn","source":"openstreetmap.org","min_zoom":8.0,"bus_shield_text":"7X","landuse_kind":"urban_area"},"arcs":[761]},{"type":"LineString","properties":{"bus_network":null,"sort_rank":380,"kind_detail":"primary","is_bicycle_related":true,"cycleway_right":"track","bicycle_shield_text":null,"bicycle_network":"lcn","source":"openstreetmap.org","min_zoom":8.0,"bus_shield_text":"7X","landuse_kind":"urban_area","kind":"major_road"},"arcs":[762]},{"type":"MultiLineString","properties":{"kind":"highway","network":"US:US","sort_rank":383,"landuse_kind":"national_park","source":"openstreetmap.org","min_zoom":8.0,"all_networks":["US:US","US:CA"],"kind_detail":"motorway","shield_text":"101","ref":"US 101;CA 1","all_shield_texts":["101","1"]},"arcs":[[763],[764],[765]]},{"type":"MultiLineString","properties":{"kind":"major_road","network":"US:CA","sort_rank":380,"kind_detail":"primary","source":"openstreetmap.org","min_zoom":8.0,"shield_text":"121","ref":"CA 121"},"arcs":[[766],[767]]},{"type":"LineString","properties":{"bus_network":null,"sort_rank":380,"kind_detail":"primary","is_bicycle_related":true,"kind":"major_road","bicycle_shield_text":"50","cycleway":"shared_lane","source":"openstreetmap.org","min_zoom":8.0,"bus_shield_text":"K-Owl","landuse_kind":"urban_area","bicycle_network":"lcn"},"arcs":[768]},{"type":"MultiLineString","properties":{"cycleway_right":"lane","sort_rank":380,"kind_detail":"primary","is_bicycle_related":true,"bus_network":null,"bicycle_shield_text":"50","bicycle_network":"lcn","source":"openstreetmap.org","min_zoom":8.0,"bus_shield_text":"18","landuse_kind":"urban_area","kind":"major_road"},"arcs":[[769],[770]]},{"type":"LineString","properties":{"bus_network":null,"network":"US:US","sort_rank":381,"kind_detail":"trunk","is_bicycle_related":true,"kind":"major_road","source":"openstreetmap.org","min_zoom":8.0,"bus_shield_text":"47","shield_text":"101","landuse_kind":"urban_area","ref":"US 101","id":502795946},"arcs":[771]},{"type":"MultiLineString","properties":{"bus_network":null,"sort_rank":380,"kind_detail":"primary","kind":"major_road","source":"openstreetmap.org","min_zoom":8.0,"bus_shield_text":"292","landuse_kind":"urban_area"},"arcs":[[772],[773],[774],[775],[776]]},{"type":"MultiLineString","properties":{"bus_network":null,"sort_rank":380,"kind_detail":"primary","is_bicycle_related":true,"kind":"major_road","bicycle_shield_text":"25","cycleway":"track","source":"openstreetmap.org","min_zoom":8.0,"bus_shield_text":"292","landuse_kind":"urban_area","bicycle_network":"lcn"},"arcs":[[777],[778]]},{"type":"MultiLineString","properties":{"kind":"major_road","sort_rank":380,"kind_detail":"primary","is_bicycle_related":true,"bicycle_shield_text":"30","cycleway":"lane","source":"openstreetmap.org","min_zoom":8.0,"landuse_kind":"urban_area","bicycle_network":"rcn"},"arcs":[[779],[780]]},{"type":"LineString","properties":{"cycleway_right":"track","sort_rank":380,"kind_detail":"primary","is_bicycle_related":true,"kind":"major_road","bicycle_shield_text":"50","bicycle_network":"lcn","bus_network":null,"source":"openstreetmap.org","min_zoom":8.0,"bus_shield_text":"K-Owl","landuse_kind":"urban_area","id":396985434},"arcs":[781]},{"type":"LineString","properties":{"cycleway_right":"lane","sort_rank":380,"kind_detail":"primary","is_bicycle_related":true,"kind":"major_road","bus_network":null,"source":"openstreetmap.org","min_zoom":8.0,"bus_shield_text":"23","landuse_kind":"urban_area","id":467628663},"arcs":[782]},{"type":"MultiLineString","properties":{"bus_network":null,"sort_rank":380,"kind_detail":"primary","is_bicycle_related":true,"cycleway_right":"shared_lane","bicycle_shield_text":"50","bicycle_network":"lcn","source":"openstreetmap.org","min_zoom":8.0,"bus_shield_text":"N-Owl","landuse_kind":"urban_area","kind":"major_road"},"arcs":[[783],[784]]},{"type":"MultiLineString","properties":{"cycleway_right":"lane","sort_rank":380,"kind_detail":"primary","is_bicycle_related":true,"kind":"major_road","bicycle_shield_text":"5","bicycle_network":"lcn","source":"openstreetmap.org","min_zoom":8.0,"landuse_kind":"urban_area"},"arcs":[[785],[786],[787]]},{"type":"LineString","properties":{"bus_network":null,"sort_rank":380,"kind_detail":"primary","is_bicycle_related":true,"kind":"major_road","bicycle_shield_text":"25","cycleway":"lane","source":"openstreetmap.org","min_zoom":8.0,"bus_shield_text":"292","landuse_kind":"urban_area","bicycle_network":"lcn"},"arcs":[788]},{"type":"LineString","properties":{"bus_network":null,"sort_rank":380,"kind_detail":"primary","is_bicycle_related":true,"cycleway_right":"shared_lane","bicycle_shield_text":"40","bicycle_network":"lcn","source":"openstreetmap.org","min_zoom":8.0,"bus_shield_text":"L-Owl","landuse_kind":"urban_area","kind":"major_road"},"arcs":[789]},{"type":"LineString","properties":{"kind":"highway","network":"US:US","sort_rank":383,"landuse_kind":"urban_area","source":"openstreetmap.org","min_zoom":8.0,"all_networks":["US:US","US:CA"],"kind_detail":"motorway","shield_text":"101","ref":"US 101;CA 1","all_shield_texts":["101","1"]},"arcs":[790]},{"type":"MultiLineString","properties":{"bus_network":null,"sort_rank":380,"kind_detail":"primary","is_bicycle_related":true,"cycleway_right":"track","source":"openstreetmap.org","min_zoom":8.0,"bus_shield_text":"14X","landuse_kind":"urban_area","kind":"major_road"},"arcs":[[791],[792]]},{"type":"MultiLineString","properties":{"kind":"major_road","sort_rank":380,"kind_detail":"primary","is_bicycle_related":true,"bicycle_shield_text":"60","cycleway":"lane","source":"openstreetmap.org","min_zoom":8.0,"landuse_kind":"urban_area","bicycle_network":"lcn"},"arcs":[[793],[794]]},{"type":"MultiLineString","properties":{"bus_network":null,"sort_rank":380,"kind_detail":"primary","is_bicycle_related":true,"cycleway_right":"lane","bicycle_shield_text":"50","bicycle_network":"lcn","source":"openstreetmap.org","min_zoom":8.0,"bus_shield_text":"36","landuse_kind":"urban_area","kind":"major_road"},"arcs":[[795],[796]]},{"type":"MultiLineString","properties":{"cycleway_right":"track","cycleway_left":"lane","sort_rank":380,"kind_detail":"primary","is_bicycle_related":true,"bus_network":null,"bicycle_shield_text":"25","bicycle_network":"lcn","source":"openstreetmap.org","min_zoom":8.0,"bus_shield_text":"292","landuse_kind":"urban_area","kind":"major_road"},"arcs":[[797],[798],[799]]},{"type":"LineString","properties":{"bus_network":null,"sort_rank":380,"kind_detail":"primary","is_bicycle_related":true,"cycleway_right":"lane","bicycle_shield_text":"30","bicycle_network":"rcn","source":"openstreetmap.org","min_zoom":8.0,"bus_shield_text":"7R","landuse_kind":"urban_area","kind":"major_road"},"arcs":[800]},{"type":"MultiLineString","properties":{"cycleway_right":"lane","sort_rank":380,"kind_detail":"primary","is_bicycle_related":true,"kind":"major_road","source":"openstreetmap.org","min_zoom":8.0,"landuse_kind":"urban_area"},"arcs":[[801],[802],[803],[804],[805],[806],[807],[808],[809]]},{"type":"LineString","properties":{"bus_network":null,"sort_rank":380,"kind_detail":"primary","is_bicycle_related":true,"kind":"major_road","bicycle_shield_text":"50","cycleway":"lane","source":"openstreetmap.org","min_zoom":8.0,"bus_shield_text":"7R","landuse_kind":"urban_area","id":212214143,"bicycle_network":"lcn"},"arcs":[810]}]},"earth":{"type":"GeometryCollection","geometries":[{"type":"MultiPolygon","properties":{"sort_rank":10,"source":"naturalearthdata.com","min_zoom":0.0,"kind":"earth","area":56862509881},"arcs":[[[811]],[[812]],[[813]]]}]},"landuse":{"type":"GeometryCollection","geometries":[{"type":"Polygon","properties":{"kind":"national_park","protect_class":"2","area":469788992,"sort_rank":18,"source":"openstreetmap.org","min_zoom":3.0,"tier":1,"id":-1250137,"osm_relation":true},"arcs":[[814],[815]]},{"type":"MultiPolygon","properties":{"source":"openstreetmap.org","kind":"residential","tier":2,"area":362071679,"sort_rank":20,"min_zoom":8.0,"osm_relation":true},"arcs":[[[816],[817]]]},{"type":"MultiPolygon","properties":{"source":"openstreetmap.org","kind":"nature_reserve","tier":2,"area":366406495,"sort_rank":23,"min_zoom":8.0},"arcs":[[[818]],[[819]]]},{"type":"Polygon","properties":{"kind":"park","protect_class":"5","area":42184400,"sort_rank":24,"operator":"California Department of Parks and Recreation","source":"openstreetmap.org","min_zoom":8.0,"tier":2,"id":-3952121,"osm_relation":true},"arcs":[[820],[821],[822]]},{"type":"Polygon","properties":{"kind":"national_park","protect_class":"3","area":643769024,"sort_rank":18,"operator":"US Forest Service;BLM","source":"openstreetmap.org","min_zoom":3.0,"tier":1,"id":-6176314,"osm_relation":true},"arcs":[[823]]},{"type":"Polygon","properties":{"kind":"nature_reserve","area":11677600,"sort_rank":23,"operator":"California Department of FIsh and Game","source":"openstreetmap.org","min_zoom":8.0,"tier":2,"id":-7492574,"osm_relation":true},"arcs":[[824]]},{"type":"Polygon","properties":{"kind":"park","protect_class":"5","area":17535700,"sort_rank":24,"source":"openstreetmap.org","min_zoom":8.0,"tier":2,"id":38414282},"arcs":[[825]]},{"type":"MultiPolygon","properties":{"kind":"nature_reserve","protect_class":"5","area":79895311,"sort_rank":23,"source":"openstreetmap.org","min_zoom":8.0,"tier":2,"osm_relation":true},"arcs":[[[826]]]},{"type":"MultiPolygon","properties":{"kind":"nature_reserve","protect_class":"5","area":145218154,"sort_rank":23,"operator":"California Department of Fish and Wildlife","source":"openstreetmap.org","min_zoom":8.0,"tier":2,"osm_relation":true},"arcs":[[[827]],[[828]]]},{"type":"MultiPolygon","properties":{"source":"openstreetmap.org","kind":"park","tier":2,"area":322497699,"sort_rank":24,"min_zoom":8.0,"osm_relation":true},"arcs":[[[829]],[[830],[831]],[[832],[833]],[[834]],[[835],[836]]]},{"type":"MultiPolygon","properties":{"kind":"nature_reserve","protect_class":"4","area":271890700,"sort_rank":23,"source":"openstreetmap.org","min_zoom":8.0,"tier":2,"osm_relation":true},"arcs":[[[837]]]},{"type":"MultiPolygon","properties":{"kind":"park","area":206891980,"sort_rank":24,"operator":"California Department of Parks and Recreation","source":"openstreetmap.org","min_zoom":8.0,"tier":2,"osm_relation":true},"arcs":[[[838],[839],[840],[841],[842]]]},{"type":"MultiPolygon","properties":{"source":"openstreetmap.org","kind":"park","tier":2,"area":456994460,"sort_rank":24,"min_zoom":8.0},"arcs":[[[843],[844]],[[845]]]},{"type":"MultiPolygon","properties":{"source":"naturalearthdata.com","kind":"urban_area","name":"","area":8507859578,"sort_rank":11,"min_zoom":4.0},"arcs":[[[846]],[[847]],[[848]],[[849]],[[850]],[[851]]]},{"type":"Polygon","properties":{"kind":"national_park","protect_class":"5","area":54298900,"sort_rank":18,"operator":"United States National Park Service","source":"openstreetmap.org","min_zoom":8.0,"tier":1,"id":-3947724,"osm_relation":true},"arcs":[[852]]},{"type":"MultiPolygon","properties":{"kind":"nature_reserve","protect_class":"1b","area":161485794,"sort_rank":23,"operator":"United States National Park Service","source":"openstreetmap.org","min_zoom":8.0,"tier":2,"osm_relation":true},"arcs":[[[853]],[[854],[855],[856]],[[857]],[[858]]]},{"type":"MultiPolygon","properties":{"kind":"nature_reserve","protect_class":"4","area":92582336,"sort_rank":23,"operator":"California Department of Fish & Wildlife","source":"openstreetmap.org","min_zoom":8.0,"tier":2},"arcs":[[[859]]]},{"type":"Polygon","properties":{"source":"openstreetmap.org","kind":"park","area":107527000,"tier":2,"id":195463296,"min_zoom":7.0,"sort_rank":24},"arcs":[[860]]},{"type":"Polygon","properties":{"kind":"nature_reserve","protect_class":"4","area":123256000,"sort_rank":23,"operator":"Marin Municipal Water District","source":"openstreetmap.org","min_zoom":7.0,"tier":2,"id":-7473345,"osm_relation":true},"arcs":[[861]]},{"type":"MultiPolygon","properties":{"source":"openstreetmap.org","kind":"aerodrome","tier":3,"area":77805666,"sort_rank":60,"min_zoom":8.0},"arcs":[[[862]]]},{"type":"MultiPolygon","properties":{"kind":"nature_reserve","protect_class":"4","area":111899201,"sort_rank":23,"operator":"United States Fish and Wildlife Service","source":"openstreetmap.org","min_zoom":8.0,"tier":2,"osm_relation":true},"arcs":[[[863]],[[864]]]}]}},"type":"Topology","transform":{"translate":[-123.75,37.7185903256],"scale":[0.0003433228,0.0002695314]},"arcs":[[[0,3424],[290,-263],[399,-550],[284,-251],[206,-128],[38,-46],[35,-177],[88,-194],[206,-267],[-116,-236],[-43,-155],[-8,-195],[38,-178],[-177,-204],[-94,-254],[1,-262],[23,-64]],[[111,4096],[231,-239],[118,-67],[76,-115],[161,-105],[436,-633],[108,-43],[50,-74],[109,-78],[143,-58],[70,-118],[92,-81],[88,-158],[-22,-98],[22,-86],[247,-304],[101,-242],[-142,-418],[-62,-104],[3,-93],[47,-91],[132,-62],[202,-3],[99,51],[49,83],[38,-12],[113,-106],[60,-131],[119,-61],[65,-104],[148,-75],[117,11],[126,-77],[129,-142],[28,-263]],[[4067,812],[29,-9]],[[4096,330],[-87,-16],[-134,-106],[-8,-123],[-70,-85]],[[3932,266],[-6,-6]],[[4067,812],[29,-9]],[[3932,266],[-6,-6]],[[4096,334],[-99,-25],[-120,-98],[2,-101],[-82,-110]],[[4096,1050],[-13,2],[-21,-16],[-11,-190],[17,-37],[11,-12],[17,-16]],[[4096,774],[-27,33],[-18,39],[8,182],[2,7],[4,7],[15,10],[6,1],[7,0],[3,-1]],[[4096,2430],[-34,75],[-92,78],[-144,233],[-103,115]],[[3781,0],[82,79],[12,129],[73,74],[148,46]],[[3926,260],[6,6]],[[4067,812],[29,-9]],[[4096,1048],[-32,-8],[-12,-201],[44,-56]],[[4096,804],[-29,8]],[[4096,804],[-29,8]],[[3781,0],[82,79],[12,129],[73,74],[148,46]],[[3926,260],[6,6]],[[3926,260],[6,6]],[[3797,0],[82,110],[-3,100],[121,99],[99,24]],[[4067,812],[29,-9]],[[4096,328],[-150,-47],[-72,-74],[-11,-128],[-83,-79]],[[4096,1044],[-32,-4],[-11,-204],[20,-33],[23,-22]],[[4096,781],[-17,16],[-7,7],[-7,9],[-5,8],[-4,9],[-4,9],[-2,8],[-1,8],[-1,9],[0,8],[11,156],[2,7],[2,3],[2,4],[2,2],[4,3],[2,2],[3,2],[4,1],[4,1],[4,0],[5,0],[3,-1]],[[4067,809],[-1,0],[0,1],[1,-1]],[[4096,1051],[-11,2],[-22,-15],[-12,-192],[45,-60]],[[4096,774],[-27,33],[-6,9],[-5,9],[-4,10],[-2,6],[-1,5],[-2,8],[0,5],[-1,5],[0,8],[11,156],[2,7],[2,3],[2,4],[4,4],[4,3],[3,2],[4,1],[6,1],[3,0],[4,0],[3,-1]],[[3947,214],[-16,-17],[1,-4],[20,-21],[3,-29],[-23,-143]],[[3947,214],[-15,-17],[1,-4],[16,-16],[1,-2],[2,-3],[1,-3],[0,-3],[1,-11],[1,-11],[-1,-7],[0,-7],[-12,-106],[-1,-6],[-5,-18]],[[3947,216],[-1,-1],[2,-1],[0,1],[-1,1]],[[3781,0],[82,79],[12,129],[71,73],[150,46]],[[3926,260],[6,6]],[[4096,328],[-146,-45],[-76,-76],[-11,-128],[-83,-79]],[[3932,266],[-6,-6]],[[3926,260],[6,6]],[[3782,0],[81,79],[12,129],[72,73],[149,47]],[[4096,804],[-29,8]],[[4096,327],[-150,-47],[-72,-73],[-11,-128],[-83,-79]],[[3932,266],[-6,-6]],[[4096,334],[-99,-25],[-120,-98],[2,-101],[-82,-110]],[[4096,328],[-146,-45],[-76,-76],[-11,-128],[-83,-79]],[[3932,266],[-6,-6]],[[2810,2940],[131,-191]],[[2941,2749],[55,-95]],[[2996,2654],[2,-202],[74,-154]],[[3072,2298],[17,-35]],[[3089,2263],[74,-126],[-2,-66],[59,-74],[8,-56],[72,-35],[93,-99],[60,-186],[-4,-175],[131,-213],[-12,-112],[-46,-88],[49,-46],[3,-53]],[[3781,0],[82,79],[12,129],[72,73],[149,47]],[[4096,804],[-29,8]],[[3926,260],[6,6]],[[4096,1050],[-30,-8],[-15,-196],[45,-60]],[[4067,809],[-1,0],[0,1],[1,-1]],[[3947,214],[-16,-17],[1,-4],[20,-21],[3,-29],[-23,-143]],[[3947,214],[-15,-17],[1,-4],[16,-16],[1,-2],[2,-3],[1,-3],[0,-3],[1,-11],[1,-11],[-1,-7],[0,-7],[-12,-106],[-1,-6],[-5,-18]],[[3947,216],[-1,-1],[2,-1],[0,1],[-1,1]],[[3947,214],[-14,-14],[-1,-2],[-1,-1],[1,-2],[0,-2],[20,-21],[3,-29],[-23,-143]],[[3947,214],[-15,-17],[20,-25],[3,-28],[-18,-144]],[[3947,216],[-1,-1],[2,-1],[0,1],[-1,1]],[[3926,260],[6,6]],[[3797,0],[82,110],[-3,100],[121,99],[99,24]],[[403,4096],[51,-62],[81,-40],[22,-45],[62,-39],[41,-95],[90,-39],[54,-53],[118,-131],[3,-33],[54,-41],[37,-89],[92,-114],[11,-42],[29,-13],[41,-39],[14,-72],[63,-37],[31,-31],[94,-74],[58,-68],[238,-117],[123,-111],[12,-44],[34,-62],[31,-32],[18,-60],[26,-17],[23,-71],[24,-45],[7,-51],[-22,-89],[40,-98],[27,8],[4,26],[15,26],[50,2],[79,-66],[44,-64],[37,-42],[17,-57],[-1,-51],[13,-18],[30,-3],[10,-53],[20,8],[24,-14],[138,-226],[110,-163],[53,-55],[19,-88],[-51,73],[-74,68],[-66,76],[-46,80],[-54,85],[-114,158],[-60,74],[-32,19],[9,-49],[30,-35],[27,-45],[26,-35],[0,-59],[27,-24],[15,-44],[2,-76],[-119,-353],[-74,-178],[-16,-1],[-17,-22],[28,-4],[59,1],[38,-6],[30,-7],[34,7],[-27,15],[-25,7],[-11,19],[14,42],[46,40],[41,15],[39,5],[-19,39],[-13,15],[0,35],[-4,22],[20,15],[18,23],[44,-21],[-35,-24],[-1,-34],[33,-55],[42,-11],[196,-94],[53,-33],[31,-46],[43,-36],[46,-101],[43,-40],[49,-18],[42,-46],[19,-64],[42,-10],[37,-30],[11,26],[31,18],[40,9],[79,-28],[71,-79],[57,-16],[38,-46],[42,-19],[29,-28],[46,-51],[29,-24],[28,-43],[17,21],[32,9],[26,-15],[43,18],[30,-1],[21,25],[-18,44],[-9,35],[5,24],[-33,17],[-29,31],[13,19],[-5,25],[-7,34],[26,1],[41,-26],[11,-26],[-3,-20],[11,-27],[30,-17],[-1,32],[14,5],[19,4],[27,32],[-30,42],[-32,7],[-41,36],[5,23],[-11,17],[-79,33],[-2,37],[1,21],[35,-18],[33,23],[-10,25],[-28,37],[3,42],[53,23],[15,25],[28,-5],[24,-5],[17,19],[-26,47],[-45,28],[-69,27],[-37,17],[1,22],[9,32],[25,68],[34,99],[-14,104],[-44,32],[130,16],[25,25],[44,-4],[68,39],[41,72],[154,-92],[0,-457],[-7,3],[-59,23],[-10,-33],[30,-59],[-27,-27],[-76,-37],[-8,-53],[-47,22],[-46,8],[24,-59],[33,-61],[40,-14],[25,-29],[-10,-46],[77,-15],[49,10],[12,1],[0,-698],[-49,0],[18,42],[-35,37],[-23,35],[-14,25],[-11,29],[4,36],[-16,19],[-3,46],[-30,46],[-30,26],[-29,2],[-130,-21],[-39,20],[-27,-74],[-34,-14],[-24,-2],[-27,-20],[4,-107],[15,-101],[6,-24],[-3622,0],[0,4096],[403,0]],[[4020,337],[18,-8],[12,8],[-6,15],[-15,-4],[-7,16],[19,14],[-15,41],[-15,5],[-18,-14],[8,-27],[13,-20],[6,-26]],[[3826,498],[23,6],[27,-2],[4,34],[-21,31],[-28,-1],[-6,-11],[-14,1],[-7,-16],[2,-31],[1,0],[0,-2],[19,-9]],[[403,4096],[51,-62],[81,-40],[22,-45],[62,-39],[41,-95],[90,-39],[54,-53],[118,-131],[3,-33],[54,-41],[37,-89],[92,-114],[11,-42],[29,-13],[41,-39],[14,-72],[63,-37],[31,-31],[94,-74],[58,-68],[238,-117],[123,-111],[12,-44],[34,-62],[31,-32],[18,-60],[26,-17],[23,-71],[24,-45],[7,-51],[-22,-89],[40,-98],[27,8],[4,26],[15,26],[50,2],[79,-66],[44,-64],[37,-42],[17,-57],[-1,-51],[13,-18],[30,-3],[10,-53],[20,8],[24,-14],[138,-226],[110,-163],[53,-55],[19,-88],[-51,73],[-74,68],[-66,76],[-46,80],[-54,85],[-114,158],[-60,74],[-32,19],[9,-49],[30,-35],[27,-45],[26,-35],[0,-59],[27,-24],[15,-44],[2,-76],[-119,-353],[-74,-178],[-16,-1],[-17,-22],[28,-4],[59,1],[38,-6],[30,-7],[34,7],[-27,15],[-25,7],[-11,19],[14,42],[46,40],[41,15],[39,5],[-19,39],[-13,15],[0,35],[-4,22],[20,15],[18,23],[44,-21],[-35,-24],[-1,-34],[33,-55],[42,-11],[196,-94],[53,-33],[31,-46],[43,-36],[46,-101],[43,-40],[49,-18],[42,-46],[19,-64],[42,-10],[37,-30],[11,26],[31,18],[40,9],[79,-28],[71,-79],[57,-16],[38,-46],[42,-19],[29,-28],[46,-51],[29,-24],[28,-43],[17,21],[32,9],[26,-15],[43,18],[30,-1],[21,25],[-18,44],[-9,35],[5,24],[-33,17],[-29,31],[13,19],[-5,25],[-7,34],[26,1],[41,-26],[11,-26],[-3,-20],[11,-27],[30,-17],[-1,32],[14,5],[19,4],[27,32],[-30,42],[-32,7],[-41,36],[5,23],[-11,17],[-79,33],[-2,37],[1,21],[35,-18],[33,23],[-10,25],[-28,37],[3,42],[53,23],[15,25],[28,-5],[24,-5],[17,19],[-26,47],[-45,28],[-69,27],[-37,17],[1,22],[9,32],[25,68],[34,99],[-14,104],[-44,32],[130,16],[25,25],[44,-4],[68,39],[41,72],[154,-92]],[[4096,1064],[-7,3],[-59,23],[-10,-33],[30,-59],[-27,-27],[-76,-37],[-8,-53],[-47,22],[-46,8],[24,-59],[33,-61],[40,-14],[25,-29],[-10,-46],[77,-15],[49,10],[12,1]],[[4047,0],[18,42],[-35,37],[-23,35],[-14,25],[-11,29],[4,36],[-16,19],[-3,46],[-30,46],[-30,26],[-29,2],[-130,-21],[-39,20],[-27,-74],[-34,-14],[-24,-2],[-27,-20],[4,-107],[15,-101],[6,-24]],[[3885,125],[0,-6]],[[3020,865],[-94,134]],[[3494,616],[-13,-7]],[[3595,829],[-3,-21]],[[3592,804],[4,-25]],[[3957,284],[-14,49],[-46,6]],[[3621,62],[5,0]],[[3629,63],[-8,0]],[[3648,56],[1,0]],[[3651,57],[-2,0]],[[3893,339],[2,-2]],[[3864,198]],[[3895,339],[1,-1]],[[3706,510],[187,-171]],[[3791,10]],[[3793,10],[-2,1]],[[1880,2666],[26,46],[64,-27],[35,16],[34,77],[40,0],[34,39],[46,-35],[35,42],[-58,40],[43,42],[110,-20],[32,-75],[187,-10],[153,-253],[29,0],[36,-64],[195,-186]],[[3367,1915],[-64,-6]],[[3303,1908],[5,0],[11,1],[48,5]],[[3368,1915],[129,-84],[66,89],[54,2],[26,45],[55,23],[55,-70]],[[3789,1954],[11,-1]],[[3862,303],[-1,1]],[[3873,232],[-4,24]],[[3869,252],[7,-42],[2,-9]],[[3878,202],[-5,29]],[[3840,51],[-25,-9],[-3,-5]],[[3812,37],[-21,-37]],[[3785,0],[17,32],[10,5]],[[3812,37],[27,13],[49,0],[28,13],[12,9],[20,28],[1,3]],[[3949,103],[5,34]],[[3954,137],[1,7],[-1,21],[-11,42]],[[3943,208],[10,-43],[1,-15],[0,-13]],[[3954,137],[-1,-24],[-3,-8],[-1,-2]],[[3949,103],[-21,-31],[-39,-21]],[[1214,3176],[3,26],[-104,115]],[[1271,3124],[-53,47]],[[1463,2968],[-41,24]],[[1513,2939],[-49,28]],[[1909,2526],[-41,117],[17,8]],[[3957,284],[55,-3],[84,-54]],[[3616,839],[12,-7]],[[3904,192],[15,16]],[[3642,0],[-2,7]],[[3640,1],[0,-1]],[[2712,2509],[-17,31]],[[3814,204],[-1,0]],[[3680,472],[2,-10]],[[3683,462],[-2,11]],[[3877,232],[8,2]],[[3887,234],[8,1]],[[3897,236],[5,0]],[[3958,219],[3,-4]],[[3950,214],[6,6]],[[3635,35],[-3,-10]],[[3632,25],[3,10]],[[3650,55],[-15,-20]],[[3623,169],[-10,0]],[[3613,168],[10,1]],[[2783,2861],[-106,-26],[-153,29],[-127,67],[-27,-22],[-76,13],[-47,50],[-49,-64]],[[3089,1960],[-118,66],[-149,-24],[-45,40],[-29,91],[-262,85]],[[2883,1229],[49,-66]],[[2973,2925],[29,20],[-19,70],[19,69]],[[3291,1086],[7,-1]],[[3710,1541],[-39,65],[-150,135],[-24,90]],[[3635,835],[-7,2]],[[3887,189],[55,59]],[[3729,65],[10,11]],[[3763,82],[6,6]],[[3769,88],[1,1],[1,2]],[[3771,91],[-2,-3]],[[3769,88],[-1,-2]],[[3940,274],[-144,-23]],[[3797,248],[133,21]],[[3956,263],[5,5]],[[3043,1068],[42,33],[206,-15]],[[3298,1085],[38,-39]],[[3787,101],[5,2]],[[3801,105],[1,0]],[[3108,2716],[-16,-3]],[[3272,1965],[-2,-4]],[[3601,839],[10,6]],[[3805,113],[1,1]],[[3880,188],[0,-3]],[[3880,185],[1,7]],[[3880,185],[5,-60]],[[3885,119],[1,-6]],[[3811,0],[7,9]],[[3818,9],[1,1],[16,31]],[[3835,42],[-8,-12],[-4,-11],[-3,-7],[-1,-1],[-1,-2]],[[3818,9],[-1,-2],[-5,-7]],[[3864,198],[0,1]],[[3889,214],[-4,4]],[[3912,191],[-5,5]],[[2140,4096],[6,-82],[12,-68],[254,-243]],[[2411,3705],[-80,91],[-172,149],[-12,68],[3,27],[-9,56]],[[3653,57],[-4,-2]],[[3873,207],[-5,-5]],[[3863,196],[1,1]],[[3951,116],[3,0]],[[3930,269],[3,1]],[[3953,224],[-9,9]],[[4096,274],[-120,-49]],[[3078,2658],[-221,-27]],[[2857,2630],[168,13],[56,15]],[[3918,280],[-1,8]],[[4074,0],[-15,160],[19,117],[18,4]],[[3795,223],[1,-7]],[[3912,74],[4,15]],[[3913,144],[-2,22],[3,-46]],[[3916,116],[-3,26]],[[3864,197],[0,1]],[[3950,266],[-1,-1]],[[3794,236],[0,-7]],[[3794,229],[0,7]],[[3794,229],[1,-6]],[[3761,82],[-22,-5]],[[4011,806],[-15,-19]],[[3724,60],[-1,0]],[[3830,164],[-29,-13],[5,-34]],[[2836,2945],[11,-13],[112,-106],[29,-127],[20,-39],[4,-107]],[[3013,2554],[-4,106],[-50,166],[-122,119]],[[3016,2438],[5,-177]],[[3022,2256],[-4,181]],[[3292,1923],[12,-31]],[[3304,1895],[-10,25]],[[3528,1132],[-4,-18],[0,-2]],[[3524,1112],[7,-61]],[[3531,1051],[0,-1],[50,-123],[32,-32],[-18,-66]],[[3554,1012],[-15,25],[-7,12],[0,1],[-1,1]],[[3531,1051],[-4,7],[-6,10],[-1,32],[3,9],[1,3]],[[3524,1112],[3,10],[0,1],[2,9]],[[3580,949],[1,9],[-18,43],[-4,5]],[[3601,748],[1,9]],[[3602,757],[1,3],[-11,50],[23,75],[-1,10],[-7,13],[-26,20]],[[3592,808],[0,-4]],[[3596,779],[5,-16],[1,-3],[0,-3]],[[3602,757],[1,-5]],[[3792,307],[-9,7],[-7,1],[-30,-6],[-28,13]],[[3722,317],[7,-4],[15,-4],[9,-1],[30,6],[8,-8]],[[3935,0],[-26,72],[13,44],[-5,64],[-5,7],[-25,2]],[[3887,189],[29,-8],[6,-65],[-2,-6],[-1,-5],[-10,-26],[0,-7],[17,-72]],[[3959,224],[-3,-3]],[[3621,62]],[[3621,63]],[[3649,56],[4,0]],[[3723,60],[1,0]],[[3513,1346],[15,10]],[[3530,1359],[-14,-10]],[[3710,1542],[-90,-74],[-85,-104]],[[3536,1363],[72,73],[12,32],[81,67]],[[3710,1541],[64,50],[15,13]],[[3788,1604],[-55,-45]],[[3581,928],[-1,21]],[[3860,307],[4,-21]],[[3861,304],[0,3]],[[3864,286],[-2,17]],[[3864,286],[5,-34]],[[3869,256],[-5,30]],[[3798,105],[-14,-4]],[[3806,117],[-5,-11]],[[3848,182],[-18,-18]],[[3791,306],[11,-9]],[[3802,298],[-10,9]],[[3861,307],[-20,-3]],[[3842,304],[19,3]],[[3707,174],[7,-143]],[[3714,31],[0,20],[-7,123]],[[3875,193],[3,8]],[[3363,3454],[-11,43]],[[3791,10],[2,0]],[[3860,310],[0,-3]],[[2129,4096],[-20,0]],[[2419,3690],[45,-25],[29,29],[159,-100],[58,-77],[20,18],[131,-122],[116,47],[124,-48],[121,-132],[44,0],[140,-102]],[[3866,2746],[69,42],[-21,65]],[[3919,2851],[95,-30],[67,41],[15,-1]],[[3330,1861],[17,-129],[95,-111],[7,-129]],[[3450,1492],[-7,129],[-95,111],[-10,120]],[[3519,1322],[7,-16]],[[3592,628],[0,-21]],[[3597,595],[-5,28]],[[3708,339],[-9,69]],[[3907,196],[-18,18]],[[3890,206],[14,-14]],[[2921,2298],[102,-25]],[[3291,1915],[9,-6],[3,-1]],[[3303,1909],[-3,0]],[[3023,2217],[12,-47],[160,-154]],[[3196,2016],[-161,154],[-12,47]],[[3846,58],[16,21]],[[3861,79],[-14,-19]],[[3856,47],[-6,1]],[[3856,47],[11,0]],[[3876,49],[23,9]],[[3724,60]],[[2896,1041]],[[2898,1036],[0,1]],[[3370,576],[-4,5]],[[3413,548]],[[3574,597],[-1,1]],[[3589,600],[4,-6]],[[3897,339],[-1,-1]],[[2803,1194],[80,35]],[[3621,59],[-1,-9],[3,-8]],[[3621,56],[0,2]],[[3768,86],[-7,-4]],[[3461,953],[0,-5]],[[3461,957],[32,-1]],[[3739,77],[-11,-12]],[[3900,292],[-26,-4]],[[3874,287],[28,5]],[[4096,506],[-110,-47],[-38,-166]],[[3411,995],[3,0]],[[3960,117],[-1,9]],[[3874,208],[2,2]],[[3955,253],[-4,5]],[[3885,234],[2,0]],[[3895,235],[2,1]],[[3792,103],[9,2]],[[3803,106],[2,7]],[[3830,163],[19,19]],[[3873,110],[-6,-1]],[[3867,109],[6,0]],[[3913,112],[-6,-1]],[[3907,110],[2,0],[5,2]],[[3926,114],[-3,1]],[[3960,117],[-9,-1]],[[3957,117],[6,0]],[[3867,109],[-1,0]],[[3867,109]],[[3939,300],[0,-1]],[[3792,1946],[304,44]],[[3922,107],[0,3]],[[2932,1163],[4,-10]],[[2990,1105],[1,-1]],[[3034,1061]],[[3610,169],[11,-110]],[[3621,58],[-10,111]],[[3632,23],[-11,33]],[[3623,42],[6,-16],[3,-4]],[[3709,332],[-1,7]],[[3957,284],[139,-1]],[[3919,2851],[-4,1]],[[3945,14],[-1,-2]],[[3559,1006],[-5,6]],[[3812,0],[-1,0]],[[3600,3080],[-194,98]],[[3632,3010],[-12,27]],[[3866,2746],[-126,163]],[[3869,287],[-5,-1]],[[3976,225],[-8,-4]],[[3365,1021],[15,-24]],[[3913,66],[2,-6]],[[3916,58],[2,-3]],[[3722,257],[-2,-13]],[[3721,244],[1,13]],[[3628,832],[119,-62],[154,-156],[64,-224],[-11,-103]],[[3912,72],[0,-1]],[[3913,142],[0,2]],[[3916,89],[6,18]],[[3912,69],[0,5]],[[4096,272],[-120,-47]],[[3778,98],[-1,-1]],[[4096,1258],[-28,-4],[-239,-342],[138,-522],[-15,-100]],[[3962,117],[-2,0]],[[3968,117],[-2,0]],[[3881,192],[-1,0]],[[3953,260]],[[3923,285],[0,-3]],[[3956,221],[0,-1]],[[3958,274],[-7,-7]],[[3598,915],[20,-14],[6,-5],[1,-1],[3,-2]],[[3628,893],[1,-2]],[[3629,891],[-1,2]],[[3628,893],[-3,2],[-1,1],[-17,12]],[[3932,792],[-32,4]],[[3901,796],[29,-5]],[[3948,793],[21,-11],[19,-7],[6,-1],[32,-1],[61,-19],[9,-1]],[[4096,756],[-69,17],[-39,2],[-39,18]],[[3939,299],[-10,-2]],[[3841,45],[-6,-3]],[[3835,41],[10,5]],[[3914,120],[2,-4]],[[3921,110],[-4,-19]],[[3911,326],[-14,-2]],[[3806,114],[0,3]],[[3632,22],[8,-21]],[[3897,110],[-5,0]],[[3892,110],[15,0]],[[3907,111],[-8,-1]],[[2787,1228],[-23,35]],[[3632,25],[0,-3]],[[3632,23],[0,2]],[[3775,197],[0,-1]],[[3889,51],[-49,0]],[[3528,1356],[8,7]],[[3535,1364],[-5,-5]],[[3795,240],[-1,-3]],[[3794,237],[1,3]],[[3796,251],[-1,-11]],[[4023,2551],[11,-12]],[[4034,2539],[62,-117]],[[4096,2440],[-16,35],[-28,44],[-18,20]],[[3722,257],[8,50],[-4,5]],[[3726,312],[-8,10]],[[3722,317],[4,-5]],[[3726,312],[4,-5],[-8,-50]],[[2839,2614],[-33,-25]],[[3094,2658],[-2,55],[17,3],[68,53]],[[3177,2769]],[[3177,2769]],[[3177,2769],[-2,0],[-67,-53]],[[3796,216],[2,-15]],[[3673,58],[-20,-1]],[[3653,56],[25,2]],[[3713,60],[-12,0]],[[3704,59],[10,0]],[[3759,178],[-1,0]],[[3758,177],[1,1]],[[3760,180],[-1,-2]],[[3760,180],[3,1]],[[3770,183],[-7,-2]],[[3770,183],[2,4]],[[3771,192],[2,3]],[[3772,195],[-1,-3]],[[3771,192],[1,-5]],[[3659,844],[-24,-9]],[[3956,220],[12,34]],[[3782,100]],[[3806,117]],[[3930,246],[-1,-1]],[[3926,262],[0,-2]],[[3367,1914],[0,1]],[[3914,211],[-15,-14]],[[3946,244],[-19,-20]],[[3864,198],[-8,-8]],[[3933,1],[0,-1]],[[3944,12],[-2,-6]],[[3956,221],[-7,-6]],[[3961,207],[7,-90]],[[3969,118],[-7,90]],[[3775,196]],[[3886,210],[4,-4]],[[3040,1066],[3,2]],[[3439,4015],[-8,22]],[[3901,60],[8,4]],[[3911,72],[-7,-9]],[[3911,65],[1,4]],[[3912,72]],[[3929,297],[-3,-1]],[[3830,557],[-35,-4],[-8,-39],[108,-175]],[[3740,2909],[-108,101]],[[3869,202],[5,6]],[[3856,190],[-8,-8]],[[3849,182],[9,10]],[[3860,193],[3,3]],[[3868,202],[-4,-4]],[[3914,2853],[-245,157],[-1,65],[-85,109],[-90,-7],[-78,52]],[[4096,2634],[-29,62],[-148,155]],[[3724,61],[0,-1]],[[3887,189],[-23,9]],[[3865,195],[3,-2],[19,-4]],[[3913,197],[4,-21]],[[3918,170],[-4,26]],[[3881,215],[1,-1]],[[3881,215],[1,-1]],[[3882,214],[4,-4]],[[3912,72]],[[3802,1610]],[[3818,1612],[9,1]],[[3827,1613],[-1,0]],[[4063,1559],[-26,13]],[[4037,1573],[57,-27]],[[4096,1543],[-2,1]],[[4094,1546],[2,-1]],[[3920,328],[-48,73]],[[3969,118],[-1,-1]],[[3954,279],[5,-55]],[[3968,254],[-14,25]],[[3953,128],[1,-2]],[[2936,1153],[54,-48]],[[2991,1104],[43,-43]],[[3034,1061],[6,5]],[[3917,288],[0,3]],[[3919,208],[25,25],[-26,47]],[[3927,224],[-7,-6]],[[3805,238],[-17,-2]],[[3845,246],[-16,-3]],[[3830,557],[-59,14]],[[3739,76],[24,6]],[[3777,97],[-6,-6]],[[3771,91],[9,8]],[[3781,100],[-1,-1]],[[3912,294],[-5,-1]],[[3773,195],[2,1]],[[3900,796],[-194,35],[-8,4],[-2,0]],[[3696,835],[-11,5],[-5,0],[-51,51]],[[3629,891],[67,-56]],[[3696,835],[1,0],[9,-4],[195,-35]],[[3960,117]],[[4096,930],[0,-3]],[[3996,787],[-1,-14]],[[3996,773],[37,70],[-24,78],[87,57],[0,1]],[[4096,994],[-87,-70],[0,-50],[22,-29],[-20,-39]],[[3819,227],[-24,-4]],[[3909,185]],[[4075,0],[-16,160],[20,117],[17,3]],[[2896,1041],[-93,153]],[[2898,1037],[-2,4]],[[2926,999],[-28,37]],[[3020,865],[37,-59],[104,-78]],[[3270,625],[-92,90]],[[3366,581],[-24,14]],[[3413,548],[-23,-7],[-20,35]],[[3470,587],[-20,-38],[-37,-1]],[[3573,598],[-79,18]],[[3597,597],[-23,0]],[[3602,590],[76,-115]],[[3679,475],[-67,107],[-4,4]],[[3862,79],[0,1]],[[3928,315],[-3,5]],[[3878,202]],[[3806,117],[14,43]],[[3795,247],[2,1]],[[3909,64],[2,1]],[[3336,1046],[29,-25]],[[3907,293],[-7,-1]],[[3913,294],[-1,0]],[[3899,110],[-2,0]],[[3909,185],[0,3]],[[3620,3037],[-20,43]],[[3611,169],[-1,0]],[[3929,245],[-39,-39]],[[3949,265],[-19,-19]],[[3942,248],[3,4]],[[3845,46],[1,0]],[[3911,166],[-1,4]],[[3918,55],[1,-2]],[[3701,60],[-28,-2]],[[3678,58],[26,1]],[[3859,317],[1,-7]],[[3860,311],[-1,6]],[[3797,7],[8,-7]],[[4067,0],[6,68],[-66,190],[-50,26]],[[3653,57],[-2,0]],[[3724,60],[-11,0]],[[3714,59],[9,1]],[[3957,284],[139,6]],[[3878,201],[3,-9]],[[3802,297],[40,7]],[[3841,304],[-39,-6]],[[2806,2589],[-107,-52]],[[3268,2736],[-91,33]],[[3177,2769],[84,-29],[7,-4]],[[3268,2736],[201,-107],[118,-152],[124,-343],[53,-7],[-13,-108],[41,-73]],[[3966,117],[-4,0]],[[3963,117],[3,0]],[[3966,117]],[[1113,3317],[-108,184],[-67,66],[-6,56],[-434,410],[-26,-5],[-48,68]],[[1218,3171],[-4,5]],[[1422,2992],[-151,132]],[[1464,2967],[-1,1]],[[1885,2651],[-33,56],[-114,65],[-2,38],[-15,-18],[-1,26],[-207,121]],[[2764,1263],[-14,77],[-247,275],[-2,41],[-91,144],[-5,46],[56,93],[25,279],[-87,9],[-149,68],[-140,-69],[-30,12],[-171,288]],[[2803,1194],[-16,34]],[[3930,791],[18,2]],[[3949,793],[-17,-1]],[[3756,176],[2,1]],[[3758,178],[-2,-1]],[[3775,196],[38,5]],[[3813,204],[-34,-5]],[[3861,212],[-34,-5]],[[3828,203],[34,6]],[[3907,241],[-45,-7]],[[3868,231],[9,1]],[[3910,170],[-1,15]],[[3798,201],[1,-2]],[[3699,408],[-2,14]],[[3305,3836],[-251,147],[-56,113]],[[3943,116],[-3,-1]],[[3892,110],[-19,0]],[[3873,109],[19,1]],[[3965,81],[-20,-67]],[[3945,14],[8,23],[15,52]],[[3969,102],[-4,-20]],[[3968,90],[2,12]],[[3864,198]],[[3788,236],[-67,-5]],[[3721,230],[67,6]],[[3805,238],[25,5]],[[3829,243],[-24,-5]],[[3870,249],[-25,-3]],[[3845,245],[26,1]],[[3901,60],[-38,-11]],[[3021,2261],[-3,-25],[5,-19]],[[3023,2217],[-1,39]],[[3195,2016],[97,-93]],[[3294,1920],[-44,53],[-54,43]],[[3782,100],[-1,0]],[[3951,267],[-1,-1]],[[3161,728],[17,-13]],[[3342,595],[-72,30]],[[3481,609],[-11,-22]],[[3961,214],[-5,6]],[[3912,69],[0,3]],[[3868,202],[1,0]],[[3876,210],[-3,-3]],[[3728,65],[-4,-4]],[[3951,258],[-2,1]],[[3912,71],[0,-2]],[[3915,60],[1,-2]],[[3945,252],[8,8]],[[3933,270],[2,-1]],[[3878,201],[0,1]],[[3782,100],[5,1]],[[3802,105],[1,1]],[[3926,296],[-13,-2]],[[3815,254],[10,-62]],[[3825,192],[-10,62]],[[3825,192],[5,-28]],[[3956,221],[-3,3]],[[3701,1535],[9,6]],[[3733,1559],[-23,-17]],[[3794,1606],[-6,-2]],[[3789,1604],[5,2]],[[3794,1606],[3,2]],[[3797,1608],[5,2]],[[3826,1613],[-29,-5]],[[3802,1610],[16,2]],[[4037,1572],[-39,19]],[[3998,1591],[-9,5],[-1,0],[-1,1]],[[3987,1597],[-24,8]],[[3963,1605],[-42,16],[-19,1],[-75,-9]],[[3827,1613],[94,8],[42,-16]],[[3963,1605],[24,-8]],[[3987,1597],[1,-1],[1,-1],[9,-4]],[[3998,1591],[39,-18]],[[4094,1544],[-31,15]],[[4094,1546]],[[3908,188],[1,-3]],[[3917,91],[-5,-19]],[[2837,2945],[-211,298],[-72,55],[-3,192],[-23,116],[-1,1],[-25,24],[-81,60],[-10,14]],[[2412,3703],[8,-12],[107,-85],[26,-308],[73,-56],[210,-297]],[[3012,2553],[4,-115]],[[3018,2437],[-5,117]],[[3338,1852],[-34,43]],[[3304,1892],[10,-17],[0,-1],[16,-13]],[[3449,1492],[12,-90],[53,-71],[5,-9]],[[3529,1132],[21,102],[-8,41],[-23,50],[-57,77],[-12,90]],[[3526,1306],[3,-10],[8,-14],[9,-60],[-13,-35],[-5,-55]],[[3603,752],[2,-28],[-8,-26]],[[3597,698],[0,-1],[-3,-20],[-2,-49]],[[3592,607],[4,-13],[6,-4]],[[3592,623],[3,55],[2,17],[0,3]],[[3597,698],[4,50]],[[3608,586],[-11,9]],[[3861,307],[-1,4]],[[3864,197]],[[3915,2852],[-1,1]],[[3874,288],[0,-1]],[[2783,2861],[190,64]],[[3023,2273],[1,4]],[[3245,1927],[-81,-12],[-75,45]],[[3270,1961],[-25,-34]],[[3245,1927],[55,-18]],[[3380,997],[31,-2]],[[3414,995],[46,-37]],[[3460,958],[1,-1]],[[3466,927],[-1,2],[-4,28]],[[3461,957],[-1,1]],[[3461,948],[5,-21]],[[3461,957],[0,-4]],[[3493,956],[25,-7],[9,-4],[23,-7],[29,-4],[-86,23],[-32,0]],[[3461,957]],[[3466,927],[32,-44]],[[3498,883],[95,-47],[8,3]],[[3623,838],[-125,45]],[[3611,845],[12,-7]],[[3651,171],[-28,-2]],[[3623,169],[31,2]],[[3628,837],[-5,1]],[[3723,60],[1,0]],[[3788,236],[6,1]],[[3794,237],[5,0],[6,1]],[[3794,237]],[[3794,237],[0,-1]],[[3794,236],[0,1]],[[3862,234],[-43,-7]],[[3820,223],[48,8]],[[3830,243],[15,2]],[[3847,60],[-10,-6]],[[3837,53],[5,3]],[[3897,324],[-38,-7]],[[3864,199],[0,-2]],[[3866,109],[1,0]],[[3867,109]],[[3868,47],[1,0]],[[3887,202],[-6,-8]],[[3902,236],[5,-5]],[[3909,188],[0,-2]],[[3916,327],[-5,-1]],[[3923,115],[-10,-3]],[[3914,112],[12,2]],[[3923,282],[3,-20]],[[3949,215],[-6,-7]],[[3943,207],[7,7]],[[3944,260],[6,-7]],[[3944,233],[9,8]],[[3952,250],[-6,-6]],[[3949,259],[-3,3]],[[3950,253],[1,-1]],[[3950,253],[3,-2]],[[3951,252],[1,-2]],[[3951,252],[2,-2]],[[3953,250],[-1,0]],[[3953,251],[0,-1]],[[3966,264],[-13,-13]],[[3954,126],[0,-2]],[[3954,124],[0,-8]],[[3954,116],[3,1]],[[3956,786],[14,-5]],[[3961,211],[0,3]],[[3961,211],[0,-4]],[[3962,208],[-1,3]],[[4014,862],[0,-2]],[[4014,860],[2,-11],[-46,-68]],[[3970,781],[1,0]],[[3971,781],[46,68],[-3,11]],[[4014,860],[-1,4]],[[3995,773],[0,-6]],[[3996,767],[0,6]],[[4050,767],[-1,0],[-12,0],[11,-1],[2,1]],[[4050,767],[34,0]],[[4096,767],[-12,0]],[[4084,767],[12,-1]],[[4096,931],[0,-1]],[[4096,900],[-5,6],[5,15]],[[3640,7],[-8,16]],[[3704,174],[-9,-1]],[[3698,173],[6,1]],[[3704,174],[6,0]],[[3710,174],[46,2]],[[3756,177],[-46,-3]],[[3912,72],[-1,0]],[[3720,244],[3,-43],[-22,-4],[6,-23]],[[3707,177],[16,23],[0,2],[-2,42]],[[3707,174],[0,2]],[[3714,31],[-1,-24],[2,-7]],[[3717,0],[-4,7],[1,24]],[[3695,173],[-44,-2]],[[3654,171],[44,2]],[[3901,60]],[[3907,231],[13,-13]],[[3920,218],[-6,-7]],[[3920,218],[9,-9]],[[3996,767],[6,0]],[[4002,767],[-3,0]],[[4002,767],[35,0]],[[3969,262],[-11,-12],[0,-1]],[[3958,249],[-1,0],[-14,-12],[-26,-24],[-4,-15],[0,-1]],[[3914,196],[6,18],[9,7],[28,27],[1,1]],[[3958,249],[11,13]],[[3881,192],[-3,10]],[[3918,233],[9,-9]],[[3886,113],[0,-3]],[[3830,557],[-43,-17],[14,-53],[97,-73],[65,-99],[-11,-25]],[[3967,90],[-27,25]],[[3610,169],[3,-1]],[[3613,169],[-2,0]],[[3969,262],[10,13]],[[3979,275],[48,56],[9,11],[60,23]],[[4096,370],[-49,-15],[-20,-23],[-48,-57]],[[3979,275],[-10,-13]],[[3880,192],[0,-4]],[[3707,176],[0,1]],[[3352,3497],[1,23],[31,4],[-86,178],[-12,104],[153,143],[0,66]],[[3406,3178],[9,51],[-61,67],[-14,90],[39,53],[-16,15]],[[3431,4037],[-20,59]],[[3866,2746],[117,-172],[40,-23]],[[3771,571],[34,-95],[92,-63],[64,-97],[-9,-26]],[[3860,307]],[[3706,510],[80,-62],[110,-37],[58,-124]],[[3995,767],[1,0]],[[3999,767],[-3,0]],[[2857,2631],[-18,-17],[18,16]],[[3775,196],[-3,-1]],[[3779,199],[-4,-2]],[[3912,69],[1,-3]],[[2699,2537],[-2,-1]],[[3940,0],[5,14]],[[3965,82],[0,-1]],[[3968,89],[0,1]],[[3968,117],[1,-15]],[[3970,102],[-1,16]],[[3976,225],[-8,-4]],[[3827,207],[-13,-3]],[[3813,201],[15,2]],[[3678,475],[2,-3]],[[3681,473],[-2,2]],[[3682,462],[4,-29],[7,-8],[4,-3],[-14,40]],[[3792,1946],[-39,-26],[57,-181],[-45,-64],[25,-67]],[[3790,1608],[-2,-4],[1,0],[1,4]],[[3784,101],[-2,-1]],[[3626,62],[22,-6]],[[3649,57],[-20,6]],[[3873,231],[0,1]],[[3904,192],[4,-4]],[[3909,188],[3,3]],[[3930,19],[2,-8]],[[3932,11],[1,-10]],[[3935,0],[-3,11]],[[3922,46],[0,-1]],[[3926,35],[0,-1]],[[3890,206],[-3,-4]],[[3961,268],[1,0]],[[3801,106],[-3,-1]],[[3904,63],[-3,-3]],[[3858,192],[2,1]],[[3864,198],[4,4]],[[3915,327],[39,-48]],[[3925,320],[-9,7]],[[3954,279],[-26,36]],[[3929,23],[1,-4]],[[3820,160],[10,3]],[[3718,322],[4,-5]],[[3863,49],[-7,-2]],[[3869,47],[7,2]],[[3940,115],[-14,-1]],[[3949,116],[-6,0]],[[3780,99],[-2,-1]],[[3780,99],[2,1]],[[3919,53],[3,-7]],[[3922,45],[4,-10]],[[3926,34],[3,-11]],[[3953,260],[3,3]],[[3023,2392],[0,-1]],[[3724,60],[5,5]],[[3850,48],[-9,-3]],[[3842,56],[4,2]],[[3846,46],[10,1]],[[3867,109],[-6,-30]],[[3862,80],[6,20],[-1,9]],[[3867,47],[1,0]],[[3899,58],[2,2]],[[3876,210]],[[3622,0],[-6,24],[-15,101],[-4,107],[27,20],[24,2],[34,14],[27,74],[39,-20],[130,21],[29,-2],[30,-26],[30,-46],[3,-46],[16,-19],[-4,-36],[11,-29],[14,-25],[23,-35],[35,-37],[-18,-42],[-425,0]],[[4096,698],[-12,-1],[-49,-10],[-77,15],[10,46],[-25,29],[-40,14],[-33,61],[-24,59],[46,-8],[47,-22],[8,53],[76,37],[27,27],[-30,59],[10,33],[59,-23],[7,-3],[0,-366]],[[4096,1521],[-154,92],[-41,-72],[-68,-39],[-44,4],[-25,-25],[-130,-16],[44,-32],[14,-104],[-34,-99],[-25,-68],[-9,-32],[-1,-22],[37,-17],[69,-27],[45,-28],[26,-47],[-17,-19],[-24,5],[-28,5],[-15,-25],[-53,-23],[-3,-42],[28,-37],[10,-25],[-33,-23],[-35,18],[-1,-21],[2,-37],[79,-33],[11,-17],[-5,-23],[41,-36],[32,-7],[30,-42],[-27,-32],[-19,-4],[-14,-5],[1,-32],[-30,17],[-11,27],[3,20],[-11,26],[-41,26],[-26,-1],[7,-34],[5,-25],[-13,-19],[29,-31],[33,-17],[-5,-24],[9,-35],[18,-44],[-21,-25],[-30,1],[-43,-18],[-26,15],[-32,-9],[-17,-21],[-28,43],[-29,24],[-46,51],[-29,28],[-42,19],[-38,46],[-57,16],[-71,79],[-79,28],[-40,-9],[-31,-18],[-11,-26],[-37,30],[-42,10],[-19,64],[-42,46],[-49,18],[-43,40],[-46,101],[-43,36],[-31,46],[-53,33],[-196,94],[-42,11],[-33,55],[1,34],[35,24],[-44,21],[-18,-23],[-20,-15],[4,-22],[0,-35],[13,-15],[19,-39],[-39,-5],[-41,-15],[-46,-40],[-14,-42],[11,-19],[25,-7],[27,-15],[-34,-7],[-30,7],[-38,6],[-59,-1],[-28,4],[17,22],[16,1],[74,178],[119,353],[-2,76],[-15,44],[-27,24],[0,59],[-26,35],[-27,45],[-30,35],[-9,49],[32,-19],[60,-74],[114,-158],[54,-85],[46,-80],[66,-76],[74,-68],[51,-73],[-19,88],[-53,55],[-110,163],[-138,226],[-24,14],[-20,-8],[-10,53],[-30,3],[-13,18],[1,51],[-17,57],[-37,42],[-44,64],[-79,66],[-50,-2],[-15,-26],[-4,-26],[-27,-8],[-40,98],[22,89],[-7,51],[-24,45],[-23,71],[-26,17],[-18,60],[-31,32],[-34,62],[-12,44],[-26,23],[-97,88],[-238,117],[-58,68],[-94,74],[-31,31],[-63,37],[-14,72],[-41,39],[-29,13],[-11,42],[-92,114],[-37,89],[-54,41],[-3,33],[-118,131],[-54,53],[-90,39],[-41,95],[-62,39],[-22,45],[-81,40],[-51,62],[1381,0],[2312,0],[0,-2575]],[[2101,1026],[74,126],[142,448],[-10,91],[-41,24],[1,69],[-80,136],[14,32],[193,-203],[111,-212],[150,-143],[-21,-8],[-14,21],[-56,63],[-40,-13],[51,-62],[53,-1],[-1,-29],[35,-14],[-43,-28],[0,-18],[7,-6],[26,19],[20,-22],[-30,-31],[14,-14],[32,36],[18,-15],[-19,-28],[24,-7],[5,35],[32,11],[35,-45],[42,-107],[191,-248],[15,-63],[-45,-17],[65,-38],[-24,-26],[20,-46],[-28,-33],[-51,15],[-31,82],[-133,85],[-50,117],[-91,88],[-125,73],[-230,16],[-64,-79],[56,-42],[-12,-24],[-187,35]],[[2661,1253],[8,-12],[14,10],[-12,-5],[-10,7]],[[3416,4086],[75,1],[-20,-55],[13,-33],[59,-12],[-12,-30],[-8,18],[-8,-4],[12,-19],[-96,68],[1,42],[30,-25],[7,15],[-53,34]],[[3434,4046],[21,-19],[4,0],[-4,9],[-21,10]],[[3296,1498],[29,94],[84,-15],[12,-83],[-23,22],[-50,-10],[-12,22],[-2,-23],[-38,-7]],[[1790,3310],[27,0],[-4,90],[56,4],[27,-73],[-47,2],[1,-54],[28,-13],[-73,17],[-15,27]],[[3160,727],[71,44],[66,-69],[29,20],[54,-15],[19,25],[45,-55],[-9,-16],[34,-3],[15,-61],[-69,-46],[-69,45],[-51,-7],[-45,48],[22,-13],[8,27],[-62,69],[-28,-13],[-30,20]],[[3346,664],[33,1],[67,-33],[-17,17],[-7,39],[-76,-24]],[[3438,643],[8,-6],[2,-12],[15,19],[-25,-1]],[[4096,3797],[-9,26],[1,-67],[8,0],[0,-109],[-21,0],[-46,107],[-27,0],[2,67],[19,-54],[41,0],[-14,149],[-27,0],[13,-26],[-53,13],[25,-39],[0,-28],[-23,0],[-52,81],[-37,-13],[-54,29],[0,27],[-40,-13],[-3,54],[-40,26],[-13,-40],[-39,29],[23,80],[366,0],[0,-299]],[[3453,1625],[62,2],[93,-116],[-26,22],[-17,-25],[-49,20],[-11,26],[65,2],[-88,14],[-29,55]],[[2921,1152],[76,67],[12,-31],[54,-19],[-53,-20],[40,-65],[-17,-32],[-91,47],[-21,53]],[[1788,2156],[226,-4],[3,-288],[-171,190],[-58,102]],[[3622,1152],[26,11],[14,58],[-17,2],[40,85],[-15,80],[22,67],[101,-22],[73,-121],[-21,-102],[-79,-133],[-1,89],[-112,-13],[-2,-47],[-21,-2],[-8,48]],[[4096,1835],[0,-214],[-2,-2],[0,-75],[-58,27],[14,40],[-22,2],[-7,83],[5,29],[31,3],[-3,113],[42,-6]],[[1401,2993],[10,8],[7,-19],[20,-4],[11,-8],[16,-3],[-27,12],[-19,4],[18,46],[91,25],[55,-73],[-80,-35],[113,-82],[-118,70],[-49,-6],[-48,65]],[[1961,3120],[51,37],[-43,22],[2,60],[72,2],[25,-52],[34,26],[102,-15],[-23,-133],[-23,0],[-14,53],[-99,10],[-2,-53],[-66,3],[-16,40]],[[2102,3207],[1,-37],[24,3],[-1,35],[-24,-1]],[[3203,3482],[27,103],[40,0],[0,-26],[67,-4],[-1,-52],[74,-25],[13,-55],[56,-59],[32,14],[1,-27],[-40,-27],[-100,137],[-68,-59],[-47,67],[-54,13]],[[3244,3519],[38,-1],[0,27],[-25,1],[-13,-27]],[[3199,2687],[38,51],[74,-47],[38,-83],[28,-1],[-6,9],[7,18],[34,-30],[11,-46],[-28,-48],[-123,76],[-63,3],[-10,98]],[[3431,2834],[18,40],[27,3],[0,-25],[55,-14],[8,-57],[42,8],[13,-27],[28,17],[14,-55],[55,15],[14,-39],[-41,-48],[-109,-14],[-13,53],[-31,0],[12,54],[39,0],[-18,-54],[36,1],[28,4],[0,53],[-38,-5],[-14,35],[-30,1],[-11,33],[-84,21]],[[3526,2712],[1,-8],[5,0],[-1,5],[-5,3]],[[1771,2229],[9,60],[203,-1],[-27,-44],[49,-88],[-217,0],[-17,73]],[[1806,2716],[5,-1],[10,-12],[27,-8],[41,-49],[20,61],[94,-35],[103,64],[-1,-101],[84,-15],[-2,-37],[-42,-1],[3,-40],[-63,13],[-21,19],[17,28],[-53,30],[-86,-36],[26,-70],[-59,0],[-2,-25],[-101,215]],[[1895,2570],[2,-5],[6,3],[-3,6],[-5,-4]],[[1832,2697],[2,-12],[8,-5],[7,12],[-17,5]],[[1821,2691],[2,-8],[6,-5],[1,7],[-9,6]],[[2069,2695],[1,-4],[5,1],[-5,10],[-1,-7]],[[1178,3252],[34,-27],[29,16],[66,-17],[54,-57],[-1,-50],[-78,0],[-10,8],[-38,-37],[-87,84],[37,62],[-83,63],[48,79],[44,-65],[-25,-47],[11,-14],[-1,2]],[[1223,3167],[-9,8],[0,1],[-1,-2],[10,-7]],[[3387,3004],[178,93],[43,-21],[12,-40],[-28,-14],[24,-8],[-96,-6],[0,19],[55,1],[-1,25],[-27,0],[-67,-11],[-27,-39],[-66,1]],[[3309,1837],[-98,-1],[-74,29],[-45,66],[-9,112],[163,-39],[53,-56],[10,-111]],[[4096,2332],[0,-189],[-63,68],[-12,80],[75,41]],[[3014,2439],[39,-19],[-3,36],[38,-25],[-37,-17],[-1,-206],[-129,41],[0,165],[-162,247],[25,204],[-57,44],[23,33],[203,8],[97,-123],[130,-42],[-16,-103],[-44,-67],[-134,-77],[-9,-51],[37,-48]],[[4096,1066],[0,-363],[-138,-1],[10,46],[-65,43],[-57,120],[93,-30],[8,53],[103,64],[-30,59],[10,33],[66,-24]],[[4047,0],[-418,0],[-32,232],[85,36],[27,74],[39,-20],[159,19],[60,-72],[26,-130],[72,-97],[-18,-42]],[[3628,833],[-60,-191],[-32,14],[-97,151],[-33,0],[0,123],[-65,41],[98,207],[-18,90],[-94,107],[-18,91],[97,-23],[59,-68],[22,-95],[-16,-102],[29,-36],[133,-47],[-5,-262]],[[3411,523],[61,23],[2,110],[18,6],[29,-23],[-30,-13],[12,-49],[39,5],[13,-24],[34,21],[79,-102],[39,-5],[13,-51],[-77,-45],[-70,19],[-18,-36],[-20,52],[-124,112]],[[2198,1932],[23,-5],[120,-134],[-11,-30],[58,-36],[-34,-17],[-36,42],[-17,-5],[46,-41],[-22,-8],[14,-82],[-17,-93],[26,-14],[-27,-27],[-15,8],[25,163],[-15,49],[-39,18],[3,69],[-82,143]],[[2445,1236],[37,39],[74,-53],[-48,-66],[-56,14],[-7,66]],[[2492,1175],[11,6],[-6,23],[-1,-20],[-4,-9]],[[2496,1208],[3,2],[6,12],[-5,-5],[-4,-9]],[[2790,933],[58,82],[-19,10],[-7,-44],[-37,19],[22,-25],[-19,-39],[-233,218],[18,45],[46,14],[-18,15],[29,39],[43,-75],[-6,44],[53,0],[28,-22],[22,-170],[45,-13],[27,41],[8,-55],[20,29],[143,-179],[2,-65],[-48,-17],[-38,67],[-36,-46],[-25,5],[-52,41],[-26,81]],[[2438,1364],[25,54],[45,-6],[5,-35],[45,-39],[49,-9],[15,-59],[-53,-52],[-78,54],[-16,65],[-37,27]],[[1853,388],[126,-35],[80,-70],[27,-61],[106,-28],[42,-40],[-381,0],[0,234]],[[1707,3978],[34,7],[0,-20],[48,-17],[107,19],[40,56],[16,-46],[23,0],[-9,-27],[55,-13],[-21,-87],[-39,1],[13,-21],[76,-6],[-1,-27],[155,6],[14,-52],[-41,-3],[28,-65],[-60,-25],[17,-69],[-60,-26],[0,39],[-52,-13],[-54,69],[-84,-18],[25,45],[-58,21],[78,12],[-7,-40],[33,6],[53,67],[-118,34],[-47,46],[24,26],[-66,26],[13,27],[-27,8],[-13,-33],[-95,93]],[[2986,1045],[59,24],[97,-36],[52,7],[20,-61],[51,50],[13,-92],[32,-24],[84,44],[68,-155],[-3,-60],[-21,10],[7,-20],[-28,-20],[-18,20],[-19,-25],[-54,15],[-29,-20],[-174,168],[-137,175]],[[3452,1626],[58,5],[82,-82],[-134,0],[-6,77]],[[4096,1554],[0,-123],[-303,2],[-137,29],[165,54],[-16,42],[26,19],[-29,33],[25,3],[18,-37],[-31,-21],[21,-60],[66,56],[20,70],[173,-78],[2,11]],[[3871,1737],[100,27],[36,-16],[-16,-31],[30,2],[3,-80],[-151,5],[17,37],[-19,56]]]}