{"objects":{"water":{"type":"GeometryCollection","geometries":[{"type":"Polygon","properties":{"source":"naturalearthdata.com","kind":"lake","name":"Lake Havasu","area":114160584,"sort_rank":200,"min_zoom":0.0,"id":115},"arcs":[[14]]},{"type":"Polygon","properties":{"kind":"lake","name":"Lake Mohave","reservoir":true,"area":122344824,"sort_rank":200,"source":"naturalearthdata.com","min_zoom":0.0,"id":1085},"arcs":[[15]]},{"type":"Point","properties":{"label_placement":true,"kind":"lake","name":"Lake Havasu","area":114160584,"sort_rank":200,"source":"naturalearthdata.com","min_zoom":0.0,"id":115},"coordinates":[3014,411]},{"type":"LineString","properties":{"source":"naturalearthdata.com","kind":"lake","sort_rank":367,"boundary":true,"min_zoom":0.0,"id":115},"arcs":[16]},{"type":"MultiLineString","properties":{"source":"naturalearthdata.com","kind":"lake","reservoir":true,"sort_rank":367,"boundary":true,"min_zoom":0.0,"id":1085},"arcs":[[17],[18]]}]},"buildings":{"type":"GeometryCollection","geometries":[]},"places":{"type":"GeometryCollection","geometries":[{"type":"Point","properties":{"source":"naturalearthdata.com","kind":"locality","name":"Kingman","population":42182,"min_zoom":7.0,"id":1837},"coordinates":[3671,3134]},{"type":"Point","properties":{"source":"naturalearthdata.com","kind":"locality","name":"Bullhead City","population":37989,"min_zoom":7.0,"id":1831},"coordinates":[2170,2986]},{"type":"Point","properties":{"source":"naturalearthdata.com","kind":"locality","name":"Needles","population":6974,"min_zoom":7.0,"id":1855},"coordinates":[2036,1922]},{"type":"Point","properties":{"source":"openstreetmap.org","kind":"locality","name":"Lake Havasu City","kind_detail":"city","population":56355,"min_zoom":8.0,"id":150938231},"coordinates":[2821,593]},{"type":"Point","properties":{"kind":"locality","name":"Bullhead City","kind_detail":"town","source":"openstreetmap.org","min_zoom":8.0,"name:ru":"\u0411\u0443\u043b\u0445\u0435\u0434-\u0421\u0438\u0442\u0438","id":150952018,"population":40225},"coordinates":[2168,2985]},{"type":"Point","properties":{"source":"openstreetmap.org","kind":"locality","name":"Kingman","kind_detail":"town","population":27271,"min_zoom":8.0,"id":150932374},"coordinates":[3669,3133]},{"type":"Point","properties":{"source":"openstreetmap.org","kind":"locality","name":"Needles","kind_detail":"town","population":5330,"min_zoom":8.0,"id":150941687},"coordinates":[2034,1921]},{"type":"Point","properties":{"source":"openstreetmap.org","kind":"locality","name":"Mohave Valley","kind_detail":"town","population":2616,"min_zoom":8.0,"id":150940167},"coordinates":[2108,2223]},{"type":"Point","properties":{"source":"openstreetmap.org","kind":"locality","name":"Laughlin","kind_detail":"town","population":1569,"min_zoom":8.0,"id":150932318},"coordinates":[2154,3056]}]},"transit":{"type":"GeometryCollection","geometries":[{"type":"MultiLineString","properties":{"kind":"train","network":"Amtrak","service":"long_distance","sort_rank":275,"colour":"#005480","name":"Southwest Chief (eastbound)","source":"openstreetmap.org","min_zoom":5.0,"operator":"Amtrak","ref":"4","osm_relation":true,"colour_name":"teal"},"arcs":[[2],[3],[4],[5],[6],[7]]},{"type":"MultiLineString","properties":{"kind":"train","network":"Amtrak","service":"long_distance","sort_rank":275,"colour":"#005480","name":"Southwest Chief (westbound)","source":"openstreetmap.org","min_zoom":5.0,"operator":"Amtrak","ref":"3","osm_relation":true,"colour_name":"teal"},"arcs":[[8],[9],[10],[11],[12],[13]]}]},"pois":{"type":"GeometryCollection","geometries":[{"type":"Point","properties":{"kind":"national_park","tier":1,"protect_class":"3","area":118789000,"source":"openstreetmap.org","min_zoom":7.34,"operator":"United States National Park Service","id":-6150371,"osm_relation":true,"name":"Castle Mountains National Monument"},"coordinates":[715,3499]},{"type":"Point","properties":{"kind":"nature_reserve","tier":2,"protect_class":"1b","area":328808000,"source":"openstreetmap.org","min_zoom":8.11,"operator":"BLM","id":-6148955,"osm_relation":true,"name":"Dead Mountains Wilderness Area"},"coordinates":[1678,2439]},{"type":"Point","properties":{"kind":"nature_reserve","tier":2,"protect_class":"1b","area":513512000,"source":"openstreetmap.org","min_zoom":7.79,"operator":"BLM","id":-6148915,"osm_relation":true,"name":"Chemehuevi Mountains Wilderness Area"},"coordinates":[2249,1009]},{"type":"Point","properties":{"kind":"nature_reserve","tier":2,"protect_class":"1b","area":500219000,"source":"openstreetmap.org","min_zoom":7.81,"operator":"BLM","id":-6148899,"osm_relation":true,"name":"Stepladder Mountains Wilderness Area"},"coordinates":[1382,957]},{"type":"Point","properties":{"kind":"nature_reserve","tier":2,"protect_class":"1b","area":1096250000,"source":"openstreetmap.org","min_zoom":7.24,"operator":"BLM","id":-6148800,"osm_relation":true,"name":"Old Woman Mountains Wilderness Area"},"coordinates":[365,554]},{"type":"Point","properties":{"kind":"nature_reserve","tier":2,"protect_class":"1b","area":186776000,"source":"openstreetmap.org","min_zoom":8.52,"operator":"BLM","id":-6148737,"osm_relation":true,"name":"Piute Mountains Wilderness Area"},"coordinates":[716,1655]},{"type":"Point","properties":{"kind":"nature_reserve","tier":2,"protect_class":"1b","area":101698000,"source":"openstreetmap.org","min_zoom":8.96,"operator":"United States National Park Service","id":-5978473,"osm_relation":true,"name":"Nellis Wash Wilderness Area"},"coordinates":[1667,3843]},{"type":"Point","properties":{"kind":"nature_reserve","tier":2,"protect_class":"1b","area":203821000,"source":"openstreetmap.org","min_zoom":8.45,"operator":"BLM;National Park Service","id":-5978422,"osm_relation":true,"name":"Spirit Mountain Wilderness Area"},"coordinates":[1958,3412]},{"type":"Point","properties":{"kind":"nature_reserve","tier":2,"protect_class":"4","area":152927000,"source":"openstreetmap.org","min_zoom":8.66,"operator":"US Fish and Wildlife Service","id":-5844208,"osm_relation":true,"name":"Havasu National Wildlife Refuge"},"coordinates":[2594,1111]},{"type":"Point","properties":{"kind":"nature_reserve","tier":2,"protect_class":"1b","area":681321000,"source":"openstreetmap.org","min_zoom":7.58,"operator":"BLM","id":-5830663,"osm_relation":true,"name":"Warm Springs Wilderness Area"},"coordinates":[2928,2085]},{"type":"Point","properties":{"kind":"nature_reserve","tier":2,"protect_class":"1b","area":243737000,"source":"openstreetmap.org","min_zoom":8.33,"operator":"BLM","id":-5830608,"osm_relation":true,"name":"Wabayuma Peak Wilderness Area"},"coordinates":[3890,2318]},{"type":"Point","properties":{"kind":"nature_reserve","tier":2,"protect_class":"1b","area":169737000,"source":"openstreetmap.org","min_zoom":8.59,"operator":"BLM","ref":"AZA25494","id":-4258360,"osm_relation":true,"name":"Mount Nutt Wilderness Area"},"coordinates":[2779,2826]},{"type":"Point","properties":{"kind":"nature_reserve","tier":2,"protect_class":"1b","area":433112000,"source":"openstreetmap.org","min_zoom":7.91,"operator":"United States National Park Service","id":-1115803,"osm_relation":true,"name":"Mojave Wilderness"},"coordinates":[159,2529]}]},"boundaries":{"type":"GeometryCollection","geometries":[{"type":"LineString","properties":{"name:pt":"Calif\u00f3rnia","name:cy":"Califfornia","name:ko":"\uce98\ub9ac\ud3ec\ub2c8\uc544","name:cv":"\u041a\u0430\u043b\u0438\u0444\u043e\u0440\u043d\u0438","name:cs":"Kalifornie","name:kw":"Kaliforni","min_zoom":8.0,"name:tl":"Kaliporniya","name:be":"\u041a\u0430\u043b\u0456\u0444\u043e\u0440\u043d\u0456\u044f","name:os":"\u041a\u0430\u043b\u0438\u0444\u043e\u0440\u043d\u0438","name:pl":"Kalifornia","name:ta":"\u0b95\u0bb2\u0bbf\u0baa\u0bcb\u0bb0\u0bcd\u0ba9\u0bbf\u0baf\u0bbe","name:ca":"Calif\u00f2rnia","name:ka":"\u10d9\u10d0\u10da\u10d8\u10e4\u10dd\u10e0\u10dc\u10d8\u10d0","sort_rank":256,"name:da":"Californien","name:de":"Kalifornien","source":"openstreetmap.org","name:nv":"Ak\u00e9\u00e9h\u00e1sh\u012f\u0301\u012f\u0301 Hahoodzo","name:kn":"\u0c95\u0ccd\u0caf\u0cbe\u0cb2\u0cbf\u0cab\u0cca\u0cb0\u0ccd\u0ca8\u0cbf\u0caf","name:tr":"Kaliforniya","name:uz":"Kaliforniya","name:he":"\u05e7\u05dc\u05d9\u05e4\u05d5\u05e8\u05e0\u05d9\u05d4","kind":"region","name:uk":"\u041a\u0430\u043b\u0456\u0444\u043e\u0440\u043d\u0456\u044f","name:hy":"\u053f\u0561\u056c\u056b\u0586\u0578\u0580\u0576\u056b\u0561","name:ht":"Kalif\u00f2ni","name:hu":"Kalifornia","name:hr":"Kalifornija","name:oc":"Calif\u00f2rnia","name:el":"\u039a\u03b1\u03bb\u03b9\u03c6\u03cc\u03c1\u03bd\u03b9\u03b1","name:eo":"Kalifornio","name":"California","name:th":"\u0e23\u0e31\u0e10\u0e41\u0e04\u0e25\u0e34\u0e1f\u0e2d\u0e23\u0e4c\u0e40\u0e19\u0e35\u0e22","name:yi":"\u05e7\u05d0\u05dc\u05d9\u05e4\u05d0\u05e8\u05e0\u05d9\u05e2","name:az":"Kaliforniya","name:mr":"\u0915\u0945\u0932\u093f\u092b\u094b\u0930\u094d\u0928\u093f\u092f\u093e","name:ar":"\u0643\u0627\u0644\u064a\u0641\u0648\u0631\u0646\u064a\u0627","name:is":"Kaliforn\u00eda","name:iu":"\u1473\u14d6\u1434\u1550\u14c3\u140a","name:vi":"Ca Li","name:ml":"\u0d15\u0d3e\u0d32\u0d3f\u0d2b\u0d4b\u0d30\u0d4d\u200d\u0d23\u0d3f\u0d2f","name:mn":"\u041a\u0430\u043b\u0438\u0444\u043e\u0440\u043d\u0438","name:mi":"Karap\u014dnia","id":-165475,"name:af":"Kaliforni\u00eb","name:fa":"\u06a9\u0627\u0644\u06cc\u0641\u0631\u0646\u06cc\u0627","name:lt":"Kalifornija","kind_detail":"4","name:hi":"\u0915\u0948\u0932\u093f\u092b\u093c\u094b\u0930\u094d\u0928\u093f\u092f\u093e","name:mg":"Kalifornia","name:fo":"Kalifornia","name:fr":"Californie","name:fy":"Kalifornje","name:zh":"\u52a0\u5229\u798f\u5c3c\u4e9a\u5dde","name:sl":"Kalifornija","name:nl":"Californi\u00eb","name:ja":"\u30ab\u30ea\u30d5\u30a9\u30eb\u30cb\u30a2\u5dde","name:sh":"Kalifornija","name:br":"Kalifornia","name:eu":"Kalifornia","name:bn":"\u0995\u09cd\u09af\u09be\u09b2\u09bf\u09ab\u09cb\u09b0\u09cd\u09a8\u09bf\u09af\u09bc\u09be","name:sk":"Kalifornia","name:ru":"\u041a\u0430\u043b\u0438\u0444\u043e\u0440\u043d\u0438\u044f","name:sv":"Kalifornien","name:bg":"\u041a\u0430\u043b\u0438\u0444\u043e\u0440\u043d\u0438\u044f","name:sr":"\u041a\u0430\u043b\u0438\u0444\u043e\u0440\u043d\u0438\u0458\u0430","osm_relation":true,"name:gd":"Calaf\u00f2rnia","name:fi":"Kalifornia"},"arcs":[0]},{"type":"LineString","properties":{"name:pt":"Calif\u00f3rnia","name:cy":"Califfornia","name:ko":"\uce98\ub9ac\ud3ec\ub2c8\uc544","name:cv":"\u041a\u0430\u043b\u0438\u0444\u043e\u0440\u043d\u0438","name:cs":"Kalifornie","name:kw":"Kaliforni","min_zoom":8.0,"name:tl":"Kaliporniya","name:be":"\u041a\u0430\u043b\u0456\u0444\u043e\u0440\u043d\u0456\u044f","name:os":"\u041a\u0430\u043b\u0438\u0444\u043e\u0440\u043d\u0438","name:pl":"Kalifornia","name:ta":"\u0b95\u0bb2\u0bbf\u0baa\u0bcb\u0bb0\u0bcd\u0ba9\u0bbf\u0baf\u0bbe","name:ca":"Calif\u00f2rnia","name:ka":"\u10d9\u10d0\u10da\u10d8\u10e4\u10dd\u10e0\u10dc\u10d8\u10d0","sort_rank":256,"name:da":"Californien","name:de":"Kalifornien","source":"openstreetmap.org","name:nv":"Ak\u00e9\u00e9h\u00e1sh\u012f\u0301\u012f\u0301 Hahoodzo","name:kn":"\u0c95\u0ccd\u0caf\u0cbe\u0cb2\u0cbf\u0cab\u0cca\u0cb0\u0ccd\u0ca8\u0cbf\u0caf","name:tr":"Kaliforniya","name:uz":"Kaliforniya","name:he":"\u05e7\u05dc\u05d9\u05e4\u05d5\u05e8\u05e0\u05d9\u05d4","kind":"region","name:uk":"\u041a\u0430\u043b\u0456\u0444\u043e\u0440\u043d\u0456\u044f","name:hy":"\u053f\u0561\u056c\u056b\u0586\u0578\u0580\u0576\u056b\u0561","name:ht":"Kalif\u00f2ni","name:hu":"Kalifornia","name:hr":"Kalifornija","name:oc":"Calif\u00f2rnia","name:el":"\u039a\u03b1\u03bb\u03b9\u03c6\u03cc\u03c1\u03bd\u03b9\u03b1","name:eo":"Kalifornio","name":"California","name:th":"\u0e23\u0e31\u0e10\u0e41\u0e04\u0e25\u0e34\u0e1f\u0e2d\u0e23\u0e4c\u0e40\u0e19\u0e35\u0e22","name:yi":"\u05e7\u05d0\u05dc\u05d9\u05e4\u05d0\u05e8\u05e0\u05d9\u05e2","name:az":"Kaliforniya","name:mr":"\u0915\u0945\u0932\u093f\u092b\u094b\u0930\u094d\u0928\u093f\u092f\u093e","name:ar":"\u0643\u0627\u0644\u064a\u0641\u0648\u0631\u0646\u064a\u0627","name:is":"Kaliforn\u00eda","name:iu":"\u1473\u14d6\u1434\u1550\u14c3\u140a","name:vi":"Ca Li","name:ml":"\u0d15\u0d3e\u0d32\u0d3f\u0d2b\u0d4b\u0d30\u0d4d\u200d\u0d23\u0d3f\u0d2f","name:mn":"\u041a\u0430\u043b\u0438\u0444\u043e\u0440\u043d\u0438","name:mi":"Karap\u014dnia","id":-165475,"name:af":"Kaliforni\u00eb","name:fa":"\u06a9\u0627\u0644\u06cc\u0641\u0631\u0646\u06cc\u0627","name:lt":"Kalifornija","kind_detail":"4","name:hi":"\u0915\u0948\u0932\u093f\u092b\u093c\u094b\u0930\u094d\u0928\u093f\u092f\u093e","name:mg":"Kalifornia","name:fo":"Kalifornia","name:fr":"Californie","name:fy":"Kalifornje","name:zh":"\u52a0\u5229\u798f\u5c3c\u4e9a\u5dde","name:sl":"Kalifornija","name:nl":"Californi\u00eb","name:ja":"\u30ab\u30ea\u30d5\u30a9\u30eb\u30cb\u30a2\u5dde","name:sh":"Kalifornija","name:br":"Kalifornia","name:eu":"Kalifornia","name:bn":"\u0995\u09cd\u09af\u09be\u09b2\u09bf\u09ab\u09cb\u09b0\u09cd\u09a8\u09bf\u09af\u09bc\u09be","name:sk":"Kalifornia","name:ru":"\u041a\u0430\u043b\u0438\u0444\u043e\u0440\u043d\u0438\u044f","name:sv":"Kalifornien","name:bg":"\u041a\u0430\u043b\u0438\u0444\u043e\u0440\u043d\u0438\u044f","name:sr":"\u041a\u0430\u043b\u0438\u0444\u043e\u0440\u043d\u0438\u0458\u0430","osm_relation":true,"name:gd":"Calaf\u00f2rnia","name:fi":"Kalifornia"},"arcs":[1]}]},"roads":{"type":"GeometryCollection","geometries":[{"type":"LineString","properties":{"kind":"major_road","sort_rank":380,"kind_detail":"primary","is_bicycle_related":true,"bicycle_shield_text":"66","bicycle_network":"ncn","source":"openstreetmap.org","min_zoom":8.0},"arcs":[19]},{"type":"LineString","properties":{"kind":"major_road","sort_rank":381,"landuse_kind":"urban_area","source":"openstreetmap.org","min_zoom":8.0,"kind_detail":"trunk","ref":"AZ 68","id":27459862},"arcs":[20]},{"type":"MultiLineString","properties":{"kind":"major_road","network":"US:US","sort_rank":381,"kind_detail":"trunk","is_bicycle_related":true,"source":"openstreetmap.org","min_zoom":8.0,"shield_text":"93","ref":"US 93"},"arcs":[[21],[22]]},{"type":"MultiLineString","properties":{"kind":"major_road","network":"US:US","sort_rank":380,"kind_detail":"primary","source":"openstreetmap.org","min_zoom":8.0,"shield_text":"66","ref":"US 66 Historic"},"arcs":[[23],[24]]},{"type":"LineString","properties":{"kind":"major_road","sort_rank":379,"kind_detail":"secondary","is_bicycle_related":true,"bicycle_shield_text":"66","bicycle_network":"ncn","source":"openstreetmap.org","min_zoom":8.0,"ref":"I 40 Business"},"arcs":[25]},{"type":"LineString","properties":{"kind":"major_road","sort_rank":377,"kind_detail":"tertiary","is_bicycle_related":true,"bicycle_shield_text":"66","bicycle_network":"ncn","source":"openstreetmap.org","min_zoom":8.0,"ref":"US 66 Historic","id":104349114},"arcs":[26]},{"type":"MultiLineString","properties":{"kind":"major_road","network":"US:NV","sort_rank":381,"kind_detail":"trunk","source":"openstreetmap.org","min_zoom":8.0,"landuse_kind":"nature_reserve","shield_text":"163","ref":"NV 163"},"arcs":[[27],[28]]},{"type":"LineString","properties":{"kind":"major_road","network":"US:US","sort_rank":380,"kind_detail":"primary","source":"openstreetmap.org","min_zoom":8.0,"shield_text":"93","ref":"US 93"},"arcs":[29]},{"type":"LineString","properties":{"kind":"major_road","network":"US:US","sort_rank":381,"kind_detail":"trunk","source":"openstreetmap.org","min_zoom":8.0,"landuse_kind":"national_park","shield_text":"95","ref":"US 95","id":101607481},"arcs":[30]},{"type":"LineString","properties":{"kind":"highway","network":"US:US","sort_rank":383,"kind_detail":"motorway","is_bicycle_related":true,"source":"openstreetmap.org","min_zoom":8.0,"all_networks":["US:US"],"shield_text":"93","ref":"US 93","all_shield_texts":["93"]},"arcs":[31]},{"type":"MultiLineString","properties":{"kind":"major_road","network":"US:US","sort_rank":381,"kind_detail":"trunk","source":"openstreetmap.org","min_zoom":8.0,"shield_text":"93","ref":"US 93"},"arcs":[[32],[33],[34]]},{"type":"MultiLineString","properties":{"kind":"major_road","sort_rank":379,"kind_detail":"secondary","is_bicycle_related":true,"bicycle_shield_text":"66","bicycle_network":"ncn","source":"openstreetmap.org","min_zoom":8.0},"arcs":[[35],[36]]},{"type":"MultiLineString","properties":{"kind":"major_road","network":"US:US","sort_rank":380,"kind_detail":"primary","source":"openstreetmap.org","min_zoom":8.0,"shield_text":"95","ref":"US 95"},"arcs":[[37],[38]]},{"type":"MultiLineString","properties":{"kind":"highway","network":"US:I","sort_rank":383,"kind_detail":"motorway","is_bicycle_related":true,"bicycle_shield_text":"66","bicycle_network":"ncn","source":"openstreetmap.org","min_zoom":8.0,"all_networks":["US:I","US:US"],"shield_text":"40","ref":"I 40;US 95","all_shield_texts":["40","95"]},"arcs":[[39],[40],[41],[42],[43],[44]]},{"type":"LineString","properties":{"kind":"major_road","network":"US:AZ","sort_rank":380,"kind_detail":"primary","source":"openstreetmap.org","min_zoom":8.0,"landuse_kind":"urban_area","shield_text":"68","ref":"AZ 68","id":75355466},"arcs":[45]},{"type":"LineString","properties":{"kind":"major_road","sort_rank":380,"kind_detail":"primary","is_bicycle_related":true,"bicycle_shield_text":"66","bicycle_network":"ncn","source":"openstreetmap.org","min_zoom":8.0,"ref":"I 40 Business"},"arcs":[46]},{"type":"LineString","properties":{"kind":"major_road","sort_rank":377,"kind_detail":"tertiary","is_bicycle_related":true,"bicycle_shield_text":"66","bicycle_network":"ncn","source":"openstreetmap.org","min_zoom":8.0,"id":180349318},"arcs":[47]},{"type":"MultiLineString","properties":{"kind":"highway","sort_rank":374,"kind_detail":"motorway_link","is_bicycle_related":true,"bicycle_shield_text":"66","bicycle_network":"ncn","source":"openstreetmap.org","min_zoom":8.0,"is_link":true},"arcs":[[48],[49],[50],[51]]},{"type":"LineString","properties":{"source":"openstreetmap.org","kind":"ferry","sort_rank":355,"landuse_kind":"urban_area","min_zoom":8.0,"id":133084868},"arcs":[52]},{"type":"MultiLineString","properties":{"kind":"highway","sort_rank":374,"kind_detail":"motorway_link","is_bicycle_related":true,"bicycle_shield_text":"66","bicycle_network":"ncn","source":"openstreetmap.org","min_zoom":8.0,"is_link":true,"landuse_kind":"national_park"},"arcs":[[53],[54]]},{"type":"MultiLineString","properties":{"kind":"major_road","network":"US:AZ","sort_rank":381,"landuse_kind":"urban_area","source":"openstreetmap.org","min_zoom":8.0,"kind_detail":"trunk","shield_text":"95","ref":"AZ 95"},"arcs":[[55],[56],[57],[58]]},{"type":"MultiLineString","properties":{"kind":"highway","network":"US:I","sort_rank":383,"kind_detail":"motorway","source":"openstreetmap.org","min_zoom":8.0,"all_networks":["US:I","US:US"],"shield_text":"40","ref":"I 40;US 95","all_shield_texts":["40","95"]},"arcs":[[59],[60]]},{"type":"MultiLineString","properties":{"kind":"highway","network":"US:I","sort_rank":383,"landuse_kind":"urban_area","is_bicycle_related":true,"source":"openstreetmap.org","min_zoom":8.0,"all_networks":["US:I","US:US"],"kind_detail":"motorway","shield_text":"40","ref":"I 40;US 93","all_shield_texts":["40","93"]},"arcs":[[61],[62]]},{"type":"MultiLineString","properties":{"source":"openstreetmap.org","kind":"major_road","kind_detail":"trunk","sort_rank":381,"landuse_kind":"national_park","ref":"AZ 68","min_zoom":8.0},"arcs":[[63],[64]]},{"type":"MultiLineString","properties":{"kind":"major_road","network":"US:AZ","sort_rank":380,"kind_detail":"primary","source":"openstreetmap.org","min_zoom":8.0,"shield_text":"95","ref":"AZ 95"},"arcs":[[65],[66],[67],[68]]},{"type":"MultiLineString","properties":{"sort_rank":380,"kind_detail":"primary","min_zoom":8.0,"kind":"major_road","source":"openstreetmap.org"},"arcs":[[69],[70],[71],[72]]},{"type":"MultiLineString","properties":{"kind":"major_road","network":"US:NV","sort_rank":381,"landuse_kind":"urban_area","source":"openstreetmap.org","min_zoom":8.0,"kind_detail":"trunk","shield_text":"163","ref":"NV 163"},"arcs":[[73],[74],[75],[76],[77]]},{"type":"MultiLineString","properties":{"kind":"major_road","network":"US:NV","sort_rank":381,"landuse_kind":"national_park","source":"openstreetmap.org","min_zoom":8.0,"kind_detail":"trunk","shield_text":"163","ref":"NV 163"},"arcs":[[78],[79],[80],[81],[82],[83]]},{"type":"LineString","properties":{"kind":"major_road","network":"US:US","sort_rank":380,"kind_detail":"primary","source":"openstreetmap.org","min_zoom":8.0,"landuse_kind":"urban_area","shield_text":"66","ref":"US 66 Historic","id":105278203},"arcs":[84]},{"type":"MultiLineString","properties":{"kind":"major_road","sort_rank":379,"landuse_kind":"national_park","is_bicycle_related":true,"bicycle_shield_text":"66","bicycle_network":"ncn","source":"openstreetmap.org","min_zoom":8.0,"kind_detail":"secondary"},"arcs":[[85],[86],[87]]},{"type":"LineString","properties":{"kind":"major_road","sort_rank":379,"kind_detail":"secondary","is_bicycle_related":true,"bicycle_shield_text":"66","bicycle_network":"ncn","source":"openstreetmap.org","min_zoom":8.0,"ref":"US 66 Historic","id":7475217},"arcs":[88]},{"type":"LineString","properties":{"kind":"major_road","network":"US:AZ","sort_rank":381,"landuse_kind":"national_park","source":"openstreetmap.org","min_zoom":8.0,"kind_detail":"trunk","shield_text":"68","ref":"AZ 68"},"arcs":[89]},{"type":"MultiLineString","properties":{"kind":"major_road","sort_rank":379,"landuse_kind":"nature_reserve","is_bicycle_related":true,"bicycle_shield_text":"66","bicycle_network":"ncn","source":"openstreetmap.org","min_zoom":8.0,"kind_detail":"secondary"},"arcs":[[90],[91]]},{"type":"MultiLineString","properties":{"kind":"major_road","network":"US:US","sort_rank":380,"kind_detail":"primary","source":"openstreetmap.org","min_zoom":8.0,"shield_text":"66","ref":"SR 66"},"arcs":[[92],[93],[94]]},{"type":"MultiLineString","properties":{"source":"openstreetmap.org","kind":"major_road","landuse_kind":"urban_area","sort_rank":380,"kind_detail":"primary","ref":"AZ 95","min_zoom":8.0},"arcs":[[95],[96],[97]]},{"type":"MultiLineString","properties":{"kind":"highway","network":"US:I","sort_rank":383,"kind_detail":"motorway","source":"openstreetmap.org","min_zoom":8.0,"all_networks":["US:I"],"shield_text":"40","ref":"I 40","all_shield_texts":["40"]},"arcs":[[98],[99],[100],[101],[102]]},{"type":"MultiLineString","properties":{"kind":"highway","network":"US:I","sort_rank":383,"kind_detail":"motorway","is_bicycle_related":true,"source":"openstreetmap.org","min_zoom":8.0,"all_networks":["US:I"],"shield_text":"40","ref":"I 40","all_shield_texts":["40"]},"arcs":[[103],[104],[105],[106],[107],[108],[109]]},{"type":"LineString","properties":{"source":"openstreetmap.org","kind":"ferry","name":"Havasu Landing Ferry","sort_rank":355,"is_bicycle_related":true,"min_zoom":8.0,"id":168357577},"arcs":[110]},{"type":"MultiLineString","properties":{"kind":"major_road","network":"US:US","sort_rank":381,"kind_detail":"trunk","source":"openstreetmap.org","min_zoom":8.0,"shield_text":"95","ref":"US 95"},"arcs":[[111],[112],[113],[114],[115]]},{"type":"LineString","properties":{"kind":"major_road","network":"US:CA:CR","sort_rank":379,"landuse_kind":"national_park","is_bicycle_related":true,"bicycle_shield_text":"66","bicycle_network":"ncn","source":"openstreetmap.org","min_zoom":8.0,"kind_detail":"secondary","shield_text":"66","ref":"CR 66"},"arcs":[116]},{"type":"MultiLineString","properties":{"kind":"highway","network":"US:I","sort_rank":383,"kind_detail":"motorway","is_bicycle_related":true,"bicycle_shield_text":"66","bicycle_network":"ncn","source":"openstreetmap.org","min_zoom":8.0,"all_networks":["US:I"],"shield_text":"40","ref":"I 40","all_shield_texts":["40"]},"arcs":[[117],[118],[119],[120],[121],[122],[123]]},{"type":"MultiLineString","properties":{"kind":"highway","network":"US:I","sort_rank":383,"landuse_kind":"national_park","source":"openstreetmap.org","min_zoom":8.0,"all_networks":["US:I"],"kind_detail":"motorway","shield_text":"40","ref":"I 40","all_shield_texts":["40"]},"arcs":[[124],[125],[126]]},{"type":"MultiLineString","properties":{"kind":"major_road","network":"US:US","sort_rank":380,"kind_detail":"primary","source":"openstreetmap.org","min_zoom":8.0,"landuse_kind":"national_park","shield_text":"95","ref":"US 95"},"arcs":[[127],[128]]},{"type":"MultiLineString","properties":{"kind":"highway","network":"US:I","sort_rank":383,"landuse_kind":"nature_reserve","is_bicycle_related":true,"source":"openstreetmap.org","min_zoom":8.0,"all_networks":["US:I"],"kind_detail":"motorway","shield_text":"40","ref":"I 40;AZ 95","all_shield_texts":["40"]},"arcs":[[129],[130]]},{"type":"MultiLineString","properties":{"kind":"major_road","network":"US:AZ","sort_rank":380,"kind_detail":"primary","source":"openstreetmap.org","min_zoom":8.0,"landuse_kind":"urban_area","shield_text":"95","ref":"AZ 95"},"arcs":[[131],[132],[133],[134],[135],[136],[137]]},{"type":"MultiLineString","properties":{"kind":"highway","network":"US:I","sort_rank":383,"kind_detail":"motorway","is_bicycle_related":true,"source":"openstreetmap.org","min_zoom":8.0,"all_networks":["US:I","US:US"],"shield_text":"40","ref":"I 40;US 93","all_shield_texts":["40","93"]},"arcs":[[138],[139],[140],[141]]},{"type":"MultiLineString","properties":{"kind":"highway","network":"US:I","sort_rank":383,"kind_detail":"motorway","is_bicycle_related":true,"source":"openstreetmap.org","min_zoom":8.0,"all_networks":["US:I"],"shield_text":"40","ref":"I 40;AZ 95","all_shield_texts":["40"]},"arcs":[[142],[143],[144],[145]]},{"type":"MultiLineString","properties":{"kind":"highway","network":"US:I","sort_rank":383,"landuse_kind":"nature_reserve","is_bicycle_related":true,"bicycle_shield_text":"66","bicycle_network":"ncn","source":"openstreetmap.org","min_zoom":8.0,"all_networks":["US:I"],"kind_detail":"motorway","shield_text":"40","ref":"I 40","all_shield_texts":["40"]},"arcs":[[146],[147],[148]]},{"type":"MultiLineString","properties":{"kind":"major_road","network":"US:AZ","sort_rank":381,"kind_detail":"trunk","source":"openstreetmap.org","min_zoom":8.0,"shield_text":"68","ref":"AZ 68"},"arcs":[[149],[150],[151],[152],[153],[154],[155],[156],[157],[158],[159],[160],[161],[162],[163],[164],[165]]},{"type":"LineString","properties":{"source":"openstreetmap.org","kind":"major_road","sort_rank":380,"kind_detail":"primary","ref":"AZ 95","min_zoom":8.0,"id":195857809},"arcs":[166]},{"type":"LineString","properties":{"kind":"minor_road","sort_rank":360,"kind_detail":"unclassified","is_bicycle_related":true,"bicycle_shield_text":"66","bicycle_network":"ncn","source":"openstreetmap.org","min_zoom":8.0,"id":7026744},"arcs":[167]},{"type":"MultiLineString","properties":{"kind":"highway","network":"US:I","sort_rank":383,"landuse_kind":"national_park","is_bicycle_related":true,"bicycle_shield_text":"66","bicycle_network":"ncn","source":"openstreetmap.org","min_zoom":8.0,"all_networks":["US:I"],"kind_detail":"motorway","shield_text":"40","ref":"I 40","all_shield_texts":["40"]},"arcs":[[168],[169],[170]]},{"type":"LineString","properties":{"kind":"major_road","network":"US:US","sort_rank":380,"kind_detail":"primary","is_bicycle_related":true,"bicycle_shield_text":"66","bicycle_network":"ncn","source":"openstreetmap.org","min_zoom":8.0,"shield_text":"95","ref":"US 95"},"arcs":[171]},{"type":"LineString","properties":{"kind":"major_road","network":"US:AZ","sort_rank":380,"kind_detail":"primary","is_bicycle_related":true,"source":"openstreetmap.org","min_zoom":8.0,"shield_text":"68","ref":"AZ 68"},"arcs":[172]},{"type":"LineString","properties":{"kind":"major_road","network":"US:AZ","sort_rank":380,"kind_detail":"primary","source":"openstreetmap.org","min_zoom":8.0,"shield_text":"95","ref":"SR 95","id":131356383},"arcs":[173]},{"type":"LineString","properties":{"kind":"ferry","name":"Havasu Landing Ferry","sort_rank":355,"landuse_kind":"urban_area","is_bicycle_related":true,"source":"openstreetmap.org","min_zoom":8.0,"id":168357577},"arcs":[174]},{"type":"LineString","properties":{"kind":"major_road","network":"US:AZ","sort_rank":380,"kind_detail":"primary","source":"openstreetmap.org","min_zoom":8.0,"landuse_kind":"national_park","shield_text":"68","ref":"AZ 68","id":75355466},"arcs":[175]},{"type":"MultiLineString","properties":{"kind":"major_road","network":"US:NV","sort_rank":381,"kind_detail":"trunk","source":"openstreetmap.org","min_zoom":8.0,"shield_text":"163","ref":"NV 163"},"arcs":[[176],[177],[178],[179],[180],[181],[182],[183]]},{"type":"MultiLineString","properties":{"kind":"major_road","network":"US:US","sort_rank":380,"kind_detail":"primary","source":"openstreetmap.org","min_zoom":8.0,"shield_text":"66","ref":"AZ 66"},"arcs":[[184],[185],[186],[187],[188]]}]},"earth":{"type":"GeometryCollection","geometries":[{"type":"Polygon","properties":{"sort_rank":10,"source":"naturalearthdata.com","min_zoom":0.0,"kind":"earth","area":98022885885},"arcs":[[189]]}]},"landuse":{"type":"GeometryCollection","geometries":[{"type":"MultiPolygon","properties":{"kind":"national_park","protect_class":"3","area":5105711122,"sort_rank":18,"operator":"BLM","source":"openstreetmap.org","min_zoom":3.0,"tier":1,"osm_relation":true},"arcs":[[[190]],[[191],[192],[193],[194]]]},{"type":"MultiPolygon","properties":{"kind":"nature_reserve","tier":2,"protect_class":"1b","area":593066050,"sort_rank":23,"source":"openstreetmap.org","min_zoom":6.0,"operator":"BLM;National Park Service","osm_relation":true},"arcs":[[[195]]]},{"type":"MultiPolygon","properties":{"kind":"nature_reserve","protect_class":"4","area":84153199,"sort_rank":23,"operator":"US Fish and Wildlife Service","source":"openstreetmap.org","min_zoom":8.0,"tier":2,"osm_relation":true},"arcs":[[[196]],[[197],[198]]]},{"type":"MultiPolygon","properties":{"kind":"nature_reserve","protect_class":"1b","area":668220947,"sort_rank":23,"operator":"BLM","source":"openstreetmap.org","min_zoom":7.0,"tier":2,"osm_relation":true},"arcs":[[[199]]]},{"type":"MultiPolygon","properties":{"kind":"national_park","protect_class":"3","area":147183725,"sort_rank":18,"operator":"United States National Park Service","source":"openstreetmap.org","min_zoom":7.0,"tier":1,"osm_relation":true},"arcs":[[[200]]]},{"type":"MultiPolygon","properties":{"kind":"nature_reserve","tier":2,"protect_class":"1b","area":105322854,"sort_rank":23,"source":"openstreetmap.org","min_zoom":8.0,"operator":"US Fish and Wildlife Service","osm_relation":true},"arcs":[[[201]],[[202]]]},{"type":"Polygon","properties":{"kind":"national_park","protect_class":"2","area":9360199680,"sort_rank":18,"operator":"United States National Park Service","source":"openstreetmap.org","min_zoom":3.0,"tier":1,"id":-175098,"osm_relation":true},"arcs":[[203]]},{"type":"MultiPolygon","properties":{"kind":"nature_reserve","protect_class":"1b","area":85707654,"sort_rank":23,"operator":"United States National Park Service","source":"openstreetmap.org","min_zoom":8.0,"tier":2,"osm_relation":true},"arcs":[[[204]],[[205]],[[206]]]},{"type":"MultiPolygon","properties":{"kind":"nature_reserve","protect_class":"1b","area":896376982,"sort_rank":23,"operator":"United States National Park Service","source":"openstreetmap.org","min_zoom":6.0,"tier":2,"osm_relation":true},"arcs":[[[207]],[[208]],[[209]],[[210]]]},{"type":"MultiPolygon","properties":{"source":"naturalearthdata.com","kind":"urban_area","name":"","area":1526482825,"sort_rank":11,"min_zoom":4.0},"arcs":[[[211]],[[212]],[[213]]]},{"type":"MultiPolygon","properties":{"kind":"nature_reserve","protect_class":"1b","area":4306624889,"sort_rank":23,"operator":"BLM","source":"openstreetmap.org","min_zoom":6.0,"tier":2,"osm_relation":true},"arcs":[[[214]],[[215]],[[216]],[[217]],[[218]],[[219]],[[220]],[[221]],[[222]],[[223],[224]]]},{"type":"MultiPolygon","properties":{"kind":"nature_reserve","protect_class":"1b","area":206846849,"sort_rank":23,"operator":"United States National Park Service","source":"openstreetmap.org","min_zoom":7.0,"tier":2,"osm_relation":true},"arcs":[[[225]]]},{"type":"MultiPolygon","properties":{"kind":"nature_reserve","protect_class":"1b","area":1618450846,"sort_rank":23,"operator":"BLM","source":"openstreetmap.org","min_zoom":4.0,"tier":2,"osm_relation":true},"arcs":[[[226]],[[227],[228]]]},{"type":"Polygon","properties":{"kind":"nature_reserve","protect_class":"4","area":152927008,"sort_rank":23,"operator":"US Fish and Wildlife Service","source":"openstreetmap.org","min_zoom":6.0,"tier":2,"id":-5844208,"osm_relation":true},"arcs":[[229],[230],[231]]},{"type":"MultiPolygon","properties":{"kind":"national_park","protect_class":"5","area":7803331102,"sort_rank":18,"operator":"United States National Park Service","source":"openstreetmap.org","min_zoom":3.0,"tier":1,"osm_relation":true},"arcs":[[[232]]]},{"type":"MultiPolygon","properties":{"kind":"nature_reserve","protect_class":"1b","area":542462410,"sort_rank":23,"operator":"BLM","source":"openstreetmap.org","min_zoom":8.0,"tier":2,"osm_relation":true},"arcs":[[[233]]]}]}},"type":"Topology","transform":{"translate":[-115.3125,34.3071438563],"scale":[0.0003433228,0.0002816226]},"arcs":[[[3407,0],[-97,148],[-70,45],[-79,12],[-105,127],[-74,21],[-19,54],[-91,56],[-27,45],[-112,-11],[-34,35],[15,253],[-76,154],[-85,79],[32,23],[0,35],[-96,166],[10,51]],[[2499,1293],[-49,147],[-47,14],[-189,178],[-100,244],[-135,123],[0,468],[-1671,1629]],[[2063,1893],[-32,18],[-41,16],[-64,19],[-44,35],[-3,2],[-14,7],[-3,2],[-12,22],[-33,41],[-1,1],[-2,2],[-12,7],[-3,2],[-24,8],[-3,1],[-4,0],[-3,-1],[-3,0],[-32,-15],[-9,-1],[-107,14],[-26,35],[-5,45],[-1,4],[-1,3],[-2,3],[-1,3],[-28,43],[-6,7],[-3,4],[-42,43],[-2,3],[-15,35],[-59,-43],[-35,-8],[-45,-11],[-24,-2],[-38,-5],[-52,-13],[-17,-6],[-4,-1],[-49,-26],[-44,-13],[-96,-5],[-263,14],[-4,0],[-2,0],[-6,-1],[-14,-5],[-4,-1],[-3,-2],[-21,-13],[-6,-4],[-25,-23],[-4,-4],[-20,-24],[-5,-6],[-92,-145],[-131,-115],[-40,-38],[-6,-6],[-28,-41],[-2,-3],[-3,-5],[-91,-190],[-7,-6],[-28,-22],[-5,-5],[-119,-121],[-8,-6],[-40,-27],[-5,-4],[-28,-25],[-5,-5],[-4,-6]],[[0,1328],[90,74],[159,154],[125,239],[174,157],[3,4],[19,23],[52,79],[23,45],[87,74],[287,-9],[95,5],[7,1],[38,12],[70,33],[115,20],[118,27],[20,0],[66,-56],[41,-103],[25,-34],[107,-15],[78,9],[63,-75],[65,-47],[26,-13]],[[2063,1893],[38,-36],[79,-200],[151,-188],[91,-8],[27,42],[94,50],[114,-25],[399,10],[158,104],[30,32],[21,30],[17,30],[3,5],[3,4],[3,3],[3,3],[6,4],[48,29],[18,29],[1,17],[-11,68],[0,5],[0,4],[0,7],[149,987],[75,115],[11,8],[49,21],[11,9],[-14,36],[4,33],[2,4],[5,4],[7,1],[4,0],[15,-2],[5,-1],[34,-10],[12,3],[15,38],[174,215]],[[2711,1527],[223,-2],[118,12],[6,1],[5,2],[48,22],[104,81],[28,30],[22,31],[25,41],[54,33],[4,3],[3,3],[7,9],[7,16],[2,7],[0,9],[0,3],[-1,6],[-10,62],[0,16],[127,783],[35,61],[-8,79],[72,119],[6,63],[27,-1],[40,38],[-11,70],[75,-17],[100,146]],[[3914,3373],[182,231]],[[2062,1893],[-7,4],[7,-4]],[[2063,1893],[-32,18],[-41,16],[-64,19],[-64,46],[-12,22],[-33,41],[-3,3],[-12,7],[-3,2],[-31,9],[-47,-17],[-107,14],[-36,93],[-28,43],[-6,7],[-47,50],[-15,35],[-59,-43],[-80,-19],[-24,-2],[-38,-5],[-52,-13],[-114,-46],[-371,8],[-14,-5],[-4,-1],[-24,-15],[-35,-31],[-20,-24],[-5,-6],[-92,-145],[-131,-115],[-46,-44],[-28,-41],[-5,-8],[-91,-190],[-40,-33],[-119,-121],[-90,-73]],[[0,1328],[90,74],[119,121],[34,27],[3,3],[3,3],[3,4],[3,5],[19,31],[3,5],[64,146],[33,48],[45,44],[101,86],[28,27],[3,4],[19,23],[52,79],[2,3],[2,4],[12,28],[7,10],[87,74],[287,-9],[9,0],[86,5],[3,0],[4,1],[34,11],[4,1],[70,33],[24,3],[5,1],[5,2],[12,6],[6,1],[37,5],[19,1],[3,0],[4,1],[118,27],[20,0],[66,-56],[41,-103],[11,-21],[2,-3],[3,-3],[9,-7],[3,-2],[2,-1],[23,-6],[4,0],[10,2],[12,-3],[13,-2],[40,-3],[4,1],[5,1],[38,16],[31,-9],[19,-13],[12,-21],[2,-4],[1,-1],[2,-2],[12,-9],[3,-3],[9,-18],[1,-2],[2,-2],[65,-47],[5,-3],[21,-10]],[[2063,1893],[38,-36],[79,-200],[151,-188],[91,-8],[27,42],[94,50],[114,-25],[399,10],[158,104],[30,32],[21,30],[17,30],[3,5],[3,4],[3,3],[3,3],[6,4],[48,29],[18,29],[1,17],[-11,68],[0,5],[0,4],[0,7],[149,987],[75,115],[11,8],[49,21],[11,9],[-14,36],[4,33],[2,4],[5,4],[7,1],[4,0],[15,-2],[5,-1],[34,-10],[12,3],[15,38],[174,215]],[[2711,1527],[223,-2],[118,12],[6,1],[5,2],[48,22],[104,81],[28,30],[22,31],[25,41],[54,33],[4,3],[3,3],[7,9],[7,16],[2,7],[0,9],[0,3],[-1,6],[-10,62],[0,16],[127,783],[35,61],[-8,79],[72,119],[6,63],[27,-1],[40,38],[-11,70],[75,-17],[100,146]],[[3914,3373],[182,231]],[[2063,1893],[-6,3],[6,-3]],[[3519,64],[57,-34],[62,-27],[-109,3],[-82,35],[-275,237],[-74,45],[-68,19],[-24,16],[-64,105],[-37,31],[-42,24],[-46,15],[-47,5],[-83,30],[-25,75],[22,87],[57,75],[-22,25],[25,-15],[17,-20],[12,-26],[8,-37],[-3,-39],[2,-39],[7,-35],[14,-32],[83,-12],[232,-224],[93,-58],[63,-14],[55,-37],[192,-178]],[[2077,3937],[16,-68],[14,-131],[-5,-26],[-20,13],[-41,48],[-45,80],[-24,31],[-19,17],[-37,27],[-14,15],[-19,34],[-15,33],[-5,37],[8,49],[131,0],[20,-31],[31,-64],[24,-64]],[[3519,64],[57,-34],[62,-27],[-109,3],[-82,35],[-275,237],[-74,45],[-68,19],[-24,16],[-64,105],[-37,31],[-42,24],[-46,15],[-47,5],[-83,30],[-25,75],[22,87],[57,75],[-22,25],[25,-15],[17,-20],[12,-26],[8,-37],[-3,-39],[2,-39],[7,-35],[14,-32],[83,-12],[232,-224],[93,-58],[63,-14],[55,-37],[192,-178]],[[2077,3937],[16,-68],[14,-131],[-5,-26],[-20,13],[-41,48],[-45,80],[-24,31],[-19,17],[-37,27],[-14,15],[-19,34],[-15,33],[-5,37],[8,49]],[[2002,4096],[20,-31],[31,-64],[24,-64]],[[2002,1933],[-5,15]],[[2175,3072],[0,3]],[[3391,3325],[47,-63]],[[3445,3257],[-53,68]],[[3778,3214],[-74,-91],[-64,5],[6,-72],[-34,-20]],[[3781,3218],[12,16]],[[2085,1838],[-50,84]],[[1985,1976],[-52,26]],[[1851,3174],[-9,3],[0,-4]],[[1843,3173],[8,1]],[[3598,3164],[31,-26]],[[1349,3085]],[[3438,3262],[160,-98],[-153,93]],[[3392,3325],[-452,771]],[[2934,4096],[99,-170],[358,-601]],[[3624,3139],[-1,0]],[[1997,1948],[-8,21]],[[2156,1622],[-20,-12],[-49,36]],[[1923,0],[18,785]],[[1964,994],[21,32],[-30,73],[40,110],[-6,76],[38,52],[60,306]],[[1915,2011],[-26,21],[-95,37]],[[1794,2069],[-12,5]],[[1782,2074],[-4,1],[-139,-43]],[[1642,2030],[45,12],[93,31],[2,1]],[[1782,2074],[12,-5]],[[1794,2069],[94,-38],[19,-15]],[[2175,3072],[0,3]],[[2035,1922],[-33,11]],[[1933,2002],[-2,8]],[[1907,2016],[24,-6],[-16,1]],[[2143,1613],[15,-7]],[[2161,1603],[-5,19]],[[2181,1574],[-8,12]],[[2151,2993],[10,62]],[[784,1858],[-23,2]],[[762,1854],[20,3]],[[2081,2876]],[[2150,2921]],[[2162,2950],[0,1]],[[2175,3072],[-7,0]],[[1907,2016],[170,-167]],[[2077,1851],[-34,39],[-8,20],[-10,11],[-110,90]],[[3790,3232],[-71,0],[-40,-19]],[[3680,3212],[109,19]],[[2175,3075],[0,2]],[[2175,3079],[7,31]],[[2048,1932],[34,53],[-1,529],[26,118],[-17,161]],[[2791,841],[-39,194],[113,110],[70,189],[4,81],[-37,89]],[[2825,582],[55,-62],[171,-5]],[[3534,0],[-133,120],[-121,237],[-164,146],[-64,12]],[[2035,1922],[13,10]],[[3632,3137],[-8,2]],[[3629,3138],[3,-1]],[[3646,3134],[-14,3]],[[2161,3072],[-52,0]],[[2109,3072],[-24,24]],[[2086,3095],[23,-23]],[[2109,3072],[1,-1],[51,1]],[[2168,3072],[-7,0]],[[1833,3107],[3,16]],[[1836,3123],[7,50]],[[1842,3173],[-6,-50]],[[1836,3123],[-2,-16]],[[2085,3096],[-234,78]],[[1851,3174],[225,-69],[10,-10]],[[3781,3218],[-3,-4]],[[255,1582],[103,53]],[[479,1703],[3,1]],[[672,1809],[89,51]],[[1989,1969],[-4,7]],[[2264,3133],[-47,-10],[-35,-13],[82,22]],[[358,1635],[121,68]],[[482,1704],[190,105]],[[3804,3248],[-4,-5]],[[3867,3328],[-1,-1]],[[3867,3327],[1,0]],[[2791,841],[2,-7]],[[2805,694],[0,20]],[[2805,645],[0,48]],[[0,1754],[144,15]],[[251,1782],[-251,-26]],[[400,1801],[-22,-3]],[[2089,1820],[-12,31]],[[2077,1849],[11,-29]],[[2088,1820],[70,-214]],[[2161,1603],[-72,217]],[[2181,1574],[-8,12]],[[2408,1457],[-6,-1]],[[2402,1456],[6,0]],[[3627,3157],[-22,-119],[-44,-35],[-32,-50],[-21,-39],[-18,-43],[-9,-37],[-110,-722],[27,-213],[-16,-127],[-288,-244],[-216,-28]],[[2885,1499],[209,27],[290,245],[15,128],[-27,212],[111,724],[48,118],[75,85],[22,116]],[[2647,626],[153,-37]],[[1161,4049],[-16,47]],[[1161,4049],[91,-465]],[[1266,3513],[-14,71]],[[1266,3513],[73,-379]],[[1349,3085],[-10,49]],[[0,1360],[255,222]],[[1639,2032],[-13,-1]],[[1626,2029],[16,1]],[[2158,1606],[64,-94],[53,-50],[81,-5]],[[2173,1586],[-12,17]],[[2356,1457],[-81,6],[-94,111]],[[2402,1456],[-12,0]],[[2391,1455],[11,1]],[[144,1769],[211,23],[427,65]],[[378,1798],[-127,-16]],[[784,1858],[-384,-57]],[[1349,3085],[57,-126],[16,-366],[-21,-42],[-5,-203],[26,-93],[138,-73],[63,-157]],[[1941,785],[23,209]],[[2423,1458],[36,3]],[[2459,1462],[-35,-4]],[[2090,2793],[-9,83]],[[2081,2876],[69,45]],[[2150,2921],[12,29]],[[2162,2951],[13,121]],[[2805,714],[-14,127]],[[2805,693],[0,1]],[[2825,582],[-20,63]],[[3679,3213],[-52,-56]],[[3628,3154],[52,58]],[[3789,3231],[307,-65]],[[4096,3167],[-306,65]],[[2424,1458],[-16,-1]],[[2408,1456],[15,2]],[[2878,1500],[-419,-38]],[[2459,1461],[426,38]],[[1312,1962],[172,62]],[[2390,1456],[-34,1]],[[2356,1457],[35,-2]],[[2264,3132],[23,5],[2,0]],[[2289,3137],[195,-18]],[[2484,3119],[9,0],[2,1]],[[2495,3120],[26,15]],[[2521,3135],[15,9],[3,2],[52,23],[46,-17]],[[2637,3152]],[[2637,3152],[1,-1],[14,55],[57,46]],[[2709,3252],[24,19],[1,0]],[[2734,3271],[195,-7],[257,-15],[-257,16],[-193,7],[-2,-1]],[[2734,3271],[-25,-19]],[[2709,3252],[-57,-46],[-15,-54]],[[2637,3152]],[[2637,3152],[-46,18],[-53,-24],[-4,-2],[-13,-9]],[[2521,3135],[-24,-15],[-2,0]],[[2495,3120],[-11,-1]],[[2484,3119],[-107,-3],[-88,21]],[[2289,3137],[-2,0],[-23,-4]],[[2752,972],[39,-131]],[[2087,1643],[1,0]],[[782,1857],[350,98],[180,7]],[[1626,2031],[-85,14],[-227,-81],[-181,-7],[-349,-99]],[[1484,2024],[142,5]],[[2087,1643],[-38,85],[36,110]],[[3439,3240],[-253,9]],[[3052,515],[-1,0]],[[2800,589],[12,-2]],[[2175,3075],[7,35]],[[1834,3107],[-6,-46],[-1,0]],[[1827,3061],[-150,18],[-70,-14]],[[1607,3065],[-25,-5],[-17,6]],[[1565,3066],[-221,77],[-7,1]],[[1337,3143],[220,-77],[8,0]],[[1565,3066],[42,-1]],[[1607,3065],[219,-5],[1,1]],[[1827,3061],[6,46]],[[3800,3243],[-7,-9]],[[3866,3327],[-62,-79],[63,79]],[[3953,3437],[-86,-109]],[[3868,3327],[85,110]],[[4096,3618],[-143,-181]],[[4096,0],[-4096,0],[0,1377],[0,2719],[4096,0],[0,-4096]],[[0,501],[102,-255],[-20,-29],[161,-217],[-243,0],[0,501]],[[0,1402],[31,54],[-31,0],[0,154],[19,-1],[-19,142],[400,50],[1,24],[164,153],[131,187],[0,-20],[53,-2],[-1,-23],[52,0],[0,49],[-51,14],[207,-2],[19,429],[63,27],[0,484],[17,0],[8,243],[585,-572],[-103,-71],[-120,-141],[83,-304],[53,-59],[39,-1],[0,-116],[25,-13],[1,-64],[32,0],[-20,-39],[151,-2],[15,-50],[39,0],[0,-259],[64,0],[1,-103],[39,0],[1,-52],[101,0],[-24,-178],[-39,-54],[7,-77],[-41,-109],[30,-72],[-19,-34],[53,0],[37,-208],[-169,-2],[0,26],[-102,52],[-116,24],[-8,108],[-154,-1],[-4,54],[-51,-1],[-14,283],[-190,14],[0,-143],[-46,-2],[1,-53],[-95,-5],[-1,-99],[25,0],[0,-26],[-25,0],[-1,-129],[-36,1],[-3,-268],[-229,7],[-104,60],[-68,100],[-72,46],[-24,208],[-37,40],[-101,62],[-64,-48],[-6,65],[25,16],[41,-17],[-24,108],[-129,-51],[-190,-203],[-82,-53],[0,443]],[[473,1709],[31,-18],[23,-26],[13,-21],[1,-7],[31,-14],[5,-4],[6,-8],[-12,12],[-11,2],[-19,12],[-5,9],[-7,2],[0,-10],[-4,-12],[-14,-18],[3,-10],[11,-9],[4,-9],[15,-15],[5,-8],[41,0],[-5,-52],[6,-4],[26,-29],[2,-8],[0,-6],[94,-28],[165,102],[62,348],[-194,-33],[-273,-138]],[[206,1505],[114,-141],[167,3],[26,88],[56,-17],[50,25],[-35,42],[-45,0],[9,52],[-34,40],[-4,11],[17,40],[7,4],[-61,57],[-187,-120],[0,-33],[-80,-51]],[[1027,1892],[142,-177],[157,97],[158,175],[0,38],[-186,-68],[-166,-3],[-102,-34],[-3,-28]],[[1671,3385],[44,220],[61,29],[7,-8],[10,-4],[57,-9],[-2,-36],[5,36],[-76,23],[148,44],[121,-134],[-1,-73],[39,-32],[-4,-50],[21,-18],[-17,-70],[21,1],[-18,-27],[-80,-5],[-13,-7],[92,10],[-124,-133],[-98,59],[-37,211],[-127,-56],[-29,29]],[[3490,0],[0,36],[43,-36],[-43,0]],[[2149,1779],[38,5],[-28,11],[4,24],[49,-40],[76,0],[-13,167],[39,-13],[46,-116],[-15,-65],[21,-25],[0,34],[25,-67],[-37,-70],[37,-32],[13,32],[0,-73],[64,-30],[-43,-58],[-25,-3],[-186,171],[-65,148]],[[2417,1521],[13,0],[0,13],[-13,0],[0,-13]],[[206,1505],[80,51],[0,33],[187,120],[61,-57],[-24,-44],[38,-51],[-9,-52],[45,0],[35,-42],[-50,-25],[-56,17],[-26,-88],[-167,-3],[-114,141]],[[437,3533],[51,38],[0,-32],[71,7],[-3,-62],[-53,1],[1,-166],[128,-2],[0,51],[55,-1],[0,38],[-26,1],[0,115],[-31,13],[1,49],[-42,1],[29,49],[-21,68],[45,73],[222,-216],[-96,0],[-6,-205],[-119,-26],[-1,-51],[-51,0],[0,-52],[-154,1],[0,153],[51,0],[0,155],[-51,0]],[[2462,1376],[43,-102],[-30,-21],[53,-69],[-12,-43],[24,-17],[-18,-20],[60,-46],[-37,-9],[-3,-35],[-24,0],[-1,78],[-25,0],[0,103],[-26,0],[-4,181]],[[2458,1443],[61,0],[0,-79],[178,0],[0,-411],[-47,-1],[-81,57],[-1,17],[41,-10],[1,67],[-64,54],[-3,73],[-48,36],[33,22],[-70,175]],[[0,4083],[49,13],[261,0],[315,-306],[-41,0],[-19,-244],[-77,-7],[0,32],[-51,-38],[51,0],[0,-155],[-51,0],[0,-153],[154,-1],[0,52],[51,0],[1,51],[119,26],[6,205],[96,0],[194,-189],[-24,-730],[-60,-26],[-19,-432],[-206,2],[-40,25],[-144,-230],[-164,-153],[-79,-35],[-322,-33],[0,2326]],[[0,2395],[112,-54],[1,-71],[107,-58],[-220,-23],[0,206]],[[0,2953],[36,-13],[0,-51],[-26,0],[24,-44],[-34,-23],[0,131]],[[1702,3356],[126,35],[27,-74],[-34,-57],[23,-1],[30,-83],[-43,-4],[1,-65],[-26,0],[0,51],[-78,1],[7,57],[-8,71],[-1,-128],[-24,0],[0,197]],[[813,3532],[13,26],[38,0],[194,-189],[-16,-509],[-5,4],[-20,7],[-9,0],[-17,-7],[-26,6],[-14,0],[40,-6],[21,7],[28,-10],[-1,-77],[-185,13],[30,49],[-64,230],[-7,456]],[[0,2821],[34,24],[77,-159],[45,-6],[40,73],[73,29],[38,-13],[22,-14],[1,-2],[-1,-3],[2,-6],[15,-13],[-5,-6],[-3,-4],[-6,-23],[-13,-4],[-16,-17],[-6,0],[-9,-1],[-5,-6],[0,-2],[5,7],[15,1],[16,18],[11,1],[7,7],[10,30],[-17,20],[72,49],[26,-151],[-14,-59],[-23,10],[-18,3],[-6,-1],[-6,-4],[51,-8],[13,-37],[55,-2],[48,-287],[-308,-53],[-107,58],[0,71],[-113,55],[0,425]],[[272,4096],[37,0],[136,-131],[-2,-4],[2,-34],[-2,-3],[-1,-10],[-2,-4],[0,-2],[-9,-11],[-5,-9],[-3,-16],[18,36],[4,19],[1,38],[163,-159],[-46,-35],[22,-15],[-1,-74],[-126,-129],[-75,126],[75,-126],[-131,-105],[-99,45],[18,36],[-59,-76],[-28,31],[4,-19],[-22,7],[-9,1],[-10,-6],[65,-15],[-19,-22],[-108,-1],[-1,0],[-4,-5],[-1,-11],[-1,2],[-4,1],[-5,0],[-3,5],[-4,1],[7,-7],[9,-2],[4,5],[0,-6],[-19,-2],[-6,-5],[-3,-7],[28,13],[4,17],[0,-89],[-11,24],[-21,3],[16,-37],[-29,-3],[-16,-102],[0,305],[15,-1],[-3,27],[61,3],[26,-38],[65,12],[0,51],[25,5],[64,-45],[5,10],[-46,49],[-6,61],[-36,-13],[-96,66],[46,101],[42,11],[-11,163],[121,105]],[[0,3627],[12,-68],[-10,-30],[-2,0],[0,98]],[[2895,861],[98,34],[65,-40],[-24,-70],[-73,-9],[25,-37],[104,-42],[32,-157],[-52,5],[-36,94],[-41,19],[-104,-89],[-88,18],[-40,209],[66,99],[36,0],[32,-34]],[[2086,3228],[164,-54],[35,-146],[-101,-82],[-66,-133],[-61,-43],[-100,18],[-97,158],[0,79],[-32,0],[64,79],[33,118],[97,0],[47,45],[17,-39]],[[3802,3459],[0,-119],[32,-39],[-55,-87],[-82,-13],[-70,46],[-20,93],[65,0],[0,40],[33,0],[58,77],[39,2]],[[2297,216],[62,71],[55,-63],[56,-18],[26,-88],[102,0],[-1,103],[26,51],[205,0],[189,-104],[172,-153],[-823,-15],[-36,42],[-33,174]],[[1063,638],[4,249],[36,-1],[1,129],[25,0],[0,26],[-25,0],[1,99],[95,5],[-1,53],[46,2],[0,143],[190,-14],[14,-283],[51,1],[4,-54],[154,1],[8,-108],[218,-76],[0,-26],[-51,0],[0,-29],[-382,-181],[-24,6],[0,50],[-51,0],[0,-37],[-72,17],[-79,-23],[-161,33],[-1,18]],[[0,1456],[31,0],[-31,-54],[0,54]],[[0,1645],[11,-12],[8,-24],[-19,1],[0,35]],[[473,1709],[273,138],[194,33],[-62,-348],[-165,-102],[-94,28],[-34,47],[5,52],[-41,0],[-38,51],[18,40],[7,-2],[5,-9],[19,-12],[11,-2],[11,-12],[1,-1],[0,1],[-11,12],[-31,14],[-14,28],[-23,26],[-31,18]],[[1958,1100],[40,108],[-6,76],[49,66],[309,87],[7,-20],[51,1],[2,-50],[52,1],[4,-174],[26,0],[0,-103],[25,0],[2,-180],[-39,0],[-1,-328],[-135,2],[0,46],[-51,0],[0,-29],[-236,179],[-41,212],[-45,0],[17,34],[-30,72]],[[2544,2002],[30,127],[128,-31],[47,67],[0,130],[-51,0],[0,46],[50,111],[19,20],[34,-12],[-24,101],[125,-10],[-16,-39],[17,-13],[51,0],[0,51],[36,-5],[15,-46],[37,-62],[-2,-50],[-64,-54],[68,51],[1,53],[-36,62],[47,0],[0,52],[52,-1],[0,51],[50,0],[0,-50],[35,-1],[4,-51],[-38,0],[-1,-52],[52,0],[55,-214],[-5,-24],[-84,-15],[84,11],[23,-29],[-3,-72],[57,-119],[28,-1],[-11,-195],[-96,-11],[0,-53],[-51,0],[0,-52],[-51,0],[0,-68],[-43,-35],[-60,0],[0,52],[-23,0],[24,51],[-20,86],[32,32],[-25,3],[-10,-30],[-15,18],[2,130],[-35,-15],[-7,33],[27,38],[-46,-43],[-59,50],[27,19],[-5,59],[-96,-230],[22,-44],[-234,-1],[-68,224]],[[3604,2385],[55,166],[186,58],[77,-36],[-63,-29],[-6,-35],[52,-53],[-40,-20],[0,-25],[82,-3],[20,96],[51,-16],[0,-52],[51,8],[17,-80],[-23,-83],[-45,1],[0,-52],[20,3],[-38,-86],[-5,-6],[-2,12],[-4,3],[-1,11],[-5,6],[-11,-8],[-11,10],[-6,2],[-4,-2],[-1,2],[-2,0],[11,-28],[-1,22],[3,2],[2,-4],[8,-5],[6,0],[6,8],[12,-34],[-35,-75],[-26,13],[-17,-26],[-53,0],[0,-25],[-102,0],[0,51],[-20,0],[20,39],[-85,40],[24,51],[22,23],[31,-4],[14,-15],[14,-7],[13,-3],[7,3],[6,-2],[11,3],[45,18],[-72,-21],[-59,38],[-13,1],[68,49],[-33,-7],[-44,51],[-52,0],[0,-33],[-55,85]],[[1425,2592],[127,136],[96,64],[182,-178],[16,-70],[47,-40],[0,-61],[-28,-44],[-51,1],[27,-64],[-58,0],[-14,15],[-34,18],[-14,21],[-26,-39],[55,7],[35,-24],[57,0],[68,-210],[-63,-37],[-234,0],[-23,62],[10,67],[-39,1],[-53,59],[-83,316]],[[2575,2984],[89,72],[56,-32],[-33,3],[11,-39],[-52,1],[0,-26],[103,0],[0,16],[53,-23],[-26,25],[2,89],[48,-1],[-9,-19],[1,-3],[8,20],[52,-5],[0,-47],[39,0],[20,-51],[-35,-1],[0,-62],[51,-10],[0,-31],[-51,0],[-2,-51],[53,0],[0,-52],[-51,0],[0,-52],[51,1],[1,-53],[51,0],[0,-33],[-46,5],[27,-50],[-80,13],[-30,40],[-98,-5],[-29,44],[-64,0],[10,19],[23,-6],[9,10],[-33,-2],[-9,-9],[-45,50],[39,26],[-33,8],[9,75],[-52,58],[23,61],[-51,27]],[[2742,2729],[5,-1],[2,7],[-5,1],[-2,-7]],[[1549,4086],[291,-301],[4,-61],[59,-5],[-22,-37],[-136,-52],[-43,-41],[0,183],[-153,3],[0,311]],[[825,58],[63,220],[-53,348],[38,12],[238,-17],[114,-34],[128,11],[-30,-41],[73,-30],[-13,-72],[107,-46],[65,-132],[72,-44],[57,-106],[54,-48],[95,-3],[51,-76],[-679,0],[-2,23],[-77,5],[-271,-28],[-30,58]],[[0,959],[82,53],[190,203],[129,51],[24,-108],[-41,17],[-25,-16],[6,-65],[64,48],[136,-98],[27,-212],[-9,-39],[0,-3],[1,-5],[-9,-28],[0,3],[-2,1],[-4,3],[-5,2],[-18,2],[-14,-5],[-22,-12],[66,5],[9,29],[7,46],[3,0],[173,-164],[-105,-555],[-39,28],[-23,11],[-34,15],[-23,15],[-27,13],[-21,6],[-20,3],[-13,0],[-21,-2],[75,-7],[146,-82],[-21,-112],[-399,0],[-81,94],[-80,123],[115,160],[14,23],[1,4],[89,12],[-19,29],[23,24],[42,5],[5,4],[-47,-8],[-56,-35],[-13,16],[-145,-205],[-91,255],[0,184],[23,-6],[15,2],[204,58],[-242,-54],[0,124],[31,-1],[30,1],[4,-1],[40,7],[8,4],[17,2],[11,4],[9,5],[22,4],[7,3],[4,3],[24,22],[8,-4],[12,2],[14,5],[6,3],[3,5],[11,2],[30,14],[1,4],[-5,11],[-1,0],[-157,-82],[-129,-13],[0,150]],[[243,740],[35,-1],[20,8],[1,11],[-1,8],[14,15],[1,2],[0,4],[4,3],[1,4],[9,6],[7,7],[1,4],[6,0],[2,2],[15,19],[1,6],[1,-1],[10,1],[7,2],[-2,6],[-17,-7],[-41,-44],[-19,-28],[-5,-14],[-50,-13]],[[2356,1463],[61,-14],[51,66],[-13,-46],[13,-26],[51,0],[0,-79],[178,0],[0,-411],[-39,-1],[0,-19],[26,-6],[25,-95],[40,-34],[22,-103],[-54,0],[-2,86],[-31,9],[-62,135],[-75,88],[-29,1],[-26,181],[-26,0],[-6,192],[-40,56],[-12,-25],[-51,-1],[-1,46]],[[2382,1452],[0,-22],[13,0],[0,19],[-13,3]],[[2487,1353],[0,-6],[7,0],[0,6],[-7,0]],[[2110,4096],[48,0],[0,-154],[154,0],[3,-731],[-51,0],[0,-103],[-65,0],[1,-39],[-173,40],[-221,-2],[0,51],[-104,1],[0,613],[-153,3],[4,321],[554,0],[3,0]],[[1027,1892],[3,28],[102,34],[166,3],[186,68],[0,-38],[-158,-175],[-157,-97],[-142,177]]]}