{"objects":{"water":{"type":"GeometryCollection","geometries":[{"type":"MultiPolygon","properties":{"source":"naturalearthdata.com","kind":"playa","name":"Great Salt Lake Desert","area":16541550592,"sort_rank":200,"min_zoom":0.0,"id":1},"arcs":[[[6]],[[7]]]},{"type":"MultiLineString","properties":{"source":"naturalearthdata.com","kind":"playa","sort_rank":367,"boundary":true,"min_zoom":0.0,"id":1},"arcs":[[8],[9]]}]},"buildings":{"type":"GeometryCollection","geometries":[]},"places":{"type":"GeometryCollection","geometries":[{"type":"Point","properties":{"source":"openstreetmap.org","kind":"locality","name":"Wells","kind_detail":"town","population":1330,"min_zoom":8.0,"id":150959181},"coordinates":[1019,506]},{"type":"Point","properties":{"source":"openstreetmap.org","kind":"locality","name":"Montello","kind_detail":"town","population":84,"min_zoom":8.0,"id":150935841},"coordinates":[3259,1098]}]},"transit":{"type":"GeometryCollection","geometries":[{"type":"MultiLineString","properties":{"kind":"train","network":"Amtrak","service":"long_distance","sort_rank":275,"colour":"#005480","name":"California Zephyr","source":"openstreetmap.org","min_zoom":5.0,"operator":"Amtrak","ref":"5-6","osm_relation":true,"colour_name":"teal"},"arcs":[[3],[4],[5]]}]},"pois":{"type":"GeometryCollection","geometries":[]},"boundaries":{"type":"GeometryCollection","geometries":[{"type":"LineString","properties":{"name:left:la":"Idahum","name:right:qu":"Utah suyu","name:left:hi":"\u0906\u092f\u0921\u093e\u0939\u094b","name:right:yi":"\u05d9\u05d5\u05d8\u05d0","name:right:hy":"\u0545\u0578\u0582\u057f\u0561","name:right:uk":"\u042e\u0442\u0430","name:left:he":"\u05d0\u05d9\u05d9\u05d3\u05d4\u05d5","name:left:sr":"\u0410\u0458\u0434\u0430\u0445\u043e","name:right:lt":"Juta","name:right:hi":"\u092f\u0942\u091f\u093e","name:right:lv":"J\u016bta","name:left:lt":"Aidahas","name:left:hy":"\u0531\u0575\u0564\u0561\u0570\u0578","name:left:lv":"Aidaho","name:left:ht":"Aydawo","name:right:he":"\u05d9\u05d5\u05d8\u05d4","name:right:la":"Uta","sort_rank":256,"source":"openstreetmap.org","name:right:ar":"\u064a\u0648\u062a\u0627","name:right:az":"Yuta","name:left":"Idaho","name:left:ja":"\u30a2\u30a4\u30c0\u30db\u5dde","name:left:ka":"\u10d0\u10d8\u10d3\u10d0\u10f0\u10dd","name:left:ko":"\uc544\uc774\ub2e4\ud638","name:left:kn":"\u0c90\u0ca1\u0cb9\u0ccb","name:right:ru":"\u042e\u0442\u0430","name:left:ru":"\u0410\u0439\u0434\u0430\u0445\u043e","name:right:eo":"Utaho","name:right:el":"\u0393\u03b9\u03bf\u03cd\u03c4\u03b1","kind":"region","name":"Idaho - Utah","name:left:fa":"\u0622\u06cc\u062f\u0627\u0647\u0648","min_zoom":8.0,"name:left:zh":"\u7231\u8fbe\u8377\u5dde","name:right:zh":"\u72b9\u4ed6\u5dde","name:left:uz":"Aydaho","name:right:ja":"\u30e6\u30bf\u5dde","name:left:nv":"\u00c1adihoo Hahoodzo","name:left:ur":"\u0627\u06cc\u0688\u0627\u06c1\u0648","name:right:sr":"\u0408\u0443\u0442\u0430","id:right":-161993,"name:left:uk":"\u0410\u0439\u0434\u0430\u0445\u043e","name:left:qu":"Idaho suyu","name:left:be":"\u0410\u0439\u0434\u0430\u0445\u0430","name:left:bg":"\u0410\u0439\u0434\u0430\u0445\u043e","name:right:fa":"\u06cc\u0648\u062a\u0627","name:right:nv":"\u00c1sh\u012f\u012fh Bii't\u00f3 Hahoodzo","name:left:bn":"\u0986\u0987\u09a1\u09be\u09b9\u09cb","id":-162116,"name:right":"Utah","name:left:el":"\u0391\u03ca\u03bd\u03c4\u03ac\u03c7\u03bf","kind_detail":"4","name:left:yi":"\u05d0\u05d9\u05d9\u05d3\u05e2\u05d4\u05d0","id:left":-162116,"name:right:ka":"\u10d8\u10e3\u10e2\u10d0","name:left:ar":"\u0623\u064a\u062f\u0627\u0647\u0648","name:left:az":"Aydaho","name:right:ko":"\uc720\ud0c0 \uc8fc","name:right:bg":"\u042e\u0442\u0430","name:left:th":"\u0e23\u0e31\u0e10\u0e44\u0e2d\u0e14\u0e32\u0e42\u0e2e","name:left:mr":"\u0906\u092f\u0921\u093e\u0939\u094b","name:left:ta":"\u0b90\u0b9f\u0bb9\u0bcb","name:left:ml":"\u0d10\u0d21\u0d39\u0d4b","name:right:ta":"\u0baf\u0bc2\u0b9f\u0bcd\u0b9f\u0bbe","osm_relation":true},"arcs":[0]},{"type":"LineString","properties":{"name:az":"Aydaho","name:ka":"\u10d0\u10d8\u10d3\u10d0\u10f0\u10dd","name:mr":"\u0906\u092f\u0921\u093e\u0939\u094b","name:ko":"\uc544\uc774\ub2e4\ud638","name:kn":"\u0c90\u0ca1\u0cb9\u0ccb","name:ar":"\u0623\u064a\u062f\u0627\u0647\u0648","name:th":"\u0e23\u0e31\u0e10\u0e44\u0e2d\u0e14\u0e32\u0e42\u0e2e","name:ml":"\u0d10\u0d21\u0d39\u0d4b","name:ru":"\u0410\u0439\u0434\u0430\u0445\u043e","name:ta":"\u0b90\u0b9f\u0bb9\u0bcb","id":-162116,"name:fa":"\u0622\u06cc\u062f\u0627\u0647\u0648","sort_rank":256,"kind_detail":"4","name:hi":"\u0906\u092f\u0921\u093e\u0939\u094b","source":"openstreetmap.org","name:nv":"\u00c1adihoo Hahoodzo","name:zh":"\u7231\u8fbe\u8377\u5dde","name:lv":"Aidaho","name:ja":"\u30a2\u30a4\u30c0\u30db\u5dde","name:lt":"Aidahas","name:uz":"Aydaho","name:he":"\u05d0\u05d9\u05d9\u05d3\u05d4\u05d5","name:ur":"\u0627\u06cc\u0688\u0627\u06c1\u0648","name:bn":"\u0986\u0987\u09a1\u09be\u09b9\u09cb","name:la":"Idahum","name:uk":"\u0410\u0439\u0434\u0430\u0445\u043e","name:hy":"\u0531\u0575\u0564\u0561\u0570\u0578","name:be":"\u0410\u0439\u0434\u0430\u0445\u0430","name:ht":"Aydawo","name:bg":"\u0410\u0439\u0434\u0430\u0445\u043e","name:qu":"Idaho suyu","name:sr":"\u0410\u0458\u0434\u0430\u0445\u043e","osm_relation":true,"name:el":"\u0391\u03ca\u03bd\u03c4\u03ac\u03c7\u03bf","kind":"region","name":"Idaho","min_zoom":8.0,"name:yi":"\u05d0\u05d9\u05d9\u05d3\u05e2\u05d4\u05d0"},"arcs":[1]},{"type":"LineString","properties":{"name:az":"Yuta","name:lv":"J\u016bta","name:ja":"\u30e6\u30bf\u5dde","name:ka":"\u10d8\u10e3\u10e2\u10d0","name:hi":"\u092f\u0942\u091f\u093e","name:ko":"\uc720\ud0c0 \uc8fc","name:ar":"\u064a\u0648\u062a\u0627","kind":"region","min_zoom":8.0,"name:la":"Uta","name:uk":"\u042e\u0442\u0430","name:hy":"\u0545\u0578\u0582\u057f\u0561","name:ru":"\u042e\u0442\u0430","name:ta":"\u0baf\u0bc2\u0b9f\u0bcd\u0b9f\u0bbe","name:qu":"Utah suyu","id":-161993,"osm_relation":true,"name:fa":"\u06cc\u0648\u062a\u0627","name:eo":"Utaho","name:bg":"\u042e\u0442\u0430","name":"Utah","sort_rank":256,"kind_detail":"4","name:he":"\u05d9\u05d5\u05d8\u05d4","name:sr":"\u0408\u0443\u0442\u0430","source":"openstreetmap.org","name:lt":"Juta","name:nv":"\u00c1sh\u012f\u012fh Bii't\u00f3 Hahoodzo","name:yi":"\u05d9\u05d5\u05d8\u05d0","name:zh":"\u72b9\u4ed6\u5dde","name:el":"\u0393\u03b9\u03bf\u03cd\u03c4\u03b1"},"arcs":[2]}]},"roads":{"type":"GeometryCollection","geometries":[{"type":"MultiLineString","properties":{"kind":"highway","network":"US:I","sort_rank":383,"kind_detail":"motorway","is_bicycle_related":true,"source":"openstreetmap.org","min_zoom":8.0,"all_networks":["US:I"],"shield_text":"80","ref":"I 80","all_shield_texts":["80"]},"arcs":[[10],[11]]},{"type":"MultiLineString","properties":{"kind":"highway","network":"US:I","sort_rank":383,"kind_detail":"motorway","is_bicycle_related":true,"source":"openstreetmap.org","min_zoom":8.0,"all_networks":["US:I","US:US"],"shield_text":"80","ref":"I 80;US 93 ALT","all_shield_texts":["80","93"]},"arcs":[[12],[13]]},{"type":"MultiLineString","properties":{"kind":"major_road","network":"US:US","sort_rank":381,"kind_detail":"trunk","source":"openstreetmap.org","min_zoom":8.0,"shield_text":"93","ref":"US 93"},"arcs":[[14],[15]]},{"type":"MultiLineString","properties":{"kind":"highway","network":"US:I","sort_rank":383,"kind_detail":"motorway","source":"openstreetmap.org","min_zoom":8.0,"all_networks":["US:I"],"shield_text":"80","ref":"I 80","all_shield_texts":["80"]},"arcs":[[16],[17]]},{"type":"LineString","properties":{"kind":"major_road","network":"US:I","sort_rank":381,"kind_detail":"trunk","is_bicycle_related":true,"bicycle_network":"rcn","source":"openstreetmap.org","min_zoom":8.0,"shield_text":"80","ref":"I 80 BUS;US 93","id":142987557},"arcs":[18]}]},"earth":{"type":"GeometryCollection","geometries":[{"type":"Polygon","properties":{"sort_rank":10,"source":"naturalearthdata.com","kind":"earth","min_zoom":0.0,"id":4490},"arcs":[[19]]}]},"landuse":{"type":"GeometryCollection","geometries":[{"type":"MultiPolygon","properties":{"kind":"nature_reserve","protect_class":"1b","area":355417939,"sort_rank":23,"operator":"United States Forest Service","source":"openstreetmap.org","min_zoom":6.0,"tier":2,"osm_relation":true},"arcs":[[[20]],[[21]]]},{"type":"MultiPolygon","properties":{"kind":"forest","protect_class":"5","area":137034278,"sort_rank":31,"operator":"United States Forest Service","source":"openstreetmap.org","min_zoom":6.0,"tier":2,"osm_relation":true},"arcs":[[[22]],[[23]],[[24]]]},{"type":"Polygon","properties":{"kind":"forest","protect_class":"5","area":4539720192,"sort_rank":31,"operator":"United States Forest Service","source":"openstreetmap.org","min_zoom":4.0,"tier":2,"id":-2389847,"osm_relation":true},"arcs":[[25]]},{"type":"Polygon","properties":{"kind":"forest","protect_class":"5","area":34688600,"sort_rank":31,"operator":"United States Forest Service","source":"openstreetmap.org","min_zoom":8.0,"tier":2,"id":-2389847,"osm_relation":true},"arcs":[[26]]},{"type":"Polygon","properties":{"kind":"forest","protect_class":"6","area":2277230080,"sort_rank":31,"operator":"United States Forest Service","source":"openstreetmap.org","min_zoom":4.0,"tier":2,"id":-5757917,"osm_relation":true},"arcs":[[27]]},{"type":"MultiPolygon","properties":{"kind":"nature_reserve","protect_class":"1b","area":146229755,"sort_rank":23,"operator":"BLM","source":"openstreetmap.org","min_zoom":8.0,"tier":2,"osm_relation":true},"arcs":[[[28]]]}]}},"type":"Topology","transform":{"translate":[-115.3125,40.9798980696],"scale":[0.0003433228,0.0002570987]},"arcs":[[[3701,3943],[395,-20]],[[0,3953],[1402,23],[678,-30],[1621,-3]],[[3701,3943],[4,-3943]],[[824,598],[-110,13],[-198,-36],[-96,-64],[-74,-24],[-212,-151],[-134,-77]],[[0,292],[173,73],[12,8],[157,111],[4,3],[7,4],[6,2],[61,18],[86,59],[5,3],[6,3],[6,2],[5,1],[175,31],[11,1],[6,0],[6,0],[94,-12],[4,-1]],[[1032,0],[-61,213],[38,138],[-38,121],[13,69],[-64,43],[-96,14]],[[4096,0],[-298,0],[19,33],[29,33],[44,34],[32,28],[28,35],[21,42],[53,78],[57,9],[15,16],[0,-308]],[[4096,562],[-4,11],[-25,53],[-4,55],[6,50],[27,9],[0,-178]],[[3798,0],[19,33],[29,33],[44,34],[32,28],[28,35],[21,42],[53,78],[57,9],[15,16]],[[4096,562],[-4,11],[-25,53],[-4,55],[6,50],[27,9]],[[0,324],[165,89],[186,-2],[445,98],[174,-24]],[[966,487],[-170,24],[-446,-99],[-185,2],[-165,-88]],[[1049,460],[516,53],[331,-148],[157,-30],[107,46],[136,-65],[100,-122],[215,-194]],[[2614,0],[-217,195],[-98,123],[-138,64],[-1,0],[-107,-46],[-156,30],[-331,148],[-84,3],[-432,-56]],[[1032,464],[-16,-464]],[[1036,474],[328,443],[45,158],[29,286],[64,149],[137,174],[-54,404],[-176,597],[37,139],[165,197],[130,358],[80,369],[31,53],[21,154],[-9,141]],[[1050,461],[-63,23],[-21,3]],[[970,485],[79,-25]],[[1036,474],[-4,-10]],[[0,0],[0,4096],[4096,0],[0,-4096],[-4096,0]],[[610,0],[0,61],[-112,0],[0,63],[-28,0],[0,114],[19,0],[15,85],[227,-28],[0,-57],[-126,-45],[20,-34],[60,19],[-9,-36],[28,-25],[-33,-117],[-61,0]],[[0,3629],[35,-40],[63,-191],[113,0],[11,-130],[89,145],[94,53],[32,-29],[0,-89],[-14,9],[-13,2],[-19,-8],[-26,28],[22,-29],[50,-5],[-38,-56],[14,-99],[-43,-28],[-57,36],[54,-86],[-28,3],[-36,-38],[-28,-112],[-82,-2],[1,-83],[-26,-9],[-49,25],[-30,-26],[-89,14],[0,745]],[[0,2884],[194,-4],[0,-255],[-113,-2],[0,-56],[-81,0],[0,317]],[[387,0],[0,67],[14,29],[42,-1],[-1,29],[56,0],[0,-63],[112,0],[0,-61],[-223,0]],[[671,0],[32,91],[-27,51],[9,36],[-60,-19],[-20,34],[126,45],[0,57],[28,0],[17,-206],[-41,0],[-14,-89],[-50,0]],[[0,3792],[493,-4],[0,165],[452,5],[1,-250],[-59,-1],[2,-175],[-57,-28],[0,-57],[-394,7],[-1,-17],[-29,28],[-13,-1],[-98,-63],[-72,-133],[-14,130],[-113,0],[-63,191],[-35,40],[0,163]],[[271,2987],[32,90],[36,38],[28,-3],[-54,86],[57,-36],[43,28],[-14,99],[38,56],[-50,5],[-16,15],[-4,14],[24,-28],[46,-3],[16,-157],[-29,0],[0,-113],[-56,0],[0,-114],[-93,1],[-4,22]],[[3678,4096],[-1,-138],[-844,-11],[0,149],[845,0]],[[978,3239],[39,33],[47,-64],[96,3],[80,-50],[-24,-48],[16,-128],[-68,-2],[-34,-31],[-10,40],[-86,31],[-33,136],[17,45],[-40,35]]]}