{"objects":{"water":{"type":"GeometryCollection","geometries":[{"type":"Polygon","properties":{"source":"naturalearthdata.com","kind":"ocean","area":1576712559132672,"sort_rank":200,"min_zoom":0.0,"id":1},"arcs":[[1]]}]},"buildings":{"type":"GeometryCollection","geometries":[]},"places":{"type":"GeometryCollection","geometries":[]},"transit":{"type":"GeometryCollection","geometries":[]},"pois":{"type":"GeometryCollection","geometries":[]},"boundaries":{"type":"GeometryCollection","geometries":[{"type":"LineString","properties":{"name:pt":"Oblast de Magadan","int_name":"Magadan Oblast","name:nl":"Oblast Magadan","name:ja":"\u30de\u30ac\u30c0\u30f3\u5dde","name:lt":"Magadano sritis","name:cs":"Magadansk\u00e1 oblast","min_zoom":8.0,"name:it":"Oblast' di Magadan","name:uk":"\u041c\u0430\u0433\u0430\u0434\u0430\u043d\u0441\u044c\u043a\u0430 \u043e\u0431\u043b\u0430\u0441\u0442\u044c","name:vi":"Magadan (t\u1ec9nh)","name:sv":"Magadan oblast","name:pl":"Obw\u00f3d magada\u0144ski","id":-151228,"name:ca":"Prov\u00edncia de Magadan","kind":"region","name:en":"Magadan Oblast","name":"\u041c\u0430\u0433\u0430\u0434\u0430\u043d\u0441\u043a\u0430\u044f \u043e\u0431\u043b\u0430\u0441\u0442\u044c","sort_rank":256,"kind_detail":"4","name:fr":"Oblast de Magadan","name:de":"Oblast Magadan","source":"openstreetmap.org","maritime_boundary":true,"osm_relation":true,"name:zh":"\u9a6c\u52a0\u4e39\u5dde"},"arcs":[0]}]},"roads":{"type":"GeometryCollection","geometries":[]},"earth":{"type":"GeometryCollection","geometries":[]},"landuse":{"type":"GeometryCollection","geometries":[]}},"type":"Topology","transform":{"translate":[156.09375,60.23981117],"scale":[0.0003433228,0.0001686087]},"arcs":[[[0,1691],[71,37],[249,209],[184,268],[90,227],[83,429],[6,255],[108,388],[164,314],[299,231],[43,47]],[[4096,4096],[0,-4096],[-4096,0],[0,4096],[4096,0]]]}