{"objects":{"water":{"type":"GeometryCollection","geometries":[{"type":"MultiPolygon","properties":{"source":"naturalearthdata.com","kind":"ocean","area":1576712559132672,"sort_rank":200,"min_zoom":0.0,"id":1},"arcs":[[[1]],[[2]]]},{"type":"MultiLineString","properties":{"source":"naturalearthdata.com","kind":"ocean","sort_rank":205,"boundary":true,"min_zoom":0.0,"id":3896},"arcs":[[3],[4]]}]},"buildings":{"type":"GeometryCollection","geometries":[]},"places":{"type":"GeometryCollection","geometries":[{"type":"Point","properties":{"source":"naturalearthdata.com","kind":"locality","name":"Bol'sheretsk","population":10,"min_zoom":7.0,"id":3327},"coordinates":[774,3889]}]},"transit":{"type":"GeometryCollection","geometries":[]},"pois":{"type":"GeometryCollection","geometries":[]},"boundaries":{"type":"GeometryCollection","geometries":[{"type":"LineString","properties":{"name:pt":"Krai de Kamtchatka","int_name":"Kamchatkiy Kray","name:nl":"Kraj Kamtsjatka","name:ja":"\u30ab\u30e0\u30c1\u30e3\u30c4\u30ab\u5730\u65b9","name:lt":"Kam\u010diatkos kra\u0161tas","min_zoom":8.0,"name:uk":"\u041a\u0430\u043c\u0447\u0430\u0442\u0441\u044c\u043a\u0438\u0439 \u043a\u0440\u0430\u0439","name:vi":"Kamchatka (v\u00f9ng)","name:sv":"Kamtjatka kraj","name:pl":"Kraj Kamczacki","name:hu":"Kamcsatkai hat\u00e1rter\u00fclet","id":-151233,"name:ca":"Territori de Kamtxatka","kind":"region","name:en":"Kamchatka Krai","name":"\u041a\u0430\u043c\u0447\u0430\u0442\u0441\u043a\u0438\u0439 \u043a\u0440\u0430\u0439","sort_rank":256,"kind_detail":"4","name:fr":"Kra\u00ef du Kamtchatka","name:de":"Region Kamtschatka","source":"openstreetmap.org","maritime_boundary":true,"osm_relation":true,"name:zh":"\u582a\u5bdf\u52a0\u908a\u7586\u5340","name:es":"Krai de Kamchatka"},"arcs":[0]}]},"roads":{"type":"GeometryCollection","geometries":[]},"earth":{"type":"GeometryCollection","geometries":[{"type":"MultiPolygon","properties":{"sort_rank":10,"source":"naturalearthdata.com","min_zoom":0.0,"kind":"earth","area":28043952456},"arcs":[[[5]]]}]},"landuse":{"type":"GeometryCollection","geometries":[]}},"type":"Topology","transform":{"translate":[156.09375,51.6180165488],"scale":[0.0003433228,0.0002111239]},"arcs":[[[0,3094],[152,-810],[93,-1544],[-8,-733],[-1,-7]],[[981,4096],[-32,-52],[-71,-73],[-67,-45],[9,84],[1,66],[-5,20],[165,0]],[[0,4096],[608,0],[3,-9],[88,-150],[50,-101],[64,-110],[193,-893],[137,-1224],[44,-865],[-39,-616],[3,-46],[15,-82],[-1166,0],[0,4096]],[[981,4096],[-32,-52],[-71,-73],[-67,-45],[9,84],[1,66],[-5,20]],[[608,4096],[3,-9],[88,-150],[50,-101],[64,-110],[193,-893],[137,-1224],[44,-865],[-39,-616],[3,-46],[15,-82]],[[4096,4096],[0,-4096],[-2930,0],[-15,82],[-3,46],[39,616],[-44,865],[-137,1224],[-193,893],[-64,110],[-50,101],[-88,150],[-3,9],[208,0],[5,-20],[-1,-66],[-9,-84],[67,45],[71,73],[32,52],[3115,0]]]}