{"objects":{"water":{"type":"GeometryCollection","geometries":[{"type":"Polygon","properties":{"source":"naturalearthdata.com","kind":"ocean","area":1576712559132672,"sort_rank":200,"min_zoom":0.0,"id":1},"arcs":[[4]]},{"type":"MultiLineString","properties":{"source":"naturalearthdata.com","kind":"ocean","sort_rank":205,"boundary":true,"min_zoom":0.0,"id":1870},"arcs":[[5],[6]]},{"type":"LineString","properties":{"source":"naturalearthdata.com","kind":"ocean","sort_rank":205,"boundary":true,"min_zoom":0.0,"id":1871},"arcs":[7]}]},"buildings":{"type":"GeometryCollection","geometries":[]},"places":{"type":"GeometryCollection","geometries":[{"type":"Point","properties":{"name:sl":"Severo-Kurilsk","name:ja":"\u30bb\u30d9\u30ed=\u30af\u30ea\u30ea\u30b9\u30af","min_zoom":8.0,"name:it":"Severo-Kuril'sk","name:sv":"Severo-Kurilsk","name:pl":"Siewiero-Kurilsk","id":360790636,"population":2587,"kind":"locality","name:en":"Severo-Kurilsk","name":"\u0421\u0435\u0432\u0435\u0440\u043e-\u041a\u0443\u0440\u0438\u043b\u044c\u0441\u043a","kind_detail":"town","name:de":"Sewero-Kurilsk","source":"openstreetmap.org","name:fr":"Severo-Kourilsk","name:es":"S\u00e9vero-Kurilsk"},"coordinates":[63,3785]}]},"transit":{"type":"GeometryCollection","geometries":[]},"pois":{"type":"GeometryCollection","geometries":[]},"boundaries":{"type":"GeometryCollection","geometries":[{"type":"LineString","properties":{"name:right:nl":"Kraj Kamtsjatka","name:right:ja":"\u30ab\u30e0\u30c1\u30e3\u30c4\u30ab\u5730\u65b9","name:right:fr":"Kra\u00ef du Kamtchatka","name:right:uk":"\u041a\u0430\u043c\u0447\u0430\u0442\u0441\u044c\u043a\u0438\u0439 \u043a\u0440\u0430\u0439","name:left:ja":"\u30b5\u30cf\u30ea\u30f3\u5dde","name:right:hu":"Kamcsatkai hat\u00e1rter\u00fclet","id:right":-151233,"name:right:lt":"Kam\u010diatkos kra\u0161tas","min_zoom":8.0,"name:left:lt":"Sachalino sritis","id":-394235,"name:right":"\u041a\u0430\u043c\u0447\u0430\u0442\u0441\u043a\u0438\u0439 \u043a\u0440\u0430\u0439","name:left:en":"Sakhalin Oblast","name:right:ca":"Territori de Kamtxatka","kind_detail":"4","name:left:ca":"Prov\u00edncia de Sakhal\u00edn","int_name:right":"Kamchatkiy Kray","source":"openstreetmap.org","id:left":-394235,"name:left":"\u0421\u0430\u0445\u0430\u043b\u0438\u043d\u0441\u043a\u0430\u044f \u043e\u0431\u043b\u0430\u0441\u0442\u044c","name:right:es":"Krai de Kamchatka","name:right:pt":"Krai de Kamtchatka","name:left:pl":"Obw\u00f3d sachali\u0144ski","name:right:vi":"Kamchatka (v\u00f9ng)","name:right:sv":"Kamtjatka kraj","name:right:pl":"Kraj Kamczacki","name:right:en":"Kamchatka Krai","osm_relation":true,"kind":"region","name":"\u0421\u0430\u0445\u0430\u043b\u0438\u043d\u0441\u043a\u0430\u044f \u043e\u0431\u043b\u0430\u0441\u0442\u044c - \u041a\u0430\u043c\u0447\u0430\u0442\u0441\u043a\u0438\u0439 \u043a\u0440\u0430\u0439","name:right:de":"Region Kamtschatka","name:left:de":"Oblast Sachalin","sort_rank":256,"name:right:zh":"\u582a\u5bdf\u52a0\u908a\u7586\u5340"},"arcs":[0]},{"type":"LineString","properties":{"kind":"region","name:en":"Sakhalin Oblast","name":"\u0421\u0430\u0445\u0430\u043b\u0438\u043d\u0441\u043a\u0430\u044f \u043e\u0431\u043b\u0430\u0441\u0442\u044c","name:lt":"Sachalino sritis","sort_rank":256,"kind_detail":"4","name:de":"Oblast Sachalin","source":"openstreetmap.org","min_zoom":8.0,"name:ca":"Prov\u00edncia de Sakhal\u00edn","name:pl":"Obw\u00f3d sachali\u0144ski","id":-394235,"osm_relation":true,"name:ja":"\u30b5\u30cf\u30ea\u30f3\u5dde"},"arcs":[1]},{"type":"LineString","properties":{"kind":"region","name:en":"Sakhalin Oblast","name":"\u0421\u0430\u0445\u0430\u043b\u0438\u043d\u0441\u043a\u0430\u044f \u043e\u0431\u043b\u0430\u0441\u0442\u044c","name:lt":"Sachalino sritis","sort_rank":256,"kind_detail":"4","min_zoom":8.0,"name:de":"Oblast Sachalin","source":"openstreetmap.org","maritime_boundary":true,"osm_relation":true,"name:pl":"Obw\u00f3d sachali\u0144ski","id":-394235,"name:ca":"Prov\u00edncia de Sakhal\u00edn","name:ja":"\u30b5\u30cf\u30ea\u30f3\u5dde"},"arcs":[2]},{"type":"LineString","properties":{"name:pt":"Krai de Kamtchatka","int_name":"Kamchatkiy Kray","name:nl":"Kraj Kamtsjatka","name:ja":"\u30ab\u30e0\u30c1\u30e3\u30c4\u30ab\u5730\u65b9","name:lt":"Kam\u010diatkos kra\u0161tas","min_zoom":8.0,"name:uk":"\u041a\u0430\u043c\u0447\u0430\u0442\u0441\u044c\u043a\u0438\u0439 \u043a\u0440\u0430\u0439","name:vi":"Kamchatka (v\u00f9ng)","name:sv":"Kamtjatka kraj","name:pl":"Kraj Kamczacki","name:hu":"Kamcsatkai hat\u00e1rter\u00fclet","id":-151233,"name:ca":"Territori de Kamtxatka","kind":"region","name:en":"Kamchatka Krai","name":"\u041a\u0430\u043c\u0447\u0430\u0442\u0441\u043a\u0438\u0439 \u043a\u0440\u0430\u0439","sort_rank":256,"kind_detail":"4","name:fr":"Kra\u00ef du Kamtchatka","name:de":"Region Kamtschatka","source":"openstreetmap.org","maritime_boundary":true,"osm_relation":true,"name:zh":"\u582a\u5bdf\u52a0\u908a\u7586\u5340","name:es":"Krai de Kamchatka"},"arcs":[3]}]},"roads":{"type":"GeometryCollection","geometries":[]},"earth":{"type":"GeometryCollection","geometries":[{"type":"MultiPolygon","properties":{"sort_rank":10,"source":"naturalearthdata.com","min_zoom":0.0,"kind":"earth","area":6341262274},"arcs":[[[8]],[[9]]]}]},"landuse":{"type":"GeometryCollection","geometries":[]}},"type":"Topology","transform":{"translate":[156.09375,49.8379824531],"scale":[0.0003433228,0.0002193537]},"arcs":[[[2150,3869],[-217,227]],[[2141,3860],[9,9]],[[0,1178],[18,17],[158,194],[228,436],[164,239],[271,318],[768,644],[104,137],[276,536],[154,161]],[[2150,3869],[244,227]],[[218,4096],[-7,-105],[40,-114],[76,-78],[90,-46],[62,-47],[41,-80],[92,10],[50,9],[96,-6],[91,-28],[60,0],[0,110],[77,80],[71,140],[36,75],[39,60],[13,20],[2951,0],[0,-4096],[-4096,0],[0,2990],[32,-4],[20,3],[23,20],[45,60],[51,36],[0,51],[-20,97],[7,57],[28,112],[5,37],[-11,55],[-57,71],[-31,60],[-14,58],[1,48],[8,45],[5,52],[-6,210],[-7,38],[139,0]],[[92,3645],[-14,58],[1,48],[8,45],[5,52],[-6,210],[-7,38]],[[0,2990],[32,-4],[20,3],[23,20],[45,60],[51,36],[0,51],[-20,97],[7,57],[28,112],[5,37],[-11,55],[-57,71],[-31,60]],[[218,4096],[-7,-105],[40,-114],[76,-78],[90,-46],[62,-47],[41,-80],[92,10],[50,9],[96,-6],[91,-28],[60,0],[0,110],[77,80],[71,140],[36,75],[39,60],[13,20]],[[0,4096],[79,0],[7,-38],[6,-210],[-5,-52],[-8,-45],[-1,-48],[14,-58],[31,-60],[57,-71],[11,-55],[-5,-37],[-28,-112],[-7,-57],[20,-97],[0,-51],[-51,-36],[-45,-60],[-23,-20],[-20,-3],[-32,4],[0,1106]],[[909,3721],[0,-110],[-60,0],[-91,28],[-96,6],[-50,-9],[-92,-10],[-41,80],[-62,47],[-90,46],[-76,78],[-40,114],[7,105],[927,0],[-13,-20],[-39,-60],[-36,-75],[-71,-140],[-77,-80]]]}