{"objects":{"water":{"type":"GeometryCollection","geometries":[{"type":"Polygon","properties":{"source":"naturalearthdata.com","kind":"ocean","area":1576712559132672,"sort_rank":200,"min_zoom":0.0,"id":1},"arcs":[[50],[51],[52],[53]]},{"type":"LineString","properties":{"source":"naturalearthdata.com","kind":"ocean","sort_rank":205,"boundary":true,"min_zoom":0.0,"id":26},"arcs":[54]}]},"buildings":{"type":"GeometryCollection","geometries":[]},"places":{"type":"GeometryCollection","geometries":[{"type":"Point","properties":{"kind":"region","name:en":"Wakayama","name":"\u548c\u6b4c\u5c71\u770c","kind_detail":"province","source":"openstreetmap.org","min_zoom":4.0,"name:uk":"\u0412\u0430\u043a\u0430\u044f\u043c\u0430","name:ru":"\u0412\u0430\u043a\u0430\u044f\u043c\u0430","name:pl":"Wakayama","id":3168384018,"name:ja":"\u308f\u304b\u3084\u307e\u3051\u3093"},"coordinates":[1727,2345]},{"type":"Point","properties":{"kind":"region","name:en":"Nara Prefecture","name":"\u5948\u826f\u770c (Nara Prefecture)","kind_detail":"province","source":"openstreetmap.org","min_zoom":4.0,"name:uk":"\u041d\u0430\u0440\u0430","name:ru":"\u041d\u0430\u0440\u0430","name:pl":"Nara","id":2489323851,"name:ja":"\u5948\u826f\u770c"},"coordinates":[2568,4058]},{"type":"Point","properties":{"kind":"locality","name:en":"Tanabe","name":"\u7530\u8fba\u5e02","kind_detail":"city","min_zoom":8.0,"source":"openstreetmap.org","name:fr":"Tanabe","name:uk":"\u0422\u0430\u043d\u0430\u0431\u0435","name:ru":"\u0422\u0430\u043d\u0430\u0431\u0435","name:pl":"Tanabe","population":77749,"id":691599266,"name:ja":"Tanabe-shi"},"coordinates":[1125,2086]},{"type":"Point","properties":{"kind":"locality","name:en":"Kinokawa","name":"\u7d00\u306e\u5ddd\u5e02","name:lt":"Kinokava","kind_detail":"city","min_zoom":8.0,"source":"openstreetmap.org","name:fr":"Kinokawa","name:uk":"\u041a\u0456\u043d\u043e\u043a\u0430\u0432\u0430","name:ru":"\u041a\u0438\u043d\u043e\u043a\u0430\u0432\u0430","name:pl":"Kinokawa","population":66662,"id":2506762786,"name:ja":"Kinokawa-shi"},"coordinates":[1059,3965]},{"type":"Point","properties":{"kind":"locality","name:en":"Kainan","name":"\u6d77\u5357\u5e02","kind_detail":"city","min_zoom":8.0,"source":"openstreetmap.org","name:fr":"Kainan","name:uk":"\u041a\u0430\u0439\u043d\u0430\u043d","name:ru":"\u041a\u0430\u0439\u043d\u0430\u043d","name:pl":"Kainan","population":54953,"id":2526209070,"name:ja":"Kainan-shi"},"coordinates":[610,3563]},{"type":"Point","properties":{"kind":"locality","name:en":"Iwade","name":"\u5ca9\u51fa\u5e02","kind_detail":"city","min_zoom":8.0,"source":"openstreetmap.org","name:fr":"Iwade","name:uk":"\u0406\u0432\u0430\u0434\u0435","name:ru":"\u0418\u0432\u0430\u0434\u0435","name:pl":"Iwade","population":53358,"id":2486048951,"name:ja":"Iwade-shi"},"coordinates":[907,3916]},{"type":"Point","properties":{"kind":"locality","name:en":"Goj\u014d","name":"\u4e94\u689d\u5e02","kind_detail":"city","min_zoom":8.0,"source":"openstreetmap.org","name:fr":"Goj\u014d","name:uk":"\u0490\u043e\u0434\u0437\u044c\u043e","name:ru":"\u0413\u043e\u0434\u0437\u0451","name:pl":"Goj\u014d","population":34054,"id":2483579070,"name:ja":"Goj\u014d-shi"},"coordinates":[2219,3943]},{"type":"Point","properties":{"kind":"locality","name:en":"Shingu","name":"\u65b0\u5bae\u5e02","kind_detail":"city","min_zoom":8.0,"source":"openstreetmap.org","name:fr":"Shingu","name:uk":"\u0421\u0456\u043d\u0491\u0443","name:ru":"\u0421\u0438\u043d\u0433\u0443","name:pl":"Shing\u016b","population":30849,"id":691595752,"name:ja":"Shing\u016b-shi"},"coordinates":[2892,2054]},{"type":"Point","properties":{"kind":"locality","name:en":"Arida","name":"\u6709\u7530\u5e02","kind_detail":"city","min_zoom":8.0,"source":"openstreetmap.org","name:fr":"Arida","name:uk":"\u0410\u0440\u0456\u0434\u0430","name:ru":"\u0410\u0440\u0438\u0442\u0430","name:pl":"Arida","population":30681,"id":2526393346,"name:ja":"Arida-shi"},"coordinates":[372,3312]},{"type":"Point","properties":{"kind":"locality","name:en":"Aridagawa","name":"\u6709\u7530\u5ddd\u753a","kind_detail":"town","source":"openstreetmap.org","min_zoom":8.0,"population":27576,"id":2527912116,"name:ja":"Aridagawa-ch\u014d"},"coordinates":[629,3224]},{"type":"Point","properties":{"kind":"locality","name:en":"Gobo","name":"\u5fa1\u574a\u5e02","kind_detail":"city","min_zoom":8.0,"source":"openstreetmap.org","name:fr":"Gob\u014d","name:uk":"\u0490\u043e\u0431\u043e","name:ru":"\u0413\u043e\u0431\u043e","name:pl":"Gob\u014d","population":25685,"id":691599261,"name:ja":"Gob\u014d"},"coordinates":[444,2652]},{"type":"Point","properties":{"kind":"locality","name:en":"Shirahama","name":"\u767d\u6d5c\u753a","kind_detail":"town","source":"openstreetmap.org","min_zoom":8.0,"population":22279,"id":691598987,"name:ja":"Shirahama"},"coordinates":[1069,1893]},{"type":"Point","properties":{"kind":"locality","name:en":"Owase","name":"\u5c3e\u9df2\u5e02","kind_detail":"city","min_zoom":8.0,"source":"openstreetmap.org","name:fr":"Owase","name:uk":"\u041e\u0432\u0430\u0441\u0435","name:ru":"\u041e\u0432\u0430\u0441\u044d","name:pl":"Owase","population":19175,"id":691595771,"name:ja":"Owase"},"coordinates":[3503,3266]},{"type":"Point","properties":{"kind":"locality","name:en":"Katsuragi","name":"\u304b\u3064\u3089\u304e\u753a","kind_detail":"town","source":"openstreetmap.org","min_zoom":8.0,"population":18254,"id":2508440825,"name:ja":"Katsuragi-ch\u014d"},"coordinates":[1469,4060]},{"type":"Point","properties":{"kind":"locality","name:en":"Kushimoto","name":"\u4e32\u672c\u753a","kind_detail":"town","source":"openstreetmap.org","min_zoom":8.0,"name:ru":"\u041a\u0443\u0441\u0438\u043c\u043e\u0442\u043e","population":17584,"id":691599005,"name:ja":"Kushimoto-ch\u014d"},"coordinates":[2268,1187]},{"type":"Point","properties":{"kind":"locality","name:en":"Nachi-Katsuura","name":"\u90a3\u667a\u52dd\u6d66\u753a","kind_detail":"town","source":"openstreetmap.org","min_zoom":8.0,"name:ru":"\u041d\u0430\u0442\u0438\u043a\u0430\u0446\u0443\u0443\u0440\u0430","population":16560,"id":691599036,"name:ja":"Nachi-Katsuura"},"coordinates":[2720,1764]},{"type":"Point","properties":{"kind":"locality","name:en":"Yuasa","name":"\u6e6f\u6d45\u753a","kind_detail":"town","source":"openstreetmap.org","min_zoom":8.0,"name:ru":"\u042e\u0430\u0441\u0430","population":13279,"id":2527912117,"name:ja":"Yuasa-ch\u014d"},"coordinates":[521,3134]},{"type":"Point","properties":{"kind":"locality","name:en":"Minabe","name":"\u307f\u306a\u3079\u753a","kind_detail":"town","source":"openstreetmap.org","min_zoom":8.0,"name:ru":"\u041c\u0438\u043d\u0430\u0431\u0435","population":13129,"id":691599264,"name:ja":"Minabe-ch\u014d"},"coordinates":[938,2223]},{"type":"Point","properties":{"kind":"locality","name:en":"Hidakagawa","name":"\u65e5\u9ad8\u5ddd\u753a","kind_detail":"town","source":"openstreetmap.org","min_zoom":8.0,"population":10626,"id":2548190013,"name:ja":"Hidakagawa-ch\u014d"},"coordinates":[543,2711]},{"type":"Point","properties":{"kind":"locality","name:en":"Kimino","name":"\u7d00\u7f8e\u91ce\u753a","kind_detail":"town","source":"openstreetmap.org","min_zoom":8.0,"id":2526245347,"population":10150},"coordinates":[897,3608]},{"type":"Point","properties":{"kind":"locality","name:en":"Mihama","name":"\u5fa1\u6d5c\u753a","kind_detail":"town","source":"openstreetmap.org","min_zoom":8.0,"name:ru":"\u041c\u0438\u0445\u0430\u043c\u0430","population":9089,"id":691595763,"name:ja":"Mihama"},"coordinates":[3073,2430]},{"type":"Point","properties":{"kind":"locality","name:en":"Inami","name":"\u5370\u5357\u753a","kind_detail":"town","source":"openstreetmap.org","min_zoom":8.0,"name:ru":"\u0418\u043d\u0430\u043c\u0438","population":8440,"id":691599262,"name:ja":"Inami-ch\u014d"},"coordinates":[634,2378]},{"type":"Point","properties":{"kind":"locality","name:en":"Mihama","name":"\u7f8e\u6d5c\u753a","kind_detail":"town","source":"openstreetmap.org","min_zoom":8.0,"population":7841,"id":2546753252,"name:ja":"Mihama-ch\u014d"},"coordinates":[389,2650]},{"type":"Point","properties":{"kind":"locality","name:en":"Hirogawa","name":"\u5e83\u5ddd\u753a","kind_detail":"town","source":"openstreetmap.org","min_zoom":8.0,"population":7788,"id":2527912115,"name:ja":"Hirogawa-ch\u014d"},"coordinates":[504,3124]},{"type":"Point","properties":{"kind":"locality","name:en":"Hidaka","name":"\u65e5\u9ad8\u753a","kind_detail":"town","source":"openstreetmap.org","min_zoom":8.0,"population":7526,"id":2542542722,"name:ja":"Hidaka-ch\u014d"},"coordinates":[411,2761]},{"type":"Point","properties":{"kind":"locality","name:en":"Yura","name":"\u7531\u826f\u753a","kind_detail":"town","source":"openstreetmap.org","min_zoom":8.0,"name:ru":"\u042e\u0440\u0430","population":6068,"id":2541263913,"name:ja":"Yura-ch\u014d"},"coordinates":[344,2877]},{"type":"Point","properties":{"kind":"locality","name:en":"Kudoyama","name":"\u4e5d\u5ea6\u5c71\u753a","kind_detail":"town","source":"openstreetmap.org","min_zoom":8.0,"population":4861,"id":2485000856,"name:ja":"Kudoyama-ch\u014d"},"coordinates":[1667,3991]},{"type":"Point","properties":{"kind":"locality","name:en":"Susami","name":"\u3059\u3055\u307f\u753a","kind_detail":"town","source":"openstreetmap.org","min_zoom":8.0,"name:ru":"\u0421\u0443\u0441\u0430\u043c\u0438","population":4494,"id":691598994,"name:ja":"Susami"},"coordinates":[1441,1447]},{"type":"Point","properties":{"kind":"locality","name:en":"K\u014dya","name":"\u9ad8\u91ce\u753a","kind_detail":"town","name:de":"Koyasan","source":"openstreetmap.org","min_zoom":8.0,"population":3509,"id":2506691335,"name:ja":"K\u014dya-ch\u014d"},"coordinates":[1711,3776]},{"type":"Point","properties":{"kind":"locality","name:en":"Taiji","name":"\u592a\u5730\u753a","kind_detail":"town","source":"openstreetmap.org","min_zoom":8.0,"population":3187,"id":691599018,"name:ja":"Taiji-ch\u014d"},"coordinates":[2751,1592]},{"type":"Point","properties":{"kind":"locality","name:en":"Kozagawa","name":"\u53e4\u5ea7\u5ddd\u753a","kind_detail":"town","source":"openstreetmap.org","min_zoom":8.0,"population":3084,"id":2558118857,"name:ja":"Kozagawa-ch\u014d"},"coordinates":[2374,1380]}]},"transit":{"type":"GeometryCollection","geometries":[{"type":"MultiLineString","properties":{"kind":"train","name:en":"Super Kuroshio","name":"\u30b9\u30fc\u30d1\u30fc\u304f\u308d\u3057\u304a","sort_rank":275,"source":"openstreetmap.org","min_zoom":6.0,"operator":"\u897f\u65e5\u672c\u65c5\u5ba2\u9244\u9053","ref":"\u30b9\u30fc\u30d1\u30fc\u304f\u308d\u3057\u304a","osm_relation":true},"arcs":[[17],[18],[19],[20],[21],[22],[23],[24],[25],[26],[27],[28],[29],[30],[31],[32],[33],[34],[35],[36],[37],[38],[39],[40],[41],[42],[43],[44],[45],[46],[47],[48],[49]]}]},"pois":{"type":"GeometryCollection","geometries":[]},"boundaries":{"type":"GeometryCollection","geometries":[{"type":"LineString","properties":{"name:ty":"T\u0101p\u014dn\u0113","name:ka":"\u10d8\u10d0\u10de\u10dd\u10dc\u10d8\u10d0","name:ko":"\uc77c\ubcf8","name:cv":"\u042f\u043f\u043e\u043d\u0438","name:cu":"\ua656\u043f\u0461\u043d\u0457\ua657","name:kl":"Japani","name:cs":"Japonsko","name:tw":"Yapan","name:ki":"Japan","name:kw":"Nihon","name:kv":"\u042f\u043f\u043e\u043d\u0438\u044f","name:th":"\u0e1b\u0e23\u0e30\u0e40\u0e17\u0e28\u0e0d\u0e35\u0e48\u0e1b\u0e38\u0e48\u0e19","name:ti":"\u1303\u1353\u1295","name:tl":"Hapon","name:ch":"Chapan","name:ce":"\u042f\u043f\u043e\u043d\u0438","name:ta":"\u0b9c\u0baa\u0bcd\u0baa\u0bbe\u0ba9\u0bcd","name:tg":"\u0416\u043e\u043f\u0443\u043d","name:ca":"Jap\u00f3","name:te":"\u0c1c\u0c2a\u0c3e\u0c28\u0c4d","name:cy":"Japan","name:qu":"Nihun","name:da":"Japan","name:de":"Japan","name:dz":"\u0f47\u0f71\u0f0b\u0f54\u0f71\u0f53\u0f0d","source":"openstreetmap.org","name:kn":"\u0c9c\u0caa\u0cbe\u0ca8\u0ccd","name:dv":"\u0796\u07a6\u0795\u07a7\u0782\u07aa","name:km":"\u1787\u1794\u17c9\u17bb\u1793","name:lv":"Jap\u0101na","name:lt":"Japonija","name:uz":"Yaponiya","name:kk":"\u0416\u0430\u043f\u043e\u043d\u0438\u044f","name:ur":"\u062c\u0627\u067e\u0627\u0646","name:lb":"Japan","name:la":"Iaponia","name:tt":"\u042f\u043f\u043e\u043d\u0438\u044f","name:uk":"\u042f\u043f\u043e\u043d\u0456\u044f","name:ug":"\u064a\u0627\u067e\u0648\u0646\u0649\u064a\u06d5","name:li":"Japan","name:ln":"Zap\u0254\u0301","name:lo":"\u0e9b\u0eb0\u0ec0\u0e97\u0e94\u0e8d\u0eb5\u0ec8\u0e9b\u0eb8\u0ec8\u0e99","name:el":"\u0399\u03b1\u03c0\u03c9\u03bd\u03af\u03b1","name:eo":"Japanujo","name:en":"Japan","name":"\u65e5\u672c","name:tk":"\u00ddaponi\u00fda","name:ee":"Japan","name:ku":"Japon","name:eu":"Japonia","name:et":"Jaapan","name:es":"Jap\u00f3n","name:ay":"Nihun","name:rm":"Giapun","name:az":"Yaponiya","name:ie":"Japan","name:id":"Jepang","name:ar":"\u0627\u0644\u064a\u0627\u0628\u0627\u0646","name:io":"Japonia","name:is":"Japan","name:am":"\u1303\u1353\u1295","name:it":"Giappone","name:an":"Chap\u00f3n","name:ru":"\u042f\u043f\u043e\u043d\u0438\u044f","name:ab":"\u0418\u0430\u043f\u043e\u043d\u0438\u0430","name:af":"Japan","name:zu":"IJapani","kind_detail":"2","name:za":"Nditbonj","name:so":"Jabaan","name:sm":"Iapani","name:sl":"Japonska","name:sk":"Japonsko","name:ja":"Nippon","name:si":"\u0da2\u0db4\u0dcf\u0db1\u0dba","name:sh":"Japan","name:se":"J\u00e1hpan","name:sd":"\u062c\u0627\u067e\u0627\u0646","name:sc":"Giappone","name:br":"Japan","name:bs":"Japan","name:bn":"\u099c\u09be\u09aa\u09be\u09a8","name:bo":"\u0f62\u0f72\u0f0b\u0f54\u0f72\u0f53\u0f0d","name:sa":"\u0938\u0942\u0930\u094d\u092f\u092e\u0942\u0932","name:sw":"Japani","name:be":"\u042f\u043f\u043e\u043d\u0456\u044f","name:su":"Jepang","name:bg":"\u042f\u043f\u043e\u043d\u0438\u044f","name:ss":"IJaphani","name:ba":"\u042f\u043f\u043e\u043d\u0438\u044f","name:sq":"Japonia","name:jv":"Jepang","name:ia":"Japon","name:pt":"Jap\u00e3o","name:ps":"\u062c\u0627\u067e\u0627\u0646","name:om":"Jaappaan","name:oc":"Japon","min_zoom":8.0,"name:ro":"Japonia","name:zh-min-nan":"Ji\u030dt-p\u00fan","name:os":"\u042f\u043f\u043e\u043d","name:or":"\u0b1c\u0b3e\u0b2a\u0b3e\u0b28","name:pl":"Japonia","sort_rank":262,"name:sr":"\u0408\u0430\u043f\u0430\u043d","osm_relation":true,"name:pa":"\u0a1c\u0a2a\u0a3e\u0a28","name:tr":"Japonya","name:hi":"\u091c\u093e\u092a\u093e\u0928","name:sv":"Japan","name:he":"\u05d9\u05e4\u05df","name:ha":"Japan","name:hy":"\u0543\u0561\u057a\u0578\u0576\u056b\u0561","name:ht":"Japon","name:hu":"Jap\u00e1n","name:hr":"Japan","kind":"country","name:yi":"\u05d9\u05d0\u05e4\u05d0\u05df","name:iu":"\u14c3\u1449\u140a\u14d0","name:yo":"Japan","name:mt":"\u0120appun","alt_name:eo":"Japanio","name:ms":"Jepun","name:mr":"\u091c\u092a\u093e\u0928","name:my":"\u1002\u103b\u1015\u1014\u103a\u1014\u102d\u102f\u1004\u103a\u1004\u1036","name:mg":"Japana","name:vi":"Nh\u1eadt B\u1ea3n","name:ml":"\u0d1c\u0d2a\u0d4d\u0d2a\u0d3e\u0d7b","name:mn":"\u042f\u043f\u043e\u043d","name:mi":"Nipono","id":-382313,"name:mk":"\u0408\u0430\u043f\u043e\u043d\u0438\u0458\u0430","name:vo":"Yap\u00e4n","name:fa":"\u0698\u0627\u067e\u0646","name:rw":"Ubuyapani","name:fi":"Japani","name:ky":"\u0416\u0430\u043f\u043e\u043d\u0438\u044f","old_name:vi":"Nh\u1eadt B\u1ed5n","name:fo":"Japan","alt_name:vi":"Nh\u1eadt","name:fr":"Japon","name:fy":"Japan","name:nl":"Japan","name:nn":"Japan","name:no":"Japan","name:na":"Djapan","name:ne":"\u091c\u093e\u092a\u093e\u0928","name:wo":"Sapo\u014b","name:nv":"Bina\u02bcadaa\u0142tz\u00f3z\u00ed Din\u00e9\u02bci\u02bc Bik\u00e9yah","name:ga":"An tSeap\u00e1in","name:gd":"An t-Seapan","name:gn":"Hap\u00f5","name:gl":"Xap\u00f3n","maritime_boundary":true,"name:gv":"Yn \u00c7hapaan","name:gu":"\u0a9c\u0abe\u0aaa\u0abe\u0aa8"},"arcs":[0]},{"type":"LineString","properties":{"name:right:ja":"Mie-ken","name:right:uk":"\u041f\u0440\u0435\u0444\u0435\u043a\u0442\u0443\u0440\u0430 \u041c\u0456\u0454","name:left:ja":"Wakayama-ken","id:right":-812190,"name:left:uk":"\u041f\u0440\u0435\u0444\u0435\u043a\u0442\u0443\u0440\u0430 \u0412\u0430\u043a\u0430\u044f\u043c\u0430","min_zoom":8.0,"name:left:en":"Wakayama Prefecture","name:left:ru":"\u0412\u0430\u043a\u0430\u044f\u043c\u0430","name:right:ru":"\u041c\u0438\u044d","name:right:pl":"Prefektura Mie","id":-908959,"osm_relation":true,"name:right":"\u4e09\u91cd\u770c","kind":"region","name:left:eo":"Vakajamo","name":"\u548c\u6b4c\u5c71\u770c - \u4e09\u91cd\u770c","source":"openstreetmap.org","sort_rank":256,"kind_detail":"4","name:right:en":"Mie Prefecture","name:left:pl":"Prefektura Wakayama","id:left":-908959,"name:left":"\u548c\u6b4c\u5c71\u770c"},"arcs":[1]},{"type":"LineString","properties":{"name:right:ja":"Mie-ken","name":"\u548c\u6b4c\u5c71\u770c - \u4e09\u91cd\u770c","name:right:uk":"\u041f\u0440\u0435\u0444\u0435\u043a\u0442\u0443\u0440\u0430 \u041c\u0456\u0454","name:left:ja":"Wakayama-ken","id:right":-812190,"name:left:uk":"\u041f\u0440\u0435\u0444\u0435\u043a\u0442\u0443\u0440\u0430 \u0412\u0430\u043a\u0430\u044f\u043c\u0430","min_zoom":8.0,"name:left:pl":"Prefektura Wakayama","name:left:ru":"\u0412\u0430\u043a\u0430\u044f\u043c\u0430","name:right:ru":"\u041c\u0438\u044d","name:right:pl":"Prefektura Mie","id":-908959,"osm_relation":true,"name:right":"\u4e09\u91cd\u770c","kind":"region","name:left:eo":"Vakajamo","name:left:en":"Wakayama Prefecture","sort_rank":256,"kind_detail":"4","name:right:en":"Mie Prefecture","source":"openstreetmap.org","maritime_boundary":true,"id:left":-908959,"name:left":"\u548c\u6b4c\u5c71\u770c"},"arcs":[2]},{"type":"LineString","properties":{"name:right:ja":"Nara-ken","name:right:uk":"\u041f\u0440\u0435\u0444\u0435\u043a\u0442\u0443\u0440\u0430 \u041d\u0430\u0440\u0430","name:left:ja":"Wakayama-ken","id:right":-358631,"name:left:uk":"\u041f\u0440\u0435\u0444\u0435\u043a\u0442\u0443\u0440\u0430 \u0412\u0430\u043a\u0430\u044f\u043c\u0430","min_zoom":8.0,"name:left:en":"Wakayama Prefecture","name:left:ru":"\u0412\u0430\u043a\u0430\u044f\u043c\u0430","name:right:ru":"\u041d\u0430\u0440\u0430","name:right:pl":"Prefektura Nara","id":-908959,"osm_relation":true,"name:right":"\u5948\u826f\u770c","kind":"region","name:left:eo":"Vakajamo","name":"\u548c\u6b4c\u5c71\u770c - \u5948\u826f\u770c","source":"openstreetmap.org","sort_rank":256,"kind_detail":"4","name:right:en":"Nara Prefecture","name:left:pl":"Prefektura Wakayama","id:left":-908959,"name:left":"\u548c\u6b4c\u5c71\u770c"},"arcs":[3]},{"type":"LineString","properties":{"name:right:ja":"Hy\u014dgo-ken","name:right:uk":"\u041f\u0440\u0435\u0444\u0435\u043a\u0442\u0443\u0440\u0430 \u0425\u044c\u043e\u0491\u043e","name:left:ja":"Wakayama-ken","id:right":-356912,"name:left:uk":"\u041f\u0440\u0435\u0444\u0435\u043a\u0442\u0443\u0440\u0430 \u0412\u0430\u043a\u0430\u044f\u043c\u0430","min_zoom":8.0,"id:left":-908959,"name:left:en":"Wakayama Prefecture","name:left:ru":"\u0412\u0430\u043a\u0430\u044f\u043c\u0430","name:right:ru":"\u0425\u0451\u0433\u043e","name:right:pl":"Prefektura Hy\u014dgo","id":-908959,"osm_relation":true,"name:right":"\u5175\u5eab\u770c","kind":"region","name:left:eo":"Vakajamo","name":"\u548c\u6b4c\u5c71\u770c - \u5175\u5eab\u770c","source":"openstreetmap.org","sort_rank":256,"name:right:eo":"Gubernio Hjogo","name:right:en":"Hyogo Prefecture","name:left:pl":"Prefektura Wakayama","kind_detail":"4","name:left":"\u548c\u6b4c\u5c71\u770c"},"arcs":[4]},{"type":"MultiLineString","properties":{"name:right:ja":"\u014csaka-fu","name:right:uk":"\u041f\u0440\u0435\u0444\u0435\u043a\u0442\u0443\u0440\u0430 \u041e\u0441\u0430\u043a\u0430","name:left:ja":"Wakayama-ken","name:right:ko":"\uc624\uc0ac\uce74 \ubd80","id:right":-341906,"name:left:uk":"\u041f\u0440\u0435\u0444\u0435\u043a\u0442\u0443\u0440\u0430 \u0412\u0430\u043a\u0430\u044f\u043c\u0430","min_zoom":8.0,"name:left:en":"Wakayama Prefecture","name:left:ru":"\u0412\u0430\u043a\u0430\u044f\u043c\u0430","name:right:ru":"\u041e\u0441\u0430\u043a\u0430","name:right:pl":"Prefektura Osaka","id":-908959,"osm_relation":true,"name:right":"\u5927\u962a\u5e9c","kind":"region","name:left:eo":"Vakajamo","name":"\u548c\u6b4c\u5c71\u770c - \u5927\u962a\u5e9c","source":"openstreetmap.org","sort_rank":256,"kind_detail":"4","name:right:en":"Osaka Prefecture","name:left:pl":"Prefektura Wakayama","id:left":-908959,"name:right:fi":"Osakan prefektuuri","name:left":"\u548c\u6b4c\u5c71\u770c"},"arcs":[[5],[6],[7]]},{"type":"LineString","properties":{"kind":"region","name:en":"Wakayama Prefecture","name":"\u548c\u6b4c\u5c71\u770c","sort_rank":256,"kind_detail":"4","name:eo":"Vakajamo","id":-908959,"source":"openstreetmap.org","maritime_boundary":true,"name:uk":"\u041f\u0440\u0435\u0444\u0435\u043a\u0442\u0443\u0440\u0430 \u0412\u0430\u043a\u0430\u044f\u043c\u0430","name:ru":"\u0412\u0430\u043a\u0430\u044f\u043c\u0430","min_zoom":8.0,"name:pl":"Prefektura Wakayama","osm_relation":true,"name:ja":"Wakayama-ken"},"arcs":[8]},{"type":"MultiLineString","properties":{"name:right:ja":"Nara-ken","name:right:uk":"\u041f\u0440\u0435\u0444\u0435\u043a\u0442\u0443\u0440\u0430 \u041d\u0430\u0440\u0430","name:left:ja":"Mie-ken","id:right":-358631,"name:left:uk":"\u041f\u0440\u0435\u0444\u0435\u043a\u0442\u0443\u0440\u0430 \u041c\u0456\u0454","min_zoom":8.0,"name:left:en":"Mie Prefecture","name:left:ru":"\u041c\u0438\u044d","name:right:ru":"\u041d\u0430\u0440\u0430","name:right:pl":"Prefektura Nara","id":-812190,"osm_relation":true,"name:right":"\u5948\u826f\u770c","kind":"region","name":"\u4e09\u91cd\u770c - \u5948\u826f\u770c","source":"openstreetmap.org","sort_rank":256,"kind_detail":"4","name:right:en":"Nara Prefecture","name:left:pl":"Prefektura Mie","id:left":-812190,"name:left":"\u4e09\u91cd\u770c"},"arcs":[[9],[10],[11]]},{"type":"MultiLineString","properties":{"kind":"region","name:en":"Mie Prefecture","name":"\u4e09\u91cd\u770c","sort_rank":256,"kind_detail":"4","source":"openstreetmap.org","min_zoom":8.0,"name:uk":"\u041f\u0440\u0435\u0444\u0435\u043a\u0442\u0443\u0440\u0430 \u041c\u0456\u0454","name:ru":"\u041c\u0438\u044d","name:pl":"Prefektura Mie","id":-812190,"osm_relation":true,"name:ja":"Mie-ken"},"arcs":[[12],[13]]},{"type":"LineString","properties":{"kind":"region","name:en":"Mie Prefecture","name":"\u4e09\u91cd\u770c","sort_rank":256,"kind_detail":"4","min_zoom":8.0,"source":"openstreetmap.org","maritime_boundary":true,"name:uk":"\u041f\u0440\u0435\u0444\u0435\u043a\u0442\u0443\u0440\u0430 \u041c\u0456\u0454","name:ru":"\u041c\u0438\u044d","name:pl":"Prefektura Mie","id":-812190,"osm_relation":true,"name:ja":"Mie-ken"},"arcs":[14]},{"type":"MultiLineString","properties":{"kind":"region","name:en":"Nara Prefecture","name":"\u5948\u826f\u770c","sort_rank":256,"kind_detail":"4","source":"openstreetmap.org","min_zoom":8.0,"name:uk":"\u041f\u0440\u0435\u0444\u0435\u043a\u0442\u0443\u0440\u0430 \u041d\u0430\u0440\u0430","name:ru":"\u041d\u0430\u0440\u0430","name:pl":"Prefektura Nara","id":-358631,"osm_relation":true,"name:ja":"Nara-ken"},"arcs":[[15],[16]]}]},"roads":{"type":"GeometryCollection","geometries":[{"type":"MultiLineString","properties":{"kind":"major_road","name:en":"National Route 309","network":"JP:national","sort_rank":381,"kind_detail":"trunk","source":"openstreetmap.org","min_zoom":8.0,"shield_text":"309","ref":"309"},"arcs":[[55],[56],[57],[58],[59],[60],[61],[62],[63],[64],[65],[66],[67]]},{"type":"LineString","properties":{"kind":"major_road","name:en":"Kumano Kaido; National Route 42","sort_rank":381,"kind_detail":"trunk","source":"openstreetmap.org","min_zoom":8.0,"ref":"42","id":125875119},"arcs":[68]},{"type":"LineString","properties":{"source":"openstreetmap.org","kind":"major_road","sort_rank":381,"kind_detail":"trunk","ref":"168;53","min_zoom":8.0},"arcs":[69]},{"type":"LineString","properties":{"source":"openstreetmap.org","kind":"major_road","sort_rank":380,"kind_detail":"primary","ref":"26","min_zoom":8.0},"arcs":[70]},{"type":"LineString","properties":{"source":"openstreetmap.org","kind":"highway","sort_rank":383,"kind_detail":"motorway","ref":"26","min_zoom":8.0},"arcs":[71]},{"type":"MultiLineString","properties":{"source":"openstreetmap.org","kind":"major_road","sort_rank":380,"kind_detail":"primary","ref":"43","min_zoom":8.0},"arcs":[[72],[73]]},{"type":"LineString","properties":{"kind":"major_road","name:ja":"National Route 168 & 311","sort_rank":381,"kind_detail":"trunk","source":"openstreetmap.org","min_zoom":8.0,"ref":"168;311","id":129178379},"arcs":[74]},{"type":"MultiLineString","properties":{"source":"openstreetmap.org","kind":"major_road","sort_rank":381,"kind_detail":"trunk","ref":"168","min_zoom":8.0},"arcs":[[75],[76],[77],[78],[79],[80],[81],[82],[83],[84],[85],[86],[87],[88],[89],[90],[91],[92],[93],[94],[95],[96],[97],[98],[99]]},{"type":"MultiLineString","properties":{"kind":"major_road","name:en":"National Route 169","network":"JP:national","sort_rank":381,"kind_detail":"trunk","source":"openstreetmap.org","min_zoom":8.0,"shield_text":"169","ref":"169;309"},"arcs":[[100],[101],[102],[103],[104],[105],[106],[107],[108],[109],[110],[111]]},{"type":"MultiLineString","properties":{"source":"openstreetmap.org","kind":"major_road","name:en":"National Route 311","sort_rank":381,"kind_detail":"trunk","ref":"311","min_zoom":8.0},"arcs":[[112],[113],[114],[115],[116],[117],[118],[119],[120],[121],[122],[123],[124],[125]]},{"type":"LineString","properties":{"source":"openstreetmap.org","kind":"major_road","ref":"371","sort_rank":381,"kind_detail":"trunk","is_bicycle_related":true,"min_zoom":8.0},"arcs":[126]},{"type":"LineString","properties":{"kind":"major_road","name:en":"Kumano Kaido; National Route 42; National Route 42","network":"JP:national","sort_rank":381,"kind_detail":"trunk","source":"openstreetmap.org","min_zoom":8.0,"shield_text":"42","ref":"42","id":244135661},"arcs":[127]},{"type":"MultiLineString","properties":{"source":"openstreetmap.org","kind":"major_road","landuse_kind":"urban_area","sort_rank":380,"kind_detail":"primary","ref":"22","min_zoom":8.0},"arcs":[[128],[129],[130]]},{"type":"MultiLineString","properties":{"kind":"major_road","network":"JP:national","sort_rank":381,"landuse_kind":"urban_area","source":"openstreetmap.org","min_zoom":8.0,"kind_detail":"trunk","shield_text":"42","ref":"42"},"arcs":[[131],[132],[133],[134],[135],[136],[137],[138]]},{"type":"MultiLineString","properties":{"source":"openstreetmap.org","kind":"major_road","sort_rank":380,"kind_detail":"primary","ref":"27","min_zoom":8.0},"arcs":[[139],[140]]},{"type":"LineString","properties":{"source":"openstreetmap.org","kind":"major_road","sort_rank":380,"kind_detail":"primary","ref":"41","min_zoom":8.0},"arcs":[141]},{"type":"LineString","properties":{"kind":"highway","name:en":"Shioya Tunnel","name:ja":"\u3057\u304a\u3084\u3068\u3093\u306d\u308b","sort_rank":383,"kind_detail":"motorway","source":"openstreetmap.org","min_zoom":8.0,"landuse_kind":"urban_area","ref":"E42","id":538156901},"arcs":[142]},{"type":"LineString","properties":{"source":"openstreetmap.org","kind":"major_road","landuse_kind":"urban_area","sort_rank":380,"kind_detail":"primary","ref":"23","min_zoom":8.0},"arcs":[143]},{"type":"MultiLineString","properties":{"source":"openstreetmap.org","kind":"major_road","sort_rank":380,"kind_detail":"primary","ref":"52","min_zoom":8.0},"arcs":[[144],[145]]},{"type":"LineString","properties":{"kind":"highway","network":"JP:national","sort_rank":383,"kind_detail":"motorway","source":"openstreetmap.org","min_zoom":8.0,"all_networks":["JP:national"],"shield_text":"42","ref":"42","id":239531058,"all_shield_texts":["42"]},"arcs":[146]},{"type":"MultiLineString","properties":{"source":"openstreetmap.org","kind":"major_road","name:en":"Mount Omine Parkway","sort_rank":380,"kind_detail":"primary","ref":"21","min_zoom":8.0},"arcs":[[147],[148],[149]]},{"type":"LineString","properties":{"source":"openstreetmap.org","kind":"major_road","name:en":"National Route 422","sort_rank":381,"kind_detail":"trunk","ref":"422","min_zoom":8.0},"arcs":[150]},{"type":"LineString","properties":{"kind":"highway","name:en":"Negoro Tunnel","name:ja":"\u306d\u3054\u308d\u3068\u3093\u306d\u308b","sort_rank":383,"kind_detail":"motorway","source":"openstreetmap.org","min_zoom":8.0,"ref":"E24","id":377715072},"arcs":[151]},{"type":"LineString","properties":{"source":"openstreetmap.org","kind":"major_road","landuse_kind":"urban_area","sort_rank":380,"kind_detail":"primary","ref":"36","min_zoom":8.0},"arcs":[152]},{"type":"MultiLineString","properties":{"kind":"major_road","sort_rank":380,"kind_detail":"primary","is_bicycle_related":true,"bicycle_shield_text":"R-1","bicycle_network":"lcn","source":"openstreetmap.org","min_zoom":8.0,"landuse_kind":"urban_area","ref":"13"},"arcs":[[153],[154],[155],[156],[157]]},{"type":"MultiLineString","properties":{"source":"openstreetmap.org","kind":"major_road","kind_detail":"trunk","sort_rank":381,"landuse_kind":"urban_area","ref":"480","min_zoom":8.0},"arcs":[[158],[159],[160],[161],[162],[163]]},{"type":"LineString","properties":{"source":"openstreetmap.org","kind":"major_road","sort_rank":380,"kind_detail":"primary","ref":"44","min_zoom":8.0},"arcs":[164]},{"type":"MultiLineString","properties":{"source":"openstreetmap.org","kind":"major_road","landuse_kind":"urban_area","sort_rank":380,"kind_detail":"primary","ref":"20","min_zoom":8.0},"arcs":[[165],[166],[167],[168]]},{"type":"LineString","properties":{"kind":"major_road","name:en":"National Highway Rte 370","cycleway_left":"track","sort_rank":381,"kind_detail":"trunk","is_bicycle_related":true,"source":"openstreetmap.org","min_zoom":8.0,"landuse_kind":"urban_area","ref":"370","id":390164688},"arcs":[169]},{"type":"MultiLineString","properties":{"source":"openstreetmap.org","kind":"major_road","name:en":"National Route 480","sort_rank":381,"kind_detail":"trunk","ref":"480","min_zoom":8.0},"arcs":[[170],[171],[172],[173],[174]]},{"type":"LineString","properties":{"kind":"highway","sort_rank":383,"landuse_kind":"urban_area","source":"openstreetmap.org","min_zoom":8.0,"kind_detail":"motorway","ref":"E42","id":403885912},"arcs":[175]},{"type":"MultiLineString","properties":{"kind":"highway","name:en":"Hanwa Expressway","sort_rank":383,"kind_detail":"motorway","source":"openstreetmap.org","min_zoom":8.0,"landuse_kind":"urban_area","ref":"E42"},"arcs":[[176],[177],[178],[179],[180],[181],[182],[183],[184],[185],[186]]},{"type":"MultiLineString","properties":{"source":"openstreetmap.org","kind":"major_road","kind_detail":"trunk","sort_rank":381,"landuse_kind":"urban_area","min_zoom":8.0},"arcs":[[187],[188]]},{"type":"LineString","properties":{"kind":"major_road","name:en":"Kumano Kaido","sort_rank":380,"kind_detail":"primary","source":"openstreetmap.org","min_zoom":8.0,"landuse_kind":"urban_area","ref":"31"},"arcs":[189]},{"type":"MultiLineString","properties":{"source":"openstreetmap.org","kind":"major_road","landuse_kind":"urban_area","sort_rank":380,"kind_detail":"primary","ref":"24","min_zoom":8.0},"arcs":[[190],[191]]},{"type":"LineString","properties":{"kind":"highway","network":"JP:national","sort_rank":383,"kind_detail":"motorway","source":"openstreetmap.org","min_zoom":8.0,"all_networks":["JP:national"],"shield_text":"42","ref":"E42","all_shield_texts":["42"]},"arcs":[192]},{"type":"LineString","properties":{"source":"openstreetmap.org","kind":"major_road","landuse_kind":"urban_area","sort_rank":380,"kind_detail":"primary","ref":"3","min_zoom":8.0},"arcs":[193]},{"type":"LineString","properties":{"kind":"major_road","name:en":"National Route 370","name:ja":"\u56fd\u9053370\u53f7\u7dda","sort_rank":381,"kind_detail":"trunk","is_bicycle_related":true,"bicycle_shield_text":"R-1","bicycle_network":"lcn","source":"openstreetmap.org","min_zoom":8.0,"landuse_kind":"urban_area","ref":"370","id":432844124},"arcs":[194]},{"type":"LineString","properties":{"kind":"highway","name:en":"National Route 26","name:ja":"\u56fd\u905326\u53f7","sort_rank":383,"landuse_kind":"urban_area","source":"openstreetmap.org","min_zoom":8.0,"kind_detail":"motorway","ref":"26"},"arcs":[195]},{"type":"MultiLineString","properties":{"kind":"major_road","name:en":"National Route 169","network":"JP:national","sort_rank":381,"kind_detail":"trunk","source":"openstreetmap.org","min_zoom":8.0,"shield_text":"169","ref":"169"},"arcs":[[196],[197],[198],[199],[200],[201],[202],[203],[204],[205],[206],[207],[208],[209],[210],[211],[212],[213],[214],[215],[216],[217],[218],[219],[220]]},{"type":"MultiLineString","properties":{"source":"openstreetmap.org","kind":"major_road","landuse_kind":"urban_area","sort_rank":380,"kind_detail":"primary","ref":"34","min_zoom":8.0},"arcs":[[221],[222],[223]]},{"type":"LineString","properties":{"kind":"highway","name:en":"Umenosato Tunnel","name:ja":"\u3046\u3081\u306e\u3055\u3068\u3068\u3093\u306d\u308b","sort_rank":383,"kind_detail":"motorway","source":"openstreetmap.org","min_zoom":8.0,"landuse_kind":"urban_area","ref":"E42","id":52975973},"arcs":[224]},{"type":"LineString","properties":{"source":"openstreetmap.org","kind":"major_road","name:en":"National Route 370","sort_rank":381,"kind_detail":"trunk","ref":"370","min_zoom":8.0},"arcs":[225]},{"type":"LineString","properties":{"kind":"major_road","name:en":"Kumano Kaido; National Route 42","sort_rank":381,"landuse_kind":"urban_area","source":"openstreetmap.org","min_zoom":8.0,"kind_detail":"trunk","ref":"42"},"arcs":[226]},{"type":"LineString","properties":{"source":"openstreetmap.org","kind":"major_road","landuse_kind":"urban_area","sort_rank":380,"kind_detail":"primary","ref":"65","min_zoom":8.0},"arcs":[227]},{"type":"MultiLineString","properties":{"source":"openstreetmap.org","kind":"major_road","sort_rank":380,"kind_detail":"primary","ref":"28","min_zoom":8.0},"arcs":[[228],[229]]},{"type":"LineString","properties":{"source":"openstreetmap.org","kind":"major_road","sort_rank":380,"kind_detail":"primary","ref":"65","min_zoom":8.0},"arcs":[230]},{"type":"LineString","properties":{"source":"openstreetmap.org","kind":"highway","sort_rank":383,"kind_detail":"motorway","ref":"E24","min_zoom":8.0,"id":390359179},"arcs":[231]},{"type":"MultiLineString","properties":{"kind":"highway","name:en":"Hanwa Expressway","sort_rank":383,"landuse_kind":"urban_area","source":"openstreetmap.org","min_zoom":8.0,"kind_detail":"motorway","name:ru":"\u0410\u0432\u0442\u043e\u043c\u0430\u0433\u0438\u0441\u0442\u0440\u0430\u043b\u044c \u0425\u0430\u043d\u0432\u0430","ref":"E42"},"arcs":[[232],[233],[234],[235],[236],[237]]},{"type":"LineString","properties":{"source":"openstreetmap.org","kind":"major_road","sort_rank":380,"kind_detail":"primary","ref":"53;733","min_zoom":8.0},"arcs":[238]},{"type":"LineString","properties":{"source":"openstreetmap.org","kind":"major_road","sort_rank":380,"kind_detail":"primary","ref":"70","min_zoom":8.0},"arcs":[239]},{"type":"LineString","properties":{"kind":"major_road","name:en":"National Route 425","network":"JP:national","sort_rank":381,"kind_detail":"trunk","source":"openstreetmap.org","min_zoom":8.0,"shield_text":"425","ref":"425"},"arcs":[240]},{"type":"MultiLineString","properties":{"source":"openstreetmap.org","kind":"major_road","name:en":"National Route 169","sort_rank":381,"kind_detail":"trunk","ref":"169","min_zoom":8.0},"arcs":[[241],[242],[243]]},{"type":"LineString","properties":{"kind":"major_road","name:en":"National Route 24","sort_rank":381,"kind_detail":"trunk","source":"openstreetmap.org","min_zoom":8.0,"old_name":"\u5927\u548c\u8857\u9053 (Yamato Kaid\u014d)","landuse_kind":"urban_area","ref":"24","id":129642080},"arcs":[244]},{"type":"MultiLineString","properties":{"kind":"major_road","name:en":"National Route 26","name:ja":"\u56fd\u905326\u53f7","sort_rank":381,"landuse_kind":"urban_area","source":"openstreetmap.org","min_zoom":8.0,"kind_detail":"trunk","shield_text":"26","ref":"26","network":"JP:national"},"arcs":[[245],[246],[247]]},{"type":"LineString","properties":{"source":"openstreetmap.org","kind":"major_road","landuse_kind":"urban_area","sort_rank":380,"kind_detail":"primary","ref":"62","min_zoom":8.0},"arcs":[248]},{"type":"LineString","properties":{"kind":"major_road","sort_rank":381,"kind_detail":"trunk","is_bicycle_related":true,"cycleway":"track","source":"openstreetmap.org","min_zoom":8.0,"landuse_kind":"urban_area","ref":"370","id":129597914},"arcs":[249]},{"type":"LineString","properties":{"kind":"highway","name:en":"Keinawa Expressway;Kihoku-East Rd.","name:ja":"Keinawa Jid\u014dsha-d\u014d;Kihoku-higashi Douro","sort_rank":383,"kind_detail":"motorway","source":"openstreetmap.org","min_zoom":8.0,"ref":"E24"},"arcs":[250]},{"type":"MultiLineString","properties":{"source":"openstreetmap.org","kind":"major_road","landuse_kind":"urban_area","sort_rank":380,"kind_detail":"primary","ref":"4","min_zoom":8.0},"arcs":[[251],[252]]},{"type":"LineString","properties":{"kind":"major_road","name:en":"National Route 42","name:ja":"\u56fd\u905342\u53f7","sort_rank":381,"landuse_kind":"urban_area","source":"openstreetmap.org","min_zoom":8.0,"kind_detail":"trunk","shield_text":"42","ref":"42","network":"JP:national"},"arcs":[253]},{"type":"LineString","properties":{"kind":"major_road","network":null,"sort_rank":381,"kind_detail":"trunk","source":"openstreetmap.org","min_zoom":8.0,"shield_text":"311","ref":"311","id":129178421},"arcs":[254]},{"type":"LineString","properties":{"kind":"major_road","name:en":"Wakayama Rte 29 Tanabe - Ryujin Highway","sort_rank":380,"kind_detail":"primary","source":"openstreetmap.org","min_zoom":8.0,"landuse_kind":"urban_area","ref":"29","id":62227599},"arcs":[255]},{"type":"MultiLineString","properties":{"source":"openstreetmap.org","kind":"major_road","name:ja":"\u56fd\u9053370\u53f7\u7dda","sort_rank":381,"kind_detail":"trunk","ref":"370","min_zoom":8.0},"arcs":[[256],[257],[258],[259],[260],[261],[262],[263],[264],[265],[266],[267]]},{"type":"MultiLineString","properties":{"source":"openstreetmap.org","kind":"major_road","landuse_kind":"urban_area","sort_rank":380,"kind_detail":"primary","ref":"64","min_zoom":8.0},"arcs":[[268],[269],[270],[271],[272],[273],[274]]},{"type":"LineString","properties":{"kind":"highway","name:en":"Shimada Tunnel","name:ja":"\u3057\u307e\u3060\u3068\u3093\u306d\u308b","sort_rank":383,"kind_detail":"motorway","source":"openstreetmap.org","min_zoom":8.0,"ref":"E42","id":26513408},"arcs":[275]},{"type":"LineString","properties":{"kind":"highway","name:en":"Susamigawa Bridge","name:ja":"\u3059\u3055\u307f\u304c\u308f\u3070\u3057","sort_rank":383,"kind_detail":"motorway","source":"openstreetmap.org","min_zoom":8.0,"ref":"E42","id":377712929},"arcs":[276]},{"type":"LineString","properties":{"kind":"highway","name:en":"Nanki-Tanabe Tunnel","name:ja":"\u306a\u3093\u304d\u305f\u306a\u3079\u3068\u3093\u306d\u308b","sort_rank":383,"kind_detail":"motorway","source":"openstreetmap.org","min_zoom":8.0,"landuse_kind":"urban_area","ref":"E42","id":52975975},"arcs":[277]},{"type":"MultiLineString","properties":{"kind":"major_road","name:en":"National Highway Route 425","network":"JP:national","sort_rank":381,"kind_detail":"trunk","official_name":"\u4e00\u822c\u56fd\u9053425\u53f7","source":"openstreetmap.org","min_zoom":8.0,"shield_text":"425","osm_relation":true},"arcs":[[278],[279],[280],[281],[282],[283],[284],[285],[286]]},{"type":"LineString","properties":{"kind":"highway","name:en":"Kawabe No.2 Tunnel","network":null,"sort_rank":383,"kind_detail":"motorway","source":"openstreetmap.org","min_zoom":8.0,"all_networks":[null],"shield_text":"42","ref":"E42","id":26513402,"all_shield_texts":["42"],"name:ja":"\u304b\u308f\u3079\u3060\u3044\u306b\u3068\u3093\u306d\u308b"},"arcs":[287]},{"type":"MultiLineString","properties":{"source":"openstreetmap.org","kind":"major_road","sort_rank":380,"kind_detail":"primary","ref":"53","min_zoom":8.0},"arcs":[[288],[289],[290],[291],[292],[293],[294],[295],[296]]},{"type":"LineString","properties":{"kind":"major_road","name:ja":"National Route 24","sort_rank":381,"kind_detail":"trunk","source":"openstreetmap.org","min_zoom":8.0,"landuse_kind":"urban_area","ref":"24","id":139473203},"arcs":[297]},{"type":"LineString","properties":{"source":"openstreetmap.org","kind":"major_road","sort_rank":381,"kind_detail":"trunk","ref":"180","min_zoom":8.0},"arcs":[298]},{"type":"LineString","properties":{"kind":"major_road","name:en":"National Route 371","name:ja":"\u56fd\u9053371\u53f7","sort_rank":381,"kind_detail":"trunk","source":"openstreetmap.org","min_zoom":8.0,"ref":"371"},"arcs":[299]},{"type":"LineString","properties":{"kind":"major_road","name:ja":"\u56fd\u9053370\u53f7\u7dda","sort_rank":381,"kind_detail":"trunk","is_bicycle_related":true,"cycleway":"track","source":"openstreetmap.org","min_zoom":8.0,"landuse_kind":"urban_area","ref":"370","id":390164687},"arcs":[300]},{"type":"LineString","properties":{"kind":"major_road","name:en":"National Route 370","name:ja":"\u56fd\u9053370\u53f7\u7dda","sort_rank":381,"kind_detail":"trunk","source":"openstreetmap.org","min_zoom":8.0,"ref":"370","id":126033661},"arcs":[301]},{"type":"MultiLineString","properties":{"source":"openstreetmap.org","kind":"major_road","landuse_kind":"urban_area","sort_rank":380,"kind_detail":"primary","ref":"33","min_zoom":8.0},"arcs":[[302],[303],[304],[305]]},{"type":"LineString","properties":{"kind":"major_road","network":"JP:national","sort_rank":381,"kind_detail":"trunk","source":"openstreetmap.org","min_zoom":8.0,"shield_text":"425","ref":"371"},"arcs":[306]},{"type":"LineString","properties":{"source":"openstreetmap.org","kind":"major_road","sort_rank":380,"kind_detail":"primary","ref":"33","min_zoom":8.0},"arcs":[307]},{"type":"LineString","properties":{"kind":"major_road","name:en":"Kumano Kaido; National Route 42 & 311","network":"JP:national","sort_rank":381,"kind_detail":"trunk","source":"openstreetmap.org","min_zoom":8.0,"shield_text":"42","ref":"42;311"},"arcs":[308]},{"type":"MultiLineString","properties":{"source":"openstreetmap.org","kind":"major_road","sort_rank":380,"kind_detail":"primary","ref":"63","min_zoom":8.0},"arcs":[[309],[310]]},{"type":"MultiLineString","properties":{"source":"openstreetmap.org","kind":"highway","name:en":"Kisei Expressway","name:ja":"\u304d\u305b\u3044\u3058\u3069\u3046\u3057\u3083\u3069\u3046","sort_rank":383,"kind_detail":"motorway","min_zoom":8.0},"arcs":[[311],[312],[313],[314],[315],[316],[317],[318]]},{"type":"MultiLineString","properties":{"source":"openstreetmap.org","kind":"major_road","sort_rank":380,"kind_detail":"primary","ref":"29","min_zoom":8.0},"arcs":[[319],[320],[321],[322],[323]]},{"type":"MultiLineString","properties":{"kind":"major_road","name:en":"Kumano Kaido; National Route 42","network":"JP:national","sort_rank":381,"kind_detail":"trunk","source":"openstreetmap.org","min_zoom":8.0,"shield_text":"42","ref":"42"},"arcs":[[324],[325],[326],[327],[328],[329],[330],[331],[332],[333],[334],[335],[336],[337],[338],[339],[340],[341]]},{"type":"MultiLineString","properties":{"source":"openstreetmap.org","kind":"major_road","sort_rank":381,"kind_detail":"trunk","ref":"480","min_zoom":8.0},"arcs":[[342],[343],[344],[345],[346],[347],[348],[349],[350],[351],[352],[353],[354],[355]]},{"type":"MultiLineString","properties":{"source":"openstreetmap.org","kind":"major_road","sort_rank":380,"kind_detail":"primary","ref":"18","min_zoom":8.0},"arcs":[[356],[357]]},{"type":"LineString","properties":{"kind":"major_road","name:en":"Kumano Kaido;National Route 42","network":"JP:national","sort_rank":381,"kind_detail":"trunk","is_bicycle_related":true,"bicycle_shield_text":"801","bicycle_network":"rcn","source":"openstreetmap.org","min_zoom":8.0,"shield_text":"42","ref":"42"},"arcs":[358]},{"type":"MultiLineString","properties":{"source":"openstreetmap.org","kind":"major_road","landuse_kind":"urban_area","sort_rank":380,"kind_detail":"primary","ref":"13","min_zoom":8.0},"arcs":[[359],[360],[361],[362],[363],[364],[365],[366],[367],[368],[369],[370],[371]]},{"type":"MultiLineString","properties":{"kind":"major_road","name:en":"Kumano Kaido; National Highway Rte 424","name:ja":"\u718a\u91ce\u8857\u9053; \u56fd\u9053424\u53f7","sort_rank":381,"landuse_kind":"urban_area","source":"openstreetmap.org","min_zoom":8.0,"kind_detail":"trunk","ref":"424"},"arcs":[[372],[373]]},{"type":"MultiLineString","properties":{"source":"openstreetmap.org","kind":"major_road","sort_rank":381,"kind_detail":"trunk","ref":"425","min_zoom":8.0},"arcs":[[374],[375],[376],[377],[378],[379],[380]]},{"type":"MultiLineString","properties":{"kind":"major_road","name:en":"National Route 168","network":"JP:national","sort_rank":381,"kind_detail":"trunk","source":"openstreetmap.org","min_zoom":8.0,"shield_text":"425","ref":"168"},"arcs":[[381],[382],[383]]},{"type":"MultiLineString","properties":{"kind":"highway","name:en":"Keinawa Expressway;Kihoku-East Rd.","name:ja":"Keinawa Jid\u014dsha-d\u014d;Kihoku-higashi Douro","sort_rank":383,"landuse_kind":"urban_area","source":"openstreetmap.org","min_zoom":8.0,"kind_detail":"motorway","ref":"E24"},"arcs":[[384],[385]]},{"type":"LineString","properties":{"kind":"highway","name:en":"Hidakagawa Bridge","network":null,"sort_rank":383,"kind_detail":"motorway","source":"openstreetmap.org","min_zoom":8.0,"all_networks":[null],"landuse_kind":"urban_area","shield_text":"42","ref":"E42","id":458061796,"all_shield_texts":["42"],"name:ja":"\u3072\u3060\u304b\u304c\u308f\u3070\u3057"},"arcs":[386]},{"type":"MultiLineString","properties":{"kind":"major_road","name:en":"Prefectural Road 13","sort_rank":380,"kind_detail":"primary","is_bicycle_related":true,"bicycle_shield_text":"R-1","bicycle_network":"lcn","source":"openstreetmap.org","min_zoom":8.0,"landuse_kind":"urban_area","ref":"13"},"arcs":[[387],[388]]},{"type":"MultiLineString","properties":{"source":"openstreetmap.org","kind":"major_road","name:en":"Route 480","sort_rank":381,"kind_detail":"trunk","ref":"480","min_zoom":8.0},"arcs":[[389],[390]]},{"type":"LineString","properties":{"kind":"major_road","name:en":"National Route 168","name:ja":"\u56fd\u9053168\u53f7","sort_rank":381,"kind_detail":"trunk","source":"openstreetmap.org","min_zoom":8.0,"ref":"168"},"arcs":[391]},{"type":"LineString","properties":{"kind":"major_road","name:en":"National Route 311","name:ja":"\u56fd\u9053311\u53f7","sort_rank":381,"kind_detail":"trunk","source":"openstreetmap.org","min_zoom":8.0,"landuse_kind":"urban_area","ref":"311","id":125992529},"arcs":[392]},{"type":"LineString","properties":{"kind":"highway","name:en":"Kisei Expressway","name:ja":"\u304d\u305b\u3044\u3058\u3069\u3046\u3057\u3083\u3069\u3046","sort_rank":383,"kind_detail":"motorway","source":"openstreetmap.org","min_zoom":8.0,"landuse_kind":"urban_area","id":364714341},"arcs":[393]},{"type":"LineString","properties":{"kind":"major_road","name:en":"National Route 480","name:ja":"\u56fd\u9053480\u53f7","sort_rank":381,"kind_detail":"trunk","source":"openstreetmap.org","min_zoom":8.0,"ref":"480","id":129642223},"arcs":[394]},{"type":"LineString","properties":{"kind":"major_road","name:en":"National Route 26","name:ja":"\u56fd\u905326\u53f7","sort_rank":381,"kind_detail":"trunk","source":"openstreetmap.org","min_zoom":8.0,"landuse_kind":"urban_area","ref":"26","id":379479226},"arcs":[395]},{"type":"MultiLineString","properties":{"source":"openstreetmap.org","kind":"major_road","landuse_kind":"urban_area","sort_rank":380,"kind_detail":"primary","ref":"9","min_zoom":8.0},"arcs":[[396],[397],[398]]},{"type":"LineString","properties":{"source":"openstreetmap.org","kind":"major_road","kind_detail":"trunk","sort_rank":381,"landuse_kind":"urban_area","ref":"311","min_zoom":8.0},"arcs":[399]},{"type":"MultiLineString","properties":{"kind":"major_road","name:en":"National Route 168 & 169","sort_rank":381,"landuse_kind":"urban_area","source":"openstreetmap.org","min_zoom":8.0,"kind_detail":"trunk","ref":"168;169"},"arcs":[[400],[401],[402]]},{"type":"LineString","properties":{"kind":"highway","name:en":"Inami Tunnel","name:ja":"\u3044\u306a\u307f\u3068\u3093\u306d\u308b","sort_rank":383,"kind_detail":"motorway","source":"openstreetmap.org","min_zoom":8.0,"ref":"E42","id":26513406},"arcs":[403]},{"type":"MultiLineString","properties":{"source":"openstreetmap.org","kind":"major_road","name:en":"Prefectural Road 53","sort_rank":380,"kind_detail":"primary","ref":"53","min_zoom":8.0},"arcs":[[404],[405],[406],[407]]},{"type":"MultiLineString","properties":{"source":"openstreetmap.org","kind":"major_road","landuse_kind":"urban_area","sort_rank":380,"kind_detail":"primary","min_zoom":8.0},"arcs":[[408],[409],[410],[411],[412],[413],[414],[415],[416],[417],[418]]},{"type":"LineString","properties":{"kind":"major_road","name:en":"National Route 24","sort_rank":381,"landuse_kind":"urban_area","is_bicycle_related":true,"bicycle_shield_text":"R-1","bicycle_network":"lcn","source":"openstreetmap.org","min_zoom":8.0,"kind_detail":"trunk","ref":"24"},"arcs":[419]},{"type":"MultiLineString","properties":{"source":"openstreetmap.org","kind":"major_road","sort_rank":380,"kind_detail":"primary","ref":"68","min_zoom":8.0},"arcs":[[420],[421]]},{"type":"MultiLineString","properties":{"kind":"highway","name:en":"Kisei Expressway","name:ja":"\u304d\u305b\u3044\u3058\u3069\u3046\u3057\u3083\u3069\u3046","sort_rank":383,"kind_detail":"motorway","source":"openstreetmap.org","min_zoom":8.0,"ref":"E42"},"arcs":[[422],[423],[424],[425],[426],[427],[428],[429],[430],[431],[432],[433],[434],[435],[436],[437],[438],[439]]},{"type":"LineString","properties":{"kind":"highway","name:en":"NachiKatsuura-Shingu road","network":null,"sort_rank":383,"kind_detail":"motorway","source":"openstreetmap.org","min_zoom":8.0,"all_networks":[null],"shield_text":"42","ref":"E42","all_shield_texts":["42"]},"arcs":[440]},{"type":"LineString","properties":{"kind":"major_road","name:en":"Tanabe - Ryujin Highway","sort_rank":380,"kind_detail":"primary","source":"openstreetmap.org","min_zoom":8.0,"landuse_kind":"urban_area","ref":"29","id":129179627},"arcs":[441]},{"type":"LineString","properties":{"kind":"highway","name:en":"Negoro Tunnel","name:ja":"\u306d\u3054\u308d\u3068\u3093\u306d\u308b","sort_rank":383,"kind_detail":"motorway","source":"openstreetmap.org","min_zoom":8.0,"landuse_kind":"urban_area","ref":"E24","id":377715072},"arcs":[442]},{"type":"LineString","properties":{"source":"openstreetmap.org","kind":"ferry","name":"\u53cb\u30f6\u5cf6\u6c7d\u8239","sort_rank":355,"min_zoom":8.0,"id":34597465},"arcs":[443]},{"type":"LineString","properties":{"kind":"highway","name:en":"Gobo Tunnel","name:ja":"\u3054\u307c\u3046\u3068\u3093\u306d\u308b","sort_rank":383,"kind_detail":"motorway","source":"openstreetmap.org","min_zoom":8.0,"landuse_kind":"urban_area","ref":"E42","id":126054529},"arcs":[444]},{"type":"LineString","properties":{"kind":"major_road","sort_rank":380,"kind_detail":"primary","is_bicycle_related":true,"bicycle_shield_text":"R-2","bicycle_network":"lcn","source":"openstreetmap.org","min_zoom":8.0,"landuse_kind":"urban_area","ref":"10"},"arcs":[445]},{"type":"LineString","properties":{"kind":"major_road","name:en":"National Route 370","name:ja":"\u56fd\u9053370\u53f7","sort_rank":381,"kind_detail":"trunk","is_bicycle_related":true,"bicycle_shield_text":"R-1","bicycle_network":"lcn","source":"openstreetmap.org","min_zoom":8.0,"landuse_kind":"urban_area","ref":"370","id":432844123},"arcs":[446]},{"type":"LineString","properties":{"kind":"highway","name:en":"Nishi-iwashiro Tunnel","name:ja":"\u306b\u3057\u3044\u308f\u3057\u308d\u3068\u3093\u306d\u308b","sort_rank":383,"kind_detail":"motorway","source":"openstreetmap.org","min_zoom":8.0,"ref":"E42","id":26513410},"arcs":[447]},{"type":"LineString","properties":{"kind":"major_road","cycleway_left":"track","name:ja":"\u56fd\u9053370\u53f7\u7dda","sort_rank":381,"kind_detail":"trunk","is_bicycle_related":true,"source":"openstreetmap.org","min_zoom":8.0,"landuse_kind":"urban_area","ref":"370","id":390164686},"arcs":[448]},{"type":"LineString","properties":{"kind":"major_road","name:en":"National Highway Rte 42","name:ja":"\u56fd\u905342\u53f7","sort_rank":381,"landuse_kind":"urban_area","source":"openstreetmap.org","min_zoom":8.0,"kind_detail":"trunk","shield_text":"42","ref":"42","network":"JP:national"},"arcs":[449]},{"type":"LineString","properties":{"kind":"major_road","sort_rank":381,"kind_detail":"trunk","is_bicycle_related":true,"source":"openstreetmap.org","min_zoom":8.0,"ref":"168","id":416635725},"arcs":[450]},{"type":"MultiLineString","properties":{"source":"openstreetmap.org","kind":"major_road","sort_rank":380,"kind_detail":"primary","ref":"49","min_zoom":8.0},"arcs":[[451],[452]]},{"type":"MultiLineString","properties":{"kind":"major_road","name:en":"National Highway Rte 42","sort_rank":381,"landuse_kind":"urban_area","source":"openstreetmap.org","min_zoom":8.0,"kind_detail":"trunk","ref":"42"},"arcs":[[453],[454]]},{"type":"LineString","properties":{"source":"openstreetmap.org","kind":"highway","sort_rank":383,"kind_detail":"motorway","ref":"\u7d00\u52e2\u9053","min_zoom":8.0,"id":246774164},"arcs":[455]},{"type":"MultiLineString","properties":{"source":"openstreetmap.org","kind":"major_road","landuse_kind":"urban_area","sort_rank":380,"kind_detail":"primary","ref":"27","min_zoom":8.0},"arcs":[[456],[457]]},{"type":"LineString","properties":{"kind":"highway","name:en":"Kawabe No.1 Tunnel","network":null,"sort_rank":383,"kind_detail":"motorway","source":"openstreetmap.org","min_zoom":8.0,"all_networks":[null],"shield_text":"42","ref":"E42","id":26513400,"all_shield_texts":["42"],"name:ja":"\u304b\u308f\u3079\u3060\u3044\u3044\u3061\u3068\u3093\u306d\u308b"},"arcs":[458]},{"type":"MultiLineString","properties":{"kind":"major_road","name:en":"National Highway Rte 424","name:ja":"\u56fd\u9053424\u53f7","sort_rank":381,"kind_detail":"trunk","source":"openstreetmap.org","min_zoom":8.0,"ref":"424"},"arcs":[[459],[460],[461],[462],[463],[464],[465],[466],[467],[468],[469],[470],[471],[472],[473],[474]]},{"type":"MultiLineString","properties":{"source":"openstreetmap.org","kind":"major_road","landuse_kind":"urban_area","sort_rank":380,"kind_detail":"primary","ref":"26","min_zoom":8.0},"arcs":[[475],[476]]},{"type":"LineString","properties":{"source":"openstreetmap.org","kind":"major_road","landuse_kind":"urban_area","sort_rank":380,"kind_detail":"primary","ref":"16","min_zoom":8.0},"arcs":[477]},{"type":"LineString","properties":{"source":"openstreetmap.org","kind":"major_road","landuse_kind":"urban_area","sort_rank":380,"kind_detail":"primary","ref":"25","min_zoom":8.0},"arcs":[478]},{"type":"MultiLineString","properties":{"source":"openstreetmap.org","kind":"major_road","name:en":"National Route 168 & 169","sort_rank":381,"kind_detail":"trunk","ref":"168;169","min_zoom":8.0},"arcs":[[479],[480],[481],[482],[483],[484],[485],[486],[487],[488],[489]]},{"type":"LineString","properties":{"kind":"highway","name:en":"Yuasa Tunnel","network":null,"sort_rank":383,"kind_detail":"motorway","source":"openstreetmap.org","min_zoom":8.0,"all_networks":[null],"shield_text":"42","ref":"E42","id":26513393,"all_shield_texts":["42"],"name:ja":"\u3086\u3042\u3055\u3068\u3093\u306d\u308b"},"arcs":[490]},{"type":"LineString","properties":{"kind":"major_road","sort_rank":380,"landuse_kind":"urban_area","source":"openstreetmap.org","min_zoom":8.0,"kind_detail":"primary","ref":"32","id":129179763},"arcs":[491]},{"type":"MultiLineString","properties":{"kind":"major_road","name:en":"National Highway Rte 424","name:ja":"\u56fd\u9053424\u53f7\u7dda","sort_rank":381,"landuse_kind":"urban_area","source":"openstreetmap.org","min_zoom":8.0,"kind_detail":"trunk","ref":"424"},"arcs":[[492],[493],[494],[495],[496],[497],[498]]},{"type":"MultiLineString","properties":{"source":"openstreetmap.org","kind":"major_road","landuse_kind":"urban_area","sort_rank":380,"kind_detail":"primary","ref":"29","min_zoom":8.0},"arcs":[[499],[500],[501]]},{"type":"MultiLineString","properties":{"source":"openstreetmap.org","kind":"major_road","landuse_kind":"urban_area","sort_rank":380,"kind_detail":"primary","ref":"63","min_zoom":8.0},"arcs":[[502],[503],[504]]},{"type":"MultiLineString","properties":{"source":"openstreetmap.org","kind":"highway","name:en":"Hanwa Expressway","sort_rank":383,"kind_detail":"motorway","ref":"E42","min_zoom":8.0},"arcs":[[505],[506],[507],[508],[509],[510],[511],[512],[513],[514],[515]]},{"type":"LineString","properties":{"kind":"major_road","name:en":"Yubin bashi","network":"JP:national","sort_rank":381,"kind_detail":"trunk","source":"openstreetmap.org","min_zoom":8.0,"landuse_kind":"urban_area","shield_text":"42","ref":"42","id":125916156,"name:ja":"\u90f5\u4fbf\u6a4b\uff08\u56fd\u9053\uff14\uff12\u53f7\uff09"},"arcs":[516]},{"type":"MultiLineString","properties":{"kind":"major_road","name:en":"National Route 24","sort_rank":381,"landuse_kind":"urban_area","source":"openstreetmap.org","min_zoom":8.0,"kind_detail":"trunk","ref":"24"},"arcs":[[517],[518],[519],[520],[521],[522],[523],[524]]},{"type":"MultiLineString","properties":{"kind":"major_road","name:en":"National Highway Rte 26","name:ja":"\u56fd\u905326\u53f7","sort_rank":381,"landuse_kind":"urban_area","source":"openstreetmap.org","min_zoom":8.0,"kind_detail":"trunk","ref":"26"},"arcs":[[525],[526]]},{"type":"MultiLineString","properties":{"kind":"major_road","name:en":"Kumano Kaido; National Route 42","network":"JP:national","sort_rank":381,"landuse_kind":"urban_area","source":"openstreetmap.org","min_zoom":8.0,"kind_detail":"trunk","shield_text":"42","ref":"42"},"arcs":[[527],[528],[529],[530],[531],[532],[533],[534],[535],[536]]},{"type":"MultiLineString","properties":{"source":"openstreetmap.org","kind":"major_road","sort_rank":381,"kind_detail":"trunk","ref":"422","min_zoom":8.0},"arcs":[[537],[538]]},{"type":"LineString","properties":{"kind":"major_road","network":"JP:national","sort_rank":381,"kind_detail":"trunk","source":"openstreetmap.org","min_zoom":8.0,"shield_text":"42","ref":"42"},"arcs":[539]},{"type":"MultiLineString","properties":{"source":"openstreetmap.org","kind":"major_road","sort_rank":380,"kind_detail":"primary","ref":"35","min_zoom":8.0},"arcs":[[540],[541],[542],[543],[544],[545],[546],[547],[548],[549]]},{"type":"MultiLineString","properties":{"kind":"major_road","name:en":"Kumano Kaido;National Highway Rte 42","name:ja":"\u718a\u91ce\u8857\u9053;\u56fd\u905342\u53f7","sort_rank":381,"landuse_kind":"urban_area","source":"openstreetmap.org","min_zoom":8.0,"kind_detail":"trunk","shield_text":"42","ref":"42","network":"JP:national"},"arcs":[[550],[551],[552],[553],[554],[555]]},{"type":"MultiLineString","properties":{"kind":"highway","name:en":"Hanwa Expressway","network":null,"sort_rank":383,"kind_detail":"motorway","source":"openstreetmap.org","min_zoom":8.0,"all_networks":[null],"landuse_kind":"urban_area","shield_text":"42","ref":"E42","all_shield_texts":["42"]},"arcs":[[556],[557],[558],[559],[560]]},{"type":"MultiLineString","properties":{"sort_rank":380,"kind_detail":"primary","min_zoom":8.0,"kind":"major_road","source":"openstreetmap.org"},"arcs":[[561],[562],[563],[564]]},{"type":"MultiLineString","properties":{"kind":"major_road","name:en":"National Highway Rte 480","name:ja":"\u56fd\u9053480\u53f7","sort_rank":381,"landuse_kind":"urban_area","source":"openstreetmap.org","min_zoom":8.0,"kind_detail":"trunk","ref":"480"},"arcs":[[565],[566],[567]]},{"type":"MultiLineString","properties":{"kind":"major_road","name:en":"National Highway Rte 24","sort_rank":381,"landuse_kind":"urban_area","source":"openstreetmap.org","min_zoom":8.0,"kind_detail":"trunk","ref":"24"},"arcs":[[568],[569]]},{"type":"LineString","properties":{"source":"openstreetmap.org","kind":"major_road","landuse_kind":"urban_area","sort_rank":380,"kind_detail":"primary","ref":"42","min_zoom":8.0},"arcs":[570]},{"type":"MultiLineString","properties":{"kind":"major_road","network":"JP:national","sort_rank":381,"kind_detail":"trunk","source":"openstreetmap.org","min_zoom":8.0,"shield_text":"425","ref":"168"},"arcs":[[571],[572],[573]]},{"type":"MultiLineString","properties":{"sort_rank":381,"source":"openstreetmap.org","min_zoom":8.0,"kind":"major_road","kind_detail":"trunk"},"arcs":[[574],[575],[576],[577],[578],[579],[580],[581],[582],[583],[584],[585],[586]]},{"type":"LineString","properties":{"source":"openstreetmap.org","kind":"major_road","landuse_kind":"urban_area","sort_rank":380,"kind_detail":"primary","ref":"61","min_zoom":8.0},"arcs":[587]},{"type":"LineString","properties":{"kind":"major_road","name:en":"Kumano Kaido","network":"JP:national","sort_rank":381,"kind_detail":"trunk","source":"openstreetmap.org","min_zoom":8.0,"landuse_kind":"urban_area","shield_text":"42","ref":"42","id":125992131},"arcs":[588]},{"type":"MultiLineString","properties":{"source":"openstreetmap.org","kind":"major_road","kind_detail":"trunk","sort_rank":381,"landuse_kind":"urban_area","ref":"26","min_zoom":8.0},"arcs":[[589],[590]]},{"type":"MultiLineString","properties":{"kind":"major_road","name:en":"National Highway Rte 24","name:ja":"\u56fd\u905324\u53f7","sort_rank":381,"landuse_kind":"urban_area","source":"openstreetmap.org","min_zoom":8.0,"kind_detail":"trunk","ref":"24"},"arcs":[[591],[592],[593],[594],[595],[596],[597],[598],[599],[600],[601],[602],[603],[604]]},{"type":"MultiLineString","properties":{"kind":"major_road","name:en":"National Route 42","network":"JP:national","sort_rank":381,"landuse_kind":"urban_area","source":"openstreetmap.org","min_zoom":8.0,"kind_detail":"trunk","shield_text":"42","ref":"42"},"arcs":[[605],[606],[607]]},{"type":"LineString","properties":{"kind":"major_road","name:en":"National Highway Route 425","network":"JP:national","sort_rank":381,"kind_detail":"trunk","official_name":"\u4e00\u822c\u56fd\u9053425\u53f7","source":"openstreetmap.org","min_zoom":8.0,"landuse_kind":"urban_area","shield_text":"425","id":-3791425,"osm_relation":true},"arcs":[608]},{"type":"MultiLineString","properties":{"kind":"major_road","name:en":"Wakayama bypass;National Route 24","sort_rank":381,"landuse_kind":"urban_area","source":"openstreetmap.org","min_zoom":8.0,"kind_detail":"trunk","ref":"24"},"arcs":[[609],[610],[611],[612],[613],[614],[615]]},{"type":"LineString","properties":{"kind":"major_road","network":"JP:national","sort_rank":381,"landuse_kind":"urban_area","source":"openstreetmap.org","min_zoom":8.0,"kind_detail":"trunk","shield_text":"425","ref":"425"},"arcs":[616]},{"type":"LineString","properties":{"source":"openstreetmap.org","kind":"major_road","sort_rank":380,"kind_detail":"primary","ref":"3","min_zoom":8.0},"arcs":[617]},{"type":"LineString","properties":{"source":"openstreetmap.org","kind":"ferry","name":"\u53cb\u30f6\u5cf6\u6c7d\u8239","sort_rank":355,"landuse_kind":"urban_area","min_zoom":8.0,"id":34597465},"arcs":[618]},{"type":"MultiLineString","properties":{"source":"openstreetmap.org","kind":"major_road","landuse_kind":"urban_area","sort_rank":380,"kind_detail":"primary","ref":"31","min_zoom":8.0},"arcs":[[619],[620],[621],[622],[623]]},{"type":"MultiLineString","properties":{"source":"openstreetmap.org","kind":"major_road","sort_rank":380,"kind_detail":"primary","ref":"19","min_zoom":8.0},"arcs":[[624],[625],[626],[627],[628],[629]]},{"type":"MultiLineString","properties":{"kind":"major_road","name:en":"National Route 42","name:ja":"\u56fd\u905342\u53f7","sort_rank":381,"kind_detail":"trunk","source":"openstreetmap.org","min_zoom":8.0,"shield_text":"42","ref":"42","network":"JP:national"},"arcs":[[630],[631],[632],[633],[634],[635],[636]]},{"type":"MultiLineString","properties":{"kind":"major_road","name:en":"National Route 480","name:ja":"\u56fd\u9053480\u53f7","sort_rank":381,"landuse_kind":"urban_area","source":"openstreetmap.org","min_zoom":8.0,"kind_detail":"trunk","ref":"480"},"arcs":[[637],[638]]},{"type":"MultiLineString","properties":{"source":"openstreetmap.org","kind":"major_road","landuse_kind":"urban_area","sort_rank":380,"kind_detail":"primary","ref":"7","min_zoom":8.0},"arcs":[[639],[640],[641],[642],[643],[644],[645],[646],[647],[648],[649],[650],[651]]},{"type":"MultiLineString","properties":{"source":"openstreetmap.org","kind":"major_road","landuse_kind":"urban_area","sort_rank":380,"kind_detail":"primary","ref":"15","min_zoom":8.0},"arcs":[[652],[653],[654],[655],[656],[657],[658],[659],[660],[661],[662],[663],[664]]},{"type":"LineString","properties":{"source":"openstreetmap.org","kind":"major_road","name:en":"National Route 42","sort_rank":381,"kind_detail":"trunk","ref":"42","min_zoom":8.0},"arcs":[665]},{"type":"LineString","properties":{"source":"openstreetmap.org","kind":"major_road","landuse_kind":"urban_area","sort_rank":380,"kind_detail":"primary","ref":"15;26","min_zoom":8.0},"arcs":[666]},{"type":"MultiLineString","properties":{"kind":"major_road","name:en":"Kumano Kaido; National Route 42","network":"JP:national","sort_rank":381,"kind_detail":"trunk","is_bicycle_related":true,"bicycle_shield_text":"801","bicycle_network":"rcn","source":"openstreetmap.org","min_zoom":8.0,"shield_text":"42","ref":"42"},"arcs":[[667],[668],[669],[670],[671]]},{"type":"LineString","properties":{"source":"openstreetmap.org","kind":"major_road","sort_rank":380,"kind_detail":"primary","ref":"20","min_zoom":8.0},"arcs":[672]},{"type":"LineString","properties":{"source":"openstreetmap.org","kind":"major_road","name:en":"National Route 309","sort_rank":381,"kind_detail":"trunk","ref":"309","min_zoom":8.0},"arcs":[673]},{"type":"MultiLineString","properties":{"kind":"major_road","name:en":"Wakayama bypass; National Route 24","sort_rank":381,"landuse_kind":"urban_area","source":"openstreetmap.org","min_zoom":8.0,"kind_detail":"trunk","ref":"24"},"arcs":[[674],[675],[676],[677],[678],[679],[680],[681],[682],[683],[684],[685],[686],[687]]},{"type":"MultiLineString","properties":{"source":"openstreetmap.org","kind":"major_road","sort_rank":381,"kind_detail":"trunk","ref":"260","min_zoom":8.0},"arcs":[[688],[689],[690]]},{"type":"LineString","properties":{"kind":"major_road","name:en":"Prefectural Road 4","sort_rank":380,"kind_detail":"primary","is_bicycle_related":true,"bicycle_shield_text":"R-1","bicycle_network":"lcn","source":"openstreetmap.org","min_zoom":8.0,"landuse_kind":"urban_area","ref":"4","id":126034361},"arcs":[691]},{"type":"LineString","properties":{"kind":"major_road","name:en":"National Route 424","name:ja":"\u56fd\u9053424\u53f7\u7dda","sort_rank":381,"landuse_kind":"urban_area","source":"openstreetmap.org","min_zoom":8.0,"kind_detail":"trunk","ref":"424"},"arcs":[692]},{"type":"MultiLineString","properties":{"source":"openstreetmap.org","kind":"major_road","sort_rank":381,"kind_detail":"trunk","ref":"371","min_zoom":8.0},"arcs":[[693],[694],[695],[696],[697],[698],[699],[700],[701],[702],[703],[704],[705],[706],[707],[708],[709],[710]]},{"type":"LineString","properties":{"source":"openstreetmap.org","kind":"major_road","alt_name:en":"ERTUGRUL STREET","sort_rank":380,"kind_detail":"primary","ref":"40","min_zoom":8.0},"arcs":[711]},{"type":"LineString","properties":{"kind":"major_road","name:en":"Kumano Kaido National Route 42","network":"JP:national","sort_rank":381,"kind_detail":"trunk","source":"openstreetmap.org","min_zoom":8.0,"shield_text":"42","ref":"42"},"arcs":[712]},{"type":"MultiLineString","properties":{"kind":"highway","name:en":"Hanwa Expressway","sort_rank":383,"kind_detail":"motorway","source":"openstreetmap.org","min_zoom":8.0,"name:ru":"\u0410\u0432\u0442\u043e\u043c\u0430\u0433\u0438\u0441\u0442\u0440\u0430\u043b\u044c \u0425\u0430\u043d\u0432\u0430","ref":"E26"},"arcs":[[713],[714],[715]]},{"type":"MultiLineString","properties":{"source":"openstreetmap.org","kind":"major_road","sort_rank":380,"kind_detail":"primary","ref":"45","min_zoom":8.0},"arcs":[[716],[717],[718],[719],[720],[721],[722]]},{"type":"LineString","properties":{"source":"openstreetmap.org","kind":"major_road","sort_rank":381,"kind_detail":"trunk","ref":"169;311","min_zoom":8.0},"arcs":[723]},{"type":"MultiLineString","properties":{"source":"openstreetmap.org","kind":"major_road","landuse_kind":"urban_area","sort_rank":380,"kind_detail":"primary","ref":"10","min_zoom":8.0},"arcs":[[724],[725],[726]]},{"type":"MultiLineString","properties":{"source":"openstreetmap.org","kind":"major_road","kind_detail":"trunk","sort_rank":381,"landuse_kind":"urban_area","ref":"424","min_zoom":8.0},"arcs":[[727],[728],[729],[730],[731],[732]]},{"type":"LineString","properties":{"kind":"major_road","name:en":"National Route 311","network":null,"sort_rank":381,"kind_detail":"trunk","source":"openstreetmap.org","min_zoom":8.0,"shield_text":"311","ref":"311","id":57387624},"arcs":[733]},{"type":"LineString","properties":{"kind":"major_road","network":"JP:national","sort_rank":381,"landuse_kind":"urban_area","source":"openstreetmap.org","min_zoom":8.0,"kind_detail":"trunk","shield_text":"42"},"arcs":[734]},{"type":"MultiLineString","properties":{"kind":"major_road","sort_rank":380,"kind_detail":"primary","official_name":"\u4e3b\u8981\u5730\u65b9\u9053\u4e0a\u5bcc\u7530\u5357\u90e8\u7dda","source":"openstreetmap.org","min_zoom":8.0,"landuse_kind":"urban_area","ref":"35"},"arcs":[[735],[736]]},{"type":"MultiLineString","properties":{"kind":"highway","name:en":"Aogakiutiyama Tunnel","name:ja":"\u3042\u304a\u304c\u304d\u3046\u3061\u3084\u307e\u3068\u3093\u306d\u308b","sort_rank":383,"kind_detail":"motorway","source":"openstreetmap.org","min_zoom":8.0,"ref":"E42","id":26513404},"arcs":[[737],[738]]},{"type":"MultiLineString","properties":{"kind":"major_road","name:en":"Kumano Kaido; National Highway Rte 42","name:ja":"\u718a\u91ce\u8857\u9053; \u56fd\u905342\u53f7","sort_rank":381,"landuse_kind":"urban_area","source":"openstreetmap.org","min_zoom":8.0,"kind_detail":"trunk","ref":"42"},"arcs":[[739],[740],[741]]},{"type":"LineString","properties":{"source":"openstreetmap.org","kind":"major_road","sort_rank":380,"kind_detail":"primary","ref":"39","min_zoom":8.0},"arcs":[742]},{"type":"MultiLineString","properties":{"kind":"highway","name:en":"Hanwa Expressway","sort_rank":383,"kind_detail":"motorway","source":"openstreetmap.org","min_zoom":8.0,"name:ru":"\u0410\u0432\u0442\u043e\u043c\u0430\u0433\u0438\u0441\u0442\u0440\u0430\u043b\u044c \u0425\u0430\u043d\u0432\u0430","ref":"E42"},"arcs":[[743],[744],[745],[746],[747]]},{"type":"LineString","properties":{"kind":"major_road","sort_rank":381,"landuse_kind":"urban_area","source":"openstreetmap.org","min_zoom":8.0,"kind_detail":"trunk","ref":"371","id":129330181},"arcs":[748]},{"type":"LineString","properties":{"kind":"major_road","name:en":"Kumano Kaido; National Route 42; National Route 42","network":"JP:national","sort_rank":381,"kind_detail":"trunk","source":"openstreetmap.org","min_zoom":8.0,"shield_text":"42","ref":"42","id":121317826,"name:ja":"\u56fd\u905342\u53f7"},"arcs":[749]},{"type":"MultiLineString","properties":{"kind":"major_road","name:en":"National Highway Rte 424","name:ja":"\u56fd\u9053424\u53f7","sort_rank":381,"landuse_kind":"urban_area","source":"openstreetmap.org","min_zoom":8.0,"kind_detail":"trunk","ref":"424"},"arcs":[[750],[751]]},{"type":"MultiLineString","properties":{"kind":"major_road","name:en":"National Highway Rte 370","sort_rank":381,"landuse_kind":"urban_area","source":"openstreetmap.org","min_zoom":8.0,"kind_detail":"trunk","ref":"370"},"arcs":[[752],[753]]},{"type":"MultiLineString","properties":{"source":"openstreetmap.org","kind":"major_road","sort_rank":380,"kind_detail":"primary","ref":"23","min_zoom":8.0},"arcs":[[754],[755],[756],[757],[758],[759]]},{"type":"LineString","properties":{"kind":"major_road","network":"JP:national","sort_rank":381,"kind_detail":"trunk","source":"openstreetmap.org","min_zoom":8.0,"landuse_kind":"urban_area","shield_text":"42","ref":"42","id":126035132,"name:ja":"Kumano Kaido; National Highway Rte 42"},"arcs":[760]},{"type":"MultiLineString","properties":{"source":"openstreetmap.org","kind":"major_road","sort_rank":380,"kind_detail":"primary","ref":"38","min_zoom":8.0},"arcs":[[761],[762],[763],[764],[765],[766],[767],[768]]},{"type":"MultiLineString","properties":{"source":"openstreetmap.org","kind":"major_road","sort_rank":380,"kind_detail":"primary","ref":"40","min_zoom":8.0},"arcs":[[769],[770],[771]]},{"type":"LineString","properties":{"kind":"major_road","name:ja":"\u5948\u826f\u770c\u9053\u30fb\u548c\u6b4c\u5c71\u770c\u905353\u53f7","sort_rank":380,"kind_detail":"primary","source":"openstreetmap.org","min_zoom":8.0,"ref":"53","id":59951801},"arcs":[772]},{"type":"LineString","properties":{"kind":"major_road","name:en":"Kumano Kaido;National Highway Rte 42","network":"JP:national","sort_rank":381,"kind_detail":"trunk","source":"openstreetmap.org","min_zoom":8.0,"landuse_kind":"urban_area","shield_text":"42","ref":"42","id":62226473},"arcs":[773]},{"type":"MultiLineString","properties":{"source":"openstreetmap.org","kind":"major_road","landuse_kind":"urban_area","sort_rank":380,"kind_detail":"primary","ref":"35","min_zoom":8.0},"arcs":[[774],[775],[776],[777],[778],[779],[780],[781]]},{"type":"LineString","properties":{"kind":"major_road","network":"JP:national","sort_rank":381,"kind_detail":"trunk","source":"openstreetmap.org","min_zoom":8.0,"shield_text":"42","ref":"42","id":120616536,"name:ja":"Kumano Kaido; National Route 42"},"arcs":[782]},{"type":"MultiLineString","properties":{"source":"openstreetmap.org","kind":"major_road","sort_rank":380,"kind_detail":"primary","ref":"21","min_zoom":8.0},"arcs":[[783],[784],[785],[786],[787]]},{"type":"MultiLineString","properties":{"kind":"major_road","name:en":"Prefectural Road 4","sort_rank":380,"kind_detail":"primary","source":"openstreetmap.org","min_zoom":8.0,"landuse_kind":"urban_area","ref":"4"},"arcs":[[788],[789]]},{"type":"MultiLineString","properties":{"source":"openstreetmap.org","kind":"major_road","landuse_kind":"urban_area","sort_rank":380,"kind_detail":"primary","ref":"18","min_zoom":8.0},"arcs":[[790],[791],[792],[793]]},{"type":"MultiLineString","properties":{"kind":"major_road","name:ja":"National Highway Rte 424","sort_rank":381,"landuse_kind":"urban_area","source":"openstreetmap.org","min_zoom":8.0,"kind_detail":"trunk","ref":"424"},"arcs":[[794],[795],[796]]},{"type":"LineString","properties":{"kind":"major_road","name:en":"Kumano Kaido; National Route 42; National Route 42","network":"JP:national","sort_rank":381,"kind_detail":"trunk","source":"openstreetmap.org","min_zoom":8.0,"landuse_kind":"urban_area","shield_text":"42","ref":"42","id":121317826,"name:ja":"\u56fd\u905342\u53f7"},"arcs":[797]},{"type":"MultiLineString","properties":{"source":"openstreetmap.org","kind":"major_road","landuse_kind":"urban_area","sort_rank":380,"kind_detail":"primary","ref":"17","min_zoom":8.0},"arcs":[[798],[799],[800],[801]]},{"type":"LineString","properties":{"kind":"highway","name:en":"Aogakiutiyama Tunnel","name:ja":"\u3042\u304a\u304c\u304d\u3046\u3061\u3084\u307e\u3068\u3093\u306d\u308b","sort_rank":383,"kind_detail":"motorway","source":"openstreetmap.org","min_zoom":8.0,"landuse_kind":"urban_area","ref":"E42","id":26513404},"arcs":[802]},{"type":"LineString","properties":{"kind":"major_road","name:en":"National Route 168","sort_rank":381,"kind_detail":"trunk","source":"openstreetmap.org","min_zoom":8.0,"ref":"168;311","id":310757759},"arcs":[803]},{"type":"MultiLineString","properties":{"source":"openstreetmap.org","kind":"major_road","name:en":"National Highway Rte 424","sort_rank":381,"kind_detail":"trunk","ref":"424","min_zoom":8.0},"arcs":[[804],[805],[806],[807],[808],[809],[810],[811],[812],[813],[814],[815],[816],[817],[818],[819],[820]]},{"type":"LineString","properties":{"kind":"major_road","name:en":"National Route 168 & 169","sort_rank":381,"kind_detail":"trunk","source":"openstreetmap.org","min_zoom":8.0,"ref":"168 ; 169","id":121335909},"arcs":[821]},{"type":"LineString","properties":{"kind":"highway","name:en":"Yuasa Tunnel","network":null,"sort_rank":383,"kind_detail":"motorway","source":"openstreetmap.org","min_zoom":8.0,"all_networks":[null],"landuse_kind":"urban_area","shield_text":"42","ref":"E42","id":26513393,"all_shield_texts":["42"],"name:ja":"\u3086\u3042\u3055\u3068\u3093\u306d\u308b"},"arcs":[822]},{"type":"MultiLineString","properties":{"kind":"highway","name:en":"Hanwa Expressway","network":null,"sort_rank":383,"kind_detail":"motorway","source":"openstreetmap.org","min_zoom":8.0,"all_networks":[null],"shield_text":"42","ref":"E42","all_shield_texts":["42"]},"arcs":[[823],[824],[825],[826],[827],[828]]},{"type":"LineString","properties":{"kind":"highway","name:en":"Higashi-iwashiro Tunnel","name:ja":"\u3072\u304c\u3057\u3044\u308f\u3057\u308d\u3068\u3093\u306d\u308b","sort_rank":383,"kind_detail":"motorway","source":"openstreetmap.org","min_zoom":8.0,"ref":"E42","id":26513412},"arcs":[829]},{"type":"MultiLineString","properties":{"kind":"major_road","name:en":"Kumano Kaido; National Highway Rte 42","network":"JP:national","sort_rank":381,"kind_detail":"trunk","source":"openstreetmap.org","min_zoom":8.0,"shield_text":"42","ref":"42"},"arcs":[[830],[831]]},{"type":"MultiLineString","properties":{"source":"openstreetmap.org","kind":"major_road","sort_rank":381,"kind_detail":"trunk","ref":"311","min_zoom":8.0},"arcs":[[832],[833],[834],[835],[836],[837],[838],[839],[840],[841],[842],[843],[844],[845],[846]]},{"type":"MultiLineString","properties":{"kind":"major_road","name:en":"Kamitonda Nanbu Highway","sort_rank":380,"kind_detail":"primary","source":"openstreetmap.org","min_zoom":8.0,"landuse_kind":"urban_area","ref":"35"},"arcs":[[847],[848],[849]]},{"type":"MultiLineString","properties":{"kind":"major_road","name:en":"National Route 42","network":"JP:national","sort_rank":381,"kind_detail":"trunk","source":"openstreetmap.org","min_zoom":8.0,"shield_text":"42","ref":"42"},"arcs":[[850],[851],[852],[853],[854],[855],[856],[857],[858],[859],[860]]},{"type":"LineString","properties":{"kind":"highway","name:en":"Yanase Tunnel","network":null,"sort_rank":383,"kind_detail":"motorway","source":"openstreetmap.org","min_zoom":8.0,"all_networks":[null],"shield_text":"42","ref":"E42","id":173087594,"all_shield_texts":["42"],"name:ja":"\u3084\u306a\u305b\u3068\u3093\u306d\u308b"},"arcs":[861]},{"type":"MultiLineString","properties":{"source":"openstreetmap.org","kind":"major_road","name:en":"Route168","sort_rank":381,"kind_detail":"trunk","ref":"168","min_zoom":8.0},"arcs":[[862],[863]]},{"type":"LineString","properties":{"kind":"major_road","name:en":"National Highway Rte 42","network":"JP:national","sort_rank":381,"landuse_kind":"urban_area","source":"openstreetmap.org","min_zoom":8.0,"kind_detail":"trunk","shield_text":"42","ref":"42"},"arcs":[864]},{"type":"LineString","properties":{"kind":"major_road","network":"JP:national","sort_rank":381,"kind_detail":"trunk","source":"openstreetmap.org","min_zoom":8.0,"shield_text":"42","id":125833777},"arcs":[865]},{"type":"MultiLineString","properties":{"kind":"major_road","network":"JP:national","sort_rank":381,"kind_detail":"trunk","source":"openstreetmap.org","min_zoom":8.0,"shield_text":"425","ref":"425"},"arcs":[[866],[867],[868],[869],[870],[871],[872],[873],[874],[875],[876],[877],[878]]},{"type":"LineString","properties":{"kind":"major_road","name:ja":"\u770c\u905363\u53f7","sort_rank":380,"kind_detail":"primary","source":"openstreetmap.org","min_zoom":8.0,"ref":"63","id":43047359},"arcs":[879]},{"type":"LineString","properties":{"kind":"major_road","name:en":"Kumano Kaido; National Route 424","name:ja":"\u718a\u91ce\u8857\u9053; \u56fd\u9053424\u53f7","sort_rank":381,"landuse_kind":"urban_area","source":"openstreetmap.org","min_zoom":8.0,"kind_detail":"trunk","ref":"424"},"arcs":[880]},{"type":"MultiLineString","properties":{"kind":"highway","name:en":"kamenokawa Bridge","sort_rank":383,"kind_detail":"motorway","source":"openstreetmap.org","min_zoom":8.0,"landuse_kind":"urban_area","ref":"E42"},"arcs":[[881],[882]]},{"type":"LineString","properties":{"source":"openstreetmap.org","kind":"ferry","name":"\u5357\u6d77\u30d5\u30a7\u30ea\u30fc","sort_rank":355,"landuse_kind":"urban_area","min_zoom":8.0,"id":42975873},"arcs":[883]},{"type":"LineString","properties":{"source":"openstreetmap.org","kind":"major_road","sort_rank":380,"kind_detail":"primary","ref":"10","min_zoom":8.0},"arcs":[884]},{"type":"LineString","properties":{"source":"openstreetmap.org","kind":"major_road","kind_detail":"trunk","sort_rank":381,"landuse_kind":"urban_area","ref":"42","min_zoom":8.0},"arcs":[885]},{"type":"LineString","properties":{"source":"openstreetmap.org","kind":"major_road","sort_rank":380,"kind_detail":"primary","ref":"64","min_zoom":8.0},"arcs":[886]},{"type":"MultiLineString","properties":{"kind":"major_road","name:en":"National Route 424","name:ja":"\u56fd\u9053424\u53f7","sort_rank":381,"landuse_kind":"urban_area","source":"openstreetmap.org","min_zoom":8.0,"kind_detail":"trunk","ref":"424"},"arcs":[[887],[888],[889]]},{"type":"MultiLineString","properties":{"source":"openstreetmap.org","kind":"major_road","sort_rank":380,"kind_detail":"primary","ref":"37","min_zoom":8.0},"arcs":[[890],[891],[892],[893],[894],[895],[896]]},{"type":"MultiLineString","properties":{"kind":"major_road","name:en":"National Route 370","sort_rank":381,"landuse_kind":"urban_area","source":"openstreetmap.org","min_zoom":8.0,"kind_detail":"trunk","ref":"370"},"arcs":[[897],[898]]},{"type":"MultiLineString","properties":{"source":"openstreetmap.org","kind":"major_road","sort_rank":381,"kind_detail":"trunk","ref":"169","min_zoom":8.0},"arcs":[[899],[900],[901],[902],[903],[904],[905],[906],[907],[908],[909],[910],[911]]},{"type":"LineString","properties":{"kind":"major_road","name:en":"National Route 424","sort_rank":381,"kind_detail":"trunk","source":"openstreetmap.org","min_zoom":8.0,"landuse_kind":"urban_area","ref":"424","id":129605513},"arcs":[912]},{"type":"MultiLineString","properties":{"source":"openstreetmap.org","kind":"major_road","sort_rank":381,"kind_detail":"trunk","ref":"424","min_zoom":8.0},"arcs":[[913],[914],[915],[916],[917],[918]]},{"type":"LineString","properties":{"kind":"major_road","name:en":"National Highway Route 42","network":"JP:national","sort_rank":381,"kind_detail":"trunk","source":"openstreetmap.org","min_zoom":8.0,"landuse_kind":"urban_area","shield_text":"42","ref":"42","id":129178089},"arcs":[919]},{"type":"MultiLineString","properties":{"kind":"highway","name:en":"Keinawa Expressway;Kihoku-West Rd.","name:ja":"Keinawa Jid\u014dsha-d\u014d;Kihoku-Nishi Douro","sort_rank":383,"landuse_kind":"urban_area","source":"openstreetmap.org","min_zoom":8.0,"kind_detail":"motorway","ref":"E24"},"arcs":[[920],[921]]},{"type":"MultiLineString","properties":{"kind":"major_road","name:en":"Kumano Kaido; National Highway Rte 42","sort_rank":381,"landuse_kind":"urban_area","source":"openstreetmap.org","min_zoom":8.0,"kind_detail":"trunk","ref":"42"},"arcs":[[922],[923]]},{"type":"MultiLineString","properties":{"source":"openstreetmap.org","kind":"major_road","sort_rank":380,"kind_detail":"primary","ref":"30","min_zoom":8.0},"arcs":[[924],[925],[926],[927],[928],[929]]},{"type":"MultiLineString","properties":{"kind":"major_road","network":"JP:national","sort_rank":381,"kind_detail":"trunk","source":"openstreetmap.org","min_zoom":8.0,"shield_text":"169","ref":"169"},"arcs":[[930],[931],[932],[933],[934],[935],[936],[937],[938],[939],[940],[941],[942],[943],[944],[945],[946],[947],[948],[949],[950],[951],[952],[953],[954]]},{"type":"MultiLineString","properties":{"source":"openstreetmap.org","kind":"major_road","name:en":"National Route 371","sort_rank":381,"kind_detail":"trunk","ref":"371","min_zoom":8.0},"arcs":[[955],[956],[957],[958],[959],[960]]},{"type":"LineString","properties":{"kind":"highway","name:en":"Torimatuyama Tunnel","network":null,"sort_rank":383,"kind_detail":"motorway","source":"openstreetmap.org","min_zoom":8.0,"all_networks":[null],"shield_text":"42","ref":"E42","id":26513398,"all_shield_texts":["42"],"name:ja":"\u3068\u308a\u307e\u3064\u3084\u307e\u3068\u3093\u306d\u308b"},"arcs":[961]},{"type":"MultiLineString","properties":{"kind":"major_road","name:en":"Kumano Kaido; National Highway Rte 42","network":"JP:national","sort_rank":381,"landuse_kind":"urban_area","source":"openstreetmap.org","min_zoom":8.0,"kind_detail":"trunk","shield_text":"42","ref":"42"},"arcs":[[962],[963],[964],[965],[966],[967]]},{"type":"MultiLineString","properties":{"source":"openstreetmap.org","kind":"major_road","sort_rank":380,"kind_detail":"primary","ref":"24","min_zoom":8.0},"arcs":[[968],[969],[970]]},{"type":"MultiLineString","properties":{"source":"openstreetmap.org","kind":"major_road","sort_rank":380,"kind_detail":"primary","ref":"25","min_zoom":8.0},"arcs":[[971],[972],[973],[974]]},{"type":"LineString","properties":{"source":"openstreetmap.org","kind":"ferry","name":"\u5357\u6d77\u30d5\u30a7\u30ea\u30fc","sort_rank":355,"min_zoom":8.0,"id":42975873},"arcs":[975]},{"type":"LineString","properties":{"kind":"major_road","name:en":"National Highway Rte 370","name:ja":"\u56fd\u9053370\u53f7\u7dda","sort_rank":381,"landuse_kind":"urban_area","source":"openstreetmap.org","min_zoom":8.0,"kind_detail":"trunk","ref":"370"},"arcs":[976]},{"type":"LineString","properties":{"kind":"major_road","name:ja":"National Route 311","sort_rank":381,"kind_detail":"trunk","source":"openstreetmap.org","min_zoom":8.0,"ref":"311","id":120844642},"arcs":[977]},{"type":"MultiLineString","properties":{"kind":"major_road","name:en":"Kumano Kaido; National Highway Rte 42","name:ja":"\u718a\u91ce\u8857\u9053; \u56fd\u905342\u53f7","sort_rank":381,"kind_detail":"trunk","source":"openstreetmap.org","min_zoom":8.0,"shield_text":"42","ref":"42","network":"JP:national"},"arcs":[[978],[979],[980],[981],[982],[983],[984]]},{"type":"LineString","properties":{"kind":"highway","name:en":"Minabegawa Bridge","name:ja":"\u307f\u306a\u3079\u304c\u308f\u306f\u3057","sort_rank":383,"kind_detail":"motorway","source":"openstreetmap.org","min_zoom":8.0,"ref":"E42","id":169261779},"arcs":[985]},{"type":"MultiLineString","properties":{"kind":"major_road","name:en":"National Highway Rte 424","sort_rank":381,"landuse_kind":"urban_area","source":"openstreetmap.org","min_zoom":8.0,"kind_detail":"trunk","ref":"424"},"arcs":[[986],[987],[988],[989],[990],[991]]},{"type":"LineString","properties":{"kind":"major_road","name:en":"National Highway Rte 24","name:ja":"\u4e2d\u592e\u901a\u308a; \u56fd\u905324\u53f7","sort_rank":381,"kind_detail":"trunk","source":"openstreetmap.org","min_zoom":8.0,"landuse_kind":"urban_area","ref":"24","id":379518882},"arcs":[992]},{"type":"MultiLineString","properties":{"source":"openstreetmap.org","kind":"major_road","name:en":"National Route 168 & 311","sort_rank":381,"kind_detail":"trunk","ref":"168;311","min_zoom":8.0},"arcs":[[993],[994]]},{"type":"MultiLineString","properties":{"source":"openstreetmap.org","kind":"major_road","sort_rank":381,"kind_detail":"trunk","ref":"370","min_zoom":8.0},"arcs":[[995],[996],[997],[998],[999],[1000],[1001],[1002],[1003],[1004],[1005],[1006],[1007],[1008]]},{"type":"MultiLineString","properties":{"source":"openstreetmap.org","kind":"major_road","kind_detail":"trunk","sort_rank":381,"landuse_kind":"urban_area","ref":"24","min_zoom":8.0},"arcs":[[1009],[1010],[1011]]},{"type":"LineString","properties":{"kind":"major_road","sort_rank":380,"kind_detail":"primary","official_name":"\u4e3b\u8981\u5730\u65b9\u9053\u4e0a\u5bcc\u7530\u3059\u3055\u307f\u7dda","source":"openstreetmap.org","min_zoom":8.0,"landuse_kind":"urban_area","ref":"36","id":125992161},"arcs":[1012]},{"type":"LineString","properties":{"kind":"major_road","name:en":"Kamitonda Nanbu Highway","sort_rank":380,"kind_detail":"primary","source":"openstreetmap.org","min_zoom":8.0,"ref":"35","id":129178116},"arcs":[1013]},{"type":"LineString","properties":{"kind":"highway","name:en":"Takadayama Tunnel","name:ja":"\u305f\u304b\u3060\u3084\u307e\u3068\u3093\u306d\u308b","sort_rank":383,"kind_detail":"motorway","source":"openstreetmap.org","min_zoom":8.0,"ref":"E42","id":26513414},"arcs":[1014]},{"type":"LineString","properties":{"kind":"major_road","name:en":"National Route 24","name:ja":"\u56fd\u905324\u53f7","sort_rank":381,"landuse_kind":"urban_area","source":"openstreetmap.org","min_zoom":8.0,"kind_detail":"trunk","ref":"24"},"arcs":[1015]},{"type":"LineString","properties":{"kind":"major_road","network":"JP:national","sort_rank":381,"kind_detail":"trunk","source":"openstreetmap.org","min_zoom":8.0,"shield_text":"425","ref":"168","id":126891490,"name:ja":"\u6298\u7acb\u6a4b"},"arcs":[1016]},{"type":"MultiLineString","properties":{"source":"openstreetmap.org","kind":"major_road","sort_rank":380,"kind_detail":"primary","ref":"46","min_zoom":8.0},"arcs":[[1017],[1018]]},{"type":"LineString","properties":{"source":"openstreetmap.org","kind":"major_road","landuse_kind":"urban_area","sort_rank":380,"kind_detail":"primary","ref":"14","min_zoom":8.0},"arcs":[1019]},{"type":"LineString","properties":{"kind":"major_road","cycleway_left":"track","sort_rank":381,"kind_detail":"trunk","is_bicycle_related":true,"source":"openstreetmap.org","min_zoom":8.0,"landuse_kind":"urban_area","ref":"370","id":129852493},"arcs":[1020]},{"type":"MultiLineString","properties":{"source":"openstreetmap.org","kind":"major_road","sort_rank":380,"kind_detail":"primary","ref":"36","min_zoom":8.0},"arcs":[[1021],[1022],[1023],[1024],[1025]]},{"type":"MultiLineString","properties":{"kind":"highway","name:en":"Keinawa Expressway;Kihoku-West Rd.","name:ja":"Keinawa Jid\u014dsha-d\u014d;Kihoku-Nishi Douro","sort_rank":383,"kind_detail":"motorway","source":"openstreetmap.org","min_zoom":8.0,"ref":"E24"},"arcs":[[1026],[1027],[1028]]},{"type":"MultiLineString","properties":{"kind":"major_road","network":"JP:national","sort_rank":381,"kind_detail":"trunk","source":"openstreetmap.org","min_zoom":8.0,"shield_text":"169","ref":"169;309"},"arcs":[[1029],[1030],[1031],[1032],[1033],[1034],[1035],[1036],[1037],[1038]]},{"type":"LineString","properties":{"source":"openstreetmap.org","kind":"major_road","name:en":"National Route 480 Bypass","sort_rank":381,"kind_detail":"trunk","min_zoom":8.0,"id":342937004},"arcs":[1039]},{"type":"LineString","properties":{"source":"openstreetmap.org","kind":"highway","landuse_kind":"urban_area","sort_rank":383,"kind_detail":"motorway","min_zoom":8.0,"id":481202664},"arcs":[1040]},{"type":"LineString","properties":{"source":"openstreetmap.org","kind":"major_road","sort_rank":380,"kind_detail":"primary","ref":"42","min_zoom":8.0,"id":121365750},"arcs":[1041]},{"type":"LineString","properties":{"kind":"major_road","name:en":"Prefectural Road 118","name:ja":"\u770c\u9053118\u53f7\u7dda","sort_rank":380,"kind_detail":"primary","source":"openstreetmap.org","min_zoom":8.0,"landuse_kind":"urban_area","ref":"118","id":129331529},"arcs":[1042]},{"type":"LineString","properties":{"kind":"major_road","name:en":"Kumano Kaido;National Highway Rte 42","name:ja":"\u718a\u91ce\u8857\u9053;\u56fd\u905342\u53f7","sort_rank":381,"kind_detail":"trunk","source":"openstreetmap.org","min_zoom":8.0,"landuse_kind":"urban_area","ref":"42","id":62226474},"arcs":[1043]},{"type":"MultiLineString","properties":{"source":"openstreetmap.org","kind":"major_road","sort_rank":381,"kind_detail":"trunk","ref":"168;169","min_zoom":8.0},"arcs":[[1044],[1045],[1046]]},{"type":"LineString","properties":{"kind":"major_road","name:en":"Tanabe - Shirahama highway","sort_rank":380,"kind_detail":"primary","source":"openstreetmap.org","min_zoom":8.0,"landuse_kind":"urban_area","ref":"31","id":129179587},"arcs":[1047]},{"type":"LineString","properties":{"kind":"major_road","name:en":"National Route 370","name:ja":"\u56fd\u9053370\u53f7\u7dda","sort_rank":381,"kind_detail":"trunk","source":"openstreetmap.org","min_zoom":8.0,"landuse_kind":"urban_area","ref":"370","id":385079469},"arcs":[1048]},{"type":"LineString","properties":{"kind":"major_road","name:en":"National Route 424","name:ja":"\u56fd\u9053424\u53f7","sort_rank":381,"kind_detail":"trunk","is_bicycle_related":true,"bicycle_shield_text":"R-1","bicycle_network":"lcn","source":"openstreetmap.org","min_zoom":8.0,"landuse_kind":"urban_area","ref":"424","id":129605502},"arcs":[1049]},{"type":"MultiLineString","properties":{"source":"openstreetmap.org","kind":"major_road","sort_rank":380,"kind_detail":"primary","ref":"7","min_zoom":8.0},"arcs":[[1050],[1051],[1052],[1053]]},{"type":"LineString","properties":{"kind":"major_road","name:en":"Kumano Kaido; National Route 42","network":"JP:national","sort_rank":381,"kind_detail":"trunk","source":"openstreetmap.org","min_zoom":8.0,"shield_text":"42","ref":"42","id":120616383,"name:ja":"\u718a\u91ce\u8857\u9053; \u56fd\u905342\u53f7"},"arcs":[1054]},{"type":"MultiLineString","properties":{"source":"openstreetmap.org","kind":"major_road","sort_rank":380,"kind_detail":"primary","ref":"34","min_zoom":8.0},"arcs":[[1055],[1056],[1057],[1058],[1059],[1060]]},{"type":"MultiLineString","properties":{"kind":"major_road","name:en":"Kumano Kaido; National Highway Rte 42","network":"JP:national","sort_rank":381,"landuse_kind":"urban_area","source":"openstreetmap.org","min_zoom":8.0,"kind_detail":"trunk","shield_text":"42","ref":"42","name:ja":"\u718a\u91ce\u8857\u9053; \u56fd\u905342\u53f7"},"arcs":[[1061],[1062],[1063],[1064],[1065],[1066],[1067],[1068],[1069],[1070],[1071],[1072],[1073],[1074],[1075],[1076],[1077],[1078],[1079],[1080],[1081]]},{"type":"LineString","properties":{"kind":"major_road","network":"JP:national","sort_rank":381,"kind_detail":"trunk","source":"openstreetmap.org","min_zoom":8.0,"shield_text":"425","ref":"424"},"arcs":[1082]},{"type":"MultiLineString","properties":{"kind":"highway","name:en":"Kisei Expressway","name:ja":"\u304d\u305b\u3044\u3058\u3069\u3046\u3057\u3083\u3069\u3046","sort_rank":383,"kind_detail":"motorway","source":"openstreetmap.org","min_zoom":8.0,"landuse_kind":"urban_area","ref":"E42"},"arcs":[[1083],[1084],[1085],[1086]]},{"type":"MultiLineString","properties":{"source":"openstreetmap.org","kind":"major_road","sort_rank":381,"kind_detail":"trunk","ref":"169;309","min_zoom":8.0},"arcs":[[1087],[1088]]},{"type":"MultiLineString","properties":{"kind":"major_road","name:en":"National Route 480","sort_rank":381,"landuse_kind":"urban_area","source":"openstreetmap.org","min_zoom":8.0,"kind_detail":"trunk","ref":"480"},"arcs":[[1089],[1090]]},{"type":"LineString","properties":{"kind":"major_road","name:ja":"\u770c\u905363\u53f7","sort_rank":380,"kind_detail":"primary","source":"openstreetmap.org","min_zoom":8.0,"landuse_kind":"urban_area","ref":"63","id":43047359},"arcs":[1091]},{"type":"MultiLineString","properties":{"kind":"major_road","network":"JP:national","sort_rank":381,"kind_detail":"trunk","source":"openstreetmap.org","min_zoom":8.0,"shield_text":"309","ref":"309"},"arcs":[[1092],[1093],[1094],[1095],[1096],[1097],[1098],[1099],[1100],[1101]]},{"type":"LineString","properties":{"kind":"major_road","name:en":"National Highway Rte 424","name:ja":"\u56fd\u9053424\u53f7\u7dda","sort_rank":381,"kind_detail":"trunk","source":"openstreetmap.org","min_zoom":8.0,"ref":"424","id":129852609},"arcs":[1102]},{"type":"LineString","properties":{"source":"openstreetmap.org","kind":"major_road","sort_rank":380,"kind_detail":"primary","ref":"15","min_zoom":8.0},"arcs":[1103]},{"type":"LineString","properties":{"kind":"major_road","name:en":"National Route 168","name:ja":"\u56fd\u9053168\u53f7\u7dda","sort_rank":381,"kind_detail":"trunk","source":"openstreetmap.org","min_zoom":8.0,"ref":"168","id":129178382},"arcs":[1104]},{"type":"LineString","properties":{"kind":"major_road","name:en":"National Route 26","network":"JP:national","sort_rank":381,"kind_detail":"trunk","official_name":"\u4e00\u822c\u56fd\u905326\u53f7","source":"openstreetmap.org","min_zoom":8.0,"landuse_kind":"urban_area","shield_text":"26","id":-2283740,"osm_relation":true},"arcs":[1105]},{"type":"LineString","properties":{"kind":"major_road","sort_rank":380,"kind_detail":"primary","is_bicycle_related":true,"bicycle_shield_text":"R-1","bicycle_network":"lcn","source":"openstreetmap.org","min_zoom":8.0,"landuse_kind":"urban_area","ref":"4","id":126034362},"arcs":[1106]},{"type":"MultiLineString","properties":{"source":"openstreetmap.org","kind":"major_road","sort_rank":380,"kind_detail":"primary","ref":"31","min_zoom":8.0},"arcs":[[1107],[1108]]},{"type":"MultiLineString","properties":{"source":"openstreetmap.org","kind":"major_road","sort_rank":380,"kind_detail":"primary","ref":"4","min_zoom":8.0},"arcs":[[1109],[1110],[1111],[1112],[1113]]},{"type":"LineString","properties":{"source":"openstreetmap.org","kind":"major_road","sort_rank":380,"kind_detail":"primary","ref":"48","min_zoom":8.0},"arcs":[1114]},{"type":"MultiLineString","properties":{"source":"openstreetmap.org","kind":"major_road","name:en":"National Route 168","sort_rank":381,"kind_detail":"trunk","ref":"168","min_zoom":8.0},"arcs":[[1115],[1116]]},{"type":"MultiLineString","properties":{"kind":"major_road","name:ja":"\u56fd\u9053370\u53f7\u7dda","sort_rank":381,"landuse_kind":"urban_area","source":"openstreetmap.org","min_zoom":8.0,"kind_detail":"trunk","ref":"370"},"arcs":[[1117],[1118],[1119]]},{"type":"MultiLineString","properties":{"kind":"major_road","name:en":"National Route 311","name:ja":"\u56fd\u9053311\u53f7","sort_rank":381,"kind_detail":"trunk","source":"openstreetmap.org","min_zoom":8.0,"ref":"311"},"arcs":[[1120],[1121],[1122]]},{"type":"MultiLineString","properties":{"source":"openstreetmap.org","kind":"major_road","sort_rank":380,"kind_detail":"primary","ref":"62","min_zoom":8.0},"arcs":[[1123],[1124]]},{"type":"MultiLineString","properties":{"source":"openstreetmap.org","kind":"major_road","landuse_kind":"urban_area","sort_rank":380,"kind_detail":"primary","ref":"118","min_zoom":8.0},"arcs":[[1125],[1126]]},{"type":"LineString","properties":{"kind":"major_road","network":"JP:national","sort_rank":381,"kind_detail":"trunk","source":"openstreetmap.org","min_zoom":8.0,"shield_text":"425","ref":"169;309;425"},"arcs":[1127]},{"type":"LineString","properties":{"kind":"highway","name:en":"Iseki Tunnel","network":null,"sort_rank":383,"kind_detail":"motorway","source":"openstreetmap.org","min_zoom":8.0,"all_networks":[null],"shield_text":"42","ref":"E42","id":26513396,"all_shield_texts":["42"],"name:ja":"\u3044\u305b\u304d\u3068\u3093\u306d\u308b"},"arcs":[1128]},{"type":"LineString","properties":{"source":"openstreetmap.org","kind":"major_road","name:en":"National Route 260","sort_rank":381,"kind_detail":"trunk","ref":"260","min_zoom":8.0},"arcs":[1129]},{"type":"MultiLineString","properties":{"source":"openstreetmap.org","kind":"highway","landuse_kind":"urban_area","sort_rank":383,"kind_detail":"motorway","ref":"26","min_zoom":8.0},"arcs":[[1130],[1131]]}]},"earth":{"type":"GeometryCollection","geometries":[{"type":"MultiPolygon","properties":{"sort_rank":10,"source":"naturalearthdata.com","kind":"earth","min_zoom":0.0,"id":3323},"arcs":[[[1132]]]}]},"landuse":{"type":"GeometryCollection","geometries":[{"type":"MultiPolygon","properties":{"source":"naturalearthdata.com","kind":"urban_area","name":"","area":1074363558,"sort_rank":11,"min_zoom":4.0},"arcs":[[[1133]],[[1134]],[[1135]],[[1136]],[[1137]]]}]}},"type":"Topology","transform":{"translate":[135.0,33.1375511923],"scale":[0.0003433228,0.0002855451]},"arcs":[[[0,1111],[596,35],[291,-271],[279,-161],[327,-122],[197,-33],[149,-120],[180,-75],[285,-23],[378,100],[191,105],[147,132],[166,279],[204,205],[86,189],[620,519]],[[3091,1965],[-227,132],[-31,-4],[6,-43],[-95,41],[-10,78],[-30,-10],[-62,46],[-43,116],[-103,61],[3,194]],[[3851,1667],[-626,206],[-134,92]],[[2499,2576],[-19,74],[-125,43],[-20,-38],[-133,-37],[-93,64],[-111,2],[-74,-22],[5,-30],[-42,-43],[-87,-17],[25,40],[-11,51],[-63,16],[27,38],[19,142],[59,-11],[4,120],[-48,86],[-82,12],[17,66],[-56,91],[-39,-2],[-80,69],[29,28],[-7,54],[91,54],[30,110],[96,39],[-3,36],[61,50],[10,27],[-32,28],[27,59],[84,31],[104,-57],[57,44],[-26,150],[-76,52],[-35,-27],[-35,128]],[[0,3706],[0,-47]],[[607,4096],[-9,-66],[-60,-33],[-91,-16],[-20,33],[-29,-36],[-32,14],[-41,-20],[-43,87],[28,37]],[[696,4096],[-41,-22],[-43,22]],[[883,4096],[-30,-28],[-17,28]],[[0,1111],[596,35],[291,-271],[316,-179],[314,-111],[173,-26],[122,-103],[176,-84],[188,-35],[161,8],[345,96],[254,152],[143,160],[107,204],[184,175],[106,219],[375,316]],[[2548,2536],[-37,4],[0,48],[-12,-12]],[[2648,2735],[-44,6],[3,-49],[-42,11]],[[3244,4096],[-52,-15],[0,-32],[105,-146],[-65,-84],[25,-48],[-60,-42],[-14,-43],[47,-18],[-13,-40],[30,-44],[-37,-69],[18,-51],[-26,-27],[25,-55],[-16,-25],[47,-48],[-74,1],[-3,-120],[35,-79],[-150,22],[-44,31],[-17,-32],[-39,14],[-43,-91]],[[2565,2703],[14,-89],[22,-7],[-2,42],[27,-42],[-11,-43],[-56,8],[-11,-36]],[[2923,3055],[3,-27],[-27,-5],[48,-119],[-36,-39],[-36,44],[-29,-6],[-27,-134],[-113,46],[7,-28],[-29,3],[-12,-37],[47,-22],[-71,4]],[[3851,1667],[245,204]],[[2548,2536],[23,60],[-33,35],[-30,-6],[-7,27],[21,95],[42,-15],[1,-29]],[[2648,2735],[-49,96],[69,94],[31,30],[43,-20],[98,37],[83,83]],[[365,3390],[31,9]],[[365,3390],[26,9],[5,0]],[[365,3390],[-29,-20],[2,-40],[212,-58],[30,-34],[-23,-44]],[[367,2881],[5,31],[71,45]],[[367,2881],[1,-6],[17,-52],[8,-18]],[[367,2881],[26,-76]],[[580,2699],[-135,-4],[-52,110]],[[396,3399],[47,9],[9,44],[31,16]],[[443,2957],[3,3],[2,4],[0,70]],[[443,2957],[3,5]],[[446,2962],[0,2]],[[446,2964],[-3,63],[2,5],[3,2]],[[448,3034],[105,134]],[[483,3468],[8,4],[4,2],[18,32],[32,12],[-9,0],[-20,-10],[-5,-4],[-28,-36]],[[613,3613],[-63,30],[-3,37]],[[551,3769],[7,62]],[[553,3168],[4,26]],[[553,3168],[-1,17],[5,9]],[[784,4096],[6,-100],[-176,-44],[-59,-101]],[[558,3832],[-2,9]],[[564,3517]],[[564,3517],[7,0],[12,2],[17,8]],[[564,3517],[36,10]],[[580,2699],[20,-5]],[[601,2621],[-1,73]],[[600,3527],[25,16],[-8,40]],[[601,2621],[-3,-29],[33,-14]],[[601,2621],[30,-43]],[[613,3613],[2,-24],[2,-6]],[[613,3613],[1,-6],[1,-17],[2,-7]],[[870,2232],[-182,28],[14,66],[-41,18],[-21,46],[40,130],[-49,58]],[[870,2232],[28,4]],[[2890,2073],[26,-53],[-30,-73],[-62,-52],[8,-57],[-102,-60],[9,-78],[-45,-48],[10,-56],[-32,-68],[-140,-97],[-11,-59],[-30,-21],[-97,-4],[-19,-53],[-52,-24],[-56,-94],[-56,70],[-244,-10],[-137,73],[-104,-11],[-100,37],[-44,44],[-134,41],[-15,117],[-92,20],[-168,101],[0,96],[-51,91],[13,57],[70,21],[13,77],[-121,107],[-44,-11],[-28,51],[-127,89]],[[273,4096],[-65,-75],[-30,-65],[92,-25],[78,-62],[46,-51],[39,-148],[50,4],[40,-73],[30,-57],[-8,-48],[-112,8],[-75,-4],[22,-51],[0,-32],[-5,-16],[-9,-9],[-24,-9],[-7,-6],[-60,-120],[49,-6],[64,-26],[58,-35],[28,-30],[-3,-52],[-25,-53],[-73,-40],[-43,-18],[-62,-5],[-47,-50],[4,-65],[52,-1],[18,-15],[-48,-43],[-44,-40],[24,-43],[3,-44],[-43,0],[-20,-16],[27,-17],[-15,-23],[-8,-35],[20,20],[101,15],[54,10],[99,-59],[60,-132],[67,-82],[97,-57],[8,-58],[93,-2],[86,-62],[53,6],[27,-44],[57,-27],[148,-111],[31,-43],[-67,-11],[-106,-15],[-45,-79],[42,-49],[49,-11],[31,-32],[16,-6],[17,-22],[34,-63],[-16,-39],[1,-48],[30,-40],[34,-30],[104,-82],[133,-33],[428,-164],[89,-14],[284,-31],[15,-47],[-49,-58],[18,-64],[35,40],[50,-13],[3,43],[-21,68],[43,78],[33,35],[55,30],[165,54],[28,44],[53,21],[98,106],[40,53],[-62,38],[-5,48],[59,29],[13,58],[56,37],[28,104],[9,13],[68,166],[153,397],[103,155],[61,-6],[33,3],[16,11],[29,44],[23,25],[13,10],[99,16],[22,22],[14,62],[50,-22],[18,35],[-21,46],[-66,13],[0,21],[42,34],[38,42],[19,-37],[25,-38],[33,-20],[42,19],[7,30],[-2,94],[5,20],[10,17],[-27,38],[-52,54],[-7,45],[-19,27],[-31,13],[-43,-1],[0,27],[34,24],[47,75],[19,18],[23,-12],[36,-68],[30,-16],[23,4],[26,11],[24,16],[15,17],[16,48],[-8,20],[-23,12],[-33,27],[6,101],[109,104],[139,71],[64,0],[0,-3736],[-4096,0],[0,4096],[273,0]],[[2328,1143],[14,-4],[15,2],[27,-10],[24,-33],[8,-1],[68,40],[10,15],[7,18],[-10,7],[-54,10],[-78,5],[-25,-21],[-6,-28]],[[134,4066],[-33,-19],[11,1],[9,-8],[44,15],[6,8],[-37,3]],[[72,4037],[-2,7],[-18,-9],[-30,-26],[-12,9],[-6,-10],[3,-18],[23,-7],[5,0],[11,13],[8,15],[8,6],[2,14],[8,6]],[[4096,3736],[-64,0],[-139,-71],[-109,-104],[-6,-101],[33,-27],[23,-12],[8,-20],[-16,-48],[-15,-17],[-24,-16],[-26,-11],[-23,-4],[-30,16],[-36,68],[-23,12],[-19,-18],[-47,-75],[-34,-24],[0,-27],[43,1],[31,-13],[19,-27],[7,-45],[52,-54],[27,-38],[-10,-17],[-5,-20],[2,-94],[-7,-30],[-42,-19],[-33,20],[-25,38],[-19,37],[-38,-42],[-42,-34],[0,-21],[66,-13],[21,-46],[-18,-35],[-50,22],[-14,-62],[-22,-22],[-99,-16],[-13,-10],[-23,-25],[-29,-44],[-16,-11],[-33,-3],[-61,6],[-103,-155],[-153,-397],[-68,-166],[-9,-13],[-28,-104],[-56,-37],[-13,-58],[-59,-29],[5,-48],[62,-38],[-40,-53],[-98,-106],[-53,-21],[-28,-44],[-165,-54],[-55,-30],[-33,-35],[-43,-78],[21,-68],[-3,-43],[-50,13],[-35,-40],[-18,64],[49,58],[-15,47],[-284,31],[-89,14],[-428,164],[-133,33],[-104,82],[-34,30],[-30,40],[-1,48],[16,39],[-34,63],[-17,22],[-16,6],[-31,32],[-49,11],[-42,49],[45,79],[106,15],[67,11],[-31,43],[-148,111],[-57,27],[-27,44],[-53,-6],[-86,62],[-93,2],[-8,58],[-97,57],[-67,82],[-60,132],[-99,59],[-54,-10],[-101,-15],[-20,-20],[8,35],[15,23],[-27,17],[20,16],[43,0],[-3,44],[-24,43],[44,40],[48,43],[-18,15],[-52,1],[-4,65],[47,50],[62,5],[43,18],[73,40],[25,53],[3,52],[-28,30],[-58,35],[-64,26],[-49,6],[60,120],[7,6],[24,9],[9,9],[5,16],[0,32],[-22,51],[75,4],[112,-8],[8,48],[-30,57],[-40,73],[-50,-4],[-39,148],[-46,51],[-78,62],[-92,25],[30,65],[65,75]],[[2349,4096],[-13,0]],[[2356,4096],[-1,0]],[[2363,4096],[22,-10]],[[2441,4005],[-28,-57]],[[2695,3743],[-49,11],[-29,52],[-63,12],[-69,86]],[[2691,3687],[12,23]],[[2691,3687],[2,-1]],[[2694,3686],[17,23],[12,-21]],[[2703,3711],[-7,32]],[[2723,3688],[5,-6]],[[2729,3682],[2,-1]],[[2765,3670],[10,13]],[[2776,3683],[118,6]],[[1436,1439],[1,-3]],[[2146,3740],[-16,-27]],[[564,2756],[119,9],[21,57],[61,1],[32,52],[31,-19],[73,63],[124,28],[19,-36],[16,42]],[[484,3962],[-7,46]],[[2248,1421],[17,26],[-60,105],[29,81],[58,28],[-26,37],[18,31],[-25,17],[61,46],[22,-16],[45,99],[36,-23],[77,46],[50,-40],[-2,-54],[48,-19],[29,29],[40,-2]],[[2708,1782],[17,-8]],[[2301,2395],[1,0]],[[2071,4096],[41,-72],[27,13],[40,-46],[-5,-48],[-41,-13],[17,-35],[-29,-129],[25,-26]],[[2130,3713],[37,-59],[5,-2]],[[2172,3652],[4,-2],[28,-31],[-15,-47]],[[2161,3674],[2,-3],[9,-19]],[[2172,3652],[3,-6],[0,-3],[21,-19]],[[2181,3295],[-5,-19]],[[2191,3582],[-2,-10]],[[2189,3572],[-14,-42],[61,-63]],[[2191,3589],[-1,-6]],[[2199,3338],[17,16]],[[2199,3338],[9,-18]],[[2199,3338],[1,-10],[10,-17],[-25,-8],[-11,-15],[-4,-57],[58,-4],[36,-45]],[[2209,2582],[5,10]],[[2213,2635],[1,0]],[[2236,2672],[-22,-37]],[[2214,2635],[0,-43]],[[2215,2590],[20,-77]],[[2217,2799],[37,-18],[-13,-36],[34,-27],[-19,-33]],[[2222,3360],[27,59]],[[2229,2520],[2,2]],[[2236,3467],[4,-27],[0,-1],[8,-17],[1,-3]],[[2236,3467],[13,-48]],[[2254,2447],[-1,-1]],[[2287,3178],[16,14],[-29,-63],[45,-66],[-11,-80],[27,-53]],[[2327,2975],[16,-48],[-11,-79]],[[2890,3552],[-3,-7]],[[2888,3543],[3,-8]],[[2891,3535],[21,-72]],[[2894,3689],[33,-39]],[[2896,3567],[-1,-10]],[[2896,3605],[3,-9]],[[2920,3631],[-23,-22]],[[2899,3590],[3,-18]],[[2899,3594],[0,-1]],[[2923,3636]],[[2924,3642],[0,-4]],[[2926,3648]],[[2221,2382],[-8,1]],[[2261,2402],[-38,-21]],[[2261,2405]],[[2652,2586],[-9,5]],[[2657,2586],[26,-2]],[[2693,2586],[50,-42],[25,10]],[[2769,2554],[36,-13]],[[2841,2532],[-2,0]],[[2844,2533],[59,-28]],[[2914,2490],[28,-10]],[[2948,2478],[1,-1]],[[2962,2479],[33,25],[1,59],[138,20],[23,-17]],[[3249,2667],[45,-10],[40,72]],[[3535,3028],[42,-44],[59,-3],[16,72],[-170,150]],[[1989,1844],[-50,60],[-38,1],[-23,57]],[[2730,1780],[44,17]],[[567,3218],[159,11]],[[569,3221],[13,22]],[[582,3243],[149,-3]],[[562,3581],[-3,1]],[[1039,2148],[-12,2]],[[1028,2151],[11,-3]],[[1073,2131],[-34,17]],[[1131,2114],[-58,17]],[[1073,2131],[92,-37],[23,-64],[-3,-11]],[[1185,2019],[3,11],[-17,32],[-6,32]],[[2975,2139],[2,5]],[[418,2771],[42,-15]],[[776,2548],[-89,18],[-21,58]],[[2273,1148],[38,-57],[-104,-41],[-5,50],[63,45]],[[541,2594],[4,-8]],[[511,3115],[31,41]],[[2838,2786],[-10,3]],[[2855,2767],[33,-63],[78,-31],[32,14],[-20,-46],[41,-47],[45,-3],[1,-120],[34,-7]],[[3251,2676],[-4,-1]],[[2523,3869],[-24,9]],[[2535,3873],[-10,-4]],[[2535,3875],[-1,23]],[[3890,3766],[-24,19]],[[989,4048],[-67,-10]],[[1242,1960],[50,-33],[35,7]],[[1105,3892],[-22,-9]],[[1259,3939],[14,1]],[[1526,4046],[78,14]],[[1636,4034],[1,-1]],[[1643,4032],[1,-1]],[[333,3318],[1,-1]],[[358,3313]],[[439,3306],[-1,1]],[[470,3298],[83,-30],[78,24],[110,-41]],[[736,3244],[20,-33]],[[1303,4005],[40,82]],[[2545,2313],[-67,-34],[-8,-89],[-83,-63],[16,-49],[-31,-130]],[[361,3313],[16,-14]],[[379,3298],[32,-37],[-9,-38],[47,-25]],[[428,3215],[30,-21],[1,-4],[3,-2],[17,-15],[17,-6],[23,-25]],[[450,3196],[14,-10]],[[803,3592],[7,0]],[[1406,3968],[4,-42]],[[1411,3925],[3,-6]],[[1708,3767],[-64,21],[-61,-34],[-18,35]],[[1657,3714],[11,52]],[[1708,3736],[-33,16]],[[955,2242],[-1,1]],[[533,2645],[0,2]],[[536,2604],[-3,41]],[[536,2604],[5,-10]],[[537,2660],[-1,-3]],[[545,2586],[10,-32]],[[555,2554],[37,-21]],[[584,3242],[1,-17]],[[937,2252],[17,-9]],[[998,2221],[-43,21]],[[1046,2151],[-28,55]],[[1075,2132],[-3,1]],[[333,3320],[-1,0]],[[332,3318],[1,0]],[[1135,2074],[46,-59]],[[373,2654],[5,20]],[[380,2678],[58,8]],[[3457,3157],[34,-89],[-100,-144],[-28,-96],[-112,-152]],[[1025,3868],[0,-50],[48,-26]],[[1684,4062],[-40,-31]],[[509,3917],[-25,43]],[[2895,3859],[-9,-13]],[[2886,3846],[0,-1]],[[2889,4091],[10,-12]],[[2890,4096],[-1,-4]],[[2894,3690],[0,-1]],[[2910,3718],[-14,-25]],[[2896,3863],[0,-1]],[[2900,3896]],[[2900,3896]],[[2902,4078],[7,-37]],[[2903,3896]],[[2903,3786],[5,-5]],[[2904,3894]],[[2906,3739],[2,-8]],[[2908,3781],[1,-13]],[[2909,3729],[1,-7]],[[2909,4040],[15,-22]],[[2910,3721],[0,-2]],[[2923,4008],[0,-4]],[[2924,4016]],[[2924,4002],[12,-19]],[[2928,3950],[-3,-4]],[[2934,3958],[-5,-7]],[[2949,3959],[-14,0]],[[2941,3979],[11,-16]],[[997,1890],[-12,-11]],[[990,1848],[59,-33],[76,21],[28,-22]],[[998,1891],[0,1]],[[1018,2206],[-20,15]],[[1656,3991],[-51,-47]],[[1181,2012],[7,-9]],[[195,3981],[23,19]],[[677,2520],[-25,-112],[-31,-39]],[[684,2521],[3,45]],[[218,4000],[34,96]],[[879,4029],[-63,-1]],[[583,3427],[3,42],[27,50],[10,9],[40,19],[23,84]],[[583,3245],[0,140]],[[586,3381],[0,-91],[-2,-48]],[[687,3631],[-24,-85],[-76,-78],[-1,-40]],[[686,3633],[1,19],[7,36],[-67,117],[-6,17],[-1,12],[0,18],[1,16],[4,26],[12,27],[4,5],[18,22],[15,14]],[[674,3962],[-48,-68],[-6,-62],[73,-141],[1,-3],[-7,-36],[0,-19]],[[1980,3745],[-18,2]],[[3348,3018],[42,-95],[73,8]],[[3454,3309],[12,-13]],[[2906,3738],[0,-3]],[[2912,3753],[-5,-14]],[[2909,3769],[3,-15]],[[1467,4061],[-7,-5]],[[509,3917],[-4,13]],[[507,3930],[2,-13]],[[509,3906],[0,11]],[[1085,3938],[5,109]],[[815,3590],[51,7]],[[1251,4051],[-44,-8]],[[1599,4049],[5,11]],[[1624,4047]],[[1188,2002],[-3,17]],[[2261,2405],[0,6]],[[1105,2099],[9,-18]],[[982,3576],[-69,-3],[-37,28]],[[1309,3543],[-40,-42],[-46,17],[-48,-34],[-92,64],[-55,-12],[-45,39]],[[1351,3599],[-41,-56]],[[1358,3605],[-2,-1]],[[1365,3612],[-6,-7]],[[1383,3637],[-15,-17]],[[1394,3649],[-10,-11]],[[1428,3663],[-34,-13]],[[1430,3680],[0,-15]],[[1451,3698],[-18,-16]],[[1469,3713],[-17,-15]],[[1503,3744],[-33,-30]],[[754,3917],[-2,-33]],[[754,3917]],[[776,3931],[-22,-14]],[[776,3931],[-11,-19]],[[776,3931],[5,11]],[[783,3971],[-6,-32]],[[785,3970],[2,6]],[[752,2338],[31,-7]],[[1470,1483],[4,-4]],[[1072,2133],[-26,18]],[[588,2547],[170,-38],[38,59],[153,39]],[[1284,2638],[-3,93],[-56,25],[-13,-30],[-81,-10],[-183,-108]],[[1332,2605],[-2,27],[-22,-10]],[[1308,2622],[-18,-9],[-6,25]],[[1284,2638],[24,-16]],[[1308,2622],[24,-17]],[[1332,2605],[53,-1],[1,33],[46,-13],[-21,101],[46,-7],[106,49],[35,40],[32,1],[2,38],[31,-16],[7,30],[25,-6],[11,31],[98,45],[47,-39],[61,9],[-28,13],[15,28],[64,-60],[78,11],[18,36],[24,-1],[-2,29],[29,-6],[39,-27],[8,-80],[59,-45],[129,33],[-27,55],[17,44],[92,-39],[49,27],[1,-33],[31,49],[2,67],[64,0],[24,50],[69,-7],[-10,27],[90,-55],[37,11],[-19,32]],[[2765,3060],[0,-1]],[[2765,3059],[-11,34],[29,19],[4,41],[13,-11],[-2,47],[50,-17],[64,58],[6,-24],[29,-2],[132,142],[64,-17],[33,-83],[113,-41],[-31,99],[98,47],[110,-55]],[[564,2780],[-2,-21]],[[1962,3747],[-83,-12],[-19,-17],[24,-22],[-9,-19],[-26,40],[10,29],[-66,28]],[[1980,3745],[100,-50],[50,18]],[[2392,3706],[-124,-15],[-34,59],[-39,-20],[-23,26]],[[2409,3745],[-17,-17]],[[2392,3728],[1,-7]],[[2393,3721],[2,-2]],[[2455,3821],[-1,-1]],[[2477,3857],[1,0]],[[3563,4047],[-19,-50],[-59,23],[-36,-42],[-5,-58],[25,-3],[-44,-92]],[[554,3875],[-10,0]],[[960,3571],[0,4]],[[2180,1326],[42,-115]],[[812,3591],[3,-1]],[[1605,3943],[-24,-26],[15,-74],[-93,-98]],[[1050,1836],[8,16]],[[1110,1928],[-35,-30],[-17,-46]],[[1090,1893],[-1,7]],[[1181,2015],[-24,-29]],[[1424,2643],[-10,83],[50,-4],[127,61],[41,63]],[[1157,1986],[-47,-58]],[[3251,2660],[-94,-94]],[[894,4096],[-5,-18]],[[889,4072],[8,24]],[[1193,1758],[0,-1]],[[1194,1754],[0,-2]],[[1444,1498],[1,0]],[[1568,1393],[1,0]],[[1594,1378],[1,-1]],[[1691,1341],[1,0]],[[1727,1342],[1,-1]],[[4034,4044],[0,-1]],[[1175,2168],[30,99],[44,41],[-6,36],[47,52],[-12,47],[28,24],[34,-10],[5,77],[-19,19],[34,1],[8,45]],[[1272,2809],[65,50],[49,6],[1,-4],[2,0],[49,0]],[[1438,2861],[3,0]],[[1438,2860],[0,1]],[[1438,2861],[5,5],[1,0],[22,8],[48,4],[56,39],[33,-18],[-2,-42],[32,-5]],[[1139,1633],[22,-10]],[[1159,1714],[-1,-6]],[[1169,1819],[5,-16]],[[1178,1619],[12,-26]],[[1193,1583],[20,-5]],[[1222,1554],[28,-32],[67,-13]],[[1383,1450],[53,-11]],[[1437,1436],[134,-98],[340,-59],[37,-38],[92,9],[104,-30]],[[2145,1221],[112,-28],[6,-48],[68,125],[192,106],[10,47],[133,100],[13,62],[41,10],[-28,68],[17,39],[30,6],[-23,52],[14,20]],[[2878,1990],[-62,-168],[-26,-15]],[[2874,2070],[1,10]],[[2996,2209],[161,357]],[[3249,2667],[2,-7]],[[3257,2691],[-11,41],[-64,29],[42,126],[-5,65],[38,40],[78,8],[70,102],[29,5],[48,96],[-22,63]],[[3459,3274],[28,88],[39,14]],[[3545,3494],[93,40]],[[3640,3535],[120,83],[145,150]],[[3934,3792],[-15,59],[49,14],[-16,57],[22,76],[111,65],[11,27]],[[756,3211],[133,10],[20,-35],[35,18]],[[944,3204],[27,14],[23,-7],[-12,-26],[45,11],[9,119],[32,26],[49,14],[24,-22],[33,24],[82,-43],[11,25],[33,-17],[7,31],[56,9],[62,76],[78,40],[-2,25],[161,-12],[20,88]],[[929,3207],[15,-3]],[[944,3204],[11,-2]],[[1343,4087],[6,9]],[[1414,3919],[4,-19]],[[1447,3813],[1,-1]],[[1459,3800],[19,-5]],[[1464,3796],[65,-20]],[[1657,3662],[-4,44]],[[1674,3639],[-16,23]],[[1674,3637],[19,-33]],[[1693,3603],[-3,-3]],[[1710,3735],[-2,1]],[[732,3331],[10,52],[-46,43],[13,62]],[[726,3496],[4,2]],[[1137,1635],[2,-2]],[[495,3770],[19,4]],[[604,3779],[-90,-5]],[[514,3774],[90,5]],[[545,3769],[5,1]],[[550,3770],[-5,-1]],[[550,3770]],[[598,3778],[8,-31],[211,-14],[55,41],[40,-4]],[[916,3784],[36,-18]],[[1105,3892],[88,47]],[[1141,3917],[52,22]],[[1193,3939],[66,0]],[[1273,3940],[52,53],[96,11],[87,32],[47,23]],[[1461,4034],[65,12]],[[1096,2112],[12,-1]],[[1120,2099],[-7,8]],[[713,2521],[14,-6]],[[912,2594],[36,14]],[[949,2607],[1,1],[1,1]],[[951,2609],[17,10],[17,-2]],[[951,2606],[0,3]],[[951,2609],[-1,9]],[[987,2618],[10,7]],[[2344,2834],[-59,-4]],[[2332,2848],[9,-7]],[[2342,2841],[1,-1]],[[1207,4043],[-140,-11]],[[1555,4096],[-222,-50],[-82,5]],[[559,2688],[-10,-9]],[[1623,4043],[13,-9]],[[1637,4033],[6,-1]],[[1418,3900],[29,-87]],[[1448,3812],[16,-16]],[[2210,2551],[44,-104]],[[1268,1973],[-56,-37]],[[1201,1990],[0,-1]],[[1410,3926],[1,-1]],[[509,3907],[0,-1]],[[589,3577],[24,34],[61,14],[19,63],[9,2]],[[702,3690],[-8,-7]],[[902,3895],[-180,-36],[9,-129],[-29,-40]],[[1268,1973],[33,44],[98,18],[18,42]],[[2854,2038],[-9,4]],[[2846,2040],[8,-2]],[[2875,2037],[-21,1]],[[653,2391],[8,-9]],[[1793,3774],[-9,13]],[[2454,3820],[-45,-75]],[[2477,3857],[-22,-36]],[[2478,3857],[15,22]],[[570,3221],[-2,-1]],[[613,3936],[-3,0]],[[687,3938],[-52,-2]],[[725,3940],[-37,-2]],[[727,3940],[41,2]],[[859,3970],[-6,-32]],[[860,3986],[-2,-11]],[[996,1888],[1,2]],[[1058,1852],[25,-13]],[[1100,1818],[28,-12]],[[1107,3893],[34,24]],[[1460,4056],[-2,-1]],[[4040,4055],[32,-41],[5,-82]],[[4090,3896],[-7,31]],[[1121,2139],[16,5]],[[1179,1822],[14,-64]],[[1193,1757],[1,-3]],[[1194,1752],[72,-146],[66,-64],[112,-44]],[[1445,1498],[25,-15]],[[1474,1479],[94,-86]],[[1569,1393],[25,-15]],[[1595,1377],[96,-36]],[[1692,1341],[35,1]],[[1728,1341],[17,-7]],[[3448,3306],[33,82],[58,33]],[[3652,3534],[-48,-57]],[[3652,3534],[18,15]],[[3871,3775],[-201,-226]],[[3882,3810],[-11,-35]],[[4034,4043],[-88,-102],[-64,-131]],[[4036,4055],[18,41]],[[4036,4055],[-2,-7],[0,-4],[0,4],[2,7]],[[2665,1587],[10,108],[100,219],[101,40]],[[1126,2120],[13,18]],[[922,4038],[-3,0]],[[195,3993],[-119,63],[-41,-11],[-9,-31]],[[533,2647],[3,10]],[[910,3747],[6,-4]],[[1709,4070],[-25,-8]],[[801,2324],[17,-11]],[[812,3591]],[[1096,2112],[-4,17]],[[2214,2592]],[[2434,3974],[-57,-50],[-70,18],[-123,-29],[-10,33]],[[2415,3952],[-2,1]],[[496,3810],[2,-111]],[[541,3668],[-21,10]],[[3444,3299]],[[460,2756],[52,-67]],[[499,2674],[100,-43]],[[574,2906],[5,-85]],[[786,3282],[39,30],[26,126],[-62,62],[9,31]],[[927,2211],[-2,-4]],[[928,2217],[0,2]],[[955,2323],[5,-4]],[[960,2351],[-1,4]],[[973,2387],[-4,1]],[[985,2403],[-1,3]],[[986,2410],[-2,-3]],[[991,2423],[-2,-2]],[[992,2424],[2,2]],[[999,2431],[-3,-3]],[[1003,2435],[-3,-3]],[[1005,2437],[-2,-2]],[[1006,2439],[1,1]],[[1008,2441],[0,1]],[[1015,2456],[-1,-1]],[[437,2663],[62,11]],[[473,2656],[15,1],[42,54],[18,3],[16,42]],[[496,3810],[-68,-25]],[[469,2592],[143,40]],[[2485,2436],[11,-65],[90,-50]],[[2546,2312],[-4,29]],[[2545,2312],[5,1],[36,8]],[[2571,2318],[-4,-1]],[[2586,2321],[53,-119],[86,-36],[25,-85],[59,-29]],[[2779,2063],[18,-7]],[[2802,2054],[7,-2]],[[2809,2052],[17,-7]],[[2826,2045],[11,-2]],[[2826,2045],[19,-3]],[[2839,2042],[7,-2]],[[583,3109],[-4,-12]],[[1114,2081],[4,3]],[[829,3610],[3,0]],[[861,3657],[-13,-10]],[[905,3705],[-23,-22]],[[933,3731],[-27,-25]],[[934,3733],[18,27]],[[952,3761],[20,25]],[[973,3786],[39,43]],[[1115,2105],[-10,-6]],[[1116,2103],[10,17]],[[1139,2138],[36,30]],[[887,3995],[17,-37]],[[904,3958],[-13,67]],[[911,3910],[-7,48]],[[607,2525],[-15,8]],[[607,2525],[10,-10]],[[631,2492],[22,-101]],[[661,2382],[6,-7]],[[721,2345],[-54,30]],[[721,2345],[31,-7]],[[783,2331],[18,-7]],[[818,2313],[6,-4]],[[849,2291],[8,-4]],[[907,2268],[22,-11]],[[933,2255],[4,-3]],[[1188,1901],[4,-4]],[[495,3810],[-3,15]],[[492,3825],[4,-15]],[[544,3875],[-28,-4]],[[636,3879],[-82,-4]],[[981,3938],[-70,-6]],[[1307,3999],[-203,-68],[-122,6]],[[1458,4055],[-91,-33]],[[1669,4096],[-202,-35]],[[515,3868],[-6,38]],[[509,3906],[6,-38]],[[1192,1897],[-23,-78]],[[1187,1902],[1,-1]],[[1201,1990],[-13,10]],[[1189,1999],[12,-9]],[[1201,1990],[18,-22]],[[2874,2070],[4,-80]],[[2903,2091],[63,10],[8,34]],[[2977,2149],[-3,-14]],[[2977,2149],[19,60]],[[3526,3376],[34,25],[-15,93]],[[3635,3966],[-84,99],[38,31]],[[3866,3785],[-30,5],[-24,-30],[-62,90],[-117,29],[-31,46],[14,29]],[[2813,1818],[-13,-6]],[[944,2245],[3,-4]],[[1043,2218],[66,-20],[36,-43]],[[1095,2200],[-5,-36]],[[1145,2150],[-1,-1]],[[2827,2439],[-7,-5]],[[2827,2439],[21,55]],[[2827,2439],[-34,0],[19,-17],[-21,-22],[92,-138],[-53,-96],[45,-70]],[[2844,2533],[4,-39]],[[2848,2494],[4,7]],[[2856,2488],[-8,6]],[[334,3303],[-1,5]],[[377,3299],[100,-16]],[[499,3278],[7,-4]],[[548,3590],[-2,8]],[[554,3584],[-4,4]],[[563,3251]],[[549,2679],[-12,-19]],[[562,2756],[-3,-68]],[[594,3182],[-11,63]],[[585,3225],[9,-43]],[[594,3182],[-9,-67]],[[1031,1914],[3,5]],[[1128,1806],[15,-10]],[[1302,2615],[-1,3]],[[2544,2312],[1,1]],[[334,3317],[24,-4]],[[358,3313],[80,-6]],[[439,3306],[31,-8]],[[492,3825],[2,26]],[[494,3851],[-2,-26]],[[2894,2060],[-15,14]],[[2217,2799],[68,31]],[[2332,2848],[3,82]],[[2341,2841],[1,0]],[[1078,2835],[2,0]],[[1091,2850],[14,7]],[[1644,3788],[2,0]],[[1652,3785],[0,-1]],[[1653,3706],[4,8]],[[1657,3662],[1,0]],[[1668,3766],[0,-1]],[[1674,3639],[0,-2]],[[1700,2864],[-1,-1]],[[1763,3776],[0,1]],[[2196,3624],[1,3]],[[2214,2592],[1,-2]],[[2256,2685],[-20,-13]],[[1525,4096],[-3,-29]],[[1219,1968],[-32,-66]],[[510,3892],[-1,12]],[[509,3904],[1,-13]],[[494,3851],[15,2]],[[509,3853],[5,1]],[[514,3854],[1,0]],[[515,3854],[0,1]],[[515,3855],[1,0],[-1,13]],[[516,3855],[-1,-1]],[[515,3854],[-1,0]],[[514,3854],[-5,-1]],[[509,3853],[-15,-2]],[[515,3854]],[[515,3854],[0,2],[0,12]],[[515,3855]],[[515,3855],[0,-1]],[[515,3854]],[[1185,2019],[4,-20]],[[1188,2000],[0,2]],[[2943,2123],[32,16]],[[467,2560],[77,12],[44,-25]],[[633,3865],[-19,-32]],[[614,3833],[-4,-6]],[[611,3828],[3,5]],[[614,3833],[19,32],[0,2]],[[635,3877],[-1,-9]],[[864,3933],[-11,5]],[[871,3931],[-7,2]],[[467,2560],[77,12],[44,-25]],[[1073,3792],[63,-29],[115,-3],[13,23],[172,38]],[[206,3987],[-11,6]],[[1040,1906],[35,-8]],[[1133,1901],[-52,-5]],[[1129,1936],[4,-35]],[[1135,2074],[-3,1]],[[1133,1901],[55,2]],[[1043,3542],[24,-29],[-29,-51],[22,8],[10,-35],[125,-12],[-12,-68]],[[1201,3345],[30,10],[2,-21]],[[1244,3318],[-14,-28],[36,-21]],[[1262,3285],[29,-50],[96,-6]],[[1567,3062],[-31,38],[-56,9],[-11,47]],[[1630,2992],[1,19]],[[1318,1507],[2,-2]],[[1322,1501],[3,-3]],[[1337,1463],[-12,35]],[[1343,1450],[-6,9]],[[1378,1448],[-28,-1]],[[2775,1797],[-1,0]],[[2785,1803],[-4,-3]],[[1301,3994],[2,11]],[[1404,4010],[-1,-9]],[[295,3937],[-1,1]],[[294,3938],[-46,30],[-26,31]],[[273,3958],[5,-3]],[[276,3986],[-3,-26]],[[276,3985],[-2,-25]],[[286,3945],[5,-2],[1,-2],[2,-3]],[[294,3938]],[[635,3936],[-215,-28],[-125,29]],[[295,3937],[125,-29],[215,28]],[[329,3928],[131,-40]],[[729,3962],[-116,-27]],[[1188,3962],[-7,30],[-40,13],[-270,-11],[-90,-20]],[[809,3978],[-20,-8]],[[491,3862],[-72,75]],[[465,3807],[-3,-100],[-34,-15]],[[468,3818],[5,15],[21,19]],[[494,3851],[-23,-25]],[[494,3852],[-3,10]],[[491,3862],[3,-9]],[[494,3853],[0,-1]],[[494,3852],[0,-1]],[[491,3862],[3,-9]],[[494,3852],[0,1]],[[494,3853]],[[494,3853],[0,-1]],[[494,3852],[0,-1]],[[2879,2097],[18,15]],[[471,3826],[-6,-19]],[[1158,1708],[-21,-73]],[[1174,1803],[-15,-89]],[[1161,1623],[17,-4]],[[1190,1593],[3,-10]],[[1213,1578],[9,-24]],[[2240,4096],[-61,-106]],[[3029,2964],[53,-34],[48,-109],[51,-25]],[[634,3869],[-1,-4]],[[633,3867],[0,1],[1,4]],[[634,3872],[2,17]],[[634,3868],[-1,-4]],[[633,3869],[2,10]],[[634,3871],[0,1]],[[634,3872]],[[635,3872],[-1,-3]],[[636,3889],[-2,-20]],[[636,3879],[-1,-2]],[[649,3918],[-13,-29]],[[853,3938],[-204,-20]],[[864,3933]],[[911,3932],[-40,-1]],[[4096,3896],[-6,0],[-23,-94],[-121,-48]],[[4077,3932],[-13,-89],[6,-7]],[[4072,3866],[3,4]],[[1604,4060],[18,-17]],[[1015,3866],[32,12]],[[1424,2643],[35,18]],[[1465,2233],[76,-23],[125,38],[48,-39],[4,-33]],[[1590,2604],[5,-87],[-18,-21],[-11,18],[-36,-62],[-18,-90]],[[1516,2344],[-4,18]],[[1516,2344],[10,-16]],[[1530,2323],[-4,5]],[[1564,2648],[-7,25]],[[1632,2846],[14,57],[-30,86],[60,26],[13,183],[-25,15],[-5,-22],[-18,51],[-71,42],[31,90],[82,54],[26,109],[104,45],[-52,168]],[[1635,2930],[0,1]],[[1656,1937],[0,-4]],[[1878,1962],[-32,4],[-6,-63],[-47,28],[16,-67],[-62,-63],[-59,57],[-32,75]],[[1656,1937],[19,163],[49,53]],[[1712,3719],[13,-97],[-32,-19]],[[1710,3735],[1,-1]],[[1713,3764],[1,1]],[[1724,2153],[-6,23]],[[1866,3828],[36,72],[-77,159]],[[2180,1326],[-44,85],[-110,49],[-53,70],[64,58],[-50,69],[29,85],[-27,102]],[[2507,1168],[-11,-6]],[[3460,3266],[-1,8]],[[790,4029],[4,-17],[-3,-5],[-24,-11],[-67,-18]],[[701,3979],[58,19],[8,-1],[23,10],[3,5],[-6,26],[2,58]],[[790,4096],[-2,-59]],[[2247,2083],[10,-60],[34,-36]],[[2271,2163],[-17,158],[39,73]],[[2271,2126],[9,2]],[[2284,2402],[9,-8]],[[2297,2396],[-4,-2]],[[2423,1852],[-51,96],[-74,31]],[[2500,1898],[-34,-152],[32,-51],[-13,-51],[34,-1],[16,-39],[132,-32],[8,-28]],[[2508,2591],[-26,-62],[18,-34],[-15,-59]],[[904,3888],[47,-21],[-41,-120]],[[910,3708],[14,-35]],[[916,3743],[4,-30]],[[757,3261],[-31,-32]],[[726,3229],[11,-28]],[[771,3271],[-45,-42]],[[809,3592],[0,-27]],[[1015,3866],[-3,-37]],[[1113,2107],[-5,4]],[[2261,2412],[0,-1]],[[2977,2147]],[[1268,1973],[12,6]],[[1294,1988],[-13,-8]],[[617,2515],[6,-10]],[[627,2498],[4,-6]],[[548,3589]],[[559,3582],[-10,5]],[[559,3201],[1,3]],[[1913,1278],[-5,80],[99,115]],[[583,3385],[0,42]],[[586,3428],[0,-47]],[[674,3962],[7,6],[20,11]],[[700,3978],[-26,-16]],[[788,4037],[2,-8]],[[1825,4059],[-11,37]],[[2902,2091],[-27,5]],[[806,3558],[-8,-27]],[[799,3588],[8,-16]],[[621,3573],[-22,3]],[[803,3592],[-182,-20]],[[342,2954],[28,48],[124,83]],[[357,2940],[-13,12]],[[346,2951],[9,-4],[21,-30]],[[358,2895],[-22,-18],[76,-94]],[[492,3075],[2,10]],[[494,3085],[17,30]],[[565,3213],[-4,-8]],[[1433,1442],[3,7],[7,5],[1,1]],[[1444,1455],[42,33],[99,-29],[129,60],[37,-10],[13,29]],[[1435,1446],[9,4],[0,5]],[[1444,1455],[0,1]],[[1485,1459],[4,24]],[[1763,1537],[1,1]],[[1764,1538],[65,53],[55,1],[25,66],[88,-27]],[[2159,1388],[89,33],[114,-24],[32,-80]],[[2298,1122],[83,50],[33,-22],[82,12]],[[2883,2899],[-31,2],[-14,-115],[17,-23],[-47,-49],[-33,-103],[17,-29],[-20,-18],[33,-23]],[[2886,3846],[96,-9],[23,-96],[124,-18],[66,-68]],[[2146,3740],[26,16]],[[546,3598],[4,-10]],[[944,2246],[0,-1]],[[947,2241],[96,-23]],[[1139,2138],[20,-22]],[[1140,2140],[4,9]],[[1176,2110]],[[1184,2100],[11,-5]],[[1197,2090],[58,0],[35,-29],[4,-73]],[[1280,1979],[1,1]],[[3638,3534],[2,1]],[[558,3033],[1,1]],[[718,2825],[-97,94],[-2,47],[-60,67]],[[2525,3869],[-2,0]],[[2534,3898],[29,63],[98,-6]],[[2535,3875],[0,-2]],[[1621,4080],[3,-33]],[[1623,4043],[1,4]],[[672,3556],[-52,20]],[[698,3559],[38,1],[-6,-62]],[[709,3488],[6,24],[11,-16]],[[753,3258],[-33,9],[12,64]],[[906,3706],[-1,-1]],[[934,3733],[-1,-2]],[[973,3786],[-1,0]],[[2903,2091],[-1,0]],[[496,3825],[-4,0]],[[493,3825],[3,0]],[[496,3825],[12,0]],[[508,3825],[15,1],[31,8],[-31,-8],[-15,-1]],[[623,2505],[4,-7]],[[2261,2412],[30,-13]],[[873,3674],[-8,-12]],[[928,2217],[-1,-6]],[[938,2251],[-10,-32]],[[960,2351],[-5,-28]],[[960,2319],[-2,-4]],[[959,2355],[10,33]],[[973,2387],[12,16]],[[984,2406],[0,1]],[[986,2410],[3,11]],[[991,2423],[1,1]],[[994,2426],[2,2]],[[999,2431],[1,1]],[[1003,2435]],[[1005,2437],[1,2]],[[1007,2440],[1,1]],[[1008,2442],[6,13]],[[1015,2456],[6,-1]],[[2837,2043],[2,-1]],[[585,3115],[-2,-6]],[[554,3073],[9,-33]],[[579,3097],[-23,-20]],[[562,2759],[0,-3]],[[579,2821],[-15,-41]],[[570,3017],[10,-37]],[[575,2922],[-1,-16]],[[824,2309],[25,-18]],[[356,2863],[2,32]],[[420,2756],[-5,20]],[[1943,2428],[-35,12],[-144,-96],[-131,36],[-58,-23],[-101,-81],[-23,-101],[16,-48],[-50,-50]],[[1967,2383]],[[2221,2382],[2,-1]],[[2554,2591],[-46,0]],[[2643,2591],[-43,-25],[-46,25]],[[2652,2586],[5,0]],[[2683,2584],[10,2]],[[2768,2554],[1,0]],[[2808,2541],[31,-9]],[[2844,2533],[-3,-1]],[[2903,2505],[11,-15]],[[2942,2480],[6,-2]],[[2949,2477],[13,2]],[[3294,2679],[0,-22]],[[3334,2729],[25,15],[-19,34],[70,-15],[22,62],[115,-14],[-10,37],[29,-3],[-19,41],[-84,42],[40,-7],[29,39],[-16,55],[19,13]],[[1176,2110],[-17,6]],[[1184,2100],[-8,10]],[[1197,2090],[-2,5]],[[1317,1509],[1,-2]],[[1320,1505],[2,-4]],[[1325,1498]],[[1337,1463],[0,-4]],[[1343,1450],[7,-3]],[[1378,1448],[5,2]],[[2775,1797],[6,3]],[[2785,1803],[5,4]],[[2879,2097],[-4,-17]],[[2897,2112],[46,11]],[[3257,2691],[-8,-24]],[[556,3077],[-2,-4]],[[2216,3354],[6,6]],[[2287,3178],[-23,4]],[[520,3678],[-22,21],[-3,111]],[[2144,1220],[1,1]],[[588,2547],[171,-38],[36,50],[154,48]],[[1218,2753],[-6,-27],[-133,-41],[-131,-77]],[[1332,2605],[-2,27],[-19,-13],[-2,1],[-14,2]],[[1295,2622],[-13,3],[-3,-1],[1,13]],[[1284,2638],[3,-6],[8,-10]],[[1295,2622],[2,-1],[35,-16]],[[1332,2605],[46,-4],[5,34],[48,-11],[-7,19]],[[1705,2883],[-42,-53],[-31,16]],[[1779,2914],[25,16],[58,-38],[50,8],[-13,41],[64,-60],[111,35],[7,40],[68,-33],[29,-102],[39,-22]],[[2765,3059],[18,-32],[-43,-9],[-83,53],[9,-27],[-69,6],[-23,-49],[-63,0],[10,-55],[-45,-61],[1,32],[-59,-13],[-83,26]],[[2793,3178],[-28,-119]],[[2765,3060],[0,-1]],[[2827,3195],[10,-27],[49,55],[71,-11],[105,123],[79,-4],[37,-85],[111,-41],[-40,93],[107,53],[98,-42]],[[888,4025],[1,53]],[[1120,2099],[15,-25]],[[686,3631],[0,2]],[[687,3633],[0,-2]],[[404,3781],[16,2]],[[924,3673],[-32,-70]],[[1187,2022]],[[787,3976],[-2,120]],[[1082,3883],[-35,-5]],[[1084,3894],[-1,-11]],[[1085,3938],[-1,-44]],[[1303,1581]],[[1303,1581],[0,2]],[[1303,1583],[0,1]],[[1454,1798],[-97,-60],[49,-94],[-86,-32],[-17,-29]],[[1303,1583],[-1,-1],[1,-1]],[[1303,1581],[40,-36],[-29,-31]],[[1494,1870],[49,-33],[37,27],[6,80],[69,-12]],[[1644,4031],[12,-40]],[[1681,4058],[6,2]],[[2562,2720],[-24,-24],[14,-29],[10,-14]],[[2562,2653],[8,-7],[-3,-5],[-5,1]],[[2562,2642],[-22,2],[-8,8],[3,-44],[-28,-17]],[[2562,2720],[-3,-5],[3,-61],[0,-1]],[[2562,2653],[0,-11]],[[2562,2642],[1,-4],[0,-6],[-13,-42]],[[3029,2964],[-72,-22],[-3,-31],[-46,-37],[-35,41],[-29,-9],[-20,-123],[-125,34],[-27,-75],[-56,10],[-54,-32]],[[2828,3195],[0,1]],[[2903,3902],[0,-6]],[[2905,3903],[4,-1]],[[2907,3739],[-1,-1]],[[2912,3754],[0,-1]],[[2929,3951],[0,1]],[[1084,3894]],[[737,3201],[17,-46],[74,18],[-5,-27],[45,-58],[125,-18],[70,-118],[16,-118],[69,74],[64,-56],[45,3],[15,-43],[-54,-59]],[[786,3282],[-15,-11]],[[1067,2486],[-15,-32],[-1,4]],[[1051,2458],[-10,23],[-20,-26],[20,6],[10,-3]],[[1051,2458],[16,28]],[[1280,2637],[-54,1],[-58,-129],[-101,-23]],[[1165,2094],[-34,20]],[[919,4038],[-23,-9]],[[1067,4032],[-1,0]],[[334,3342],[-2,-15]],[[545,3611],[-4,57]],[[933,2433],[-26,61],[-85,-18],[-57,34]],[[933,2433],[0,9],[0,2]],[[957,2343],[-24,90]],[[967,2363],[88,7],[7,-47],[84,8]],[[1146,2331],[-5,-1]],[[1146,2331],[77,-12],[10,-23]],[[2886,3846]],[[2886,3845],[17,-59]],[[2889,4092],[0,-1]],[[2896,3693],[-2,-3]],[[2896,3862],[-1,-3]],[[2900,3896],[-4,-33]],[[2899,3593],[0,-3]],[[2899,4079],[3,-1]],[[2900,3896]],[[2904,3894],[-4,2]],[[2919,3932],[-16,-36]],[[2903,3896],[1,-2]],[[2909,3768],[-3,-29]],[[2908,3781]],[[2908,3731],[1,-2]],[[2909,4041],[0,-1]],[[2910,3719],[0,-1]],[[2910,3722],[0,-1]],[[2924,4016],[-1,-8]],[[2923,4004],[1,-2]],[[2924,4018],[0,-2]],[[2929,3951],[-1,-1]],[[2935,3959],[-1,-1]],[[2936,3983],[5,-4]],[[2952,3963],[-3,-4]],[[1675,3752],[-11,6]],[[1764,3777],[-56,-10]],[[1711,3734],[1,-15]],[[1761,3750],[-51,-15],[3,29]],[[1764,3777],[41,41],[61,10]],[[1770,3756],[-6,21]],[[580,2980],[-5,-58]],[[421,2751],[-1,5]],[[448,2615],[-4,9]],[[451,2611],[18,-12]],[[467,2560],[2,32]],[[546,3598],[-1,13]],[[550,3588],[12,-7]],[[335,2879],[-36,29],[-36,-36],[-51,69],[45,6],[19,42],[70,-38]],[[373,2654],[-98,-23],[-83,13],[-2,40],[33,-5],[25,29],[-24,66],[41,39],[-4,26],[77,31]],[[378,2674],[2,4]],[[612,2632],[108,4],[48,66],[92,59],[41,-7],[58,58],[-9,24],[-26,35]],[[924,2871],[-4,5]],[[953,2934],[12,-52],[-41,-11]],[[924,2871],[-3,-1]],[[0,3634],[285,131],[119,16]],[[621,3572],[0,1]],[[2805,2541],[3,0]],[[415,2776],[-59,87]],[[530,3113],[19,-124],[-68,0],[-123,-94]],[[471,2529],[6,-13]],[[494,2479],[-7,14]],[[548,3515],[-40,-16]],[[941,2188],[-58,66],[-202,11],[9,51],[-111,67]],[[957,2139],[16,-12]],[[929,2257],[4,-2]],[[807,3572],[-1,-14]],[[829,3610],[-20,-18]],[[848,3647],[-16,-37]],[[865,3662],[-4,-5]],[[958,2315],[-20,-64]],[[952,3761],[0,-1]],[[494,3849],[-1,1]],[[2291,2399],[10,-4]],[[2302,2395],[59,19],[64,70],[60,-48]],[[960,3571],[70,-47]],[[982,3576],[1,-1]],[[1310,3543],[-1,0]],[[1356,3604],[-5,-5]],[[1359,3605],[-1,0]],[[1365,3612],[3,8]],[[1383,3637],[1,1]],[[1394,3650],[0,-1]],[[1428,3663],[2,2]],[[1433,3682],[-3,-2]],[[1452,3698],[-1,0]],[[1469,3713],[1,1]],[[1503,3744],[0,1]],[[1605,3943],[0,1]],[[645,3914],[-1,0]],[[982,3937],[-1,1]],[[1367,4022],[-60,-23]],[[1268,1973],[-26,-13]],[[1145,2155],[0,-5]],[[857,2287],[50,-19]],[[515,3868],[0,-5]],[[2343,2840],[1,-6]],[[2582,1810],[33,29],[-25,35],[33,-2],[93,-113]],[[2718,1775],[37,-58]],[[636,3879],[468,52]],[[810,3592],[2,-1]],[[1327,1934],[123,-2],[45,-37],[2,-61],[-25,-48],[-16,15],[-10,-45],[58,-12],[15,-56],[120,-77],[99,21],[69,-64]],[[1747,1291],[11,37]],[[1758,1328],[1,3],[19,41],[-39,67],[11,70]],[[1758,1329],[0,-1]],[[1758,1328],[2,-15],[6,-9]],[[816,4028],[-28,-20]],[[896,4029],[-17,0]],[[1066,4032],[-77,16]],[[2887,3545],[1,-2]],[[2895,3557],[-5,-5]],[[2891,3535]],[[2897,3609],[-1,-4]],[[2902,3572],[-6,-5]],[[2899,3596],[0,-2]],[[2923,3636],[-3,-5]],[[2924,3638],[-1,-2]],[[2926,3648],[-2,-6]],[[2927,3650],[-1,-2]],[[1646,3788],[6,-3]],[[901,4030],[-5,-2]],[[2879,2074],[-5,3]],[[1685,4072],[-1,-8]],[[549,3587],[-1,2]],[[2542,2341],[0,1]],[[2732,2124]],[[2733,2125],[-1,-1]],[[1132,2075],[-18,6]],[[1750,4096],[-41,-25]],[[1083,3883],[-1,0]],[[222,3999],[-3,4]],[[278,4014],[-2,-28]],[[279,4014],[-3,-29]],[[781,3974],[-52,-12]],[[3905,3768],[29,24]],[[985,1879],[5,-31]],[[998,1892],[6,24]],[[1004,1917],[-1,33],[32,-6],[-2,-26]],[[1004,1916],[0,1],[0,-1]],[[1153,1814],[21,-11]],[[2883,2899],[44,-57],[94,-39],[68,-94],[52,-21],[59,-69]],[[333,3308],[-1,19]],[[377,3299],[-43,4]],[[334,3342],[114,67],[7,42],[53,48]],[[421,2751],[23,-127]],[[451,2611],[-3,4]],[[471,2529],[-4,31]],[[469,2599],[0,-7]],[[487,2493],[-10,23]],[[499,3278],[-22,5]],[[579,2383],[-85,96]],[[506,3274],[57,-23]],[[559,3201],[-29,-88]],[[550,3588],[-2,2]],[[562,3581],[37,-5],[13,-40],[-64,-21]],[[559,3582],[-5,2]],[[561,3205],[-2,-4]],[[559,3201],[10,20]],[[563,3251],[6,-30]],[[569,3221],[-4,-8]],[[941,2188],[16,-49]],[[973,2127],[49,12],[27,-45],[47,18]],[[1218,2753],[63,-21],[-1,-95]],[[1075,2132],[46,7]],[[1137,2144],[47,-31],[17,-123]],[[1201,1989],[-22,-167]],[[3539,3421],[65,56]],[[2793,3178],[17,-31],[16,18],[19,-76],[77,-32],[29,-51],[46,-3],[32,-39]],[[2827,3195],[-8,68],[35,48],[-16,15],[74,137]],[[1388,4028],[16,-18]],[[1403,4001],[3,-33]],[[887,3995],[1,30]],[[2385,4086],[56,-81]],[[2413,3948],[72,-44]],[[2691,3687]],[[2693,3686],[1,0]],[[2695,3743],[1,0]],[[2703,3711],[0,-1]],[[2723,3688]],[[2728,3682],[1,0]],[[2731,3681],[34,-11]],[[2775,3683],[1,0]],[[882,3683],[-9,-9]],[[410,3680],[18,12]],[[2210,2553],[0,-2]],[[468,4096],[-49,-162],[30,-94],[44,-15]],[[1622,4043],[1,0]],[[1004,1916],[36,-10]],[[1125,1944],[4,-8]],[[1251,3760],[-51,-155],[-177,8],[-41,-37]],[[1379,3807],[9,111],[28,-3]],[[1417,3903],[35,9]],[[1452,3912],[23,18]],[[1452,3912],[81,41]],[[2486,4096],[91,-93],[-22,-50]],[[2209,2582],[1,-29]],[[2253,2446],[8,-34]],[[876,3601],[-61,-11]],[[1709,4071],[0,-1]],[[1751,4096],[-1,0]],[[1943,2428],[24,-45]],[[2213,2383],[-80,-40],[-166,40]],[[2261,2405],[0,-3]],[[1104,4096],[-14,-49]],[[2852,2501],[131,-201],[47,8]],[[1684,4064],[0,-2]],[[1701,4091],[-16,-19]],[[2827,3195],[-34,-17]],[[563,3040],[7,-23]],[[3926,3785],[20,-31]],[[473,4096],[-25,-70],[29,-18]],[[484,3960],[0,2]],[[4096,4096],[0,-360],[-64,0],[-139,-71],[-109,-104],[-6,-101],[33,-27],[23,-12],[8,-20],[-16,-48],[-15,-17],[-24,-16],[-26,-11],[-23,-4],[-30,16],[-36,68],[-23,12],[-19,-18],[-47,-75],[-34,-24],[0,-27],[43,1],[31,-13],[19,-27],[7,-45],[52,-54],[27,-38],[-10,-17],[-5,-20],[2,-94],[-7,-30],[-42,-19],[-33,20],[-25,38],[-19,37],[-38,-42],[-42,-34],[0,-21],[66,-13],[21,-46],[-18,-35],[-50,22],[-14,-62],[-22,-22],[-99,-16],[-13,-10],[-23,-25],[-29,-44],[-16,-11],[-33,-3],[-61,6],[-103,-155],[-153,-397],[-68,-166],[-9,-13],[-28,-104],[-56,-37],[-13,-58],[-59,-29],[5,-48],[62,-38],[-40,-53],[-98,-106],[-53,-21],[-28,-44],[-165,-54],[-55,-30],[-33,-35],[-43,-78],[21,-68],[-3,-43],[-50,13],[-35,-40],[-18,64],[49,58],[-15,47],[-284,31],[-89,14],[-428,164],[-133,33],[-104,82],[-34,30],[-30,40],[-1,48],[16,39],[-34,63],[-17,22],[-16,6],[-31,32],[-49,11],[-42,49],[45,79],[106,15],[67,11],[-31,43],[-148,111],[-57,27],[-27,44],[-53,-6],[-86,62],[-93,2],[-8,58],[-97,57],[-67,82],[-60,132],[-99,59],[-54,-10],[-101,-15],[-20,-20],[8,35],[15,23],[-27,17],[20,16],[43,0],[-3,44],[-24,43],[44,40],[48,43],[-18,15],[-52,1],[-4,65],[47,50],[62,5],[43,18],[73,40],[25,53],[3,52],[-28,30],[-58,35],[-64,26],[-49,6],[60,120],[7,6],[24,9],[9,9],[5,16],[0,32],[-22,51],[75,4],[112,-8],[8,48],[-30,57],[-40,73],[-50,-4],[-39,148],[-46,51],[-78,62],[-92,25],[30,65],[65,75],[3823,0]],[[2857,1805],[-13,46],[48,116],[-50,79],[115,87],[16,83],[34,-11],[-150,-400]],[[1067,2150],[60,-12],[115,73],[194,-78],[-33,-96],[-111,-151],[-75,-51],[-149,-49],[-74,36],[-11,65],[143,47],[46,40],[-234,180],[9,88],[-88,89],[22,42],[147,-111],[39,-112]],[[632,2500],[-37,-17],[-18,-114],[-72,85],[-60,132],[-78,47],[34,123],[259,0],[2,-53],[-83,-119],[16,-62],[37,-22]],[[1866,4096],[-106,-96],[-421,-39],[-194,-116],[-14,-34],[-55,-11],[-28,-72],[-33,0],[0,-39],[-70,-21],[-91,21],[32,-77],[-60,-67],[-263,-128],[65,-102],[32,-15],[82,35],[11,-55],[36,-19],[-6,-37],[-156,-79],[0,-40],[-156,13],[3,42],[-28,30],[-171,67],[60,120],[40,24],[2,71],[58,32],[110,-8],[8,48],[-70,130],[-50,-4],[-39,148],[-46,51],[-78,62],[-92,25],[22,49],[168,-43],[34,42],[-1,92],[272,0],[-190,-67],[-17,-67],[291,0],[161,78],[97,-39],[84,51],[143,-12],[32,39],[146,17],[446,0]],[[3597,3489],[53,-89],[-72,-96],[-70,98],[31,15],[0,78],[58,-6]]]}