{"objects":{"water":{"type":"GeometryCollection","geometries":[]},"buildings":{"type":"GeometryCollection","geometries":[]},"places":{"type":"GeometryCollection","geometries":[{"type":"Point","properties":{"name:pt":"Austr\u00e1lia Meridional","name:ro":"Australia de Sud","name:sk":"Ju\u017en\u00e1 Austr\u00e1lia","name:ja":"\u5357\u30aa\u30fc\u30b9\u30c8\u30e9\u30ea\u30a2","name:lt":"Piet\u0173 Australija","name:he":"\u05d0\u05d5\u05e1\u05d8\u05e8\u05dc\u05d9\u05d4 \u05d4\u05d3\u05e8\u05d5\u05de\u05d9\u05ea","name:cs":"Ji\u017en\u00ed Austr\u00e1lie","kind":"region","name:lb":"S\u00fcdaustralien","min_zoom":4.0,"name:la":"Australia Australis","name:it":"Australia Meridionale","name:uk":"\u041f\u0456\u0432\u0434\u0435\u043d\u043d\u0430 \u0410\u0432\u0441\u0442\u0440\u0430\u043b\u0456\u044f","name:vi":"Nam \u00dac","name:ru":"\u042e\u0436\u043d\u0430\u044f \u0410\u0432\u0441\u0442\u0440\u0430\u043b\u0438\u044f","name:pl":"Australia Po\u0142udniowa","name:hu":"D\u00e9l-Ausztr\u00e1lia","id":304951007,"name:vo":"Sul\u00fcda-Laustral\u00e4n","name:eo":"Suda A\u016dstralio","name":"South Australia","kind_detail":"state","name:de":"S\u00fcdaustralien","name:nl":"Zuid-Australi\u00eb","source":"openstreetmap.org","name:fr":"Australie m\u00e9ridionale","name:be":"\u041f\u0430\u045e\u0434\u043d\u0451\u0432\u0430\u044f \u0410\u045e\u0441\u0442\u0440\u0430\u043b\u0456\u044f","name:zh":"\u5357\u6fb3\u5927\u5229\u4e9a\u5dde","name:es":"Australia Meridional"},"coordinates":[1835,731]}]},"transit":{"type":"GeometryCollection","geometries":[]},"pois":{"type":"GeometryCollection","geometries":[{"type":"Point","properties":{"source":"openstreetmap.org","kind":"military","name":"Woomera Prohibited Area Defence Continous Use Zone","area":13031500000,"tier":3,"min_zoom":8.0,"id":435896133},"coordinates":[3134,151]},{"type":"Point","properties":{"source":"openstreetmap.org","kind":"military","name":"Woomera Prohibited Area - Defence periodic use zone 1 (140 days)","area":9826620000,"tier":3,"min_zoom":8.0,"id":436222593},"coordinates":[3947,1173]}]},"boundaries":{"type":"GeometryCollection","geometries":[]},"roads":{"type":"GeometryCollection","geometries":[{"type":"MultiLineString","properties":{"kind":"major_road","network":"NH","sort_rank":381,"kind_detail":"trunk","source":"openstreetmap.org","min_zoom":8.0,"landuse_kind":"military","shield_text":"87"},"arcs":[[0],[1],[2],[3],[4],[5],[6],[7]]},{"type":"MultiLineString","properties":{"source":"openstreetmap.org","kind":"major_road","network":"NH","sort_rank":381,"kind_detail":"trunk","min_zoom":8.0,"shield_text":"87"},"arcs":[[8],[9],[10],[11],[12],[13],[14]]}]},"earth":{"type":"GeometryCollection","geometries":[{"type":"Polygon","properties":{"sort_rank":10,"source":"naturalearthdata.com","min_zoom":0.0,"kind":"earth","area":98022885885},"arcs":[[15]]}]},"landuse":{"type":"GeometryCollection","geometries":[{"type":"Polygon","properties":{"source":"openstreetmap.org","kind":"military","tier":3,"area":37833336846,"sort_rank":45,"min_zoom":8.0},"arcs":[[16],[17],[18],[19],[20],[21],[22],[23],[24]]}]}},"type":"Topology","transform":{"translate":[135.0,-30.7512777763],"scale":[0.0003433228,0.0002968868]},"arcs":[[[534,2545],[-85,269],[-91,194],[-12,374],[47,254],[-10,155],[-149,132],[-59,173]],[[550,2494],[-16,51]],[[573,1974],[-6,383]],[[653,1843],[-72,104]],[[844,1496],[-91,221]],[[993,1186],[-33,124]],[[1470,0],[-34,98],[-212,205],[-94,167],[-45,185],[-76,147],[16,263]],[[1025,1077],[1,22]],[[534,2545]],[[567,2357],[-17,137]],[[581,1947],[-8,27]],[[753,1717],[-100,126]],[[960,1310],[-116,186]],[[1026,1099],[-33,87]],[[1025,1065],[0,12]],[[0,0],[0,2883],[0,1213],[1914,0],[2182,0],[0,-4096],[-4096,0]],[[0,0],[0,1815],[0,1051],[0,1230],[4096,0],[0,-1570],[-3570,19],[40,-104],[8,-495],[7,-10],[-9,505],[-44,104],[3568,-19],[0,-2526],[-4096,0]],[[1024,1065],[1,0],[3,64],[-43,88],[39,-152]],[[967,1285],[-5,45],[-110,146],[-25,60],[26,-71],[103,-138],[11,-42]],[[757,1708],[-26,62],[-130,140],[156,-202]],[[1164,410],[130,145],[54,369],[64,102],[-15,61],[58,35],[42,119],[55,76],[-58,-74],[-44,-119],[-57,-37],[15,-61],[-63,-102],[-54,-368],[-128,-143],[1,-3]],[[1869,1749],[29,40],[28,122],[-8,0],[-22,-121],[-27,-41]],[[1959,1912],[29,-4],[9,10],[-13,-6],[-25,0]],[[2117,1975],[15,5],[-1,1],[-14,-6]],[[1197,349],[-28,42],[6,-19],[22,-23]]]}