{"objects":{"water":{"type":"GeometryCollection","geometries":[{"type":"MultiPolygon","properties":{"kind":"lake","name":"Lake Nasser","reservoir":true,"area":4221998592,"sort_rank":200,"source":"naturalearthdata.com","min_zoom":0.0,"id":1189},"arcs":[[[10]],[[11]],[[12]]]},{"type":"Point","properties":{"label_placement":true,"kind":"lake","name":"Lake Nasser","reservoir":true,"area":4221998592,"sort_rank":200,"source":"naturalearthdata.com","min_zoom":0.0,"id":1189},"coordinates":[689,2715]},{"type":"MultiLineString","properties":{"source":"naturalearthdata.com","kind":"lake","reservoir":true,"sort_rank":367,"boundary":true,"min_zoom":0.0,"id":1189},"arcs":[[13],[14],[15],[16]]}]},"buildings":{"type":"GeometryCollection","geometries":[]},"places":{"type":"GeometryCollection","geometries":[{"type":"Point","properties":{"kind":"region","name:en":"Aswan Governorate","name":"\u0645\u062d\u0627\u0641\u0638\u0629 \u0623\u0633\u0648\u0627\u0646","kind_detail":"state","name:de":"Gouvernement Assuan","source":"openstreetmap.org","min_zoom":4.0,"name:ru":"\u0410\u0441\u0443\u0430\u043d","id":2372908507},"coordinates":[234,3665]}]},"transit":{"type":"GeometryCollection","geometries":[]},"pois":{"type":"GeometryCollection","geometries":[]},"boundaries":{"type":"GeometryCollection","geometries":[{"type":"LineString","properties":{"name:right:yo":"Sudan","alt_name:left:ty":"Egipt","name:right:yi":"\u05e1\u05d5\u05d3\u05d0\u05df","name:left:la":"Aegyptus","alt_name:left:ts":"Egypt","name:right:qu":"Sudan","alt_name:left:th":"\u0e2d\u0e35\u0e22\u0e34\u0e1b\u0e15\u0e4c","name:left:li":"Egypte","name:left:vi":"Ai C\u1eadp","name:left:sw":"Misri","alt_name:left:sl":"Misr","name:left:kg":"Misiri","name:left:sv":"Egypten","name:left:ka":"\u10d4\u10d2\u10d5\u10d8\u10de\u10e2\u10d4","name:left:km":"\u17a2\u17c1\u17a0\u17ca\u17d2\u179f\u17b8\u1794","alt_name:left:da":"\u00c6gypten","name:left:ko":"\uc774\uc9d1\ud2b8","name:left:kn":"\u0c88\u0c9c\u0cbf\u0caa\u0ccd\u0c9f\u0ccd","name:left:ki":"Egypt","name:left:ro":"Egipt","name:left:kk":"\u041c\u044b\u0441\u044b\u0440","name:left:rm":"Egipta","name:left:ku":"Misir","name:left:kw":"Ejyp","name:left:kv":"\u0415\u0433\u0438\u043f\u0435\u0442","name:left:pl":"Egipt","alt_name:left:ee":"Egipte","name:left:ks":"\u0645\u0650\u0633\u0631","name:right:rm":"Sudan","name:right:ig":"Sudan","name:right:ie":"Sudan","name:right:id":"Sudan","name:left:ky":"\u0415\u0433\u0438\u043f\u0435\u0442","name:right:ia":"Sudan","name:right:bn":"\u09b8\u09c1\u09a6\u09be\u09a8","name:right:bo":"\u0f66\u0f74\u0f60\u0f74\u0f0b\u0f4f\u0f53\u0f0d","name:right:bm":"Sudan","name:right:ba":"\u0421\u0443\u0434\u0430\u043d","name:right:bg":"\u0421\u0443\u0434\u0430\u043d","name:right:be":"\u0421\u0443\u0434\u0430\u043d","name:right:br":"Soudan","name:left:lt":"Egiptas","name:right:nn":"Sudan","name:right:no":"Sudan","name:right:nl":"Soedan","name:left:lv":"\u0112\u0123ipte","name:right:wo":"Sudaan","name:right:na":"Tudan","name:right:gv":"Yn Toodaan","name:right:ny":"Sudan","name:right:nv":"Sood\u0105\u0301\u0105","name:left:mg":"Ejipta","kind_detail":"2","alt_name:right:vi":"Xu-\u0111\u0103ng","name:right:gu":"\u0ab8\u0ac1\u0aa6\u0abe\u0aa8","name:left:ty":"\u2019Aifiti","name:right:ps":"\u0633\u0648\u0689\u0627\u0646","name:right:pt":"Sud\u00e3o","name:left:mk":"\u0415\u0433\u0438\u043f\u0435\u0442","name:left:tr":"M\u0131s\u0131r","name:left:ts":"Gibita","name:left:tt":"\u041c\u0438\u0441\u044b\u0301\u0440","name:left:mn":"\u0415\u0433\u0438\u043f\u0435\u0442","name:left:ml":"\u0d08\u0d1c\u0d3f\u0d2a\u0d4d\u0d24\u0d4d","name:left:th":"\u0e1b\u0e23\u0e30\u0e40\u0e17\u0e28\u0e2d\u0e35\u0e22\u0e34\u0e1b\u0e15\u0e4c","name:left:mr":"\u0907\u091c\u093f\u092a\u094d\u0924","name:left:tk":"M\u00fcs\u00fcr","name:left:tl":"Ehipto","name:left:to":"\u02bbIsipite","name:left:ta":"\u0b8e\u0b95\u0bbf\u0baa\u0bcd\u0ba4\u0bc1","name:left:my":"\u1021\u102e\u1002\u103b\u1005\u103a\u1014\u102d\u102f\u1004\u103a\u1004\u1036","name:right:gn":"Sudano","name:right:pl":"Sudan","name:left:te":"\u0c08\u0c1c\u0c3f\u0c2a\u0c4d\u0c1f\u0c41","name:left:tg":"\u041c\u0438\u0441\u0440","name:left:ms":"Mesir","name:left:ti":"\u130d\u1265\u133d","name:left:da":"Egypten","name:left:de":"\u00c4gypten","name:right:an":"Sud\u00e1n","name:right:ga":"An tS\u00fad\u00e1in","name:left:dv":"\u0789\u07a8\u079e\u07b0\u0783\u07aa","name:right:ug":"\u0633\u06c7\u062f\u0627\u0646","name:left:hi":"\u092e\u093f\u0938\u094d\u0930","name:right:lb":"Sudan","name:right:uk":"\u0421\u0443\u0434\u0430\u043d","name:left:he":"\u05de\u05e6\u05e8\u05d9\u05dd","name:right:ln":"Sudani","name:left:mt":"E\u0121ittu","alt_name:left:is":"Egiptaland","name:right:li":"Soedan","name:right:lt":"Sudanas","name:right:ur":"\u0633\u0648\u0688\u0627\u0646","name:right:lv":"Sud\u0101na","name:left:hy":"\u0535\u0563\u056b\u057a\u057f\u0578\u057d","name:right:gl":"Sud\u00e1n","name:left:ht":"Ejip","name:left:hu":"Egyiptom","name:left:hr":"Egipat","sort_rank":262,"name:right:gd":"Sudan","name:right:os":"\u0421\u0443\u0434\u0430\u043d","name:right:es":"Sud\u00e1n","name:left:ja":"\u30a8\u30b8\u30d7\u30c8","name:right:eu":"Sudan","name:right:et":"Sudaan","name:left:os":"\u041c\u044b\u0441\u044b\u0440","name:left:or":"\u0b07\u0b1c\u0b3f\u0b2a\u0b4d\u0b1f","name:left:om":"Ijiipti","name:right:pa":"\u0a38\u0a41\u0a21\u0a3e\u0a28","name:right:ee":"Sudan","name:left:vo":"L\u00e4g\u00fcpt\u00e4n","name:left:oc":"Egipte","name:right:eo":"Sudano","name:right:en":"Sudan","name:right:el":"\u03a3\u03bf\u03c5\u03b4\u03ac\u03bd","name:left:ff":"Ejipt","name:right:tt":"\u0421\u0443\u0434\u0430\u043d","name:left:fo":"Egyptaland","name:left:fj":"Ijipta","name:right:sk":"Sud\u00e1n","name:left:fi":"Egypti","name:left:fr":"\u00c9gypte","name:right:jv":"Sudan","name:left:fy":"Egypte","alt_name:left:kg":"Ngipiti","name:right:ja":"\u30b9\u30fc\u30c0\u30f3","alt_name:left:rn":"Misiri","name:right:sq":"Sudani","name:right:ss":"ISudani","name:right:sr":"\u0421\u0443\u0434\u0430\u043d","name:right:su":"Sudan","name:right:sw":"Sudan","name:right:sv":"Sudan","name:right:sh":"Sudan","name:left:qu":"Ihiptu","name:right:sm":"Sudan","name:right:sl":"Sudan","name:right:so":"Suudaan","name:right:sn":"Sudan","name:right:sa":"\u0938\u0942\u0921\u093e\u0928","name:right:sc":"Sudan","name:left:jv":"Mesir","id":-1473947,"name:right:sg":"Sud\u00e4an","alt_name:left:br":"Ejipt","alt_name:left:ky":"\u041c\u0438\u0441\u0438\u0440","name:right:ce":"\u0421\u0443\u0434\u0430\u043d","name:right:cy":"Sudan","name:right:zh-yue":"\u8607\u4e39","name:left:kl":"Egypt","name:right:cs":"S\u00fad\u00e1n","alt_name:left:ba":"\u0415\u0433\u0438\u043f\u0435\u0442","name:right:cv":"\u0421\u0443\u0434\u0430\u043d","name:right:it":"Sudan","name:left:as":"\u0987\u099c\u09bf\u09aa\u09cd\u09a4","name:right:is":"S\u00fadan","name:left:az":"Misir","name:right:rw":"Sudani","name:left:af":"Egipte","name:left:ab":"\u041c\u044b\u0301\u0441\u0440\u044b","name:left:an":"Echipto","name:left:am":"\u130d\u1265\u1345","name:right:ru":"\u0421\u0443\u0434\u0430\u043d","name:left:ak":"Igyipt","name:right:io":"Sudan","name:right:ca":"Sudan","name:left:zh-yue":"\u57c3\u53ca","name:right:ro":"Sudan","name:right:hy":"\u054d\u0578\u0582\u0564\u0561\u0576","name:left:lb":"Egypten","alt_name:left:eo":"Egipto;Egiptio","name:left:lg":"Egypt","name:left:su":"Mesir","name:left:st":"Egepeta","name:right:hr":"Sudan","name:left:ru":"\u0415\u0433\u0438\u0301\u043f\u0435\u0442","name:left:sq":"Egjipti","name:right:hu":"Szud\u00e1n","name:left:ss":"iGibhithe","name:left:lo":"\u0ead\u0eb5\u0ea2\u0eb4\u0e9a","name:left:sm":"Aikupito","name:right:hi":"\u0938\u0942\u0921\u093e\u0928","name:left:so":"Masar","name:left:sn":"Egypt","name:left:si":"\u0d8a\u0da2\u0dd3\u0db4\u0dca\u0dad\u0dd4\u0dc0","name:left:sh":"Egipat","name:left:sk":"Egypt","name:left:se":"Egypta","name:right:ha":"Sudan","name:left:sg":"K\u00e2mit\u00e2","name:left:sa":"\u0908\u091c\u093f\u092a\u094d\u0924\u0926\u0947\u0936\u0903","name:right:he":"\u05e1\u05d5\u05d3\u05d0\u05df","name:left:sc":"Egittu","name:right:la":"Sudania","name:right:af":"Soedan","name:left:ce":"\u041c\u0438\u0441\u0430\u0440","alt_name:left:sq":"Misiri","name:right:am":"\u1231\u12f3\u1295","name:left:ca":"Egipte","source":"openstreetmap.org","name:left:cy":"Yr Aifft","name:left:cu":"\u0404\u0433\u0477\u043f\u0442\u044a","name:right:az":"Sudan","name:left:cs":"Egypt","name:right:ak":"Sudan","name:left:ha":"Misra","name:right:se":"Sudan","alt_name:left:ln":"Ejipiti;Misiri","name":"\u0645\u0635\u0631 - \u0627\u0644\u0633\u0648\u062f\u0627\u0646","name:left:zu":"iGibhithe","old_name:left:fi":"Yhdistynyt arabitasavalta","name:left:zh":"\u57c3\u53ca","name:right:zh":"\u82cf\u4e39\u5171\u548c\u56fd","name:left:za":"Aehciz","official_name:left":"\u062c\u0645\u0647\u0648\u0631\u064a\u0629 \u0645\u0635\u0631 \u0627\u0644\u0639\u0631\u0628\u064a\u0629","name:left:uz":"Misr","name:right:fr":"Soudan","name:left:nv":"\u00cd\u00edjip","id:right":-192789,"name:left:uk":"\u0404\u0433\u0438\u0301\u043f\u0435\u0442","name:left:no":"Egypt","name:left:nl":"Egypte","name:right:fa":"\u0633\u0648\u062f\u0627\u0646","name:right:fo":"Sudan","name:left:ne":"\u092e\u093f\u0936\u094d\u0930","name:left:ug":"\u0645\u0649\u0633\u0649\u0631","name:left:na":"Idjipt","name:left:eo":"Egiptujo","name:left:en":"Egypt","name:left:el":"\u0391\u03af\u03b3\u03c5\u03c0\u03c4\u03bf\u03c2","name:left:ee":"Edzipti","name:right:ki":"S\u0169dana","name:left:es":"Egipto","name:left:ie":"Egiptia","name:left:eu":"Egipto","name:left:et":"Egiptus","name:right:om":"Sudaan","name:right:zh-min-nan":"Sudan","name:right:oc":"Sodan","alt_name:left:ce":"\u0415\u0433\u0438\u0301\u043f\u0435\u0442","name:left:ia":"Egypto","name:right:bs":"Sudan","name:left:sr":"\u0415\u0433\u0438\u043f\u0430\u0442","name:right:ts":"Sudan","name:right:uz":"Sudan","osm_relation":true,"name:right:or":"\u0b38\u0b41\u0b26\u0b3e\u0b28","name:left:pt":"Egito","name:right:th":"\u0e1b\u0e23\u0e30\u0e40\u0e17\u0e28\u0e0b\u0e39\u0e14\u0e32\u0e19","name:right:ko":"\uc218\ub2e8","name:left:gl":"Exipto","name:left:wa":"Edjipe","min_zoom":8.0,"name:left:sl":"Egipt","name:left:zh-min-nan":"Ai-ki\u030dp","name:left:ln":"Ejipte","name:left:wo":"Isipt","name:left:ga":"An \u00c9igipt","name:left:it":"Egitto","name:left:gd":"An \u00c8ipheit","int_name:right":"Sudan","name:left:gn":"Ehipto","name:left:gu":"\u0a87\u0a9c\u0abf\u0aaa\u0acd\u0aa4","name:left:gv":"Yn Egypt","name:left":"\u0645\u0635\u0631","name:right:mk":"\u0421\u0443\u0434\u0430\u043d","name:left:bm":"Misra","name:right:mn":"\u0421\u0443\u0434\u0430\u043d","name:right:ml":"\u0d38\u0d41\u0d21\u0d3e\u0d7b","name:right:vo":"Sud\u00e4n","alt_name:left:wo":"Ejipt","name:right:vi":"Sudan","name:right:my":"\u1006\u1030\u1012\u1014\u103a\u1014\u102d\u102f\u1004\u103a\u1004\u1036","name:right:ms":"Sudan","name:right:mr":"\u0938\u0941\u0926\u093e\u0928","name:right:fy":"S\u00fbdan","name:right:mt":"Sudan","name:left:nn":"Egypt","kind":"country","alt_name:left:gu":"\u0aae\u0abf\u0ab8\u0ab0","alt_name:left:gv":"Eajipt","name:left:tw":"Egypt","alt_name:left:gd":"\u00c8iphit","name:left:br":"Egipt","name:left:bs":"Egipat","int_name:left":"Egypt \u0645\u0635\u0631","name:left:ba":"\u041c\u044b\u0441\u044b\u0440","name:left:bg":"\u0415\u0433\u0438\u043f\u0435\u0442","name:left:be":"\u0415\u0433\u0456\u0301\u043f\u0435\u0442","name:left:bn":"\u09ae\u09bf\u09b6\u09b0","name:left:bo":"\u0f68\u0f60\u0f72\u0f0b\u0f45\u0f72\u0f0d","name:right":"\u0627\u0644\u0633\u0648\u062f\u0627\u0646","name:left:yo":"\u1eb8\u0301g\u00edpt\u00ec","name:left:yi":"\u05e2\u05d2\u05d9\u05e4\u05d8\u05df","id:left":-1473947,"name:right:fi":"Sudan","name:right:ka":"\u10e1\u10e3\u10d3\u10d0\u10dc\u10d8","name:left:io":"Egiptia","name:left:pa":"\u0a2e\u0a3f\u0a38\u0a30","name:right:kg":"Sudan","name:left:ig":"Egypt","name:right:kk":"\u0421\u0443\u0434\u0430\u043d","name:left:id":"Mesir","name:left:pi":"\u0908\u091c\u093f\u092a\u094d\u091f","name:right:tr":"Sudan","name:right:kn":"\u0cb8\u0cc1\u0ca1\u0cbe\u0ca8\u0ccd","name:right:tl":"Sudan","alt_name:left:qu":"Misir","name:right:ku":"S\u00fbdan","name:right:ti":"\u1231\u12f3\u1295","name:right:kw":"Soudan","name:right:tk":"Sudan","name:right:ky":"\u0421\u0443\u0434\u0430\u043d","name:right:te":"\u0c38\u0c42\u0c21\u0c3e\u0c28\u0c4d","name:right:tg":"\u0421\u0443\u0434\u043e\u043d","name:left:is":"Egyptaland","name:right:ta":"\u0b9a\u0bc2\u0b9f\u0bbe\u0ba9\u0bcd","alt_name:left:as":"\u09ae\u09bf\u099b\u09f0","name:right:de":"Sudan","name:right:da":"Sudan","name:left:rn":"Egipto","name:right:dv":"\u0790\u07ab\u078b\u07a7\u0782\u07b0","name:right:ht":"Soudan"},"arcs":[0]},{"type":"LineString","properties":{"name:kg":"Misiri","alt_name:ce":"\u0415\u0433\u0438\u0301\u043f\u0435\u0442","name:ty":"\u2019Aifiti","name:ka":"\u10d4\u10d2\u10d5\u10d8\u10de\u10e2\u10d4","name:tr":"M\u0131s\u0131r","name:ts":"Gibita","name:km":"\u17a2\u17c1\u17a0\u17ca\u17d2\u179f\u17b8\u1794","name:kl":"Egypt","name:kk":"\u041c\u044b\u0441\u044b\u0440","name:tw":"Egypt","name:tt":"\u041c\u0438\u0441\u044b\u0301\u0440","name:kw":"Ejyp","name:tk":"M\u00fcs\u00fcr","name:ku":"Misir","name:ti":"\u130d\u1265\u133d","name:ks":"\u0645\u0650\u0633\u0631","name:to":"\u02bbIsipite","name:tl":"Ehipto","name:ce":"\u041c\u0438\u0441\u0430\u0440","name:ta":"\u0b8e\u0b95\u0bbf\u0baa\u0bcd\u0ba4\u0bc1","name:tg":"\u041c\u0438\u0441\u0440","name:ky":"\u0415\u0433\u0438\u043f\u0435\u0442","name:te":"\u0c08\u0c1c\u0c3f\u0c2a\u0c4d\u0c1f\u0c41","alt_name:ts":"Egypt","alt_name:ln":"Ejipiti;Misiri","name:cy":"Yr Aifft","name:hr":"Egipat","alt_name:ty":"Egipt","name:de":"\u00c4gypten","source":"openstreetmap.org","name:kn":"\u0c88\u0c9c\u0cbf\u0caa\u0ccd\u0c9f\u0ccd","alt_name:th":"\u0e2d\u0e35\u0e22\u0e34\u0e1b\u0e15\u0e4c","name:dv":"\u0789\u07a8\u079e\u07b0\u0783\u07aa","name:cu":"\u0404\u0433\u0477\u043f\u0442\u044a","alt_name:da":"\u00c6gypten","name:lv":"\u0112\u0123ipte","name:lt":"Egiptas","name:uz":"Misr","name:cs":"Egypt","name:lb":"Egypten","name:la":"Aegyptus","name:ki":"Egypt","name:uk":"\u0404\u0433\u0438\u0301\u043f\u0435\u0442","name:ug":"\u0645\u0649\u0633\u0649\u0631","name:li":"Egypte","name:ln":"Ejipte","name:lo":"\u0ead\u0eb5\u0ea2\u0eb4\u0e9a","name:el":"\u0391\u03af\u03b3\u03c5\u03c0\u03c4\u03bf\u03c2","name:eo":"Egiptujo","name:en":"Egypt","name":"\u0645\u0635\u0631","name:kv":"\u0415\u0433\u0438\u043f\u0435\u0442","name:ee":"Edzipti","name:th":"\u0e1b\u0e23\u0e30\u0e40\u0e17\u0e28\u0e2d\u0e35\u0e22\u0e34\u0e1b\u0e15\u0e4c","name:eu":"Egipto","name:et":"Egiptus","name:es":"Egipto","name:ia":"Egypto","name:rm":"Egipta","name:rn":"Egipto","name:az":"Misir","name:ie":"Egiptia","name:id":"Mesir","name:ig":"Egypt","name:as":"\u0987\u099c\u09bf\u09aa\u09cd\u09a4","name:pa":"\u0a2e\u0a3f\u0a38\u0a30","name:io":"Egiptia","name:ak":"Igyipt","name:am":"\u130d\u1265\u1345","name:it":"Egitto","name:an":"Echipto","name:ru":"\u0415\u0433\u0438\u0301\u043f\u0435\u0442","name:ab":"\u041c\u044b\u0301\u0441\u0440\u044b","name:af":"Egipte","name:zu":"iGibhithe","kind_detail":"2","name:za":"Aehciz","name:zh-yue":"\u57c3\u53ca","alt_name:rn":"Misiri","name:zh":"\u57c3\u53ca","name:so":"Masar","name:sn":"Egypt","name:sm":"Aikupito","name:sl":"Egipt","name:sk":"Egypt","alt_name:ba":"\u0415\u0433\u0438\u043f\u0435\u0442","name:si":"\u0d8a\u0da2\u0dd3\u0db4\u0dca\u0dad\u0dd4\u0dc0","name:sh":"Egipat","name:sg":"K\u00e2mit\u00e2","name:se":"Egypta","name:sc":"Egittu","name:br":"Egipt","name:bs":"Egipat","name:bm":"Misra","name:bn":"\u09ae\u09bf\u09b6\u09b0","name:bo":"\u0f68\u0f60\u0f72\u0f0b\u0f45\u0f72\u0f0d","name:sa":"\u0908\u091c\u093f\u092a\u094d\u0924\u0926\u0947\u0936\u0903","alt_name:br":"Ejipt","name:sw":"Misri","name:be":"\u0415\u0433\u0456\u0301\u043f\u0435\u0442","name:su":"Mesir","name:bg":"\u0415\u0433\u0438\u043f\u0435\u0442","name:ss":"iGibhithe","name:sr":"\u0415\u0433\u0438\u043f\u0430\u0442","name:sq":"Egjipti","alt_name:sq":"Misiri","alt_name:kg":"Ngipiti","name:jv":"Mesir","alt_name:ky":"\u041c\u0438\u0441\u0438\u0440","alt_name:sl":"Misr","name:pt":"Egito","name:da":"Egypten","name:om":"Ijiipti","name:oc":"Egipte","alt_name:gd":"\u00c8iphit","min_zoom":8.0,"name:ro":"Egipt","name:ko":"\uc774\uc9d1\ud2b8","name:zh-min-nan":"Ai-ki\u030dp","name:os":"\u041c\u044b\u0441\u044b\u0440","name:or":"\u0b07\u0b1c\u0b3f\u0b2a\u0b4d\u0b1f","name:pl":"Egipt","alt_name:gv":"Eajipt","alt_name:gu":"\u0aae\u0abf\u0ab8\u0ab0","name:pi":"\u0908\u091c\u093f\u092a\u094d\u091f","name:st":"Egepeta","sort_rank":262,"name:ba":"\u041c\u044b\u0441\u044b\u0440","osm_relation":true,"alt_name:as":"\u09ae\u09bf\u099b\u09f0","name:hi":"\u092e\u093f\u0938\u094d\u0930","name:sv":"Egypten","name:he":"\u05de\u05e6\u05e8\u05d9\u05dd","name:ha":"Misra","name:ja":"\u30a8\u30b8\u30d7\u30c8","name:hy":"\u0535\u0563\u056b\u057a\u057f\u0578\u057d","name:ht":"Ejip","name:hu":"Egyiptom","name:qu":"Ihiptu","kind":"country","name:is":"Egyptaland","alt_name:is":"Egiptaland","name:yi":"\u05e2\u05d2\u05d9\u05e4\u05d8\u05df","name:yo":"\u1eb8\u0301g\u00edpt\u00ec","name:mt":"E\u0121ittu","alt_name:eo":"Egipto;Egiptio","name:ms":"Mesir","name:mr":"\u0907\u091c\u093f\u092a\u094d\u0924","alt_name:ee":"Egipte","name:my":"\u1021\u102e\u1002\u103b\u1005\u103a\u1014\u102d\u102f\u1004\u103a\u1004\u1036","official_name":"\u062c\u0645\u0647\u0648\u0631\u064a\u0629 \u0645\u0635\u0631 \u0627\u0644\u0639\u0631\u0628\u064a\u0629","int_name":"Egypt \u0645\u0635\u0631","name:mg":"Ejipta","name:vi":"Ai C\u1eadp","name:ml":"\u0d08\u0d1c\u0d3f\u0d2a\u0d4d\u0d24\u0d4d","name:mn":"\u0415\u0433\u0438\u043f\u0435\u0442","id":-1473947,"name:mk":"\u0415\u0433\u0438\u043f\u0435\u0442","name:vo":"L\u00e4g\u00fcpt\u00e4n","old_name:fi":"Yhdistynyt arabitasavalta","name:ff":"Ejipt","name:fi":"Egypti","name:fj":"Ijipta","name:fo":"Egyptaland","name:fr":"\u00c9gypte","name:ca":"Egipte","name:fy":"Egypte","alt_name:qu":"Misir","name:nl":"Egypte","name:nn":"Egypt","name:no":"Egypt","name:na":"Idjipt","name:ne":"\u092e\u093f\u0936\u094d\u0930","name:wa":"Edjipe","name:wo":"Isipt","name:nv":"\u00cd\u00edjip","name:ga":"An \u00c9igipt","name:gd":"An \u00c8ipheit","name:gn":"Ehipto","name:gl":"Exipto","alt_name:wo":"Ejipt","name:gv":"Yn Egypt","name:gu":"\u0a87\u0a9c\u0abf\u0aaa\u0acd\u0aa4","name:lg":"Egypt"},"arcs":[1]},{"type":"LineString","properties":{"name:kg":"Sudan","name:ka":"\u10e1\u10e3\u10d3\u10d0\u10dc\u10d8","name:ko":"\uc218\ub2e8","name:cv":"\u0421\u0443\u0434\u0430\u043d","name:cs":"S\u00fad\u00e1n","name:ki":"S\u0169dana","name:kw":"Soudan","name:tk":"Sudan","name:ku":"S\u00fbdan","name:ti":"\u1231\u12f3\u1295","name:tl":"Sudan","name:ce":"\u0421\u0443\u0434\u0430\u043d","name:ta":"\u0b9a\u0bc2\u0b9f\u0bbe\u0ba9\u0bcd","name:tg":"\u0421\u0443\u0434\u043e\u043d","name:ca":"Sudan","name:te":"\u0c38\u0c42\u0c21\u0c3e\u0c28\u0c4d","name:cy":"Sudan","name:hr":"Sudan","name:da":"Sudan","name:de":"Sudan","source":"openstreetmap.org","name:kn":"\u0cb8\u0cc1\u0ca1\u0cbe\u0ca8\u0ccd","name:dv":"\u0790\u07ab\u078b\u07a7\u0782\u07b0","name:lv":"Sud\u0101na","name:lt":"Sudanas","name:uz":"Sudan","name:kk":"\u0421\u0443\u0434\u0430\u043d","name:ur":"\u0633\u0648\u0688\u0627\u0646","name:lb":"Sudan","name:la":"Sudania","name:tt":"\u0421\u0443\u0434\u0430\u043d","name:uk":"\u0421\u0443\u0434\u0430\u043d","name:ug":"\u0633\u06c7\u062f\u0627\u0646","name:li":"Soedan","name:ln":"Sudani","name:el":"\u03a3\u03bf\u03c5\u03b4\u03ac\u03bd","name:eo":"Sudano","name:en":"Sudan","name":"\u0627\u0644\u0633\u0648\u062f\u0627\u0646","name:ee":"Sudan","name:th":"\u0e1b\u0e23\u0e30\u0e40\u0e17\u0e28\u0e0b\u0e39\u0e14\u0e32\u0e19","name:eu":"Sudan","name:et":"Sudaan","name:es":"Sud\u00e1n","name:ia":"Sudan","name:rm":"Sudan","name:az":"Sudan","name:ie":"Sudan","name:id":"Sudan","name:ig":"Sudan","name:pa":"\u0a38\u0a41\u0a21\u0a3e\u0a28","name:io":"Sudan","name:ak":"Sudan","name:am":"\u1231\u12f3\u1295","name:it":"Sudan","name:an":"Sud\u00e1n","name:ru":"\u0421\u0443\u0434\u0430\u043d","name:rw":"Sudani","name:af":"Soedan","kind_detail":"2","name:ky":"\u0421\u0443\u0434\u0430\u043d","name:zh-yue":"\u8607\u4e39","name:zh":"\u82cf\u4e39\u5171\u548c\u56fd","name:so":"Suudaan","name:sn":"Sudan","name:sm":"Sudan","name:sl":"Sudan","name:sk":"Sud\u00e1n","name:ja":"\u30b9\u30fc\u30c0\u30f3","name:sh":"Sudan","name:sg":"Sud\u00e4an","name:se":"Sudan","name:sc":"Sudan","name:br":"Soudan","name:bs":"Sudan","name:bm":"Sudan","name:bn":"\u09b8\u09c1\u09a6\u09be\u09a8","name:bo":"\u0f66\u0f74\u0f60\u0f74\u0f0b\u0f4f\u0f53\u0f0d","name:sa":"\u0938\u0942\u0921\u093e\u0928","name:sw":"Sudan","name:be":"\u0421\u0443\u0434\u0430\u043d","name:su":"Sudan","name:bg":"\u0421\u0443\u0434\u0430\u043d","name:ss":"ISudani","name:ba":"\u0421\u0443\u0434\u0430\u043d","name:sq":"Sudani","name:jv":"Sudan","name:pt":"Sud\u00e3o","name:ps":"\u0633\u0648\u0689\u0627\u0646","name:om":"Sudaan","name:oc":"Sodan","min_zoom":8.0,"name:ro":"Sudan","name:zh-min-nan":"Sudan","name:os":"\u0421\u0443\u0434\u0430\u043d","name:or":"\u0b38\u0b41\u0b26\u0b3e\u0b28","name:pl":"Sudan","sort_rank":262,"name:sr":"\u0421\u0443\u0434\u0430\u043d","osm_relation":true,"name:tr":"Sudan","name:hi":"\u0938\u0942\u0921\u093e\u0928","name:sv":"Sudan","name:he":"\u05e1\u05d5\u05d3\u05d0\u05df","name:ha":"Sudan","name:hy":"\u054d\u0578\u0582\u0564\u0561\u0576","name:ht":"Soudan","name:hu":"Szud\u00e1n","name:qu":"Sudan","kind":"country","name:ts":"Sudan","name:is":"S\u00fadan","name:yi":"\u05e1\u05d5\u05d3\u05d0\u05df","name:yo":"Sudan","name:mt":"Sudan","name:ms":"Sudan","name:mr":"\u0938\u0941\u0926\u093e\u0928","name:my":"\u1006\u1030\u1012\u1014\u103a\u1014\u102d\u102f\u1004\u103a\u1004\u1036","int_name":"Sudan","name:ml":"\u0d38\u0d41\u0d21\u0d3e\u0d7b","name:vi":"Sudan","name:mn":"\u0421\u0443\u0434\u0430\u043d","id":-192789,"name:mk":"\u0421\u0443\u0434\u0430\u043d","name:vo":"Sud\u00e4n","name:fa":"\u0633\u0648\u062f\u0627\u0646","name:fi":"Sudan","name:fo":"Sudan","alt_name:vi":"Xu-\u0111\u0103ng","name:fr":"Soudan","name:fy":"S\u00fbdan","name:nl":"Soedan","name:nn":"Sudan","name:no":"Sudan","name:na":"Tudan","name:ny":"Sudan","name:wo":"Sudaan","name:nv":"Sood\u0105\u0301\u0105","name:ga":"An tS\u00fad\u00e1in","name:gd":"Sudan","name:gn":"Sudano","name:gl":"Sud\u00e1n","name:gv":"Yn Toodaan","name:gu":"\u0ab8\u0ac1\u0aa6\u0abe\u0aa8"},"arcs":[2]},{"type":"LineString","properties":{"id:left":-3774678,"name:right:ru":"\u041d\u0438\u043b","min_zoom":8.0,"name:left:ru":"\u0421\u0435\u0432\u0435\u0440\u043d\u0430\u044f \u043f\u0440\u043e\u0432\u0438\u043d\u0446\u0438\u044f","id:right":-3774666,"id":-3774678,"osm_relation":true,"name:left:en":"Northern State","kind":"region","name":"\u0627\u0644\u0648\u0644\u0627\u064a\u0629 \u0627\u0644\u0634\u0645\u0627\u0644\u064a\u0629 - \u0648\u0644\u0627\u064a\u0629 \u0646\u0647\u0631 \u0627\u0644\u0646\u064a\u0644","sort_rank":256,"kind_detail":"4","name:right:en":"River Nile State","source":"openstreetmap.org","name:right:de":"Nil-Fluss","name:right":"\u0648\u0644\u0627\u064a\u0629 \u0646\u0647\u0631 \u0627\u0644\u0646\u064a\u0644","name:left":"\u0627\u0644\u0648\u0644\u0627\u064a\u0629 \u0627\u0644\u0634\u0645\u0627\u0644\u064a\u0629"},"arcs":[3]},{"type":"LineString","properties":{"name:right:hu":"Asszu\u00e1n korm\u00e1nyz\u00f3s\u00e1g","name:right:ru":"\u043c\u0443\u0445\u0430\u0444\u0430\u0437\u0430 \u0410\u0441\u0443\u0430\u043d","min_zoom":8.0,"name:left:ru":"\u0421\u0435\u0432\u0435\u0440\u043d\u0430\u044f \u043f\u0440\u043e\u0432\u0438\u043d\u0446\u0438\u044f","id:right":-3061757,"id":-3774678,"osm_relation":true,"name:right":"\u0645\u062d\u0627\u0641\u0638\u0629 \u0623\u0633\u0648\u0627\u0646","kind":"region","name:left:en":"Northern State","sort_rank":256,"kind_detail":"4","name":"\u0627\u0644\u0648\u0644\u0627\u064a\u0629 \u0627\u0644\u0634\u0645\u0627\u0644\u064a\u0629 - \u0645\u062d\u0627\u0641\u0638\u0629 \u0623\u0633\u0648\u0627\u0646","source":"openstreetmap.org","name:right:de":"Gouvernement Assuan","name:right:en":"Aswan Governorate","id:left":-3774678,"name:left":"\u0627\u0644\u0648\u0644\u0627\u064a\u0629 \u0627\u0644\u0634\u0645\u0627\u0644\u064a\u0629"},"arcs":[4]},{"type":"LineString","properties":{"name:right:hu":"Asszu\u00e1n korm\u00e1nyz\u00f3s\u00e1g","name:right:ru":"\u043c\u0443\u0445\u0430\u0444\u0430\u0437\u0430 \u0410\u0441\u0443\u0430\u043d","min_zoom":8.0,"name:left:ru":"\u041d\u0438\u043b","id:right":-3061757,"id":-3774666,"osm_relation":true,"name:right":"\u0645\u062d\u0627\u0641\u0638\u0629 \u0623\u0633\u0648\u0627\u0646","kind":"region","name:left:en":"River Nile State","sort_rank":256,"kind_detail":"4","name:left:de":"Nil-Fluss","name":"\u0648\u0644\u0627\u064a\u0629 \u0646\u0647\u0631 \u0627\u0644\u0646\u064a\u0644 - \u0645\u062d\u0627\u0641\u0638\u0629 \u0623\u0633\u0648\u0627\u0646","source":"openstreetmap.org","name:right:de":"Gouvernement Assuan","name:right:en":"Aswan Governorate","id:left":-3774666,"name:left":"\u0648\u0644\u0627\u064a\u0629 \u0646\u0647\u0631 \u0627\u0644\u0646\u064a\u0644"},"arcs":[5]},{"type":"LineString","properties":{"kind":"region","name:en":"River Nile State","name":"\u0648\u0644\u0627\u064a\u0629 \u0646\u0647\u0631 \u0627\u0644\u0646\u064a\u0644","sort_rank":256,"kind_detail":"4","name:de":"Nil-Fluss","source":"openstreetmap.org","min_zoom":8.0,"name:ru":"\u041d\u0438\u043b","id":-3774666,"osm_relation":true},"arcs":[6]},{"type":"LineString","properties":{"id:left":-3061758,"name:right:hu":"Asszu\u00e1n korm\u00e1nyz\u00f3s\u00e1g","name:right:ru":"\u043c\u0443\u0445\u0430\u0444\u0430\u0437\u0430 \u0410\u0441\u0443\u0430\u043d","min_zoom":8.0,"name:left:lt":"Raudonosios J\u016bros muchafaza","name:left:ru":"\u043c\u0443\u0445\u0430\u0444\u0430\u0437\u0430 \u041a\u0440\u0430\u0441\u043d\u043e\u0435 \u041c\u043e\u0440\u0435","name:left:hu":"V\u00f6r\u00f6s-tenger korm\u00e1nyz\u00f3s\u00e1g","id:right":-3061757,"id":-3061758,"osm_relation":true,"name:right":"\u0645\u062d\u0627\u0641\u0638\u0629 \u0623\u0633\u0648\u0627\u0646","kind":"region","name:left:en":"Red Sea Governorate","sort_rank":256,"kind_detail":"4","name:left:de":"Gouvernement des Roten Meeres","name":"\u0627\u0644\u0628\u062d\u0631 \u0627\u0644\u0623\u062d\u0645\u0645\u0631 - \u0645\u062d\u0627\u0641\u0638\u0629 \u0623\u0633\u0648\u0627\u0646","source":"openstreetmap.org","name:right:en":"Aswan Governorate","name:right:de":"Gouvernement Assuan","name:left":"\u0627\u0644\u0628\u062d\u0631 \u0627\u0644\u0623\u062d\u0645\u0645\u0631"},"arcs":[7]},{"type":"LineString","properties":{"kind":"region","name:en":"Red Sea Governorate","name":"\u0627\u0644\u0628\u062d\u0631 \u0627\u0644\u0623\u062d\u0645\u0645\u0631","name:lt":"Raudonosios J\u016bros muchafaza","sort_rank":256,"kind_detail":"4","name:de":"Gouvernement des Roten Meeres","source":"openstreetmap.org","min_zoom":8.0,"name:ru":"\u043c\u0443\u0445\u0430\u0444\u0430\u0437\u0430 \u041a\u0440\u0430\u0441\u043d\u043e\u0435 \u041c\u043e\u0440\u0435","name:hu":"V\u00f6r\u00f6s-tenger korm\u00e1nyz\u00f3s\u00e1g","id":-3061758,"osm_relation":true},"arcs":[8]},{"type":"LineString","properties":{"kind":"region","name:en":"Aswan Governorate","name":"\u0645\u062d\u0627\u0641\u0638\u0629 \u0623\u0633\u0648\u0627\u0646","sort_rank":256,"kind_detail":"4","name:de":"Gouvernement Assuan","source":"openstreetmap.org","min_zoom":8.0,"name:ru":"\u043c\u0443\u0445\u0430\u0444\u0430\u0437\u0430 \u0410\u0441\u0443\u0430\u043d","name:hu":"Asszu\u00e1n korm\u00e1nyz\u00f3s\u00e1g","id":-3061757,"osm_relation":true},"arcs":[9]}]},"roads":{"type":"GeometryCollection","geometries":[{"type":"LineString","properties":{"sort_rank":381,"source":"openstreetmap.org","min_zoom":8.0,"kind":"major_road","kind_detail":"trunk"},"arcs":[17]},{"type":"LineString","properties":{"source":"openstreetmap.org","kind":"ferry","name":"Aswan - Wadi Halfa","sort_rank":355,"name:ar":"\u0645\u062f\u064a\u0646\u0629 \u0635\u062d\u0627\u0631\u0649 - \u0648\u0627\u062f\u064a \u062d\u0644\u0641\u0627","min_zoom":8.0},"arcs":[18]},{"type":"LineString","properties":{"source":"openstreetmap.org","kind":"major_road","name:en":"Aswan - El Alaqi Road","sort_rank":381,"kind_detail":"trunk","min_zoom":8.0},"arcs":[19]}]},"earth":{"type":"GeometryCollection","geometries":[{"type":"Polygon","properties":{"sort_rank":10,"source":"naturalearthdata.com","kind":"earth","min_zoom":0.0,"id":4715},"arcs":[[20]]}]},"landuse":{"type":"GeometryCollection","geometries":[]}},"type":"Topology","transform":{"translate":[32.34375,21.9430455334],"scale":[0.0003433228,0.0003169679]},"arcs":[[[0,180],[2397,0]],[[2397,180],[1699,0]],[[2630,0],[-233,180]],[[568,0],[11,180]],[[579,180],[-579,0]],[[2397,180],[-1818,0]],[[2630,0],[-233,180]],[[3175,4096],[-60,-3916]],[[3115,180],[981,0]],[[2397,180],[718,0]],[[0,2163],[21,-2],[42,9],[62,50],[37,72],[30,78],[40,70],[67,48],[168,85],[35,51],[87,-28],[40,62],[12,100],[1,81],[22,135],[-1,38],[-12,17],[-23,21],[-19,29],[-6,41],[50,-30],[46,-10],[45,13],[48,37],[35,48],[25,60],[2,51],[-34,27],[14,27],[16,25],[40,44],[5,21],[-25,50],[0,27],[87,29],[24,19],[-61,16],[0,23],[63,8],[36,50],[7,70],[-26,66],[25,31],[7,37],[1,41],[7,42],[55,4],[15,7],[7,19],[-20,35],[2,21],[52,68],[495,0],[-1,-2],[-5,-21],[40,-17],[22,-40],[17,-50],[21,-47],[66,-82],[19,-47],[-37,-20],[-92,27],[-98,47],[-86,22],[-53,-55],[0,-44],[16,-46],[44,-80],[6,-25],[-2,-22],[2,-19],[16,-22],[23,-11],[58,-2],[103,-74],[32,-37],[-8,-38],[-47,-31],[-16,-19],[4,-27],[12,-26],[11,-15],[17,1],[29,18],[28,-48],[47,-17],[56,-8],[48,-14],[161,-129],[-72,-11],[-113,19],[-111,36],[-63,43],[-12,-42],[0,-18],[12,-27],[-38,22],[-124,127],[-221,147],[-17,19],[-12,21],[-25,6],[-27,0],[-16,5],[-5,27],[5,103],[-106,-41],[-34,-24],[36,-17],[19,-25],[2,-31],[-18,-35],[40,0],[-15,-31],[-18,-14],[-21,3],[-25,21],[8,-59],[-7,-59],[-40,-121],[-31,59],[-34,15],[-17,-29],[20,-67],[-30,1],[-51,16],[-28,5],[-19,-7],[-47,-27],[-24,-10],[21,-26],[5,-18],[-5,-44],[-48,63],[-12,25],[-26,-36],[-13,-43],[-3,-46],[3,-47],[30,13],[18,-8],[10,-24],[3,-35],[-27,-16],[-22,-16],[-12,-19],[0,-111],[-6,-42],[-27,-32],[-6,-35],[-56,-62],[-225,-80],[-20,-54],[-53,-7],[-40,-24],[-77,-86],[-18,-44],[-28,-116],[-24,-24],[-162,8],[0,73]],[[1960,4096],[0,-3],[-25,-54],[-45,-4],[-111,38],[8,16],[1,7],[172,0]],[[0,1847],[2,0],[-2,-1],[0,1]],[[0,2163],[21,-2],[42,9],[62,50],[37,72],[30,78],[40,70],[67,48],[168,85],[35,51],[87,-28],[40,62],[12,100],[1,81],[22,135],[-1,38],[-12,17],[-23,21],[-19,29],[-6,41],[50,-30],[46,-10],[45,13],[48,37],[35,48],[25,60],[2,51],[-34,27],[14,27],[16,25],[40,44],[5,21],[-25,50],[0,27],[87,29],[24,19],[-61,16],[0,23],[63,8],[36,50],[7,70],[-26,66],[25,31],[7,37],[1,41],[7,42],[55,4],[15,7],[7,19],[-20,35],[2,21],[52,68]],[[1960,4096],[0,-3],[-25,-54],[-45,-4],[-111,38],[8,16],[1,7]],[[1646,4096],[-1,-2],[-5,-21],[40,-17],[22,-40],[17,-50],[21,-47],[66,-82],[19,-47],[-37,-20],[-92,27],[-98,47],[-86,22],[-53,-55],[0,-44],[16,-46],[44,-80],[6,-25],[-2,-22],[2,-19],[16,-22],[23,-11],[58,-2],[103,-74],[32,-37],[-8,-38],[-47,-31],[-16,-19],[4,-27],[12,-26],[11,-15],[17,1],[29,18],[28,-48],[47,-17],[56,-8],[48,-14],[161,-129],[-72,-11],[-113,19],[-111,36],[-63,43],[-12,-42],[0,-18],[12,-27],[-38,22],[-124,127],[-221,147],[-17,19],[-12,21],[-25,6],[-27,0],[-16,5],[-5,27],[5,103],[-106,-41],[-34,-24],[36,-17],[19,-25],[2,-31],[-18,-35],[40,0],[-15,-31],[-18,-14],[-21,3],[-25,21],[8,-59],[-7,-59],[-40,-121],[-31,59],[-34,15],[-17,-29],[20,-67],[-30,1],[-51,16],[-28,5],[-19,-7],[-47,-27],[-24,-10],[21,-26],[5,-18],[-5,-44],[-48,63],[-12,25],[-26,-36],[-13,-43],[-3,-46],[3,-47],[30,13],[18,-8],[10,-24],[3,-35],[-27,-16],[-22,-16],[-12,-19],[0,-111],[-6,-42],[-27,-32],[-6,-35],[-56,-62],[-225,-80],[-20,-54],[-53,-7],[-40,-24],[-77,-86],[-18,-44],[-28,-116],[-24,-24],[-162,8]],[[0,1847],[2,0],[-2,-1]],[[1199,3505],[20,-195],[28,-45],[144,-71],[57,-67],[110,-347],[54,-124],[52,-52],[24,-141],[256,-205],[101,-119],[204,73],[90,90],[217,90],[86,-92],[37,-145],[99,-56],[282,124],[113,172],[-57,147],[-173,91],[-57,56],[113,173],[-154,113],[-33,81],[-111,52],[34,193]],[[1528,4096],[-528,-611],[-165,-332],[-150,-190],[-35,-354],[-28,-38],[-275,-138],[-133,-141],[-49,-95],[-103,-74],[-62,6]],[[2933,4096],[-56,-103],[-19,-385],[-80,-89],[-8,-159],[-35,-59]],[[4096,4096],[0,-4096],[-4096,0],[0,4096],[4096,0]]]}