{"objects":{"water":{"type":"GeometryCollection","geometries":[]},"buildings":{"type":"GeometryCollection","geometries":[]},"places":{"type":"GeometryCollection","geometries":[{"type":"Point","properties":{"kind":"region","name:en":"Khartoum State","name":"\u0627\u0644\u062e\u0631\u0637\u0648\u0645","kind_detail":"state","min_zoom":4.0,"name:de":"Khartum","source":"openstreetmap.org","name:fr":"Khartoum","name:ru":"\u0425\u0430\u0440\u0442\u0443\u043c","id":321446208,"population":4700000},"coordinates":[1176,1671]},{"type":"Point","properties":{"name:pt":"Cartum","name:ka":"\u10ee\u10d0\u10e0\u10e2\u10e3\u10db\u10d8","name:ko":"\ud558\ub974\ud23c","name:cv":"\u0425\u0430\u0440\u0442\u0443\u043c","name:cs":"Chart\u00fam","name:tt":"\u0425\u0430\u0440\u0442\u0443\u043c","name:tr":"Hartum","name:ku":"Xert\u00fbm","name:ro":"Khartoum","name:tl":"Khartoum","name:sv":"Khartoum","name:os":"\u0425\u0430\u0440\u0442\u0443\u043c","name:pl":"Chartum","name:ta":"\u0b95\u0bb0\u0bcd\u0ba4\u0bcd\u0ba4\u0bc2\u0bae\u0bcd","name:tg":"\u0425\u0430\u0440\u0442\u0443\u043c","name:ky":"\u0425\u0430\u0440\u0442\u0443\u043c","name:cy":"Khartoum","name:da":"Khartoum","name:de":"Khartum","source":"openstreetmap.org","name:kn":"\u0c96\u0cbe\u0cb0\u0ccd\u0ca4\u0cc2\u0cae\u0ccd","admin_level":"2","name:lv":"Hart\u016bma","name:lt":"Chartumas","name:hi":"\u0916\u093e\u0930\u094d\u0924\u0942\u092e","name:he":"\u05d7\u05e8\u05d8\u05d5\u05dd","min_zoom":8.0,"kind":"locality","name:ur":"\u062e\u0631\u0637\u0648\u0645","name:la":"Khartumensis Urbs","name:uk":"\u0425\u0430\u0440\u0442\u0443\u043c","name:hy":"\u053d\u0561\u0580\u0569\u0578\u0582\u0574","country_capital":true,"name:ug":"\u062e\u0627\u0631\u062a\u06c7\u0645","name:hu":"Kart\u00fam","name:hr":"Kartum","name:oc":"Khartom","population":2682431,"name:el":"\u03a7\u03b1\u03c1\u03c4\u03bf\u03cd\u03bc","name:eo":"\u0124artumo","name:en":"Khartoum","name":"\u0627\u0644\u062e\u0631\u0637\u0648\u0645","name:th":"\u0e04\u0e32\u0e23\u0e4c\u0e17\u0e39\u0e21","name:et":"Hartum","name:nl":"Khartoem","name:es":"Jartum","name:az":"Xartum","name:ie":"Cartum","name:id":"Khartoum","name:ms":"Khartoum","name:mr":"\u0916\u093e\u0930\u094d\u091f\u0942\u092e","name:zh-min-nan":"Khartoum","name:my":"\u1001\u102b\u1010\u103d\u1019\u103a\u1038\u1019\u103c\u102d\u102f\u1037","name:io":"Khartoum","name:is":"Kart\u00fam","name:am":"\u12ab\u122d\u1271\u121d","name:vi":"Khartoum","name:ru":"\u0425\u0430\u0440\u0442\u0443\u043c","id":27565117,"name:mk":"\u041a\u0430\u0440\u0442\u0443\u043c","name:af":"Khartoem","name:fa":"\u062e\u0627\u0631\u0637\u0648\u0645","kind_detail":"city","name:no":"Khartoum","name:fo":"Khartoum","name:fr":"Khartoum","name:fy":"Kart\u00fbm","name:zh":"\u5580\u571f\u7a46","name:so":"Khartuum","name:sl":"Kartum","name:sk":"Chart\u00fam","name:ja":"\u30cf\u30eb\u30c4\u30fc\u30e0","name:nn":"Khartoum","name:sh":"Kartum","name:br":"C'hartoum","name:bs":"Kartum","name:jv":"Khartoum","name:bo":"\u0f41\u0f62\u0f0b\u0f4f\u0f74\u0f58\u0f0d","name:sw":"Khartoum","name:be":"\u0425\u0430\u0440\u0442\u0443\u043c","name:bg":"\u0425\u0430\u0440\u0442\u0443\u043c","name:wo":"Xartum","name:sr":"\u041a\u0430\u0440\u0442\u0443\u043c","name:ga":"Cart\u00fam","name:gd":"Khartoum","name:ht":"Kartoum","name:gl":"Khart\u00fan - \u0627\u0644\u062e\u0631\u0637\u0648\u0645","name:yo":"Khartoum","name:ak":"Khartoum"},"coordinates":[559,937]},{"type":"Point","properties":{"kind":"locality","name:en":"Omdurman","name":"\u0623\u0645 \u062f\u0631\u0645\u0627\u0646","kind_detail":"city","min_zoom":8.0,"source":"openstreetmap.org","name:fr":"Omdourman","name:uk":"\u041e\u043c\u0434\u0443\u0440\u043c\u0430\u043d","name:ru":"\u041e\u043c\u0434\u0443\u0440\u043c\u0430\u043d","id":1980789690,"population":2395159},"coordinates":[390,1092]}]},"transit":{"type":"GeometryCollection","geometries":[]},"pois":{"type":"GeometryCollection","geometries":[]},"boundaries":{"type":"GeometryCollection","geometries":[{"type":"LineString","properties":{"kind":"region","name:left:en":"Gedarif State","name":"\u0648\u0644\u0627\u064a\u0629 \u0627\u0644\u0642\u0636\u0627\u0631\u0641 - \u0648\u0644\u0627\u064a\u0629 \u0627\u0644\u062c\u0632\u064a\u0631\u0629","sort_rank":256,"kind_detail":"4","id:right":-3774674,"source":"openstreetmap.org","min_zoom":8.0,"id:left":-3774675,"id":-3774675,"name:right":"\u0648\u0644\u0627\u064a\u0629 \u0627\u0644\u062c\u0632\u064a\u0631\u0629","name:right:en":"Gezira State","osm_relation":true,"name:left":"\u0648\u0644\u0627\u064a\u0629 \u0627\u0644\u0642\u0636\u0627\u0631\u0641"},"arcs":[0]},{"type":"LineString","properties":{"kind":"region","name:left:en":"Gedarif State","name":"\u0648\u0644\u0627\u064a\u0629 \u0627\u0644\u0642\u0636\u0627\u0631\u0641 - \u0648\u0644\u0627\u064a\u0629 \u0627\u0644\u062e\u0631\u0637\u0648\u0645","sort_rank":256,"kind_detail":"4","id:left":-3774675,"id:right":-3774673,"source":"openstreetmap.org","min_zoom":8.0,"name:right:de":"Khartum","id":-3774675,"name:right":"\u0648\u0644\u0627\u064a\u0629 \u0627\u0644\u062e\u0631\u0637\u0648\u0645","name:right:en":"Khartoum State","osm_relation":true,"name:left":"\u0648\u0644\u0627\u064a\u0629 \u0627\u0644\u0642\u0636\u0627\u0631\u0641"},"arcs":[1]},{"type":"LineString","properties":{"kind":"region","name:left:en":"Gezira State","name":"\u0648\u0644\u0627\u064a\u0629 \u0627\u0644\u062c\u0632\u064a\u0631\u0629 - \u0648\u0644\u0627\u064a\u0629 \u0627\u0644\u062e\u0631\u0637\u0648\u0645","sort_rank":256,"kind_detail":"4","id:left":-3774674,"id:right":-3774673,"source":"openstreetmap.org","min_zoom":8.0,"name:right:de":"Khartum","id":-3774674,"name:right":"\u0648\u0644\u0627\u064a\u0629 \u0627\u0644\u062e\u0631\u0637\u0648\u0645","name:right:en":"Khartoum State","osm_relation":true,"name:left":"\u0648\u0644\u0627\u064a\u0629 \u0627\u0644\u062c\u0632\u064a\u0631\u0629"},"arcs":[2]},{"type":"LineString","properties":{"id:left":-3774673,"name:right:ru":"\u041d\u0438\u043b","min_zoom":8.0,"id:right":-3774666,"id":-3774673,"osm_relation":true,"name:left:en":"Khartoum State","kind":"region","name":"\u0648\u0644\u0627\u064a\u0629 \u0627\u0644\u062e\u0631\u0637\u0648\u0645 - \u0648\u0644\u0627\u064a\u0629 \u0646\u0647\u0631 \u0627\u0644\u0646\u064a\u0644","sort_rank":256,"kind_detail":"4","name:left:de":"Khartum","name:right:en":"River Nile State","source":"openstreetmap.org","name:right:de":"Nil-Fluss","name:right":"\u0648\u0644\u0627\u064a\u0629 \u0646\u0647\u0631 \u0627\u0644\u0646\u064a\u0644","name:left":"\u0648\u0644\u0627\u064a\u0629 \u0627\u0644\u062e\u0631\u0637\u0648\u0645"},"arcs":[3]}]},"roads":{"type":"GeometryCollection","geometries":[{"type":"MultiLineString","properties":{"kind":"major_road","sort_rank":380,"kind_detail":"primary","name:ar":"\u062c\u0633\u0631 \u0643\u0648\u0628\u0631","name:de":"Kubir-Br\u00fccke","source":"openstreetmap.org","min_zoom":8.0,"landuse_kind":"urban_area"},"arcs":[[4],[5],[6],[7]]},{"type":"LineString","properties":{"sort_rank":381,"source":"openstreetmap.org","min_zoom":8.0,"kind":"major_road","kind_detail":"trunk"},"arcs":[8]},{"type":"LineString","properties":{"source":"openstreetmap.org","kind":"major_road","name:en":"Khartoum-Wad Madani Road","sort_rank":381,"kind_detail":"trunk","min_zoom":8.0,"name:fr":"Route Khartoum-Wad Madani;Route nationale Khartoum-Wad Madani"},"arcs":[9]},{"type":"MultiLineString","properties":{"kind":"major_road","name:en":"Inqaz Bridge","sort_rank":380,"kind_detail":"primary","name:ar":"\u0627\u0644\u0643\u0628\u0631\u064a \u0627\u0644\u062c\u062f\u064a\u062f","source":"openstreetmap.org","min_zoom":8.0,"landuse_kind":"urban_area"},"arcs":[[10],[11]]},{"type":"MultiLineString","properties":{"source":"openstreetmap.org","kind":"major_road","landuse_kind":"urban_area","sort_rank":380,"kind_detail":"primary","name:ar":"\u0634\u0627\u0631\u0639 \u0627\u0644\u0633\u062a\u064a\u0646","min_zoom":8.0},"arcs":[[12],[13],[14],[15]]},{"type":"MultiLineString","properties":{"source":"openstreetmap.org","kind":"major_road","landuse_kind":"urban_area","sort_rank":380,"kind_detail":"primary","name:ar":"\u0634\u0627\u0631\u0639 \u0627\u0644\u062d\u0631\u064a\u0629","min_zoom":8.0},"arcs":[[16],[17]]},{"type":"LineString","properties":{"kind":"major_road","sort_rank":380,"landuse_kind":"urban_area","min_zoom":8.0,"source":"openstreetmap.org","name:fr":"Route Khartoum-Wad Madani;Route nationale Khartoum-Wad Madani","kind_detail":"primary","id":45097816},"arcs":[18]},{"type":"MultiLineString","properties":{"kind":"major_road","sort_rank":380,"kind_detail":"primary","name:ar":"\u0627\u0648\u0645\u0627\u0643","name:fr":"rue Al-Tayeb Saleh","source":"openstreetmap.org","min_zoom":8.0,"old_name":"Omak Street","landuse_kind":"urban_area"},"arcs":[[19],[20]]},{"type":"LineString","properties":{"kind":"major_road","sort_rank":381,"landuse_kind":"urban_area","name:ar":"\u0634\u0627\u0631\u0639 \u0627\u0641\u0631\u064a\u0642\u064a\u0627","source":"openstreetmap.org","min_zoom":8.0,"kind_detail":"trunk","id":164439849},"arcs":[21]},{"type":"MultiLineString","properties":{"sort_rank":380,"kind_detail":"primary","min_zoom":8.0,"kind":"major_road","source":"openstreetmap.org"},"arcs":[[22],[23]]},{"type":"MultiLineString","properties":{"kind":"major_road","name:en":"Alzaeem Alazhari Road","sort_rank":380,"kind_detail":"primary","is_bicycle_related":true,"source":"openstreetmap.org","min_zoom":8.0,"landuse_kind":"residential"},"arcs":[[24],[25]]},{"type":"LineString","properties":{"kind":"major_road","sort_rank":380,"landuse_kind":"urban_area","name:ar":"\u0634\u0627\u0631\u0639 \u0627\u0644\u0643\u0644\u0627\u0643\u0644\u0629","source":"openstreetmap.org","min_zoom":8.0,"kind_detail":"primary","id":164544916},"arcs":[26]},{"type":"LineString","properties":{"kind":"major_road","sort_rank":380,"landuse_kind":"urban_area","name:ar":"\u0634\u0627\u0631\u0639 \u0627\u0644\u062e\u0631\u0637\u0648\u0645 \u0645\u062f\u0646\u064a","source":"openstreetmap.org","min_zoom":8.0,"kind_detail":"primary","id":30043677},"arcs":[27]},{"type":"MultiLineString","properties":{"kind":"major_road","name:en":"Al Mak Nimir Bridge","sort_rank":381,"landuse_kind":"urban_area","name:ar":"\u062c\u0633\u0631 \u0627\u0644\u0645\u0643 \u0646\u0645\u0631","source":"openstreetmap.org","min_zoom":8.0,"kind_detail":"trunk"},"arcs":[[28],[29]]},{"type":"LineString","properties":{"source":"openstreetmap.org","kind":"major_road","sort_rank":380,"kind_detail":"primary","min_zoom":8.0,"name:fr":"Route Khartoum-Wad Madani;Route nationale Khartoum-Wad Madani"},"arcs":[30]},{"type":"LineString","properties":{"kind":"major_road","name:en":"Khartoum-Shendi Road","sort_rank":381,"kind_detail":"trunk","min_zoom":8.0,"source":"openstreetmap.org","name:fr":"Route Khartoum-Shendi","landuse_kind":"urban_area","id":330190832},"arcs":[31]},{"type":"LineString","properties":{"kind":"major_road","name:en":"Al-Imam Al-Mahdi Road","sort_rank":380,"landuse_kind":"urban_area","source":"openstreetmap.org","min_zoom":8.0,"kind_detail":"primary","id":29846479},"arcs":[32]},{"type":"LineString","properties":{"kind":"major_road","sort_rank":380,"kind_detail":"primary","name:ar":"\u0634\u0627\u0631\u0639 \u0639\u0628\u064a\u062f \u062e\u062a\u0645","is_bicycle_related":true,"source":"openstreetmap.org","min_zoom":8.0,"landuse_kind":"urban_area","id":163961603},"arcs":[33]},{"type":"LineString","properties":{"kind":"major_road","name:en":"Blue Nile road & Railway Bridge","sort_rank":380,"kind_detail":"primary","name:ar":"\u062c\u0633\u0631 \u0627\u0644\u0646\u064a\u0644 \u0627\u0644\u0623\u0632\u0631\u0642","name:de":"an-Nil-al-azraq-Br\u00fccke","source":"openstreetmap.org","min_zoom":8.0,"landuse_kind":"urban_area","id":5137139},"arcs":[34]},{"type":"LineString","properties":{"source":"openstreetmap.org","kind":"major_road","landuse_kind":"residential","sort_rank":380,"kind_detail":"primary","name:ar":"\u0634\u0627\u0631\u0639 \u0627\u0644\u0634\u0647\u064a\u062f\u0629 \u062f.\u0633\u0644\u0645\u0649","min_zoom":8.0},"arcs":[35]},{"type":"MultiLineString","properties":{"kind":"major_road","name:en":"Omdurman Bridge","sort_rank":380,"kind_detail":"primary","name:de":"Alte Omdurman-Br\u00fccke","source":"openstreetmap.org","min_zoom":8.0,"landuse_kind":"urban_area"},"arcs":[[36],[37]]},{"type":"LineString","properties":{"kind":"major_road","sort_rank":380,"landuse_kind":"urban_area","is_bicycle_related":true,"source":"openstreetmap.org","min_zoom":8.0,"kind_detail":"primary","id":45097861},"arcs":[38]},{"type":"MultiLineString","properties":{"source":"openstreetmap.org","kind":"major_road","landuse_kind":"residential","sort_rank":380,"kind_detail":"primary","name:ar":"\u0634\u0627\u0631\u0639 \u0627\u0644\u0645\u0648\u0631\u062f\u0629","min_zoom":8.0},"arcs":[[39],[40],[41],[42]]},{"type":"LineString","properties":{"kind":"major_road","sort_rank":380,"landuse_kind":"urban_area","name:ar":"\u0628\u0634\u064a\u0631 \u0627\u0644\u0646\u0642\u064a\u062f\u064a","source":"openstreetmap.org","min_zoom":8.0,"kind_detail":"primary","id":162958860},"arcs":[43]},{"type":"MultiLineString","properties":{"source":"openstreetmap.org","kind":"major_road","landuse_kind":"urban_area","sort_rank":380,"kind_detail":"primary","min_zoom":8.0},"arcs":[[44],[45],[46],[47],[48],[49],[50],[51],[52],[53],[54],[55],[56],[57],[58],[59],[60],[61],[62],[63],[64],[65],[66],[67],[68],[69],[70],[71],[72],[73],[74],[75],[76],[77],[78],[79],[80],[81],[82],[83],[84],[85]]},{"type":"MultiLineString","properties":{"source":"openstreetmap.org","kind":"major_road","kind_detail":"trunk","sort_rank":381,"landuse_kind":"urban_area","min_zoom":8.0},"arcs":[[86],[87],[88],[89],[90],[91],[92],[93],[94],[95],[96],[97],[98],[99],[100],[101],[102],[103],[104]]},{"type":"MultiLineString","properties":{"source":"openstreetmap.org","kind":"major_road","name:en":"Arda Road","landuse_kind":"residential","sort_rank":380,"kind_detail":"primary","min_zoom":8.0},"arcs":[[105],[106]]},{"type":"MultiLineString","properties":{"source":"openstreetmap.org","kind":"major_road","landuse_kind":"urban_area","sort_rank":380,"kind_detail":"primary","name:ar":"\u0634\u0627\u0631\u0639 \u0645\u062f\u0646\u064a \u0627\u0644\u062d\u0631\u0637\u0648\u0645","min_zoom":8.0},"arcs":[[107],[108]]},{"type":"MultiLineString","properties":{"source":"openstreetmap.org","kind":"major_road","name:en":"Khartoum-Shendi Road","sort_rank":381,"kind_detail":"trunk","min_zoom":8.0,"name:fr":"Route Khartoum-Shendi"},"arcs":[[109],[110],[111],[112]]},{"type":"MultiLineString","properties":{"kind":"major_road","sort_rank":380,"landuse_kind":"urban_area","name:ar":"\u062c\u0633\u0631 \u0634\u0645\u0628\u0627\u062a","is_bicycle_related":true,"name:de":"Schambat-Br\u00fccke","source":"openstreetmap.org","min_zoom":8.0,"kind_detail":"primary"},"arcs":[[113],[114]]},{"type":"LineString","properties":{"kind":"major_road","sort_rank":380,"landuse_kind":"urban_area","source":"openstreetmap.org","min_zoom":8.0,"kind_detail":"primary","ref":"Wad Medani Highway","id":5136119},"arcs":[115]},{"type":"MultiLineString","properties":{"kind":"major_road","name:en":"Africa Road","sort_rank":381,"landuse_kind":"urban_area","name:ar":"\u0634\u0627\u0631\u0639 \u0627\u0641\u0631\u064a\u0642\u064a\u0627","source":"openstreetmap.org","min_zoom":8.0,"kind_detail":"trunk"},"arcs":[[116],[117]]},{"type":"MultiLineString","properties":{"source":"openstreetmap.org","kind":"major_road","landuse_kind":"urban_area","sort_rank":380,"kind_detail":"primary","name:ar":"\u0634\u0627\u0631\u0639 \u0627\u0644\u0645\u0648\u0631\u062f\u0629","min_zoom":8.0},"arcs":[[118],[119]]},{"type":"MultiLineString","properties":{"kind":"major_road","name:en":"Nile Street","sort_rank":380,"kind_detail":"primary","is_bicycle_related":true,"source":"openstreetmap.org","min_zoom":8.0,"landuse_kind":"urban_area"},"arcs":[[120],[121],[122],[123]]},{"type":"LineString","properties":{"kind":"major_road","sort_rank":380,"landuse_kind":"urban_area","min_zoom":8.0,"source":"openstreetmap.org","name:fr":"Pont Huria","kind_detail":"primary","id":29993611},"arcs":[124]},{"type":"LineString","properties":{"source":"openstreetmap.org","kind":"major_road","landuse_kind":"urban_area","sort_rank":380,"kind_detail":"primary","name:ar":"\u0634\u0627\u0631\u0639 \u0627\u0644\u0627\u0646\u0642\u0627\u0630","min_zoom":8.0},"arcs":[125]},{"type":"LineString","properties":{"kind":"major_road","sort_rank":380,"landuse_kind":"residential","name:ar":"\u0635\u064a\u0646\u064a\u0629 \u0627\u0644\u0627\u0632\u0647\u0631\u064a","source":"openstreetmap.org","min_zoom":8.0,"kind_detail":"primary","id":5131321},"arcs":[126]},{"type":"MultiLineString","properties":{"source":"openstreetmap.org","kind":"major_road","name:en":"Nile Street","landuse_kind":"urban_area","sort_rank":380,"kind_detail":"primary","min_zoom":8.0},"arcs":[[127],[128],[129],[130],[131],[132]]},{"type":"MultiLineString","properties":{"source":"openstreetmap.org","kind":"major_road","landuse_kind":"residential","sort_rank":381,"kind_detail":"trunk","min_zoom":8.0},"arcs":[[133],[134]]},{"type":"MultiLineString","properties":{"source":"openstreetmap.org","kind":"major_road","landuse_kind":"residential","sort_rank":380,"kind_detail":"primary","min_zoom":8.0},"arcs":[[135],[136],[137],[138],[139],[140],[141],[142],[143],[144],[145],[146],[147],[148],[149],[150],[151],[152],[153],[154],[155],[156],[157],[158],[159],[160],[161],[162],[163],[164],[165],[166],[167]]},{"type":"LineString","properties":{"kind":"major_road","sort_rank":380,"landuse_kind":"residential","is_bicycle_related":true,"source":"openstreetmap.org","min_zoom":8.0,"kind_detail":"primary","id":45097861},"arcs":[168]},{"type":"LineString","properties":{"kind":"major_road","name:en":"Al Imam Al Mahdi Road","sort_rank":380,"landuse_kind":"urban_area","source":"openstreetmap.org","min_zoom":8.0,"kind_detail":"primary","id":163206334},"arcs":[169]},{"type":"LineString","properties":{"kind":"major_road","sort_rank":380,"landuse_kind":"urban_area","name:ar":"\u0634\u0627\u0631\u0639 \u0639\u0628\u064a\u062f \u062e\u062a\u0645","source":"openstreetmap.org","min_zoom":8.0,"kind_detail":"primary","id":5136268},"arcs":[170]},{"type":"LineString","properties":{"kind":"major_road","sort_rank":380,"kind_detail":"primary","name:ar":"\u0643\u0628\u0631\u064a \u0627\u0644\u0645\u0646\u0634\u064a\u0629","is_bicycle_related":true,"source":"openstreetmap.org","min_zoom":8.0,"landuse_kind":"urban_area","id":29846397},"arcs":[171]},{"type":"LineString","properties":{"kind":"major_road","sort_rank":380,"landuse_kind":"urban_area","name:ar":"\u0634\u0627\u0639 \u0639\u0628\u064a\u062f \u062e\u062a\u0645","source":"openstreetmap.org","min_zoom":8.0,"kind_detail":"primary","id":163961592},"arcs":[172]},{"type":"MultiLineString","properties":{"kind":"major_road","sort_rank":380,"landuse_kind":"residential","name:ar":"\u062c\u0633\u0631 \u0634\u0645\u0628\u0627\u062a","is_bicycle_related":true,"name:de":"Schambat-Br\u00fccke","source":"openstreetmap.org","min_zoom":8.0,"kind_detail":"primary"},"arcs":[[173],[174]]},{"type":"LineString","properties":{"kind":"major_road","name:en":"Khartoum-Shendi Road","sort_rank":381,"kind_detail":"trunk","name:fr":"Route Khartoum-Shendi","source":"openstreetmap.org","min_zoom":8.0,"landuse_kind":"residential"},"arcs":[175]},{"type":"LineString","properties":{"source":"openstreetmap.org","kind":"major_road","kind_detail":"trunk","sort_rank":381,"landuse_kind":"urban_area","name:ar":"\u0634\u0627\u0631\u0639 \u0627\u0644\u0645\u0639\u0648\u0646\u0629","min_zoom":8.0},"arcs":[176]},{"type":"LineString","properties":{"kind":"major_road","sort_rank":381,"landuse_kind":"urban_area","min_zoom":8.0,"source":"openstreetmap.org","name:fr":"Al Mek Nimir Avenue","kind_detail":"trunk","id":5137080},"arcs":[177]}]},"earth":{"type":"GeometryCollection","geometries":[{"type":"Polygon","properties":{"sort_rank":10,"source":"naturalearthdata.com","kind":"earth","min_zoom":0.0,"id":4704},"arcs":[[178]]}]},"landuse":{"type":"GeometryCollection","geometries":[{"type":"Polygon","properties":{"source":"openstreetmap.org","kind":"residential","area":262440992,"tier":2,"id":233524075,"min_zoom":6.0,"sort_rank":20},"arcs":[[179]]},{"type":"Polygon","properties":{"kind":"residential","name":"Al Haj Yousif","area":30691500,"sort_rank":20,"source":"openstreetmap.org","min_zoom":8.0,"tier":2,"id":178258104},"arcs":[[180]]},{"type":"MultiPolygon","properties":{"source":"naturalearthdata.com","kind":"urban_area","name":"","area":1736827003,"sort_rank":11,"min_zoom":4.0},"arcs":[[[181],[182]]]},{"type":"Polygon","properties":{"source":"openstreetmap.org","kind":"aerodrome","area":15876800,"tier":3,"id":38947795,"min_zoom":8.0,"sort_rank":60},"arcs":[[183]]},{"type":"Polygon","properties":{"kind":"residential","name":"Jiraif East","area":15845900,"sort_rank":20,"source":"openstreetmap.org","min_zoom":8.0,"tier":2,"id":178258142},"arcs":[[184]]},{"type":"MultiPolygon","properties":{"source":"openstreetmap.org","kind":"residential","tier":2,"area":271148288,"sort_rank":20,"min_zoom":8.0},"arcs":[[[185]],[[186]],[[187]],[[188]],[[189]],[[190]],[[191]],[[192]]]},{"type":"Polygon","properties":{"kind":"residential","name:en":"Alsalha","name":"\u0627\u0644\u0635\u0627\u0644\u062d\u0629","area":33620800,"sort_rank":20,"source":"openstreetmap.org","min_zoom":8.0,"tier":2,"id":228297024},"arcs":[[193]]},{"type":"Polygon","properties":{"kind":"residential","name":"Al haj Yousif South","area":14845900,"sort_rank":20,"source":"openstreetmap.org","min_zoom":8.0,"tier":2,"id":178258132},"arcs":[[194]]}]}},"type":"Topology","transform":{"translate":[32.34375,15.2841851141],"scale":[0.0003433228,0.0003300798]},"arcs":[[[3168,741],[292,-249],[198,-278],[198,-214]],[[4096,1504],[-687,-448],[-168,-183],[-73,-132]],[[3168,741],[-245,-240],[-255,-110],[-439,-138],[-1019,-253]],[[4096,2331],[-364,239],[-543,200],[-485,214],[-1000,143],[-271,99],[-142,108],[-112,33],[-368,76],[-656,-28],[-155,7]],[[617,1042],[-2,-42]],[[615,1000],[0,-5]],[[615,995],[0,5]],[[615,1000],[0,18]],[[515,314],[73,-217],[-35,-97]],[[1442,109],[152,-76],[33,-33]],[[427,965],[16,1]],[[443,966],[-16,-1]],[[670,936],[5,-32]],[[675,904],[23,-141]],[[697,763],[-22,141]],[[675,904],[-5,32]],[[520,935],[12,-79]],[[533,856],[-13,79]],[[836,648],[390,-414]],[[709,925],[-80,-10]],[[629,914],[78,11]],[[611,828],[12,-68]],[[0,1407],[84,-107],[5,-83],[97,-38]],[[1404,120],[38,-11]],[[432,1102],[26,-7]],[[458,1095],[-26,7]],[[459,809],[10,20]],[[836,648],[-138,115]],[[549,1006],[4,-24]],[[554,982],[-5,24]],[[1226,234],[62,-65],[154,-60]],[[654,1630],[-17,-42],[18,-146]],[[585,996],[-25,-46],[-41,-7]],[[624,963],[23,-163]],[[582,1011],[3,-15]],[[330,995],[26,-16]],[[422,1002],[14,-7]],[[436,995],[-14,8]],[[706,953],[14,1]],[[415,1077],[8,-46]],[[424,1031],[-9,46]],[[423,1029],[0,-9]],[[423,1021],[1,8]],[[670,936],[-2,13]],[[397,972],[30,-7]],[[427,965],[-30,7]],[[493,1327],[-83,62]],[[414,1387],[75,-57]],[[518,942],[-37,13],[-38,11]],[[443,966],[75,-24]],[[478,841],[-9,-12],[9,12]],[[531,862],[-52,-21]],[[479,841],[45,14]],[[490,1086],[83,-4]],[[573,1082],[-83,4]],[[518,942],[2,-7]],[[519,940],[0,2]],[[524,855],[9,1]],[[524,855],[9,2]],[[559,949],[26,47],[-3,15],[-4,14]],[[621,1277],[-47,-191]],[[578,1025],[0,-3],[4,-11]],[[578,1026],[-4,59],[19,55],[24,74],[8,41],[-3,22]],[[593,1140],[18,2]],[[611,1142],[1,0],[0,-5]],[[612,1137],[5,-94],[0,-1]],[[615,1018],[2,24],[0,72],[-5,23]],[[612,1137],[-1,5]],[[611,1142],[0,1],[-18,-2]],[[612,987],[2,6]],[[614,993],[1,2]],[[615,995],[-1,-2]],[[614,993],[-2,-10],[12,-20]],[[654,756],[-30,203]],[[642,754],[-19,-2],[19,2]],[[670,937],[0,-1]],[[697,763],[139,-115]],[[409,559],[0,16]],[[409,575],[-1,32]],[[408,607],[-2,50],[53,152],[-51,-202]],[[408,607],[-4,-16],[5,-16]],[[409,575],[46,-147],[-46,131]],[[478,841],[1,0],[-1,0]],[[518,942],[1,0],[0,1],[-1,-1]],[[577,1025],[1,0]],[[578,1025],[0,1],[-1,0],[0,-1]],[[454,683],[177,31],[-19,114]],[[631,714],[-1,0]],[[630,714],[-176,-30],[26,-232],[-25,-24],[60,-114]],[[537,1305],[22,-7],[14,-3],[3,0],[57,20]],[[633,1315],[2,0]],[[635,1315],[-2,0]],[[633,1315],[-57,-19],[-3,-1],[-36,10]],[[655,1442],[-1,-7],[-1,-1],[-20,-119]],[[633,1315]],[[633,1315],[-2,-14],[-85,-219],[3,-76]],[[549,1006],[0,9]],[[560,944],[-6,38]],[[571,942],[-11,5]],[[560,944],[10,-2]],[[623,760],[1,-10],[6,-36]],[[630,714],[0,-1]],[[560,944],[0,-1],[0,1]],[[560,944]],[[570,942],[1,0],[-1,0]],[[405,1079],[-70,19]],[[341,1096],[64,-17]],[[698,763],[-56,-9]],[[654,756],[43,7]],[[700,2108],[-28,-181],[14,-216],[-32,-81]],[[2393,3773],[-102,-83],[-226,-71],[-44,14],[-310,-44],[-83,-271],[-277,-196],[-394,-374],[-32,-75],[-143,-174],[-61,-284]],[[2393,3773],[5,2]],[[3170,4096],[-69,-67],[-320,-12],[-135,-137],[-157,-86],[-91,-19]],[[463,1093],[27,-7]],[[490,1086],[-27,8]],[[642,754],[12,2]],[[570,942],[41,-114]],[[612,828],[-3,15],[-38,99]],[[423,1020],[-1,-18]],[[422,1003],[1,18]],[[551,990],[119,6],[36,-25],[1,-10]],[[707,961],[2,-36]],[[707,925],[0,36]],[[707,961],[0,10],[-37,25],[-118,-6]],[[520,935],[-1,5]],[[574,1086],[3,-60]],[[432,1101],[0,1],[-1,0],[1,-1]],[[436,995],[57,-16]],[[493,979],[-57,16]],[[552,990],[-51,-9]],[[501,981],[-9,-2]],[[493,979],[8,2]],[[501,981],[50,9]],[[531,1307],[6,-2]],[[537,1305],[-6,3]],[[219,990],[-93,47]],[[186,1179],[34,-13],[-1,-66]],[[329,996],[-110,-6]],[[219,990],[0,110]],[[341,1096],[-122,4]],[[329,996],[1,-1]],[[331,996],[-2,0]],[[330,983],[-1,0]],[[330,983],[1,12]],[[370,978],[-40,5]],[[331,995],[-1,1],[0,-1],[1,0]],[[410,1389],[-74,33]],[[336,1422],[78,-35]],[[356,979],[14,-1]],[[371,978],[26,-6]],[[397,972],[-26,6]],[[406,1079],[8,-2]],[[414,1077],[-8,2]],[[423,1031],[0,-2]],[[424,1029],[0,2]],[[489,1330],[7,-10]],[[497,1321],[-4,6]],[[497,1319],[34,-12]],[[531,1308],[-33,12]],[[531,1309],[6,-1]],[[537,1308],[-40,-83],[-16,-49],[-22,-86],[78,218]],[[371,978],[-1,0],[1,0]],[[405,1079],[1,0]],[[406,1079],[-1,0]],[[414,1077],[1,0],[-1,0]],[[497,1321],[-1,-1],[1,-1]],[[497,1319],[1,1]],[[498,1320],[-1,1]],[[720,954],[1,0]],[[519,942],[40,7]],[[647,800],[7,-44]],[[721,955],[-15,-2]],[[624,959],[-12,28]],[[458,1095],[5,-2]],[[463,1094],[-5,1]],[[721,2215],[-21,-107]],[[549,1015],[-3,67],[85,219],[22,133]],[[553,982],[7,-38]],[[0,4096],[4096,0],[0,-4096],[-4096,0],[0,4096]],[[0,1128],[24,0],[-2,75],[98,-3],[10,-84],[9,42],[48,0],[-4,71],[55,-3],[13,43],[46,-1],[-29,110],[18,23],[64,-13],[-32,19],[1,42],[40,-35],[11,26],[-45,21],[8,21],[60,-27],[38,32],[30,-13],[-22,-43],[-34,16],[-7,-52],[39,-21],[-8,-24],[37,6],[30,-33],[27,87],[-50,6],[1,24],[74,4],[-11,-138],[-73,-210],[-117,-215],[-32,22],[-44,-45],[-4,79],[-15,-19],[-76,44],[-8,-19],[-26,35],[-18,-35],[17,-42],[-30,-8],[-23,35],[27,36],[-24,35],[-91,-29],[0,158]],[[754,1137],[101,18],[21,-93],[29,-5],[3,-86],[-152,27],[-2,139]],[[765,1637],[27,-87],[-35,-90],[0,-169],[-32,-33],[27,-44],[102,-23],[32,-67],[33,0],[0,-68],[64,0],[0,-101],[65,-33],[-30,-87],[63,-48],[-33,-112],[82,-39],[26,-76],[54,-42],[65,-270],[-148,-42],[-47,9],[-32,134],[-65,0],[-210,240],[-16,-38],[-227,-33],[13,-105],[52,-64],[-60,-39],[-231,39],[39,108],[-22,131],[15,65],[32,0],[-32,67],[0,101],[-184,242],[-4,69],[188,228],[33,0],[0,33],[32,0],[0,34],[161,33],[33,169],[118,3],[11,31],[41,-26]],[[887,755],[28,-39],[68,4],[-28,105],[-69,63],[1,-133]],[[405,1519],[46,135],[75,-10],[-14,-102],[-107,-23]],[[720,917],[0,37],[50,8],[87,-99],[-72,-56],[-65,110]],[[1343,475],[41,10],[-7,29],[23,13],[48,-32],[35,9],[18,-29],[-24,-64],[-11,16],[-43,-29],[-80,77]],[[629,1012],[21,144],[44,-6],[8,-120],[-73,-18]],[[638,1322],[16,112],[46,-29],[7,-77],[29,-12],[1,21],[46,-6],[-46,-21],[18,-21],[-102,0],[-15,33]],[[679,1501],[30,41],[-18,89],[41,46],[5,-37],[26,-5],[-38,-49],[7,-123],[-53,38]],[[0,1631],[0,35],[28,5],[11,-44],[117,16],[3,-20],[77,0],[30,-88],[-93,-23],[6,-38],[-31,37],[-73,-35],[-22,63],[-25,0],[-10,90],[-18,2]],[[515,2301],[36,-4],[-27,82],[43,15],[38,-134],[-26,-86],[-64,127]],[[429,1804],[0,27],[54,14],[29,92],[-38,26],[14,48],[53,27],[17,109],[38,-34],[-56,-426],[-25,34],[-44,-4],[-10,81],[-32,6]],[[680,2132],[27,78],[54,20],[-31,-61],[48,-37],[-89,-27],[-9,27]],[[57,796],[59,62],[138,-31],[-67,-167],[-92,47],[20,32],[-30,25],[29,0],[-57,32]],[[775,955],[21,-2],[-4,36],[116,-18],[3,-46],[-25,0],[1,-49],[-48,1],[-64,78]]]}