{"objects":{"water":{"type":"GeometryCollection","geometries":[]},"buildings":{"type":"GeometryCollection","geometries":[]},"places":{"type":"GeometryCollection","geometries":[{"type":"Point","properties":{"name:sr":"\u0420\u043e\u0441\u043b\u0430\u0432\u0459","int_name":"Roslavl'","name:ja":"\u30ed\u30b9\u30e9\u30f4\u30ea","name:lt":"Roslavlis","name:ar":"\u0631\u0648\u0633\u0644\u0627\u0641\u0644","name:eo":"Roslavl","min_zoom":8.0,"name:be":"\u0420\u043e\u0441\u043b\u0430\u045e\u043b\u044c","name:pl":"Ros\u0142aw","id":60078445,"name:ca":"R\u00f3slavl","population":51775,"name:fa":"\u0631\u0648\u0633\u0644\u0627\u0641\u0644","kind":"locality","name:en":"Roslavl","name":"\u0420\u043e\u0441\u043b\u0430\u0432\u043b\u044c","kind_detail":"town","name:he":"\u05e8\u05d5\u05e1\u05dc\u05d0\u05d1\u05dc","name:de":"Roslawl","source":"openstreetmap.org"},"coordinates":[1506,3042]},{"type":"Point","properties":{"kind":"locality","name:en":"Desnogorsk","name":"\u0414\u0435\u0441\u043d\u043e\u0433\u043e\u0440\u0441\u043a","kind_detail":"town","official_name":"\u0433\u043e\u0440\u043e\u0434 \u0414\u0435\u0441\u043d\u043e\u0433\u043e\u0440\u0441\u043a","name:de":"Desnogorsk","source":"openstreetmap.org","min_zoom":8.0,"name:be":"\u0414\u0437\u0435\u0441\u043d\u0430\u0433\u043e\u0440\u0441\u043a","name:pl":"Diesnogorsk","id":500151213,"population":28517},"coordinates":[2751,4043]},{"type":"Point","properties":{"kind":"locality","name":"\u0416\u0443\u043a\u043e\u0432\u043a\u0430","name:lt":"\u017dukovka","kind_detail":"town","source":"openstreetmap.org","min_zoom":8.0,"name:pl":"\u017bukowka","id":1290292137,"population":17147},"coordinates":[4044,995]},{"type":"Point","properties":{"kind":"locality","name:en":"Kletnya","name":"\u041a\u043b\u0435\u0442\u043d\u044f","kind_detail":"town","name:de":"Kletnja","source":"openstreetmap.org","min_zoom":8.0,"old_name":"\u041b\u044e\u0434\u0438\u043d\u043a\u0430","name:pl":"Kletnia","id":336306593,"population":12873},"coordinates":[2539,270]},{"type":"Point","properties":{"kind":"locality","name:en":"Dubrovka","name":"\u0414\u0443\u0431\u0440\u043e\u0432\u043a\u0430","kind_detail":"town","name:de":"Dubrowka","source":"openstreetmap.org","min_zoom":8.0,"name:pl":"Dubrowka","id":336306499,"population":7574},"coordinates":[3382,1768]},{"type":"Point","properties":{"old_name:uk":"\u0425\u043e\u0442\u0438\u043c\u0441\u044c\u043a","kind":"locality","name:en":"Khotsimsk","name":"\u0425\u043e\u0442\u0438\u043c\u0441\u043a","kind_detail":"town","min_zoom":8.0,"name:sr":"\u0425\u043e\u0446\u0438\u043c\u0441\u043a","source":"openstreetmap.org","name:fr":"Khotsimsk","int_name":"Chocimsk","name:uk":"\u0425\u043e\u0446\u0456\u043c\u0441\u044c\u043a","name:be":"\u0425\u043e\u0446\u0456\u043c\u0441\u043a","name:pl":"Chocimsk","id":242978996,"population":6704},"coordinates":[682,383]},{"type":"Point","properties":{"kind":"locality","name:en":"Shumyachi","name":"\u0428\u0443\u043c\u044f\u0447\u0438","kind_detail":"town","official_name":"\u043f\u043e\u0441\u0451\u043b\u043e\u043a \u0433\u043e\u0440\u043e\u0434\u0441\u043a\u043e\u0433\u043e \u0442\u0438\u043f\u0430 \u0428\u0443\u043c\u044f\u0447\u0438","name:de":"Schumjatschi","source":"openstreetmap.org","min_zoom":8.0,"name:be":"\u0428\u0443\u043c\u044f\u0447\u044b","name:pl":"Szumiaczi","id":336306405,"population":4007},"coordinates":[239,2584]}]},"transit":{"type":"GeometryCollection","geometries":[{"type":"LineString","properties":{"source":"openstreetmap.org","kind":"train","sort_rank":275,"ref":"\u0420\u043e\u0441\u043b\u0430\u0432\u043b\u044c - \u0424\u0430\u044f\u043d\u0441\u043e\u0432\u0430\u044f","min_zoom":6.0,"osm_relation":true},"arcs":[12]},{"type":"LineString","properties":{"source":"openstreetmap.org","kind":"train","sort_rank":275,"ref":"\u0411\u0440\u044f\u043d\u0441\u043a - \u0421\u043c\u043e\u043b\u0435\u043d\u0441\u043a","min_zoom":6.0,"osm_relation":true},"arcs":[13]}]},"pois":{"type":"GeometryCollection","geometries":[{"type":"Point","properties":{"kind":"nature_reserve","name:en":"Ershichskiy zakaznik","protect_class":"7","area":754591000,"official_name":"\u0413\u043e\u0441\u0443\u0434\u0430\u0440\u0441\u0442\u0432\u0435\u043d\u043d\u044b\u0439 \u043f\u0440\u0438\u0440\u043e\u0434\u043d\u044b\u0439 \u0437\u043e\u043e\u043b\u043e\u0433\u0438\u0447\u0435\u0441\u043a\u0438\u0439 \u0437\u0430\u043a\u0430\u0437\u043d\u0438\u043a \u0440\u0435\u0433\u0438\u043e\u043d\u0430\u043b\u044c\u043d\u043e\u0433\u043e \u0437\u043d\u0430\u0447\u0435\u043d\u0438\u044f \"\u0415\u0440\u0448\u0438\u0447\u0441\u043a\u0438\u0439\"","source":"openstreetmap.org","min_zoom":7.51,"tier":2,"id":-5218584,"osm_relation":true,"name":"\u0417\u043e\u043e\u043b\u043e\u0433\u0438\u0447\u0435\u0441\u043a\u0438\u0439 \u0437\u0430\u043a\u0430\u0437\u043d\u0438\u043a \"\u0415\u0440\u0448\u0438\u0447\u0441\u043a\u0438\u0439\""},"coordinates":[1610,1804]}]},"boundaries":{"type":"GeometryCollection","geometries":[{"type":"MultiLineString","properties":{"name:kg":"Belarusia","name:ty":"Belarus","name:ka":"\u10d1\u10d4\u10da\u10d0\u10e0\u10e3\u10e1\u10d8","name:ko":"\ubca8\ub77c\ub8e8\uc2a4","name:cv":"\u0411\u0435\u043b\u0430\u0440\u0443\u00e7","name:cu":"\u0411\u0463\u043b\u0430 \u0420\u043e\u0443\u0441\u044c","name:kl":"Hvideruslandi","name:cs":"B\u011blorusko","name:tt":"\u0411\u0435\u043b\u0430\u0440\u0443\u0441\u0438\u044f","name:co":"Bielorussia","name:tk":"Belorussi\u00fda","name:ku":"Belar\u00fbs","name:tl":"Biyelorusya","name:ce":"\u0411\u0435\u043b\u043e\u0440\u0443\u0441\u0441\u0438","name:ta":"\u0baa\u0bc6\u0bb2\u0bb0\u0bc1\u0bb8\u0bcd","name:tg":"\u0411\u0435\u043b\u0430\u0440\u0443\u0441","name:ca":"Bielor\u00fassia","name:te":"\u0c2c\u0c46\u0c32\u0c3e\u0c30\u0c38\u0c4d","name:cy":"Belarws","name:hr":"Bjelorusija","name:da":"Hviderusland","name:de":"Wei\u00dfrussland","name:dz":"\u0f56\u0f7a\u0f0b\u0f63\u0f0b\u0f62\u0f74\u0f0b\u0f66\u0f74\u0f0d","source":"openstreetmap.org","name:kn":"\u0cac\u0cc6\u0cb2\u0cbe\u0cb0\u0cc1\u0cb8\u0ccd","name:dv":"\u0784\u07ac\u078d\u07a6\u0783\u07ab\u0790\u07b0","name:lv":"Baltkrievija","name:lt":"Baltarusija","name:uz":"Belarus","name:ur":"\u0628\u06cc\u0644\u0627\u0631\u0648\u0633","name:lb":"W\u00e4issrussland","name:la":"Ruthenia Alba","name:uk":"\u0411\u0456\u043b\u043e\u0440\u0443\u0441\u044c","name:ug":"\u0628\u06d0\u0644\u0648\u0631\u06c7\u0633\u0633\u0649\u064a\u06d5","name:li":"Wit-Rusland","name:ln":"Bielorusia","name:el":"\u039b\u03b5\u03c5\u03ba\u03bf\u03c1\u03c9\u03c3\u03af\u03b1","name:eo":"Belorusujo","name:en":"Belarus","name":"\u0411\u0435\u043b\u0430\u0440\u0443\u0441\u044c","name:ee":"Belarus","name:th":"\u0e1b\u0e23\u0e30\u0e40\u0e17\u0e28\u0e40\u0e1a\u0e25\u0e32\u0e23\u0e38\u0e2a","name:eu":"Bielorrusia","name:et":"Valgevene","name:es":"Bielorrusia","name:ia":"Bielorussia","name:rm":"Bielorussia","name:az":"Belarus","name:ie":"Bielorussia","name:id":"Belarus","name:ar":"\u0631\u0648\u0633\u064a\u0627 \u0627\u0644\u0628\u064a\u0636\u0627\u0621","name:io":"Bielorusia","name:is":"Hv\u00edta-R\u00fassland","name:it":"Bielorussia","name:rw":"Belarusi","name:af":"Wit-Rusland","name:zu":"IBelarusi","kind_detail":"2","name:ky":"\u0411\u0435\u043b\u0430\u0440\u0443\u0441\u0438\u044f","name:zh-yue":"\u767d\u4fc4\u7f85\u65af","name:zh":"\u767d\u4fc4\u7f57\u65af","name:so":"Belarus","name:sl":"Belorusija","name:sk":"Bielorusko","name:ja":"\u30d9\u30e9\u30eb\u30fc\u30b7","name:si":"\u0db6\u0dd9\u0dbd\u0dcf\u0dbb\u0dc3\u0dca","name:sh":"Belorusija","name:se":"Vilges-Ruo\u0161\u0161a","name:sa":"\u092c\u0947\u0932\u093e\u0930\u0942\u0938","name:bs":"Bjelorusija","name:bn":"\u09ac\u09c7\u09b2\u09be\u09b0\u09c1\u09b6","name:bo":"\u0f56\u0fb7\u0f7a\u0f0b\u0f63\u0f0b\u0f62\u0f66\u0f74\u0f0d","name:br":"Belarus","name:sw":"Belarus","name:sv":"Vitryssland","name:su":"B\u00e9larus","name:bg":"\u0411\u0435\u043b\u0430\u0440\u0443\u0441","name:ss":"IBhelalasi","name:sr":"\u0411\u0435\u043b\u043e\u0440\u0443\u0441\u0438\u0458\u0430","name:sq":"Bjellorusia","name:jv":"B\u00e9larus","name:bi":"Belarus","name:pt":"Bielorr\u00fassia","name:ps":"\u0628\u06d0\u0644\u0627\u0631\u0648\u0633","name:oc":"Bielorussia","min_zoom":8.0,"name:ro":"Belarus","name:zh-min-nan":"Belarus","name:os":"\u0411\u0435\u043b\u043e\u0440\u0443\u0441\u0441\u0438","name:or":"\u0b2c\u0b47\u0b32\u0b3e\u0b0b\u0b37","name:pl":"Bia\u0142oru\u015b","sort_rank":262,"osm_relation":true,"name:tr":"Beyaz Rusya","name:hi":"\u092c\u0947\u0932\u093e\u0930\u0942\u0938","name:he":"\u05d1\u05dc\u05d0\u05e8\u05d5\u05e1","old_name:eo":"Bjelorusio;Bjelorusujo","name:hy":"\u0532\u0565\u056c\u0561\u057c\u0578\u0582\u057d","name:ht":"Byelorisi","name:hu":"Feh\u00e9roroszorsz\u00e1g","name:qu":"Bilarus","kind":"country","name:ts":"Belarus","name:yi":"\u05d1\u05e2\u05dc\u05d0\u05e8\u05d5\u05e1","name:yo":"B\u1eb9\u0300l\u00e1r\u00f9s","name:mt":"Belarus","alt_name:eo":"Belorusio","name:ms":"Belarus","name:mr":"\u092c\u0947\u0932\u093e\u0930\u0942\u0938","name:my":"\u1018\u102e\u101c\u102c\u101b\u102f\u1007\u103a\u1014\u102d\u102f\u1004\u103a\u1004\u1036","official_name":"\u0420\u044d\u0441\u043f\u0443\u0431\u043b\u0456\u043a\u0430 \u0411\u0435\u043b\u0430\u0440\u0443\u0441\u044c","name:kw":"Belarussi","name:ml":"\u0d2c\u0d46\u0d32\u0d3e\u0d31\u0d41\u0d38\u0d4d","name:vi":"Belarus","name:mi":"P\u0113rara","id":-59065,"name:mk":"\u0411\u0435\u043b\u043e\u0440\u0443\u0441\u0438\u0458\u0430","name:vo":"Belarus\u00e4n","name:fa":"\u0628\u0644\u0627\u0631\u0648\u0633","name:ff":"Belaruusiya","name:fi":"Valko-Ven\u00e4j\u00e4","name:fo":"Hv\u00edtarussland","alt_name:vi":"B\u1ea1ch Nga","name:fr":"B\u00e9larus","name:fy":"Wyt-Rusl\u00e2n","int_name":"Belarus","name:nl":"Wit-Rusland","name:nn":"Kviterussland","name:no":"Hviterussland","name:na":"Berarut","name:ne":"\u092c\u0947\u0932\u093e\u0930\u0941\u0938","alt_name:fr":"Bi\u00e9lorussie","name:wo":"Belaarus","name:ga":"An Bhealar\u00fais","name:gd":"A' Bhealaruis","name:gn":"Vielorrusia","name:gl":"Bielorrusia","name:gv":"Yn Velaroosh","name:gu":"\u0aac\u0ac7\u0ab2\u0abe\u0ab0\u0ac1\u0ab8"},"arcs":[[0],[1]]},{"type":"MultiLineString","properties":{"name:right:hy":"\u054d\u0574\u0578\u056c\u0565\u0576\u057d\u056f\u056b \u0574\u0561\u0580\u0566","name:right:uk":"\u0421\u043c\u043e\u043b\u0435\u043d\u0441\u044c\u043a\u0430 \u043e\u0431\u043b\u0430\u0441\u0442\u044c","name:right:hu":"Szmolenszki ter\u00fclet","name:left:sr":"\u0411\u0440\u0458\u0430\u043d\u0441\u043a\u0430 \u043e\u0431\u043b\u0430\u0441\u0442","name:right:lt":"Smolensko sritis","min_zoom":8.0,"name:left:lt":"Briansko sritis","name:left:sh":"Brjanska oblast","name:left:lv":"Brjanskas apgabals","name:right:uz":"Smolensk viloyati","sort_rank":256,"name:left:ca":"Prov\u00edncia de Briansk","source":"openstreetmap.org","name:left:cs":"Brjansk\u00e1 oblast","name:left":"\u0411\u0440\u044f\u043d\u0441\u043a\u0430\u044f \u043e\u0431\u043b\u0430\u0441\u0442\u044c","name:right:sr":"\u0421\u043c\u043e\u043b\u0435\u043d\u0441\u043a\u0430 \u043e\u0431\u043b\u0430\u0441\u0442","name:left:ka":"\u10d1\u10e0\u10d8\u10d0\u10dc\u10e1\u10d9\u10d8\u10e1 \u10dd\u10da\u10e5\u10d8","name:right:et":"Smolenski oblast","name:left:os":"\u0411\u0440\u044f\u043d\u0441\u0447\u044b \u043e\u0431\u043b\u00e6\u0441\u0442","name:left:ro":"Regiunea Briansk","name:left:kv":"\u0411\u0440\u044f\u043d\u0441\u043a \u043e\u0431\u043b\u0430\u0441\u044c\u0442","name:right:ro":"Regiunea Smolensk","name:right:id":"Oblast Smolensk","name:right:eo":"Smolenska provinco","name:right:en":"Smolensk Oblast","name:right:el":"\u03a0\u03b5\u03c1\u03b9\u03c6\u03ad\u03c1\u03b5\u03b9\u03b1 \u03a3\u03bc\u03bf\u03bb\u03ad\u03bd\u03c3\u03ba","kind":"region","name":"\u0411\u0440\u044f\u043d\u0441\u043a\u0430\u044f \u043e\u0431\u043b\u0430\u0441\u0442\u044c - \u0421\u043c\u043e\u043b\u0435\u043d\u0441\u043a\u0430\u044f \u043e\u0431\u043b\u0430\u0441\u0442\u044c","name:right:bg":"\u0421\u043c\u043e\u043b\u0435\u043d\u0441\u043a\u0430 \u043e\u0431\u043b\u0430\u0441\u0442","name:right:be":"\u0421\u043c\u0430\u043b\u0435\u043d\u0441\u043a\u0430\u044f \u0432\u043e\u0431\u043b\u0430\u0441\u0446\u044c","name:left:zh":"\u5e03\u826f\u65af\u514b\u5dde","name:left:fr":"Oblast de Briansk","name:right:cv":"\u0421\u043c\u0443\u043b\u0435\u043d \u043e\u0431\u043b\u0430\u00e7\u0115","name:left:hy":"\u0532\u0580\u0575\u0561\u0576\u057d\u056f\u056b \u0574\u0561\u0580\u0566","name:right:nl":"Oblast Smolensk","name:left:ja":"\u30d6\u30ea\u30e3\u30f3\u30b9\u30af\u5dde","id:right":-81996,"name:left:uk":"\u0411\u0440\u044f\u043d\u0441\u044c\u043a\u0430 \u043e\u0431\u043b\u0430\u0441\u0442\u044c","name:right:sh":"Smolenska oblast","name:left:nl":"Oblast Brjansk","name:left:ba":"\u0411\u0440\u044f\u043d\u0441\u043a \u04e9\u043b\u043a\u04d9\u04bb\u0435","name:left:be":"\u0411\u0440\u0430\u043d\u0441\u043a\u0430\u044f \u0432\u043e\u0431\u043b\u0430\u0441\u0446\u044c","name:left:hu":"Brjanszki ter\u00fclet","id":-81997,"name:right":"\u0421\u043c\u043e\u043b\u0435\u043d\u0441\u043a\u0430\u044f \u043e\u0431\u043b\u0430\u0441\u0442\u044c","name:left:en":"Bryansk Oblast","name:left:el":"\u03a0\u03b5\u03c1\u03b9\u03c6\u03ad\u03c1\u03b5\u03b9\u03b1 \u039c\u03c0\u03c1\u03b9\u03ac\u03bd\u03c3\u03ba","name:right:ca":"Prov\u00edncia de Smolensk","kind_detail":"4","name:right:ce":"\u0421\u043c\u043e\u043b\u0435\u043d\u0441\u043a\u0430\u043d \u043e\u0431\u043b\u0430\u0441\u0442\u044c","name:left:pl":"Obw\u00f3d bria\u0144ski","id:left":-81997,"name:left:es":"\u00d3blast de Briansk","name:right:cs":"Smolensk\u00e1 oblast","name:left:eu":"Briansk oblasta","name:left:et":"Brjanski oblast","name:right:ka":"\u10e1\u10db\u10dd\u10da\u10d4\u10dc\u10e1\u10d9\u10d8\u10e1 \u10dd\u10da\u10e5\u10d8","name:left:ar":"\u0623\u0648\u0628\u0644\u0627\u0633\u062a \u0628\u0631\u064a\u0627\u0646\u0633\u0643","name:right:tt":"\u0421\u043c\u043e\u043b\u0435\u043d\u0441\u043a \u04e9\u043b\u043a\u04d9\u0441\u0435","name:left:tr":"Bryansk Oblast\u0131","name:left:tt":"\u0411\u0440\u044f\u043d\u0441\u043a \u04e9\u043b\u043a\u04d9\u0441\u0435","name:left:az":"Bryansk vilay\u0259ti","name:right:tr":"Smolensk Oblast\u0131","name:right:kv":"\u0421\u043c\u043e\u043b\u0435\u043d\u0441\u043a \u043e\u0431\u043b\u0430\u0441\u044c\u0442","name:right:pl":"Obw\u00f3d smole\u0144ski","osm_relation":true,"name:right:de":"Oblast Smolensk","name:left:de":"Oblast Brjansk"},"arcs":[[2],[3]]},{"type":"MultiLineString","properties":{"name:right:hy":"\u054d\u0574\u0578\u056c\u0565\u0576\u057d\u056f\u056b \u0574\u0561\u0580\u0566","name:right:uk":"\u0421\u043c\u043e\u043b\u0435\u043d\u0441\u044c\u043a\u0430 \u043e\u0431\u043b\u0430\u0441\u0442\u044c","name:right:hu":"Szmolenszki ter\u00fclet","name:left:sr":"\u0411\u0440\u0458\u0430\u043d\u0441\u043a\u0430 \u043e\u0431\u043b\u0430\u0441\u0442","name:right:lt":"Smolensko sritis","min_zoom":8.0,"name:left:lt":"Briansko sritis","name:left:sh":"Brjanska oblast","name:left:lv":"Brjanskas apgabals","name:right:uz":"Smolensk viloyati","sort_rank":256,"name:left:ca":"Prov\u00edncia de Briansk","source":"openstreetmap.org","name:left:cs":"Brjansk\u00e1 oblast","name:left":"\u0411\u0440\u044f\u043d\u0441\u043a\u0430\u044f \u043e\u0431\u043b\u0430\u0441\u0442\u044c","name:right:sr":"\u0421\u043c\u043e\u043b\u0435\u043d\u0441\u043a\u0430 \u043e\u0431\u043b\u0430\u0441\u0442","name:left:ka":"\u10d1\u10e0\u10d8\u10d0\u10dc\u10e1\u10d9\u10d8\u10e1 \u10dd\u10da\u10e5\u10d8","name:right:et":"Smolenski oblast","name:left:os":"\u0411\u0440\u044f\u043d\u0441\u0447\u044b \u043e\u0431\u043b\u00e6\u0441\u0442","name:left:ro":"Regiunea Briansk","name:left:kv":"\u0411\u0440\u044f\u043d\u0441\u043a \u043e\u0431\u043b\u0430\u0441\u044c\u0442","name:right:ro":"Regiunea Smolensk","name:right:id":"Oblast Smolensk","name:right:eo":"Smolenska provinco","name:right:en":"Smolensk Oblast","name:right:el":"\u03a0\u03b5\u03c1\u03b9\u03c6\u03ad\u03c1\u03b5\u03b9\u03b1 \u03a3\u03bc\u03bf\u03bb\u03ad\u03bd\u03c3\u03ba","kind":"region","name":"\u0411\u0440\u044f\u043d\u0441\u043a\u0430\u044f \u043e\u0431\u043b\u0430\u0441\u0442\u044c - \u0421\u043c\u043e\u043b\u0435\u043d\u0441\u043a\u0430\u044f \u043e\u0431\u043b\u0430\u0441\u0442\u044c","name:right:bg":"\u0421\u043c\u043e\u043b\u0435\u043d\u0441\u043a\u0430 \u043e\u0431\u043b\u0430\u0441\u0442","name:right:be":"\u0421\u043c\u0430\u043b\u0435\u043d\u0441\u043a\u0430\u044f \u0432\u043e\u0431\u043b\u0430\u0441\u0446\u044c","name:left:zh":"\u5e03\u826f\u65af\u514b\u5dde","name:left:fr":"Oblast de Briansk","name:right:cv":"\u0421\u043c\u0443\u043b\u0435\u043d \u043e\u0431\u043b\u0430\u00e7\u0115","name:left:hy":"\u0532\u0580\u0575\u0561\u0576\u057d\u056f\u056b \u0574\u0561\u0580\u0566","name:right:nl":"Oblast Smolensk","name:left:ja":"\u30d6\u30ea\u30e3\u30f3\u30b9\u30af\u5dde","id:right":-81996,"name:left:uk":"\u0411\u0440\u044f\u043d\u0441\u044c\u043a\u0430 \u043e\u0431\u043b\u0430\u0441\u0442\u044c","name:right:sh":"Smolenska oblast","name:left:nl":"Oblast Brjansk","name:left:ba":"\u0411\u0440\u044f\u043d\u0441\u043a \u04e9\u043b\u043a\u04d9\u04bb\u0435","name:left:be":"\u0411\u0440\u0430\u043d\u0441\u043a\u0430\u044f \u0432\u043e\u0431\u043b\u0430\u0441\u0446\u044c","name:left:hu":"Brjanszki ter\u00fclet","id":-81997,"name:right":"\u0421\u043c\u043e\u043b\u0435\u043d\u0441\u043a\u0430\u044f \u043e\u0431\u043b\u0430\u0441\u0442\u044c","name:left:en":"Bryansk Oblast","name:left:el":"\u03a0\u03b5\u03c1\u03b9\u03c6\u03ad\u03c1\u03b5\u03b9\u03b1 \u039c\u03c0\u03c1\u03b9\u03ac\u03bd\u03c3\u03ba","name:right:ca":"Prov\u00edncia de Smolensk","kind_detail":"4","name:right:ce":"\u0421\u043c\u043e\u043b\u0435\u043d\u0441\u043a\u0430\u043d \u043e\u0431\u043b\u0430\u0441\u0442\u044c","name:left:pl":"Obw\u00f3d bria\u0144ski","id:left":-81997,"name:left:es":"\u00d3blast de Briansk","name:right:cs":"Smolensk\u00e1 oblast","name:left:eu":"Briansk oblasta","name:left:et":"Brjanski oblast","name:right:ka":"\u10e1\u10db\u10dd\u10da\u10d4\u10dc\u10e1\u10d9\u10d8\u10e1 \u10dd\u10da\u10e5\u10d8","name:left:ar":"\u0623\u0648\u0628\u0644\u0627\u0633\u062a \u0628\u0631\u064a\u0627\u0646\u0633\u0643","name:right:tt":"\u0421\u043c\u043e\u043b\u0435\u043d\u0441\u043a \u04e9\u043b\u043a\u04d9\u0441\u0435","name:left:tr":"Bryansk Oblast\u0131","name:left:tt":"\u0411\u0440\u044f\u043d\u0441\u043a \u04e9\u043b\u043a\u04d9\u0441\u0435","name:left:az":"Bryansk vilay\u0259ti","name:right:tr":"Smolensk Oblast\u0131","name:right:kv":"\u0421\u043c\u043e\u043b\u0435\u043d\u0441\u043a \u043e\u0431\u043b\u0430\u0441\u044c\u0442","name:right:pl":"Obw\u00f3d smole\u0144ski","osm_relation":true,"name:right:de":"Oblast Smolensk","name:left:de":"Oblast Brjansk"},"arcs":[[4],[5]]},{"type":"MultiLineString","properties":{"name:right:hy":"\u053f\u0561\u056c\u0578\u0582\u0563\u0561\u0575\u056b \u0574\u0561\u0580\u0566","name:right:uk":"\u041a\u0430\u043b\u0443\u0437\u044c\u043a\u0430 \u043e\u0431\u043b\u0430\u0441\u0442\u044c","name:right:hu":"Kalugai ter\u00fclet","name:left:sr":"\u0411\u0440\u0458\u0430\u043d\u0441\u043a\u0430 \u043e\u0431\u043b\u0430\u0441\u0442","name:right:lt":"Kalugos sritis","min_zoom":8.0,"name:left:lt":"Briansko sritis","name:left:sh":"Brjanska oblast","name:left:lv":"Brjanskas apgabals","name:right:uz":"Kaluga viloyati","sort_rank":256,"name:left:ca":"Prov\u00edncia de Briansk","source":"openstreetmap.org","osm_relation":true,"name:right:az":"Kaluqa vilay\u0259ti","name:left:cs":"Brjansk\u00e1 oblast","name:left":"\u0411\u0440\u044f\u043d\u0441\u043a\u0430\u044f \u043e\u0431\u043b\u0430\u0441\u0442\u044c","name:right:es":"\u00d3blast de Kaluga","name:right:sr":"\u041a\u0430\u043b\u0443\u0448\u043a\u0430 \u043e\u0431\u043b\u0430\u0441\u0442","name:left:ka":"\u10d1\u10e0\u10d8\u10d0\u10dc\u10e1\u10d9\u10d8\u10e1 \u10dd\u10da\u10e5\u10d8","name:right:eu":"Kalugako oblasta","name:right:et":"Kaluga oblast","name:left:os":"\u0411\u0440\u044f\u043d\u0441\u0447\u044b \u043e\u0431\u043b\u00e6\u0441\u0442","name:left:ro":"Regiunea Briansk","name:left:kv":"\u0411\u0440\u044f\u043d\u0441\u043a \u043e\u0431\u043b\u0430\u0441\u044c\u0442","name:right:ro":"Regiunea Kaluga","name:right:en":"Kaluga Oblast","name:right:el":"\u03a0\u03b5\u03c1\u03b9\u03c6\u03ad\u03c1\u03b5\u03b9\u03b1 \u039a\u03b1\u03bb\u03bf\u03cd\u03b3\u03ba\u03b1","kind":"region","name":"\u0411\u0440\u044f\u043d\u0441\u043a\u0430\u044f \u043e\u0431\u043b\u0430\u0441\u0442\u044c - \u041a\u0430\u043b\u0443\u0436\u0441\u043a\u0430\u044f \u043e\u0431\u043b\u0430\u0441\u0442\u044c","name:right:lv":"Kalugas apgabals","name:right:be":"\u041a\u0430\u043b\u0443\u0436\u0441\u043a\u0430\u044f \u0432\u043e\u0431\u043b\u0430\u0441\u0446\u044c","name:left:zh":"\u5e03\u826f\u65af\u514b\u5dde","name:left:fr":"Oblast de Briansk","name:right:zh":"\u5361\u5362\u52a0\u5dde","name:right:cv":"\u041a\u0430\u043b\u0443\u0433\u0430 \u043e\u0431\u043b\u0430\u00e7\u0115","name:left:hy":"\u0532\u0580\u0575\u0561\u0576\u057d\u056f\u056b \u0574\u0561\u0580\u0566","name:right:nl":"Oblast Kaloega","name:right:ja":"\u30ab\u30eb\u30fc\u30ac\u5dde","name:right:fr":"Oblast de Kalouga","name:left:ja":"\u30d6\u30ea\u30e3\u30f3\u30b9\u30af\u5dde","id:right":-81995,"name:left:uk":"\u0411\u0440\u044f\u043d\u0441\u044c\u043a\u0430 \u043e\u0431\u043b\u0430\u0441\u0442\u044c","name:right:sh":"Kalu\u0161ka oblast","name:left:nl":"Oblast Brjansk","name:left:ba":"\u0411\u0440\u044f\u043d\u0441\u043a \u04e9\u043b\u043a\u04d9\u04bb\u0435","name:left:be":"\u0411\u0440\u0430\u043d\u0441\u043a\u0430\u044f \u0432\u043e\u0431\u043b\u0430\u0441\u0446\u044c","name:left:hu":"Brjanszki ter\u00fclet","id":-81997,"name:right":"\u041a\u0430\u043b\u0443\u0436\u0441\u043a\u0430\u044f \u043e\u0431\u043b\u0430\u0441\u0442\u044c","name:left:en":"Bryansk Oblast","name:left:el":"\u03a0\u03b5\u03c1\u03b9\u03c6\u03ad\u03c1\u03b5\u03b9\u03b1 \u039c\u03c0\u03c1\u03b9\u03ac\u03bd\u03c3\u03ba","name:right:ca":"Prov\u00edncia de Kaluga","kind_detail":"4","name:left:pl":"Obw\u00f3d bria\u0144ski","id:left":-81997,"name:left:es":"\u00d3blast de Briansk","name:right:cs":"Kalu\u017esk\u00e1 oblast","name:left:eu":"Briansk oblasta","name:left:et":"Brjanski oblast","name:right:ka":"\u10d9\u10d0\u10da\u10e3\u10d2\u10d8\u10e1 \u10dd\u10da\u10e5\u10d8","name:right:pt":"Oblast de Kaluga","name:left:ar":"\u0623\u0648\u0628\u0644\u0627\u0633\u062a \u0628\u0631\u064a\u0627\u0646\u0633\u0643","name:right:tt":"\u041a\u0430\u043b\u0443\u0433\u0430 \u04e9\u043b\u043a\u04d9\u0441\u0435","name:left:tr":"Bryansk Oblast\u0131","name:left:tt":"\u0411\u0440\u044f\u043d\u0441\u043a \u04e9\u043b\u043a\u04d9\u0441\u0435","name:left:az":"Bryansk vilay\u0259ti","name:right:tr":"Kaluga Oblast\u0131","name:right:kv":"\u041a\u0430\u043b\u0443\u0433\u0430 \u043e\u0431\u043b\u0430\u0441\u044c\u0442","name:right:tg":"\u0412\u0438\u043b\u043e\u044f\u0442\u0438 \u041a\u0430\u043b\u0443\u0433\u0430","name:right:pl":"Obw\u00f3d ka\u0142uski","name:right:os":"\u041a\u0430\u043b\u0443\u0433\u00e6\u0439\u044b \u043e\u0431\u043b\u00e6\u0441\u0442","name:right:de":"Oblast Kaluga","name:left:de":"Oblast Brjansk"},"arcs":[[6],[7]]},{"type":"MultiLineString","properties":{"old_name:right:en":"Mogilev Region","name:right:uk":"\u041c\u043e\u0433\u0438\u043b\u044c\u043e\u0432\u0441\u044c\u043a\u0430 \u043e\u0431\u043b\u0430\u0441\u0442\u044c","name:right:hu":"Mahiljovi ter\u00fclet","name:left:sr":"\u0411\u0440\u0458\u0430\u043d\u0441\u043a\u0430 \u043e\u0431\u043b\u0430\u0441\u0442","name:right:lt":"Mogiliovo sritis","min_zoom":8.0,"name:left:lt":"Briansko sritis","name:left:sh":"Brjanska oblast","name:left:lv":"Brjanskas apgabals","name:right:uz":"Mogilyov viloyati","old_name:right:fr":"Voblast de Moguilev","sort_rank":256,"name:left:ca":"Prov\u00edncia de Briansk","int_name:right":"Mahilio\u016dskaja voblas\u0107","source":"openstreetmap.org","name:right:az":"Mogilyov vilay\u0259ti","name:left:cs":"Brjansk\u00e1 oblast","name:left":"\u0411\u0440\u044f\u043d\u0441\u043a\u0430\u044f \u043e\u0431\u043b\u0430\u0441\u0442\u044c","name:left:ka":"\u10d1\u10e0\u10d8\u10d0\u10dc\u10e1\u10d9\u10d8\u10e1 \u10dd\u10da\u10e5\u10d8","name:left:os":"\u0411\u0440\u044f\u043d\u0441\u0447\u044b \u043e\u0431\u043b\u00e6\u0441\u0442","name:left:ro":"Regiunea Briansk","name:left:kv":"\u0411\u0440\u044f\u043d\u0441\u043a \u043e\u0431\u043b\u0430\u0441\u044c\u0442","name:right:ro":"Regiunea Moghil\u0103u","name:right:eo":"Mahilova regiono","name:right:en":"Mahilyow Voblasts","kind":"region","name":"\u0411\u0440\u044f\u043d\u0441\u043a\u0430\u044f \u043e\u0431\u043b\u0430\u0441\u0442\u044c - \u041c\u043e\u0433\u0438\u043b\u0451\u0432\u0441\u043a\u0430\u044f \u043e\u0431\u043b\u0430\u0441\u0442\u044c","name:right:sk":"Mahi\u013eovsk\u00e1 oblas\u0165","name:right:be":"\u041c\u0430\u0433\u0456\u043b\u0451\u045e\u0441\u043a\u0430\u044f \u0432\u043e\u0431\u043b\u0430\u0441\u0446\u044c","name:left:zh":"\u5e03\u826f\u65af\u514b\u5dde","name:left:fr":"Oblast de Briansk","name:left:hy":"\u0532\u0580\u0575\u0561\u0576\u057d\u056f\u056b \u0574\u0561\u0580\u0566","name:right:nl":"Oblast Mahiljow","name:right:fr":"Voblast de Mahiliow","name:left:ja":"\u30d6\u30ea\u30e3\u30f3\u30b9\u30af\u5dde","id:right":-59162,"name:left:uk":"\u0411\u0440\u044f\u043d\u0441\u044c\u043a\u0430 \u043e\u0431\u043b\u0430\u0441\u0442\u044c","name:left:nl":"Oblast Brjansk","name:left:ba":"\u0411\u0440\u044f\u043d\u0441\u043a \u04e9\u043b\u043a\u04d9\u04bb\u0435","name:left:be":"\u0411\u0440\u0430\u043d\u0441\u043a\u0430\u044f \u0432\u043e\u0431\u043b\u0430\u0441\u0446\u044c","name:left:hu":"Brjanszki ter\u00fclet","id":-81997,"name:right":"\u041c\u043e\u0433\u0438\u043b\u0451\u0432\u0441\u043a\u0430\u044f \u043e\u0431\u043b\u0430\u0441\u0442\u044c","name:left:en":"Bryansk Oblast","name:left:el":"\u03a0\u03b5\u03c1\u03b9\u03c6\u03ad\u03c1\u03b5\u03b9\u03b1 \u039c\u03c0\u03c1\u03b9\u03ac\u03bd\u03c3\u03ba","kind_detail":"4","id:left":-81997,"name:left:es":"\u00d3blast de Briansk","name:right:kk":"\u041c\u043e\u0433\u0438\u043b\u0435\u0432 \u043e\u0431\u043b\u044b\u0441\u044b","name:left:eu":"Briansk oblasta","name:left:et":"Brjanski oblast","name:right:ka":"\u10db\u10dd\u10d2\u10d8\u10da\u10d4\u10d5\u10d8\u10e1 \u10dd\u10da\u10e5\u10d8","name:right:pt":"Voblast de Mahilou","name:left:ar":"\u0623\u0648\u0628\u0644\u0627\u0633\u062a \u0628\u0631\u064a\u0627\u0646\u0633\u0643","name:left:pl":"Obw\u00f3d bria\u0144ski","name:left:tr":"Bryansk Oblast\u0131","name:left:tt":"\u0411\u0440\u044f\u043d\u0441\u043a \u04e9\u043b\u043a\u04d9\u0441\u0435","name:left:az":"Bryansk vilay\u0259ti","name:right:tr":"Mahilyov Voblast\u0131","name:right:ky":"\u041c\u043e\u0433\u0438\u043b\u0451\u0432 \u043e\u0431\u043b\u0430\u0441\u0442\u044b","name:right:pl":"obw\u00f3d mohylewski","osm_relation":true,"name:right:de":"Woblast Mahiljou","name:left:de":"Oblast Brjansk"},"arcs":[[8],[9]]},{"type":"LineString","properties":{"name:right:hy":"\u053f\u0561\u056c\u0578\u0582\u0563\u0561\u0575\u056b \u0574\u0561\u0580\u0566","name:right:uk":"\u041a\u0430\u043b\u0443\u0437\u044c\u043a\u0430 \u043e\u0431\u043b\u0430\u0441\u0442\u044c","name:right:hu":"Kalugai ter\u00fclet","name:left:sr":"\u0421\u043c\u043e\u043b\u0435\u043d\u0441\u043a\u0430 \u043e\u0431\u043b\u0430\u0441\u0442","name:right:lt":"Kalugos sritis","name:right:lv":"Kalugas apgabals","name:left:lt":"Smolensko sritis","name:left:sh":"Smolenska oblast","name:left:hu":"Szmolenszki ter\u00fclet","name:left:ce":"\u0421\u043c\u043e\u043b\u0435\u043d\u0441\u043a\u0430\u043d \u043e\u0431\u043b\u0430\u0441\u0442\u044c","name:left:ca":"Prov\u00edncia de Smolensk","source":"openstreetmap.org","osm_relation":true,"name:left:cv":"\u0421\u043c\u0443\u043b\u0435\u043d \u043e\u0431\u043b\u0430\u00e7\u0115","name:right:az":"Kaluqa vilay\u0259ti","name:left:cs":"Smolensk\u00e1 oblast","name:left":"\u0421\u043c\u043e\u043b\u0435\u043d\u0441\u043a\u0430\u044f \u043e\u0431\u043b\u0430\u0441\u0442\u044c","name:right:es":"\u00d3blast de Kaluga","name:left:ka":"\u10e1\u10db\u10dd\u10da\u10d4\u10dc\u10e1\u10d9\u10d8\u10e1 \u10dd\u10da\u10e5\u10d8","name:right:eu":"Kalugako oblasta","name:right:et":"Kaluga oblast","name:left:ro":"Regiunea Smolensk","name:left:kv":"\u0421\u043c\u043e\u043b\u0435\u043d\u0441\u043a \u043e\u0431\u043b\u0430\u0441\u044c\u0442","name:right:ro":"Regiunea Kaluga","name:right:en":"Kaluga Oblast","name:right:el":"\u03a0\u03b5\u03c1\u03b9\u03c6\u03ad\u03c1\u03b5\u03b9\u03b1 \u039a\u03b1\u03bb\u03bf\u03cd\u03b3\u03ba\u03b1","kind":"region","name":"\u0421\u043c\u043e\u043b\u0435\u043d\u0441\u043a\u0430\u044f \u043e\u0431\u043b\u0430\u0441\u0442\u044c - \u041a\u0430\u043b\u0443\u0436\u0441\u043a\u0430\u044f \u043e\u0431\u043b\u0430\u0441\u0442\u044c","min_zoom":8.0,"name:right:be":"\u041a\u0430\u043b\u0443\u0436\u0441\u043a\u0430\u044f \u0432\u043e\u0431\u043b\u0430\u0441\u0446\u044c","name:right:zh":"\u5361\u5362\u52a0\u5dde","name:right:cv":"\u041a\u0430\u043b\u0443\u0433\u0430 \u043e\u0431\u043b\u0430\u00e7\u0115","name:left:hy":"\u054d\u0574\u0578\u056c\u0565\u0576\u057d\u056f\u056b \u0574\u0561\u0580\u0566","name:left:uz":"Smolensk viloyati","name:right:nl":"Oblast Kaloega","name:right:ja":"\u30ab\u30eb\u30fc\u30ac\u5dde","name:right:fr":"Oblast de Kalouga","name:right:sr":"\u041a\u0430\u043b\u0443\u0448\u043a\u0430 \u043e\u0431\u043b\u0430\u0441\u0442","id:right":-81995,"name:left:uk":"\u0421\u043c\u043e\u043b\u0435\u043d\u0441\u044c\u043a\u0430 \u043e\u0431\u043b\u0430\u0441\u0442\u044c","name:right:sh":"Kalu\u0161ka oblast","name:left:nl":"Oblast Smolensk","name:left:bg":"\u0421\u043c\u043e\u043b\u0435\u043d\u0441\u043a\u0430 \u043e\u0431\u043b\u0430\u0441\u0442","name:left:be":"\u0421\u043c\u0430\u043b\u0435\u043d\u0441\u043a\u0430\u044f \u0432\u043e\u0431\u043b\u0430\u0441\u0446\u044c","name:right:uz":"Kaluga viloyati","id":-81996,"name:right":"\u041a\u0430\u043b\u0443\u0436\u0441\u043a\u0430\u044f \u043e\u0431\u043b\u0430\u0441\u0442\u044c","name:left:eo":"Smolenska provinco","name:left:en":"Smolensk Oblast","name:left:el":"\u03a0\u03b5\u03c1\u03b9\u03c6\u03ad\u03c1\u03b5\u03b9\u03b1 \u03a3\u03bc\u03bf\u03bb\u03ad\u03bd\u03c3\u03ba","name:right:ca":"Prov\u00edncia de Kaluga","kind_detail":"4","name:left:pl":"Obw\u00f3d smole\u0144ski","id:left":-81996,"name:right:cs":"Kalu\u017esk\u00e1 oblast","name:left:et":"Smolenski oblast","name:right:ka":"\u10d9\u10d0\u10da\u10e3\u10d2\u10d8\u10e1 \u10dd\u10da\u10e5\u10d8","name:right:pt":"Oblast de Kaluga","name:right:tt":"\u041a\u0430\u043b\u0443\u0433\u0430 \u04e9\u043b\u043a\u04d9\u0441\u0435","name:left:tr":"Smolensk Oblast\u0131","name:left:id":"Oblast Smolensk","name:left:tt":"\u0421\u043c\u043e\u043b\u0435\u043d\u0441\u043a \u04e9\u043b\u043a\u04d9\u0441\u0435","name:right:tr":"Kaluga Oblast\u0131","name:right:kv":"\u041a\u0430\u043b\u0443\u0433\u0430 \u043e\u0431\u043b\u0430\u0441\u044c\u0442","name:right:tg":"\u0412\u0438\u043b\u043e\u044f\u0442\u0438 \u041a\u0430\u043b\u0443\u0433\u0430","name:right:pl":"Obw\u00f3d ka\u0142uski","name:right:os":"\u041a\u0430\u043b\u0443\u0433\u00e6\u0439\u044b \u043e\u0431\u043b\u00e6\u0441\u0442","name:right:de":"Oblast Kaluga","name:left:de":"Oblast Smolensk","sort_rank":256},"arcs":[10]},{"type":"LineString","properties":{"name:left:uz":"Smolensk viloyati","name:right:nl":"Oblast Mahiljow","name:right:fr":"Voblast de Mahiliow","old_name:right:en":"Mogilev Region","name:right:uk":"\u041c\u043e\u0433\u0438\u043b\u044c\u043e\u0432\u0441\u044c\u043a\u0430 \u043e\u0431\u043b\u0430\u0441\u0442\u044c","name:right:hu":"Mahiljovi ter\u00fclet","id:right":-59162,"name:right:lt":"Mogiliovo sritis","min_zoom":8.0,"name:left:lt":"Smolensko sritis","name:left:sh":"Smolenska oblast","name:left:be":"\u0421\u043c\u0430\u043b\u0435\u043d\u0441\u043a\u0430\u044f \u0432\u043e\u0431\u043b\u0430\u0441\u0446\u044c","name:right:eo":"Mahilova regiono","name:left:hu":"Szmolenszki ter\u00fclet","id":-81996,"name:right":"\u041c\u043e\u0433\u0438\u043b\u0451\u0432\u0441\u043a\u0430\u044f \u043e\u0431\u043b\u0430\u0441\u0442\u044c","old_name:right:fr":"Voblast de Moguilev","name:left:eo":"Smolenska provinco","name:left:en":"Smolensk Oblast","name:left:el":"\u03a0\u03b5\u03c1\u03b9\u03c6\u03ad\u03c1\u03b5\u03b9\u03b1 \u03a3\u03bc\u03bf\u03bb\u03ad\u03bd\u03c3\u03ba","sort_rank":256,"kind_detail":"4","name:left:ca":"Prov\u00edncia de Smolensk","int_name:right":"Mahilio\u016dskaja voblas\u0107","source":"openstreetmap.org","name:left:nl":"Oblast Smolensk","id:left":-81996,"name:left:cv":"\u0421\u043c\u0443\u043b\u0435\u043d \u043e\u0431\u043b\u0430\u00e7\u0115","name:right:az":"Mogilyov vilay\u0259ti","name:left:cs":"Smolensk\u00e1 oblast","name:left":"\u0421\u043c\u043e\u043b\u0435\u043d\u0441\u043a\u0430\u044f \u043e\u0431\u043b\u0430\u0441\u0442\u044c","name:right:ka":"\u10db\u10dd\u10d2\u10d8\u10da\u10d4\u10d5\u10d8\u10e1 \u10dd\u10da\u10e5\u10d8","name:right:pt":"Voblast de Mahilou","name:right:pl":"obw\u00f3d mohylewski","name:left:pl":"Obw\u00f3d smole\u0144ski","name:right:kk":"\u041c\u043e\u0433\u0438\u043b\u0435\u0432 \u043e\u0431\u043b\u044b\u0441\u044b","name:left:id":"Oblast Smolensk","name:left:tt":"\u0421\u043c\u043e\u043b\u0435\u043d\u0441\u043a \u04e9\u043b\u043a\u04d9\u0441\u0435","name:left:ro":"Regiunea Smolensk","name:right:tr":"Mahilyov Voblast\u0131","name:left:kv":"\u0421\u043c\u043e\u043b\u0435\u043d\u0441\u043a \u043e\u0431\u043b\u0430\u0441\u044c\u0442","name:right:ro":"Regiunea Moghil\u0103u","name:right:ky":"\u041c\u043e\u0433\u0438\u043b\u0451\u0432 \u043e\u0431\u043b\u0430\u0441\u0442\u044b","name:left:sr":"\u0421\u043c\u043e\u043b\u0435\u043d\u0441\u043a\u0430 \u043e\u0431\u043b\u0430\u0441\u0442","name:right:uz":"Mogilyov viloyati","name:right:en":"Mahilyow Voblasts","osm_relation":true,"name:left:ka":"\u10e1\u10db\u10dd\u10da\u10d4\u10dc\u10e1\u10d9\u10d8\u10e1 \u10dd\u10da\u10e5\u10d8","name:left:uk":"\u0421\u043c\u043e\u043b\u0435\u043d\u0441\u044c\u043a\u0430 \u043e\u0431\u043b\u0430\u0441\u0442\u044c","kind":"region","name":"\u0421\u043c\u043e\u043b\u0435\u043d\u0441\u043a\u0430\u044f \u043e\u0431\u043b\u0430\u0441\u0442\u044c - \u041c\u043e\u0433\u0438\u043b\u0451\u0432\u0441\u043a\u0430\u044f \u043e\u0431\u043b\u0430\u0441\u0442\u044c","name:left:bg":"\u0421\u043c\u043e\u043b\u0435\u043d\u0441\u043a\u0430 \u043e\u0431\u043b\u0430\u0441\u0442","name:right:de":"Woblast Mahiljou","name:right:sk":"Mahi\u013eovsk\u00e1 oblas\u0165","name:right:be":"\u041c\u0430\u0433\u0456\u043b\u0451\u045e\u0441\u043a\u0430\u044f \u0432\u043e\u0431\u043b\u0430\u0441\u0446\u044c","name:left:de":"Oblast Smolensk","name:left:ce":"\u0421\u043c\u043e\u043b\u0435\u043d\u0441\u043a\u0430\u043d \u043e\u0431\u043b\u0430\u0441\u0442\u044c","name:left:tr":"Smolensk Oblast\u0131","name:left:et":"Smolenski oblast","name:left:hy":"\u054d\u0574\u0578\u056c\u0565\u0576\u057d\u056f\u056b \u0574\u0561\u0580\u0566"},"arcs":[11]}]},"roads":{"type":"GeometryCollection","geometries":[{"type":"LineString","properties":{"kind":"major_road","int_name":"Lieninskaja vulica","sort_rank":380,"kind_detail":"primary","source":"openstreetmap.org","min_zoom":8.0,"landuse_kind":"residential","name:be":"\u041b\u0435\u043d\u0456\u043d\u0441\u043a\u0430\u044f \u0432\u0443\u043b\u0456\u0446\u0430","ref":"\u0420139","id":469532921},"arcs":[14]},{"type":"LineString","properties":{"kind":"major_road","network":"ru:national","sort_rank":381,"kind_detail":"trunk","bus_network":null,"source":"openstreetmap.org","min_zoom":8.0,"bus_shield_text":"504","shield_text":"120","ref":"\u0420-120","id":241519107},"arcs":[15]},{"type":"LineString","properties":{"kind":"major_road","int_name":"Lieninskaja vulica","network":"by:national","sort_rank":380,"kind_detail":"primary","source":"openstreetmap.org","min_zoom":8.0,"landuse_kind":"residential","shield_text":"74","name:be":"\u041b\u0435\u043d\u0456\u043d\u0441\u043a\u0430\u044f \u0432\u0443\u043b\u0456\u0446\u0430","ref":"\u042074","id":374357033},"arcs":[16]},{"type":"MultiLineString","properties":{"bus_network":null,"network":"ru:national","sort_rank":380,"kind_detail":"primary","kind":"major_road","source":"openstreetmap.org","min_zoom":8.0,"bus_shield_text":"212","shield_text":"120","landuse_kind":"urban_area","ref":"\u0420-120"},"arcs":[[17],[18]]},{"type":"LineString","properties":{"kind":"major_road","int_name":"Nabiare\u017enaja vulica","sort_rank":380,"kind_detail":"primary","source":"openstreetmap.org","min_zoom":8.0,"landuse_kind":"residential","name:be":"\u041d\u0430\u0431\u044f\u0440\u044d\u0436\u043d\u0430\u044f \u0432\u0443\u043b\u0456\u0446\u0430","ref":"\u0420139","id":80194115},"arcs":[19]},{"type":"LineString","properties":{"kind":"major_road","network":"by:national","sort_rank":380,"kind_detail":"primary","source":"openstreetmap.org","min_zoom":8.0,"shield_text":"74","ref":"\u042074"},"arcs":[20]},{"type":"LineString","properties":{"kind":"major_road","network":"ru:national","sort_rank":381,"kind_detail":"trunk","source":"openstreetmap.org","min_zoom":8.0,"landuse_kind":"aerodrome","shield_text":"120","ref":"\u0420-120","id":73188102},"arcs":[21]},{"type":"MultiLineString","properties":{"sort_rank":381,"source":"openstreetmap.org","min_zoom":8.0,"kind":"major_road","kind_detail":"trunk"},"arcs":[[22],[23]]},{"type":"MultiLineString","properties":{"kind":"major_road","network":"ru:national","sort_rank":381,"kind_detail":"trunk","source":"openstreetmap.org","min_zoom":8.0,"shield_text":"130","ref":"\u0410-130"},"arcs":[[24],[25],[26],[27],[28]]},{"type":"MultiLineString","properties":{"source":"openstreetmap.org","kind":"major_road","landuse_kind":"urban_area","sort_rank":380,"kind_detail":"primary","min_zoom":8.0},"arcs":[[29],[30],[31],[32]]},{"type":"MultiLineString","properties":{"kind":"major_road","network":"ru:national","sort_rank":381,"kind_detail":"trunk","source":"openstreetmap.org","min_zoom":8.0,"shield_text":"120","ref":"\u0420-120"},"arcs":[[33],[34],[35]]},{"type":"LineString","properties":{"kind":"major_road","sort_rank":380,"kind_detail":"primary","bus_network":null,"source":"openstreetmap.org","min_zoom":8.0,"bus_shield_text":"212","id":10616354},"arcs":[36]},{"type":"LineString","properties":{"kind":"major_road","int_name":"Nabiare\u017enaja vulica","sort_rank":380,"kind_detail":"primary","source":"openstreetmap.org","min_zoom":8.0,"name:be":"\u041d\u0430\u0431\u044f\u0440\u044d\u0436\u043d\u0430\u044f \u0432\u0443\u043b\u0456\u0446\u0430","ref":"\u0420139","id":80194115},"arcs":[37]},{"type":"LineString","properties":{"kind":"major_road","sort_rank":381,"kind_detail":"trunk","bus_network":null,"source":"openstreetmap.org","min_zoom":8.0,"bus_shield_text":"212","id":79590115},"arcs":[38]},{"type":"LineString","properties":{"kind":"major_road","network":"ru:regional","sort_rank":380,"kind_detail":"primary","source":"openstreetmap.org","min_zoom":8.0,"shield_text":"66\u041a","ref":"66\u041a-16"},"arcs":[39]},{"type":"MultiLineString","properties":{"bus_network":null,"sort_rank":380,"kind_detail":"primary","kind":"major_road","source":"openstreetmap.org","min_zoom":8.0,"bus_shield_text":"212","landuse_kind":"urban_area"},"arcs":[[40],[41]]},{"type":"MultiLineString","properties":{"kind":"major_road","network":"ru:national","sort_rank":380,"kind_detail":"primary","source":"openstreetmap.org","min_zoom":8.0,"landuse_kind":"urban_area","shield_text":"120","ref":"\u0420-120"},"arcs":[[42],[43],[44],[45],[46],[47]]},{"type":"LineString","properties":{"kind":"major_road","network":"by:national","sort_rank":380,"kind_detail":"primary","source":"openstreetmap.org","min_zoom":8.0,"landuse_kind":"residential","shield_text":"74","ref":"\u042074"},"arcs":[48]},{"type":"MultiLineString","properties":{"sort_rank":380,"kind_detail":"primary","min_zoom":8.0,"kind":"major_road","source":"openstreetmap.org"},"arcs":[[49],[50],[51]]},{"type":"LineString","properties":{"kind":"major_road","network":"ru:national","sort_rank":381,"kind_detail":"trunk","bus_network":null,"source":"openstreetmap.org","min_zoom":8.0,"bus_shield_text":"504","shield_text":"120","ref":"P-120","id":456012327},"arcs":[52]},{"type":"LineString","properties":{"kind":"major_road","sort_rank":380,"landuse_kind":"residential","source":"openstreetmap.org","min_zoom":8.0,"kind_detail":"primary","ref":"\u0420139","id":214146115},"arcs":[53]},{"type":"MultiLineString","properties":{"kind":"major_road","network":"ru:national","sort_rank":380,"kind_detail":"primary","source":"openstreetmap.org","min_zoom":8.0,"shield_text":"120","ref":"\u0420-120"},"arcs":[[54],[55]]},{"type":"LineString","properties":{"kind":"major_road","network":"ru:national","sort_rank":381,"kind_detail":"trunk","source":"openstreetmap.org","min_zoom":8.0,"shield_text":"130","ref":"A-130","id":456226732},"arcs":[56]},{"type":"LineString","properties":{"kind":"major_road","int_name":"Pralietarskaja vulica","sort_rank":380,"kind_detail":"primary","source":"openstreetmap.org","min_zoom":8.0,"landuse_kind":"residential","name:be":"\u041f\u0440\u0430\u043b\u0435\u0442\u0430\u0440\u0441\u043a\u0430\u044f \u0432\u0443\u043b\u0456\u0446\u0430","ref":"\u0420139"},"arcs":[57]},{"type":"LineString","properties":{"kind":"major_road","network":"ru:national","sort_rank":381,"kind_detail":"trunk","bus_network":null,"source":"openstreetmap.org","min_zoom":8.0,"bus_shield_text":"506","shield_text":"120","ref":"\u0420-120","id":263171623},"arcs":[58]},{"type":"LineString","properties":{"kind":"major_road","network":"ru:national","sort_rank":381,"kind_detail":"trunk","source":"openstreetmap.org","min_zoom":8.0,"shield_text":"120","ref":"P-120","id":456012326},"arcs":[59]},{"type":"LineString","properties":{"kind":"major_road","int_name":"Lieninskaja vulica","network":"by:national","sort_rank":380,"kind_detail":"primary","source":"openstreetmap.org","min_zoom":8.0,"landuse_kind":"residential","shield_text":"74","name:be":"\u041b\u0435\u043d\u0456\u043d\u0441\u043a\u0430\u044f \u0432\u0443\u043b\u0456\u0446\u0430","ref":"\u0420139"},"arcs":[60]},{"type":"MultiLineString","properties":{"source":"openstreetmap.org","kind":"major_road","sort_rank":380,"kind_detail":"primary","ref":"\u0420139","min_zoom":8.0},"arcs":[[61],[62]]},{"type":"LineString","properties":{"kind":"major_road","network":"ru:national","sort_rank":381,"kind_detail":"trunk","bus_network":null,"source":"openstreetmap.org","min_zoom":8.0,"bus_shield_text":"212","shield_text":"130","ref":"A-130","id":456226734},"arcs":[63]}]},"earth":{"type":"GeometryCollection","geometries":[{"type":"Polygon","properties":{"sort_rank":10,"source":"naturalearthdata.com","min_zoom":0.0,"kind":"earth","area":98022885885},"arcs":[[64]]}]},"landuse":{"type":"GeometryCollection","geometries":[{"type":"MultiPolygon","properties":{"source":"naturalearthdata.com","kind":"urban_area","name":"","area":363035967,"sort_rank":11,"min_zoom":4.0},"arcs":[[[65]],[[66]]]},{"type":"MultiPolygon","properties":{"kind":"nature_reserve","protect_class":"7","area":1356058223,"sort_rank":23,"source":"openstreetmap.org","min_zoom":6.0,"tier":2,"osm_relation":true},"arcs":[[[67]],[[68]]]},{"type":"Polygon","properties":{"source":"openstreetmap.org","kind":"aerodrome","area":17137800,"tier":3,"id":252256864,"min_zoom":8.0,"sort_rank":60},"arcs":[[69]]},{"type":"MultiPolygon","properties":{"source":"openstreetmap.org","kind":"residential","tier":2,"area":137821168,"sort_rank":20,"min_zoom":8.0},"arcs":[[[70]]]}]}},"type":"Topology","transform":{"translate":[32.34375,53.330872983],"scale":[0.0003433228,0.0002030178]},"arcs":[[[779,0],[-3,14],[19,33],[28,-47]],[[845,0],[83,8],[68,46],[25,-51],[114,5],[17,77],[-47,128],[55,65],[-9,43],[48,5],[-45,56],[-2,70],[31,21],[14,-22],[24,9],[-41,103],[24,64],[-213,22],[-82,36],[13,44],[78,12],[-96,68],[-21,44],[-25,-8],[-4,-80],[-35,-55],[-60,19],[16,62],[-19,9],[0,96],[-44,26],[-134,-6],[26,51],[-71,38],[-24,42],[-118,27],[11,91],[-66,38],[-48,91],[-37,21],[-12,47],[36,34],[6,81],[28,33],[-52,72],[0,-104],[-40,20],[-9,148],[31,-3],[4,31],[29,9],[51,-22],[51,51],[78,13],[0,127],[-52,60],[-54,10],[-5,82],[-110,-43],[-81,4],[-76,-61],[-32,16],[-5,91],[-37,56],[0,1]],[[2472,2316],[77,-44],[-22,-59],[55,-146],[-16,-33],[30,-27],[-149,-60],[-125,-2],[-55,-47],[20,-44],[-29,-38],[-15,26],[-154,-102],[26,-77],[41,0],[-6,-24],[-106,-10],[-23,19],[18,-72],[-57,-44],[-33,-108],[-112,-8],[-64,-62],[-3,-87],[-97,-11],[-68,-131],[56,-82],[-12,-33],[32,9],[-13,17],[49,62],[38,-60],[-46,-38],[-60,4],[-43,-51],[-47,15],[-37,-41],[2,-128],[70,31],[49,-20],[-51,-36],[-25,13],[-36,-48],[-1,-36],[36,-11],[-52,3],[60,-29],[17,21],[38,-41],[-59,-54],[18,-34],[-21,-43],[-81,-35],[-186,52],[27,-63],[-85,-86],[-21,77]],[[2620,2316],[-29,-25],[-25,25]],[[2566,2316],[-4,19],[-73,14],[-17,-33]],[[3389,3376],[-41,-42],[-176,-30],[31,-50],[-36,-12],[58,-69],[-61,-7],[-62,-135],[-75,-53],[-49,17],[-26,-45],[-37,-10],[-11,83],[-51,23],[-61,-43],[-59,0],[-19,-60],[82,-81],[-42,-32],[-7,-43],[-111,-28],[-5,-52],[19,-11],[-23,-40],[75,-29],[-40,-41],[16,-61],[77,3],[-4,-58],[43,-28],[-56,-95],[-118,-31]],[[4096,3297],[-28,59],[-69,53],[-164,19],[-96,-33],[-27,45],[-17,-37],[-40,-5],[0,43],[-28,23],[-29,-10],[10,-29],[-32,-31],[-130,-48],[17,-14],[-34,-45],[-40,89]],[[4096,3284],[0,7]],[[1221,460],[-24,-9],[-14,22],[-31,-21],[2,-70],[45,-56],[-48,-5],[9,-43],[-55,-65],[47,-128],[-17,-77],[-114,-5],[-25,51],[-68,-46],[-83,-8]],[[823,0],[-28,47],[-19,-33],[3,-14]],[[3389,3376],[8,39],[-43,9],[-7,37],[-98,-33],[-2,5],[37,33],[85,10],[-26,108],[-35,2],[-49,-46],[-60,17],[-1,20],[35,15],[-3,102],[49,25],[2,56],[43,4],[63,-61],[16,39],[34,-23],[101,64],[13,21],[-104,-17],[-10,52],[37,35],[106,17],[-40,115],[17,75]],[[0,2068],[0,-1],[37,-56],[5,-91],[32,-16],[76,61],[81,-4],[110,43],[5,-82],[54,-10],[52,-60],[6,-98],[-6,-29],[-78,-13],[-51,-51],[-51,22],[-29,-9],[-4,-31],[-31,3],[9,-148],[40,-20],[0,104],[52,-72],[-28,-33],[-6,-81],[-36,-34],[12,-47],[37,-21],[48,-91],[66,-38],[-11,-91],[118,-27],[24,-42],[71,-38],[-26,-51],[134,6],[44,-26],[0,-96],[19,-9],[-16,-62],[60,-19],[35,55],[4,80],[25,8],[21,-44],[96,-68],[-78,-12],[-13,-44],[82,-36],[213,-22],[-24,-64],[41,-103]],[[4096,3173],[-147,-98],[-151,-58],[-168,59],[-191,-96],[-297,58],[-501,-26],[-90,31],[-76,-18],[-66,-49],[-214,-21],[-264,-96],[-166,36],[-220,175]],[[936,4096],[362,-689],[140,-198],[20,-73],[144,-103],[365,-401],[156,-83],[131,-120],[57,-15],[97,-101],[635,-435],[150,-80],[259,-56],[376,-262],[55,-92],[-20,-100],[55,-130],[75,-41],[61,-278],[42,-40]],[[663,371],[1,0]],[[947,4094],[84,-161]],[[608,365],[55,6]],[[1517,3073],[-2,-5]],[[1517,3066],[3,6]],[[630,428],[33,-57]],[[0,192],[257,17],[350,156]],[[2902,1958],[67,-32]],[[1615,2924],[-245,-81],[-51,5],[-59,69]],[[1595,2933],[18,-5]],[[1250,2941],[-5,-27]],[[2073,3506],[-375,-256],[-81,30],[-184,-59],[-75,-65],[-31,-119],[-74,-73],[7,-47]],[[1697,3244],[4,8]],[[2073,3506],[36,18]],[[3235,4096],[-1126,-572]],[[1491,3035],[1,-1]],[[1497,3040],[65,-57]],[[1594,3176],[-67,-87]],[[1585,3172],[-4,12]],[[1402,3218],[9,-19]],[[1613,2928],[31,-94],[146,-201],[195,-216],[409,-256],[508,-203]],[[2969,1926],[123,-113],[75,-198],[61,-66],[-12,-120],[252,-408],[483,-612],[29,-72],[116,-91]],[[1262,2923],[150,83]],[[611,459],[19,-31]],[[1262,2923],[-3,-2]],[[1583,3271],[21,78],[68,80],[26,111],[83,71],[60,95],[5,102],[233,288]],[[1412,3006],[103,60]],[[1527,3089],[-7,-15]],[[1430,3161],[82,-88]],[[1515,3068],[2,-2]],[[1520,3072],[-3,1]],[[1521,3064],[4,1]],[[1525,3065],[-1,2]],[[1525,3065],[74,-51]],[[607,365],[1,0]],[[1562,2983],[48,-42]],[[1581,3184],[2,87]],[[1698,3250],[-104,-74]],[[1079,3840],[-48,93]],[[705,324],[0,-1]],[[1411,3199],[19,-38]],[[1599,3014],[14,-86]],[[296,2424],[-296,-156]],[[686,382],[19,-58]],[[946,4096],[1,-2]],[[1079,3840],[323,-622]],[[664,371],[22,11]],[[0,847],[37,2],[409,-100],[119,-84],[42,-74],[4,-132]],[[705,323],[63,-177],[-45,-71],[14,-74],[-1,-1]],[[296,2424],[470,221],[93,78],[400,198]],[[4096,2285],[0,-2285],[-4096,0],[0,4096],[4096,0],[0,-1811]],[[1449,3142],[137,44],[45,-52],[-18,-107],[-140,-121],[-37,9],[-38,143],[-27,22],[33,109],[45,-47]],[[2828,4010],[-162,0],[-16,45],[-70,41],[247,0],[1,-86]],[[1127,1648],[28,45],[42,-12],[8,84],[-32,148],[62,135],[56,51],[89,205],[81,-83],[8,-66],[60,6],[159,-70],[287,-23],[-4,-160],[22,-65],[95,-96],[27,-84],[44,-11],[-73,-24],[-65,20],[18,-72],[-57,-44],[-33,-107],[-112,-9],[-109,-102],[-48,46],[-17,114],[-52,79],[-468,63],[-16,32]],[[0,2533],[0,517],[2,-1],[80,-90],[144,-24],[69,-51],[-57,-295],[-140,-53],[-98,-3]],[[2815,1899],[106,73],[78,-74],[-30,-12],[13,-15],[-6,-11],[-69,-19],[-92,58]],[[603,460],[55,-66],[-24,53],[33,-36],[25,46],[42,-4],[-14,-25],[52,-17],[8,-55],[-82,0],[29,-18],[-31,-21],[-23,55],[3,-40],[-56,-10],[18,19],[-31,23],[19,32],[-23,64]]]}