{"objects":{"water":{"type":"GeometryCollection","geometries":[]},"buildings":{"type":"GeometryCollection","geometries":[]},"places":{"type":"GeometryCollection","geometries":[{"type":"Point","properties":{"name:ja":"\u30d6\u30ea\u30e3\u30f3\u30b9\u30af\u5dde","name:lt":"Brjanskas apgabals","name:eo":"Brjanska Provinco","name:tt":"\u0411\u0440\u044f\u043d\u0441\u043a \u04e9\u043b\u043a\u04d9\u0441\u0435","min_zoom":4.0,"name:uk":"\u0411\u0440\u044f\u043d\u0441\u044c\u043a\u0430 \u043e\u0431\u043b\u0430\u0441\u0442\u044c","name:be":"\u0411\u0440\u0430\u043d\u0441\u043a\u0430\u044f \u0432\u043e\u0431\u043b\u0430\u0441\u0446\u044c","name:pl":"Obw\u00f3d bria\u0144ski","id":778569127,"kind":"region","name:en":"Bryansk Oblast","name":"\u0411\u0440\u044f\u043d\u0441\u043a\u0430\u044f \u043e\u0431\u043b\u0430\u0441\u0442\u044c","kind_detail":"state","name:de":"Oblast Brjansk","source":"openstreetmap.org","name:fr":"Oblast de Briansk","name:es":"\u00d3blast de Briansk"},"coordinates":[3123,1954]},{"type":"Point","properties":{"kind":"locality","name:en":"Unecha","name":"\u0423\u043d\u0435\u0447\u0430","name:lt":"Une\u010da","kind_detail":"town","name:de":"Unetscha","source":"openstreetmap.org","min_zoom":8.0,"name:pl":"Unecza","id":60078390,"population":24639},"coordinates":[999,1750]},{"type":"Point","properties":{"kind":"locality","name":"\u0421\u0442\u0430\u0440\u043e\u0434\u0443\u0431","name:lt":"Starodubas","kind_detail":"town","name:de":"Starodub","source":"openstreetmap.org","min_zoom":8.0,"name:pl":"Starodub","id":60078302,"population":18868},"coordinates":[1213,491]},{"type":"Point","properties":{"kind":"locality","int_name":"Pochep","name":"\u041f\u043e\u0447\u0435\u043f","kind_detail":"town","source":"openstreetmap.org","min_zoom":8.0,"name:pl":"Poczep","id":1592488757,"population":16681},"coordinates":[3235,2154]},{"type":"Point","properties":{"kind":"locality","name:en":"Surazh","name":"\u0421\u0443\u0440\u0430\u0436","name:lt":"Sura\u017eas","kind_detail":"town","name:de":"Surasch","source":"openstreetmap.org","min_zoom":8.0,"name:pl":"Sura\u017c","id":140560218,"population":10979},"coordinates":[144,2562]},{"type":"Point","properties":{"kind":"locality","name:en":"Pogar","name":"\u041f\u043e\u0433\u0430\u0440","kind_detail":"town","name:de":"Pogar","source":"openstreetmap.org","min_zoom":8.0,"name:pl":"Pogar","id":97816108,"population":8950},"coordinates":[2680,345]},{"type":"Point","properties":{"kind":"locality","name:en":"Mglin","name":"\u041c\u0433\u043b\u0438\u043d","kind_detail":"town","name:de":"Mglin","source":"openstreetmap.org","min_zoom":8.0,"name:pl":"Mglin","id":60699035,"population":8052},"coordinates":[1483,2778]}]},"transit":{"type":"GeometryCollection","geometries":[{"type":"LineString","properties":{"source":"openstreetmap.org","kind":"train","name":"\u0411\u0440\u044f\u043d\u0441\u043a - \u0413\u043e\u043c\u0435\u043b\u044c","sort_rank":275,"min_zoom":6.0,"osm_relation":true},"arcs":[6]},{"type":"LineString","properties":{"source":"openstreetmap.org","kind":"train","name":"\u0411\u0440\u0435\u0441\u0442 - \u0413\u043e\u043c\u0435\u043b\u044c - \u041c\u043e\u0441\u043a\u0432\u0430","sort_rank":275,"min_zoom":6.0,"osm_relation":true},"arcs":[7]},{"type":"LineString","properties":{"kind":"train","name":"\u041c\u043e\u0441\u043a\u0432\u0430 \u2014 \u041a\u043b\u0438\u043c\u043e\u0432","sort_rank":275,"source":"openstreetmap.org","min_zoom":6.0,"operator":"\u0420\u0416\u0414","ref":"\u041c\u043e\u0441\u043a\u0432\u0430 - \u041a\u043b\u0438\u043c\u043e\u0432","osm_relation":true,"network":"train"},"arcs":[8]},{"type":"LineString","properties":{"source":"openstreetmap.org","kind":"train","name":"\u041a\u0440\u0438\u0447\u0435\u0432 - \u0423\u043d\u0435\u0447\u0430","sort_rank":275,"min_zoom":6.0,"osm_relation":true},"arcs":[9]},{"type":"LineString","properties":{"source":"openstreetmap.org","kind":"train","name":"\u0411\u0440\u044f\u043d\u0441\u043a-\u041e\u0440\u043b\u043e\u0432\u0441\u043a\u0438\u0439 - \u0423\u043d\u0435\u0447\u0430 - \u041d\u043e\u0432\u043e\u0437\u044b\u0431\u043a\u043e\u0432","sort_rank":275,"ref":"\u0411\u0440\u044f\u043d\u0441\u043a-\u041e\u0440\u043b\u043e\u0432\u0441\u043a\u0438\u0439 - \u0423\u043d\u0435\u0447\u0430 - \u041d\u043e\u0432\u043e\u0437\u044b\u0431\u043a\u043e\u0432","min_zoom":6.0,"osm_relation":true},"arcs":[10]}]},"pois":{"type":"GeometryCollection","geometries":[{"type":"Point","properties":{"kind":"nature_reserve","name":"\u041f\u0440\u0438\u0440\u043e\u0434\u043d\u044b\u0439 \u0437\u0430\u043a\u0430\u0437\u043d\u0438\u043a \"\u041a\u043b\u0435\u0442\u043d\u044f\u043d\u0441\u043a\u0438\u0439\"","area":1135290000,"name:de":"Naturschutzgebiet \u201eKletnjanskoje\u201c","source":"openstreetmap.org","min_zoom":7.22,"tier":2,"id":-6981801,"osm_relation":true},"coordinates":[1678,3566]},{"type":"Point","properties":{"kind":"nature_reserve","protect_class":"3","area":212714000,"source":"openstreetmap.org","min_zoom":8.42,"tier":2,"id":474801083,"name":"\u041f\u0430\u043c\u044f\u0442\u043d\u0438\u043a \u043f\u0440\u0438\u0440\u043e\u0434\u044b \"\u041a\u043b\u0435\u0442\u043d\u044f\u043d\u0441\u043a\u0438\u0439 \u043f\u0430\u0440\u0442\u0438\u0437\u0430\u043d\u0441\u043a\u0438\u0439 \u043b\u0435\u0441\""},"coordinates":[1938,3718]}]},"boundaries":{"type":"GeometryCollection","geometries":[{"type":"MultiLineString","properties":{"name:kg":"Belarusia","name:ty":"Belarus","name:ka":"\u10d1\u10d4\u10da\u10d0\u10e0\u10e3\u10e1\u10d8","name:ko":"\ubca8\ub77c\ub8e8\uc2a4","name:cv":"\u0411\u0435\u043b\u0430\u0440\u0443\u00e7","name:cu":"\u0411\u0463\u043b\u0430 \u0420\u043e\u0443\u0441\u044c","name:kl":"Hvideruslandi","name:cs":"B\u011blorusko","name:tt":"\u0411\u0435\u043b\u0430\u0440\u0443\u0441\u0438\u044f","name:co":"Bielorussia","name:tk":"Belorussi\u00fda","name:ku":"Belar\u00fbs","name:tl":"Biyelorusya","name:ce":"\u0411\u0435\u043b\u043e\u0440\u0443\u0441\u0441\u0438","name:ta":"\u0baa\u0bc6\u0bb2\u0bb0\u0bc1\u0bb8\u0bcd","name:tg":"\u0411\u0435\u043b\u0430\u0440\u0443\u0441","name:ca":"Bielor\u00fassia","name:te":"\u0c2c\u0c46\u0c32\u0c3e\u0c30\u0c38\u0c4d","name:cy":"Belarws","name:hr":"Bjelorusija","name:da":"Hviderusland","name:de":"Wei\u00dfrussland","name:dz":"\u0f56\u0f7a\u0f0b\u0f63\u0f0b\u0f62\u0f74\u0f0b\u0f66\u0f74\u0f0d","source":"openstreetmap.org","name:kn":"\u0cac\u0cc6\u0cb2\u0cbe\u0cb0\u0cc1\u0cb8\u0ccd","name:dv":"\u0784\u07ac\u078d\u07a6\u0783\u07ab\u0790\u07b0","name:lv":"Baltkrievija","name:lt":"Baltarusija","name:uz":"Belarus","name:ur":"\u0628\u06cc\u0644\u0627\u0631\u0648\u0633","name:lb":"W\u00e4issrussland","name:la":"Ruthenia Alba","name:uk":"\u0411\u0456\u043b\u043e\u0440\u0443\u0441\u044c","name:ug":"\u0628\u06d0\u0644\u0648\u0631\u06c7\u0633\u0633\u0649\u064a\u06d5","name:li":"Wit-Rusland","name:ln":"Bielorusia","name:el":"\u039b\u03b5\u03c5\u03ba\u03bf\u03c1\u03c9\u03c3\u03af\u03b1","name:eo":"Belorusujo","name:en":"Belarus","name":"\u0411\u0435\u043b\u0430\u0440\u0443\u0441\u044c","name:ee":"Belarus","name:th":"\u0e1b\u0e23\u0e30\u0e40\u0e17\u0e28\u0e40\u0e1a\u0e25\u0e32\u0e23\u0e38\u0e2a","name:eu":"Bielorrusia","name:et":"Valgevene","name:es":"Bielorrusia","name:ia":"Bielorussia","name:rm":"Bielorussia","name:az":"Belarus","name:ie":"Bielorussia","name:id":"Belarus","name:ar":"\u0631\u0648\u0633\u064a\u0627 \u0627\u0644\u0628\u064a\u0636\u0627\u0621","name:io":"Bielorusia","name:is":"Hv\u00edta-R\u00fassland","name:it":"Bielorussia","name:rw":"Belarusi","name:af":"Wit-Rusland","name:zu":"IBelarusi","kind_detail":"2","name:ky":"\u0411\u0435\u043b\u0430\u0440\u0443\u0441\u0438\u044f","name:zh-yue":"\u767d\u4fc4\u7f85\u65af","name:zh":"\u767d\u4fc4\u7f57\u65af","name:so":"Belarus","name:sl":"Belorusija","name:sk":"Bielorusko","name:ja":"\u30d9\u30e9\u30eb\u30fc\u30b7","name:si":"\u0db6\u0dd9\u0dbd\u0dcf\u0dbb\u0dc3\u0dca","name:sh":"Belorusija","name:se":"Vilges-Ruo\u0161\u0161a","name:sa":"\u092c\u0947\u0932\u093e\u0930\u0942\u0938","name:bs":"Bjelorusija","name:bn":"\u09ac\u09c7\u09b2\u09be\u09b0\u09c1\u09b6","name:bo":"\u0f56\u0fb7\u0f7a\u0f0b\u0f63\u0f0b\u0f62\u0f66\u0f74\u0f0d","name:br":"Belarus","name:sw":"Belarus","name:sv":"Vitryssland","name:su":"B\u00e9larus","name:bg":"\u0411\u0435\u043b\u0430\u0440\u0443\u0441","name:ss":"IBhelalasi","name:sr":"\u0411\u0435\u043b\u043e\u0440\u0443\u0441\u0438\u0458\u0430","name:sq":"Bjellorusia","name:jv":"B\u00e9larus","name:bi":"Belarus","name:pt":"Bielorr\u00fassia","name:ps":"\u0628\u06d0\u0644\u0627\u0631\u0648\u0633","name:oc":"Bielorussia","min_zoom":8.0,"name:ro":"Belarus","name:zh-min-nan":"Belarus","name:os":"\u0411\u0435\u043b\u043e\u0440\u0443\u0441\u0441\u0438","name:or":"\u0b2c\u0b47\u0b32\u0b3e\u0b0b\u0b37","name:pl":"Bia\u0142oru\u015b","sort_rank":262,"osm_relation":true,"name:tr":"Beyaz Rusya","name:hi":"\u092c\u0947\u0932\u093e\u0930\u0942\u0938","name:he":"\u05d1\u05dc\u05d0\u05e8\u05d5\u05e1","old_name:eo":"Bjelorusio;Bjelorusujo","name:hy":"\u0532\u0565\u056c\u0561\u057c\u0578\u0582\u057d","name:ht":"Byelorisi","name:hu":"Feh\u00e9roroszorsz\u00e1g","name:qu":"Bilarus","kind":"country","name:ts":"Belarus","name:yi":"\u05d1\u05e2\u05dc\u05d0\u05e8\u05d5\u05e1","name:yo":"B\u1eb9\u0300l\u00e1r\u00f9s","name:mt":"Belarus","alt_name:eo":"Belorusio","name:ms":"Belarus","name:mr":"\u092c\u0947\u0932\u093e\u0930\u0942\u0938","name:my":"\u1018\u102e\u101c\u102c\u101b\u102f\u1007\u103a\u1014\u102d\u102f\u1004\u103a\u1004\u1036","official_name":"\u0420\u044d\u0441\u043f\u0443\u0431\u043b\u0456\u043a\u0430 \u0411\u0435\u043b\u0430\u0440\u0443\u0441\u044c","name:kw":"Belarussi","name:ml":"\u0d2c\u0d46\u0d32\u0d3e\u0d31\u0d41\u0d38\u0d4d","name:vi":"Belarus","name:mi":"P\u0113rara","id":-59065,"name:mk":"\u0411\u0435\u043b\u043e\u0440\u0443\u0441\u0438\u0458\u0430","name:vo":"Belarus\u00e4n","name:fa":"\u0628\u0644\u0627\u0631\u0648\u0633","name:ff":"Belaruusiya","name:fi":"Valko-Ven\u00e4j\u00e4","name:fo":"Hv\u00edtarussland","alt_name:vi":"B\u1ea1ch Nga","name:fr":"B\u00e9larus","name:fy":"Wyt-Rusl\u00e2n","int_name":"Belarus","name:nl":"Wit-Rusland","name:nn":"Kviterussland","name:no":"Hviterussland","name:na":"Berarut","name:ne":"\u092c\u0947\u0932\u093e\u0930\u0941\u0938","alt_name:fr":"Bi\u00e9lorussie","name:wo":"Belaarus","name:ga":"An Bhealar\u00fais","name:gd":"A' Bhealaruis","name:gn":"Vielorrusia","name:gl":"Bielorrusia","name:gv":"Yn Velaroosh","name:gu":"\u0aac\u0ac7\u0ab2\u0abe\u0ab0\u0ac1\u0ab8"},"arcs":[[0],[1],[2]]},{"type":"MultiLineString","properties":{"old_name:right:en":"Mogilev Region","name:right:uk":"\u041c\u043e\u0433\u0438\u043b\u044c\u043e\u0432\u0441\u044c\u043a\u0430 \u043e\u0431\u043b\u0430\u0441\u0442\u044c","name:right:hu":"Mahiljovi ter\u00fclet","name:left:sr":"\u0411\u0440\u0458\u0430\u043d\u0441\u043a\u0430 \u043e\u0431\u043b\u0430\u0441\u0442","name:right:lt":"Mogiliovo sritis","min_zoom":8.0,"name:left:lt":"Briansko sritis","name:left:sh":"Brjanska oblast","name:left:lv":"Brjanskas apgabals","name:right:uz":"Mogilyov viloyati","old_name:right:fr":"Voblast de Moguilev","sort_rank":256,"name:left:ca":"Prov\u00edncia de Briansk","int_name:right":"Mahilio\u016dskaja voblas\u0107","source":"openstreetmap.org","name:right:az":"Mogilyov vilay\u0259ti","name:left:cs":"Brjansk\u00e1 oblast","name:left":"\u0411\u0440\u044f\u043d\u0441\u043a\u0430\u044f \u043e\u0431\u043b\u0430\u0441\u0442\u044c","name:left:ka":"\u10d1\u10e0\u10d8\u10d0\u10dc\u10e1\u10d9\u10d8\u10e1 \u10dd\u10da\u10e5\u10d8","name:left:os":"\u0411\u0440\u044f\u043d\u0441\u0447\u044b \u043e\u0431\u043b\u00e6\u0441\u0442","name:left:ro":"Regiunea Briansk","name:left:kv":"\u0411\u0440\u044f\u043d\u0441\u043a \u043e\u0431\u043b\u0430\u0441\u044c\u0442","name:right:ro":"Regiunea Moghil\u0103u","name:right:eo":"Mahilova regiono","name:right:en":"Mahilyow Voblasts","kind":"region","name":"\u0411\u0440\u044f\u043d\u0441\u043a\u0430\u044f \u043e\u0431\u043b\u0430\u0441\u0442\u044c - \u041c\u043e\u0433\u0438\u043b\u0451\u0432\u0441\u043a\u0430\u044f \u043e\u0431\u043b\u0430\u0441\u0442\u044c","name:right:sk":"Mahi\u013eovsk\u00e1 oblas\u0165","name:right:be":"\u041c\u0430\u0433\u0456\u043b\u0451\u045e\u0441\u043a\u0430\u044f \u0432\u043e\u0431\u043b\u0430\u0441\u0446\u044c","name:left:zh":"\u5e03\u826f\u65af\u514b\u5dde","name:left:fr":"Oblast de Briansk","name:left:hy":"\u0532\u0580\u0575\u0561\u0576\u057d\u056f\u056b \u0574\u0561\u0580\u0566","name:right:nl":"Oblast Mahiljow","name:right:fr":"Voblast de Mahiliow","name:left:ja":"\u30d6\u30ea\u30e3\u30f3\u30b9\u30af\u5dde","id:right":-59162,"name:left:uk":"\u0411\u0440\u044f\u043d\u0441\u044c\u043a\u0430 \u043e\u0431\u043b\u0430\u0441\u0442\u044c","name:left:nl":"Oblast Brjansk","name:left:ba":"\u0411\u0440\u044f\u043d\u0441\u043a \u04e9\u043b\u043a\u04d9\u04bb\u0435","name:left:be":"\u0411\u0440\u0430\u043d\u0441\u043a\u0430\u044f \u0432\u043e\u0431\u043b\u0430\u0441\u0446\u044c","name:left:hu":"Brjanszki ter\u00fclet","id":-81997,"name:right":"\u041c\u043e\u0433\u0438\u043b\u0451\u0432\u0441\u043a\u0430\u044f \u043e\u0431\u043b\u0430\u0441\u0442\u044c","name:left:en":"Bryansk Oblast","name:left:el":"\u03a0\u03b5\u03c1\u03b9\u03c6\u03ad\u03c1\u03b5\u03b9\u03b1 \u039c\u03c0\u03c1\u03b9\u03ac\u03bd\u03c3\u03ba","kind_detail":"4","id:left":-81997,"name:left:es":"\u00d3blast de Briansk","name:right:kk":"\u041c\u043e\u0433\u0438\u043b\u0435\u0432 \u043e\u0431\u043b\u044b\u0441\u044b","name:left:eu":"Briansk oblasta","name:left:et":"Brjanski oblast","name:right:ka":"\u10db\u10dd\u10d2\u10d8\u10da\u10d4\u10d5\u10d8\u10e1 \u10dd\u10da\u10e5\u10d8","name:right:pt":"Voblast de Mahilou","name:left:ar":"\u0623\u0648\u0628\u0644\u0627\u0633\u062a \u0628\u0631\u064a\u0627\u0646\u0633\u0643","name:left:pl":"Obw\u00f3d bria\u0144ski","name:left:tr":"Bryansk Oblast\u0131","name:left:tt":"\u0411\u0440\u044f\u043d\u0441\u043a \u04e9\u043b\u043a\u04d9\u0441\u0435","name:left:az":"Bryansk vilay\u0259ti","name:right:tr":"Mahilyov Voblast\u0131","name:right:ky":"\u041c\u043e\u0433\u0438\u043b\u0451\u0432 \u043e\u0431\u043b\u0430\u0441\u0442\u044b","name:right:pl":"obw\u00f3d mohylewski","osm_relation":true,"name:right:de":"Woblast Mahiljou","name:left:de":"Oblast Brjansk"},"arcs":[[3],[4],[5]]}]},"roads":{"type":"GeometryCollection","geometries":[{"type":"MultiLineString","properties":{"kind":"major_road","network":"ru:regional","sort_rank":380,"kind_detail":"primary","source":"openstreetmap.org","min_zoom":8.0,"shield_text":"15\u041a","ref":"15\u041a-2001"},"arcs":[[11],[12],[13]]},{"type":"MultiLineString","properties":{"kind":"major_road","network":"ru:regional","sort_rank":380,"kind_detail":"primary","source":"openstreetmap.org","min_zoom":8.0,"landuse_kind":"residential","shield_text":"15\u041a","ref":"15\u041a-2001","id":118904563},"arcs":[[14],[15]]},{"type":"LineString","properties":{"kind":"major_road","network":"ru:regional","sort_rank":380,"kind_detail":"primary","source":"openstreetmap.org","min_zoom":8.0,"landuse_kind":"residential","shield_text":"15\u041a","ref":"15\u041a-2702"},"arcs":[16]},{"type":"LineString","properties":{"kind":"major_road","network":"ru:national","sort_rank":381,"kind_detail":"trunk","source":"openstreetmap.org","min_zoom":8.0,"shield_text":"240","ref":"\u0410-240"},"arcs":[17]},{"type":"LineString","properties":{"kind":"major_road","network":"ru:regional","sort_rank":380,"kind_detail":"primary","source":"openstreetmap.org","min_zoom":8.0,"shield_text":"15\u041a","ref":"15\u041a-2502"},"arcs":[18]},{"type":"LineString","properties":{"source":"openstreetmap.org","kind":"major_road","landuse_kind":"urban_area","sort_rank":380,"kind_detail":"primary","min_zoom":8.0},"arcs":[19]},{"type":"LineString","properties":{"kind":"major_road","network":"ru:regional","sort_rank":380,"kind_detail":"primary","source":"openstreetmap.org","min_zoom":8.0,"shield_text":"15\u041a","id":115092420},"arcs":[20]},{"type":"MultiLineString","properties":{"kind":"major_road","network":"ru:regional","sort_rank":380,"kind_detail":"primary","source":"openstreetmap.org","min_zoom":8.0,"shield_text":"15\u041a","ref":"15\u041a-2702"},"arcs":[[21],[22],[23],[24],[25],[26],[27],[28],[29],[30],[31],[32],[33],[34]]},{"type":"LineString","properties":{"kind":"major_road","network":"ru:regional","sort_rank":380,"kind_detail":"primary","source":"openstreetmap.org","min_zoom":8.0,"shield_text":"15\u041a","ref":"15\u041a-1902;15\u041a-1901","id":58769317},"arcs":[35]},{"type":"MultiLineString","properties":{"sort_rank":380,"kind_detail":"primary","min_zoom":8.0,"kind":"major_road","source":"openstreetmap.org"},"arcs":[[36],[37],[38],[39]]},{"type":"LineString","properties":{"kind":"major_road","network":"ru:regional","sort_rank":380,"kind_detail":"primary","source":"openstreetmap.org","min_zoom":8.0,"shield_text":"15\u041a","ref":"15\u041a-1902"},"arcs":[40]},{"type":"LineString","properties":{"bus_network":null,"network":"ru:national","sort_rank":381,"kind_detail":"trunk","kind":"major_road","source":"openstreetmap.org","min_zoom":8.0,"bus_shield_text":"\u041a\u0438\u0435\u0432-\u041c\u043e\u0441\u043a\u0432\u0430","shield_text":"240","ref":"\u0410-240"},"arcs":[41]},{"type":"LineString","properties":{"kind":"major_road","network":"ru:regional","sort_rank":380,"kind_detail":"primary","source":"openstreetmap.org","min_zoom":8.0,"shield_text":"15\u041a","ref":"15\u041a-2701","id":270956592},"arcs":[42]},{"type":"LineString","properties":{"source":"openstreetmap.org","kind":"major_road","landuse_kind":"residential","sort_rank":380,"kind_detail":"primary","min_zoom":8.0},"arcs":[43]},{"type":"LineString","properties":{"kind":"major_road","network":"ru:regional","sort_rank":380,"kind_detail":"primary","source":"openstreetmap.org","min_zoom":8.0,"landuse_kind":"urban_area","shield_text":"15\u041a","ref":"15\u041a-2702","id":8036362},"arcs":[44]},{"type":"LineString","properties":{"source":"openstreetmap.org","kind":"major_road","sort_rank":380,"kind_detail":"primary","ref":"\u0420139","min_zoom":8.0},"arcs":[45]}]},"earth":{"type":"GeometryCollection","geometries":[{"type":"Polygon","properties":{"sort_rank":10,"source":"naturalearthdata.com","min_zoom":0.0,"kind":"earth","area":98022885885},"arcs":[[46]]}]},"landuse":{"type":"GeometryCollection","geometries":[{"type":"Polygon","properties":{"kind":"residential","name":"\u0421\u0435\u043c\u0446\u044b","area":10600500,"sort_rank":20,"source":"openstreetmap.org","min_zoom":8.0,"tier":2,"id":67881392},"arcs":[[47]]},{"type":"MultiPolygon","properties":{"source":"naturalearthdata.com","kind":"urban_area","name":"","area":363035967,"sort_rank":11,"min_zoom":4.0},"arcs":[[[48]]]},{"type":"MultiPolygon","properties":{"source":"openstreetmap.org","kind":"residential","tier":2,"area":137821168,"sort_rank":20,"min_zoom":8.0},"arcs":[[[49]],[[50]]]},{"type":"MultiPolygon","properties":{"kind":"residential","name":"\u0422\u0440\u0443\u0431\u0447\u0435\u0432\u0441\u043a\u043e\u0435 \u0433\u043e\u0440\u043e\u0434\u0441\u043a\u043e\u0435 \u043f\u043e\u0441\u0435\u043b\u0435\u043d\u0438\u0435","area":40712800,"sort_rank":20,"source":"openstreetmap.org","min_zoom":8.0,"tier":2,"id":-2548590,"osm_relation":true},"arcs":[[[51]],[[52]]]},{"type":"Polygon","properties":{"kind":"nature_reserve","protect_class":"3","area":212714000,"sort_rank":23,"source":"openstreetmap.org","min_zoom":6.0,"tier":2,"id":474801083},"arcs":[[53]]},{"type":"Polygon","properties":{"kind":"nature_reserve","area":1135289984,"sort_rank":23,"source":"openstreetmap.org","min_zoom":4.0,"tier":2,"id":-6981801,"osm_relation":true},"arcs":[[54]]}]}},"type":"Topology","transform":{"translate":[32.34375,52.4827802221],"scale":[0.0003433228,0.0002070539]},"arcs":[[[0,3263],[1,2],[-1,5]],[[0,3344],[41,48],[61,32],[104,-27],[55,96],[44,11],[128,219],[52,198],[-71,20],[7,23],[100,15],[-2,-49],[59,31],[91,-24],[29,-36],[29,102],[65,43],[-13,50]],[[823,4096],[1,-2],[21,2]],[[845,4096],[-21,-2],[-1,2]],[[779,4096],[13,-50],[-65,-43],[-29,-102],[-29,36],[-91,24],[-59,-31],[2,49],[-100,-15],[-7,-23],[71,-20],[-2,-63],[-50,-135],[-128,-219],[-44,-11],[-55,-96],[-104,27],[-61,-32],[-41,-48]],[[0,3270],[1,-5],[-1,-2]],[[4096,2521],[-698,-360],[-99,-72],[-83,-17],[-50,-59],[-150,-72],[-356,15],[-272,-45],[-276,8],[-451,-132],[-405,21],[-493,-146],[-400,-243],[-363,-83]],[[0,1336],[363,83],[400,243],[493,146],[405,-21],[451,132],[276,-8],[272,45],[356,-15],[150,72],[50,59],[83,17],[99,72],[698,360]],[[0,1336],[363,83],[400,243],[493,146],[405,-21],[451,132],[276,-8],[272,45],[356,-15],[150,72],[50,59],[83,17],[99,72],[698,360]],[[0,2870],[25,-40],[151,-509],[43,-72],[126,-162],[75,-15],[296,-253],[97,-122],[162,38]],[[0,1336],[363,83],[400,243],[493,146],[405,-21],[451,132],[276,-8],[272,45],[356,-15],[150,72],[50,59],[83,17],[99,72],[698,360]],[[3196,1532],[-200,-305],[45,-67],[-135,-791]],[[3210,1622],[-11,-73]],[[3258,1989],[-47,-359]],[[3199,1549],[-3,-17]],[[3211,1630],[-1,-8]],[[1016,1749],[-58,-12],[-45,71]],[[3041,1944],[-17,-12]],[[0,2673],[95,-43]],[[1017,1745],[63,-43]],[[130,2508],[-35,122]],[[172,2494],[129,43]],[[304,2538],[-3,-1]],[[301,2537],[3,-1]],[[304,2538],[0,-2],[1,0],[0,1],[-1,1]],[[304,2536],[2,-1]],[[306,2535],[-1,2]],[[306,2535],[224,-295],[127,-86],[119,-198],[116,-117]],[[892,1839],[1,-2]],[[894,1838],[-2,1]],[[894,1837],[2,-2]],[[896,1835],[-1,2]],[[911,1811],[-15,24]],[[895,1838],[-1,0]],[[894,1838],[0,-1],[1,1]],[[2557,0],[56,182],[152,11]],[[130,2508],[42,-14]],[[895,1838],[-1,0]],[[1080,1702],[7,-4]],[[3253,1985],[2,-2]],[[2765,193],[141,176]],[[0,1065],[199,20],[474,105],[165,188],[523,119],[296,-34],[192,34],[199,-66],[154,-15],[97,25],[112,129],[360,166],[129,77],[141,131],[212,41],[72,38],[155,136],[309,36],[132,57],[175,-2]],[[1087,1698],[93,-243]],[[1016,1749],[1,-4]],[[913,1808],[-2,3]],[[736,4096],[-46,-188]],[[4096,4096],[0,-4096],[-4096,0],[0,4096],[4096,0]],[[3194,1532],[22,85],[-18,16],[21,-4],[4,65],[62,-79],[-16,-35],[26,-28],[-12,-12],[-33,36],[-20,-48],[-36,4]],[[1032,1650],[-146,99],[36,89],[75,23],[69,-46],[15,-120],[-49,-45]],[[872,1739],[1,45],[68,41],[46,-39],[38,13],[-13,41],[81,18],[-30,-102],[-78,-19],[22,-88],[-95,12],[-40,78]],[[3102,2135],[2,32],[59,14],[22,58],[57,39],[51,-25],[-35,-53],[2,-60],[-41,-3],[3,-59],[-46,-39],[23,42],[-47,12],[2,54],[-52,-12]],[[4043,615],[53,26],[0,-89],[-51,24],[-2,39]],[[4096,439],[-22,16],[22,80],[0,-96]],[[1675,3896],[62,51],[1,-17],[372,28],[27,-463],[-104,-12],[-37,49],[-63,24],[-71,72],[-13,81],[-50,-3],[-45,-58],[-4,101],[-75,147]],[[761,3295],[12,47],[58,43],[26,95],[18,-5],[-47,155],[49,69],[14,-10],[15,26],[44,-69],[87,-21],[94,-61],[-4,30],[30,9],[25,60],[162,48],[46,101],[96,28],[25,45],[-2,110],[24,23],[58,6],[16,-19],[35,19],[18,-24],[52,6],[17,-21],[45,17],[16,-21],[69,44],[10,-26],[102,9],[81,-32],[149,-7],[33,-55],[33,-2],[-39,-131],[-54,-4],[85,-356],[-169,-77],[-170,-12],[-42,-88],[-186,-139],[-39,6],[-8,44],[-71,24],[-53,88],[-66,14],[-58,100],[-195,-16],[-18,-34],[-49,-14],[-41,30],[-63,4],[-26,-33],[-97,-36],[-103,28],[-35,-34],[-9,19]]]}