{"objects":{"water":{"type":"GeometryCollection","geometries":[]},"buildings":{"type":"GeometryCollection","geometries":[]},"places":{"type":"GeometryCollection","geometries":[{"type":"Point","properties":{"kind":"locality","name:en":"Shostka","name":"\u0428\u043e\u0441\u0442\u043a\u0430","kind_detail":"town","name:de":"Schostka","source":"openstreetmap.org","min_zoom":8.0,"name:hu":"Sosztka","id":337504305,"population":79611},"coordinates":[3289,1167]},{"type":"Point","properties":{"kind":"locality","name:en":"Novhorod-Siverskyi","name":"\u041d\u043e\u0432\u0433\u043e\u0440\u043e\u0434-\u0421\u0456\u0432\u0435\u0440\u0441\u044c\u043a\u0438\u0439","kind_detail":"town","name:eo":"Novhorod-Siverskij","name:de":"Nowhorod-Siwerskyj","source":"openstreetmap.org","min_zoom":8.0,"name:be":"\u041d\u043e\u045e\u0433\u0430\u0440\u0430\u0434-\u0421\u0435\u0432\u0435\u0440\u0441\u043a\u0456","name:ru":"\u041d\u043e\u0432\u0433\u043e\u0440\u043e\u0434-\u0421\u0435\u0432\u0435\u0440\u0441\u043a\u0438\u0439","name:pl":"Nowogr\u00f3d Siewierski","id":337503361,"population":14025},"coordinates":[2721,1829]},{"type":"Point","properties":{"kind":"locality","name:en":"Semenivka","name":"\u0421\u0435\u043c\u0435\u043d\u0456\u0432\u043a\u0430","kind_detail":"town","alt_name:pl":"Siemian\u00f3wka","name:de":"Semeniwka","source":"openstreetmap.org","min_zoom":8.0,"name:ru":"\u0421\u0435\u043c\u0451\u043d\u043e\u0432\u043a\u0430","name:pl":"Semeniwka","id":337502651,"population":8450},"coordinates":[681,2655]},{"type":"Point","properties":{"kind":"locality","name:en":"Voronizh","name":"\u0412\u043e\u0440\u043e\u043d\u0456\u0436","kind_detail":"town","source":"openstreetmap.org","min_zoom":8.0,"name:ru":"\u0412\u043e\u0440\u043e\u043d\u0435\u0436","id":337504994,"population":7652},"coordinates":[3269,757]},{"type":"Point","properties":{"kind":"locality","name":"\u0411\u0435\u043b\u0430\u044f \u0411\u0435\u0440\u0451\u0437\u043a\u0430","kind_detail":"town","source":"openstreetmap.org","min_zoom":8.0,"name:pl":"Bia\u0142a Berezka","id":411766710,"population":5965},"coordinates":[3331,3618]}]},"transit":{"type":"GeometryCollection","geometries":[{"type":"MultiLineString","properties":{"kind":"train","network":"\u0420\u0416\u0414","sort_rank":275,"name:de":"Mykolajiw \u2014 Moskau","source":"openstreetmap.org","min_zoom":6.0,"name:uk":"\u041c\u0438\u043a\u043e\u043b\u0430\u0457\u0432 - \u041c\u043e\u0441\u043a\u0432\u0430","ref":"062\u041e","osm_relation":true,"name":"\u041d\u0438\u043a\u043e\u043b\u0430\u0435\u0432 \u2014 \u041c\u043e\u0441\u043a\u0432\u0430"},"arcs":[[8],[9],[10]]},{"type":"LineString","properties":{"kind":"train","name":"\u041c\u043e\u0441\u043a\u0432\u0430 \u2014 \u041d\u0438\u043a\u043e\u043b\u0430\u0435\u0432","sort_rank":275,"name:de":"Moskau \u2014 Mykolajiw","source":"openstreetmap.org","min_zoom":6.0,"name:uk":"\u041c\u043e\u0441\u043a\u0432\u0430 \u2014 \u041c\u0438\u043a\u043e\u043b\u0430\u0457\u0432","ref":"061\u0425","osm_relation":true,"network":"\u0420\u0416\u0414"},"arcs":[11]},{"type":"LineString","properties":{"kind":"train","name":"Moscova - Chi\u015fin\u0103u","sort_rank":275,"name:de":"Moskau - Kischinau","source":"openstreetmap.org","min_zoom":6.0,"name:uk":"\u041c\u043e\u0441\u043a\u0432\u0430 - \u041a\u0456\u0448\u0456\u043d\u0435\u0443","operator":"CFM","ref":"341\u0424: Moscova - Chi\u015fin\u0103u","osm_relation":true,"network":"train"},"arcs":[12]},{"type":"LineString","properties":{"kind":"train","network":"train","sort_rank":275,"name:de":"Moskau - Kischinau","source":"openstreetmap.org","min_zoom":6.0,"name:uk":"\u041c\u043e\u0441\u043a\u0432\u0430 - \u041a\u0456\u0448\u0456\u043d\u0435\u0443","operator":"CFM","ref":"47\u0429: \u041c\u043e\u0441\u043a\u0432\u0430 - \u041a\u0438\u0448\u0438\u043d\u044d\u0443","osm_relation":true,"name":"\u041c\u043e\u0441\u043a\u0432\u0430 - \u041a\u0438\u0448\u0438\u043d\u044d\u0443"},"arcs":[13]}]},"pois":{"type":"GeometryCollection","geometries":[{"type":"Point","properties":{"kind":"national_park","name:en":"National Nature Park \u00abDesniansko-Starohutskyi\u00bb","protect_class":"2","area":246032000,"source":"openstreetmap.org","min_zoom":6.82,"tier":1,"name:ru":"\u041d\u0430\u0446\u0438\u043e\u043d\u0430\u043b\u044c\u043d\u044b\u0439 \u043f\u0440\u0438\u0440\u043e\u0434\u043d\u044b\u0439 \u043f\u0430\u0440\u043a \u00ab\u0414\u0435\u0441\u043d\u044f\u043d\u0441\u043a\u043e-\u0421\u0442\u0430\u0440\u043e\u0433\u0443\u0442\u0441\u043a\u0438\u0439\u00bb","id":-5257416,"osm_relation":true,"name":"\u041d\u0430\u0446\u0456\u043e\u043d\u0430\u043b\u044c\u043d\u0438\u0439 \u043f\u0440\u0438\u0440\u043e\u0434\u043d\u0438\u0439 \u043f\u0430\u0440\u043a \u00ab\u0414\u0435\u0441\u043d\u044f\u043d\u0441\u044c\u043a\u043e-\u0421\u0442\u0430\u0440\u043e\u0433\u0443\u0442\u0441\u044c\u043a\u0438\u0439\u00bb"},"coordinates":[4027,3375]},{"type":"Point","properties":{"kind":"national_park","protect_class":"2","area":883366000,"source":"openstreetmap.org","min_zoom":5.9,"tier":1,"name:ru":"\u041c\u0435\u0437\u0438\u043d\u0441\u043a\u0438\u0439 \u043d\u0430\u0446\u0438\u043e\u043d\u0430\u043b\u044c\u043d\u044b\u0439 \u043f\u0440\u0438\u0440\u043e\u0434\u043d\u044b\u0439 \u043f\u0430\u0440\u043a","id":-4271408,"osm_relation":true,"name":"\u041c\u0435\u0437\u0438\u043d\u0441\u044c\u043a\u0438\u0439 \u043d\u0430\u0446\u0456\u043e\u043d\u0430\u043b\u044c\u043d\u0438\u0439 \u043f\u0440\u0438\u0440\u043e\u0434\u043d\u0438\u0439 \u043f\u0430\u0440\u043a"},"coordinates":[1922,476]}]},"boundaries":{"type":"GeometryCollection","geometries":[{"type":"MultiLineString","properties":{"name:kg":"Ukrayina","name:ka":"\u10e3\u10d9\u10e0\u10d0\u10d8\u10dc\u10d0","name:ko":"\uc6b0\ud06c\ub77c\uc774\ub098","name:cv":"\u0423\u043a\u0440\u0430\u0438\u043d\u0430","name:cu":"\u041e\u0443\u043a\u0440\u0430\u0438\u043d\u0430","name:kl":"Ukraine","name:cs":"Ukrajina","name:tw":"Ukraine","name:tt":"\u0423\u043a\u0440\u0430\u0438\u043d\u0430","name:kw":"Ukrayn","name:kv":"\u0423\u043a\u0440\u0430\u0438\u043d\u0430","name:th":"\u0e1b\u0e23\u0e30\u0e40\u0e17\u0e28\u0e22\u0e39\u0e40\u0e04\u0e23\u0e19","name:tl":"Ukranya","name:ce":"\u0423\u043a\u0440\u0430\u0438\u043d\u0430","name:ta":"\u0b89\u0b95\u0bcd\u0bb0\u0bc8\u0ba9\u0bcd","name:tg":"\u0423\u043a\u0440\u0430\u0439\u0438\u043d\u0430","name:ca":"Ucra\u00efna","name:te":"\u0c09\u0c15\u0c4d\u0c30\u0c46\u0c2f\u0c3f\u0c28\u0c4d","name:cy":"Wcr\u00e1in","name:hr":"Ukrajina","name:da":"Ukraine","name:de":"Ukraine","source":"openstreetmap.org","name:kn":"\u0caf\u0cc1\u0c95\u0ccd\u0cb0\u0cc7\u0ca8\u0ccd","name:dv":"\u0794\u07aa\u0786\u07b0\u0783\u07ac\u0787\u07a8\u0782\u07b0","name:km":"\u17a2\u17ca\u17bb\u1799\u1780\u17d2\u179a\u17c2\u1793","name:lv":"Ukraina","name:lt":"Ukraina","name:uz":"Ukraina","name:kk":"\u0423\u043a\u0440\u0430\u0438\u043d\u0430","name:ur":"\u06cc\u0648\u06a9\u0631\u06cc\u0646","name:lb":"Ukrain","name:la":"Ucraina","name:ug":"\u0626\u06c7\u0643\u0631\u0627\u0626\u0649\u0646\u0627","name:li":"Oekra\u00efne","name:ln":"Ukraine","name:el":"\u039f\u03c5\u03ba\u03c1\u03b1\u03bd\u03af\u03b1","name:eo":"Ukrainujo","name:en":"Ukraine","name":"\u0423\u043a\u0440\u0430\u0457\u043d\u0430","name:tk":"Ukraina","name:ee":"Ukraine","name:ku":"\u00dbkrayna","name:eu":"Ukraina","name:et":"Ukraina","name:es":"Ucrania","name:ia":"Ukraina","name:rm":"Ucraina","name:az":"Ukrayna","name:ie":"Ucraina","name:id":"Ukraina","name:ig":"Yukrain","name:ar":"\u0623\u0648\u0643\u0631\u0627\u0646\u064a\u0627","name:io":"Ukrainia","name:is":"\u00dakra\u00edna","name:am":"\u12e9\u12ad\u122c\u1295","name:it":"Ucraina","name:an":"Ucra\u00edna","name:ru":"\u0423\u043a\u0440\u0430\u0438\u043d\u0430","name:ab":"\u0423\u043a\u0440\u0430\u0438\u043d\u0430","name:af":"Oekra\u00efne","kind_detail":"2","name:ky":"\u0423\u043a\u0440\u0430\u0438\u043d\u0430","name:zh-yue":"\u70cf\u514b\u862d","name:zh":"\u4e4c\u514b\u5170","name:so":"Ukrain","name:sn":"Ukraine","name:sm":"Ukraine","name:sl":"Ukrajina","name:sk":"Ukrajina","name:ja":"\u30a6\u30af\u30e9\u30a4\u30ca","name:sh":"Ukrajina","name:se":"Ukraina","name:sc":"Ucraina","name:br":"Ukraina","name:bs":"Ukrajina","name:bn":"\u0987\u0989\u0995\u09cd\u09b0\u09c7\u09a8","name:bo":"\u0f68\u0f74\u0f40\u0f0b\u0f62\u0f61\u0f72\u0f0b\u0f53\u0f72\u0f0d","name:bi":"Ukraine","name:sw":"Ukraine","name:be":"\u0423\u043a\u0440\u0430\u0456\u043d\u0430","name:su":"Ukraina","name:bg":"\u0423\u043a\u0440\u0430\u0439\u043d\u0430","name:ss":"IYukhureni","name:ba":"\u0423\u043a\u0440\u0430\u0438\u043d\u0430","name:sq":"Ukraina","name:jv":"Ukraina","name:pt":"Ucr\u00e2nia","name:ps":"\u0627\u0648\u06a9\u0631\u0627\u06cc\u0646","name:oc":"Ucra\u00efna","min_zoom":8.0,"name:ro":"Ucraina","name:zh-min-nan":"Ukrayina","name:os":"\u0423\u043a\u0440\u0430\u0438\u043d\u00e6","name:or":"\u0b5f\u0b41\u0b15\u0b4d\u0b30\u0b47\u0b28","name:pl":"Ukraina","sort_rank":262,"name:sr":"\u0423\u043a\u0440\u0430\u0458\u0438\u043d\u0430","osm_relation":true,"name:pa":"\u0a2f\u0a42\u0a15\u0a4d\u0a30\u0a47\u0a28","name:tr":"Ukrayna","name:hi":"\u092f\u0941\u0915\u094d\u0930\u0947\u0928","name:sv":"Ukraina","name:he":"\u05d0\u05d5\u05e7\u05e8\u05d0\u05d9\u05e0\u05d4","name:hy":"\u0548\u0582\u056f\u0580\u0561\u056b\u0576\u0561","name:ht":"Ikr\u00e8n","name:hu":"Ukrajna","name:qu":"Ukranya","kind":"country","name:ts":"Ukraine","name:yi":"\u05d0\u05d5\u05e7\u05e8\u05d0\u05d9\u05e0\u05e2","name:yo":"Ukr\u00e9\u00ecn","name:mt":"Ukrajna","alt_name:eo":"Ukrainio","name:ms":"Ukraine","name:mr":"\u092f\u0941\u0915\u094d\u0930\u0947\u0928","name:my":"\u101a\u1030\u1000\u101b\u102d\u1014\u103a\u1038\u1014\u102d\u102f\u1004\u103a\u1004\u1036","int_name":"Ukraine","name:mg":"Okraina","name:ml":"\u0d09\u0d15\u0d4d\u0d30\u0d48\u0d7b","name:vi":"Ukraina","name:mn":"\u0423\u043a\u0440\u0430\u0439\u043d","name:mi":"\u016akareinga","id":-60199,"name:mk":"\u0423\u043a\u0440\u0430\u0438\u043d\u0430","name:vo":"Lukray\u00e4n","name:fa":"\u0627\u0648\u06a9\u0631\u0627\u06cc\u0646","name:rw":"Ikerene","name:fi":"Ukraina","old_name:vi":"\u00d4 Kh\u1eafc Lan","name:fo":"Ukraina","alt_name:vi":"Uy Ki\u00ean","name:fr":"Ukraine","name:fy":"Oekra\u00efne","name:nl":"Oekra\u00efne","name:nn":"Ukraina","name:no":"Ukraina","name:na":"Ukraine","name:ne":"\u092f\u0941\u0915\u094d\u0930\u0947\u0928","name:wa":"Oucrinne","name:wo":"Ukreen","name:nv":"Y\u00f3\u00f3kwein","name:ga":"An \u00dacr\u00e1in","name:gd":"An Ucr\u00e0in","name:gn":"Ukya\u00f1a","name:gl":"Ucra\u00edna","name:gv":"Yn Ookraan","name:gu":"\u0aaf\u0ac1\u0a95\u0acd\u0ab0\u0ac7\u0aa8"},"arcs":[[0],[1],[2]]},{"type":"LineString","properties":{"name:right:hy":"\u054d\u0578\u0582\u0574\u056b\u056b \u0574\u0561\u0580\u0566","name:right:no":"Sumy oblast","name:right:hr":"Sumska oblast","name:right:hu":"Szumi ter\u00fclet","name:left:sr":"\u0411\u0440\u0458\u0430\u043d\u0441\u043a\u0430 \u043e\u0431\u043b\u0430\u0441\u0442","name:right:lt":"Sum\u0173 sritis","min_zoom":8.0,"name:left:lt":"Briansko sritis","name:left:sh":"Brjanska oblast","name:left:lv":"Brjanskas apgabals","name:left:hu":"Brjanszki ter\u00fclet","name:right:os":"\u0421\u0443\u043c\u044b\u0439\u044b \u043e\u0431\u043b\u00e6\u0441\u0442","sort_rank":256,"name:left:ca":"Prov\u00edncia de Briansk","name:right:sk":"Sumsk\u00e1 oblas\u0165","source":"openstreetmap.org","name:right:ar":"\u0633\u0648\u0645\u064a \u0623\u0648\u0628\u0644\u0627\u0633\u062a","name:left:cs":"Brjansk\u00e1 oblast","name:left":"\u0411\u0440\u044f\u043d\u0441\u043a\u0430\u044f \u043e\u0431\u043b\u0430\u0441\u0442\u044c","name:right:mk":"\u0421\u0443\u043c\u0441\u043a\u0430 \u043e\u0431\u043b\u0430\u0441\u0442","name:left:ja":"\u30d6\u30ea\u30e3\u30f3\u30b9\u30af\u5dde","name:left:ka":"\u10d1\u10e0\u10d8\u10d0\u10dc\u10e1\u10d9\u10d8\u10e1 \u10dd\u10da\u10e5\u10d8","name:right:eu":"Sumyko oblasta","name:right:et":"Sum\u00f5 oblast","name:left:os":"\u0411\u0440\u044f\u043d\u0441\u0447\u044b \u043e\u0431\u043b\u00e6\u0441\u0442","name:right:it":"Oblast' di Sumy","name:left:ro":"Regiunea Briansk","name:right:vi":"Sumi (t\u1ec9nh)","name:left:kv":"\u0411\u0440\u044f\u043d\u0441\u043a \u043e\u0431\u043b\u0430\u0441\u044c\u0442","name:right:ro":"Regiunea Sum\u00ee","name:right:mr":"\u0938\u0941\u092e\u0940 \u0913\u092c\u094d\u0932\u093e\u0938\u094d\u0924","name:right:id":"Oblast Sumy","name:right:eo":"Sumia provinco","name:right:en":"Sumy Oblast","kind":"region","name":"\u0411\u0440\u044f\u043d\u0441\u043a\u0430\u044f \u043e\u0431\u043b\u0430\u0441\u0442\u044c - \u0421\u0443\u043c\u0441\u044c\u043a\u0430 \u043e\u0431\u043b\u0430\u0441\u0442\u044c","name:right:fa":"\u0627\u0633\u062a\u0627\u0646 \u0633\u0648\u0645\u06cc","name:right:lv":"Sumu apgabals","name:right:be":"\u0421\u0443\u043c\u0441\u043a\u0430\u044f \u0432\u043e\u0431\u043b\u0430\u0441\u0446\u044c","name:left:zh":"\u5e03\u826f\u65af\u514b\u5dde","name:left:fr":"Oblast de Briansk","name:right:zh":"\u8607\u6885\u5dde","name:left:hy":"\u0532\u0580\u0575\u0561\u0576\u057d\u056f\u056b \u0574\u0561\u0580\u0566","name:right:nn":"Sumy oblast","name:right:es":"\u00d3blast de Sumy","name:right:nl":"Oblast Soemy","name:right:ja":"\u30b9\u30fc\u30e0\u30a3\u5dde","name:right:fr":"Oblast de Soumy","name:right:sr":"\u0421\u0443\u043c\u0441\u043a\u0430 \u043e\u0431\u043b\u0430\u0441\u0442","id:right":-71250,"name:left:uk":"\u0411\u0440\u044f\u043d\u0441\u044c\u043a\u0430 \u043e\u0431\u043b\u0430\u0441\u0442\u044c","name:right:sh":"Sumska oblast","name:left:nl":"Oblast Brjansk","name:left:ba":"\u0411\u0440\u044f\u043d\u0441\u043a \u04e9\u043b\u043a\u04d9\u04bb\u0435","name:left:be":"\u0411\u0440\u0430\u043d\u0441\u043a\u0430\u044f \u0432\u043e\u0431\u043b\u0430\u0441\u0446\u044c","id":-81997,"name:right":"\u0421\u0443\u043c\u0441\u044c\u043a\u0430 \u043e\u0431\u043b\u0430\u0441\u0442\u044c","name:left:en":"Bryansk Oblast","name:left:el":"\u03a0\u03b5\u03c1\u03b9\u03c6\u03ad\u03c1\u03b5\u03b9\u03b1 \u039c\u03c0\u03c1\u03b9\u03ac\u03bd\u03c3\u03ba","name:right:ca":"Prov\u00edncia de Sumy","kind_detail":"4","id:left":-81997,"name:left:es":"\u00d3blast de Briansk","name:right:cs":"Sumsk\u00e1 oblast","name:right:fi":"Sumyn alue","name:left:eu":"Briansk oblasta","name:left:et":"Brjanski oblast","name:right:ka":"\u10e1\u10e3\u10db\u10d8\u10e1 \u10dd\u10da\u10e5\u10d8","name:right:zh-min-nan":"Sumy s\u00e9ng","name:right:pt":"Oblast de Sumi","name:left:ar":"\u0623\u0648\u0628\u0644\u0627\u0633\u062a \u0628\u0631\u064a\u0627\u0646\u0633\u0643","name:left:pl":"Obw\u00f3d bria\u0144ski","name:left:tr":"Bryansk Oblast\u0131","name:left:tt":"\u0411\u0440\u044f\u043d\u0441\u043a \u04e9\u043b\u043a\u04d9\u0441\u0435","name:left:az":"Bryansk vilay\u0259ti","name:right:ko":"\uc218\ubbf8 \uc8fc","name:right:bg":"\u0421\u0443\u043c\u0441\u043a\u0430 \u043e\u0431\u043b\u0430\u0441\u0442","name:right:sv":"Sumy oblast","name:right:tr":"Sumi Oblast\u0131","name:right:ru":"\u0421\u0443\u043c\u0441\u043a\u0430\u044f \u043e\u0431\u043b\u0430\u0441\u0442\u044c","name:right:pl":"Obw\u00f3d sumski","osm_relation":true,"name:right:de":"Oblast Sumy","name:left:de":"Oblast Brjansk","name:right:ga":"C\u00faige Shumy"},"arcs":[3]},{"type":"MultiLineString","properties":{"name:right:hy":"\u0549\u0565\u057c\u0576\u056b\u0563\u0578\u057e\u056b \u0574\u0561\u0580\u0566","name:right:no":"Tsjernihiv oblast","name:right:hr":"\u010cernigivska oblast","name:right:hu":"Csernyihivi ter\u00fclet","name:left:sr":"\u0411\u0440\u0458\u0430\u043d\u0441\u043a\u0430 \u043e\u0431\u043b\u0430\u0441\u0442","name:right:lt":"\u010cernigovo sritis","min_zoom":8.0,"name:left:lt":"Briansko sritis","name:left:sh":"Brjanska oblast","name:left:lv":"Brjanskas apgabals","name:left:hu":"Brjanszki ter\u00fclet","name:right:he":"\u05de\u05d7\u05d5\u05d6 \u05e6'\u05e8\u05e0\u05d9\u05d4\u05d9\u05d1","name:right:os":"\u0427\u0435\u0440\u043d\u0438\u0433\u043e\u0432\u044b \u043e\u0431\u043b\u00e6\u0441\u0442","sort_rank":256,"name:left:ca":"Prov\u00edncia de Briansk","name:right:sk":"\u010cernihivsk\u00e1 oblas\u0165","source":"openstreetmap.org","name:right:ar":"\u062a\u0634\u0631\u0646\u064a\u0647\u064a\u0641 \u0623\u0648\u0628\u0644\u0627\u0633\u062a","name:left:cs":"Brjansk\u00e1 oblast","name:left":"\u0411\u0440\u044f\u043d\u0441\u043a\u0430\u044f \u043e\u0431\u043b\u0430\u0441\u0442\u044c","name:right:mk":"\u0427\u0435\u0440\u043d\u0438\u0433\u043e\u0432\u0441\u043a\u0430 \u043e\u0431\u043b\u0430\u0441\u0442","name:left:ka":"\u10d1\u10e0\u10d8\u10d0\u10dc\u10e1\u10d9\u10d8\u10e1 \u10dd\u10da\u10e5\u10d8","name:right:eu":"Txernihiveko oblasta","name:right:et":"T\u0161ernigivi oblast","name:left:os":"\u0411\u0440\u044f\u043d\u0441\u0447\u044b \u043e\u0431\u043b\u00e6\u0441\u0442","name:right:it":"Oblast' di \u010cernihiv","name:left:ro":"Regiunea Briansk","name:right:vi":"Chernihiv (t\u1ec9nh)","name:left:kv":"\u0411\u0440\u044f\u043d\u0441\u043a \u043e\u0431\u043b\u0430\u0441\u044c\u0442","name:right:ro":"Regiunea Cernig\u0103u","name:right:mr":"\u091a\u0947\u0930\u094d\u0928\u093f\u0939\u093f\u0935\u094d\u0939 \u0913\u092c\u094d\u0932\u093e\u0938\u094d\u0924","name:right:id":"Oblast Chernihiv","name:right:eo":"\u0108ernihiva provinco","name:right:en":"Chernihiv Oblast","kind":"region","name":"\u0411\u0440\u044f\u043d\u0441\u043a\u0430\u044f \u043e\u0431\u043b\u0430\u0441\u0442\u044c - \u0427\u0435\u0440\u043d\u0456\u0433\u0456\u0432\u0441\u044c\u043a\u0430 \u043e\u0431\u043b\u0430\u0441\u0442\u044c","name:right:fa":"\u0627\u0633\u062a\u0627\u0646 \u0686\u0631\u0646\u06cc\u0647\u06cc\u0648","name:right:lv":"\u010cer\u0146igovas apgabals","name:right:be":"\u0427\u0430\u0440\u043d\u0456\u0433\u0430\u045e\u0441\u043a\u0430\u044f \u0432\u043e\u0431\u043b\u0430\u0441\u0446\u044c","name:left:zh":"\u5e03\u826f\u65af\u514b\u5dde","name:left:fr":"Oblast de Briansk","name:right:zh":"\u5207\u723e\u5c3c\u6208\u592b\u5dde","name:left:hy":"\u0532\u0580\u0575\u0561\u0576\u057d\u056f\u056b \u0574\u0561\u0580\u0566","name:right:nn":"Tsjernihiv oblast","name:right:es":"\u00d3blast de Chernihiv","name:right:nl":"Oblast Tsjernihiv","name:right:ja":"\u30c1\u30a7\u30eb\u30cb\u30fc\u30d2\u30a6\u5dde","name:right:fr":"Oblast de Tchernihiv","name:left:ja":"\u30d6\u30ea\u30e3\u30f3\u30b9\u30af\u5dde","id:right":-71249,"name:left:uk":"\u0411\u0440\u044f\u043d\u0441\u044c\u043a\u0430 \u043e\u0431\u043b\u0430\u0441\u0442\u044c","name:right:sh":"\u010cernigivska oblast","name:left:nl":"Oblast Brjansk","name:left:ba":"\u0411\u0440\u044f\u043d\u0441\u043a \u04e9\u043b\u043a\u04d9\u04bb\u0435","name:left:be":"\u0411\u0440\u0430\u043d\u0441\u043a\u0430\u044f \u0432\u043e\u0431\u043b\u0430\u0441\u0446\u044c","id":-81997,"name:right":"\u0427\u0435\u0440\u043d\u0456\u0433\u0456\u0432\u0441\u044c\u043a\u0430 \u043e\u0431\u043b\u0430\u0441\u0442\u044c","name:left:en":"Bryansk Oblast","name:left:el":"\u03a0\u03b5\u03c1\u03b9\u03c6\u03ad\u03c1\u03b5\u03b9\u03b1 \u039c\u03c0\u03c1\u03b9\u03ac\u03bd\u03c3\u03ba","name:right:ca":"Prov\u00edncia de Txern\u00edhiv","kind_detail":"4","alt_name:right:ro":"Regiunea Cernigov","id:left":-81997,"name:left:es":"\u00d3blast de Briansk","name:right:cs":"\u010cernihovsk\u00e1 oblast","name:right:fi":"T\u0161ernihivin alue","name:left:eu":"Briansk oblasta","name:left:et":"Brjanski oblast","name:right:ka":"\u10e9\u10d4\u10e0\u10dc\u10d8\u10d2\u10dd\u10d5\u10d8\u10e1 \u10dd\u10da\u10e5\u10d8","name:right:zh-min-nan":"Chernigiv s\u00e9ng","name:right:pt":"Oblast de Chernigov","name:left:ar":"\u0623\u0648\u0628\u0644\u0627\u0633\u062a \u0628\u0631\u064a\u0627\u0646\u0633\u0643","name:left:pl":"Obw\u00f3d bria\u0144ski","name:left:tr":"Bryansk Oblast\u0131","name:left:tt":"\u0411\u0440\u044f\u043d\u0441\u043a \u04e9\u043b\u043a\u04d9\u0441\u0435","name:left:az":"Bryansk vilay\u0259ti","name:right:ko":"\uccb4\ub974\ub2c8\ud788\uc6b0 \uc8fc","name:right:bg":"\u0427\u0435\u0440\u043d\u0438\u0433\u043e\u0432\u0441\u043a\u0430 \u043e\u0431\u043b\u0430\u0441\u0442","name:right:sv":"Tjernihiv oblast","name:right:tr":"\u00c7ernigov Oblast\u0131","name:right:ru":"\u0427\u0435\u0440\u043d\u0438\u0433\u043e\u0432\u0441\u043a\u0430\u044f \u043e\u0431\u043b\u0430\u0441\u0442\u044c","name:right:pl":"Obw\u00f3d czernihowski","osm_relation":true,"name:right:de":"Oblast Tschernihiw","name:left:de":"Oblast Brjansk"},"arcs":[[4],[5],[6]]},{"type":"LineString","properties":{"name:right:hy":"\u0549\u0565\u057c\u0576\u056b\u0563\u0578\u057e\u056b \u0574\u0561\u0580\u0566","name:right:no":"Tsjernihiv oblast","name:right:hr":"\u010cernigivska oblast","name:left:sv":"Sumy oblast","name:right:hu":"Csernyihivi ter\u00fclet","name:left:sr":"\u0421\u0443\u043c\u0441\u043a\u0430 \u043e\u0431\u043b\u0430\u0441\u0442","name:right:lt":"\u010cernigovo sritis","name:right:lv":"\u010cer\u0146igovas apgabals","name:left:lt":"Sum\u0173 sritis","name:left:sh":"Sumska oblast","name:left:sk":"Sumsk\u00e1 oblas\u0165","name:left:hu":"Szumi ter\u00fclet","name:right:he":"\u05de\u05d7\u05d5\u05d6 \u05e6'\u05e8\u05e0\u05d9\u05d4\u05d9\u05d1","name:left:hr":"Sumska oblast","name:left:ga":"C\u00faige Shumy","name:right:vi":"Chernihiv (t\u1ec9nh)","sort_rank":256,"name:left:ca":"Prov\u00edncia de Sumy","source":"openstreetmap.org","name:right:ar":"\u062a\u0634\u0631\u0646\u064a\u0647\u064a\u0641 \u0623\u0648\u0628\u0644\u0627\u0633\u062a","name:left:cs":"Sumsk\u00e1 oblast","name:left":"\u0421\u0443\u043c\u0441\u044c\u043a\u0430 \u043e\u0431\u043b\u0430\u0441\u0442\u044c","name:right:es":"\u00d3blast de Chernihiv","name:right:sh":"\u010cernigivska oblast","name:left:ka":"\u10e1\u10e3\u10db\u10d8\u10e1 \u10dd\u10da\u10e5\u10d8","name:right:eu":"Txernihiveko oblasta","name:right:et":"T\u0161ernigivi oblast","name:left:ko":"\uc218\ubbf8 \uc8fc","name:right:it":"Oblast' di \u010cernihiv","name:left:ro":"Regiunea Sum\u00ee","name:right:ru":"\u0427\u0435\u0440\u043d\u0438\u0433\u043e\u0432\u0441\u043a\u0430\u044f \u043e\u0431\u043b\u0430\u0441\u0442\u044c","name:right:ro":"Regiunea Cernig\u0103u","name:left:ru":"\u0421\u0443\u043c\u0441\u043a\u0430\u044f \u043e\u0431\u043b\u0430\u0441\u0442\u044c","name:right:mr":"\u091a\u0947\u0930\u094d\u0928\u093f\u0939\u093f\u0935\u094d\u0939 \u0913\u092c\u094d\u0932\u093e\u0938\u094d\u0924","name:right:id":"Oblast Chernihiv","name:right:eo":"\u0108ernihiva provinco","name:right:en":"Chernihiv Oblast","name:left:vi":"Sumi (t\u1ec9nh)","kind":"region","name":"\u0421\u0443\u043c\u0441\u044c\u043a\u0430 \u043e\u0431\u043b\u0430\u0441\u0442\u044c - \u0427\u0435\u0440\u043d\u0456\u0433\u0456\u0432\u0441\u044c\u043a\u0430 \u043e\u0431\u043b\u0430\u0441\u0442\u044c","name:left:fa":"\u0627\u0633\u062a\u0627\u0646 \u0633\u0648\u0645\u06cc","name:right:fa":"\u0627\u0633\u062a\u0627\u0646 \u0686\u0631\u0646\u06cc\u0647\u06cc\u0648","min_zoom":8.0,"name:right:be":"\u0427\u0430\u0440\u043d\u0456\u0433\u0430\u045e\u0441\u043a\u0430\u044f \u0432\u043e\u0431\u043b\u0430\u0441\u0446\u044c","name:left:zh":"\u8607\u6885\u5dde","name:left:fr":"Oblast de Soumy","name:right:zh":"\u5207\u723e\u5c3c\u6208\u592b\u5dde","name:left:hy":"\u054d\u0578\u0582\u0574\u056b\u056b \u0574\u0561\u0580\u0566","name:right:nn":"Tsjernihiv oblast","name:right:mk":"\u0427\u0435\u0440\u043d\u0438\u0433\u043e\u0432\u0441\u043a\u0430 \u043e\u0431\u043b\u0430\u0441\u0442","name:right:nl":"Oblast Tsjernihiv","name:right:ja":"\u30c1\u30a7\u30eb\u30cb\u30fc\u30d2\u30a6\u5dde","name:right:fr":"Oblast de Tchernihiv","name:left:lv":"Sumu apgabals","name:left:ja":"\u30b9\u30fc\u30e0\u30a3\u5dde","id:right":-71249,"name:left:nn":"Sumy oblast","name:left:no":"Sumy oblast","name:right:sk":"\u010cernihivsk\u00e1 oblas\u0165","name:left:bg":"\u0421\u0443\u043c\u0441\u043a\u0430 \u043e\u0431\u043b\u0430\u0441\u0442","name:left:be":"\u0421\u0443\u043c\u0441\u043a\u0430\u044f \u0432\u043e\u0431\u043b\u0430\u0441\u0446\u044c","name:left:fi":"Sumyn alue","id":-71250,"name:right:fi":"T\u0161ernihivin alue","name:left:eo":"Sumia provinco","name:left:en":"Sumy Oblast","name:right:ca":"Prov\u00edncia de Txern\u00edhiv","kind_detail":"4","name:left:mk":"\u0421\u0443\u043c\u0441\u043a\u0430 \u043e\u0431\u043b\u0430\u0441\u0442","alt_name:right:ro":"Regiunea Cernigov","name:left:nl":"Oblast Soemy","id:left":-71250,"name:left:es":"\u00d3blast de Sumy","name:right:cs":"\u010cernihovsk\u00e1 oblast","name:right":"\u0427\u0435\u0440\u043d\u0456\u0433\u0456\u0432\u0441\u044c\u043a\u0430 \u043e\u0431\u043b\u0430\u0441\u0442\u044c","name:left:os":"\u0421\u0443\u043c\u044b\u0439\u044b \u043e\u0431\u043b\u00e6\u0441\u0442","name:left:eu":"Sumyko oblasta","name:left:et":"Sum\u00f5 oblast","name:right:ka":"\u10e9\u10d4\u10e0\u10dc\u10d8\u10d2\u10dd\u10d5\u10d8\u10e1 \u10dd\u10da\u10e5\u10d8","name:right:zh-min-nan":"Chernigiv s\u00e9ng","name:right:pt":"Oblast de Chernigov","name:left:ar":"\u0633\u0648\u0645\u064a \u0623\u0648\u0628\u0644\u0627\u0633\u062a","name:left:pl":"Obw\u00f3d sumski","name:left:tr":"Sumi Oblast\u0131","name:left:id":"Oblast Sumy","name:right:tr":"\u00c7ernigov Oblast\u0131","name:right:bg":"\u0427\u0435\u0440\u043d\u0438\u0433\u043e\u0432\u0441\u043a\u0430 \u043e\u0431\u043b\u0430\u0441\u0442","name:left:pt":"Oblast de Sumi","name:left:mr":"\u0938\u0941\u092e\u0940 \u0913\u092c\u094d\u0932\u093e\u0938\u094d\u0924","name:right:sv":"Tjernihiv oblast","name:right:ko":"\uccb4\ub974\ub2c8\ud788\uc6b0 \uc8fc","name:left:zh-min-nan":"Sumy s\u00e9ng","name:left:it":"Oblast' di Sumy","name:right:pl":"Obw\u00f3d czernihowski","osm_relation":true,"name:right:de":"Oblast Tschernihiw","name:left:de":"Oblast Sumy","name:right:os":"\u0427\u0435\u0440\u043d\u0438\u0433\u043e\u0432\u044b \u043e\u0431\u043b\u00e6\u0441\u0442"},"arcs":[7]}]},"roads":{"type":"GeometryCollection","geometries":[{"type":"LineString","properties":{"kind":"major_road","network":"ua:regional","sort_rank":380,"kind_detail":"primary","old_name:ru":"\u041a\u0438\u0440\u043e\u0432\u0430 \u0443\u043b\u0438\u0446\u0430","source":"openstreetmap.org","min_zoom":8.0,"old_name":"\u041a\u0456\u0440\u043e\u0432\u0430 \u0432\u0443\u043b\u0438\u0446\u044f","shield_text":"65","name:ru":"\u0427\u0435\u0440\u043d\u0438\u0433\u043e\u0432\u0441\u043a\u0430\u044f \u0443\u043b\u0438\u0446\u0430","landuse_kind":"urban_area","ref":"\u0420-65","id":160965906},"arcs":[14]},{"type":"MultiLineString","properties":{"kind":"major_road","network":"ua:regional","sort_rank":380,"kind_detail":"primary","source":"openstreetmap.org","min_zoom":8.0,"shield_text":"12","ref":"\u0420-12"},"arcs":[[15],[16],[17],[18],[19],[20],[21],[22]]},{"type":"LineString","properties":{"kind":"major_road","name:en":"Chervonoflotska Street","network":"ua:regional","sort_rank":380,"kind_detail":"primary","source":"openstreetmap.org","min_zoom":8.0,"shield_text":"65","name:ru":"\u0421\u043a\u043e\u0440\u043e\u043f\u0430\u0434\u0441\u044c\u043a\u043e\u0433\u043e \u0443\u043b\u0438\u0446\u0430","ref":"\u0420-65","id":230060525},"arcs":[23]},{"type":"MultiLineString","properties":{"source":"openstreetmap.org","kind":"major_road","sort_rank":380,"kind_detail":"primary","ref":"\u0420-65","min_zoom":8.0},"arcs":[[24],[25]]},{"type":"LineString","properties":{"kind":"major_road","network":"ua:regional","sort_rank":380,"kind_detail":"primary","source":"openstreetmap.org","min_zoom":8.0,"shield_text":"12","ref":"\u0420-12;\u0420-65"},"arcs":[26]},{"type":"MultiLineString","properties":{"kind":"major_road","network":"ua:regional","sort_rank":380,"kind_detail":"primary","source":"openstreetmap.org","min_zoom":8.0,"shield_text":"65","ref":"\u0420-65"},"arcs":[[27],[28],[29],[30],[31],[32]]},{"type":"LineString","properties":{"kind":"major_road","network":"ua:regional","sort_rank":380,"kind_detail":"primary","source":"openstreetmap.org","min_zoom":8.0,"landuse_kind":"urban_area","shield_text":"65","name:ru":"\u0428\u0435\u0432\u0447\u0435\u043d\u043a\u043e \u0443\u043b\u0438\u0446\u0430","ref":"\u0420-65","id":230060528},"arcs":[33]},{"type":"LineString","properties":{"kind":"major_road","network":"e-road","sort_rank":381,"kind_detail":"trunk","source":"openstreetmap.org","min_zoom":8.0,"shield_text":"101","ref":"\u041c-02"},"arcs":[34]},{"type":"LineString","properties":{"sort_rank":380,"kind_detail":"primary","min_zoom":8.0,"kind":"major_road","source":"openstreetmap.org"},"arcs":[35]},{"type":"LineString","properties":{"kind":"major_road","network":"ua:regional","sort_rank":380,"kind_detail":"primary","source":"openstreetmap.org","min_zoom":8.0,"landuse_kind":"urban_area","shield_text":"65","name:ru":"\u041f\u0440\u0438\u0432\u043e\u043a\u0437\u0430\u043b\u044c\u043d\u0430\u044f \u0443\u043b\u0438\u0446\u0430","ref":"\u0420-65","id":230060509},"arcs":[36]},{"type":"MultiLineString","properties":{"kind":"major_road","network":"ua:regional","sort_rank":380,"kind_detail":"primary","source":"openstreetmap.org","min_zoom":8.0,"landuse_kind":"urban_area","shield_text":"65","name:ru":"\u041a\u043e\u0436\u0435\u0434\u0443\u0431\u0430 \u0443\u043b\u0438\u0446\u0430","ref":"\u0420-65"},"arcs":[[37],[38],[39]]},{"type":"LineString","properties":{"kind":"major_road","network":"ua:regional","sort_rank":380,"kind_detail":"primary","source":"openstreetmap.org","min_zoom":8.0,"shield_text":"12","name:ru":"\u0412\u043e\u043a\u0437\u0430\u043b\u044c\u043d\u0430\u044f \u0443\u043b\u0438\u0446\u0430","ref":"\u0420-12;\u0420-65"},"arcs":[40]},{"type":"MultiLineString","properties":{"kind":"major_road","network":"ru:regional","sort_rank":380,"kind_detail":"primary","source":"openstreetmap.org","min_zoom":8.0,"shield_text":"15\u041a","ref":"15\u041a-1901"},"arcs":[[41],[42],[43]]},{"type":"LineString","properties":{"kind":"major_road","network":"ua:regional","sort_rank":380,"kind_detail":"primary","source":"openstreetmap.org","min_zoom":8.0,"shield_text":"65","name:ru":"\u041a\u0440\u0430\u0441\u043d\u0430\u044f \u043f\u043b\u043e\u0449\u0430\u0434\u044c","ref":"\u0420-65"},"arcs":[44]},{"type":"LineString","properties":{"kind":"major_road","network":"ua:regional","sort_rank":380,"kind_detail":"primary","source":"openstreetmap.org","min_zoom":8.0,"shield_text":"65","name:ru":"\u0428\u043a\u043e\u043b\u044c\u043d\u0430\u044f \u0443\u043b\u0438\u0446\u0430","ref":"\u0420-65","id":230060510},"arcs":[45]},{"type":"LineString","properties":{"kind":"major_road","name:en":"6-i Hvardiiskoi dyvizii Street","network":"ua:regional","sort_rank":380,"kind_detail":"primary","source":"openstreetmap.org","min_zoom":8.0,"shield_text":"65","name:ru":"6-\u0439 \u0413\u0432\u0430\u0440\u0434\u0435\u0439\u0441\u043a\u043e\u0439 \u0434\u0438\u0432\u0438\u0437\u0438\u0438 \u0443\u043b\u0438\u0446\u0430","ref":"\u0420-65"},"arcs":[46]},{"type":"LineString","properties":{"kind":"major_road","network":"ua:regional","sort_rank":380,"kind_detail":"primary","source":"openstreetmap.org","min_zoom":8.0,"landuse_kind":"urban_area","shield_text":"65","name:ru":"\u0420\u0430\u0431\u043e\u0447\u0430\u044f \u0443\u043b\u0438\u0446\u0430","ref":"\u0420-65","id":230060516},"arcs":[47]},{"type":"LineString","properties":{"kind":"major_road","network":"ua:regional","sort_rank":380,"kind_detail":"primary","source":"openstreetmap.org","min_zoom":8.0,"shield_text":"65","name:ru":"\u0426\u0435\u043d\u0442\u0440\u0430\u043b\u044c\u043d\u0430\u044f \u0443\u043b\u0438\u0446\u0430","ref":"\u0420-65","id":288764146},"arcs":[48]},{"type":"LineString","properties":{"kind":"major_road","network":"ua:regional","sort_rank":380,"kind_detail":"primary","source":"openstreetmap.org","min_zoom":8.0,"shield_text":"65","name:ru":"\u0427\u0435\u0445\u043e\u0432\u0430 \u0443\u043b\u0438\u0446\u0430","ref":"\u0420-65","id":230060527},"arcs":[49]},{"type":"LineString","properties":{"kind":"major_road","network":"ua:regional","sort_rank":380,"kind_detail":"primary","source":"openstreetmap.org","min_zoom":8.0,"shield_text":"65","name:ru":"\u0411\u043e\u0433\u0434\u0430\u043d\u0430 \u0425\u043c\u0435\u043b\u044c\u043d\u0438\u0446\u043a\u043e\u0433\u043e \u0443\u043b\u0438\u0446\u0430","ref":"\u0420-65","id":288764167},"arcs":[50]},{"type":"LineString","properties":{"kind":"major_road","name:en":"Shliakh Street","network":"ua:regional","sort_rank":380,"kind_detail":"primary","source":"openstreetmap.org","min_zoom":8.0,"alt_name:en":"Trail Street","shield_text":"12","ref":"\u0420-12","id":235485148},"arcs":[51]},{"type":"MultiLineString","properties":{"kind":"major_road","network":"ua:regional","sort_rank":380,"kind_detail":"primary","source":"openstreetmap.org","min_zoom":8.0,"landuse_kind":"urban_area","shield_text":"65","ref":"\u0420-65"},"arcs":[[52],[53]]},{"type":"MultiLineString","properties":{"source":"openstreetmap.org","kind":"major_road","sort_rank":380,"kind_detail":"primary","ref":"\u0420-12","min_zoom":8.0},"arcs":[[54],[55]]},{"type":"LineString","properties":{"kind":"major_road","network":"ua:regional","sort_rank":380,"kind_detail":"primary","source":"openstreetmap.org","min_zoom":8.0,"shield_text":"12","name:ru":"\u0414\u043e\u0432\u0436\u0435\u043d\u043a\u043e \u0443\u043b\u0438\u0446\u0430","ref":"\u0420-12","id":276696336},"arcs":[56]},{"type":"LineString","properties":{"kind":"major_road","network":"ua:regional","sort_rank":380,"kind_detail":"primary","source":"openstreetmap.org","min_zoom":8.0,"landuse_kind":"residential","shield_text":"12","ref":"\u0420-12"},"arcs":[57]},{"type":"LineString","properties":{"kind":"major_road","name:en":"Shevchenka Street","network":"ua:regional","sort_rank":380,"kind_detail":"primary","source":"openstreetmap.org","min_zoom":8.0,"shield_text":"65","name:ru":"\u0428\u0435\u0432\u0447\u0435\u043d\u043a\u043e \u0443\u043b\u0438\u0446\u0430","ref":"\u0420-65","id":341326380},"arcs":[58]},{"type":"LineString","properties":{"kind":"major_road","name:en":"Onupriyenka Street","network":"ua:regional","sort_rank":380,"landuse_kind":"urban_area","source":"openstreetmap.org","min_zoom":8.0,"kind_detail":"primary","shield_text":"65","name:ru":"\u041e\u043d\u0443\u043f\u0440\u0438\u0435\u043d\u043a\u043e \u0443\u043b\u0438\u0446\u0430","ref":"\u0420-65"},"arcs":[59]},{"type":"LineString","properties":{"kind":"major_road","network":"ru:regional","sort_rank":380,"kind_detail":"primary","source":"openstreetmap.org","min_zoom":8.0,"shield_text":"15\u041a","ref":"15\u041a-1902;15\u041a-1901","id":58769317},"arcs":[60]}]},"earth":{"type":"GeometryCollection","geometries":[{"type":"Polygon","properties":{"sort_rank":10,"source":"naturalearthdata.com","kind":"earth","min_zoom":0.0,"id":4755},"arcs":[[61]]}]},"landuse":{"type":"GeometryCollection","geometries":[{"type":"Polygon","properties":{"kind":"national_park","protect_class":"2","area":883366016,"sort_rank":18,"source":"openstreetmap.org","min_zoom":3.0,"tier":1,"id":-4271408,"osm_relation":true},"arcs":[[62]]},{"type":"Polygon","properties":{"kind":"residential","area":46843500,"sort_rank":20,"source":"openstreetmap.org","min_zoom":8.0,"tier":2,"id":-3369810,"osm_relation":true},"arcs":[[63]]},{"type":"Polygon","properties":{"kind":"residential","name":"\u0414\u0443\u0431\u043e\u0432\u0438\u0447\u0456","area":12559100,"sort_rank":20,"source":"openstreetmap.org","min_zoom":8.0,"tier":2,"id":-4511404,"osm_relation":true},"arcs":[[64]]},{"type":"Polygon","properties":{"kind":"residential","name":"\u0412\u043e\u0440\u043e\u043d\u043e\u043a","area":17114100,"sort_rank":20,"source":"openstreetmap.org","min_zoom":8.0,"tier":2,"id":161855695},"arcs":[[65]]},{"type":"MultiPolygon","properties":{"source":"naturalearthdata.com","kind":"urban_area","name":"","area":952781617,"sort_rank":11,"min_zoom":4.0},"arcs":[[[66]],[[67]]]},{"type":"MultiPolygon","properties":{"kind":"national_park","protect_class":"2","area":323419587,"sort_rank":18,"source":"openstreetmap.org","min_zoom":5.0,"tier":1,"osm_relation":true},"arcs":[[[68]],[[69]]]},{"type":"MultiPolygon","properties":{"source":"openstreetmap.org","kind":"residential","tier":2,"area":57906389,"sort_rank":20,"min_zoom":8.0},"arcs":[[[70]]]},{"type":"MultiPolygon","properties":{"kind":"nature_reserve","protect_class":"4","area":53250201,"sort_rank":23,"source":"openstreetmap.org","min_zoom":8.0,"tier":2,"osm_relation":true},"arcs":[[[71]],[[72]]]},{"type":"Polygon","properties":{"kind":"residential","name":"\u041e\u0431\u0442\u043e\u0432\u0435","area":19009600,"sort_rank":20,"source":"openstreetmap.org","min_zoom":8.0,"tier":2,"id":-4551782,"osm_relation":true},"arcs":[[73]]}]}},"type":"Topology","transform":{"translate":[32.34375,51.6180165488],"scale":[0.0003433228,0.0002111239]},"arcs":[[[4096,3512],[-67,-29],[-33,45],[-97,-27],[-6,-44],[-64,-38],[-154,-30],[-83,-73],[14,-34],[-110,60],[58,-49],[-10,-54],[-162,20],[-65,36],[21,75],[65,20],[24,46],[-5,53],[-26,17],[-34,-15],[-127,47],[-7,-37],[-37,-20],[22,-49],[-98,33],[10,52],[-41,-3],[13,33],[-77,23],[-86,-88],[-109,8],[-21,-22],[-287,120],[-34,-9],[-22,26],[0,-28],[-55,-2],[-1,-151],[-39,-12],[-64,31],[-49,-76],[-146,-124],[-19,35],[7,25],[32,-3],[-1,44],[-40,26],[-3,-53],[-41,-23],[0,-30],[-139,-90],[-4,-77],[-100,6],[-159,-129],[-56,-4],[-25,65],[16,69],[-150,23],[-46,-91],[-52,30],[-106,-47],[-19,54],[-89,-50],[-26,11],[-48,-51],[-45,88],[-225,181],[-89,-21],[-79,127],[-141,2],[-35,-62],[-87,59],[-76,-22],[-95,75],[-20,-20],[-51,17],[-63,-47],[-9,-53],[53,-195],[72,15],[-35,-40],[54,-112],[-118,-37],[-41,28],[-9,-13]],[[0,2701],[9,-27],[-9,-8]],[[0,2547],[63,-2],[7,-42],[-22,-31],[-48,2]],[[3160,3447],[53,-15],[-22,49],[37,20],[7,37],[127,-47],[34,15],[26,-17],[5,-53],[-24,-46],[-65,-20],[-21,-75],[65,-36],[162,-20],[10,54],[-58,49],[110,-60],[-14,34],[83,73],[154,30],[64,38],[6,44],[97,27],[33,-45],[67,29]],[[0,2474],[48,-2],[22,31],[-7,42],[-63,2]],[[0,2666],[9,8],[-9,27]],[[0,2953],[9,13],[41,-28],[118,37],[-54,112],[35,40],[-72,-15],[-53,195],[9,53],[63,47],[51,-17],[20,20],[95,-75],[76,22],[87,-59],[35,62],[141,-2],[79,-127],[89,21],[225,-181],[45,-88],[48,51],[26,-11],[89,50],[19,-54],[106,47],[52,-30],[46,91],[150,-23],[-16,-69],[25,-65],[56,4],[159,129],[100,-6],[4,77],[139,90],[0,30],[41,23],[3,53],[40,-26],[1,-44],[-32,3],[-7,-25],[19,-35],[146,124],[49,76],[64,-31],[39,12],[1,151],[55,2],[0,28],[22,-26],[34,9],[287,-120],[21,22],[109,-8],[28,50],[27,-10],[10,41],[65,-1],[33,-15],[-13,-33],[41,3],[-10,-52],[45,-18]],[[3160,3447],[-81,-153],[-39,13],[40,-76],[-41,-17],[19,-26],[-24,-9],[5,-49],[-29,-15],[28,-20],[-18,-33],[-47,-43],[-19,14],[25,-119],[-40,-60],[-63,-27],[-21,32],[-26,-30],[32,-15],[16,-51],[-60,-80],[76,-106],[-42,-125],[59,-3],[-40,31],[45,16],[210,-105],[-19,-33],[68,-30],[33,-57],[-19,-46],[153,-23],[26,30],[1,-241],[-103,1],[-105,-61],[-53,37],[-24,85],[-107,-55],[-30,-44],[-111,6],[3,-68],[-35,0],[-5,-22],[130,-66],[3,-71],[60,-22],[4,-41],[35,6],[30,-82],[-67,-8],[-55,-108],[-62,-2],[-43,34],[-58,-11],[-26,-55],[-72,-17],[-31,33],[-7,-43],[-32,-6],[-11,-31],[-43,18],[2,-39],[-22,38],[-75,-2],[-10,-44],[-37,-7],[25,-75],[-104,-39],[-31,-30],[2,-42],[-32,5],[25,-35],[-27,-53],[19,5],[-1,-53],[46,-31],[6,-57],[-72,-27],[-62,-102],[5,-33],[-35,15],[-32,-57],[16,-20],[20,26],[23,-121],[118,-111],[-16,-16],[60,-89],[44,-17],[-16,-38],[-61,-3],[9,-36],[55,-13],[-73,-11],[18,-43],[-57,-70],[-4,-46],[36,-24],[46,10],[0,-113]],[[3094,0],[113,154],[21,314],[15,43],[29,104],[2,7],[2,5],[11,25],[7,15],[2,4],[35,43],[10,11],[390,355],[130,101],[235,219]],[[3271,612],[107,147]],[[3521,887],[184,166]],[[3094,0],[113,154],[21,314],[67,201],[801,731]],[[3094,0],[113,154],[21,314],[68,203],[800,729]],[[3094,0],[113,154],[21,314],[68,203],[800,729]],[[3288,1167],[-41,13]],[[592,253],[-40,-253]],[[788,428],[-152,-102]],[[2437,1868],[-228,-143],[-89,-105],[-35,-99],[-100,-88],[-288,-154],[-100,-124],[29,-126],[-30,-138],[-86,-90],[-186,-54],[-237,-125],[-88,-7],[-182,-125],[-20,-55]],[[2435,1860],[8,-1]],[[2656,3434],[73,-256],[-13,-399],[-15,-93],[-79,-108],[-84,-188],[-26,-100],[5,-228],[-80,-194]],[[2619,3552],[4,-9]],[[2623,3543],[4,-9]],[[2627,3534],[28,-100]],[[3500,1071],[-68,24]],[[863,3158],[-3,4]],[[863,3158],[-2,4]],[[2605,1779],[-168,89]],[[859,3167],[43,-73],[-18,-114],[-59,-54],[-105,-179]],[[726,2624],[340,-149],[68,-132],[132,-68],[50,-72],[39,47],[161,-199],[188,85],[186,-42],[91,-88],[110,-22],[143,-74],[203,-42]],[[3196,1170],[-60,-20],[-107,22],[-95,57],[-68,96],[-103,38],[-52,79],[-17,289]],[[3363,1130],[0,-1]],[[3366,1131],[-1,0]],[[4096,838],[-160,103],[-308,109],[-128,21]],[[3247,1180],[-19,1]],[[4096,269],[-396,-269]],[[2593,3999],[-1,3]],[[3326,1133],[-41,23]],[[3285,1156],[4,10]],[[3289,1167],[-1,0],[1,-1]],[[3289,1166],[0,1]],[[2605,1779],[80,13]],[[2614,3566],[-28,100],[34,112],[-54,103],[27,118]],[[2614,3566],[5,-13]],[[2619,3552],[0,1]],[[684,2659],[9,-20]],[[3432,1095],[-4,16]],[[3363,1129],[21,11]],[[3352,1146],[-26,-13]],[[693,2639],[33,-15]],[[3428,1111],[-44,29]],[[720,2747],[-36,-88]],[[636,326],[-44,-73]],[[3228,1181],[-32,-11]],[[3365,1131],[-2,-1]],[[2623,3542],[2,-5]],[[2626,3537],[-3,6]],[[797,435],[-9,-7]],[[2655,3434],[1,0]],[[2685,1792],[9,-61]],[[3363,1131],[-11,15]],[[2592,4002],[-35,94]],[[0,4096],[4096,0],[0,-4096],[-4096,0],[0,4096]],[[1476,316],[21,109],[41,92],[55,47],[23,113],[74,55],[80,-27],[111,48],[44,181],[27,-16],[110,153],[95,58],[66,-18],[20,-115],[78,24],[15,-87],[-69,-21],[-62,-102],[5,-33],[-35,15],[-35,-45],[19,-32],[20,26],[23,-121],[118,-111],[-16,-16],[60,-89],[44,-17],[-16,-38],[-61,-3],[9,-36],[55,-13],[-70,-9],[-58,-102],[-166,-93],[-116,-93],[-257,0],[-34,40],[32,77],[-66,70],[-155,73],[-29,56]],[[3136,695],[21,47],[56,9],[19,53],[42,-2],[-1,72],[43,29],[41,-128],[41,23],[-57,-75],[40,-80],[-61,-12],[13,-66],[-19,76],[-42,44],[-16,5],[4,-36],[-61,-1],[-2,24],[-44,-24],[-17,42]],[[3501,46],[57,34],[-1,93],[54,-76],[45,11],[-23,-30],[14,-48],[-41,28],[-51,-36],[-54,24]],[[850,3531],[0,22],[34,-5],[31,36],[91,-2],[-2,-21],[39,-8],[-29,-12],[-19,-53],[-58,19],[-11,-24],[-76,48]],[[3083,0],[-105,0],[12,22],[56,8],[37,-30]],[[3307,1097],[-106,57],[-50,184],[238,28],[86,-28],[-58,-177],[-110,-64]],[[2817,2683],[60,80],[-16,51],[-32,15],[26,30],[21,-32],[63,27],[40,60],[-25,119],[19,-14],[47,43],[18,33],[-28,20],[29,15],[-5,49],[24,9],[-19,26],[41,17],[-40,76],[39,-13],[81,153],[53,-15],[-12,-64],[22,1],[45,141],[-38,-50],[-39,21],[37,20],[7,37],[26,-11],[141,-137],[-64,-20],[-19,-77],[-38,0],[-20,29],[-68,-17],[14,-55],[155,38],[20,-29],[90,-8],[27,-41],[-140,13],[-86,39],[-140,-37],[-34,14],[-56,-141],[21,-128],[136,149],[12,28],[-27,19],[-24,-49],[-29,32],[50,59],[51,-35],[34,18],[29,-85],[-55,22],[-39,-17],[-26,-43],[21,-52],[-69,4],[-50,-76],[-107,-60],[-48,-91],[34,-37],[103,60],[28,-22],[-3,-145],[-111,54],[-89,-59],[-1,-34],[-28,3],[-39,70]],[[3475,3250],[69,-11],[14,37],[-62,66],[110,-60],[-14,34],[83,73],[154,30],[64,38],[6,44],[97,27],[33,-45],[67,29],[0,-261],[-119,3],[-49,-48],[-163,61],[-187,-16],[-18,16],[-14,-28],[-33,-25],[-38,36]],[[2654,3434],[97,41],[19,-71],[68,-75],[-87,-44],[56,53],[-79,42],[-29,58],[-45,-4]],[[2311,879],[32,44],[-9,48],[30,-16],[30,42],[75,-53],[-23,-32],[40,-21],[-34,-49],[-73,54],[-31,-44],[-37,27]],[[2892,1362],[96,-9],[21,-40],[146,-50],[20,-42],[-77,-41],[-89,23],[-117,159]],[[2432,38],[89,38],[-7,45],[19,8],[39,-80],[-13,-49],[-91,0],[-2,16],[-34,22]]]}