{"objects":{"water":{"type":"GeometryCollection","geometries":[{"type":"MultiPolygon","properties":{"source":"naturalearthdata.com","kind":"ocean","area":1576712559132672,"sort_rank":200,"min_zoom":0.0,"id":1},"arcs":[[[17]],[[18]],[[19]]]},{"type":"Polygon","properties":{"kind":"lake","name":"Kakhovka Reservoir","reservoir":true,"area":4480304640,"sort_rank":200,"source":"naturalearthdata.com","min_zoom":0.0,"id":1181},"arcs":[[20]]},{"type":"Polygon","properties":{"kind":"lake","name":"Syvash","area":4842037760,"sort_rank":200,"alkaline":true,"source":"naturalearthdata.com","min_zoom":0.0,"id":1299},"arcs":[[21]]},{"type":"MultiLineString","properties":{"source":"naturalearthdata.com","kind":"ocean","sort_rank":205,"boundary":true,"min_zoom":0.0,"id":50},"arcs":[[22],[23],[24]]},{"type":"MultiLineString","properties":{"source":"naturalearthdata.com","kind":"lake","reservoir":true,"sort_rank":367,"boundary":true,"min_zoom":0.0,"id":1181},"arcs":[[25],[26],[27]]},{"type":"LineString","properties":{"source":"naturalearthdata.com","kind":"lake","sort_rank":367,"alkaline":true,"boundary":true,"min_zoom":0.0,"id":1299},"arcs":[28]}]},"buildings":{"type":"GeometryCollection","geometries":[]},"places":{"type":"GeometryCollection","geometries":[{"type":"Point","properties":{"kind":"region","name:en":"Kherson Oblast","name":"\u0425\u0435\u0440\u0441\u043e\u043d\u0441\u044c\u043a\u0430 \u043e\u0431\u043b\u0430\u0441\u0442\u044c","kind_detail":"state","name:pt":"Oblast de Kherson","name:de":"Oblast Cherson","source":"openstreetmap.org","min_zoom":4.0,"name:eo":"\u0124ersona Provinco","name:fr":"Oblast de Kherson","name:be":"\u0425\u0435\u0440\u0441\u043e\u043d\u0441\u043a\u0430\u044f \u0432\u043e\u0431\u043b\u0430\u0441\u0446\u044c","name:ru":"\u0425\u0435\u0440\u0441\u043e\u043d\u0441\u043a\u0430\u044f \u043e\u0431\u043b\u0430\u0441\u0442\u044c","name:pl":"obw\u00f3d cherso\u0144ski","id":681769596,"name:es":"\u00d3blast de Kherson"},"coordinates":[3100,1986]},{"type":"Point","properties":{"name:lt":"Chersonas","name:eo":"\u0124ersono","min_zoom":8.0,"name:pl":"Cherso\u0144","name:hu":"Herszon","name:hr":"Herson","id":255466573,"population":294941,"kind":"locality","name:en":"Kherson","name":"\u0425\u0435\u0440\u0441\u043e\u043d","kind_detail":"city","name:de":"Cherson","source":"openstreetmap.org","name:fr":"Kherson","name:es":"Jers\u00f3n"},"coordinates":[789,2402]},{"type":"Point","properties":{"kind":"locality","name:en":"Nova Kakhovka","name":"\u041d\u043e\u0432\u0430 \u041a\u0430\u0445\u043e\u0432\u043a\u0430","kind_detail":"town","name:eo":"Nov-Ka\u0125ovka","name:de":"Nowa Kachowka","source":"openstreetmap.org","min_zoom":8.0,"name:ru":"\u041d\u043e\u0432\u0430\u044f \u041a\u0430\u0445\u043e\u0432\u043a\u0430","name:pl":"Nowa Kachowka","name:hu":"Nova Kakhovka","id":337687341,"population":48298},"coordinates":[3001,2888]},{"type":"Point","properties":{"kind":"locality","name:en":"Kakhovka","name":"\u041a\u0430\u0445\u043e\u0432\u043a\u0430","kind_detail":"town","alt_name:pl":"Kachowka","name:de":"Kachowka","source":"openstreetmap.org","min_zoom":8.0,"name:eo":"Ka\u0125ovka","name:pl":"Kach\u00f3wka","name:hu":"Kakhovka","id":337686681,"population":37409},"coordinates":[3315,3102]},{"type":"Point","properties":{"kind":"locality","name:en":"Oleshky","name":"\u041e\u043b\u0435\u0448\u043a\u0438","old_name:pl":"Ciurupi\u0144sk","kind_detail":"town","name:eo":"Ole\u015dki","name:de":"Oleschky","source":"openstreetmap.org","min_zoom":8.0,"old_name:eo":"Cjurupinsk","old_name":"\u0426\u044e\u0440\u0443\u043f\u0438\u043d\u0441\u044c\u043a","name:pl":"Aleszki","id":337688735,"population":25217},"coordinates":[1111,2337]},{"type":"Point","properties":{"name:ro":"Armiansk","name:lt":"Armianskas","name:cs":"Armjansk","min_zoom":8.0,"name:uk":"\u0410\u0440\u043c\u044f\u043d\u0441\u044c\u043a","name:pl":"Armia\u0144sk","id":337692066,"population":22530,"kind":"locality","name:en":"Armyansk","name":"\u0410\u0440\u043c\u044f\u043d\u0441\u043a","kind_detail":"town","name:de":"Armjansk","source":"openstreetmap.org","name:fr":"Armiansk","name:es":"Armiansk"},"coordinates":[3922,170]},{"type":"Point","properties":{"kind":"locality","name:en":"Skadovsk","name":"\u0421\u043a\u0430\u0434\u043e\u0432\u0441\u044c\u043a","kind_detail":"town","name:eo":"Skadovsk","name:de":"Skadowsk","source":"openstreetmap.org","min_zoom":8.0,"name:fr":"Skadovsk","name:ru":"\u0421\u043a\u0430\u0434\u043e\u0432\u0441\u043a","name:pl":"Skadow\u015bk","id":337692021,"population":19073},"coordinates":[1650,200]},{"type":"Point","properties":{"kind":"locality","name:en":"Hola Prystan","name":"\u0413\u043e\u043b\u0430 \u041f\u0440\u0438\u0441\u0442\u0430\u043d\u044c","kind_detail":"town","name:eo":"Hola Pristanj","name:de":"Hola Prystan","source":"openstreetmap.org","min_zoom":8.0,"name:ru":"\u0413\u043e\u043b\u0430\u044f \u041f\u0440\u0438\u0441\u0442\u0430\u043d\u044c","name:pl":"Ho\u0142a Prysta\u0144","id":337689476,"population":14755},"coordinates":[556,1944]},{"type":"Point","properties":{"kind":"locality","name:en":"Beryslav","name":"\u0411\u0435\u0440\u0438\u0441\u043b\u0430\u0432","name:lt":"Beryslavas","kind_detail":"town","name:eo":"Berislav","name:de":"Beryslaw","source":"openstreetmap.org","min_zoom":8.0,"name:pl":"Berys\u0142aw","id":337686273,"population":13457},"coordinates":[3125,3230]},{"type":"Point","properties":{"kind":"locality","name:en":"Antonivka","name":"\u0410\u043d\u0442\u043e\u043d\u0456\u0432\u043a\u0430","kind_detail":"town","alt_name:pl":"Antoniwka","source":"openstreetmap.org","min_zoom":8.0,"name:ru":"\u0410\u043d\u0442\u043e\u043d\u043e\u0432\u043a\u0430","name:pl":"Anton\u00f3wka","id":337688220,"population":12790},"coordinates":[1105,2563]},{"type":"Point","properties":{"kind":"locality","name:en":"Tavriisk","name":"\u0422\u0430\u0432\u0440\u0456\u0439\u0441\u044c\u043a","kind_detail":"town","source":"openstreetmap.org","min_zoom":8.0,"name:ru":"\u0422\u0430\u0432\u0440\u0438\u0439\u0441\u043a","name:pl":"Tawrij\u015bk","id":337687328,"population":11051},"coordinates":[3148,2887]},{"type":"Point","properties":{"kind":"locality","name:en":"Chaplynka","name":"\u0427\u0430\u043f\u043b\u0438\u043d\u043a\u0430","kind_detail":"town","name:de":"Tschaplynka","source":"openstreetmap.org","min_zoom":8.0,"name:pl":"Czap\u0142ynka","id":337690523,"population":10021},"coordinates":[3479,1222]},{"type":"Point","properties":{"kind":"locality","name:en":"Bilozerka","name":"\u0411\u0456\u043b\u043e\u0437\u0435\u0440\u043a\u0430","kind_detail":"town","name:de":"Biloserka","source":"openstreetmap.org","min_zoom":8.0,"name:ru":"\u0411\u0435\u043b\u043e\u0437\u0451\u0440\u043a\u0430","name:pl":"Bi\u0142ozerka","id":337688690,"population":9804},"coordinates":[296,2362]},{"type":"Point","properties":{"kind":"locality","name:en":"Kalanchak","name":"\u041a\u0430\u043b\u0430\u043d\u0447\u0430\u043a","kind_detail":"town","name:de":"Kalantschak","source":"openstreetmap.org","min_zoom":8.0,"name:pl":"Ka\u0142anczak","id":337691244,"population":9518},"coordinates":[2740,779]},{"type":"Point","properties":{"kind":"locality","name:en":"Komyshany","name":"\u041a\u043e\u043c\u0438\u0448\u0430\u043d\u0438","kind_detail":"town","source":"openstreetmap.org","min_zoom":8.0,"name:ru":"\u041a\u0430\u043c\u044b\u0448\u0430\u043d\u044b","name:pl":"Komyszany","id":337688638,"population":7254},"coordinates":[464,2385]},{"type":"Point","properties":{"kind":"locality","name:en":"Nova Maiachka","name":"\u041d\u043e\u0432\u0430 \u041c\u0430\u044f\u0447\u043a\u0430","kind_detail":"town","source":"openstreetmap.org","min_zoom":8.0,"name:ru":"\u041d\u043e\u0432\u0430\u044f \u041c\u0430\u044f\u0447\u043a\u0430","name:pl":"Nowa Majaczka","id":3389534770,"population":7181},"coordinates":[2556,2217]},{"type":"Point","properties":{"kind":"locality","name:en":"Hornostaivka","name":"\u0413\u043e\u0440\u043d\u043e\u0441\u0442\u0430\u0457\u0432\u043a\u0430","kind_detail":"town","name:de":"Hornostajiwka","source":"openstreetmap.org","min_zoom":8.0,"name:ru":"\u0413\u043e\u0440\u043d\u043e\u0441\u0442\u0430\u0435\u0432\u043a\u0430","name:pl":"Hornostajiwka","id":337684196,"population":6745},"coordinates":[4043,3956]},{"type":"Point","properties":{"kind":"locality","name:en":"Zelenivka","name":"\u0417\u0435\u043b\u0435\u043d\u0456\u0432\u043a\u0430","kind_detail":"town","source":"openstreetmap.org","min_zoom":8.0,"name:ru":"\u0417\u0435\u043b\u0435\u043d\u043e\u0432\u043a\u0430","name:pl":"Ze\u0142eniwka","id":337687732,"population":5785},"coordinates":[886,2725]},{"type":"Point","properties":{"kind":"locality","name:en":"Liubymivka","name":"\u041b\u044e\u0431\u0438\u043c\u0456\u0432\u043a\u0430","kind_detail":"town","source":"openstreetmap.org","min_zoom":8.0,"name:ru":"\u041b\u044e\u0431\u0438\u043c\u043e\u0432\u043a\u0430","id":337686582,"population":5631},"coordinates":[3532,3119]},{"type":"Point","properties":{"kind":"locality","name:en":"Dnipriany","name":"\u0414\u043d\u0456\u043f\u0440\u044f\u043d\u0438","kind_detail":"town","name:de":"Dniprjany","source":"openstreetmap.org","min_zoom":8.0,"name:ru":"\u0414\u043d\u0435\u043f\u0440\u044f\u043d\u044b","name:pl":"Dnipriany","id":337687346,"population":4431},"coordinates":[2678,2863]},{"type":"Point","properties":{"kind":"locality","name:en":"Brylivka","name":"\u0411\u0440\u0438\u043b\u0456\u0432\u043a\u0430","kind_detail":"town","source":"openstreetmap.org","min_zoom":8.0,"name:ru":"\u0411\u0440\u0438\u043b\u0451\u0432\u043a\u0430","name:pl":"Bryliwka","id":337690107,"population":4416},"coordinates":[2337,1478]},{"type":"Point","properties":{"kind":"locality","name:en":"Kozatske","name":"\u041a\u043e\u0437\u0430\u0446\u044c\u043a\u0435","kind_detail":"town","source":"openstreetmap.org","min_zoom":8.0,"name:ru":"\u041a\u0430\u0437\u0430\u0446\u043a\u043e\u0435","name:pl":"Koza\u0107ke","id":337686714,"population":3809},"coordinates":[2898,3025]},{"type":"Point","properties":{"kind":"locality","name:en":"Lazurne","name":"\u041b\u0430\u0437\u0443\u0440\u043d\u0435","kind_detail":"town","source":"openstreetmap.org","min_zoom":8.0,"name:ru":"\u041b\u0430\u0437\u0443\u0440\u043d\u043e\u0435","name:pl":"\u0141azurne","id":337692174,"population":3214},"coordinates":[534,55]}]},"transit":{"type":"GeometryCollection","geometries":[{"type":"MultiLineString","properties":{"kind":"train","name":"\u0412\u0430\u0434\u0438\u043c - \u041c\u0438\u043a\u043e\u043b\u0430\u0457\u0432","sort_rank":275,"source":"openstreetmap.org","min_zoom":6.0,"ref":"6578","osm_relation":true,"network":"\u0423\u043a\u0440\u0437\u0430\u043b\u0456\u0437\u043d\u0438\u0446\u044f"},"arcs":[[2],[3]]},{"type":"MultiLineString","properties":{"kind":"train","name":"\u0412\u0430\u0434\u0438\u043c - \u041c\u0438\u043a\u043e\u043b\u0430\u0457\u0432","sort_rank":275,"source":"openstreetmap.org","min_zoom":6.0,"ref":"6574","osm_relation":true,"network":"\u0423\u043a\u0440\u0437\u0430\u043b\u0456\u0437\u043d\u0438\u0446\u044f"},"arcs":[[4],[5],[6]]},{"type":"MultiLineString","properties":{"kind":"train","network":"\u0423\u043a\u0440\u0437\u0430\u043b\u0456\u0437\u043d\u0438\u0446\u044f","sort_rank":275,"source":"openstreetmap.org","min_zoom":6.0,"ref":"6576","osm_relation":true,"name":"\u041c\u0438\u043a\u043e\u043b\u0430\u0457\u0432 - \u0412\u0430\u0434\u0438\u043c"},"arcs":[[7],[8]]},{"type":"MultiLineString","properties":{"kind":"train","network":"\u0423\u043a\u0440\u0437\u0430\u043b\u0456\u0437\u043d\u0438\u0446\u044f","sort_rank":275,"source":"openstreetmap.org","min_zoom":6.0,"ref":"6321","osm_relation":true,"name":"\u041a\u0430\u0445\u043e\u0432\u043a\u0430 - \u041c\u0438\u043a\u043e\u043b\u0430\u0457\u0432"},"arcs":[[9],[10]]},{"type":"MultiLineString","properties":{"kind":"train","name":"\u0425\u0435\u0440\u0441\u043e\u043d - \u0425\u0430\u0440\u043a\u0456\u0432","sort_rank":275,"source":"openstreetmap.org","min_zoom":6.0,"ref":"376\u0428","osm_relation":true,"network":"\u0423\u043a\u0440\u0437\u0430\u043b\u0456\u0437\u043d\u0438\u0446\u044f"},"arcs":[[11],[12]]},{"type":"MultiLineString","properties":{"kind":"train","name":"\u0425\u0430\u0440\u043a\u0456\u0432 - \u0425\u0435\u0440\u0441\u043e\u043d","sort_rank":275,"source":"openstreetmap.org","min_zoom":6.0,"ref":"375\u041e","osm_relation":true,"network":"\u0423\u043a\u0440\u0437\u0430\u043b\u0456\u0437\u043d\u0438\u0446\u044f"},"arcs":[[13],[14]]},{"type":"MultiLineString","properties":{"kind":"train","name":"\u041c\u0438\u043a\u043e\u043b\u0430\u0457\u0432 - \u041a\u0430\u0445\u043e\u0432\u043a\u0430","sort_rank":275,"source":"openstreetmap.org","min_zoom":6.0,"ref":"6322","osm_relation":true,"network":"\u0423\u043a\u0440\u0437\u0430\u043b\u0456\u0437\u043d\u0438\u0446\u044f"},"arcs":[[15],[16]]}]},"pois":{"type":"GeometryCollection","geometries":[]},"boundaries":{"type":"GeometryCollection","geometries":[{"type":"LineString","properties":{"name:right:hy":"\u0542\u0580\u056b\u0574\u056b \u053b\u0576\u0584\u0576\u0561\u057e\u0561\u0580 \u0540\u0561\u0576\u0580\u0561\u057a\u0565\u057f\u0578\u0582\u0569\u0575\u0578\u0582\u0576","name:right:nl":"Autonome Republiek van de Krim","name:right:ja":"\u30af\u30ea\u30df\u30a2\u81ea\u6cbb\u5171\u548c\u56fd","name:right:fr":"R\u00e9publique Autonome de Crim\u00e9e","name:right:hu":"Kr\u00edmi Auton\u00f3m K\u00f6zt\u00e1rsas\u00e1g","name:right:sv":"Autonoma republiken Krim","name:right:lt":"Krymo autonomin\u0117 respublika","min_zoom":8.0,"name:right:ba":"\u04a0\u044b\u0440\u044b\u043c \u0410\u0432\u0442\u043e\u043d\u043e\u043c\u0438\u044f\u043b\u044b \u0420\u0435\u0441\u043f\u0443\u0431\u043b\u0438\u043a\u0430\u04bb\u044b","name:left:be":"\u0420\u044d\u0441\u043f\u0443\u0431\u043b\u0456\u043a\u0430 \u041a\u0440\u044b\u043c","id":-3795586,"name:right":"\u0410\u0432\u0442\u043e\u043d\u043e\u043c\u043d\u0430 \u0420\u0435\u0441\u043f\u0443\u0431\u043b\u0456\u043a\u0430 \u041a\u0440\u0438\u043c","name:left:eo":"Respubliko Krimeo","name:left:en":"Republic of Crimea","name:left:el":"\u0394\u03b7\u03bc\u03bf\u03ba\u03c1\u03b1\u03c4\u03af\u03b1 \u03c4\u03b7\u03c2 \u039a\u03c1\u03b9\u03bc\u03b1\u03af\u03b1\u03c2","name:right:ca":"Rep\u00fablica Aut\u00f2noma de Crimea","name:right:eo":"A\u016dtonoma Respubliko Krimeo","name:left:ca":"Rep\u00fablica de Crimea","alt_name:right:vi":"C\u1ed9ng ho\u00e0 T\u1ef1 tr\u1ecb Cr\u01b0m,C\u1ed9ng h\u00f2a T\u1ef1 tr\u1ecb Krym,C\u1ed9ng ho\u00e0 T\u1ef1 tr\u1ecb Krym","name:right:el":"\u0391\u03c5\u03c4\u03cc\u03bd\u03bf\u03bc\u03b7 \u0394\u03b7\u03bc\u03bf\u03ba\u03c1\u03b1\u03c4\u03af\u03b1 \u03c4\u03b7\u03c2 \u039a\u03c1\u03b9\u03bc\u03b1\u03af\u03b1\u03c2","source":"openstreetmap.org","osm_relation":true,"name:left:nl":"Republiek de Krim","id:left":-3795586,"name:left:es":"Rep\u00fablica de Crimea","name:right:cs":"Autonomn\u00ed republika Krym","name:right:fi":"Krimin autonominen tasavalta","name:right:cu":"\u041a\ua651\u0440\ua651\u043c\u044c\u0441\u043a\u0430 \u0410\u0475\u0442\u043e\u043d\u043e\u043c\u044c\u043d\u0430 \u0414\u0438\u043c\u043e\u043a\u0440\u0430\u0442\u0457\ua657","name:right:az":"Kr\u0131m Muxtar Respublikas\u0131","name:left:cs":"Republika Krym","name:left":"\u0420\u0435\u0441\u043f\u0443\u0431\u043b\u0438\u043a\u0430 \u041a\u0440\u044b\u043c","name:right:mk":"\u0410\u0432\u0442\u043e\u043d\u043e\u043c\u043d\u0430 \u0420\u0435\u043f\u0443\u0431\u043b\u0438\u043a\u0430 \u041a\u0440\u0438\u043c","name:right:pt":"Rep\u00fablica Aut\u00f4noma da Crimeia","name:left:ar":"\u062c\u0645\u0647\u0648\u0631\u064a\u0629 \u0627\u0644\u0642\u0631\u0645","name:right:tt":"\u041a\u044b\u0440\u044b\u043c \u0410\u0432\u0442\u043e\u043d\u043e\u043c\u0438\u044f\u043b\u0435 \u0496\u04e9\u043c\u04bb\u04af\u0440\u0438\u044f\u0442\u0435","name:left:tr":"K\u0131r\u0131m Cumhuriyeti","name:right:it":"Repubblica autonoma di Crimea","name:left:tt":"\u041a\u044b\u0440\u044b\u043c \u0496\u04e9\u043c\u04bb\u04af\u0440\u0438\u044f\u0442\u0435","name:right:tr":"K\u0131r\u0131m \u00d6zerk Cumhuriyeti","name:right:vi":"C\u1ed9ng h\u00f2a T\u1ef1 tr\u1ecb Cr\u01b0m","name:right:es":"Rep\u00fablica Aut\u00f3noma de Crimea","name:left:pl":"Republika Krymu","name:right:ko":"\ud06c\ub9bc \ubc18\ub3c4","name:left:sr":"\u0420\u0435\u043f\u0443\u0431\u043b\u0438\u043a\u0430 \u041a\u0440\u0438\u043c","id:right":-72639,"name:right:pl":"Republika Autonomiczna Krymu","name:right:en":"Autonomous Republic of Crimea","name:right:os":"\u0425\u044a\u044b\u0440\u044b\u043c\u044b \u0410\u0432\u0442\u043e\u043d\u043e\u043c\u043e\u043d \u0420\u0435\u0441\u043f\u0443\u0431\u043b\u0438\u043a\u00e6","name:left:vi":"C\u1ed9ng h\u00f2a Krym","name:left:uk":"\u0420\u0435\u0441\u043f\u0443\u0431\u043b\u0456\u043a\u0430 \u041a\u0440\u0438\u043c","kind":"region","name":"\u0420\u0435\u0441\u043f\u0443\u0431\u043b\u0438\u043a\u0430 \u041a\u0440\u044b\u043c - \u0410\u0432\u0442\u043e\u043d\u043e\u043c\u043d\u0430 \u0420\u0435\u0441\u043f\u0443\u0431\u043b\u0456\u043a\u0430 \u041a\u0440\u0438\u043c","name:right:de":"Autonome Republik Krim","name:right:ru":"\u0410\u0432\u0442\u043e\u043d\u043e\u043c\u043d\u0430\u044f \u0420\u0435\u0441\u043f\u0443\u0431\u043b\u0438\u043a\u0430 \u041a\u0440\u044b\u043c","name:left:pt":"Rep\u00fablica da Crimeia","name:left:de":"Republik Krim","name:right:be":"\u0410\u045e\u0442\u0430\u043d\u043e\u043c\u043d\u0430\u044f \u0420\u044d\u0441\u043f\u0443\u0431\u043b\u0456\u043a\u0430 \u041a\u0440\u044b\u043c","sort_rank":256,"name:left:zh":"\u514b\u91cc\u7c73\u4e9a\u5171\u548c\u56fd","name:left:fr":"R\u00e9publique de Crim\u00e9e","name:left:eu":"Krimeako Errepublika","kind_detail":"4","name:right:zh":"\u514b\u91cc\u7c73\u4e9a\u81ea\u6cbb\u5171\u548c\u56fd"},"arcs":[0]},{"type":"LineString","properties":{"name:right:hy":"\u053d\u0565\u0580\u057d\u0578\u0576\u056b \u0574\u0561\u0580\u0566","name:right:no":"Kherson oblast","name:right:hr":"Hersonska oblast","name:left:sv":"Mykolajiv oblast","name:right:hu":"Herszoni ter\u00fclet","name:left:sr":"\u041c\u0438\u043a\u043e\u043b\u0430\u0458\u0438\u0432\u0441\u043a\u0430 \u043e\u0431\u043b\u0430\u0441\u0442","name:right:lt":"Chersono sritis","name:right:lv":"Hersonas apgabals","name:left:lt":"Mykolajivo sritis","name:left:sh":"Mikolajivska oblast","name:left:sk":"Mykolajivsk\u00e1 oblas\u0165","name:left:hu":"Mikolajivi ter\u00fclet","name:left:hr":"Mikolajivska oblast","name:right:os":"\u0425\u0435\u0440\u0441\u043e\u043d\u044b \u043e\u0431\u043b\u00e6\u0441\u0442","name:right:vi":"Kherson (t\u1ec9nh)","sort_rank":256,"name:left:ca":"Prov\u00edncia de Mykol\u00e0\u00efv","source":"openstreetmap.org","name:right:ar":"\u062e\u064a\u0631\u0633\u0648\u0646 \u0623\u0648\u0628\u0644\u0627\u0633\u062a","name:right:az":"Xerson vilay\u0259ti","name:left:cs":"Mykolajivsk\u00e1 oblast","name:left":"\u041c\u0438\u043a\u043e\u043b\u0430\u0457\u0432\u0441\u044c\u043a\u0430 \u043e\u0431\u043b\u0430\u0441\u0442\u044c","name:right:es":"\u00d3blast de Jers\u00f3n","name:right:sh":"Hersonska oblast","name:right:sr":"\u0425\u0435\u0440\u0441\u043e\u043d\u0441\u043a\u0430 \u043e\u0431\u043b\u0430\u0441\u0442","name:left:ka":"\u10dc\u10d8\u10d9\u10dd\u10da\u10d0\u10d4\u10d5\u10d8\u10e1 \u10dd\u10da\u10e5\u10d8","name:right:eu":"Khersongo oblasta","name:right:et":"Hersoni oblast","name:left:ko":"\ubbf8\ucf5c\ub77c\uc774\uc6b0 \uc8fc","name:right:it":"Oblast' di Cherson","name:left:ro":"Regiunea M\u00eekolaiv","name:right:ru":"\u0425\u0435\u0440\u0441\u043e\u043d\u0441\u043a\u0430\u044f \u043e\u0431\u043b\u0430\u0441\u0442\u044c","name:right:ro":"Regiunea Herson","name:left:ru":"\u041d\u0438\u043a\u043e\u043b\u0430\u0435\u0432\u0441\u043a\u0430\u044f \u043e\u0431\u043b\u0430\u0441\u0442\u044c","name:right:ms":"Oblast Kherson","name:right:mr":"\u0916\u0947\u0930\u094d\u0938\u0928 \u0913\u092c\u094d\u0932\u093e\u0938\u094d\u0924","name:right:id":"Oblast Kherson","name:right:eo":"\u0124ersona provinco","name:right:en":"Kherson Oblast","name:left:vi":"Mykolaiv (t\u1ec9nh)","kind":"region","name":"\u041c\u0438\u043a\u043e\u043b\u0430\u0457\u0432\u0441\u044c\u043a\u0430 \u043e\u0431\u043b\u0430\u0441\u0442\u044c - \u0425\u0435\u0440\u0441\u043e\u043d\u0441\u044c\u043a\u0430 \u043e\u0431\u043b\u0430\u0441\u0442\u044c","name:left:fa":"\u0627\u0633\u062a\u0627\u0646 \u0645\u06cc\u06a9\u0648\u0644\u0627\u0626\u06cc\u0641","name:right:fa":"\u0627\u0633\u062a\u0627\u0646 \u062e\u0631\u0633\u0648\u0646","min_zoom":8.0,"name:right:be":"\u0425\u0435\u0440\u0441\u043e\u043d\u0441\u043a\u0430\u044f \u0432\u043e\u0431\u043b\u0430\u0441\u0446\u044c","name:left:zh":"\u5c3c\u53e4\u62c9\u8036\u592b\u5dde","name:left:fr":"Oblast de Mykola\u00efv","name:right:zh":"\u8d6b\u5c14\u677e\u5dde","name:left:hy":"\u0546\u056b\u056f\u0578\u056c\u0561\u0587\u056b \u0574\u0561\u0580\u0566","name:right:nn":"Kherson oblast","name:right:mk":"\u0425\u0435\u0440\u0441\u043e\u043d\u0441\u043a\u0430 \u043e\u0431\u043b\u0430\u0441\u0442","name:right:nl":"Oblast Cherson","name:right:ja":"\u30d8\u30eb\u30bd\u30f3\u5dde","name:right:fr":"Oblast de Kherson","name:left:lv":"Nikolajevas apgabals","name:left:ja":"\u30e0\u30a3\u30b3\u30e9\u30fc\u30a4\u30a6\u5dde","name:right:sv":"Cherson oblast","name:left:nn":"Mykolajiv oblast","name:left:no":"Mykolajiv oblast","name:right:sk":"Chersonsk\u00e1 oblas\u0165","name:left:bg":"\u041d\u0438\u043a\u043e\u043b\u0430\u0435\u0432\u0441\u043a\u0430 \u043e\u0431\u043b\u0430\u0441\u0442","name:left:be":"\u041c\u0456\u043a\u0430\u043b\u0430\u0435\u045e\u0441\u043a\u0430\u044f \u0432\u043e\u0431\u043b\u0430\u0441\u0446\u044c","name:left:fi":"Mykolajivin alue","id":-72635,"name:right:fi":"Hersonin alue","name:left:eo":"Mikolajeva provinco","name:left:en":"Mykolaiv Oblast","name:right:ca":"Prov\u00edncia de Kherson","kind_detail":"4","name:left:mk":"\u041d\u0438\u043a\u043e\u043b\u0430\u0435\u0432\u0441\u043a\u0430 \u043e\u0431\u043b\u0430\u0441\u0442","name:left:nl":"Oblast Mykolajiv","id:left":-72635,"name:left:es":"\u00d3blast de Mykolaiv","name:right:cs":"Chersonsk\u00e1 oblast","name:right":"\u0425\u0435\u0440\u0441\u043e\u043d\u0441\u044c\u043a\u0430 \u043e\u0431\u043b\u0430\u0441\u0442\u044c","id:right":-71022,"name:left:eu":"Mykolaiveko oblasta","name:left:et":"M\u00f5kolajivi oblast","name:right:ka":"\u10ee\u10d4\u10e0\u10e1\u10dd\u10dc\u10d8\u10e1 \u10dd\u10da\u10e5\u10d8","name:right:zh-min-nan":"Xerson s\u00e9ng","name:right:pt":"Oblast de Kherson","name:left:ar":"\u0645\u064a\u0643\u0648\u0644\u0627\u064a\u0641 \u0623\u0648\u0628\u0644\u0627\u0633\u062a","name:left:pl":"Obw\u00f3d miko\u0142ajowski","name:left:tr":"M\u0131kolayiv Oblast\u0131","name:left:id":"Oblast Mykolaiv","name:right:tr":"Herson Oblast\u0131","name:right:bg":"\u0425\u0435\u0440\u0441\u043e\u043d\u0441\u043a\u0430 \u043e\u0431\u043b\u0430\u0441\u0442","name:left:pt":"Oblast de Mikolaiv","name:left:mr":"\u092e\u093f\u0915\u094b\u0932\u093e\u0907\u0935\u094d\u0939 \u0913\u092c\u094d\u0932\u093e\u0938\u094d\u0924","name:right:ga":"C\u00faige Kherson","name:right:ko":"\ud5e4\ub974\uc190 \uc8fc","name:left:zh-min-nan":"Mykolayiv s\u00e9ng","name:left:it":"Oblast' di Mykola\u00efv","name:right:pl":"Obw\u00f3d cherso\u0144ski","osm_relation":true,"name:right:de":"Oblast Cherson","name:left:de":"Oblast Mykolajiw"},"arcs":[1]}]},"roads":{"type":"GeometryCollection","geometries":[{"type":"MultiLineString","properties":{"kind":"major_road","network":"e-road","sort_rank":381,"landuse_kind":"urban_area","source":"openstreetmap.org","min_zoom":8.0,"kind_detail":"trunk","shield_text":"58","ref":"\u041c-14"},"arcs":[[29],[30],[31],[32],[33],[34],[35],[36],[37],[38],[39]]},{"type":"MultiLineString","properties":{"source":"openstreetmap.org","kind":"major_road","landuse_kind":"urban_area","sort_rank":380,"kind_detail":"primary","min_zoom":8.0},"arcs":[[40],[41],[42],[43],[44],[45],[46],[47],[48]]},{"type":"LineString","properties":{"kind":"major_road","network":"ua:international","sort_rank":381,"kind_detail":"trunk","source":"openstreetmap.org","min_zoom":8.0,"shield_text":"14","ref":"\u041c-14"},"arcs":[49]},{"type":"LineString","properties":{"kind":"major_road","name:en":"Hanibala Square","sort_rank":380,"kind_detail":"primary","source":"openstreetmap.org","min_zoom":8.0,"landuse_kind":"urban_area","name:ru":"\u0413\u0430\u043d\u043d\u0438\u0431\u0430\u043b\u0430 \u043f\u043b\u043e\u0449\u0430\u0434\u044c","id":322359342},"arcs":[50]},{"type":"MultiLineString","properties":{"bus_network":"\u0425\u0435\u0440\u0441\u043e\u043d","name:en":"Mykolaivske Road","sort_rank":380,"kind_detail":"primary","kind":"major_road","source":"openstreetmap.org","min_zoom":8.0,"bus_shield_text":"8","name:ru":"\u041d\u0438\u043a\u043e\u043b\u0430\u0435\u0432\u0441\u043a\u043e\u0435 \u0448\u043e\u0441\u0441\u0435","landuse_kind":"urban_area"},"arcs":[[51],[52],[53]]},{"type":"LineString","properties":{"bus_network":"\u0425\u0435\u0440\u0441\u043e\u043d","name:en":"Hanibala Square","sort_rank":380,"kind_detail":"primary","kind":"major_road","source":"openstreetmap.org","min_zoom":8.0,"bus_shield_text":"4","name:ru":"\u0413\u0430\u043d\u043d\u0438\u0431\u0430\u043b\u0430 \u043f\u043b\u043e\u0449\u0430\u0434\u044c","landuse_kind":"urban_area"},"arcs":[54]},{"type":"MultiLineString","properties":{"kind":"major_road","network":"ua:regional","sort_rank":380,"kind_detail":"primary","source":"openstreetmap.org","min_zoom":8.0,"shield_text":"57","ref":"\u0420-57"},"arcs":[[55],[56],[57]]},{"type":"MultiLineString","properties":{"bus_network":"\u0425\u0435\u0440\u0441\u043e\u043d","sort_rank":380,"kind_detail":"primary","kind":"major_road","source":"openstreetmap.org","min_zoom":8.0,"bus_shield_text":"3","landuse_kind":"urban_area"},"arcs":[[58],[59]]},{"type":"LineString","properties":{"bus_network":"\u0425\u0435\u0440\u0441\u043e\u043d","name:en":"Ushakova Avenue","sort_rank":380,"kind_detail":"primary","kind":"major_road","source":"openstreetmap.org","min_zoom":8.0,"bus_shield_text":"1","landuse_kind":"urban_area"},"arcs":[60]},{"type":"LineString","properties":{"kind":"major_road","name:en":"Puhachova Lane","sort_rank":380,"kind_detail":"primary","bus_network":"\u0425\u0435\u0440\u0441\u043e\u043d","source":"openstreetmap.org","min_zoom":8.0,"bus_shield_text":"4","name:ru":"\u041f\u0443\u0433\u0430\u0447\u0451\u0432\u0430 \u043f\u0435\u0440\u0435\u0443\u043b\u043e\u043a","landuse_kind":"urban_area","id":118181468},"arcs":[61]},{"type":"MultiLineString","properties":{"kind":"major_road","network":"e-road","sort_rank":381,"landuse_kind":"urban_area","source":"openstreetmap.org","min_zoom":8.0,"kind_detail":"trunk","shield_text":"58","ref":"\u041c-14;\u041c-17"},"arcs":[[62],[63]]},{"type":"LineString","properties":{"kind":"major_road","name:en":"Peremohy Square","sort_rank":380,"kind_detail":"primary","source":"openstreetmap.org","min_zoom":8.0,"landuse_kind":"urban_area","name:ru":"\u041f\u043e\u0431\u0435\u0434\u044b \u043f\u043b\u043e\u0449\u0430\u0434\u044c","id":49041457},"arcs":[64]},{"type":"MultiLineString","properties":{"bus_network":"\u0425\u0435\u0440\u0441\u043e\u043d","name:en":"Hanibala Square","sort_rank":380,"kind_detail":"primary","kind":"major_road","source":"openstreetmap.org","min_zoom":8.0,"bus_shield_text":"9","name:ru":"\u0413\u0430\u043d\u043d\u0438\u0431\u0430\u043b\u0430 \u043f\u043b\u043e\u0449\u0430\u0434\u044c","landuse_kind":"urban_area"},"arcs":[[65],[66]]},{"type":"LineString","properties":{"kind":"major_road","network":"ru:regional","sort_rank":381,"kind_detail":"trunk","source":"openstreetmap.org","min_zoom":8.0,"name:uk":"\u0425\u0435\u0440\u0441\u043e\u043d\u0441\u044c\u043a\u0435 \u0448\u043e\u0441\u0435","shield_text":"35\u0410","ref":"35\u0410-001","id":187816512},"arcs":[67]},{"type":"MultiLineString","properties":{"kind":"major_road","network":"e-road","sort_rank":381,"kind_detail":"trunk","source":"openstreetmap.org","min_zoom":8.0,"landuse_kind":"residential","shield_text":"97","ref":"\u041c-17"},"arcs":[[68],[69]]},{"type":"MultiLineString","properties":{"kind":"major_road","network":"e-road","sort_rank":381,"kind_detail":"trunk","source":"openstreetmap.org","min_zoom":8.0,"shield_text":"58","ref":"\u041c-14"},"arcs":[[70],[71],[72]]},{"type":"MultiLineString","properties":{"kind":"major_road","network":"ru:regional","sort_rank":381,"kind_detail":"trunk","source":"openstreetmap.org","min_zoom":8.0,"shield_text":"35\u0410","ref":"35\u0410-001"},"arcs":[[73],[74],[75],[76],[77],[78],[79],[80]]},{"type":"LineString","properties":{"bus_network":"\u0425\u0435\u0440\u0441\u043e\u043d","name:en":"Perekopska Street","sort_rank":380,"kind_detail":"primary","kind":"major_road","source":"openstreetmap.org","min_zoom":8.0,"bus_shield_text":"3","name:ru":"\u041f\u0435\u0440\u0435\u043a\u043e\u043f\u0441\u043a\u0430\u044f \u0443\u043b\u0438\u0446\u0430","landuse_kind":"urban_area"},"arcs":[81]},{"type":"LineString","properties":{"kind":"major_road","name:en":"Naftovykiv Street","sort_rank":380,"kind_detail":"primary","bus_network":"\u0425\u0435\u0440\u0441\u043e\u043d","source":"openstreetmap.org","min_zoom":8.0,"bus_shield_text":"9","name:ru":"\u041d\u0435\u0444\u0442\u044f\u043d\u0438\u043a\u043e\u0432 \u0443\u043b\u0438\u0446\u0430","landuse_kind":"urban_area","id":134951377},"arcs":[82]},{"type":"LineString","properties":{"kind":"major_road","name:en":"Simferopolskaya Street","network":"ru:regional","sort_rank":381,"kind_detail":"trunk","source":"openstreetmap.org","min_zoom":8.0,"name:uk":"\u0421\u0456\u043c\u0444\u0435\u0440\u043e\u043f\u043e\u043b\u044c\u0441\u044c\u043a\u0430 \u0432\u0443\u043b\u0438\u0446\u044f","shield_text":"35\u0410","ref":"35\u0410-001"},"arcs":[83]},{"type":"LineString","properties":{"kind":"major_road","name:en":"Ushakova Avenue","sort_rank":380,"kind_detail":"primary","bus_network":"\u0425\u0435\u0440\u0441\u043e\u043d","source":"openstreetmap.org","min_zoom":8.0,"bus_shield_text":"1","id":49041462},"arcs":[84]},{"type":"MultiLineString","properties":{"kind":"major_road","network":"ua:regional","sort_rank":380,"kind_detail":"primary","source":"openstreetmap.org","min_zoom":8.0,"landuse_kind":"urban_area","shield_text":"47","ref":"\u0420-47"},"arcs":[[85],[86],[87],[88]]},{"type":"LineString","properties":{"bus_network":"\u0425\u0435\u0440\u0441\u043e\u043d","name:en":"Perekopska Street","sort_rank":380,"kind_detail":"primary","kind":"major_road","source":"openstreetmap.org","min_zoom":8.0,"bus_shield_text":"1","name:ru":"\u041f\u0435\u0440\u0435\u043a\u043e\u043f\u0441\u043a\u0430\u044f \u0443\u043b\u0438\u0446\u0430","landuse_kind":"urban_area"},"arcs":[89]},{"type":"MultiLineString","properties":{"kind":"major_road","network":"ua:international","sort_rank":381,"landuse_kind":"urban_area","source":"openstreetmap.org","min_zoom":8.0,"kind_detail":"trunk","shield_text":"14","ref":"\u041c-14"},"arcs":[[90],[91]]},{"type":"LineString","properties":{"source":"openstreetmap.org","kind":"ferry","name":"\u0421\u043a\u0430\u0434\u043e\u0432\u0441\u043a - \u0414\u0436\u0430\u0440\u044b\u043b\u0433\u0430\u0447","sort_rank":355,"min_zoom":8.0,"id":493469855},"arcs":[92]},{"type":"MultiLineString","properties":{"kind":"major_road","network":"e-road","sort_rank":381,"landuse_kind":"urban_area","source":"openstreetmap.org","min_zoom":8.0,"kind_detail":"trunk","shield_text":"58","name:ru":"\u0410\u043d\u0442\u043e\u043d\u043e\u0432\u0441\u043a\u0438\u0439 \u043c\u043e\u0441\u0442","ref":"\u041c-14;\u041c-17"},"arcs":[[93],[94]]},{"type":"MultiLineString","properties":{"sort_rank":380,"kind_detail":"primary","min_zoom":8.0,"kind":"major_road","source":"openstreetmap.org"},"arcs":[[95],[96],[97],[98],[99]]},{"type":"MultiLineString","properties":{"kind":"major_road","network":"e-road","sort_rank":381,"kind_detail":"trunk","source":"openstreetmap.org","min_zoom":8.0,"shield_text":"58","ref":"\u041c-14;\u041c-17"},"arcs":[[100],[101],[102]]},{"type":"MultiLineString","properties":{"bus_network":"\u0425\u0435\u0440\u0441\u043e\u043d","name:en":"Mykolaivske Road","sort_rank":380,"kind_detail":"primary","kind":"major_road","source":"openstreetmap.org","min_zoom":8.0,"bus_shield_text":"11","name:ru":"\u041d\u0438\u043a\u043e\u043b\u0430\u0435\u0432\u0441\u043a\u043e\u0435 \u0448\u043e\u0441\u0441\u0435","landuse_kind":"urban_area"},"arcs":[[103],[104],[105],[106],[107]]},{"type":"MultiLineString","properties":{"kind":"major_road","network":"ua:regional","sort_rank":380,"kind_detail":"primary","source":"openstreetmap.org","min_zoom":8.0,"landuse_kind":"urban_area","shield_text":"57","ref":"\u0420-57"},"arcs":[[108],[109],[110],[111],[112],[113],[114]]},{"type":"LineString","properties":{"kind":"major_road","name:en":"Perekopska Street","sort_rank":380,"kind_detail":"primary","bus_network":"\u0425\u0435\u0440\u0441\u043e\u043d","source":"openstreetmap.org","min_zoom":8.0,"bus_shield_text":"1","name:ru":"\u041f\u0435\u0440\u0435\u043a\u043e\u043f\u0441\u043a\u0430\u044f \u0443\u043b\u0438\u0446\u0430","id":49041447},"arcs":[115]},{"type":"LineString","properties":{"bus_network":"\u0425\u0435\u0440\u0441\u043e\u043d","sort_rank":380,"kind_detail":"primary","kind":"major_road","source":"openstreetmap.org","min_zoom":8.0,"bus_shield_text":"1","landuse_kind":"urban_area"},"arcs":[116]},{"type":"LineString","properties":{"kind":"major_road","name:en":"Pasichnyka Street","network":"ua:regional","sort_rank":380,"kind_detail":"primary","source":"openstreetmap.org","min_zoom":8.0,"landuse_kind":"urban_area","shield_text":"57","name:ru":"\u041f\u0430\u0441\u0435\u0447\u043d\u0438\u043a\u0430 \u0443\u043b\u0438\u0446\u0430","ref":"\u0420-57","id":236036095},"arcs":[117]},{"type":"LineString","properties":{"kind":"major_road","name:en":"Peremohy Square","sort_rank":380,"kind_detail":"primary","bus_network":"\u0425\u0435\u0440\u0441\u043e\u043d","source":"openstreetmap.org","min_zoom":8.0,"bus_shield_text":"9","name:ru":"\u041f\u043e\u0431\u0435\u0434\u044b \u043f\u043b\u043e\u0449\u0430\u0434\u044c","landuse_kind":"urban_area","id":134462272},"arcs":[118]},{"type":"LineString","properties":{"kind":"major_road","name:en":"Mykolaivske Road","sort_rank":380,"kind_detail":"primary","bus_network":"\u0425\u0435\u0440\u0441\u043e\u043d","source":"openstreetmap.org","min_zoom":8.0,"bus_shield_text":"9","name:ru":"\u041d\u0438\u043a\u043e\u043b\u0430\u0435\u0432\u0441\u043a\u043e\u0435 \u0448\u043e\u0441\u0441\u0435","landuse_kind":"urban_area","id":134462274},"arcs":[119]},{"type":"MultiLineString","properties":{"bus_network":"\u0425\u0435\u0440\u0441\u043e\u043d","name:en":"Peremohy Square","sort_rank":380,"kind_detail":"primary","kind":"major_road","source":"openstreetmap.org","min_zoom":8.0,"bus_shield_text":"8","name:ru":"\u041f\u043e\u0431\u0435\u0434\u044b \u043f\u043b\u043e\u0449\u0430\u0434\u044c","landuse_kind":"urban_area"},"arcs":[[120],[121]]},{"type":"LineString","properties":{"kind":"major_road","sort_rank":380,"kind_detail":"primary","bus_network":"\u0425\u0435\u0440\u0441\u043e\u043d","source":"openstreetmap.org","min_zoom":8.0,"bus_shield_text":"11","landuse_kind":"urban_area","id":134951376},"arcs":[122]},{"type":"LineString","properties":{"kind":"major_road","name:en":"Beryslavske Road","sort_rank":380,"kind_detail":"primary","source":"openstreetmap.org","min_zoom":8.0,"landuse_kind":"urban_area","name:ru":"\u0411\u0435\u0440\u0438\u0441\u043b\u0430\u0432\u0441\u043a\u043e\u0435 \u0448\u043e\u0441\u0441\u0435"},"arcs":[123]},{"type":"LineString","properties":{"kind":"major_road","name:en":"Tyraspolska Street","sort_rank":380,"kind_detail":"primary","source":"openstreetmap.org","min_zoom":8.0,"landuse_kind":"urban_area","name:ru":"\u0422\u0438\u0440\u0430\u0441\u043f\u043e\u043b\u044c\u0441\u043a\u0430\u044f \u0443\u043b\u0438\u0446\u0430","id":118181524},"arcs":[124]},{"type":"LineString","properties":{"kind":"major_road","sort_rank":380,"kind_detail":"primary","bus_network":"\u0425\u0435\u0440\u0441\u043e\u043d","source":"openstreetmap.org","min_zoom":8.0,"bus_shield_text":"3","name:ru":"\u041f\u0435\u0440\u0435\u043a\u043e\u043f\u0441\u043a\u0430\u044f \u0443\u043b\u0438\u0446\u0430","landuse_kind":"urban_area","id":4424599},"arcs":[125]},{"type":"LineString","properties":{"kind":"major_road","network":"e-road","sort_rank":381,"kind_detail":"trunk","source":"openstreetmap.org","min_zoom":8.0,"shield_text":"97","ref":"\u041c-14;\u041c-17","id":118181523},"arcs":[126]},{"type":"MultiLineString","properties":{"kind":"major_road","network":"ua:regional","sort_rank":380,"kind_detail":"primary","source":"openstreetmap.org","min_zoom":8.0,"shield_text":"47","ref":"\u0420-47"},"arcs":[[127],[128],[129],[130],[131],[132],[133],[134],[135],[136],[137],[138],[139],[140],[141],[142],[143],[144],[145],[146],[147],[148],[149],[150],[151],[152]]},{"type":"MultiLineString","properties":{"kind":"major_road","name:en":"Mykolaivske Road","sort_rank":380,"kind_detail":"primary","source":"openstreetmap.org","min_zoom":8.0,"landuse_kind":"urban_area","name:ru":"\u041d\u0438\u043a\u043e\u043b\u0430\u0435\u0432\u0441\u043a\u043e\u0435 \u0448\u043e\u0441\u0441\u0435"},"arcs":[[153],[154],[155],[156]]},{"type":"MultiLineString","properties":{"kind":"major_road","network":"e-road","sort_rank":381,"kind_detail":"trunk","source":"openstreetmap.org","min_zoom":8.0,"shield_text":"97","ref":"\u041c-17"},"arcs":[[157],[158],[159],[160],[161]]}]},"earth":{"type":"GeometryCollection","geometries":[{"type":"MultiPolygon","properties":{"sort_rank":10,"source":"naturalearthdata.com","min_zoom":0.0,"kind":"earth","area":46888157159},"arcs":[[[162]]]}]},"landuse":{"type":"GeometryCollection","geometries":[{"type":"MultiPolygon","properties":{"source":"naturalearthdata.com","kind":"urban_area","name":"","area":1399973429,"sort_rank":11,"min_zoom":4.0},"arcs":[[[163]],[[164]],[[165]],[[166]]]},{"type":"MultiPolygon","properties":{"source":"openstreetmap.org","kind":"aerodrome","tier":3,"area":41717019,"sort_rank":60,"min_zoom":8.0},"arcs":[[[167]]]},{"type":"Polygon","properties":{"kind":"residential","name":"\u0427\u0443\u043b\u0430\u043a\u0456\u0432\u043a\u0430","area":15413400,"sort_rank":20,"source":"openstreetmap.org","min_zoom":8.0,"tier":2,"id":118429054},"arcs":[[168]]},{"type":"MultiPolygon","properties":{"source":"openstreetmap.org","kind":"residential","tier":2,"area":140182433,"sort_rank":20,"min_zoom":8.0},"arcs":[[[169]],[[170]],[[171]],[[172]],[[173]],[[174]]]},{"type":"Polygon","properties":{"kind":"residential","name:en":"Kalanchak","name":"\u041a\u0430\u043b\u0430\u043d\u0447\u0430\u043a","area":31237900,"sort_rank":20,"name:de":"Kalantschak","source":"openstreetmap.org","min_zoom":8.0,"tier":2,"name:pl":"Ka\u0142anczak","id":-5809378,"osm_relation":true},"arcs":[[175]]},{"type":"Polygon","properties":{"kind":"residential","name":"\u041f\u043e\u0434\u043e-\u041a\u0430\u043b\u0438\u043d\u0456\u0432\u043a\u0430","area":13777100,"sort_rank":20,"source":"openstreetmap.org","min_zoom":8.0,"tier":2,"id":125067801},"arcs":[[176]]}]}},"type":"Topology","transform":{"translate":[32.34375,46.0732306254],"scale":[0.0003433228,0.0002360721]},"arcs":[[[4096,485],[-41,-7],[-138,81],[-124,106],[-90,-17],[76,-355],[-77,-33],[-124,-136],[39,-124]],[[0,3060],[85,15],[-22,128],[285,47],[18,-101],[182,30],[-17,105],[46,7],[-23,133],[30,7],[7,-58],[69,13],[4,-40],[40,-31],[298,27],[40,-175],[184,30],[20,-30],[23,17],[-9,27],[112,14],[-3,24],[394,75],[-8,45],[-77,-10],[-13,72],[-172,-26],[-45,21],[-5,60],[249,59],[-9,70],[169,29],[-12,66],[-74,-13],[-47,171],[46,71],[213,-128],[133,209],[-123,76]],[[784,2481],[-69,-14],[-24,71],[-46,37],[8,65],[-50,52],[-603,377]],[[3654,461],[-1667,1331],[-183,100],[-62,197],[-120,138],[-232,168],[-83,178],[-97,-19],[-40,34],[-69,7]],[[728,2460],[-82,113],[8,63],[-49,55],[-605,378]],[[776,2477],[-16,-7]],[[3654,461],[-1667,1331],[-183,100],[-62,197],[-120,138],[-232,168],[-83,178],[-97,-19],[-40,34],[-69,7]],[[784,2481],[-69,-14],[-24,71],[-46,37],[8,65],[-50,52],[-603,377]],[[3654,461],[-1667,1331],[-183,100],[-62,197],[-120,138],[-232,168],[-83,178],[-97,-19],[-40,34],[-69,7]],[[413,4096],[-413,-146]],[[3169,2880],[-95,-13],[-133,156],[-125,-7],[26,159],[-229,235],[-931,584],[-148,29],[-35,73]],[[413,4096],[-413,-146]],[[0,3058],[175,-91],[430,-276],[48,-51],[-8,-65],[46,-37],[23,-70],[46,2]],[[413,4096],[-413,-146]],[[0,3058],[175,-91],[430,-276],[48,-51],[-8,-65],[46,-37],[23,-70],[46,2]],[[413,4096],[-413,-146]],[[3169,2880],[-95,-13],[-133,156],[-125,-7],[26,159],[-229,235],[-931,584],[-148,29],[-35,73]],[[0,2074],[190,26],[392,223],[69,-13],[80,41],[79,57],[69,34],[-34,-70],[-42,-41],[-46,-33],[-44,-48],[-51,-34],[-135,-15],[-55,-37],[-204,-173],[-80,-110],[55,-78],[-80,-87],[-113,-49],[-50,-4],[0,411]],[[0,149],[465,-137],[117,19],[22,16],[48,52],[30,21],[30,12],[367,66],[108,55],[44,12],[68,-6],[160,-55],[25,-4],[67,4],[19,-3],[26,-17],[22,-6],[40,0],[307,53],[41,56],[-26,122],[170,-87],[62,-46],[28,-11],[29,0],[37,21],[23,5],[92,48],[58,108],[50,117],[67,74],[-28,-295],[-10,-54],[-21,-56],[229,32],[65,-20],[6,-48],[-32,-58],[-48,-48],[18,-5],[14,1],[13,-6],[15,-21],[59,85],[78,-15],[77,-69],[44,-61],[-3075,0],[0,149]],[[3368,0],[16,30],[75,24],[77,6],[0,31],[-77,52],[3,62],[51,63],[63,54],[73,28],[49,-45],[88,-172],[14,-62],[-28,-49],[-15,-22],[-389,0]],[[4096,4008],[-131,-144],[-16,-31],[-16,-70],[-10,-75],[3,-43],[56,-37],[72,-12],[42,1],[0,-31],[-192,-41],[-50,-33],[-40,-51],[-37,-74],[132,0],[61,-20],[-5,-51],[-29,-15],[-60,29],[-31,-14],[-13,-11],[-14,-2],[-32,0],[-8,-8],[-23,-50],[-271,-13],[55,22],[23,49],[12,58],[22,58],[53,54],[7,4],[17,61],[25,179],[19,48],[55,88],[17,43],[-12,46],[-44,-18],[-60,1],[-54,20],[-23,38],[21,35],[111,-2],[49,41],[-22,30],[12,29],[73,0],[-5,-59],[71,59],[190,0],[0,-88]],[[4096,267],[-23,14],[-29,25],[-129,243],[-23,32],[-36,31],[0,26],[80,0],[55,-20],[40,27],[38,47],[27,23],[0,-448]],[[3757,0],[15,22],[28,49],[-14,62],[-88,172],[-49,45],[-73,-28],[-63,-54],[-51,-63],[-3,-62],[77,-52],[0,-31],[-77,-6],[-75,-24],[-16,-30]],[[3075,0],[-44,61],[-77,69],[-78,15],[-59,-85],[-15,21],[-13,6],[-14,-1],[-18,5],[48,48],[32,58],[-6,48],[-65,20],[-229,-32],[21,56],[10,54],[28,295],[-67,-74],[-50,-117],[-58,-108],[-92,-48],[-23,-5],[-37,-21],[-29,0],[-28,11],[-62,46],[-170,87],[26,-122],[-41,-56],[-307,-53],[-40,0],[-22,6],[-26,17],[-19,3],[-67,-4],[-25,4],[-160,55],[-68,6],[-44,-12],[-108,-55],[-367,-66],[-30,-12],[-30,-21],[-48,-52],[-22,-16],[-117,-19],[-465,137]],[[0,1663],[50,4],[113,49],[80,87],[-55,78],[80,110],[204,173],[55,37],[135,15],[51,34],[44,48],[46,33],[42,41],[34,70],[-69,-34],[-79,-57],[-80,-41],[-69,13],[-392,-223],[-190,-26]],[[4096,4008],[-131,-144],[-16,-31],[-16,-70],[-10,-75],[3,-43],[56,-37],[72,-12],[42,1]],[[4096,3566],[-192,-41],[-50,-33],[-40,-51],[-37,-74],[132,0],[61,-20],[-5,-51],[-29,-15],[-60,29],[-31,-14],[-13,-11],[-14,-2],[-32,0],[-8,-8],[-23,-50],[-271,-13],[55,22],[23,49],[12,58],[22,58],[53,54],[7,4],[17,61],[25,179],[19,48],[55,88],[17,43],[-12,46],[-44,-18],[-60,1],[-54,20],[-23,38],[21,35],[111,-2],[49,41],[-22,30],[12,29]],[[3840,4096],[-5,-59],[71,59]],[[4096,267],[-23,14],[-29,25],[-129,243],[-23,32],[-36,31],[0,26],[80,0],[55,-20],[40,27],[38,47],[27,23]],[[515,2622],[-17,4]],[[498,2625],[17,-3]],[[515,2622],[26,21]],[[541,2643],[8,14]],[[549,2657],[31,51],[135,35],[192,45],[124,-14]],[[1031,2774],[49,-30],[34,-111]],[[1114,2633],[0,-1],[-12,-47]],[[1102,2585],[-7,-30]],[[1095,2555],[7,30]],[[1102,2585],[12,48]],[[1114,2633],[0,2],[-33,109],[-50,30]],[[660,2579],[10,-8]],[[727,2471],[2,-2]],[[762,2468],[-1,0]],[[862,2539],[107,126]],[[994,2558],[0,-1]],[[997,2557],[-2,1]],[[995,2557],[2,0]],[[997,2557],[107,-1]],[[1155,2350],[-1,-2]],[[1458,2269],[13,1]],[[760,2434]],[[730,2448],[3,0]],[[733,2448],[-3,2]],[[733,2448],[19,-10]],[[761,2434],[-1,0]],[[628,1930],[6,8]],[[1531,243],[-78,45],[-331,401],[-218,175],[-117,183],[-74,335],[-131,148],[-70,174],[-16,131],[132,95]],[[634,1938],[169,4],[240,177],[38,109],[93,17],[-16,68]],[[992,2556],[1,1]],[[993,2557],[1,0],[0,1],[-1,-1]],[[792,2391],[-29,73]],[[762,2434],[11,4]],[[1097,2503],[7,-123],[138,-51]],[[1242,2329],[-58,24],[-79,27],[-7,123]],[[730,2448],[0,2]],[[760,2434],[-2,0]],[[760,2434],[1,0]],[[3887,200],[-90,64]],[[1677,2064],[39,-80]],[[1793,1829],[83,-118]],[[0,2931],[134,-92],[60,-114],[1,-1],[100,-62],[203,-37]],[[498,2626],[-203,36],[-99,62],[-61,116],[-135,96]],[[1463,2270],[319,140],[128,187],[109,9],[209,67],[38,-15],[53,-124],[99,-4],[81,-41],[1448,248],[33,74],[116,22]],[[3791,270],[-18,18]],[[3791,270],[6,-6]],[[3921,178],[-34,22]],[[3921,178],[1,-1]],[[3923,177],[-2,1]],[[3922,175],[2,-5],[0,5]],[[3973,0],[-37,101]],[[3922,176],[1,-1],[2,1],[-1,1],[-2,-1]],[[914,2494],[41,42]],[[727,2450],[1,-1]],[[3936,101],[-12,69]],[[796,2381],[-4,10]],[[1076,2824],[-107,-159],[108,159]],[[2901,3080],[142,-173]],[[3043,2907],[6,-22]],[[3049,2885],[37,-26]],[[837,2417],[77,77]],[[528,2620],[20,-2]],[[548,2618],[70,-7],[42,-32],[-42,32],[-70,7]],[[1644,137],[44,-137]],[[1095,2555],[2,-52]],[[1098,2503],[-3,52]],[[629,1933],[1,1]],[[2861,3153],[-5,-1]],[[3105,2866],[-3,-5]],[[3558,3043],[2,-1]],[[1373,2834],[-1,-1],[2,-1],[0,2],[-1,0]],[[1314,2293],[-47,26],[-25,10]],[[1242,2329],[72,-36]],[[1314,2293],[149,-23]],[[726,2479],[1,-12]],[[727,2467],[1,13]],[[727,2467],[1,-13]],[[728,2454],[-1,-4]],[[730,2450],[-2,4]],[[1154,2359],[-2,-23]],[[1152,2335],[1,-1]],[[1153,2334],[0,1]],[[1158,2313],[-5,21]],[[1153,2336],[2,23]],[[1618,222],[-87,21]],[[1153,2337],[-1,-1],[0,-1],[1,1],[0,1]],[[796,2381],[41,36]],[[761,2467],[1,-3],[1,0],[-1,4],[-1,-1]],[[1654,216],[-36,6]],[[728,2449],[1,-1]],[[752,2438],[6,-4]],[[730,2450],[-2,-1]],[[729,2448],[1,0]],[[727,2480],[-1,-1]],[[862,2539],[-93,-67]],[[769,2472],[-6,-3]],[[955,2536],[37,20]],[[1444,2269],[14,0]],[[1108,2870],[-32,-46]],[[1077,2824],[31,46]],[[2857,3153],[-345,147],[-427,-321],[-144,-19],[-178,-62],[-211,-3],[-175,-62],[-190,75],[-79,-38]],[[2859,3153],[-2,0]],[[2857,3153],[1,-1]],[[2859,3151],[1,-3]],[[2860,3148],[0,4]],[[2860,3148],[41,-68]],[[3086,2859],[113,87]],[[3199,2946],[10,7]],[[3209,2953],[343,90]],[[3554,3044],[-2,-1]],[[3552,3043],[3,-1]],[[3559,3044],[398,-283]],[[3957,2761],[8,-6]],[[3965,2755],[-8,6]],[[3965,2754],[8,-5]],[[3973,2749],[-7,6]],[[4096,2661],[-123,88]],[[2859,3153],[-1,-1],[1,-1]],[[2859,3151],[1,1]],[[2860,3152],[-1,1]],[[3554,3044],[3,-2],[2,2]],[[3559,3044],[-2,2],[-3,-2]],[[3966,2755],[-1,0]],[[3965,2755],[0,-1],[1,0],[0,1]],[[670,2571],[56,-89]],[[726,2482],[0,-3]],[[728,2480],[-2,2]],[[728,2480],[-1,0]],[[1458,2269],[9,-2]],[[1467,2267],[-4,3]],[[1467,2267],[148,-106],[62,-97]],[[1716,1984],[77,-155]],[[1876,1711],[292,-310],[93,-56],[45,-453],[45,-1],[100,-59],[229,33],[102,61],[57,1],[92,-71],[9,-97],[26,-33],[163,-124],[197,-74],[50,-68],[91,8],[306,-180]],[[4096,2284],[0,-2284],[-339,0],[15,22],[28,49],[-14,62],[-88,172],[-49,45],[-73,-28],[-63,-54],[-51,-63],[-3,-62],[77,-52],[0,-31],[-77,-6],[-75,-24],[-16,-30],[-293,0],[-44,61],[-77,69],[-78,15],[-59,-85],[-15,21],[-13,6],[-14,-1],[-18,5],[48,48],[32,58],[-6,48],[-65,20],[-229,-32],[21,56],[10,54],[28,295],[-67,-74],[-50,-117],[-58,-108],[-92,-48],[-23,-5],[-37,-21],[-29,0],[-28,11],[-62,46],[-170,87],[26,-122],[-41,-56],[-307,-53],[-40,0],[-22,6],[-26,17],[-19,3],[-67,-4],[-25,4],[-160,55],[-68,6],[-44,-12],[-108,-55],[-367,-66],[-30,-12],[-30,-21],[-48,-52],[-22,-16],[-117,-19],[-465,137],[0,1514],[50,4],[113,49],[80,87],[-55,78],[80,110],[204,173],[55,37],[135,15],[51,34],[31,34],[13,14],[46,33],[42,41],[34,70],[-69,-34],[-79,-57],[-80,-41],[-69,13],[-69,-39],[-323,-184],[-190,-26],[0,2022],[4096,0],[0,-1812]],[[1790,241],[4,-40],[-136,-23],[-134,24],[-2,40],[141,14],[0,47],[96,-19],[31,-43]],[[175,4068],[1,28],[106,0],[-28,-15],[-79,-13]],[[1048,2845],[65,-47],[0,-95],[119,-269],[10,-107],[-62,-3],[-96,-50],[-68,6],[0,70],[64,118],[-115,-7],[-46,-40],[-65,-141],[-103,-18],[-20,7],[114,103],[34,70],[-228,-132],[-185,64],[64,141],[-53,180],[66,97],[84,-41],[84,93],[14,-46],[298,23],[25,24]],[[3030,3114],[25,-81],[-33,-47],[63,-86],[2,-55],[-123,-51],[-83,35],[-46,89],[-7,115],[32,47],[65,0],[68,50],[37,-16]],[[426,2484],[36,66],[-29,45],[34,30],[51,-6],[-4,-64],[-88,-71]],[[0,1258],[83,15],[-26,-109],[-57,-6],[0,100]],[[573,0],[-80,0],[-53,19],[32,61],[107,13],[-6,-93]],[[1605,2013],[53,81],[27,-43],[65,20],[23,-85],[-134,-4],[-34,31]],[[1724,1768],[6,41],[54,31],[50,-83],[-16,-27],[28,13],[48,-63],[-130,-13],[19,24],[-38,3],[14,55],[-35,19]],[[1792,1828],[36,34],[28,-28],[5,22],[89,-46],[-6,-54],[-71,-30],[3,-19],[-84,121]],[[243,2374],[29,34],[62,-27],[-25,-31],[0,-85],[-54,25],[15,74],[-27,10]],[[592,2919],[71,12],[22,41],[42,-12],[-62,-50],[22,-72],[-22,-30],[-35,15],[-38,96]],[[2646,724],[96,120],[85,-2],[50,-58],[-144,-122],[-87,62]],[[2158,1823],[139,90],[75,102],[-1,-43],[-52,-70],[-109,-67],[16,-85],[-37,-16],[-31,89]]]}