{"objects":{"water":{"type":"GeometryCollection","geometries":[{"type":"Polygon","properties":{"source":"naturalearthdata.com","kind":"ocean","area":1576712559132672,"sort_rank":200,"min_zoom":0.0,"id":1},"arcs":[[1]]},{"type":"LineString","properties":{"source":"naturalearthdata.com","kind":"ocean","sort_rank":205,"boundary":true,"min_zoom":0.0,"id":1402},"arcs":[2]}]},"buildings":{"type":"GeometryCollection","geometries":[]},"places":{"type":"GeometryCollection","geometries":[]},"transit":{"type":"GeometryCollection","geometries":[]},"pois":{"type":"GeometryCollection","geometries":[]},"boundaries":{"type":"GeometryCollection","geometries":[{"type":"LineString","properties":{"name:fy":"Kaapverdje","alt_name:eo":"Kabo-Verdo","name:nl":"Kaapverdi\u00eb","name:hu":"Z\u00f6ld-foki K\u00f6zt\u00e1rsas\u00e1g","name:ar":"\u0627\u0644\u0631\u0623\u0633 \u0627\u0644\u0623\u062e\u0636\u0631","name:cs":"Kapverdy","name:eo":"Kaboverdo","name:io":"Kabo Verda","min_zoom":8.0,"name:uk":"\u041a\u0430\u0431\u043e-\u0412\u0435\u0440\u0434\u0435","name:ru":"\u041a\u0430\u0431\u043e-\u0412\u0435\u0440\u0434\u0435","name:sv":"Kap Verde","name:pl":"Republika Zielonego Przyl\u0105dka","name:ta":"\u0b95\u0bc7\u0baa\u0bcd \u0bb5\u0bb0\u0bcd\u0b9f\u0bbf","name:hr":"Zelenortski Otoci","name:sr":"\u0417\u0435\u043b\u0435\u043d\u043e\u0440\u0442\u0441\u043a\u0430 \u041e\u0441\u0442\u0440\u0432\u0430","osm_relation":true,"name:vo":"Kabov\u00e4rdu\u00e4ns","kind":"country","name:en":"Cape Verde","name":"Cabo Verde","sort_rank":262,"kind_detail":"2","name:fr":"Cap-Vert","id":-535774,"source":"openstreetmap.org","maritime_boundary":true,"name:de":"Kap Verde"},"arcs":[0]}]},"roads":{"type":"GeometryCollection","geometries":[{"type":"LineString","properties":{"source":"openstreetmap.org","kind":"ferry","name":"servi\u00e7o para barco de pesca (45 min. oneway)","sort_rank":355,"min_zoom":8.0,"id":356765968},"arcs":[3]}]},"earth":{"type":"GeometryCollection","geometries":[{"type":"Polygon","properties":{"sort_rank":10,"source":"naturalearthdata.com","kind":"earth","min_zoom":0.0,"id":2509},"arcs":[[4]]}]},"landuse":{"type":"GeometryCollection","geometries":[]}},"type":"Topology","transform":{"translate":[-26.71875,16.6361918784],"scale":[0.0003433228,0.0003277689]},"arcs":[[[4096,2115],[-353,-174],[-181,-137],[-189,-314],[-36,-241],[40,-227],[130,-352],[104,-183],[153,-153],[332,-164]],[[4096,1435],[-13,-1],[-41,-29],[-71,-83],[-15,-44],[17,-51],[19,-13],[50,-10],[10,-8],[40,-71],[1,-203],[3,-13],[0,-909],[-4096,0],[0,4096],[4096,0],[0,-2661]],[[4096,1435],[-13,-1],[-41,-29],[-71,-83],[-15,-44],[17,-51],[19,-13],[50,-10],[10,-8],[40,-71],[1,-203],[3,-13]],[[4096,970],[-43,67],[-15,139]],[[4096,909],[-3,13],[-1,203],[-40,71],[-10,8],[-50,10],[-19,13],[-17,51],[15,44],[71,83],[41,29],[13,1],[0,-526]]]}