{"objects":{"water":{"type":"GeometryCollection","geometries":[]},"buildings":{"type":"GeometryCollection","geometries":[]},"places":{"type":"GeometryCollection","geometries":[{"type":"Point","properties":{"name:kg":"Ginea","name:ka":"\u10d2\u10d5\u10d8\u10dc\u10d4\u10d0","name:ko":"\uae30\ub2c8","name:cv":"\u0413\u0432\u0438\u043d\u0435\u0439","name:km":"\u17a0\u17d2\u1782\u17b8\u178e\u17c1","name:kl":"Guinea","name:cs":"Guinea","name:ki":"Gine","name:kw":"Gyni","name:tk":"Gwine\u00fda","name:ku":"G\u00een\u00ea","name:ti":"\u130a\u1292","name:ks":"\u06af\u0650\u0646\u06cc","name:to":"Kini","name:tl":"Ginea","name:ce":"\u0413\u0432\u0438\u043d\u0435","name:ta":"\u0b95\u0bbf\u0ba9\u0bbf\u0baf\u0bbe","name:tg":"\u0413\u0432\u0438\u043d\u0435\u044f","name:ca":"Rep\u00fablica de Guinea","name:te":"\u0c17\u0c3f\u0c28\u0c3f\u0c2f\u0c3e","name:hr":"Gvineja","name:da":"Guinea","name:de":"Guinea","name:dz":"\u0f42\u0fb7\u0f72\u0f0b\u0f53\u0f72","source":"openstreetmap.org","name:kn":"\u0c97\u0cbf\u0ca8\u0cbf","name:dv":"\u078e\u07a9\u0782\u07a8\u0787\u07a7","name:lv":"Gvineja","name:lt":"Gvin\u0117ja","name:uz":"Gvineya","name:kk":"\u0413\u0432\u0438\u043d\u0435\u044f","name:ur":"\u06af\u0646\u06cc","name:lb":"Guinea","name:la":"Guinea","name:lg":"Gini","name:uk":"\u0490\u0432\u0456\u043d\u0435\u044f","name:ug":"\u06cb\u0649\u0646\u06d0\u064a\u06d5","name:li":"Guinee","name:ln":"Gin\u025b","name:lo":"\u0e81\u0eb4\u0ea7\u0e99\u0eb5","name:el":"\u0393\u03bf\u03c5\u03b9\u03bd\u03ad\u03b1","name:eo":"Gvineo","name:en":"Guinea","name":"Guin\u00e9e","name:ee":"Guini nutome","name:th":"\u0e1b\u0e23\u0e30\u0e40\u0e17\u0e28\u0e01\u0e34\u0e19\u0e35","name:eu":"Ginea","name:et":"Guinea","name:es":"Guinea","name:ia":"Guinea","name:rm":"Guinea","name:rn":"Guneya","name:az":"Qvineya","name:ie":"Guinea","name:id":"Guinea","name:ar":"\u063a\u064a\u0646\u064a\u0627","name:io":"Guinea","name:ak":"Gini","name:am":"\u130a\u1292","name:it":"Guinea","name:an":"Guinea","name:ru":"\u0413\u0432\u0438\u043d\u0435\u044f","name:rw":"Gineya","name:pl":"Gwinea","name:af":"Guinee","name:zu":"i-Guinea","name:ky":"\u0413\u0432\u0438\u043d\u0435\u044f","name:zh-yue":"\u757f\u5167\u4e9e","name:zh":"\u51e0\u5185\u4e9a","name:so":"Gini","name:sn":"Guinea","name:sm":"Guinea","name:sl":"Gvineja","name:sk":"Guinea","name:ja":"\u30ae\u30cb\u30a2","name:si":"\u0d9c\u0dd2\u0dab\u0dd2\u0dba\u0dcf\u0dc0","name:sh":"Gvineja","name:sg":"Gin\u00ebe","name:se":"Guinea","name:sc":"Guinea","name:br":"Ginea","name:bs":"Gvineja","name:bm":"Gine","name:bn":"\u0997\u09bf\u09a8\u09bf","name:bo":"\u0f42\u0fb7\u0f72\u0f0b\u0f53\u0f72\u0f0b\u0f61\u0f0d","name:sa":"\u0917\u093f\u0928\u0940","name:sw":"Gine","name:be":"\u0413\u0432\u0456\u043d\u0435\u044f","name:su":"Guin\u00e9a","name:bg":"\u0413\u0432\u0438\u043d\u0435\u044f","name:ss":"IGiniya","name:ba":"\u0413\u0432\u0438\u043d\u0435\u044f","name:sq":"Guine","name:jv":"Guinea","name:pt":"Guin\u00e9","name:ps":"\u06ab\u06cc\u0627\u0646\u0627","name:oc":"Guin\u00e8a","min_zoom":2.0,"name:ro":"Guineea","name:pa":"\u0a17\u0a3f\u0a28\u0a40","name:os":"\u0413\u0432\u0438\u043d\u0435\u0439","name:or":"\u0b17\u0b41\u0b0f\u0b28\u0b47\u0b06","alt_name:pt":"Guinea; Guin\u00e9-Conakry; Guin\u00e9-Conacri","name:st":"Guinea","name:sr":"\u0413\u0432\u0438\u043d\u0435\u0458\u0430","name:tr":"Gine","name:hi":"\u0917\u093f\u0928\u0940","name:sv":"Guinea","name:he":"\u05d2\u05d9\u05e0\u05d0\u05d4","name:ha":"Gini","name:hy":"\u0533\u057e\u056b\u0576\u0565\u0561","name:ht":"Gine","name:hu":"Guinea","name:qu":"Khiniya","population":10187320,"kind":"country","name:ts":"Gineya","name:is":"G\u00ednea","name:yi":"\u05d2\u05d9\u05e0\u05e2","name:yo":"Or\u00edl\u1eb9\u0301\u00e8de Gene","name:mt":"Gineja","name:ms":"Guinea","name:mr":"\u0917\u093f\u0928\u0940","name:my":"\u1002\u102e\u101b\u102c\u1014\u102c","int_name":"Guinea","name:mg":"Ginea","name:ml":"\u0d17\u0d4d\u0d35\u0d3f\u0d28\u0d3f\u0d2f","name:vi":"Guinea","name:mn":"\u0413\u0432\u0438\u043d\u0435\u0439","id":424297586,"name:mk":"\u0413\u0432\u0438\u043d\u0435\u0458\u0430","name:vo":"Giney\u00e4n","name:fa":"\u06af\u06cc\u0646\u0647","name:ff":"Gine","name:fi":"Guinea","name:fo":"Guinea","name:fy":"Guinee","name:nl":"Guinee","name:nn":"Guinea","name:no":"Guinea","name:na":"Gini","name:ne":"\u0917\u093f\u0928\u0940","name:wo":"Gine","name:nv":"G\u00edn\u00ed","name:ga":"An Ghuine","name:gd":"Gini","name:gl":"Guinea","name:gv":"Yn Ghuinea","name:gu":"\u0a97\u0abf\u0aa8\u0ac0","name:tt":"\u0413\u0432\u0438\u043d\u0435\u044f"},"coordinates":[1578,2746]},{"type":"Point","properties":{"source":"openstreetmap.org","kind":"region","name":"Faranah","kind_detail":"state","min_zoom":4.0,"id":2746237182},"coordinates":[1048,1536]},{"type":"Point","properties":{"source":"naturalearthdata.com","kind":"locality","name":"Faranah","population":19469,"region_capital":true,"min_zoom":7.0,"id":4150},"coordinates":[1456,725]},{"type":"Point","properties":{"source":"openstreetmap.org","kind":"locality","name":"Dabola","kind_detail":"town","population":17855,"min_zoom":8.0,"id":2134625027},"coordinates":[418,2804]}]},"transit":{"type":"GeometryCollection","geometries":[]},"pois":{"type":"GeometryCollection","geometries":[]},"boundaries":{"type":"GeometryCollection","geometries":[{"type":"LineString","properties":{"name:right:yo":"Si\u1eb9rra L\u00e9\u00f2n\u00e8","name:left:la":"Guinea","name:right:qu":"Liyun Urqu","name:right:dv":"\u0790\u07ac\u0783\u07ac\u078d\u07a8\u0787\u07af\u0782\u07b0","name:right:yi":"\u05e1\u05d9\u05e2\u05e8\u05e2 \u05dc\u05e2\u05d0\u05e0\u05e2","name:right:hy":"\u054d\u056b\u0565\u0580\u0561 \u053c\u0565\u0578\u0576\u0565","name:left:su":"Guin\u00e9a","name:left:li":"Guinee","name:left:sw":"Guinea","name:left:sv":"Guinea","name:left:sq":"Guinea","name:left:lb":"Guinea","name:left:ln":"Gine-Konakry","name:left:sr":"\u0413\u0432\u0438\u043d\u0435\u0458\u0430","name:left:sm":"Guinea","name:left:sl":"Gvineja","name:left:so":"Guinea","name:left:sn":"Guinea","name:left:lt":"Gvin\u0117ja","name:left:sh":"Gvineja","name:left:lv":"Gvineja","name:left:vo":"Giney\u00e4n","name:left:se":"Guinea","name:left:sg":"Gin\u00ebe","name:left:sa":"\u0917\u093f\u0928\u0940","name:right:he":"\u05e1\u05d9\u05d9\u05e8\u05d4 \u05dc\u05d0\u05d5\u05e0\u05d4","name:left:sc":"Guinea","name:left:hi":"\u0917\u093f\u0928\u0940","name:left:ce":"\u0413\u0432\u0438\u043d\u0435","name:right:am":"\u1234\u12e8\u122b \u120c\u12ce\u1295","name:left:ca":"Rep\u00fablica de Guinea","source":"openstreetmap.org","name:right:ar":"\u0633\u064a\u0631\u0627\u0644\u064a\u0648\u0646","name:left:st":"Guinea","name:left:cv":"\u0413\u0432\u0438\u043d\u0435\u0439","name:right:az":"Syerra-Leone","name:left:cs":"Guinea","name:left:kg":"Ginea","name:left:ka":"\u10d2\u10d5\u10d8\u10dc\u10d4\u10d0","name:left:yi":"\u05d2\u05d9\u05e0\u05e2","name:right:ht":"Syera Le\u00f2n","name:left:ko":"\uae30\ub2c8","name:right:is":"S\u00ederra Le\u00f3ne","name:right:rw":"Siyera Lewone","name:left:kk":"\u0413\u0432\u0438\u043d\u0435\u044f","name:right:ru":"\u0421\u044c\u0435\u0440\u0440\u0430-\u041b\u0435\u043e\u043d\u0435","name:left:ku":"G\u00eene","name:left:kw":"Gyni","name:left:rw":"Gineya","name:left:ru":"\u0413\u0432\u0438\u043d\u0435\u044f","name:left:ky":"\u0413\u0432\u0438\u043d\u0435\u044f","name":"Guin\u00e9e - Sierra Leone","name:right:bn":"\u09b8\u09bf\u09af\u09bc\u09c7\u09b0\u09be \u09b2\u09bf\u0993\u09a8","name:right:bo":"\u0f66\u0f72\u0f0b\u0f62\u0f0b\u0f63\u0f7a\u0f0b\u0f68\u0f7c\u0f53\u0f0d","name:right:zu":"ISiera Liyoni","name:right:bm":"Sera Leon","name:right:bg":"\u0421\u0438\u0435\u0440\u0430 \u041b\u0435\u043e\u043d\u0435","name:left:zu":"IGini","name:left:zh":"\u51e0\u5185\u4e9a","name:right:bs":"Sijera Leone","name:right:zh":"\u585e\u62c9\u5229\u6602","name:left:uz":"Gvineya","name:right:ba":"\u0421\u044c\u0435\u0440\u0440\u0430-\u041b\u0435\u043e\u043d\u0435","name:left:sk":"Guinea","name:left:nv":"G\u00edn\u00ed","name:left:ur":"\u062c\u0645\u06c1\u0648\u0631\u06cc\u06c1 \u06af\u0646\u06cc","name:right:wo":"Siraa Leyoon","id:right":-192777,"name:left:uk":"\u0413\u0432\u0456\u043d\u0435\u044f","name:left:no":"Guinea","name:left:nl":"Guinee","name:right:hi":"\u0938\u093f\u090f\u0930\u093e \u0932\u093f\u092f\u094b\u0928","name:right:fa":"\u0633\u06cc\u0631\u0627\u0644\u0626\u0648\u0646","name:right:nv":"N\u00e1shd\u00f3\u00edtsoh Bitsiij\u012f\u02bc Dadit\u0142\u02bcoo\u02bc\u00edg\u00ed\u00ed Bidzi\u0142","name:right:fo":"Sierra Leona","name:right:be":"\u0421\u044c\u0435\u0440\u0430-\u041b\u0435\u043e\u043d\u044d","name:left:ug":"\u06cb\u0649\u0646\u06d0\u064a\u06d5","name:left:na":"Gini","name:left:eo":"Gvineo","name:left:en":"Guinea","name:left:el":"\u0393\u03bf\u03c5\u03b9\u03bd\u03ad\u03b1","kind_detail":"2","name:left:ee":"Guinea","name:left:wo":"Gine","name:left:es":"Guinea","name:left:ss":"IGiniya","name:left:ie":"Guinea","name:left:eu":"Ginea","name:left:et":"Guinea","name:right:ps":"\u0633\u06d0\u0631\u0627\u0644\u06cc\u0648\u0646","name:right:pt":"Serra Leoa","name:left:mk":"\u0413\u0432\u0438\u043d\u0435\u0458\u0430","name:left:tr":"Gine","name:left:ts":"Gineya","name:left:tt":"\u0413\u0432\u0438\u043d\u0435\u044f","name:left:mn":"\u0413\u0432\u0438\u043d\u0435\u0439","name:left:ml":"\u0d17\u0d3f\u0d28\u0d3f","name:left:th":"\u0e1b\u0e23\u0e30\u0e40\u0e17\u0e28\u0e01\u0e34\u0e19\u0e35","name:right:pa":"\u0a38\u0a3f\u0a0f\u0a30\u0a3e \u0a32\u0a3f\u0a13\u0a28","name:left:tk":"Gwine\u00fda","name:left:tl":"Ginea","name:left:ia":"Guinea","name:left:ta":"\u0b95\u0bbf\u0ba9\u0bbf","name:left:my":"\u1002\u102e\u1014\u102e\u1014\u102d\u102f\u1004\u103a\u1004\u1036","name:right:kn":"\u0cb8\u0cbf\u0caf\u0cc6\u0cb0\u0ccd\u0cb0\u0cbe \u0cb2\u0cbf\u0caf\u0ccb\u0ca8\u0ccd","alt_name:left:fr":"Guin\u00e9e-Conakry","name:right:os":"\u0421\u044c\u0435\u0440\u0440\u00e6-\u041b\u0435\u043e\u043d\u0435","name:left:tg":"\u0413\u0432\u0438\u043d\u0435\u044f","name:left:pt":"Guin\u00e9","name:left:mr":"\u0917\u093f\u0928\u0940","name:left:da":"Guinea","name:left:de":"Guinea","name:right:ga":"Siarra Leon","name:left:dv":"\u078e\u07a9\u0782\u07a8\u0787\u07a7","name:right:ug":"\u0633\u064a\u06d0\u0631\u0631\u0627 \u0644\u06d0\u0626\u0648\u0646\u06d0","name:right:la":"Mons Leoninus","name:right:uk":"\u0421\u044c\u0454\u0440\u0440\u0430-\u041b\u0435\u043e\u043d\u0435","name:left:he":"\u05d2\u05d9\u05e0\u05d0\u05d4","name:left:ha":"Gine","name:right:lt":"Siera Leon\u0117","name:right:ur":"\u0633\u06cc\u0631\u0627\u0644\u06cc\u0648\u0646","name:right:lv":"Sjerraleone","name:left:hy":"\u0533\u057e\u056b\u0576\u0565\u0561","name:right:gl":"Serra Leoa","name:left:ht":"Gine","name:left:hu":"Guinea","name:left:hr":"Gvineja","name:left:ga":"An Ghuine","name:right:tg":"\u0421\u0438\u0435\u0440\u0440\u0430 \u041b\u0435\u043e\u043d\u0435","name:left:gd":"Gini","sort_rank":262,"name:right:gd":"Siarra Le\u00f2mhann","name:left:gl":"Guinea","osm_relation":true,"name:left:gv":"Yn Ghuinea","name:right:or":"\u0b38\u0b3f\u0b0f\u0b30\u0b3e \u0b32\u0b3f\u0b13\u0b28","name:left":"Guin\u00e9e","name:right:es":"Sierra Leona","name:right:sr":"\u0421\u0438\u0458\u0435\u0440\u0430 \u041b\u0435\u043e\u043d\u0435","name:right:mn":"\u0421\u044c\u0435\u0440\u0440\u0430-\u041b\u0435\u043e\u043d\u0435","name:right:eu":"Sierra Leona","name:right:ml":"\u0d38\u0d40\u0d31\u0d3e \u0d32\u0d3f\u0d2f\u0d4b\u0d7a","name:right:vo":"Sieraleon\u00e4n","name:left:os":"\u0413\u0432\u0438\u043d\u0435\u0439","name:left:or":"\u0b17\u0b3f\u0b28\u0b3f","name:right:my":"\u1006\u102e\u101b\u102c\u101c\u102e\u101a\u103d\u1014\u103a\u1014\u102d\u102f\u1004\u103a\u1004\u1036","name:right:uz":"Syerra Leone","name:right:mr":"\u0938\u093f\u092f\u0947\u0930\u093e \u0932\u093f\u0913\u0928","name:left:oc":"Guin\u00e8a","name:right:fy":"Sierra Le\u00f6ane","name:right:eo":"Siera-Leono","name:right:el":"\u03a3\u03b9\u03ad\u03c1\u03b1 \u039b\u03b5\u03cc\u03bd\u03b5","name:left:ff":"Gine","name:left:nn":"Guinea","kind":"country","name:left:fa":"\u06af\u06cc\u0646\u0647","name:left:fo":"Guinea","name:left:fi":"Guinea","alt_name:right:eo":"Sieraleono","name:left:fy":"Guinee","name:left:br":"Ginea","name:left:bs":"Gvineja","name:right:mk":"\u0421\u0438\u0435\u0440\u0430 \u041b\u0435\u043e\u043d\u0435","name:right:ja":"\u30b7\u30a8\u30e9\u30ec\u30aa\u30cd","name:right:sq":"Siera Leone","name:right:ss":"ISiriya-Liyoni","name:left:ja":"\u30ae\u30cb\u30a2","name:right:si":"\u0dc3\u0dd2\u0dba\u0dd9\u0dbb\u0dcf \u0dbd\u0dd2\u0dba\u0ddd\u0db1\u0dca","name:right:sh":"Sijera Leone","name:left:qu":"Khiniya","name:left:ba":"\u0413\u0432\u0438\u043d\u0435\u044f","name:left:bg":"\u0413\u0432\u0438\u043d\u0435\u044f","name:left:be":"\u0413\u0432\u0456\u043d\u0435\u044f","name:right:sa":"\u0938\u093f\u092f\u093e\u0930\u093e-\u0932\u093f\u092f\u094b\u0928","name:right:ff":"Sarliyon","name:left:bn":"\u0997\u09bf\u09a8\u09bf","name:left:bo":"\u0f42\u0f72\u0f0b\u0f53\u0f7a\u0f0d","name:right:sg":"Sier\u00e4-Le\u00f4ne","name:right":"Sierra Leone","name:left:ne":"\u0917\u093f\u0928\u0940","name:left:jv":"Guinea","name:right:ce":"\u0421\u044c\u0435\u0440\u0440\u0430-\u041b\u0435\u043e\u043d\u0435","id":-192778,"name:left:yo":"Guinea","name:right:zh-yue":"\u585e\u62c9\u5229\u6602","id:left":-192778,"min_zoom":8.0,"name:left:bm":"Gine","name:right:ka":"\u10e1\u10d8\u10d4\u10e0\u10d0-\u10da\u10d4\u10dd\u10dc\u10d4","name:right:hr":"Sijera Leone","name:left:io":"Guinea","name:left:ar":"\u063a\u064a\u0646\u064a\u0627","name:right:kg":"Siera Leone","name:left:pl":"Gwinea","name:right:kk":"\u0421\u0438\u0435\u0440\u0440\u0430-\u041b\u0435\u043e\u043d\u0435","name:left:id":"Guinea","name:left:az":"Qvineya","name:right:ko":"\uc2dc\uc5d0\ub77c\ub9ac\uc628","name:right:ts":"Siyera Liyona","name:right:tl":"Bulubunduking Leona","name:left:af":"Guinee","name:right:th":"\u0e1b\u0e23\u0e30\u0e40\u0e17\u0e28\u0e40\u0e0b\u0e35\u0e22\u0e23\u0e4c\u0e23\u0e32\u0e25\u0e35\u0e42\u0e2d\u0e19","name:right:kw":"Sierra Leon","name:right:tk":"S\u00fderra-Leone","name:left:an":"Guinea","name:left:am":"\u130a\u1294","name:left:it":"Guinea","name:left:is":"G\u00ednea","name:right:ta":"\u0b9a\u0bbf\u0baf\u0bc7\u0bb0\u0bbe \u0bb2\u0bbf\u0baf\u0bcb\u0ba9\u0bbf","name:left:ms":"Guinea","name:left:zh-yue":"\u757f\u5167\u4e9e","name:left:pa":"\u0a17\u0a3f\u0a28\u0a40","name:left:ro":"Guineea"},"arcs":[0]},{"type":"LineString","properties":{"name:left":"Kankan","kind":"region","name":"Kankan - Faranah","sort_rank":256,"kind_detail":"4","name:right:ru":"\u0424\u0430\u0440\u0430\u043d\u0430","source":"openstreetmap.org","min_zoom":8.0,"name:left:fr":"Mandiana","id:left":-3403911,"id:right":-3403910,"id":-3403911,"osm_relation":true,"name:right":"Faranah"},"arcs":[1]},{"type":"LineString","properties":{"name:left":"Faranah","kind":"region","name":"Faranah - Northern Province","sort_rank":256,"kind_detail":"4","name:left:ru":"\u0424\u0430\u0440\u0430\u043d\u0430","name:right:ru":"\u0421\u0435\u0432\u0435\u0440\u043d\u0430\u044f \u043f\u0440\u043e\u0432\u0438\u043d\u0446\u0438\u044f","source":"openstreetmap.org","min_zoom":8.0,"name:right:de":"N\u00f6rdliche Provinz","id:left":-3403910,"id:right":-3230989,"id":-3403910,"osm_relation":true,"name:right":"Northern Province"},"arcs":[2]}]},"roads":{"type":"GeometryCollection","geometries":[{"type":"MultiLineString","properties":{"sort_rank":380,"kind_detail":"primary","min_zoom":8.0,"kind":"major_road","source":"openstreetmap.org"},"arcs":[[3],[4],[5],[6],[7],[8]]},{"type":"LineString","properties":{"sort_rank":381,"source":"openstreetmap.org","min_zoom":8.0,"kind":"major_road","kind_detail":"trunk"},"arcs":[9]},{"type":"MultiLineString","properties":{"source":"openstreetmap.org","kind":"major_road","sort_rank":381,"kind_detail":"trunk","ref":"N.1","min_zoom":8.0},"arcs":[[10],[11],[12],[13]]},{"type":"MultiLineString","properties":{"source":"openstreetmap.org","kind":"major_road","ref":"N.2","sort_rank":381,"kind_detail":"trunk","is_bicycle_related":true,"min_zoom":8.0},"arcs":[[14],[15]]},{"type":"LineString","properties":{"source":"openstreetmap.org","kind":"major_road","sort_rank":380,"kind_detail":"primary","ref":"N.30","min_zoom":8.0},"arcs":[16]},{"type":"LineString","properties":{"source":"openstreetmap.org","kind":"major_road","sort_rank":380,"kind_detail":"primary","ref":"N.14","min_zoom":8.0},"arcs":[17]},{"type":"LineString","properties":{"kind":"major_road","sort_rank":381,"landuse_kind":"residential","source":"openstreetmap.org","min_zoom":8.0,"kind_detail":"trunk","ref":"N 1","id":244969697},"arcs":[18]},{"type":"MultiLineString","properties":{"source":"openstreetmap.org","kind":"major_road","sort_rank":381,"kind_detail":"trunk","ref":"N 1","min_zoom":8.0},"arcs":[[19],[20]]},{"type":"LineString","properties":{"source":"openstreetmap.org","kind":"major_road","sort_rank":381,"kind_detail":"trunk","ref":"N.2","min_zoom":8.0},"arcs":[21]},{"type":"MultiLineString","properties":{"kind":"major_road","sort_rank":381,"kind_detail":"trunk","is_bicycle_related":true,"cycleway":"opposite","source":"openstreetmap.org","min_zoom":8.0,"ref":"N.2"},"arcs":[[22],[23]]},{"type":"LineString","properties":{"kind":"major_road","sort_rank":380,"landuse_kind":"residential","source":"openstreetmap.org","min_zoom":8.0,"kind_detail":"primary","ref":"N.29","id":56086174},"arcs":[24]},{"type":"LineString","properties":{"source":"openstreetmap.org","kind":"major_road","sort_rank":380,"kind_detail":"primary","ref":"N.27","min_zoom":8.0},"arcs":[25]},{"type":"MultiLineString","properties":{"source":"openstreetmap.org","kind":"major_road","sort_rank":380,"kind_detail":"primary","ref":"N.29","min_zoom":8.0},"arcs":[[26],[27],[28],[29]]}]},"earth":{"type":"GeometryCollection","geometries":[{"type":"Polygon","properties":{"sort_rank":10,"source":"naturalearthdata.com","kind":"earth","min_zoom":0.0,"id":4700},"arcs":[[30]]}]},"landuse":{"type":"GeometryCollection","geometries":[{"type":"MultiPolygon","properties":{"source":"openstreetmap.org","kind":"residential","tier":2,"area":63903151,"sort_rank":20,"min_zoom":8.0},"arcs":[[[31]]]}]}},"type":"Topology","transform":{"translate":[-11.25,9.7956775828],"scale":[0.0003433228,0.0003375792]},"arcs":[[[0,605],[122,0],[-15,-74],[83,-10],[38,-32],[46,-282],[42,4],[22,-35],[67,-5],[23,24],[34,-52],[75,-40],[12,-49],[53,12],[9,-66]],[[1737,4096],[-34,-62],[-75,-36],[44,-65],[-93,-148],[-243,-234],[-33,-137],[-48,-75],[-141,-50],[-72,-108],[13,-90],[405,-90],[214,-107],[154,-188],[136,-95],[144,-164],[155,-191],[93,-160],[102,29],[19,70],[46,-48],[14,35],[58,-6],[25,-45],[-11,-37],[59,1],[7,42],[60,23],[49,70],[13,-88],[83,-19],[137,11],[-52,-51],[-9,-61],[60,-9],[65,-112],[28,5],[-29,42],[36,24],[4,44],[50,-8],[44,61],[27,109],[-2,-53],[30,-47],[-24,-22],[81,-29],[-28,-16],[16,-70],[-17,-19],[-98,28],[-11,-47],[44,-50],[-6,-33],[43,13],[12,-18],[-38,-51],[-44,14],[1,-44],[-32,-30],[22,-29],[-38,-19],[-11,-67],[-101,-14],[-61,28],[-53,-37],[54,-54],[-25,-58],[4,-34],[23,14],[-6,-28],[-29,3],[-11,-38],[34,-4],[-19,-43],[25,4],[1,-48],[41,-10],[-3,-35],[31,-5],[-6,-83],[-77,-44],[17,-52],[-66,-7],[7,-48],[-38,-7],[7,-26],[-81,5],[6,-48],[-47,-49],[-69,20],[2,-178],[-103,-94],[28,-16],[-24,-26],[48,-104],[22,-135],[-27,-7],[27,-14],[6,-55],[-44,-18],[-11,-57],[-37,6],[-18,-24],[-26,-149],[15,-20]],[[0,605],[122,0],[-15,-74],[83,-10],[38,-32],[46,-282],[42,4],[22,-35],[67,-5],[23,24],[34,-52],[75,-40],[12,-49],[53,12],[9,-66]],[[0,125],[148,86],[133,27]],[[808,607],[33,54]],[[824,2590],[0,-1]],[[1484,731],[-1,-2]],[[808,607],[1,0],[-1,0]],[[808,607]],[[1483,729],[2,0]],[[425,2790],[-10,17]],[[415,2807],[28,-2],[491,336],[132,130],[67,14],[214,180],[44,-64],[179,-143],[179,-26],[61,-112],[75,-51],[75,-31],[252,-10],[136,-94],[137,-37],[143,36],[204,-39],[170,55],[105,-1],[167,-106],[81,-23],[31,-41],[207,-43],[110,-61],[29,-50],[211,-77],[57,-5],[-5,38],[101,36]],[[415,2807]],[[415,2807],[-1,0],[1,0]],[[586,797],[-89,-44],[-66,3],[-54,42],[2,51],[-83,59],[-84,153],[-76,68],[-79,-1],[-57,-34]],[[1825,0],[-40,148],[-2,123],[-94,42],[-61,178],[-101,115],[13,23],[-43,41],[-13,60],[-32,-5]],[[910,3128],[-183,36],[-47,107],[-92,99],[6,174],[224,374],[163,178]],[[281,238],[261,40],[147,91],[199,67],[124,221]],[[321,2800],[95,-9]],[[0,2797],[150,-64],[132,71],[39,-4]],[[416,2791],[9,-1]],[[586,797],[149,-35],[12,-47],[48,-35],[123,-32],[273,-1],[260,79]],[[1389,713],[-2,3]],[[1452,725],[-1,1]],[[426,2788],[27,-38]],[[812,3902],[-261,194]],[[425,2790],[1,-2]],[[453,2750],[370,-160]],[[823,2590],[69,47],[268,5],[48,-22],[67,31],[177,-7],[124,105],[30,129],[187,131],[42,96]],[[1484,730],[21,114],[-43,81],[-17,512],[-119,26],[-56,61],[6,155],[74,164],[-51,32],[7,80],[-46,36],[-59,132],[-14,55],[23,89],[-117,58],[-130,113],[-90,30],[-50,122]],[[0,0],[0,4096],[4096,0],[0,-4096],[-4096,0]],[[316,2806],[63,8],[-21,14],[36,17],[23,-57],[36,0],[0,-38],[-98,6],[-39,50]]]}