{"objects":{"water":{"type":"GeometryCollection","geometries":[]},"buildings":{"type":"GeometryCollection","geometries":[]},"places":{"type":"GeometryCollection","geometries":[{"type":"Point","properties":{"name:pt":"\u00c1ustria","name:ps":"\u0627\u062a\u0631\u06cc\u0634","name:cy":"Awstria","name:mt":"Awstrija","name:ko":"\uc624\uc2a4\ud2b8\ub9ac\uc544","name:kn":"\u0c86\u0cb8\u0ccd\u0c9f\u0ccd\u0cb0\u0cbf\u0caf\u0cbe","name:km":"\u17a2\u17bc\u1791\u17d2\u179a\u17b8\u179f","name:kl":"\u00d8strigi","name:cs":"Rakousko","alt_name:eo":"A\u016dstrio","name:ki":"Austria","name:tr":"Avusturya","name:ku":"Awistriya","name:ti":"\u12a6\u1235\u1275\u122a\u12eb","name:ks":"\u0622\u0633\u0679\u0650\u06cc\u0627","name:to":"\u02bbAositulia","name:sv":"\u00d6sterrike","name:or":"\u0b05\u0b37\u0b4d\u0b1f\u0b4d\u0b30\u0b3f\u0b06","name:pl":"Austria","name:ta":"\u0b86\u0bb8\u0bcd\u0ba4\u0bbf\u0bb0\u0bbf\u0baf\u0bbe","name:tg":"\u0410\u0432\u0441\u0442\u0440\u0438\u044f","name:ca":"\u00c0ustria","name:te":"\u0c06\u0c38\u0c4d\u0c1f\u0c4d\u0c30\u0c3f\u0c2f\u0c3e","name:hu":"Ausztria","name:ro":"Austria","name:ka":"\u10d0\u10d5\u10e1\u10e2\u10e0\u10d8\u10d0","name:hr":"Austrija","name:da":"\u00d8strig","name:sr":"\u0410\u0443\u0441\u0442\u0440\u0438\u0458\u0430","name:dz":"\u0f68\u0f71\u0f7c\u0f66\u0f0b\u0f4a\u0fb2\u0f72\u0f0b\u0f61","source":"openstreetmap.org","name:lv":"Austrija","name:lt":"Austrija","name:hi":"\u0911\u0938\u094d\u091f\u094d\u0930\u093f\u092f\u093e","name:kk":"\u0410\u0432\u0441\u0442\u0440\u0438\u044f","name:he":"\u05d0\u05d5\u05e1\u05d8\u05e8\u05d9\u05d4","kind":"country","name:ur":"\u0622\u0633\u0679\u0631\u06cc\u0627","name:lb":"\u00c9istr\u00e4ich","name:la":"Austria","name:lg":"Awusituriya","name:uk":"\u0410\u0432\u0441\u0442\u0440\u0456\u044f","name:hy":"\u0531\u057e\u057d\u057f\u0580\u056b\u0561","min_zoom":2.0,"name:li":"Oosteriek","name:ln":"Otilisi","name:lo":"\u0ead\u0ebb\u0ead\u0e94\u0eaa\u0eb0\u0ec0\u0e95\u0ebc\u0e8d","name:oc":"\u00c0ustria","population":8205533,"name:el":"\u0391\u03c5\u03c3\u03c4\u03c1\u03af\u03b1","name:eo":"A\u016dstrujo","name:en":"Austria","name":"\u00d6sterreich","official_name":"Republik \u00d6sterreich","name:ee":"Austria nutome","name:th":"\u0e1b\u0e23\u0e30\u0e40\u0e17\u0e28\u0e2d\u0e2d\u0e2a\u0e40\u0e15\u0e23\u0e35\u0e22","name:gu":"\u0a91\u0ab8\u0acd\u0a9f\u0acd\u0ab0\u0abf\u0aaf\u0abe","name:eu":"Austria","name:et":"Austria","name:nl":"Oostenrijk","name:es":"Austria","name:ia":"Austria","name:rm":"Austria","name:rn":"Otirishe","name:az":"Avstriya","name:id":"Austria","name:ms":"Austria","name:mr":"\u0911\u0938\u094d\u091f\u094d\u0930\u093f\u092f\u093e","name:ar":"\u0627\u0644\u0646\u0645\u0633\u0627","name:my":"\u1029\u1005\u1010\u103c\u102e\u1038\u101a\u102c\u1038","name:io":"Austria","name:is":"Austurr\u00edki","name:am":"\u12a6\u1235\u1275\u122a\u12eb","name:it":"Austria","name:vi":"\u00c1o","name:ru":"\u0410\u0432\u0441\u0442\u0440\u0438\u044f","name:mn":"\u0410\u0432\u0441\u0442\u0440\u0438","name:mi":"Ateria","id":26847709,"name:mk":"\u0410\u0432\u0441\u0442\u0440\u0438\u0458\u0430","name:af":"Oostenryk","name:zu":"i-Austria","name:ha":"Ostiriya","name:nn":"Austerrike","name:ff":"Otiriis","name:fi":"It\u00e4valta","name:no":"\u00d8sterrike","name:mg":"Aotrisy","name:fo":"Eysturr\u00edki","name:fr":"Autriche","name:fy":"Eastenryk","name:vo":"L\u00f6ster\u00e4n","name:zh":"\u5965\u5730\u5229","name:gv":"Yn Austeyr","name:so":"Awsteriya","name:sn":"Austria","name:sl":"Avstrija","name:sk":"Rak\u00fasko","name:ja":"\u30aa\u30fc\u30b9\u30c8\u30ea\u30a2","name:si":"\u0d94\u0dc3\u0dca\u0da7\u0dca\u200d\u0dbb\u0dd2\u0dba\u0dcf\u0dc0","name:fa":"\u0627\u062a\u0631\u06cc\u0634","name:sg":"Otr\u00eesi","name:se":"Nuortariika","name:ne":"\u0905\u0937\u094d\u091f\u094d\u0930\u093f\u092f\u093e","name:br":"Aostria","name:bs":"Austrija","name:bm":"Otirisi","name:bn":"\u0985\u09b8\u09cd\u099f\u09cd\u09b0\u09bf\u09af\u09bc\u09be","name:bo":"\u0f68\u0f66\u0f9f\u0fb2\u0f72\u0f0b\u0f61\u0f0d","name:ml":"\u0d13\u0d38\u0d4d\u0d1f\u0d4d\u0d30\u0d3f\u0d2f","name:sw":"Austria","name:be":"\u0410\u045e\u0441\u0442\u0440\u044b\u044f","name:bg":"\u0410\u0432\u0441\u0442\u0440\u0438\u044f","name:ba":"\u0410\u0432\u0441\u0442\u0440\u0438\u044f","name:sq":"Austria","name:ga":"An Ostair","name:gd":"An Ostair","name:gl":"Austria","name:yo":"Or\u00edl\u1eb9\u0301\u00e8de As\u00edt\u00edr\u00ed\u00e0","name:ak":"\u0186stria","name:tt":"\u0410\u0432\u0441\u0442\u0440\u0438\u044f"},"coordinates":[2840,348]},{"type":"Point","properties":{"source":"naturalearthdata.com","kind":"locality","name":"Munich","population":1275000,"region_capital":true,"min_zoom":4.0,"id":7168},"coordinates":[470,2376]},{"type":"Point","properties":{"kind":"region","name:en":"Upper Austria","name:sk":"Horn\u00e9 Rak\u00fasko","name":"Ober\u00f6sterreich","kind_detail":"state","min_zoom":4.0,"source":"openstreetmap.org","name:fr":"Haute-Autriche","name:ru":"\u0412\u0435\u0440\u0445\u043d\u044f\u044f \u0410\u0432\u0441\u0442\u0440\u0438\u044f","name:bg":"\u0413\u043e\u0440\u043d\u0430 \u0410\u0432\u0441\u0442\u0440\u0438\u044f","name:hr":"Gornja Austrija","id":240080585},"coordinates":[4005,2633]},{"type":"Point","properties":{"kind":"region","name:sk":"Salzbursko","name":"Salzburg","name:lt":"Zalcburgas","kind_detail":"state","min_zoom":4.0,"source":"openstreetmap.org","name:fr":"Salzbourg","name:it":"Salisburgo","name:be":"\u0417\u0430\u043b\u044c\u0446\u0431\u0443\u0440\u0433","name:ru":"\u0417\u0430\u043b\u044c\u0446\u0431\u0443\u0440\u0433","name:bg":"\u0417\u0430\u043b\u0446\u0431\u0443\u0440\u0433","id":240094998,"name:es":"Salzburgo"},"coordinates":[2913,819]},{"type":"Point","properties":{"name:sk":"Tirolsko","name:lt":"Tirolis","min_zoom":4.0,"name:it":"Tirolo","name:uk":"\u0422\u0456\u0440\u043e\u043b\u044c","name:be":"\u0426\u0456\u0440\u043e\u043b\u044c","name:ru":"\u0422\u0438\u0440\u043e\u043b\u044c","name:pl":"Tyrol","name:bg":"\u0422\u0438\u0440\u043e\u043b","id":240122485,"name:el":"\u03a4\u03b9\u03c1\u03cc\u03bb\u03bf","kind":"region","name:en":"Tyrol","name":"Tirol","kind_detail":"state","name:da":"Tyrol","source":"openstreetmap.org","name:fr":"Tyrol"},"coordinates":[402,398]},{"type":"Point","properties":{"source":"naturalearthdata.com","kind":"locality","name":"Salzburg","population":206279,"region_capital":true,"min_zoom":7.0,"id":4597},"coordinates":[2607,1676]},{"type":"Point","properties":{"source":"naturalearthdata.com","kind":"locality","name":"Ingolstadt","population":163325,"min_zoom":7.0,"id":3625},"coordinates":[291,3765]},{"type":"Point","properties":{"source":"naturalearthdata.com","kind":"locality","name":"Innsbruck","population":155214,"region_capital":true,"min_zoom":7.0,"id":4598},"coordinates":[233,523]},{"type":"Point","properties":{"source":"naturalearthdata.com","kind":"locality","name":"Rosenheim","population":92809,"min_zoom":7.0,"id":3622},"coordinates":[1286,1763]},{"type":"Point","properties":{"source":"naturalearthdata.com","kind":"locality","name":"Passau","population":50560,"min_zoom":7.0,"id":4596},"coordinates":[3228,3323]}]},"transit":{"type":"GeometryCollection","geometries":[{"type":"MultiLineString","properties":{"kind":"train","network":"DB InterCityExpress","service":"long_distance","sort_rank":275,"source":"openstreetmap.org","min_zoom":5.0,"operator":"DB Fernverkehr AG","ref":"ICE 29","osm_relation":true,"name":"ICE 29: Berlin => Erfurt => M\u00fcnchen"},"arcs":[[68],[69]]},{"type":"MultiLineString","properties":{"kind":"train","name":"railjet M\u00fcnchen \u2013 Budapest","service":"high_speed","sort_rank":275,"colour":"#0050FF","source":"openstreetmap.org","min_zoom":5.0,"network":"\u00d6BB railjet;DB InterCityExpress","operator":"\u00d6BB","ref":"RJ90","osm_relation":true,"colour_name":"dodgerblue"},"arcs":[[70],[71],[72]]},{"type":"MultiLineString","properties":{"kind":"train","network":"DB","service":"regional","sort_rank":275,"source":"openstreetmap.org","min_zoom":6.0,"operator":"S\u00fcdostbayernbahn","ref":"953","osm_relation":true,"name":"KBS 953 Ruhpolding - Traunstein"},"arcs":[[73],[74]]},{"type":"MultiLineString","properties":{"kind":"train","name":"WESTblue Wien Praterstern \u2013 Salzburg","service":"long_distance","sort_rank":275,"colour":"#078ECA","source":"openstreetmap.org","min_zoom":5.0,"network":"WESTbahn","operator":"WESTbahn","ref":"WESTblue","osm_relation":true,"colour_name":"lightteal"},"arcs":[[75],[76],[77],[78]]},{"type":"MultiLineString","properties":{"kind":"train","name":"KBS 940 M\u00fcnchen - M\u00fchldorf","sort_rank":275,"source":"openstreetmap.org","min_zoom":6.0,"operator":"S\u00fcdostbayernbahn SOB","ref":"940","osm_relation":true,"network":"Deutsche Bahn"},"arcs":[[79],[80],[81],[82],[83],[84],[85],[86],[87]]},{"type":"MultiLineString","properties":{"kind":"train","network":"SVV","service":"commuter","sort_rank":275,"colour":"#0072BC","name":"S2 Salzburg","source":"openstreetmap.org","min_zoom":6.0,"operator":"\u00d6BB","ref":"S2","osm_relation":true,"colour_name":"lightteal"},"arcs":[[88],[89],[90]]},{"type":"MultiLineString","properties":{"kind":"train","network":"VVT","service":"regional","sort_rank":275,"source":"openstreetmap.org","min_zoom":6.0,"operator":"\u00d6BB","ref":"RX2","osm_relation":true,"name":"RX2 Innsbruck"},"arcs":[[91],[92],[93],[94],[95],[96],[97],[98],[99],[100],[101],[102],[103],[104],[105],[106]]},{"type":"MultiLineString","properties":{"kind":"train","name":"ICE 42: Dortmund => K\u00f6ln Hbf => M\u00fcnchen","service":"high_speed","sort_rank":275,"source":"openstreetmap.org","min_zoom":5.0,"operator":"DB Fernverkehr AG","ref":"ICE 42","osm_relation":true,"network":"DB InterCityExpress"},"arcs":[[107],[108]]},{"type":"LineString","properties":{"source":"openstreetmap.org","kind":"train","name":"Chiemsee-Bahn: Chiemseebahnhof => Prien-Stock","sort_rank":275,"min_zoom":6.0,"osm_relation":true,"id":-3227661},"arcs":[109]},{"type":"MultiLineString","properties":{"kind":"train","network":"DB","sort_rank":275,"source":"openstreetmap.org","min_zoom":6.0,"operator":"BRB","ref":"983","osm_relation":true,"name":"KBS 983 Ingolstadt - Augsburg (Paartalbahn)"},"arcs":[[110],[111]]},{"type":"MultiLineString","properties":{"kind":"train","network":"VVT","service":"commuter","sort_rank":275,"colour":"#5B9A6D","name":"S2 \u00d6tztal","source":"openstreetmap.org","min_zoom":6.0,"operator":"\u00d6BB","ref":"S2","osm_relation":true,"colour_name":"mediumseagreen"},"arcs":[[112],[113],[114],[115],[116],[117],[118],[119],[120],[121],[122],[123],[124],[125]]},{"type":"LineString","properties":{"kind":"train","network":"SVV","service":"commuter","sort_rank":275,"colour":"#B72841","name":"S1 Lamprechtshausen","source":"openstreetmap.org","min_zoom":6.0,"operator":"SLB","ref":"S1","id":-377612,"osm_relation":true,"colour_name":"brown"},"arcs":[126]},{"type":"MultiLineString","properties":{"kind":"train","name":"R171 Sch\u00e4rding","service":"regional","sort_rank":275,"source":"openstreetmap.org","min_zoom":6.0,"operator":"\u00d6BB","ref":"R171","osm_relation":true},"arcs":[[127],[128],[129],[130],[131],[132],[133],[134],[135],[136],[137],[138],[139],[140],[141],[142]]},{"type":"MultiLineString","properties":{"source":"openstreetmap.org","kind":"train","name":"Bahnstrecke Landshut\u2013Plattling","sort_rank":275,"min_zoom":6.0,"osm_relation":true},"arcs":[[143],[144],[145],[146]]},{"type":"MultiLineString","properties":{"kind":"train","name":"S4 Zirl","service":"commuter","sort_rank":275,"colour":"#BEC2D0","source":"openstreetmap.org","min_zoom":6.0,"network":"VVT","operator":"\u00d6BB","ref":"S4","osm_relation":true,"colour_name":"silver"},"arcs":[[147],[148],[149],[150],[151],[152],[153],[154],[155],[156],[157],[158],[159],[160],[161]]},{"type":"MultiLineString","properties":{"kind":"train","network":"DB InterCityExpress","service":"high_speed","sort_rank":275,"source":"openstreetmap.org","min_zoom":5.0,"operator":"DB Fernverkehr AG","ref":"ICE 25","osm_relation":true,"name":"ICE 25: Garmisch-Partenkirchen => Hamburg-Altona"},"arcs":[[162],[163],[164],[165],[166],[167],[168],[169]]},{"type":"MultiLineString","properties":{"kind":"train","network":"DB InterCityExpress","service":"high_speed","sort_rank":275,"source":"openstreetmap.org","min_zoom":5.0,"operator":"DB Fernverkehr AG","ref":"ICE 42","osm_relation":true,"name":"ICE 42: Dortmund => K\u00f6ln Messe\/Deutz => M\u00fcnchen"},"arcs":[[170],[171]]},{"type":"MultiLineString","properties":{"kind":"train","network":"VVT","service":"commuter","sort_rank":275,"colour":"#D4B4C4","name":"S5 Innsbruck","source":"openstreetmap.org","min_zoom":6.0,"operator":"\u00d6BB","ref":"S5","osm_relation":true,"colour_name":"silver"},"arcs":[[172],[173],[174],[175],[176],[177],[178],[179]]},{"type":"MultiLineString","properties":{"kind":"train","network":"VVT","service":"commuter","sort_rank":275,"colour":"#D7DF23","name":"S1 Telfs","source":"openstreetmap.org","min_zoom":6.0,"operator":"\u00d6BB","ref":"S1","osm_relation":true,"colour_name":"gold"},"arcs":[[180],[181],[182],[183],[184],[185],[186],[187],[188],[189],[190],[191],[192],[193],[194],[195],[196],[197],[198],[199],[200]]},{"type":"MultiLineString","properties":{"kind":"train","network":"Deutsche Bahn","service":"regional","sort_rank":275,"source":"openstreetmap.org","min_zoom":6.0,"operator":"Deutsche Bahn AG","ref":"948","osm_relation":true,"name":"KBS 948 Grafing-Wasserburg (Filzenexpress)"},"arcs":[[201],[202],[203],[204],[205],[206],[207],[208],[209],[210],[211],[212],[213]]},{"type":"MultiLineString","properties":{"source":"openstreetmap.org","kind":"train","name":"EC W\u00f6rthersee","sort_rank":275,"min_zoom":6.0,"osm_relation":true},"arcs":[[214],[215]]},{"type":"LineString","properties":{"kind":"train","network":"PJD","sort_rank":275,"name:de":"B\u00f6hmerwald S\u00fcdbahn","source":"openstreetmap.org","min_zoom":6.0,"operator":"Po\u0161umavsk\u00e1 ji\u017en\u00ed dr\u00e1ha","ref":"PJD","id":-6663774,"osm_relation":true,"name":"Po\u0161umavsk\u00e1 ji\u017en\u00ed dr\u00e1ha"},"arcs":[216]},{"type":"MultiLineString","properties":{"kind":"train","name":"R250 St. Michael \u2013 Bischofshofen","service":"regional","sort_rank":275,"source":"openstreetmap.org","min_zoom":6.0,"operator":"\u00d6BB","ref":"R250","osm_relation":true,"network":"VVSt"},"arcs":[[217],[218],[219],[220],[221],[222],[223],[224],[225],[226],[227],[228],[229],[230],[231],[232],[233],[234]]},{"type":"MultiLineString","properties":{"kind":"train","network":"DB InterCity","service":"long_distance","sort_rank":275,"colour":"#9D9D9D","name":"EuroCity Klagenfurt \u2013 Salzburg","source":"openstreetmap.org","min_zoom":5.0,"operator":"DB;\u00d6BB","ref":"EC62","osm_relation":true,"colour_name":"darkseagreen"},"arcs":[[235],[236],[237],[238],[239],[240],[241],[242],[243],[244],[245],[246],[247],[248],[249],[250],[251],[252],[253]]},{"type":"MultiLineString","properties":{"kind":"train","network":"DB InterCityExpress","service":"high_speed","sort_rank":275,"source":"openstreetmap.org","min_zoom":5.0,"operator":"DB Fernverkehr AG","ref":"ICE 25","osm_relation":true,"name":"ICE 25: Hamburg-Altona => Garmisch-Partenkirchen"},"arcs":[[254],[255],[256],[257],[258],[259],[260],[261],[262],[263],[264],[265],[266],[267],[268],[269],[270],[271],[272],[273]]},{"type":"MultiLineString","properties":{"kind":"train","name":"R171 Attnang-P","service":"regional","sort_rank":275,"source":"openstreetmap.org","min_zoom":6.0,"operator":"\u00d6BB","ref":"R171","osm_relation":true},"arcs":[[274],[275],[276],[277],[278],[279],[280],[281],[282],[283],[284],[285],[286],[287],[288],[289]]},{"type":"MultiLineString","properties":{"kind":"train","network":"SVV","service":"regional","sort_rank":275,"source":"openstreetmap.org","min_zoom":6.0,"operator":"\u00d6BB","ref":"REX200","osm_relation":true,"name":"REX Salzburg \u2013 Hochfilzen"},"arcs":[[290],[291],[292],[293]]},{"type":"MultiLineString","properties":{"kind":"train","network":"M\u00fcnchner Verkehrs- und Tarifverbund","service":"commuter","sort_rank":275,"colour":"#36CAEC","name":"S-Bahn S1: Freising => Ostbahnhof","source":"openstreetmap.org","min_zoom":6.0,"operator":"DB","ref":"S1","osm_relation":true,"colour_name":"mediumturquoise"},"arcs":[[294],[295],[296],[297],[298],[299],[300],[301],[302],[303],[304]]},{"type":"MultiLineString","properties":{"kind":"train","network":"DB InterCity","service":"long_distance","sort_rank":275,"source":"openstreetmap.org","min_zoom":5.0,"operator":"DB Fernverkehr AG","ref":"IC26","osm_relation":true,"name":"IC26 Hamburg => Berchtesgaden"},"arcs":[[305],[306],[307],[308],[309],[310],[311],[312],[313],[314],[315],[316],[317],[318],[319],[320],[321],[322],[323],[324],[325]]},{"type":"LineString","properties":{"kind":"train","name":"SBB St. Wolfgang","service":"tourism","sort_rank":275,"source":"openstreetmap.org","min_zoom":6.0,"operator":"SKGB","ref":"SBB","id":-3738034,"osm_relation":true},"arcs":[326]},{"type":"MultiLineString","properties":{"kind":"train","name":"WESTblue Salzburg \u2013 Wien Praterstern","service":"long_distance","sort_rank":275,"colour":"#078ECA","source":"openstreetmap.org","min_zoom":5.0,"network":"WESTbahn","operator":"WESTbahn","ref":"WESTblue","osm_relation":true,"colour_name":"lightteal"},"arcs":[[327],[328],[329],[330]]},{"type":"MultiLineString","properties":{"kind":"train","network":"M\u00fcnchner Verkehrs- und Tarifverbund","service":"commuter","sort_rank":275,"colour":"#862996","name":"S-Bahn S3: Holzkirchen => Mammendorf","source":"openstreetmap.org","min_zoom":6.0,"operator":"DB","ref":"S3","osm_relation":true,"colour_name":"purple"},"arcs":[[331],[332],[333],[334],[335],[336],[337],[338],[339],[340],[341],[342],[343],[344],[345],[346],[347],[348]]},{"type":"MultiLineString","properties":{"kind":"train","network":"DB InterCity","service":"long_distance","sort_rank":275,"colour":"#9D9D9D","name":"EuroCity Salzburg \u2013 Klagenfurt","source":"openstreetmap.org","min_zoom":5.0,"operator":"DB;\u00d6BB","ref":"EC62","osm_relation":true,"colour_name":"darkseagreen"},"arcs":[[349],[350],[351],[352],[353],[354],[355],[356],[357],[358],[359],[360],[361],[362]]},{"type":"MultiLineString","properties":{"kind":"train","network":"M\u00fcnchner Verkehrs- und Tarifverbund","service":"commuter","sort_rank":275,"colour":"#983224","name":"S-Bahn S7: Kreuzstra\u00dfe => Wolfratshausen","source":"openstreetmap.org","min_zoom":6.0,"operator":"DB","ref":"S7","osm_relation":true,"colour_name":"brown"},"arcs":[[363],[364],[365],[366],[367],[368],[369],[370],[371],[372],[373],[374],[375],[376],[377],[378],[379],[380],[381],[382],[383],[384],[385],[386],[387],[388],[389],[390],[391]]},{"type":"MultiLineString","properties":{"kind":"train","loc_name":"Stubaitalbahn","network":"VVT","sort_rank":275,"colour":"#630016","name":"STB Fulpmes \u2013 Innsbruck","source":"openstreetmap.org","min_zoom":6.0,"operator":"IVB","ref":"STB","osm_relation":true,"colour_name":"darkred"},"arcs":[[392],[393],[394],[395],[396],[397],[398],[399],[400],[401],[402],[403],[404],[405],[406],[407],[408],[409],[410],[411],[412],[413],[414],[415],[416],[417],[418],[419],[420],[421]]},{"type":"MultiLineString","properties":{"kind":"train","network":"Deutsche Bahn","sort_rank":275,"source":"openstreetmap.org","min_zoom":6.0,"operator":"Deutsche Bahn AG","ref":"970","osm_relation":true,"name":"KBS 970 M\u00fcnchen - Kempten - Lindau"},"arcs":[[422],[423],[424],[425],[426],[427],[428],[429],[430],[431],[432],[433],[434],[435],[436],[437],[438],[439],[440],[441],[442],[443],[444],[445],[446]]},{"type":"MultiLineString","properties":{"kind":"train","name":"BOB: M\u00fcnchen Hbf => Holzkirchen => Bayrischzell","sort_rank":275,"source":"openstreetmap.org","min_zoom":6.0,"operator":"Bayerische Oberlandbahn GmbH","ref":"BOB","osm_relation":true,"network":"Bayerische Oberlandbahn"},"arcs":[[447],[448],[449],[450],[451],[452],[453],[454],[455],[456],[457],[458],[459],[460],[461],[462],[463],[464],[465]]},{"type":"MultiLineString","properties":{"kind":"train","network":"VVT","service":"regional","sort_rank":275,"source":"openstreetmap.org","min_zoom":6.0,"operator":"\u00d6BB","ref":"RX3","osm_relation":true,"name":"RX3 Innsbruck"},"arcs":[[466],[467],[468]]},{"type":"MultiLineString","properties":{"kind":"train","network":"SVV","service":"regional","sort_rank":275,"source":"openstreetmap.org","min_zoom":6.0,"operator":"SLB","ref":"R230","osm_relation":true,"name":"R230 Zell am See"},"arcs":[[469],[470],[471],[472],[473],[474],[475],[476],[477],[478],[479],[480],[481],[482],[483],[484],[485],[486],[487]]},{"type":"MultiLineString","properties":{"kind":"train","network":"M\u00fcnchner Verkehrs- und Tarifverbund","service":"commuter","sort_rank":275,"colour":"#E7526B","name":"S-Bahn S20: H\u00f6llriegelskreuth => Pasing","source":"openstreetmap.org","min_zoom":6.0,"operator":"DB","ref":"S20","osm_relation":true,"colour_name":"tomato"},"arcs":[[488],[489],[490],[491],[492],[493],[494],[495]]},{"type":"MultiLineString","properties":{"kind":"train","network":"Deutsche Bahn","sort_rank":275,"source":"openstreetmap.org","min_zoom":6.0,"ref":"990","osm_relation":true,"name":"KBS 990 Ingolstadt - Treuchtlingen"},"arcs":[[496],[497]]},{"type":"LineString","properties":{"kind":"train","network":"O\u00d6VV","service":"regional","sort_rank":275,"source":"openstreetmap.org","min_zoom":6.0,"operator":"\u00d6BB","ref":"R142","id":-2433476,"osm_relation":true,"name":"R142 Aigen-Schl\u00e4gl \u2013 Linz"},"arcs":[498]},{"type":"MultiLineString","properties":{"kind":"train","network":"M\u00fcnchner Verkehrs- und Tarifverbund","service":"commuter","sort_rank":275,"colour":"#FF2D1D","name":"S-Bahn S4: Geltendorf => Ebersberg","source":"openstreetmap.org","min_zoom":6.0,"operator":"DB","ref":"S4","osm_relation":true,"colour_name":"orangered"},"arcs":[[499],[500],[501],[502],[503],[504],[505],[506],[507],[508],[509]]},{"type":"MultiLineString","properties":{"kind":"train","name":"R172 V\u00f6cklabruck \u2013 Kammer-Sch\u00f6rfling","service":"regional","sort_rank":275,"source":"openstreetmap.org","min_zoom":6.0,"operator":"\u00d6BB","ref":"R172","osm_relation":true,"network":"O\u00d6VV"},"arcs":[[510],[511],[512],[513],[514]]},{"type":"MultiLineString","properties":{"kind":"train","network":"O\u00d6VV","service":"regional","sort_rank":275,"source":"openstreetmap.org","min_zoom":6.0,"operator":"\u00d6BB","ref":"R172","osm_relation":true,"name":"R172 Kammer-Sch\u00f6rfling \u2013 V\u00f6cklabruck"},"arcs":[[515],[516],[517],[518]]},{"type":"MultiLineString","properties":{"kind":"train","name":"R250 Bischofshofen \u2013 St. Michael","service":"regional","sort_rank":275,"source":"openstreetmap.org","min_zoom":6.0,"operator":"\u00d6BB","ref":"R250","osm_relation":true,"network":"VVSt"},"arcs":[[519],[520],[521],[522],[523],[524],[525],[526],[527],[528],[529],[530],[531],[532],[533],[534],[535],[536]]},{"type":"MultiLineString","properties":{"kind":"train","network":"VVT","service":"regional","sort_rank":275,"source":"openstreetmap.org","min_zoom":6.0,"operator":"\u00d6BB","ref":"RX1","osm_relation":true,"name":"RX1 Innsbruck"},"arcs":[[537],[538],[539],[540],[541],[542],[543],[544],[545],[546],[547]]},{"type":"MultiLineString","properties":{"kind":"train","name":"KBS 945 (Salzburg -) Freilassing - M\u00fchldorf - Landshut","sort_rank":275,"source":"openstreetmap.org","min_zoom":6.0,"operator":"Deutsche Bahn","ref":"945","osm_relation":true},"arcs":[[548],[549],[550],[551],[552],[553],[554],[555],[556],[557]]},{"type":"MultiLineString","properties":{"kind":"train","network":"SVV","sort_rank":275,"colour":"#903F98","name":"S4: Freilassing => Berchtesgaden","source":"openstreetmap.org","min_zoom":6.0,"operator":"Berchtesgadener Land Bahn","ref":"S4","osm_relation":true,"colour_name":"darkorchid"},"arcs":[[558],[559],[560],[561],[562],[563],[564],[565],[566],[567]]},{"type":"LineString","properties":{"kind":"train","network":"VVSt","service":"regional","sort_rank":275,"colour":"#AB5533","name":"R630 Unzmarkt","source":"openstreetmap.org","min_zoom":6.0,"operator":"STLB","ref":"R630","id":-1698063,"osm_relation":true,"colour_name":"brown"},"arcs":[568]},{"type":"MultiLineString","properties":{"kind":"train","name":"S-Bahn S4: Ebersberg => Geltendorf","service":"commuter","sort_rank":275,"colour":"#FF2D1D","source":"openstreetmap.org","min_zoom":6.0,"network":"M\u00fcnchner Verkehrs- und Tarifverbund","operator":"DB","ref":"S4","osm_relation":true,"colour_name":"orangered"},"arcs":[[569],[570],[571],[572],[573],[574],[575],[576],[577],[578],[579],[580]]},{"type":"MultiLineString","properties":{"kind":"train","name":"R180 V\u00f6cklamarkt \u2013 Attersee","service":"regional","sort_rank":275,"source":"openstreetmap.org","min_zoom":6.0,"operator":"StH","ref":"R180","osm_relation":true,"network":"O\u00d6VV"},"arcs":[[581],[582],[583],[584],[585],[586],[587]]},{"type":"MultiLineString","properties":{"kind":"train","network":"M\u00fcnchner Verkehrs- und Tarifverbund","service":"commuter","sort_rank":275,"colour":"#FFC734","name":"S-Bahn S8: Flughafen M\u00fcnchen => Herrsching","source":"openstreetmap.org","min_zoom":6.0,"operator":"DB","ref":"S8","osm_relation":true,"colour_name":"goldenrod"},"arcs":[[588],[589],[590],[591],[592],[593],[594],[595],[596],[597],[598],[599],[600],[601],[602],[603],[604],[605],[606]]},{"type":"MultiLineString","properties":{"kind":"train","name":"S2 Stra\u00dfwalchen","service":"commuter","sort_rank":275,"colour":"#0072BC","source":"openstreetmap.org","min_zoom":6.0,"network":"SVV","operator":"\u00d6BB","ref":"S2","osm_relation":true,"colour_name":"lightteal"},"arcs":[[607],[608],[609]]},{"type":"MultiLineString","properties":{"kind":"train","network":"VVT","service":"regional","sort_rank":275,"source":"openstreetmap.org","min_zoom":6.0,"operator":"\u00d6BB","ref":"RX1","osm_relation":true,"name":"RX1 Kufstein"},"arcs":[[610],[611],[612],[613],[614],[615],[616],[617],[618],[619],[620],[621]]},{"type":"MultiLineString","properties":{"kind":"train","network":"DB InterCity","service":"long_distance","sort_rank":275,"source":"openstreetmap.org","min_zoom":5.0,"operator":"DB Fernverkehr AG","ref":"IC 61","osm_relation":true,"name":"IC 61: (M\u00fcnchen =>) N\u00fcrnberg => Karlsruhe"},"arcs":[[622],[623]]},{"type":"MultiLineString","properties":{"kind":"train","name":"IC26 Berchtesgaden => Hamburg","service":"long_distance","sort_rank":275,"source":"openstreetmap.org","min_zoom":5.0,"operator":"DB Fernverkehr AG","ref":"IC26","osm_relation":true,"network":"DB InterCity"},"arcs":[[624],[625],[626],[627],[628],[629],[630],[631],[632],[633],[634],[635],[636],[637],[638],[639]]},{"type":"MultiLineString","properties":{"kind":"train","name":"WESTgreen Salzburg \u2013 Wien Westbf","service":"long_distance","sort_rank":275,"colour":"#BECF07","source":"openstreetmap.org","min_zoom":5.0,"network":"WESTbahn","operator":"WESTbahn","ref":"WESTgreen","osm_relation":true,"colour_name":"yellowgreen"},"arcs":[[640],[641],[642],[643]]},{"type":"MultiLineString","properties":{"kind":"train","name":"KBS 959 Waging - Traunstein","service":"regional","sort_rank":275,"source":"openstreetmap.org","min_zoom":6.0,"operator":"S\u00fcdostbayernbahn","ref":"959","osm_relation":true,"network":"DB"},"arcs":[[644],[645]]},{"type":"MultiLineString","properties":{"kind":"train","network":"DB InterCityExpress","service":"high_speed","sort_rank":275,"source":"openstreetmap.org","min_zoom":5.0,"operator":"DB Fernverkehr AG","ref":"ICE 28","osm_relation":true,"name":"ICE 28: M\u00fcnchen => Hamburg"},"arcs":[[646],[647]]},{"type":"LineString","properties":{"kind":"train","name":"Laabertalbahn","sort_rank":275,"source":"openstreetmap.org","min_zoom":6.0,"ref":"12930","id":-1719413,"osm_relation":true},"arcs":[648]},{"type":"LineString","properties":{"kind":"train","name":"Museumsbahn Ampflwang \u2013 Timelkam","service":"tourism","sort_rank":275,"source":"openstreetmap.org","min_zoom":6.0,"operator":"\u00d6GEG","ref":"MAT","id":-2770233,"osm_relation":true},"arcs":[649]},{"type":"MultiLineString","properties":{"kind":"train","network":"SVV","sort_rank":275,"colour":"#22B24C","name":"S3 Freilassing - Golling","source":"openstreetmap.org","min_zoom":6.0,"operator":"\u00d6BB","ref":"S3","osm_relation":true,"colour_name":"limegreen"},"arcs":[[650],[651]]},{"type":"MultiLineString","properties":{"kind":"train","name":"S-Bahn S1: Flughafen => Ostbahnhof","service":"commuter","sort_rank":275,"colour":"#36CAEC","source":"openstreetmap.org","min_zoom":6.0,"network":"M\u00fcnchner Verkehrs- und Tarifverbund","operator":"DB","ref":"S1","osm_relation":true,"colour_name":"mediumturquoise"},"arcs":[[652],[653],[654],[655],[656],[657],[658],[659],[660],[661],[662]]},{"type":"MultiLineString","properties":{"kind":"train","name":"R151 Simbach","service":"regional","sort_rank":275,"source":"openstreetmap.org","min_zoom":6.0,"operator":"\u00d6BB","ref":"R151","osm_relation":true},"arcs":[[663],[664],[665],[666],[667],[668]]},{"type":"MultiLineString","properties":{"kind":"train","name":"WESTgreen Wien Westbf \u2013 Salzburg","service":"long_distance","sort_rank":275,"colour":"#BECF07","source":"openstreetmap.org","min_zoom":5.0,"network":"WESTbahn","operator":"WESTbahn","ref":"WESTgreen","osm_relation":true,"colour_name":"yellowgreen"},"arcs":[[669],[670],[671],[672]]},{"type":"MultiLineString","properties":{"kind":"train","name":"160 Lambach-Vorchdorf","sort_rank":275,"source":"openstreetmap.org","min_zoom":6.0,"operator":"Stern & Hafferl","ref":"160","osm_relation":true},"arcs":[[673],[674],[675]]},{"type":"MultiLineString","properties":{"kind":"train","name":"RX4 Garmisch","service":"regional","sort_rank":275,"source":"openstreetmap.org","min_zoom":6.0,"operator":"\u00d6BB","ref":"RX4","osm_relation":true,"network":"VVT"},"arcs":[[676],[677],[678],[679],[680],[681],[682],[683],[684]]},{"type":"MultiLineString","properties":{"kind":"train","network":"M\u00fcnchner Verkehrs- und Tarifverbund","service":"commuter","sort_rank":275,"colour":"#862996","name":"S-Bahn S3: Mammendorf => Holzkirchen","source":"openstreetmap.org","min_zoom":6.0,"operator":"DB","ref":"S3","osm_relation":true,"colour_name":"purple"},"arcs":[[685],[686],[687],[688],[689],[690],[691],[692],[693],[694],[695],[696],[697],[698],[699],[700],[701],[702],[703]]},{"type":"MultiLineString","properties":{"kind":"train","network":"VVT","service":"commuter","sort_rank":275,"colour":"#BEC2D0","name":"S4 Brenner","source":"openstreetmap.org","min_zoom":6.0,"operator":"\u00d6BB","ref":"S4","osm_relation":true,"colour_name":"silver"},"arcs":[[704],[705],[706],[707],[708],[709],[710],[711],[712],[713],[714],[715],[716],[717],[718],[719]]},{"type":"MultiLineString","properties":{"kind":"train","network":"SNCF TGV;DB InterCityExpress","service":"high_speed","sort_rank":275,"colour":"#5bc109","description":"TGV Paris - M\u00fcnchen","source":"openstreetmap.org","min_zoom":5.0,"operator":"Alleo GmbH","ref":"TGV 101;ICE 83","osm_relation":true,"colour_name":"limegreen"},"arcs":[[720],[721]]},{"type":"MultiLineString","properties":{"kind":"train","name":"S11 Salzburg","service":"commuter","sort_rank":275,"colour":"#B72841","source":"openstreetmap.org","min_zoom":6.0,"network":"SVV","operator":"SLB","ref":"S11","osm_relation":true,"colour_name":"brown"},"arcs":[[722],[723],[724],[725],[726],[727],[728]]},{"type":"LineString","properties":{"source":"openstreetmap.org","kind":"train","name":"Wendelsteinbahn (Talfahrt)","sort_rank":275,"min_zoom":6.0,"osm_relation":true,"id":-1331902},"arcs":[729]},{"type":"MultiLineString","properties":{"kind":"train","network":"M\u00fcnchner Verkehrs- und Tarifverbund","service":"commuter","sort_rank":275,"colour":"#00AC6F","name":"S-Bahn S6: Tutzing => Ebersberg","source":"openstreetmap.org","min_zoom":6.0,"operator":"DB","ref":"S6","osm_relation":true,"colour_name":"teal"},"arcs":[[730],[731],[732],[733],[734],[735],[736],[737],[738],[739],[740],[741]]},{"type":"LineString","properties":{"kind":"train","network":"VVSt","service":"regional","sort_rank":275,"colour":"#AB5533","name":"R630 Tamsweg","source":"openstreetmap.org","min_zoom":6.0,"operator":"STLB","ref":"R630","id":-1698064,"osm_relation":true,"colour_name":"brown"},"arcs":[742]},{"type":"MultiLineString","properties":{"source":"openstreetmap.org","kind":"train","name":"Train R170: Stainach-Irdning -> Attnang-Puchheim","sort_rank":275,"ref":"170","min_zoom":6.0,"osm_relation":true},"arcs":[[743],[744],[745]]},{"type":"MultiLineString","properties":{"kind":"train","network":"VVT","service":"commuter","sort_rank":275,"colour":"#257CA7","name":"S6 W\u00f6rgl","source":"openstreetmap.org","min_zoom":6.0,"operator":"\u00d6BB","ref":"S6","osm_relation":true,"colour_name":"steelblue"},"arcs":[[746],[747],[748],[749],[750],[751],[752],[753],[754],[755],[756],[757],[758],[759],[760],[761],[762]]},{"type":"MultiLineString","properties":{"kind":"train","name":"Meridian: Rosenheim => Holzkirchen => Deisenhofen => M\u00fcnchen Hbf","sort_rank":275,"source":"openstreetmap.org","min_zoom":6.0,"operator":"Bayerische Oberlandbahn GmbH","ref":"Meridian","osm_relation":true,"network":"Meridian"},"arcs":[[763],[764],[765],[766],[767]]},{"type":"MultiLineString","properties":{"kind":"train","name":"R143 Neumarkt \u2013 Eferding","service":"regional","sort_rank":275,"source":"openstreetmap.org","min_zoom":6.0,"operator":"StH","ref":"R143","osm_relation":true,"network":"O\u00d6VV"},"arcs":[[768],[769],[770],[771]]},{"type":"MultiLineString","properties":{"kind":"train","network":"DB InterCityExpress","service":"high_speed","sort_rank":275,"colour":"#00A7FF","name":"ICE Frankfurt \u2013 Wien","source":"openstreetmap.org","min_zoom":5.0,"operator":"DB Fernverkehr AG;\u00d6BB","ref":"ICE91","osm_relation":true,"colour_name":"dodgerblue"},"arcs":[[772],[773]]},{"type":"MultiLineString","properties":{"kind":"train","name":"S5: Eferding \u2013 Linz","service":"commuter","sort_rank":275,"source":"openstreetmap.org","min_zoom":6.0,"operator":"StH","ref":"S5","osm_relation":true,"network":"O\u00d6VV"},"arcs":[[774],[775],[776],[777],[778],[779],[780],[781],[782]]},{"type":"MultiLineString","properties":{"kind":"train","network":"DB InterCityExpress","service":"high_speed","sort_rank":275,"source":"openstreetmap.org","min_zoom":5.0,"operator":"DB Fernverkehr AG","ref":"ICE 41","osm_relation":true,"name":"ICE 41: M\u00fcnchen => Essen"},"arcs":[[783],[784]]},{"type":"MultiLineString","properties":{"source":"openstreetmap.org","kind":"train","name":"KBS 932 Neufahrn - Straubing - Bogen (G\u00e4ubodenbahn)","sort_rank":275,"ref":"932","min_zoom":6.0,"osm_relation":true},"arcs":[[785],[786],[787],[788],[789],[790]]},{"type":"MultiLineString","properties":{"kind":"train","network":"\u00d6BB RailJet","service":"high_speed","sort_rank":275,"source":"openstreetmap.org","min_zoom":5.0,"operator":"\u00d6BB","ref":"RJ 63","osm_relation":true,"name":"RJ 63: Frankfurt <=> M\u00fcnchen"},"arcs":[[791],[792]]},{"type":"LineString","properties":{"kind":"train","network":"\u00d6BB;DB InterCity","service":"long_distance","sort_rank":275,"source":"openstreetmap.org","min_zoom":5.0,"operator":"\u00d6BB;DB Fernverkehr AG","ref":"IC 32","id":-6489263,"osm_relation":true,"name":"IC 32: M\u00fcnster => Innsbruck"},"arcs":[793]},{"type":"MultiLineString","properties":{"kind":"train","name":"R143 Eferding \u2013 Peuerbach","service":"regional","sort_rank":275,"source":"openstreetmap.org","min_zoom":6.0,"operator":"StH","ref":"R143","osm_relation":true,"network":"O\u00d6VV"},"arcs":[[794],[795],[796]]},{"type":"LineString","properties":{"kind":"train","network":"\u00d6BB;DB InterCity","service":"long_distance","sort_rank":275,"source":"openstreetmap.org","min_zoom":5.0,"operator":"\u00d6BB;DB Fernverkehr AG","ref":"IC 32","id":-6489269,"osm_relation":true,"name":"IC 32: Innsbruck => M\u00fcnster"},"arcs":[797]},{"type":"MultiLineString","properties":{"kind":"train","network":"DB InterCityExpress","service":"high_speed","sort_rank":275,"source":"openstreetmap.org","min_zoom":5.0,"operator":"DB Fernverkehr AG","ref":"ICE 41","osm_relation":true,"name":"ICE 41: Essen => M\u00fcnchen"},"arcs":[[798],[799]]},{"type":"LineString","properties":{"source":"openstreetmap.org","kind":"train","name":"KBS 949  Traunstein - Traunreut","sort_rank":275,"min_zoom":6.0,"osm_relation":true,"id":-7187611},"arcs":[800]},{"type":"MultiLineString","properties":{"kind":"train","network":"O\u00d6VV","service":"regional","sort_rank":275,"source":"openstreetmap.org","min_zoom":6.0,"operator":"\u00d6BB","ref":"R153","osm_relation":true,"name":"R153 Gr\u00fcnau \u2013 Wels"},"arcs":[[801],[802],[803],[804],[805],[806],[807],[808]]},{"type":"MultiLineString","properties":{"kind":"train","name":"BOB: Bayrischzell => Holzkirchen => M\u00fcnchen Hbf","sort_rank":275,"source":"openstreetmap.org","min_zoom":6.0,"operator":"Bayerische Oberlandbahn GmbH","ref":"BOB","osm_relation":true,"network":"Bayerische Oberlandbahn"},"arcs":[[809],[810],[811],[812],[813],[814],[815],[816],[817],[818],[819],[820],[821],[822],[823],[824],[825],[826],[827]]},{"type":"MultiLineString","properties":{"kind":"train","network":"DB InterCityExpress","service":"long_distance","sort_rank":275,"source":"openstreetmap.org","min_zoom":5.0,"operator":"DB Fernverkehr AG","ref":"ICE 28","osm_relation":true,"name":"ICE 28: Hamburg => M\u00fcnchen"},"arcs":[[828],[829]]},{"type":"MultiLineString","properties":{"kind":"train","network":"O\u00d6VV","service":"commuter","sort_rank":275,"source":"openstreetmap.org","min_zoom":6.0,"operator":"\u00d6BB","ref":"S2","osm_relation":true,"name":"S2: Wels \u2013 Linz"},"arcs":[[830],[831],[832],[833],[834],[835],[836],[837]]},{"type":"MultiLineString","properties":{"kind":"train","network":"DB InterCity;\u00d6BB;EuroCity","service":"long_distance","sort_rank":275,"colour":"#FFA700","name":"EC89: Verona => M\u00fcnchen","source":"openstreetmap.org","min_zoom":5.0,"operator":"\u00d6BB","ref":"EC89","osm_relation":true,"colour_name":"orange"},"arcs":[[838],[839],[840]]},{"type":"MultiLineString","properties":{"kind":"train","name":"BOB: M\u00fcnchen Hbf => Holzkirchen => Bad T\u00f6lz => Lenggries","sort_rank":275,"source":"openstreetmap.org","min_zoom":6.0,"operator":"Bayerische Oberlandbahn GmbH","ref":"BOB","osm_relation":true,"network":"Bayerische Oberlandbahn"},"arcs":[[841],[842],[843],[844],[845],[846],[847],[848],[849],[850],[851],[852],[853]]},{"type":"MultiLineString","properties":{"kind":"train","network":"DB InterCity","service":"long_distance","sort_rank":275,"source":"openstreetmap.org","min_zoom":5.0,"operator":"DB Fernverkehr AG","ref":"IC 60","osm_relation":true,"name":"IC 60: (Basel Bad Bf =>) Karlsruhe => M\u00fcnchen"},"arcs":[[854],[855]]},{"type":"LineString","properties":{"kind":"train","name":"KBS12988 Pfettrachtalbahn Landshut - Neuhausen","sort_rank":275,"source":"openstreetmap.org","min_zoom":6.0,"operator":"BayernBahn Betriebs-GmbH","ref":"12988","id":-2983158,"osm_relation":true},"arcs":[856]},{"type":"MultiLineString","properties":{"kind":"train","network":"DB InterCity","service":"long_distance","sort_rank":275,"source":"openstreetmap.org","min_zoom":5.0,"operator":"DB Fernverkehr AG","ref":"IC 61","osm_relation":true,"name":"IC 61: Karlsruhe => N\u00fcrnberg (=> M\u00fcnchen)"},"arcs":[[857],[858]]},{"type":"MultiLineString","properties":{"kind":"train","network":"DB","service":"regional","sort_rank":275,"source":"openstreetmap.org","min_zoom":6.0,"operator":"Chiemgau Bahn","ref":"952","osm_relation":true,"name":"Chiemgaubahn: Aschau => Prien am Chiemsee"},"arcs":[[859],[860],[861]]},{"type":"MultiLineString","properties":{"kind":"train","loc_name":"Stubaitalbahn","network":"VVT","sort_rank":275,"colour":"#630016","name":"STB Innsbruck \u2013 Fulpmes","source":"openstreetmap.org","min_zoom":6.0,"operator":"IVB","ref":"STB","osm_relation":true,"colour_name":"darkred"},"arcs":[[862],[863],[864],[865],[866],[867],[868],[869],[870],[871],[872],[873],[874],[875],[876],[877],[878],[879],[880],[881],[882],[883],[884],[885],[886],[887],[888]]},{"type":"MultiLineString","properties":{"kind":"train","network":"VVT","service":"commuter","sort_rank":275,"colour":"#5B9A6D","name":"S2 Jenbach","source":"openstreetmap.org","min_zoom":6.0,"operator":"\u00d6BB","ref":"S2","osm_relation":true,"colour_name":"mediumseagreen"},"arcs":[[889],[890],[891],[892],[893],[894],[895],[896],[897],[898],[899],[900],[901],[902]]},{"type":"MultiLineString","properties":{"kind":"train","network":"DB","service":"regional","sort_rank":275,"source":"openstreetmap.org","min_zoom":6.0,"operator":"Chiemgau Bahn","ref":"952","osm_relation":true,"name":"Chiemgaubahn: Prien am Chiemsee => Aschau"},"arcs":[[903],[904],[905]]},{"type":"MultiLineString","properties":{"kind":"train","network":"DB InterCityExpress","service":"high_speed","sort_rank":275,"source":"openstreetmap.org","min_zoom":5.0,"operator":"DB Fernverkehr AG","ref":"ICE 25","osm_relation":true,"name":"ICE 25: Hamburg-Altona => M\u00fcnchen"},"arcs":[[906],[907]]},{"type":"MultiLineString","properties":{"kind":"train","name":"S11 Ostermiething","service":"commuter","sort_rank":275,"colour":"#B72841","source":"openstreetmap.org","min_zoom":6.0,"network":"SVV","operator":"SLB","ref":"S11","osm_relation":true,"colour_name":"brown"},"arcs":[[908],[909],[910],[911],[912],[913],[914]]},{"type":"MultiLineString","properties":{"kind":"train","network":"DB InterCityExpress","service":"high_speed","sort_rank":275,"colour":"#00A7FF","name":"ICE Wien \u2013 Frankfurt","source":"openstreetmap.org","min_zoom":5.0,"operator":"DB Fernverkehr AG;\u00d6BB","ref":"ICE91","osm_relation":true,"colour_name":"dodgerblue"},"arcs":[[915],[916]]},{"type":"MultiLineString","properties":{"kind":"train","network":"VVT","service":"tourism","sort_rank":275,"source":"openstreetmap.org","min_zoom":6.0,"operator":"Achenseebahn AG","ref":"AB1","osm_relation":true,"name":"AB1 Jenbach \u2013 Achensee"},"arcs":[[917],[918]]},{"type":"MultiLineString","properties":{"kind":"train","name":"R143 Eferding \u2013 Neumarkt","service":"regional","sort_rank":275,"source":"openstreetmap.org","min_zoom":6.0,"operator":"StH","ref":"R143","osm_relation":true,"network":"O\u00d6VV"},"arcs":[[919],[920],[921],[922]]},{"type":"MultiLineString","properties":{"kind":"train","network":"DB InterCity;SBB InterCity;EuroCity","service":"international","sort_rank":275,"source":"openstreetmap.org","min_zoom":5.0,"operator":"DB Fernverkehr AG;SBB","ref":"EC 88","osm_relation":true,"name":"EC 88: M\u00fcnchen => Z\u00fcrich"},"arcs":[[923],[924]]},{"type":"MultiLineString","properties":{"kind":"train","name":"Zug R1: Augsburg => M\u00fcnchen","sort_rank":275,"source":"openstreetmap.org","min_zoom":6.0,"ref":"R1","osm_relation":true,"network":"Augsburger Verkehrs- und Tarifverbund"},"arcs":[[925],[926]]},{"type":"MultiLineString","properties":{"kind":"train","network":"M\u00fcnchner Verkehrs- und Tarifverbund","service":"commuter","sort_rank":275,"colour":"#6CC247","name":"S-Bahn S2: Altom\u00fcnster => Erding","source":"openstreetmap.org","min_zoom":6.0,"operator":"DB","ref":"S2","osm_relation":true,"colour_name":"yellowgreen"},"arcs":[[927],[928],[929],[930],[931],[932],[933],[934],[935],[936],[937],[938],[939],[940],[941],[942],[943],[944],[945],[946],[947],[948],[949]]},{"type":"MultiLineString","properties":{"kind":"train","network":"DB InterCityExpress","service":"high_speed","sort_rank":275,"source":"openstreetmap.org","min_zoom":5.0,"operator":"DB Fernverkehr AG","ref":"ICE 42","osm_relation":true,"name":"ICE 42: M\u00fcnchen => K\u00f6ln Hbf => Dortmund"},"arcs":[[950],[951]]},{"type":"MultiLineString","properties":{"kind":"train","network":"SNCF TGV;DB InterCityExpress","service":"high_speed","sort_rank":275,"colour":"#5bc109","description":"TGV M\u00fcnchen - Paris","source":"openstreetmap.org","min_zoom":5.0,"operator":"Alleo GmbH","ref":"TGV 101;ICE 83","osm_relation":true,"colour_name":"limegreen"},"arcs":[[952],[953]]},{"type":"LineString","properties":{"kind":"train","name":"SBB Schafberg","service":"tourism","sort_rank":275,"source":"openstreetmap.org","min_zoom":6.0,"operator":"SKGB","ref":"SBB","id":-3738036,"osm_relation":true},"arcs":[954]},{"type":"MultiLineString","properties":{"kind":"train","network":"DB InterCity","service":"long_distance","sort_rank":275,"colour":"#9D9D9D","name":"IC 62: Frankfurt => Salzburg","source":"openstreetmap.org","min_zoom":5.0,"operator":"DB Fernverkehr AG","ref":"IC62","osm_relation":true,"colour_name":"darkseagreen"},"arcs":[[955],[956],[957],[958],[959],[960],[961],[962],[963],[964],[965]]},{"type":"MultiLineString","properties":{"kind":"train","network":"DB","sort_rank":275,"source":"openstreetmap.org","min_zoom":6.0,"operator":"BRB","ref":"983","osm_relation":true,"name":"KBS 983 Augsburg - Ingolstadt (Paartalbahn)"},"arcs":[[966],[967]]},{"type":"MultiLineString","properties":{"kind":"train","network":"DB InterCity","service":"long_distance","sort_rank":275,"colour":"#9D9D9D","name":"IC 62: Salzburg => Frankfurt","source":"openstreetmap.org","min_zoom":5.0,"operator":"DB Fernverkehr AG","ref":"IC62","osm_relation":true,"colour_name":"darkseagreen"},"arcs":[[968],[969],[970],[971],[972],[973],[974],[975],[976],[977],[978],[979]]},{"type":"MultiLineString","properties":{"kind":"train","network":"VVT","service":"commuter","sort_rank":275,"colour":"#874487","name":"S3 Steinach","source":"openstreetmap.org","min_zoom":6.0,"operator":"\u00d6BB","ref":"S3","osm_relation":true,"colour_name":"grey"},"arcs":[[980],[981],[982]]},{"type":"MultiLineString","properties":{"kind":"train","network":"M\u00fcnchner Verkehrs- und Tarifverbund","service":"commuter","sort_rank":275,"colour":"#36CAEC","name":"S-Bahn S1: Ostbahnhof => Flughafen","source":"openstreetmap.org","min_zoom":6.0,"operator":"DB","ref":"S1","osm_relation":true,"colour_name":"mediumturquoise"},"arcs":[[983],[984],[985],[986],[987],[988],[989],[990],[991],[992],[993],[994]]},{"type":"MultiLineString","properties":{"kind":"train","network":"VVT","service":"regional","sort_rank":275,"colour":"#92B0C1","name":"ZB1 Jenbach \u2013 Mayrhofen","source":"openstreetmap.org","min_zoom":6.0,"operator":"Zillertaler Verkehrsbetriebe","ref":"ZB1","osm_relation":true,"colour_name":"silver"},"arcs":[[995],[996]]},{"type":"MultiLineString","properties":{"kind":"train","network":"O\u00d6VV","service":"regional","sort_rank":275,"source":"openstreetmap.org","min_zoom":6.0,"operator":"\u00d6BB","ref":"R153","osm_relation":true,"name":"R153 Wels \u2013 Gr\u00fcnau"},"arcs":[[997],[998],[999],[1000],[1001],[1002],[1003],[1004]]},{"type":"MultiLineString","properties":{"kind":"train","name":"R180 Attersee \u2013 V\u00f6cklamarkt","service":"regional","sort_rank":275,"source":"openstreetmap.org","min_zoom":6.0,"operator":"StH","ref":"R180","osm_relation":true,"network":"O\u00d6VV"},"arcs":[[1005],[1006],[1007],[1008],[1009],[1010],[1011]]},{"type":"MultiLineString","properties":{"kind":"train","name":"R190 Salzburg","service":"regional","sort_rank":275,"source":"openstreetmap.org","min_zoom":6.0,"operator":"\u00d6BB","ref":"R190","osm_relation":true},"arcs":[[1012],[1013],[1014],[1015],[1016],[1017],[1018],[1019],[1020],[1021],[1022],[1023],[1024],[1025]]},{"type":"MultiLineString","properties":{"kind":"train","network":"DB InterCityExpress","service":"high_speed","sort_rank":275,"source":"openstreetmap.org","min_zoom":5.0,"operator":"DB Fernverkehr AG","ref":"ICE 11","osm_relation":true,"name":"ICE 11: M\u00fcnchen => Frankfurt => Berlin"},"arcs":[[1026],[1027]]},{"type":"MultiLineString","properties":{"kind":"train","network":"DB InterCity","service":"long_distance","sort_rank":275,"source":"openstreetmap.org","min_zoom":5.0,"operator":"DB Fernverkehr AG","ref":"IC 60","osm_relation":true,"name":"IC 60: M\u00fcnchen => Karlsruhe (=> Basel Bad Bf)"},"arcs":[[1028],[1029]]},{"type":"MultiLineString","properties":{"kind":"train","name":"KBS 980 Ulm - M\u00fcnchen","sort_rank":275,"source":"openstreetmap.org","min_zoom":6.0,"operator":"Deutsche Bahn AG","ref":"980","osm_relation":true,"network":"Deutsche Bahn"},"arcs":[[1030],[1031],[1032],[1033]]},{"type":"MultiLineString","properties":{"kind":"train","network":"M\u00fcnchner Verkehrs- und Tarifverbund","service":"commuter","sort_rank":275,"colour":"#36CAEC","name":"S-Bahn S1: Ostbahnhof => Freising","source":"openstreetmap.org","min_zoom":6.0,"operator":"DB","ref":"S1","osm_relation":true,"colour_name":"mediumturquoise"},"arcs":[[1034],[1035],[1036],[1037],[1038],[1039],[1040],[1041],[1042],[1043],[1044],[1045]]},{"type":"MultiLineString","properties":{"kind":"train","name":"R151 Neumarkt","service":"regional","sort_rank":275,"source":"openstreetmap.org","min_zoom":6.0,"operator":"\u00d6BB","ref":"R151","osm_relation":true},"arcs":[[1046],[1047],[1048],[1049],[1050],[1051]]},{"type":"MultiLineString","properties":{"kind":"train","name":"S3 Golling - Freilassing","sort_rank":275,"colour":"#22B24C","source":"openstreetmap.org","min_zoom":6.0,"network":"SVV","operator":"\u00d6BB","ref":"S3","osm_relation":true,"colour_name":"limegreen"},"arcs":[[1052],[1053]]},{"type":"MultiLineString","properties":{"kind":"train","network":"Deutsche Bahn AG","sort_rank":275,"min_zoom":6.0,"source":"openstreetmap.org","state":"connection","operator":"Deutsche Bahn AG","ref":"961","osm_relation":true,"name":"KBS 961 (M\u00fcnchen -) Tutzing - Kochel"},"arcs":[[1054],[1055],[1056]]},{"type":"MultiLineString","properties":{"kind":"train","network":"Alex","sort_rank":275,"name:de":"AlexNord: Prag <=> Regensburg <=> M\u00fcnchen","source":"openstreetmap.org","min_zoom":6.0,"ref":"ALXn","osm_relation":true,"name":"AlexNord: Praha <=> Regensburg <=> M\u00fcnchen"},"arcs":[[1057],[1058],[1059],[1060]]},{"type":"MultiLineString","properties":{"source":"openstreetmap.org","kind":"train","name":"Wachtlbahn","sort_rank":275,"min_zoom":6.0,"osm_relation":true},"arcs":[[1061],[1062],[1063]]},{"type":"MultiLineString","properties":{"kind":"train","network":"M\u00fcnchner Verkehrs- und Tarifverbund","service":"commuter","sort_rank":275,"colour":"#6CC247","name":"S-Bahn S2: Petershausen => Erding","source":"openstreetmap.org","min_zoom":6.0,"operator":"DB","ref":"S2","osm_relation":true,"colour_name":"yellowgreen"},"arcs":[[1064],[1065],[1066],[1067],[1068],[1069],[1070],[1071],[1072],[1073],[1074],[1075],[1076],[1077],[1078],[1079],[1080]]},{"type":"MultiLineString","properties":{"kind":"train","network":"VVT","service":"commuter","sort_rank":275,"colour":"#257CA7","name":"S6 Hochfilzen","source":"openstreetmap.org","min_zoom":6.0,"operator":"\u00d6BB","ref":"S6","osm_relation":true,"colour_name":"steelblue"},"arcs":[[1081],[1082],[1083],[1084],[1085],[1086],[1087],[1088],[1089],[1090],[1091],[1092],[1093],[1094],[1095],[1096],[1097]]},{"type":"MultiLineString","properties":{"kind":"train","name":"KBS 931 M\u00fcnchen - Landshut - Passau","sort_rank":275,"source":"openstreetmap.org","min_zoom":6.0,"operator":"Deutsche Bahn AG","ref":"931","osm_relation":true,"network":"Deutsche Bahn"},"arcs":[[1098],[1099],[1100],[1101],[1102],[1103],[1104]]},{"type":"MultiLineString","properties":{"kind":"train","network":"VVT","service":"regional","sort_rank":275,"source":"openstreetmap.org","min_zoom":6.0,"operator":"\u00d6BB","ref":"RX4","osm_relation":true,"name":"RX4 Innsbruck"},"arcs":[[1105],[1106],[1107],[1108],[1109],[1110],[1111],[1112],[1113]]},{"type":"MultiLineString","properties":{"kind":"train","network":"VVT","service":"regional","sort_rank":275,"source":"openstreetmap.org","min_zoom":6.0,"operator":"\u00d6BB","ref":"RX3","osm_relation":true,"name":"RX3 Landeck"},"arcs":[[1114],[1115],[1116]]},{"type":"LineString","properties":{"kind":"train","name":"Waldbahn Plattling - Bayerisch Eisenstein (KBS 905)","sort_rank":275,"source":"openstreetmap.org","min_zoom":6.0,"operator":"Waldbahn","ref":"905","id":-286359,"osm_relation":true},"arcs":[1117]},{"type":"MultiLineString","properties":{"kind":"train","name":"Meridian: M\u00fcnchen Hbf => Deisenhofen => Holzkirchen => Rosenheim","sort_rank":275,"source":"openstreetmap.org","min_zoom":6.0,"operator":"Bayerische Oberlandbahn GmbH","ref":"Meridian","osm_relation":true,"network":"Meridian"},"arcs":[[1118],[1119],[1120],[1121],[1122]]},{"type":"MultiLineString","properties":{"kind":"train","name":"KBS 942 M\u00fchldorf - Burghausen","service":"regional","sort_rank":275,"source":"openstreetmap.org","min_zoom":6.0,"operator":"DB","ref":"942","osm_relation":true,"network":"DB"},"arcs":[[1123],[1124],[1125],[1126],[1127],[1128],[1129],[1130],[1131],[1132],[1133],[1134],[1135],[1136],[1137],[1138],[1139],[1140],[1141],[1142],[1143],[1144],[1145],[1146],[1147],[1148],[1149],[1150],[1151],[1152],[1153],[1154],[1155],[1156],[1157],[1158],[1159],[1160],[1161]]},{"type":"MultiLineString","properties":{"kind":"train","loc_name":"Stubaitalbahn","network":"VVT","sort_rank":275,"colour":"#630016","name":"STB Kreith \u2013 Innsbruck","source":"openstreetmap.org","min_zoom":6.0,"operator":"IVB","ref":"STB","osm_relation":true,"colour_name":"darkred"},"arcs":[[1162],[1163],[1164],[1165],[1166],[1167],[1168],[1169],[1170],[1171],[1172],[1173],[1174],[1175],[1176],[1177],[1178],[1179],[1180],[1181],[1182],[1183],[1184],[1185]]},{"type":"MultiLineString","properties":{"kind":"train","network":"M\u00fcnchner Verkehrs- und Tarifverbund","service":"commuter","sort_rank":275,"colour":"#983224","name":"S-Bahn S7: Wolfratshausen => Kreuzstra\u00dfe","source":"openstreetmap.org","min_zoom":6.0,"operator":"DB","ref":"S7","osm_relation":true,"colour_name":"brown"},"arcs":[[1186],[1187],[1188],[1189],[1190],[1191],[1192],[1193],[1194],[1195],[1196],[1197],[1198],[1199],[1200],[1201],[1202],[1203],[1204],[1205],[1206],[1207],[1208],[1209],[1210],[1211],[1212],[1213],[1214],[1215],[1216],[1217]]},{"type":"MultiLineString","properties":{"kind":"train","network":"SVV","service":"regional","sort_rank":275,"source":"openstreetmap.org","min_zoom":6.0,"operator":"SLB","ref":"R230","osm_relation":true,"name":"R230 Krimml"},"arcs":[[1218],[1219],[1220],[1221],[1222],[1223],[1224],[1225],[1226],[1227],[1228],[1229],[1230],[1231],[1232],[1233],[1234],[1235],[1236]]},{"type":"MultiLineString","properties":{"kind":"train","name":"S4: Berchtesgaden => Freilassing","sort_rank":275,"colour":"#903F98","source":"openstreetmap.org","min_zoom":6.0,"network":"SVV","operator":"Berchtesgadener Land Bahn","ref":"S4","osm_relation":true,"colour_name":"darkorchid"},"arcs":[[1237],[1238],[1239],[1240],[1241],[1242],[1243],[1244],[1245],[1246]]},{"type":"LineString","properties":{"kind":"train","name":"Waldbahn Zwiesel - Grafenau (KBS 906)","sort_rank":275,"source":"openstreetmap.org","min_zoom":6.0,"operator":"Waldbahn","ref":"906","id":-286344,"osm_relation":true},"arcs":[1247]},{"type":"MultiLineString","properties":{"kind":"train","network":"DB InterCityExpress","service":"high_speed","sort_rank":275,"source":"openstreetmap.org","min_zoom":5.0,"operator":"DB Fernverkehr AG","ref":"ICE 25","osm_relation":true,"name":"ICE 25: M\u00fcnchen => Hamburg-Altona"},"arcs":[[1248],[1249]]},{"type":"MultiLineString","properties":{"kind":"train","network":"DB InterCityExpress","service":"high_speed","sort_rank":275,"source":"openstreetmap.org","min_zoom":5.0,"operator":"DB Fernverkehr AG","ref":"ICE 11","osm_relation":true,"name":"ICE 11: Berlin => Frankfurt => M\u00fcnchen"},"arcs":[[1250],[1251]]},{"type":"MultiLineString","properties":{"kind":"train","name":"EC 88: Z\u00fcrich => M\u00fcnchen","service":"international","sort_rank":275,"source":"openstreetmap.org","min_zoom":5.0,"operator":"DB Fernverkehr AG;SBB","ref":"EC 88","osm_relation":true,"network":"DB InterCity;SBB InterCity;EuroCity"},"arcs":[[1252],[1253]]},{"type":"MultiLineString","properties":{"kind":"train","network":"VVT","service":"regional","sort_rank":275,"source":"openstreetmap.org","min_zoom":6.0,"operator":"\u00d6BB","ref":"RX2","osm_relation":true,"name":"RX2 Hochfilzen"},"arcs":[[1254],[1255],[1256],[1257],[1258],[1259],[1260],[1261],[1262],[1263],[1264],[1265],[1266],[1267],[1268],[1269]]},{"type":"MultiLineString","properties":{"kind":"train","network":"DB InterCity;\u00d6BB;EuroCity","service":"long_distance","sort_rank":275,"colour":"#9D9D9D","name":"EC 62: Frankfurt => Linz","source":"openstreetmap.org","min_zoom":5.0,"operator":"DB Fernverkehr AG;\u00d6BB","ref":"EC62","osm_relation":true,"colour_name":"darkseagreen"},"arcs":[[1270],[1271],[1272],[1273],[1274],[1275],[1276],[1277],[1278],[1279],[1280]]},{"type":"MultiLineString","properties":{"kind":"train","network":"M\u00fcnchner Verkehrs- und Tarifverbund","service":"commuter","sort_rank":275,"colour":"#6CC247","name":"S-Bahn S2: Erding => Petershausen","source":"openstreetmap.org","min_zoom":6.0,"operator":"DB","ref":"S2","osm_relation":true,"colour_name":"yellowgreen"},"arcs":[[1281],[1282],[1283],[1284],[1285],[1286],[1287],[1288],[1289],[1290],[1291],[1292],[1293],[1294],[1295],[1296],[1297]]},{"type":"LineString","properties":{"kind":"train","name":"161 Vorchdorf-Gmunden","sort_rank":275,"source":"openstreetmap.org","min_zoom":6.0,"operator":"Stern & Hafferl","ref":"161","id":-378902,"osm_relation":true},"arcs":[1298]},{"type":"MultiLineString","properties":{"kind":"train","name":"Rottalbahn","sort_rank":275,"source":"openstreetmap.org","min_zoom":6.0,"operator":"S\u00fcdostbayernbahn SOB","ref":"946","osm_relation":true},"arcs":[[1299],[1300],[1301]]},{"type":"MultiLineString","properties":{"kind":"train","name":"S3 Hall","service":"commuter","sort_rank":275,"colour":"#874487","source":"openstreetmap.org","min_zoom":6.0,"network":"VVT","operator":"\u00d6BB","ref":"S3","osm_relation":true,"colour_name":"grey"},"arcs":[[1302],[1303],[1304]]},{"type":"MultiLineString","properties":{"source":"openstreetmap.org","kind":"train","name":"Train R170: Attnang-Puchheim -> Stainach-Irdning","sort_rank":275,"ref":"170","min_zoom":6.0,"osm_relation":true},"arcs":[[1305],[1306],[1307]]},{"type":"MultiLineString","properties":{"kind":"train","name":"160 Vorchdorf-Lambach","sort_rank":275,"source":"openstreetmap.org","min_zoom":6.0,"operator":"Stern & Hafferl","ref":"160","osm_relation":true},"arcs":[[1308],[1309],[1310]]},{"type":"MultiLineString","properties":{"kind":"train","network":"VVT","service":"regional","sort_rank":275,"colour":"#92B0C1","name":"ZB1 Mayrhofen \u2013 Jenbach","source":"openstreetmap.org","min_zoom":6.0,"operator":"Zillertaler Verkehrsbetriebe","ref":"ZB1","osm_relation":true,"colour_name":"silver"},"arcs":[[1311],[1312],[1313],[1314],[1315]]},{"type":"MultiLineString","properties":{"kind":"train","network":"DB InterCityExpress","service":"high_speed","sort_rank":275,"source":"openstreetmap.org","min_zoom":5.0,"operator":"DB Fernverkehr AG","ref":"ICE 42","osm_relation":true,"name":"ICE 42: M\u00fcnchen => K\u00f6ln Messe\/Deutz => Dortmund"},"arcs":[[1316],[1317]]},{"type":"MultiLineString","properties":{"kind":"train","network":"M\u00fcnchner Verkehrs- und Tarifverbund","service":"commuter","sort_rank":275,"colour":"#E7526B","name":"S-Bahn S20: Pasing => H\u00f6llriegelskreuth","source":"openstreetmap.org","min_zoom":6.0,"operator":"DB","ref":"S20","osm_relation":true,"colour_name":"tomato"},"arcs":[[1318],[1319],[1320],[1321],[1322],[1323],[1324],[1325]]},{"type":"LineString","properties":{"kind":"train","network":"DB","service":"regional","sort_rank":275,"source":"openstreetmap.org","min_zoom":6.0,"operator":"DB","ref":"941","id":-1902681,"osm_relation":true,"name":"KBS 941 M\u00fchldorf - Simbach (S\u00fcdostbayernbahn)"},"arcs":[1326]},{"type":"MultiLineString","properties":{"kind":"train","name":"REX Hochfilzen \u2013 Salzburg","service":"regional","sort_rank":275,"source":"openstreetmap.org","min_zoom":6.0,"operator":"\u00d6BB","ref":"REX200","osm_relation":true,"network":"SVV"},"arcs":[[1327],[1328],[1329],[1330]]},{"type":"MultiLineString","properties":{"kind":"train","network":"VVT","service":"commuter","sort_rank":275,"colour":"#D7DF23","name":"S1 Kufstein","source":"openstreetmap.org","min_zoom":6.0,"operator":"\u00d6BB","ref":"S1","osm_relation":true,"colour_name":"gold"},"arcs":[[1331],[1332],[1333],[1334],[1335],[1336],[1337],[1338],[1339],[1340],[1341],[1342],[1343],[1344],[1345],[1346],[1347],[1348],[1349],[1350]]},{"type":"LineString","properties":{"kind":"train","name":"TB Mauterndorf","service":"tourism","sort_rank":275,"source":"openstreetmap.org","min_zoom":6.0,"operator":"TB","ref":"TB","id":-3680857,"osm_relation":true},"arcs":[1351]},{"type":"LineString","properties":{"kind":"train","network":"Grenz\u00fcberschreitendes Freizeitverkehrsnetz Donau - Ilz - Moldau","sort_rank":275,"source":"openstreetmap.org","min_zoom":6.0,"operator":"Ilztalbahn GmbH, F\u00e4rbergasse 1, 94065 Waldkirchen","ref":"12888","id":-1251567,"osm_relation":true,"name":"Ilztalbahn"},"arcs":[1352]},{"type":"MultiLineString","properties":{"kind":"train","network":"VVT","service":"commuter","sort_rank":275,"colour":"#D4B4C4","name":"S5 Scharnitz","source":"openstreetmap.org","min_zoom":6.0,"operator":"\u00d6BB","ref":"S5","osm_relation":true,"colour_name":"silver"},"arcs":[[1353],[1354],[1355],[1356],[1357],[1358],[1359],[1360]]},{"type":"MultiLineString","properties":{"kind":"train","name":"BOB: Tegernsee => Holzkirchen => M\u00fcnchen Hbf","sort_rank":275,"source":"openstreetmap.org","min_zoom":6.0,"operator":"Bayerische Oberlandbahn GmbH","ref":"BOB","osm_relation":true,"network":"Bayerische Oberlandbahn"},"arcs":[[1361],[1362],[1363],[1364],[1365],[1366],[1367],[1368],[1369],[1370],[1371],[1372],[1373],[1374]]},{"type":"MultiLineString","properties":{"kind":"train","network":"DB InterCityExpress","service":"high_speed","sort_rank":275,"source":"openstreetmap.org","min_zoom":5.0,"operator":"DB Fernverkehr AG","ref":"ICE 18","osm_relation":true,"name":"ICE 18: M\u00fcnchen => Berlin => Hamburg Hbf"},"arcs":[[1375],[1376]]},{"type":"MultiLineString","properties":{"kind":"train","network":"VVT","service":"tourism","sort_rank":275,"source":"openstreetmap.org","min_zoom":6.0,"operator":"Achenseebahn AG","ref":"AB1","osm_relation":true,"name":"AB1 Achensee \u2013 Jenbach"},"arcs":[[1377],[1378]]},{"type":"LineString","properties":{"kind":"train","network":"SVV","service":"commuter","sort_rank":275,"colour":"#B72841","name":"S1 Salzburg","source":"openstreetmap.org","min_zoom":6.0,"operator":"SLB","ref":"S1","id":-3684182,"osm_relation":true,"colour_name":"brown"},"arcs":[1379]},{"type":"MultiLineString","properties":{"kind":"train","network":"DB InterCityExpress","service":"long_distance","sort_rank":275,"source":"openstreetmap.org","min_zoom":5.0,"operator":"DB Fernverkehr AG","ref":"ICE 18","osm_relation":true,"name":"ICE 18: Hamburg => Berlin => Erfurt => M\u00fcnchen"},"arcs":[[1380],[1381]]},{"type":"MultiLineString","properties":{"kind":"train","network":"M\u00fcnchner Verkehrs- und Tarifverbund","service":"commuter","sort_rank":275,"colour":"#FFC734","name":"S-Bahn S8: Herrsching => Flughafen M\u00fcnchen","source":"openstreetmap.org","min_zoom":6.0,"operator":"DB","ref":"S8","osm_relation":true,"colour_name":"goldenrod"},"arcs":[[1382],[1383],[1384],[1385],[1386],[1387],[1388],[1389],[1390],[1391],[1392],[1393],[1394],[1395],[1396],[1397],[1398],[1399]]},{"type":"MultiLineString","properties":{"kind":"train","name":"S-Bahn S2: Erding => Altom\u00fcnster","service":"commuter","sort_rank":275,"colour":"#6CC247","source":"openstreetmap.org","min_zoom":6.0,"network":"M\u00fcnchner Verkehrs- und Tarifverbund","operator":"DB","ref":"S2","osm_relation":true,"colour_name":"yellowgreen"},"arcs":[[1400],[1401],[1402],[1403],[1404],[1405],[1406],[1407],[1408],[1409],[1410],[1411],[1412],[1413],[1414],[1415],[1416],[1417],[1418],[1419],[1420],[1421],[1422]]},{"type":"MultiLineString","properties":{"kind":"train","name":"R190 Braunau","service":"regional","sort_rank":275,"source":"openstreetmap.org","min_zoom":6.0,"ref":"R190","osm_relation":true},"arcs":[[1423],[1424],[1425],[1426],[1427],[1428],[1429],[1430],[1431],[1432],[1433],[1434],[1435],[1436]]},{"type":"MultiLineString","properties":{"kind":"train","name":"S2: Linz \u2013 Wels","service":"commuter","sort_rank":275,"source":"openstreetmap.org","min_zoom":6.0,"operator":"\u00d6BB","ref":"S2","osm_relation":true,"network":"O\u00d6VV"},"arcs":[[1437],[1438],[1439]]},{"type":"MultiLineString","properties":{"kind":"train","network":"regional","sort_rank":275,"source":"openstreetmap.org","min_zoom":6.0,"operator":"MERIDIAN","ref":"958","osm_relation":true,"name":"KBS 958 Holzkirchen \u2013 Rosenheim (Mangfalltalbahn)"},"arcs":[[1440],[1441],[1442],[1443],[1444],[1445],[1446]]},{"type":"LineString","properties":{"source":"openstreetmap.org","kind":"train","name":"Wendelsteinbahn (Bergfahrt)","sort_rank":275,"min_zoom":6.0,"osm_relation":true,"id":-3020242},"arcs":[1447]},{"type":"MultiLineString","properties":{"kind":"train","name":"KBS 947 M\u00fchldorf - Traunstein","service":"regional","sort_rank":275,"source":"openstreetmap.org","min_zoom":6.0,"operator":"DB","ref":"947","osm_relation":true,"network":"DB"},"arcs":[[1448],[1449],[1450],[1451],[1452],[1453],[1454],[1455],[1456],[1457],[1458],[1459],[1460],[1461],[1462],[1463],[1464],[1465],[1466],[1467],[1468],[1469],[1470],[1471],[1472],[1473],[1474],[1475],[1476],[1477],[1478],[1479],[1480],[1481],[1482],[1483],[1484],[1485]]},{"type":"MultiLineString","properties":{"kind":"train","network":"M\u00fcnchner Verkehrs- und Tarifverbund","service":"commuter","sort_rank":275,"colour":"#00AC6F","name":"S-Bahn S6: Ebersberg => Tutzing","source":"openstreetmap.org","min_zoom":6.0,"operator":"DB","ref":"S6","osm_relation":true,"colour_name":"teal"},"arcs":[[1486],[1487],[1488],[1489],[1490],[1491],[1492],[1493],[1494],[1495],[1496],[1497],[1498],[1499]]},{"type":"LineString","properties":{"kind":"train","network":"O\u00d6VV","service":"regional","sort_rank":275,"source":"openstreetmap.org","min_zoom":6.0,"operator":"\u00d6BB","ref":"R142","id":-1872403,"osm_relation":true,"name":"R142 Linz \u2013 Aigen-Schl\u00e4gl"},"arcs":[1500]},{"type":"LineString","properties":{"source":"openstreetmap.org","kind":"train","name":"Chiemsee-Bahn: Prien-Stock => Chiemseebahnhof","sort_rank":275,"min_zoom":6.0,"osm_relation":true,"id":-3227665},"arcs":[1501]},{"type":"MultiLineString","properties":{"kind":"train","network":"Deutsche Bahn","sort_rank":275,"source":"openstreetmap.org","min_zoom":6.0,"operator":"Deutsche Bahn AG","ref":"930","osm_relation":true,"name":"KBS 930: M\u00fcnchen => Landshut => Regensburg"},"arcs":[[1502],[1503]]},{"type":"MultiLineString","properties":{"kind":"train","name":"Meridian M\u00fcnchen-Salzburg","sort_rank":275,"colour":"Blue-Yellow","source":"openstreetmap.org","min_zoom":6.0,"operator":"Bayerische Oberlandbahn","osm_relation":true},"arcs":[[1504],[1505]]},{"type":"MultiLineString","properties":{"kind":"train","network":"DB InterCityExpress","service":"high_speed","sort_rank":275,"source":"openstreetmap.org","min_zoom":5.0,"operator":"DB Fernverkehr AG","ref":"ICE 29","osm_relation":true,"name":"ICE 29: M\u00fcnchen => Berlin"},"arcs":[[1506],[1507]]},{"type":"MultiLineString","properties":{"kind":"train","name":"S5: Linz \u2013 Eferding","service":"commuter","sort_rank":275,"source":"openstreetmap.org","min_zoom":6.0,"operator":"StH","ref":"S5","osm_relation":true,"network":"O\u00d6VV"},"arcs":[[1508],[1509],[1510],[1511],[1512],[1513],[1514],[1515],[1516]]},{"type":"MultiLineString","properties":{"kind":"train","name":"BOB: M\u00fcnchen Hbf => Holzkirchen => Tegernsee","sort_rank":275,"source":"openstreetmap.org","min_zoom":6.0,"operator":"Bayerische Oberlandbahn GmbH","ref":"BOB","osm_relation":true,"network":"Bayerische Oberlandbahn"},"arcs":[[1517],[1518],[1519],[1520],[1521],[1522],[1523],[1524],[1525],[1526],[1527],[1528],[1529],[1530]]},{"type":"MultiLineString","properties":{"kind":"train","loc_name":"Stubaitalbahn","network":"VVT","sort_rank":275,"colour":"#630016","name":"STB Innsbruck \u2013 Kreith","source":"openstreetmap.org","min_zoom":6.0,"operator":"IVB","ref":"STB","osm_relation":true,"colour_name":"darkred"},"arcs":[[1531],[1532],[1533],[1534],[1535],[1536],[1537],[1538],[1539],[1540],[1541],[1542],[1543],[1544],[1545],[1546],[1547],[1548],[1549],[1550],[1551]]},{"type":"MultiLineString","properties":{"kind":"train","network":"Deutsche Bahn","sort_rank":275,"source":"openstreetmap.org","min_zoom":6.0,"ref":"993","osm_relation":true,"name":"KBS 993 Ulm - Ingolstadt - Regensburg (Donautalbahn)"},"arcs":[[1552],[1553],[1554],[1555],[1556],[1557],[1558],[1559],[1560],[1561],[1562],[1563]]},{"type":"MultiLineString","properties":{"kind":"train","name":"Zug R1: M\u00fcnchen => Augsburg","sort_rank":275,"source":"openstreetmap.org","min_zoom":6.0,"ref":"R1","osm_relation":true,"network":"Augsburger Verkehrs- und Tarifverbund"},"arcs":[[1564],[1565]]},{"type":"LineString","properties":{"kind":"train","name":"TB St. Andr\u00e4","sort_rank":275,"source":"openstreetmap.org","min_zoom":6.0,"operator":"TB","ref":"TB","id":-3680855,"osm_relation":true},"arcs":[1566]},{"type":"MultiLineString","properties":{"kind":"train","name":"railjet Budapest \u2013 M\u00fcnchen","service":"high_speed","sort_rank":275,"colour":"#0050FF","source":"openstreetmap.org","min_zoom":5.0,"network":"\u00d6BB railjet;DB InterCityExpress","operator":"\u00d6BB","ref":"RJ90","osm_relation":true,"colour_name":"dodgerblue"},"arcs":[[1567],[1568]]},{"type":"MultiLineString","properties":{"kind":"train","network":"O\u00d6VV","service":"regional","sort_rank":275,"source":"openstreetmap.org","min_zoom":6.0,"operator":"StH","ref":"R143","osm_relation":true,"name":"R143 Peuerbach \u2013 Eferding"},"arcs":[[1569],[1570],[1571]]},{"type":"MultiLineString","properties":{"kind":"train","network":"DB InterCity;\u00d6BB;EuroCity","service":"long_distance","sort_rank":275,"colour":"#FFA700","name":"EC89: M\u00fcnchen => Verona","source":"openstreetmap.org","min_zoom":5.0,"operator":"\u00d6BB","ref":"EC89","osm_relation":true,"colour_name":"orange"},"arcs":[[1572],[1573],[1574]]},{"type":"LineString","properties":{"kind":"train","name":"161 Gmunden-Vorchdorf","sort_rank":275,"source":"openstreetmap.org","min_zoom":6.0,"operator":"Stern & Hafferl","ref":"161","id":-2396713,"osm_relation":true},"arcs":[1575]},{"type":"LineString","properties":{"kind":"train","network":"\u00d6BB railjet","service":"high_speed","sort_rank":275,"source":"openstreetmap.org","min_zoom":5.0,"operator":"\u00d6BB","ref":"RJ160","osm_relation":true,"name":"railjet Wien \u2013 Z\u00fcrich"},"arcs":[1576]},{"type":"MultiLineString","properties":{"kind":"train","network":"\u00d6BB railjet","service":"high_speed","sort_rank":275,"source":"openstreetmap.org","min_zoom":5.0,"operator":"\u00d6BB","ref":"RJ","osm_relation":true,"name":"railjet Z\u00fcrich \u2013 Wien"},"arcs":[[1577],[1578]]},{"type":"MultiLineString","properties":{"kind":"train","name":"BOB: Lenggries => Bad T\u00f6lz => Holzkirchen => M\u00fcnchen Hbf","sort_rank":275,"source":"openstreetmap.org","min_zoom":6.0,"operator":"Bayerische Oberlandbahn GmbH","ref":"BOB","osm_relation":true,"network":"Bayerische Oberlandbahn"},"arcs":[[1579],[1580],[1581],[1582],[1583],[1584],[1585],[1586],[1587],[1588],[1589],[1590]]},{"type":"MultiLineString","properties":{"kind":"train","name":"KBS 945 Landshut - M\u00fchldorf - Freilassing (- Salzburg)","sort_rank":275,"source":"openstreetmap.org","min_zoom":6.0,"operator":"S\u00fcdostbayernbahn SOB","ref":"945","osm_relation":true},"arcs":[[1591],[1592],[1593],[1594],[1595],[1596],[1597],[1598],[1599],[1600]]},{"type":"MultiLineString","properties":{"kind":"train","name":"KBS 930: Regensburg => Landshut => M\u00fcnchen","sort_rank":275,"source":"openstreetmap.org","min_zoom":6.0,"operator":"Deutsche Bahn AG","ref":"930","osm_relation":true,"network":"Deutsche Bahn"},"arcs":[[1601],[1602]]}]},"pois":{"type":"GeometryCollection","geometries":[{"type":"Point","properties":{"kind":"national_park","protect_class":"2","area":456920000,"source":"openstreetmap.org","min_zoom":6.37,"tier":1,"id":-4292200,"osm_relation":true,"name":"Nationalpark Berchtesgaden"},"coordinates":[2440,1116]},{"type":"Point","properties":{"kind":"nature_reserve","protect_class":"4","short_name":"Karwendel und Karwendelvorgebirge (NSG)","area":423768000,"official_name":"Karwendel und Karwendelvorgebirge","source":"openstreetmap.org","min_zoom":7.93,"tier":2,"id":-3578338,"osm_relation":true,"name":"Karwendel und Karwendelvorgebirge (Naturschutzgebiet)"},"coordinates":[137,982]},{"type":"Point","properties":{"kind":"protected_area","protect_class":"5","area":1802300000,"name:de":"Landschaftsschutzgebiet B\u00f6hmerwald","source":"openstreetmap.org","min_zoom":7.0,"tier":2,"id":-2022072,"osm_relation":true,"name":"CHKO \u0160umava"},"coordinates":[3969,4030]},{"type":"Point","properties":{"kind":"national_park","protect_class":"2","area":1163420000,"source":"openstreetmap.org","min_zoom":5.7,"tier":1,"id":-1766290,"osm_relation":true,"name":"Nationalpark Hohe Tauern"},"coordinates":[2868,71]}]},"boundaries":{"type":"GeometryCollection","geometries":[{"type":"LineString","properties":{"source":"naturalearthdata.com","kind":"country","sort_rank":262,"kind_detail":"2","min_zoom":0.0,"id":60},"arcs":[0]},{"type":"MultiLineString","properties":{"source":"naturalearthdata.com","kind":"country","sort_rank":262,"kind_detail":"2","min_zoom":0.0,"id":110},"arcs":[[1],[2],[3]]},{"type":"MultiLineString","properties":{"source":"naturalearthdata.com","kind":"country","sort_rank":262,"kind_detail":"2","min_zoom":0.0,"id":158},"arcs":[[4],[5]]},{"type":"MultiLineString","properties":{"source":"naturalearthdata.com","kind":"country","sort_rank":262,"kind_detail":"2","min_zoom":0.0,"id":213},"arcs":[[6],[7],[8],[9],[10],[11],[12],[13],[14],[15],[16],[17],[18],[19],[20],[21],[22],[23],[24],[25],[26],[27],[28],[29],[30],[31],[32],[33],[34],[35],[36],[37],[38]]},{"type":"MultiLineString","properties":{"source":"naturalearthdata.com","kind":"region","name":"Steiermark - Salzburg","sort_rank":256,"kind_detail":"4","min_zoom":6.0,"id":5009},"arcs":[[39],[40],[41]]},{"type":"MultiLineString","properties":{"source":"naturalearthdata.com","kind":"region","name":"Ober\u00f6sterreich - Steiermark","sort_rank":256,"kind_detail":"4","min_zoom":6.0,"id":5010},"arcs":[[42],[43],[44],[45],[46],[47]]},{"type":"MultiLineString","properties":{"source":"naturalearthdata.com","kind":"region","name":"Tirol - Salzburg","sort_rank":256,"kind_detail":"4","min_zoom":6.0,"id":5005},"arcs":[[48],[49],[50],[51],[52]]},{"type":"MultiLineString","properties":{"source":"naturalearthdata.com","kind":"region","name":"Ober\u00f6sterreich - Salzburg","sort_rank":256,"kind_detail":"4","min_zoom":6.0,"id":5006},"arcs":[[53],[54],[55],[56],[57],[58]]},{"type":"MultiLineString","properties":{"source":"naturalearthdata.com","kind":"region","name":"K\u00e4rnten - Salzburg","sort_rank":256,"kind_detail":"4","min_zoom":6.0,"id":5014},"arcs":[[59],[60],[61],[62]]},{"type":"MultiLineString","properties":{"source":"naturalearthdata.com","kind":"region","name":"Tirol - Salzburg","sort_rank":256,"kind_detail":"4","min_zoom":6.0,"id":5016},"arcs":[[63],[64],[65],[66]]},{"type":"LineString","properties":{"source":"naturalearthdata.com","kind":"region","name":"K\u00e4rnten - Tirol","sort_rank":256,"kind_detail":"4","min_zoom":6.0,"id":5017},"arcs":[67]}]},"roads":{"type":"GeometryCollection","geometries":[{"type":"LineString","properties":{"kind":"highway","network":"e-road","sort_rank":383,"kind_detail":"motorway","source":"naturalearthdata.com","min_zoom":3.0,"all_networks":["e-road"],"landuse_kind":"urban_area","shield_text":"45","ref":"45","id":4209,"all_shield_texts":["45"]},"arcs":[1603]},{"type":"MultiLineString","properties":{"kind":"highway","network":"e-road","sort_rank":383,"kind_detail":"motorway","source":"naturalearthdata.com","min_zoom":3.0,"all_networks":["e-road"],"shield_text":"45","ref":"45","id":4209,"all_shield_texts":["45"]},"arcs":[[1604],[1605]]},{"type":"LineString","properties":{"kind":"highway","network":"e-road","sort_rank":383,"kind_detail":"motorway","source":"naturalearthdata.com","min_zoom":4.0,"all_networks":["e-road"],"landuse_kind":"urban_area","shield_text":"533","ref":"533","id":4436,"all_shield_texts":["533"]},"arcs":[1606]},{"type":"LineString","properties":{"kind":"highway","network":"e-road","sort_rank":383,"kind_detail":"motorway","source":"naturalearthdata.com","min_zoom":4.0,"all_networks":["e-road"],"landuse_kind":"urban_area","shield_text":"533","ref":"533","id":4436,"all_shield_texts":["533"]},"arcs":[1607]},{"type":"MultiLineString","properties":{"kind":"highway","network":"e-road","sort_rank":383,"kind_detail":"motorway","source":"naturalearthdata.com","min_zoom":4.0,"all_networks":["e-road"],"shield_text":"533","ref":"533","id":4436,"all_shield_texts":["533"]},"arcs":[[1608],[1609]]},{"type":"LineString","properties":{"kind":"highway","network":"e-road","sort_rank":383,"kind_detail":"motorway","source":"naturalearthdata.com","min_zoom":4.0,"all_networks":["e-road"],"shield_text":"533","ref":"533","id":4437,"all_shield_texts":["533"]},"arcs":[1610]},{"type":"LineString","properties":{"kind":"highway","network":"e-road","sort_rank":383,"kind_detail":"motorway","source":"naturalearthdata.com","min_zoom":3.0,"all_networks":["e-road"],"landuse_kind":"protected_area","shield_text":"53","ref":"53","id":4445,"all_shield_texts":["53"]},"arcs":[1611]},{"type":"MultiLineString","properties":{"kind":"highway","network":"e-road","sort_rank":383,"kind_detail":"motorway","source":"naturalearthdata.com","min_zoom":3.0,"all_networks":["e-road"],"landuse_kind":"urban_area","shield_text":"53","ref":"53","id":4445,"all_shield_texts":["53"]},"arcs":[[1612],[1613],[1614]]},{"type":"MultiLineString","properties":{"kind":"highway","network":"e-road","sort_rank":383,"kind_detail":"motorway","source":"naturalearthdata.com","min_zoom":3.0,"all_networks":["e-road"],"landuse_kind":"urban_area","shield_text":"53","ref":"53","id":4445,"all_shield_texts":["53"]},"arcs":[[1615],[1616]]},{"type":"MultiLineString","properties":{"kind":"highway","network":"e-road","sort_rank":383,"kind_detail":"motorway","source":"naturalearthdata.com","min_zoom":3.0,"all_networks":["e-road"],"landuse_kind":"urban_area","shield_text":"53","ref":"53","id":4445,"all_shield_texts":["53"]},"arcs":[[1617],[1618]]},{"type":"LineString","properties":{"kind":"highway","network":"e-road","sort_rank":383,"kind_detail":"motorway","source":"naturalearthdata.com","min_zoom":3.0,"all_networks":["e-road"],"landuse_kind":"urban_area","shield_text":"53","ref":"53","id":4445,"all_shield_texts":["53"]},"arcs":[1619]},{"type":"LineString","properties":{"kind":"highway","network":"e-road","sort_rank":383,"kind_detail":"motorway","source":"naturalearthdata.com","min_zoom":3.0,"all_networks":["e-road"],"landuse_kind":"urban_area","shield_text":"53","ref":"53","id":4445,"all_shield_texts":["53"]},"arcs":[1620]},{"type":"MultiLineString","properties":{"kind":"highway","network":"e-road","sort_rank":383,"kind_detail":"motorway","source":"naturalearthdata.com","min_zoom":3.0,"all_networks":["e-road"],"shield_text":"53","ref":"53","id":4445,"all_shield_texts":["53"]},"arcs":[[1621],[1622],[1623],[1624],[1625],[1626],[1627],[1628]]},{"type":"LineString","properties":{"kind":"highway","network":"e-road","sort_rank":383,"kind_detail":"motorway","source":"naturalearthdata.com","min_zoom":3.0,"all_networks":["e-road"],"landuse_kind":"protected_area","shield_text":"56","ref":"56","id":4456,"all_shield_texts":["56"]},"arcs":[1629]},{"type":"LineString","properties":{"kind":"highway","network":"e-road","sort_rank":383,"kind_detail":"motorway","source":"naturalearthdata.com","min_zoom":3.0,"all_networks":["e-road"],"landuse_kind":"urban_area","shield_text":"56","ref":"56","id":4456,"all_shield_texts":["56"]},"arcs":[1630]},{"type":"MultiLineString","properties":{"kind":"highway","network":"e-road","sort_rank":383,"kind_detail":"motorway","source":"naturalearthdata.com","min_zoom":3.0,"all_networks":["e-road"],"shield_text":"56","ref":"56","id":4456,"all_shield_texts":["56"]},"arcs":[[1631],[1632]]},{"type":"LineString","properties":{"kind":"highway","network":"e-road","sort_rank":383,"kind_detail":"motorway","source":"naturalearthdata.com","min_zoom":3.0,"all_networks":["e-road"],"landuse_kind":"urban_area","shield_text":"56","ref":"56","id":4457,"all_shield_texts":["56"]},"arcs":[1633]},{"type":"LineString","properties":{"kind":"highway","network":"e-road","sort_rank":383,"kind_detail":"motorway","source":"naturalearthdata.com","min_zoom":3.0,"all_networks":["e-road"],"shield_text":"56","ref":"56","id":4457,"all_shield_texts":["56"]},"arcs":[1634]},{"type":"LineString","properties":{"kind":"highway","network":"e-road","sort_rank":383,"kind_detail":"motorway","source":"naturalearthdata.com","min_zoom":3.0,"all_networks":["e-road"],"landuse_kind":"urban_area","shield_text":"52","ref":"52","id":4460,"all_shield_texts":["52"]},"arcs":[1635]},{"type":"LineString","properties":{"source":"naturalearthdata.com","kind":"highway","kind_detail":"motorway","sort_rank":383,"landuse_kind":"urban_area","min_zoom":3.0,"id":4461},"arcs":[1636]},{"type":"LineString","properties":{"source":"naturalearthdata.com","kind":"highway","kind_detail":"motorway","sort_rank":383,"landuse_kind":"urban_area","min_zoom":3.0,"id":4518},"arcs":[1637]},{"type":"LineString","properties":{"kind":"highway","network":"e-road","sort_rank":383,"kind_detail":"motorway","source":"naturalearthdata.com","min_zoom":3.0,"all_networks":["e-road"],"shield_text":"45","ref":"45","id":4566,"all_shield_texts":["45"]},"arcs":[1638]},{"type":"LineString","properties":{"kind":"highway","network":"e-road","sort_rank":383,"kind_detail":"motorway","source":"naturalearthdata.com","min_zoom":3.0,"all_networks":["e-road"],"landuse_kind":"urban_area","shield_text":"45","ref":"45","id":4678,"all_shield_texts":["45"]},"arcs":[1639]},{"type":"LineString","properties":{"kind":"highway","network":"e-road","sort_rank":383,"kind_detail":"motorway","source":"naturalearthdata.com","min_zoom":3.0,"all_networks":["e-road"],"shield_text":"45","ref":"45","id":4678,"all_shield_texts":["45"]},"arcs":[1640]},{"type":"LineString","properties":{"kind":"highway","network":"e-road","sort_rank":383,"kind_detail":"motorway","source":"naturalearthdata.com","min_zoom":4.0,"all_networks":["e-road"],"landuse_kind":"urban_area","shield_text":"55","ref":"55","id":4679,"all_shield_texts":["55"]},"arcs":[1641]},{"type":"LineString","properties":{"kind":"highway","network":"e-road","sort_rank":383,"kind_detail":"motorway","source":"naturalearthdata.com","min_zoom":4.0,"all_networks":["e-road"],"landuse_kind":"urban_area","shield_text":"55","ref":"55","id":4679,"all_shield_texts":["55"]},"arcs":[1642]},{"type":"MultiLineString","properties":{"kind":"highway","network":"e-road","sort_rank":383,"kind_detail":"motorway","source":"naturalearthdata.com","min_zoom":4.0,"all_networks":["e-road"],"shield_text":"55","ref":"55","id":4679,"all_shield_texts":["55"]},"arcs":[[1643],[1644]]},{"type":"LineString","properties":{"kind":"highway","network":"e-road","sort_rank":383,"kind_detail":"motorway","source":"naturalearthdata.com","min_zoom":3.0,"all_networks":["e-road"],"shield_text":"52","ref":"52","id":4681,"all_shield_texts":["52"]},"arcs":[1645]},{"type":"LineString","properties":{"kind":"highway","network":"e-road","sort_rank":383,"kind_detail":"motorway","source":"naturalearthdata.com","min_zoom":3.0,"all_networks":["e-road"],"shield_text":"45","ref":"45","id":4682,"all_shield_texts":["45"]},"arcs":[1646]},{"type":"LineString","properties":{"kind":"highway","network":"e-road","sort_rank":383,"kind_detail":"motorway","source":"naturalearthdata.com","min_zoom":3.0,"all_networks":["e-road"],"landuse_kind":"urban_area","shield_text":"45","ref":"45","id":4683,"all_shield_texts":["45"]},"arcs":[1647]},{"type":"MultiLineString","properties":{"kind":"highway","network":"e-road","sort_rank":383,"kind_detail":"motorway","source":"naturalearthdata.com","min_zoom":3.0,"all_networks":["e-road"],"shield_text":"45","ref":"45","id":4683,"all_shield_texts":["45"]},"arcs":[[1648],[1649]]},{"type":"MultiLineString","properties":{"kind":"highway","network":"e-road","sort_rank":383,"kind_detail":"motorway","source":"naturalearthdata.com","min_zoom":3.0,"all_networks":["e-road"],"landuse_kind":"nature_reserve","shield_text":"55","ref":"55","id":4684,"all_shield_texts":["55"]},"arcs":[[1650],[1651]]},{"type":"LineString","properties":{"kind":"highway","network":"e-road","sort_rank":383,"kind_detail":"motorway","source":"naturalearthdata.com","min_zoom":3.0,"all_networks":["e-road"],"landuse_kind":"urban_area","shield_text":"55","ref":"55","id":4684,"all_shield_texts":["55"]},"arcs":[1652]},{"type":"MultiLineString","properties":{"kind":"highway","network":"e-road","sort_rank":383,"kind_detail":"motorway","source":"naturalearthdata.com","min_zoom":3.0,"all_networks":["e-road"],"shield_text":"55","ref":"55","id":4684,"all_shield_texts":["55"]},"arcs":[[1653],[1654],[1655],[1656]]},{"type":"LineString","properties":{"kind":"major_road","network":"e-road","sort_rank":380,"kind_detail":"primary","source":"naturalearthdata.com","min_zoom":3.0,"landuse_kind":"protected_area","shield_text":"53","ref":"53","id":4963},"arcs":[1657]},{"type":"LineString","properties":{"source":"naturalearthdata.com","kind":"highway","kind_detail":"motorway","sort_rank":383,"landuse_kind":"urban_area","min_zoom":3.0,"id":5120},"arcs":[1658]},{"type":"LineString","properties":{"source":"naturalearthdata.com","kind":"highway","sort_rank":383,"kind_detail":"motorway","min_zoom":3.0,"id":5120},"arcs":[1659]},{"type":"LineString","properties":{"kind":"major_road","network":"e-road","sort_rank":380,"kind_detail":"primary","source":"naturalearthdata.com","min_zoom":3.0,"shield_text":"533","ref":"533","id":5126},"arcs":[1660]},{"type":"LineString","properties":{"kind":"major_road","network":"e-road","sort_rank":380,"kind_detail":"primary","source":"naturalearthdata.com","min_zoom":4.0,"landuse_kind":"urban_area","shield_text":"64","ref":"64","id":5148},"arcs":[1661]},{"type":"LineString","properties":{"kind":"major_road","network":"e-road","sort_rank":380,"kind_detail":"primary","source":"naturalearthdata.com","min_zoom":4.0,"shield_text":"64","ref":"64","id":5148},"arcs":[1662]},{"type":"MultiLineString","properties":{"kind":"highway","network":"e-road","sort_rank":383,"kind_detail":"motorway","source":"naturalearthdata.com","min_zoom":6.0,"all_networks":["e-road"],"landuse_kind":"urban_area","shield_text":"52","ref":"52","id":5164,"all_shield_texts":["52"]},"arcs":[[1663],[1664],[1665],[1666]]},{"type":"MultiLineString","properties":{"kind":"highway","network":"e-road","sort_rank":383,"kind_detail":"motorway","source":"naturalearthdata.com","min_zoom":6.0,"all_networks":["e-road"],"shield_text":"52","ref":"52","id":5164,"all_shield_texts":["52"]},"arcs":[[1667],[1668],[1669],[1670]]},{"type":"LineString","properties":{"kind":"highway","network":"e-road","sort_rank":383,"kind_detail":"motorway","source":"naturalearthdata.com","min_zoom":6.0,"all_networks":["e-road"],"landuse_kind":"urban_area","shield_text":"54","ref":"54","id":5346,"all_shield_texts":["54"]},"arcs":[1671]},{"type":"LineString","properties":{"kind":"highway","network":"e-road","sort_rank":383,"kind_detail":"motorway","source":"naturalearthdata.com","min_zoom":6.0,"all_networks":["e-road"],"shield_text":"54","ref":"54","id":5346,"all_shield_texts":["54"]},"arcs":[1672]},{"type":"LineString","properties":{"kind":"highway","network":"e-road","sort_rank":383,"kind_detail":"motorway","source":"naturalearthdata.com","min_zoom":6.0,"all_networks":["e-road"],"landuse_kind":"urban_area","shield_text":"45","ref":"45","id":5352,"all_shield_texts":["45"]},"arcs":[1673]},{"type":"LineString","properties":{"kind":"highway","network":"e-road","sort_rank":383,"kind_detail":"motorway","source":"naturalearthdata.com","min_zoom":6.0,"all_networks":["e-road"],"shield_text":"45","ref":"45","id":5352,"all_shield_texts":["45"]},"arcs":[1674]},{"type":"LineString","properties":{"kind":"highway","network":"e-road","sort_rank":383,"kind_detail":"motorway","source":"naturalearthdata.com","min_zoom":6.0,"all_networks":["e-road"],"landuse_kind":"urban_area","shield_text":"45","ref":"45","id":5353,"all_shield_texts":["45"]},"arcs":[1675]},{"type":"MultiLineString","properties":{"kind":"highway","network":"e-road","sort_rank":383,"kind_detail":"motorway","source":"naturalearthdata.com","min_zoom":6.0,"all_networks":["e-road"],"shield_text":"45","ref":"45","id":5353,"all_shield_texts":["45"]},"arcs":[[1676],[1677]]},{"type":"LineString","properties":{"source":"naturalearthdata.com","kind":"highway","sort_rank":383,"kind_detail":"motorway","min_zoom":6.0,"id":5354},"arcs":[1678]},{"type":"LineString","properties":{"kind":"highway","network":"e-road","sort_rank":383,"kind_detail":"motorway","source":"naturalearthdata.com","min_zoom":6.0,"all_networks":["e-road"],"landuse_kind":"urban_area","shield_text":"57","ref":"57","id":5386,"all_shield_texts":["57"]},"arcs":[1679]},{"type":"LineString","properties":{"kind":"highway","network":"e-road","sort_rank":383,"kind_detail":"motorway","source":"naturalearthdata.com","min_zoom":6.0,"all_networks":["e-road"],"shield_text":"57","ref":"57","id":5386,"all_shield_texts":["57"]},"arcs":[1680]},{"type":"LineString","properties":{"kind":"major_road","network":"e-road","sort_rank":380,"kind_detail":"primary","source":"naturalearthdata.com","min_zoom":6.0,"shield_text":"533","ref":"533","id":5668},"arcs":[1681]},{"type":"LineString","properties":{"kind":"major_road","network":"e-road","sort_rank":379,"kind_detail":"secondary","source":"naturalearthdata.com","min_zoom":6.0,"shield_text":"64","ref":"64","id":5713},"arcs":[1682]},{"type":"LineString","properties":{"kind":"major_road","network":"e-road","sort_rank":380,"kind_detail":"primary","source":"naturalearthdata.com","min_zoom":6.0,"shield_text":"64","ref":"64","id":5714},"arcs":[1683]},{"type":"LineString","properties":{"kind":"major_road","network":"e-road","sort_rank":379,"kind_detail":"secondary","source":"naturalearthdata.com","min_zoom":6.0,"shield_text":"64","ref":"64","id":5715},"arcs":[1684]},{"type":"LineString","properties":{"kind":"major_road","network":"e-road","sort_rank":380,"kind_detail":"primary","source":"naturalearthdata.com","min_zoom":6.0,"shield_text":"64","ref":"64","id":5716},"arcs":[1685]},{"type":"LineString","properties":{"kind":"highway","network":"e-road","sort_rank":383,"kind_detail":"motorway","source":"naturalearthdata.com","min_zoom":7.0,"all_networks":["e-road"],"landuse_kind":"urban_area","shield_text":"552","ref":"552","id":5885,"all_shield_texts":["552"]},"arcs":[1686]},{"type":"LineString","properties":{"kind":"highway","network":"e-road","sort_rank":383,"kind_detail":"motorway","source":"naturalearthdata.com","min_zoom":7.0,"all_networks":["e-road"],"shield_text":"552","ref":"552","id":5885,"all_shield_texts":["552"]},"arcs":[1687]},{"type":"LineString","properties":{"kind":"highway","network":"e-road","sort_rank":383,"kind_detail":"motorway","source":"naturalearthdata.com","min_zoom":7.0,"all_networks":["e-road"],"landuse_kind":"urban_area","shield_text":"552","ref":"552","id":5886,"all_shield_texts":["552"]},"arcs":[1688]},{"type":"MultiLineString","properties":{"kind":"highway","network":"e-road","sort_rank":383,"kind_detail":"motorway","source":"naturalearthdata.com","min_zoom":7.0,"all_networks":["e-road"],"shield_text":"552","ref":"552","id":5886,"all_shield_texts":["552"]},"arcs":[[1689],[1690]]},{"type":"LineString","properties":{"kind":"major_road","network":"e-road","sort_rank":379,"kind_detail":"secondary","source":"naturalearthdata.com","min_zoom":7.0,"shield_text":"651","ref":"651","id":6085},"arcs":[1691]},{"type":"LineString","properties":{"kind":"major_road","network":"e-road","sort_rank":380,"kind_detail":"primary","source":"naturalearthdata.com","min_zoom":7.0,"shield_text":"651","ref":"651","id":6086},"arcs":[1692]},{"type":"LineString","properties":{"kind":"major_road","network":"e-road","sort_rank":379,"kind_detail":"secondary","source":"naturalearthdata.com","min_zoom":7.0,"shield_text":"651","ref":"651","id":6087},"arcs":[1693]},{"type":"LineString","properties":{"kind":"major_road","network":"e-road","sort_rank":380,"kind_detail":"primary","source":"naturalearthdata.com","min_zoom":7.0,"shield_text":"651","ref":"651","id":6088},"arcs":[1694]},{"type":"LineString","properties":{"kind":"major_road","network":"e-road","sort_rank":380,"kind_detail":"primary","source":"naturalearthdata.com","min_zoom":7.0,"shield_text":"552","ref":"552","id":6181},"arcs":[1695]},{"type":"LineString","properties":{"kind":"major_road","network":"e-road","sort_rank":380,"kind_detail":"primary","source":"naturalearthdata.com","min_zoom":7.0,"landuse_kind":"urban_area","shield_text":"552","ref":"552","id":6182},"arcs":[1696]},{"type":"MultiLineString","properties":{"kind":"major_road","network":"e-road","sort_rank":380,"kind_detail":"primary","source":"naturalearthdata.com","min_zoom":7.0,"shield_text":"552","ref":"552","id":6182},"arcs":[[1697],[1698]]},{"type":"LineString","properties":{"kind":"major_road","network":"e-road","sort_rank":379,"kind_detail":"secondary","source":"naturalearthdata.com","min_zoom":7.0,"shield_text":"552","ref":"552","id":6183},"arcs":[1699]},{"type":"LineString","properties":{"kind":"highway","network":"e-road","sort_rank":383,"kind_detail":"motorway","source":"naturalearthdata.com","min_zoom":3.0,"all_networks":["e-road"],"landuse_kind":"urban_area","shield_text":"52","ref":"52","id":8053,"all_shield_texts":["52"]},"arcs":[1700]},{"type":"LineString","properties":{"kind":"highway","network":"e-road","sort_rank":383,"kind_detail":"motorway","source":"naturalearthdata.com","min_zoom":3.0,"all_networks":["e-road"],"shield_text":"52","ref":"52","id":8053,"all_shield_texts":["52"]},"arcs":[1701]},{"type":"LineString","properties":{"kind":"highway","network":"e-road","sort_rank":383,"kind_detail":"motorway","source":"naturalearthdata.com","min_zoom":4.0,"all_networks":["e-road"],"landuse_kind":"protected_area","shield_text":"56","ref":"56","id":8062,"all_shield_texts":["56"]},"arcs":[1702]},{"type":"LineString","properties":{"source":"naturalearthdata.com","kind":"major_road","kind_detail":"secondary","sort_rank":379,"landuse_kind":"urban_area","min_zoom":6.0,"id":55595},"arcs":[1703]},{"type":"LineString","properties":{"source":"naturalearthdata.com","kind":"major_road","kind_detail":"secondary","sort_rank":379,"landuse_kind":"urban_area","min_zoom":6.0,"id":55599},"arcs":[1704]},{"type":"LineString","properties":{"source":"naturalearthdata.com","kind":"major_road","kind_detail":"secondary","sort_rank":379,"landuse_kind":"urban_area","min_zoom":6.0,"id":55600},"arcs":[1705]},{"type":"LineString","properties":{"source":"naturalearthdata.com","kind":"major_road","kind_detail":"secondary","sort_rank":379,"landuse_kind":"urban_area","min_zoom":6.0,"id":55601},"arcs":[1706]},{"type":"LineString","properties":{"source":"naturalearthdata.com","kind":"major_road","kind_detail":"secondary","sort_rank":379,"landuse_kind":"urban_area","min_zoom":6.0,"id":55602},"arcs":[1707]},{"type":"LineString","properties":{"source":"naturalearthdata.com","kind":"major_road","kind_detail":"secondary","sort_rank":379,"landuse_kind":"urban_area","min_zoom":6.0,"id":55607},"arcs":[1708]},{"type":"LineString","properties":{"source":"naturalearthdata.com","kind":"major_road","kind_detail":"secondary","sort_rank":379,"landuse_kind":"urban_area","min_zoom":6.0,"id":55608},"arcs":[1709]},{"type":"LineString","properties":{"source":"naturalearthdata.com","kind":"major_road","kind_detail":"secondary","sort_rank":379,"landuse_kind":"urban_area","min_zoom":6.0,"id":55611},"arcs":[1710]},{"type":"LineString","properties":{"source":"naturalearthdata.com","kind":"major_road","kind_detail":"secondary","sort_rank":379,"landuse_kind":"urban_area","min_zoom":6.0,"id":55628},"arcs":[1711]},{"type":"LineString","properties":{"source":"naturalearthdata.com","kind":"major_road","kind_detail":"secondary","sort_rank":379,"landuse_kind":"urban_area","min_zoom":6.0,"id":55628},"arcs":[1712]},{"type":"MultiLineString","properties":{"source":"naturalearthdata.com","kind":"major_road","sort_rank":379,"kind_detail":"secondary","min_zoom":6.0,"id":55628},"arcs":[[1713],[1714]]},{"type":"LineString","properties":{"source":"naturalearthdata.com","kind":"major_road","sort_rank":379,"kind_detail":"secondary","min_zoom":6.0,"id":55681},"arcs":[1715]},{"type":"LineString","properties":{"source":"naturalearthdata.com","kind":"major_road","sort_rank":379,"kind_detail":"secondary","min_zoom":6.0,"id":55689},"arcs":[1716]}]},"earth":{"type":"GeometryCollection","geometries":[{"type":"MultiPolygon","properties":{"sort_rank":10,"source":"naturalearthdata.com","min_zoom":0.0,"kind":"earth","area":377852582613},"arcs":[[[1717]]]}]},"landuse":{"type":"GeometryCollection","geometries":[{"type":"Polygon","properties":{"kind":"protected_area","area":221212992,"sort_rank":17,"source":"openstreetmap.org","min_zoom":6.0,"tier":2,"id":-1854919,"osm_relation":true},"arcs":[[1718]]},{"type":"MultiPolygon","properties":{"kind":"national_park","protect_class":"2","area":7910954406,"sort_rank":18,"source":"openstreetmap.org","min_zoom":3.0,"tier":1,"osm_relation":true},"arcs":[[[1719]],[[1720]],[[1721],[1722],[1723],[1724],[1725]],[[1726]],[[1727]],[[1728]],[[1729]]]},{"type":"MultiPolygon","properties":{"source":"naturalearthdata.com","kind":"urban_area","name":"","area":18796458740,"sort_rank":11,"min_zoom":4.0},"arcs":[[[1730]],[[1731]],[[1732]],[[1733]],[[1734]],[[1735]],[[1736]],[[1737]],[[1738]],[[1739]],[[1740]],[[1741]],[[1742]],[[1743]],[[1744]],[[1745]],[[1746]],[[1747]],[[1748]],[[1749]],[[1750]],[[1751]],[[1752]]]},{"type":"MultiPolygon","properties":{"source":"openstreetmap.org","kind":"nature_reserve","tier":2,"protect_class":"4","area":906144039,"sort_rank":23,"min_zoom":6.0},"arcs":[[[1753]]]},{"type":"MultiPolygon","properties":{"kind":"nature_reserve","protect_class":"98","area":1278555202,"sort_rank":23,"source":"openstreetmap.org","min_zoom":6.0,"tier":2,"osm_relation":true},"arcs":[[[1754]]]},{"type":"MultiPolygon","properties":{"kind":"nature_reserve","protect_class":"4","area":1300404028,"sort_rank":23,"source":"openstreetmap.org","min_zoom":6.0,"tier":2,"osm_relation":true},"arcs":[[[1755],[1756]],[[1757]]]},{"type":"MultiPolygon","properties":{"kind":"protected_area","protect_class":"5","area":4340715548,"sort_rank":17,"source":"openstreetmap.org","min_zoom":4.0,"tier":2,"osm_relation":true},"arcs":[[[1758]],[[1759]]]}]}},"type":"Topology","transform":{"translate":[11.25,47.0401821448],"scale":[0.0006866455,0.0004595501]},"arcs":[[[3737,3756],[-29,30],[-70,138],[-34,52],[-20,11],[-55,9],[-27,12],[-25,25],[-23,34],[-11,29]],[[3737,3756],[58,-15],[28,-15],[26,-21],[32,-26],[98,-53],[13,-14],[24,-37],[10,-17],[7,-7],[10,-4],[9,-6],[4,-14],[-3,-13],[-7,-2]],[[4046,3512],[-7,1]],[[4039,3513],[-4,-3],[-10,-20],[-8,-3],[-3,-7],[7,-29],[6,-12],[25,-31],[12,-11],[32,-13]],[[1355,98],[35,-12],[-1,-28],[0,-29],[-21,-29]],[[1100,0],[14,1],[148,78],[24,5],[69,14]],[[3690,3645],[3,21],[44,90]],[[3622,3306],[31,4],[11,5],[12,12],[7,11],[25,53],[9,29],[5,31],[1,37],[-8,70],[4,26],[19,18],[-18,9],[-7,7],[-16,30]],[[3697,3648],[-7,-3]],[[3307,3361],[151,-42],[25,-14],[24,-17],[22,-34],[60,-27],[3,-3]],[[2196,2354],[9,4],[21,32],[6,8],[58,40],[19,22],[26,42],[13,15],[22,11],[81,16],[-2,5],[23,18],[47,26],[54,52],[23,17],[151,60],[201,35],[49,27],[142,124],[21,34],[8,46],[3,11],[6,12],[7,15],[3,22],[-3,62],[3,20],[7,20],[19,41],[4,21],[-3,19],[-13,21],[-6,40],[-5,9],[0,8],[8,15],[13,12],[47,18],[49,7]],[[3617,3307],[5,-1]],[[3592,3224],[13,58],[12,25]],[[2187,2354],[9,0]],[[2496,1447],[-81,16],[-24,24],[27,42],[1,0],[0,1],[9,15],[3,14],[0,14],[3,14],[8,17],[94,152],[-7,7],[-31,47],[-50,115],[-24,24],[-12,7],[-29,30],[-35,21],[-12,17],[-8,23],[0,3],[-4,24],[-22,48],[-103,108],[-13,21],[-13,26],[-7,29],[2,29],[9,16],[10,3]],[[1445,1505],[-4,-9],[-4,-24],[-5,-17],[-10,-13],[-5,-15],[8,-24],[15,-13]],[[1334,1227],[11,2],[42,54],[5,14],[1,20],[-2,58],[-4,12],[-7,5],[-12,12],[-11,15],[-5,12],[-3,17],[23,10],[36,29],[12,8],[21,10],[4,0]],[[2608,1182],[24,31],[1,6],[17,43],[4,5],[3,26],[1,27],[-4,28],[-12,31],[-28,49],[-18,22],[-18,14],[-23,4]],[[2555,1468],[-37,-17],[-22,-4]],[[1686,1422],[24,-5],[7,-12],[15,-46],[8,-18],[12,-15],[43,-35],[20,-10],[30,-1]],[[1604,1396],[25,4],[57,22]],[[1520,1414],[84,-18]],[[1440,1390],[16,2],[32,17],[32,5]],[[2095,1382],[82,-22]],[[1845,1280],[31,6],[23,11],[14,12],[51,46],[27,14],[52,13],[52,0]],[[2202,1364],[-15,-38],[23,-29],[38,-25],[29,-28],[-40,-20],[-18,-50],[8,-54],[36,-29],[22,-4],[14,-5],[12,-10],[67,-75],[71,-54],[16,-7]],[[2177,1360],[25,4]],[[999,1242],[335,-15]],[[831,1164],[15,5],[14,37],[17,10],[122,26]],[[540,1196],[26,-1],[64,-13],[119,-1],[82,-17]],[[339,1006],[68,12],[32,12],[26,30],[8,20],[11,51],[10,23],[41,35],[5,7]],[[2604,1183],[4,-1]],[[2606,1134],[-2,49]],[[2536,926],[15,1],[10,9],[42,49],[0,19],[-4,13],[-5,11],[-3,12],[-1,13],[0,38],[3,6],[14,35],[2,3]],[[2609,1135],[-3,-1]],[[270,1022],[36,-5],[33,-11]],[[0,779],[13,6],[21,22],[19,26],[28,27],[27,9],[63,1],[24,11],[12,21],[-5,16],[-16,11],[-18,5],[69,80],[33,8]],[[2505,948],[14,-8],[8,-8],[9,-6]],[[2465,936],[12,5],[12,6],[16,1]],[[3396,971],[-12,-32],[-10,-40],[-2,-17],[14,-78],[43,-146],[38,-80],[46,-44],[25,-18],[22,-6]],[[3709,570],[19,-13],[24,-49],[32,-51],[7,-20],[4,-18],[7,-23],[12,-20],[48,-63],[43,-32],[12,-18],[-4,-23],[-28,-36],[-43,-43],[-12,-19],[-2,-28],[3,-43],[-8,-25],[-16,-41],[-3,-5]],[[3560,510],[20,7],[20,16],[24,11],[41,4],[22,15],[22,7]],[[3764,1484],[13,-3],[35,-21],[20,-8],[44,-8],[38,-15],[22,-5]],[[3531,944],[13,8],[18,4],[5,8],[36,32],[6,7],[5,10],[6,23],[-1,29],[-7,36],[-13,29],[-12,18],[-18,21],[-16,22],[-12,22],[-5,23],[-1,21],[3,42],[3,28],[8,30],[19,25],[24,20],[156,78],[16,4]],[[4000,1433],[66,-79],[17,-41],[2,-17],[7,-21]],[[3936,1424],[64,9]],[[4092,1275],[4,0]],[[3396,971],[135,-27]],[[1664,610],[48,8],[28,10],[18,10],[18,18],[15,24],[13,40],[11,20],[8,11],[11,5],[14,4],[72,8],[17,7],[15,10],[12,11],[12,14],[10,16],[31,68],[15,25],[29,37],[10,17],[7,16],[3,9],[-3,14],[-29,72],[-6,26],[-1,18],[6,17],[2,10],[-5,10],[-13,15],[-52,36],[-30,27],[-37,66]],[[1573,640],[17,-4],[33,-18],[20,-6],[21,-2]],[[1338,546],[163,59],[51,32],[21,3]],[[1293,548],[45,-2]],[[1286,84],[0,1],[2,10],[-5,81],[-5,22],[-12,30],[-11,12],[-24,20],[-9,14],[-7,22],[-3,24],[-1,40],[4,32],[20,86],[-3,44],[41,21],[20,5]],[[2564,2161],[37,-5],[36,-22],[43,-45],[7,-5],[7,-3],[57,-20],[56,-7]],[[2328,2050],[29,12],[68,19],[18,12],[4,9],[11,33],[17,14],[28,8],[61,4]],[[2990,2110],[44,-32],[15,-7],[13,-9],[12,-16],[-1,-16],[-13,-16],[-21,-6]],[[2807,2054],[83,10],[100,46]],[[3039,2008],[-21,2],[-39,12]],[[2979,2022],[-11,-2],[-7,-6],[-5,-11],[-5,-18],[-4,-26],[-3,-61],[1,-29],[4,-28],[19,-80],[6,-19],[13,-18],[23,-16],[263,-59],[34,-31],[-18,-23],[-23,-4],[-57,-3],[-10,-8],[-3,-10],[7,-17],[5,-7],[8,-7],[14,-9],[30,-13],[36,-4],[11,-21],[7,-18],[-53,-166],[24,-42],[4,-19],[-4,-22],[-8,-18],[-23,-38],[-8,-28],[3,-33],[12,-30],[51,-53],[84,-54]],[[2543,0],[-3,1],[-116,77],[-71,23],[-46,5],[-90,23],[-66,33],[-58,38],[-19,8],[-13,2]],[[2061,210],[-7,-4],[-4,-6],[-3,-5],[-1,-8],[-1,-6],[-5,-7],[-6,-5],[-19,-13]],[[3459,0],[-28,9],[-64,5],[-146,32],[-32,2],[-134,37],[-58,17]],[[2997,102],[-27,-1],[-22,-6],[-36,-36],[-34,-27],[-65,-32]],[[2015,156],[-56,56],[-25,14],[-28,7],[-39,3],[-43,15],[-38,1]],[[1786,252],[-51,-10]],[[1735,242],[-35,0]],[[1700,242],[-30,-4],[-24,-12],[-87,-85],[-130,-61],[-40,-22]],[[2015,156],[5,-41],[11,-18],[20,-15],[125,-43],[13,-17],[-2,-22]],[[319,4096],[-5,-150],[-60,-124],[53,-277],[125,-53],[40,-47],[-11,-76],[-71,-102],[-12,-167],[-44,-64],[-50,-164],[16,-126],[-20,-85],[60,-244],[108,-23]],[[443,2395],[-2,0],[9,-1],[-9,1],[2,0]],[[448,2393],[-10,2],[-29,3],[-7,-10],[61,-46],[71,38],[44,-4],[304,-102],[92,-58],[197,-270],[15,-84],[54,-24],[7,-64],[35,-20],[64,5],[125,110],[52,17],[68,-29],[27,-142],[42,-31],[283,16],[88,115],[171,11],[120,-79],[25,15],[51,-30],[141,-15]],[[4096,2483],[-35,-26],[-100,-46],[-111,-108],[-110,-17],[-150,-181],[-145,-7],[-156,49],[-26,-62],[-103,-41],[-38,18],[-32,-20],[-39,29],[-67,-73],[-68,34],[-45,-48],[-59,-12],[-86,-112],[-17,-59],[-77,-39],[13,-34],[-34,-53],[-32,-3],[-39,44]],[[450,2393],[-6,0],[-4,2],[4,-2],[6,0]],[[2022,1804],[16,-233]],[[2022,1646],[0,-2],[0,2]],[[2617,1687],[-4,-10]],[[4096,2483],[-35,-25],[-88,-40],[-12,-7],[-111,-108],[-109,-17],[-105,-111],[-47,-70],[-146,-7],[-154,49],[-26,-62],[-104,-41],[-37,19],[-32,-20],[-39,28],[-67,-73],[-70,33],[-43,-47],[-59,-12],[-86,-112],[-17,-59],[-77,-39],[13,-33],[-30,-48]],[[4048,2452],[-7,-4]],[[3596,2112],[4,7],[-3,-5],[-1,-2]],[[432,2396],[-18,2],[-3,0],[-2,0],[-1,0],[-1,-1],[-2,-1],[-1,-2],[-1,-1],[0,-2],[-1,-1],[0,-2],[1,-1],[1,-2],[0,-1],[8,-8],[4,-4],[11,-7],[30,-21],[1,-1],[2,0],[3,-1],[1,0],[2,1],[1,0],[14,6],[20,5],[1,0],[2,1],[2,1],[1,1],[7,5],[9,9]],[[432,2396],[-29,-9],[57,-44],[63,28]],[[444,2393],[-12,3]],[[523,2371],[4,5]],[[527,2376],[55,2],[4,2],[23,17],[4,2],[77,16],[12,4],[159,60],[34,35]],[[527,2376],[3,3],[2,0],[1,1],[11,2],[3,1],[5,0],[4,-1],[7,-1],[14,-3],[5,0],[3,2],[24,17],[2,1],[2,1],[4,2],[2,0],[71,14],[23,8],[148,56],[34,35]],[[895,2514],[187,169],[197,-29],[119,34],[83,-4],[140,-55],[52,11]],[[1673,2640],[126,-9]],[[1799,2631],[26,-1]],[[2621,1697],[-8,-20]],[[2928,2032],[-117,-61],[-85,-111],[-17,-59],[-78,-40],[14,-32],[-23,-30]],[[2934,2028],[-5,3]],[[365,515],[-120,6],[-25,-36]],[[369,516],[-6,-1]],[[2005,930],[-80,2],[-218,112],[-58,-72],[23,-99],[-71,36],[-215,-53],[-29,12],[3,-34],[-80,122],[-89,34],[-293,-137],[-224,-156],[-55,-82],[-221,-95]],[[497,570],[-6,0]],[[776,761],[-8,-4]],[[922,860],[-6,-2]],[[1071,951],[-2,-1],[-4,-2]],[[1325,883],[0,1],[-1,1],[-2,1]],[[1417,873],[-3,-2]],[[1473,890],[-3,0]],[[1545,889],[-7,1]],[[1661,903],[1,-6]],[[1722,1043],[-5,0]],[[2007,928],[-3,2]],[[657,673],[2,3],[0,1],[-1,-3],[-1,-1]],[[1865,980],[-4,2],[3,-1],[1,-1]],[[0,2556],[129,-12],[161,-122],[158,-29]],[[450,2393],[-6,1],[-3,0],[3,0],[6,-1]],[[1626,1786],[-27,-14]],[[272,3712],[11,-68],[-224,-197],[-59,-150]],[[13,3318],[1,2]],[[769,758],[-96,-62],[-54,-81],[-148,-48],[-60,-45],[-166,-1],[-27,-53],[-47,-9],[-171,21]],[[106,468],[-4,2]],[[208,469],[-5,-1]],[[302,517],[-4,1]],[[328,516],[-4,0]],[[369,516],[-6,-1]],[[458,558],[-2,-2]],[[497,570],[-6,0]],[[557,598],[3,3]],[[623,619],[-2,-3]],[[695,708],[-3,-1]],[[771,759],[-3,-2]],[[37,482],[4,-2],[-4,2]],[[657,673],[2,3],[0,1],[-1,-3],[-1,-1]],[[2612,1677],[-109,241],[-37,30],[9,27],[-38,70],[38,22]],[[3142,2810],[-7,49]],[[3136,2868],[44,59]],[[3153,2776],[-4,13]],[[3237,2581],[-82,191]],[[3181,2931],[35,118],[-23,49]],[[3245,2568],[-2,5]],[[3253,2526],[-8,40]],[[3264,2524],[-9,1]],[[3283,2466],[-18,58]],[[3316,2425],[-27,38]],[[3461,2315],[-44,54],[-45,1],[-55,52]],[[3530,2221],[-9,63],[-47,17]],[[3568,2168],[-27,37]],[[3570,2164],[-1,2]],[[3598,2128],[-10,5]],[[3602,2121],[-1,6]],[[1281,3277],[18,8]],[[1299,3284],[11,30],[145,90],[159,58],[203,23],[300,94],[50,115],[166,90]],[[2333,3784],[25,1]],[[2333,3784],[2,1]],[[219,475],[-49,-16],[-170,21]],[[106,468],[-4,2]],[[208,469],[-5,-1]],[[219,479],[0,-1]],[[219,478]],[[219,478],[0,-1]],[[219,479],[0,1]],[[219,480]],[[219,480],[0,2]],[[219,482],[1,1]],[[220,483]],[[219,477],[0,-1]],[[219,476],[0,-1]],[[219,475],[2,-3],[1,-6],[-1,-13],[-18,-25],[2,-46],[86,-129],[31,-152],[54,-54],[-28,-3],[-7,-44]],[[37,482],[4,-2],[-4,2]],[[440,2395],[-150,27],[-162,123],[-128,11]],[[440,2395],[-59,5],[-57,8],[-3,1],[-2,1],[-17,8],[-5,2],[-15,-7],[-115,-197],[-25,-133],[-84,-111],[-58,-138]],[[440,2395]],[[444,2395],[-2,0]],[[442,2395],[-2,0]],[[444,2395],[1,0]],[[445,2395],[3,-1]],[[443,2395],[-2,0],[9,-1],[-9,1],[2,0]],[[0,2556],[129,-12],[161,-122],[158,-29]],[[450,2393],[-6,1],[-3,0],[3,0],[6,-1]],[[1,524],[-1,0]],[[24,764],[1,4]],[[219,484],[-28,-17],[-39,31],[-22,3],[-9,-4],[-23,4],[-40,-6],[-37,32],[-21,-3]],[[0,748],[13,0],[10,11],[0,2],[2,4]],[[116,499],[-3,1]],[[151,498],[-2,0]],[[181,479],[-1,3]],[[208,469],[-1,0],[-5,-1],[5,1],[1,0]],[[1334,1180],[-85,-83],[-59,-108],[-293,-137],[-223,-155],[-56,-83],[-147,-47],[-62,-46],[-165,0],[-28,-55],[-216,14]],[[106,468],[-4,2]],[[208,469],[-5,-1]],[[302,517],[-4,1]],[[328,516],[-4,0]],[[369,516],[-6,-1]],[[458,558],[-2,-2]],[[497,570],[-6,0]],[[557,598],[3,3]],[[623,619],[-2,-3]],[[695,708],[-3,-1]],[[776,761],[-8,-4]],[[833,793],[-3,-3]],[[922,860],[-6,-2]],[[943,870],[-3,-2]],[[1071,951],[-2,-1],[-2,-1],[-2,-1]],[[1229,1044],[-2,-4]],[[1253,1102],[-3,-3]],[[37,482],[4,-2],[-4,2]],[[657,673],[2,3],[0,1],[-1,-3],[-1,-1]],[[1274,1127],[2,3],[-2,-2],[0,-1]],[[1006,2182],[1,-3],[2,-1]],[[1009,2178],[-2,2],[-1,2]],[[1134,2269],[-73,-34],[-18,16],[-3,-57],[-31,-16]],[[1142,2271],[-8,-2]],[[1362,2222],[-32,-6],[-115,56],[-73,-1]],[[1006,2183],[-1,1],[2,-4],[-1,3]],[[1039,2193],[1,2],[-1,-2]],[[1051,2252],[-2,0],[-4,-1],[4,1],[2,0]],[[1137,2270],[2,0],[0,1],[-2,-1]],[[1179,2269],[1,0],[-1,0]],[[1225,2267],[2,-1],[-2,1]],[[1329,2216],[-1,1],[1,-1],[1,0],[-1,0]],[[1362,2221],[0,1],[0,-1]],[[2005,1787],[20,22]],[[2018,1801],[7,8]],[[3704,3892],[-2,-1]],[[2869,825],[1,-6]],[[2869,822],[0,9],[5,9],[-2,12],[11,4],[118,-43],[105,11],[76,-83],[187,52],[55,-36],[72,0],[177,67],[130,1],[113,35],[162,157],[18,11]],[[2919,849],[4,0]],[[3014,816],[3,2]],[[3049,829],[3,0]],[[3125,800],[1,-3]],[[3170,746],[4,-2]],[[3227,748],[7,2]],[[3374,793],[3,-1]],[[3439,757],[3,1]],[[3535,769],[5,2]],[[3713,820],[3,0]],[[3744,827],[3,-1]],[[3820,832],[3,2]],[[3860,841],[3,2]],[[3920,864],[2,3]],[[3985,914],[4,3]],[[4027,963],[-1,-3],[1,3]],[[2615,1682],[24,18],[30,-81],[17,-205],[42,-44],[58,-145]],[[2786,1225],[3,-9]],[[2789,1216],[26,-64],[-24,-17],[1,-101],[67,-140],[17,-117],[-57,-147],[-166,-78],[51,-138],[-26,-106],[59,-121],[-11,-86],[35,-101]],[[2698,434],[2,-6]],[[2869,826],[0,-9]],[[2694,336],[5,7],[-5,-7]],[[2740,160],[1,-7],[0,-1],[1,0],[-1,1],[-1,7]],[[2772,606]],[[2778,606],[-6,0]],[[2772,606],[6,0]],[[2787,1221],[2,-5]],[[2789,1216],[-2,5],[-1,4]],[[2786,1225],[1,-4]],[[2832,670]],[[2832,672],[1,0]],[[2833,672],[-1,-2]],[[2832,670],[0,2]],[[2833,675],[0,-3]],[[2832,672],[1,3]],[[0,2556],[135,-14],[167,-124]],[[302,2418],[-134,-201],[-26,-134],[-84,-111],[-58,-138]],[[302,2418]],[[302,2418],[1,0]],[[303,2418],[16,-8],[2,-1],[3,-1],[57,-8],[59,-5]],[[440,2395],[-137,23]],[[440,2395]],[[442,2395],[-1,0]],[[441,2395]],[[441,2395],[-1,0]],[[442,2395],[1,-1]],[[443,2394]],[[443,2394]],[[443,2394],[1,0]],[[444,2394]],[[444,2394]],[[444,2394]],[[444,2394],[1,0]],[[445,2394],[3,0]],[[441,2395],[3,-1],[6,-1],[-6,1],[-3,1]],[[3142,2810],[-7,49]],[[3136,2868],[44,59]],[[3153,2776],[-4,13]],[[3237,2581],[-82,191]],[[3181,2931],[35,118],[-23,49]],[[3245,2568],[-2,5]],[[3253,2526],[-8,40]],[[3264,2524],[-9,1]],[[3283,2466],[-18,58]],[[3316,2425],[-27,38]],[[3461,2315],[-44,54],[-45,1],[-55,52]],[[3530,2221],[-9,63],[-47,17]],[[3568,2168],[-27,37]],[[3570,2164],[-1,2]],[[3598,2128],[-10,5]],[[3602,2121],[-1,6]],[[2007,928],[-3,2]],[[2615,1682],[23,18],[31,-81],[17,-205],[42,-44],[86,-216],[-23,-19],[1,-101],[67,-140],[17,-115],[-56,-149],[-145,-66],[-112,17],[-67,-37],[-213,-12],[-27,21],[-7,52],[53,165],[-3,79],[-39,35],[-153,-6],[-76,29],[-5,4],[-13,12],[-6,4],[-1,2],[-1,1]],[[2250,608],[6,5]],[[2662,1586],[1,5],[-1,-5]],[[720,2948],[-116,-155],[-130,-86],[-52,-167],[-85,-101],[17,-33],[94,-9],[60,-35],[9,4]],[[390,2401],[4,0],[-2,0],[-2,0]],[[403,2521],[-3,-3],[3,3]],[[424,2553],[0,4],[0,-4]],[[453,2395],[-3,1],[-1,1],[4,-2]],[[463,2683],[2,4],[-1,-2],[-1,-2]],[[480,2713],[3,3],[-3,-3]],[[484,2382],[3,-3],[-3,3]],[[498,2371],[3,-2],[0,-1],[-3,3]],[[532,2747],[1,0],[3,2],[-4,-2]],[[665,2879],[-2,-4],[2,3],[0,1]],[[0,2556],[141,-17],[148,-116],[100,-24],[70,-56],[111,35],[337,-117],[127,-109],[77,-148],[60,-60],[14,-81],[55,-25],[7,-64],[35,-20],[64,5],[125,110],[52,17],[68,-29],[27,-142],[42,-31],[283,17],[85,113],[41,5],[141,6],[112,-78],[24,15],[72,-34],[90,7]],[[2508,1735],[-52,-128],[-92,-127],[87,-39],[60,-159],[39,-4]],[[2508,1735]],[[2508,1735],[1,0]],[[2509,1735]],[[2509,1735],[1,0]],[[2510,1735]],[[2510,1735]],[[2510,1735],[1,0]],[[2511,1735],[0,-1]],[[2511,1734],[2,0]],[[2513,1734],[1,0]],[[2514,1734]],[[2514,1734],[1,0]],[[2366,1474],[0,1],[-2,2],[1,0],[1,-3]],[[2376,1503],[2,4],[-2,-4]],[[2393,1479],[2,1],[2,0],[-2,0],[-2,-1]],[[2422,1567],[-1,1],[-2,-4],[3,3]],[[2470,1644],[1,1],[1,2],[-2,-3]],[[2490,1332],[2,-3],[-1,2],[-1,1]],[[2495,1684],[2,3],[1,0],[-3,-3]],[[3189,1522],[-25,49],[17,28]],[[2617,1687],[-4,-10]],[[4096,2483],[-35,-26],[-91,-41],[-9,-5],[-111,-108],[-110,-17],[-104,-111],[-47,-70],[-144,-7],[-156,49],[-26,-62],[-103,-41],[-38,18],[-32,-20],[-39,29],[-67,-73],[-70,33],[-43,-47],[-59,-12],[-86,-112],[-17,-59],[-77,-39],[13,-33],[-30,-48]],[[4046,2451],[-6,-3]],[[3596,2112],[4,7],[-3,-5],[-1,-2]],[[516,2365],[-68,32],[-158,25],[-161,122],[-129,11]],[[516,2365]],[[516,2365],[1,2]],[[651,1837],[-58,189],[-110,113],[44,74],[-24,125],[13,27]],[[72,2552],[4,0],[0,-1],[-4,1]],[[95,2550],[2,0],[2,0],[-1,0],[-3,0]],[[233,2470],[-3,3],[3,-3]],[[368,2403],[4,-1],[0,1],[-3,0],[-1,0]],[[390,2401],[4,0],[-2,0],[-2,0]],[[484,2382],[3,-3],[-3,3]],[[498,2371],[3,-2],[0,-1],[-3,3]],[[499,2165],[3,3],[-3,-3]],[[519,2288],[-1,3],[0,1],[1,-4]],[[523,2265],[1,-4],[-1,4]],[[524,2204],[-1,-4],[1,4]],[[528,2227],[0,4],[0,-4]],[[590,2031],[-1,2],[-1,1],[2,-3]],[[630,1895],[-1,4],[1,-4]],[[2616,1681],[11,23]],[[2637,1702],[32,-83],[17,-205],[42,-44],[81,-187],[-17,-149],[78,-191],[6,-66],[-56,-147],[-167,-78],[50,-138],[-25,-106],[59,-121],[-11,-86],[35,-101]],[[2698,434],[2,-6]],[[2869,826],[0,-9]],[[2694,336],[5,7],[-5,-7]],[[2740,160],[1,-7],[1,-1],[-1,1],[-1,7]],[[2778,606],[-9,0],[3,0],[6,0]],[[2787,1221],[2,-5],[-3,9],[1,-4]],[[2832,670]],[[2832,672],[1,0]],[[2833,672],[-1,-2]],[[2832,670],[0,2]],[[2833,675],[0,-3]],[[2832,672],[1,3]],[[516,2365],[-68,32],[-45,-4],[7,-147],[-101,-158],[-52,-124],[6,-12],[-10,-28],[0,-8],[5,-9],[0,-2],[0,-1],[0,-1]],[[516,2365]],[[516,2365],[1,2]],[[516,2365],[0,-67],[54,-10],[24,-31],[44,-46],[123,-196],[13,-48],[-32,-59]],[[258,1902],[0,2],[0,1],[0,-3]],[[272,1988],[0,-1],[-1,-2],[1,3]],[[297,2043],[-2,-2],[2,2]],[[303,2071],[-1,-1],[0,-1],[1,2]],[[334,2128],[1,2],[-1,-2]],[[361,2158],[-1,-2],[1,2]],[[378,2184],[-1,-3],[2,3],[-1,0]],[[395,2216],[1,2],[-1,-2]],[[404,2265],[-1,-2],[0,-2],[0,2],[1,2]],[[409,2244],[-1,-2],[1,0],[0,2]],[[411,2292],[1,4],[-1,-3],[0,-1]],[[417,2344],[1,4],[0,1],[-1,-5]],[[484,2382],[3,-3],[-3,3]],[[498,2371],[3,-2],[0,-1],[-3,3]],[[558,2292],[-1,0],[-3,0],[1,0],[3,0]],[[576,2281],[1,-1],[-2,3],[1,-2]],[[621,2229],[3,-3],[-3,3]],[[655,2188],[-2,3],[2,-3]],[[675,2160],[-2,3],[2,-3]],[[683,2130],[1,-4],[-1,4]],[[709,2074],[-1,2],[1,-2]],[[743,1910],[-2,-2],[2,2]],[[756,2022],[2,-2],[-2,2]],[[766,2003],[1,-1],[0,-1],[-1,2]],[[774,1971],[-1,2],[1,-2]],[[149,252],[0,-1]],[[219,486],[1,6],[0,1],[-17,-2],[4,-21],[9,-10],[-22,-45],[-22,-5],[26,-88],[-48,-59],[3,-5],[-2,-4],[-2,-3]],[[150,260],[0,-1]],[[160,272]],[[171,289],[0,-1]],[[171,410],[1,-1]],[[177,401],[0,-1]],[[182,388],[0,-1]],[[182,381],[1,-1]],[[187,410]],[[187,369],[0,-1]],[[187,420],[0,-1]],[[190,354],[1,-1]],[[193,414],[-1,-1]],[[193,341]],[[196,432]],[[198,325],[0,-1]],[[203,492],[1,1]],[[204,440]],[[205,488],[-1,1]],[[206,482],[0,1]],[[207,477]],[[207,470],[0,1]],[[208,493],[1,0]],[[209,449],[0,-1]],[[212,470],[-1,0]],[[211,494],[2,0]],[[216,493],[1,0]],[[215,464]],[[219,485],[0,3],[0,-1],[0,-2]],[[282,2422],[-55,8],[-121,52],[-3,1],[-1,1],[-2,0],[-2,0],[-3,0],[-2,0],[-1,-1],[-60,-20],[-4,0],[-17,-1],[-2,0],[-2,-1],[-2,-1],[-5,-4]],[[282,2422],[-55,8],[-127,54],[-68,-21],[-4,0],[-19,-1],[-9,-6]],[[282,2422],[3,-1]],[[285,2421],[1,0]],[[286,2421],[1,0]],[[287,2421],[2,0]],[[289,2421]],[[289,2421],[2,-1]],[[291,2420],[1,0]],[[292,2420],[1,0]],[[293,2420],[3,-1]],[[296,2419]],[[296,2419],[1,0]],[[297,2419],[1,0]],[[298,2419]],[[298,2419],[1,0]],[[299,2419],[1,-1]],[[300,2418]],[[300,2418],[1,0]],[[301,2418],[1,0]],[[303,2417],[-1,0]],[[302,2417],[0,1]],[[302,2418]],[[303,2417],[142,-21]],[[445,2396],[-142,21]],[[445,2397],[-2,0],[-6,0],[-25,2],[-9,-7],[17,-29],[-16,-106],[44,-14],[44,-129],[101,-88],[70,-204],[111,-20],[70,-115],[4,-47],[-12,-42],[0,-4],[0,-12],[0,-1],[1,-2],[0,-3],[3,-8],[4,-6],[13,-11],[11,-26],[17,-10]],[[885,1515],[8,-60],[37,-12],[81,4],[98,-64]],[[885,1515],[3,-2]],[[404,2265],[-1,-2],[0,-2],[0,2],[1,2]],[[411,2292],[1,4],[-1,-3],[0,-1]],[[417,2344],[1,4],[0,1],[-1,-5]],[[447,2397],[-5,0],[5,0]],[[630,1894],[-1,2],[0,2],[1,-4]],[[653,1835],[-2,2],[-1,2],[3,-4]],[[769,1807],[-2,1],[2,-1]],[[837,1578],[-1,2],[1,-2]],[[846,1633],[0,2],[0,-2]],[[860,1544],[-1,3],[1,-3]],[[887,1514],[1,-1],[1,0],[-2,1]],[[909,1449],[-3,1],[3,-1]],[[996,1448],[-2,1],[2,-1]],[[1041,1423],[3,-1],[-3,1]],[[1072,1410],[2,-1],[-2,1]],[[1110,1382],[-2,1],[2,-1]],[[220,486],[-49,-27],[-171,21]],[[106,468],[-4,2]],[[208,469],[-5,-1]],[[2252,610],[-6,-44],[-66,-27],[-509,-19],[-292,-99]],[[2106,534],[0,-1]],[[2177,539],[1,0]],[[2252,610],[-2,-1],[0,-1]],[[1393,434],[2,1],[-1,0],[-1,-1]],[[1449,443],[1,0],[0,-1],[-1,1]],[[1472,440],[-1,0],[0,1],[1,-1]],[[1595,500],[-2,-1],[1,0],[1,1]],[[1608,505],[1,1],[-1,-1]],[[1637,506],[0,1],[1,0],[-1,-1]],[[1658,516],[1,0],[-1,0]],[[1681,520],[2,0],[-2,0]],[[1699,518],[-2,0],[2,0]],[[1747,525],[1,0],[-1,0]],[[1794,530],[-2,0],[1,0],[1,0]],[[1818,534],[-1,-1],[1,1]],[[1860,534],[-1,1],[1,-1]],[[1885,533],[1,-1],[-1,1]],[[2056,529],[1,-1],[-1,1]],[[378,2183],[32,63],[9,120],[-30,33],[-81,15]],[[307,2415],[4,-2],[-3,1],[-1,1]],[[378,2184],[-1,-3],[2,3],[-1,0]],[[396,2218],[1,0],[-2,-3],[1,3]],[[404,2265],[-1,-2],[0,-2],[0,2],[1,2]],[[409,2244],[-1,-2],[1,0],[0,2]],[[410,2377],[-3,3],[3,-3]],[[412,2296],[-1,-4],[1,3],[0,1]],[[0,3895],[8,-3],[28,-20],[6,-4],[202,-66],[34,-114]],[[274,3704],[-30,98],[-244,93]],[[4096,3033],[-86,101],[8,58],[47,46],[-30,90],[-88,66],[22,93]],[[0,2456],[101,28],[128,-55],[95,-21],[125,-11],[5,-2],[8,-4],[20,-8],[12,-8],[15,-13],[67,15],[308,-104],[127,-96],[29,17],[-10,41],[11,6],[1,8],[3,2],[1,1],[2,0]],[[149,2463],[4,-1],[-1,0],[-3,1]],[[238,2428],[-4,0],[0,1],[4,-1]],[[258,2425],[4,-1],[0,1],[-4,0]],[[390,2401],[4,0],[-2,0],[-2,0]],[[453,2395],[-3,1],[-1,1],[4,-2]],[[484,2382],[3,-3],[-3,3]],[[498,2371],[3,-2],[0,-1],[-3,3]],[[896,2267],[-3,2],[-1,0],[4,-2]],[[1039,2193]],[[1051,2252],[-2,0],[-4,-1],[4,1],[2,0]],[[3430,1997],[-14,-21]],[[3431,2001],[-1,-2]],[[3514,2111],[-68,-31],[-14,-75]],[[3457,2093],[-1,-1]],[[3515,2110],[-2,1],[0,1],[4,-3],[-2,1]],[[3430,1997],[-14,-21]],[[3431,2001],[-1,-2]],[[3514,2111],[-68,-31],[-14,-75]],[[3457,2093],[-1,-1]],[[2869,825],[1,-6]],[[2869,822],[0,9],[5,9],[-2,12],[11,4],[118,-43],[105,11],[76,-83],[186,52],[56,-36],[48,2],[24,-2],[177,67],[130,1],[113,35],[162,157],[18,11]],[[2919,849],[4,0]],[[3014,816],[3,2]],[[3049,829],[3,0]],[[3125,800],[1,-3]],[[3170,746],[4,-2]],[[3227,748],[7,2]],[[3375,792],[3,0]],[[3438,757],[5,1]],[[3535,769],[5,2]],[[3713,820],[3,0]],[[3744,827],[3,-1]],[[3820,832],[3,2]],[[3860,841],[3,2]],[[3920,864],[2,3]],[[3985,914],[4,3]],[[4027,963],[-1,-3],[1,3]],[[365,515],[-120,6],[-25,-36]],[[369,516],[-6,-1]],[[1334,1180],[-169,-210],[-96,-20],[-171,-97],[-224,-156],[-55,-82],[-221,-95]],[[497,570],[-6,0]],[[776,761],[-8,-4]],[[922,860],[-6,-2]],[[1071,951],[-2,-1],[-2,-1],[-2,-1]],[[1229,1044],[-2,-4]],[[657,673],[2,3],[0,1],[-1,-3],[-1,-1]],[[1274,1127],[2,3],[-2,-2],[0,-1]],[[1334,1180],[0,-2],[-1,-1],[0,-1],[1,2],[0,2]],[[1856,2629],[44,102]],[[1900,2731],[-10,12]],[[1890,2743],[-69,76],[7,68],[-231,166]],[[1597,3053],[2,13]],[[1599,3066],[-18,23],[-99,3],[-168,112],[-36,63],[17,15]],[[1843,2629],[12,0]],[[1855,2629],[1,0]],[[1856,2629]],[[1856,2629],[17,-1],[5,-2],[27,-19]],[[1871,2628],[87,-96],[-29,-182],[51,-46],[155,-59],[60,-136],[113,-127],[121,-28],[59,-187],[33,-36]],[[2515,1733],[-7,2],[-4,0],[-5,-3],[-43,-125],[-92,-127],[87,-39],[60,-159],[37,-6]],[[2366,1474],[0,1],[-2,2],[1,0],[1,-3]],[[2376,1503],[2,4],[-2,-4]],[[2393,1479],[2,1],[2,0],[-2,0],[-2,-1]],[[2422,1567],[-1,1],[-2,-4],[3,3]],[[2471,1647],[-2,-5],[3,5],[-1,0]],[[2490,1332],[2,-3],[-1,2],[-1,1]],[[2495,1684],[2,3],[1,0],[-3,-3]],[[2502,1721],[0,2],[-1,1],[1,-1],[0,-2]],[[2517,1733],[-2,0],[-5,1],[7,-1]],[[4096,142],[-45,11],[-80,-62],[-59,4],[-52,-37],[-126,25],[-9,112]],[[1048,2252],[-2,0],[-1,-1],[-3,-2],[-1,-8],[-11,-6],[10,-41],[-29,-17],[-14,19],[-23,21],[-91,57],[-309,104],[-65,-16],[-60,35],[-220,32],[-129,55],[-100,-28]],[[238,2428],[-4,0],[0,1],[4,-1]],[[258,2425],[2,0],[2,0],[-4,0]],[[368,2403],[4,-1],[0,1],[-3,0],[-1,0]],[[390,2401],[4,0],[-2,0],[-2,0]],[[484,2382],[3,-3],[-3,3]],[[498,2371],[3,-2],[0,-1],[-3,3]],[[896,2267],[-3,2],[-1,0],[4,-2]],[[927,2244],[3,-2],[-3,2]],[[1006,2183],[-1,1],[2,-4],[-1,3]],[[1039,2193]],[[1051,2252],[-2,0],[-4,-1],[4,1],[2,0]],[[3236,1973],[1,-1]],[[3259,2030],[-1,-1]],[[3262,2084],[23,-28],[-50,-81],[92,-73]],[[3269,2043]],[[3279,2063]],[[3326,1903],[1,-1]],[[3259,1953],[1,-1],[-1,1]],[[781,2859],[-90,-31],[-26,-177],[-91,-161],[8,-107],[-73,-21],[-61,35],[-154,23],[-216,-97],[-57,-56],[-21,-11]],[[1,2257],[4,1],[-4,-1]],[[55,2303],[3,3],[-3,-3]],[[74,2320],[-3,-3],[3,3]],[[111,2325],[-1,1],[-3,1],[2,-1],[2,-1]],[[165,2369],[4,1],[-4,-1]],[[203,2381],[0,-1],[-4,-2],[4,3]],[[235,2394],[-4,-1],[2,1],[2,0]],[[253,2397],[-4,0],[3,0],[1,0]],[[368,2403],[4,-1],[0,1],[-3,0],[-1,0]],[[390,2401],[4,0],[-2,0],[-2,0]],[[484,2382],[3,-3],[-3,3]],[[498,2371],[3,-2],[0,-1],[-3,3]],[[576,2455],[1,-2],[0,-2],[-1,4]],[[577,2500],[2,5],[-2,-5]],[[580,2429],[0,4],[0,-4]],[[582,2413],[-1,4],[1,-4]],[[676,2760],[1,3],[-1,-3]],[[751,2855],[-4,0],[4,0]],[[2621,1697],[-8,-20]],[[2928,2032],[-117,-61],[-85,-111],[-17,-59],[-77,-40],[13,-32],[-23,-31]],[[2934,2028],[-5,3]],[[396,521],[-151,0],[-25,-36]],[[369,516],[-6,-1]],[[1334,1180],[-170,-211],[-94,-19],[-116,-76],[-56,-21],[-224,-156],[-55,-82],[-192,-86]],[[497,570],[-5,0]],[[776,761],[-8,-4]],[[922,860],[-6,-2]],[[1082,953],[-7,-1],[-4,-1],[-4,-2],[-5,-3]],[[1068,949],[-5,-3]],[[1230,1045],[-3,-4]],[[659,675],[2,4],[-3,-6],[1,2]],[[1276,1130],[-2,-3],[1,1],[1,2]],[[1334,1180],[0,-2],[-1,-2],[1,2],[0,2]],[[448,2394],[-158,28],[-162,123],[-128,11]],[[443,2394],[7,0],[-5,0],[-2,0]],[[2510,1735],[-4,0],[-5,0],[-83,-7],[-72,34],[-24,-15],[-112,78],[-141,-6],[-41,-5],[-85,-113],[-283,-17],[-42,31],[-27,143],[-46,3],[-22,25],[-53,-17],[-124,-109],[-63,-6],[-36,20],[-7,64],[-55,25],[-13,81],[-61,60],[-77,148],[-127,109],[-338,117],[-109,-35],[-75,58],[-96,22],[-151,118],[-138,15]],[[2510,1735],[-54,-128],[-92,-127],[87,-39],[60,-159],[39,-4]],[[2510,1735],[1,0]],[[2511,1735],[0,-1]],[[2511,1734],[2,0]],[[2513,1734],[1,0]],[[2514,1734]],[[2514,1734],[1,0]],[[1534,1879],[-1,1],[0,1],[-2,1],[-1,1],[2,-2],[2,-2]],[[2366,1474],[0,1],[-2,2],[1,0],[1,-3]],[[2376,1503],[2,4],[-2,-4]],[[2393,1479],[2,1],[2,0],[-2,0],[-2,-1]],[[2422,1567],[-1,1],[-2,-4],[3,3]],[[2470,1644],[1,1],[1,2],[-2,-3]],[[2490,1332],[2,-3],[-1,2],[-1,1]],[[2495,1684],[2,3],[1,0],[-3,-3]],[[2617,1687],[-4,-10]],[[4096,2483],[-35,-26],[-91,-41],[-9,-5],[-111,-108],[-110,-17],[-104,-111],[-47,-70],[-144,-7],[-156,49],[-26,-62],[-103,-41],[-38,18],[-32,-20],[-39,29],[-67,-73],[-70,33],[-43,-47],[-59,-12],[-86,-112],[-17,-59],[-77,-39],[13,-33],[-30,-48]],[[4046,2451],[-6,-3]],[[3596,2112],[4,7],[-3,-5],[-1,-2]],[[2016,1800],[9,9]],[[2058,1817],[60,82],[-14,32],[47,9]],[[448,2394],[-107,23],[-61,244],[21,85],[-17,126],[50,165],[44,63],[13,167],[70,102],[11,76],[-42,48],[-123,52],[-52,277],[59,124],[5,150]],[[443,2395],[-2,0],[9,-1],[-9,1],[2,0]],[[1364,3914],[-194,-39]],[[3409,2109],[-1,91],[-40,78]],[[2515,1733],[68,-62],[44,33]],[[2637,1702],[32,-83],[17,-205],[42,-44],[59,-150]],[[781,2859],[-80,-9],[-6,-1],[-222,-144],[-51,-165],[-85,-109],[18,-25],[93,-9],[60,-35],[9,4]],[[390,2401],[4,0],[-2,0],[-2,0]],[[403,2521],[-3,-3],[3,3]],[[424,2553],[0,4],[0,-4]],[[453,2395],[-3,1],[-1,1],[4,-2]],[[463,2683],[2,4],[-1,-2],[-1,-2]],[[480,2713],[3,3],[-3,-3]],[[484,2382],[3,-3],[-3,3]],[[498,2371],[3,-2],[0,-1],[-3,3]],[[532,2747],[1,0],[3,2],[-4,-2]],[[751,2855],[-4,0],[4,0]],[[2740,2674],[-97,-24],[-61,11]],[[2931,2675],[-176,2]],[[2973,2668],[-29,2]],[[3266,2524],[-122,13],[-157,133]],[[3589,2675],[-83,-32],[-40,-48],[-121,2],[-72,-72]],[[3496,2626],[-1,-2]],[[2617,1687],[-4,-10]],[[4096,2483],[-35,-25],[-88,-40],[-12,-7],[-111,-108],[-109,-17],[-105,-111],[-47,-70],[-146,-7],[-154,49],[-26,-62],[-104,-41],[-37,19],[-32,-20],[-39,28],[-67,-73],[-70,33],[-43,-47],[-59,-12],[-86,-112],[-17,-59],[-77,-39],[13,-33],[-30,-48]],[[4048,2452],[-7,-4]],[[3596,2112],[4,7],[-3,-5],[-1,-2]],[[3849,2299],[14,-8],[-30,-21]],[[3833,2270],[-2,-1],[0,-2],[-1,-1],[0,-1]],[[3833,2270],[37,-51],[20,-134]],[[219,484],[-28,-17],[-39,31],[-22,3],[-9,-4],[-23,4],[-40,-6],[-58,29]],[[0,748],[26,23],[-15,46],[18,84],[-29,53]],[[1,524],[-1,0]],[[23,870],[-2,-5]],[[24,764],[1,4]],[[116,499],[-3,1]],[[151,498],[-2,0]],[[181,479],[-1,3]],[[208,469],[-1,0],[-5,-1],[5,1],[1,0]],[[0,2555],[131,-12],[161,-122],[156,-24],[33,-13],[2,-1],[4,-4],[1,-1],[6,-3],[7,-6],[6,-6],[6,-1]],[[513,2362],[3,3]],[[516,2365]],[[516,2365],[1,1]],[[513,2362],[14,-148],[-44,-75],[111,-113],[57,-189]],[[72,2552],[4,0],[0,-1],[-4,1]],[[95,2550],[2,0],[2,0],[-1,0],[-3,0]],[[233,2470],[-3,3],[3,-3]],[[390,2401],[4,0],[-2,0],[-2,0]],[[453,2395],[-3,1],[-1,1],[4,-2]],[[484,2382],[3,-3],[-3,3]],[[498,2371],[3,-2],[0,-1],[-3,3]],[[499,2165],[3,3],[-3,-3]],[[518,2292],[1,-4],[-1,3],[0,1]],[[523,2200],[1,4],[-1,-4]],[[524,2261],[-1,4],[0,-2],[1,-2]],[[528,2231],[-1,-4],[1,0],[0,4]],[[588,2034],[2,-3],[-2,3]],[[630,1894],[-1,2],[0,2],[1,-4]],[[220,475],[-50,-16],[-170,21]],[[106,468],[-4,2]],[[208,469],[-5,-1]],[[219,479],[0,-1]],[[219,478]],[[219,478],[0,-1]],[[219,479],[0,1]],[[219,480]],[[219,480],[0,2]],[[219,482],[1,1]],[[220,483]],[[219,477],[0,-1]],[[219,476],[0,-1]],[[219,475],[1,0]],[[220,475],[1,-4],[0,-5],[0,-13],[-18,-25],[2,-46],[85,-128],[32,-154],[54,-53],[-28,-3],[-7,-44]],[[37,481],[4,-1],[-4,2],[0,-1]],[[0,2556],[129,-12],[161,-122],[33,-14],[125,-14]],[[443,2395],[-2,0],[9,-1],[-9,1],[2,0]],[[2438,2048],[-35,-2],[-79,139]],[[2438,2048],[1,0]],[[2439,2048],[0,1]],[[2439,2049],[1,0]],[[2612,1678],[-109,240],[-36,29],[-29,101]],[[2346,2149],[-1,-1],[1,1]],[[2346,2166],[-2,1],[2,-1]],[[1112,1442],[115,49]],[[33,1887],[18,28],[5,24],[0,28],[1,2],[1,3],[35,52],[28,34],[11,20],[10,5],[26,134],[124,202],[156,-22],[61,-35],[70,14],[305,-103],[127,-96],[29,17],[-10,41],[11,6],[1,8],[3,2],[1,1],[2,0]],[[57,1971],[3,3],[-2,-2],[-1,-1]],[[142,2100],[0,5],[0,-5]],[[219,2291],[2,2],[1,1],[-3,-3]],[[238,2317],[-1,-1],[2,4],[-1,-3]],[[390,2401],[4,0],[-2,0],[-2,0]],[[453,2395],[-3,1],[-1,1],[4,-2]],[[484,2382],[3,-3],[-3,3]],[[498,2371],[3,-2],[0,-1],[-3,3]],[[896,2267],[-3,2],[-1,0],[4,-2]],[[1039,2193],[-1,-1],[0,-1],[1,2]],[[1051,2252],[-2,0],[-4,-1],[4,1],[2,0]],[[4096,142],[-45,11],[-80,-62],[-59,4],[-52,-37],[-126,25],[-9,112]],[[3632,2024],[-40,78],[11,21]],[[4096,1062],[-3,0],[-30,41],[-49,12],[-212,18],[-135,87],[-72,-25],[3,-54],[-26,-16],[-57,15],[1,71],[-83,105],[25,91],[-17,32],[238,233],[16,75],[-47,123],[46,65],[-38,17],[-23,71]],[[3600,2119],[-1,-2],[-2,-3],[3,5]],[[2005,930],[-80,2],[-218,112],[-58,-72],[23,-99],[-71,36],[-215,-53],[-29,12],[3,-34],[-80,122],[-98,26]],[[1253,971],[-3,2]],[[1310,903],[-2,3],[-1,2]],[[1325,883],[0,1],[-1,1],[-2,1]],[[1365,868],[-4,0]],[[1417,873],[-3,-2]],[[1473,890],[-3,0]],[[1545,889],[-7,1]],[[1634,898],[-2,2]],[[1663,875],[-3,3]],[[1662,996],[-1,-2]],[[1661,903],[1,-6]],[[1722,1043],[-5,0]],[[1776,1020],[-3,1]],[[1939,932],[-3,0]],[[2007,928],[-3,2]],[[1865,980],[-4,2],[3,-1],[1,-1]],[[486,2131],[-36,109],[-47,20],[17,103],[-17,29],[8,7],[26,-2],[5,0],[1,0],[2,0]],[[404,2265],[-1,-2],[0,-2],[0,2],[1,2]],[[412,2296],[-1,-4],[1,3],[0,1]],[[417,2344],[1,4],[0,1],[-1,-5]],[[447,2397],[-5,0],[5,0]],[[4028,2748],[-24,-30],[-96,58],[-42,-9],[-47,68],[-99,-48],[-35,-68],[-80,-39]],[[4028,2749],[-1,-2]],[[3603,2679],[5,1],[-5,0],[0,-1]],[[3902,2774],[1,1],[-1,-1]],[[4096,2491],[-64,-44],[-71,109],[-53,27],[-71,-14],[-115,29],[-53,21],[-47,64],[-164,-22],[2,112],[-86,91],[-7,67],[-122,58],[-49,98],[24,115],[-31,89],[21,45],[-54,-2],[-77,55],[-167,18],[-149,110],[-130,27],[-132,142],[-43,10],[-90,86],[-382,204],[-354,14],[-143,96]],[[4048,2452],[-7,-4]],[[4028,2749],[-1,-2]],[[4096,2715],[-38,-2],[-21,33]],[[4037,2746]],[[4037,2746],[-1,2]],[[4036,2748],[-8,0]],[[4037,2746]],[[4036,2748],[1,-2]],[[4046,2727],[0,-1],[1,0],[-1,0],[0,1]],[[4062,2714],[1,0],[-1,0]],[[448,2394],[-107,23],[-61,244],[21,85],[-17,126],[50,165],[44,63],[13,167],[70,102],[11,76],[-42,48],[-123,52],[-52,277],[59,124],[5,150]],[[441,2395],[3,-1],[6,-1],[-6,1],[-3,1]],[[1370,3674],[64,72]],[[1434,3746],[7,3]],[[1441,3749],[231,134],[59,74],[-3,35],[254,9],[57,15],[54,55]],[[1438,3747],[2,1],[-2,-1]],[[1439,3748],[-1,-1],[0,1],[1,0]],[[1551,3822],[-1,0],[2,1],[-1,-1]],[[0,2556],[129,-12],[161,-122],[158,-29]],[[450,2393],[-6,1],[-3,0],[3,0],[6,-1]],[[220,485],[-49,-26],[-171,21]],[[4028,2748],[-24,-30],[-96,58],[-42,-9],[-45,68],[-97,-46],[-54,35]],[[4028,2749],[-1,-2]],[[3902,2774],[1,1],[-1,-1]],[[220,485],[-49,-26],[-171,21]],[[319,4096],[-5,-150],[-60,-124],[53,-277],[125,-53],[40,-47],[-11,-76],[-71,-102],[-12,-167],[-44,-64],[-50,-164],[16,-126],[-20,-85],[60,-244],[108,-23]],[[441,2395],[3,-1],[6,-1],[-6,1],[-3,1]],[[2016,1800],[-14,58]],[[4048,2341],[48,-84]],[[4096,2209],[-37,-148],[-145,-225],[24,-65]],[[4043,2449],[-15,-8],[-7,-63]],[[4026,2364],[20,-21]],[[4033,2421],[1,-1]],[[4043,2449],[-3,-1]],[[4062,2316],[0,-2]],[[4067,2283],[0,-1]],[[885,1514],[-17,11],[-11,26],[-13,11],[-4,6],[-3,8],[0,3],[-1,2],[0,1],[0,12],[0,4],[12,42],[-4,47],[-70,115],[-111,20],[-70,206],[-101,86],[-44,129],[-44,14],[13,56],[3,50],[-17,29],[8,7],[26,-2],[5,0],[1,0],[2,0]],[[885,1514],[8,-59],[37,-12],[81,4],[98,-64]],[[885,1514],[3,-1]],[[404,2265],[-1,-2],[0,-2],[0,2],[1,2]],[[412,2296],[-1,-4],[1,3],[0,1]],[[417,2344],[1,4],[0,1],[-1,-5]],[[447,2397],[-5,0],[5,0]],[[630,1895],[-1,4],[1,-4]],[[653,1836],[-3,3],[3,-3]],[[769,1807],[-2,1],[2,-1]],[[837,1578],[-1,2],[1,-2]],[[846,1633],[0,2],[0,-2]],[[860,1544],[-1,3],[1,-3]],[[887,1514],[1,-1],[1,0],[-2,1]],[[909,1449],[-3,1],[3,-1]],[[996,1448],[-2,1],[2,-1]],[[1041,1423],[3,-1],[-3,1]],[[1072,1410],[2,-1],[-2,1]],[[1110,1382],[-2,1],[2,-1]],[[319,4096],[-5,-150],[-60,-124],[53,-277],[125,-53],[40,-47],[-11,-76],[-71,-102],[-12,-167],[-44,-64],[-50,-164],[16,-126],[-20,-85],[60,-244],[108,-23]],[[443,2395],[-2,0],[9,-1],[-9,1],[2,0]],[[4053,2454],[-4,-2]],[[4049,2452],[-5,-2]],[[4052,2453],[-3,-1]],[[4049,2452],[-5,-2]],[[4052,2453],[-8,-4]],[[4049,2452]],[[4096,2484],[-43,-30]],[[4053,2454],[-1,-1]],[[448,2393],[-10,2],[-28,3],[-8,-10],[58,-45],[109,35],[313,-104],[152,-122],[77,-148],[61,-60],[13,-81],[55,-25],[7,-64],[43,-29],[-47,-211],[72,-84],[66,-195],[-218,-286],[-94,-19],[-172,-98],[-223,-155],[-56,-83],[-147,-47],[-62,-46],[-164,0],[-22,-22],[-18,-117],[86,-129],[31,-152],[54,-53],[-28,-4],[-7,-44]],[[776,761],[-8,-4]],[[450,2393],[-6,0],[-4,2],[4,-2],[6,0]],[[445,2397],[-42,-5],[17,-29],[-16,-105],[44,-15],[44,-129],[101,-88],[82,-252],[-55,-158],[-153,-54],[-10,-113],[14,-56]],[[404,2265],[-1,-2],[0,-2],[0,2],[1,2]],[[411,2292],[1,4],[-1,-3],[0,-1]],[[417,2344],[1,4],[0,1],[-1,-5]],[[443,2397],[4,0],[-4,0]],[[457,1454],[0,-3],[0,3]],[[471,1394],[0,-2],[0,3],[0,-1]],[[475,1519],[-1,-2],[1,2]],[[563,1598],[-3,0],[3,0]],[[630,1894],[-1,2],[0,2],[1,-4]],[[631,1641],[2,4],[-2,-3],[0,-1]],[[653,1835],[-2,2],[-1,2],[3,-4]],[[669,1724],[0,4],[0,-4]],[[0,2556],[129,-12],[161,-122],[33,-14],[125,-14]],[[443,2394],[7,0],[-5,0],[-2,0]],[[1087,3435],[66,-37],[98,-117],[39,-1]],[[0,2556],[129,-12],[161,-122],[158,-28]],[[441,2395],[3,-1],[6,-1],[-6,1],[-3,1]],[[1598,1772],[-41,-67],[12,-34],[-3,-64]],[[1566,1607],[0,1],[0,-1]],[[1597,1774],[0,2],[2,-8],[-1,4],[-1,2]],[[149,252],[0,-1]],[[219,486],[0,-1],[-1,0],[-7,-1],[-6,4],[2,-9],[0,-9],[9,-10],[-22,-45],[-22,-5],[26,-88],[-48,-59],[3,-5],[-2,-4],[-2,-3]],[[150,260],[0,-1]],[[160,272]],[[171,289],[0,-1]],[[171,410],[1,-1]],[[177,401],[1,-1]],[[182,388],[0,-1]],[[183,380],[-1,1]],[[187,410]],[[187,369],[0,-1]],[[187,420],[0,-1]],[[190,354],[1,-1]],[[193,414],[-1,-1]],[[193,341]],[[196,432]],[[198,325],[0,-1]],[[204,440]],[[205,485],[0,-1]],[[206,477]],[[206,471]],[[210,490],[-2,-1]],[[209,449]],[[212,484],[-1,0]],[[211,470],[1,0]],[[215,464]],[[219,485],[0,3],[0,-1],[0,-2]],[[769,758],[-96,-62],[-54,-81],[-148,-48],[-60,-45],[-166,-1],[-26,-53],[-48,-9],[-171,21]],[[106,468],[-4,2]],[[208,469],[-5,-1]],[[304,517],[-4,0]],[[328,515],[-4,1]],[[369,516],[-6,-1]],[[458,557],[-2,-1]],[[497,570],[-5,0]],[[563,602],[-3,-2]],[[623,619],[-2,-3]],[[695,708],[-3,-1]],[[771,759],[-3,-2]],[[37,481],[4,-1],[-4,2],[0,-1]],[[659,675],[2,4],[-3,-6],[1,2]],[[1598,1772],[-41,-67],[12,-34],[-3,-64]],[[1566,1607],[0,1],[0,-1]],[[1597,1774],[0,2],[2,-8],[-1,4],[-1,2]],[[319,4096],[-5,-150],[-60,-124],[53,-277],[125,-53],[40,-47],[-11,-76],[-71,-102],[-12,-167],[-44,-64],[-50,-164],[16,-126],[-20,-85],[60,-244],[108,-23]],[[443,2395],[-2,0],[9,-1],[-9,1],[2,0]],[[2438,2048],[-35,-2],[-79,139]],[[2438,2048],[1,0]],[[2439,2048],[0,1]],[[2439,2049],[1,0]],[[2612,1677],[-109,241],[-36,29],[-29,101]],[[2346,2149],[-1,-1],[1,1]],[[2346,2166],[-2,1],[2,-1]],[[4096,2491],[-64,-44],[-71,110],[-53,26],[-71,-14],[-115,29],[-53,21],[-47,64],[-163,-22],[1,113],[-86,90],[-6,67],[-123,58],[-49,98],[24,115],[-31,89],[21,46],[-53,-3],[-78,55],[-167,18],[-149,110],[-130,27],[-132,142],[-42,9],[-91,88],[-383,204],[-353,13],[-143,96]],[[4049,2452],[-8,-3]],[[770,758],[-35,71],[-37,10]],[[770,758],[1,1]],[[4028,2748],[-24,-30],[-96,58],[-42,-9],[-47,68],[-99,-48],[-35,-68],[-80,-39]],[[4028,2749],[-1,-2]],[[3603,2679],[5,1],[-5,0],[0,-1]],[[3902,2774],[1,1],[-1,-1]],[[448,2395],[-219,34],[-129,55],[-100,-28]],[[443,2395],[1,0],[6,-1],[-7,1]],[[0,2555],[129,-11],[161,-122],[158,-28]],[[443,2394],[7,0],[-5,0],[-2,0]],[[7,2926],[75,-115],[101,44],[13,-2],[14,-46],[-38,-95],[106,-46],[63,-251],[168,-53],[356,120],[65,92],[-8,71],[42,104]],[[6,2927],[1,0],[1,-2],[-2,2]],[[37,2860],[0,-2],[1,0],[-1,2]],[[80,2812],[-2,2],[2,-2]],[[137,2831],[-2,-1],[2,1]],[[167,2743],[-1,-2],[1,2]],[[190,2855],[-3,1],[1,0],[2,-1]],[[191,2696],[2,-1],[-2,1]],[[203,2786],[1,0],[0,2],[-1,-2]],[[277,2668],[-1,1],[-1,1],[2,-2]],[[390,2401],[4,0],[-2,0],[-2,0]],[[453,2395],[-3,1],[-1,1],[4,-2]],[[484,2382],[3,-3],[-3,3]],[[498,2371],[3,-2],[0,-1],[-3,3]],[[625,2402],[-4,-1],[4,1]],[[705,2420],[-4,-1],[0,-1],[2,1],[2,1]],[[744,2435],[-4,-2],[4,2]],[[774,2446],[1,0],[3,1],[-4,-1]],[[814,2461],[4,1],[-4,-1]],[[922,2620],[0,-3],[0,3]],[[938,2684],[1,3],[-1,-3]],[[949,2726],[0,1],[1,2],[-1,-3]],[[965,2750],[-2,-3],[0,1],[2,2]],[[448,2394],[-158,28],[-162,123],[-128,11]],[[441,2395],[3,-1],[6,-1],[-6,1],[-3,1]],[[448,2394],[-158,28],[-162,123],[-128,11]],[[443,2394],[7,0],[-5,0],[-2,0]],[[3189,1522],[-25,49],[17,28]],[[0,2556],[129,-12],[161,-122],[33,-14],[58,-8],[34,-2],[20,-2],[5,-1],[3,-1]],[[443,2394],[-5,1],[-29,3],[-7,-10],[57,-45],[112,35],[311,-104],[92,-58],[197,-270],[15,-84],[54,-24],[7,-64],[35,-20],[64,5],[125,110],[52,17],[68,-29],[27,-142],[42,-31],[283,16],[88,115],[171,11],[120,-79],[25,15],[51,-30],[141,-15]],[[443,2394]],[[443,2394]],[[443,2394]],[[443,2394],[1,0]],[[444,2394]],[[444,2394]],[[444,2394],[4,-1]],[[2540,1716],[40,-44],[36,9]],[[450,2393],[-6,1],[-3,0],[3,0],[6,-1]],[[272,3712],[11,-68],[-224,-197],[-59,-150]],[[13,3318],[1,2]],[[441,2395],[-151,27],[-162,123],[-128,11]],[[441,2395],[-38,-7],[56,-45],[112,35],[311,-104],[92,-58],[197,-270],[15,-84],[54,-24],[7,-64],[36,-20],[63,6],[124,109],[53,17],[68,-28],[27,-143],[42,-31],[283,17],[88,114],[171,11],[120,-79],[24,15],[72,-34],[91,7],[72,-63],[35,13]],[[441,2395],[0,-1]],[[441,2394],[1,0]],[[442,2394],[1,0]],[[443,2394]],[[443,2394]],[[443,2394],[1,0]],[[444,2394],[0,-1]],[[444,2393]],[[444,2393],[4,0]],[[450,2393],[-6,1],[-3,0],[3,0],[6,-1]],[[302,517],[-4,1]],[[367,516],[-12,-2],[-112,7],[-40,-93],[2,-48],[86,-127],[29,-146]],[[371,517],[-5,-2]],[[517,2367],[-9,-5],[-60,35],[-93,9],[-18,25],[85,109],[51,165],[222,144],[86,9]],[[368,2403],[4,-1],[0,1],[-3,0],[-1,0]],[[390,2401],[4,0],[-2,0],[-2,0]],[[400,2517],[0,1],[3,2],[-3,-3]],[[448,2646],[1,4],[-1,-4]],[[463,2683],[2,3],[0,-1],[-2,-2]],[[480,2713],[3,3],[-3,-3]],[[484,2382],[3,-3],[-3,3]],[[498,2371],[3,-2],[0,-1],[-3,3]],[[532,2747],[4,2],[-4,-2]],[[602,2791],[-4,-3],[4,3]],[[751,2855],[-4,0],[4,0]],[[768,756],[1,1]],[[769,757],[56,17],[39,-36],[79,-241],[-53,-217]],[[4048,2341],[48,-84]],[[4096,2209],[-37,-148],[-145,-225],[24,-65]],[[4043,2449],[-15,-8],[-7,-63]],[[4026,2364],[20,-21]],[[4033,2421],[1,-1]],[[4043,2449],[-3,-1]],[[4062,2316],[0,-2]],[[4067,2283],[0,-1]],[[3236,1973],[1,-1]],[[3259,2030],[-1,-1]],[[3262,2084],[23,-28],[-50,-81],[92,-73]],[[3269,2043]],[[3279,2063]],[[3326,1903],[1,-1]],[[3259,1953],[1,-1],[-1,1]],[[2621,1697],[-8,-20]],[[2654,2645],[-35,7]],[[2902,2025],[-31,-41],[-61,-14],[-84,-110],[-17,-59],[-78,-40],[14,-32],[-23,-30]],[[2657,2633],[-1,6]],[[2719,2533],[-23,23]],[[2736,2501],[0,16]],[[2743,2446],[-7,50]],[[2745,2410],[-3,17]],[[2743,2435],[0,5]],[[2828,2222],[-83,179]],[[2833,2212],[-2,4]],[[2885,2088],[-52,121]],[[2894,2077],[-7,8]],[[2903,2027],[-8,49]],[[448,2394],[-67,6],[-57,8],[-34,14],[-162,123],[-128,11]],[[443,2395],[-2,0],[9,-1],[-9,1],[2,0]],[[448,2394],[-158,28],[-162,123],[-128,11]],[[443,2394],[7,0],[-5,0],[-2,0]],[[0,2555],[129,-11],[38,-20],[108,-88],[11,-11],[2,-2],[2,-1],[3,-1],[7,-2],[19,-9],[2,-1],[2,-1],[58,-8],[59,-5]],[[440,2395],[-150,27],[-15,15],[-108,87],[-39,21],[-128,10]],[[440,2395],[3,-1],[2,0],[3,0]],[[443,2394],[7,0],[-5,0],[-2,0]],[[517,2367],[-9,-5],[-60,35],[-94,9],[-16,33],[84,101],[52,167],[130,86],[116,155]],[[368,2403],[4,-1],[0,1],[-3,0],[-1,0]],[[390,2401],[4,0],[-2,0],[-2,0]],[[400,2517],[0,1],[3,2],[-3,-3]],[[448,2646],[1,4],[-1,-4]],[[463,2683],[2,3],[0,-1],[-2,-2]],[[480,2713],[3,3],[-3,-3]],[[484,2382],[3,-3],[-3,3]],[[498,2371],[3,-2],[0,-1],[-3,3]],[[532,2747],[4,2],[-4,-2]],[[602,2791],[-4,-3],[4,3]],[[669,2883],[-3,-3],[3,3]],[[2740,2674],[-97,-24],[-61,11]],[[2931,2675],[-176,2]],[[2973,2668],[-29,2]],[[3266,2524],[-122,13],[-157,133]],[[3589,2675],[-83,-32],[-40,-48],[-121,2],[-72,-72]],[[3496,2626],[-1,-2]],[[2515,1734],[24,-16]],[[2539,1717],[45,-46],[55,28],[30,-80],[17,-205],[42,-44],[60,-150]],[[33,1887],[-27,-49],[8,-34],[34,-12],[15,-128],[75,-99],[98,-60],[-16,-97],[-47,-59]],[[49,1786],[0,2],[0,-1],[0,-1]],[[231,1487],[1,3],[-1,-3]],[[715,2943],[-111,-150],[-130,-86],[-52,-167],[-84,-101],[14,-34],[96,-10]],[[715,2943],[29,27],[20,6],[26,1],[2,0],[2,1],[4,1],[41,30],[30,22],[2,2],[2,2],[2,2],[10,15],[7,6],[50,8],[3,2],[6,3],[3,2],[19,16],[3,3],[10,11],[3,3],[1,2],[1,2],[9,35],[11,21],[5,4],[8,5],[2,2],[18,15],[203,84],[21,-1],[13,2],[4,1],[11,4],[3,3],[1,1],[1,1],[1,2],[0,3],[1,13],[19,35],[1,2],[18,51],[9,16],[9,11],[1,1],[0,1],[1,2],[0,1],[0,2],[-1,1],[0,1],[-21,31],[1,5],[4,6],[0,1],[1,2],[0,2],[0,2],[-2,6],[1,5],[2,4],[7,5],[1,2],[1,1],[1,2],[0,2],[0,1],[0,2],[-6,21],[0,8],[10,13],[22,10],[3,2],[1,2],[2,3],[0,1],[1,2],[0,2],[0,2],[-3,19],[0,19],[0,4],[-17,66],[12,27],[10,11],[1,1],[1,3],[1,2],[0,3],[2,15],[0,2],[-1,3],[-2,2],[-1,1],[-2,2],[-2,1],[-1,0],[-11,3],[-5,4],[-4,25],[3,13],[0,3],[0,1],[0,2],[-1,1],[0,1],[-2,2],[-1,2],[-1,1],[-24,13],[-5,32],[7,37],[25,22],[1,1],[1,2],[1,3],[1,2],[0,2],[0,2],[-1,1],[-6,13],[1,31],[13,23],[5,12],[4,3],[11,3],[2,1],[1,1],[2,2],[1,3],[0,1],[1,3],[-2,29],[6,24],[1,4],[0,3],[-1,3],[-1,2],[-2,5]],[[1406,4096],[5,-13],[-7,-28],[1,-32],[-4,-7],[-13,-4],[-4,-3],[-18,-35],[-1,-31],[6,-20],[-29,-28],[-6,-34],[0,-3],[0,-4],[3,-22],[2,-6],[28,-19],[-2,-20],[4,-25],[5,-5],[15,-4],[4,-7],[-26,-64],[20,-112],[-30,-21],[-9,-12],[-11,-77],[21,-38],[-10,-13],[-9,-16],[-38,-88],[-2,-17],[-54,-12],[-203,-84],[-28,-21],[-5,-5],[-59,-95],[-60,-13],[-94,-78],[-34,-4],[-21,-6],[-28,-27]],[[441,2396],[9,-1],[-9,1]],[[1375,1251],[-78,-19]],[[1297,1232],[-2,-3]],[[1295,1229],[-3,-1]],[[320,2989],[-37,-122],[17,-121],[-20,-85],[75,-255],[93,-9],[63,-35],[350,117],[69,95],[-8,71],[42,104]],[[283,2817],[0,-4],[1,0],[-1,4]],[[284,2873],[1,4],[-1,-4]],[[319,2987],[3,3],[-1,0],[-2,-3]],[[390,2401],[4,0],[-2,0],[-2,0]],[[453,2395],[-3,1],[-1,1],[4,-2]],[[484,2382],[3,-3],[-3,3]],[[498,2371],[3,-2],[0,-1],[-3,3]],[[625,2402],[-4,-1],[4,1]],[[705,2420],[-4,-1],[0,-1],[2,1],[2,1]],[[744,2435],[-4,-2],[4,2]],[[774,2446],[1,0],[3,1],[-4,-1]],[[814,2461],[4,1],[-4,-1]],[[922,2620],[0,-3],[0,3]],[[938,2684],[1,3],[-1,-3]],[[949,2726],[0,1],[1,2],[-1,-3]],[[965,2750],[-2,-3],[0,1],[2,2]],[[2005,930],[-13,14],[-4,2],[-63,-14],[-218,112],[-58,-72],[23,-99],[-70,36],[-216,-53],[-29,12],[3,-34],[-81,122],[-97,26]],[[1252,971],[-2,2]],[[1308,906],[3,-5]],[[1325,883],[-3,3]],[[1365,867],[-4,1]],[[1418,873],[-3,-2]],[[1473,890],[-3,0]],[[1545,889],[-7,1]],[[1632,899],[-2,1]],[[1663,875],[-3,2]],[[1661,994],[-1,-2]],[[1662,903],[1,-6]],[[1723,1043],[-6,0]],[[1773,1021],[-2,1]],[[1939,932],[-3,0]],[[2007,927],[-3,3]],[[1864,980],[-3,2],[3,-1],[0,-1]],[[440,2396],[8,-1]],[[440,2396],[-88,9],[-15,31],[60,78],[22,22],[3,4],[62,178],[101,59],[19,16],[133,173],[25,9],[28,2],[6,1],[75,55],[20,24],[51,10],[9,4],[3,2],[15,13],[74,105],[204,85],[21,-1],[13,2],[18,8]],[[1299,3285],[-18,-8],[-13,-1],[-15,1],[-3,0],[-1,0],[-2,-1],[-100,-40],[-32,-13],[-68,-30],[-3,-1],[-1,-1],[-28,-22],[-3,-2],[-2,-2],[-56,-92],[-12,-6],[-42,-6],[-4,-1],[-3,-1],[-2,-1],[-3,-3],[-2,-1],[-1,-2],[-14,-19],[-75,-55],[-6,-1],[-21,-1],[-2,0],[-3,0],[-2,-1],[-13,-3],[-4,-1],[-4,-2],[-2,-1],[-3,-2],[-3,-3],[-5,-5],[-8,-10],[-15,-16],[-10,-11],[-2,-3],[-89,-125],[-19,-16],[-96,-55],[-2,-2],[-3,-2],[-9,-11],[-1,-1],[-1,-2],[-30,-69],[-16,-48],[-1,-5],[-1,-5],[0,-4],[-1,-27],[-2,-6],[-3,-4],[-20,-19],[-2,-3],[-57,-71],[-1,-2],[-1,-2],[-1,-2],[0,-2],[-1,-4],[1,-3],[1,-5],[2,-4],[2,-3],[3,-5],[2,-2],[2,-2],[2,-1],[1,-1],[1,0],[2,-1],[26,-4],[59,-4]],[[1299,3285],[11,29],[145,90],[159,58],[203,23],[300,94],[50,115],[169,91]],[[2336,3785],[32,-2],[22,-23],[23,-21],[29,-22],[9,-13],[4,-5],[3,-3],[2,-1],[2,-1],[4,-2],[5,0],[13,0],[3,0],[14,-6],[4,-4],[27,-43],[1,-2],[1,-1],[22,-24],[2,-1],[53,-40],[15,-22],[2,-1],[1,-2],[2,-1],[2,-1],[27,-14],[3,-1],[12,-3],[34,-5],[5,-1],[4,1],[14,3],[3,0],[4,-1],[6,-3],[2,-1],[3,0],[7,0],[6,-2],[17,-19],[41,-38],[2,-1],[2,0],[9,-1],[4,-1],[2,-2],[4,-3],[2,-2],[31,-19],[10,-10],[4,-2],[17,-9],[4,-3],[8,-2],[4,-1],[3,0],[6,1],[3,1],[2,0],[14,9],[8,1],[7,-2],[13,-5],[2,-1],[3,-1],[6,0],[7,-3],[4,-1],[38,-10],[4,-1],[2,0],[2,0],[5,2],[4,0],[8,-2],[14,-3],[30,-13],[15,-17],[8,-6],[5,-7],[1,-2],[2,-1],[1,-1],[2,-1],[13,-7],[2,0],[1,0],[3,0],[3,0],[46,2]],[[2336,3785],[32,-2],[74,-66],[17,-22],[28,-3],[14,-6],[3,-2],[31,-48],[48,-38],[29,-28],[21,-26],[42,-18],[60,-2],[5,-1],[7,-4],[11,0],[5,-2],[149,-110],[19,-3],[21,11],[8,1],[119,-27],[30,-13],[48,-42],[48,3]],[[441,2396],[9,-1],[-9,1]],[[219,484],[-28,-17],[-39,31],[-22,3],[-9,-4],[-23,4],[-40,-6],[-37,32],[-21,-3]],[[0,748],[26,23],[-15,46],[18,84],[-29,53]],[[1,524],[-1,0]],[[24,764],[1,4]],[[116,499],[-3,1]],[[151,498],[-2,0]],[[181,479],[-1,3]],[[23,871],[-1,-5],[-1,0],[3,7],[-1,-2]],[[208,469],[-1,0],[-5,-1],[5,1],[1,0]],[[220,486],[-49,-27],[-171,21]],[[106,468],[-4,2]],[[208,469],[-5,-1]],[[2343,3785],[119,101],[35,146],[12,-75],[13,-2],[-1,141]],[[445,2397],[-42,-5],[17,-29],[-17,-103],[47,-20],[36,-109]],[[404,2265],[-1,-2],[0,-2],[0,2],[1,2]],[[411,2292],[1,4],[-1,-3],[0,-1]],[[417,2344],[1,4],[0,1],[-1,-5]],[[447,2397],[-5,0],[5,0]],[[1803,2631],[2,0]],[[1851,2629]],[[1851,2629],[20,-1]],[[1851,2629],[20,-1],[3,0],[3,-1],[2,-1],[3,-2],[17,-10],[2,-1],[1,-1],[1,-2],[2,-3]],[[1871,2628],[1,0]],[[1872,2628],[1,0]],[[1873,2628],[1,0]],[[1874,2628],[0,-1]],[[1874,2627],[1,0]],[[1875,2627],[1,0]],[[1876,2627]],[[1876,2627],[1,0]],[[1877,2627],[1,-1]],[[1878,2626],[1,0]],[[1879,2626],[1,-1]],[[1880,2625],[1,0]],[[1881,2625],[4,-2]],[[1885,2623],[3,-2]],[[1888,2621],[3,-2]],[[1891,2619],[4,-3]],[[1895,2616],[2,0]],[[1897,2616],[1,-1]],[[1898,2615]],[[1898,2615],[1,-1]],[[1899,2614],[1,0]],[[1900,2614],[0,-1]],[[1900,2613],[1,0]],[[1901,2613],[0,-1]],[[1901,2612],[1,0]],[[1902,2612],[1,-1]],[[1903,2611],[0,-1]],[[1903,2610],[1,-1]],[[1904,2609],[0,-1]],[[1904,2608],[1,-1]],[[1905,2607],[40,-48]],[[1946,2558],[15,-18],[108,32],[49,-22],[9,-37]],[[2127,2513],[3,-6]],[[2130,2507],[43,-83],[43,-24],[84,68]],[[2127,2513],[2,-5],[1,-1]],[[171,410],[1,-1]],[[177,401],[0,-1]],[[182,388],[0,-1]],[[182,381],[1,-1]],[[187,410]],[[187,369],[0,-1]],[[187,420],[0,-1]],[[190,354],[1,-1]],[[219,486],[1,6],[0,1],[-17,-2],[4,-21],[9,-10],[-22,-45],[-22,-4],[10,-21],[-1,-5],[4,-9],[-1,-5],[5,-8],[0,-7],[2,-3]],[[193,414],[-1,-1]],[[196,432]],[[203,492],[1,1]],[[204,440]],[[205,488],[-1,1]],[[206,482],[0,1]],[[207,477]],[[207,470],[0,1]],[[208,493],[1,0]],[[209,449],[0,-1]],[[212,470],[-1,0]],[[211,494],[2,0]],[[216,493],[1,0]],[[215,464]],[[219,485],[0,3],[0,-1],[0,-2]],[[258,1903],[0,1],[0,1],[0,2],[-5,9],[0,8],[10,28],[-6,12],[52,124],[61,79],[1,2],[36,69],[1,3],[2,4],[-6,149],[109,-32]],[[513,2362],[1,1],[2,2]],[[516,2365]],[[516,2365],[1,1]],[[516,2365],[-3,-3]],[[513,2362],[4,-65],[53,-9],[24,-31],[44,-46],[123,-196],[13,-48],[-32,-59]],[[258,1902],[0,2],[0,1],[0,-3]],[[271,1985],[1,3],[-1,-3]],[[297,2043],[-2,-2],[2,2]],[[303,2071],[-1,-1],[0,-1],[1,2]],[[336,2130],[-2,-2],[2,2]],[[361,2158],[-1,-2],[1,2]],[[378,2184],[-1,-3],[2,3],[-1,0]],[[396,2218],[1,0],[-2,-3],[1,3]],[[404,2265],[-1,-2],[0,-2],[0,2],[1,2]],[[409,2244],[-1,-2],[1,0],[0,2]],[[412,2296],[-1,-4],[1,3],[0,1]],[[417,2344],[1,4],[0,1],[-1,-5]],[[453,2395],[-3,1],[-1,1],[4,-2]],[[484,2382],[3,-3],[-3,3]],[[498,2371],[3,-2],[0,-1],[-3,3]],[[558,2292],[-1,0],[-3,0],[1,0],[3,0]],[[576,2281],[1,-1],[-2,3],[1,-2]],[[621,2229],[3,-3],[-3,3]],[[655,2188],[-2,3],[2,-3]],[[675,2160],[-2,3],[2,-3]],[[683,2126],[0,4],[0,-4]],[[709,2074],[-1,2],[1,-2]],[[743,1910],[-2,-2],[2,2]],[[758,2020],[-1,-1],[-1,3],[2,-2]],[[766,2003],[1,-1],[0,-1],[-1,2]],[[774,1971],[-1,2],[1,-2]],[[2252,610],[-6,-44],[-66,-27],[-509,-19],[-292,-99]],[[2106,534],[0,-1]],[[2177,539],[1,0]],[[2252,610],[-2,-1],[0,-1]],[[1393,434],[2,1],[-1,0],[-1,-1]],[[1449,443],[1,0],[0,-1],[-1,1]],[[1472,440],[-1,0],[0,1],[1,-1]],[[1595,500],[-2,-1],[1,0],[1,1]],[[1608,505],[1,1],[-1,-1]],[[1637,506],[0,1],[1,0],[-1,-1]],[[1658,516],[1,0],[-1,0]],[[1681,520],[2,0],[-2,0]],[[1699,518],[-2,0],[2,0]],[[1747,525],[1,0],[-1,0]],[[1794,530],[-2,0],[1,0],[1,0]],[[1818,534],[-1,-1],[1,1]],[[1860,534],[-1,1],[1,-1]],[[1885,533],[1,-1],[-1,1]],[[2056,529],[1,-1],[-1,1]],[[2515,1733],[-7,2],[-4,0],[-5,-3],[-43,-125],[-92,-127],[87,-39],[60,-159],[37,-6]],[[2366,1474],[0,1],[-2,2],[1,0],[1,-3]],[[2376,1503],[2,4],[-2,-4]],[[2393,1479],[2,1],[2,0],[-2,0],[-2,-1]],[[2422,1567],[-1,1],[-2,-4],[3,3]],[[2471,1647],[-2,-5],[3,5],[-1,0]],[[2490,1332],[2,-3],[-1,2],[-1,1]],[[2495,1684],[2,3],[1,0],[-3,-3]],[[2502,1721],[0,2],[-1,1],[1,-1],[0,-2]],[[2517,1733],[-2,0],[-5,1],[7,-1]],[[3060,4096],[42,-54],[-5,-29],[47,-19],[-22,-42]],[[448,2394],[-107,23],[-61,244],[21,85],[-17,126],[50,165],[44,63],[13,167],[70,102],[11,76],[-42,48],[-123,52],[-52,277],[59,124],[5,150]],[[443,2395],[-2,0],[9,-1],[-9,1],[2,0]],[[0,2556],[129,-12],[161,-122],[33,-14],[58,-8],[67,-7]],[[441,2395],[3,-1],[6,-1],[-6,1],[-3,1]],[[448,2395],[-219,34],[-128,55],[-101,-28]],[[443,2395],[1,0],[6,-1],[-7,1]],[[396,521],[-151,0],[-25,-36]],[[369,516],[-6,-1]],[[2005,930],[-13,14],[-4,2],[-63,-14],[-218,112],[-58,-72],[23,-99],[-70,36],[-216,-53],[-29,12],[3,-34],[-80,122],[-89,33],[-293,-136],[-224,-156],[-55,-82],[-192,-86]],[[497,570],[-5,0]],[[776,761],[-8,-4]],[[922,860],[-6,-2]],[[1068,949],[-5,-3]],[[1325,883],[-3,3]],[[1418,873],[-3,-2]],[[1473,890],[-3,0]],[[1545,889],[-7,1]],[[1662,903],[1,-6]],[[1723,1043],[-6,0]],[[2007,927],[-3,3]],[[659,675],[2,4],[-3,-6],[1,2]],[[1864,980],[-3,2],[3,-1],[0,-1]],[[0,2556],[129,-12],[161,-122],[33,-14],[58,-8],[34,-2],[20,-2],[5,-1],[3,-1]],[[443,2394],[-5,1],[-29,3],[-7,-10],[57,-45],[112,35],[311,-104],[92,-58],[197,-270],[15,-84],[54,-24],[7,-64],[35,-20],[64,5],[125,110],[52,17],[68,-29],[27,-142],[42,-31],[283,16],[88,115],[171,11],[120,-79],[25,15],[51,-30],[141,-15]],[[443,2394]],[[443,2394]],[[443,2394]],[[443,2394],[1,0]],[[444,2394]],[[444,2394]],[[444,2394],[4,-1]],[[4096,2500],[-135,-89],[-111,-108],[-110,-17],[-150,-181],[-145,-7],[-156,49],[-26,-62],[-103,-41],[-38,18],[-32,-20],[-39,29],[-67,-73],[-68,34],[-45,-48],[-59,-12],[-86,-112],[-17,-59],[-77,-39],[13,-34],[-34,-53],[-32,-3],[-39,44]],[[450,2393],[-6,1],[-3,0],[3,0],[6,-1]],[[964,2749],[-12,-16],[-3,-6],[-27,-82],[8,-71],[-69,-95],[-351,-117],[-61,35],[-94,9],[-75,255],[20,85],[-17,121],[37,122]],[[283,2817],[0,-4],[1,0],[-1,4]],[[284,2873],[1,4],[-1,-4]],[[319,2987],[3,3],[-1,0],[-2,-3]],[[368,2403],[4,-1],[0,1],[-3,0],[-1,0]],[[390,2401],[4,0],[-2,0],[-2,0]],[[484,2382],[3,-3],[-3,3]],[[498,2371],[3,-2],[0,-1],[-3,3]],[[621,2402],[4,0],[-4,0]],[[705,2420],[-4,-1],[0,-1],[2,1],[2,1]],[[744,2435],[-4,-2],[2,1],[2,1]],[[778,2447],[-4,-1],[4,1]],[[814,2461],[3,1],[-3,-1]],[[922,2620],[0,-3],[0,3]],[[938,2684],[1,3],[-1,-3]],[[949,2727],[0,1],[1,2],[-1,-3]],[[965,2750],[-2,-3],[0,1],[2,2]],[[3890,2085],[-63,-113],[-108,-62]],[[1825,2875],[3,3]],[[1828,2878],[112,64],[171,6],[413,91],[126,-5],[212,-65],[150,6],[28,61],[72,47],[-92,100],[18,31],[48,-7],[4,41],[29,7],[-7,53],[43,27]],[[3088,3215],[0,1],[0,-1]],[[304,517],[-4,0]],[[367,516],[-12,-2],[-112,7],[-40,-94],[2,-47],[86,-127],[29,-146]],[[371,517],[-5,-2]],[[3632,2024],[-40,78],[11,21]],[[4096,1062],[-3,0],[-30,41],[-49,12],[-212,18],[-135,87],[-72,-25],[3,-54],[-26,-16],[-57,15],[1,71],[-83,105],[25,91],[-17,32],[238,233],[16,75],[-47,123],[46,65],[-38,17],[-23,71]],[[3600,2119],[-1,-2],[-2,-3],[3,5]],[[3849,2299],[14,-8],[-30,-21]],[[3833,2270],[-2,-1],[0,-2],[-1,-1],[0,-1]],[[3833,2270],[37,-51],[20,-134]],[[768,756],[1,1]],[[769,757],[10,5]],[[785,766],[9,0]],[[796,765],[30,9],[38,-36],[79,-242],[-53,-216]],[[802,763],[1,0]],[[448,2394],[-158,28],[-162,123],[-128,11]],[[441,2395],[3,-1],[6,-1],[-6,1],[-3,1]],[[308,2414],[81,-15],[30,-33],[-9,-120],[-32,-63]],[[307,2415],[4,-2],[-3,1],[-1,1]],[[378,2184],[-1,-3],[2,3],[-1,0]],[[395,2216],[1,2],[-1,-2]],[[404,2265],[-1,-2],[0,-2],[0,2],[1,2]],[[409,2244],[-1,-2],[1,0],[0,2]],[[410,2377],[-3,3],[3,-3]],[[411,2292],[1,4],[-1,-3],[0,-1]],[[1843,2629],[436,51],[120,-48],[206,27]],[[2007,927],[-3,3]],[[2615,1682],[23,18],[31,-80],[17,-206],[42,-44],[81,-187],[-17,-148],[67,-141],[17,-115],[-56,-149],[-145,-66],[-94,18],[-80,-38],[-218,-12],[-27,21],[-7,52],[53,165],[-3,79],[-39,35],[-153,-6],[-102,52]],[[2250,608],[6,5]],[[2662,1585],[1,0],[1,6],[-2,-6]],[[1334,1180],[-85,-83],[-59,-108],[-293,-137],[-223,-155],[-56,-83],[-147,-47],[-44,-38],[-18,-8],[-165,0],[-28,-55],[-216,14]],[[106,468],[-4,2]],[[208,469],[-5,-1]],[[304,517],[-4,0]],[[328,515],[-4,1]],[[369,516],[-6,-1]],[[458,557],[-2,-1]],[[497,570],[-5,0]],[[563,602],[-3,-2]],[[623,619],[-2,-3]],[[695,708],[-3,-1]],[[776,761],[-8,-4]],[[834,792],[-4,-2]],[[922,860],[-6,-2]],[[942,869],[-3,-1]],[[1068,949],[-5,-3]],[[1230,1045],[-3,-4]],[[1253,1102],[-2,-3]],[[37,481],[4,-1],[-4,2],[0,-1]],[[659,675],[2,4],[-3,-6],[1,2]],[[3702,232],[-157,-36]],[[3205,3337],[-57,4],[28,11],[-14,93],[25,10],[-10,89],[31,89],[101,36],[20,42],[77,-22],[39,26],[-98,120]],[[1,524],[-1,0]],[[24,764],[1,4]],[[219,484],[-28,-17],[-39,31],[-22,3],[-9,-4],[-23,4],[-40,-6],[-58,29]],[[0,748],[13,0],[10,11],[0,2],[2,4]],[[116,499],[-3,1]],[[151,498],[-2,0]],[[181,479],[-1,3]],[[208,469],[-1,0],[-5,-1],[5,1],[1,0]],[[634,1646],[41,129],[-77,242],[-106,97],[-44,129],[-44,15],[16,105],[-17,29],[8,7],[26,-2],[5,0],[1,0],[2,0]],[[738,1467],[-27,76],[-77,103]],[[634,1646]],[[634,1646],[-2,-3]],[[404,2265],[-1,-2],[0,-2],[0,2],[1,2]],[[412,2296],[-1,-4],[1,3],[0,1]],[[417,2344],[1,4],[0,1],[-1,-5]],[[447,2397],[-5,0],[5,0]],[[631,1642],[2,3],[-2,-3]],[[653,1836],[-3,3],[3,-3]],[[669,1724],[0,4],[0,-4]],[[685,1584],[0,-1],[1,-1],[-1,2]],[[705,1543],[2,1],[-2,-1]],[[737,1470],[0,-1],[2,-3],[-2,3],[0,1]],[[448,2394],[-107,23],[-61,244],[21,85],[-17,126],[50,165],[44,63],[13,167],[70,102],[11,76],[-42,48],[-123,52],[-52,277],[59,124],[5,150]],[[443,2395],[-2,0],[9,-1],[-9,1],[2,0]],[[770,758],[-35,71],[-37,10]],[[770,758],[1,1]],[[2612,1678],[-109,240],[-37,30],[9,27],[-38,70],[38,22]],[[319,4096],[-5,-150],[-60,-124],[53,-277],[125,-53],[40,-47],[-11,-76],[-71,-102],[-12,-167],[-44,-64],[-50,-164],[16,-126],[-20,-85],[60,-244],[108,-23]],[[443,2395],[-2,0],[9,-1],[-9,1],[2,0]],[[0,2256],[78,67],[216,96],[154,-22],[61,-35],[73,21],[-8,107],[91,161],[26,177],[90,30]],[[1,2257],[4,1],[-4,-1]],[[58,2306],[-3,-3],[1,0],[2,3]],[[74,2320],[-3,-3],[3,3]],[[110,2326],[-1,0],[-3,1],[0,1],[4,-2]],[[203,2380],[-4,-2],[4,2]],[[235,2394],[-4,-1],[2,0],[2,1]],[[248,2396],[4,1],[-4,-1]],[[390,2401],[4,0],[-2,0],[-2,0]],[[453,2395],[-3,1],[-1,1],[4,-2]],[[484,2382],[3,-3],[-3,3]],[[498,2371],[3,-2],[0,-1],[-3,3]],[[576,2455],[1,-2],[0,-2],[-1,4]],[[577,2500],[2,5],[-2,-5]],[[580,2429],[0,2],[0,2],[0,-4]],[[582,2413],[-1,4],[1,-4]],[[677,2763],[-1,-3],[1,3]],[[751,2855],[-4,0],[4,0]],[[964,2749],[-12,-16],[-3,-6],[-27,-82],[8,-71],[-65,-92],[-356,-120],[-168,53],[-63,251],[-106,46],[38,95],[-14,46],[-13,2],[-101,-44],[-43,44],[3,24],[-24,35],[-11,12]],[[6,2927],[1,0],[1,-2],[-2,2]],[[37,2860],[0,-2],[1,0],[-1,2]],[[80,2812],[-2,2],[2,-2]],[[137,2831],[-2,-1],[2,1]],[[166,2741],[1,2],[-1,-2]],[[190,2855],[-3,1],[1,0],[2,-1]],[[191,2696],[2,-1],[-2,1]],[[203,2786],[1,0],[0,2],[-1,-2]],[[277,2668],[-1,1],[-1,1],[2,-2]],[[368,2403],[4,-1],[0,1],[-3,0],[-1,0]],[[390,2401],[4,0],[-2,0],[-2,0]],[[484,2382],[3,-3],[-3,3]],[[498,2371],[3,-2],[0,-1],[-3,3]],[[621,2402],[4,0],[-4,0]],[[705,2420],[-4,-1],[0,-1],[2,1],[2,1]],[[744,2435],[-4,-2],[2,1],[2,1]],[[778,2447],[-4,-1],[4,1]],[[814,2461],[3,1],[-3,-1]],[[922,2620],[0,-3],[0,3]],[[938,2684],[1,3],[-1,-3]],[[949,2727],[0,1],[1,2],[-1,-3]],[[965,2750],[-2,-3],[0,1],[2,2]],[[2621,1697],[-8,-20]],[[2654,2645],[-35,7]],[[2902,2025],[-31,-41],[-60,-14],[-85,-110],[-17,-59],[-77,-40],[13,-32],[-23,-31]],[[2657,2633],[-1,6]],[[2719,2533],[-23,23]],[[2736,2501],[0,16]],[[2743,2446],[-7,50]],[[2745,2410],[-3,17]],[[2743,2435],[0,5]],[[2828,2222],[-83,179]],[[2833,2212],[-2,4]],[[2885,2088],[-52,121]],[[2894,2077],[-7,8]],[[2903,2027],[-8,49]],[[4052,2453],[-8,-3]],[[4052,2453],[-8,-3]],[[4096,2484],[-44,-31]],[[649,1840],[24,-2],[75,80],[52,4],[19,-34],[120,-61],[162,-40]],[[1101,1787],[32,-28],[45,8]],[[1098,1789],[3,-2]],[[1178,1767],[16,-1]],[[1194,1766],[78,-7]],[[968,1830],[3,-1],[-2,0],[-1,1]],[[1185,1766],[2,0],[-2,0]],[[1112,1442],[115,49]],[[1803,2631],[2,0]],[[1851,2629]],[[1851,2629],[20,-1]],[[1851,2629],[20,-1],[3,0],[3,-1],[2,-1],[3,-2],[17,-10],[2,-1],[1,-1],[1,-2],[2,-3]],[[1871,2628],[1,0]],[[1872,2628],[1,0]],[[1873,2628],[1,0]],[[1874,2628],[0,-1]],[[1874,2627],[1,0]],[[1875,2627],[1,0]],[[1876,2627]],[[1876,2627],[1,0]],[[1877,2627],[1,-1]],[[1878,2626],[1,0]],[[1879,2626],[1,-1]],[[1880,2625],[1,0]],[[1881,2625],[4,-2]],[[1885,2623],[3,-2]],[[1888,2621],[3,-2]],[[1891,2619],[4,-3]],[[1895,2616],[2,0]],[[1897,2616],[1,-1]],[[1898,2615]],[[1898,2615],[1,-1]],[[1899,2614],[1,0]],[[1900,2614],[0,-1]],[[1900,2613],[1,0]],[[1901,2613],[0,-1]],[[1901,2612],[1,0]],[[1902,2612],[1,-1]],[[1903,2611],[0,-1]],[[1903,2610],[1,-1]],[[1904,2609],[0,-1]],[[1904,2608],[1,-1]],[[1905,2607],[53,-84],[-49,-222],[15,-90],[-53,-126],[46,-67]],[[1917,2018],[35,-6]],[[2016,1800],[-99,218]],[[2017,1801],[5,3]],[[1048,2252],[-2,0],[-1,-1],[-3,-2],[-1,-8],[-11,-6],[10,-41],[-29,-17],[-128,97],[-309,104],[-65,-16],[-61,35],[-155,22],[-125,-202],[-26,-134],[-84,-111],[-25,-85]],[[59,1974],[-1,-2],[-1,-1],[1,1],[1,2]],[[142,2099],[0,6],[0,-6]],[[219,2291],[2,2],[1,1],[-3,-3]],[[238,2317],[-1,-1],[2,4],[-1,-3]],[[368,2403],[4,-1],[0,1],[-3,0],[-1,0]],[[390,2401],[4,0],[-2,0],[-2,0]],[[484,2382],[3,-3],[-3,3]],[[498,2371],[3,-2],[0,-1],[-3,3]],[[896,2267],[-3,2],[-1,0],[4,-2]],[[927,2244],[3,-2],[-3,2]],[[1006,2183],[-1,1],[2,-4],[-1,3]],[[1039,2193],[-1,-1],[0,-1],[1,2]],[[1051,2252],[-2,0],[-4,-1],[4,1],[2,0]],[[4096,3033],[-86,101],[8,58],[47,46],[-30,90],[-88,66],[22,93]],[[1626,1786],[-27,-14]],[[448,2395],[-95,10],[-16,30],[85,105],[62,178],[120,75],[133,173],[59,12],[95,79],[78,29],[74,105],[258,96],[60,137],[-22,36],[11,77],[39,35],[-20,110],[27,64],[-60,112],[35,65],[-5,51],[39,49],[2,73]],[[441,2396],[9,-1],[-9,1]],[[2005,1787],[20,22]],[[2018,1801],[7,8]],[[448,2394],[-107,23],[-61,244],[21,85],[-17,126],[50,165],[44,63],[13,167],[70,102],[11,76],[-42,48],[-123,52],[-52,277],[59,124],[5,150]],[[443,2395],[-2,0],[9,-1],[-9,1],[2,0]],[[4028,2749],[-1,-2]],[[4096,2715],[-38,-2],[-21,33]],[[4037,2746]],[[4037,2746],[-1,2]],[[4036,2748],[-8,0]],[[4037,2746]],[[4036,2748],[1,-2]],[[4046,2727],[0,-1],[1,0],[-1,0],[0,1]],[[4062,2714],[1,0],[-1,0]],[[445,2397],[-2,0],[-6,0],[-25,2],[-9,-7],[17,-29],[-17,-104],[45,-16],[44,-129],[105,-96],[78,-243],[-41,-129]],[[738,1467],[-27,76],[-77,103]],[[634,1646]],[[634,1646],[-2,-3]],[[404,2265],[-1,-2],[0,-2],[0,2],[1,2]],[[411,2292],[1,4],[-1,-3],[0,-1]],[[417,2344],[1,4],[0,1],[-1,-5]],[[447,2397],[-5,0],[5,0]],[[631,1642],[2,3],[-2,-3]],[[653,1835],[-2,2],[-1,2],[3,-4]],[[669,1724],[0,4],[0,-4]],[[685,1584],[0,-1],[1,-1],[-1,2]],[[705,1543],[2,1],[-2,-1]],[[737,1470],[0,-1],[2,-3],[-2,3],[0,1]],[[171,410],[1,-1]],[[177,401],[1,-1]],[[182,388],[0,-1]],[[183,380],[-1,1]],[[187,410]],[[187,369],[0,-1]],[[187,420],[0,-1]],[[190,354],[1,-1]],[[219,486],[0,-1],[-1,0],[-7,-1],[-6,4],[2,-9],[0,-9],[9,-10],[-22,-45],[-22,-4],[10,-21],[-1,-5],[4,-9],[-1,-5],[5,-8],[0,-7],[2,-3]],[[193,414],[-1,-1]],[[196,432]],[[204,440]],[[205,485],[0,-1]],[[206,477]],[[206,471]],[[210,490],[-2,-1]],[[209,449]],[[212,484],[-1,0]],[[211,470],[1,0]],[[215,464]],[[219,485],[0,3],[0,-1],[0,-2]],[[280,3684],[3,-40],[-50,-24],[-93,39],[-140,1]],[[276,3696],[0,1]],[[276,3697],[-1,5]],[[275,3702],[0,2]],[[275,3704],[-2,4]],[[277,3695],[-1,1]],[[278,3689],[-1,5]],[[277,3694],[0,1]],[[277,3695]],[[280,3684],[-1,4]],[[279,3688],[-1,1]],[[1081,4096],[-45,-41],[-139,-25],[9,-139],[-166,-65],[-87,-80],[-228,-73],[-145,11]],[[448,2394],[-158,28],[-162,123],[-128,10]],[[443,2394],[7,0],[-5,0],[-2,0]],[[3702,232],[-157,-36]],[[4096,2483],[-35,-25],[-100,-47],[-111,-108],[-109,-17],[-152,-181],[-146,-7],[-154,49],[-26,-62],[-104,-41],[-37,19],[-32,-20],[-39,28],[-67,-73],[-70,33],[-43,-47],[-59,-12],[-86,-112],[-17,-59],[-77,-39],[13,-34],[-37,-55],[-29,0],[-63,60],[-98,-5],[-72,34],[-24,-15],[-120,79],[-171,-11],[-88,-114],[-280,-17],[-45,31],[-27,143],[-66,28],[-54,-17],[-127,-111],[-93,12],[-10,66],[-54,25],[-16,85],[-197,270],[-92,58],[-304,102],[-44,5],[-71,-39],[-61,46],[8,10],[28,-3],[10,-2]],[[450,2393],[-6,0],[-4,2],[4,-2],[6,0]],[[4028,2748],[-24,-30],[-96,58],[-42,-9],[-45,68],[-97,-46],[-54,35]],[[4028,2749],[-1,-2]],[[3902,2774],[1,1],[-1,-1]],[[448,2393],[-10,2],[-29,3],[-7,-10],[58,-45],[109,35],[314,-104],[151,-122],[77,-148],[60,-60],[14,-81],[55,-25],[7,-64],[42,-28],[-46,-212],[72,-84],[66,-195],[-218,-286],[-94,-19],[-172,-98],[-223,-155],[-56,-83],[-147,-47],[-62,-46],[-164,0],[-22,-22],[-18,-117],[85,-128],[32,-154],[54,-52],[-28,-4],[-7,-44]],[[776,761],[-8,-4]],[[450,2393],[-6,0],[-4,2],[4,-2],[6,0]],[[3890,2085],[-63,-113],[-108,-62]],[[4096,2483],[-35,-25],[-100,-47],[-111,-108],[-109,-17],[-152,-181],[-146,-7],[-154,49],[-26,-62],[-104,-41],[-37,19],[-32,-20],[-39,28],[-67,-73],[-70,33],[-43,-47],[-59,-12],[-86,-112],[-17,-59],[-77,-39],[13,-34],[-37,-55],[-29,0],[-63,60],[-98,-5],[-72,34],[-24,-15],[-120,79],[-171,-11],[-88,-114],[-283,-17],[-42,31],[-29,145],[-66,26],[-51,-16],[-87,-89],[-96,-29],[-46,-218],[72,-84],[66,-195],[-189,-264],[-124,-42],[-125,-101],[-313,-160],[-48,-72],[-169,-94],[-168,-1],[-27,-53],[-47,-9],[-171,21]],[[2539,1717],[-141,15],[-51,30],[-25,-15],[-120,79],[-171,-11],[-88,-115],[-283,-16],[-42,31],[-29,145],[-66,26],[-51,-16],[-87,-89],[-96,-29],[-46,-218],[72,-84],[66,-195],[-189,-264],[-124,-42],[-125,-101],[-313,-160],[-48,-72],[-169,-94],[-168,-1],[-26,-53],[-48,-9],[-171,21]],[[4096,2483],[-35,-26],[-100,-46],[-111,-108],[-110,-17],[-150,-181],[-145,-7],[-156,49],[-26,-62],[-103,-41],[-38,18],[-32,-20],[-39,29],[-67,-73],[-68,34],[-45,-48],[-59,-12],[-86,-112],[-17,-59],[-77,-39],[13,-34],[-34,-53],[-32,-3],[-39,44]],[[471,1393],[-14,56],[10,113],[153,54],[55,157],[-82,253],[-101,88],[-44,129],[-44,14],[16,106],[-17,29],[8,7],[26,-2],[5,0],[1,0],[2,0]],[[404,2265],[-1,-2],[0,-2],[0,2],[1,2]],[[412,2296],[-1,-4],[1,3],[0,1]],[[417,2344],[1,4],[0,1],[-1,-5]],[[447,2397],[-5,0],[5,0]],[[457,1454],[0,-3],[0,3]],[[471,1395],[0,-1],[0,-3],[0,3],[0,1]],[[475,1519],[-1,-2],[1,2]],[[563,1598],[-3,0],[3,0]],[[630,1895],[-1,4],[1,-4]],[[631,1641],[2,4],[-2,-3],[0,-1]],[[669,1724],[0,4],[0,-4]],[[1856,2629],[44,102]],[[1900,2731],[-10,12]],[[1890,2743],[-69,76],[7,68],[-231,166]],[[1597,3053],[2,13]],[[1599,3066],[-18,23],[-99,3],[-141,93],[-43,42],[-11,51]],[[1843,2629],[12,0]],[[1855,2629],[1,0]],[[1856,2629]],[[1856,2629],[17,-1],[3,-1],[2,-1],[4,-2],[17,-10],[2,-1],[1,-1],[1,-2],[2,-3]],[[1871,2628],[87,-96],[-29,-182],[51,-46],[155,-59],[60,-136],[113,-127],[121,-28],[59,-187],[33,-36]],[[1406,4096],[-1,-73],[-39,-49],[5,-51],[-35,-62],[59,-115],[-26,-64],[20,-112],[-39,-33],[-11,-77],[21,-38],[-59,-134],[-258,-97],[-89,-118],[-218,-107],[-132,-173],[-120,-75],[-62,-178],[-85,-105],[16,-30],[95,-10]],[[441,2396],[9,-1],[-9,1]],[[43,518],[79,-60]],[[40,521],[3,-3]],[[122,458],[60,-47]],[[245,1926],[-1,-9],[-7,-30]],[[384,2429],[9,-14],[0,-15],[-5,-16],[-7,-14],[-70,-111]],[[237,1887],[-2,-12],[-6,-18],[-7,-17],[-38,-72],[-10,-22],[-6,-24],[-2,-16],[-1,-50]],[[311,2259],[0,-1],[-12,-23],[-10,-24],[-13,-39],[-6,-21],[-4,-21],[-16,-171],[-5,-33]],[[165,1656],[8,-89],[0,-3],[-9,-48],[-9,-28],[-4,-9],[-17,-32],[-9,-12],[-15,-16],[-109,-90],[-1,0]],[[2447,3907],[9,5]],[[342,2640],[11,1],[7,9],[4,13],[6,27],[3,12],[2,4]],[[411,2755],[4,2],[54,26]],[[540,2811],[17,5],[33,18]],[[682,2884],[71,38],[24,9]],[[799,2938],[28,6]],[[1226,3295],[15,15],[32,27]],[[1340,3385],[23,14],[19,9]],[[1751,3517],[63,15]],[[2319,3836],[128,71]],[[375,2706],[2,7],[5,10],[9,14],[11,11],[9,7]],[[469,2783],[31,15],[40,13]],[[590,2834],[92,50]],[[777,2931],[13,5],[9,2]],[[827,2944],[78,15],[65,36],[58,56],[157,202],[41,42]],[[1273,3337],[27,22],[40,26]],[[1382,3408],[106,46],[263,63]],[[1814,3532],[194,47],[124,64],[40,29],[19,17],[17,20],[65,87],[43,38],[3,2]],[[2471,3910],[14,-10],[101,-91],[45,-35],[105,-59],[64,-51],[49,-48]],[[3104,3366],[1,-1],[10,-10],[15,-12],[3,-3],[3,-4],[2,-4],[2,-10],[0,-10]],[[2849,3616],[75,-75],[115,-94],[15,-16],[50,-65]],[[3140,3312],[-2,-10],[-3,-9],[-10,-25],[-12,-23],[-42,-68],[-4,-9],[-3,-11],[1,-12],[3,-12],[3,-10],[16,-20],[38,-25],[16,-19],[12,-34],[4,-37],[0,-95],[1,-20],[3,-19],[4,-19],[6,-18],[8,-19],[11,-15],[13,-6],[23,3],[11,-3],[8,-12],[2,-17],[-3,-34],[3,-17],[7,-14],[10,-13],[10,-11],[60,-47]],[[3940,2506],[38,2]],[[3308,2625],[15,1],[15,-1],[15,-3],[14,-6],[11,-7],[52,-47],[23,-17],[25,-13],[56,-19],[60,-13],[69,-8],[277,14]],[[364,2647],[-18,-11],[-30,-23],[-18,-20],[-7,-9],[-6,-11],[-4,-13]],[[285,2573],[-8,-19],[-4,-10],[-11,-45],[-2,-18],[3,-16],[12,-17],[15,-7],[17,-1],[16,1],[18,-3],[35,-19],[18,-7]],[[3978,2508],[118,-12]],[[179,420],[11,-11],[6,-14],[2,-17],[-3,-41],[1,-19],[4,-19],[6,-19],[12,-23],[80,-127],[9,-16],[40,-114]],[[626,2235],[8,-39]],[[634,2196],[16,-75],[3,-17],[1,-18],[2,-120],[3,-23],[5,-23],[7,-21],[9,-16],[10,-15],[12,-12],[13,-9],[27,-13],[28,-8],[81,-12],[23,-7],[23,-12],[22,-15],[50,-44],[18,-10],[29,-9],[230,-15]],[[2535,1660],[72,63]],[[3710,2101],[3,11]],[[2607,1723],[39,34],[125,26],[259,-15],[31,3],[30,8],[30,13],[28,19],[25,22],[107,122],[14,13],[14,11],[14,10],[30,14],[32,9],[196,5],[33,5],[32,10],[30,16],[15,10],[14,11],[2,5],[1,8],[0,15],[2,4]],[[3713,2112],[2,7],[12,17],[15,12],[15,8],[22,6],[142,6],[15,3],[14,7],[50,34],[96,94]],[[1220,1715],[288,-17],[53,8],[204,63],[425,-14],[37,-7],[18,-6],[13,-6],[24,-17],[76,-75],[23,-19],[20,-12],[21,-7],[21,-3],[22,2]],[[1220,1715],[30,-238],[4,-17],[6,-14],[8,-13],[10,-10],[41,-26],[18,-19],[15,-25],[7,-30],[-2,-33],[-12,-29],[-16,-24],[-19,-20],[-75,-61]],[[656,666],[11,13],[14,12],[11,7]],[[197,428],[31,2],[115,36],[23,11],[22,15],[87,81],[12,8],[12,5],[13,1],[28,0],[28,3],[26,11],[24,21],[38,44]],[[692,698],[88,54],[23,18],[11,10],[22,25],[76,113],[10,10],[10,9],[41,24],[77,61],[27,18],[75,32],[23,17],[13,20],[10,22],[13,19],[18,6]],[[3174,379],[5,-16],[17,-38],[20,-33],[12,-14]],[[3234,272],[21,-26]],[[2504,1598],[19,-4]],[[2464,1598],[32,2],[8,-2]],[[2523,1594],[5,-1],[30,-14],[29,-21],[13,-13],[12,-14],[11,-16],[11,-17],[9,-20],[44,-129],[9,-20],[12,-19],[13,-16],[53,-55],[11,-16],[10,-18],[7,-15],[12,-33],[5,-17],[28,-134],[21,-61],[34,-46],[49,-23],[102,-20],[47,-32],[21,-32],[14,-39],[9,-44],[4,-45],[3,-163],[6,-54],[10,-43],[7,-25]],[[3228,278],[6,-6]],[[3255,246],[7,-8],[160,-148],[11,-12],[9,-13],[13,-23],[13,-28],[3,-10],[1,-4]],[[2473,3912],[20,1],[21,6],[89,43],[47,32],[15,14],[7,8],[7,9],[8,14],[6,17],[5,17],[2,19],[1,4]],[[394,2412],[29,-6],[28,-10],[7,-4],[6,-4],[5,-6],[6,-8],[3,-7],[38,-99],[21,-30],[27,-16],[20,-2],[20,3],[33,10]],[[637,2233],[7,2]],[[40,521],[-36,13],[-4,0]],[[2489,1631],[46,29]],[[2466,1617],[23,14]],[[375,2650],[-11,-3]],[[658,2584],[-36,28],[-24,11],[-24,9],[-154,27],[-19,-2],[-5,-2]],[[709,2291],[7,9],[17,34],[11,36],[3,27]],[[748,2404],[1,8],[-2,42],[-8,37],[-6,17],[-8,15],[-4,5]],[[396,2655],[-21,-5]],[[644,2235],[26,17],[25,21],[14,18]],[[721,2528],[-5,8],[-10,10],[-48,38]],[[747,2397],[1,7]],[[255,2450],[-31,-24],[-11,-5],[-174,-53]],[[39,2368],[-39,-12]],[[538,2631],[-8,122]],[[530,2753],[0,6],[0,52],[-2,17],[-4,18],[-26,70],[-6,21],[-4,22],[-2,23],[6,146],[2,18],[34,141],[2,23],[0,22],[-6,21]],[[322,3847],[-8,-109],[3,-59],[8,-41],[5,-14]],[[317,4096],[8,-36],[4,-49],[1,-49],[-8,-115]],[[330,3624],[8,-23],[18,-33],[22,-29],[64,-71],[52,-76],[16,-16],[8,-8],[10,-6],[9,-4],[9,-2],[11,-1]],[[1220,4096],[-1,-7],[-16,-39],[-20,-33],[-23,-30],[-102,-104],[-110,-143],[-46,-51],[-49,-46],[-11,-8],[-11,-5],[-12,-3],[-42,-4],[-14,-3],[-14,-5],[-14,-9],[-13,-10],[-25,-25],[-9,-12],[-9,-14],[-63,-129],[-17,-26],[-20,-21],[-22,-14]],[[3969,2508],[16,-44],[18,-88]],[[4003,2376],[2,-9],[12,-48],[18,-43],[61,-107]],[[0,830],[41,101],[-41,49]],[[1229,1156],[25,-30],[28,-24],[60,-35],[34,-15],[35,-11],[122,-17]],[[1533,1024],[74,-10],[16,0],[17,3],[33,15],[154,135],[33,22]],[[1860,1189],[35,15],[16,4],[170,-3],[39,10],[17,9],[15,13],[13,18],[10,22],[3,15],[2,15],[1,16],[-1,31],[1,7],[1,8],[1,5],[5,16]],[[2188,1390],[8,16],[9,15],[11,12],[12,8],[116,34],[13,6],[13,9],[11,11],[11,13],[4,6],[31,56],[8,13],[10,11],[21,17]],[[745,2384],[2,1]],[[747,2385],[18,7],[25,18],[26,15],[69,21],[100,8]],[[2045,2644],[74,-7]],[[1694,2667],[57,6],[294,-29]],[[2119,2637],[198,-20]],[[2679,1784],[69,-35],[244,-93],[32,-19],[90,-73]],[[3114,1564],[61,-49],[31,-18],[31,-13],[32,-8],[32,-4],[33,1],[83,22],[12,1],[12,-1],[11,-6],[12,-19],[5,-25],[6,-88],[7,-32],[11,-27],[18,-20],[21,-9],[21,-2],[44,0],[11,-2]],[[3608,1265],[11,-2],[11,-5],[10,-6],[4,-4],[5,-4],[4,-5],[4,-6],[10,-16],[4,-5],[92,-64],[37,-21],[36,-11]],[[3836,1116],[36,-3],[108,11],[35,-1],[19,-3],[62,-27]],[[985,2454],[350,-4],[50,10],[22,9],[11,7],[166,142],[56,31],[54,18]],[[2576,2641],[77,18]],[[2317,2617],[221,15],[38,9]],[[2653,2659],[116,28],[43,5],[22,0],[21,-3],[30,-10],[30,-14],[144,-95],[30,-15],[35,-9],[35,-1]],[[3159,2545],[35,6],[35,13],[104,52]],[[114,2604],[85,-58],[56,-25]],[[0,2708],[89,-86],[25,-18]],[[2144,4096],[14,-3],[28,-12],[89,-55],[108,-50],[88,-66]],[[502,2452],[28,44],[30,63]],[[747,2386],[-21,-8],[-49,11],[-27,0],[-56,-15],[-37,-2]],[[446,2370],[11,8],[34,44],[11,30]],[[557,2372],[-37,-6],[-74,4]],[[392,2393],[-14,-49]],[[392,2315],[50,42],[4,13]],[[378,2344],[14,-29]],[[470,2305],[34,4]],[[2534,1763],[27,-24],[34,-44]],[[2307,2524],[1,-7],[-16,-30],[8,-31],[-10,-7]],[[2290,2449],[-43,-27],[-28,-35],[-24,-3],[-26,-37],[-9,-70],[5,-36],[50,-31],[10,-17],[15,-69],[11,-19],[39,-36],[37,-13],[19,-52],[52,-15],[25,-19],[54,-96],[15,-53],[13,-31],[29,-27]],[[2309,2607],[-10,-44],[8,-39]],[[2251,564],[-39,-12],[-25,0],[-31,-13],[-79,6],[-120,2],[-37,-2],[-115,6]],[[756,785],[27,-21],[62,-17],[36,-67],[4,-63],[21,-49],[13,-58],[21,-24],[-7,-35],[4,-24],[-9,-31],[37,-25],[47,-17],[51,-6],[36,6],[45,27],[90,38],[36,-4],[26,19],[24,4],[18,-27],[32,-28],[9,24],[29,-1],[-8,32],[32,29],[50,1],[42,14],[39,2],[24,21],[76,21],[23,-6],[13,-17],[26,-6],[55,15],[28,14]],[[4096,4096],[0,-4096],[-4096,0],[0,4096],[4096,0]],[[3323,4096],[-1,-41],[-34,-4],[0,41],[-28,1],[63,3]],[[2227,1173],[29,57],[35,9],[-35,36],[40,36],[44,-35],[-33,-21],[6,-48],[32,24],[110,-9],[37,-44],[67,12],[38,-24],[-17,40],[40,29],[34,-42],[-45,-26],[23,-31],[-38,-61],[24,-91],[-64,-63],[-37,46],[-21,-20],[-156,113],[-13,41],[-64,9],[-36,63]],[[3590,4096],[7,-34],[133,33],[67,-60],[39,11],[119,-169],[-5,-57],[-58,-57],[67,-55],[18,-53],[-36,-12],[-116,114],[-92,16],[3,50],[-33,72],[-41,9],[-39,113],[-96,-13],[-49,92],[112,0]],[[3362,4096],[26,-78],[-2,-20],[-49,-20],[-50,27],[1,31],[-4,-40],[-39,0],[17,27],[-45,-2],[-42,52],[-26,-23],[-82,46],[295,0]],[[3336,3990],[18,3],[1,8],[-13,6],[-6,-17]],[[3374,4037],[5,-7],[-1,7],[0,-2],[2,-1],[-1,1],[-1,3],[0,1],[-2,4],[0,2],[-2,-8]],[[3220,4055],[3,3],[2,-8],[7,1],[-6,9],[-1,0],[-3,0],[-2,-5]],[[3208,4063],[12,-8],[1,4],[1,1],[3,0],[1,1],[3,3],[-21,-1]],[[2094,0],[-212,0],[16,25],[-15,-13],[-11,51],[76,67],[-25,39],[-37,-31],[-40,20],[15,57],[37,-25],[50,10],[-5,67],[43,49],[1,-131],[23,-17],[44,142],[-44,9],[-2,62],[99,-56],[6,-90],[61,54],[-12,50],[49,74],[41,-9],[-29,-22],[57,-12],[12,-29],[-95,-183],[84,24],[35,-90],[-51,-58],[-54,31],[6,41],[-35,-26],[59,-49],[-26,-14],[27,13],[51,-30],[-154,0],[-15,2],[-1,-2],[-29,0],[0,1],[0,-1]],[[2546,0],[-83,0],[21,31],[-53,59],[-106,-1],[-16,93],[-37,13],[46,152],[36,-17],[37,37],[23,-23],[41,28],[21,-37],[-21,-29],[55,18],[-12,-120],[11,-4],[28,-61],[-17,-76],[24,30],[19,-49],[50,-6],[18,-38],[-66,0],[-12,8],[-7,-8]],[[2832,0],[-172,0],[101,74],[4,44],[34,4],[-5,59],[38,15],[102,-46],[-5,64],[47,-19],[3,37],[39,-40],[54,13],[68,-142],[-64,65],[-74,-24],[-18,-55],[59,25],[40,-56],[5,-18],[-218,0],[11,15],[-45,-9],[-4,-6]],[[1502,0],[-104,0],[10,40],[35,23],[-80,50],[-73,-25],[-79,242],[43,8],[15,33],[117,-1],[27,41],[21,-62],[35,12],[-1,53],[26,-25],[14,35],[40,-21],[120,65],[50,-41],[2,29],[4,0],[40,-35],[-18,-86],[42,-2],[20,-78],[-2,-39],[-28,-21],[61,-87],[-15,-42],[24,-14],[-45,-29],[12,-23],[-89,0],[-6,6],[-17,-6],[-42,0],[-8,40],[-24,-6],[1,-34],[-39,0],[-1,49],[26,31],[-32,-21],[-14,24],[-13,-32],[-33,15],[9,-37],[-44,-9],[13,-20]],[[407,518],[-178,-73],[-229,27],[0,47],[51,-1],[32,72],[81,25],[0,24],[65,0],[-14,-46],[-67,-33],[-3,-56],[149,86],[16,49],[84,-42],[13,-79]],[[666,639],[-16,48],[-65,24],[34,49],[72,-54],[7,-43],[-32,-24]],[[331,1856],[44,-57],[-22,-35],[-43,84],[-33,0],[-48,48],[10,31],[55,-7],[0,-48],[37,-16]],[[1248,1823],[49,25],[48,-25],[-26,-60],[-43,-29],[-49,3],[-43,38],[32,97],[32,-49]],[[2057,1775],[-54,16],[-11,81],[59,-58],[6,-39]],[[3546,2114],[-1,-32],[-88,-61],[-36,29],[-5,64],[29,-23],[101,23]],[[3724,1968],[0,44],[-17,102],[41,-16],[22,-54],[-6,-54],[-40,-22]],[[2707,1622],[-42,-52],[-52,-14],[-6,50],[-100,-14],[-46,100],[86,84],[44,-49],[113,-24],[3,-81]],[[2203,3057],[0,-121],[-33,72],[-34,10],[2,39],[65,0]],[[349,3828],[26,-46],[-2,-100],[-17,-43],[-49,-28],[-13,50],[-49,24],[-65,97],[10,45],[104,3],[16,25],[39,-27]],[[1832,3446],[-80,47],[-2,120],[97,-121],[-15,-46]],[[2067,4096],[-10,-72],[-32,0],[-33,-73],[-81,0],[-32,121],[-48,-48],[4,72],[232,0]],[[2446,4012],[38,-64],[42,3],[-3,-75],[-29,-22],[-65,25],[-50,-64],[13,-22],[-44,-11],[-64,121],[54,-2],[75,123],[33,-12]],[[1421,3328],[-60,-102],[-48,-24],[-97,72],[22,46],[107,51],[-16,48],[16,25],[22,-4],[54,-112]],[[3216,3375],[38,-28],[-5,-23],[-74,-38],[-83,61],[23,40],[42,-16],[0,97],[59,-93]],[[2332,2428],[-48,24],[0,24],[-98,24],[21,43],[140,-26],[18,-16],[-33,-73]],[[4096,2524],[0,-123],[-71,-29],[-43,7],[-48,146],[57,29],[58,-47],[47,17]],[[2095,2577],[-47,44],[-7,49],[78,-29],[3,-44],[-27,-20]],[[2607,2632],[-48,13],[20,42],[66,17],[11,-59],[-49,-13]],[[621,2755],[-56,-25],[3,-71],[82,-13],[16,-121],[98,6],[47,-103],[-64,-24],[0,-35],[48,-38],[-17,-39],[-39,-13],[-73,28],[-25,-20],[-8,-101],[-117,-12],[-12,109],[-81,-24],[-29,-50],[-52,25],[0,25],[-32,0],[0,24],[-65,0],[-16,48],[-81,0],[-70,47],[-18,-64],[-25,65],[-33,0],[17,170],[32,-48],[-32,-25],[9,-28],[71,-44],[-16,169],[49,49],[83,-75],[46,2],[-32,121],[146,72],[0,-96],[41,18],[-6,115],[29,36],[29,-18],[4,-55],[47,0],[24,24],[-7,97],[31,-8],[66,-64],[-12,-36]],[[973,2718],[-32,50],[16,71],[32,-50],[-16,-71]],[[826,2959],[2,-23],[-39,3],[-75,-52],[22,-17],[75,42],[13,-34],[-29,-63],[-118,18],[21,200],[27,2],[101,-76]],[[3012,2839],[-65,24],[5,47],[60,74],[27,-25],[-27,-120]],[[1859,1454],[8,25],[81,23],[98,-41],[78,88],[58,-16],[19,26],[35,-6],[-28,-38],[-24,14],[30,-63],[-50,-37],[7,-45],[-84,14],[-51,-27],[-123,4],[-54,79]],[[3011,259],[79,125],[35,-22],[200,72],[72,-46],[5,-28],[16,50],[-26,63],[41,57],[152,-53],[20,41],[51,-26],[83,65],[9,-63],[63,-43],[-21,-45],[74,-70],[-13,-20],[33,-33],[38,-8],[-88,-18],[-3,30],[-60,13],[7,37],[-25,29],[-45,2],[-49,-36],[-23,27],[-37,-19],[-18,20],[-9,-19],[-61,27],[-63,-55],[-46,45],[4,-24],[54,-44],[-1,-24],[-32,-7],[-57,37],[16,-50],[-17,-21],[-31,41],[-38,-17],[18,23],[-36,17],[-14,-25],[-44,15],[32,-27],[-14,-71],[-56,-98],[-46,-20],[-49,134],[-54,10],[-26,52]],[[11,816],[37,86],[-6,88],[46,81],[168,46],[15,14],[26,5],[128,-9],[19,50],[90,2],[-41,-53],[-1,-70],[-22,-24],[-98,-21],[-82,5],[-10,24],[-85,-100],[37,-12],[17,-48],[-120,12],[-69,-50],[-15,-58],[-19,-6],[-15,38]],[[269,1127],[2,-15],[3,0],[4,19],[-9,-4]],[[1348,1166],[57,69],[104,32],[14,-22],[23,11],[-10,-32],[28,-23],[92,-23],[-34,-32],[20,-41],[-46,14],[-33,-29],[-104,30],[-68,-37],[7,25],[-50,58]],[[4096,4017],[0,-605],[-30,10],[9,32],[-55,27],[20,28],[43,0],[9,45],[-38,8],[-44,68],[-59,11],[24,39],[-83,84],[58,56],[6,55],[-120,171],[-39,-11],[-67,60],[-133,-33],[-7,34],[404,0],[102,-79]],[[3023,4096],[15,-19],[73,11],[38,-38],[26,23],[42,-52],[45,2],[-17,-27],[39,0],[-5,20],[6,19],[3,1],[-1,-31],[50,-27],[49,20],[-24,98],[116,0],[55,-95],[90,16],[39,-113],[41,-9],[33,-72],[-17,-35],[52,-20],[-30,-87],[-33,-40],[-27,26],[-27,-30],[-42,19],[8,-67],[-131,-16],[-24,24],[-50,-23],[-123,101],[-74,-34],[-52,93],[-43,12],[-10,-22],[-48,10],[-14,-44],[-35,18],[-35,-30],[-56,23],[-13,-61],[-37,4],[-33,-36],[-78,18],[-49,-52],[-34,1],[15,53],[-21,20],[-53,24],[-49,-15],[29,59],[-111,168],[-83,45],[-162,-42],[-38,30],[-25,82],[-93,54],[-81,13],[-83,-49],[-88,79],[1185,0]]]}