{"objects":{"water":{"type":"GeometryCollection","geometries":[]},"buildings":{"type":"GeometryCollection","geometries":[]},"places":{"type":"GeometryCollection","geometries":[{"type":"Point","properties":{"name:ka":"\u10e1\u10d8\u10e0\u10d8\u10d0","name:ko":"\uc2dc\ub9ac\uc544","name:cv":"\u0421\u0438\u0440\u0438","name:cu":"\u0421\u0477\u0440\u0457\ua657","name:kl":"Syria","name:cs":"S\u00fdrie","name:ki":"Siria","name:kw":"Syri","name:kv":"\u0421\u0438\u0440\u0438\u044f","name:ku":"S\u00fbr\u00ee","name:ti":"\u1232\u122a\u12eb","name:ks":"\u0634\u0627\u0645","name:to":"S\u012blia","name:tl":"Sirya","name:ce":"\u0421\u0438\u0440\u0438","name:ta":"\u0b9a\u0bbf\u0bb0\u0bbf\u0baf\u0bbe","name:tg":"\u0421\u0443\u0440\u0438\u044f","name:ca":"S\u00edria","name:te":"\u0c38\u0c3f\u0c30\u0c3f\u0c2f\u0c3e","name:cy":"Syria","name:hr":"Sirija","name:da":"Syrien","name:de":"Syrien","name:dz":"\u0f66\u0f72\u0f0b\u0f62\u0f72\u0f0b\u0f61","source":"openstreetmap.org","name:kn":"\u0cb8\u0cbf\u0cb0\u0cbf\u0caf\u0cbe","name:dv":"\u0790\u07ab\u0783\u07a8\u0794\u07a7","name:km":"\u179f\u17ca\u17b8\u179a\u17b8","name:lv":"S\u012brija","name:lt":"Sirija","name:uz":"Suriya","name:kk":"\u0421\u0438\u0440\u0438\u044f","name:ur":"\u0634\u0627\u0645","name:lb":"Syrien","name:la":"Syria","name:lg":"Siriya","name:uk":"\u0421\u0438\u0440\u0456\u044f","name:ug":"\u0633\u06c7\u0631\u0649\u064a\u06d5","name:li":"Syri\u00eb","name:ln":"Sir\u00ed","name:lo":"\u0e8a\u0eb4\u0ec0\u0ea5\u0e8d","name:el":"\u03a3\u03c5\u03c1\u03af\u03b1","name:eo":"Sirio","name:en":"Syria","name":"\u0633\u0648\u0631\u064a\u0629","name:tk":"Siri\u00fda","name:ee":"Siria nutome","name:th":"\u0e1b\u0e23\u0e30\u0e40\u0e17\u0e28\u0e0b\u0e35\u0e40\u0e23\u0e35\u0e22","name:eu":"Siria","name:et":"S\u00fc\u00fcria","name:es":"Siria","name:ia":"Syria","name:rm":"Siria","name:rn":"Siriya","name:az":"siriya","name:ie":"Siria","name:id":"Suriah","name:pa":"\u0a38\u0a40\u0a30\u0a40\u0a06","name:io":"Siria","name:av":"\u0421\u0438\u0440\u0438\u044f","name:ak":"Siria","name:am":"\u1232\u122a\u12eb","name:it":"Siria","name:an":"Siria","name:ru":"\u0421\u0438\u0440\u0438\u044f","name:rw":"Siriya","name:af":"Siri\u00eb","name:zu":"i-Syria","name:ky":"\u0421\u0438\u0440\u0438\u044f","name:zh-yue":"\u6558\u5229\u4e9e","name:zh":"\u53d9\u5229\u4e9a","name:so":"Suuriya","name:sn":"Syria","name:sl":"Sirija","name:sk":"S\u00fdria","name:ja":"\u30b7\u30ea\u30a2","name:si":"\u0dc3\u0dd2\u0dbb\u0dd2\u0dba\u0dcf\u0dc0","name:sh":"Sirija","name:sg":"Sir\u00efi","name:se":"Syria","name:sc":"Siria","name:sa":"\u0938\u093f\u0930\u093f\u092f\u093e","name:bs":"Sirija","name:bm":"Siri","name:bn":"\u09b8\u09bf\u09b0\u09bf\u09af\u09bc\u09be","name:bo":"\u0f66\u0f72\u0f0b\u0f62\u0f72\u0f0b\u0f61\u0f0d","name:br":"Siria","name:sw":"Siria","name:be":"\u0421\u0456\u0440\u044b\u044f","name:su":"Suriah","name:bg":"\u0421\u0438\u0440\u0438\u044f","name:ss":"ISiriya","name:ba":"\u0421\u0438\u0440\u0438\u044f","name:sq":"Siri","name:jv":"Suriah","name:pt":"S\u00edria","name:ps":"\u0633\u0648\u0631\u06cc\u0647","name:oc":"Siria","min_zoom":2.0,"name:ro":"Siria","name:zh-min-nan":"Su-l\u012b-a","name:os":"\u0421\u0438\u0440\u0438","name:or":"\u0b38\u0b3f\u0b30\u0b3f\u0b06","name:pl":"Syria","name:sr":"\u0421\u0438\u0440\u0438\u0458\u0430","name:tr":"Suriye","name:hi":"\u0938\u0940\u0930\u093f\u092f\u093e","name:sv":"Syrien","name:he":"\u05e1\u05d5\u05e8\u05d9\u05d4","name:ha":"Sham, Siriya","name:hy":"\u054d\u056b\u0580\u056b\u0561","name:ht":"Siri","name:hu":"Sz\u00edria","name:qu":"Sirya","population":18860588,"kind":"country","name:is":"S\u00fdrland","name:yi":"\u05e1\u05d9\u05e8\u05d9\u05e2","name:yo":"Or\u00edl\u1eb9\u0301\u00e8de Siria","name:mt":"Sirja","name:ms":"Syria","name:mr":"\u0938\u0940\u0930\u093f\u092f\u093e","name:my":"\u1006\u102e\u1038\u101b\u102e\u1038\u101a\u102c\u1038","official_name":"\u0627\u0644\u062c\u0645\u0647\u0648\u0631\u064a\u0629 \u0627\u0644\u0639\u0631\u0628\u064a\u0629 \u0627\u0644\u0633\u0648\u0631\u064a\u0629","int_name":"Syria","name:mg":"Syria","name:ml":"\u0d38\u0d3f\u0d31\u0d3f\u0d2f","name:vi":"Syria","name:mn":"\u0421\u0438\u0440\u0438","name:mi":"Hiria","id":424311806,"name:mk":"\u0421\u0438\u0440\u0438\u0458\u0430","name:vo":"S\u00fcriy\u00e4n","name:fa":"\u0633\u0648\u0631\u06cc\u0647","name:ff":"Sirii","name:fi":"Syyria","name:fo":"Syria","name:fr":"Syrie","name:fy":"Syrje","name:nl":"Syri\u00eb","name:nn":"Syria","name:no":"Syria","name:na":"Syria","name:ne":"\u0938\u093f\u0930\u093f\u092f\u093e","name:wa":"Sireye","name:wo":"Siri","name:nv":"S\u00ed\u00edwiya","name:ga":"An tSiria","name:gd":"Siria","name:gl":"Siria","name:gv":"Yn Teer","name:gu":"\u0ab8\u0ac0\u0ab0\u0abf\u0aaf\u0abe","name:tt":"\u0421\u04af\u0440\u0438\u044f"},"coordinates":[3148,1183]},{"type":"Point","properties":{"kind":"locality","name:en":"As Sukhnah","name":"\u0627\u0644\u0633\u062e\u0646\u0629","kind_detail":"town","min_zoom":8.0,"name:de":"As Sukhnah","source":"openstreetmap.org","name:fr":"As Sukhnah","int_name":"Es Sukhne, Soukhne, Soukhn\u00e9, Sukhnah, As Sukhnah","name:ru":"\u042d\u0441-\u0421\u0443\u0445\u043d\u0435","id":573542858,"population":16173},"coordinates":[2629,2044]}]},"transit":{"type":"GeometryCollection","geometries":[]},"pois":{"type":"GeometryCollection","geometries":[{"type":"Point","properties":{"kind":"nature_reserve","name:en":"Talila Reserve","name":"\u0645\u062d\u0645\u064a\u0629 \u0627\u0644\u062a\u0644\u064a\u0644\u0629","area":294812000,"source":"openstreetmap.org","min_zoom":8.19,"tier":2,"id":202758791},"coordinates":[1689,606]}]},"boundaries":{"type":"GeometryCollection","geometries":[{"type":"LineString","properties":{"name:right:uk":"\u0425\u0430\u043b\u0435\u0431 \u043c\u0443\u0445\u0430\u0444\u0430\u0437\u0430","id:left":-184880,"id:right":-184879,"min_zoom":8.0,"name:left:en":"Hama","name:left:ru":"\u0425\u0430\u043c\u0430","name:right:ru":"\u0410\u043b\u0435\u043f\u043f\u043e","name:right:pl":"Aleppo","id":-184880,"osm_relation":true,"name:right":"\u062d\u0644\u0628","kind":"region","name":"\u062d\u0645\u0627\u0647 - \u062d\u0644\u0628","source":"openstreetmap.org","sort_rank":256,"kind_detail":"4","name:left:de":"Hama","name:right:en":"Aleppo","name:left:pl":"Hama","name:left:zh":"\u54c8\u9a6c\u7701","name:right:de":"Aleppo","name:right:zh":"\u963f\u52d2\u9887\u7701","name:left":"\u062d\u0645\u0627\u0647","name:left:cs":"Ham\u00e1","name:right:cs":"Aleppo"},"arcs":[0]},{"type":"LineString","properties":{"name:left:pl":"Hama","id:left":-184880,"id:right":-184878,"min_zoom":8.0,"name:left:ru":"\u0425\u0430\u043c\u0430","name:right:ru":"\u042d\u0440-\u0420\u0430\u043a\u043a\u0430","name:right:pl":"Ar-Rakka","id":-184880,"osm_relation":true,"name:right":"\u0627\u0644\u0631\u0642\u0629","kind":"region","name":"\u062d\u0645\u0627\u0647 - \u0627\u0644\u0631\u0642\u0629","source":"openstreetmap.org","sort_rank":256,"kind_detail":"4","name:left:de":"Hama","name:right:en":"Ar-Raqqah","name:left:en":"Hama","name:left:zh":"\u54c8\u9a6c\u7701","name:right:de":"Ar-Raqqa","name:right:zh":"\u62c9\u5361\u7701","name:left:cs":"Ham\u00e1","name:left":"\u062d\u0645\u0627\u0647"},"arcs":[1]},{"type":"LineString","properties":{"name:right:uk":"\u0425\u0456\u043c\u0441 \u043c\u0443\u0445\u0430\u0444\u0430\u0437\u0430","id:left":-184880,"id:right":-184877,"min_zoom":8.0,"name:left:en":"Hama","name:left:ru":"\u0425\u0430\u043c\u0430","name:right:ru":"\u0425\u043e\u043c\u0441","name:right:pl":"Hims","id":-184880,"osm_relation":true,"name:right":"\u062d\u0645\u0635","kind":"region","name":"\u062d\u0645\u0627\u0647 - \u062d\u0645\u0635","source":"openstreetmap.org","sort_rank":256,"kind_detail":"4","name:left:de":"Hama","name:right:en":"Homs","name:left:pl":"Hama","name:left:zh":"\u54c8\u9a6c\u7701","name:right:de":"Homs","name:right:zh":"\u970d\u59c6\u65af\u7701","name:left":"\u062d\u0645\u0627\u0647","name:left:cs":"Ham\u00e1","name:right:cs":"Homs"},"arcs":[2]},{"type":"LineString","properties":{"name:left:pl":"Aleppo","id:left":-184879,"id:right":-184878,"name:left:uk":"\u0425\u0430\u043b\u0435\u0431 \u043c\u0443\u0445\u0430\u0444\u0430\u0437\u0430","min_zoom":8.0,"name:left:ru":"\u0410\u043b\u0435\u043f\u043f\u043e","name:right:ru":"\u042d\u0440-\u0420\u0430\u043a\u043a\u0430","name:right:pl":"Ar-Rakka","id":-184879,"osm_relation":true,"name:right":"\u0627\u0644\u0631\u0642\u0629","kind":"region","name":"\u062d\u0644\u0628 - \u0627\u0644\u0631\u0642\u0629","source":"openstreetmap.org","sort_rank":256,"kind_detail":"4","name:left:de":"Aleppo","name:right:en":"Ar-Raqqah","name:left:en":"Aleppo","name:left:zh":"\u963f\u52d2\u9887\u7701","name:right:de":"Ar-Raqqa","name:right:zh":"\u62c9\u5361\u7701","name:left:cs":"Aleppo","name:left":"\u062d\u0644\u0628"},"arcs":[3]},{"type":"LineString","properties":{"name:right:uk":"\u0425\u0456\u043c\u0441 \u043c\u0443\u0445\u0430\u0444\u0430\u0437\u0430","id:left":-184878,"id:right":-184877,"min_zoom":8.0,"name:left:en":"Ar-Raqqah","name:left:ru":"\u042d\u0440-\u0420\u0430\u043a\u043a\u0430","name:right:ru":"\u0425\u043e\u043c\u0441","name:right:pl":"Hims","id":-184878,"osm_relation":true,"name:right":"\u062d\u0645\u0635","kind":"region","name":"\u0627\u0644\u0631\u0642\u0629 - \u062d\u0645\u0635","source":"openstreetmap.org","sort_rank":256,"kind_detail":"4","name:left:de":"Ar-Raqqa","name:right:en":"Homs","name:left:pl":"Ar-Rakka","name:left:zh":"\u62c9\u5361\u7701","name:right:de":"Homs","name:right:zh":"\u970d\u59c6\u65af\u7701","name:left":"\u0627\u0644\u0631\u0642\u0629","name:right:cs":"Homs"},"arcs":[4]},{"type":"LineString","properties":{"name:right:uk":"\u0425\u0456\u043c\u0441 \u043c\u0443\u0445\u0430\u0444\u0430\u0437\u0430","id:left":-184878,"id:right":-184877,"min_zoom":8.0,"name:left:en":"Ar-Raqqah","name:left:ru":"\u042d\u0440-\u0420\u0430\u043a\u043a\u0430","name:right:ru":"\u0425\u043e\u043c\u0441","name:right:pl":"Hims","id":-184878,"osm_relation":true,"name:right":"\u062d\u0645\u0635","kind":"region","name":"\u0627\u0644\u0631\u0642\u0629 - \u062d\u0645\u0635","source":"openstreetmap.org","sort_rank":256,"kind_detail":"4","name:left:de":"Ar-Raqqa","name:right:en":"Homs","name:left:pl":"Ar-Rakka","name:left:zh":"\u62c9\u5361\u7701","name:right:de":"Homs","name:right:zh":"\u970d\u59c6\u65af\u7701","name:left":"\u0627\u0644\u0631\u0642\u0629","name:right:cs":"Homs"},"arcs":[5]},{"type":"LineString","properties":{"name:left:pl":"Ar-Rakka","id:left":-184878,"id:right":-184867,"min_zoom":8.0,"name:left:ru":"\u042d\u0440-\u0420\u0430\u043a\u043a\u0430","name:right:ru":"\u0414\u0430\u0439\u0440-\u044d\u0437-\u0417\u0430\u0443\u0440","name:right:pl":"Dajr az-Zaur","id":-184878,"osm_relation":true,"name:right":"\u062f\u064a\u0631 \u0627\u0644\u0632\u0648\u0631","kind":"region","name":"\u0627\u0644\u0631\u0642\u0629 - \u062f\u064a\u0631 \u0627\u0644\u0632\u0648\u0631","source":"openstreetmap.org","sort_rank":256,"kind_detail":"4","name:left:de":"Ar-Raqqa","name:right:en":"Deir ez-Zor","name:left:en":"Ar-Raqqah","name:left:zh":"\u62c9\u5361\u7701","name:right:de":"Deir ez-Zor","name:right:zh":"\u4ee3\u5c14\u7956\u5c14\u7701","name:left":"\u0627\u0644\u0631\u0642\u0629"},"arcs":[6]},{"type":"LineString","properties":{"name:left:pl":"Hims","id:left":-184877,"id:right":-184867,"name:left:uk":"\u0425\u0456\u043c\u0441 \u043c\u0443\u0445\u0430\u0444\u0430\u0437\u0430","min_zoom":8.0,"name:left:ru":"\u0425\u043e\u043c\u0441","name:right:ru":"\u0414\u0430\u0439\u0440-\u044d\u0437-\u0417\u0430\u0443\u0440","name:right:pl":"Dajr az-Zaur","id":-184877,"osm_relation":true,"name:right":"\u062f\u064a\u0631 \u0627\u0644\u0632\u0648\u0631","kind":"region","name":"\u062d\u0645\u0635 - \u062f\u064a\u0631 \u0627\u0644\u0632\u0648\u0631","source":"openstreetmap.org","sort_rank":256,"kind_detail":"4","name:left:de":"Homs","name:right:en":"Deir ez-Zor","name:left:en":"Homs","name:left:zh":"\u970d\u59c6\u65af\u7701","name:right:de":"Deir ez-Zor","name:right:zh":"\u4ee3\u5c14\u7956\u5c14\u7701","name:left:cs":"Homs","name:left":"\u062d\u0645\u0635"},"arcs":[7]}]},"roads":{"type":"GeometryCollection","geometries":[{"type":"LineString","properties":{"source":"openstreetmap.org","kind":"major_road","sort_rank":380,"kind_detail":"primary","ref":"M20","min_zoom":8.0},"arcs":[8]},{"type":"LineString","properties":{"source":"openstreetmap.org","kind":"major_road","sort_rank":381,"kind_detail":"trunk","ref":"42","min_zoom":8.0},"arcs":[9]},{"type":"MultiLineString","properties":{"sort_rank":380,"kind_detail":"primary","min_zoom":8.0,"kind":"major_road","source":"openstreetmap.org"},"arcs":[[10],[11],[12],[13],[14],[15],[16],[17],[18],[19],[20],[21],[22],[23],[24],[25],[26],[27],[28],[29],[30],[31],[32],[33]]},{"type":"MultiLineString","properties":{"source":"openstreetmap.org","kind":"major_road","sort_rank":380,"kind_detail":"primary","ref":"7","min_zoom":8.0},"arcs":[[34],[35],[36]]},{"type":"LineString","properties":{"source":"openstreetmap.org","kind":"major_road","sort_rank":380,"kind_detail":"primary","ref":"90","min_zoom":8.0},"arcs":[37]}]},"earth":{"type":"GeometryCollection","geometries":[{"type":"Polygon","properties":{"sort_rank":10,"source":"naturalearthdata.com","min_zoom":0.0,"kind":"earth","area":98022885885},"arcs":[[38]]}]},"landuse":{"type":"GeometryCollection","geometries":[{"type":"MultiPolygon","properties":{"source":"openstreetmap.org","kind":"military","tier":3,"area":212986851,"sort_rank":45,"min_zoom":8.0},"arcs":[[[39]]]},{"type":"Polygon","properties":{"source":"openstreetmap.org","kind":"nature_reserve","area":294812000,"tier":2,"id":202758791,"min_zoom":6.0,"sort_rank":23},"arcs":[[40]]}]}},"type":"Topology","transform":{"translate":[37.96875,34.3071438563],"scale":[0.0003433228,0.0002816226]},"arcs":[[[775,4007],[-66,-183],[-709,175]],[[969,3817],[-47,76],[-147,114]],[[0,2173],[63,-76],[89,81],[93,297],[70,76],[483,221],[-3,238],[167,334],[7,473]],[[775,4007],[85,89]],[[969,3817],[449,31],[657,-64]],[[2075,3784],[630,-126],[355,-123],[308,-56],[340,-134]],[[3708,3345],[285,751]],[[4096,2986],[-71,124],[-317,235]],[[2539,1941],[-1,-2]],[[372,4096],[-372,-112]],[[721,761],[-4,-5]],[[966,948],[19,7],[-58,37],[-59,-53],[-52,-11]],[[816,928],[-36,-7],[-59,-160]],[[721,761],[39,-62]],[[761,694],[0,-1]],[[763,694],[33,84]],[[795,779],[-32,-84]],[[806,794],[-9,-14]],[[797,780],[10,14]],[[804,932],[12,-4]],[[816,928],[36,-11]],[[852,917],[34,-11]],[[852,917],[40,-13],[26,-2],[-14,5]],[[899,908],[-6,-3]],[[966,948],[-24,-14]],[[942,933],[24,15]],[[974,960],[-5,-10]],[[1461,4096],[-14,-327],[-89,-293],[-13,-105],[23,-135],[-54,-185],[-21,-37],[-155,-97],[93,-226],[61,-66],[231,-60],[406,20],[135,-87],[12,-93],[255,-219],[22,-74],[87,-112],[106,-54]],[[2735,4096],[306,-232],[38,-72],[80,-23],[127,-118],[93,1],[76,-54],[215,8],[70,69],[-5,63],[52,109],[-22,59],[62,50]],[[3827,3956],[31,112],[21,28]],[[4096,3756],[-60,33],[-19,-39],[-78,-10],[7,89],[-68,108],[-51,19]],[[763,694],[-1,2],[-1,-1],[1,-2],[1,1]],[[796,779],[1,0],[0,1],[-1,0],[0,-1]],[[807,796],[-1,0],[0,-2],[1,0],[0,2]],[[722,753],[-701,-25],[-21,11]],[[2538,1939],[-214,-179],[-39,-97],[-121,-123],[-107,-193],[-175,-159],[-77,-37],[-486,-98],[-142,-75],[-192,-23]],[[4096,2244],[-211,-34],[-140,-76],[-132,6],[-112,-126],[-186,-47],[-136,3],[-180,-58],[-303,110],[-157,-81]],[[763,688],[-193,-590],[-29,-62],[-52,-36]],[[2171,0],[-2171,0],[0,4096],[4096,0],[0,-4096],[-1925,0]],[[888,1184],[47,86],[-2,68],[64,-72],[-31,-12],[4,-50],[-57,-39],[-25,19]],[[1161,485],[56,78],[20,-17],[73,50],[95,12],[70,94],[123,35],[27,38],[-12,24],[18,-21],[355,23],[12,-252],[-100,-58],[-687,-80],[-50,74]]]}