{"objects":{"water":{"type":"GeometryCollection","geometries":[{"type":"Polygon","properties":{"source":"naturalearthdata.com","kind":"ocean","area":1576712559132672,"sort_rank":200,"min_zoom":0.0,"id":1},"arcs":[[3]]}]},"buildings":{"type":"GeometryCollection","geometries":[]},"places":{"type":"GeometryCollection","geometries":[]},"transit":{"type":"GeometryCollection","geometries":[]},"pois":{"type":"GeometryCollection","geometries":[]},"boundaries":{"type":"GeometryCollection","geometries":[{"type":"LineString","properties":{"name:ka":"\u10e1\u10d0\u10e3\u10d3\u10d8\u10e1 \u10d0\u10e0\u10d0\u10d1\u10d4\u10d7\u10d8","name:ko":"\uc0ac\uc6b0\ub514\uc544\ub77c\ube44\uc544","name:cv":"\u0421\u0430\u0443\u0434 \u0410\u0440\u0430\u0432\u0438\u0439\u0115","name:km":"\u17a2\u17b6\u179a\u17c9\u17b6\u1794\u17ca\u17b8\u179f\u17b6\u17a2\u17bc\u178c\u17b8\u178f","name:kl":"Saudi Arabia","name:cs":"Sa\u00fadsk\u00e1 Ar\u00e1bie","name:tt":"\u0421\u043e\u0433\u0443\u0434 \u0413\u0430\u0440\u04d9\u0431\u0441\u0442\u0430\u043d\u044b","name:kw":"Arabi Saoudek","name:kv":"\u0421\u0430\u0443\u0434\u0441\u0430 \u0410\u0440\u0430\u0432\u0438\u044f","name:ku":"Erebistana Siy\u00fbd\u00ee","name:tl":"Arabyang Saudi","name:ce":"\u0421\u0430\u0443\u0434\u0438\u0439\u043d \u0410\u0440\u0430\u0432\u0438","name:ta":"\u0b9a\u0bb5\u0bc2\u0ba4\u0bbf \u0b85\u0bb0\u0bc7\u0baa\u0bbf\u0baf\u0bbe","name:tg":"\u0410\u0440\u0430\u0431\u0438\u0441\u0442\u043e\u043d\u0438 \u0421\u0430\u0443\u0434\u04e3","name:ca":"Ar\u00e0bia Saudita","name:te":"\u0c38\u0c4c\u0c26\u0c40 \u0c05\u0c30\u0c47\u0c2c\u0c3f\u0c2f\u0c3e","name:cy":"Saudi Arabia","name:qu":"Sawud Arabya","name:da":"Saudi-Arabien","name:de":"Saudi-Arabien","name:dz":"\u0f66\u0f60\u0f74\u0f0b\u0f51\u0f72\u0f0b\u0f68\u0f7a\u0f0b\u0f62\u0f0b\u0f66\u0fa6\u0f72\u0f0b\u0f61\u0f0b","source":"openstreetmap.org","name:kn":"\u0cb8\u0ccc\u0ca6\u0cbf \u0c85\u0cb0\u0cc6\u0cac\u0cbf\u0caf","name:dv":"\u0790\u07a6\u0787\u07ab\u078b\u07a9 \u0787\u07a6\u0783\u07a6\u0784\u07a8\u0787\u07b0\u0794\u07a7","name:lv":"Sa\u016bda Ar\u0101bija","name:lt":"Saudo Arabija","name:uz":"Saudiya Arabistoni","name:kk":"\u0421\u0430\u0443\u0434 \u0410\u0440\u0430\u0431\u0438\u044f\u0441\u044b","name:ur":"\u0633\u0639\u0648\u062f\u06cc \u0639\u0631\u0628","name:lb":"Saudi-Arabien","name:la":"Arabia Saudiana","name:uk":"\u0421\u0430\u0443\u0434\u0456\u0432\u0441\u044c\u043a\u0430 \u0410\u0440\u0430\u0432\u0456\u044f","name:ug":"\u0633\u06d5\u0626\u06c7\u062f\u0649 \u0626\u06d5\u0631\u06d5\u0628\u0649\u0633\u062a\u0627\u0646","name:li":"Saoedi-Arabi\u00eb","name:ln":"Saudi Arabia","name:el":"\u03a3\u03b1\u03bf\u03c5\u03b4\u03b9\u03ba\u03ae \u0391\u03c1\u03b1\u03b2\u03af\u03b1","name:eo":"Sauda Arabujo","name:en":"Saudi Arabia","name":"\u0627\u0644\u0633\u0639\u0648\u062f\u064a\u0629","name:tk":"Saud Arabystany","name:th":"\u0e1b\u0e23\u0e30\u0e40\u0e17\u0e28\u0e0b\u0e32\u0e2d\u0e38\u0e14\u0e35\u0e2d\u0e32\u0e23\u0e30\u0e40\u0e1a\u0e35\u0e22","name:eu":"Saudi Arabia","name:et":"Saudi Araabia","name:es":"Arabia Saudita","name:ia":"Arabia Saudita","name:rm":"Arabia Saudita","name:az":"S\u0259udiyy\u0259 \u018fr\u0259bistan\u0131","name:ie":"Saudi Arabia","name:id":"Arab Saudi","name:zh-min-nan":"Saud \u00ea A-la-pek","name:io":"Saudia Arabia","name:av":"\u0421\u0430\u0433I\u0443\u0434\u0438\u044f\u0437\u0443\u043b \u0413I\u0430\u0440\u0430\u0431\u0438\u044f","name:is":"S\u00e1d\u00ed-Arab\u00eda","name:am":"\u1233\u12d1\u12f2 \u12a0\u1228\u1262\u12eb","name:it":"Arabia Saudita","name:an":"Arabia Saud\u00ed","name:ru":"\u0421\u0430\u0443\u0434\u043e\u0432\u0441\u043a\u0430\u044f \u0410\u0440\u0430\u0432\u0438\u044f","name:rw":"Arabiya Sawudite","name:af":"Saoedi-Arabi\u00eb","kind_detail":"2","name:ky":"\u0421\u0430\u0443\u0434 \u0410\u0440\u0430\u0431\u0438\u044f \u041f\u0430\u0434\u044b\u0448\u0430\u043b\u044b\u0433\u044b","name:zh-yue":"\u6c99\u5730\u963f\u62c9\u4f2f","name:zh":"\u6c99\u7279\u963f\u62c9\u4f2f","name:so":"Sacuudi Carabiya","name:sl":"Saudova Arabija","name:sk":"Saudsk\u00e1 Ar\u00e1bia","name:ja":"\u30b5\u30a6\u30b8\u30a2\u30e9\u30d3\u30a2","name:si":"\u0dc3\u0dc0\u0dd4\u0daf\u0dd2 \u0d85\u0dbb\u0dcf\u0db6\u0dd2\u0dba\u0dcf\u0dc0","name:sh":"Saudijska Arabija","name:se":"Saudi-Ar\u00e1bia","name:br":"Arabia Saoudat","name:bs":"Saudijska Arabija","name:bm":"Saudia Arabu ka Faamamara","name:bn":"\u09b8\u09cc\u09a6\u09bf \u0986\u09b0\u09ac","name:bo":"\u0f66\u0f60\u0f74\u0f0b\u0f51\u0f72\u0f0b\u0f68\u0f0b\u0f62\u0f0b\u0f54\u0f72\u0f0b\u0f61\u0f0d","name:sa":"\u0938\u090a\u0926\u0940 \u0905\u0930\u092c","name:sw":"Saudia","name:be":"\u0421\u0430\u0443\u0434\u0430\u045e\u0441\u043a\u0430\u044f \u0410\u0440\u0430\u0432\u0456\u044f","name:su":"Saudi Arabia","name:bg":"\u0421\u0430\u0443\u0434\u0438\u0442\u0441\u043a\u0430 \u0410\u0440\u0430\u0431\u0438\u044f","name:ss":"I-Arabhiya","name:ba":"\u0421\u04d9\u0493\u04af\u0434 \u0492\u04d9\u0440\u04d9\u0431\u0441\u0442\u0430\u043d\u044b","name:sq":"Arabia Saudite","name:jv":"Arab Saudi","name:pt":"Ar\u00e1bia Saudita","name:ps":"\u0633\u0639\u0648\u062f\u064a \u0639\u0631\u0628\u0633\u062a\u0627\u0646","name:oc":"Arabia Saudita","min_zoom":8.0,"name:ro":"Arabia Saudit\u0103","name:pa":"\u0a38\u0a09\u0a26\u0a40 \u0a05\u0a30\u0a2c","name:os":"\u0421\u0430\u0443\u0434\u044b \u0410\u0440\u0430\u0432\u0438","name:or":"\u0b38\u0b3e\u0b09\u0b26\u0b3f \u0b06\u0b30\u0b2c","name:pl":"Arabia Saudyjska","sort_rank":262,"name:sr":"\u0421\u0430\u0443\u0434\u0438\u0458\u0441\u043a\u0430 \u0410\u0440\u0430\u0431\u0438\u0458\u0430","osm_relation":true,"name:tr":"Suudi Arabistan","name:hi":"\u0938\u0909\u0926\u0940 \u0905\u0930\u092c","name:sv":"Saudiarabien","name:he":"\u05e2\u05e8\u05d1 \u05d4\u05e1\u05e2\u05d5\u05d3\u05d9\u05ea","name:hy":"\u054d\u0561\u0578\u0582\u0564\u0575\u0561\u0576 \u0531\u0580\u0561\u0562\u056b\u0561","name:ht":"Arabi Sawoudit","name:hu":"Sza\u00fad-Ar\u00e1bia","name:hr":"Saudijska Arabija","kind":"country","name:yi":"\u05e1\u05d0\u05d5\u05d3\u05d9 \u05d0\u05e8\u05d0\u05d1\u05d9\u05e2","name:yo":"S\u00e1\u00fad\u00ed Ar\u00e1b\u00ed\u00e0","name:mt":"Arabja Sawdija","alt_name:eo":"Sauda Arabio;Saud-Arabujo;Saud-Arabio","name:ms":"Arab Saudi","name:mr":"\u0938\u094c\u0926\u0940 \u0905\u0930\u0947\u092c\u093f\u092f\u093e","name:my":"\u1006\u1031\u102c\u103a\u1012\u102e\u1021\u102c\u101b\u1031\u1017\u103b\u1014\u102d\u102f\u1004\u103a\u1004\u1036","official_name":"\u200f\u0627\u0644\u0645\u0645\u0644\u0643\u0629 \u0627\u0644\u0639\u0631\u0628\u064a\u0629 \u0627\u0644\u0633\u0639\u0648\u062f\u064a\u0629\u200e","name:vi":"\u1ea2 R\u1eadp Saudi","name:ml":"\u0d38\u0d57\u0d26\u0d3f \u0d05\u0d31\u0d47\u0d2c\u0d4d\u0d2f","name:mn":"\u0421\u0430\u0443\u0434\u044b\u043d \u0410\u0440\u0430\u0431","id":-307584,"name:mk":"\u0421\u0430\u0443\u0434\u0438\u0441\u043a\u0430 \u0410\u0440\u0430\u0431\u0438\u0458\u0430","name:vo":"Sauda-Larab\u00e4n","name:fa":"\u0639\u0631\u0628\u0633\u062a\u0627\u0646 \u0633\u0639\u0648\u062f\u06cc","name:fi":"Saudi-Arabia","name:fo":"Saudi-Arabia","alt_name:vi":"\u1ea2 R\u1eadp X\u00ea \u00dat;A-r\u1eadp X\u00ea-\u00fat","name:fr":"Arabie saoudite","name:fy":"Sa\u00fbdy-Araabje","name:nl":"Saoedi-Arabi\u00eb","name:nn":"Saudi-Arabia","name:no":"Saudi-Arabia","name:na":"Taudiarabiya","name:ne":"\u0938\u093e\u0909\u0926\u0940 \u0905\u0930\u092c","name:wo":"Araabi Sawdit","name:nv":"\u00c1s\u00e1\u00ed Bik\u00e9yah Sa\u02bcood\u00ed","name:ga":"An Araib Sh\u00e1dach","name:gd":"Ar\u00e0ibia nan Sabhd","name:gn":"Aravia Saud\u00edta","name:gl":"Arabia Saud\u00ed","maritime_boundary":true,"name:gv":"Yn Araab Saudi","name:gu":"\u0ab8\u0abe\u0a89\u0aa6\u0ac0 \u0a85\u0ab0\u0ac7\u0aac\u0abf\u0aaf\u0abe"},"arcs":[0]},{"type":"LineString","properties":{"name:kg":"Sudan","name:ka":"\u10e1\u10e3\u10d3\u10d0\u10dc\u10d8","name:ko":"\uc218\ub2e8","name:cv":"\u0421\u0443\u0434\u0430\u043d","name:cs":"S\u00fad\u00e1n","name:ki":"S\u0169dana","name:kw":"Soudan","name:tk":"Sudan","name:ku":"S\u00fbdan","name:ti":"\u1231\u12f3\u1295","name:tl":"Sudan","name:ce":"\u0421\u0443\u0434\u0430\u043d","name:ta":"\u0b9a\u0bc2\u0b9f\u0bbe\u0ba9\u0bcd","name:tg":"\u0421\u0443\u0434\u043e\u043d","name:ca":"Sudan","name:te":"\u0c38\u0c42\u0c21\u0c3e\u0c28\u0c4d","name:cy":"Sudan","name:qu":"Sudan","name:da":"Sudan","name:de":"Sudan","source":"openstreetmap.org","name:kn":"\u0cb8\u0cc1\u0ca1\u0cbe\u0ca8\u0ccd","name:dv":"\u0790\u07ab\u078b\u07a7\u0782\u07b0","name:lv":"Sud\u0101na","name:lt":"Sudanas","name:uz":"Sudan","name:kk":"\u0421\u0443\u0434\u0430\u043d","name:ur":"\u0633\u0648\u0688\u0627\u0646","name:lb":"Sudan","name:la":"Sudania","name:tt":"\u0421\u0443\u0434\u0430\u043d","name:uk":"\u0421\u0443\u0434\u0430\u043d","name:ug":"\u0633\u06c7\u062f\u0627\u0646","name:li":"Soedan","name:ln":"Sudani","name:el":"\u03a3\u03bf\u03c5\u03b4\u03ac\u03bd","name:eo":"Sudano","name:en":"Sudan","name":"\u0627\u0644\u0633\u0648\u062f\u0627\u0646","name:ee":"Sudan","name:th":"\u0e1b\u0e23\u0e30\u0e40\u0e17\u0e28\u0e0b\u0e39\u0e14\u0e32\u0e19","name:eu":"Sudan","name:et":"Sudaan","name:es":"Sud\u00e1n","name:ia":"Sudan","name:rm":"Sudan","name:az":"Sudan","name:ie":"Sudan","name:id":"Sudan","name:ig":"Sudan","name:zh-min-nan":"Sudan","name:io":"Sudan","name:ak":"Sudan","name:am":"\u1231\u12f3\u1295","name:it":"Sudan","name:an":"Sud\u00e1n","name:ru":"\u0421\u0443\u0434\u0430\u043d","name:rw":"Sudani","name:af":"Soedan","kind_detail":"2","name:ky":"\u0421\u0443\u0434\u0430\u043d","name:zh-yue":"\u8607\u4e39","name:zh":"\u82cf\u4e39\u5171\u548c\u56fd","name:so":"Suudaan","name:sn":"Sudan","name:sm":"Sudan","name:sl":"Sudan","name:sk":"Sud\u00e1n","name:ja":"\u30b9\u30fc\u30c0\u30f3","name:sh":"Sudan","name:sg":"Sud\u00e4an","name:se":"Sudan","name:sc":"Sudan","name:br":"Soudan","name:bs":"Sudan","name:bm":"Sudan","name:bn":"\u09b8\u09c1\u09a6\u09be\u09a8","name:bo":"\u0f66\u0f74\u0f60\u0f74\u0f0b\u0f4f\u0f53\u0f0d","name:sa":"\u0938\u0942\u0921\u093e\u0928","name:sw":"Sudan","name:be":"\u0421\u0443\u0434\u0430\u043d","name:su":"Sudan","name:bg":"\u0421\u0443\u0434\u0430\u043d","name:ss":"ISudani","name:ba":"\u0421\u0443\u0434\u0430\u043d","name:sq":"Sudani","name:jv":"Sudan","name:pt":"Sud\u00e3o","name:ps":"\u0633\u0648\u0689\u0627\u0646","name:om":"Sudaan","name:oc":"Sodan","min_zoom":8.0,"name:ro":"Sudan","name:pa":"\u0a38\u0a41\u0a21\u0a3e\u0a28","name:os":"\u0421\u0443\u0434\u0430\u043d","name:or":"\u0b38\u0b41\u0b26\u0b3e\u0b28","name:pl":"Sudan","sort_rank":262,"name:sr":"\u0421\u0443\u0434\u0430\u043d","osm_relation":true,"name:tr":"Sudan","name:hi":"\u0938\u0942\u0921\u093e\u0928","name:sv":"Sudan","name:he":"\u05e1\u05d5\u05d3\u05d0\u05df","name:ha":"Sudan","name:hy":"\u054d\u0578\u0582\u0564\u0561\u0576","name:ht":"Soudan","name:hu":"Szud\u00e1n","name:hr":"Sudan","kind":"country","name:ts":"Sudan","name:is":"S\u00fadan","name:yi":"\u05e1\u05d5\u05d3\u05d0\u05df","name:yo":"Sudan","name:mt":"Sudan","name:ms":"Sudan","name:mr":"\u0938\u0941\u0926\u093e\u0928","name:my":"\u1006\u1030\u1012\u1014\u103a\u1014\u102d\u102f\u1004\u103a\u1004\u1036","int_name":"Sudan","name:vi":"Sudan","name:ml":"\u0d38\u0d41\u0d21\u0d3e\u0d7b","name:mn":"\u0421\u0443\u0434\u0430\u043d","id":-192789,"name:mk":"\u0421\u0443\u0434\u0430\u043d","name:vo":"Sud\u00e4n","name:fa":"\u0633\u0648\u062f\u0627\u0646","name:fi":"Sudan","name:fo":"Sudan","alt_name:vi":"Xu-\u0111\u0103ng","name:fr":"Soudan","name:fy":"S\u00fbdan","name:nl":"Soedan","name:nn":"Sudan","name:no":"Sudan","name:na":"Tudan","name:ny":"Sudan","name:wo":"Sudaan","name:nv":"Sood\u0105\u0301\u0105","name:ga":"An tS\u00fad\u00e1in","name:gd":"Sudan","name:gn":"Sudano","name:gl":"Sud\u00e1n","maritime_boundary":true,"name:gv":"Yn Toodaan","name:gu":"\u0ab8\u0ac1\u0aa6\u0abe\u0aa8"},"arcs":[1]},{"type":"LineString","properties":{"kind":"region","name:en":"Red Sea State","name":"\u0648\u0644\u0627\u064a\u0629 \u0627\u0644\u0628\u062d\u0631 \u0627\u0644\u0623\u062d\u0645\u0631","sort_rank":256,"kind_detail":"4","min_zoom":8.0,"name:de":"Rotes Meer","source":"openstreetmap.org","maritime_boundary":true,"int_name":"Al Ba\u1e29r al A\u1e29mar","name:ru":"\u041a\u0440\u0430\u0441\u043d\u043e\u0435 \u041c\u043e\u0440\u0435","id":-3774672,"osm_relation":true},"arcs":[2]}]},"roads":{"type":"GeometryCollection","geometries":[{"type":"LineString","properties":{"source":"openstreetmap.org","kind":"ferry","name:en":"Jeddah - Suakin","name":"\u062c\u062f\u0629 - \u0633\u0648\u0627\u0643\u064a\u0646","sort_rank":355,"min_zoom":8.0},"arcs":[4]}]},"earth":{"type":"GeometryCollection","geometries":[]},"landuse":{"type":"GeometryCollection","geometries":[]}},"type":"Topology","transform":{"translate":[37.96875,19.3111433551],"scale":[0.0003433228,0.0003226662]},"arcs":[[[3255,4096],[553,-1299],[288,-428]],[[1195,0],[-147,185],[-162,100],[-249,49],[-187,-30],[-42,165],[-135,200],[-201,133],[-72,14]],[[1195,0],[-147,185],[-162,100],[-249,49],[-187,-30],[-42,165],[-135,200],[-201,133],[-72,14]],[[4096,4096],[0,-4096],[-4096,0],[0,4096],[4096,0]],[[1631,4096],[-1631,-2388]]]}