{"objects":{"water":{"type":"GeometryCollection","geometries":[{"type":"Polygon","properties":{"source":"naturalearthdata.com","kind":"lake","name":"Lake Koka","area":169033808,"sort_rank":200,"min_zoom":0.0,"id":685},"arcs":[[15]]},{"type":"MultiLineString","properties":{"source":"naturalearthdata.com","kind":"lake","sort_rank":367,"boundary":true,"min_zoom":0.0,"id":685},"arcs":[[16],[17]]}]},"buildings":{"type":"GeometryCollection","geometries":[]},"places":{"type":"GeometryCollection","geometries":[{"type":"Point","properties":{"kind":"region","name:en":"Addis Abeba","name":"\u12a3\u12f2\u1235 \u12a3\u1260\u1263","name:lt":"Adis Abeba","kind_detail":"state","min_zoom":4.0,"source":"openstreetmap.org","name:fr":"Addis-Abeba","name:uk":"\u0410\u0434\u0434\u0438\u0441-\u0410\u0431\u0435\u0431\u0430","name:ru":"\u0410\u0434\u0434\u0438\u0441-\u0410\u0431\u0435\u0431\u0430","id":321732075,"population":3147000},"coordinates":[2276,1749]},{"type":"Point","properties":{"name:pt":"Adis Abeba","name:ka":"\u10d0\u10d3\u10d8\u10e1-\u10d0\u10d1\u10d4\u10d1\u10d0","name:ko":"\uc544\ub514\uc2a4\uc544\ubc14\ubc14","name:kn":"\u0c85\u0ca1\u0cbf\u0cb8\u0ccd \u0c85\u0cac\u0cbe\u0cac","name:cs":"Addis Abeba","name:th":"\u0e41\u0e2d\u0e14\u0e14\u0e34\u0e2a\u0e2d\u0e32\u0e1a\u0e32\u0e1a\u0e32","name:ro":"Addis Abeba","name:tl":"Adis Abeba","name:pa":"\u0a06\u0a26\u0a3f\u0a38 \u0a06\u0a2c\u0a2c\u0a3e","name:os":"\u0410\u0434\u0434\u0438\u0441-\u0410\u0431\u0435\u0431\u00e6","name:pl":"Addis Abeba","name:ta":"\u0b85\u0b9f\u0bbf\u0bb8\u0bcd \u0b85\u0baa\u0bbe\u0baa\u0bbe","name:tg":"\u0410\u0434\u0434\u0438\u0441-\u0410\u0431\u0435\u0431\u0430","name:ca":"Addis Abeba","name:om":"Finfinne","name:qu":"Adis Ababa","name:de":"Addis Abeba","source":"openstreetmap.org","admin_level":"2","name:lv":"Adisabeba","name:lt":"Adis Abeba","name:sv":"Addis Abeba","name:he":"\u05d0\u05d3\u05d9\u05e1 \u05d0\u05d1\u05d1\u05d4","min_zoom":8.0,"name:eo":"Adis-Abebo","name:ur":"\u0627\u062f\u06cc\u0633 \u0627\u0628\u0627\u0628\u0627","name:lb":"Addis Abeba","name:la":"Neanthopolis","name:uk":"\u0410\u0434\u0434\u0438\u0441-\u0410\u0431\u0435\u0431\u0430","name:hy":"\u0531\u0564\u056b\u057d \u0531\u0562\u0565\u0562\u0561","country_capital":true,"name:ht":"Adis-Abeba","name:hu":"Addisz-Abeba","name:hr":"Adis Abeba","name:oc":"Addis Abeba","population":3500000,"name:el":"\u0391\u03bd\u03c4\u03af\u03c2 \u0391\u03bc\u03c0\u03ad\u03bc\u03c0\u03b1","kind":"locality","name:en":"Addis Ababa","name":"\u12a0\u12f2\u1235 \u12a0\u1260\u1263","name:ku":"Add\u00ees Ababa","name:eu":"Addis Abeba","name:et":"Addis Abeba","name:nl":"Addis Abeba","name:es":"Ad\u00eds Abeba","name:rm":"Addis Abeba","name:az":"\u018fddis-\u018fb\u0259b\u0259","name:ie":"Addis Abeba","name:mr":"\u0905\u0926\u093f\u0938 \u0905\u092c\u093e\u092c\u093e","name:ar":"\u0623\u062f\u064a\u0633 \u0623\u0628\u0627\u0628\u0627","name:my":"\u1021\u102c\u1012\u1005\u103a \u1021\u102c\u1018\u102c\u1018\u102c\u1019\u103c\u102d\u102f\u1037","name:mg":"Addis Abeba","name:it":"Addis Abeba","name:an":"Addis Abeba","name:ml":"\u0d05\u0d21\u0d3f\u0d38\u0d4d \u0d05\u0d2c\u0d46\u0d2c","name:mn":"\u0410\u0434\u0434\u0438\u0441-\u0410\u0431\u0435\u0431\u0430","id":27565076,"name:mk":"\u0410\u0434\u0438\u0441 \u0410\u0431\u0435\u0431\u0430","name:af":"Addis Abeba","name:fa":"\u0622\u062f\u06cc\u0633 \u0622\u0628\u0627\u0628\u0627","kind_detail":"city","name:sh":"Adis Abeba","name:fr":"Addis-Abeba","name:ky":"\u0410\u0434\u0434\u0438\u0441-\u0410\u0431\u0435\u0431\u0430","name:fy":"Addis Abeba","name:zh":"\u4e9e\u7684\u65af\u4e9e\u8c9d\u5df4","name:so":"Addis Abeba","name:sl":"Adis Abeba","name:sk":"Addis Abeba","name:ja":"\u30a2\u30c7\u30a3\u30b9\u30a2\u30d9\u30d0","name:nn":"Addis Abeba","name:no":"Addis Abeba","name:br":"Addis Abeba","name:bs":"Adis Abeba","name:bn":"\u0986\u09a6\u09cd\u09a6\u09bf\u09b8 \u0986\u09ac\u09be\u09ac\u09be","name:bo":"\u0f68\u0f0b\u0f4c\u0f72\u0f0b\u0f66\u0f72\u0f0b\u0f68\u0f0b\u0f56\u0f0b\u0f56\u0f0d","name:ru":"\u0410\u0434\u0434\u0438\u0441-\u0410\u0431\u0435\u0431\u0430","name:be":"\u0410\u0434\u044b\u0441-\u0410\u0431\u0435\u0431\u0430","name:bg":"\u0410\u0434\u0438\u0441 \u0410\u0431\u0435\u0431\u0430","name:wo":"Addis-Abeba","name:sr":"\u0410\u0434\u0438\u0441 \u0410\u0431\u0435\u0431\u0430","name:sq":"Addis Abeba","name:ga":"Adas Ababa","name:gl":"Ad\u00eds Abeba - \u12a0\u12f2\u1235 \u12a0\u1260\u1263","name:fi":"Addis Abeba"},"coordinates":[2308,1781]},{"type":"Point","properties":{"admin_level":"8","name:om":"Adaama","name:ar":"\u0623\u062f\u0627\u0645\u0627","min_zoom":8.0,"name:am":"\u12a3\u12f3\u121b","name:uk":"\u0410\u0434\u0430\u043c\u0430","old_name":"Nazret","name:ru":"\u0410\u0434\u0430\u043c\u0430","name:lt":"Nazretas","id":237498687,"population":228623,"kind":"locality","name:en":"Adama","name":"\u12a3\u12f3\u121b \/ Adama","kind_detail":"city","old_name:ru":"\u041d\u0430\u0437\u0440\u0435\u0442","source":"openstreetmap.org"},"coordinates":[3792,395]},{"type":"Point","properties":{"source":"openstreetmap.org","kind":"locality","name":"Fiche","kind_detail":"town","population":27493,"min_zoom":8.0,"id":2082499580},"coordinates":[2243,4026]},{"type":"Point","properties":{"source":"openstreetmap.org","kind":"locality","name":"Derba","kind_detail":"town","population":2188,"min_zoom":8.0,"id":1150961406},"coordinates":[1984,3027]}]},"transit":{"type":"GeometryCollection","geometries":[{"type":"LineString","properties":{"kind":"train","name:en":"Addis Ababa \u2013 Djibouti Railway","name":"Addis Ababa \u2013 Djibouti Railway \u0627\u0644\u0633\u0643\u0643 \u0627\u0644\u062d\u062f\u064a\u062f\u064a\u0629 \u0623\u062f\u064a\u0633 \u0623\u0628\u0627\u0628\u0627 - \u062c\u064a\u0628\u0648\u062a\u064a","sort_rank":275,"name:ar":"\u0627\u0644\u0633\u0643\u0643 \u0627\u0644\u062d\u062f\u064a\u062f\u064a\u0629 \u0623\u062f\u064a\u0633 \u0623\u0628\u0627\u0628\u0627 - \u062c\u064a\u0628\u0648\u062a\u064a","source":"openstreetmap.org","min_zoom":6.0,"operator":"China Railway Group","name:zh":"\u4e9a\u5409\u94c1\u8def","osm_relation":true},"arcs":[14]}]},"pois":{"type":"GeometryCollection","geometries":[]},"boundaries":{"type":"GeometryCollection","geometries":[{"type":"MultiLineString","properties":{"name:left:ar":"\u0627\u0644\u0623\u0645\u0645 \u0627\u0644\u062c\u0646\u0648\u0628\u064a\u0629","name:right:uk":"\u041e\u0440\u043e\u043c\u0456\u044f","id:right":-1707656,"name:left:uk":"\u041d\u0430\u0440\u043e\u0434\u0456\u0432 \u043f\u0456\u0432\u0434\u043d\u044f","min_zoom":8.0,"name:left:ru":"\u041d\u0430\u0440\u043e\u0434\u043e\u0432 \u044e\u0433\u0430","name:right:ru":"\u041e\u0440\u043e\u043c\u0438\u044f","id":-1707657,"osm_relation":true,"name:right":"Oromia","kind":"region","name":"Southern Nations - Oromia","source":"openstreetmap.org","sort_rank":256,"kind_detail":"4","name:left:de":"S\u00fcdliche Nationen","name:left:pl":"Narodowo\u015bci i Lud\u00f3w Po\u0142udnia","name:left:fr":"Nations du Sud","name:right:ar":"\u0623\u0648\u0631\u0648\u0645\u064a\u0627","id:left":-1707657,"name:left:es":"Pueblos del Sur","name:left":"Southern Nations"},"arcs":[[0],[1],[2]]},{"type":"MultiLineString","properties":{"name:right:fr":"Amhara","name:left:ar":"\u0623\u0648\u0631\u0648\u0645\u064a\u0627","name:right:uk":"\u0410\u043c\u0445\u0430\u0440\u0430","name:right:ru":"\u0410\u043c\u0445\u0430\u0440\u0430","name:left:uk":"\u041e\u0440\u043e\u043c\u0456\u044f","min_zoom":8.0,"name:left:ru":"\u041e\u0440\u043e\u043c\u0438\u044f","id:right":-1707264,"id":-1707656,"osm_relation":true,"name:right":"\u12a0\u121b\u122b","kind":"region","name":"Oromia - \u12a0\u121b\u122b","sort_rank":256,"kind_detail":"4","name:right:en":"Amhara","source":"openstreetmap.org","id:left":-1707656,"name:left":"Oromia"},"arcs":[[3],[4],[5],[6],[7],[8],[9]]},{"type":"MultiLineString","properties":{"kind":"region","name":"Oromia","sort_rank":256,"kind_detail":"4","name:ar":"\u0623\u0648\u0631\u0648\u0645\u064a\u0627","source":"openstreetmap.org","min_zoom":8.0,"name:uk":"\u041e\u0440\u043e\u043c\u0456\u044f","name:ru":"\u041e\u0440\u043e\u043c\u0438\u044f","id":-1707656,"osm_relation":true},"arcs":[[10],[11]]},{"type":"MultiLineString","properties":{"kind":"region","name":"Oromia","sort_rank":256,"kind_detail":"4","name:ar":"\u0623\u0648\u0631\u0648\u0645\u064a\u0627","source":"openstreetmap.org","min_zoom":8.0,"name:uk":"\u041e\u0440\u043e\u043c\u0456\u044f","name:ru":"\u041e\u0440\u043e\u043c\u0438\u044f","id":-1707656,"osm_relation":true},"arcs":[[12],[13]]}]},"roads":{"type":"GeometryCollection","geometries":[{"type":"MultiLineString","properties":{"source":"openstreetmap.org","kind":"major_road","name:am":"\u1230\u1219\u1275\u1235 \u1218\u1295\u1308\u12f5","landuse_kind":"urban_area","sort_rank":380,"kind_detail":"primary","min_zoom":8.0},"arcs":[[18],[19]]},{"type":"MultiLineString","properties":{"source":"openstreetmap.org","kind":"major_road","name:am":"\u134d\u1245\u1228 \u121b\u122a\u12eb\u121d \u1218\u1295\u1308\u12f5","landuse_kind":"urban_area","sort_rank":380,"kind_detail":"primary","min_zoom":8.0},"arcs":[[20],[21]]},{"type":"MultiLineString","properties":{"source":"openstreetmap.org","kind":"major_road","name:am":"\u12f0\u1303\/\u127d \u12d8\u12cd\u12f1 \u12a0\u1263 \u12ae\u122b\u1295 \u1218\u1295\u1308\u12f5","landuse_kind":"urban_area","sort_rank":380,"kind_detail":"primary","min_zoom":8.0},"arcs":[[22],[23]]},{"type":"MultiLineString","properties":{"kind":"major_road","network":null,"sort_rank":381,"kind_detail":"trunk","source":"openstreetmap.org","min_zoom":8.0,"shield_text":"4","ref":"3"},"arcs":[[24],[25],[26]]},{"type":"MultiLineString","properties":{"source":"openstreetmap.org","kind":"major_road","name:am":"\u12f0\u1303\/\u127d \u1260\u120b\u12ed \u12d8\u1208\u1240 \u1218\u1295\u1308\u12f5","landuse_kind":"urban_area","sort_rank":380,"kind_detail":"primary","min_zoom":8.0},"arcs":[[27],[28]]},{"type":"LineString","properties":{"source":"openstreetmap.org","kind":"major_road","name:am":"\u12a1\u1218\u122d \u1230\u1218\u1270\u122d \u1218\u1295\u1308\u12f5","landuse_kind":"urban_area","sort_rank":380,"kind_detail":"primary","min_zoom":8.0},"arcs":[29]},{"type":"MultiLineString","properties":{"source":"openstreetmap.org","kind":"major_road","kind_detail":"trunk","sort_rank":381,"landuse_kind":"urban_area","ref":"4","min_zoom":8.0},"arcs":[[30],[31],[32]]},{"type":"MultiLineString","properties":{"kind":"major_road","sort_rank":380,"kind_detail":"primary","source":"openstreetmap.org","min_zoom":8.0,"name:am":"\u12a0\u121d\u1266 \u1218\u1295\u1308\u12f5 (\u12e8\u12f5\u122e)","landuse_kind":"urban_area","ref":"5"},"arcs":[[33],[34],[35],[36],[37]]},{"type":"MultiLineString","properties":{"source":"openstreetmap.org","kind":"major_road","name:am":"\u130b\u1293 \u1218\u1295\u1308\u12f5","landuse_kind":"urban_area","sort_rank":380,"kind_detail":"primary","min_zoom":8.0},"arcs":[[38],[39]]},{"type":"MultiLineString","properties":{"source":"openstreetmap.org","kind":"major_road","network":null,"sort_rank":380,"kind_detail":"primary","min_zoom":8.0,"shield_text":"4"},"arcs":[[40],[41],[42]]},{"type":"MultiLineString","properties":{"kind":"major_road","sort_rank":380,"kind_detail":"primary","name:ar":"\u0634\u0627\u0631\u0639 \u0645\u0648\u0632\u0627\u0645\u0628\u064a\u0642","source":"openstreetmap.org","min_zoom":8.0,"name:am":"\u121e\u12db\u121d\u1262\u12ad \u1218\u1295\u1308\u12f5","landuse_kind":"urban_area"},"arcs":[[43],[44]]},{"type":"MultiLineString","properties":{"source":"openstreetmap.org","kind":"major_road","kind_detail":"trunk","sort_rank":381,"landuse_kind":"urban_area","ref":"1","min_zoom":8.0},"arcs":[[45],[46]]},{"type":"MultiLineString","properties":{"source":"openstreetmap.org","kind":"highway","landuse_kind":"residential","sort_rank":383,"kind_detail":"motorway","min_zoom":8.0},"arcs":[[47],[48],[49]]},{"type":"MultiLineString","properties":{"source":"openstreetmap.org","kind":"major_road","name:am":"\u12d8\u12cd\u12f2\u1271 \u1218\u1295\u1308\u12f5","landuse_kind":"urban_area","sort_rank":380,"kind_detail":"primary","min_zoom":8.0},"arcs":[[50],[51],[52],[53]]},{"type":"MultiLineString","properties":{"source":"openstreetmap.org","kind":"major_road","name:am":"\u122b\u1235 \u1218\u12ae\u1295\u1295 \u130e\u12f3\u1293","landuse_kind":"urban_area","sort_rank":380,"kind_detail":"primary","min_zoom":8.0},"arcs":[[54],[55],[56],[57],[58],[59]]},{"type":"MultiLineString","properties":{"source":"openstreetmap.org","kind":"major_road","name:am":"\u1218\u12ab\u12a8\u1208\u129b\u12cd \u12a0\u134d\u122a\u12ab \u122a\u1356\u1265\u120a\u12ad \u1218\u1295\u1308\u12f5","landuse_kind":"urban_area","sort_rank":380,"kind_detail":"primary","min_zoom":8.0},"arcs":[[60],[61]]},{"type":"MultiLineString","properties":{"source":"openstreetmap.org","kind":"major_road","name:am":"\u12db\u121d\u1262\u12eb \u1218\u1295\u1308\u12f5","landuse_kind":"urban_area","sort_rank":380,"kind_detail":"primary","min_zoom":8.0},"arcs":[[62],[63]]},{"type":"MultiLineString","properties":{"kind":"major_road","network":null,"sort_rank":380,"kind_detail":"primary","source":"openstreetmap.org","min_zoom":8.0,"shield_text":"4","ref":"4"},"arcs":[[64],[65],[66],[67],[68]]},{"type":"MultiLineString","properties":{"source":"openstreetmap.org","kind":"major_road","name:am":"\u12a0\u120c\u12ad\u1233\u1295\u12f0\u122d \u1351\u123d\u12aa\u1295 \u1218\u1295\u1308\u12f5","landuse_kind":"urban_area","sort_rank":380,"kind_detail":"primary","min_zoom":8.0},"arcs":[[69],[70]]},{"type":"LineString","properties":{"source":"openstreetmap.org","kind":"major_road","landuse_kind":"urban_area","sort_rank":380,"kind_detail":"primary","ref":"5","min_zoom":8.0},"arcs":[71]},{"type":"LineString","properties":{"source":"openstreetmap.org","kind":"major_road","name:am":"\u1238\u12cb\u1228\u1308\u12f5 \u1308\u12f5\u120c \u1218\u1295\u1308\u12f5","kind_detail":"primary","sort_rank":380,"landuse_kind":"urban_area","min_zoom":8.0},"arcs":[72]},{"type":"MultiLineString","properties":{"source":"openstreetmap.org","kind":"major_road","name:am":"\u12a2\u12b3\u1276\u122a\u12eb\u120d \u130a\u1292 \u1218\u1295\u1308\u12f5","landuse_kind":"urban_area","sort_rank":380,"kind_detail":"primary","min_zoom":8.0},"arcs":[[73],[74]]},{"type":"LineString","properties":{"kind":"major_road","sort_rank":380,"kind_detail":"primary","source":"openstreetmap.org","min_zoom":8.0,"name:am":"\u12a0\u121d\u1266 \u1218\u1295\u1308\u12f5 (\u12e8\u12f5\u122e)","ref":"5","id":534605744},"arcs":[75]},{"type":"MultiLineString","properties":{"source":"openstreetmap.org","kind":"major_road","sort_rank":381,"kind_detail":"trunk","ref":"5","min_zoom":8.0},"arcs":[[76],[77]]},{"type":"MultiLineString","properties":{"source":"openstreetmap.org","kind":"major_road","name:am":"\u1283\u12ed\u120c \u1308\/\u1225\u120b\u1234 \u130e\u12f3\u1293","landuse_kind":"urban_area","sort_rank":380,"kind_detail":"primary","min_zoom":8.0},"arcs":[[78],[79],[80],[81],[82]]},{"type":"LineString","properties":{"source":"openstreetmap.org","kind":"major_road","sort_rank":381,"kind_detail":"trunk","ref":"4","min_zoom":8.0},"arcs":[83]},{"type":"MultiLineString","properties":{"source":"openstreetmap.org","kind":"major_road","name:am":"\u1240\u1290\u1292\u1233 \u1218\u1295\u1308\u12f5","landuse_kind":"urban_area","sort_rank":380,"kind_detail":"primary","min_zoom":8.0},"arcs":[[84],[85]]},{"type":"MultiLineString","properties":{"source":"openstreetmap.org","kind":"major_road","name:am":"\u1306\u121e \u12ac\u1292\u12eb\u1273 \u130e\u12f3\u1293","landuse_kind":"urban_area","sort_rank":380,"kind_detail":"primary","min_zoom":8.0},"arcs":[[86],[87]]},{"type":"MultiLineString","properties":{"sort_rank":381,"source":"openstreetmap.org","min_zoom":8.0,"kind":"major_road","kind_detail":"trunk"},"arcs":[[88],[89],[90],[91],[92],[93]]},{"type":"MultiLineString","properties":{"source":"openstreetmap.org","kind":"major_road","landuse_kind":"urban_area","sort_rank":380,"kind_detail":"primary","ref":"7","min_zoom":8.0},"arcs":[[94],[95],[96],[97]]},{"type":"MultiLineString","properties":{"source":"openstreetmap.org","kind":"major_road","name:am":"\u1278\u122d\u127d\u120d \u130e\u12f3\u1293","landuse_kind":"urban_area","sort_rank":380,"kind_detail":"primary","min_zoom":8.0},"arcs":[[98],[99],[100],[101]]},{"type":"LineString","properties":{"kind":"major_road","name:en":"Jomo Kenyatta Avenue","sort_rank":380,"landuse_kind":"urban_area","source":"openstreetmap.org","min_zoom":8.0,"kind_detail":"primary","id":323827125},"arcs":[102]},{"type":"MultiLineString","properties":{"source":"openstreetmap.org","kind":"major_road","name:am":"\u1270\u1230\u121b \u12a0\u1263\u1240\u121b\u12cd \u1218\u1295\u1308\u12f5","landuse_kind":"urban_area","sort_rank":380,"kind_detail":"primary","min_zoom":8.0},"arcs":[[103],[104],[105],[106],[107],[108],[109]]},{"type":"LineString","properties":{"source":"openstreetmap.org","kind":"major_road","name:am":"\u12a0\u120c\u12ad\u1233\u1295\u12f0\u122d \u1351\u123d\u12aa\u1295 \u12a0\u12f0\u1263\u1263\u12ed","landuse_kind":"urban_area","sort_rank":380,"kind_detail":"primary","min_zoom":8.0},"arcs":[110]},{"type":"LineString","properties":{"kind":"major_road","sort_rank":380,"landuse_kind":"urban_area","source":"openstreetmap.org","min_zoom":8.0,"name:am":"\u12ab\u122d\u120d \u12a0\u12f0\u1263\u1263\u12ed","kind_detail":"primary","id":44679059},"arcs":[111]},{"type":"MultiLineString","properties":{"source":"openstreetmap.org","kind":"major_road","name:am":"\u1240\u1208\u1260\u1275 \u1218\u1295\u1308\u12f5","kind_detail":"trunk","sort_rank":381,"landuse_kind":"urban_area","min_zoom":8.0},"arcs":[[112],[113],[114],[115],[116],[117],[118],[119],[120],[121],[122],[123],[124],[125],[126],[127],[128],[129],[130],[131],[132],[133],[134],[135],[136],[137],[138],[139],[140],[141],[142],[143]]},{"type":"MultiLineString","properties":{"source":"openstreetmap.org","kind":"major_road","name:am":"\u12ee\u1203\u1295\u1235 \u1218\u1295\u1308\u12f5","landuse_kind":"urban_area","sort_rank":380,"kind_detail":"primary","min_zoom":8.0},"arcs":[[144],[145]]},{"type":"LineString","properties":{"source":"openstreetmap.org","kind":"major_road","name:am":"\u12e8 \u1305\u121b \u1218\u1295\u1308\u12f5","sort_rank":380,"kind_detail":"primary","ref":"7","min_zoom":8.0},"arcs":[146]},{"type":"MultiLineString","properties":{"source":"openstreetmap.org","kind":"major_road","name:am":"\u1295\u130d\u1235\u1275 \u12a4\u120d\u1233\u1264\u1325 \u1218\u1295\u1308\u12f5","landuse_kind":"urban_area","sort_rank":380,"kind_detail":"primary","min_zoom":8.0},"arcs":[[147],[148]]},{"type":"MultiLineString","properties":{"source":"openstreetmap.org","kind":"major_road","landuse_kind":"urban_area","sort_rank":380,"kind_detail":"primary","ref":"1","min_zoom":8.0},"arcs":[[149],[150],[151],[152],[153]]},{"type":"LineString","properties":{"source":"openstreetmap.org","kind":"major_road","sort_rank":380,"kind_detail":"primary","ref":"1","min_zoom":8.0},"arcs":[154]},{"type":"MultiLineString","properties":{"source":"openstreetmap.org","kind":"major_road","landuse_kind":"urban_area","sort_rank":380,"kind_detail":"primary","min_zoom":8.0},"arcs":[[155],[156],[157],[158],[159],[160],[161],[162],[163],[164],[165],[166],[167],[168],[169],[170],[171],[172],[173],[174],[175],[176],[177],[178],[179],[180],[181],[182],[183],[184],[185],[186],[187],[188],[189],[190],[191],[192],[193],[194],[195],[196],[197],[198],[199],[200],[201],[202],[203],[204],[205],[206],[207],[208],[209],[210],[211],[212],[213],[214],[215],[216],[217],[218],[219],[220],[221],[222],[223],[224],[225],[226],[227],[228],[229],[230],[231],[232],[233],[234],[235],[236],[237],[238],[239],[240],[241],[242],[243],[244],[245],[246],[247],[248],[249],[250],[251],[252],[253],[254],[255],[256],[257],[258],[259],[260],[261],[262],[263],[264],[265],[266],[267],[268],[269],[270],[271],[272],[273],[274],[275],[276],[277],[278],[279],[280],[281],[282],[283],[284],[285],[286],[287],[288],[289],[290],[291],[292],[293],[294],[295],[296],[297],[298],[299],[300],[301],[302],[303],[304],[305],[306],[307],[308],[309],[310],[311],[312],[313],[314],[315],[316],[317],[318],[319],[320],[321],[322],[323],[324],[325],[326],[327],[328],[329],[330],[331],[332],[333],[334],[335],[336],[337],[338],[339],[340],[341],[342],[343],[344],[345],[346],[347],[348],[349],[350],[351],[352],[353],[354],[355],[356],[357],[358],[359],[360],[361],[362],[363],[364],[365],[366],[367],[368],[369],[370],[371],[372],[373],[374],[375],[376],[377],[378],[379],[380],[381],[382],[383],[384],[385],[386],[387],[388],[389],[390],[391],[392],[393],[394],[395],[396],[397],[398],[399],[400],[401],[402],[403],[404],[405],[406],[407],[408],[409],[410],[411],[412],[413],[414],[415],[416],[417],[418],[419],[420],[421],[422],[423],[424],[425],[426],[427],[428],[429],[430],[431],[432],[433],[434],[435],[436],[437],[438],[439],[440],[441],[442],[443],[444],[445],[446],[447],[448],[449],[450],[451],[452],[453],[454],[455],[456],[457],[458],[459],[460],[461],[462],[463],[464],[465],[466],[467],[468],[469],[470],[471],[472],[473],[474],[475],[476],[477],[478],[479],[480],[481],[482],[483],[484],[485],[486],[487],[488],[489],[490],[491],[492],[493],[494],[495],[496],[497],[498],[499],[500],[501],[502],[503],[504],[505],[506],[507],[508],[509],[510],[511],[512],[513],[514],[515],[516],[517],[518],[519],[520],[521],[522],[523],[524],[525],[526],[527],[528],[529],[530],[531],[532],[533],[534],[535],[536],[537],[538],[539],[540],[541],[542],[543],[544],[545],[546],[547],[548],[549],[550],[551],[552],[553],[554],[555],[556],[557],[558],[559],[560],[561],[562],[563],[564],[565],[566]]},{"type":"MultiLineString","properties":{"kind":"major_road","network":null,"sort_rank":380,"kind_detail":"primary","source":"openstreetmap.org","min_zoom":8.0,"landuse_kind":"urban_area","shield_text":"4","ref":"4"},"arcs":[[567],[568],[569],[570],[571],[572],[573]]},{"type":"MultiLineString","properties":{"source":"openstreetmap.org","kind":"major_road","name:am":"\u1234\u122b\u120a\u12ee\u1295 \u1218\u1295\u1308\u12f5","landuse_kind":"urban_area","sort_rank":380,"kind_detail":"primary","min_zoom":8.0},"arcs":[[574],[575]]},{"type":"MultiLineString","properties":{"kind":"major_road","network":null,"sort_rank":380,"kind_detail":"primary","source":"openstreetmap.org","min_zoom":8.0,"name:am":"\u1271\u1292\u12da\u12eb \u1218\u1295\u1308\u12f5","landuse_kind":"urban_area","shield_text":"4"},"arcs":[[576],[577],[578]]},{"type":"MultiLineString","properties":{"source":"openstreetmap.org","kind":"highway","landuse_kind":"urban_area","sort_rank":383,"kind_detail":"motorway","min_zoom":8.0},"arcs":[[579],[580],[581],[582],[583],[584],[585],[586],[587],[588],[589],[590],[591],[592],[593],[594],[595],[596],[597],[598],[599],[600],[601],[602],[603],[604],[605],[606],[607],[608]]},{"type":"LineString","properties":{"source":"openstreetmap.org","kind":"major_road","sort_rank":380,"kind_detail":"primary","ref":"5","min_zoom":8.0,"id":538207255},"arcs":[609]},{"type":"LineString","properties":{"kind":"major_road","sort_rank":380,"landuse_kind":"urban_area","source":"openstreetmap.org","min_zoom":8.0,"name:am":"\u12f3\u12eb\u1235\u1356\u122b \u12a0\u12f0\u1263\u1263\u12ed","kind_detail":"primary","id":25012139},"arcs":[610]},{"type":"LineString","properties":{"kind":"major_road","sort_rank":380,"landuse_kind":"urban_area","source":"openstreetmap.org","min_zoom":8.0,"name:am":"\u1325\u120b\u1201\u1295 \u1308\u1230\u1230 \u12a0\u12f0\u1263\u1263\u12ed","kind_detail":"primary","id":161021880},"arcs":[611]},{"type":"MultiLineString","properties":{"source":"openstreetmap.org","kind":"major_road","name:am":"\u130d\u1265\u1345 \u1218\u1295\u1308\u12f5","landuse_kind":"urban_area","sort_rank":380,"kind_detail":"primary","min_zoom":8.0},"arcs":[[612],[613]]},{"type":"LineString","properties":{"kind":"major_road","sort_rank":380,"landuse_kind":"urban_area","source":"openstreetmap.org","min_zoom":8.0,"name:am":"\u121b\u12ed\u1328\u12cd \u12a0\u12f0\u1263\u1263\u12ed","kind_detail":"primary","id":25006926},"arcs":[614]},{"type":"MultiLineString","properties":{"source":"openstreetmap.org","kind":"major_road","landuse_kind":"residential","sort_rank":380,"kind_detail":"primary","ref":"8","min_zoom":8.0},"arcs":[[615],[616]]},{"type":"MultiLineString","properties":{"source":"openstreetmap.org","kind":"major_road","name:am":"\u1234\u1294\u130b\u120d \u1218\u1295\u1308\u12f5","landuse_kind":"urban_area","sort_rank":380,"kind_detail":"primary","min_zoom":8.0},"arcs":[[617],[618]]},{"type":"MultiLineString","properties":{"source":"openstreetmap.org","kind":"major_road","name:am":"\u1295\u1309\u1235 \u1306\u122d\u1305 \u1218\u1295\u1308\u12f5","landuse_kind":"urban_area","sort_rank":380,"kind_detail":"primary","min_zoom":8.0},"arcs":[[619],[620]]},{"type":"MultiLineString","properties":{"source":"openstreetmap.org","kind":"major_road","name:am":"\u134a\u1273\u12cd\u122b\u122a \u1308\u1260\u12e8\u1201 \u1218\u1295\u1308\u12f5","landuse_kind":"urban_area","sort_rank":380,"kind_detail":"primary","min_zoom":8.0},"arcs":[[621],[622]]},{"type":"MultiLineString","properties":{"source":"openstreetmap.org","kind":"major_road","landuse_kind":"residential","sort_rank":380,"kind_detail":"primary","ref":"4","min_zoom":8.0},"arcs":[[623],[624],[625]]},{"type":"MultiLineString","properties":{"source":"openstreetmap.org","kind":"highway","landuse_kind":"residential","sort_rank":383,"kind_detail":"motorway","ref":"4","min_zoom":8.0},"arcs":[[626],[627],[628],[629]]},{"type":"MultiLineString","properties":{"source":"openstreetmap.org","kind":"major_road","name:am":"\u1240\u1208\u1260\u1275 \u1218\u1295\u1308\u12f5","sort_rank":381,"kind_detail":"trunk","min_zoom":8.0},"arcs":[[630],[631],[632],[633]]},{"type":"LineString","properties":{"kind":"major_road","name:en":"Dej Zewdu Aba Koran Street","sort_rank":380,"landuse_kind":"urban_area","source":"openstreetmap.org","min_zoom":8.0,"kind_detail":"primary","id":208713940},"arcs":[634]},{"type":"MultiLineString","properties":{"source":"openstreetmap.org","kind":"major_road","name:am":"\u1260\u12e8\u1290 \u12a0\u1293\u1263 \u1230\u1265\u1235\u1264 \u130e\u12f3\u1293","landuse_kind":"urban_area","sort_rank":380,"kind_detail":"primary","min_zoom":8.0},"arcs":[[635],[636]]},{"type":"MultiLineString","properties":{"source":"openstreetmap.org","kind":"major_road","name:am":"\u120a\u1262\u12eb \u1218\u1295\u1308\u12f5","landuse_kind":"urban_area","sort_rank":380,"kind_detail":"primary","min_zoom":8.0},"arcs":[[637],[638]]},{"type":"MultiLineString","properties":{"sort_rank":380,"kind_detail":"primary","min_zoom":8.0,"kind":"major_road","source":"openstreetmap.org"},"arcs":[[639],[640],[641],[642],[643],[644],[645],[646],[647],[648],[649],[650],[651],[652],[653],[654],[655],[656],[657],[658],[659],[660],[661],[662],[663],[664],[665],[666],[667],[668],[669],[670],[671],[672],[673],[674],[675],[676],[677],[678],[679],[680],[681],[682],[683],[684],[685],[686],[687],[688],[689],[690],[691],[692],[693],[694],[695],[696],[697],[698],[699],[700],[701],[702],[703],[704],[705],[706],[707],[708],[709],[710],[711],[712],[713],[714],[715],[716],[717],[718],[719],[720],[721],[722],[723],[724],[725],[726],[727],[728],[729]]},{"type":"LineString","properties":{"source":"openstreetmap.org","kind":"major_road","name:am":"\u12f0\u1303\/\u127d \u12c8\u120d\u12f0 \u121a\u12ab\u12a4\u120d \u1218\u1295\u1308\u12f5","landuse_kind":"urban_area","sort_rank":380,"kind_detail":"primary","min_zoom":8.0},"arcs":[730]},{"type":"MultiLineString","properties":{"source":"openstreetmap.org","kind":"major_road","sort_rank":380,"kind_detail":"primary","ref":"7","min_zoom":8.0},"arcs":[[731],[732],[733],[734]]},{"type":"LineString","properties":{"source":"openstreetmap.org","kind":"major_road","name:am":"\u134a\u1273\u12cd\u122b\u122a \u1203\u1265\u1270\u130a\u12ee\u122d\u130a\u1235 \u1218\u1295\u1308\u12f5","landuse_kind":"urban_area","sort_rank":380,"kind_detail":"primary","min_zoom":8.0},"arcs":[735]},{"type":"MultiLineString","properties":{"source":"openstreetmap.org","kind":"major_road","name:am":"\u1265\u1229\u1295\u12f2 \u1218\u1295\u1308\u12f5","kind_detail":"primary","sort_rank":380,"landuse_kind":"urban_area","min_zoom":8.0},"arcs":[[736],[737]]},{"type":"MultiLineString","properties":{"kind":"major_road","sort_rank":380,"kind_detail":"primary","name:ar":"\u0634\u0627\u0631\u0639 \u0631\u0623\u0633 \u0644\u0648\u0644\u0633\u064a\u062c\u062f","source":"openstreetmap.org","min_zoom":8.0,"name:am":"\u122b\u1235 \u120d\u12a1\u120d \u1230\u1308\u12f5 \u1218\u1295\u1308\u12f5","landuse_kind":"urban_area"},"arcs":[[738],[739]]},{"type":"LineString","properties":{"kind":"major_road","sort_rank":380,"landuse_kind":"urban_area","source":"openstreetmap.org","min_zoom":8.0,"name:am":"\u12a5\u1295\u1326\u1326 \u1218\u1295\u1308\u12f5","kind_detail":"primary","id":45902057},"arcs":[740]},{"type":"LineString","properties":{"kind":"major_road","name:en":"Ring Road","sort_rank":381,"landuse_kind":"urban_area","source":"openstreetmap.org","min_zoom":8.0,"kind_detail":"trunk","id":162706159},"arcs":[741]},{"type":"MultiLineString","properties":{"source":"openstreetmap.org","kind":"major_road","name:am":"\u12a4\u12f0\u1295  \u1218\u1295\u1308\u12f5","landuse_kind":"urban_area","sort_rank":380,"kind_detail":"primary","min_zoom":8.0},"arcs":[[742],[743]]},{"type":"MultiLineString","properties":{"source":"openstreetmap.org","kind":"major_road","name:am":"\u122b\u1235 \u12a0\u1260\u1260 \u12a0\u1228\u130b\u12ed \u1218\u1295\u1308\u12f5","landuse_kind":"urban_area","sort_rank":380,"kind_detail":"primary","min_zoom":8.0},"arcs":[[744],[745]]},{"type":"MultiLineString","properties":{"source":"openstreetmap.org","kind":"major_road","name:am":"\u12f0\u1303\/\u127d \u1218\u12ae\u1295\u1295 \u12f0\u121d\u1230\u12cd \u1218\u1295\u1308\u12f5","landuse_kind":"urban_area","sort_rank":380,"kind_detail":"primary","min_zoom":8.0},"arcs":[[746],[747]]},{"type":"MultiLineString","properties":{"source":"openstreetmap.org","kind":"major_road","name:am":"\u122e\u12dd\u126c\u120d\u1275 \u1218\u1295\u1308\u12f5","landuse_kind":"urban_area","sort_rank":380,"kind_detail":"primary","min_zoom":8.0},"arcs":[[748],[749]]},{"type":"LineString","properties":{"kind":"major_road","sort_rank":380,"landuse_kind":"urban_area","source":"openstreetmap.org","min_zoom":8.0,"name:am":"\u1302\u1261\u1272 \u1218\u1295\u1308\u12f5","kind_detail":"primary","id":24254866},"arcs":[750]},{"type":"MultiLineString","properties":{"kind":"major_road","sort_rank":380,"kind_detail":"primary","source":"openstreetmap.org","min_zoom":8.0,"name:am":"\u12ab\u121c\u1229\u1295 \u1218\u1295\u1308\u12f5","landuse_kind":"urban_area","loc_name":"Tele-Bole Road"},"arcs":[[751],[752],[753],[754]]},{"type":"LineString","properties":{"kind":"major_road","name:en":"Dej. Hailesilassie Av. \/ Tunisia Av.","sort_rank":380,"landuse_kind":"urban_area","source":"openstreetmap.org","min_zoom":8.0,"kind_detail":"primary","id":24278972},"arcs":[755]},{"type":"MultiLineString","properties":{"source":"openstreetmap.org","kind":"major_road","landuse_kind":"urban_area","sort_rank":380,"kind_detail":"primary","ref":"4","min_zoom":8.0},"arcs":[[756],[757],[758],[759],[760],[761]]},{"type":"MultiLineString","properties":{"source":"openstreetmap.org","kind":"major_road","kind_detail":"trunk","sort_rank":381,"landuse_kind":"urban_area","min_zoom":8.0},"arcs":[[762],[763],[764],[765],[766],[767],[768],[769],[770],[771],[772],[773],[774],[775],[776],[777],[778],[779],[780],[781],[782],[783],[784],[785],[786],[787],[788],[789],[790],[791],[792],[793],[794],[795],[796],[797],[798],[799],[800],[801],[802],[803],[804],[805],[806],[807],[808],[809],[810],[811],[812],[813],[814],[815],[816],[817],[818],[819],[820],[821],[822],[823],[824],[825],[826],[827],[828],[829],[830],[831],[832],[833],[834]]},{"type":"MultiLineString","properties":{"source":"openstreetmap.org","kind":"major_road","name:am":"\u12ae\u121e\u122e\u1235 \u1218\u1295\u1308\u12f5","landuse_kind":"urban_area","sort_rank":380,"kind_detail":"primary","min_zoom":8.0},"arcs":[[835],[836]]},{"type":"LineString","properties":{"source":"openstreetmap.org","kind":"major_road","kind_detail":"trunk","sort_rank":381,"landuse_kind":"urban_area","ref":"5","min_zoom":8.0},"arcs":[837]},{"type":"MultiLineString","properties":{"source":"openstreetmap.org","kind":"major_road","name:am":"\u12a1\u130b\u1295\u12f3 \u1218\u1295\u1308\u12f5","landuse_kind":"urban_area","sort_rank":380,"kind_detail":"primary","min_zoom":8.0},"arcs":[[838],[839]]},{"type":"MultiLineString","properties":{"source":"openstreetmap.org","kind":"major_road","name:am":"\u12f0\u1261\u1265 \u12a0\u134d\u122a\u12ab \u1218\u1295\u1308\u12f5","landuse_kind":"urban_area","sort_rank":380,"kind_detail":"primary","min_zoom":8.0},"arcs":[[840],[841]]},{"type":"MultiLineString","properties":{"source":"openstreetmap.org","kind":"major_road","name:am":"\u121a\u12aa\u120a\u120b\u1295\u12f5 \u1218\u1295\u1308\u12f5","landuse_kind":"urban_area","sort_rank":380,"kind_detail":"primary","min_zoom":8.0},"arcs":[[842],[843]]},{"type":"MultiLineString","properties":{"source":"openstreetmap.org","kind":"major_road","name:am":"\u122b\u123b \u1218\u1295\u1308\u12f5","landuse_kind":"urban_area","sort_rank":380,"kind_detail":"primary","min_zoom":8.0},"arcs":[[844],[845],[846]]},{"type":"LineString","properties":{"kind":"major_road","sort_rank":380,"landuse_kind":"urban_area","source":"openstreetmap.org","min_zoom":8.0,"name:am":"\u1283\u12ed\u1208\u1235\u120b\u1234 \u1218\u1295\u1308\u12f5","kind_detail":"primary","id":44049491},"arcs":[847]},{"type":"MultiLineString","properties":{"source":"openstreetmap.org","kind":"major_road","name:am":"\u12f0\u1265\u122b \u12d8\u12ed\u1275 \u1218\u1295\u1308\u12f5","landuse_kind":"urban_area","sort_rank":380,"kind_detail":"primary","min_zoom":8.0},"arcs":[[848],[849]]},{"type":"LineString","properties":{"kind":"major_road","network":null,"sort_rank":381,"landuse_kind":"urban_area","source":"openstreetmap.org","min_zoom":8.0,"kind_detail":"trunk","shield_text":"4","ref":"3"},"arcs":[850]},{"type":"MultiLineString","properties":{"kind":"major_road","sort_rank":380,"kind_detail":"primary","source":"openstreetmap.org","min_zoom":8.0,"name:am":"\u12e8 \u1305\u121b \u1218\u1295\u1308\u12f5","landuse_kind":"urban_area","ref":"7"},"arcs":[[851],[852],[853]]},{"type":"LineString","properties":{"kind":"major_road","network":null,"sort_rank":381,"kind_detail":"trunk","source":"openstreetmap.org","min_zoom":8.0,"shield_text":"4","ref":"6"},"arcs":[854]},{"type":"MultiLineString","properties":{"source":"openstreetmap.org","kind":"major_road","name:am":"\u12f0\u1303\/\u127d \u1260\u12e8\u1290 \u1218\u122d\u12f5 \u1218\u1295\u1308\u12f5","landuse_kind":"urban_area","sort_rank":380,"kind_detail":"primary","min_zoom":8.0},"arcs":[[855],[856]]},{"type":"MultiLineString","properties":{"source":"openstreetmap.org","kind":"major_road","name:am":"\u1264\u1292\u1295 \u1218\u1295\u1308\u12f5","landuse_kind":"urban_area","sort_rank":380,"kind_detail":"primary","min_zoom":8.0},"arcs":[[857],[858]]},{"type":"LineString","properties":{"kind":"highway","network":null,"sort_rank":383,"kind_detail":"motorway","source":"openstreetmap.org","min_zoom":8.0,"all_networks":[null],"shield_text":"4","id":242865133,"all_shield_texts":["4"]},"arcs":[859]},{"type":"MultiLineString","properties":{"source":"openstreetmap.org","kind":"major_road","landuse_kind":"residential","sort_rank":380,"kind_detail":"primary","min_zoom":8.0},"arcs":[[860],[861],[862],[863],[864],[865],[866],[867],[868],[869],[870],[871],[872],[873],[874]]},{"type":"MultiLineString","properties":{"sort_rank":383,"kind_detail":"motorway","min_zoom":8.0,"kind":"highway","source":"openstreetmap.org"},"arcs":[[875],[876],[877],[878],[879],[880],[881],[882],[883],[884],[885],[886],[887]]},{"type":"MultiLineString","properties":{"kind":"major_road","sort_rank":380,"kind_detail":"primary","name:ar":"\u0634\u0627\u0631\u0639 \u0631\u0648\u0632\u0641\u0644\u062a","source":"openstreetmap.org","min_zoom":8.0,"name:am":"\u122e\u12dd\u126c\u120d\u1275 \u1218\u1295\u1308\u12f5","landuse_kind":"urban_area"},"arcs":[[888],[889]]},{"type":"MultiLineString","properties":{"source":"openstreetmap.org","kind":"major_road","name:am":"\u130a\u1292 \u12ae\u1293\u12ad\u122c \u1218\u1295\u1308\u12f5","landuse_kind":"urban_area","sort_rank":380,"kind_detail":"primary","min_zoom":8.0},"arcs":[[890],[891]]},{"type":"MultiLineString","properties":{"source":"openstreetmap.org","kind":"major_road","name:am":"\u1260\u1240\u1208 \u12c8\u12eb \u1218\u1295\u1308\u12f5","landuse_kind":"urban_area","sort_rank":380,"kind_detail":"primary","min_zoom":8.0},"arcs":[[892],[893]]},{"type":"MultiLineString","properties":{"source":"openstreetmap.org","kind":"major_road","name:am":"\u1273\u1295\u12db\u1292\u12eb \u1218\u1295\u1308\u12f5","landuse_kind":"urban_area","sort_rank":380,"kind_detail":"primary","min_zoom":8.0},"arcs":[[894],[895]]},{"type":"MultiLineString","properties":{"source":"openstreetmap.org","kind":"major_road","name:am":"\u1229\u12cb\u1295\u12f3 \u1218\u1295\u1308\u12f5","landuse_kind":"urban_area","sort_rank":380,"kind_detail":"primary","min_zoom":8.0},"arcs":[[896],[897],[898]]},{"type":"MultiLineString","properties":{"source":"openstreetmap.org","kind":"major_road","name:am":"\u121b\u120a \u1218\u1295\u1308\u12f5","landuse_kind":"urban_area","sort_rank":380,"kind_detail":"primary","min_zoom":8.0},"arcs":[[899],[900]]},{"type":"MultiLineString","properties":{"source":"openstreetmap.org","kind":"major_road","name:am":"\u130b\u1266\u1295 \u1218\u1295\u1308\u12f5","landuse_kind":"urban_area","sort_rank":380,"kind_detail":"primary","min_zoom":8.0},"arcs":[[901],[902],[903],[904],[905],[906]]},{"type":"MultiLineString","properties":{"source":"openstreetmap.org","kind":"major_road","name:am":"\u12f0\u1303\/\u127d \u1263\u120d\u127b \u12a0\u1263 \u1290\u134d\u1236 \u1218\u1295\u1308\u12f5","landuse_kind":"urban_area","sort_rank":380,"kind_detail":"primary","min_zoom":8.0},"arcs":[[907],[908],[909],[910]]},{"type":"LineString","properties":{"kind":"major_road","network":null,"sort_rank":380,"kind_detail":"primary","source":"openstreetmap.org","min_zoom":8.0,"landuse_kind":"residential","shield_text":"4","ref":"4","id":304010420},"arcs":[911]},{"type":"LineString","properties":{"kind":"major_road","sort_rank":380,"kind_detail":"primary","source":"openstreetmap.org","min_zoom":8.0,"name:am":"\u12e8 \u1305\u121b \u1218\u1295\u1308\u12f5","landuse_kind":"residential","ref":"7","id":538207266},"arcs":[912]},{"type":"LineString","properties":{"kind":"major_road","sort_rank":380,"landuse_kind":"residential","source":"openstreetmap.org","min_zoom":8.0,"kind_detail":"primary","ref":"7","id":72873679},"arcs":[913]},{"type":"MultiLineString","properties":{"source":"openstreetmap.org","kind":"major_road","name:am":"\u1292\u1300\u122d \u1218\u1295\u1308\u12f5","landuse_kind":"urban_area","sort_rank":380,"kind_detail":"primary","min_zoom":8.0},"arcs":[[914],[915]]},{"type":"MultiLineString","properties":{"source":"openstreetmap.org","kind":"major_road","name:am":"\u1271\u1292\u12da\u12eb \u1218\u1295\u1308\u12f5","landuse_kind":"urban_area","sort_rank":380,"kind_detail":"primary","min_zoom":8.0},"arcs":[[916],[917]]},{"type":"LineString","properties":{"kind":"major_road","sort_rank":380,"landuse_kind":"urban_area","source":"openstreetmap.org","min_zoom":8.0,"name:am":"\u122b\u1235 \u120d\u12a1\u120d \u1230\u1308\u12f5 \u1218\u1295\u1308\u12f5","kind_detail":"primary","id":104694301},"arcs":[918]},{"type":"LineString","properties":{"kind":"major_road","sort_rank":380,"landuse_kind":"urban_area","source":"openstreetmap.org","min_zoom":8.0,"name:am":"\u12a0\u122d\u1260\u129e\u127d \u12a0\u12f0\u1263\u1263\u12ed","kind_detail":"primary","id":25007642},"arcs":[919]},{"type":"MultiLineString","properties":{"source":"openstreetmap.org","kind":"major_road","name:am":"\u12ab\u1292\u1295\u130d\u1203\u121d \u1218\u1295\u1308\u12f5","landuse_kind":"urban_area","sort_rank":380,"kind_detail":"primary","min_zoom":8.0},"arcs":[[920],[921],[922]]},{"type":"LineString","properties":{"kind":"major_road","sort_rank":380,"landuse_kind":"urban_area","source":"openstreetmap.org","min_zoom":8.0,"name:am":"\u121e\u122a\u1273\u1292\u12eb \u1218\u1295\u1308\u12f5","kind_detail":"primary","id":8104558},"arcs":[923]},{"type":"MultiLineString","properties":{"source":"openstreetmap.org","kind":"major_road","name:am":"\u12a2\u1275\u12ee \u127b\u12ed\u1293 \u1218\u1295\u1308\u12f5","landuse_kind":"urban_area","sort_rank":380,"kind_detail":"primary","min_zoom":8.0},"arcs":[[924],[925],[926],[927]]},{"type":"MultiLineString","properties":{"source":"openstreetmap.org","kind":"major_road","name:am":"\u130b\u121d\u1262\u12eb \u1218\u1295\u1308\u12f5","landuse_kind":"urban_area","sort_rank":380,"kind_detail":"primary","min_zoom":8.0},"arcs":[[928],[929]]},{"type":"LineString","properties":{"kind":"major_road","sort_rank":381,"landuse_kind":"urban_area","source":"openstreetmap.org","min_zoom":8.0,"kind_detail":"trunk","ref":"6","id":406491645},"arcs":[930]},{"type":"LineString","properties":{"kind":"major_road","sort_rank":380,"landuse_kind":"urban_area","source":"openstreetmap.org","min_zoom":8.0,"name:am":"\u12a0\u1261\u1290 \u1334\u1325\u122e\u1235","kind_detail":"primary","id":22337876},"arcs":[931]},{"type":"LineString","properties":{"kind":"major_road","sort_rank":380,"kind_detail":"primary","is_bicycle_related":true,"source":"openstreetmap.org","min_zoom":8.0,"name:am":"\u1274\u12ce\u12f5\u122e\u1235 \u12a0\u12f0\u1263\u1263\u12ed","landuse_kind":"urban_area","id":22337887},"arcs":[932]},{"type":"MultiLineString","properties":{"source":"openstreetmap.org","kind":"major_road","name:am":"\u12c8\u1302 \u12f5\u120d\u12f5\u12ed","sort_rank":380,"kind_detail":"primary","min_zoom":8.0},"arcs":[[933],[934]]},{"type":"MultiLineString","properties":{"source":"openstreetmap.org","kind":"major_road","name:am":"\u12a0\u120d\u1304\u122a\u12eb \u1218\u1295\u1308\u12f5","landuse_kind":"urban_area","sort_rank":380,"kind_detail":"primary","min_zoom":8.0},"arcs":[[935],[936]]},{"type":"MultiLineString","properties":{"source":"openstreetmap.org","kind":"major_road","name:am":"\u121e\u122a\u1238\u1235 \u1218\u1295\u1308\u12f5","landuse_kind":"urban_area","sort_rank":380,"kind_detail":"primary","min_zoom":8.0},"arcs":[[937],[938]]},{"type":"MultiLineString","properties":{"source":"openstreetmap.org","kind":"major_road","name:am":"\u12ac\u1355 \u1268\u122d\u12f4 \u1218\u1295\u1308\u12f5","landuse_kind":"urban_area","sort_rank":380,"kind_detail":"primary","min_zoom":8.0},"arcs":[[939],[940]]},{"type":"LineString","properties":{"kind":"major_road","network":null,"sort_rank":381,"landuse_kind":"urban_area","source":"openstreetmap.org","min_zoom":8.0,"kind_detail":"trunk","shield_text":"4"},"arcs":[941]},{"type":"MultiLineString","properties":{"source":"openstreetmap.org","kind":"major_road","name:am":"\u12f3\u130d\u121b\u12ca \u121d\u1292\u120a\u12ad \u1218\u1295\u1308\u12f5","landuse_kind":"urban_area","sort_rank":380,"kind_detail":"primary","min_zoom":8.0},"arcs":[[942],[943],[944],[945]]},{"type":"MultiLineString","properties":{"source":"openstreetmap.org","kind":"major_road","name:am":"\u12ae\u1275 \u12f2\u126f\u122d \u1218\u1295\u1308\u12f5","landuse_kind":"urban_area","sort_rank":380,"kind_detail":"primary","min_zoom":8.0},"arcs":[[946],[947],[948]]},{"type":"MultiLineString","properties":{"source":"openstreetmap.org","kind":"major_road","sort_rank":381,"kind_detail":"trunk","ref":"1","min_zoom":8.0},"arcs":[[949],[950]]},{"type":"LineString","properties":{"kind":"major_road","network":null,"sort_rank":381,"kind_detail":"trunk","source":"openstreetmap.org","min_zoom":8.0,"landuse_kind":"urban_area","shield_text":"4","ref":"6","id":165401395},"arcs":[951]},{"type":"LineString","properties":{"source":"openstreetmap.org","kind":"major_road","sort_rank":380,"kind_detail":"primary","ref":"9","min_zoom":8.0},"arcs":[952]},{"type":"MultiLineString","properties":{"kind":"major_road","sort_rank":380,"kind_detail":"primary","name:ar":"\u0634\u0627\u0631\u0639 \u0628\u064a\u0646 \u0645\u064a\u0631\u064a\u062f","source":"openstreetmap.org","min_zoom":8.0,"name:am":"\u1260\u12e8\u1290 \u1218\u122d\u12f5 \u1218\u1295\u1308\u12f5","landuse_kind":"urban_area"},"arcs":[[953],[954]]},{"type":"LineString","properties":{"source":"openstreetmap.org","kind":"major_road","sort_rank":380,"kind_detail":"primary","ref":"8","min_zoom":8.0,"id":109020887},"arcs":[955]},{"type":"MultiLineString","properties":{"source":"openstreetmap.org","kind":"major_road","name:am":"\u1235\u12ca\u12d8\u122d\u120b\u1295\u12f5 \u1218\u1295\u1308\u12f5","landuse_kind":"urban_area","sort_rank":380,"kind_detail":"primary","min_zoom":8.0},"arcs":[[956],[957],[958],[959]]},{"type":"LineString","properties":{"source":"openstreetmap.org","kind":"major_road","name:am":"\u1306\u1234\u134d \u1272\u1276 \u1218\u1295\u1308\u12f5","landuse_kind":"urban_area","sort_rank":380,"kind_detail":"primary","min_zoom":8.0},"arcs":[960]},{"type":"MultiLineString","properties":{"source":"openstreetmap.org","kind":"major_road","name:am":"\u127b\u12f5 \u1218\u1295\u1308\u12f5","landuse_kind":"urban_area","sort_rank":380,"kind_detail":"primary","min_zoom":8.0},"arcs":[[961],[962],[963],[964]]},{"type":"MultiLineString","properties":{"source":"openstreetmap.org","kind":"major_road","name:am":"\u122b\u1235 \u12f0\u1235\u1273 \u12f3\u121d\u1320\u12cd \u1218\u1295\u1308\u12f5","landuse_kind":"urban_area","sort_rank":380,"kind_detail":"primary","min_zoom":8.0},"arcs":[[965],[966]]},{"type":"MultiLineString","properties":{"source":"openstreetmap.org","kind":"major_road","name:am":"\u12a0\u122d\u1260\u129e\u127d \u1218\u1295\u1308\u12f5","landuse_kind":"urban_area","sort_rank":380,"kind_detail":"primary","min_zoom":8.0},"arcs":[[967],[968],[969],[970]]},{"type":"MultiLineString","properties":{"source":"openstreetmap.org","kind":"major_road","name:am":"\u1231\u12f3\u1295 \u1218\u1295\u1308\u12f5","landuse_kind":"urban_area","sort_rank":380,"kind_detail":"primary","min_zoom":8.0},"arcs":[[971],[972]]},{"type":"LineString","properties":{"source":"openstreetmap.org","kind":"major_road","sort_rank":380,"kind_detail":"primary","ref":"4","min_zoom":8.0},"arcs":[973]},{"type":"MultiLineString","properties":{"source":"openstreetmap.org","kind":"major_road","name:am":"\u12eb\u122c\u12f5 \u1218\u1295\u1308\u12f5","landuse_kind":"urban_area","sort_rank":380,"kind_detail":"primary","min_zoom":8.0},"arcs":[[974],[975]]},{"type":"MultiLineString","properties":{"source":"openstreetmap.org","kind":"major_road","name:am":"\u130e\u1260\u1293 \u12a0\u1263 \u1325\u1309 \u1218\u1295\u1308\u12f5","landuse_kind":"urban_area","sort_rank":380,"kind_detail":"primary","min_zoom":8.0},"arcs":[[976],[977]]},{"type":"MultiLineString","properties":{"source":"openstreetmap.org","kind":"highway","sort_rank":383,"kind_detail":"motorway","ref":"4","min_zoom":8.0},"arcs":[[978],[979],[980],[981],[982],[983],[984]]},{"type":"LineString","properties":{"kind":"major_road","sort_rank":380,"landuse_kind":"urban_area","source":"openstreetmap.org","min_zoom":8.0,"name:am":"\u12a0\u12f5\u12cb \u12a0\u12f0\u1263\u1263\u12ed","kind_detail":"primary","id":24282984},"arcs":[985]},{"type":"MultiLineString","properties":{"source":"openstreetmap.org","kind":"highway","landuse_kind":"urban_area","sort_rank":383,"kind_detail":"motorway","ref":"4","min_zoom":8.0},"arcs":[[986],[987],[988],[989],[990],[991],[992],[993],[994]]},{"type":"MultiLineString","properties":{"kind":"major_road","sort_rank":380,"kind_detail":"primary","source":"openstreetmap.org","min_zoom":8.0,"name:am":"\u12a0\u134d\u122a\u12ab \u130e\u12f3\u1293","landuse_kind":"urban_area","loc_name":"Bole Road"},"arcs":[[995],[996],[997]]},{"type":"LineString","properties":{"kind":"major_road","name:en":"Djibouti Street","sort_rank":380,"landuse_kind":"urban_area","source":"openstreetmap.org","min_zoom":8.0,"kind_detail":"primary","id":422900174},"arcs":[998]},{"type":"MultiLineString","properties":{"source":"openstreetmap.org","kind":"major_road","name:am":"\u1232\u1238\u120d\u1235 \u1218\u1295\u1308\u12f5","kind_detail":"primary","sort_rank":380,"landuse_kind":"urban_area","min_zoom":8.0},"arcs":[[999],[1000]]}]},"earth":{"type":"GeometryCollection","geometries":[{"type":"Polygon","properties":{"sort_rank":10,"source":"naturalearthdata.com","min_zoom":0.0,"kind":"earth","area":98022885885},"arcs":[[1001]]}]},"landuse":{"type":"GeometryCollection","geometries":[{"type":"MultiPolygon","properties":{"source":"openstreetmap.org","kind":"residential","tier":2,"area":54662053,"sort_rank":20,"min_zoom":8.0},"arcs":[[[1002]],[[1003]]]},{"type":"MultiPolygon","properties":{"source":"naturalearthdata.com","kind":"urban_area","name":"","area":1128773011,"sort_rank":11,"min_zoom":4.0},"arcs":[[[1004]],[[1005]],[[1006]],[[1007]],[[1008]],[[1009]],[[1010]],[[1011]],[[1012]],[[1013]],[[1014]],[[1015]],[[1016]]]},{"type":"Polygon","properties":{"kind":"residential","name":"Nazret","name:om":"Adaama","area":32568200,"sort_rank":20,"source":"openstreetmap.org","min_zoom":8.0,"tier":2,"id":-7098959,"osm_relation":true},"arcs":[[1017],[1018]]}]}},"type":"Topology","transform":{"translate":[37.96875,8.4071681636],"scale":[0.0003433228,0.0003389916]},"arcs":[[[588,0],[-16,16],[-122,-16]],[[890,0],[-191,0]],[[1981,0],[-86,79],[-75,-15],[-39,54],[-147,39],[-74,-40],[-68,10],[-45,-127]],[[4070,4096],[-70,-20],[6,-28],[51,-3],[-19,-44],[-89,22],[-86,-59],[-26,-54],[-57,21],[-42,-97],[-48,-11],[-32,-68],[-35,-11],[20,-28],[-36,-103],[-62,-27],[4,-29],[-60,-47],[5,-34],[-72,3],[-3,-78],[-87,41],[-52,-25],[2,-24],[-40,-2],[-16,33],[-41,8],[22,99],[-68,22],[48,54],[0,36],[42,25],[9,119],[-157,39],[-38,36],[-4,67],[-100,72],[-72,-70],[28,-92],[-73,62],[-84,-55],[-118,72],[-100,92],[-27,86]],[[4096,1027],[-92,75],[-40,-123],[-22,-14],[-26,42],[-48,233],[-60,118],[-3,214],[5,53],[130,180],[156,307]],[[4096,2126],[-74,121],[-168,24],[-32,28],[-86,240],[-2,155],[22,31],[41,-22],[84,-96],[70,59],[145,-45]],[[4096,3070],[0,15]],[[4096,3137],[-102,20],[-77,-26],[-61,83],[51,33],[-26,49],[35,45],[48,-36],[29,61],[43,13],[32,-19],[28,60]],[[4096,3470],[0,10]],[[4096,3489],[0,16]],[[2075,1500],[0,47]],[[2075,1592],[-76,147],[7,50],[34,10],[35,76]],[[2075,1875],[58,112],[122,13],[79,39],[75,-69],[66,65],[27,-61],[149,21],[89,-233],[-12,-125],[-32,-44],[16,-28],[-122,23],[48,-218],[-130,0],[-9,-82],[-39,-30],[-96,7],[-5,35],[-91,72],[-6,44],[-52,12],[-19,35],[-40,-23],[-39,54],[-37,6]],[[2075,1547],[0,45]],[[4096,610],[-195,-171],[-39,-122],[-39,-32],[-234,38],[-80,-43],[-87,111],[-30,216],[-128,113],[-27,83],[-218,331],[-277,20],[-39,71],[-247,21],[-185,105],[-108,-42],[-12,37],[43,46],[-15,104],[-36,41],[-93,20],[-165,-95],[-78,-17],[-84,20]],[[3325,204],[52,1],[34,-22],[0,-33],[-51,-150],[-233,0],[8,3],[28,35],[41,96],[31,36],[37,19],[53,15]],[[3325,204],[52,1],[34,-22],[0,-33],[-51,-150]],[[3127,0],[8,3],[28,35],[41,96],[31,36],[37,19],[53,15]],[[2213,1785],[-20,-1]],[[2193,1783],[21,1]],[[2387,1835],[37,-23]],[[2425,1813],[-38,22]],[[2255,1868],[-12,-18]],[[2244,1850],[3,4]],[[2240,4026],[-160,70]],[[1660,4096],[-29,-45],[-177,-30],[-93,75]],[[2640,3091],[15,42],[-23,239],[-36,117],[-122,185],[27,82],[-30,146],[-34,-9],[-60,52]],[[2260,1898],[22,-38]],[[2271,1880],[-6,11],[-5,7]],[[2256,1849],[11,-5]],[[2317,1519]],[[2319,1554],[3,2]],[[3910,424],[43,40]],[[2098,1959],[-56,20],[-29,-37]],[[2098,1959],[70,-42]],[[2169,1917],[-71,42]],[[2169,1916],[23,-14]],[[2192,1902],[-22,14]],[[2347,1781],[16,-21]],[[2364,1760],[-16,21]],[[2430,1325],[0,-3]],[[2431,1320],[3,-2]],[[2708,1148],[2,-2]],[[2264,1779],[3,-30]],[[2268,1749],[-3,30]],[[3437,2316],[-70,-81],[-56,1]],[[3437,2317],[21,23]],[[3011,1115],[-9,22]],[[3761,294]],[[3832,286],[-10,-1]],[[2318,1814],[17,-10]],[[2335,1805],[-17,9]],[[2335,1800],[12,-18]],[[2348,1782],[-13,19]],[[2270,1781],[-8,-1]],[[2262,1780],[-2,0]],[[2260,1779],[10,1]],[[2302,1783],[-40,-3]],[[2262,1780],[-1,0]],[[2261,1779],[41,3]],[[2223,1849],[3,-15]],[[2226,1835],[-2,14]],[[2268,1811],[14,1]],[[2282,1812],[-14,-1]],[[2430,1325],[1,-3]],[[2432,1321],[6,-5]],[[2565,1254],[95,-47],[48,-59]],[[2710,1146],[103,-80]],[[2997,963],[307,-374]],[[2243,1732],[20,-21],[9,-6]],[[2274,1705],[-31,27]],[[2172,1848],[-65,4]],[[2355,1852],[-10,10]],[[2425,1807],[-43,-12]],[[2386,1796],[39,10]],[[2013,1942],[-40,-8],[-33,40],[-54,-8],[-28,-39]],[[0,1689],[130,-24],[345,170],[271,-37],[40,-35],[342,55]],[[1269,1888],[307,77],[134,-54],[109,49],[95,-99],[81,-36],[54,8]],[[2354,1785],[-12,-6]],[[2354,1785],[-6,-3]],[[2348,1781],[6,3]],[[2382,1795],[-28,-10]],[[2354,1784],[32,12]],[[3953,464],[143,134]],[[2366,1817],[59,-10]],[[2425,1807],[-59,11]],[[2325,1780],[-1,0]],[[2324,1780],[17,-2]],[[2050,1832],[13,-22]],[[2063,1812],[-13,19]],[[2064,1809],[-1,-24]],[[2064,1787],[1,22]],[[2049,1833],[2,-1]],[[2065,1810],[1,2],[-3,0],[0,-2],[2,0]],[[21,403],[-21,-95]],[[72,466],[-41,-50]],[[933,992],[-96,-106]],[[1787,1432],[-206,-122]],[[2277,1845],[3,-15]],[[2281,1830],[-1,15]],[[2280,1828],[3,-28]],[[2283,1800],[-2,28]],[[2347,1781],[-22,-1]],[[2251,1849]],[[2251,1849],[5,-15]],[[2256,1834],[-5,15]],[[2257,1832],[6,-37]],[[2271,1788],[-14,44]],[[2264,1795],[11,-11]],[[2278,1783],[-7,5]],[[2241,1732],[1,-1],[1,3],[-1,0],[-1,-2]],[[2219,1742],[0,-1],[1,1],[-1,0]],[[2154,1711],[-32,-12]],[[2224,1644],[-102,54]],[[2123,1698],[32,13]],[[2179,1728],[-24,-16]],[[2155,1711],[24,16]],[[2170,1917],[0,1]],[[2170,1918],[0,1]],[[2170,1919],[3,13]],[[2209,1944],[-29,8],[-9,-32],[-1,-1]],[[2170,1919],[-2,-4],[11,-187]],[[2180,1728],[9,48]],[[2190,1779],[1,8],[-19,61],[-4,67],[2,3]],[[2170,1918],[1,2],[9,32],[29,-9]],[[2194,1657],[30,-13]],[[2225,1643],[-1,-32],[3,-10]],[[2227,1600],[-1,43]],[[2232,1562],[64,-17]],[[2296,1545],[-64,20]],[[2321,1674],[3,-32]],[[2325,1642],[-4,32]],[[2324,1642],[7,-55]],[[2332,1587],[-7,55]],[[2325,1638],[3,-24]],[[2328,1614],[3,-24]],[[2331,1590],[-3,24]],[[2328,1614],[-1,8]],[[2331,1586],[6,-12]],[[2337,1574],[-5,12]],[[2421,1756],[-17,-36]],[[2404,1720],[17,35]],[[2421,1756],[9,39],[-3,9]],[[2427,1804],[3,-9]],[[2283,1799],[32,0]],[[2315,1799],[-17,2],[-15,-1]],[[2086,1685],[-29,-27]],[[2315,1845],[40,6]],[[2355,1851],[-40,-5]],[[2649,1917],[-45,-45]],[[2609,1869],[40,47]],[[2726,1982],[-76,-64]],[[2650,1918],[-1,-2],[1,-1],[2,1],[-2,2]],[[2652,1917],[75,65]],[[2727,1982],[14,13],[-15,-13]],[[2113,1760],[-35,2],[-11,-5],[-3,-4]],[[2064,1753],[49,7]],[[2080,1808],[52,-7]],[[2132,1801],[1,0]],[[2133,1802],[-52,7]],[[2113,1759],[-15,-34]],[[2099,1725],[14,34]],[[2113,1760],[0,-1],[0,1]],[[2133,1800]],[[2133,1800],[-3,-5]],[[2130,1795],[0,-1]],[[2130,1794],[-17,-34]],[[2114,1760],[35,3]],[[2149,1763],[2,0]],[[2151,1763],[33,3]],[[2129,1795],[1,-1]],[[2130,1794]],[[2130,1794],[9,-1]],[[2139,1793],[27,-5]],[[2166,1788],[3,0],[1,-1],[22,-4]],[[2192,1784],[-22,3],[-1,1],[-3,0]],[[2166,1788],[-6,1],[-21,4]],[[2139,1793],[-8,2]],[[2131,1795],[-1,0]],[[2130,1795],[-1,0]],[[2132,1801]],[[2132,1801],[1,-1]],[[2133,1800]],[[2133,1793]],[[2184,1766],[-33,-3]],[[2151,1763],[-2,0]],[[2149,1763],[-35,-3],[-1,0],[17,34]],[[2130,1794],[1,1]],[[2131,1795],[3,5]],[[2182,1798],[-48,4]],[[2136,1800],[47,-3]],[[2149,1764],[0,-1]],[[2149,1763]],[[2149,1763],[5,-52]],[[2150,1703],[44,-18]],[[2194,1686],[-44,17]],[[2155,1712],[-4,51]],[[2151,1763]],[[2151,1763],[0,1]],[[2163,1789],[0,1]],[[2172,1848],[7,12]],[[2176,1787],[0,1]],[[2194,1685],[-11,-44]],[[2184,1641],[11,44]],[[2186,1785]],[[2187,1647],[1,-1]],[[2197,1715],[-11,-16],[1,-3],[7,-10]],[[2195,1685],[2,30]],[[2198,1715],[31,-18]],[[2229,1698],[-31,17]],[[2215,1938],[14,-5]],[[2228,1935],[-12,3]],[[2219,1742]],[[2220,1742],[9,40]],[[2229,1782],[1,1]],[[2230,1783],[0,1]],[[2222,1802]],[[2223,1671]],[[2229,1697],[-4,-52]],[[2226,1645],[4,52]],[[2272,1679],[-46,-35]],[[2226,1644],[5,4],[41,31]],[[2246,1749],[-18,11]],[[2228,1760],[17,-11]],[[2229,1697],[1,1],[-1,0],[0,-1]],[[2251,1609],[-21,-12]],[[2231,1597],[20,12]],[[2232,1933],[5,1]],[[2233,1815],[-1,-11]],[[2232,1803],[1,13]],[[2237,1934],[6,1]],[[2241,1726],[1,6]],[[2242,1729],[2,0]],[[2246,1749],[-1,-1],[1,0],[0,1]],[[2246,1748],[23,-16]],[[2270,1732],[-23,17]],[[2251,1664]],[[2257,1620],[-6,-11]],[[2274,1627],[-17,-7]],[[2257,1620],[17,4],[1,3],[-1,0]],[[2260,1797]],[[2260,1798]],[[2263,1795],[-3,-8]],[[2260,1786],[4,9]],[[2294,1586],[-33,-27]],[[2262,1559],[24,21],[16,19]],[[2302,1599],[1,1],[0,1],[12,10]],[[2263,1798],[1,-1]],[[2266,1679]],[[2274,1705],[-2,4]],[[2276,1704],[-4,-24]],[[2273,1680],[3,24]],[[2275,1847]],[[2281,1855],[-6,-1]],[[2275,1853],[6,1]],[[2282,1853],[-6,-7]],[[2291,1883],[-15,0]],[[2276,1850],[0,-1]],[[2277,1883],[12,-1],[2,1]],[[2279,1703],[0,-1]],[[2281,1813],[0,-1]],[[2282,1859],[0,-3]],[[2283,1802],[-1,-2]],[[2287,1845],[-5,8]],[[2283,1856],[-1,3]],[[2283,1845],[0,1]],[[2284,1784]],[[2284,1783],[1,0]],[[2285,1784],[0,1]],[[2285,1700]],[[2287,1801],[0,-1]],[[2289,1799],[1,1]],[[2292,1883],[15,-5]],[[2308,1879],[-16,4]],[[2315,1611],[-9,-3],[-4,-7],[1,-1],[-1,-1]],[[2302,1599],[-3,-10],[-5,-3]],[[2294,1586]],[[2297,1695],[2,-2]],[[2299,1589]],[[2299,1693],[4,-6]],[[2299,1693],[1,0],[1,1]],[[2301,1694],[2,10]],[[2303,1704],[1,2],[0,1]],[[2312,1692],[-6,0]],[[2306,1692],[-1,0]],[[2305,1692],[-1,1]],[[2304,1693],[-3,1]],[[2301,1694],[-1,0]],[[2302,1782],[-1,-11]],[[2303,1783]],[[2303,1783],[-1,0],[0,-1]],[[2302,1782],[1,0]],[[2302,1771],[1,11]],[[2302,1783],[1,0]],[[2303,1783]],[[2303,1783],[0,-1]],[[2303,1782]],[[2308,1694],[-2,-2]],[[2306,1692],[-1,0]],[[2305,1692],[-1,-1]],[[2304,1691],[-2,-1],[1,-3]],[[2303,1687],[0,-5]],[[2303,1782],[0,1]],[[2303,1783]],[[2312,1781],[-9,2]],[[2303,1782]],[[2303,1782],[9,-1]],[[2304,1712],[0,-5],[-1,-3]],[[2303,1704],[0,-3],[1,-5],[0,-3]],[[2304,1693],[0,-2]],[[2304,1691],[-1,-7]],[[2304,1681],[0,7],[1,4]],[[2305,1692]],[[2305,1692],[0,1],[-1,19]],[[2308,1934],[34,42]],[[2309,1930]],[[2312,1877]],[[2313,1787],[-1,-6]],[[2312,1781]],[[2313,1781],[-1,0]],[[2312,1781],[1,0]],[[2313,1781],[0,6]],[[2313,1781]],[[2324,1780],[-11,1]],[[2313,1781],[11,-1]],[[2314,1802],[0,-3]],[[2317,1799],[-2,2]],[[2318,1814],[0,1]],[[2330,1586],[-7,-1]],[[2331,1587],[-1,-1]],[[2330,1586],[1,0]],[[2352,1818],[-14,-9]],[[2338,1809],[-2,-1]],[[2336,1808],[2,1]],[[2338,1809],[14,8]],[[2341,1778],[1,1]],[[2342,1779],[5,2]],[[2341,1778],[1,1]],[[2342,1779],[5,2]],[[2347,1781],[1,0]],[[2348,1781],[5,3]],[[2343,1735],[11,-8]],[[2343,1703]],[[2348,1692],[-4,7]],[[2344,1862],[11,-11]],[[2354,1784]],[[2354,1715]],[[2359,1727],[-1,-8]],[[2359,1727],[-1,-7]],[[2359,1720],[2,7]],[[2360,1739]],[[2363,1851],[14,-10]],[[2363,1761],[0,-1]],[[2365,1817],[2,-32]],[[2365,1819],[15,20]],[[2366,1772]],[[2368,1787],[0,9],[0,1]],[[2368,1797],[-2,20]],[[2368,1798],[0,-1]],[[2368,1797],[0,-1]],[[2369,1796],[0,2]],[[2373,1791]],[[2375,1385]],[[2384,1796],[-8,-2]],[[2377,1794],[7,1]],[[2426,1326],[-45,61]],[[2389,1797],[-4,-1]],[[2385,1795],[6,2]],[[2386,1752],[-13,41],[13,-41]],[[2421,1756],[-31,9]],[[2390,1765],[31,-9]],[[2403,1719],[-6,-5]],[[2398,1765],[0,1]],[[2398,1712],[5,6]],[[2404,1825],[0,-1]],[[2409,1821],[-3,-10]],[[2406,1811],[2,-20],[1,-3]],[[2409,1788],[0,-1],[15,-10]],[[2424,1777],[2,-1],[4,-2]],[[2430,1774],[6,-3],[12,-7],[4,-2],[4,-1],[13,-1]],[[2469,1760]],[[2406,1811],[3,10]],[[2495,1800],[-20,-31]],[[2475,1769],[-6,-8],[-13,0],[-20,10],[-6,4]],[[2430,1775],[-1,0],[-5,3]],[[2424,1778],[-14,9],[-4,24]],[[2409,1788]],[[2409,1788]],[[2410,1821],[11,-7]],[[2434,1808],[-3,-1]],[[2431,1807],[-15,-3]],[[2416,1804],[11,2]],[[2427,1806],[1,0]],[[2428,1806],[6,1]],[[2434,1807]],[[2421,1756],[40,-23],[0,25]],[[2426,1806],[0,-3],[1,-1]],[[2427,1802],[6,-20],[-3,-7]],[[2430,1775],[0,-1]],[[2430,1774],[-7,-15]],[[2423,1759],[-1,-1]],[[2422,1814],[3,-7]],[[2423,1758],[0,1]],[[2423,1759],[1,18]],[[2424,1777],[0,1]],[[2424,1778],[3,24]],[[2427,1802],[0,4]],[[2427,1806],[1,0]],[[2428,1806],[1,0]],[[2426,1808],[-2,4]],[[2426,1812],[48,7]],[[2474,1819],[-48,-6]],[[2495,1807],[-61,0]],[[2434,1807],[-3,0]],[[2431,1807],[-4,0]],[[2428,1799],[1,7]],[[2429,1806],[67,0]],[[2436,1810],[0,1]],[[2461,1759],[0,-1]],[[2461,1758],[1,1]],[[2469,1761],[0,-1]],[[2469,1760],[21,-21],[10,-9]],[[2469,1760],[6,9]],[[2475,1769],[19,31]],[[2494,1800],[1,3]],[[2495,1803],[3,4]],[[2507,1723],[-38,37]],[[2479,1377],[-6,-39]],[[2474,1337],[6,38]],[[2477,1821],[-3,-1]],[[2474,1820],[0,-1]],[[2474,1819],[0,-1],[1,1]],[[2475,1819],[-1,1]],[[2475,1819],[39,12],[1,1],[93,37]],[[2608,1869],[1,0],[-1,0]],[[2608,1869],[-93,-37],[-1,-1],[-37,-10]],[[2604,1872],[-94,-13],[-33,-38]],[[2478,1378],[0,-1]],[[2483,1804],[1,-1],[10,-3]],[[2494,1800],[1,0]],[[2496,1806],[-1,-3]],[[2495,1803],[0,-3]],[[2495,1800],[25,-16],[5,-1]],[[2525,1783],[5,-1]],[[2530,1782],[1,-1],[41,-3]],[[2572,1778]],[[2572,1778]],[[2572,1778],[-27,3],[-14,0],[-1,1]],[[2530,1782],[-3,0],[-2,1]],[[2525,1783],[-16,13],[-14,4]],[[2496,1806],[2,1]],[[2498,1807],[0,1]],[[2498,1808],[-2,0],[0,-2]],[[2498,1825],[-2,-17]],[[2498,1809],[1,16]],[[2572,1812],[-74,-4]],[[2498,1808],[74,1],[0,-31]],[[2572,1778]],[[2572,1778],[0,-13]],[[2572,1765],[0,-9],[0,-2]],[[2500,1730]],[[2500,1730],[7,-7]],[[2508,1721],[4,-13]],[[2567,1754],[-59,-31]],[[2512,1708],[-3,13]],[[2509,1722],[10,-10]],[[2520,1712],[-11,10]],[[2509,1723],[57,30]],[[2545,1755],[0,-1]],[[2566,1753],[7,-35]],[[2566,1753],[5,0]],[[2572,1761],[-5,-7]],[[2572,1754],[-5,0]],[[2572,1747]],[[2572,1753],[0,-5]],[[2572,1765]],[[2572,1765],[1,0]],[[2573,1765]],[[2572,1760],[1,0]],[[2572,1748],[1,5]],[[2573,1754],[-1,2],[1,9]],[[2573,1765],[0,13]],[[2609,1772],[-36,-11]],[[2573,1753],[6,-1]],[[2578,1753],[-5,1]],[[2573,1797],[1,0]],[[2573,1728],[1,0]],[[2612,1782],[-4,-1],[-1,0],[-2,-1]],[[2605,1780],[-7,-2],[-9,0]],[[2589,1778],[-16,0]],[[2573,1778]],[[2573,1778]],[[2573,1778],[2,31]],[[2573,1778],[12,0],[4,0]],[[2589,1778],[16,2]],[[2605,1780],[2,1],[1,0],[3,0]],[[2575,1809],[44,2]],[[2619,1812],[-44,-1]],[[2582,1752],[0,1]],[[2585,1718],[23,51]],[[2596,1759],[0,-1]],[[2604,1872],[0,-1],[4,-2]],[[2608,1869]],[[2608,1869],[1,0]],[[2604,1872]],[[2646,1855],[1,8]],[[2647,1863],[1,19]],[[2648,1882],[3,33]],[[2648,1863],[-1,0]],[[2647,1863]],[[2647,1883],[1,0]],[[2649,1916],[-1,-34]],[[2648,1882],[0,-26]],[[3495,636],[-3,-45],[-70,-54]],[[3719,380],[1,0]],[[3866,385],[-16,2]],[[3866,384],[0,1]],[[3866,385]],[[3866,385],[1,0]],[[3867,385],[-1,0]],[[3868,385],[-1,0]],[[3867,385]],[[2133,1802],[0,-1],[0,-1],[1,1],[-1,1]],[[2169,1916],[0,1],[-1,0],[0,-1],[1,0]],[[2193,1902],[-1,0],[0,-1],[1,1]],[[2194,1685],[1,0],[0,1],[-1,-1]],[[2198,1716],[-1,0],[0,-1],[1,0],[0,1]],[[2217,1797],[1,1],[-1,0],[0,-1]],[[2223,1886],[-1,-1],[1,-1],[1,1],[-1,1]],[[2228,1809],[-1,1],[-1,-1],[1,-1],[1,1]],[[2228,1934],[1,-1],[3,0],[-1,1],[-3,0]],[[2229,1784],[0,-1],[0,-1]],[[2229,1782],[1,0],[0,1]],[[2230,1783],[-1,1]],[[2240,1893],[0,1],[-1,-1],[1,0]],[[2267,1843],[1,1],[-1,0],[0,-1]],[[2272,1680],[0,-1],[1,0],[0,1]],[[2273,1680],[-1,0]],[[2281,1855],[1,-2]],[[2282,1853],[2,1],[-1,2],[-2,-1]],[[2282,1859],[1,1],[-1,0],[-1,-1],[1,0]],[[2288,1845],[-1,0],[1,0]],[[2292,1884],[-1,-1],[1,0],[0,1]],[[2309,1879],[-2,-1],[1,-1],[1,1],[0,1]],[[2314,1846],[0,-1],[1,0],[0,2],[-1,-1]],[[2318,1712],[2,1],[-1,1],[-1,-1],[0,-1]],[[2321,1701],[1,-1],[-1,1]],[[2325,1749],[0,1],[-1,0],[1,-1]],[[2328,1762],[1,-1],[-1,1]],[[2343,1700],[0,-1],[1,0],[0,1],[-1,0]],[[2347,1731],[1,-1],[0,1],[-1,1],[0,-1]],[[2347,1781]],[[2347,1781],[1,0]],[[2348,1781],[0,1],[-1,-1]],[[2353,1818],[-1,-1],[1,0],[0,1]],[[2355,1852],[0,-1]],[[2355,1851],[1,1],[-1,0]],[[2366,1818],[-1,1],[-1,-1],[1,-1],[1,1]],[[2383,1743],[-1,0],[0,-1],[1,1]],[[2384,1796],[0,-1],[1,0],[0,1],[-1,0]],[[2395,1712],[1,-1],[2,1]],[[2398,1712],[-1,2],[-2,-2]],[[2508,1723],[-1,-1],[2,-1]],[[2509,1721],[0,2],[-1,0]],[[2572,1754],[-1,0],[1,-1],[1,0],[-1,1]],[[2574,1812],[-2,-2],[2,-1],[2,2],[-2,1]],[[3720,381],[0,-1],[0,1]],[[2321,1554],[-12,-51],[35,-67]],[[2344,1436],[-30,58],[8,61]],[[2344,1436],[33,-52]],[[2384,1384],[46,-59]],[[2438,1316],[127,-62]],[[2990,972],[7,-9]],[[3304,589],[63,-59]],[[2301,1770],[1,-47]],[[2302,1723],[0,46]],[[2241,1967],[-13,-32]],[[2229,1935],[12,32]],[[2241,1967],[-1,2]],[[2231,1570],[0,-5]],[[2231,1565],[-1,-3]],[[2230,1562],[0,-6],[-1,-3]],[[2229,1553],[-1,-7]],[[2229,1562],[0,-9]],[[2229,1553],[1,-27]],[[2229,1546],[1,9],[1,7]],[[2231,1562],[0,3]],[[2231,1565],[1,6]],[[2230,1524],[25,-46]],[[2255,1478],[-24,46]],[[2231,1526],[1,36]],[[2257,1473],[84,-121],[15,-16]],[[2358,1336],[-100,138]],[[2523,1328],[-39,17]],[[3002,1137],[-82,38]],[[3048,1023],[-37,92]],[[3502,503],[-73,47],[-75,101]],[[3636,349],[-27,56]],[[3822,285],[-58,8]],[[3914,418],[-7,-16]],[[3908,401],[6,17]],[[3914,418],[-4,6]],[[2231,1526],[-2,0],[0,-1],[2,-1],[0,2]],[[2232,1562],[0,3],[-1,0]],[[2231,1565]],[[2231,1565],[-2,0],[0,-3]],[[2229,1562],[1,0]],[[2230,1562],[1,0]],[[2231,1562],[1,0]],[[2107,1852],[-56,-20]],[[2426,1812],[0,1],[-2,0],[1,-1],[1,0]],[[2301,1771],[0,-1],[1,-1],[0,2],[-1,0]],[[2242,1734],[-13,-36]],[[2230,1698],[12,36]],[[2261,1779],[-1,1],[-1,0],[0,-2],[2,1]],[[3829,287],[-21,48]],[[3836,274],[-5,9]],[[2271,1880],[6,3]],[[2276,1883],[-5,-3]],[[2308,1877],[6,-30]],[[2315,1847],[-2,13],[-4,17]],[[2251,1849],[23,4]],[[2274,1853],[-23,-4]],[[3787,396],[-58,-13]],[[3729,382],[58,14]],[[3788,396],[62,-8]],[[3001,1136],[9,-22]],[[3761,293]],[[3823,285],[9,0],[14,22]],[[3846,308],[-14,-22]],[[2227,1601],[1,-4]],[[2228,1597],[-1,3]],[[2228,1595],[3,-24]],[[2232,1571],[-3,24]],[[2247,1854],[8,14]],[[2302,1723],[2,-11]],[[2304,1712],[-2,11]],[[2180,1727],[17,-12]],[[2197,1716],[-17,11]],[[2066,1810],[14,-2]],[[2081,1809],[-15,3]],[[2119,1614],[-17,-3]],[[2110,1608],[10,5]],[[2120,1613],[3,1],[-1,2],[-2,0],[0,-3]],[[2183,1641],[-2,-2],[-59,-23]],[[2123,1615],[41,16]],[[2164,1631],[0,1]],[[2164,1632],[18,7],[2,2]],[[2127,1619],[-1,0]],[[2133,1623],[0,-1]],[[2141,1625]],[[2150,1627],[0,1]],[[2164,1632],[0,-1]],[[2164,1631],[9,-19],[1,-1],[33,-14]],[[2207,1598],[-33,13],[0,1],[-10,20]],[[2164,1632]],[[2168,1621],[-1,0]],[[2171,1615]],[[2178,1608]],[[2186,1601],[1,0]],[[2193,1599]],[[2207,1597],[21,-1]],[[2207,1598]],[[2207,1598],[-1,0],[1,-1],[0,1]],[[2227,1597],[-20,1]],[[2230,1597],[-1,0]],[[2229,1596],[2,1]],[[2429,1321],[-3,5]],[[2525,1629],[-4,-11],[-38,-48],[-2,-6],[-22,-133],[19,-51]],[[2478,1377],[0,1]],[[2479,1377]],[[2479,1380],[-19,50],[22,133],[40,54],[4,12]],[[2480,1375],[0,3]],[[2512,1708],[13,-77]],[[2526,1631],[4,20],[-18,57]],[[2519,1712],[24,-22]],[[2543,1691],[-23,21]],[[2581,1673],[-35,18]],[[2547,1690],[32,-23],[3,6]],[[2573,1718],[8,-43]],[[2576,1717],[1,0]],[[2581,1701]],[[2582,1675],[3,43]],[[2608,1769],[7,8]],[[2615,1777],[4,5]],[[2619,1782]],[[2619,1782],[23,28]],[[2619,1811],[22,0],[-24,-29]],[[2617,1782],[0,-1]],[[2617,1781],[-3,-3]],[[2614,1778],[-5,-6]],[[2611,1781],[2,0]],[[2613,1781],[4,0]],[[2617,1781],[2,1]],[[2619,1782],[7,0]],[[2626,1782],[-7,0]],[[2619,1782],[-2,0]],[[2617,1782],[-4,0]],[[2613,1782],[-1,0]],[[2670,1741]],[[2670,1741],[-52,29],[-3,7]],[[2615,1777],[-1,1]],[[2614,1778],[-1,3]],[[2613,1781],[0,1]],[[2613,1782],[-1,1]],[[2641,1813],[-22,-1]],[[2648,1856],[-1,-18]],[[2647,1838],[0,-15],[-3,-7]],[[2644,1816],[-2,-3]],[[2642,1813],[-1,-1],[1,-2]],[[2642,1810],[2,2],[-2,1]],[[2643,1813],[1,3]],[[2644,1816],[2,39]],[[2643,1811],[46,3],[7,-70],[-26,-3]],[[2670,1741],[27,2],[-8,71],[-45,-2]],[[2648,1838],[-1,0]],[[2647,1838]],[[2652,1812],[0,1]],[[2670,1741]],[[2670,1741],[-2,-94]],[[2831,1197],[-36,-117]],[[3121,912],[-49,-36]],[[3126,915],[0,-1]],[[4096,1296],[-137,-186],[-90,-13],[-93,23],[-69,-95],[-94,-55],[3,-46],[-111,-130],[-10,-158]],[[4096,2912],[-67,55]],[[2229,1597],[-2,0],[1,-2],[1,1],[0,1]],[[2525,1629],[2,1],[-1,1],[-2,0],[1,-2]],[[2581,1675],[0,-2]],[[2581,1673],[1,0],[0,2]],[[2582,1675],[-1,0]],[[2260,1780],[0,13],[-11,35],[11,-47]],[[31,416],[-10,-13]],[[837,886],[-184,-207],[-140,25],[-274,-16],[-167,-222]],[[1581,1310],[-373,-23],[-275,-295]],[[2037,1587],[-19,-42],[-231,-113]],[[2251,1849],[-51,2],[51,-2]],[[2232,1797],[28,0]],[[2260,1798],[-28,-1]],[[2260,1778],[3,-29]],[[2263,1749],[-3,30]],[[2309,1931],[-3,62]],[[2430,1795],[-9,-39]],[[2283,1853],[4,-8]],[[2287,1845],[-4,9]],[[2282,1800],[-22,-20]],[[2260,1780],[22,19]],[[2226,1834],[0,-24]],[[2227,1810],[-1,25]],[[2245,1748],[-3,-14]],[[2242,1734],[4,14]],[[2384,1795],[5,-23]],[[2363,1760],[19,-17]],[[2382,1743],[-18,17]],[[2383,1742],[19,-23]],[[2403,1719],[-20,23]],[[2282,1860],[-11,20]],[[2377,1385],[-33,51]],[[3367,530],[129,-63]],[[3611,412],[86,-54],[22,22]],[[3729,383],[-10,-3]],[[3720,380],[9,2]],[[3850,388],[60,36]],[[2062,1767],[1,-13]],[[2063,1785],[0,-16]],[[2064,1752],[0,1]],[[2064,1753],[0,1],[-1,-1],[1,-1]],[[2064,1752],[33,-27]],[[2064,1754],[0,13]],[[2064,1769],[0,18]],[[2098,1725],[-34,28]],[[2098,1724],[1,1],[-1,0]],[[2098,1725],[-1,-1],[1,0]],[[2098,1724],[23,-25]],[[2122,1699],[-23,25]],[[2122,1697],[72,-40]],[[2168,1916],[4,-65]],[[2172,1932],[-3,-15]],[[2172,1851],[-3,65]],[[2172,1845],[20,-61]],[[2192,1784],[-19,61]],[[2192,1783],[-3,-6],[-1,-2]],[[2188,1775],[-5,-28]],[[2183,1747],[-3,-18]],[[2181,1730],[2,17]],[[2183,1747],[4,23]],[[2185,1769],[3,6]],[[2188,1775],[2,4]],[[2189,1776],[4,7]],[[2209,1943],[6,-5]],[[2216,1938],[-7,6]],[[2217,1936],[14,-1]],[[2231,1935],[12,-1]],[[2243,1934],[-12,1]],[[2231,1935],[-12,1]],[[2226,1639],[-1,-24]],[[2225,1615],[1,24]],[[2261,1560],[-28,5]],[[2240,1563],[20,-5]],[[2296,1545],[1,0],[33,15],[7,14]],[[2337,1574],[-41,-29]],[[2319,1522],[-1,0]],[[2322,1556],[-3,-2]],[[2320,1673],[3,-27]],[[2348,1692],[-27,-18]],[[2324,1646],[-3,28]],[[2321,1674],[27,18]],[[2322,1528]],[[2344,1691],[-20,-11]],[[2325,1680],[19,10]],[[2327,1622],[-1,16]],[[2326,1536],[1,0]],[[2351,1694],[-3,-2]],[[2348,1692]],[[2348,1692]],[[2348,1692]],[[2348,1692]],[[2348,1692],[10,4],[33,12],[13,12]],[[2404,1720],[-53,-26]],[[2392,1708],[-41,-14]],[[2351,1693],[35,13]],[[2419,1753],[-4,-6],[-9,-21]],[[2407,1725],[13,28]],[[2425,1811],[2,-7]],[[2427,1804],[-1,8]],[[3437,2316],[0,1]],[[2063,1767],[1,1],[-1,1],[-1,-1],[1,-1]],[[2122,1699],[-1,0],[0,-1],[1,0],[0,1]],[[2154,1711],[1,0],[0,1],[-1,-1]],[[2179,1727],[1,0],[0,1],[-1,-1]],[[2192,1784],[0,-1],[1,0],[0,1],[-1,0]],[[2224,1644],[1,-1],[1,1],[-1,1],[-1,-1]],[[2325,1642],[-1,0],[1,0]],[[2331,1587],[0,-1],[1,0],[0,1],[-1,0]],[[2421,1756]],[[3368,531],[54,6]],[[2355,1851],[32,-16]],[[2387,1835],[-27,17],[-4,0]],[[1128,1818],[39,6],[46,68],[56,-4]],[[2255,1833],[-28,-23]],[[2228,1810],[28,22]],[[2219,1741],[-21,-25]],[[2198,1715],[22,26]],[[2367,1785],[-4,-24]],[[2363,1760],[5,27]],[[2312,1877],[-3,1]],[[2309,1878],[3,-1]],[[2313,1877],[31,-15],[-31,15]],[[2288,1845],[5,21],[20,-20]],[[2303,1682],[16,-126]],[[2320,1557],[-16,124]],[[2377,3945],[-137,81]],[[2120,1698],[-34,-13]],[[2120,1698],[1,0]],[[2121,1698],[-1,0]],[[3305,442],[-106,-210],[-105,-137],[-29,-95]],[[2272,1705],[28,-11]],[[2300,1694],[-26,11]],[[2288,1882],[-6,-22]],[[2283,1860],[5,22]],[[2432,1321],[-2,1],[-1,-1],[2,-1],[1,1]],[[2042,1602],[2,-1]],[[2044,1604],[-1,0]],[[2044,1602],[66,6]],[[2102,1611],[-58,-8]],[[3787,396],[21,-61],[-21,61]],[[3850,387],[-62,10]],[[3830,286],[-1,0]],[[3830,283],[1,1]],[[2042,1604],[0,-2]],[[2042,1602],[2,0]],[[2044,1602],[0,2]],[[2044,1604],[-2,0]],[[3788,396],[-1,1],[0,-1]],[[3787,396],[1,0]],[[3831,284],[-1,2],[-2,-1],[2,-2],[1,1]],[[2231,1571],[0,-1]],[[2232,1571]],[[2255,1478],[2,-5]],[[2258,1474],[-3,4]],[[2356,1336],[18,-16],[36,-4]],[[2410,1316],[7,-1]],[[2414,1315],[-4,1]],[[2410,1316],[-35,5],[-17,15]],[[2920,1175],[-192,52],[-205,101]],[[3354,651],[-306,372]],[[3609,405],[-107,98]],[[3761,294],[-112,28],[-13,27]],[[3764,293],[-3,1]],[[2258,1779],[-12,-30]],[[2247,1749],[12,29]],[[2336,1808],[-4,-28]],[[2333,1779],[3,29]],[[2227,1808],[-8,-66]],[[2230,1784],[-3,24]],[[2269,1733],[3,-28]],[[2272,1709],[-2,23]],[[2358,1720],[-15,-20]],[[2343,1700],[16,20],[3,6]],[[2344,1699],[4,-7]],[[2271,1880],[-16,-12]],[[2255,1868],[16,12]],[[2304,1712],[14,0]],[[2318,1713],[-14,-1]],[[2324,1749],[-5,-35]],[[2320,1713],[5,36]],[[2328,1761],[-3,-11]],[[2325,1750],[3,11]],[[2217,1797],[-4,-12]],[[2214,1784],[3,13]],[[2226,1808],[-9,-10]],[[2218,1798],[8,10]],[[2813,1066],[67,-50],[91,-14],[19,-30]],[[2057,1658],[-13,-51]],[[2043,1599],[-6,-12]],[[2314,1845],[4,-31]],[[2318,1815],[-3,30]],[[2231,1932],[29,-34]],[[2260,1898],[-28,35]],[[2263,1749]],[[2256,1834],[-1,-1],[2,-1],[0,1],[-1,1]],[[2267,1850],[9,-4],[4,-1]],[[2275,1847],[-2,1]],[[2280,1845],[7,0]],[[2186,1749],[32,-7]],[[2300,1694],[11,-2],[10,8]],[[2321,1700],[-9,-8]],[[2347,1731],[-25,-30]],[[2322,1701],[25,29]],[[2283,1800],[1,-17]],[[2285,1783],[-2,17]],[[3368,531],[-1,-1]],[[2274,1853],[1,-1],[0,1],[-1,1],[0,-1]],[[2280,1830],[0,-2],[1,0],[0,1],[-1,1]],[[2543,1690],[4,0]],[[2546,1691],[-3,0]],[[2309,1930],[-1,-51]],[[2309,1879],[2,20],[-2,31]],[[2272,1679],[2,-52]],[[2274,1627],[-1,52]],[[2363,1760],[-5,-28]],[[2359,1732],[4,28]],[[2377,1384],[7,0]],[[2314,1815],[-1,-28]],[[2313,1787],[4,26]],[[2317,1813],[0,1]],[[2317,1813],[1,1]],[[2353,1817],[12,0]],[[2364,1818],[-11,0]],[[2380,1839],[-16,-21]],[[3311,2236],[-212,-17],[-143,-162],[-215,-62]],[[3458,2340],[62,91],[109,70],[351,356],[1,47],[115,159]],[[3367,530],[-62,-88]],[[2018,1545],[-45,-114],[33,-18],[12,-78],[-61,-160],[36,-163],[-27,-61],[-104,-74],[-36,-69],[59,-286],[84,0],[-71,-127],[56,-52],[-93,-262],[57,-51],[-19,-30]],[[2267,1749],[2,-16]],[[2270,1732],[-2,17]],[[3976,0],[-140,274]],[[2193,1901],[29,-16]],[[2222,1886],[-29,16]],[[2240,1892],[-17,-6]],[[2224,1885],[16,8]],[[2315,1799]],[[2229,1783],[-16,2]],[[2214,1784],[15,-1]],[[2230,1783],[30,-4]],[[2260,1780],[-30,3]],[[2303,1783],[-21,24]],[[2283,1805],[19,-22]],[[2240,1893],[34,-39]],[[2274,1854],[-33,39]],[[2275,1852],[1,-2]],[[2277,1848],[-2,5]],[[2283,1800],[-23,-2]],[[2260,1797],[23,2]],[[3496,467],[115,-55]],[[2265,1804],[18,1]],[[2284,1805],[-19,-1]],[[2267,1844],[-10,-10]],[[2257,1833],[10,10]],[[2435,1323],[-21,-8]],[[2417,1315],[18,8]],[[2535,1315],[193,-88],[192,-52]],[[3048,1023],[305,-373]],[[3502,502],[107,-97]],[[3635,350],[12,-27],[114,-30]],[[3761,293],[8,-1]],[[2426,1806],[1,0],[-1,2],[-1,-1],[1,-1]],[[2484,1345],[-3,-2],[-46,-20]],[[2435,1323],[43,16],[57,-24]],[[2920,1175],[81,-39]],[[3010,1114],[38,-91]],[[3353,650],[77,-101],[72,-47]],[[3609,405],[26,-55]],[[3769,292],[54,-7]],[[3846,307],[62,94]],[[3907,402],[-61,-94]],[[2312,1781],[31,-46]],[[2396,1714],[-83,67]],[[2353,1728],[42,-16]],[[2389,1772],[-6,-29]],[[2220,1741],[21,-8]],[[2242,1734],[-22,8]],[[2171,0],[-2171,0],[0,4096],[4096,0],[0,-4096],[-1925,0]],[[2786,1033],[33,40],[82,28],[-31,-43],[20,-35],[47,31],[-2,-36],[20,-2],[44,27],[-13,56],[23,55],[19,-13],[-30,-46],[19,-6],[-19,-13],[18,-38],[-20,-22],[22,7],[11,-52],[-56,1],[-23,29],[-16,-39],[-49,10],[-99,61]],[[1997,1668],[53,6],[19,-48],[82,-35],[-64,-23],[-33,16],[-6,-18],[-51,102]],[[0,274],[0,117],[30,17],[9,65],[27,2],[70,-104],[1,-30],[-65,0],[33,-65],[-35,-28],[-70,26]],[[3952,507],[3,-100],[-65,-33],[-42,-99],[-152,33],[-97,66],[32,98],[-32,33],[0,66],[356,-33],[-3,-31]],[[3340,407],[-65,66],[33,131],[97,98],[92,-68],[37,-96],[-32,0],[0,-65],[-32,-26],[-130,-40]],[[1289,1726],[-214,123],[27,47],[50,24],[117,-5],[0,-66],[96,-41],[1,-57],[-77,-25]],[[1600,1297],[-40,28],[18,72],[47,43],[162,16],[0,-58],[-129,-40],[-58,-61]],[[2340,1994],[69,-68],[79,-13],[11,34],[32,-32],[156,70],[71,-5],[-32,-98],[-98,-33],[-32,-131],[-65,0],[-129,-66],[65,-262],[99,-108],[-3,-56],[-97,33],[-32,65],[-227,34],[51,117],[-51,46],[33,66],[-48,51],[-179,80],[97,131],[-100,96],[3,68],[65,0],[32,-33],[93,32],[137,-18]],[[946,800],[-94,33],[-36,131],[41,25],[186,8],[-52,-171],[-45,-26]],[[2977,940],[-122,90],[13,60],[84,136],[97,0],[0,-147],[32,-17],[-104,-122]],[[3475,2215],[-5,-38],[-65,0],[-32,-99],[-63,66],[1,101],[56,83],[103,13],[5,-126]],[[396,2243],[64,0],[97,-66],[-35,-60],[-31,-6],[-63,66],[-32,0],[0,66]],[[396,2242],[-107,14],[-23,19],[37,31],[60,2],[33,-66]],[[1269,2439],[-86,98],[-7,69],[29,63],[85,-98],[8,-70],[-29,-62]],[[2182,4096],[177,0],[42,-64],[-32,-118],[-129,65],[0,66],[-33,0],[-25,51]],[[3714,314],[27,58],[-23,19],[46,91],[35,36],[26,-23],[19,36],[-2,-26],[27,14],[-38,-70],[45,-18],[-64,-105],[34,-14],[-1,-45],[-66,51],[-18,-25],[-1,73],[-46,-52]],[[3792,332],[7,-17],[13,5],[-8,17],[-12,-5]]]}