{"objects":{"water":{"type":"GeometryCollection","geometries":[]},"buildings":{"type":"GeometryCollection","geometries":[]},"places":{"type":"GeometryCollection","geometries":[{"type":"Point","properties":{"name:pt":"Elektrostal","name:az":"Elektrostal","name:ko":"\uc610\ub809\ud2b8\ub85c\uc2a4\ud0c8","name:ar":"\u0625\u064a\u0644\u064a\u0643\u062a\u0631\u0648\u0633\u062a\u0627\u0644","name:cs":"Elektrostal","name:th":"\u0e40\u0e2d\u0e40\u0e25\u0e04\u0e42\u0e15\u0e23\u0e2a\u0e15\u0e31\u0e25","name:ro":"Elektrostal","name:it":"\u0116lektrostal'","name:tl":"Elektrostal","name:be":"\u042d\u043b\u0435\u043a\u0442\u0440\u0430\u0441\u0442\u0430\u043b\u044c","name:vi":"Elektrostal","name:pl":"Elektrostal","name:de":"Elektrostal","id":156167469,"name:ca":"Elektrostal","name:fa":"\u0627\u0644\u06a9\u062a\u0631\u0648\u0633\u062a\u0627\u0644","name:lt":"Elektrostal\u0117","kind_detail":"city","name:uz":"Elektrostal","name:tg":"\u042d\u043b\u0435\u043a\u0442\u0440\u043e\u0441\u0442\u0430\u043b","source":"openstreetmap.org","name:fr":"Elektrostal","name:zh":"\u57c3\u5217\u514b\u7279\u7f85\u65af\u5854\u723e","name:lv":"Elektrosta\u013ca","name:ja":"\u30a8\u30ec\u30af\u30c8\u30ed\u30b9\u30bf\u30ea","name:nn":"Elektrostal","name:no":"Elektrostal","kind":"locality","name:uk":"\u0415\u043b\u0435\u043a\u0442\u0440\u043e\u0441\u0442\u0430\u043b\u044c","old_name":"\u0417\u0430\u0442\u0438\u0448\u044c\u0435","name:sv":"Elektrostal","name:bg":"\u0415\u043b\u0435\u043a\u0442\u0440\u043e\u0441\u0442\u0430\u043b","name:hr":"Elektrostalj","name:sr":"\u0415\u043b\u0435\u043a\u0442\u0440\u043e\u0441\u0442\u0430\u0459","population":158222,"name:eo":"Elektrostal","name:en":"Elektrostal","name":"\u042d\u043b\u0435\u043a\u0442\u0440\u043e\u0441\u0442\u0430\u043b\u044c","min_zoom":8.0,"name:fi":"Elektrostal","name:eu":"Elektrostal","name:et":"Elektrostal","name:nl":"Elektrostal"},"coordinates":[1374,72]},{"type":"Point","properties":{"name:pt":"Orekhovo-Zuyevo","name:az":"Orexovo-Zuyevo","name:ko":"\uc624\ub808\ud638\ubcf4\uc8fc\uc608\ubcf4","name:ar":"\u0623\u0648\u0631\u064a\u062e\u0648\u0641\u0648-\u0632\u0648\u064a\u0641\u0648","name:cs":"Orechovo-Zujevo","min_zoom":8.0,"name:ro":"Orehovo-Zuevo","name:it":"Orechovo-Zuevo","name:tl":"Orekhovo-Zuyevo","name:be":"\u0410\u0440\u044d\u0445\u0430\u0432\u0430-\u0417\u0443\u0435\u0432\u0430","name:vi":"Orekhovo-Zuyevo","name:pl":"Oriechowo-Zujewo","id":191885615,"name:ca":"Or\u00e9khovo-Z\u00faievo","name:fa":"\u0627\u0648\u0631\u062e\u0648\u0641\u0648-\u0632\u0648\u06cc\u0641\u0648","name:lt":"Orechovas-Zujevas","source":"openstreetmap.org","kind_detail":"city","name:uz":"Orexovo-zuyevo","name:de":"Orechowo-Sujewo","name:tr":"Orehovo-Zuyevo","name:fr":"Orekhovo-Zou\u00efevo","name:zh":"\u5967\u5217\u970d\u6c83-\u7956\u8036\u6c83","name:sl":"Orehovo-Zujevo","name:lv":"Orehovozujeva","name:ja":"\u30aa\u30ec\u30db\u30f4\u30a9\uff1d\u30ba\u30a8\u30f4\u30a9","name:nn":"Orekhovo-Zujevo","name:no":"Orekhovo-Zujevo","kind":"locality","name:uk":"\u041e\u0440\u0454\u0445\u043e\u0432\u043e-\u0417\u0443\u0454\u0432\u043e","name:hy":"\u0555\u0580\u0565\u056d\u0578\u057e\u0578-\u0536\u0578\u0582\u0587\u0578","name:sv":"Orechovo-Zujevo","name:hr":"Orehovo-Zujevo","population":120184,"name:eo":"Ore\u0125ovo-Zujevo","name":"\u041e\u0440\u0435\u0445\u043e\u0432\u043e-\u0417\u0443\u0435\u0432\u043e","name:fi":"Orehovo-Zujevo","name:et":"Orehhovo-Zujevo","name:nl":"Orechovo-Zoejevo","name:es":"Or\u00e9jovo-Z\u00fayevo"},"coordinates":[2943,166]},{"type":"Point","properties":{"name:pt":"Schiolkovo","name:ro":"\u015eciolkovo","name:nl":"Sjtsjolkovo","name:ja":"\u30b7\u30c1\u30e7\u30eb\u30b3\u30f4\u30a9","name:lt":"\u0160\u010diolkovas","name:sr":"\u0428\u0447\u043e\u043b\u043a\u043e\u0432\u043e","kind":"locality","min_zoom":8.0,"name:it":"\u0160\u010d\u00eblkovo","name:uk":"\u0429\u043e\u043b\u043a\u043e\u0432\u043e","name:be":"\u0428\u0447\u043e\u043b\u043a\u0430\u0432\u0430","name:sv":"Sjtjolkovo","name:pl":"Szczo\u0142kowo","id":1684082165,"population":118962,"name:eo":"\u015c\u0109jolkovo","name:en":"Shchyolkovo","name":"\u0429\u0451\u043b\u043a\u043e\u0432\u043e","kind_detail":"city","name:de":"Schtscholkowo","source":"openstreetmap.org","name:fr":"Chtchiolkovo","name:fi":"\u0160t\u0161olkovo"},"coordinates":[66,754]},{"type":"Point","properties":{"name:sr":"\u0421\u0435\u0440\u0433\u0438\u0458\u0435\u0432 \u041f\u043e\u0441\u0430\u0434","int_name":"Sergiyev Posad","name:lt":"Sergijev Posadas","min_zoom":8.0,"name:uk":"\u0421\u0435\u0440\u0433\u0456\u0454\u0432 \u041f\u043e\u0441\u0430\u0434","old_name":"\u0421\u0435\u0440\u0433\u0438\u0435\u0432\u0434\u043e;\u0417\u0430\u0433\u043e\u0440\u0441\u043a","id":191892583,"name:pl":"Siergijew Posad","name:hr":"Sergiyev Posad","old_name:de":"Sagorsk","population":106007,"kind":"locality","name:en":"Sergiyev Posad","name":"\u0421\u0435\u0440\u0433\u0438\u0435\u0432 \u041f\u043e\u0441\u0430\u0434","kind_detail":"city","name:de":"Sergijew Possad","source":"openstreetmap.org","name:fr":"Serguiev Possad","name:et":"Sergijev Possad"},"coordinates":[487,2785]},{"type":"Point","properties":{"name:pt":"Noguinsk","name:az":"Noqinsk","name:ko":"\ub178\uae34\uc2a4\ud06c","name:ar":"\u0646\u0648\u062c\u064a\u0646\u0633\u0643","name:cs":"Noginsk","min_zoom":8.0,"name:ro":"Noghinsk","name:it":"Noginsk","name:tl":"Noginsk","name:be":"\u041d\u0430\u0433\u0456\u043d\u0441\u043a","name:vi":"Noginsk","name:pl":"Nogi\u0144sk","id":156167485,"name:fa":"\u0646\u0648\u06af\u06cc\u0646\u0633\u06a9","name:lt":"Noginskas","source":"openstreetmap.org","kind_detail":"city","name:de":"Noginsk","name:tr":"Noginsk","name:fr":"Noguinsk","name:zh":"\u8afe\u91d1\u65af\u514b","name:lv":"Noginska","name:ja":"\u30ce\u30ae\u30cc\u30b9\u30af","name:nn":"Noginsk","name:no":"Noginsk","kind":"locality","name:uk":"\u041d\u043e\u0433\u0456\u043d\u0441\u044c\u043a","old_name":"\u0411\u043e\u0433\u043e\u0440\u043e\u0434\u0441\u043a;\u0421\u0442\u0430\u0440\u044b\u0439 \u0420\u043e\u0433\u043e\u0436\u0441\u043a\u0438\u0439 \u042f\u043c;\u0420\u043e\u0433\u043e\u0436\u0430","name:sv":"Noginsk","name:hr":"Noginsk","population":102247,"name:eo":"Noginsk","name:en":"Noginsk","name":"\u041d\u043e\u0433\u0438\u043d\u0441\u043a","name:fi":"Noginsk","name:et":"Noginsk","name:nl":"Noginsk","name:es":"Noguinsk"},"coordinates":[1376,412]},{"type":"Point","properties":{"name:az":"Pavlovskiy Posad","name:ko":"\ud30c\ube14\ub86d\uc2a4\ud0a4\ud3ec\uc0ac\ud2b8","name:ar":"\u0628\u0627\u0641\u0644\u0648\u0641\u0633\u0643 \u0628\u0648\u0633\u0627\u062f","min_zoom":8.0,"name:ro":"Pavlovskii Posad","name:it":"Pavlovskij Posad","name:tl":"Pavlovsky Posad","name:be":"\u041f\u0430\u045e\u043b\u0430\u045e\u0441\u043a\u0456 \u041f\u0430\u0441\u0430\u0434","name:vi":"Pavlovsky Posad","name:pl":"Paw\u0142owski Posad","id":156159426,"name:fa":"\u067e\u0627\u0648\u0644\u0648\u0641\u0633\u06a9\u06cc\u06cc \u067e\u0648\u0633\u0627\u062f","kind_detail":"town","name:de":"Pawlowski Possad","source":"openstreetmap.org","name:fr":"Pavlovski Possad","name:zh":"\u5df4\u752b\u6d1b\u592b\u65af\u57fa\u93ae","name:nl":"Pavlovski Posad","name:ja":"\u30d1\u30f4\u30ed\u30d5\u30b9\u30ad\u30fc\u30fb\u30dd\u30b5\u30c9","name:nn":"Pavlovskij Posad","name:no":"Pavlovskij Posad","kind":"locality","name:uk":"\u041f\u0430\u0432\u043b\u043e\u0432\u0441\u044c\u043a\u0438\u0439 \u041f\u043e\u0441\u0430\u0434","old_name":"\u0434\u043e 1844 \u2014 \u041f\u0430\u0432\u043b\u043e\u0432\u043e","name:sv":"Pavlovskij Posad","name:sr":"\u041f\u0430\u0432\u043b\u043e\u0432\u0441\u043a\u0438 \u041f\u043e\u0441\u0430\u0434","population":65800,"name:eo":"Pavlovskij Posad","name:en":"Pavlovsky Posad","name":"\u041f\u0430\u0432\u043b\u043e\u0432\u0441\u043a\u0438\u0439 \u041f\u043e\u0441\u0430\u0434","name:fi":"Pavlovski Posad","name:et":"Pavlovski Possad","name:es":"Pavlovski Posad"},"coordinates":[1987,25]},{"type":"Point","properties":{"kind":"locality","name:en":"Alexandrov","name":"\u0410\u043b\u0435\u043a\u0441\u0430\u043d\u0434\u0440\u043e\u0432","name:lt":"Aleksandrovas","kind_detail":"town","name:eo":"Aleksandrov","name:de":"Alexandrow","source":"openstreetmap.org","min_zoom":8.0,"id":93387393,"population":60205},"coordinates":[2192,3228]},{"type":"Point","properties":{"kind":"locality","name:en":"Fryazino","name":"\u0424\u0440\u044f\u0437\u0438\u043d\u043e","kind_detail":"town","name:eo":"Frjazino","name:de":"Frjasino","source":"openstreetmap.org","min_zoom":8.0,"name:sr":"\u0424\u0440\u0458\u0430\u0437\u0438\u043d\u043e","population":58942,"id":462089127,"name:ja":"\u30d5\u30ea\u30e3\u30b8\u30ce"},"coordinates":[256,931]},{"type":"Point","properties":{"kind":"locality","name:en":"Kirzhach","name":"\u041a\u0438\u0440\u0436\u0430\u0447","kind_detail":"town","name:de":"Kirschatsch","source":"openstreetmap.org","min_zoom":8.0,"id":1686969311,"population":27439},"coordinates":[2631,2002]},{"type":"Point","properties":{"kind":"locality","name:en":"Krasnoarmeysk","name":"\u041a\u0440\u0430\u0441\u043d\u043e\u0430\u0440\u043c\u0435\u0439\u0441\u043a","name:lt":"Krasnoarmejskas","kind_detail":"town","name:de":"Krasnoarmeisk","source":"openstreetmap.org","min_zoom":8.0,"name:sr":"\u041a\u0440\u0430\u0441\u043d\u043e\u0430\u0440\u043c\u0435\u0458\u0441\u043a","old_name":"\u041a\u0440\u0430\u0441\u043d\u043e\u0430\u0440\u043c\u0435\u0439\u0441\u043a\u0438\u0439;\u041a\u0440\u0430\u0441\u043d\u043e\u0444\u043b\u043e\u0442\u0441\u043a\u0438\u0439;\u041c\u0443\u0440\u043e\u043c\u0446\u0435\u0432\u043e","population":26594,"id":256361858,"name:ja":"\u30af\u30e9\u30b9\u30ce\u30a2\u30eb\u30e1\u30a4\u30b9\u30af"},"coordinates":[516,1802]},{"type":"Point","properties":{"kind":"locality","name:en":"Losino-Petrovsky","name":"\u041b\u043e\u0441\u0438\u043d\u043e-\u041f\u0435\u0442\u0440\u043e\u0432\u0441\u043a\u0438\u0439","kind_detail":"town","name:de":"Lossino-Petrowski","source":"openstreetmap.org","min_zoom":8.0,"name:sr":"\u041b\u043e\u0441\u0438\u043d\u043e-\u041f\u0435\u0442\u0440\u043e\u0432\u0441\u043a\u0438\u0458","old_name":"\u041b\u043e\u0441\u0438\u043d\u0430\u044f \u0441\u043b\u043e\u0431\u043e\u0434\u0430","id":256361889,"population":24726},"coordinates":[683,492]},{"type":"Point","properties":{"name:pt":"Elektrogorsk","name:az":"Elektroqorsk","name:ko":"\uc610\ub809\ud2b8\ub85c\uace0\ub974\uc2a4\ud06c","name:ar":"\u0625\u064a\u0644\u064a\u0643\u062a\u0631\u0648\u063a\u0648\u0631\u0633\u0643","name:io":"Elektrogorsk","min_zoom":8.0,"name:ro":"Elektrogorsk","name:it":"\u0116lektrogorsk","name:tl":"Elektrogorsk","name:pl":"Elektrogorsk","id":256361847,"name:ca":"Elektrogorsk","name:fa":"\u0627\u0644\u06a9\u062a\u0631\u0648\u06af\u0648\u0631\u0633\u06a9","name:lt":"Elektrogorskas","kind_detail":"town","name:de":"Elektrogorsk","source":"openstreetmap.org","name:fr":"Elektrogorsk","name:zh":"\u57c3\u5217\u514b\u7279\u7f85\u6208\u723e\u65af\u514b","name:nl":"Elektrogorsk","name:ja":"\u30a8\u30ec\u30af\u30c8\u30eb\u30b4\u30eb\u30b9\u30af","name:nn":"Elektrogorsk","name:no":"Elektrogorsk","kind":"locality","name:uk":"\u0415\u043b\u0435\u043a\u0442\u0440\u043e\u0433\u043e\u0440\u0441\u044c\u043a","old_name":"\u042d\u043b\u0435\u043a\u0442\u0440\u043e\u043f\u0435\u0440\u0435\u0434\u0430\u0447\u0430","name:be":"\u042d\u043b\u0435\u043a\u0442\u0440\u0430\u0433\u043e\u0440\u0441\u043a","name:bg":"\u0415\u043b\u0435\u043a\u0442\u0440\u043e\u0433\u043e\u0440\u0441\u043a","name:sr":"\u0415\u043b\u0435\u043a\u0442\u0440\u043e\u0433\u043e\u0440\u0441\u043a","population":23028,"name:eo":"Elektrogorsk","name:en":"Elektrogorsk","name":"\u042d\u043b\u0435\u043a\u0442\u0440\u043e\u0433\u043e\u0440\u0441\u043a","name:fi":"Elektrogorsk","name:et":"Elektrogorsk"},"coordinates":[2380,537]},{"type":"Point","properties":{"kind":"locality","name:en":"Staraya Kupavna","name":"\u0421\u0442\u0430\u0440\u0430\u044f \u041a\u0443\u043f\u0430\u0432\u043d\u0430","kind_detail":"town","name:de":"Staraja Kupawna","source":"openstreetmap.org","min_zoom":8.0,"name:sr":"\u0421\u0442\u0430\u0440\u0430 \u041a\u0443\u043f\u0430\u0432\u043d\u0430","id":256361845,"population":21937},"coordinates":[608,159]},{"type":"Point","properties":{"kind":"locality","name:en":"Chernogolovka","name":"\u0427\u0435\u0440\u043d\u043e\u0433\u043e\u043b\u043e\u0432\u043a\u0430","kind_detail":"town","min_zoom":8.0,"name:de":"Tschernogolowka","source":"openstreetmap.org","name:fr":"Tchernogolovka","name:it":"\u010cernogolovka","id":256361856,"population":21925},"coordinates":[1208,1201]},{"type":"Point","properties":{"kind":"locality","name:en":"Khotkovo","name":"\u0425\u043e\u0442\u044c\u043a\u043e\u0432\u043e","kind_detail":"town","name:de":"Chotkowo","source":"openstreetmap.org","min_zoom":8.0,"id":255184479,"population":21687},"coordinates":[64,2498]},{"type":"Point","properties":{"kind":"locality","name:en":"Monino","name":"\u041c\u043e\u043d\u0438\u043d\u043e","kind_detail":"town","name:de":"Monino","source":"openstreetmap.org","min_zoom":8.0,"name:be":"\u041c\u043e\u043di\u043d\u0430","id":256361844,"population":21023},"coordinates":[664,339]},{"type":"Point","properties":{"name:nn":"Pokrov","name:no":"Pokrov","name:ko":"\ud3ec\ud06c\ub85c\ud504","name:ar":"\u0628\u0648\u0643\u0631\u0648\u0641","kind":"locality","min_zoom":8.0,"name:it":"Pokrov","name:tl":"Pokrov","name:be":"\u041f\u0430\u043a\u0440\u043e\u045e","name:pl":"Pokrow","id":256361854,"name:ca":"Pokrov","population":17708,"name:fa":"\u067e\u0648\u06a9\u0631\u0648\u0641 (\u0634\u0647\u0631)","name:eo":"Pokrov","name:en":"Pokrov","name":"\u041f\u043e\u043a\u0440\u043e\u0432","source":"openstreetmap.org","kind_detail":"town","name:de":"Pokrow","name:tr":"Pokrov","name:fr":"Pokrov","name:zh":"\u6ce2\u514b\u7f85\u592b","name:es":"Pokrov"},"coordinates":[3500,743]},{"type":"Point","properties":{"kind":"locality","name:en":"Karabanovo","name":"\u041a\u0430\u0440\u0430\u0431\u0430\u043d\u043e\u0432\u043e","kind_detail":"town","name:de":"Karabanowo","source":"openstreetmap.org","min_zoom":8.0,"id":317349619,"population":14923},"coordinates":[2124,2783]},{"type":"Point","properties":{"kind":"locality","name:en":"Peresvet","name":"\u041f\u0435\u0440\u0435\u0441\u0432\u0435\u0442","kind_detail":"town","name:de":"Pereswet","source":"openstreetmap.org","min_zoom":8.0,"old_name":"\u041d\u043e\u0432\u043e\u0441\u0442\u0440\u043e\u0439\u043a\u0430","id":256361886,"population":13950},"coordinates":[597,3344]},{"type":"Point","properties":{"kind":"locality","name:en":"Strunino","name":"\u0421\u0442\u0440\u0443\u043d\u0438\u043d\u043e","kind_detail":"town","name:de":"Strunino","source":"openstreetmap.org","min_zoom":8.0,"id":269806572,"population":13829},"coordinates":[1798,3126]},{"type":"Point","properties":{"kind":"locality","name":"\u041a\u0440\u0430\u0441\u043d\u043e\u0437\u0430\u0432\u043e\u0434\u0441\u043a","kind_detail":"town","name:de":"Krasnosawodsk","source":"openstreetmap.org","min_zoom":8.0,"id":256361879,"population":13515},"coordinates":[803,3474]},{"type":"Point","properties":{"kind":"locality","name:en":"Fryanovo","name":"\u0424\u0440\u044f\u043d\u043e\u0432\u043e","kind_detail":"town","name:de":"Frjanowo","source":"openstreetmap.org","min_zoom":8.0,"id":256361855,"population":11182},"coordinates":[1388,1870]},{"type":"Point","properties":{"kind":"locality","name:en":"Obukhovo","name":"\u041e\u0431\u0443\u0445\u043e\u0432\u043e","kind_detail":"town","source":"openstreetmap.org","min_zoom":8.0,"old_name":"\u041e\u0431\u0443\u0445\u043e\u0432\u0441\u043a\u0430\u044f \u043f\u043e\u0434\u0433\u043e\u0440\u043e\u0434\u043d\u0430\u044f \u0441\u043b\u043e\u0431\u043e\u0434\u0430","id":1232532621,"population":10119},"coordinates":[885,287]},{"type":"Point","properties":{"source":"openstreetmap.org","kind":"locality","name":"\u0411\u0430\u043b\u0430\u043a\u0438\u0440\u0435\u0432\u043e","kind_detail":"town","population":9808,"min_zoom":8.0,"id":266295150},"coordinates":[2543,3822]},{"type":"Point","properties":{"kind":"locality","name":"\u0411\u043e\u0433\u043e\u0440\u043e\u0434\u0441\u043a\u043e\u0435","kind_detail":"town","name:de":"Bogorodskoe","source":"openstreetmap.org","min_zoom":8.0,"id":353351092,"population":9142},"coordinates":[623,3753]},{"type":"Point","properties":{"kind":"locality","name:en":"Dubrovo","name":"\u0414\u0443\u0431\u0440\u043e\u0432\u043e","kind_detail":"town","source":"openstreetmap.org","min_zoom":8.0,"id":3616250083,"population":8000},"coordinates":[1563,1566]},{"type":"Point","properties":{"source":"openstreetmap.org","kind":"locality","name":"\u0421\u043a\u043e\u0440\u043e\u043f\u0443\u0441\u043a\u043e\u0432\u0441\u043a\u0438\u0439","kind_detail":"town","population":6732,"min_zoom":8.0,"id":463158064},"coordinates":[500,3089]},{"type":"Point","properties":{"kind":"locality","name:en":"Sverdlovskiy","name":"\u0421\u0432\u0435\u0440\u0434\u043b\u043e\u0432\u0441\u043a\u0438\u0439","kind_detail":"town","name:de":"Swerdlowski","source":"openstreetmap.org","min_zoom":8.0,"old_name":"\u0413\u043e\u0440\u043e\u0434\u0438\u0449\u0438","id":360001019,"population":6674},"coordinates":[498,655]},{"type":"Point","properties":{"kind":"locality","name:en":"Star City","name":"\u0417\u0432\u0451\u0437\u0434\u043d\u044b\u0439 \u0433\u043e\u0440\u043e\u0434\u043e\u043a","alt_name:de":"Swjosdny Gorodok","kind_detail":"town","name:de":"Sternenst\u00e4dtchen","source":"openstreetmap.org","min_zoom":8.0,"alt_name:en":"Zvezdniy Gorodok","old_name":"\u0417\u0435\u043b\u0451\u043d\u044b\u0439","id":821630088,"population":5737},"coordinates":[420,528]},{"type":"Point","properties":{"source":"openstreetmap.org","kind":"locality","name":"\u0411\u043e\u043b\u044c\u0448\u0438\u0435 \u0414\u0432\u043e\u0440\u044b","kind_detail":"town","population":5073,"min_zoom":8.0,"id":804613513},"coordinates":[1989,190]}]},"transit":{"type":"GeometryCollection","geometries":[{"type":"LineString","properties":{"kind":"train","network":"\u0420\u0416\u0414","sort_rank":275,"source":"openstreetmap.org","min_zoom":6.0,"ref":"318\u041c","osm_relation":true,"name":"\u041f\u043e\u0435\u0437\u0434 \u2116 318\u041c: \u041c\u043e\u0441\u043a\u0432\u0430 \u2014 \u0410\u0440\u0445\u0430\u043d\u0433\u0435\u043b\u044c\u0441\u043a"},"arcs":[6]},{"type":"MultiLineString","properties":{"kind":"train","name":"055\/056 \u041c\u043e\u0441\u043a\u0432\u0430 \u2014 \u041a\u0440\u0430\u0441\u043d\u043e\u044f\u0440\u0441\u043a","sort_rank":275,"name:de":"055\/056 Moskau \u2014 Krasnojarsk","source":"openstreetmap.org","min_zoom":6.0,"operator":"\u0420\u043e\u0441\u0441\u0438\u0439\u0441\u043a\u0438\u0435 \u0436\u0435\u043b\u0435\u0437\u043d\u044b\u0435 \u0434\u043e\u0440\u043e\u0433\u0438","ref":"055\/056 \u041c\u043e\u0441\u043a\u0432\u0430 \u2014 \u041a\u0440\u0430\u0441\u043d\u043e\u044f\u0440\u0441\u043a","osm_relation":true},"arcs":[[7],[8],[9]]},{"type":"MultiLineString","properties":{"source":"openstreetmap.org","kind":"train","name":"\u041c\u043e\u0441\u043a\u0432\u0430 \u042f\u0440\u043e\u0441\u043b\u0430\u0432\u0441\u043a\u0430\u044f \u2014 \u041f\u0435\u0440\u043c\u044c","sort_rank":275,"ref":"007\u0415;008\u0415","min_zoom":6.0,"osm_relation":true},"arcs":[[10],[11]]},{"type":"LineString","properties":{"source":"openstreetmap.org","kind":"train","sort_rank":275,"ref":"\u041c\u043e\u0441\u043a\u0432\u0430-\u041a\u0443\u0440\u0441\u043a\u0430\u044f - \u042d\u043b\u0435\u043a\u0442\u0440\u043e\u0433\u043e\u0440\u0441\u043a","min_zoom":6.0,"osm_relation":true,"id":-1767815},"arcs":[12]},{"type":"LineString","properties":{"kind":"train","name":"Pyongyang \u2014 Moscow","sort_rank":275,"name:de":"Pj\u00f6ngjang \u2014 Moskau","source":"openstreetmap.org","min_zoom":6.0,"name:ko":"\ud3c9\uc591\u2013\ubaa8\uc2a4\ucf54\ubc14","name:ru":"\u041f\u0445\u0435\u043d\u044c\u044f\u043d \u2014 \u041c\u043e\u0441\u043a\u0432\u0430","ref":"002 Pyongyang - Moscow","osm_relation":true},"arcs":[13]},{"type":"MultiLineString","properties":{"kind":"train","network":"regional","sort_rank":275,"source":"openstreetmap.org","min_zoom":6.0,"operator":"\u0426\u041f\u041f\u041a","ref":"\u041c\u043e\u0441\u043a\u0432\u0430 - \u0411\u0430\u043b\u0430\u043a\u0438\u0440\u0435\u0432\u043e","osm_relation":true,"name":"\u041c\u043e\u0441\u043a\u0432\u0430 - \u0411\u0430\u043b\u0430\u043a\u0438\u0440\u0435\u0432\u043e"},"arcs":[[14],[15],[16],[17],[18],[19],[20]]},{"type":"MultiLineString","properties":{"source":"openstreetmap.org","kind":"train","name":"\u041f\u043e\u0435\u0437\u0434 \u2116 036\u042d \"\u041d\u0438\u0436\u0435\u0433\u043e\u0440\u043e\u0434\u0435\u0446\": \u041c\u043e\u0441\u043a\u0432\u0430 \u042f\u0440\u043e\u0441\u043b\u0430\u0432\u0441\u043a\u0430\u044f - \u041d\u0438\u0436\u043d\u0438\u0439 \u041d\u043e\u0432\u0433\u043e\u0440\u043e\u0434","sort_rank":275,"ref":"036\u042d","min_zoom":6.0,"osm_relation":true},"arcs":[[21],[22],[23]]},{"type":"LineString","properties":{"source":"openstreetmap.org","kind":"train","sort_rank":275,"ref":"\u041a\u0440\u0430\u0441\u043d\u043e\u0430\u0440\u043c\u0435\u0439\u0441\u043a \u2014 \u041c\u043e\u0441\u043a\u0432\u0430","min_zoom":6.0,"osm_relation":true},"arcs":[24]},{"type":"LineString","properties":{"kind":"train","name:en":"Moscow \u2014 Severobaykalsk","name":"\u041c\u043e\u0441\u043a\u0432\u0430 \u2014 \u0421\u0435\u0432\u0435\u0440\u043e\u0431\u0430\u0439\u043a\u0430\u043b\u044c\u0441\u043a","sort_rank":275,"name:de":"Moskau \u2014 Sewerobaikalsk","source":"openstreetmap.org","min_zoom":6.0,"operator":"\u0420\u043e\u0441\u0441\u0438\u0439\u0441\u043a\u0438\u0435 \u0436\u0435\u043b\u0435\u0437\u043d\u044b\u0435 \u0434\u043e\u0440\u043e\u0433\u0438","ref":"092\u0418","osm_relation":true},"arcs":[25]},{"type":"LineString","properties":{"source":"openstreetmap.org","kind":"train","sort_rank":275,"ref":"\u041c\u043e\u0441\u043a\u0432\u0430 \u2014 \u0421\u0435\u0440\u0433\u0438\u0435\u0432 \u041f\u043e\u0441\u0430\u0434","min_zoom":6.0,"osm_relation":true},"arcs":[26]},{"type":"LineString","properties":{"kind":"train","network":"\u0420\u0416\u0414","sort_rank":275,"source":"openstreetmap.org","min_zoom":6.0,"ref":"317\u041c","osm_relation":true,"name":"\u041f\u043e\u0435\u0437\u0434 \u2116 317\u041c: \u0410\u0440\u0445\u0430\u043d\u0433\u0435\u043b\u044c\u0441\u043a \u2014 \u041c\u043e\u0441\u043a\u0432\u0430"},"arcs":[27]},{"type":"MultiLineString","properties":{"kind":"train","network":"\u0420\u0416\u0414","sort_rank":275,"source":"openstreetmap.org","min_zoom":6.0,"operator":"\u0424\u041f\u041a","ref":"\u041c\u043e\u0441\u043a\u0432\u0430 - \u041a\u0438\u043d\u0435\u0448\u043c\u0430","osm_relation":true,"name":"\u041f\u043e\u0435\u0437\u0434 \u2116674: \u041c\u043e\u0441\u043a\u0432\u0430 - \u041a\u0438\u043d\u0435\u0448\u043c\u0430"},"arcs":[[28],[29],[30]]},{"type":"MultiLineString","properties":{"source":"openstreetmap.org","kind":"train","sort_rank":275,"ref":"\u041c\u043e\u0441\u043a\u0432\u0430-\u041a\u0443\u0440\u0441\u043a\u0430\u044f - \u0417\u0430\u0445\u0430\u0440\u043e\u0432\u043e","min_zoom":6.0,"osm_relation":true},"arcs":[[31],[32],[33],[34],[35]]},{"type":"LineString","properties":{"source":"openstreetmap.org","kind":"train","sort_rank":275,"ref":"\u041c\u043e\u0441\u043a\u0432\u0430 \u2014 \u0424\u0440\u044f\u0437\u0438\u043d\u043e","min_zoom":6.0,"osm_relation":true},"arcs":[36]},{"type":"LineString","properties":{"source":"openstreetmap.org","kind":"train","sort_rank":275,"ref":"\u0429\u0451\u043b\u043a\u043e\u0432\u043e \u2014 \u041c\u043e\u0441\u043a\u0432\u0430","min_zoom":6.0,"osm_relation":true},"arcs":[37]},{"type":"MultiLineString","properties":{"source":"openstreetmap.org","kind":"train","name":"\u0410\u043b\u0435\u043a\u0441\u0430\u043d\u0434\u0440\u043e\u0432 - \u041f\u043e\u0432\u0430\u0440\u043e\u0432\u043e-3","sort_rank":275,"ref":"\u0410\u043b\u0435\u043a\u0441\u0430\u043d\u0434\u0440\u043e\u0432 - \u041f\u043e\u0432\u0430\u0440\u043e\u0432\u043e-3","min_zoom":6.0,"osm_relation":true},"arcs":[[38],[39],[40]]},{"type":"MultiLineString","properties":{"source":"openstreetmap.org","kind":"train","sort_rank":275,"ref":"K3\/4","min_zoom":6.0,"osm_relation":true},"arcs":[[41],[42],[43]]},{"type":"LineString","properties":{"kind":"train","network":"\u0420\u0416\u0414","sort_rank":275,"source":"openstreetmap.org","min_zoom":6.0,"ref":"234\u0427","osm_relation":true,"name":"\u041f\u043e\u0435\u0437\u0434 \u2116 234\u0427: \u041c\u043e\u0441\u043a\u0432\u0430 \u2014 \u0410\u0440\u0445\u0430\u043d\u0433\u0435\u043b\u044c\u0441\u043a"},"arcs":[44]},{"type":"LineString","properties":{"source":"openstreetmap.org","kind":"train","sort_rank":275,"ref":"\u041c\u043e\u043d\u0438\u043d\u043e \u2014 \u041c\u043e\u0441\u043a\u0432\u0430","min_zoom":6.0,"osm_relation":true},"arcs":[45]},{"type":"LineString","properties":{"source":"openstreetmap.org","kind":"train","sort_rank":275,"ref":"\u041c\u043e\u0441\u043a\u0432\u0430 \u2014 \u041c\u043e\u043d\u0438\u043d\u043e","min_zoom":6.0,"osm_relation":true},"arcs":[46]},{"type":"LineString","properties":{"source":"openstreetmap.org","kind":"train","sort_rank":275,"ref":"\u0421\u0435\u0440\u0433\u0438\u0435\u0432 \u041f\u043e\u0441\u0430\u0434 \u2014 \u041c\u043e\u0441\u043a\u0432\u0430","min_zoom":6.0,"osm_relation":true},"arcs":[47]},{"type":"MultiLineString","properties":{"kind":"train","network":"\u0420\u0416\u0414","sort_rank":275,"source":"openstreetmap.org","min_zoom":6.0,"operator":"\u0421\u0435\u0432\u0435\u0440\u043d\u0430\u044f \u043f\u0440\u0438\u0433\u043e\u0440\u043e\u0434\u043d\u0430\u044f \u043f\u0430\u0441\u0441\u0430\u0436\u0438\u0440\u0441\u043a\u0430\u044f \u043a\u043e\u043c\u043f\u0430\u043d\u0438\u044f","ref":"\u0418\u0432\u0430\u043d\u043e\u0432\u043e - \u0410\u043b\u0435\u043a\u0441\u0430\u043d\u0434\u0440\u043e\u0432","osm_relation":true,"name":"\u041f\u043e\u0435\u0437\u0434: \u0418\u0432\u0430\u043d\u043e\u0432\u043e - \u0410\u043b\u0435\u043a\u0441\u0430\u043d\u0434\u0440\u043e\u0432"},"arcs":[[48],[49]]},{"type":"MultiLineString","properties":{"source":"openstreetmap.org","kind":"train","name":"Moscow \u2014 Beijing","sort_rank":275,"min_zoom":6.0,"osm_relation":true,"name:de":"Moskau \u2014 Peking"},"arcs":[[50],[51]]},{"type":"MultiLineString","properties":{"kind":"train","network":"regional","sort_rank":275,"source":"openstreetmap.org","min_zoom":6.0,"operator":"\u0426\u041f\u041f\u041a","ref":"\u041c\u043e\u0441\u043a\u0432\u0430 - \u0410\u043b\u0435\u043a\u0441\u0430\u043d\u0434\u0440\u043e\u0432 (\u042d\u043a\u0441\u043f\u0440\u0435\u0441\u0441)","osm_relation":true,"name":"\u041c\u043e\u0441\u043a\u0432\u0430 - \u0410\u043b\u0435\u043a\u0441\u0430\u043d\u0434\u0440\u043e\u0432 (\u042d\u043a\u0441\u043f\u0440\u0435\u0441\u0441)"},"arcs":[[52],[53],[54],[55],[56],[57]]},{"type":"MultiLineString","properties":{"kind":"train","network":"regional","sort_rank":275,"source":"openstreetmap.org","min_zoom":6.0,"operator":"\u0426\u041f\u041f\u041a","ref":"\u041c\u043e\u0441\u043a\u0432\u0430 - \u0410\u043b\u0435\u043a\u0441\u0430\u043d\u0434\u0440\u043e\u0432","osm_relation":true,"name":"\u041c\u043e\u0441\u043a\u0432\u0430 - \u0410\u043b\u0435\u043a\u0441\u0430\u043d\u0434\u0440\u043e\u0432"},"arcs":[[58],[59],[60],[61],[62],[63],[64],[65],[66]]},{"type":"MultiLineString","properties":{"kind":"train","name":"\u0422\u043e\u043c\u0441\u043a \u2014 \u041c\u043e\u0441\u043a\u0432\u0430","sort_rank":275,"source":"openstreetmap.org","min_zoom":6.0,"operator":"\u0420\u043e\u0441\u0441\u0438\u0439\u0441\u043a\u0438\u0435 \u0436\u0435\u043b\u0435\u0437\u043d\u044b\u0435 \u0434\u043e\u0440\u043e\u0433\u0438","ref":"37","osm_relation":true,"network":"RU-railway"},"arcs":[[67],[68],[69]]},{"type":"LineString","properties":{"kind":"train","network":"\u0420\u0416\u0414","sort_rank":275,"source":"openstreetmap.org","min_zoom":6.0,"ref":"233\u042f","osm_relation":true,"name":"\u041f\u043e\u0435\u0437\u0434 \u2116 233\u042f: \u0410\u0440\u0445\u0430\u043d\u0433\u0435\u043b\u044c\u0441\u043a \u2014 \u041c\u043e\u0441\u043a\u0432\u0430"},"arcs":[70]},{"type":"MultiLineString","properties":{"source":"openstreetmap.org","kind":"train","sort_rank":275,"ref":"\u0424\u0440\u044f\u0437\u0435\u0432\u043e \u2014 \u041c\u043e\u0441\u043a\u0432\u0430","min_zoom":6.0,"osm_relation":true},"arcs":[[71],[72],[73],[74],[75],[76]]},{"type":"LineString","properties":{"source":"openstreetmap.org","kind":"train","sort_rank":275,"ref":"\u041c\u043e\u0441\u043a\u0432\u0430 \u2014 \u0429\u0451\u043b\u043a\u043e\u0432\u043e","min_zoom":6.0,"osm_relation":true},"arcs":[77]},{"type":"LineString","properties":{"source":"openstreetmap.org","kind":"train","sort_rank":275,"ref":"\u041c\u043e\u0441\u043a\u0432\u0430 \u2014 \u041a\u0440\u0430\u0441\u043d\u043e\u0430\u0440\u043c\u0435\u0439\u0441\u043a","min_zoom":6.0,"osm_relation":true},"arcs":[78]},{"type":"MultiLineString","properties":{"source":"openstreetmap.org","kind":"train","sort_rank":275,"ref":"\u041c\u043e\u0441\u043a\u0432\u0430 \u2014 \u0424\u0440\u044f\u0437\u0435\u0432\u043e","min_zoom":6.0,"osm_relation":true},"arcs":[[79],[80],[81],[82],[83],[84],[85]]},{"type":"LineString","properties":{"source":"openstreetmap.org","kind":"train","sort_rank":275,"ref":"\u0424\u0440\u044f\u0437\u0438\u043d\u043e \u2014 \u041c\u043e\u0441\u043a\u0432\u0430","min_zoom":6.0,"osm_relation":true},"arcs":[86]},{"type":"MultiLineString","properties":{"source":"openstreetmap.org","kind":"train","sort_rank":275,"ref":"\u0410\u043b\u0435\u043a\u0441\u0430\u043d\u0434\u0440\u043e\u0432 - \u041a\u0443\u0440\u043e\u0432\u0441\u043a\u0430\u044f","min_zoom":6.0,"osm_relation":true},"arcs":[[87],[88],[89]]}]},"pois":{"type":"GeometryCollection","geometries":[{"type":"Point","properties":{"source":"openstreetmap.org","kind":"military","name":"\u0421\u043e\u0444\u0440\u0438\u043d\u0441\u043a\u0438\u0439 \u0430\u0440\u0442\u043f\u043e\u043b\u0438\u0433\u043e\u043d (\u041d\u0418\u0418 \u0413\u0435\u043e\u0434\u0435\u0437\u0438\u044f)","area":445159000,"tier":3,"min_zoom":8.0,"id":37391822},"coordinates":[953,2154]},{"type":"Point","properties":{"source":"openstreetmap.org","kind":"military","name":"\u0422\u0430\u043d\u043a\u043e\u0432\u044b\u0439 \u043f\u043e\u043b\u0438\u0433\u043e\u043d","area":43218200,"tier":3,"min_zoom":8.0,"id":37391824},"coordinates":[1700,1867]},{"type":"Point","properties":{"kind":"military","name:en":"821th Main Space Intelligence Centre","name":"821-\u0439 \u0413\u043b\u0430\u0432\u043d\u044b\u0439 \u0446\u0435\u043d\u0442\u0440 \u0440\u0430\u0437\u0432\u0435\u0434\u043a\u0438 \u043a\u043e\u0441\u043c\u0438\u0447\u0435\u0441\u043a\u043e\u0439 \u043e\u0431\u0441\u0442\u0430\u043d\u043e\u0432\u043a\u0438","area":15804200,"source":"openstreetmap.org","min_zoom":8.0,"tier":3,"id":121748632},"coordinates":[1450,1630]},{"type":"Point","properties":{"source":"openstreetmap.org","kind":"military","name":"\u0410\u0440\u0441\u0435\u043d\u0430\u043b \u0438\u043d\u0436\u0435\u043d\u0435\u0440\u043d\u044b\u0445 \u0432\u043e\u0439\u0441\u043a","area":16827900,"tier":3,"min_zoom":8.0,"id":286033068},"coordinates":[1391,3054]}]},"boundaries":{"type":"GeometryCollection","geometries":[{"type":"LineString","properties":{"name:left:he":"\u05de\u05d7\u05d5\u05d6 \u05d9\u05e8\u05d5\u05e1\u05dc\u05d1\u05dc","name:left:sw":"Yaroslavl Oblast","name:left:sv":"Jaroslavl oblast","id:right":-72197,"name:right:lt":"Vladimiro sritis","name:left:no":"Jaroslavl oblast","min_zoom":8.0,"name:left:lt":"Jaroslavlio sritis","name:left:bg":"\u042f\u0440\u043e\u0441\u043b\u0430\u0432\u0441\u043a\u0430 \u043e\u0431\u043b\u0430\u0441\u0442","name:left:lv":"Jaroslav\u013cas apgabals","name:left:be":"\u042f\u0440\u0430\u0441\u043b\u0430\u045e\u0441\u043a\u0430\u044f \u0432\u043e\u0431\u043b\u0430\u0441\u0446\u044c","name:left:hu":"Jaroszlavli ter\u00fclet","id":-81994,"name:right":"\u0412\u043b\u0430\u0434\u0438\u043c\u0438\u0440\u0441\u043a\u0430\u044f \u043e\u0431\u043b\u0430\u0441\u0442\u044c","name:left:en":"Yaroslavl Oblast","name:left:el":"\u03a0\u03b5\u03c1\u03b9\u03c6\u03ad\u03c1\u03b5\u03b9\u03b1 \u0393\u03b9\u03b1\u03c1\u03bf\u03c3\u03bb\u03ac\u03b2\u03bb","name:right:ca":"Prov\u00edncia de Vlad\u00edmir","kind_detail":"4","name:left:ca":"Prov\u00edncia de Iaroslavl","source":"openstreetmap.org","id:left":-81994,"name:left:es":"\u00d3blast de Yaroslavl","name:right:cs":"Vladimirsk\u00e1 oblast","name:left:cv":"\u042f\u0440\u043e\u0441\u043b\u0430\u0432\u043b\u044c \u043e\u0431\u043b\u0430\u00e7\u0115","name:left:os":"\u042f\u0440\u043e\u0441\u043b\u0430\u0432\u043b\u044b \u043e\u0431\u043b\u00e6\u0441\u0442","name:left:cs":"Jaroslavsk\u00e1 oblast","name:left":"\u042f\u0440\u043e\u0441\u043b\u0430\u0432\u0441\u043a\u0430\u044f \u043e\u0431\u043b\u0430\u0441\u0442\u044c","name:left:ce":"\u042f\u0440\u043e\u0441\u043b\u0430\u0432\u0430\u043d \u043e\u0431\u043b\u0430\u0441\u0442\u044c","name:left:ka":"\u10d8\u10d0\u10e0\u10dd\u10e1\u10da\u10d0\u10d5\u10da\u10d8\u10e1 \u10dd\u10da\u10e5\u10d8","name:left:pl":"Obw\u00f3d jaros\u0142awski","name:left:tr":"Yaroslavl Oblast\u0131","name:left:id":"Oblast Yaroslavl","name:left:tt":"\u042f\u0440\u043e\u0441\u043b\u0430\u0432\u043b\u044c \u04e9\u043b\u043a\u04d9\u0441\u0435","name:left:az":"Yaroslavl vilay\u0259ti","name:left:af":"Jaroslawl-oblast","name:left:kv":"\u042f\u0440\u043e\u0441\u043b\u0430\u0432\u043b\u044c \u043e\u0431\u043b\u0430\u0441\u044c\u0442","name:left:it":"Oblast' di Jaroslavl'","name:right:pl":"Obw\u00f3d w\u0142odzimierski","name:right:en":"Vladimir Oblast","osm_relation":true,"name:left:uk":"\u042f\u0440\u043e\u0441\u043b\u0430\u0432\u0441\u044c\u043a\u0430 \u043e\u0431\u043b\u0430\u0441\u0442\u044c","kind":"region","name":"\u042f\u0440\u043e\u0441\u043b\u0430\u0432\u0441\u043a\u0430\u044f \u043e\u0431\u043b\u0430\u0441\u0442\u044c - \u0412\u043b\u0430\u0434\u0438\u043c\u0438\u0440\u0441\u043a\u0430\u044f \u043e\u0431\u043b\u0430\u0441\u0442\u044c","name:left:da":"Jaroslavl oblast","name:left:nl":"Oblast Jaroslavl","name:left:fi":"Jaroslavlin alue","name:left:de":"Oblast Jaroslawl","sort_rank":256,"name:left:fr":"Oblast de Iaroslavl","name:left:eu":"Jaroslavl oblasta","name:left:hy":"\u0545\u0561\u0580\u0578\u057d\u056c\u0561\u057e\u056c\u056b \u0574\u0561\u0580\u0566"},"arcs":[0]},{"type":"MultiLineString","properties":{"name:left:he":"\u05de\u05d7\u05d5\u05d6 \u05d9\u05e8\u05d5\u05e1\u05dc\u05d1\u05dc","name:left:sw":"Yaroslavl Oblast","name:left:sv":"Jaroslavl oblast","id:right":-72197,"name:right:lt":"Vladimiro sritis","name:left:no":"Jaroslavl oblast","min_zoom":8.0,"name:left:lt":"Jaroslavlio sritis","name:left:bg":"\u042f\u0440\u043e\u0441\u043b\u0430\u0432\u0441\u043a\u0430 \u043e\u0431\u043b\u0430\u0441\u0442","name:left:lv":"Jaroslav\u013cas apgabals","name:left:be":"\u042f\u0440\u0430\u0441\u043b\u0430\u045e\u0441\u043a\u0430\u044f \u0432\u043e\u0431\u043b\u0430\u0441\u0446\u044c","name:left:hu":"Jaroszlavli ter\u00fclet","id":-81994,"name:right":"\u0412\u043b\u0430\u0434\u0438\u043c\u0438\u0440\u0441\u043a\u0430\u044f \u043e\u0431\u043b\u0430\u0441\u0442\u044c","name:left:en":"Yaroslavl Oblast","name:left:el":"\u03a0\u03b5\u03c1\u03b9\u03c6\u03ad\u03c1\u03b5\u03b9\u03b1 \u0393\u03b9\u03b1\u03c1\u03bf\u03c3\u03bb\u03ac\u03b2\u03bb","name:right:ca":"Prov\u00edncia de Vlad\u00edmir","kind_detail":"4","name:left:ca":"Prov\u00edncia de Iaroslavl","source":"openstreetmap.org","id:left":-81994,"name:left:es":"\u00d3blast de Yaroslavl","name:right:cs":"Vladimirsk\u00e1 oblast","name:left:cv":"\u042f\u0440\u043e\u0441\u043b\u0430\u0432\u043b\u044c \u043e\u0431\u043b\u0430\u00e7\u0115","name:left:os":"\u042f\u0440\u043e\u0441\u043b\u0430\u0432\u043b\u044b \u043e\u0431\u043b\u00e6\u0441\u0442","name:left:cs":"Jaroslavsk\u00e1 oblast","name:left":"\u042f\u0440\u043e\u0441\u043b\u0430\u0432\u0441\u043a\u0430\u044f \u043e\u0431\u043b\u0430\u0441\u0442\u044c","name:left:ce":"\u042f\u0440\u043e\u0441\u043b\u0430\u0432\u0430\u043d \u043e\u0431\u043b\u0430\u0441\u0442\u044c","name:left:ka":"\u10d8\u10d0\u10e0\u10dd\u10e1\u10da\u10d0\u10d5\u10da\u10d8\u10e1 \u10dd\u10da\u10e5\u10d8","name:left:pl":"Obw\u00f3d jaros\u0142awski","name:left:tr":"Yaroslavl Oblast\u0131","name:left:id":"Oblast Yaroslavl","name:left:tt":"\u042f\u0440\u043e\u0441\u043b\u0430\u0432\u043b\u044c \u04e9\u043b\u043a\u04d9\u0441\u0435","name:left:az":"Yaroslavl vilay\u0259ti","name:left:af":"Jaroslawl-oblast","name:left:kv":"\u042f\u0440\u043e\u0441\u043b\u0430\u0432\u043b\u044c \u043e\u0431\u043b\u0430\u0441\u044c\u0442","name:left:it":"Oblast' di Jaroslavl'","name:right:pl":"Obw\u00f3d w\u0142odzimierski","name:right:en":"Vladimir Oblast","osm_relation":true,"name:left:uk":"\u042f\u0440\u043e\u0441\u043b\u0430\u0432\u0441\u044c\u043a\u0430 \u043e\u0431\u043b\u0430\u0441\u0442\u044c","kind":"region","name":"\u042f\u0440\u043e\u0441\u043b\u0430\u0432\u0441\u043a\u0430\u044f \u043e\u0431\u043b\u0430\u0441\u0442\u044c - \u0412\u043b\u0430\u0434\u0438\u043c\u0438\u0440\u0441\u043a\u0430\u044f \u043e\u0431\u043b\u0430\u0441\u0442\u044c","name:left:da":"Jaroslavl oblast","name:left:nl":"Oblast Jaroslavl","name:left:fi":"Jaroslavlin alue","name:left:de":"Oblast Jaroslawl","sort_rank":256,"name:left:fr":"Oblast de Iaroslavl","name:left:eu":"Jaroslavl oblasta","name:left:hy":"\u0545\u0561\u0580\u0578\u057d\u056c\u0561\u057e\u056c\u056b \u0574\u0561\u0580\u0566"},"arcs":[[1],[2],[3]]},{"type":"LineString","properties":{"kind":"region","name:en":"Vladimir Oblast","name":"\u0412\u043b\u0430\u0434\u0438\u043c\u0438\u0440\u0441\u043a\u0430\u044f \u043e\u0431\u043b\u0430\u0441\u0442\u044c","name:lt":"Vladimiro sritis","sort_rank":256,"kind_detail":"4","name:cs":"Vladimirsk\u00e1 oblast","source":"openstreetmap.org","min_zoom":8.0,"name:ca":"Prov\u00edncia de Vlad\u00edmir","name:pl":"Obw\u00f3d w\u0142odzimierski","id":-72197,"osm_relation":true},"arcs":[4]},{"type":"LineString","properties":{"kind":"region","name:en":"Vladimir Oblast","name":"\u0412\u043b\u0430\u0434\u0438\u043c\u0438\u0440\u0441\u043a\u0430\u044f \u043e\u0431\u043b\u0430\u0441\u0442\u044c","name:lt":"Vladimiro sritis","sort_rank":256,"kind_detail":"4","name:cs":"Vladimirsk\u00e1 oblast","source":"openstreetmap.org","min_zoom":8.0,"name:ca":"Prov\u00edncia de Vlad\u00edmir","name:pl":"Obw\u00f3d w\u0142odzimierski","id":-72197,"osm_relation":true},"arcs":[5]}]},"roads":{"type":"GeometryCollection","geometries":[{"type":"MultiLineString","properties":{"source":"openstreetmap.org","kind":"major_road","landuse_kind":"urban_area","sort_rank":380,"kind_detail":"primary","min_zoom":8.0},"arcs":[[90],[91],[92],[93],[94],[95]]},{"type":"LineString","properties":{"bus_network":null,"network":"ru:national","sort_rank":381,"kind_detail":"trunk","kind":"major_road","source":"openstreetmap.org","min_zoom":8.0,"bus_shield_text":"20","shield_text":"7","ref":"\u041c-7"},"arcs":[96]},{"type":"LineString","properties":{"kind":"major_road","network":"ru:regional","sort_rank":380,"kind_detail":"primary","source":"openstreetmap.org","min_zoom":8.0,"landuse_kind":"urban_area","shield_text":"17\u041a","ref":"17\u041a-9","id":247578558},"arcs":[97]},{"type":"LineString","properties":{"bus_network":"\u041c\u043e\u0441\u043a\u043e\u0432\u0441\u043a\u0430\u044f \u043e\u0431\u043b\u0430\u0441\u0442\u044c","int_name":"Proletarskiy prospekt","sort_rank":380,"kind_detail":"primary","kind":"major_road","source":"openstreetmap.org","min_zoom":8.0,"name:en":"Proletarskiy Avenue","name:uk":"\u041f\u0440\u043e\u043b\u0435\u0442\u0430\u0440\u0441\u044c\u043a\u0438\u0439 \u043f\u0440\u043e\u0441\u043f\u0435\u043a\u0442","bus_shield_text":"50","name:be":"\u041f\u0440\u0430\u043b\u0435\u0442\u0430\u0440\u0441\u043a\u0456 \u043f\u0440\u0430\u0441\u043f\u0435\u043a\u0442","landuse_kind":"urban_area","ref":"\u0420110"},"arcs":[98]},{"type":"LineString","properties":{"bus_network":null,"network":"ru:national","sort_rank":381,"kind_detail":"trunk","kind":"major_road","source":"openstreetmap.org","min_zoom":8.0,"bus_shield_text":"399","shield_text":"7","ref":"\u041c-7"},"arcs":[99]},{"type":"LineString","properties":{"bus_network":null,"network":"ru:national","sort_rank":381,"kind_detail":"trunk","kind":"major_road","source":"openstreetmap.org","min_zoom":8.0,"bus_shield_text":"24\u044d","shield_text":"107","ref":"\u0410-107"},"arcs":[100]},{"type":"LineString","properties":{"kind":"major_road","network":"ru:national","sort_rank":381,"kind_detail":"trunk","bus_network":"\u0414\u043c\u0438\u0442\u0440\u043e\u0432","source":"openstreetmap.org","min_zoom":8.0,"bus_shield_text":"63","shield_text":"108","landuse_kind":"urban_area","ref":"\u0410-108","id":371790902},"arcs":[101]},{"type":"LineString","properties":{"kind":"major_road","network":"ru:national","sort_rank":381,"kind_detail":"trunk","source":"openstreetmap.org","min_zoom":8.0,"old_name":"\u0416\u0435\u043b\u0435\u0437\u043d\u043e\u0434\u043e\u0440\u043e\u0436\u043d\u0430\u044f \u0443\u043b\u0438\u0446\u0430","shield_text":"107","landuse_kind":"urban_area","ref":"\u0410-107","id":150280995},"arcs":[102]},{"type":"LineString","properties":{"source":"openstreetmap.org","bus_network":null,"bus_shield_text":"24","sort_rank":380,"kind_detail":"primary","min_zoom":8.0,"kind":"major_road"},"arcs":[103]},{"type":"LineString","properties":{"kind":"major_road","network":"ru:national","sort_rank":381,"kind_detail":"trunk","source":"openstreetmap.org","min_zoom":8.0,"old_name":"\u0417\u0430\u043b\u0438\u0432\u043d\u0430\u044f \u0443\u043b\u0438\u0446\u0430 (\u0434\u043e 1970-x \u0433\u043e\u0434\u043e\u0432)","shield_text":"108","landuse_kind":"urban_area","ref":"\u0410-108","id":55001380},"arcs":[104]},{"type":"MultiLineString","properties":{"bus_network":null,"sort_rank":380,"kind_detail":"primary","kind":"major_road","source":"openstreetmap.org","min_zoom":8.0,"bus_shield_text":"335","landuse_kind":"urban_area","ref":"\u0420110"},"arcs":[[105],[106]]},{"type":"MultiLineString","properties":{"bus_network":null,"network":"ru:national","sort_rank":381,"kind_detail":"trunk","kind":"major_road","source":"openstreetmap.org","min_zoom":8.0,"bus_shield_text":"25*","shield_text":"7","ref":"\u041c-7"},"arcs":[[107],[108],[109],[110]]},{"type":"LineString","properties":{"bus_network":null,"network":"ru:national","sort_rank":381,"kind_detail":"trunk","old_name":"\u0416\u0435\u043b\u0435\u0437\u043d\u043e\u0434\u043e\u0440\u043e\u0436\u043d\u0430\u044f \u0443\u043b\u0438\u0446\u0430","kind":"major_road","source":"openstreetmap.org","min_zoom":8.0,"bus_shield_text":"42","shield_text":"107","landuse_kind":"urban_area","ref":"\u0410-107","id":137379951},"arcs":[111]},{"type":"LineString","properties":{"bus_network":"\u0433\u043e\u0440\u043e\u0434\u0441\u043a\u043e\u0435 \u043f\u043e\u0441\u0435\u043b\u0435\u043d\u0438\u0435 \u0429\u0451\u043b\u043a\u043e\u0432\u043e","int_name":"Proletarskiy prospekt","sort_rank":380,"kind_detail":"primary","kind":"major_road","source":"openstreetmap.org","min_zoom":8.0,"name:en":"Proletarskiy Avenue","name:uk":"\u041f\u0440\u043e\u043b\u0435\u0442\u0430\u0440\u0441\u044c\u043a\u0438\u0439 \u043f\u0440\u043e\u0441\u043f\u0435\u043a\u0442","bus_shield_text":"1","name:be":"\u041f\u0440\u0430\u043b\u0435\u0442\u0430\u0440\u0441\u043a\u0456 \u043f\u0440\u0430\u0441\u043f\u0435\u043a\u0442","landuse_kind":"urban_area","ref":"P110","id":40760798},"arcs":[112]},{"type":"MultiLineString","properties":{"bus_network":"\u041c\u043e\u0441\u043a\u043e\u0432\u0441\u043a\u0430\u044f \u043e\u0431\u043b\u0430\u0441\u0442\u044c","sort_rank":380,"kind_detail":"primary","kind":"major_road","source":"openstreetmap.org","min_zoom":8.0,"bus_shield_text":"20","ref":"46\u041a-7120"},"arcs":[[113],[114]]},{"type":"LineString","properties":{"bus_network":"\u0441\u043c\u0435\u0436\u043d\u044b\u0435 \u043c\u0435\u0436\u0440\u0435\u0433\u0438\u043e\u043d\u0430\u043b\u044c\u043d\u044b\u0435 \u043c\u0430\u0440\u0448\u0440\u0443\u0442\u044b (\u041c\u043e\u0441\u043a\u043e\u0432\u0441\u043a\u0430\u044f \u043e\u0431\u043b\u0430\u0441\u0442\u044c)","network":"ru:national","sort_rank":380,"kind_detail":"primary","kind":"major_road","source":"openstreetmap.org","min_zoom":8.0,"bus_shield_text":"320\u044d","shield_text":"103","ref":"\u0410-103"},"arcs":[115]},{"type":"MultiLineString","properties":{"source":"openstreetmap.org","bus_network":null,"bus_shield_text":"388","sort_rank":380,"kind_detail":"primary","min_zoom":8.0,"kind":"major_road"},"arcs":[[116],[117],[118],[119],[120]]},{"type":"LineString","properties":{"bus_network":"\u0414\u043c\u0438\u0442\u0440\u043e\u0432","network":"ru:national","sort_rank":381,"kind_detail":"trunk","kind":"major_road","source":"openstreetmap.org","min_zoom":8.0,"bus_shield_text":"63","shield_text":"108","ref":"\u0410-108"},"arcs":[121]},{"type":"MultiLineString","properties":{"bus_network":null,"network":"ru:national","sort_rank":381,"kind_detail":"trunk","kind":"major_road","source":"openstreetmap.org","min_zoom":8.0,"bus_shield_text":"34","shield_text":"7","ref":"\u041c-7"},"arcs":[[122],[123],[124]]},{"type":"LineString","properties":{"bus_network":null,"network":"ru:national","sort_rank":381,"landuse_kind":"urban_area","kind":"major_road","source":"openstreetmap.org","min_zoom":8.0,"bus_shield_text":"24\u044d","shield_text":"107","kind_detail":"trunk","ref":"\u0410-107"},"arcs":[125]},{"type":"LineString","properties":{"bus_network":null,"name:en":"Fryanovo road","sort_rank":380,"kind_detail":"primary","kind":"major_road","source":"openstreetmap.org","min_zoom":8.0,"bus_shield_text":"29","ref":"46\u041a-7120"},"arcs":[126]},{"type":"MultiLineString","properties":{"sort_rank":380,"kind_detail":"primary","min_zoom":8.0,"kind":"major_road","source":"openstreetmap.org"},"arcs":[[127],[128]]},{"type":"MultiLineString","properties":{"kind":"major_road","network":"ru:national","sort_rank":381,"kind_detail":"trunk","source":"openstreetmap.org","min_zoom":8.0,"shield_text":"107","ref":"\u0410-107"},"arcs":[[129],[130],[131],[132],[133],[134]]},{"type":"MultiLineString","properties":{"bus_network":"\u0441\u043c\u0435\u0436\u043d\u044b\u0435 \u043c\u0435\u0436\u0440\u0435\u0433\u0438\u043e\u043d\u0430\u043b\u044c\u043d\u044b\u0435 \u043c\u0430\u0440\u0448\u0440\u0443\u0442\u044b (\u041c\u043e\u0441\u043a\u043e\u0432\u0441\u043a\u0430\u044f \u043e\u0431\u043b\u0430\u0441\u0442\u044c)","network":"ru:national","sort_rank":381,"landuse_kind":"urban_area","reg_name":"\u0429\u0451\u043b\u043a\u043e\u0432\u0441\u043a\u043e\u0435 \u0448\u043e\u0441\u0441\u0435","kind":"major_road","source":"openstreetmap.org","min_zoom":8.0,"bus_shield_text":"320\u044d","shield_text":"103","kind_detail":"trunk","ref":"\u0410-103"},"arcs":[[135],[136]]},{"type":"LineString","properties":{"source":"openstreetmap.org","bus_network":null,"bus_shield_text":"24\u044d","sort_rank":380,"kind_detail":"primary","min_zoom":8.0,"kind":"major_road"},"arcs":[137]},{"type":"LineString","properties":{"bus_network":null,"network":"ru:regional","sort_rank":380,"kind_detail":"primary","kind":"major_road","source":"openstreetmap.org","min_zoom":8.0,"bus_shield_text":"676","shield_text":"17\u0410","landuse_kind":"urban_area","ref":"17\u0410-2"},"arcs":[138]},{"type":"MultiLineString","properties":{"source":"openstreetmap.org","bus_network":null,"bus_shield_text":"21","sort_rank":381,"kind_detail":"trunk","min_zoom":8.0,"kind":"major_road"},"arcs":[[139],[140]]},{"type":"LineString","properties":{"bus_network":null,"network":"ru:national","sort_rank":381,"kind_detail":"trunk","kind":"major_road","source":"openstreetmap.org","min_zoom":8.0,"bus_shield_text":"124","shield_text":"108","ref":"\u0410-108"},"arcs":[141]},{"type":"MultiLineString","properties":{"kind":"major_road","network":"ru:national","sort_rank":381,"kind_detail":"trunk","source":"openstreetmap.org","min_zoom":8.0,"shield_text":"7","ref":"\u041c-7"},"arcs":[[142],[143],[144],[145],[146],[147],[148],[149],[150],[151],[152],[153]]},{"type":"LineString","properties":{"kind":"major_road","sort_rank":380,"kind_detail":"primary","bus_network":null,"source":"openstreetmap.org","min_zoom":8.0,"bus_shield_text":"335","landuse_kind":"urban_area","ref":"P110","id":54931434},"arcs":[154]},{"type":"LineString","properties":{"kind":"major_road","network":"ru:national","sort_rank":381,"kind_detail":"trunk","bus_network":"\u0441\u043c\u0435\u0436\u043d\u044b\u0435 \u043c\u0435\u0436\u0440\u0435\u0433\u0438\u043e\u043d\u0430\u043b\u044c\u043d\u044b\u0435 \u043c\u0430\u0440\u0448\u0440\u0443\u0442\u044b (\u041c\u043e\u0441\u043a\u043e\u0432\u0441\u043a\u0430\u044f \u043e\u0431\u043b\u0430\u0441\u0442\u044c)","source":"openstreetmap.org","min_zoom":8.0,"bus_shield_text":"320\u044d","shield_text":"107","ref":"\u0410-107","id":62106164},"arcs":[155]},{"type":"MultiLineString","properties":{"bus_network":"\u041c\u043e\u0441\u043a\u043e\u0432\u0441\u043a\u0430\u044f \u043e\u0431\u043b\u0430\u0441\u0442\u044c","sort_rank":380,"kind_detail":"primary","kind":"major_road","source":"openstreetmap.org","min_zoom":8.0,"bus_shield_text":"20","landuse_kind":"urban_area","ref":"46\u041a-7120"},"arcs":[[156],[157],[158],[159]]},{"type":"LineString","properties":{"bus_network":"\u041c\u043e\u0441\u043a\u043e\u0432\u0441\u043a\u0430\u044f \u043e\u0431\u043b\u0430\u0441\u0442\u044c","name:en":"Fryanovo road","sort_rank":380,"kind_detail":"primary","kind":"major_road","source":"openstreetmap.org","min_zoom":8.0,"bus_shield_text":"20","landuse_kind":"urban_area","ref":"46\u041a-7120"},"arcs":[160]},{"type":"LineString","properties":{"bus_network":null,"network":"ru:national","sort_rank":380,"kind_detail":"primary","kind":"major_road","source":"openstreetmap.org","min_zoom":8.0,"bus_shield_text":"24\u044d","shield_text":"103","ref":"\u0410-103"},"arcs":[161]},{"type":"MultiLineString","properties":{"bus_network":null,"network":"ru:national","sort_rank":381,"kind_detail":"trunk","bus_shield_text":"20","name:eo":"Entuziastov \u015doseo","source":"openstreetmap.org","min_zoom":8.0,"old_name":"\u0412\u043b\u0430\u0434\u0438\u043c\u0438\u0440\u0441\u043a\u043e\u0435 \u0448\u043e\u0441\u0441\u0435","shield_text":"7","name:be":"\u0448\u0430\u0448\u0430 \u042d\u043d\u0442\u0443\u0437\u0456\u044f\u0441\u0442\u0430\u045e","ref":"\u041c-7","kind":"major_road"},"arcs":[[162],[163]]},{"type":"MultiLineString","properties":{"bus_network":null,"network":"ru:national","sort_rank":381,"kind_detail":"trunk","kind":"major_road","source":"openstreetmap.org","min_zoom":8.0,"bus_shield_text":"322","shield_text":"7","ref":"\u041c-7"},"arcs":[[164],[165],[166],[167]]},{"type":"MultiLineString","properties":{"kind":"major_road","int_name":"Moskovskaya ulitsa","name:en":"Moscow Street","sort_rank":380,"kind_detail":"primary","bus_network":"\u0429\u0451\u043b\u043a\u043e\u0432\u0441\u043a\u0438\u0439 \u043c\u0443\u043d\u0438\u0446\u0438\u043f\u0430\u043b\u044c\u043d\u044b\u0439 \u0440\u0430\u0439\u043e\u043d","source":"openstreetmap.org","min_zoom":8.0,"alt_name:en":"Moskovskaya Street","name:uk":"\u041c\u043e\u0441\u043a\u043e\u0432\u0441\u044c\u043a\u0430 \u0432\u0443\u043b\u0438\u0446\u044f","bus_shield_text":"24","name:be":"\u041c\u0430\u0441\u043a\u043e\u045e\u0441\u043a\u0430\u044f \u0432\u0443\u043b\u0456\u0446\u0430","landuse_kind":"urban_area","ref":"P110"},"arcs":[[168],[169],[170],[171]]},{"type":"MultiLineString","properties":{"bus_network":null,"network":"ru:national","sort_rank":381,"kind_detail":"trunk","kind":"major_road","source":"openstreetmap.org","min_zoom":8.0,"bus_shield_text":"29","shield_text":"107","ref":"\u0410-107"},"arcs":[[172],[173],[174]]},{"type":"MultiLineString","properties":{"bus_network":"\u0433\u043e\u0440\u043e\u0434\u0441\u043a\u043e\u0435 \u043f\u043e\u0441\u0435\u043b\u0435\u043d\u0438\u0435 \u0429\u0451\u043b\u043a\u043e\u0432\u043e","int_name":"Proletarskiy prospekt","sort_rank":380,"kind_detail":"primary","kind":"major_road","source":"openstreetmap.org","min_zoom":8.0,"name:en":"Proletarskiy Avenue","name:uk":"\u041f\u0440\u043e\u043b\u0435\u0442\u0430\u0440\u0441\u044c\u043a\u0438\u0439 \u043f\u0440\u043e\u0441\u043f\u0435\u043a\u0442","bus_shield_text":"2","name:be":"\u041f\u0440\u0430\u043b\u0435\u0442\u0430\u0440\u0441\u043a\u0456 \u043f\u0440\u0430\u0441\u043f\u0435\u043a\u0442","landuse_kind":"urban_area","ref":"\u0420110"},"arcs":[[175],[176]]},{"type":"LineString","properties":{"name:eo":"Entuziastov \u015doseo","network":"ru:national","sort_rank":381,"kind_detail":"trunk","kind":"major_road","source":"openstreetmap.org","min_zoom":8.0,"old_name":"\u0412\u043b\u0430\u0434\u0438\u043c\u0438\u0440\u0441\u043a\u043e\u0435 \u0448\u043e\u0441\u0441\u0435","shield_text":"7","name:be":"\u0448\u0430\u0448\u0430 \u042d\u043d\u0442\u0443\u0437\u0456\u044f\u0441\u0442\u0430\u045e","ref":"\u041c-7"},"arcs":[177]},{"type":"MultiLineString","properties":{"kind":"major_road","network":"ru:national","sort_rank":381,"landuse_kind":"urban_area","source":"openstreetmap.org","min_zoom":8.0,"kind_detail":"trunk","shield_text":"7","ref":"\u041c-7"},"arcs":[[178],[179],[180],[181],[182]]},{"type":"LineString","properties":{"bus_network":"\u041e\u0440\u0435\u0445\u043e\u0432\u043e-\u0417\u0443\u0435\u0432\u043e","network":"ru:national","sort_rank":381,"landuse_kind":"urban_area","kind":"major_road","source":"openstreetmap.org","min_zoom":8.0,"bus_shield_text":"26","shield_text":"108","kind_detail":"trunk","ref":"\u0410-108"},"arcs":[183]},{"type":"LineString","properties":{"bus_network":null,"network":"ru:regional","sort_rank":380,"kind_detail":"primary","kind":"major_road","source":"openstreetmap.org","min_zoom":8.0,"bus_shield_text":"520","shield_text":"17\u0410","ref":"17\u0410-2"},"arcs":[184]},{"type":"LineString","properties":{"bus_network":null,"old_name":"\u0443\u043b\u0438\u0446\u0430 9 \u042f\u043d\u0432\u0430\u0440\u044f","bicycle_shield_text":"N35","min_zoom":8.0,"bus_shield_text":"24\u044d","id":55691501,"kind":"major_road","network":"ru:national","sort_rank":381,"kind_detail":"trunk","is_bicycle_related":true,"bicycle_network":"lcn","source":"openstreetmap.org","landuse_kind":"urban_area","shield_text":"107","ref":"\u0410-107"},"arcs":[185]},{"type":"MultiLineString","properties":{"bus_network":"\u041c\u043e\u0441\u043a\u043e\u0432\u0441\u043a\u0430\u044f \u043e\u0431\u043b\u0430\u0441\u0442\u044c","int_name":"Moskovskaya ulitsa","name:en":"Moscow Street","sort_rank":380,"kind_detail":"primary","kind":"major_road","source":"openstreetmap.org","min_zoom":8.0,"alt_name:en":"Moskovskaya Street","name:uk":"\u041c\u043e\u0441\u043a\u043e\u0432\u0441\u044c\u043a\u0430 \u0432\u0443\u043b\u0438\u0446\u044f","bus_shield_text":"26","name:be":"\u041c\u0430\u0441\u043a\u043e\u045e\u0441\u043a\u0430\u044f \u0432\u0443\u043b\u0456\u0446\u0430","landuse_kind":"urban_area","ref":"P110"},"arcs":[[186],[187]]},{"type":"LineString","properties":{"kind":"major_road","network":"ru:national","sort_rank":381,"kind_detail":"trunk","source":"openstreetmap.org","min_zoom":8.0,"landuse_kind":"residential","shield_text":"7","ref":"\u041c-7"},"arcs":[188]},{"type":"MultiLineString","properties":{"bus_network":null,"sort_rank":380,"kind_detail":"primary","kind":"major_road","source":"openstreetmap.org","min_zoom":8.0,"bus_shield_text":"388","landuse_kind":"urban_area"},"arcs":[[189],[190],[191]]},{"type":"LineString","properties":{"source":"openstreetmap.org","kind":"major_road","sort_rank":380,"kind_detail":"primary","ref":"17\u0410-2","min_zoom":8.0},"arcs":[192]},{"type":"LineString","properties":{"kind":"major_road","network":"ru:national","sort_rank":381,"kind_detail":"trunk","bus_network":null,"source":"openstreetmap.org","min_zoom":8.0,"bus_shield_text":"120","shield_text":"108","landuse_kind":"urban_area","ref":"\u0410-108","id":197904086},"arcs":[193]},{"type":"LineString","properties":{"bus_network":null,"network":"ru:national","sort_rank":381,"landuse_kind":"urban_area","kind":"major_road","source":"openstreetmap.org","min_zoom":8.0,"bus_shield_text":"4","shield_text":"108","kind_detail":"trunk","ref":"\u0410-108"},"arcs":[194]},{"type":"LineString","properties":{"bus_network":null,"network":"ru:national","sort_rank":381,"kind_detail":"trunk","kind":"major_road","source":"openstreetmap.org","min_zoom":8.0,"bus_shield_text":"120","shield_text":"108","ref":"\u0410-108"},"arcs":[195]},{"type":"LineString","properties":{"bus_network":"\u0441\u043c\u0435\u0436\u043d\u044b\u0435 \u043c\u0435\u0436\u0440\u0435\u0433\u0438\u043e\u043d\u0430\u043b\u044c\u043d\u044b\u0435 \u043c\u0430\u0440\u0448\u0440\u0443\u0442\u044b (\u041c\u043e\u0441\u043a\u043e\u0432\u0441\u043a\u0430\u044f \u043e\u0431\u043b\u0430\u0441\u0442\u044c)","network":"ru:national","sort_rank":381,"landuse_kind":"urban_area","kind":"major_road","source":"openstreetmap.org","min_zoom":8.0,"bus_shield_text":"320\u044d","shield_text":"103","kind_detail":"trunk","ref":"\u0410-103"},"arcs":[196]},{"type":"LineString","properties":{"bus_network":null,"network":"ru:national","sort_rank":381,"landuse_kind":"urban_area","kind":"major_road","source":"openstreetmap.org","min_zoom":8.0,"bus_shield_text":"399","shield_text":"7","kind_detail":"trunk","ref":"\u041c-7"},"arcs":[197]},{"type":"LineString","properties":{"bus_network":null,"sort_rank":380,"kind_detail":"primary","kind":"major_road","source":"openstreetmap.org","min_zoom":8.0,"bus_shield_text":"24","landuse_kind":"residential"},"arcs":[198]},{"type":"MultiLineString","properties":{"bus_network":null,"sort_rank":380,"kind_detail":"primary","kind":"major_road","source":"openstreetmap.org","min_zoom":8.0,"bus_shield_text":"520","landuse_kind":"urban_area"},"arcs":[[199],[200]]},{"type":"LineString","properties":{"kind":"major_road","sort_rank":380,"kind_detail":"primary","bus_network":null,"source":"openstreetmap.org","min_zoom":8.0,"bus_shield_text":"25","id":34913478},"arcs":[201]},{"type":"LineString","properties":{"kind":"major_road","sort_rank":380,"kind_detail":"primary","bus_network":"\u041c\u043e\u0441\u043a\u043e\u0432\u0441\u043a\u0430\u044f \u043e\u0431\u043b\u0430\u0441\u0442\u044c","source":"openstreetmap.org","min_zoom":8.0,"bus_shield_text":"26","landuse_kind":"urban_area","ref":"\u0420110","id":132236426},"arcs":[202]},{"type":"MultiLineString","properties":{"bus_network":"\u0429\u0451\u043b\u043a\u043e\u0432\u0441\u043a\u0438\u0439 \u043c\u0443\u043d\u0438\u0446\u0438\u043f\u0430\u043b\u044c\u043d\u044b\u0439 \u0440\u0430\u0439\u043e\u043d","sort_rank":380,"kind_detail":"primary","kind":"major_road","source":"openstreetmap.org","min_zoom":8.0,"bus_shield_text":"24","landuse_kind":"urban_area","ref":"\u0420110"},"arcs":[[203],[204]]},{"type":"MultiLineString","properties":{"kind":"major_road","network":"ru:regional","sort_rank":380,"kind_detail":"primary","source":"openstreetmap.org","min_zoom":8.0,"shield_text":"17\u0410","ref":"17\u0410-2"},"arcs":[[205],[206],[207]]},{"type":"LineString","properties":{"bus_network":null,"network":"ru:national","sort_rank":381,"kind_detail":"trunk","kind":"major_road","source":"openstreetmap.org","min_zoom":8.0,"bus_shield_text":"42","shield_text":"107","ref":"\u0410-107"},"arcs":[208]},{"type":"MultiLineString","properties":{"kind":"major_road","network":"ru:national","sort_rank":381,"kind_detail":"trunk","source":"openstreetmap.org","min_zoom":8.0,"shield_text":"7","ref":"\u041c-7;\u0410-108"},"arcs":[[209],[210]]},{"type":"LineString","properties":{"bus_network":null,"network":"ru:national","sort_rank":381,"kind_detail":"trunk","bus_shield_text":"2","name:eo":"Entuziastov \u015doseo","source":"openstreetmap.org","min_zoom":8.0,"old_name":"\u0412\u043b\u0430\u0434\u0438\u043c\u0438\u0440\u0441\u043a\u043e\u0435 \u0448\u043e\u0441\u0441\u0435","shield_text":"7","name:be":"\u0448\u0430\u0448\u0430 \u042d\u043d\u0442\u0443\u0437\u0456\u044f\u0441\u0442\u0430\u045e","landuse_kind":"urban_area","ref":"\u041c-7","kind":"major_road"},"arcs":[211]},{"type":"MultiLineString","properties":{"bus_network":null,"network":"ru:regional","sort_rank":380,"kind_detail":"primary","kind":"major_road","source":"openstreetmap.org","min_zoom":8.0,"bus_shield_text":"520","shield_text":"17\u0410","landuse_kind":"urban_area","ref":"17\u0410-2"},"arcs":[[212],[213]]},{"type":"MultiLineString","properties":{"bus_network":null,"network":"ru:national","sort_rank":381,"kind_detail":"trunk","kind":"major_road","source":"openstreetmap.org","min_zoom":8.0,"bus_shield_text":"\u0410\/\u0441\u0442 \u041f\u043e\u043a\u0440\u043e\u0432-\u0423\u0441\u0430\u0434","shield_text":"7","ref":"\u041c-7"},"arcs":[[214],[215],[216]]},{"type":"MultiLineString","properties":{"bus_network":null,"network":"ru:national","sort_rank":381,"kind_detail":"trunk","bus_shield_text":"24\u044d","kind":"major_road","source":"openstreetmap.org","min_zoom":8.0,"old_name":"\u0443\u043b\u0438\u0446\u0430 9 \u042f\u043d\u0432\u0430\u0440\u044f","shield_text":"107","landuse_kind":"urban_area","ref":"\u0410-107"},"arcs":[[217],[218]]},{"type":"MultiLineString","properties":{"bus_network":null,"network":"ru:national","sort_rank":381,"kind_detail":"trunk","kind":"major_road","source":"openstreetmap.org","min_zoom":8.0,"bus_shield_text":"33","shield_text":"7","landuse_kind":"urban_area","ref":"\u041c-7"},"arcs":[[219],[220]]},{"type":"LineString","properties":{"bus_network":"\u041c\u043e\u0441\u043a\u043e\u0432\u0441\u043a\u0430\u044f \u043e\u0431\u043b\u0430\u0441\u0442\u044c","name:en":"Fryanovo road","sort_rank":380,"kind_detail":"primary","kind":"major_road","source":"openstreetmap.org","min_zoom":8.0,"bus_shield_text":"20","ref":"46\u041a-7120"},"arcs":[221]},{"type":"LineString","properties":{"bus_network":null,"network":"ru:regional","sort_rank":380,"kind_detail":"primary","kind":"major_road","source":"openstreetmap.org","min_zoom":8.0,"bus_shield_text":"24","shield_text":null,"landuse_kind":"residential"},"arcs":[222]},{"type":"LineString","properties":{"kind":"major_road","name:en":"Proletarskiy Avenue","sort_rank":380,"kind_detail":"primary","bus_network":"\u041c\u043e\u0441\u043a\u043e\u0432\u0441\u043a\u0430\u044f \u043e\u0431\u043b\u0430\u0441\u0442\u044c","source":"openstreetmap.org","min_zoom":8.0,"int_name":"Proletarskiy prospekt","name:uk":"\u041f\u0440\u043e\u043b\u0435\u0442\u0430\u0440\u0441\u044c\u043a\u0438\u0439 \u043f\u0440\u043e\u0441\u043f\u0435\u043a\u0442","bus_shield_text":"20","name:be":"\u041f\u0440\u0430\u043b\u0435\u0442\u0430\u0440\u0441\u043a\u0456 \u043f\u0440\u0430\u0441\u043f\u0435\u043a\u0442","landuse_kind":"urban_area","ref":"\u0420110","id":382567138},"arcs":[223]},{"type":"LineString","properties":{"kind":"major_road","sort_rank":380,"landuse_kind":"urban_area","source":"openstreetmap.org","min_zoom":8.0,"kind_detail":"primary","ref":"17\u0410-2","id":468428101},"arcs":[224]},{"type":"LineString","properties":{"kind":"major_road","name:en":"Proletarskiy Avenue","sort_rank":380,"kind_detail":"primary","bus_network":"\u0429\u0451\u043b\u043a\u043e\u0432\u0441\u043a\u0438\u0439 \u043c\u0443\u043d\u0438\u0446\u0438\u043f\u0430\u043b\u044c\u043d\u044b\u0439 \u0440\u0430\u0439\u043e\u043d","source":"openstreetmap.org","min_zoom":8.0,"int_name":"Proletarskiy prospekt","name:uk":"\u041f\u0440\u043e\u043b\u0435\u0442\u0430\u0440\u0441\u044c\u043a\u0438\u0439 \u043f\u0440\u043e\u0441\u043f\u0435\u043a\u0442","bus_shield_text":"36","name:be":"\u041f\u0440\u0430\u043b\u0435\u0442\u0430\u0440\u0441\u043a\u0456 \u043f\u0440\u0430\u0441\u043f\u0435\u043a\u0442","landuse_kind":"urban_area","ref":"\u0420110","id":382567136},"arcs":[225]},{"type":"MultiLineString","properties":{"bus_network":null,"network":"ru:national","sort_rank":381,"kind_detail":"trunk","kind":"major_road","source":"openstreetmap.org","min_zoom":8.0,"bus_shield_text":"21","shield_text":"7","ref":"\u041c-7"},"arcs":[[226],[227]]},{"type":"LineString","properties":{"kind":"major_road","network":"ru:national","sort_rank":381,"kind_detail":"trunk","bus_network":null,"source":"openstreetmap.org","min_zoom":8.0,"bus_shield_text":"35","shield_text":"107","ref":"\u0410-107","id":146276203},"arcs":[228]},{"type":"MultiLineString","properties":{"bus_network":null,"network":"ru:national","sort_rank":381,"kind_detail":"trunk","bus_shield_text":"20","name:eo":"Entuziastov \u015doseo","source":"openstreetmap.org","min_zoom":8.0,"old_name":"\u0412\u043b\u0430\u0434\u0438\u043c\u0438\u0440\u0441\u043a\u043e\u0435 \u0448\u043e\u0441\u0441\u0435","shield_text":"7","name:be":"\u0448\u0430\u0448\u0430 \u042d\u043d\u0442\u0443\u0437\u0456\u044f\u0441\u0442\u0430\u045e","landuse_kind":"urban_area","ref":"\u041c-7","kind":"major_road"},"arcs":[[229],[230]]},{"type":"MultiLineString","properties":{"kind":"major_road","network":"ru:national","sort_rank":381,"landuse_kind":"urban_area","source":"openstreetmap.org","min_zoom":8.0,"kind_detail":"trunk","shield_text":"108","ref":"\u0410-108"},"arcs":[[231],[232],[233],[234],[235],[236],[237],[238],[239]]},{"type":"MultiLineString","properties":{"bus_network":null,"int_name":"Proletarskiy prospekt","sort_rank":380,"kind_detail":"primary","kind":"major_road","source":"openstreetmap.org","min_zoom":8.0,"name:en":"Proletarskiy Avenue","name:uk":"\u041f\u0440\u043e\u043b\u0435\u0442\u0430\u0440\u0441\u044c\u043a\u0438\u0439 \u043f\u0440\u043e\u0441\u043f\u0435\u043a\u0442","bus_shield_text":"335","name:be":"\u041f\u0440\u0430\u043b\u0435\u0442\u0430\u0440\u0441\u043a\u0456 \u043f\u0440\u0430\u0441\u043f\u0435\u043a\u0442","landuse_kind":"urban_area","ref":"\u0420110"},"arcs":[[240],[241]]},{"type":"LineString","properties":{"source":"openstreetmap.org","kind":"major_road","sort_rank":380,"kind_detail":"primary","ref":"17\u041a-16","min_zoom":8.0},"arcs":[242]},{"type":"MultiLineString","properties":{"bus_network":"\u0441\u043c\u0435\u0436\u043d\u044b\u0435 \u043c\u0435\u0436\u0440\u0435\u0433\u0438\u043e\u043d\u0430\u043b\u044c\u043d\u044b\u0435 \u043c\u0430\u0440\u0448\u0440\u0443\u0442\u044b (\u041c\u043e\u0441\u043a\u043e\u0432\u0441\u043a\u0430\u044f \u043e\u0431\u043b\u0430\u0441\u0442\u044c)","network":"ru:national","sort_rank":381,"kind_detail":"trunk","kind":"major_road","source":"openstreetmap.org","min_zoom":8.0,"name:eo":"\u015c\u0109olkovskoje \u015doseo","bus_shield_text":"320\u044d","shield_text":"103","ref":"\u0410-103"},"arcs":[[243],[244]]},{"type":"MultiLineString","properties":{"bus_network":"\u041c\u043e\u0441\u043a\u043e\u0432\u0441\u043a\u0430\u044f \u043e\u0431\u043b\u0430\u0441\u0442\u044c","sort_rank":380,"kind_detail":"primary","kind":"major_road","source":"openstreetmap.org","min_zoom":8.0,"bus_shield_text":"26","landuse_kind":"urban_area","ref":"P110"},"arcs":[[245],[246]]},{"type":"MultiLineString","properties":{"bus_network":null,"network":"ru:national","sort_rank":381,"kind_detail":"trunk","kind":"major_road","source":"openstreetmap.org","min_zoom":8.0,"bus_shield_text":"21","shield_text":"107","ref":"\u0410-107"},"arcs":[[247],[248],[249],[250]]},{"type":"LineString","properties":{"bus_network":null,"network":"ru:regional","sort_rank":380,"kind_detail":"primary","kind":"major_road","source":"openstreetmap.org","min_zoom":8.0,"bus_shield_text":"24","shield_text":null},"arcs":[251]},{"type":"LineString","properties":{"bus_network":null,"sort_rank":380,"kind_detail":"primary","kind":"major_road","source":"openstreetmap.org","min_zoom":8.0,"bus_shield_text":"120","landuse_kind":"urban_area"},"arcs":[252]},{"type":"MultiLineString","properties":{"kind":"major_road","network":"ru:national","sort_rank":381,"kind_detail":"trunk","source":"openstreetmap.org","min_zoom":8.0,"shield_text":"8","ref":"\u041c-8"},"arcs":[[253],[254],[255],[256],[257],[258],[259],[260],[261]]},{"type":"LineString","properties":{"bus_network":null,"network":"ru:national","sort_rank":381,"kind_detail":"trunk","old_name":"\u0412\u043b\u0430\u0434\u0438\u043c\u0438\u0440\u0441\u043a\u043e\u0435 \u0448\u043e\u0441\u0441\u0435","name:eo":"Entuziastov \u015doseo","kind":"major_road","source":"openstreetmap.org","min_zoom":8.0,"bus_shield_text":"14","shield_text":"7","name:be":"\u0448\u0430\u0448\u0430 \u042d\u043d\u0442\u0443\u0437\u0456\u044f\u0441\u0442\u0430\u045e","landuse_kind":"urban_area","ref":"\u041c-7","id":53266713},"arcs":[262]},{"type":"LineString","properties":{"source":"openstreetmap.org","bus_network":null,"bus_shield_text":"520","sort_rank":380,"kind_detail":"primary","min_zoom":8.0,"kind":"major_road"},"arcs":[263]},{"type":"LineString","properties":{"kind":"major_road","sort_rank":380,"kind_detail":"primary","reg_name":"\u0424\u0440\u044f\u043d\u043e\u0432\u0441\u043a\u043e\u0435 \u0448\u043e\u0441\u0441\u0435","bus_network":null,"source":"openstreetmap.org","min_zoom":8.0,"bus_shield_text":"13","landuse_kind":"urban_area","ref":"46\u041a-7120","id":146276230},"arcs":[264]},{"type":"LineString","properties":{"bus_network":null,"network":"ru:national","sort_rank":381,"landuse_kind":"urban_area","is_bicycle_related":true,"kind":"major_road","bicycle_shield_text":"N35","bicycle_network":"lcn","source":"openstreetmap.org","min_zoom":8.0,"bus_shield_text":"42","shield_text":"107","kind_detail":"trunk","ref":"\u0410-107"},"arcs":[265]},{"type":"MultiLineString","properties":{"bus_network":"\u0441\u043c\u0435\u0436\u043d\u044b\u0435 \u043c\u0435\u0436\u0440\u0435\u0433\u0438\u043e\u043d\u0430\u043b\u044c\u043d\u044b\u0435 \u043c\u0430\u0440\u0448\u0440\u0443\u0442\u044b (\u041c\u043e\u0441\u043a\u043e\u0432\u0441\u043a\u0430\u044f \u043e\u0431\u043b\u0430\u0441\u0442\u044c)","name:en":"Shchyolkovo Highway","network":"ru:national","sort_rank":381,"landuse_kind":"urban_area","kind":"major_road","source":"openstreetmap.org","min_zoom":8.0,"name:eo":"\u015c\u0109olkovskoje \u015doseo","name:uk":"\u0429\u043e\u043b\u043a\u0456\u0432\u0441\u044c\u043a\u0435 \u0448\u043e\u0441\u0435","bus_shield_text":"320\u044d","shield_text":"103","kind_detail":"trunk","ref":"\u0410-103"},"arcs":[[266],[267],[268],[269]]},{"type":"MultiLineString","properties":{"bus_network":"\u0441\u043c\u0435\u0436\u043d\u044b\u0435 \u043c\u0435\u0436\u0440\u0435\u0433\u0438\u043e\u043d\u0430\u043b\u044c\u043d\u044b\u0435 \u043c\u0430\u0440\u0448\u0440\u0443\u0442\u044b (\u041c\u043e\u0441\u043a\u043e\u0432\u0441\u043a\u0430\u044f \u043e\u0431\u043b\u0430\u0441\u0442\u044c)","network":"ru:national","sort_rank":381,"landuse_kind":"urban_area","kind":"major_road","source":"openstreetmap.org","min_zoom":8.0,"name:eo":"\u015c\u0109olkovskoje \u015doseo","bus_shield_text":"320\u044d","shield_text":"103","kind_detail":"trunk","ref":"\u0410-103"},"arcs":[[270],[271],[272],[273]]},{"type":"MultiLineString","properties":{"bus_network":null,"network":"ru:national","sort_rank":381,"kind_detail":"trunk","kind":"major_road","source":"openstreetmap.org","min_zoom":8.0,"bus_shield_text":"33","shield_text":"7","ref":"\u041c-7"},"arcs":[[274],[275],[276],[277]]},{"type":"MultiLineString","properties":{"kind":"highway","network":"ru:national","sort_rank":383,"kind_detail":"motorway","source":"openstreetmap.org","min_zoom":8.0,"all_networks":["ru:national","e-road"],"shield_text":"8","ref":"\u041c-8","all_shield_texts":["8","115"]},"arcs":[[278],[279],[280],[281],[282],[283]]},{"type":"MultiLineString","properties":{"bus_network":null,"network":"ru:national","sort_rank":381,"kind_detail":"trunk","old_name":"\u0412\u043b\u0430\u0434\u0438\u043c\u0438\u0440\u0441\u043a\u043e\u0435 \u0448\u043e\u0441\u0441\u0435","name:eo":"Entuziastov \u015doseo","source":"openstreetmap.org","min_zoom":8.0,"bus_shield_text":"25*","shield_text":"7","name:be":"\u0448\u0430\u0448\u0430 \u042d\u043d\u0442\u0443\u0437\u0456\u044f\u0441\u0442\u0430\u045e","ref":"\u041c-7","kind":"major_road"},"arcs":[[284],[285]]},{"type":"LineString","properties":{"bus_network":"\u0441\u043c\u0435\u0436\u043d\u044b\u0435 \u043c\u0435\u0436\u0440\u0435\u0433\u0438\u043e\u043d\u0430\u043b\u044c\u043d\u044b\u0435 \u043c\u0430\u0440\u0448\u0440\u0443\u0442\u044b (\u041c\u043e\u0441\u043a\u043e\u0432\u0441\u043a\u0430\u044f \u043e\u0431\u043b\u0430\u0441\u0442\u044c)","network":"ru:national","sort_rank":381,"kind_detail":"trunk","kind":"major_road","source":"openstreetmap.org","min_zoom":8.0,"bus_shield_text":"320","shield_text":"107","ref":"\u0410-107"},"arcs":[286]},{"type":"LineString","properties":{"source":"openstreetmap.org","kind":"major_road","sort_rank":381,"kind_detail":"trunk","ref":"\u0410-108","min_zoom":8.0},"arcs":[287]},{"type":"LineString","properties":{"bus_network":null,"network":"ru:national","sort_rank":381,"kind_detail":"trunk","kind":"major_road","source":"openstreetmap.org","min_zoom":8.0,"bus_shield_text":"39","shield_text":"107","ref":"\u0410-107"},"arcs":[288]},{"type":"MultiLineString","properties":{"bus_network":null,"network":"ru:regional","sort_rank":380,"kind_detail":"primary","kind":"major_road","source":"openstreetmap.org","min_zoom":8.0,"bus_shield_text":"676","shield_text":"17\u0410","ref":"17\u0410-2"},"arcs":[[289],[290]]},{"type":"MultiLineString","properties":{"bus_network":null,"sort_rank":380,"kind_detail":"primary","kind":"major_road","source":"openstreetmap.org","min_zoom":8.0,"bus_shield_text":"24","landuse_kind":"urban_area"},"arcs":[[291],[292]]},{"type":"MultiLineString","properties":{"bus_network":null,"network":"ru:national","sort_rank":381,"kind_detail":"trunk","kind":"major_road","source":"openstreetmap.org","min_zoom":8.0,"bus_shield_text":"58","shield_text":"7","landuse_kind":"urban_area","ref":"\u041c-7"},"arcs":[[293],[294]]},{"type":"MultiLineString","properties":{"source":"openstreetmap.org","kind":"major_road","landuse_kind":"urban_area","sort_rank":380,"kind_detail":"primary","ref":"17\u041a-8","min_zoom":8.0},"arcs":[[295],[296]]},{"type":"MultiLineString","properties":{"bus_network":null,"network":"ru:national","sort_rank":381,"kind_detail":"trunk","kind":"major_road","source":"openstreetmap.org","min_zoom":8.0,"bus_shield_text":"58","shield_text":"7","ref":"\u041c-7"},"arcs":[[297],[298]]},{"type":"MultiLineString","properties":{"bus_network":"\u0433\u043e\u0440\u043e\u0434\u0441\u043a\u043e\u0435 \u043f\u043e\u0441\u0435\u043b\u0435\u043d\u0438\u0435 \u0429\u0451\u043b\u043a\u043e\u0432\u043e","int_name":"Proletarskiy prospekt","sort_rank":380,"kind_detail":"primary","kind":"major_road","source":"openstreetmap.org","min_zoom":8.0,"name:en":"Proletarskiy Avenue","name:uk":"\u041f\u0440\u043e\u043b\u0435\u0442\u0430\u0440\u0441\u044c\u043a\u0438\u0439 \u043f\u0440\u043e\u0441\u043f\u0435\u043a\u0442","bus_shield_text":"1","name:be":"\u041f\u0440\u0430\u043b\u0435\u0442\u0430\u0440\u0441\u043a\u0456 \u043f\u0440\u0430\u0441\u043f\u0435\u043a\u0442","landuse_kind":"urban_area","ref":"\u0420110"},"arcs":[[299],[300],[301],[302]]},{"type":"LineString","properties":{"bus_network":null,"network":"ru:national","sort_rank":381,"kind_detail":"trunk","old_name":"\u0412\u043b\u0430\u0434\u0438\u043c\u0438\u0440\u0441\u043a\u043e\u0435 \u0448\u043e\u0441\u0441\u0435","name:eo":"Entuziastov \u015doseo","kind":"major_road","source":"openstreetmap.org","min_zoom":8.0,"bus_shield_text":"25*","shield_text":"7","name:be":"\u0448\u0430\u0448\u0430 \u042d\u043d\u0442\u0443\u0437\u0456\u044f\u0441\u0442\u0430\u045e","landuse_kind":"urban_area","ref":"\u041c-7","id":53268574},"arcs":[303]},{"type":"LineString","properties":{"kind":"major_road","network":"ru:national","sort_rank":381,"kind_detail":"trunk","old_name":"\u0416\u0435\u043b\u0435\u0437\u043d\u043e\u0434\u043e\u0440\u043e\u0436\u043d\u0430\u044f \u0443\u043b\u0438\u0446\u0430","bus_network":null,"source":"openstreetmap.org","min_zoom":8.0,"bus_shield_text":"24\u044d","shield_text":"107","landuse_kind":"urban_area","ref":"\u0410-107","id":32244346},"arcs":[304]},{"type":"LineString","properties":{"source":"openstreetmap.org","kind":"major_road","sort_rank":380,"kind_detail":"primary","ref":"17\u041a-8","min_zoom":8.0},"arcs":[305]},{"type":"LineString","properties":{"bus_network":null,"network":"ru:national","sort_rank":381,"kind_detail":"trunk","is_bicycle_related":true,"kind":"major_road","bicycle_shield_text":"N35","bicycle_network":"lcn","source":"openstreetmap.org","min_zoom":8.0,"bus_shield_text":"42","shield_text":"107","ref":"\u0410-107"},"arcs":[306]},{"type":"MultiLineString","properties":{"kind":"major_road","network":"ru:regional","sort_rank":380,"kind_detail":"primary","source":"openstreetmap.org","min_zoom":8.0,"landuse_kind":"urban_area","shield_text":"17\u0410","ref":"17\u0410-2"},"arcs":[[307],[308],[309]]},{"type":"MultiLineString","properties":{"bus_network":null,"network":"ru:national","sort_rank":381,"kind_detail":"trunk","kind":"major_road","source":"openstreetmap.org","min_zoom":8.0,"bus_shield_text":"388","shield_text":"8","ref":"\u041c-8"},"arcs":[[310],[311],[312],[313],[314],[315]]},{"type":"MultiLineString","properties":{"bus_network":"\u041c\u043e\u0441\u043a\u043e\u0432\u0441\u043a\u0430\u044f \u043e\u0431\u043b\u0430\u0441\u0442\u044c","sort_rank":380,"kind_detail":"primary","reg_name":"\u0424\u0440\u044f\u043d\u043e\u0432\u0441\u043a\u043e\u0435 \u0448\u043e\u0441\u0441\u0435","kind":"major_road","source":"openstreetmap.org","min_zoom":8.0,"bus_shield_text":"20","landuse_kind":"urban_area","ref":"46\u041a-7120"},"arcs":[[316],[317]]},{"type":"LineString","properties":{"kind":"major_road","network":"e-road","sort_rank":381,"landuse_kind":"urban_area","source":"openstreetmap.org","min_zoom":8.0,"kind_detail":"trunk","shield_text":"22"},"arcs":[318]},{"type":"MultiLineString","properties":{"bus_network":"\u041c\u043e\u0441\u043a\u043e\u0432\u0441\u043a\u0430\u044f \u043e\u0431\u043b\u0430\u0441\u0442\u044c","int_name":"Proletarskiy prospekt","sort_rank":380,"kind_detail":"primary","kind":"major_road","source":"openstreetmap.org","min_zoom":8.0,"name:en":"Proletarskiy Avenue","name:uk":"\u041f\u0440\u043e\u043b\u0435\u0442\u0430\u0440\u0441\u044c\u043a\u0438\u0439 \u043f\u0440\u043e\u0441\u043f\u0435\u043a\u0442","bus_shield_text":"20","name:be":"\u041f\u0440\u0430\u043b\u0435\u0442\u0430\u0440\u0441\u043a\u0456 \u043f\u0440\u0430\u0441\u043f\u0435\u043a\u0442","landuse_kind":"urban_area","ref":"46\u041a-7120"},"arcs":[[319],[320]]},{"type":"LineString","properties":{"kind":"major_road","sort_rank":380,"kind_detail":"primary","bus_network":null,"source":"openstreetmap.org","min_zoom":8.0,"bus_shield_text":"520","landuse_kind":"urban_area","ref":"17\u041a-10","id":224032379},"arcs":[321]},{"type":"LineString","properties":{"kind":"major_road","name:en":"Proletarskiy Avenue","sort_rank":380,"kind_detail":"primary","bus_network":"\u0429\u0451\u043b\u043a\u043e\u0432\u0441\u043a\u0438\u0439 \u043c\u0443\u043d\u0438\u0446\u0438\u043f\u0430\u043b\u044c\u043d\u044b\u0439 \u0440\u0430\u0439\u043e\u043d","source":"openstreetmap.org","min_zoom":8.0,"int_name":"Proletarskiy prospekt","name:uk":"\u041f\u0440\u043e\u043b\u0435\u0442\u0430\u0440\u0441\u044c\u043a\u0438\u0439 \u043f\u0440\u043e\u0441\u043f\u0435\u043a\u0442","bus_shield_text":"24","name:be":"\u041f\u0440\u0430\u043b\u0435\u0442\u0430\u0440\u0441\u043a\u0456 \u043f\u0440\u0430\u0441\u043f\u0435\u043a\u0442","landuse_kind":"urban_area","ref":"\u0420110","id":61321884},"arcs":[322]},{"type":"MultiLineString","properties":{"kind":"major_road","network":"ru:national","sort_rank":381,"kind_detail":"trunk","source":"openstreetmap.org","min_zoom":8.0,"shield_text":"108","ref":"\u0410-108"},"arcs":[[323],[324],[325],[326],[327],[328]]},{"type":"MultiLineString","properties":{"bus_network":null,"network":"ru:regional","sort_rank":380,"kind_detail":"primary","kind":"major_road","source":"openstreetmap.org","min_zoom":8.0,"bus_shield_text":"24","shield_text":null,"landuse_kind":"urban_area"},"arcs":[[329],[330]]},{"type":"LineString","properties":{"kind":"major_road","network":"ru:regional","sort_rank":380,"kind_detail":"primary","source":"openstreetmap.org","min_zoom":8.0,"shield_text":"17\u041a","ref":"17\u041a-9"},"arcs":[331]},{"type":"LineString","properties":{"bus_network":null,"network":"ru:national","sort_rank":381,"kind_detail":"trunk","kind":"major_road","source":"openstreetmap.org","min_zoom":8.0,"bus_shield_text":"\u0410\/\u0441\u0442 \u041f\u043e\u043a\u0440\u043e\u0432-\u0423\u0441\u0430\u0434","shield_text":"7","landuse_kind":"residential","ref":"\u041c-7"},"arcs":[332]}]},"earth":{"type":"GeometryCollection","geometries":[{"type":"Polygon","properties":{"sort_rank":10,"source":"naturalearthdata.com","min_zoom":0.0,"kind":"earth","area":98022885885},"arcs":[[333]]}]},"landuse":{"type":"GeometryCollection","geometries":[{"type":"Polygon","properties":{"kind":"aerodrome","area":26741800,"sort_rank":60,"operator":"Russian Air Force","source":"openstreetmap.org","min_zoom":8.0,"tier":3,"id":-3300255,"osm_relation":true},"arcs":[[334]]},{"type":"MultiPolygon","properties":{"source":"openstreetmap.org","kind":"residential","tier":2,"area":30759656,"sort_rank":20,"min_zoom":8.0},"arcs":[[[335]],[[336]]]},{"type":"MultiPolygon","properties":{"source":"openstreetmap.org","kind":"military","tier":3,"area":581403709,"sort_rank":45,"min_zoom":8.0},"arcs":[[[337]],[[338]],[[339]],[[340]],[[341]],[[342]]]},{"type":"MultiPolygon","properties":{"source":"naturalearthdata.com","kind":"urban_area","name":"","area":5577187890,"sort_rank":11,"min_zoom":4.0},"arcs":[[[343]],[[344]],[[345]],[[346]],[[347]],[[348]],[[349]],[[350]],[[351]],[[352]],[[353]],[[354]],[[355]],[[356]],[[357]]]},{"type":"MultiPolygon","properties":{"source":"openstreetmap.org","kind":"residential","tier":2,"area":24955716,"sort_rank":20,"min_zoom":8.0,"osm_relation":true},"arcs":[[[358]]]}]}},"type":"Topology","transform":{"translate":[37.96875,55.7765730187],"scale":[0.0003433228,0.00019114]},"arcs":[[[1738,4096],[-45,-92],[31,-17],[27,25],[30,-48],[52,26],[-13,24],[39,82]],[[2742,4096],[51,-56],[-14,-17],[95,-14],[49,-40],[51,29],[119,-10],[105,108]],[[3234,4096],[43,-28],[11,28]],[[3543,4096],[8,-28],[50,-40],[28,17],[170,-68],[49,53],[24,66]],[[1013,4096],[-9,-52],[-81,-37],[0,-57],[-29,10],[12,-35],[-34,-11],[60,-45],[31,15],[-6,-43],[122,23],[-10,-50],[-82,-22],[-27,-34],[61,-64],[69,-8],[18,-90],[-26,-19],[41,-39],[32,56],[36,-39],[49,19],[20,-95],[40,-44],[-54,-4],[-7,-107],[-36,-59],[61,3],[25,-39],[79,3],[23,-38],[-70,-140],[-27,-170],[15,-49],[60,-30],[-9,-107],[-52,-52],[-61,4],[40,-42],[-42,-47],[22,-12],[-2,-46],[36,-4],[-17,-14],[14,-84],[81,-56],[50,-116],[94,12],[34,68],[72,-23],[-53,-72],[5,-37],[-30,-18],[2,-34],[56,-3],[-33,-107],[37,-105],[-35,-47],[16,-63],[50,-31],[-13,-63],[23,-32],[-21,-29],[21,-52],[-18,-14],[36,-8],[21,-79],[102,-33],[-6,-54],[35,-13],[5,-77],[-22,-16],[42,-52],[26,1],[-41,-15],[-73,-94],[47,-17],[63,-74],[204,55]],[[2075,1103],[146,-39],[128,-147],[92,-60],[91,-139],[137,164],[45,10],[55,-71],[110,-13],[6,21],[121,39],[22,36],[35,5],[27,-30],[42,29],[15,-38],[-61,-40],[-33,46],[-21,-67],[96,-51],[42,108],[-1,-41],[23,-13],[-33,-8],[2,-43],[-73,-72],[59,-30],[13,-59],[28,14],[5,-54],[37,-16],[-7,-62],[-61,-31],[14,-28],[109,24],[32,-89],[88,5],[-8,19],[44,28],[76,-84],[24,41],[59,-24],[105,17],[105,-21],[10,50],[137,73],[18,-11],[-18,-77],[-91,-84],[37,-137],[36,-16],[8,-137]],[[2756,4096],[-152,-171],[-58,-161],[18,-262],[-165,-78],[-95,-103],[-127,-32],[-55,-58],[-202,-104],[-180,38],[-142,-26],[-124,18],[-274,85],[-139,-43],[-110,20],[-172,-88],[-164,-283],[-103,-65],[-49,-87],[-173,-57],[-109,-116],[-128,-28],[-53,-303]],[[0,743],[74,-43],[111,-14],[97,-61],[97,-128],[347,-178],[84,-260],[125,-59]],[[2884,0],[53,105],[209,190],[12,13],[102,120],[29,35],[30,38],[26,21],[30,11],[151,17],[12,2],[7,2],[16,6],[152,85],[383,84]],[[4096,729],[-383,-84],[-168,-91],[-161,-19],[-9,-1],[-10,-3],[-20,-9],[-26,-21],[-174,-206],[-208,-190],[-53,-105]],[[0,743],[74,-43],[111,-14],[97,-61],[97,-128],[347,-178],[84,-260],[125,-59]],[[2884,0],[53,105],[408,417],[200,32],[168,91],[383,84]],[[2176,0],[13,114],[89,140],[111,287]],[[2756,4096],[-152,-171],[-58,-161],[18,-262],[-165,-78],[-95,-103],[-127,-32],[-55,-58],[-202,-104],[-180,38],[-142,-26],[-124,18],[-274,85],[-139,-43],[-110,20],[-172,-88],[-164,-283],[-103,-65],[-49,-87],[-173,-57],[-109,-116],[-128,-28],[-53,-303]],[[0,2188],[1,3],[7,30],[41,179],[0,6],[-1,9],[-7,53],[17,30]],[[2128,3236],[-208,-109],[-180,38],[-142,-26],[-124,18],[-68,28],[-87,28],[-10,2],[-25,1],[-73,24],[-5,2],[-11,1],[-70,-11],[-64,-33],[-80,22],[-10,2],[-12,-2],[-157,-71],[-12,-9],[-5,-4],[-6,-6],[-35,-44],[-84,-149],[-45,-90],[-85,-48],[-3,-2],[-4,-4],[-11,-11],[-49,-87],[-173,-57],[-109,-116],[-85,-7],[-27,-9],[-12,-8],[-7,-8],[-8,-16],[-2,-7],[0,-6],[8,-62],[-47,-208],[-1,-3]],[[488,2738],[39,60],[13,7],[41,18],[8,4],[6,3],[7,5],[7,6],[6,7],[5,7],[4,6],[36,77],[42,64],[4,7],[7,12],[22,47],[10,19],[37,47],[191,88]],[[973,3222],[36,-10]],[[1009,3212],[32,-10],[9,-2],[6,-1],[5,0],[9,0],[7,3],[7,3],[41,26],[75,11],[84,-27],[5,0],[5,-1],[15,1],[10,-2],[15,-8],[5,-2],[26,-10],[41,-8]],[[1792,3153],[122,-27],[11,1],[9,3],[187,100],[7,5],[40,47],[10,7],[129,34],[97,104],[144,54],[24,47],[-18,257]],[[2566,3819],[-13,-34]],[[0,743],[74,-43],[111,-14],[97,-61],[97,-128],[347,-178],[84,-260],[125,-59]],[[2884,0],[53,105],[209,190],[199,227],[200,32],[16,6],[152,85],[383,84]],[[4096,729],[-154,-33],[-217,-48],[-12,-3],[-11,-5],[-136,-77],[-21,-9],[-161,-19],[-9,-1],[-10,-3],[-11,-4],[-9,-5],[-7,-4],[-5,-4],[-9,-7],[-5,-6],[-174,-206],[-169,-151],[-30,-29],[-9,-10],[-4,-6],[-4,-8],[-45,-91]],[[493,1736],[-100,20],[-89,104],[-135,81],[-169,-29]],[[2884,0],[53,105],[408,417],[200,32],[168,91],[383,84]],[[0,2189],[49,211],[-5,82],[33,29],[115,18],[98,110],[170,55],[32,62]],[[2756,4096],[-152,-171],[-58,-161],[18,-262],[-165,-78],[-95,-103],[-127,-32],[-55,-58],[-202,-104],[-180,38],[-142,-26],[-124,18],[-274,85],[-139,-43],[-110,20],[-172,-88],[-164,-283],[-103,-65],[-49,-87],[-173,-57],[-109,-116],[-128,-28],[-53,-303]],[[0,2191],[53,304],[128,27],[109,117],[173,57],[49,87],[103,65],[164,283],[174,88],[108,-20],[139,43],[274,-85],[124,-18],[142,25],[174,-38],[195,97]],[[2109,3223],[37,34]],[[2109,3223],[-45,-47],[93,-129],[-56,-152],[46,-100],[17,-126],[74,-61],[114,-5],[56,-54],[255,-108],[77,36],[79,-12],[46,18],[131,-65],[120,-13],[186,75],[91,10],[67,-26],[240,80],[63,-26],[35,44],[92,31],[93,79],[113,8]],[[1454,506],[0,-9],[-2,-7]],[[1452,490],[-96,-135],[71,-277]],[[1427,78],[19,-78]],[[1447,0],[-20,78]],[[1452,490],[1,15]],[[0,998],[151,-29],[70,8]],[[120,694],[-120,59]],[[236,2905],[-61,-59],[-175,-64]],[[258,2925],[-22,-20]],[[2146,3257],[-232,-131],[-174,39],[-142,-26],[-124,18],[-274,85],[-139,-43],[-99,23],[-160,-72],[-58,-55],[-295,-131],[-155,1],[-36,-40]],[[4096,729],[-154,-33],[-217,-48],[-12,-3],[-11,-5],[-136,-77],[-21,-9],[-161,-19],[-9,-1],[-10,-3],[-11,-4],[-9,-5],[-7,-4],[-5,-4],[-9,-7],[-5,-6],[-174,-206],[-169,-151],[-30,-29],[-9,-10],[-4,-6],[-4,-8],[-45,-91]],[[936,0],[-126,59],[-80,256],[-351,182],[-97,128],[-97,61],[-111,15],[-74,44]],[[2884,0],[53,105],[209,190],[199,227],[200,32],[16,6],[152,85],[383,84]],[[2756,4096],[-152,-171],[-58,-161],[18,-262],[-165,-78],[-95,-103],[-127,-32],[-55,-58],[-202,-104],[-180,38],[-142,-26],[-124,18],[-274,85],[-139,-43],[-110,20],[-172,-88],[-164,-283],[-103,-65],[-49,-87],[-173,-57],[-109,-116],[-128,-28],[-53,-303]],[[672,348],[-293,149],[-97,128],[-97,61],[-111,15],[-74,45]],[[0,745],[74,-45],[117,-18],[91,-57],[97,-128],[293,-149]],[[492,2756],[-32,-62],[-170,-55],[-98,-110],[-115,-18],[-33,-29],[4,-82],[-48,-210]],[[2146,3257],[-82,-78],[93,-132],[-56,-152],[46,-100],[8,-113],[83,-74],[114,-5],[56,-54],[255,-108],[77,36],[79,-12],[46,18],[131,-65],[120,-13],[186,75],[91,10],[67,-26],[240,80],[63,-26],[35,44],[92,31],[93,79],[113,8]],[[2394,2563],[1,0],[-1,0]],[[0,744],[74,-44],[108,-13],[100,-62],[97,-128],[351,-182],[80,-256],[125,-59]],[[0,2188],[58,310],[123,24],[109,117],[173,57],[49,87],[103,65],[164,283],[172,88],[110,-20],[139,43],[274,-85],[124,-18],[142,25],[174,-38],[205,102],[59,61],[126,32],[95,102],[166,79],[-19,259],[58,164],[152,171]],[[58,2498],[-17,-30],[7,-53],[1,-15],[-41,-179],[-7,-30],[-1,-3]],[[2128,3236],[-208,-109],[-180,38],[-142,-26],[-124,18],[-68,28],[-87,28],[-124,30],[-70,-11],[-64,-33],[-80,22],[-22,0],[-14,-4],[-104,-48],[-29,-14],[-10,-5],[-58,-63],[-84,-149],[-45,-90],[-85,-48],[-3,-2],[-4,-4],[-11,-11],[-49,-87],[-173,-57],[-109,-116],[-85,-7],[-27,-9],[-12,-8],[-4,-4],[-3,-4],[-3,-4],[-3,-5],[-2,-7],[-2,-7],[0,-6],[0,-6],[8,-41],[0,-15],[-47,-208],[-1,-3]],[[488,2738],[39,60],[13,7],[41,18],[8,4],[6,3],[7,5],[7,6],[6,7],[5,7],[4,6],[36,77],[42,64],[4,7],[7,12],[22,47],[10,19],[63,65],[151,69],[22,0],[66,-21],[7,-1],[7,0],[9,0],[7,3],[7,3],[41,26],[70,11],[89,-27],[5,0],[5,-1],[20,0],[25,-11],[26,-10],[41,-8]],[[2110,3223],[16,10]],[[2126,3233],[12,14]],[[2126,3233],[13,14]],[[0,2188],[1,3],[7,30],[41,179],[0,6],[-1,9],[-7,53],[17,30]],[[2128,3236],[-208,-109],[-180,38],[-142,-26],[-124,18],[-68,28],[-87,28],[-10,2],[-25,1],[-73,24],[-5,2],[-11,1],[-70,-11],[-64,-33],[-80,22],[-4,1],[-6,1],[-6,-1],[-6,-1],[-8,-2],[-6,-2],[-104,-48],[-29,-14],[-10,-5],[-4,-3],[-8,-6],[-5,-4],[-6,-6],[-20,-23],[-8,-11],[-7,-10],[-3,-7],[-5,-10],[-34,-68],[-32,-46],[-5,-9],[-5,-9],[-45,-90],[-85,-48],[-3,-2],[-4,-4],[-11,-11],[-14,-14],[-2,-3],[-4,-10],[-11,-38],[-18,-22],[-173,-57],[-109,-116],[-85,-7],[-27,-9],[-12,-8],[-7,-8],[-8,-16],[-2,-7],[0,-6],[8,-62],[-47,-208],[-1,-3]],[[488,2738],[39,60],[88,50],[167,286],[191,88]],[[973,3222],[3,0],[7,-2],[26,-8]],[[973,3222],[36,-10]],[[1009,3212],[32,-10],[9,-2],[6,-1],[5,0],[9,0],[7,3],[7,3],[41,26],[75,11],[84,-27],[5,0],[5,-1],[15,1],[10,-2],[15,-8],[5,-2],[26,-10],[41,-8]],[[1792,3153],[119,-26],[3,-1],[11,1],[201,106]],[[2126,3233],[12,14]],[[2126,3233],[3,3],[10,11]],[[0,743],[74,-43],[111,-14],[97,-61],[97,-128],[347,-178],[84,-260],[125,-59]],[[2884,0],[53,105],[209,190],[12,13],[102,120],[29,35],[30,38],[26,21],[30,11],[151,17],[12,2],[7,2],[16,6],[152,85],[383,84]],[[2884,0],[53,105],[208,190],[174,206],[26,21],[20,9],[10,3],[9,1],[161,19],[168,91],[383,84]],[[2756,4096],[-152,-171],[-58,-161],[18,-262],[-165,-78],[-95,-103],[-127,-32],[-55,-58],[-202,-104],[-180,38],[-142,-26],[-124,18],[-274,85],[-139,-43],[-110,20],[-172,-88],[-164,-283],[-103,-65],[-49,-87],[-173,-57],[-109,-116],[-128,-28],[-53,-303]],[[936,0],[-126,59],[-80,256],[-13,10],[-233,119],[-92,46],[-10,5],[-3,2],[-9,10],[-88,118],[-97,61],[-111,15],[-74,44]],[[338,550],[-3,5],[-4,5],[7,-10]],[[386,493],[5,-2],[6,-3],[-11,5]],[[479,447],[6,-3],[5,-3],[-11,6]],[[776,183],[-3,12],[1,-4],[2,-8]],[[882,19],[5,-1],[7,-3],[-12,4]],[[0,752],[120,-58]],[[0,1912],[169,29],[135,-81],[89,-104],[100,-20]],[[0,743],[74,-43],[111,-14],[82,-49],[15,-12],[97,-128],[347,-178],[84,-260],[125,-59]],[[192,682],[0,-1],[10,-6],[-10,7]],[[338,550],[-4,5],[-3,5],[7,-10]],[[386,493],[10,-5],[-4,2],[-6,3]],[[478,446],[1,0],[10,-5],[-4,2],[-7,3]],[[775,183],[-1,4],[-2,8],[3,-12]],[[887,16],[-5,2],[12,-4],[-7,2]],[[221,977],[-70,-8],[-151,29]],[[2138,3247],[-74,-65],[93,-135],[-52,-187],[42,-65],[20,-129],[80,-62],[116,-6],[59,-77],[132,-462],[1,-136],[-43,-58],[-10,-153],[110,-275],[10,-97],[214,-291],[178,-163],[-2,-337],[113,-292],[-188,-156]],[[2933,96],[-5,-96]],[[2932,0],[3,97]],[[652,3075],[8,14]],[[2062,3248],[73,41]],[[2173,3282],[-2,-1]],[[2481,1911],[6,3]],[[2587,1976],[103,76]],[[2171,3276],[2,3],[-2,1],[0,-4]],[[129,134],[-47,-10]],[[2690,2052],[1,0]],[[75,720],[4,10]],[[1214,304],[77,-32]],[[1080,1089],[80,-136],[89,-75],[30,-213],[52,-54],[6,-48]],[[390,3141],[23,-9]],[[1383,393],[-4,-3]],[[1695,1441],[-223,-48],[-70,57],[-201,-70],[-63,-116],[40,-58]],[[2923,137],[-3,-49]],[[73,715],[-1,-6]],[[100,548],[0,-4]],[[82,124],[47,9]],[[155,139],[79,16]],[[330,175],[-58,-12]],[[276,163],[55,12]],[[1379,390],[-33,-18]],[[88,763],[0,4]],[[156,833],[41,38]],[[197,871],[-41,-38]],[[1174,1193],[6,12]],[[369,2347],[-25,-36]],[[345,2310],[24,37]],[[369,2347],[53,70],[42,120],[-21,41],[13,85]],[[456,2663],[1,7]],[[457,2670],[-1,-7]],[[0,3370],[143,-77],[83,-82],[164,-70]],[[1203,306],[-294,-29]],[[909,276],[3,0]],[[928,278],[286,26]],[[1337,563],[39,-137]],[[498,1201],[169,168]],[[660,3089],[125,189],[393,354]],[[3981,2822],[2,4]],[[214,1569],[-116,38],[-98,95]],[[216,1568],[1,-1]],[[218,1568],[0,1]],[[220,1567],[106,-26],[267,-150]],[[667,1370],[1,0]],[[748,1304],[260,-138]],[[325,663],[72,36]],[[470,757],[25,27]],[[1177,1205],[3,0],[-2,1],[-1,-1]],[[2162,3293],[-100,-45],[-195,74]],[[217,1569],[-1,-1]],[[218,1567],[0,1]],[[2894,521],[0,-74]],[[272,163],[-117,-24]],[[561,222],[-231,-47]],[[909,277],[-195,-24]],[[1289,275],[-86,31]],[[1823,403],[-209,16]],[[2015,389],[-140,9]],[[2687,434],[-120,-40],[-244,-8]],[[2323,385],[244,9],[114,37]],[[2894,520],[111,44],[40,21]],[[3045,585],[-151,-64]],[[3144,632],[-99,-47]],[[4096,812],[-498,-61]],[[102,546],[-2,2]],[[1077,1091],[3,-2]],[[156,833],[-28,-26],[-13,-10],[-9,-6],[-11,-3]],[[96,789],[60,44]],[[197,871],[26,25],[-26,-25]],[[287,947],[-2,-1]],[[287,947],[37,34]],[[1080,1089],[29,-2],[68,118]],[[82,124],[-21,-4]],[[142,137],[-13,-3]],[[234,155],[42,8]],[[331,175],[230,47]],[[714,253],[195,23]],[[912,276],[16,2]],[[70,692],[-9,-14]],[[61,678],[-26,-45]],[[35,633],[20,31],[6,14]],[[61,678],[10,22]],[[593,1391],[72,-19]],[[667,1371],[0,-1]],[[668,1370],[-1,2]],[[83,747],[-5,-17]],[[79,730],[5,17]],[[155,139],[-13,-2]],[[1537,382],[-197,-129],[-51,22]],[[1315,257],[24,-5],[14,4],[51,30]],[[1614,419],[-69,-31]],[[1875,398],[-52,5]],[[3598,751],[-23,-3]],[[2898,0],[23,86]],[[2272,3256],[132,-56],[142,40],[256,-22],[343,86],[224,-76],[500,-284],[110,-117]],[[1381,416],[3,-6]],[[35,633],[-1,-1]],[[35,632],[0,1]],[[3575,748],[-121,-25]],[[465,2722],[-8,-52]],[[457,2670],[8,52]],[[465,2722],[4,27]],[[1178,3632],[17,-23]],[[652,3075],[19,-12]],[[2912,210],[14,-70]],[[671,3063],[339,-262],[218,-130],[317,-319]],[[12,400],[40,44]],[[1291,272],[24,-15]],[[482,2796],[2,8]],[[4019,2816],[20,-5]],[[4043,2810],[53,-15]],[[1162,1225],[15,-20]],[[38,620],[62,-72]],[[72,709],[-2,-17]],[[71,700],[3,16]],[[1338,3468],[1,0]],[[3979,2827],[-3,-128]],[[4053,2646],[43,0]],[[1346,71],[7,-71]],[[2681,431],[213,89]],[[2894,521],[-125,-49],[-82,-38]],[[0,107],[48,10]],[[2171,3248],[62,3]],[[2237,3251],[35,5]],[[3159,638],[-15,-6]],[[3159,638],[17,4]],[[3443,720],[-267,-78]],[[1381,416],[-5,10]],[[1384,410],[6,-14]],[[598,229],[103,21]],[[702,251],[-104,-21]],[[324,981],[124,106],[21,99],[29,15]],[[474,2892],[23,-48]],[[91,777],[-1,-1]],[[2233,3251],[4,0]],[[85,750],[1,5]],[[2015,389],[308,-4]],[[2323,386],[-308,3]],[[667,1372],[0,-1]],[[0,107]],[[61,120],[-50,-10]],[[413,3132],[9,-3]],[[559,3097],[93,-22]],[[2470,711],[49,-63]],[[2918,324],[-22,-59],[16,-55]],[[2920,88],[1,-2]],[[2922,144],[2,-4]],[[2925,141],[-1,-1]],[[2924,140],[1,-1]],[[2925,139],[1,1]],[[78,730],[-5,-15]],[[74,717],[1,3]],[[1695,1441],[112,283],[75,32]],[[0,389]],[[508,788],[186,15],[69,93],[234,169],[80,26]],[[34,632],[4,-12]],[[100,548],[-65,84]],[[216,1568]],[[218,1569],[-1,0]],[[217,1567],[1,0]],[[218,1568]],[[518,4096],[-3,-32],[-79,-137],[-4,-69],[-73,-170],[34,-130],[-20,-176],[33,-191]],[[499,2840],[153,235]],[[1110,3570],[-13,-123],[-40,-87],[-14,-137],[-1,-23],[-10,-30]],[[1032,3170],[-8,-22],[-1,-1]],[[1023,3147],[-86,-90],[-78,-102],[-111,-246],[-142,-172],[-48,-75],[-82,-83],[-132,-68]],[[345,2310],[132,69],[13,11],[66,69],[224,285],[74,198],[168,203],[1,2]],[[1023,3147],[9,23]],[[1032,3170],[11,30],[23,179],[32,68],[13,122]],[[1822,4026],[-27,-42]],[[1796,3984],[12,16],[14,26]],[[1794,4096],[28,-70]],[[11,110],[-11,-3]],[[3979,2827],[40,-11]],[[244,921],[-3,-4]],[[1346,372],[-8,-231]],[[107,555],[38,63],[83,22]],[[228,640],[13,2],[41,8]],[[282,650],[-54,-10]],[[282,650],[43,13]],[[0,389],[12,11]],[[52,444],[55,111]],[[397,699],[73,58]],[[495,784],[13,4]],[[598,230],[-37,-8]],[[561,222],[37,7]],[[701,250],[13,3]],[[714,253],[-12,-2]],[[1795,3984],[-156,-135],[-331,-145],[-2,-1],[-10,-7]],[[1296,3696],[-93,-68],[-79,-46]],[[1124,3582],[-10,-5],[-4,-7]],[[1111,3569],[4,7],[9,6]],[[1124,3582],[172,114]],[[1296,3696],[11,6],[1,1],[332,146],[109,75],[47,60]],[[61,119],[21,5]],[[129,133],[26,6]],[[1008,1166],[69,-75]],[[2686,430],[-12,16]],[[670,1370],[78,-66]],[[1195,3609],[143,-141]],[[1867,3322],[-51,28],[-236,-9],[-241,127]],[[469,2749],[13,47]],[[484,2804],[15,36]],[[1404,286],[210,133]],[[1823,403],[52,-5]],[[2479,1911],[2,0]],[[2487,1914],[74,11],[26,51]],[[1614,419],[209,-16]],[[1875,398],[140,-9]],[[90,776],[-7,-29]],[[84,747],[1,3]],[[86,755],[2,8]],[[88,767],[3,10]],[[48,117],[13,2]],[[1390,396],[-7,-3]],[[2056,1659],[61,81],[144,24],[129,111],[89,36]],[[1338,141],[8,-70]],[[2171,3276],[0,-28]],[[2173,3279],[-2,1]],[[3976,2699],[-1,-38],[78,-15]],[[0,1766],[98,120],[22,44],[24,146],[39,53],[20,26],[28,36],[4,5]],[[235,2196],[3,4],[6,7],[12,12]],[[256,2219],[13,12],[50,46],[26,33]],[[344,2311],[-26,-35],[-54,-48],[-8,-9]],[[256,2219],[-21,-23]],[[235,2196],[-4,-5],[-49,-61],[-38,-54],[-25,-147],[-34,-58],[-85,-102]],[[241,917],[-18,-21]],[[285,946],[-41,-25]],[[1545,388],[-8,-6]],[[95,788],[-4,-11]],[[91,777],[5,12]],[[4039,2811],[4,-1]],[[74,716],[0,1]],[[422,3129],[137,-32]],[[1545,2352],[131,-286],[213,-316],[151,-68],[268,-392],[86,-275],[24,-238],[52,-66]],[[2519,648],[147,-190]],[[2666,458],[19,-28]],[[2674,446],[-8,12]],[[2894,447],[24,-123]],[[406,3191],[18,-175],[50,-124]],[[497,2844],[2,-4]],[[2691,2052],[275,277],[343,126],[-12,42],[285,58],[392,142]],[[3454,723],[-11,-3]],[[2171,0],[-2171,0],[0,4096],[4096,0],[0,-4096],[-1925,0]],[[145,617],[129,12],[90,-151],[-2,-33],[-76,26],[12,21],[-42,37],[-41,13],[-10,-28],[-33,7],[-27,96]],[[3439,734],[59,64],[51,-46],[32,2],[-26,-27],[23,-46],[-129,13],[-10,40]],[[377,2901],[68,59],[16,-91],[-18,-19],[22,-20],[8,64],[25,-53],[-46,-42],[4,-38],[-28,-12],[-17,20],[-8,-31],[-23,74],[74,-8],[-77,97]],[[106,0],[6,48],[87,-10],[28,-38],[-121,0]],[[1609,1825],[0,84],[113,59],[100,-150],[-62,-52],[-110,7],[-41,52]],[[1373,1644],[64,56],[90,-85],[-57,-60],[-97,89]],[[1324,2994],[23,99],[87,29],[23,-60],[-56,-71],[-77,3]],[[433,1886],[52,79],[17,-19],[773,676],[-7,-33],[63,-61],[9,-79],[102,-20],[-18,-50],[-429,-374],[0,-28],[-348,-278],[-78,117],[-51,-16],[-85,86]],[[872,2498],[11,14],[36,-33],[-18,70],[86,10],[80,-50],[19,23],[36,-41],[-156,-137],[-94,144]],[[3540,644],[-52,5],[-51,49],[66,183],[31,-8],[65,-116],[-18,-76],[-41,-37]],[[3017,59],[-15,-59],[-537,0],[-2,97],[30,32],[103,-12],[67,62],[30,-3],[33,-175],[219,368],[39,8],[123,-185],[7,-75],[-97,-58]],[[1917,233],[96,0],[33,-116],[153,-11],[41,-47],[-5,-59],[-277,0],[-10,59],[-72,-14],[-40,-45],[-81,1],[72,236],[-8,287],[39,-57],[59,-234]],[[460,408],[13,-112],[20,-4],[-44,-45],[-104,73],[-14,88],[129,0]],[[2402,407],[-75,-5],[-64,37],[-43,94],[-12,165],[79,37],[277,-37],[-5,-34],[-60,-24],[-51,-194],[-46,-39]],[[1562,66],[-3,-66],[-198,0],[-36,218],[-54,85],[18,140],[49,122],[60,17],[-3,96],[-58,99],[-3,96],[173,-47],[53,-69],[-17,-42],[-112,-17],[-3,-92],[197,-198],[-32,-117],[-65,-58],[34,-167]],[[0,1038],[0,63],[7,4],[-7,-67]],[[0,640],[0,187],[99,50],[38,-4],[58,-121],[51,5],[24,34],[-17,28],[-52,-5],[-12,158],[40,81],[44,-8],[80,-100],[64,-28],[11,-102],[65,0],[64,-117],[65,0],[130,-116],[95,-31],[35,-42],[-1,-102],[-40,45],[-24,-16],[-33,-87],[-97,-116],[0,-116],[-97,-58],[-3,-59],[-171,0],[12,117],[61,63],[85,-10],[48,122],[-65,115],[33,59],[-20,67],[-110,107],[-66,-47],[-239,-31],[-51,-38],[33,-58],[-10,-62],[-87,-171],[32,-174],[-33,-58],[-19,3],[-20,29],[0,355],[17,59],[-10,193],[-7,0]],[[3987,2616],[-20,58],[85,233],[-24,92],[68,25],[0,-358],[-109,-50]],[[2080,3124],[-133,24],[-96,50],[-1,102],[27,36],[104,36],[32,59],[87,56],[68,11],[104,-242],[-67,-105],[-125,-27]],[[609,3731],[110,-10],[0,-116],[65,0],[-64,-97],[-75,16],[-152,139],[60,108],[37,8],[19,-48]],[[0,2394],[0,248],[36,53],[68,38],[27,-270],[-27,-79],[-65,-58],[0,58],[-39,10]],[[635,3152],[52,-129],[-33,-232],[-32,0],[-32,-117],[-130,0],[-88,-116],[-41,0],[-20,76],[17,180],[-30,93],[-91,-103],[-6,103],[90,60],[95,130],[10,101],[23,-16],[9,-158],[30,-7],[65,68],[34,-3],[30,294],[67,55],[-19,-279]],[[2726,1803],[-80,2],[-180,114],[65,116],[32,175],[38,1],[26,-32],[87,-173],[21,-85],[-9,-118]],[[0,1914],[0,65],[8,-60],[-8,-5]],[[462,2700],[21,101],[75,126],[28,-21],[-9,25],[39,-20],[39,21],[-22,-43],[-38,0],[19,-31],[-28,-21],[-54,34],[-22,-33],[17,-37],[-45,-38],[-20,-63]]]}