{"objects":{"water":{"type":"GeometryCollection","geometries":[]},"buildings":{"type":"GeometryCollection","geometries":[]},"places":{"type":"GeometryCollection","geometries":[{"type":"Point","properties":{"name:pt":"Oblast de Moscou","name:cy":"Oblast Moscfa","name:ko":"\ubaa8\uc2a4\ud06c\ubc14 \uc8fc","name:cv":"\u041c\u0443\u0441\u043a\u0430\u0432 \u043e\u0431\u043b\u0430\u00e7\u0115","name:cu":"\u041c\u043e\u0441\u043a\u044a\u0432\u044c\u0441\u043a\u0430 \u043e\u0431\u043b\u0430\u0441\u0442\u044c","name:cs":"Moskevsk\u00e1 oblast","name:tt":"\u041c\u04d9\u0441\u043a\u04d9\u04af \u04e9\u043b\u043a\u04d9\u0441\u0435","name:kv":"\u041c\u04e7\u0441\u043a\u0443\u0430 \u043e\u0431\u043b\u0430\u0441\u044c\u0442","min_zoom":4.0,"name:ro":"Regiunea Moscova","name:tl":"Moscow Oblast","name:sv":"Moskva oblast","name:os":"\u041c\u00e6\u0441\u043a\u0443\u044b\u0439\u044b \u043e\u0431\u043b\u00e6\u0441\u0442","name:ce":"\u041c\u043e\u0441\u043a\u0432\u0430\u043d \u043e\u0431\u043b\u0430\u0441\u0442\u044c","name:ta":"\u0bae\u0bbe\u0bb8\u0bcd\u0b95\u0bcb \u0b93\u0baa\u0bcd\u0bb2\u0bb8\u0bcd\u0ba4\u0bc1","name:tg":"\u0412\u0438\u043b\u043e\u044f\u0442\u0438 \u041c\u0430\u0441\u043a\u0430\u0432","name:ky":"\u041c\u043e\u0441\u043a\u0432\u0430 \u043e\u0431\u043b\u0430\u0441\u0442\u044b","name:ka":"\u10db\u10dd\u10e1\u10d9\u10dd\u10d5\u10d8\u10e1 \u10dd\u10da\u10e5\u10d8","name:da":"Moskva oblast","name:de":"Oblast Moskau","source":"openstreetmap.org","name:ba":"\u041c\u04d9\u0441\u043a\u04d9\u04af \u04e9\u043b\u043a\u04d9\u04bb\u0435","name:lv":"Maskavas apgabals","name:tr":"Moskova Oblast\u0131","name:uz":"Moskva viloyati","name:he":"\u05de\u05d5\u05e1\u05e7\u05d1\u05d4 (\u05de\u05d7\u05d5\u05d6)","kind":"region","name:ur":"\u0645\u0627\u0633\u06a9\u0648 \u0627\u0648\u0628\u0644\u0627\u0633\u062a","name:la":"Regio Moscuensis","name:uk":"\u041c\u043e\u0441\u043a\u043e\u0432\u0441\u044c\u043a\u0430 \u043e\u0431\u043b\u0430\u0441\u0442\u044c","name:hy":"\u0544\u0578\u057d\u056f\u057e\u0561\u0575\u056b \u0574\u0561\u0580\u0566","name:hu":"Moszkvai ter\u00fclet","name:hr":"Moskovska oblast","name:el":"\u03a0\u03b5\u03c1\u03b9\u03c6\u03ad\u03c1\u03b5\u03b9\u03b1 \u039c\u03cc\u03c3\u03c7\u03b1\u03c2","name:eo":"Moskva Provinco","name:en":"Moscow Oblast","name":"\u041c\u043e\u0441\u043a\u043e\u0432\u0441\u043a\u0430\u044f \u043e\u0431\u043b\u0430\u0441\u0442\u044c","name:eu":"Moskuko oblasta","name:et":"Moskva oblast","name:nl":"Oblast Moskou","name:es":"\u00d3blast de Mosc\u00fa","name:az":"Moskva vilay\u0259ti","name:id":"Oblast Moskwa","name:ms":"Wilayah Moscow","name:mr":"\u092e\u0949\u0938\u094d\u0915\u094b \u0913\u092c\u094d\u0932\u093e\u0938\u094d\u0924","name:ar":"\u0645\u062d\u0627\u0641\u0638\u0629 \u0645\u0648\u0633\u0643\u0648","name:it":"Oblast' di Mosca","name:vi":"Moskva (t\u1ec9nh)","name:mn":"\u041c\u043e\u0441\u043a\u0432\u0430 \u043c\u0443\u0436","name:pl":"Obw\u00f3d moskiewski","name:mk":"\u041c\u043e\u0441\u043a\u043e\u0432\u0441\u043a\u0430 \u043e\u0431\u043b\u0430\u0441\u0442","name:af":"Moskou-oblast","name:fa":"\u0627\u0633\u062a\u0627\u0646 \u0645\u0633\u06a9\u0648","name:lt":"Maskvos sritis","kind_detail":"state","id":658312593,"name:fr":"Oblast de Moscou","name:ca":"Prov\u00edncia de Moscou","name:zh":"\u83ab\u65af\u79d1\u5dde","name:sl":"Moskovska oblast","name:sk":"Moskovsk\u00e1 oblas\u0165","name:ja":"\u30e2\u30b9\u30af\u30ef\u5dde","name:nn":"Moskva oblast","name:no":"Moskva oblast","name:se":"Moskva oblast","name:br":"Oblast Moskov","name:bs":"Moskovska oblast","name:sw":"Moscow Oblast","name:be":"\u041c\u0430\u0441\u043a\u043e\u045e\u0441\u043a\u0430\u044f \u0432\u043e\u0431\u043b\u0430\u0441\u0446\u044c","name:bg":"\u041c\u043e\u0441\u043a\u043e\u0432\u0441\u043a\u0430 \u043e\u0431\u043b\u0430\u0441\u0442","name:sr":"\u041c\u043e\u0441\u043a\u043e\u0432\u0441\u043a\u0430 \u043e\u0431\u043b\u0430\u0441\u0442","name:ga":"C\u00faige Mhosc\u00f3","name:fi":"Moskovan alue"},"coordinates":[194,2700]},{"type":"Point","properties":{"name:ja":"\u30b3\u30ed\u30e0\u30ca","name:lt":"Kolomna","name:no":"Kolomna","name:ko":"\ucf5c\ub86c\ub098","name:ar":"\u0643\u0648\u0644\u0648\u0645\u0646\u0627","name:cs":"Kolomna","kind":"locality","min_zoom":8.0,"name:sv":"Kolomna","name:be":"\u041a\u0430\u043b\u043e\u043c\u043d\u0430","name:pl":"Ko\u0142omna","name":"\u041a\u043e\u043b\u043e\u043c\u043d\u0430","id":191867420,"population":144253,"name:eo":"Kolomna","name:en":"Kolomna","name:nn":"Kolomna","kind_detail":"city","name:de":"Kolomna","source":"openstreetmap.org","name:fr":"Kolomna","name:fi":"Kolomna","name:zh":"\u79d1\u6d1b\u59c6\u7eb3"},"coordinates":[2325,596]},{"type":"Point","properties":{"name:pt":"Jukovsky","name:az":"Jukovski","name:ko":"\uc8fc\ucf65\uc2a4\ud0a4","name:ar":"\u062c\u0648\u0643\u0648\u0641\u0633\u0643\u064a","name:cs":"\u017dukovskij","min_zoom":8.0,"name:ro":"Jukovski","name:it":"\u017dukovskij","name:tl":"Zhukovsky","name:be":"\u0416\u0443\u043a\u043e\u045e\u0441\u043a\u0456","name:vi":"Zhukovsky","name:pl":"\u017bukowski","id":191913805,"name:ca":"Jukovski","name:fa":"\u0698\u0648\u06a9\u0648\u0641\u0633\u06a9\u06cc\u060c \u0627\u0633\u062a\u0627\u0646 \u0645\u0633\u06a9\u0648","name:lt":"\u017dukovskis","source":"openstreetmap.org","kind_detail":"city","name:uz":"Jukovskiy","name:de":"Schukowski","name:tr":"Jukovski","name:fr":"Joukovski","name:zh":"\u8339\u79d1\u592b\u65af\u57fa","name:sl":"\u017dukovski","name:lv":"\u017dukovska","name:ja":"\u30b8\u30e5\u30b3\u30fc\u30d5\u30b9\u30ad\u30fc","name:nn":"Zjukovskij","name:no":"Zjukovskij","kind":"locality","name:ur":"\u0698\u0648\u06a9\u0648\u0648\u0633\u06a9\u06cc\u060c \u0645\u0627\u0633\u06a9\u0648 \u0627\u0648\u0628\u0644\u0627\u0633\u062a","name:uk":"\u0416\u0443\u043a\u043e\u0432\u0441\u044c\u043a\u0438\u0439","old_name":"\u043f\u043e\u0441\u0451\u043b\u043e\u043a \u0421\u0442\u0430\u0445\u0430\u043d\u043e\u0432\u043e","name:sv":"Zjukovskij","name:sr":"\u0416\u0443\u043a\u043e\u0432\u0441\u043a\u0438","population":107815,"name:eo":"\u0134ukovskij","name:en":"Zhukovsky","name":"\u0416\u0443\u043a\u043e\u0432\u0441\u043a\u0438\u0439","name:fi":"\u017dukovski","name:et":"\u017dukovski","name:nl":"Zjoekovski"},"coordinates":[441,3177]},{"type":"Point","properties":{"name:pt":"Ramenskoie","name:az":"Ramenskoye","name:id":"Ramenskoye","name:ko":"\ub77c\uba58\uc2a4\ucf54\uc608","name:ar":"\u0631\u0627\u0645\u0646\u0633\u0643\u0648\u064a","min_zoom":8.0,"int_name":"Ramenskoye","name:it":"Ramenskoe","name:tl":"Ramenskoye","name:be":"\u0420\u0430\u043c\u0435\u043d\u0441\u043a\u0430\u0435","name:vi":"Ramenskoye","name:pl":"Ramienskoje","id":256361843,"name:lv":"Ramenska","name:fa":"\u0631\u0627\u0645\u0646\u0633\u06a9\u0648\u06cc\u0647","name:lt":"Ramenskoj\u0117","kind_detail":"city","name:de":"Ramenskoje","source":"openstreetmap.org","name:fr":"Ramensko\u00efe","name:zh":"\u62c9\u7dec\u65af\u79d1\u8036","name:ro":"Ramenskoe","name:ja":"\u30e9\u30e1\u30f3\u30b9\u30b3\u30a8","name:nn":"Ramenskoje","name:no":"Ramenskoje","kind":"locality","name:uk":"\u0420\u0430\u043c\u0435\u043d\u0441\u044c\u043a\u0435","name:sv":"Ramenskoje","name:hr":"Ramenskoje","name:sr":"\u0420\u0430\u043c\u0435\u043d\u0441\u043a\u043e\u0458\u0435","population":106264,"name:eo":"Ramenskoje","name:en":"Ramenskoye","name":"\u0420\u0430\u043c\u0435\u043d\u0441\u043a\u043e\u0435","name:fi":"Ramenskoje","name:et":"Ramenskoje","name:nl":"Ramenskoje","name:es":"R\u00e1menskoye"},"coordinates":[756,3042]},{"type":"Point","properties":{"name:pt":"Voskresensk","name:ro":"Voskresensk","name:ko":"\ubcf4\uc2a4\ud06c\ub808\uc13c\uc2a4\ud06c","name:ar":"\u0641\u0648\u0633\u0643\u0631\u064a\u0633\u064a\u0646\u0633\u0643","name:cs":"Voskresensk","min_zoom":8.0,"name:it":"Voskresensk","name:tl":"Voskresensk","name:vi":"Voskresensk","name:pl":"Woskriesiensk","id":2095029787,"name:ca":"Voskressensk","name:fa":"\u0648\u0648\u0633\u06a9\u0631\u0633\u0646\u0633\u06a9","name:lt":"Voskresenskas","kind_detail":"city","name:de":"Woskressensk","source":"openstreetmap.org","name:fr":"Voskressensk","name:zh":"\u6c83\u65af\u514b\u5217\u5148\u65af\u514b","name:sl":"Voskresensk","name:lv":"Voskresenska","name:ja":"\u30f4\u30a9\u30b9\u30af\u30ec\u30bb\u30f3\u30b9\u30af","name:nn":"Voskresensk","name:no":"Voskresensk","kind":"locality","name:sk":"Voskresensk","name:uk":"\u0412\u043e\u0441\u043a\u0440\u0435\u0441\u0435\u043d\u0441\u044c\u043a","name:sv":"Voskresensk","name:hu":"Voskresenk","population":93824,"name:eo":"Voskresensk","name:en":"Voskresensk","name":"\u0412\u043e\u0441\u043a\u0440\u0435\u0441\u0435\u043d\u0441\u043a","name:fi":"Voskresensk","name:et":"Voskressensk","name:nl":"Voskresensk","name:es":"Voskresensk"},"coordinates":[2077,1768]},{"type":"Point","properties":{"name:ro":"Egorevsk","name:ko":"\uc608\uace0\ub9ac\uc608\ud504\uc2a4\ud06c","name:ar":"\u064a\u064a\u063a\u0648\u0631\u064a\u0641\u0633\u0643","name:th":"\u0e40\u0e22\u0e01\u0e2d\u0e23\u0e4c\u0e40\u0e22\u0e1f\u0e2a\u0e04\u0e4c","name:it":"Egor'evsk","name:tl":"Yegoryevsk","name:vi":"Yegoryevsk","name:pl":"Jegorjewsk","id":253016504,"name:ca":"Ieg\u00f3rievsk","name:fa":"\u06cc\u06af\u0648\u0631\u06cc\u0641\u0633\u06a9","kind_detail":"town","name:de":"Jegorjewsk","source":"openstreetmap.org","name:fr":"Iegorievsk","name:zh":"\u8449\u6208\u91cc\u8036\u592b\u65af\u514b","name:ja":"\u30a8\u30b4\u30ea\u30a8\u30d5\u30b9\u30af","name:nn":"Jegorjevsk","name:no":"Jegorjevsk","kind":"locality","name:ur":"\u06cc\u06af\u0648\u0631\u06d2 \u0648\u0633\u06a9","name:uk":"\u0404\u0433\u043e\u0440'\u0454\u0432\u0441\u044c\u043a","old_name":"\u0441\u0435\u043b\u043e \u0412\u044b\u0441\u043e\u043a\u043e\u0435","name:sv":"Jegorjevsk","name:bg":"\u0415\u0433\u043e\u0440\u0435\u0432\u0441\u043a","name:sr":"\u0408\u0435\u0433\u043e\u0440\u0458\u0435\u0432\u0441\u043a","population":71285,"name:eo":"Jegorjevsk","name:en":"Yegoryevsk","name":"\u0415\u0433\u043e\u0440\u044c\u0435\u0432\u0441\u043a","min_zoom":8.0,"name:fi":"Jegorjevsk","name:et":"Jegorjevsk","name:es":"Yeg\u00f3rievsk"},"coordinates":[3107,2078]},{"type":"Point","properties":{"name:sr":"\u041b\u0438\u043a\u0438\u043d\u043e-\u0414\u0443\u0459\u043e\u0432\u043e","name:ro":"Likino-Duliovo","name:uk":"\u041b\u0456\u043a\u0456\u043d\u043e-\u0414\u0443\u043b\u044c\u043e\u0432\u043e","name:nn":"Likino-Duljovo","name:no":"Likino-Duljovo","name:ar":"\u0644\u064a\u0643\u064a\u0646\u0648-\u062f\u0648\u0644\u064a\u0648\u0641\u0648","kind":"locality","min_zoom":8.0,"name:az":"Likino-Dulyovo","name:it":"Likino-Dul\u00ebvo","name:tl":"Likino-Dulyovo","name:be":"\u041b\u0456\u043a\u0456\u043d\u0430-\u0414\u0443\u043b\u0451\u0432\u0430","name:pl":"Likino-Dulowo","id":252546931,"population":30345,"name:fa":"\u0644\u06cc\u06a9\u06cc\u0646-\u062f\u0648\u0644\u06cc\u0648\u0641\u0648","name:eo":"Likino-Dulovo","name:en":"Likino-Dulyovo","name":"\u041b\u0438\u043a\u0438\u043d\u043e-\u0414\u0443\u043b\u0451\u0432\u043e","kind_detail":"town","name:de":"Likino-Duljowo","source":"openstreetmap.org","name:fr":"Likino-Douliovo","name:fi":"Likino-Duljovo","name:et":"Likino-Duljovo","name:zh":"\u5229\u57fa\u8afe-\u675c\u5ed6\u6c83"},"coordinates":[2878,3726]},{"type":"Point","properties":{"kind":"locality","name:en":"Malakhovka","name":"\u041c\u0430\u043b\u0430\u0445\u043e\u0432\u043a\u0430","name:no":"Malakhovka","kind_detail":"town","name:he":"\u05de\u05dc\u05d7\u05d5\u05d1\u05e7\u05d4","name:cs":"Malachovka","name:de":"Malachowka","source":"openstreetmap.org","min_zoom":8.0,"name:it":"Malachovka","old_name":"\u041c\u0430\u043b\u0430\u0445\u043e\u0432\u0441\u043a\u0430\u044f \u043f\u0443\u0441\u0442\u043e\u0448\u044c","name:pl":"Ma\u0142achowka","id":265998757,"population":25606},"coordinates":[103,3423]},{"type":"Point","properties":{"kind":"locality","name:en":"Kraskovo","name":"\u041a\u0440\u0430\u0441\u043a\u043e\u0432\u043e","kind_detail":"town","name:de":"Kraskowo","source":"openstreetmap.org","min_zoom":8.0,"old_name":"\u0411\u043e\u0433\u043e\u0440\u043e\u0434\u0441\u043a\u043e\u0435","id":267102723,"population":23386},"coordinates":[33,3491]},{"type":"Point","properties":{"name:pt":"Bronnitsy","name:ro":"Bronni\u021b\u00ee","name:ko":"\ube0c\ub85c\ub2c8\uce58","name:ar":"\u0628\u0631\u0648\u0646\u064a\u062a\u0633\u064a","min_zoom":8.0,"name:it":"Bronnicy","name:tl":"Bronnitsy","name:vi":"Bronnitsy","name:pl":"Bronnicy","name:de":"Bronnizy","id":253732932,"name:ca":"Br\u00f3nnitsi","name:fa":"\u0628\u0631\u0648\u0646\u06cc\u062a\u0633\u06cc","name:lt":"Bronicai","kind_detail":"town","name:tg":"\u0411\u0440\u043e\u043d\u043d\u0438\u0442\u0441\u0438","source":"openstreetmap.org","name:fr":"Bronnitsy","name:zh":"\u5e03\u9f8d\u5c3c\u9f4a","name:nl":"Bronnitsy","name:ja":"\u30d6\u30ed\u30f3\u30cb\u30c4\u30a3","name:nn":"Bronnitsy","name:no":"Bronnitsy","kind":"locality","name:uk":"\u0411\u0440\u043e\u043d\u043d\u0438\u0446\u0456","name:be":"\u0411\u0440\u043e\u043d\u043d\u0456\u0446\u044b","name:sr":"\u0411\u0440\u043e\u043d\u0438\u0446\u0438","population":21925,"name:eo":"Bronnici","name:en":"Bronnitsy","name":"\u0411\u0440\u043e\u043d\u043d\u0438\u0446\u044b","name:fi":"Bronnitsy","name:et":"Bronnits\u00f5"},"coordinates":[846,2278]},{"type":"Point","properties":{"name:sr":"\u041a\u0443\u0440\u043e\u0432\u0441\u043a\u043e\u0458\u0435","name:ro":"Kurovskoe","name:uk":"\u041a\u0443\u0440\u043e\u0432\u0441\u044c\u043a\u0435","name:nn":"Kurovskoje","name:no":"Kurovskoje","name:ar":"\u0643\u0648\u0631\u0648\u0641\u0633\u0643\u0648\u064a","kind":"locality","min_zoom":8.0,"name:az":"Kurovskoye","name:it":"Kurovskoe","name:tl":"Kurovskoye","name:pl":"Kurowskoje","id":764019333,"population":21246,"name:fa":"\u06a9\u0648\u0631\u0648\u0641\u0633\u06a9\u0648\u06cc\u0647","name:eo":"Kurovskoje","name:en":"Kurovskoye","name":"\u041a\u0443\u0440\u043e\u0432\u0441\u043a\u043e\u0435","kind_detail":"town","name:de":"Kurowskoje","source":"openstreetmap.org","name:fr":"Kourovsko\u00efe","name:fi":"Kurovskoje","name:zh":"\u5eab\u7f85\u592b\u65af\u79d1\u8036"},"coordinates":[2778,3074]},{"type":"Point","properties":{"name:pt":"Elektroiugli","name:az":"Elektrouqli","name:ko":"\uc610\ub809\ud2b8\ub85c\uc6b0\uae00\ub9ac","name:ar":"\u0625\u064a\u0644\u064a\u0643\u062a\u0631\u0648\u063a\u0644\u064a","name:io":"Elektrougli","min_zoom":8.0,"name:ro":"Elektrougli","name:it":"\u0116lektrougli","name:tl":"Elektrougli","name:pl":"Elektrougli","id":256361887,"name:ca":"Elektro\u00fcgli","name:fa":"\u0627\u0644\u06a9\u062a\u0631\u0648\u06af\u0644\u06cc","kind_detail":"town","name:de":"Elektrougli","source":"openstreetmap.org","name:fr":"Elektroougli","name:zh":"\u57c3\u5217\u514b\u7279\u7f85\u70cf\u683c\u5229","name:ja":"\u30a8\u30ec\u30af\u30c8\u30ed\u30a6\u30b0\u30ea","name:nn":"Elektrougli","name:no":"Elektrougli","kind":"locality","name:uk":"\u0415\u043b\u0435\u043a\u0442\u0440\u043e\u0443\u0433\u043b\u0456","old_name":"\u041a\u0443\u0434\u0438\u043d\u043e\u0432\u043e","name:be":"\u042d\u043b\u0435\u043a\u0442\u0440\u0430\u0432\u0443\u0433\u043b\u0456","name:bg":"\u0415\u043b\u0435\u043a\u0442\u0440\u043e\u0443\u0433\u043b\u0438","name:sr":"\u0415\u043b\u0435\u043a\u0442\u0440\u043e\u0443\u0433\u043b\u0438","population":20652,"name:eo":"Elektrougli","name:en":"Elektrougli","name":"\u042d\u043b\u0435\u043a\u0442\u0440\u043e\u0443\u0433\u043b\u0438","name:fi":"Elektrougli"},"coordinates":[740,3798]},{"type":"Point","properties":{"kind":"locality","name:en":"Beloozyorsky","name":"\u0411\u0435\u043b\u043e\u043e\u0437\u0451\u0440\u0441\u043a\u0438\u0439","kind_detail":"town","name:ar":"\u0628\u064a\u0644\u0648\u0648\u0632\u064a\u0648\u0631\u0633\u0643\u064a\u064a","name:de":"Beloosjorski","source":"openstreetmap.org","min_zoom":8.0,"name:it":"Belooz\u00ebrskij","old_name":"63 \u043a\u0438\u043b\u043e\u043c\u0435\u0442\u0440","id":419841537,"name:pl":"Bie\u0142ooziorskij","name:hy":"\u0532\u0565\u056c\u0578\u0578\u0566\u0575\u0578\u0580\u057d\u056f\u056b\u0575","population":18162},"coordinates":[1370,2470]},{"type":"Point","properties":{"kind":"locality","name:en":"Oktyabrskiy","name":"\u041e\u043a\u0442\u044f\u0431\u0440\u044c\u0441\u043a\u0438\u0439","kind_detail":"town","name:de":"Oktjabrski","source":"openstreetmap.org","min_zoom":8.0,"old_name":"\u0411\u0430\u043b\u044f\u0442\u0438\u043d\u043e","id":317470882,"population":17222},"coordinates":[16,3235]},{"type":"Point","properties":{"kind":"locality","name:en":"Udelnaya","name":"\u0423\u0434\u0435\u043b\u044c\u043d\u0430\u044f","kind_detail":"town","name:de":"Udelnaja","source":"openstreetmap.org","min_zoom":8.0,"name:it":"Udel'naja","name:hy":"\u0548\u0582\u0564\u0565\u056c\u0576\u0561\u0575\u0561","id":301337780,"population":15251},"coordinates":[222,3375]},{"type":"Point","properties":{"name:ro":"Drezna","name:nn":"Drezna","name:no":"Drezna","name:ar":"\u062f\u0631\u064a\u0632\u0646\u0627","kind":"locality","min_zoom":8.0,"name:az":"Drezna","name:it":"Drezna","name:tl":"Drezna","name:be":"\u0414\u0440\u044d\u0437\u043d\u0430","name:pl":"Driezna","id":256361848,"name:ca":"Drezna","population":11831,"name:fa":"\u062f\u0631\u0632\u0646\u0627","name:eo":"Drezna","name:en":"Drezna","name":"\u0414\u0440\u0435\u0437\u043d\u0430","kind_detail":"town","name:de":"Dresna","source":"openstreetmap.org","name:fr":"Drezna","name:fi":"Drezna","name:et":"Drezna","name:zh":"\u5fb7\u5217\u8332\u7d0d"},"coordinates":[2564,3933]},{"type":"Point","properties":{"kind":"locality","name:en":"Davydovo","name":"\u0414\u0430\u0432\u044b\u0434\u043e\u0432\u043e","kind_detail":"town","name:ar":"\u062f\u0627\u0641\u064a\u062f\u0648\u0641\u0648","name:de":"Dawydowo","source":"openstreetmap.org","min_zoom":8.0,"name:hy":"\u0534\u0561\u057e\u056b\u0564\u0578\u057e\u0578","id":762992964,"population":10918},"coordinates":[2592,3231]},{"type":"Point","properties":{"kind":"locality","name:en":"Il\u2019inskiy","name":"\u0418\u043b\u044c\u0438\u043d\u0441\u043a\u0438\u0439","kind_detail":"town","source":"openstreetmap.org","min_zoom":8.0,"id":360001275,"population":10915},"coordinates":[383,3283]},{"type":"Point","properties":{"kind":"locality","name:en":"Bykovo","name":"\u0411\u044b\u043a\u043e\u0432\u043e","name:lt":"Bykovas","kind_detail":"town","name:ar":"\u0628\u064a\u0643\u0648\u0641\u0648 (\u0645\u0648\u0633\u0643\u0648 \u0623\u0648\u0628\u0644\u0627\u0633\u062a)","name:de":"Bykowo","source":"openstreetmap.org","min_zoom":8.0,"name:it":"Bykovo","name:pl":"Bykowo","id":360002125,"population":10834},"coordinates":[313,3351]},{"type":"Point","properties":{"kind":"locality","name:en":"Rodniki","name":"\u0420\u043e\u0434\u043d\u0438\u043a\u0438","kind_detail":"town","source":"openstreetmap.org","min_zoom":8.0,"name:it":"Rodniki","name:hy":"\u054c\u0578\u0564\u0576\u056b\u056f\u056b","id":266034277,"population":5300},"coordinates":[274,3460]},{"type":"Point","properties":{"kind":"locality","name":"\u0438\u043c\u0435\u043d\u0438 \u0412\u043e\u0440\u043e\u0432\u0441\u043a\u043e\u0433\u043e","kind_detail":"town","source":"openstreetmap.org","min_zoom":8.0,"old_name":"\u0414\u0435\u043c\u0438\u0434\u043e\u0432\u043e","id":336306070,"population":5136},"coordinates":[1085,3835]},{"type":"Point","properties":{"kind":"locality","name:en":"Avsyunino","name":"\u0410\u0432\u0441\u044e\u043d\u0438\u043d\u043e","kind_detail":"town","name:de":"Awsjunino","source":"openstreetmap.org","min_zoom":8.0,"name:uk":"\u0410\u0432\u0441\u044e\u043d\u0456\u043d\u043e","name:pl":"Awsjunino","id":705202022,"population":4947},"coordinates":[3343,3001]}]},"transit":{"type":"GeometryCollection","geometries":[{"type":"MultiLineString","properties":{"kind":"train","name":"7 \u041c\u043e\u0441\u043a\u0432\u0430 \u2014 \u0410\u043b\u043c\u0430\u0442\u044b","sort_rank":275,"name:de":"7 Moskau - Almaty","source":"openstreetmap.org","min_zoom":6.0,"ref":"7","osm_relation":true,"description":"7 Moskau -> Almaty \/ 7 Almaty -> Moskau"},"arcs":[[1],[2],[3],[4],[5],[6],[7],[8],[9],[10]]},{"type":"MultiLineString","properties":{"kind":"train","name":"055\/056 \u041c\u043e\u0441\u043a\u0432\u0430 \u2014 \u041a\u0440\u0430\u0441\u043d\u043e\u044f\u0440\u0441\u043a","sort_rank":275,"name:de":"055\/056 Moskau \u2014 Krasnojarsk","source":"openstreetmap.org","min_zoom":6.0,"operator":"\u0420\u043e\u0441\u0441\u0438\u0439\u0441\u043a\u0438\u0435 \u0436\u0435\u043b\u0435\u0437\u043d\u044b\u0435 \u0434\u043e\u0440\u043e\u0433\u0438","ref":"055\/056 \u041c\u043e\u0441\u043a\u0432\u0430 \u2014 \u041a\u0440\u0430\u0441\u043d\u043e\u044f\u0440\u0441\u043a","osm_relation":true},"arcs":[[11],[12]]},{"type":"MultiLineString","properties":{"kind":"train","network":"\u0420\u0416\u0414","sort_rank":275,"source":"openstreetmap.org","min_zoom":6.0,"ref":"379\/380","osm_relation":true,"name":"\u041f\u043e\u0435\u0437\u0434 \u2116379\/380: \u041c\u043e\u0441\u043a\u0432\u0430 \u2014 \u041a\u0430\u043c\u044b\u0448\u0438\u043d"},"arcs":[[13],[14],[15],[16],[17],[18],[19],[20],[21],[22]]},{"type":"LineString","properties":{"kind":"train","name":"\u041c\u043e\u0441\u043a\u0432\u0430 \u042f\u0440\u043e\u0441\u043b\u0430\u0432\u0441\u043a\u0430\u044f \u2014 \u041f\u0435\u0440\u043c\u044c","sort_rank":275,"source":"openstreetmap.org","min_zoom":6.0,"ref":"007\u0415;008\u0415","id":-1758077,"osm_relation":true},"arcs":[23]},{"type":"MultiLineString","properties":{"kind":"train","name":"\u041f\u043e\u0435\u0437\u0434 \u2116025 \u041c\u043e\u0441\u043a\u0432\u0430 \u2014 \u0412\u043e\u0440\u043e\u043d\u0435\u0436","sort_rank":275,"source":"openstreetmap.org","min_zoom":6.0,"ref":"025","osm_relation":true,"network":"\u0420\u0416\u0414"},"arcs":[[24],[25],[26],[27],[28],[29],[30],[31],[32],[33]]},{"type":"MultiLineString","properties":{"source":"openstreetmap.org","kind":"train","sort_rank":275,"ref":"\u041c\u043e\u0441\u043a\u0432\u0430-\u041a\u0443\u0440\u0441\u043a\u0430\u044f - \u042d\u043b\u0435\u043a\u0442\u0440\u043e\u0433\u043e\u0440\u0441\u043a","min_zoom":6.0,"osm_relation":true},"arcs":[[34],[35],[36],[37],[38],[39],[40],[41]]},{"type":"MultiLineString","properties":{"kind":"train","network":"\u0420\u0416\u0414","sort_rank":275,"source":"openstreetmap.org","min_zoom":6.0,"ref":"343","osm_relation":true,"name":"\u041f\u043e\u0435\u0437\u0434 \u2116343: \u041c\u043e\u0441\u043a\u0432\u0430 \u2014 \u0411\u0430\u043b\u0430\u0448\u043e\u0432-1"},"arcs":[[42],[43],[44],[45],[46],[47],[48],[49],[50],[51]]},{"type":"MultiLineString","properties":{"source":"openstreetmap.org","kind":"train","sort_rank":275,"ref":"\u041c\u043e\u0441\u043a\u0432\u0430 - \u041e\u0436\u0435\u0440\u0435\u043b\u044c\u0435","min_zoom":6.0,"osm_relation":true},"arcs":[[52],[53],[54],[55],[56],[57],[58],[59],[60],[61]]},{"type":"MultiLineString","properties":{"source":"openstreetmap.org","kind":"train","sort_rank":275,"ref":"K3\/4","min_zoom":6.0,"osm_relation":true},"arcs":[[62],[63]]},{"type":"MultiLineString","properties":{"source":"openstreetmap.org","kind":"train","name":"\u041f\u043e\u0435\u0437\u0434 \u2116 036\u042d \"\u041d\u0438\u0436\u0435\u0433\u043e\u0440\u043e\u0434\u0435\u0446\": \u041c\u043e\u0441\u043a\u0432\u0430 \u042f\u0440\u043e\u0441\u043b\u0430\u0432\u0441\u043a\u0430\u044f - \u041d\u0438\u0436\u043d\u0438\u0439 \u041d\u043e\u0432\u0433\u043e\u0440\u043e\u0434","sort_rank":275,"ref":"036\u042d","min_zoom":6.0,"osm_relation":true},"arcs":[[64],[65]]},{"type":"LineString","properties":{"source":"openstreetmap.org","kind":"train","description":"\u041c\u041c\u0416\u0414","sort_rank":275,"min_zoom":6.0,"osm_relation":true,"id":-1392674},"arcs":[66]},{"type":"MultiLineString","properties":{"source":"openstreetmap.org","kind":"train","sort_rank":275,"ref":"\u0412\u043e\u0441\u043a\u0440\u0435\u0441\u0435\u043d\u0441\u043a - \u041a\u0443\u0440\u043e\u0432\u0441\u043a\u0430\u044f","min_zoom":6.0,"osm_relation":true},"arcs":[[67],[68],[69],[70],[71],[72],[73],[74],[75],[76],[77],[78]]},{"type":"LineString","properties":{"kind":"train","name":"025\/026 \u041c\u043e\u0441\u043a\u0432\u0430 \u041a\u0430\u0437\u0430\u043d\u0441\u043a\u0430\u044f \u2014 \u0418\u0436\u0435\u0432\u0441\u043a","sort_rank":275,"source":"openstreetmap.org","min_zoom":6.0,"operator":"\u0420\u0416\u0414","ref":"025\/026","osm_relation":true},"arcs":[79]},{"type":"LineString","properties":{"kind":"train","name":"057\/058 \u041c\u043e\u0441\u043a\u0432\u0430 \u041a\u0430\u0437\u0430\u043d\u0441\u043a\u0430\u044f \u2014 \u0419\u043e\u0448\u043a\u0430\u0440-\u041e\u043b\u0430","sort_rank":275,"source":"openstreetmap.org","min_zoom":6.0,"operator":"\u0420\u0416\u0414","ref":"057\/058","osm_relation":true},"arcs":[80]},{"type":"LineString","properties":{"kind":"train","name":"111\/112 \u041c\u043e\u0441\u043a\u0432\u0430 \u041a\u0430\u0437\u0430\u043d\u0441\u043a\u0430\u044f \u2014 \u041a\u0440\u0443\u0433\u043b\u043e\u0435 \u041f\u043e\u043b\u0435","sort_rank":275,"source":"openstreetmap.org","min_zoom":6.0,"operator":"\u0420\u0416\u0414","ref":"111\/112","osm_relation":true},"arcs":[81]},{"type":"LineString","properties":{"kind":"train","name":"054\/055 \u041c\u043e\u0441\u043a\u0432\u0430 \u041a\u0430\u0437\u0430\u043d\u0441\u043a\u0430\u044f \u2014 \u0427\u0435\u0431\u043e\u043a\u0441\u0430\u0440\u044b","sort_rank":275,"source":"openstreetmap.org","min_zoom":6.0,"operator":"\u0420\u0416\u0414","ref":"054\/055","osm_relation":true},"arcs":[82]},{"type":"MultiLineString","properties":{"source":"openstreetmap.org","kind":"train","sort_rank":275,"ref":"\u041c\u043e\u0441\u043a\u0432\u0430-\u041a\u0443\u0440\u0441\u043a\u0430\u044f - \u0417\u0430\u0445\u0430\u0440\u043e\u0432\u043e","min_zoom":6.0,"osm_relation":true},"arcs":[[83],[84],[85],[86],[87],[88],[89]]},{"type":"MultiLineString","properties":{"kind":"train","network":"\u0420\u0416\u0414","sort_rank":275,"source":"openstreetmap.org","min_zoom":6.0,"ref":"029 \u041c\u043e\u0441\u043a\u0432\u0430 - \u041b\u0438\u043f\u0435\u0446\u043a","osm_relation":true,"name":"\u041f\u043e\u0435\u0437\u0434 \u2116029: \u041c\u043e\u0441\u043a\u0432\u0430 - \u041b\u0438\u043f\u0435\u0446\u043a"},"arcs":[[90],[91],[92],[93],[94],[95],[96],[97],[98],[99]]},{"type":"MultiLineString","properties":{"kind":"train","network":"\u041c\u041c\u0416\u0414","sort_rank":275,"source":"openstreetmap.org","min_zoom":6.0,"operator":"\u041c\u041c\u0416\u0414","ref":"\u041c\u041c\u0416\u0414","osm_relation":true},"arcs":[[100],[101]]},{"type":"LineString","properties":{"kind":"train","name":"5\/6 \u0422\u0430\u0448\u043a\u0435\u043d\u0442<=>\u041c\u043e\u0441\u043a\u0432\u0430","sort_rank":275,"name:de":"5\/6 Taschkent<=>Moskau","source":"openstreetmap.org","min_zoom":6.0,"network":"\u0423\u0422\u0419","ref":"5\/6","osm_relation":true,"description":"5 \u0422\u0430\u0448\u043a\u0435\u043d\u0442 -> \u041c\u043e\u0441\u043a\u0432\u0430 \/ 6 \u041c\u043e\u0441\u043a\u0432\u0430 -> \u0422\u0430\u0448\u043a\u0435\u043d\u0442"},"arcs":[102]},{"type":"LineString","properties":{"kind":"train","name":"\u041c\u043e\u0441\u043a\u0432\u0430 \u2014 \u0410\u0434\u043b\u0435\u0440","sort_rank":275,"name:de":"Moskau \u2014 Adler","source":"openstreetmap.org","min_zoom":6.0,"ref":"\u041c\u043e\u0441\u043a\u0432\u0430 - \u0410\u0434\u043b\u0435\u0440","osm_relation":true},"arcs":[103]},{"type":"MultiLineString","properties":{"source":"openstreetmap.org","kind":"train","name":"\u0420\u0435\u043b\u044c\u0441\u043e\u0432\u044b\u0439 \u0430\u0432\u0442\u043e\u0431\u0443\u0441 \u0413\u043e\u043b\u0443\u0442\u0432\u0438\u043d - \u041e\u0437\u0451\u0440\u044b","sort_rank":275,"min_zoom":6.0,"osm_relation":true},"arcs":[[104],[105],[106],[107],[108],[109],[110],[111],[112],[113]]},{"type":"MultiLineString","properties":{"source":"openstreetmap.org","kind":"train","sort_rank":275,"ref":"\u0410\u043b\u0435\u043a\u0441\u0430\u043d\u0434\u0440\u043e\u0432 - \u041a\u0443\u0440\u043e\u0432\u0441\u043a\u0430\u044f","min_zoom":6.0,"osm_relation":true},"arcs":[[114],[115],[116],[117],[118],[119]]},{"type":"LineString","properties":{"source":"openstreetmap.org","kind":"train","sort_rank":275,"ref":"\u0414\u0435\u0442\u043a\u043e\u0432\u043e - \u042f\u0433\u0430\u043d\u043e\u0432\u043e","min_zoom":6.0,"osm_relation":true},"arcs":[120]},{"type":"LineString","properties":{"kind":"train","name":"Moscow \u2014 Beijing","sort_rank":275,"name:de":"Moskau \u2014 Peking","source":"openstreetmap.org","min_zoom":6.0,"id":-2950595,"osm_relation":true},"arcs":[121]},{"type":"MultiLineString","properties":{"kind":"train","name":"\u0422\u043e\u043c\u0441\u043a \u2014 \u041c\u043e\u0441\u043a\u0432\u0430","sort_rank":275,"source":"openstreetmap.org","min_zoom":6.0,"operator":"\u0420\u043e\u0441\u0441\u0438\u0439\u0441\u043a\u0438\u0435 \u0436\u0435\u043b\u0435\u0437\u043d\u044b\u0435 \u0434\u043e\u0440\u043e\u0433\u0438","ref":"37","osm_relation":true,"network":"RU-railway"},"arcs":[[122],[123]]},{"type":"MultiLineString","properties":{"source":"openstreetmap.org","kind":"train","sort_rank":275,"ref":"\u0424\u0440\u044f\u0437\u0435\u0432\u043e \u2014 \u041c\u043e\u0441\u043a\u0432\u0430","min_zoom":6.0,"osm_relation":true},"arcs":[[124],[125]]},{"type":"LineString","properties":{"kind":"train","name":"080 \u041c\u043e\u0441\u043a\u0432\u0430 \u041a\u0430\u0437\u0430\u043d\u0441\u043a\u0430\u044f \u2014 \u0411\u0435\u0440\u0435\u0449\u0438\u043d\u043e \u2014 \u041f\u0435\u0440\u0432\u043e\u043c\u0430\u0439\u0441\u043a","sort_rank":275,"source":"openstreetmap.org","min_zoom":6.0,"operator":"\u0420\u0416\u0414","ref":"080","osm_relation":true},"arcs":[126]},{"type":"LineString","properties":{"kind":"train","name:en":"Moscow \u2014 Severobaykalsk","name":"\u041c\u043e\u0441\u043a\u0432\u0430 \u2014 \u0421\u0435\u0432\u0435\u0440\u043e\u0431\u0430\u0439\u043a\u0430\u043b\u044c\u0441\u043a","sort_rank":275,"name:de":"Moskau \u2014 Sewerobaikalsk","source":"openstreetmap.org","min_zoom":6.0,"operator":"\u0420\u043e\u0441\u0441\u0438\u0439\u0441\u043a\u0438\u0435 \u0436\u0435\u043b\u0435\u0437\u043d\u044b\u0435 \u0434\u043e\u0440\u043e\u0433\u0438","ref":"092\u0418","osm_relation":true},"arcs":[127]},{"type":"MultiLineString","properties":{"kind":"train","name":"\u041f\u043e\u0435\u0437\u0434 \u2116001\/002 \u041c\u043e\u0441\u043a\u0432\u0430 \u2014 \u0412\u043e\u043b\u0433\u043e\u0433\u0440\u0430\u0434","sort_rank":275,"source":"openstreetmap.org","min_zoom":6.0,"operator":"\u0420\u0416\u0414","ref":"001\/002","osm_relation":true},"arcs":[[128],[129]]},{"type":"MultiLineString","properties":{"source":"openstreetmap.org","kind":"train","sort_rank":275,"ref":"\u041c\u043e\u0441\u043a\u0432\u0430 \u2014 \u0424\u0440\u044f\u0437\u0435\u0432\u043e","min_zoom":6.0,"osm_relation":true},"arcs":[[130],[131]]},{"type":"MultiLineString","properties":{"kind":"train","network":"\u0420\u0416\u0414","sort_rank":275,"source":"openstreetmap.org","min_zoom":6.0,"operator":"\u0426\u0435\u043d\u0442\u0440\u0430\u043b\u044c\u043d\u0430\u044f \u043f\u0440\u0438\u0433\u043e\u0440\u043e\u0434\u043d\u0430\u044f \u043f\u0430\u0441\u0441\u0430\u0436\u0438\u0440\u0441\u043a\u0430\u044f \u043a\u043e\u043c\u043f\u0430\u043d\u0438\u044f","ref":"\u041c\u043e\u0441\u043a\u0432\u0430 \u2014 \u0420\u044f\u0437\u0430\u043d\u044c","osm_relation":true,"name":"\u041f\u043e\u0435\u0437\u0434: \u041c\u043e\u0441\u043a\u0432\u0430 \u2014 \u0420\u044f\u0437\u0430\u043d\u044c-1"},"arcs":[[132],[133]]},{"type":"LineString","properties":{"kind":"train","name":"\u041c\u043e\u0441\u043a\u0432\u0430 \u041a\u0430\u0437\u0430\u043d\u0441\u043a\u0430\u044f \u2014 \u041d\u043e\u0432\u043e\u043a\u0443\u0437\u043d\u0435\u0446\u043a","sort_rank":275,"source":"openstreetmap.org","min_zoom":6.0,"operator":"\u0420\u0416\u0414","ref":"117\u041d;118\u0415","osm_relation":true},"arcs":[134]},{"type":"MultiLineString","properties":{"source":"openstreetmap.org","kind":"train","network":"\u0420\u0416\u0414","sort_rank":275,"ref":"355\/356 \u041c\u043e\u0441\u043a\u0432\u0430 \u2014 \u0423\u0444\u0430","min_zoom":6.0,"osm_relation":true},"arcs":[[135],[136]]},{"type":"LineString","properties":{"kind":"train","name":"080 \u041c\u043e\u0441\u043a\u0432\u0430 \u041a\u0430\u0437\u0430\u043d\u0441\u043a\u0430\u044f \u2014 \u0411\u0435\u0440\u0435\u0449\u0438\u043d\u043e \u2014 \u0421\u0430\u0440\u043e\u0432","sort_rank":275,"source":"openstreetmap.org","min_zoom":6.0,"operator":"\u0420\u0416\u0414","ref":"080","osm_relation":true},"arcs":[137]},{"type":"MultiLineString","properties":{"source":"openstreetmap.org","kind":"train","name":"\u0420\u0435\u043b\u044c\u0441\u043e\u0432\u044b\u0439 \u0430\u0432\u0442\u043e\u0431\u0443\u0441 \u041e\u0437\u0451\u0440\u044b - \u0413\u043e\u043b\u0443\u0442\u0432\u0438\u043d","sort_rank":275,"min_zoom":6.0,"osm_relation":true},"arcs":[[138],[139],[140],[141],[142],[143],[144],[145],[146],[147]]},{"type":"LineString","properties":{"kind":"train","name":"\u041f\u043e\u0435\u0437\u0434 \u2116 076: \u041c\u043e\u0441\u043a\u0432\u0430 \u041a\u0430\u0437\u0430\u043d\u0441\u043a\u0430\u044f \u2014 \u041d\u0435\u0440\u044e\u043d\u0433\u0440\u0438","sort_rank":275,"source":"openstreetmap.org","min_zoom":6.0,"operator":"\u0420\u0416\u0414","ref":"076","osm_relation":true},"arcs":[148]},{"type":"MultiLineString","properties":{"kind":"train","name":"\u0416\u0438\u043b\u0451\u0432\u043e \u2014 \u041a\u0443\u0440\u043e\u0432\u0441\u043a\u0430\u044f","sort_rank":275,"source":"openstreetmap.org","min_zoom":6.0,"ref":"\u0416\u0438\u043b\u0451\u0432\u043e - \u041a\u0443\u0440\u043e\u0432\u0441\u043a\u0430\u044f","osm_relation":true,"network":"\u041c\u043e\u0441\u043a\u043e\u0432\u0441\u043a\u0430\u044f \u043e\u0431\u043b\u0430\u0441\u0442\u044c"},"arcs":[[149],[150],[151],[152],[153],[154],[155],[156],[157],[158],[159],[160],[161],[162],[163],[164],[165],[166],[167]]}]},"pois":{"type":"GeometryCollection","geometries":[]},"boundaries":{"type":"GeometryCollection","geometries":[{"type":"LineString","properties":{"kind":"region","name:en":"Vladimir Oblast","name":"\u0412\u043b\u0430\u0434\u0438\u043c\u0438\u0440\u0441\u043a\u0430\u044f \u043e\u0431\u043b\u0430\u0441\u0442\u044c","name:lt":"Vladimiro sritis","sort_rank":256,"kind_detail":"4","name:cs":"Vladimirsk\u00e1 oblast","source":"openstreetmap.org","min_zoom":8.0,"name:ca":"Prov\u00edncia de Vlad\u00edmir","name:pl":"Obw\u00f3d w\u0142odzimierski","id":-72197,"osm_relation":true},"arcs":[0]}]},"roads":{"type":"GeometryCollection","geometries":[{"type":"LineString","properties":{"bus_network":null,"sort_rank":380,"kind_detail":"primary","kind":"major_road","source":"openstreetmap.org","min_zoom":8.0,"bus_shield_text":"43","ref":"P106"},"arcs":[168]},{"type":"LineString","properties":{"bus_network":null,"name:en":"Donskaya Street","network":"ru:national","sort_rank":381,"landuse_kind":"residential","kind":"major_road","source":"openstreetmap.org","min_zoom":8.0,"bus_shield_text":"22*","shield_text":"108","kind_detail":"trunk","ref":"\u0410-108"},"arcs":[169]},{"type":"LineString","properties":{"bus_network":null,"sort_rank":380,"kind_detail":"primary","kind":"major_road","source":"openstreetmap.org","min_zoom":8.0,"bus_shield_text":"44","ref":"P106"},"arcs":[170]},{"type":"LineString","properties":{"kind":"major_road","network":"ru:regional","sort_rank":380,"kind_detail":"primary","bus_network":"\u041b\u044b\u0442\u043a\u0430\u0440\u0438\u043d\u043e","source":"openstreetmap.org","min_zoom":8.0,"bus_shield_text":"85","shield_text":"46\u041a","ref":"46\u041a-5032","id":156933485},"arcs":[171]},{"type":"MultiLineString","properties":{"source":"openstreetmap.org","bus_network":"local","bus_shield_text":"21","sort_rank":380,"kind_detail":"primary","min_zoom":8.0,"kind":"major_road"},"arcs":[[172],[173],[174]]},{"type":"LineString","properties":{"kind":"major_road","network":"ru:regional","sort_rank":380,"kind_detail":"primary","bus_network":null,"source":"openstreetmap.org","min_zoom":8.0,"bus_shield_text":"22*","shield_text":"46\u041a","landuse_kind":"residential","ref":"46\u041a-4160","id":265453656},"arcs":[175]},{"type":"MultiLineString","properties":{"bus_network":"\u0411\u0440\u043e\u043d\u043d\u0438\u0446\u044b","network":"ru:national","sort_rank":381,"kind_detail":"trunk","kind":"major_road","source":"openstreetmap.org","min_zoom":8.0,"bus_shield_text":"63","shield_text":"107","ref":"\u0410-107"},"arcs":[[176],[177],[178]]},{"type":"LineString","properties":{"bus_network":null,"network":null,"sort_rank":380,"kind_detail":"primary","kind":"major_road","source":"openstreetmap.org","min_zoom":8.0,"bus_shield_text":"42","shield_text":"105","landuse_kind":"urban_area","ref":"\u0420105"},"arcs":[179]},{"type":"MultiLineString","properties":{"bus_network":null,"network":null,"sort_rank":380,"kind_detail":"primary","kind":"major_road","source":"openstreetmap.org","min_zoom":8.0,"bus_shield_text":"34","shield_text":"105","ref":"P105"},"arcs":[[180],[181],[182],[183]]},{"type":"LineString","properties":{"kind":"major_road","network":"ru:national","sort_rank":381,"kind_detail":"trunk","source":"openstreetmap.org","min_zoom":8.0,"landuse_kind":"residential","shield_text":"108","ref":"\u0410-108","id":140164209},"arcs":[184]},{"type":"MultiLineString","properties":{"bus_network":null,"name:en":"Str. Tupoleva","network":"ru:regional","sort_rank":380,"kind_detail":"primary","kind":"major_road","source":"openstreetmap.org","min_zoom":8.0,"bus_shield_text":"1","shield_text":"46\u041d","landuse_kind":"urban_area","ref":"46\u041d-02468"},"arcs":[[185],[186],[187]]},{"type":"LineString","properties":{"kind":"ferry","name":"\u0422\u0435\u043f\u043b\u043e\u0445\u043e\u0434 \u041f\u0440\u0438\u0442\u044b\u043a\u0430 - \u0411\u0430\u0447\u043c\u0430\u043d\u043e\u0432\u043e","sort_rank":355,"landuse_kind":"urban_area","source":"openstreetmap.org","min_zoom":8.0,"ref":"\u0411\u0430\u0447\u043c\u0430\u043d\u043e\u0432\u043e - \u041f\u0440\u0438\u0442\u044b\u043a\u0430","id":-3840269,"osm_relation":true},"arcs":[188]},{"type":"LineString","properties":{"kind":"major_road","name:en":"highway Tupolevskoe","network":"ru:regional","sort_rank":380,"kind_detail":"primary","bus_network":null,"source":"openstreetmap.org","min_zoom":8.0,"bus_shield_text":"424","shield_text":"46\u041a","landuse_kind":"urban_area","ref":"46\u041a-5480","id":232798655},"arcs":[189]},{"type":"MultiLineString","properties":{"bus_network":null,"network":"ru:regional","sort_rank":380,"kind_detail":"primary","kind":"major_road","source":"openstreetmap.org","min_zoom":8.0,"bus_shield_text":"28","shield_text":"46\u041a","ref":"46\u041a-5112"},"arcs":[[190],[191],[192]]},{"type":"MultiLineString","properties":{"source":"openstreetmap.org","bus_network":null,"bus_shield_text":"1","sort_rank":380,"kind_detail":"primary","min_zoom":8.0,"kind":"major_road"},"arcs":[[193],[194],[195]]},{"type":"MultiLineString","properties":{"bus_network":null,"network":"ru:national","sort_rank":381,"kind_detail":"trunk","kind":"major_road","source":"openstreetmap.org","min_zoom":8.0,"bus_shield_text":"960","shield_text":"5","ref":"\u041c-5"},"arcs":[[196],[197],[198],[199],[200],[201]]},{"type":"LineString","properties":{"bus_network":null,"network":null,"sort_rank":380,"kind_detail":"primary","kind":"major_road","source":"openstreetmap.org","min_zoom":8.0,"bus_shield_text":"950","shield_text":"105","ref":"\u0420105"},"arcs":[202]},{"type":"MultiLineString","properties":{"bus_network":null,"network":"ru:regional","sort_rank":380,"kind_detail":"primary","kind":"major_road","source":"openstreetmap.org","min_zoom":8.0,"bus_shield_text":"21","shield_text":"46\u041a","ref":"46\u041a-5111"},"arcs":[[203],[204]]},{"type":"LineString","properties":{"kind":"major_road","network":"ru:regional","sort_rank":380,"kind_detail":"primary","bus_network":null,"source":"openstreetmap.org","min_zoom":8.0,"bus_shield_text":"30","shield_text":"46\u041a","ref":"46\u041a-5111","id":238713372},"arcs":[205]},{"type":"MultiLineString","properties":{"sort_rank":380,"kind_detail":"primary","min_zoom":8.0,"kind":"major_road","source":"openstreetmap.org"},"arcs":[[206],[207],[208]]},{"type":"MultiLineString","properties":{"bus_network":null,"network":"ru:national","sort_rank":381,"kind_detail":"trunk","kind":"major_road","source":"openstreetmap.org","min_zoom":8.0,"bus_shield_text":"30","shield_text":"5","ref":"\u041c-5"},"arcs":[[209],[210]]},{"type":"LineString","properties":{"kind":"major_road","network":"ru:regional","sort_rank":380,"kind_detail":"primary","bus_network":null,"source":"openstreetmap.org","min_zoom":8.0,"bus_shield_text":"21","shield_text":"46\u041a","landuse_kind":"urban_area","ref":"46\u041a-5111","id":524982855},"arcs":[211]},{"type":"LineString","properties":{"bus_network":null,"network":"ru:national","sort_rank":381,"kind_detail":"trunk","kind":"major_road","source":"openstreetmap.org","min_zoom":8.0,"bus_shield_text":"21","shield_text":"5","ref":"\u041c-5"},"arcs":[212]},{"type":"MultiLineString","properties":{"kind":"major_road","network":"ru:national","sort_rank":381,"kind_detail":"trunk","source":"openstreetmap.org","min_zoom":8.0,"shield_text":"107","ref":"\u0410-107"},"arcs":[[213],[214],[215]]},{"type":"LineString","properties":{"kind":"major_road","network":"ru:regional","sort_rank":380,"kind_detail":"primary","bus_network":"\u0420\u0430\u043c\u0435\u043d\u0441\u043a\u043e\u0435","source":"openstreetmap.org","min_zoom":8.0,"bus_shield_text":"2","shield_text":"46\u041a","ref":"46\u041a-5300"},"arcs":[216]},{"type":"MultiLineString","properties":{"bus_network":null,"network":"ru:regional","sort_rank":380,"kind_detail":"primary","old_name":"\u0422\u0443\u043c\u0435\u043d\u0441\u043a\u043e\u0435 \u0448\u043e\u0441\u0441\u0435","kind":"major_road","source":"openstreetmap.org","min_zoom":8.0,"bus_shield_text":"22","shield_text":"46\u041a","ref":"46\u041a-5091"},"arcs":[[217],[218]]},{"type":"LineString","properties":{"source":"openstreetmap.org","bus_network":null,"bus_shield_text":"39","sort_rank":380,"kind_detail":"primary","min_zoom":8.0,"kind":"major_road"},"arcs":[219]},{"type":"LineString","properties":{"bus_network":null,"network":"ru:regional","sort_rank":380,"kind_detail":"primary","kind":"major_road","source":"openstreetmap.org","min_zoom":8.0,"bus_shield_text":"1","shield_text":"46\u041a","landuse_kind":"urban_area","ref":"46\u041a-5480"},"arcs":[220]},{"type":"MultiLineString","properties":{"bus_network":"\u0411\u0440\u043e\u043d\u043d\u0438\u0446\u044b","network":"ru:national","sort_rank":381,"kind_detail":"trunk","kind":"major_road","source":"openstreetmap.org","min_zoom":8.0,"bus_shield_text":"63","shield_text":"5","ref":"\u0410-107"},"arcs":[[221],[222],[223]]},{"type":"LineString","properties":{"kind":"major_road","network":"ru:regional","sort_rank":380,"kind_detail":"primary","source":"openstreetmap.org","min_zoom":8.0,"shield_text":"46\u041d","ref":"46\u041d-04253"},"arcs":[224]},{"type":"LineString","properties":{"bus_network":null,"network":"ru:national","sort_rank":381,"kind_detail":"trunk","kind":"major_road","source":"openstreetmap.org","min_zoom":8.0,"bus_shield_text":"403","shield_text":"108","ref":"\u0410-108"},"arcs":[225]},{"type":"LineString","properties":{"bus_network":null,"network":"ru:regional","sort_rank":380,"kind_detail":"primary","kind":"major_road","source":"openstreetmap.org","min_zoom":8.0,"bus_shield_text":"23","shield_text":"46\u041a","landuse_kind":"urban_area","ref":"46\u041a-5032"},"arcs":[226]},{"type":"LineString","properties":{"bus_network":null,"network":"ru:regional","sort_rank":380,"kind_detail":"primary","kind":"major_road","source":"openstreetmap.org","min_zoom":8.0,"bus_shield_text":"36","shield_text":"46\u041a","landuse_kind":"urban_area","ref":"46\u041a-5003"},"arcs":[227]},{"type":"LineString","properties":{"bus_network":null,"network":"ru:national","sort_rank":381,"landuse_kind":"urban_area","kind":"major_road","source":"openstreetmap.org","min_zoom":8.0,"bus_shield_text":"38","shield_text":"107","kind_detail":"trunk","ref":"\u0410-107"},"arcs":[228]},{"type":"MultiLineString","properties":{"kind":"major_road","network":"ru:regional","sort_rank":380,"kind_detail":"primary","source":"openstreetmap.org","min_zoom":8.0,"landuse_kind":"urban_area","shield_text":"46\u041a","ref":"46\u041a-5001"},"arcs":[[229],[230]]},{"type":"LineString","properties":{"kind":"major_road","sort_rank":380,"kind_detail":"primary","bus_network":null,"source":"openstreetmap.org","min_zoom":8.0,"bus_shield_text":"21","ref":"46\u041a-5111","id":524982865},"arcs":[231]},{"type":"LineString","properties":{"kind":"major_road","name:en":"Donskaya Street","network":"ru:national","sort_rank":381,"kind_detail":"trunk","bus_network":null,"source":"openstreetmap.org","min_zoom":8.0,"bus_shield_text":"403","shield_text":"108","landuse_kind":"residential","ref":"\u0410-108","id":99255408},"arcs":[232]},{"type":"MultiLineString","properties":{"bus_network":null,"network":"ru:national","sort_rank":381,"kind_detail":"trunk","kind":"major_road","source":"openstreetmap.org","min_zoom":8.0,"bus_shield_text":"28","shield_text":"5","ref":"\u041c-5"},"arcs":[[233],[234]]},{"type":"LineString","properties":{"bus_network":null,"name:en":"highway Tupolevskoe","network":"ru:regional","sort_rank":380,"kind_detail":"primary","kind":"major_road","source":"openstreetmap.org","min_zoom":8.0,"bus_shield_text":"424","shield_text":"46\u041d","landuse_kind":"urban_area","ref":"46\u041d-02468"},"arcs":[235]},{"type":"LineString","properties":{"kind":"major_road","network":"ru:regional","sort_rank":380,"kind_detail":"primary","bus_network":null,"source":"openstreetmap.org","min_zoom":8.0,"bus_shield_text":"24","shield_text":"46\u041a","ref":"46\u041a-5340","id":239629969},"arcs":[236]},{"type":"LineString","properties":{"kind":"major_road","network":"ru:regional","sort_rank":380,"kind_detail":"primary","old_name":"\u0422\u0443\u043c\u0435\u043d\u0441\u043a\u043e\u0435 \u0448\u043e\u0441\u0441\u0435","bus_network":null,"source":"openstreetmap.org","min_zoom":8.0,"bus_shield_text":"22","shield_text":"46\u041a","ref":"\u0420115","id":204371111},"arcs":[237]},{"type":"LineString","properties":{"bus_network":null,"network":"ru:regional","sort_rank":381,"kind_detail":"trunk","kind":"major_road","source":"openstreetmap.org","min_zoom":8.0,"bus_shield_text":"41","shield_text":"46\u041d","ref":"46\u041d-09240"},"arcs":[238]},{"type":"MultiLineString","properties":{"bus_network":null,"network":"ru:regional","sort_rank":380,"landuse_kind":"protected_area","kind":"major_road","source":"openstreetmap.org","min_zoom":8.0,"bus_shield_text":"28","shield_text":"46\u041a","kind_detail":"primary","ref":"46\u041a-5112"},"arcs":[[239],[240]]},{"type":"LineString","properties":{"kind":"major_road","name:en":"Str. Tupoleva","network":"ru:regional","sort_rank":380,"kind_detail":"primary","source":"openstreetmap.org","min_zoom":8.0,"landuse_kind":"urban_area","shield_text":"46\u041d","ref":"46\u041d-02468","id":252203312},"arcs":[241]},{"type":"LineString","properties":{"bus_network":null,"network":"ru:regional","sort_rank":380,"kind_detail":"primary","kind":"major_road","source":"openstreetmap.org","min_zoom":8.0,"bus_shield_text":"35*","shield_text":"46\u041a","landuse_kind":"urban_area","ref":"46\u041a-5001"},"arcs":[242]},{"type":"LineString","properties":{"bus_network":null,"network":"ru:regional","sort_rank":380,"kind_detail":"primary","kind":"major_road","source":"openstreetmap.org","min_zoom":8.0,"bus_shield_text":"43","shield_text":"46\u041a","ref":"46\u041a-5002"},"arcs":[243]},{"type":"LineString","properties":{"kind":"major_road","network":"ru:national","sort_rank":381,"kind_detail":"trunk","bus_network":"\u041b\u044b\u0442\u043a\u0430\u0440\u0438\u043d\u043e","source":"openstreetmap.org","min_zoom":8.0,"bus_shield_text":"85","shield_text":"5","ref":"\u041c-5","id":156933490},"arcs":[244]},{"type":"LineString","properties":{"bus_network":"\u0411\u0440\u043e\u043d\u043d\u0438\u0446\u044b","network":"ru:national","sort_rank":381,"landuse_kind":"urban_area","kind":"major_road","source":"openstreetmap.org","min_zoom":8.0,"bus_shield_text":"63","shield_text":"5","kind_detail":"trunk","ref":"\u0410-107"},"arcs":[245]},{"type":"LineString","properties":{"source":"openstreetmap.org","bus_network":null,"bus_shield_text":"4","sort_rank":380,"kind_detail":"primary","min_zoom":8.0,"kind":"major_road"},"arcs":[246]},{"type":"LineString","properties":{"bus_network":null,"sort_rank":380,"kind_detail":"primary","old_name":"\u0422\u0443\u043c\u0435\u043d\u0441\u043a\u043e\u0435 \u0448\u043e\u0441\u0441\u0435","kind":"major_road","source":"openstreetmap.org","min_zoom":8.0,"bus_shield_text":"19","landuse_kind":"urban_area"},"arcs":[247]},{"type":"LineString","properties":{"kind":"major_road","sort_rank":380,"kind_detail":"primary","bus_network":null,"source":"openstreetmap.org","min_zoom":8.0,"bus_shield_text":"14","landuse_kind":"urban_area","id":281281346},"arcs":[248]},{"type":"MultiLineString","properties":{"bus_network":"\u041b\u044b\u0442\u043a\u0430\u0440\u0438\u043d\u043e","network":"ru:national","sort_rank":381,"landuse_kind":"urban_area","kind":"major_road","source":"openstreetmap.org","min_zoom":8.0,"bus_shield_text":"22","shield_text":"5","kind_detail":"trunk","ref":"\u041c-5"},"arcs":[[249],[250]]},{"type":"LineString","properties":{"kind":"major_road","sort_rank":380,"kind_detail":"primary","bus_network":null,"source":"openstreetmap.org","min_zoom":8.0,"bus_shield_text":"9","id":29095989},"arcs":[251]},{"type":"LineString","properties":{"bus_network":"local","network":"ru:national","sort_rank":381,"landuse_kind":"urban_area","kind":"major_road","source":"openstreetmap.org","min_zoom":8.0,"bus_shield_text":"21","shield_text":"107","kind_detail":"trunk","ref":"\u0410-107"},"arcs":[252]},{"type":"MultiLineString","properties":{"bus_network":null,"sort_rank":380,"kind_detail":"primary","kind":"major_road","source":"openstreetmap.org","min_zoom":8.0,"bus_shield_text":"8\u041a","landuse_kind":"urban_area"},"arcs":[[253],[254]]},{"type":"LineString","properties":{"kind":"ferry","name":"\u0422\u0435\u043f\u043b\u043e\u0445\u043e\u0434 \u041f\u0440\u0438\u0442\u044b\u043a\u0430 - \u0411\u0430\u0447\u043c\u0430\u043d\u043e\u0432\u043e","sort_rank":355,"source":"openstreetmap.org","min_zoom":8.0,"ref":"\u0411\u0430\u0447\u043c\u0430\u043d\u043e\u0432\u043e - \u041f\u0440\u0438\u0442\u044b\u043a\u0430","id":-3840269,"osm_relation":true},"arcs":[255]},{"type":"MultiLineString","properties":{"bus_network":"local","network":"ru:national","sort_rank":381,"kind_detail":"trunk","kind":"major_road","source":"openstreetmap.org","min_zoom":8.0,"bus_shield_text":"21","shield_text":"107","ref":"\u0410-107"},"arcs":[[256],[257]]},{"type":"MultiLineString","properties":{"kind":"major_road","network":"ru:regional","sort_rank":380,"kind_detail":"primary","source":"openstreetmap.org","min_zoom":8.0,"landuse_kind":"urban_area","shield_text":"46\u041d","ref":"46\u041d-09312"},"arcs":[[258],[259]]},{"type":"MultiLineString","properties":{"bus_network":null,"name:en":"Str. Tupoleva","network":"ru:regional","sort_rank":380,"kind_detail":"primary","kind":"major_road","source":"openstreetmap.org","min_zoom":8.0,"bus_shield_text":"34","shield_text":"46\u041d","landuse_kind":"urban_area","ref":"46\u041d-02468"},"arcs":[[260],[261],[262],[263],[264]]},{"type":"LineString","properties":{"kind":"major_road","sort_rank":380,"kind_detail":"primary","bus_network":null,"source":"openstreetmap.org","min_zoom":8.0,"bus_shield_text":"33*","id":413027946},"arcs":[265]},{"type":"MultiLineString","properties":{"kind":"major_road","network":"ru:regional","sort_rank":380,"kind_detail":"primary","source":"openstreetmap.org","min_zoom":8.0,"shield_text":"46\u041a","ref":"46\u041a-5480"},"arcs":[[266],[267],[268]]},{"type":"LineString","properties":{"bus_network":null,"network":"ru:regional","sort_rank":381,"kind_detail":"trunk","kind":"major_road","source":"openstreetmap.org","min_zoom":8.0,"bus_shield_text":"36","shield_text":"46\u041a","ref":"46\u041a-5003"},"arcs":[269]},{"type":"LineString","properties":{"bus_network":null,"network":"ru:regional","sort_rank":380,"kind_detail":"primary","kind":"major_road","source":"openstreetmap.org","min_zoom":8.0,"bus_shield_text":"22*","shield_text":"46\u041a","ref":"46\u041a-4160"},"arcs":[270]},{"type":"LineString","properties":{"bus_network":null,"network":null,"sort_rank":380,"kind_detail":"primary","kind":"major_road","source":"openstreetmap.org","min_zoom":8.0,"bus_shield_text":"37","shield_text":"105","ref":"\u0420105"},"arcs":[271]},{"type":"LineString","properties":{"bus_network":null,"network":"ru:national","sort_rank":381,"kind_detail":"trunk","kind":"major_road","source":"openstreetmap.org","min_zoom":8.0,"bus_shield_text":"53","shield_text":"107","ref":"\u0410-107"},"arcs":[272]},{"type":"LineString","properties":{"kind":"major_road","network":"ru:regional","sort_rank":380,"kind_detail":"primary","bus_network":"\u0420\u0430\u043c\u0435\u043d\u0441\u043a\u043e\u0435","source":"openstreetmap.org","min_zoom":8.0,"bus_shield_text":"25","shield_text":"46\u041a","landuse_kind":"urban_area","ref":"46\u041a-5300","id":225123321},"arcs":[273]},{"type":"LineString","properties":{"bus_network":null,"network":"ru:national","sort_rank":381,"kind_detail":"trunk","kind":"major_road","source":"openstreetmap.org","min_zoom":8.0,"bus_shield_text":"27","shield_text":"107","ref":"\u0410-107"},"arcs":[274]},{"type":"MultiLineString","properties":{"kind":"major_road","network":"ru:regional","sort_rank":380,"kind_detail":"primary","source":"openstreetmap.org","min_zoom":8.0,"shield_text":"46\u041d","ref":"46\u041d-09325"},"arcs":[[275],[276],[277]]},{"type":"LineString","properties":{"bus_network":null,"network":"ru:regional","sort_rank":380,"kind_detail":"primary","kind":"major_road","source":"openstreetmap.org","min_zoom":8.0,"bus_shield_text":"23","shield_text":"46\u041a","ref":"46\u041a-5032"},"arcs":[278]},{"type":"LineString","properties":{"bus_network":"\u0412\u043e\u0441\u043a\u0440\u0435\u0441\u0435\u043d\u0441\u043a","network":"ru:national","sort_rank":381,"kind_detail":"trunk","kind":"major_road","source":"openstreetmap.org","min_zoom":8.0,"bus_shield_text":"358","shield_text":"108","ref":"\u0410-108"},"arcs":[279]},{"type":"LineString","properties":{"bus_network":null,"network":null,"sort_rank":380,"kind_detail":"primary","kind":"major_road","source":"openstreetmap.org","min_zoom":8.0,"bus_shield_text":"24","shield_text":"105","ref":"\u0420105"},"arcs":[280]},{"type":"LineString","properties":{"kind":"major_road","name:en":"highway Tupolevskoe","network":"ru:regional","sort_rank":380,"kind_detail":"primary","source":"openstreetmap.org","min_zoom":8.0,"landuse_kind":"urban_area","shield_text":"46\u041d","ref":"46\u041d-02468","id":195155611},"arcs":[281]},{"type":"MultiLineString","properties":{"kind":"major_road","network":"ru:national","sort_rank":381,"kind_detail":"trunk","source":"openstreetmap.org","min_zoom":8.0,"shield_text":"5","ref":"\u041c-5"},"arcs":[[282],[283],[284],[285],[286],[287],[288],[289],[290],[291]]},{"type":"LineString","properties":{"kind":"major_road","network":"ru:regional","sort_rank":380,"kind_detail":"primary","bus_network":null,"source":"openstreetmap.org","min_zoom":8.0,"bus_shield_text":"25","shield_text":"46\u041a","ref":"46\u041a-5300","id":225276919},"arcs":[292]},{"type":"LineString","properties":{"bus_network":null,"network":"ru:regional","sort_rank":380,"kind_detail":"primary","kind":"major_road","source":"openstreetmap.org","min_zoom":8.0,"bus_shield_text":"38","shield_text":"46\u041a","ref":"46\u041a-5300"},"arcs":[293]},{"type":"LineString","properties":{"bus_network":null,"network":"ru:regional","sort_rank":380,"kind_detail":"primary","kind":"major_road","source":"openstreetmap.org","min_zoom":8.0,"bus_shield_text":"40","shield_text":"46\u041a","landuse_kind":"urban_area","ref":"46\u041a-5001"},"arcs":[294]},{"type":"LineString","properties":{"kind":"major_road","network":"ru:regional","sort_rank":380,"kind_detail":"primary","bus_network":null,"source":"openstreetmap.org","min_zoom":8.0,"bus_shield_text":"80","shield_text":"46\u041a","ref":"46\u041a-5111","id":276428380},"arcs":[295]},{"type":"MultiLineString","properties":{"kind":"major_road","network":"ru:regional","sort_rank":380,"kind_detail":"primary","bus_network":"\u0420\u0430\u043c\u0435\u043d\u0441\u043a\u043e\u0435","source":"openstreetmap.org","min_zoom":8.0,"bus_shield_text":"2","shield_text":"46\u041a","landuse_kind":"urban_area","ref":"46\u041a-5300"},"arcs":[[296],[297]]},{"type":"LineString","properties":{"kind":"major_road","network":"ru:regional","sort_rank":380,"kind_detail":"primary","source":"openstreetmap.org","min_zoom":8.0,"shield_text":"46\u041d","ref":"46\u041d-09313","id":31875339},"arcs":[298]},{"type":"LineString","properties":{"kind":"major_road","sort_rank":380,"kind_detail":"primary","bus_network":null,"source":"openstreetmap.org","min_zoom":8.0,"bus_shield_text":"950","ref":"\u0420105","id":533163319},"arcs":[299]},{"type":"LineString","properties":{"kind":"major_road","network":"ru:regional","sort_rank":380,"kind_detail":"primary","bus_network":"\u041c\u043e\u0441\u043a\u0432\u0430","source":"openstreetmap.org","min_zoom":8.0,"bus_shield_text":"351","shield_text":"46\u041a","ref":"46\u041a-5480","id":167467426},"arcs":[300]},{"type":"LineString","properties":{"bus_network":null,"network":"ru:regional","sort_rank":380,"kind_detail":"primary","kind":"major_road","source":"openstreetmap.org","min_zoom":8.0,"bus_shield_text":"441","shield_text":"46\u041a","ref":"46\u041a-5032"},"arcs":[301]},{"type":"MultiLineString","properties":{"bus_network":null,"network":null,"sort_rank":380,"kind_detail":"primary","kind":"major_road","source":"openstreetmap.org","min_zoom":8.0,"bus_shield_text":"238","shield_text":"105","ref":"\u0420105"},"arcs":[[302],[303],[304],[305]]},{"type":"LineString","properties":{"kind":"major_road","network":"ru:regional","sort_rank":380,"kind_detail":"primary","bus_network":null,"source":"openstreetmap.org","min_zoom":8.0,"bus_shield_text":"34","shield_text":"46\u041d","ref":"46\u041d-09313","id":169414885},"arcs":[306]},{"type":"MultiLineString","properties":{"kind":"major_road","network":"ru:national","sort_rank":381,"kind_detail":"trunk","source":"openstreetmap.org","min_zoom":8.0,"shield_text":"108","ref":"\u0410-108"},"arcs":[[307],[308],[309],[310],[311],[312],[313]]},{"type":"MultiLineString","properties":{"source":"openstreetmap.org","bus_network":null,"bus_shield_text":"34","sort_rank":380,"kind_detail":"primary","min_zoom":8.0,"kind":"major_road"},"arcs":[[314],[315],[316]]},{"type":"MultiLineString","properties":{"bus_network":"\u041c\u043e\u0441\u043a\u0432\u0430","network":"ru:national","sort_rank":381,"kind_detail":"trunk","kind":"major_road","source":"openstreetmap.org","min_zoom":8.0,"bus_shield_text":"351","shield_text":"5","ref":"\u041c-5"},"arcs":[[317],[318],[319]]},{"type":"LineString","properties":{"bus_network":null,"sort_rank":380,"kind_detail":"primary","kind":"major_road","source":"openstreetmap.org","min_zoom":8.0,"bus_shield_text":"22*","landuse_kind":"residential"},"arcs":[320]},{"type":"LineString","properties":{"bus_network":null,"sort_rank":380,"kind_detail":"primary","kind":"major_road","source":"openstreetmap.org","min_zoom":8.0,"bus_shield_text":"376","ref":"P106"},"arcs":[321]},{"type":"LineString","properties":{"bus_network":null,"network":"ru:regional","sort_rank":380,"kind_detail":"primary","kind":"major_road","source":"openstreetmap.org","min_zoom":8.0,"bus_shield_text":"40","shield_text":"46\u041a","landuse_kind":"urban_area","ref":"46\u041a-5002"},"arcs":[322]},{"type":"LineString","properties":{"kind":"major_road","network":"ru:regional","sort_rank":380,"kind_detail":"primary","bus_network":null,"source":"openstreetmap.org","min_zoom":8.0,"bus_shield_text":"950","shield_text":"46\u041a","ref":"46\u041a-5002","id":240364728},"arcs":[323]},{"type":"MultiLineString","properties":{"kind":"major_road","network":"ru:regional","sort_rank":380,"kind_detail":"primary","bus_network":"\u0420\u0430\u043c\u0435\u043d\u0441\u043a\u043e\u0435","source":"openstreetmap.org","min_zoom":8.0,"bus_shield_text":"2","shield_text":"46\u041d","landuse_kind":"urban_area","ref":"46\u041d-09312"},"arcs":[[324],[325]]},{"type":"LineString","properties":{"kind":"major_road","name:en":"Donskaya Street","network":"ru:national","sort_rank":381,"kind_detail":"trunk","source":"openstreetmap.org","min_zoom":8.0,"landuse_kind":"residential","shield_text":"108","ref":"\u0410-108","id":144977530},"arcs":[326]},{"type":"LineString","properties":{"source":"openstreetmap.org","bus_network":null,"bus_shield_text":"21","sort_rank":380,"kind_detail":"primary","min_zoom":8.0,"kind":"major_road"},"arcs":[327]},{"type":"MultiLineString","properties":{"bus_network":null,"network":"ru:national","sort_rank":381,"kind_detail":"trunk","kind":"major_road","source":"openstreetmap.org","min_zoom":8.0,"bus_shield_text":"31","shield_text":"5","ref":"\u041c-5"},"arcs":[[328],[329],[330]]},{"type":"MultiLineString","properties":{"bus_network":null,"sort_rank":380,"kind_detail":"primary","kind":"major_road","source":"openstreetmap.org","min_zoom":8.0,"bus_shield_text":"9","landuse_kind":"urban_area"},"arcs":[[331],[332],[333]]},{"type":"MultiLineString","properties":{"bus_network":null,"network":null,"sort_rank":380,"kind_detail":"primary","kind":"major_road","source":"openstreetmap.org","min_zoom":8.0,"bus_shield_text":"42","shield_text":"105","ref":"\u0420105"},"arcs":[[334],[335],[336],[337]]},{"type":"LineString","properties":{"bus_network":null,"sort_rank":380,"kind_detail":"primary","kind":"major_road","source":"openstreetmap.org","min_zoom":8.0,"bus_shield_text":"12","landuse_kind":"urban_area"},"arcs":[338]},{"type":"MultiLineString","properties":{"bus_network":"\u0412\u043e\u0441\u043a\u0440\u0435\u0441\u0435\u043d\u0441\u043a","network":"ru:national","sort_rank":381,"kind_detail":"trunk","kind":"major_road","source":"openstreetmap.org","min_zoom":8.0,"bus_shield_text":"358","shield_text":"5","ref":"\u041c-5"},"arcs":[[339],[340],[341],[342],[343]]},{"type":"LineString","properties":{"bus_network":null,"network":"ru:national","sort_rank":381,"landuse_kind":"urban_area","kind":"major_road","source":"openstreetmap.org","min_zoom":8.0,"bus_shield_text":"42","shield_text":"107","kind_detail":"trunk","ref":"\u0410-107"},"arcs":[344]},{"type":"MultiLineString","properties":{"kind":"major_road","network":"ru:national","sort_rank":381,"landuse_kind":"urban_area","source":"openstreetmap.org","min_zoom":8.0,"kind_detail":"trunk","shield_text":"108","ref":"\u0410-108"},"arcs":[[345],[346],[347],[348]]},{"type":"LineString","properties":{"kind":"major_road","name:en":"Kooperativnaya Street","sort_rank":380,"kind_detail":"primary","bus_network":null,"source":"openstreetmap.org","min_zoom":8.0,"bus_shield_text":"22*","landuse_kind":"residential","id":144976704},"arcs":[349]},{"type":"LineString","properties":{"bus_network":null,"network":"ru:regional","sort_rank":380,"kind_detail":"primary","kind":"major_road","source":"openstreetmap.org","min_zoom":8.0,"bus_shield_text":"43","shield_text":"46\u041a","landuse_kind":"urban_area","ref":"46\u041a-5002"},"arcs":[350]},{"type":"LineString","properties":{"bus_network":"\u0412\u043e\u0441\u043a\u0440\u0435\u0441\u0435\u043d\u0441\u043a","network":"ru:national","sort_rank":381,"kind_detail":"trunk","kind":"major_road","source":"openstreetmap.org","min_zoom":8.0,"bus_shield_text":"21","shield_text":"108","ref":"\u0410-108"},"arcs":[351]},{"type":"LineString","properties":{"kind":"major_road","network":"ru:regional","sort_rank":380,"kind_detail":"primary","source":"openstreetmap.org","min_zoom":8.0,"landuse_kind":"urban_area","shield_text":"46\u041d","ref":"46\u041d-09325","id":198614001},"arcs":[352]},{"type":"LineString","properties":{"kind":"major_road","network":"ru:regional","sort_rank":380,"kind_detail":"primary","bus_network":null,"source":"openstreetmap.org","min_zoom":8.0,"bus_shield_text":"1","shield_text":"46\u041a","ref":"46\u041a-5340","id":263472928},"arcs":[353]},{"type":"LineString","properties":{"bus_network":null,"network":"ru:regional","sort_rank":380,"kind_detail":"primary","kind":"major_road","source":"openstreetmap.org","min_zoom":8.0,"bus_shield_text":"441","shield_text":"46\u041a","ref":"46\u041a-5031"},"arcs":[354]},{"type":"LineString","properties":{"bus_network":null,"name:en":"Str. Tupoleva","network":"ru:regional","sort_rank":380,"kind_detail":"primary","kind":"major_road","source":"openstreetmap.org","min_zoom":8.0,"bus_shield_text":"34","shield_text":"46\u041d","ref":"46\u041d-02468"},"arcs":[355]},{"type":"LineString","properties":{"bus_network":null,"sort_rank":380,"kind_detail":"primary","kind":"major_road","source":"openstreetmap.org","min_zoom":8.0,"bus_shield_text":"31","landuse_kind":"urban_area"},"arcs":[356]},{"type":"MultiLineString","properties":{"bus_network":null,"network":"ru:national","sort_rank":381,"kind_detail":"trunk","kind":"major_road","source":"openstreetmap.org","min_zoom":8.0,"bus_shield_text":"999","shield_text":"5","ref":"\u041c-5"},"arcs":[[357],[358],[359],[360],[361]]},{"type":"LineString","properties":{"kind":"major_road","network":"ru:regional","sort_rank":380,"kind_detail":"primary","bus_network":null,"source":"openstreetmap.org","min_zoom":8.0,"bus_shield_text":"34","shield_text":"46\u041d","landuse_kind":"urban_area","ref":"46\u041d-09325","id":167496959},"arcs":[362]},{"type":"MultiLineString","properties":{"kind":"major_road","network":"ru:regional","sort_rank":380,"kind_detail":"primary","bus_network":"\u0420\u0430\u043c\u0435\u043d\u0441\u043a\u043e\u0435","source":"openstreetmap.org","min_zoom":8.0,"bus_shield_text":"25","shield_text":"46\u041a","ref":"46\u041a-5300"},"arcs":[[363],[364]]},{"type":"LineString","properties":{"kind":"major_road","name:en":"Gorkogo Street","sort_rank":380,"kind_detail":"primary","bus_network":null,"source":"openstreetmap.org","min_zoom":8.0,"bus_shield_text":"402","landuse_kind":"residential","id":144977568},"arcs":[365]},{"type":"MultiLineString","properties":{"bus_network":null,"network":"ru:national","sort_rank":381,"landuse_kind":"urban_area","kind":"major_road","source":"openstreetmap.org","min_zoom":8.0,"bus_shield_text":"30","shield_text":"5","kind_detail":"trunk","ref":"\u041c-5"},"arcs":[[366],[367]]},{"type":"LineString","properties":{"bus_network":null,"sort_rank":380,"kind_detail":"primary","kind":"major_road","source":"openstreetmap.org","min_zoom":8.0,"bus_shield_text":"2","landuse_kind":"urban_area"},"arcs":[368]},{"type":"LineString","properties":{"bus_network":null,"network":null,"sort_rank":380,"kind_detail":"primary","kind":"major_road","source":"openstreetmap.org","min_zoom":8.0,"bus_shield_text":"36","shield_text":"105","ref":"\u0420105"},"arcs":[369]},{"type":"LineString","properties":{"bus_network":"\u041b\u044b\u0442\u043a\u0430\u0440\u0438\u043d\u043e","network":"ru:national","sort_rank":381,"kind_detail":"trunk","kind":"major_road","source":"openstreetmap.org","min_zoom":8.0,"bus_shield_text":"22","shield_text":"5","ref":"\u041c-5"},"arcs":[370]},{"type":"LineString","properties":{"bus_network":null,"network":"ru:regional","sort_rank":380,"kind_detail":"primary","kind":"major_road","source":"openstreetmap.org","min_zoom":8.0,"bus_shield_text":"441","shield_text":"46\u041a","landuse_kind":"urban_area","ref":"46\u041a-5031"},"arcs":[371]},{"type":"MultiLineString","properties":{"bus_network":null,"network":null,"sort_rank":380,"kind_detail":"primary","kind":"major_road","source":"openstreetmap.org","min_zoom":8.0,"bus_shield_text":"42","shield_text":"105","ref":"P105"},"arcs":[[372],[373]]},{"type":"MultiLineString","properties":{"bus_network":null,"network":"ru:national","sort_rank":381,"landuse_kind":"urban_area","kind":"major_road","source":"openstreetmap.org","min_zoom":8.0,"bus_shield_text":"960","shield_text":"5","kind_detail":"trunk","ref":"\u041c-5"},"arcs":[[374],[375]]},{"type":"LineString","properties":{"bus_network":null,"network":null,"sort_rank":380,"kind_detail":"primary","kind":"major_road","source":"openstreetmap.org","min_zoom":8.0,"bus_shield_text":"238","shield_text":"105","landuse_kind":"urban_area","ref":"\u0420105"},"arcs":[376]},{"type":"LineString","properties":{"kind":"major_road","sort_rank":380,"kind_detail":"primary","bus_network":null,"source":"openstreetmap.org","min_zoom":8.0,"bus_shield_text":"11","landuse_kind":"urban_area","id":276926758},"arcs":[377]},{"type":"LineString","properties":{"bus_network":null,"name:en":"Str. Gagarina","network":"ru:regional","sort_rank":380,"kind_detail":"primary","kind":"major_road","source":"openstreetmap.org","min_zoom":8.0,"bus_shield_text":"1","shield_text":"46\u041d","landuse_kind":"urban_area","ref":"46\u041d-02467"},"arcs":[378]},{"type":"LineString","properties":{"bus_network":null,"sort_rank":380,"kind_detail":"primary","kind":"major_road","source":"openstreetmap.org","min_zoom":8.0,"bus_shield_text":"3","landuse_kind":"urban_area"},"arcs":[379]},{"type":"MultiLineString","properties":{"source":"openstreetmap.org","bus_network":null,"bus_shield_text":"402","sort_rank":380,"kind_detail":"primary","min_zoom":8.0,"kind":"major_road"},"arcs":[[380],[381]]},{"type":"MultiLineString","properties":{"bus_network":null,"network":"ru:regional","sort_rank":380,"kind_detail":"primary","kind":"major_road","source":"openstreetmap.org","min_zoom":8.0,"bus_shield_text":"34","shield_text":"46\u041d","ref":"46\u041d-09325"},"arcs":[[382],[383],[384]]},{"type":"LineString","properties":{"kind":"major_road","network":"ru:regional","sort_rank":380,"kind_detail":"primary","source":"openstreetmap.org","min_zoom":8.0,"shield_text":"46\u041d","ref":"46\u041d-09312","id":29019103},"arcs":[385]},{"type":"LineString","properties":{"bus_network":null,"network":"ru:national","sort_rank":381,"kind_detail":"trunk","kind":"major_road","source":"openstreetmap.org","min_zoom":8.0,"bus_shield_text":"37","shield_text":"108","ref":"\u0410-108"},"arcs":[386]},{"type":"MultiLineString","properties":{"bus_network":null,"network":"ru:regional","sort_rank":380,"kind_detail":"primary","kind":"major_road","source":"openstreetmap.org","min_zoom":8.0,"bus_shield_text":"36","shield_text":"46\u041a","ref":"46\u041a-5003"},"arcs":[[387],[388],[389],[390]]},{"type":"LineString","properties":{"kind":"major_road","network":"ru:regional","sort_rank":380,"kind_detail":"primary","source":"openstreetmap.org","min_zoom":8.0,"shield_text":"46\u041a","ref":"46\u041a-5111","id":276418077},"arcs":[391]},{"type":"MultiLineString","properties":{"bus_network":"\u041e\u0440\u0435\u0445\u043e\u0432\u043e-\u0417\u0443\u0435\u0432\u043e","network":"ru:national","sort_rank":381,"kind_detail":"trunk","kind":"major_road","source":"openstreetmap.org","min_zoom":8.0,"bus_shield_text":"26","shield_text":"108","ref":"\u0410-108"},"arcs":[[392],[393]]},{"type":"LineString","properties":{"kind":"major_road","network":"ru:regional","sort_rank":380,"kind_detail":"primary","bus_network":null,"source":"openstreetmap.org","min_zoom":8.0,"bus_shield_text":"1","shield_text":"46\u041a","landuse_kind":"urban_area","ref":"46\u041a-5340","id":263472928},"arcs":[394]},{"type":"MultiLineString","properties":{"kind":"major_road","network":"ru:regional","sort_rank":380,"kind_detail":"primary","source":"openstreetmap.org","min_zoom":8.0,"landuse_kind":"urban_area","shield_text":"46\u041a","ref":"46\u041a-5480"},"arcs":[[395],[396]]},{"type":"LineString","properties":{"bus_network":null,"sort_rank":380,"kind_detail":"primary","old_name":"\u0422\u0443\u043c\u0435\u043d\u0441\u043a\u043e\u0435 \u0448\u043e\u0441\u0441\u0435","kind":"major_road","source":"openstreetmap.org","min_zoom":8.0,"bus_shield_text":"19"},"arcs":[397]},{"type":"MultiLineString","properties":{"source":"openstreetmap.org","kind":"major_road","landuse_kind":"urban_area","sort_rank":380,"kind_detail":"primary","min_zoom":8.0},"arcs":[[398],[399],[400],[401]]},{"type":"LineString","properties":{"bus_network":null,"network":"ru:regional","sort_rank":380,"kind_detail":"primary","kind":"major_road","source":"openstreetmap.org","min_zoom":8.0,"bus_shield_text":"346","shield_text":"46\u041a","landuse_kind":"urban_area","ref":"46\u041a-5001"},"arcs":[402]},{"type":"LineString","properties":{"kind":"major_road","sort_rank":380,"kind_detail":"primary","bus_network":null,"source":"openstreetmap.org","min_zoom":8.0,"bus_shield_text":"36","ref":"P106","id":195630826},"arcs":[403]},{"type":"LineString","properties":{"kind":"major_road","name:en":"Gorkogo Street","sort_rank":380,"kind_detail":"primary","bus_network":null,"source":"openstreetmap.org","min_zoom":8.0,"bus_shield_text":"402","id":144977568},"arcs":[404]},{"type":"MultiLineString","properties":{"kind":"highway","network":"ru:national","sort_rank":383,"kind_detail":"motorway","source":"openstreetmap.org","min_zoom":8.0,"all_networks":["ru:national","AsianHighway","e-road","e-road"],"shield_text":"22","ref":"\u041c-4","all_shield_texts":["22","8","115","119"]},"arcs":[[405],[406]]},{"type":"MultiLineString","properties":{"bus_network":"\u041e\u0440\u0435\u0445\u043e\u0432\u043e-\u0417\u0443\u0435\u0432\u043e","network":"ru:national","sort_rank":381,"landuse_kind":"urban_area","kind":"major_road","source":"openstreetmap.org","min_zoom":8.0,"bus_shield_text":"26","shield_text":"108","kind_detail":"trunk","ref":"\u0410-108"},"arcs":[[407],[408]]},{"type":"LineString","properties":{"bus_network":null,"network":"ru:national","sort_rank":381,"kind_detail":"trunk","kind":"major_road","source":"openstreetmap.org","min_zoom":8.0,"bus_shield_text":"42","shield_text":"107","ref":"\u0410-107"},"arcs":[409]},{"type":"MultiLineString","properties":{"bus_network":null,"network":"ru:regional","sort_rank":380,"kind_detail":"primary","kind":"major_road","source":"openstreetmap.org","min_zoom":8.0,"bus_shield_text":"950","shield_text":"46\u041a","ref":"46\u041a-5003"},"arcs":[[410],[411],[412]]},{"type":"LineString","properties":{"bus_network":null,"network":"ru:regional","sort_rank":380,"kind_detail":"primary","kind":"major_road","source":"openstreetmap.org","min_zoom":8.0,"bus_shield_text":"4","shield_text":"46\u041d","landuse_kind":"urban_area","ref":"46\u041d-04256"},"arcs":[413]},{"type":"MultiLineString","properties":{"bus_network":null,"sort_rank":380,"kind_detail":"primary","kind":"major_road","source":"openstreetmap.org","min_zoom":8.0,"bus_shield_text":"21","landuse_kind":"urban_area"},"arcs":[[414],[415],[416]]},{"type":"LineString","properties":{"bus_network":null,"network":"ru:regional","sort_rank":380,"kind_detail":"primary","kind":"major_road","source":"openstreetmap.org","min_zoom":8.0,"bus_shield_text":"22","shield_text":"46\u041a","ref":"46\u041a-5091"},"arcs":[417]},{"type":"LineString","properties":{"source":"openstreetmap.org","bus_network":null,"bus_shield_text":"31","sort_rank":380,"kind_detail":"primary","min_zoom":8.0,"kind":"major_road"},"arcs":[418]},{"type":"LineString","properties":{"source":"openstreetmap.org","bus_network":null,"bus_shield_text":"36","sort_rank":380,"kind_detail":"primary","min_zoom":8.0,"kind":"major_road"},"arcs":[419]},{"type":"LineString","properties":{"kind":"major_road","network":null,"sort_rank":380,"kind_detail":"primary","bus_network":null,"source":"openstreetmap.org","min_zoom":8.0,"bus_shield_text":"44","shield_text":"105","ref":"P105","id":132084449},"arcs":[420]},{"type":"LineString","properties":{"bus_network":null,"sort_rank":380,"kind_detail":"primary","kind":"major_road","source":"openstreetmap.org","min_zoom":8.0,"bus_shield_text":"4","landuse_kind":"urban_area"},"arcs":[421]},{"type":"LineString","properties":{"kind":"major_road","network":"ru:regional","sort_rank":380,"kind_detail":"primary","source":"openstreetmap.org","min_zoom":8.0,"shield_text":"46\u041a","ref":"46\u041a-5001","id":307365400},"arcs":[422]},{"type":"LineString","properties":{"bus_network":"\u0412\u043e\u0441\u043a\u0440\u0435\u0441\u0435\u043d\u0441\u043a","network":"ru:national","sort_rank":381,"landuse_kind":"urban_area","kind":"major_road","source":"openstreetmap.org","min_zoom":8.0,"bus_shield_text":"21","shield_text":"108","kind_detail":"trunk","ref":"\u0410-108"},"arcs":[423]},{"type":"LineString","properties":{"kind":"ferry","name":"\u0422\u0435\u043f\u043b\u043e\u0445\u043e\u0434 \u0411\u0430\u0447\u043c\u0430\u043d\u043e\u0432\u043e - \u041f\u0440\u0438\u0442\u044b\u043a\u0430","sort_rank":355,"source":"openstreetmap.org","min_zoom":8.0,"ref":"\u0411\u0430\u0447\u043c\u0430\u043d\u043e\u0432\u043e - \u041f\u0440\u0438\u0442\u044b\u043a\u0430","id":-3840268,"osm_relation":true},"arcs":[424]},{"type":"MultiLineString","properties":{"kind":"major_road","network":"ru:national","sort_rank":381,"landuse_kind":"urban_area","source":"openstreetmap.org","min_zoom":8.0,"kind_detail":"trunk","shield_text":"107","ref":"\u0410-107"},"arcs":[[425],[426]]},{"type":"LineString","properties":{"bus_network":null,"sort_rank":380,"kind_detail":"primary","kind":"major_road","source":"openstreetmap.org","min_zoom":8.0,"bus_shield_text":"1","landuse_kind":"urban_area"},"arcs":[427]},{"type":"LineString","properties":{"kind":"major_road","name:en":"Donskaya Street","network":"ru:national","sort_rank":381,"kind_detail":"trunk","bus_network":null,"source":"openstreetmap.org","min_zoom":8.0,"bus_shield_text":"403","shield_text":"108","ref":"\u0410-108","id":99255408},"arcs":[428]},{"type":"MultiLineString","properties":{"source":"openstreetmap.org","kind":"major_road","sort_rank":380,"kind_detail":"primary","ref":"P106","min_zoom":8.0},"arcs":[[429],[430]]},{"type":"LineString","properties":{"bus_network":null,"network":"ru:national","sort_rank":381,"kind_detail":"trunk","kind":"major_road","source":"openstreetmap.org","min_zoom":8.0,"bus_shield_text":"52","shield_text":"107","ref":"\u0410-107"},"arcs":[431]},{"type":"LineString","properties":{"kind":"major_road","name:en":"Str. Tupoleva","network":"ru:regional","sort_rank":380,"kind_detail":"primary","bus_network":null,"source":"openstreetmap.org","min_zoom":8.0,"bus_shield_text":"34","shield_text":"46\u041d","landuse_kind":"urban_area","ref":"46\u041d-09313","id":408910399},"arcs":[432]},{"type":"LineString","properties":{"bus_network":null,"network":"ru:regional","sort_rank":380,"kind_detail":"primary","kind":"major_road","source":"openstreetmap.org","min_zoom":8.0,"bus_shield_text":"34","shield_text":"46\u041d","landuse_kind":"urban_area","ref":"46\u041d-09313"},"arcs":[433]},{"type":"LineString","properties":{"kind":"ferry","name":"\u0422\u0435\u043f\u043b\u043e\u0445\u043e\u0434 \u0411\u0430\u0447\u043c\u0430\u043d\u043e\u0432\u043e - \u041f\u0440\u0438\u0442\u044b\u043a\u0430","sort_rank":355,"landuse_kind":"urban_area","source":"openstreetmap.org","min_zoom":8.0,"ref":"\u0411\u0430\u0447\u043c\u0430\u043d\u043e\u0432\u043e - \u041f\u0440\u0438\u0442\u044b\u043a\u0430","id":-3840268,"osm_relation":true},"arcs":[434]},{"type":"LineString","properties":{"kind":"major_road","network":"ru:national","sort_rank":381,"kind_detail":"trunk","bus_network":null,"source":"openstreetmap.org","min_zoom":8.0,"bus_shield_text":"44","shield_text":"107","ref":"\u0410-107","id":161747427},"arcs":[435]},{"type":"LineString","properties":{"bus_network":null,"network":null,"sort_rank":380,"kind_detail":"primary","kind":"major_road","source":"openstreetmap.org","min_zoom":8.0,"bus_shield_text":"25","shield_text":"105","ref":"\u0420105"},"arcs":[436]}]},"earth":{"type":"GeometryCollection","geometries":[{"type":"Polygon","properties":{"sort_rank":10,"source":"naturalearthdata.com","min_zoom":0.0,"kind":"earth","area":98022885885},"arcs":[[437]]}]},"landuse":{"type":"GeometryCollection","geometries":[{"type":"Polygon","properties":{"kind":"protected_area","protect_class":"14","area":159183008,"sort_rank":17,"operator":"\u041a\u0420\u041e\u041e\u0438\u0420","source":"openstreetmap.org","min_zoom":6.0,"tier":2,"id":-4243710,"osm_relation":true},"arcs":[[438]]},{"type":"MultiPolygon","properties":{"source":"openstreetmap.org","kind":"military","tier":3,"area":111165097,"sort_rank":45,"min_zoom":8.0},"arcs":[[[439]]]},{"type":"MultiPolygon","properties":{"source":"naturalearthdata.com","kind":"urban_area","name":"","area":6932720887,"sort_rank":11,"min_zoom":4.0},"arcs":[[[440]],[[441]],[[442]],[[443]],[[444]],[[445]],[[446]],[[447]],[[448]],[[449]],[[450]],[[451]],[[452]],[[453]],[[454]],[[455]]]},{"type":"MultiPolygon","properties":{"source":"openstreetmap.org","kind":"residential","tier":2,"area":46436395,"sort_rank":20,"min_zoom":8.0},"arcs":[[[456]]]},{"type":"Polygon","properties":{"kind":"residential","name":"\u041c\u0430\u043b\u0438\u043d\u043e","area":21271000,"sort_rank":20,"source":"openstreetmap.org","min_zoom":8.0,"tier":2,"id":134568410},"arcs":[[457]]},{"type":"Polygon","properties":{"kind":"nature_reserve","area":58588900,"sort_rank":23,"source":"openstreetmap.org","min_zoom":8.0,"tier":2,"id":-2274278,"osm_relation":true},"arcs":[[458],[459],[460],[461],[462],[463],[464]]}]}},"type":"Topology","transform":{"translate":[37.96875,54.9776136707],"scale":[0.0003433228,0.0001950584]},"arcs":[[[3947,4096],[82,-41],[67,36]],[[0,576],[164,-476]],[[194,0],[-7,26]],[[187,26],[-5,18]],[[182,44],[-7,24]],[[175,68],[0,2]],[[175,70],[-2,5]],[[173,75],[-85,283],[-88,219]],[[173,75],[-7,22]],[[182,44],[5,-18]],[[187,26],[2,-11],[5,-15]],[[935,4096],[196,-95],[133,-160],[38,-16],[712,265],[88,-5],[185,-75],[152,-43],[225,-27],[194,112],[26,44]],[[2884,4096],[-26,-44],[-194,-112],[-225,27],[-152,43],[-171,71],[-14,4],[-10,2]],[[0,576],[164,-476]],[[194,0],[-7,26]],[[187,26],[-5,18]],[[182,44],[-7,24]],[[175,68],[0,2]],[[175,70],[-2,5]],[[173,75],[-11,34]],[[173,75],[-7,22]],[[182,44],[5,-18]],[[187,26],[7,-26]],[[935,4096],[196,-95],[133,-160],[38,-16],[712,265],[88,-5],[337,-118],[225,-27],[194,112],[26,44]],[[0,576],[164,-476]],[[194,0],[-7,26]],[[187,26],[-5,18]],[[182,44],[-7,24]],[[175,68],[0,2]],[[175,70],[-2,5]],[[173,75],[-2,5],[-5,15],[-4,14]],[[173,75],[-7,22]],[[182,44],[5,-18]],[[187,26],[2,-11],[5,-15]],[[0,3967],[251,9]],[[0,3968],[154,5]],[[154,3973],[-154,-5]],[[1435,3865],[-172,-59],[-503,18],[-31,9],[-272,138],[-8,3],[-12,4],[-24,3],[-259,-8]],[[252,3976],[190,0],[287,-144],[7,-2],[5,-2],[6,-2],[7,-1],[5,-1],[7,-1],[472,-18],[10,0],[13,1],[15,1],[15,3],[12,3],[15,4],[666,265],[107,5]],[[2096,4087],[-57,6],[-37,-6],[-15,-4],[-15,-5]],[[2091,4088],[5,-1]],[[2096,4087],[80,9]],[[0,576],[164,-476]],[[194,0],[-7,26]],[[187,26],[-5,18]],[[182,44],[-7,24]],[[175,68],[0,2]],[[175,70],[-2,5]],[[173,75],[-2,5],[-5,15],[-4,14]],[[173,75],[-7,22]],[[182,44],[5,-18]],[[187,26],[2,-11],[5,-15]],[[0,576],[164,-476]],[[194,0],[-7,26]],[[187,26],[-5,18]],[[182,44],[-7,24]],[[175,68],[0,2]],[[175,70],[-2,5]],[[173,75],[-2,5],[-5,15],[-4,14]],[[173,75],[-7,22]],[[182,44],[5,-18]],[[187,26],[7,-26]],[[2884,4096],[-26,-44],[-194,-112],[-225,27],[-337,118],[-40,7],[-48,-2],[-712,-265],[-38,16],[-133,160],[-195,95]],[[1440,3866],[576,224],[86,-5],[185,-75],[22,-8],[72,-20],[58,-15],[16,-4],[203,-23],[6,0],[7,0],[6,1],[6,1],[5,3],[156,97],[14,10],[7,7],[19,37]],[[935,4096],[196,-95],[133,-160],[38,-16],[712,265],[88,-5],[185,-75],[152,-43],[225,-27],[194,112],[26,44]],[[2884,4096],[-26,-44],[-194,-112],[-225,27],[-152,43],[-171,71],[-14,4],[-10,2]],[[487,3197],[22,-17],[2,-75],[37,29]],[[3041,2094],[-7,-62],[-116,-33],[-247,-152],[-263,6],[-199,-82],[-51,-64],[-19,11]],[[2652,2912],[5,70]],[[2657,2982],[35,60],[83,12]],[[2655,2978],[-9,-20],[-1,-10],[0,-9],[36,-150],[25,-101],[38,-87]],[[2744,2601],[25,-48]],[[2769,2553],[2,-3]],[[2657,2982],[-2,-4]],[[2655,2978],[-8,-18],[-2,-12],[1,-9],[6,-27]],[[2652,2912],[54,-224],[65,-138]],[[2771,2550],[50,-131],[203,-291]],[[3024,2128],[17,-34]],[[2744,2601],[21,-41],[4,-7]],[[0,3552],[128,-15],[460,-146],[136,-15],[102,18],[163,-54],[180,3],[152,-92],[597,-69],[665,-148],[221,21],[538,-71],[240,45],[514,34]],[[0,3552],[128,-15],[460,-146],[136,-15],[102,18],[163,-54],[180,3],[152,-92],[597,-69],[665,-148],[221,21],[538,-71],[240,45],[514,34]],[[0,3552],[128,-15],[460,-146],[136,-15],[102,18],[163,-54],[180,3],[152,-92],[597,-69],[665,-148],[221,21],[538,-71],[240,45],[514,34]],[[0,3552],[128,-15],[460,-146],[136,-15],[102,18],[163,-54],[180,3],[152,-92],[597,-69],[665,-148],[221,21],[538,-71],[240,45],[514,34]],[[0,3967],[251,9]],[[0,3968],[115,5],[33,1],[6,-1]],[[154,3973],[-154,-5]],[[1435,3865],[-172,-59],[-503,18],[-31,9],[-272,138],[-8,3],[-12,4],[-24,3],[-259,-8]],[[252,3976],[190,0],[287,-144],[8,-3],[7,-2],[7,-2],[7,-1],[8,-1],[472,-18],[18,0],[9,1],[13,1],[13,3],[12,3],[15,4],[56,23]],[[1440,3867],[27,10],[18,9],[9,15],[0,4],[-47,191]],[[1446,4096],[43,-179],[-49,-50]],[[0,576],[164,-476]],[[194,0],[-7,26]],[[187,26],[-5,18]],[[182,44],[-7,24]],[[175,68],[0,2]],[[175,70],[-2,5]],[[173,75],[-11,34]],[[173,75],[-7,22]],[[194,0],[-7,26]],[[187,26],[-5,18]],[[487,3197],[20,-57]],[[550,3121],[-2,13]],[[0,3464],[124,-44],[216,-115],[620,-426],[180,-199],[299,-226],[366,-186],[154,-17],[126,-174],[4,-289],[142,-206],[94,-282],[61,-363],[-9,-339],[258,-188],[146,-172],[234,-100],[140,-132],[34,-6]],[[0,3464],[124,-44],[216,-115],[620,-426],[180,-199],[299,-226],[366,-186],[154,-17],[126,-174],[4,-289],[142,-206],[94,-282],[61,-363],[-9,-339],[258,-188],[146,-172],[234,-100],[140,-132],[34,-6]],[[2441,553],[24,-14],[6,-12],[-16,-29],[-138,-11],[-92,-42],[-128,32],[-145,-94],[-46,-97],[-58,-286]],[[1856,49],[0,-4]],[[1883,181],[-1,-3]],[[1904,277],[-1,-4]],[[2002,431],[3,2]],[[2089,475],[-3,-1]],[[2206,445],[9,-1]],[[2419,496],[2,0]],[[2441,553],[8,-5]],[[2292,476],[-4,-2],[4,2]],[[2889,3869],[-8,-7],[-4,-6],[-2,-6],[-4,-12],[-1,-4],[-15,-16],[-2,-5],[-2,-4],[-1,-8],[-7,-115],[-7,-29],[-146,-195],[-3,-7],[-5,-16],[-12,-37],[-20,-41],[-3,-9],[-2,-7],[-10,-30],[-1,-7],[-1,-3],[0,-8],[1,-5],[2,-6],[32,-75]],[[2775,3054],[-68,2],[-39,155]],[[2668,3211],[-34,85],[11,49],[26,57],[19,59],[146,196],[8,29],[7,122],[19,25],[2,5],[3,14],[3,6],[13,12]],[[2889,3869],[2,1]],[[2928,4096],[-45,-148],[22,-39],[-16,-40]],[[2891,3870],[5,5],[4,6],[18,43],[14,172]],[[0,685],[193,37],[145,-14],[295,39],[178,-183],[87,24]],[[935,4096],[199,-97],[141,-166],[97,6]],[[935,4096],[196,-95],[133,-160],[38,-16],[712,265],[88,-5],[185,-75],[22,-8],[72,-20],[58,-15],[16,-4],[203,-23],[6,0],[7,0],[6,1],[6,1],[5,3],[156,97],[14,10],[7,7],[19,37]],[[2092,4087],[10,-2],[14,-4],[171,-71],[152,-43],[225,-27],[194,112],[26,44]],[[1451,3871],[-169,-41],[-148,169],[-198,97]],[[1146,3987],[8,-9],[-8,9]],[[0,3552],[128,-15],[460,-146],[136,-15],[102,18],[163,-54],[180,3],[152,-92],[597,-69],[665,-148],[221,21],[538,-71],[240,45],[514,34]],[[0,3967],[428,12],[322,-153],[498,-21],[766,285],[88,-5],[337,-118],[225,-27],[194,112],[26,44]],[[0,576],[164,-476]],[[182,44],[13,-44]],[[935,4096],[199,-97],[148,-170],[169,42]],[[1146,3987],[7,-10],[-4,5],[-3,5]],[[0,3464],[124,-44],[216,-115],[620,-426],[28,-25],[152,-174],[194,-143],[105,-83],[366,-186],[40,-7],[53,9],[10,1],[11,-1],[6,-1],[5,-1],[8,-3],[5,-3],[6,-4],[5,-3],[5,-4],[5,-6],[3,-4],[39,-51],[65,-86],[6,-10],[5,-10],[3,-7],[2,-5],[1,-9],[2,-10],[-1,-265],[124,-176],[8,-13],[10,-17],[4,-10],[7,-21],[69,-205],[11,-35],[3,-11],[4,-17],[55,-335],[2,-11],[0,-12],[0,-14],[-5,-176],[-4,-32],[-11,-73],[11,-32],[145,-89],[4,-3],[2,-2],[27,-48],[65,-35],[15,-11],[6,-6],[10,-12],[72,-97],[58,-57],[21,-10],[49,-7],[8,-3],[11,-3],[16,-9],[129,-68],[12,-9],[9,-9],[4,-4],[35,-52],[80,-58],[19,-6]],[[3172,0],[-17,5],[-80,59],[-60,73],[-146,77],[-67,14],[-22,9],[-57,58],[-89,114],[-79,47],[-33,53],[-139,80],[-7,10],[-6,11],[-4,20],[19,307],[-58,353],[-94,284],[-144,214],[-12,305],[-134,169],[-35,9],[-63,-10],[-40,7],[-185,81],[-176,102],[-5,3],[-10,7],[-290,219],[-142,163]],[[0,3552],[128,-15],[460,-146],[136,-15],[102,18],[163,-54],[180,3],[152,-92],[597,-69],[665,-148],[221,21],[538,-71],[240,45],[514,34]],[[0,3464],[124,-44],[216,-115],[620,-426],[28,-25],[152,-174],[194,-143],[105,-83],[366,-186],[40,-7],[53,9],[10,1],[11,-1],[6,-1],[5,-1],[8,-3],[5,-3],[6,-4],[5,-3],[5,-4],[5,-6],[3,-4],[39,-51],[65,-86],[6,-10],[5,-10],[3,-7],[2,-5],[1,-9],[2,-10],[-1,-265],[124,-176],[8,-13],[10,-17],[4,-10],[7,-21],[69,-205],[11,-35],[3,-11],[4,-17],[55,-335],[2,-11],[0,-12],[0,-14],[-5,-176],[-4,-32],[-11,-73],[11,-32],[145,-89],[4,-3],[2,-2],[27,-48],[65,-35],[15,-11],[6,-6],[10,-12],[72,-97],[58,-57],[21,-10],[49,-7],[8,-3],[11,-3],[16,-9],[129,-68],[12,-9],[9,-9],[4,-4],[35,-52],[80,-58],[19,-6]],[[3172,0],[-17,5],[-80,59],[-60,73],[-146,77],[-67,14],[-22,9],[-57,58],[-89,114],[-79,47],[-33,53],[-139,80],[-7,10],[-6,11],[-4,20],[19,307],[-58,353],[-94,284],[-144,214],[-12,305],[-134,169],[-35,9],[-63,-10],[-40,7],[-185,81],[-176,102],[-5,3],[-10,7],[-290,219],[-142,163]],[[0,3552],[128,-15],[460,-146],[136,-15],[102,18],[163,-54],[180,3],[152,-92],[597,-69],[665,-148],[221,21],[538,-71],[240,45],[514,34]],[[2441,553],[24,-14],[6,-12],[-16,-29],[-138,-11],[-92,-42],[-128,32],[-145,-94],[-46,-97],[-58,-286]],[[1856,49],[0,-4]],[[1883,181],[-1,-3]],[[1904,277],[-1,-4]],[[2002,431],[3,2]],[[2089,475],[-3,-1]],[[2206,445],[9,-1]],[[2419,496],[2,0]],[[2441,553],[8,-5]],[[2292,476],[-4,-2],[4,2]],[[0,3552],[128,-15],[460,-146],[136,-15],[102,18],[163,-54],[180,3],[152,-92],[597,-69],[665,-148],[221,21],[538,-71],[240,45],[514,34]],[[195,0],[-13,44]],[[182,44],[-7,24]],[[175,68],[0,2]],[[175,70],[-2,5]],[[173,75],[-2,5],[-5,15],[-4,14]],[[2114,1602],[-50,-79],[-242,-232],[-30,-76],[-109,-44],[-18,-54],[-79,-81],[-71,-21],[-50,26],[-62,-10],[-123,-184],[-127,-91],[-96,-109],[-292,-106],[-326,-177],[-102,-137],[-38,-113],[-117,25],[-9,-64]],[[2770,2552],[-2,-42],[-225,-164],[-341,-438]],[[2202,1908],[-114,-77],[5,-51],[51,-70],[4,-4],[4,-2],[18,-8],[7,-8],[-5,-31],[-46,-32],[-63,-103],[-236,-226],[-5,-5],[-2,-4],[-3,-4],[-2,-5]],[[2130,1731],[17,-23],[22,-12],[4,-3],[4,-5],[0,-23]],[[2657,2982],[-2,-4]],[[2655,2978],[-3,-66]],[[2652,2912],[54,-224],[65,-138]],[[2771,2550],[4,-7],[2,-5],[0,-6],[0,-4],[-1,-4],[-2,-7],[-4,-4],[-5,-5],[-222,-162],[-288,-388],[-15,-15],[-38,-35]],[[2652,2912],[5,70]],[[2657,2982],[35,60],[83,12]],[[2655,2978],[-10,-39],[36,-150],[10,-41],[13,-54],[2,-6],[8,-22],[14,-32],[16,-33]],[[2744,2601],[25,-48]],[[2769,2553],[1,-1]],[[2771,2550],[-1,2]],[[3356,2969],[740,102]],[[606,693],[-6,-1]],[[3217,3007],[138,-38]],[[186,3311],[3,-1]],[[684,3116],[18,-14]],[[702,3102],[0,1]],[[702,3102],[68,17],[32,-21]],[[586,629],[2,7]],[[763,2204],[-25,-56],[-127,-91],[-517,-84],[-88,32],[-6,-2]],[[763,2204],[12,15]],[[789,2232],[-26,-28]],[[3136,2246],[79,-115]],[[3232,2106],[1,-2]],[[3237,2098],[2,0]],[[3239,2109],[-1,1]],[[3243,2103],[0,1]],[[578,689],[-51,-7]],[[497,3093],[-20,-3]],[[500,3093],[-3,0]],[[497,3093],[5,0]],[[2330,405],[110,67]],[[463,3091],[-5,3]],[[2409,880],[-57,-92]],[[2502,1030],[-34,-43]],[[2791,1362],[-93,-56],[-47,-120]],[[667,3105],[16,13]],[[802,3098],[18,31]],[[685,3118],[-2,0],[0,-1],[2,0],[0,1]],[[2126,901],[-79,81]],[[2114,906],[6,-3]],[[2344,799],[12,-10],[28,-18],[224,-83],[107,-65],[11,-41]],[[2728,583],[-12,41],[-107,64],[-264,111]],[[2715,465],[11,-105],[120,-196]],[[2845,166],[-26,62],[-92,133],[-8,114]],[[1971,2903],[118,-103],[521,-171]],[[3217,1933],[13,-81]],[[3225,1833],[9,-139]],[[3193,1577],[-76,-95],[-74,-22]],[[628,3050],[1,2]],[[702,3103],[-17,15]],[[3231,2098],[-11,-5]],[[2715,465]],[[2728,580],[0,3]],[[3212,1955],[5,-22]],[[2048,979],[66,-73]],[[976,2314],[37,29]],[[1231,3047],[-76,284]],[[1416,3900],[-60,-19],[-47,-64],[47,-126]],[[768,2947],[8,-43],[39,15]],[[1635,77],[175,244],[188,120]],[[2173,513],[-147,-48]],[[627,3051],[40,54]],[[478,3090],[-15,1]],[[775,2219],[18,17]],[[793,2236],[-4,-4]],[[867,2240],[-74,-4]],[[2038,730],[-12,-163],[43,-80]],[[1527,1542],[-247,-257],[-160,-229],[-185,-196],[-253,-144]],[[299,3248],[-89,43]],[[1331,3214],[70,-18]],[[1358,4059],[65,-158]],[[82,3510],[19,2]],[[111,3511],[13,-2]],[[3230,1852],[-5,-19]],[[671,713],[-65,-20]],[[2120,903],[224,-104]],[[2345,799],[-72,41],[-147,61]],[[454,3100],[-32,68]],[[2211,671],[-173,59]],[[1645,0],[-10,77]],[[1237,2005],[-48,-39]],[[2468,987],[-59,-107]],[[2651,1186],[-149,-156]],[[502,3093],[-2,0]],[[0,3501],[45,-15],[37,24]],[[603,3396],[38,-19]],[[111,3136],[-5,4]],[[915,2247],[-48,-7]],[[2220,738],[-9,45]],[[2263,596],[-30,-36]],[[2293,577],[-30,19]],[[0,3253],[39,-57],[22,-22],[34,-27]],[[95,3148],[-95,117]],[[681,3115],[3,1]],[[1194,2691],[41,97]],[[3198,2006],[9,-5]],[[3208,2001],[-10,5]],[[2319,0],[-25,120],[16,72],[-24,160],[44,53]],[[1167,2640],[27,51]],[[1235,2788],[36,81]],[[664,3023],[15,-11]],[[716,2985],[43,-13]],[[500,3093],[1,-1]],[[506,3093],[-4,0]],[[503,3091],[3,2]],[[506,3093],[2,0]],[[561,3072],[28,-21]],[[677,1313],[-51,-172]],[[204,3021],[13,-5]],[[335,3078],[-70,-17],[-61,-40]],[[226,3024],[108,54]],[[1155,3331],[-18,19]],[[549,0],[28,20],[24,212],[-98,168],[45,51],[38,178]],[[2610,2629],[28,-7]],[[1356,3691],[-122,-145],[-60,-123]],[[834,2943],[32,-15]],[[1013,2343],[90,249],[64,48]],[[627,3051],[0,-2]],[[627,3049],[2,-1]],[[629,3048],[1,0]],[[210,3291],[-21,19]],[[1874,1708],[-347,-166]],[[3483,1824],[-62,93]],[[458,3094],[-4,6]],[[548,2628],[187,-356],[50,-62],[49,-134],[136,-5]],[[970,2071],[40,-1],[0,-1]],[[1010,2069],[54,-27]],[[1064,2042],[98,-48],[15,-12],[4,-4]],[[1181,1978],[1,-2],[7,-10]],[[1190,1966],[-7,11],[-2,1]],[[1181,1978],[-117,64]],[[1064,2042],[-48,27],[-6,0]],[[1010,2069],[-40,2]],[[970,2071],[-136,6],[-47,132],[-51,64],[-105,248],[-70,87]],[[908,2909],[2,-2]],[[892,2762],[143,-151],[67,-28]],[[124,3509],[59,-16]],[[3043,1460],[-131,-24],[-121,-74]],[[764,2971],[4,-24]],[[815,2919],[19,24]],[[627,3047],[2,1]],[[1917,2953],[54,-50]],[[217,3016],[9,8]],[[120,3318],[66,-7]],[[2638,2622],[55,-4]],[[2758,2611],[252,-182]],[[3421,1917],[-138,145]],[[3622,1717],[-44,69],[-95,38]],[[617,3048],[10,-1]],[[527,682],[-251,-58],[-121,0],[-155,-86]],[[1876,1710],[-2,-2]],[[1876,1710],[55,49]],[[1930,1760],[-54,-50]],[[2358,2161],[276,421],[-3,35]],[[2637,2638],[7,327],[37,129],[57,39]],[[2783,3174],[64,138],[-50,60],[69,308]],[[3238,2110],[-6,-4]],[[3233,2104],[4,-6]],[[3239,2098],[4,5]],[[207,3025],[-96,111]],[[207,3025],[12,-10]],[[220,3015],[-13,10]],[[588,636],[26,12],[-4,30]],[[2653,2980],[109,33],[193,-2]],[[183,3493],[226,-16],[61,-33]],[[641,3377],[5,-1]],[[679,3012],[37,-27]],[[759,2972],[5,-1]],[[600,692],[-22,-3]],[[2211,783],[-102,120]],[[2861,149],[-16,17]],[[2846,164],[15,-15]],[[2861,149],[153,-149]],[[3202,2013],[-4,-6]],[[3198,2006],[4,7]],[[3203,2042],[-1,-29]],[[3215,2131],[15,-18]],[[3230,2113],[2,-7]],[[3238,2110],[-8,3]],[[3283,2062],[-37,35]],[[2320,564],[-27,13]],[[219,3015],[172,-168],[116,-161]],[[507,2686],[41,-58]],[[561,2608],[-3,5],[-51,73]],[[507,2686],[-116,162],[-171,167]],[[1527,1542],[-118,186],[-41,127],[-131,150]],[[1355,4083],[3,-24]],[[1942,1771],[-12,-11]],[[1931,1759],[11,12]],[[1978,1805],[-36,-34]],[[2738,3133],[40,15],[5,26]],[[606,693],[4,-15]],[[470,3444],[133,-48]],[[2358,2161],[-119,-159],[-10,-48]],[[594,3051],[0,-2]],[[2217,671],[-6,0]],[[28,3351],[92,-33]],[[508,3093],[53,-21]],[[2664,346],[-36,37]],[[1688,1318],[-161,224]],[[1692,1319],[241,-109],[102,-106],[2,-6],[6,-72]],[[2043,1026],[5,-47]],[[2047,982],[-4,44]],[[2043,1026],[-5,72],[-2,6],[-103,107],[-148,78],[-83,28]],[[614,3051],[-24,-1]],[[866,2928],[42,-19]],[[910,2907],[-18,-145]],[[607,721],[-1,-28]],[[2728,557],[-13,-92]],[[2724,494],[5,56],[-1,30]],[[2390,567],[-104,72]],[[2693,2618],[65,-7]],[[95,3147],[0,1]],[[0,3360],[28,-9]],[[3233,2104],[4,-6]],[[3239,2098],[4,5]],[[2719,475],[5,19]],[[2726,582],[2,-25]],[[3010,2429],[126,-183]],[[3203,2054],[0,-12]],[[422,3168],[-30,47],[-93,33]],[[2628,383],[-88,64],[-35,62],[-115,58]],[[626,1141],[-11,-60],[42,-51],[-48,-266]],[[687,2122],[54,-244],[-37,-211],[29,-157],[-22,-141],[-34,-56]],[[632,3046],[-18,5]],[[630,3048],[2,-2]],[[632,3046],[31,-23]],[[663,3023],[1,0]],[[2631,2617],[6,21]],[[917,3348],[28,31],[192,-29]],[[1155,3331],[90,-91],[86,-26]],[[1401,3196],[427,-132]],[[1841,3036],[24,-29]],[[3234,1694],[-41,-117]],[[2866,3680],[13,174],[-62,120]],[[2851,4032],[10,8]],[[2246,674],[-29,-3]],[[334,3078],[13,3],[42,-23],[8,-4],[8,-2],[7,1],[65,37]],[[476,3090],[-64,-37],[-64,29],[-13,-4]],[[2233,560],[-60,-47]],[[3196,2077],[7,8]],[[3203,2054],[-7,23]],[[3198,2007],[0,-1]],[[3220,2093],[-17,-8]],[[17,3497],[-17,5]],[[2955,3011],[262,-4]],[[609,764],[-2,-43]],[[0,4],[1,-4]],[[3,0],[-3,11]],[[2817,3974],[-6,30],[40,28]],[[2861,4040],[37,56]],[[1353,4096],[2,-13]],[[646,3376],[148,15],[123,-43]],[[1828,3064],[13,-28]],[[1865,3007],[52,-54]],[[2330,597],[-10,-33]],[[3207,2001],[1,-2]],[[3208,1999],[0,2]],[[3208,1999],[4,-44]],[[1998,441],[28,24]],[[2812,198],[-148,148]],[[820,3129],[114,190],[-17,29]],[[3243,2104],[-4,5]],[[2248,675],[-28,63]],[[101,3512],[10,-1]],[[2229,1954],[-251,-149]],[[2319,0],[-25,120],[16,72],[-24,160],[44,53]],[[976,2314],[-61,-67]],[[1423,3901],[-7,-1]],[[2286,639],[-38,36]],[[682,716],[-11,-3]],[[2653,2980],[-5,1]],[[3355,2969],[1,0]],[[1137,3350],[37,73]],[[589,3051]],[[589,3051],[28,-3]],[[2330,405],[110,67]],[[1271,2869],[-40,178]],[[4096,1637],[-91,86],[-73,14],[-247,-47],[-63,27]],[[0,4096],[2171,0],[1925,0],[0,-4096],[-4096,0],[0,4096]],[[2407,875],[52,108],[63,28],[-24,13],[24,34],[134,133],[30,-17],[2,-37],[44,3],[-6,21],[16,-19],[-6,-20],[106,44],[-16,-32],[95,-97],[105,53],[35,-34],[3,-74],[-43,-35],[-400,0],[-58,-117],[-69,-18],[-29,68],[-58,-5]],[[100,4054],[6,42],[121,0],[20,-37],[-4,-21],[-143,16]],[[3150,0],[-134,0],[33,167],[72,-81],[29,-86]],[[2660,337],[-323,57],[-32,57],[-59,23],[-35,239],[29,80],[176,-127],[18,-44],[262,-25],[61,-32],[-97,-228]],[[2511,1857],[-109,-153],[0,-114],[-33,0],[0,-57],[-32,0],[32,-113],[-26,-33],[-6,-81],[-51,7],[-79,164],[-32,0],[0,56],[-65,0],[-226,285],[64,115],[33,-115],[129,115],[65,0],[151,60],[109,2],[96,-62],[-20,-76]],[[2855,3014],[-130,0],[13,124],[52,41],[52,-41],[13,-124]],[[1398,3185],[-52,7],[-31,45],[-14,176],[61,-23],[43,-55],[15,-73],[-22,-77]],[[2586,3177],[-88,65],[19,134],[61,78],[76,14],[72,-55],[-26,-110],[-46,-92],[-68,-34]],[[1075,3812],[-124,38],[-35,67],[-3,123],[69,-7],[49,-41],[44,-180]],[[1559,4096],[-63,-56],[32,-228],[-181,142],[-13,86],[27,56],[198,0]],[[3002,4096],[-18,-56],[-129,0],[-98,-171],[-97,114],[-129,-114],[-129,57],[-1,69],[64,101],[537,0]],[[2235,4096],[-4,-51],[-69,-72],[-94,-24],[-87,34],[-23,113],[277,0]],[[587,4096],[3,-113],[-43,-29],[-85,97],[-34,-11],[-12,56],[171,0]],[[1836,4096],[-39,-41],[-42,41],[81,0]],[[3114,2445],[32,-114],[106,-24],[23,-33],[-64,-114],[32,-228],[-142,6],[-117,51],[5,92],[77,63],[15,73],[-23,59],[-106,12],[0,100],[43,9],[22,48],[97,0]],[[897,2219],[-81,55],[97,228],[57,-70],[8,-158],[-81,-55]],[[1141,2670],[-163,2],[2,168],[30,118],[18,4],[15,-61],[46,-35],[148,-79],[-30,-91],[-66,-26]],[[0,3186],[0,792],[75,-6],[211,85],[77,-17],[-10,-71],[-152,-100],[-32,-171],[13,-91],[52,-23],[38,-57],[188,0],[108,-55],[54,-116],[-60,-107],[-37,-7],[-3,81],[-48,85],[-46,5],[-28,-53],[6,-40],[87,-78],[8,-140],[24,-30],[65,0],[64,-57],[65,57],[106,13],[44,-30],[-4,-166],[-114,68],[-129,-57],[-32,57],[-232,27],[-27,87],[32,57],[-36,27],[4,30],[-45,-6],[-64,-58],[-53,7],[57,229],[-2,88],[-88,25],[-29,48],[-99,-105],[3,-42],[61,-72],[47,-313],[-15,-86],[-38,-48],[-66,38],[0,142],[8,7],[-8,147]],[[1922,2618],[8,45],[38,28],[98,-54],[-40,0],[-60,-45],[-13,37],[-31,-11]],[[522,757],[84,9],[-18,-42],[97,-13],[-22,-36],[17,-15],[-38,2],[-17,-42],[-40,9],[-18,-53],[-42,20],[54,64],[-14,26],[-38,-5],[14,42],[-19,34]],[[1708,2149],[1,29],[15,-12],[52,59],[-6,33],[116,-14],[10,-51],[-86,-83],[-30,-68],[25,14],[11,-26],[30,22],[-32,14],[54,32],[54,126],[50,-155],[-126,-108],[-89,51],[18,17],[-33,5],[-18,47],[36,-11],[0,33],[-52,19],[0,27]],[[1808,2173],[10,-18],[42,16],[-33,9],[-8,-19],[-11,12]],[[1732,2155],[11,15],[14,-28],[-9,28],[-10,1],[-6,-16]],[[1782,2086],[7,9],[5,17],[-4,-6],[-8,-20]],[[1849,2036],[34,-14],[16,22],[-30,15],[-20,-23]],[[1891,2080],[39,-20],[6,73],[-39,-21],[-6,-32]],[[1789,2167],[4,-3],[2,4],[-3,3],[-3,-4]]]}