{"objects":{"water":{"type":"GeometryCollection","geometries":[]},"buildings":{"type":"GeometryCollection","geometries":[]},"places":{"type":"GeometryCollection","geometries":[{"type":"Point","properties":{"name:ro":"Stupino","name:nl":"Stoepino","name:ja":"\u30b9\u30c8\u30a5\u30d4\u30ce","name:nn":"Stupino","name:no":"Stupino","name:ar":"\u0633\u062a\u0648\u0628\u064a\u0646\u0648","kind":"locality","min_zoom":8.0,"name:it":"Stupino","name:tl":"Stupino","name:vi":"Stupino","name:sv":"Stupino","name:pl":"Stupino","name:uk":"\u0421\u0442\u0443\u043f\u0456\u043d\u043e","id":256361869,"name:ca":"St\u00fapino","population":66463,"name:fa":"\u0627\u0633\u062a\u0648\u067e\u06cc\u0646\u0648","name:eo":"Stupino","name:en":"Stupino","name":"\u0421\u0442\u0443\u043f\u0438\u043d\u043e","kind_detail":"town","old_name":"\u042d\u043b\u0435\u043a\u0442\u0440\u043e\u0432\u043e\u0437","name:de":"Stupino","source":"openstreetmap.org","name:fr":"Stoupino","name:fi":"Stupino","name:et":"Stupino","name:be":"\u0421\u0442\u0443\u043f\u0456\u043d\u0430","name:zh":"\u65af\u56fe\u76ae\u8bfa","name:es":"St\u00fapino"},"coordinates":[316,3639]},{"type":"Point","properties":{"name:az":"Ka\u015fira","name:ja":"\u30ab\u30b7\u30fc\u30e9","name:nn":"Kasjira","name:no":"Kasjira","name:ko":"\uce74\uc2dc\ub77c","name:ar":"\u0643\u0627\u0634\u064a\u0631\u0627","name:cs":"Ka\u0161ira","kind":"locality","min_zoom":8.0,"name:ro":"Ka\u0219ira","name:it":"Ka\u0161ira","name:tl":"Kashira","name:vi":"Kashira","name:os":"\u041a\u0430\u0448\u0438\u0440\u00e6","name:sv":"Kasjira","name:pl":"Kaszyra","id":256361870,"population":39929,"name:fa":"\u06a9\u0627\u0634\u06cc\u0631\u0627","name:eo":"Ka\u015dira","name:en":"Kashira","name":"\u041a\u0430\u0448\u0438\u0440\u0430","kind_detail":"town","name:de":"Kaschira","source":"openstreetmap.org","name:fr":"Kachira","name:fi":"Ka\u0161ira","name:et":"Ka\u0161ira","name:be":"\u041a\u0430\u0448\u044b\u0440\u0430","name:zh":"\u5361\u5e0c\u62c9","name:es":"Kashira"},"coordinates":[529,3392]},{"type":"Point","properties":{"name:az":"Luxovits\u0131","name:ko":"\ub8e8\ud638\ube44\uce58","name:ar":"\u0644\u0648\u062e\u0648\u0641\u0627\u064a\u062a\u0633\u064a","min_zoom":8.0,"name:ro":"Luhovi\u021b\u00ee","name:it":"Luchovicy","name:tl":"Lukhovitsy","name:pl":"\u0141uchowicy","name:de":"Luchowizy","id":4559181618,"name:ca":"Lukhovitsi","name:fa":"\u0644\u0648\u062e\u0648\u0648\u06cc\u062a\u0633\u06cc","kind_detail":"town","name:tg":"\u041b\u0443\u0445\u043e\u0432\u0438\u0442\u0441\u0438","source":"openstreetmap.org","name:fr":"Loukhovitsy","name:zh":"\u76e7\u970d\u7dad\u9f4a","name:ja":"\u30eb\u30db\u30f4\u30a3\u30c4\u30a3","name:nn":"Lukhovitsy","name:no":"Lukhovitsy","kind":"locality","name:uk":"\u041b\u0443\u0445\u043e\u0432\u0438\u0446\u0456","old_name":"\u0441\u0435\u043b\u044c\u0446\u043e \u0413\u043b\u0443\u0445\u043e\u0432\u0438\u0447\u0438","name:bg":"\u041b\u0443\u0445\u043e\u0432\u0438\u0446\u0438","name:wo":"Lukhovitsy","name:sr":"\u041b\u0443\u0445\u043e\u0432\u0438\u0446\u0438","population":29893,"name:eo":"Lu\u0125ovici","name:en":"Lukhovitsy","name":"\u041b\u0443\u0445\u043e\u0432\u0438\u0446\u044b","name:fi":"Luhovitsy","name:es":"Lujovitsy"},"coordinates":[3084,4035]},{"type":"Point","properties":{"name:sr":"\u041e\u0437\u0458\u043e\u0440\u0438","name:az":"Ozyor\u0131","name:ja":"\u30aa\u30b8\u30e7\u30eb\u30a3","name:nn":"Oziory","name:no":"Oziory","name:ar":"\u0623\u0648\u0632\u0627\u064a\u0648\u0631\u064a","kind":"locality","min_zoom":8.0,"name:it":"Oz\u00ebry","name:tl":"Ozyory","old_name":"\u041e\u0437\u0435\u0440\u043a\u0438","name:be":"\u0410\u0437\u0451\u0440\u044b","name:pl":"Oziory","name:de":"Osjory","name:uk":"\u041e\u0437\u044c\u043e\u0440\u0438","id":256361873,"name:ca":"Oziori","population":25891,"name:fa":"\u0627\u0648\u0632\u06cc\u0648\u0631\u06cc","name:eo":"Ozjori","name:en":"Ozyory","name":"\u041e\u0437\u0451\u0440\u044b","kind_detail":"town","name:tg":"\u041e\u0437\u0451\u0440\u0438","source":"openstreetmap.org","name:fr":"Oziory","name:fi":"Ozjory","name:zh":"\u5967\u7126\u96f7"},"coordinates":[1722,3476]},{"type":"Point","properties":{"name:sr":"\u0417\u0430\u0440\u0430\u0458\u0441\u043a","name:az":"Zaraysk","name:ja":"\u30b6\u30e9\u30a4\u30b9\u30af","name:nn":"Zarajsk","name:no":"Zarajsk","name:ko":"\uc790\ub77c\uc774\uc2a4\ud06c","name:ar":"\u0632\u0627\u0631\u0627\u064a\u0633\u0643","name:cs":"Zarajsk","kind":"locality","min_zoom":8.0,"name:it":"Zarajsk","name:tl":"Zaraysk","name:sv":"Zarajsk","name:pl":"Zarajsk","name:uk":"\u0417\u0430\u0440\u0430\u0439\u0441\u044c\u043a","id":256361874,"name:ca":"Zaraisk","population":23951,"name:fa":"\u0632\u0627\u0631\u0627\u06cc\u0633\u06a9","name:eo":"Zarajsk","name:en":"Zaraysk","name":"\u0417\u0430\u0440\u0430\u0439\u0441\u043a","kind_detail":"town","name:de":"Saraisk","source":"openstreetmap.org","name:fr":"Zara\u00efsk","name:fi":"Zaraisk","name:et":"Zaraisk","name:zh":"\u624e\u8cf4\u65af\u514b","name:es":"Zaraisk"},"coordinates":[2659,2995]},{"type":"Point","properties":{"name:sr":"\u0412\u0435\u045a\u043e\u0432","name:az":"Venyov","name:ja":"\u30f4\u30a7\u30cb\u30e7\u30fc\u30d5","name:lt":"Veniovas","name:no":"Venjov","name:ko":"\ubca0\ub124\ud504","name:ar":"\u0641\u064a\u0646\u064a\u0648\u0641","kind":"locality","min_zoom":8.0,"name:it":"Ven\u00ebv","name:tl":"Venyov","name:pl":"Weniow","name":"\u0412\u0435\u043d\u0451\u0432","id":355945765,"population":14198,"name:fa":"\u0648\u0646\u06cc\u0648\u0641","name:eo":"Venjov","name:en":"Venyov","name:nn":"Venjov","kind_detail":"town","name:de":"Wenjow","source":"openstreetmap.org","name:fr":"Veniov","name:fi":"Venjov","name:zh":"\u97cb\u5c3c\u5967\u592b"},"coordinates":[867,946]},{"type":"Point","properties":{"name:sr":"\u041c\u0438\u0445\u0430\u0458\u043b\u043e\u0432","name:ja":"\u30df\u30cf\u30a4\u30ed\u30d5","name:nn":"Mikhajlov","name:no":"Mikhajlov","name:ko":"\ubbf8\ud558\uc77c\ub85c\ud504","name:ar":"\u0645\u064a\u062e\u0627\u064a\u0644\u0648\u0641 (\u0631\u064a\u0627\u0632\u0627\u0646 \u0623\u0648\u0628\u0644\u0627\u0633\u062a)","kind":"locality","min_zoom":8.0,"name:it":"Michajlov","name:tl":"Mikhaylov","name:be":"\u041c\u0456\u0445\u0430\u0439\u043b\u0430\u045e","id":309353206,"population":10807,"name:fa":"\u0645\u06cc\u062e\u0627\u0626\u06cc\u0644\u0648\u0641\u060c \u0627\u0648\u0628\u0644\u0627\u0633\u062a \u0631\u06cc\u0627\u0632\u0627\u0646","name:eo":"Mi\u0125ajlov","name:en":"Mikhaylov","name":"\u041c\u0438\u0445\u0430\u0439\u043b\u043e\u0432","kind_detail":"town","name:de":"Michailow","source":"openstreetmap.org","name:fr":"Mikha\u00eflov","name:fi":"Mihailov","name:zh":"\u7c73\u54c8\u4f0a\u6d1b\u592b","name:es":"Mij\u00e1ilov"},"coordinates":[3084,341]},{"type":"Point","properties":{"kind":"locality","name:en":"Serebryanye Prudy","name":"\u0421\u0435\u0440\u0435\u0431\u0440\u044f\u043d\u044b\u0435 \u041f\u0440\u0443\u0434\u044b","kind_detail":"town","name:ar":"\u0633\u064a\u0631\u064a\u0628\u0631\u064a\u0646\u064a\u064a \u0628\u0631\u0648\u062f\u064a","name:de":"Serebrjanyje Prudy","source":"openstreetmap.org","min_zoom":8.0,"name:it":"Serebrjanye Prudy","name:uk":"\u0421\u0440\u0456\u0431\u043d\u0456 \u041f\u0440\u0443\u0434\u0438","name:pl":"Sieriebrianyje Prudy","id":306545784,"name:es":"Ser\u00e9brianye Prud\u00fd","population":9358},"coordinates":[2195,1535]},{"type":"Point","properties":{"kind":"locality","name":"\u0411\u0435\u043b\u043e\u043e\u043c\u0443\u0442","kind_detail":"town","name:ar":"\u0628\u064a\u0644\u0648\u0648\u0645\u0648\u062a","name:de":"Beloomut","source":"openstreetmap.org","min_zoom":8.0,"name:it":"Beloomut","id":256361878,"population":6266},"coordinates":[3993,3928]},{"type":"Point","properties":{"kind":"locality","name:en":"Oktyabr\u2019skiy","name":"\u041e\u043a\u0442\u044f\u0431\u0440\u044c\u0441\u043a\u0438\u0439","kind_detail":"town","source":"openstreetmap.org","min_zoom":8.0,"population":5510,"id":346277513,"name:ja":"\u30aa\u30af\u30c1\u30e3\u30d6\u30ea\u30b9\u30ad\u30fc"},"coordinates":[2685,316]},{"type":"Point","properties":{"kind":"locality","name:en":"Zakharovo","name":"\u0417\u0430\u0445\u0430\u0440\u043e\u0432\u043e","kind_detail":"town","source":"openstreetmap.org","min_zoom":8.0,"name:hy":"\u0536\u0561\u056d\u0561\u0580\u0578\u057e\u0578","id":346273331,"population":3500},"coordinates":[3824,1047]}]},"transit":{"type":"GeometryCollection","geometries":[{"type":"MultiLineString","properties":{"kind":"train","name":"7 \u041c\u043e\u0441\u043a\u0432\u0430 \u2014 \u0410\u043b\u043c\u0430\u0442\u044b","sort_rank":275,"name:de":"7 Moskau - Almaty","source":"openstreetmap.org","min_zoom":6.0,"ref":"7","osm_relation":true,"description":"7 Moskau -> Almaty \/ 7 Almaty -> Moskau"},"arcs":[[6],[7],[8]]},{"type":"MultiLineString","properties":{"kind":"train","network":"\u0420\u0416\u0414","sort_rank":275,"source":"openstreetmap.org","min_zoom":6.0,"ref":"379\/380","osm_relation":true,"name":"\u041f\u043e\u0435\u0437\u0434 \u2116379\/380: \u041c\u043e\u0441\u043a\u0432\u0430 \u2014 \u041a\u0430\u043c\u044b\u0448\u0438\u043d"},"arcs":[[9],[10],[11]]},{"type":"MultiLineString","properties":{"kind":"train","name":"\u041f\u043e\u0435\u0437\u0434 \u2116025 \u041c\u043e\u0441\u043a\u0432\u0430 \u2014 \u0412\u043e\u0440\u043e\u043d\u0435\u0436","sort_rank":275,"source":"openstreetmap.org","min_zoom":6.0,"ref":"025","osm_relation":true,"network":"\u0420\u0416\u0414"},"arcs":[[12],[13],[14]]},{"type":"MultiLineString","properties":{"kind":"train","network":"\u0420\u0416\u0414","sort_rank":275,"source":"openstreetmap.org","min_zoom":6.0,"ref":"343","osm_relation":true,"name":"\u041f\u043e\u0435\u0437\u0434 \u2116343: \u041c\u043e\u0441\u043a\u0432\u0430 \u2014 \u0411\u0430\u043b\u0430\u0448\u043e\u0432-1"},"arcs":[[15],[16],[17]]},{"type":"MultiLineString","properties":{"source":"openstreetmap.org","kind":"train","sort_rank":275,"ref":"\u041c\u043e\u0441\u043a\u0432\u0430 - \u041e\u0436\u0435\u0440\u0435\u043b\u044c\u0435","min_zoom":6.0,"osm_relation":true},"arcs":[[18],[19]]},{"type":"MultiLineString","properties":{"kind":"train","network":"\u0420\u0416\u0414","sort_rank":275,"source":"openstreetmap.org","min_zoom":6.0,"ref":"029 \u041c\u043e\u0441\u043a\u0432\u0430 - \u041b\u0438\u043f\u0435\u0446\u043a","osm_relation":true,"name":"\u041f\u043e\u0435\u0437\u0434 \u2116029: \u041c\u043e\u0441\u043a\u0432\u0430 - \u041b\u0438\u043f\u0435\u0446\u043a"},"arcs":[[20],[21]]},{"type":"LineString","properties":{"kind":"train","name":"5\/6 \u0422\u0430\u0448\u043a\u0435\u043d\u0442<=>\u041c\u043e\u0441\u043a\u0432\u0430","sort_rank":275,"name:de":"5\/6 Taschkent<=>Moskau","source":"openstreetmap.org","min_zoom":6.0,"network":"\u0423\u0422\u0419","ref":"5\/6","osm_relation":true,"description":"5 \u0422\u0430\u0448\u043a\u0435\u043d\u0442 -> \u041c\u043e\u0441\u043a\u0432\u0430 \/ 6 \u041c\u043e\u0441\u043a\u0432\u0430 -> \u0422\u0430\u0448\u043a\u0435\u043d\u0442"},"arcs":[22]},{"type":"LineString","properties":{"kind":"train","name":"\u041c\u043e\u0441\u043a\u0432\u0430 \u2014 \u0410\u0434\u043b\u0435\u0440","sort_rank":275,"name:de":"Moskau \u2014 Adler","source":"openstreetmap.org","min_zoom":6.0,"ref":"\u041c\u043e\u0441\u043a\u0432\u0430 - \u0410\u0434\u043b\u0435\u0440","osm_relation":true},"arcs":[23]},{"type":"MultiLineString","properties":{"source":"openstreetmap.org","kind":"train","name":"\u0420\u0435\u043b\u044c\u0441\u043e\u0432\u044b\u0439 \u0430\u0432\u0442\u043e\u0431\u0443\u0441 \u0413\u043e\u043b\u0443\u0442\u0432\u0438\u043d - \u041e\u0437\u0451\u0440\u044b","sort_rank":275,"min_zoom":6.0,"osm_relation":true},"arcs":[[24],[25],[26],[27],[28]]},{"type":"LineString","properties":{"kind":"train","name":"\u041f\u043e\u0435\u0437\u0434 \u2116001\/002 \u041c\u043e\u0441\u043a\u0432\u0430 \u2014 \u0412\u043e\u043b\u0433\u043e\u0433\u0440\u0430\u0434","sort_rank":275,"source":"openstreetmap.org","min_zoom":6.0,"operator":"\u0420\u0416\u0414","ref":"001\/002","osm_relation":true},"arcs":[29]},{"type":"MultiLineString","properties":{"kind":"train","network":"\u0420\u0416\u0414","sort_rank":275,"source":"openstreetmap.org","min_zoom":6.0,"operator":"\u0426\u0435\u043d\u0442\u0440\u0430\u043b\u044c\u043d\u0430\u044f \u043f\u0440\u0438\u0433\u043e\u0440\u043e\u0434\u043d\u0430\u044f \u043f\u0430\u0441\u0441\u0430\u0436\u0438\u0440\u0441\u043a\u0430\u044f \u043a\u043e\u043c\u043f\u0430\u043d\u0438\u044f","ref":"\u041c\u043e\u0441\u043a\u0432\u0430 \u2014 \u0420\u044f\u0437\u0430\u043d\u044c","osm_relation":true,"name":"\u041f\u043e\u0435\u0437\u0434: \u041c\u043e\u0441\u043a\u0432\u0430 \u2014 \u0420\u044f\u0437\u0430\u043d\u044c-1"},"arcs":[[30],[31]]},{"type":"MultiLineString","properties":{"source":"openstreetmap.org","kind":"train","network":"\u0420\u0416\u0414","sort_rank":275,"ref":"355\/356 \u041c\u043e\u0441\u043a\u0432\u0430 \u2014 \u0423\u0444\u0430","min_zoom":6.0,"osm_relation":true},"arcs":[[32],[33]]},{"type":"MultiLineString","properties":{"source":"openstreetmap.org","kind":"train","name":"\u0420\u0435\u043b\u044c\u0441\u043e\u0432\u044b\u0439 \u0430\u0432\u0442\u043e\u0431\u0443\u0441 \u041e\u0437\u0451\u0440\u044b - \u0413\u043e\u043b\u0443\u0442\u0432\u0438\u043d","sort_rank":275,"min_zoom":6.0,"osm_relation":true},"arcs":[[34],[35],[36],[37],[38]]},{"type":"LineString","properties":{"kind":"train","name":"\u0416\u0438\u043b\u0451\u0432\u043e \u2014 \u041a\u0443\u0440\u043e\u0432\u0441\u043a\u0430\u044f","sort_rank":275,"source":"openstreetmap.org","min_zoom":6.0,"ref":"\u0416\u0438\u043b\u0451\u0432\u043e - \u041a\u0443\u0440\u043e\u0432\u0441\u043a\u0430\u044f","osm_relation":true,"network":"\u041c\u043e\u0441\u043a\u043e\u0432\u0441\u043a\u0430\u044f \u043e\u0431\u043b\u0430\u0441\u0442\u044c"},"arcs":[39]}]},"pois":{"type":"GeometryCollection","geometries":[]},"boundaries":{"type":"GeometryCollection","geometries":[{"type":"LineString","properties":{"name:right:ja":"\u30ea\u30e3\u30b6\u30f3\u5dde","name:left:sv":"Tula oblast","id:right":-71950,"name:left:uk":"\u0422\u0443\u043b\u044c\u0441\u044c\u043a\u0430 \u043e\u0431\u043b\u0430\u0441\u0442\u044c","name:left:nl":"Oblast Toela","name:left:lt":"Tulos sritis","name:left:be":"\u0422\u0443\u043b\u044c\u0441\u043a\u0430\u044f \u0432\u043e\u0431\u043b\u0430\u0441\u0446\u044c","name:left:hu":"Tulai ter\u00fclet","id":-81993,"name:right":"\u0420\u044f\u0437\u0430\u043d\u0441\u043a\u0430\u044f \u043e\u0431\u043b\u0430\u0441\u0442\u044c","name:left:en":"Tula Oblast","name:right:ca":"Prov\u00edncia de Riazan","kind_detail":"4","name:left:ca":"Prov\u00edncia de Tula","source":"openstreetmap.org","id:left":-81993,"name:left:es":"\u00d3blast de Tula","name:right:cs":"Rjaza\u0148sk\u00e1 oblast","name:left:cs":"Tulsk\u00e1 oblast","name:left":"\u0422\u0443\u043b\u044c\u0441\u043a\u0430\u044f \u043e\u0431\u043b\u0430\u0441\u0442\u044c","name:left:ka":"\u10e2\u10e3\u10da\u10d8\u10e1 \u10dd\u10da\u10e5\u10d8","name:left:pl":"Obw\u00f3d tulski","name:left:os":"\u0422\u0443\u043b\u00e6\u0439\u044b \u043e\u0431\u043b\u00e6\u0441\u0442","name:left:tt":"\u0422\u0443\u043b\u0430 \u04e9\u043b\u043a\u04d9\u0441\u0435","name:left:ro":"Regiunea Tula","name:left:de":"Oblast Tula","name:left:it":"Oblast' di Tula","name:right:pl":"Obw\u00f3d riaza\u0144ski","name:right:en":"Ryazan Oblast","osm_relation":true,"name:right:lt":"Riazan\u0117s sritis","kind":"region","name":"\u0422\u0443\u043b\u044c\u0441\u043a\u0430\u044f \u043e\u0431\u043b\u0430\u0441\u0442\u044c - \u0420\u044f\u0437\u0430\u043d\u0441\u043a\u0430\u044f \u043e\u0431\u043b\u0430\u0441\u0442\u044c","name:right:de":"Oblast Rjasan","min_zoom":8.0,"sort_rank":256,"name:left:fr":"Oblast de Toula"},"arcs":[0]},{"type":"LineString","properties":{"name:right:ja":"\u30ea\u30e3\u30b6\u30f3\u5dde","name:left:sv":"Tula oblast","id:right":-71950,"name:left:uk":"\u0422\u0443\u043b\u044c\u0441\u044c\u043a\u0430 \u043e\u0431\u043b\u0430\u0441\u0442\u044c","name:left:nl":"Oblast Toela","name:left:lt":"Tulos sritis","name:left:be":"\u0422\u0443\u043b\u044c\u0441\u043a\u0430\u044f \u0432\u043e\u0431\u043b\u0430\u0441\u0446\u044c","name:left:hu":"Tulai ter\u00fclet","id":-81993,"name:right":"\u0420\u044f\u0437\u0430\u043d\u0441\u043a\u0430\u044f \u043e\u0431\u043b\u0430\u0441\u0442\u044c","name:left:en":"Tula Oblast","name:right:ca":"Prov\u00edncia de Riazan","kind_detail":"4","name:left:ca":"Prov\u00edncia de Tula","source":"openstreetmap.org","id:left":-81993,"name:left:es":"\u00d3blast de Tula","name:right:cs":"Rjaza\u0148sk\u00e1 oblast","name:left:cs":"Tulsk\u00e1 oblast","name:left":"\u0422\u0443\u043b\u044c\u0441\u043a\u0430\u044f \u043e\u0431\u043b\u0430\u0441\u0442\u044c","name:left:ka":"\u10e2\u10e3\u10da\u10d8\u10e1 \u10dd\u10da\u10e5\u10d8","name:left:pl":"Obw\u00f3d tulski","name:left:os":"\u0422\u0443\u043b\u00e6\u0439\u044b \u043e\u0431\u043b\u00e6\u0441\u0442","name:left:tt":"\u0422\u0443\u043b\u0430 \u04e9\u043b\u043a\u04d9\u0441\u0435","name:left:ro":"Regiunea Tula","name:left:de":"Oblast Tula","name:left:it":"Oblast' di Tula","name:right:pl":"Obw\u00f3d riaza\u0144ski","name:right:en":"Ryazan Oblast","osm_relation":true,"name:right:lt":"Riazan\u0117s sritis","kind":"region","name":"\u0422\u0443\u043b\u044c\u0441\u043a\u0430\u044f \u043e\u0431\u043b\u0430\u0441\u0442\u044c - \u0420\u044f\u0437\u0430\u043d\u0441\u043a\u0430\u044f \u043e\u0431\u043b\u0430\u0441\u0442\u044c","name:right:de":"Oblast Rjasan","min_zoom":8.0,"sort_rank":256,"name:left:fr":"Oblast de Toula"},"arcs":[1]},{"type":"MultiLineString","properties":{"name:ro":"Regiunea Tula","name:nl":"Oblast Toela","name:ka":"\u10e2\u10e3\u10da\u10d8\u10e1 \u10dd\u10da\u10e5\u10d8","name:cs":"Tulsk\u00e1 oblast","name:tt":"\u0422\u0443\u043b\u0430 \u04e9\u043b\u043a\u04d9\u0441\u0435","min_zoom":8.0,"name:it":"Oblast' di Tula","name:uk":"\u0422\u0443\u043b\u044c\u0441\u044c\u043a\u0430 \u043e\u0431\u043b\u0430\u0441\u0442\u044c","name:be":"\u0422\u0443\u043b\u044c\u0441\u043a\u0430\u044f \u0432\u043e\u0431\u043b\u0430\u0441\u0446\u044c","name:os":"\u0422\u0443\u043b\u00e6\u0439\u044b \u043e\u0431\u043b\u00e6\u0441\u0442","name:sv":"Tula oblast","name:pl":"Obw\u00f3d tulski","name:hu":"Tulai ter\u00fclet","id":-81993,"name:ca":"Prov\u00edncia de Tula","name":"\u0422\u0443\u043b\u044c\u0441\u043a\u0430\u044f \u043e\u0431\u043b\u0430\u0441\u0442\u044c","kind":"region","name:en":"Tula Oblast","name:lt":"Tulos sritis","sort_rank":256,"kind_detail":"4","name:de":"Oblast Tula","source":"openstreetmap.org","name:fr":"Oblast de Toula","osm_relation":true,"name:es":"\u00d3blast de Tula"},"arcs":[[2],[3]]},{"type":"LineString","properties":{"kind":"region","name:en":"Ryazan Oblast","name":"\u0420\u044f\u0437\u0430\u043d\u0441\u043a\u0430\u044f \u043e\u0431\u043b\u0430\u0441\u0442\u044c","name:lt":"Riazan\u0117s sritis","sort_rank":256,"kind_detail":"4","name:cs":"Rjaza\u0148sk\u00e1 oblast","name:de":"Oblast Rjasan","source":"openstreetmap.org","min_zoom":8.0,"name:ca":"Prov\u00edncia de Riazan","name:pl":"Obw\u00f3d riaza\u0144ski","id":-71950,"osm_relation":true,"name:ja":"\u30ea\u30e3\u30b6\u30f3\u5dde"},"arcs":[4]},{"type":"LineString","properties":{"kind":"region","name:en":"Ryazan Oblast","name":"\u0420\u044f\u0437\u0430\u043d\u0441\u043a\u0430\u044f \u043e\u0431\u043b\u0430\u0441\u0442\u044c","name:lt":"Riazan\u0117s sritis","sort_rank":256,"kind_detail":"4","name:cs":"Rjaza\u0148sk\u00e1 oblast","name:de":"Oblast Rjasan","source":"openstreetmap.org","min_zoom":8.0,"name:ca":"Prov\u00edncia de Riazan","name:pl":"Obw\u00f3d riaza\u0144ski","id":-71950,"osm_relation":true,"name:ja":"\u30ea\u30e3\u30b6\u30f3\u5dde"},"arcs":[5]}]},"roads":{"type":"GeometryCollection","geometries":[{"type":"LineString","properties":{"kind":"major_road","network":"ru:regional","sort_rank":380,"kind_detail":"primary","bus_network":null,"source":"openstreetmap.org","min_zoom":8.0,"bus_shield_text":"9*","shield_text":"46\u041a","ref":"46\u041a-4160","id":166290701},"arcs":[40]},{"type":"LineString","properties":{"source":"openstreetmap.org","bus_network":null,"bus_shield_text":"43","sort_rank":380,"kind_detail":"primary","min_zoom":8.0,"kind":"major_road"},"arcs":[41]},{"type":"MultiLineString","properties":{"bus_network":null,"network":"ru:national","sort_rank":381,"kind_detail":"trunk","kind":"major_road","source":"openstreetmap.org","min_zoom":8.0,"bus_shield_text":"601","shield_text":"22","ref":"\u0420-22"},"arcs":[[42],[43],[44]]},{"type":"MultiLineString","properties":{"kind":"major_road","network":"e-road","sort_rank":381,"kind_detail":"trunk","source":"openstreetmap.org","min_zoom":8.0,"shield_text":"115","ref":"\u041c-4"},"arcs":[[45],[46],[47],[48],[49],[50],[51],[52],[53],[54],[55],[56],[57],[58]]},{"type":"LineString","properties":{"kind":"major_road","network":"ru:regional","sort_rank":380,"kind_detail":"primary","source":"openstreetmap.org","min_zoom":8.0,"landuse_kind":"urban_area","shield_text":"46\u041a","ref":"\u0420115"},"arcs":[59]},{"type":"LineString","properties":{"bus_network":null,"network":"ru:regional","sort_rank":380,"kind_detail":"primary","kind":"major_road","source":"openstreetmap.org","min_zoom":8.0,"bus_shield_text":"26","shield_text":"46\u041a","ref":"\u0420115"},"arcs":[60]},{"type":"LineString","properties":{"kind":"major_road","network":"ru:national","sort_rank":380,"kind_detail":"primary","bus_network":null,"source":"openstreetmap.org","min_zoom":8.0,"bus_shield_text":"207","shield_text":"132","ref":"\u0420-132","id":31793785},"arcs":[61]},{"type":"MultiLineString","properties":{"sort_rank":380,"kind_detail":"primary","min_zoom":8.0,"kind":"major_road","source":"openstreetmap.org"},"arcs":[[62],[63],[64],[65],[66],[67],[68],[69],[70],[71],[72],[73],[74],[75],[76],[77],[78],[79],[80],[81],[82],[83],[84],[85],[86],[87],[88],[89],[90],[91],[92]]},{"type":"MultiLineString","properties":{"source":"openstreetmap.org","bus_network":null,"bus_shield_text":"44","sort_rank":380,"kind_detail":"primary","min_zoom":8.0,"kind":"major_road"},"arcs":[[93],[94]]},{"type":"LineString","properties":{"kind":"major_road","network":"e-road","sort_rank":381,"kind_detail":"trunk","source":"openstreetmap.org","min_zoom":8.0,"shield_text":"119","ref":"\u0420-22","id":386448270},"arcs":[95]},{"type":"LineString","properties":{"bus_network":null,"sort_rank":380,"kind_detail":"primary","kind":"major_road","source":"openstreetmap.org","min_zoom":8.0,"bus_shield_text":"22*","landuse_kind":"urban_area"},"arcs":[96]},{"type":"LineString","properties":{"kind":"major_road","network":"ru:regional","sort_rank":380,"kind_detail":"primary","old_name":"\u0422\u0443\u043c\u0435\u043d\u0441\u043a\u043e\u0435 \u0448\u043e\u0441\u0441\u0435","bus_network":null,"source":"openstreetmap.org","min_zoom":8.0,"bus_shield_text":"22","shield_text":"46\u041a","ref":"\u0420115","id":204371111},"arcs":[97]},{"type":"LineString","properties":{"bus_network":null,"network":"ru:national","sort_rank":381,"kind_detail":"trunk","kind":"major_road","source":"openstreetmap.org","min_zoom":8.0,"bus_shield_text":"26","shield_text":"5","ref":"\u041c-5"},"arcs":[98]},{"type":"MultiLineString","properties":{"bus_network":null,"network":"ru:national","sort_rank":380,"kind_detail":"primary","kind":"major_road","source":"openstreetmap.org","min_zoom":8.0,"bus_shield_text":"528","shield_text":"132","ref":"\u0420-132"},"arcs":[[99],[100]]},{"type":"MultiLineString","properties":{"bus_network":null,"sort_rank":380,"kind_detail":"primary","kind":"major_road","source":"openstreetmap.org","min_zoom":8.0,"bus_shield_text":"43","landuse_kind":"urban_area"},"arcs":[[101],[102],[103],[104]]},{"type":"MultiLineString","properties":{"bus_network":null,"network":"e-road","sort_rank":381,"kind_detail":"trunk","kind":"major_road","source":"openstreetmap.org","min_zoom":8.0,"bus_shield_text":"31","shield_text":"30","landuse_kind":"urban_area","ref":"\u041c-5"},"arcs":[[105],[106]]},{"type":"LineString","properties":{"kind":"ferry","name":"\u0422\u0435\u043f\u043b\u043e\u0445\u043e\u0434 \u041f\u0440\u0438\u0442\u044b\u043a\u0430 - \u0411\u0430\u0447\u043c\u0430\u043d\u043e\u0432\u043e","sort_rank":355,"source":"openstreetmap.org","min_zoom":8.0,"ref":"\u0411\u0430\u0447\u043c\u0430\u043d\u043e\u0432\u043e - \u041f\u0440\u0438\u0442\u044b\u043a\u0430","id":-3840269,"osm_relation":true},"arcs":[107]},{"type":"LineString","properties":{"bus_network":null,"sort_rank":380,"kind_detail":"primary","kind":"major_road","source":"openstreetmap.org","min_zoom":8.0,"bus_shield_text":"57","landuse_kind":"urban_area"},"arcs":[108]},{"type":"LineString","properties":{"kind":"major_road","sort_rank":380,"kind_detail":"primary","bus_network":null,"source":"openstreetmap.org","min_zoom":8.0,"bus_shield_text":"528","ref":"\u0420-132","id":39210775},"arcs":[109]},{"type":"LineString","properties":{"bus_network":null,"network":"ru:regional","sort_rank":380,"kind_detail":"primary","kind":"major_road","source":"openstreetmap.org","min_zoom":8.0,"bus_shield_text":"22*","shield_text":"46\u041a","ref":"46\u041a-4160"},"arcs":[110]},{"type":"LineString","properties":{"source":"openstreetmap.org","bus_network":null,"bus_shield_text":"57","sort_rank":380,"kind_detail":"primary","min_zoom":8.0,"kind":"major_road"},"arcs":[111]},{"type":"LineString","properties":{"bus_network":null,"sort_rank":380,"kind_detail":"primary","kind":"major_road","source":"openstreetmap.org","min_zoom":8.0,"bus_shield_text":"24**","loc_name":"\u0421\u0442\u0430\u0440\u0430\u044f \u041a\u0430\u0448\u0438\u0440\u043a\u0430"},"arcs":[112]},{"type":"LineString","properties":{"source":"openstreetmap.org","bus_network":null,"bus_shield_text":"502","sort_rank":380,"kind_detail":"primary","min_zoom":8.0,"kind":"major_road"},"arcs":[113]},{"type":"LineString","properties":{"kind":"major_road","sort_rank":380,"kind_detail":"primary","bus_network":null,"source":"openstreetmap.org","min_zoom":8.0,"bus_shield_text":"23","landuse_kind":"urban_area","id":158025799},"arcs":[114]},{"type":"MultiLineString","properties":{"bus_network":null,"sort_rank":380,"kind_detail":"primary","old_name":"\u0422\u0443\u043c\u0435\u043d\u0441\u043a\u043e\u0435 \u0448\u043e\u0441\u0441\u0435","kind":"major_road","source":"openstreetmap.org","min_zoom":8.0,"bus_shield_text":"22","landuse_kind":"urban_area"},"arcs":[[115],[116]]},{"type":"MultiLineString","properties":{"kind":"major_road","network":"ru:regional","sort_rank":380,"kind_detail":"primary","source":"openstreetmap.org","min_zoom":8.0,"shield_text":"46\u041a","ref":"\u0420115"},"arcs":[[117],[118],[119]]},{"type":"LineString","properties":{"kind":"major_road","sort_rank":380,"kind_detail":"primary","bus_network":null,"source":"openstreetmap.org","min_zoom":8.0,"bus_shield_text":"528","id":169255005},"arcs":[120]},{"type":"LineString","properties":{"bus_network":null,"network":"ru:national","sort_rank":381,"kind_detail":"trunk","kind":"major_road","source":"openstreetmap.org","min_zoom":8.0,"bus_shield_text":"31","shield_text":"5","ref":"\u041c-5"},"arcs":[121]},{"type":"MultiLineString","properties":{"sort_rank":381,"source":"openstreetmap.org","min_zoom":8.0,"kind":"major_road","kind_detail":"trunk"},"arcs":[[122],[123],[124],[125],[126]]},{"type":"MultiLineString","properties":{"bus_network":null,"sort_rank":380,"kind_detail":"primary","kind":"major_road","source":"openstreetmap.org","min_zoom":8.0,"bus_shield_text":"349","landuse_kind":"urban_area"},"arcs":[[127],[128]]},{"type":"MultiLineString","properties":{"kind":"major_road","network":"ru:national","sort_rank":381,"kind_detail":"trunk","source":"openstreetmap.org","min_zoom":8.0,"shield_text":"22","ref":"\u0420-22"},"arcs":[[129],[130]]},{"type":"LineString","properties":{"kind":"major_road","network":"ru:regional","sort_rank":380,"kind_detail":"primary","bus_shield_text":"22","bus_network":null,"source":"openstreetmap.org","min_zoom":8.0,"old_name":"\u0422\u0443\u043c\u0435\u043d\u0441\u043a\u043e\u0435 \u0448\u043e\u0441\u0441\u0435","shield_text":"46\u041a","landuse_kind":"urban_area","ref":"\u0420115","id":204371111},"arcs":[131]},{"type":"MultiLineString","properties":{"source":"openstreetmap.org","bus_network":null,"bus_shield_text":"23","sort_rank":380,"kind_detail":"primary","min_zoom":8.0,"kind":"major_road"},"arcs":[[132],[133],[134]]},{"type":"LineString","properties":{"bus_network":null,"network":"ru:regional","sort_rank":380,"kind_detail":"primary","kind":"major_road","source":"openstreetmap.org","min_zoom":8.0,"bus_shield_text":"9*","shield_text":"46\u041a","landuse_kind":"urban_area"},"arcs":[135]},{"type":"LineString","properties":{"bus_network":null,"network":"ru:national","sort_rank":381,"kind_detail":"trunk","kind":"major_road","source":"openstreetmap.org","min_zoom":8.0,"bus_shield_text":"999","shield_text":"5","ref":"\u041c-5"},"arcs":[136]},{"type":"MultiLineString","properties":{"kind":"major_road","network":"ru:national","sort_rank":380,"kind_detail":"primary","source":"openstreetmap.org","min_zoom":8.0,"shield_text":"132","ref":"\u0420-132"},"arcs":[[137],[138]]},{"type":"MultiLineString","properties":{"bus_network":null,"sort_rank":380,"kind_detail":"primary","kind":"major_road","source":"openstreetmap.org","min_zoom":8.0,"bus_shield_text":"24**","landuse_kind":"urban_area"},"arcs":[[139],[140]]},{"type":"LineString","properties":{"bus_network":null,"network":"ru:regional","sort_rank":380,"kind_detail":"primary","kind":"major_road","source":"openstreetmap.org","min_zoom":8.0,"bus_shield_text":"26","shield_text":"46\u041a","landuse_kind":"urban_area","ref":"\u0420115"},"arcs":[141]},{"type":"LineString","properties":{"bus_network":null,"network":"ru:national","sort_rank":381,"landuse_kind":"urban_area","kind":"major_road","source":"openstreetmap.org","min_zoom":8.0,"bus_shield_text":"26","shield_text":"5","kind_detail":"trunk","ref":"\u041c-5"},"arcs":[142]},{"type":"MultiLineString","properties":{"bus_network":null,"network":"e-road","sort_rank":381,"kind_detail":"trunk","kind":"major_road","source":"openstreetmap.org","min_zoom":8.0,"bus_shield_text":"760","shield_text":"115","ref":"\u041c-4"},"arcs":[[143],[144]]},{"type":"MultiLineString","properties":{"source":"openstreetmap.org","kind":"major_road","landuse_kind":"urban_area","sort_rank":380,"kind_detail":"primary","min_zoom":8.0},"arcs":[[145],[146],[147],[148],[149]]},{"type":"MultiLineString","properties":{"kind":"highway","network":"ru:national","sort_rank":383,"kind_detail":"motorway","source":"openstreetmap.org","min_zoom":8.0,"all_networks":["ru:national","AsianHighway","e-road","e-road"],"shield_text":"22","ref":"\u041c-4","all_shield_texts":["22","8","115","119"]},"arcs":[[150],[151]]},{"type":"MultiLineString","properties":{"bus_network":null,"network":"ru:national","sort_rank":381,"landuse_kind":"urban_area","kind":"major_road","source":"openstreetmap.org","min_zoom":8.0,"bus_shield_text":"31","shield_text":"5","kind_detail":"trunk","ref":"\u041c-5"},"arcs":[[152],[153]]},{"type":"LineString","properties":{"kind":"major_road","network":"ru:regional","sort_rank":380,"kind_detail":"primary","bus_network":null,"source":"openstreetmap.org","min_zoom":8.0,"bus_shield_text":"9*","shield_text":"46\u041a","landuse_kind":"urban_area","ref":"46\u041a-4160","id":166290701},"arcs":[154]},{"type":"LineString","properties":{"kind":"major_road","sort_rank":380,"kind_detail":"primary","bus_network":null,"source":"openstreetmap.org","min_zoom":8.0,"bus_shield_text":"5\u0431","landuse_kind":"urban_area","id":56299947},"arcs":[155]},{"type":"MultiLineString","properties":{"source":"openstreetmap.org","bus_network":null,"bus_shield_text":"23*","sort_rank":380,"kind_detail":"primary","min_zoom":8.0,"kind":"major_road"},"arcs":[[156],[157]]},{"type":"MultiLineString","properties":{"kind":"major_road","network":"ru:regional","sort_rank":380,"kind_detail":"primary","source":"openstreetmap.org","min_zoom":8.0,"shield_text":"46\u041a","ref":"46\u041a-5101"},"arcs":[[158],[159]]},{"type":"LineString","properties":{"kind":"ferry","name":"\u0422\u0435\u043f\u043b\u043e\u0445\u043e\u0434 \u0411\u0430\u0447\u043c\u0430\u043d\u043e\u0432\u043e - \u041f\u0440\u0438\u0442\u044b\u043a\u0430","sort_rank":355,"source":"openstreetmap.org","min_zoom":8.0,"ref":"\u0411\u0430\u0447\u043c\u0430\u043d\u043e\u0432\u043e - \u041f\u0440\u0438\u0442\u044b\u043a\u0430","id":-3840268,"osm_relation":true},"arcs":[160]},{"type":"LineString","properties":{"bus_network":null,"sort_rank":380,"kind_detail":"primary","kind":"major_road","source":"openstreetmap.org","min_zoom":8.0,"bus_shield_text":"1","landuse_kind":"urban_area"},"arcs":[161]},{"type":"MultiLineString","properties":{"kind":"highway","network":"e-road","sort_rank":383,"kind_detail":"motorway","source":"openstreetmap.org","min_zoom":8.0,"all_networks":["e-road"],"shield_text":"115","ref":"\u041c-4","all_shield_texts":["115"]},"arcs":[[162],[163],[164],[165],[166],[167]]},{"type":"LineString","properties":{"source":"openstreetmap.org","bus_network":null,"bus_shield_text":"24**","sort_rank":380,"kind_detail":"primary","min_zoom":8.0,"kind":"major_road"},"arcs":[168]},{"type":"LineString","properties":{"bus_network":null,"network":"ru:national","sort_rank":381,"kind_detail":"trunk","kind":"major_road","source":"openstreetmap.org","min_zoom":8.0,"bus_shield_text":"491","shield_text":"22","ref":"\u0420-22"},"arcs":[169]},{"type":"MultiLineString","properties":{"source":"openstreetmap.org","kind":"major_road","sort_rank":380,"kind_detail":"primary","ref":"\u0420-132","min_zoom":8.0},"arcs":[[170],[171],[172]]},{"type":"LineString","properties":{"kind":"major_road","sort_rank":380,"kind_detail":"primary","bus_network":null,"source":"openstreetmap.org","min_zoom":8.0,"bus_shield_text":"24**","loc_name":"\u0421\u0442\u0430\u0440\u0430\u044f \u041a\u0430\u0448\u0438\u0440\u043a\u0430","landuse_kind":"urban_area","id":463885238},"arcs":[173]},{"type":"MultiLineString","properties":{"source":"openstreetmap.org","bus_network":null,"bus_shield_text":"42*","sort_rank":380,"kind_detail":"primary","min_zoom":8.0,"kind":"major_road"},"arcs":[[174],[175],[176]]},{"type":"MultiLineString","properties":{"bus_network":null,"sort_rank":380,"kind_detail":"primary","kind":"major_road","source":"openstreetmap.org","min_zoom":8.0,"bus_shield_text":"22","landuse_kind":"urban_area"},"arcs":[[177],[178]]}]},"earth":{"type":"GeometryCollection","geometries":[{"type":"Polygon","properties":{"sort_rank":10,"source":"naturalearthdata.com","min_zoom":0.0,"kind":"earth","area":98022885885},"arcs":[[179]]}]},"landuse":{"type":"GeometryCollection","geometries":[{"type":"MultiPolygon","properties":{"source":"naturalearthdata.com","kind":"urban_area","name":"","area":6932720887,"sort_rank":11,"min_zoom":4.0},"arcs":[[[180]],[[181]],[[182]],[[183]],[[184]]]},{"type":"MultiPolygon","properties":{"source":"openstreetmap.org","kind":"residential","tier":2,"area":46436395,"sort_rank":20,"min_zoom":8.0},"arcs":[[[185]]]}]}},"type":"Topology","transform":{"translate":[37.96875,54.1624339681],"scale":[0.0003433228,0.0001990185]},"arcs":[[[2075,429],[-29,-4],[-15,49]],[[2358,0],[-80,150],[-32,-52],[-90,-7],[-64,30],[79,54],[21,52],[-24,8],[11,36],[-23,21],[50,29],[-37,18],[26,40],[-31,33],[-89,17]],[[2031,474],[-78,39],[-21,80],[-70,-20],[-42,49],[-66,21],[-124,-7],[0,26],[-45,0],[18,60],[-33,30],[34,49],[-36,30],[28,32],[-37,54],[26,48],[-11,38],[56,93],[-3,73],[-151,34],[-64,71],[49,36],[-57,85],[-55,8],[-65,106],[-27,-9],[-40,29],[32,42],[8,141],[-59,54],[-11,63],[29,35],[110,41],[-6,22],[85,-47],[8,20],[-43,11],[-7,37],[7,18],[57,-17],[-37,112],[74,-6],[139,119],[-69,97],[-38,10],[3,68],[-33,19],[-23,36],[19,17],[-41,47],[-81,-30],[-17,18],[-79,-14],[-13,-54],[-133,103],[-81,-38],[-25,34],[16,21],[-69,80],[-101,-69],[-44,39],[-21,-23],[-55,62],[-9,86],[-93,10],[-126,-59],[-54,152],[-140,-40],[-59,60],[-65,-12],[9,89],[41,-10],[-15,153],[-80,58],[12,35],[-52,4],[-44,-45],[-43,14]],[[0,3154],[39,43],[22,134],[-44,40],[0,33],[-17,7]],[[2075,486],[-44,-12]],[[4096,3264],[-40,-61],[5,-86],[-86,-37],[5,-63],[-49,-30],[147,-20],[6,-28],[-118,-80],[30,-56],[-38,26],[-67,-6],[-12,55],[-94,3],[-66,-20],[0,-35],[-39,-31],[25,-114],[-25,-57],[20,-30],[50,-6],[3,-80],[-40,-38],[10,-41],[-44,4],[-1,-45],[-109,21],[-34,-19],[-57,114],[-36,-89],[-67,14],[13,-56],[-17,-11],[-43,2],[-33,66],[-52,-58],[-109,5],[-28,41],[-7,-21],[-26,8],[-90,-65],[3,-61],[-65,-75],[-56,45],[-17,122],[-127,-38],[-55,-52],[-57,-6],[-36,53],[-25,-21],[-49,-73],[30,-99],[-42,-42],[34,-49],[-32,-2],[-77,-88],[35,-68],[110,26],[17,-44],[-44,-43],[-54,14],[-31,-20],[-14,-133],[-45,-22],[-27,-76],[61,-42],[4,-84],[71,47],[4,-34],[78,7],[30,-49],[39,7],[9,-39],[147,-10],[29,-157],[-102,-38],[-47,8],[-57,-50],[21,-105],[-56,-5],[-10,84],[-57,30],[-45,-92],[-133,-1],[13,-54],[-190,-76],[-24,-27],[23,-51],[-27,-212],[48,-31],[-42,-59],[29,-7],[-35,-51],[-65,-11]],[[1897,1882],[8,179],[-6,14],[-29,44],[-29,160],[-7,11],[-73,101],[-119,195],[-109,81],[-42,54],[-4,4],[-39,30],[-4,3],[-307,148],[-11,11],[-38,46],[-5,5],[-55,49],[-120,139],[-37,134],[-7,9],[-7,8],[-77,68],[-20,56],[-31,33],[-10,16],[-5,4],[-4,4],[-6,3],[-21,4],[-81,-9],[-69,66],[-13,3],[-55,-4],[-59,50],[-143,268],[-69,227]],[[194,4096],[47,-158],[19,-61],[3,-8],[30,-67],[47,-87],[17,-23],[19,-52],[2,-5],[8,-10],[20,-24],[46,-43],[7,-4],[5,-3],[6,-2],[6,0],[9,-1],[35,7],[13,-4],[58,-59],[3,-2],[8,-4],[5,-1],[7,-1],[69,11],[26,-8],[10,-8],[7,-11],[3,-5],[31,-32],[10,-37],[6,-13],[4,-6],[88,-81],[8,-54],[31,-107],[-5,-109],[120,-4],[61,-52],[5,-6],[38,-45],[5,-6],[6,-5],[5,-4],[5,-4],[6,-4],[42,-25],[90,-52],[5,-3],[5,-2],[4,-1],[40,-8],[11,-6],[30,-19],[6,-3],[6,-2],[6,-2],[41,-11],[9,-5],[82,-88],[111,-82],[120,-194],[5,-6],[68,-95],[7,-11],[29,-160],[2,-6],[2,-2],[25,-36],[6,-14],[-8,-75],[0,-104]],[[1897,1882],[51,-104],[1,-62],[82,-136],[126,-56],[57,-54],[104,-281],[135,-249],[345,-375],[106,-150],[79,-34],[161,-198],[34,-183]],[[1897,1882],[0,26],[0,75],[8,71],[0,7],[-1,5],[-1,3],[-4,6],[-29,44],[-7,75],[-12,48],[-9,33],[-1,4],[-2,3],[-5,8],[-73,101],[-28,58],[-91,137],[-46,51],[-3,2],[-15,12],[-3,2],[-8,4],[-24,4],[-10,6],[-42,54],[-4,4],[-39,30],[-4,3],[-307,148],[-11,11],[-38,46],[-5,5],[-6,6],[-44,37],[-5,6],[-120,139],[-31,78],[-3,46],[-1,3],[-2,7],[-7,9],[-7,8],[-77,68],[-10,19],[-4,22],[-1,6],[-5,9],[-1,3],[-5,5],[-25,25],[-10,16],[-5,4],[-4,4],[-6,3],[-12,3],[-9,1],[-38,-1],[-12,-3],[-17,-6],[-14,1],[-10,7],[-55,56],[-4,3],[-7,3],[-6,0],[-55,-4],[-59,50],[-143,268],[-69,227]],[[194,4096],[69,-227],[143,-268],[58,-50],[69,0],[58,-59],[11,-6],[12,-2],[69,11],[26,-8],[71,-112],[88,-81],[8,-54],[31,-107],[-5,-109],[120,-4],[61,-52],[5,-6],[38,-45],[5,-6],[6,-5],[10,-8],[301,-143],[82,-88],[111,-82],[120,-194],[80,-112],[29,-160],[35,-58],[-8,-75],[0,-104]],[[1897,1882],[51,-104],[1,-62],[82,-136],[126,-56],[57,-54],[104,-281],[135,-249],[345,-375],[106,-150],[79,-34],[161,-198],[34,-183]],[[1897,1882],[8,179],[-6,14],[-29,44],[-29,160],[-7,11],[-73,101],[-119,195],[-109,81],[-42,54],[-4,4],[-39,30],[-4,3],[-307,148],[-11,11],[-38,46],[-5,5],[-55,49],[-120,139],[-37,134],[-7,9],[-7,8],[-77,68],[-20,56],[-31,33],[-10,16],[-5,4],[-4,4],[-6,3],[-21,4],[-81,-9],[-69,66],[-13,3],[-55,-4],[-59,50],[-143,268],[-69,227]],[[194,4096],[47,-158],[19,-61],[3,-8],[30,-67],[47,-87],[17,-23],[19,-52],[2,-5],[8,-10],[20,-24],[46,-43],[7,-4],[5,-3],[6,-2],[6,0],[9,-1],[35,7],[13,-4],[58,-59],[3,-2],[8,-4],[5,-1],[7,-1],[69,11],[26,-8],[10,-8],[7,-11],[3,-5],[31,-32],[10,-37],[6,-13],[4,-6],[88,-81],[8,-54],[31,-107],[-5,-109],[120,-4],[61,-52],[5,-6],[38,-45],[5,-6],[6,-5],[5,-4],[5,-4],[6,-4],[42,-25],[90,-52],[5,-3],[5,-2],[4,-1],[40,-8],[11,-6],[30,-19],[6,-3],[6,-2],[6,-2],[41,-11],[9,-5],[82,-88],[111,-82],[120,-194],[5,-6],[68,-95],[7,-11],[29,-160],[2,-6],[2,-2],[25,-36],[6,-14],[-8,-75],[0,-104]],[[1897,1882],[51,-104],[1,-62],[82,-136],[126,-56],[57,-54],[104,-281],[135,-249],[345,-375],[106,-150],[79,-34],[161,-198],[34,-183]],[[1897,1882],[8,179],[-6,14],[-29,44],[-29,160],[-7,11],[-73,101],[-119,195],[-109,81],[-42,54],[-4,4],[-39,30],[-4,3],[-307,148],[-11,11],[-38,46],[-5,5],[-55,49],[-120,139],[-37,134],[-7,9],[-7,8],[-77,68],[-20,56],[-31,33],[-10,16],[-5,4],[-4,4],[-6,3],[-21,4],[-81,-9],[-69,66],[-13,3],[-55,-4],[-59,50],[-143,268],[-69,227]],[[194,4096],[47,-158],[19,-61],[3,-8],[30,-67],[47,-87],[17,-23],[19,-52],[2,-5],[8,-10],[20,-24],[46,-43],[7,-4],[5,-3],[6,-2],[6,0],[9,-1],[35,7],[13,-4],[58,-59],[3,-2],[8,-4],[5,-1],[7,-1],[69,11],[26,-8],[10,-8],[7,-11],[3,-5],[31,-32],[10,-37],[6,-13],[4,-6],[88,-81],[8,-54],[31,-107],[-5,-109],[120,-4],[61,-52],[5,-6],[38,-45],[5,-6],[6,-5],[5,-4],[5,-4],[6,-4],[42,-25],[90,-52],[5,-3],[5,-2],[4,-1],[40,-8],[11,-6],[30,-19],[6,-3],[6,-2],[6,-2],[41,-11],[9,-5],[82,-88],[111,-82],[120,-194],[5,-6],[68,-95],[7,-11],[29,-160],[2,-6],[2,-2],[25,-36],[6,-14],[-8,-75],[0,-104]],[[1897,1882],[51,-104],[1,-62],[82,-136],[126,-56],[57,-54],[104,-281],[135,-249],[345,-375],[106,-150],[79,-34],[161,-198],[34,-183]],[[886,3210],[-11,33],[-1,37],[-1,3],[-2,7],[-7,9],[-7,8],[-77,68],[-10,19],[-4,22],[-1,6],[-5,9],[-1,3],[-5,5],[-25,25],[-10,16],[-5,4],[-4,4],[-6,3],[-12,3],[-9,1],[-38,-1],[-12,-3],[-17,-6],[-14,1],[-10,7],[-55,56],[-6,4],[-5,2],[-6,0],[-4,0],[-40,-6],[-22,8],[-68,68],[-29,67],[-94,177],[-69,227]],[[194,4096],[68,-225],[124,-246],[67,-68],[23,-8],[55,3],[60,-60],[11,-6],[12,-2],[69,11],[31,-11],[66,-109],[88,-81],[8,-54],[10,-30]],[[903,3166],[-26,71],[-3,43],[-1,3],[-2,7],[-7,9],[-7,8],[-77,68],[-10,19],[-4,22],[-1,6],[-5,9],[-1,3],[-5,5],[-25,25],[-10,16],[-5,4],[-4,4],[-6,3],[-12,3],[-9,1],[-38,-1],[-12,-3],[-17,-6],[-14,1],[-10,7],[-55,56],[-6,4],[-5,2],[-6,0],[-4,0],[-40,-6],[-22,8],[-68,68],[-29,67],[-94,177],[-69,227]],[[710,0],[46,113],[-8,242],[41,85],[-10,115],[52,201],[-24,44],[-9,155],[-53,109],[37,106],[-22,188],[-43,54],[-9,68],[49,67],[-32,425],[50,269],[-58,201],[66,71],[-64,84],[-3,134],[-29,61],[15,109],[74,60],[73,10],[52,71],[17,85],[-11,25],[-30,82],[-3,13],[-1,33],[-3,10],[-90,85],[-66,109],[-31,11],[-69,-11],[-12,2],[-11,6],[-60,60],[-55,-3],[-23,8],[-47,44],[-20,24],[-8,10],[-116,236],[-68,225]],[[3189,4096],[215,-35],[276,-196],[228,-237],[188,-104]],[[3189,4096],[215,-35],[276,-196],[228,-237],[188,-104]],[[1660,3515],[4,0]],[[1710,3827],[2,2]],[[1848,4096],[-15,-75],[-184,-286],[-21,-199],[115,-25]],[[1787,3940],[-1,-1]],[[1741,3511],[0,-1],[4,-1],[-4,2]],[[195,4096],[67,-225],[124,-246],[67,-68],[78,-5],[71,-66],[107,1],[71,-112],[88,-81],[39,-161],[-5,-109],[120,-4],[125,-122],[301,-143],[193,-170],[200,-306],[29,-160],[35,-58],[-8,-185],[51,-98],[2,-63],[84,-138],[123,-53],[56,-52],[105,-283],[137,-251],[343,-373],[106,-150],[79,-34],[161,-198],[34,-183]],[[3174,4096],[59,-17],[92,-1],[50,-7],[10,-2],[9,-4],[10,-4],[157,-102],[18,-12],[13,-10],[88,-72],[12,-10],[33,-35],[183,-192],[85,-38],[70,-37],[9,-5],[7,-6],[17,-18]],[[4096,3524],[-188,104],[-228,237],[-277,195],[-78,18],[-68,-1],[-16,1],[-8,1],[-11,1],[-50,16]],[[3174,4096],[59,-17],[92,-1],[50,-7],[10,-2],[9,-4],[10,-4],[157,-102],[18,-12],[13,-10],[88,-72],[12,-10],[33,-35],[183,-192],[85,-38],[70,-37],[9,-5],[7,-6],[17,-18]],[[4096,3524],[-188,104],[-228,237],[-277,195],[-78,18],[-68,-1],[-16,1],[-8,1],[-11,1],[-50,16]],[[1660,3515],[4,0]],[[1710,3827],[2,2]],[[1848,4096],[-15,-75],[-184,-286],[-21,-199],[115,-25]],[[1787,3940],[-1,-1]],[[1741,3511],[0,-1],[4,-1],[-4,2]],[[563,3522],[-37,33],[-67,-1],[-80,81],[-116,234],[-68,227]],[[435,3839],[-76,-87]],[[386,3422],[-11,13]],[[449,3112],[205,-89]],[[784,2921],[-40,32]],[[2082,1200],[191,-156],[177,-200],[163,-48],[302,-138],[105,-153],[160,-108],[194,-397]],[[529,2949],[29,-176],[0,-3],[0,-12]],[[558,2758],[2,-87],[-6,-35]],[[554,2636],[-11,-66],[0,-4],[-6,-33],[44,-322],[-16,-203],[30,-398],[34,-251],[-90,-213],[2,-300],[2,-100]],[[543,746],[0,-2]],[[543,744],[0,-7],[15,-171],[-45,-131],[-14,-18],[-2,-3]],[[497,414],[-80,-146]],[[417,268],[-3,-5],[-34,-76],[-27,-38],[-14,-23],[-35,-126]],[[305,0],[40,135],[36,53],[14,30],[19,44],[3,6]],[[417,268],[7,17],[23,51],[4,9],[5,12],[41,57]],[[497,414],[3,3],[8,9],[4,7],[42,103],[5,30],[0,9],[-4,43],[-11,107],[-1,12],[0,7]],[[543,744],[0,1],[0,1]],[[543,746],[-2,100],[1,78],[-3,222],[53,101],[21,41],[18,65],[-35,257],[0,3],[-30,395],[16,197],[-40,296],[12,130],[0,5]],[[554,2636],[4,122]],[[558,2758],[1,13],[-29,179]],[[1759,3419],[-26,36]],[[951,3340],[-50,42]],[[2962,298],[-145,-146]],[[282,3247],[-109,-64],[-173,-218]],[[5,4064],[-1,-2]],[[167,3573],[3,-1]],[[176,3556],[3,4]],[[513,3109],[-3,-118]],[[510,2991],[8,-28]],[[516,2967],[-6,24]],[[515,3292],[19,-17]],[[532,3286],[-17,7]],[[534,3279],[-3,1]],[[533,3283],[-1,3]],[[553,3277],[-21,9]],[[553,3277],[-20,15]],[[533,3291],[1,-1]],[[533,3289],[4,-5]],[[535,3274],[1,0]],[[647,3045],[-42,181],[-52,51]],[[647,3045],[5,-14]],[[656,3032],[-9,13]],[[652,3027],[-1,-5]],[[670,3013],[-14,18]],[[2958,290],[5,16]],[[2963,298],[-1,0]],[[3006,520],[5,-29]],[[3021,505],[0,-2]],[[3062,361],[-35,-19]],[[3155,416],[0,2]],[[3160,419],[0,2]],[[3161,421],[1,0]],[[3164,421],[-1,-1]],[[3174,408],[3,21]],[[167,3581],[17,-23]],[[295,3489],[-10,6]],[[3179,399],[109,-247]],[[336,3727],[18,19]],[[1713,3575],[-68,521]],[[3139,3976],[301,-304]],[[3155,416],[-12,-4]],[[4096,1318],[-76,-125],[-227,-178],[-40,-99],[-263,-368],[-158,-34],[-175,-97]],[[490,3308],[-5,5]],[[485,3313],[-43,38],[-56,71]],[[532,3342],[-41,-25],[-6,-4]],[[485,3313],[-1,0],[-2,-1],[-1,-1]],[[3024,4086],[5,-5]],[[3077,4036],[3,-2]],[[2217,3756],[87,90],[34,162],[-19,88]],[[481,3311],[-40,-12]],[[3143,412],[-24,-21]],[[435,3839],[45,52],[-26,137],[95,68]],[[441,3299],[-159,-52]],[[30,4043],[153,-122],[59,-83]],[[3027,342],[-61,-43]],[[533,3342],[-1,0]],[[1727,3490],[-7,25],[5,-24],[2,-1]],[[1728,3483],[-1,7]],[[1780,3364],[-181,-95],[-85,58],[-134,-12],[-275,42],[-154,-17]],[[1791,3381],[-32,38]],[[1785,3367],[10,7]],[[3157,417],[11,7]],[[3014,4096],[2,-2]],[[338,117],[-2,1]],[[339,126],[2,-1]],[[545,2463],[2,0]],[[563,2722],[2,0]],[[629,1339],[2,0]],[[322,3735],[-7,8]],[[319,3739],[6,-7],[11,-5]],[[439,3117],[38,-18]],[[3002,527],[177,-128]],[[1714,3563],[-1,12]],[[536,3272],[11,-86],[-34,-77]],[[533,3292],[2,-16]],[[535,3276],[1,-4]],[[354,3746],[-32,-11]],[[3440,3672],[656,-589]],[[3021,505],[-64,-110],[5,-97]],[[3157,417],[-2,-1]],[[270,3797],[42,-51]],[[315,3743],[-1,1]],[[901,3382],[-42,83],[-38,11]],[[3080,4034],[59,-58]],[[530,2950],[-19,24]],[[512,2972],[17,-23]],[[511,3295],[-21,13]],[[511,3295],[4,-3]],[[515,3293],[-4,2]],[[821,3476],[-17,-10]],[[1733,3455],[13,20]],[[1,4096],[6,-22],[191,-590],[9,-153],[4,-13],[228,-201]],[[449,3112],[-241,219],[-2,94],[-7,60],[-25,77],[-15,44],[-150,467],[-6,23]],[[3016,4094],[8,-8]],[[3029,4081],[48,-45]],[[359,3752],[-5,-6]],[[312,3746],[2,-2]],[[285,3495],[-119,91]],[[375,3435],[-80,54]],[[1780,3364],[5,3]],[[1795,3374],[-4,7]],[[2217,3756],[87,90],[34,162],[-19,88]],[[804,3466],[-68,-6],[-70,-61],[-80,-22],[-16,-38],[-37,3]],[[439,3117],[13,-12]],[[452,3105],[25,-21],[9,-51]],[[486,3033],[0,-1],[0,-3],[26,-57]],[[511,2974],[-24,58],[-1,1]],[[486,3033],[-34,72]],[[452,3105],[-3,7]],[[30,4043],[-30,36]],[[654,3023],[130,-102],[228,-260],[263,-437],[126,-152],[89,-256],[158,-262],[221,-169],[81,-104],[132,-81]],[[3012,499],[4,-3]],[[3062,361],[36,-17],[21,47]],[[3140,434],[3,-22]],[[242,3838],[28,-41]],[[3,4063],[4,-1]],[[7,4062],[1,0]],[[7,4062],[0,1]],[[1720,3515],[-6,48]],[[1728,3483],[18,-8]],[[2171,0],[-2171,0],[0,4096],[4096,0],[0,-4096],[-1925,0]],[[2693,2919],[-58,76],[1,121],[46,107],[75,31],[-64,-335]],[[371,3598],[-91,-2],[-75,93],[-4,180],[227,-168],[-57,-103]],[[759,3547],[25,-13],[142,52],[52,-53],[6,-82],[-103,-85],[-33,-112],[-45,-5],[-49,113],[-67,4],[-33,-56],[-129,0],[-32,-56],[-130,112],[44,109],[53,59],[33,0],[0,55],[79,-34],[18,-77],[97,111],[72,-42]],[[1819,3421],[-116,-5],[-43,24],[-2,94],[45,42],[55,-4],[46,-51],[15,-100]],[[3016,4096],[134,0],[8,-22],[-18,-97],[-91,-53],[-33,168],[0,4]],[[3903,3977],[58,14],[109,-66],[-26,-14],[10,-48],[-115,48],[-36,66]]]}