{"objects":{"water":{"type":"GeometryCollection","geometries":[]},"buildings":{"type":"GeometryCollection","geometries":[]},"places":{"type":"GeometryCollection","geometries":[{"type":"Point","properties":{"name:pt":"Lugansk","name:az":"Luqansk","name:id":"Luhansk","name:ka":"\u10da\u10e3\u10d2\u10d0\u10dc\u10e1\u10d9\u10d8","name:ko":"\ub8e8\ud55c\uc2dc\ud06c","name:kl":"Luhansk","name:cs":"Luhansk","alt_name:eo":"Luhansko","min_zoom":8.0,"name:ro":"Luhansk","name:it":"Luhans'k","name:vi":"Luhansk","name:os":"\u041b\u0443\u0433\u0430\u043d\u0441\u043a","name:ru":"\u041b\u0443\u0433\u0430\u043d\u0441\u043a","name:pl":"\u0141uga\u0144sk","name:mn":"\u041b\u0443\u0445\u0430\u043d\u0441\u043a","id":253874196,"name:ca":"Luhansk","name:vo":"Luhansk","name:fa":"\u0644\u0648\u0647\u0627\u0646\u0633\u06a9","name:bg":"\u041b\u0443\u0433\u0430\u043d\u0441\u043a","name:lt":"Luhanskas","source":"openstreetmap.org","kind_detail":"city","name:da":"Luhansk","name:de":"Luhansk","name:tr":"Luhansk","name:fr":"Louhansk","name:mk":"\u041b\u0443\u0433\u0430\u043d\u0441\u043a","name:be":"\u041b\u0443\u0433\u0430\u043d\u0441\u043a","name:zh":"\u5362\u7518\u65af\u514b","name:hy":"\u053c\u0578\u0582\u0563\u0561\u0576\u057d\u056f","name:lv":"Luhanska","name:ja":"\u30eb\u30cf\u30fc\u30f3\u30b7\u30af","name:nn":"Luhansk","name:no":"Luhansk","name:he":"\u05dc\u05d5\u05d4\u05e0\u05e1\u05e7","kind":"locality","name:sk":"Luhansk","old_name":"\u0412\u043e\u0440\u043e\u0448\u0438\u043b\u043e\u0432\u043e\u0433\u0440\u0430\u0434","name:sv":"Luhansk","name:hu":"Luhanszk","name:hr":"Luhansk","name:sr":"\u041b\u0443\u0433\u0430\u043d\u0441\u043a","population":414509,"old_name:uk":"\u0412\u043e\u0440\u043e\u0448\u0438\u043b\u043e\u0432\u0433\u0440\u0430\u0434","name:eo":"Lugansko","name:en":"Luhansk","name":"\u041b\u0443\u0433\u0430\u043d\u0441\u044c\u043a","name:gl":"Luhansk","name:fi":"Luhansk","name:eu":"Luhansk","name:et":"Lugansk","name:nl":"Loehansk","name:es":"Lugansk"},"coordinates":[3852,2537]},{"type":"Point","properties":{"name:sr":"\u0413\u043e\u0440\u043b\u043e\u0432\u043a\u0430","alt_name:en":"Gorlovka","alt_name:de":"Gorlowka","name:eo":"Horlivka","min_zoom":8.0,"name:ru":"\u0413\u043e\u0440\u043b\u043e\u0432\u043a\u0430","name:pl":"Gor\u0142\u00f3wka","name:hu":"Horlivka","id":256613740,"population":289872,"kind":"locality","name:en":"Horlivka","name":"\u0413\u043e\u0440\u043b\u0456\u0432\u043a\u0430","kind_detail":"city","name:de":"Horliwka","source":"openstreetmap.org","name:fr":"Horlivka"},"coordinates":[99,1388]},{"type":"Point","properties":{"name:ro":"Alcevsk","name:id":"Alchevsk","name:ko":"\uc54c\uccb4\uc6b0\uc2dc\ud06c","name:cv":"\u0410\u043b\u0447\u0435\u0432\u0441\u043a","name:ar":"\u0623\u0644\u062a\u0634\u064a\u0641\u0633\u0643","name:cs":"Al\u010devsk","min_zoom":8.0,"name:it":"Al\u010devs'k","name:ru":"\u0410\u043b\u0447\u0435\u0432\u0441\u043a","name:vi":"Alchevsk","name:pl":"A\u0142czewsk","id":253877159,"name:fa":"\u0622\u0644\u0686\u0641\u0633\u06a9","name:bg":"\u0410\u043b\u0447\u0435\u0432\u0441\u043a","name:lt":"Al\u010devskas","kind_detail":"city","old_name:ru":"\u041a\u043e\u043c\u043c\u0443\u043d\u0430\u0440\u0441\u043a","name:de":"Altschewsk","source":"openstreetmap.org","name:fr":"Altchevsk","name:zh":"\u963f\u5c14\u5207\u592b\u65af\u514b","name:nl":"Altsjevsk","name:nn":"Altsjevsk","kind":"locality","name:hu":"Alcsevszk","name:sr":"\u0410\u043b\u0447\u0435\u0432\u0441\u043a","population":112013,"name:eo":"Al\u0109evsk","name:en":"Alchevsk","name":"\u0410\u043b\u0447\u0435\u0432\u0441\u044c\u043a","name:fi":"Alt\u0161evsk","name:et":"Alt\u0161evsk","name:es":"Alchevsk"},"coordinates":[2431,2106]},{"type":"Point","properties":{"name:sr":"\u041b\u0438\u0441\u0438\u0447\u0430\u043d\u0441\u043a","name:eo":"Lisi\u0109ansk","min_zoom":8.0,"name:be":"\u041b\u0456\u0441\u0456\u0447\u0430\u043d\u0441\u043a","name:ru":"\u041b\u0438\u0441\u0438\u0447\u0430\u043d\u0441\u043a","name:pl":"Lisicza\u0144sk","name:hu":"Liszicsanszk","id":337582086,"population":105682,"kind":"locality","name:en":"Lysychansk","name":"\u041b\u0438\u0441\u0438\u0447\u0430\u043d\u0441\u044c\u043a","kind_detail":"city","name:de":"Lyssytschansk","source":"openstreetmap.org","name:fr":"Lyssytchansk"},"coordinates":[1382,3973]},{"type":"Point","properties":{"name:sr":"\u0408\u0435\u043d\u0430\u043a\u0438\u0458\u0435\u0432\u0435","name:ro":"Ienakiieve","name:nl":"Jenakijeve","name:lt":"Jenakijev\u0117","alt_name:de":"Jenakijewo","name:ko":"\uc608\ub098\ud0a4\uc608\ubca0","name:sv":"Jenakijeve","name:cs":"Jenakijeve","kind":"locality","min_zoom":8.0,"alt_name:en":"Yenakiyevo","name:it":"Jenakijeve","name:ru":"\u0415\u043d\u0430\u043a\u0438\u0435\u0432\u043e","name:vi":"Yenakiieve","name:pl":"Jenakijewe","name:hu":"Jenakijeve","name":"\u0404\u043d\u0430\u043a\u0456\u0454\u0432\u0435","id":1756064259,"population":85663,"name:fa":"\u06cc\u0646\u0627\u06a9\u06cc\u06cc\u0641","name:eo":"Jenakijeve","name:bg":"\u0415\u043d\u0430\u043a\u0438\u0435\u0432\u043e","name:nn":"Jenakijeve","kind_detail":"town","name:de":"Jenakijewe","source":"openstreetmap.org","name:fr":"Ienakiieve","name:fi":"Jenakijeve","name:zh":"\u53f6\u7eb3\u57fa\u8036\u6c83","name:en":"Yenakiieve"},"coordinates":[630,1057]},{"type":"Point","properties":{"name:sr":"\u041a\u0440\u0430\u0441\u043d\u0438 \u041b\u0443\u0447","name:ro":"Krasn\u00eei Luci","name:nl":"Krasny Loetsj","name:nn":"Krasnyj Lutsj","old_name":"\u041a\u0440\u0438\u043d\u0434\u0430\u0447\u0456\u0432\u043a\u0430","name:cs":"Krasnyj Lu\u010d","official_name":"\u0425\u0440\u0443\u0441\u0442\u0430\u043b\u044c\u043d\u0438\u0439","min_zoom":8.0,"name:en":"Krasnyi Luch","name:it":"Krasnij Lu\u010d","name:vi":"Krasnyi Luch","name:ru":"\u041a\u0440\u0430\u0441\u043d\u044b\u0439 \u041b\u0443\u0447","name:pl":"Krasnyj \u0141ucz","name:bg":"\u041a\u0440\u0430\u0441\u043d\u0438 \u041b\u0443\u0447","name":"\u041a\u0440\u0430\u0441\u043d\u0438\u0439 \u041b\u0443\u0447","id":337658682,"population":84036,"name:fa":"\u06a9\u0631\u0627\u0633\u0646\u06cc\u06cc \u0644\u0648\u0686","kind":"locality","name:hu":"Krasnyi Lucs","name:lt":"Krasnyj Lu\u010das","kind_detail":"town","name:de":"Krasnyj Lutsch","source":"openstreetmap.org","name:fr":"Krasny\u00ef Loutch","name:fi":"Krasnyi Lut\u0161","name:be":"\u041a\u0440\u0430\u0441\u043d\u044b \u041b\u0443\u0447","name:zh":"\u7d05\u76e7\u5947","name:es":"Krasnyi Luch"},"coordinates":[2770,638]},{"type":"Point","properties":{"old_name:fr":"Artemivsk","old_name:ru":"\u0410\u0440\u0442\u0451\u043c\u043e\u0432\u0441\u043a","name:cs":"Bachmut","old_name:zh":"\u963f\u7279\u7c73\u592b\u65af\u514b","min_zoom":8.0,"old_name:fa":"\u0622\u0631\u062a\u0645\u06cc\u0641\u0633\u06a9","name:pl":"Bachmut","name:de":"Bachmut","id":256613679,"old_name:ro":"Artemivsk","old_name:pl":"Artiomowsk","kind_detail":"town","old_name:vi":"Artemivsk","old_name:de":"Artemiwsk","source":"openstreetmap.org","old_name:nn":"Artemivsk","old_name:cs":"Artemivsk","old_name:ko":"\uc544\ub974\ud14c\ubbf8\uc6b0\uc2dc\ud06c","old_name:bg":"\u0410\u0440\u0442\u044c\u043e\u043c\u043e\u0432\u0441\u043a","old_name:ar":"\u0623\u0631\u062a\u064a\u0645\u064a\u0641\u0633\u0643","kind":"locality","old_name:et":"Artemivsk","old_name:it":"Artemivsk","old_name:eo":"Artemivsk","old_name:en":"Artemivsk","old_name":"\u0410\u0440\u0442\u0435\u043c\u0456\u0432\u0441\u044c\u043a","population":83146,"old_name:uk":"\u0410\u0440\u0442\u0435\u043c\u0456\u0432\u0441\u044c\u043a","name:eo":"Ba\u0125mut","name:en":"Bakhmut","name":"\u0411\u0430\u0445\u043c\u0443\u0442","old_name:hu":"Artemivszk","old_name:sr":"\u0410\u0440\u0442\u0435\u043c\u0438\u0432\u0441\u043a","old_name:lt":"Artemivskas","old_name:nl":"Artemivsk","old_name:ja":"\u30a2\u30eb\u30c6\u30fc\u30df\u30a6\u30b7\u30af"},"coordinates":[44,2643]},{"type":"Point","properties":{"name:sr":"\u0420\u043e\u0432\u0435\u045a\u043a\u0438","name:ro":"Rovenk\u00ee","name:nn":"Rovenky","name:cs":"Rove\u0148ky","name:th":"\u0e42\u0e23\u0e40\u0e27\u0e19\u0e01\u0e35","name:en":"Rovenky","name:vi":"Rovenky","name:pl":"Rowe\u0144ky","name:hu":"Rovenyki","id":2135849341,"population":81103,"name:fa":"\u0631\u0648\u0648\u0646\u06a9\u06cc","kind":"locality","name:bg":"\u0420\u043e\u0432\u0435\u043d\u043a\u0438","name":"\u0420\u043e\u0432\u0435\u043d\u044c\u043a\u0438","kind_detail":"town","min_zoom":8.0,"name:de":"Rowenky","source":"openstreetmap.org","name:fr":"Rovenky","name:zh":"\u7f57\u97e6\u5c3c\u57fa"},"coordinates":[4076,439]},{"type":"Point","properties":{"old_name:vi":"Stakhanov","name:ka":"\u10d9\u10d0\u10d3\u10d8\u10d4\u10d5\u10d9\u10d0","name:cs":"Kadijivka","old_name:zh":"\u65af\u9054\u6f22\u8afe\u592b","min_zoom":8.0,"old_name:fa":"\u0627\u0633\u062a\u0627\u062e\u0627\u0646\u0648\u0641","name:it":"Kadijivka","name:sv":"Kadijivka","name:ru":"\u0421\u0442\u0430\u0445\u0430\u043d\u043e\u0432","name:pl":"Kadijewka","old_name:fi":"Stahanov","id":337593799,"source":"openstreetmap.org","old_name:pl":"Stachanow","name:fi":"Kadijivka","old_name:it":"Stachanov","old_name:de":"Stachanow","old_name:pt":"Stakhanov","old_name:ro":"Stahanov","name:fr":"Kadi\u00efvka","name:de":"Kadijiwka","old_name:cs":"Stachanov","name:lv":"Kadijivka","old_name:ar":"\u0633\u062a\u0627\u062e\u0627\u0646\u0648\u0641","name:lt":"Kadijivka","old_name:es":"Staj\u00e1nov","old_name:et":"Stahhanov","old_name:nn":"Stakhanov","old_name:en":"Stakhanov","name:et":"Kadijivka","name:be":"\u041a\u0430\u0434\u0437\u0456\u0456\u045e\u043a\u0430","name:bg":"\u041a\u0430\u0434\u0438\u0435\u0432\u043a\u0430","population":79010,"old_name:uk":"\u0421\u0442\u0430\u0445\u0430\u043d\u043e\u0432","kind":"locality","name:en":"Kadiivka","name":"\u041a\u0430\u0434\u0456\u0457\u0432\u043a\u0430","old_name:hu":"Sztahanov","old_name:sr":"\u0421\u0442\u0430\u0445\u0430\u043d\u043e\u0432","old_name:sv":"Stachanov","old_name:lt":"Stachanovas","old_name:nl":"Stachanov","old_name:bg":"\u0421\u0442\u0430\u0445\u0430\u043d\u043e\u0432","kind_detail":"town","old_name:be":"\u0421\u0442\u0430\u0445\u0430\u043d\u0430\u045e","name:es":"K\u00e1dievka"},"coordinates":[1960,2514]},{"type":"Point","properties":{"name:sr":"\u0425\u0430\u0440\u0446\u0438\u0437\u043a","name:ro":"Har\u021b\u00eezk","name:nn":"Khartsyzk","name:cs":"Charcyzk","min_zoom":8.0,"name:en":"Khartsyzk","name:ru":"\u0425\u0430\u0440\u0446\u044b\u0437\u0441\u043a","name:vi":"Khartsyzk","name:pl":"Charcyzk","name:hu":"Khartsyzk","id":256614069,"population":60016,"name:fa":"\u062e\u0627\u0631\u062a\u0633\u06cc\u0632\u06a9","kind":"locality","name:bg":"\u0425\u0430\u0440\u0446\u0438\u0437\u043a","name":"\u0425\u0430\u0440\u0446\u0438\u0437\u044c\u043a","kind_detail":"town","name:de":"Charzysk","source":"openstreetmap.org","name:fr":"Khartsyzk","name:zh":"\u54c8\u723e\u9f4a\u65af\u514b","name:es":"Khartsyzsk"},"coordinates":[528,194]},{"type":"Point","properties":{"name:sr":"\u0428\u0430\u0445\u0442\u0430\u0440\u0441\u043a","name:ro":"\u0218ahtarsk","name:nn":"Sjakhtarsk","name:cs":"\u0160achtarsk","min_zoom":8.0,"name:en":"Shakhtarsk","name:ru":"\u0428\u0430\u0445\u0442\u0451\u0440\u0441\u043a","name:vi":"Shakhtarsk","name:pl":"Szachtarsk","name:hu":"Shakhtarsk","id":256614098,"population":60000,"name:fa":"\u0634\u0627\u062e\u062a\u0627\u0631\u0633\u06a9","kind":"locality","name:bg":"\u0428\u0430\u0445\u0442\u044c\u043e\u0440\u0441\u043a","name":"\u0428\u0430\u0445\u0442\u0430\u0440\u0441\u044c\u043a","kind_detail":"town","name:de":"Schachtarsk","source":"openstreetmap.org","name:fr":"Chakhtarsk","name:zh":"\u6c99\u8d6b\u55ac\u723e\u65af\u514b"},"coordinates":[1493,195]},{"type":"Point","properties":{"name:pt":"Torez","name:ro":"Thorez","name:nl":"Torez","name:nn":"Torez","name:cs":"Torez","official_name":"\u0427\u0438\u0441\u0442\u044f\u043a\u043e\u0432\u0435","min_zoom":8.0,"name:it":"Torez","name:vi":"Torez","name:pl":"Torez","name:hu":"Thorez","name":"\u0422\u043e\u0440\u0435\u0437","id":256614002,"population":55924,"name:fa":"\u062a\u0648\u0631\u0632","kind":"locality","name:en":"Torez","name:lt":"Torezas","kind_detail":"town","name:de":"Tores","source":"openstreetmap.org","name:fr":"Torez","name:et":"Torez","name:zh":"\u591a\u5217\u58eb"},"coordinates":[1893,158]},{"type":"Point","properties":{"name:pt":"Antratsyt","name:ro":"Antra\u021bit","name:nn":"Antratsyt","name:ar":"\u0623\u0646\u062a\u0631\u0627\u062a\u0633\u064a\u062a","name:cs":"Antracyt","min_zoom":8.0,"name:pl":"Antracyt","name:hu":"Antratsyt","name":"\u0410\u043d\u0442\u0440\u0430\u0446\u0438\u0442","id":337659186,"population":55441,"name:fa":"\u0622\u0646\u062a\u0631\u0627\u062a\u0633\u06cc\u062a","kind":"locality","name:en":"Antratsyt","name:lt":"Antracytas","kind_detail":"town","name:de":"Antrazyt","source":"openstreetmap.org","name:fr":"Antratsyt","name:zh":"\u5b89\u7279\u62c9\u9f4a\u7279","name:es":"Antratsyt"},"coordinates":[3262,556]},{"type":"Point","properties":{"name:sr":"\u0421\u043d\u0438\u0436\u043d\u0435","name:ro":"Snijne","name:nn":"Snizjne","name:cs":"Sni\u017ene","min_zoom":8.0,"name:en":"Snizhne","name:vi":"Snizhne","name:ru":"\u0421\u043d\u0435\u0436\u043d\u043e\u0435","name:pl":"\u015anie\u017cne","name:hu":"Snizhne","id":256613983,"population":49564,"name:fa":"\u0627\u0633\u0646\u06cc\u0698\u0646\u0647","kind":"locality","name:bg":"\u0421\u043d\u0435\u0436\u043d\u043e\u0435","name":"\u0421\u043d\u0456\u0436\u043d\u0435","kind_detail":"town","name:de":"Snischne","source":"openstreetmap.org","name:fr":"Snijn\u00ef\u00e9","name:et":"Sni\u017ene","name:be":"\u0421\u043d\u044f\u0436\u043d\u043e\u0435","name:zh":"\u65af\u5c3c\u65e5\u5167","name:es":"Snizhn\u00e9"},"coordinates":[2315,141]},{"type":"Point","properties":{"name:sr":"\u0411\u0440\u0458\u0430\u043d\u043a\u0430","name:ro":"Brianka","name:nn":"Brjanka","name:ar":"\u0628\u0631\u064a\u0627\u0646\u0643\u0627","name:cs":"Brjanka","min_zoom":8.0,"name:vi":"Brianka","name:pl":"Brianka","name:hu":"Brianka","id":337596242,"population":48509,"name:fa":"\u0628\u0631\u06cc\u0627\u0646\u06a9\u0627","kind":"locality","name:en":"Brianka","name":"\u0411\u0440\u044f\u043d\u043a\u0430","kind_detail":"town","name:de":"Brjanka","source":"openstreetmap.org","name:fr":"Brianka","name:zh":"\u5e03\u91cc\u5b89\u5361","name:es":"Brianka"},"coordinates":[2026,2256]},{"type":"Point","properties":{"kind":"locality","name:en":"Pervomaisk","name":"\u041f\u0435\u0440\u0432\u043e\u043c\u0430\u0439\u0441\u044c\u043a","kind_detail":"town","name:de":"Perwomajsk","source":"openstreetmap.org","min_zoom":8.0,"name:ru":"\u041f\u0435\u0440\u0432\u043e\u043c\u0430\u0439\u0441\u043a","name:pl":"Pierwomajsk","name:hu":"Pervomaisk","id":337591570,"population":38801},"coordinates":[1656,2790]},{"type":"Point","properties":{"kind":"locality","name:en":"Kirovsk","name":"\u041a\u0456\u0440\u043e\u0432\u0441\u044c\u043a","kind_detail":"town","official_name":"\u0413\u043e\u043b\u0443\u0431\u0456\u0432\u043a\u0430","source":"openstreetmap.org","min_zoom":8.0,"name:be":"\u041a\u0456\u0440\u0430\u045e\u0441\u043a","name:ru":"\u041a\u0438\u0440\u043e\u0432\u0441\u043a","id":4764620106,"population":29235},"coordinates":[1978,2861]},{"type":"Point","properties":{"name:sr":"\u041a\u0438\u0440\u043e\u0432\u0441\u043a\u0435","name:ro":"Kirovske","name:nn":"Kirovske","official_name":"\u0425\u0440\u0435\u0441\u0442\u0456\u0432\u043a\u0430","min_zoom":8.0,"name:vi":"Kirovske","name:ru":"\u041a\u0438\u0440\u043e\u0432\u0441\u043a\u043e\u0435","name:pl":"Kirowskie","id":3009868560,"population":28477,"kind":"locality","name:en":"Kirovske","name":"\u041a\u0456\u0440\u043e\u0432\u0441\u044c\u043a\u0435","kind_detail":"town","name:de":"Kirowske","source":"openstreetmap.org","name:fr":"Kirovske","name:zh":"\u57fa\u6d1b\u592b\u65af\u514b"},"coordinates":[1124,684]},{"type":"Point","properties":{"name:sr":"\u0414\u0435\u0431\u0430\u0459\u0446\u0435\u0432\u0435","name:ro":"Debal\u021beve","name:nn":"Debaltseve","name:ar":"\u062f\u064a\u0628\u0627\u0644\u062a\u0633\u064a\u0641\u064a","min_zoom":8.0,"name:vi":"Debaltseve","name:ru":"\u0414\u0435\u0431\u0430\u043b\u044c\u0446\u0435\u0432\u043e","name:pl":"Debalcewe","id":256613761,"population":26255,"name:fa":"\u062f\u0628\u0627\u0644\u062a\u0633\u0641\u0647","kind":"locality","name:en":"Debaltseve","name":"\u0414\u0435\u0431\u0430\u043b\u044c\u0446\u0435\u0432\u0435","kind_detail":"town","name:de":"Debalzewe","source":"openstreetmap.org","name:fr":"Debaltseve","name:zh":"\u5091\u5df4\u5229\u91c7\u97cb","name:es":"Deb\u00e1ltsevo"},"coordinates":[1270,1507]},{"type":"Point","properties":{"name:sr":"\u041f\u0435\u0440\u0435\u0432\u0430\u0459\u0441\u043a","name:ro":"Perevalsk","name:nn":"Perevalsk","min_zoom":8.0,"name:vi":"Perevalsk","name:ru":"\u041f\u0435\u0440\u0435\u0432\u0430\u043b\u044c\u0441\u043a","name:pl":"Perewalsk","id":337598450,"population":26132,"name:fa":"\u067e\u0631\u0648\u0627\u0644\u0633\u06a9","kind":"locality","name:en":"Perevalsk","name":"\u041f\u0435\u0440\u0435\u0432\u0430\u043b\u044c\u0441\u044c\u043a","kind_detail":"town","name:de":"Perewalsk","source":"openstreetmap.org","name:fr":"Perevalsk","name:zh":"\u4f69\u5217\u74e6\u5229\u65af\u514b","name:es":"Perevalsk"},"coordinates":[2420,1977]},{"type":"Point","properties":{"name:ro":"Popasna","name:nn":"Popasna","min_zoom":8.0,"name:ru":"\u041f\u043e\u043f\u0430\u0441\u043d\u0430\u044f","name:vi":"Popasna","name:pl":"Popasna","id":337591366,"population":22211,"name:fa":"\u067e\u0648\u067e\u0627\u0633\u0646\u0627","kind":"locality","name:en":"Popasna","name":"\u041f\u043e\u043f\u0430\u0441\u043d\u0430","kind_detail":"town","name:de":"Popasna","source":"openstreetmap.org","name:fr":"Popasna","name:zh":"\u6ce2\u5e15\u65af\u7d0d","name:es":"Popasna"},"coordinates":[1158,2811]},{"type":"Point","properties":{"name:ro":"Zuhres","name:nn":"Zuhres","min_zoom":8.0,"name:ru":"\u0417\u0443\u0433\u0440\u044d\u0441","name:vi":"Zuhres","name:pl":"Zuhres","id":2094724360,"population":18554,"name:fa":"\u0632\u0648\u0647\u0631\u0633","kind":"locality","name:en":"Zuhres","name":"\u0417\u0443\u0433\u0440\u0435\u0441","kind_detail":"town","source":"openstreetmap.org","name:fr":"Zouhres","name:zh":"\u7956\u8d6b\u96f7\u65af"},"coordinates":[877,124]},{"type":"Point","properties":{"kind":"locality","name:en":"Lutuhyne","name":"\u041b\u0443\u0442\u0443\u0433\u0438\u043d\u0435","kind_detail":"town","name:de":"Lutuhyne","source":"openstreetmap.org","min_zoom":8.0,"name:ru":"\u041b\u0443\u0442\u0443\u0433\u0438\u043d\u043e","id":337599881,"population":18107},"coordinates":[3581,1805]},{"type":"Point","properties":{"kind":"locality","name:en":"Pelahiivka","name":"\u041f\u0435\u043b\u0430\u0433\u0456\u0457\u0432\u043a\u0430","kind_detail":"town","source":"openstreetmap.org","min_zoom":8.0,"name:ru":"\u041f\u0435\u043b\u0430\u0433\u0435\u0435\u0432\u043a\u0430","id":256613999,"population":17891},"coordinates":[1864,452]},{"type":"Point","properties":{"kind":"locality","name:en":"Yuvileine","name":"\u042e\u0432\u0456\u043b\u0435\u0439\u043d\u0435","kind_detail":"town","official_name":"\u041a\u0430\u0442\u0435\u0440\u0438\u043d\u0456\u0432\u043a\u0430","source":"openstreetmap.org","min_zoom":8.0,"name:ru":"\u042e\u0431\u0438\u043b\u0435\u0439\u043d\u043e\u0435","id":337593968,"population":16723},"coordinates":[3524,2477]},{"type":"Point","properties":{"name:ro":"Zolote","name:nn":"Zolote","name:ar":"\u0632\u0648\u0644\u0648\u062a\u064a","min_zoom":8.0,"name:ru":"\u0417\u043e\u043b\u043e\u0442\u043e\u0435","name:vi":"Zolote","name:pl":"Zo\u0142ote","id":337588570,"population":14974,"name:fa":"\u0632\u0648\u0644\u0648\u062a\u0647","kind":"locality","name:en":"Zolote","name":"\u0417\u043e\u043b\u043e\u0442\u0435","kind_detail":"town","source":"openstreetmap.org","name:fr":"Zolote"},"coordinates":[1583,3075]},{"type":"Point","properties":{"old_name:uk":"\u042e\u043d\u043e\u043a\u043e\u043c\u0443\u043d\u0430\u0440\u0456\u0432\u0441\u044c\u043a","kind":"locality","name:en":"Bunhe","name":"\u0411\u0443\u043d\u0433\u0435","kind_detail":"town","old_name:ru":"\u042e\u043d\u043e\u043a\u043e\u043c\u043c\u0443\u043d\u0430\u0440\u043e\u0432\u0441\u043a","source":"openstreetmap.org","min_zoom":8.0,"old_name:en":"Yunokomunarivsk","id":256613870,"population":14570},"coordinates":[929,1017]},{"type":"Point","properties":{"kind":"locality","name:en":"Nyzhnia Krynka","name":"\u041d\u0438\u0436\u043d\u044f \u041a\u0440\u0438\u043d\u043a\u0430","kind_detail":"town","source":"openstreetmap.org","min_zoom":8.0,"name:ru":"\u041d\u0438\u0436\u043d\u044f\u044f \u041a\u0440\u044b\u043d\u043a\u0430","id":256613934,"population":13956},"coordinates":[576,544]},{"type":"Point","properties":{"name:ro":"Petrovske","name:nn":"Petrovske","official_name":"\u041f\u0435\u0442\u0440\u043e\u0432\u043e-\u041a\u0440\u0430\u0441\u043d\u043e\u0441\u0456\u043b\u043b\u044f","min_zoom":8.0,"name:ru":"\u041f\u0435\u0442\u0440\u043e\u0432\u0441\u043a\u043e\u0435","name:vi":"Petrovske","name:pl":"Petrowskie","id":337603600,"population":13500,"name:fa":"\u067e\u062a\u0631\u0648\u0641\u0633\u06a9\u0647","kind":"locality","name:en":"Petrovske","name":"\u041f\u0435\u0442\u0440\u043e\u0432\u0441\u044c\u043a\u0435","kind_detail":"town","source":"openstreetmap.org","name:fr":"Petrovske","name:zh":"\u5f7c\u5f97\u7f85\u592b\u65af\u79d1\u8036"},"coordinates":[2614,1336]},{"type":"Point","properties":{"kind":"locality","name:en":"Schastia","name":"\u0429\u0430\u0441\u0442\u044f","kind_detail":"town","source":"openstreetmap.org","min_zoom":8.0,"name:ru":"\u0421\u0447\u0430\u0441\u0442\u044c\u0435","name:pl":"Sczastia","id":3409309160,"population":13105},"coordinates":[3689,3300]},{"type":"Point","properties":{"name:ro":"Jdanivka","name:nn":"Zjdanivka","name:ar":"\u062c\u062f\u0627\u0646\u064a\u0641\u0643\u0627","min_zoom":8.0,"name:ru":"\u0416\u0434\u0430\u043d\u043e\u0432\u043a\u0430","name:vi":"Zhdanivka","name:pl":"\u017bdaniwka","id":256613886,"population":12985,"name:fa":"\u0698\u062f\u0627\u0646\u06cc\u0641\u06a9\u0627","kind":"locality","name:en":"Zhdanivka","name":"\u0416\u0434\u0430\u043d\u0456\u0432\u043a\u0430","kind_detail":"town","name:de":"Schdaniwka","source":"openstreetmap.org","name:fr":"Jdanivka","name:zh":"\u65e5\u4e39\u5c3c\u592b\u5361"},"coordinates":[838,734]},{"type":"Point","properties":{"kind":"locality","name:en":"Siversk","name":"\u0421\u0456\u0432\u0435\u0440\u0441\u044c\u043a","kind_detail":"town","source":"openstreetmap.org","min_zoom":8.0,"name:ru":"\u0421\u0435\u0432\u0435\u0440\u0441\u043a","id":256614638,"population":12392},"coordinates":[369,3879]},{"type":"Point","properties":{"kind":"locality","name:en":"Svitlodarsk","name":"\u0421\u0432\u0456\u0442\u043b\u043e\u0434\u0430\u0440\u0441\u044c\u043a","kind_detail":"town","source":"openstreetmap.org","min_zoom":8.0,"name:ru":"\u0421\u0432\u0435\u0442\u043b\u043e\u0434\u0430\u0440\u0441\u043a","name:pl":"Swiet\u0142odarsk","id":256613798,"population":12273},"coordinates":[742,1968]},{"type":"Point","properties":{"name:ro":"Vahru\u0219eve","name:nn":"Vakhrusjeve","name:ar":"\u0641\u0627\u062e\u0631\u0648\u0634\u064a\u0641\u064a","official_name":"\u0411\u043e\u043a\u043e\u0432\u043e-\u0425\u0440\u0443\u0441\u0442\u0430\u043b\u044c\u043d\u0435","min_zoom":8.0,"name:vi":"Vakhrusheve","name:ru":"\u0412\u0430\u0445\u0440\u0443\u0448\u0435\u0432\u043e","name:pl":"Wachruszewo","id":337658326,"population":12197,"name:fa":"\u0648\u0627\u062e\u0631\u0648\u0634\u0641\u0647","kind":"locality","name:en":"Vakhrusheve","name":"\u0412\u0430\u0445\u0440\u0443\u0448\u0435\u0432\u0435","kind_detail":"town","source":"openstreetmap.org","name:fr":"Vakhroucheve","name:zh":"\u74e6\u8d6b\u9b6f\u820d\u6c83"},"coordinates":[2474,703]},{"type":"Point","properties":{"kind":"locality","name:en":"Soledar","name":"\u0421\u043e\u043b\u0435\u0434\u0430\u0440","kind_detail":"town","source":"openstreetmap.org","min_zoom":8.0,"name:pl":"So\u0142edar","id":256613683,"population":11898},"coordinates":[274,3096]},{"type":"Point","properties":{"kind":"locality","name:en":"Irmino","name":"\u0406\u0440\u043c\u0456\u043d\u043e","kind_detail":"town","source":"openstreetmap.org","min_zoom":8.0,"old_name":"\u0422\u0435\u043f\u043b\u043e\u0433\u0456\u0440\u0441\u044c\u043a","name:ru":"\u0418\u0440\u043c\u0438\u043d\u043e","id":337592311,"population":10355},"coordinates":[1844,2686]},{"type":"Point","properties":{"name:ro":"Hirske","name:nn":"Hirske","name:ar":"\u0647\u064a\u0631\u0633\u0643\u064a","min_zoom":8.0,"name:vi":"Hirske","name:ru":"\u0413\u043e\u0440\u0441\u043a\u043e\u0435","name:pl":"Hirskie","id":337587738,"population":10317,"name:fa":"\u0647\u06cc\u0631\u0633\u06a9\u0647","kind":"locality","name:en":"Hirske","name":"\u0413\u0456\u0440\u0441\u044c\u043a\u0435","kind_detail":"town","name:de":"Hirske","source":"openstreetmap.org","name:fr":"Hirske","name:zh":"\u6208\u723e\u65af\u79d1\u8036","name:es":"Hirske"},"coordinates":[1524,3292]},{"type":"Point","properties":{"kind":"locality","name:en":"Zymohiria","name":"\u0417\u0438\u043c\u043e\u0433\u0456\u0440\u2019\u044f","kind_detail":"town","source":"openstreetmap.org","min_zoom":8.0,"name:ru":"\u0417\u0438\u043c\u043e\u0433\u043e\u0440\u044c\u0435","id":337592920,"population":10148},"coordinates":[2792,2617]},{"type":"Point","properties":{"kind":"locality","name:en":"Sieverne","name":"\u0421\u0454\u0432\u0435\u0440\u043d\u0435","kind_detail":"town","source":"openstreetmap.org","min_zoom":8.0,"name:ru":"\u0421\u0435\u0432\u0435\u0440\u043d\u043e\u0435","id":256613995,"population":10094},"coordinates":[2088,409]},{"type":"Point","properties":{"kind":"locality","name:en":"Karlo-Marksove","name":"\u041a\u0430\u0440\u043b\u043e-\u041c\u0430\u0440\u043a\u0441\u043e\u0432\u0435","kind_detail":"town","official_name":"\u0421\u043e\u0444\u0456\u0457\u0432\u043a\u0430","source":"openstreetmap.org","min_zoom":8.0,"name:ru":"\u041a\u0430\u0440\u043b\u043e-\u041c\u0430\u0440\u043a\u0441\u043e\u0432\u043e","id":256613849,"population":10013},"coordinates":[512,1232]},{"type":"Point","properties":{"kind":"locality","name:en":"Yasenivskyi","name":"\u042f\u0441\u0435\u043d\u0456\u0432\u0441\u044c\u043a\u0438\u0439","kind_detail":"town","source":"openstreetmap.org","min_zoom":8.0,"name:ru":"\u042f\u0441\u0435\u043d\u043e\u0432\u0441\u043a\u0438\u0439","id":337657945,"population":9017},"coordinates":[3653,723]},{"type":"Point","properties":{"kind":"locality","name:en":"Uspenka","name":"\u0423\u0441\u043f\u0435\u043d\u043a\u0430","kind_detail":"town","source":"openstreetmap.org","min_zoom":8.0,"id":337600133,"population":8974},"coordinates":[3461,1774]},{"type":"Point","properties":{"kind":"locality","name:en":"Vuhlehirsk","name":"\u0412\u0443\u0433\u043b\u0435\u0433\u0456\u0440\u0441\u044c\u043a","alt_name:de":"Uglegorsk","kind_detail":"town","source":"openstreetmap.org","min_zoom":8.0,"alt_name:en":"Uglegorsk","name:ru":"\u0423\u0433\u043b\u0435\u0433\u043e\u0440\u0441\u043a","name:pl":"Uglegorsk","id":256613872,"population":8226},"coordinates":[851,1414]},{"type":"Point","properties":{"kind":"locality","name:en":"Myronivskyi","name":"\u041c\u0438\u0440\u043e\u043d\u0456\u0432\u0441\u044c\u043a\u0438\u0439","kind_detail":"town","source":"openstreetmap.org","min_zoom":8.0,"name:ru":"\u041c\u0438\u0440\u043e\u043d\u043e\u0432\u0441\u043a\u0438\u0439","name:pl":"Mironowskoje","id":256613755,"population":8100},"coordinates":[893,2074]},{"type":"Point","properties":{"kind":"locality","name:en":"Slovianoserbsk","name":"\u0421\u043b\u043e\u0432\u2019\u044f\u043d\u043e\u0441\u0435\u0440\u0431\u0441\u044c\u043a","kind_detail":"town","name:de":"Slowjanoserbsk","source":"openstreetmap.org","min_zoom":8.0,"name:ru":"\u0421\u043b\u0430\u0432\u044f\u043d\u043e\u0441\u0435\u0440\u0431\u0441\u043a","id":337588316,"population":8065},"coordinates":[2964,3095]},{"type":"Point","properties":{"kind":"locality","name:en":"Panteleimonivka","name":"\u041f\u0430\u043d\u0442\u0435\u043b\u0435\u0439\u043c\u043e\u043d\u0456\u0432\u043a\u0430","kind_detail":"town","source":"openstreetmap.org","min_zoom":8.0,"name:ru":"\u041f\u0430\u043d\u0442\u0435\u043b\u0435\u0439\u043c\u043e\u043d\u043e\u0432\u043a\u0430","id":813851402,"population":8009},"coordinates":[12,954]},{"type":"Point","properties":{"name:ro":"Artemivsk","name:nl":"Artemivsk","name:nn":"Artemivsk","kind":"locality","official_name":"\u041a\u0438\u043f\u0443\u0447\u0435","min_zoom":8.0,"old_name:eo":"Artemivsk","name:ru":"\u0410\u0440\u0442\u0451\u043c\u043e\u0432\u0441\u043a","name:pl":"Kypucze","id":337598439,"population":7616,"name:fa":"\u0622\u0631\u062a\u0645\u06cc\u0641\u0633\u06a9","name:eo":"Kipu\u0109e","name:en":"Artemivsk","name:lt":"Artemivskas","old_name:pl":"Artemiw\u015bk","kind_detail":"town","name":"\u0410\u0440\u0442\u0435\u043c\u0456\u0432\u0441\u044c\u043a","source":"openstreetmap.org","name:fr":"Artemivsk","name:es":"Artemivsk"},"coordinates":[2275,1980]},{"type":"Point","properties":{"kind":"locality","name:en":"Zorynsk","name":"\u0417\u043e\u0440\u0438\u043d\u0441\u044c\u043a","kind_detail":"town","source":"openstreetmap.org","min_zoom":8.0,"name:ru":"\u0417\u043e\u0440\u0438\u043d\u0441\u043a","id":337599374,"population":7532},"coordinates":[1920,1858]},{"type":"Point","properties":{"kind":"locality","name:en":"Ivanivka","name":"\u0406\u0432\u0430\u043d\u0456\u0432\u043a\u0430","name:lt":"Ivanivka","kind_detail":"town","source":"openstreetmap.org","min_zoom":8.0,"name:ru":"\u0418\u0432\u0430\u043d\u043e\u0432\u043a\u0430","id":337605712,"population":7333},"coordinates":[2815,1089]},{"type":"Point","properties":{"kind":"locality","name:en":"Holmivskyi","name":"\u0413\u043e\u043b\u044c\u043c\u0456\u0432\u0441\u044c\u043a\u0438\u0439","kind_detail":"town","source":"openstreetmap.org","min_zoom":8.0,"name:ru":"\u0413\u043e\u043b\u044c\u043c\u043e\u0432\u0441\u043a\u0438\u0439","id":5196814613,"population":7127},"coordinates":[349,1820]},{"type":"Point","properties":{"kind":"locality","name:en":"Kripenskyi","name":"\u041a\u0440\u0456\u043f\u0435\u043d\u0441\u044c\u043a\u0438\u0439","kind_detail":"town","source":"openstreetmap.org","min_zoom":8.0,"name:ru":"\u041a\u0440\u0435\u043f\u0435\u043d\u0441\u043a\u0438\u0439","id":337660069,"population":6941},"coordinates":[3187,444]},{"type":"Point","properties":{"kind":"locality","name:en":"Oleksandrivsk","name":"\u041e\u043b\u0435\u043a\u0441\u0430\u043d\u0434\u0440\u0456\u0432\u0441\u044c\u043a","kind_detail":"town","source":"openstreetmap.org","min_zoom":8.0,"name:ru":"\u0410\u043b\u0435\u043a\u0441\u0430\u043d\u0434\u0440\u043e\u0432\u0441\u043a","name:be":"\u0410\u043b\u044f\u043a\u0441\u0430\u043d\u0434\u0440\u0430\u045e\u043a\u0430","id":337592635,"population":6709},"coordinates":[3556,2617]},{"type":"Point","properties":{"kind":"locality","name:en":"Bile","name":"\u0411\u0456\u043b\u0435","kind_detail":"town","source":"openstreetmap.org","min_zoom":8.0,"name:ru":"\u0411\u0435\u043b\u043e\u0435","id":337596679,"population":6593},"coordinates":[3074,2192]},{"type":"Point","properties":{"kind":"locality","name:en":"Heorhiivka","name":"\u0413\u0435\u043e\u0440\u0433\u0456\u0457\u0432\u043a\u0430","kind_detail":"town","source":"openstreetmap.org","min_zoom":8.0,"name:ru":"\u0413\u0435\u043e\u0440\u0433\u0438\u0435\u0432\u043a\u0430","id":337598729,"population":6465},"coordinates":[3788,1932]},{"type":"Point","properties":{"kind":"locality","name:en":"Rodakove","name":"\u0420\u043e\u0434\u0430\u043a\u043e\u0432\u0435","kind_detail":"town","source":"openstreetmap.org","min_zoom":8.0,"name:ru":"\u0420\u043e\u0434\u0430\u043a\u043e\u0432\u043e","id":337593903,"population":6292},"coordinates":[3077,2500]},{"type":"Point","properties":{"kind":"locality","name:en":"Chornukhyne","name":"\u0427\u043e\u0440\u043d\u0443\u0445\u0438\u043d\u0435","kind_detail":"town","source":"openstreetmap.org","min_zoom":8.0,"name:ru":"\u0427\u0435\u0440\u043d\u0443\u0445\u0438\u043d\u043e","name:pl":"Czernuchino","id":337602393,"population":6137},"coordinates":[1553,1484]},{"type":"Point","properties":{"kind":"locality","name:en":"Borivske","name":"\u0411\u043e\u0440\u0456\u0432\u0441\u044c\u043a\u0435","kind_detail":"town","source":"openstreetmap.org","min_zoom":8.0,"name:ru":"\u0411\u043e\u0440\u043e\u0432\u0441\u043a\u043e\u0435","id":337582691,"population":5949},"coordinates":[1724,3870]},{"type":"Point","properties":{"kind":"locality","name:en":"Lozivskyi","name":"\u041b\u043e\u0437\u0456\u0432\u0441\u044c\u043a\u0438\u0439","kind_detail":"town","source":"openstreetmap.org","min_zoom":8.0,"name:ru":"\u041b\u043e\u0437\u043e\u0432\u0441\u043a\u0438\u0439","id":337593579,"population":5146},"coordinates":[2668,2537]},{"type":"Point","properties":{"kind":"locality","name:en":"Rozsypne","name":"\u0420\u043e\u0437\u0441\u0438\u043f\u043d\u0435","kind_detail":"town","name:de":"Rassypnoje","source":"openstreetmap.org","min_zoom":8.0,"name:ru":"\u0420\u0430\u0441\u0441\u044b\u043f\u043d\u043e\u0435","name:pl":"Rozsypne","id":256614000,"population":5071},"coordinates":[1741,617]},{"type":"Point","properties":{"name:ro":"Mius\u00eensk","name:nn":"Miusynsk","min_zoom":8.0,"name:ru":"\u041c\u0438\u0443\u0441\u0438\u043d\u0441\u043a","name:vi":"Miusynsk","name:pl":"Miusynsk","id":337660001,"population":4999,"name:fa":"\u0645\u0648\u0633\u06cc\u0646\u0633\u06a9","kind":"locality","name:en":"Miusynsk","name":"\u041c\u0456\u0443\u0441\u0438\u043d\u0441\u044c\u043a","kind_detail":"town","source":"openstreetmap.org","name:fr":"Mioussynsk","name:es":"Miusynsk"},"coordinates":[2692,441]},{"type":"Point","properties":{"old_name:uk":"\u041f\u0435\u0442\u0440\u0456\u0432\u043a\u0430","kind":"locality","name":"\u041f\u0435\u0442\u0440\u043e\u043f\u0430\u0432\u043b\u0456\u0432\u043a\u0430","kind_detail":"town","old_name:ru":"\u041f\u0435\u0442\u0440\u043e\u0432\u043a\u0430","source":"openstreetmap.org","min_zoom":8.0,"old_name:en":"Petrivka","old_name":"\u041f\u0435\u0442\u0440\u0456\u0432\u043a\u0430","name:ru":"\u041f\u0435\u0442\u0440\u043e\u043f\u0430\u0432\u043b\u043e\u0432\u043a\u0430","id":337584961,"population":4981},"coordinates":[3781,3594]},{"type":"Point","properties":{"kind":"locality","name:en":"Faschivka","name":"\u0424\u0430\u0449\u0456\u0432\u043a\u0430","kind_detail":"town","source":"openstreetmap.org","min_zoom":8.0,"name:ru":"\u0424\u0430\u0449\u0435\u0432\u043a\u0430","id":337604237,"population":4845},"coordinates":[1836,1265]},{"type":"Point","properties":{"kind":"locality","name:en":"Krynychna","name":"\u041a\u0440\u0438\u043d\u0438\u0447\u043d\u0430","kind_detail":"town","source":"openstreetmap.org","min_zoom":8.0,"name:be":"\u041a\u0440\u044b\u043d\u0456\u0447\u043d\u0430\u044f","name:ru":"\u041a\u0440\u0438\u043d\u0438\u0447\u043d\u0430\u044f","id":256613921,"population":4520},"coordinates":[171,609]},{"type":"Point","properties":{"kind":"locality","name:en":"Toshkivka","name":"\u0422\u043e\u0448\u043a\u0456\u0432\u043a\u0430","kind_detail":"town","source":"openstreetmap.org","min_zoom":8.0,"name:ru":"\u0422\u043e\u0448\u043a\u043e\u0432\u043a\u0430","id":337586094,"population":4406},"coordinates":[1784,3479]},{"type":"Point","properties":{"kind":"locality","name:en":"Almazna","name":"\u0410\u043b\u043c\u0430\u0437\u043d\u0430","kind_detail":"town","source":"openstreetmap.org","min_zoom":8.0,"name:ru":"\u0410\u043b\u043c\u0430\u0437\u043d\u0430\u044f","id":337595527,"population":4384},"coordinates":[1792,2349]},{"type":"Point","properties":{"kind":"locality","name:en":"Stizhkivske","name":"\u0421\u0442\u0456\u0436\u043a\u0456\u0432\u0441\u044c\u043a\u0435","kind_detail":"town","source":"openstreetmap.org","min_zoom":8.0,"name:ru":"\u0421\u0442\u043e\u0436\u043a\u043e\u0432\u0441\u043a\u043e\u0435","id":256614078,"population":4084},"coordinates":[1467,564]},{"type":"Point","properties":{"kind":"locality","name:en":"Dubivskyi","name":"\u0414\u0443\u0431\u0456\u0432\u0441\u044c\u043a\u0438\u0439","kind_detail":"town","source":"openstreetmap.org","min_zoom":8.0,"name:ru":"\u0414\u0443\u0431\u043e\u0432\u0441\u043a\u0438\u0439","id":337660861,"population":4074},"coordinates":[3359,322]},{"type":"Point","properties":{"kind":"locality","name:en":"Sofiivskyi","name":"\u0421\u043e\u0444\u0456\u0457\u0432\u0441\u044c\u043a\u0438\u0439","kind_detail":"town","source":"openstreetmap.org","min_zoom":8.0,"name:ru":"\u0421\u043e\u0444\u0438\u0435\u0432\u0441\u043a\u0438\u0439","id":337655753,"population":4050},"coordinates":[2641,994]},{"type":"Point","properties":{"kind":"locality","name:en":"Schotove","name":"\u0429\u043e\u0442\u043e\u0432\u0435","kind_detail":"town","source":"openstreetmap.org","min_zoom":8.0,"name:ru":"\u0429\u0451\u0442\u043e\u0432\u043e","id":337657400,"population":3818},"coordinates":[3363,807]},{"type":"Point","properties":{"kind":"locality","name:en":"Donetskyi","name":"\u0414\u043e\u043d\u0435\u0446\u044c\u043a\u0438\u0439","kind_detail":"town","source":"openstreetmap.org","min_zoom":8.0,"name:ru":"\u0414\u043e\u043d\u0435\u0446\u043a\u0438\u0439","id":337589041,"population":3783},"coordinates":[2054,3103]},{"type":"Point","properties":{"kind":"locality","name:en":"Zaitseve","name":"\u0417\u0430\u0439\u0446\u0435\u0432\u0435","kind_detail":"town","source":"openstreetmap.org","min_zoom":8.0,"name:be":"\u0417\u0430\u0439\u0446\u0430\u0432\u0430","name:ru":"\u0417\u0430\u0439\u0446\u0435\u0432\u043e","id":256613745,"population":3523},"coordinates":[168,1805]},{"type":"Point","properties":{"kind":"locality","name:en":"Bilorichenskyi","name":"\u0411\u0456\u043b\u043e\u0440\u0456\u0447\u0435\u043d\u0441\u044c\u043a\u0438\u0439","kind_detail":"town","source":"openstreetmap.org","min_zoom":8.0,"name:ru":"\u0411\u0435\u043b\u043e\u0440\u0435\u0447\u0435\u043d\u0441\u043a\u0438\u0439","id":337598507,"population":3443},"coordinates":[3287,1997]},{"type":"Point","properties":{"kind":"locality","name:en":"Hirne","name":"\u0413\u0456\u0440\u043d\u0435","kind_detail":"town","source":"openstreetmap.org","min_zoom":8.0,"name:ru":"\u0413\u043e\u0440\u043d\u043e\u0435","id":256614071,"population":3428},"coordinates":[666,311]},{"type":"Point","properties":{"kind":"locality","name:en":"Yuzhna Lomuvatka","name":"\u042e\u0436\u043d\u0430 \u041b\u043e\u043c\u0443\u0432\u0430\u0442\u043a\u0430","kind_detail":"town","source":"openstreetmap.org","min_zoom":8.0,"name:ru":"\u042e\u0436\u043d\u0430\u044f \u041b\u043e\u043c\u043e\u0432\u0430\u0442\u043a\u0430","id":337598517,"population":3408},"coordinates":[1641,1967]},{"type":"Point","properties":{"old_name:uk":"\u0424\u0440\u0443\u043d\u0437\u0435;\u0422\u0430\u0457\u0441\u0456\u0432\u043a\u0430","kind":"locality","name:en":"Sentianivka","name":"\u0421\u0435\u043d\u0442\u044f\u043d\u0456\u0432\u043a\u0430","kind_detail":"town","old_name:ru":"\u0424\u0440\u0443\u043d\u0437\u0435","old_name:zh":"\u5f17\u4f26\u6cfd","source":"openstreetmap.org","min_zoom":8.0,"old_name:en":"Frunze","name:pl":"Sentianiwka","id":337590283,"population":3321},"coordinates":[2305,2984]},{"type":"Point","properties":{"kind":"locality","name:en":"Zuivka","name":"\u0417\u0443\u0457\u0432\u043a\u0430","kind_detail":"town","source":"openstreetmap.org","min_zoom":8.0,"name:ru":"\u0417\u0443\u0435\u0432\u043a\u0430","id":256614066,"population":3269},"coordinates":[820,319]},{"type":"Point","properties":{"kind":"locality","name:en":"Proletarske","name":"\u041f\u0440\u043e\u043b\u0435\u0442\u0430\u0440\u0441\u044c\u043a\u0435","kind_detail":"town","official_name":"\u041f\u2019\u044f\u0442\u0438\u043f\u0456\u043b\u043b\u044f","source":"openstreetmap.org","min_zoom":8.0,"name:ru":"\u041f\u0440\u043e\u043b\u0435\u0442\u0430\u0440\u0441\u043a\u043e\u0435","id":256613969,"population":3263},"coordinates":[376,117]},{"type":"Point","properties":{"kind":"locality","name:en":"Bulavynske","name":"\u0411\u0443\u043b\u0430\u0432\u0438\u043d\u0441\u044c\u043a\u0435","kind_detail":"town","source":"openstreetmap.org","min_zoom":8.0,"name:ru":"\u0411\u0443\u043b\u0430\u0432\u0438\u043d\u0441\u043a\u043e\u0435","id":256613837,"population":3217},"coordinates":[1070,1155]},{"type":"Point","properties":{"kind":"locality","name:en":"Buhaivka","name":"\u0411\u0443\u0433\u0430\u0457\u0432\u043a\u0430","kind_detail":"town","source":"openstreetmap.org","min_zoom":8.0,"name:ru":"\u0411\u0443\u0433\u0430\u0435\u0432\u043a\u0430","id":337599972,"population":3194},"coordinates":[2565,1837]},{"type":"Point","properties":{"kind":"locality","name:en":"Kalynove","name":"\u041a\u0430\u043b\u0438\u043d\u043e\u0432\u0435","kind_detail":"town","source":"openstreetmap.org","min_zoom":8.0,"name:ru":"\u041a\u0430\u043b\u0438\u043d\u043e\u0432\u043e","id":337593689,"population":3180},"coordinates":[1594,2527]},{"type":"Point","properties":{"kind":"locality","name:en":"Olkhovatka","name":"\u041e\u043b\u044c\u0445\u043e\u0432\u0430\u0442\u043a\u0430","kind_detail":"town","source":"openstreetmap.org","min_zoom":8.0,"name:pl":"Olchowatka","id":256613862,"population":3179},"coordinates":[1265,1099]},{"type":"Point","properties":{"kind":"locality","name:en":"Yurivka","name":"\u042e\u0440\u2019\u0457\u0432\u043a\u0430","kind_detail":"town","source":"openstreetmap.org","min_zoom":8.0,"name:ru":"\u042e\u0440\u044c\u0435\u0432\u043a\u0430","id":337596697,"population":3075},"coordinates":[2903,2218]},{"type":"Point","properties":{"kind":"locality","name:en":"Mykhailivka","name":"\u041c\u0438\u0445\u0430\u0439\u043b\u0456\u0432\u043a\u0430","kind_detail":"town","source":"openstreetmap.org","min_zoom":8.0,"name:ru":"\u041c\u0438\u0445\u0430\u0439\u043b\u043e\u0432\u043a\u0430","name:be":"\u041c\u0456\u0445\u0430\u0439\u043b\u0430\u045e\u043a\u0430","name:pl":"Micha\u0142\u00f3wka","id":337660388,"population":2811},"coordinates":[3701,376]},{"type":"Point","properties":{"kind":"locality","name:en":"Kamiane","name":"\u041a\u0430\u043c\u2019\u044f\u043d\u0435","kind_detail":"town","source":"openstreetmap.org","min_zoom":8.0,"name:ru":"\u041a\u0430\u043c\u0435\u043d\u043d\u043e\u0435","name:be":"\u041a\u0430\u043c\u0435\u043d\u043d\u0430\u0435","name:pl":"Kamiane","id":337657680,"population":2758},"coordinates":[3448,769]},{"type":"Point","properties":{"kind":"locality","name:en":"Bokovo-Platove","name":"\u0411\u043e\u043a\u043e\u0432\u043e-\u041f\u043b\u0430\u0442\u043e\u0432\u0435","kind_detail":"town","source":"openstreetmap.org","min_zoom":8.0,"name:ru":"\u0411\u043e\u043a\u043e\u0432\u043e-\u041f\u043b\u0430\u0442\u043e\u0432\u043e","id":337659003,"population":2702},"coordinates":[3044,575]},{"type":"Point","properties":{"kind":"locality","name:en":"Korsun","name":"\u041a\u043e\u0440\u0441\u0443\u043d\u044c","kind_detail":"town","source":"openstreetmap.org","min_zoom":8.0,"name:pl":"Korsun","id":256613852,"population":2696},"coordinates":[331,942]},{"type":"Point","properties":{"kind":"locality","name:en":"Nyzhnie","name":"\u041d\u0438\u0436\u043d\u0454","kind_detail":"town","source":"openstreetmap.org","min_zoom":8.0,"name:ru":"\u041d\u0438\u0436\u043d\u0435\u0435","id":337586509,"population":2651},"coordinates":[1901,3434]},{"type":"Point","properties":{"kind":"locality","name:en":"Horodysche","name":"\u0413\u043e\u0440\u043e\u0434\u0438\u0449\u0435","kind_detail":"town","source":"openstreetmap.org","min_zoom":8.0,"name:ru":"\u0413\u043e\u0440\u043e\u0434\u044b\u0449\u0435","name:be":"\u0413\u0430\u0440\u0430\u0434\u0437\u0456\u0448\u0447\u0430","id":337602558,"population":2602},"coordinates":[1936,1464]},{"type":"Point","properties":{"kind":"locality","name:en":"Seleznivka","name":"\u0421\u0435\u043b\u0435\u0437\u043d\u0456\u0432\u043a\u0430","kind_detail":"town","source":"openstreetmap.org","min_zoom":8.0,"name:ru":"\u0421\u0435\u043b\u0435\u0437\u043d\u0451\u0432\u043a\u0430","id":337600086,"population":2568},"coordinates":[2393,1793]},{"type":"Point","properties":{"kind":"locality","name:en":"Krasnyi Kut","name":"\u041a\u0440\u0430\u0441\u043d\u0438\u0439 \u041a\u0443\u0442","kind_detail":"town","source":"openstreetmap.org","min_zoom":8.0,"name:ru":"\u041a\u0440\u0430\u0441\u043d\u044b\u0439 \u041a\u0443\u0442","id":337656041,"population":2563},"coordinates":[2387,961]},{"type":"Point","properties":{"kind":"locality","name:en":"Mykhailivka","name":"\u041c\u0438\u0445\u0430\u0439\u043b\u0456\u0432\u043a\u0430","kind_detail":"town","source":"openstreetmap.org","min_zoom":8.0,"name:ru":"\u041c\u0438\u0445\u0430\u0439\u043b\u043e\u0432\u043a\u0430","name:pl":"Micha\u0142\u00f3wka","id":337596730,"population":2467},"coordinates":[2732,2206]},{"type":"Point","properties":{"kind":"locality","name:en":"Faschivka","name":"\u0424\u0430\u0449\u0456\u0432\u043a\u0430","kind_detail":"town","source":"openstreetmap.org","min_zoom":8.0,"name:ru":"\u0424\u0430\u0449\u0435\u0432\u043a\u0430","id":337606150,"population":2459},"coordinates":[2040,1032]},{"type":"Point","properties":{"kind":"locality","name:en":"Zalisne","name":"\u0417\u0430\u043b\u0456\u0441\u043d\u0435","kind_detail":"town","source":"openstreetmap.org","min_zoom":8.0,"name:ru":"\u0417\u0430\u043b\u0435\u0441\u043d\u043e\u0435","name:pl":"Zalisne","id":256614012,"population":2432},"coordinates":[2450,182]},{"type":"Point","properties":{"kind":"locality","name:en":"Novotoshkivske","name":"\u041d\u043e\u0432\u043e\u0442\u043e\u0448\u043a\u0456\u0432\u0441\u044c\u043a\u0435","kind_detail":"town","source":"openstreetmap.org","min_zoom":8.0,"name:ru":"\u041d\u043e\u0432\u043e\u0442\u043e\u0448\u043a\u043e\u0432\u0441\u043a\u043e\u0435","name:pl":"Nowotroczkowskoje","id":337587920,"population":2349},"coordinates":[1931,3218]},{"type":"Point","properties":{"kind":"locality","name:en":"Komyshuvakha","name":"\u041a\u043e\u043c\u0438\u0448\u0443\u0432\u0430\u0445\u0430","kind_detail":"town","source":"openstreetmap.org","min_zoom":8.0,"name:ru":"\u041a\u0430\u043c\u044b\u0448\u0435\u0432\u0430\u0445\u0430","id":337588693,"population":2310},"coordinates":[1364,3095]},{"type":"Point","properties":{"kind":"locality","name:en":"Andriivka","name":"\u0410\u043d\u0434\u0440\u0456\u0457\u0432\u043a\u0430","kind_detail":"town","source":"openstreetmap.org","min_zoom":8.0,"name:ru":"\u0410\u043d\u0434\u0440\u0435\u0435\u0432\u043a\u0430","name:pl":"Andrzej\u00f3wka","id":256614035,"population":2236},"coordinates":[2180,548]},{"type":"Point","properties":{"kind":"locality","name:en":"Serdyte","name":"\u0421\u0435\u0440\u0434\u0438\u0442\u0435","kind_detail":"town","source":"openstreetmap.org","min_zoom":8.0,"name:ru":"\u0421\u0435\u0440\u0434\u0438\u0442\u043e\u0435","name:pl":"Serdyte","id":256614089,"population":1920},"coordinates":[1240,222]},{"type":"Point","properties":{"kind":"locality","name:en":"Yaschykove","name":"\u042f\u0449\u0438\u043a\u043e\u0432\u0435","kind_detail":"town","source":"openstreetmap.org","min_zoom":8.0,"name:ru":"\u042f\u0449\u0438\u043a\u043e\u0432\u043e","id":337599265,"population":1877},"coordinates":[2277,1869]},{"type":"Point","properties":{"kind":"locality","name:en":"Komisarivka","name":"\u041a\u043e\u043c\u0456\u0441\u0430\u0440\u0456\u0432\u043a\u0430","kind_detail":"town","source":"openstreetmap.org","min_zoom":8.0,"name:ru":"\u041a\u043e\u043c\u0438\u0441\u0441\u0430\u0440\u043e\u0432\u043a\u0430","id":337600321,"population":1785},"coordinates":[1646,1760]},{"type":"Point","properties":{"kind":"locality","name:en":"Malomykolaivka","name":"\u041c\u0430\u043b\u043e\u043c\u0438\u043a\u043e\u043b\u0430\u0457\u0432\u043a\u0430","kind_detail":"town","source":"openstreetmap.org","min_zoom":8.0,"name:ru":"\u041c\u0430\u043b\u043e\u043d\u0438\u043a\u043e\u043b\u0430\u0435\u0432\u043a\u0430","id":337602984,"population":1771},"coordinates":[3059,1403]},{"type":"Point","properties":{"kind":"locality","name:en":"Verkhnii Naholchyk","name":"\u0412\u0435\u0440\u0445\u043d\u0456\u0439 \u041d\u0430\u0433\u043e\u043b\u044c\u0447\u0438\u043a","kind_detail":"town","source":"openstreetmap.org","min_zoom":8.0,"name:ru":"\u0412\u0435\u0440\u0445\u043d\u0438\u0439 \u041d\u0430\u0433\u043e\u043b\u044c\u0447\u0438\u043a","id":337660169,"population":1748},"coordinates":[3251,415]},{"type":"Point","properties":{"kind":"locality","name:en":"Nyzhnii Naholchyk","name":"\u041d\u0438\u0436\u043d\u0456\u0439 \u041d\u0430\u0433\u043e\u043b\u044c\u0447\u0438\u043a","kind_detail":"town","source":"openstreetmap.org","min_zoom":8.0,"name:ru":"\u041d\u0438\u0436\u043d\u0438\u0439 \u041d\u0430\u0433\u043e\u043b\u044c\u0447\u0438\u043a","id":2422469576,"population":1661},"coordinates":[3178,133]},{"type":"Point","properties":{"kind":"locality","name:en":"Oleksandrivske","name":"\u041e\u043b\u0435\u043a\u0441\u0430\u043d\u0434\u0440\u0456\u0432\u0441\u044c\u043a\u0435","kind_detail":"town","source":"openstreetmap.org","min_zoom":8.0,"name:ru":"\u0410\u043b\u0435\u043a\u0441\u0430\u043d\u0434\u0440\u043e\u0432\u0441\u043a\u043e\u0435","id":256613836,"population":1648},"coordinates":[923,1231]},{"type":"Point","properties":{"kind":"locality","name:en":"Syrotyne","name":"\u0421\u0438\u0440\u043e\u0442\u0438\u043d\u0435","kind_detail":"town","source":"openstreetmap.org","min_zoom":8.0,"name:ru":"\u0421\u0438\u0440\u043e\u0442\u0438\u043d\u043e","id":337580330,"population":1604},"coordinates":[1578,4063]},{"type":"Point","properties":{"kind":"locality","name:en":"Kontarne","name":"\u041a\u043e\u043d\u0442\u0430\u0440\u043d\u0435","kind_detail":"town","source":"openstreetmap.org","min_zoom":8.0,"name:ru":"\u041a\u043e\u043d\u0442\u0430\u0440\u043d\u043e\u0435","name:pl":"Kontarne","id":256614099,"population":1576},"coordinates":[1578,437]},{"type":"Point","properties":{"kind":"locality","name:en":"Proletarskyi","name":"\u041f\u0440\u043e\u043b\u0435\u0442\u0430\u0440\u0441\u044c\u043a\u0438\u0439","kind_detail":"town","official_name":"\u041a\u0430\u0440\u0442\u0443\u0448\u0438\u043d\u0435","source":"openstreetmap.org","min_zoom":8.0,"name:ru":"\u041f\u0440\u043e\u043b\u0435\u0442\u0430\u0440\u0441\u043a\u0438\u0439","name:pl":"Pro\u0142etar\u015bkyj","id":337658631,"population":1548},"coordinates":[3734,642]},{"type":"Point","properties":{"kind":"locality","name:en":"Sverdlove","name":"\u0421\u0432\u0435\u0440\u0434\u043b\u043e\u0432\u0435","kind_detail":"town","official_name":"\u0425\u043e\u043b\u043e\u0434\u043d\u0435","source":"openstreetmap.org","min_zoom":8.0,"name:ru":"\u0421\u0432\u0435\u0440\u0434\u043b\u043e\u0432\u043e","id":256613952,"population":1522},"coordinates":[274,165]},{"type":"Point","properties":{"kind":"locality","name:en":"Yesaulivka","name":"\u0404\u0441\u0430\u0443\u043b\u0456\u0432\u043a\u0430","kind_detail":"town","source":"openstreetmap.org","min_zoom":8.0,"name:ru":"\u0415\u0441\u0430\u0443\u043b\u043e\u0432\u043a\u0430","id":2422469577,"population":1506},"coordinates":[3077,269]},{"type":"Point","properties":{"kind":"locality","name:en":"Khrustalne","name":"\u0425\u0440\u0443\u0441\u0442\u0430\u043b\u044c\u043d\u0435","kind_detail":"town","source":"openstreetmap.org","min_zoom":8.0,"name:ru":"\u0425\u0440\u0443\u0441\u0442\u0430\u043b\u044c\u043d\u043e\u0435","id":337658100,"population":1469},"coordinates":[2592,708]},{"type":"Point","properties":{"kind":"locality","name:en":"Chervonohvardiiske","name":"\u0427\u0435\u0440\u0432\u043e\u043d\u043e\u0433\u0432\u0430\u0440\u0434\u0456\u0439\u0441\u044c\u043a\u0435","kind_detail":"town","official_name":"\u041a\u0440\u0438\u043d\u0438\u0447\u0430\u043d\u0441\u044c\u043a\u0435","source":"openstreetmap.org","min_zoom":8.0,"name:ru":"\u0427\u0435\u0440\u0432\u043e\u043d\u043e\u0433\u0432\u0430\u0440\u0434\u0435\u0439\u0441\u043a\u043e\u0435","id":337592700,"population":1444},"coordinates":[2284,2655]},{"type":"Point","properties":{"kind":"locality","name:en":"Vrubivskyi","name":"\u0412\u0440\u0443\u0431\u0456\u0432\u0441\u044c\u043a\u0438\u0439","kind_detail":"town","source":"openstreetmap.org","min_zoom":8.0,"name:ru":"\u0412\u0440\u0443\u0431\u043e\u0432\u0441\u043a\u0438\u0439","id":337599191,"population":1326},"coordinates":[3321,1923]},{"type":"Point","properties":{"kind":"locality","name:en":"Shterivka","name":"\u0428\u0442\u0435\u0440\u0456\u0432\u043a\u0430","kind_detail":"town","source":"openstreetmap.org","min_zoom":8.0,"name:ru":"\u0428\u0442\u0435\u0440\u043e\u0432\u043a\u0430","id":337602911,"population":1323},"coordinates":[2841,1423]},{"type":"Point","properties":{"kind":"locality","name:en":"Verhulivka","name":"\u0412\u0435\u0440\u0433\u0443\u043b\u0456\u0432\u043a\u0430","kind_detail":"town","source":"openstreetmap.org","min_zoom":8.0,"name:ru":"\u0412\u0435\u0440\u0433\u0443\u043b\u0451\u0432\u043a\u0430","id":337599976,"population":1321},"coordinates":[1631,1805]},{"type":"Point","properties":{"kind":"locality","name:en":"Hirnytske","name":"\u0413\u0456\u0440\u043d\u0438\u0446\u044c\u043a\u0435","kind_detail":"town","source":"openstreetmap.org","min_zoom":8.0,"name:ru":"\u0413\u043e\u0440\u043d\u044f\u0446\u043a\u043e\u0435","id":256614003,"population":1177},"coordinates":[2519,63]},{"type":"Point","properties":{"kind":"locality","name:en":"Vuhliar","name":"\u0412\u0443\u0433\u043b\u044f\u0440","kind_detail":"town","source":"openstreetmap.org","min_zoom":8.0,"id":256613925,"population":1109},"coordinates":[265,115]},{"type":"Point","properties":{"kind":"locality","name:en":"Lenina","name":"\u041b\u0435\u043d\u0456\u043d\u0430","kind_detail":"town","official_name":"\u041c\u0430\u0440\u0456\u044f","source":"openstreetmap.org","min_zoom":8.0,"name:ru":"\u041b\u0435\u043d\u0438\u043d\u0430","id":337598560,"population":1083},"coordinates":[3437,1956]},{"type":"Point","properties":{"kind":"locality","name:en":"Vrubivka","name":"\u0412\u0440\u0443\u0431\u0456\u0432\u043a\u0430","kind_detail":"town","source":"openstreetmap.org","min_zoom":8.0,"name:ru":"\u0412\u0440\u0443\u0431\u043e\u0432\u043a\u0430","id":337587221,"population":1030},"coordinates":[1217,3289]},{"type":"Point","properties":{"kind":"locality","name:en":"Kniahynivka","name":"\u041a\u043d\u044f\u0433\u0438\u043d\u0456\u0432\u043a\u0430","kind_detail":"town","source":"openstreetmap.org","min_zoom":8.0,"name:ru":"\u041a\u043d\u044f\u0433\u0438\u043d\u0435\u0432\u043a\u0430","id":337659323,"population":946},"coordinates":[2586,543]},{"type":"Point","properties":{"kind":"locality","name:en":"Zaporizhzhia","name":"\u0417\u0430\u043f\u043e\u0440\u0456\u0436\u0436\u044f","name:lt":"Zaporo\u017e\u0117","kind_detail":"town","source":"openstreetmap.org","min_zoom":8.0,"name:ru":"\u0417\u0430\u043f\u043e\u0440\u043e\u0436\u044c\u0435","id":337605159,"population":940},"coordinates":[2202,1173]},{"type":"Point","properties":{"kind":"locality","name:en":"Vovchoiarivka","name":"\u0412\u043e\u0432\u0447\u043e\u044f\u0440\u0456\u0432\u043a\u0430","kind_detail":"town","source":"openstreetmap.org","min_zoom":8.0,"name:ru":"\u0412\u043e\u043b\u0447\u0435\u044f\u0440\u043e\u0432\u043a\u0430","id":337584206,"population":933},"coordinates":[1173,3742]},{"type":"Point","properties":{"kind":"locality","name:en":"Krasnyi Oktiabr","name":"\u041a\u0440\u0430\u0441\u043d\u0438\u0439 \u041e\u043a\u0442\u044f\u0431\u0440","kind_detail":"town","official_name":"\u041b\u0438\u043f\u0441\u044c\u043a\u0435","source":"openstreetmap.org","min_zoom":8.0,"name:be":"\u0427\u044b\u0440\u0432\u043e\u043d\u044b \u041a\u0430\u0441\u0442\u0440\u044b\u0447\u043d\u0456\u043a","name:ru":"\u041a\u0440\u0430\u0441\u043d\u044b\u0439 \u041e\u043a\u0442\u044f\u0431\u0440\u044c","id":256613922,"population":932},"coordinates":[523,404]},{"type":"Point","properties":{"kind":"locality","name:en":"Lymanchuk","name":"\u041b\u0438\u043c\u0430\u043d\u0447\u0443\u043a","kind_detail":"town","source":"openstreetmap.org","min_zoom":8.0,"id":256614039,"population":920},"coordinates":[2493,110]},{"type":"Point","properties":{"kind":"locality","name:en":"Lomuvatka","name":"\u041b\u043e\u043c\u0443\u0432\u0430\u0442\u043a\u0430","kind_detail":"town","source":"openstreetmap.org","min_zoom":8.0,"name:ru":"\u041b\u043e\u043c\u043e\u0432\u0430\u0442\u043a\u0430","id":337597971,"population":920},"coordinates":[1731,2027]},{"type":"Point","properties":{"kind":"locality","name:en":"Hrushove","name":"\u0413\u0440\u0443\u0448\u043e\u0432\u0435","kind_detail":"town","source":"openstreetmap.org","min_zoom":8.0,"name:ru":"\u0413\u0440\u0443\u0448\u0451\u0432\u043e\u0435","id":337605488,"population":919},"coordinates":[2446,1122]},{"type":"Point","properties":{"kind":"locality","name:en":"Bairachky","name":"\u0411\u0430\u0439\u0440\u0430\u0447\u043a\u0438","kind_detail":"town","source":"openstreetmap.org","min_zoom":8.0,"id":337600257,"population":867},"coordinates":[1829,1757]},{"type":"Point","properties":{"kind":"locality","name:en":"Tsentralnyi","name":"\u0426\u0435\u043d\u0442\u0440\u0430\u043b\u044c\u043d\u0438\u0439","kind_detail":"town","source":"openstreetmap.org","min_zoom":8.0,"name:ru":"\u0426\u0435\u043d\u0442\u0440\u0430\u043b\u044c\u043d\u044b\u0439","id":337601316,"population":847},"coordinates":[1760,1571]},{"type":"Point","properties":{"kind":"locality","name:en":"Voronove","name":"\u0412\u043e\u0440\u043e\u043d\u043e\u0432\u0435","kind_detail":"town","source":"openstreetmap.org","min_zoom":8.0,"name:ru":"\u0412\u043e\u0440\u043e\u043d\u043e\u0432\u043e","id":337581042,"population":839},"coordinates":[1760,3987]},{"type":"Point","properties":{"kind":"locality","name:en":"Maloriazantseve","name":"\u041c\u0430\u043b\u043e\u0440\u044f\u0437\u0430\u043d\u0446\u0435\u0432\u0435","kind_detail":"town","source":"openstreetmap.org","min_zoom":8.0,"name:ru":"\u041c\u0430\u043b\u043e\u0440\u044f\u0437\u0430\u043d\u0446\u0435\u0432\u043e","id":337581733,"population":838},"coordinates":[1257,3931]},{"type":"Point","properties":{"kind":"locality","name:en":"Hirnyk","name":"\u0413\u0456\u0440\u043d\u0438\u043a","kind_detail":"town","source":"openstreetmap.org","min_zoom":8.0,"name:ru":"\u0413\u043e\u0440\u043d\u044f\u043a","name:pl":"Hirnyk","id":337660495,"population":817},"coordinates":[3571,352]},{"type":"Point","properties":{"kind":"locality","name:en":"Olenivka","name":"\u041e\u043b\u0435\u043d\u0456\u0432\u043a\u0430","kind_detail":"town","source":"openstreetmap.org","min_zoom":8.0,"name:ru":"\u041e\u043b\u0435\u043d\u043e\u0432\u043a\u0430","id":256613859,"population":797},"coordinates":[844,1208]},{"type":"Point","properties":{"kind":"locality","name:en":"Vilkhivka","name":"\u0412\u0456\u043b\u044c\u0445\u0456\u0432\u043a\u0430","kind_detail":"town","source":"openstreetmap.org","min_zoom":8.0,"name:be":"\u0410\u043b\u044c\u0445\u043e\u045e\u043a\u0430","name:ru":"\u041e\u043b\u044c\u0445\u043e\u0432\u043a\u0430","id":256613887,"population":774},"coordinates":[983,535]},{"type":"Point","properties":{"kind":"locality","name:en":"Moskovske","name":"\u041c\u043e\u0441\u043a\u043e\u0432\u0441\u044c\u043a\u0435","kind_detail":"town","source":"openstreetmap.org","min_zoom":8.0,"name:be":"\u041c\u0430\u0441\u043a\u043e\u045e\u0441\u043a\u0456\u044f","name:ru":"\u041c\u043e\u0441\u043a\u043e\u0432\u0441\u043a\u043e\u0435","id":256614088,"population":696},"coordinates":[1665,526]},{"type":"Point","properties":{"kind":"locality","name:en":"Krasna Hora","name":"\u041a\u0440\u0430\u0441\u043d\u0430 \u0413\u043e\u0440\u0430","kind_detail":"town","source":"openstreetmap.org","min_zoom":8.0,"name:ru":"\u041a\u0440\u0430\u0441\u043d\u0430\u044f \u0413\u043e\u0440\u0430","id":256613680,"population":686},"coordinates":[137,2955]},{"type":"Point","properties":{"kind":"locality","name:en":"Druzhne","name":"\u0414\u0440\u0443\u0436\u043d\u0435","kind_detail":"town","source":"openstreetmap.org","min_zoom":8.0,"name:ru":"\u0414\u0440\u0443\u0436\u043d\u043e\u0435","id":256613839,"population":681},"coordinates":[912,914]},{"type":"Point","properties":{"kind":"locality","name:en":"Sadovo-Khrustalnenskyi","name":"\u0421\u0430\u0434\u043e\u0432\u043e-\u0425\u0440\u0443\u0441\u0442\u0430\u043b\u044c\u043d\u0435\u043d\u0441\u044c\u043a\u0438\u0439","kind_detail":"town","source":"openstreetmap.org","min_zoom":8.0,"name:ru":"\u0421\u0430\u0434\u043e\u0432\u043e-\u0425\u0440\u0443\u0441\u0442\u0430\u043b\u044c\u043d\u0435\u043d\u0441\u043a\u0438\u0439","id":337658191,"population":622},"coordinates":[2210,709]},{"type":"Point","properties":{"kind":"locality","name:en":"Velyke Orikhove","name":"\u0412\u0435\u043b\u0438\u043a\u0435 \u041e\u0440\u0456\u0445\u043e\u0432\u0435","kind_detail":"town","source":"openstreetmap.org","min_zoom":8.0,"name:ru":"\u0412\u0435\u043b\u0438\u043a\u043e\u0435 \u041e\u0440\u0435\u0445\u043e\u0432\u043e","id":256613931,"population":617},"coordinates":[480,423]},{"type":"Point","properties":{"kind":"locality","name:en":"Kolosnykove","name":"\u041a\u043e\u043b\u043e\u0441\u043d\u0438\u043a\u043e\u0432\u0435","kind_detail":"town","source":"openstreetmap.org","min_zoom":8.0,"name:ru":"\u041a\u043e\u043b\u043e\u0441\u043d\u0438\u043a\u043e\u0432\u043e","id":256613965,"population":611},"coordinates":[269,245]},{"type":"Point","properties":{"kind":"locality","name:en":"Pervomaiske","name":"\u041f\u0435\u0440\u0432\u043e\u043c\u0430\u0439\u0441\u044c\u043a\u0435","kind_detail":"town","source":"openstreetmap.org","min_zoom":8.0,"name:ru":"\u041f\u0435\u0440\u0432\u043e\u043c\u0430\u0439\u0441\u043a\u043e\u0435","id":256613997,"population":542},"coordinates":[2354,20]},{"type":"Point","properties":{"kind":"locality","name:en":"Huselske","name":"\u0413\u0443\u0441\u0435\u043b\u044c\u0441\u044c\u043a\u0435","kind_detail":"town","source":"openstreetmap.org","min_zoom":8.0,"name:ru":"\u0413\u0443\u0441\u0435\u043b\u044c\u0441\u043a\u043e\u0435","id":256613964,"population":464},"coordinates":[436,23]},{"type":"Point","properties":{"kind":"locality","name:en":"Fedorivka","name":"\u0424\u0435\u0434\u043e\u0440\u0456\u0432\u043a\u0430","kind_detail":"town","source":"openstreetmap.org","min_zoom":8.0,"name:ru":"\u0424\u0451\u0434\u043e\u0440\u043e\u0432\u043a\u0430","id":337602770,"population":410},"coordinates":[2561,1432]},{"type":"Point","properties":{"kind":"locality","name:en":"Nykyforove","name":"\u041d\u0438\u043a\u0438\u0444\u043e\u0440\u043e\u0432\u0435","kind_detail":"town","source":"openstreetmap.org","min_zoom":8.0,"name:ru":"\u041d\u0438\u043a\u0438\u0444\u043e\u0440\u043e\u0432\u043e","id":256614040,"population":382},"coordinates":[2579,78]},{"type":"Point","properties":{"kind":"locality","name:en":"Myrna Dolyna","name":"\u041c\u0438\u0440\u043d\u0430 \u0414\u043e\u043b\u0438\u043d\u0430","kind_detail":"town","source":"openstreetmap.org","min_zoom":8.0,"name:ru":"\u041c\u0438\u0440\u043d\u0430\u044f \u0414\u043e\u043b\u0438\u043d\u0430","id":337584967,"population":355},"coordinates":[1484,3595]},{"type":"Point","properties":{"kind":"locality","name:en":"Brazhyne","name":"\u0411\u0440\u0430\u0436\u0438\u043d\u0435","kind_detail":"town","source":"openstreetmap.org","min_zoom":8.0,"name:ru":"\u0411\u0440\u0430\u0436\u0438\u043d\u043e","id":256614036,"population":328},"coordinates":[2499,27]},{"type":"Point","properties":{"kind":"locality","name:en":"Hannivka","name":"\u0413\u0430\u043d\u043d\u0456\u0432\u043a\u0430","kind_detail":"town","source":"openstreetmap.org","min_zoom":8.0,"name:ru":"\u0410\u043d\u043d\u043e\u0432\u043a\u0430","id":337596919,"population":274},"coordinates":[1693,2169]},{"type":"Point","properties":{"kind":"locality","name:en":"Tatsyne","name":"\u0422\u0430\u0446\u0438\u043d\u0435","kind_detail":"town","source":"openstreetmap.org","min_zoom":8.0,"name:ru":"\u0422\u0430\u0446\u0438\u043d\u043e","id":337660484,"population":272},"coordinates":[3622,348]},{"type":"Point","properties":{"kind":"locality","name:en":"Hlybokyi","name":"\u0413\u043b\u0438\u0431\u043e\u043a\u0438\u0439","kind_detail":"town","source":"openstreetmap.org","min_zoom":8.0,"name:ru":"\u0413\u043b\u0443\u0431\u043e\u043a\u0438\u0439","id":337597216,"population":221},"coordinates":[1799,2129]},{"type":"Point","properties":{"kind":"locality","name:en":"Mykolaivka","name":"\u041c\u0438\u043a\u043e\u043b\u0430\u0457\u0432\u043a\u0430","kind_detail":"town","source":"openstreetmap.org","min_zoom":8.0,"name:ru":"\u041d\u0438\u043a\u043e\u043b\u0430\u0435\u0432\u043a\u0430","name:pl":"Miko\u0142aj\u00f3wka","id":256614050,"population":167},"coordinates":[807,49]},{"type":"Point","properties":{"kind":"locality","name:en":"Pryberezhne","name":"\u041f\u0440\u0438\u0431\u0435\u0440\u0435\u0436\u043d\u0435","kind_detail":"town","source":"openstreetmap.org","min_zoom":8.0,"name:ru":"\u041f\u0440\u0438\u0431\u0440\u0435\u0436\u043d\u043e\u0435","id":256613873,"population":157},"coordinates":[1034,1127]},{"type":"Point","properties":{"kind":"locality","name:en":"Lisne","name":"\u041b\u0456\u0441\u043d\u0435","kind_detail":"town","source":"openstreetmap.org","min_zoom":8.0,"name:ru":"\u041b\u0435\u0441\u043d\u043e\u0435","id":256613919,"population":139},"coordinates":[477,475]}]},"transit":{"type":"GeometryCollection","geometries":[{"type":"MultiLineString","properties":{"kind":"train","name":"\u041a\u0443\u0440\u0434\u044e\u043c\u0456\u0432\u043a\u0430 \u2192 \u041a\u0440\u0430\u0441\u043d\u0438\u0439 \u041b\u0438\u043c\u0430\u043d \u2192 \u0406\u0437\u044e\u043c","sort_rank":275,"source":"openstreetmap.org","min_zoom":6.0,"name:ru":"\u041a\u0443\u0440\u0434\u044e\u043c\u043e\u0432\u043a\u0430 \u2192 \u041a\u0440\u0430\u0441\u043d\u044b\u0439 \u041b\u0438\u043c\u0430\u043d \u2192 \u0418\u0437\u044e\u043c","ref":"\u041a\u0443\u0440\u0434\u044e\u043c\u0456\u0432\u043a\u0430 - \u0406\u0437\u044e\u043c","osm_relation":true},"arcs":[[2],[3],[4],[5],[6]]},{"type":"MultiLineString","properties":{"kind":"train","network":"\u0423\u043a\u0440\u0417\u0430\u043bi\u0437\u043d\u0438\u0446\u044f","sort_rank":275,"source":"openstreetmap.org","min_zoom":6.0,"operator":"\u0423\u043a\u0440\u0417\u0430\u043bi\u0437\u043d\u0438\u0446\u044f","ref":"\u0406\u043b\u043e\u0432\u0430\u0439\u0441\u044c\u043a - \u0413\u043e\u0440\u043b\u0456\u0432\u043a\u0430 - \u0411\u0430\u0439\u0440\u0430\u043a","osm_relation":true},"arcs":[[7],[8],[9],[10],[11],[12],[13],[14],[15],[16],[17],[18],[19],[20],[21],[22],[23],[24],[25],[26],[27],[28],[29],[30],[31],[32],[33],[34],[35],[36],[37],[38],[39],[40],[41],[42],[43],[44],[45],[46],[47],[48],[49],[50],[51],[52],[53],[54],[55],[56],[57],[58],[59],[60],[61],[62],[63],[64]]},{"type":"MultiLineString","properties":{"source":"openstreetmap.org","kind":"train","name":"\u041a\u0443\u043f\u2019\u044f\u043d\u0441\u044c\u043a - \u041f\u043e\u043f\u0430\u0441\u043d\u0430","sort_rank":275,"ref":"6329","min_zoom":6.0,"osm_relation":true},"arcs":[[65],[66]]},{"type":"MultiLineString","properties":{"kind":"train","network":"\u0414\u043e\u043d\u0435\u0446\u043a\u0430\u044f \u0436\u0435\u043b\u0435\u0437\u043d\u0430\u044f \u0434\u043e\u0440\u043e\u0433\u0430","sort_rank":275,"source":"openstreetmap.org","min_zoom":6.0,"operator":"\u0423\u0417","ref":"\u041b\u0443\u0433\u0430\u043d\u0441\u044c\u043a - \u041c\u0430\u043d\u0443\u0457\u043bi\u0432\u043a\u0430","osm_relation":true,"name":"\u043f\u0435\u0440\u0435\u0433\u043e\u043d \u041a\u043e\u043c\u043c\u0443\u043d\u0430\u0440\u0441\u043a-\u041a\u0438\u043f\u0443\u0447\u0430\u044f"},"arcs":[[67],[68],[69]]}]},"pois":{"type":"GeometryCollection","geometries":[{"type":"Point","properties":{"kind":"protected_area","protect_class":"5","area":34524800,"source":"openstreetmap.org","min_zoom":8.0,"tier":2,"name:ru":"\u0420\u0435\u0433\u0438\u043e\u043d\u0430\u043b\u044c\u043d\u044b\u0439 \u043b\u0430\u043d\u0434\u0448\u0430\u0444\u0442\u043d\u044b\u0439 \u043f\u0430\u0440\u043a \u00ab\u0417\u0443\u0435\u0432\u0441\u043a\u0438\u0439\u00bb","id":-4649615,"osm_relation":true,"name":"\u0420\u0435\u0433\u0456\u043e\u043d\u0430\u043b\u044c\u043d\u0438\u0439 \u043b\u0430\u043d\u0434\u0448\u0430\u0444\u0442\u043d\u0438\u0439 \u043f\u0430\u0440\u043a \u00ab\u0417\u0443\u0457\u0432\u0441\u044c\u043a\u0438\u0439\u00bb"},"coordinates":[945,346]},{"type":"Point","properties":{"kind":"protected_area","protect_class":"4","area":11144900,"source":"openstreetmap.org","min_zoom":8.0,"tier":2,"name:ru":"\u0411\u043e\u0442\u0430\u043d\u0438\u0447\u0435\u0441\u043a\u0438\u0439 \u0437\u0430\u043a\u0430\u0437\u043d\u0438\u043a \u00ab\u041d\u0430\u0433\u043e\u043b\u044c\u0447\u0430\u043d\u0441\u043a\u0438\u0439\u00bb","id":-3951329,"osm_relation":true,"name":"\u0411\u043e\u0442\u0430\u043d\u0456\u0447\u043d\u0438\u0439 \u0437\u0430\u043a\u0430\u0437\u043d\u0438\u043a \u00ab\u041d\u0430\u0433\u043e\u043b\u044c\u0447\u0430\u043d\u0441\u044c\u043a\u0438\u0439\u00bb"},"coordinates":[3334,84]},{"type":"Point","properties":{"kind":"protected_area","protect_class":"4","area":54003200,"source":"openstreetmap.org","min_zoom":8.0,"tier":2,"name:ru":"\u041e\u0431\u0449\u0435\u0437\u043e\u043e\u043b\u043e\u0433\u0438\u0447\u0435\u0441\u043a\u0438\u0439 \u0437\u0430\u043a\u0430\u0437\u043d\u0438\u043a \u00ab\u0418\u043b\u043b\u0438\u0440\u0438\u0439\u0441\u043a\u0438\u0439\u00bb","id":-3878764,"osm_relation":true,"name":"\u0417\u0430\u0433\u0430\u043b\u044c\u043d\u043e\u0437\u043e\u043e\u043b\u043e\u0433\u0456\u0447\u043d\u0438\u0439 \u0437\u0430\u043a\u0430\u0437\u043d\u0438\u043a \u00ab\u0406\u043b\u043b\u0456\u0440\u0456\u0439\u0441\u044c\u043a\u0438\u0439\u00bb"},"coordinates":[3154,1658]}]},"boundaries":{"type":"GeometryCollection","geometries":[{"type":"LineString","properties":{"name:right:hy":"\u053c\u0578\u0582\u0563\u0561\u0576\u057d\u056f\u056b \u0574\u0561\u0580\u0566","name:right:no":"Luhansk oblast","name:right:hr":"Luhanska oblast","name:left:sv":"Donetsk oblast","name:right:hu":"Luhanszki ter\u00fclet","name:left:sr":"\u0414\u043e\u045a\u0435\u0447\u043a\u0430 \u043e\u0431\u043b\u0430\u0441\u0442","name:right:lt":"Luhansko sritis","name:right:lv":"Luhanskas apgabals","name:left:lt":"Donecko sritis","name:left:sh":"Done\u010dka oblast","name:left:sk":"Doneck\u00e1 oblas\u0165","name:right:mr":"\u0932\u0941\u0939\u093e\u0928\u094d\u0938\u094d\u0915 \u0913\u092c\u094d\u0932\u093e\u0938\u094d\u0924","name:left:hu":"Donecki ter\u00fclet","name:left:hr":"Done\u010dka oblast","name:right:os":"\u041b\u0443\u0433\u0430\u043d\u0441\u0447\u044b \u043e\u0431\u043b\u00e6\u0441\u0442","name:right:vi":"Luhansk (t\u1ec9nh)","sort_rank":256,"name:left:ca":"Prov\u00edncia de Donetsk","source":"openstreetmap.org","name:right:ar":"\u0644\u0648\u0647\u0627\u0646\u0633\u0643 \u0623\u0648\u0628\u0644\u0627\u0633\u062a","name:left:cs":"Don\u011bck\u00e1 oblast","name:left":"\u0414\u043e\u043d\u0435\u0446\u044c\u043a\u0430 \u043e\u0431\u043b\u0430\u0441\u0442\u044c","name:right:es":"\u00d3blast de Lugansk","name:right:sh":"Luganska oblast","name:right:sr":"\u041b\u0443\u0433\u0430\u043d\u0441\u043a\u0430 \u043e\u0431\u043b\u0430\u0441\u0442","name:left:ka":"\u10d3\u10dd\u10dc\u10d4\u10ea\u10d9\u10d8\u10e1 \u10dd\u10da\u10e5\u10d8","name:right:eu":"Luhanskeko oblasta","name:right:et":"Luganski oblast","name:left:ko":"\ub3c4\ub124\uce20\ud06c \uc8fc","name:right:it":"Oblast' di Luhans'k","name:left:ro":"Regiunea Done\u021bk","name:right:ru":"\u041b\u0443\u0433\u0430\u043d\u0441\u043a\u0430\u044f \u043e\u0431\u043b\u0430\u0441\u0442\u044c","name:right:ro":"Regiunea Luhansk","name:left:ru":"\u0414\u043e\u043d\u0435\u0446\u043a\u0430\u044f \u043e\u0431\u043b\u0430\u0441\u0442\u044c","alt_name:right:de":"Oblast Lugansk","name:right:id":"Oblast Luhansk","name:right:eo":"Luganska provinco","name:right:en":"Luhansk Oblast","name:left:vi":"Donetsk (t\u1ec9nh)","kind":"region","name":"\u0414\u043e\u043d\u0435\u0446\u044c\u043a\u0430 \u043e\u0431\u043b\u0430\u0441\u0442\u044c - \u041b\u0443\u0433\u0430\u043d\u0441\u044c\u043a\u0430 \u043e\u0431\u043b\u0430\u0441\u0442\u044c","name:left:fa":"\u0627\u0633\u062a\u0627\u0646 \u062f\u0648\u0646\u062a\u0633\u06a9","name:right:fa":"\u0627\u0633\u062a\u0627\u0646 \u0644\u0648\u0647\u0627\u0646\u0633\u06a9","min_zoom":8.0,"name:right:be":"\u041b\u0443\u0433\u0430\u043d\u0441\u043a\u0430\u044f \u0432\u043e\u0431\u043b\u0430\u0441\u0446\u044c","name:left:zh":"\u987f\u6d85\u8328\u514b\u5dde","name:left:fr":"Oblast de Donetsk","name:right:zh":"\u76e7\u7518\u65af\u514b\u5dde","name:left:hy":"\u0534\u0578\u0576\u0565\u0581\u056f\u056b \u0574\u0561\u0580\u0566","name:right:nn":"Luhansk oblast","name:right:mk":"\u041b\u0443\u0433\u0430\u043d\u0441\u043a\u0430 \u043e\u0431\u043b\u0430\u0441\u0442","name:right:nl":"Oblast Loehansk","name:right:ja":"\u30eb\u30cf\u30fc\u30f3\u30b7\u30af\u5dde","name:right:fr":"Oblast de Louhansk","name:left:lv":"Do\u0146eckas apgabals","name:left:ja":"\u30c9\u30cd\u30c4\u30a3\u30af\u5dde","name:right:sv":"Luhansk oblast","name:left:nn":"Donetsk oblast","name:left:no":"Donetsk oblast","name:right:sk":"Luhansk\u00e1 oblas\u0165","alt_name:right:eo":"Luhanska provinco","name:left:bg":"\u0414\u043e\u043d\u0435\u0446\u043a\u0430 \u043e\u0431\u043b\u0430\u0441\u0442","name:left:be":"\u0414\u0430\u043d\u0435\u0446\u043a\u0430\u044f \u0432\u043e\u0431\u043b\u0430\u0441\u0446\u044c","name:left:fi":"Donetskin alue","id":-71973,"name:right:fi":"Luhanskin alue","name:left:eo":"Donecka provinco","name:left:en":"Donetsk Oblast","name:right:ca":"Prov\u00edncia de Luhansk","kind_detail":"4","alt_name:right:en":"Lugansk Oblast","name:left:nl":"Oblast Donetsk","id:left":-71973,"name:left:es":"\u00d3blast de Donetsk","name:right:cs":"Luhansk\u00e1 oblast","name:right":"\u041b\u0443\u0433\u0430\u043d\u0441\u044c\u043a\u0430 \u043e\u0431\u043b\u0430\u0441\u0442\u044c","id:right":-71971,"name:left:os":"\u0414\u043e\u043d\u0435\u0446\u0447\u044b \u043e\u0431\u043b\u00e6\u0441\u0442","name:left:eu":"Donetskeko oblasta","name:left:et":"Donetski oblast","name:right:ka":"\u10da\u10e3\u10d2\u10d0\u10dc\u10e1\u10d9\u10d8\u10e1 \u10dd\u10da\u10e5\u10d8","name:right:zh-min-nan":"Lugansk s\u00e9ng","name:right:pt":"Oblast de Lugansk","name:left:ar":"\u062f\u0648\u0646\u064a\u062a\u0633\u0643 \u0623\u0648\u0628\u0644\u0627\u0633\u062a","name:left:pl":"Obw\u00f3d doniecki","name:left:tr":"Donetsk Oblast\u0131","name:left:id":"Oblast Donetsk","name:left:tt":"\u0414\u043e\u043d\u0435\u0446\u043a \u04e9\u043b\u043a\u04d9\u0441\u0435","name:left:az":"Donetsk Oblast\u0131","name:right:tr":"Luhansk Oblast\u0131","name:right:bg":"\u041b\u0443\u0433\u0430\u043d\u0441\u043a\u0430 \u043e\u0431\u043b\u0430\u0441\u0442","name:left:pt":"Oblast de Donetsk","name:left:mr":"\u0926\u094b\u0928\u0947\u0924\u094d\u0938\u094d\u0915 \u0913\u092c\u094d\u0932\u093e\u0938\u094d\u0924","name:right:ga":"C\u00faige Luhansk","name:right:ko":"\ub8e8\ud55c\uc2dc\ud06c \uc8fc","name:left:zh-min-nan":"Doneczk s\u00e9ng","name:left:it":"Oblast' di Donec'k","name:right:pl":"Obw\u00f3d \u0142uga\u0144ski","osm_relation":true,"name:right:de":"Oblast Luhansk","name:left:de":"Oblast Donezk","name:left:mk":"\u0414\u043e\u043d\u0435\u0447\u043a\u0430 \u043e\u0431\u043b\u0430\u0441\u0442"},"arcs":[0]},{"type":"LineString","properties":{"name:right:hy":"\u053c\u0578\u0582\u0563\u0561\u0576\u057d\u056f\u056b \u0574\u0561\u0580\u0566","name:right:no":"Luhansk oblast","name:right:hr":"Luhanska oblast","name:left:sv":"Donetsk oblast","name:right:hu":"Luhanszki ter\u00fclet","name:left:sr":"\u0414\u043e\u045a\u0435\u0447\u043a\u0430 \u043e\u0431\u043b\u0430\u0441\u0442","name:right:lt":"Luhansko sritis","name:right:lv":"Luhanskas apgabals","name:left:lt":"Donecko sritis","name:left:sh":"Done\u010dka oblast","name:left:sk":"Doneck\u00e1 oblas\u0165","name:right:mr":"\u0932\u0941\u0939\u093e\u0928\u094d\u0938\u094d\u0915 \u0913\u092c\u094d\u0932\u093e\u0938\u094d\u0924","name:left:hu":"Donecki ter\u00fclet","name:left:hr":"Done\u010dka oblast","name:right:os":"\u041b\u0443\u0433\u0430\u043d\u0441\u0447\u044b \u043e\u0431\u043b\u00e6\u0441\u0442","name:right:vi":"Luhansk (t\u1ec9nh)","sort_rank":256,"name:left:ca":"Prov\u00edncia de Donetsk","source":"openstreetmap.org","name:right:ar":"\u0644\u0648\u0647\u0627\u0646\u0633\u0643 \u0623\u0648\u0628\u0644\u0627\u0633\u062a","name:left:cs":"Don\u011bck\u00e1 oblast","name:left":"\u0414\u043e\u043d\u0435\u0446\u044c\u043a\u0430 \u043e\u0431\u043b\u0430\u0441\u0442\u044c","name:right:es":"\u00d3blast de Lugansk","name:right:sh":"Luganska oblast","name:right:sr":"\u041b\u0443\u0433\u0430\u043d\u0441\u043a\u0430 \u043e\u0431\u043b\u0430\u0441\u0442","name:left:ka":"\u10d3\u10dd\u10dc\u10d4\u10ea\u10d9\u10d8\u10e1 \u10dd\u10da\u10e5\u10d8","name:right:eu":"Luhanskeko oblasta","name:right:et":"Luganski oblast","name:left:ko":"\ub3c4\ub124\uce20\ud06c \uc8fc","name:right:it":"Oblast' di Luhans'k","name:left:ro":"Regiunea Done\u021bk","name:right:ru":"\u041b\u0443\u0433\u0430\u043d\u0441\u043a\u0430\u044f \u043e\u0431\u043b\u0430\u0441\u0442\u044c","name:right:ro":"Regiunea Luhansk","name:left:ru":"\u0414\u043e\u043d\u0435\u0446\u043a\u0430\u044f \u043e\u0431\u043b\u0430\u0441\u0442\u044c","alt_name:right:de":"Oblast Lugansk","name:right:id":"Oblast Luhansk","name:right:eo":"Luganska provinco","name:right:en":"Luhansk Oblast","name:left:vi":"Donetsk (t\u1ec9nh)","kind":"region","name":"\u0414\u043e\u043d\u0435\u0446\u044c\u043a\u0430 \u043e\u0431\u043b\u0430\u0441\u0442\u044c - \u041b\u0443\u0433\u0430\u043d\u0441\u044c\u043a\u0430 \u043e\u0431\u043b\u0430\u0441\u0442\u044c","name:left:fa":"\u0627\u0633\u062a\u0627\u0646 \u062f\u0648\u0646\u062a\u0633\u06a9","name:right:fa":"\u0627\u0633\u062a\u0627\u0646 \u0644\u0648\u0647\u0627\u0646\u0633\u06a9","min_zoom":8.0,"name:right:be":"\u041b\u0443\u0433\u0430\u043d\u0441\u043a\u0430\u044f \u0432\u043e\u0431\u043b\u0430\u0441\u0446\u044c","name:left:zh":"\u987f\u6d85\u8328\u514b\u5dde","name:left:fr":"Oblast de Donetsk","name:right:zh":"\u76e7\u7518\u65af\u514b\u5dde","name:left:hy":"\u0534\u0578\u0576\u0565\u0581\u056f\u056b \u0574\u0561\u0580\u0566","name:right:nn":"Luhansk oblast","name:right:mk":"\u041b\u0443\u0433\u0430\u043d\u0441\u043a\u0430 \u043e\u0431\u043b\u0430\u0441\u0442","name:right:nl":"Oblast Loehansk","name:right:ja":"\u30eb\u30cf\u30fc\u30f3\u30b7\u30af\u5dde","name:right:fr":"Oblast de Louhansk","name:left:lv":"Do\u0146eckas apgabals","name:left:ja":"\u30c9\u30cd\u30c4\u30a3\u30af\u5dde","name:right:sv":"Luhansk oblast","name:left:nn":"Donetsk oblast","name:left:no":"Donetsk oblast","name:right:sk":"Luhansk\u00e1 oblas\u0165","alt_name:right:eo":"Luhanska provinco","name:left:bg":"\u0414\u043e\u043d\u0435\u0446\u043a\u0430 \u043e\u0431\u043b\u0430\u0441\u0442","name:left:be":"\u0414\u0430\u043d\u0435\u0446\u043a\u0430\u044f \u0432\u043e\u0431\u043b\u0430\u0441\u0446\u044c","name:left:fi":"Donetskin alue","id":-71973,"name:right:fi":"Luhanskin alue","name:left:eo":"Donecka provinco","name:left:en":"Donetsk Oblast","name:right:ca":"Prov\u00edncia de Luhansk","kind_detail":"4","alt_name:right:en":"Lugansk Oblast","name:left:nl":"Oblast Donetsk","id:left":-71973,"name:left:es":"\u00d3blast de Donetsk","name:right:cs":"Luhansk\u00e1 oblast","name:right":"\u041b\u0443\u0433\u0430\u043d\u0441\u044c\u043a\u0430 \u043e\u0431\u043b\u0430\u0441\u0442\u044c","id:right":-71971,"name:left:os":"\u0414\u043e\u043d\u0435\u0446\u0447\u044b \u043e\u0431\u043b\u00e6\u0441\u0442","name:left:eu":"Donetskeko oblasta","name:left:et":"Donetski oblast","name:right:ka":"\u10da\u10e3\u10d2\u10d0\u10dc\u10e1\u10d9\u10d8\u10e1 \u10dd\u10da\u10e5\u10d8","name:right:zh-min-nan":"Lugansk s\u00e9ng","name:right:pt":"Oblast de Lugansk","name:left:ar":"\u062f\u0648\u0646\u064a\u062a\u0633\u0643 \u0623\u0648\u0628\u0644\u0627\u0633\u062a","name:left:pl":"Obw\u00f3d doniecki","name:left:tr":"Donetsk Oblast\u0131","name:left:id":"Oblast Donetsk","name:left:tt":"\u0414\u043e\u043d\u0435\u0446\u043a \u04e9\u043b\u043a\u04d9\u0441\u0435","name:left:az":"Donetsk Oblast\u0131","name:right:tr":"Luhansk Oblast\u0131","name:right:bg":"\u041b\u0443\u0433\u0430\u043d\u0441\u043a\u0430 \u043e\u0431\u043b\u0430\u0441\u0442","name:left:pt":"Oblast de Donetsk","name:left:mr":"\u0926\u094b\u0928\u0947\u0924\u094d\u0938\u094d\u0915 \u0913\u092c\u094d\u0932\u093e\u0938\u094d\u0924","name:right:ga":"C\u00faige Luhansk","name:right:ko":"\ub8e8\ud55c\uc2dc\ud06c \uc8fc","name:left:zh-min-nan":"Doneczk s\u00e9ng","name:left:it":"Oblast' di Donec'k","name:right:pl":"Obw\u00f3d \u0142uga\u0144ski","osm_relation":true,"name:right:de":"Oblast Luhansk","name:left:de":"Oblast Donezk","name:left:mk":"\u0414\u043e\u043d\u0435\u0447\u043a\u0430 \u043e\u0431\u043b\u0430\u0441\u0442"},"arcs":[1]}]},"roads":{"type":"GeometryCollection","geometries":[{"type":"MultiLineString","properties":{"kind":"major_road","network":"e-road","sort_rank":381,"kind_detail":"trunk","source":"openstreetmap.org","min_zoom":8.0,"landuse_kind":"residential","shield_text":"40","ref":"\u041c-03"},"arcs":[[70],[71],[72],[73]]},{"type":"MultiLineString","properties":{"kind":"major_road","name:en":"Vatutina Street","sort_rank":380,"kind_detail":"primary","source":"openstreetmap.org","min_zoom":8.0,"landuse_kind":"urban_area","name:ru":"\u0412\u0430\u0442\u0443\u0442\u0438\u043d\u0430 \u0443\u043b\u0438\u0446\u0430"},"arcs":[[74],[75]]},{"type":"LineString","properties":{"kind":"major_road","name:en":"Radianska Street","network":"ua:national","sort_rank":380,"kind_detail":"primary","source":"openstreetmap.org","min_zoom":8.0,"landuse_kind":"urban_area","shield_text":"21","name:ru":"\u0421\u043e\u0432\u0435\u0442\u0441\u043a\u0430\u044f \u0443\u043b\u0438\u0446\u0430","ref":"\u041d-21","id":184543923},"arcs":[76]},{"type":"LineString","properties":{"kind":"major_road","network":"ua:national","sort_rank":380,"kind_detail":"primary","source":"openstreetmap.org","min_zoom":8.0,"landuse_kind":"urban_area","shield_text":"21","name:ru":"\u0413\u043e\u0440\u0431\u0430\u0447\u0451\u0432\u0430 \u0443\u043b\u0438\u0446\u0430","ref":"\u041d-21","id":272530503},"arcs":[77]},{"type":"MultiLineString","properties":{"kind":"major_road","network":"e-road","sort_rank":381,"landuse_kind":"urban_area","source":"openstreetmap.org","min_zoom":8.0,"kind_detail":"trunk","shield_text":"40","ref":"\u041c-03"},"arcs":[[78],[79],[80],[81],[82],[83]]},{"type":"LineString","properties":{"kind":"major_road","name:en":"Primiska Street","network":"ua:national","sort_rank":380,"kind_detail":"primary","source":"openstreetmap.org","min_zoom":8.0,"landuse_kind":"urban_area","shield_text":"21","name:ru":"\u041f\u0440\u0438\u0433\u043e\u0440\u043e\u0434\u043d\u0430\u044f \u0443\u043b\u0438\u0446\u0430","ref":"\u041d-21"},"arcs":[84]},{"type":"MultiLineString","properties":{"bus_network":null,"network":"e-road","sort_rank":381,"kind_detail":"trunk","kind":"major_road","source":"openstreetmap.org","min_zoom":8.0,"bus_shield_text":"1","shield_text":"50","ref":"\u041c-04"},"arcs":[[85],[86]]},{"type":"MultiLineString","properties":{"kind":"major_road","name:en":"Lenina Street","network":"ua:national","sort_rank":380,"kind_detail":"primary","source":"openstreetmap.org","min_zoom":8.0,"landuse_kind":"urban_area","shield_text":"21","name:ru":"\u041b\u0435\u043d\u0438\u043d\u0430 \u0443\u043b\u0438\u0446\u0430","ref":"\u041d-21"},"arcs":[[87],[88],[89],[90],[91],[92]]},{"type":"LineString","properties":{"kind":"major_road","name:en":"Syzrantseva Street","network":"ua:national","sort_rank":380,"kind_detail":"primary","source":"openstreetmap.org","min_zoom":8.0,"landuse_kind":"urban_area","shield_text":"21","name:ru":"\u0421\u044b\u0437\u0440\u0430\u043d\u0446\u0435\u0432\u0430 \u0443\u043b\u0438\u0446\u0430","ref":"\u041d-21","id":272293769},"arcs":[93]},{"type":"MultiLineString","properties":{"kind":"major_road","network":"e-road","sort_rank":381,"kind_detail":"trunk","source":"openstreetmap.org","min_zoom":8.0,"shield_text":"40","ref":"\u041c-04"},"arcs":[[94],[95],[96],[97],[98],[99],[100],[101],[102],[103],[104],[105],[106]]},{"type":"MultiLineString","properties":{"kind":"major_road","network":"e-road","sort_rank":381,"kind_detail":"trunk","source":"openstreetmap.org","min_zoom":8.0,"landuse_kind":"urban_area","shield_text":"40","name:ru":"\u041f\u0435\u0440\u0435\u0435\u0437\u0434\u043d\u0430\u044f \u0443\u043b\u0438\u0446\u0430","ref":"\u041c-04","id":214228006},"arcs":[[107],[108],[109]]},{"type":"LineString","properties":{"kind":"major_road","name:en":"Rostovska Street","network":"e-road","sort_rank":381,"kind_detail":"trunk","source":"openstreetmap.org","min_zoom":8.0,"landuse_kind":"urban_area","shield_text":"50","name:ru":"\u0420\u043e\u0441\u0442\u043e\u0432\u0441\u043a\u0430\u044f \u0443\u043b\u0438\u0446\u0430","ref":"\u041c-03","id":256880284},"arcs":[110]},{"type":"LineString","properties":{"bus_network":null,"name:en":"Krasna Street","network":"ua:regional","sort_rank":380,"kind_detail":"primary","kind":"major_road","source":"openstreetmap.org","min_zoom":8.0,"bus_shield_text":"3","shield_text":"66","name:ru":"\u041a\u0440\u0430\u0441\u043d\u0430\u044f \u0443\u043b\u0438\u0446\u0430","landuse_kind":"urban_area","ref":"\u0420-66"},"arcs":[111]},{"type":"MultiLineString","properties":{"kind":"major_road","name:en":"Mahistralna Street","network":"ua:national","sort_rank":380,"kind_detail":"primary","source":"openstreetmap.org","min_zoom":8.0,"shield_text":"21","name:ru":"\u041c\u0430\u0433\u0438\u0441\u0442\u0440\u0430\u043b\u044c\u043d\u0430\u044f \u0443\u043b\u0438\u0446\u0430","ref":"\u041d-21"},"arcs":[[112],[113]]},{"type":"LineString","properties":{"kind":"major_road","network":"ua:national","sort_rank":380,"kind_detail":"primary","source":"openstreetmap.org","min_zoom":8.0,"landuse_kind":"urban_area","shield_text":"21","name:ru":"\u041c\u0430\u0434\u0440\u0438\u0434\u0441\u043a\u0430\u044f \u0443\u043b\u0438\u0446\u0430","ref":"\u041d-21","id":124787756},"arcs":[114]},{"type":"LineString","properties":{"kind":"major_road","network":"ua:national","sort_rank":380,"kind_detail":"primary","source":"openstreetmap.org","min_zoom":8.0,"landuse_kind":"protected_area","shield_text":"21","ref":"\u041d-21"},"arcs":[115]},{"type":"MultiLineString","properties":{"kind":"major_road","network":"e-road","sort_rank":381,"kind_detail":"trunk","source":"openstreetmap.org","min_zoom":8.0,"shield_text":"50","ref":"\u041c-03"},"arcs":[[116],[117],[118],[119],[120],[121],[122],[123],[124],[125],[126],[127],[128],[129],[130],[131]]},{"type":"LineString","properties":{"kind":"major_road","name:en":"Rostovska Street","network":"e-road","sort_rank":381,"kind_detail":"trunk","source":"openstreetmap.org","min_zoom":8.0,"shield_text":"50","name:ru":"\u0420\u043e\u0441\u0442\u043e\u0432\u0441\u043a\u0430\u044f \u0443\u043b\u0438\u0446\u0430","ref":"\u041c-03","id":256880284},"arcs":[132]},{"type":"LineString","properties":{"kind":"major_road","network":"ua:national","sort_rank":380,"kind_detail":"primary","source":"openstreetmap.org","min_zoom":8.0,"shield_text":"21","name:ru":"\u041c\u0430\u0434\u0440\u0438\u0434\u0441\u043a\u0430\u044f \u0443\u043b\u0438\u0446\u0430","ref":"\u041d-21","id":124787756},"arcs":[133]},{"type":"MultiLineString","properties":{"sort_rank":381,"source":"openstreetmap.org","min_zoom":8.0,"kind":"major_road","kind_detail":"trunk"},"arcs":[[134],[135],[136],[137],[138],[139],[140],[141],[142],[143],[144]]},{"type":"LineString","properties":{"kind":"major_road","name:en":"Lenina Street","network":"ua:national","sort_rank":380,"kind_detail":"primary","source":"openstreetmap.org","min_zoom":8.0,"shield_text":"21","name:ru":"\u041b\u0435\u043d\u0438\u043d\u0430 \u0443\u043b\u0438\u0446\u0430","ref":"\u041d-21"},"arcs":[145]},{"type":"LineString","properties":{"kind":"major_road","name:en":"Artema Street","network":"ua:regional","sort_rank":380,"kind_detail":"primary","source":"openstreetmap.org","min_zoom":8.0,"landuse_kind":"urban_area","shield_text":"66","name:ru":"\u0410\u0440\u0442\u0451\u043c\u0430 \u0443\u043b\u0438\u0446\u0430","ref":"\u0420-66","id":23892371},"arcs":[146]},{"type":"LineString","properties":{"bus_network":null,"name:en":"Henerala Danilova Avenue","network":"ua:national","sort_rank":380,"kind_detail":"primary","kind":"major_road","source":"openstreetmap.org","min_zoom":8.0,"bus_shield_text":"6","shield_text":"21","name:ru":"\u0413\u0435\u043d\u0435\u0440\u0430\u043b\u0430 \u0414\u0430\u043d\u0438\u043b\u043e\u0432\u0430 \u043f\u0440\u043e\u0441\u043f\u0435\u043a\u0442","landuse_kind":"urban_area","ref":"\u041d-21"},"arcs":[147]},{"type":"LineString","properties":{"kind":"major_road","name:en":"50-richchia Stvorennia SRSR Street","sort_rank":380,"kind_detail":"primary","source":"openstreetmap.org","min_zoom":8.0,"landuse_kind":"urban_area","name:ru":"50-\u043b\u0435\u0442\u0438\u044f \u0421\u043e\u0437\u0434\u0430\u043d\u0438\u044f \u0421\u0421\u0421\u0420 \u0443\u043b\u0438\u0446\u0430","id":161342592},"arcs":[148]},{"type":"MultiLineString","properties":{"source":"openstreetmap.org","kind":"major_road","landuse_kind":"urban_area","sort_rank":380,"kind_detail":"primary","min_zoom":8.0},"arcs":[[149],[150],[151],[152],[153],[154],[155]]},{"type":"LineString","properties":{"kind":"major_road","name:en":"Dzerzhinskoho Street","network":"ua:national","sort_rank":380,"kind_detail":"primary","source":"openstreetmap.org","min_zoom":8.0,"shield_text":"21","name:ru":"\u0414\u0437\u0435\u0440\u0436\u0438\u043d\u0441\u043a\u043e\u0433\u043e \u0443\u043b\u0438\u0446\u0430","ref":"\u041d-21","id":115552370},"arcs":[156]},{"type":"LineString","properties":{"kind":"major_road","network":"ua:national","sort_rank":380,"kind_detail":"primary","source":"openstreetmap.org","min_zoom":8.0,"landuse_kind":"urban_area","shield_text":"21","name:ru":"\u0428\u043e\u0441\u0441\u0435\u0439\u043d\u0430\u044f \u0443\u043b\u0438\u0446\u0430","ref":"\u041d-21","id":334420440},"arcs":[157]},{"type":"MultiLineString","properties":{"kind":"major_road","name:en":"Oboronna Street","sort_rank":380,"kind_detail":"primary","source":"openstreetmap.org","min_zoom":8.0,"landuse_kind":"urban_area","name:ru":"\u041e\u0431\u043e\u0440\u043e\u043d\u043d\u0430\u044f \u0443\u043b\u0438\u0446\u0430"},"arcs":[[158],[159]]},{"type":"MultiLineString","properties":{"kind":"major_road","network":"ua:national","sort_rank":380,"kind_detail":"primary","source":"openstreetmap.org","min_zoom":8.0,"landuse_kind":"urban_area","shield_text":"21","ref":"\u041d-21"},"arcs":[[160],[161],[162],[163],[164],[165],[166],[167],[168],[169],[170],[171],[172],[173],[174],[175],[176],[177],[178],[179],[180],[181],[182],[183],[184],[185],[186],[187]]},{"type":"LineString","properties":{"kind":"major_road","network":"e-road","sort_rank":381,"kind_detail":"trunk","source":"openstreetmap.org","min_zoom":8.0,"landuse_kind":"urban_area","shield_text":"40","name:ru":"\u041f\u043e\u0431\u0435\u0434\u044b \u0443\u043b\u0438\u0446\u0430","ref":"\u041c-04","id":371998114},"arcs":[188]},{"type":"LineString","properties":{"kind":"major_road","network":"ua:national","sort_rank":380,"kind_detail":"primary","source":"openstreetmap.org","min_zoom":8.0,"shield_text":"21","name:ru":"\u0414\u043e\u043d\u0435\u0446\u043a\u0430\u044f \u0443\u043b\u0438\u0446\u0430","ref":"\u041d-21","id":336419172},"arcs":[189]},{"type":"LineString","properties":{"kind":"major_road","name:en":"Oboronna Street","sort_rank":380,"kind_detail":"primary","source":"openstreetmap.org","min_zoom":8.0,"name:ru":"\u041e\u0431\u043e\u0440\u043e\u043d\u043d\u0430\u044f \u0443\u043b\u0438\u0446\u0430","id":30596454},"arcs":[190]},{"type":"MultiLineString","properties":{"kind":"major_road","network":"e-road","sort_rank":381,"landuse_kind":"urban_area","source":"openstreetmap.org","min_zoom":8.0,"kind_detail":"trunk","shield_text":"50","ref":"\u041c-04"},"arcs":[[191],[192],[193],[194],[195]]},{"type":"MultiLineString","properties":{"kind":"major_road","network":"e-road","sort_rank":381,"kind_detail":"trunk","source":"openstreetmap.org","min_zoom":8.0,"landuse_kind":"residential","shield_text":"50","ref":"\u041c-04"},"arcs":[[196],[197]]},{"type":"MultiLineString","properties":{"kind":"major_road","network":"e-road","sort_rank":381,"landuse_kind":"urban_area","source":"openstreetmap.org","min_zoom":8.0,"kind_detail":"trunk","shield_text":"50","ref":"\u041c-03"},"arcs":[[198],[199],[200]]},{"type":"LineString","properties":{"kind":"major_road","name:en":"Lomonosova Street","sort_rank":380,"kind_detail":"primary","source":"openstreetmap.org","min_zoom":8.0,"landuse_kind":"urban_area","name:ru":"\u041b\u043e\u043c\u043e\u043d\u043e\u0441\u043e\u0432\u0430 \u0443\u043b\u0438\u0446\u0430","id":23548029},"arcs":[201]},{"type":"MultiLineString","properties":{"kind":"major_road","name:en":"Lenina Street","sort_rank":380,"kind_detail":"primary","source":"openstreetmap.org","min_zoom":8.0,"landuse_kind":"urban_area","name:ru":"\u041b\u0435\u043d\u0438\u043d\u0430 \u0443\u043b\u0438\u0446\u0430"},"arcs":[[202],[203]]},{"type":"LineString","properties":{"kind":"major_road","network":"ua:regional","sort_rank":380,"kind_detail":"primary","source":"openstreetmap.org","min_zoom":8.0,"landuse_kind":"residential","shield_text":"66","ref":"\u0420-66","id":111848535},"arcs":[204]},{"type":"MultiLineString","properties":{"kind":"major_road","network":"e-road","sort_rank":381,"landuse_kind":"urban_area","source":"openstreetmap.org","min_zoom":8.0,"kind_detail":"trunk","shield_text":"40","ref":"\u041c-04"},"arcs":[[205],[206],[207],[208],[209],[210],[211],[212],[213],[214],[215],[216],[217],[218],[219],[220],[221]]},{"type":"MultiLineString","properties":{"sort_rank":380,"kind_detail":"primary","min_zoom":8.0,"kind":"major_road","source":"openstreetmap.org"},"arcs":[[222],[223],[224],[225],[226],[227]]},{"type":"MultiLineString","properties":{"kind":"major_road","network":"ua:national","sort_rank":380,"kind_detail":"primary","source":"openstreetmap.org","min_zoom":8.0,"landuse_kind":"urban_area","shield_text":"21","name:ru":"\u041b\u0443\u0433\u0430\u043d\u0441\u043a\u043e\u0435 \u0448\u043e\u0441\u0441\u0435","ref":"\u041d-21"},"arcs":[[228],[229],[230],[231]]},{"type":"LineString","properties":{"kind":"major_road","network":"e-road","sort_rank":381,"kind_detail":"trunk","source":"openstreetmap.org","min_zoom":8.0,"landuse_kind":"residential","shield_text":"40","name:ru":"\u041f\u043e\u0431\u0435\u0434\u044b \u0443\u043b\u0438\u0446\u0430","ref":"\u041c-04","id":371998114},"arcs":[232]},{"type":"MultiLineString","properties":{"kind":"major_road","network":"ua:regional","sort_rank":380,"kind_detail":"primary","source":"openstreetmap.org","min_zoom":8.0,"shield_text":"66","ref":"\u0420-66"},"arcs":[[233],[234]]},{"type":"LineString","properties":{"kind":"major_road","network":"ua:national","sort_rank":380,"kind_detail":"primary","source":"openstreetmap.org","min_zoom":8.0,"landuse_kind":"urban_area","shield_text":"21","name:ru":"\u041b\u0443\u0442\u0443\u0433\u0438\u043d\u0441\u043a\u0430\u044f \u0443\u043b\u0438\u0446\u0430","ref":"\u041d-21","id":80264832},"arcs":[235]},{"type":"LineString","properties":{"alt_name:en":"Futbolna Street","min_zoom":8.0,"old_name:en":"Chubar Street","old_name":"\u0427\u0443\u0431\u0430\u0440\u044f \u0432\u0443\u043b\u0438\u0446\u044f","name:ru":"\u0424\u0443\u0442\u0431\u043e\u043b\u044c\u043d\u0430\u044f \u0443\u043b\u0438\u0446\u0430","id":99501124,"old_name:uk":"\u0427\u0443\u0431\u0430\u0440\u044f \u0432\u0443\u043b\u0438\u0446\u044f","kind":"major_road","name:en":"Football Street","network":"ua:regional","sort_rank":380,"kind_detail":"primary","old_name:ru":"\u0427\u0443\u0431\u0430\u0440\u044f \u0443\u043b\u0438\u0446\u0430","source":"openstreetmap.org","landuse_kind":"urban_area","shield_text":"66","ref":"\u0420-66"},"arcs":[236]},{"type":"LineString","properties":{"kind":"major_road","name:en":"Tkachenka Street","network":"ua:national","sort_rank":380,"kind_detail":"primary","source":"openstreetmap.org","min_zoom":8.0,"landuse_kind":"urban_area","shield_text":"21","name:ru":"\u0422\u043a\u0430\u0447\u0435\u043d\u043a\u043e \u0443\u043b\u0438\u0446\u0430","ref":"\u041d-21"},"arcs":[237]},{"type":"LineString","properties":{"kind":"major_road","name:en":"Respublikanska Street","network":"ua:national","sort_rank":380,"kind_detail":"primary","source":"openstreetmap.org","min_zoom":8.0,"shield_text":"21","name:ru":"\u0420\u0435\u0441\u043f\u0443\u0431\u043b\u0438\u043a\u0430\u043d\u0441\u043a\u0430\u044f \u0443\u043b\u0438\u0446\u0430","ref":"\u041d-21","id":24660963},"arcs":[238]},{"type":"MultiLineString","properties":{"kind":"major_road","network":"e-road","sort_rank":381,"kind_detail":"trunk","source":"openstreetmap.org","min_zoom":8.0,"shield_text":"40","ref":"\u041c-03"},"arcs":[[239],[240],[241],[242],[243],[244]]},{"type":"LineString","properties":{"kind":"major_road","name:en":"Mahistralna Street","sort_rank":380,"kind_detail":"primary","source":"openstreetmap.org","min_zoom":8.0,"landuse_kind":"urban_area","name:ru":"\u041c\u0430\u0433\u0438\u0441\u0442\u0440\u0430\u043b\u044c\u043d\u0430\u044f \u0443\u043b\u0438\u0446\u0430"},"arcs":[245]},{"type":"MultiLineString","properties":{"source":"openstreetmap.org","kind":"major_road","kind_detail":"trunk","sort_rank":381,"landuse_kind":"urban_area","min_zoom":8.0},"arcs":[[246],[247],[248],[249]]},{"type":"LineString","properties":{"kind":"major_road","network":"ua:national","sort_rank":380,"kind_detail":"primary","source":"openstreetmap.org","min_zoom":8.0,"shield_text":"21","name:ru":"\u041c\u0430\u0448\u0438\u043d\u043d\u044b\u0439 \u043c\u043e\u0441\u0442","ref":"\u041d-21","id":24660961},"arcs":[250]},{"type":"LineString","properties":{"kind":"major_road","name:en":"Respublikanska Street","network":"ua:national","sort_rank":380,"kind_detail":"primary","source":"openstreetmap.org","min_zoom":8.0,"landuse_kind":"urban_area","shield_text":"21","name:ru":"\u0420\u0435\u0441\u043f\u0443\u0431\u043b\u0438\u043a\u0430\u043d\u0441\u043a\u0430\u044f \u0443\u043b\u0438\u0446\u0430","ref":"\u041d-21","id":24660963},"arcs":[251]},{"type":"MultiLineString","properties":{"kind":"major_road","network":"e-road","sort_rank":381,"kind_detail":"trunk","source":"openstreetmap.org","min_zoom":8.0,"shield_text":"50","ref":"\u041c-04"},"arcs":[[252],[253],[254],[255],[256],[257],[258],[259]]},{"type":"LineString","properties":{"kind":"major_road","name:en":"Shkilna Street","network":"ua:national","sort_rank":380,"kind_detail":"primary","source":"openstreetmap.org","min_zoom":8.0,"shield_text":"21","name:ru":"\u0428\u043a\u043e\u043b\u044c\u043d\u0430\u044f \u0443\u043b\u0438\u0446\u0430","ref":"\u041d-21","id":139257498},"arcs":[260]},{"type":"LineString","properties":{"kind":"major_road","name:en":"Karla Marksa Street","network":"ua:national","sort_rank":380,"kind_detail":"primary","source":"openstreetmap.org","min_zoom":8.0,"landuse_kind":"urban_area","shield_text":"21","name:ru":"\u041a\u0430\u0440\u043b\u0430 \u041c\u0430\u0440\u043a\u0441\u0430 \u0443\u043b\u0438\u0446\u0430","ref":"\u041d-21"},"arcs":[261]},{"type":"LineString","properties":{"kind":"major_road","network":"e-road","sort_rank":381,"kind_detail":"trunk","bus_network":null,"source":"openstreetmap.org","min_zoom":8.0,"bus_shield_text":"1","shield_text":"50","landuse_kind":"urban_area","ref":"\u041c-04","id":326282633},"arcs":[262]},{"type":"MultiLineString","properties":{"kind":"major_road","network":"e-road","sort_rank":381,"kind_detail":"trunk","source":"openstreetmap.org","min_zoom":8.0,"landuse_kind":"residential","shield_text":"40","ref":"\u041c-03;\u041c-04"},"arcs":[[263],[264]]},{"type":"LineString","properties":{"kind":"major_road","sort_rank":380,"kind_detail":"primary","source":"openstreetmap.org","min_zoom":8.0,"landuse_kind":"urban_area","name:ru":"\u0413\u0440\u0430\u0434\u0443\u0441\u043e\u0432\u0430 \u0443\u043b\u0438\u0446\u0430","id":185327660},"arcs":[265]},{"type":"MultiLineString","properties":{"kind":"major_road","network":"ua:national","sort_rank":380,"kind_detail":"primary","source":"openstreetmap.org","min_zoom":8.0,"shield_text":"21","ref":"\u041d-21"},"arcs":[[266],[267],[268],[269],[270],[271],[272],[273],[274],[275],[276],[277],[278],[279],[280],[281]]},{"type":"LineString","properties":{"bus_network":null,"alt_name:en":"Sosiury Street","bus_shield_text":"1","min_zoom":8.0,"old_name:en":"Sverdlov Street","old_name":"\u0421\u0432\u0435\u0440\u0434\u043b\u043e\u0432\u0430 \u0432\u0443\u043b\u0438\u0446\u044f","name:ru":"\u0421\u043e\u0441\u044e\u0440\u044b \u0443\u043b\u0438\u0446\u0430","old_name:uk":"\u0421\u0432\u0435\u0440\u0434\u043b\u043e\u0432\u0430 \u0432\u0443\u043b\u0438\u0446\u044f","kind":"major_road","name:en":"Sosiura Street","network":"ua:regional","sort_rank":380,"kind_detail":"primary","old_name:ru":"\u0421\u0432\u0435\u0440\u0434\u043b\u043e\u0432\u0430 \u0443\u043b\u0438\u0446\u0430","source":"openstreetmap.org","landuse_kind":"urban_area","shield_text":"66","ref":"\u0420-66"},"arcs":[282]},{"type":"MultiLineString","properties":{"kind":"major_road","network":"e-road","sort_rank":381,"kind_detail":"trunk","source":"openstreetmap.org","min_zoom":8.0,"landuse_kind":"residential","shield_text":"40","ref":"\u041c-04"},"arcs":[[283],[284]]},{"type":"MultiLineString","properties":{"kind":"major_road","name:en":"Andriia Lynova Street","sort_rank":380,"kind_detail":"primary","source":"openstreetmap.org","min_zoom":8.0,"landuse_kind":"urban_area","name:ru":"\u0410\u043d\u0434\u0440\u0435\u044f \u041b\u0438\u043d\u0451\u0432\u0430 \u0443\u043b\u0438\u0446\u0430"},"arcs":[[285],[286]]},{"type":"LineString","properties":{"kind":"major_road","name:en":"Chekhova Street","network":"ua:national","sort_rank":380,"kind_detail":"primary","source":"openstreetmap.org","min_zoom":8.0,"landuse_kind":"urban_area","shield_text":"21","name:ru":"\u0427\u0435\u0445\u043e\u0432\u0430 \u0443\u043b\u0438\u0446\u0430","ref":"\u041d-21","id":256320375},"arcs":[287]},{"type":"MultiLineString","properties":{"kind":"major_road","network":"e-road","sort_rank":381,"kind_detail":"trunk","source":"openstreetmap.org","min_zoom":8.0,"shield_text":"40","ref":"\u041c-03;\u041c-04"},"arcs":[[288],[289]]},{"type":"LineString","properties":{"kind":"major_road","name:en":"Haharina Avenue","network":"ua:national","sort_rank":380,"kind_detail":"primary","source":"openstreetmap.org","min_zoom":8.0,"landuse_kind":"urban_area","shield_text":"21","name:ru":"\u0413\u0430\u0433\u0430\u0440\u0438\u043d\u0430 \u043f\u0440\u043e\u0441\u043f\u0435\u043a\u0442","ref":"\u041d-21"},"arcs":[290]},{"type":"LineString","properties":{"kind":"major_road","name:en":"Artema Street","network":"ua:regional","sort_rank":380,"kind_detail":"primary","source":"openstreetmap.org","min_zoom":8.0,"landuse_kind":"residential","shield_text":"66","name:ru":"\u0410\u0440\u0442\u0451\u043c\u0430 \u0443\u043b\u0438\u0446\u0430","ref":"\u0420-66","id":23892371},"arcs":[291]},{"type":"LineString","properties":{"kind":"major_road","network":"ua:regional","sort_rank":380,"kind_detail":"primary","bus_network":null,"source":"openstreetmap.org","min_zoom":8.0,"bus_shield_text":"109","shield_text":"66","name:ru":"\u041c\u0430\u0448\u0438\u043d\u043e\u0441\u0442\u0440\u043e\u0438\u0442\u0435\u043b\u0435\u0439 \u0443\u043b\u0438\u0446\u0430","landuse_kind":"urban_area","ref":"\u0420-66","id":102877412},"arcs":[292]},{"type":"LineString","properties":{"kind":"major_road","name:en":"Chkalova Street","network":"ua:national","sort_rank":380,"kind_detail":"primary","source":"openstreetmap.org","min_zoom":8.0,"landuse_kind":"urban_area","shield_text":"21","name:ru":"\u0427\u043a\u0430\u043b\u043e\u0432\u0430 \u0443\u043b\u0438\u0446\u0430","ref":"\u041d-21","id":238306118},"arcs":[293]},{"type":"LineString","properties":{"kind":"major_road","name:en":"Studentska Street","network":"ua:national","sort_rank":380,"kind_detail":"primary","source":"openstreetmap.org","min_zoom":8.0,"landuse_kind":"urban_area","shield_text":"21","name:ru":"\u0421\u0442\u0443\u0434\u0435\u043d\u0447\u0435\u0441\u043a\u0430\u044f \u0443\u043b\u0438\u0446\u0430","ref":"\u041d-21","id":325394769},"arcs":[294]},{"type":"LineString","properties":{"kind":"major_road","network":"e-road","sort_rank":381,"kind_detail":"trunk","bus_network":null,"source":"openstreetmap.org","min_zoom":8.0,"bus_shield_text":"1","shield_text":"50","name:ru":"\u041d\u0435\u043a\u0440\u0430\u0441\u043e\u0432\u0430 \u0443\u043b\u0438\u0446\u0430","ref":"\u041c-04","id":120286589},"arcs":[295]},{"type":"MultiLineString","properties":{"bus_network":null,"network":"e-road","sort_rank":381,"kind_detail":"trunk","kind":"major_road","source":"openstreetmap.org","min_zoom":8.0,"bus_shield_text":"77","shield_text":"50","ref":"\u041c-04"},"arcs":[[296],[297],[298]]},{"type":"LineString","properties":{"bus_network":null,"name:en":"250-richchia Donbasu Avenue","network":"ua:national","sort_rank":380,"kind_detail":"primary","kind":"major_road","source":"openstreetmap.org","min_zoom":8.0,"bus_shield_text":"6","shield_text":"21","name:ru":"250-\u043b\u0435\u0442\u0438\u044f \u0414\u043e\u043d\u0431\u0430\u0441\u0441\u0430 \u043f\u0440\u043e\u0441\u043f\u0435\u043a\u0442","landuse_kind":"urban_area","ref":"\u041d-21"},"arcs":[299]},{"type":"MultiLineString","properties":{"kind":"major_road","name:en":"Radianska Street","sort_rank":380,"landuse_kind":"urban_area","source":"openstreetmap.org","min_zoom":8.0,"kind_detail":"primary","name:ru":"\u0421\u043e\u0432\u0435\u0442\u0441\u043a\u0430\u044f \u0443\u043b\u0438\u0446\u0430","nat_name":"\u0421\u043e\u0432\u0454\u0442\u0441\u044c\u043a\u0430 \u0432\u0443\u043b\u0438\u0446\u044f"},"arcs":[[300],[301],[302]]},{"type":"MultiLineString","properties":{"kind":"major_road","name:en":"Mahistralna Street","network":"ua:national","sort_rank":380,"kind_detail":"primary","source":"openstreetmap.org","min_zoom":8.0,"landuse_kind":"urban_area","shield_text":"21","name:ru":"\u041c\u0430\u0433\u0438\u0441\u0442\u0440\u0430\u043b\u044c\u043d\u0430\u044f \u0443\u043b\u0438\u0446\u0430","ref":"\u041d-21"},"arcs":[[303],[304],[305]]},{"type":"LineString","properties":{"kind":"major_road","network":"ua:national","sort_rank":380,"kind_detail":"primary","source":"openstreetmap.org","min_zoom":8.0,"landuse_kind":"residential","shield_text":"21","ref":"\u041d-21"},"arcs":[306]},{"type":"LineString","properties":{"kind":"major_road","name:en":"Babushkina Lane","network":"ua:national","sort_rank":380,"kind_detail":"primary","source":"openstreetmap.org","min_zoom":8.0,"landuse_kind":"urban_area","shield_text":"21","name:ru":"\u0411\u0430\u0431\u0443\u0448\u043a\u0438\u043d\u0430 \u043f\u0435\u0440\u0435\u0443\u043b\u043e\u043a","ref":"\u041d-21","id":184544077},"arcs":[307]},{"type":"LineString","properties":{"kind":"major_road","name:en":"Myru Street","network":"ua:national","sort_rank":380,"kind_detail":"primary","source":"openstreetmap.org","min_zoom":8.0,"landuse_kind":"urban_area","shield_text":"21","name:ru":"\u041c\u0438\u0440\u0430 \u0443\u043b\u0438\u0446\u0430","ref":"\u041d-21","id":184544355},"arcs":[308]},{"type":"MultiLineString","properties":{"kind":"major_road","network":"e-road","sort_rank":381,"kind_detail":"trunk","source":"openstreetmap.org","min_zoom":8.0,"landuse_kind":"residential","shield_text":"40","name:ru":"\u041f\u0435\u0440\u0435\u0435\u0437\u0434\u043d\u0430\u044f \u0443\u043b\u0438\u0446\u0430","ref":"\u041c-04","id":214228006},"arcs":[[309],[310],[311]]},{"type":"LineString","properties":{"bus_network":null,"network":"ua:national","sort_rank":380,"kind_detail":"primary","kind":"major_road","source":"openstreetmap.org","min_zoom":8.0,"bus_shield_text":"6","shield_text":"21","landuse_kind":"urban_area","ref":"\u041d-21"},"arcs":[312]},{"type":"LineString","properties":{"min_zoom":8.0,"old_name:en":"Lenin Avenue","old_name":"\u041b\u0435\u043d\u0456\u043d\u0430 \u043f\u0440\u043e\u0441\u043f\u0435\u043a\u0442","name:ru":"\u041f\u043e\u0431\u0435\u0434\u044b \u043f\u0440\u043e\u0441\u043f\u0435\u043a\u0442","id":36817996,"old_name:uk":"\u041b\u0435\u043d\u0456\u043d\u0430 \u043f\u0440\u043e\u0441\u043f\u0435\u043a\u0442","kind":"major_road","name:en":"Peremohy Avenue","network":"ua:regional","sort_rank":380,"kind_detail":"primary","old_name:ru":"\u041b\u0435\u043d\u0438\u043d\u0430 \u043f\u0440\u043e\u0441\u043f\u0435\u043a\u0442","source":"openstreetmap.org","landuse_kind":"urban_area","shield_text":"66","ref":"\u0420-66"},"arcs":[313]},{"type":"MultiLineString","properties":{"source":"openstreetmap.org","kind":"major_road","landuse_kind":"residential","sort_rank":381,"kind_detail":"trunk","min_zoom":8.0},"arcs":[[314],[315],[316]]},{"type":"MultiLineString","properties":{"kind":"major_road","name:en":"Chekhova Street","network":"ua:national","sort_rank":380,"kind_detail":"primary","source":"openstreetmap.org","min_zoom":8.0,"shield_text":"21","name:ru":"\u0427\u0435\u0445\u043e\u0432\u0430 \u0443\u043b\u0438\u0446\u0430","ref":"\u041d-21","id":256320375},"arcs":[[317],[318]]},{"type":"LineString","properties":{"kind":"major_road","network":"ua:national","sort_rank":380,"kind_detail":"primary","source":"openstreetmap.org","min_zoom":8.0,"landuse_kind":"urban_area","shield_text":"21","name:ru":"\u041a\u0430\u043b\u0438\u043d\u0438\u043d\u0430 \u0443\u043b\u0438\u0446\u0430","ref":"\u041d-21","id":139749364},"arcs":[319]},{"type":"MultiLineString","properties":{"kind":"major_road","network":"ua:regional","sort_rank":380,"kind_detail":"primary","source":"openstreetmap.org","min_zoom":8.0,"landuse_kind":"urban_area","shield_text":"66","ref":"\u0420-66"},"arcs":[[320],[321]]},{"type":"LineString","properties":{"kind":"major_road","name:en":"6-i Leninskyi Lane","sort_rank":380,"kind_detail":"primary","source":"openstreetmap.org","min_zoom":8.0,"landuse_kind":"urban_area","name:ru":"6-\u0439 \u041b\u0435\u043d\u0438\u043d\u0441\u043a\u0438\u0439 \u043f\u0435\u0440\u0435\u0443\u043b\u043e\u043a","id":23450979},"arcs":[322]},{"type":"LineString","properties":{"kind":"major_road","name:en":"Krasna Street","network":"ua:regional","sort_rank":380,"kind_detail":"primary","source":"openstreetmap.org","min_zoom":8.0,"landuse_kind":"urban_area","shield_text":"66","name:ru":"\u041a\u0440\u0430\u0441\u043d\u0430\u044f \u0443\u043b\u0438\u0446\u0430","ref":"\u0420-66","id":126710967},"arcs":[323]}]},"earth":{"type":"GeometryCollection","geometries":[{"type":"MultiPolygon","properties":{"sort_rank":10,"source":"naturalearthdata.com","min_zoom":0.0,"kind":"earth","area":94584646951},"arcs":[[[324]]]}]},"landuse":{"type":"GeometryCollection","geometries":[{"type":"MultiPolygon","properties":{"source":"openstreetmap.org","kind":"residential","tier":2,"area":68279225,"sort_rank":20,"min_zoom":8.0,"osm_relation":true},"arcs":[[[325],[326]]]},{"type":"Polygon","properties":{"kind":"residential","name:en":"Tsentralno-Skhidnyi","name":"\u0426\u0435\u043d\u0442\u0440\u0430\u043b\u044c\u043d\u043e-\u0421\u0445\u0456\u0434\u043d\u0438\u0439","area":17593300,"sort_rank":20,"source":"openstreetmap.org","min_zoom":8.0,"tier":2,"name:ru":"\u0426\u0435\u043d\u0442\u0440\u0430\u043b\u044c\u043d\u043e \u0432\u043e\u0441\u0442\u043e\u0447\u043d\u044b\u0439","id":109559817},"arcs":[[327]]},{"type":"MultiPolygon","properties":{"source":"openstreetmap.org","kind":"nature_reserve","tier":2,"protect_class":"4","area":212344704,"sort_rank":23,"min_zoom":8.0},"arcs":[[[328]],[[329]],[[330]]]},{"type":"Polygon","properties":{"kind":"residential","name":"\u041a\u0430\u043c\u0435\u043d\u043d\u043e\u0431\u0440\u043e\u0434\u0441\u043a\u0438\u0439 \u0440\u0430\u0439\u043e\u043d","area":18168200,"sort_rank":20,"source":"openstreetmap.org","min_zoom":8.0,"tier":2,"id":503782385},"arcs":[[331]]},{"type":"MultiPolygon","properties":{"kind":"protected_area","protect_class":"4","area":83356020,"sort_rank":17,"source":"openstreetmap.org","min_zoom":8.0,"tier":2,"osm_relation":true},"arcs":[[[332]],[[333]]]},{"type":"MultiPolygon","properties":{"source":"openstreetmap.org","kind":"park","tier":2,"area":43129515,"sort_rank":24,"min_zoom":8.0,"osm_relation":true},"arcs":[[[334]],[[335]],[[336]]]},{"type":"MultiPolygon","properties":{"source":"naturalearthdata.com","kind":"urban_area","name":"","area":10435685732,"sort_rank":11,"min_zoom":4.0},"arcs":[[[337]],[[338]],[[339]],[[340]],[[341]],[[342]],[[343]],[[344]],[[345]],[[346]],[[347]],[[348]],[[349]],[[350]],[[351]],[[352]],[[353]],[[354]],[[355]],[[356]],[[357]],[[358]],[[359]]]},{"type":"MultiPolygon","properties":{"source":"openstreetmap.org","kind":"residential","tier":2,"area":316843152,"sort_rank":20,"min_zoom":8.0},"arcs":[[[360]],[[361]],[[362]],[[363]],[[364]],[[365]],[[366]],[[367]],[[368]],[[369]],[[370]]]},{"type":"MultiPolygon","properties":{"kind":"protected_area","protect_class":"5","area":99493568,"sort_rank":17,"source":"openstreetmap.org","min_zoom":8.0,"tier":2,"osm_relation":true},"arcs":[[[371]],[[372]],[[373]]]}]}},"type":"Topology","transform":{"translate":[37.96875,47.9899216674],"scale":[0.0003433228,0.0002276801]},"arcs":[[[2075,734],[-43,5],[14,26],[-98,-12],[-105,51],[-10,31],[39,48],[6,58],[-71,102],[6,107],[-46,68],[-148,24],[-2,25],[-8,-24],[-274,24],[20,83],[-17,49],[38,35],[-22,100],[66,15],[21,41],[25,-8],[-3,44],[46,8],[-41,25],[-12,51],[-44,8],[-10,-23],[-32,69],[-17,246],[-149,-79],[-31,59],[-86,-20],[-89,75],[25,42],[-92,51],[48,-8],[-19,89],[40,15],[-2,32],[25,14],[-135,160],[17,3],[-46,398],[-101,-12],[-9,81],[99,12],[-2,54],[83,-10],[-13,70],[92,15],[-22,14],[23,74],[-32,34],[61,8],[-11,77],[-111,25],[-59,56],[35,100],[22,4],[-11,126],[115,15],[-14,98],[-119,-15],[-38,77],[-111,-12],[22,83],[-2,281]],[[3118,0],[2,75],[-520,34],[-105,66],[-37,80],[55,44],[-6,85],[-34,-50],[-53,38],[52,43],[-31,17],[40,123],[-66,12],[-52,49],[-17,-14],[-226,81],[-21,9],[12,45],[-36,-3]],[[206,4096],[49,-55],[31,-54],[51,-48],[13,-32]],[[350,3907],[42,-172],[-53,-91],[-7,-180],[-36,-37],[0,-71],[-98,-136],[-35,-188],[-95,-129],[-42,-154],[30,-53],[-9,-95],[-47,-126]],[[0,2428],[46,-45],[-39,-101],[4,-65],[-11,-20]],[[206,4096],[5,-6]],[[350,3907],[-7,23],[-3,6],[-5,6],[-16,14]],[[147,1290],[-7,-73],[-53,-111],[-87,-73],[0,-1]],[[0,991],[182,-146],[50,-314],[198,-256],[137,-122],[49,-153]],[[165,1314],[-1,-2]],[[165,1314],[17,22]],[[182,1336],[2,3]],[[184,1339],[2,3]],[[186,1342],[1,3]],[[187,1345],[2,2]],[[195,1359],[-6,-11]],[[204,1381],[-2,-4]],[[202,1377],[-1,-3]],[[201,1374],[-1,-2]],[[200,1372],[-1,-3]],[[199,1369],[-1,-3]],[[198,1366],[0,-1]],[[198,1365],[-1,-1]],[[197,1364],[0,-2]],[[197,1362],[-2,-3]],[[204,1383],[0,-2]],[[204,1383],[2,4]],[[206,1387],[2,4]],[[208,1391],[1,2]],[[209,1393],[1,2]],[[210,1395],[1,2]],[[211,1397],[2,4]],[[213,1401],[2,3]],[[215,1404],[2,5]],[[217,1409],[3,5]],[[220,1414],[4,7]],[[224,1421],[0,1]],[[224,1422],[0,1]],[[224,1423],[1,0]],[[225,1423],[0,2]],[[225,1425],[1,1]],[[226,1426],[0,1]],[[226,1427],[0,1]],[[226,1428],[0,1]],[[226,1429],[0,1]],[[226,1430],[0,1]],[[226,1431],[0,1]],[[226,1432],[0,1]],[[226,1433]],[[226,1433],[0,1]],[[226,1434],[-1,4]],[[204,1383],[0,-2]],[[204,1383],[3,6]],[[207,1389],[1,3]],[[208,1392],[1,1]],[[209,1393],[0,1]],[[209,1394],[1,1]],[[210,1395],[1,1]],[[211,1396],[0,1]],[[211,1397],[1,1]],[[212,1398],[0,1]],[[212,1399],[1,1]],[[213,1400],[4,7]],[[217,1407],[3,7]],[[509,1437],[-102,-18],[-163,60],[-18,-14],[-2,-13],[2,-18],[0,-5],[0,-3],[-1,-3],[-5,-9]],[[1184,2807],[-38,20],[63,256],[-1,8],[-1,7],[-20,62],[-16,35],[-1,12],[49,50],[-5,56],[4,6],[12,8],[4,5],[11,26],[26,13],[7,5],[4,7],[1,8],[4,71],[24,29],[3,6],[2,8],[-3,54],[-13,61],[123,73],[29,47],[47,46],[32,36],[5,11],[-38,45],[-93,15],[3,26],[39,13],[15,11],[3,2],[3,4],[14,18],[2,15],[-2,7],[-8,11],[-67,70],[-36,26]],[[1371,4096],[113,-113],[-20,-39],[-17,-12],[-6,-2],[-12,-2],[-6,-1],[-7,-3],[-3,-2],[-4,-2],[-2,-2],[-2,-3],[-2,-3],[-1,-3],[0,-3],[0,-4],[1,-4],[2,-5],[3,-3],[4,-4],[3,-1],[5,-2],[78,-5],[37,-45],[-4,-11],[-5,-4],[-14,-13],[-3,-3],[-4,-4],[-4,-9],[-3,-4],[-5,-4],[-8,-4],[-4,-3],[-29,-34],[-29,-47],[-50,-23],[-4,-3],[-13,-13],[-6,-4],[-22,-3],[-5,-1],[-4,-2],[-2,-1],[-3,-3],[-8,-9],[-4,-5],[-2,-6],[-1,-3],[0,-3],[0,-4],[0,-4],[14,-47],[2,-55],[-4,-13],[-2,-2],[-13,-13],[-3,-3],[-3,-5],[-3,-7],[0,-2],[-1,-6],[-3,-63],[-1,-5],[-10,-13],[-19,-8],[-4,-2],[-4,-3],[-2,-3],[-2,-3],[-9,-22],[-13,-12],[-4,-3],[-2,-3],[-2,-4],[-1,-3],[0,-5],[0,-4],[9,-40],[-42,-37],[-3,-4],[-2,-4],[-1,-3],[-1,-4],[0,-5],[1,-4],[0,-3],[24,-58],[14,-51],[-51,-192],[-12,-59],[-1,-3],[0,-5],[1,-3],[2,-5],[2,-4],[3,-3],[3,-2],[4,-2],[4,-2],[4,-1],[4,0],[6,2],[7,3],[26,12]],[[2123,1975],[18,9]],[[2245,2021],[-104,-37]],[[2247,2022],[49,116],[187,78],[121,114],[42,101],[159,6],[52,36],[280,4],[159,44],[81,52],[71,-1]],[[848,1993],[-17,17]],[[1263,1456],[-51,56]],[[1263,1456],[5,-1]],[[1266,1456],[-3,0]],[[4096,2554],[-13,-1]],[[4086,2548],[10,6]],[[2293,304],[14,-34]],[[1873,170],[-35,9]],[[295,2703],[-154,129],[-26,50],[-96,52]],[[295,2703],[2,-2]],[[297,2701],[-2,2]],[[831,2010],[-22,56],[-94,90]],[[849,1992],[-1,1]],[[1186,1554],[-29,45]],[[832,82],[15,-12]],[[837,1391],[-1,-2]],[[947,1405],[-63,13]],[[447,172],[66,-18]],[[1404,199],[87,-4]],[[1495,195],[-4,0]],[[1495,195],[115,-10]],[[1934,152],[91,-47]],[[2026,104],[74,-24]],[[1916,141],[18,11]],[[1341,1465],[-4,-27],[-2,-2]],[[1335,1436],[-1,0],[-3,-1]],[[1333,1434],[1,1],[1,1]],[[1335,1436],[5,27]],[[1664,1704],[-247,-131]],[[2197,1947],[-447,-215]],[[2750,2217],[-58,-13],[-93,-121]],[[2750,2217],[277,-17],[136,14],[99,80]],[[3262,2294],[-99,-79],[-413,2]],[[3504,2482],[-242,-188]],[[3776,2268],[-6,-151],[39,-17]],[[3811,2099],[21,-10]],[[3837,2087],[96,-40]],[[2464,1998],[-25,-11]],[[2524,2025],[-35,-16]],[[2571,2046],[-43,-19]],[[3311,529],[-128,49]],[[1479,3974],[19,-85]],[[3842,2812],[-1,-30]],[[3842,2782],[1,30]],[[3863,2290],[-5,-53]],[[3270,1644],[80,83]],[[1356,1427],[-25,8]],[[1333,1434],[23,-7]],[[1797,1285],[-441,142]],[[2410,952],[-105,22],[-396,246]],[[2410,952],[8,-4]],[[2429,943],[-11,5]],[[3076,643],[-16,52],[-146,56]],[[3076,643],[7,-8]],[[3085,634],[-2,1]],[[3652,191],[-172,57],[-156,276]],[[3652,191],[10,-6]],[[3741,140],[-79,45]],[[3741,140],[7,-10]],[[3947,13],[-199,117]],[[3947,13],[16,-8]],[[3982,0],[-19,5]],[[3324,524],[-13,5]],[[3858,2237],[-1,-11]],[[1332,1435],[0,-1]],[[1334,1435],[0,1]],[[2385,960],[-7,2]],[[2796,2225]],[[2848,2233]],[[2856,2232]],[[2875,2226],[0,-1]],[[2923,2210],[1,1]],[[2981,2204]],[[2989,2203]],[[3009,2201],[1,0]],[[2100,80],[114,43]],[[3798,2584],[13,12]],[[42,249],[185,-3]],[[3944,2544]],[[255,238],[0,-1]],[[330,249],[0,-1]],[[1494,195],[0,2]],[[3704,2513],[-83,7]],[[3752,2497],[1,2]],[[4039,2345],[1,-1]],[[4083,2553],[6,-3]],[[2606,466],[22,-21]],[[1771,193],[19,1]],[[3922,2542],[117,-197]],[[4040,2345],[-118,197]],[[229,247],[-2,0]],[[228,245],[124,5]],[[352,250],[-123,-3]],[[352,250],[30,-70],[65,-8]],[[513,154],[85,-19]],[[747,103],[63,-13]],[[816,88],[16,-6]],[[901,89],[40,19]],[[1000,139],[10,7]],[[1366,199],[38,0]],[[1610,185],[161,8]],[[1792,196],[-2,-2],[3,1]],[[1793,195],[3,-1],[-2,2]],[[2025,105],[1,-1]],[[2307,270],[-38,-14],[-13,-104],[-25,-17]],[[2422,352],[44,29]],[[2761,563],[-13,-67]],[[2748,659],[1,0]],[[2749,660],[2,1]],[[2799,926],[1,-43]],[[2827,1169],[19,32]],[[3671,3318],[-56,19],[-46,86]],[[3841,2726],[-47,-3],[-171,-100],[-5,-93]],[[3841,2746],[0,-20]],[[3841,2726],[0,20]],[[1792,195],[2,0],[0,1],[-1,1],[-1,-2]],[[2747,660],[1,-1],[1,1]],[[2749,660],[-1,1],[-1,-1]],[[2357,1975],[-4,0]],[[2575,446],[31,20]],[[4043,2342],[-3,3]],[[532,1069],[-139,-27]],[[532,1069],[9,6]],[[625,1203],[-84,-128]],[[625,1203],[2,5]],[[832,1383],[-62,-53],[-36,-91],[25,-35],[-25,-2],[-7,36],[-77,6],[-23,-36]],[[1266,1456],[-10,-13]],[[1256,1443],[12,12]],[[1909,1220],[-112,65]],[[2914,751],[-485,192]],[[3183,578],[-98,56]],[[4017,2563],[66,-10]],[[3855,2536],[5,-61]],[[3861,2475],[-5,61]],[[1596,3425],[7,-32]],[[1340,1463],[4,25]],[[1344,1488],[2,10]],[[1345,1497],[-1,-9]],[[1344,1488],[-3,-23]],[[1359,1544],[-8,-4],[-4,-32]],[[1348,1508],[11,36]],[[1417,1573],[-58,-29]],[[1750,1732],[-86,-28]],[[2353,1975],[-156,-28]],[[2599,2083],[-28,-37]],[[3621,2520],[-1,0]],[[3620,2520],[-3,0],[-3,0],[-7,0],[-39,-1],[-64,-37]],[[3621,2504],[0,7],[-1,9]],[[3620,2520],[-1,1]],[[3620,2511],[1,-7]],[[3621,2504],[18,-97],[94,-56],[43,-83]],[[3933,2047],[163,-19]],[[4040,2344],[7,-7]],[[4048,2339],[-5,3]],[[4048,2337],[3,-1]],[[4051,2336],[-2,2]],[[4096,2325],[-45,11]],[[4048,2339],[-1,-1],[0,-1],[2,0],[-1,2]],[[2800,883],[-17,-145]],[[2783,738],[-3,-57]],[[2782,700],[1,38]],[[2783,738],[0,1]],[[2417,1977],[-60,-2]],[[1550,3769],[-12,-82],[58,-262]],[[1603,3393],[23,-184],[106,27],[312,-28],[94,-43],[54,11],[352,-181],[392,-96],[435,-228],[112,-11]],[[3852,2475],[11,-185]],[[1346,4023],[3,4]],[[2780,681],[-31,-20]],[[3717,3271],[-16,16]],[[0,2949],[19,-15]],[[297,2701],[6,-8]],[[303,2693],[-6,8]],[[715,2156],[-412,537]],[[1157,1599],[-141,227],[-167,166]],[[1212,1512],[-26,42]],[[2763,640],[-14,20]],[[625,1204],[1,0]],[[627,1206],[-2,1]],[[1351,1537],[0,3]],[[3619,2521],[1,-10]],[[3718,3270],[-1,1]],[[3701,3287],[-30,31]],[[7,1001],[3,1]],[[10,1002],[0,4]],[[182,999],[-145,-21],[-27,24]],[[182,999],[23,6]],[[393,1042],[-188,-37]],[[1244,1427],[-51,-52],[-121,-13],[-125,43]],[[1244,1427],[12,16]],[[1256,1443],[-12,-16]],[[2628,445],[-22,21]],[[847,70],[54,19]],[[836,1389],[-4,-6]],[[1290,1448],[-24,8]],[[1268,1455],[22,-7]],[[4017,2563],[-16,-13]],[[598,135],[149,-32]],[[810,90],[6,-2]],[[941,108],[59,31]],[[1010,146],[76,50],[280,3]],[[2231,135],[-17,-12]],[[2466,381],[109,65]],[[2628,445],[111,5],[9,46]],[[2799,926],[8,210],[20,33]],[[2846,1201],[424,443]],[[3569,3423],[-212,499],[-34,174]],[[3350,1727],[86,37]],[[3551,1797],[22,12]],[[3772,3235],[-54,35]],[[3857,2226],[-70,-292],[-68,-49]],[[3772,3235],[69,-73],[-50,-85],[48,-142],[3,-123]],[[3843,2812],[-4,123],[-48,142],[51,85],[-70,73]],[[1437,3972],[-162,124]],[[1347,1508],[-2,-11]],[[1346,1498],[2,10]],[[3749,2498],[-45,15]],[[3778,2506],[-20,-8]],[[3680,1864],[-106,-55]],[[1290,1448],[43,-14]],[[1331,1435],[-41,13]],[[1916,141],[-120,53]],[[3811,2596],[16,15]],[[1479,3974],[-26,15],[-16,-17]],[[2770,638],[-9,-75]],[[2782,700]],[[884,1418],[-47,-27]],[[18,1017],[-18,-13]],[[0,997],[7,4]],[[10,1006],[8,11]],[[0,224],[42,25]],[[3778,2506],[60,29],[106,9]],[[3855,2536],[89,8]],[[3944,2544],[57,6]],[[2749,659],[21,-21]],[[3841,2782],[0,-36]],[[3841,2746],[1,36]],[[3436,1764],[46,-4],[69,37]],[[2294,318],[-1,-14]],[[2294,318],[128,34]],[[2439,1987],[-22,-10]],[[2489,2009],[-25,-11]],[[2528,2027],[-4,-2]],[[227,247],[2,0]],[[1258,4096],[88,-73]],[[1265,1454],[1,1]],[[1284,1450]],[[1288,1448],[0,1]],[[3574,1809],[-1,0]],[[3719,1885],[-39,-21]],[[1871,160],[2,10]],[[1531,3800],[19,-31]],[[3796,2584],[-313,76]],[[3861,2475],[-9,0]],[[1498,3889],[37,-46],[-4,-43]],[[4096,4096],[0,-4096],[-4096,0],[0,4096],[2171,0],[1925,0]],[[2348,2036],[30,79],[45,22],[-46,12],[83,52],[70,0],[-38,-44],[-67,-15],[55,-17],[14,-29],[7,41],[44,-13],[4,-64],[-12,14],[-27,-42],[19,-6],[-39,-9],[-6,-52],[44,-25],[-90,-27],[-24,22],[31,6],[-29,11],[-11,-20],[-7,-2],[-44,48],[112,11],[-9,38],[-97,-13],[-12,22]],[[2521,2076],[10,-5],[7,9],[-11,3],[-6,-7]],[[1941,2459],[30,128],[38,8],[32,-32],[-32,-16],[12,-18],[87,51],[-37,-62],[-18,5],[1,-32],[-58,0],[35,-54],[21,28],[-14,-33],[-52,-12],[1,32],[-46,7]],[[2328,296],[48,29],[46,-26],[20,45],[34,-13],[34,63],[44,25],[111,-29],[-10,-28],[42,-30],[-25,-30],[-77,-22],[-47,24],[-44,-66],[-57,0],[-24,-99],[-21,-9],[13,30],[-64,27],[9,48],[-32,61]],[[446,1326],[60,5],[16,27],[45,-18],[-17,-86],[22,-33],[-55,42],[-14,-11],[-57,74]],[[9,2252],[39,191],[123,20],[-2,-40],[62,-24],[-89,-2],[2,-107],[-135,-38]],[[3774,2634],[80,19],[-13,28],[42,25],[120,-24],[21,-37],[-158,-8],[-55,-41],[-37,38]],[[3231,128],[20,30],[96,-42],[-22,-12],[19,-15],[29,-5],[-3,26],[33,-69],[1,-23],[-4,-9],[-34,44],[8,30],[-35,-21],[-34,18],[2,-18],[-49,48],[17,-40],[-34,5],[10,35],[-20,18]],[[3079,1764],[30,23],[197,-7],[54,-44],[-14,-13],[73,26],[-11,-39],[-64,-8],[40,-38],[-46,-93],[-72,76],[42,42],[-58,-54],[-41,35],[-19,-50],[39,-6],[-90,-94],[-60,244]],[[97,4096],[94,0],[-46,-78],[-70,-28],[-8,29],[-32,-20],[-35,42],[0,20],[15,2],[-15,33],[88,-22],[9,22]],[[753,4096],[-14,-80],[-28,19],[-4,-35],[-35,96],[81,0]],[[618,4096],[5,-45],[25,45],[-1,-82],[-54,43],[-34,-38],[-18,77],[77,0]],[[4096,362],[-109,20],[97,245],[12,-11],[0,-254]],[[3371,594],[-31,-65],[-32,0],[0,-49],[-66,-50],[-51,-3],[-77,102],[0,48],[-33,1],[6,83],[27,52],[155,112],[99,-182],[3,-49]],[[2019,0],[-138,0],[-30,90],[-64,0],[-65,97],[-162,-49],[-97,49],[-97,0],[0,49],[-87,49],[-30,50],[-12,96],[80,75],[114,-26],[17,-40],[145,-57],[96,14],[65,83],[10,130],[40,11],[15,54],[26,-35],[72,-13],[0,-49],[337,-52],[115,-46],[0,-49],[80,-28],[18,-21],[-33,-97],[28,-134],[-45,-80],[-80,-30],[-32,49],[-66,27],[-32,70],[36,69],[-17,72],[-107,29],[-73,74],[-19,-62],[79,-162],[4,-117],[-91,-90]],[[83,0],[-83,0],[0,691],[147,89],[22,-7],[65,-98],[152,-11],[42,-37],[0,-49],[32,0],[33,-98],[42,-2],[72,43],[145,-187],[161,49],[0,-49],[92,-114],[5,-82],[-43,4],[-100,-126],[-51,25],[0,49],[-65,0],[-64,194],[-65,-146],[-89,-10],[-8,-38],[-171,91],[-56,6],[-67,-40],[-113,-140],[-35,-7]],[[2901,1098],[-14,-227],[65,-293],[-24,-29],[-235,-69],[-33,97],[-65,0],[-141,191],[-36,112],[16,88],[421,-48],[-33,292],[68,-30],[11,-84]],[[1948,1212],[-113,24],[-37,43],[-11,80],[56,45],[62,-9],[43,-63],[0,-120]],[[816,2188],[32,-49],[130,49],[-56,-147],[-89,-59],[-243,11],[63,119],[150,105],[13,-29]],[[3672,3231],[-50,22],[-46,75],[-10,129],[222,74],[66,-42],[4,-130],[-65,-49],[-87,-13],[-34,-66]],[[2984,3311],[63,-88],[2,-59],[-91,-55],[-103,6],[-39,127],[-26,20],[32,98],[75,-57],[87,57],[0,-49]],[[1528,3115],[-50,39],[18,254],[48,-37],[18,-86],[-34,-170]],[[1762,4096],[90,-53],[-25,-76],[-30,-2],[-75,77],[-32,-195],[-65,49],[-32,-98],[-71,-49],[-40,11],[-19,38],[-126,14],[-36,35],[0,49],[-32,0],[-68,109],[-29,-11],[0,-49],[-66,50],[-31,101],[687,0]],[[983,3903],[20,-66],[72,10],[-27,-127],[-41,-10],[-123,158],[7,68],[54,107],[31,-52],[7,-88]],[[396,3798],[-24,15],[-9,132],[-100,33],[3,65],[97,0],[0,-98],[68,-47],[-35,-100]],[[1121,3078],[148,-11],[32,-245],[-87,-75],[-85,13],[-151,160],[9,35],[88,14],[0,98],[46,11]],[[4096,2434],[-58,-93],[-180,-104],[-130,49],[-32,48],[-97,0],[0,49],[-94,89],[-36,302],[27,-5],[52,53],[19,1],[0,-49],[151,52],[10,-52],[33,49],[97,-49],[100,95],[138,-47],[0,-388]],[[0,2541],[0,379],[7,0],[47,56],[18,-56],[103,-23],[124,-146],[-4,-92],[-33,-39],[-93,-42],[-32,-49],[-52,-9],[-85,21]],[[2757,1310],[-74,-3],[-152,100],[33,85],[162,159],[37,-110],[-6,-36],[-31,0],[54,-145],[-23,-50]],[[0,1366],[0,485],[175,29],[188,-33],[0,-196],[141,0],[48,-29],[73,-136],[78,-41],[16,-38],[53,5],[29,-31],[112,26],[1,-136],[70,-203],[-136,-246],[93,-6],[199,104],[35,-166],[30,-30],[-74,-98],[-90,-25],[-225,25],[-23,53],[23,142],[-420,98],[4,105],[-69,188],[-132,12],[-30,-12],[0,-49],[-84,66],[-22,62],[-56,19],[-7,56]],[[1464,1798],[-37,-211],[-93,-131],[-40,2],[-57,95],[-65,1],[-32,97],[10,48],[127,126],[187,-27]],[[1688,1697],[-55,15],[-34,46],[-6,89],[113,-24],[37,-43],[12,-80],[-67,-3]],[[4030,1876],[-73,70],[-35,145],[174,-12],[0,-182],[-66,-21]],[[3631,1749],[-37,17],[-28,60],[-32,167],[95,-3],[67,-46],[-1,-59],[-64,-87],[0,-49]],[[1962,3052],[106,-131],[10,-245],[32,-49],[0,-97],[28,-22],[12,-66],[148,-61],[71,2],[93,59],[37,-10],[32,-146],[97,-49],[-65,-342],[-161,0],[-130,-49],[0,49],[-64,0],[-1,49],[-60,20],[28,78],[-65,48],[0,49],[-69,29],[-168,-9],[-86,29],[-33,98],[-161,146],[9,87],[49,92],[-32,93],[-59,21],[-89,108],[-73,-11],[0,65],[98,33],[71,142],[26,5],[0,-49],[63,-16],[195,65],[111,-15]],[[1972,944],[48,41],[-17,28],[28,74],[16,-68],[21,21],[-16,-6],[6,53],[43,-33],[-66,-100],[-28,-21],[-35,11]],[[1495,1539],[65,-33],[2,-25],[52,45],[-13,-26],[25,14],[10,-103],[-83,36],[-58,92]],[[1211,1502],[10,83],[96,14],[54,53],[76,-3],[18,-41],[-35,-27],[-47,11],[8,-29],[-27,-15],[-36,11],[-23,-45],[51,-7],[-72,-65],[-23,-5],[-50,65]],[[3333,1797],[10,22],[50,-41],[56,26],[16,-28],[51,39],[1,-21],[57,6],[-24,-49],[-38,11],[8,-40],[-40,6],[-24,-29],[-30,28],[27,42],[-98,-29],[-22,57]],[[747,2006],[65,-15],[18,-43],[-7,52],[23,31],[83,-38],[-83,7],[34,-101],[-35,43],[-3,-23],[36,-56],[6,-25],[-62,103],[-54,23],[-21,42]],[[1860,2304],[61,24],[20,-43],[27,17],[-26,13],[10,23],[44,13],[4,-23],[72,-10],[-26,-62],[77,22],[10,-28],[16,21],[13,4],[-98,-85],[32,29],[-34,-7],[-2,20],[-75,-28],[-40,57],[26,11],[34,-48],[22,7],[7,20],[-27,-13],[-26,48],[-113,-22],[37,47],[-45,-7]],[[1525,2433],[65,110],[-39,55],[63,-22],[39,45],[-25,-75],[31,-93],[-38,13],[0,44],[-17,-28],[-18,30],[-26,-61],[-8,23],[-27,-41]],[[1841,2825],[26,68],[21,-32],[-8,94],[22,-52],[82,8],[7,-27],[39,2],[20,-38],[-42,-12],[50,-98],[-65,7],[-32,34],[-29,-12],[18,12],[-40,31],[4,38],[-48,7],[-25,-30]],[[1562,2820],[25,23],[-21,-3],[2,27],[60,8],[114,-59],[89,10],[7,-32],[-17,-17],[-89,36],[24,-31],[-43,3],[14,-41],[-26,-25],[-16,77],[-59,-5],[-5,-20],[40,-4],[-22,-46],[-45,16],[23,35],[-35,13],[26,26],[-46,9]],[[3737,3593],[2,28],[41,24],[27,-36],[10,47],[-1,-155],[-39,27],[-24,-18],[12,30],[-28,53]],[[1493,3250],[22,17],[-7,76],[39,7],[-21,15],[50,31],[-28,10],[15,36],[30,-8],[-10,-26],[21,28],[1,-42],[-32,-14],[-39,-61],[15,-19],[-32,-20],[54,9],[3,-17],[-25,-25],[-24,11],[1,-28],[-33,20]],[[711,321],[21,11],[-12,62],[57,14],[19,-81],[-31,-60],[-54,54]],[[825,253],[47,54],[-21,46],[76,43],[28,82],[25,-26],[-32,-42],[95,-36],[-25,-43],[6,-56],[-112,5],[-32,-62],[-55,35]],[[428,323],[35,15],[-15,8],[28,35],[45,-5],[36,27],[14,-23],[-2,-41],[-39,-43],[-102,27]]]}