{"objects":{"water":{"type":"GeometryCollection","geometries":[{"type":"MultiPolygon","properties":{"source":"naturalearthdata.com","kind":"ocean","area":1576712559132672,"sort_rank":200,"min_zoom":0.0,"id":1},"arcs":[[[9]],[[10]]]},{"type":"MultiLineString","properties":{"source":"naturalearthdata.com","kind":"ocean","sort_rank":205,"boundary":true,"min_zoom":0.0,"id":52},"arcs":[[11],[12],[13]]}]},"buildings":{"type":"GeometryCollection","geometries":[]},"places":{"type":"GeometryCollection","geometries":[{"type":"Point","properties":{"alt_name:en":"Tahanrih","name:ka":"\u10e2\u10d0\u10d2\u10d0\u10dc\u10e0\u10dd\u10d2\u10d8","name:ko":"\ud0c0\uac04\ub85c\ud06c","name:ar":"\u062a\u0627\u063a\u0627\u0646\u0631\u0648\u063a","min_zoom":8.0,"int_name":"Taganrog","name:it":"Taganrog","name:vi":"Taganrog","name:pl":"Taganrog","id":29980667,"name:ca":"Taganrog","name:lv":"Taganroga","name:fa":"\u062a\u0627\u06af\u0627\u0646\u0631\u0648\u06af","kind_detail":"city","name:de":"Taganrog","source":"openstreetmap.org","name:fr":"Taganrog","name:az":"Taqanroq","name:zh":"\u5854\u7518\u7f85\u683c","name:ro":"Taganrog","name:ja":"\u30bf\u30ac\u30f3\u30ed\u30b0","name:lt":"Taganrogas","name:hy":"\u054f\u0561\u0563\u0561\u0576\u0580\u0578\u0563","population":251050,"old_name:uk":"\u0422\u0430\u0433\u0430\u043d\u0440\u0456\u0433","name:el":"\u03a4\u03b1\u03b3\u03ba\u03b1\u03bd\u03c1\u03cc\u03b3\u03ba","kind":"locality","name:en":"Taganrog","name":"\u0422\u0430\u0433\u0430\u043d\u0440\u043e\u0433","name:gl":"Taganrog","name:et":"Taganrog","name:nl":"Taganrog","name:es":"Taganrog"},"coordinates":[2722,748]},{"type":"Point","properties":{"name:sr":"\u0410\u043c\u0432\u0440\u043e\u0441\u0438\u0458\u0438\u0432\u043a\u0430","name:ro":"Amvrosiivka","name:ja":"\u30a2\u30e0\u30a6\u30ed\u30fc\u30b7\u30a4\u30a6\u30ab","name:lt":"Amvrosijivka","name:ar":"\u0623\u0645\u0641\u0631\u0648\u0633\u064a\u064a\u064a\u0641\u0643\u0627","min_zoom":8.0,"name:vi":"Amvrosiivka","name:ru":"\u0410\u043c\u0432\u0440\u043e\u0441\u0438\u0435\u0432\u043a\u0430","name:pl":"Amwrosijewka","name":"\u0410\u043c\u0432\u0440\u043e\u0441\u0456\u0457\u0432\u043a\u0430","id":256614257,"population":19238,"name:fa":"\u0622\u0645\u0648\u0631\u0648\u0633\u06cc\u0626\u06cc\u0641\u06a9\u0627","kind":"locality","name:en":"Amvrosiivka","name:nn":"Amvrosijivka","kind_detail":"town","name:de":"Amwrossijiwka","source":"openstreetmap.org","name:fr":"Amvrossiivka","name:be":"\u0410\u043c\u0432\u0440\u043e\u0441\u0456\u0435\u045e\u043a\u0430","name:zh":"\u963f\u59c6\u592b\u7f85\u897f\u8036\u592b\u5361"},"coordinates":[1489,3257]},{"type":"Point","properties":{"name:ro":"Ilovaisk","name:nn":"Ilovajsk","min_zoom":8.0,"name:ru":"\u0418\u043b\u043e\u0432\u0430\u0439\u0441\u043a","name:vi":"Ilovaisk","name:pl":"I\u0142owajsk","id":256614045,"population":16143,"name:fa":"\u0627\u06cc\u0644\u0648\u0648\u0627\u06cc\u0633\u06a9","kind":"locality","name:en":"Ilovaisk","name":"\u0406\u043b\u043e\u0432\u0430\u0439\u0441\u044c\u043a","kind_detail":"town","name:de":"Ilowaisk","source":"openstreetmap.org","name:fr":"Ilova\u00efsk","name:zh":"\u4f0a\u6d1b\u74e6\u4f0a\u65af\u514b"},"coordinates":[667,3815]},{"type":"Point","properties":{"kind":"locality","name:en":"Matveyev Kurgan","name":"\u041c\u0430\u0442\u0432\u0435\u0435\u0432 \u041a\u0443\u0440\u0433\u0430\u043d","kind_detail":"town","name:de":"Matwejew Kurgan","source":"openstreetmap.org","min_zoom":8.0,"name:uk":"\u041c\u0430\u0442\u0432\u0456\u0454\u0432 \u041a\u0443\u0440\u0433\u0430\u043d","name:hy":"\u0544\u0561\u057f\u057e\u0565\u0587-\u053f\u0578\u0582\u0580\u0563\u0561\u0576","id":356772744,"population":15590},"coordinates":[2602,2278]},{"type":"Point","properties":{"kind":"locality","name:en":"Pokrovskoye","name":"\u041f\u043e\u043a\u0440\u043e\u0432\u0441\u043a\u043e\u0435","kind_detail":"town","name:de":"Pokrowskoje","source":"openstreetmap.org","min_zoom":8.0,"name:uk":"\u041f\u043e\u043a\u0440\u043e\u0432\u0441\u044c\u043a\u0435","name:hy":"\u054a\u0578\u056f\u0580\u0578\u057e\u057d\u056f\u0578\u0575\u0565","id":356772948,"population":12369},"coordinates":[2703,1613]},{"type":"Point","properties":{"name:ro":"Novoazovsk","name:nn":"Novoazovsk","min_zoom":8.0,"name:ru":"\u041d\u043e\u0432\u043e\u0430\u0437\u043e\u0432\u0441\u043a","name:vi":"Novoazovsk","name:pl":"Nowoazowsk","id":256616567,"population":11950,"name:fa":"\u0646\u0648\u0648\u0627\u0632\u0648\u0641\u0633\u06a9","kind":"locality","name:en":"Novoazovsk","name":"\u041d\u043e\u0432\u043e\u0430\u0437\u043e\u0432\u0441\u044c\u043a","kind_detail":"town","name:de":"Nowoasowsk","source":"openstreetmap.org","name:fr":"Novoazovsk","name:zh":"\u65b0\u4e9e\u901f\u65af\u514b"},"coordinates":[333,318]},{"type":"Point","properties":{"kind":"locality","name:en":"Komsomolske","name":"\u041a\u043e\u043c\u0441\u043e\u043c\u043e\u043b\u044c\u0441\u044c\u043a\u0435","kind_detail":"town","official_name":"\u041a\u0430\u043b\u044c\u043c\u0456\u0443\u0441\u044c\u043a\u0435","source":"openstreetmap.org","min_zoom":8.0,"name:ru":"\u041a\u043e\u043c\u0441\u043e\u043c\u043e\u043b\u044c\u0441\u043a\u043e\u0435","id":256618288,"population":11909},"coordinates":[306,2711]},{"type":"Point","properties":{"name:ro":"Mosp\u00eene","name:nn":"Mospyne","min_zoom":8.0,"name:ru":"\u041c\u043e\u0441\u043f\u0438\u043d\u043e","name:vi":"Mospyne","name:pl":"Mospyne","id":256613664,"population":10753,"name:fa":"\u0645\u0648\u0633\u067e\u06cc\u0646\u0647","kind":"locality","name:en":"Mospyne","name":"\u041c\u043e\u0441\u043f\u0438\u043d\u0435","kind_detail":"town","source":"openstreetmap.org","name:fr":"Mospyne","name:zh":"\u83ab\u65af\u76ae\u8afe"},"coordinates":[309,3628]},{"type":"Point","properties":{"kind":"locality","name:en":"Novyi Svit","name":"\u041d\u043e\u0432\u0438\u0439 \u0421\u0432\u0456\u0442","kind_detail":"town","source":"openstreetmap.org","min_zoom":8.0,"name:ro":"Novi Svet","name:be":"\u041d\u043e\u0432\u044b \u0421\u0432\u0435\u0442","name:ru":"\u041d\u043e\u0432\u044b\u0439 \u0421\u0432\u0435\u0442","id":256618278,"population":9329},"coordinates":[153,3306]},{"type":"Point","properties":{"kind":"locality","name:en":"Starobesheve","name":"\u0421\u0442\u0430\u0440\u043e\u0431\u0435\u0448\u0435\u0432\u0435","kind_detail":"town","name:de":"Starobeschewe","source":"openstreetmap.org","min_zoom":8.0,"name:ru":"\u0421\u0442\u0430\u0440\u043e\u0431\u0435\u0448\u0435\u0432\u043e","name:pl":"Starobeszewe","id":256618283,"population":6424},"coordinates":[164,3061]},{"type":"Point","properties":{"kind":"locality","name:en":"Telmanove","name":"\u0422\u0435\u043b\u044c\u043c\u0430\u043d\u043e\u0432\u0435","kind_detail":"town","official_name":"\u0411\u043e\u0439\u043a\u0456\u0432\u0441\u044c\u043a\u0435","name:de":"Telmanowe","source":"openstreetmap.org","min_zoom":8.0,"name:ru":"\u0422\u0435\u043b\u044c\u043c\u0430\u043d\u043e\u0432\u043e","name:pl":"Telmanowe","id":256617924,"population":4577},"coordinates":[146,1606]},{"type":"Point","properties":{"kind":"locality","name:en":"Pervomaiskyi","name":"\u041f\u0435\u0440\u0432\u043e\u043c\u0430\u0439\u0441\u044c\u043a\u0438\u0439","kind_detail":"town","name:de":"Perwomajskyj","source":"openstreetmap.org","min_zoom":8.0,"name:ru":"\u041f\u0435\u0440\u0432\u043e\u043c\u0430\u0439\u0441\u043a\u0438\u0439","id":256614037,"population":2834},"coordinates":[2387,4022]},{"type":"Point","properties":{"kind":"locality","name:en":"Siedove","name":"\u0421\u0454\u0434\u043e\u0432\u0435","kind_detail":"town","source":"openstreetmap.org","min_zoom":8.0,"name:ru":"\u0421\u0435\u0434\u043e\u0432\u043e","id":256616538,"population":2734},"coordinates":[558,129]},{"type":"Point","properties":{"kind":"locality","name:en":"Novoamvrosiivske","name":"\u041d\u043e\u0432\u043e\u0430\u043c\u0432\u0440\u043e\u0441\u0456\u0457\u0432\u0441\u044c\u043a\u0435","kind_detail":"town","source":"openstreetmap.org","min_zoom":8.0,"name:ru":"\u041d\u043e\u0432\u043e\u0430\u043c\u0432\u0440\u043e\u0441\u0438\u0435\u0432\u0441\u043a\u043e\u0435","id":256614421,"population":2254},"coordinates":[1551,3421]},{"type":"Point","properties":{"kind":"locality","name:en":"Kuteinykove","name":"\u041a\u0443\u0442\u0435\u0439\u043d\u0438\u043a\u043e\u0432\u0435","kind_detail":"town","source":"openstreetmap.org","min_zoom":8.0,"name:ru":"\u041a\u0443\u0442\u0435\u0439\u043d\u0438\u043a\u043e\u0432\u043e","id":256614418,"population":1767},"coordinates":[925,3319]},{"type":"Point","properties":{"kind":"locality","name:en":"Hruzko-Zorianske","name":"\u0413\u0440\u0443\u0437\u044c\u043a\u043e-\u0417\u043e\u0440\u044f\u043d\u0441\u044c\u043a\u0435","kind_detail":"town","source":"openstreetmap.org","min_zoom":8.0,"name:ru":"\u0413\u0440\u0443\u0437\u0441\u043a\u043e-\u0417\u043e\u0440\u044f\u043d\u0441\u043a\u043e\u0435","id":256613959,"population":1395},"coordinates":[332,3917]},{"type":"Point","properties":{"kind":"locality","name:en":"Voikovskyi","name":"\u0412\u043e\u0439\u043a\u043e\u0432\u0441\u044c\u043a\u0438\u0439","kind_detail":"town","official_name":"\u041a\u043e\u043f\u0430\u043d\u0456","source":"openstreetmap.org","min_zoom":8.0,"name:ru":"\u0412\u043e\u0439\u043a\u043e\u0432\u0441\u043a\u0438\u0439","id":256614411,"population":1218},"coordinates":[1075,3106]},{"type":"Point","properties":{"kind":"locality","name:en":"Mezhove","name":"\u041c\u0435\u0436\u043e\u0432\u0435","kind_detail":"town","source":"openstreetmap.org","min_zoom":8.0,"name:ru":"\u041c\u0435\u0436\u0435\u0432\u043e\u0435","id":256613966,"population":1212},"coordinates":[297,3993]},{"type":"Point","properties":{"kind":"locality","name:en":"Maiak","name":"\u041c\u0430\u044f\u043a","kind_detail":"town","source":"openstreetmap.org","min_zoom":8.0,"id":256613926,"population":1204},"coordinates":[140,4016]},{"type":"Point","properties":{"kind":"locality","name:en":"Troitsko-Khartsyzk","name":"\u0422\u0440\u043e\u0457\u0446\u044c\u043a\u043e-\u0425\u0430\u0440\u0446\u0438\u0437\u044c\u043a","kind_detail":"town","source":"openstreetmap.org","min_zoom":8.0,"name:ru":"\u0422\u0440\u043e\u0438\u0446\u043a\u043e-\u0425\u0430\u0440\u0446\u044b\u0437\u0441\u043a","id":256614067,"population":1048},"coordinates":[871,4005]},{"type":"Point","properties":{"kind":"locality","name:en":"Horbachevo-Mykhailivka","name":"\u0413\u043e\u0440\u0431\u0430\u0447\u0435\u0432\u043e-\u041c\u0438\u0445\u0430\u0439\u043b\u0456\u0432\u043a\u0430","kind_detail":"town","source":"openstreetmap.org","min_zoom":8.0,"name:ru":"\u0413\u043e\u0440\u0431\u0430\u0447\u0451\u0432\u043e-\u041c\u0438\u0445\u0430\u0439\u043b\u043e\u0432\u043a\u0430","id":256613665,"population":935},"coordinates":[119,3502]},{"type":"Point","properties":{"kind":"locality","name:en":"Shakhtne","name":"\u0428\u0430\u0445\u0442\u043d\u0435","kind_detail":"town","source":"openstreetmap.org","min_zoom":8.0,"name:ru":"\u0428\u0430\u0445\u0442\u043d\u043e\u0435","id":1528497744,"population":854},"coordinates":[912,4065]},{"type":"Point","properties":{"kind":"locality","name:en":"Shyroke","name":"\u0428\u0438\u0440\u043e\u043a\u0435","kind_detail":"town","source":"openstreetmap.org","min_zoom":8.0,"name:ru":"\u0428\u0438\u0440\u043e\u043a\u043e\u0435","id":256614049,"population":829},"coordinates":[763,3956]},{"type":"Point","properties":{"kind":"locality","name:en":"Hruzko-Lomivka","name":"\u0413\u0440\u0443\u0437\u044c\u043a\u043e-\u041b\u043e\u043c\u0456\u0432\u043a\u0430","kind_detail":"town","source":"openstreetmap.org","min_zoom":8.0,"name:ru":"\u0413\u0440\u0443\u0437\u0441\u043a\u043e-\u041b\u043e\u043c\u043e\u0432\u043a\u0430","id":256613962,"population":629},"coordinates":[398,3748]},{"type":"Point","properties":{"kind":"locality","name:en":"Pobieda","name":"\u041f\u043e\u0431\u0454\u0434\u0430","kind_detail":"town","source":"openstreetmap.org","min_zoom":8.0,"name:be":"\u041f\u0430\u0431\u0435\u0434\u0430","name:ru":"\u041f\u043e\u0431\u0435\u0434\u0430","id":256613998,"population":549},"coordinates":[2446,4047]},{"type":"Point","properties":{"kind":"locality","name:en":"Vysoke","name":"\u0412\u0438\u0441\u043e\u043a\u0435","kind_detail":"town","source":"openstreetmap.org","min_zoom":8.0,"name:be":"\u0412\u044b\u0441\u043e\u043a\u0430\u0435","name:ru":"\u0412\u044b\u0441\u043e\u043a\u043e\u0435","id":256613958,"population":482},"coordinates":[257,3902]},{"type":"Point","properties":{"kind":"locality","name:en":"Pokrovka","name":"\u041f\u043e\u043a\u0440\u043e\u0432\u043a\u0430","kind_detail":"town","source":"openstreetmap.org","min_zoom":8.0,"id":256614068,"population":170},"coordinates":[902,3858]},{"type":"Point","properties":{"kind":"locality","name:en":"Voikove","name":"\u0412\u043e\u0439\u043a\u043e\u0432\u0435","kind_detail":"town","official_name":"\u0411\u043b\u0430\u0433\u043e\u0434\u0430\u0442\u043d\u0435","source":"openstreetmap.org","min_zoom":8.0,"name:ru":"\u0412\u043e\u0439\u043a\u043e\u0432\u043e","id":256614072,"population":43},"coordinates":[697,4006]}]},"transit":{"type":"GeometryCollection","geometries":[{"type":"LineString","properties":{"kind":"train","network":"\u0423\u043a\u0440\u0417\u0430\u043bi\u0437\u043d\u0438\u0446\u044f","sort_rank":275,"source":"openstreetmap.org","min_zoom":6.0,"operator":"\u0423\u043a\u0440\u0417\u0430\u043bi\u0437\u043d\u0438\u0446\u044f","ref":"\u0406\u043b\u043e\u0432\u0430\u0439\u0441\u044c\u043a - \u0413\u043e\u0440\u043b\u0456\u0432\u043a\u0430 - \u0411\u0430\u0439\u0440\u0430\u043a","osm_relation":true},"arcs":[8]}]},"pois":{"type":"GeometryCollection","geometries":[{"type":"Point","properties":{"name:ba":"\u0414\u043e\u043d\u0441\u043a\u043e\u0439 \u0442\u04d9\u0431\u0438\u0493\u04d9\u0442 \u043f\u0430\u0440\u043a\u044b","kind":"nature_reserve","name:en":"Don Nature Park","tier":2,"protect_class":"5","area":529969000,"official_name":"\u041f\u0440\u0438\u0440\u043e\u0434\u043d\u044b\u0439 \u043f\u0430\u0440\u043a \u00ab\u0414\u043e\u043d\u0441\u043a\u043e\u0439\u00bb","name:de":"Don-Naturpark","source":"openstreetmap.org","min_zoom":7.77,"name:uk":"\u0414\u043e\u043d\u0441\u044c\u043a\u0438\u0439 \u043f\u0440\u0438\u0440\u043e\u0434\u043d\u0438\u0439 \u043f\u0430\u0440\u043a","operator":"\u0413\u0411\u0423 \u0420\u041e \"\u0414\u0438\u0440\u0435\u043a\u0446\u0438\u044f \u043e\u0441\u043e\u0431\u043e \u043e\u0445\u0440\u0430\u043d\u044f\u0435\u043c\u044b\u0445 \u043f\u0440\u0438\u0440\u043e\u0434\u043d\u044b\u0445 \u0442\u0435\u0440\u0440\u0438\u0442\u043e\u0440\u0438\u0439 \u043e\u0431\u043b\u0430\u0441\u0442\u043d\u043e\u0433\u043e \u0437\u043d\u0430\u0447\u0435\u043d\u0438\u044f\"","id":-7755539,"osm_relation":true,"name":"\u0414\u043e\u043d\u0441\u043a\u043e\u0439 \u043f\u0440\u0438\u0440\u043e\u0434\u043d\u044b\u0439 \u043f\u0430\u0440\u043a"},"coordinates":[3818,604]},{"type":"Point","properties":{"kind":"protected_area","name":"\u0423\u0447\u0430\u0441\u0442\u043e\u043a \"\u0414\u0435\u043b\u044c\u0442\u0430 \u0414\u043e\u043d\u0430\" \u0414\u043e\u043d\u0441\u043a\u043e\u0433\u043e \u043f\u0440\u0438\u0440\u043e\u0434\u043d\u043e\u0433\u043e \u043f\u0430\u0440\u043a\u0430","area":22041400,"official_name":"\u0423\u0447\u0430\u0441\u0442\u043e\u043a \"\u0414\u0435\u043b\u044c\u0442\u0430 \u0414\u043e\u043d\u0430\" \u043f\u0440\u0438\u0440\u043e\u0434\u043d\u043e\u0433\u043e \u043f\u0430\u0440\u043a\u0430 \u00ab\u0414\u043e\u043d\u0441\u043a\u043e\u0439\u00bb","source":"openstreetmap.org","min_zoom":8.0,"tier":2,"id":-7755538,"osm_relation":true},"coordinates":[3828,154]},{"type":"Point","properties":{"kind":"protected_area","name":"\u0422\u0443\u0440\u0438\u0441\u0442\u0441\u043a\u043e-\u0430\u0434\u043c\u0438\u043d\u0438\u0441\u0442\u0440\u0430\u0442\u0438\u0432\u043d\u0430\u044f \u0437\u043e\u043d\u0430","area":18754200,"source":"openstreetmap.org","min_zoom":8.0,"tier":2,"id":-7755532,"osm_relation":true},"coordinates":[3851,332]},{"type":"Point","properties":{"kind":"protected_area","name":"\u041f\u0440\u0438\u0440\u043e\u0434\u043e\u043e\u0445\u0440\u0430\u043d\u043d\u0430\u044f \u0437\u043e\u043d\u0430","area":221192000,"source":"openstreetmap.org","min_zoom":7.0,"tier":2,"id":-7755530,"osm_relation":true},"coordinates":[3793,566]},{"type":"Point","properties":{"kind":"national_park","name:en":"Regional Landscape Park \"Donets Ridge\"","protect_class":"5","area":157256000,"name:de":"Regionaler Landschaftspark \"Donezplatte\"","source":"openstreetmap.org","min_zoom":7.14,"tier":1,"name:ru":"\u0420\u0435\u0433\u0438\u043e\u043d\u0430\u043b\u044c\u043d\u044b\u0439 \u043b\u0430\u043d\u0434\u0448\u0430\u0444\u0442\u043d\u044b\u0439 \u043f\u0430\u0440\u043a \u00ab\u0414\u043e\u043d\u0435\u0446\u043a\u0438\u0439 \u043a\u0440\u044f\u0436\u00bb","id":-4649414,"osm_relation":true,"name":"\u0420\u0435\u0433\u0456\u043e\u043d\u0430\u043b\u044c\u043d\u0438\u0439 \u043b\u0430\u043d\u0434\u0448\u0430\u0444\u0442\u043d\u0438\u0439 \u043f\u0430\u0440\u043a \u00ab\u0414\u043e\u043d\u0435\u0446\u044c\u043a\u0438\u0439 \u043a\u0440\u044f\u0436\u00bb"},"coordinates":[1994,3725]},{"type":"Point","properties":{"kind":"protected_area","protect_class":"1","area":22864900,"source":"openstreetmap.org","min_zoom":8.0,"tier":2,"name:ru":"\u041f\u0440\u0438\u0440\u043e\u0434\u043d\u044b\u0439 \u0437\u0430\u043f\u043e\u0432\u0435\u0434\u043d\u0438\u043a \u00ab\u0425\u043e\u043c\u0443\u0442\u043e\u0432\u0441\u043a\u0430\u044f \u0441\u0442\u0435\u043f\u044c\u00bb","id":187854902,"name":"\u041f\u0440\u0438\u0440\u043e\u0434\u043d\u0438\u0439 \u0437\u0430\u043f\u043e\u0432\u0456\u0434\u043d\u0438\u043a \u00ab\u0425\u043e\u043c\u0443\u0442\u043e\u0432\u0441\u044c\u043a\u0438\u0439 \u0441\u0442\u0435\u043f\u00bb"},"coordinates":[604,1071]},{"type":"Point","properties":{"source":"openstreetmap.org","kind":"military","name":"\u041a\u0443\u0437\u044c\u043c\u0438\u043d\u0441\u043a\u0438\u0439 \u043f\u043e\u043b\u0438\u0433\u043e\u043d","area":162496000,"tier":3,"min_zoom":8.0,"id":325697658},"coordinates":[3857,1547]}]},"boundaries":{"type":"GeometryCollection","geometries":[{"type":"LineString","properties":{"name:kg":"Ukrayina","name:ka":"\u10e3\u10d9\u10e0\u10d0\u10d8\u10dc\u10d0","name:ko":"\uc6b0\ud06c\ub77c\uc774\ub098","name:cv":"\u0423\u043a\u0440\u0430\u0438\u043d\u0430","name:cu":"\u041e\u0443\u043a\u0440\u0430\u0438\u043d\u0430","name:kl":"Ukraine","name:cs":"Ukrajina","name:tw":"Ukraine","name:tt":"\u0423\u043a\u0440\u0430\u0438\u043d\u0430","name:kw":"Ukrayn","name:kv":"\u0423\u043a\u0440\u0430\u0438\u043d\u0430","name:th":"\u0e1b\u0e23\u0e30\u0e40\u0e17\u0e28\u0e22\u0e39\u0e40\u0e04\u0e23\u0e19","name:tl":"Ukranya","name:ce":"\u0423\u043a\u0440\u0430\u0438\u043d\u0430","name:ta":"\u0b89\u0b95\u0bcd\u0bb0\u0bc8\u0ba9\u0bcd","name:tg":"\u0423\u043a\u0440\u0430\u0439\u0438\u043d\u0430","name:ca":"Ucra\u00efna","name:te":"\u0c09\u0c15\u0c4d\u0c30\u0c46\u0c2f\u0c3f\u0c28\u0c4d","name:cy":"Wcr\u00e1in","name:hr":"Ukrajina","name:da":"Ukraine","name:de":"Ukraine","source":"openstreetmap.org","name:kn":"\u0caf\u0cc1\u0c95\u0ccd\u0cb0\u0cc7\u0ca8\u0ccd","name:dv":"\u0794\u07aa\u0786\u07b0\u0783\u07ac\u0787\u07a8\u0782\u07b0","name:km":"\u17a2\u17ca\u17bb\u1799\u1780\u17d2\u179a\u17c2\u1793","name:lv":"Ukraina","name:lt":"Ukraina","name:uz":"Ukraina","name:kk":"\u0423\u043a\u0440\u0430\u0438\u043d\u0430","name:ur":"\u06cc\u0648\u06a9\u0631\u06cc\u0646","name:lb":"Ukrain","name:la":"Ucraina","name:ug":"\u0626\u06c7\u0643\u0631\u0627\u0626\u0649\u0646\u0627","name:li":"Oekra\u00efne","name:ln":"Ukraine","name:el":"\u039f\u03c5\u03ba\u03c1\u03b1\u03bd\u03af\u03b1","name:eo":"Ukrainujo","name:en":"Ukraine","name":"\u0423\u043a\u0440\u0430\u0457\u043d\u0430","name:tk":"Ukraina","name:ee":"Ukraine","name:ku":"\u00dbkrayna","name:eu":"Ukraina","name:et":"Ukraina","name:es":"Ucrania","name:ia":"Ukraina","name:rm":"Ucraina","name:az":"Ukrayna","name:ie":"Ucraina","name:id":"Ukraina","name:ig":"Yukrain","name:ar":"\u0623\u0648\u0643\u0631\u0627\u0646\u064a\u0627","name:io":"Ukrainia","name:is":"\u00dakra\u00edna","name:am":"\u12e9\u12ad\u122c\u1295","name:it":"Ucraina","name:an":"Ucra\u00edna","name:ru":"\u0423\u043a\u0440\u0430\u0438\u043d\u0430","name:ab":"\u0423\u043a\u0440\u0430\u0438\u043d\u0430","name:af":"Oekra\u00efne","kind_detail":"2","name:ky":"\u0423\u043a\u0440\u0430\u0438\u043d\u0430","name:zh-yue":"\u70cf\u514b\u862d","name:zh":"\u4e4c\u514b\u5170","name:so":"Ukrain","name:sn":"Ukraine","name:sm":"Ukraine","name:sl":"Ukrajina","name:sk":"Ukrajina","name:ja":"\u30a6\u30af\u30e9\u30a4\u30ca","name:sh":"Ukrajina","name:se":"Ukraina","name:sc":"Ucraina","name:br":"Ukraina","name:bs":"Ukrajina","name:bn":"\u0987\u0989\u0995\u09cd\u09b0\u09c7\u09a8","name:bo":"\u0f68\u0f74\u0f40\u0f0b\u0f62\u0f61\u0f72\u0f0b\u0f53\u0f72\u0f0d","name:bi":"Ukraine","name:sw":"Ukraine","name:be":"\u0423\u043a\u0440\u0430\u0456\u043d\u0430","name:su":"Ukraina","name:bg":"\u0423\u043a\u0440\u0430\u0439\u043d\u0430","name:ss":"IYukhureni","name:ba":"\u0423\u043a\u0440\u0430\u0438\u043d\u0430","name:sq":"Ukraina","name:jv":"Ukraina","name:pt":"Ucr\u00e2nia","name:ps":"\u0627\u0648\u06a9\u0631\u0627\u06cc\u0646","name:oc":"Ucra\u00efna","min_zoom":8.0,"name:ro":"Ucraina","name:zh-min-nan":"Ukrayina","name:os":"\u0423\u043a\u0440\u0430\u0438\u043d\u00e6","name:or":"\u0b5f\u0b41\u0b15\u0b4d\u0b30\u0b47\u0b28","name:pl":"Ukraina","sort_rank":262,"name:sr":"\u0423\u043a\u0440\u0430\u0458\u0438\u043d\u0430","osm_relation":true,"name:pa":"\u0a2f\u0a42\u0a15\u0a4d\u0a30\u0a47\u0a28","name:tr":"Ukrayna","name:hi":"\u092f\u0941\u0915\u094d\u0930\u0947\u0928","name:sv":"Ukraina","name:he":"\u05d0\u05d5\u05e7\u05e8\u05d0\u05d9\u05e0\u05d4","name:hy":"\u0548\u0582\u056f\u0580\u0561\u056b\u0576\u0561","name:ht":"Ikr\u00e8n","name:hu":"Ukrajna","name:qu":"Ukranya","kind":"country","name:ts":"Ukraine","name:yi":"\u05d0\u05d5\u05e7\u05e8\u05d0\u05d9\u05e0\u05e2","name:yo":"Ukr\u00e9\u00ecn","name:mt":"Ukrajna","alt_name:eo":"Ukrainio","name:ms":"Ukraine","name:mr":"\u092f\u0941\u0915\u094d\u0930\u0947\u0928","name:my":"\u101a\u1030\u1000\u101b\u102d\u1014\u103a\u1038\u1014\u102d\u102f\u1004\u103a\u1004\u1036","int_name":"Ukraine","name:mg":"Okraina","name:ml":"\u0d09\u0d15\u0d4d\u0d30\u0d48\u0d7b","name:vi":"Ukraina","name:mn":"\u0423\u043a\u0440\u0430\u0439\u043d","name:mi":"\u016akareinga","id":-60199,"name:mk":"\u0423\u043a\u0440\u0430\u0438\u043d\u0430","name:vo":"Lukray\u00e4n","name:fa":"\u0627\u0648\u06a9\u0631\u0627\u06cc\u0646","name:rw":"Ikerene","name:fi":"Ukraina","old_name:vi":"\u00d4 Kh\u1eafc Lan","name:fo":"Ukraina","alt_name:vi":"Uy Ki\u00ean","name:fr":"Ukraine","name:fy":"Oekra\u00efne","name:nl":"Oekra\u00efne","name:nn":"Ukraina","name:no":"Ukraina","name:na":"Ukraine","name:ne":"\u092f\u0941\u0915\u094d\u0930\u0947\u0928","name:wa":"Oucrinne","name:wo":"Ukreen","name:nv":"Y\u00f3\u00f3kwein","name:ga":"An \u00dacr\u00e1in","name:gd":"An Ucr\u00e0in","name:gn":"Ukya\u00f1a","name:gl":"Ucra\u00edna","name:gv":"Yn Ookraan","name:gu":"\u0aaf\u0ac1\u0a95\u0acd\u0ab0\u0ac7\u0aa8"},"arcs":[0]},{"type":"LineString","properties":{"name:kg":"Ukrayina","name:ka":"\u10e3\u10d9\u10e0\u10d0\u10d8\u10dc\u10d0","name:ko":"\uc6b0\ud06c\ub77c\uc774\ub098","name:cv":"\u0423\u043a\u0440\u0430\u0438\u043d\u0430","name:cu":"\u041e\u0443\u043a\u0440\u0430\u0438\u043d\u0430","name:kl":"Ukraine","name:cs":"Ukrajina","name:tw":"Ukraine","name:tt":"\u0423\u043a\u0440\u0430\u0438\u043d\u0430","name:kw":"Ukrayn","name:kv":"\u0423\u043a\u0440\u0430\u0438\u043d\u0430","name:th":"\u0e1b\u0e23\u0e30\u0e40\u0e17\u0e28\u0e22\u0e39\u0e40\u0e04\u0e23\u0e19","name:tl":"Ukranya","name:ce":"\u0423\u043a\u0440\u0430\u0438\u043d\u0430","name:ta":"\u0b89\u0b95\u0bcd\u0bb0\u0bc8\u0ba9\u0bcd","name:tg":"\u0423\u043a\u0440\u0430\u0439\u0438\u043d\u0430","name:ca":"Ucra\u00efna","name:te":"\u0c09\u0c15\u0c4d\u0c30\u0c46\u0c2f\u0c3f\u0c28\u0c4d","name:cy":"Wcr\u00e1in","name:hr":"Ukrajina","name:da":"Ukraine","name:de":"Ukraine","source":"openstreetmap.org","name:kn":"\u0caf\u0cc1\u0c95\u0ccd\u0cb0\u0cc7\u0ca8\u0ccd","name:dv":"\u0794\u07aa\u0786\u07b0\u0783\u07ac\u0787\u07a8\u0782\u07b0","name:km":"\u17a2\u17ca\u17bb\u1799\u1780\u17d2\u179a\u17c2\u1793","name:lv":"Ukraina","name:lt":"Ukraina","name:uz":"Ukraina","name:kk":"\u0423\u043a\u0440\u0430\u0438\u043d\u0430","name:ur":"\u06cc\u0648\u06a9\u0631\u06cc\u0646","name:lb":"Ukrain","name:la":"Ucraina","name:ug":"\u0626\u06c7\u0643\u0631\u0627\u0626\u0649\u0646\u0627","name:li":"Oekra\u00efne","name:ln":"Ukraine","name:el":"\u039f\u03c5\u03ba\u03c1\u03b1\u03bd\u03af\u03b1","name:eo":"Ukrainujo","name:en":"Ukraine","name":"\u0423\u043a\u0440\u0430\u0457\u043d\u0430","name:tk":"Ukraina","name:ee":"Ukraine","name:ku":"\u00dbkrayna","name:eu":"Ukraina","name:et":"Ukraina","name:es":"Ucrania","name:ia":"Ukraina","name:rm":"Ucraina","name:az":"Ukrayna","name:ie":"Ucraina","name:id":"Ukraina","name:ig":"Yukrain","name:ar":"\u0623\u0648\u0643\u0631\u0627\u0646\u064a\u0627","name:io":"Ukrainia","name:is":"\u00dakra\u00edna","name:am":"\u12e9\u12ad\u122c\u1295","name:it":"Ucraina","name:an":"Ucra\u00edna","name:ru":"\u0423\u043a\u0440\u0430\u0438\u043d\u0430","name:ab":"\u0423\u043a\u0440\u0430\u0438\u043d\u0430","name:af":"Oekra\u00efne","kind_detail":"2","name:ky":"\u0423\u043a\u0440\u0430\u0438\u043d\u0430","name:zh-yue":"\u70cf\u514b\u862d","name:zh":"\u4e4c\u514b\u5170","name:so":"Ukrain","name:sn":"Ukraine","name:sm":"Ukraine","name:sl":"Ukrajina","name:sk":"Ukrajina","name:ja":"\u30a6\u30af\u30e9\u30a4\u30ca","name:sh":"Ukrajina","name:se":"Ukraina","name:sc":"Ucraina","name:br":"Ukraina","name:bs":"Ukrajina","name:bn":"\u0987\u0989\u0995\u09cd\u09b0\u09c7\u09a8","name:bo":"\u0f68\u0f74\u0f40\u0f0b\u0f62\u0f61\u0f72\u0f0b\u0f53\u0f72\u0f0d","name:bi":"Ukraine","name:sw":"Ukraine","name:be":"\u0423\u043a\u0440\u0430\u0456\u043d\u0430","name:su":"Ukraina","name:bg":"\u0423\u043a\u0440\u0430\u0439\u043d\u0430","name:ss":"IYukhureni","name:ba":"\u0423\u043a\u0440\u0430\u0438\u043d\u0430","name:sq":"Ukraina","name:jv":"Ukraina","name:pt":"Ucr\u00e2nia","name:ps":"\u0627\u0648\u06a9\u0631\u0627\u06cc\u0646","name:oc":"Ucra\u00efna","min_zoom":8.0,"name:ro":"Ucraina","name:zh-min-nan":"Ukrayina","name:os":"\u0423\u043a\u0440\u0430\u0438\u043d\u00e6","name:or":"\u0b5f\u0b41\u0b15\u0b4d\u0b30\u0b47\u0b28","name:pl":"Ukraina","sort_rank":262,"name:sr":"\u0423\u043a\u0440\u0430\u0458\u0438\u043d\u0430","osm_relation":true,"name:pa":"\u0a2f\u0a42\u0a15\u0a4d\u0a30\u0a47\u0a28","name:tr":"Ukrayna","name:hi":"\u092f\u0941\u0915\u094d\u0930\u0947\u0928","name:sv":"Ukraina","name:he":"\u05d0\u05d5\u05e7\u05e8\u05d0\u05d9\u05e0\u05d4","name:hy":"\u0548\u0582\u056f\u0580\u0561\u056b\u0576\u0561","name:ht":"Ikr\u00e8n","name:hu":"Ukrajna","name:qu":"Ukranya","kind":"country","name:ts":"Ukraine","name:yi":"\u05d0\u05d5\u05e7\u05e8\u05d0\u05d9\u05e0\u05e2","name:yo":"Ukr\u00e9\u00ecn","name:mt":"Ukrajna","alt_name:eo":"Ukrainio","name:ms":"Ukraine","name:mr":"\u092f\u0941\u0915\u094d\u0930\u0947\u0928","name:my":"\u101a\u1030\u1000\u101b\u102d\u1014\u103a\u1038\u1014\u102d\u102f\u1004\u103a\u1004\u1036","int_name":"Ukraine","name:mg":"Okraina","name:ml":"\u0d09\u0d15\u0d4d\u0d30\u0d48\u0d7b","name:vi":"Ukraina","name:mn":"\u0423\u043a\u0440\u0430\u0439\u043d","name:mi":"\u016akareinga","id":-60199,"name:mk":"\u0423\u043a\u0440\u0430\u0438\u043d\u0430","name:vo":"Lukray\u00e4n","name:fa":"\u0627\u0648\u06a9\u0631\u0627\u06cc\u0646","name:rw":"Ikerene","name:fi":"Ukraina","old_name:vi":"\u00d4 Kh\u1eafc Lan","name:fo":"Ukraina","alt_name:vi":"Uy Ki\u00ean","name:fr":"Ukraine","name:fy":"Oekra\u00efne","name:nl":"Oekra\u00efne","name:nn":"Ukraina","name:no":"Ukraina","name:na":"Ukraine","name:ne":"\u092f\u0941\u0915\u094d\u0930\u0947\u0928","name:wa":"Oucrinne","name:wo":"Ukreen","name:nv":"Y\u00f3\u00f3kwein","name:ga":"An \u00dacr\u00e1in","name:gd":"An Ucr\u00e0in","name:gn":"Ukya\u00f1a","name:gl":"Ucra\u00edna","name:gv":"Yn Ookraan","name:gu":"\u0aaf\u0ac1\u0a95\u0acd\u0ab0\u0ac7\u0aa8"},"arcs":[1]},{"type":"LineString","properties":{"name:kg":"Ukrayina","name:ka":"\u10e3\u10d9\u10e0\u10d0\u10d8\u10dc\u10d0","name:ko":"\uc6b0\ud06c\ub77c\uc774\ub098","name:cv":"\u0423\u043a\u0440\u0430\u0438\u043d\u0430","name:cu":"\u041e\u0443\u043a\u0440\u0430\u0438\u043d\u0430","name:kl":"Ukraine","name:cs":"Ukrajina","name:tw":"Ukraine","name:tt":"\u0423\u043a\u0440\u0430\u0438\u043d\u0430","name:kw":"Ukrayn","name:kv":"\u0423\u043a\u0440\u0430\u0438\u043d\u0430","name:th":"\u0e1b\u0e23\u0e30\u0e40\u0e17\u0e28\u0e22\u0e39\u0e40\u0e04\u0e23\u0e19","name:tl":"Ukranya","name:ce":"\u0423\u043a\u0440\u0430\u0438\u043d\u0430","name:ta":"\u0b89\u0b95\u0bcd\u0bb0\u0bc8\u0ba9\u0bcd","name:tg":"\u0423\u043a\u0440\u0430\u0439\u0438\u043d\u0430","name:ca":"Ucra\u00efna","name:te":"\u0c09\u0c15\u0c4d\u0c30\u0c46\u0c2f\u0c3f\u0c28\u0c4d","name:cy":"Wcr\u00e1in","name:qu":"Ukranya","name:da":"Ukraine","name:de":"Ukraine","source":"openstreetmap.org","name:kn":"\u0caf\u0cc1\u0c95\u0ccd\u0cb0\u0cc7\u0ca8\u0ccd","name:dv":"\u0794\u07aa\u0786\u07b0\u0783\u07ac\u0787\u07a8\u0782\u07b0","name:km":"\u17a2\u17ca\u17bb\u1799\u1780\u17d2\u179a\u17c2\u1793","name:lv":"Ukraina","name:lt":"Ukraina","name:uz":"Ukraina","name:kk":"\u0423\u043a\u0440\u0430\u0438\u043d\u0430","name:ur":"\u06cc\u0648\u06a9\u0631\u06cc\u0646","name:lb":"Ukrain","name:la":"Ucraina","name:ug":"\u0626\u06c7\u0643\u0631\u0627\u0626\u0649\u0646\u0627","name:li":"Oekra\u00efne","name:ln":"Ukraine","name:el":"\u039f\u03c5\u03ba\u03c1\u03b1\u03bd\u03af\u03b1","name:eo":"Ukrainujo","name:en":"Ukraine","name":"\u0423\u043a\u0440\u0430\u0457\u043d\u0430","name:tk":"Ukraina","name:ee":"Ukraine","name:ku":"\u00dbkrayna","name:eu":"Ukraina","name:et":"Ukraina","name:es":"Ucrania","name:ia":"Ukraina","name:rm":"Ucraina","name:az":"Ukrayna","name:ie":"Ucraina","name:id":"Ukraina","name:ig":"Yukrain","name:ar":"\u0623\u0648\u0643\u0631\u0627\u0646\u064a\u0627","name:io":"Ukrainia","name:is":"\u00dakra\u00edna","name:am":"\u12e9\u12ad\u122c\u1295","name:it":"Ucraina","name:an":"Ucra\u00edna","name:ru":"\u0423\u043a\u0440\u0430\u0438\u043d\u0430","name:ab":"\u0423\u043a\u0440\u0430\u0438\u043d\u0430","name:af":"Oekra\u00efne","kind_detail":"2","name:ky":"\u0423\u043a\u0440\u0430\u0438\u043d\u0430","name:zh-yue":"\u70cf\u514b\u862d","name:zh":"\u4e4c\u514b\u5170","name:so":"Ukrain","name:sn":"Ukraine","name:sm":"Ukraine","name:sl":"Ukrajina","name:sk":"Ukrajina","name:ja":"\u30a6\u30af\u30e9\u30a4\u30ca","name:sh":"Ukrajina","name:se":"Ukraina","name:sc":"Ucraina","name:br":"Ukraina","name:bs":"Ukrajina","name:bn":"\u0987\u0989\u0995\u09cd\u09b0\u09c7\u09a8","name:bo":"\u0f68\u0f74\u0f40\u0f0b\u0f62\u0f61\u0f72\u0f0b\u0f53\u0f72\u0f0d","name:bi":"Ukraine","name:sw":"Ukraine","name:be":"\u0423\u043a\u0440\u0430\u0456\u043d\u0430","name:su":"Ukraina","name:bg":"\u0423\u043a\u0440\u0430\u0439\u043d\u0430","name:ss":"IYukhureni","name:ba":"\u0423\u043a\u0440\u0430\u0438\u043d\u0430","name:sq":"Ukraina","name:jv":"Ukraina","name:pt":"Ucr\u00e2nia","name:ps":"\u0627\u0648\u06a9\u0631\u0627\u06cc\u0646","name:oc":"Ucra\u00efna","min_zoom":8.0,"name:ro":"Ucraina","name:zh-min-nan":"Ukrayina","name:os":"\u0423\u043a\u0440\u0430\u0438\u043d\u00e6","name:or":"\u0b5f\u0b41\u0b15\u0b4d\u0b30\u0b47\u0b28","name:pl":"Ukraina","sort_rank":262,"name:sr":"\u0423\u043a\u0440\u0430\u0458\u0438\u043d\u0430","osm_relation":true,"name:pa":"\u0a2f\u0a42\u0a15\u0a4d\u0a30\u0a47\u0a28","name:tr":"Ukrayna","name:hi":"\u092f\u0941\u0915\u094d\u0930\u0947\u0928","name:sv":"Ukraina","name:he":"\u05d0\u05d5\u05e7\u05e8\u05d0\u05d9\u05e0\u05d4","name:hy":"\u0548\u0582\u056f\u0580\u0561\u056b\u0576\u0561","name:ht":"Ikr\u00e8n","name:hu":"Ukrajna","name:hr":"Ukrajina","kind":"country","name:ts":"Ukraine","name:yi":"\u05d0\u05d5\u05e7\u05e8\u05d0\u05d9\u05e0\u05e2","name:yo":"Ukr\u00e9\u00ecn","name:mt":"Ukrajna","alt_name:eo":"Ukrainio","name:ms":"Ukraine","name:mr":"\u092f\u0941\u0915\u094d\u0930\u0947\u0928","name:my":"\u101a\u1030\u1000\u101b\u102d\u1014\u103a\u1038\u1014\u102d\u102f\u1004\u103a\u1004\u1036","int_name":"Ukraine","name:mg":"Okraina","name:vi":"Ukraina","name:ml":"\u0d09\u0d15\u0d4d\u0d30\u0d48\u0d7b","name:mn":"\u0423\u043a\u0440\u0430\u0439\u043d","name:mi":"\u016akareinga","id":-60199,"name:mk":"\u0423\u043a\u0440\u0430\u0438\u043d\u0430","name:vo":"Lukray\u00e4n","name:fa":"\u0627\u0648\u06a9\u0631\u0627\u06cc\u0646","name:rw":"Ikerene","name:fi":"Ukraina","old_name:vi":"\u00d4 Kh\u1eafc Lan","name:fo":"Ukraina","alt_name:vi":"Uy Ki\u00ean","name:fr":"Ukraine","name:fy":"Oekra\u00efne","name:nl":"Oekra\u00efne","name:nn":"Ukraina","name:no":"Ukraina","name:na":"Ukraine","name:ne":"\u092f\u0941\u0915\u094d\u0930\u0947\u0928","name:wa":"Oucrinne","name:wo":"Ukreen","name:nv":"Y\u00f3\u00f3kwein","name:ga":"An \u00dacr\u00e1in","name:gd":"An Ucr\u00e0in","name:gn":"Ukya\u00f1a","name:gl":"Ucra\u00edna","maritime_boundary":true,"name:gv":"Yn Ookraan","name:gu":"\u0aaf\u0ac1\u0a95\u0acd\u0ab0\u0ac7\u0aa8"},"arcs":[2]},{"type":"LineString","properties":{"name:right:hy":"\u0534\u0578\u0576\u0565\u0581\u056f\u056b \u0574\u0561\u0580\u0566","name:left:uz":"Rostov viloyati","int_name:left":"Rostov Oblast","name:right:hr":"Done\u010dka oblast","name:left:sv":"Rostov oblast","name:right:hu":"Donecki ter\u00fclet","name:left:sr":"\u0420\u043e\u0441\u0442\u043e\u0432\u0441\u043a\u0430 \u043e\u0431\u043b\u0430\u0441\u0442","name:right:lt":"Donecko sritis","name:left:sl":"Rostovska oblast","min_zoom":8.0,"name:left:lt":"Rostovo sritis","name:left:sh":"Rostovska oblast","name:left:lv":"Rostovas apgabals","name:left:hr":"Rostovska oblast","name:right:os":"\u0414\u043e\u043d\u0435\u0446\u0447\u044b \u043e\u0431\u043b\u00e6\u0441\u0442","short_name:left":"\u0420\u041e\u0421","name:left:ce":"\u0420\u043e\u0441\u0442\u043e\u0432\u0430\u043d \u043e\u0431\u043b\u0430\u0441\u0442\u044c","name:right:vi":"Donetsk (t\u1ec9nh)","name:left:ca":"Prov\u00edncia de Rostov","source":"openstreetmap.org","name:right:ar":"\u062f\u0648\u0646\u064a\u062a\u0633\u0643 \u0623\u0648\u0628\u0644\u0627\u0633\u062a","name:right:az":"Donetsk Oblast\u0131","name:left:cs":"Rostovsk\u00e1 oblast","name:left":"\u0420\u043e\u0441\u0442\u043e\u0432\u0441\u043a\u0430\u044f \u043e\u0431\u043b\u0430\u0441\u0442\u044c","name:right:mk":"\u0414\u043e\u043d\u0435\u0447\u043a\u0430 \u043e\u0431\u043b\u0430\u0441\u0442","name:right:sr":"\u0414\u043e\u045a\u0435\u0447\u043a\u0430 \u043e\u0431\u043b\u0430\u0441\u0442","name:left:ka":"\u10e0\u10dd\u10e1\u10e2\u10dd\u10d5\u10d8\u10e1 \u10dd\u10da\u10e5\u10d8","name:right:eu":"Donetskeko oblasta","name:right:et":"Donetski oblast","name:left:os":"\u0420\u043e\u0441\u0442\u043e\u0432\u044b \u043e\u0431\u043b\u00e6\u0441\u0442","name:right:it":"Oblast' di Donec'k","name:left:ro":"Regiunea Rostov","name:right:ru":"\u0414\u043e\u043d\u0435\u0446\u043a\u0430\u044f \u043e\u0431\u043b\u0430\u0441\u0442\u044c","name:right:es":"\u00d3blast de Donetsk","name:right:ro":"Regiunea Done\u021bk","name:right:mr":"\u0926\u094b\u0928\u0947\u0924\u094d\u0938\u094d\u0915 \u0913\u092c\u094d\u0932\u093e\u0938\u094d\u0924","name:right:id":"Oblast Donetsk","name:right:eo":"Donecka provinco","name:right:en":"Donetsk Oblast","name:left:vi":"Rostov (t\u1ec9nh)","kind":"region","name":"\u0420\u043e\u0441\u0442\u043e\u0432\u0441\u043a\u0430\u044f \u043e\u0431\u043b\u0430\u0441\u0442\u044c - \u0414\u043e\u043d\u0435\u0446\u044c\u043a\u0430 \u043e\u0431\u043b\u0430\u0441\u0442\u044c","name:left:fa":"\u0627\u0633\u062a\u0627\u0646 \u0631\u0648\u0633\u062a\u0648\u0641","name:right:fa":"\u0627\u0633\u062a\u0627\u0646 \u062f\u0648\u0646\u062a\u0633\u06a9","name:right:lv":"Do\u0146eckas apgabals","name:right:be":"\u0414\u0430\u043d\u0435\u0446\u043a\u0430\u044f \u0432\u043e\u0431\u043b\u0430\u0441\u0446\u044c","name:left:zh":"\u7f57\u65af\u6258\u592b\u5dde","name:right:zh":"\u987f\u6d85\u8328\u514b\u5dde","name:left:hy":"\u054c\u0578\u057d\u057f\u0578\u057e\u056b \u0574\u0561\u0580\u0566","name:right:nn":"Donetsk oblast","name:right:no":"Donetsk oblast","name:right:nl":"Oblast Donetsk","name:right:ja":"\u30c9\u30cd\u30c4\u30a3\u30af\u5dde","name:right:fr":"Oblast de Donetsk","name:left:ja":"\u30ed\u30b9\u30c8\u30d5\u5dde","id:right":-71973,"name:left:uk":"\u0420\u043e\u0441\u0442\u043e\u0432\u0441\u044c\u043a\u0430 \u043e\u0431\u043b\u0430\u0441\u0442\u044c","name:right:sh":"Done\u010dka oblast","name:right:sk":"Doneck\u00e1 oblas\u0165","name:left:ba":"\u0420\u043e\u0441\u0442\u043e\u0432 \u04e9\u043b\u043a\u04d9\u04bb\u0435","name:left:bg":"\u0420\u043e\u0441\u0442\u043e\u0432\u0441\u043a\u0430 \u043e\u0431\u043b\u0430\u0441\u0442","name:left:be":"\u0420\u0430\u0441\u0442\u043e\u045e\u0441\u043a\u0430\u044f \u0432\u043e\u0431\u043b\u0430\u0441\u0446\u044c","name:left:no":"Rostov oblast","name:left:fi":"Rostovin alue","id":-85606,"name:right:fi":"Donetskin alue","name:left:en":"Rostov Oblast","name:left:el":"\u03a0\u03b5\u03c1\u03b9\u03c6\u03ad\u03c1\u03b5\u03b9\u03b1 \u03a1\u03bf\u03c3\u03c4\u03cc\u03c6","name:right:ca":"Prov\u00edncia de Donetsk","kind_detail":"4","name:left:pl":"Obw\u00f3d rostowski","name:left:nl":"Oblast Rostov","id:left":-85606,"name:left:es":"\u00d3blast de Rostov","name:right:cs":"Don\u011bck\u00e1 oblast","name:right":"\u0414\u043e\u043d\u0435\u0446\u044c\u043a\u0430 \u043e\u0431\u043b\u0430\u0441\u0442\u044c","name:left:eu":"Rostov oblasta","name:left:et":"Rostovi oblast","name:right:ka":"\u10d3\u10dd\u10dc\u10d4\u10ea\u10d9\u10d8\u10e1 \u10dd\u10da\u10e5\u10d8","name:right:zh-min-nan":"Doneczk s\u00e9ng","name:right:pt":"Oblast de Donetsk","name:left:ar":"\u0631\u0648\u0633\u062a\u0648\u0641 \u0623\u0648\u0628\u0644\u0627\u0633\u062a","name:right:tt":"\u0414\u043e\u043d\u0435\u0446\u043a \u04e9\u043b\u043a\u04d9\u0441\u0435","name:left:tt":"\u0420\u043e\u0441\u0442\u043e\u0432 \u04e9\u043b\u043a\u04d9\u0441\u0435","name:left:az":"Rostov vilay\u0259ti","name:right:tr":"Donetsk Oblast\u0131","name:right:bg":"\u0414\u043e\u043d\u0435\u0446\u043a\u0430 \u043e\u0431\u043b\u0430\u0441\u0442","name:left:pt":"Oblast de Rostov","name:left:af":"Rostof-oblast","name:right:sv":"Donetsk oblast","name:right:ko":"\ub3c4\ub124\uce20\ud06c \uc8fc","name:left:it":"Oblast' di Rostov","name:right:pl":"Obw\u00f3d doniecki","osm_relation":true,"name:right:de":"Oblast Donezk","name:left:de":"Oblast Rostow","sort_rank":256},"arcs":[3]},{"type":"LineString","properties":{"name:right:hy":"\u0534\u0578\u0576\u0565\u0581\u056f\u056b \u0574\u0561\u0580\u0566","name:left:uz":"Rostov viloyati","int_name:left":"Rostov Oblast","name:right:hr":"Done\u010dka oblast","name:left:sv":"Rostov oblast","name:right:hu":"Donecki ter\u00fclet","name:left:sr":"\u0420\u043e\u0441\u0442\u043e\u0432\u0441\u043a\u0430 \u043e\u0431\u043b\u0430\u0441\u0442","name:right:lt":"Donecko sritis","name:left:sl":"Rostovska oblast","min_zoom":8.0,"name:left:lt":"Rostovo sritis","name:left:sh":"Rostovska oblast","name:left:lv":"Rostovas apgabals","name:left:hr":"Rostovska oblast","name:right:os":"\u0414\u043e\u043d\u0435\u0446\u0447\u044b \u043e\u0431\u043b\u00e6\u0441\u0442","short_name:left":"\u0420\u041e\u0421","name:left:ce":"\u0420\u043e\u0441\u0442\u043e\u0432\u0430\u043d \u043e\u0431\u043b\u0430\u0441\u0442\u044c","name:right:vi":"Donetsk (t\u1ec9nh)","name:left:ca":"Prov\u00edncia de Rostov","source":"openstreetmap.org","name:right:ar":"\u062f\u0648\u0646\u064a\u062a\u0633\u0643 \u0623\u0648\u0628\u0644\u0627\u0633\u062a","name:right:az":"Donetsk Oblast\u0131","name:left:cs":"Rostovsk\u00e1 oblast","name:left":"\u0420\u043e\u0441\u0442\u043e\u0432\u0441\u043a\u0430\u044f \u043e\u0431\u043b\u0430\u0441\u0442\u044c","name:right:mk":"\u0414\u043e\u043d\u0435\u0447\u043a\u0430 \u043e\u0431\u043b\u0430\u0441\u0442","name:right:sr":"\u0414\u043e\u045a\u0435\u0447\u043a\u0430 \u043e\u0431\u043b\u0430\u0441\u0442","name:left:ka":"\u10e0\u10dd\u10e1\u10e2\u10dd\u10d5\u10d8\u10e1 \u10dd\u10da\u10e5\u10d8","name:right:eu":"Donetskeko oblasta","name:right:et":"Donetski oblast","name:left:os":"\u0420\u043e\u0441\u0442\u043e\u0432\u044b \u043e\u0431\u043b\u00e6\u0441\u0442","name:right:it":"Oblast' di Donec'k","name:left:ro":"Regiunea Rostov","name:right:ru":"\u0414\u043e\u043d\u0435\u0446\u043a\u0430\u044f \u043e\u0431\u043b\u0430\u0441\u0442\u044c","name:right:es":"\u00d3blast de Donetsk","name:right:ro":"Regiunea Done\u021bk","name:right:mr":"\u0926\u094b\u0928\u0947\u0924\u094d\u0938\u094d\u0915 \u0913\u092c\u094d\u0932\u093e\u0938\u094d\u0924","name:right:id":"Oblast Donetsk","name:right:eo":"Donecka provinco","name:right:en":"Donetsk Oblast","name:left:vi":"Rostov (t\u1ec9nh)","kind":"region","name":"\u0420\u043e\u0441\u0442\u043e\u0432\u0441\u043a\u0430\u044f \u043e\u0431\u043b\u0430\u0441\u0442\u044c - \u0414\u043e\u043d\u0435\u0446\u044c\u043a\u0430 \u043e\u0431\u043b\u0430\u0441\u0442\u044c","name:left:fa":"\u0627\u0633\u062a\u0627\u0646 \u0631\u0648\u0633\u062a\u0648\u0641","name:right:fa":"\u0627\u0633\u062a\u0627\u0646 \u062f\u0648\u0646\u062a\u0633\u06a9","name:right:lv":"Do\u0146eckas apgabals","name:right:be":"\u0414\u0430\u043d\u0435\u0446\u043a\u0430\u044f \u0432\u043e\u0431\u043b\u0430\u0441\u0446\u044c","name:left:zh":"\u7f57\u65af\u6258\u592b\u5dde","name:right:zh":"\u987f\u6d85\u8328\u514b\u5dde","name:left:hy":"\u054c\u0578\u057d\u057f\u0578\u057e\u056b \u0574\u0561\u0580\u0566","name:right:nn":"Donetsk oblast","name:right:no":"Donetsk oblast","name:right:nl":"Oblast Donetsk","name:right:ja":"\u30c9\u30cd\u30c4\u30a3\u30af\u5dde","name:right:fr":"Oblast de Donetsk","name:left:ja":"\u30ed\u30b9\u30c8\u30d5\u5dde","id:right":-71973,"name:left:uk":"\u0420\u043e\u0441\u0442\u043e\u0432\u0441\u044c\u043a\u0430 \u043e\u0431\u043b\u0430\u0441\u0442\u044c","name:right:sh":"Done\u010dka oblast","name:right:sk":"Doneck\u00e1 oblas\u0165","name:left:ba":"\u0420\u043e\u0441\u0442\u043e\u0432 \u04e9\u043b\u043a\u04d9\u04bb\u0435","name:left:bg":"\u0420\u043e\u0441\u0442\u043e\u0432\u0441\u043a\u0430 \u043e\u0431\u043b\u0430\u0441\u0442","name:left:be":"\u0420\u0430\u0441\u0442\u043e\u045e\u0441\u043a\u0430\u044f \u0432\u043e\u0431\u043b\u0430\u0441\u0446\u044c","name:left:no":"Rostov oblast","name:left:fi":"Rostovin alue","id":-85606,"name:right:fi":"Donetskin alue","name:left:en":"Rostov Oblast","name:left:el":"\u03a0\u03b5\u03c1\u03b9\u03c6\u03ad\u03c1\u03b5\u03b9\u03b1 \u03a1\u03bf\u03c3\u03c4\u03cc\u03c6","name:right:ca":"Prov\u00edncia de Donetsk","kind_detail":"4","name:left:pl":"Obw\u00f3d rostowski","name:left:nl":"Oblast Rostov","id:left":-85606,"name:left:es":"\u00d3blast de Rostov","name:right:cs":"Don\u011bck\u00e1 oblast","name:right":"\u0414\u043e\u043d\u0435\u0446\u044c\u043a\u0430 \u043e\u0431\u043b\u0430\u0441\u0442\u044c","name:left:eu":"Rostov oblasta","name:left:et":"Rostovi oblast","name:right:ka":"\u10d3\u10dd\u10dc\u10d4\u10ea\u10d9\u10d8\u10e1 \u10dd\u10da\u10e5\u10d8","name:right:zh-min-nan":"Doneczk s\u00e9ng","name:right:pt":"Oblast de Donetsk","name:left:ar":"\u0631\u0648\u0633\u062a\u0648\u0641 \u0623\u0648\u0628\u0644\u0627\u0633\u062a","name:right:tt":"\u0414\u043e\u043d\u0435\u0446\u043a \u04e9\u043b\u043a\u04d9\u0441\u0435","name:left:tt":"\u0420\u043e\u0441\u0442\u043e\u0432 \u04e9\u043b\u043a\u04d9\u0441\u0435","name:left:az":"Rostov vilay\u0259ti","name:right:tr":"Donetsk Oblast\u0131","name:right:bg":"\u0414\u043e\u043d\u0435\u0446\u043a\u0430 \u043e\u0431\u043b\u0430\u0441\u0442","name:left:pt":"Oblast de Rostov","name:left:af":"Rostof-oblast","name:right:sv":"Donetsk oblast","name:right:ko":"\ub3c4\ub124\uce20\ud06c \uc8fc","name:left:it":"Oblast' di Rostov","name:right:pl":"Obw\u00f3d doniecki","osm_relation":true,"name:right:de":"Oblast Donezk","name:left:de":"Oblast Rostow","sort_rank":256},"arcs":[4]},{"type":"LineString","properties":{"name:right:hy":"\u0534\u0578\u0576\u0565\u0581\u056f\u056b \u0574\u0561\u0580\u0566","name:right:no":"Donetsk oblast","int_name:left":"Rostov Oblast","name:right:hr":"Done\u010dka oblast","name:left:sv":"Rostov oblast","name:right:hu":"Donecki ter\u00fclet","name:left:sr":"\u0420\u043e\u0441\u0442\u043e\u0432\u0441\u043a\u0430 \u043e\u0431\u043b\u0430\u0441\u0442","name:right:lt":"Donecko sritis","name:left:sl":"Rostovska oblast","min_zoom":8.0,"name:left:lt":"Rostovo sritis","name:left:sh":"Rostovska oblast","name:left:lv":"Rostovas apgabals","name:left:hr":"Rostovska oblast","short_name:left":"\u0420\u041e\u0421","name:left:it":"Oblast' di Rostov","name:left:ce":"\u0420\u043e\u0441\u0442\u043e\u0432\u0430\u043d \u043e\u0431\u043b\u0430\u0441\u0442\u044c","name:left:ca":"Prov\u00edncia de Rostov","name:right:sk":"Doneck\u00e1 oblas\u0165","source":"openstreetmap.org","name:right:ar":"\u062f\u0648\u0646\u064a\u062a\u0633\u0643 \u0623\u0648\u0628\u0644\u0627\u0633\u062a","name:right:az":"Donetsk Oblast\u0131","name:left:cs":"Rostovsk\u00e1 oblast","name:left":"\u0420\u043e\u0441\u0442\u043e\u0432\u0441\u043a\u0430\u044f \u043e\u0431\u043b\u0430\u0441\u0442\u044c","name:right:mk":"\u0414\u043e\u043d\u0435\u0447\u043a\u0430 \u043e\u0431\u043b\u0430\u0441\u0442","name:right:sh":"Done\u010dka oblast","name:left:ja":"\u30ed\u30b9\u30c8\u30d5\u5dde","name:left:ka":"\u10e0\u10dd\u10e1\u10e2\u10dd\u10d5\u10d8\u10e1 \u10dd\u10da\u10e5\u10d8","name:right:eu":"Donetskeko oblasta","name:right:et":"Donetski oblast","name:left:os":"\u0420\u043e\u0441\u0442\u043e\u0432\u044b \u043e\u0431\u043b\u00e6\u0441\u0442","name:right:it":"Oblast' di Donec'k","name:left:ro":"Regiunea Rostov","name:right:ru":"\u0414\u043e\u043d\u0435\u0446\u043a\u0430\u044f \u043e\u0431\u043b\u0430\u0441\u0442\u044c","name:right:es":"\u00d3blast de Donetsk","name:right:ro":"Regiunea Done\u021bk","name:right:mr":"\u0926\u094b\u0928\u0947\u0924\u094d\u0938\u094d\u0915 \u0913\u092c\u094d\u0932\u093e\u0938\u094d\u0924","name:right:id":"Oblast Donetsk","name:right:eo":"Donecka provinco","name:right:en":"Donetsk Oblast","name:left:vi":"Rostov (t\u1ec9nh)","kind":"region","name":"\u0420\u043e\u0441\u0442\u043e\u0432\u0441\u043a\u0430\u044f \u043e\u0431\u043b\u0430\u0441\u0442\u044c - \u0414\u043e\u043d\u0435\u0446\u044c\u043a\u0430 \u043e\u0431\u043b\u0430\u0441\u0442\u044c","name:left:fa":"\u0627\u0633\u062a\u0627\u0646 \u0631\u0648\u0633\u062a\u0648\u0641","name:right:lv":"Do\u0146eckas apgabals","name:right:be":"\u0414\u0430\u043d\u0435\u0446\u043a\u0430\u044f \u0432\u043e\u0431\u043b\u0430\u0441\u0446\u044c","name:left:zh":"\u7f57\u65af\u6258\u592b\u5dde","name:right:zh":"\u987f\u6d85\u8328\u514b\u5dde","name:left:hy":"\u054c\u0578\u057d\u057f\u0578\u057e\u056b \u0574\u0561\u0580\u0566","name:right:nn":"Donetsk oblast","name:left:uz":"Rostov viloyati","name:right:nl":"Oblast Donetsk","name:right:ja":"\u30c9\u30cd\u30c4\u30a3\u30af\u5dde","name:right:fr":"Oblast de Donetsk","name:right:sr":"\u0414\u043e\u045a\u0435\u0447\u043a\u0430 \u043e\u0431\u043b\u0430\u0441\u0442","id:right":-71973,"name:left:uk":"\u0420\u043e\u0441\u0442\u043e\u0432\u0441\u044c\u043a\u0430 \u043e\u0431\u043b\u0430\u0441\u0442\u044c","name:left:no":"Rostov oblast","name:left:nl":"Oblast Rostov","name:left:ba":"\u0420\u043e\u0441\u0442\u043e\u0432 \u04e9\u043b\u043a\u04d9\u04bb\u0435","name:left:be":"\u0420\u0430\u0441\u0442\u043e\u045e\u0441\u043a\u0430\u044f \u0432\u043e\u0431\u043b\u0430\u0441\u0446\u044c","name:left:bg":"\u0420\u043e\u0441\u0442\u043e\u0432\u0441\u043a\u0430 \u043e\u0431\u043b\u0430\u0441\u0442","name:right:fa":"\u0627\u0633\u062a\u0627\u0646 \u062f\u0648\u0646\u062a\u0633\u06a9","name:left:fi":"Rostovin alue","id":-85606,"name:right:fi":"Donetskin alue","name:left:en":"Rostov Oblast","name:left:el":"\u03a0\u03b5\u03c1\u03b9\u03c6\u03ad\u03c1\u03b5\u03b9\u03b1 \u03a1\u03bf\u03c3\u03c4\u03cc\u03c6","name:right:ca":"Prov\u00edncia de Donetsk","kind_detail":"4","name:right:tt":"\u0414\u043e\u043d\u0435\u0446\u043a \u04e9\u043b\u043a\u04d9\u0441\u0435","id:left":-85606,"name:left:es":"\u00d3blast de Rostov","name:right:cs":"Don\u011bck\u00e1 oblast","name:right":"\u0414\u043e\u043d\u0435\u0446\u044c\u043a\u0430 \u043e\u0431\u043b\u0430\u0441\u0442\u044c","name:left:eu":"Rostov oblasta","name:left:et":"Rostovi oblast","osm_relation":true,"name:right:zh-min-nan":"Doneczk s\u00e9ng","name:right:pt":"Oblast de Donetsk","name:left:ar":"\u0631\u0648\u0633\u062a\u0648\u0641 \u0623\u0648\u0628\u0644\u0627\u0633\u062a","name:left:pl":"Obw\u00f3d rostowski","name:left:tt":"\u0420\u043e\u0441\u0442\u043e\u0432 \u04e9\u043b\u043a\u04d9\u0441\u0435","name:left:az":"Rostov vilay\u0259ti","name:right:tr":"Donetsk Oblast\u0131","name:right:bg":"\u0414\u043e\u043d\u0435\u0446\u043a\u0430 \u043e\u0431\u043b\u0430\u0441\u0442","name:left:pt":"Oblast de Rostov","name:left:af":"Rostof-oblast","name:right:sv":"Donetsk oblast","name:right:ko":"\ub3c4\ub124\uce20\ud06c \uc8fc","name:right:vi":"Donetsk (t\u1ec9nh)","name:right:pl":"Obw\u00f3d doniecki","name:right:os":"\u0414\u043e\u043d\u0435\u0446\u0447\u044b \u043e\u0431\u043b\u00e6\u0441\u0442","name:right:ka":"\u10d3\u10dd\u10dc\u10d4\u10ea\u10d9\u10d8\u10e1 \u10dd\u10da\u10e5\u10d8","name:right:de":"Oblast Donezk","name:left:de":"Oblast Rostow","sort_rank":256,"maritime_boundary":true},"arcs":[5]},{"type":"LineString","properties":{"name:right:hy":"\u053c\u0578\u0582\u0563\u0561\u0576\u057d\u056f\u056b \u0574\u0561\u0580\u0566","name:left:uz":"Rostov viloyati","int_name:left":"Rostov Oblast","name:right:hr":"Luhanska oblast","name:left:sv":"Rostov oblast","name:right:hu":"Luhanszki ter\u00fclet","name:left:sr":"\u0420\u043e\u0441\u0442\u043e\u0432\u0441\u043a\u0430 \u043e\u0431\u043b\u0430\u0441\u0442","name:right:lt":"Luhansko sritis","name:left:sl":"Rostovska oblast","min_zoom":8.0,"name:left:lt":"Rostovo sritis","name:left:sh":"Rostovska oblast","name:left:lv":"Rostovas apgabals","name:right:mr":"\u0932\u0941\u0939\u093e\u0928\u094d\u0938\u094d\u0915 \u0913\u092c\u094d\u0932\u093e\u0938\u094d\u0924","name:left:hr":"Rostovska oblast","name:right:os":"\u041b\u0443\u0433\u0430\u043d\u0441\u0447\u044b \u043e\u0431\u043b\u00e6\u0441\u0442","short_name:left":"\u0420\u041e\u0421","name:left:ce":"\u0420\u043e\u0441\u0442\u043e\u0432\u0430\u043d \u043e\u0431\u043b\u0430\u0441\u0442\u044c","name:right:vi":"Luhansk (t\u1ec9nh)","name:left:ca":"Prov\u00edncia de Rostov","source":"openstreetmap.org","name:right:ar":"\u0644\u0648\u0647\u0627\u0646\u0633\u0643 \u0623\u0648\u0628\u0644\u0627\u0633\u062a","name:left:cs":"Rostovsk\u00e1 oblast","name:left":"\u0420\u043e\u0441\u0442\u043e\u0432\u0441\u043a\u0430\u044f \u043e\u0431\u043b\u0430\u0441\u0442\u044c","name:right:mk":"\u041b\u0443\u0433\u0430\u043d\u0441\u043a\u0430 \u043e\u0431\u043b\u0430\u0441\u0442","name:right:sr":"\u041b\u0443\u0433\u0430\u043d\u0441\u043a\u0430 \u043e\u0431\u043b\u0430\u0441\u0442","name:left:ka":"\u10e0\u10dd\u10e1\u10e2\u10dd\u10d5\u10d8\u10e1 \u10dd\u10da\u10e5\u10d8","name:right:eu":"Luhanskeko oblasta","name:right:et":"Luganski oblast","name:left:os":"\u0420\u043e\u0441\u0442\u043e\u0432\u044b \u043e\u0431\u043b\u00e6\u0441\u0442","name:right:it":"Oblast' di Luhans'k","name:left:ro":"Regiunea Rostov","name:right:ru":"\u041b\u0443\u0433\u0430\u043d\u0441\u043a\u0430\u044f \u043e\u0431\u043b\u0430\u0441\u0442\u044c","name:right:es":"\u00d3blast de Lugansk","name:right:ro":"Regiunea Luhansk","alt_name:right:de":"Oblast Lugansk","name:right:id":"Oblast Luhansk","name:right:eo":"Luganska provinco","name:right:en":"Luhansk Oblast","name:left:vi":"Rostov (t\u1ec9nh)","kind":"region","name":"\u0420\u043e\u0441\u0442\u043e\u0432\u0441\u043a\u0430\u044f \u043e\u0431\u043b\u0430\u0441\u0442\u044c - \u041b\u0443\u0433\u0430\u043d\u0441\u044c\u043a\u0430 \u043e\u0431\u043b\u0430\u0441\u0442\u044c","name:left:fa":"\u0627\u0633\u062a\u0627\u0646 \u0631\u0648\u0633\u062a\u0648\u0641","name:right:lv":"Luhanskas apgabals","name:right:be":"\u041b\u0443\u0433\u0430\u043d\u0441\u043a\u0430\u044f \u0432\u043e\u0431\u043b\u0430\u0441\u0446\u044c","name:left:zh":"\u7f57\u65af\u6258\u592b\u5dde","name:right:zh":"\u76e7\u7518\u65af\u514b\u5dde","name:left:hy":"\u054c\u0578\u057d\u057f\u0578\u057e\u056b \u0574\u0561\u0580\u0566","name:right:nn":"Luhansk oblast","name:right:no":"Luhansk oblast","name:right:nl":"Oblast Loehansk","name:right:ja":"\u30eb\u30cf\u30fc\u30f3\u30b7\u30af\u5dde","name:right:fr":"Oblast de Louhansk","name:left:ja":"\u30ed\u30b9\u30c8\u30d5\u5dde","name:right:sv":"Luhansk oblast","name:left:uk":"\u0420\u043e\u0441\u0442\u043e\u0432\u0441\u044c\u043a\u0430 \u043e\u0431\u043b\u0430\u0441\u0442\u044c","name:right:sh":"Luganska oblast","name:right:sk":"Luhansk\u00e1 oblas\u0165","name:left:ba":"\u0420\u043e\u0441\u0442\u043e\u0432 \u04e9\u043b\u043a\u04d9\u04bb\u0435","alt_name:right:eo":"Luhanska provinco","name:left:bg":"\u0420\u043e\u0441\u0442\u043e\u0432\u0441\u043a\u0430 \u043e\u0431\u043b\u0430\u0441\u0442","name:right:fa":"\u0627\u0633\u062a\u0627\u0646 \u0644\u0648\u0647\u0627\u0646\u0633\u06a9","name:left:no":"Rostov oblast","name:left:fi":"Rostovin alue","id":-85606,"name:right:fi":"Luhanskin alue","name:left:en":"Rostov Oblast","name:left:el":"\u03a0\u03b5\u03c1\u03b9\u03c6\u03ad\u03c1\u03b5\u03b9\u03b1 \u03a1\u03bf\u03c3\u03c4\u03cc\u03c6","name:right:ca":"Prov\u00edncia de Luhansk","kind_detail":"4","alt_name:right:en":"Lugansk Oblast","name:left:nl":"Oblast Rostov","id:left":-85606,"name:left:es":"\u00d3blast de Rostov","name:right:cs":"Luhansk\u00e1 oblast","name:right":"\u041b\u0443\u0433\u0430\u043d\u0441\u044c\u043a\u0430 \u043e\u0431\u043b\u0430\u0441\u0442\u044c","id:right":-71971,"name:left:eu":"Rostov oblasta","name:left:et":"Rostovi oblast","name:right:ka":"\u10da\u10e3\u10d2\u10d0\u10dc\u10e1\u10d9\u10d8\u10e1 \u10dd\u10da\u10e5\u10d8","name:right:zh-min-nan":"Lugansk s\u00e9ng","name:right:pt":"Oblast de Lugansk","name:left:ar":"\u0631\u0648\u0633\u062a\u0648\u0641 \u0623\u0648\u0628\u0644\u0627\u0633\u062a","name:left:pl":"Obw\u00f3d rostowski","name:left:tt":"\u0420\u043e\u0441\u0442\u043e\u0432 \u04e9\u043b\u043a\u04d9\u0441\u0435","name:left:az":"Rostov vilay\u0259ti","name:right:tr":"Luhansk Oblast\u0131","name:right:bg":"\u041b\u0443\u0433\u0430\u043d\u0441\u043a\u0430 \u043e\u0431\u043b\u0430\u0441\u0442","name:left:pt":"Oblast de Rostov","name:left:af":"Rostof-oblast","name:right:ga":"C\u00faige Luhansk","name:right:ko":"\ub8e8\ud55c\uc2dc\ud06c \uc8fc","name:left:it":"Oblast' di Rostov","name:right:pl":"Obw\u00f3d \u0142uga\u0144ski","name:left:be":"\u0420\u0430\u0441\u0442\u043e\u045e\u0441\u043a\u0430\u044f \u0432\u043e\u0431\u043b\u0430\u0441\u0446\u044c","osm_relation":true,"name:right:de":"Oblast Luhansk","name:left:de":"Oblast Rostow","sort_rank":256},"arcs":[6]},{"type":"LineString","properties":{"name:right:hy":"\u053c\u0578\u0582\u0563\u0561\u0576\u057d\u056f\u056b \u0574\u0561\u0580\u0566","name:right:no":"Luhansk oblast","name:right:hr":"Luhanska oblast","name:left:sv":"Donetsk oblast","name:right:hu":"Luhanszki ter\u00fclet","name:left:sr":"\u0414\u043e\u045a\u0435\u0447\u043a\u0430 \u043e\u0431\u043b\u0430\u0441\u0442","name:right:lt":"Luhansko sritis","name:right:lv":"Luhanskas apgabals","name:left:lt":"Donecko sritis","name:left:sh":"Done\u010dka oblast","name:left:sk":"Doneck\u00e1 oblas\u0165","name:right:mr":"\u0932\u0941\u0939\u093e\u0928\u094d\u0938\u094d\u0915 \u0913\u092c\u094d\u0932\u093e\u0938\u094d\u0924","name:left:hu":"Donecki ter\u00fclet","name:left:hr":"Done\u010dka oblast","name:right:os":"\u041b\u0443\u0433\u0430\u043d\u0441\u0447\u044b \u043e\u0431\u043b\u00e6\u0441\u0442","name:right:vi":"Luhansk (t\u1ec9nh)","sort_rank":256,"name:left:ca":"Prov\u00edncia de Donetsk","source":"openstreetmap.org","name:right:ar":"\u0644\u0648\u0647\u0627\u0646\u0633\u0643 \u0623\u0648\u0628\u0644\u0627\u0633\u062a","name:left:cs":"Don\u011bck\u00e1 oblast","name:left":"\u0414\u043e\u043d\u0435\u0446\u044c\u043a\u0430 \u043e\u0431\u043b\u0430\u0441\u0442\u044c","name:right:es":"\u00d3blast de Lugansk","name:right:sh":"Luganska oblast","name:right:sr":"\u041b\u0443\u0433\u0430\u043d\u0441\u043a\u0430 \u043e\u0431\u043b\u0430\u0441\u0442","name:left:ka":"\u10d3\u10dd\u10dc\u10d4\u10ea\u10d9\u10d8\u10e1 \u10dd\u10da\u10e5\u10d8","name:right:eu":"Luhanskeko oblasta","name:right:et":"Luganski oblast","name:left:ko":"\ub3c4\ub124\uce20\ud06c \uc8fc","name:right:it":"Oblast' di Luhans'k","name:left:ro":"Regiunea Done\u021bk","name:right:ru":"\u041b\u0443\u0433\u0430\u043d\u0441\u043a\u0430\u044f \u043e\u0431\u043b\u0430\u0441\u0442\u044c","name:right:ro":"Regiunea Luhansk","name:left:ru":"\u0414\u043e\u043d\u0435\u0446\u043a\u0430\u044f \u043e\u0431\u043b\u0430\u0441\u0442\u044c","alt_name:right:de":"Oblast Lugansk","name:right:id":"Oblast Luhansk","name:right:eo":"Luganska provinco","name:right:en":"Luhansk Oblast","name:left:vi":"Donetsk (t\u1ec9nh)","kind":"region","name":"\u0414\u043e\u043d\u0435\u0446\u044c\u043a\u0430 \u043e\u0431\u043b\u0430\u0441\u0442\u044c - \u041b\u0443\u0433\u0430\u043d\u0441\u044c\u043a\u0430 \u043e\u0431\u043b\u0430\u0441\u0442\u044c","name:left:fa":"\u0627\u0633\u062a\u0627\u0646 \u062f\u0648\u0646\u062a\u0633\u06a9","name:right:fa":"\u0627\u0633\u062a\u0627\u0646 \u0644\u0648\u0647\u0627\u0646\u0633\u06a9","min_zoom":8.0,"name:right:be":"\u041b\u0443\u0433\u0430\u043d\u0441\u043a\u0430\u044f \u0432\u043e\u0431\u043b\u0430\u0441\u0446\u044c","name:left:zh":"\u987f\u6d85\u8328\u514b\u5dde","name:left:fr":"Oblast de Donetsk","name:right:zh":"\u76e7\u7518\u65af\u514b\u5dde","name:left:hy":"\u0534\u0578\u0576\u0565\u0581\u056f\u056b \u0574\u0561\u0580\u0566","name:right:nn":"Luhansk oblast","name:right:mk":"\u041b\u0443\u0433\u0430\u043d\u0441\u043a\u0430 \u043e\u0431\u043b\u0430\u0441\u0442","name:right:nl":"Oblast Loehansk","name:right:ja":"\u30eb\u30cf\u30fc\u30f3\u30b7\u30af\u5dde","name:right:fr":"Oblast de Louhansk","name:left:lv":"Do\u0146eckas apgabals","name:left:ja":"\u30c9\u30cd\u30c4\u30a3\u30af\u5dde","name:right:sv":"Luhansk oblast","name:left:nn":"Donetsk oblast","name:left:no":"Donetsk oblast","name:right:sk":"Luhansk\u00e1 oblas\u0165","alt_name:right:eo":"Luhanska provinco","name:left:bg":"\u0414\u043e\u043d\u0435\u0446\u043a\u0430 \u043e\u0431\u043b\u0430\u0441\u0442","name:left:be":"\u0414\u0430\u043d\u0435\u0446\u043a\u0430\u044f \u0432\u043e\u0431\u043b\u0430\u0441\u0446\u044c","name:left:fi":"Donetskin alue","id":-71973,"name:right:fi":"Luhanskin alue","name:left:eo":"Donecka provinco","name:left:en":"Donetsk Oblast","name:right:ca":"Prov\u00edncia de Luhansk","kind_detail":"4","alt_name:right:en":"Lugansk Oblast","name:left:nl":"Oblast Donetsk","id:left":-71973,"name:left:es":"\u00d3blast de Donetsk","name:right:cs":"Luhansk\u00e1 oblast","name:right":"\u041b\u0443\u0433\u0430\u043d\u0441\u044c\u043a\u0430 \u043e\u0431\u043b\u0430\u0441\u0442\u044c","id:right":-71971,"name:left:os":"\u0414\u043e\u043d\u0435\u0446\u0447\u044b \u043e\u0431\u043b\u00e6\u0441\u0442","name:left:eu":"Donetskeko oblasta","name:left:et":"Donetski oblast","name:right:ka":"\u10da\u10e3\u10d2\u10d0\u10dc\u10e1\u10d9\u10d8\u10e1 \u10dd\u10da\u10e5\u10d8","name:right:zh-min-nan":"Lugansk s\u00e9ng","name:right:pt":"Oblast de Lugansk","name:left:ar":"\u062f\u0648\u0646\u064a\u062a\u0633\u0643 \u0623\u0648\u0628\u0644\u0627\u0633\u062a","name:left:pl":"Obw\u00f3d doniecki","name:left:tr":"Donetsk Oblast\u0131","name:left:id":"Oblast Donetsk","name:left:tt":"\u0414\u043e\u043d\u0435\u0446\u043a \u04e9\u043b\u043a\u04d9\u0441\u0435","name:left:az":"Donetsk Oblast\u0131","name:right:tr":"Luhansk Oblast\u0131","name:right:bg":"\u041b\u0443\u0433\u0430\u043d\u0441\u043a\u0430 \u043e\u0431\u043b\u0430\u0441\u0442","name:left:pt":"Oblast de Donetsk","name:left:mr":"\u0926\u094b\u0928\u0947\u0924\u094d\u0938\u094d\u0915 \u0913\u092c\u094d\u0932\u093e\u0938\u094d\u0924","name:right:ga":"C\u00faige Luhansk","name:right:ko":"\ub8e8\ud55c\uc2dc\ud06c \uc8fc","name:left:zh-min-nan":"Doneczk s\u00e9ng","name:left:it":"Oblast' di Donec'k","name:right:pl":"Obw\u00f3d \u0142uga\u0144ski","osm_relation":true,"name:right:de":"Oblast Luhansk","name:left:de":"Oblast Donezk","name:left:mk":"\u0414\u043e\u043d\u0435\u0447\u043a\u0430 \u043e\u0431\u043b\u0430\u0441\u0442"},"arcs":[7]}]},"roads":{"type":"GeometryCollection","geometries":[{"type":"MultiLineString","properties":{"kind":"major_road","network":"ru:regional","sort_rank":380,"kind_detail":"primary","source":"openstreetmap.org","min_zoom":8.0,"landuse_kind":"urban_area","shield_text":"60\u041a","ref":"60\u041a-186"},"arcs":[[14],[15],[16]]},{"type":"MultiLineString","properties":{"kind":"major_road","network":"ru:regional","sort_rank":380,"kind_detail":"primary","source":"openstreetmap.org","min_zoom":8.0,"landuse_kind":"residential","shield_text":"60\u041a","ref":"60\u041a-6"},"arcs":[[17],[18],[19]]},{"type":"LineString","properties":{"kind":"major_road","name:en":"Sambek \u2014 Uspenskaya","network":"ru:regional","sort_rank":380,"kind_detail":"primary","name:de":"Sambek \u2014 Uspenskaja","source":"openstreetmap.org","min_zoom":8.0,"shield_text":"60\u041a","name:ru":"\u0421\u0430\u043c\u0431\u0435\u043a \u2014 \u0423\u0441\u043f\u0435\u043d\u0441\u043a\u0430\u044f","ref":"60\u041a-186"},"arcs":[20]},{"type":"MultiLineString","properties":{"kind":"major_road","network":"ru:national","sort_rank":381,"kind_detail":"trunk","is_bicycle_related":true,"source":"openstreetmap.org","min_zoom":8.0,"shield_text":"280","ref":"\u0410-280"},"arcs":[[21],[22]]},{"type":"LineString","properties":{"kind":"major_road","network":"e-road","sort_rank":381,"kind_detail":"trunk","source":"openstreetmap.org","min_zoom":8.0,"shield_text":"50","ref":"\u041c-03"},"arcs":[23]},{"type":"LineString","properties":{"source":"openstreetmap.org","kind":"major_road","sort_rank":380,"kind_detail":"primary","ref":"\u041a\u0443\u0439\u0431\u044b\u0448\u0435\u0432\u043e- \u041c\u0430\u0442\u0432\u0435\u0435\u0432 \u041a\u0443\u0440\u0433\u0430\u043d-\u0421\u0430\u043c\u0431\u0435\u043a","min_zoom":8.0,"id":504029896},"arcs":[24]},{"type":"MultiLineString","properties":{"sort_rank":381,"source":"openstreetmap.org","min_zoom":8.0,"kind":"major_road","kind_detail":"trunk"},"arcs":[[25],[26],[27],[28],[29],[30],[31]]},{"type":"MultiLineString","properties":{"kind":"major_road","network":"ru:regional","sort_rank":380,"kind_detail":"primary","source":"openstreetmap.org","min_zoom":8.0,"landuse_kind":"urban_area","shield_text":"60\u041a","ref":"60\u041a-6"},"arcs":[[32],[33],[34],[35],[36],[37],[38]]},{"type":"MultiLineString","properties":{"kind":"major_road","network":"ru:national","sort_rank":381,"landuse_kind":"urban_area","source":"openstreetmap.org","min_zoom":8.0,"kind_detail":"trunk","shield_text":"280","ref":"\u0410-280"},"arcs":[[39],[40],[41],[42],[43],[44],[45],[46],[47],[48],[49],[50],[51],[52],[53],[54],[55],[56],[57],[58],[59],[60]]},{"type":"LineString","properties":{"kind":"major_road","network":"e-road","sort_rank":381,"kind_detail":"trunk","source":"openstreetmap.org","min_zoom":8.0,"landuse_kind":"urban_area","shield_text":"58","ref":"\u0410-280","id":300993291},"arcs":[61]},{"type":"MultiLineString","properties":{"kind":"major_road","network":"e-road","sort_rank":381,"kind_detail":"trunk","source":"openstreetmap.org","min_zoom":8.0,"shield_text":"58","ref":"\u041c-14"},"arcs":[[62],[63],[64]]},{"type":"MultiLineString","properties":{"sort_rank":380,"kind_detail":"primary","min_zoom":8.0,"kind":"major_road","source":"openstreetmap.org"},"arcs":[[65],[66]]},{"type":"LineString","properties":{"kind":"major_road","network":"ru:regional","sort_rank":380,"kind_detail":"primary","source":"openstreetmap.org","min_zoom":8.0,"shield_text":"60\u041a","ref":"60\u041a-186"},"arcs":[67]},{"type":"MultiLineString","properties":{"kind":"major_road","network":"ru:regional","sort_rank":380,"kind_detail":"primary","source":"openstreetmap.org","min_zoom":8.0,"shield_text":"60\u041a","ref":"60\u041a-6"},"arcs":[[68],[69],[70],[71],[72],[73],[74],[75]]},{"type":"MultiLineString","properties":{"kind":"major_road","network":"ru:national","sort_rank":381,"kind_detail":"trunk","source":"openstreetmap.org","min_zoom":8.0,"shield_text":"280","ref":"\u0410-280"},"arcs":[[76],[77],[78],[79],[80],[81],[82],[83],[84],[85],[86],[87],[88],[89],[90],[91]]}]},"earth":{"type":"GeometryCollection","geometries":[{"type":"MultiPolygon","properties":{"sort_rank":10,"source":"naturalearthdata.com","min_zoom":0.0,"kind":"earth","area":94584646951},"arcs":[[[92]],[[93]]]}]},"landuse":{"type":"GeometryCollection","geometries":[{"type":"MultiPolygon","properties":{"source":"openstreetmap.org","kind":"residential","tier":2,"area":68279225,"sort_rank":20,"min_zoom":8.0,"osm_relation":true},"arcs":[[[94],[95]],[[96]]]},{"type":"MultiPolygon","properties":{"source":"openstreetmap.org","kind":"protected_area","tier":2,"area":89811455,"sort_rank":17,"min_zoom":8.0,"osm_relation":true},"arcs":[[[97]],[[98]],[[99]],[[100]]]},{"type":"MultiPolygon","properties":{"source":"openstreetmap.org","kind":"nature_reserve","tier":2,"protect_class":"4","area":212344704,"sort_rank":23,"min_zoom":8.0},"arcs":[[[101]],[[102]]]},{"type":"Polygon","properties":{"kind":"nature_reserve","protect_class":"5","area":22041400,"sort_rank":23,"operator":"\u0413\u0411\u0423 \u0420\u041e \"\u0414\u0438\u0440\u0435\u043a\u0446\u0438\u044f \u043e\u0441\u043e\u0431\u043e \u043e\u0445\u0440\u0430\u043d\u044f\u0435\u043c\u044b\u0445 \u043f\u0440\u0438\u0440\u043e\u0434\u043d\u044b\u0445 \u0442\u0435\u0440\u0440\u0438\u0442\u043e\u0440\u0438\u0439 \u043e\u0431\u043b\u0430\u0441\u0442\u043d\u043e\u0433\u043e \u0437\u043d\u0430\u0447\u0435\u043d\u0438\u044f\"","source":"openstreetmap.org","min_zoom":8.0,"tier":2,"id":-7755539,"osm_relation":true},"arcs":[[103]]},{"type":"Polygon","properties":{"kind":"nature_reserve","protect_class":"5","area":529968992,"sort_rank":23,"operator":"\u0413\u0411\u0423 \u0420\u041e \"\u0414\u0438\u0440\u0435\u043a\u0446\u0438\u044f \u043e\u0441\u043e\u0431\u043e \u043e\u0445\u0440\u0430\u043d\u044f\u0435\u043c\u044b\u0445 \u043f\u0440\u0438\u0440\u043e\u0434\u043d\u044b\u0445 \u0442\u0435\u0440\u0440\u0438\u0442\u043e\u0440\u0438\u0439 \u043e\u0431\u043b\u0430\u0441\u0442\u043d\u043e\u0433\u043e \u0437\u043d\u0430\u0447\u0435\u043d\u0438\u044f\"","source":"openstreetmap.org","min_zoom":6.0,"tier":2,"id":-7755539,"osm_relation":true},"arcs":[[104],[105],[106],[107]]},{"type":"Polygon","properties":{"kind":"national_park","protect_class":"5","area":157256000,"sort_rank":18,"source":"openstreetmap.org","min_zoom":5.0,"tier":1,"id":-4649414,"osm_relation":true},"arcs":[[108]]},{"type":"Polygon","properties":{"source":"openstreetmap.org","kind":"military","area":162496000,"tier":3,"id":325697658,"min_zoom":8.0,"sort_rank":45},"arcs":[[109]]},{"type":"MultiPolygon","properties":{"source":"naturalearthdata.com","kind":"urban_area","name":"","area":10435685732,"sort_rank":11,"min_zoom":4.0},"arcs":[[[110]],[[111]],[[112]],[[113]],[[114]],[[115]],[[116]],[[117]],[[118]],[[119]],[[120]]]},{"type":"Polygon","properties":{"source":"openstreetmap.org","kind":"protected_area","tier":2,"area":388558890,"sort_rank":17,"min_zoom":6.0,"osm_relation":true},"arcs":[[121],[122],[123],[124]]},{"type":"Polygon","properties":{"kind":"protected_area","protect_class":"1","area":22864900,"sort_rank":17,"source":"openstreetmap.org","min_zoom":8.0,"tier":2,"id":187854902},"arcs":[[125]]},{"type":"Polygon","properties":{"source":"openstreetmap.org","kind":"aerodrome","area":12398600,"tier":3,"id":99411695,"min_zoom":8.0,"sort_rank":60},"arcs":[[126]]},{"type":"MultiPolygon","properties":{"source":"openstreetmap.org","kind":"residential","tier":2,"area":316843152,"sort_rank":20,"min_zoom":8.0},"arcs":[[[127]],[[128]],[[129]],[[130]]]},{"type":"Polygon","properties":{"kind":"protected_area","area":149812992,"sort_rank":17,"source":"openstreetmap.org","min_zoom":7.0,"tier":2,"id":-7755536,"osm_relation":true},"arcs":[[131]]},{"type":"Polygon","properties":{"kind":"residential","name:en":"Novobessergenevka","name":"\u041d\u043e\u0432\u043e\u0431\u0435\u0441\u0441\u0435\u0440\u0433\u0435\u043d\u0435\u0432\u043a\u0430","area":11072100,"sort_rank":20,"name:de":"Nowobessergenowka","source":"openstreetmap.org","min_zoom":8.0,"tier":2,"id":-1997738,"osm_relation":true},"arcs":[[132]]}]}},"type":"Topology","transform":{"translate":[37.96875,47.0401821448],"scale":[0.0003433228,0.00023187]},"arcs":[[[848,175],[-91,180],[22,74],[-6,277],[25,60],[-29,48],[80,40],[81,1],[0,79],[106,1],[26,53],[-31,51],[30,50],[-18,29],[27,27],[-336,-1],[5,119],[69,76],[-3,56],[35,41],[86,1],[-1,78],[47,6],[-1,354],[-40,5],[-7,32],[23,80],[-1,26],[-25,4],[-1,152],[66,10],[10,127],[117,1],[-1,174],[309,2],[0,116],[466,3],[38,38],[-1,69],[107,-1],[-2,127],[46,0]],[[2075,2840],[157,4],[-15,-36],[29,-27],[-9,-21],[29,27],[75,-4],[-7,153],[22,64],[33,8],[0,133],[22,22],[-37,62],[15,121],[116,0],[-4,139],[44,14],[1,59],[101,8],[2,38],[225,-28],[372,1],[0,-77],[77,0],[0,-39],[117,-1],[0,39],[65,-23],[26,32],[162,0],[15,58],[319,0],[-9,19],[78,1]],[[941,0],[-93,175]],[[2075,2840],[-46,0],[2,-127],[-107,1],[1,-69],[-38,-38],[-466,-3],[0,-116],[-309,-2],[1,-174],[-117,-1],[-10,-127],[-66,-10],[1,-152],[25,-4],[1,-26],[-23,-80],[7,-32],[40,-5],[1,-354],[-47,-6],[1,-78],[-86,-1],[-35,-41],[3,-56],[-69,-76],[-5,-119],[336,1],[-27,-27],[18,-29],[-30,-50],[31,-51],[-26,-53],[-106,-1],[0,-79],[-81,-1],[-80,-40],[29,-48],[-25,-60],[6,-277],[-22,-74],[91,-180]],[[3221,3577],[-347,-1],[-223,29],[-4,-39],[-101,-8],[-1,-59],[-48,-25],[8,-128],[-116,0],[-15,-121],[37,-62],[-22,-22],[0,-133],[-33,-8],[-22,-64],[7,-153],[-75,4],[-29,-27],[9,21],[-29,27],[15,36],[-157,-4]],[[848,175],[93,-175]],[[4096,3586],[-78,-1],[9,-19],[-319,0],[-15,-58],[-162,0],[-26,-32],[-65,23],[0,-39],[-117,1],[0,39],[-77,0],[0,77],[-25,0]],[[3221,3577],[-27,114],[76,194],[-51,51],[-49,-26],[-12,34],[-42,7],[2,145]],[[616,4096],[11,-33],[18,-201]],[[0,0],[0,236],[55,-13],[112,-44],[26,11],[76,46],[16,14],[14,7],[96,-78],[75,-30],[1,-70],[-37,-79],[-434,0]],[[513,0],[150,213],[59,58],[0,1],[22,22],[120,45],[473,64],[62,29],[27,53],[13,40],[31,32],[35,23],[27,8],[17,22],[54,126],[100,82],[120,49],[468,77],[53,-4],[27,4],[20,15],[36,79],[24,30],[30,-6],[2,-44],[-39,-59],[-53,-51],[-41,-22],[-533,-69],[-95,-49],[-27,-39],[-57,-116],[-25,-25],[-38,-21],[-44,-98],[-48,-28],[44,-62],[71,-39],[80,-18],[68,1],[0,30],[-19,13],[-8,12],[-6,14],[-11,20],[211,0],[58,9],[109,40],[106,18],[154,53],[165,-7],[54,7],[42,22],[34,29],[38,26],[132,16],[17,20],[-11,49],[-10,89],[41,134],[94,18],[107,-11],[78,50],[23,3],[73,65],[43,20],[42,-13],[51,-27],[55,-16],[52,27],[86,-47],[120,-7],[107,-27],[46,-111],[5,-129],[-5,-35],[-20,-23],[-27,-2],[-23,-7],[-9,-41],[-10,-138],[15,-35],[54,-19],[-32,-121],[8,-48],[44,-37],[78,105],[66,69],[74,12],[59,-41],[0,-53],[-21,-14],[-125,-31],[-62,-61],[-22,-68],[-13,-124],[-3340,0]],[[0,236],[55,-13],[112,-44],[26,11],[76,46],[16,14],[14,7],[96,-78],[75,-30],[1,-70],[-37,-79]],[[513,0],[150,213],[59,58],[0,1],[22,22],[120,45],[473,64],[62,29],[27,53],[13,40],[31,32],[35,23],[27,8],[17,22],[54,126],[100,82],[120,49],[468,77],[53,-4],[27,4],[20,15],[36,79],[24,30],[30,-6],[2,-44],[-39,-59],[-53,-51],[-41,-22],[-533,-69],[-95,-49],[-27,-39],[-57,-116],[-25,-25],[-38,-21],[-44,-98],[-48,-28],[44,-62],[71,-39],[80,-18],[68,1],[0,30],[-19,13],[-8,12],[-6,14],[-11,20],[211,0],[58,9],[109,40],[106,18],[154,53],[165,-7],[54,7],[42,22],[34,29],[38,26],[132,16],[17,20],[-11,49],[-10,89],[41,134],[94,18],[107,-11],[78,50],[23,3],[73,65],[43,20],[42,-13],[51,-27],[55,-16],[52,27],[86,-47],[120,-7],[107,-27],[46,-111],[5,-129],[-5,-35],[-20,-23],[-27,-2],[-23,-7],[-9,-41],[-10,-138],[15,-35],[54,-19],[-32,-121],[8,-48],[44,-37],[78,105],[66,69],[74,12],[59,-41]],[[4096,298],[-21,-14],[-125,-31],[-62,-61],[-22,-68],[-13,-124]],[[2606,2377],[-33,75]],[[2606,2377],[2,-3]],[[2609,2376],[-3,1]],[[2650,2330],[-8,9]],[[2678,2230],[-14,64]],[[2738,3391],[-4,1]],[[2482,2595],[-31,127],[-241,-13],[-135,127]],[[3088,1211],[-3,-1]],[[3085,1209],[4,1]],[[4096,4067],[-114,29]],[[2638,3463],[1,-4]],[[786,516],[1,6]],[[787,522],[22,2]],[[809,524],[1,-6]],[[3072,1205],[5,2]],[[3081,1209],[-4,-2]],[[3104,1213]],[[3159,1211],[-4,0]],[[2609,2381],[-1,-5]],[[2608,2376],[0,-2],[1,0],[0,1],[-1,1]],[[2609,2381],[5,56],[79,105]],[[2612,2371],[-3,10]],[[2609,2373],[3,-2]],[[2642,2339],[-30,32]],[[2664,2294],[-14,36]],[[2323,741],[-17,-4]],[[2323,741],[6,1]],[[2329,744],[-6,-3]],[[2329,744]],[[2329,744],[0,-2]],[[2331,747],[-2,-3]],[[2330,744],[-1,0]],[[2329,742],[1,2]],[[2330,744],[1,3]],[[2331,747],[39,67]],[[2402,831],[178,179]],[[2580,1010],[3,2]],[[2583,1013],[-3,-3]],[[2584,1014],[-1,-1]],[[2583,1013],[0,-1]],[[2583,1012],[2,1]],[[2588,1016],[-4,-2]],[[2585,1013],[-1,1]],[[2585,1013],[3,3]],[[2871,1064],[-196,2],[-87,-50]],[[2891,1069],[-20,-5]],[[2906,1081],[-15,-12]],[[2774,1065],[5,0]],[[772,516],[-211,-42],[-180,-92],[-129,-26],[-44,-50],[-100,-38],[-108,20]],[[779,516],[-7,0]],[[779,516]],[[2073,2839],[0,-1],[2,-2],[0,1]],[[2074,2837],[-1,2]],[[2573,2452],[-91,143]],[[2734,3392],[-50,5],[-36,35],[-58,127]],[[3031,1189],[-7,166],[-182,199],[-164,676]],[[2693,2542],[35,47],[153,2],[38,36],[7,289],[72,149],[-135,137],[-80,185],[-45,4]],[[3031,1186],[-2,-4]],[[3031,1189],[0,-3]],[[3031,1186],[0,-3]],[[3032,1184],[-1,5]],[[3033,1186],[-2,3]],[[2306,737],[-341,-74],[-279,-98],[-177,101],[-209,-86],[-223,-50],[-298,-14]],[[2370,814],[32,17]],[[3020,1175],[-114,-94]],[[3020,1175],[65,34]],[[3085,1210],[-65,-35]],[[3164,1211],[-61,2],[-15,-2]],[[3089,1210],[75,1]],[[3155,1211]],[[3164,1211],[83,5],[98,-52],[194,-39]],[[3539,1125],[124,-13]],[[3663,1112],[-55,13],[-69,0]],[[3550,1123]],[[3586,1120],[0,-1]],[[3889,1082],[-226,30]],[[3889,1082],[29,-9],[30,-5],[148,-9]],[[4096,1060],[-207,22]],[[3853,0],[13,124],[22,68],[62,61],[125,31],[21,14],[0,-298],[-243,0]],[[4096,4096],[0,-3745],[-59,41],[-74,-12],[-66,-69],[-78,-105],[-44,37],[-8,48],[32,121],[-54,19],[-15,35],[10,138],[9,41],[23,7],[27,2],[20,23],[5,35],[-5,129],[-46,111],[-107,27],[-120,7],[-86,47],[-52,-27],[-55,16],[-51,27],[-42,13],[-43,-20],[-73,-65],[-23,-3],[-78,-50],[-107,11],[-94,-18],[-41,-134],[10,-89],[11,-49],[-17,-20],[-132,-16],[-38,-26],[-34,-29],[-42,-22],[-54,-7],[-165,7],[-154,-53],[-15,-3],[-91,-15],[-109,-40],[-58,-9],[-211,0],[11,-20],[6,-14],[8,-12],[19,-13],[0,-30],[-68,-1],[-80,18],[-71,39],[-44,62],[48,28],[44,98],[38,21],[25,25],[57,116],[27,39],[95,49],[354,46],[179,23],[41,22],[53,51],[39,59],[-2,44],[-30,6],[-24,-30],[-36,-79],[-20,-15],[-27,-4],[-53,4],[-120,-20],[-348,-57],[-120,-49],[-100,-82],[-54,-126],[-17,-22],[-27,-8],[-35,-23],[-31,-32],[-13,-40],[-27,-53],[-62,-29],[-473,-64],[-120,-45],[-22,-22],[0,-1],[-59,-58],[-150,-213],[-79,0],[37,79],[-1,70],[-75,30],[-96,78],[-14,-7],[-16,-14],[-76,-46],[-26,-11],[-112,44],[-55,13],[0,3860],[4096,0]],[[2476,1220],[25,-17],[119,11],[-80,-30],[32,-151],[-19,30],[-6,-28],[21,-2],[-26,-50],[5,50],[-33,-14],[24,69],[-62,132]],[[2549,1084],[4,-4],[2,8],[-6,0],[0,-4]],[[1423,3249],[37,37],[76,-16],[-26,-9],[70,-35],[-23,11],[-48,-46],[-23,49],[19,-60],[-18,-1],[-64,70]],[[3694,196],[136,7],[-1,2],[57,30],[10,-129],[-50,-34],[-123,117],[-29,7]],[[3981,665],[6,71],[19,-22],[3,26],[-27,21],[91,-14],[5,-23],[-58,-40],[63,-17],[13,-37],[0,-163],[-6,31],[-32,2],[-36,50],[-11,52],[27,5],[-54,23],[-3,35]],[[3775,335],[57,45],[56,-5],[31,26],[57,-13],[-79,-34],[23,-18],[-49,-73],[-48,8],[-48,64]],[[3876,561],[80,-12],[26,37],[6,-61],[46,-53],[62,-21],[0,-44],[-97,-17],[-61,56],[35,45],[-25,40],[-36,-12],[-36,42]],[[402,246],[9,14],[36,-22],[177,7],[-45,-70],[-48,24],[-20,-23],[26,-40],[-46,-53],[-89,163]],[[1151,3690],[48,44],[45,1],[24,44],[80,-27],[48,-49],[13,32],[-4,-39],[25,-24],[-28,-19],[-33,23],[20,15],[-45,2],[-46,-58],[-41,19],[3,-29],[-109,65]],[[3694,196],[146,8],[46,31],[10,-129],[-50,-34],[-92,110],[-60,14]],[[3625,646],[30,67],[9,139],[36,51],[-50,76],[90,-15],[7,24],[55,15],[94,-35],[100,-1],[15,-21],[85,20],[0,-563],[-135,-30],[3,18],[-67,-37],[24,-11],[-13,-42],[-74,-83],[-158,-11],[60,15],[32,85],[-74,55],[-21,57],[47,105],[-23,26],[16,31],[-53,6],[-35,59]],[[3909,810],[6,-19],[53,-47],[62,37],[26,62],[-72,-73],[-70,38],[28,-5],[46,30],[-79,-23]],[[3953,651],[68,-140],[37,-11],[-42,64],[-5,38],[27,5],[-57,30],[14,50],[-42,-36]],[[3985,736],[4,-22],[17,0],[-1,27],[-20,-5]],[[1732,3673],[6,78],[339,117],[130,-20],[56,-54],[52,-13],[-57,-43],[-16,-55],[6,-26],[83,11],[12,-38],[-77,-40],[-22,19],[-21,-37],[-202,25],[-31,71],[-102,-31],[-156,36]],[[3665,1424],[0,246],[385,81],[-2,-329],[-383,2]],[[4096,199],[-173,-39],[-3,63],[176,75],[0,-99]],[[4096,351],[-59,41],[-41,-7],[56,110],[44,-4],[0,-140]],[[2791,1232],[32,-92],[101,-73],[20,-133],[-102,-17],[-41,-134],[21,-138],[-149,-36],[-77,-58],[-47,68],[-20,110],[-31,7],[-46,-13],[-18,-37],[-87,-12],[-10,-36],[-30,55],[-3,89],[98,48],[10,99],[71,89],[-2,44],[-30,6],[-49,-76],[32,125],[32,0],[0,48],[130,0],[97,49],[53,-5],[11,52],[34,-29]],[[2788,1633],[-31,-85],[-17,-4],[-15,52],[-65,0],[-12,63],[45,177],[52,-42],[35,-73],[8,-88]],[[2673,2229],[-84,3],[-155,83],[39,86],[144,74],[43,80],[46,-18],[-13,-126],[63,-88],[1,-56],[-84,-38]],[[201,2555],[3,148],[50,94],[71,34],[71,-36],[-8,-121],[-41,-71],[-146,-48]],[[1593,3226],[-100,-60],[-30,12],[0,48],[-65,0],[0,127],[76,88],[86,-20],[33,-195]],[[70,3229],[-63,45],[29,65],[42,45],[123,34],[-16,-106],[-50,-66],[-65,-17]],[[678,3700],[-121,5],[0,157],[29,112],[64,61],[102,6],[16,-114],[-22,-133],[-68,-94]],[[1881,4096],[138,0],[-9,-9],[-50,-14],[-76,15],[-3,8]],[[0,3777],[0,319],[83,0],[-43,-8],[24,-115],[-25,-115],[-39,-81]],[[3625,646],[34,137],[5,69],[20,28],[8,35],[-42,64],[90,-15],[7,24],[55,15],[94,-35],[100,-1],[15,-21],[85,20],[0,-563],[-135,-30],[2,15],[-5,-1],[-61,-33],[24,-11],[-13,-42],[-74,-83],[-158,-11],[20,5],[-19,-4],[59,14],[32,85],[-74,55],[-21,57],[47,105],[-23,26],[16,31],[-53,6],[-35,59]],[[3910,807],[50,-57],[8,-6],[62,37],[26,62],[-72,-73],[-70,38],[28,-5],[46,30],[-79,-23],[1,-3]],[[3979,598],[1,2],[6,-17],[35,-72],[37,-11],[-42,64],[-5,38],[27,5],[-57,30],[14,50],[-42,-36],[26,-53]],[[3985,736],[4,-22],[17,0],[-1,27],[-20,-5]],[[514,1059],[76,20],[32,58],[72,7],[-10,-145],[-132,11],[8,44],[-46,5]],[[2481,863],[39,42],[90,33],[-17,-15],[27,-35],[-19,-64],[-74,27],[-35,-12],[-11,24]],[[3892,162],[30,58],[7,-27],[73,5],[6,-99],[-92,37],[-9,-20],[-15,46]],[[2678,1611],[54,121],[36,-33],[-3,-49],[25,-24],[-19,-28],[42,-58],[-67,-36],[-54,50],[6,43],[-20,14]],[[2548,2335],[19,24],[32,-26],[8,36],[42,-36],[27,-71],[6,-32],[-48,0],[12,-43],[-48,9],[-50,139]],[[2685,3386],[28,-18],[23,27],[20,-39],[36,1],[-26,-34],[37,-48],[-11,-22],[-74,50],[-33,83]],[[3650,979],[90,-15],[7,24],[55,15],[94,-35],[100,-1],[15,-21],[85,20],[0,-336],[-13,37],[-63,17],[58,40],[-16,32],[-49,11],[44,81],[-54,12],[-58,-53],[-36,3],[-83,92],[-131,22],[-45,55]],[[2441,643],[91,21],[11,-23],[51,18],[5,-20],[-19,-50],[-82,-3],[-57,57]]]}