{"objects":{"water":{"type":"GeometryCollection","geometries":[{"type":"MultiPolygon","properties":{"source":"naturalearthdata.com","kind":"ocean","area":1576712559132672,"sort_rank":200,"min_zoom":0.0,"id":1},"arcs":[[[20]],[[21]]]},{"type":"MultiLineString","properties":{"source":"naturalearthdata.com","kind":"ocean","sort_rank":205,"boundary":true,"min_zoom":0.0,"id":52},"arcs":[[22],[23]]}]},"buildings":{"type":"GeometryCollection","geometries":[]},"places":{"type":"GeometryCollection","geometries":[{"type":"Point","properties":{"name:ms":"Jajahan Krasnodar","name:ko":"\ud06c\ub77c\uc2a4\ub178\ub2e4\ub974 \uc9c0\ubc29","name:ar":"\u0643\u0631\u0627\u0633\u0646\u0648\u062f\u0627\u0631 \u0643\u0631\u0627\u064a","name:cs":"Krasnodarsk\u00fd kraj","name:tr":"Krasnodar Kray\u0131","name:is":"Krasnodarfylki","name:it":"Territorio di Krasnodar","name:pl":"Kraj Krasnodarski","name:ta":"\u0b95\u0bbf\u0bb0\u0bbe\u0bb8\u0bcd\u0ba9\u0ba4\u0bbe\u0bb0\u0bcd \u0baa\u0bbf\u0bb0\u0ba4\u0bc7\u0b9a\u0bae\u0bcd","id":3140016266,"name:ca":"Territori de Krasnodar","name:af":"Krasnodar-krai","kind_detail":"state","name:no":"Krasnodar kraj","name:de":"Region Krasnodar","source":"openstreetmap.org","name:fr":"Kra\u00ef de Krasnodar","name:zh":"\u514b\u62c9\u65af\u8bfa\u8fbe\u5c14\u8fb9\u7586\u533a","admin_level":"4","name:sk":"Krasnodarsk\u00fd kraj","name:ja":"\u30af\u30e9\u30b9\u30ce\u30c0\u30fc\u30eb\u5730\u65b9","name:nn":"Krasnodar kraj","name:hi":"\u0915\u094d\u0930\u093e\u0938\u094d\u0928\u094b\u0926\u093e\u0930 \u0915\u094d\u0930\u093e\u092f","name:he":"\u05e7\u05e8\u05e1\u05e0\u05d5\u05d3\u05d0\u05e8 (\u05de\u05d7\u05d5\u05d6)","kind":"region","name:ur":"\u06a9\u0631\u06cc\u0633\u0646\u0648\u0688\u0627\u0631 \u06a9\u0631\u0627\u0626\u06cc","name:uk":"\u041a\u0440\u0430\u0441\u043d\u043e\u0434\u0430\u0440\u0441\u044c\u043a\u0438\u0439 \u043a\u0440\u0430\u0439","name:sv":"Krasnodar kraj","name:hu":"Krasznodari hat\u00e1rter\u00fclet","name:hr":"Krasnodarski kraj","name:sr":"\u041a\u0440\u0430\u0441\u043d\u043e\u0434\u0430\u0440\u0441\u043a\u0430 \u041f\u043e\u043a\u0440\u0430\u0458\u0438\u043d\u0430","name:el":"\u039a\u03c1\u03ac\u03b9 \u039a\u03c1\u03b1\u03c3\u03bd\u03bf\u03bd\u03c4\u03ac\u03c1","name:eo":"Krasnodara regiono","name:en":"Krasnodar Krai","name":"\u041a\u0440\u0430\u0441\u043d\u043e\u0434\u0430\u0440\u0441\u043a\u0438\u0439 \u043a\u0440\u0430\u0439","min_zoom":4.0,"name:fi":"Krasnodarin aluepiiri","name:es":"Krai de Krasnodar"},"coordinates":[3080,2827]},{"type":"Point","properties":{"source":"naturalearthdata.com","kind":"locality","name":"Timashevsk","population":44024,"min_zoom":7.0,"id":2903},"coordinates":[2842,2230]},{"type":"Point","properties":{"name:pt":"Slaviansk do Kuban","name:ro":"Slaviansk-na-Kubani","name:nl":"Slavjansk aan de Koeban","name:sr":"\u0421\u043b\u0430\u0432\u0458\u0430\u043d\u0441\u043a \u043d\u0430 \u041a\u0443\u0431\u0430\u043d\u0443","name:ar":"\u0633\u0644\u0627\u0641\u064a\u0627\u0646\u0633\u0643-\u0646\u0627-\u0643\u0648\u0628\u0627\u0646\u064a","kind":"locality","min_zoom":8.0,"name:az":"Slavyansk-na-Kubani","name:it":"Slavjansk-na-Kubani","name:uk":"\u0421\u043b\u043e\u0432'\u044f\u043d\u0441\u044c\u043a-\u043d\u0430-\u041a\u0443\u0431\u0430\u043d\u0456","old_name":"\u0415\u043d\u0438-\u041a\u043e\u043f\u044b\u043b, \u041a\u043e\u043f\u044b\u043b, \u041a\u043e\u043f\u044b\u043b\u044c\u0441\u043a\u0430\u044f \u0441\u0442\u0430\u043d\u0438\u0446\u0430, \u0421\u043b\u0430\u0432\u044f\u043d\u0441\u043a\u0430\u044f \u0441\u0442\u0430\u043d\u0438\u0446\u0430","name:be":"\u0421\u043b\u0430\u0432\u044f\u043d\u0441\u043a-\u043d\u0430-\u041a\u0443\u0431\u0430\u043d\u0456","name:pl":"S\u0142awia\u0144sk nad Kubaniem","name:bg":"\u0421\u043b\u0430\u0432\u044f\u043d\u0441\u043a \u043d\u0430 \u041a\u0443\u0431\u0430\u043d","id":29750243,"population":65380,"name:eo":"Slavjansk-na-Kubani","name:en":"Slavyansk-na-Kubani","name":"\u0421\u043b\u0430\u0432\u044f\u043d\u0441\u043a-\u043d\u0430-\u041a\u0443\u0431\u0430\u043d\u0438","kind_detail":"town","name:de":"Slawjansk-na-Kubani","source":"openstreetmap.org","name:fr":"Slaviansk-na-Koubani","name:et":"Slavjansk-na-Kubani","name:es":"Slaviansk-na-Kubani"},"coordinates":[454,708]},{"type":"Point","properties":{"kind":"locality","name:ro":"Tima\u0219evsk","name":"\u0422\u0438\u043c\u0430\u0448\u0451\u0432\u0441\u043a","name:lt":"Tima\u0161ievskas","kind_detail":"town","name:eo":"Tima\u015devsk","name:de":"Timaschewsk","source":"openstreetmap.org","min_zoom":8.0,"name:en":"Timashevsk","name:az":"Tima\u015fevsk","name:uk":"\u0422\u0438\u043c\u0430\u0448\u0435\u0432\u0441\u044c\u043a","name:pl":"Timaszewsk","id":253814474,"population":52641},"coordinates":[2859,2178]},{"type":"Point","properties":{"kind":"locality","name:en":"Dinskaya","name":"\u0414\u0438\u043d\u0441\u043a\u0430\u044f","kind_detail":"town","name:de":"Dinskaja","source":"openstreetmap.org","min_zoom":8.0,"name:es":"Dinskaya","name:uk":"\u0414\u0456\u043d\u0441\u044c\u043a\u0430","id":295754500,"name:ca":"Dinskaia","population":34848},"coordinates":[3659,532]},{"type":"Point","properties":{"kind":"locality","name:en":"Primorsko-Akhtarsk","name":"\u041f\u0440\u0438\u043c\u043e\u0440\u0441\u043a\u043e-\u0410\u0445\u0442\u0430\u0440\u0441\u043a","kind_detail":"town","name:de":"Primorsko-Achtarsk","source":"openstreetmap.org","min_zoom":8.0,"old_name":"\u043f. \u0410\u0445\u0442\u0430\u0440\u0441\u043a\u0438\u0439,\u0441\u0442-\u0446\u0430 \u041f\u0440\u0438\u043c\u043e\u0440\u0441\u043a\u043e-\u0410\u0445\u0442\u0430\u0440\u0441\u043a\u0430\u044f","id":29866496,"population":31887},"coordinates":[609,3991]},{"type":"Point","properties":{"kind":"locality","name:en":"Poltavskaya","name":"\u041f\u043e\u043b\u0442\u0430\u0432\u0441\u043a\u0430\u044f","kind_detail":"town","name:de":"Poltawskaja","source":"openstreetmap.org","min_zoom":8.0,"name:uk":"\u041f\u043e\u043b\u0442\u0430\u0432\u0441\u044c\u043a\u0430","old_name":"\u041a\u0440\u0430\u0441\u043d\u043e\u0430\u0440\u043c\u0435\u0439\u0441\u043a\u0430\u044f (1933\u20141994)","id":296086291,"population":26490},"coordinates":[718,1136]},{"type":"Point","properties":{"kind":"locality","name:en":"Novotitarovskaya","name":"\u041d\u043e\u0432\u043e\u0442\u0438\u0442\u0430\u0440\u043e\u0432\u0441\u043a\u0430\u044f","kind_detail":"town","source":"openstreetmap.org","min_zoom":8.0,"id":298080404,"population":24754},"coordinates":[2920,612]},{"type":"Point","properties":{"kind":"locality","name:en":"Bryukhovetskaya","name":"\u0411\u0440\u044e\u0445\u043e\u0432\u0435\u0446\u043a\u0430\u044f","kind_detail":"town","name:de":"Brjuchowezkaja","source":"openstreetmap.org","min_zoom":8.0,"name:uk":"\u0411\u0440\u044e\u0445\u043e\u0432\u0435\u0446\u044c\u043a\u0430","id":296886272,"population":22024},"coordinates":[3017,2961]},{"type":"Point","properties":{"kind":"locality","name:en":"Medvyodovskaya","name":"\u041c\u0435\u0434\u0432\u0435\u0434\u043e\u0432\u0441\u043a\u0430\u044f","kind_detail":"town","name:de":"Medwedowskaja","source":"openstreetmap.org","min_zoom":8.0,"id":297851423,"population":16793},"coordinates":[3053,1513]},{"type":"Point","properties":{"kind":"locality","name:en":"Starovelichkovskaya","name":"\u0421\u0442\u0430\u0440\u043e\u0432\u0435\u043b\u0438\u0447\u043a\u043e\u0432\u0441\u043a\u0430\u044f","kind_detail":"town","source":"openstreetmap.org","min_zoom":8.0,"id":296884986,"population":13459},"coordinates":[2192,1432]},{"type":"Point","properties":{"kind":"locality","name:en":"Kalininskaya","name":"\u041a\u0430\u043b\u0438\u043d\u0438\u043d\u0441\u043a\u0430\u044f","kind_detail":"town","name:de":"Kalininskaja","source":"openstreetmap.org","min_zoom":8.0,"name:uk":"\u041a\u0430\u043b\u0456\u043d\u0456\u043d\u0441\u044c\u043a\u0430","id":296884989,"population":13391},"coordinates":[2013,1651]},{"type":"Point","properties":{"kind":"locality","name:en":"Maryanskaya","name":"\u041c\u0430\u0440\u044c\u044f\u043d\u0441\u043a\u0430\u044f","kind_detail":"town","name:de":"Marjanskaja","source":"openstreetmap.org","min_zoom":8.0,"name:uk":"\u041c\u0430\u0440'\u044f\u043d\u0441\u044c\u043a\u0430","old_name":"\u041c\u0430\u0440\u044c\u0438\u043d\u0441\u043a\u0430\u044f","id":587677249,"name:es":"M\u00e1rianskaya","population":10643},"coordinates":[1954,64]},{"type":"Point","properties":{"kind":"locality","name:en":"Staromyshastovskaya","name":"\u0421\u0442\u0430\u0440\u043e\u043c\u044b\u0448\u0430\u0441\u0442\u043e\u0432\u0441\u043a\u0430\u044f","kind_detail":"town","name:de":"Staromyschastowskaja","source":"openstreetmap.org","min_zoom":8.0,"id":2034381166,"name:es":"Staromyshastovskaya","population":10610},"coordinates":[3216,1053]},{"type":"Point","properties":{"kind":"locality","name:en":"Plastunovskaya","name":"\u041f\u043b\u0430\u0441\u0442\u0443\u043d\u043e\u0432\u0441\u043a\u0430\u044f","kind_detail":"town","name:de":"Plastunowskaja","source":"openstreetmap.org","min_zoom":8.0,"name:uk":"\u041f\u043b\u0430\u0441\u0442\u0443\u043d\u043e\u0432\u0441\u044c\u043a\u0430","id":295385847,"name:es":"Plastun\u00f3vskaya","population":10264},"coordinates":[3779,862]},{"type":"Point","properties":{"kind":"locality","name:en":"Novomyshastovskaya","name":"\u041d\u043e\u0432\u043e\u043c\u044b\u0448\u0430\u0441\u0442\u043e\u0432\u0441\u043a\u0430\u044f","kind_detail":"town","name:de":"Nowomyschastowskaja","source":"openstreetmap.org","min_zoom":8.0,"name:ca":"Novomix\u00e0stovskaia","name:uk":"\u041d\u043e\u0432\u043e\u043c\u0438\u0448\u0430\u0441\u0442\u043e\u0432\u0441\u044c\u043a\u0430","name:hy":"\u0546\u0578\u057e\u0578\u0574\u056b\u0577\u0561\u057d\u057f\u0578\u057e\u057d\u056f\u0561\u0575\u0561","id":295730787,"name:es":"Novomyshastovskaya","population":10032},"coordinates":[1779,457]},{"type":"Point","properties":{"kind":"locality","name:en":"Ivanovskaya","name":"\u0418\u0432\u0430\u043d\u043e\u0432\u0441\u043a\u0430\u044f","kind_detail":"town","name:de":"Iwanowskaja","source":"openstreetmap.org","min_zoom":8.0,"name:uk":"\u0406\u0432\u0430\u043d\u0456\u0432\u0441\u044c\u043a\u0430","name:hy":"\u053b\u057e\u0561\u0576\u0578\u057e\u057d\u056f\u0561\u0575\u0561","id":2148629143,"population":9473},"coordinates":[1443,748]},{"type":"Point","properties":{"kind":"locality","name:en":"Novovelichkovskaya","name":"\u041d\u043e\u0432\u043e\u0432\u0435\u043b\u0438\u0447\u043a\u043e\u0432\u0441\u043a\u0430\u044f","kind_detail":"town","name:de":"Nowoletschikowskaja","source":"openstreetmap.org","min_zoom":8.0,"name:uk":"\u041d\u043e\u0432\u043e\u0432\u0435\u043b\u0438\u0447\u043a\u043e\u0432\u0441\u044c\u043a\u0430","name:hy":"\u0546\u0578\u057e\u0578\u057e\u0565\u056c\u056b\u0579\u056f\u0578\u057e\u057d\u056f\u0561\u0575\u0561","id":2146393965,"name:es":"Novovelichkovskaya","population":9169},"coordinates":[2531,790]},{"type":"Point","properties":{"kind":"locality","name:en":"Pereyaslovskaya","name":"\u041f\u0435\u0440\u0435\u044f\u0441\u043b\u043e\u0432\u0441\u043a\u0430\u044f","kind_detail":"town","source":"openstreetmap.org","min_zoom":8.0,"old_name":"\u041f\u0435\u0440\u0435\u044f\u0441\u043b\u0430\u0432\u0441\u043a\u0430\u044f","id":296886273,"population":8424},"coordinates":[3067,3145]},{"type":"Point","properties":{"kind":"locality","name:en":"Rogovskaya","name":"\u0420\u043e\u0433\u043e\u0432\u0441\u043a\u0430\u044f","kind_detail":"town","name:de":"Rogowskaja","source":"openstreetmap.org","min_zoom":8.0,"name:uk":"\u0420\u043e\u0433\u0456\u0432\u0441\u044c\u043a\u0430","id":298761165,"name:es":"Rogovskaya","population":7864},"coordinates":[2245,2686]}]},"transit":{"type":"GeometryCollection","geometries":[{"type":"LineString","properties":{"kind":"train","sort_rank":275,"source":"openstreetmap.org","min_zoom":6.0,"operator":"\u0420\u0416\u0414","ref":"677\/678 \u0412\u043b\u0430\u0434\u0438\u043a\u0430\u0432\u043a\u0430\u0437 \u2014 \u041d\u043e\u0432\u043e\u0440\u043e\u0441\u0441\u0438\u0439\u0441\u043a","id":-2504082,"osm_relation":true},"arcs":[0]},{"type":"LineString","properties":{"source":"openstreetmap.org","kind":"train","network":"\u0420\u0416\u0414","sort_rank":275,"ref":"\u044d\u043b. \u041a\u0440\u0430\u0441\u043d\u043e\u0434\u0430\u0440 \u2014 \u0420\u043e\u0441\u0442\u043e\u0432","min_zoom":6.0,"osm_relation":true},"arcs":[1]},{"type":"MultiLineString","properties":{"kind":"train","network":"\u0420\u0416\u0414","sort_rank":275,"source":"openstreetmap.org","min_zoom":6.0,"operator":"\u041a\u0443\u0431\u0430\u043d\u044c \u042d\u043a\u0441\u043f\u0440\u0435\u0441\u0441-\u041f\u0440\u0438\u0433\u043e\u0440\u043e\u0434","ref":"\u041a\u0440\u0430\u0441\u043d\u043e\u0434\u0430\u0440 - \u0422\u0438\u0445\u043e\u0440\u0435\u0446\u043a\u0430\u044f","osm_relation":true,"name":"\u041f\u043e\u0435\u0437\u0434: \u041a\u0440\u0430\u0441\u043d\u043e\u0434\u0430\u0440 - \u0422\u0438\u0445\u043e\u0440\u0435\u0446\u043a\u0430\u044f"},"arcs":[[2],[3],[4],[5]]},{"type":"MultiLineString","properties":{"kind":"train","network":"\u0420\u0416\u0414","sort_rank":275,"source":"openstreetmap.org","min_zoom":6.0,"ref":"\u044d\u043b. \u041a\u0440\u0430\u0441\u043d\u043e\u0434\u0430\u0440 - \u0410\u0440\u043c\u0430\u0432\u0438\u0440","id":-303006,"osm_relation":true},"arcs":[[6],[7],[8],[9],[10],[11],[12],[13],[14]]},{"type":"LineString","properties":{"kind":"train","network":"\u0420\u0416\u0414","sort_rank":275,"source":"openstreetmap.org","min_zoom":6.0,"operator":"\u041a\u0443\u0431\u0430\u043d\u044c \u042d\u043a\u0441\u043f\u0440\u0435\u0441\u0441-\u041f\u0440\u0438\u0433\u043e\u0440\u043e\u0434","ref":"\u041a\u0440\u0430\u0441\u043d\u043e\u0434\u0430\u0440 - \u041c\u0438\u043d\u0435\u0440\u0430\u043b\u044c\u043d\u044b\u0435 \u0412\u043e\u0434\u044b","id":-2313103,"osm_relation":true,"name":"\u041f\u043e\u0435\u0437\u0434 \u041a\u0440\u0430\u0441\u043d\u043e\u0434\u0430\u0440 - \u041c\u0438\u043d\u0435\u0440\u0430\u043b\u044c\u043d\u044b\u0435 \u0412\u043e\u0434\u044b"},"arcs":[15]},{"type":"LineString","properties":{"kind":"train","name":"\u0410\u0434\u043b\u0435\u0440 \u2014 \u041f\u0435\u0440\u043c\u044c 2","sort_rank":275,"name:de":"Adler \u2014 Perm 2","source":"openstreetmap.org","min_zoom":6.0,"operator":"\u0420\u0416\u0414","ref":"354\u0421","osm_relation":true},"arcs":[16]},{"type":"MultiLineString","properties":{"kind":"train","network":"\u0420\u0416\u0414","sort_rank":275,"source":"openstreetmap.org","min_zoom":6.0,"ref":"151\/1 \u041c\u043e\u0441\u043a\u0432\u0430 \u2014 \u0410\u043d\u0430\u043f\u0430","osm_relation":true,"name":"\u041c\u043e\u0441\u043a\u0432\u0430 \u2014 \u0410\u043d\u0430\u043f\u0430"},"arcs":[[17],[18],[19]]}]},"pois":{"type":"GeometryCollection","geometries":[{"type":"Point","properties":{"source":"openstreetmap.org","kind":"military","name":"\u0410\u0432\u0438\u0430\u043f\u043e\u043b\u0438\u0433\u043e\u043d","area":90853100,"tier":3,"min_zoom":8.0,"id":134658132},"coordinates":[2165,835]}]},"boundaries":{"type":"GeometryCollection","geometries":[]},"roads":{"type":"GeometryCollection","geometries":[{"type":"LineString","properties":{"kind":"major_road","network":"ru:national","sort_rank":380,"kind_detail":"primary","source":"openstreetmap.org","min_zoom":8.0,"shield_text":"4","ref":"\u041c-4"},"arcs":[24]},{"type":"MultiLineString","properties":{"bus_network":null,"network":"ru:regional","sort_rank":380,"kind_detail":"primary","kind":"major_road","source":"openstreetmap.org","min_zoom":8.0,"bus_shield_text":"103","shield_text":"03\u041a","ref":"03\u041a-001"},"arcs":[[25],[26],[27],[28],[29],[30]]},{"type":"LineString","properties":{"kind":"major_road","network":"ru:regional","sort_rank":380,"kind_detail":"primary","bus_network":null,"source":"openstreetmap.org","min_zoom":8.0,"bus_shield_text":"107","shield_text":"03\u041d","landuse_kind":"urban_area","ref":"03\u041d-191","id":351594068},"arcs":[31]},{"type":"MultiLineString","properties":{"bus_network":null,"network":"ru:national","sort_rank":380,"kind_detail":"primary","kind":"major_road","source":"openstreetmap.org","min_zoom":8.0,"bus_shield_text":"152A","shield_text":"136","landuse_kind":"urban_area","ref":"\u0410-136"},"arcs":[[32],[33]]},{"type":"LineString","properties":{"bus_network":null,"network":"ru:regional","sort_rank":380,"kind_detail":"primary","kind":"major_road","source":"openstreetmap.org","min_zoom":8.0,"bus_shield_text":"103","shield_text":"03\u041a","landuse_kind":"urban_area"},"arcs":[34]},{"type":"LineString","properties":{"bus_network":null,"network":"ru:regional","sort_rank":380,"kind_detail":"primary","kind":"major_road","source":"openstreetmap.org","min_zoom":8.0,"bus_shield_text":"777","shield_text":"03\u041a","ref":"03\u041a-001"},"arcs":[35]},{"type":"MultiLineString","properties":{"kind":"major_road","network":"ru:regional","sort_rank":380,"kind_detail":"primary","source":"openstreetmap.org","min_zoom":8.0,"shield_text":"03\u041a","ref":"03\u041a-001"},"arcs":[[36],[37],[38],[39],[40],[41],[42],[43],[44],[45]]},{"type":"LineString","properties":{"bus_network":null,"network":"ru:national","sort_rank":381,"kind_detail":"trunk","kind":"major_road","source":"openstreetmap.org","min_zoom":8.0,"bus_shield_text":"107","shield_text":"4","ref":"\u041c-4"},"arcs":[46]},{"type":"LineString","properties":{"kind":"major_road","network":"ru:regional","sort_rank":380,"kind_detail":"primary","source":"openstreetmap.org","min_zoom":8.0,"shield_text":"03\u041a","ref":"03\u041a-016"},"arcs":[47]},{"type":"LineString","properties":{"kind":"major_road","name:en":"Pervomayskaya Street","network":"ru:regional","sort_rank":380,"kind_detail":"primary","source":"openstreetmap.org","min_zoom":8.0,"shield_text":"03\u041a","ref":"03\u041a-015"},"arcs":[48]},{"type":"MultiLineString","properties":{"kind":"major_road","network":"ru:regional","sort_rank":380,"kind_detail":"primary","source":"openstreetmap.org","min_zoom":8.0,"landuse_kind":"urban_area","shield_text":"03\u041a","ref":"03\u041a-579"},"arcs":[[49],[50]]},{"type":"MultiLineString","properties":{"kind":"major_road","name:en":"Rynochnaya Street","network":"ru:regional","sort_rank":380,"kind_detail":"primary","source":"openstreetmap.org","min_zoom":8.0,"shield_text":"03\u041a","ref":"03\u041a-579"},"arcs":[[51],[52]]},{"type":"LineString","properties":{"kind":"major_road","network":"ru:regional","sort_rank":380,"kind_detail":"primary","source":"openstreetmap.org","min_zoom":8.0,"landuse_kind":"residential","shield_text":"03\u041d","ref":"03\u041d-191","id":31302243},"arcs":[53]},{"type":"MultiLineString","properties":{"kind":"major_road","network":"ru:regional","sort_rank":380,"kind_detail":"primary","source":"openstreetmap.org","min_zoom":8.0,"landuse_kind":"urban_area","shield_text":"03\u041a","ref":"03\u041a-001"},"arcs":[[54],[55],[56],[57],[58],[59],[60],[61],[62],[63],[64],[65],[66],[67],[68],[69],[70],[71],[72],[73],[74],[75],[76],[77],[78],[79],[80],[81]]},{"type":"MultiLineString","properties":{"bus_network":null,"name:en":"Rostovskoye shosse","network":"ru:national","sort_rank":380,"kind_detail":"primary","kind":"major_road","source":"openstreetmap.org","min_zoom":8.0,"bus_shield_text":"107","shield_text":"136","ref":"\u0410-136"},"arcs":[[82],[83]]},{"type":"LineString","properties":{"kind":"major_road","name:en":"Krasnaya Street","network":"ru:regional","sort_rank":380,"kind_detail":"primary","source":"openstreetmap.org","min_zoom":8.0,"shield_text":"03\u041d","ref":"03\u041d-191","id":31304277},"arcs":[84]},{"type":"MultiLineString","properties":{"bus_network":null,"name:en":"Dzerzhinskogo Street","sort_rank":380,"kind_detail":"primary","kind":"major_road","source":"openstreetmap.org","min_zoom":8.0,"bus_shield_text":"2","landuse_kind":"urban_area"},"arcs":[[85],[86]]},{"type":"MultiLineString","properties":{"bus_network":null,"network":"ru:regional","sort_rank":380,"kind_detail":"primary","kind":"major_road","source":"openstreetmap.org","min_zoom":8.0,"bus_shield_text":"152A","shield_text":"03\u041a","landuse_kind":"urban_area","ref":"03\u041a-001"},"arcs":[[87],[88]]},{"type":"LineString","properties":{"bus_network":null,"name:en":"Shirokaya Street","network":"ru:regional","sort_rank":380,"kind_detail":"primary","kind":"major_road","source":"openstreetmap.org","min_zoom":8.0,"bus_shield_text":"103","shield_text":"03\u041a","ref":"03\u041a-001"},"arcs":[89]},{"type":"LineString","properties":{"kind":"major_road","network":"ru:regional","sort_rank":380,"kind_detail":"primary","bus_network":null,"source":"openstreetmap.org","min_zoom":8.0,"bus_shield_text":"103","shield_text":"03\u041a","id":75870595},"arcs":[90]},{"type":"LineString","properties":{"bus_network":"\u041c\u043e\u0441\u043a\u0432\u0430 - \u041a\u0440\u0430\u0441\u043d\u043e\u0434\u0430\u0440","network":"ru:national","sort_rank":381,"landuse_kind":"residential","kind":"major_road","source":"openstreetmap.org","min_zoom":8.0,"bus_shield_text":"401","shield_text":"4","kind_detail":"trunk","ref":"\u041c-4"},"arcs":[91]},{"type":"LineString","properties":{"kind":"major_road","name:en":"Pervomayskaya Street","network":"ru:regional","sort_rank":380,"kind_detail":"primary","source":"openstreetmap.org","min_zoom":8.0,"landuse_kind":"urban_area","shield_text":"03\u041a","ref":"03\u041a-015"},"arcs":[92]},{"type":"MultiLineString","properties":{"kind":"major_road","network":"ru:national","sort_rank":380,"kind_detail":"primary","source":"openstreetmap.org","min_zoom":8.0,"landuse_kind":"urban_area","shield_text":"136","ref":"\u0410-136"},"arcs":[[93],[94],[95],[96],[97],[98],[99],[100],[101],[102],[103]]},{"type":"LineString","properties":{"kind":"major_road","name:en":"Krasnaya Street","network":"ru:regional","sort_rank":380,"landuse_kind":"urban_area","name:de":"Krasnaja uliza","source":"openstreetmap.org","min_zoom":8.0,"kind_detail":"primary","shield_text":"03\u041d","ref":"03\u041d-191"},"arcs":[104]},{"type":"MultiLineString","properties":{"source":"openstreetmap.org","kind":"major_road","landuse_kind":"urban_area","sort_rank":380,"kind_detail":"primary","min_zoom":8.0},"arcs":[[105],[106],[107],[108],[109],[110],[111]]},{"type":"MultiLineString","properties":{"bus_network":null,"network":"ru:regional","sort_rank":380,"kind_detail":"primary","kind":"major_road","source":"openstreetmap.org","min_zoom":8.0,"bus_shield_text":"152A","shield_text":"03\u041a","ref":"03\u041a-001"},"arcs":[[112],[113]]},{"type":"LineString","properties":{"bus_network":null,"network":"ru:regional","sort_rank":380,"kind_detail":"primary","kind":"major_road","source":"openstreetmap.org","min_zoom":8.0,"bus_shield_text":"103","shield_text":"03\u041a","landuse_kind":"urban_area","ref":"03\u041a-001"},"arcs":[114]},{"type":"LineString","properties":{"kind":"major_road","network":"ru:national","sort_rank":380,"kind_detail":"primary","bus_network":null,"source":"openstreetmap.org","min_zoom":8.0,"bus_shield_text":"107","shield_text":"4","ref":"\u041c-4","id":323815782},"arcs":[115]},{"type":"LineString","properties":{"bus_network":null,"network":"ru:regional","sort_rank":380,"kind_detail":"primary","kind":"major_road","source":"openstreetmap.org","min_zoom":8.0,"bus_shield_text":"121","shield_text":"03\u041a","landuse_kind":"urban_area","ref":"03\u041a-001"},"arcs":[116]},{"type":"MultiLineString","properties":{"bus_network":null,"name:en":"Rostovskoye shosse","network":"ru:national","sort_rank":380,"kind_detail":"primary","kind":"major_road","source":"openstreetmap.org","min_zoom":8.0,"bus_shield_text":"107","shield_text":"136","landuse_kind":"urban_area","ref":"\u0410-136"},"arcs":[[117],[118]]},{"type":"MultiLineString","properties":{"bus_network":null,"network":"ru:regional","sort_rank":380,"kind_detail":"primary","kind":"major_road","source":"openstreetmap.org","min_zoom":8.0,"bus_shield_text":"1","shield_text":"03\u041a","ref":"03\u041a-001"},"arcs":[[119],[120]]},{"type":"LineString","properties":{"bus_network":null,"network":"ru:national","sort_rank":380,"kind_detail":"primary","kind":"major_road","source":"openstreetmap.org","min_zoom":8.0,"bus_shield_text":"107","shield_text":"136","ref":"\u0410-136"},"arcs":[121]},{"type":"LineString","properties":{"kind":"major_road","network":"ru:national","sort_rank":380,"kind_detail":"primary","source":"openstreetmap.org","min_zoom":8.0,"landuse_kind":"urban_area","shield_text":"4","ref":"\u041c-4"},"arcs":[122]},{"type":"MultiLineString","properties":{"sort_rank":380,"kind_detail":"primary","min_zoom":8.0,"kind":"major_road","source":"openstreetmap.org"},"arcs":[[123],[124],[125],[126],[127],[128],[129],[130],[131],[132],[133],[134],[135],[136],[137]]},{"type":"MultiLineString","properties":{"kind":"major_road","network":"ru:national","sort_rank":381,"kind_detail":"trunk","source":"openstreetmap.org","min_zoom":8.0,"shield_text":"4","ref":"\u041c-4"},"arcs":[[138],[139],[140],[141]]},{"type":"LineString","properties":{"kind":"major_road","network":"ru:national","sort_rank":381,"kind_detail":"trunk","bus_network":null,"source":"openstreetmap.org","min_zoom":8.0,"bus_shield_text":"107","shield_text":"4","landuse_kind":"urban_area","ref":"\u041c-4","id":371951682},"arcs":[142]},{"type":"LineString","properties":{"kind":"major_road","name:en":"Revolyutsionnaya Street","network":"ru:regional","sort_rank":380,"kind_detail":"primary","source":"openstreetmap.org","min_zoom":8.0,"landuse_kind":"urban_area","shield_text":"03\u041d","ref":"03\u041d-191","id":31304349},"arcs":[143]},{"type":"LineString","properties":{"bus_network":null,"name:en":"Krasnaya Street","network":"ru:regional","sort_rank":380,"kind_detail":"primary","kind":"major_road","source":"openstreetmap.org","min_zoom":8.0,"bus_shield_text":"107","shield_text":"03\u041d","ref":"03\u041d-191"},"arcs":[144]},{"type":"MultiLineString","properties":{"kind":"major_road","network":"ru:regional","sort_rank":380,"kind_detail":"primary","source":"openstreetmap.org","min_zoom":8.0,"landuse_kind":"urban_area","shield_text":"03\u041a"},"arcs":[[145],[146]]},{"type":"LineString","properties":{"kind":"major_road","name:en":"Krasnaya Street","network":"ru:regional","sort_rank":380,"kind_detail":"primary","bus_network":null,"source":"openstreetmap.org","min_zoom":8.0,"bus_shield_text":"107","shield_text":"03\u041d","landuse_kind":"urban_area","ref":"03\u041d-191","id":36813282},"arcs":[147]},{"type":"MultiLineString","properties":{"kind":"major_road","network":"ru:regional","sort_rank":380,"kind_detail":"primary","source":"openstreetmap.org","min_zoom":8.0,"shield_text":"03\u041a","ref":"03\u041a-579"},"arcs":[[148],[149],[150],[151],[152],[153],[154],[155],[156],[157],[158],[159],[160],[161],[162],[163],[164],[165],[166],[167],[168],[169],[170],[171],[172],[173],[174],[175],[176],[177],[178],[179],[180],[181],[182],[183],[184],[185],[186],[187],[188],[189],[190],[191],[192],[193],[194]]},{"type":"MultiLineString","properties":{"kind":"major_road","network":"ru:regional","sort_rank":380,"kind_detail":"primary","source":"openstreetmap.org","min_zoom":8.0,"shield_text":"03\u041a","ref":"03\u041a-015"},"arcs":[[195],[196],[197],[198],[199],[200],[201],[202]]},{"type":"MultiLineString","properties":{"kind":"major_road","network":"ru:regional","sort_rank":380,"kind_detail":"primary","source":"openstreetmap.org","min_zoom":8.0,"shield_text":"03\u041d","ref":"03\u041d-191"},"arcs":[[203],[204]]},{"type":"LineString","properties":{"kind":"major_road","name:en":"Rostovskoye shosse","network":"ru:national","sort_rank":380,"kind_detail":"primary","source":"openstreetmap.org","min_zoom":8.0,"landuse_kind":"urban_area","shield_text":"136","ref":"\u0410-136"},"arcs":[205]},{"type":"LineString","properties":{"kind":"major_road","name:en":"Telmana Street","network":"ru:regional","sort_rank":380,"kind_detail":"primary","source":"openstreetmap.org","min_zoom":8.0,"shield_text":"03\u041d","ref":"03\u041d-191","id":31304348},"arcs":[206]},{"type":"LineString","properties":{"kind":"major_road","name:en":"Krasnaya Street","network":"ru:regional","sort_rank":380,"kind_detail":"primary","name:de":"Krasnaja uliza","source":"openstreetmap.org","min_zoom":8.0,"shield_text":"03\u041d","ref":"03\u041d-191","id":117226879},"arcs":[207]},{"type":"LineString","properties":{"source":"openstreetmap.org","kind":"major_road","name:en":"Krasnodarskaya Street","sort_rank":380,"kind_detail":"primary","min_zoom":8.0,"id":240501385},"arcs":[208]},{"type":"LineString","properties":{"source":"openstreetmap.org","kind":"major_road","landuse_kind":"residential","sort_rank":380,"kind_detail":"primary","min_zoom":8.0},"arcs":[209]},{"type":"LineString","properties":{"kind":"major_road","network":"ru:national","sort_rank":381,"kind_detail":"trunk","bus_network":"\u041c\u043e\u0441\u043a\u0432\u0430 - \u041a\u0440\u0430\u0441\u043d\u043e\u0434\u0430\u0440","source":"openstreetmap.org","min_zoom":8.0,"bus_shield_text":"401","shield_text":"4","landuse_kind":"urban_area","ref":"\u041c-4","id":289566087},"arcs":[210]},{"type":"LineString","properties":{"kind":"major_road","name:en":"Chapayeva Street","network":"ru:regional","sort_rank":380,"kind_detail":"primary","source":"openstreetmap.org","min_zoom":8.0,"landuse_kind":"urban_area","shield_text":"03\u041d","ref":"03\u041d-191","id":117226892},"arcs":[211]},{"type":"LineString","properties":{"source":"openstreetmap.org","kind":"major_road","name:en":"Pobedy Street","sort_rank":380,"kind_detail":"primary","min_zoom":8.0,"id":99697476},"arcs":[212]},{"type":"MultiLineString","properties":{"bus_network":"\u041c\u043e\u0441\u043a\u0432\u0430 - \u041a\u0440\u0430\u0441\u043d\u043e\u0434\u0430\u0440","network":"ru:national","sort_rank":381,"kind_detail":"trunk","kind":"major_road","source":"openstreetmap.org","min_zoom":8.0,"bus_shield_text":"401","shield_text":"4","ref":"\u041c-4"},"arcs":[[213],[214],[215]]},{"type":"LineString","properties":{"kind":"major_road","network":"ru:regional","sort_rank":380,"kind_detail":"primary","source":"openstreetmap.org","min_zoom":8.0,"landuse_kind":"urban_area","shield_text":"03\u041d","ref":"03\u041d-191","id":146738195},"arcs":[216]},{"type":"LineString","properties":{"kind":"major_road","network":"ru:national","sort_rank":381,"kind_detail":"trunk","source":"openstreetmap.org","min_zoom":8.0,"landuse_kind":"urban_area","shield_text":"4","ref":"\u041c-4","id":139074961},"arcs":[217]},{"type":"LineString","properties":{"kind":"major_road","network":"ru:regional","sort_rank":380,"kind_detail":"primary","bus_network":null,"source":"openstreetmap.org","min_zoom":8.0,"bus_shield_text":"1","shield_text":"03\u041a","landuse_kind":"urban_area","id":32870018},"arcs":[218]},{"type":"MultiLineString","properties":{"bus_network":null,"name:en":"Dzerzhinskogo Street","sort_rank":380,"kind_detail":"primary","kind":"major_road","source":"openstreetmap.org","min_zoom":8.0,"bus_shield_text":"121","landuse_kind":"urban_area"},"arcs":[[219],[220]]},{"type":"LineString","properties":{"kind":"major_road","sort_rank":380,"kind_detail":"primary","bus_network":null,"source":"openstreetmap.org","min_zoom":8.0,"bus_shield_text":"1","landuse_kind":"urban_area","id":31044868},"arcs":[221]},{"type":"MultiLineString","properties":{"bus_network":null,"name:en":"Rostovskoye shosse","network":"ru:national","sort_rank":380,"kind_detail":"primary","kind":"major_road","source":"openstreetmap.org","min_zoom":8.0,"bus_shield_text":"152A","shield_text":"136","landuse_kind":"urban_area","ref":"\u0410-136"},"arcs":[[222],[223],[224]]},{"type":"LineString","properties":{"kind":"major_road","network":"ru:national","sort_rank":381,"kind_detail":"trunk","source":"openstreetmap.org","min_zoom":8.0,"landuse_kind":"residential","shield_text":"4","ref":"\u041c-4"},"arcs":[225]},{"type":"LineString","properties":{"kind":"major_road","name:en":"Krasnaya Street","network":"ru:regional","sort_rank":380,"kind_detail":"primary","source":"openstreetmap.org","min_zoom":8.0,"landuse_kind":"urban_area","shield_text":"03\u041d","ref":"03\u041d-191","id":31304277},"arcs":[226]},{"type":"MultiLineString","properties":{"source":"openstreetmap.org","kind":"major_road","name:en":"Festivalnaya Street","sort_rank":380,"kind_detail":"primary","min_zoom":8.0},"arcs":[[227],[228],[229]]},{"type":"MultiLineString","properties":{"kind":"major_road","network":"ru:regional","sort_rank":380,"kind_detail":"primary","source":"openstreetmap.org","min_zoom":8.0,"landuse_kind":"urban_area","shield_text":"03\u041a","ref":"03\u041a-015"},"arcs":[[230],[231],[232]]},{"type":"LineString","properties":{"kind":"major_road","name:en":"Zheleznodorozhnaya Street","network":"ru:regional","sort_rank":380,"landuse_kind":"urban_area","source":"openstreetmap.org","min_zoom":8.0,"kind_detail":"primary","shield_text":"03\u041d","ref":"03\u041d-191"},"arcs":[233]},{"type":"MultiLineString","properties":{"kind":"major_road","network":"ru:regional","sort_rank":380,"kind_detail":"primary","source":"openstreetmap.org","min_zoom":8.0,"landuse_kind":"residential","shield_text":"03\u041a","ref":"03\u041a-579"},"arcs":[[234],[235],[236],[237]]},{"type":"MultiLineString","properties":{"kind":"major_road","network":"ru:regional","sort_rank":380,"kind_detail":"primary","source":"openstreetmap.org","min_zoom":8.0,"landuse_kind":"urban_area","shield_text":"03\u041a","ref":"03\u041a-580"},"arcs":[[238],[239],[240],[241],[242],[243],[244],[245],[246],[247],[248],[249],[250],[251]]},{"type":"MultiLineString","properties":{"bus_network":null,"name:en":"Dzerzhinskogo Street","network":"ru:regional","sort_rank":380,"kind_detail":"primary","kind":"major_road","source":"openstreetmap.org","min_zoom":8.0,"bus_shield_text":"121","shield_text":"03\u041a","landuse_kind":"urban_area","ref":"03\u041a-580"},"arcs":[[252],[253],[254],[255],[256],[257],[258],[259],[260],[261]]},{"type":"LineString","properties":{"kind":"major_road","name:en":"Telmana Street","network":"ru:regional","sort_rank":380,"kind_detail":"primary","source":"openstreetmap.org","min_zoom":8.0,"landuse_kind":"urban_area","shield_text":"03\u041d","ref":"03\u041d-191","id":31304348},"arcs":[262]},{"type":"LineString","properties":{"bus_network":null,"name:en":"Krasnaya Street","sort_rank":380,"landuse_kind":"urban_area","kind":"major_road","source":"openstreetmap.org","min_zoom":8.0,"bus_shield_text":"1","kind_detail":"primary"},"arcs":[263]},{"type":"LineString","properties":{"kind":"major_road","name:en":"Pobedy Street","network":"ru:regional","sort_rank":380,"kind_detail":"primary","source":"openstreetmap.org","min_zoom":8.0,"landuse_kind":"urban_area","shield_text":"03\u041a","ref":"03\u041a-015","id":50668912},"arcs":[264]},{"type":"LineString","properties":{"kind":"major_road","name:en":"Proletarskaya Street","sort_rank":380,"landuse_kind":"urban_area","source":"openstreetmap.org","min_zoom":8.0,"kind_detail":"primary","id":31044953},"arcs":[265]},{"type":"MultiLineString","properties":{"bus_network":null,"network":"ru:regional","sort_rank":380,"kind_detail":"primary","kind":"major_road","source":"openstreetmap.org","min_zoom":8.0,"bus_shield_text":"1","shield_text":"03\u041a","landuse_kind":"urban_area","ref":"03\u041a-001"},"arcs":[[266],[267]]},{"type":"LineString","properties":{"kind":"major_road","name:en":"Suvorova Street","network":"ru:regional","sort_rank":380,"kind_detail":"primary","source":"openstreetmap.org","min_zoom":8.0,"shield_text":"03\u041d","ref":"03\u041d-191","id":384317572},"arcs":[268]},{"type":"LineString","properties":{"kind":"major_road","network":"ru:regional","sort_rank":380,"kind_detail":"primary","bus_network":null,"source":"openstreetmap.org","min_zoom":8.0,"bus_shield_text":"121","shield_text":"03\u041a","landuse_kind":"urban_area","ref":"03\u041a-580","id":27259418},"arcs":[269]},{"type":"LineString","properties":{"kind":"major_road","name:en":"Rostovskoye shosse","network":"ru:national","sort_rank":380,"kind_detail":"primary","bus_network":null,"source":"openstreetmap.org","min_zoom":8.0,"bus_shield_text":"107","shield_text":"4","ref":"\u041c-4","id":546090893},"arcs":[270]},{"type":"LineString","properties":{"bus_network":null,"name:en":"Shirokaya Street","network":"ru:regional","sort_rank":380,"kind_detail":"primary","kind":"major_road","source":"openstreetmap.org","min_zoom":8.0,"bus_shield_text":"103","shield_text":"03\u041a","landuse_kind":"urban_area","ref":"03\u041a-001"},"arcs":[271]},{"type":"LineString","properties":{"kind":"major_road","name:en":"Komarova Street","sort_rank":380,"landuse_kind":"urban_area","source":"openstreetmap.org","min_zoom":8.0,"kind_detail":"primary","id":31044956},"arcs":[272]}]},"earth":{"type":"GeometryCollection","geometries":[{"type":"MultiPolygon","properties":{"sort_rank":10,"source":"naturalearthdata.com","min_zoom":0.0,"kind":"earth","area":53581836091},"arcs":[[[273]]]}]},"landuse":{"type":"GeometryCollection","geometries":[{"type":"Polygon","properties":{"kind":"residential","name":"\u0421\u0435\u0440\u0433\u0438\u0435\u0432\u0441\u043a\u0430\u044f","area":10849800,"sort_rank":20,"source":"openstreetmap.org","min_zoom":8.0,"tier":2,"id":53058206},"arcs":[[274]]},{"type":"Polygon","properties":{"kind":"residential","area":49348600,"sort_rank":20,"source":"openstreetmap.org","min_zoom":8.0,"tier":2,"id":-7086510,"osm_relation":true},"arcs":[[275],[276]]},{"type":"Polygon","properties":{"kind":"residential","name:en":"Yuzhny","name":"\u042e\u0436\u043d\u044b\u0439","area":19533100,"sort_rank":20,"source":"openstreetmap.org","min_zoom":8.0,"tier":2,"id":82252068},"arcs":[[277]]},{"type":"Polygon","properties":{"kind":"residential","name":"\u0410\u043d\u0434\u0440\u0435\u0435\u0432\u0441\u043a\u0430\u044f","area":12272700,"sort_rank":20,"source":"openstreetmap.org","min_zoom":8.0,"tier":2,"id":78307913},"arcs":[[278]]},{"type":"Polygon","properties":{"kind":"residential","name":"\u0411\u0440\u0438\u043d\u044c\u043a\u043e\u0432\u0441\u043a\u0430\u044f","area":11099400,"sort_rank":20,"source":"openstreetmap.org","min_zoom":8.0,"tier":2,"id":98991805},"arcs":[[279]]},{"type":"Polygon","properties":{"kind":"residential","name:en":"Starovelichkovskaya","name":"\u0421\u0442\u0430\u0440\u043e\u0432\u0435\u043b\u0438\u0447\u043a\u043e\u0432\u0441\u043a\u0430\u044f","area":33344400,"sort_rank":20,"source":"openstreetmap.org","min_zoom":8.0,"tier":2,"id":45817705},"arcs":[[280]]},{"type":"Polygon","properties":{"kind":"residential","name:en":"Novodzherliyevskaya","name":"\u041d\u043e\u0432\u043e\u0434\u0436\u0435\u0440\u0435\u043b\u0438\u0435\u0432\u0441\u043a\u0430\u044f","area":15149300,"sort_rank":20,"name:de":"Nowodscherelijewskaja","source":"openstreetmap.org","min_zoom":8.0,"name:ca":"Novodjerel\u00edievskaia","name:uk":"\u041d\u043e\u0432\u043e\u0434\u0436\u0435\u0440\u0435\u043b\u0456\u0457\u0432\u0441\u044c\u043a\u0430","name:hy":"\u0546\u0578\u057e\u0578\u057b\u0565\u0580\u0565\u056c\u056b\u0587\u057d\u056f\u0561\u0575\u0561","tier":2,"id":104303182,"name:es":"Novodzherel\u00edyevskaya"},"arcs":[[281]]},{"type":"Polygon","properties":{"kind":"residential","name":"\u041a\u0440\u0430\u0441\u043d\u043e\u0441\u0435\u043b\u044c\u0441\u043a\u043e\u0435","area":15025400,"sort_rank":20,"source":"openstreetmap.org","min_zoom":8.0,"tier":2,"id":32560949},"arcs":[[282]]},{"type":"Polygon","properties":{"source":"openstreetmap.org","kind":"military","area":90853104,"tier":3,"id":134658132,"min_zoom":8.0,"sort_rank":45},"arcs":[[283]]},{"type":"MultiPolygon","properties":{"source":"naturalearthdata.com","kind":"urban_area","name":"","area":1570624280,"sort_rank":11,"min_zoom":4.0},"arcs":[[[284]],[[285]],[[286]],[[287]],[[288]],[[289]],[[290]],[[291]],[[292]],[[293]],[[294]]]},{"type":"Polygon","properties":{"kind":"residential","name":"\u041a\u0430\u043b\u0438\u043d\u0438\u043d\u0441\u043a\u0430\u044f","area":27043700,"sort_rank":20,"source":"openstreetmap.org","min_zoom":8.0,"tier":2,"id":45817704},"arcs":[[295]]},{"type":"Polygon","properties":{"kind":"residential","name":"\u041f\u043b\u0430\u0441\u0442\u0443\u043d\u043e\u0432\u0441\u043a\u0430\u044f","area":24064400,"sort_rank":20,"source":"openstreetmap.org","min_zoom":8.0,"tier":2,"id":31379662},"arcs":[[296]]},{"type":"Polygon","properties":{"source":"openstreetmap.org","kind":"aerodrome","area":15056300,"tier":3,"id":252247590,"min_zoom":8.0,"sort_rank":60},"arcs":[[297]]},{"type":"Polygon","properties":{"kind":"residential","name:en":"Pervorechenskoye","name":"\u041f\u0435\u0440\u0432\u043e\u0440\u0435\u0447\u0435\u043d\u0441\u043a\u043e\u0435","area":10693700,"sort_rank":20,"source":"openstreetmap.org","min_zoom":8.0,"tier":2,"id":45758026},"arcs":[[298]]},{"type":"MultiPolygon","properties":{"source":"openstreetmap.org","kind":"residential","tier":2,"area":239535001,"sort_rank":20,"min_zoom":8.0},"arcs":[[[299]],[[300]],[[301]],[[302]]]},{"type":"Polygon","properties":{"kind":"residential","name:en":"Olginskaya","name":"\u041e\u043b\u044c\u0433\u0438\u043d\u0441\u043a\u0430\u044f","area":13881600,"sort_rank":20,"source":"openstreetmap.org","min_zoom":8.0,"old_name":"\u0445. \u0414\u043e\u0431\u0440\u043e\u0432\u043e\u043b\u044c\u043d\u044b\u0439","tier":2,"id":45817707},"arcs":[[303]]}]}},"type":"Topology","transform":{"translate":[37.96875,45.0890355648],"scale":[0.0003433228,0.000240282]},"arcs":[[[3891,0],[205,96]],[[2974,0],[64,520],[-9,123],[91,325],[-9,173],[-160,449],[-34,199],[30,88],[-46,406],[68,627],[-3,174],[86,201],[-203,811]],[[3338,0],[171,155],[161,286]],[[3670,439],[3,6]],[[3675,448],[13,26]],[[3689,475],[148,305],[259,263]],[[4096,96],[-9,-8]],[[4087,88],[-4,-2]],[[4083,86],[-4,-2]],[[4079,84],[-8,-4]],[[4071,80],[-20,-9]],[[4051,71],[-32,-14]],[[4019,57],[-41,-18]],[[3978,39],[-9,-4]],[[3969,35],[-78,-35]],[[3891,0],[205,96]],[[3338,0],[171,155],[328,625],[259,263]],[[2860,2247],[-67,2],[-107,-83],[-557,-630],[-172,-116],[-561,-297],[-637,-45],[-59,-30],[-122,-330],[-51,-67],[-190,-651]],[[2901,2285],[-17,-37],[-76,3]],[[2901,2284],[68,626],[-3,174],[86,201],[-203,811]],[[1764,4096],[-3,-38],[-19,-87],[-20,-44],[-29,-6],[-32,10],[-38,22],[-35,-4],[-63,-18],[-31,-4],[-104,7],[-54,17],[-53,33],[-119,112],[600,0]],[[565,4096],[0,-55],[-19,-51],[-26,-30],[-24,-44],[-23,-166],[-29,-78],[-37,-61],[-32,-25],[-3,-43],[-65,-244],[-71,-112],[-8,-58],[39,-59],[-61,-44],[-73,10],[-38,58],[41,105],[114,131],[54,82],[22,86],[-1,70],[-7,24],[-42,-6],[-51,12],[-12,31],[12,85],[16,47],[61,87],[5,48],[-23,31],[-33,0],[-65,-31],[21,36],[21,20],[119,60],[28,20],[-19,9],[-155,-14],[-192,-69],[-9,-8],[0,146],[565,0]],[[1764,4096],[-3,-38],[-19,-87],[-20,-44],[-29,-6],[-32,10],[-38,22],[-35,-4],[-63,-18],[-31,-4],[-104,7],[-54,17],[-53,33],[-119,112]],[[565,4096],[0,-55],[-19,-51],[-26,-30],[-24,-44],[-23,-166],[-29,-78],[-37,-61],[-32,-25],[-3,-43],[-65,-244],[-71,-112],[-8,-58],[39,-59],[-61,-44],[-73,10],[-38,58],[41,105],[114,131],[54,82],[22,86],[-1,70],[-7,24],[-42,-6],[-51,12],[-12,31],[12,85],[16,47],[61,87],[5,48],[-23,31],[-33,0],[-65,-31],[21,36],[21,20],[119,60],[28,20],[-19,9],[-155,-14],[-192,-69],[-9,-8]],[[3578,666],[-6,-3]],[[2991,683],[123,356],[-7,105],[-132,372]],[[2991,683],[-4,-4]],[[2988,673],[3,10]],[[3001,526],[0,-116]],[[3001,555],[0,-29]],[[3002,410],[-1,116]],[[3586,664],[26,-41]],[[2979,19],[0,-2]],[[3026,150],[1,1]],[[2986,677],[1,-1]],[[2989,677],[-2,2]],[[2770,2104],[-9,-52],[77,-333],[127,-179]],[[2965,1540],[-127,179],[-77,333],[9,52]],[[2929,2412],[43,401],[47,38]],[[2975,1516],[-10,24]],[[2987,676],[2,0]],[[2996,4016],[6,6]],[[2999,4022],[-3,-6]],[[3045,2858],[149,116],[4,62],[-5,61],[-126,124],[-1,128],[-139,535],[69,132]],[[3002,4022]],[[3019,2851],[26,7]],[[3354,402],[190,190],[34,74]],[[402,512],[-35,-294],[-71,-140],[0,-78]],[[1447,1184],[-21,45],[-44,-6]],[[248,653],[75,10],[64,-65]],[[604,711],[2,-83]],[[1337,783],[-1,2]],[[1423,694],[-77,80]],[[3824,294],[11,-32]],[[2881,2131],[-76,-3]],[[2806,2125],[75,3]],[[2886,2128],[15,1],[18,3],[38,20],[0,2]],[[2957,2154],[8,17]],[[2965,2171],[2,5],[-5,58]],[[2960,2234],[6,-57],[-1,-6]],[[2965,2171],[-1,-4],[-5,-12],[-2,-1]],[[2957,2154],[-2,-3],[-36,-19],[-32,-2]],[[2916,2298],[13,114]],[[2916,2298],[1,-8]],[[2920,2291],[-4,7]],[[2917,2290],[2,-5]],[[2920,2284],[3,2],[-5,6],[-1,-2]],[[2917,2290],[3,-6]],[[2920,2284],[38,-43]],[[2960,2241],[-2,5],[-35,39]],[[3007,4032],[37,64]],[[2987,676]],[[2998,164],[-3,0]],[[2999,4024],[0,-2]],[[3002,320],[-1,0]],[[3001,228],[2,0]],[[3003,227],[-2,-1]],[[3002,4022]],[[3007,4032],[-4,-3]],[[3006,4027],[1,5]],[[3027,152],[-3,2]],[[3024,152],[3,-1]],[[3292,350],[-214,-163]],[[3078,187],[156,109],[97,87]],[[3626,581],[-13,40]],[[2942,31],[-6,-31]],[[2936,0],[12,47]],[[3001,372],[-7,-212],[31,-11]],[[3027,151],[-3,3],[-5,3],[-20,3],[-3,8],[7,59],[-1,144]],[[3001,603],[0,-48]],[[2987,679],[-1,-2]],[[3690,905],[-16,-34]],[[1382,1223],[-66,1]],[[2952,65],[-10,-3]],[[2942,62],[47,-9]],[[2968,62],[-16,3]],[[2968,62],[-4,2]],[[2983,38],[7,14],[-5,5],[-17,5]],[[2989,53],[-6,-10],[-2,-14]],[[2983,53],[0,-2]],[[2989,53],[-5,1]],[[2989,79],[-1,0]],[[3027,151]],[[3030,153],[-3,-1]],[[3646,554],[45,-58]],[[2690,2379],[86,-113]],[[2830,2241],[-44,17]],[[2803,2132],[-2,-3]],[[2952,65]],[[2966,2237],[-4,2]],[[2962,2234],[4,3]],[[2966,2237],[16,0]],[[3001,410],[0,-38]],[[3002,371],[0,39]],[[2987,676],[1,-3]],[[3333,386],[-2,-2]],[[2996,159],[2,4]],[[3078,187],[-53,-38]],[[3026,150],[52,37]],[[2781,2114],[-11,-10]],[[2770,2104],[12,9]],[[3331,384],[-39,-34]],[[3588,662],[-10,4]],[[633,3996]],[[1491,3630],[-721,356]],[[1625,3515],[3,45],[-116,59]],[[2315,2770],[-239,136],[-445,584]],[[2315,2770],[5,-3]],[[2320,2767],[2,-1],[8,-3]],[[2321,2768],[-6,2]],[[2321,2768],[-1,-1]],[[2320,2767],[1,-1]],[[2330,2763],[-6,3]],[[2324,2766],[-3,2]],[[2324,2765],[0,1]],[[2324,2766],[1,0]],[[2330,2763],[166,-140],[62,-181],[97,-17],[35,-46]],[[2982,2237],[422,14],[17,-189],[39,-24],[166,-3],[23,-167],[48,-32],[141,-2],[258,-139]],[[3320,377],[2,-122],[4,-109],[5,-18],[7,-13],[56,-86],[5,-29]],[[3400,0],[-2,20],[-5,12],[-67,114],[-5,208],[33,48]],[[3599,711],[75,160]],[[3690,905],[406,594]],[[3578,666],[3,6]],[[3694,502],[-3,-6]],[[3613,622],[15,-44]],[[2886,2128],[-1,4],[-5,-2],[2,-2],[4,0]],[[2962,2234],[0,5],[-3,3],[0,-7],[3,-1]],[[3612,623],[1,-1]],[[0,593],[34,6]],[[34,599],[-34,-6]],[[13,594],[12,3]],[[34,599],[214,54]],[[387,598],[22,-14]],[[402,516]],[[402,516],[0,-2]],[[402,514],[2,0]],[[402,514],[30,-2]],[[404,514],[-2,0]],[[404,514],[-2,2]],[[402,516]],[[432,512],[-28,2]],[[409,584],[1,-2]],[[411,583],[-2,1]],[[411,583],[-1,-2]],[[561,534],[-129,-22]],[[564,535],[-3,-1]],[[561,534],[3,-1]],[[570,535],[-3,0]],[[568,533],[2,2]],[[606,628],[1,-44],[-37,-49]],[[602,755],[1,-4]],[[603,751],[1,4]],[[603,751],[1,-40]],[[792,806],[-3,-2],[-182,-45],[-3,0]],[[605,756],[188,48]],[[797,808],[-5,-2]],[[792,806],[1,-2]],[[793,804],[5,1]],[[798,805],[-1,3]],[[1174,809],[-377,-1]],[[798,805],[376,4]],[[1239,820],[-65,-11]],[[1239,820],[50,-1]],[[1336,785],[-47,34]],[[1346,774],[-9,9]],[[1730,392],[-224,253],[-83,49]],[[1730,392],[90,-79],[14,-24]],[[1834,289],[85,-145]],[[1919,144],[3,-4],[142,-93],[11,-47]],[[2075,0],[-10,47],[-146,97]],[[1919,144],[-3,3],[-82,142]],[[1834,289],[-14,24],[-90,79]],[[567,535],[-2,1],[-1,-2],[3,-1],[0,2]],[[601,758],[1,-3]],[[602,755],[3,0],[-1,4],[-3,-1]],[[1297,1222],[-480,-45],[-10,-179],[-27,-4],[12,-182]],[[792,812],[1,-6]],[[797,808],[-5,4]],[[1451,1182],[-4,2],[2,-3]],[[1458,1186],[-6,-4]],[[1453,1180],[5,6]],[[2693,2250],[-119,-60],[-399,-523],[-55,-108],[-209,-64],[-294,-170],[-159,-139]],[[1450,1182],[0,-3],[2,0],[1,2],[-3,1]],[[3737,422],[87,-128]],[[3835,262],[6,-42],[255,1]],[[2984,54],[3,15]],[[3733,427],[-18,31]],[[3628,578],[18,-24]],[[1512,3619],[-21,11]],[[1631,3490],[-6,25]],[[3599,711],[-21,-45]],[[3699,499],[-5,3]],[[633,3996]],[[3578,666],[-62,-125],[-183,-155]],[[3674,871],[-75,-160]],[[4096,1501],[-406,-596]],[[3612,623],[-24,39]],[[3581,672],[18,39]],[[2806,2125],[-3,3],[-5,-1],[1,-3],[7,1]],[[2952,58],[-10,-27]],[[2948,47],[4,11]],[[2804,2128],[-1,4]],[[2979,17],[-3,-17]],[[2977,0],[15,101],[34,49]],[[3025,149],[-15,-11],[-4,-3],[-10,-15],[-4,-17],[-8,-47],[-5,-37]],[[3674,871],[16,34]],[[3613,621],[-1,2]],[[634,3995],[6,0]],[[640,3995],[-6,1]],[[770,3986],[-130,9]],[[1316,1224],[-19,-2]],[[2763,2252],[-70,-2]],[[2915,2286],[-129,-28]],[[3698,487],[21,38],[-20,-26]],[[412,578],[-10,-62]],[[410,581],[1,2]],[[410,580],[2,-2]],[[412,578],[0,3]],[[2760,58],[-36,-58]],[[2724,0],[28,43],[6,10],[3,4]],[[2761,59],[-1,-1]],[[2760,58],[1,-1]],[[2761,57],[23,38]],[[2782,97],[-21,-38]],[[2761,59]],[[2785,98],[-3,-1]],[[2782,97],[2,-2]],[[2784,95]],[[2784,95],[1,3]],[[2784,95],[8,-1],[36,-16],[8,-4],[93,-15],[13,3]],[[2942,62],[-157,36]],[[2962,123]],[[2994,160],[-17,-11]],[[2977,149],[-12,-7]],[[2965,142],[-1,-1],[0,-1]],[[2964,140],[-2,-17]],[[2962,123],[-3,-28],[-7,-37]],[[2952,58],[9,47],[0,8],[1,3],[0,7]],[[2962,123],[0,2],[1,9],[1,4],[0,2]],[[2964,140],[1,1],[0,1]],[[2965,142],[2,2],[2,2],[4,1],[4,2]],[[2977,149],[11,5],[3,2]],[[3715,458],[-17,29]],[[2803,2132],[5,34]],[[2786,2258],[-23,-6]],[[2796,2168],[34,73]],[[2798,2128],[-17,-14]],[[2782,2113],[17,11]],[[3733,427],[4,-5]],[[2991,156],[3,1]],[[3331,383],[5,4]],[[2988,673],[13,-70]],[[2808,2166],[-12,2]],[[4096,4096],[0,-4096],[-1925,0],[-2171,0],[0,3950],[9,8],[192,69],[155,14],[19,-9],[-28,-20],[-119,-60],[-21,-20],[-21,-36],[65,31],[33,0],[23,-31],[-5,-48],[-61,-87],[-16,-47],[-12,-85],[12,-31],[51,-12],[42,6],[7,-24],[1,-70],[-22,-86],[-54,-82],[-114,-131],[-41,-105],[38,-58],[73,-10],[61,44],[-39,59],[8,58],[71,112],[65,244],[3,43],[32,25],[37,61],[29,78],[23,166],[24,44],[26,30],[19,51],[0,55],[599,0],[119,-112],[53,-33],[54,-17],[104,-7],[31,4],[63,18],[35,4],[38,-22],[32,-10],[29,6],[20,44],[19,87],[3,38],[2332,0]],[[3521,1394],[33,5],[-24,40],[50,14],[33,-14],[11,-44],[-70,-58],[-33,10],[0,47]],[[0,1490],[22,-16],[63,52],[10,-59],[-40,-58],[-15,33],[3,-92],[-34,-38],[-9,2],[0,176]],[[31,1455],[22,-24],[27,28],[-4,56],[-45,-60]],[[3012,236],[18,158],[89,3],[-6,-96],[-35,-8],[11,-64],[-23,22],[-27,-6],[0,-29],[-27,20]],[[1979,977],[77,43],[29,-88],[-58,-37],[-48,82]],[[1691,3981],[67,-31],[118,31],[-15,-64],[-84,-42],[-86,106]],[[2087,1522],[53,33],[11,-30],[77,-19],[61,-141],[-77,-37],[-112,136],[-13,58]],[[1950,2853],[19,38],[105,16],[32,-34],[0,-68],[-48,-14],[-42,57],[-66,5]],[[3440,798],[19,130],[24,11],[33,-126],[-8,-89],[-35,10],[-33,64]],[[2004,806],[242,241],[77,-79],[-54,-52],[54,-55],[-52,-52],[26,-26],[-150,-122],[-143,145]],[[3049,228],[97,-139],[2,-89],[-526,0],[26,64],[77,25],[32,139],[98,0],[0,93],[64,138],[130,-138],[0,-93]],[[3680,453],[-49,145],[-64,82],[-1,57],[139,-110],[37,-84],[-14,-84],[-48,-6]],[[3413,0],[42,26],[42,-26],[-84,0]],[[3179,0],[-1,43],[100,8],[30,-8],[15,-43],[-144,0]],[[1366,1156],[-62,29],[-16,83],[110,24],[-32,-136]],[[393,953],[229,-263],[-1,-60],[-90,-12],[-63,-52],[-72,32],[-130,0],[-43,132],[-54,7],[18,41],[79,-41],[34,58],[-2,219],[95,-61]],[[654,1299],[65,-7],[0,-47],[58,-86],[-25,-145],[-53,5],[-134,167],[-8,59],[77,88],[20,5],[0,-39]],[[3017,598],[-130,45],[-50,45],[-15,95],[64,35],[61,-36],[70,-184]],[[2952,2401],[0,-46],[32,0],[7,-55],[-17,-127],[-43,-71],[-109,-25],[-108,97],[-29,107],[8,167],[90,-51],[39,4],[33,47],[97,-47]],[[3003,2910],[-89,7],[-70,62],[-22,116],[186,77],[67,-47],[6,-169],[-78,-46]],[[2722,4096],[346,0],[-19,-77],[-261,16],[-63,31],[-3,30]],[[1908,1662],[60,61],[31,-23],[38,18],[100,-62],[-46,-62],[-94,6],[-89,62]],[[3636,912],[227,-31],[10,-36],[39,22],[-2,-25],[-53,-44],[-64,29],[-106,1],[5,23],[-56,61]],[[689,4040],[42,31],[153,-17],[-77,-84],[-118,70]],[[3766,275],[126,41],[58,-14],[52,43],[56,4],[-82,-37],[1,-25],[-101,-33],[-110,21]],[[592,1165],[70,18],[20,44],[52,3],[6,35],[21,1],[-3,-20],[29,2],[5,-75],[-4,-55],[-30,-13],[16,-19],[35,24],[-3,-71],[-20,16],[-111,-22],[11,26],[-36,9],[4,45],[-39,1],[-23,51]],[[341,671],[35,149],[57,-10],[50,-94],[71,-40],[21,-112],[-41,-22],[-16,32],[-24,-21],[-41,10],[-25,-29],[-15,12],[3,-32],[-25,5],[-9,36],[32,30],[-31,73],[-42,13]],[[439,800],[15,117],[15,-102],[60,-26],[0,-22],[40,50],[31,-23],[1,-41],[-49,-65],[-64,32],[-49,80]],[[2161,2722],[20,18],[58,-31],[25,43],[18,-7],[-9,-88],[39,-2],[0,-53],[-79,-9],[-72,129]],[[1604,3511],[57,10],[-25,60],[16,31],[58,7],[44,-72],[-124,-57],[-26,21]]]}