{"objects":{"water":{"type":"GeometryCollection","geometries":[{"type":"Polygon","properties":{"source":"naturalearthdata.com","kind":"ocean","area":1576712559132672,"sort_rank":200,"min_zoom":0.0,"id":1},"arcs":[[106]]},{"type":"LineString","properties":{"source":"naturalearthdata.com","kind":"ocean","sort_rank":205,"boundary":true,"min_zoom":0.0,"id":52},"arcs":[107]}]},"buildings":{"type":"GeometryCollection","geometries":[]},"places":{"type":"GeometryCollection","geometries":[{"type":"Point","properties":{"name:az":"Krasnodar","name:ka":"\u10d9\u10e0\u10d0\u10e1\u10dc\u10dd\u10d3\u10d0\u10e0\u10d8","name:ko":"\ud06c\ub77c\uc2a4\ub178\ub2e4\ub974","name:ar":"\u0643\u0631\u0627\u0633\u0646\u0648\u062f\u0627\u0631","min_zoom":8.0,"int_name":"Krasnodar","name:it":"Krasnodar","name:lv":"Krasnodara","name:pl":"Krasnodar","id":27505129,"name:ca":"Krasnodar","name:fa":"\u0643\u0631\u0627\u0633\u0646\u0648\u062f\u0627\u0631","kind_detail":"city","name:de":"Krasnodar","source":"openstreetmap.org","name:fr":"Krasnodar","name:zh":"\u514b\u62c9\u65af\u8bfa\u8fbe\u5c14","name:hy":"\u053f\u0580\u0561\u057d\u0576\u0578\u0564\u0561\u0580","name:sl":"Krasnodar","name:ro":"Krasnodar","name:ja":"\u30e9\u30b9\u30ce\u30c0\u30fc\u30eb","name:lt":"Krasnodaras","name:he":"\u05e7\u05e8\u05e1\u05e0\u05d5\u05d3\u05d0\u05e8","name:la":"Crasnodaria","name:sk":"Krasnodar","old_name":"\u0415\u043a\u0430\u0442\u0435\u0440\u0438\u043d\u043e\u0434\u0430\u0440","name:hu":"Krasznodar","name:hr":"Krasnodar","population":829677,"name:el":"\u039a\u03c1\u03b1\u03c3\u03bd\u03bf\u03bd\u03c4\u03ac\u03c1","kind":"locality","name:en":"Krasnodar","name":"\u041a\u0440\u0430\u0441\u043d\u043e\u0434\u0430\u0440","name:fi":"Krasnodar","name:es":"Krasnodar"},"coordinates":[2933,3877]},{"type":"Point","properties":{"name:sr":"\u0413\u0435\u043b\u0435\u043d\u045f\u0438\u043a","name:az":"Qelencik","name:ja":"\u30b2\u30ec\u30f3\u30b8\u30fc\u30af","name:nn":"Gelendzjik","name:no":"Gelendzjik","name:ko":"\uac94\ub80c\uc9c0\ud06c","name:ar":"\u063a\u064a\u0644\u064a\u0646\u062c\u064a\u0643","kind":"locality","min_zoom":8.0,"name:ro":"Gelendjik","name:it":"Gelend\u017eik","name:tl":"Gelendzhik","old_name":"\u0422\u043e\u0440\u0438\u043a, \u041f\u0430\u0433\u0440\u044b, \u0415\u043f\u0442\u0430\u043b\u0430","name:vi":"Gelendzhik","name:pl":"Gelend\u017cyk","id":34181150,"population":69341,"name:fa":"\u06af\u0644\u0646 \u062f\u0698\u06cc\u06a9","name:eo":"Gelend\u0135ik","name:en":"Gelendzhik","name":"\u0413\u0435\u043b\u0435\u043d\u0434\u0436\u0438\u043a","kind_detail":"town","name:de":"Gelendschik","source":"openstreetmap.org","name:fr":"Guelendjik","name:fi":"Gelend\u017eik","name:et":"Gelend\u017eik","name:be":"\u0413\u0435\u043b\u044f\u043d\u0434\u0436\u044b\u043a","name:zh":"\u683c\u9023\u5409\u514b","name:el":"\u0393\u03ba\u03b5\u03bb\u03b5\u03bd\u03c4\u03b6\u03af\u03ba","name:es":"Gelendzhik"},"coordinates":[314,1936]},{"type":"Point","properties":{"kind":"locality","name:en":"Tuapse","name":"\u0422\u0443\u0430\u043f\u0441\u0435","kind_detail":"town","name:de":"Tuapse","source":"openstreetmap.org","min_zoom":8.0,"old_name":"\u0444\u043e\u0440\u0442 \u0412\u0435\u043b\u044c\u044f\u043c\u0438\u043d\u043e\u0432\u0441\u043a\u0438\u0439","id":36722824,"population":63417},"coordinates":[3213,45]},{"type":"Point","properties":{"kind":"locality","name:en":"Krymsk","name":"\u041a\u0440\u044b\u043c\u0441\u043a","kind_detail":"town","name:de":"Krymsk","source":"openstreetmap.org","min_zoom":8.0,"name:uk":"\u041a\u0440\u0438\u043c\u0441\u044c\u043a","old_name":"\u0441\u0442\u0430\u043d\u0438\u0446\u0430 \u041a\u0440\u044b\u043c\u0441\u043a\u0430\u044f","id":296379511,"population":56939},"coordinates":[56,3444]},{"type":"Point","properties":{"kind":"locality","name:en":"Abinsk","name":"\u0410\u0431\u0438\u043d\u0441\u043a","kind_detail":"town","name:de":"Abinsk","source":"openstreetmap.org","min_zoom":8.0,"old_name":"\u0410\u0431\u0438\u043d\u0441\u043a\u043e\u0435 \u0443\u043a\u0440\u0435\u043f\u043b\u0435\u043d\u0438\u0435,\u0441\u0442\u0430\u043d\u0438\u0446\u0430 \u0410\u0431\u0438\u043d\u0441\u043a\u0430\u044f","name:pl":"Abi\u0144sk","id":297958924,"population":36986},"coordinates":[551,3179]},{"type":"Point","properties":{"kind":"locality","name:en":"Goryachiy Klyuch","name":"\u0413\u043e\u0440\u044f\u0447\u0438\u0439 \u041a\u043b\u044e\u0447","kind_detail":"town","name:de":"Gorjatschi Kljutsch","source":"openstreetmap.org","min_zoom":8.0,"name:uk":"\u0413\u0430\u0440\u044f\u0447\u0438\u0439 \u041a\u043b\u044e\u0447","id":36722707,"population":34585},"coordinates":[3401,2236]},{"type":"Point","properties":{"kind":"locality","name:en":"Yablonovskiy","name":"\u042f\u0431\u043b\u043e\u043d\u043e\u0432\u0441\u043a\u0438\u0439","kind_detail":"town","name:de":"Jablonowski","source":"openstreetmap.org","min_zoom":8.0,"name:sr":"\u0408\u0430\u0431\u043b\u043e\u043d\u043e\u0432\u0441\u043a\u0438","id":296362274,"population":32039},"coordinates":[2824,3676]},{"type":"Point","properties":{"kind":"locality","name:en":"Severskaya","name":"\u0421\u0435\u0432\u0435\u0440\u0441\u043a\u0430\u044f","kind_detail":"town","name:de":"Sewerskaja","source":"openstreetmap.org","min_zoom":8.0,"id":296376924,"population":24867},"coordinates":[2066,3132]},{"type":"Point","properties":{"kind":"locality","name:en":"Ilskiy","name":"\u0418\u043b\u044c\u0441\u043a\u0438\u0439","kind_detail":"town","name:de":"Ilski","source":"openstreetmap.org","min_zoom":8.0,"int_name":"Ilsky","name:uk":"\u0406\u043b\u044c\u0441\u044c\u043a\u0438\u0439","old_name":"\u0418\u043b\u044c\u0441\u043a\u0430\u044f","id":296379510,"population":24831},"coordinates":[1752,3137]},{"type":"Point","properties":{"kind":"locality","name:en":"Yelizavetinskaya","name":"\u0415\u043b\u0438\u0437\u0430\u0432\u0435\u0442\u0438\u043d\u0441\u043a\u0430\u044f","kind_detail":"town","name:ar":"\u064a\u064a\u0644\u064a\u0632\u0627\u0641\u064a\u062a\u064a\u0646\u0633\u0643\u0627\u064a\u0627","name:de":"Jelisawetinskaja","source":"openstreetmap.org","min_zoom":8.0,"name:uk":"\u0404\u043b\u0438\u0437\u0430\u0432\u0435\u0442\u0438\u043d\u0441\u044c\u043a\u0430","id":295729620,"name:es":"Yelizav\u00e9tinskaya","population":24755},"coordinates":[2401,3928]},{"type":"Point","properties":{"kind":"locality","name:en":"Akhtyrskiy","name":"\u0410\u0445\u0442\u044b\u0440\u0441\u043a\u0438\u0439","kind_detail":"town","name:ar":"\u0623\u0643\u062a\u064a\u0631\u0633\u0643\u064a\u064a","name:de":"Achtyrski","source":"openstreetmap.org","min_zoom":8.0,"name:it":"Achtyrskij","name:uk":"\u041e\u0445\u0442\u0438\u0440\u0441\u044c\u043a\u0438\u0439","old_name":"\u0434\u043e 1867 \u2014 \u0441\u0442\u0430\u043d\u0438\u0446\u0430 \u0410\u0445\u0442\u044b\u0440\u0441\u043a\u0430\u044f","name:bg":"\u0410\u0445\u0442\u0438\u0440\u0441\u043a\u0438","id":297958920,"name:es":"Ajtyrski","population":20863},"coordinates":[952,3086]},{"type":"Point","properties":{"name:ar":"\u0623\u0641\u064a\u0628\u0633\u0643\u064a\u064a","min_zoom":8.0,"name:it":"Afipskij","name:uk":"\u0410\u0444\u0456\u043f\u0441\u044c\u043a\u0438\u0439","old_name":"\u0441\u0442\u0430\u043d\u0438\u0446\u0430 \u0413\u0435\u043e\u0440\u0433\u0438\u0435-\u0410\u0444\u0438\u043f\u0441\u043a\u0430\u044f","name:ce":"\u0410\u0444\u0438\u043f\u0441\u043a\u0438","name:bg":"\u0410\u0444\u0438\u043f\u0441\u043a\u0438","id":296376882,"population":19956,"kind":"locality","name:en":"Afipskiy","name":"\u0410\u0444\u0438\u043f\u0441\u043a\u0438\u0439","kind_detail":"town","name:de":"Afipski","source":"openstreetmap.org","name:es":"Afipski"},"coordinates":[2546,3339]},{"type":"Point","properties":{"kind":"locality","name:en":"Enem","name":"\u042d\u043d\u0435\u043c","kind_detail":"town","min_zoom":8.0,"name:de":"Enem","source":"openstreetmap.org","name:fr":"Enem","old_name":"\u042d\u043d\u0435\u043c-\u0422\u0430\u0445\u0442\u0430\u043c\u0443\u043a\u0430\u0439, \u042d\u043d\u0435\u043c\u0441\u043a\u0438\u0439","name:bg":"\u0415\u043d\u0435\u043c","id":296362277,"name:es":"Enem","population":19091},"coordinates":[2733,3417]},{"type":"Point","properties":{"kind":"locality","name:en":"Kholmskaya","name":"\u0425\u043e\u043b\u043c\u0441\u043a\u0430\u044f","kind_detail":"town","name:de":"Cholmskaja","source":"openstreetmap.org","min_zoom":8.0,"name:uk":"\u0425\u043e\u043b\u043c\u0441\u044c\u043a\u0430","old_name":"\u0434\u043e 1867 \u2014 \u0441\u0442\u0430\u043d\u0438\u0446\u0430 \u0425\u0430\u0431\u043b\u044c\u0441\u043a\u0430\u044f","id":297958919,"population":17585},"coordinates":[1224,3102]},{"type":"Point","properties":{"name:sr":"\u0410\u0434\u0438\u0433\u0435\u0458\u0441\u043a","name:he":"\u05d0\u05d3\u05d9\u05d2\u05d9\u05d9\u05e1\u05e7","name:sk":"Adygejsk","name:sh":"Adigejsk","name:ar":"\u0623\u062f\u064a\u063a\u064a\u0633\u0643","name:cs":"Adygejsk","kind":"locality","min_zoom":8.0,"name:en":"Adygeysk","name:uk":"\u0410\u0434\u0438\u0433\u0435\u0439\u0441\u044c\u043a","name:pl":"Adygejsk","name:hu":"Adigejszk","id":298455987,"population":12689,"name:fa":"\u0622\u062f\u06cc\u06af\u06cc\u0633\u06a9","name:eo":"Adigejsk","name:bg":"\u0410\u0434\u0438\u0433\u0435\u0439\u0441\u043a","name":"\u0410\u0434\u044b\u0433\u0435\u0439\u0441\u043a","kind_detail":"town","name:de":"Adygeisk","source":"openstreetmap.org"},"coordinates":[3560,3255]},{"type":"Point","properties":{"kind":"locality","name:en":"Starokorsunskaya","name":"\u0421\u0442\u0430\u0440\u043e\u043a\u043e\u0440\u0441\u0443\u043d\u0441\u043a\u0430\u044f","kind_detail":"town","name:de":"Starokorsunskaja","source":"openstreetmap.org","min_zoom":8.0,"name:uk":"\u0421\u0442\u0430\u0440\u043e\u043a\u043e\u0440\u0441\u0443\u043d\u0441\u044c\u043a\u0430","id":1870663696,"population":12238},"coordinates":[3915,3939]},{"type":"Point","properties":{"kind":"locality","name:en":"Novomikhailoskiy","name":"\u041d\u043e\u0432\u043e\u043c\u0438\u0445\u0430\u0439\u043b\u043e\u0432\u0441\u043a\u0438\u0439","kind_detail":"town","source":"openstreetmap.org","min_zoom":8.0,"id":346169276,"population":10792},"coordinates":[2552,678]},{"type":"Point","properties":{"kind":"locality","name:en":"Chernomorskiy","name":"\u0427\u0435\u0440\u043d\u043e\u043c\u043e\u0440\u0441\u043a\u0438\u0439","kind_detail":"town","name:de":"Tschernomorski","source":"openstreetmap.org","min_zoom":8.0,"name:uk":"\u0427\u043e\u0440\u043d\u043e\u043c\u043e\u0440\u0441\u044c\u043a\u0438\u0439","old_name":"\u0421\u043e\u0446\u0433\u043e\u0440\u043e\u0434\u043e\u043a","id":789338328,"population":8512},"coordinates":[1531,3118]},{"type":"Point","properties":{"kind":"locality","name:en":"Arkhipo-Osipovka","name":"\u0410\u0440\u0445\u0438\u043f\u043e-\u041e\u0441\u0438\u043f\u043e\u0432\u043a\u0430","kind_detail":"town","source":"openstreetmap.org","min_zoom":8.0,"old_name":"\u0441\u0442\u0430\u043d\u0438\u0446\u0430 \u0412\u0443\u043b\u0430\u043d\u0441\u043a\u0430\u044f, \u041c\u0438\u0445\u0430\u0439\u043b\u043e\u0432\u0441\u043a\u043e\u0435 \u0443\u043a\u0440\u0435\u043f\u043b\u0435\u043d\u0438\u0435","id":343427807,"population":7853},"coordinates":[1646,1158]},{"type":"Point","properties":{"kind":"locality","name:en":"Tlustenkhabl","name":"\u0422\u043b\u044e\u0441\u0442\u0435\u043d\u0445\u0430\u0431\u043b\u044c","kind_detail":"town","name:de":"Tljustenchabl","source":"openstreetmap.org","min_zoom":8.0,"id":341518238,"name:es":"Tliustenjabl","population":5668},"coordinates":[3268,3657]},{"type":"Point","properties":{"kind":"locality","name:en":"Dzhubga","name":"\u0414\u0436\u0443\u0431\u0433\u0430","kind_detail":"town","name:de":"Dschugba","source":"openstreetmap.org","min_zoom":8.0,"old_name":"\u0441\u0442\u0430\u043d\u0438\u0446\u0430 \u0414\u0436\u0443\u0431\u0433\u0441\u043a\u0430\u044f","id":290905151,"population":5512},"coordinates":[2143,939]},{"type":"Point","properties":{"kind":"locality","name:en":"Takhtamukai","name":"\u0422\u0430\u0445\u0442\u0430\u043c\u0443\u043a\u0430\u0439","kind_detail":"town","name:de":"Tachtamukai","source":"openstreetmap.org","min_zoom":8.0,"old_name":"\u042d\u043d\u0435\u043c\u0441\u043a\u0438\u0439, \u0425\u0430\u043a\u0443\u0440\u0430\u0442\u0435, \u041e\u043a\u0442\u044f\u0431\u0440\u044c\u0441\u043a\u0438\u0439","id":369025581,"population":5413},"coordinates":[2988,3410]}]},"transit":{"type":"GeometryCollection","geometries":[{"type":"MultiLineString","properties":{"source":"openstreetmap.org","kind":"train","osm_relation":true,"sort_rank":275,"ref":"677\/678 \u0412\u043b\u0430\u0434\u0438\u043a\u0430\u0432\u043a\u0430\u0437 \u2014 \u041d\u043e\u0432\u043e\u0440\u043e\u0441\u0441\u0438\u0439\u0441\u043a","min_zoom":6.0,"operator":"\u0420\u0416\u0414"},"arcs":[[2],[3]]},{"type":"MultiLineString","properties":{"source":"openstreetmap.org","kind":"train","sort_rank":275,"ref":"\u044d\u043b. \u0422\u0443\u0430\u043f\u0441\u0435 \u2014 \u0411\u0435\u043b\u043e\u0440\u0435\u0447\u0435\u043d\u0441\u043a","min_zoom":6.0,"osm_relation":true},"arcs":[[4],[5],[6],[7],[8],[9],[10],[11],[12],[13],[14],[15],[16],[17],[18],[19],[20],[21],[22],[23],[24],[25],[26],[27],[28],[29],[30],[31],[32],[33],[34],[35],[36],[37],[38],[39],[40],[41],[42],[43],[44],[45],[46],[47],[48],[49],[50],[51],[52],[53],[54],[55],[56],[57],[58],[59],[60],[61],[62],[63],[64],[65],[66],[67],[68],[69],[70],[71],[72]]},{"type":"MultiLineString","properties":{"kind":"train","name":"\u041c\u043e\u0441\u043a\u0432\u0430 \u2014 \u0410\u0434\u043b\u0435\u0440","sort_rank":275,"name:de":"Moskau \u2014 Adler","source":"openstreetmap.org","min_zoom":6.0,"ref":"\u041c\u043e\u0441\u043a\u0432\u0430 - \u0410\u0434\u043b\u0435\u0440","osm_relation":true},"arcs":[[73],[74],[75],[76],[77],[78],[79]]},{"type":"LineString","properties":{"kind":"train","network":"\u0420\u0416\u0414","sort_rank":275,"source":"openstreetmap.org","min_zoom":6.0,"ref":"\u044d\u043b. \u041a\u0440\u0430\u0441\u043d\u043e\u0434\u0430\u0440 \u2014 \u0420\u043e\u0441\u0442\u043e\u0432","id":-939832,"osm_relation":true},"arcs":[80]},{"type":"LineString","properties":{"source":"openstreetmap.org","kind":"train","osm_relation":true,"sort_rank":275,"ref":"\u044d\u043b\u0435\u043a\u0442\u0440\u043e\u043f\u043e\u0435\u0437\u0434 \u0422\u0443\u0430\u043f\u0441\u0435 \u2014 \u041a\u0440\u0430\u0441\u043d\u043e\u0434\u0430\u0440","min_zoom":6.0,"operator":"\u0420\u0416\u0414"},"arcs":[81]},{"type":"MultiLineString","properties":{"kind":"train","network":"\u0420\u0416\u0414","sort_rank":275,"source":"openstreetmap.org","min_zoom":6.0,"operator":"\u041a\u0443\u0431\u0430\u043d\u044c \u042d\u043a\u0441\u043f\u0440\u0435\u0441\u0441-\u041f\u0440\u0438\u0433\u043e\u0440\u043e\u0434","ref":"\u041a\u0440\u0430\u0441\u043d\u043e\u0434\u0430\u0440 - \u0422\u0438\u0445\u043e\u0440\u0435\u0446\u043a\u0430\u044f","osm_relation":true,"name":"\u041f\u043e\u0435\u0437\u0434: \u041a\u0440\u0430\u0441\u043d\u043e\u0434\u0430\u0440 - \u0422\u0438\u0445\u043e\u0440\u0435\u0446\u043a\u0430\u044f"},"arcs":[[82],[83]]},{"type":"MultiLineString","properties":{"source":"openstreetmap.org","kind":"train","network":"\u0420\u0416\u0414","sort_rank":275,"ref":"\u044d\u043b. \u041a\u0440\u0430\u0441\u043d\u043e\u0434\u0430\u0440 - \u0410\u0440\u043c\u0430\u0432\u0438\u0440","min_zoom":6.0,"osm_relation":true},"arcs":[[84],[85],[86],[87],[88],[89],[90],[91],[92],[93],[94],[95]]},{"type":"LineString","properties":{"kind":"train","network":"\u0420\u0416\u0414","sort_rank":275,"source":"openstreetmap.org","min_zoom":6.0,"operator":"\u041a\u0443\u0431\u0430\u043d\u044c \u042d\u043a\u0441\u043f\u0440\u0435\u0441\u0441-\u041f\u0440\u0438\u0433\u043e\u0440\u043e\u0434","ref":"\u041a\u0440\u0430\u0441\u043d\u043e\u0434\u0430\u0440 - \u041c\u0438\u043d\u0435\u0440\u0430\u043b\u044c\u043d\u044b\u0435 \u0412\u043e\u0434\u044b","id":-2313103,"osm_relation":true,"name":"\u041f\u043e\u0435\u0437\u0434 \u041a\u0440\u0430\u0441\u043d\u043e\u0434\u0430\u0440 - \u041c\u0438\u043d\u0435\u0440\u0430\u043b\u044c\u043d\u044b\u0435 \u0412\u043e\u0434\u044b"},"arcs":[96]},{"type":"MultiLineString","properties":{"kind":"train","name":"\u0410\u0434\u043b\u0435\u0440 \u2014 \u041f\u0435\u0440\u043c\u044c 2","sort_rank":275,"name:de":"Adler \u2014 Perm 2","source":"openstreetmap.org","min_zoom":6.0,"operator":"\u0420\u0416\u0414","ref":"354\u0421","osm_relation":true},"arcs":[[97],[98],[99],[100],[101]]},{"type":"LineString","properties":{"source":"openstreetmap.org","kind":"train","osm_relation":true,"sort_rank":275,"ref":"\u044d\u043b\u0435\u043a\u0442\u0440\u0438\u0447\u043a\u0430 \u041d\u043e\u0432\u043e\u0440\u043e\u0441\u0441\u0438\u0439\u0441\u043a \u2014 \u041a\u0440\u0430\u0441\u043d\u043e\u0434\u0430\u0440","min_zoom":6.0,"operator":"\u0420\u0416\u0414"},"arcs":[102]},{"type":"MultiLineString","properties":{"kind":"train","network":"\u0420\u0416\u0414","sort_rank":275,"source":"openstreetmap.org","min_zoom":6.0,"ref":"151\/1 \u041c\u043e\u0441\u043a\u0432\u0430 \u2014 \u0410\u043d\u0430\u043f\u0430","osm_relation":true,"name":"\u041c\u043e\u0441\u043a\u0432\u0430 \u2014 \u0410\u043d\u0430\u043f\u0430"},"arcs":[[103],[104]]},{"type":"LineString","properties":{"kind":"train","network":"\u0420\u0416\u0414","sort_rank":275,"source":"openstreetmap.org","min_zoom":6.0,"operator":"\u0420\u0416\u0414","ref":"\u044d\u043b. \u0410\u0434\u043b\u0435\u0440 \u2014 \u0422\u0443\u0430\u043f\u0441\u0435","osm_relation":true,"name":"\u044d\u043b. \u0410\u0434\u043b\u0435\u0440 \u2014 \u0422\u0443\u0430\u043f\u0441\u0435"},"arcs":[105]}]},"pois":{"type":"GeometryCollection","geometries":[{"type":"Point","properties":{"source":"openstreetmap.org","kind":"military","name":"243 \u043e\u0431\u0449\u0435\u0432\u043e\u0439\u0441\u043a\u043e\u0432\u043e\u0439 \u043f\u043e\u043b\u0438\u0433\u043e\u043d","area":250048000,"tier":3,"min_zoom":8.0,"id":150746728},"coordinates":[3449,2845]},{"type":"Point","properties":{"kind":"protected_area","protect_class":"3","area":33232900,"source":"openstreetmap.org","min_zoom":8.0,"tier":2,"id":208428736,"name":"\u0423\u0440\u043e\u0447\u0438\u0449\u0435 \u0432 \u0432\u0435\u0440\u0445\u043e\u0432\u044c\u0435 \u0440. \u041a\u0430\u0432\u0435\u0440\u0437\u0435"},"coordinates":[2868,1711]}]},"boundaries":{"type":"GeometryCollection","geometries":[{"type":"LineString","properties":{"name:right:hy":"\u053f\u0580\u0561\u057d\u0576\u0578\u0564\u0561\u0580\u056b \u0565\u0580\u056f\u0580\u0561\u0574\u0561\u057d","name:right:uk":"\u041a\u0440\u0430\u0441\u043d\u043e\u0434\u0430\u0440\u0441\u044c\u043a\u0438\u0439 \u043a\u0440\u0430\u0439","name:left:sv":"Adygeiska republiken","name:right:hu":"Krasznodari hat\u00e1rter\u00fclet","name:right:lt":"Krasnodaro kra\u0161tas","min_zoom":8.0,"name:left:hy":"\u0531\u0564\u056b\u0563\u0565\u0561","name:right:he":"\u05de\u05d7\u05d5\u05d6 \u05e7\u05e8\u05e1\u05e0\u05d5\u05d3\u05d0\u05e8","sort_rank":256,"name:left:ca":"Adigu\u00e8sia","int_name:right":"Krasnodar Krai","source":"openstreetmap.org","name:right:az":"Krasnodar diyar\u0131","name:left:cs":"Adygsko","name:left":"\u0410\u0434\u044b\u0433\u0435\u044f","name:right:sr":"\u041a\u0440\u0430\u0441\u043d\u043e\u0434\u0430\u0440\u0441\u043a\u0430 \u041f\u043e\u043a\u0440\u0430\u0458\u0438\u043d\u0430","name:left:ka":"\u10d0\u10d3\u10d8\u10e6\u10d4","name:right:mn":"\u041a\u0440\u0430\u0441\u043d\u043e\u0434\u0430\u0440\u044b\u043d \u0445\u044f\u0437\u0433\u0430\u0430\u0440","name:right:eu":"Krasnodar kraia","name:right:et":"Krasnodari krai","name:right:it":"Territorio di Krasnodar","name:right:vi":"Krasnodar (v\u00f9ng)","name:right:ro":"\u021ainutul Krasnodar","id:right":-108082,"name:right:eo":"Krasnodara regiono","name:right:en":"Krasnodar Krai","name:right:el":"\u039a\u03c1\u03ac\u03b9 \u039a\u03c1\u03b1\u03c3\u03bd\u03bf\u03bd\u03c4\u03ac\u03c1","kind":"region","name":"\u0410\u0434\u044b\u0433\u0435\u044f - \u041a\u0440\u0430\u0441\u043d\u043e\u0434\u0430\u0440\u0441\u043a\u0438\u0439 \u043a\u0440\u0430\u0439","name:right:ba":"\u041a\u0440\u0430\u0441\u043d\u043e\u0434\u0430\u0440 \u043a\u0440\u0430\u0439\u044b","name:right:lv":"Krasnodaras novads","alt_name:left:cs":"Adygsk\u00e1 republika","name:right:be":"\u041a\u0440\u0430\u0441\u043d\u0430\u0434\u0430\u0440\u0441\u043a\u0456 \u043a\u0440\u0430\u0439","name:left:zh":"\u963f\u8fea\u683c\u5171\u548c\u56fd","name:left:fr":"Adygu\u00e9e","name:right:zh":"\u514b\u62c9\u65af\u8bfa\u8fbe\u5c14\u8fb9\u7586\u533a","name:right:nl":"Kraj Krasnodar","name:right:ja":"\u30af\u30e9\u30b9\u30ce\u30c0\u30fc\u30eb\u5730\u65b9","name:right:fr":"Kra\u00ef de Krasnodar","name:left:ja":"\u30a2\u30c7\u30a3\u30b2\u5171\u548c\u56fd","name:right:sv":"Krasnodar kraj","name:left:uk":"\u0420\u0435\u0441\u043f\u0443\u0431\u043b\u0456\u043a\u0430 \u0410\u0434\u0438\u0433\u0435\u044f","name:right:sh":"Krasnodarski kraj","name:left:nl":"Adygea","name:left:ba":"\u0410\u0434\u044b\u0433\u0435\u0439 \u0420\u0435\u0441\u043f\u0443\u0431\u043b\u0438\u043a\u0430\u04bb\u044b","name:right:sl":"Krasnodarski kraj","id":-253256,"name:right":"\u041a\u0440\u0430\u0441\u043d\u043e\u0434\u0430\u0440\u0441\u043a\u0438\u0439 \u043a\u0440\u0430\u0439","name:left:en":"Adygea","name:right:ca":"Territori de Krasnodar","kind_detail":"4","name:right:ce":"\u041a\u0440\u0430\u0441\u043d\u043e\u0434\u0430\u0440\u0430\u043d \u043c\u0435\u0445\u043a\u0430\u0439\u0438\u0441\u0442","name:left:pl":"Adygeja","id:left":-253256,"name:right:cs":"Krasnodarsk\u00fd kraj","name:right:cv":"\u041a\u0440\u0430\u0441\u043d\u043e\u0434\u0430\u0440 \u0415\u043d","name:right:ka":"\u10d9\u10e0\u10d0\u10e1\u10dc\u10dd\u10d3\u10d0\u10e0\u10d8\u10e1 \u10db\u10ee\u10d0\u10e0\u10d4","name:left:av":"\u0410\u0434\u0438\u0433\u044a\u0438\u0441\u0442\u0430\u043d","name:right:pt":"Krai de Krasnodar","name:right:tt":"\u041a\u0440\u0430\u0441\u043d\u043e\u0434\u0430\u0440 \u043a\u0440\u0430\u0435","name:left:tt":"\u0410\u0434\u044b\u0433\u0435\u044f \u0420\u0435\u0441\u043f\u0443\u0431\u043b\u0438\u043a\u0430\u0441\u044b","name:left:az":"Ad\u0131gey","name:right:tr":"Krasnodar Kray\u0131","name:right:bg":"\u041a\u0440\u0430\u0441\u043d\u043e\u0434\u0430\u0440\u0441\u043a\u0438 \u043a\u0440\u0430\u0439","name:left:it":"Adighezia","name:right:pl":"Kraj Krasnodarski","osm_relation":true,"name:right:de":"Region Krasnodar","name:left:de":"Adygeja","name:left:ce":"\u0410\u0434\u044b\u0433\u0435\u0439\u0447\u043e\u044c"},"arcs":[0]},{"type":"LineString","properties":{"name:pt":"Krai de Krasnodar","name:az":"Krasnodar diyar\u0131","name:ka":"\u10d9\u10e0\u10d0\u10e1\u10dc\u10dd\u10d3\u10d0\u10e0\u10d8\u10e1 \u10db\u10ee\u10d0\u10e0\u10d4","name:tr":"Krasnodar Kray\u0131","name:cv":"\u041a\u0440\u0430\u0441\u043d\u043e\u0434\u0430\u0440 \u0415\u043d","name:cs":"Krasnodarsk\u00fd kraj","name:tt":"\u041a\u0440\u0430\u0441\u043d\u043e\u0434\u0430\u0440 \u043a\u0440\u0430\u0435","min_zoom":8.0,"int_name":"Krasnodar Krai","name:it":"Territorio di Krasnodar","name:sv":"Krasnodar kraj","name:vi":"Krasnodar (v\u00f9ng)","name:ce":"\u041a\u0440\u0430\u0441\u043d\u043e\u0434\u0430\u0440\u0430\u043d \u043c\u0435\u0445\u043a\u0430\u0439\u0438\u0441\u0442","name:mn":"\u041a\u0440\u0430\u0441\u043d\u043e\u0434\u0430\u0440\u044b\u043d \u0445\u044f\u0437\u0433\u0430\u0430\u0440","id":-108082,"name:ca":"Territori de Krasnodar","name:bg":"\u041a\u0440\u0430\u0441\u043d\u043e\u0434\u0430\u0440\u0441\u043a\u0438 \u043a\u0440\u0430\u0439","name:ro":"\u021ainutul Krasnodar","sort_rank":256,"kind_detail":"4","name:de":"Region Krasnodar","source":"openstreetmap.org","name:fr":"Kra\u00ef de Krasnodar","name:zh":"\u514b\u62c9\u65af\u8bfa\u8fbe\u5c14\u8fb9\u7586\u533a","name:sr":"\u041a\u0440\u0430\u0441\u043d\u043e\u0434\u0430\u0440\u0441\u043a\u0430 \u041f\u043e\u043a\u0440\u0430\u0458\u0438\u043d\u0430","name:sl":"Krasnodarski kraj","name:lv":"Krasnodaras novads","name:ja":"\u30af\u30e9\u30b9\u30ce\u30c0\u30fc\u30eb\u5730\u65b9","name:lt":"Krasnodaro kra\u0161tas","name:sh":"Krasnodarski kraj","name:he":"\u05de\u05d7\u05d5\u05d6 \u05e7\u05e8\u05e1\u05e0\u05d5\u05d3\u05d0\u05e8","name:eo":"Krasnodara regiono","name:uk":"\u041a\u0440\u0430\u0441\u043d\u043e\u0434\u0430\u0440\u0441\u044c\u043a\u0438\u0439 \u043a\u0440\u0430\u0439","name:hy":"\u053f\u0580\u0561\u057d\u0576\u0578\u0564\u0561\u0580\u056b \u0565\u0580\u056f\u0580\u0561\u0574\u0561\u057d","name:be":"\u041a\u0440\u0430\u0441\u043d\u0430\u0434\u0430\u0440\u0441\u043a\u0456 \u043a\u0440\u0430\u0439","name:hu":"Krasznodari hat\u00e1rter\u00fclet","name:ba":"\u041a\u0440\u0430\u0441\u043d\u043e\u0434\u0430\u0440 \u043a\u0440\u0430\u0439\u044b","osm_relation":true,"name:el":"\u039a\u03c1\u03ac\u03b9 \u039a\u03c1\u03b1\u03c3\u03bd\u03bf\u03bd\u03c4\u03ac\u03c1","kind":"region","name:en":"Krasnodar Krai","name":"\u041a\u0440\u0430\u0441\u043d\u043e\u0434\u0430\u0440\u0441\u043a\u0438\u0439 \u043a\u0440\u0430\u0439","maritime_boundary":true,"name:pl":"Kraj Krasnodarski","name:eu":"Krasnodar kraia","name:et":"Krasnodari krai","name:nl":"Kraj Krasnodar"},"arcs":[1]}]},"roads":{"type":"GeometryCollection","geometries":[{"type":"LineString","properties":{"kind":"major_road","network":"ru:national","sort_rank":380,"kind_detail":"primary","source":"openstreetmap.org","min_zoom":8.0,"shield_text":"4","ref":"\u041c-4"},"arcs":[108]},{"type":"LineString","properties":{"kind":"major_road","network":"e-road","sort_rank":381,"kind_detail":"trunk","source":"openstreetmap.org","min_zoom":8.0,"landuse_kind":"urban_area","shield_text":"115","ref":"\u041c-4","id":259042881},"arcs":[109]},{"type":"LineString","properties":{"source":"openstreetmap.org","kind":"major_road","name:en":"Stavropolskaya Street","landuse_kind":"urban_area","sort_rank":380,"kind_detail":"primary","min_zoom":8.0},"arcs":[110]},{"type":"LineString","properties":{"kind":"major_road","name:en":"Adygeyskaya Street","network":"ru:regional","sort_rank":380,"kind_detail":"primary","source":"openstreetmap.org","min_zoom":8.0,"shield_text":"79\u041a","ref":"79\u041a-CX","id":38901672},"arcs":[111]},{"type":"MultiLineString","properties":{"kind":"major_road","network":"ru:regional","sort_rank":380,"kind_detail":"primary","source":"openstreetmap.org","min_zoom":8.0,"shield_text":"03\u041a","ref":"03\u041a-002"},"arcs":[[112],[113],[114],[115]]},{"type":"MultiLineString","properties":{"kind":"major_road","network":"ru:regional","sort_rank":380,"kind_detail":"primary","source":"openstreetmap.org","min_zoom":8.0,"landuse_kind":"urban_area","shield_text":"03\u041a","ref":"03\u041a-580"},"arcs":[[116],[117],[118],[119],[120],[121],[122],[123],[124],[125],[126],[127],[128],[129],[130],[131],[132]]},{"type":"LineString","properties":{"bus_network":null,"name:en":"Novatorov Street","sort_rank":380,"kind_detail":"primary","kind":"major_road","source":"openstreetmap.org","min_zoom":8.0,"bus_shield_text":"2","landuse_kind":"urban_area"},"arcs":[133]},{"type":"LineString","properties":{"kind":"major_road","name:en":"Sochinskaya Street","network":"ru:national","sort_rank":381,"landuse_kind":"urban_area","source":"openstreetmap.org","min_zoom":8.0,"kind_detail":"trunk","shield_text":"147","ref":"\u0410-147"},"arcs":[134]},{"type":"LineString","properties":{"bus_network":null,"sort_rank":380,"kind_detail":"primary","kind":"major_road","source":"openstreetmap.org","min_zoom":8.0,"bus_shield_text":"16","landuse_kind":"urban_area"},"arcs":[135]},{"type":"MultiLineString","properties":{"bus_network":null,"name:en":"Dzerzhinskogo Street","sort_rank":380,"kind_detail":"primary","kind":"major_road","source":"openstreetmap.org","min_zoom":8.0,"bus_shield_text":"2","landuse_kind":"urban_area"},"arcs":[[136],[137]]},{"type":"LineString","properties":{"kind":"ferry","name:en":"Kerch - Batumi","name":"\u041a\u0435\u0440\u0447\u044c - \u0411\u0430\u0442\u0443\u043c\u0438","name:ka":"\u10e5\u10d4\u10e0\u10e9\u10d8 - \u10d1\u10d0\u10d7\u10e3\u10db\u10d8","sort_rank":355,"source":"openstreetmap.org","min_zoom":8.0,"name:uk":"\u041a\u0435\u0440\u0447 - \u0411\u0430\u0442\u0443\u043c\u0456"},"arcs":[138]},{"type":"MultiLineString","properties":{"source":"openstreetmap.org","kind":"major_road","name:en":"Suvorova Street","landuse_kind":"urban_area","sort_rank":380,"kind_detail":"primary","min_zoom":8.0},"arcs":[[139],[140]]},{"type":"LineString","properties":{"kind":"major_road","name:en":"Torgovaya Street","network":"ru:national","sort_rank":381,"kind_detail":"trunk","source":"openstreetmap.org","min_zoom":8.0,"shield_text":"146","ref":"\u0410-146"},"arcs":[141]},{"type":"MultiLineString","properties":{"kind":"major_road","network":"ru:national","sort_rank":380,"kind_detail":"primary","source":"openstreetmap.org","min_zoom":8.0,"landuse_kind":"urban_area","shield_text":"4","ref":"\u041c-4"},"arcs":[[142],[143]]},{"type":"MultiLineString","properties":{"bus_network":null,"name:en":"Selezniova Street","sort_rank":380,"kind_detail":"primary","kind":"major_road","source":"openstreetmap.org","min_zoom":8.0,"bus_shield_text":"2","landuse_kind":"urban_area"},"arcs":[[144],[145]]},{"type":"LineString","properties":{"kind":"major_road","name:en":"Lunacharskogo Street","network":"e-road","sort_rank":381,"kind_detail":"trunk","bus_network":null,"source":"openstreetmap.org","min_zoom":8.0,"bus_shield_text":"3","shield_text":"97","ref":"\u041c-4","id":338642935},"arcs":[146]},{"type":"MultiLineString","properties":{"kind":"major_road","network":"ru:regional","sort_rank":380,"kind_detail":"primary","source":"openstreetmap.org","min_zoom":8.0,"shield_text":"03\u041a","ref":"03\u041a-016"},"arcs":[[147],[148],[149]]},{"type":"MultiLineString","properties":{"kind":"major_road","network":"ru:regional","sort_rank":380,"kind_detail":"primary","source":"openstreetmap.org","min_zoom":8.0,"shield_text":"79\u041a","ref":"79\u041a-CX"},"arcs":[[150],[151],[152]]},{"type":"MultiLineString","properties":{"bus_network":null,"name:en":"Yaltinskaya Street","sort_rank":380,"kind_detail":"primary","kind":"major_road","source":"openstreetmap.org","min_zoom":8.0,"bus_shield_text":"2","landuse_kind":"urban_area"},"arcs":[[153],[154]]},{"type":"LineString","properties":{"kind":"major_road","name:en":"Shaumyana Street","network":"ru:regional","sort_rank":380,"kind_detail":"primary","source":"openstreetmap.org","min_zoom":8.0,"shield_text":"03\u041a","ref":"03\u041a-003"},"arcs":[155]},{"type":"MultiLineString","properties":{"bus_network":null,"name:en":"Stavropolskaya Street","sort_rank":380,"landuse_kind":"urban_area","kind":"major_road","source":"openstreetmap.org","min_zoom":8.0,"bus_shield_text":"7","kind_detail":"primary"},"arcs":[[156],[157]]},{"type":"LineString","properties":{"kind":"major_road","name:en":"Severnaya Street","network":"ru:regional","sort_rank":380,"kind_detail":"primary","source":"openstreetmap.org","min_zoom":8.0,"landuse_kind":"residential","shield_text":"03\u041a","ref":"03\u041a-002","id":32824936},"arcs":[158]},{"type":"LineString","properties":{"kind":"major_road","name:en":"Turgeneva Street","sort_rank":380,"kind_detail":"primary","bus_network":"\u041c\u0415\u0413\u0410","source":"openstreetmap.org","min_zoom":8.0,"bus_shield_text":"\u041c\u0415\u0413\u0410","landuse_kind":"urban_area"},"arcs":[159]},{"type":"LineString","properties":{"bus_network":null,"network":"ru:regional","sort_rank":380,"kind_detail":"primary","kind":"major_road","source":"openstreetmap.org","min_zoom":8.0,"bus_shield_text":"1","shield_text":"03\u0410","ref":"03\u0410-009"},"arcs":[160]},{"type":"LineString","properties":{"kind":"major_road","name:en":"Shosseynaya Street","network":"ru:national","sort_rank":381,"kind_detail":"trunk","source":"openstreetmap.org","min_zoom":8.0,"shield_text":"146","ref":"\u0410-146","id":31121459},"arcs":[161]},{"type":"LineString","properties":{"kind":"major_road","name:en":"Starokubanskaya Street","sort_rank":380,"kind_detail":"primary","bus_network":null,"source":"openstreetmap.org","min_zoom":8.0,"bus_shield_text":"7","landuse_kind":"urban_area","id":169098412},"arcs":[162]},{"type":"LineString","properties":{"source":"openstreetmap.org","kind":"major_road","name:en":"Perekhodnaya Street","landuse_kind":"urban_area","sort_rank":380,"kind_detail":"primary","min_zoom":8.0},"arcs":[163]},{"type":"LineString","properties":{"bus_network":null,"sort_rank":380,"kind_detail":"primary","kind":"major_road","source":"openstreetmap.org","min_zoom":8.0,"bus_shield_text":"20","landuse_kind":"urban_area"},"arcs":[164]},{"type":"LineString","properties":{"bus_network":null,"sort_rank":380,"kind_detail":"primary","kind":"major_road","source":"openstreetmap.org","min_zoom":8.0,"bus_shield_text":"9","landuse_kind":"urban_area"},"arcs":[165]},{"type":"LineString","properties":{"kind":"major_road","name:en":"Sovetskaya Street","network":"ru:national","sort_rank":381,"kind_detail":"trunk","source":"openstreetmap.org","min_zoom":8.0,"int_name":"Sovetskaya Street","name:uk":"\u0420\u0430\u0434\u044f\u043d\u0441\u044c\u043a\u0430 \u0432\u0443\u043b\u0438\u0446\u044f","shield_text":"146","ref":"\u0410-146"},"arcs":[166]},{"type":"LineString","properties":{"kind":"major_road","name:en":"Severnaya Street","sort_rank":380,"kind_detail":"primary","bus_network":null,"source":"openstreetmap.org","min_zoom":8.0,"bus_shield_text":"4","landuse_kind":"urban_area","id":465641353},"arcs":[167]},{"type":"MultiLineString","properties":{"kind":"major_road","network":"ru:national","sort_rank":380,"kind_detail":"primary","source":"openstreetmap.org","min_zoom":8.0,"shield_text":"146","ref":"\u0410-146"},"arcs":[[168],[169],[170],[171],[172]]},{"type":"LineString","properties":{"kind":"major_road","name:en":"Stakhanovskaya Street","sort_rank":380,"kind_detail":"primary","bus_network":null,"source":"openstreetmap.org","min_zoom":8.0,"bus_shield_text":"2","landuse_kind":"urban_area","id":26940060},"arcs":[173]},{"type":"MultiLineString","properties":{"kind":"major_road","network":"ru:regional","sort_rank":380,"kind_detail":"primary","source":"openstreetmap.org","min_zoom":8.0,"landuse_kind":"urban_area","shield_text":"03\u0410","ref":"03\u0410-009"},"arcs":[[174],[175],[176],[177],[178]]},{"type":"LineString","properties":{"kind":"major_road","name:en":"Krasnoarmeyskaya Street","network":"ru:regional","sort_rank":380,"kind_detail":"primary","source":"openstreetmap.org","min_zoom":8.0,"shield_text":"79\u041a","ref":"79\u041a-CX","id":135088596},"arcs":[179]},{"type":"LineString","properties":{"kind":"major_road","sort_rank":380,"kind_detail":"primary","bus_network":"\u041c\u0415\u0413\u0410","source":"openstreetmap.org","min_zoom":8.0,"bus_shield_text":"\u041c\u0415\u0413\u0410","landuse_kind":"urban_area"},"arcs":[180]},{"type":"LineString","properties":{"source":"openstreetmap.org","kind":"major_road","name:en":"Lenina Street","sort_rank":380,"kind_detail":"primary","min_zoom":8.0},"arcs":[181]},{"type":"MultiLineString","properties":{"sort_rank":381,"source":"openstreetmap.org","min_zoom":8.0,"kind":"major_road","kind_detail":"trunk"},"arcs":[[182],[183]]},{"type":"LineString","properties":{"kind":"major_road","name:en":"Sochinskaya Street","network":"ru:national","sort_rank":381,"kind_detail":"trunk","source":"openstreetmap.org","min_zoom":8.0,"shield_text":"147","ref":"\u0410-147"},"arcs":[184]},{"type":"LineString","properties":{"kind":"major_road","network":"ru:national","sort_rank":381,"landuse_kind":"urban_area","source":"openstreetmap.org","min_zoom":8.0,"kind_detail":"trunk","shield_text":"147","ref":"\u0410-147"},"arcs":[185]},{"type":"MultiLineString","properties":{"kind":"major_road","name:en":"Kalinina Street","network":"ru:regional","sort_rank":380,"kind_detail":"primary","source":"openstreetmap.org","min_zoom":8.0,"landuse_kind":"urban_area","shield_text":"03\u041a","ref":"03\u041a-580"},"arcs":[[186],[187]]},{"type":"LineString","properties":{"kind":"major_road","name:en":"Chernomorskaya Street","network":"ru:regional","sort_rank":380,"kind_detail":"primary","source":"openstreetmap.org","min_zoom":8.0,"landuse_kind":"urban_area","shield_text":"03\u0410","ref":"03\u0410-009","id":31121455},"arcs":[188]},{"type":"MultiLineString","properties":{"bus_network":null,"network":"ru:national","sort_rank":380,"kind_detail":"primary","kind":"major_road","source":"openstreetmap.org","min_zoom":8.0,"bus_shield_text":"188","shield_text":"146","landuse_kind":"urban_area","ref":"\u0410-146"},"arcs":[[189],[190],[191]]},{"type":"MultiLineString","properties":{"source":"openstreetmap.org","kind":"major_road","name:en":"Kalinina Street","landuse_kind":"urban_area","sort_rank":380,"kind_detail":"primary","min_zoom":8.0},"arcs":[[192],[193]]},{"type":"LineString","properties":{"bus_network":null,"network":"ru:national","sort_rank":380,"kind_detail":"primary","kind":"major_road","source":"openstreetmap.org","min_zoom":8.0,"bus_shield_text":"177","shield_text":"146","landuse_kind":"urban_area","ref":"\u0410-146"},"arcs":[194]},{"type":"MultiLineString","properties":{"bus_network":null,"network":"ru:national","sort_rank":381,"kind_detail":"trunk","kind":"major_road","source":"openstreetmap.org","min_zoom":8.0,"bus_shield_text":"\u0422\u0443\u0430\u043f\u0441\u0435 \u2014 \u041f\u043e\u0440\u0442 \u041a\u0430\u0432\u043a\u0430\u0437","shield_text":"4","ref":"\u041c-4"},"arcs":[[195],[196],[197],[198],[199],[200],[201],[202],[203],[204],[205],[206],[207]]},{"type":"LineString","properties":{"kind":"major_road","network":"e-road","sort_rank":381,"kind_detail":"trunk","bus_network":null,"source":"openstreetmap.org","min_zoom":8.0,"bus_shield_text":"\u0422\u0443\u0430\u043f\u0441\u0435 \u2014 \u041f\u043e\u0440\u0442 \u041a\u0430\u0432\u043a\u0430\u0437","shield_text":"97","ref":"\u041c-4","id":106099582},"arcs":[208]},{"type":"MultiLineString","properties":{"kind":"major_road","name:en":"Polevaya Street","network":"ru:regional","sort_rank":380,"kind_detail":"primary","source":"openstreetmap.org","min_zoom":8.0,"shield_text":"03\u041a","ref":"03\u041a-580"},"arcs":[[209],[210]]},{"type":"LineString","properties":{"kind":"major_road","network":"e-road","sort_rank":381,"kind_detail":"trunk","source":"openstreetmap.org","min_zoom":8.0,"shield_text":"115","id":59925376},"arcs":[211]},{"type":"MultiLineString","properties":{"kind":"major_road","name:en":"Krasnykh Partizan Street","network":"ru:regional","sort_rank":380,"kind_detail":"primary","source":"openstreetmap.org","min_zoom":8.0,"landuse_kind":"urban_area","shield_text":"03\u041a","ref":"03\u041a-580"},"arcs":[[212],[213]]},{"type":"MultiLineString","properties":{"bus_network":null,"name:en":"Krasnykh Partizan Street","sort_rank":380,"kind_detail":"primary","kind":"major_road","source":"openstreetmap.org","min_zoom":8.0,"bus_shield_text":"4","landuse_kind":"urban_area"},"arcs":[[214],[215]]},{"type":"LineString","properties":{"bus_network":null,"int_name":"Sovetskaya Street","network":"ru:national","sort_rank":381,"kind_detail":"trunk","kind":"major_road","source":"openstreetmap.org","min_zoom":8.0,"name:en":"Sovetskaya Street","name:uk":"\u0420\u0430\u0434\u044f\u043d\u0441\u044c\u043a\u0430 \u0432\u0443\u043b\u0438\u0446\u044f","bus_shield_text":"\u0422\u0443\u0430\u043f\u0441\u0435 \u2014 \u041f\u043e\u0440\u0442 \u041a\u0430\u0432\u043a\u0430\u0437","shield_text":"4","ref":"\u041c-4","id":165479666},"arcs":[216]},{"type":"LineString","properties":{"source":"openstreetmap.org","kind":"ferry","name":"\u0422\u0443\u0430\u043f\u0441\u0435 - \u0421\u043e\u0447\u0438","sort_rank":355,"landuse_kind":"urban_area","min_zoom":8.0,"id":69594932},"arcs":[217]},{"type":"MultiLineString","properties":{"kind":"major_road","network":"ru:national","sort_rank":380,"kind_detail":"primary","source":"openstreetmap.org","min_zoom":8.0,"landuse_kind":"urban_area","shield_text":"147","ref":"\u0410-147"},"arcs":[[218],[219]]},{"type":"MultiLineString","properties":{"bus_network":null,"network":"ru:national","sort_rank":380,"kind_detail":"primary","kind":"major_road","source":"openstreetmap.org","min_zoom":8.0,"bus_shield_text":"188","shield_text":"146","ref":"\u0410-146"},"arcs":[[220],[221]]},{"type":"LineString","properties":{"kind":"major_road","name:en":"Novorossiyskaya Street","network":"ru:regional","sort_rank":380,"kind_detail":"primary","source":"openstreetmap.org","min_zoom":8.0,"shield_text":"03\u0410","ref":"03\u0410-009"},"arcs":[222]},{"type":"MultiLineString","properties":{"source":"openstreetmap.org","kind":"major_road","landuse_kind":"urban_area","sort_rank":380,"kind_detail":"primary","min_zoom":8.0},"arcs":[[223],[224],[225],[226],[227],[228],[229],[230],[231],[232],[233],[234],[235],[236],[237],[238],[239],[240],[241],[242],[243],[244],[245],[246],[247],[248],[249],[250],[251],[252],[253],[254],[255],[256],[257],[258],[259],[260],[261],[262],[263],[264],[265]]},{"type":"MultiLineString","properties":{"bus_network":null,"name:en":"Machugi Street","sort_rank":380,"kind_detail":"primary","kind":"major_road","source":"openstreetmap.org","min_zoom":8.0,"bus_shield_text":"7","landuse_kind":"urban_area"},"arcs":[[266],[267]]},{"type":"MultiLineString","properties":{"bus_network":null,"name:en":"Rostovskoye shosse","sort_rank":380,"kind_detail":"primary","kind":"major_road","source":"openstreetmap.org","min_zoom":8.0,"bus_shield_text":"152A","landuse_kind":"urban_area"},"arcs":[[268],[269]]},{"type":"LineString","properties":{"sort_rank":355,"source":"openstreetmap.org","min_zoom":8.0,"name":"\u041d\u043e\u0432\u043e\u0440\u043e\u0441\u0441\u0438\u0439\u0441\u043a - \u0421\u043e\u0447\u0438","kind":"ferry"},"arcs":[270]},{"type":"LineString","properties":{"kind":"major_road","name:en":"Dorozhnaya Street","network":"ru:national","sort_rank":380,"kind_detail":"primary","source":"openstreetmap.org","min_zoom":8.0,"landuse_kind":"urban_area","shield_text":"146","ref":"\u0410-146"},"arcs":[271]},{"type":"MultiLineString","properties":{"bus_network":null,"name:en":"Chernomorskaya Street","network":"ru:national","sort_rank":381,"kind_detail":"trunk","kind":"major_road","source":"openstreetmap.org","min_zoom":8.0,"bus_shield_text":"\u0422\u0443\u0430\u043f\u0441\u0435 \u2014 \u041f\u043e\u0440\u0442 \u041a\u0430\u0432\u043a\u0430\u0437","shield_text":"147","ref":"\u0410-147"},"arcs":[[272],[273]]},{"type":"LineString","properties":{"source":"openstreetmap.org","kind":"major_road","name:en":"Tabachnaya Street","sort_rank":380,"kind_detail":"primary","min_zoom":8.0,"id":114683290},"arcs":[274]},{"type":"LineString","properties":{"bus_network":null,"name:en":"Lunacharskogo Street","sort_rank":380,"kind_detail":"primary","kind":"major_road","source":"openstreetmap.org","min_zoom":8.0,"bus_shield_text":"112","landuse_kind":"urban_area"},"arcs":[275]},{"type":"LineString","properties":{"bus_network":null,"sort_rank":380,"kind_detail":"primary","kind":"major_road","source":"openstreetmap.org","min_zoom":8.0,"bus_shield_text":"152A","landuse_kind":"urban_area"},"arcs":[276]},{"type":"LineString","properties":{"kind":"major_road","name:en":"Dorozhnaya Street","network":"ru:national","sort_rank":381,"kind_detail":"trunk","source":"openstreetmap.org","min_zoom":8.0,"shield_text":"4","ref":"\u041c-4"},"arcs":[277]},{"type":"LineString","properties":{"source":"openstreetmap.org","kind":"major_road","name:en":"Krasnoarmeyskaya Street","landuse_kind":"urban_area","sort_rank":380,"kind_detail":"primary","min_zoom":8.0},"arcs":[278]},{"type":"LineString","properties":{"bus_network":null,"name:en":"Lunacharskogo Street","sort_rank":380,"kind_detail":"primary","kind":"major_road","source":"openstreetmap.org","min_zoom":8.0,"bus_shield_text":"3"},"arcs":[279]},{"type":"LineString","properties":{"kind":"major_road","network":"ru:national","sort_rank":381,"kind_detail":"trunk","source":"openstreetmap.org","min_zoom":8.0,"shield_text":"147","ref":"\u0410-147"},"arcs":[280]},{"type":"LineString","properties":{"bus_network":null,"name:en":"Lunacharskogo Street","network":"ru:national","sort_rank":381,"kind_detail":"trunk","kind":"major_road","source":"openstreetmap.org","min_zoom":8.0,"bus_shield_text":"\u0422\u0443\u0430\u043f\u0441\u0435 \u2014 \u041f\u043e\u0440\u0442 \u041a\u0430\u0432\u043a\u0430\u0437","shield_text":"4","ref":"\u041c-4"},"arcs":[281]},{"type":"LineString","properties":{"kind":"major_road","name:en":"Bogdana Khmelnitskogo Street","network":"ru:regional","sort_rank":380,"kind_detail":"primary","source":"openstreetmap.org","min_zoom":8.0,"landuse_kind":"urban_area","shield_text":"03\u041a","ref":"03\u041a-003","id":36812829},"arcs":[282]},{"type":"MultiLineString","properties":{"kind":"major_road","network":"ru:regional","sort_rank":380,"kind_detail":"primary","source":"openstreetmap.org","min_zoom":8.0,"shield_text":"03\u0410","ref":"03\u0410-009"},"arcs":[[283],[284],[285]]},{"type":"LineString","properties":{"kind":"major_road","name:en":"Lenina Street","network":"ru:national","sort_rank":381,"landuse_kind":"urban_area","source":"openstreetmap.org","min_zoom":8.0,"kind_detail":"trunk","shield_text":"146","ref":"\u0410-146"},"arcs":[286]},{"type":"MultiLineString","properties":{"kind":"major_road","network":"ru:regional","sort_rank":380,"kind_detail":"primary","source":"openstreetmap.org","min_zoom":8.0,"shield_text":"03\u041a","ref":"03\u041a-580"},"arcs":[[287],[288]]},{"type":"MultiLineString","properties":{"kind":"major_road","network":"ru:regional","sort_rank":380,"kind_detail":"primary","source":"openstreetmap.org","min_zoom":8.0,"landuse_kind":"urban_area","shield_text":"03\u041a","ref":"03\u041a-002"},"arcs":[[289],[290]]},{"type":"MultiLineString","properties":{"bus_network":null,"network":"ru:national","sort_rank":381,"kind_detail":"trunk","kind":"major_road","source":"openstreetmap.org","min_zoom":8.0,"bus_shield_text":"\u0422\u0443\u0430\u043f\u0441\u0435 \u2014 \u041f\u043e\u0440\u0442 \u041a\u0430\u0432\u043a\u0430\u0437","shield_text":"147","ref":"\u0410-147"},"arcs":[[291],[292],[293],[294],[295],[296],[297],[298],[299]]},{"type":"LineString","properties":{"kind":"major_road","name:en":"Sevastopolskaya Street","sort_rank":380,"landuse_kind":"urban_area","source":"openstreetmap.org","min_zoom":8.0,"kind_detail":"primary","id":259417645},"arcs":[300]},{"type":"LineString","properties":{"source":"openstreetmap.org","kind":"major_road","name:en":"Golovatogo Street","landuse_kind":"urban_area","sort_rank":380,"kind_detail":"primary","min_zoom":8.0},"arcs":[301]},{"type":"MultiLineString","properties":{"kind":"major_road","network":"ru:national","sort_rank":380,"kind_detail":"primary","source":"openstreetmap.org","min_zoom":8.0,"landuse_kind":"urban_area","shield_text":"146","ref":"\u0410-146"},"arcs":[[302],[303],[304]]},{"type":"MultiLineString","properties":{"bus_network":null,"network":"ru:national","sort_rank":381,"kind_detail":"trunk","kind":"major_road","source":"openstreetmap.org","min_zoom":8.0,"bus_shield_text":"188","shield_text":"146","ref":"\u0410-146"},"arcs":[[305],[306],[307],[308]]},{"type":"LineString","properties":{"kind":"major_road","name:en":"Chernomorskaya Street","network":"ru:regional","sort_rank":380,"kind_detail":"primary","source":"openstreetmap.org","min_zoom":8.0,"shield_text":"03\u0410","ref":"03\u0410-009","id":31121455},"arcs":[309]},{"type":"LineString","properties":{"bus_network":null,"sort_rank":380,"kind_detail":"primary","kind":"major_road","source":"openstreetmap.org","min_zoom":8.0,"bus_shield_text":"21","landuse_kind":"urban_area"},"arcs":[310]},{"type":"MultiLineString","properties":{"bus_network":null,"name:en":"Novorossiyskoye shosse","network":"ru:national","sort_rank":381,"landuse_kind":"urban_area","kind":"major_road","source":"openstreetmap.org","min_zoom":8.0,"bus_shield_text":"\u0422\u0443\u0430\u043f\u0441\u0435 \u2014 \u041f\u043e\u0440\u0442 \u041a\u0430\u0432\u043a\u0430\u0437","shield_text":"147","kind_detail":"trunk","ref":"\u0410-147"},"arcs":[[311],[312],[313]]},{"type":"LineString","properties":{"source":"openstreetmap.org","kind":"major_road","name:en":"Vishnyakovoy Street","landuse_kind":"urban_area","sort_rank":380,"kind_detail":"primary","min_zoom":8.0},"arcs":[314]},{"type":"LineString","properties":{"bus_network":null,"name:en":"Lunacharskogo Street","sort_rank":380,"kind_detail":"primary","kind":"major_road","source":"openstreetmap.org","min_zoom":8.0,"bus_shield_text":"112"},"arcs":[315]},{"type":"MultiLineString","properties":{"sort_rank":380,"kind_detail":"primary","min_zoom":8.0,"kind":"major_road","source":"openstreetmap.org"},"arcs":[[316],[317],[318],[319]]},{"type":"MultiLineString","properties":{"kind":"major_road","network":"ru:national","sort_rank":380,"kind_detail":"primary","bus_network":"\u041c\u0415\u0413\u0410","source":"openstreetmap.org","min_zoom":8.0,"bus_shield_text":"\u041c\u0415\u0413\u0410","shield_text":"146","landuse_kind":"urban_area","ref":"\u0410-146"},"arcs":[[320],[321]]},{"type":"MultiLineString","properties":{"bus_network":null,"name:en":"Machugi Street","sort_rank":380,"kind_detail":"primary","kind":"major_road","source":"openstreetmap.org","min_zoom":8.0,"bus_shield_text":"2","landuse_kind":"urban_area"},"arcs":[[322],[323]]},{"type":"LineString","properties":{"kind":"major_road","network":"ru:national","sort_rank":381,"kind_detail":"trunk","bus_network":null,"source":"openstreetmap.org","min_zoom":8.0,"bus_shield_text":"24","shield_text":"4","ref":"\u041c-4","id":9656191},"arcs":[324]},{"type":"MultiLineString","properties":{"bus_network":null,"name:en":"Starokubanskaya Street","sort_rank":380,"kind_detail":"primary","kind":"major_road","source":"openstreetmap.org","min_zoom":8.0,"bus_shield_text":"2","landuse_kind":"urban_area"},"arcs":[[325],[326]]},{"type":"LineString","properties":{"source":"openstreetmap.org","kind":"major_road","name:en":"Zakharova Street","landuse_kind":"urban_area","sort_rank":380,"kind_detail":"primary","min_zoom":8.0},"arcs":[327]},{"type":"LineString","properties":{"bus_network":null,"sort_rank":380,"kind_detail":"primary","kind":"major_road","source":"openstreetmap.org","min_zoom":8.0,"bus_shield_text":"188","landuse_kind":"urban_area"},"arcs":[328]},{"type":"LineString","properties":{"bus_network":null,"name:en":"Shosseynaya Street","network":"ru:national","sort_rank":381,"kind_detail":"trunk","kind":"major_road","source":"openstreetmap.org","min_zoom":8.0,"bus_shield_text":"\u0422\u0443\u0430\u043f\u0441\u0435 \u2014 \u041f\u043e\u0440\u0442 \u041a\u0430\u0432\u043a\u0430\u0437","shield_text":"4","ref":"\u041c-4"},"arcs":[329]},{"type":"MultiLineString","properties":{"bus_network":null,"name:en":"Severnaya Street","sort_rank":380,"kind_detail":"primary","kind":"major_road","source":"openstreetmap.org","min_zoom":8.0,"bus_shield_text":"152A","landuse_kind":"urban_area"},"arcs":[[330],[331]]},{"type":"MultiLineString","properties":{"kind":"major_road","name:en":"Severnaya Street","network":"ru:regional","sort_rank":380,"kind_detail":"primary","source":"openstreetmap.org","min_zoom":8.0,"shield_text":"03\u041a","ref":"03\u041a-002","id":32824936},"arcs":[[332],[333]]},{"type":"LineString","properties":{"kind":"major_road","name:en":"Shosseynaya Street","network":"ru:regional","sort_rank":380,"kind_detail":"primary","source":"openstreetmap.org","min_zoom":8.0,"shield_text":"03\u041a","ref":"03\u041a-016","id":28732234},"arcs":[334]},{"type":"MultiLineString","properties":{"kind":"major_road","name:en":"Novorossiyskaya Street","network":"ru:regional","sort_rank":380,"kind_detail":"primary","source":"openstreetmap.org","min_zoom":8.0,"landuse_kind":"urban_area","shield_text":"03\u0410","ref":"03\u0410-009"},"arcs":[[335],[336]]},{"type":"LineString","properties":{"source":"openstreetmap.org","kind":"ferry","sort_rank":355,"ref":"\u0421\u043e\u0447\u0438 - \u041d\u043e\u0432\u043e\u0440\u043e\u0441\u0441\u0438\u0439\u0441\u043a","min_zoom":8.0,"osm_relation":true},"arcs":[337]},{"type":"LineString","properties":{"kind":"major_road","name:en":"Lenina Street","network":"ru:national","sort_rank":380,"kind_detail":"primary","source":"openstreetmap.org","min_zoom":8.0,"landuse_kind":"urban_area","shield_text":"146","ref":"\u0410-146","id":31813209},"arcs":[338]},{"type":"LineString","properties":{"kind":"major_road","name:en":"Krasnodarskaya Street","network":"ru:national","sort_rank":381,"kind_detail":"trunk","source":"openstreetmap.org","min_zoom":8.0,"shield_text":"4","ref":"\u041c-4"},"arcs":[339]},{"type":"MultiLineString","properties":{"kind":"major_road","network":"ru:regional","sort_rank":380,"kind_detail":"primary","source":"openstreetmap.org","min_zoom":8.0,"shield_text":"03\u041a","ref":"03\u041a-579"},"arcs":[[340],[341],[342],[343],[344],[345]]},{"type":"LineString","properties":{"source":"openstreetmap.org","kind":"ferry","sort_rank":355,"ref":"\u041a\u0435\u0440\u0447\u044c - \u0411\u0430\u0442\u0443\u043c\u0438 (Kerch - Batumi)","min_zoom":8.0,"osm_relation":true},"arcs":[346]},{"type":"MultiLineString","properties":{"bus_network":null,"name:en":"Severnaya Street","sort_rank":380,"landuse_kind":"urban_area","kind":"major_road","source":"openstreetmap.org","min_zoom":8.0,"bus_shield_text":"2","kind_detail":"primary"},"arcs":[[347],[348],[349],[350],[351]]},{"type":"LineString","properties":{"kind":"major_road","name:en":"Lenina Street","network":"ru:national","sort_rank":381,"kind_detail":"trunk","source":"openstreetmap.org","min_zoom":8.0,"shield_text":"146","ref":"\u0410-146"},"arcs":[352]},{"type":"LineString","properties":{"kind":"major_road","name:en":"Vokazlnaya Street","network":"ru:regional","sort_rank":380,"kind_detail":"primary","source":"openstreetmap.org","min_zoom":8.0,"shield_text":"03\u041a","ref":"03\u041a-016","id":110356918},"arcs":[353]},{"type":"MultiLineString","properties":{"bus_network":null,"name:en":"Mira Street","network":"ru:national","sort_rank":381,"kind_detail":"trunk","kind":"major_road","source":"openstreetmap.org","min_zoom":8.0,"bus_shield_text":"\u0422\u0443\u0430\u043f\u0441\u0435 \u2014 \u041f\u043e\u0440\u0442 \u041a\u0430\u0432\u043a\u0430\u0437","shield_text":"147","ref":"\u0410-147"},"arcs":[[354],[355]]},{"type":"LineString","properties":{"source":"openstreetmap.org","kind":"major_road","name:en":"Severnaya Street","landuse_kind":"urban_area","sort_rank":380,"kind_detail":"primary","min_zoom":8.0},"arcs":[356]},{"type":"MultiLineString","properties":{"bus_network":null,"network":"ru:national","sort_rank":381,"landuse_kind":"urban_area","kind":"major_road","source":"openstreetmap.org","min_zoom":8.0,"bus_shield_text":"\u0422\u0443\u0430\u043f\u0441\u0435 \u2014 \u041f\u043e\u0440\u0442 \u041a\u0430\u0432\u043a\u0430\u0437","shield_text":"4","kind_detail":"trunk","ref":"\u041c-4"},"arcs":[[357],[358]]},{"type":"MultiLineString","properties":{"source":"openstreetmap.org","kind":"major_road","name:en":"Turgeneva Street","landuse_kind":"urban_area","sort_rank":380,"kind_detail":"primary","min_zoom":8.0},"arcs":[[359],[360]]},{"type":"LineString","properties":{"kind":"major_road","name:en":"Dorozhnaya Street","sort_rank":380,"landuse_kind":"urban_area","source":"openstreetmap.org","min_zoom":8.0,"kind_detail":"primary","id":546152378},"arcs":[361]},{"type":"MultiLineString","properties":{"source":"openstreetmap.org","kind":"major_road","name:en":"Akademika Lukianenko Street","landuse_kind":"urban_area","sort_rank":380,"kind_detail":"primary","min_zoom":8.0},"arcs":[[362],[363]]},{"type":"MultiLineString","properties":{"bus_network":null,"name:en":"Novorossiyskoye shosse","network":"ru:national","sort_rank":381,"kind_detail":"trunk","kind":"major_road","source":"openstreetmap.org","min_zoom":8.0,"bus_shield_text":"\u0422\u0443\u0430\u043f\u0441\u0435 \u2014 \u041f\u043e\u0440\u0442 \u041a\u0430\u0432\u043a\u0430\u0437","shield_text":"147","ref":"\u0410-147"},"arcs":[[364],[365],[366],[367]]},{"type":"LineString","properties":{"source":"openstreetmap.org","kind":"major_road","name:en":"Kommunarov Street","sort_rank":380,"kind_detail":"primary","min_zoom":8.0,"id":50552399},"arcs":[368]},{"type":"LineString","properties":{"source":"openstreetmap.org","kind":"major_road","name:en":"Shosseynaya Street","sort_rank":380,"kind_detail":"primary","min_zoom":8.0},"arcs":[369]},{"type":"LineString","properties":{"kind":"major_road","name:en":"Tsentralnaya Street","network":"ru:regional","sort_rank":380,"kind_detail":"primary","source":"openstreetmap.org","min_zoom":8.0,"name:uk":"\u0426\u0435\u043d\u0442\u0440\u0430\u043b\u044c\u043d\u0430 \u0432\u0443\u043b\u0438\u0446\u044f","shield_text":"03\u041a","ref":"03\u041a-003"},"arcs":[370]},{"type":"LineString","properties":{"bus_network":null,"network":"ru:national","sort_rank":380,"kind_detail":"primary","kind":"major_road","source":"openstreetmap.org","min_zoom":8.0,"bus_shield_text":"112","shield_text":"4","ref":"\u041c-4"},"arcs":[371]},{"type":"MultiLineString","properties":{"kind":"major_road","name:en":"Novorossiyskoye shosse","network":"ru:national","sort_rank":381,"landuse_kind":"urban_area","source":"openstreetmap.org","min_zoom":8.0,"kind_detail":"trunk","shield_text":"147","ref":"\u0410-147"},"arcs":[[372],[373]]},{"type":"MultiLineString","properties":{"bus_network":null,"name:en":"Turgeneva Street","sort_rank":380,"kind_detail":"primary","kind":"major_road","source":"openstreetmap.org","min_zoom":8.0,"bus_shield_text":"2","landuse_kind":"urban_area"},"arcs":[[374],[375],[376]]},{"type":"MultiLineString","properties":{"kind":"major_road","network":"ru:national","sort_rank":381,"landuse_kind":"urban_area","source":"openstreetmap.org","min_zoom":8.0,"kind_detail":"trunk","shield_text":"4","ref":"\u041c-4"},"arcs":[[377],[378],[379],[380],[381],[382],[383],[384],[385],[386],[387],[388],[389],[390],[391],[392],[393]]},{"type":"MultiLineString","properties":{"kind":"major_road","network":"ru:regional","sort_rank":380,"kind_detail":"primary","source":"openstreetmap.org","min_zoom":8.0,"landuse_kind":"urban_area","shield_text":"03\u041a","ref":"03\u041a-003"},"arcs":[[394],[395]]},{"type":"MultiLineString","properties":{"kind":"major_road","name:en":"Maykopskaya Street","network":"ru:regional","sort_rank":380,"kind_detail":"primary","source":"openstreetmap.org","min_zoom":8.0,"shield_text":"03\u041a","ref":"03\u041a-003"},"arcs":[[396],[397],[398],[399],[400],[401],[402],[403],[404],[405],[406]]},{"type":"MultiLineString","properties":{"bus_network":null,"name:en":"Lenina Street","network":"ru:national","sort_rank":381,"kind_detail":"trunk","kind":"major_road","source":"openstreetmap.org","min_zoom":8.0,"bus_shield_text":"\u0422\u0443\u0430\u043f\u0441\u0435 \u2014 \u041f\u043e\u0440\u0442 \u041a\u0430\u0432\u043a\u0430\u0437","shield_text":"4","ref":"\u041c-4"},"arcs":[[407],[408]]},{"type":"MultiLineString","properties":{"kind":"major_road","network":"ru:national","sort_rank":381,"kind_detail":"trunk","source":"openstreetmap.org","min_zoom":8.0,"shield_text":"4","ref":"\u041c-4"},"arcs":[[409],[410],[411],[412],[413],[414],[415],[416],[417],[418],[419],[420],[421],[422],[423],[424],[425],[426],[427],[428],[429],[430],[431],[432],[433],[434],[435],[436],[437],[438],[439],[440],[441],[442],[443],[444],[445],[446],[447],[448],[449],[450],[451],[452]]},{"type":"MultiLineString","properties":{"kind":"major_road","network":"ru:regional","sort_rank":380,"kind_detail":"primary","source":"openstreetmap.org","min_zoom":8.0,"shield_text":"03\u041a","ref":"03\u041a-003"},"arcs":[[453],[454],[455],[456],[457],[458],[459],[460],[461],[462],[463],[464],[465],[466]]},{"type":"MultiLineString","properties":{"kind":"major_road","network":"ru:national","sort_rank":381,"kind_detail":"trunk","source":"openstreetmap.org","min_zoom":8.0,"shield_text":"146","ref":"\u0410-146"},"arcs":[[467],[468],[469],[470],[471],[472],[473],[474],[475],[476],[477],[478],[479],[480],[481],[482],[483],[484],[485],[486],[487],[488],[489],[490],[491],[492],[493],[494],[495],[496],[497]]},{"type":"MultiLineString","properties":{"bus_network":null,"name:en":"Stavropolskaya Street","sort_rank":380,"landuse_kind":"urban_area","kind":"major_road","source":"openstreetmap.org","min_zoom":8.0,"bus_shield_text":"2","kind_detail":"primary"},"arcs":[[498],[499]]},{"type":"MultiLineString","properties":{"source":"openstreetmap.org","kind":"major_road","name:en":"Borodinskaya Street","landuse_kind":"urban_area","sort_rank":380,"kind_detail":"primary","min_zoom":8.0},"arcs":[[500],[501]]},{"type":"MultiLineString","properties":{"bus_network":null,"name:en":"Rostovskoye shosse","network":"ru:national","sort_rank":380,"kind_detail":"primary","kind":"major_road","source":"openstreetmap.org","min_zoom":8.0,"bus_shield_text":"152A","shield_text":"136","landuse_kind":"urban_area","ref":"\u0410-136"},"arcs":[[502],[503]]},{"type":"MultiLineString","properties":{"kind":"major_road","name:en":"Mira Street","network":"ru:national","sort_rank":381,"kind_detail":"trunk","source":"openstreetmap.org","min_zoom":8.0,"shield_text":"146","ref":"\u0410-146"},"arcs":[[504],[505],[506],[507]]},{"type":"MultiLineString","properties":{"source":"openstreetmap.org","kind":"major_road","name:en":"Adygeyskaya Street","sort_rank":380,"kind_detail":"primary","min_zoom":8.0},"arcs":[[508],[509]]},{"type":"LineString","properties":{"kind":"major_road","network":"ru:national","sort_rank":381,"kind_detail":"trunk","bus_network":null,"source":"openstreetmap.org","min_zoom":8.0,"bus_shield_text":"112","shield_text":"4","ref":"\u041c-4","id":502750260},"arcs":[510]},{"type":"LineString","properties":{"bus_network":null,"int_name":"Severnaya street","sort_rank":380,"landuse_kind":"urban_area","kind":"major_road","source":"openstreetmap.org","min_zoom":8.0,"name:en":"Severnaya Street","bus_shield_text":"2","kind_detail":"primary"},"arcs":[511]},{"type":"LineString","properties":{"bus_network":null,"name:en":"Turgeneva Street","sort_rank":380,"kind_detail":"primary","kind":"major_road","source":"openstreetmap.org","min_zoom":8.0,"bus_shield_text":"188","landuse_kind":"urban_area"},"arcs":[512]},{"type":"MultiLineString","properties":{"source":"openstreetmap.org","kind":"major_road","sort_rank":380,"kind_detail":"primary","ref":"79\u041a-CX","min_zoom":8.0},"arcs":[[513],[514]]},{"type":"LineString","properties":{"kind":"major_road","network":"ru:national","sort_rank":381,"kind_detail":"trunk","source":"openstreetmap.org","min_zoom":8.0,"landuse_kind":"urban_area","shield_text":"4","id":129903775},"arcs":[515]},{"type":"MultiLineString","properties":{"source":"openstreetmap.org","kind":"major_road","name:en":"Bogdana Khmelnitskogo Street","landuse_kind":"urban_area","sort_rank":380,"kind_detail":"primary","min_zoom":8.0},"arcs":[[516],[517]]},{"type":"MultiLineString","properties":{"bus_network":null,"name:en":"Tramvaynaya Street","sort_rank":380,"kind_detail":"primary","kind":"major_road","source":"openstreetmap.org","min_zoom":8.0,"bus_shield_text":"2","landuse_kind":"urban_area"},"arcs":[[518],[519]]},{"type":"LineString","properties":{"bus_network":null,"sort_rank":380,"kind_detail":"primary","kind":"major_road","source":"openstreetmap.org","min_zoom":8.0,"bus_shield_text":"14","landuse_kind":"urban_area"},"arcs":[520]},{"type":"LineString","properties":{"bus_network":null,"name:en":"Lunacharskogo Street","sort_rank":380,"kind_detail":"primary","kind":"major_road","source":"openstreetmap.org","min_zoom":8.0,"bus_shield_text":"3","landuse_kind":"urban_area"},"arcs":[521]},{"type":"LineString","properties":{"kind":"major_road","name:en":"Dorozhnaya Street","network":"ru:national","sort_rank":380,"kind_detail":"primary","bus_network":null,"source":"openstreetmap.org","min_zoom":8.0,"bus_shield_text":"129","shield_text":"146","landuse_kind":"urban_area","ref":"\u0410-146","id":154343819},"arcs":[522]},{"type":"MultiLineString","properties":{"bus_network":null,"sort_rank":380,"kind_detail":"primary","kind":"major_road","source":"openstreetmap.org","min_zoom":8.0,"bus_shield_text":"2","landuse_kind":"urban_area"},"arcs":[[523],[524],[525],[526],[527]]},{"type":"MultiLineString","properties":{"bus_network":null,"name:en":"Lunacharskogo Street","network":"ru:national","sort_rank":381,"kind_detail":"trunk","kind":"major_road","source":"openstreetmap.org","min_zoom":8.0,"bus_shield_text":"3","shield_text":"4","ref":"\u041c-4"},"arcs":[[528],[529]]},{"type":"MultiLineString","properties":{"source":"openstreetmap.org","kind":"major_road","name:en":"Krasnykh Partizan Street","landuse_kind":"urban_area","sort_rank":380,"kind_detail":"primary","min_zoom":8.0},"arcs":[[530],[531],[532],[533]]},{"type":"LineString","properties":{"kind":"major_road","name:en":"Sochinskoye Shosse","network":"ru:national","sort_rank":381,"kind_detail":"trunk","source":"openstreetmap.org","min_zoom":8.0,"shield_text":"147","ref":"\u0410-147"},"arcs":[534]},{"type":"LineString","properties":{"kind":"major_road","name:en":"Shosseynaya Street","network":"ru:national","sort_rank":381,"kind_detail":"trunk","source":"openstreetmap.org","min_zoom":8.0,"landuse_kind":"urban_area","shield_text":"146","ref":"\u0410-146","id":31121459},"arcs":[535]},{"type":"MultiLineString","properties":{"kind":"major_road","name:en":"Maykopskaya Street","network":"ru:regional","sort_rank":380,"kind_detail":"primary","source":"openstreetmap.org","min_zoom":8.0,"landuse_kind":"urban_area","shield_text":"03\u041a","ref":"03\u041a-003"},"arcs":[[536],[537]]},{"type":"LineString","properties":{"kind":"major_road","name:en":"Sochinskaya Street","sort_rank":380,"landuse_kind":"urban_area","source":"openstreetmap.org","min_zoom":8.0,"kind_detail":"primary","id":27044310},"arcs":[538]},{"type":"MultiLineString","properties":{"kind":"major_road","network":"ru:national","sort_rank":381,"landuse_kind":"urban_area","source":"openstreetmap.org","min_zoom":8.0,"kind_detail":"trunk","shield_text":"146","ref":"\u0410-146"},"arcs":[[539],[540],[541],[542],[543],[544]]},{"type":"LineString","properties":{"bus_network":null,"name:en":"Novorossiyskaya Street","network":"ru:regional","sort_rank":380,"kind_detail":"primary","kind":"major_road","source":"openstreetmap.org","min_zoom":8.0,"bus_shield_text":"1","shield_text":"03\u0410","ref":"03\u0410-009"},"arcs":[545]},{"type":"MultiLineString","properties":{"bus_network":null,"name:en":"Tsentralnaya Street","network":"ru:national","sort_rank":381,"kind_detail":"trunk","kind":"major_road","source":"openstreetmap.org","min_zoom":8.0,"name:uk":"\u0426\u0435\u043d\u0442\u0440\u0430\u043b\u044c\u043d\u0430 \u0432\u0443\u043b\u0438\u0446\u044f","bus_shield_text":"\u0422\u0443\u0430\u043f\u0441\u0435 \u2014 \u041f\u043e\u0440\u0442 \u041a\u0430\u0432\u043a\u0430\u0437","shield_text":"147","ref":"\u0410-147"},"arcs":[[546],[547]]},{"type":"LineString","properties":{"kind":"major_road","name:en":"Shosseynaya Street","network":"ru:regional","sort_rank":380,"kind_detail":"primary","source":"openstreetmap.org","min_zoom":8.0,"shield_text":"79\u041a","ref":"79\u041a-CX","id":132354143},"arcs":[548]},{"type":"LineString","properties":{"bus_network":null,"name:en":"Sormovskaya Street","sort_rank":380,"kind_detail":"primary","kind":"major_road","source":"openstreetmap.org","min_zoom":8.0,"bus_shield_text":"2","landuse_kind":"urban_area"},"arcs":[549]},{"type":"MultiLineString","properties":{"kind":"major_road","name:en":"Lunacharskogo Street","network":"ru:national","sort_rank":381,"kind_detail":"trunk","source":"openstreetmap.org","min_zoom":8.0,"shield_text":"4","ref":"\u041c-4"},"arcs":[[550],[551]]},{"type":"LineString","properties":{"kind":"ferry","name:en":"Tuapse - Sochi - Gagra","name":"\u0422\u0443\u0430\u043f\u0441\u0435 - \u0421\u043e\u0447\u0438 - \u0413\u0430\u0433\u0440\u0430","name:ka":"\u10e2\u10e3\u10d0\u10e4\u10e1\u10d4 - \u10e1\u10dd\u10ed\u10d8 - \u10d2\u10d0\u10d2\u10e0\u10d0","sort_rank":355,"landuse_kind":"urban_area","source":"openstreetmap.org","min_zoom":8.0,"ref":"\u0422\u0443\u0430\u043f\u0441\u0435 - \u0421\u043e\u0447\u0438 - \u0413\u0430\u0433\u0440\u0430","id":-1085318,"osm_relation":true},"arcs":[552]},{"type":"LineString","properties":{"bus_network":null,"name:en":"Krasnaya Street","sort_rank":380,"kind_detail":"primary","kind":"major_road","source":"openstreetmap.org","min_zoom":8.0,"bus_shield_text":"121","landuse_kind":"urban_area"},"arcs":[553]},{"type":"LineString","properties":{"kind":"major_road","network":"ru:regional","sort_rank":380,"kind_detail":"primary","source":"openstreetmap.org","min_zoom":8.0,"landuse_kind":"urban_area","shield_text":"03\u041a","ref":"03\u041a-016","id":171236360},"arcs":[554]},{"type":"LineString","properties":{"kind":"major_road","name:en":"Sovetskaya Street","network":"ru:national","sort_rank":381,"kind_detail":"trunk","source":"openstreetmap.org","min_zoom":8.0,"name:uk":"\u0420\u0430\u0434\u044f\u043d\u0441\u044c\u043a\u0430 \u0432\u0443\u043b\u0438\u0446\u044f","shield_text":"146","ref":"\u0410-146"},"arcs":[555]},{"type":"LineString","properties":{"kind":"major_road","name:en":"Novorossiyskaya Street","network":"ru:national","sort_rank":381,"kind_detail":"trunk","bus_network":null,"source":"openstreetmap.org","min_zoom":8.0,"bus_shield_text":"\u0422\u0443\u0430\u043f\u0441\u0435 \u2014 \u041f\u043e\u0440\u0442 \u041a\u0430\u0432\u043a\u0430\u0437","shield_text":"4","ref":"\u041c-4","id":114190136},"arcs":[556]}]},"earth":{"type":"GeometryCollection","geometries":[{"type":"Polygon","properties":{"sort_rank":10,"source":"naturalearthdata.com","min_zoom":0.0,"kind":"earth","area":25887638664},"arcs":[[557]]}]},"landuse":{"type":"GeometryCollection","geometries":[{"type":"Polygon","properties":{"source":"openstreetmap.org","kind":"military","area":250048000,"tier":3,"id":150746728,"min_zoom":8.0,"sort_rank":45},"arcs":[[558]]},{"type":"MultiPolygon","properties":{"source":"naturalearthdata.com","kind":"urban_area","name":"","area":1175300565,"sort_rank":11,"min_zoom":4.0},"arcs":[[[559]],[[560]],[[561]],[[562]],[[563]],[[564]]]},{"type":"Polygon","properties":{"kind":"protected_area","protect_class":"3","area":33232900,"sort_rank":17,"source":"openstreetmap.org","min_zoom":8.0,"tier":2,"id":208428736},"arcs":[[565]]},{"type":"MultiPolygon","properties":{"source":"openstreetmap.org","kind":"residential","tier":2,"area":40818311,"sort_rank":20,"min_zoom":8.0},"arcs":[[[566]]]}]}},"type":"Topology","transform":{"translate":[37.96875,44.0875850282],"scale":[0.0003433228,0.0002444948]},"arcs":[[[4096,3961],[-88,-55],[-55,9],[-7,-57],[-63,-3],[-44,-54],[-40,7],[-4,46],[-41,-114],[-72,33],[19,25],[-26,7],[-26,-118],[-56,47],[-67,-44],[-182,35],[-52,-42],[-59,2],[-24,-53],[-31,-5],[-53,43],[-56,-69],[-24,147],[-104,26],[-26,-75],[-47,25],[-18,76],[31,47],[-14,30],[-155,-53],[17,124],[-142,-82],[-10,-32],[37,-54],[-17,-42],[-125,45],[-33,-69],[-59,36],[-46,94],[-40,23],[34,96],[-58,12],[-72,-78],[-23,79],[-48,29],[-27,-28],[-11,-85],[-6,-359],[213,-14],[4,29],[68,52],[13,-97],[61,-21],[25,20],[87,-79],[-5,-29],[54,-59],[-22,-37],[362,-145],[26,-58],[289,-81],[10,-30],[181,77],[277,-64],[166,21],[142,-39],[10,-30],[52,25]],[[0,1059],[24,-25],[152,-224],[160,-127],[138,-64],[183,-41],[247,-144],[424,-69],[318,-151],[199,-42],[63,-44],[73,-128]],[[0,3313],[119,64]],[[121,3377],[410,-135],[327,-58],[185,25],[673,-44],[472,47],[403,86],[140,138],[190,338],[168,100],[464,74],[338,148]],[[3247,40],[6,15]],[[3253,55],[4,10]],[[3257,65],[1,1]],[[3258,66],[2,3]],[[3260,69]],[[3260,69],[2,1]],[[3262,70],[0,1]],[[3262,71],[3,2]],[[3265,73]],[[3265,73],[2,2]],[[3267,75],[1,0]],[[3268,75],[1,2]],[[3269,77],[1,1]],[[3270,78],[2,1]],[[3272,79]],[[3272,79],[1,0]],[[3273,79],[2,2]],[[3275,81],[1,1]],[[3276,82]],[[3276,82],[1,1]],[[3277,83],[1,0]],[[3278,83],[15,13]],[[3293,96],[2,2]],[[3295,98],[1,1]],[[3296,99],[0,1]],[[3296,100],[1,0]],[[3297,100],[1,3]],[[3298,103],[1,0]],[[3299,103],[0,1]],[[3299,104],[2,2]],[[3301,106]],[[3301,106],[1,1]],[[3302,107],[1,1]],[[3303,108]],[[3303,108],[1,0]],[[3304,108],[0,1],[2,2]],[[3306,111]],[[3306,111],[1,0]],[[3307,111],[2,2]],[[3309,113],[1,1]],[[3310,114]],[[3310,114],[2,0]],[[3312,114],[1,1]],[[3313,115],[1,0]],[[3314,115],[1,1]],[[3315,116],[30,9]],[[3345,125],[3,1]],[[3348,126],[1,0]],[[3349,126],[2,1]],[[3351,127],[3,3]],[[3354,130],[1,0]],[[3355,130],[1,1]],[[3356,131],[1,1]],[[3357,132],[0,1]],[[3357,133],[1,0]],[[3358,133],[31,15],[-18,39],[28,34],[108,-3],[21,62],[50,39],[89,-3],[46,103],[-12,83],[6,84]],[[3276,82],[1,1]],[[3297,100],[0,1],[1,2]],[[3304,108],[2,3]],[[3315,116],[5,1],[6,2],[5,2],[14,4]],[[3358,133],[1,0]],[[3710,565],[16,96]],[[3726,661],[0,1]],[[3726,662],[0,2]],[[3726,664],[1,9],[8,18]],[[4096,1215],[-135,-107],[99,-74],[-13,-44],[-38,-5],[-58,-76],[-98,-29],[-90,-169],[-28,-10]],[[3735,701],[-16,-23],[-17,20],[17,15],[16,-12]],[[3735,701],[0,-10]],[[3735,691],[-1,-2],[-6,-16],[-2,-9]],[[3671,333],[1,-5],[0,-4],[-7,-10],[-20,-5],[-67,10],[-47,-35],[-24,-66],[-108,3],[-28,-34],[17,-41],[-82,-36],[-64,-89],[15,-21]],[[3714,427],[-9,-50],[-32,-36],[-2,-6],[0,-2],[1,-4]],[[3713,423],[1,4]],[[3714,427],[-7,157],[28,117]],[[3735,701],[-16,12],[-17,-15],[17,-20],[16,23]],[[3735,701],[28,10],[67,146],[43,35]],[[4096,1215],[-135,-107],[99,-74],[-13,-44],[-38,-5],[-58,-76],[-76,-16]],[[2972,3807],[43,27],[13,45],[-57,47],[3,170]],[[2972,3807],[-57,-42],[-211,-379],[138,-89],[804,-284],[33,-117],[-28,-221],[-78,-197],[-63,-78],[-213,-158],[-55,-108],[34,-65],[-13,-75],[80,-60],[58,-104],[-30,-55],[51,-77],[16,-122],[-33,-27],[7,-48],[-32,-40],[196,-100],[24,-48],[-41,-97],[8,-140],[56,-220],[55,-64],[30,-121],[5,-252],[-48,-104],[-87,4],[-50,-39],[-21,-62],[-108,3],[-28,-32],[16,-44],[-81,-34],[-59,-71]],[[2953,3796],[142,81],[206,30]],[[3085,3872],[253,224]],[[2953,3796],[144,81],[488,85]],[[3891,4096],[-6,-2]],[[3885,4094],[-30,-14]],[[3855,4080],[-64,-28]],[[3791,4052],[-3,-1]],[[3788,4051],[-13,-5]],[[3775,4046],[-15,-7]],[[3760,4039],[-25,-11]],[[3735,4028],[-11,-5]],[[3724,4023],[-9,-4]],[[3715,4019],[-76,-33]],[[3639,3986],[-53,-24]],[[2953,3796],[144,81],[456,71],[338,148]],[[3247,40],[-4,-24]],[[3243,16],[2,-5]],[[3245,11],[8,-11]],[[3672,2935],[-19,-252],[-80,-205],[-63,-78],[-213,-158],[-55,-108],[34,-65],[-13,-75],[80,-60],[58,-104],[-30,-55],[51,-77],[16,-122],[-33,-27],[7,-48],[-32,-40],[196,-100],[24,-48],[-41,-97],[8,-140],[56,-220],[55,-64],[30,-121],[5,-252],[-48,-104],[-87,4],[-50,-39],[-21,-62],[-108,3],[-28,-32],[16,-44],[-78,-32],[-56,-58]],[[3672,2937],[-26,76],[-807,285],[-138,94],[220,382],[166,100],[251,222]],[[0,3312],[125,65],[406,-135],[327,-58],[185,25],[673,-44],[472,47],[403,86],[139,136],[185,331],[69,49]],[[226,3731],[-48,-62],[-173,2],[-5,4]],[[337,4096],[-111,-364]],[[3247,40],[1,-40]],[[0,2003],[46,-53],[46,-36],[34,-13],[96,36],[33,-9],[19,-142],[25,-34],[107,-77],[71,-111],[58,-136],[74,-126],[115,-77],[207,-8],[32,-31],[30,-47],[831,-140],[298,-162],[124,-44],[54,-32],[50,-51],[233,-314],[53,-45],[54,-19],[131,-21],[67,-27],[52,-36],[32,-52],[65,-144],[33,-30],[64,-20],[2,-2],[-3136,0],[0,2003]],[[0,2003],[46,-53],[46,-36],[34,-13],[96,36],[33,-9],[19,-142],[25,-34],[107,-77],[71,-111],[58,-136],[74,-126],[115,-77],[207,-8],[32,-31],[30,-47],[831,-140],[298,-162],[124,-44],[54,-32],[50,-51],[233,-314],[53,-45],[54,-19],[131,-21],[67,-27],[52,-36],[32,-52],[65,-144],[33,-30],[64,-20],[2,-2]],[[3540,3210],[4,-7]],[[3377,3885],[1,-3]],[[3000,3813],[2,2]],[[2965,3394],[-18,44]],[[3401,3780],[187,36],[2,1],[39,18],[14,7]],[[3643,3842],[-239,-56]],[[3643,3842],[222,118]],[[4096,4095],[-148,-80]],[[2669,3963],[-17,1],[-24,-5]],[[2628,3958],[33,5]],[[2682,3964],[-3,-1]],[[2679,3963],[3,1]],[[2682,3964]],[[2686,4006],[-4,-42]],[[2682,3964]],[[2682,3964],[1,-1]],[[2682,3964],[14,85]],[[2685,3963],[-3,1]],[[2693,4050],[-7,-44]],[[2686,4006]],[[2696,4055],[-3,-5]],[[2693,4050],[5,3]],[[2724,4096],[-28,-41]],[[2698,4053],[-2,2]],[[2698,4053],[26,43]],[[2917,4019],[8,0]],[[3259,68],[49,-31],[29,15],[6,-24]],[[3148,3822],[-1,-3]],[[2936,4096],[-11,-71]],[[2925,4019],[11,77]],[[163,0],[-163,150]],[[2978,3833],[-28,-16],[-39,-54]],[[2912,3762],[31,33],[5,12],[2,10],[22,12]],[[130,3372],[60,-38]],[[3363,3768],[-42,-17]],[[3322,3751],[41,16]],[[3087,3842],[61,-23]],[[3143,3821],[-55,22]],[[226,2075]],[[118,3824],[-15,-193],[-78,-78]],[[126,3860],[0,-3]],[[296,4096],[-162,-205]],[[3178,3262],[-30,115],[-129,24]],[[3540,3205],[-226,-5],[-99,39]],[[3527,3304],[257,74],[108,-1],[142,-69],[62,-71]],[[3084,3861],[2,-17]],[[3088,3843],[-4,19]],[[3870,902],[-5,86]],[[2934,3786],[121,33],[82,-23]],[[3142,3794],[-38,12],[-46,14],[-55,-7]],[[3888,4003],[4,1]],[[2874,3893],[-7,-16]],[[27,3343],[-7,4]],[[122,3369],[8,3]],[[3137,3796],[2,-2]],[[2984,3834],[-6,-1]],[[3141,3793],[1,1]],[[2890,3971],[1,0]],[[931,3075],[38,-12]],[[2878,3909],[-1,0]],[[34,3335],[-2,-10]],[[32,3324],[6,2]],[[42,3339],[-8,-4]],[[34,3335],[4,-9]],[[38,3326],[-1,3]],[[2925,4025],[-9,-3]],[[2,3405],[0,11]],[[17,3545],[-2,-4],[3,2]],[[18,3546],[-3,3],[2,-4]],[[20,3544],[2,4],[-4,-2]],[[20,3544],[-1,2],[-2,-1],[1,-2],[2,1]],[[3019,3401],[-54,-7]],[[2867,3877],[-12,-18]],[[3634,2550],[25,41]],[[201,3326],[2,-2]],[[2144,1126],[3,2]],[[3343,28],[2,-7]],[[3254,72],[5,-4]],[[2661,3963],[24,-1]],[[2685,3963],[-16,0]],[[15,3549],[-7,10]],[[2790,3705],[5,19],[5,22]],[[2807,3779],[-17,-73]],[[2830,3820],[25,38]],[[2685,3962],[57,-10]],[[2744,3954],[-59,9]],[[2800,3746],[8,33]],[[175,2143],[-175,131]],[[225,2079],[31,-10]],[[256,2069],[12,-5]],[[385,1976],[155,-115],[49,36],[104,-5],[248,-95]],[[1016,1742],[52,-187],[40,-40],[53,-3]],[[1167,1510],[55,42]],[[1276,1562],[90,-6],[66,-95]],[[1481,1424],[151,-178]],[[1685,1157],[154,5],[179,-30],[14,-44],[70,53]],[[2102,1141],[7,0]],[[2135,1140],[-33,1]],[[2140,1136],[-2,2],[-1,1],[-2,1]],[[2145,1093],[-10,47]],[[256,2069]],[[2336,3971],[166,-32]],[[2502,3939],[-165,32]],[[3358,3525],[2,1]],[[2696,4049],[3,0]],[[2699,4049],[-1,2]],[[2742,4009],[66,-52]],[[2810,3956],[-43,35],[-23,16]],[[1240,1573],[36,-11]],[[3213,22],[3,-22]],[[3256,68],[0,-1]],[[3258,73],[1,-3]],[[2813,3579],[-6,9],[-46,46],[2,13],[8,12],[14,27],[5,19]],[[2790,3706],[-27,-59],[-2,-13],[49,-57]],[[0,3354],[18,-6]],[[2742,3952],[4,3]],[[2746,3955],[-2,-1]],[[2770,3988],[-3,0]],[[2769,3986],[1,2]],[[2778,3982],[-1,0]],[[2784,3977]],[[2789,3973],[-1,0]],[[2877,3710],[14,15]],[[2884,3940],[-3,0]],[[2882,3940],[1,-1]],[[2884,3940],[0,-2],[1,3],[-1,-1]],[[2890,3965]],[[2891,3969],[-1,0]],[[2890,3977],[1,1]],[[2891,3984],[-1,0]],[[2890,3984],[1,0]],[[2892,3728],[1,-1]],[[2893,3996]],[[2893,3997],[1,0]],[[2904,4009],[-1,0]],[[2904,4009]],[[2911,3760],[-1,1]],[[2912,3762],[-1,1]],[[2913,4018],[2,2]],[[2916,4022],[1,-3]],[[2963,3976],[1,-1]],[[3063,3872]],[[3088,3843],[-2,1]],[[3087,3842],[1,1]],[[3153,3787],[-1,-1]],[[3184,3790],[-1,1]],[[3184,3792],[1,-2]],[[3195,3784],[-1,-2]],[[3200,3783],[-1,1]],[[3214,3783]],[[3246,3789],[0,-1]],[[3256,67],[-1,1]],[[3257,74],[1,-1]],[[3258,73],[1,4],[-3,-4],[2,0]],[[3258,73]],[[3265,3793],[0,1]],[[3269,3795]],[[3321,3751],[1,0]],[[3214,3783],[12,0],[49,13]],[[3275,3797],[-36,-10]],[[2962,3983],[1,-7]],[[2964,3977],[-1,6]],[[2191,0],[-2191,1618]],[[2868,3688],[6,11]],[[2136,924],[17,-23]],[[2697,521],[-19,-64]],[[3694,2524],[-21,10]],[[358,1939],[-16,10]],[[2964,3975],[0,2]],[[2618,1543],[71,34]],[[2937,3889],[2,6]],[[248,2047],[-22,24]],[[2134,928],[2,-4]],[[223,2079],[-48,64]],[[3278,93],[22,16]],[[5,3563],[-5,17]],[[0,3373],[2,32]],[[27,3343],[7,-8]],[[2853,3650],[-1,2]],[[2456,3949],[46,-10],[126,19]],[[2628,3959],[-172,-9]],[[3404,3786],[-41,-18]],[[3363,3767],[38,13]],[[2145,1093],[-11,-93]],[[2153,901],[21,-26],[88,6],[262,-204]],[[2572,689],[4,1]],[[2624,689],[36,6],[18,-72],[28,-5],[-9,-97]],[[2678,457],[10,-46],[148,-45],[99,0],[0,-24],[47,-24]],[[3004,318],[4,-2]],[[3048,259],[-41,40]],[[3125,239],[2,-2]],[[3131,223],[37,4],[-30,-52],[15,-52]],[[2893,3905]],[[2931,3890],[6,-1]],[[48,3342],[-6,-3]],[[2811,3788],[-4,-9]],[[2857,3658],[-1,8]],[[2719,3419],[26,33]],[[2745,3452],[8,18]],[[2810,3577],[-59,-105],[-6,-20]],[[2753,3471],[60,108]],[[8,3559],[-3,4]],[[2965,3977],[-2,-1]],[[3166,113],[7,-5]],[[3177,105],[20,12]],[[3201,116],[23,-43],[30,-1]],[[3003,3813],[-19,21]],[[447,1910],[-89,29]],[[2951,3457],[26,38]],[[3644,2543],[-4,1]],[[3659,2591],[27,183]],[[4096,2477],[-64,18],[-82,-17],[-49,-42],[-126,34],[-81,54]],[[2808,3779],[22,41]],[[2855,3859],[-37,-57],[-7,-14]],[[3184,3790],[30,-7]],[[3239,3787],[-54,5]],[[226,2075],[4,2]],[[3148,3819],[-8,-24]],[[3142,3794],[7,27]],[[2911,3763],[-20,-38],[21,37]],[[2855,3858],[12,19]],[[941,1797],[75,-55]],[[2920,3898],[3,0]],[[2935,3896],[-8,2]],[[3865,3960],[23,43]],[[3892,4004],[56,11]],[[126,3857],[-8,-33]],[[2,3416],[-2,7]],[[0,3516],[15,25]],[[2182,0],[-2182,1605]],[[2856,3657],[1,1]],[[2216,1207],[5,32]],[[2075,4096]],[[2075,4096],[90,-52]],[[2165,4044],[5,-3],[37,-25],[129,-45]],[[2337,3971],[-10,5],[-120,40],[-37,25],[-5,3]],[[2165,4044],[-69,35],[-2,1],[-19,16]],[[2075,4096]],[[163,0],[-163,150]],[[2877,3908],[43,-10]],[[2927,3898],[-49,11]],[[3084,3862],[-13,8],[-10,3],[-126,23]],[[2939,3895],[100,-23],[31,-3]],[[3081,3863],[3,-2]],[[1175,3126],[61,-35]],[[134,3891],[-8,-31]],[[2524,677],[48,12]],[[2576,690],[48,-1]],[[2923,3898],[10,-2]],[[268,2064],[91,-66]],[[361,1997],[24,-21]],[[2877,3908],[-3,-15]],[[2875,3895],[3,14]],[[2874,3699],[3,11]],[[2767,3987],[-21,-32]],[[2746,3955],[23,31]],[[2134,1000],[0,-72]],[[3004,318],[-22,0]],[[3007,299],[1,17]],[[3153,123],[13,-10]],[[3640,2544],[-6,6]],[[3673,2534],[-29,9]],[[3961,1142],[59,11]],[[447,1910],[7,9]],[[3173,108],[4,-3]],[[3197,117],[4,-1]],[[2877,3909],[0,-1]],[[2915,4020],[-32,-87]],[[2883,3933],[34,86]],[[385,1976],[-56,41]],[[359,1998],[2,-1]],[[3326,2255],[21,13]],[[3378,3882],[-38,-128],[-1,-31],[-2,-6],[0,-1]],[[3337,3716],[-3,-17]],[[3334,3699],[-1,-1],[0,-63]],[[3333,3635],[6,45],[-5,18],[0,1]],[[3334,3699],[-1,8],[0,2],[4,7]],[[3337,3716],[0,1],[2,6],[2,34],[10,28],[29,58],[3,7],[15,141]],[[3347,2268],[74,21],[37,37],[80,93],[4,8]],[[3542,2427],[40,81]],[[3589,2500],[-47,-73]],[[3542,2427],[-6,-9],[-51,-46],[-1,-1],[-27,-46],[-110,-57]],[[3396,3991],[-19,-106]],[[3399,4087],[-3,-96]],[[3398,3991],[-2,0]],[[3398,3991],[2,96]],[[3383,167],[-7,18]],[[3386,144],[3,4]],[[3372,198],[43,30]],[[3436,236],[14,-19]],[[3502,218],[21,15]],[[3524,260],[3,21]],[[3528,282],[15,10]],[[3571,315],[3,14]],[[3575,330],[57,-19]],[[3695,365],[19,102]],[[3710,479],[-7,57]],[[3704,556],[52,150]],[[3705,538],[-1,17]],[[1432,1461],[49,-37]],[[1632,1246],[20,-99],[33,10]],[[452,1916],[-67,60]],[[1161,1512],[6,-2]],[[2109,1141],[27,-4]],[[2136,1137],[3,-17]],[[2136,1137],[4,-2]],[[2140,1135],[19,-8],[5,-2]],[[2151,1129],[-8,-3],[-4,-6]],[[2139,1120],[6,-27]],[[2151,1129],[-6,2],[-5,4]],[[2140,1135],[0,1]],[[2143,1103],[1,23]],[[2147,1128],[14,-2]],[[2161,1126],[3,-1]],[[2169,1123],[-8,3]],[[2161,1126],[-10,3]],[[2164,1125],[5,-2]],[[2169,1123],[30,10],[17,74]],[[2221,1239],[36,100],[69,64],[49,2],[17,77],[35,6],[49,70],[142,-15]],[[2689,1577],[31,22],[-13,61],[37,78],[128,122],[70,15],[69,97]],[[3007,1998],[71,102]],[[3007,1998],[4,-26]],[[3147,2089],[-59,12],[-10,-1]],[[3078,2100],[69,-11]],[[3147,2089],[80,37],[99,129]],[[3333,3635],[22,-78]],[[3356,3558],[-23,77]],[[3360,3526],[-7,-3]],[[3353,3523],[5,2]],[[3355,3557],[1,1]],[[3355,3557],[99,-202]],[[3457,3354],[-101,204]],[[3399,4096],[0,-9]],[[3400,4087],[0,9]],[[3454,3355],[34,-61],[170,-276],[27,-142],[-42,-238],[-9,-23],[-3,-6],[0,-2]],[[3631,2607],[-6,-16],[-5,-11],[-23,-57],[-8,-23]],[[3457,3354],[-3,1]],[[3582,2508],[49,99]],[[3631,2607],[1,2],[11,29],[44,232],[-28,148],[-13,24],[-143,243],[-46,69]],[[3532,3224],[4,3]],[[3539,3221],[-4,-2]],[[3551,3193],[3,2]],[[3678,2788],[-4,-4]],[[3686,2774],[-12,10]],[[3674,2784],[3,-4]],[[3376,185],[-4,13]],[[3415,228],[21,8]],[[3450,217],[52,1]],[[3523,233],[1,27]],[[3527,281],[1,1]],[[3543,292],[28,23]],[[3574,329],[1,1]],[[3632,311],[33,2],[30,52]],[[3703,536],[2,2]],[[3704,555],[0,1]],[[3714,467],[-4,12]],[[3756,706],[114,196]],[[3865,988],[4,118],[-18,-8],[77,71],[33,-27]],[[4020,1153],[76,60]],[[0,3304],[25,15]],[[44,3336],[-19,-17]],[[25,3319],[19,18]],[[190,3334],[8,-6]],[[198,3328],[3,-2]],[[209,3320],[-11,8]],[[203,3324],[6,-4]],[[209,3320],[52,-17]],[[261,3303],[11,-4]],[[272,3299],[185,-92],[35,-91],[75,-36],[42,11],[52,65],[236,-44]],[[969,3063],[79,76],[127,-13]],[[1255,3117],[1,1]],[[1296,3110],[225,56],[162,-62]],[[1795,3123],[4,3]],[[1818,3130],[183,-37],[31,-47],[45,8],[81,82],[97,3],[71,100],[90,21]],[[2654,3355],[65,64]],[[2801,3557],[-2,0]],[[2802,3559],[33,16],[98,-38],[61,-1]],[[2995,3538],[-61,0],[-2,0],[-97,37],[-26,-4]],[[2820,3595],[-10,-18]],[[2813,3579],[9,15]],[[2842,3635],[-14,-26]],[[2828,3609],[-8,-14]],[[2822,3594],[-2,1]],[[2822,3594],[22,41]],[[2828,3609]],[[2828,3609],[1,-1]],[[2997,3535],[-2,3]],[[2997,3535],[109,-19],[104,-17],[3,0],[120,17],[20,7]],[[3353,3523],[-143,-24],[-212,38]],[[3265,3503],[0,1]],[[3140,3795],[22,-12]],[[3161,3784],[-19,10]],[[3275,3796],[41,-45]],[[3316,3751],[-25,34],[-10,9],[-6,3]],[[2976,4096],[-11,-68],[-2,-19],[-1,-26]],[[2963,3983],[14,113]],[[1236,3091],[19,26]],[[1256,3118],[40,-8]],[[1683,3104],[94,-5],[18,24]],[[1799,3126],[19,4]],[[2947,3438],[4,19]],[[2977,3495],[19,38]],[[468,1905],[-16,11]],[[3070,3869],[11,-6]],[[2867,3877],[8,18]],[[3522,3302],[5,2]],[[3784,3378],[-19,-7]],[[3333,3709],[0,1]],[[3255,68],[1,5]],[[3259,77],[19,16]],[[3185,3792],[-24,-8]],[[3162,3783],[22,7]],[[3147,3819],[2,2]],[[342,1949],[-94,98]],[[2856,3666],[12,22]],[[2891,3977],[-1,0]],[[2916,4022],[-1,-2]],[[3086,3844],[1,-2]],[[3088,3843]],[[3149,3821],[-1,1]],[[218,2082],[5,-8]],[[226,2075],[-3,4]],[[2699,4049],[43,-40]],[[2744,4007],[-45,42]],[[2808,3957],[4,-2],[70,-15]],[[2881,3940],[-71,16]],[[3345,21],[19,-21]],[[58,3347],[64,22]],[[3300,109],[86,35]],[[3389,148],[-6,19]],[[2787,3974]],[[44,3337],[7,6],[7,4],[-14,-11]],[[2416,3260],[82,19],[40,-16]],[[2538,3263],[15,5]],[[2553,3268],[101,87]],[[2850,3649],[-8,-14]],[[2844,3635],[7,13]],[[18,3348],[2,-1]],[[3125,239],[-55,-17],[-22,37]],[[3131,223],[-4,14]],[[3215,3239],[-37,23]],[[3148,3822],[-5,-1]],[[223,2079],[-2,-2]],[[223,2074],[3,1]],[[3213,22],[3,-22]],[[2933,3896],[-2,-6]],[[25,3553],[-3,-5]],[[897,3112],[34,-37]],[[1222,1552],[18,21]],[[3136,0],[-2,2],[-64,20],[-33,30],[-65,144],[-32,52],[-52,36],[-67,27],[-131,21],[-54,19],[-53,45],[-233,314],[-50,51],[-54,32],[-75,27],[-49,17],[-298,162],[-831,140],[-30,47],[-32,31],[-207,8],[-115,77],[-74,126],[-58,136],[-71,111],[-107,77],[-25,34],[-19,142],[-33,9],[-96,-36],[-34,13],[-46,36],[-46,53],[0,2093],[2171,0],[1925,0],[0,-4096],[-960,0]],[[3185,2703],[82,279],[182,78],[207,-58],[22,-119],[-46,-257],[-387,15],[-60,62]],[[3299,0],[-183,0],[-13,12],[70,112],[110,63],[122,-2],[-9,-133],[-78,-35],[-19,-17]],[[387,1965],[-122,-111],[-10,74],[-97,-15],[57,105],[87,76],[69,-27],[16,-102]],[[3376,2229],[-36,1],[-64,113],[-1,68],[187,110],[92,15],[77,-79],[-7,-79],[-154,-58],[-94,-91]],[[3148,4096],[3,-74],[27,-20],[19,18],[-18,76],[144,0],[17,-49],[73,49],[89,-3],[14,-128],[-115,-185],[-28,-142],[-55,-4],[-78,52],[-62,-2],[-32,-46],[-153,62],[-74,-16],[-14,-44],[-71,-6],[-12,50],[-32,0],[0,45],[-65,0],[-32,91],[-130,45],[65,91],[-6,140],[526,0]],[[2528,3240],[-191,34],[0,60],[97,32],[72,78],[102,-21],[52,-57],[-52,-94],[-80,-32]],[[0,3407],[0,155],[112,-41],[25,-110],[-33,-91],[-52,4],[-52,83]],[[2766,1680],[117,134],[30,-17],[41,-114],[-38,-56],[-71,-19],[-79,72]],[[3848,3918],[41,27],[-23,15],[22,44],[107,-3],[-66,-48],[-5,-65],[-63,6],[-13,24]]]}