{"objects":{"water":{"type":"GeometryCollection","geometries":[{"type":"Polygon","properties":{"source":"naturalearthdata.com","kind":"ocean","area":1576712559132672,"sort_rank":200,"min_zoom":0.0,"id":1},"arcs":[[12]]},{"type":"LineString","properties":{"source":"naturalearthdata.com","kind":"ocean","sort_rank":205,"boundary":true,"min_zoom":0.0,"id":46},"arcs":[13]}]},"buildings":{"type":"GeometryCollection","geometries":[]},"places":{"type":"GeometryCollection","geometries":[{"type":"Point","properties":{"kind":"locality","name":"Mombasa","kind_detail":"city","source":"openstreetmap.org","min_zoom":8.0,"name:uk":"\u041c\u043e\u043c\u0431\u0430\u0441\u0430","name:kn":"\u0cae\u0cca\u0c82\u0cac\u0cbe\u0cb8","name:ru":"\u041c\u043e\u043c\u0431\u0430\u0441\u0430","id":44927060,"population":1300000},"coordinates":[851,480]},{"type":"Point","properties":{"source":"openstreetmap.org","kind":"locality","name":"Kilifi","kind_detail":"town","population":122899,"min_zoom":8.0,"id":44992697},"coordinates":[1384,1697]},{"type":"Point","properties":{"kind":"locality","name":"Malindi","kind_detail":"city","source":"openstreetmap.org","min_zoom":8.0,"name:uk":"\u041c\u0430\u043b\u0456\u043d\u0434\u0456","name:ru":"\u041c\u0430\u043b\u0438\u043d\u0434\u0438","id":44929687,"population":117735},"coordinates":[2160,2913]},{"type":"Point","properties":{"source":"openstreetmap.org","kind":"locality","name":"Kwale","kind_detail":"town","population":4200,"min_zoom":8.0,"id":1472171851},"coordinates":[226,117]}]},"transit":{"type":"GeometryCollection","geometries":[{"type":"LineString","properties":{"kind":"train","name":"Madaraka Express","sort_rank":275,"source":"openstreetmap.org","min_zoom":6.0,"operator":"Kenya Railways","id":-7329392,"osm_relation":true},"arcs":[8]},{"type":"MultiLineString","properties":{"kind":"train","name":"Mombasa-Nairobi Railway","sort_rank":275,"source":"openstreetmap.org","min_zoom":6.0,"operator":"KR\/EAR","osm_relation":true,"network":"Kenya Railways"},"arcs":[[9],[10],[11]]}]},"pois":{"type":"GeometryCollection","geometries":[{"type":"Point","properties":{"source":"openstreetmap.org","kind":"protected_area","name":"Arabuko-Sokoke Forest Reserve","area":415863000,"tier":2,"min_zoom":7.0,"id":169268896},"coordinates":[1399,2525]}]},"boundaries":{"type":"GeometryCollection","geometries":[{"type":"LineString","properties":{"name:pt":"Qu\u00e9nia","name:ps":"\u06a9\u06d0\u0646\u064a\u0627","name:ka":"\u10d9\u10d4\u10dc\u10d8\u10d0","name:ko":"\ucf00\ub0d0","name:kn":"\u0c95\u0cc0\u0ca8\u0ccd\u0caf\u0cbe","name:cs":"Ke\u0148a","name:tt":"\u041a\u0435\u043d\u0438\u044f","name:tk":"Keni\u00fda","name:th":"\u0e1b\u0e23\u0e30\u0e40\u0e17\u0e28\u0e40\u0e04\u0e19\u0e22\u0e32","name:ti":"\u12ac\u1295\u12eb","name:pa":"\u0a15\u0a40\u0a28\u0a40\u0a06","name:os":"\u041a\u0435\u043d\u0438","name:or":"\u0b15\u0b47\u0b28\u0b3f\u0b06","name:ce":"\u041a\u0435\u043d\u0438","name:ta":"\u0b95\u0bc6\u0ba9\u0bcd\u0baf\u0bbe","name:tg":"\u041a\u0435\u043d\u0438\u044f","name:te":"\u0c15\u0c46\u0c28\u0c4d\u0c2f\u0c3e","name:om":"Keeniyaa","sort_rank":262,"name:qu":"Kinya","name:de":"Kenia","name:dz":"\u0f40\u0f7a\u0f0b\u0f53\u0f72\u0f0b\u0f61\u0f0b","source":"openstreetmap.org","name:nv":"K\u00e9nya","name:cv":"\u041a\u0435\u043d\u0438","name:dv":"\u0786\u07ac\u0782\u07b0\u0794\u07a7","name:lv":"Kenija","name:lt":"Kenija","name:uz":"Keniya","name:kk":"\u041a\u0435\u043d\u0438\u044f","name:he":"\u05e7\u05e0\u05d9\u05d4","name:eo":"Kenjo","name:ur":"\u06a9\u06cc\u0646\u06cc\u0627","name:lb":"Kenia","name:la":"Kenia","name:uk":"\u041a\u0435\u043d\u0456\u044f","name:hy":"\u0554\u0565\u0576\u056b\u0561","name:ug":"\u0643\u06d0\u0646\u0649\u064a\u06d5","name:li":"Kenia","name:ln":"K\u00e9nya","name:el":"\u039a\u03ad\u03bd\u03c5\u03b1","kind":"country","name":"Kenya","min_zoom":8.0,"name:yi":"\u05e7\u05e2\u05e0\u05d9\u05e2","name:et":"Keenia","name:es":"Kenia","name:mt":"Kenja","name:az":"Keniya","name:ie":"Kenia","name:mr":"\u0915\u0947\u0928\u093f\u092f\u093e","name:ar":"\u0643\u064a\u0646\u064a\u0627","name:my":"\u1000\u1004\u103a\u100a\u102c\u1014\u102d\u102f\u1004\u103a\u1004\u1036","name:io":"Kenia","name:is":"Ken\u00eda","name:am":"\u12ac\u1295\u12eb","name:an":"Kenia","id":-192798,"name:ml":"\u0d15\u0d46\u0d28\u0d3f\u0d2f","name:mn":"\u041a\u0435\u043d\u0438","name:mi":"K\u0113nia","name:pl":"Kenia","name:mk":"\u041a\u0435\u043d\u0438\u0458\u0430","name:af":"Kenia","name:zu":"IKenya","kind_detail":"2","name:hi":"\u0915\u0940\u0928\u093f\u092f\u093e","name:mg":"Kenia","name:fo":"Kenja","name:ba":"\u041a\u0435\u043d\u0438\u044f","name:zh-yue":"\u80af\u96c5","name:vo":"Keny\u00e4n","name:zh":"\u80af\u5c3c\u4e9a","name:hr":"Kenija","name:so":"Kiinya","name:sl":"Kenija","name:nl":"Kenia","name:ja":"\u30b1\u30cb\u30a2","name:sh":"Kenija","name:sg":"Keny\u00e4a","name:na":"Keniya","name:se":"Kenia","name:sc":"K\u00e8nya","name:sa":"\u0915\u0947\u0928\u094d\u092f\u093e","name:bs":"Kenija","name:bn":"\u0995\u09c7\u09a8\u09bf\u09af\u09bc\u09be","name:bo":"\u0f41\u0f7a\u0f0b\u0f53\u0f72\u0f0b\u0f61\u0f0d","name:sk":"Ke\u0148a","name:ru":"\u041a\u0435\u043d\u0438\u044f","name:be":"\u041a\u0435\u043d\u0456\u044f","name:su":"K\u00e9nya","name:bg":"\u041a\u0435\u043d\u0438\u044f","name:ss":"IKheniya","name:sr":"\u041a\u0435\u043d\u0438\u0458\u0430","osm_relation":true,"name:sq":"Kenia","name:ga":"An Ch\u00e9inia","name:gd":"A' Cheinia","name:yo":"K\u1eb9\u0301ny\u00e0","name:wo":"Kee\u00f1aa","name:jv":"K\u00e9nya","name:gl":"Quenia - Kenya","name:fa":"\u06a9\u0646\u06cc\u0627","maritime_boundary":true,"name:gv":"Yn Cheinney","name:gu":"\u0a95\u0ac7\u0aa8\u0acd\u0aaf\u0abe","name:fi":"Kenia"},"arcs":[0]},{"type":"LineString","properties":{"kind":"region","name":"Tana River - Kilifi","sort_rank":256,"kind_detail":"4","id:right":-3495545,"source":"openstreetmap.org","min_zoom":8.0,"id:left":-3495561,"name:left":"Tana River","id":-3495561,"osm_relation":true,"name:right":"Kilifi"},"arcs":[1]},{"type":"MultiLineString","properties":{"kind":"region","name":"Kwale - Kilifi","sort_rank":256,"kind_detail":"4","id:right":-3495545,"source":"openstreetmap.org","min_zoom":8.0,"id:left":-3495548,"name:left":"Kwale","id":-3495548,"osm_relation":true,"name:right":"Kilifi"},"arcs":[[2],[3]]},{"type":"LineString","properties":{"kind":"region","name":"Kwale","sort_rank":256,"kind_detail":"4","source":"openstreetmap.org","min_zoom":8.0,"id":-3495548,"osm_relation":true},"arcs":[4]},{"type":"LineString","properties":{"kind":"region","name":"Kwale","sort_rank":256,"kind_detail":"4","min_zoom":8.0,"source":"openstreetmap.org","maritime_boundary":true,"id":-3495548,"osm_relation":true},"arcs":[5]},{"type":"LineString","properties":{"kind":"region","name":"Kilifi","sort_rank":256,"kind_detail":"4","source":"openstreetmap.org","min_zoom":8.0,"id":-3495545,"osm_relation":true},"arcs":[6]},{"type":"LineString","properties":{"kind":"region","name":"Kilifi","sort_rank":256,"kind_detail":"4","min_zoom":8.0,"source":"openstreetmap.org","maritime_boundary":true,"id":-3495545,"osm_relation":true},"arcs":[7]}]},"roads":{"type":"GeometryCollection","geometries":[{"type":"LineString","properties":{"sort_rank":380,"kind_detail":"primary","min_zoom":8.0,"kind":"major_road","source":"openstreetmap.org"},"arcs":[14]},{"type":"MultiLineString","properties":{"sort_rank":381,"source":"openstreetmap.org","min_zoom":8.0,"kind":"major_road","kind_detail":"trunk"},"arcs":[[15],[16],[17],[18],[19]]},{"type":"LineString","properties":{"source":"openstreetmap.org","kind":"major_road","sort_rank":380,"kind_detail":"primary","ref":"A14","min_zoom":8.0},"arcs":[20]},{"type":"MultiLineString","properties":{"source":"openstreetmap.org","kind":"major_road","sort_rank":381,"kind_detail":"trunk","ref":"A109","min_zoom":8.0},"arcs":[[21],[22],[23],[24],[25],[26],[27],[28],[29],[30],[31],[32],[33],[34],[35]]},{"type":"MultiLineString","properties":{"source":"openstreetmap.org","kind":"major_road","sort_rank":381,"kind_detail":"trunk","ref":"A 109","min_zoom":8.0},"arcs":[[36],[37]]},{"type":"MultiLineString","properties":{"kind":"major_road","sort_rank":380,"landuse_kind":"protected_area","source":"openstreetmap.org","min_zoom":8.0,"kind_detail":"primary","ref":"B8","id":28128244},"arcs":[[38],[39]]},{"type":"LineString","properties":{"source":"openstreetmap.org","kind":"major_road","sort_rank":380,"kind_detail":"primary","ref":"B8A","min_zoom":8.0},"arcs":[40]},{"type":"MultiLineString","properties":{"source":"openstreetmap.org","kind":"major_road","landuse_kind":"urban_area","sort_rank":380,"kind_detail":"primary","ref":"B8","min_zoom":8.0},"arcs":[[41],[42],[43],[44]]},{"type":"MultiLineString","properties":{"source":"openstreetmap.org","kind":"major_road","landuse_kind":"residential","sort_rank":380,"kind_detail":"primary","ref":"A14","min_zoom":8.0},"arcs":[[45],[46],[47]]},{"type":"LineString","properties":{"kind":"major_road","sort_rank":381,"landuse_kind":"urban_area","source":"openstreetmap.org","min_zoom":8.0,"kind_detail":"trunk","ref":"A 109","id":180607165},"arcs":[48]},{"type":"MultiLineString","properties":{"source":"openstreetmap.org","kind":"major_road","sort_rank":381,"kind_detail":"trunk","ref":"A14","min_zoom":8.0},"arcs":[[49],[50],[51],[52],[53],[54],[55],[56]]},{"type":"MultiLineString","properties":{"source":"openstreetmap.org","kind":"major_road","sort_rank":380,"kind_detail":"primary","ref":"B8","min_zoom":8.0},"arcs":[[57],[58],[59],[60],[61],[62],[63],[64]]}]},"earth":{"type":"GeometryCollection","geometries":[{"type":"MultiPolygon","properties":{"sort_rank":10,"source":"naturalearthdata.com","min_zoom":0.0,"kind":"earth","area":11390724168},"arcs":[[[65]]]}]},"landuse":{"type":"GeometryCollection","geometries":[{"type":"Polygon","properties":{"kind":"residential","name":"mtsara wa tsatsu location","area":150068992,"sort_rank":20,"source":"openstreetmap.org","min_zoom":6.0,"tier":2,"id":335020831},"arcs":[[66]]},{"type":"Polygon","properties":{"source":"openstreetmap.org","kind":"residential","area":10227800,"tier":2,"id":98997409,"min_zoom":8.0,"sort_rank":20},"arcs":[[67]]},{"type":"Polygon","properties":{"kind":"residential","name":"sokoke location","area":140960992,"sort_rank":20,"source":"openstreetmap.org","min_zoom":7.0,"tier":2,"id":477446540},"arcs":[[68]]},{"type":"Polygon","properties":{"kind":"protected_area","natural":"wood","area":415863008,"sort_rank":17,"source":"openstreetmap.org","min_zoom":6.0,"tier":2,"id":169268896},"arcs":[[69]]},{"type":"MultiPolygon","properties":{"source":"naturalearthdata.com","kind":"urban_area","name":"","area":141019482,"sort_rank":11,"min_zoom":4.0},"arcs":[[[70]],[[71]],[[72]]]},{"type":"Polygon","properties":{"kind":"residential","name":"bandari location","area":148932000,"sort_rank":20,"source":"openstreetmap.org","min_zoom":7.0,"tier":2,"id":335020714},"arcs":[[73]]},{"type":"Polygon","properties":{"kind":"residential","name":"bamba location","area":88063104,"sort_rank":20,"source":"openstreetmap.org","min_zoom":8.0,"tier":2,"id":335020706},"arcs":[[74]]},{"type":"Polygon","properties":{"kind":"residential","name":"ganze location","area":100440000,"sort_rank":20,"source":"openstreetmap.org","min_zoom":7.0,"tier":2,"id":477446541},"arcs":[[75]]},{"type":"Polygon","properties":{"kind":"residential","name":"ndigiria location","area":147622000,"sort_rank":20,"source":"openstreetmap.org","min_zoom":7.0,"tier":2,"id":335020842},"arcs":[[76]]},{"type":"Polygon","properties":{"kind":"residential","name":"mitangani location","area":828555008,"sort_rank":20,"source":"openstreetmap.org","min_zoom":6.0,"tier":2,"id":335020821},"arcs":[[77]]},{"type":"Polygon","properties":{"kind":"residential","name":"ndungicha location","area":152134000,"sort_rank":20,"source":"openstreetmap.org","min_zoom":6.0,"tier":2,"id":477446542},"arcs":[[78]]}]}},"type":"Topology","transform":{"translate":[39.375,-4.2149431414],"scale":[0.0003433228,0.0003426689]},"arcs":[[[1433,0],[96,205],[1270,2261],[241,829],[824,801]],[[0,3846],[223,250]],[[565,646],[-40,20],[-38,-18],[11,96],[-41,17],[-31,102],[-154,167],[-49,18],[-90,92],[-72,-34],[-42,32],[42,33],[108,20],[-11,45],[-45,18],[-2,47],[-25,-57],[-86,-46]],[[0,1238],[43,17],[-20,21],[28,100],[-21,7],[-16,87],[-14,-8]],[[782,176],[-47,29],[32,69],[-87,90],[-33,-74],[-61,-19],[27,51],[-13,197],[-52,44],[17,83]],[[1040,0],[21,49],[-279,127]],[[565,646],[4,46],[80,68],[86,-32],[66,14],[11,38],[-31,57],[22,8],[142,6],[-2,-47],[47,-39],[152,-3]],[[1142,762],[180,373],[121,369],[-26,182],[30,17],[88,182],[69,213],[123,258],[-3,48],[447,292],[37,103],[-31,160],[118,195],[-20,136],[54,56],[-8,59],[68,50],[27,65],[104,55],[-9,33],[-68,-43],[-69,22],[-71,108],[19,264],[42,137]],[[0,1144],[276,-123],[150,-224],[62,-163],[57,-13],[66,-61]],[[0,1198],[73,-70],[61,14],[220,-189],[147,-212],[-20,-86],[18,-9]],[[499,646],[5,-7],[-6,-4],[-3,6],[4,5]],[[499,646],[30,21],[75,-69],[133,-4],[29,-28],[-25,-56],[50,-24]],[[682,0],[20,50],[145,250],[11,70],[-57,54],[-102,30],[-96,-7],[-43,-57],[-12,30],[-5,29],[-3,62],[11,20],[26,3],[33,-3],[30,1],[92,21],[27,25],[22,52],[-78,18],[-34,14],[-29,27],[32,27],[34,-5],[75,-42],[51,43],[4,-40],[-6,-67],[20,-35],[22,-16],[20,-67],[28,-15],[25,14],[26,32],[21,36],[8,26],[9,20],[61,68],[9,51],[-33,15],[-64,-5],[-30,27],[-13,27],[-10,27],[-19,30],[-11,29],[18,22],[65,36],[-1,-99],[59,-44],[84,13],[74,72],[235,649],[6,92],[-8,43],[-18,45],[-32,23],[-102,-41],[-41,13],[-12,35],[36,41],[-59,-1],[-35,26],[-8,45],[22,53],[30,-24],[-2,-12],[-12,-25],[78,-7],[14,-2],[38,-45],[14,-8],[63,-28],[25,6],[37,33],[33,68],[31,168],[78,125],[59,156],[51,84],[-5,17],[-11,16],[-6,16],[18,72],[2,27],[0,41],[5,38],[23,29],[52,12],[-5,-40],[-32,-111],[-23,-50],[52,8],[39,32],[70,82],[38,25],[141,64],[42,28],[34,37],[25,41],[18,45],[1,55],[-32,106],[2,39],[100,141],[18,51],[13,148],[15,35],[61,82],[102,97],[23,34],[-2,33],[-61,-45],[-60,-6],[-35,34],[15,77],[-62,46],[7,96],[55,187],[3,25],[11,45],[-1,6],[1727,0],[0,-4096],[-3414,0]],[[682,0],[20,50],[145,250],[11,70],[-57,54],[-102,30],[-96,-7],[-43,-57],[-12,30],[-5,29],[-3,62],[11,20],[26,3],[33,-3],[30,1],[92,21],[27,25],[22,52],[-78,18],[-34,14],[-29,27],[32,27],[34,-5],[75,-42],[51,43],[4,-40],[-6,-67],[20,-35],[22,-16],[20,-67],[28,-15],[25,14],[26,32],[21,36],[8,26],[9,20],[61,68],[9,51],[-33,15],[-64,-5],[-30,27],[-13,27],[-10,27],[-19,30],[-11,29],[18,22],[65,36],[-1,-99],[59,-44],[84,13],[74,72],[235,649],[6,92],[-8,43],[-18,45],[-32,23],[-102,-41],[-41,13],[-12,35],[36,41],[-59,-1],[-35,26],[-8,45],[22,53],[30,-24],[-2,-12],[-12,-25],[78,-7],[14,-2],[38,-45],[14,-8],[63,-28],[25,6],[37,33],[33,68],[31,168],[78,125],[59,156],[51,84],[-5,17],[-11,16],[-6,16],[18,72],[2,27],[0,41],[5,38],[23,29],[52,12],[-5,-40],[-32,-111],[-23,-50],[52,8],[39,32],[70,82],[38,25],[141,64],[42,28],[34,37],[25,41],[18,45],[1,55],[-32,106],[2,39],[100,141],[18,51],[13,148],[15,35],[61,82],[102,97],[23,34],[-2,33],[-61,-45],[-60,-6],[-35,34],[15,77],[-62,46],[7,96],[55,187],[3,25],[11,45],[-1,6]],[[2161,2906]],[[849,406],[-2,-5]],[[823,507],[-1,0],[0,1],[1,0],[0,-1]],[[859,429],[0,1],[1,0],[-1,-1]],[[863,444],[0,1],[1,-1],[-1,0]],[[867,457],[0,-1],[0,1]],[[765,300],[-113,-189],[-37,-111]],[[579,639],[-74,39],[4,39]],[[750,541],[4,22],[-3,-22]],[[822,507],[-71,32]],[[751,540],[51,-8],[7,-6],[13,-18]],[[851,469],[-28,38]],[[824,507],[28,-37]],[[856,462],[-4,7]],[[852,469],[4,-6]],[[867,457],[-10,5]],[[857,462],[10,-5]],[[749,540],[2,1],[0,-1],[-1,-1],[-1,1]],[[851,469]],[[851,469],[1,1]],[[852,470],[0,-1],[-1,0]],[[856,463],[1,-1],[-1,0],[0,1]],[[0,1244],[128,-63],[328,-335],[50,-169],[103,-75],[58,-10]],[[749,580],[5,-17]],[[1646,2548],[66,67]],[[1725,2624],[75,28]],[[867,457],[-13,44],[14,-44]],[[890,516],[5,3]],[[895,519],[-5,-3]],[[895,519],[95,45]],[[1026,611],[37,109]],[[811,378],[-46,-78]],[[835,384],[-24,-6]],[[838,388],[-3,-4]],[[667,592],[82,-12]],[[846,399],[3,7]],[[849,406],[10,23]],[[860,429],[-10,-23]],[[859,430],[4,14]],[[864,444],[-4,-14]],[[863,445],[4,12]],[[867,456],[-3,-11]],[[849,406]],[[834,494],[56,22]],[[890,516],[-18,-13],[-38,-9]],[[990,564],[36,47]],[[1063,720],[35,125],[146,238],[57,159],[16,228],[-43,43],[107,142],[11,98],[56,113],[75,295],[-17,57],[16,91],[94,120],[30,119]],[[1712,2615],[13,9]],[[1800,2652],[128,53],[59,89],[173,112]],[[2252,4096],[-9,-185],[-24,-47],[9,-522],[39,-131],[-126,-155],[20,-149]],[[2161,2906],[0,-1],[-1,0],[0,1],[1,0]],[[0,4096],[2369,0],[1,-6],[-11,-45],[-3,-25],[-55,-187],[-7,-96],[62,-46],[-15,-77],[35,-34],[60,6],[61,45],[2,-33],[-23,-34],[-102,-97],[-61,-82],[-15,-35],[-13,-148],[-18,-51],[-100,-141],[-2,-39],[32,-106],[-1,-55],[-18,-45],[-25,-41],[-34,-37],[-42,-28],[-141,-64],[-38,-25],[-70,-82],[-39,-32],[-52,-8],[23,50],[32,111],[5,40],[-52,-12],[-23,-29],[-5,-38],[0,-41],[-2,-27],[-18,-72],[6,-16],[11,-16],[5,-17],[-51,-84],[-9,-23],[-50,-133],[-78,-125],[-31,-168],[-33,-68],[-37,-33],[-25,-6],[-63,28],[-14,8],[-38,45],[-14,2],[-78,7],[12,25],[2,12],[-30,24],[-22,-53],[8,-45],[35,-26],[59,1],[-36,-41],[12,-35],[41,-13],[102,41],[32,-23],[18,-45],[8,-43],[-6,-92],[-235,-649],[-74,-72],[-84,-13],[-59,44],[1,99],[-65,-36],[-18,-22],[11,-29],[19,-30],[10,-27],[13,-27],[30,-27],[64,5],[33,-15],[-9,-51],[-61,-68],[-9,-20],[-8,-26],[-21,-36],[-26,-32],[-25,-14],[-28,15],[-20,67],[-22,16],[-20,35],[6,67],[-4,40],[-51,-43],[-75,42],[-34,5],[-32,-27],[29,-27],[34,-14],[78,-18],[-22,-52],[-27,-25],[-92,-21],[-30,-1],[-33,3],[-26,-3],[-11,-20],[3,-62],[5,-29],[12,-30],[43,57],[96,7],[102,-30],[57,-54],[-11,-70],[-145,-250],[-20,-50],[-682,0],[0,2274],[0,1822]],[[423,1961],[148,204],[130,-90],[-27,-368],[-74,-41],[-90,55],[-9,-34],[-61,7],[-17,267]],[[758,298],[3,45],[44,58],[67,-23],[-29,-76],[-20,8],[-9,28],[-10,3],[12,-21],[-58,-22]],[[1006,1932],[22,128],[104,267],[77,-22],[52,-76],[-1,-151],[71,2],[26,-58],[-64,-141],[-287,51]],[[1237,2577],[31,105],[47,36],[3,89],[71,64],[125,75],[79,16],[69,-46],[122,-2],[-38,-138],[77,-74],[-47,-25],[40,-41],[-79,-32],[-46,82],[21,-74],[-65,-63],[-87,-17],[-55,-109],[71,-26],[-55,-86],[-14,-79],[-41,-4],[15,-72],[-26,-71],[-193,0],[10,354],[-35,138]],[[858,370],[-9,-59],[-46,19],[-34,103],[89,-63]],[[820,767],[130,-5],[32,-33],[97,-10],[-9,-51],[-150,-196],[-90,133],[2,107],[-51,-43],[-109,47],[-32,-27],[141,-59],[-49,-77],[-69,-16],[5,61],[-95,92],[-2,38],[249,39]],[[1186,1338],[-33,-59],[-84,23],[-17,36],[79,72],[35,-15],[20,-57]],[[180,2240],[81,69],[171,33],[50,-27],[94,-136],[-169,-234],[-81,-6],[-146,301]],[[208,1580],[72,133],[39,220],[106,10],[15,-382],[-111,-11],[-121,30]],[[696,1941],[26,139],[296,-29],[-16,-155],[-113,-92],[-156,31],[-37,106]],[[151,2398],[283,112],[98,8],[206,-203],[-17,-107],[-51,-81],[-37,4],[-149,205],[-58,13],[-178,-40],[-97,89]],[[0,2346],[111,0],[36,48],[68,-42],[28,-49],[-70,-63],[142,-291],[-40,-240],[-78,-157],[-197,-14],[0,808]],[[682,2134],[45,73],[15,98],[41,50],[62,17],[256,-26],[21,-44],[-100,-244],[-236,10],[-104,66]]]}