{"objects":{"water":{"type":"GeometryCollection","geometries":[{"type":"Polygon","properties":{"source":"naturalearthdata.com","kind":"ocean","area":1576712559132672,"sort_rank":200,"min_zoom":0.0,"id":1},"arcs":[[4],[5],[6]]},{"type":"LineString","properties":{"source":"naturalearthdata.com","kind":"ocean","sort_rank":205,"boundary":true,"min_zoom":0.0,"id":46},"arcs":[7]},{"type":"LineString","properties":{"source":"naturalearthdata.com","kind":"ocean","sort_rank":205,"boundary":true,"min_zoom":0.0,"id":1363},"arcs":[8]},{"type":"LineString","properties":{"source":"naturalearthdata.com","kind":"ocean","sort_rank":205,"boundary":true,"min_zoom":0.0,"id":3932},"arcs":[9]}]},"buildings":{"type":"GeometryCollection","geometries":[]},"places":{"type":"GeometryCollection","geometries":[{"type":"Point","properties":{"admin_level":"4","kind":"region","name:en":"South Pemba","name":"Kusini Pemba","kind_detail":"state","name:de":"S\u00fcd-Pemba","source":"openstreetmap.org","min_zoom":4.0,"name:uk":"\u041f\u0435\u043c\u0431\u0430 \u041f\u0456\u0432\u0434\u0435\u043d\u043d\u0430","name:ru":"\u041f\u0435\u043c\u0431\u0430 \u042e\u0436\u043d\u0430\u044f","name:pl":"Pemba Po\u0142udniowa","id":4353386484},"coordinates":[985,968]},{"type":"Point","properties":{"admin_level":"4","kind":"region","name:en":"North Pemba","name":"Kaskazini Pemba","kind_detail":"state","name:de":"Nord-Pemba","source":"openstreetmap.org","min_zoom":4.0,"name:uk":"\u041f\u0435\u043c\u0431\u0430 \u041f\u0456\u0432\u043d\u0456\u0447\u043d\u0430","name:ru":"\u041f\u0435\u043c\u0431\u0430 \u0421\u0435\u0432\u0435\u0440\u043d\u0430\u044f","name:pl":"Pemba P\u00f3\u0142nocna","id":4353386537},"coordinates":[1038,1756]},{"type":"Point","properties":{"source":"naturalearthdata.com","kind":"locality","name":"Chake Chake","population":49959,"min_zoom":7.0,"id":2505},"coordinates":[1151,1101]}]},"transit":{"type":"GeometryCollection","geometries":[]},"pois":{"type":"GeometryCollection","geometries":[]},"boundaries":{"type":"GeometryCollection","geometries":[{"type":"LineString","properties":{"name:right:yo":"K\u1eb9\u0301ny\u00e0","name:right:hy":"\u0554\u0565\u0576\u056b\u0561","name:right:qu":"Kinya","name:right:yi":"\u05e7\u05e2\u05e0\u05d9\u05e2","name:right:hr":"Kenija","name:left:lb":"Tansania","name:left:ss":"IThanzaniya","name:left:sr":"\u0422\u0430\u043d\u0437\u0430\u043d\u0438\u0458\u0430","name:left:sl":"Tanzanija","name:left:so":"Tansaaniya","name:left:lt":"Tanzanija","name:left:sh":"Tanzanija","name:left:lv":"Tanz\u0101nija","name:right:mr":"\u0915\u0947\u0928\u093f\u092f\u093e","name:left:se":"Tanz\u00e1nia","name:left:sg":"Tanzan\u00efi","name:left:sa":"\u091f\u0902\u091c\u093e\u0928\u093f\u092f\u093e","name:right:he":"\u05e7\u05e0\u05d9\u05d4","name:left:sc":"Tanz\u00e0nia","name:right:la":"Kenia","name:right:af":"Kenia","name:left:ce":"\u0422\u0430\u043d\u0437\u0430\u043d\u0438","name:right:an":"Kenia","name:right:am":"\u12ac\u1295\u12eb","name:left:ca":"Tanz\u00e0nia","source":"openstreetmap.org","name:right:ar":"\u0643\u064a\u0646\u064a\u0627","name:left:cv":"\u0422\u0430\u043d\u0437\u0430\u043d\u0438","name:right:az":"Keniya","name:left:cs":"Tanzanie","name:left:ka":"\u10e2\u10d0\u10dc\u10d6\u10d0\u10dc\u10d8\u10d0","name:right:zh-yue":"\u80af\u96c5","name:left:ko":"\ud0c4\uc790\ub2c8\uc544","name:left:kn":"\u0c9f\u0cbe\u0c82\u0c9c\u0cbe\u0ca8\u0cbf\u0caf","name:left:rn":"Tanzaniya","name:left:kk":"\u0422\u0430\u043d\u0437\u0430\u043d\u0438\u044f","name:left:rm":"Tansania","name:left:ku":"Tanzanya","name:left:rw":"Tanzaniya","name:left:ru":"\u0422\u0430\u043d\u0437\u0430\u043d\u0438\u044f","name:right:ie":"Kenia","name:right:bo":"\u0f41\u0f7a\u0f0b\u0f53\u0f72\u0f0b\u0f61\u0f0d","name:right:bn":"\u0995\u09c7\u09a8\u09bf\u09af\u09bc\u09be","name":"Tanzania - Kenya","name:right:zu":"IKenya","name:right:ba":"\u041a\u0435\u043d\u0438\u044f","name:right:bg":"\u041a\u0435\u043d\u0438\u044f","alt_name:left:cs":"Sjednocen\u00e1 tanzansk\u00e1 republika","name:left:zu":"ITanzania","name:left:zh":"\u5766\u6851\u5c3c\u4e9a","name:right:bs":"Kenija","name:right:zh":"\u80af\u5c3c\u4e9a","name:left:uz":"Tanzaniya","name:right:nl":"Kenia","name:left:sk":"Tanz\u00e1nia","name:left:nv":"T\u02bcanzan\u00ed\u00edya","name:left:ur":"\u062a\u0646\u0632\u0627\u0646\u06cc\u06c1","name:right:wo":"Kee\u00f1aa","id:right":-192798,"name:left:uk":"\u0422\u0430\u043d\u0437\u0430\u043d\u0456\u044f","name:right:ps":"\u06a9\u06d0\u0646\u064a\u0627","name:right:hi":"\u0915\u0940\u0928\u093f\u092f\u093e","name:right:fa":"\u06a9\u0646\u06cc\u0627","name:right:nv":"K\u00e9nya","name:right:fo":"Kenja","name:right:be":"\u041a\u0435\u043d\u0456\u044f","name:left:ug":"\u062a\u0627\u0646\u0632\u0627\u0646\u0649\u064a\u06d5","name:right:uz":"Keniya","name:left:eo":"Tanzanio","name:left:el":"\u03a4\u03b1\u03bd\u03b6\u03b1\u03bd\u03af\u03b1","kind_detail":"2","name:left:hr":"Tanzanija","name:left:tr":"Tanzanya","name:left:et":"Tansaania","name:right:om":"Keeniyaa","name:right:gv":"Yn Cheinney","name:right:pt":"Qu\u00e9nia","name:left:mk":"\u0422\u0430\u043d\u0437\u0430\u043d\u0438\u0458\u0430","name:left:mi":"T\u0101nahia","name:left:tt":"\u0422\u0430\u043d\u0437\u0430\u043d\u0438\u044f","name:left:mn":"\u0422\u0430\u043d\u0437\u0430\u043d\u0438","name:left:ml":"\u0d1f\u0d3e\u0d7b\u0d38\u0d3e\u0d28\u0d3f\u0d2f","name:left:th":"\u0e1b\u0e23\u0e30\u0e40\u0e17\u0e28\u0e41\u0e17\u0e19\u0e0b\u0e32\u0e40\u0e19\u0e35\u0e22","name:left:ti":"\u1273\u1295\u12db\u1292\u12eb","name:left:tk":"Tanzani\u00fda","name:right:ga":"An Ch\u00e9inia","name:left:mt":"Tan\u017canija","name:left:ta":"\u0ba4\u0ba9\u0bcd\u0b9a\u0bbe\u0ba9\u0bbf\u0baf\u0bbe","name:left:my":"\u1010\u1014\u103a\u1007\u1031\u1038\u1014\u102e\u1038\u101a\u102c\u1038\u1014\u102d\u102f\u1004\u103a\u1004\u1036","name:right:kn":"\u0c95\u0cc0\u0ca8\u0ccd\u0caf\u0cbe","name:right:pl":"Kenia","name:left:te":"\u0c1f\u0c3e\u0c02\u0c1c\u0c3e\u0c28\u0c3f\u0c2f\u0c3e","osm_relation":true,"name:left:tg":"\u0422\u0430\u043d\u0437\u0430\u043d\u0438\u044f","name:right:ka":"\u10d9\u10d4\u10dc\u10d8\u10d0","name:right:pa":"\u0a15\u0a40\u0a28\u0a40\u0a06","name:left:ar":"\u062a\u0646\u0632\u0627\u0646\u064a\u0627","name:left:de":"Tansania","name:left:dv":"\u0793\u07ac\u0782\u07b0\u0792\u07ad\u0782\u07a8\u0787\u07a7","name:right:ug":"\u0643\u06d0\u0646\u0649\u064a\u06d5","name:left:hi":"\u0924\u0902\u091c\u093c\u093e\u0928\u093f\u092f\u093e","name:right:lb":"Kenia","name:right:uk":"\u041a\u0435\u043d\u0456\u044f","name:left:he":"\u05d8\u05e0\u05d6\u05e0\u05d9\u05d4","name:right:ln":"K\u00e9nya","name:right:li":"Kenia","name:right:lt":"Kenija","name:right:ur":"\u06a9\u06cc\u0646\u06cc\u0627","name:right:lv":"Kenija","name:left:hy":"\u054f\u0561\u0576\u0566\u0561\u0576\u056b\u0561","name:right:gl":"Quenia - Kenya","name:left:ht":"Tanzani","name:left:hu":"Tanz\u00e1nia","name:left:wo":"Tansani","name:left:ga":"An Tans\u00e1in","name:left:gd":"Tansain\u00eca","sort_rank":262,"name:right:gd":"A' Cheinia","name:right:gu":"\u0a95\u0ac7\u0aa8\u0acd\u0aaf\u0abe","name:left:gu":"\u0a9f\u0abe\u0aa8\u0acd\u0a9d\u0abe\u0aa8\u0abf\u0aaf\u0abe","name:right:os":"\u041a\u0435\u043d\u0438","name:right:or":"\u0b15\u0b47\u0b28\u0b3f\u0b06","name:left":"Tanzania","name:right:es":"Kenia","name:right:mi":"K\u0113nia","name:left:ja":"\u30bf\u30f3\u30b6\u30cb\u30a2","name:right:mn":"\u041a\u0435\u043d\u0438","name:right:et":"Keenia","name:right:vo":"Keny\u00e4n","name:left:os":"\u0422\u0430\u043d\u0437\u0430\u043d\u0438","name:left:or":"\u0b24\u0b3e\u0b1e\u0b4d\u0b1c\u0b3e\u0b28\u0b3f\u0b06","name:right:mg":"Kenia","name:right:my":"\u1000\u1004\u103a\u100a\u102c\u1014\u102d\u102f\u1004\u103a\u1004\u1036","name:left:vo":"Tansan\u00e4n","min_zoom":8.0,"name:right:na":"Keniya","name:right:eo":"Kenjo","name:right:mt":"Kenja","kind":"country","name:left:fa":"\u062a\u0627\u0646\u0632\u0627\u0646\u06cc\u0627","name:left:fo":"Tansania","name:right:ru":"\u041a\u0435\u043d\u0438\u044f","name:left:qu":"Tansanya","name:left:fi":"Tansania","name:left:fr":"Tanzanie","name:right:sl":"Kenija","name:left:bs":"Tanzanija","name:right:ja":"\u30b1\u30cb\u30a2","name:right:sq":"Kenia","name:right:ss":"IKheniya","name:right:sr":"\u041a\u0435\u043d\u0438\u0458\u0430","name:right:su":"K\u00e9nya","name:right:sh":"Kenija","name:right:sk":"Ke\u0148a","name:left:ba":"\u0422\u0430\u043d\u0437\u0430\u043d\u0438\u044f","name:right:jv":"K\u00e9nya","name:left:bg":"\u0422\u0430\u043d\u0437\u0430\u043d\u0438\u044f","name:right:so":"Kiinya","name:left:be":"\u0422\u0430\u043d\u0437\u0430\u043d\u0456\u044f","name:right:sa":"\u0915\u0947\u0928\u094d\u092f\u093e","name:right:sc":"K\u00e8nya","name:right:se":"Kenia","name:left:bo":"\u0f4f\u0f53\u0f0b\u0f5b\u0f0b\u0f53\u0f72\u0f0b\u0f61\u0f0d","name:right:sg":"Keny\u00e4a","name:right":"Kenya","name:left:ne":"\u0924\u0928\u094d\u091c\u093e\u0928\u093f\u092f\u093e","name:left:bn":"\u09a4\u09be\u09a8\u099c\u09be\u09a8\u09bf\u09af\u09bc\u09be","name:right:ml":"\u0d15\u0d46\u0d28\u0d3f\u0d2f","name:right:ce":"\u041a\u0435\u043d\u0438","maritime_boundary":true,"id":-195270,"name:left:yo":"T\u00e0ns\u00e1n\u00ed\u00e0","name:left:yi":"\u05d8\u05d0\u05e0\u05d6\u05d0\u05e0\u05d9\u05e2","id:left":-195270,"name:right:dz":"\u0f40\u0f7a\u0f0b\u0f53\u0f72\u0f0b\u0f61\u0f0b","name:right:cs":"Ke\u0148a","name:right:fi":"Kenia","name:right:cv":"\u041a\u0435\u043d\u0438","name:right:mk":"\u041a\u0435\u043d\u0438\u0458\u0430","name:left:pa":"\u0a24\u0a28\u0a1c\u0a3c\u0a3e\u0a28\u0a40\u0a06","name:right:tt":"\u041a\u0435\u043d\u0438\u044f","name:right:is":"Ken\u00eda","name:right:kk":"\u041a\u0435\u043d\u0438\u044f","name:left:az":"Tanzaniya","name:right:ko":"\ucf00\ub0d0","name:left:mr":"\u091f\u093e\u0902\u091d\u093e\u0928\u093f\u092f\u093e","name:left:pt":"Tanz\u00e2nia","name:left:af":"Tanzani\u00eb","name:right:th":"\u0e1b\u0e23\u0e30\u0e40\u0e17\u0e28\u0e40\u0e04\u0e19\u0e22\u0e32","name:right:ti":"\u12ac\u1295\u12eb","name:right:tk":"Keni\u00fda","name:right:te":"\u0c15\u0c46\u0c28\u0c4d\u0c2f\u0c3e","name:left:am":"\u1273\u1295\u12db\u1292\u12eb","name:right:tg":"\u041a\u0435\u043d\u0438\u044f","name:left:is":"Tansan\u00eda","name:right:ta":"\u0b95\u0bc6\u0ba9\u0bcd\u0baf\u0bbe","name:right:io":"Kenia","name:right:de":"Kenia","name:right:el":"\u039a\u03ad\u03bd\u03c5\u03b1","name:left:zh-yue":"\u5766\u6851\u5c3c\u4e9e","name:right:dv":"\u0786\u07ac\u0782\u07b0\u0794\u07a7"},"arcs":[0]},{"type":"LineString","properties":{"name:pt":"Tanz\u00e2nia","name:ka":"\u10e2\u10d0\u10dc\u10d6\u10d0\u10dc\u10d8\u10d0","name:rm":"Tansania","name:ko":"\ud0c4\uc790\ub2c8\uc544","name:cv":"\u0422\u0430\u043d\u0437\u0430\u043d\u0438","name:cs":"Tanzanie","name:tt":"\u0422\u0430\u043d\u0437\u0430\u043d\u0438\u044f","name:tk":"Tanzani\u00fda","name:ku":"Tanzanya","name:ti":"\u1273\u1295\u12db\u1292\u12eb","alt_name:cs":"Sjednocen\u00e1 tanzansk\u00e1 republika","name:pa":"\u0a24\u0a28\u0a1c\u0a3c\u0a3e\u0a28\u0a40\u0a06","name:os":"\u0422\u0430\u043d\u0437\u0430\u043d\u0438","name:or":"\u0b24\u0b3e\u0b1e\u0b4d\u0b1c\u0b3e\u0b28\u0b3f\u0b06","name:ce":"\u0422\u0430\u043d\u0437\u0430\u043d\u0438","name:ta":"\u0ba4\u0ba9\u0bcd\u0b9a\u0bbe\u0ba9\u0bbf\u0baf\u0bbe","name:tg":"\u0422\u0430\u043d\u0437\u0430\u043d\u0438\u044f","name:ca":"Tanz\u00e0nia","name:te":"\u0c1f\u0c3e\u0c02\u0c1c\u0c3e\u0c28\u0c3f\u0c2f\u0c3e","sort_rank":262,"name:qu":"Tansanya","name:de":"Tansania","source":"openstreetmap.org","osm_relation":true,"name:kn":"\u0c9f\u0cbe\u0c82\u0c9c\u0cbe\u0ca8\u0cbf\u0caf","name:dv":"\u0793\u07ac\u0782\u07b0\u0792\u07ad\u0782\u07a8\u0787\u07a7","name:ba":"\u0422\u0430\u043d\u0437\u0430\u043d\u0438\u044f","name:lv":"Tanz\u0101nija","name:lt":"Tanzanija","name:uz":"Tanzaniya","name:kk":"\u0422\u0430\u043d\u0437\u0430\u043d\u0438\u044f","name:he":"\u05d8\u05e0\u05d6\u05e0\u05d9\u05d4","name:eo":"Tanzanio","name:ur":"\u062a\u0646\u0632\u0627\u0646\u06cc\u06c1","name:lb":"Tansania","name:uk":"\u0422\u0430\u043d\u0437\u0430\u043d\u0456\u044f","name:hy":"\u054f\u0561\u0576\u0566\u0561\u0576\u056b\u0561","name:ug":"\u062a\u0627\u0646\u0632\u0627\u0646\u0649\u064a\u06d5","name:hu":"Tanz\u00e1nia","name:hr":"Tanzanija","name:el":"\u03a4\u03b1\u03bd\u03b6\u03b1\u03bd\u03af\u03b1","kind":"country","name":"Tanzania","min_zoom":8.0,"name:th":"\u0e1b\u0e23\u0e30\u0e40\u0e17\u0e28\u0e41\u0e17\u0e19\u0e0b\u0e32\u0e40\u0e19\u0e35\u0e22","name:yi":"\u05d8\u05d0\u05e0\u05d6\u05d0\u05e0\u05d9\u05e2","name:et":"Tansaania","name:yo":"T\u00e0ns\u00e1n\u00ed\u00e0","name:mt":"Tan\u017canija","name:rn":"Tanzaniya","name:az":"Tanzaniya","name:mr":"\u091f\u093e\u0902\u091d\u093e\u0928\u093f\u092f\u093e","name:ar":"\u062a\u0646\u0632\u0627\u0646\u064a\u0627","name:my":"\u1010\u1014\u103a\u1007\u1031\u1038\u1014\u102e\u1038\u101a\u102c\u1038\u1014\u102d\u102f\u1004\u103a\u1004\u1036","name:is":"Tansan\u00eda","name:am":"\u1273\u1295\u12db\u1292\u12eb","name:ru":"\u0422\u0430\u043d\u0437\u0430\u043d\u0438\u044f","name:ml":"\u0d1f\u0d3e\u0d7b\u0d38\u0d3e\u0d28\u0d3f\u0d2f","name:rw":"Tanzaniya","name:mi":"T\u0101nahia","id":-195270,"name:mk":"\u0422\u0430\u043d\u0437\u0430\u043d\u0438\u0458\u0430","name:af":"Tanzani\u00eb","name:zu":"ITanzania","name:mn":"\u0422\u0430\u043d\u0437\u0430\u043d\u0438","name:ss":"IThanzaniya","kind_detail":"2","name:hi":"\u0924\u0902\u091c\u093c\u093e\u0928\u093f\u092f\u093e","name:fo":"Tansania","name:fr":"Tanzanie","name:zh-yue":"\u5766\u6851\u5c3c\u4e9e","name:vo":"Tansan\u00e4n","name:zh":"\u5766\u6851\u5c3c\u4e9a","name:so":"Tansaaniya","name:sl":"Tanzanija","name:sk":"Tanz\u00e1nia","name:ja":"\u30bf\u30f3\u30b6\u30cb\u30a2","name:sh":"Tanzanija","name:sg":"Tanzan\u00efi","name:se":"Tanz\u00e1nia","name:sc":"Tanz\u00e0nia","name:ne":"\u0924\u0928\u094d\u091c\u093e\u0928\u093f\u092f\u093e","name:sa":"\u091f\u0902\u091c\u093e\u0928\u093f\u092f\u093e","name:bs":"Tanzanija","name:bn":"\u09a4\u09be\u09a8\u099c\u09be\u09a8\u09bf\u09af\u09bc\u09be","name:bo":"\u0f4f\u0f53\u0f0b\u0f5b\u0f0b\u0f53\u0f72\u0f0b\u0f61\u0f0d","name:be":"\u0422\u0430\u043d\u0437\u0430\u043d\u0456\u044f","name:bg":"\u0422\u0430\u043d\u0437\u0430\u043d\u0438\u044f","name:wo":"Tansani","name:sr":"\u0422\u0430\u043d\u0437\u0430\u043d\u0438\u0458\u0430","name:nv":"T\u02bcanzan\u00ed\u00edya","name:ga":"An Tans\u00e1in","name:gd":"Tansain\u00eca","name:ht":"Tanzani","name:fa":"\u062a\u0627\u0646\u0632\u0627\u0646\u06cc\u0627","maritime_boundary":true,"name:tr":"Tanzanya","name:gu":"\u0a9f\u0abe\u0aa8\u0acd\u0a9d\u0abe\u0aa8\u0abf\u0aaf\u0abe","name:fi":"Tansania"},"arcs":[1]},{"type":"LineString","properties":{"name:pt":"Qu\u00e9nia","name:ps":"\u06a9\u06d0\u0646\u064a\u0627","name:ka":"\u10d9\u10d4\u10dc\u10d8\u10d0","name:ko":"\ucf00\ub0d0","name:kn":"\u0c95\u0cc0\u0ca8\u0ccd\u0caf\u0cbe","name:cs":"Ke\u0148a","name:tt":"\u041a\u0435\u043d\u0438\u044f","name:tk":"Keni\u00fda","name:th":"\u0e1b\u0e23\u0e30\u0e40\u0e17\u0e28\u0e40\u0e04\u0e19\u0e22\u0e32","name:ti":"\u12ac\u1295\u12eb","name:pa":"\u0a15\u0a40\u0a28\u0a40\u0a06","name:os":"\u041a\u0435\u043d\u0438","name:or":"\u0b15\u0b47\u0b28\u0b3f\u0b06","name:ce":"\u041a\u0435\u043d\u0438","name:ta":"\u0b95\u0bc6\u0ba9\u0bcd\u0baf\u0bbe","name:tg":"\u041a\u0435\u043d\u0438\u044f","name:te":"\u0c15\u0c46\u0c28\u0c4d\u0c2f\u0c3e","name:om":"Keeniyaa","sort_rank":262,"name:qu":"Kinya","name:de":"Kenia","name:dz":"\u0f40\u0f7a\u0f0b\u0f53\u0f72\u0f0b\u0f61\u0f0b","source":"openstreetmap.org","name:nv":"K\u00e9nya","name:cv":"\u041a\u0435\u043d\u0438","name:dv":"\u0786\u07ac\u0782\u07b0\u0794\u07a7","name:lv":"Kenija","name:lt":"Kenija","name:uz":"Keniya","name:kk":"\u041a\u0435\u043d\u0438\u044f","name:he":"\u05e7\u05e0\u05d9\u05d4","name:eo":"Kenjo","name:ur":"\u06a9\u06cc\u0646\u06cc\u0627","name:lb":"Kenia","name:la":"Kenia","name:uk":"\u041a\u0435\u043d\u0456\u044f","name:hy":"\u0554\u0565\u0576\u056b\u0561","name:ug":"\u0643\u06d0\u0646\u0649\u064a\u06d5","name:li":"Kenia","name:ln":"K\u00e9nya","name:el":"\u039a\u03ad\u03bd\u03c5\u03b1","kind":"country","name":"Kenya","min_zoom":8.0,"name:yi":"\u05e7\u05e2\u05e0\u05d9\u05e2","name:et":"Keenia","name:es":"Kenia","name:mt":"Kenja","name:az":"Keniya","name:ie":"Kenia","name:mr":"\u0915\u0947\u0928\u093f\u092f\u093e","name:ar":"\u0643\u064a\u0646\u064a\u0627","name:my":"\u1000\u1004\u103a\u100a\u102c\u1014\u102d\u102f\u1004\u103a\u1004\u1036","name:io":"Kenia","name:is":"Ken\u00eda","name:am":"\u12ac\u1295\u12eb","name:an":"Kenia","id":-192798,"name:ml":"\u0d15\u0d46\u0d28\u0d3f\u0d2f","name:mn":"\u041a\u0435\u043d\u0438","name:mi":"K\u0113nia","name:pl":"Kenia","name:mk":"\u041a\u0435\u043d\u0438\u0458\u0430","name:af":"Kenia","name:zu":"IKenya","kind_detail":"2","name:hi":"\u0915\u0940\u0928\u093f\u092f\u093e","name:mg":"Kenia","name:fo":"Kenja","name:ba":"\u041a\u0435\u043d\u0438\u044f","name:zh-yue":"\u80af\u96c5","name:vo":"Keny\u00e4n","name:zh":"\u80af\u5c3c\u4e9a","name:hr":"Kenija","name:so":"Kiinya","name:sl":"Kenija","name:nl":"Kenia","name:ja":"\u30b1\u30cb\u30a2","name:sh":"Kenija","name:sg":"Keny\u00e4a","name:na":"Keniya","name:se":"Kenia","name:sc":"K\u00e8nya","name:sa":"\u0915\u0947\u0928\u094d\u092f\u093e","name:bs":"Kenija","name:bn":"\u0995\u09c7\u09a8\u09bf\u09af\u09bc\u09be","name:bo":"\u0f41\u0f7a\u0f0b\u0f53\u0f72\u0f0b\u0f61\u0f0d","name:sk":"Ke\u0148a","name:ru":"\u041a\u0435\u043d\u0438\u044f","name:be":"\u041a\u0435\u043d\u0456\u044f","name:su":"K\u00e9nya","name:bg":"\u041a\u0435\u043d\u0438\u044f","name:ss":"IKheniya","name:sr":"\u041a\u0435\u043d\u0438\u0458\u0430","osm_relation":true,"name:sq":"Kenia","name:ga":"An Ch\u00e9inia","name:gd":"A' Cheinia","name:yo":"K\u1eb9\u0301ny\u00e0","name:wo":"Kee\u00f1aa","name:jv":"K\u00e9nya","name:gl":"Quenia - Kenya","name:fa":"\u06a9\u0646\u06cc\u0627","maritime_boundary":true,"name:gv":"Yn Cheinney","name:gu":"\u0a95\u0ac7\u0aa8\u0acd\u0aaf\u0abe","name:fi":"Kenia"},"arcs":[2]},{"type":"LineString","properties":{"kind":"region","name":"Kwale","sort_rank":256,"kind_detail":"4","min_zoom":8.0,"source":"openstreetmap.org","maritime_boundary":true,"id":-3495548,"osm_relation":true},"arcs":[3]}]},"roads":{"type":"GeometryCollection","geometries":[{"type":"MultiLineString","properties":{"source":"openstreetmap.org","kind":"major_road","sort_rank":380,"kind_detail":"primary","ref":"A14","min_zoom":8.0},"arcs":[[10],[11]]},{"type":"MultiLineString","properties":{"sort_rank":355,"source":"openstreetmap.org","min_zoom":8.0,"kind":"ferry"},"arcs":[[12],[13]]},{"type":"LineString","properties":{"sort_rank":355,"source":"openstreetmap.org","min_zoom":8.0,"name":"Zanzibar \u21d4 Pemba \u21d4 Tanga","kind":"ferry"},"arcs":[14]},{"type":"LineString","properties":{"source":"openstreetmap.org","kind":"major_road","sort_rank":380,"kind_detail":"primary","ref":"A 14","min_zoom":8.0},"arcs":[15]}]},"earth":{"type":"GeometryCollection","geometries":[{"type":"MultiPolygon","properties":{"sort_rank":10,"source":"naturalearthdata.com","min_zoom":0.0,"kind":"earth","area":11390724168},"arcs":[[[16]],[[17]],[[18]]]},{"type":"Point","properties":{"label_placement":true,"name:ro":"Insula Pemba","name:ja":"\u30da\u30f3\u30d0\u5cf6","name:tr":"Pemba Adas\u0131","name:he":"\u05e4\u05de\u05d1\u05d4","name:eo":"Pembo","name:mg":"Nosy Pemba","name:it":"Isola di Pemba","name:uk":"\u041f\u0435\u043c\u0431\u0430","name:ru":"\u041f\u0435\u043c\u0431\u0430","name:be":"\u0412\u043e\u0441\u0442\u0440\u0430\u045e \u041f\u0435\u043c\u0431\u0430","name:bg":"\u041f\u0435\u043c\u0431\u0430","id":-3019029,"osm_relation":true,"kind":"island","name":"Pemba","area":949697984,"min_zoom":8.0,"name:sr":"\u041f\u0435\u043c\u0431\u0430","name:ko":"\ud3a8\ubc14 \uc12c","source":"openstreetmap.org","name:zh":"\u5954\u5df4\u5c9b","name:es":"Isla de Pemba"},"coordinates":[1231,1306]}]},"landuse":{"type":"GeometryCollection","geometries":[{"type":"MultiPolygon","properties":{"source":"naturalearthdata.com","kind":"urban_area","name":"","area":141019482,"sort_rank":11,"min_zoom":4.0},"arcs":[[[19]]]}]}},"type":"Topology","transform":{"translate":[39.375,-5.6159858192],"scale":[0.0003433228,0.0003420514]},"arcs":[[[793,2733],[-123,0],[-370,-616],[-157,-18],[-143,70]],[[1718,0],[249,1059],[62,383],[31,572],[-47,267],[-74,148],[-95,119],[-203,131],[-199,40],[-217,-37],[-90,51],[-342,0]],[[793,2733],[640,1363]],[[0,2455],[168,171],[524,670],[306,701],[42,99]],[[0,2876],[62,9],[29,41],[-45,63],[-6,25],[8,41],[18,3],[21,-11],[14,-2],[24,44],[17,45],[21,41],[38,29],[10,-42],[-9,-85],[18,-54],[100,301],[9,13],[42,38],[9,16],[-3,37],[5,16],[23,32],[25,26],[25,2],[26,-38],[32,83],[95,359],[74,188],[3414,0],[0,-4096],[-4096,0],[0,2876]],[[836,445],[-29,38],[-44,11],[-46,17],[-34,53],[-31,43],[-43,27],[-25,13],[-19,-34],[31,-42],[34,-36],[26,-37],[44,-53],[51,-41],[79,5],[6,36]],[[798,551],[42,-14],[102,4],[20,-35],[24,5],[32,19],[41,11],[0,-22],[-26,-17],[-10,-18],[8,-11],[28,8],[41,26],[33,30],[15,33],[-9,31],[14,15],[10,17],[19,47],[16,0],[-14,-52],[17,-23],[25,6],[14,39],[1,49],[4,19],[12,12],[23,32],[86,258],[35,41],[-22,22],[21,47],[1,172],[20,113],[-5,51],[-37,16],[-5,-14],[6,-29],[-3,-28],[-27,-12],[-2,16],[-28,87],[9,56],[18,57],[9,57],[-14,51],[39,20],[52,41],[33,53],[-33,109],[7,70],[0,60],[-39,25],[6,-38],[-7,-55],[-17,-58],[-24,-49],[-4,17],[-10,22],[-3,21],[-35,-35],[0,-33],[11,-28],[2,-23],[-19,-23],[-12,11],[-8,29],[-1,33],[-25,23],[-134,77],[-10,14],[-47,47],[-15,10],[-18,-11],[-6,-24],[-11,-22],[-32,-5],[-3,13],[-10,28],[-16,28],[-22,13],[-9,3],[-8,8],[-7,13],[-7,15],[-3,-45],[-18,-82],[1,-34],[33,-40],[48,-25],[32,-27],[-11,-47],[-51,30],[-39,-14],[-16,-42],[24,-54],[42,20],[-13,-30],[-40,-33],[-9,-28],[95,-36],[25,-15],[18,-29],[3,-25],[-16,-10],[-34,16],[-22,-3],[-16,-31],[-3,-41],[12,-35],[-11,-17],[-5,-14],[-6,-32],[34,19],[29,-1],[23,-15],[17,-21],[-8,-19],[-15,-60],[39,41],[31,-15],[11,-48],[-22,-57],[22,-22],[-54,-2],[-99,15],[-28,9],[-28,-14],[-19,6],[-21,15],[-31,13],[22,-38],[32,-30],[36,-11],[29,19],[132,-84],[72,-20],[58,22],[-20,-59],[-28,-8],[-53,27],[-46,-2],[-70,-18],[-45,0],[18,-25],[23,-16],[29,-11],[33,-8],[-28,-27],[-52,-9],[-57,5],[-45,11],[16,-45],[61,-75],[24,-41],[-103,18],[-36,-7],[18,-31],[-27,-41],[-12,-46],[-1,-102],[17,-40]],[[0,2876],[62,9],[29,41],[-45,63],[-6,25],[8,41],[18,3],[21,-11],[14,-2],[24,44],[17,45],[21,41],[38,29],[10,-42],[-9,-85],[18,-54],[100,301],[9,13],[42,38],[9,16],[-3,37],[5,16],[23,32],[25,26],[25,2],[26,-38],[32,83],[95,359],[74,188]],[[781,591],[17,-40],[42,-14],[102,4],[20,-35],[24,5],[32,19],[41,11],[0,-22],[-26,-17],[-10,-18],[8,-11],[28,8],[41,26],[33,30],[15,33],[-9,31],[14,15],[10,17],[19,47],[16,0],[-14,-52],[17,-23],[25,6],[14,39],[1,49],[4,19],[12,12],[23,32],[86,258],[35,41],[-22,22],[21,47],[1,172],[20,113],[-5,51],[-37,16],[-5,-14],[6,-29],[-3,-28],[-27,-12],[-2,16],[-28,87],[9,56],[18,57],[9,57],[-14,51],[39,20],[52,41],[33,53],[-33,109],[7,70],[0,60],[-39,25],[6,-38],[-7,-55],[-17,-58],[-24,-49],[-4,17],[-10,22],[-3,21],[-35,-35],[0,-33],[11,-28],[2,-23],[-19,-23],[-12,11],[-8,29],[-1,33],[-25,23],[-134,77],[-10,14],[-47,47],[-15,10],[-18,-11],[-6,-24],[-11,-22],[-32,-5],[-3,13],[-10,28],[-16,28],[-22,13],[-9,3],[-8,8],[-7,13],[-7,15],[-3,-45],[-18,-82],[1,-34],[33,-40],[48,-25],[32,-27],[-11,-47],[-51,30],[-39,-14],[-16,-42],[24,-54],[42,20],[-13,-30],[-40,-33],[-9,-28],[95,-36],[25,-15],[18,-29],[3,-25],[-16,-10],[-34,16],[-22,-3],[-16,-31],[-3,-41],[12,-35],[-11,-17],[-5,-14],[-6,-32],[34,19],[29,-1],[23,-15],[17,-21],[-8,-19],[-15,-60],[39,41],[31,-15],[11,-48],[-22,-57],[22,-22],[-54,-2],[-99,15],[-28,9],[-28,-14],[-19,6],[-21,15],[-31,13],[22,-38],[32,-30],[36,-11],[29,19],[132,-84],[72,-20],[58,22],[-20,-59],[-28,-8],[-53,27],[-46,-2],[-70,-18],[-45,0],[18,-25],[23,-16],[29,-11],[33,-8],[-28,-27],[-52,-9],[-57,5],[-45,11],[16,-45],[61,-75],[24,-41],[-103,18],[-36,-7],[18,-31],[-27,-41],[-12,-46],[-1,-102]],[[584,647],[25,-13],[43,-27],[31,-43],[34,-53],[46,-17],[44,-11],[29,-38],[-6,-36],[-79,-5],[-51,41],[-44,53],[-26,37],[-34,36],[-31,42],[19,34]],[[373,3496],[-49,-104],[-279,-229],[-45,-5]],[[615,4096],[-42,-130]],[[996,1615],[-128,-29],[-65,-152],[-77,-35],[-90,59],[-636,60]],[[0,2821],[14,7]],[[0,1392],[451,-274],[117,-103],[150,-215],[59,-49],[-106,59],[-86,15],[-75,-19],[-453,-236],[-57,-51]],[[573,3966],[-24,-101],[-176,-369]],[[830,409],[-79,-5],[-51,41],[-44,53],[-26,37],[-34,36],[-31,42],[19,34],[25,-13],[43,-27],[31,-43],[34,-53],[46,-17],[44,-11],[29,-38],[-6,-36]],[[979,2014],[3,-13],[32,5],[11,22],[6,24],[18,11],[15,-10],[47,-47],[10,-14],[134,-77],[25,-23],[1,-33],[8,-29],[12,-11],[19,23],[-2,23],[-11,28],[0,33],[35,35],[3,-21],[10,-22],[4,-17],[24,49],[17,58],[7,55],[-6,38],[39,-25],[0,-60],[-7,-70],[33,-109],[-33,-53],[-52,-41],[-39,-20],[14,-51],[-9,-57],[-18,-57],[-9,-56],[28,-87],[2,-16],[27,12],[3,28],[-6,29],[5,14],[37,-16],[5,-51],[-20,-113],[-1,-172],[-21,-47],[22,-22],[-35,-41],[-86,-258],[-23,-32],[-12,-12],[-4,-19],[-1,-49],[-14,-39],[-25,-6],[-17,23],[14,52],[-16,0],[-19,-47],[-10,-17],[-14,-15],[9,-31],[-15,-33],[-33,-30],[-41,-26],[-28,-8],[-8,11],[10,18],[26,17],[0,22],[-41,-11],[-32,-19],[-24,-5],[-20,35],[-102,-4],[-42,14],[-17,40],[1,102],[12,46],[27,41],[-18,31],[36,7],[103,-18],[-24,41],[-61,75],[-16,45],[45,-11],[57,-5],[52,9],[28,27],[-33,8],[-29,11],[-23,16],[-18,25],[45,0],[70,18],[46,2],[53,-27],[28,8],[20,59],[-58,-22],[-72,20],[-132,84],[-29,-19],[-36,11],[-32,30],[-22,38],[31,-13],[21,-15],[19,-6],[28,14],[28,-9],[99,-15],[54,2],[-22,22],[22,57],[-11,48],[-31,15],[-39,-41],[15,60],[8,19],[-17,21],[-23,15],[-29,1],[-34,-19],[6,32],[5,14],[11,17],[-12,35],[3,41],[16,31],[22,3],[34,-16],[16,10],[-3,25],[-18,29],[-25,15],[-95,36],[9,28],[40,33],[13,30],[-42,-20],[-24,54],[16,42],[39,14],[51,-30],[11,47],[-32,27],[-48,25],[-33,40],[-1,34],[18,82],[3,45],[7,-15],[7,-13],[8,-8],[9,-3],[22,-13],[16,-28],[10,-28]],[[0,4096],[682,0],[-74,-188],[-95,-359],[-32,-83],[-26,38],[-25,-2],[-25,-26],[-23,-32],[-5,-16],[3,-37],[-9,-16],[-42,-38],[-9,-13],[-100,-301],[-18,54],[9,85],[-10,42],[-38,-29],[-21,-41],[-17,-45],[-24,-44],[-14,2],[-21,11],[-18,-3],[-8,-41],[6,-25],[45,-63],[-29,-41],[-62,-9],[0,1220]],[[1218,1837],[-46,21],[-6,108],[82,-47],[-30,-82]]]}