{"objects":{"water":{"type":"GeometryCollection","geometries":[]},"buildings":{"type":"GeometryCollection","geometries":[]},"places":{"type":"GeometryCollection","geometries":[{"type":"Point","properties":{"name:ja":"\u30f4\u30e9\u30b8\u30fc\u30df\u30eb\u5dde","name:lt":"Vladimiro sritis","name:eo":"Vladimira Provinco","min_zoom":4.0,"name:uk":"\u0412\u043b\u0430\u0434\u0438\u043c\u0438\u0440\u0441\u044c\u043a\u0430 \u043e\u0431\u043b\u0430\u0441\u0442\u044c","name:be":"\u0423\u043b\u0430\u0434\u0437\u0456\u043c\u0456\u0440\u0441\u043a\u0430\u044f \u0432\u043e\u0431\u043b\u0430\u0441\u0446\u044c","name:pl":"Obw\u00f3d w\u0142odzimierski","name:hu":"Vlagyimiri ter\u00fclet","id":867129558,"kind":"region","name:en":"Vladimir Oblast","name":"\u0412\u043b\u0430\u0434\u0438\u043c\u0438\u0440\u0441\u043a\u0430\u044f \u043e\u0431\u043b\u0430\u0441\u0442\u044c","kind_detail":"state","name:de":"Oblast Wladimir","source":"openstreetmap.org","name:fr":"Oblast de Vladimir","name:es":"\u00d3blast de Vlad\u00edmir"},"coordinates":[3732,1432]},{"type":"Point","properties":{"name:pt":"Vladimir","name:ro":"Vladimir","name:id":"Vladimir","name:ka":"\u10d5\u10da\u10d0\u10d3\u10d8\u10db\u10d8\u10e0\u10d8","admin_level":"4","name:ko":"\ube14\ub77c\ub514\ubbf8\ub974","name:ar":"\u0641\u0644\u0627\u062f\u064a\u0645\u064a\u0631","name:cs":"Vladimir","name:io":"Vladimir","min_zoom":8.0,"name:it":"Vladimir","name:tl":"Vladimir","name:be":"\u0423\u043b\u0430\u0434\u0437\u0456\u043c\u0456\u0440","name:vi":"Vladimir","name:pl":"W\u0142odzimierz","id":191698855,"name:ca":"Vlad\u00edmir","name:af":"Wladimir","name:fa":"\u0648\u0644\u0627\u062f\u06cc\u0645\u06cc\u0631 (\u0634\u0647\u0631)","name:lt":"Vladimiras","source":"openstreetmap.org","name:hr":"Vladimir","kind_detail":"city","name:da":"Vladimir","name:de":"Wladimir","name:tr":"Vladimir","name:fr":"Vladimir","name:fy":"Vladimir","name:zh":"\u5f17\u62c9\u57fa\u7c73\u5c14","name":"\u0412\u043b\u0430\u0434\u0438\u043c\u0438\u0440","alt_name:be":"\u0423\u043b\u0430\u0434\u0437\u0456\u043c\u0456\u0440-\u043d\u0430-\u041a\u043b\u044f\u0437\u044c\u043c\u0435;\u0423\u043b\u0430\u0434\u0437\u0456\u043c\u0456\u0440-\u0417\u0430\u043b\u0435\u0441\u043a\u0456","name:sl":"Vladimir","name:lv":"Vladimira","name:ja":"\u30a6\u30e9\u30b8\u30fc\u30df\u30eb","name:nn":"Vladimir","name:no":"Vladimir","name:he":"\u05d5\u05dc\u05d3\u05d9\u05de\u05d9\u05e8","kind":"locality","name:br":"Vladimir","name:la":"Volodimiria","name:sk":"Vladim\u00edr","name:uk":"\u0412\u043e\u043b\u043e\u0434\u0438\u043c\u0438\u0440","name:sv":"Vladimir","name:hu":"Vlagyimir","name:qu":"Vladimir","name:oc":"Vlad\u00edmir","population":352681,"name:el":"\u0392\u03bb\u03b1\u03bd\u03c4\u03af\u03bc\u03b9\u03c1","name:eo":"Vladimir","name:en":"Vladimir","name:uz":"Vladimir","alt_name:ru":"\u0412\u043b\u0430\u0434\u0438\u043c\u0438\u0440-\u043d\u0430-\u041a\u043b\u044f\u0437\u044c\u043c\u0435;\u0412\u043b\u0430\u0434\u0438\u043c\u0438\u0440-\u0417\u0430\u043b\u0435\u0441\u0441\u043a\u0438\u0439","name:ku":"Vlad\u00eem\u00eer","name:gl":"Vladimir","alt_name:uk":"\u0412\u043e\u043b\u043e\u0434\u0438\u043c\u0438\u0440-\u043d\u0430-\u041a\u043b\u044f\u0437\u044c\u043c\u0456;\u0412\u043e\u043b\u043e\u0434\u0438\u043c\u0438\u0440-\u0417\u0430\u043b\u0456\u0441\u044c\u043a\u0438\u0439","name:fi":"Vladimir","name:eu":"Vladimir","name:et":"Vladimir","name:nl":"Vladimir","name:es":"Vlad\u00edmir"},"coordinates":[3007,1843]},{"type":"Point","properties":{"kind":"locality","name":"\u041a\u043e\u043b\u044c\u0447\u0443\u0433\u0438\u043d\u043e","kind_detail":"town","name:de":"Koltschugino","source":"openstreetmap.org","min_zoom":8.0,"id":93390174,"population":44125},"coordinates":[3,2707]},{"type":"Point","properties":{"kind":"locality","name":"\u042e\u0440\u044c\u0435\u0432-\u041f\u043e\u043b\u044c\u0441\u043a\u0438\u0439","kind_detail":"town","name:de":"Jurjew-Polski","source":"openstreetmap.org","min_zoom":8.0,"id":1404788510,"population":19031},"coordinates":[884,3770]},{"type":"Point","properties":{"kind":"locality","name:en":"Sobinka","name":"\u0421\u043e\u0431\u0438\u043d\u043a\u0430","kind_detail":"town","name:de":"Sobinka","source":"openstreetmap.org","min_zoom":8.0,"id":314413011,"population":18510},"coordinates":[1864,1119]},{"type":"Point","properties":{"kind":"locality","name":"\u0420\u0430\u0434\u0443\u0436\u043d\u044b\u0439","kind_detail":"town","name:de":"Raduschny","source":"openstreetmap.org","min_zoom":8.0,"id":560380081,"population":18369},"coordinates":[2780,1137]},{"type":"Point","properties":{"name:ja":"\u30e9\u30ad\u30f3\u30b9\u30af","name:nn":"Lakinsk","name:no":"Lakinsk","name:ko":"\ub77c\ud0a8\uc2a4\ud06c","name:ar":"\u0644\u0627\u0643\u064a\u0646\u0633\u0643","kind":"locality","min_zoom":8.0,"name:it":"Lakinsk","name:tl":"Lakinsk","loc_name":"\u041b\u0430\u043a\u0438\u043d\u043e","name:be":"\u041b\u0430\u043a\u0456\u043d\u0441\u043a","name:pl":"\u0141akinsk","id":381155248,"population":14895,"name:fa":"\u0644\u0627\u06a9\u06cc\u0646\u0633\u06a9","name:eo":"Lakinsk","name:en":"Lakinsk","name":"\u041b\u0430\u043a\u0438\u043d\u0441\u043a","source":"openstreetmap.org","kind_detail":"town","name:de":"Lakinsk","name:tr":"Lakinsk","name:fr":"Lakinsk","name:fi":"Lakinsk","name:zh":"\u62c9\u91d1\u65af\u514b"},"coordinates":[1665,1248]},{"type":"Point","properties":{"name:nl":"Petoesjki","name:ja":"\u30da\u30c8\u30a5\u30b7\u30ad","name:nn":"Petusjki","name:no":"Petusjki","name:ko":"\ud398\ud22c\uc2dc\ud0a4","name:ar":"\u0628\u064a\u062a\u0648\u0634\u0643\u064a","kind":"locality","min_zoom":8.0,"name:it":"Petu\u0161ki","name:tl":"Petushki","old_name":"\u041d\u043e\u0432\u044b\u0435 \u041f\u0435\u0442\u0443\u0448\u043a\u0438","name:be":"\u041f\u0435\u0442\u0443\u0448\u043a\u0456","name:pl":"Pietuszki","id":256361853,"name:ca":"Petuixk\u00ed","population":13915,"name:fa":"\u067e\u062a\u0648\u0634\u06a9\u06cc","name:eo":"Petu\u015dki","name:en":"Petushki","name":"\u041f\u0435\u0442\u0443\u0448\u043a\u0438","kind_detail":"town","name:de":"Petuschki","source":"openstreetmap.org","name:fr":"Petouchki","name:fi":"Petu\u0161ki","name:et":"Petu\u0161ki","name:zh":"\u4f69\u5716\u4ec0\u57fa","name:es":"Petushk\u00ed"},"coordinates":[247,808]},{"type":"Point","properties":{"kind":"locality","name:en":"Suzdal","name":"\u0421\u0443\u0437\u0434\u0430\u043b\u044c","kind_detail":"town","min_zoom":8.0,"name:de":"Susdal","source":"openstreetmap.org","name:fr":"Souzdal","int_name":"Suzdal'","id":1908737047,"population":9978},"coordinates":[3128,3363]},{"type":"Point","properties":{"kind":"locality","name:en":"Kosterevo","name":"\u041a\u043e\u0441\u0442\u0435\u0440\u0451\u0432\u043e","kind_detail":"town","source":"openstreetmap.org","min_zoom":8.0,"id":339251382,"population":8641},"coordinates":[714,796]},{"type":"Point","properties":{"source":"openstreetmap.org","kind":"locality","name":"\u0421\u0442\u0430\u0432\u0440\u043e\u0432\u043e","kind_detail":"town","population":7591,"min_zoom":8.0,"id":586450170},"coordinates":[1856,1861]},{"type":"Point","properties":{"kind":"locality","name:en":"Gavrilov Posad","name":"\u0413\u0430\u0432\u0440\u0438\u043b\u043e\u0432 \u041f\u043e\u0441\u0430\u0434","kind_detail":"town","source":"openstreetmap.org","min_zoom":8.0,"id":1006718396,"population":5939},"coordinates":[2172,4091]}]},"transit":{"type":"GeometryCollection","geometries":[{"type":"LineString","properties":{"kind":"train","name:en":"Moscow \u2014 Severobaykalsk","name":"\u041c\u043e\u0441\u043a\u0432\u0430 \u2014 \u0421\u0435\u0432\u0435\u0440\u043e\u0431\u0430\u0439\u043a\u0430\u043b\u044c\u0441\u043a","sort_rank":275,"name:de":"Moskau \u2014 Sewerobaikalsk","source":"openstreetmap.org","min_zoom":6.0,"operator":"\u0420\u043e\u0441\u0441\u0438\u0439\u0441\u043a\u0438\u0435 \u0436\u0435\u043b\u0435\u0437\u043d\u044b\u0435 \u0434\u043e\u0440\u043e\u0433\u0438","ref":"092\u0418","osm_relation":true},"arcs":[4]},{"type":"MultiLineString","properties":{"kind":"train","name":"055\/056 \u041c\u043e\u0441\u043a\u0432\u0430 \u2014 \u041a\u0440\u0430\u0441\u043d\u043e\u044f\u0440\u0441\u043a","sort_rank":275,"name:de":"055\/056 Moskau \u2014 Krasnojarsk","source":"openstreetmap.org","min_zoom":6.0,"operator":"\u0420\u043e\u0441\u0441\u0438\u0439\u0441\u043a\u0438\u0435 \u0436\u0435\u043b\u0435\u0437\u043d\u044b\u0435 \u0434\u043e\u0440\u043e\u0433\u0438","ref":"055\/056 \u041c\u043e\u0441\u043a\u0432\u0430 \u2014 \u041a\u0440\u0430\u0441\u043d\u043e\u044f\u0440\u0441\u043a","osm_relation":true},"arcs":[[5],[6]]},{"type":"LineString","properties":{"source":"openstreetmap.org","kind":"train","sort_rank":275,"ref":"\u0412\u043b\u0430\u0434\u0438\u043c\u0438\u0440 \u2014 \u0422\u0443\u043c\u0441\u043a\u0430\u044f","min_zoom":6.0,"osm_relation":true,"id":-1762637},"arcs":[7]},{"type":"MultiLineString","properties":{"source":"openstreetmap.org","kind":"train","name":"\u041f\u043e\u0435\u0437\u0434 \u2116 036\u042d \"\u041d\u0438\u0436\u0435\u0433\u043e\u0440\u043e\u0434\u0435\u0446\": \u041c\u043e\u0441\u043a\u0432\u0430 \u042f\u0440\u043e\u0441\u043b\u0430\u0432\u0441\u043a\u0430\u044f - \u041d\u0438\u0436\u043d\u0438\u0439 \u041d\u043e\u0432\u0433\u043e\u0440\u043e\u0434","sort_rank":275,"ref":"036\u042d","min_zoom":6.0,"osm_relation":true},"arcs":[[8],[9]]},{"type":"LineString","properties":{"kind":"train","network":"\u0420\u0416\u0414","sort_rank":275,"source":"openstreetmap.org","min_zoom":6.0,"operator":"\u0421\u0435\u0432\u0435\u0440\u043d\u0430\u044f \u043f\u0440\u0438\u0433\u043e\u0440\u043e\u0434\u043d\u0430\u044f \u043f\u0430\u0441\u0441\u0430\u0436\u0438\u0440\u0441\u043a\u0430\u044f \u043a\u043e\u043c\u043f\u0430\u043d\u0438\u044f","ref":"\u0418\u0432\u0430\u043d\u043e\u0432\u043e - \u0410\u043b\u0435\u043a\u0441\u0430\u043d\u0434\u0440\u043e\u0432","osm_relation":true,"name":"\u041f\u043e\u0435\u0437\u0434: \u0418\u0432\u0430\u043d\u043e\u0432\u043e - \u0410\u043b\u0435\u043a\u0441\u0430\u043d\u0434\u0440\u043e\u0432"},"arcs":[10]},{"type":"LineString","properties":{"kind":"train","network":"regional","sort_rank":275,"source":"openstreetmap.org","min_zoom":6.0,"operator":"\u0413\u0416\u0414","osm_relation":true,"name":"\u0412\u043b\u0430\u0434\u0438\u043c\u0438\u0440 \u2014 \u041d\u0438\u0436\u043d\u0438\u0439 \u041d\u043e\u0432\u0433\u043e\u0440\u043e\u0434-\u041c\u043e\u0441\u043a\u043e\u0432\u0441\u043a\u0438\u0439"},"arcs":[11]},{"type":"LineString","properties":{"source":"openstreetmap.org","kind":"train","name":"\u041c\u043e\u0441\u043a\u0432\u0430 \u042f\u0440\u043e\u0441\u043b\u0430\u0432\u0441\u043a\u0430\u044f \u2014 \u041f\u0435\u0440\u043c\u044c","sort_rank":275,"ref":"007\u0415;008\u0415","min_zoom":6.0,"osm_relation":true},"arcs":[12]},{"type":"LineString","properties":{"kind":"train","network":"\u0420\u0416\u0414","sort_rank":275,"source":"openstreetmap.org","min_zoom":6.0,"operator":"\u0424\u041f\u041a","ref":"\u041c\u043e\u0441\u043a\u0432\u0430 - \u041a\u0438\u043d\u0435\u0448\u043c\u0430","osm_relation":true,"name":"\u041f\u043e\u0435\u0437\u0434 \u2116674: \u041c\u043e\u0441\u043a\u0432\u0430 - \u041a\u0438\u043d\u0435\u0448\u043c\u0430"},"arcs":[13]},{"type":"MultiLineString","properties":{"kind":"train","name":"\u0422\u043e\u043c\u0441\u043a \u2014 \u041c\u043e\u0441\u043a\u0432\u0430","sort_rank":275,"source":"openstreetmap.org","min_zoom":6.0,"operator":"\u0420\u043e\u0441\u0441\u0438\u0439\u0441\u043a\u0438\u0435 \u0436\u0435\u043b\u0435\u0437\u043d\u044b\u0435 \u0434\u043e\u0440\u043e\u0433\u0438","ref":"37","osm_relation":true,"network":"RU-railway"},"arcs":[[14],[15]]},{"type":"MultiLineString","properties":{"source":"openstreetmap.org","kind":"train","sort_rank":275,"ref":"K3\/4","min_zoom":6.0,"osm_relation":true},"arcs":[[16],[17]]}]},"pois":{"type":"GeometryCollection","geometries":[{"type":"Point","properties":{"kind":"nature_reserve","name:en":"Davidovskiy zakaznik","protect_class":"4","area":136135000,"source":"openstreetmap.org","min_zoom":8.75,"tier":2,"id":-5259165,"osm_relation":true,"name":"\u0413\u043e\u0441\u0443\u0434\u0430\u0440\u0441\u0442\u0432\u0435\u043d\u043d\u044b\u0439 \u043f\u0440\u0438\u0440\u043e\u0434\u043d\u044b\u0439 \u043a\u043e\u043c\u043f\u043b\u0435\u043a\u0441\u043d\u044b\u0439 (\u043b\u0430\u043d\u0434\u0448\u0430\u0444\u0442\u043d\u044b\u0439) \u0437\u0430\u043a\u0430\u0437\u043d\u0438\u043a \u0440\u0435\u0433\u0438\u043e\u043d\u0430\u043b\u044c\u043d\u043e\u0433\u043e \u0437\u043d\u0430\u0447\u0435\u043d\u0438\u044f \"\u0414\u0430\u0432\u044b\u0434\u043e\u0432\u0441\u043a\u0438\u0439\""},"coordinates":[3900,1981]},{"type":"Point","properties":{"source":"openstreetmap.org","kind":"military","name":"\u041a\u043e\u0441\u0442\u0435\u0440\u0451\u0432\u043e-1","area":12062700,"tier":3,"min_zoom":8.0,"id":78333773},"coordinates":[854,693]}]},"boundaries":{"type":"GeometryCollection","geometries":[{"type":"LineString","properties":{"name:left:sw":"Ivanovo Oblast","name:left:sv":"Ivanovo oblast","id:right":-72197,"name:right:lt":"Vladimiro sritis","min_zoom":8.0,"name:left:lt":"Ivanovo sritis","name:left:hy":"\u053b\u057e\u0561\u0576\u0578\u057e\u0578\u0575\u056b \u0574\u0561\u0580\u0566","name:left:lv":"Ivanovas apgabals","name:left:be":"\u0406\u0432\u0430\u043d\u0430\u045e\u0441\u043a\u0430\u044f \u0432\u043e\u0431\u043b\u0430\u0441\u0446\u044c","id":-85617,"name:right":"\u0412\u043b\u0430\u0434\u0438\u043c\u0438\u0440\u0441\u043a\u0430\u044f \u043e\u0431\u043b\u0430\u0441\u0442\u044c","name:left:en":"Ivanovo Oblast","name:right:ca":"Prov\u00edncia de Vlad\u00edmir","kind_detail":"4","name:left:ca":"Prov\u00edncia d'Iv\u00e0novo","source":"openstreetmap.org","id:left":-85617,"name:left:es":"\u00d3blast de Iv\u00e1novo","name:right:cs":"Vladimirsk\u00e1 oblast","name:left:cv":"\u0418\u0432\u0430\u043d\u043e\u0432\u043e \u043e\u0431\u043b\u0430\u00e7\u0115","name:left:os":"\u0418\u0432\u0430\u043d\u043e\u0432\u043e\u0439\u044b \u043e\u0431\u043b\u00e6\u0441\u0442","name:left:cs":"Ivanovsk\u00e1 oblast","name:left":"\u0418\u0432\u0430\u043d\u043e\u0432\u0441\u043a\u0430\u044f \u043e\u0431\u043b\u0430\u0441\u0442\u044c","name:left:ka":"\u10d8\u10d5\u10d0\u10dc\u10dd\u10d5\u10dd\u10e1 \u10dd\u10da\u10e5\u10d8","name:left:pl":"Obw\u00f3d iwanowski","name:left:tr":"\u0130vanovo Oblast\u0131","name:left:tt":"\u0418\u0432\u0430\u043d\u043e\u0432\u043e \u04e9\u043b\u043a\u04d9\u0441\u0435","name:left:az":"\u0130vanovo vilay\u0259ti","name:left:ro":"Regiunea Ivanovo","name:left:pt":"Oblast de Ivanovo","name:left:kv":"\u0418\u0432\u0430\u043d\u043e\u0432\u043e \u043e\u0431\u043b\u0430\u0441\u044c\u0442","name:left:sr":"\u0418\u0432\u0430\u043d\u043e\u0432\u0441\u043a\u0430 \u043e\u0431\u043b\u0430\u0441\u0442","name:left:it":"Oblast' di Ivanovo","name:right:pl":"Obw\u00f3d w\u0142odzimierski","name:right:en":"Vladimir Oblast","osm_relation":true,"name:left:uk":"\u0406\u0432\u0430\u043d\u043e\u0432\u0441\u044c\u043a\u0430 \u043e\u0431\u043b\u0430\u0441\u0442\u044c","kind":"region","name":"\u0418\u0432\u0430\u043d\u043e\u0432\u0441\u043a\u0430\u044f \u043e\u0431\u043b\u0430\u0441\u0442\u044c - \u0412\u043b\u0430\u0434\u0438\u043c\u0438\u0440\u0441\u043a\u0430\u044f \u043e\u0431\u043b\u0430\u0441\u0442\u044c","name:left:nl":"Oblast Ivanovo","name:left:fi":"Ivanovon alue","name:left:de":"Oblast Iwanowo","sort_rank":256,"name:left:zh":"\u4f0a\u4e07\u8bfa\u6c83\u5dde","name:left:fr":"Oblast d'Ivanovo","name:left:eu":"Ivanovo oblasta","name:left:mn":"\u0418\u0432\u0430\u043d\u043e\u0432\u043e \u043c\u0443\u0436","name:left:et":"Ivanovo oblast","name:left:bg":"\u0418\u0432\u0430\u043d\u043e\u0432\u0441\u043a\u0430 \u043e\u0431\u043b\u0430\u0441\u0442"},"arcs":[0]},{"type":"MultiLineString","properties":{"kind":"region","name:en":"Vladimir Oblast","name":"\u0412\u043b\u0430\u0434\u0438\u043c\u0438\u0440\u0441\u043a\u0430\u044f \u043e\u0431\u043b\u0430\u0441\u0442\u044c","name:lt":"Vladimiro sritis","sort_rank":256,"kind_detail":"4","name:cs":"Vladimirsk\u00e1 oblast","source":"openstreetmap.org","min_zoom":8.0,"name:ca":"Prov\u00edncia de Vlad\u00edmir","name:pl":"Obw\u00f3d w\u0142odzimierski","id":-72197,"osm_relation":true},"arcs":[[1],[2],[3]]}]},"roads":{"type":"GeometryCollection","geometries":[{"type":"LineString","properties":{"bus_network":null,"network":"ru:national","sort_rank":381,"kind_detail":"trunk","kind":"major_road","source":"openstreetmap.org","min_zoom":8.0,"bus_shield_text":"10","shield_text":"7","landuse_kind":"urban_area","ref":"\u041c-7"},"arcs":[18]},{"type":"MultiLineString","properties":{"bus_network":null,"network":"ru:national","sort_rank":381,"kind_detail":"trunk","kind":"major_road","source":"openstreetmap.org","min_zoom":8.0,"bus_shield_text":"164","shield_text":"7","landuse_kind":"residential","ref":"\u041c-7"},"arcs":[[19],[20],[21]]},{"type":"LineString","properties":{"kind":"major_road","sort_rank":380,"kind_detail":"primary","old_name:ru":"\u0443\u043b\u0438\u0446\u0430 \u0424\u0440\u0443\u043d\u0437\u0435","bus_network":null,"source":"openstreetmap.org","min_zoom":8.0,"bus_shield_text":"\u0412\u043b\u0430\u0434\u0438\u043c\u0438\u0440 - \u0418\u0432\u0430\u043d\u043e\u0432\u043e","landuse_kind":"urban_area","id":125587038},"arcs":[22]},{"type":"MultiLineString","properties":{"bus_network":null,"network":"ru:national","sort_rank":381,"landuse_kind":"urban_area","kind":"major_road","source":"openstreetmap.org","min_zoom":8.0,"bus_shield_text":"7\u0441","shield_text":"7","kind_detail":"trunk","ref":"\u041c-7"},"arcs":[[23],[24],[25]]},{"type":"LineString","properties":{"bus_network":null,"sort_rank":380,"kind_detail":"primary","kind":"major_road","source":"openstreetmap.org","min_zoom":8.0,"bus_shield_text":"101","landuse_kind":"urban_area","ref":"17\u0410-1"},"arcs":[26]},{"type":"LineString","properties":{"bus_network":null,"sort_rank":380,"kind_detail":"primary","kind":"major_road","source":"openstreetmap.org","min_zoom":8.0,"bus_shield_text":"53","landuse_kind":"urban_area","ref":"17\u0410-1"},"arcs":[27]},{"type":"MultiLineString","properties":{"kind":"major_road","network":"ru:national","sort_rank":381,"kind_detail":"trunk","source":"openstreetmap.org","min_zoom":8.0,"landuse_kind":"residential","shield_text":"7","ref":"\u041c-7"},"arcs":[[28],[29],[30]]},{"type":"LineString","properties":{"bus_network":null,"sort_rank":380,"kind_detail":"primary","old_name:ru":"\u0426\u0430\u0440\u0438\u0446\u044b\u043d\u0441\u043a\u0430\u044f \u0443\u043b\u0438\u0446\u0430","kind":"major_road","source":"openstreetmap.org","min_zoom":8.0,"bus_shield_text":"1\u0441","landuse_kind":"urban_area"},"arcs":[31]},{"type":"MultiLineString","properties":{"kind":"major_road","network":"ru:national","sort_rank":381,"landuse_kind":"urban_area","source":"openstreetmap.org","min_zoom":8.0,"kind_detail":"trunk","shield_text":"7","ref":"\u041c-7"},"arcs":[[32],[33],[34]]},{"type":"LineString","properties":{"bus_network":null,"sort_rank":380,"kind_detail":"primary","old_name:ru":"\u0443\u043b\u0438\u0446\u0430 \u041f\u0443\u0448\u043a\u0438\u043d\u0430","kind":"major_road","source":"openstreetmap.org","min_zoom":8.0,"bus_shield_text":"1\u0441","landuse_kind":"urban_area"},"arcs":[35]},{"type":"LineString","properties":{"bus_network":null,"network":"ru:national","sort_rank":381,"kind_detail":"trunk","kind":"major_road","source":"openstreetmap.org","min_zoom":8.0,"bus_shield_text":"\u0412\u043b\u0430\u0434\u0438\u043c\u0438\u0440 - \u0418\u0432\u0430\u043d\u043e\u0432\u043e","shield_text":"7","landuse_kind":"urban_area","ref":"\u041c-7"},"arcs":[36]},{"type":"LineString","properties":{"bus_network":null,"network":"ru:national","sort_rank":381,"kind_detail":"trunk","kind":"major_road","source":"openstreetmap.org","min_zoom":8.0,"bus_shield_text":"21\u0441","shield_text":"7","ref":"\u041c-7"},"arcs":[37]},{"type":"LineString","properties":{"bus_network":null,"sort_rank":380,"kind_detail":"primary","old_name:ru":"\u042f\u043c\u0441\u043a\u0430\u044f \u0441\u043b\u043e\u0431\u043e\u0434\u0430","kind":"major_road","source":"openstreetmap.org","min_zoom":8.0,"bus_shield_text":"22c","landuse_kind":"urban_area"},"arcs":[38]},{"type":"LineString","properties":{"bus_network":null,"sort_rank":380,"kind_detail":"primary","kind":"major_road","source":"openstreetmap.org","min_zoom":8.0,"bus_shield_text":"2","landuse_kind":"urban_area"},"arcs":[39]},{"type":"LineString","properties":{"bus_network":null,"network":"ru:regional","sort_rank":380,"kind_detail":"primary","kind":"major_road","source":"openstreetmap.org","min_zoom":8.0,"bus_shield_text":"507","shield_text":"17\u0420","ref":"17\u0420-2"},"arcs":[40]},{"type":"LineString","properties":{"bus_network":null,"network":"ru:regional","sort_rank":380,"kind_detail":"primary","kind":"major_road","source":"openstreetmap.org","min_zoom":8.0,"bus_shield_text":"507","shield_text":"17\u0420","ref":"17\u0420-1"},"arcs":[41]},{"type":"LineString","properties":{"bus_network":null,"network":"ru:national","sort_rank":381,"kind_detail":"trunk","kind":"major_road","source":"openstreetmap.org","min_zoom":8.0,"bus_shield_text":"1\u0441","shield_text":"7","landuse_kind":"urban_area","ref":"\u041c-7"},"arcs":[42]},{"type":"LineString","properties":{"source":"openstreetmap.org","kind":"major_road","landuse_kind":"urban_area","sort_rank":380,"kind_detail":"primary","ref":"17\u041a-10","min_zoom":8.0},"arcs":[43]},{"type":"LineString","properties":{"kind":"major_road","sort_rank":381,"kind_detail":"trunk","bus_network":null,"source":"openstreetmap.org","min_zoom":8.0,"bus_shield_text":"513\u041c","ref":"\u041c-7","id":236800214},"arcs":[44]},{"type":"LineString","properties":{"bus_network":null,"network":"ru:national","sort_rank":381,"kind_detail":"trunk","kind":"major_road","source":"openstreetmap.org","min_zoom":8.0,"bus_shield_text":"22c","shield_text":"7","ref":"\u041c-7"},"arcs":[45]},{"type":"MultiLineString","properties":{"sort_rank":381,"source":"openstreetmap.org","min_zoom":8.0,"kind":"major_road","kind_detail":"trunk"},"arcs":[[46],[47],[48],[49]]},{"type":"LineString","properties":{"bus_network":null,"sort_rank":380,"kind_detail":"primary","kind":"major_road","source":"openstreetmap.org","min_zoom":8.0,"bus_shield_text":"141","ref":"17\u0410-1"},"arcs":[50]},{"type":"MultiLineString","properties":{"bus_network":null,"sort_rank":380,"kind_detail":"primary","kind":"major_road","source":"openstreetmap.org","min_zoom":8.0,"bus_shield_text":"513\u041c","landuse_kind":"urban_area"},"arcs":[[51],[52]]},{"type":"MultiLineString","properties":{"bus_network":null,"sort_rank":380,"kind_detail":"primary","kind":"major_road","source":"openstreetmap.org","min_zoom":8.0,"bus_shield_text":"18\u0441","landuse_kind":"urban_area"},"arcs":[[53],[54],[55]]},{"type":"MultiLineString","properties":{"kind":"major_road","network":"e-road","sort_rank":381,"kind_detail":"trunk","source":"openstreetmap.org","min_zoom":8.0,"landuse_kind":"residential","shield_text":"22","ref":"\u041c-7"},"arcs":[[56],[57]]},{"type":"MultiLineString","properties":{"bus_network":null,"network":"ru:regional","sort_rank":380,"kind_detail":"primary","kind":"major_road","source":"openstreetmap.org","min_zoom":8.0,"bus_shield_text":"139","shield_text":"17\u0420","ref":"17\u0420-1"},"arcs":[[58],[59],[60]]},{"type":"LineString","properties":{"bus_network":null,"sort_rank":380,"kind_detail":"primary","old_name:ru":"\u0443\u043b\u0438\u0446\u0430 III \u0418\u043d\u0442\u0435\u0440\u043d\u0430\u0446\u0438\u043e\u043d\u0430\u043b\u0430 ( \u0422\u0440\u0435\u0442\u044c\u0435\u0433\u043e \u0418\u043d\u0442\u0435\u0440\u043d\u0430\u0446\u0438\u043e\u043d\u0430\u043b\u0430)","kind":"major_road","source":"openstreetmap.org","min_zoom":8.0,"bus_shield_text":"1\u0441","landuse_kind":"urban_area"},"arcs":[61]},{"type":"LineString","properties":{"bus_network":null,"sort_rank":380,"kind_detail":"primary","old_name:ru":"\u042f\u043c\u0441\u043a\u0430\u044f \u0441\u043b\u043e\u0431\u043e\u0434\u0430","kind":"major_road","source":"openstreetmap.org","min_zoom":8.0,"bus_shield_text":"1\u0441","landuse_kind":"urban_area"},"arcs":[62]},{"type":"LineString","properties":{"bus_network":null,"sort_rank":380,"kind_detail":"primary","old_name:ru":"\u0443\u043b\u0438\u0446\u0430 \u0424\u0440\u0443\u043d\u0437\u0435","kind":"major_road","source":"openstreetmap.org","min_zoom":8.0,"bus_shield_text":"1","landuse_kind":"urban_area"},"arcs":[63]},{"type":"MultiLineString","properties":{"source":"openstreetmap.org","kind":"major_road","landuse_kind":"urban_area","sort_rank":380,"kind_detail":"primary","min_zoom":8.0},"arcs":[[64],[65],[66],[67],[68],[69],[70]]},{"type":"MultiLineString","properties":{"bus_network":null,"sort_rank":380,"kind_detail":"primary","kind":"major_road","source":"openstreetmap.org","min_zoom":8.0,"bus_shield_text":"6c","landuse_kind":"urban_area"},"arcs":[[71],[72],[73],[74],[75]]},{"type":"LineString","properties":{"bus_network":null,"sort_rank":380,"kind_detail":"primary","old_name:ru":"\u0411\u043e\u043b\u044c\u0448\u0430\u044f \u041c\u043e\u0441\u043a\u043e\u0432\u0441\u043a\u0430\u044f \u0443\u043b\u0438\u0446\u0430","kind":"major_road","source":"openstreetmap.org","min_zoom":8.0,"bus_shield_text":"1\u0441","landuse_kind":"urban_area"},"arcs":[76]},{"type":"LineString","properties":{"bus_network":null,"network":"ru:regional","sort_rank":380,"kind_detail":"primary","kind":"major_road","source":"openstreetmap.org","min_zoom":8.0,"bus_shield_text":"7\u0441","shield_text":"17\u0420","landuse_kind":"urban_area","ref":"17\u0420-1"},"arcs":[77]},{"type":"MultiLineString","properties":{"bus_network":null,"network":"ru:national","sort_rank":381,"kind_detail":"trunk","kind":"major_road","source":"openstreetmap.org","min_zoom":8.0,"bus_shield_text":"513\u041c","shield_text":"7","ref":"\u041c-7"},"arcs":[[78],[79],[80]]},{"type":"LineString","properties":{"bus_network":null,"sort_rank":380,"kind_detail":"primary","kind":"major_road","source":"openstreetmap.org","min_zoom":8.0,"bus_shield_text":"101","ref":"17\u0410-1"},"arcs":[81]},{"type":"LineString","properties":{"bus_network":null,"network":"ru:national","sort_rank":381,"kind_detail":"trunk","kind":"major_road","source":"openstreetmap.org","min_zoom":8.0,"bus_shield_text":"164","shield_text":"7","ref":"\u041c-7"},"arcs":[82]},{"type":"LineString","properties":{"bus_network":null,"network":"ru:national","sort_rank":381,"landuse_kind":"urban_area","kind":"major_road","source":"openstreetmap.org","min_zoom":8.0,"bus_shield_text":"27","shield_text":"7","kind_detail":"trunk","ref":"\u041c-7"},"arcs":[83]},{"type":"MultiLineString","properties":{"source":"openstreetmap.org","kind":"major_road","sort_rank":380,"kind_detail":"primary","ref":"17\u0410-1","min_zoom":8.0},"arcs":[[84],[85]]},{"type":"LineString","properties":{"source":"openstreetmap.org","kind":"major_road","sort_rank":381,"kind_detail":"trunk","ref":"\u041c-7","min_zoom":8.0,"id":512282460},"arcs":[86]},{"type":"LineString","properties":{"sort_rank":380,"kind_detail":"primary","min_zoom":8.0,"kind":"major_road","source":"openstreetmap.org"},"arcs":[87]},{"type":"LineString","properties":{"bus_network":null,"network":"ru:regional","sort_rank":380,"kind_detail":"primary","kind":"major_road","source":"openstreetmap.org","min_zoom":8.0,"bus_shield_text":"7\u0441","shield_text":"17\u0420","ref":"17\u0420-1"},"arcs":[88]},{"type":"LineString","properties":{"bus_network":null,"network":"ru:national","sort_rank":381,"kind_detail":"trunk","kind":"major_road","source":"openstreetmap.org","min_zoom":8.0,"bus_shield_text":"7\u0441","shield_text":"7","ref":"\u041c-7"},"arcs":[89]},{"type":"LineString","properties":{"kind":"major_road","sort_rank":380,"kind_detail":"primary","bus_network":null,"source":"openstreetmap.org","min_zoom":8.0,"bus_shield_text":"105","landuse_kind":"urban_area","ref":"17\u041a-10","id":132768346},"arcs":[90]},{"type":"LineString","properties":{"kind":"major_road","network":"ru:regional","sort_rank":380,"kind_detail":"primary","bus_network":null,"source":"openstreetmap.org","min_zoom":8.0,"bus_shield_text":"115","shield_text":"17\u0420","ref":"17\u0420-1","id":120831359},"arcs":[91]},{"type":"LineString","properties":{"bus_network":null,"network":"ru:regional","sort_rank":380,"kind_detail":"primary","kind":"major_road","source":"openstreetmap.org","min_zoom":8.0,"bus_shield_text":"520","shield_text":"17\u0410","ref":"17\u0410-2"},"arcs":[92]},{"type":"MultiLineString","properties":{"bus_network":null,"network":"ru:national","sort_rank":381,"kind_detail":"trunk","kind":"major_road","source":"openstreetmap.org","min_zoom":8.0,"bus_shield_text":"\u0412\u043b\u0430\u0434\u0438\u043c\u0438\u0440 - \u0418\u0432\u0430\u043d\u043e\u0432\u043e","shield_text":"7","ref":"\u041c-7"},"arcs":[[93],[94]]},{"type":"LineString","properties":{"kind":"major_road","network":"ru:regional","sort_rank":380,"kind_detail":"primary","source":"openstreetmap.org","min_zoom":8.0,"shield_text":"17\u0420","ref":"17\u0420-1"},"arcs":[95]},{"type":"LineString","properties":{"bus_network":null,"sort_rank":380,"kind_detail":"primary","kind":"major_road","source":"openstreetmap.org","min_zoom":8.0,"bus_shield_text":"520","landuse_kind":"urban_area","ref":"17\u041a-10"},"arcs":[96]},{"type":"LineString","properties":{"kind":"major_road","network":"e-road","sort_rank":381,"kind_detail":"trunk","source":"openstreetmap.org","min_zoom":8.0,"shield_text":"22","ref":"\u041c-7"},"arcs":[97]},{"type":"LineString","properties":{"bus_network":null,"network":"ru:regional","sort_rank":380,"kind_detail":"primary","kind":"major_road","source":"openstreetmap.org","min_zoom":8.0,"bus_shield_text":"163","shield_text":"17\u0410","ref":"17\u0410-2"},"arcs":[98]},{"type":"LineString","properties":{"bus_network":null,"sort_rank":380,"kind_detail":"primary","kind":"major_road","source":"openstreetmap.org","min_zoom":8.0,"bus_shield_text":"7\u0441","landuse_kind":"urban_area"},"arcs":[99]},{"type":"LineString","properties":{"bus_network":null,"network":"ru:national","sort_rank":381,"kind_detail":"trunk","kind":"major_road","source":"openstreetmap.org","min_zoom":8.0,"bus_shield_text":"513\u041c","shield_text":"7","landuse_kind":"urban_area","ref":"\u041c-7"},"arcs":[100]},{"type":"LineString","properties":{"source":"openstreetmap.org","kind":"ferry","name:en":"Pleasure boat","name":"\u041f\u0440\u043e\u0433\u0443\u043b\u043e\u0447\u043d\u044b\u0439 \u043a\u0430\u0442\u0435\u0440","sort_rank":355,"min_zoom":8.0,"id":431521695},"arcs":[101]},{"type":"LineString","properties":{"bus_network":null,"network":"ru:national","sort_rank":381,"kind_detail":"trunk","kind":"major_road","source":"openstreetmap.org","min_zoom":8.0,"bus_shield_text":"14","shield_text":"7","landuse_kind":"urban_area","ref":"\u041c-7"},"arcs":[102]},{"type":"MultiLineString","properties":{"kind":"major_road","network":"ru:national","sort_rank":381,"kind_detail":"trunk","source":"openstreetmap.org","min_zoom":8.0,"shield_text":"7","ref":"\u041c-7"},"arcs":[[103],[104],[105],[106],[107],[108],[109],[110],[111],[112],[113],[114],[115],[116],[117],[118],[119],[120],[121]]},{"type":"LineString","properties":{"bus_network":null,"sort_rank":380,"kind_detail":"primary","old_name:ru":"\u041b\u0435\u043d\u0438\u043d\u0433\u0440\u0430\u0434\u0441\u043a\u0430\u044f \u0443\u043b\u0438\u0446\u0430","kind":"major_road","source":"openstreetmap.org","min_zoom":8.0,"bus_shield_text":"\u0412\u043b\u0430\u0434\u0438\u043c\u0438\u0440 - \u0418\u0432\u0430\u043d\u043e\u0432\u043e","landuse_kind":"urban_area"},"arcs":[122]},{"type":"MultiLineString","properties":{"bus_network":null,"sort_rank":380,"kind_detail":"primary","kind":"major_road","source":"openstreetmap.org","min_zoom":8.0,"bus_shield_text":"1\u0441","landuse_kind":"urban_area"},"arcs":[[123],[124],[125],[126]]},{"type":"LineString","properties":{"bus_network":null,"sort_rank":380,"kind_detail":"primary","old_name:ru":"\u0443\u043b\u0438\u0446\u0430 \u0424\u0440\u0443\u043d\u0437\u0435","kind":"major_road","source":"openstreetmap.org","min_zoom":8.0,"bus_shield_text":"513\u041c","landuse_kind":"urban_area"},"arcs":[127]},{"type":"LineString","properties":{"kind":"major_road","sort_rank":380,"kind_detail":"primary","bus_network":null,"source":"openstreetmap.org","min_zoom":8.0,"bus_shield_text":"520","landuse_kind":"urban_area","id":224032434},"arcs":[128]},{"type":"LineString","properties":{"source":"openstreetmap.org","kind":"major_road","sort_rank":380,"kind_detail":"primary","ref":"17\u041a-10","min_zoom":8.0},"arcs":[129]},{"type":"LineString","properties":{"bus_network":null,"network":"ru:national","sort_rank":381,"kind_detail":"trunk","kind":"major_road","source":"openstreetmap.org","min_zoom":8.0,"bus_shield_text":"159","shield_text":"7","ref":"\u041c-7"},"arcs":[130]},{"type":"LineString","properties":{"source":"openstreetmap.org","kind":"ferry","name":"\u0420\u0435\u0447\u043d\u043e\u0439 \u0442\u0440\u0430\u043c\u0432\u0430\u0439\u0447\u0438\u043a","sort_rank":355,"min_zoom":8.0,"id":497267507},"arcs":[131]},{"type":"MultiLineString","properties":{"kind":"major_road","network":"ru:national","sort_rank":381,"landuse_kind":"urban_area","source":"openstreetmap.org","min_zoom":8.0,"old_name":"5-\u044f \u043b\u0438\u043d\u0438\u044f","shield_text":"7","kind_detail":"trunk","ref":"\u041c-7"},"arcs":[[132],[133]]},{"type":"LineString","properties":{"kind":"major_road","network":"ru:regional","sort_rank":380,"kind_detail":"primary","source":"openstreetmap.org","min_zoom":8.0,"shield_text":"17\u0410","ref":"17\u0410-2","id":185587273},"arcs":[134]},{"type":"LineString","properties":{"bus_network":null,"network":"ru:national","sort_rank":381,"kind_detail":"trunk","old_name":"5-\u044f \u043b\u0438\u043d\u0438\u044f","kind":"major_road","source":"openstreetmap.org","min_zoom":8.0,"bus_shield_text":"1\u0441","shield_text":"7","landuse_kind":"urban_area","ref":"\u041c-7"},"arcs":[135]},{"type":"LineString","properties":{"bus_network":null,"sort_rank":380,"kind_detail":"primary","old_name:ru":"\u0443\u043b\u0438\u0446\u0430 III \u0418\u043d\u0442\u0435\u0440\u043d\u0430\u0446\u0438\u043e\u043d\u0430\u043b\u0430 ( \u0422\u0440\u0435\u0442\u044c\u0435\u0433\u043e \u0418\u043d\u0442\u0435\u0440\u043d\u0430\u0446\u0438\u043e\u043d\u0430\u043b\u0430)","kind":"major_road","source":"openstreetmap.org","min_zoom":8.0,"bus_shield_text":"1","landuse_kind":"urban_area"},"arcs":[136]},{"type":"LineString","properties":{"bus_network":null,"sort_rank":380,"kind_detail":"primary","old_name:ru":"\u041b\u0435\u043d\u0438\u043d\u0433\u0440\u0430\u0434\u0441\u043a\u0430\u044f \u0443\u043b\u0438\u0446\u0430","kind":"major_road","source":"openstreetmap.org","min_zoom":8.0,"bus_shield_text":"7\u0441","landuse_kind":"urban_area"},"arcs":[137]},{"type":"MultiLineString","properties":{"bus_network":null,"network":"ru:national","sort_rank":381,"kind_detail":"trunk","kind":"major_road","source":"openstreetmap.org","min_zoom":8.0,"bus_shield_text":"163","shield_text":"7","ref":"\u041c-7"},"arcs":[[138],[139],[140],[141],[142]]},{"type":"LineString","properties":{"bus_network":null,"sort_rank":380,"kind_detail":"primary","kind":"major_road","source":"openstreetmap.org","min_zoom":8.0,"bus_shield_text":"22c","landuse_kind":"urban_area"},"arcs":[143]},{"type":"LineString","properties":{"bus_network":null,"network":"ru:national","sort_rank":381,"landuse_kind":"urban_area","kind":"major_road","source":"openstreetmap.org","min_zoom":8.0,"bus_shield_text":"22c","shield_text":"7","kind_detail":"trunk","ref":"\u041c-7"},"arcs":[144]}]},"earth":{"type":"GeometryCollection","geometries":[{"type":"Polygon","properties":{"sort_rank":10,"source":"naturalearthdata.com","kind":"earth","min_zoom":0.0,"id":4770},"arcs":[[145]]}]},"landuse":{"type":"GeometryCollection","geometries":[{"type":"Polygon","properties":{"kind":"nature_reserve","protect_class":"4","area":136135008,"sort_rank":23,"source":"openstreetmap.org","min_zoom":7.0,"tier":2,"id":-5259165,"osm_relation":true},"arcs":[[146]]},{"type":"Polygon","properties":{"kind":"residential","name":"\u0421\u043e\u0431\u0438\u043d\u043a\u0430","area":28370000,"sort_rank":20,"name:de":"Sobinka","source":"openstreetmap.org","min_zoom":8.0,"tier":2,"id":41670241},"arcs":[[147]]},{"type":"MultiPolygon","properties":{"source":"naturalearthdata.com","kind":"urban_area","name":"","area":2251973514,"sort_rank":11,"min_zoom":4.0},"arcs":[[[148]],[[149]],[[150]],[[151]],[[152]]]},{"type":"Polygon","properties":{"kind":"residential","name":"\u041b\u0430\u043a\u0438\u043d\u0441\u043a","area":22384400,"sort_rank":20,"loc_name":"\u041b\u0430\u043a\u0438\u043d\u043e","name:de":"Lakinsk","source":"openstreetmap.org","min_zoom":8.0,"tier":2,"id":45729718},"arcs":[[153]]},{"type":"MultiPolygon","properties":{"source":"openstreetmap.org","kind":"military","tier":3,"area":36565368,"sort_rank":45,"min_zoom":8.0},"arcs":[[[154]]]}]}},"type":"Topology","transform":{"translate":[39.375,55.7765730187],"scale":[0.0003433228,0.00019114]},"arcs":[[[1550,4096],[26,-35],[35,6],[7,-77],[75,-27],[-13,-62],[-73,-23],[17,-63],[-53,-52],[30,-38],[31,0],[41,-113],[82,42],[32,-24],[-12,-49],[38,-3],[-13,34],[60,40],[29,-15],[8,45],[50,23],[57,-39],[116,15],[29,-87],[73,-30],[1,-29],[112,40],[40,-40],[-21,-68],[28,-18],[95,21],[30,96],[70,7],[0,51],[-35,25],[57,73],[107,2],[26,102],[76,-14],[36,39],[25,-14],[82,136],[41,-2],[35,-71],[0,39],[55,81],[1,-43],[73,-9],[35,128]],[[7,0],[11,0]],[[19,0],[33,49],[29,-1],[10,-40],[90,14],[-22,-22]],[[430,0],[2,56],[209,7],[-1,50],[96,4],[1,34],[47,-1],[-1,-50],[49,-2],[0,-50],[125,9],[-20,139],[50,-1],[2,50],[48,8],[3,91],[162,-5],[12,-61],[39,34],[43,-3],[11,27],[29,1],[7,-27],[45,33],[42,-51],[67,4],[38,-62],[-13,-52],[34,-44],[-36,-104],[14,-34]],[[0,729],[219,46],[417,-1],[980,330],[133,161],[559,194],[228,176],[353,70],[251,238],[147,93],[105,150],[267,193],[228,116],[209,77]],[[4096,2572],[-209,-77],[-14,-6],[-199,-101],[-7,-4],[-8,-5],[-8,-5],[-11,-10],[-59,-49],[-60,-50],[-110,-64],[-6,-4],[-13,-11],[-11,-10],[-28,-31],[-5,-6],[-8,-12],[-27,-56],[-26,-34],[-32,-25],[-104,-61],[-12,-8],[-6,-5],[-6,-7],[-38,-46],[-87,-72],[-38,-33],[-11,-11],[-37,-44],[-27,-20],[-27,-9],[-98,-18],[-214,-39],[-6,-2],[-8,-2],[-5,-2],[-7,-3],[-5,-3],[-5,-3],[-9,-6],[-197,-158],[-230,-89],[-254,-80],[-53,-17],[-11,-4],[-11,-4],[-8,-5],[-7,-6],[-9,-7],[-7,-10],[-80,-118],[-22,-16],[-187,-60],[-444,-143],[-16,-6],[-9,-5],[-110,-57],[-21,-4],[-38,-1],[-6,0],[-17,-5],[-132,-49],[-417,1],[-9,0],[-5,-1],[-205,-45]],[[0,729],[219,46],[417,-1],[214,58],[135,69],[631,203],[23,16],[110,145],[329,106],[230,88],[228,176],[326,60],[27,10],[27,20],[48,55],[125,105],[51,58],[115,69],[32,24],[27,35],[34,68],[44,47],[130,79],[137,114],[228,116],[209,77]],[[3045,1849],[-137,-154],[-13,-225],[45,-76],[12,-132],[85,-92],[35,-142],[52,-50],[-11,-81],[107,-176],[121,-396],[139,-325]],[[0,729],[219,46],[377,-4],[17,0],[12,1],[11,2],[214,58],[8,3],[9,4],[93,51],[25,11],[631,203],[8,5],[8,5],[7,6],[7,9],[33,50],[23,34],[10,16],[6,9],[31,27],[329,106],[24,9],[194,74],[12,5],[13,8],[10,5],[16,11],[148,125],[11,10],[30,17],[326,60],[8,2],[10,4],[9,4],[9,5],[6,5],[6,5],[6,5],[48,55],[38,33],[69,56],[18,16],[51,58],[115,69],[22,16],[10,8],[10,11],[8,11],[9,13],[34,68],[44,47],[19,15],[24,13],[66,37],[12,7],[9,7],[137,114],[228,116],[209,75]],[[4096,2572],[-209,-77],[-228,-116],[-138,-114],[-110,-64],[-19,-15],[-44,-47],[-61,-102],[-148,-94],[-50,-58],[-87,-72],[-38,-33],[-75,-75],[-353,-70],[-31,-17],[-197,-158],[-559,-194],[-31,-28],[-80,-118],[-22,-16],[-631,-203],[-25,-11],[-110,-57],[-214,-59],[-417,1],[-219,-46]],[[0,2680],[109,55],[2,91],[235,192],[279,342],[78,202],[145,37],[21,133],[186,42],[69,-6],[43,-59],[113,-11],[173,41],[27,87],[-7,141],[141,63],[34,66]],[[3045,1849],[97,96],[145,91],[105,150],[259,187],[236,122],[209,77]],[[0,729],[219,46],[417,-1],[980,330],[133,161],[559,194],[228,176],[353,70],[251,238],[147,93],[105,150],[267,193],[228,116],[209,77]],[[0,2680],[109,55],[2,91],[235,192],[279,342],[78,202],[145,37],[21,133],[186,42],[69,-6],[43,-59],[113,-11],[173,41],[27,87],[-7,141],[141,63],[34,66]],[[0,729],[205,45],[5,1],[9,0],[417,-1],[132,49],[17,5],[6,0],[38,1],[21,4],[110,57],[9,5],[16,6],[444,143],[187,60],[22,16],[80,118],[7,10],[9,7],[7,6],[8,5],[11,4],[11,4],[53,17],[254,80],[230,89],[197,158],[9,6],[5,3],[5,3],[7,3],[5,2],[8,2],[6,2],[214,39],[98,18],[27,9],[27,20],[37,44],[11,11],[38,33],[87,72],[38,46],[6,7],[6,5],[12,8],[104,61],[32,25],[26,34],[27,56],[8,12],[5,6],[28,31],[11,10],[13,11],[6,4],[110,64],[60,50],[59,49],[11,10],[8,5],[8,5],[7,4],[199,101],[14,6],[209,77]],[[0,729],[219,46],[417,-1],[214,58],[135,69],[631,203],[23,16],[110,145],[329,106],[230,88],[228,176],[326,60],[27,10],[27,20],[48,55],[125,105],[51,58],[115,69],[32,24],[27,35],[34,68],[44,47],[130,79],[137,114],[228,116],[209,77]],[[4096,2572],[-209,-77],[-14,-6],[-199,-101],[-7,-4],[-8,-5],[-8,-5],[-11,-10],[-59,-49],[-60,-50],[-110,-64],[-6,-4],[-13,-11],[-11,-10],[-28,-31],[-5,-6],[-8,-12],[-27,-56],[-26,-34],[-32,-25],[-104,-61],[-12,-8],[-6,-5],[-6,-7],[-38,-46],[-87,-72],[-38,-33],[-11,-11],[-37,-44],[-27,-20],[-27,-9],[-98,-18],[-214,-39],[-6,-2],[-8,-2],[-5,-2],[-7,-3],[-5,-3],[-5,-3],[-9,-6],[-197,-158],[-230,-89],[-254,-80],[-53,-17],[-11,-4],[-11,-4],[-8,-5],[-7,-6],[-9,-7],[-7,-10],[-80,-118],[-22,-16],[-187,-60],[-444,-143],[-16,-6],[-9,-5],[-110,-57],[-21,-4],[-38,-1],[-6,0],[-17,-5],[-132,-49],[-417,1],[-9,0],[-5,-1],[-205,-45]],[[0,729],[219,46],[417,-1],[214,58],[135,69],[631,203],[23,16],[110,145],[329,106],[230,88],[228,176],[326,60],[27,10],[27,20],[48,55],[125,105],[51,58],[115,69],[32,24],[27,35],[34,68],[44,47],[130,79],[137,114],[228,116],[209,77]],[[3155,2078],[-39,-3]],[[1825,1313],[-80,-39]],[[1825,1313],[13,7]],[[1848,1325],[-10,-5]],[[3081,1890],[3,4]],[[2952,2046],[-61,-76]],[[3116,2075],[-44,-4]],[[3175,2079],[-20,-1]],[[2864,2015],[-121,118],[16,92]],[[2864,2015],[27,-45]],[[1674,1240],[-104,-63]],[[1734,1269],[-46,-23]],[[1745,1274],[-2,-1]],[[2997,1848],[3,-7]],[[2815,1793]],[[3208,2082],[-12,-1]],[[3278,2094],[-34,-10]],[[2948,1825],[-5,-14]],[[3125,2152],[30,-74]],[[2640,1701],[-152,-66]],[[2798,1767],[78,26]],[[3004,1876],[-4,0]],[[3784,0],[25,87],[-112,213],[2,95],[-79,165],[-35,186],[-171,295],[101,227]],[[3515,1268],[-259,275]],[[2891,1970],[-16,-22]],[[21,2818],[82,27]],[[3559,2267],[3,0]],[[2677,1717],[-37,-16]],[[164,830],[-1,2]],[[165,832],[0,-2]],[[400,881],[0,1]],[[402,883],[1,-1]],[[1843,3152],[116,-10]],[[3076,1890],[2,-2]],[[3278,2094],[-123,-123]],[[2986,1893],[70,38]],[[3056,1931],[-53,-24]],[[3056,1931],[47,-11]],[[1674,1240],[14,6]],[[1734,1269],[9,4],[-2,0],[-7,-4]],[[3173,1609],[-51,63]],[[3173,1609],[58,-50]],[[3231,1559],[25,-16]],[[3000,1841],[-21,-8]],[[2887,1796],[50,11]],[[3081,1890],[-37,-21]],[[2939,1809],[0,-1]],[[2941,1809],[-1,1]],[[2976,1833],[1,-1]],[[2978,1832],[0,1]],[[2997,1848],[2,2]],[[3001,1852],[-2,-2]],[[2999,1850],[2,-1]],[[2883,1794],[4,2]],[[2937,1807],[6,4]],[[2974,1832],[5,1]],[[3003,1907],[-18,-14]],[[3001,1871],[4,4]],[[2974,1832],[-26,-7]],[[3053,1765],[-50,77]],[[3538,2270],[-159,-74]],[[3538,2270],[10,-2],[11,-1]],[[4096,2222],[-558,48]],[[2759,2225],[-18,56],[-147,43],[-46,135],[-70,51],[-76,122],[-127,78],[-100,139],[-26,107],[-65,91],[-106,58],[-19,37]],[[2180,1486],[-332,-161]],[[3244,2084],[-36,-2]],[[913,3763],[4,106],[-27,6],[-50,130],[-58,91]],[[913,3762],[1,-23],[229,-47],[112,5],[117,-108],[165,-75],[173,-244],[97,-62],[36,-56]],[[3148,3187],[-1,1]],[[913,3763],[0,-1]],[[3096,1706],[-43,59]],[[3072,2071],[-120,-25]],[[20,2814],[24,-3]],[[3122,1672],[-26,34]],[[6,2647],[124,-10],[134,-84],[57,-96],[176,-140],[679,-177],[98,13],[173,-22],[150,-138],[148,-30],[82,-157],[127,1]],[[3210,3373],[-64,-196],[52,-332],[-25,-300],[-70,-262],[22,-131]],[[3426,4096],[-3,-49],[23,-100],[-29,-104],[-260,-283],[52,-179]],[[4096,1036],[-205,40],[-250,149],[-97,4],[-29,39]],[[12,2791],[9,27]],[[1517,1152],[13,6],[11,5],[-24,-11]],[[1954,1807],[90,-93],[136,-228]],[[3003,1842],[-3,28]],[[3379,2196],[-101,-102]],[[3480,2170],[-58,41]],[[3196,2081],[-21,-2]],[[154,830],[-154,-18]],[[176,832],[-22,-2]],[[396,881],[-220,-49]],[[396,881],[13,2]],[[619,925],[-210,-42]],[[669,935],[-50,-10]],[[807,948],[-138,-13]],[[807,948],[46,5]],[[1517,1152],[-344,-162],[-320,-37]],[[1570,1177],[-29,-14]],[[2419,1579],[-36,5]],[[2387,1586],[32,-7]],[[3083,1454],[-82,4],[-125,51],[-367,34],[-90,36]],[[3083,1454],[45,25],[14,11],[6,6],[10,16],[28,52],[34,46],[320,79],[165,23],[49,-2],[33,1]],[[3787,1711],[309,7]],[[4096,1714],[-24,-7],[-177,1],[-108,3]],[[3787,1711],[-47,1],[-12,0],[-21,1],[-183,-26],[-304,-77],[-35,-46],[-38,-68],[-64,-42]],[[3144,3184],[3,0]],[[3210,3373],[-1,8]],[[3172,2049],[27,-35]],[[2887,1796],[-11,-3]],[[2891,1970],[109,-100]],[[2943,1811],[-6,-4]],[[2979,1833],[-5,-1]],[[3155,1971],[-79,-81]],[[0,2795],[12,-4]],[[103,2845],[3,62],[491,426],[85,207],[126,138]],[[3150,3190],[-4,-13]],[[3099,3337],[9,33]],[[2815,1793],[-17,-26]],[[2852,1899],[-37,-106]],[[0,2646],[6,1]],[[2875,1948],[-23,-49]],[[3044,1869],[-44,-28]],[[3155,2078],[17,-29]],[[2229,1510],[-49,-24]],[[2229,1510],[37,18]],[[2355,1571],[-89,-43]],[[2355,1571],[78,38]],[[2488,1635],[-55,-26]],[[2876,1793],[7,1]],[[2798,1767],[-121,-50]],[[0,0],[0,4096],[4096,0],[0,-4096],[-4096,0]],[[3615,1987],[33,85],[113,0],[23,73],[63,-34],[-26,-67],[16,-18],[78,22],[-12,-35],[18,-11],[47,18],[2,34],[89,-35],[22,28],[-16,7],[31,2],[0,-123],[-44,-19],[-10,29],[-34,3],[-15,-72],[-126,-57],[-5,33],[-50,-24],[-108,60],[-89,101]],[[1767,1093],[64,104],[47,13],[35,-35],[108,17],[-7,-41],[-87,-1],[11,-65],[-63,-30],[-108,38]],[[344,872],[-23,10],[-41,107],[66,-54],[-2,-63]],[[118,872],[65,175],[31,58],[24,-10],[42,-106],[-43,-6],[-66,-94],[-53,-17]],[[1786,1303],[-54,22],[-45,72],[-16,115],[121,-14],[35,-55],[6,-105],[-47,-35]],[[2927,2068],[38,-33],[98,0],[32,117],[129,0],[88,53],[56,4],[50,-57],[-34,-100],[-128,-191],[-97,-58],[0,-117],[-105,79],[-52,-14],[-134,-123],[-32,0],[0,-58],[-105,97],[-57,19],[9,100],[102,49],[18,84],[-16,73],[-36,36],[-109,7],[0,80],[151,142],[75,11],[59,-200]],[[0,3024],[53,0],[65,-233],[-33,-87],[-85,-38],[0,358]],[[1565,1185],[73,59],[-15,42],[32,18],[-12,27],[68,-50],[50,7],[68,57],[19,-20],[-14,-29],[17,-1],[-116,-37],[-64,-63],[-30,21],[-66,-46],[-10,15]],[[784,689],[91,53],[47,-22],[1,-32],[-63,-50],[-76,51]]]}