{"objects":{"water":{"type":"GeometryCollection","geometries":[]},"buildings":{"type":"GeometryCollection","geometries":[]},"places":{"type":"GeometryCollection","geometries":[{"type":"Point","properties":{"name:sr":"\u041a\u0430\u043c\u0435\u043d\u0441\u043a-\u0428\u0430\u0445\u0442\u0438\u043d\u0441\u043a\u0438","name:az":"Kamensk-\u015eaxtinskiy","name:lt":"\u0160acht\u0173 Kamenskas","name:no":"Kamensk-Sjakhtinskij","name:ko":"\uce74\uba58\uc2a4\ud06c\uc0e4\ud750\ud2f4\uc2a4\ud0a4","name:ar":"\u0643\u0627\u0645\u064a\u0646\u0633\u0643-\u0634\u0627\u062e\u062a\u064a\u0646\u0633\u0643\u064a","name:cs":"Kamensk-\u0160achtinskij","kind":"locality","min_zoom":8.0,"name:ro":"Kamensk-\u0218ahtinski","name:it":"Kamensk-\u0160achtinskij","name:uk":"\u041a\u0430\u043c\u0435\u043d\u0441\u044c\u043a-\u0428\u0430\u0445\u0442\u0438\u043d\u0441\u044c\u043a\u0438\u0439","name:vi":"Kamensk-Shakhtinsky","name:sv":"Kamensk-Sjachtinskij","name:pl":"Kamie\u0144sk Szachty\u0144ski","id":332371954,"population":91159,"name:fa":"\u06a9\u0627\u0645\u0646\u0633\u06a9-\u0634\u0627\u062e\u062a\u06cc\u0646\u0633\u06a9\u06cc\u06cc","name:eo":"Kamensk-\u015ca\u0125tinskij","name:en":"Kamensk-Shakhtinsky","name":"\u041a\u0430\u043c\u0435\u043d\u0441\u043a-\u0428\u0430\u0445\u0442\u0438\u043d\u0441\u043a\u0438\u0439","kind_detail":"town","name:de":"Kamensk-Schachtinski","source":"openstreetmap.org","name:fr":"Kamensk-Chakhtinski","name:fi":"Kamensk-\u0160ahtinski","name:et":"Kamensk-\u0160ahtinski","name:be":"\u041a\u0430\u043c\u0435\u043d\u0441\u043a-\u0428\u0430\u0445\u0446\u0456\u043d\u0441\u043a\u0456","name:zh":"\u5361\u7dec\u65af\u514b-\u6c99\u8d6b\u4eac\u65af\u57fa","name:es":"K\u00e1mensk-Sh\u00e1jtinski"},"coordinates":[2593,1454]},{"type":"Point","properties":{"name:sr":"\u0421\u0432\u0435\u0440\u0434\u043b\u043e\u0432\u0441\u043a","name:ro":"Sverdlovsk","name:nn":"Sverdlovsk","name:cs":"Sverdlovsk","official_name":"\u0414\u043e\u0432\u0436\u0430\u043d\u0441\u044c\u043a","min_zoom":8.0,"name:it":"Sverdlovs'k","name:ru":"\u0421\u0432\u0435\u0440\u0434\u043b\u043e\u0432\u0441\u043a","name:vi":"Sverdlovsk","name:pl":"Swerd\u0142ow\u015bk","name:hu":"Sverdlovsk","id":337660247,"population":65868,"name:fa":"\u0627\u0633\u0648\u0631\u062f\u0644\u0648\u0641\u0633\u06a9","kind":"locality","name:en":"Sverdlovsk","name":"\u0421\u0432\u0435\u0440\u0434\u043b\u043e\u0432\u0441\u044c\u043a","kind_detail":"town","name:de":"Swerdlowsk","source":"openstreetmap.org","name:fr":"Sverdlovsk","name:fi":"Sverdlovsk","name:zh":"\u65af\u7dad\u723e\u5fb7\u6d1b\u592b\u65af\u514b"},"coordinates":[779,401]},{"type":"Point","properties":{"name:az":"Qukovo","name:ko":"\uad6c\ucf54\ubcf4","name:ar":"\u063a\u0648\u0643\u0648\u0641\u0648","min_zoom":8.0,"name:ro":"Gukovo","name:it":"Gukovo","name:be":"\u0413\u0443\u043a\u0430\u0432\u0430","name:pl":"Gukowo","id":356772614,"population":65336,"kind":"locality","name:en":"Gukovo","name":"\u0413\u0443\u043a\u043e\u0432\u043e","kind_detail":"town","name:de":"Gukowo","source":"openstreetmap.org","name:fr":"Goukovo","name:et":"Gukovo","name:zh":"\u53e4\u79d1\u6c83"},"coordinates":[1658,277]},{"type":"Point","properties":{"name:ro":"Done\u021bk","name:nl":"Donetsk","name:lt":"Doneckas","name:cs":"Don\u011bck","min_zoom":8.0,"name:az":"Donetsk","name:it":"Doneck","name:uk":"\u0414\u043e\u043d\u0435\u0446\u044c\u043a","id":1224164975,"population":48979,"kind":"locality","name:en":"Donetsk","name":"\u0414\u043e\u043d\u0435\u0446\u043a","kind_detail":"town","name:de":"Donezk","source":"openstreetmap.org","name:fr":"Donetsk","name:es":"Donetsk"},"coordinates":[1678,1530]},{"type":"Point","properties":{"kind":"locality","name:en":"Krasnodon","name":"\u041a\u0440\u0430\u0441\u043d\u043e\u0434\u043e\u043d","old_name:pl":"Krasnodon","kind_detail":"town","name:eo":"Sorokine","official_name":"\u0421\u043e\u0440\u043e\u043a\u0438\u043d\u0435","name:de":"Krasnodon","source":"openstreetmap.org","min_zoom":8.0,"old_name:eo":"Krasnodon","name:pl":"Sorokyne","name:hu":"Krasnodon","id":337603049,"population":44840},"coordinates":[1005,1395]},{"type":"Point","properties":{"kind":"locality","name:en":"Millerovo","name":"\u041c\u0438\u043b\u043b\u0435\u0440\u043e\u0432\u043e","kind_detail":"town","name:de":"Millerowo","source":"openstreetmap.org","min_zoom":8.0,"name:uk":"\u041c\u0456\u043b\u043b\u0435\u0440\u043e\u0432\u043e","id":332370326,"population":35873},"coordinates":[2962,4083]},{"type":"Point","properties":{"name:sr":"\u041c\u043e\u043b\u043e\u0434\u043e\u0433\u0432\u0430\u0440\u0434\u0438\u0458\u0441\u043a","name:ro":"Molodohvardiisk","name:nn":"Molodohvardijsk","min_zoom":8.0,"name:ru":"\u041c\u043e\u043b\u043e\u0434\u043e\u0433\u0432\u0430\u0440\u0434\u0435\u0439\u0441\u043a","name:vi":"Molodohvardiysk","name:pl":"Mo\u0142odohwardijsk","id":337601668,"population":23580,"name:fa":"\u0645\u0648\u0644\u0648\u062f\u0648\u0647\u0648\u0627\u0631\u062f\u06cc\u0633\u06a9","kind":"locality","name:en":"Molodohvardiysk","name":"\u041c\u043e\u043b\u043e\u0434\u043e\u0433\u0432\u0430\u0440\u0434\u0456\u0439\u0441\u044c\u043a","kind_detail":"town","name:de":"Molodohwardijsk","source":"openstreetmap.org","name:fr":"Molodohvardiisk","name:be":"\u041c\u0430\u043b\u0430\u0434\u0430\u0433\u0432\u0430\u0440\u0434\u0437\u0435\u0439\u0441\u043a","name:zh":"\u9752\u5e74\u8fd1\u885b\u8ecd\u6751","name:es":"Molodohvardiysk"},"coordinates":[800,1548]},{"type":"Point","properties":{"name:az":"Zverevo","name:ka":"\u10d6\u10d5\u10d4\u10e0\u10d4\u10d5\u10dd","name:ar":"\u0632\u0641\u064a\u0631\u064a\u0641\u0648","min_zoom":8.0,"name:uk":"\u0417\u0432\u0454\u0440\u0435\u0432\u043e","name:be":"\u0417\u0432\u0435\u0440\u0430\u0432\u0430","name:pl":"Zwieriewo","id":1216129223,"population":22121,"name:fa":"\u0632\u0648\u0631\u0648\u0641\u0648","kind":"locality","name:en":"Zverevo","name":"\u0417\u0432\u0435\u0440\u0435\u0432\u043e","kind_detail":"town","name:de":"Swerewo","source":"openstreetmap.org","name:fr":"Zverevo","name:es":"Zv\u00e9revo"},"coordinates":[2166,135]},{"type":"Point","properties":{"kind":"locality","name:en":"Sukhodilsk","name":"\u0421\u0443\u0445\u043e\u0434\u0456\u043b\u044c\u0441\u044c\u043a","kind_detail":"town","name:de":"Suchodilsk","source":"openstreetmap.org","min_zoom":8.0,"name:ru":"\u0421\u0443\u0445\u043e\u0434\u043e\u043b\u044c\u0441\u043a","id":337601344,"population":21324},"coordinates":[1019,1596]},{"type":"Point","properties":{"kind":"locality","name:en":"Chervonopartyzansk","name":"\u0427\u0435\u0440\u0432\u043e\u043d\u043e\u043f\u0430\u0440\u0442\u0438\u0437\u0430\u043d\u0441\u044c\u043a","kind_detail":"town","official_name":"\u0412\u043e\u0437\u043d\u0435\u0441\u0435\u043d\u0456\u0432\u043a\u0430","source":"openstreetmap.org","min_zoom":8.0,"name:ru":"\u0427\u0435\u0440\u0432\u043e\u043d\u043e\u043f\u0430\u0440\u0442\u0438\u0437\u0430\u043d\u0441\u043a","id":337660367,"population":15843},"coordinates":[1161,379]},{"type":"Point","properties":{"kind":"locality","name:en":"Stanytsia Luhanska","name":"\u0421\u0442\u0430\u043d\u0438\u0446\u044f \u041b\u0443\u0433\u0430\u043d\u0441\u044c\u043a\u0430","kind_detail":"town","name:de":"Stanyzja Luhanska","source":"openstreetmap.org","min_zoom":8.0,"name:ru":"\u0421\u0442\u0430\u043d\u0438\u0446\u0430 \u041b\u0443\u0433\u0430\u043d\u0441\u043a\u0430\u044f","name:pl":"Stanica \u0141uga\u0144ska","id":337590198,"population":13744},"coordinates":[345,2878]},{"type":"Point","properties":{"source":"openstreetmap.org","kind":"locality","name":"\u0422\u0430\u0440\u0430\u0441\u043e\u0432\u0441\u043a\u0438\u0439","kind_detail":"town","population":9017,"min_zoom":8.0,"id":332371008},"coordinates":[2882,3233]},{"type":"Point","properties":{"admin_level":"6","kind":"locality","name:en":"Glubokiy","name":"\u0413\u043b\u0443\u0431\u043e\u043a\u0438\u0439","kind_detail":"town","name:hy":"\u0533\u056c\u0578\u0582\u0562\u0578\u056f\u056b","name:de":"Gluboki","source":"openstreetmap.org","min_zoom":8.0,"old_name":"\u043f\u043e\u0441\u0451\u043b\u043e\u043a \u0413\u043b\u0443\u0431\u043e\u043a\u0430\u044f","id":332371503,"population":8820},"coordinates":[2770,2347]},{"type":"Point","properties":{"kind":"locality","name:en":"Dzerzhynskyi","name":"\u0414\u0437\u0435\u0440\u0436\u0438\u043d\u0441\u044c\u043a\u0438\u0439","kind_detail":"town","official_name":"\u041b\u044e\u0431\u0438\u043c\u0456\u0432\u043a\u0430","source":"openstreetmap.org","min_zoom":8.0,"name:ru":"\u0414\u0437\u0435\u0440\u0436\u0438\u043d\u0441\u043a\u0438\u0439","name:pl":"Dzer\u017cyn\u015bkyj","id":337661351,"population":8599},"coordinates":[226,255]},{"type":"Point","properties":{"kind":"locality","name:en":"Krasnodon","name":"\u041a\u0440\u0430\u0441\u043d\u043e\u0434\u043e\u043d","kind_detail":"town","official_name":"\u0422\u0435\u043f\u043b\u0435","source":"openstreetmap.org","min_zoom":8.0,"id":337603117,"population":5398},"coordinates":[554,1405]},{"type":"Point","properties":{"kind":"locality","name:en":"Novodarivka","name":"\u041d\u043e\u0432\u043e\u0434\u0430\u0440\u2019\u0457\u0432\u043a\u0430","kind_detail":"town","source":"openstreetmap.org","min_zoom":8.0,"name:ru":"\u041d\u043e\u0432\u043e\u0434\u0430\u0440\u044c\u0435\u0432\u043a\u0430","id":337660358,"population":4460},"coordinates":[302,383]},{"type":"Point","properties":{"kind":"locality","name:en":"Novosvitlivka","name":"\u041d\u043e\u0432\u043e\u0441\u0432\u0456\u0442\u043b\u0456\u0432\u043a\u0430","kind_detail":"town","source":"openstreetmap.org","min_zoom":8.0,"name:ru":"\u041d\u043e\u0432\u043e\u0441\u0432\u0435\u0442\u043b\u043e\u0432\u043a\u0430","id":337596788,"population":3755},"coordinates":[383,2201]},{"type":"Point","properties":{"kind":"locality","name:en":"Shakhtarske","name":"\u0428\u0430\u0445\u0442\u0430\u0440\u0441\u044c\u043a\u0435","kind_detail":"town","source":"openstreetmap.org","min_zoom":8.0,"name:ru":"\u0428\u0430\u0445\u0442\u0451\u0440\u0441\u043a\u043e\u0435","id":337661618,"population":3626},"coordinates":[525,286]},{"type":"Point","properties":{"kind":"locality","name:en":"Leninske","name":"\u041b\u0435\u043d\u0456\u043d\u0441\u044c\u043a\u0435","kind_detail":"town","official_name":"\u0412\u0430\u043b\u044c\u044f\u043d\u0456\u0432\u0441\u044c\u043a\u0435","source":"openstreetmap.org","min_zoom":8.0,"name:ru":"\u041b\u0435\u043d\u0438\u043d\u0441\u043a\u043e\u0435","id":337660384,"population":3446},"coordinates":[522,376]},{"type":"Point","properties":{"kind":"locality","name:en":"Komsomolskyi","name":"\u041a\u043e\u043c\u0441\u043e\u043c\u043e\u043b\u044c\u0441\u044c\u043a\u0438\u0439","kind_detail":"town","official_name":"\u0414\u0443\u0431\u043e\u0432\u0435","source":"openstreetmap.org","min_zoom":8.0,"name:ru":"\u041a\u043e\u043c\u0441\u043e\u043c\u043e\u043b\u044c\u0441\u043a\u0438\u0439","id":337658907,"population":3119},"coordinates":[862,597]},{"type":"Point","properties":{"kind":"locality","name:en":"Volodarsk","name":"\u0412\u043e\u043b\u043e\u0434\u0430\u0440\u0441\u044c\u043a","kind_detail":"town","official_name":"\u0412\u0435\u0434\u043c\u0435\u0436\u0435","source":"openstreetmap.org","min_zoom":8.0,"name:ru":"\u0412\u043e\u043b\u043e\u0434\u0430\u0440\u0441\u043a","id":337658840,"population":2796},"coordinates":[628,608]},{"type":"Point","properties":{"kind":"locality","name:en":"Uralo-Kavkaz","name":"\u0423\u0440\u0430\u043b\u043e-\u041a\u0430\u0432\u043a\u0430\u0437","kind_detail":"town","source":"openstreetmap.org","min_zoom":8.0,"id":337602432,"population":2673},"coordinates":[1234,1480]},{"type":"Point","properties":{"kind":"locality","name:en":"Simeikyne","name":"\u0421\u0456\u043c\u0435\u0439\u043a\u0438\u043d\u0435","kind_detail":"town","source":"openstreetmap.org","min_zoom":8.0,"name:ru":"\u0421\u0435\u043c\u0435\u0439\u043a\u0438\u043d\u043e","id":337601919,"population":2329},"coordinates":[455,1503]},{"type":"Point","properties":{"kind":"locality","name:en":"Klenovyi","name":"\u041a\u043b\u0435\u043d\u043e\u0432\u0438\u0439","kind_detail":"town","source":"openstreetmap.org","min_zoom":8.0,"name:ru":"\u041a\u043b\u0435\u043d\u043e\u0432\u044b\u0439","id":337659183,"population":2142},"coordinates":[254,557]},{"type":"Point","properties":{"kind":"locality","name:en":"Naholno-Tarasivka","name":"\u041d\u0430\u0433\u043e\u043b\u044c\u043d\u043e-\u0422\u0430\u0440\u0430\u0441\u0456\u0432\u043a\u0430","kind_detail":"town","source":"openstreetmap.org","min_zoom":8.0,"name:ru":"\u041d\u0430\u0433\u043e\u043b\u044c\u043d\u043e-\u0422\u0430\u0440\u0430\u0441\u043e\u0432\u043a\u0430","id":337663136,"population":2073},"coordinates":[291,50]},{"type":"Point","properties":{"kind":"locality","name:en":"Sievernyi","name":"\u0421\u0454\u0432\u0435\u0440\u043d\u0438\u0439","kind_detail":"town","min_zoom":8.0,"name:de":"Sjewernyj","source":"openstreetmap.org","name:fr":"Syevernyi","name:ro":"Sievern\u00eei","name:it":"Sjevernyj","name:ru":"\u0421\u0435\u0432\u0435\u0440\u043d\u044b\u0439","name:zh":"\u585e\u97e6\u5c14\u5c3c","id":337601283,"population":1954},"coordinates":[1592,1612]},{"type":"Point","properties":{"kind":"locality","name:en":"Izvaryne","name":"\u0406\u0437\u0432\u0430\u0440\u0438\u043d\u0435","kind_detail":"town","source":"openstreetmap.org","min_zoom":8.0,"name:ru":"\u0418\u0437\u0432\u0430\u0440\u0438\u043d\u043e","id":337604156,"population":1755},"coordinates":[1504,1299]},{"type":"Point","properties":{"kind":"locality","name:en":"Kalininskyi","name":"\u041a\u0430\u043b\u0456\u043d\u0456\u043d\u0441\u044c\u043a\u0438\u0439","kind_detail":"town","official_name":"\u041a\u0443\u043d\u0434\u0440\u044e\u0447\u0435","source":"openstreetmap.org","min_zoom":8.0,"name:ru":"\u041a\u0430\u043b\u0438\u043d\u0438\u043d\u0441\u043a\u0438\u0439","id":337662447,"population":1735},"coordinates":[630,119]},{"type":"Point","properties":{"kind":"locality","name:en":"Novooleksandrivka","name":"\u041d\u043e\u0432\u043e\u043e\u043b\u0435\u043a\u0441\u0430\u043d\u0434\u0440\u0456\u0432\u043a\u0430","kind_detail":"town","source":"openstreetmap.org","min_zoom":8.0,"name:be":"\u041d\u043e\u0432\u0430\u0430\u043b\u044f\u043a\u0441\u0430\u043d\u0434\u0440\u0430\u045e\u043a\u0430","name:ru":"\u041d\u043e\u0432\u043e\u0430\u043b\u0435\u043a\u0441\u0430\u043d\u0434\u0440\u043e\u0432\u043a\u0430","id":337604744,"population":1609},"coordinates":[734,1217]},{"type":"Point","properties":{"kind":"locality","name:en":"Talove","name":"\u0422\u0430\u043b\u043e\u0432\u0435","kind_detail":"town","source":"openstreetmap.org","min_zoom":8.0,"name:ru":"\u0422\u0430\u043b\u043e\u0432\u043e\u0435","id":337602895,"population":1434},"coordinates":[839,1410]},{"type":"Point","properties":{"kind":"locality","name:en":"Sievero-Hundorivskyi","name":"\u0421\u0454\u0432\u0435\u0440\u043e-\u0413\u0443\u043d\u0434\u043e\u0440\u0456\u0432\u0441\u044c\u043a\u0438\u0439","name:ka":"\u10e1\u10d4\u10d5\u10d4\u10e0\u10dd-\u10d2\u10e3\u10dc\u10d3\u10dd\u10e0\u10dd\u10d5\u10e1\u10d9\u10d8","kind_detail":"town","min_zoom":8.0,"name:de":"Sjewero-Hundoriwskyj","source":"openstreetmap.org","name:fr":"Syevero-Houndorivs'kyi","name:ro":"Sievero-Hundorivsk\u00eei","name:it":"Sjevero-Hundorivs'kyj","name:ru":"\u0421\u0435\u0432\u0435\u0440\u043e-\u0413\u0443\u043d\u0434\u043e\u0440\u043e\u0432\u0441\u043a\u0438\u0439","name:pl":"Siewero-Hundoriw\u015bkyj","id":337600868,"population":1177},"coordinates":[1463,1660]},{"type":"Point","properties":{"kind":"locality","name:en":"Velykokamianka","name":"\u0412\u0435\u043b\u0438\u043a\u043e\u043a\u0430\u043c\u2019\u044f\u043d\u043a\u0430","kind_detail":"town","source":"openstreetmap.org","min_zoom":8.0,"name:ru":"\u0412\u0435\u043b\u0438\u043a\u043e\u043a\u0430\u043c\u0435\u043d\u043a\u0430","id":337658478,"population":1163},"coordinates":[180,667]},{"type":"Point","properties":{"kind":"locality","name:en":"Pavlivka","name":"\u041f\u0430\u0432\u043b\u0456\u0432\u043a\u0430","kind_detail":"town","source":"openstreetmap.org","min_zoom":8.0,"name:ru":"\u041f\u0430\u0432\u043b\u043e\u0432\u043a\u0430","name:pl":"Paw\u0142\u00f3wka","id":337658786,"population":1065},"coordinates":[482,622]},{"type":"Point","properties":{"kind":"locality","name:en":"Enhelsove","name":"\u0415\u043d\u0433\u0435\u043b\u044c\u0441\u043e\u0432\u0435","kind_detail":"town","official_name":"\u0411\u0443\u0440\u0430\u043d","source":"openstreetmap.org","min_zoom":8.0,"name:ru":"\u042d\u043d\u0433\u0435\u043b\u044c\u0441\u043e\u0432\u043e","id":337603491,"population":1023},"coordinates":[698,1350]},{"type":"Point","properties":{"kind":"locality","name:en":"Velykyi Loh","name":"\u0412\u0435\u043b\u0438\u043a\u0438\u0439 \u041b\u043e\u0433","kind_detail":"town","source":"openstreetmap.org","min_zoom":8.0,"id":337605119,"population":638},"coordinates":[527,1180]},{"type":"Point","properties":{"kind":"locality","name:en":"Myrne","name":"\u041c\u0438\u0440\u043d\u0435","kind_detail":"town","source":"openstreetmap.org","min_zoom":8.0,"name:ru":"\u041c\u0438\u0440\u043d\u043e\u0435","id":337603892,"population":396},"coordinates":[810,1308]},{"type":"Point","properties":{"kind":"locality","name:en":"Krasnodarskyi","name":"\u041a\u0440\u0430\u0441\u043d\u043e\u0434\u0430\u0440\u0441\u044c\u043a\u0438\u0439","kind_detail":"town","source":"openstreetmap.org","min_zoom":8.0,"name:ru":"\u041a\u0440\u0430\u0441\u043d\u043e\u0434\u0430\u0440\u0441\u043a\u0438\u0439","id":337603486,"population":344},"coordinates":[1710,1350]},{"type":"Point","properties":{"kind":"locality","name:en":"Hirne","name":"\u0413\u0456\u0440\u043d\u0435","kind_detail":"town","source":"openstreetmap.org","min_zoom":8.0,"name:ru":"\u0413\u043e\u0440\u043d\u043e\u0435","id":337604228,"population":64},"coordinates":[667,1265]}]},"transit":{"type":"GeometryCollection","geometries":[{"type":"LineString","properties":{"source":"openstreetmap.org","kind":"train","name":"6915\/6 \u041c\u043e\u0440\u043e\u0437\u043e\u0432\u0441\u043a\u0430\u044f <\u2014> \u041b\u0438\u0445\u0430\u044f","sort_rank":275,"ref":"6915\/6 \u041c\u043e\u0440\u043e\u0437\u043e\u0432\u0441\u043a\u0430\u044f <\u2014> \u041b\u0438\u0445\u0430\u044f","min_zoom":6.0,"osm_relation":true},"arcs":[2]},{"type":"LineString","properties":{"kind":"train","network":"\u0420\u0416\u0414","sort_rank":275,"source":"openstreetmap.org","min_zoom":6.0,"ref":"151\/1 \u041c\u043e\u0441\u043a\u0432\u0430 \u2014 \u0410\u043d\u0430\u043f\u0430","osm_relation":true,"name":"\u041c\u043e\u0441\u043a\u0432\u0430 \u2014 \u0410\u043d\u0430\u043f\u0430"},"arcs":[3]},{"type":"MultiLineString","properties":{"kind":"train","name":"\u041c\u043e\u0441\u043a\u0432\u0430 \u2014 \u0410\u0434\u043b\u0435\u0440","sort_rank":275,"name:de":"Moskau \u2014 Adler","source":"openstreetmap.org","min_zoom":6.0,"ref":"\u041c\u043e\u0441\u043a\u0432\u0430 - \u0410\u0434\u043b\u0435\u0440","osm_relation":true},"arcs":[[4],[5],[6]]}]},"pois":{"type":"GeometryCollection","geometries":[]},"boundaries":{"type":"GeometryCollection","geometries":[{"type":"LineString","properties":{"name:kg":"Ukrayina","name:ka":"\u10e3\u10d9\u10e0\u10d0\u10d8\u10dc\u10d0","name:ko":"\uc6b0\ud06c\ub77c\uc774\ub098","name:cv":"\u0423\u043a\u0440\u0430\u0438\u043d\u0430","name:cu":"\u041e\u0443\u043a\u0440\u0430\u0438\u043d\u0430","name:kl":"Ukraine","name:cs":"Ukrajina","name:tw":"Ukraine","name:tt":"\u0423\u043a\u0440\u0430\u0438\u043d\u0430","name:kw":"Ukrayn","name:kv":"\u0423\u043a\u0440\u0430\u0438\u043d\u0430","name:th":"\u0e1b\u0e23\u0e30\u0e40\u0e17\u0e28\u0e22\u0e39\u0e40\u0e04\u0e23\u0e19","name:tl":"Ukranya","name:ce":"\u0423\u043a\u0440\u0430\u0438\u043d\u0430","name:ta":"\u0b89\u0b95\u0bcd\u0bb0\u0bc8\u0ba9\u0bcd","name:tg":"\u0423\u043a\u0440\u0430\u0439\u0438\u043d\u0430","name:ca":"Ucra\u00efna","name:te":"\u0c09\u0c15\u0c4d\u0c30\u0c46\u0c2f\u0c3f\u0c28\u0c4d","name:cy":"Wcr\u00e1in","name:hr":"Ukrajina","name:da":"Ukraine","name:de":"Ukraine","source":"openstreetmap.org","name:kn":"\u0caf\u0cc1\u0c95\u0ccd\u0cb0\u0cc7\u0ca8\u0ccd","name:dv":"\u0794\u07aa\u0786\u07b0\u0783\u07ac\u0787\u07a8\u0782\u07b0","name:km":"\u17a2\u17ca\u17bb\u1799\u1780\u17d2\u179a\u17c2\u1793","name:lv":"Ukraina","name:lt":"Ukraina","name:uz":"Ukraina","name:kk":"\u0423\u043a\u0440\u0430\u0438\u043d\u0430","name:ur":"\u06cc\u0648\u06a9\u0631\u06cc\u0646","name:lb":"Ukrain","name:la":"Ucraina","name:ug":"\u0626\u06c7\u0643\u0631\u0627\u0626\u0649\u0646\u0627","name:li":"Oekra\u00efne","name:ln":"Ukraine","name:el":"\u039f\u03c5\u03ba\u03c1\u03b1\u03bd\u03af\u03b1","name:eo":"Ukrainujo","name:en":"Ukraine","name":"\u0423\u043a\u0440\u0430\u0457\u043d\u0430","name:tk":"Ukraina","name:ee":"Ukraine","name:ku":"\u00dbkrayna","name:eu":"Ukraina","name:et":"Ukraina","name:es":"Ucrania","name:ia":"Ukraina","name:rm":"Ucraina","name:az":"Ukrayna","name:ie":"Ucraina","name:id":"Ukraina","name:ig":"Yukrain","name:ar":"\u0623\u0648\u0643\u0631\u0627\u0646\u064a\u0627","name:io":"Ukrainia","name:is":"\u00dakra\u00edna","name:am":"\u12e9\u12ad\u122c\u1295","name:it":"Ucraina","name:an":"Ucra\u00edna","name:ru":"\u0423\u043a\u0440\u0430\u0438\u043d\u0430","name:ab":"\u0423\u043a\u0440\u0430\u0438\u043d\u0430","name:af":"Oekra\u00efne","kind_detail":"2","name:ky":"\u0423\u043a\u0440\u0430\u0438\u043d\u0430","name:zh-yue":"\u70cf\u514b\u862d","name:zh":"\u4e4c\u514b\u5170","name:so":"Ukrain","name:sn":"Ukraine","name:sm":"Ukraine","name:sl":"Ukrajina","name:sk":"Ukrajina","name:ja":"\u30a6\u30af\u30e9\u30a4\u30ca","name:sh":"Ukrajina","name:se":"Ukraina","name:sc":"Ucraina","name:br":"Ukraina","name:bs":"Ukrajina","name:bn":"\u0987\u0989\u0995\u09cd\u09b0\u09c7\u09a8","name:bo":"\u0f68\u0f74\u0f40\u0f0b\u0f62\u0f61\u0f72\u0f0b\u0f53\u0f72\u0f0d","name:bi":"Ukraine","name:sw":"Ukraine","name:be":"\u0423\u043a\u0440\u0430\u0456\u043d\u0430","name:su":"Ukraina","name:bg":"\u0423\u043a\u0440\u0430\u0439\u043d\u0430","name:ss":"IYukhureni","name:ba":"\u0423\u043a\u0440\u0430\u0438\u043d\u0430","name:sq":"Ukraina","name:jv":"Ukraina","name:pt":"Ucr\u00e2nia","name:ps":"\u0627\u0648\u06a9\u0631\u0627\u06cc\u0646","name:oc":"Ucra\u00efna","min_zoom":8.0,"name:ro":"Ucraina","name:zh-min-nan":"Ukrayina","name:os":"\u0423\u043a\u0440\u0430\u0438\u043d\u00e6","name:or":"\u0b5f\u0b41\u0b15\u0b4d\u0b30\u0b47\u0b28","name:pl":"Ukraina","sort_rank":262,"name:sr":"\u0423\u043a\u0440\u0430\u0458\u0438\u043d\u0430","osm_relation":true,"name:pa":"\u0a2f\u0a42\u0a15\u0a4d\u0a30\u0a47\u0a28","name:tr":"Ukrayna","name:hi":"\u092f\u0941\u0915\u094d\u0930\u0947\u0928","name:sv":"Ukraina","name:he":"\u05d0\u05d5\u05e7\u05e8\u05d0\u05d9\u05e0\u05d4","name:hy":"\u0548\u0582\u056f\u0580\u0561\u056b\u0576\u0561","name:ht":"Ikr\u00e8n","name:hu":"Ukrajna","name:qu":"Ukranya","kind":"country","name:ts":"Ukraine","name:yi":"\u05d0\u05d5\u05e7\u05e8\u05d0\u05d9\u05e0\u05e2","name:yo":"Ukr\u00e9\u00ecn","name:mt":"Ukrajna","alt_name:eo":"Ukrainio","name:ms":"Ukraine","name:mr":"\u092f\u0941\u0915\u094d\u0930\u0947\u0928","name:my":"\u101a\u1030\u1000\u101b\u102d\u1014\u103a\u1038\u1014\u102d\u102f\u1004\u103a\u1004\u1036","int_name":"Ukraine","name:mg":"Okraina","name:ml":"\u0d09\u0d15\u0d4d\u0d30\u0d48\u0d7b","name:vi":"Ukraina","name:mn":"\u0423\u043a\u0440\u0430\u0439\u043d","name:mi":"\u016akareinga","id":-60199,"name:mk":"\u0423\u043a\u0440\u0430\u0438\u043d\u0430","name:vo":"Lukray\u00e4n","name:fa":"\u0627\u0648\u06a9\u0631\u0627\u06cc\u0646","name:rw":"Ikerene","name:fi":"Ukraina","old_name:vi":"\u00d4 Kh\u1eafc Lan","name:fo":"Ukraina","alt_name:vi":"Uy Ki\u00ean","name:fr":"Ukraine","name:fy":"Oekra\u00efne","name:nl":"Oekra\u00efne","name:nn":"Ukraina","name:no":"Ukraina","name:na":"Ukraine","name:ne":"\u092f\u0941\u0915\u094d\u0930\u0947\u0928","name:wa":"Oucrinne","name:wo":"Ukreen","name:nv":"Y\u00f3\u00f3kwein","name:ga":"An \u00dacr\u00e1in","name:gd":"An Ucr\u00e0in","name:gn":"Ukya\u00f1a","name:gl":"Ucra\u00edna","name:gv":"Yn Ookraan","name:gu":"\u0aaf\u0ac1\u0a95\u0acd\u0ab0\u0ac7\u0aa8"},"arcs":[0]},{"type":"LineString","properties":{"name:right:hy":"\u053c\u0578\u0582\u0563\u0561\u0576\u057d\u056f\u056b \u0574\u0561\u0580\u0566","name:left:uz":"Rostov viloyati","int_name:left":"Rostov Oblast","name:right:hr":"Luhanska oblast","name:left:sv":"Rostov oblast","name:right:hu":"Luhanszki ter\u00fclet","name:left:sr":"\u0420\u043e\u0441\u0442\u043e\u0432\u0441\u043a\u0430 \u043e\u0431\u043b\u0430\u0441\u0442","name:right:lt":"Luhansko sritis","name:left:sl":"Rostovska oblast","min_zoom":8.0,"name:left:lt":"Rostovo sritis","name:left:sh":"Rostovska oblast","name:left:lv":"Rostovas apgabals","name:right:mr":"\u0932\u0941\u0939\u093e\u0928\u094d\u0938\u094d\u0915 \u0913\u092c\u094d\u0932\u093e\u0938\u094d\u0924","name:left:hr":"Rostovska oblast","name:right:os":"\u041b\u0443\u0433\u0430\u043d\u0441\u0447\u044b \u043e\u0431\u043b\u00e6\u0441\u0442","short_name:left":"\u0420\u041e\u0421","name:left:ce":"\u0420\u043e\u0441\u0442\u043e\u0432\u0430\u043d \u043e\u0431\u043b\u0430\u0441\u0442\u044c","name:right:vi":"Luhansk (t\u1ec9nh)","name:left:ca":"Prov\u00edncia de Rostov","source":"openstreetmap.org","name:right:ar":"\u0644\u0648\u0647\u0627\u0646\u0633\u0643 \u0623\u0648\u0628\u0644\u0627\u0633\u062a","name:left:cs":"Rostovsk\u00e1 oblast","name:left":"\u0420\u043e\u0441\u0442\u043e\u0432\u0441\u043a\u0430\u044f \u043e\u0431\u043b\u0430\u0441\u0442\u044c","name:right:mk":"\u041b\u0443\u0433\u0430\u043d\u0441\u043a\u0430 \u043e\u0431\u043b\u0430\u0441\u0442","name:right:sr":"\u041b\u0443\u0433\u0430\u043d\u0441\u043a\u0430 \u043e\u0431\u043b\u0430\u0441\u0442","name:left:ka":"\u10e0\u10dd\u10e1\u10e2\u10dd\u10d5\u10d8\u10e1 \u10dd\u10da\u10e5\u10d8","name:right:eu":"Luhanskeko oblasta","name:right:et":"Luganski oblast","name:left:os":"\u0420\u043e\u0441\u0442\u043e\u0432\u044b \u043e\u0431\u043b\u00e6\u0441\u0442","name:right:it":"Oblast' di Luhans'k","name:left:ro":"Regiunea Rostov","name:right:ru":"\u041b\u0443\u0433\u0430\u043d\u0441\u043a\u0430\u044f \u043e\u0431\u043b\u0430\u0441\u0442\u044c","name:right:es":"\u00d3blast de Lugansk","name:right:ro":"Regiunea Luhansk","alt_name:right:de":"Oblast Lugansk","name:right:id":"Oblast Luhansk","name:right:eo":"Luganska provinco","name:right:en":"Luhansk Oblast","name:left:vi":"Rostov (t\u1ec9nh)","kind":"region","name":"\u0420\u043e\u0441\u0442\u043e\u0432\u0441\u043a\u0430\u044f \u043e\u0431\u043b\u0430\u0441\u0442\u044c - \u041b\u0443\u0433\u0430\u043d\u0441\u044c\u043a\u0430 \u043e\u0431\u043b\u0430\u0441\u0442\u044c","name:left:fa":"\u0627\u0633\u062a\u0627\u0646 \u0631\u0648\u0633\u062a\u0648\u0641","name:right:lv":"Luhanskas apgabals","name:right:be":"\u041b\u0443\u0433\u0430\u043d\u0441\u043a\u0430\u044f \u0432\u043e\u0431\u043b\u0430\u0441\u0446\u044c","name:left:zh":"\u7f57\u65af\u6258\u592b\u5dde","name:right:zh":"\u76e7\u7518\u65af\u514b\u5dde","name:left:hy":"\u054c\u0578\u057d\u057f\u0578\u057e\u056b \u0574\u0561\u0580\u0566","name:right:nn":"Luhansk oblast","name:right:no":"Luhansk oblast","name:right:nl":"Oblast Loehansk","name:right:ja":"\u30eb\u30cf\u30fc\u30f3\u30b7\u30af\u5dde","name:right:fr":"Oblast de Louhansk","name:left:ja":"\u30ed\u30b9\u30c8\u30d5\u5dde","name:right:sv":"Luhansk oblast","name:left:uk":"\u0420\u043e\u0441\u0442\u043e\u0432\u0441\u044c\u043a\u0430 \u043e\u0431\u043b\u0430\u0441\u0442\u044c","name:right:sh":"Luganska oblast","name:right:sk":"Luhansk\u00e1 oblas\u0165","name:left:ba":"\u0420\u043e\u0441\u0442\u043e\u0432 \u04e9\u043b\u043a\u04d9\u04bb\u0435","alt_name:right:eo":"Luhanska provinco","name:left:bg":"\u0420\u043e\u0441\u0442\u043e\u0432\u0441\u043a\u0430 \u043e\u0431\u043b\u0430\u0441\u0442","name:right:fa":"\u0627\u0633\u062a\u0627\u0646 \u0644\u0648\u0647\u0627\u0646\u0633\u06a9","name:left:no":"Rostov oblast","name:left:fi":"Rostovin alue","id":-85606,"name:right:fi":"Luhanskin alue","name:left:en":"Rostov Oblast","name:left:el":"\u03a0\u03b5\u03c1\u03b9\u03c6\u03ad\u03c1\u03b5\u03b9\u03b1 \u03a1\u03bf\u03c3\u03c4\u03cc\u03c6","name:right:ca":"Prov\u00edncia de Luhansk","kind_detail":"4","alt_name:right:en":"Lugansk Oblast","name:left:nl":"Oblast Rostov","id:left":-85606,"name:left:es":"\u00d3blast de Rostov","name:right:cs":"Luhansk\u00e1 oblast","name:right":"\u041b\u0443\u0433\u0430\u043d\u0441\u044c\u043a\u0430 \u043e\u0431\u043b\u0430\u0441\u0442\u044c","id:right":-71971,"name:left:eu":"Rostov oblasta","name:left:et":"Rostovi oblast","name:right:ka":"\u10da\u10e3\u10d2\u10d0\u10dc\u10e1\u10d9\u10d8\u10e1 \u10dd\u10da\u10e5\u10d8","name:right:zh-min-nan":"Lugansk s\u00e9ng","name:right:pt":"Oblast de Lugansk","name:left:ar":"\u0631\u0648\u0633\u062a\u0648\u0641 \u0623\u0648\u0628\u0644\u0627\u0633\u062a","name:left:pl":"Obw\u00f3d rostowski","name:left:tt":"\u0420\u043e\u0441\u0442\u043e\u0432 \u04e9\u043b\u043a\u04d9\u0441\u0435","name:left:az":"Rostov vilay\u0259ti","name:right:tr":"Luhansk Oblast\u0131","name:right:bg":"\u041b\u0443\u0433\u0430\u043d\u0441\u043a\u0430 \u043e\u0431\u043b\u0430\u0441\u0442","name:left:pt":"Oblast de Rostov","name:left:af":"Rostof-oblast","name:right:ga":"C\u00faige Luhansk","name:right:ko":"\ub8e8\ud55c\uc2dc\ud06c \uc8fc","name:left:it":"Oblast' di Rostov","name:right:pl":"Obw\u00f3d \u0142uga\u0144ski","name:left:be":"\u0420\u0430\u0441\u0442\u043e\u045e\u0441\u043a\u0430\u044f \u0432\u043e\u0431\u043b\u0430\u0441\u0446\u044c","osm_relation":true,"name:right:de":"Oblast Luhansk","name:left:de":"Oblast Rostow","sort_rank":256},"arcs":[1]}]},"roads":{"type":"GeometryCollection","geometries":[{"type":"MultiLineString","properties":{"kind":"major_road","network":"e-road","sort_rank":381,"landuse_kind":"urban_area","source":"openstreetmap.org","min_zoom":8.0,"kind_detail":"trunk","shield_text":"115","ref":"\u041c-4"},"arcs":[[7],[8],[9],[10],[11],[12],[13],[14]]},{"type":"MultiLineString","properties":{"kind":"major_road","name:en":"Vatutina Street","sort_rank":380,"kind_detail":"primary","source":"openstreetmap.org","min_zoom":8.0,"landuse_kind":"urban_area","name:ru":"\u0412\u0430\u0442\u0443\u0442\u0438\u043d\u0430 \u0443\u043b\u0438\u0446\u0430"},"arcs":[[15],[16]]},{"type":"MultiLineString","properties":{"kind":"major_road","network":"ua:regional","sort_rank":380,"kind_detail":"primary","source":"openstreetmap.org","min_zoom":8.0,"shield_text":"22","ref":"\u0420-22"},"arcs":[[17],[18],[19],[20],[21],[22]]},{"type":"MultiLineString","properties":{"bus_network":"\u0412\u043e\u043b\u0433\u043e\u0433\u0440\u0430\u0434 - \u0420\u043e\u0441\u0442\u043e\u0432-\u043d\u0430-\u0414\u043e\u043d\u0443","network":"ru:national","sort_rank":381,"kind_detail":"trunk","kind":"major_road","source":"openstreetmap.org","min_zoom":8.0,"bus_shield_text":"335","shield_text":"260","ref":"\u0410-260"},"arcs":[[23],[24]]},{"type":"LineString","properties":{"kind":"major_road","sort_rank":381,"kind_detail":"trunk","bus_network":"\u0412\u043e\u043b\u0433\u043e\u0433\u0440\u0430\u0434 - \u0420\u043e\u0441\u0442\u043e\u0432-\u043d\u0430-\u0414\u043e\u043d\u0443","source":"openstreetmap.org","min_zoom":8.0,"bus_shield_text":"335","id":54360179},"arcs":[25]},{"type":"LineString","properties":{"kind":"major_road","name:en":"Korolyova Street","network":"e-road","sort_rank":381,"kind_detail":"trunk","name:de":"uliza Koroljowa","source":"openstreetmap.org","min_zoom":8.0,"name:uk":"\u0432\u0443\u043b\u0438\u0446\u044f \u041a\u043e\u0440\u043e\u043b\u044c\u043e\u0432\u0430","landuse_kind":"residential","shield_text":"40","id":134211990},"arcs":[26]},{"type":"MultiLineString","properties":{"kind":"major_road","network":"ru:national","sort_rank":381,"landuse_kind":"urban_area","source":"openstreetmap.org","min_zoom":8.0,"kind_detail":"trunk","shield_text":"260","ref":"\u0410-260"},"arcs":[[27],[28],[29],[30],[31],[32],[33],[34]]},{"type":"MultiLineString","properties":{"kind":"major_road","network":"ru:national","sort_rank":381,"kind_detail":"trunk","source":"openstreetmap.org","min_zoom":8.0,"shield_text":"260","ref":"\u041c-4;\u0410-260"},"arcs":[[35],[36]]},{"type":"LineString","properties":{"kind":"major_road","network":"e-road","sort_rank":381,"landuse_kind":"urban_area","source":"openstreetmap.org","min_zoom":8.0,"kind_detail":"trunk","shield_text":"40"},"arcs":[37]},{"type":"MultiLineString","properties":{"sort_rank":381,"source":"openstreetmap.org","min_zoom":8.0,"kind":"major_road","kind_detail":"trunk"},"arcs":[[38],[39],[40],[41]]},{"type":"MultiLineString","properties":{"kind":"major_road","network":"e-road","sort_rank":381,"kind_detail":"trunk","source":"openstreetmap.org","min_zoom":8.0,"shield_text":"115","ref":"\u041c-4"},"arcs":[[42],[43],[44],[45],[46],[47],[48],[49],[50],[51],[52],[53],[54],[55]]},{"type":"LineString","properties":{"kind":"major_road","network":"e-road","sort_rank":381,"kind_detail":"trunk","source":"openstreetmap.org","min_zoom":8.0,"landuse_kind":"residential","shield_text":"40","name:ru":"\u0410\u0440\u0442\u0451\u043c\u0430 \u0443\u043b\u0438\u0446\u0430","ref":"\u041c-04","id":354925798},"arcs":[56]},{"type":"MultiLineString","properties":{"kind":"major_road","network":"ru:national","sort_rank":381,"kind_detail":"trunk","source":"openstreetmap.org","min_zoom":8.0,"shield_text":"260","ref":"\u0410-260"},"arcs":[[57],[58],[59],[60],[61],[62],[63]]},{"type":"MultiLineString","properties":{"kind":"major_road","network":"e-road","sort_rank":381,"kind_detail":"trunk","source":"openstreetmap.org","min_zoom":8.0,"landuse_kind":"residential","shield_text":"40"},"arcs":[[64],[65],[66]]},{"type":"LineString","properties":{"source":"openstreetmap.org","kind":"major_road","sort_rank":381,"kind_detail":"trunk","ref":"\u041c-04","min_zoom":8.0},"arcs":[67]},{"type":"MultiLineString","properties":{"source":"openstreetmap.org","kind":"major_road","landuse_kind":"urban_area","sort_rank":380,"kind_detail":"primary","min_zoom":8.0},"arcs":[[68],[69],[70],[71],[72],[73],[74]]},{"type":"LineString","properties":{"bus_network":"\u0412\u043e\u043b\u0433\u043e\u0433\u0440\u0430\u0434 - \u0420\u043e\u0441\u0442\u043e\u0432-\u043d\u0430-\u0414\u043e\u043d\u0443","network":"e-road","sort_rank":381,"kind_detail":"trunk","kind":"major_road","source":"openstreetmap.org","min_zoom":8.0,"bus_shield_text":"335","shield_text":"115","ref":"\u041c-4"},"arcs":[75]},{"type":"MultiLineString","properties":{"sort_rank":380,"kind_detail":"primary","min_zoom":8.0,"kind":"major_road","source":"openstreetmap.org"},"arcs":[[76],[77],[78]]},{"type":"MultiLineString","properties":{"kind":"major_road","network":"e-road","sort_rank":381,"kind_detail":"trunk","source":"openstreetmap.org","min_zoom":8.0,"landuse_kind":"residential","shield_text":"115","ref":"\u041c-4"},"arcs":[[79],[80]]},{"type":"MultiLineString","properties":{"source":"openstreetmap.org","kind":"major_road","landuse_kind":"urban_area","sort_rank":380,"kind_detail":"primary","min_zoom":8.0,"name:ru":"\u041a\u043e\u043b\u0435\u0439\u043d\u0430\u044f \u0443\u043b\u0438\u0446\u0430"},"arcs":[[81],[82]]},{"type":"LineString","properties":{"bus_network":"\u0412\u043e\u043b\u0433\u043e\u0433\u0440\u0430\u0434 - \u0420\u043e\u0441\u0442\u043e\u0432-\u043d\u0430-\u0414\u043e\u043d\u0443","network":"ru:national","sort_rank":381,"landuse_kind":"urban_area","kind":"major_road","source":"openstreetmap.org","min_zoom":8.0,"bus_shield_text":"335","shield_text":"260","kind_detail":"trunk","ref":"\u0410-260"},"arcs":[83]},{"type":"MultiLineString","properties":{"kind":"major_road","network":"e-road","sort_rank":381,"kind_detail":"trunk","source":"openstreetmap.org","min_zoom":8.0,"shield_text":"40","ref":"\u041c-04"},"arcs":[[84],[85],[86],[87],[88],[89],[90],[91],[92],[93]]},{"type":"MultiLineString","properties":{"source":"openstreetmap.org","kind":"major_road","landuse_kind":"residential","sort_rank":380,"kind_detail":"primary","min_zoom":8.0},"arcs":[[94],[95],[96],[97],[98],[99],[100],[101],[102]]},{"type":"MultiLineString","properties":{"kind":"major_road","network":"e-road","sort_rank":381,"kind_detail":"trunk","source":"openstreetmap.org","min_zoom":8.0,"landuse_kind":"residential","shield_text":"40","ref":"\u041c-04"},"arcs":[[103],[104],[105]]},{"type":"MultiLineString","properties":{"kind":"major_road","network":"ua:regional","sort_rank":380,"kind_detail":"primary","source":"openstreetmap.org","min_zoom":8.0,"landuse_kind":"urban_area","shield_text":"22","ref":"\u0420-22"},"arcs":[[106],[107],[108],[109],[110],[111]]},{"type":"MultiLineString","properties":{"kind":"major_road","network":"e-road","sort_rank":381,"landuse_kind":"urban_area","source":"openstreetmap.org","min_zoom":8.0,"kind_detail":"trunk","shield_text":"40","ref":"\u041c-04"},"arcs":[[112],[113]]},{"type":"LineString","properties":{"kind":"major_road","network":"ru:regional","sort_rank":380,"kind_detail":"primary","source":"openstreetmap.org","min_zoom":8.0,"shield_text":"60\u041a","ref":"60\u041a-196"},"arcs":[114]},{"type":"LineString","properties":{"kind":"major_road","network":"e-road","sort_rank":381,"kind_detail":"trunk","source":"openstreetmap.org","min_zoom":8.0,"shield_text":"40","id":134211880},"arcs":[115]},{"type":"MultiLineString","properties":{"kind":"major_road","network":"ru:national","sort_rank":381,"kind_detail":"trunk","source":"openstreetmap.org","min_zoom":8.0,"landuse_kind":"residential","shield_text":"260","ref":"\u0410-260"},"arcs":[[116],[117]]},{"type":"LineString","properties":{"kind":"major_road","network":"ua:regional","sort_rank":380,"kind_detail":"primary","source":"openstreetmap.org","min_zoom":8.0,"landuse_kind":"urban_area","shield_text":"22","name:ru":"\u041c\u043e\u043d\u0442\u0430\u0436\u043d\u0430\u044f \u0443\u043b\u0438\u0446\u0430","ref":"\u0420-22","id":24577786},"arcs":[118]}]},"earth":{"type":"GeometryCollection","geometries":[{"type":"Polygon","properties":{"sort_rank":10,"source":"naturalearthdata.com","kind":"earth","min_zoom":0.0,"id":4756},"arcs":[[119]]}]},"landuse":{"type":"GeometryCollection","geometries":[{"type":"MultiPolygon","properties":{"kind":"nature_reserve","protect_class":"5","area":63286976,"sort_rank":23,"operator":"\u0413\u043e\u0441\u0443\u0434\u0430\u0440\u0441\u0442\u0432\u0435\u043d\u043d\u043e\u0435 \u0431\u044e\u0434\u0436\u0435\u0442\u043d\u043e\u0435 \u0443\u0447\u0440\u0435\u0436\u0434\u0435\u043d\u0438\u0435 \u0420\u043e\u0441\u0442\u043e\u0432\u0441\u043a\u043e\u0439 \u043e\u0431\u043b\u0430\u0441\u0442\u0438 \"\u0414\u0438\u0440\u0435\u043a\u0446\u0438\u044f \u043e\u0441\u043e\u0431\u043e \u043e\u0445\u0440\u0430\u043d\u044f\u0435\u043c\u044b\u0445 \u043f\u0440\u0438\u0440\u043e\u0434\u043d\u044b\u0445 \u0442\u0435\u0440\u0440\u0438\u0442\u043e\u0440\u0438\u0439 \u043e\u0431\u043b\u0430\u0441\u0442\u043d\u043e\u0433\u043e \u0437\u043d\u0430\u0447\u0435\u043d\u0438\u044f\"","source":"openstreetmap.org","min_zoom":8.0,"tier":2,"osm_relation":true},"arcs":[[[120],[121]]]},{"type":"MultiPolygon","properties":{"source":"openstreetmap.org","kind":"residential","tier":2,"area":25254752,"sort_rank":20,"min_zoom":8.0,"osm_relation":true},"arcs":[[[122],[123]],[[124]]]},{"type":"MultiPolygon","properties":{"source":"naturalearthdata.com","kind":"urban_area","name":"","area":4765133586,"sort_rank":11,"min_zoom":4.0},"arcs":[[[125]],[[126]],[[127]],[[128]],[[129]],[[130]],[[131]],[[132]],[[133]],[[134]],[[135]],[[136]],[[137]],[[138]],[[139]]]},{"type":"Polygon","properties":{"name:nn":"Tsjervonopartyzansk","min_zoom":8.0,"name:ru":"\u0427\u0435\u0440\u0432\u043e\u043d\u043e\u043f\u0430\u0440\u0442\u0438\u0437\u0430\u043d\u0441\u043a","tier":2,"name:vi":"Chervonopartyzansk","name:pl":"Czerwonopartyza\u0144sk","id":30722927,"name:fa":"\u0686\u0631\u0648\u0648\u0646\u0648\u067e\u0627\u0631\u062a\u06cc\u0632\u0627\u0646\u0633\u06a9","kind":"residential","name:en":"Chervonopartyzansk","name":"\u0427\u0435\u0440\u0432\u043e\u043d\u043e\u043f\u0430\u0440\u0442\u0438\u0437\u0430\u043d\u0441\u044c\u043a","area":20297200,"sort_rank":20,"source":"openstreetmap.org","name:fr":"Tchervonopartyzansk","name:zh":"\u7d05\u8272\u6e38\u64ca\u968a\u54e1\u57ce","name:es":"Chervonopartyzansk"},"arcs":[[140]]},{"type":"MultiPolygon","properties":{"source":"openstreetmap.org","kind":"residential","tier":2,"area":518515912,"sort_rank":20,"min_zoom":8.0},"arcs":[[[141]],[[142]],[[143]],[[144]],[[145]],[[146]],[[147]],[[148]]]},{"type":"Polygon","properties":{"kind":"residential","name":"\u0422\u0430\u0440\u0430\u0441\u043e\u0432\u0441\u043a\u0438\u0439","area":12054400,"sort_rank":20,"source":"openstreetmap.org","min_zoom":8.0,"tier":2,"id":69135221},"arcs":[[149]]},{"type":"MultiPolygon","properties":{"kind":"nature_reserve","protect_class":"5","area":93078661,"sort_rank":23,"operator":"\u0413\u043e\u0441\u0443\u0434\u0430\u0440\u0441\u0442\u0432\u0435\u043d\u043d\u043e\u0435 \u0431\u044e\u0434\u0436\u0435\u0442\u043d\u043e\u0435 \u0443\u0447\u0440\u0435\u0436\u0434\u0435\u043d\u0438\u0435 \u0420\u043e\u0441\u0442\u043e\u0432\u0441\u043a\u043e\u0439 \u043e\u0431\u043b\u0430\u0441\u0442\u0438 \"\u0414\u0438\u0440\u0435\u043a\u0446\u0438\u044f \u043e\u0441\u043e\u0431\u043e \u043e\u0445\u0440\u0430\u043d\u044f\u0435\u043c\u044b\u0445 \u043f\u0440\u0438\u0440\u043e\u0434\u043d\u044b\u0445 \u0442\u0435\u0440\u0440\u0438\u0442\u043e\u0440\u0438\u0439 \u043e\u0431\u043b\u0430\u0441\u0442\u043d\u043e\u0433\u043e \u0437\u043d\u0430\u0447\u0435\u043d\u0438\u044f\"","source":"openstreetmap.org","min_zoom":8.0,"tier":2},"arcs":[[[150]]]}]}},"type":"Topology","transform":{"translate":[39.375,47.9899216674],"scale":[0.0003433228,0.0002276801]},"arcs":[[[1283,0],[3,50],[-73,46],[-44,123],[312,8],[0,32],[-144,80],[102,53],[4,164],[93,105],[22,173],[79,5],[15,209],[196,-15],[-9,74],[42,52],[-89,278],[-55,-21],[-24,-42],[20,-18],[-53,21],[-63,-90],[13,-17],[-57,-41],[-14,100],[-65,43],[-1,27],[-135,7],[12,100],[98,6],[155,65],[30,-12],[14,37],[-44,43],[27,96],[-51,-49],[-53,67],[37,37],[-38,25],[18,67],[-66,98],[25,23],[-149,116],[2,122],[42,1],[17,26],[-49,265],[-86,47],[8,34],[-48,-9],[-45,38],[-53,-3],[-62,-46],[-14,38],[-76,-25],[-98,9],[-34,20],[10,27],[-30,-6],[6,34],[-31,22],[28,63],[69,59],[-1,55],[50,26],[2,53],[-28,10],[62,63],[-14,81],[-39,16],[21,42],[-23,22],[33,32],[21,-11],[7,66],[42,14],[-17,40],[-8,-19],[-16,18],[53,78],[21,11],[-4,-24],[54,-6],[-15,33],[60,80],[-10,90],[18,56],[33,-2],[-17,51],[24,29],[81,-50],[171,-46],[180,-110],[79,-12],[305,339],[-56,170],[-45,24],[-47,3],[-35,-56],[-39,-4],[-31,-145],[-128,35],[-71,86],[-212,-23],[-37,55],[-36,-73],[-24,94],[-42,30],[-30,-17],[-55,51]],[[1166,4096],[55,-51],[30,17],[42,-30],[24,-94],[36,73],[37,-55],[212,23],[71,-86],[128,-35],[31,145],[39,4],[35,56],[47,-3],[45,-24],[56,-170],[-305,-339],[-79,12],[-180,110],[-171,46],[-81,50],[-24,-29],[17,-51],[-33,2],[-18,-56],[10,-90],[-60,-80],[15,-33],[-54,6],[4,24],[-21,-11],[-53,-78],[16,-18],[8,19],[17,-40],[-42,-14],[-7,-66],[-21,11],[-33,-32],[23,-22],[-21,-42],[39,-16],[14,-81],[-62,-63],[28,-10],[-2,-53],[-50,-26],[1,-55],[-69,-59],[-28,-63],[31,-22],[-6,-34],[30,6],[-10,-27],[34,-20],[98,-9],[76,25],[14,-38],[62,46],[53,3],[45,-38],[48,9],[-8,-34],[86,-47],[49,-265],[-17,-26],[-42,-1],[-2,-122],[149,-116],[-25,-23],[66,-98],[-18,-67],[38,-25],[-37,-37],[53,-67],[51,49],[-27,-96],[44,-43],[-14,-37],[-30,12],[-155,-65],[-98,-6],[-12,-100],[135,-7],[1,-27],[65,-43],[14,-100],[57,41],[-13,17],[63,90],[53,-21],[-20,18],[24,42],[55,21],[89,-278],[-42,-52],[9,-74],[-196,15],[-15,-209],[-79,-5],[-22,-173],[-93,-105],[-4,-164],[-102,-53],[144,-80],[0,-32],[-312,-8],[44,-123],[73,-46],[-3,-50]],[[4096,785],[-20,-12],[-69,17],[-113,-50],[-74,13],[-54,-30],[-44,27],[-49,-16],[-161,82],[-104,-5],[-126,46],[-165,-22],[-105,43],[-161,-56],[-119,46],[-141,15],[-89,-27],[-55,-74]],[[2984,4051],[-36,-42],[-35,-133],[27,-121],[-41,-137],[33,-131],[-35,-84],[7,-119],[-100,-109],[-29,-114],[70,-163],[-73,-123],[-4,-167],[26,-90],[-43,-371],[-166,-447],[25,-116],[-38,-137],[106,-89],[-13,-215],[-193,-198],[24,-78],[-35,-72],[-70,-61],[-313,-83],[-109,-193],[6,-42],[116,-106],[72,-106],[-11,-94],[-67,-43],[-13,-67]],[[2072,0],[13,67],[67,43],[11,94],[-197,244],[112,203],[313,83],[85,76],[20,61],[-23,74],[193,200],[12,213],[-98,74],[-7,31]],[[2958,4096],[25,-56],[-35,-31],[-36,-139],[28,-115],[-41,-137],[33,-131],[-35,-84],[7,-119],[-100,-109],[-29,-114],[70,-163],[-73,-123],[-4,-167],[26,-90],[-43,-371],[-164,-434],[23,-129],[-37,-121]],[[2573,1463],[0,1]],[[2702,1366],[-20,-56]],[[2682,1310],[31,65]],[[2759,1419],[-36,-33]],[[2723,1385],[36,33]],[[2817,2340],[1,14],[6,34]],[[2824,2388],[1,7],[1,2],[10,132]],[[2835,2529],[-10,-132],[0,-2],[-1,-7]],[[2824,2388],[-6,-47]],[[0,2554],[62,37]],[[69,2596],[-69,-42]],[[184,2624],[33,11],[119,111]],[[336,2746],[-151,-122]],[[336,2746],[38,48]],[[375,2795],[23,40]],[[399,2838],[10,103],[-24,22],[18,62],[45,92],[80,54],[66,120],[144,382],[12,178]],[[755,3852],[121,54],[123,18],[219,-78],[189,111]],[[2788,837],[-85,32],[-115,4]],[[4013,932],[-44,-11],[-38,-74],[-352,-32],[-786,20]],[[2588,873],[6,-11]],[[1661,1497],[52,-3]],[[1636,1497],[-41,-25]],[[2523,1328],[-6,-18]],[[2564,1310],[-19,27]],[[4013,932],[3,-1]],[[4016,933],[0,-2]],[[4016,931],[4,0]],[[4020,931],[-1,2]],[[4020,931],[3,1]],[[2671,1145],[-62,-140],[-14,-130]],[[2596,875],[13,130],[63,140]],[[1718,1492],[13,-5]],[[95,2319],[6,12]],[[2595,863],[8,9]],[[3933,848],[0,-2]],[[3936,848],[-3,1]],[[2477,0],[99,237],[20,638]],[[2595,875],[-1,-13]],[[2682,1310],[-11,-165]],[[2672,1145],[10,165]],[[2818,2341],[-4,-37]],[[2814,2304],[-1,-10],[-22,-833],[-32,-42]],[[2759,1418],[9,7],[23,33],[1,3],[21,557],[1,282],[0,4]],[[2814,2304],[3,36]],[[3184,4096],[5,-46],[-164,-312],[-45,-89],[-7,-118],[-45,-102],[-20,-55],[4,-20],[82,-90],[6,-28],[-74,-185],[-1,-1],[-14,-30]],[[2911,3020],[-46,-100]],[[2865,2920],[-1,-1],[-29,-390]],[[2836,2529],[25,323],[2,42],[2,26]],[[2865,2920],[0,4],[46,96]],[[2911,3020],[15,30],[0,1],[75,185],[-6,28],[-82,90],[15,75],[46,102],[6,118],[209,400],[-4,47]],[[1059,1310],[23,-13]],[[1595,1472],[-36,-18],[1,-130]],[[2517,1310],[-70,-52],[-80,-7],[-87,88],[-5,39],[-207,29],[-171,163],[-47,-8]],[[2672,1145],[-41,23],[-67,142]],[[2612,876],[-9,-4]],[[2793,835],[-5,2]],[[3931,847],[3,6]],[[4013,932]],[[1637,1498],[24,-1]],[[1713,1494],[5,-2]],[[1731,1487],[19,12]],[[91,2317],[12,-7]],[[2574,1414],[0,-1]],[[2597,1426],[-1,0]],[[2596,1426],[0,-3],[-1,0],[-13,4],[-8,-16]],[[2591,1427],[5,-1]],[[2596,1426],[4,-1],[1,-1]],[[2685,1351],[1,-1]],[[2686,1350],[-1,1]],[[2594,862],[-19,-625],[-98,-237]],[[24,2322],[-24,3]],[[24,2322],[67,-5]],[[92,2317],[-68,5]],[[2723,1386],[-21,-20]],[[2713,1375],[10,10]],[[62,2591],[22,13]],[[83,2605],[-14,-9]],[[4096,930],[-83,2]],[[51,2036],[8,2],[30,269],[5,9]],[[94,2316],[1,3]],[[308,2249],[-205,61],[-9,6]],[[94,2316],[-1,0],[-1,1]],[[103,2310],[205,-61]],[[806,1545],[-158,232],[-64,28],[-122,139],[-63,173],[-50,30],[-41,102]],[[1164,1290],[25,-1]],[[1198,1288],[326,-11],[-7,30],[38,13]],[[1559,1323],[-4,-3]],[[1559,1323],[1,1]],[[2543,1339],[1,6]],[[2545,1346],[29,64]],[[2545,1346],[-1,0],[0,-1]],[[2544,1345],[1,0],[0,1]],[[2574,1410],[0,1]],[[2574,1413],[0,-3]],[[2682,1360],[-81,64]],[[2682,1360],[3,-9]],[[2685,1351],[-3,9]],[[979,1445],[80,-135]],[[1082,1297],[82,-7]],[[1189,1289],[9,-1]],[[84,2604],[4,-1]],[[101,2597],[50,16]],[[151,2613],[33,11]],[[185,2624],[-34,-11]],[[84,2606],[-1,-1],[1,-1]],[[84,2604],[1,1],[-1,1]],[[0,2028],[51,8]],[[979,1445],[-54,92],[-119,8]],[[3163,4008],[-220,-41],[-446,-13],[-469,73],[-73,49],[-338,-47],[-210,-72]],[[1750,1499],[100,63]],[[1637,1498],[-1,-1]],[[2545,1337],[-14,19],[-8,-28]],[[85,2605],[16,-8]],[[0,0],[0,4096],[4096,0],[0,-4096],[-4096,0]],[[1529,642],[30,191],[71,3],[36,-171],[-32,-38],[-105,15]],[[1603,689],[19,-8],[0,16],[-18,0],[-1,-8]],[[2504,1335],[25,144],[42,33],[3,-107],[-35,-82],[-35,12]],[[2534,1415],[12,-2],[10,9],[-1,1],[-21,-8]],[[2604,1617],[107,-41],[-20,-49],[38,-44],[-9,-59],[-43,43],[-17,64],[-49,33],[-7,53]],[[1153,1261],[-97,0],[-146,126],[-33,102],[-66,25],[-18,126],[74,93],[60,16],[32,-49],[127,-12],[35,-37],[0,-244],[32,-146]],[[2670,1775],[36,-75],[0,-98],[33,0],[32,-292],[-291,0],[0,48],[-33,0],[-97,196],[2,63],[89,13],[39,21],[0,49],[64,0],[91,74],[35,1]],[[1614,1357],[-40,1],[23,125],[-120,71],[65,97],[32,147],[129,-49],[1,-98],[64,-97],[-65,-147],[-89,-50]],[[2544,1846],[3,144],[30,101],[97,-49],[-10,-82],[-65,-98],[-55,-16]],[[0,2079],[53,-37],[-53,-145],[0,182]],[[2739,2286],[-19,88],[24,92],[63,63],[94,1],[-52,-167],[-110,-77]],[[183,2805],[64,-31],[5,-59],[-102,-137],[-32,-97],[-53,5],[-12,-54],[-53,2],[0,388],[183,-17]],[[280,2920],[-98,49],[-23,134],[71,86],[72,-37],[-22,-232]],[[2993,3995],[-70,27],[-14,74],[149,0],[-2,-44],[-63,-57]],[[2474,801],[6,-77],[-122,-85],[-169,-13],[-33,98],[65,49],[-20,106],[20,41],[38,-125],[27,-22],[36,31],[-36,164],[129,0],[59,-167]],[[4096,986],[0,-313],[-3,-2],[-28,4],[-21,48],[-43,294],[43,-10],[21,-39],[31,18]],[[2027,431],[0,-48],[189,20],[37,-20],[0,-147],[-64,-195],[-26,-8],[-39,57],[-100,26],[-104,98],[-14,51],[23,69],[33,0],[65,97]],[[1412,90],[-33,244],[41,38],[154,11],[65,97],[67,-37],[30,-60],[-32,-1],[88,-134],[9,-61],[-389,-97]],[[765,282],[-53,28],[-104,204],[3,42],[84,70],[59,1],[176,-73],[22,-39],[-9,-159],[-178,-74]],[[48,359],[-48,3],[0,254],[77,-90],[21,-69],[-13,-75],[-37,-23]],[[1116,342],[33,94],[80,-8],[75,-68],[-16,-27],[-66,20],[-37,-49],[-69,38]],[[1586,206],[79,62],[100,-14],[-35,-38],[-56,-7],[-24,-44],[-51,8],[-13,33]],[[1582,309],[22,58],[58,-19],[0,-42],[52,-13],[-86,-42],[-6,43],[-40,15]],[[4096,745],[0,-23],[-15,0],[-13,78],[28,17],[0,-33],[-1,0],[-2,-36],[3,-3]],[[927,1553],[71,41],[12,62],[16,-32],[67,-8],[-2,-40],[-69,-24],[-2,-26],[-93,27]],[[2695,2344],[33,11],[3,88],[80,-36],[5,-54],[-41,-67],[-21,27],[-12,-67],[-4,44],[-40,13],[16,17],[12,-22],[9,23],[-40,23]],[[941,1411],[4,31],[17,-15],[30,31],[33,-18],[15,17],[-4,-31],[78,-36],[55,-108],[21,2],[-13,50],[16,7],[5,-57],[34,-5],[-2,-15],[-71,11],[-35,-49],[-70,4],[-15,70],[-32,-10],[-8,40],[-38,1],[12,59],[-32,21]],[[2571,1452],[6,66],[40,-8],[107,-125],[-41,-35],[-112,102]],[[1623,1498],[17,65],[100,14],[18,-26],[-16,-40],[50,-73],[-51,-10],[-13,80],[-11,-18],[-94,8]],[[2802,3250],[82,39],[0,45],[-28,-12],[33,36],[9,-84],[61,-53],[-25,11],[-25,-33],[-62,-5],[50,60],[-53,-38],[-42,34]],[[3932,579],[26,11],[69,-103],[-89,-76],[-6,168]]]}