{"objects":{"water":{"type":"GeometryCollection","geometries":[{"type":"Polygon","properties":{"source":"naturalearthdata.com","kind":"ocean","area":1576712559132672,"sort_rank":200,"min_zoom":0.0,"id":1},"arcs":[[23]]},{"type":"LineString","properties":{"source":"naturalearthdata.com","kind":"ocean","sort_rank":205,"boundary":true,"min_zoom":0.0,"id":52},"arcs":[24]}]},"buildings":{"type":"GeometryCollection","geometries":[]},"places":{"type":"GeometryCollection","geometries":[{"type":"Point","properties":{"name:pt":"Rostov do Don","name:az":"Rostov-na-Donu","name:ka":"\u10d3\u10dd\u10dc\u10d8\u10e1 \u10e0\u10dd\u10e1\u10e2\u10dd\u10d5\u10d8","name:tr":"Rostov","name:cv":"\u0422\u0430\u043d-\u04ab\u0438-\u0420\u043e\u0441\u0442\u043e\u0432","name:ar":"\u0631\u0648\u0633\u062a\u0648\u0641-\u0646\u0627-\u062f\u0648\u0646\u0648","name:tt":"\u0414\u043e\u043d\u0434\u0430\u0433\u044b \u0420\u043e\u0441\u0442\u043e\u0432","min_zoom":8.0,"name:ro":"Rostov-pe-Don","name:vi":"Rostov tr\u00ean s\u00f4ng \u0110\u00f4ng","name:pl":"Rost\u00f3w nad Donem","id":160569651,"name:ca":"Rostov del Don","name:af":"Rostof aan die Don","name:fa":"\u0631\u0648\u0633\u062a\u0648\u0641-\u0646\u0627-\u062f\u0648\u0646\u0648","kind_detail":"city","name:da":"Rostov ved Don","name:de":"Rostow am Don","source":"openstreetmap.org","name:fr":"Rostov-sur-le-Don","name:kn":"\u0cb0\u0ccb\u0cb8\u0ccd\u0ca4\u0cca\u0cb5\u0ccd","name:hi":"\u0930\u094b\u0938\u094d\u0924\u094b\u0935","name:zh":"\u987f\u6cb3\u7554\u7f57\u65af\u6258\u592b","admin_level":"6","name:sl":"Rostov na Donu","name:nl":"Rostov aan de Don","name:lt":"Rostovas prie Dono","name:uz":"Rostov-Don","name:la":"Rostovia ad Tanaim","name:sk":"Rostov nad Donom","name:hy":"\u0534\u0578\u0576\u056b \u054c\u0578\u057d\u057f\u0578\u057e","name:be":"\u0420\u0430\u0441\u0442\u043e\u045e-\u043d\u0430-\u0414\u043e\u043d\u0435","name:hu":"Rosztov","name:hr":"Rostov na Donu","name:sr":"\u0420\u043e\u0441\u0442\u043e\u0432 \u043d\u0430 \u0414\u043e\u043d\u0443","population":1114806,"name:el":"\u03a1\u03bf\u03c3\u03c4\u03cc\u03c6 \u03b5\u03c0\u03af \u03c4\u03bf\u03c5 \u039d\u03c4\u03bf\u03bd","kind":"locality","name:en":"Rostov-on-Don","name":"\u0420\u043e\u0441\u0442\u043e\u0432-\u043d\u0430-\u0414\u043e\u043d\u0443","name:ku":"Rostov-na-Don\u00fb","name:et":"Rostov Doni \u00e4\u00e4res","name:es":"Rostov del Don"},"coordinates":[995,796]},{"type":"Point","properties":{"name:sr":"\u0428\u0430\u0445\u0442\u0438","name:az":"\u015eaxt\u0131","name:nl":"Sjachty","name:lt":"\u0160achtos","name:ko":"\uc0e4\ud750\ud2f0","name:ar":"\u0634\u0627\u062e\u062a\u0627\u064a","name:cs":"\u0160achty","kind":"locality","min_zoom":8.0,"name:ro":"\u0218aht\u00ee","name:it":"\u0160achty","name:uk":"\u0428\u0430\u0445\u0442\u0438","name:pl":"Szachty","name:bg":"\u0428\u0430\u0445\u0442\u0438","id":191771467,"population":237233,"name:eo":"\u015ca\u0125ti","name:en":"Shakhty","name":"\u0428\u0430\u0445\u0442\u044b","source":"openstreetmap.org","kind_detail":"city","name:de":"Schachty","name:tr":"\u015eahti","name:fr":"Chakhty","name:fi":"\u0160ahty","name:zh":"\u6c99\u8d6b\u7279"},"coordinates":[2437,2897]},{"type":"Point","properties":{"name:sr":"\u041d\u043e\u0432\u043e\u0447\u0435\u0440\u043a\u0430\u0441\u043a","name:az":"Novo\u00e7erkassk","name:nl":"Novotsjerkassk","name:ka":"\u10dc\u10dd\u10d5\u10dd\u10e9\u10d4\u10e0\u10d9\u10d0\u10e1\u10d9\u10d8","name:tr":"Novo\u00e7erkassk","name:he":"\u05e0\u05d5\u05d1\u05d5\u05e6'\u05e8\u05e7\u05e1\u05e7","name:cs":"Novo\u010derkassk","min_zoom":8.0,"name:sk":"Novo\u010derkask","name:uk":"\u041d\u043e\u0432\u043e\u0447\u0435\u0440\u043a\u0430\u0441\u044c\u043a","name:sv":"Novotjerkassk","name:be":"\u041d\u043e\u0432\u0430\u0447\u0430\u0440\u043a\u0430\u0441\u043a","name:pl":"Nowoczerkask","name:bg":"\u041d\u043e\u0432\u043e\u0447\u0435\u0440\u043a\u0430\u0441\u043a","name":"\u041d\u043e\u0432\u043e\u0447\u0435\u0440\u043a\u0430\u0441\u0441\u043a","id":191846117,"population":172817,"name:el":"\u039d\u03bf\u03b2\u03bf\u03c4\u03c3\u03b5\u03c1\u03ba\u03ac\u03c3\u03c3\u03ba","kind":"locality","name:en":"Novocherkassk","name:lt":"Novo\u010derkaskas","kind_detail":"city","name:de":"Nowotscherkassk","source":"openstreetmap.org","name:fr":"Novotcherkassk","name:zh":"\u65b0\u5207\u723e\u5361\u65af\u514b","name:es":"Novocherkask"},"coordinates":[2118,1598]},{"type":"Point","properties":{"name:sr":"\u0411\u0430\u0442\u0430\u0458\u0441\u043a","name:ro":"Bataisk","name:lv":"Bataiska","name:lt":"Bataiskas","name:cs":"Batajsk","kind":"locality","min_zoom":8.0,"name:az":"Bataysk","name:it":"Batajsk","name:uk":"\u0411\u0430\u0442\u0430\u0439\u0441\u044c\u043a","old_name":"\u0441\u0435\u043b\u043e \u0411\u0430\u0442\u0430\u0439\u0441\u043a\u043e\u0435, \u0441\u043b\u043e\u0431\u043e\u0434\u0430 \u0411\u0430\u0442\u0430\u0439\u0441\u043a\u0430\u044f","name:vi":"Bataysk","name:pl":"Batajsk","id":654179991,"population":119807,"name:fa":"\u0628\u0627\u062a\u0627\u06cc\u0633\u06a9","name:eo":"Batajsk","name:en":"Bataysk","name":"\u0411\u0430\u0442\u0430\u0439\u0441\u043a","kind_detail":"city","name:de":"Bataisk","source":"openstreetmap.org","name:fr":"Bata\u00efsk","name:et":"Bataisk","name:zh":"\u5df4\u6cf0\u65af\u514b","name:es":"Bat\u00e1isk"},"coordinates":[1070,424]},{"type":"Point","properties":{"name:az":"Novo\u015faxtinsk","name:nl":"Novosjachtinsk","name:tr":"Novo\u015fahtinsk","name:ar":"\u0646\u0648\u0641\u0648\u0634\u0627\u062e\u062a\u064a\u0646\u0633\u0643","kind":"locality","min_zoom":8.0,"name:it":"Novo\u0161achtinsk","name:uk":"\u041d\u043e\u0432\u043e\u0448\u0430\u0445\u0442\u0438\u043d\u0441\u044c\u043a","name:be":"\u041d\u0430\u0432\u0430\u0448\u0430\u0445\u0446\u0456\u043d\u0441\u043a","name:pl":"Nowoszachty\u0144sk","name:hr":"Novo\u0161ahtinsk","id":191889906,"population":109139,"name:fa":"\u0646\u0648\u0648\u0648\u0634\u0627\u062e\u062a\u06cc\u0646\u0633\u06a9","name:eo":"Novo\u015da\u0125tinsk","name:en":"Novoshakhtinsk","name":"\u041d\u043e\u0432\u043e\u0448\u0430\u0445\u0442\u0438\u043d\u0441\u043a","kind_detail":"city","name:de":"Nowoschachtinsk","source":"openstreetmap.org","name:fr":"Novochakhtinsk","name:zh":"\u65b0\u6c99\u8d6b\u4eac\u65af\u514b"},"coordinates":[1634,3087]},{"type":"Point","properties":{"name:az":"Azov","name:ja":"\u30a2\u30be\u30d5","name:lt":"Azovas","name:ko":"\uc544\uc870\ud504","name:hy":"\u0531\u0566\u0578\u057e","kind":"locality","min_zoom":8.0,"name:la":"Asovia","old_name:en":"Oziv","name:uk":"\u041e\u0437\u0456\u0432","old_name":"\u0422\u0430\u043d\u0430, \u0410\u0437\u0430\u043a","name:pl":"Azow","id":283030477,"population":81995,"name:fa":"\u0622\u0632\u0648\u0641","name:eo":"Azov","name:en":"Azov","name":"\u0410\u0437\u043e\u0432","source":"openstreetmap.org","kind_detail":"town","name:de":"Asow","name:tr":"Azak","name:fr":"Azov","name:zh":"\u4e9e\u901f","name:es":"Azov"},"coordinates":[124,286]},{"type":"Point","properties":{"name:sr":"\u0410\u043a\u0441\u0430\u0458","name:az":"Aksay","name:ko":"\uc545\uc0ac\uc774","name:ar":"\u0623\u0643\u0633\u0627\u064a","name:eo":"Aksaj","min_zoom":8.0,"old_name":"\u0441\u0442-\u0446\u0430 \u0410\u043a\u0441\u0430\u0439\u0441\u043a\u0430\u044f","name:pl":"Aksaj","id":356772892,"population":43558,"kind":"locality","name:en":"Aksay","name":"\u0410\u043a\u0441\u0430\u0439","kind_detail":"town","name:de":"Aksai","source":"openstreetmap.org","name:fr":"Aksa\u00ef","name:hy":"\u0531\u056f\u057d\u0561\u0575","name:es":"Aks\u00e1i"},"coordinates":[1417,986]},{"type":"Point","properties":{"name:sr":"\u041a\u0440\u0430\u0441\u043d\u0438 \u0421\u0443\u043b\u0438\u043d","name:az":"Krasn\u0131y Sulin","name:no":"Krasnyj Sulin","name:hy":"\u053f\u0580\u0561\u057d\u0576\u056b \u054d\u0578\u0582\u056c\u056b\u0576","min_zoom":8.0,"name:uk":"\u041a\u0440\u0430\u0441\u043d\u0438\u0439 \u0421\u0443\u043b\u0456\u043d","old_name":"\u0421\u0443\u043b\u0438\u043d (\u0434\u043e 1926)","name:pl":"Krasny Sulin","id":356772865,"population":39212,"kind":"locality","name:en":"Krasnyy Sulin","name":"\u041a\u0440\u0430\u0441\u043d\u044b\u0439 \u0421\u0443\u043b\u0438\u043d","kind_detail":"town","name:de":"Krasny Sulin","source":"openstreetmap.org","name:fr":"Krasny Souline","name:et":"Krasn\u00f5i Sulin","name:zh":"\u7d05\u8607\u6797","name:es":"Krasni Sulin"},"coordinates":[2030,3672]},{"type":"Point","properties":{"kind":"locality","name:en":"Bagayevskaya","name":"\u0411\u0430\u0433\u0430\u0435\u0432\u0441\u043a\u0430\u044f","kind_detail":"town","name:de":"Bagajewskaja","source":"openstreetmap.org","min_zoom":8.0,"int_name":"Bagayevsky","name:uk":"\u0411\u0430\u0433\u0430\u0454\u0432\u0441\u044c\u043a\u0430.","name:hy":"\u0532\u0561\u0563\u0561\u0587\u057d\u056f\u0561\u0575\u0561","id":339961651,"population":15459},"coordinates":[2936,1213]},{"type":"Point","properties":{"kind":"locality","name:en":"Chaltyr'","name":"\u0427\u0430\u043b\u0442\u044b\u0440\u044c","kind_detail":"town","name:de":"Tschaltyr","source":"openstreetmap.org","min_zoom":8.0,"name:uk":"\u0427\u0430\u043b\u0442\u0438\u0440","name:hy":"\u0549\u0561\u056c\u057f\u056b\u0580","id":356773000,"population":15334},"coordinates":[369,1049]},{"type":"Point","properties":{"kind":"locality","name:en":"Kuleshovka","name":"\u041a\u0443\u043b\u0435\u0448\u043e\u0432\u043a\u0430","kind_detail":"town","name:de":"Kuleschowka","source":"openstreetmap.org","min_zoom":8.0,"name:uk":"\u041a\u0443\u043b\u0456\u0448\u0456\u0432\u043a\u0430","name:hy":"\u053f\u0578\u0582\u056c\u0565\u0577\u0578\u057e\u056f\u0561","id":356772919,"population":13692},"coordinates":[522,157]},{"type":"Point","properties":{"kind":"locality","name:en":"Kamenolomni","name":"\u041a\u0430\u043c\u0435\u043d\u043e\u043b\u043e\u043c\u043d\u0438","kind_detail":"town","name:hy":"\u053f\u0561\u0574\u0565\u0576\u0578\u056c\u0578\u0574\u0576\u056b","name:de":"Kamenolomni","source":"openstreetmap.org","min_zoom":8.0,"old_name":"\u0445\u0443\u0442\u043e\u0440 \u041c\u0430\u043a\u0441\u0438\u043c\u043e\u0432\u0441\u043a\u0438\u0439","id":806434175,"population":10716},"coordinates":[2418,2713]},{"type":"Point","properties":{"kind":"locality","name:en":"Krivyanskaya","name":"\u041a\u0440\u0438\u0432\u044f\u043d\u0441\u043a\u0430\u044f","kind_detail":"town","name:de":"Kriwjanskaja","source":"openstreetmap.org","min_zoom":8.0,"name:uk":"\u041a\u0440\u0438\u0432'\u044f\u043d\u0441\u044c\u043a\u0430","name:hy":"\u053f\u0580\u056b\u057e\u0575\u0561\u0576\u057d\u056f\u0561\u0575\u0561","id":356772954,"population":10612},"coordinates":[2305,1532]},{"type":"Point","properties":{"kind":"locality","name:en":"Vesyoly","name":"\u0412\u0435\u0441\u0451\u043b\u044b\u0439","kind_detail":"town","source":"openstreetmap.org","min_zoom":8.0,"id":356772933,"population":9175},"coordinates":[3993,196]},{"type":"Point","properties":{"kind":"locality","name:en":"Rodionovo-Nesvetayskaya","name":"\u0420\u043e\u0434\u0438\u043e\u043d\u043e\u0432\u043e-\u041d\u0435\u0441\u0432\u0435\u0442\u0430\u0439\u0441\u043a\u0430\u044f","kind_detail":"town","name:de":"Rodionowo-Neswetaiskaja","source":"openstreetmap.org","min_zoom":8.0,"name:hy":"\u054c\u0578\u0564\u056b\u0578\u0576\u0578\u057e\u0578-\u0546\u0565\u057d\u057e\u0565\u057f\u0561\u0575\u057d\u056f\u0561\u0575\u0561","id":356772759,"population":6439},"coordinates":[950,2473]},{"type":"Point","properties":{"kind":"locality","name:en":"Biriukove","name":"\u0411\u0456\u0440\u044e\u043a\u043e\u0432\u0435","kind_detail":"town","official_name":"\u041a\u0440\u0438\u043d\u0438\u0447\u043d\u0435","name:de":"Birjukowe","source":"openstreetmap.org","min_zoom":8.0,"name:ru":"\u0411\u0438\u0440\u044e\u043a\u043e\u0432\u043e","id":3415845550,"population":4097},"coordinates":[1049,3945]}]},"transit":{"type":"GeometryCollection","geometries":[{"type":"MultiLineString","properties":{"source":"openstreetmap.org","kind":"train","name":"\u0411\u0430\u043a\u0443 \u2014 \u0420\u043e\u0441\u0442\u043e\u0432-\u043d\u0430-\u0414\u043e\u043d\u0443","sort_rank":275,"ref":"Baku \u2014 Rostov-na-Donu","min_zoom":6.0,"osm_relation":true},"arcs":[[2],[3],[4],[5],[6],[7]]},{"type":"LineString","properties":{"kind":"train","network":"\u0420\u0416\u0414","sort_rank":275,"source":"openstreetmap.org","min_zoom":6.0,"ref":"\u044d\u043b. \u041a\u0440\u0430\u0441\u043d\u043e\u0434\u0430\u0440 \u2014 \u0420\u043e\u0441\u0442\u043e\u0432","id":-939832,"osm_relation":true},"arcs":[8]},{"type":"MultiLineString","properties":{"kind":"train","network":"\u0420\u0416\u0414","sort_rank":275,"source":"openstreetmap.org","min_zoom":6.0,"ref":"151\/1 \u041c\u043e\u0441\u043a\u0432\u0430 \u2014 \u0410\u043d\u0430\u043f\u0430","osm_relation":true,"name":"\u041c\u043e\u0441\u043a\u0432\u0430 \u2014 \u0410\u043d\u0430\u043f\u0430"},"arcs":[[9],[10],[11],[12],[13],[14],[15]]},{"type":"MultiLineString","properties":{"kind":"train","name":"\u041c\u043e\u0441\u043a\u0432\u0430 \u2014 \u0410\u0434\u043b\u0435\u0440","sort_rank":275,"name:de":"Moskau \u2014 Adler","source":"openstreetmap.org","min_zoom":6.0,"ref":"\u041c\u043e\u0441\u043a\u0432\u0430 - \u0410\u0434\u043b\u0435\u0440","osm_relation":true},"arcs":[[16],[17],[18],[19],[20],[21],[22]]}]},"pois":{"type":"GeometryCollection","geometries":[{"type":"Point","properties":{"kind":"protected_area","name":"\u0425\u043e\u0437\u044f\u0439\u0441\u0442\u0432\u0435\u043d\u043d\u0430\u044f \u0437\u043e\u043d\u0430","area":52611100,"source":"openstreetmap.org","min_zoom":8.0,"tier":2,"id":-7755537,"osm_relation":true},"coordinates":[25,616]},{"type":"Point","properties":{"kind":"protected_area","name":"\u0411\u0443\u0444\u0435\u0440\u043d\u0430\u044f \u0437\u043e\u043d\u0430","area":149813000,"source":"openstreetmap.org","min_zoom":7.0,"tier":2,"id":-7755536,"osm_relation":true},"coordinates":[213,815]},{"type":"Point","properties":{"source":"openstreetmap.org","kind":"military","name":"\u041a\u0430\u0434\u0430\u043c\u043e\u0432\u0441\u043a\u0438\u0439 \u043f\u043e\u043b\u0438\u0433\u043e\u043d","area":135579000,"tier":3,"min_zoom":8.0,"id":362270800},"coordinates":[2347,2223]}]},"boundaries":{"type":"GeometryCollection","geometries":[{"type":"LineString","properties":{"name:kg":"Ukrayina","name:ka":"\u10e3\u10d9\u10e0\u10d0\u10d8\u10dc\u10d0","name:ko":"\uc6b0\ud06c\ub77c\uc774\ub098","name:cv":"\u0423\u043a\u0440\u0430\u0438\u043d\u0430","name:cu":"\u041e\u0443\u043a\u0440\u0430\u0438\u043d\u0430","name:kl":"Ukraine","name:cs":"Ukrajina","name:tw":"Ukraine","name:tt":"\u0423\u043a\u0440\u0430\u0438\u043d\u0430","name:kw":"Ukrayn","name:kv":"\u0423\u043a\u0440\u0430\u0438\u043d\u0430","name:th":"\u0e1b\u0e23\u0e30\u0e40\u0e17\u0e28\u0e22\u0e39\u0e40\u0e04\u0e23\u0e19","name:tl":"Ukranya","name:ce":"\u0423\u043a\u0440\u0430\u0438\u043d\u0430","name:ta":"\u0b89\u0b95\u0bcd\u0bb0\u0bc8\u0ba9\u0bcd","name:tg":"\u0423\u043a\u0440\u0430\u0439\u0438\u043d\u0430","name:ca":"Ucra\u00efna","name:te":"\u0c09\u0c15\u0c4d\u0c30\u0c46\u0c2f\u0c3f\u0c28\u0c4d","name:cy":"Wcr\u00e1in","name:hr":"Ukrajina","name:da":"Ukraine","name:de":"Ukraine","source":"openstreetmap.org","name:kn":"\u0caf\u0cc1\u0c95\u0ccd\u0cb0\u0cc7\u0ca8\u0ccd","name:dv":"\u0794\u07aa\u0786\u07b0\u0783\u07ac\u0787\u07a8\u0782\u07b0","name:km":"\u17a2\u17ca\u17bb\u1799\u1780\u17d2\u179a\u17c2\u1793","name:lv":"Ukraina","name:lt":"Ukraina","name:uz":"Ukraina","name:kk":"\u0423\u043a\u0440\u0430\u0438\u043d\u0430","name:ur":"\u06cc\u0648\u06a9\u0631\u06cc\u0646","name:lb":"Ukrain","name:la":"Ucraina","name:ug":"\u0626\u06c7\u0643\u0631\u0627\u0626\u0649\u0646\u0627","name:li":"Oekra\u00efne","name:ln":"Ukraine","name:el":"\u039f\u03c5\u03ba\u03c1\u03b1\u03bd\u03af\u03b1","name:eo":"Ukrainujo","name:en":"Ukraine","name":"\u0423\u043a\u0440\u0430\u0457\u043d\u0430","name:tk":"Ukraina","name:ee":"Ukraine","name:ku":"\u00dbkrayna","name:eu":"Ukraina","name:et":"Ukraina","name:es":"Ucrania","name:ia":"Ukraina","name:rm":"Ucraina","name:az":"Ukrayna","name:ie":"Ucraina","name:id":"Ukraina","name:ig":"Yukrain","name:ar":"\u0623\u0648\u0643\u0631\u0627\u0646\u064a\u0627","name:io":"Ukrainia","name:is":"\u00dakra\u00edna","name:am":"\u12e9\u12ad\u122c\u1295","name:it":"Ucraina","name:an":"Ucra\u00edna","name:ru":"\u0423\u043a\u0440\u0430\u0438\u043d\u0430","name:ab":"\u0423\u043a\u0440\u0430\u0438\u043d\u0430","name:af":"Oekra\u00efne","kind_detail":"2","name:ky":"\u0423\u043a\u0440\u0430\u0438\u043d\u0430","name:zh-yue":"\u70cf\u514b\u862d","name:zh":"\u4e4c\u514b\u5170","name:so":"Ukrain","name:sn":"Ukraine","name:sm":"Ukraine","name:sl":"Ukrajina","name:sk":"Ukrajina","name:ja":"\u30a6\u30af\u30e9\u30a4\u30ca","name:sh":"Ukrajina","name:se":"Ukraina","name:sc":"Ucraina","name:br":"Ukraina","name:bs":"Ukrajina","name:bn":"\u0987\u0989\u0995\u09cd\u09b0\u09c7\u09a8","name:bo":"\u0f68\u0f74\u0f40\u0f0b\u0f62\u0f61\u0f72\u0f0b\u0f53\u0f72\u0f0d","name:bi":"Ukraine","name:sw":"Ukraine","name:be":"\u0423\u043a\u0440\u0430\u0456\u043d\u0430","name:su":"Ukraina","name:bg":"\u0423\u043a\u0440\u0430\u0439\u043d\u0430","name:ss":"IYukhureni","name:ba":"\u0423\u043a\u0440\u0430\u0438\u043d\u0430","name:sq":"Ukraina","name:jv":"Ukraina","name:pt":"Ucr\u00e2nia","name:ps":"\u0627\u0648\u06a9\u0631\u0627\u06cc\u0646","name:oc":"Ucra\u00efna","min_zoom":8.0,"name:ro":"Ucraina","name:zh-min-nan":"Ukrayina","name:os":"\u0423\u043a\u0440\u0430\u0438\u043d\u00e6","name:or":"\u0b5f\u0b41\u0b15\u0b4d\u0b30\u0b47\u0b28","name:pl":"Ukraina","sort_rank":262,"name:sr":"\u0423\u043a\u0440\u0430\u0458\u0438\u043d\u0430","osm_relation":true,"name:pa":"\u0a2f\u0a42\u0a15\u0a4d\u0a30\u0a47\u0a28","name:tr":"Ukrayna","name:hi":"\u092f\u0941\u0915\u094d\u0930\u0947\u0928","name:sv":"Ukraina","name:he":"\u05d0\u05d5\u05e7\u05e8\u05d0\u05d9\u05e0\u05d4","name:hy":"\u0548\u0582\u056f\u0580\u0561\u056b\u0576\u0561","name:ht":"Ikr\u00e8n","name:hu":"Ukrajna","name:qu":"Ukranya","kind":"country","name:ts":"Ukraine","name:yi":"\u05d0\u05d5\u05e7\u05e8\u05d0\u05d9\u05e0\u05e2","name:yo":"Ukr\u00e9\u00ecn","name:mt":"Ukrajna","alt_name:eo":"Ukrainio","name:ms":"Ukraine","name:mr":"\u092f\u0941\u0915\u094d\u0930\u0947\u0928","name:my":"\u101a\u1030\u1000\u101b\u102d\u1014\u103a\u1038\u1014\u102d\u102f\u1004\u103a\u1004\u1036","int_name":"Ukraine","name:mg":"Okraina","name:ml":"\u0d09\u0d15\u0d4d\u0d30\u0d48\u0d7b","name:vi":"Ukraina","name:mn":"\u0423\u043a\u0440\u0430\u0439\u043d","name:mi":"\u016akareinga","id":-60199,"name:mk":"\u0423\u043a\u0440\u0430\u0438\u043d\u0430","name:vo":"Lukray\u00e4n","name:fa":"\u0627\u0648\u06a9\u0631\u0627\u06cc\u0646","name:rw":"Ikerene","name:fi":"Ukraina","old_name:vi":"\u00d4 Kh\u1eafc Lan","name:fo":"Ukraina","alt_name:vi":"Uy Ki\u00ean","name:fr":"Ukraine","name:fy":"Oekra\u00efne","name:nl":"Oekra\u00efne","name:nn":"Ukraina","name:no":"Ukraina","name:na":"Ukraine","name:ne":"\u092f\u0941\u0915\u094d\u0930\u0947\u0928","name:wa":"Oucrinne","name:wo":"Ukreen","name:nv":"Y\u00f3\u00f3kwein","name:ga":"An \u00dacr\u00e1in","name:gd":"An Ucr\u00e0in","name:gn":"Ukya\u00f1a","name:gl":"Ucra\u00edna","name:gv":"Yn Ookraan","name:gu":"\u0aaf\u0ac1\u0a95\u0acd\u0ab0\u0ac7\u0aa8"},"arcs":[0]},{"type":"LineString","properties":{"name:right:hy":"\u053c\u0578\u0582\u0563\u0561\u0576\u057d\u056f\u056b \u0574\u0561\u0580\u0566","name:left:uz":"Rostov viloyati","int_name:left":"Rostov Oblast","name:right:hr":"Luhanska oblast","name:left:sv":"Rostov oblast","name:right:hu":"Luhanszki ter\u00fclet","name:left:sr":"\u0420\u043e\u0441\u0442\u043e\u0432\u0441\u043a\u0430 \u043e\u0431\u043b\u0430\u0441\u0442","name:right:lt":"Luhansko sritis","name:left:sl":"Rostovska oblast","min_zoom":8.0,"name:left:lt":"Rostovo sritis","name:left:sh":"Rostovska oblast","name:left:lv":"Rostovas apgabals","name:right:mr":"\u0932\u0941\u0939\u093e\u0928\u094d\u0938\u094d\u0915 \u0913\u092c\u094d\u0932\u093e\u0938\u094d\u0924","name:left:hr":"Rostovska oblast","name:right:os":"\u041b\u0443\u0433\u0430\u043d\u0441\u0447\u044b \u043e\u0431\u043b\u00e6\u0441\u0442","short_name:left":"\u0420\u041e\u0421","name:left:ce":"\u0420\u043e\u0441\u0442\u043e\u0432\u0430\u043d \u043e\u0431\u043b\u0430\u0441\u0442\u044c","name:right:vi":"Luhansk (t\u1ec9nh)","name:left:ca":"Prov\u00edncia de Rostov","source":"openstreetmap.org","name:right:ar":"\u0644\u0648\u0647\u0627\u0646\u0633\u0643 \u0623\u0648\u0628\u0644\u0627\u0633\u062a","name:left:cs":"Rostovsk\u00e1 oblast","name:left":"\u0420\u043e\u0441\u0442\u043e\u0432\u0441\u043a\u0430\u044f \u043e\u0431\u043b\u0430\u0441\u0442\u044c","name:right:mk":"\u041b\u0443\u0433\u0430\u043d\u0441\u043a\u0430 \u043e\u0431\u043b\u0430\u0441\u0442","name:right:sr":"\u041b\u0443\u0433\u0430\u043d\u0441\u043a\u0430 \u043e\u0431\u043b\u0430\u0441\u0442","name:left:ka":"\u10e0\u10dd\u10e1\u10e2\u10dd\u10d5\u10d8\u10e1 \u10dd\u10da\u10e5\u10d8","name:right:eu":"Luhanskeko oblasta","name:right:et":"Luganski oblast","name:left:os":"\u0420\u043e\u0441\u0442\u043e\u0432\u044b \u043e\u0431\u043b\u00e6\u0441\u0442","name:right:it":"Oblast' di Luhans'k","name:left:ro":"Regiunea Rostov","name:right:ru":"\u041b\u0443\u0433\u0430\u043d\u0441\u043a\u0430\u044f \u043e\u0431\u043b\u0430\u0441\u0442\u044c","name:right:es":"\u00d3blast de Lugansk","name:right:ro":"Regiunea Luhansk","alt_name:right:de":"Oblast Lugansk","name:right:id":"Oblast Luhansk","name:right:eo":"Luganska provinco","name:right:en":"Luhansk Oblast","name:left:vi":"Rostov (t\u1ec9nh)","kind":"region","name":"\u0420\u043e\u0441\u0442\u043e\u0432\u0441\u043a\u0430\u044f \u043e\u0431\u043b\u0430\u0441\u0442\u044c - \u041b\u0443\u0433\u0430\u043d\u0441\u044c\u043a\u0430 \u043e\u0431\u043b\u0430\u0441\u0442\u044c","name:left:fa":"\u0627\u0633\u062a\u0627\u0646 \u0631\u0648\u0633\u062a\u0648\u0641","name:right:lv":"Luhanskas apgabals","name:right:be":"\u041b\u0443\u0433\u0430\u043d\u0441\u043a\u0430\u044f \u0432\u043e\u0431\u043b\u0430\u0441\u0446\u044c","name:left:zh":"\u7f57\u65af\u6258\u592b\u5dde","name:right:zh":"\u76e7\u7518\u65af\u514b\u5dde","name:left:hy":"\u054c\u0578\u057d\u057f\u0578\u057e\u056b \u0574\u0561\u0580\u0566","name:right:nn":"Luhansk oblast","name:right:no":"Luhansk oblast","name:right:nl":"Oblast Loehansk","name:right:ja":"\u30eb\u30cf\u30fc\u30f3\u30b7\u30af\u5dde","name:right:fr":"Oblast de Louhansk","name:left:ja":"\u30ed\u30b9\u30c8\u30d5\u5dde","name:right:sv":"Luhansk oblast","name:left:uk":"\u0420\u043e\u0441\u0442\u043e\u0432\u0441\u044c\u043a\u0430 \u043e\u0431\u043b\u0430\u0441\u0442\u044c","name:right:sh":"Luganska oblast","name:right:sk":"Luhansk\u00e1 oblas\u0165","name:left:ba":"\u0420\u043e\u0441\u0442\u043e\u0432 \u04e9\u043b\u043a\u04d9\u04bb\u0435","alt_name:right:eo":"Luhanska provinco","name:left:bg":"\u0420\u043e\u0441\u0442\u043e\u0432\u0441\u043a\u0430 \u043e\u0431\u043b\u0430\u0441\u0442","name:right:fa":"\u0627\u0633\u062a\u0627\u0646 \u0644\u0648\u0647\u0627\u0646\u0633\u06a9","name:left:no":"Rostov oblast","name:left:fi":"Rostovin alue","id":-85606,"name:right:fi":"Luhanskin alue","name:left:en":"Rostov Oblast","name:left:el":"\u03a0\u03b5\u03c1\u03b9\u03c6\u03ad\u03c1\u03b5\u03b9\u03b1 \u03a1\u03bf\u03c3\u03c4\u03cc\u03c6","name:right:ca":"Prov\u00edncia de Luhansk","kind_detail":"4","alt_name:right:en":"Lugansk Oblast","name:left:nl":"Oblast Rostov","id:left":-85606,"name:left:es":"\u00d3blast de Rostov","name:right:cs":"Luhansk\u00e1 oblast","name:right":"\u041b\u0443\u0433\u0430\u043d\u0441\u044c\u043a\u0430 \u043e\u0431\u043b\u0430\u0441\u0442\u044c","id:right":-71971,"name:left:eu":"Rostov oblasta","name:left:et":"Rostovi oblast","name:right:ka":"\u10da\u10e3\u10d2\u10d0\u10dc\u10e1\u10d9\u10d8\u10e1 \u10dd\u10da\u10e5\u10d8","name:right:zh-min-nan":"Lugansk s\u00e9ng","name:right:pt":"Oblast de Lugansk","name:left:ar":"\u0631\u0648\u0633\u062a\u0648\u0641 \u0623\u0648\u0628\u0644\u0627\u0633\u062a","name:left:pl":"Obw\u00f3d rostowski","name:left:tt":"\u0420\u043e\u0441\u0442\u043e\u0432 \u04e9\u043b\u043a\u04d9\u0441\u0435","name:left:az":"Rostov vilay\u0259ti","name:right:tr":"Luhansk Oblast\u0131","name:right:bg":"\u041b\u0443\u0433\u0430\u043d\u0441\u043a\u0430 \u043e\u0431\u043b\u0430\u0441\u0442","name:left:pt":"Oblast de Rostov","name:left:af":"Rostof-oblast","name:right:ga":"C\u00faige Luhansk","name:right:ko":"\ub8e8\ud55c\uc2dc\ud06c \uc8fc","name:left:it":"Oblast' di Rostov","name:right:pl":"Obw\u00f3d \u0142uga\u0144ski","name:left:be":"\u0420\u0430\u0441\u0442\u043e\u045e\u0441\u043a\u0430\u044f \u0432\u043e\u0431\u043b\u0430\u0441\u0446\u044c","osm_relation":true,"name:right:de":"Oblast Luhansk","name:left:de":"Oblast Rostow","sort_rank":256},"arcs":[1]}]},"roads":{"type":"GeometryCollection","geometries":[{"type":"MultiLineString","properties":{"kind":"major_road","network":"ru:regional","sort_rank":380,"kind_detail":"primary","source":"openstreetmap.org","min_zoom":8.0,"shield_text":"60\u041a","ref":"60\u041a-11"},"arcs":[[25],[26],[27],[28],[29],[30]]},{"type":"MultiLineString","properties":{"bus_network":"\u041c\u043e\u0441\u043a\u0432\u0430 - \u041a\u0440\u0430\u0441\u043d\u043e\u0434\u0430\u0440","network":"e-road","sort_rank":381,"kind_detail":"trunk","kind":"major_road","source":"openstreetmap.org","min_zoom":8.0,"bus_shield_text":"401","shield_text":"50","ref":"\u041c-4"},"arcs":[[31],[32],[33],[34],[35],[36],[37]]},{"type":"MultiLineString","properties":{"bus_network":null,"sort_rank":380,"kind_detail":"primary","kind":"major_road","source":"openstreetmap.org","min_zoom":8.0,"bus_shield_text":"94","landuse_kind":"urban_area"},"arcs":[[38],[39],[40],[41],[42],[43]]},{"type":"LineString","properties":{"kind":"major_road","network":"e-road","sort_rank":381,"landuse_kind":"urban_area","source":"openstreetmap.org","min_zoom":8.0,"kind_detail":"trunk","shield_text":"115","ref":"\u041c-4"},"arcs":[44]},{"type":"MultiLineString","properties":{"bus_network":null,"sort_rank":380,"kind_detail":"primary","kind":"major_road","official_name":"\u042e\u0436\u043d\u044b\u0439 \u043f\u043e\u0434\u044a\u0435\u0437\u0434 \u043a \u0433\u043e\u0440\u043e\u0434\u0443 \u0420\u043e\u0441\u0442\u043e\u0432\u0443-\u043d\u0430-\u0414\u043e\u043d\u0443","source":"openstreetmap.org","min_zoom":8.0,"bus_shield_text":"101","landuse_kind":"urban_area"},"arcs":[[45],[46]]},{"type":"LineString","properties":{"bus_network":null,"name:en":"Panfilovtsev Street","sort_rank":380,"kind_detail":"primary","kind":"major_road","name:de":"uliza Panfilowzew","source":"openstreetmap.org","min_zoom":8.0,"bus_shield_text":"95","landuse_kind":"urban_area"},"arcs":[47]},{"type":"MultiLineString","properties":{"kind":"major_road","network":"e-road","sort_rank":381,"kind_detail":"trunk","source":"openstreetmap.org","min_zoom":8.0,"landuse_kind":"nature_reserve","shield_text":"115","ref":"\u041c-4"},"arcs":[[48],[49]]},{"type":"LineString","properties":{"kind":"major_road","name:en":"Libknekhta Street","sort_rank":380,"kind_detail":"primary","name:de":"uliza Libknechta","source":"openstreetmap.org","min_zoom":8.0,"name:uk":"\u0432\u0443\u043b\u0438\u0446\u044f \u041b\u0456\u0431\u043a\u043d\u0435\u0445\u0442\u0430","landuse_kind":"residential","id":166616148},"arcs":[50]},{"type":"MultiLineString","properties":{"bus_network":null,"network":"e-road","sort_rank":381,"landuse_kind":"urban_area","kind":"major_road","official_name":"\u0430\u0432\u0442\u043e\u0434\u043e\u0440\u043e\u0433\u0430 \u00ab\u0421\u0435\u0432\u0435\u0440\u043d\u044b\u0439 \u043f\u043e\u0434\u044a\u0435\u0437\u0434 \u043a \u0433. \u0411\u0430\u0442\u0430\u0439\u0441\u043a\u0443\u00bb","source":"openstreetmap.org","min_zoom":8.0,"bus_shield_text":"101","shield_text":null,"kind_detail":"trunk","ref":"60\u041a-58"},"arcs":[[51],[52]]},{"type":"LineString","properties":{"kind":"major_road","name:en":"Krasnoarmeyskaya Street","network":"ru:regional","sort_rank":380,"kind_detail":"primary","name:de":"uliza Krasnoarmeiskaja","source":"openstreetmap.org","min_zoom":8.0,"shield_text":"60\u041a","ref":"60\u041a-220","id":87256292},"arcs":[53]},{"type":"MultiLineString","properties":{"kind":"major_road","name:en":"Komissarovskiy Lane","sort_rank":380,"kind_detail":"primary","name:de":"Komissarowski pereulok","source":"openstreetmap.org","min_zoom":8.0,"landuse_kind":"residential"},"arcs":[[54],[55],[56],[57],[58]]},{"type":"LineString","properties":{"kind":"major_road","sort_rank":380,"kind_detail":"primary","source":"openstreetmap.org","min_zoom":8.0,"old_name":"\u0421\u043a\u043e\u0431\u0435\u043b\u0435\u0432\u0441\u043a\u0430\u044f \u0443\u043b\u0438\u0446\u0430","landuse_kind":"urban_area","id":290974477},"arcs":[59]},{"type":"LineString","properties":{"kind":"major_road","network":"e-road","sort_rank":381,"kind_detail":"trunk","bus_network":null,"source":"openstreetmap.org","min_zoom":8.0,"bus_shield_text":"101","shield_text":null,"landuse_kind":"urban_area","id":65397369},"arcs":[60]},{"type":"LineString","properties":{"source":"openstreetmap.org","kind":"ferry","name":"\u0420\u043e\u0441\u0442\u043e\u0432-\u043d\u0430-\u0414\u043e\u043d\u0443 - \u0421\u0442\u0430\u0440\u043e\u0447\u0435\u0440\u043a\u0430\u0441\u0441\u043a (\u0414\u043e\u043d\u0422\u0443\u0440)","sort_rank":355,"min_zoom":8.0,"id":382743609},"arcs":[61]},{"type":"LineString","properties":{"bus_network":null,"network":"e-road","sort_rank":381,"landuse_kind":"urban_area","kind":"major_road","source":"openstreetmap.org","min_zoom":8.0,"bus_shield_text":"8","shield_text":null,"kind_detail":"trunk"},"arcs":[62]},{"type":"MultiLineString","properties":{"bus_network":null,"int_name":"Sovetskaya Street","sort_rank":380,"kind_detail":"primary","kind":"major_road","source":"openstreetmap.org","min_zoom":8.0,"name:en":"Sovetskaya Street","name:uk":"\u0420\u0430\u0434\u044f\u043d\u0441\u044c\u043a\u0430 \u0432\u0443\u043b\u0438\u0446\u044f","bus_shield_text":"10","landuse_kind":"urban_area"},"arcs":[[63],[64],[65]]},{"type":"LineString","properties":{"kind":"major_road","name:en":"Portovaya Street","sort_rank":380,"kind_detail":"primary","bus_network":null,"name:de":"Portowaja uliza","source":"openstreetmap.org","min_zoom":8.0,"bus_shield_text":"8","landuse_kind":"urban_area","id":142900930},"arcs":[66]},{"type":"MultiLineString","properties":{"kind":"major_road","network":"ru:regional","sort_rank":380,"kind_detail":"primary","source":"openstreetmap.org","min_zoom":8.0,"shield_text":"60\u041a","ref":"60\u041a-4.1"},"arcs":[[67],[68],[69],[70]]},{"type":"LineString","properties":{"kind":"major_road","name:en":"Privolzhskiy Lane","sort_rank":380,"kind_detail":"primary","name:de":"Priwolschski pereulok","source":"openstreetmap.org","min_zoom":8.0,"landuse_kind":"urban_area","id":24470520},"arcs":[71]},{"type":"MultiLineString","properties":{"kind":"major_road","network":"ru:regional","sort_rank":380,"kind_detail":"primary","source":"openstreetmap.org","min_zoom":8.0,"landuse_kind":"nature_reserve","shield_text":"60\u041a","ref":"60\u041a-11","id":390015235},"arcs":[[72],[73]]},{"type":"LineString","properties":{"bus_network":null,"sort_rank":380,"landuse_kind":"urban_area","bus_shield_text":"14","kind":"major_road","source":"openstreetmap.org","min_zoom":8.0,"old_name":"\u0422\u0430\u0433\u0430\u043d\u0440\u043e\u0433\u0441\u043a\u0438\u0439 \u043f\u0440\u043e\u0441\u043f\u0435\u043a\u0442","kind_detail":"primary"},"arcs":[74]},{"type":"MultiLineString","properties":{"bus_network":null,"sort_rank":380,"kind_detail":"primary","kind":"major_road","source":"openstreetmap.org","min_zoom":8.0,"bus_shield_text":"57","landuse_kind":"residential"},"arcs":[[75],[76]]},{"type":"LineString","properties":{"kind":"major_road","name:en":"Portovaya Street","sort_rank":380,"kind_detail":"primary","name:de":"Portowaja uliza","source":"openstreetmap.org","min_zoom":8.0,"landuse_kind":"urban_area"},"arcs":[77]},{"type":"LineString","properties":{"kind":"major_road","name:en":"Pobeda Revolyutsii Avenue","sort_rank":380,"kind_detail":"primary","bus_network":null,"name:de":"prospekt Pobeda Revoljuzii","source":"openstreetmap.org","min_zoom":8.0,"bus_shield_text":"3","landuse_kind":"urban_area","id":131205208},"arcs":[78]},{"type":"LineString","properties":{"kind":"major_road","network":"ru:regional","sort_rank":380,"kind_detail":"primary","source":"openstreetmap.org","min_zoom":8.0,"shield_text":"60\u041a","ref":"60\u041a-220","id":32941802},"arcs":[79]},{"type":"LineString","properties":{"kind":"major_road","network":"ru:regional","sort_rank":380,"kind_detail":"primary","source":"openstreetmap.org","min_zoom":8.0,"shield_text":"60\u041d","ref":"60\u041d-248"},"arcs":[80]},{"type":"LineString","properties":{"kind":"major_road","name:en":"Sotsialisticheskaya Street","network":"ru:regional","sort_rank":380,"kind_detail":"primary","name:de":"Sozialistitscheskaja uliza","source":"openstreetmap.org","min_zoom":8.0,"landuse_kind":"residential","shield_text":"60\u041d","ref":"60\u041d-221"},"arcs":[81]},{"type":"MultiLineString","properties":{"bus_network":"\u0420\u043e\u0441\u0442\u043e\u0432-\u043d\u0430-\u0414\u043e\u043d\u0443","name:en":"Stadionnaya Street","sort_rank":380,"landuse_kind":"urban_area","kind":"major_road","source":"openstreetmap.org","min_zoom":8.0,"bus_shield_text":"14","kind_detail":"primary"},"arcs":[[82],[83]]},{"type":"MultiLineString","properties":{"bus_network":null,"sort_rank":380,"kind_detail":"primary","kind":"major_road","source":"openstreetmap.org","min_zoom":8.0,"bus_shield_text":"10","landuse_kind":"urban_area"},"arcs":[[84],[85],[86],[87],[88],[89],[90],[91],[92]]},{"type":"LineString","properties":{"kind":"major_road","name:en":"Gressovskaya Street","sort_rank":380,"kind_detail":"primary","name:de":"Gressowskaja uliza","source":"openstreetmap.org","min_zoom":8.0,"landuse_kind":"residential","id":238501020},"arcs":[93]},{"type":"MultiLineString","properties":{"source":"openstreetmap.org","kind":"major_road","old_name":"\u041d\u0430\u0445\u0438\u0447\u0435\u0432\u0430\u043d\u0441\u043a\u0430\u044f \u043c\u0435\u0436\u0430","sort_rank":380,"kind_detail":"primary","landuse_kind":"urban_area","min_zoom":8.0},"arcs":[[94],[95]]},{"type":"MultiLineString","properties":{"kind":"major_road","network":"ru:regional","sort_rank":380,"kind_detail":"primary","source":"openstreetmap.org","min_zoom":8.0,"landuse_kind":"urban_area","shield_text":"60\u041d","ref":"60\u041d-248"},"arcs":[[96],[97],[98]]},{"type":"MultiLineString","properties":{"bus_network":null,"sort_rank":380,"kind_detail":"primary","kind":"major_road","bicycle_shield_text":"1","bicycle_network":null,"source":"openstreetmap.org","min_zoom":8.0,"bus_shield_text":"42a","landuse_kind":"urban_area"},"arcs":[[99],[100]]},{"type":"MultiLineString","properties":{"kind":"major_road","name:en":"Skvoznoy Lane","sort_rank":380,"kind_detail":"primary","name:de":"Skwosnoi pereulok","source":"openstreetmap.org","min_zoom":8.0,"landuse_kind":"residential"},"arcs":[[101],[102]]},{"type":"MultiLineString","properties":{"source":"openstreetmap.org","kind":"major_road","old_name":"\u0447\u0435\u0440\u0442\u0430 \u0433\u043e\u0440\u043e\u0434\u0441\u043a\u043e\u0433\u043e \u043f\u043e\u0441\u0435\u043b\u0435\u043d\u0438\u044f \u043f\u043e \u043f\u043b\u0430\u043d\u0443 \u0443\u0442\u0432\u0435\u0440\u0436\u0434\u0451\u043d\u043d\u043e\u043c\u0443 \u0432 1886 \u0433\u043e\u0434\u0443","sort_rank":380,"kind_detail":"primary","landuse_kind":"urban_area","min_zoom":8.0},"arcs":[[103],[104],[105]]},{"type":"LineString","properties":{"kind":"major_road","name:en":"Taganrogskaya Street","sort_rank":380,"kind_detail":"primary","bus_network":null,"name:de":"Taganrogskaja uliza","source":"openstreetmap.org","min_zoom":8.0,"bus_shield_text":"94","landuse_kind":"urban_area","id":35026571},"arcs":[106]},{"type":"LineString","properties":{"kind":"major_road","sort_rank":380,"kind_detail":"primary","source":"openstreetmap.org","min_zoom":8.0,"old_name":"\u0428\u0435\u0441\u0442\u0430\u044f \u0443\u043b\u0438\u0446\u0430","landuse_kind":"urban_area","id":45215063},"arcs":[107]},{"type":"LineString","properties":{"kind":"major_road","name:en":"Tselinogradskaya Street","sort_rank":380,"kind_detail":"primary","name:de":"Zelinogradskaja uliza","source":"openstreetmap.org","min_zoom":8.0,"landuse_kind":"urban_area","id":76246214},"arcs":[108]},{"type":"MultiLineString","properties":{"kind":"major_road","network":"e-road","sort_rank":381,"kind_detail":"trunk","source":"openstreetmap.org","min_zoom":8.0,"shield_text":"50","ref":"\u041c-4"},"arcs":[[109],[110],[111],[112],[113],[114],[115],[116],[117],[118],[119],[120],[121],[122],[123],[124],[125],[126]]},{"type":"MultiLineString","properties":{"bus_network":null,"network":null,"sort_rank":380,"kind_detail":"primary","kind":"major_road","source":"openstreetmap.org","min_zoom":8.0,"bus_shield_text":"85","shield_text":"135","landuse_kind":"urban_area","ref":"\u0410-135"},"arcs":[[127],[128]]},{"type":"LineString","properties":{"kind":"major_road","name:en":"Rostov-on-Don \u2014 Novoshakhtinsk","network":"ru:regional","sort_rank":380,"kind_detail":"primary","name:de":"Rostow-am-Don \u2014 Nowoschachtinsk","source":"openstreetmap.org","min_zoom":8.0,"shield_text":"60\u041a","ref":"60\u041a-8"},"arcs":[129]},{"type":"LineString","properties":{"bus_network":null,"sort_rank":380,"kind_detail":"primary","kind":"major_road","source":"openstreetmap.org","min_zoom":8.0,"bus_shield_text":"12","landuse_kind":"urban_area"},"arcs":[130]},{"type":"LineString","properties":{"bus_network":null,"name:en":"Sheboldaeva Street","sort_rank":380,"landuse_kind":"urban_area","kind":"major_road","source":"openstreetmap.org","min_zoom":8.0,"bus_shield_text":"14","kind_detail":"primary"},"arcs":[131]},{"type":"LineString","properties":{"kind":"major_road","name:en":"Rostovskaya Street","network":"ru:regional","sort_rank":380,"kind_detail":"primary","name:de":"Rostowskaja uliza","source":"openstreetmap.org","min_zoom":8.0,"landuse_kind":"residential","shield_text":"60\u041a","ref":"60\u041a-220"},"arcs":[132]},{"type":"LineString","properties":{"kind":"major_road","name:en":"Rostov-on-Don \u2014 Novoshakhtinsk","network":"ru:regional","sort_rank":380,"landuse_kind":"residential","name:de":"Rostow am Don \u2014 Nowoschachtinsk","source":"openstreetmap.org","min_zoom":8.0,"name:uk":"\u0420\u043e\u0441\u0442\u043e\u0432-\u043d\u0430-\u0414\u043e\u043d\u0443 \u2014 \u041d\u043e\u0432\u043e\u0448\u0430\u0445\u0442\u0438\u043d\u0441\u044c\u043a","kind_detail":"primary","shield_text":"60\u041a","ref":"60\u041a-8"},"arcs":[133]},{"type":"LineString","properties":{"kind":"major_road","network":"ru:regional","sort_rank":380,"kind_detail":"primary","source":"openstreetmap.org","min_zoom":8.0,"shield_text":"60\u041a","ref":"60\u041a-245"},"arcs":[134]},{"type":"MultiLineString","properties":{"kind":"major_road","network":"ru:regional","sort_rank":380,"kind_detail":"primary","source":"openstreetmap.org","min_zoom":8.0,"shield_text":"60\u041a","ref":"60\u041a-8"},"arcs":[[135],[136],[137],[138]]},{"type":"LineString","properties":{"kind":"major_road","sort_rank":380,"kind_detail":"primary","bus_shield_text":"52","bus_network":null,"source":"openstreetmap.org","min_zoom":8.0,"old_name":"\u041d\u0430\u0445\u0438\u0447\u0435\u0432\u0430\u043d\u0441\u043a\u0430\u044f \u043c\u0435\u0436\u0430","landuse_kind":"urban_area","id":79610210},"arcs":[139]},{"type":"MultiLineString","properties":{"bus_network":"\u041c\u043e\u0441\u043a\u0432\u0430 - \u041a\u0440\u0430\u0441\u043d\u043e\u0434\u0430\u0440","network":"e-road","sort_rank":381,"kind_detail":"trunk","kind":"major_road","source":"openstreetmap.org","min_zoom":8.0,"bus_shield_text":"401","shield_text":"50","landuse_kind":"urban_area","ref":"\u041c-4"},"arcs":[[140],[141]]},{"type":"LineString","properties":{"bus_network":null,"sort_rank":380,"kind_detail":"primary","old_name":"\u041d\u0430\u0445\u0438\u0447\u0435\u0432\u0430\u043d\u0441\u043a\u0430\u044f \u043c\u0435\u0436\u0430","kind":"major_road","source":"openstreetmap.org","min_zoom":8.0,"bus_shield_text":"5","landuse_kind":"urban_area"},"arcs":[142]},{"type":"MultiLineString","properties":{"kind":"major_road","network":"e-road","sort_rank":381,"kind_detail":"trunk","source":"openstreetmap.org","min_zoom":8.0,"shield_text":null,"ref":"\u0410-135"},"arcs":[[143],[144]]},{"type":"MultiLineString","properties":{"sort_rank":381,"source":"openstreetmap.org","min_zoom":8.0,"kind":"major_road","kind_detail":"trunk"},"arcs":[[145],[146],[147],[148],[149],[150],[151]]},{"type":"LineString","properties":{"kind":"major_road","name:en":"Rostov-on-Don \u2014 Novoshakhtinsk","network":"ru:regional","sort_rank":380,"kind_detail":"primary","name:de":"Rostow am Don \u2014 Nowoschachtinsk","source":"openstreetmap.org","min_zoom":8.0,"shield_text":"60\u041a","ref":"60\u041a-8","id":121928638},"arcs":[152]},{"type":"LineString","properties":{"kind":"major_road","name:en":"Leningradskaya Street","sort_rank":380,"kind_detail":"primary","name:de":"Leningradskaja uliza","source":"openstreetmap.org","min_zoom":8.0,"name:uk":"\u041b\u0435\u043d\u0456\u043d\u0433\u0440\u0430\u0434\u0441\u044c\u043a\u0430 \u0432\u0443\u043b\u0438\u0446\u044f","landuse_kind":"residential","id":370088568},"arcs":[153]},{"type":"MultiLineString","properties":{"bus_network":null,"sort_rank":380,"kind_detail":"primary","bus_shield_text":"6","kind":"major_road","source":"openstreetmap.org","min_zoom":8.0,"old_name":"\u0411\u043e\u043b\u044c\u0448\u043e\u0439 \u043f\u0440\u043e\u0441\u043f\u0435\u043a\u0442;\u0411\u043e\u043b\u044c\u0448\u043e\u0439 \u0421\u0442\u043e\u043b\u044b\u043f\u0438\u043d\u0441\u043a\u0438\u0439 \u043f\u0440\u043e\u0441\u043f\u0435\u043a\u0442","landuse_kind":"urban_area"},"arcs":[[154],[155]]},{"type":"MultiLineString","properties":{"kind":"major_road","network":"e-road","sort_rank":381,"kind_detail":"trunk","source":"openstreetmap.org","min_zoom":8.0,"shield_text":"115","ref":"\u041c-4"},"arcs":[[156],[157],[158],[159],[160]]},{"type":"LineString","properties":{"bus_network":null,"name:en":"Skvoznoy Lane","sort_rank":380,"landuse_kind":"residential","kind":"major_road","name:de":"Skwosnoi pereulok","source":"openstreetmap.org","min_zoom":8.0,"bus_shield_text":"57","kind_detail":"primary"},"arcs":[161]},{"type":"MultiLineString","properties":{"source":"openstreetmap.org","kind":"ferry","name":"\u0420\u043e\u0441\u0442\u043e\u0432-\u043d\u0430-\u0414\u043e\u043d\u0443 - \u0410\u0437\u043e\u0432 (\u0414\u043e\u043d\u0422\u0443\u0440)","sort_rank":355,"min_zoom":8.0,"id":383084049},"arcs":[[162],[163]]},{"type":"MultiLineString","properties":{"bus_network":null,"sort_rank":380,"kind_detail":"primary","kind":"major_road","bicycle_shield_text":"1","bicycle_network":null,"source":"openstreetmap.org","min_zoom":8.0,"bus_shield_text":"6","landuse_kind":"urban_area"},"arcs":[[164],[165],[166],[167]]},{"type":"MultiLineString","properties":{"source":"openstreetmap.org","kind":"major_road","sort_rank":380,"kind_detail":"primary","ref":"60\u041a-291","min_zoom":8.0},"arcs":[[168],[169]]},{"type":"MultiLineString","properties":{"kind":"major_road","name:en":"Kharkovskaya Street","network":"ru:national","sort_rank":381,"kind_detail":"trunk","name:de":"Charkowskaja uliza","source":"openstreetmap.org","min_zoom":8.0,"name:uk":"\u0425\u0430\u0440\u043a\u0456\u0432\u0441\u044c\u043a\u0430 \u0432\u0443\u043b\u0438\u0446\u044f","old_name":"\u041d\u043e\u0432\u043e\u0448\u0430\u0445\u0442\u0438\u043d\u0441\u043a \u2013 \u041c\u0430\u0439\u0441\u043a\u0438\u0439","shield_text":"270","landuse_kind":"residential","ref":"\u0410-270"},"arcs":[[170],[171],[172],[173]]},{"type":"LineString","properties":{"kind":"major_road","name:en":"Budyonnogo Street","sort_rank":380,"kind_detail":"primary","name:de":"uliza Budjonnogo","source":"openstreetmap.org","min_zoom":8.0,"name:uk":"\u0432\u0443\u043b\u0438\u0446\u044f \u0411\u0443\u0434\u044c\u043e\u043d\u043d\u043e\u0433\u043e","id":368418794},"arcs":[174]},{"type":"LineString","properties":{"kind":"major_road","network":"ru:regional","sort_rank":380,"kind_detail":"primary","source":"openstreetmap.org","min_zoom":8.0,"landuse_kind":"urban_area","shield_text":"60\u041a","ref":"60\u041a-76","id":378174335},"arcs":[175]},{"type":"LineString","properties":{"kind":"major_road","name:en":"Rossiyskaya Street","sort_rank":380,"kind_detail":"primary","name:de":"Rossiiskaja uliza","source":"openstreetmap.org","min_zoom":8.0,"landuse_kind":"urban_area","id":290929439},"arcs":[176]},{"type":"LineString","properties":{"kind":"major_road","name:en":"Komsomolskaya Street","sort_rank":380,"kind_detail":"primary","source":"openstreetmap.org","min_zoom":8.0,"name:uk":"\u041a\u043e\u043c\u0441\u043e\u043c\u043e\u043b\u044c\u0441\u044c\u043a\u0430 \u0432\u0443\u043b\u0438\u0446\u044f","landuse_kind":"urban_area"},"arcs":[177]},{"type":"MultiLineString","properties":{"bus_network":"\u0420\u043e\u0441\u0442\u043e\u0432-\u043d\u0430-\u0414\u043e\u043d\u0443","sort_rank":380,"kind_detail":"primary","kind":"major_road","source":"openstreetmap.org","min_zoom":8.0,"bus_shield_text":"14","landuse_kind":"urban_area"},"arcs":[[178],[179]]},{"type":"LineString","properties":{"kind":"major_road","name:en":"Rossiyskaya Street","sort_rank":380,"kind_detail":"primary","bus_network":null,"name:de":"Rossiiskaja uliza","source":"openstreetmap.org","min_zoom":8.0,"bus_shield_text":"14","landuse_kind":"urban_area","id":42319067},"arcs":[180]},{"type":"LineString","properties":{"kind":"major_road","name:en":"Rostov-on-Don \u2014 Novoshakhtinsk","network":"ru:regional","sort_rank":380,"kind_detail":"primary","name:de":"Rostow am Don \u2014 Nowoschachtinsk","source":"openstreetmap.org","min_zoom":8.0,"name:uk":"\u0420\u043e\u0441\u0442\u043e\u0432-\u043d\u0430-\u0414\u043e\u043d\u0443 \u2014 \u041d\u043e\u0432\u043e\u0448\u0430\u0445\u0442\u0438\u043d\u0441\u044c\u043a","shield_text":"60\u041a","ref":"60\u041a-8","id":390208433},"arcs":[181]},{"type":"LineString","properties":{"kind":"major_road","network":"ru:regional","sort_rank":381,"kind_detail":"trunk","source":"openstreetmap.org","min_zoom":8.0,"shield_text":"60\u0420","ref":"60\u0420-1","id":10117338},"arcs":[182]},{"type":"MultiLineString","properties":{"bus_network":null,"sort_rank":380,"kind_detail":"primary","kind":"major_road","source":"openstreetmap.org","min_zoom":8.0,"bus_shield_text":"5","landuse_kind":"urban_area"},"arcs":[[183],[184],[185],[186]]},{"type":"LineString","properties":{"kind":"major_road","name:en":"Chekalina Street","sort_rank":380,"kind_detail":"primary","name:de":"uliza Tschekalina","source":"openstreetmap.org","min_zoom":8.0,"name:uk":"\u0432\u0443\u043b\u0438\u0446\u044f \u0427\u0435\u043a\u0430\u043b\u0456\u043d\u0430","id":86913131},"arcs":[187]},{"type":"MultiLineString","properties":{"source":"openstreetmap.org","kind":"major_road","landuse_kind":"urban_area","sort_rank":380,"kind_detail":"primary","min_zoom":8.0},"arcs":[[188],[189],[190],[191],[192],[193],[194],[195],[196],[197],[198],[199],[200],[201],[202],[203],[204],[205],[206],[207],[208],[209],[210],[211],[212],[213],[214],[215],[216],[217],[218],[219],[220],[221],[222],[223],[224],[225],[226],[227],[228],[229],[230],[231],[232],[233],[234],[235],[236],[237],[238],[239],[240],[241],[242],[243],[244],[245],[246],[247],[248],[249],[250],[251],[252],[253],[254],[255],[256],[257],[258],[259],[260],[261],[262],[263],[264],[265],[266],[267],[268],[269],[270],[271],[272],[273],[274],[275],[276],[277],[278],[279],[280],[281],[282],[283],[284],[285],[286],[287],[288],[289],[290],[291],[292]]},{"type":"LineString","properties":{"kind":"major_road","sort_rank":380,"kind_detail":"primary","bus_network":null,"source":"openstreetmap.org","min_zoom":8.0,"bus_shield_text":"57","landuse_kind":"urban_area","id":348517487},"arcs":[293]},{"type":"LineString","properties":{"kind":"major_road","name:en":"Portovaya Street","sort_rank":380,"kind_detail":"primary","bus_network":null,"name:de":"Portowaja uliza","source":"openstreetmap.org","min_zoom":8.0,"bus_shield_text":"12","landuse_kind":"urban_area","id":69043593},"arcs":[294]},{"type":"LineString","properties":{"kind":"major_road","network":"ru:regional","sort_rank":380,"kind_detail":"primary","source":"openstreetmap.org","min_zoom":8.0,"landuse_kind":"urban_area","shield_text":"60\u041a","ref":"60\u041a-220","id":104838058},"arcs":[295]},{"type":"MultiLineString","properties":{"bus_network":null,"sort_rank":380,"kind_detail":"primary","is_bicycle_related":true,"kind":"major_road","bicycle_shield_text":"1","cycleway":"lane","source":"openstreetmap.org","min_zoom":8.0,"bus_shield_text":"6","landuse_kind":"urban_area","bicycle_network":null},"arcs":[[296],[297]]},{"type":"MultiLineString","properties":{"bus_network":null,"network":"e-road","sort_rank":381,"landuse_kind":"urban_area","kind":"major_road","source":"openstreetmap.org","min_zoom":8.0,"bus_shield_text":"94","shield_text":null,"kind_detail":"trunk"},"arcs":[[298],[299]]},{"type":"MultiLineString","properties":{"bus_network":null,"sort_rank":380,"kind_detail":"primary","kind":"major_road","source":"openstreetmap.org","min_zoom":8.0,"bus_shield_text":"52","landuse_kind":"urban_area"},"arcs":[[300],[301],[302],[303],[304]]},{"type":"LineString","properties":{"kind":"major_road","network":"ru:regional","sort_rank":380,"kind_detail":"primary","source":"openstreetmap.org","min_zoom":8.0,"shield_text":"60\u041a","ref":"60\u041a-246","id":10657737},"arcs":[305]},{"type":"LineString","properties":{"bus_network":null,"network":"e-road","sort_rank":381,"landuse_kind":"urban_area","kind":"major_road","source":"openstreetmap.org","min_zoom":8.0,"bus_shield_text":"12","shield_text":null,"kind_detail":"trunk"},"arcs":[306]},{"type":"MultiLineString","properties":{"kind":"major_road","name:en":"Donskoy Lane","sort_rank":380,"landuse_kind":"residential","name:de":"Donskoi pereulok","source":"openstreetmap.org","min_zoom":8.0,"kind_detail":"primary"},"arcs":[[307],[308]]},{"type":"LineString","properties":{"kind":"major_road","name:en":"Komissarovskiy Lane","sort_rank":380,"kind_detail":"primary","name:de":"Komissarowski pereulok","source":"openstreetmap.org","min_zoom":8.0,"landuse_kind":"urban_area","id":84724494},"arcs":[309]},{"type":"MultiLineString","properties":{"bus_network":null,"sort_rank":380,"kind_detail":"primary","kind":"major_road","source":"openstreetmap.org","min_zoom":8.0,"bus_shield_text":"10","landuse_kind":"residential"},"arcs":[[310],[311],[312],[313],[314],[315],[316],[317]]},{"type":"MultiLineString","properties":{"kind":"major_road","network":"ru:national","sort_rank":381,"kind_detail":"trunk","source":"openstreetmap.org","min_zoom":8.0,"name:uk":"\u041c-4 \"\u0414\u043e\u043d\" - \u041d\u043e\u0432\u043e\u0448\u0430\u0445\u0442\u0438\u043d\u0441\u044c\u043a - \u0423\u043a\u0440\u0430\u0457\u043d\u0430","old_name":"\u041d\u043e\u0432\u043e\u0448\u0430\u0445\u0442\u0438\u043d\u0441\u043a \u2013 \u041c\u0430\u0439\u0441\u043a\u0438\u0439","shield_text":"270","ref":"\u0410-270"},"arcs":[[318],[319]]},{"type":"MultiLineString","properties":{"source":"openstreetmap.org","kind":"major_road","name:uk":"\u0422\u0435\u043c\u0435\u0440\u043d\u0438\u0446\u044c\u043a\u0438\u0439 \u043c\u0456\u0441\u0442","landuse_kind":"urban_area","sort_rank":380,"kind_detail":"primary","min_zoom":8.0},"arcs":[[320],[321]]},{"type":"MultiLineString","properties":{"kind":"major_road","network":"ru:regional","sort_rank":380,"kind_detail":"primary","source":"openstreetmap.org","min_zoom":8.0,"shield_text":"60\u041a","ref":"60\u041a-74"},"arcs":[[322],[323],[324],[325],[326],[327],[328]]},{"type":"LineString","properties":{"kind":"major_road","name:en":"Konyonkova Street","sort_rank":380,"kind_detail":"primary","name:de":"uliza Konjonkowa","source":"openstreetmap.org","min_zoom":8.0,"name:uk":"\u0432\u0443\u043b\u0438\u0446\u044f \u041a\u043e\u043d\u0435\u043d\u043a\u043e\u0432\u0430","id":86913115},"arcs":[329]},{"type":"MultiLineString","properties":{"kind":"major_road","network":"ru:regional","sort_rank":380,"kind_detail":"primary","source":"openstreetmap.org","min_zoom":8.0,"landuse_kind":"urban_area","shield_text":"60\u041d","ref":"60\u041d-221"},"arcs":[[330],[331]]},{"type":"LineString","properties":{"bus_network":null,"name:en":"Pobeda Revolyutsii Avenue","sort_rank":380,"kind_detail":"primary","kind":"major_road","name:de":"prospekt Pobeda Revoljuzii","source":"openstreetmap.org","min_zoom":8.0,"bus_shield_text":"3","landuse_kind":"residential"},"arcs":[332]},{"type":"MultiLineString","properties":{"kind":"major_road","network":"ru:national","sort_rank":381,"kind_detail":"trunk","source":"openstreetmap.org","min_zoom":8.0,"old_name":"\u041d\u043e\u0432\u043e\u0448\u0430\u0445\u0442\u0438\u043d\u0441\u043a \u2013 \u041c\u0430\u0439\u0441\u043a\u0438\u0439","shield_text":"270","ref":"\u0410-270"},"arcs":[[333],[334],[335],[336],[337],[338],[339],[340],[341],[342],[343],[344],[345],[346],[347]]},{"type":"MultiLineString","properties":{"kind":"major_road","network":"ru:regional","sort_rank":380,"kind_detail":"primary","source":"openstreetmap.org","min_zoom":8.0,"shield_text":"60\u041a","ref":"60\u041a-247"},"arcs":[[348],[349],[350],[351],[352],[353],[354],[355],[356],[357],[358],[359],[360],[361],[362]]},{"type":"LineString","properties":{"bus_network":"\u0412\u043e\u043b\u0433\u043e\u0433\u0440\u0430\u0434 - \u0420\u043e\u0441\u0442\u043e\u0432-\u043d\u0430-\u0414\u043e\u043d\u0443","network":"e-road","sort_rank":381,"kind_detail":"trunk","kind":"major_road","source":"openstreetmap.org","min_zoom":8.0,"bus_shield_text":"335","shield_text":"115","landuse_kind":"urban_area","ref":"\u041c-4"},"arcs":[363]},{"type":"LineString","properties":{"kind":"major_road","network":"ru:regional","sort_rank":380,"kind_detail":"primary","source":"openstreetmap.org","min_zoom":8.0,"landuse_kind":"residential","shield_text":"60\u041d","ref":"60\u041d-221","id":87256302},"arcs":[364]},{"type":"MultiLineString","properties":{"kind":"major_road","network":"ru:regional","sort_rank":380,"kind_detail":"primary","source":"openstreetmap.org","min_zoom":8.0,"landuse_kind":"urban_area","shield_text":"60\u041a","ref":"60\u041a-59"},"arcs":[[365],[366]]},{"type":"LineString","properties":{"bus_network":null,"sort_rank":380,"kind_detail":"primary","bus_shield_text":"5","kind":"major_road","source":"openstreetmap.org","min_zoom":8.0,"old_name":"\u0421\u043a\u043e\u0431\u0435\u043b\u0435\u0432\u0441\u043a\u0430\u044f \u0443\u043b\u0438\u0446\u0430","name:pl":"ulica Krasnoarmiejskaja","landuse_kind":"urban_area"},"arcs":[367]},{"type":"LineString","properties":{"kind":"major_road","network":"ru:regional","sort_rank":380,"kind_detail":"primary","source":"openstreetmap.org","min_zoom":8.0,"landuse_kind":"urban_area","shield_text":"60\u041a","ref":"60\u041a-11","id":84198139},"arcs":[368]},{"type":"MultiLineString","properties":{"kind":"major_road","network":"ru:national","sort_rank":381,"kind_detail":"trunk","source":"openstreetmap.org","min_zoom":8.0,"landuse_kind":"residential","shield_text":"280","ref":"\u0410-280"},"arcs":[[369],[370]]},{"type":"MultiLineString","properties":{"source":"openstreetmap.org","kind":"ferry","name":"\u0420\u043e\u0441\u0442\u043e\u0432-\u043d\u0430-\u0414\u043e\u043d\u0443 - \u0410\u0437\u043e\u0432 (\u0414\u043e\u043d\u0422\u0443\u0440)","sort_rank":355,"landuse_kind":"urban_area","min_zoom":8.0},"arcs":[[371],[372],[373]]},{"type":"MultiLineString","properties":{"bus_network":"\u0412\u043e\u043b\u0433\u043e\u0433\u0440\u0430\u0434 - \u0420\u043e\u0441\u0442\u043e\u0432-\u043d\u0430-\u0414\u043e\u043d\u0443","network":"e-road","sort_rank":381,"kind_detail":"trunk","kind":"major_road","source":"openstreetmap.org","min_zoom":8.0,"bus_shield_text":"335","shield_text":"115","ref":"\u041c-4"},"arcs":[[374],[375]]},{"type":"LineString","properties":{"kind":"major_road","network":"e-road","sort_rank":381,"kind_detail":"trunk","source":"openstreetmap.org","min_zoom":8.0,"landuse_kind":"aerodrome","shield_text":null,"ref":"\u0410-135","id":35459487},"arcs":[376]},{"type":"MultiLineString","properties":{"sort_rank":380,"kind_detail":"primary","min_zoom":8.0,"kind":"major_road","source":"openstreetmap.org"},"arcs":[[377],[378],[379],[380],[381],[382],[383],[384],[385],[386],[387],[388],[389],[390],[391],[392],[393],[394],[395],[396],[397],[398],[399],[400],[401]]},{"type":"MultiLineString","properties":{"kind":"major_road","network":"ru:regional","sort_rank":380,"kind_detail":"primary","source":"openstreetmap.org","min_zoom":8.0,"shield_text":"60\u041a","ref":"60\u041a-10"},"arcs":[[402],[403]]},{"type":"LineString","properties":{"kind":"major_road","name:en":"Khabarova Street","sort_rank":380,"kind_detail":"primary","bus_network":null,"name:de":"uliza Chabarowa","source":"openstreetmap.org","min_zoom":8.0,"bus_shield_text":"10","landuse_kind":"urban_area","id":66654262},"arcs":[404]},{"type":"LineString","properties":{"kind":"major_road","name:en":"Tupikovaya Street","network":"ru:regional","sort_rank":380,"kind_detail":"primary","name:de":"Tupikowaja uliza","source":"openstreetmap.org","min_zoom":8.0,"landuse_kind":"urban_area","shield_text":"60\u041a","ref":"60\u041a-8","id":525140813},"arcs":[405]},{"type":"MultiLineString","properties":{"kind":"major_road","network":"e-road","sort_rank":381,"landuse_kind":"urban_area","source":"openstreetmap.org","min_zoom":8.0,"kind_detail":"trunk","shield_text":null},"arcs":[[406],[407],[408],[409],[410],[411],[412],[413],[414],[415],[416]]},{"type":"LineString","properties":{"kind":"major_road","network":"e-road","sort_rank":381,"kind_detail":"trunk","source":"openstreetmap.org","min_zoom":8.0,"shield_text":null,"ref":"\u041c-4","id":210507245},"arcs":[417]},{"type":"MultiLineString","properties":{"kind":"major_road","name:en":"Oktyabrskaya Street","network":"ru:regional","sort_rank":380,"kind_detail":"primary","source":"openstreetmap.org","min_zoom":8.0,"name:uk":"\u0416\u043e\u0432\u0442\u043d\u0435\u0432\u0430 \u0432\u0443\u043b\u0438\u0446\u044f","shield_text":"60\u041a","ref":"60\u041a-13"},"arcs":[[418],[419]]},{"type":"LineString","properties":{"kind":"major_road","network":"ru:national","sort_rank":381,"kind_detail":"trunk","source":"openstreetmap.org","min_zoom":8.0,"name:uk":"\u041c-4 \"\u0414\u043e\u043d\" - \u041d\u043e\u0432\u043e\u0448\u0430\u0445\u0442\u0438\u043d\u0441\u044c\u043a - \u0423\u043a\u0440\u0430\u0457\u043d\u0430","old_name":"\u041d\u043e\u0432\u043e\u0448\u0430\u0445\u0442\u0438\u043d\u0441\u043a \u2013 \u041c\u0430\u0439\u0441\u043a\u0438\u0439","shield_text":"270","landuse_kind":"urban_area","ref":"\u0410-270","id":142044866},"arcs":[420]},{"type":"LineString","properties":{"kind":"major_road","sort_rank":381,"kind_detail":"trunk","bus_network":null,"source":"openstreetmap.org","min_zoom":8.0,"bus_shield_text":"94","landuse_kind":"urban_area","id":209362638},"arcs":[421]},{"type":"MultiLineString","properties":{"kind":"major_road","name:en":"Mayakovskogo Street","sort_rank":380,"kind_detail":"primary","name:de":"uliza Majakowskogo","source":"openstreetmap.org","min_zoom":8.0,"landuse_kind":"residential"},"arcs":[[422],[423]]},{"type":"LineString","properties":{"bus_network":"\u0420\u043e\u0441\u0442\u043e\u0432-\u043d\u0430-\u0414\u043e\u043d\u0443","name:en":"Sheboldaeva Street","sort_rank":380,"landuse_kind":"urban_area","kind":"major_road","source":"openstreetmap.org","min_zoom":8.0,"bus_shield_text":"14","kind_detail":"primary"},"arcs":[424]},{"type":"LineString","properties":{"kind":"major_road","name:en":"Shkolnaya Street","network":"ru:regional","sort_rank":380,"kind_detail":"primary","name:de":"Schkolnaja uliza","source":"openstreetmap.org","min_zoom":8.0,"name:uk":"\u0428\u043a\u0456\u043b\u044c\u043d\u0430 \u0432\u0443\u043b\u0438\u0446\u044f","landuse_kind":"urban_area","shield_text":"60\u041d","ref":"60\u041d-248","id":107160254},"arcs":[425]},{"type":"LineString","properties":{"kind":"major_road","name:en":"Karla Marksa Street","sort_rank":380,"kind_detail":"primary","name:de":"uliza Karla Marksa","source":"openstreetmap.org","min_zoom":8.0,"landuse_kind":"residential","id":355750889},"arcs":[426]},{"type":"MultiLineString","properties":{"bus_network":null,"network":"e-road","sort_rank":381,"kind_detail":"trunk","kind":"major_road","source":"openstreetmap.org","min_zoom":8.0,"bus_shield_text":"85","shield_text":"50","landuse_kind":"urban_area","ref":"\u041c-4"},"arcs":[[427],[428]]},{"type":"LineString","properties":{"source":"openstreetmap.org","kind":"major_road","old_name":"\u0414\u0435\u0441\u044f\u0442\u0430\u044f \u0443\u043b\u0438\u0446\u0430","sort_rank":380,"kind_detail":"primary","landuse_kind":"urban_area","min_zoom":8.0},"arcs":[429]},{"type":"LineString","properties":{"bus_network":null,"name:en":"Dnepropetrovskaya Street","sort_rank":380,"landuse_kind":"urban_area","kind":"major_road","name:de":"Dnepropetrowskaja uliza","source":"openstreetmap.org","min_zoom":8.0,"name:uk":"\u0414\u043d\u0456\u043f\u0440\u043e\u043f\u0435\u0442\u0440\u043e\u0432\u0441\u044c\u043a\u0430 \u0432\u0443\u043b\u0438\u0446\u044f","bus_shield_text":"95","kind_detail":"primary"},"arcs":[430]},{"type":"MultiLineString","properties":{"source":"openstreetmap.org","kind":"major_road","landuse_kind":"urban_area","sort_rank":380,"kind_detail":"primary","is_bicycle_related":true,"min_zoom":8.0},"arcs":[[431],[432]]},{"type":"MultiLineString","properties":{"bus_network":null,"sort_rank":380,"kind_detail":"primary","kind":"major_road","source":"openstreetmap.org","min_zoom":8.0,"bus_shield_text":"85","landuse_kind":"urban_area"},"arcs":[[433],[434],[435],[436],[437]]},{"type":"MultiLineString","properties":{"bus_network":null,"int_name":"Sovetskaya Street","sort_rank":380,"kind_detail":"primary","kind":"major_road","name:de":"Sowetskaja uliza","source":"openstreetmap.org","min_zoom":8.0,"name:en":"Sovetskaya Street","name:uk":"\u0420\u0430\u0434\u044f\u043d\u0441\u044c\u043a\u0430 \u0432\u0443\u043b\u0438\u0446\u044f","bus_shield_text":"10","landuse_kind":"residential"},"arcs":[[438],[439],[440],[441],[442]]},{"type":"MultiLineString","properties":{"kind":"major_road","network":"ru:regional","sort_rank":380,"kind_detail":"primary","source":"openstreetmap.org","min_zoom":8.0,"shield_text":"60\u041a","ref":"60\u041a-13"},"arcs":[[443],[444],[445],[446],[447],[448]]},{"type":"MultiLineString","properties":{"source":"openstreetmap.org","kind":"major_road","kind_detail":"trunk","sort_rank":381,"landuse_kind":"urban_area","min_zoom":8.0},"arcs":[[449],[450],[451],[452]]},{"type":"LineString","properties":{"bus_network":null,"name:en":"Mayakovskogo Street","sort_rank":380,"kind_detail":"primary","kind":"major_road","name:de":"uliza Majakowskogo","source":"openstreetmap.org","min_zoom":8.0,"bus_shield_text":"10","landuse_kind":"residential"},"arcs":[453]},{"type":"MultiLineString","properties":{"kind":"major_road","network":null,"sort_rank":380,"kind_detail":"primary","source":"openstreetmap.org","min_zoom":8.0,"landuse_kind":"urban_area","shield_text":"135","ref":"\u0410-135"},"arcs":[[454],[455],[456],[457]]},{"type":"LineString","properties":{"kind":"major_road","name:en":"Pobeda Revolyutsii Avenue","sort_rank":380,"kind_detail":"primary","name:de":"prospekt Pobeda Revoljuzii","source":"openstreetmap.org","min_zoom":8.0,"landuse_kind":"residential","id":66661552},"arcs":[458]},{"type":"MultiLineString","properties":{"kind":"major_road","network":"ru:national","sort_rank":381,"landuse_kind":"urban_area","source":"openstreetmap.org","min_zoom":8.0,"old_name":"\u041d\u043e\u0432\u043e\u0448\u0430\u0445\u0442\u0438\u043d\u0441\u043a \u2013 \u041c\u0430\u0439\u0441\u043a\u0438\u0439","shield_text":"270","kind_detail":"trunk","ref":"\u0410-270"},"arcs":[[459],[460],[461],[462],[463],[464],[465],[466]]},{"type":"LineString","properties":{"kind":"major_road","name:en":"Krasnoarmeyskaya Street","network":"ru:regional","sort_rank":380,"kind_detail":"primary","name:de":"uliza Krasnoarmeiskaja","source":"openstreetmap.org","min_zoom":8.0,"landuse_kind":"residential","shield_text":"60\u041a","ref":"60\u041a-220","id":87256292},"arcs":[467]},{"type":"MultiLineString","properties":{"bus_network":null,"name:en":"Sholokhova Street","sort_rank":380,"kind_detail":"primary","kind":"major_road","name:de":"prospekt Scholochowa","source":"openstreetmap.org","min_zoom":8.0,"bus_shield_text":"9","landuse_kind":"urban_area"},"arcs":[[468],[469],[470],[471]]},{"type":"MultiLineString","properties":{"kind":"major_road","name:en":"Donskoy Lane","sort_rank":380,"landuse_kind":"urban_area","name:de":"Donskoi pereulok","source":"openstreetmap.org","min_zoom":8.0,"kind_detail":"primary"},"arcs":[[472],[473]]},{"type":"MultiLineString","properties":{"bus_network":null,"sort_rank":380,"kind_detail":"primary","kind":"major_road","source":"openstreetmap.org","min_zoom":8.0,"bus_shield_text":"6","landuse_kind":"urban_area"},"arcs":[[474],[475],[476],[477],[478],[479]]},{"type":"MultiLineString","properties":{"kind":"major_road","network":"ru:regional","sort_rank":380,"kind_detail":"primary","source":"openstreetmap.org","min_zoom":8.0,"landuse_kind":"residential","shield_text":"60\u041a","ref":"60\u041a-220"},"arcs":[[480],[481]]},{"type":"LineString","properties":{"kind":"major_road","name:en":"Madoyana Street","sort_rank":380,"kind_detail":"primary","name:de":"uliza Madojana","source":"openstreetmap.org","min_zoom":8.0,"landuse_kind":"urban_area"},"arcs":[482]},{"type":"MultiLineString","properties":{"kind":"major_road","network":"e-road","sort_rank":381,"landuse_kind":"urban_area","source":"openstreetmap.org","min_zoom":8.0,"kind_detail":"trunk","shield_text":"50","ref":"\u041c-4"},"arcs":[[483],[484],[485],[486],[487],[488],[489],[490],[491],[492]]},{"type":"MultiLineString","properties":{"source":"openstreetmap.org","kind":"major_road","landuse_kind":"residential","sort_rank":380,"kind_detail":"primary","min_zoom":8.0},"arcs":[[493],[494],[495],[496],[497],[498],[499],[500],[501],[502],[503],[504]]},{"type":"MultiLineString","properties":{"source":"openstreetmap.org","kind":"major_road","sort_rank":381,"kind_detail":"trunk","ref":"\u041c-4","min_zoom":8.0},"arcs":[[505],[506],[507]]},{"type":"MultiLineString","properties":{"bus_network":null,"sort_rank":380,"kind_detail":"primary","kind":"major_road","source":"openstreetmap.org","min_zoom":8.0,"bus_shield_text":"95","landuse_kind":"urban_area"},"arcs":[[508],[509],[510],[511],[512],[513],[514],[515],[516],[517],[518],[519]]},{"type":"LineString","properties":{"bus_network":"\u0420\u043e\u0441\u0442\u043e\u0432-\u043d\u0430-\u0414\u043e\u043d\u0443","sort_rank":380,"landuse_kind":"urban_area","bus_shield_text":"14","kind":"major_road","source":"openstreetmap.org","min_zoom":8.0,"old_name":"\u0422\u0430\u0433\u0430\u043d\u0440\u043e\u0433\u0441\u043a\u0438\u0439 \u043f\u0440\u043e\u0441\u043f\u0435\u043a\u0442","kind_detail":"primary"},"arcs":[520]},{"type":"MultiLineString","properties":{"bus_network":null,"sort_rank":380,"kind_detail":"primary","kind":"major_road","source":"openstreetmap.org","min_zoom":8.0,"bus_shield_text":"96","landuse_kind":"urban_area"},"arcs":[[521],[522],[523],[524],[525],[526]]},{"type":"MultiLineString","properties":{"bus_network":null,"sort_rank":380,"kind_detail":"primary","bus_shield_text":"101","kind":"major_road","source":"openstreetmap.org","min_zoom":8.0,"old_name":"\u0411\u043e\u043b\u044c\u0448\u043e\u0439 \u043f\u0440\u043e\u0441\u043f\u0435\u043a\u0442;\u0411\u043e\u043b\u044c\u0448\u043e\u0439 \u0421\u0442\u043e\u043b\u044b\u043f\u0438\u043d\u0441\u043a\u0438\u0439 \u043f\u0440\u043e\u0441\u043f\u0435\u043a\u0442","landuse_kind":"urban_area"},"arcs":[[527],[528]]},{"type":"MultiLineString","properties":{"source":"openstreetmap.org","kind":"major_road","old_name":"\u0411\u043e\u043b\u044c\u0448\u043e\u0439 \u043f\u0440\u043e\u0441\u043f\u0435\u043a\u0442;\u0411\u043e\u043b\u044c\u0448\u043e\u0439 \u0421\u0442\u043e\u043b\u044b\u043f\u0438\u043d\u0441\u043a\u0438\u0439 \u043f\u0440\u043e\u0441\u043f\u0435\u043a\u0442","sort_rank":380,"kind_detail":"primary","landuse_kind":"urban_area","min_zoom":8.0},"arcs":[[529],[530]]},{"type":"LineString","properties":{"kind":"major_road","sort_rank":380,"kind_detail":"primary","bus_network":null,"source":"openstreetmap.org","min_zoom":8.0,"bus_shield_text":"74","landuse_kind":"residential","id":363803897},"arcs":[531]},{"type":"MultiLineString","properties":{"bus_network":null,"sort_rank":380,"kind_detail":"primary","kind":"major_road","source":"openstreetmap.org","min_zoom":8.0,"bus_shield_text":"9","landuse_kind":"urban_area"},"arcs":[[532],[533],[534],[535],[536]]},{"type":"MultiLineString","properties":{"kind":"major_road","network":"e-road","sort_rank":381,"landuse_kind":"urban_area","source":"openstreetmap.org","min_zoom":8.0,"kind_detail":"trunk","shield_text":"58"},"arcs":[[537],[538]]},{"type":"MultiLineString","properties":{"kind":"major_road","network":"ru:regional","sort_rank":380,"kind_detail":"primary","source":"openstreetmap.org","min_zoom":8.0,"shield_text":"60\u041d","ref":"60\u041d-221"},"arcs":[[539],[540]]},{"type":"LineString","properties":{"kind":"major_road","sort_rank":380,"kind_detail":"primary","bus_network":null,"source":"openstreetmap.org","min_zoom":8.0,"bus_shield_text":"56","landuse_kind":"urban_area","id":378363550},"arcs":[541]},{"type":"LineString","properties":{"kind":"major_road","sort_rank":380,"kind_detail":"primary","bus_network":null,"source":"openstreetmap.org","min_zoom":8.0,"bus_shield_text":"56","landuse_kind":"residential","id":378174176},"arcs":[542]},{"type":"MultiLineString","properties":{"source":"openstreetmap.org","kind":"major_road","sort_rank":380,"kind_detail":"primary","ref":"60\u041a-5","min_zoom":8.0},"arcs":[[543],[544],[545],[546],[547],[548],[549],[550],[551]]},{"type":"MultiLineString","properties":{"kind":"major_road","network":"e-road","sort_rank":381,"kind_detail":"trunk","source":"openstreetmap.org","min_zoom":8.0,"landuse_kind":"residential","shield_text":"50","ref":"\u041c-4"},"arcs":[[552],[553],[554]]},{"type":"MultiLineString","properties":{"bus_network":null,"network":"e-road","sort_rank":381,"kind_detail":"trunk","kind":"major_road","source":"openstreetmap.org","min_zoom":8.0,"bus_shield_text":"94","shield_text":"58","landuse_kind":"urban_area"},"arcs":[[555],[556],[557]]},{"type":"MultiLineString","properties":{"bus_network":null,"sort_rank":380,"kind_detail":"primary","kind":"major_road","source":"openstreetmap.org","min_zoom":8.0,"bus_shield_text":"1","landuse_kind":"urban_area"},"arcs":[[558],[559],[560],[561],[562],[563]]},{"type":"MultiLineString","properties":{"kind":"major_road","name:en":"Ionova Street","sort_rank":380,"kind_detail":"primary","name:de":"uliza Ionowa","source":"openstreetmap.org","min_zoom":8.0,"landuse_kind":"urban_area"},"arcs":[[564],[565]]},{"type":"MultiLineString","properties":{"kind":"major_road","name:en":"Rostov-on-Don \u2014 Novoshakhtinsk","network":"ru:regional","sort_rank":380,"kind_detail":"primary","name:de":"Rostow-am-Don \u2014 Nowoschachtinsk","source":"openstreetmap.org","min_zoom":8.0,"landuse_kind":"urban_area","shield_text":"60\u041a","ref":"60\u041a-8"},"arcs":[[566],[567],[568]]},{"type":"MultiLineString","properties":{"kind":"major_road","network":"ru:national","sort_rank":381,"kind_detail":"trunk","source":"openstreetmap.org","min_zoom":8.0,"shield_text":"280","ref":"\u0410-280"},"arcs":[[569],[570],[571],[572]]},{"type":"MultiLineString","properties":{"bus_network":null,"sort_rank":380,"kind_detail":"primary","kind":"major_road","source":"openstreetmap.org","min_zoom":8.0,"bus_shield_text":"42a","landuse_kind":"urban_area"},"arcs":[[573],[574],[575],[576],[577]]},{"type":"LineString","properties":{"bus_network":"\u041c\u043e\u0441\u043a\u0432\u0430 - \u041a\u0440\u0430\u0441\u043d\u043e\u0434\u0430\u0440","network":"e-road","sort_rank":381,"landuse_kind":"residential","kind":"major_road","source":"openstreetmap.org","min_zoom":8.0,"bus_shield_text":"401","shield_text":"50","kind_detail":"trunk","ref":"\u041c-4"},"arcs":[578]},{"type":"LineString","properties":{"kind":"major_road","name:en":"Gressovskaya Street","sort_rank":380,"kind_detail":"primary","name:de":"Gressowskaja uliza","source":"openstreetmap.org","min_zoom":8.0,"landuse_kind":"urban_area","id":238501020},"arcs":[579]},{"type":"MultiLineString","properties":{"bus_network":null,"sort_rank":380,"landuse_kind":"urban_area","old_name":"\u0447\u0435\u0440\u0442\u0430 \u0433\u043e\u0440\u043e\u0434\u0441\u043a\u043e\u0433\u043e \u043f\u043e\u0441\u0435\u043b\u0435\u043d\u0438\u044f \u043f\u043e \u043f\u043b\u0430\u043d\u0443 \u0443\u0442\u0432\u0435\u0440\u0436\u0434\u0451\u043d\u043d\u043e\u043c\u0443 \u0432 1886 \u0433\u043e\u0434\u0443","kind":"major_road","source":"openstreetmap.org","min_zoom":8.0,"bus_shield_text":"6","kind_detail":"primary"},"arcs":[[580],[581]]},{"type":"MultiLineString","properties":{"bus_network":null,"network":null,"sort_rank":380,"kind_detail":"primary","kind":"major_road","source":"openstreetmap.org","min_zoom":8.0,"bus_shield_text":"52","shield_text":"135","landuse_kind":"urban_area","ref":"\u0410-135"},"arcs":[[582],[583]]},{"type":"LineString","properties":{"kind":"major_road","name:en":"Oktyabrskaya Street","network":"ru:regional","sort_rank":380,"kind_detail":"primary","source":"openstreetmap.org","min_zoom":8.0,"name:uk":"\u0416\u043e\u0432\u0442\u043d\u0435\u0432\u0430 \u0432\u0443\u043b\u0438\u0446\u044f","landuse_kind":"residential","shield_text":"60\u041a","ref":"60\u041a-13"},"arcs":[584]},{"type":"MultiLineString","properties":{"bus_network":null,"network":"e-road","sort_rank":381,"landuse_kind":"urban_area","kind":"major_road","source":"openstreetmap.org","min_zoom":8.0,"bus_shield_text":"32","shield_text":null,"kind_detail":"trunk"},"arcs":[[585],[586]]},{"type":"MultiLineString","properties":{"source":"openstreetmap.org","kind":"major_road","name:en":"Dovatora Street","landuse_kind":"urban_area","sort_rank":380,"kind_detail":"primary","min_zoom":8.0},"arcs":[[587],[588],[589]]},{"type":"MultiLineString","properties":{"kind":"major_road","network":"ru:regional","sort_rank":380,"kind_detail":"primary","source":"openstreetmap.org","min_zoom":8.0,"shield_text":"60\u041a","ref":"60\u041a-59"},"arcs":[[590],[591]]},{"type":"MultiLineString","properties":{"kind":"major_road","network":"e-road","sort_rank":381,"landuse_kind":"urban_area","source":"openstreetmap.org","min_zoom":8.0,"kind_detail":"trunk","shield_text":null,"ref":"\u0410-135"},"arcs":[[592],[593],[594],[595],[596]]},{"type":"MultiLineString","properties":{"kind":"major_road","name:en":"Demokraticheskaya Street","network":"ru:national","sort_rank":381,"kind_detail":"trunk","name:de":"Demokratitscheskaja uliza","source":"openstreetmap.org","min_zoom":8.0,"name:uk":"\u0414\u0435\u043c\u043e\u043a\u0440\u0430\u0442\u0438\u0447\u043d\u0430 \u0432\u0443\u043b\u0438\u0446\u044f","old_name":"\u041d\u043e\u0432\u043e\u0448\u0430\u0445\u0442\u0438\u043d\u0441\u043a \u2013 \u041c\u0430\u0439\u0441\u043a\u0438\u0439","shield_text":"270","landuse_kind":"urban_area","ref":"\u0410-270","id":180156939},"arcs":[[597],[598]]},{"type":"LineString","properties":{"kind":"major_road","network":"ru:regional","sort_rank":380,"kind_detail":"primary","source":"openstreetmap.org","min_zoom":8.0,"shield_text":"60\u041a","ref":"60\u041a-60"},"arcs":[599]},{"type":"LineString","properties":{"source":"openstreetmap.org","kind":"major_road","name:uk":"\u0421\u0445\u0456\u0434\u043d\u0430 \u0432\u0443\u043b\u0438\u0446\u044f","sort_rank":380,"kind_detail":"primary","min_zoom":8.0,"id":86913124},"arcs":[600]},{"type":"MultiLineString","properties":{"bus_network":null,"int_name":"Sovetskaya Street","sort_rank":380,"kind_detail":"primary","kind":"major_road","name:de":"Sowetskaja uliza","source":"openstreetmap.org","min_zoom":8.0,"name:en":"Sovetskaya Street","name:uk":"\u0420\u0430\u0434\u044f\u043d\u0441\u044c\u043a\u0430 \u0432\u0443\u043b\u0438\u0446\u044f","bus_shield_text":"10","landuse_kind":"urban_area"},"arcs":[[601],[602],[603]]},{"type":"MultiLineString","properties":{"source":"openstreetmap.org","kind":"major_road","network":"e-road","sort_rank":381,"kind_detail":"trunk","min_zoom":8.0,"shield_text":null},"arcs":[[604],[605]]},{"type":"MultiLineString","properties":{"bus_network":null,"network":null,"sort_rank":380,"kind_detail":"primary","kind":"major_road","source":"openstreetmap.org","min_zoom":8.0,"bus_shield_text":"101","shield_text":"135","landuse_kind":"urban_area","ref":"\u0410-135"},"arcs":[[606],[607]]},{"type":"LineString","properties":{"kind":"major_road","name:en":"Rostov-on-Don \u2014 Volgodonsk","network":"ru:regional","sort_rank":380,"kind_detail":"primary","name:de":"Rostow am Don \u2014 Wolgodonsk","source":"openstreetmap.org","min_zoom":8.0,"shield_text":"60\u041a","ref":"60\u041a-4.1","id":116479960},"arcs":[608]},{"type":"MultiLineString","properties":{"bus_network":null,"sort_rank":380,"kind_detail":"primary","kind":"major_road","source":"openstreetmap.org","min_zoom":8.0,"bus_shield_text":"14","landuse_kind":"urban_area"},"arcs":[[609],[610],[611],[612]]},{"type":"MultiLineString","properties":{"kind":"major_road","network":"e-road","sort_rank":381,"kind_detail":"trunk","source":"openstreetmap.org","min_zoom":8.0,"shield_text":"50","ref":"\u041c-03"},"arcs":[[613],[614],[615],[616],[617],[618],[619]]},{"type":"LineString","properties":{"source":"openstreetmap.org","kind":"major_road","sort_rank":380,"kind_detail":"primary","ref":"60\u041a-11","min_zoom":8.0,"id":261569926},"arcs":[620]},{"type":"MultiLineString","properties":{"bus_network":null,"sort_rank":380,"kind_detail":"primary","kind":"major_road","source":"openstreetmap.org","min_zoom":8.0,"bus_shield_text":"2","landuse_kind":"urban_area"},"arcs":[[621],[622],[623],[624],[625],[626],[627]]},{"type":"LineString","properties":{"kind":"major_road","name:en":"Mayakovskogo Street","sort_rank":380,"kind_detail":"primary","bus_network":null,"name:de":"uliza Majakowskogo","source":"openstreetmap.org","min_zoom":8.0,"bus_shield_text":"57","landuse_kind":"residential","id":378174174},"arcs":[628]},{"type":"LineString","properties":{"kind":"major_road","name:en":"Shakhty - Tsimlyansk","network":"ru:regional","sort_rank":380,"kind_detail":"primary","name:de":"Schachty - Zimljansk","source":"openstreetmap.org","min_zoom":8.0,"shield_text":"60\u041a","ref":"60\u041a-10"},"arcs":[629]},{"type":"LineString","properties":{"kind":"major_road","name:en":"Pobeda Revolyutsii Avenue","sort_rank":380,"kind_detail":"primary","name:de":"prospekt Pobeda Revoljuzii","source":"openstreetmap.org","min_zoom":8.0,"landuse_kind":"urban_area"},"arcs":[630]},{"type":"MultiLineString","properties":{"kind":"major_road","name:en":"Kharkovskaya Street","network":"ru:national","sort_rank":381,"landuse_kind":"urban_area","name:de":"Charkowskaja uliza","source":"openstreetmap.org","min_zoom":8.0,"name:uk":"\u0425\u0430\u0440\u043a\u0456\u0432\u0441\u044c\u043a\u0430 \u0432\u0443\u043b\u0438\u0446\u044f","old_name":"\u041d\u043e\u0432\u043e\u0448\u0430\u0445\u0442\u0438\u043d\u0441\u043a \u2013 \u041c\u0430\u0439\u0441\u043a\u0438\u0439","shield_text":"270","kind_detail":"trunk","ref":"\u0410-270"},"arcs":[[631],[632],[633],[634]]},{"type":"MultiLineString","properties":{"bus_network":null,"sort_rank":380,"kind_detail":"primary","kind":"major_road","source":"openstreetmap.org","min_zoom":8.0,"bus_shield_text":"8","landuse_kind":"urban_area"},"arcs":[[635],[636],[637]]},{"type":"MultiLineString","properties":{"kind":"major_road","network":"ru:national","sort_rank":381,"landuse_kind":"urban_area","source":"openstreetmap.org","min_zoom":8.0,"kind_detail":"trunk","shield_text":"280","ref":"\u0410-280"},"arcs":[[638],[639],[640],[641]]},{"type":"LineString","properties":{"kind":"major_road","name:en":"Demokraticheskaya Street","network":"ru:national","sort_rank":381,"kind_detail":"trunk","name:de":"Demokratitscheskaja uliza","source":"openstreetmap.org","min_zoom":8.0,"name:uk":"\u0414\u0435\u043c\u043e\u043a\u0440\u0430\u0442\u0438\u0447\u043d\u0430 \u0432\u0443\u043b\u0438\u0446\u044f","old_name":"\u041d\u043e\u0432\u043e\u0448\u0430\u0445\u0442\u0438\u043d\u0441\u043a \u2013 \u041c\u0430\u0439\u0441\u043a\u0438\u0439","shield_text":"270","landuse_kind":"residential","ref":"\u0410-270","id":180156939},"arcs":[642]},{"type":"MultiLineString","properties":{"kind":"major_road","network":"ru:national","sort_rank":381,"kind_detail":"trunk","source":"openstreetmap.org","min_zoom":8.0,"old_name":"\u041d\u043e\u0432\u043e\u0448\u0430\u0445\u0442\u0438\u043d\u0441\u043a \u2013 \u041c\u0430\u0439\u0441\u043a\u0438\u0439","shield_text":"270"},"arcs":[[643],[644],[645]]},{"type":"LineString","properties":{"bus_network":null,"name:en":"Stadionnaya Street","sort_rank":380,"landuse_kind":"urban_area","kind":"major_road","source":"openstreetmap.org","min_zoom":8.0,"bus_shield_text":"14","kind_detail":"primary"},"arcs":[646]},{"type":"LineString","properties":{"kind":"major_road","name:en":"Michurina Street","network":"ru:regional","sort_rank":380,"kind_detail":"primary","name:de":"uliza Mitschurina","source":"openstreetmap.org","min_zoom":8.0,"name:uk":"\u0432\u0443\u043b\u0438\u0446\u044f \u041c\u0456\u0447\u0443\u0440\u0456\u043d\u0430","landuse_kind":"residential","shield_text":"60\u041a","ref":"60\u041a-8","id":94259533},"arcs":[647]},{"type":"MultiLineString","properties":{"source":"openstreetmap.org","kind":"major_road","old_name":"\u0421\u0442\u0435\u043f\u043d\u0430\u044f \u0443\u043b\u0438\u0446\u0430","sort_rank":380,"kind_detail":"primary","landuse_kind":"urban_area","min_zoom":8.0},"arcs":[[648],[649],[650]]},{"type":"MultiLineString","properties":{"bus_network":null,"sort_rank":380,"kind_detail":"primary","kind":"major_road","source":"openstreetmap.org","min_zoom":8.0,"bus_shield_text":"3","landuse_kind":"urban_area"},"arcs":[[651],[652],[653],[654]]},{"type":"MultiLineString","properties":{"bus_network":null,"int_name":"Sovetskaya Street","sort_rank":380,"landuse_kind":"residential","kind":"major_road","name:de":"Sowetskaja uliza","source":"openstreetmap.org","min_zoom":8.0,"name:en":"Sovetskaya Street","name:uk":"\u0420\u0430\u0434\u044f\u043d\u0441\u044c\u043a\u0430 \u0432\u0443\u043b\u0438\u0446\u044f","bus_shield_text":"57","kind_detail":"primary"},"arcs":[[655],[656]]},{"type":"LineString","properties":{"bus_network":"\u0412\u043e\u043b\u0433\u043e\u0433\u0440\u0430\u0434 - \u0420\u043e\u0441\u0442\u043e\u0432-\u043d\u0430-\u0414\u043e\u043d\u0443","network":"e-road","sort_rank":381,"kind_detail":"trunk","kind":"major_road","source":"openstreetmap.org","min_zoom":8.0,"bus_shield_text":"335","shield_text":"50","ref":"\u041c-4"},"arcs":[657]},{"type":"LineString","properties":{"kind":"major_road","network":"ru:regional","sort_rank":380,"kind_detail":"primary","source":"openstreetmap.org","min_zoom":8.0,"shield_text":"60\u041a","ref":"60\u041a-76"},"arcs":[658]},{"type":"MultiLineString","properties":{"bus_network":null,"sort_rank":380,"kind_detail":"primary","bus_shield_text":"5","kind":"major_road","source":"openstreetmap.org","min_zoom":8.0,"old_name":"\u0421\u043a\u043e\u0431\u0435\u043b\u0435\u0432\u0441\u043a\u0430\u044f \u0443\u043b\u0438\u0446\u0430","landuse_kind":"urban_area"},"arcs":[[659],[660]]},{"type":"MultiLineString","properties":{"bus_network":null,"sort_rank":380,"kind_detail":"primary","kind":"major_road","source":"openstreetmap.org","min_zoom":8.0,"bus_shield_text":"54","landuse_kind":"urban_area"},"arcs":[[661],[662],[663]]},{"type":"LineString","properties":{"kind":"major_road","network":"ru:regional","sort_rank":380,"kind_detail":"primary","source":"openstreetmap.org","min_zoom":8.0,"landuse_kind":"residential","shield_text":"60\u041a","ref":"60\u041a-8"},"arcs":[664]},{"type":"LineString","properties":{"source":"openstreetmap.org","kind":"ferry","name":"\u0420\u043e\u0441\u0442\u043e\u0432-\u043d\u0430-\u0414\u043e\u043d\u0443 - \u0421\u0442\u0430\u0440\u043e\u0447\u0435\u0440\u043a\u0430\u0441\u0441\u043a (\u0414\u043e\u043d\u0422\u0443\u0440)","sort_rank":355,"landuse_kind":"urban_area","min_zoom":8.0,"id":382743609},"arcs":[665]}]},"earth":{"type":"GeometryCollection","geometries":[{"type":"Polygon","properties":{"sort_rank":10,"source":"naturalearthdata.com","kind":"earth","min_zoom":0.0,"id":4756},"arcs":[[666]]}]},"landuse":{"type":"GeometryCollection","geometries":[{"type":"Polygon","properties":{"kind":"aerodrome","name:en":"Bataysk Air Base","name":"\u0410\u044d\u0440\u043e\u0434\u0440\u043e\u043c \u0411\u0430\u0442\u0430\u0439\u0441\u043a","area":17465400,"sort_rank":60,"source":"openstreetmap.org","min_zoom":8.0,"tier":3,"id":251614687},"arcs":[[667]]},{"type":"Polygon","properties":{"kind":"nature_reserve","area":24568500,"sort_rank":23,"operator":"\u0413\u0411\u0423 \u0420\u041e \u00ab\u0414\u0438\u0440\u0435\u043a\u0446\u0438\u044f \u043e\u0441\u043e\u0431\u043e \u043e\u0445\u0440\u0430\u043d\u044f\u0435\u043c\u044b\u0445 \u043f\u0440\u0438\u0440\u043e\u0434\u043d\u044b\u0445 \u0442\u0435\u0440\u0440\u0438\u0442\u043e\u0440\u0438\u0439 \u043e\u0431\u043b\u0430\u0441\u0442\u043d\u043e\u0433\u043e \u0437\u043d\u0430\u0447\u0435\u043d\u0438\u044f\u00bb","source":"openstreetmap.org","min_zoom":8.0,"tier":2,"id":-7781377,"osm_relation":true},"arcs":[[668]]},{"type":"MultiPolygon","properties":{"kind":"nature_reserve","protect_class":"5","area":63286976,"sort_rank":23,"operator":"\u0413\u043e\u0441\u0443\u0434\u0430\u0440\u0441\u0442\u0432\u0435\u043d\u043d\u043e\u0435 \u0431\u044e\u0434\u0436\u0435\u0442\u043d\u043e\u0435 \u0443\u0447\u0440\u0435\u0436\u0434\u0435\u043d\u0438\u0435 \u0420\u043e\u0441\u0442\u043e\u0432\u0441\u043a\u043e\u0439 \u043e\u0431\u043b\u0430\u0441\u0442\u0438 \"\u0414\u0438\u0440\u0435\u043a\u0446\u0438\u044f \u043e\u0441\u043e\u0431\u043e \u043e\u0445\u0440\u0430\u043d\u044f\u0435\u043c\u044b\u0445 \u043f\u0440\u0438\u0440\u043e\u0434\u043d\u044b\u0445 \u0442\u0435\u0440\u0440\u0438\u0442\u043e\u0440\u0438\u0439 \u043e\u0431\u043b\u0430\u0441\u0442\u043d\u043e\u0433\u043e \u0437\u043d\u0430\u0447\u0435\u043d\u0438\u044f\"","source":"openstreetmap.org","min_zoom":8.0,"tier":2,"osm_relation":true},"arcs":[[[669]]]},{"type":"MultiPolygon","properties":{"source":"openstreetmap.org","kind":"aerodrome","tier":3,"area":26466239,"sort_rank":60,"min_zoom":8.0},"arcs":[[[670]],[[671]]]},{"type":"Polygon","properties":{"source":"openstreetmap.org","kind":"military","area":135579008,"tier":3,"id":362270800,"min_zoom":8.0,"sort_rank":45},"arcs":[[672]]},{"type":"MultiPolygon","properties":{"source":"naturalearthdata.com","kind":"urban_area","name":"","area":4765133586,"sort_rank":11,"min_zoom":4.0},"arcs":[[[673]],[[674]],[[675]],[[676]],[[677]],[[678]],[[679]],[[680]],[[681]]]},{"type":"MultiPolygon","properties":{"source":"openstreetmap.org","kind":"protected_area","tier":2,"area":195942001,"sort_rank":17,"min_zoom":8.0,"osm_relation":true},"arcs":[[[682]],[[683]]]},{"type":"Polygon","properties":{"kind":"residential","name:en":"Melikhovskaya","name":"\u041c\u0435\u043b\u0438\u0445\u043e\u0432\u0441\u043a\u0430\u044f","area":10203900,"sort_rank":20,"source":"openstreetmap.org","min_zoom":8.0,"tier":2,"id":181648809},"arcs":[[684]]},{"type":"MultiPolygon","properties":{"source":"openstreetmap.org","kind":"residential","tier":2,"area":518515912,"sort_rank":20,"min_zoom":8.0},"arcs":[[[685]],[[686]],[[687]],[[688]],[[689]],[[690]],[[691]],[[692]],[[693]],[[694]],[[695]],[[696]],[[697]],[[698]],[[699]],[[700]]]},{"type":"Polygon","properties":{"kind":"residential","name":"\u041e\u043b\u044c\u0433\u0438\u043d\u0441\u043a\u0430\u044f","area":10812800,"sort_rank":20,"source":"openstreetmap.org","min_zoom":8.0,"tier":2,"id":59365663},"arcs":[[701]]},{"type":"MultiPolygon","properties":{"source":"openstreetmap.org","kind":"protected_area","tier":2,"area":449033217,"sort_rank":17,"min_zoom":6.0,"osm_relation":true},"arcs":[[[702]]]},{"type":"MultiPolygon","properties":{"source":"openstreetmap.org","kind":"protected_area","tier":2,"area":195193778,"sort_rank":17,"min_zoom":7.0,"osm_relation":true},"arcs":[[[703]],[[704]]]},{"type":"Polygon","properties":{"kind":"residential","name":"\u041a\u0440\u0430\u0441\u044e\u043a\u043e\u0432\u0441\u043a\u0430\u044f","area":12366600,"sort_rank":20,"source":"openstreetmap.org","min_zoom":8.0,"tier":2,"id":189195969},"arcs":[[705]]},{"type":"Polygon","properties":{"kind":"nature_reserve","protect_class":"7","area":184306139,"sort_rank":23,"operator":"\u0413\u0411\u0423 \u0420\u041e \u00ab\u0414\u0438\u0440\u0435\u043a\u0446\u0438\u044f \u043e\u0441\u043e\u0431\u043e \u043e\u0445\u0440\u0430\u043d\u044f\u0435\u043c\u044b\u0445 \u043f\u0440\u0438\u0440\u043e\u0434\u043d\u044b\u0445 \u0442\u0435\u0440\u0440\u0438\u0442\u043e\u0440\u0438\u0439 \u043e\u0431\u043b\u0430\u0441\u0442\u043d\u043e\u0433\u043e \u0437\u043d\u0430\u0447\u0435\u043d\u0438\u044f\u00bb","source":"openstreetmap.org","min_zoom":8.0,"tier":2,"osm_relation":true},"arcs":[[706]]},{"type":"Polygon","properties":{"kind":"residential","name":"\u0413\u0440\u0443\u0448\u0435\u0432\u0441\u043a\u0430\u044f","area":15160200,"sort_rank":20,"source":"openstreetmap.org","min_zoom":8.0,"old_name":"\u0413\u0440\u0443\u0448\u0435\u0432\u0441\u043a\u0438\u0439 \u0441\u0442\u0430\u043d","tier":2,"id":-3153380,"osm_relation":true},"arcs":[[707]]},{"type":"MultiPolygon","properties":{"kind":"nature_reserve","protect_class":"5","area":449033217,"sort_rank":23,"operator":"\u0413\u0411\u0423 \u0420\u041e \"\u0414\u0438\u0440\u0435\u043a\u0446\u0438\u044f \u043e\u0441\u043e\u0431\u043e \u043e\u0445\u0440\u0430\u043d\u044f\u0435\u043c\u044b\u0445 \u043f\u0440\u0438\u0440\u043e\u0434\u043d\u044b\u0445 \u0442\u0435\u0440\u0440\u0438\u0442\u043e\u0440\u0438\u0439 \u043e\u0431\u043b\u0430\u0441\u0442\u043d\u043e\u0433\u043e \u0437\u043d\u0430\u0447\u0435\u043d\u0438\u044f\"","source":"openstreetmap.org","min_zoom":6.0,"tier":2,"osm_relation":true},"arcs":[[[708]]]},{"type":"MultiPolygon","properties":{"kind":"nature_reserve","protect_class":"5","area":93078661,"sort_rank":23,"operator":"\u0413\u043e\u0441\u0443\u0434\u0430\u0440\u0441\u0442\u0432\u0435\u043d\u043d\u043e\u0435 \u0431\u044e\u0434\u0436\u0435\u0442\u043d\u043e\u0435 \u0443\u0447\u0440\u0435\u0436\u0434\u0435\u043d\u0438\u0435 \u0420\u043e\u0441\u0442\u043e\u0432\u0441\u043a\u043e\u0439 \u043e\u0431\u043b\u0430\u0441\u0442\u0438 \"\u0414\u0438\u0440\u0435\u043a\u0446\u0438\u044f \u043e\u0441\u043e\u0431\u043e \u043e\u0445\u0440\u0430\u043d\u044f\u0435\u043c\u044b\u0445 \u043f\u0440\u0438\u0440\u043e\u0434\u043d\u044b\u0445 \u0442\u0435\u0440\u0440\u0438\u0442\u043e\u0440\u0438\u0439 \u043e\u0431\u043b\u0430\u0441\u0442\u043d\u043e\u0433\u043e \u0437\u043d\u0430\u0447\u0435\u043d\u0438\u044f\"","source":"openstreetmap.org","min_zoom":8.0,"tier":2},"arcs":[[[709]]]}]}},"type":"Topology","transform":{"translate":[39.375,47.0401821448],"scale":[0.0003433228,0.00023187]},"arcs":[[[0,3586],[36,-2],[75,-179],[76,45],[-17,18],[19,45],[26,-12],[84,38],[126,-151],[41,30],[22,-33],[67,49],[175,12],[329,-48],[72,79],[0,105],[92,-2],[-4,212],[38,66],[-1,68],[54,21],[-23,35],[18,76],[-23,20],[1,18]],[[1283,4096],[-1,-18],[23,-20],[-18,-76],[23,-35],[-54,-21],[1,-68],[-38,-66],[4,-212],[-92,2],[0,-105],[-72,-79],[-329,48],[-175,-12],[-67,-49],[-22,33],[-41,-30],[-126,151],[-84,-38],[-26,12],[-19,-45],[17,-18],[-76,-45],[-75,179],[-36,2]],[[1070,242],[-154,-242]],[[901,789],[2,-3]],[[917,777],[6,-4]],[[930,766],[10,-15]],[[942,748],[110,-173]],[[1070,242],[35,76],[5,160],[-57,96]],[[787,0],[160,185],[102,23],[56,110],[2,172],[-189,279]],[[937,752],[126,-207],[-135,-55],[56,-96],[0,-193],[-197,-201]],[[894,794],[-37,26],[19,64],[195,-6],[66,55]],[[934,755],[-33,34]],[[1075,879],[26,9],[5,2],[5,3],[11,10],[4,4],[3,6],[13,33]],[[1142,946],[67,-2],[1,-54]],[[2109,1705],[74,-77],[1,-40],[-117,-61],[-122,-235],[-208,-157],[-163,-70],[-91,-130],[-175,-123],[-102,-2],[4,81]],[[2072,4096],[-8,-43],[-35,-41],[2,-57],[-61,-115],[26,-151]],[[898,792],[212,-312],[-2,-184],[-102,-126],[-90,-170]],[[894,794],[-37,36]],[[857,830],[21,55],[108,-4]],[[1137,933],[-54,-52],[-97,0]],[[1075,879],[26,9],[5,2],[16,13],[7,10],[13,33]],[[1142,946],[67,-2],[1,-54]],[[1210,891],[-9,-75],[71,-18],[208,134],[93,132],[164,70],[208,158],[122,235],[118,64],[-3,38],[-160,206],[-7,45],[27,86],[41,36],[243,461],[64,260],[-57,127],[100,193],[-62,55],[13,100],[43,65],[-34,133],[88,93],[-123,78],[-48,2],[-28,48],[-64,9],[-52,-24],[-167,80],[-29,158],[61,115],[-2,57],[35,41],[8,43]],[[0,351],[40,-28],[-40,-25],[0,53]],[[0,351],[40,-28],[-40,-25]],[[2660,2725],[39,-158],[208,-97],[207,-191],[54,0],[5,-31]],[[3173,2246],[242,-236],[78,65],[131,39],[144,316],[4,73],[-36,73]],[[3735,2577],[6,8]],[[3742,2587],[103,117]],[[3845,2704],[2,1]],[[3846,2706],[-1,-2]],[[1146,192],[-3,-4]],[[1143,188],[-30,-41],[-33,-37],[-11,-110]],[[1153,183],[-7,3],[-3,2]],[[1143,188],[-6,4]],[[1161,179],[-2,1]],[[1431,354],[-269,-175]],[[1413,802],[36,-433]],[[857,961],[-48,-9]],[[809,952],[-23,-13],[-15,-3],[38,16]],[[955,1099],[-58,-57],[0,-67],[-40,-14]],[[857,961],[58,-12]],[[937,905],[2,0]],[[994,1050],[-1,0]],[[2203,3031],[74,113],[38,145]],[[1016,738],[1,-4]],[[1018,733],[-2,5]],[[1188,1022],[33,-11]],[[2405,3531],[12,37]],[[2417,3570],[2,8]],[[1524,3243],[-15,11]],[[1066,510],[8,34]],[[1074,546],[-6,-12]],[[256,1054],[13,-2]],[[2429,2842],[17,3]],[[2446,2845],[10,6]],[[2483,2888],[-37,-43]],[[2456,2851],[27,37]],[[2483,2888],[9,11]],[[1061,834]],[[1074,544],[5,5]],[[1904,855],[-78,8],[-61,50],[-135,-65]],[[695,722],[0,-38]],[[2512,2838],[-1,1]],[[2512,2838],[2,-2]],[[2514,2838],[-2,0]],[[748,654],[135,55]],[[1458,379],[71,7]],[[1529,386],[-71,-7]],[[1529,386],[224,8],[65,40],[81,-17],[153,18]],[[2804,886],[47,93],[231,80],[157,-5],[115,61],[239,441],[203,28],[75,69],[109,323]],[[890,817],[4,-13]],[[3736,2576],[-1,1]],[[3741,2585],[1,2]],[[951,835],[10,-32]],[[2363,2883],[0,1]],[[2574,2810],[-1,0]],[[932,746],[-49,-37]],[[2478,2908],[-3,-3]],[[190,1054],[66,0]],[[2180,2200],[200,368]],[[397,1021],[35,62]],[[943,861],[-6,21]],[[946,854],[-1,1]],[[695,740],[56,3]],[[751,743],[118,-7]],[[757,743],[-6,0]],[[2224,2897],[2,0]],[[2335,2888],[9,-1]],[[2514,2836],[1,3]],[[2515,2839],[-1,-1]],[[2515,2839],[20,-6]],[[2590,2795]],[[1532,3240],[-8,3]],[[1049,862],[8,-19]],[[1061,834],[-3,7]],[[2129,2031],[-9,-84]],[[2145,2059],[12,24]],[[2158,2086],[22,114]],[[983,903],[4,-57]],[[988,847],[-4,56]],[[2363,2884]],[[2391,2924],[0,1]],[[983,845],[-32,-10]],[[988,847],[-1,-1]],[[1037,859],[-46,-11]],[[771,936],[-51,12]],[[894,804],[61,18]],[[952,864],[-10,-2]],[[1070,0],[11,112],[57,50]],[[1161,176],[237,154],[31,22],[21,17],[-36,433]],[[1162,179],[-1,0]],[[1428,1186],[10,91],[2,5]],[[1440,1282],[2,7],[7,19],[22,50],[55,59],[17,23],[46,87],[90,17],[26,18]],[[1705,1562],[34,22]],[[1739,1584],[2,1],[4,32]],[[1745,1617],[2,24]],[[1747,1641],[1,5],[-1,75]],[[1746,1721],[1,-55],[0,-5],[0,-20]],[[1747,1641],[0,-9],[-2,-15]],[[1745,1617],[-6,-33]],[[1739,1584],[0,-1],[-34,-21]],[[1705,1562],[-26,-17],[-90,-18],[-117,-167],[-24,-52],[-8,-23],[0,-3]],[[1440,1282],[-12,-96]],[[1449,369],[-18,-15]],[[1734,1940],[12,-214]],[[1747,1726],[-16,579],[89,268],[82,61],[199,239]],[[1375,1056],[-46,-39]],[[1330,1017],[37,28]],[[784,1279],[4,-65]],[[747,660],[-16,7]],[[938,903],[-1,-21]],[[359,1037],[62,-21]],[[1005,2478],[12,27]],[[2115,2862],[113,-90],[132,-174]],[[791,1440],[18,110],[-47,565]],[[784,1279],[2,116]],[[791,1440],[-5,-45]],[[963,2436],[1,0]],[[1058,845],[-8,18]],[[1376,915],[37,-113]],[[1381,1049],[8,-30]],[[1057,843],[4,-9]],[[1139,216],[7,-24]],[[1145,195],[-5,21]],[[1162,176],[1,1]],[[1440,1284],[-2,-6]],[[1731,2126],[1,-2]],[[1739,1861]],[[2102,2870],[7,-4]],[[2109,2866],[-7,5]],[[2109,2866],[6,-4]],[[762,2115],[13,156],[188,165]],[[1427,3200],[29,74]],[[993,813],[11,-36]],[[1005,774],[-11,39]],[[1483,1372]],[[2101,2873],[102,158]],[[2315,3289],[38,152],[52,90]],[[2417,3568],[0,2]],[[2419,3578],[39,129],[-3,336],[22,53]],[[2363,2884],[28,40]],[[258,365],[45,-29],[25,79],[48,30],[129,-17],[23,30]],[[582,560],[88,32]],[[983,907],[0,-4]],[[984,903]],[[993,932],[20,48]],[[1010,979],[-16,-44]],[[4020,1993],[-26,5],[-14,-22],[40,17]],[[4020,1993],[76,-6]],[[1559,3224],[75,-69]],[[1648,3142],[17,-16]],[[1665,3126],[38,-33]],[[1703,3094],[-38,32]],[[1316,3019],[-3,1]],[[1894,1636],[-3,0]],[[1224,925],[-63,34]],[[2399,2727],[-15,-64]],[[939,903],[19,18],[-43,30]],[[951,835],[-5,19]],[[1161,959],[61,-33]],[[1017,2505],[181,365],[108,76],[10,65]],[[1165,175],[245,-175]],[[935,795],[-7,-4],[-5,-5],[-2,-4]],[[922,782],[13,12]],[[1115,866],[-57,-21],[-1,-2]],[[1058,841],[57,24]],[[1313,3021],[7,23]],[[737,647],[0,-1],[1,1]],[[738,647],[8,5]],[[746,652],[2,2]],[[738,646]],[[738,646],[0,1]],[[738,647]],[[748,654],[-2,-2]],[[746,652],[-8,-6]],[[738,646]],[[767,842],[-7,8]],[[767,842],[5,-7]],[[796,807],[-24,28]],[[773,743],[0,-1]],[[812,789],[-16,18]],[[836,802],[-40,5]],[[811,891],[254,-12],[48,18]],[[816,784],[-4,5]],[[812,789],[59,23]],[[838,758],[-8,9]],[[896,1043],[-65,47]],[[871,812],[-31,-4],[-4,-6]],[[837,802],[-1,0]],[[838,739],[1,14]],[[838,758],[1,-2]],[[840,756],[-2,2]],[[839,756],[0,-3]],[[839,753],[1,3]],[[840,756],[-1,0]],[[890,817],[-19,-5]],[[895,954],[5,4]],[[896,1043],[1,-2]],[[897,1042],[-1,1]],[[897,1041],[1,0]],[[897,975],[3,-17]],[[899,1041],[-1,2]],[[900,958],[0,1]],[[900,958]],[[917,946],[1,1]],[[917,789]],[[917,789],[33,-48]],[[950,741],[-20,38],[-13,10]],[[935,910],[4,1]],[[938,909],[-2,-1]],[[946,854],[-2,-1]],[[945,851],[1,1]],[[945,756]],[[947,854],[-1,0]],[[947,853],[0,1]],[[947,854],[4,27],[97,-15]],[[951,835]],[[953,1098],[2,1]],[[984,1101],[-29,0]],[[955,1099],[29,0]],[[958,725],[45,-26]],[[1003,700],[-44,26]],[[985,846],[-1,-2]],[[984,843],[2,-1]],[[985,1099],[1,0]],[[987,843],[-1,3]],[[1002,1007],[-1,-1]],[[1001,1005],[3,1]],[[1009,762],[-1,3]],[[1045,1082],[1,1]],[[1049,865],[-1,-1]],[[1048,866],[0,-2]],[[1049,865],[-1,1]],[[1075,1061],[-26,19]],[[1057,843],[2,0]],[[1060,844],[-1,1]],[[1113,899],[0,-2]],[[1113,897],[2,1]],[[1134,1038],[0,1]],[[1157,959],[1,-1]],[[1157,958],[4,1]],[[1223,928],[-1,0]],[[1223,928],[-1,-1]],[[1222,926],[10,5]],[[1231,932],[-8,-4]],[[1231,930],[-7,-5]],[[1305,997],[0,-1]],[[1382,3147],[55,29]],[[1458,3273],[8,-3]],[[1551,3234],[0,-1]],[[1928,1641],[-34,-5],[23,3]],[[2023,1645],[0,2]],[[2120,1947],[0,-24]],[[2157,2083],[1,3]],[[2174,2897],[50,0]],[[2384,2663],[-3,-9]],[[2406,2770],[19,-16],[-26,-27]],[[2406,2770],[-2,2],[0,-2],[2,0]],[[2442,2938]],[[2476,2909],[1,-2]],[[2483,2910],[0,-1]],[[2484,2910],[-1,0]],[[2483,2908],[1,1]],[[2507,2890],[-1,1],[1,-1]],[[2508,2891],[-1,-1]],[[2508,2890],[0,1]],[[2508,2890],[-1,0]],[[2507,2890],[0,-1],[1,1]],[[2755,3027],[-247,-136]],[[2514,2838],[0,-1]],[[2808,3101],[-27,-48]],[[755,853],[0,-2],[3,0],[-1,2],[-2,0]],[[2615,2778],[38,-24]],[[883,709],[-135,-55]],[[427,1015],[14,-3]],[[994,935],[-11,-28]],[[984,903],[9,29]],[[716,948],[-20,-46],[-1,-77]],[[696,825],[21,123]],[[947,756],[0,-1]],[[1136,875],[1,-2]],[[1305,997],[-24,-24]],[[1282,972],[30,30]],[[1310,1003],[-2,-1]],[[2381,2550],[318,17]],[[695,684],[0,20]],[[2433,2926],[-15,-21]],[[2419,2905],[14,20]],[[2492,2899],[1,2]],[[2226,2897],[40,-16]],[[2320,2890],[15,-2]],[[2344,2887],[2,-1]],[[2349,2887],[-3,-1]],[[2346,2886],[4,0]],[[2535,2833],[38,-21]],[[2573,2812],[2,-4]],[[2575,2808],[15,-13]],[[1131,3472],[207,-3]],[[1993,2949],[30,-24]],[[950,741],[8,-16]],[[959,726],[-9,15]],[[1209,1427],[-1,0]],[[1209,1426],[0,1]],[[1512,1461],[-164,-2],[-139,-32]],[[1547,1459],[-8,2],[-27,0]],[[1512,1461],[35,-3]],[[1207,1427],[-1,-1],[1,-1],[2,1]],[[1209,1426],[-2,1]],[[1304,3119],[53,19]],[[436,1089],[50,59]],[[498,1155],[64,36]],[[2475,2905],[-55,-83]],[[1111,3478],[1,-1]],[[1112,3477],[8,-3]],[[1131,3472],[-6,2]],[[1125,3474]],[[1125,3474],[-13,3]],[[1129,3473],[-4,1]],[[1125,3474],[-5,0]],[[1120,3474],[5,0]],[[1125,3474],[4,-1]],[[1129,3473],[2,-1]],[[1131,3472]],[[1923,3001],[70,-52]],[[2023,2925],[64,-44]],[[2099,2872],[3,-2]],[[2102,2871],[-3,2]],[[2360,2598],[4,-3]],[[2368,2597],[-1,-1]],[[2367,2596],[-3,-1]],[[2368,2591],[-1,1]],[[2367,2592],[-3,3]],[[2368,2591],[-2,-3]],[[2366,2588],[1,4]],[[2367,2592],[0,4]],[[2367,2596],[1,4]],[[2366,2588],[5,-2]],[[2369,2589],[-1,2]],[[2368,2597],[1,12]],[[2369,2589],[-1,8]],[[2371,2586],[-2,3]],[[2380,2568],[-9,18]],[[2315,3290],[-39,-146],[-73,-113]],[[432,1083],[4,6]],[[906,441],[-65,-79]],[[841,362],[57,66],[9,12]],[[961,803],[-26,-8]],[[2653,2754],[7,-29]],[[426,1002],[-124,10]],[[305,1011],[121,-9]],[[136,338],[96,43],[26,-16]],[[528,458],[0,82],[54,20]],[[670,592],[223,82],[84,71]],[[2203,3031],[-113,-175]],[[2477,4096],[-23,-53],[3,-330],[-142,-423]],[[1135,276]],[[147,120],[1,2]],[[782,1414],[2,-1]],[[794,1420],[-2,1]],[[1205,1424],[2,1]],[[1302,3051],[2,68]],[[1313,3020],[0,1]],[[1316,3011],[0,8]],[[1357,3138],[25,9]],[[1750,1595],[-6,2]],[[1750,1595],[9,1]],[[1763,1598],[-13,-3]],[[2130,2897],[44,0]],[[2369,2609],[7,25]],[[2376,2634],[0,3]],[[2376,2637],[0,1]],[[2376,2638],[0,2]],[[2381,2654],[-5,-14]],[[3989,1993],[1,-1]],[[3990,1992],[4,0]],[[3991,1995],[-1,-3]],[[3990,1992]],[[4003,1994],[2,5]],[[2376,2637],[0,1]],[[2376,2638],[-1,-1],[1,0]],[[2376,2637]],[[3848,2706],[0,2],[-1,-1]],[[3846,2707],[0,-2],[2,1],[-1,1],[-1,0]],[[2590,2795],[25,-17]],[[811,1137],[-16,38]],[[695,825],[0,-85]],[[695,684],[0,-15]],[[695,669],[0,15]],[[695,669],[42,-23]],[[696,740],[0,85]],[[737,646],[39,-61]],[[776,585],[-16,54],[-23,7]],[[1068,534],[-3,-6]],[[1073,514],[-7,-4]],[[1077,567],[-3,-21]],[[1079,549],[14,3]],[[1160,177],[1,-1]],[[3916,236],[-17,4]],[[4051,187],[-8,4]],[[1338,3469],[144,-104]],[[716,949]],[[2363,2884],[-1,-1]],[[2381,2870],[46,-32]],[[937,882],[2,21]],[[2145,2059],[-16,-28]],[[1475,3261],[34,-7]],[[1381,1065],[13,18]],[[1392,1083],[-9,-14]],[[951,835],[-61,-18]],[[1221,1011],[10,16]],[[1008,762],[8,-24]],[[1016,738],[-7,24]],[[1308,1002],[-3,-5]],[[1367,1045],[11,15]],[[1378,1060],[3,5]],[[1383,1069],[-5,-9]],[[1378,1060],[-3,-4]],[[2428,2898],[-19,14]],[[2409,2911],[19,-13]],[[2468,2869],[-40,29]],[[2468,2869],[39,-28]],[[2507,2841],[-39,28]],[[2607,544],[6,-4]],[[2608,544],[0,-1]],[[2612,546],[-1,0]],[[2613,540],[0,7]],[[3899,240],[-1138,-14],[-133,30],[-15,284]],[[4096,169],[-45,18]],[[694,850],[2,0]],[[696,852],[-2,1]],[[1154,486],[1,-1]],[[1383,1045],[-10,9]],[[2350,2886],[31,-16],[-32,17]],[[1077,567],[-1,3]],[[1076,570],[-3,7]],[[1074,572],[2,-2]],[[1076,570],[17,-18]],[[2420,2822],[-15,-45]],[[1482,3365],[40,-25]],[[1554,3234],[-2,0]],[[1552,3234],[1,-3]],[[1553,3231],[1,0]],[[1554,3231],[0,3]],[[1708,3089],[32,-14]],[[1740,3075],[-32,15]],[[1740,3075],[83,-52],[100,-22]],[[269,1052],[88,-15]],[[1217,925],[-7,-5]],[[1210,920],[-45,-24]],[[1176,904],[34,16]],[[1210,920],[7,4]],[[2442,2938],[-9,-12]],[[2433,2925],[9,13]],[[985,846],[8,-33]],[[994,813],[-3,35]],[[1013,980],[-29,122],[26,-123]],[[1983,1649],[38,-4]],[[2021,1647],[-38,2]],[[2023,1647],[-2,0]],[[357,1037],[2,0]],[[421,1016],[6,-1]],[[830,767],[-14,17]],[[1414,802],[-37,112]],[[1387,1017],[-4,28]],[[1428,1186],[-2,-11]],[[1426,1175],[-4,-33],[-3,-20]],[[1419,1122],[0,-2],[-1,0]],[[1418,1120],[-17,-25],[-9,-12]],[[1394,1083],[24,35],[0,2]],[[1418,1120],[1,2]],[[1419,1122],[3,16],[0,4],[4,33]],[[1426,1175],[2,11]],[[1437,3176],[-10,24]],[[1456,3274],[2,-1]],[[1466,3270],[9,-9]],[[2266,2883],[-1,-1]],[[2267,2897],[10,-1]],[[2285,2895],[35,-5]],[[2348,2885],[1,2]],[[2391,2925],[-1,-1]],[[2419,2905]],[[2456,2851]],[[2573,2809],[1,1]],[[2781,3053],[-26,-26]],[[1161,179],[-1,-2]],[[1163,178],[-1,1]],[[1727,2270],[0,6]],[[953,1101],[0,-3]],[[1044,1085],[-26,26],[-31,-10]],[[987,1100],[20,4],[11,7],[25,-27]],[[993,1048],[1,0]],[[1046,1083],[-1,2]],[[1163,1030],[-49,16]],[[1114,1046],[49,-16]],[[1163,1030],[25,-8]],[[1244,1023],[59,-17]],[[1303,1006],[5,-4]],[[1309,1003],[-6,3]],[[1312,1002],[-2,1]],[[961,803],[-10,32]],[[897,973],[-2,1]],[[897,973],[1,68],[54,58]],[[901,958],[-4,15]],[[900,958],[1,0]],[[914,951],[-13,7]],[[1157,959]],[[1005,772],[3,-10]],[[1008,765],[-3,7]],[[1004,777],[1,-5]],[[1005,772],[0,2]],[[2277,2896],[8,-1]],[[1138,876],[-2,-1]],[[1165,896],[-27,-20]],[[1139,874],[37,30]],[[1281,973],[-64,-48]],[[1217,924],[7,2],[14,9],[44,37]],[[716,948],[1,0]],[[718,948],[0,1]],[[486,1148],[12,7]],[[562,1191],[45,26],[118,162],[57,35]],[[2515,2837],[-1,1]],[[2348,2887],[-1,-1]],[[794,1420],[219,-12]],[[1013,1408],[1,0]],[[1014,1409],[-1,-1]],[[1018,1411],[-2,-1]],[[1016,1409],[2,2]],[[1018,1411],[128,-10],[60,25]],[[1014,1410],[0,-2]],[[1014,1408],[2,1],[0,1]],[[1016,1410],[-2,0]],[[1377,914],[10,103]],[[1746,1726],[0,-5]],[[1747,1721],[0,5]],[[716,949],[0,-1]],[[718,949],[-2,0]],[[717,948],[1,0]],[[1136,875],[-21,-9]],[[1115,865],[23,11]],[[1917,1639],[66,10]],[[1983,1649],[-55,-8]],[[2021,1647],[2,-2],[68,0]],[[2093,1644],[1,6],[-71,-3]],[[2478,2908],[-36,30]],[[2485,2907],[21,-16]],[[790,1188],[-2,26]],[[795,1175],[-5,13]],[[831,1090],[-20,47]],[[0,1059],[85,-12],[93,1],[114,-35],[13,-2]],[[302,1012],[-124,37],[-178,11]],[[438,1003],[98,-15]],[[537,989],[-99,14]],[[1115,899],[1,0],[16,25],[4,12],[23,24]],[[1115,899],[0,1]],[[1157,959],[-21,-24],[-21,-35]],[[1159,960],[-2,-1]],[[1231,1027],[13,-4]],[[1389,1019],[-13,-104]],[[1550,3235],[-18,5]],[[987,846],[-2,0]],[[991,848],[-3,-1]],[[1329,1017],[-19,-14]],[[1312,1002],[18,15]],[[4043,191],[-127,45]],[[695,740],[0,-18]],[[695,704],[1,36]],[[696,850],[59,1]],[[755,853],[-59,-1]],[[811,891],[-55,-38]],[[161,135],[128,-2],[32,27],[19,32],[24,19],[94,-1],[116,22],[91,22],[168,90],[8,18]],[[841,362],[-176,-107],[-302,-44],[-24,-19],[-19,-32],[-31,-27],[-128,2]],[[776,585],[10,-28],[64,-84],[51,-34],[17,-1],[155,76]],[[1065,528],[-164,-89],[-51,35],[-74,111]],[[1135,276],[28,99],[3,14],[-4,78],[-43,67],[-42,33]],[[1093,552],[69,-86],[-31,-205],[8,-45]],[[1140,216],[-5,60]],[[1522,3340],[0,-1]],[[1551,3242],[1,-5]],[[149,138],[-39,-138]],[[1320,3044],[-18,7]],[[2507,2841],[2,-1]],[[2509,2840],[-2,1]],[[2511,2839],[-2,1]],[[1130,157],[15,38]],[[1153,183],[7,-6]],[[1017,734],[57,-162]],[[1073,577],[-55,156]],[[2052,435],[567,115],[38,35],[147,301]],[[915,951],[23,-48]],[[944,853],[7,-18]],[[1158,958],[3,1]],[[1161,959],[-2,1]],[[56,4009],[-56,58]],[[56,4009],[10,-12]],[[683,3618],[-84,-26],[-183,62],[-350,343]],[[683,3618],[14,-4]],[[1095,3488],[-210,139],[-188,-13]],[[1095,3488],[6,-3]],[[1101,3485],[10,-7]],[[3173,2248],[0,-2]],[[2090,1648],[0,-1]],[[2091,1645],[2,-1]],[[2104,1673],[-10,-23]],[[2095,1650],[9,23]],[[2124,1753],[-20,-80]],[[2116,1761],[8,-8]],[[2120,1923],[4,-170]],[[2363,2882],[0,1]],[[3848,2708],[42,84],[129,27],[77,-38]],[[2405,2777],[-1,-5]],[[1555,3228],[4,-4]],[[1634,3155],[14,-13]],[[1703,3093],[5,-4]],[[1708,3090],[-5,4]],[[695,684],[53,-30]],[[949,757],[-192,-14]],[[869,736],[62,11],[19,9]],[[426,1002],[12,1]],[[438,1003],[-12,-1]],[[536,988],[180,-39]],[[716,949],[-86,25],[-93,15]],[[1522,3339],[29,-97]],[[2087,2881],[5,-4]],[[2092,2877],[7,-5]],[[2099,2873],[-7,4]],[[937,882],[7,-29]],[[967,2439],[38,39]],[[1046,862],[-9,-3]],[[1046,862],[2,1]],[[1048,864],[-2,-2]],[[2116,1763],[0,-2]],[[2481,2909],[-3,-1]],[[2481,2909],[3,1]],[[2483,2910],[-2,-1]],[[2391,2924],[18,-13]],[[2409,2912],[-18,13]],[[2090,2856],[-188,-222],[-77,-54],[-94,-275],[3,-365]],[[1891,1636],[-82,-4],[-46,-34]],[[935,794],[126,40]],[[1061,835],[-100,-32]],[[1045,1085],[30,-24],[39,-15]],[[1049,1080],[-3,3]],[[1114,1046],[-39,15]],[[964,2436],[3,3]],[[1630,848],[-50,-24],[-149,70],[-162,-106],[-292,-43]],[[0,298],[40,25],[-40,28],[0,3745],[4096,0],[0,-4096],[-4096,0],[0,298]],[[1135,276],[43,67],[17,-14],[60,37],[1,27],[35,-20],[-19,-110],[-112,-14],[-25,27]],[[841,504],[58,70],[109,52],[-12,28],[38,-56],[-55,-21],[63,-49],[-108,-29],[-26,-49],[-67,54]],[[3735,2576],[7,11],[28,-11],[50,61],[6,-56],[45,-14],[-8,-65],[24,-58],[-60,-3],[-30,57],[2,24],[52,-1],[-23,20],[19,17],[-47,-25],[-65,43]],[[709,1003],[90,52],[36,13],[-5,-63],[-38,-31],[-47,-13],[-36,42]],[[1506,1888],[112,105],[87,35],[-30,-50],[12,-19],[-109,-79],[-72,8]],[[2164,2148],[46,99],[75,-5],[61,76],[18,-9],[50,81],[55,0],[-10,-34],[43,-26],[-37,-52],[58,-19],[-49,-74],[116,-53],[-15,-106],[-199,4],[-60,30],[-29,-22],[-103,8],[-7,68],[38,4],[-51,30]],[[4033,207],[-53,6],[-31,37],[-13,149],[53,-7],[31,-37],[13,-148]],[[2836,1165],[5,87],[35,45],[121,12],[-11,-79],[-37,-42],[-113,-23]],[[258,515],[22,-68],[-32,-22],[13,-81],[84,-89],[-7,-27],[-58,-21],[-33,-48],[-64,0],[-1,48],[-32,-47],[-62,48],[-88,-9],[0,99],[40,25],[-40,28],[21,191],[163,7],[74,-34]],[[968,1325],[59,-13],[94,45],[32,-48],[162,0],[16,-40],[49,-8],[68,-107],[29,11],[0,48],[16,-8],[49,-40],[8,-275],[24,-60],[122,39],[40,-39],[0,-133],[-32,-84],[-130,-71],[-32,121],[0,167],[-164,-35],[-128,-205],[25,-101],[40,-43],[-158,-220],[-43,-24],[-58,5],[-32,47],[-128,34],[-62,83],[-69,219],[-38,6],[-54,-44],[-5,86],[-83,-69],[-47,-123],[-26,30],[26,114],[-11,72],[-86,168],[114,190],[9,123],[-77,13],[-13,-87],[-72,-133],[7,-106],[-154,316],[-1,69],[58,142],[39,2],[58,-98],[129,0],[33,-96],[97,49],[162,0],[58,74],[39,117],[41,-80]],[[2189,1980],[32,0],[13,-242],[52,-46],[109,-22],[20,-121],[43,5],[22,43],[38,-47],[-2,-42],[-69,-55],[-32,47],[-129,0],[-162,-47],[-32,47],[-65,0],[0,48],[-157,-79],[-37,31],[-5,59],[89,109],[-20,72],[-32,0],[32,48],[-64,192],[32,48],[10,127],[86,93],[195,20],[24,-55],[9,-233]],[[4096,2189],[0,-189],[-43,65],[-20,107],[63,17]],[[1444,3561],[188,-104],[104,8],[-6,-183],[23,-102],[80,-50],[64,0],[12,-89],[21,-7],[-12,-57],[-117,57],[-162,-48],[-96,67],[-82,-1],[-49,30],[-65,144],[0,95],[-65,1],[30,115],[92,112],[40,12]],[[1994,3952],[35,-7],[57,47],[38,0],[29,-66],[-29,-78],[67,-221],[-2,-114],[-162,48],[-163,-57],[-64,9],[0,192],[33,48],[0,96],[32,0],[32,96],[65,0],[18,54],[14,-47]],[[2321,3281],[105,22],[26,-32],[-5,-141],[45,-14],[52,158],[135,19],[125,-19],[0,-48],[32,0],[48,-133],[17,-107],[-33,-48],[-64,0],[-33,-96],[-57,-15],[-20,-93],[-228,-64],[-19,-67],[-84,65],[-37,82],[-170,92],[50,159],[-17,177],[-59,114],[-6,78],[129,0],[68,-89]],[[0,451],[40,12],[36,59],[152,-66],[-35,-62],[-37,39],[-156,-25],[0,43]],[[0,630],[139,17],[-28,-71],[14,-37],[-64,-5],[-21,-55],[-33,-13],[-7,164]],[[3172,1916],[24,28],[131,-73],[-60,-19],[-9,23],[-74,4],[-12,37]],[[3901,271],[22,37],[12,-47],[71,-2],[61,-54],[-49,-28],[-59,10],[-51,58],[15,23],[-22,3]],[[751,258],[3,42],[53,9],[98,79],[27,56],[46,-42],[1,-53],[-72,-58],[-23,23],[-52,-30],[14,-34],[-46,-19],[-49,27]],[[1372,917],[8,94],[33,30],[13,-19],[72,25],[-2,-22],[66,23],[-101,-130],[-56,-20],[-33,19]],[[264,1026],[14,76],[60,23],[84,82],[31,-29],[18,-28],[-38,-67],[-7,-82],[-77,-6],[-85,31]],[[3212,1152],[45,75],[31,-3],[0,-37],[40,9],[-7,-50],[-44,-23],[-65,29]],[[2766,1166],[86,38],[97,85],[86,-37],[-48,-148],[-110,82],[-111,-20]],[[2480,2772],[59,66],[77,4],[-29,-53],[10,-29],[-22,12],[-58,-33],[-37,33]],[[2225,2899],[113,-4],[-24,-60],[-29,-4],[7,-41],[-32,11],[-35,98]],[[915,2495],[36,35],[39,-1],[-5,-24],[67,1],[0,-22],[-62,-23],[58,-13],[1,-40],[-45,-21],[-89,108]],[[1377,3205],[34,16],[14,96],[37,-4],[-11,-118],[90,-40],[-19,-21],[-145,71]],[[1465,3268],[59,74],[39,-39],[-22,-13],[20,-26],[76,-15],[-127,-10],[-45,9],[0,20]],[[1869,3647],[160,2],[139,-61],[-32,4],[-13,-23],[-31,18],[19,19],[-124,29],[-23,-49],[-3,38],[-58,-21],[-34,44]],[[1877,3757],[5,7],[70,-38],[9,-18],[7,18],[-31,29],[11,16],[32,-55],[29,24],[66,-16],[-5,-41],[35,-4],[9,-51],[-111,60],[-1,-31],[-68,16],[-2,40],[-55,44]],[[2745,3051],[106,7],[-56,-11],[42,-20],[26,30],[34,-8],[-11,-31],[-53,-3],[-15,-28],[24,-7],[-21,-34],[35,5],[-25,-55],[-6,34],[-24,-28],[-14,115],[-28,-1],[-14,35]],[[2323,2845],[43,86],[-36,55],[29,65],[13,-30],[44,3],[-28,-30],[52,-79],[55,-17],[18,-52],[-47,-40],[-18,15],[-2,-36],[-63,-13],[26,30],[-54,38],[-7,36],[-16,-33],[17,-73],[-26,75]],[[1648,3012],[40,16],[10,28],[-59,-41],[-144,56],[-1,30],[21,18],[40,-14],[-13,29],[46,36],[-36,45],[17,24],[63,-62],[3,-33],[40,-6],[28,-44],[-4,-35],[9,27],[22,-8],[-18,-50],[28,-20],[26,-3],[7,25],[18,-32],[51,5],[-18,-39],[-30,19],[3,-21],[-34,-7],[-69,59],[-46,-2]],[[1606,668],[29,25],[63,-29],[33,-77],[-67,-11],[-28,84],[-30,8]],[[0,966],[192,-12],[-49,-106],[37,32],[115,-57],[23,-35],[-45,-82],[-79,29],[2,29],[-29,-22],[-16,36],[-39,-9],[12,52],[-50,16],[-20,-24],[114,-112],[-27,-49],[-19,32],[-36,-1],[0,-30],[52,-11],[-27,-66],[14,-37],[-45,-4],[136,-60],[14,-75],[-35,-8],[-39,41],[-156,-30],[0,386],[18,-21],[43,20],[-10,21],[-35,-27],[-16,25],[0,159]],[[0,789],[21,-95],[26,11],[9,-38],[40,38],[26,-21],[-122,-54],[0,159]],[[0,966],[192,-12],[-49,-106],[37,32],[115,-57],[23,-35],[-45,-82],[-79,29],[2,29],[-29,-22],[-16,36],[-39,-9],[15,49],[-52,19],[-61,-53],[-14,182]],[[1999,2023],[39,73],[43,21],[23,56],[19,13],[-15,34],[47,20],[-17,-93],[-35,16],[-27,-133],[-38,-2],[-4,-22],[-35,17]],[[2394,3363],[9,53],[82,62],[-5,-1],[-7,30],[-68,24],[11,37],[97,-36],[10,5],[-11,27],[-19,-16],[-76,22],[31,98],[110,9],[30,-48],[94,-31],[30,-1],[0,27],[-3,-26],[-27,1],[-64,31],[11,20],[-27,20],[40,67],[109,-11],[24,-112],[-63,10],[64,-11],[2,-68],[-87,-20],[87,19],[26,-218],[-192,-3],[-5,-20],[-104,46],[-109,14]],[[1590,1711],[76,55],[8,-30],[53,19],[5,-31],[60,6],[-15,22],[102,-18],[42,-28],[-15,-14],[21,2],[1,-47],[-50,-12],[19,21],[-25,16],[22,6],[5,10],[-30,-4],[-23,43],[-40,-4],[13,-7],[-18,-21],[-7,26],[-79,0],[-31,-33],[-94,23]],[[0,966],[192,-12],[-49,-106],[37,32],[115,-57],[23,-35],[-45,-82],[-79,29],[2,29],[-29,-22],[-16,36],[-39,-9],[12,52],[-50,16],[-20,-24],[114,-112],[-27,-49],[-19,32],[-36,-1],[0,-30],[52,-11],[-27,-66],[14,-37],[-45,-4],[136,-60],[14,-75],[-35,-8],[-39,41],[-156,-30],[0,386],[18,-21],[43,20],[-10,21],[-35,-27],[-16,25],[0,159]],[[2861,1600],[72,90],[30,94],[3,58],[-46,6],[64,27],[7,-80],[-10,-50],[-22,-7],[18,-9],[-46,-81],[-70,-48]]]}