{"objects":{"water":{"type":"GeometryCollection","geometries":[]},"buildings":{"type":"GeometryCollection","geometries":[]},"places":{"type":"GeometryCollection","geometries":[{"type":"Point","properties":{"kind":"region","name:en":"Republic of Adygea","name":"\u0410\u0434\u044b\u0433\u0435\u044f","kind_detail":"state","name:eo":"Adigeio","official_name":"\u0420\u0435\u0441\u043f\u0443\u0431\u043b\u0438\u043a\u0430 \u0410\u0434\u044b\u0433\u0435\u044f","name:de":"Republik Adygeja","source":"openstreetmap.org","name:fr":"Adygu\u00e9e","name:ku":"Ad\u00eegeya","name:et":"Ad\u00f5gee","min_zoom":4.0,"name:hu":"Adigef\u00f6ld","name:zh":"\u963f\u8fea\u683c\u5171\u548c\u56fd","id":869555482},"coordinates":[2263,2480]},{"type":"Point","properties":{"admin_level":"4","name:sr":"\u041c\u0430\u0458\u043a\u043e\u043f","name:az":"Maykop","name:nl":"Majkop","name:ka":"\u10db\u10d0\u10d8\u10d9\u10dd\u10de\u10d8","name:tr":"Maykop","name:he":"\u05de\u05d9\u05d9\u05e7\u05d5\u05e4","name:cs":"Majkop","min_zoom":8.0,"name:ro":"Maykop","name:hy":"\u0544\u0561\u0575\u056f\u0578\u057a","name:os":"\u041c\u0430\u0439\u043a\u044a\u043e\u043f","name:pl":"Majkop","name:ab":"\u041c\u0430\u0438\u049f\u04d9\u0430\u04a7\u0430","name":"\u041c\u0430\u0439\u043a\u043e\u043f","id":191641244,"name:ca":"Maikop","name:af":"Maikop","name:el":"\u039c\u03b1\u03ca\u03ba\u03cc\u03c0","kind":"locality","name:hu":"Majkop","name:lt":"Maikopas","kind_detail":"city","name:de":"Maikop","source":"openstreetmap.org","name:fr":"Ma\u00efkop","name:eu":"Maikop","name:et":"Maikop","population":144055,"name:zh":"\u8fc8\u79d1\u666e","name:en":"Maykop"},"coordinates":[2124,2121]},{"type":"Point","properties":{"kind":"locality","name:az":"Labinsk","name:nl":"Labinsk","name":"\u041b\u0430\u0431\u0438\u043d\u0441\u043a","name:ko":"\ub77c\ube48\uc2a4\ud06c","kind_detail":"town","name:de":"Labinsk","source":"openstreetmap.org","min_zoom":8.0,"name:en":"Labinsk","name:uk":"\u041b\u0430\u0431\u0438\u043d\u0441\u044c\u043a","old_name":"\u0441\u0442\u0430\u043d\u0438\u0446\u0430 \u041b\u0430\u0431\u0438\u043d\u0441\u043a\u0430\u044f","name:ro":"Labinsk","id":304718444,"population":60971},"coordinates":[3930,2238]},{"type":"Point","properties":{"name:az":"Belore\u00e7ensk","name:nl":"Beloretsjensk","min_zoom":8.0,"name:ro":"Belorecensk","name:uk":"\u0411\u0454\u043b\u043e\u0440\u0454\u0447\u0435\u043d\u0441\u044c\u043a","old_name":"\u0441\u0442\u0430\u043d\u0438\u0446\u0430 \u0411\u0435\u043b\u043e\u0440\u0435\u0447\u0435\u043d\u0441\u043a\u0430\u044f","name:pl":"Bie\u0142orieczie\u0144sk","id":296161951,"population":52322,"kind":"locality","name:en":"Belorechensk","name":"\u0411\u0435\u043b\u043e\u0440\u0435\u0447\u0435\u043d\u0441\u043a","kind_detail":"town","name:de":"Beloretschensk","source":"openstreetmap.org","name:fr":"Beloretchensk","name:es":"Belor\u00e9chensk"},"coordinates":[1436,2774]},{"type":"Point","properties":{"kind":"locality","name:en":"Kurganinsk","name":"\u041a\u0443\u0440\u0433\u0430\u043d\u0438\u043d\u0441\u043a","kind_detail":"town","min_zoom":8.0,"name:de":"Kurganinsk","source":"openstreetmap.org","name:fr":"Kourganinsk","name:az":"Kurqaninsk","name:uk":"\u041a\u0443\u0440\u0433\u0430\u043d\u0438\u043d\u0441\u044c\u043a","old_name":"\u0441\u0442\u0430\u043d\u0438\u0446\u0430 \u041a\u0443\u0440\u0433\u0430\u043d\u043d\u0430\u044f","id":296537017,"population":49037},"coordinates":[3538,3278]},{"type":"Point","properties":{"int_name":"Apsheronsk","name:uk":"\u0410\u043f\u0448\u0435\u0440\u043e\u043d\u0441\u044c\u043a","name:nn":"Apsjeronsk","name:no":"Apsjeronsk","name:ko":"\uc555\uc170\ub860\uc2a4\ud06c","name:ar":"\u0623\u0628\u0634\u064a\u0631\u0648\u0646\u0633\u0643","kind":"locality","name:io":"Apsheronsk","min_zoom":8.0,"name:it":"Ap\u0161eronsk","name:tl":"Apsheronsk","name:be":"\u0410\u043f\u0448\u0430\u0440\u043e\u043d\u0441\u043a","name:pl":"Apszero\u0144sk","name:hr":"Ap\u0161eronosk","id":298352406,"population":40244,"name:fa":"\u0622\u0628\u0634\u0631\u0648\u0646\u0633\u06a9","name:eo":"Ap\u015deronsk","name:en":"Apsheronsk","name:lt":"Ap\u0161eronskas","kind_detail":"town","name:de":"Apscheronsk","source":"openstreetmap.org","name:fr":"Apcheronsk","name:fi":"Ap\u0161eronsk","name:zh":"\u963f\u666e\u6b47\u502b\u65af\u514b","name":"\u0410\u043f\u0448\u0435\u0440\u043e\u043d\u0441\u043a","name:es":"Apsheronsk"},"coordinates":[1066,1531]},{"type":"Point","properties":{"kind":"locality","name:en":"Khadyzhensk","name":"\u0425\u0430\u0434\u044b\u0436\u0435\u043d\u0441\u043a","kind_detail":"town","name:ar":"\u062e\u0627\u062f\u064a\u062c\u064a\u0646\u0633\u0643","min_zoom":8.0,"name:de":"Chadyschensk","source":"openstreetmap.org","name:fr":"Khadyjensk","name:it":"Chady\u017eensk","name:uk":"\u0425\u0430\u0434\u0438\u0436\u0435\u043d\u0441\u044c\u043a","name:zh":"\u54c8\u5fb7\u4efb\u65af\u514b","id":1886342079,"name:es":"Jadyzhensk","population":22430},"coordinates":[472,1372]},{"type":"Point","properties":{"kind":"locality","name:en":"Giaginskaya","name":"\u0413\u0438\u0430\u0433\u0438\u043d\u0441\u043a\u0430\u044f","kind_detail":"town","source":"openstreetmap.org","min_zoom":8.0,"id":415008867,"population":13954},"coordinates":[1985,3223]},{"type":"Point","properties":{"kind":"locality","name:en":"Khanskaya","name":"\u0425\u0430\u043d\u0441\u043a\u0430\u044f","kind_detail":"town","name:de":"Chanskaja","source":"openstreetmap.org","min_zoom":8.0,"name:hy":"\u053d\u0561\u0576\u057d\u056f\u0561\u0575\u0561","id":344045392,"population":11549},"coordinates":[1685,2399]},{"type":"Point","properties":{"kind":"locality","name:en":"Tulskiy","name":"\u0422\u0443\u043b\u044c\u0441\u043a\u0438\u0439","kind_detail":"town","source":"openstreetmap.org","min_zoom":8.0,"id":344033556,"population":10825},"coordinates":[2334,1725]},{"type":"Point","properties":{"kind":"locality","name:en":"Rodnikovskaya","name":"\u0420\u043e\u0434\u043d\u0438\u043a\u043e\u0432\u0441\u043a\u0430\u044f","kind_detail":"town","source":"openstreetmap.org","min_zoom":8.0,"id":927877934,"population":8346},"coordinates":[3737,2785]},{"type":"Point","properties":{"kind":"locality","name:en":"Mikhaylovskaya","name":"\u041c\u0438\u0445\u0430\u0439\u043b\u043e\u0432\u0441\u043a\u0430\u044f","kind_detail":"town","source":"openstreetmap.org","min_zoom":8.0,"old_name":"\u0421\u0442\u0430\u0440\u043e-\u041c\u0438\u0445\u0430\u0439\u043b\u043e\u0432\u0441\u043a\u0430\u044f","id":356773196,"population":8245},"coordinates":[3568,3694]},{"type":"Point","properties":{"kind":"locality","name:en":"Koshekhabl","name":"\u041a\u043e\u0448\u0435\u0445\u0430\u0431\u043b\u044c","kind_detail":"town","source":"openstreetmap.org","min_zoom":8.0,"old_name":"\u0410\u043d\u0437\u0430\u0443\u0440\u0438\u0439","id":367076815,"population":7183},"coordinates":[3266,3309]},{"type":"Point","properties":{"kind":"locality","name:en":"Neftegorsk","name":"\u041d\u0435\u0444\u0442\u0435\u0433\u043e\u0440\u0441\u043a","kind_detail":"town","source":"openstreetmap.org","min_zoom":8.0,"old_name":"\u041c\u0430\u0439\u043d\u0435\u0444\u0442\u044c","id":346174364,"population":5188},"coordinates":[957,1096]},{"type":"Point","properties":{"kind":"locality","name:en":"Khakurinokhabl","name":"\u0425\u0430\u043a\u0443\u0440\u0438\u043d\u043e\u0445\u0430\u0431\u043b\u044c","kind_detail":"town","source":"openstreetmap.org","min_zoom":8.0,"old_name":"\u0425\u0430\u043a\u0443\u0440\u0438\u043d\u043e\u0432\u0441\u043a\u043e\u0435,\u0428\u043e\u0432\u0433\u0435\u043d\u043e\u0432\u0441\u043a\u0438\u0439 (1958-1996)","id":344840729,"population":4018},"coordinates":[2488,3814]}]},"transit":{"type":"GeometryCollection","geometries":[{"type":"LineString","properties":{"source":"openstreetmap.org","kind":"train","sort_rank":275,"ref":"\u044d\u043b. \u0422\u0443\u0430\u043f\u0441\u0435 \u2014 \u0411\u0435\u043b\u043e\u0440\u0435\u0447\u0435\u043d\u0441\u043a","min_zoom":6.0,"osm_relation":true},"arcs":[8]},{"type":"LineString","properties":{"kind":"train","name":"\u041c\u043e\u0441\u043a\u0432\u0430 \u2014 \u0410\u0434\u043b\u0435\u0440","sort_rank":275,"name:de":"Moskau \u2014 Adler","source":"openstreetmap.org","min_zoom":6.0,"ref":"\u041c\u043e\u0441\u043a\u0432\u0430 - \u0410\u0434\u043b\u0435\u0440","osm_relation":true},"arcs":[9]},{"type":"MultiLineString","properties":{"source":"openstreetmap.org","kind":"train","osm_relation":true,"sort_rank":275,"ref":"\u044d\u043b. \u0425\u0430\u0434\u0436\u043e\u0445 - \u0411\u0435\u043b\u043e\u0440\u0435\u0447\u0435\u043d\u0441\u043a\u0430\u044f","min_zoom":6.0,"operator":"\u0420\u0416\u0414"},"arcs":[[10],[11]]},{"type":"MultiLineString","properties":{"source":"openstreetmap.org","kind":"train","osm_relation":true,"sort_rank":275,"ref":"\u044d\u043b. \u0411\u0435\u043b\u043e\u0440\u0435\u0447\u0435\u043d\u0441\u043a\u0430\u044f - \u0410\u0440\u043c\u0430\u0432\u0438\u0440-1","min_zoom":6.0,"operator":"\u0420\u0416\u0414"},"arcs":[[12],[13],[14]]},{"type":"MultiLineString","properties":{"kind":"train","network":"\u0410\u043f\u0448\u0435\u0440\u043e\u043d\u0441\u043a\u0430\u044f \u0423\u0416\u0414","sort_rank":275,"source":"openstreetmap.org","min_zoom":6.0,"operator":"\u0410\u043f\u0448\u0435\u0440\u043e\u043d\u0441\u043a\u0438\u0439 \u0414\u041e\u041a","ref":"\u0427\u0435\u0440\u043d\u0438\u0433\u043e\u0432\u0441\u043a\u0430\u044f - \u0428\u043f\u0430\u043b\u043e\u0440\u0435\u0437","osm_relation":true},"arcs":[[15],[16]]}]},"pois":{"type":"GeometryCollection","geometries":[{"type":"Point","properties":{"kind":"military","name":"\u041c\u0430\u0439\u043a\u043e\u043f\u0441\u043a\u0438\u0439 \u0431\u0440\u0438\u0433\u0430\u0434\u043d\u044b\u0439 \u043f\u043e\u043b\u0438\u0433\u043e\u043d","area":145224000,"source":"openstreetmap.org","min_zoom":8.0,"tier":3,"id":-5612041,"osm_relation":true},"coordinates":[2866,2090]}]},"boundaries":{"type":"GeometryCollection","geometries":[{"type":"MultiLineString","properties":{"name:right:hy":"\u053f\u0580\u0561\u057d\u0576\u0578\u0564\u0561\u0580\u056b \u0565\u0580\u056f\u0580\u0561\u0574\u0561\u057d","name:right:uk":"\u041a\u0440\u0430\u0441\u043d\u043e\u0434\u0430\u0440\u0441\u044c\u043a\u0438\u0439 \u043a\u0440\u0430\u0439","name:left:sv":"Adygeiska republiken","name:right:hu":"Krasznodari hat\u00e1rter\u00fclet","name:right:lt":"Krasnodaro kra\u0161tas","min_zoom":8.0,"name:left:hy":"\u0531\u0564\u056b\u0563\u0565\u0561","name:right:he":"\u05de\u05d7\u05d5\u05d6 \u05e7\u05e8\u05e1\u05e0\u05d5\u05d3\u05d0\u05e8","sort_rank":256,"name:left:ca":"Adigu\u00e8sia","int_name:right":"Krasnodar Krai","source":"openstreetmap.org","name:right:az":"Krasnodar diyar\u0131","name:left:cs":"Adygsko","name:left":"\u0410\u0434\u044b\u0433\u0435\u044f","name:right:sr":"\u041a\u0440\u0430\u0441\u043d\u043e\u0434\u0430\u0440\u0441\u043a\u0430 \u041f\u043e\u043a\u0440\u0430\u0458\u0438\u043d\u0430","name:left:ka":"\u10d0\u10d3\u10d8\u10e6\u10d4","name:right:mn":"\u041a\u0440\u0430\u0441\u043d\u043e\u0434\u0430\u0440\u044b\u043d \u0445\u044f\u0437\u0433\u0430\u0430\u0440","name:right:eu":"Krasnodar kraia","name:right:et":"Krasnodari krai","name:right:it":"Territorio di Krasnodar","name:right:vi":"Krasnodar (v\u00f9ng)","name:right:ro":"\u021ainutul Krasnodar","id:right":-108082,"name:right:eo":"Krasnodara regiono","name:right:en":"Krasnodar Krai","name:right:el":"\u039a\u03c1\u03ac\u03b9 \u039a\u03c1\u03b1\u03c3\u03bd\u03bf\u03bd\u03c4\u03ac\u03c1","kind":"region","name":"\u0410\u0434\u044b\u0433\u0435\u044f - \u041a\u0440\u0430\u0441\u043d\u043e\u0434\u0430\u0440\u0441\u043a\u0438\u0439 \u043a\u0440\u0430\u0439","name:right:ba":"\u041a\u0440\u0430\u0441\u043d\u043e\u0434\u0430\u0440 \u043a\u0440\u0430\u0439\u044b","name:right:lv":"Krasnodaras novads","alt_name:left:cs":"Adygsk\u00e1 republika","name:right:be":"\u041a\u0440\u0430\u0441\u043d\u0430\u0434\u0430\u0440\u0441\u043a\u0456 \u043a\u0440\u0430\u0439","name:left:zh":"\u963f\u8fea\u683c\u5171\u548c\u56fd","name:left:fr":"Adygu\u00e9e","name:right:zh":"\u514b\u62c9\u65af\u8bfa\u8fbe\u5c14\u8fb9\u7586\u533a","name:right:nl":"Kraj Krasnodar","name:right:ja":"\u30af\u30e9\u30b9\u30ce\u30c0\u30fc\u30eb\u5730\u65b9","name:right:fr":"Kra\u00ef de Krasnodar","name:left:ja":"\u30a2\u30c7\u30a3\u30b2\u5171\u548c\u56fd","name:right:sv":"Krasnodar kraj","name:left:uk":"\u0420\u0435\u0441\u043f\u0443\u0431\u043b\u0456\u043a\u0430 \u0410\u0434\u0438\u0433\u0435\u044f","name:right:sh":"Krasnodarski kraj","name:left:nl":"Adygea","name:left:ba":"\u0410\u0434\u044b\u0433\u0435\u0439 \u0420\u0435\u0441\u043f\u0443\u0431\u043b\u0438\u043a\u0430\u04bb\u044b","name:right:sl":"Krasnodarski kraj","id":-253256,"name:right":"\u041a\u0440\u0430\u0441\u043d\u043e\u0434\u0430\u0440\u0441\u043a\u0438\u0439 \u043a\u0440\u0430\u0439","name:left:en":"Adygea","name:right:ca":"Territori de Krasnodar","kind_detail":"4","name:right:ce":"\u041a\u0440\u0430\u0441\u043d\u043e\u0434\u0430\u0440\u0430\u043d \u043c\u0435\u0445\u043a\u0430\u0439\u0438\u0441\u0442","name:left:pl":"Adygeja","id:left":-253256,"name:right:cs":"Krasnodarsk\u00fd kraj","name:right:cv":"\u041a\u0440\u0430\u0441\u043d\u043e\u0434\u0430\u0440 \u0415\u043d","name:right:ka":"\u10d9\u10e0\u10d0\u10e1\u10dc\u10dd\u10d3\u10d0\u10e0\u10d8\u10e1 \u10db\u10ee\u10d0\u10e0\u10d4","name:left:av":"\u0410\u0434\u0438\u0433\u044a\u0438\u0441\u0442\u0430\u043d","name:right:pt":"Krai de Krasnodar","name:right:tt":"\u041a\u0440\u0430\u0441\u043d\u043e\u0434\u0430\u0440 \u043a\u0440\u0430\u0435","name:left:tt":"\u0410\u0434\u044b\u0433\u0435\u044f \u0420\u0435\u0441\u043f\u0443\u0431\u043b\u0438\u043a\u0430\u0441\u044b","name:left:az":"Ad\u0131gey","name:right:tr":"Krasnodar Kray\u0131","name:right:bg":"\u041a\u0440\u0430\u0441\u043d\u043e\u0434\u0430\u0440\u0441\u043a\u0438 \u043a\u0440\u0430\u0439","name:left:it":"Adighezia","name:right:pl":"Kraj Krasnodarski","osm_relation":true,"name:right:de":"Region Krasnodar","name:left:de":"Adygeja","name:left:ce":"\u0410\u0434\u044b\u0433\u0435\u0439\u0447\u043e\u044c"},"arcs":[[0],[1],[2],[3],[4],[5],[6],[7]]}]},"roads":{"type":"GeometryCollection","geometries":[{"type":"MultiLineString","properties":{"source":"openstreetmap.org","kind":"major_road","name:en":"Krasnaya Street","sort_rank":380,"kind_detail":"primary","min_zoom":8.0},"arcs":[[17],[18]]},{"type":"LineString","properties":{"source":"openstreetmap.org","kind":"major_road","name:en":"Kooperativnaya Street","sort_rank":380,"kind_detail":"primary","min_zoom":8.0,"id":112377622},"arcs":[19]},{"type":"MultiLineString","properties":{"source":"openstreetmap.org","kind":"major_road","name:en":"Krasnoarmeyskaya Street","sort_rank":380,"kind_detail":"primary","min_zoom":8.0},"arcs":[[20],[21]]},{"type":"MultiLineString","properties":{"kind":"major_road","network":"ru:national","sort_rank":380,"kind_detail":"primary","source":"openstreetmap.org","min_zoom":8.0,"landuse_kind":"urban_area","shield_text":"160","ref":"\u0410-160"},"arcs":[[22],[23],[24]]},{"type":"LineString","properties":{"kind":"major_road","network":"ru:regional","sort_rank":380,"kind_detail":"primary","source":"openstreetmap.org","min_zoom":8.0,"shield_text":"03\u041a","ref":"03\u041a-002","id":52703910},"arcs":[25]},{"type":"MultiLineString","properties":{"kind":"major_road","network":"ru:national","sort_rank":380,"kind_detail":"primary","source":"openstreetmap.org","min_zoom":8.0,"shield_text":"160","ref":"\u0410-160"},"arcs":[[26],[27],[28],[29],[30],[31]]},{"type":"MultiLineString","properties":{"source":"openstreetmap.org","kind":"major_road","name:en":"Pervomayskaya Street","sort_rank":380,"kind_detail":"primary","min_zoom":8.0},"arcs":[[32],[33]]},{"type":"LineString","properties":{"kind":"major_road","name:en":"Lugovaya Street","sort_rank":380,"kind_detail":"primary","source":"openstreetmap.org","min_zoom":8.0,"landuse_kind":"residential","ref":"79\u041a-X\u0421III"},"arcs":[34]},{"type":"MultiLineString","properties":{"kind":"major_road","network":"ru:regional","sort_rank":380,"kind_detail":"primary","source":"openstreetmap.org","min_zoom":8.0,"shield_text":"79\u041a","ref":"79\u041a-CX"},"arcs":[[35],[36],[37],[38],[39]]},{"type":"LineString","properties":{"kind":"major_road","name:en":"Novitskogo Street","network":"ru:regional","sort_rank":380,"kind_detail":"primary","source":"openstreetmap.org","min_zoom":8.0,"shield_text":"03\u041a","ref":"03\u041a-003","id":31152169},"arcs":[40]},{"type":"LineString","properties":{"kind":"major_road","sort_rank":380,"kind_detail":"primary","bus_network":null,"source":"openstreetmap.org","min_zoom":8.0,"bus_shield_text":"8","landuse_kind":"urban_area","id":314621970},"arcs":[41]},{"type":"LineString","properties":{"kind":"major_road","name:en":"Vodnaya Street","sort_rank":380,"landuse_kind":"residential","source":"openstreetmap.org","min_zoom":8.0,"kind_detail":"primary","id":46823969},"arcs":[42]},{"type":"LineString","properties":{"source":"openstreetmap.org","kind":"major_road","sort_rank":380,"kind_detail":"primary","ref":"03\u0410-317","min_zoom":8.0,"id":260887665},"arcs":[43]},{"type":"LineString","properties":{"source":"openstreetmap.org","kind":"major_road","name:en":"Leningradskaya Street","sort_rank":380,"kind_detail":"primary","min_zoom":8.0,"id":112377620},"arcs":[44]},{"type":"LineString","properties":{"kind":"major_road","name:en":"Komsomolskaya Street","sort_rank":380,"kind_detail":"primary","source":"openstreetmap.org","min_zoom":8.0,"name:uk":"\u041a\u043e\u043c\u0441\u043e\u043c\u043e\u043b\u044c\u0441\u044c\u043a\u0430 \u0432\u0443\u043b\u0438\u0446\u044f","id":112051841},"arcs":[45]},{"type":"LineString","properties":{"source":"openstreetmap.org","kind":"major_road","name:en":"Zheleznodorozhnaya Street","landuse_kind":"urban_area","sort_rank":380,"kind_detail":"primary","min_zoom":8.0},"arcs":[46]},{"type":"LineString","properties":{"source":"openstreetmap.org","kind":"major_road","sort_rank":380,"kind_detail":"primary","ref":"03\u041a-019","min_zoom":8.0},"arcs":[47]},{"type":"LineString","properties":{"source":"openstreetmap.org","kind":"major_road","name:en":"Kubanskaya Street","sort_rank":380,"kind_detail":"primary","min_zoom":8.0,"id":122146429},"arcs":[48]},{"type":"MultiLineString","properties":{"kind":"major_road","name:en":"Pervomayskaya Street","network":"ru:regional","sort_rank":380,"kind_detail":"primary","source":"openstreetmap.org","min_zoom":8.0,"shield_text":"03\u041a","ref":"03\u041a-003"},"arcs":[[49],[50],[51]]},{"type":"LineString","properties":{"kind":"major_road","name:en":"Tsentralnaya Street","sort_rank":380,"kind_detail":"primary","source":"openstreetmap.org","min_zoom":8.0,"name:uk":"\u0426\u0435\u043d\u0442\u0440\u0430\u043b\u044c\u043d\u0430 \u0432\u0443\u043b\u0438\u0446\u044f","landuse_kind":"urban_area","id":108497532},"arcs":[52]},{"type":"LineString","properties":{"source":"openstreetmap.org","kind":"major_road","name:en":"Privokzalnaya Street","sort_rank":380,"kind_detail":"primary","min_zoom":8.0,"id":105697298},"arcs":[53]},{"type":"LineString","properties":{"kind":"major_road","network":"ru:regional","sort_rank":380,"kind_detail":"primary","source":"openstreetmap.org","min_zoom":8.0,"shield_text":"79\u041a","ref":"79\u041a-V","id":256057681},"arcs":[54]},{"type":"MultiLineString","properties":{"source":"openstreetmap.org","kind":"major_road","name:en":"Lenina Street","sort_rank":380,"kind_detail":"primary","min_zoom":8.0},"arcs":[[55],[56],[57],[58]]},{"type":"MultiLineString","properties":{"source":"openstreetmap.org","kind":"major_road","name:en":"Dimitrova Street","landuse_kind":"urban_area","sort_rank":380,"kind_detail":"primary","min_zoom":8.0},"arcs":[[59],[60],[61],[62]]},{"type":"LineString","properties":{"kind":"major_road","name:en":"Maykopskaya Street","sort_rank":380,"landuse_kind":"residential","source":"openstreetmap.org","min_zoom":8.0,"kind_detail":"primary","id":217756614},"arcs":[63]},{"type":"MultiLineString","properties":{"source":"openstreetmap.org","kind":"major_road","name:en":"Shosseynaya Street","landuse_kind":"residential","sort_rank":380,"kind_detail":"primary","min_zoom":8.0},"arcs":[[64],[65],[66],[67],[68],[69],[70],[71],[72],[73],[74],[75]]},{"type":"LineString","properties":{"kind":"major_road","network":"ru:regional","sort_rank":380,"kind_detail":"primary","source":"openstreetmap.org","min_zoom":8.0,"landuse_kind":"urban_area","shield_text":"03\u041a","ref":"03\u041a-037","id":46823925},"arcs":[76]},{"type":"MultiLineString","properties":{"source":"openstreetmap.org","kind":"major_road","name:en":"Lenina Street","landuse_kind":"urban_area","sort_rank":380,"kind_detail":"primary","min_zoom":8.0},"arcs":[[77],[78]]},{"type":"LineString","properties":{"source":"openstreetmap.org","kind":"major_road","name:en":"Zheleznodorozhnaya Street","landuse_kind":"residential","sort_rank":380,"kind_detail":"primary","min_zoom":8.0},"arcs":[79]},{"type":"MultiLineString","properties":{"source":"openstreetmap.org","kind":"major_road","sort_rank":380,"kind_detail":"primary","ref":"79\u041a-X\u0421III","min_zoom":8.0},"arcs":[[80],[81],[82]]},{"type":"LineString","properties":{"source":"openstreetmap.org","kind":"major_road","landuse_kind":"military","sort_rank":380,"kind_detail":"primary","min_zoom":8.0},"arcs":[83]},{"type":"LineString","properties":{"kind":"major_road","name:en":"Kuznechnaya Street","network":"ru:regional","sort_rank":380,"kind_detail":"primary","source":"openstreetmap.org","min_zoom":8.0,"landuse_kind":"urban_area","shield_text":"03\u041a","ref":"03\u041a-003"},"arcs":[84]},{"type":"LineString","properties":{"source":"openstreetmap.org","kind":"major_road","name:en":"Lugovaya Street","landuse_kind":"residential","sort_rank":380,"kind_detail":"primary","min_zoom":8.0},"arcs":[85]},{"type":"MultiLineString","properties":{"kind":"major_road","network":"ru:regional","sort_rank":380,"kind_detail":"primary","source":"openstreetmap.org","min_zoom":8.0,"shield_text":"03\u0410","ref":"03\u0410-004"},"arcs":[[86],[87],[88]]},{"type":"MultiLineString","properties":{"kind":"major_road","network":"ru:regional","sort_rank":380,"kind_detail":"primary","source":"openstreetmap.org","min_zoom":8.0,"landuse_kind":"urban_area","shield_text":"79\u041d","ref":"79\u041d-CXCV"},"arcs":[[89],[90],[91],[92],[93]]},{"type":"MultiLineString","properties":{"source":"openstreetmap.org","kind":"major_road","landuse_kind":"urban_area","sort_rank":380,"kind_detail":"primary","min_zoom":8.0},"arcs":[[94],[95],[96],[97],[98],[99],[100],[101],[102],[103],[104],[105],[106],[107],[108],[109],[110],[111],[112],[113],[114],[115],[116],[117],[118],[119],[120],[121],[122],[123],[124],[125],[126],[127],[128],[129],[130],[131]]},{"type":"LineString","properties":{"kind":"major_road","name:en":"Krasnaya Street","sort_rank":380,"landuse_kind":"residential","source":"openstreetmap.org","min_zoom":8.0,"kind_detail":"primary","id":46823933},"arcs":[132]},{"type":"MultiLineString","properties":{"kind":"major_road","name:en":"Korolyova Street","network":"ru:regional","sort_rank":380,"kind_detail":"primary","source":"openstreetmap.org","min_zoom":8.0,"landuse_kind":"urban_area","shield_text":"03\u041a","ref":"03\u041a-003"},"arcs":[[133],[134]]},{"type":"LineString","properties":{"bus_network":null,"name:en":"Podlesnaya Street","sort_rank":380,"kind_detail":"primary","kind":"major_road","source":"openstreetmap.org","min_zoom":8.0,"bus_shield_text":"\u0410\u0432\u0442\u043e\u0431\u0443\u0441 \u21169\u0430","landuse_kind":"urban_area"},"arcs":[135]},{"type":"LineString","properties":{"source":"openstreetmap.org","kind":"major_road","name:en":"Promyshlennaya Street","landuse_kind":"urban_area","sort_rank":380,"kind_detail":"primary","min_zoom":8.0},"arcs":[136]},{"type":"LineString","properties":{"source":"openstreetmap.org","kind":"major_road","name:en":"Vokazlnaya Street","sort_rank":380,"kind_detail":"primary","min_zoom":8.0},"arcs":[137]},{"type":"LineString","properties":{"source":"openstreetmap.org","kind":"major_road","name:en":"Shkolnaya Street","sort_rank":380,"kind_detail":"primary","min_zoom":8.0,"id":111088716},"arcs":[138]},{"type":"LineString","properties":{"source":"openstreetmap.org","kind":"major_road","landuse_kind":"residential","sort_rank":380,"kind_detail":"primary","ref":"03\u041a-019","min_zoom":8.0},"arcs":[139]},{"type":"LineString","properties":{"source":"openstreetmap.org","kind":"major_road","name:en":"Mira Street","sort_rank":380,"kind_detail":"primary","min_zoom":8.0,"id":114295939},"arcs":[140]},{"type":"LineString","properties":{"kind":"major_road","int_name":"Sovetskaya Street","sort_rank":380,"kind_detail":"primary","source":"openstreetmap.org","min_zoom":8.0,"name:en":"Sovetskaya Street","name:uk":"\u0420\u0430\u0434\u044f\u043d\u0441\u044c\u043a\u0430 \u0432\u0443\u043b\u0438\u0446\u044f"},"arcs":[141]},{"type":"MultiLineString","properties":{"sort_rank":380,"kind_detail":"primary","min_zoom":8.0,"kind":"major_road","source":"openstreetmap.org"},"arcs":[[142],[143],[144],[145],[146],[147],[148],[149],[150],[151],[152],[153],[154],[155],[156],[157],[158],[159],[160],[161],[162],[163],[164],[165],[166],[167],[168],[169],[170],[171],[172],[173],[174],[175],[176],[177],[178],[179],[180],[181],[182],[183],[184],[185],[186],[187],[188],[189],[190],[191],[192],[193],[194],[195],[196],[197],[198],[199],[200],[201],[202],[203],[204]]},{"type":"MultiLineString","properties":{"source":"openstreetmap.org","kind":"major_road","name:en":"Mira Street","landuse_kind":"residential","sort_rank":380,"kind_detail":"primary","min_zoom":8.0},"arcs":[[205],[206]]},{"type":"LineString","properties":{"kind":"major_road","name:en":"Zheleznodorozhnaya Street","network":"ru:regional","sort_rank":380,"kind_detail":"primary","source":"openstreetmap.org","min_zoom":8.0,"shield_text":"03\u041a","ref":"03\u041a-003","id":178840484},"arcs":[207]},{"type":"MultiLineString","properties":{"source":"openstreetmap.org","kind":"major_road","name:en":"Profsoyuznaya Street","sort_rank":380,"kind_detail":"primary","min_zoom":8.0},"arcs":[[208],[209],[210],[211],[212]]},{"type":"LineString","properties":{"kind":"major_road","name:en":"Kommunisticheskaya Street","sort_rank":380,"landuse_kind":"urban_area","source":"openstreetmap.org","min_zoom":8.0,"kind_detail":"primary","id":174501942},"arcs":[213]},{"type":"LineString","properties":{"source":"openstreetmap.org","kind":"major_road","name:en":"Pushkina Street","sort_rank":380,"kind_detail":"primary","min_zoom":8.0},"arcs":[214]},{"type":"LineString","properties":{"kind":"major_road","name:en":"Korolyova Street","network":"ru:regional","sort_rank":380,"kind_detail":"primary","source":"openstreetmap.org","min_zoom":8.0,"shield_text":"03\u041a","ref":"03\u041a-003"},"arcs":[215]},{"type":"LineString","properties":{"kind":"major_road","name:en":"Aerodromnaya Street","sort_rank":380,"landuse_kind":"urban_area","source":"openstreetmap.org","min_zoom":8.0,"kind_detail":"primary","id":107970335},"arcs":[216]},{"type":"LineString","properties":{"kind":"major_road","name:en":"Lenina Street","network":"ru:regional","sort_rank":380,"kind_detail":"primary","source":"openstreetmap.org","min_zoom":8.0,"shield_text":"03\u041a","ref":"03\u041a-003","id":178840486},"arcs":[217]},{"type":"MultiLineString","properties":{"kind":"major_road","network":"ru:regional","sort_rank":380,"kind_detail":"primary","source":"openstreetmap.org","min_zoom":8.0,"shield_text":"03\u041a","ref":"03\u041a-037"},"arcs":[[218],[219]]},{"type":"LineString","properties":{"kind":"major_road","name:en":"Sportivnaya Street","sort_rank":380,"landuse_kind":"urban_area","source":"openstreetmap.org","min_zoom":8.0,"kind_detail":"primary","id":113582899},"arcs":[220]},{"type":"LineString","properties":{"kind":"major_road","network":"ru:regional","sort_rank":380,"kind_detail":"primary","source":"openstreetmap.org","min_zoom":8.0,"landuse_kind":"urban_area","shield_text":"79\u041a","ref":"79\u041a-V","id":256057681},"arcs":[221]},{"type":"LineString","properties":{"source":"openstreetmap.org","kind":"major_road","name:en":"Naberezhnaya Street","landuse_kind":"residential","sort_rank":380,"kind_detail":"primary","min_zoom":8.0},"arcs":[222]},{"type":"LineString","properties":{"kind":"major_road","name:en":"Korolyova Street","sort_rank":380,"landuse_kind":"urban_area","source":"openstreetmap.org","min_zoom":8.0,"kind_detail":"primary","id":174501939},"arcs":[223]},{"type":"MultiLineString","properties":{"source":"openstreetmap.org","kind":"major_road","landuse_kind":"residential","sort_rank":380,"kind_detail":"primary","min_zoom":8.0},"arcs":[[224],[225],[226],[227],[228],[229],[230],[231],[232],[233],[234],[235],[236]]},{"type":"LineString","properties":{"kind":"major_road","name:en":"Kommunisticheskaya Street","network":"ru:regional","sort_rank":380,"kind_detail":"primary","source":"openstreetmap.org","min_zoom":8.0,"shield_text":"03\u041a","ref":"03\u041a-003"},"arcs":[237]},{"type":"LineString","properties":{"source":"openstreetmap.org","kind":"major_road","name:en":"Ostrovskogo Street","landuse_kind":"residential","sort_rank":380,"kind_detail":"primary","min_zoom":8.0},"arcs":[238]},{"type":"LineString","properties":{"kind":"major_road","name:en":"Shosseynaya Street","network":"ru:regional","sort_rank":380,"kind_detail":"primary","source":"openstreetmap.org","min_zoom":8.0,"shield_text":"79\u041a","ref":"79\u041a-CX"},"arcs":[239]},{"type":"LineString","properties":{"kind":"major_road","network":"ru:regional","sort_rank":380,"kind_detail":"primary","source":"openstreetmap.org","min_zoom":8.0,"landuse_kind":"urban_area","shield_text":"03\u041a","ref":"03\u041a-003","id":166279667},"arcs":[240]},{"type":"LineString","properties":{"source":"openstreetmap.org","kind":"major_road","name:en":"Zavodaskaya Street","sort_rank":380,"kind_detail":"primary","min_zoom":8.0,"id":43940583},"arcs":[241]},{"type":"MultiLineString","properties":{"kind":"major_road","name:en":"Tuapsinskaya Street","network":"ru:regional","sort_rank":380,"kind_detail":"primary","source":"openstreetmap.org","min_zoom":8.0,"shield_text":"03\u041a","ref":"03\u041a-003"},"arcs":[[242],[243]]},{"type":"LineString","properties":{"kind":"major_road","network":"ru:regional","sort_rank":380,"kind_detail":"primary","source":"openstreetmap.org","min_zoom":8.0,"shield_text":"79\u041d","ref":"79\u041d-CXCV"},"arcs":[244]},{"type":"MultiLineString","properties":{"kind":"major_road","network":"ru:regional","sort_rank":380,"kind_detail":"primary","source":"openstreetmap.org","min_zoom":8.0,"shield_text":"03\u041a","ref":"03\u041a-003"},"arcs":[[245],[246],[247],[248],[249],[250],[251],[252],[253],[254],[255],[256],[257]]},{"type":"LineString","properties":{"kind":"major_road","name:en":"Voroshilova Street","network":"ru:regional","sort_rank":380,"kind_detail":"primary","source":"openstreetmap.org","min_zoom":8.0,"shield_text":"03\u041a","ref":"03\u041a-003","id":38242899},"arcs":[258]},{"type":"MultiLineString","properties":{"source":"openstreetmap.org","kind":"major_road","sort_rank":380,"kind_detail":"primary","ref":"79\u041d-X\u0421V","min_zoom":8.0},"arcs":[[259],[260],[261],[262],[263]]},{"type":"LineString","properties":{"source":"openstreetmap.org","kind":"major_road","name:en":"Lenina Street","landuse_kind":"residential","sort_rank":380,"kind_detail":"primary","min_zoom":8.0},"arcs":[264]},{"type":"LineString","properties":{"kind":"major_road","name:en":"Shosseynaya Street","sort_rank":380,"landuse_kind":"urban_area","source":"openstreetmap.org","min_zoom":8.0,"kind_detail":"primary","id":106355398},"arcs":[265]},{"type":"MultiLineString","properties":{"source":"openstreetmap.org","kind":"major_road","name:en":"Shosseynaya Street","sort_rank":380,"kind_detail":"primary","min_zoom":8.0},"arcs":[[266],[267],[268],[269]]},{"type":"LineString","properties":{"source":"openstreetmap.org","kind":"major_road","landuse_kind":"residential","sort_rank":380,"kind_detail":"primary","ref":"79\u041a-X\u0421III","min_zoom":8.0},"arcs":[270]},{"type":"LineString","properties":{"source":"openstreetmap.org","kind":"major_road","name:en":"Lermontova Street","sort_rank":380,"kind_detail":"primary","min_zoom":8.0},"arcs":[271]},{"type":"LineString","properties":{"source":"openstreetmap.org","kind":"major_road","sort_rank":380,"kind_detail":"primary","ref":"79\u041d-\u0421IX","min_zoom":8.0},"arcs":[272]},{"type":"LineString","properties":{"source":"openstreetmap.org","kind":"major_road","name:en":"Kolkhoznaya Street","sort_rank":380,"kind_detail":"primary","min_zoom":8.0,"id":38884456},"arcs":[273]},{"type":"LineString","properties":{"source":"openstreetmap.org","kind":"major_road","name:en":"Ostrovskogo Street","sort_rank":380,"kind_detail":"primary","min_zoom":8.0,"id":262315778},"arcs":[274]},{"type":"MultiLineString","properties":{"source":"openstreetmap.org","kind":"major_road","name:en":"Khakurate Street","landuse_kind":"urban_area","sort_rank":380,"kind_detail":"primary","min_zoom":8.0},"arcs":[[275],[276],[277]]},{"type":"LineString","properties":{"source":"openstreetmap.org","kind":"major_road","name:en":"Podlesnaya Street","landuse_kind":"urban_area","sort_rank":380,"kind_detail":"primary","min_zoom":8.0},"arcs":[278]},{"type":"LineString","properties":{"source":"openstreetmap.org","kind":"major_road","landuse_kind":"urban_area","sort_rank":380,"kind_detail":"primary","ref":"03\u041a-019","min_zoom":8.0},"arcs":[279]},{"type":"LineString","properties":{"kind":"major_road","sort_rank":380,"kind_detail":"primary","bus_network":null,"source":"openstreetmap.org","min_zoom":8.0,"bus_shield_text":"4","landuse_kind":"urban_area","id":119628187},"arcs":[280]},{"type":"LineString","properties":{"kind":"major_road","name:en":"Shosseynaya Street","network":"ru:regional","sort_rank":380,"kind_detail":"primary","source":"openstreetmap.org","min_zoom":8.0,"landuse_kind":"urban_area","shield_text":"79\u041a","ref":"79\u041a-V"},"arcs":[281]},{"type":"LineString","properties":{"kind":"major_road","name:en":"Oktyabrskaya Street","sort_rank":380,"kind_detail":"primary","source":"openstreetmap.org","min_zoom":8.0,"int_name":"Oktyabrskaya Street","id":117068736},"arcs":[282]},{"type":"MultiLineString","properties":{"kind":"major_road","name:en":"Kommunisticheskaya Street","network":"ru:regional","sort_rank":380,"kind_detail":"primary","source":"openstreetmap.org","min_zoom":8.0,"landuse_kind":"urban_area","shield_text":"03\u041a","ref":"03\u041a-003"},"arcs":[[283],[284],[285],[286],[287],[288]]},{"type":"LineString","properties":{"kind":"major_road","name:en":"Khakurate Street","sort_rank":380,"kind_detail":"primary","bus_network":null,"source":"openstreetmap.org","min_zoom":8.0,"bus_shield_text":"\u0410\u0432\u0442\u043e\u0431\u0443\u0441 \u2116110","landuse_kind":"urban_area","id":314875785},"arcs":[289]},{"type":"LineString","properties":{"kind":"major_road","name:en":"Partizanskaya Street","network":"ru:regional","sort_rank":380,"kind_detail":"primary","source":"openstreetmap.org","min_zoom":8.0,"landuse_kind":"urban_area","shield_text":"03\u041a","ref":"03\u041a-003","id":174501940},"arcs":[290]}]},"earth":{"type":"GeometryCollection","geometries":[{"type":"Polygon","properties":{"sort_rank":10,"source":"naturalearthdata.com","kind":"earth","min_zoom":0.0,"id":4743},"arcs":[[291]]}]},"landuse":{"type":"GeometryCollection","geometries":[{"type":"Polygon","properties":{"kind":"residential","name:en":"Vladimirskaya","name":"\u0412\u043b\u0430\u0434\u0438\u043c\u0438\u0440\u0441\u043a\u0430\u044f","area":33756700,"sort_rank":20,"source":"openstreetmap.org","min_zoom":8.0,"old_name":"\u0412\u043b\u0430\u0434\u0438\u043c\u0438\u0440\u043e\u0432\u0441\u043a\u0430\u044f","tier":2,"id":78976548},"arcs":[[292]]},{"type":"Polygon","properties":{"kind":"residential","name":"\u041f\u0435\u0440\u0435\u043f\u0440\u0430\u0432\u043d\u0430\u044f","area":16674600,"sort_rank":20,"source":"openstreetmap.org","min_zoom":8.0,"tier":2,"id":-5498579,"osm_relation":true},"arcs":[[293]]},{"type":"MultiPolygon","properties":{"source":"openstreetmap.org","kind":"residential","tier":2,"area":44365139,"sort_rank":20,"min_zoom":8.0,"osm_relation":true},"arcs":[[[294]]]},{"type":"Polygon","properties":{"kind":"residential","name:en":"Psebai","name":"\u041f\u0441\u0435\u0431\u0430\u0439","area":25823200,"sort_rank":20,"source":"openstreetmap.org","min_zoom":8.0,"old_name":"\u0441\u0442\u0430\u043d\u0438\u0446\u0430 \u041f\u0441\u0435\u0431\u0430\u0439\u0441\u043a\u0430\u044f","tier":2,"id":-4065273,"osm_relation":true},"arcs":[[295]]},{"type":"Polygon","properties":{"kind":"residential","name:en":"Abadzakhskaya","name":"\u0410\u0431\u0430\u0434\u0437\u0435\u0445\u0441\u043a\u0430\u044f","area":12556200,"sort_rank":20,"source":"openstreetmap.org","min_zoom":8.0,"tier":2,"id":46923344},"arcs":[[296]]},{"type":"Polygon","properties":{"kind":"residential","name:en":"Tulskiy","name":"\u0422\u0443\u043b\u044c\u0441\u043a\u0438\u0439","area":15989600,"sort_rank":20,"source":"openstreetmap.org","min_zoom":8.0,"tier":2,"id":-5891060,"osm_relation":true},"arcs":[[297]]},{"type":"Polygon","properties":{"kind":"residential","name:en":"Petropavlovskaya","name":"\u041f\u0435\u0442\u0440\u043e\u043f\u0430\u0432\u043b\u043e\u0432\u0441\u043a\u0430\u044f","area":31837500,"sort_rank":20,"source":"openstreetmap.org","min_zoom":8.0,"tier":2,"id":161639723},"arcs":[[298]]},{"type":"Polygon","properties":{"kind":"residential","name:en":"Makhoshevskaya","name":"\u041c\u0430\u0445\u043e\u0448\u0435\u0432\u0441\u043a\u0430\u044f","area":12358300,"sort_rank":20,"source":"openstreetmap.org","min_zoom":8.0,"tier":2,"id":46922260},"arcs":[[299]]},{"type":"MultiPolygon","properties":{"kind":"nature_reserve","protect_class":"2","area":3697306392,"sort_rank":23,"source":"openstreetmap.org","min_zoom":4.0,"tier":2,"osm_relation":true},"arcs":[[[300]]]},{"type":"Polygon","properties":{"kind":"military","natural":"grassland","area":145224000,"sort_rank":45,"source":"openstreetmap.org","min_zoom":8.0,"tier":3,"id":-5612041,"osm_relation":true},"arcs":[[301]]},{"type":"Polygon","properties":{"kind":"residential","name:en":"Kostromskaya","name":"\u041a\u043e\u0441\u0442\u0440\u043e\u043c\u0441\u043a\u0430\u044f","area":14336300,"sort_rank":20,"source":"openstreetmap.org","min_zoom":8.0,"old_name":"\u041f\u0441\u0435\u0444\u0438\u0440\u0441\u043a\u0430\u044f","tier":2,"id":46923357},"arcs":[[302]]},{"type":"Polygon","properties":{"kind":"residential","name:en":"Gubskaya","name":"\u0413\u0443\u0431\u0441\u043a\u0430\u044f","area":16638000,"sort_rank":20,"source":"openstreetmap.org","min_zoom":8.0,"tier":2,"id":46924435},"arcs":[[303]]},{"type":"Polygon","properties":{"kind":"park","area":74579600,"sort_rank":24,"source":"openstreetmap.org","min_zoom":8.0,"tier":2,"id":-5497982,"osm_relation":true},"arcs":[[304]]},{"type":"Polygon","properties":{"source":"openstreetmap.org","kind":"military","area":21274000,"tier":3,"id":95171409,"min_zoom":8.0,"sort_rank":45},"arcs":[[305]]},{"type":"MultiPolygon","properties":{"source":"naturalearthdata.com","kind":"urban_area","name":"","area":2399592587,"sort_rank":11,"min_zoom":4.0},"arcs":[[[306]],[[307]],[[308]],[[309]],[[310]],[[311]],[[312]],[[313]]]},{"type":"Polygon","properties":{"kind":"residential","name:en":"Rodnikovskaya","name":"\u0420\u043e\u0434\u043d\u0438\u043a\u043e\u0432\u0441\u043a\u0430\u044f","area":17075100,"sort_rank":20,"source":"openstreetmap.org","min_zoom":8.0,"tier":2,"id":79483235},"arcs":[[314]]},{"type":"Polygon","properties":{"kind":"residential","name:en":"Kurganinsk","name":"\u041a\u0443\u0440\u0433\u0430\u043d\u0438\u043d\u0441\u043a","area":64758000,"sort_rank":20,"name:de":"Kurganinsk","source":"openstreetmap.org","min_zoom":8.0,"name:uk":"\u041a\u0443\u0440\u0433\u0430\u043d\u0438\u043d\u0441\u044c\u043a","old_name":"\u0441\u0442\u0430\u043d\u0438\u0446\u0430 \u041a\u0443\u0440\u0433\u0430\u043d\u043d\u0430\u044f","tier":2,"id":-6589900,"osm_relation":true},"arcs":[[315]]},{"type":"Polygon","properties":{"kind":"residential","name:en":"Yelenovskoye","name":"\u0415\u043b\u0435\u043d\u043e\u0432\u0441\u043a\u043e\u0435","area":12522700,"sort_rank":20,"source":"openstreetmap.org","min_zoom":8.0,"old_name":"\u0415\u043b\u0435\u043d\u0438\u043d\u0441\u043a\u043e\u0435","tier":2,"id":46874568},"arcs":[[316]]},{"type":"Polygon","properties":{"kind":"park","protect_class":"7","area":711803008,"sort_rank":24,"source":"openstreetmap.org","min_zoom":6.0,"tier":2,"id":-5497983,"osm_relation":true},"arcs":[[317]]},{"type":"Polygon","properties":{"source":"openstreetmap.org","kind":"residential","area":47014600,"tier":2,"id":76390247,"min_zoom":8.0,"sort_rank":20},"arcs":[[318]]},{"type":"MultiPolygon","properties":{"source":"openstreetmap.org","kind":"park","tier":2,"area":7998626682,"sort_rank":24,"min_zoom":4.0,"osm_relation":true},"arcs":[[[319]],[[320]],[[321]],[[322]],[[323]]]}]}},"type":"Topology","transform":{"translate":[39.375,44.0875850282],"scale":[0.0003433228,0.0002444948]},"arcs":[[[0,2974],[236,11],[10,-45],[30,22],[42,-30],[-3,64],[223,-54],[27,85],[-33,37],[145,39],[32,57],[69,22],[5,23],[24,-8],[2,20],[-46,18],[25,32],[-13,38],[-42,2],[-26,53],[-59,8],[-11,50],[-60,11],[5,64],[-25,-30],[-20,20],[17,17],[-40,6],[-47,72],[-90,23],[53,49],[-33,15],[22,15],[-24,2],[-47,-52],[-25,63],[-32,-12],[-11,197],[47,-14],[10,50],[53,-32],[-8,35],[36,-10],[-14,24],[30,-3],[-2,27],[61,2],[-36,-14],[-6,-34],[72,14],[-27,-54],[34,-15],[0,40],[34,-26],[-7,56],[38,-3],[11,36],[15,-21],[-18,-12],[42,-14],[75,22],[88,-62],[-4,-43],[-45,-24],[62,-12],[-36,-1],[-1,-38],[-133,-91],[63,-91],[92,62],[-21,31],[96,43],[-17,-55],[56,5],[-36,-33],[52,-20],[-43,-20],[32,-50],[236,91],[-28,68],[353,134],[18,-92],[36,6],[60,-306],[51,11],[63,-153],[-86,-35],[69,-170],[53,21],[28,-70],[-87,-34],[-14,35],[-34,-15],[19,-71],[35,-65],[69,28],[79,-166],[60,-53],[-121,-121],[-52,52],[-26,-27],[-52,52],[-95,-95],[-4,-59],[20,10],[1,-47],[33,-9],[-91,-104],[58,-44],[-34,-38],[47,-64],[-27,-22],[11,-51],[26,10],[26,-32],[-11,-52],[-160,5],[-5,-147],[36,-2],[-16,-500],[-25,-5],[-24,-71],[48,-72],[-101,-177],[74,-62],[75,55],[34,-3],[44,-56],[53,15],[12,29],[50,0],[45,-87],[-32,-83],[23,-127],[46,-57],[207,30],[47,-68],[48,-22],[-50,-69],[-2,-128],[34,-81],[-41,-31],[9,-70],[-22,-34],[53,-27],[17,-39],[-54,-31],[-57,59],[-113,-123],[5,-76],[-1,-1]],[[1731,0],[-10,8],[-3,62],[-42,-21],[-160,104],[-89,243],[-281,-17],[23,-43],[-34,-26],[-8,-60],[43,-79],[71,-29],[70,-142]],[[3051,0],[30,108],[-79,77],[13,69],[-31,40],[19,32],[-134,325],[240,158],[36,82],[82,41],[-140,434],[-67,6],[-12,117],[-32,28],[-17,76],[-22,1],[68,114],[51,36],[-40,56],[13,30],[-53,-10],[-28,67],[-109,-4],[0,41],[-38,39],[52,122],[-43,131],[9,65],[22,16],[79,-57],[71,81],[7,74],[-35,-8],[-76,73],[20,61],[-15,52],[105,3],[6,72],[69,1],[1,111],[284,1],[-26,-88],[133,13],[12,-368],[147,-2],[-1,-74],[73,0],[-1,-210],[79,-157],[-34,-64],[7,-195],[-121,2],[0,-74],[455,0],[6,50],[-84,117],[-8,77],[-30,20],[-34,114],[27,207],[-54,77],[-55,31],[-77,147],[9,27],[-59,44],[-39,241],[-37,60],[19,60],[-135,215],[-21,109],[25,34],[-58,16],[-102,135],[19,24],[-34,111],[-226,190],[-179,221],[-85,75],[-60,-33],[23,47],[-29,-19],[-22,26],[-22,-21],[1,33],[-99,22],[14,41],[-26,42],[29,-5],[-9,17]],[[71,4096],[9,-39],[-59,-14],[-21,-82]],[[138,4096],[-9,0]],[[1530,4096],[-18,-18],[0,18]],[[1745,4096],[-14,-34],[-59,34]],[[1794,4096],[-29,0]],[[1512,2721],[-231,-149],[-123,-2],[-371,-220],[-26,-125],[-77,-151],[-132,-102],[-37,-69],[-115,-42],[-59,-74],[-67,-30],[47,-119],[54,-37],[44,-80],[-134,-102],[-83,-29],[-11,-44],[-78,-21],[-26,-76],[26,-41],[-41,-24],[-35,42],[-37,-11]],[[4096,3495],[-514,-128],[-172,-13],[-80,-59],[-426,45],[-370,-43],[-594,-287],[-314,-102],[-3,-31],[55,-42],[-9,-30],[-388,-233],[-123,-2],[-371,-220],[-26,-125],[-77,-151],[-132,-102],[-37,-69],[-115,-42],[-59,-74],[-67,-30],[47,-119],[54,-37],[44,-80],[-134,-102],[-83,-29],[-11,-44],[-78,-21],[-26,-76],[26,-41],[-41,-24],[-35,42],[-37,-11]],[[1534,2731],[-64,-37]],[[1536,2732],[31,-3],[226,-286],[23,-110],[48,-30],[50,29],[43,-8],[133,-126],[129,-33],[-28,-181],[65,-83],[-3,-171],[87,-215],[30,-323],[39,-114],[2,-103],[-76,-162]],[[1470,2694],[64,37]],[[1536,2732],[141,82],[-54,63],[10,36],[307,97],[590,286],[374,44],[424,-46],[77,59],[170,12],[312,84]],[[3888,3449],[208,51]],[[819,334],[-13,-25],[39,-38],[12,-80],[83,-132],[5,-59]],[[1135,651],[-19,8],[-61,-89],[-96,-81],[-56,-2]],[[989,2125],[24,38]],[[3643,2590],[-27,85]],[[683,2113],[-6,3]],[[670,2105],[-6,4]],[[3465,2219],[48,-6]],[[1421,2946],[116,-126]],[[1574,2757],[29,-45]],[[1890,2265],[88,-71]],[[1,4096],[-1,-1]],[[752,4096],[235,-396]],[[987,3700],[18,-71],[29,-71]],[[1034,3558],[-47,142]],[[1034,3558],[180,-163],[207,-449]],[[1537,2820],[37,-63]],[[1603,2712],[189,-293],[17,-87],[81,-67]],[[471,1372],[20,-8]],[[3119,2162],[117,3]],[[3549,3379],[-32,-9]],[[0,3237],[224,-16]],[[243,3227],[107,57],[113,20],[129,95]],[[603,3435],[-11,-36]],[[592,3399],[12,36]],[[885,3618],[115,34]],[[106,1323],[73,23],[14,29]],[[2171,2155],[1,6]],[[1959,3204],[2,-8]],[[3790,2504],[17,-45]],[[687,2119],[-4,-6]],[[985,2127],[4,-2]],[[1431,2679],[-4,-5]],[[4096,3495],[-460,-110]],[[1224,2466],[25,9]],[[457,1386],[-21,41]],[[461,1385],[10,-13]],[[491,1364],[19,-27]],[[1399,2654],[-14,-10]],[[2853,3327],[21,-16]],[[1476,1645],[47,-46],[97,8],[175,229],[199,141]],[[164,2436],[-14,10]],[[677,2116],[-7,-11]],[[2874,3311],[-2,-88]],[[3782,2318],[-30,81]],[[1978,2194],[4,-4]],[[1982,2190],[5,-4]],[[1983,2191],[-1,-1]],[[1982,2190]],[[3759,2617],[7,-32]],[[3542,3419],[9,-35]],[[3552,3381]],[[3552,3381],[-1,0]],[[3551,3381]],[[3552,3380],[2,-1]],[[3554,3379],[-1,2]],[[3561,3366],[-7,13]],[[3551,3380],[1,0]],[[3552,3380],[1,1]],[[3553,3381],[-1,0]],[[3552,3381],[-1,0]],[[3551,3381],[0,-1]],[[1435,2981],[52,21]],[[1012,1668],[-8,50]],[[3784,2313],[-2,5]],[[1457,2702],[-26,-23]],[[3360,3331],[-2,-3]],[[3358,3326],[2,5]],[[3405,3357],[-45,-26]],[[2832,2303],[156,-136]],[[1049,1471],[7,-10]],[[3551,3381],[1,-1]],[[607,3453],[-3,-15]],[[604,3439],[3,14]],[[607,3453],[87,85],[55,2],[136,78]],[[1935,2228],[5,-15]],[[1938,2209],[20,1]],[[1938,2209],[2,4]],[[1941,2027],[-3,182]],[[1940,2213],[6,7]],[[1004,1718],[-6,17]],[[1024,1547],[-12,121]],[[1024,1547],[-1,-1]],[[1024,1547],[0,-1]],[[1025,1546],[-1,1]],[[1026,1545],[-2,2]],[[1385,2644],[3,-6]],[[1427,2674],[-28,-20]],[[1466,2691],[8,-9]],[[1592,2719],[-38,-26]],[[1978,2194],[-2,2],[-4,3]],[[1972,2199],[-70,57]],[[1902,2256],[-12,10]],[[1903,2257],[-1,-1]],[[1902,2256],[0,-1]],[[1920,2243],[-16,13]],[[1913,2246],[6,-5]],[[1974,2197],[-2,2]],[[1972,2199],[-2,2]],[[1987,2186],[4,3]],[[2072,2023],[0,9]],[[2161,2095],[10,60]],[[2221,2154],[7,0]],[[2230,2153],[184,132]],[[3544,3456],[-2,-35]],[[3781,2310],[3,3]],[[3784,2313],[39,-81]],[[3785,2330],[67,37],[-21,45]],[[3840,2424],[97,33]],[[3987,2457],[14,-18]],[[4015,2421],[35,-46]],[[4050,2375],[0,-2]],[[4053,2374],[-3,1]],[[4056,2375],[-3,-1]],[[4055,2373],[1,2]],[[4056,2375],[40,39]],[[4076,1455],[20,-24]],[[4051,2369],[3,2],[0,3],[-4,-2],[1,-3]],[[2000,3199],[40,-57]],[[1031,1545],[-1,1]],[[1056,1461],[15,-6]],[[2127,2062],[10,9]],[[1554,2693],[-30,25]],[[956,2053],[2,22]],[[150,2446],[-6,-3]],[[3597,3374],[-37,-5]],[[959,1987],[-3,66]],[[2872,3223],[-50,1]],[[144,2443],[-93,2],[-51,32]],[[664,2109],[-63,57],[-228,80],[-102,123],[-73,34]],[[454,1388],[-1,0]],[[454,1387],[0,1]],[[604,3438],[-1,-3]],[[604,3435],[0,4]],[[910,2073],[-96,44],[-93,-20],[-4,20]],[[998,1735],[-49,94],[7,61]],[[956,2053]],[[959,1970],[0,17]],[[1002,3658],[-1,11]],[[1002,3658],[1,-10]],[[1013,2163],[211,303]],[[1181,1443],[7,4]],[[1371,2607],[-122,-132]],[[1890,2266],[-81,66],[-18,89],[-160,248]],[[1680,2601],[8,-12]],[[1750,3108],[191,78]],[[2104,3170],[-1,-2],[2,0]],[[2107,3170],[-1,0]],[[2106,3169],[1,1]],[[2822,3224],[-536,11],[-179,-65]],[[2414,2285],[68,54],[178,-41]],[[2660,2298],[19,-6]],[[2679,2292],[153,11]],[[2922,3423],[-69,-96]],[[2988,2167],[131,-5]],[[3236,2165],[113,-20],[116,74]],[[3241,4007],[226,-238],[-9,-77],[27,-55],[66,-46],[-7,-135]],[[3267,3054],[45,242]],[[3311,3301],[0,-1]],[[3359,3328],[-48,-27]],[[3312,3300],[-1,1]],[[3312,3297],[1,1]],[[3312,3300],[0,-3]],[[3312,3297],[0,-1]],[[3313,3298],[-1,2]],[[3312,3296],[1,2]],[[3616,2675],[-294,293]],[[3359,3330],[-1,0]],[[3513,2213],[158,27],[110,70]],[[3641,3153],[151,-384],[-31,-142]],[[3752,2399],[-109,191]],[[3766,2584],[24,-80]],[[3779,2328],[6,2]],[[3807,2459],[19,-38]],[[3823,2232],[78,-158],[-7,-209],[182,-410]],[[3826,2421],[2,-2]],[[3828,2419],[0,-1]],[[3828,2418],[1,-3]],[[3829,2419],[-3,2]],[[3829,2419],[-1,0]],[[3828,2419],[0,-1]],[[3828,2418]],[[3828,2418],[2,0]],[[3829,2415],[1,3]],[[3829,2415],[2,-3]],[[3831,2420],[-2,-1]],[[3830,2418],[1,2]],[[3831,2420],[9,4]],[[3937,2457],[50,0]],[[4001,2439],[14,-18]],[[2106,3170],[-1,0],[-1,-1],[2,-1],[0,2]],[[3025,4096],[115,-52]],[[3539,3326],[93,-154]],[[92,1275],[13,38]],[[956,2075],[-46,-2]],[[958,2075],[-2,0]],[[956,2075],[1,0]],[[957,2075],[1,-2]],[[957,2075]],[[1030,1546],[2,1]],[[717,2117],[-30,2]],[[1071,1455],[62,-25]],[[1524,2718],[-50,-36]],[[88,1264],[-2,10]],[[1401,2967],[34,14]],[[1487,3002],[263,106]],[[2137,2071],[20,-3]],[[1994,1977],[13,9]],[[1991,3197],[-32,7]],[[1032,1547],[-1,-2]],[[1455,2700],[3,0]],[[1456,2701],[1,-1]],[[1457,2702],[1,-2]],[[1458,2700],[8,-9]],[[1941,3186],[20,10]],[[2000,3199],[-9,-2]],[[3140,4044],[14,13]],[[3241,4007]],[[3562,3367],[-23,-41]],[[3542,3421],[0,-2]],[[3632,3172],[9,-19]],[[3761,2627],[-2,-10]],[[3766,2585],[0,-1]],[[970,1546],[-29,-9]],[[2040,3142],[29,13]],[[225,3221],[18,6]],[[1024,1546],[0,-1],[1,0],[0,1],[-1,0]],[[2934,3462],[-12,-39]],[[109,1225],[-23,14]],[[395,1425],[41,2]],[[1976,1962],[-35,65]],[[0,1213],[34,14],[43,-41],[32,39]],[[86,1239],[2,25]],[[86,1274],[6,1]],[[105,1313],[1,10]],[[193,1375],[135,84],[67,-34]],[[454,1390],[1,-4]],[[457,1386],[4,-1]],[[510,1337],[93,-15],[19,23],[50,-43],[269,235]],[[1133,1430],[3,24]],[[1142,1450],[20,-13]],[[1173,1437],[-11,0]],[[1173,1437],[8,6]],[[1188,1447],[193,14],[3,93],[35,57],[57,34]],[[1136,1454],[6,-4]],[[3199,3334],[36,18]],[[3235,3352],[5,2]],[[3240,3354],[55,19],[61,-43]],[[3358,3330],[-2,0]],[[3356,3330],[1,-1]],[[3154,4057],[87,-50]],[[1388,2638],[-2,-4]],[[198,2403],[-16,38]],[[224,3221],[1,0]],[[1386,2634],[-15,-27]],[[3322,2968],[-55,86]],[[3517,3370],[-112,-13]],[[182,2441],[-18,-5]],[[3199,3334],[-265,128]],[[958,2075],[27,52]],[[2069,3155],[34,13]],[[2097,2172],[-119,22]],[[2132,2167],[89,-13]],[[2228,2154],[2,-1]],[[2072,2032],[55,30]],[[3636,3385],[-39,-11]],[[2157,2068],[4,27]],[[2007,1986],[65,37]],[[956,1890],[3,80]],[[1023,1546],[-53,0]],[[1023,1546],[1,-1]],[[1024,1546],[-1,0]],[[1025,1545],[4,0]],[[1029,1545],[-4,1]],[[1029,1545],[1,1]],[[2097,2172],[35,-5]],[[1031,1545],[18,-74]],[[0,0],[0,4096],[4096,0],[0,-4096],[-4096,0]],[[4057,1971],[39,18],[0,-148],[-39,130]],[[4008,977],[27,37],[-18,22],[19,49],[60,-25],[0,-119],[-88,36]],[[1887,3314],[48,-26],[-11,25],[30,-3],[25,-56],[53,-10],[63,-151],[-60,-21],[-55,112],[-57,3],[-36,127]],[[4052,56],[23,49],[21,14],[0,-110],[-9,23],[-26,-32],[-2,0],[-7,56]],[[2415,1308],[66,1],[30,-34],[-51,-109],[-33,37],[19,28],[-31,21],[0,56]],[[2253,1662],[25,13],[-16,35],[25,-23],[19,46],[4,46],[-27,30],[61,20],[25,-60],[-9,-128],[-18,36],[-13,-29],[-76,14]],[[3236,4096],[30,-14],[-5,-42],[-22,-37],[-60,29],[-5,-56],[-153,120],[215,0]],[[3065,1880],[41,68],[61,27],[-40,-152],[-52,15],[15,8],[-25,34]],[[319,0],[-299,0],[8,48],[98,17],[47,75],[146,-140]],[[2725,1851],[13,379],[95,74],[161,-141],[10,-108],[-47,-2],[-14,-37],[52,-118],[-33,-41],[-42,-9],[-195,3]],[[3477,1753],[31,36],[-26,82],[98,-114],[-8,-102],[-51,26],[10,40],[-42,-5],[13,37],[-25,0]],[[3563,937],[55,48],[58,-26],[64,16],[10,-46],[-21,-30],[-52,-4],[-114,42]],[[2945,0],[-5,25],[27,-3],[6,-22],[-28,0]],[[430,2784],[17,73],[71,23],[55,-55],[-17,-71],[-57,-18],[-69,48]],[[4096,1540],[0,-262],[-93,9],[-35,34],[8,45],[89,46],[31,128]],[[481,1391],[-57,60],[-15,142],[64,-1],[130,-90],[-53,-93],[-69,-18]],[[1035,1434],[-44,23],[-32,136],[-65,46],[48,80],[67,19],[65,-31],[78,-162],[1,-43],[-118,-68]],[[1500,2967],[47,-186],[59,-52],[-11,-54],[-118,-37],[-33,-45],[-62,44],[-102,177],[-62,52],[54,38],[128,-8],[44,106],[43,1],[13,-36]],[[3548,3138],[-82,91],[-17,77],[2,105],[97,47],[97,-47],[-97,-273]],[[1826,2604],[91,-49],[13,38],[34,-68],[-24,-44],[-53,-10],[-54,31],[-33,45],[26,57]],[[2318,2366],[65,0],[0,-45],[58,-66],[20,-68],[-14,-94],[-64,-45],[32,-137],[-32,-136],[-130,136],[-161,46],[0,45],[-98,-45],[0,45],[-97,46],[0,45],[-54,77],[119,241],[160,23],[196,-23],[0,-45]],[[4096,2435],[0,-108],[-62,-155],[-1,-124],[-259,227],[18,89],[112,138],[19,1],[13,-46],[65,0],[0,-46],[64,46],[31,-22]],[[3693,2845],[42,14],[57,-91],[-40,-75],[15,-108],[-17,-11],[-57,271]],[[3394,3339],[20,33],[96,47],[71,5],[72,-230],[-19,-63],[-64,-8],[-176,216]],[[1087,4096],[84,-56],[1,-32],[-114,88],[29,0]],[[3117,0],[0,1],[101,44],[9,102],[138,23],[197,-30],[36,-130],[-6,-10],[-475,0]],[[1297,2837],[152,67],[95,-92],[14,-66],[-123,-73],[-66,107],[-72,57]],[[1339,0],[-29,0],[-11,32],[40,-32]],[[1432,0],[-68,0],[34,24],[34,-24]],[[1571,0],[-104,0],[17,22],[82,-7],[5,-15]],[[1642,0],[-14,0],[-2,9],[16,-9]],[[1728,0],[-42,0],[11,13],[-44,5],[30,19],[-100,41],[-14,45],[-54,-17],[-12,-32],[-2,45],[-22,-56],[-20,51],[19,38],[-27,17],[10,49],[19,-4],[-33,19],[16,66],[2,-52],[54,-99],[56,-19],[101,-80],[42,21],[7,-68],[3,-2]]]}