{"objects":{"water":{"type":"GeometryCollection","geometries":[{"type":"Polygon","properties":{"source":"naturalearthdata.com","kind":"ocean","area":1576712559132672,"sort_rank":200,"min_zoom":0.0,"id":1},"arcs":[[29]]},{"type":"LineString","properties":{"source":"naturalearthdata.com","kind":"ocean","sort_rank":205,"boundary":true,"min_zoom":0.0,"id":52},"arcs":[30]}]},"buildings":{"type":"GeometryCollection","geometries":[]},"places":{"type":"GeometryCollection","geometries":[{"type":"Point","properties":{"name:pt":"S\u00f3chi","name:ro":"Soci","name:ka":"\u10e1\u10dd\u10ed\u10d8","name:ko":"\uc18c\uce58","name:cs":"So\u010di","name:tr":"So\u00e7i","min_zoom":8.0,"int_name":"Sochi","name:sk":"So\u010di","name:pl":"Soczi","name:ab":"\u0428\u04d9\u0430\u0447\u0430","id":34043670,"name:ca":"Sotxi","kind_detail":"city","name:da":"Sotji","name:de":"Sotschi","source":"openstreetmap.org","name:fr":"Sotchi","name:zh":"\u7d22\u5951","name:sl":"So\u010di","name:lv":"So\u010di","name:ja":"\u30bd\u30c1","name:lt":"So\u010dis","kind":"locality","name:la":"Sotzium","name:uk":"\u0421\u043e\u0447\u0456","name:hy":"\u054d\u0578\u0579\u056b","name:sv":"Sotji","name:hu":"Szocsi","name:hr":"So\u010di","population":389946,"name:el":"\u03a3\u03cc\u03c4\u03c3\u03b9","name:eo":"So\u0109i","name:en":"Sochi","name":"\u0421\u043e\u0447\u0438","name:ku":"So\u00e7\u00ee","name:fi":"Sot\u0161i","name:et":"Sot\u0161i","name:nl":"Sotsji","name:es":"Sochi"},"coordinates":[1014,2077]},{"type":"Point","properties":{"name:el":"\u0393\u03ba\u03ac\u03b3\u03ba\u03c1\u03b1","kind":"locality","name:en":"Gagra","name":"\u0413\u0430\u0433\u0440\u0430","name:ka":"\u10d2\u10d0\u10d2\u10e0\u10d0","kind_detail":"town","name:de":"Gagra","source":"openstreetmap.org","min_zoom":8.0,"name:hy":"\u0533\u0561\u0563\u0580\u0561","name:et":"Gagra","id":1643098992,"population":15700},"coordinates":[2592,872]},{"type":"Point","properties":{"kind":"locality","name:en":"Gudauta","name":"\u0413\u0259\u0434\u043e\u0443\u04ad\u0430 - \u0413\u0443\u0434\u0430\u0443\u0442\u0430","name:lt":"Gudauta","kind_detail":"town","name:de":"Gudauta","source":"openstreetmap.org","min_zoom":8.0,"name:uk":"\u0413\u0443\u0434\u0430\u0443\u0442\u0430","name:hy":"\u0533\u0578\u0582\u0564\u0561\u0578\u0582\u0569\u0561","name:ru":"\u0413\u0443\u0434\u0430\u0443\u0442\u0430","name:ka":"\u10d2\u10e3\u10d3\u10d0\u10e3\u10d7\u10d0","name:ab":"\u0413\u0259\u0434\u043e\u0443\u04ad\u0430","id":286418463,"population":7700},"coordinates":[3640,135]},{"type":"Point","properties":{"name:lt":"Picunda","name:tr":"Pitsunda","min_zoom":8.0,"name:it":"Pezonda","name:uk":"\u041f\u0456\u0446\u0443\u043d\u0434\u0430","name:ru":"\u041f\u0438\u0446\u0443\u043d\u0434\u0430","name:ka":"\u10d1\u10d8\u10ed\u10d5\u10d8\u10dc\u10d7\u10d0","name:ab":"\u041f\u0438\u04b5\u0443\u043d\u0434\u0430","id":34185745,"population":7000,"alt_name:tr":"Bi\u00e7vinta","kind":"locality","name:en":"Pitsunda","name":"\u041f\u0438\u04b5\u0443\u043d\u0434\u0430 - \u041f\u0438\u0446\u0443\u043d\u0434\u0430","kind_detail":"town","name:de":"Pizunda","source":"openstreetmap.org"},"coordinates":[2803,365]}]},"transit":{"type":"GeometryCollection","geometries":[{"type":"MultiLineString","properties":{"kind":"train","name":"\u041c\u043e\u0441\u043a\u0432\u0430 \u2014 \u0410\u0434\u043b\u0435\u0440","sort_rank":275,"name:de":"Moskau \u2014 Adler","source":"openstreetmap.org","min_zoom":6.0,"ref":"\u041c\u043e\u0441\u043a\u0432\u0430 - \u0410\u0434\u043b\u0435\u0440","osm_relation":true},"arcs":[[10],[11]]},{"type":"MultiLineString","properties":{"source":"openstreetmap.org","kind":"train","sort_rank":275,"ref":"D18","min_zoom":6.0,"osm_relation":true},"arcs":[[12],[13],[14],[15],[16]]},{"type":"MultiLineString","properties":{"kind":"train","name":"\u0410\u0434\u043b\u0435\u0440 \u2014 \u041f\u0435\u0440\u043c\u044c 2","sort_rank":275,"name:de":"Adler \u2014 Perm 2","source":"openstreetmap.org","min_zoom":6.0,"operator":"\u0420\u0416\u0414","ref":"354\u0421","osm_relation":true},"arcs":[[17],[18],[19],[20],[21],[22],[23],[24]]},{"type":"LineString","properties":{"kind":"train","network":"\u0410\u043f\u0448\u0435\u0440\u043e\u043d\u0441\u043a\u0430\u044f \u0423\u0416\u0414","sort_rank":275,"source":"openstreetmap.org","min_zoom":6.0,"operator":"\u0410\u043f\u0448\u0435\u0440\u043e\u043d\u0441\u043a\u0438\u0439 \u0414\u041e\u041a","ref":"\u0427\u0435\u0440\u043d\u0438\u0433\u043e\u0432\u0441\u043a\u0430\u044f - \u0428\u043f\u0430\u043b\u043e\u0440\u0435\u0437","osm_relation":true},"arcs":[25]},{"type":"LineString","properties":{"kind":"train","name":"\u0410\u0434\u043b\u0435\u0440 \u2014 \u0421\u0443\u0445\u0443\u043c","sort_rank":275,"name:de":"Adler \u2014 Sochumi","source":"openstreetmap.org","min_zoom":6.0,"ref":"\u0410\u0434\u043b\u0435\u0440 - \u0421\u0443\u0445\u0443\u043c","osm_relation":true},"arcs":[26]},{"type":"MultiLineString","properties":{"kind":"train","network":"\u0420\u0416\u0414","sort_rank":275,"source":"openstreetmap.org","min_zoom":6.0,"operator":"\u0420\u0416\u0414","ref":"\u044d\u043b. \u0410\u0434\u043b\u0435\u0440 \u2014 \u0422\u0443\u0430\u043f\u0441\u0435","osm_relation":true,"name":"\u044d\u043b. \u0410\u0434\u043b\u0435\u0440 \u2014 \u0422\u0443\u0430\u043f\u0441\u0435"},"arcs":[[27],[28]]}]},"pois":{"type":"GeometryCollection","geometries":[{"type":"Point","properties":{"kind":"nature_reserve","protect_class":"2","area":2497950000,"source":"openstreetmap.org","min_zoom":6.65,"tier":2,"id":-7376943,"osm_relation":true,"name":"\u0421\u043e\u0447\u0438\u043d\u0441\u043a\u0438\u0439 \u043d\u0430\u0446\u0438\u043e\u043d\u0430\u043b\u044c\u043d\u044b\u0439 \u043f\u0430\u0440\u043a"},"coordinates":[2367,2210]}]},"boundaries":{"type":"GeometryCollection","geometries":[{"type":"LineString","properties":{"name:cy":"Georgia","name:ko":"\uc870\uc9c0\uc544 (\uad6d\uac00)","name:cv":"\u0413\u0440\u0443\u0437\u0438","name:cu":"\u0413\u0454\u0461\u0440\u0433\u0457\ua657","name:cs":"Gruzie","name:tt":"\u0413\u04e9\u0440\u0497\u0438\u0441\u0442\u0430\u043d","name:kw":"Pow Grouzi","name:kv":"\u0413\u0440\u0443\u0437\u0438\u044f","name:ku":"Gurcistan","name:tl":"Heorhiya","name:ce":"\u0413\u0443\u044c\u0440\u0436\u0438\u0439-\u041c\u043e\u0445\u043a","name:ta":"\u0b9a\u0bbf\u0baf\u0bbe\u0bb0\u0bcd\u0b9a\u0bbf\u0baf\u0bbe (\u0ba8\u0bbe\u0b9f\u0bc1)","name:tg":"\u0413\u0443\u0440\u04b7\u0438\u0441\u0442\u043e\u043d","name:ca":"Ge\u00f2rgia","name:te":"\u0c1c\u0c3e\u0c30\u0c4d\u0c1c\u0c3f\u0c2f\u0c3e (\u0c26\u0c47\u0c36\u0c02)","name:hr":"Gruzija","name:da":"Georgien","name:de":"Georgien","name:dz":"\u0f47\u0f7d\u0f0b\u0f47\u0f71","source":"openstreetmap.org","name:kn":"\u0c9c\u0cbe\u0cb0\u0ccd\u0c9c\u0cbf\u0caf","name:dv":"\u0796\u07af\u0796\u07a8\u0794\u07a7 (\u07a4\u07a6\u0787\u07aa\u0789\u07aa)","name:lv":"Gruzija","name:lt":"Gruzija","name:uz":"Gurjiston","name:kk":"\u0413\u0440\u0443\u0437\u0438\u044f","name:ur":"\u062c\u0627\u0631\u062c\u06cc\u0627","name:lb":"Georgien","name:la":"Georgia","name:uk":"\u0413\u0440\u0443\u0437\u0456\u044f","name:ug":"\u06af\u0631\u06c7\u0632\u0649\u064a\u06d5","name:li":"Georgi\u00eb","name:el":"\u0393\u03b5\u03c9\u03c1\u03b3\u03af\u03b1","name:eo":"Kartvelujo","name:en":"Georgia","name":"\u10e1\u10d0\u10e5\u10d0\u10e0\u10d7\u10d5\u10d4\u10da\u10dd","name:tk":"Gruzi\u00fda","name:ee":"Georgia","name:th":"\u0e1b\u0e23\u0e30\u0e40\u0e17\u0e28\u0e08\u0e2d\u0e23\u0e4c\u0e40\u0e08\u0e35\u0e22","name:eu":"Georgia","name:et":"Gruusia","name:es":"Georgia","name:ia":"Georgia","name:az":"G\u00fcrc\u00fcstan","name:ie":"Georgia","name:id":"Georgia","name:ar":"\u062c\u0648\u0631\u062c\u064a\u0627","name:io":"Gruzia","name:av":"\u0413\u0443\u0440\u0436\u0438","name:is":"Georg\u00eda","name:am":"\u1302\u12ee\u122d\u1302\u12eb","name:it":"Georgia","name:an":"Cheorchia","name:ru":"\u0413\u0440\u0443\u0437\u0438\u044f","name:ab":"\u049a\u044b\u0440\u04ad\u0442\u04d9\u044b\u043b\u0430","name:af":"Georgi\u00eb","kind_detail":"2","name:ky":"\u0413\u0440\u0443\u0437\u0438\u044f","name:zh-yue":"\u683c\u9b6f\u5409\u4e9e","name:zh":"\u683c\u9c81\u5409\u4e9a","name:so":"Joorjiya","name:sl":"Gruzija","name:sk":"Gruz\u00ednsko","name:ja":"\u30b0\u30eb\u30b8\u30a2","name:si":"\u0da2\u0ddd\u0dbb\u0dca\u0da2\u0dd2\u0dba\u0dcf (\u0dbb\u0da7)","name:sh":"Gruzija","name:se":"Georgia","name:sc":"Georgia","name:br":"Jorjia (bro)","name:bs":"Gruzija","name:bn":"\u099c\u09b0\u09cd\u099c\u09bf\u09af\u09bc\u09be (\u09b0\u09be\u09b7\u09cd\u099f\u09cd\u09b0)","name:bo":"\u0f60\u0f47\u0f7c\u0f62\u0f0b\u0f47\u0f72\u0f0b\u0f61\u0f0d (\u0f62\u0f92\u0fb1\u0f63\u0f0b\u0f41\u0f56\u0f0d)","name:sw":"Georgia (nchi)","name:be":"\u0413\u0440\u0443\u0437\u0456\u044f","name:su":"G\u00e9orgia","name:bg":"\u0413\u0440\u0443\u0437\u0438\u044f","name:ss":"IJojiya","name:sr":"\u0413\u0440\u0443\u0437\u0438\u0458\u0430","name:sq":"Gjeorgjia","name:jv":"Georgia","name:pt":"Ge\u00f3rgia","name:ps":"\u06ab\u0631\u062c\u0633\u062a\u0627\u0646","name:oc":"Georgia (Cauc\u00e0s)","min_zoom":8.0,"name:ro":"Georgia","name:zh-min-nan":"Sakartvelo","name:os":"\u0413\u0443\u044b\u0440\u0434\u0437\u044b\u0441\u0442\u043e\u043d","name:or":"\u0b1c\u0b30\u0b4d\u0b1c\u0b3f\u0b06","name:pl":"Gruzja","sort_rank":262,"osm_relation":true,"name:tr":"G\u00fcrcistan","name:hi":"\u091c\u0949\u0930\u094d\u091c\u093f\u092f\u093e","name:sv":"Georgien","name:he":"\u05d2\u05d0\u05d5\u05e8\u05d2\u05d9\u05d4","name:hy":"\u054e\u0580\u0561\u057d\u057f\u0561\u0576","name:ht":"Jeoji","name:hu":"Gr\u00fazia","name:qu":"Kartulsuyu","kind":"country","name:yi":"\u05d2\u05e8\u05d5\u05d6\u05d9\u05e2","name:yo":"Georgia","name:mt":"\u0120eor\u0121ja","alt_name:eo":"Kartvelio","name:ms":"Georgia","name:mr":"\u091c\u0949\u0930\u094d\u091c\u093f\u092f\u093e","name:my":"\u1002\u103b\u1031\u102c\u103a\u1002\u103b\u102e\u101a\u102c\u1014\u102d\u102f\u1004\u103a\u1004\u1036","int_name":"Georgia","name:ml":"\u0d1c\u0d4b\u0d7c\u0d1c\u0d4d\u0d1c\u0d3f\u0d2f","name:vi":"Gruzia","name:mn":"\u0413\u04af\u0440\u0436","name:mi":"H\u014dria","id":-28699,"name:mk":"\u0413\u0440\u0443\u0437\u0438\u0458\u0430","name:vo":"Grusiy\u00e4n","name:fa":"\u06af\u0631\u062c\u0633\u062a\u0627\u0646","name:rw":"Geworugiya","name:fi":"Georgia","name:fo":"Georgia (land)","name:fr":"G\u00e9orgie","name:fy":"Ge\u00f6rgje","name:nl":"Georgi\u00eb","name:nn":"Georgia","name:no":"Georgia","name:na":"Djiordjiya","name:ne":"\u091c\u0930\u094d\u091c\u093f\u092f\u093e (\u0926\u0947\u0936)","name:wo":"Jeoorji","name:nv":"J\u00f3ojah (K\u00e9yah)","name:ga":"An tSeoirsia","name:gd":"A' Chairtbheil","name:gl":"Xeorxia - \u10e1\u10d0\u10e5\u10d0\u10e0\u10d7\u10d5\u10d4\u10da\u10dd","name:gv":"Yn \u00c7horshey","name:gu":"\u0a9c\u0acd\u0aaf\u0acb\u0ab0\u0acd\u0a9c\u0ac0\u0aaf\u0abe (\u0aa6\u0ac7\u0ab6)"},"arcs":[0]},{"type":"LineString","properties":{"name:cy":"Georgia","name:ko":"\uc870\uc9c0\uc544 (\uad6d\uac00)","name:cv":"\u0413\u0440\u0443\u0437\u0438","name:cu":"\u0413\u0454\u0461\u0440\u0433\u0457\ua657","name:cs":"Gruzie","name:tt":"\u0413\u04e9\u0440\u0497\u0438\u0441\u0442\u0430\u043d","name:kw":"Pow Grouzi","name:kv":"\u0413\u0440\u0443\u0437\u0438\u044f","name:ku":"Gurcistan","name:tl":"Heorhiya","name:ce":"\u0413\u0443\u044c\u0440\u0436\u0438\u0439-\u041c\u043e\u0445\u043a","name:ta":"\u0b9a\u0bbf\u0baf\u0bbe\u0bb0\u0bcd\u0b9a\u0bbf\u0baf\u0bbe (\u0ba8\u0bbe\u0b9f\u0bc1)","name:tg":"\u0413\u0443\u0440\u04b7\u0438\u0441\u0442\u043e\u043d","name:ca":"Ge\u00f2rgia","name:te":"\u0c1c\u0c3e\u0c30\u0c4d\u0c1c\u0c3f\u0c2f\u0c3e (\u0c26\u0c47\u0c36\u0c02)","name:qu":"Kartulsuyu","name:da":"Georgien","name:de":"Georgien","name:dz":"\u0f47\u0f7d\u0f0b\u0f47\u0f71","source":"openstreetmap.org","name:kn":"\u0c9c\u0cbe\u0cb0\u0ccd\u0c9c\u0cbf\u0caf","name:dv":"\u0796\u07af\u0796\u07a8\u0794\u07a7 (\u07a4\u07a6\u0787\u07aa\u0789\u07aa)","name:lv":"Gruzija","name:lt":"Gruzija","name:uz":"Gurjiston","name:kk":"\u0413\u0440\u0443\u0437\u0438\u044f","name:ur":"\u062c\u0627\u0631\u062c\u06cc\u0627","name:lb":"Georgien","name:la":"Georgia","name:uk":"\u0413\u0440\u0443\u0437\u0456\u044f","name:ug":"\u06af\u0631\u06c7\u0632\u0649\u064a\u06d5","name:li":"Georgi\u00eb","name:el":"\u0393\u03b5\u03c9\u03c1\u03b3\u03af\u03b1","name:eo":"Kartvelujo","name:en":"Georgia","name":"\u10e1\u10d0\u10e5\u10d0\u10e0\u10d7\u10d5\u10d4\u10da\u10dd","name:tk":"Gruzi\u00fda","name:ee":"Georgia","name:th":"\u0e1b\u0e23\u0e30\u0e40\u0e17\u0e28\u0e08\u0e2d\u0e23\u0e4c\u0e40\u0e08\u0e35\u0e22","name:eu":"Georgia","name:et":"Gruusia","name:es":"Georgia","name:ia":"Georgia","name:az":"G\u00fcrc\u00fcstan","name:ie":"Georgia","name:id":"Georgia","name:ar":"\u062c\u0648\u0631\u062c\u064a\u0627","name:io":"Gruzia","name:av":"\u0413\u0443\u0440\u0436\u0438","name:is":"Georg\u00eda","name:am":"\u1302\u12ee\u122d\u1302\u12eb","name:it":"Georgia","name:an":"Cheorchia","name:ru":"\u0413\u0440\u0443\u0437\u0438\u044f","name:ab":"\u049a\u044b\u0440\u04ad\u0442\u04d9\u044b\u043b\u0430","name:af":"Georgi\u00eb","kind_detail":"2","name:ky":"\u0413\u0440\u0443\u0437\u0438\u044f","name:zh-yue":"\u683c\u9b6f\u5409\u4e9e","name:zh":"\u683c\u9c81\u5409\u4e9a","name:so":"Joorjiya","name:sl":"Gruzija","name:sk":"Gruz\u00ednsko","name:ja":"\u30b0\u30eb\u30b8\u30a2","name:si":"\u0da2\u0ddd\u0dbb\u0dca\u0da2\u0dd2\u0dba\u0dcf (\u0dbb\u0da7)","name:sh":"Gruzija","name:se":"Georgia","name:sc":"Georgia","name:br":"Jorjia (bro)","name:bs":"Gruzija","name:bn":"\u099c\u09b0\u09cd\u099c\u09bf\u09af\u09bc\u09be (\u09b0\u09be\u09b7\u09cd\u099f\u09cd\u09b0)","name:bo":"\u0f60\u0f47\u0f7c\u0f62\u0f0b\u0f47\u0f72\u0f0b\u0f61\u0f0d (\u0f62\u0f92\u0fb1\u0f63\u0f0b\u0f41\u0f56\u0f0d)","name:sw":"Georgia (nchi)","name:be":"\u0413\u0440\u0443\u0437\u0456\u044f","name:su":"G\u00e9orgia","name:bg":"\u0413\u0440\u0443\u0437\u0438\u044f","name:ss":"IJojiya","name:sr":"\u0413\u0440\u0443\u0437\u0438\u0458\u0430","name:sq":"Gjeorgjia","name:jv":"Georgia","name:pt":"Ge\u00f3rgia","name:ps":"\u06ab\u0631\u062c\u0633\u062a\u0627\u0646","name:oc":"Georgia (Cauc\u00e0s)","min_zoom":8.0,"name:ro":"Georgia","name:zh-min-nan":"Sakartvelo","name:os":"\u0413\u0443\u044b\u0440\u0434\u0437\u044b\u0441\u0442\u043e\u043d","name:or":"\u0b1c\u0b30\u0b4d\u0b1c\u0b3f\u0b06","name:pl":"Gruzja","sort_rank":262,"osm_relation":true,"name:tr":"G\u00fcrcistan","name:hi":"\u091c\u0949\u0930\u094d\u091c\u093f\u092f\u093e","name:sv":"Georgien","name:he":"\u05d2\u05d0\u05d5\u05e8\u05d2\u05d9\u05d4","name:hy":"\u054e\u0580\u0561\u057d\u057f\u0561\u0576","name:ht":"Jeoji","name:hu":"Gr\u00fazia","name:hr":"Gruzija","kind":"country","name:yi":"\u05d2\u05e8\u05d5\u05d6\u05d9\u05e2","name:yo":"Georgia","name:mt":"\u0120eor\u0121ja","alt_name:eo":"Kartvelio","name:ms":"Georgia","name:mr":"\u091c\u0949\u0930\u094d\u091c\u093f\u092f\u093e","name:my":"\u1002\u103b\u1031\u102c\u103a\u1002\u103b\u102e\u101a\u102c\u1014\u102d\u102f\u1004\u103a\u1004\u1036","int_name":"Georgia","name:vi":"Gruzia","name:ml":"\u0d1c\u0d4b\u0d7c\u0d1c\u0d4d\u0d1c\u0d3f\u0d2f","name:mn":"\u0413\u04af\u0440\u0436","name:mi":"H\u014dria","id":-28699,"name:mk":"\u0413\u0440\u0443\u0437\u0438\u0458\u0430","name:vo":"Grusiy\u00e4n","name:fa":"\u06af\u0631\u062c\u0633\u062a\u0627\u0646","name:rw":"Geworugiya","name:fi":"Georgia","name:fo":"Georgia (land)","name:fr":"G\u00e9orgie","name:fy":"Ge\u00f6rgje","name:nl":"Georgi\u00eb","name:nn":"Georgia","name:no":"Georgia","name:na":"Djiordjiya","name:ne":"\u091c\u0930\u094d\u091c\u093f\u092f\u093e (\u0926\u0947\u0936)","name:wo":"Jeoorji","name:nv":"J\u00f3ojah (K\u00e9yah)","name:ga":"An tSeoirsia","name:gd":"A' Chairtbheil","name:gl":"Xeorxia - \u10e1\u10d0\u10e5\u10d0\u10e0\u10d7\u10d5\u10d4\u10da\u10dd","maritime_boundary":true,"name:gv":"Yn \u00c7horshey","name:gu":"\u0a9c\u0acd\u0aaf\u0acb\u0ab0\u0acd\u0a9c\u0ac0\u0aaf\u0abe (\u0aa6\u0ac7\u0ab6)"},"arcs":[1]},{"type":"LineString","properties":{"name:right:ja":"\u30ab\u30e9\u30c1\u30e3\u30a4\u30fb\u30c1\u30a7\u30eb\u30b1\u30b9\u5171\u548c\u56fd","name:left:ka":"\u10d0\u10e4\u10ee\u10d0\u10d6\u10d4\u10d7\u10d8\u10e1 \u10d0\u10d5\u10e2\u10dd\u10dc\u10dd\u10db\u10d8\u10e3\u10e0\u10d8 \u10e0\u10d4\u10e1\u10de\u10e3\u10d1\u10da\u10d8\u10d9\u10d0","name:right:uk":"\u041a\u0430\u0440\u0430\u0447\u0430\u0301\u0454\u0432\u043e-\u0427\u0435\u0440\u043a\u0435\u0301\u0441\u044c\u043a\u0430 \u0420\u0435\u0441\u043f\u0443\u0301\u0431\u043b\u0456\u043a\u0430","name:right:ce":"\u041a\u0445\u0430\u0440\u0430\u0447\u043e\u0439-\u0427\u0435\u0440\u0433\u0430\u0437\u0438\u0439\u0447\u043e\u044c","name:right:fa":"\u0642\u0631\u0647\u200c\u0686\u0627\u06cc \u0648 \u0686\u0631\u06a9\u0633","id:right":-109878,"name:left:uk":"\u0410\u0431\u0445\u0430\u0437\u044c\u043a\u0430 \u0410\u0432\u0442\u043e\u043d\u043e\u043c\u043d\u0430 \u0420\u0435\u0441\u043f\u0443\u0431\u043b\u0456\u043a\u0430","min_zoom":8.0,"name:left:ab":"\u0410\u04a7\u0441\u043d\u044b \u0410\u0432\u0442\u043e\u043d\u043e\u043c\u0442\u04d9 \u0420\u0435\u0441\u043f\u0443\u0431\u043b\u0438\u043a\u0430","name:left:ru":"\u0410\u0432\u0442\u043e\u043d\u043e\u043c\u043d\u0430\u044f \u0420\u0435\u0441\u043f\u0443\u0431\u043b\u0438\u043a\u0430 \u0410\u0431\u0445\u0430\u0437\u0438\u044f","id":-3572912,"osm_relation":true,"name:right":"\u041a\u0430\u0440\u0430\u0447\u0430\u0435\u0432\u043e-\u0427\u0435\u0440\u043a\u0435\u0441\u0438\u044f","kind":"region","name:right:ca":"Karatxai-Txerk\u00e8ssia","name":"\u10d0\u10e4\u10ee\u10d0\u10d6\u10d4\u10d7\u10d8\u10e1 \u10d0\u10d5\u10e2\u10dd\u10dc\u10dd\u10db\u10d8\u10e3\u10e0\u10d8 \u10e0\u10d4\u10e1\u10de\u10e3\u10d1\u10da\u10d8\u10d9\u10d0 - \u0410\u04a7\u0441\u043d\u044b \u0410\u0432\u0442\u043e\u043d\u043e\u043c\u0442\u04d9 \u0420\u0435\u0441\u043f\u0443\u0431\u043b\u0438\u043a\u0430 - \u041a\u0430\u0440\u0430\u0447\u0430\u0435\u0432\u043e-\u0427\u0435\u0440\u043a\u0435\u0441\u0438\u044f","source":"openstreetmap.org","sort_rank":256,"kind_detail":"4","name:left:ca":"Rep\u00fablica Aut\u00f2noma d'Abkh\u00e0zia","name:left:de":"Autonome Republik Abchasien","name:right:en":"Karachay-Cherkessia","name:left:en":"Autonomous Republic of Abkhazia","alt_name:right:sl":"Kara\u010daj-\u010cerkezija","name:right:zh":"\u5361\u62c9\u6070\u4f0a-\u5207\u5c14\u514b\u65af\u5171\u548c\u56fd","name:right:de":"Karatschai-Tscherkessien","official_name:right":"\u041a\u0430\u0440\u0430\u0447\u0430\u0435\u0432\u043e-\u0427\u0435\u0440\u043a\u0435\u0441\u0441\u043a\u0430\u044f \u0440\u0435\u0441\u043f\u0443\u0431\u043b\u0438\u043a\u0430","id:left":-3572912,"name:left":"\u10d0\u10e4\u10ee\u10d0\u10d6\u10d4\u10d7\u10d8\u10e1 \u10d0\u10d5\u10e2\u10dd\u10dc\u10dd\u10db\u10d8\u10e3\u10e0\u10d8 \u10e0\u10d4\u10e1\u10de\u10e3\u10d1\u10da\u10d8\u10d9\u10d0 - \u0410\u04a7\u0441\u043d\u044b \u0410\u0432\u0442\u043e\u043d\u043e\u043c\u0442\u04d9 \u0420\u0435\u0441\u043f\u0443\u0431\u043b\u0438\u043a\u0430","name:right:sl":"Republika Kara\u010daj-\u010cerkezija"},"arcs":[2]},{"type":"LineString","properties":{"name:right:hy":"\u053f\u0580\u0561\u057d\u0576\u0578\u0564\u0561\u0580\u056b \u0565\u0580\u056f\u0580\u0561\u0574\u0561\u057d","name:right:nl":"Kraj Krasnodar","name:right:ja":"\u30af\u30e9\u30b9\u30ce\u30c0\u30fc\u30eb\u5730\u65b9","name:right:fr":"Kra\u00ef de Krasnodar","name:right:uk":"\u041a\u0440\u0430\u0441\u043d\u043e\u0434\u0430\u0440\u0441\u044c\u043a\u0438\u0439 \u043a\u0440\u0430\u0439","name:right:ce":"\u041a\u0440\u0430\u0441\u043d\u043e\u0434\u0430\u0440\u0430\u043d \u043c\u0435\u0445\u043a\u0430\u0439\u0438\u0441\u0442","name:right:sr":"\u041a\u0440\u0430\u0441\u043d\u043e\u0434\u0430\u0440\u0441\u043a\u0430 \u041f\u043e\u043a\u0440\u0430\u0458\u0438\u043d\u0430","name:right:hu":"Krasznodari hat\u00e1rter\u00fclet","id:right":-108082,"name:right:lt":"Krasnodaro kra\u0161tas","name:right:sh":"Krasnodarski kraj","name:right:lv":"Krasnodaras novads","name:right:sl":"Krasnodarski kraj","name:right:eo":"Krasnodara regiono","name:right:pt":"Krai de Krasnodar","name:right:he":"\u05de\u05d7\u05d5\u05d6 \u05e7\u05e8\u05e1\u05e0\u05d5\u05d3\u05d0\u05e8","name:right":"\u041a\u0440\u0430\u0441\u043d\u043e\u0434\u0430\u0440\u0441\u043a\u0438\u0439 \u043a\u0440\u0430\u0439","name:left:en":"Autonomous Republic of Abkhazia","sort_rank":256,"kind_detail":"4","name:left:ca":"Rep\u00fablica Aut\u00f2noma d'Abkh\u00e0zia","int_name:right":"Krasnodar Krai","id":-3572912,"source":"openstreetmap.org","id:left":-3572912,"name:right:cs":"Krasnodarsk\u00fd kraj","name:right:az":"Krasnodar diyar\u0131","name:right:cv":"\u041a\u0440\u0430\u0441\u043d\u043e\u0434\u0430\u0440 \u0415\u043d","name:right:ka":"\u10d9\u10e0\u10d0\u10e1\u10dc\u10dd\u10d3\u10d0\u10e0\u10d8\u10e1 \u10db\u10ee\u10d0\u10e0\u10d4","name:left:ka":"\u10d0\u10e4\u10ee\u10d0\u10d6\u10d4\u10d7\u10d8\u10e1 \u10d0\u10d5\u10e2\u10dd\u10dc\u10dd\u10db\u10d8\u10e3\u10e0\u10d8 \u10e0\u10d4\u10e1\u10de\u10e3\u10d1\u10da\u10d8\u10d9\u10d0","name:right:mn":"\u041a\u0440\u0430\u0441\u043d\u043e\u0434\u0430\u0440\u044b\u043d \u0445\u044f\u0437\u0433\u0430\u0430\u0440","name:right:eu":"Krasnodar kraia","name:right:et":"Krasnodari krai","name:right:tt":"\u041a\u0440\u0430\u0441\u043d\u043e\u0434\u0430\u0440 \u043a\u0440\u0430\u0435","name:right:it":"Territorio di Krasnodar","name:right:tr":"Krasnodar Kray\u0131","name:right:vi":"Krasnodar (v\u00f9ng)","name:left:de":"Autonome Republik Abchasien","name:left:ab":"\u0410\u04a7\u0441\u043d\u044b \u0410\u0432\u0442\u043e\u043d\u043e\u043c\u0442\u04d9 \u0420\u0435\u0441\u043f\u0443\u0431\u043b\u0438\u043a\u0430","name:left:ru":"\u0410\u0432\u0442\u043e\u043d\u043e\u043c\u043d\u0430\u044f \u0420\u0435\u0441\u043f\u0443\u0431\u043b\u0438\u043a\u0430 \u0410\u0431\u0445\u0430\u0437\u0438\u044f","name:right:bg":"\u041a\u0440\u0430\u0441\u043d\u043e\u0434\u0430\u0440\u0441\u043a\u0438 \u043a\u0440\u0430\u0439","name:right:sv":"Krasnodar kraj","name:right:pl":"Kraj Krasnodarski","name:right:en":"Krasnodar Krai","osm_relation":true,"name:right:el":"\u039a\u03c1\u03ac\u03b9 \u039a\u03c1\u03b1\u03c3\u03bd\u03bf\u03bd\u03c4\u03ac\u03c1","name:left:uk":"\u0410\u0431\u0445\u0430\u0437\u044c\u043a\u0430 \u0410\u0432\u0442\u043e\u043d\u043e\u043c\u043d\u0430 \u0420\u0435\u0441\u043f\u0443\u0431\u043b\u0456\u043a\u0430","kind":"region","name":"\u10d0\u10e4\u10ee\u10d0\u10d6\u10d4\u10d7\u10d8\u10e1 \u10d0\u10d5\u10e2\u10dd\u10dc\u10dd\u10db\u10d8\u10e3\u10e0\u10d8 \u10e0\u10d4\u10e1\u10de\u10e3\u10d1\u10da\u10d8\u10d9\u10d0 - \u0410\u04a7\u0441\u043d\u044b \u0410\u0432\u0442\u043e\u043d\u043e\u043c\u0442\u04d9 \u0420\u0435\u0441\u043f\u0443\u0431\u043b\u0438\u043a\u0430 - \u041a\u0440\u0430\u0441\u043d\u043e\u0434\u0430\u0440\u0441\u043a\u0438\u0439 \u043a\u0440\u0430\u0439","name:right:de":"Region Krasnodar","name:right:ba":"\u041a\u0440\u0430\u0441\u043d\u043e\u0434\u0430\u0440 \u043a\u0440\u0430\u0439\u044b","min_zoom":8.0,"name:right:be":"\u041a\u0440\u0430\u0441\u043d\u0430\u0434\u0430\u0440\u0441\u043a\u0456 \u043a\u0440\u0430\u0439","name:right:ca":"Territori de Krasnodar","name:right:zh":"\u514b\u62c9\u65af\u8bfa\u8fbe\u5c14\u8fb9\u7586\u533a","name:left":"\u10d0\u10e4\u10ee\u10d0\u10d6\u10d4\u10d7\u10d8\u10e1 \u10d0\u10d5\u10e2\u10dd\u10dc\u10dd\u10db\u10d8\u10e3\u10e0\u10d8 \u10e0\u10d4\u10e1\u10de\u10e3\u10d1\u10da\u10d8\u10d9\u10d0 - \u0410\u04a7\u0441\u043d\u044b \u0410\u0432\u0442\u043e\u043d\u043e\u043c\u0442\u04d9 \u0420\u0435\u0441\u043f\u0443\u0431\u043b\u0438\u043a\u0430","name:right:ro":"\u021ainutul Krasnodar"},"arcs":[3]},{"type":"LineString","properties":{"name:right:hy":"\u053f\u0580\u0561\u057d\u0576\u0578\u0564\u0561\u0580\u056b \u0565\u0580\u056f\u0580\u0561\u0574\u0561\u057d","name:right:nl":"Kraj Krasnodar","name:right:ja":"\u30af\u30e9\u30b9\u30ce\u30c0\u30fc\u30eb\u5730\u65b9","name:right:fr":"Kra\u00ef de Krasnodar","name:right:uk":"\u041a\u0440\u0430\u0441\u043d\u043e\u0434\u0430\u0440\u0441\u044c\u043a\u0438\u0439 \u043a\u0440\u0430\u0439","name:left:ca":"Rep\u00fablica Aut\u00f2noma d'Abkh\u00e0zia","name:right:sr":"\u041a\u0440\u0430\u0441\u043d\u043e\u0434\u0430\u0440\u0441\u043a\u0430 \u041f\u043e\u043a\u0440\u0430\u0458\u0438\u043d\u0430","name:right:hu":"Krasznodari hat\u00e1rter\u00fclet","id:right":-108082,"name:right:lt":"Krasnodaro kra\u0161tas","name:right:sh":"Krasnodarski kraj","name:right:lv":"Krasnodaras novads","name:right:pl":"Kraj Krasnodarski","name:right:sl":"Krasnodarski kraj","name:left:ka":"\u10d0\u10e4\u10ee\u10d0\u10d6\u10d4\u10d7\u10d8\u10e1 \u10d0\u10d5\u10e2\u10dd\u10dc\u10dd\u10db\u10d8\u10e3\u10e0\u10d8 \u10e0\u10d4\u10e1\u10de\u10e3\u10d1\u10da\u10d8\u10d9\u10d0","name:right:he":"\u05de\u05d7\u05d5\u05d6 \u05e7\u05e8\u05e1\u05e0\u05d5\u05d3\u05d0\u05e8","name:right":"\u041a\u0440\u0430\u0441\u043d\u043e\u0434\u0430\u0440\u0441\u043a\u0438\u0439 \u043a\u0440\u0430\u0439","name:left:en":"Autonomous Republic of Abkhazia","sort_rank":256,"kind_detail":"4","name:right:ce":"\u041a\u0440\u0430\u0441\u043d\u043e\u0434\u0430\u0440\u0430\u043d \u043c\u0435\u0445\u043a\u0430\u0439\u0438\u0441\u0442","int_name:right":"Krasnodar Krai","id":-3572912,"source":"openstreetmap.org","id:left":-3572912,"name:right:cs":"Krasnodarsk\u00fd kraj","name:right:az":"Krasnodar diyar\u0131","name:right:cv":"\u041a\u0440\u0430\u0441\u043d\u043e\u0434\u0430\u0440 \u0415\u043d","name:right:ka":"\u10d9\u10e0\u10d0\u10e1\u10dc\u10dd\u10d3\u10d0\u10e0\u10d8\u10e1 \u10db\u10ee\u10d0\u10e0\u10d4","name:right:pt":"Krai de Krasnodar","name:right:mn":"\u041a\u0440\u0430\u0441\u043d\u043e\u0434\u0430\u0440\u044b\u043d \u0445\u044f\u0437\u0433\u0430\u0430\u0440","name:right:eu":"Krasnodar kraia","name:right:et":"Krasnodari krai","name:right:tt":"\u041a\u0440\u0430\u0441\u043d\u043e\u0434\u0430\u0440 \u043a\u0440\u0430\u0435","name:right:it":"Territorio di Krasnodar","min_zoom":8.0,"name:right:tr":"Krasnodar Kray\u0131","name:right:vi":"Krasnodar (v\u00f9ng)","name:left:ab":"\u0410\u04a7\u0441\u043d\u044b \u0410\u0432\u0442\u043e\u043d\u043e\u043c\u0442\u04d9 \u0420\u0435\u0441\u043f\u0443\u0431\u043b\u0438\u043a\u0430","name:left:ru":"\u0410\u0432\u0442\u043e\u043d\u043e\u043c\u043d\u0430\u044f \u0420\u0435\u0441\u043f\u0443\u0431\u043b\u0438\u043a\u0430 \u0410\u0431\u0445\u0430\u0437\u0438\u044f","name:right:bg":"\u041a\u0440\u0430\u0441\u043d\u043e\u0434\u0430\u0440\u0441\u043a\u0438 \u043a\u0440\u0430\u0439","name:right:sv":"Krasnodar kraj","name:right:eo":"Krasnodara regiono","name:right:en":"Krasnodar Krai","osm_relation":true,"name:right:el":"\u039a\u03c1\u03ac\u03b9 \u039a\u03c1\u03b1\u03c3\u03bd\u03bf\u03bd\u03c4\u03ac\u03c1","name:left:uk":"\u0410\u0431\u0445\u0430\u0437\u044c\u043a\u0430 \u0410\u0432\u0442\u043e\u043d\u043e\u043c\u043d\u0430 \u0420\u0435\u0441\u043f\u0443\u0431\u043b\u0456\u043a\u0430","kind":"region","name":"\u10d0\u10e4\u10ee\u10d0\u10d6\u10d4\u10d7\u10d8\u10e1 \u10d0\u10d5\u10e2\u10dd\u10dc\u10dd\u10db\u10d8\u10e3\u10e0\u10d8 \u10e0\u10d4\u10e1\u10de\u10e3\u10d1\u10da\u10d8\u10d9\u10d0 - \u0410\u04a7\u0441\u043d\u044b \u0410\u0432\u0442\u043e\u043d\u043e\u043c\u0442\u04d9 \u0420\u0435\u0441\u043f\u0443\u0431\u043b\u0438\u043a\u0430 - \u041a\u0440\u0430\u0441\u043d\u043e\u0434\u0430\u0440\u0441\u043a\u0438\u0439 \u043a\u0440\u0430\u0439","name:right:de":"Region Krasnodar","name:right:ba":"\u041a\u0440\u0430\u0441\u043d\u043e\u0434\u0430\u0440 \u043a\u0440\u0430\u0439\u044b","name:left:de":"Autonome Republik Abchasien","name:right:be":"\u041a\u0440\u0430\u0441\u043d\u0430\u0434\u0430\u0440\u0441\u043a\u0456 \u043a\u0440\u0430\u0439","name:right:ca":"Territori de Krasnodar","maritime_boundary":true,"name:right:zh":"\u514b\u62c9\u65af\u8bfa\u8fbe\u5c14\u8fb9\u7586\u533a","name:left":"\u10d0\u10e4\u10ee\u10d0\u10d6\u10d4\u10d7\u10d8\u10e1 \u10d0\u10d5\u10e2\u10dd\u10dc\u10dd\u10db\u10d8\u10e3\u10e0\u10d8 \u10e0\u10d4\u10e1\u10de\u10e3\u10d1\u10da\u10d8\u10d9\u10d0 - \u0410\u04a7\u0441\u043d\u044b \u0410\u0432\u0442\u043e\u043d\u043e\u043c\u0442\u04d9 \u0420\u0435\u0441\u043f\u0443\u0431\u043b\u0438\u043a\u0430","name:right:ro":"\u021ainutul Krasnodar"},"arcs":[4]},{"type":"LineString","properties":{"name:ka":"\u10d0\u10e4\u10ee\u10d0\u10d6\u10d4\u10d7\u10d8\u10e1 \u10d0\u10d5\u10e2\u10dd\u10dc\u10dd\u10db\u10d8\u10e3\u10e0\u10d8 \u10e0\u10d4\u10e1\u10de\u10e3\u10d1\u10da\u10d8\u10d9\u10d0","min_zoom":8.0,"name:uk":"\u0410\u0431\u0445\u0430\u0437\u044c\u043a\u0430 \u0410\u0432\u0442\u043e\u043d\u043e\u043c\u043d\u0430 \u0420\u0435\u0441\u043f\u0443\u0431\u043b\u0456\u043a\u0430","name:ru":"\u0410\u0432\u0442\u043e\u043d\u043e\u043c\u043d\u0430\u044f \u0420\u0435\u0441\u043f\u0443\u0431\u043b\u0438\u043a\u0430 \u0410\u0431\u0445\u0430\u0437\u0438\u044f","name:ab":"\u0410\u04a7\u0441\u043d\u044b \u0410\u0432\u0442\u043e\u043d\u043e\u043c\u0442\u04d9 \u0420\u0435\u0441\u043f\u0443\u0431\u043b\u0438\u043a\u0430","id":-3572912,"name:ca":"Rep\u00fablica Aut\u00f2noma d'Abkh\u00e0zia","kind":"region","name:en":"Autonomous Republic of Abkhazia","name":"\u10d0\u10e4\u10ee\u10d0\u10d6\u10d4\u10d7\u10d8\u10e1 \u10d0\u10d5\u10e2\u10dd\u10dc\u10dd\u10db\u10d8\u10e3\u10e0\u10d8 \u10e0\u10d4\u10e1\u10de\u10e3\u10d1\u10da\u10d8\u10d9\u10d0 - \u0410\u04a7\u0441\u043d\u044b \u0410\u0432\u0442\u043e\u043d\u043e\u043c\u0442\u04d9 \u0420\u0435\u0441\u043f\u0443\u0431\u043b\u0438\u043a\u0430","sort_rank":256,"kind_detail":"4","name:de":"Autonome Republik Abchasien","source":"openstreetmap.org","maritime_boundary":true,"osm_relation":true},"arcs":[5]},{"type":"MultiLineString","properties":{"name:right:hy":"\u053f\u0580\u0561\u057d\u0576\u0578\u0564\u0561\u0580\u056b \u0565\u0580\u056f\u0580\u0561\u0574\u0561\u057d","name:right:uk":"\u041a\u0440\u0430\u0441\u043d\u043e\u0434\u0430\u0440\u0441\u044c\u043a\u0438\u0439 \u043a\u0440\u0430\u0439","name:left:sv":"Adygeiska republiken","name:right:hu":"Krasznodari hat\u00e1rter\u00fclet","name:right:lt":"Krasnodaro kra\u0161tas","min_zoom":8.0,"name:left:hy":"\u0531\u0564\u056b\u0563\u0565\u0561","name:right:he":"\u05de\u05d7\u05d5\u05d6 \u05e7\u05e8\u05e1\u05e0\u05d5\u05d3\u05d0\u05e8","sort_rank":256,"name:left:ca":"Adigu\u00e8sia","int_name:right":"Krasnodar Krai","source":"openstreetmap.org","name:right:az":"Krasnodar diyar\u0131","name:left:cs":"Adygsko","name:left":"\u0410\u0434\u044b\u0433\u0435\u044f","name:right:sr":"\u041a\u0440\u0430\u0441\u043d\u043e\u0434\u0430\u0440\u0441\u043a\u0430 \u041f\u043e\u043a\u0440\u0430\u0458\u0438\u043d\u0430","name:left:ka":"\u10d0\u10d3\u10d8\u10e6\u10d4","name:right:mn":"\u041a\u0440\u0430\u0441\u043d\u043e\u0434\u0430\u0440\u044b\u043d \u0445\u044f\u0437\u0433\u0430\u0430\u0440","name:right:eu":"Krasnodar kraia","name:right:et":"Krasnodari krai","name:right:it":"Territorio di Krasnodar","name:right:vi":"Krasnodar (v\u00f9ng)","name:right:ro":"\u021ainutul Krasnodar","id:right":-108082,"name:right:eo":"Krasnodara regiono","name:right:en":"Krasnodar Krai","name:right:el":"\u039a\u03c1\u03ac\u03b9 \u039a\u03c1\u03b1\u03c3\u03bd\u03bf\u03bd\u03c4\u03ac\u03c1","kind":"region","name":"\u0410\u0434\u044b\u0433\u0435\u044f - \u041a\u0440\u0430\u0441\u043d\u043e\u0434\u0430\u0440\u0441\u043a\u0438\u0439 \u043a\u0440\u0430\u0439","name:right:ba":"\u041a\u0440\u0430\u0441\u043d\u043e\u0434\u0430\u0440 \u043a\u0440\u0430\u0439\u044b","name:right:lv":"Krasnodaras novads","alt_name:left:cs":"Adygsk\u00e1 republika","name:right:be":"\u041a\u0440\u0430\u0441\u043d\u0430\u0434\u0430\u0440\u0441\u043a\u0456 \u043a\u0440\u0430\u0439","name:left:zh":"\u963f\u8fea\u683c\u5171\u548c\u56fd","name:left:fr":"Adygu\u00e9e","name:right:zh":"\u514b\u62c9\u65af\u8bfa\u8fbe\u5c14\u8fb9\u7586\u533a","name:right:nl":"Kraj Krasnodar","name:right:ja":"\u30af\u30e9\u30b9\u30ce\u30c0\u30fc\u30eb\u5730\u65b9","name:right:fr":"Kra\u00ef de Krasnodar","name:left:ja":"\u30a2\u30c7\u30a3\u30b2\u5171\u548c\u56fd","name:right:sv":"Krasnodar kraj","name:left:uk":"\u0420\u0435\u0441\u043f\u0443\u0431\u043b\u0456\u043a\u0430 \u0410\u0434\u0438\u0433\u0435\u044f","name:right:sh":"Krasnodarski kraj","name:left:nl":"Adygea","name:left:ba":"\u0410\u0434\u044b\u0433\u0435\u0439 \u0420\u0435\u0441\u043f\u0443\u0431\u043b\u0438\u043a\u0430\u04bb\u044b","name:right:sl":"Krasnodarski kraj","id":-253256,"name:right":"\u041a\u0440\u0430\u0441\u043d\u043e\u0434\u0430\u0440\u0441\u043a\u0438\u0439 \u043a\u0440\u0430\u0439","name:left:en":"Adygea","name:right:ca":"Territori de Krasnodar","kind_detail":"4","name:right:ce":"\u041a\u0440\u0430\u0441\u043d\u043e\u0434\u0430\u0440\u0430\u043d \u043c\u0435\u0445\u043a\u0430\u0439\u0438\u0441\u0442","name:left:pl":"Adygeja","id:left":-253256,"name:right:cs":"Krasnodarsk\u00fd kraj","name:right:cv":"\u041a\u0440\u0430\u0441\u043d\u043e\u0434\u0430\u0440 \u0415\u043d","name:right:ka":"\u10d9\u10e0\u10d0\u10e1\u10dc\u10dd\u10d3\u10d0\u10e0\u10d8\u10e1 \u10db\u10ee\u10d0\u10e0\u10d4","name:left:av":"\u0410\u0434\u0438\u0433\u044a\u0438\u0441\u0442\u0430\u043d","name:right:pt":"Krai de Krasnodar","name:right:tt":"\u041a\u0440\u0430\u0441\u043d\u043e\u0434\u0430\u0440 \u043a\u0440\u0430\u0435","name:left:tt":"\u0410\u0434\u044b\u0433\u0435\u044f \u0420\u0435\u0441\u043f\u0443\u0431\u043b\u0438\u043a\u0430\u0441\u044b","name:left:az":"Ad\u0131gey","name:right:tr":"Krasnodar Kray\u0131","name:right:bg":"\u041a\u0440\u0430\u0441\u043d\u043e\u0434\u0430\u0440\u0441\u043a\u0438 \u043a\u0440\u0430\u0439","name:left:it":"Adighezia","name:right:pl":"Kraj Krasnodarski","osm_relation":true,"name:right:de":"Region Krasnodar","name:left:de":"Adygeja","name:left:ce":"\u0410\u0434\u044b\u0433\u0435\u0439\u0447\u043e\u044c"},"arcs":[[6],[7]]},{"type":"LineString","properties":{"name:right:hy":"\u053f\u0580\u0561\u057d\u0576\u0578\u0564\u0561\u0580\u056b \u0565\u0580\u056f\u0580\u0561\u0574\u0561\u057d","name:right:nl":"Kraj Krasnodar","name:right:ja":"\u30af\u30e9\u30b9\u30ce\u30c0\u30fc\u30eb\u5730\u65b9","name:right:fr":"Kra\u00ef de Krasnodar","name:right:uk":"\u041a\u0440\u0430\u0441\u043d\u043e\u0434\u0430\u0440\u0441\u044c\u043a\u0438\u0439 \u043a\u0440\u0430\u0439","name:right:ce":"\u041a\u0440\u0430\u0441\u043d\u043e\u0434\u0430\u0440\u0430\u043d \u043c\u0435\u0445\u043a\u0430\u0439\u0438\u0441\u0442","name:right:sr":"\u041a\u0440\u0430\u0441\u043d\u043e\u0434\u0430\u0440\u0441\u043a\u0430 \u041f\u043e\u043a\u0440\u0430\u0458\u0438\u043d\u0430","name:right:hu":"Krasznodari hat\u00e1rter\u00fclet","name:right:sv":"Krasnodar kraj","name:left:uk":"\u041a\u0430\u0440\u0430\u0447\u0430\u0301\u0454\u0432\u043e-\u0427\u0435\u0440\u043a\u0435\u0301\u0441\u044c\u043a\u0430 \u0420\u0435\u0441\u043f\u0443\u0301\u0431\u043b\u0456\u043a\u0430","name:left:sl":"Republika Kara\u010daj-\u010cerkezija","min_zoom":8.0,"name:right:pl":"Kraj Krasnodarski","name:right:sl":"Krasnodarski kraj","name:right:he":"\u05de\u05d7\u05d5\u05d6 \u05e7\u05e8\u05e1\u05e0\u05d5\u05d3\u05d0\u05e8","name:right":"\u041a\u0440\u0430\u0441\u043d\u043e\u0434\u0430\u0440\u0441\u043a\u0438\u0439 \u043a\u0440\u0430\u0439","name:right:ca":"Territori de Krasnodar","name:left:en":"Karachay-Cherkessia","name:left:ce":"\u041a\u0445\u0430\u0440\u0430\u0447\u043e\u0439-\u0427\u0435\u0440\u0433\u0430\u0437\u0438\u0439\u0447\u043e\u044c","kind_detail":"4","name:left:ca":"Karatxai-Txerk\u00e8ssia","int_name:right":"Krasnodar Krai","id":-109878,"source":"openstreetmap.org","name:left:fa":"\u0642\u0631\u0647\u200c\u0686\u0627\u06cc \u0648 \u0686\u0631\u06a9\u0633","id:left":-109878,"name:right:cs":"Krasnodarsk\u00fd kraj","name:right:az":"Krasnodar diyar\u0131","name:right:cv":"\u041a\u0440\u0430\u0441\u043d\u043e\u0434\u0430\u0440 \u0415\u043d","name:right:ka":"\u10d9\u10e0\u10d0\u10e1\u10dc\u10dd\u10d3\u10d0\u10e0\u10d8\u10e1 \u10db\u10ee\u10d0\u10e0\u10d4","alt_name:left:sl":"Kara\u010daj-\u010cerkezija","name:left:ja":"\u30ab\u30e9\u30c1\u30e3\u30a4\u30fb\u30c1\u30a7\u30eb\u30b1\u30b9\u5171\u548c\u56fd","name:right:pt":"Krai de Krasnodar","name:right:mn":"\u041a\u0440\u0430\u0441\u043d\u043e\u0434\u0430\u0440\u044b\u043d \u0445\u044f\u0437\u0433\u0430\u0430\u0440","name:right:eu":"Krasnodar kraia","name:right:et":"Krasnodari krai","name:right:tt":"\u041a\u0440\u0430\u0441\u043d\u043e\u0434\u0430\u0440 \u043a\u0440\u0430\u0435","name:right:it":"Territorio di Krasnodar","name:right:tr":"Krasnodar Kray\u0131","name:right:vi":"Krasnodar (v\u00f9ng)","name:right:ro":"\u021ainutul Krasnodar","name:right:bg":"\u041a\u0440\u0430\u0441\u043d\u043e\u0434\u0430\u0440\u0441\u043a\u0438 \u043a\u0440\u0430\u0439","id:right":-108082,"name:right:eo":"Krasnodara regiono","name:right:en":"Krasnodar Krai","osm_relation":true,"name:right:el":"\u039a\u03c1\u03ac\u03b9 \u039a\u03c1\u03b1\u03c3\u03bd\u03bf\u03bd\u03c4\u03ac\u03c1","name:right:lt":"Krasnodaro kra\u0161tas","kind":"region","name":"\u041a\u0430\u0440\u0430\u0447\u0430\u0435\u0432\u043e-\u0427\u0435\u0440\u043a\u0435\u0441\u0438\u044f - \u041a\u0440\u0430\u0441\u043d\u043e\u0434\u0430\u0440\u0441\u043a\u0438\u0439 \u043a\u0440\u0430\u0439","name:right:sh":"Krasnodarski kraj","name:right:de":"Region Krasnodar","name:right:lv":"Krasnodaras novads","name:right:ba":"\u041a\u0440\u0430\u0441\u043d\u043e\u0434\u0430\u0440 \u043a\u0440\u0430\u0439\u044b","name:left:de":"Karatschai-Tscherkessien","name:right:be":"\u041a\u0440\u0430\u0441\u043d\u0430\u0434\u0430\u0440\u0441\u043a\u0456 \u043a\u0440\u0430\u0439","sort_rank":256,"name:left:zh":"\u5361\u62c9\u6070\u4f0a-\u5207\u5c14\u514b\u65af\u5171\u548c\u56fd","name:right:zh":"\u514b\u62c9\u65af\u8bfa\u8fbe\u5c14\u8fb9\u7586\u533a","name:left":"\u041a\u0430\u0440\u0430\u0447\u0430\u0435\u0432\u043e-\u0427\u0435\u0440\u043a\u0435\u0441\u0438\u044f","official_name:left":"\u041a\u0430\u0440\u0430\u0447\u0430\u0435\u0432\u043e-\u0427\u0435\u0440\u043a\u0435\u0441\u0441\u043a\u0430\u044f \u0440\u0435\u0441\u043f\u0443\u0431\u043b\u0438\u043a\u0430"},"arcs":[8]},{"type":"LineString","properties":{"name:pt":"Krai de Krasnodar","name:az":"Krasnodar diyar\u0131","name:ka":"\u10d9\u10e0\u10d0\u10e1\u10dc\u10dd\u10d3\u10d0\u10e0\u10d8\u10e1 \u10db\u10ee\u10d0\u10e0\u10d4","name:tr":"Krasnodar Kray\u0131","name:cv":"\u041a\u0440\u0430\u0441\u043d\u043e\u0434\u0430\u0440 \u0415\u043d","name:cs":"Krasnodarsk\u00fd kraj","name:tt":"\u041a\u0440\u0430\u0441\u043d\u043e\u0434\u0430\u0440 \u043a\u0440\u0430\u0435","min_zoom":8.0,"int_name":"Krasnodar Krai","name:it":"Territorio di Krasnodar","name:sv":"Krasnodar kraj","name:vi":"Krasnodar (v\u00f9ng)","name:ce":"\u041a\u0440\u0430\u0441\u043d\u043e\u0434\u0430\u0440\u0430\u043d \u043c\u0435\u0445\u043a\u0430\u0439\u0438\u0441\u0442","name:mn":"\u041a\u0440\u0430\u0441\u043d\u043e\u0434\u0430\u0440\u044b\u043d \u0445\u044f\u0437\u0433\u0430\u0430\u0440","id":-108082,"name:ca":"Territori de Krasnodar","name:bg":"\u041a\u0440\u0430\u0441\u043d\u043e\u0434\u0430\u0440\u0441\u043a\u0438 \u043a\u0440\u0430\u0439","name:ro":"\u021ainutul Krasnodar","sort_rank":256,"kind_detail":"4","name:de":"Region Krasnodar","source":"openstreetmap.org","name:fr":"Kra\u00ef de Krasnodar","name:zh":"\u514b\u62c9\u65af\u8bfa\u8fbe\u5c14\u8fb9\u7586\u533a","name:sr":"\u041a\u0440\u0430\u0441\u043d\u043e\u0434\u0430\u0440\u0441\u043a\u0430 \u041f\u043e\u043a\u0440\u0430\u0458\u0438\u043d\u0430","name:sl":"Krasnodarski kraj","name:lv":"Krasnodaras novads","name:ja":"\u30af\u30e9\u30b9\u30ce\u30c0\u30fc\u30eb\u5730\u65b9","name:lt":"Krasnodaro kra\u0161tas","name:sh":"Krasnodarski kraj","name:he":"\u05de\u05d7\u05d5\u05d6 \u05e7\u05e8\u05e1\u05e0\u05d5\u05d3\u05d0\u05e8","name:eo":"Krasnodara regiono","name:uk":"\u041a\u0440\u0430\u0441\u043d\u043e\u0434\u0430\u0440\u0441\u044c\u043a\u0438\u0439 \u043a\u0440\u0430\u0439","name:hy":"\u053f\u0580\u0561\u057d\u0576\u0578\u0564\u0561\u0580\u056b \u0565\u0580\u056f\u0580\u0561\u0574\u0561\u057d","name:be":"\u041a\u0440\u0430\u0441\u043d\u0430\u0434\u0430\u0440\u0441\u043a\u0456 \u043a\u0440\u0430\u0439","name:hu":"Krasznodari hat\u00e1rter\u00fclet","name:ba":"\u041a\u0440\u0430\u0441\u043d\u043e\u0434\u0430\u0440 \u043a\u0440\u0430\u0439\u044b","osm_relation":true,"name:el":"\u039a\u03c1\u03ac\u03b9 \u039a\u03c1\u03b1\u03c3\u03bd\u03bf\u03bd\u03c4\u03ac\u03c1","kind":"region","name:en":"Krasnodar Krai","name":"\u041a\u0440\u0430\u0441\u043d\u043e\u0434\u0430\u0440\u0441\u043a\u0438\u0439 \u043a\u0440\u0430\u0439","maritime_boundary":true,"name:pl":"Kraj Krasnodarski","name:eu":"Krasnodar kraia","name:et":"Krasnodari krai","name:nl":"Kraj Krasnodar"},"arcs":[9]}]},"roads":{"type":"GeometryCollection","geometries":[{"type":"LineString","properties":{"kind":"ferry","sort_rank":355,"landuse_kind":"urban_area","source":"openstreetmap.org","min_zoom":8.0,"ref":"\u0421\u043e\u0447\u0438 - \u0422\u0440\u0430\u0431\u0437\u043e\u043d","id":-300722,"osm_relation":true},"arcs":[31]},{"type":"LineString","properties":{"kind":"major_road","network":"ru:national","sort_rank":380,"kind_detail":"primary","source":"openstreetmap.org","min_zoom":8.0,"landuse_kind":"nature_reserve","shield_text":"148","ref":"\u0410-148","id":202981086},"arcs":[32]},{"type":"LineString","properties":{"kind":"ferry","name:en":"Sochi - Sukhum","name":"\u0421\u043e\u0447\u0438 \u2014 \u0421\u0443\u0445\u0443\u043c","name:ka":"\u10e1\u10dd\u10ed\u10d8 \u2014 \u10e1\u10dd\u10ee\u10e3\u10db\u10d8","sort_rank":355,"name:de":"Sotschi \u2014 Suchum","source":"openstreetmap.org","min_zoom":8.0,"name:ab":"\u0428\u04d9\u0430\u0447\u0430 \u2014 \u0410\u049f\u04d9\u0430","id":368443140},"arcs":[33]},{"type":"LineString","properties":{"bus_network":null,"name:en":"Vinogradnaya Street","network":"ru:national","sort_rank":380,"kind_detail":"primary","kind":"major_road","source":"openstreetmap.org","min_zoom":8.0,"bus_shield_text":"6","shield_text":"147","landuse_kind":"urban_area","ref":"\u0410-147"},"arcs":[34]},{"type":"LineString","properties":{"kind":"ferry","name:en":"Tuapse - Sochi - Gagra","name":"\u0422\u0443\u0430\u043f\u0441\u0435 - \u0421\u043e\u0447\u0438 - \u0413\u0430\u0433\u0440\u0430","name:ka":"\u10e2\u10e3\u10d0\u10e4\u10e1\u10d4 - \u10e1\u10dd\u10ed\u10d8 - \u10d2\u10d0\u10d2\u10e0\u10d0","sort_rank":355,"landuse_kind":"residential","source":"openstreetmap.org","min_zoom":8.0,"ref":"\u0422\u0443\u0430\u043f\u0441\u0435 - \u0421\u043e\u0447\u0438 - \u0413\u0430\u0433\u0440\u0430","id":-1085318,"osm_relation":true},"arcs":[35]},{"type":"MultiLineString","properties":{"source":"openstreetmap.org","kind":"ferry","name:en":"Sochi - Adler","name":"\u0421\u043e\u0447\u0438 - \u0410\u0434\u043b\u0435\u0440","sort_rank":355,"min_zoom":8.0,"id":115972427},"arcs":[[36],[37]]},{"type":"MultiLineString","properties":{"bus_network":null,"name:en":"Aviatsionnaya Street","sort_rank":380,"kind_detail":"primary","kind":"major_road","source":"openstreetmap.org","min_zoom":8.0,"bus_shield_text":"125","landuse_kind":"urban_area"},"arcs":[[38],[39]]},{"type":"LineString","properties":{"kind":"ferry","name:en":"Kerch - Batumi","name":"\u041a\u0435\u0440\u0447\u044c - \u0411\u0430\u0442\u0443\u043c\u0438","name:ka":"\u10e5\u10d4\u10e0\u10e9\u10d8 - \u10d1\u10d0\u10d7\u10e3\u10db\u10d8","sort_rank":355,"source":"openstreetmap.org","min_zoom":8.0,"name:uk":"\u041a\u0435\u0440\u0447 - \u0411\u0430\u0442\u0443\u043c\u0456"},"arcs":[40]},{"type":"LineString","properties":{"bus_network":null,"network":"ru:national","sort_rank":381,"landuse_kind":"urban_area","kind":"major_road","source":"openstreetmap.org","min_zoom":8.0,"bus_shield_text":"144","shield_text":"147","kind_detail":"trunk","ref":"\u0410-147"},"arcs":[41]},{"type":"LineString","properties":{"kind":"major_road","name:en":"Tavricheskaya Street","network":"ru:national","sort_rank":381,"kind_detail":"trunk","bus_network":null,"source":"openstreetmap.org","min_zoom":8.0,"bus_shield_text":"125","shield_text":"147","ref":"\u0410-147","id":244125309},"arcs":[42]},{"type":"LineString","properties":{"kind":"ferry","name:en":"Tuapse - Sochi","name":"\u0422\u0443\u0430\u043f\u0441\u0435 - \u0421\u043e\u0447\u0438","sort_rank":355,"name:de":"Tuapse - Sotschi","source":"openstreetmap.org","min_zoom":8.0,"id":203317520},"arcs":[43]},{"type":"LineString","properties":{"kind":"major_road","network":"AsianHighway","sort_rank":380,"kind_detail":"primary","bus_network":null,"source":"openstreetmap.org","min_zoom":8.0,"bus_shield_text":"\u0421\u043e\u0447\u0438 - \u0421\u0443\u0445\u0443\u043c","shield_text":"82","ref":"E 97","id":87353464},"arcs":[44]},{"type":"LineString","properties":{"bus_network":null,"min_zoom":8.0,"bus_shield_text":"\u0421\u043e\u0447\u0438 - \u0421\u0443\u0445\u0443\u043c","name:de":"Kurortny prospekt","id":104489073,"kind":"major_road","name:en":"Kurortny Prospekt","network":"ru:national","sort_rank":380,"kind_detail":"primary","is_bicycle_related":true,"bicycle_network":"ncn","source":"openstreetmap.org","landuse_kind":"urban_area","shield_text":"147","ref":"\u0410-147"},"arcs":[45]},{"type":"LineString","properties":{"bus_network":null,"name:en":"Gorkogo Street","sort_rank":380,"kind_detail":"primary","kind":"major_road","source":"openstreetmap.org","min_zoom":8.0,"bus_shield_text":"\u0421\u043e\u0447\u0438 - \u0421\u0443\u0445\u0443\u043c","landuse_kind":"urban_area"},"arcs":[46]},{"type":"MultiLineString","properties":{"kind":"major_road","name:en":"Magistralnaya Street","network":"ru:national","sort_rank":381,"kind_detail":"trunk","source":"openstreetmap.org","min_zoom":8.0,"shield_text":"147","ref":"\u0410-147"},"arcs":[[47],[48]]},{"type":"LineString","properties":{"bus_network":null,"name:en":"Kurortny Prospekt","network":"ru:national","sort_rank":380,"kind_detail":"primary","is_bicycle_related":true,"kind":"major_road","bicycle_network":"ncn","source":"openstreetmap.org","min_zoom":8.0,"bus_shield_text":"19","shield_text":"147","landuse_kind":"urban_area","ref":"\u0410-147"},"arcs":[49]},{"type":"MultiLineString","properties":{"source":"openstreetmap.org","kind":"major_road","network":"e-road","sort_rank":381,"kind_detail":"trunk","min_zoom":8.0,"shield_text":"97"},"arcs":[[50],[51],[52],[53]]},{"type":"LineString","properties":{"kind":"ferry","sort_rank":355,"landuse_kind":"urban_area","source":"openstreetmap.org","min_zoom":8.0,"ref":"Hopa - Sochi","id":-301790,"osm_relation":true},"arcs":[54]},{"type":"LineString","properties":{"kind":"major_road","name:en":"Vinogradnaya Street","network":"ru:national","sort_rank":380,"kind_detail":"primary","bus_network":null,"source":"openstreetmap.org","min_zoom":8.0,"bus_shield_text":"36","shield_text":"147","landuse_kind":"urban_area","ref":"\u0410-147","id":194324387},"arcs":[55]},{"type":"MultiLineString","properties":{"bus_network":null,"network":"ru:national","sort_rank":380,"kind_detail":"primary","kind":"major_road","source":"openstreetmap.org","min_zoom":8.0,"bus_shield_text":"1","shield_text":"147","landuse_kind":"urban_area","ref":"\u0410-147"},"arcs":[[56],[57]]},{"type":"LineString","properties":{"kind":"ferry","sort_rank":355,"landuse_kind":"urban_area","source":"openstreetmap.org","min_zoom":8.0,"ref":"Sochi - Sukhum","id":-1531733,"osm_relation":true},"arcs":[58]},{"type":"LineString","properties":{"kind":"major_road","name:en":"Semashko Street","network":"ru:national","sort_rank":381,"kind_detail":"trunk","bus_network":null,"source":"openstreetmap.org","min_zoom":8.0,"bus_shield_text":"143","shield_text":"147","ref":"\u0410-147","id":102572707},"arcs":[59]},{"type":"LineString","properties":{"kind":"major_road","network":"AsianHighway","sort_rank":381,"kind_detail":"trunk","source":"openstreetmap.org","min_zoom":8.0,"landuse_kind":"residential","shield_text":"82"},"arcs":[60]},{"type":"LineString","properties":{"source":"openstreetmap.org","kind":"major_road","name:en":"Donskaya Street","landuse_kind":"urban_area","sort_rank":380,"kind_detail":"primary","min_zoom":8.0},"arcs":[61]},{"type":"LineString","properties":{"kind":"major_road","name:en":"Soloniki Street","network":"ru:national","sort_rank":381,"kind_detail":"trunk","source":"openstreetmap.org","min_zoom":8.0,"landuse_kind":"nature_reserve","shield_text":"147","ref":"\u0410-147","id":89665683},"arcs":[62]},{"type":"LineString","properties":{"kind":"ferry","name:en":"Tuapse - Sochi - Gagra","name":"\u0422\u0443\u0430\u043f\u0441\u0435 - \u0421\u043e\u0447\u0438 - \u0413\u0430\u0433\u0440\u0430","name:ka":"\u10e2\u10e3\u10d0\u10e4\u10e1\u10d4 - \u10e1\u10dd\u10ed\u10d8 - \u10d2\u10d0\u10d2\u10e0\u10d0","sort_rank":355,"landuse_kind":"urban_area","source":"openstreetmap.org","min_zoom":8.0,"ref":"\u0422\u0443\u0430\u043f\u0441\u0435 - \u0421\u043e\u0447\u0438 - \u0413\u0430\u0433\u0440\u0430","id":-1085318,"osm_relation":true},"arcs":[63]},{"type":"LineString","properties":{"kind":"major_road","name:en":"Batumi Avenue","network":"ru:national","sort_rank":381,"kind_detail":"trunk","bus_network":null,"source":"openstreetmap.org","min_zoom":8.0,"bus_shield_text":"153","shield_text":"147","ref":"\u0410-147","id":53787709},"arcs":[64]},{"type":"LineString","properties":{"kind":"ferry","name:en":"Sochi - Gagra","name":"\u0421\u043e\u0447\u0438 - \u0413\u0430\u0433\u0440\u0430","name:ka":"\u10e1\u10dd\u10ed\u10d8 - \u10d2\u10d0\u10d2\u10e0\u10d0","sort_rank":355,"name:de":"Sotschi - Gagra","source":"openstreetmap.org","min_zoom":8.0,"id":69222031},"arcs":[65]},{"type":"MultiLineString","properties":{"source":"openstreetmap.org","kind":"ferry","name":"\u041c\u0430\u0440\u0448\u0440\u0443\u0442 \u043f\u0440\u043e\u0433\u0443\u043b\u043e\u0447\u043d\u043e\u0433\u043e \u043a\u0430\u0442\u0435\u0440\u0430","sort_rank":355,"min_zoom":8.0,"id":48465643},"arcs":[[66],[67],[68]]},{"type":"MultiLineString","properties":{"bus_network":null,"name:en":"Kurortny Prospekt","network":"ru:national","sort_rank":380,"kind_detail":"primary","kind":"major_road","source":"openstreetmap.org","min_zoom":8.0,"bus_shield_text":"\u0421\u043e\u0447\u0438 - \u0421\u0443\u0445\u0443\u043c","shield_text":"147","ref":"\u0410-147"},"arcs":[[69],[70],[71]]},{"type":"LineString","properties":{"bus_network":null,"name:en":"Kurortny Prospekt","network":"ru:national","sort_rank":380,"kind_detail":"primary","is_bicycle_related":true,"kind":"major_road","bicycle_network":"ncn","source":"openstreetmap.org","min_zoom":8.0,"bus_shield_text":"\u0421\u043e\u0447\u0438 - \u0421\u0443\u0445\u0443\u043c","shield_text":"147","landuse_kind":"urban_area","ref":"\u0410-147","id":83378579},"arcs":[72]},{"type":"LineString","properties":{"bus_network":null,"name:en":"Kurortny Prospekt","network":"ru:national","sort_rank":380,"kind_detail":"primary","is_bicycle_related":true,"kind":"major_road","bicycle_network":"ncn","source":"openstreetmap.org","min_zoom":8.0,"bus_shield_text":"1","shield_text":"147","landuse_kind":"urban_area","ref":"\u0410-147"},"arcs":[73]},{"type":"MultiLineString","properties":{"kind":"major_road","network":"AsianHighway","sort_rank":381,"kind_detail":"trunk","is_bicycle_related":true,"source":"openstreetmap.org","min_zoom":8.0,"shield_text":"82"},"arcs":[[74],[75],[76],[77]]},{"type":"LineString","properties":{"source":"openstreetmap.org","kind":"ferry","sort_rank":355,"ref":"Sochi - Sukhum","min_zoom":8.0,"osm_relation":true},"arcs":[78]},{"type":"LineString","properties":{"kind":"major_road","name:en":"Tsentralnaya Street","network":"ru:national","sort_rank":381,"kind_detail":"trunk","source":"openstreetmap.org","min_zoom":8.0,"shield_text":"147","ref":"\u0410-147"},"arcs":[79]},{"type":"LineString","properties":{"bus_network":null,"name:en":"Lenin Street","network":"ru:national","sort_rank":381,"kind_detail":"trunk","kind":"major_road","name:de":"Leninstra\u00dfe","source":"openstreetmap.org","min_zoom":8.0,"bus_shield_text":"\u0421\u043e\u0447\u0438 - \u0421\u0443\u0445\u0443\u043c","shield_text":"147","ref":"\u0410-147"},"arcs":[80]},{"type":"MultiLineString","properties":{"kind":"major_road","name:en":"Tunnel \u2116 5","network":"ru:national","sort_rank":380,"kind_detail":"primary","source":"openstreetmap.org","min_zoom":8.0,"landuse_kind":"urban_area","shield_text":"148","ref":"\u0410-148"},"arcs":[[81],[82]]},{"type":"MultiLineString","properties":{"sort_rank":381,"source":"openstreetmap.org","min_zoom":8.0,"kind":"major_road","kind_detail":"trunk"},"arcs":[[83],[84]]},{"type":"MultiLineString","properties":{"bus_network":null,"name:en":"Sukhumi Highway","network":"AsianHighway","name:ka":"\u10e1\u10dd\u10ee\u10e3\u10db\u10d8\u10e1 \u10d2\u10d0\u10db\u10d6\u10d8\u10e0\u10d8","sort_rank":381,"kind_detail":"trunk","is_bicycle_related":true,"kind":"major_road","source":"openstreetmap.org","min_zoom":8.0,"bus_shield_text":"\u0421\u043e\u0447\u0438 - \u0421\u0443\u0445\u0443\u043c","shield_text":"82","ref":"M 27"},"arcs":[[85],[86],[87],[88],[89],[90],[91],[92],[93],[94]]},{"type":"LineString","properties":{"bus_network":null,"name:en":"Sukhumi Highway","network":"AsianHighway","name:ka":"\u10e1\u10dd\u10ee\u10e3\u10db\u10d8\u10e1 \u10d2\u10d6\u10d0\u10e2\u10d9\u10d4\u10ea\u10d8\u10da\u10d8","sort_rank":380,"kind_detail":"primary","is_bicycle_related":true,"kind":"major_road","source":"openstreetmap.org","min_zoom":8.0,"bus_shield_text":"\u0421\u043e\u0447\u0438 - \u0421\u0443\u0445\u0443\u043c","shield_text":"82","ref":"M 27","id":36931738},"arcs":[95]},{"type":"MultiLineString","properties":{"bus_network":null,"name:en":"Aviatsionnaya Street","sort_rank":380,"kind_detail":"primary","kind":"major_road","source":"openstreetmap.org","min_zoom":8.0,"bus_shield_text":"\u0421\u043e\u0447\u0438 - \u0421\u0443\u0445\u0443\u043c","landuse_kind":"urban_area"},"arcs":[[96],[97]]},{"type":"MultiLineString","properties":{"kind":"ferry","name:en":"Sochi - Adler","name":"\u0421\u043e\u0447\u0438 - \u0410\u0434\u043b\u0435\u0440","sort_rank":355,"landuse_kind":"urban_area","source":"openstreetmap.org","min_zoom":8.0,"ref":"\u0421\u043e\u0447\u0438 - \u0410\u0434\u043b\u0435\u0440","id":-1609490,"osm_relation":true},"arcs":[[98],[99]]},{"type":"MultiLineString","properties":{"bus_network":null,"network":"ru:national","sort_rank":380,"kind_detail":"primary","kind":"major_road","source":"openstreetmap.org","min_zoom":8.0,"bus_shield_text":"36","shield_text":"147","landuse_kind":"urban_area","ref":"\u0410-147"},"arcs":[[100],[101]]},{"type":"LineString","properties":{"kind":"major_road","name:en":"Semashko Street","network":"ru:national","sort_rank":381,"kind_detail":"trunk","source":"openstreetmap.org","min_zoom":8.0,"shield_text":"147","ref":"\u0410-147"},"arcs":[102]},{"type":"LineString","properties":{"source":"openstreetmap.org","kind":"ferry","sort_rank":355,"ref":"Hopa - Sochi","min_zoom":8.0,"osm_relation":true,"id":-301790},"arcs":[103]},{"type":"LineString","properties":{"kind":"major_road","network":"ru:national","sort_rank":380,"kind_detail":"primary","source":"openstreetmap.org","min_zoom":8.0,"landuse_kind":"urban_area","shield_text":"147","id":194324370},"arcs":[104]},{"type":"LineString","properties":{"kind":"ferry","sort_rank":355,"landuse_kind":"urban_area","source":"openstreetmap.org","min_zoom":8.0,"ref":"\u0421\u043e\u0447\u0438 - \u0411\u0430\u0442\u0443\u043c\u0438","id":-301789,"osm_relation":true},"arcs":[105]},{"type":"LineString","properties":{"kind":"major_road","network":"ru:national","sort_rank":381,"kind_detail":"trunk","source":"openstreetmap.org","min_zoom":8.0,"shield_text":"148","ref":"\u0410-148"},"arcs":[106]},{"type":"MultiLineString","properties":{"kind":"major_road","network":"ru:national","sort_rank":380,"kind_detail":"primary","source":"openstreetmap.org","min_zoom":8.0,"landuse_kind":"urban_area","shield_text":"147","ref":"\u0410-147"},"arcs":[[107],[108],[109],[110],[111],[112],[113],[114],[115],[116],[117],[118]]},{"type":"MultiLineString","properties":{"bus_network":null,"name:en":"Vinogradnaya Street","network":"ru:national","sort_rank":380,"landuse_kind":"urban_area","kind":"major_road","source":"openstreetmap.org","min_zoom":8.0,"bus_shield_text":"1","shield_text":"147","kind_detail":"primary","ref":"\u0410-147"},"arcs":[[119],[120]]},{"type":"MultiLineString","properties":{"source":"openstreetmap.org","kind":"major_road","landuse_kind":"urban_area","sort_rank":380,"kind_detail":"primary","min_zoom":8.0},"arcs":[[121],[122],[123],[124],[125],[126],[127],[128],[129],[130],[131]]},{"type":"MultiLineString","properties":{"kind":"major_road","name:en":"Tunnel \u2116 8","network":"ru:national","sort_rank":380,"kind_detail":"primary","source":"openstreetmap.org","min_zoom":8.0,"landuse_kind":"urban_area","shield_text":"148","ref":"\u0410-148"},"arcs":[[132],[133]]},{"type":"LineString","properties":{"bus_network":null,"name:en":"Sukhumi Highway","network":"AsianHighway","sort_rank":380,"kind_detail":"primary","is_bicycle_related":true,"kind":"major_road","source":"openstreetmap.org","min_zoom":8.0,"bus_shield_text":"\u0421\u043e\u0447\u0438 - \u0421\u0443\u0445\u0443\u043c","shield_text":"82","ref":"M 27","id":83091473},"arcs":[134]},{"type":"LineString","properties":{"source":"openstreetmap.org","kind":"ferry","name":"\u041d\u043e\u0432\u043e\u0440\u043e\u0441\u0441\u0438\u0439\u0441\u043a - \u0421\u043e\u0447\u0438","sort_rank":355,"min_zoom":8.0,"id":203317518},"arcs":[135]},{"type":"MultiLineString","properties":{"kind":"major_road","name:en":"Urozhaynaya Street","network":"ru:national","sort_rank":380,"kind_detail":"primary","source":"openstreetmap.org","min_zoom":8.0,"shield_text":"147","ref":"\u0410-147"},"arcs":[[136],[137]]},{"type":"LineString","properties":{"kind":"major_road","network":"ru:national","sort_rank":381,"kind_detail":"trunk","source":"openstreetmap.org","min_zoom":8.0,"landuse_kind":"urban_area","shield_text":"148","ref":"\u0410-148","id":202981095},"arcs":[138]},{"type":"LineString","properties":{"sort_rank":355,"source":"openstreetmap.org","min_zoom":8.0,"name":"\u0421\u043e\u0447\u0438 - \u0422\u0440\u0430\u0431\u0437\u043e\u043d \/ So\u00e7i - Trabzon","kind":"ferry"},"arcs":[139]},{"type":"LineString","properties":{"kind":"major_road","name:en":"Lenin Street","network":"ru:national","sort_rank":380,"kind_detail":"primary","name:de":"Leninstra\u00dfe","source":"openstreetmap.org","min_zoom":8.0,"landuse_kind":"urban_area","shield_text":"147","ref":"\u0410-147"},"arcs":[140]},{"type":"LineString","properties":{"kind":"major_road","name:en":"Batumi Avenue","network":"ru:national","sort_rank":381,"kind_detail":"trunk","bus_network":null,"source":"openstreetmap.org","min_zoom":8.0,"bus_shield_text":"153","shield_text":"147","landuse_kind":"urban_area","ref":"\u0410-147","id":53787709},"arcs":[141]},{"type":"LineString","properties":{"bus_network":null,"name:en":"Kurortny Prospekt","network":"ru:national","sort_rank":380,"kind_detail":"primary","kind":"major_road","source":"openstreetmap.org","min_zoom":8.0,"bus_shield_text":"5","shield_text":"147","landuse_kind":"urban_area","ref":"\u0410-147"},"arcs":[142]},{"type":"LineString","properties":{"kind":"ferry","sort_rank":355,"landuse_kind":"urban_area","source":"openstreetmap.org","min_zoom":8.0,"ref":"\u0421\u043e\u0447\u0438 - \u041d\u043e\u0432\u043e\u0440\u043e\u0441\u0441\u0438\u0439\u0441\u043a","id":-300721,"osm_relation":true},"arcs":[143]},{"type":"LineString","properties":{"source":"openstreetmap.org","kind":"ferry","name:en":"Sochi - Sukhum","name":"\u0421\u043e\u0447\u0438 - \u0421\u0443\u0445\u0443\u043c","sort_rank":355,"min_zoom":8.0},"arcs":[144]},{"type":"LineString","properties":{"bus_network":null,"name:en":"Sukhumskoye Shosse","network":"AsianHighway","name:ka":"\u10e1\u10dd\u10ee\u10e3\u10db\u10d8\u10e1 \u10d2\u10d0\u10db\u10d6\u10d8\u10e0\u10d8","sort_rank":380,"kind_detail":"primary","is_bicycle_related":true,"kind":"major_road","source":"openstreetmap.org","min_zoom":8.0,"bus_shield_text":"\u0421\u043e\u0447\u0438 - \u0421\u0443\u0445\u0443\u043c","shield_text":"82","ref":"M 27"},"arcs":[145]},{"type":"MultiLineString","properties":{"kind":"ferry","name:en":"Sochi - Adler","name":"\u0421\u043e\u0447\u0438 - \u0410\u0434\u043b\u0435\u0440","sort_rank":355,"source":"openstreetmap.org","min_zoom":8.0,"ref":"\u0421\u043e\u0447\u0438 - \u0410\u0434\u043b\u0435\u0440","id":-1609490,"osm_relation":true},"arcs":[[146],[147]]},{"type":"LineString","properties":{"kind":"major_road","name:en":"Car bridge River Psou","sort_rank":380,"kind_detail":"primary","bus_network":null,"source":"openstreetmap.org","min_zoom":8.0,"bus_shield_text":"\u0421\u043e\u0447\u0438 - \u0421\u0443\u0445\u0443\u043c","id":83091492},"arcs":[148]},{"type":"LineString","properties":{"bus_network":null,"network":"ru:national","sort_rank":381,"kind_detail":"trunk","kind":"major_road","source":"openstreetmap.org","min_zoom":8.0,"bus_shield_text":"153","shield_text":"147","ref":"\u0410-147"},"arcs":[149]},{"type":"MultiLineString","properties":{"bus_network":null,"network":"ru:national","sort_rank":381,"landuse_kind":"urban_area","kind":"major_road","source":"openstreetmap.org","min_zoom":8.0,"bus_shield_text":"1","shield_text":"147","kind_detail":"trunk","ref":"\u0410-147"},"arcs":[[150],[151]]},{"type":"MultiLineString","properties":{"bus_network":null,"network":"ru:national","sort_rank":381,"landuse_kind":"urban_area","kind":"major_road","source":"openstreetmap.org","min_zoom":8.0,"bus_shield_text":"\u0421\u043e\u0447\u0438 - \u0421\u0443\u0445\u0443\u043c","shield_text":"147","kind_detail":"trunk","ref":"\u0410-147"},"arcs":[[152],[153]]},{"type":"MultiLineString","properties":{"kind":"major_road","network":"ru:national","sort_rank":381,"kind_detail":"trunk","source":"openstreetmap.org","min_zoom":8.0,"shield_text":"147","ref":"\u0410-147"},"arcs":[[154],[155],[156],[157],[158],[159],[160],[161],[162],[163],[164],[165],[166],[167],[168],[169],[170],[171],[172],[173],[174]]},{"type":"MultiLineString","properties":{"kind":"major_road","network":"ru:national","sort_rank":380,"kind_detail":"primary","source":"openstreetmap.org","min_zoom":8.0,"landuse_kind":"urban_area","shield_text":"148","ref":"\u0410-148"},"arcs":[[175],[176],[177],[178],[179],[180],[181],[182],[183],[184],[185],[186],[187],[188],[189],[190]]},{"type":"MultiLineString","properties":{"kind":"major_road","name:en":"Tunnel \u2116 6","network":"ru:national","sort_rank":380,"kind_detail":"primary","source":"openstreetmap.org","min_zoom":8.0,"landuse_kind":"urban_area","shield_text":"148","ref":"\u0410-148"},"arcs":[[191],[192]]},{"type":"LineString","properties":{"kind":"ferry","name:en":"Sochi - Gagra","name":"\u0421\u043e\u0447\u0438 - \u0413\u0430\u0433\u0440\u0430","name:ka":"\u10e1\u10dd\u10ed\u10d8 - \u10d2\u10d0\u10d2\u10e0\u10d0","sort_rank":355,"landuse_kind":"residential","name:de":"Sotschi - Gagra","source":"openstreetmap.org","min_zoom":8.0,"id":69222031},"arcs":[193]},{"type":"LineString","properties":{"kind":"major_road","name:en":"Dekabristov Street","network":"ru:national","sort_rank":381,"kind_detail":"trunk","source":"openstreetmap.org","min_zoom":8.0,"shield_text":"147","ref":"\u0410-147"},"arcs":[194]},{"type":"MultiLineString","properties":{"kind":"major_road","name:en":"Tunnel \u2116 7","network":"ru:national","sort_rank":380,"kind_detail":"primary","source":"openstreetmap.org","min_zoom":8.0,"landuse_kind":"urban_area","shield_text":"148","ref":"\u0410-148"},"arcs":[[195],[196]]},{"type":"LineString","properties":{"kind":"major_road","name:en":"Urozhaynaya Street","network":"ru:national","sort_rank":380,"kind_detail":"primary","bus_network":null,"name:de":"Uroschainaja uliza","source":"openstreetmap.org","min_zoom":8.0,"bus_shield_text":"\u0421\u043e\u0447\u0438 - \u0421\u0443\u0445\u0443\u043c","shield_text":"147","ref":"\u0410-147","id":320029967},"arcs":[197]},{"type":"LineString","properties":{"bus_network":null,"name:en":"Kurortny Prospekt","network":"ru:national","sort_rank":380,"landuse_kind":"urban_area","kind":"major_road","source":"openstreetmap.org","min_zoom":8.0,"bus_shield_text":"29","shield_text":"147","kind_detail":"primary","ref":"\u0410-147"},"arcs":[198]},{"type":"LineString","properties":{"bus_network":null,"name:en":"Kaspiyskaya Street","network":"ru:national","sort_rank":380,"kind_detail":"primary","kind":"major_road","source":"openstreetmap.org","min_zoom":8.0,"bus_shield_text":"125","shield_text":"147","landuse_kind":"urban_area","ref":"\u0410-147"},"arcs":[199]},{"type":"LineString","properties":{"bus_network":null,"name:en":"Urozhaynaya Street","sort_rank":380,"kind_detail":"primary","kind":"major_road","source":"openstreetmap.org","min_zoom":8.0,"bus_shield_text":"\u0421\u043e\u0447\u0438 - \u0421\u0443\u0445\u0443\u043c"},"arcs":[200]},{"type":"LineString","properties":{"kind":"major_road","name:en":"Gorkogo Street","sort_rank":380,"landuse_kind":"urban_area","source":"openstreetmap.org","min_zoom":8.0,"kind_detail":"primary","id":208465815},"arcs":[201]},{"type":"MultiLineString","properties":{"bus_network":null,"name:en":"Kurortny Prospekt","network":"ru:national","sort_rank":380,"kind_detail":"primary","kind":"major_road","source":"openstreetmap.org","min_zoom":8.0,"bus_shield_text":"41","shield_text":"147","ref":"\u0410-147"},"arcs":[[202],[203]]},{"type":"LineString","properties":{"kind":"ferry","name:en":"Sochi - Adler","name":"\u0421\u043e\u0447\u0438 - \u0410\u0434\u043b\u0435\u0440","sort_rank":355,"name:de":"Sotschi - Adler","source":"openstreetmap.org","min_zoom":8.0,"id":115972423},"arcs":[204]},{"type":"MultiLineString","properties":{"kind":"major_road","name:en":"Sochi Bypass","network":"ru:national","sort_rank":381,"landuse_kind":"urban_area","source":"openstreetmap.org","min_zoom":8.0,"kind_detail":"trunk","shield_text":"147","ref":"\u0410-147"},"arcs":[[205],[206],[207],[208],[209]]},{"type":"LineString","properties":{"kind":"major_road","name:en":"Lvovskaya Street","network":"ru:national","sort_rank":381,"kind_detail":"trunk","source":"openstreetmap.org","min_zoom":8.0,"shield_text":"147","ref":"\u0410-147"},"arcs":[210]},{"type":"MultiLineString","properties":{"bus_network":null,"name:en":"Sukhumi Highway","network":"AsianHighway","name:ka":"\u10e1\u10dd\u10ee\u10e3\u10db\u10d8\u10e1 \u10d2\u10d6\u10d0\u10e2\u10d9\u10d4\u10ea\u10d8\u10da\u10d8","sort_rank":381,"kind_detail":"trunk","is_bicycle_related":true,"kind":"major_road","source":"openstreetmap.org","min_zoom":8.0,"bus_shield_text":"\u0421\u043e\u0447\u0438 - \u0421\u0443\u0445\u0443\u043c","shield_text":"82","ref":"M 27"},"arcs":[[211],[212],[213],[214],[215],[216],[217],[218],[219]]},{"type":"LineString","properties":{"sort_rank":380,"kind_detail":"primary","min_zoom":8.0,"kind":"major_road","source":"openstreetmap.org"},"arcs":[220]},{"type":"LineString","properties":{"kind":"ferry","name:en":"Sochi - Trabzon","name":"\u0421\u043e\u0447\u0438 - \u0422\u0440\u0430\u0431\u0437\u043e\u043d \/ So\u00e7i - Trabzon","name:tr":"So\u00e7i - Trabzon","landuse_kind":"urban_area","name:de":"Sotschi - Trabzon","source":"openstreetmap.org","min_zoom":8.0,"name:ru":"\u0421\u043e\u0447\u0438 - \u0422\u0440\u0430\u0431\u0437\u043e\u043d","id":368443139,"sort_rank":355},"arcs":[221]},{"type":"LineString","properties":{"kind":"major_road","name:en":"Tunnel \u2116 3","network":"ru:national","sort_rank":381,"kind_detail":"trunk","source":"openstreetmap.org","min_zoom":8.0,"landuse_kind":"urban_area","shield_text":"147","ref":"\u0410-147","id":53168455},"arcs":[222]},{"type":"LineString","properties":{"kind":"major_road","network":"ru:national","sort_rank":380,"kind_detail":"primary","bus_network":null,"source":"openstreetmap.org","min_zoom":8.0,"bus_shield_text":"125","shield_text":"147","landuse_kind":"urban_area","ref":"\u0410-147","id":38882690},"arcs":[223]},{"type":"LineString","properties":{"kind":"major_road","name:en":"Tunnel \u2116 4","network":"ru:national","sort_rank":380,"kind_detail":"primary","source":"openstreetmap.org","min_zoom":8.0,"landuse_kind":"urban_area","shield_text":"148","ref":"\u0410-148","id":228785482},"arcs":[224]},{"type":"LineString","properties":{"kind":"major_road","name:en":"Urozhaynaya Street","network":"ru:national","sort_rank":381,"kind_detail":"trunk","bus_network":null,"source":"openstreetmap.org","min_zoom":8.0,"bus_shield_text":"125","shield_text":"147","ref":"\u0410-147","id":131241816},"arcs":[225]},{"type":"LineString","properties":{"kind":"major_road","network":"ru:national","sort_rank":381,"kind_detail":"trunk","source":"openstreetmap.org","min_zoom":8.0,"landuse_kind":"nature_reserve","shield_text":"147","ref":"\u0410-148","id":202981099},"arcs":[226]},{"type":"LineString","properties":{"kind":"major_road","name:en":"Lenin Street","network":"ru:national","sort_rank":380,"kind_detail":"primary","bus_network":null,"name:de":"Leninstra\u00dfe","source":"openstreetmap.org","min_zoom":8.0,"bus_shield_text":"125","shield_text":"147","landuse_kind":"urban_area","ref":"\u0410-147","id":48975951},"arcs":[227]},{"type":"LineString","properties":{"bus_network":null,"network":"ru:national","sort_rank":381,"kind_detail":"trunk","kind":"major_road","source":"openstreetmap.org","min_zoom":8.0,"bus_shield_text":"144","shield_text":"147","ref":"\u0410-147"},"arcs":[228]},{"type":"MultiLineString","properties":{"kind":"major_road","network":"ru:national","sort_rank":381,"kind_detail":"trunk","source":"openstreetmap.org","min_zoom":8.0,"landuse_kind":"nature_reserve","shield_text":"147","ref":"\u0410-147"},"arcs":[[229],[230],[231],[232],[233],[234],[235],[236],[237]]},{"type":"LineString","properties":{"kind":"major_road","name:en":"Donskaya Street","network":"ru:national","sort_rank":380,"kind_detail":"primary","source":"openstreetmap.org","min_zoom":8.0,"landuse_kind":"urban_area","shield_text":"147","ref":"\u0410-147"},"arcs":[238]},{"type":"MultiLineString","properties":{"bus_network":null,"name:en":"V. Ardzinba Prospekt","network":"AsianHighway","sort_rank":381,"kind_detail":"trunk","is_bicycle_related":true,"kind":"major_road","source":"openstreetmap.org","min_zoom":8.0,"bus_shield_text":"\u0421\u043e\u0447\u0438 - \u0421\u0443\u0445\u0443\u043c","shield_text":"82","ref":"M 27"},"arcs":[[239],[240]]},{"type":"LineString","properties":{"source":"openstreetmap.org","kind":"ferry","sort_rank":355,"ref":"\u0421\u043e\u0447\u0438 - \u041d\u043e\u0432\u043e\u0440\u043e\u0441\u0441\u0438\u0439\u0441\u043a","min_zoom":8.0,"osm_relation":true,"id":-300721},"arcs":[241]},{"type":"LineString","properties":{"kind":"ferry","name:en":"Sochi - Batumi","name":"\u0421\u043e\u0447\u0438 - \u0411\u0430\u0442\u0443\u043c\u0438","name:ka":"\u10e1\u10dd\u10ed\u10d8 - \u10d1\u10d0\u10d7\u10e3\u10db\u10d8","sort_rank":355,"name:de":"Sotschi - Batumi","source":"openstreetmap.org","min_zoom":8.0,"id":368443126},"arcs":[242]},{"type":"LineString","properties":{"bus_network":null,"network":"ru:national","sort_rank":381,"kind_detail":"trunk","kind":"major_road","source":"openstreetmap.org","min_zoom":8.0,"bus_shield_text":"105","shield_text":"147","ref":"\u0410-147"},"arcs":[243]},{"type":"LineString","properties":{"kind":"major_road","name:en":"Soloniki Street","network":"ru:national","sort_rank":381,"kind_detail":"trunk","source":"openstreetmap.org","min_zoom":8.0,"shield_text":"147","ref":"\u0410-147"},"arcs":[244]},{"type":"MultiLineString","properties":{"kind":"major_road","name:en":"Glavnaya Street","network":"ru:national","sort_rank":381,"kind_detail":"trunk","source":"openstreetmap.org","min_zoom":8.0,"shield_text":"147","ref":"\u0410-147"},"arcs":[[245],[246],[247]]},{"type":"LineString","properties":{"kind":"major_road","name:en":"Kurortny Prospekt","sort_rank":380,"kind_detail":"primary","bus_network":null,"source":"openstreetmap.org","min_zoom":8.0,"bus_shield_text":"\u0421\u043e\u0447\u0438 - \u0421\u0443\u0445\u0443\u043c","landuse_kind":"urban_area","id":46916254},"arcs":[248]},{"type":"LineString","properties":{"kind":"major_road","name:en":"Tunnel \u2116 6","network":"ru:national","sort_rank":381,"kind_detail":"trunk","source":"openstreetmap.org","min_zoom":8.0,"landuse_kind":"nature_reserve","shield_text":"147","ref":"\u0410-147","id":46914851},"arcs":[249]},{"type":"LineString","properties":{"bus_network":null,"name:en":"Yegorova Street","network":"ru:national","sort_rank":380,"kind_detail":"primary","kind":"major_road","source":"openstreetmap.org","min_zoom":8.0,"bus_shield_text":"5","shield_text":"147","landuse_kind":"urban_area","ref":"\u0410-147"},"arcs":[250]},{"type":"LineString","properties":{"kind":"ferry","name:en":"Novorossiysk - Sochi","name":"\u041d\u043e\u0432\u043e\u0440\u043e\u0441\u0441\u0438\u0439\u0441\u043a - \u0421\u043e\u0447\u0438","sort_rank":355,"name:de":"Noworossijsk - Sotschi","source":"openstreetmap.org","min_zoom":8.0,"id":368443116},"arcs":[251]},{"type":"MultiLineString","properties":{"bus_network":null,"network":"ru:national","sort_rank":380,"kind_detail":"primary","kind":"major_road","source":"openstreetmap.org","min_zoom":8.0,"bus_shield_text":"\u0421\u043e\u0447\u0438 - \u0421\u0443\u0445\u0443\u043c","shield_text":"147","ref":"\u0410-147"},"arcs":[[252],[253],[254]]},{"type":"LineString","properties":{"source":"openstreetmap.org","kind":"ferry","sort_rank":355,"ref":"\u041a\u0435\u0440\u0447\u044c - \u0411\u0430\u0442\u0443\u043c\u0438 (Kerch - Batumi)","min_zoom":8.0,"osm_relation":true,"id":-301608},"arcs":[255]},{"type":"LineString","properties":{"bus_network":null,"name:en":"Gorkogo Street","sort_rank":380,"kind_detail":"primary","kind":"major_road","name:de":"uliza Gorkogo","source":"openstreetmap.org","min_zoom":8.0,"bus_shield_text":"\u0421\u043e\u0447\u0438 - \u0421\u0443\u0445\u0443\u043c","landuse_kind":"urban_area"},"arcs":[256]},{"type":"MultiLineString","properties":{"bus_network":null,"name:en":"Nasypnaya Street","network":"ru:national","sort_rank":381,"landuse_kind":"urban_area","kind":"major_road","source":"openstreetmap.org","min_zoom":8.0,"bus_shield_text":"\u0421\u043e\u0447\u0438 - \u0421\u0443\u0445\u0443\u043c","shield_text":"147","kind_detail":"trunk","ref":"\u0410-147"},"arcs":[[257],[258]]},{"type":"LineString","properties":{"bus_network":null,"name:en":"Constitutsii SSSR Street","sort_rank":380,"landuse_kind":"urban_area","kind":"major_road","source":"openstreetmap.org","min_zoom":8.0,"bus_shield_text":"1","kind_detail":"primary"},"arcs":[259]},{"type":"MultiLineString","properties":{"kind":"major_road","network":"ru:national","sort_rank":381,"landuse_kind":"urban_area","source":"openstreetmap.org","min_zoom":8.0,"kind_detail":"trunk","shield_text":"147","ref":"\u0410-147"},"arcs":[[260],[261],[262],[263],[264],[265],[266],[267],[268],[269],[270],[271],[272],[273],[274],[275]]},{"type":"LineString","properties":{"kind":"major_road","name:en":"Gorkogo Street","network":"ru:national","sort_rank":380,"kind_detail":"primary","bus_network":null,"source":"openstreetmap.org","min_zoom":8.0,"bus_shield_text":"1","shield_text":"147","landuse_kind":"urban_area","ref":"\u0410-147","id":31010348},"arcs":[276]},{"type":"LineString","properties":{"bus_network":null,"network":"ru:national","sort_rank":381,"landuse_kind":"urban_area","kind":"major_road","source":"openstreetmap.org","min_zoom":8.0,"bus_shield_text":"143","shield_text":"147","kind_detail":"trunk","ref":"\u0410-147"},"arcs":[277]},{"type":"LineString","properties":{"kind":"ferry","name:en":"Sochi - Trabzon","name":"\u0421\u043e\u0447\u0438 - \u0422\u0440\u0430\u0431\u0437\u043e\u043d \/ So\u00e7i - Trabzon","name:tr":"So\u00e7i - Trabzon","name:de":"Sotschi - Trabzon","source":"openstreetmap.org","min_zoom":8.0,"name:ru":"\u0421\u043e\u0447\u0438 - \u0422\u0440\u0430\u0431\u0437\u043e\u043d","id":368443139,"sort_rank":355},"arcs":[278]},{"type":"LineString","properties":{"source":"openstreetmap.org","kind":"ferry","name":"Hopa - Soci \/ \u0425\u043e\u043f\u0430 - \u0421\u043e\u0447\u0438","sort_rank":355,"min_zoom":8.0,"id":115972424},"arcs":[279]},{"type":"MultiLineString","properties":{"bus_network":null,"name:en":"Lenin Street","network":"ru:national","sort_rank":381,"kind_detail":"trunk","kind":"major_road","name:de":"Leninstra\u00dfe","source":"openstreetmap.org","min_zoom":8.0,"bus_shield_text":"\u0421\u043e\u0447\u0438 - \u0421\u0443\u0445\u0443\u043c","shield_text":"147","landuse_kind":"urban_area","ref":"\u0410-147"},"arcs":[[280],[281]]},{"type":"MultiLineString","properties":{"source":"openstreetmap.org","kind":"major_road","network":"AsianHighway","sort_rank":381,"kind_detail":"trunk","min_zoom":8.0,"shield_text":"82"},"arcs":[[282],[283]]},{"type":"LineString","properties":{"bus_network":null,"name:en":"Kaspiyskaya Street","network":"ru:national","sort_rank":380,"kind_detail":"primary","kind":"major_road","source":"openstreetmap.org","min_zoom":8.0,"bus_shield_text":"125","shield_text":"147","ref":"\u0410-147"},"arcs":[284]},{"type":"LineString","properties":{"source":"openstreetmap.org","kind":"ferry","sort_rank":355,"ref":"\u0421\u043e\u0447\u0438 - \u0411\u0430\u0442\u0443\u043c\u0438","min_zoom":8.0,"osm_relation":true},"arcs":[285]},{"type":"MultiLineString","properties":{"kind":"ferry","name:en":"Tuapse - Sochi - Gagra","name":"\u0422\u0443\u0430\u043f\u0441\u0435 - \u0421\u043e\u0447\u0438 - \u0413\u0430\u0433\u0440\u0430","name:ka":"\u10e2\u10e3\u10d0\u10e4\u10e1\u10d4 - \u10e1\u10dd\u10ed\u10d8 - \u10d2\u10d0\u10d2\u10e0\u10d0","sort_rank":355,"source":"openstreetmap.org","min_zoom":8.0,"ref":"\u0422\u0443\u0430\u043f\u0441\u0435 - \u0421\u043e\u0447\u0438 - \u0413\u0430\u0433\u0440\u0430","osm_relation":true},"arcs":[[286],[287]]},{"type":"LineString","properties":{"bus_network":null,"name:en":"Lenin Street","network":"ru:national","sort_rank":381,"kind_detail":"trunk","kind":"major_road","name:de":"Leninstra\u00dfe","source":"openstreetmap.org","min_zoom":8.0,"bus_shield_text":"105","shield_text":"147","landuse_kind":"urban_area","ref":"\u0410-147","id":48702267},"arcs":[288]},{"type":"LineString","properties":{"kind":"major_road","name:en":"Semashko Street","network":"ru:national","sort_rank":381,"kind_detail":"trunk","bus_network":null,"source":"openstreetmap.org","min_zoom":8.0,"bus_shield_text":"143","shield_text":"147","landuse_kind":"urban_area","ref":"\u0410-147","id":102572707},"arcs":[289]},{"type":"LineString","properties":{"bus_network":null,"name:en":"Lenin Street","network":"ru:national","sort_rank":381,"kind_detail":"trunk","kind":"major_road","name:de":"Leninstra\u00dfe","source":"openstreetmap.org","min_zoom":8.0,"bus_shield_text":"105","shield_text":"147","ref":"\u0410-147"},"arcs":[290]},{"type":"LineString","properties":{"kind":"major_road","name:en":"Gorkogo Street","network":"ru:national","sort_rank":380,"kind_detail":"primary","source":"openstreetmap.org","min_zoom":8.0,"landuse_kind":"urban_area","shield_text":"148","ref":"\u0410-148"},"arcs":[291]},{"type":"LineString","properties":{"kind":"ferry","name:en":"Novorossiysk - Sochi","name":"\u041d\u043e\u0432\u043e\u0440\u043e\u0441\u0441\u0438\u0439\u0441\u043a - \u0421\u043e\u0447\u0438","sort_rank":355,"landuse_kind":"urban_area","name:de":"Noworossijsk - Sotschi","source":"openstreetmap.org","min_zoom":8.0,"id":368443116},"arcs":[292]},{"type":"LineString","properties":{"kind":"major_road","network":"ru:national","sort_rank":381,"kind_detail":"trunk","source":"openstreetmap.org","min_zoom":8.0,"shield_text":"147","id":155109972},"arcs":[293]},{"type":"LineString","properties":{"bus_network":null,"name:en":"Donskaya Street","network":"ru:national","sort_rank":380,"kind_detail":"primary","kind":"major_road","source":"openstreetmap.org","min_zoom":8.0,"bus_shield_text":"1","shield_text":"147","landuse_kind":"urban_area","ref":"\u0410-147"},"arcs":[294]},{"type":"MultiLineString","properties":{"bus_network":null,"name:en":"Sukhumi Highway","network":"AsianHighway","sort_rank":381,"kind_detail":"trunk","is_bicycle_related":true,"kind":"major_road","source":"openstreetmap.org","min_zoom":8.0,"bus_shield_text":"\u0421\u043e\u0447\u0438 - \u0421\u0443\u0445\u0443\u043c","shield_text":"82","ref":"M 27"},"arcs":[[295],[296],[297],[298],[299],[300],[301],[302],[303],[304],[305],[306],[307],[308],[309],[310],[311]]},{"type":"MultiLineString","properties":{"kind":"major_road","name:en":"Tunnel \u2116 3","network":"ru:national","sort_rank":380,"kind_detail":"primary","source":"openstreetmap.org","min_zoom":8.0,"landuse_kind":"urban_area","shield_text":"148","ref":"\u0410-148"},"arcs":[[312],[313]]},{"type":"LineString","properties":{"bus_network":null,"network":"ru:national","sort_rank":380,"kind_detail":"primary","kind":"major_road","source":"openstreetmap.org","min_zoom":8.0,"bus_shield_text":"\u0421\u043e\u0447\u0438 - \u0421\u0443\u0445\u0443\u043c","shield_text":"147","landuse_kind":"urban_area","ref":"\u0410-147"},"arcs":[314]},{"type":"LineString","properties":{"kind":"ferry","name:en":"Hopa - Sochi","name":"Hopa - Soci \/ \u0425\u043e\u043f\u0430 - \u0421\u043e\u0447\u0438","name:tr":"Hopa - Soci","landuse_kind":"urban_area","name:de":"Hopa - Sotschi","source":"openstreetmap.org","min_zoom":8.0,"name:ru":"\u0425\u043e\u043f\u0430 - \u0421\u043e\u0447\u0438","id":368443111,"sort_rank":355},"arcs":[315]},{"type":"LineString","properties":{"kind":"ferry","name:en":"Tuapse - Sochi","name":"\u0422\u0443\u0430\u043f\u0441\u0435 - \u0421\u043e\u0447\u0438","sort_rank":355,"landuse_kind":"urban_area","name:de":"Tuapse - Sotschi","source":"openstreetmap.org","min_zoom":8.0,"id":203317520},"arcs":[316]},{"type":"LineString","properties":{"bus_network":null,"name:en":"Sukhumi Highway","network":"AsianHighway","sort_rank":381,"kind_detail":"trunk","is_bicycle_related":true,"kind":"major_road","source":"openstreetmap.org","min_zoom":8.0,"bus_shield_text":"\u0421\u043e\u0447\u0438 - \u0421\u0443\u0445\u0443\u043c","shield_text":"82","landuse_kind":"residential","ref":"M 27","id":80761814},"arcs":[317]},{"type":"MultiLineString","properties":{"bus_network":null,"name:en":"Gorkogo Street","sort_rank":380,"landuse_kind":"urban_area","kind":"major_road","source":"openstreetmap.org","min_zoom":8.0,"bus_shield_text":"1","kind_detail":"primary"},"arcs":[[318],[319],[320]]},{"type":"LineString","properties":{"kind":"ferry","name:en":"Sochi - Sukhum","name":"\u0421\u043e\u0447\u0438 \u2014 \u0421\u0443\u0445\u0443\u043c","name:ka":"\u10e1\u10dd\u10ed\u10d8 \u2014 \u10e1\u10dd\u10ee\u10e3\u10db\u10d8","sort_rank":355,"landuse_kind":"urban_area","name:de":"Sotschi \u2014 Suchum","source":"openstreetmap.org","min_zoom":8.0,"name:ab":"\u0428\u04d9\u0430\u0447\u0430 \u2014 \u0410\u049f\u04d9\u0430","id":368443140},"arcs":[321]},{"type":"LineString","properties":{"bus_network":null,"name:en":"Urozhaynaya Street","network":"ru:national","sort_rank":380,"kind_detail":"primary","kind":"major_road","source":"openstreetmap.org","min_zoom":8.0,"bus_shield_text":"125","shield_text":"147","ref":"\u0410-147"},"arcs":[322]},{"type":"LineString","properties":{"kind":"major_road","name:en":"Tunnel \u2116 2","network":"ru:national","sort_rank":381,"kind_detail":"trunk","source":"openstreetmap.org","min_zoom":8.0,"landuse_kind":"urban_area","shield_text":"147","ref":"\u0410-147","id":46640034},"arcs":[323]},{"type":"LineString","properties":{"bus_network":null,"name:en":"Kurortny Prospekt","network":"ru:national","sort_rank":380,"kind_detail":"primary","is_bicycle_related":true,"kind":"major_road","bicycle_network":"ncn","source":"openstreetmap.org","min_zoom":8.0,"bus_shield_text":"5","shield_text":"147","landuse_kind":"urban_area","ref":"\u0410-147"},"arcs":[324]},{"type":"LineString","properties":{"bus_network":null,"name:en":"Nartaa Prospekt","network":"AsianHighway","sort_rank":381,"kind_detail":"trunk","is_bicycle_related":true,"kind":"major_road","source":"openstreetmap.org","min_zoom":8.0,"bus_shield_text":"\u0421\u043e\u0447\u0438 - \u0421\u0443\u0445\u0443\u043c","shield_text":"82","ref":"M 27","id":48458276},"arcs":[325]},{"type":"LineString","properties":{"kind":"major_road","network":"ru:national","sort_rank":380,"kind_detail":"primary","bus_network":null,"source":"openstreetmap.org","min_zoom":8.0,"bus_shield_text":"5","shield_text":"147","landuse_kind":"urban_area","ref":"\u0410-147","id":102405381},"arcs":[326]},{"type":"LineString","properties":{"bus_network":null,"sort_rank":380,"kind_detail":"primary","kind":"major_road","source":"openstreetmap.org","min_zoom":8.0,"bus_shield_text":"125","landuse_kind":"urban_area"},"arcs":[327]},{"type":"LineString","properties":{"kind":"major_road","name:en":"Magnitogorskaya Street","network":"ru:national","sort_rank":381,"kind_detail":"trunk","source":"openstreetmap.org","min_zoom":8.0,"shield_text":"147","ref":"\u0410-147"},"arcs":[328]},{"type":"MultiLineString","properties":{"kind":"major_road","name:en":"Dubljor Kurortnogo Avenue","network":"ru:national","sort_rank":380,"kind_detail":"primary","source":"openstreetmap.org","min_zoom":8.0,"landuse_kind":"urban_area","shield_text":"148","ref":"\u0410-148"},"arcs":[[329],[330],[331],[332]]},{"type":"LineString","properties":{"kind":"major_road","name:en":"Urozhaynaya Street","sort_rank":380,"kind_detail":"primary","bus_network":null,"name:de":"Uroschainaja uliza","source":"openstreetmap.org","min_zoom":8.0,"bus_shield_text":"\u0421\u043e\u0447\u0438 - \u0421\u0443\u0445\u0443\u043c","id":546598414},"arcs":[333]},{"type":"LineString","properties":{"kind":"ferry","name:en":"Sochi - Batumi","name":"\u0421\u043e\u0447\u0438 - \u0411\u0430\u0442\u0443\u043c\u0438","name:ka":"\u10e1\u10dd\u10ed\u10d8 - \u10d1\u10d0\u10d7\u10e3\u10db\u10d8","sort_rank":355,"landuse_kind":"urban_area","name:de":"Sotschi - Batumi","source":"openstreetmap.org","min_zoom":8.0,"id":368443126},"arcs":[334]},{"type":"LineString","properties":{"sort_rank":355,"source":"openstreetmap.org","min_zoom":8.0,"name":"\u0422\u0443\u0430\u043f\u0441\u0435 - \u0421\u043e\u0447\u0438","kind":"ferry"},"arcs":[335]},{"type":"LineString","properties":{"kind":"ferry","name:en":"Sochi - Adler","name":"\u0421\u043e\u0447\u0438 - \u0410\u0434\u043b\u0435\u0440","sort_rank":355,"landuse_kind":"urban_area","source":"openstreetmap.org","min_zoom":8.0,"id":115972427},"arcs":[336]},{"type":"LineString","properties":{"kind":"ferry","name:en":"Sochi - Adler","name":"\u0421\u043e\u0447\u0438 - \u0410\u0434\u043b\u0435\u0440","sort_rank":355,"landuse_kind":"urban_area","name:de":"Sotschi - Adler","source":"openstreetmap.org","min_zoom":8.0,"id":115972423},"arcs":[337]},{"type":"LineString","properties":{"kind":"major_road","name:en":"Yegorova Street","network":"ru:national","sort_rank":380,"kind_detail":"primary","source":"openstreetmap.org","min_zoom":8.0,"landuse_kind":"urban_area","shield_text":"147","ref":"\u0410-147","id":102405380},"arcs":[338]},{"type":"LineString","properties":{"bus_network":null,"name:en":"Kurortny Prospekt","network":"ru:national","sort_rank":380,"kind_detail":"primary","kind":"major_road","name:de":"Kurortny prospekt","source":"openstreetmap.org","min_zoom":8.0,"bus_shield_text":"\u0421\u043e\u0447\u0438 - \u0421\u0443\u0445\u0443\u043c","shield_text":"147","landuse_kind":"urban_area","ref":"\u0410-147","id":81511883},"arcs":[339]},{"type":"LineString","properties":{"kind":"ferry","name:en":"Sochi - Gagra","name":"\u0421\u043e\u0447\u0438 - \u0413\u0430\u0433\u0440\u0430","name:ka":"\u10e1\u10dd\u10ed\u10d8 - \u10d2\u10d0\u10d2\u10e0\u10d0","sort_rank":355,"landuse_kind":"urban_area","name:de":"Sotschi - Gagra","source":"openstreetmap.org","min_zoom":8.0,"name:ab":"\u0428\u04d9\u0430\u0447\u0430 - \u0413\u0430\u0433\u0440\u0430","id":115972431},"arcs":[340]},{"type":"LineString","properties":{"bus_network":null,"name:en":"Urozhaynaya Street","network":"ru:national","sort_rank":380,"kind_detail":"primary","kind":"major_road","source":"openstreetmap.org","min_zoom":8.0,"bus_shield_text":"\u0421\u043e\u0447\u0438 - \u0421\u0443\u0445\u0443\u043c","shield_text":"147","ref":"\u0410-147"},"arcs":[341]},{"type":"LineString","properties":{"kind":"major_road","name:en":"Lenin Street","sort_rank":380,"kind_detail":"primary","name:de":"Leninstra\u00dfe","source":"openstreetmap.org","min_zoom":8.0,"landuse_kind":"urban_area","id":209887582},"arcs":[342]},{"type":"LineString","properties":{"kind":"major_road","name:en":"Vinogradnaya Street","network":"ru:national","sort_rank":380,"kind_detail":"primary","source":"openstreetmap.org","min_zoom":8.0,"landuse_kind":"urban_area","shield_text":"147","ref":"\u0410-147"},"arcs":[343]},{"type":"LineString","properties":{"kind":"major_road","name:en":"Vinogradnaya Street","network":"ru:national","sort_rank":380,"kind_detail":"primary","bus_network":null,"source":"openstreetmap.org","min_zoom":8.0,"bus_shield_text":"1","shield_text":"147","landuse_kind":"urban_area","id":308738091},"arcs":[344]},{"type":"MultiLineString","properties":{"kind":"major_road","network":"AsianHighway","sort_rank":381,"kind_detail":"trunk","is_bicycle_related":true,"source":"openstreetmap.org","min_zoom":8.0,"landuse_kind":"residential","shield_text":"82"},"arcs":[[345],[346]]},{"type":"LineString","properties":{"kind":"major_road","name:en":"Lenina Street","network":"ru:national","sort_rank":381,"kind_detail":"trunk","bus_network":null,"source":"openstreetmap.org","min_zoom":8.0,"bus_shield_text":"105","shield_text":"147","landuse_kind":"urban_area","ref":"\u0410-147","id":32652712},"arcs":[347]},{"type":"MultiLineString","properties":{"bus_network":null,"name:en":"Donskaya Street","sort_rank":380,"kind_detail":"primary","kind":"major_road","source":"openstreetmap.org","min_zoom":8.0,"bus_shield_text":"1","landuse_kind":"urban_area"},"arcs":[[348],[349]]},{"type":"LineString","properties":{"bus_network":null,"network":"ru:national","sort_rank":381,"landuse_kind":"urban_area","kind":"major_road","source":"openstreetmap.org","min_zoom":8.0,"bus_shield_text":"153","shield_text":"147","kind_detail":"trunk","ref":"\u0410-147"},"arcs":[350]},{"type":"MultiLineString","properties":{"kind":"major_road","name:en":"Tunnel \u2116 6","network":"ru:national","sort_rank":381,"kind_detail":"trunk","source":"openstreetmap.org","min_zoom":8.0,"landuse_kind":"urban_area","shield_text":"147","ref":"\u0410-147","id":46914851},"arcs":[[351],[352]]},{"type":"LineString","properties":{"kind":"ferry","name:en":"Sochi - Batumi","name":"\u0421\u043e\u0447\u0438 - \u0411\u0430\u0442\u0443\u043c\u0438","sort_rank":355,"name:de":"Sotschi - Batumi","source":"openstreetmap.org","min_zoom":8.0,"id":368443128},"arcs":[353]},{"type":"LineString","properties":{"bus_network":null,"network":"ru:national","sort_rank":381,"kind_detail":"trunk","kind":"major_road","source":"openstreetmap.org","min_zoom":8.0,"bus_shield_text":"\u0421\u043e\u0447\u0438 - \u0421\u0443\u0445\u0443\u043c","shield_text":"147","ref":"\u0410-147"},"arcs":[354]},{"type":"LineString","properties":{"kind":"major_road","name:en":"Gorkogo Street","network":"ru:national","sort_rank":380,"kind_detail":"primary","bus_network":null,"source":"openstreetmap.org","min_zoom":8.0,"bus_shield_text":"29","shield_text":"147","landuse_kind":"urban_area","ref":"\u0410-147","id":31010349},"arcs":[355]},{"type":"LineString","properties":{"bus_network":null,"name:en":"Kaspiyskaya Street","network":"ru:national","sort_rank":380,"kind_detail":"primary","kind":"major_road","source":"openstreetmap.org","min_zoom":8.0,"bus_shield_text":"\u0421\u043e\u0447\u0438 - \u0421\u0443\u0445\u0443\u043c","shield_text":"147","ref":"\u0410-147"},"arcs":[356]},{"type":"LineString","properties":{"bus_network":null,"name:en":"Vinogradnaya Street","network":"ru:national","sort_rank":380,"kind_detail":"primary","kind":"major_road","source":"openstreetmap.org","min_zoom":8.0,"bus_shield_text":"5","shield_text":"147","landuse_kind":"urban_area","ref":"\u0410-147"},"arcs":[357]},{"type":"LineString","properties":{"kind":"ferry","name:en":"Sochi - Gagra","name":"\u0421\u043e\u0447\u0438 - \u0413\u0430\u0433\u0440\u0430","name:ka":"\u10e1\u10dd\u10ed\u10d8 - \u10d2\u10d0\u10d2\u10e0\u10d0","sort_rank":355,"name:de":"Sotschi - Gagra","source":"openstreetmap.org","min_zoom":8.0,"name:ab":"\u0428\u04d9\u0430\u0447\u0430 - \u0413\u0430\u0433\u0440\u0430","id":115972431},"arcs":[358]},{"type":"MultiLineString","properties":{"bus_network":null,"name:en":"Kurortny Prospekt","network":"ru:national","sort_rank":380,"kind_detail":"primary","kind":"major_road","source":"openstreetmap.org","min_zoom":8.0,"bus_shield_text":"\u0421\u043e\u0447\u0438 - \u0421\u0443\u0445\u0443\u043c","shield_text":"147","landuse_kind":"urban_area","ref":"\u0410-147"},"arcs":[[359],[360],[361],[362],[363]]},{"type":"MultiLineString","properties":{"kind":"major_road","network":"ru:national","sort_rank":381,"kind_detail":"trunk","source":"openstreetmap.org","min_zoom":8.0,"landuse_kind":"nature_reserve","shield_text":"148","ref":"\u0410-148"},"arcs":[[364],[365]]},{"type":"MultiLineString","properties":{"bus_network":null,"network":"ru:national","sort_rank":380,"kind_detail":"primary","kind":"major_road","source":"openstreetmap.org","min_zoom":8.0,"bus_shield_text":"105","shield_text":"147","ref":"\u0410-147"},"arcs":[[366],[367]]},{"type":"LineString","properties":{"kind":"major_road","name:en":"Sochi Bypass","network":"ru:national","sort_rank":381,"kind_detail":"trunk","source":"openstreetmap.org","min_zoom":8.0,"landuse_kind":"nature_reserve","shield_text":"147","ref":"\u0410-147","id":46915715},"arcs":[368]},{"type":"LineString","properties":{"kind":"ferry","name:en":"Hopa - Sochi","name":"Hopa - Soci \/ \u0425\u043e\u043f\u0430 - \u0421\u043e\u0447\u0438","name:tr":"Hopa - Soci","name:de":"Hopa - Sotschi","source":"openstreetmap.org","min_zoom":8.0,"name:ru":"\u0425\u043e\u043f\u0430 - \u0421\u043e\u0447\u0438","id":368443111,"sort_rank":355},"arcs":[369]},{"type":"LineString","properties":{"source":"openstreetmap.org","kind":"ferry","name":"\u0421\u043e\u0447\u0438 - \u0411\u0430\u0442\u0443\u043c\u0438","sort_rank":355,"min_zoom":8.0,"id":115972429},"arcs":[370]},{"type":"LineString","properties":{"source":"openstreetmap.org","kind":"ferry","sort_rank":355,"ref":"\u0421\u043e\u0447\u0438 - \u0422\u0440\u0430\u0431\u0437\u043e\u043d","min_zoom":8.0,"osm_relation":true},"arcs":[371]}]},"earth":{"type":"GeometryCollection","geometries":[{"type":"Polygon","properties":{"sort_rank":10,"source":"naturalearthdata.com","kind":"earth","min_zoom":0.0,"id":4743},"arcs":[[372]]}]},"landuse":{"type":"GeometryCollection","geometries":[{"type":"MultiPolygon","properties":{"source":"openstreetmap.org","kind":"residential","tier":2,"area":44365139,"sort_rank":20,"min_zoom":8.0,"osm_relation":true},"arcs":[[[373]]]},{"type":"Polygon","properties":{"kind":"residential","name:en":"Psebai","name":"\u041f\u0441\u0435\u0431\u0430\u0439","area":25823200,"sort_rank":20,"source":"openstreetmap.org","min_zoom":8.0,"old_name":"\u0441\u0442\u0430\u043d\u0438\u0446\u0430 \u041f\u0441\u0435\u0431\u0430\u0439\u0441\u043a\u0430\u044f","tier":2,"id":-4065273,"osm_relation":true},"arcs":[[374]]},{"type":"MultiPolygon","properties":{"kind":"nature_reserve","protect_class":"2","area":3697306392,"sort_rank":23,"source":"openstreetmap.org","min_zoom":4.0,"tier":2,"osm_relation":true},"arcs":[[[375]],[[376]]]},{"type":"Polygon","properties":{"kind":"park","area":74579600,"sort_rank":24,"source":"openstreetmap.org","min_zoom":8.0,"tier":2,"id":-5497982,"osm_relation":true},"arcs":[[377]]},{"type":"Polygon","properties":{"source":"openstreetmap.org","kind":"park","area":319696000,"tier":2,"id":88405258,"min_zoom":6.0,"sort_rank":24},"arcs":[[378]]},{"type":"MultiPolygon","properties":{"source":"naturalearthdata.com","kind":"urban_area","name":"","area":2399592587,"sort_rank":11,"min_zoom":4.0},"arcs":[[[379]],[[380]]]},{"type":"MultiPolygon","properties":{"source":"openstreetmap.org","kind":"park","tier":2,"area":541371004,"sort_rank":24,"min_zoom":6.0,"osm_relation":true},"arcs":[[[381]]]},{"type":"Polygon","properties":{"kind":"residential","name:en":"Mgudzyrhua","name":"\u041c\u0433\u04d9\u044b\u04e1\u044b\u0440\u0445\u04d9\u0430 - \u041c\u0433\u0443\u0434\u0437\u044b\u0440\u0445\u0443\u0430","name:ka":"\u10db\u10d2\u10e3\u10eb\u10d8\u10e0\u10f0\u10d0\u10d0","area":21865400,"sort_rank":20,"source":"openstreetmap.org","min_zoom":8.0,"tier":2,"name:ru":"\u041c\u0433\u0443\u0434\u0437\u044b\u0440\u0445\u0443\u0430","name:ab":"\u041c\u0433\u04d9\u044b\u0301\u04e1\u044b\u0440\u0445\u04d9\u0430","id":-2642010,"osm_relation":true},"arcs":[[382]]},{"type":"Polygon","properties":{"kind":"park","protect_class":"7","area":711803008,"sort_rank":24,"source":"openstreetmap.org","min_zoom":6.0,"tier":2,"id":-5497983,"osm_relation":true},"arcs":[[383]]},{"type":"MultiPolygon","properties":{"source":"openstreetmap.org","kind":"park","tier":2,"area":7998626682,"sort_rank":24,"min_zoom":4.0,"osm_relation":true},"arcs":[[[384]]]}]}},"type":"Topology","transform":{"translate":[39.375,43.0688877742],"scale":[0.0003433228,0.0002487054]},"arcs":[[[4096,1754],[-60,30],[-62,57],[-131,32],[-6,53],[-49,12],[-40,49],[-80,-52],[-74,-11],[-40,-63],[-89,-51],[-172,23],[-81,98],[-43,-10],[-87,44],[-131,-13],[-173,48],[-43,49],[-58,-28],[-100,59],[-52,1],[-82,-47],[-164,-1],[-78,-38],[-78,13],[-39,-55],[14,-100],[-93,-98],[-55,-122],[-7,-86],[-93,-118],[16,-31],[-38,-155]],[[1828,1243],[-344,-618],[375,-215],[55,-224],[107,-186]],[[4096,1758],[-198,106]],[[3898,1864],[-61,14],[0,48],[-49,12],[-40,49],[-80,-52],[-74,-11],[-40,-63],[-84,-51],[-76,1],[-101,22],[-76,96],[-48,-8],[-87,44],[-131,-13],[-173,48],[-43,49],[-58,-28],[-100,59],[-52,1],[-82,-47],[-164,-1],[-78,-38],[-63,18],[-53,-56],[12,-105],[-92,-97],[-55,-122],[-7,-86],[-93,-118],[16,-31],[-38,-155]],[[1828,1243],[-344,-618]],[[1484,625],[375,-215],[55,-224],[107,-186]],[[1871,4096],[-86,-46],[-54,46]],[[1311,4096],[17,-35],[-99,-247],[0,-81],[65,-55],[-121,-88],[87,-113],[128,-38],[178,62],[-29,57],[18,81],[41,-6],[15,-45],[41,-20],[33,-92],[144,-139],[28,-57],[90,-16],[72,-52],[57,-87],[33,14],[16,70],[135,-37],[51,56],[63,3],[21,-46],[-25,-61],[57,-109],[-8,-69],[33,-90],[95,-69],[78,-5],[87,85],[174,-35],[47,116],[-5,72],[39,31],[31,149],[46,63],[-50,58],[20,177],[104,31],[28,45],[63,5],[11,22],[-148,293],[-1,61],[-47,43],[27,98]],[[4096,3254],[-45,-24],[-30,-171],[-95,-140],[56,-49],[45,-132],[-74,-45],[-62,-10],[-30,20],[-74,-102],[37,-12],[15,-69],[57,-41],[12,-27],[-51,-102],[126,-193],[-9,-63],[-39,-24],[8,-99],[-45,-107]],[[0,1978],[141,-168],[139,-100],[169,-263],[327,-241],[116,-228],[132,-155],[214,-137],[246,-61]],[[0,3241],[255,-340]],[[261,2893],[349,-344],[69,-138],[341,-223],[8,-106],[53,-47],[3,-36],[231,-145],[68,-68],[46,-10],[58,-73],[54,-180]],[[0,3241],[255,-340]],[[261,2893],[11,-18]],[[289,2861],[321,-312],[92,-151]],[[711,2392],[307,-202],[10,-109],[121,-140],[277,-163],[61,-75],[36,-135],[21,-50]],[[1539,1530],[-16,38],[-33,127],[-3,9],[-4,8]],[[0,3241],[81,-83],[186,-279],[343,-330],[68,-137],[119,-64]],[[797,2348],[2,-1]],[[799,2347],[10,-7]],[[809,2340],[2,-2]],[[811,2338],[206,-147],[18,-51]],[[1035,2140],[1,-5]],[[1036,2135],[-8,-53],[53,-47],[3,-36],[355,-237]],[[1539,1530],[-56,182]],[[945,4096],[8,-72]],[[1541,1523],[116,-117],[60,-5],[111,-90],[175,-37],[284,-179],[224,-74],[39,-39],[152,-328],[238,-20],[176,-57],[51,33],[131,-61],[79,-87],[17,-96],[57,-111],[87,-91],[385,-96],[173,-8]],[[0,3241],[81,-83],[186,-279],[343,-330],[68,-137],[340,-222],[10,-109],[121,-140],[282,-168],[56,-70],[36,-135],[18,-45]],[[1539,1530],[-16,38],[-33,127],[-3,9],[-4,8]],[[0,3176],[48,-54],[192,-299],[340,-330],[130,-178],[45,-38],[119,-50],[46,-36],[21,-38],[24,-88],[17,-38],[18,-21],[47,-29],[64,-61],[264,-142],[61,-58],[42,-76],[39,-113],[42,-89],[67,-80],[85,-56],[67,-15],[2,0],[69,-15],[90,-38],[135,-22],[42,-21],[93,-94],[160,-49],[90,-42],[47,-59],[64,-109],[45,-118],[-13,-127],[29,-44],[66,-67],[27,-52],[43,-109],[30,-32],[75,99],[109,-12],[233,-114],[93,-16],[29,-11],[25,-20],[50,-54],[13,-11],[30,-13],[56,-57],[34,-13],[36,4],[94,24],[135,7],[287,-40],[0,-62],[-4096,0],[0,3176]],[[0,3176],[48,-54],[192,-299],[340,-330],[130,-178],[45,-38],[119,-50],[46,-36],[21,-38],[24,-88],[17,-38],[18,-21],[47,-29],[64,-61],[264,-142],[61,-58],[42,-76],[39,-113],[42,-89],[67,-80],[85,-56],[67,-15],[2,0],[69,-15],[90,-38],[135,-22],[42,-21],[93,-94],[160,-49],[90,-42],[47,-59],[64,-109],[45,-118],[-13,-127],[29,-44],[66,-67],[27,-52],[43,-109],[30,-32],[75,99],[109,-12],[233,-114],[93,-16],[29,-11],[25,-20],[50,-54],[13,-11],[30,-13],[56,-57],[34,-13],[36,4],[94,24],[135,7],[287,-40]],[[980,2033],[-1,20]],[[1183,2028],[-11,6]],[[1008,2004],[6,-11]],[[1002,2192],[-3,31]],[[2574,856],[13,-6]],[[1026,1988],[-9,7]],[[1577,1416],[-45,10],[-159,299],[-258,196]],[[1632,1458],[-20,-22]],[[1639,1467],[4,6]],[[549,0],[-549,507]],[[804,2373],[16,4]],[[1819,1335]],[[965,2010],[21,13]],[[1850,1310]],[[1027,2046],[-12,13]],[[1025,2099],[4,11]],[[93,3159],[12,-7]],[[130,3088],[1,-13]],[[1013,2065],[-13,12]],[[1823,1325],[7,-14],[17,-4],[4,-1]],[[1851,1306],[1,0]],[[1851,1306]],[[1851,1306],[-4,1],[-5,1],[-12,3],[-7,14]],[[979,2053],[30,-49]],[[994,2247],[2,-11]],[[947,2295],[0,-2]],[[948,2295],[-1,0]],[[979,2053],[51,-68]],[[740,2411],[19,-15]],[[2539,994],[8,3]],[[1004,2234],[36,-64]],[[30,3281],[30,0]],[[986,2023],[-7,30],[62,-78]],[[925,2321],[6,-7]],[[2574,856],[-981,471],[-121,110],[-456,557]],[[2841,347],[72,28]],[[2913,375],[32,14],[5,6],[-22,-6],[-15,-14]],[[2913,375],[-94,-77],[-47,26],[10,17],[38,-41],[21,47]],[[1160,1950],[-17,12]],[[1169,1945],[-4,3]],[[1239,1896],[-68,48]],[[1015,2059],[-1,1]],[[1014,2060],[-1,5]],[[2581,935],[1,-3]],[[2598,900],[2,-3]],[[2635,848],[44,-89]],[[2679,749],[0,-9]],[[1030,1985],[417,-558],[875,-1051],[181,-146],[476,-230]],[[218,2962],[94,-54],[-2,-40]],[[1500,1691],[21,-59]],[[1035,2094],[17,-18]],[[1052,2077],[-16,17]],[[929,2321],[0,-1]],[[1851,1306],[12,-2]],[[1863,1304],[143,-29]],[[2008,1275],[41,-8]],[[2050,1267],[17,-5]],[[2073,1260],[7,-8]],[[2081,1251],[20,-13]],[[2101,1236],[65,-67]],[[2168,1169],[151,-84]],[[2322,1084],[56,-15]],[[2384,1068],[53,-19]],[[3963,76],[-140,21]],[[1846,1311],[2,0]],[[1610,1475],[33,-2]],[[1639,1467],[-7,-9]],[[1059,1961],[-80,92]],[[1112,1916],[-5,3]],[[947,2293],[1,0]],[[1008,2068],[0,-1]],[[717,2424],[23,-13]],[[1009,2004],[1178,-2004]],[[996,2236],[0,2]],[[1024,1991],[-45,62]],[[1264,1880],[-55,104]],[[946,2294]],[[946,2294],[-4,0]],[[943,2300],[3,-6]],[[946,2294]],[[947,2295]],[[949,2296],[-1,0]],[[949,2296],[-1,0]],[[948,2295],[1,1]],[[996,2238],[-6,20]],[[996,2233],[1,8]],[[998,2111],[0,1]],[[998,2112],[0,-1]],[[953,2289],[3,-13]],[[963,2273],[31,-26]],[[1041,2169],[1,0]],[[1046,2165],[4,-1]],[[1050,2164],[2,-1]],[[1052,2163],[1,0],[4,-1]],[[1609,1434],[0,-1]],[[1611,1433],[-1,1]],[[1610,1433],[1,0]],[[1611,1433],[0,1]],[[1050,2165],[0,-1]],[[1050,2164],[1,-2],[1,1]],[[1052,2163],[0,1],[-2,1]],[[956,2293],[19,-50]],[[976,2244],[-20,50]],[[1848,1311],[2,-1]],[[967,1997],[-967,706]],[[1824,1339],[2,0]],[[1825,1339],[1,1]],[[1172,2032],[0,1]],[[1010,0],[-18,1986]],[[1609,1433],[2,-1]],[[931,2314],[12,-14]],[[1000,2077],[14,-17]],[[979,2053],[9,-32]],[[1014,1993],[433,-566],[875,-1051],[181,-146],[476,-230]],[[1850,1310],[13,-6]],[[1107,1919],[-48,42]],[[1577,1416],[-45,10],[-159,299],[-261,191]],[[1844,1312],[2,-1]],[[922,2330],[21,-15]],[[944,2292],[4,3]],[[947,2295]],[[1593,1485],[-17,10]],[[1624,1459],[12,-16]],[[69,3267],[9,-24]],[[91,3168],[2,-9]],[[105,3152],[31,-58]],[[136,3092],[-6,-4]],[[131,3075],[44,-28]],[[184,3045],[7,-29]],[[193,3010],[16,0]],[[216,2978],[2,-16]],[[310,2868],[3,-12]],[[362,2808],[1,-1]],[[400,2774],[3,2]],[[433,2752],[54,-57]],[[662,2453],[44,-20],[-7,-27],[18,18]],[[1184,2005],[5,-10]],[[1201,1972],[64,-93]],[[1645,1432],[10,-20],[26,-8]],[[1681,1404],[65,-21],[68,-54],[5,2],[-73,53],[-65,20]],[[1681,1404],[-26,8]],[[1655,1412],[-10,20]],[[1819,1335],[4,-10]],[[1823,1325],[-3,11]],[[956,2294],[-10,0]],[[946,2294],[10,-1]],[[975,2243],[2,-3]],[[978,2240],[-2,4]],[[992,2213],[3,-6]],[[995,2208],[-2,5]],[[1009,2192],[15,-18]],[[1036,2094],[3,26],[-1,4],[-13,50],[-13,18],[-3,2]],[[1033,2138],[6,-18]],[[1034,2097],[1,-3]],[[1052,2076],[12,-6]],[[1069,2070],[-17,7]],[[1092,2066],[12,-6]],[[1105,2061],[-12,6]],[[1124,2047],[10,-9],[37,-5]],[[1172,2034],[-9,5],[-29,-1],[-10,10]],[[995,2207],[14,-15]],[[1009,2194],[-14,14]],[[2587,850],[-13,6]],[[577,2587],[85,-134]],[[977,2240],[15,-27]],[[993,2213],[-15,27]],[[1826,1339],[11,-24]],[[1009,2068],[-1,-1]],[[1620,1428],[13,-5]],[[1839,1313],[5,-1]],[[1037,2123]],[[1165,1948],[-5,2]],[[1171,1944],[-2,1]],[[1017,1995],[-1,2]],[[948,2296],[28,21]],[[1084,2268],[-19,13]],[[1124,2257],[-37,9]],[[1126,2108],[5,-28]],[[1162,2056],[10,-26]],[[487,2695],[79,-49]],[[2067,1262],[6,-2]],[[2679,740],[69,-89],[187,0]],[[3190,608],[-64,24]],[[3285,559],[-71,35]],[[3360,492],[-74,67]],[[3453,267],[-16,31]],[[3673,141],[-82,22]],[[3711,129],[-21,3]],[[3819,98],[-107,31]],[[1228,1945],[-9,-37]],[[979,2053],[6,-29]],[[1154,2062],[7,-6]],[[1611,1432],[9,-4]],[[1069,2068],[23,-2]],[[1819,1335],[1,1]],[[1189,2019],[-6,5]],[[1611,1432]],[[820,2377],[89,5],[13,-52]],[[60,3281],[9,-14]],[[78,3243],[13,-75]],[[136,3094],[0,-2]],[[175,3047],[9,-2]],[[191,3016],[2,-6]],[[209,3010],[7,-32]],[[1174,2025],[-2,7]],[[1176,2020],[8,-15]],[[1189,1995],[12,-23]],[[994,2247],[10,-13]],[[2437,1049],[31,-14]],[[2469,1035],[59,-33]],[[988,2021],[-16,-26],[-972,708]],[[1005,2007],[8,-15]],[[1499,1697],[-109,114],[-126,69]],[[0,3282],[30,-1]],[[313,2856],[49,-48]],[[363,2807],[37,-33]],[[403,2776],[30,-24]],[[1090,1996]],[[996,2309],[38,-15]],[[992,2086],[6,22]],[[986,2023],[-19,-26]],[[1259,1883],[-20,13]],[[1259,1882],[6,-3]],[[1641,1421],[5,5]],[[549,0],[-549,507]],[[1013,2068],[12,31]],[[1549,1514],[5,-5],[40,-26]],[[1576,1495],[-26,19]],[[1047,2160],[-13,-26]],[[940,2294],[4,-2]],[[948,2295],[0,1]],[[976,2317],[1,0]],[[1065,2281],[-1,1]],[[1087,2266],[-3,2]],[[1117,2154],[25,90]],[[1117,2154],[2,-17]],[[1119,2137],[7,-29]],[[1130,2257],[-6,0]],[[1131,2080],[23,-18]],[[1161,2056],[9,-18]],[[1172,2032],[-2,6]],[[1172,2033],[-2,5]],[[1645,1432],[-23,31],[-29,22]],[[1594,1483],[30,-24]],[[1636,1443],[9,-11]],[[1013,2065],[0,3]],[[760,2395],[27,-37],[17,15]],[[985,2024],[7,-38]],[[1009,1990],[1178,-1990]],[[1521,1632],[28,-118]],[[1550,1514],[-18,82]],[[2547,997],[34,-62]],[[2679,759],[0,-10]],[[1633,1423],[7,-3]],[[2482,0],[-720,949],[-738,1042]],[[0,3074],[965,-1064],[21,13]],[[1041,1975],[431,-538],[121,-110],[981,-471]],[[1528,1617],[-6,15]],[[759,2396],[1,-1]],[[1522,1632],[-23,65]],[[1037,2123],[-2,12]],[[979,2053],[7,-30]],[[1655,1412]],[[1004,2235],[-14,23]],[[2006,1275],[2,0]],[[2049,1267],[1,0]],[[2080,1252],[1,-1]],[[2101,1238],[0,-2]],[[2166,1169],[2,0]],[[2319,1085],[3,-1]],[[2378,1069],[6,-1]],[[2528,1002],[2,-2]],[[3126,632],[-34,-30],[-157,49]],[[3214,594],[-24,14]],[[3286,559],[-1,0]],[[3437,298],[-77,194]],[[3591,163],[-87,37],[-51,67]],[[3690,132],[-17,9]],[[3712,129],[-1,0]],[[3823,97],[-4,1]],[[4096,62],[-133,14]],[[1104,2060],[20,-13]],[[1124,2048],[-19,13]],[[1130,1970],[-1,1]],[[979,2053],[20,-41]],[[986,2023],[-7,30]],[[2530,1000],[9,-6]],[[1029,2110],[7,11]],[[1034,2134],[2,-13]],[[1036,2121],[1,2]],[[979,2053],[29,-49]],[[1820,1336],[6,5]],[[1130,2257],[12,-13]],[[1000,2077],[-8,9]],[[2468,1035],[1,0]],[[998,2111],[0,1]],[[1611,1432],[-2,2]],[[566,2646],[11,-59]],[[1024,2174],[9,-36]],[[1039,2120],[-5,-23]],[[1064,2070],[5,-2]],[[1093,2067],[-24,3]],[[1837,1315],[2,-2]],[[979,2053],[26,-46]],[[0,3074],[965,-1064]],[[1115,1921],[-89,67]],[[1016,1997],[-37,56]],[[998,2108],[0,1]],[[1039,2034],[-12,12]],[[1011,2001],[-32,52]],[[1762,1377],[64,-38]],[[1611,1432],[-1,1]],[[999,2223],[-3,13]],[[956,2276],[7,-3]],[[2582,932],[16,-32]],[[2600,897],[35,-49]],[[1532,1596],[-4,21]],[[1049,2165],[-45,70]],[[1040,2170],[6,-5]],[[947,2295],[-4,20]],[[977,2317],[19,-8]],[[1034,2294],[30,-12]],[[2482,0],[-434,588]],[[1265,1879],[124,-69],[111,-119]],[[1013,2068],[-2,-1]],[[1640,1420],[122,-43]],[[998,2112],[4,80]],[[1016,1994],[-5,7]],[[1011,2063],[2,1]],[[1090,1996],[-51,38]],[[1108,1994],[-10,6],[-8,-4],[8,3],[10,-5]],[[1129,1971],[-21,23]],[[1143,1962],[-13,8]],[[1183,2024],[-11,8]],[[1209,1984],[-20,35]],[[1239,1896],[20,-14]],[[1264,1880],[-5,3]],[[1172,2030],[4,-10]],[[999,2012],[10,-22]],[[1013,1992],[749,-1043],[286,-361]],[[1010,0],[-30,2033]],[[4096,62],[-287,40],[-135,-7],[-94,-24],[-36,-4],[-34,13],[-56,57],[-30,13],[-13,11],[-50,54],[-25,20],[-29,11],[-93,16],[-233,114],[-109,12],[-75,-99],[-30,32],[-43,109],[-27,52],[-66,67],[-29,44],[13,127],[-45,118],[-64,109],[-47,59],[-90,42],[-160,49],[-93,94],[-42,21],[-135,22],[-90,38],[-69,15],[-2,0],[-67,15],[-85,56],[-67,80],[-42,89],[-39,113],[-42,76],[-61,58],[-264,142],[-64,61],[-47,29],[-18,21],[-17,38],[-24,88],[-21,38],[-46,36],[-119,50],[-45,38],[-130,178],[-340,330],[-192,299],[-48,54],[0,920],[4096,0],[0,-4034]],[[2529,999],[20,11],[-5,-25],[47,-66],[11,15],[-4,-37],[28,-1],[27,-138],[-51,9],[-73,232]],[[4061,4096],[-2,-2],[0,2],[2,0]],[[620,2558],[46,40],[23,119],[42,65],[67,43],[-67,74],[45,13],[144,-44],[42,11],[21,59],[156,-103],[80,52],[66,-27],[98,51],[157,-73],[-54,-112],[8,-63],[55,-14],[63,20],[59,-85],[62,-34],[22,75],[75,100],[34,10],[1,-67],[104,-104],[80,163],[118,33],[20,-59],[-69,22],[0,-80],[-79,-85],[-3,-93],[90,27],[99,-75],[116,-9],[50,46],[-76,155],[21,34],[192,-62],[82,-93],[7,91],[174,70],[59,-34],[46,5],[-30,-25],[34,-20],[-20,-49],[50,-20],[10,-123],[113,-62],[90,90],[39,-69],[62,-4],[99,-86],[88,-23],[4,-22],[134,-75],[14,-46],[54,12],[47,-33],[-50,-45],[-165,2],[-283,185],[-86,-245],[-37,-14],[-238,36],[-90,65],[-43,-33],[-117,64],[-50,1],[-82,-47],[-164,-1],[-78,-38],[-63,18],[-53,-56],[13,-104],[-94,-101],[-54,-119],[-6,-85],[-46,-71],[-91,110],[5,32],[45,-11],[-19,42],[-60,-48],[12,-38],[-41,3],[51,153],[-69,-90],[20,67],[-24,8],[-44,-90],[20,-39],[-109,-47],[32,95],[-61,-21],[-5,23],[-28,-4],[-17,78],[36,16],[-35,15],[-11,75],[-18,-43],[1,102],[-22,2],[16,18],[-20,46],[-58,-26],[-68,29],[-62,-7],[26,40],[-40,18],[40,57],[-21,32],[44,-17],[24,38],[-24,39],[-45,-9],[4,47],[90,0],[-84,25],[52,83],[50,12],[-7,42],[-14,-41],[-72,-10],[-62,-260],[-54,-82],[-13,43],[30,15],[-25,10],[-2,107],[-31,16],[-13,74],[91,-6],[-1,77],[-64,14],[-11,-19],[-28,24],[20,81],[20,-5],[-28,92],[55,71],[-56,28],[-34,-52],[10,-51],[-40,57],[-1,-21],[-3,-21],[35,-26],[14,-74],[-7,-40],[-10,22],[-68,-15],[13,-49],[31,-15],[-14,-27],[-2,23],[-65,-9],[18,67],[-27,6],[1,23],[-21,-50],[-23,18],[12,79],[50,68],[60,-5],[-15,32],[-73,-41],[-24,11],[-16,-26],[20,-17],[-54,-41],[-40,6],[0,36],[-22,-48],[-11,61],[59,132],[-22,30],[-35,-48],[9,-46],[-34,-114],[-41,14],[12,54],[-29,0],[-26,-37],[-27,24],[0,26],[32,-17],[-18,36],[19,15],[-57,-24],[-41,69]],[[20,4096],[299,0],[69,-66],[65,-12],[99,-72],[-11,-45],[51,-16],[24,-42],[186,-68],[114,-79],[-38,-92],[69,-59],[-46,-48],[72,-96],[18,-72],[-151,-93],[-110,-259],[-50,33],[-21,-20],[-41,13],[-22,63],[-159,40],[-66,-15],[-122,-148],[-39,41],[-2,41],[-16,-15],[-4,34],[-25,6],[59,69],[-87,-41],[3,46],[-24,-6],[-9,23],[55,63],[-30,11],[-27,-54],[-15,8],[-19,57],[28,53],[-22,-14],[-58,21],[26,65],[-43,-43],[0,170],[51,33],[-9,24],[109,27],[1,62],[65,-3],[-87,33],[23,-22],[-20,-27],[-53,-39],[-30,10],[23,-22],[-73,-45],[0,467],[20,120]],[[2863,3960],[55,0],[5,101],[28,11],[-6,24],[28,0],[9,-32],[36,15],[-12,-101],[122,-163],[66,-186],[-33,59],[-239,146],[10,29],[-69,97]],[[3105,1397],[76,61],[18,71],[46,46],[-19,158],[43,-2],[27,63],[194,-60],[72,33],[64,-21],[25,50],[-49,-24],[-71,67],[35,-1],[17,63],[70,-29],[62,40],[11,-20],[-29,-42],[38,-39],[185,18],[103,-57],[-46,0],[26,-28],[-164,18],[-24,-43],[31,-23],[-1,-46],[-43,11],[-168,-63],[-75,7],[58,-129],[-108,-29],[-2,-58],[-63,-19],[-29,-37],[-213,5],[-35,42],[-37,-9],[-25,26]],[[1796,1536],[5,-72],[-87,19],[-119,-88],[-118,248],[287,-68],[32,-39]],[[890,2327],[44,-14],[219,43],[48,-311],[-90,-129],[-129,111],[-62,164],[-190,107],[35,118],[125,-89]],[[730,2977],[110,259],[153,104],[120,-110],[54,-13],[-28,-104],[22,-11],[20,27],[57,-29],[-16,-79],[44,-15],[-90,-55],[-96,24],[-67,55],[-138,-67],[-106,-11],[-39,25]],[[3226,408],[14,23],[24,-12],[43,-105],[-2,96],[-49,56],[57,-5],[-16,50],[-39,22],[32,19],[50,-67],[-17,-16],[24,5],[31,-48],[-32,-57],[8,-88],[-60,24],[-20,77],[-48,26]],[[3071,3916],[46,180],[475,0],[-56,-96],[354,-16],[144,-53],[-121,-103],[-30,-99],[10,-81],[-82,-174],[-190,15],[-29,34],[-45,1],[-111,-32],[-60,-45],[-69,-6],[3,97],[-104,38],[-21,110],[-114,230]],[[4096,1826],[0,-75],[-11,4],[-119,90],[-123,28],[-6,53],[-49,12],[-40,49],[-80,-52],[-74,-11],[-40,-63],[-84,-51],[-177,23],[-76,96],[-95,8],[-22,25],[86,245],[283,-185],[165,-2],[50,50],[-37,2],[-10,26],[-54,-12],[-14,46],[-134,75],[-4,22],[-88,23],[-99,86],[-62,4],[-39,69],[-90,-90],[-113,62],[-10,123],[-50,20],[20,49],[-34,20],[30,25],[-46,-5],[-59,34],[-174,-70],[-7,-91],[-82,93],[-253,73],[-115,108],[-111,-35],[-80,-163],[-104,104],[-1,67],[-70,-50],[-61,-135],[-62,34],[-59,85],[-113,-11],[-13,68],[54,112],[-157,73],[-17,52],[-37,26],[-107,32],[16,79],[-57,29],[-20,-27],[-22,11],[30,102],[-56,15],[-129,118],[-83,149],[25,38],[54,9],[123,-74],[138,38],[20,-32],[127,-37],[108,51],[-62,32],[37,131],[-30,9],[-7,63],[-34,26],[16,42],[-18,110],[-28,5],[-60,188],[29,0],[11,-9],[14,9],[68,0],[23,-16],[12,16],[104,0],[5,-16],[-21,1],[-5,-32],[34,-5],[-15,-14],[29,-24],[-35,-70],[30,-70],[-13,75],[21,29],[16,-27],[27,38],[-16,115],[14,0],[30,-17],[14,17],[42,0],[51,-43],[61,20],[78,-147],[-33,-82],[-1,-7],[14,-3],[8,-8],[-89,-33],[-39,17],[1,-24],[-60,-31],[78,-73],[2,-40],[-25,-9],[17,-16],[-21,-10],[-30,28],[-2,-34],[-40,-3],[-24,32],[18,-60],[123,-96],[90,49],[128,124],[65,-17],[57,60],[59,22],[-3,37],[111,161],[1,67],[69,-76],[74,29],[51,-17],[74,102],[63,-69],[113,8],[85,-97],[51,1],[57,-59],[201,-111],[39,-80],[79,-20],[28,-45],[-6,-102],[75,6],[60,45],[111,32],[214,-55],[55,20],[18,-69],[78,-63],[7,-75],[-44,-73],[-63,-43],[-41,-85],[16,-84],[30,-52],[96,-22],[69,-53],[45,-132],[-131,-54],[7,-20],[151,-75],[-41,-53],[83,-59],[0,-494],[-11,-33],[-2,-117],[13,-7]]]}