{"objects":{"water":{"type":"GeometryCollection","geometries":[{"type":"Polygon","properties":{"source":"naturalearthdata.com","kind":"ocean","area":1576712559132672,"sort_rank":200,"min_zoom":0.0,"id":1},"arcs":[[2]]}]},"buildings":{"type":"GeometryCollection","geometries":[]},"places":{"type":"GeometryCollection","geometries":[]},"transit":{"type":"GeometryCollection","geometries":[]},"pois":{"type":"GeometryCollection","geometries":[]},"boundaries":{"type":"GeometryCollection","geometries":[{"type":"LineString","properties":{"name:cy":"Georgia","name:ko":"\uc870\uc9c0\uc544 (\uad6d\uac00)","name:cv":"\u0413\u0440\u0443\u0437\u0438","name:cu":"\u0413\u0454\u0461\u0440\u0433\u0457\ua657","name:cs":"Gruzie","name:tt":"\u0413\u04e9\u0440\u0497\u0438\u0441\u0442\u0430\u043d","name:kw":"Pow Grouzi","name:kv":"\u0413\u0440\u0443\u0437\u0438\u044f","name:ku":"Gurcistan","name:tl":"Heorhiya","name:ce":"\u0413\u0443\u044c\u0440\u0436\u0438\u0439-\u041c\u043e\u0445\u043a","name:ta":"\u0b9a\u0bbf\u0baf\u0bbe\u0bb0\u0bcd\u0b9a\u0bbf\u0baf\u0bbe (\u0ba8\u0bbe\u0b9f\u0bc1)","name:tg":"\u0413\u0443\u0440\u04b7\u0438\u0441\u0442\u043e\u043d","name:ca":"Ge\u00f2rgia","name:te":"\u0c1c\u0c3e\u0c30\u0c4d\u0c1c\u0c3f\u0c2f\u0c3e (\u0c26\u0c47\u0c36\u0c02)","name:qu":"Kartulsuyu","name:da":"Georgien","name:de":"Georgien","name:dz":"\u0f47\u0f7d\u0f0b\u0f47\u0f71","source":"openstreetmap.org","name:kn":"\u0c9c\u0cbe\u0cb0\u0ccd\u0c9c\u0cbf\u0caf","name:dv":"\u0796\u07af\u0796\u07a8\u0794\u07a7 (\u07a4\u07a6\u0787\u07aa\u0789\u07aa)","name:lv":"Gruzija","name:lt":"Gruzija","name:uz":"Gurjiston","name:kk":"\u0413\u0440\u0443\u0437\u0438\u044f","name:ur":"\u062c\u0627\u0631\u062c\u06cc\u0627","name:lb":"Georgien","name:la":"Georgia","name:uk":"\u0413\u0440\u0443\u0437\u0456\u044f","name:ug":"\u06af\u0631\u06c7\u0632\u0649\u064a\u06d5","name:li":"Georgi\u00eb","name:el":"\u0393\u03b5\u03c9\u03c1\u03b3\u03af\u03b1","name:eo":"Kartvelujo","name:en":"Georgia","name":"\u10e1\u10d0\u10e5\u10d0\u10e0\u10d7\u10d5\u10d4\u10da\u10dd","name:tk":"Gruzi\u00fda","name:ee":"Georgia","name:th":"\u0e1b\u0e23\u0e30\u0e40\u0e17\u0e28\u0e08\u0e2d\u0e23\u0e4c\u0e40\u0e08\u0e35\u0e22","name:eu":"Georgia","name:et":"Gruusia","name:es":"Georgia","name:ia":"Georgia","name:az":"G\u00fcrc\u00fcstan","name:ie":"Georgia","name:id":"Georgia","name:ar":"\u062c\u0648\u0631\u062c\u064a\u0627","name:io":"Gruzia","name:av":"\u0413\u0443\u0440\u0436\u0438","name:is":"Georg\u00eda","name:am":"\u1302\u12ee\u122d\u1302\u12eb","name:it":"Georgia","name:an":"Cheorchia","name:ru":"\u0413\u0440\u0443\u0437\u0438\u044f","name:ab":"\u049a\u044b\u0440\u04ad\u0442\u04d9\u044b\u043b\u0430","name:af":"Georgi\u00eb","kind_detail":"2","name:ky":"\u0413\u0440\u0443\u0437\u0438\u044f","name:zh-yue":"\u683c\u9b6f\u5409\u4e9e","name:zh":"\u683c\u9c81\u5409\u4e9a","name:so":"Joorjiya","name:sl":"Gruzija","name:sk":"Gruz\u00ednsko","name:ja":"\u30b0\u30eb\u30b8\u30a2","name:si":"\u0da2\u0ddd\u0dbb\u0dca\u0da2\u0dd2\u0dba\u0dcf (\u0dbb\u0da7)","name:sh":"Gruzija","name:se":"Georgia","name:sc":"Georgia","name:br":"Jorjia (bro)","name:bs":"Gruzija","name:bn":"\u099c\u09b0\u09cd\u099c\u09bf\u09af\u09bc\u09be (\u09b0\u09be\u09b7\u09cd\u099f\u09cd\u09b0)","name:bo":"\u0f60\u0f47\u0f7c\u0f62\u0f0b\u0f47\u0f72\u0f0b\u0f61\u0f0d (\u0f62\u0f92\u0fb1\u0f63\u0f0b\u0f41\u0f56\u0f0d)","name:sw":"Georgia (nchi)","name:be":"\u0413\u0440\u0443\u0437\u0456\u044f","name:su":"G\u00e9orgia","name:bg":"\u0413\u0440\u0443\u0437\u0438\u044f","name:ss":"IJojiya","name:sr":"\u0413\u0440\u0443\u0437\u0438\u0458\u0430","name:sq":"Gjeorgjia","name:jv":"Georgia","name:pt":"Ge\u00f3rgia","name:ps":"\u06ab\u0631\u062c\u0633\u062a\u0627\u0646","name:oc":"Georgia (Cauc\u00e0s)","min_zoom":8.0,"name:ro":"Georgia","name:zh-min-nan":"Sakartvelo","name:os":"\u0413\u0443\u044b\u0440\u0434\u0437\u044b\u0441\u0442\u043e\u043d","name:or":"\u0b1c\u0b30\u0b4d\u0b1c\u0b3f\u0b06","name:pl":"Gruzja","sort_rank":262,"osm_relation":true,"name:tr":"G\u00fcrcistan","name:hi":"\u091c\u0949\u0930\u094d\u091c\u093f\u092f\u093e","name:sv":"Georgien","name:he":"\u05d2\u05d0\u05d5\u05e8\u05d2\u05d9\u05d4","name:hy":"\u054e\u0580\u0561\u057d\u057f\u0561\u0576","name:ht":"Jeoji","name:hu":"Gr\u00fazia","name:hr":"Gruzija","kind":"country","name:yi":"\u05d2\u05e8\u05d5\u05d6\u05d9\u05e2","name:yo":"Georgia","name:mt":"\u0120eor\u0121ja","alt_name:eo":"Kartvelio","name:ms":"Georgia","name:mr":"\u091c\u0949\u0930\u094d\u091c\u093f\u092f\u093e","name:my":"\u1002\u103b\u1031\u102c\u103a\u1002\u103b\u102e\u101a\u102c\u1014\u102d\u102f\u1004\u103a\u1004\u1036","int_name":"Georgia","name:vi":"Gruzia","name:ml":"\u0d1c\u0d4b\u0d7c\u0d1c\u0d4d\u0d1c\u0d3f\u0d2f","name:mn":"\u0413\u04af\u0440\u0436","name:mi":"H\u014dria","id":-28699,"name:mk":"\u0413\u0440\u0443\u0437\u0438\u0458\u0430","name:vo":"Grusiy\u00e4n","name:fa":"\u06af\u0631\u062c\u0633\u062a\u0627\u0646","name:rw":"Geworugiya","name:fi":"Georgia","name:fo":"Georgia (land)","name:fr":"G\u00e9orgie","name:fy":"Ge\u00f6rgje","name:nl":"Georgi\u00eb","name:nn":"Georgia","name:no":"Georgia","name:na":"Djiordjiya","name:ne":"\u091c\u0930\u094d\u091c\u093f\u092f\u093e (\u0926\u0947\u0936)","name:wo":"Jeoorji","name:nv":"J\u00f3ojah (K\u00e9yah)","name:ga":"An tSeoirsia","name:gd":"A' Chairtbheil","name:gl":"Xeorxia - \u10e1\u10d0\u10e5\u10d0\u10e0\u10d7\u10d5\u10d4\u10da\u10dd","maritime_boundary":true,"name:gv":"Yn \u00c7horshey","name:gu":"\u0a9c\u0acd\u0aaf\u0acb\u0ab0\u0acd\u0a9c\u0ac0\u0aaf\u0abe (\u0aa6\u0ac7\u0ab6)"},"arcs":[0]},{"type":"LineString","properties":{"name:ka":"\u10d0\u10e4\u10ee\u10d0\u10d6\u10d4\u10d7\u10d8\u10e1 \u10d0\u10d5\u10e2\u10dd\u10dc\u10dd\u10db\u10d8\u10e3\u10e0\u10d8 \u10e0\u10d4\u10e1\u10de\u10e3\u10d1\u10da\u10d8\u10d9\u10d0","min_zoom":8.0,"name:uk":"\u0410\u0431\u0445\u0430\u0437\u044c\u043a\u0430 \u0410\u0432\u0442\u043e\u043d\u043e\u043c\u043d\u0430 \u0420\u0435\u0441\u043f\u0443\u0431\u043b\u0456\u043a\u0430","name:ru":"\u0410\u0432\u0442\u043e\u043d\u043e\u043c\u043d\u0430\u044f \u0420\u0435\u0441\u043f\u0443\u0431\u043b\u0438\u043a\u0430 \u0410\u0431\u0445\u0430\u0437\u0438\u044f","name:ab":"\u0410\u04a7\u0441\u043d\u044b \u0410\u0432\u0442\u043e\u043d\u043e\u043c\u0442\u04d9 \u0420\u0435\u0441\u043f\u0443\u0431\u043b\u0438\u043a\u0430","id":-3572912,"name:ca":"Rep\u00fablica Aut\u00f2noma d'Abkh\u00e0zia","kind":"region","name:en":"Autonomous Republic of Abkhazia","name":"\u10d0\u10e4\u10ee\u10d0\u10d6\u10d4\u10d7\u10d8\u10e1 \u10d0\u10d5\u10e2\u10dd\u10dc\u10dd\u10db\u10d8\u10e3\u10e0\u10d8 \u10e0\u10d4\u10e1\u10de\u10e3\u10d1\u10da\u10d8\u10d9\u10d0 - \u0410\u04a7\u0441\u043d\u044b \u0410\u0432\u0442\u043e\u043d\u043e\u043c\u0442\u04d9 \u0420\u0435\u0441\u043f\u0443\u0431\u043b\u0438\u043a\u0430","sort_rank":256,"kind_detail":"4","name:de":"Autonome Republik Abchasien","source":"openstreetmap.org","maritime_boundary":true,"osm_relation":true},"arcs":[1]}]},"roads":{"type":"GeometryCollection","geometries":[{"type":"LineString","properties":{"kind":"ferry","name:en":"Kerch - Batumi","name":"\u041a\u0435\u0440\u0447\u044c - \u0411\u0430\u0442\u0443\u043c\u0438","name:ka":"\u10e5\u10d4\u10e0\u10e9\u10d8 - \u10d1\u10d0\u10d7\u10e3\u10db\u10d8","sort_rank":355,"source":"openstreetmap.org","min_zoom":8.0,"name:uk":"\u041a\u0435\u0440\u0447 - \u0411\u0430\u0442\u0443\u043c\u0456"},"arcs":[3]},{"type":"LineString","properties":{"kind":"ferry","name":"\u0421hornomorsk - Poti","sort_rank":355,"source":"openstreetmap.org","min_zoom":8.0,"name:uk":"\u0427\u043e\u0440\u043d\u043e\u043c\u043e\u0440\u0441\u044c\u043a - \u041f\u043e\u0442\u0456","name:ru":"\u0427\u0435\u0440\u043d\u043e\u043c\u043e\u0440\u0441\u043a - \u041f\u043e\u0442\u0438","osm_relation":true},"arcs":[4]},{"type":"LineString","properties":{"source":"openstreetmap.org","kind":"ferry","name:en":"Burgas - Poti","name":"\u0411\u0443\u0440\u0433\u0430\u0441 - \u041f\u043e\u0442\u0438","name:ka":"\u10d1\u10e3\u10e0\u10d2\u10d0\u10e1\u10d8 - \u10e4\u10dd\u10d7\u10d8","sort_rank":355,"min_zoom":8.0},"arcs":[5]},{"type":"LineString","properties":{"sort_rank":355,"source":"openstreetmap.org","min_zoom":8.0,"name":"\u0421\u043e\u0447\u0438 - \u0422\u0440\u0430\u0431\u0437\u043e\u043d \/ So\u00e7i - Trabzon","kind":"ferry"},"arcs":[6]},{"type":"LineString","properties":{"source":"openstreetmap.org","kind":"ferry","sort_rank":355,"ref":"Sochi - Sukhum","min_zoom":8.0,"osm_relation":true,"id":-1531733},"arcs":[7]},{"type":"LineString","properties":{"kind":"ferry","name:en":"Sochi - Batumi","name":"\u0421\u043e\u0447\u0438 - \u0411\u0430\u0442\u0443\u043c\u0438","name:ka":"\u10e1\u10dd\u10ed\u10d8 - \u10d1\u10d0\u10d7\u10e3\u10db\u10d8","sort_rank":355,"name:de":"Sotschi - Batumi","source":"openstreetmap.org","min_zoom":8.0},"arcs":[8]},{"type":"LineString","properties":{"source":"openstreetmap.org","kind":"ferry","sort_rank":355,"ref":"\u0411\u0443\u0440\u0433\u0430\u0441 - \u041f\u043e\u0442\u0438","min_zoom":8.0,"osm_relation":true},"arcs":[9]},{"type":"LineString","properties":{"source":"openstreetmap.org","kind":"ferry","sort_rank":355,"ref":"Hopa - Sochi","min_zoom":8.0,"osm_relation":true},"arcs":[10]},{"type":"LineString","properties":{"source":"openstreetmap.org","kind":"ferry","name:en":"Sochi - Sukhum","name":"\u0421\u043e\u0447\u0438 - \u0421\u0443\u0445\u0443\u043c","sort_rank":355,"min_zoom":8.0,"id":368443132},"arcs":[11]},{"type":"LineString","properties":{"kind":"ferry","name":"Chornomorsk - Batumi","name:ka":"\u10e9\u10d4\u10e0\u10dc\u10dd\u10db\u10dd\u10e0\u10e1\u10d9\u10d8 - \u10d1\u10d0\u10d7\u10e3\u10db\u10d8","sort_rank":355,"source":"openstreetmap.org","min_zoom":8.0,"name:uk":"\u0427\u043e\u0440\u043d\u043e\u043c\u043e\u0440\u0441\u044c\u043a - \u0411\u0430\u0442\u0443\u043c\u0456","name:ru":"\u0427\u0435\u0440\u043d\u043e\u043c\u043e\u0440\u0441\u043a - \u0411\u0430\u0442\u0443\u043c\u0438","ref":"\u0427\u043e\u0440\u043d\u043e\u043c\u043e\u0440\u0441\u044c\u043a - \u0411\u0430\u0442\u0443\u043c\u0456","id":-1197900,"osm_relation":true},"arcs":[12]},{"type":"LineString","properties":{"source":"openstreetmap.org","kind":"ferry","sort_rank":355,"ref":"\u0421\u043e\u0447\u0438 - \u0411\u0430\u0442\u0443\u043c\u0438","min_zoom":8.0,"osm_relation":true},"arcs":[13]},{"type":"LineString","properties":{"kind":"ferry","name:en":"Varna - Poti","name":"\u0412\u0430\u0440\u043d\u0430 - \u041f\u043e\u0442\u0438","name:ka":"\u10d5\u10d0\u10e0\u10dc\u10d0 - \u10e4\u10dd\u10d7\u10d8","sort_rank":355,"name:de":"Warna - Poti","source":"openstreetmap.org","min_zoom":8.0},"arcs":[14]},{"type":"LineString","properties":{"sort_rank":355,"source":"openstreetmap.org","min_zoom":8.0,"name":"Hopa - Soci \/ \u0425\u043e\u043f\u0430 - \u0421\u043e\u0447\u0438","kind":"ferry"},"arcs":[15]},{"type":"LineString","properties":{"source":"openstreetmap.org","kind":"ferry","sort_rank":355,"ref":"\u0412\u0430\u0440\u043d\u0430 - \u041f\u043e\u0442\u0438","min_zoom":8.0,"osm_relation":true,"id":-300696},"arcs":[16]},{"type":"LineString","properties":{"kind":"ferry","name:en":"Sochi - Batumi","name":"\u0421\u043e\u0447\u0438 - \u0411\u0430\u0442\u0443\u043c\u0438","sort_rank":355,"name:de":"Sotschi - Batumi","source":"openstreetmap.org","min_zoom":8.0,"id":368443128},"arcs":[17]},{"type":"LineString","properties":{"kind":"ferry","name:en":"\u0421hornomorsk - Poti","name":"\u0427\u043e\u0440\u043d\u043e\u043c\u043e\u0440\u0441\u044c\u043a - \u041f\u043e\u0442\u0456","name:ka":"\u10d8\u10da\u10d8\u10e9\u10dd\u10d5\u10e1\u10d9\u10d8 - \u10e4\u10dd\u10d7\u10d8","sort_rank":355,"name:de":"\u0421hornomorsk - Poti","source":"openstreetmap.org","min_zoom":8.0,"name:uk":"\u0427o\u0440\u043d\u043e\u043c\u043e\u0440\u0441\u044c\u043a - \u041f\u043e\u0442\u0456","name:ru":"\u0427\u0435\u0440\u043d\u043e\u043c\u043e\u0440\u0441\u043a - \u041f\u043e\u0442\u0438"},"arcs":[18]},{"type":"LineString","properties":{"source":"openstreetmap.org","kind":"ferry","sort_rank":355,"ref":"\u041a\u0435\u0440\u0447\u044c - \u0411\u0430\u0442\u0443\u043c\u0438 (Kerch - Batumi)","min_zoom":8.0,"osm_relation":true,"id":-301608},"arcs":[19]},{"type":"LineString","properties":{"source":"openstreetmap.org","kind":"ferry","sort_rank":355,"ref":"\u0421\u043e\u0447\u0438 - \u0422\u0440\u0430\u0431\u0437\u043e\u043d","min_zoom":8.0,"osm_relation":true},"arcs":[20]},{"type":"LineString","properties":{"kind":"ferry","name:en":"Chornomorsk - Batumi","name":"\u0427\u043e\u0440\u043d\u043e\u043c\u043e\u0440\u0441\u044c\u043a - \u0411\u0430\u0442\u0443\u043c\u0456","name:ka":"\u10e9\u10d4\u10e0\u10dc\u10dd\u10db\u10dd\u10e0\u10e1\u10d9\u10d8 - \u10d1\u10d0\u10d7\u10e3\u10db\u10d8","sort_rank":355,"source":"openstreetmap.org","min_zoom":8.0,"name:ru":"\u0427\u0435\u0440\u043d\u043e\u043c\u043e\u0440\u0441\u043a - \u0411\u0430\u0442\u0443\u043c\u0438"},"arcs":[21]}]},"earth":{"type":"GeometryCollection","geometries":[]},"landuse":{"type":"GeometryCollection","geometries":[]}},"type":"Topology","transform":{"translate":[39.375,42.0329743324],"scale":[0.0003433228,0.0002529086]},"arcs":[[[2021,4096],[109,-112],[130,-89],[198,-74],[228,-17],[522,-303],[476,-111],[291,9],[121,-160]],[[2021,4096],[109,-112],[130,-89],[198,-74],[228,-17],[522,-303],[476,-111],[291,9],[121,-160]],[[0,0],[0,4096],[4096,0],[0,-4096],[-4096,0]],[[4096,853],[-3547,3243]],[[4096,1455],[-4096,1534]],[[0,701],[4096,-122]],[[1050,0],[-40,4096]],[[2979,4096],[1117,-292]],[[4096,1935],[-604,810]],[[0,701],[4096,-122]],[[2187,4096],[1909,-3208]],[[2979,4096],[1117,-292]],[[3523,0],[-3523,1668]],[[4096,1935],[-1614,2161]],[[4096,764],[-4096,422]],[[2187,4096],[1909,-3208]],[[4096,764],[-4096,422]],[[3492,2745],[-1010,1351]],[[4096,1455],[-4096,1534]],[[4096,842],[-3547,3254]],[[1050,0],[-40,4096]],[[3523,0],[-3523,1668]]]}