{"objects":{"water":{"type":"GeometryCollection","geometries":[{"type":"MultiPolygon","properties":{"source":"naturalearthdata.com","kind":"ocean","area":1576712559132672,"sort_rank":200,"min_zoom":0.0,"id":1},"arcs":[[[10],[11],[12],[13]],[[14]]]},{"type":"LineString","properties":{"source":"naturalearthdata.com","kind":"ocean","sort_rank":205,"boundary":true,"min_zoom":0.0,"id":244},"arcs":[15]},{"type":"LineString","properties":{"source":"naturalearthdata.com","kind":"ocean","sort_rank":205,"boundary":true,"min_zoom":0.0,"id":2520},"arcs":[16]},{"type":"LineString","properties":{"source":"naturalearthdata.com","kind":"ocean","sort_rank":205,"boundary":true,"min_zoom":0.0,"id":2521},"arcs":[17]},{"type":"MultiLineString","properties":{"source":"naturalearthdata.com","kind":"ocean","sort_rank":205,"boundary":true,"min_zoom":0.0,"id":2522},"arcs":[[18],[19]]}]},"buildings":{"type":"GeometryCollection","geometries":[]},"places":{"type":"GeometryCollection","geometries":[{"type":"Point","properties":{"name:pt":"Nova Caled\u00f4nia","name:cy":"Caledonia Newydd","name:mt":"New Caledonia","name:ko":"\ub274 \uce7c\ub808\ub3c4\ub2c8\uc544","name:kn":"\u0ca8\u0ccd\u0caf\u0cc2 \u0c95\u0ccd\u0caf\u0cbe\u0cb2\u0cbf\u0ca1\u0ccb\u0ca8\u0cbf\u0caf\u0cbe","name:km":"\u1789\u17bc\u1780\u17b6\u17a1\u17c1\u178a\u17bc\u1793\u17c0","name:kl":"Nutaaq Caledonia","name:cs":"Nov\u00e1 Kaledonie","name:ki":"Nyukaledonia","name:tr":"Yeni Kaledonya","name:ku":"Kaledonyaya N\u00fb","name:ti":"\u1292\u12cd \u12ab\u120c\u12f6\u1292\u12eb","name:ks":"\u0646\u0650\u0648 \u06a9\u06cc\u0644\u0650\u0691\u0648\u0646\u0650\u06cc\u0627","name:to":"Niu Kalet\u014dnia","name:sv":"Nya Kaledonien","name:or":"\u0b28\u0b42\u0b24\u0b28 \u0b15\u0b3e\u0b32\u0b47\u0b21\u0b4b\u0b28\u0b3f\u0b06","name:pl":"Nowa Kaledonia","name:ta":"\u0ba8\u0bbf\u0baf\u0bc2 \u0b95\u0bc7\u0bb2\u0bbf\u0b9f\u0bcb\u0ba9\u0bbf\u0baf\u0bbe","name:ca":"Nova Caled\u00f2nia","name:te":"\u0c15\u0c4d\u0c30\u0c4a\u0c24\u0c4d\u0c24 \u0c15\u0c3e\u0c32\u0c46\u0c21\u0c4b\u0c28\u0c3f\u0c2f\u0c3e","name:ro":"Noua Caledonie","name:ka":"\u10d0\u10ee\u10d0\u10da\u10d8 \u10d9\u10d0\u10da\u10d4\u10d3\u10dd\u10dc\u10d8\u10d0","name:hr":"Nova Kaledonija","name:da":"Ny Kaledonien","name:de":"Neukaledonien","name:dz":"\u0f53\u0f72\u0f60\u0f74\u0f0b\u0f40\u0f0b\u0f63\u0f72\u0f0b\u0f51\u0f7c\u0f0b\u0f53\u0f72\u0f0b\u0f61","source":"openstreetmap.org","name:lv":"Jaunkaledonija","name:lt":"Naujoji Kaledonija","name:hi":"\u0928\u094d\u092f\u0942 \u0915\u0948\u0932\u0947\u0921\u094b\u0928\u093f\u092f\u093e","name:he":"\u05e7\u05dc\u05d3\u05d5\u05e0\u05d9\u05d4 \u05d4\u05d7\u05d3\u05e9\u05d4","kind":"region","name:ur":"\u0646\u06cc\u0648 \u06a9\u0644\u06cc\u0688\u0648\u0646\u06cc\u0627","name:la":"Nova Caledonia","name:lg":"Kaledonya mupya","name:uk":"\u041d\u043e\u0432\u0430 \u041a\u0430\u043b\u0435\u0434\u043e\u043d\u0456\u044f","min_zoom":4.0,"name:hu":"\u00daj-Kaled\u00f3nia","name:ln":"Kaledoni ya sika","name:lo":"\u0e99\u0eb4\u0ea7\u0e84\u0eb2\u0ea5\u0eb4\u0ec2\u0e94\u0ec0\u0e99\u0e8d","population":245580,"name:el":"\u039d\u03ad\u03b1 \u039a\u03b1\u03bb\u03b7\u03b4\u03bf\u03bd\u03af\u03b1","name:eo":"Nov-Kaledonio","name:en":"New Caledonia","name":"Nouvelle-Cal\u00e9donie","name:ee":"New Kaledonia nutome","name:th":"\u0e19\u0e34\u0e27\u0e41\u0e04\u0e25\u0e34\u0e42\u0e14\u0e40\u0e19\u0e35\u0e22","name:gu":"\u0aa8\u0acd\u0aaf\u0ac1 \u0ab8\u0ac7\u0ab2\u0ac7\u0aa1\u0acb\u0aa8\u0abf\u0aaf\u0abe","name:eu":"Kaledonia Berria","name:et":"Uus-Kaledoonia","name:nl":"Nieuw-Caledoni\u00eb","name:es":"Nueva Caledonia","name:ia":"Nove Caledonia","name:rm":"Nova Caledonia","name:rn":"Niyukaledoniya","name:az":"Yeni Kaledoniya","name:id":"Kaledonia Baru","name:ms":"New Caledonia","name:mr":"\u0928\u094d\u092f\u0942 \u0915\u0945\u0932\u0947\u0921\u094b\u0928\u093f\u092f\u093e","name:ar":"\u0643\u0627\u0644\u064a\u062f\u0648\u0646\u064a\u0627 \u0627\u0644\u062c\u062f\u064a\u062f\u0629","name:my":"\u1014\u101a\u1030\u1038 \u1000\u101a\u103a\u101c\u102e\u1012\u102d\u102f\u1014\u102e\u1038\u101a\u102c\u1038","int_name":"New Caledonia","name:is":"N\u00fdja-Kaled\u00f3n\u00eda","name:am":"\u1292\u12cd \u12ab\u120c\u12f6\u1292\u12eb","name:it":"Nuova Caledonia","name:vi":"T\u00e2n \u0110\u1ea3o","name:ru":"\u041d\u043e\u0432\u0430\u044f \u041a\u0430\u043b\u0435\u0434\u043e\u043d\u0438\u044f","name:mn":"\u0428\u0438\u043d\u044d \u041a\u0430\u043b\u0435\u0434\u043e\u043d\u0438","id":1367931778,"name:mk":"\u041d\u043e\u0432\u0430 \u041a\u0430\u043b\u0435\u0434\u043e\u043d\u0438\u0458\u0430","name:af":"Nieu-Caledonia","name:zu":"i-New Caledonia","name:ha":"Kaledoniya Sabuwa","name:nn":"Ny-Caledonia","name:ff":"Nuwel Kaledonii","kind_detail":"state","name:no":"Ny-Caledonia","name:fo":"N\u00fd-Kaledonia","name:zh":"\u65b0\u5580\u91cc\u591a\u5c3c\u4e9a","name:so":"New Caledonia","name:sn":"New Caledonia","name:sl":"Nova Kaledonija","name:sk":"Nov\u00e1 Kaled\u00f3nia","name:ja":"\u30cb\u30e5\u30fc\u30ab\u30ec\u30c9\u30cb\u30a2","name:si":"\u0db1\u0dc0 \u0d9a\u0dd0\u0dbd\u0dd2\u0da9\u0ddd\u0db1\u0dd2\u0dba\u0dcf\u0dc0","name:fa":"\u06a9\u0627\u0644\u062f\u0648\u0646\u06cc\u0627\u06cc \u062c\u062f\u06cc\u062f","name:sg":"Fin\u00ee Kaledon\u00efi","name:se":"O\u0111\u0111a-Kaledonia","name:ne":"\u0928\u092f\u093e\u0901 \u0915\u093e\u0932\u0947\u0921\u094b\u0928\u093f\u092f\u093e","name:br":"Kaledonia Nevez","name:bs":"Nova Kaledonija","name:bm":"Kaledoni Koura","name:bn":"\u09a8\u09bf\u0989 \u0995\u09cd\u09af\u09be\u09b2\u09c7\u09a1\u09cb\u09a8\u09bf\u09af\u09bc\u09be","name:ml":"\u0d2a\u0d41\u0d24\u0d3f\u0d2f \u0d15\u0d3e\u0d32\u0d3f\u0d21\u0d4b\u0d23\u0d3f\u0d2f","name:sw":"Nyukaledonia","name:be":"\u041d\u043e\u0432\u0430\u044f \u041a\u0430\u043b\u0435\u0434\u043e\u043d\u0456\u044f","name:bg":"\u041d\u043e\u0432\u0430 \u041a\u0430\u043b\u0435\u0434\u043e\u043d\u0438\u044f","name:sr":"\u041d\u043e\u0432\u0430 \u041a\u0430\u043b\u0435\u0434\u043e\u043d\u0438\u0458\u0430","name:ga":"An Nua-Chalad\u00f3in","name:gd":"Cailleann Nuadh","name:gl":"Nova Caledonia","name:yo":"Or\u00edl\u1eb9\u0301\u00e8de Kaledonia Titun","name:ak":"Kaledonia Foforo","name:fi":"Uusi-Kaledonia"},"coordinates":[3441,998]}]},"transit":{"type":"GeometryCollection","geometries":[]},"pois":{"type":"GeometryCollection","geometries":[]},"boundaries":{"type":"GeometryCollection","geometries":[{"type":"MultiLineString","properties":{"source":"naturalearthdata.com","kind":"region","name":"Sud - Nord","sort_rank":256,"kind_detail":"4","min_zoom":5.5,"id":2931},"arcs":[[0],[1],[2],[3],[4],[5],[6],[7],[8],[9]]}]},"roads":{"type":"GeometryCollection","geometries":[{"type":"LineString","properties":{"source":"naturalearthdata.com","kind":"minor_road","sort_rank":355,"kind_detail":"tertiary","min_zoom":6.0,"id":45492},"arcs":[20]}]},"earth":{"type":"GeometryCollection","geometries":[{"type":"MultiPolygon","properties":{"sort_rank":10,"source":"naturalearthdata.com","min_zoom":0.0,"kind":"earth","area":19866015691},"arcs":[[[21]],[[22]],[[23]],[[24]]]},{"type":"Point","properties":{"label_placement":true,"name:pt":"Grande Terre","name:nl":"Nieuw-Caledoni\u00eb","name:ja":"\u30b0\u30e9\u30f3\u30c9\u30c6\u30fc\u30eb\u5cf6","name:ka":"\u10d2\u10e0\u10d0\u10dc\u10d3-\u10e2\u10d4\u10e0\u10d8","name:he":"\u05d2\u05e8\u05e0\u05d3 \u05d8\u05e8","name:cs":"Nov\u00e1 Kaledonie","min_zoom":7.0,"name:it":"Grande Terre","name:ru":"\u0413\u0440\u0430\u043d\u0434-\u0422\u0435\u0440","name:sv":"Grande Terre","name:pl":"Nowa Kaledonia","name:de":"Grande Terre","name:lt":"Naujoji Kaledonija","id":-1903511,"osm_relation":true,"kind":"island","name:en":"Grande Terre","name":"Grande-Terre","area":18796099584,"name:fi":"Grande Terre","name:gl":"Grande Terre","source":"openstreetmap.org","name:et":"Uus-Kaledoonia saar","name:es":"Grande Terre"},"coordinates":[3092,1094]}]},"landuse":{"type":"GeometryCollection","geometries":[]}},"type":"Topology","transform":{"translate":[163.125,-21.9430455334],"scale":[0.0006866455,0.0006425542]},"arcs":[[[3358,791],[-12,1],[-64,32],[-20,68],[-3,17],[-28,19],[-30,12],[-47,16],[-15,16],[-27,5]],[[3112,977],[-86,-7],[-37,-13],[-37,-31],[-24,-10],[-27,-20],[-8,-9]],[[3476,802],[-11,7],[-9,9],[-10,7],[-11,2]],[[3435,827],[-18,-7],[-34,-23],[-10,-5],[-15,-1]],[[3746,654],[-42,2],[-22,21],[-36,14],[-31,30],[-10,7],[-36,21],[-8,9],[-5,9],[-13,33],[-5,6],[-10,5],[-12,1]],[[3516,812],[-29,-10],[-11,0]],[[3998,540],[-14,14],[-23,21],[-22,10],[-15,14],[-21,17],[-46,28],[-34,1],[-51,24]],[[3772,669],[-26,-15]],[[4096,554],[-6,4]],[[4090,558],[-16,-2],[-25,-6],[-20,-10],[-31,0]],[[4096,38],[0,-38],[-4096,0],[0,4096],[4096,0],[0,-3296],[-42,79],[-21,27],[-26,7],[15,-16],[5,-18],[-1,-17],[-8,-13],[-10,19],[-13,10],[-14,0],[-13,-8],[-7,-11],[2,-12],[15,-31],[-29,26],[-15,66],[-26,-6],[-11,36],[-29,38],[-39,21],[-42,-11],[-27,27],[-88,23],[-34,15],[-10,16],[-9,25],[-11,23],[-15,10],[-17,6],[-17,15],[-14,17],[-6,15],[20,-15],[21,-10],[23,-6],[24,-1],[-7,13],[-4,5],[-8,5],[-5,16],[-20,21],[-44,37],[-5,-6],[-3,-2],[-4,0],[-8,-4],[5,17],[-3,10],[-10,5],[-38,2],[-11,5],[-19,21],[-19,15],[-41,22],[-48,36],[-12,17],[-5,27],[-3,11],[-6,10],[-2,10],[6,12],[4,9],[9,35],[6,52],[-8,8],[-26,9],[-77,10],[-12,5],[-8,24],[-17,16],[-23,13],[-22,16],[-15,23],[-15,63],[7,24],[-11,21],[-35,30],[-11,12],[-5,8],[-7,5],[-17,7],[-10,-1],[-9,-4],[-7,-6],[-5,-2],[-9,5],[-11,14],[-5,3],[-154,32],[-54,44],[-27,9],[-25,22],[-59,3],[-26,18],[7,20],[-22,22],[-44,28],[-15,1],[-75,68],[-53,74],[-12,11],[-23,11],[-40,55],[-21,20],[-45,15],[-15,7],[-45,42],[-25,7],[-31,16],[-29,21],[-21,20],[-77,100],[-47,41],[-262,102],[-13,-1],[-3,-12],[9,-50],[21,-53],[13,-19],[-26,3],[-15,16],[-19,44],[-9,0],[-33,-12],[-29,5],[-67,39],[-22,20],[-108,128],[-32,15],[-14,9],[-15,37],[-22,26],[-29,24],[-27,17],[-20,-2],[-11,2],[-7,-22],[-2,-20],[7,-14],[21,-7],[-7,-19],[-5,-7],[-7,-6],[0,-12],[22,4],[19,10],[17,4],[22,-18],[10,-21],[-2,-20],[-11,-15],[-17,-7],[28,-36],[5,-19],[-13,-19],[-44,13],[-27,-21],[-5,-30],[21,-16],[13,-6],[4,-15],[6,-14],[22,-6],[13,6],[15,14],[8,17],[-6,16],[20,8],[10,-10],[-2,-20],[-9,-21],[17,-7],[68,-3],[17,-9],[18,-20],[15,-20],[6,-11],[0,-47],[-6,-27],[-14,-16],[-39,14],[-17,-4],[7,-31],[15,-15],[19,-8],[17,-11],[8,-26],[3,-22],[17,-63],[22,-34],[92,-61],[15,-28],[8,3],[7,1],[7,1],[8,6],[44,-108],[26,-16],[33,-73],[21,-17],[26,-5],[21,-14],[9,-20],[-11,-25],[-23,-8],[-22,3],[-9,-1],[14,-25],[20,-20],[43,-30],[64,-66],[26,-16],[32,-6],[19,-35],[6,-8],[15,-6],[30,-1],[15,-5],[35,-35],[23,-11],[23,15],[9,0],[0,-24],[13,-6],[19,-3],[18,-10],[7,-15],[-1,-15],[-12,-9],[-23,-2],[24,-19],[31,-13],[12,-13],[-28,-20],[25,-15],[18,-30],[27,-73],[10,10],[10,11],[-9,16],[12,9],[17,3],[10,-1],[5,-25],[14,-12],[16,3],[4,18],[16,7],[10,0],[2,-6],[-8,-12],[14,-7],[7,-2],[9,0],[0,-12],[-6,-7],[-3,-5],[-2,-20],[28,10],[12,-17],[2,-27],[-1,-25],[2,-33],[7,-22],[108,-130],[10,-18],[8,-10],[13,-8],[11,-2],[10,-3],[11,-13],[-8,-14],[-5,-13],[-1,-13],[-6,-13],[8,-16],[12,-12],[14,-3],[16,9],[11,21],[-4,33],[13,21],[34,-25],[7,-16],[-12,-23],[32,6],[22,-14],[4,-26],[-28,-30],[17,-8],[13,1],[11,8],[11,10],[7,-22],[13,-8],[13,8],[5,22],[-2,-1],[10,5],[13,5],[10,0],[3,-3],[10,-9],[0,-7],[-5,-8],[2,-14],[55,-97],[4,-4],[20,-22],[4,-10],[11,-3],[13,0],[12,-3],[40,-32],[18,-9],[28,-3],[4,-9],[13,-49],[12,-21],[20,-17],[153,-68],[26,-5],[24,8],[24,14],[24,6],[23,-17],[-21,-6],[-2,-8],[12,-4],[21,7],[0,-11],[-17,-33],[44,-41],[195,-96],[8,-1],[8,3],[2,8],[0,7],[1,4],[27,2],[11,-7],[2,-17],[-1,-32],[23,6],[19,14],[15,20],[12,24],[11,0],[0,-29],[11,-18],[16,-13],[12,-16],[3,-25],[-2,-23],[5,-18],[25,-8],[-6,16],[0,14],[6,9],[15,4],[13,-5],[-1,-12],[-7,-14],[0,-12],[41,-40],[10,-16],[-31,14],[4,-24],[14,-8],[42,-1],[10,2],[7,6],[8,3],[9,-5],[18,-16],[11,-7],[10,-3],[21,-12],[30,-51],[4,-1]],[[747,3597],[-23,13],[-9,-20],[24,-15],[8,-23],[-3,-64],[6,-34],[43,-100],[39,36],[-4,11],[-16,28],[-8,22],[-10,50],[-30,73],[-17,23]],[[1193,2984],[-10,-13],[0,-12],[14,-38],[14,-12],[22,8],[10,-22],[6,12],[4,13],[1,14],[-1,16],[-15,19],[-12,42],[-13,13],[-12,-4],[-8,-36]],[[1513,2928],[1,-68],[7,-28],[34,-25],[41,-22],[28,-7],[-23,32],[-14,31],[-64,87],[-10,0]],[[4096,748],[0,-18],[-9,6],[-11,16],[20,-4]],[[1253,2950],[-15,19],[-12,42],[-13,13],[-12,-4],[-8,-36],[-10,-13],[0,-12],[14,-38],[14,-12],[22,8],[10,-22],[6,12],[4,13],[1,14],[-1,16]],[[812,3429],[-8,22],[-10,50],[-30,73],[-17,23],[-23,13],[-9,-20],[24,-15],[8,-23],[-3,-64],[6,-34],[43,-100],[39,36],[-4,11],[-16,28]],[[1601,2810],[-14,31],[-64,87],[-10,0],[1,-68],[7,-28],[34,-25],[41,-22],[28,-7],[-23,32]],[[4096,730],[-9,6],[-11,16],[20,-4]],[[4096,800],[-42,79],[-21,27],[-26,7],[15,-16],[5,-18],[-1,-17],[-8,-13],[-10,19],[-13,10],[-14,0],[-13,-8],[-7,-11],[2,-12],[15,-31],[-29,26],[-15,66],[-26,-6],[-11,36],[-29,38],[-39,21],[-42,-11],[-27,27],[-88,23],[-34,15],[-10,16],[-9,25],[-11,23],[-15,10],[-17,6],[-17,15],[-14,17],[-6,15],[20,-15],[21,-10],[23,-6],[24,-1],[-7,13],[-4,5],[-8,5],[-5,16],[-20,21],[-44,37],[-5,-6],[-3,-2],[-4,0],[-8,-4],[5,17],[-3,10],[-10,5],[-38,2],[-11,5],[-19,21],[-19,15],[-41,22],[-48,36],[-12,17],[-5,27],[-3,11],[-6,10],[-2,10],[6,12],[4,9],[9,35],[6,52],[-8,8],[-26,9],[-77,10],[-12,5],[-8,24],[-17,16],[-23,13],[-22,16],[-15,23],[-15,63],[7,24],[-11,21],[-35,30],[-11,12],[-5,8],[-7,5],[-17,7],[-10,-1],[-9,-4],[-7,-6],[-5,-2],[-9,5],[-11,14],[-5,3],[-154,32],[-54,44],[-27,9],[-25,22],[-59,3],[-26,18],[7,20],[-22,22],[-44,28],[-15,1],[-75,68],[-53,74],[-12,11],[-23,11],[-40,55],[-21,20],[-45,15],[-15,7],[-45,42],[-25,7],[-31,16],[-29,21],[-21,20],[-77,100],[-47,41],[-262,102],[-13,-1],[-3,-12],[9,-50],[21,-53],[13,-19],[-26,3],[-15,16],[-19,44],[-9,0],[-33,-12],[-29,5],[-67,39],[-22,20],[-108,128],[-32,15],[-14,9],[-15,37],[-22,26],[-29,24],[-27,17],[-20,-2],[-11,2],[-7,-22],[-2,-20],[7,-14],[21,-7],[-7,-19],[-5,-7],[-7,-6],[0,-12],[22,4],[19,10],[17,4],[22,-18],[10,-21],[-2,-20],[-11,-15],[-17,-7],[28,-36],[5,-19],[-13,-19],[-44,13],[-27,-21],[-5,-30],[21,-16],[13,-6],[4,-15],[6,-14],[22,-6],[13,6],[15,14],[8,17],[-6,16],[20,8],[10,-10],[-2,-20],[-9,-21],[17,-7],[68,-3],[17,-9],[18,-20],[15,-20],[6,-11],[0,-47],[-6,-27],[-14,-16],[-39,14],[-17,-4],[7,-31],[15,-15],[19,-8],[17,-11],[8,-26],[3,-22],[17,-63],[22,-34],[92,-61],[15,-28],[8,3],[7,1],[7,1],[8,6],[44,-108],[26,-16],[33,-73],[21,-17],[26,-5],[21,-14],[9,-20],[-11,-25],[-23,-8],[-22,3],[-9,-1],[14,-25],[20,-20],[43,-30],[64,-66],[26,-16],[32,-6],[19,-35],[6,-8],[15,-6],[30,-1],[15,-5],[35,-35],[23,-11],[23,15],[9,0],[0,-24],[13,-6],[19,-3],[18,-10],[7,-15],[-1,-15],[-12,-9],[-23,-2],[24,-19],[31,-13],[12,-13],[-28,-20],[25,-15],[18,-30],[27,-73],[10,10],[10,11],[-9,16],[12,9],[17,3],[10,-1],[5,-25],[14,-12],[16,3],[4,18],[16,7],[10,0],[2,-6],[-8,-12],[14,-7],[7,-2],[9,0],[0,-12],[-6,-7],[-3,-5],[-2,-20],[28,10],[12,-17],[2,-27],[-1,-25],[2,-33],[7,-22],[108,-130],[10,-18],[8,-10],[13,-8],[11,-2],[10,-3],[11,-13],[-8,-14],[-5,-13],[-1,-13],[-6,-13],[8,-16],[12,-12],[14,-3],[16,9],[11,21],[-4,33],[13,21],[34,-25],[7,-16],[-12,-23],[32,6],[22,-14],[4,-26],[-28,-30],[17,-8],[13,1],[11,8],[11,10],[7,-22],[13,-8],[13,8],[5,22],[-2,-1],[10,5],[13,5],[10,0],[3,-3],[10,-9],[0,-7],[-5,-8],[2,-14],[55,-97],[4,-4],[20,-22],[4,-10],[11,-3],[13,0],[12,-3],[40,-32],[18,-9],[28,-3],[4,-9],[13,-49],[12,-21],[20,-17],[153,-68],[26,-5],[24,8],[24,14],[24,6],[23,-17],[-21,-6],[-2,-8],[12,-4],[21,7],[0,-11],[-17,-33],[44,-41],[195,-96],[8,-1],[8,3],[2,8],[0,7],[1,4],[27,2],[11,-7],[2,-17],[-1,-32],[23,6],[19,14],[15,20],[12,24],[11,0],[0,-29],[11,-18],[16,-13],[12,-16],[3,-25],[-2,-23],[5,-18],[25,-8],[-6,16],[0,14],[6,9],[15,4],[13,-5],[-1,-12],[-7,-14],[0,-12],[41,-40],[10,-16],[-31,14],[4,-24],[14,-8],[42,-1],[10,2],[7,6],[8,3],[9,-5],[18,-16],[11,-7],[10,-3],[21,-12],[30,-51],[4,-1]],[[1530,2272],[48,-45],[24,-20],[49,-19],[24,-32],[30,-19],[72,-103],[54,-45],[30,-13],[24,-25],[18,-58],[24,-45],[24,-84],[12,-19],[132,-32],[78,-26],[84,-45],[12,-19],[6,-51],[12,-32],[30,-32],[18,-39],[-6,-19],[-30,-32],[24,-26],[24,13],[36,0],[90,-6],[42,-13],[25,-20],[42,-64],[0,-25],[-24,-52],[0,-38],[24,-64],[12,-13],[72,-52],[24,-32],[12,-6],[24,6],[24,0],[12,-13],[54,-32],[48,-13],[66,7],[12,-7],[18,-38],[42,-26],[48,-45],[48,-32],[66,-57],[66,-33],[42,-12],[66,-7],[18,-13],[48,-38],[12,-32],[31,-39],[30,-19],[54,-32],[42,0],[36,-13],[36,-19],[12,-52],[18,-25],[24,-26],[30,-26],[24,-12],[66,19],[24,6],[42,-6],[24,-7],[18,-25],[12,-39],[36,-77],[12,-38],[18,-20],[24,-19],[67,-22]],[[4096,730],[0,-692],[-4,1],[-30,51],[-21,12],[-10,3],[-11,7],[-18,16],[-9,5],[-8,-3],[-7,-6],[-10,-2],[-42,1],[-14,8],[-4,24],[31,-14],[-10,16],[-41,40],[0,12],[7,14],[1,12],[-13,5],[-15,-4],[-6,-9],[0,-14],[6,-16],[-25,8],[-5,18],[2,23],[-3,25],[-12,16],[-16,13],[-11,18],[0,29],[-11,0],[-12,-24],[-15,-20],[-19,-14],[-23,-6],[1,32],[-2,17],[-11,7],[-27,-2],[-1,-4],[0,-7],[-2,-8],[-8,-3],[-8,1],[-195,96],[-44,41],[17,33],[0,11],[-21,-7],[-12,4],[2,8],[21,6],[-23,17],[-24,-6],[-24,-14],[-24,-8],[-26,5],[-153,68],[-20,17],[-12,21],[-13,49],[-4,9],[-28,3],[-18,9],[-40,32],[-12,3],[-13,0],[-11,3],[-4,10],[-20,22],[-4,4],[-55,97],[-2,14],[5,8],[0,7],[-10,9],[-3,3],[-10,0],[-13,-5],[-10,-5],[2,1],[-5,-22],[-13,-8],[-13,8],[-7,22],[-11,-10],[-11,-8],[-13,-1],[-17,8],[28,30],[-4,26],[-22,14],[-32,-6],[12,23],[-7,16],[-34,25],[-13,-21],[4,-33],[-11,-21],[-16,-9],[-14,3],[-12,12],[-8,16],[6,13],[1,13],[5,13],[8,14],[-11,13],[-10,3],[-11,2],[-13,8],[-8,10],[-10,18],[-108,130],[-7,22],[-2,33],[1,25],[-2,27],[-12,17],[-28,-10],[2,20],[3,5],[6,7],[0,12],[-9,0],[-7,2],[-14,7],[8,12],[-2,6],[-10,0],[-16,-7],[-4,-18],[-16,-3],[-14,12],[-5,25],[-10,1],[-17,-3],[-12,-9],[9,-16],[-10,-11],[-10,-10],[-27,73],[-18,30],[-25,15],[28,20],[-12,13],[-31,13],[-24,19],[23,2],[12,9],[1,15],[-7,15],[-18,10],[-19,3],[-13,6],[0,24],[-9,0],[-23,-15],[-23,11],[-35,35],[-15,5],[-30,1],[-15,6],[-6,8],[-19,35],[-32,6],[-26,16],[-64,66],[-43,30],[-20,20],[-14,25],[9,1],[22,-3],[23,8],[11,25],[-9,20],[-21,14],[-26,5],[-21,17],[-33,73],[-26,16],[-44,108],[-8,-6],[-7,-1],[-7,-1],[-8,-3],[-15,28],[-92,61],[-22,34],[-17,63],[-3,22],[-8,26],[-17,11],[-19,8],[-15,15],[-7,31],[17,4],[39,-14],[14,16],[6,27],[0,47],[-6,11],[-15,20],[-18,20],[-17,9],[-68,3],[-17,7],[9,21],[2,20],[-10,10],[-20,-8],[6,-16],[-8,-17],[-15,-14],[-13,-6],[-22,6],[-6,14],[-4,15],[-13,6],[-21,16],[5,30],[27,21],[44,-13],[13,19],[-5,19],[-28,36],[17,7],[11,15],[2,20],[-10,21],[-22,18],[-17,-4],[-19,-10],[-22,-4],[0,12],[7,6],[5,7],[7,19],[-21,7],[-7,14],[2,20],[7,22],[11,-2],[20,2],[27,-17],[29,-24],[22,-26],[15,-37],[14,-9],[32,-15],[108,-128],[22,-20],[67,-39],[29,-5],[33,12],[9,0],[19,-44],[15,-16],[26,-3],[-13,19],[-21,53],[-9,50],[3,12],[13,1],[262,-102],[47,-41],[77,-100],[21,-20],[29,-21],[31,-16],[25,-7],[45,-42],[15,-7],[45,-15],[21,-20],[40,-55],[23,-11],[12,-11],[53,-74],[75,-68],[15,-1],[44,-28],[22,-22],[-7,-20],[26,-18],[59,-3],[25,-22],[27,-9],[54,-44],[154,-32],[5,-3],[11,-14],[9,-5],[5,2],[7,6],[9,4],[10,1],[17,-7],[7,-5],[5,-8],[11,-12],[35,-30],[11,-21],[-7,-24],[15,-63],[15,-23],[22,-16],[23,-13],[17,-16],[8,-24],[12,-5],[77,-10],[26,-9],[8,-8],[-6,-52],[-9,-35],[-4,-9],[-6,-12],[2,-10],[6,-10],[3,-11],[5,-27],[12,-17],[48,-36],[41,-22],[19,-15],[19,-21],[11,-5],[38,-2],[10,-5],[3,-10],[-5,-17],[8,4],[4,0],[3,2],[5,6],[44,-37],[20,-21],[5,-16],[8,-5],[4,-5],[7,-13],[-24,1],[-23,6],[-21,10],[-20,15],[6,-15],[14,-17],[17,-15],[17,-6],[15,-10],[11,-23],[9,-25],[10,-16],[34,-15],[88,-23],[27,-27],[42,11],[39,-21],[29,-38],[11,-36],[26,6],[15,-66],[29,-26],[-15,31],[-2,12],[7,11],[13,8],[14,0],[13,-10],[10,-19],[8,13],[1,17],[-5,18],[-15,16],[26,-7],[21,-27],[42,-79],[0,-52],[-20,4],[11,-16],[9,-6]],[[1601,2810],[23,-32],[-28,7],[-41,22],[-34,25],[-7,28],[-1,68],[10,0],[64,-87],[14,-31]],[[1253,2920],[-4,-13],[-6,-12],[-10,22],[-22,-8],[-14,12],[-14,38],[0,12],[10,13],[8,36],[12,4],[13,-13],[12,-42],[15,-19],[1,-16],[-1,-14]],[[832,3390],[-39,-36],[-43,100],[-6,34],[3,64],[-8,23],[-24,15],[9,20],[23,-13],[17,-23],[30,-73],[10,-50],[8,-22],[16,-28],[4,-11]]]}