{"objects":{"water":{"type":"GeometryCollection","geometries":[{"type":"Polygon","properties":{"source":"naturalearthdata.com","kind":"ocean","area":1576712559132672,"sort_rank":200,"min_zoom":0.0,"id":1},"arcs":[[1],[2],[3],[4],[5],[6],[7],[8],[9],[10],[11],[12],[13],[14],[15],[16],[17],[18],[19],[20],[21],[22],[23],[24],[25]]},{"type":"MultiLineString","properties":{"source":"naturalearthdata.com","kind":"ocean","sort_rank":205,"boundary":true,"min_zoom":0.0,"id":525},"arcs":[[26],[27],[28]]},{"type":"LineString","properties":{"source":"naturalearthdata.com","kind":"ocean","sort_rank":205,"boundary":true,"min_zoom":0.0,"id":527},"arcs":[29]},{"type":"LineString","properties":{"source":"naturalearthdata.com","kind":"ocean","sort_rank":205,"boundary":true,"min_zoom":0.0,"id":528},"arcs":[30]},{"type":"LineString","properties":{"source":"naturalearthdata.com","kind":"ocean","sort_rank":205,"boundary":true,"min_zoom":0.0,"id":532},"arcs":[31]},{"type":"LineString","properties":{"source":"naturalearthdata.com","kind":"ocean","sort_rank":205,"boundary":true,"min_zoom":0.0,"id":534},"arcs":[32]},{"type":"LineString","properties":{"source":"naturalearthdata.com","kind":"ocean","sort_rank":205,"boundary":true,"min_zoom":0.0,"id":535},"arcs":[33]},{"type":"LineString","properties":{"source":"naturalearthdata.com","kind":"ocean","sort_rank":205,"boundary":true,"min_zoom":0.0,"id":537},"arcs":[34]},{"type":"LineString","properties":{"source":"naturalearthdata.com","kind":"ocean","sort_rank":205,"boundary":true,"min_zoom":0.0,"id":538},"arcs":[35]},{"type":"LineString","properties":{"source":"naturalearthdata.com","kind":"ocean","sort_rank":205,"boundary":true,"min_zoom":0.0,"id":540},"arcs":[36]},{"type":"LineString","properties":{"source":"naturalearthdata.com","kind":"ocean","sort_rank":205,"boundary":true,"min_zoom":0.0,"id":544},"arcs":[37]},{"type":"LineString","properties":{"source":"naturalearthdata.com","kind":"ocean","sort_rank":205,"boundary":true,"min_zoom":0.0,"id":546},"arcs":[38]},{"type":"LineString","properties":{"source":"naturalearthdata.com","kind":"ocean","sort_rank":205,"boundary":true,"min_zoom":0.0,"id":555},"arcs":[39]},{"type":"LineString","properties":{"source":"naturalearthdata.com","kind":"ocean","sort_rank":205,"boundary":true,"min_zoom":0.0,"id":556},"arcs":[40]},{"type":"LineString","properties":{"source":"naturalearthdata.com","kind":"ocean","sort_rank":205,"boundary":true,"min_zoom":0.0,"id":557},"arcs":[41]},{"type":"LineString","properties":{"source":"naturalearthdata.com","kind":"ocean","sort_rank":205,"boundary":true,"min_zoom":0.0,"id":558},"arcs":[42]},{"type":"LineString","properties":{"source":"naturalearthdata.com","kind":"ocean","sort_rank":205,"boundary":true,"min_zoom":0.0,"id":559},"arcs":[43]},{"type":"LineString","properties":{"source":"naturalearthdata.com","kind":"ocean","sort_rank":205,"boundary":true,"min_zoom":0.0,"id":560},"arcs":[44]},{"type":"LineString","properties":{"source":"naturalearthdata.com","kind":"ocean","sort_rank":205,"boundary":true,"min_zoom":0.0,"id":3312},"arcs":[45]},{"type":"LineString","properties":{"source":"naturalearthdata.com","kind":"ocean","sort_rank":205,"boundary":true,"min_zoom":0.0,"id":3732},"arcs":[46]},{"type":"LineString","properties":{"source":"naturalearthdata.com","kind":"ocean","sort_rank":205,"boundary":true,"min_zoom":0.0,"id":3733},"arcs":[47]},{"type":"LineString","properties":{"source":"naturalearthdata.com","kind":"ocean","sort_rank":205,"boundary":true,"min_zoom":0.0,"id":3734},"arcs":[48]},{"type":"LineString","properties":{"source":"naturalearthdata.com","kind":"ocean","sort_rank":205,"boundary":true,"min_zoom":0.0,"id":3735},"arcs":[49]},{"type":"LineString","properties":{"source":"naturalearthdata.com","kind":"ocean","sort_rank":205,"boundary":true,"min_zoom":0.0,"id":4066},"arcs":[50]},{"type":"LineString","properties":{"source":"naturalearthdata.com","kind":"ocean","sort_rank":205,"boundary":true,"min_zoom":0.0,"id":4095},"arcs":[51]},{"type":"LineString","properties":{"source":"naturalearthdata.com","kind":"ocean","sort_rank":205,"boundary":true,"min_zoom":0.0,"id":4096},"arcs":[52]},{"type":"LineString","properties":{"source":"naturalearthdata.com","kind":"ocean","sort_rank":205,"boundary":true,"min_zoom":0.0,"id":4097},"arcs":[53]},{"type":"LineString","properties":{"source":"naturalearthdata.com","kind":"ocean","sort_rank":205,"boundary":true,"min_zoom":0.0,"id":4098},"arcs":[54]}]},"buildings":{"type":"GeometryCollection","geometries":[]},"places":{"type":"GeometryCollection","geometries":[{"type":"Point","properties":{"name:pt":"S\u00e3o Crist\u00f3v\u00e3o e Nevis","name:cy":"Saint Kitts a Nevis","name:ko":"\uc138\uc778\ud2b8\ud06c\ub9ac\uc2a4\ud1a0\ud37c \ub124\ube44\uc2a4","name:kn":"\u0cb8\u0cc7\u0c82\u0c9f\u0ccd \u0c95\u0cbf\u0c9f\u0ccd\u0cb8\u0ccd \u0cae\u0ca4\u0ccd\u0ca4\u0cc1 \u0ca8\u0cc6\u0cb5\u0cbf\u0cb8\u0ccd","name:km":"\u179f\u1784\u17cb\u1783\u17b8\u178f \u1793\u17b7\u1784\u200b\u178e\u17c1\u179c\u17b8\u179f","name:kl":"Saint Kitts aamma Nevis","name:cs":"Svat\u00fd Kry\u0161tof a Nevis","alt_name:eo":"Sankta-Kito kaj Neviso","name:ki":"Santakitzi na Nevis","name:tr":"Saint Kitts ve Nevis","name:th":"\u0e1b\u0e23\u0e30\u0e40\u0e17\u0e28\u0e40\u0e0b\u0e19\u0e15\u0e4c\u0e04\u0e34\u0e15\u0e2a\u0e4c\u0e41\u0e25\u0e30\u0e40\u0e19\u0e27\u0e34\u0e2a","name:ti":"\u1245\u12f1\u1235 \u12aa\u1275\u1235 \u12a5\u1293 \u1294\u126a\u1235","name:ks":"\u0633\u06cc\u0646\u065b\u0679 \u06a9\u0650\u0679\u064e\u0633 \u062a\u06c1\u0655 \u0646\u06cc\u0648\u0650\u0633","name:to":"Seini Kitisi mo Nevisi","name:sv":"Saint Kitts och Nevis","name:or":"\u0b38\u0b47\u0b23\u0b4d\u0b1f \u0b15\u0b3f\u0b1f\u0b38\u0b4d \u0b0f\u0b23\u0b4d\u0b21 \u0b28\u0b47\u0b2d\u0b3f\u0b38\u0b4d","name:pl":"Saint Kitts i Nevis","name:ta":"\u0b9a\u0bc6\u0baf\u0bbf\u0ba9\u0bcd\u0b9f\u0bcd \u0b95\u0bbf\u0b9f\u0bcd\u0bb8\u0bcd \u0bae\u0bb1\u0bcd\u0bb1\u0bc1\u0bae\u0bcd \u0ba8\u0bc6\u0bb5\u0bbf\u0bb8\u0bcd","name:ca":"Saint Christopher i Nevis","name:te":"\u0c38\u0c46\u0c02\u0c1f\u0c4d \u0c15\u0c3f\u0c1f\u0c4d\u0c1f\u0c4d\u0c38\u0c4d \u0c2e\u0c30\u0c3f\u0c2f\u0c41 \u0c28\u0c46\u0c35\u0c3f\u0c38\u0c4d","name:hu":"Saint Christopher \u00e9s Nevis","name:ro":"Sf\u00e2ntul Kitts \u0219i Nevis","name:ka":"\u10e1\u10d4\u10dc\u10e2-\u10d9\u10d8\u10e2\u10e1\u10d8 \u10d3\u10d0 \u10dc\u10d4\u10d5\u10d8\u10e1\u10d8","name:hr":"Sveti Kristofor i Nevis","name:da":"Saint Kitts og Nevis","name:de":"St. Kitts und Nevis","name:dz":"\u0f66\u0f7a\u0f53\u0f4a\u0f0b \u0f40\u0f72\u0f4a\u0f66\u0f0b \u0f51\u0f44\u0f0b \u0f53\u0f7a\u0f0b\u0f56\u0f72\u0f66","source":"openstreetmap.org","name:lv":"Sentkitsa un Nevisa","name:lt":"Sen Kristoferis ir Nevis","name:hi":"\u0938\u0947\u0902\u091f \u0915\u093f\u091f\u094d\u0938 \u0914\u0930 \u0928\u0947\u0935\u093f\u0938","name:he":"\u05e1\u05e0\u05d8 \u05e7\u05d9\u05d8\u05e1 \u05d5\u05e0\u05d5\u05d5\u05d9\u05e1","kind":"country","name:ur":"\u0633\u06cc\u0646\u0679 \u06a9\u0679\u0633 \u0627\u0648\u0631 \u0646\u06cc\u0648\u06cc\u0633","name:lb":"Saint Kitts a Nevis","name:lg":"Senti Kitisi ne Nevisi","name:uk":"\u0421\u0435\u043d\u0442-\u041a\u0456\u0442\u0442\u0441 \u0456 \u041d\u0435\u0432\u0456\u0441","name:hy":"\u054d\u0565\u0576\u057f \u053f\u056b\u057f\u057d-\u0546\u0565\u057e\u056b\u057d","name:li":"Saint-Kitts","name:ln":"S\u00e1ntu kr\u00edstofe mp\u00e9 Nev\u025b\u0300s","name:lo":"\u0ec0\u0e8a\u0ea3\u0e99 \u0e84\u0eb4\u0e94 \u0ec1\u0ea5\u0eb0 \u0ec0\u0e99\u0ea7\u0eb4\u0e94","population":42696,"name:el":"\u0386\u03b3\u03b9\u03bf\u03c2 \u03a7\u03c1\u03b9\u03c3\u03c4\u03cc\u03c6\u03bf\u03c1\u03bf\u03c2 \u03ba\u03b1\u03b9 \u039d\u03ad\u03b2\u03b9\u03c2","name:eo":"Sankta Kristoforo kaj Neviso","name":"Saint Kitts and Nevis","official_name":"Federation of Saint Kitts and Nevis","name:ee":"Saint Kitis kple Nevis nutome","min_zoom":2.0,"name:gu":"\u0ab8\u0ac7\u0a82\u0a9f \u0a95\u0abf\u0a9f\u0acd\u0ab8 \u0a8f\u0a82\u0aa1 \u0aa8\u0ac7\u0ab5\u0abf\u0ab8","name:eu":"Saint Kitts eta Nevis","name:et":"Saint Kitts ja Nevis","name:nl":"Saint Kitts en Nevis","name:es":"San Crist\u00f3bal y Nieves","name:ia":"Sancte Christophoro e Nevis","name:rm":"Saint Kitts e Nevis","name:rn":"Sekitsi na Nevisi","name:az":"Seynt Kits v\u0259 Nevis","name:id":"Saint Kitts dan Nevis","name:ms":"Saint Kitts dan Nevis","name:mr":"\u0938\u0947\u0902\u091f \u0915\u093f\u091f\u094d\u0938 \u0906\u0923\u093f \u0928\u0947\u0935\u094d\u0939\u093f\u0938","name:ar":"\u0633\u0627\u0646\u062a \u0643\u064a\u062a\u0633 \u0648\u0646\u064a\u0641\u0633","name:io":"Santa Kitts e Nevis","name:is":"Sankti Krist\u00f3fer og Nevis","name:am":"\u1245\u12f1\u1235 \u12aa\u1275\u1235 \u12a5\u1293 \u1294\u126a\u1235","name:it":"Saint Kitts e Nevis","name:vi":"Saint Kitts v\u00e0 Nevis","name:ru":"\u0421\u0435\u043d\u0442-\u041a\u0438\u0442\u0441 \u0438 \u041d\u0435\u0432\u0438\u0441","name:mn":"\u0421\u0435\u043d\u0442-\u041a\u0438\u0442\u0442\u0441 \u0431\u0430 \u041d\u0435\u0432\u0438\u0441","id":424310758,"name:mk":"\u0421\u0435\u043d\u0442 \u041a\u0440\u0438\u0441\u0442\u043e\u0444\u0435\u0440 \u0438 \u041d\u0435\u0432\u0438\u0441","name:af":"Sint Kitts en Nevis","name:zu":"i-Saint Kitts ne-Nevis","name:ha":"San Kiti Da Nebis","name:nn":"St. Christopher og Nevis","name:ff":"Sent Kits e Newis","name:fi":"Saint Kitts ja Nevis","name:no":"Saint Kitts og Nevis","name:mg":"Saint-Christophe-et-Ni\u00e9v\u00e8s","name:fo":"Saint Kitts og Nevis","name:fr":"Saint-Christophe-et-Ni\u00e9v\u00e8s","name:fy":"Sint Kitts en Nevis","name:vo":"Sankite\u00e4n e Nevise\u00e4n","name:zh":"\u5723\u57fa\u8328\u548c\u5c3c\u7ef4\u65af","name:gv":"Noo Kitts as Nevis","name:sl":"Saint Kitts in Nevis","name:sk":"Sv\u00e4t\u00fd Kri\u0161tof a Nevis","name:ja":"\u30bb\u30f3\u30c8\u30af\u30ea\u30b9\u30c8\u30d5\u30a1\u30fc\u30fb\u30cd\u30a4\u30d3\u30b9","name:si":"\u0dc1\u0dcf\u0db1\u0dca\u0dad \u0d9a\u0dd2\u0da7\u0dca\u0dc3\u0dca \u0dc3\u0dc4 \u0db1\u0dda\u0dc0\u0dd2\u0dc3\u0dca","name:fa":"\u0633\u0646\u062a \u06a9\u06cc\u062a\u0633 \u0648 \u0646\u0648\u06cc\u0633","name:sg":"S\u00ean-Kr\u00efst\u00f4fo-na-Nev\u00eesi","name:se":"Saint Kitts ja Nevis","name:ne":"\u0938\u0947\u0928\u094d\u091f \u0915\u093f\u091f\u094d\u0938 \u0930 \u0928\u0947\u092d\u093f\u0938","name:br":"Saint Kitts ha Nevis","name:bs":"Sent Kits i Nevis","name:bm":"Krist\u0254fo-Senu-ni-\u019dev\u025bs","name:bn":"\u09b8\u09c7\u09a8\u09cd\u099f \u0995\u09bf\u099f\u09b8 \u0993 \u09a8\u09c7\u09ad\u09bf\u09b8","name:bo":"\u0f66\u0f7a\u0f53\u0f9a\u0f0d \u0f40\u0f72\u0f4a\u0f9a\u0f66\u0f84\u0f0d \u0f51\u0f44\u0f0c\u0f0d \u0f53\u0f7a\u0f0b\u0f56\u0f72\u0f66\u0f84\u0f0d","name:ml":"\u0d38\u0d46\u0d2f\u0d4d\u0d7b\u0d31\u0d4d \u0d15\u0d3f\u0d31\u0d4d\u0d31\u0d4d\u0d38\u0d41\u0d02 \u0d28\u0d46\u0d35\u0d3f\u0d38\u0d41\u0d02","name:sw":"Santakitzi na Nevis","name:be":"\u0421\u0432\u044f\u0442\u044b \u041a\u0456\u0442\u0441 \u0456 \u041d\u0435\u0432\u0456\u0441","name:bg":"\u0421\u0435\u0439\u043d\u0442 \u041a\u0438\u0442\u0441 \u0438 \u041d\u0435\u0432\u0438\u0441","name:sr":"\u0421\u0432\u0435\u0442\u0438 \u041a\u0438\u0442\u0441 \u0438 \u041d\u0435\u0432\u0438\u0441","name:sq":"Saint Kitts e Nevis","name:ga":"San Cr\u00edost\u00f3ir-Nimheas","name:gd":"Naomh Cr\u00ecstean agus Nibheis","name:gl":"San Cristovo e Nevis","name:yo":"Or\u00edl\u1eb9\u0301\u00e8de Kiiti ati Neefi","name:ak":"Saint Kitts ne N\u025bves"},"coordinates":[3445,548]},{"type":"Point","properties":{"name:sk":"Sv\u00e4t\u00fd Martin","name:el":"\u0386\u03b3\u03b9\u03bf\u03c2 \u039c\u03b1\u03c1\u03c4\u03af\u03bd\u03bf\u03c2","name:he":"\u05e1\u05e0\u05d8 \u05de\u05d0\u05e8\u05d8\u05df","name:eo":"Sankta Marteno","official_name":"Land Sint Maarten","min_zoom":2.0,"name:uk":"\u0421\u0456\u043d\u0442-\u041c\u0430\u0440\u0442\u0435\u043d","name:ru":"\u0421\u0438\u043d\u0442-\u041c\u0430\u0440\u0442\u0435\u043d","id":271048940,"population":37429,"name:fa":"\u0633\u0646\u062a\u200c\u0645\u0627\u0631\u062a\u0646","kind":"country","name":"Sint Maarten","source":"openstreetmap.org","name:fr":"Saint-Martin","name:fy":"Sint-Marten","name:zh":"\u5723\u9a6c\u4e01\u5c9b"},"coordinates":[3237,1085]},{"type":"Point","properties":{"name:pt":"Ilhas Virgens Brit\u00e2nicas","name:cy":"Ynysoedd Prydeinig y Wyryf","name:ko":"\uc601\uad6d\ub839 \ubc84\uc9c4 \uc544\uc77c\ub79c\ub4dc","name:kn":"\u0cac\u0ccd\u0cb0\u0cbf\u0c9f\u0cbf\u0cb7\u0ccd \u0cb5\u0cb0\u0ccd\u0c9c\u0cbf\u0ca8\u0ccd \u0ca6\u0ccd\u0cb5\u0cc0\u0caa\u0c97\u0cb3\u0cc1","name:km":"\u1780\u17c4\u17c7\u200b\u179c\u17ba\u1787\u17b7\u1793\u200b\u1785\u1780\u17d2\u179a\u1797\u1796\u200b\u17a2\u1784\u17cb\u1782\u17d2\u179b\u17c1\u179f","name:cs":"Britsk\u00e9 Panensk\u00e9 ostrovy","name:ki":"Visiwa vya Virgin vya Uingereza","name:tr":"Birle\u015fik Krall\u0131k Virgin Adalar\u0131","name:th":"\u0e2b\u0e21\u0e39\u0e48\u0e40\u0e01\u0e32\u0e30\u0e1a\u0e23\u0e34\u0e15\u0e34\u0e0a\u0e40\u0e27\u0e2d\u0e23\u0e4c\u0e08\u0e34\u0e19","name:ti":"\u12e8\u12a5\u1295\u130d\u120a\u12dd \u12f5\u1295\u130d\u120d \u12f0\u1234\u1276\u127d","name:ks":"\u0628\u064e\u0631\u0637\u0627\u0646\u0648\u06cc \u0624\u0631\u062c\u0650\u0646 \u062c\u0654\u0632\u06cc\u0656\u0631\u0655","name:to":"\u02bbOtumotu Vilikini fakapilit\u0101nia","name:sv":"Brittiska Jungfru\u00f6arna","name:or":"\u0b2c\u0b4d\u0b30\u0b3f\u0b1f\u0b3f\u0b36\u0b4d \u0b2d\u0b30\u0b4d\u0b1c\u0b3f\u0b28\u0b4d \u0b26\u0b4d\u0b2c\u0b40\u0b2a\u0b2a\u0b41\u0b1e\u0b4d\u0b1c","name:pl":"Brytyjskie Wyspy Dziewicze","name:ta":"\u0baa\u0bbf\u0bb0\u0bbf\u0b9f\u0bcd\u0b9f\u0bc0\u0bb7\u0bcd \u0b95\u0ba9\u0bcd\u0ba9\u0bbf\u0ba4\u0bcd \u0ba4\u0bc0\u0bb5\u0bc1\u0b95\u0bb3\u0bcd","name:ca":"Illes Verges Brit\u00e0niques","name:te":"\u0c2c\u0c4d\u0c30\u0c3f\u0c1f\u0c3f\u0c37\u0c4d \u0c35\u0c30\u0c4d\u0c1c\u0c3f\u0c28\u0c4d \u0c26\u0c40\u0c35\u0c41\u0c32\u0c41","name:vi":"Qu\u1ea7n \u0111\u1ea3o Virgin thu\u1ed9c Anh","name:ro":"Insulele Virgine Britanice","name:hr":"Britanski Djevi\u010danski otoci","name:da":"Britiske Jomfru\u00f8er","name:de":"Britische Jungferninseln","name:dz":"\u0f5d\u0f62\u0f47\u0f72\u0f53\u0f0b\u0f42\u0fb3\u0f72\u0f44\u0f0b\u0f5a\u0f7c\u0f58\u0f0b \u0f56\u0fb2\u0f71\u0f72\u0f0b\u0f4a\u0f72\u0f64\u0f0b\u0f58\u0f44\u0f60\u0f0b\u0f41\u0f7c\u0f44\u0f66","source":"openstreetmap.org","name:lv":"Britu Vird\u017e\u012bnu salas","name:lt":"Mergel\u0117s salos (Brit\u0173)","name:hi":"\u092c\u094d\u0930\u093f\u091f\u093f\u0936 \u0935\u0930\u094d\u091c\u093f\u0928 \u0926\u094d\u0935\u0940\u092a\u0938\u092e\u0942\u0939","name:he":"\u05d0\u05d9\u05d9 \u05d4\u05d1\u05ea\u05d5\u05dc\u05d4 \u05d4\u05d1\u05e8\u05d9\u05d8\u05d9\u05d9\u05dd","kind":"country","name:ur":"\u0628\u0631\u0679\u0634 \u0648\u0631\u062c\u0646 \u0622\u0626\u0644\u06cc\u0646\u0688\u0632","name:lb":"Britesch Joffereninselen","name:la":"Britannicae Virginis Insulae","name:lg":"Bizinga ebya Virigini ebitwalibwa Bungereza","name:uk":"\u0411\u0440\u0438\u0442\u0430\u043d\u0441\u044c\u043a\u0456 \u0412\u0456\u0440\u0433\u0456\u043d\u0441\u044c\u043a\u0456 \u043e\u0441\u0442\u0440\u043e\u0432\u0438","name:hu":"Brit Virgin-szigetek","name:ln":"Bisanga bya Vierzi ya Ang\u025bl\u025bt\u025b\u0301l\u025b","name:lo":"\u0e9a\u0ea3\u0eb4\u0e97\u0eb4\u0e94\u0ec0\u0ea7\u0eb5\u0e88\u0eb4\u0e99\u0ec4\u0ead\u0ec1\u0ea5\u0e99","population":31148,"name:el":"\u0392\u03c1\u03b5\u03c4\u03b1\u03bd\u03b9\u03ba\u03ad\u03c2 \u03a0\u03b1\u03c1\u03b8\u03ad\u03bd\u03bf\u03b9 \u039d\u03ae\u03c3\u03bf\u03b9","name:eo":"Britaj Virgulininsuloj","name":"British Virgin Islands","official_name":"Virgin Islands","name:ee":"Britaint\u0254wo \u0192e Virgin \u0192udomekpowo nutome","min_zoom":2.0,"name:gu":"\u0aac\u0acd\u0ab0\u0abf\u0a9f\u0abf\u0ab6 \u0ab5\u0ab0\u0acd\u0a9c\u0abf\u0aa8 \u0a86\u0a87\u0ab2\u0ac7\u0aa8\u0acd\u0aa1","name:eu":"Birjina britainiar uharteak","name:et":"Briti Neitsisaared","name:nl":"Britse Maagdeneilanden","name:es":"Islas V\u00edrgenes Brit\u00e1nicas","name:rm":"Inslas Verginas Britannicas","name:rn":"Ibirwa by'isugi by'Abongereza","name:az":"Britaniya Virgin Adalar\u0131","name:id":"Kepulauan Virgin Britania Raya","name:mr":"\u092c\u094d\u0930\u093f\u091f\u093f\u0936 \u0935\u094d\u0939\u0930\u094d\u091c\u093f\u0928 \u092c\u0947\u091f\u0947","name:ar":"\u062c\u0632\u0631 \u0641\u064a\u0631\u062c\u0646 \u0627\u0644\u0628\u0631\u064a\u0637\u0627\u0646\u064a\u0629","name:my":"\u1017\u103c\u102d\u1010\u102d\u101e\u103b\u103e \u1017\u102c\u1002\u103b\u1004\u103a\u1038 \u1000\u103b\u103d\u1014\u103a\u1038\u1005\u102f","name:io":"Virgin Insuli Britaniana","name:is":"Bresku J\u00f3mfr\u00faaeyjar","name:am":"\u12e8\u12a5\u1295\u130d\u120a\u12dd \u12f5\u1295\u130d\u120d \u12f0\u1234\u1276\u127d","name:it":"Isole Vergini Britanniche","name:ml":"\u0d2c\u0d4d\u0d30\u0d3f\u0d1f\u0d4d\u0d1f\u0d40\u0d37\u0d4d \u0d35\u0d3f\u0d7c\u0d1c\u0d3f\u0d7b \u0d26\u0d4d\u0d35\u0d40\u0d2a\u0d41\u0d15\u0d7e","name:ru":"\u0412\u0438\u0440\u0433\u0438\u043d\u0441\u043a\u0438\u0435 \u041e\u0441\u0442\u0440\u043e\u0432\u0430 (\u0411\u0440\u0438\u0442.)","name:mn":"\u0412\u0438\u0440\u0436\u0438\u043d\u0438\u0439 \u0410\u0440\u043b\u0443\u0443\u0434, \u0411\u0440\u0438\u0442\u0430\u043d\u0438\u0439\u043d","id":424311891,"name:mk":"\u0411\u0440\u0438\u0442\u0430\u043d\u0441\u043a\u0438 \u0414\u0435\u0432\u0441\u0442\u0432\u0435\u043d\u0438 \u041e\u0441\u0442\u0440\u043e\u0432\u0438","name:af":"Brits-Maagde-eilande","name:zu":"i-British Virgin Islands","name:ha":"Tsibirin Birjin Na Birtaniya","name:nn":"Dei britiske jomfru\u00f8yane","name:ff":"duu\u0257e kecce britanii","name:fi":"Brittil\u00e4iset Neitsytsaaret","name:no":"De britiske Jomfru\u00f8yene","name:mg":"Nosy britanika virijiny","name:fo":"St\u00f3ra Bretlands J\u00f3mfr\u00faoyggjarnar","name:fr":"\u00celes Vierges britanniques","name:zh":"\u82f1\u5c5e\u7ef4\u5c14\u4eac\u7fa4\u5c9b","name:gv":"Ellanyn Goaldagh ny Moidyn","name:sn":"Zvitsuwa zveHingirandi","name:sl":"Britanski Devi\u0161ki otoki","name:sk":"Britsk\u00e9 Panensk\u00e9 ostrovy","name:ja":"\u82f1\u9818\u30f4\u30a1\u30fc\u30b8\u30f3\u8af8\u5cf6","name:si":"\u0db6\u0dca\u200d\u0dbb\u0dd2\u0dad\u0dcf\u0db1\u0dca\u200d\u0dba \u0dc0\u0dbb\u0dca\u0da2\u0dd2\u0db1\u0dca \u0daf\u0dd6\u0db4\u0dad\u0dca","name:fa":"\u062c\u0632\u0627\u06cc\u0631 \u0648\u06cc\u0631\u062c\u06cc\u0646 \u0628\u0631\u06cc\u062a\u0627\u0646\u06cc\u0627","name:sg":"\u00c2z\u00f4\u00e2 Vi\u00eer\u00eeggo t\u00ee Angl\u00ebe","name:se":"Brittania Virgin-sullot","name:ne":"\u092c\u0947\u0932\u093e\u092f\u0924\u0940 \u092d\u0930\u094d\u091c\u093f\u0928 \u091f\u093e\u092a\u0941","name:br":"Inizi Gwerc\u02bch Breizh-Veur","name:bs":"Britanska Devi\u010danska Ostrva","name:bm":"Angil\u025b ka Sungurunnin Gun","name:bn":"\u09ac\u09cd\u09b0\u09bf\u099f\u09bf\u09b6 \u09ad\u09be\u09b0\u09cd\u099c\u09bf\u09a8 \u09a6\u09cd\u09ac\u09c0\u09aa\u09aa\u09c1\u099e\u09cd\u099c","name:sw":"Visiwa vya Virgin vya Uingereza","name:be":"\u0411\u0440\u044b\u0442\u0430\u043d\u0441\u043a\u0456\u044f \u0412\u0456\u0440\u0434\u0436\u044b\u043d\u0441\u043a\u0456\u044f \u0430\u0441\u0442\u0440\u0430\u0432\u044b","name:bg":"\u0411\u0440\u0438\u0442\u0430\u043d\u0441\u043a\u0438 \u0412\u0438\u0440\u0434\u0436\u0438\u043d\u0441\u043a\u0438 \u043e\u0441\u0442\u0440\u043e\u043d\u0438","name:sr":"\u0411\u0440\u0438\u0442\u0430\u043d\u0441\u043a\u0430 \u0414\u0435\u0432\u0438\u0447\u0430\u043d\u0441\u043a\u0430 \u041e\u0441\u0442\u0440\u0432\u0430","name:ga":"Oile\u00e1in Bhriotanacha na Maighdean","name:gd":"Eileanan Breatannach na Maighdinn","name:gl":"Illas Virxes Brit\u00e1nicas","name:yo":"Or\u00edl\u1eb9\u0301\u00e8de Et\u00edkun F\u00e1g\u00edn\u00ec ti \u00ecl\u00fa B\u00edr\u00edt\u00eds\u00ec","name:ak":"Britainfo Virgin Islands"},"coordinates":[2136,1363]},{"type":"Point","properties":{"name:ka":"\u10d0\u10dc\u10d2\u10d5\u10d8\u10da\u10d0","name:ko":"\uc548\uae38\ub77c","name:kn":"\u0c86\u0c82\u0c97\u0cc1\u0caf\u0cbf\u0cb2\u0ccd\u0cb2\u0cbe","name:km":"\u17a2\u1784\u17cb\u1780\u17bc\u17a1\u17b6","name:kw":"Angwilla","name:th":"\u0e41\u0e2d\u0e07\u0e01\u0e27\u0e34\u0e25\u0e25\u0e32","name:ti":"\u12a0\u1295\u1309\u12a2\u120b","name:ks":"\u0627\u06cc\u0646\u065b\u06af\u0648\u0650\u0644\u0627","name:to":"Anikuila","name:tl":"Anggilya","name:pa":"\u0a10\u0a02\u0a17\u0a41\u0a08\u0a32\u0a3e","name:or":"\u0b06\u0b19\u0b4d\u0b17\u0b41\u0b07\u0b32\u0b4d\u0b32\u0b3e","name:ta":"\u0b85\u0b99\u0bcd\u0b95\u0bc1\u0baf\u0bcd\u0bb2\u0bbe","name:te":"\u0c06\u0c02\u0c17\u0c35\u0c3f\u0c32\u0c4d\u0c32\u0c3e","name:ln":"Angiy\u025b","name:ba":"\u0410\u043d\u0433\u0438\u043b\u044c\u044f","name:dz":"\u0f68\u0f44\u0f0b\u0f42\u0f72\u0f0b\u0f63","source":"openstreetmap.org","name:dv":"\u0787\u07a6\u0782\u07b0\u078e\u07a9\u078d\u07a7","name:lv":"Angilja","name:lt":"Angilija","name:hi":"\u090f\u0902\u0917\u0941\u0907\u0932\u093e","name:he":"\u05d0\u05e0\u05d2\u05d9\u05dc\u05d4","min_zoom":2.0,"name:eo":"Angvilo","name:ha":"Angila","name:lg":"Angwila","name:uk":"\u0410\u043d\u0433\u0456\u043b\u044c\u044f","name:hy":"\u0531\u0576\u0563\u056b\u056c\u056b\u0561","name:ug":"\u0626\u0627\u0646\u06af\u06cb\u0649\u0644\u0644\u0627","name:hr":"Angvila","name:lo":"\u0ec1\u0ead\u0e99\u0e81\u0eb4\u0ea5\u0eb2","population":15423,"name:el":"\u0391\u03b3\u03ba\u03af\u03bb\u03b1","kind":"country","name":"Anguilla","name:ee":"Anguilla nutome","name:is":"Angvilla","name:eu":"Angila","name:es":"Anguila","name:mt":"Angwilla","name:rn":"Angwila","name:az":"Angilya","name:mr":"\u0905\u0901\u0917\u094d\u0935\u093f\u0932\u093e","name:ur":"\u0627\u0646\u06af\u0648\u0626\u06cc\u0644\u0627","name:ar":"\u0623\u0646\u062c\u0648\u064a\u0644\u0627","name:my":"\u1021\u1014\u103a\u1000\u103d\u102e\u101c\u102c","name:io":"Anguila","name:ak":"Anguila","name:am":"\u12a0\u1295\u1309\u12a2\u120b","name:an":"Anguila","name:ml":"\u0d06\u0d7b\u0d17\u0d4d\u0d35\u0d3f\u0d32\u0d4d\u0d32","name:rw":"Angwiya","id":433483517,"name:mk":"\u0410\u043d\u0433\u0432\u0438\u043b\u0430","name:zu":"i-Anguilla","name:mn":"\u0410\u043d\u0433\u0438\u043b\u044c\u044f","name:ff":"Anngiyaa","name:zh-yue":"\u5b89\u572d\u62c9","name:zh":"\u5b89\u572d\u62c9","name:sn":"Anguila","name:sl":"Angvila","name:ja":"\u30a2\u30f3\u30ae\u30e9","name:si":"\u0d87\u0db1\u0dca\u0d9c\u0dd4\u0dba\u0dd2\u0dbd\u0dcf\u0dc0","name:sh":"Angvila","name:sg":"Ang\u00fb\u00eela","name:ne":"\u0906\u0919\u094d\u0917\u0941\u0907\u0932\u093e","name:bs":"Angvila","name:bm":"Angiya","name:bn":"\u098f\u09cd\u09af\u09be\u0999\u09cd\u0997\u09c1\u0987\u09b2\u09be","name:bo":"\u0f68\u0f44\u0f0b\u0f42\u0f74\u0f60\u0f72\u0f0b\u0f63\u0f0d","name:ru":"\u0410\u043d\u0433\u0438\u043b\u044c\u044f","name:be":"\u0410\u043d\u0433\u0456\u043b\u044c\u044f","name:bg":"\u0410\u043d\u0433\u0443\u0438\u043b\u0430","name:wo":"Angila","name:sr":"\u0410\u043d\u0433\u0432\u0438\u043b\u0430","name:ga":"Anga\u00edle","name:gl":"Anguila","name:fa":"\u0622\u0646\u06af\u0648\u06cc\u0644\u0627","name:yo":"Or\u00edl\u1eb9\u0301\u00e8de \u00c0\u00e0ng\u00fal\u00edl\u00e0","name:gu":"\u0a8d\u0a82\u0a97\u0acd\u0ab5\u0abf\u0ab2\u0abe"},"coordinates":[3222,1204]},{"type":"Point","properties":{"name:ka":"\u10db\u10dd\u10dc\u10e1\u10d4\u10e0\u10d0\u10e2\u10d8","name:ko":"\ubaac\ud2b8\uc138\ub77c\ud2b8","name:kn":"\u0cae\u0cbe\u0c82\u0c9f\u0ccd\u200c\u0cb8\u0cc6\u0cb0\u0cc7\u0c9f\u0ccd","name:km":"\u1798\u17c9\u17bb\u1784\u200b\u179f\u17c1\u179a\u17c9\u1784\u17cb","name:kk":"\u041c\u043e\u043d\u0442\u0441\u0435\u0440\u0440\u0430\u0442","name:ki":"Montserrati","name:th":"\u0e21\u0e2d\u0e19\u0e15\u0e4c\u0e40\u0e0b\u0e2d\u0e23\u0e4c\u0e23\u0e31\u0e15","name:ti":"\u121e\u1295\u1275\u1234\u122b\u1275","name:ks":"\u0645\u0627\u0646\u065b\u0679\u0633\u06cc\u0631\u0627\u0679","name:to":"Mo\u02bbungaselati","name:pa":"\u0a2e\u0a3e\u0a02\u0a1f\u0a38\u0a30\u0a3e\u0a24","name:or":"\u0b2e\u0b23\u0b4d\u0b1f\u0b47\u0b38\u0b47\u0b30\u0b3e\u0b1f\u0b4d","name:ta":"\u0bae\u0bcc\u0ba9\u0bcd\u0b9f\u0bcd\u0b9a\u0bc6\u0bb0\u0bbe\u0b9f\u0bcd","name:te":"\u0c2e\u0c4b\u0c02\u0c1f\u0c4d\u0c38\u0c47\u0c30\u0c4d\u0c30\u0c3e\u0c1f\u0c4d","name:hr":"Montserat","name:ru":"\u041c\u043e\u043d\u0442\u0441\u0435\u0440\u0440\u0430\u0442","name:dz":"\u0f58\u0f7c\u0f53\u0f0b\u0f66\u0f0b\u0f62\u0f4a","source":"openstreetmap.org","name:dv":"\u0789\u07ae\u0782\u07b0\u0790\u07ac\u0783\u07a7\u0793\u07aa","name:lv":"Montserrata","name:lt":"Montseratas","name:hi":"\u092e\u0949\u0928\u094d\u091f\u094d\u0938\u0947\u0930\u093e\u091f","name:he":"\u05de\u05d5\u05e0\u05e1\u05e8\u05d0\u05d8","kind":"country","name:ha":"Manserati","name:lg":"Monteseraati","name:uk":"\u041c\u043e\u043d\u0442\u0441\u0435\u0440\u0440\u0430\u0442","name:hy":"\u0544\u0578\u0576\u057f\u057d\u0565\u0580\u0561\u057f","name:ug":"\u0645\u0648\u0646\u062a\u0633\u06d5\u0631\u0631\u0627\u062a","name:ln":"M\u0254sera","name:lo":"\u0ea1\u0ead\u0e99\u0ec0\u0e8a\u0eb5\u0ea5\u0eb2\u0e94","population":4922,"name:el":"\u039c\u03bf\u03bd\u03c4\u03c3\u03b5\u03c1\u03ac\u03c4","name:eo":"Moncerato","name":"Montserrat","name:ee":"Montserrat nutome","min_zoom":2.0,"name:yo":"Or\u00edl\u1eb9\u0301\u00e8de Motserati","alt_name:el":"\u039c\u03bf\u03bd\u03c4\u03c3\u03b5\u03c1\u03c1\u03ac\u03c4","name:rn":"Monteserati","name:az":"Montserat","name:mr":"\u092e\u0949\u0928\u094d\u091f\u094d\u0938\u0947\u0930\u093e\u091f","name:ur":"\u0645\u0648\u0646\u0679\u0633\u06cc\u0631\u0627\u0679","name:ar":"\u0645\u0648\u0646\u062a\u0633\u0631\u0627\u062a","name:ak":"Mantserat","name:am":"\u121e\u1295\u1275\u1234\u122b\u1275","name:an":"Isla de Montserrat","name:ml":"\u0d2e\u0d4b\u0d23\u0d4d\u0d1f\u0d4d\u0d38\u0d46\u0d31\u0d3e\u0d31\u0d4d\u0d31\u0d4d","name:rw":"Monserati","id":424314005,"name:mk":"\u041c\u043e\u043d\u0441\u0435\u0440\u0430\u0442","name:zu":"i-Montserrat","name:mn":"\u041c\u043e\u043d\u0442\u0441\u0435\u0440\u0440\u0430\u0442","name:ff":"Monseraat","name:ba":"\u041c\u043e\u043d\u0442\u0441\u0435\u0440\u0440\u0430\u0442","name:zh-yue":"\u8499\u585e\u62c9\u7279\u5cf6","name:zh":"\u8499\u7279\u585e\u62c9\u7279","name:ja":"\u30e2\u30f3\u30c8\u30bb\u30e9\u30c8","name:si":"\u0db8\u0ddc\u0db1\u0dca\u0dc3\u0dd9\u0dbb\u0dcf\u0da7\u0dca","name:fa":"\u0645\u0648\u0646\u062a\u0633\u0631\u0627\u062a","name:sg":"Monser\u00e2te","name:ne":"\u092e\u094b\u0928\u094d\u091f\u0938\u0947\u0930\u094d\u0930\u093e\u091f","name:bs":"Monserat","name:bm":"Mo\u014bsera","name:bn":"\u09ae\u09a8\u09cd\u099f\u09b8\u09c7\u09b0\u09be\u099f","name:sw":"Montserrati","name:be":"\u041c\u0430\u043d\u0441\u0435\u0440\u0430\u0442","name:bg":"\u041c\u043e\u043d\u0441\u0435\u0440\u0430\u0442","name:sr":"\u041c\u043e\u043d\u0441\u0435\u0440\u0430\u0442","name:sq":"Montserrati","name:ga":"Montsarat","name:gd":"Montsarat","name:gl":"Illa Montserrat","name:gu":"\u0aae\u0acb\u0a82\u0a9f\u0ab8\u0ac7\u0ab0\u0abe\u0aa4"},"coordinates":[3865,81]},{"type":"Point","properties":{"name:el":"\u0386\u03b3\u03b9\u03bf\u03c2 \u039c\u03b1\u03c1\u03c4\u03af\u03bd\u03bf\u03c2 (\u0393\u03b1\u03bb\u03bb\u03af\u03b1)","kind":"region","int_name":"Saint Martin (French part)","name:sk":"Sv\u00e4t\u00fd Martin","name":"Saint-Martin","kind_detail":"state","source":"openstreetmap.org","min_zoom":4.0,"name:nl":"Sint Maarten (Frankrijk)","id":271047515,"population":36286},"coordinates":[3243,1115]},{"type":"Point","properties":{"name:pt":"Ilhas Virgens dos Estados Unidos","name:ro":"Insulele Virgine Americane","name:nl":"Amerikaanse Maagdeneilanden","name:nn":"Dei amerikanske Jomfru\u00f8yane","name:tr":"ABD Virjin Adalar\u0131","name:sr":"\u0410\u043c\u0435\u0440\u0438\u0447\u043a\u0430 \u0414\u0435\u0432\u0438\u0447\u0430\u043d\u0441\u043a\u0430 \u041e\u0441\u0442\u0440\u0432\u0430","name:sv":"Amerikanska Jungfru\u00f6arna","name:cs":"Americk\u00e9 Panensk\u00e9 ostrovy","official_name":"Virgin Islands of the United States","min_zoom":4.0,"name:la":"Virgines Insulae Americanae","name:sk":"Americk\u00e9 Panensk\u00e9 ostrovy","name:it":"Isole Vergini americane","name:vi":"Qu\u1ea7n \u0111\u1ea3o Virgin thu\u1ed9c M\u1ef9","name:ru":"\u0410\u043c\u0435\u0440\u0438\u043a\u0430\u043d\u0441\u043a\u0438\u0435 \u0412\u0438\u0440\u0433\u0438\u043d\u0441\u043a\u0438\u0435 \u043e\u0441\u0442\u0440\u043e\u0432\u0430","name:hu":"Amerikai Virgin-szigetek","id":356559371,"kind":"region","name":"United States Virgin Islands","name:fi":"Yhdysvaltain Neitsytsaaret","name:da":"Amerikanske Jomfru\u00f8er","name:de":"Amerikanische Jungferninseln","source":"openstreetmap.org","name:fr":"\u00celes Vierges des \u00c9tats-Unis","name:es":"Islas V\u00edrgenes de los Estados Unidos","kind_detail":"state","name:et":"USA Neitsisaared","name:be":"\u0410\u043c\u0435\u0440\u044b\u043a\u0430\u043d\u0441\u043a\u0456\u044f \u0412\u0456\u0440\u0433\u0456\u043d\u0441\u043a\u0456\u044f \u0430\u0441\u0442\u0440\u0430\u0432\u044b","name:zh":"\u7f8e\u5c6c\u7dad\u723e\u4eac\u7fa4\u5cf6","name:yo":"\u00c0w\u1ecdn Er\u00e9k\u00f9\u1e63\u00f9 W\u00fand\u00ed\u00e1 ti Am\u1eb9\u0301r\u00edk\u00e0"},"coordinates":[2033,890]},{"type":"Point","properties":{"source":"openstreetmap.org","kind":"region","name":"Saba","kind_detail":"state","min_zoom":4.0,"id":2832371635},"coordinates":[3098,773]},{"type":"Point","properties":{"source":"naturalearthdata.com","kind":"locality","name":"San Juan","population":2478905,"region_capital":true,"min_zoom":5.0,"id":7090},"coordinates":[998,1392]},{"type":"Point","properties":{"source":"naturalearthdata.com","kind":"locality","name":"Basseterre","country_capital":true,"population":21887,"min_zoom":5.0,"id":6759},"coordinates":[3483,514]},{"type":"Point","properties":{"source":"naturalearthdata.com","kind":"locality","name":"Arecibo","population":69307,"min_zoom":6.0,"id":6151},"coordinates":[561,1392]}]},"transit":{"type":"GeometryCollection","geometries":[]},"pois":{"type":"GeometryCollection","geometries":[]},"boundaries":{"type":"GeometryCollection","geometries":[{"type":"LineString","properties":{"source":"naturalearthdata.com","kind":"country","sort_rank":262,"kind_detail":"2","min_zoom":0.0,"id":49},"arcs":[0]}]},"roads":{"type":"GeometryCollection","geometries":[{"type":"LineString","properties":{"source":"naturalearthdata.com","kind":"highway","kind_detail":"trunk","sort_rank":355,"landuse_kind":"urban_area","min_zoom":4.0,"id":2802},"arcs":[55]},{"type":"LineString","properties":{"source":"naturalearthdata.com","kind":"highway","sort_rank":355,"kind_detail":"trunk","min_zoom":4.0,"id":2802},"arcs":[56]},{"type":"LineString","properties":{"source":"naturalearthdata.com","kind":"major_road","kind_detail":"primary","sort_rank":380,"landuse_kind":"urban_area","min_zoom":4.0,"id":2804},"arcs":[57]},{"type":"LineString","properties":{"source":"naturalearthdata.com","kind":"highway","kind_detail":"motorway","sort_rank":383,"landuse_kind":"urban_area","min_zoom":4.0,"id":2809},"arcs":[58]},{"type":"LineString","properties":{"source":"naturalearthdata.com","kind":"highway","sort_rank":383,"kind_detail":"motorway","min_zoom":4.0,"id":2809},"arcs":[59]},{"type":"LineString","properties":{"source":"naturalearthdata.com","kind":"highway","kind_detail":"motorway","sort_rank":383,"landuse_kind":"urban_area","min_zoom":4.0,"id":2811},"arcs":[60]},{"type":"LineString","properties":{"source":"naturalearthdata.com","kind":"highway","sort_rank":383,"kind_detail":"motorway","min_zoom":4.0,"id":2811},"arcs":[61]},{"type":"LineString","properties":{"source":"naturalearthdata.com","kind":"highway","sort_rank":383,"kind_detail":"motorway","min_zoom":4.0,"id":2813},"arcs":[62]},{"type":"LineString","properties":{"source":"naturalearthdata.com","kind":"highway","sort_rank":383,"kind_detail":"motorway","min_zoom":4.0,"id":2815},"arcs":[63]},{"type":"LineString","properties":{"source":"naturalearthdata.com","kind":"highway","kind_detail":"motorway","sort_rank":383,"landuse_kind":"urban_area","min_zoom":4.0,"id":2816},"arcs":[64]},{"type":"MultiLineString","properties":{"source":"naturalearthdata.com","kind":"highway","sort_rank":383,"kind_detail":"motorway","min_zoom":4.0,"id":2816},"arcs":[[65],[66]]},{"type":"LineString","properties":{"source":"naturalearthdata.com","kind":"highway","kind_detail":"motorway","sort_rank":383,"landuse_kind":"urban_area","min_zoom":4.0,"id":2825},"arcs":[67]},{"type":"MultiLineString","properties":{"source":"naturalearthdata.com","kind":"highway","sort_rank":383,"kind_detail":"motorway","min_zoom":4.0,"id":2825},"arcs":[[68],[69]]},{"type":"LineString","properties":{"source":"naturalearthdata.com","kind":"major_road","sort_rank":380,"kind_detail":"primary","min_zoom":4.0,"id":2831},"arcs":[70]},{"type":"LineString","properties":{"source":"naturalearthdata.com","kind":"highway","kind_detail":"trunk","sort_rank":355,"landuse_kind":"urban_area","min_zoom":4.0,"id":2834},"arcs":[71]},{"type":"MultiLineString","properties":{"source":"naturalearthdata.com","kind":"highway","sort_rank":355,"kind_detail":"trunk","min_zoom":4.0,"id":2834},"arcs":[[72],[73]]},{"type":"LineString","properties":{"source":"naturalearthdata.com","kind":"highway","sort_rank":355,"kind_detail":"trunk","min_zoom":4.0,"id":3969},"arcs":[74]},{"type":"LineString","properties":{"source":"naturalearthdata.com","kind":"highway","sort_rank":383,"kind_detail":"motorway","min_zoom":4.0,"id":3972},"arcs":[75]}]},"earth":{"type":"GeometryCollection","geometries":[{"type":"MultiPolygon","properties":{"sort_rank":10,"source":"naturalearthdata.com","min_zoom":0.0,"kind":"earth","area":17769085275},"arcs":[[[76]],[[77]],[[78]],[[79]],[[80]],[[81]],[[82]],[[83]],[[84]],[[85]],[[86]],[[87]],[[88]],[[89]],[[90]],[[91]],[[92]],[[93]],[[94]],[[95]]]}]},"landuse":{"type":"GeometryCollection","geometries":[{"type":"MultiPolygon","properties":{"source":"naturalearthdata.com","kind":"urban_area","name":"","area":847850851,"sort_rank":11,"min_zoom":4.0},"arcs":[[[96]],[[97]],[[98]],[[99]],[[100]],[[101]],[[102]],[[103]],[[104]],[[105]]]},{"type":"Polygon","properties":{"kind":"park","area":2594690048,"sort_rank":24,"source":"openstreetmap.org","min_zoom":4.0,"tier":2,"id":-3682043,"osm_relation":true},"arcs":[[106]]}]}},"type":"Topology","transform":{"translate":[-67.5,16.6361918784],"scale":[0.001373291,0.0012956186]},"arcs":[[[3264,1078],[-50,20],[-15,3]],[[0,0],[0,4096],[4096,0],[0,-3727],[-6,-3],[-8,-8],[14,-7],[0,-7],[-5,-2],[-1,-7],[3,-8],[-3,-8],[-5,-11],[5,-7],[6,-4],[0,-297],[-4096,0]],[[2345,1594],[6,-1],[-10,26],[-26,10],[-64,-2],[7,-9],[14,-5],[32,-1],[41,-18]],[[167,1332],[6,-14],[7,-11],[12,-23],[13,-3],[16,-4],[7,-14],[11,-37],[10,-8],[5,-8],[-5,-9],[-6,-6],[-5,-6],[-8,-28],[1,-25],[-8,-8],[3,-13],[3,-8],[-7,-5],[-5,-7],[-1,-15],[10,-4],[9,2],[7,-4],[3,-4],[-2,-6],[-6,-3],[-6,-2],[-6,-3],[-17,-8],[0,-21],[3,-8],[11,-16],[8,0],[-5,17],[8,6],[16,-8],[25,-3],[9,-1],[10,2],[12,7],[10,8],[11,-3],[17,0],[17,-2],[14,-1],[17,-18],[10,-7],[14,-2],[0,7],[1,6],[3,3],[4,0],[8,-1],[11,2],[23,-1],[15,2],[17,5],[14,8],[9,12],[-10,0],[0,5],[9,6],[10,2],[6,-3],[0,-10],[29,0],[22,-9],[6,-1],[29,4],[13,-2],[5,-8],[5,2],[5,4],[12,-6],[8,1],[8,5],[8,4],[24,2],[10,2],[8,4],[10,1],[14,3],[12,-8],[12,-14],[14,-11],[15,-2],[21,14],[16,5],[12,0],[7,-1],[9,-5],[4,-5],[2,-5],[4,-4],[7,-2],[20,-2],[11,-3],[8,3],[14,13],[7,-6],[3,-4],[-2,-4],[-8,-2],[0,-4],[1,-2],[4,-5],[5,4],[7,1],[8,-1],[9,1],[43,23],[15,4],[22,-1],[5,1],[22,8],[9,2],[15,-1],[16,-4],[17,0],[37,13],[28,17],[14,13],[-8,23],[4,5],[17,4],[4,2],[10,13],[2,21],[26,40],[12,13],[12,5],[15,4],[13,6],[13,5],[12,-7],[9,-1],[7,6],[-7,9],[2,9],[8,0],[7,-12],[7,1],[1,6],[8,6],[-9,12],[-2,5],[2,8],[-10,-6],[-6,3],[-5,6],[3,9],[-3,9],[1,33],[7,38],[0,5],[-6,1],[-6,-4],[-6,-5],[-12,-10],[-26,4],[-19,16],[-10,-7],[-12,6],[-13,19],[-4,-3],[-8,-3],[-5,-2],[2,6],[4,4],[-1,4],[-4,2],[-5,-8],[-8,-4],[-14,15],[-12,7],[-24,5],[-9,7],[-8,2],[-12,-8],[-33,9],[-17,4],[-6,-10],[-11,-5],[-11,3],[-9,2],[-11,3],[-48,15],[9,-9],[10,-11],[13,-7],[12,-1],[0,-6],[-24,-7],[-11,0],[-4,10],[-3,8],[-14,7],[3,10],[-8,2],[-5,-7],[-7,-4],[-7,3],[-2,4],[-5,7],[-10,1],[-8,-6],[-39,12],[-33,-10],[-57,18],[-62,-13],[-29,9],[-47,1],[-12,-3],[-19,7],[-19,3],[-42,-4],[-28,-6],[-11,0],[-27,10],[-11,1],[-75,-10],[-77,16],[-26,12],[-39,1],[-36,-11],[-14,-17],[1,-20],[8,-13],[-1,-17],[-18,-15],[-10,-6],[-14,-6],[-17,-8],[-21,-6],[-1,-5]],[[2311,1448],[-15,-4],[-40,-1],[-3,2],[-2,2],[-2,1],[-3,0],[3,-16],[-5,-12],[-18,-25],[10,1],[15,9],[14,11],[6,8],[7,1],[14,4],[13,7],[6,12]],[[2165,1399],[-24,4],[-24,-4],[-8,2],[-17,-3],[-11,3],[-14,-8],[-3,-13],[-6,-9],[-6,-10],[-13,-1],[-10,-9],[17,-1],[11,-1],[11,-1],[12,9],[6,9],[4,-1],[7,5],[5,6],[0,3],[7,0],[5,-2],[4,-2],[6,-1],[7,2],[5,5],[4,6],[9,5],[13,-3],[8,-1],[2,4],[-7,7]],[[1873,1346],[-16,5],[5,-7],[12,-9],[-6,-2],[-11,8],[-27,1],[-18,-5],[-22,-11],[12,-12],[23,7],[9,-9],[11,-3],[16,4],[7,-5],[3,7],[6,-13],[9,-6],[23,-8],[5,7],[8,4],[7,-3],[8,2],[-11,17],[-27,15],[-26,16]],[[1965,1306],[11,-10],[37,3],[23,-12],[5,18],[-8,10],[5,2],[20,-6],[10,2],[-3,7],[-13,7],[-11,5],[-12,2],[-24,7],[-7,-4],[3,-5],[-13,-4],[-12,-5],[-11,-17]],[[2130,1317],[3,-6],[2,2],[0,10],[-1,6],[-7,2],[-3,-1],[-3,-1],[-5,0],[-6,-2],[1,-3],[11,-2],[8,-5]],[[1637,1284],[-5,5],[8,0],[2,0],[-8,14],[-18,8],[-21,5],[-18,0],[0,-3],[30,-29],[10,-16],[3,8],[-1,6],[-6,13],[4,0],[2,-6],[5,-4],[6,-1],[7,0]],[[3307,1276],[2,-5],[-3,-4],[2,-3],[7,5],[2,3],[9,2],[5,2],[-6,4],[-10,2],[-2,-4],[-6,-2]],[[3297,1266],[-9,0],[-17,-3],[-22,-4],[-12,-10],[-10,-14],[-13,-14],[-8,-4],[-19,-4],[-8,-3],[-6,-4],[-18,-23],[12,0],[10,3],[17,13],[3,-4],[5,-3],[2,-3],[45,28],[19,6],[8,5],[6,7],[15,25],[0,6]],[[1540,1182],[-10,1],[-58,-9],[-7,-4],[-10,-8],[-13,-8],[-15,-6],[-14,-1],[-4,0],[-11,0],[11,-22],[21,-3],[23,3],[15,-5],[11,6],[57,13],[14,6],[11,2],[6,-6],[5,0],[4,4],[14,10],[5,2],[19,-1],[6,2],[-7,10],[-10,3],[-38,2],[-25,9]],[[3239,1143],[-14,-5],[-6,-5],[-3,-12],[-9,-8],[-13,-3],[-22,0],[-2,-3],[2,-4],[7,-4],[3,0],[11,4],[6,1],[0,-3],[0,-2],[-9,-7],[5,-6],[11,-6],[48,-13],[10,11],[5,6],[0,23],[-5,23],[0,17],[-10,0],[-15,-4]],[[3093,1263],[12,8],[-7,0],[-6,3],[-6,-4],[0,-4],[7,-3]],[[1849,1291],[1,-2],[5,6],[3,5],[2,-1],[3,2],[-1,3],[-3,3],[-3,-2],[-5,-6],[-2,-5],[0,-3]],[[1884,1355],[4,-4],[3,2],[-1,9],[-5,4],[-5,-1],[2,-4],[2,-6]],[[2019,1400],[-2,3],[-9,1],[-19,-4],[-4,-6],[11,0],[21,-3],[4,3],[-2,6]],[[2163,1433],[-2,1],[-4,-3],[-1,-6],[1,-8],[0,-5],[1,-2],[4,3],[1,7],[0,5],[0,8]],[[3374,998],[-1,-7],[5,-11],[7,-12],[9,-6],[11,1],[10,6],[8,10],[6,8],[-48,8],[-7,3]],[[1969,889],[-16,-11],[-15,-7],[-28,9],[-6,-7],[-2,-9],[1,-32],[-1,-11],[-5,-13],[13,5],[150,21],[16,5],[31,15],[15,5],[19,2],[0,5],[-23,8],[-29,1],[-26,-5],[-17,-14],[-6,6],[-8,4],[-16,5],[-27,20],[-2,2],[-18,-4]],[[3291,642],[16,-3],[7,6],[3,10],[-15,11],[-9,4],[-4,10],[-10,6],[2,-25],[10,-19]],[[3408,602],[-2,-5],[-3,-2],[-9,-4],[-3,-1],[-2,0],[-2,-2],[-3,-3],[-6,-25],[21,-24],[32,-20],[23,-10],[9,-1],[23,1],[7,-2],[9,-11],[15,-9],[8,-29],[9,-7],[16,7],[0,12],[-9,13],[-10,6],[-12,6],[-8,14],[-12,32],[-18,20],[-73,44]],[[3109,777],[-6,3],[-7,-5],[-2,-13],[9,-7],[7,3],[4,8],[-5,11]],[[3569,437],[-15,-15],[-5,-33],[10,-28],[34,-3],[13,4],[3,3],[4,9],[1,7],[0,18],[-1,7],[-6,17],[-10,10],[-13,4],[-15,0]],[[3846,41],[37,-11],[7,2],[6,3],[4,5],[3,7],[-1,4],[-2,5],[-2,6],[-3,3],[-1,3],[3,10],[1,5],[-7,13],[-10,13],[-7,13],[4,15],[-6,-1],[-5,2],[-9,3],[-12,-33],[-9,-37],[9,-30]],[[4090,319],[-5,-11],[5,-7],[6,-4]],[[4096,369],[-6,-3],[-8,-8],[14,-7]],[[4096,344],[-5,-2],[-1,-7],[3,-8],[-3,-8]],[[1617,1268],[3,8],[-1,6],[-6,13],[4,0],[2,-6],[5,-4],[6,-1],[7,0],[-5,5],[8,0],[2,0],[-8,14],[-18,8],[-21,5],[-18,0],[0,-3],[30,-29],[10,-16]],[[2038,1317],[20,-6],[10,2],[-3,7],[-13,7],[-11,5],[-12,2],[-24,7],[-7,-4],[3,-5],[-13,-4],[-12,-5],[-11,-17],[11,-10],[37,3],[23,-12],[5,18],[-8,10],[5,2]],[[2141,861],[0,5],[-23,8],[-29,1],[-26,-5],[-17,-14],[-6,6],[-8,4],[-16,5],[-27,20],[-2,2],[-18,-4],[-16,-11],[-15,-7],[-28,9],[-6,-7],[-2,-9],[1,-32],[-1,-11],[-5,-13],[13,5],[150,21],[16,5],[31,15],[15,5],[19,2]],[[1914,1295],[8,4],[7,-3],[8,2],[-11,17],[-27,15],[-26,16],[-16,5],[5,-7],[12,-9],[-6,-2],[-11,8],[-27,1],[-18,-5],[-22,-11],[12,-12],[23,7],[9,-9],[11,-3],[16,4],[7,-5],[3,7],[6,-13],[9,-6],[23,-8],[5,7]],[[1567,1141],[5,0],[4,4],[14,10],[5,2],[19,-1],[6,2],[-7,10],[-10,3],[-38,2],[-25,9],[-10,1],[-58,-9],[-7,-4],[-10,-8],[-13,-8],[-15,-6],[-14,-1],[-4,0],[-11,0],[11,-22],[21,-3],[23,3],[15,-5],[11,6],[57,13],[14,6],[11,2],[6,-6]],[[3271,1263],[-22,-4],[-12,-10],[-10,-14],[-13,-14],[-8,-4],[-19,-4],[-8,-3],[-6,-4],[-18,-23],[12,0],[10,3],[17,13],[3,-4],[5,-3],[2,-3],[45,28],[19,6],[8,5],[6,7],[15,25],[0,6],[-9,0],[-17,-3]],[[1363,1268],[-3,9],[1,33],[7,38],[0,5],[-6,1],[-6,-4],[-6,-5],[-12,-10],[-26,4],[-19,16],[-10,-7],[-12,6],[-13,19],[-4,-3],[-8,-3],[-5,-2],[2,6],[4,4],[-1,4],[-4,2],[-5,-8],[-8,-4],[-14,15],[-12,7],[-24,5],[-9,7],[-8,2],[-12,-8],[-33,9],[-17,4],[-6,-10],[-11,-5],[-11,3],[-9,2],[-11,3],[-48,15],[9,-9],[10,-11],[13,-7],[12,-1],[0,-6],[-24,-7],[-11,0],[-4,10],[-3,8],[-14,7],[3,10],[-8,2],[-5,-7],[-7,-4],[-7,3],[-2,4],[-5,7],[-10,1],[-8,-6],[-39,12],[-33,-10],[-57,18],[-62,-13],[-29,9],[-47,1],[-12,-3],[-19,7],[-19,3],[-42,-4],[-28,-6],[-11,0],[-27,10],[-11,1],[-75,-10],[-77,16],[-26,12],[-39,1],[-36,-11],[-14,-17],[1,-20],[8,-13],[-1,-17],[-18,-15],[-10,-6],[-14,-6],[-17,-8],[-21,-6],[-1,-5],[6,-14],[7,-11],[12,-23],[13,-3],[16,-4],[7,-14],[11,-37],[10,-8],[5,-8],[-5,-9],[-6,-6],[-5,-6],[-8,-28],[1,-25],[-8,-8],[3,-13],[3,-8],[-7,-5],[-5,-7],[-1,-15],[10,-4],[9,2],[7,-4],[3,-4],[-2,-6],[-6,-3],[-6,-2],[-6,-3],[-17,-8],[0,-21],[3,-8],[11,-16],[8,0],[-5,17],[8,6],[16,-8],[25,-3],[9,-1],[10,2],[12,7],[10,8],[11,-3],[17,0],[17,-2],[14,-1],[17,-18],[10,-7],[14,-2],[0,7],[1,6],[3,3],[4,0],[8,-1],[11,2],[23,-1],[15,2],[17,5],[14,8],[9,12],[-10,0],[0,5],[9,6],[10,2],[6,-3],[0,-10],[29,0],[22,-9],[6,-1],[29,4],[13,-2],[5,-8],[5,2],[5,4],[12,-6],[8,1],[8,5],[8,4],[24,2],[10,2],[8,4],[10,1],[14,3],[12,-8],[12,-14],[14,-11],[15,-2],[21,14],[16,5],[12,0],[7,-1],[9,-5],[4,-5],[2,-5],[4,-4],[7,-2],[20,-2],[11,-3],[8,3],[14,13],[7,-6],[3,-4],[-2,-4],[-8,-2],[0,-4],[1,-2],[4,-5],[5,4],[7,1],[8,-1],[9,1],[43,23],[15,4],[22,-1],[5,1],[22,8],[9,2],[15,-1],[16,-4],[17,0],[37,13],[28,17],[14,13],[-8,23],[4,5],[17,4],[4,2],[10,13],[2,21],[26,40],[12,13],[12,5],[15,4],[13,6],[13,5],[12,-7],[9,-1],[7,6],[-7,9],[2,9],[8,0],[7,-12],[7,1],[1,6],[8,6],[-9,12],[-2,5],[2,8],[-10,-6],[-6,3],[-5,6],[3,9]],[[3264,1147],[-10,0],[-15,-4],[-14,-5],[-6,-5],[-3,-12],[-9,-8],[-13,-3],[-22,0],[-2,-3],[2,-4],[7,-4],[3,0],[11,4],[6,1],[0,-3],[0,-2],[-9,-7],[5,-6],[11,-6],[48,-13],[10,11],[5,6],[0,23],[-5,23],[0,17]],[[2271,1424],[7,1],[14,4],[13,7],[6,12],[-15,-4],[-40,-1],[-3,2],[-2,2],[-2,1],[-3,0],[3,-16],[-5,-12],[-18,-25],[10,1],[15,9],[14,11],[6,8]],[[3898,83],[-7,13],[-10,13],[-7,13],[4,15],[-6,-1],[-5,2],[-9,3],[-12,-33],[-9,-37],[9,-30],[37,-11],[7,2],[6,3],[4,5],[3,7],[-1,4],[-2,5],[-2,6],[-3,3],[-1,3],[3,10],[1,5]],[[3569,437],[-15,-15],[-5,-33],[10,-28],[34,-3],[13,4],[3,3],[4,9],[1,7],[0,18],[-1,7],[-6,17],[-10,10],[-13,4],[-15,0]],[[3279,686],[2,-25],[10,-19],[16,-3],[7,6],[3,10],[-15,11],[-9,4],[-4,10],[-10,6]],[[3394,962],[11,1],[10,6],[8,10],[6,8],[-48,8],[-7,3],[-1,-7],[5,-11],[7,-12],[9,-6]],[[3531,486],[-12,6],[-8,14],[-12,32],[-18,20],[-73,44],[-2,-5],[-3,-2],[-9,-4],[-3,-1],[-2,0],[-2,-2],[-3,-3],[-6,-25],[21,-24],[32,-20],[23,-10],[9,-1],[23,1],[7,-2],[9,-11],[15,-9],[8,-29],[9,-7],[16,7],[0,12],[-9,13],[-10,6]],[[2086,1366],[4,-1],[7,5],[5,6],[0,3],[7,0],[5,-2],[4,-2],[6,-1],[7,2],[5,5],[4,6],[9,5],[13,-3],[8,-1],[2,4],[-7,7],[-24,4],[-24,-4],[-8,2],[-17,-3],[-11,3],[-14,-8],[-3,-13],[-6,-9],[-6,-10],[-13,-1],[-10,-9],[17,-1],[11,-1],[11,-1],[12,9],[6,9]],[[2304,1612],[41,-18],[6,-1],[-10,26],[-26,10],[-64,-2],[7,-9],[14,-5],[32,-1]],[[2965,1510],[3,6],[-3,1],[0,-7]],[[2161,1434],[-4,-3],[-1,-6],[1,-8],[0,-5],[1,-2],[4,3],[1,7],[0,5],[0,8],[-2,1]],[[2017,1403],[-9,1],[-19,-4],[-4,-6],[11,0],[21,-3],[4,3],[-2,6],[-2,3]],[[2134,1329],[-7,2],[-3,-1],[-3,-1],[-5,0],[-6,-2],[1,-3],[11,-2],[8,-5],[3,-6],[2,2],[0,10],[-1,6]],[[3103,780],[-7,-5],[-2,-13],[9,-7],[7,3],[4,8],[-5,11],[-6,3]],[[3093,1263],[-7,3],[0,4],[6,4],[6,-3],[7,0],[-12,-8]],[[3753,234],[-1,-2],[-1,-2],[1,-2],[2,1],[1,2],[0,2],[0,2],[-1,0],[-1,-1]],[[3307,1276],[2,-5],[-3,-4],[2,-3],[7,5],[2,3],[9,2],[5,2],[-6,4],[-10,2],[-2,-4],[-6,-2]],[[3142,1260],[4,-2],[-3,-1],[-2,0],[-2,2],[-2,1],[1,0],[3,0],[1,0]],[[3150,1257],[0,-2],[2,-1],[2,1],[0,2],[-2,1],[-1,-1],[-1,0]],[[1153,1340],[-8,1]],[[1317,1297],[-16,21],[-20,10],[-128,12]],[[1145,1341],[-31,1],[-36,12],[-38,-4],[-8,-4]],[[907,1362],[72,-8],[47,0],[5,-2],[1,-6]],[[851,1365],[26,-4],[25,1],[5,0]],[[1032,1346],[-3,-21]],[[1029,1325],[-1,-5],[4,-11],[18,-15],[0,-33]],[[732,1376],[75,16],[21,-3],[23,-24]],[[1196,1165],[2,7],[15,-3],[26,15],[49,35],[29,11],[7,16],[3,12],[-10,39]],[[1086,1245],[-17,-2],[-18,17]],[[1051,1260],[-1,1]],[[1196,1165],[-51,42],[-14,27],[-10,8],[-23,4],[-12,-1]],[[1046,1226],[0,1],[3,31]],[[875,1054],[22,4],[7,7],[5,31],[19,20],[48,32],[60,47],[10,31]],[[1049,1258],[1,3]],[[273,1245],[-1,28],[10,22],[-9,27],[10,66],[16,-1],[63,20],[43,6],[16,7],[19,-21],[10,0],[38,13],[40,3],[14,-5]],[[659,1067],[-18,-3],[-31,-18],[-13,1],[-5,3]],[[592,1050],[-10,4],[-57,35],[-29,-3],[-48,-21],[-24,3],[-19,10],[-51,45],[-39,21],[-28,20],[-6,15],[0,11],[5,26],[-10,14],[-3,15]],[[668,1068],[-9,-1]],[[875,1054],[-73,28],[-52,12],[-25,3],[-31,-7],[-13,-8],[-9,-13],[-4,-1]],[[542,1410],[26,-7],[20,-2],[9,-8],[43,-9],[44,-7],[48,-1]],[[3867,138],[5,-2],[6,1],[-4,-15],[7,-13],[10,-13],[7,-13],[-1,-5],[-3,-10],[1,-3],[3,-3],[2,-6],[2,-5],[1,-4],[-3,-7],[-4,-5],[-6,-3],[-7,-2],[-37,11],[-9,30],[9,37],[12,33],[9,-3]],[[4096,344],[0,-47],[-6,4],[-5,7],[5,11],[3,8],[-3,8],[1,7],[5,2]],[[4096,369],[0,-18],[-14,7],[8,8],[6,3]],[[3606,362],[-13,-4],[-34,3],[-10,28],[5,33],[15,15],[15,0],[13,-4],[10,-10],[6,-17],[1,-7],[0,-18],[-1,-7],[-4,-9],[-3,-3]],[[3499,538],[12,-32],[8,-14],[12,-6],[10,-6],[9,-13],[0,-12],[-16,-7],[-9,7],[-8,29],[-15,9],[-9,11],[-7,2],[-23,-1],[-9,1],[-23,10],[-32,20],[-21,24],[6,25],[3,3],[2,2],[2,0],[3,1],[9,4],[3,2],[2,5],[73,-44],[18,-20]],[[3314,645],[-7,-6],[-16,3],[-10,19],[-2,25],[10,-6],[4,-10],[9,-4],[15,-11],[-3,-10]],[[3110,758],[-7,-3],[-9,7],[2,13],[7,5],[6,-3],[5,-11],[-4,-8]],[[2016,871],[16,-5],[8,-4],[6,-6],[17,14],[26,5],[29,-1],[23,-8],[0,-5],[-19,-2],[-15,-5],[-31,-15],[-16,-5],[-150,-21],[-13,-5],[5,13],[1,11],[-1,32],[2,9],[6,7],[28,-9],[15,7],[16,11],[18,4],[2,-2],[27,-20]],[[3405,963],[-11,-1],[-9,6],[-7,12],[-5,11],[1,7],[7,-3],[48,-8],[-6,-8],[-8,-10],[-10,-6]],[[355,1443],[77,-16],[75,10],[11,-1],[27,-10],[11,0],[28,6],[42,4],[19,-3],[19,-7],[12,3],[47,-1],[29,-9],[62,13],[57,-18],[33,10],[39,-12],[8,6],[10,-1],[5,-7],[2,-4],[7,-3],[7,4],[5,7],[8,-2],[-3,-10],[14,-7],[3,-8],[4,-10],[11,0],[24,7],[0,6],[-12,1],[-13,7],[-10,11],[-9,9],[48,-15],[11,-3],[9,-2],[11,-3],[11,5],[6,10],[17,-4],[33,-9],[12,8],[8,-2],[9,-7],[24,-5],[12,-7],[14,-15],[8,4],[5,8],[4,-2],[1,-4],[-4,-4],[-2,-6],[5,2],[8,3],[4,3],[13,-19],[12,-6],[10,7],[19,-16],[26,-4],[12,10],[6,5],[6,4],[6,-1],[0,-5],[-7,-38],[-1,-33],[3,-9],[-3,-9],[5,-6],[6,-3],[10,6],[-2,-8],[2,-5],[9,-12],[-8,-6],[-1,-6],[-7,-1],[-7,12],[-8,0],[-2,-9],[7,-9],[-7,-6],[-9,1],[-12,7],[-13,-5],[-13,-6],[-15,-4],[-12,-5],[-12,-13],[-26,-40],[-2,-21],[-10,-13],[-4,-2],[-17,-4],[-4,-5],[8,-23],[-14,-13],[-28,-17],[-37,-13],[-17,0],[-16,4],[-15,1],[-9,-2],[-22,-8],[-5,-1],[-22,1],[-15,-4],[-43,-23],[-9,-1],[-8,1],[-7,-1],[-5,-4],[-4,5],[-1,2],[0,4],[8,2],[2,4],[-3,4],[-7,6],[-14,-13],[-8,-3],[-11,3],[-20,2],[-7,2],[-4,4],[-2,5],[-4,5],[-9,5],[-7,1],[-12,0],[-16,-5],[-21,-14],[-15,2],[-14,11],[-12,14],[-12,8],[-14,-3],[-10,-1],[-8,-4],[-10,-2],[-24,-2],[-8,-4],[-8,-5],[-8,-1],[-12,6],[-5,-4],[-5,-2],[-5,8],[-13,2],[-29,-4],[-6,1],[-22,9],[-29,0],[0,10],[-6,3],[-10,-2],[-9,-6],[0,-5],[10,0],[-9,-12],[-14,-8],[-17,-5],[-15,-2],[-23,1],[-11,-2],[-8,1],[-4,0],[-3,-3],[-1,-6],[0,-7],[-14,2],[-10,7],[-17,18],[-14,1],[-17,2],[-17,0],[-11,3],[-10,-8],[-12,-7],[-10,-2],[-9,1],[-25,3],[-16,8],[-8,-6],[5,-17],[-8,0],[-11,16],[-3,8],[0,21],[17,8],[6,3],[6,2],[6,3],[2,6],[-3,4],[-7,4],[-9,-2],[-10,4],[1,15],[5,7],[7,5],[-3,8],[-3,13],[8,8],[-1,25],[8,28],[5,6],[6,6],[5,9],[-5,8],[-10,8],[-11,37],[-7,14],[-16,4],[-13,3],[-12,23],[-7,11],[-6,14],[1,5],[21,6],[17,8],[14,6],[10,6],[18,15],[1,17],[-8,13],[-1,20],[14,17],[36,11],[39,-1],[26,-12]],[[3269,1107],[0,-23],[-5,-6],[-10,-11],[-48,13],[-11,6],[-5,6],[9,7],[0,2],[0,3],[-6,-1],[-11,-4],[-3,0],[-7,4],[-2,4],[2,3],[22,0],[13,3],[9,8],[3,12],[6,5],[14,5],[15,4],[10,0],[0,-17],[5,-23]],[[1620,1158],[-6,-2],[-19,1],[-5,-2],[-14,-10],[-4,-4],[-5,0],[-6,6],[-11,-2],[-14,-6],[-57,-13],[-11,-6],[-15,5],[-23,-3],[-21,3],[-11,22],[11,0],[4,0],[14,1],[15,6],[13,8],[10,8],[7,4],[58,9],[10,-1],[25,-9],[38,-2],[10,-3],[7,-10]],[[3249,1217],[-45,-28],[-2,3],[-5,3],[-3,4],[-17,-13],[-10,-3],[-12,0],[18,23],[6,4],[8,3],[19,4],[8,4],[13,14],[10,14],[12,10],[22,4],[17,3],[9,0],[0,-6],[-15,-25],[-6,-7],[-8,-5],[-19,-6]],[[2341,1619],[10,-26],[-6,1],[-41,18],[-32,1],[-14,5],[-7,9],[64,2],[26,-10]],[[1634,1303],[8,-14],[-2,0],[-8,0],[5,-5],[-7,0],[-6,1],[-5,4],[-2,6],[-4,0],[6,-13],[1,-6],[-3,-8],[-10,16],[-30,29],[0,3],[18,0],[21,-5],[18,-8]],[[2065,1320],[3,-7],[-10,-2],[-20,6],[-5,-2],[8,-10],[-5,-18],[-23,12],[-37,-3],[-11,10],[11,17],[12,5],[13,4],[-3,5],[7,4],[24,-7],[12,-2],[11,-5],[13,-7]],[[1873,1346],[26,-16],[27,-15],[11,-17],[-8,-2],[-7,3],[-8,-4],[-5,-7],[-23,8],[-9,6],[-6,13],[-3,-7],[-7,5],[-16,-4],[-11,3],[-9,9],[-23,-7],[-12,12],[22,11],[18,5],[27,-1],[11,-8],[6,2],[-12,9],[-5,7],[16,-5]],[[2021,1394],[-4,-3],[-21,3],[-11,0],[4,6],[19,4],[9,-1],[2,-3],[2,-6]],[[2311,1448],[-6,-12],[-13,-7],[-14,-4],[-7,-1],[-6,-8],[-14,-11],[-15,-9],[-10,-1],[18,25],[5,12],[-3,16],[3,0],[2,-1],[2,-2],[3,-2],[40,1],[15,4]],[[2165,1399],[7,-7],[-2,-4],[-8,1],[-13,3],[-9,-5],[-4,-6],[-5,-5],[-7,-2],[-6,1],[-4,2],[-5,2],[-7,0],[0,-3],[-5,-6],[-7,-5],[-4,1],[-6,-9],[-12,-9],[-11,1],[-11,1],[-17,1],[10,9],[13,1],[6,10],[6,9],[3,13],[14,8],[11,-3],[17,3],[8,-2],[24,4],[24,-4]],[[3492,543],[-4,-37],[-43,4],[10,21],[37,12]],[[2010,838],[-24,-14],[-3,31],[17,1],[10,-18]],[[268,1195],[-31,-8],[17,23],[-27,55],[41,-70]],[[1891,1323],[-11,-23],[-44,11],[22,20],[33,-8]],[[1065,1220],[-32,9],[24,43],[32,-24],[-24,-28]],[[802,1391],[-28,9],[0,24],[20,4],[8,-37]],[[545,1426],[17,1],[2,-18],[-40,25],[21,-8]],[[1072,1398],[43,-6],[39,-52],[-210,-25],[-40,51],[49,52],[42,-6],[18,-35],[35,13],[-44,28],[68,-20]],[[656,1044],[-17,-19],[-55,8],[26,60],[54,6],[-8,-55]],[[3225,1109],[39,20],[-10,-62],[-84,40],[52,28],[3,-26]],[[2619,632],[84,-8],[215,147],[12,24],[-66,21],[7,54],[81,-58],[-4,-23],[49,9],[69,-121],[60,-1],[-36,-20],[27,-69],[-68,-101],[-130,-29],[-96,22],[-72,-60],[-24,-1],[-47,92],[-60,37],[-1,85]]]}