{"objects":{"water":{"type":"GeometryCollection","geometries":[]},"buildings":{"type":"GeometryCollection","geometries":[]},"places":{"type":"GeometryCollection","geometries":[{"type":"Point","properties":{"name:cy":"Yr Ariannin","name:mt":"Ar\u0121entina","name:ko":"\uc544\ub974\ud5e8\ud2f0\ub098","name:kn":"\u0c85\u0cb0\u0ccd\u0c9c\u0cc6\u0c82\u0c9f\u0cc8\u0ca8\u0cbe","name:km":"\u17a2\u17b6\u17a0\u17d2\u179f\u1784\u17cb\u1791\u17b8\u1793","name:kk":"\u0410\u0440\u0433\u0435\u043d\u0442\u0438\u043d\u0430","name:ki":"Ajentina","name:ku":"Arjent\u00een","name:ti":"\u12a0\u122d\u1300\u1295\u1272\u1293","name:ks":"\u0623\u0631\u062c\u064e\u0646\u0679\u06cc\u0646\u0627","name:to":"\u02bbAsenitina","name:tl":"Arhentina","name:or":"\u0b06\u0b30\u0b4d\u0b1c\u0b47\u0b23\u0b4d\u0b1f\u0b3f\u0b28\u0b3e","name:pl":"Argentyna","name:ta":"\u0b85\u0bb0\u0bcd\u0b9c\u0bc6\u0ba9\u0bcd\u0b9f\u0bbf\u0ba9\u0bbe","name:tg":"\u0410\u0440\u0433\u0435\u043d\u0442\u0438\u043d\u0430","name:te":"\u0c06\u0c30\u0c4d\u0c1c\u0c46\u0c02\u0c1f\u0c3f\u0c28\u0c3e","name:hu":"Argent\u00edna","name:ka":"\u10d0\u10e0\u10d2\u10d4\u10dc\u10e2\u10d8\u10dc\u10d0","name:de":"Argentinien","name:dz":"\u0f68\u0f62\u0f0b\u0f47\u0f7a\u0f53\u0f0b\u0f4a\u0f72\u0f0b\u0f53","source":"openstreetmap.org","name:lv":"Argent\u012bna","name:tr":"Arjantin","name:hi":"\u0905\u0930\u094d\u091c\u0947\u0928\u094d\u091f\u0940\u0928\u093e","name:he":"\u05d0\u05e8\u05d2\u05e0\u05d8\u05d9\u05e0\u05d4","kind":"country","name:ur":"\u0627\u0631\u062c\u0646\u0679\u06cc\u0646\u0627","name:lb":"Argentinien","name:lg":"Arigentina","name:uk":"\u0410\u0440\u0433\u0435\u043d\u0442\u0438\u043d\u0430","name:hy":"\u0531\u0580\u0563\u0565\u0576\u057f\u056b\u0576\u0561","min_zoom":2.0,"name:li":"Argentini\u00eb","name:ln":"Arizantin\u025b","name:lo":"\u0ead\u0eb2\u0ec0\u0e88\u0e99\u0e95\u0eb4\u0e99\u0eb2\u0ec8","population":40117096,"name:el":"\u0391\u03c1\u03b3\u03b5\u03bd\u03c4\u03b9\u03bd\u03ae","name:eo":"Argentino","name":"Argentina","official_name":"Rep\u00fablica Argentina","name:ee":"Argentina nutome","name:th":"\u0e1b\u0e23\u0e30\u0e40\u0e17\u0e28\u0e2d\u0e32\u0e23\u0e4c\u0e40\u0e08\u0e19\u0e15\u0e34\u0e19\u0e32","name:gu":"\u0a86\u0ab0\u0acd\u0a9c\u0ac7\u0aa8\u0acd\u0a9f\u0ac0\u0aa8\u0abe","name:et":"Argentiina","name:nl":"Argentini\u00eb","name:yo":"Or\u00edl\u1eb9\u0301\u00e8de Agent\u00edn\u00e0","name:rm":"Argentinia","name:rn":"Arijantine","name:az":"Arqentina","name:mr":"\u0905\u0930\u094d\u091c\u0947\u0902\u091f\u093f\u0928\u093e","name:ar":"\u0627\u0644\u0623\u0631\u062c\u0646\u062a\u064a\u0646","name:my":"\u1021\u102c\u1002\u103b\u1004\u103a\u1010\u102e\u1038\u1014\u102c\u1038","name:io":"Arjentinia","name:is":"Argent\u00edna","name:am":"\u12a0\u122d\u1300\u1295\u1272\u1293","name:ml":"\u0d05\u0d7c\u0d1c\u0d7b\u0d31\u0d40\u0d28","name:ru":"\u0410\u0440\u0433\u0435\u043d\u0442\u0438\u043d\u0430","name:mn":"\u0410\u0440\u0433\u0435\u043d\u0442\u0438\u043d","name:mi":"\u0100ketina","id":249399280,"name:mk":"\u0410\u0440\u0433\u0435\u043d\u0442\u0438\u043d\u0430","name:af":"Argentini\u00eb","name:zu":"i-Argentina","name:ha":"Arjantiniya","name:ff":"Arjantiin","name:fi":"Argentiina","old_name:vi":"\u00c1 C\u0103n \u0110\u00ecnh","name:mg":"Arzantina","name:fr":"Argentine","name:fy":"Argentynje","name:vo":"Larg\u00e4nt\u00e4n","name:zh":"\u963f\u6839\u5ef7","name:so":"Arjantiin","name:sn":"Ajentina","name:sk":"Argent\u00edna","name:ja":"\u30a2\u30eb\u30bc\u30f3\u30c1\u30f3","name:si":"\u0d86\u0dbb\u0dca\u0da2\u0dd9\u0db1\u0dca\u0da7\u0dd2\u0db1\u0dcf\u0dc0","name:fa":"\u0622\u0631\u0698\u0627\u0646\u062a\u06cc\u0646","name:sg":"Arzant\u00eena","name:ne":"\u0905\u0930\u094d\u091c\u0947\u0923\u094d\u091f\u093f\u0928\u093e","name:br":"Arc\u02bchantina","name:bm":"Arizantin","name:bn":"\u0986\u09b0\u09cd\u099c\u09c7\u09a3\u09cd\u099f\u09be\u0987\u09a8\u09be","name:bo":"\u0f68\u0f62\u0f0b\u0f47\u0f7a\u0f53\u0f0b\u0f4a\u0f72\u0f0b\u0f53\u0f0d","name:sw":"Ajentina","name:be":"\u0410\u0440\u0433\u0435\u043d\u0446\u0456\u043d\u0430","name:bg":"\u0410\u0440\u0436\u0435\u043d\u0442\u0438\u043d\u0430","name:sr":"\u0410\u0440\u0433\u0435\u043d\u0442\u0438\u043d\u0430","name:sq":"Argjentina","name:ga":"An Airgint\u00edn","name:gd":"An Argantain","name:gl":"Arxentina","name:gv":"Yn Argenteen","name:ak":"Agy\u025bntina"},"coordinates":[1844,1412]},{"type":"Point","properties":{"kind":"region","name":"San Luis","kind_detail":"state","name:eo":"San-Luisa Provinco","official_name":"Provincia de San Luis","source":"openstreetmap.org","min_zoom":4.0,"name:ru":"\u0421\u0430\u043d-\u041b\u0443\u0438\u0441","id":618289560},"coordinates":[1128,2929]},{"type":"Point","properties":{"name:ka":"\u10d9\u10dd\u10e0\u10d3\u10dd\u10d5\u10d0","name:mr":"\u0915\u094b\u0930\u094d\u0926\u094b\u092c\u093e","name:ko":"\ucf54\ub974\ub3c4\ubc14","name:ar":"\u0643\u0648\u0631\u062f\u0648\u0628\u0627","name:th":"\u0e01\u0e2d\u0e23\u0e4c\u0e42\u0e14\u0e1a\u0e32","name:it":"Cordova","name:os":"\u041a\u043e\u0440\u0434\u043e\u0432\u00e6","name:ru":"\u041a\u043e\u0440\u0434\u043e\u0432\u0430","name:ce":"\u041a\u043e\u0440\u0434\u043e\u0432\u0430","name:mn":"\u041a\u043e\u0440\u0434\u043e\u0432\u0430","id":618290080,"name:fa":"\u06a9\u0648\u0631\u062f\u0648\u0628\u0627\u060c \u0622\u0631\u0698\u0627\u0646\u062a\u06cc\u0646","kind_detail":"state","source":"openstreetmap.org","name:zh":"\u79d1\u5c14\u591a\u74e6","name:lv":"Kordova","name:ja":"\u30b3\u30eb\u30c9\u30d0","name:lt":"Kordoba","name:he":"\u05e7\u05d5\u05e8\u05d3\u05d5\u05d1\u05d4","kind":"region","name:ur":"\u0642\u0631\u0637\u0628\u06c1","name:la":"Corduba","name:uk":"\u041a\u043e\u0440\u0434\u043e\u0432\u0430","name:hy":"\u053f\u0578\u0580\u0564\u0578\u057e\u0561","name:be":"\u041a\u043e\u0440\u0434\u0430\u0432\u0430","name:bg":"\u041a\u043e\u0440\u0434\u043e\u0431\u0430","name:sr":"\u041a\u043e\u0440\u0434\u043e\u0431\u0430","name:el":"\u039a\u03cc\u03c1\u03b4\u03bf\u03b2\u03b1","name:eo":"Kordoba Provinco","name":"C\u00f3rdoba","min_zoom":4.0,"name:yi":"\u05e7\u05d0\u05e8\u05d3\u05d0\u05d1\u05e2"},"coordinates":[2699,3969]},{"type":"Point","properties":{"source":"naturalearthdata.com","kind":"locality","name":"San Luis","population":432310,"region_capital":true,"min_zoom":6.0,"id":5539},"coordinates":[837,2908]},{"type":"Point","properties":{"source":"naturalearthdata.com","kind":"locality","name":"Rio Cuarto","population":153757,"min_zoom":6.0,"id":5540},"coordinates":[2294,3058]}]},"transit":{"type":"GeometryCollection","geometries":[{"type":"MultiLineString","properties":{"kind":"train","name":"Ferrocarril Mitre: C\u00f3rdoba \u2192 Retiro","service":"long_distance","sort_rank":275,"source":"openstreetmap.org","min_zoom":5.0,"operator":"Trenes Argentinos","ref":"FCM","osm_relation":true,"network":"Mitre"},"arcs":[[25],[26]]},{"type":"MultiLineString","properties":{"kind":"train","network":"Mitre","service":"long_distance","sort_rank":275,"source":"openstreetmap.org","min_zoom":5.0,"operator":"Trenes Argentinos","ref":"FCM","osm_relation":true,"name":"Ferrocarril Mitre: Retiro \u2192 C\u00f3rdoba"},"arcs":[[27],[28]]},{"type":"LineString","properties":{"kind":"train","name":"Tren C\u00f3rdoba \u2192 Villa Mar\u00eda","sort_rank":275,"source":"openstreetmap.org","min_zoom":6.0,"operator":"Trenes Argentinos Operadora","osm_relation":true,"network":"Mitre"},"arcs":[29]}]},"pois":{"type":"GeometryCollection","geometries":[{"type":"Point","properties":{"kind":"nature_reserve","name":"Corredor Biogeogr\u00e1fico del Cald\u00e9n","area":9892710000,"source":"openstreetmap.org","min_zoom":5.65,"tier":2,"id":-5380844,"osm_relation":true},"coordinates":[2014,1860]},{"type":"Point","properties":{"source":"openstreetmap.org","kind":"nature_reserve","name":"Sitio Ramsar Lagunas de Guanacache, Desaguadero y Del Bebedero","area":12871300000,"tier":2,"min_zoom":5.46,"id":409596584},"coordinates":[243,3138]}]},"boundaries":{"type":"GeometryCollection","geometries":[{"type":"LineString","properties":{"source":"naturalearthdata.com","kind":"region","sort_rank":256,"kind_detail":"4","min_zoom":3.0,"id":5064},"arcs":[0]},{"type":"MultiLineString","properties":{"source":"naturalearthdata.com","kind":"region","sort_rank":256,"kind_detail":"4","min_zoom":3.0,"id":5065},"arcs":[[1],[2]]},{"type":"MultiLineString","properties":{"source":"naturalearthdata.com","kind":"region","sort_rank":256,"kind_detail":"4","min_zoom":3.0,"id":5051},"arcs":[[3],[4],[5],[6]]},{"type":"MultiLineString","properties":{"source":"naturalearthdata.com","kind":"region","sort_rank":256,"kind_detail":"4","min_zoom":3.0,"id":5052},"arcs":[[7],[8],[9],[10]]},{"type":"MultiLineString","properties":{"source":"naturalearthdata.com","kind":"region","sort_rank":256,"kind_detail":"4","min_zoom":3.0,"id":5055},"arcs":[[11],[12]]},{"type":"MultiLineString","properties":{"source":"naturalearthdata.com","kind":"region","sort_rank":256,"kind_detail":"4","min_zoom":3.0,"id":5056},"arcs":[[13],[14],[15]]},{"type":"LineString","properties":{"source":"naturalearthdata.com","kind":"region","sort_rank":256,"kind_detail":"4","min_zoom":3.0,"id":5063},"arcs":[16]},{"type":"MultiLineString","properties":{"source":"naturalearthdata.com","kind":"region","sort_rank":256,"kind_detail":"4","min_zoom":3.0,"id":5074},"arcs":[[17],[18]]},{"type":"MultiLineString","properties":{"source":"naturalearthdata.com","kind":"region","sort_rank":256,"kind_detail":"4","min_zoom":3.0,"id":5075},"arcs":[[19],[20],[21]]},{"type":"LineString","properties":{"source":"naturalearthdata.com","kind":"region","sort_rank":256,"kind_detail":"4","min_zoom":3.0,"id":5076},"arcs":[22]},{"type":"MultiLineString","properties":{"source":"naturalearthdata.com","kind":"region","sort_rank":256,"kind_detail":"4","min_zoom":3.0,"id":5078},"arcs":[[23],[24]]}]},"roads":{"type":"GeometryCollection","geometries":[{"type":"LineString","properties":{"source":"naturalearthdata.com","kind":"major_road","kind_detail":"secondary","sort_rank":379,"landuse_kind":"urban_area","min_zoom":4.0,"id":47326},"arcs":[30]},{"type":"MultiLineString","properties":{"source":"naturalearthdata.com","kind":"major_road","sort_rank":379,"kind_detail":"secondary","min_zoom":4.0,"id":47326},"arcs":[[31],[32]]},{"type":"LineString","properties":{"source":"naturalearthdata.com","kind":"minor_road","kind_detail":"tertiary","sort_rank":355,"landuse_kind":"urban_area","min_zoom":6.0,"id":47380},"arcs":[33]},{"type":"LineString","properties":{"source":"naturalearthdata.com","kind":"minor_road","sort_rank":355,"kind_detail":"tertiary","min_zoom":6.0,"id":47380},"arcs":[34]},{"type":"LineString","properties":{"source":"naturalearthdata.com","kind":"highway","kind_detail":"motorway","sort_rank":383,"landuse_kind":"urban_area","min_zoom":3.0,"id":47381},"arcs":[35]},{"type":"LineString","properties":{"source":"naturalearthdata.com","kind":"highway","sort_rank":383,"kind_detail":"motorway","min_zoom":3.0,"id":47381},"arcs":[36]},{"type":"LineString","properties":{"source":"naturalearthdata.com","kind":"highway","kind_detail":"motorway","sort_rank":383,"landuse_kind":"urban_area","min_zoom":3.0,"id":47405},"arcs":[37]},{"type":"LineString","properties":{"source":"naturalearthdata.com","kind":"highway","kind_detail":"motorway","sort_rank":383,"landuse_kind":"urban_area","min_zoom":3.0,"id":47405},"arcs":[38]},{"type":"MultiLineString","properties":{"source":"naturalearthdata.com","kind":"highway","sort_rank":383,"kind_detail":"motorway","min_zoom":3.0,"id":47405},"arcs":[[39],[40]]},{"type":"LineString","properties":{"source":"naturalearthdata.com","kind":"highway","sort_rank":383,"kind_detail":"motorway","min_zoom":3.0,"id":47441},"arcs":[41]},{"type":"LineString","properties":{"source":"naturalearthdata.com","kind":"major_road","kind_detail":"secondary","sort_rank":379,"landuse_kind":"urban_area","min_zoom":4.0,"id":47466},"arcs":[42]},{"type":"LineString","properties":{"source":"naturalearthdata.com","kind":"major_road","kind_detail":"secondary","sort_rank":379,"landuse_kind":"urban_area","min_zoom":4.0,"id":47466},"arcs":[43]},{"type":"LineString","properties":{"source":"naturalearthdata.com","kind":"major_road","sort_rank":379,"kind_detail":"secondary","min_zoom":4.0,"id":47466},"arcs":[44]},{"type":"LineString","properties":{"source":"naturalearthdata.com","kind":"major_road","kind_detail":"secondary","sort_rank":379,"landuse_kind":"urban_area","min_zoom":4.0,"id":47467},"arcs":[45]},{"type":"LineString","properties":{"source":"naturalearthdata.com","kind":"major_road","sort_rank":379,"kind_detail":"secondary","min_zoom":4.0,"id":47467},"arcs":[46]},{"type":"LineString","properties":{"source":"naturalearthdata.com","kind":"major_road","kind_detail":"secondary","sort_rank":379,"landuse_kind":"urban_area","min_zoom":3.0,"id":47517},"arcs":[47]},{"type":"LineString","properties":{"source":"naturalearthdata.com","kind":"major_road","sort_rank":379,"kind_detail":"secondary","min_zoom":3.0,"id":47517},"arcs":[48]},{"type":"LineString","properties":{"source":"naturalearthdata.com","kind":"major_road","kind_detail":"secondary","sort_rank":379,"landuse_kind":"nature_reserve","min_zoom":3.0,"id":47531},"arcs":[49]},{"type":"LineString","properties":{"source":"naturalearthdata.com","kind":"major_road","kind_detail":"secondary","sort_rank":379,"landuse_kind":"urban_area","min_zoom":3.0,"id":47531},"arcs":[50]},{"type":"MultiLineString","properties":{"source":"naturalearthdata.com","kind":"major_road","sort_rank":379,"kind_detail":"secondary","min_zoom":3.0,"id":47531},"arcs":[[51],[52]]},{"type":"LineString","properties":{"source":"naturalearthdata.com","kind":"major_road","kind_detail":"secondary","sort_rank":379,"landuse_kind":"urban_area","min_zoom":3.0,"id":47555},"arcs":[53]},{"type":"LineString","properties":{"source":"naturalearthdata.com","kind":"major_road","sort_rank":379,"kind_detail":"secondary","min_zoom":3.0,"id":47555},"arcs":[54]},{"type":"LineString","properties":{"source":"naturalearthdata.com","kind":"highway","kind_detail":"motorway","sort_rank":383,"landuse_kind":"urban_area","min_zoom":3.0,"id":47565},"arcs":[55]},{"type":"LineString","properties":{"source":"naturalearthdata.com","kind":"highway","kind_detail":"motorway","sort_rank":383,"landuse_kind":"urban_area","min_zoom":3.0,"id":47565},"arcs":[56]},{"type":"LineString","properties":{"source":"naturalearthdata.com","kind":"highway","sort_rank":383,"kind_detail":"motorway","min_zoom":3.0,"id":47565},"arcs":[57]},{"type":"LineString","properties":{"source":"naturalearthdata.com","kind":"major_road","kind_detail":"secondary","sort_rank":379,"landuse_kind":"urban_area","min_zoom":3.0,"id":47566},"arcs":[58]},{"type":"LineString","properties":{"source":"naturalearthdata.com","kind":"major_road","sort_rank":379,"kind_detail":"secondary","min_zoom":3.0,"id":47566},"arcs":[59]},{"type":"LineString","properties":{"source":"naturalearthdata.com","kind":"minor_road","kind_detail":"tertiary","sort_rank":355,"landuse_kind":"urban_area","min_zoom":6.0,"id":47588},"arcs":[60]},{"type":"LineString","properties":{"source":"naturalearthdata.com","kind":"minor_road","sort_rank":355,"kind_detail":"tertiary","min_zoom":6.0,"id":47588},"arcs":[61]},{"type":"LineString","properties":{"source":"naturalearthdata.com","kind":"major_road","kind_detail":"secondary","sort_rank":379,"landuse_kind":"urban_area","min_zoom":3.0,"id":47589},"arcs":[62]},{"type":"LineString","properties":{"source":"naturalearthdata.com","kind":"major_road","sort_rank":379,"kind_detail":"secondary","min_zoom":3.0,"id":47589},"arcs":[63]},{"type":"LineString","properties":{"source":"naturalearthdata.com","kind":"major_road","sort_rank":379,"kind_detail":"secondary","min_zoom":4.0,"id":47635},"arcs":[64]},{"type":"LineString","properties":{"source":"naturalearthdata.com","kind":"minor_road","kind_detail":"tertiary","sort_rank":355,"landuse_kind":"urban_area","min_zoom":6.0,"id":47636},"arcs":[65]},{"type":"LineString","properties":{"source":"naturalearthdata.com","kind":"minor_road","sort_rank":355,"kind_detail":"tertiary","min_zoom":6.0,"id":47636},"arcs":[66]},{"type":"LineString","properties":{"source":"naturalearthdata.com","kind":"major_road","kind_detail":"secondary","sort_rank":379,"landuse_kind":"urban_area","min_zoom":3.0,"id":47663},"arcs":[67]},{"type":"LineString","properties":{"source":"naturalearthdata.com","kind":"major_road","sort_rank":379,"kind_detail":"secondary","min_zoom":3.0,"id":47663},"arcs":[68]},{"type":"LineString","properties":{"source":"naturalearthdata.com","kind":"minor_road","kind_detail":"tertiary","sort_rank":355,"landuse_kind":"urban_area","min_zoom":6.0,"id":47708},"arcs":[69]},{"type":"LineString","properties":{"source":"naturalearthdata.com","kind":"minor_road","kind_detail":"tertiary","sort_rank":355,"landuse_kind":"urban_area","min_zoom":6.0,"id":47708},"arcs":[70]},{"type":"MultiLineString","properties":{"source":"naturalearthdata.com","kind":"minor_road","sort_rank":355,"kind_detail":"tertiary","min_zoom":6.0,"id":47708},"arcs":[[71],[72]]},{"type":"LineString","properties":{"source":"naturalearthdata.com","kind":"minor_road","sort_rank":355,"kind_detail":"tertiary","min_zoom":6.0,"id":47709},"arcs":[73]},{"type":"LineString","properties":{"source":"naturalearthdata.com","kind":"minor_road","sort_rank":355,"kind_detail":"tertiary","min_zoom":6.0,"id":47759},"arcs":[74]},{"type":"LineString","properties":{"source":"naturalearthdata.com","kind":"minor_road","sort_rank":355,"kind_detail":"tertiary","min_zoom":6.0,"id":47809},"arcs":[75]},{"type":"LineString","properties":{"source":"naturalearthdata.com","kind":"major_road","kind_detail":"secondary","sort_rank":379,"landuse_kind":"nature_reserve","min_zoom":4.0,"id":47813},"arcs":[76]},{"type":"MultiLineString","properties":{"source":"naturalearthdata.com","kind":"major_road","sort_rank":379,"kind_detail":"secondary","min_zoom":4.0,"id":47813},"arcs":[[77],[78]]},{"type":"LineString","properties":{"source":"naturalearthdata.com","kind":"major_road","kind_detail":"secondary","sort_rank":379,"landuse_kind":"urban_area","min_zoom":4.0,"id":47854},"arcs":[79]},{"type":"LineString","properties":{"source":"naturalearthdata.com","kind":"major_road","sort_rank":379,"kind_detail":"secondary","min_zoom":4.0,"id":47854},"arcs":[80]},{"type":"LineString","properties":{"source":"naturalearthdata.com","kind":"major_road","sort_rank":379,"kind_detail":"secondary","min_zoom":3.0,"id":47857},"arcs":[81]},{"type":"LineString","properties":{"source":"naturalearthdata.com","kind":"major_road","kind_detail":"secondary","sort_rank":379,"landuse_kind":"urban_area","min_zoom":4.0,"id":47860},"arcs":[82]},{"type":"LineString","properties":{"source":"naturalearthdata.com","kind":"major_road","sort_rank":379,"kind_detail":"secondary","min_zoom":4.0,"id":47860},"arcs":[83]},{"type":"LineString","properties":{"source":"naturalearthdata.com","kind":"minor_road","kind_detail":"tertiary","sort_rank":355,"landuse_kind":"urban_area","min_zoom":6.0,"id":47861},"arcs":[84]},{"type":"LineString","properties":{"source":"naturalearthdata.com","kind":"minor_road","kind_detail":"tertiary","sort_rank":355,"landuse_kind":"urban_area","min_zoom":6.0,"id":47861},"arcs":[85]},{"type":"MultiLineString","properties":{"source":"naturalearthdata.com","kind":"minor_road","sort_rank":355,"kind_detail":"tertiary","min_zoom":6.0,"id":47861},"arcs":[[86],[87],[88]]},{"type":"LineString","properties":{"source":"naturalearthdata.com","kind":"major_road","sort_rank":379,"kind_detail":"secondary","min_zoom":4.0,"id":47883},"arcs":[89]},{"type":"LineString","properties":{"source":"naturalearthdata.com","kind":"major_road","sort_rank":379,"kind_detail":"secondary","min_zoom":3.0,"id":47884},"arcs":[90]},{"type":"LineString","properties":{"source":"naturalearthdata.com","kind":"major_road","sort_rank":379,"kind_detail":"secondary","min_zoom":3.0,"id":47899},"arcs":[91]},{"type":"LineString","properties":{"source":"naturalearthdata.com","kind":"minor_road","sort_rank":355,"kind_detail":"tertiary","min_zoom":6.0,"id":47904},"arcs":[92]},{"type":"LineString","properties":{"source":"naturalearthdata.com","kind":"major_road","kind_detail":"secondary","sort_rank":379,"landuse_kind":"urban_area","min_zoom":4.0,"id":47912},"arcs":[93]},{"type":"LineString","properties":{"source":"naturalearthdata.com","kind":"major_road","sort_rank":379,"kind_detail":"secondary","min_zoom":4.0,"id":47912},"arcs":[94]},{"type":"LineString","properties":{"source":"naturalearthdata.com","kind":"major_road","sort_rank":379,"kind_detail":"secondary","min_zoom":4.0,"id":47913},"arcs":[95]},{"type":"LineString","properties":{"source":"naturalearthdata.com","kind":"minor_road","sort_rank":355,"kind_detail":"tertiary","min_zoom":6.0,"id":47944},"arcs":[96]},{"type":"LineString","properties":{"source":"naturalearthdata.com","kind":"major_road","sort_rank":379,"kind_detail":"secondary","min_zoom":3.0,"id":47986},"arcs":[97]},{"type":"LineString","properties":{"source":"naturalearthdata.com","kind":"major_road","sort_rank":379,"kind_detail":"secondary","min_zoom":4.0,"id":48500},"arcs":[98]},{"type":"LineString","properties":{"source":"naturalearthdata.com","kind":"highway","sort_rank":383,"kind_detail":"motorway","min_zoom":4.0,"id":48501},"arcs":[99]}]},"earth":{"type":"GeometryCollection","geometries":[{"type":"MultiPolygon","properties":{"sort_rank":10,"source":"naturalearthdata.com","min_zoom":0.0,"kind":"earth","area":1278397028785},"arcs":[[[100]]]}]},"landuse":{"type":"GeometryCollection","geometries":[{"type":"Polygon","properties":{"source":"openstreetmap.org","kind":"nature_reserve","area":12871300096,"tier":2,"id":409596584,"min_zoom":4.0,"sort_rank":23},"arcs":[[101]]},{"type":"MultiPolygon","properties":{"source":"naturalearthdata.com","kind":"urban_area","name":"","area":10803621534,"sort_rank":11,"min_zoom":4.0},"arcs":[[[102]],[[103]],[[104]],[[105]],[[106]],[[107]],[[108]],[[109]],[[110]],[[111]],[[112]],[[113]],[[114]],[[115]],[[116]],[[117]],[[118]],[[119]],[[120]],[[121]]]},{"type":"Polygon","properties":{"kind":"park","area":1362710016,"sort_rank":24,"operator":"Administracion de Parques Nacionales","source":"openstreetmap.org","min_zoom":4.0,"tier":2,"id":-2622221,"osm_relation":true},"arcs":[[122]]},{"type":"MultiPolygon","properties":{"source":"openstreetmap.org","kind":"nature_reserve","tier":2,"area":10333665786,"sort_rank":23,"min_zoom":4.0,"osm_relation":true},"arcs":[[[123]],[[124]]]}]}},"type":"Topology","transform":{"translate":[-67.5,-36.5978891331],"scale":[0.001373291,0.0011342107]},"arcs":[[[2997,1407],[-1,-239],[0,-199],[-2,-398],[0,-30],[0,-368],[0,-173]],[[3029,1955],[354,-1]],[[2997,1407],[2,372],[6,147],[24,29]],[[1757,1407],[0,-744],[0,-135],[-4,-1],[-2,-1]],[[1751,526],[-29,0],[-649,1]],[[1073,527],[-27,0]],[[1046,527],[-403,0]],[[3869,4096],[1,-3],[1,-6],[-1,-8],[-9,-26],[-6,-13],[-5,-15],[-2,-23],[-2,-70],[20,-22],[15,-14],[23,-29],[6,-4],[21,-10],[14,-11],[3,-3],[4,-9],[21,-75],[5,-13],[16,-29],[52,-40],[9,-10],[10,-14],[3,-3],[5,-21],[5,-27],[2,-29],[1,-6],[5,-6],[4,-5],[6,-4]],[[4096,3500],[-1,-1],[-2,-4],[-11,-14],[-1,-4],[1,-4],[5,-3],[6,-2],[3,-1]],[[4096,3097],[-2,0],[-10,2]],[[4084,3099],[-21,-27],[-164,-270],[-222,-367],[-294,-481]],[[2580,1408],[417,-1]],[[1757,1407],[437,1],[386,0]],[[1692,3763],[-10,2],[-4,3],[-3,4],[-2,9],[0,5],[1,38],[-2,9],[-2,4],[-11,18],[-8,16],[-4,18],[-1,10],[-1,10],[0,16],[0,5],[-3,14],[-3,5],[-5,6],[-20,20],[-20,25],[-151,96]],[[1757,1407],[0,2],[0,915],[-32,667],[1,5],[4,10],[22,42],[2,4],[3,2],[2,2],[6,3],[18,3],[5,2],[4,3],[5,7],[1,5],[-1,5],[-8,21],[0,14],[3,9],[19,38],[4,11],[1,8],[-5,16],[-2,10],[1,7],[1,5],[29,55],[2,9],[1,7],[1,32],[2,7],[2,6],[10,19],[2,6],[0,6],[0,12],[0,9],[1,7],[2,4],[11,11],[5,7],[3,6],[2,6],[5,36],[17,40],[4,24],[2,30],[0,7],[-1,5],[-6,19],[-3,17],[-3,17],[-17,32],[-3,9],[-2,8],[0,21],[3,23],[2,23],[-1,27],[-2,12],[-2,8],[-4,3],[-3,2],[-5,2],[-5,1]],[[1860,3798],[-4,-1],[-14,-3],[-72,-22],[-78,-9]],[[4096,1957],[-301,-2],[-412,-1]],[[643,527],[-323,1]],[[320,528],[-54,0],[-266,0]],[[524,2115],[6,0],[9,13],[4,19],[2,47],[4,27],[-1,13],[-12,22],[-5,27],[-6,13],[-10,10],[-11,8],[-10,12],[-8,40],[-8,16],[-12,13],[-11,10],[-27,17],[-13,11],[-5,11],[-2,17],[-18,59],[-17,30],[-11,40],[-3,7],[-9,32],[-5,8],[-15,16],[-70,121],[-7,20],[-1,17],[3,38],[-2,17],[-18,41],[0,31],[-4,9],[-6,23],[5,70],[-6,80],[-6,18],[-2,10],[0,9],[4,17],[0,10],[-15,38],[-6,24],[4,11],[11,9],[0,21],[-9,37],[3,7],[3,25],[13,27],[-3,9],[-7,10],[-4,15],[-2,15],[-5,8],[-8,6],[-9,10],[-6,10],[-4,12],[-15,72],[-1,12],[-2,12],[-10,27],[-4,24],[-2,8],[-4,7],[-5,6],[-3,7],[2,14],[-1,7],[-6,10],[-8,8],[-16,12],[-21,82],[-2,37]],[[514,2121],[10,-6]],[[643,527],[-4,2],[-5,29],[0,14],[10,42],[5,63],[30,140],[9,89],[22,49],[3,18],[3,79],[8,55],[-1,14],[-9,55],[2,5],[4,7],[3,9],[1,11],[-2,7],[-4,8],[-8,10],[13,51],[1,15],[-3,14],[-14,27],[-3,11],[-2,15],[-10,33],[-3,12],[7,46],[-1,18],[-19,63],[-87,172],[-34,38],[-5,14],[-3,19],[-17,57],[-5,75],[-6,17],[-12,11],[-6,10],[9,19],[-8,16],[-3,69],[-6,22],[1,11],[11,18],[2,12],[3,3],[4,0]],[[78,3823],[2,60],[-2,27],[1,54],[-2,14],[-1,20],[0,7],[2,11],[11,38],[1,2],[1,4],[0,6],[-1,8],[-3,10],[-1,2],[-1,1],[0,2],[1,2],[0,5]],[[78,3823],[-54,39],[-19,4]],[[5,3866],[-5,-5]],[[2804,4096],[296,-408],[173,-112],[172,-64],[102,8],[549,-110]],[[3098,3690],[2,-1]],[[4096,3408],[-549,112],[-102,-8],[-172,64],[-173,112],[-296,408]],[[3098,3690],[2,-1]],[[2804,4096],[318,-424]],[[1676,4094],[2,1],[34,0]],[[1672,4091],[4,3]],[[1712,4095],[44,0],[5,1]],[[3104,3707],[-8,-23],[-3,-18]],[[3415,4096],[-16,-16],[-24,-29],[-45,-40],[-12,-11],[-63,-36],[-33,-26],[-18,-18],[-9,-25],[-57,-77],[-9,-14],[-15,-33],[-3,-14],[-3,-40],[-4,-10]],[[3086,3704],[7,-38]],[[2794,4096],[22,-12],[12,-7],[18,-26],[6,-14],[9,-40],[6,-19],[9,-14],[15,-11],[21,-11],[9,-7],[21,-29],[48,-40],[12,-18],[21,-40],[15,-19],[22,-21],[12,-15],[12,-33],[2,-16]],[[3493,3517],[14,1]],[[3093,3666],[1,-2]],[[3094,3664],[8,-13],[15,-11],[12,-7],[24,0],[51,7],[18,0],[21,-3],[18,-8],[24,-18],[15,-22],[24,-36],[27,-11],[45,-7],[45,-4],[21,-11],[21,-3],[10,0]],[[3507,3518],[36,2],[36,4],[18,0],[81,-7],[42,-11],[24,-8],[72,-36],[30,-11],[60,-33],[18,-7]],[[3924,3411],[36,-11],[70,-22],[57,-10],[9,-2]],[[2332,3069],[-20,-25]],[[3093,3666],[-1,-1]],[[3092,3665],[-29,-28],[-55,-48],[-33,-25],[-36,-22],[-45,-18],[-27,-15],[-15,-11],[-24,-29],[-24,-25],[-48,-36],[-81,-59],[-54,-43],[-30,-26],[-15,-18],[-24,-14],[-18,-19],[-18,-14],[-57,-51],[-36,-26],[-15,-7],[-72,-58],[-4,-4]],[[2306,3106],[3,-48],[3,-14]],[[2277,4096],[-10,-19],[0,-22],[3,-11],[12,-11],[9,-40],[9,-11],[12,-36],[9,-11],[21,-18],[9,-8],[9,-18],[-6,-22],[-21,-54],[-24,-44],[-27,-36],[-18,-18],[-21,-40],[-9,-33],[-6,-44],[3,-25],[9,-22],[12,-22],[30,-33],[6,-18],[21,-72],[3,-44],[-6,-69],[-3,-44],[0,-83],[3,-51],[0,-11]],[[2305,3040],[7,4]],[[2026,2818],[42,22],[45,29],[46,44],[96,87],[33,29],[17,11]],[[262,2776],[25,2],[6,0]],[[803,2898],[19,8],[12,3]],[[0,2760],[2,0],[51,0],[87,-3],[54,0],[27,7],[33,11],[8,1]],[[293,2778],[30,0],[34,-7],[15,4],[75,51],[30,14],[45,15],[45,7],[51,11],[72,4],[57,0],[30,11],[26,10]],[[2312,3044],[1,0]],[[2313,3044],[53,4],[69,-8],[45,-7],[42,-25],[21,-8],[24,-3],[18,-8],[39,-3],[30,-8],[30,-25],[39,-22],[42,-11],[48,-18],[48,-14],[30,-4],[33,-22],[21,-7],[21,-4],[12,-7],[15,-18],[21,-18],[15,-11],[27,-15],[16,4],[27,14],[15,4],[18,0],[12,-4],[15,-11],[42,-40],[24,-14],[18,-11],[15,-4],[48,0],[12,-7],[15,-15],[21,-10],[27,-4],[18,-4],[66,0],[36,-14],[111,-26],[60,-14],[33,-11]],[[1454,2600],[5,-3],[21,-8]],[[834,2909],[33,11],[27,-7],[5,-2]],[[899,2911],[43,-16],[39,-15],[141,-43],[33,-22],[27,-26],[27,-32],[27,-22],[13,-4],[24,-18],[36,-22],[39,-14],[39,-19],[24,-18],[18,-22],[25,-18]],[[1480,2589],[32,-3]],[[1512,2586],[1,0],[96,11],[36,7],[36,11],[15,11],[30,32],[39,33],[42,33],[12,11],[51,14],[60,26],[75,33],[21,10]],[[4052,2530],[-4,-6],[-21,-15]],[[4096,2565],[-18,-12],[-21,-15],[-5,-8]],[[4002,2532],[1,-1],[15,-11],[9,-11]],[[3705,2615],[18,-7],[42,-11],[42,-15],[39,-7],[57,-22],[85,-15],[14,-6]],[[2225,2957],[6,-51],[0,-66],[3,-76],[3,-76],[0,-59],[3,-36],[-12,-51],[-3,-65],[0,-37],[3,-14],[24,-66],[3,-11]],[[1480,2589],[9,-14],[17,-16]],[[1506,2559],[10,-10],[27,-21],[72,-84],[21,-22],[36,-25],[33,-15],[48,-14],[15,-4],[39,4],[12,3],[87,0],[81,4],[105,-7],[45,-8],[49,0],[51,-7],[18,-4]],[[4027,2509],[7,-10]],[[4034,2499],[8,-11],[30,-22],[24,-11]],[[3496,2050],[-2,-5]],[[4027,2509],[-12,-5]],[[3494,2045],[-8,-16]],[[4015,2504],[-70,-35],[-12,-7],[-24,-14],[-18,-22],[-12,-29],[-30,-40],[-15,-29],[-3,-48],[-9,-14],[-18,-18],[-36,-30],[-18,-14],[-69,-44],[-30,-14],[-18,-18],[-21,-15],[-33,-11],[-51,-25],[-27,-19],[-5,-8]],[[2255,2349],[75,-25],[51,-18],[45,-15],[36,-11],[39,-11],[30,-7],[36,-11],[66,-22],[36,-11],[36,-7],[63,-22],[81,-14],[69,-18],[66,-11],[30,-8],[24,-10],[25,-4],[81,-22],[69,-11],[36,-11],[36,-3],[57,-15],[30,-4],[66,-18],[48,-11]],[[3486,2029],[54,-11],[72,-18],[69,-11],[96,-18],[63,-18],[27,-15],[12,-7],[18,-3],[42,-19],[58,-14],[54,-11],[45,-7]],[[3486,2029],[-36,-47],[-18,-22],[-60,-36],[-18,-15],[-21,-25],[-9,-18],[-3,-29],[0,-29],[6,-80],[3,-59],[-3,-32],[-6,-44],[-18,-87],[-9,-69],[-9,-37]],[[2276,1660],[0,-23],[0,-44],[6,-40],[6,-15],[18,-29]],[[2255,2349],[12,-47],[3,-25],[3,-55],[-3,-62],[3,-32],[-3,-30],[0,-123],[6,-62],[3,-80],[0,-55],[-3,-118]],[[2306,1509],[15,-25],[21,-47],[12,-29],[15,-30],[3,-10]],[[4095,692],[-8,-1]],[[4096,692],[-1,0]],[[0,962],[23,-34],[12,-15],[9,-15],[33,-43],[27,-44],[42,-58],[39,-65],[27,-48],[24,-54],[15,-40],[6,-26]],[[4087,691],[-21,0]],[[4066,691],[-15,0],[-51,-3],[-97,-8],[-57,4],[-45,-4],[-42,-3],[-18,-8],[-21,-14],[-24,-18],[-24,-15],[-21,-14],[-27,-11],[-30,-11],[-12,-11],[-45,-18],[-30,-8],[-18,-11],[-21,-29]],[[3448,556],[9,-19]],[[3317,998],[1,-5],[-2,-18]],[[3282,1364],[0,-66],[9,-65],[3,-36],[6,-33],[6,-33],[9,-116],[2,-17]],[[3316,975],[-4,-44],[-9,-47],[-6,-55],[9,-40],[12,-21],[33,-48],[12,-25],[33,-51],[33,-55],[9,-11],[10,-22]],[[3457,537],[11,-24],[0,-4]],[[2372,1368],[0,-48],[0,-32],[-6,-62],[-6,-84],[-6,-91],[-3,-22],[-3,-61],[3,-70],[0,-29],[-9,-51],[9,-43],[9,-178],[-3,-80],[0,-33],[6,-69],[3,-29],[6,-44],[0,-40]],[[429,298],[-33,19],[-36,21],[-25,22],[-15,33],[-27,33],[-9,14],[-18,44],[-9,36]],[[429,298],[-6,-18],[-12,-11],[-33,-36],[-18,-29],[-12,-7],[-28,-29],[-12,-8],[-24,-3],[-6,-4],[-12,-29]],[[3468,509],[3,-21],[3,-59],[15,-105],[15,-58],[42,-128],[15,-69],[12,-36]],[[2354,27],[-2,-27]],[[2372,302],[-9,-98],[-3,-87],[-3,-51],[-3,-39]],[[3468,509],[-12,-21],[-15,-11],[-33,-19],[-42,-18],[-15,-11],[-30,-29],[-42,-36],[-48,-47],[-48,-48],[-15,-25],[-15,-11],[-24,-33],[-48,-29],[-49,-18],[-42,-15],[-27,-10],[-48,-15],[-24,-7],[-24,-11],[-75,-33],[-24,-7],[-63,-7],[-78,-4],[-21,0],[-45,-7],[-117,-37]],[[3573,33],[8,-33]],[[266,124],[-12,-44],[-15,-29],[-18,-36],[-12,-15]],[[1672,4091],[12,-22],[9,-29],[3,-58],[3,-102],[-3,-32],[-15,-59],[-3,-32],[12,-11]],[[1164,2811],[112,98],[111,135],[114,156],[78,164],[57,185],[48,193]],[[4096,4096],[0,-4096],[-4096,0],[0,4096],[446,0],[3650,0]],[[0,4059],[176,4],[33,-299],[146,-26],[54,-109],[-8,-48],[-25,-8],[1,-155],[-88,-1],[-15,-39],[20,-187],[-47,-150],[3,-100],[65,-244],[85,-104],[102,-4],[217,271],[14,-142],[-31,-443],[-122,-65],[33,115],[-163,117],[-4,41],[-83,86],[-129,263],[-44,445],[36,59],[-11,68],[-154,281],[-61,14],[0,360]],[[3378,109],[-10,24],[28,22],[0,-28],[-18,-18]],[[3473,536],[-25,1],[0,39],[57,10],[-32,-50]],[[2353,625],[3,-29],[-27,-4],[-14,26],[38,7]],[[4096,691],[0,-9],[-25,-8],[-5,8],[0,38],[30,-29]],[[2455,818],[6,-17],[49,0],[-29,-19],[-36,19],[10,17]],[[2753,820],[-35,-29],[-22,20],[24,49],[33,-40]],[[3293,1000],[42,-3],[-3,-18],[-46,-11],[-16,19],[23,13]],[[2866,1232],[16,-34],[-49,-15],[-8,49],[41,0]],[[2377,0],[-73,0],[41,38],[16,-19],[16,-19]],[[3497,2045],[-41,0],[22,46],[17,-10],[2,-36]],[[1499,2525],[-49,39],[3,36],[70,33],[-24,-108]],[[4063,2496],[-45,5],[-28,24],[54,29],[19,-58]],[[940,2946],[-85,-73],[-36,-5],[-16,29],[24,59],[65,-10],[16,30],[32,-30]],[[3093,3663],[-17,40],[44,6],[13,-29],[-40,-17]],[[1810,3735],[-20,34],[10,8],[30,-8],[-20,-34]],[[2467,3885],[-38,16],[-8,25],[73,0],[-27,-41]],[[3510,3486],[-29,9],[16,29],[32,-19],[-19,-19]],[[1700,4075],[-1,0],[-26,21],[40,0],[-13,-21]],[[2340,3058],[-45,-23],[-46,30],[50,51],[41,-58]],[[3278,1369],[-40,30],[13,18],[32,-27],[-5,-21]],[[136,3697],[98,8],[26,-27],[41,32],[52,-1],[56,-80],[-8,-48],[-25,-8],[1,-155],[-145,-1],[-32,35],[-27,115],[-25,14],[-12,116]],[[1740,2329],[82,-71],[133,-21],[140,-96],[172,-38],[11,-520],[69,-184],[-603,-4],[-4,934]],[[1944,4096],[-22,-116],[-79,17],[-4,99],[105,0]]]}