{"objects":{"water":{"type":"GeometryCollection","geometries":[{"type":"MultiPolygon","properties":{"source":"naturalearthdata.com","kind":"ocean","area":1576712559132672,"sort_rank":200,"min_zoom":0.0,"id":1},"arcs":[[[736],[737],[738],[739],[740],[741],[742]]]},{"type":"LineString","properties":{"source":"naturalearthdata.com","kind":"ocean","sort_rank":205,"boundary":true,"min_zoom":0.0,"id":19},"arcs":[743]},{"type":"LineString","properties":{"source":"naturalearthdata.com","kind":"ocean","sort_rank":205,"boundary":true,"min_zoom":0.0,"id":1163},"arcs":[744]},{"type":"LineString","properties":{"source":"naturalearthdata.com","kind":"ocean","sort_rank":205,"boundary":true,"min_zoom":0.0,"id":1164},"arcs":[745]},{"type":"LineString","properties":{"source":"naturalearthdata.com","kind":"ocean","sort_rank":205,"boundary":true,"min_zoom":0.0,"id":1166},"arcs":[746]},{"type":"LineString","properties":{"source":"naturalearthdata.com","kind":"ocean","sort_rank":205,"boundary":true,"min_zoom":0.0,"id":1167},"arcs":[747]},{"type":"LineString","properties":{"source":"naturalearthdata.com","kind":"ocean","sort_rank":205,"boundary":true,"min_zoom":0.0,"id":1168},"arcs":[748]},{"type":"LineString","properties":{"source":"naturalearthdata.com","kind":"ocean","sort_rank":205,"boundary":true,"min_zoom":0.0,"id":1172},"arcs":[749]},{"type":"Point","properties":{"label_placement":true,"kind":"sea","name":"Kantabra Maro","source":"openstreetmap.org","sort_rank":200,"min_zoom":3.0,"id":4866348438},"coordinates":[2260,1570]}]},"buildings":{"type":"GeometryCollection","geometries":[]},"places":{"type":"GeometryCollection","geometries":[{"type":"Point","properties":{"name:pt":"Pa\u00eds do Loire","name:az":"Luara Torpa\u011f\u0131","name:ka":"\u10da\u10e3\u10d0\u10e0\u10d8\u10e1 \u10e0\u10d4\u10d2\u10d8\u10dd\u10dc\u10d8","name:mr":"\u092a\u0947\u0908 \u0926\u093e \u0932\u093e \u0932\u094b\u0906\u0930","name:ko":"\ud398\uc774\ub4dc\ub77c\ub8e8\uc544\ub974","name:ar":"\u0648\u0627\u062f\u064a \u0627\u0644\u0644\u0648\u0627\u0631","name:io":"Lando di Loire","name:th":"\u0e41\u0e04\u0e27\u0e49\u0e19\u0e40\u0e1b\u0e2d\u0e35\u0e40\u0e14\u0e2d\u0e25\u0e32\u0e25\u0e31\u0e27\u0e23\u0e4c","name:ro":"\u021ainuturile Loarei","name:it":"Paesi della Loira","name:an":"Pa\u00edses d'a Loira","name:ru":"\u0417\u0435\u043c\u043b\u0438 \u041b\u0443\u0430\u0440\u044b","name:ce":"\u041b\u0443\u0430\u0440\u0430\u043d \u043b\u0430\u0442\u0442\u0430\u043d\u0430\u0448","name:pl":"Kraj Loary","name:mk":"\u041b\u043e\u0430\u0440\u0441\u043a\u0438 \u041a\u0440\u0430\u0458","name:fa":"\u067e\u06cc\u06cc \u062f\u0648 \u0644\u0627 \u0644\u0648\u0622\u0631","name:hu":"Loire-mente","kind_detail":"state","id":1251610264,"source":"openstreetmap.org","name:ca":"Pa\u00eds del Loira","name:zh":"\u5362\u74e6\u5c14\u6cb3\u5730\u533a","name:pa":"\u0a2a\u0a47 \u0a21 \u0a32\u0a3e \u0a32\u0a41\u0a06\u0a30","admin_level":"4","name:sl":"Regija Loire","name:lv":"Lu\u0101ras Zeme","name:ja":"\u30da\u30a4\u30fb\u30c9\u30fb\u30e9\u30fb\u30ed\u30ef\u30fc\u30eb","name:lt":"Luaros Kra\u0161tas","name:he":"\u05e4\u05d9\u05d9 \u05d3\u05d4 \u05dc\u05d4 \u05dc\u05d5\u05d0\u05e8","kind":"region","name:br":"Broio\u00f9 al Liger","name:la":"Pagi Ligeris","name:uk":"\u041f\u0435\u0457 \u0434\u0435 \u043b\u0430 \u041b\u0443\u0430\u0440","name:hy":"\u053c\u0578\u0582\u0561\u0580\u0561\u0575\u056b \u0565\u0580\u056f\u056b\u0580","name:be":"\u0417\u0435\u043c\u043b\u0456 \u041b\u0443\u0430\u0440\u044b","name:bg":"\u041f\u0435\u0438 \u0434\u044c\u043e \u043b\u0430 \u041b\u043e\u0430\u0440","name:hr":"Zemlja Loire","name:sr":"\u0420\u0435\u0433\u0438\u043e\u043d \u041b\u043e\u0430\u0440\u0430","name:oc":"Pa\u00efses de L\u00e9ger","population":3601113,"name:eo":"Luarlandoj","name":"Pays de la Loire","name:gd":"Broio\u00f9 al Liger","min_zoom":4.0,"name:gl":"Pa\u00edses do Loira","name:es":"Pa\u00edses del Loira"},"coordinates":[3798,3445]},{"type":"Point","properties":{"name:pt":"Aquit\u00e2nia","name:ka":"\u10d0\u10d9\u10d5\u10d8\u10e2\u10d0\u10dc\u10d8\u10d0","name:ko":"\uc544\ud0a4\ud150","name:cs":"Akvit\u00e1nie","name:tr":"Akitanya","min_zoom":4.0,"name:ro":"Aquitania","name:tl":"Aquitania","name:pa":"\u0a06\u0a15\u0a40\u0a24\u0a48\u0a28","name:os":"\u0410\u043a\u0432\u0438\u0442\u0430\u043d\u0438","name:ce":"\u0410\u043a\u0432\u0438\u0442\u0430\u043d\u0438","name:ca":"Aquit\u00e0nia","name:de":"Aquitanien","source":"openstreetmap.org","name:lv":"Akvit\u0101nija","name:lt":"Akvitanija","name:hi":"\u0910\u0915\u094d\u0935\u093f\u091f\u0947\u0928","name:he":"\u05d0\u05e7\u05d9\u05d8\u05df","kind":"region","name:la":"Aquitania","name:uk":"\u0410\u043a\u0432\u0456\u0442\u0430\u043d\u0456\u044f","name:hy":"\u0531\u0584\u057e\u056b\u057f\u0561\u0576\u056b\u0561","name:hu":"Aquitania","name:hr":"Akvitanija","name:oc":"Aquit\u00e0nia","population":3254233,"name:el":"\u0391\u03ba\u03bf\u03c5\u03b9\u03c4\u03b1\u03bd\u03af\u03b1","name:eo":"Akvitanio","name":"Aquitaine","name:ku":"Ak\u00eetanya","name:th":"\u0e2d\u0e32\u0e01\u0e35\u0e41\u0e15\u0e19","name:yi":"\u05d0\u05e7\u05d5\u05d5\u05d9\u05d8\u05d0\u05e0\u05d9\u05e2","name:et":"Akvitaania","name:es":"Aquitania","name:az":"Akvitaniya","name:mr":"\u0905\u200d\u0945\u0915\u093f\u0924\u0947\u0928","name:ar":"\u0622\u0643\u064a\u062a\u064a\u0646","name:io":"Aquitania","name:it":"Aquitania","name:an":"Aquitania","name:sk":"Akvit\u00e1nsko","name:mn":"\u0410\u043a\u0432\u0438\u0442\u0430\u043d","name:pl":"Akwitania","name:mk":"\u0410\u043a\u0432\u0438\u0442\u0430\u043d\u0438\u0458\u0430","name:af":"Akwitani\u00eb","name:fa":"\u0646\u0627\u062d\u06cc\u0647 \u0622\u06a9\u06cc\u062a\u0646","kind_detail":"state","id":1251610251,"name:fy":"Akwitaanje","name:zh":"\u963f\u57fa\u5766","name:sl":"Akvitanija","name:nl":"Aquitani\u00eb","name:ja":"\u30a2\u30ad\u30c6\u30fc\u30cc","name:se":"Akvitania","name:br":"Akitania","name:bs":"Akvitanija","name:eu":"Akitania","name:bn":"\u0986\u0995\u09bf\u09a4\u09c7\u09a8","name:ru":"\u0410\u043a\u0432\u0438\u0442\u0430\u043d\u0438\u044f","name:be":"\u0410\u043a\u0432\u0456\u0442\u0430\u043d\u0456\u044f","name:bg":"\u0410\u043a\u0432\u0438\u0442\u0430\u043d\u0438\u044f","name:sr":"\u0410\u043a\u0432\u0438\u0442\u0430\u043d\u0438\u0458\u0430","name:sq":"Akuitania","name:gl":"Aquitania","name:fi":"Akvitania"},"coordinates":[3900,1742]},{"type":"Point","properties":{"admin_level":"4","name:pt":"Bretanha","name:ro":"Bretania","name:sk":"Bret\u00f3nsko","name:ja":"\u30d6\u30eb\u30bf\u30fc\u30cb\u30e5","name:lt":"Bretan\u0117","name:oc":"Bretanha","name:eo":"Bretonio","name:br":"Breizh","min_zoom":4.0,"name:la":"Britannia Minor","name:it":"Bretagna","name:uk":"\u0411\u0440\u0435\u0442\u0430\u043d\u044c","name:be":"\u0411\u0440\u044d\u0442\u0430\u043d\u044c","name:ru":"\u0411\u0440\u0435\u0442\u0430\u043d\u044c","old_name:de":"Kleinbritannien","name:ca":"Bretanya","population":3217767,"name:ga":"An Bhriot\u00e1in","name:en":"Brittany","name":"Bretagne","kind_detail":"state","kind":"region","id":1251610260,"source":"openstreetmap.org","name:eu":"Bretainia","name:es":"Breta\u00f1a"},"coordinates":[3033,3756]},{"type":"Point","properties":{"kind":"region","name":"Poitou-Charentes","name:oc":"Peitau-Charantas","kind_detail":"state","name:eo":"Puatuo-\u0108arentoj","source":"openstreetmap.org","min_zoom":4.0,"name:uk":"\u041f\u0443\u0430\u0442\u0443-\u0428\u0430\u0440\u0430\u043d\u0442","name:be":"\u041f\u0443\u0430\u0442\u0443 \u2014 \u0428\u0430\u0440\u0430\u043d\u0442\u0430","name:ru":"\u041f\u0443\u0430\u0442\u0443-\u0428\u0430\u0440\u0430\u043d\u0442\u0430","population":1777773,"id":1251610246,"name:ja":"\u30dd\u30ef\u30c8\u30a5\u30fc\uff1d\u30b7\u30e3\u30e9\u30f3\u30c8"},"coordinates":[4068,2627]},{"type":"Point","properties":{"name:pt":"Baixa Normandia","name:ro":"Normandia de Jos","name:sk":"Doln\u00e1 Normandia","name:ja":"\u30d0\u30b9\uff1d\u30ce\u30eb\u30de\u30f3\u30c7\u30a3\u30fc","name:lt":"\u017demutin\u0117 Normandija","name:oc":"Bassa Normandia","name:he":"\u05e0\u05d5\u05e8\u05de\u05e0\u05d3\u05d9 \u05ea\u05d7\u05ea\u05d9\u05ea","name:cs":"Doln\u00ed Normandie","kind":"region","name:br":"Normandi-Izel","min_zoom":4.0,"name:la":"Normannia Inferior","name:it":"Bassa Normandia","name:uk":"\u041d\u0438\u0436\u043d\u044f \u041d\u043e\u0440\u043c\u0430\u043d\u0434\u0456\u044f","name:be":"\u041d\u0456\u0436\u043d\u044f\u044f \u041d\u0430\u0440\u043c\u0430\u043d\u0434\u044b\u044f","name:ru":"\u041d\u0438\u0436\u043d\u044f\u044f \u041d\u043e\u0440\u043c\u0430\u043d\u0434\u0438\u044f","name:pl":"Dolna Normandia","id":1251610262,"name:ca":"Baixa Normandia","population":1475684,"name:eo":"Malsupra Normandio","name:en":"Lower Normandy","name":"Basse-Normandie","kind_detail":"state","name:de":"Niedernormandie","source":"openstreetmap.org","name:eu":"Normandia Beherea","name:et":"Alam-Normandia","name:es":"Baja Normand\u00eda"},"coordinates":[3936,4042]},{"type":"Point","properties":{"admin_level":"4","name:pt":"Principado de Ast\u00farias","name:he":"\u05d0\u05e1\u05d8\u05d5\u05e8\u05d9\u05d0\u05e1","name:sk":"Ast\u00farske knie\u017eatstvo","name:ar":"\u0645\u0646\u0637\u0642\u0629 \u0623\u0633\u062a\u0648\u0631\u064a\u0627\u0633","kind":"region","name:lb":"Asturien","min_zoom":4.0,"name:it":"Principato delle Asturie","old_name":"Kingdom of Asturias","name:ru":"\u0410\u0441\u0442\u0443\u0440\u0438\u044f","name:hr":"Kne\u017eevina Asturija","id":3513471344,"name:ca":"Principat d'Ast\u00faries","population":1076896,"name:eo":"Asturio","name:en":"Principality of Asturias","name":"Asturies","kind_detail":"state","name:da":"Asturien","name:de":"F\u00fcrstentum Asturien","source":"openstreetmap.org","name:fy":"Astuerje","name:be":"\u0410\u0441\u0442\u0443\u0440\u044b\u044f","name:nl":"Asturi\u00eb"},"coordinates":[1933,1203]},{"type":"Point","properties":{"name:pt":"Cant\u00e1bria","name:ko":"\uce78\ud0c0\ube0c\ub9ac\uc544 \uc9c0\ubc29","name:is":"Kantabr\u00eda","name:ru":"\u041a\u0430\u043d\u0442\u0430\u0431\u0440\u0438\u044f","id":3513471345,"name:fa":"\u06a9\u0627\u0646\u062a\u0627\u0628\u0631\u06cc\u0627","name:hu":"Kant\u00e1bria","kind_detail":"state","name:da":"Kantabrien","name:de":"Kantabrien","source":"openstreetmap.org","name:fr":"Cantabrie","name:fy":"Kantaabrje","admin_level":"4","name:nl":"Cantabri\u00eb","name:ja":"\u30ab\u30f3\u30bf\u30d6\u30ea\u30a2\u5dde","name:he":"\u05e7\u05e0\u05d8\u05d1\u05e8\u05d9\u05d4","kind":"region","name:br":"Kantabria","name:bs":"Kantabrija","old_name":"Provincia de Santander","name:be":"\u041a\u0430\u043d\u0442\u0430\u0431\u0440\u044b\u044f","name:bg":"\u041a\u0430\u043d\u0442\u0430\u0431\u0440\u0438\u044f","name:hr":"Kantabrija","population":582138,"name:el":"\u039a\u03b1\u03bd\u03c4\u03b1\u03b2\u03c1\u03af\u03b1","name:eo":"Kantabrio","name":"Cantabria","min_zoom":4.0,"name:fi":"Kantabria","name:eu":"Kantabria","name:et":"Kantaabria"},"coordinates":[2608,1124]},{"type":"Point","properties":{"admin_level":"4","name:pt":"Galiza","name:he":"\u05d2\u05dc\u05d9\u05e1\u05d9\u05d4","name:nl":"Galici\u00eb","name:ko":"\uac08\ub9ac\uc2dc\uc544 \uc9c0\ubc29","name:ar":"\u062c\u0644\u064a\u0642\u064a\u0629","name:ga":"An Ghail\u00eds","official_name":"Comunidade Aut\u00f3noma de Galicia","name:is":"Galis\u00eda","name:la":"Gallaecia","name:it":"Galizia","old_name":"Galiza","name:ru":"\u0413\u0430\u043b\u0438\u0441\u0438\u044f","name:bg":"\u0413\u0430\u043b\u0438\u0441\u0438\u044f","id":1099011107,"name:ca":"Gal\u00edcia","name:el":"\u0393\u03b1\u03bb\u03b9\u03ba\u03af\u03b1","name:eo":"Galegio","name":"Galicia","kind_detail":"state","name:da":"Galicien","min_zoom":4.0,"kind":"region","name:de":"Galicien","source":"openstreetmap.org","name:fr":"Galice","name:eu":"Galizia","name:fy":"Galysje","name:be":"\u0413\u0430\u043b\u0456\u0441\u0456\u044f","name:zh":"\u52a0\u5229\u897f\u4e9a"},"coordinates":[1233,846]},{"type":"Point","properties":{"admin_level":"4","kind":"region","name":"La Rioja","name:lt":"La Riocha","kind_detail":"state","name:eo":"Rio\u0125o","source":"openstreetmap.org","min_zoom":4.0,"name:uk":"\u041b\u0430-\u0420\u0456\u043e\u0445\u0430","old_name":"Provincia de Logro\u00f1o","name:ru":"\u0420\u0438\u043e\u0445\u0430","name:be":"\u0420\u044b\u0451\u0445\u0430","id":1104630889},"coordinates":[3198,696]},{"type":"Point","properties":{"admin_level":"4","name:pt":"Arag\u00e3o","name:ro":"Aragon","name:he":"\u05d0\u05e8\u05d0\u05d2\u05d5\u05df","kind":"region","min_zoom":4.0,"name:la":"Aragonia","name:it":"Aragona","name:be":"\u0410\u0440\u0430\u0433\u043e\u043d","name:ru":"\u0410\u0440\u0430\u0433\u043e\u043d","name:pl":"Aragonia","id":1721119244,"name:eo":"Aragono","name:en":"Aragon","name":"Arag\u00f3n","kind_detail":"state","name:da":"Aragonien","name:de":"Aragonien","source":"openstreetmap.org","name:fr":"Aragon","name:eu":"Aragoi"},"coordinates":[3818,206]},{"type":"Point","properties":{"admin_level":"4","name:pt":"Castela e Le\u00e3o","name:ro":"Castilia \u0219i Le\u00f3n","name:nl":"Castili\u00eb en Le\u00f3n","name:lt":"Kastilija ir Leonas","name:he":"\u05e7\u05e1\u05d8\u05d9\u05dc\u05d9\u05d4 \u05d5\u05dc\u05d0\u05d5\u05df","kind":"region","min_zoom":4.0,"name:it":"Castiglia e Le\u00f3n","name:uk":"\u041a\u0430\u0441\u0442\u0438\u043b\u0456\u044f-\u0456-\u041b\u0435\u043e\u043d","name:be":"\u041a\u0430\u0441\u0442\u044b\u043b\u0456\u044f \u0456 \u041b\u0435\u043e\u043d","name:ru":"\u041a\u0430\u0441\u0442\u0438\u043b\u0438\u044f \u0438 \u041b\u0435\u043e\u043d","name:pl":"Kastylia i Le\u00f3n","id":1721119270,"name:eo":"Kastilio kaj Leono","name:en":"Castile and Le\u00f3n","name":"Castilla y Le\u00f3n","kind_detail":"state","name:de":"Kastilien und Le\u00f3n","source":"openstreetmap.org","name:fr":"Castille-et-Le\u00f3n","name:eu":"Gaztela Leon"},"coordinates":[2368,425]},{"type":"Point","properties":{"admin_level":"4","name:pt":"Pa\u00eds Basco","name:nl":"Baskenland","name:lt":"Baskija","kind":"region","name:io":"Baskia","name:lb":"Autonom Gemeinschaft Baskeland","min_zoom":4.0,"name:it":"Paese basco","name:uk":"\u041a\u0440\u0430\u0457\u043d\u0430 \u0411\u0430\u0441\u043a\u0456\u0432","name:be":"\u041a\u0440\u0430\u0456\u043d\u0430 \u0411\u0430\u0441\u043a\u0430\u045e","name:ru":"\u0421\u0442\u0440\u0430\u043d\u0430 \u0411\u0430\u0441\u043a\u043e\u0432","name:pl":"Kraj Bask\u00f3w","name:hr":"Baskija","id":3513471346,"name:ca":"Pa\u00eds Basc","name:eo":"Euskio","name:en":"Basque Country","name":"Euskadi","official_name":"Euskadi \/ Pa\u00eds Vasco","kind_detail":"state","name:de":"Baskenland","source":"openstreetmap.org","name:fr":"Pays Basque","name:eu":"Euskal Autonomia Erkidegoa","name:fy":"Baskel\u00e2n","name:es":"Pa\u00eds Vasco"},"coordinates":[3166,1037]},{"type":"Point","properties":{"source":"naturalearthdata.com","kind":"locality","name":"Bilbao","population":875552,"min_zoom":5.0,"id":6314},"coordinates":[3029,1171]},{"type":"Point","properties":{"source":"naturalearthdata.com","kind":"locality","name":"Bordeaux","population":803000,"region_capital":true,"min_zoom":5.0,"id":6581},"coordinates":[3879,1997]},{"type":"Point","properties":{"source":"naturalearthdata.com","kind":"locality","name":"Vigo","population":378952,"min_zoom":5.0,"id":6313},"coordinates":[918,640]}]},"transit":{"type":"GeometryCollection","geometries":[{"type":"MultiLineString","properties":{"kind":"train","network":"TGV Europe","service":"international","sort_rank":275,"source":"openstreetmap.org","min_zoom":5.0,"operator":"SNCF-Renfe","ref":"TGV","osm_relation":true,"name":"TGV : Marseille \u2212 Madrid"},"arcs":[[728],[729],[730],[731],[732],[733],[734],[735]]}]},"pois":{"type":"GeometryCollection","geometries":[]},"boundaries":{"type":"GeometryCollection","geometries":[{"type":"MultiLineString","properties":{"source":"naturalearthdata.com","kind":"country","sort_rank":262,"kind_detail":"2","min_zoom":0.0,"id":165},"arcs":[[0],[1],[2],[3],[4],[5],[6],[7],[8],[9],[10],[11],[12],[13],[14],[15],[16],[17],[18],[19],[20],[21],[22],[23],[24],[25]]},{"type":"MultiLineString","properties":{"source":"naturalearthdata.com","kind":"country","sort_rank":262,"kind_detail":"2","min_zoom":0.0,"id":212},"arcs":[[26],[27],[28],[29],[30],[31],[32],[33],[34],[35],[36],[37],[38],[39],[40],[41],[42],[43],[44],[45],[46],[47],[48],[49],[50],[51],[52],[53],[54],[55]]},{"type":"LineString","properties":{"source":"naturalearthdata.com","kind":"macroregion","sort_rank":257,"kind_detail":"3","min_zoom":3.0,"id":601},"arcs":[56]},{"type":"LineString","properties":{"source":"naturalearthdata.com","kind":"macroregion","sort_rank":257,"kind_detail":"3","min_zoom":3.0,"id":1858},"arcs":[57]},{"type":"MultiLineString","properties":{"source":"naturalearthdata.com","kind":"macroregion","sort_rank":257,"kind_detail":"3","min_zoom":3.0,"id":1861},"arcs":[[58],[59],[60],[61],[62],[63],[64],[65],[66],[67],[68],[69],[70]]},{"type":"LineString","properties":{"source":"naturalearthdata.com","kind":"macroregion","sort_rank":257,"kind_detail":"3","min_zoom":3.0,"id":1862},"arcs":[71]},{"type":"MultiLineString","properties":{"source":"naturalearthdata.com","kind":"macroregion","sort_rank":257,"kind_detail":"3","min_zoom":5.5,"id":7936},"arcs":[[72],[73]]},{"type":"MultiLineString","properties":{"source":"naturalearthdata.com","kind":"macroregion","sort_rank":257,"kind_detail":"3","min_zoom":5.5,"id":7937},"arcs":[[74],[75]]},{"type":"MultiLineString","properties":{"source":"naturalearthdata.com","kind":"macroregion","sort_rank":257,"kind_detail":"3","min_zoom":3.0,"id":8933},"arcs":[[76],[77],[78]]},{"type":"MultiLineString","properties":{"source":"naturalearthdata.com","kind":"region","sort_rank":256,"kind_detail":"4","min_zoom":5.5,"id":9434},"arcs":[[79],[80],[81],[82],[83],[84],[85],[86],[87],[88],[89],[90]]},{"type":"LineString","properties":{"source":"naturalearthdata.com","kind":"region","sort_rank":256,"kind_detail":"4","min_zoom":5.5,"id":9477},"arcs":[91]},{"type":"MultiLineString","properties":{"source":"naturalearthdata.com","kind":"region","sort_rank":256,"kind_detail":"4","min_zoom":5.5,"id":9478},"arcs":[[92],[93]]},{"type":"MultiLineString","properties":{"source":"naturalearthdata.com","kind":"region","sort_rank":256,"kind_detail":"4","min_zoom":5.5,"id":9489},"arcs":[[94],[95]]},{"type":"MultiLineString","properties":{"source":"naturalearthdata.com","kind":"macroregion","sort_rank":257,"kind_detail":"3","min_zoom":3.0,"id":9546},"arcs":[[96],[97],[98],[99]]},{"type":"LineString","properties":{"source":"naturalearthdata.com","kind":"macroregion","sort_rank":257,"kind_detail":"3","min_zoom":3.0,"id":9627},"arcs":[100]},{"type":"LineString","properties":{"source":"naturalearthdata.com","kind":"region","sort_rank":256,"kind_detail":"4","min_zoom":5.5,"id":582},"arcs":[101]},{"type":"LineString","properties":{"source":"naturalearthdata.com","kind":"region","sort_rank":256,"kind_detail":"4","min_zoom":5.5,"id":584},"arcs":[102]},{"type":"LineString","properties":{"source":"naturalearthdata.com","kind":"region","sort_rank":256,"kind_detail":"4","min_zoom":5.5,"id":587},"arcs":[103]},{"type":"LineString","properties":{"source":"naturalearthdata.com","kind":"macroregion","sort_rank":257,"kind_detail":"3","min_zoom":3.0,"id":594},"arcs":[104]},{"type":"LineString","properties":{"source":"naturalearthdata.com","kind":"region","sort_rank":256,"kind_detail":"4","min_zoom":5.5,"id":599},"arcs":[105]},{"type":"LineString","properties":{"source":"naturalearthdata.com","kind":"macroregion","sort_rank":257,"kind_detail":"3","min_zoom":3.0,"id":600},"arcs":[106]},{"type":"LineString","properties":{"source":"naturalearthdata.com","kind":"macroregion","sort_rank":257,"kind_detail":"3","min_zoom":3.0,"id":602},"arcs":[107]},{"type":"MultiLineString","properties":{"source":"naturalearthdata.com","kind":"macroregion","sort_rank":257,"kind_detail":"3","min_zoom":3.0,"id":1853},"arcs":[[108],[109],[110],[111],[112]]},{"type":"MultiLineString","properties":{"source":"naturalearthdata.com","kind":"macroregion","sort_rank":257,"kind_detail":"3","min_zoom":3.0,"id":1854},"arcs":[[113],[114],[115],[116],[117],[118],[119],[120]]},{"type":"MultiLineString","properties":{"source":"naturalearthdata.com","kind":"macroregion","sort_rank":257,"kind_detail":"3","min_zoom":3.0,"id":1857},"arcs":[[121],[122],[123],[124],[125],[126],[127],[128],[129],[130],[131],[132],[133]]},{"type":"MultiLineString","properties":{"source":"naturalearthdata.com","kind":"macroregion","sort_rank":257,"kind_detail":"3","min_zoom":3.0,"id":1859},"arcs":[[134],[135],[136],[137],[138],[139],[140],[141],[142],[143],[144],[145],[146]]},{"type":"MultiLineString","properties":{"source":"naturalearthdata.com","kind":"macroregion","sort_rank":257,"kind_detail":"3","min_zoom":3.0,"id":1860},"arcs":[[147],[148],[149],[150],[151],[152],[153],[154],[155],[156],[157],[158],[159]]},{"type":"MultiLineString","properties":{"source":"naturalearthdata.com","kind":"macroregion","sort_rank":257,"kind_detail":"3","min_zoom":3.0,"id":1866},"arcs":[[160],[161],[162],[163],[164],[165],[166],[167],[168],[169],[170],[171],[172],[173],[174],[175],[176],[177],[178],[179],[180],[181],[182],[183],[184]]},{"type":"MultiLineString","properties":{"source":"naturalearthdata.com","kind":"macroregion","sort_rank":257,"kind_detail":"3","min_zoom":3.0,"id":1867},"arcs":[[185],[186],[187],[188],[189],[190],[191],[192],[193]]},{"type":"MultiLineString","properties":{"source":"naturalearthdata.com","kind":"macroregion","sort_rank":257,"kind_detail":"3","min_zoom":3.0,"id":1868},"arcs":[[194],[195],[196],[197],[198],[199],[200],[201],[202]]},{"type":"MultiLineString","properties":{"source":"naturalearthdata.com","kind":"macroregion","sort_rank":257,"kind_detail":"3","min_zoom":3.0,"id":1869},"arcs":[[203],[204],[205],[206],[207],[208],[209],[210],[211],[212],[213],[214]]},{"type":"MultiLineString","properties":{"source":"naturalearthdata.com","kind":"macroregion","sort_rank":257,"kind_detail":"3","min_zoom":3.0,"id":1871},"arcs":[[215],[216],[217],[218],[219],[220],[221],[222]]},{"type":"MultiLineString","properties":{"source":"naturalearthdata.com","kind":"region","sort_rank":256,"kind_detail":"4","min_zoom":5.5,"id":8735},"arcs":[[223],[224]]},{"type":"MultiLineString","properties":{"source":"naturalearthdata.com","kind":"region","sort_rank":256,"kind_detail":"4","min_zoom":5.5,"id":8736},"arcs":[[225],[226],[227],[228],[229],[230],[231],[232],[233],[234],[235],[236],[237],[238],[239],[240]]},{"type":"LineString","properties":{"source":"naturalearthdata.com","kind":"region","sort_rank":256,"kind_detail":"4","min_zoom":5.5,"id":8747},"arcs":[241]},{"type":"MultiLineString","properties":{"source":"naturalearthdata.com","kind":"region","sort_rank":256,"kind_detail":"4","min_zoom":5.5,"id":8758},"arcs":[[242],[243],[244]]},{"type":"MultiLineString","properties":{"source":"naturalearthdata.com","kind":"region","sort_rank":256,"kind_detail":"4","min_zoom":5.5,"id":8775},"arcs":[[245],[246],[247],[248],[249]]},{"type":"MultiLineString","properties":{"source":"naturalearthdata.com","kind":"region","sort_rank":256,"kind_detail":"4","min_zoom":5.5,"id":8785},"arcs":[[250],[251],[252],[253],[254],[255],[256]]},{"type":"MultiLineString","properties":{"source":"naturalearthdata.com","kind":"region","sort_rank":256,"kind_detail":"4","min_zoom":5.5,"id":8786},"arcs":[[257],[258],[259]]},{"type":"MultiLineString","properties":{"source":"naturalearthdata.com","kind":"region","sort_rank":256,"kind_detail":"4","min_zoom":5.5,"id":8792},"arcs":[[260],[261],[262],[263]]},{"type":"MultiLineString","properties":{"source":"naturalearthdata.com","kind":"region","sort_rank":256,"kind_detail":"4","min_zoom":5.5,"id":8797},"arcs":[[264],[265],[266],[267],[268],[269],[270],[271]]},{"type":"MultiLineString","properties":{"source":"naturalearthdata.com","kind":"region","sort_rank":256,"kind_detail":"4","min_zoom":5.5,"id":8807},"arcs":[[272],[273],[274]]},{"type":"MultiLineString","properties":{"source":"naturalearthdata.com","kind":"region","sort_rank":256,"kind_detail":"4","min_zoom":5.5,"id":8808},"arcs":[[275],[276],[277],[278]]},{"type":"MultiLineString","properties":{"source":"naturalearthdata.com","kind":"region","sort_rank":256,"kind_detail":"4","min_zoom":5.5,"id":8812},"arcs":[[279],[280],[281]]},{"type":"MultiLineString","properties":{"source":"naturalearthdata.com","kind":"region","sort_rank":256,"kind_detail":"4","min_zoom":5.5,"id":8815},"arcs":[[282],[283],[284],[285],[286],[287],[288],[289]]},{"type":"MultiLineString","properties":{"source":"naturalearthdata.com","kind":"region","sort_rank":256,"kind_detail":"4","min_zoom":5.5,"id":8818},"arcs":[[290],[291],[292],[293],[294],[295],[296],[297],[298]]},{"type":"MultiLineString","properties":{"source":"naturalearthdata.com","kind":"region","sort_rank":256,"kind_detail":"4","min_zoom":5.5,"id":8819},"arcs":[[299],[300],[301],[302],[303],[304],[305],[306],[307],[308],[309],[310],[311],[312]]},{"type":"MultiLineString","properties":{"source":"naturalearthdata.com","kind":"region","sort_rank":256,"kind_detail":"4","min_zoom":5.5,"id":8820},"arcs":[[313],[314],[315],[316],[317]]},{"type":"LineString","properties":{"source":"naturalearthdata.com","kind":"region","sort_rank":256,"kind_detail":"4","min_zoom":5.5,"id":8825},"arcs":[318]},{"type":"MultiLineString","properties":{"source":"naturalearthdata.com","kind":"region","sort_rank":256,"kind_detail":"4","min_zoom":5.5,"id":8826},"arcs":[[319],[320],[321],[322],[323],[324],[325]]},{"type":"MultiLineString","properties":{"source":"naturalearthdata.com","kind":"macroregion","sort_rank":257,"kind_detail":"3","min_zoom":5.5,"id":8832},"arcs":[[326],[327]]},{"type":"MultiLineString","properties":{"source":"naturalearthdata.com","kind":"macroregion","sort_rank":257,"kind_detail":"3","min_zoom":5.5,"id":8833},"arcs":[[328],[329]]},{"type":"MultiLineString","properties":{"source":"naturalearthdata.com","kind":"region","sort_rank":256,"kind_detail":"4","min_zoom":5.5,"id":8843},"arcs":[[330],[331],[332],[333],[334]]},{"type":"LineString","properties":{"source":"naturalearthdata.com","kind":"region","sort_rank":256,"kind_detail":"4","min_zoom":5.5,"id":8844},"arcs":[335]},{"type":"MultiLineString","properties":{"source":"naturalearthdata.com","kind":"region","sort_rank":256,"kind_detail":"4","min_zoom":5.5,"id":8848},"arcs":[[336],[337],[338],[339],[340]]},{"type":"LineString","properties":{"source":"naturalearthdata.com","kind":"region","sort_rank":256,"kind_detail":"4","min_zoom":5.5,"id":8849},"arcs":[341]},{"type":"MultiLineString","properties":{"source":"naturalearthdata.com","kind":"region","sort_rank":256,"kind_detail":"4","min_zoom":5.5,"id":8864},"arcs":[[342],[343],[344],[345],[346],[347],[348]]},{"type":"MultiLineString","properties":{"source":"naturalearthdata.com","kind":"region","sort_rank":256,"kind_detail":"4","min_zoom":5.5,"id":8865},"arcs":[[349],[350],[351]]},{"type":"MultiLineString","properties":{"source":"naturalearthdata.com","kind":"region","sort_rank":256,"kind_detail":"4","min_zoom":5.5,"id":8867},"arcs":[[352],[353],[354],[355],[356]]},{"type":"LineString","properties":{"source":"naturalearthdata.com","kind":"region","sort_rank":256,"kind_detail":"4","min_zoom":5.5,"id":8868},"arcs":[357]},{"type":"MultiLineString","properties":{"source":"naturalearthdata.com","kind":"macroregion","sort_rank":257,"kind_detail":"3","min_zoom":3.0,"id":8938},"arcs":[[358],[359],[360],[361],[362],[363]]},{"type":"MultiLineString","properties":{"source":"naturalearthdata.com","kind":"macroregion","sort_rank":257,"kind_detail":"3","min_zoom":3.0,"id":8937},"arcs":[[364],[365],[366],[367],[368],[369],[370],[371],[372],[373],[374]]},{"type":"MultiLineString","properties":{"source":"naturalearthdata.com","kind":"macroregion","sort_rank":257,"kind_detail":"3","min_zoom":3.0,"id":8958},"arcs":[[375],[376],[377],[378],[379],[380],[381]]},{"type":"LineString","properties":{"source":"naturalearthdata.com","kind":"macroregion","sort_rank":257,"kind_detail":"3","min_zoom":3.0,"id":8969},"arcs":[382]},{"type":"MultiLineString","properties":{"source":"naturalearthdata.com","kind":"macroregion","sort_rank":257,"kind_detail":"3","min_zoom":3.0,"id":8970},"arcs":[[383],[384],[385],[386],[387],[388],[389],[390]]},{"type":"LineString","properties":{"source":"naturalearthdata.com","kind":"macroregion","sort_rank":257,"kind_detail":"3","min_zoom":3.0,"id":8995},"arcs":[391]},{"type":"MultiLineString","properties":{"source":"naturalearthdata.com","kind":"region","sort_rank":256,"kind_detail":"4","min_zoom":5.5,"id":9433},"arcs":[[392],[393],[394],[395],[396],[397],[398],[399],[400],[401],[402],[403],[404],[405],[406],[407],[408]]},{"type":"MultiLineString","properties":{"source":"naturalearthdata.com","kind":"region","sort_rank":256,"kind_detail":"4","min_zoom":5.5,"id":9435},"arcs":[[409],[410],[411],[412],[413],[414],[415],[416],[417],[418]]},{"type":"LineString","properties":{"source":"naturalearthdata.com","kind":"region","sort_rank":256,"kind_detail":"4","min_zoom":5.5,"id":9459},"arcs":[419]},{"type":"MultiLineString","properties":{"source":"naturalearthdata.com","kind":"region","sort_rank":256,"kind_detail":"4","min_zoom":5.5,"id":9444},"arcs":[[420],[421],[422]]},{"type":"MultiLineString","properties":{"source":"naturalearthdata.com","kind":"region","sort_rank":256,"kind_detail":"4","min_zoom":5.5,"id":9449},"arcs":[[423],[424],[425]]},{"type":"MultiLineString","properties":{"source":"naturalearthdata.com","kind":"region","sort_rank":256,"kind_detail":"4","min_zoom":5.5,"id":9454},"arcs":[[426],[427]]},{"type":"MultiLineString","properties":{"source":"naturalearthdata.com","kind":"region","sort_rank":256,"kind_detail":"4","min_zoom":5.5,"id":9455},"arcs":[[428],[429],[430],[431],[432]]},{"type":"MultiLineString","properties":{"source":"naturalearthdata.com","kind":"region","sort_rank":256,"kind_detail":"4","min_zoom":5.5,"id":9456},"arcs":[[433],[434],[435],[436],[437],[438],[439],[440],[441],[442],[443],[444],[445]]},{"type":"LineString","properties":{"source":"naturalearthdata.com","kind":"region","sort_rank":256,"kind_detail":"4","min_zoom":5.5,"id":9457},"arcs":[446]},{"type":"MultiLineString","properties":{"source":"naturalearthdata.com","kind":"region","sort_rank":256,"kind_detail":"4","min_zoom":5.5,"id":9458},"arcs":[[447],[448],[449],[450],[451],[452],[453],[454],[455],[456],[457]]},{"type":"LineString","properties":{"source":"naturalearthdata.com","kind":"region","sort_rank":256,"kind_detail":"4","min_zoom":5.5,"id":9462},"arcs":[458]},{"type":"MultiLineString","properties":{"source":"naturalearthdata.com","kind":"region","sort_rank":256,"kind_detail":"4","min_zoom":5.5,"id":9463},"arcs":[[459],[460],[461],[462],[463],[464]]},{"type":"MultiLineString","properties":{"source":"naturalearthdata.com","kind":"region","sort_rank":256,"kind_detail":"4","min_zoom":5.5,"id":9468},"arcs":[[465],[466],[467]]},{"type":"MultiLineString","properties":{"source":"naturalearthdata.com","kind":"region","sort_rank":256,"kind_detail":"4","min_zoom":5.5,"id":9469},"arcs":[[468],[469],[470],[471],[472],[473],[474],[475],[476]]},{"type":"LineString","properties":{"source":"naturalearthdata.com","kind":"macroregion","sort_rank":257,"kind_detail":"3","min_zoom":3.0,"id":9515},"arcs":[477]},{"type":"MultiLineString","properties":{"source":"naturalearthdata.com","kind":"region","sort_rank":256,"kind_detail":"4","min_zoom":5.5,"id":9479},"arcs":[[478],[479],[480],[481],[482],[483],[484],[485],[486]]},{"type":"MultiLineString","properties":{"source":"naturalearthdata.com","kind":"region","sort_rank":256,"kind_detail":"4","min_zoom":5.5,"id":9480},"arcs":[[487],[488],[489],[490],[491]]},{"type":"MultiLineString","properties":{"source":"naturalearthdata.com","kind":"region","sort_rank":256,"kind_detail":"4","min_zoom":5.5,"id":9481},"arcs":[[492],[493],[494],[495]]},{"type":"MultiLineString","properties":{"source":"naturalearthdata.com","kind":"region","sort_rank":256,"kind_detail":"4","min_zoom":5.5,"id":9482},"arcs":[[496],[497],[498],[499],[500],[501],[502],[503],[504],[505]]},{"type":"MultiLineString","properties":{"source":"naturalearthdata.com","kind":"region","sort_rank":256,"kind_detail":"4","min_zoom":5.5,"id":9483},"arcs":[[506],[507],[508],[509],[510],[511],[512],[513],[514],[515],[516],[517],[518],[519],[520]]},{"type":"LineString","properties":{"source":"naturalearthdata.com","kind":"region","sort_rank":256,"kind_detail":"4","min_zoom":5.5,"id":9484},"arcs":[521]},{"type":"MultiLineString","properties":{"source":"naturalearthdata.com","kind":"region","sort_rank":256,"kind_detail":"4","min_zoom":5.5,"id":9485},"arcs":[[522],[523],[524],[525],[526]]},{"type":"MultiLineString","properties":{"source":"naturalearthdata.com","kind":"region","sort_rank":256,"kind_detail":"4","min_zoom":5.5,"id":9486},"arcs":[[527],[528],[529],[530],[531],[532],[533],[534],[535],[536],[537],[538]]},{"type":"MultiLineString","properties":{"source":"naturalearthdata.com","kind":"macroregion","sort_rank":257,"kind_detail":"3","min_zoom":5.5,"id":9487},"arcs":[[539],[540]]},{"type":"MultiLineString","properties":{"source":"naturalearthdata.com","kind":"region","sort_rank":256,"kind_detail":"4","min_zoom":5.5,"id":9488},"arcs":[[541],[542],[543],[544],[545],[546],[547],[548],[549],[550],[551],[552],[553],[554],[555],[556],[557],[558],[559],[560],[561]]},{"type":"LineString","properties":{"source":"naturalearthdata.com","kind":"region","sort_rank":256,"kind_detail":"4","min_zoom":5.5,"id":9490},"arcs":[562]},{"type":"MultiLineString","properties":{"source":"naturalearthdata.com","kind":"region","sort_rank":256,"kind_detail":"4","min_zoom":5.5,"id":9491},"arcs":[[563],[564]]},{"type":"MultiLineString","properties":{"source":"naturalearthdata.com","kind":"region","sort_rank":256,"kind_detail":"4","min_zoom":5.5,"id":9492},"arcs":[[565],[566],[567],[568],[569],[570],[571],[572],[573],[574],[575],[576],[577],[578],[579],[580]]},{"type":"MultiLineString","properties":{"source":"naturalearthdata.com","kind":"region","sort_rank":256,"kind_detail":"4","min_zoom":5.5,"id":9493},"arcs":[[581],[582],[583],[584],[585],[586],[587],[588],[589],[590],[591]]},{"type":"LineString","properties":{"source":"naturalearthdata.com","kind":"region","sort_rank":256,"kind_detail":"4","min_zoom":5.5,"id":9494},"arcs":[592]},{"type":"MultiLineString","properties":{"source":"naturalearthdata.com","kind":"macroregion","sort_rank":257,"kind_detail":"3","min_zoom":3.0,"id":9514},"arcs":[[593],[594],[595],[596],[597],[598],[599]]},{"type":"LineString","properties":{"source":"naturalearthdata.com","kind":"macroregion","sort_rank":257,"kind_detail":"3","min_zoom":3.0,"id":9508},"arcs":[600]},{"type":"LineString","properties":{"source":"naturalearthdata.com","kind":"macroregion","sort_rank":257,"kind_detail":"3","min_zoom":3.0,"id":9509},"arcs":[601]},{"type":"MultiLineString","properties":{"source":"naturalearthdata.com","kind":"macroregion","sort_rank":257,"kind_detail":"3","min_zoom":3.0,"id":9511},"arcs":[[602],[603],[604]]},{"type":"MultiLineString","properties":{"source":"naturalearthdata.com","kind":"macroregion","sort_rank":257,"kind_detail":"3","min_zoom":3.0,"id":9512},"arcs":[[605],[606],[607]]},{"type":"MultiLineString","properties":{"source":"naturalearthdata.com","kind":"macroregion","sort_rank":257,"kind_detail":"3","min_zoom":3.0,"id":9513},"arcs":[[608],[609],[610],[611],[612]]},{"type":"MultiLineString","properties":{"source":"naturalearthdata.com","kind":"macroregion","sort_rank":257,"kind_detail":"3","min_zoom":3.0,"id":9516},"arcs":[[613],[614],[615],[616],[617],[618],[619],[620],[621],[622],[623],[624],[625]]},{"type":"LineString","properties":{"source":"naturalearthdata.com","kind":"macroregion","sort_rank":257,"kind_detail":"3","min_zoom":3.0,"id":9517},"arcs":[626]},{"type":"MultiLineString","properties":{"source":"naturalearthdata.com","kind":"macroregion","sort_rank":257,"kind_detail":"3","min_zoom":3.0,"id":9518},"arcs":[[627],[628]]},{"type":"MultiLineString","properties":{"source":"naturalearthdata.com","kind":"macroregion","sort_rank":257,"kind_detail":"3","min_zoom":3.0,"id":9519},"arcs":[[629],[630],[631],[632]]},{"type":"LineString","properties":{"source":"naturalearthdata.com","kind":"macroregion","sort_rank":257,"kind_detail":"3","min_zoom":3.0,"id":9520},"arcs":[633]},{"type":"LineString","properties":{"source":"naturalearthdata.com","kind":"macroregion","sort_rank":257,"kind_detail":"3","min_zoom":3.0,"id":9521},"arcs":[634]},{"type":"LineString","properties":{"source":"naturalearthdata.com","kind":"macroregion","sort_rank":257,"kind_detail":"3","min_zoom":3.0,"id":9522},"arcs":[635]},{"type":"LineString","properties":{"source":"naturalearthdata.com","kind":"macroregion","sort_rank":257,"kind_detail":"3","min_zoom":3.0,"id":9523},"arcs":[636]},{"type":"LineString","properties":{"source":"naturalearthdata.com","kind":"macroregion","sort_rank":257,"kind_detail":"3","min_zoom":3.0,"id":9524},"arcs":[637]},{"type":"LineString","properties":{"source":"naturalearthdata.com","kind":"macroregion","sort_rank":257,"kind_detail":"3","min_zoom":3.0,"id":9525},"arcs":[638]},{"type":"LineString","properties":{"source":"naturalearthdata.com","kind":"macroregion","sort_rank":257,"kind_detail":"3","min_zoom":3.0,"id":9526},"arcs":[639]},{"type":"LineString","properties":{"source":"naturalearthdata.com","kind":"macroregion","sort_rank":257,"kind_detail":"3","min_zoom":3.0,"id":9527},"arcs":[640]},{"type":"LineString","properties":{"source":"naturalearthdata.com","kind":"macroregion","sort_rank":257,"kind_detail":"3","min_zoom":3.0,"id":9528},"arcs":[641]},{"type":"LineString","properties":{"source":"naturalearthdata.com","kind":"macroregion","sort_rank":257,"kind_detail":"3","min_zoom":3.0,"id":9529},"arcs":[642]},{"type":"LineString","properties":{"source":"naturalearthdata.com","kind":"macroregion","sort_rank":257,"kind_detail":"3","min_zoom":3.0,"id":9530},"arcs":[643]},{"type":"LineString","properties":{"source":"naturalearthdata.com","kind":"macroregion","sort_rank":257,"kind_detail":"3","min_zoom":3.0,"id":9531},"arcs":[644]},{"type":"MultiLineString","properties":{"source":"naturalearthdata.com","kind":"macroregion","sort_rank":257,"kind_detail":"3","min_zoom":3.0,"id":9532},"arcs":[[645],[646],[647],[648],[649],[650],[651],[652],[653]]},{"type":"MultiLineString","properties":{"source":"naturalearthdata.com","kind":"macroregion","sort_rank":257,"kind_detail":"3","min_zoom":3.0,"id":9533},"arcs":[[654],[655],[656],[657],[658]]},{"type":"MultiLineString","properties":{"source":"naturalearthdata.com","kind":"macroregion","sort_rank":257,"kind_detail":"3","min_zoom":3.0,"id":9545},"arcs":[[659],[660],[661],[662],[663],[664],[665],[666],[667],[668],[669],[670],[671],[672],[673],[674]]},{"type":"MultiLineString","properties":{"source":"naturalearthdata.com","kind":"macroregion","sort_rank":257,"kind_detail":"3","min_zoom":3.0,"id":9549},"arcs":[[675],[676]]},{"type":"MultiLineString","properties":{"source":"naturalearthdata.com","kind":"macroregion","sort_rank":257,"kind_detail":"3","min_zoom":3.0,"id":9619},"arcs":[[677],[678],[679],[680]]},{"type":"LineString","properties":{"source":"naturalearthdata.com","kind":"macroregion","sort_rank":257,"kind_detail":"3","min_zoom":3.0,"id":9620},"arcs":[681]},{"type":"LineString","properties":{"source":"naturalearthdata.com","kind":"macroregion","sort_rank":257,"kind_detail":"3","min_zoom":3.0,"id":9621},"arcs":[682]},{"type":"MultiLineString","properties":{"source":"naturalearthdata.com","kind":"macroregion","sort_rank":257,"kind_detail":"3","min_zoom":3.0,"id":9622},"arcs":[[683],[684],[685],[686],[687],[688],[689],[690],[691]]},{"type":"MultiLineString","properties":{"source":"naturalearthdata.com","kind":"macroregion","sort_rank":257,"kind_detail":"3","min_zoom":3.0,"id":9628},"arcs":[[692],[693],[694],[695],[696],[697],[698],[699],[700],[701],[702]]},{"type":"LineString","properties":{"source":"naturalearthdata.com","kind":"macroregion","sort_rank":257,"kind_detail":"3","min_zoom":3.0,"id":9629},"arcs":[703]},{"type":"MultiLineString","properties":{"source":"naturalearthdata.com","kind":"macroregion","sort_rank":257,"kind_detail":"3","min_zoom":3.0,"id":9630},"arcs":[[704],[705],[706],[707]]},{"type":"MultiLineString","properties":{"source":"naturalearthdata.com","kind":"macroregion","sort_rank":257,"kind_detail":"3","min_zoom":3.0,"id":9633},"arcs":[[708],[709],[710],[711],[712],[713],[714],[715],[716],[717],[718],[719]]},{"type":"LineString","properties":{"source":"naturalearthdata.com","kind":"macroregion","sort_rank":257,"kind_detail":"3","min_zoom":3.0,"id":9634},"arcs":[720]},{"type":"MultiLineString","properties":{"source":"naturalearthdata.com","kind":"macroregion","sort_rank":257,"kind_detail":"3","min_zoom":3.0,"id":9641},"arcs":[[721],[722],[723],[724],[725]]},{"type":"MultiLineString","properties":{"source":"naturalearthdata.com","kind":"macroregion","sort_rank":257,"kind_detail":"3","min_zoom":3.0,"id":9642},"arcs":[[726],[727]]}]},"roads":{"type":"GeometryCollection","geometries":[{"type":"LineString","properties":{"kind":"highway","network":"e-road","sort_rank":383,"kind_detail":"motorway","source":"naturalearthdata.com","min_zoom":3.0,"shield_text":"70","id":4199},"arcs":[750]},{"type":"LineString","properties":{"kind":"highway","network":"e-road","sort_rank":383,"kind_detail":"motorway","source":"naturalearthdata.com","min_zoom":3.0,"shield_text":"70","id":4201},"arcs":[751]},{"type":"LineString","properties":{"kind":"highway","network":"e-road","sort_rank":383,"kind_detail":"motorway","source":"naturalearthdata.com","min_zoom":3.0,"shield_text":"70","id":4202},"arcs":[752]},{"type":"LineString","properties":{"kind":"highway","network":"e-road","sort_rank":383,"kind_detail":"motorway","source":"naturalearthdata.com","min_zoom":4.0,"landuse_kind":"urban_area","shield_text":"82","id":4257},"arcs":[753]},{"type":"LineString","properties":{"kind":"highway","network":"e-road","sort_rank":383,"kind_detail":"motorway","source":"naturalearthdata.com","min_zoom":3.0,"landuse_kind":"urban_area","shield_text":"1","id":4258},"arcs":[754]},{"type":"LineString","properties":{"kind":"highway","network":"e-road","sort_rank":383,"kind_detail":"motorway","source":"naturalearthdata.com","min_zoom":3.0,"shield_text":"1","id":4258},"arcs":[755]},{"type":"LineString","properties":{"kind":"highway","network":"e-road","sort_rank":383,"kind_detail":"motorway","source":"naturalearthdata.com","min_zoom":3.0,"landuse_kind":"urban_area","shield_text":"1","id":4259},"arcs":[756]},{"type":"LineString","properties":{"kind":"highway","network":"e-road","sort_rank":383,"kind_detail":"motorway","source":"naturalearthdata.com","min_zoom":3.0,"shield_text":"70","id":4264},"arcs":[757]},{"type":"LineString","properties":{"kind":"highway","network":"e-road","sort_rank":383,"kind_detail":"motorway","source":"naturalearthdata.com","min_zoom":4.0,"shield_text":"82","id":4266},"arcs":[758]},{"type":"LineString","properties":{"source":"naturalearthdata.com","kind":"highway","sort_rank":383,"kind_detail":"motorway","min_zoom":4.0,"id":4271},"arcs":[759]},{"type":"LineString","properties":{"kind":"highway","network":"e-road","sort_rank":383,"kind_detail":"motorway","source":"naturalearthdata.com","min_zoom":3.0,"landuse_kind":"urban_area","shield_text":"1","id":4272},"arcs":[760]},{"type":"MultiLineString","properties":{"kind":"highway","network":"e-road","sort_rank":383,"kind_detail":"motorway","source":"naturalearthdata.com","min_zoom":3.0,"shield_text":"1","id":4272},"arcs":[[761],[762]]},{"type":"LineString","properties":{"kind":"highway","network":"e-road","sort_rank":383,"kind_detail":"motorway","source":"naturalearthdata.com","min_zoom":3.0,"shield_text":"70","id":4282},"arcs":[763]},{"type":"LineString","properties":{"kind":"highway","network":"e-road","sort_rank":383,"kind_detail":"motorway","source":"naturalearthdata.com","min_zoom":3.0,"shield_text":"70","id":4283},"arcs":[764]},{"type":"LineString","properties":{"kind":"highway","network":"e-road","sort_rank":383,"kind_detail":"motorway","source":"naturalearthdata.com","min_zoom":3.0,"shield_text":"70","id":4284},"arcs":[765]},{"type":"LineString","properties":{"kind":"highway","network":"e-road","sort_rank":383,"kind_detail":"motorway","source":"naturalearthdata.com","min_zoom":3.0,"shield_text":"70","id":4285},"arcs":[766]},{"type":"LineString","properties":{"kind":"highway","network":"e-road","sort_rank":383,"kind_detail":"motorway","source":"naturalearthdata.com","min_zoom":3.0,"shield_text":"70","id":4286},"arcs":[767]},{"type":"LineString","properties":{"kind":"highway","network":"e-road","sort_rank":383,"kind_detail":"motorway","source":"naturalearthdata.com","min_zoom":3.0,"landuse_kind":"urban_area","shield_text":"70","id":4287},"arcs":[768]},{"type":"LineString","properties":{"kind":"highway","network":"e-road","sort_rank":383,"kind_detail":"motorway","source":"naturalearthdata.com","min_zoom":3.0,"shield_text":"70","id":4287},"arcs":[769]},{"type":"LineString","properties":{"kind":"highway","network":"e-road","sort_rank":383,"kind_detail":"motorway","source":"naturalearthdata.com","min_zoom":3.0,"shield_text":"5","id":4288},"arcs":[770]},{"type":"LineString","properties":{"kind":"highway","network":"e-road","sort_rank":383,"kind_detail":"motorway","source":"naturalearthdata.com","min_zoom":3.0,"landuse_kind":"urban_area","shield_text":"5","id":4289},"arcs":[771]},{"type":"MultiLineString","properties":{"kind":"highway","network":"e-road","sort_rank":383,"kind_detail":"motorway","source":"naturalearthdata.com","min_zoom":3.0,"shield_text":"5","id":4289},"arcs":[[772],[773]]},{"type":"LineString","properties":{"kind":"highway","network":"e-road","sort_rank":383,"kind_detail":"motorway","source":"naturalearthdata.com","min_zoom":3.0,"landuse_kind":"urban_area","shield_text":"5","id":4290},"arcs":[774]},{"type":"MultiLineString","properties":{"kind":"highway","network":"e-road","sort_rank":383,"kind_detail":"motorway","source":"naturalearthdata.com","min_zoom":3.0,"shield_text":"5","id":4290},"arcs":[[775],[776]]},{"type":"LineString","properties":{"kind":"highway","network":"e-road","sort_rank":383,"kind_detail":"motorway","source":"naturalearthdata.com","min_zoom":3.0,"landuse_kind":"protected_area","shield_text":"5","id":4291},"arcs":[777]},{"type":"LineString","properties":{"kind":"highway","network":"e-road","sort_rank":383,"kind_detail":"motorway","source":"naturalearthdata.com","min_zoom":3.0,"landuse_kind":"urban_area","shield_text":"5","id":4291},"arcs":[778]},{"type":"LineString","properties":{"kind":"highway","network":"e-road","sort_rank":383,"kind_detail":"motorway","source":"naturalearthdata.com","min_zoom":3.0,"shield_text":"5","id":4291},"arcs":[779]},{"type":"LineString","properties":{"source":"naturalearthdata.com","kind":"highway","kind_detail":"motorway","sort_rank":383,"landuse_kind":"urban_area","min_zoom":3.0,"id":4292},"arcs":[780]},{"type":"LineString","properties":{"kind":"highway","network":"e-road","sort_rank":383,"kind_detail":"motorway","source":"naturalearthdata.com","min_zoom":4.0,"landuse_kind":"urban_area","shield_text":"7","id":4293},"arcs":[781]},{"type":"LineString","properties":{"kind":"highway","network":"e-road","sort_rank":383,"kind_detail":"motorway","source":"naturalearthdata.com","min_zoom":4.0,"shield_text":"7","id":4293},"arcs":[782]},{"type":"LineString","properties":{"kind":"highway","network":"e-road","sort_rank":383,"kind_detail":"motorway","source":"naturalearthdata.com","min_zoom":4.0,"landuse_kind":"urban_area","shield_text":"72","id":4297},"arcs":[783]},{"type":"LineString","properties":{"kind":"highway","network":"e-road","sort_rank":383,"kind_detail":"motorway","source":"naturalearthdata.com","min_zoom":4.0,"shield_text":"72","id":4297},"arcs":[784]},{"type":"LineString","properties":{"kind":"highway","network":"e-road","sort_rank":383,"kind_detail":"motorway","source":"naturalearthdata.com","min_zoom":3.0,"landuse_kind":"urban_area","shield_text":"5","id":4299},"arcs":[785]},{"type":"MultiLineString","properties":{"kind":"highway","network":"e-road","sort_rank":383,"kind_detail":"motorway","source":"naturalearthdata.com","min_zoom":3.0,"shield_text":"5","id":4299},"arcs":[[786],[787]]},{"type":"LineString","properties":{"kind":"highway","network":"e-road","sort_rank":383,"kind_detail":"motorway","source":"naturalearthdata.com","min_zoom":3.0,"shield_text":"5","id":4300},"arcs":[788]},{"type":"LineString","properties":{"kind":"highway","network":"e-road","sort_rank":383,"kind_detail":"motorway","source":"naturalearthdata.com","min_zoom":3.0,"shield_text":"80","id":4302},"arcs":[789]},{"type":"LineString","properties":{"kind":"highway","network":"e-road","sort_rank":383,"kind_detail":"motorway","source":"naturalearthdata.com","min_zoom":3.0,"shield_text":"80","id":4303},"arcs":[790]},{"type":"LineString","properties":{"kind":"highway","network":"e-road","sort_rank":383,"kind_detail":"motorway","source":"naturalearthdata.com","min_zoom":3.0,"shield_text":"5","id":4308},"arcs":[791]},{"type":"LineString","properties":{"kind":"highway","network":"e-road","sort_rank":383,"kind_detail":"motorway","source":"naturalearthdata.com","min_zoom":3.0,"landuse_kind":"urban_area","shield_text":"90","id":4310},"arcs":[792]},{"type":"LineString","properties":{"kind":"highway","network":"e-road","sort_rank":383,"kind_detail":"motorway","source":"naturalearthdata.com","min_zoom":3.0,"shield_text":"90","id":4310},"arcs":[793]},{"type":"LineString","properties":{"kind":"highway","network":"e-road","sort_rank":383,"kind_detail":"motorway","source":"naturalearthdata.com","min_zoom":3.0,"shield_text":"90","id":4311},"arcs":[794]},{"type":"LineString","properties":{"kind":"highway","network":"e-road","sort_rank":383,"kind_detail":"motorway","source":"naturalearthdata.com","min_zoom":3.0,"shield_text":"90","id":4312},"arcs":[795]},{"type":"LineString","properties":{"kind":"highway","network":"e-road","sort_rank":383,"kind_detail":"motorway","source":"naturalearthdata.com","min_zoom":3.0,"landuse_kind":"urban_area","shield_text":"90","id":4313},"arcs":[796]},{"type":"LineString","properties":{"kind":"highway","network":"e-road","sort_rank":383,"kind_detail":"motorway","source":"naturalearthdata.com","min_zoom":3.0,"shield_text":"90","id":4313},"arcs":[797]},{"type":"LineString","properties":{"kind":"highway","network":"e-road","sort_rank":383,"kind_detail":"motorway","source":"naturalearthdata.com","min_zoom":4.0,"landuse_kind":"urban_area","shield_text":"804","id":4314},"arcs":[798]},{"type":"LineString","properties":{"kind":"highway","network":"e-road","sort_rank":383,"kind_detail":"motorway","source":"naturalearthdata.com","min_zoom":4.0,"shield_text":"804","id":4314},"arcs":[799]},{"type":"LineString","properties":{"kind":"highway","network":"e-road","sort_rank":383,"kind_detail":"motorway","source":"naturalearthdata.com","min_zoom":4.0,"landuse_kind":"urban_area","shield_text":"804","id":4315},"arcs":[800]},{"type":"LineString","properties":{"kind":"highway","network":"e-road","sort_rank":383,"kind_detail":"motorway","source":"naturalearthdata.com","min_zoom":4.0,"landuse_kind":"urban_area","shield_text":"804","id":4315},"arcs":[801]},{"type":"MultiLineString","properties":{"kind":"highway","network":"e-road","sort_rank":383,"kind_detail":"motorway","source":"naturalearthdata.com","min_zoom":4.0,"shield_text":"804","id":4315},"arcs":[[802],[803]]},{"type":"LineString","properties":{"kind":"highway","network":"e-road","sort_rank":383,"kind_detail":"motorway","source":"naturalearthdata.com","min_zoom":4.0,"landuse_kind":"urban_area","shield_text":"604","id":4316},"arcs":[804]},{"type":"LineString","properties":{"kind":"highway","network":"e-road","sort_rank":383,"kind_detail":"motorway","source":"naturalearthdata.com","min_zoom":4.0,"shield_text":"604","id":4316},"arcs":[805]},{"type":"LineString","properties":{"source":"naturalearthdata.com","kind":"highway","sort_rank":383,"kind_detail":"motorway","min_zoom":4.0,"id":4317},"arcs":[806]},{"type":"LineString","properties":{"source":"naturalearthdata.com","kind":"highway","sort_rank":383,"kind_detail":"motorway","min_zoom":4.0,"id":4318},"arcs":[807]},{"type":"LineString","properties":{"kind":"highway","network":"e-road","sort_rank":383,"kind_detail":"motorway","source":"naturalearthdata.com","min_zoom":3.0,"landuse_kind":"urban_area","shield_text":"5","id":4319},"arcs":[808]},{"type":"LineString","properties":{"kind":"highway","network":"e-road","sort_rank":383,"kind_detail":"motorway","source":"naturalearthdata.com","min_zoom":3.0,"shield_text":"5","id":4319},"arcs":[809]},{"type":"LineString","properties":{"kind":"highway","network":"e-road","sort_rank":383,"kind_detail":"motorway","source":"naturalearthdata.com","min_zoom":4.0,"shield_text":"50","id":4323},"arcs":[810]},{"type":"LineString","properties":{"kind":"highway","network":"e-road","sort_rank":383,"kind_detail":"motorway","source":"naturalearthdata.com","min_zoom":3.0,"shield_text":"3","id":4324},"arcs":[811]},{"type":"LineString","properties":{"kind":"highway","network":"e-road","sort_rank":383,"kind_detail":"motorway","source":"naturalearthdata.com","min_zoom":3.0,"shield_text":"3","id":4325},"arcs":[812]},{"type":"LineString","properties":{"kind":"highway","network":"e-road","sort_rank":383,"kind_detail":"motorway","source":"naturalearthdata.com","min_zoom":3.0,"shield_text":"401","id":4326},"arcs":[813]},{"type":"LineString","properties":{"kind":"highway","network":"e-road","sort_rank":383,"kind_detail":"motorway","source":"naturalearthdata.com","min_zoom":3.0,"landuse_kind":"urban_area","shield_text":"3","id":4333},"arcs":[814]},{"type":"LineString","properties":{"kind":"highway","network":"e-road","sort_rank":383,"kind_detail":"motorway","source":"naturalearthdata.com","min_zoom":3.0,"shield_text":"3","id":4333},"arcs":[815]},{"type":"LineString","properties":{"kind":"highway","network":"e-road","sort_rank":383,"kind_detail":"motorway","source":"naturalearthdata.com","min_zoom":3.0,"landuse_kind":"urban_area","shield_text":"5","id":4334},"arcs":[816]},{"type":"LineString","properties":{"kind":"highway","network":"e-road","sort_rank":383,"kind_detail":"motorway","source":"naturalearthdata.com","min_zoom":3.0,"shield_text":"5","id":4334},"arcs":[817]},{"type":"LineString","properties":{"kind":"highway","network":"e-road","sort_rank":383,"kind_detail":"motorway","source":"naturalearthdata.com","min_zoom":3.0,"shield_text":"5","id":4675},"arcs":[818]},{"type":"LineString","properties":{"kind":"highway","network":"e-road","sort_rank":355,"kind_detail":"trunk","source":"naturalearthdata.com","min_zoom":4.0,"landuse_kind":"nature_reserve","shield_text":"82","id":4871},"arcs":[819]},{"type":"LineString","properties":{"kind":"highway","network":"e-road","sort_rank":355,"kind_detail":"trunk","source":"naturalearthdata.com","min_zoom":4.0,"landuse_kind":"urban_area","shield_text":"82","id":4871},"arcs":[820]},{"type":"MultiLineString","properties":{"kind":"highway","network":"e-road","sort_rank":355,"kind_detail":"trunk","source":"naturalearthdata.com","min_zoom":4.0,"shield_text":"82","id":4871},"arcs":[[821],[822]]},{"type":"LineString","properties":{"kind":"highway","network":"e-road","sort_rank":355,"kind_detail":"trunk","source":"naturalearthdata.com","min_zoom":4.0,"landuse_kind":"urban_area","shield_text":"82","id":4872},"arcs":[823]},{"type":"LineString","properties":{"kind":"highway","network":"e-road","sort_rank":355,"kind_detail":"trunk","source":"naturalearthdata.com","min_zoom":4.0,"shield_text":"82","id":4872},"arcs":[824]},{"type":"LineString","properties":{"kind":"highway","network":"e-road","sort_rank":355,"kind_detail":"trunk","source":"naturalearthdata.com","min_zoom":4.0,"shield_text":"82","id":4873},"arcs":[825]},{"type":"LineString","properties":{"kind":"highway","network":"e-road","sort_rank":355,"kind_detail":"trunk","source":"naturalearthdata.com","min_zoom":4.0,"landuse_kind":"urban_area","shield_text":"82","id":4874},"arcs":[826]},{"type":"LineString","properties":{"kind":"highway","network":"e-road","sort_rank":355,"kind_detail":"trunk","source":"naturalearthdata.com","min_zoom":4.0,"landuse_kind":"urban_area","shield_text":"82","id":4874},"arcs":[827]},{"type":"MultiLineString","properties":{"kind":"highway","network":"e-road","sort_rank":355,"kind_detail":"trunk","source":"naturalearthdata.com","min_zoom":4.0,"shield_text":"82","id":4874},"arcs":[[828],[829]]},{"type":"LineString","properties":{"source":"naturalearthdata.com","kind":"major_road","kind_detail":"primary","sort_rank":380,"landuse_kind":"protected_area","min_zoom":3.0,"id":4876},"arcs":[830]},{"type":"MultiLineString","properties":{"source":"naturalearthdata.com","kind":"major_road","sort_rank":380,"kind_detail":"primary","min_zoom":3.0,"id":4876},"arcs":[[831],[832]]},{"type":"LineString","properties":{"source":"naturalearthdata.com","kind":"major_road","sort_rank":380,"kind_detail":"primary","min_zoom":3.0,"id":4877},"arcs":[833]},{"type":"LineString","properties":{"source":"naturalearthdata.com","kind":"major_road","sort_rank":380,"kind_detail":"primary","min_zoom":3.0,"id":4878},"arcs":[834]},{"type":"LineString","properties":{"source":"naturalearthdata.com","kind":"major_road","sort_rank":380,"kind_detail":"primary","min_zoom":3.0,"id":4879},"arcs":[835]},{"type":"LineString","properties":{"kind":"highway","network":"e-road","sort_rank":383,"kind_detail":"motorway","source":"naturalearthdata.com","min_zoom":3.0,"shield_text":"70","id":4880},"arcs":[836]},{"type":"LineString","properties":{"source":"naturalearthdata.com","kind":"major_road","kind_detail":"primary","sort_rank":380,"landuse_kind":"urban_area","min_zoom":3.0,"id":4881},"arcs":[837]},{"type":"LineString","properties":{"source":"naturalearthdata.com","kind":"major_road","kind_detail":"primary","sort_rank":380,"landuse_kind":"urban_area","min_zoom":3.0,"id":4881},"arcs":[838]},{"type":"LineString","properties":{"source":"naturalearthdata.com","kind":"major_road","sort_rank":380,"kind_detail":"primary","min_zoom":3.0,"id":4881},"arcs":[839]},{"type":"MultiLineString","properties":{"source":"naturalearthdata.com","kind":"major_road","kind_detail":"primary","sort_rank":380,"landuse_kind":"protected_area","min_zoom":3.0,"id":4882},"arcs":[[840],[841]]},{"type":"MultiLineString","properties":{"source":"naturalearthdata.com","kind":"major_road","sort_rank":380,"kind_detail":"primary","min_zoom":3.0,"id":4882},"arcs":[[842],[843]]},{"type":"LineString","properties":{"source":"naturalearthdata.com","kind":"major_road","kind_detail":"primary","sort_rank":380,"landuse_kind":"urban_area","min_zoom":4.0,"id":4883},"arcs":[844]},{"type":"LineString","properties":{"source":"naturalearthdata.com","kind":"major_road","sort_rank":380,"kind_detail":"primary","min_zoom":4.0,"id":4883},"arcs":[845]},{"type":"LineString","properties":{"source":"naturalearthdata.com","kind":"major_road","kind_detail":"primary","sort_rank":380,"landuse_kind":"national_park","min_zoom":4.0,"id":4913},"arcs":[846]},{"type":"MultiLineString","properties":{"source":"naturalearthdata.com","kind":"major_road","sort_rank":380,"kind_detail":"primary","min_zoom":4.0,"id":4913},"arcs":[[847],[848]]},{"type":"LineString","properties":{"source":"naturalearthdata.com","kind":"major_road","sort_rank":380,"kind_detail":"primary","min_zoom":3.0,"id":4914},"arcs":[849]},{"type":"LineString","properties":{"source":"naturalearthdata.com","kind":"major_road","sort_rank":380,"kind_detail":"primary","min_zoom":3.0,"id":5112},"arcs":[850]},{"type":"LineString","properties":{"kind":"highway","network":"e-road","sort_rank":383,"kind_detail":"motorway","source":"naturalearthdata.com","min_zoom":3.0,"shield_text":"70","id":5113},"arcs":[851]},{"type":"LineString","properties":{"kind":"highway","network":"e-road","sort_rank":383,"kind_detail":"motorway","source":"naturalearthdata.com","min_zoom":4.0,"shield_text":"80","id":5133},"arcs":[852]}]},"earth":{"type":"GeometryCollection","geometries":[{"type":"MultiPolygon","properties":{"sort_rank":10,"source":"naturalearthdata.com","min_zoom":0.0,"kind":"earth","area":1232711224781},"arcs":[[[853]],[[854]],[[855]],[[856]],[[857]],[[858]],[[859]]]}]},"landuse":{"type":"GeometryCollection","geometries":[{"type":"Polygon","properties":{"kind":"nature_reserve","name":"Espacio Natural de la Sierra de la Demanda","area":1362109952,"sort_rank":23,"source":"openstreetmap.org","min_zoom":4.0,"tier":2,"id":-2804913,"osm_relation":true,"protect_class":"5"},"arcs":[[860]]},{"type":"Polygon","properties":{"kind":"protected_area","name":"Parc naturel r\u00e9gional des Landes de Gascogne","area":6581219840,"sort_rank":17,"source":"openstreetmap.org","min_zoom":4.0,"tier":2,"id":-5488946,"osm_relation":true,"protect_class":"5"},"arcs":[[861]]},{"type":"Polygon","properties":{"kind":"protected_area","name":"Parc naturel r\u00e9gional Normandie-Maine","area":5848150016,"sort_rank":17,"source":"openstreetmap.org","min_zoom":4.0,"tier":2,"id":-3493867,"osm_relation":true,"protect_class":"5"},"arcs":[[862],[863]]},{"type":"Polygon","properties":{"kind":"nature_reserve","name":"Parque Regional de Picos de Europa","area":1890179968,"sort_rank":23,"source":"openstreetmap.org","min_zoom":4.0,"tier":2,"id":-1274532,"osm_relation":true,"protect_class":"6"},"arcs":[[864]]},{"type":"Polygon","properties":{"kind":"protected_area","name":"Parc naturel r\u00e9gional du Marais poitevin","area":4209520128,"sort_rank":17,"source":"openstreetmap.org","min_zoom":4.0,"tier":2,"id":-5393380,"osm_relation":true,"protect_class":"5"},"arcs":[[865]]},{"type":"Polygon","properties":{"kind":"protected_area","name":"Parc Naturel Marin d'Iroise","area":7728750080,"sort_rank":17,"source":"openstreetmap.org","min_zoom":4.0,"tier":2,"id":-1176707,"osm_relation":true,"protect_class":"5"},"arcs":[[866],[867]]},{"type":"Polygon","properties":{"kind":"nature_reserve","name":"Parque Natural de Fuentes Carrionas y Fuente Cobre-Monta\u00f1a Palentina","area":1458809984,"sort_rank":23,"source":"openstreetmap.org","min_zoom":4.0,"tier":2,"id":-2700765,"osm_relation":true,"protect_class":"4"},"arcs":[[868]]},{"type":"Polygon","properties":{"kind":"protected_area","name":"Parc naturel r\u00e9gional d'Armorique","area":2812389888,"sort_rank":17,"source":"openstreetmap.org","min_zoom":4.0,"tier":2,"id":-4286368,"osm_relation":true,"protect_class":"5"},"arcs":[[869]]},{"type":"Polygon","properties":{"kind":"protected_area","name":"Parc naturel r\u00e9gional du Golfe du Morbihan","area":1347250048,"sort_rank":17,"source":"openstreetmap.org","min_zoom":4.0,"tier":2,"id":-5413270,"osm_relation":true,"protect_class":"5"},"arcs":[[870],[871],[872]]},{"type":"Polygon","properties":{"kind":"national_park","name":"Parc National des Pyr\u00e9n\u00e9es Occidentales (C\u0153ur)","area":849515008,"sort_rank":18,"source":"openstreetmap.org","min_zoom":3.0,"tier":1,"id":-1024513,"osm_relation":true,"protect_class":"2"},"arcs":[[873]]},{"type":"Polygon","properties":{"kind":"protected_area","name":"Zona Perif\u00e9rica de Protecci\u00f3n del Parque Nacional de la Sierra de Guadarrama","area":1698720000,"sort_rank":17,"source":"openstreetmap.org","min_zoom":4.0,"tier":2,"id":-3124542,"osm_relation":true,"protect_class":"6"},"arcs":[[874]]},{"type":"MultiPolygon","properties":{"source":"naturalearthdata.com","kind":"urban_area","name":"","area":55529689432,"sort_rank":11,"min_zoom":4.0},"arcs":[[[875]],[[876]],[[877]],[[878]],[[879]],[[880]],[[881]],[[882]],[[883]],[[884]],[[885]],[[886]],[[887]],[[888]],[[889]],[[890]],[[891]],[[892]],[[893]],[[894]],[[895]],[[896]],[[897]],[[898]],[[899]],[[900]],[[901]],[[902]]]},{"type":"Polygon","properties":{"kind":"nature_reserve","name":"Parque Natural de las Fuentes del Narcea Dega\u00f1a e Ibias","area":1060520000,"sort_rank":23,"source":"openstreetmap.org","min_zoom":4.0,"tier":2,"id":-1275463,"osm_relation":true,"protect_class":"4"},"arcs":[[903]]},{"type":"Polygon","properties":{"kind":"nature_reserve","name":"Parque Nacional da Peneda-Ger\u00eas","area":1255200000,"sort_rank":23,"operator":"ICNF","source":"openstreetmap.org","min_zoom":4.0,"tier":2,"id":-2383411,"osm_relation":true,"protect_class":"2"},"arcs":[[904]]},{"type":"Polygon","properties":{"kind":"protected_area","name":"Parc naturel r\u00e9gional Loire-Anjou-Touraine","area":5921670144,"sort_rank":17,"source":"openstreetmap.org","min_zoom":4.0,"tier":2,"id":-5340691,"osm_relation":true,"protect_class":"5"},"arcs":[[905],[906],[907]]},{"type":"Polygon","properties":{"kind":"protected_area","name":"R\u00e9serve de Biosph\u00e8re des \u00eeles et de la mer d'Iroise (zone de transition)","area":1542070016,"sort_rank":17,"source":"openstreetmap.org","min_zoom":4.0,"tier":2,"id":-1146817,"osm_relation":true,"protect_class":"98"},"arcs":[[908]]},{"type":"Polygon","properties":{"kind":"nature_reserve","name":"Parque Nacional de Picos de Europa","area":1199820032,"sort_rank":23,"source":"openstreetmap.org","min_zoom":4.0,"tier":2,"id":-2401595,"osm_relation":true,"protect_class":"2"},"arcs":[[909]]},{"type":"Polygon","properties":{"kind":"nature_reserve","name":"Parque Natural de Montesinho","area":1340620032,"sort_rank":23,"operator":"ICNF","source":"openstreetmap.org","min_zoom":4.0,"tier":2,"id":-2452898,"osm_relation":true,"protect_class":"2"},"arcs":[[910]]},{"type":"Polygon","properties":{"kind":"nature_reserve","name":"Parque Natural do Douro Internacional","area":1541830016,"sort_rank":23,"operator":"INCF","source":"openstreetmap.org","min_zoom":4.0,"tier":2,"id":-5674125,"osm_relation":true,"protect_class":"2"},"arcs":[[911]]},{"type":"MultiPolygon","properties":{"kind":"protected_area","name":"Aire d'adh\u00e9sion du Parc national des Pyr\u00e9n\u00e9es occidentales","area":2015239936,"sort_rank":17,"source":"openstreetmap.org","min_zoom":4.0,"tier":2,"id":-1024509,"osm_relation":true,"protect_class":"5"},"arcs":[[[912],[913]]]},{"type":"Polygon","properties":{"kind":"nature_reserve","name":"Espacio Natural de los Ancares Leoneses y Alto Sil","area":1813910016,"sort_rank":23,"source":"openstreetmap.org","min_zoom":4.0,"tier":2,"id":-1274671,"osm_relation":true,"protect_class":"4"},"arcs":[[914]]}]}},"type":"Topology","transform":{"translate":[-11.25,40.9798980696],"scale":[0.002746582,0.0019391116]},"arcs":[[[3460,1192],[-1,2],[-1,2],[-1,10],[-5,6],[-10,6],[0,6],[0,11],[1,6]],[[3509,1169],[-4,0],[-4,2],[-2,3],[-2,8],[-1,5],[1,3],[0,3],[-4,2],[-6,4],[-4,0]],[[3483,1199],[-7,-3],[-8,-1],[-4,-2],[-4,-1]],[[3562,1176],[-15,8],[-11,4],[-8,0]],[[3528,1188],[-5,-3],[-3,-9],[-2,-4],[-4,-3],[-5,0]],[[3592,1057],[-10,1],[-8,2],[-9,5],[-6,8],[-5,11],[3,4],[15,17],[5,7],[5,16],[4,20],[-1,19],[-10,11],[-5,0]],[[3570,1178],[-4,-1],[-4,-1]],[[3677,1045],[-12,10],[-12,7],[-21,4],[-7,4],[-6,8],[-2,7],[3,6],[8,7],[-8,2]],[[3620,1100],[-9,-3],[-6,-7],[-2,-11],[-1,-13],[-3,-7],[-7,-2]],[[3782,1012],[-29,3],[-14,5],[-13,10],[-4,5],[-6,2],[-13,1],[-3,3],[-6,4],[-3,1]],[[3691,1046],[-14,-1]],[[3834,978],[-4,1],[-4,3],[-2,5],[1,3],[1,2],[0,4],[-1,4],[-6,14],[-9,4]],[[3810,1018],[-28,-6]],[[3876,937],[-2,1],[0,2],[1,2],[-1,3],[-14,19],[-7,6],[-12,8],[-4,1]],[[3837,979],[-3,-1]],[[4020,930],[-10,2],[-4,9],[-21,14],[-1,0],[-6,6]],[[3978,961],[-2,-6],[-2,-4],[-3,-1]],[[3971,950],[-3,4]],[[3968,954],[-18,-15],[-8,-5],[-11,-1]],[[3931,933],[-20,9],[-9,1]],[[3902,943],[-1,-13],[-3,-1],[-6,-4],[-3,0]],[[3889,925],[-4,2],[0,3],[1,3],[-2,3],[-2,1]],[[3882,937],[-6,0]],[[4082,879],[-15,6],[-2,3],[-1,2],[-3,3],[-4,1],[-4,2],[-1,3],[-1,4],[-2,3],[-6,5],[-4,7],[-3,9],[1,9]],[[4037,936],[-6,-3],[-11,-3]],[[4096,881],[-2,0],[-12,-2]],[[1114,558],[-5,4],[-1,8],[1,22],[-3,8],[-4,5]],[[1102,605],[-11,-8],[-6,-3],[-7,0],[-2,-1],[-3,-2],[-10,-9],[-6,-3],[-56,-10],[-7,-3],[-13,-9],[-6,-3],[-14,0],[-6,-2],[-6,-5],[-3,-5],[-4,-11],[-3,-5],[-7,-5],[-10,-3],[-8,-5],[-4,-3]],[[1149,426],[-31,2],[0,1],[1,13],[0,7],[-3,4],[-13,5],[-4,9],[0,10],[4,9],[14,22],[11,11],[10,8],[6,5],[4,6],[1,9],[-3,8],[-6,6],[-7,3]],[[1133,564],[-7,-1],[-7,-3],[-5,-2]],[[1529,496],[-12,6],[-11,10],[-12,8]],[[1494,520],[-5,-1],[-6,-4],[-6,-5],[-2,-3],[-1,-7],[2,-17],[-1,-8],[-4,-6],[-3,-5],[-12,-8],[-26,-10],[-7,-1]],[[1646,490],[-10,4],[-14,22],[-11,2]],[[1611,518],[-2,-16],[-9,-5],[-22,-2]],[[1578,495],[-11,2],[-9,7],[-5,3],[-3,2]],[[1550,509],[-8,-7],[-13,-6]],[[1725,346],[-11,4],[-5,8],[-2,10],[-1,10],[-1,5],[-3,4],[-1,5],[2,5],[3,4],[2,5],[8,42],[5,10],[-10,3],[-6,1],[-3,4],[3,22],[-2,8],[-5,7],[-8,4]],[[1690,507],[-5,-11],[-13,-4],[-26,-2]],[[1233,453],[-12,0],[-3,15],[-1,14]],[[1217,482],[-7,-3],[-1,-6],[-2,-9],[-4,-7],[-6,0]],[[1333,435],[-6,1],[-6,4],[0,4],[5,17],[-19,1],[-7,3],[-10,8],[-6,1]],[[1284,474],[-10,-5],[-22,-6]],[[1252,463],[-10,0]],[[1242,463],[-4,-1],[-2,-3],[-1,-3],[-2,-3]],[[1197,457],[-6,1]],[[1191,458],[-5,-2],[-5,-5],[-3,-6],[-12,-14],[-1,0],[-16,-5]],[[1386,426],[-1,8],[-4,9],[-5,7],[-5,2],[-3,0],[-6,4],[-2,0]],[[1360,456],[-3,-2],[-1,-3],[0,-4],[-2,-3],[-6,-5],[-7,-2],[-8,-2]],[[1423,445],[-13,1]],[[1410,446],[-5,-1],[-5,-4],[-9,-11],[-5,-4]],[[1772,205],[1,0],[1,3],[1,4],[0,3],[-2,0],[5,4],[5,2],[12,1],[0,5],[13,23],[1,4],[-1,3],[-1,4],[3,6],[9,10],[17,27],[-3,6],[-5,7],[-16,17],[-16,12],[-18,7],[-29,6],[-5,0]],[[1744,359],[-3,-2],[-2,-3],[-5,-4],[-6,-3],[-3,-1]],[[1767,206],[5,-1]],[[1604,37],[10,1],[5,6],[14,23],[3,9],[-1,13],[2,3],[4,7],[13,12],[2,4],[3,7],[13,21],[4,5],[6,2],[24,0],[4,3],[21,9],[12,10],[12,13],[11,20],[1,1]],[[1581,39],[23,-2]],[[1578,0],[-5,6],[-4,6],[-1,7],[4,6],[2,10],[7,4]],[[3689,2749]],[[3767,909],[3,6],[2,2],[4,3],[4,3],[4,9],[2,15],[0,8],[0,5],[2,4],[10,14],[1,3],[0,3],[1,4],[2,4],[13,8],[10,0]],[[3063,858],[0,-5],[0,-6],[3,-4]],[[3071,846],[1,-5],[-1,-2],[-4,-6],[0,-3],[2,-3],[3,-1]],[[3066,843],[5,3]],[[3096,845],[5,-1],[12,-10],[4,-4],[1,-4],[0,-4],[0,-3],[-1,-8],[2,-8],[2,0],[4,-2],[13,-11],[5,-2]],[[3084,828],[2,8],[2,4],[2,3],[6,2]],[[3079,829],[5,-1]],[[3072,826],[2,0],[5,3]],[[3185,803],[4,-9],[11,-6],[12,-4],[8,-2]],[[3178,789],[-1,2],[-1,1],[-1,1],[2,4],[2,3],[3,2],[3,1]],[[3151,793],[4,-3],[0,-8]],[[3143,788],[2,3],[2,2],[4,0]],[[3171,790],[7,-1]],[[3155,782],[5,5],[5,3],[6,0]],[[3420,503],[3,12],[1,2],[-2,10]],[[3663,734],[5,0],[4,5],[2,7],[0,5],[-2,2]],[[3672,753],[-3,-2],[-5,-3],[-3,-3],[-1,-6],[3,-5]],[[3704,749],[3,2],[0,5],[-2,3],[-4,4],[-3,2],[-1,6],[-1,4],[-3,0]],[[3693,775],[-2,0],[-4,-5],[-2,-3],[-2,-5],[0,-6],[4,-3],[5,-2],[8,-1],[4,-1]],[[3574,3859],[-5,1],[-4,4],[-3,3],[-9,6],[-3,2],[-11,19],[-3,7],[-1,4],[-1,6],[-1,3],[-1,2],[-2,6],[-6,11],[-3,7],[-1,3],[-1,3],[-1,4],[-1,1]],[[3703,3877],[-9,5],[-6,4],[-37,10],[-9,1]],[[3642,3897],[-7,-1],[-3,-3],[-5,-7],[-2,-3],[-3,-3],[-4,-1],[-8,-3],[-4,-3],[-7,-7],[-6,-3],[-10,-4],[-9,0]],[[1865,112],[-71,43],[-58,12]],[[2095,102],[-19,15],[-23,1],[-7,4],[-11,14],[-5,1]],[[2030,137],[-14,-9],[-36,-6]],[[1980,122],[-28,10]],[[1952,132],[-7,-1],[-4,-6],[-1,-9],[1,-13],[1,-6],[1,-3],[-3,-6],[-4,-3],[-5,-2]],[[1912,87],[-3,2],[-8,6],[0,2],[2,7],[0,4],[-1,4],[-2,2],[-9,4],[-19,2]],[[1872,120],[-7,-8]],[[2159,70],[-3,1],[-3,2],[-7,10],[-2,2],[-13,1],[-2,1],[-2,19]],[[2127,106],[-32,-4]],[[2170,104],[-2,-26],[0,-3],[-2,-3],[-3,-1],[-4,-1]],[[1931,83],[-5,2],[-1,3],[-1,4],[-2,2],[-2,1]],[[1920,95],[-1,-1],[-5,-6],[-2,-1]],[[2086,576],[36,-34]],[[2163,677],[3,-10],[-1,-11],[-6,-4]],[[2159,652],[-6,1],[-4,8],[0,9],[6,5],[8,2]],[[2086,576],[5,-20],[13,-27],[-5,-11],[17,-9]],[[2116,509],[6,33]],[[2880,141],[18,4],[4,3],[11,0],[11,13],[7,5]],[[2852,147],[10,-5],[18,-1]],[[2812,93],[3,1],[28,23],[8,2],[3,2],[1,4],[1,8],[0,3],[-2,4],[-2,3],[-1,2],[1,2]],[[2805,94],[7,-1]],[[4096,3186],[-1,-1],[-12,-14],[-2,-4],[0,-4],[-1,-4],[-3,-5],[-4,-2],[-10,-3],[-4,-3],[-1,-3],[-2,-3]],[[3640,1799]],[[2807,3504]],[[3371,3123]],[[3517,3951]],[[3220,1212]],[[3200,3338]],[[3839,2239]],[[2930,1193],[15,7],[3,4],[1,5],[0,15],[0,3]],[[2886,1197],[23,-2]],[[2849,1114],[0,7],[-3,10],[-2,4],[-1,4],[0,3],[1,4],[-1,4],[0,4],[-1,3],[1,5],[4,5],[30,23],[4,4],[5,3]],[[2918,1196],[8,-3],[4,0]],[[2909,1195],[9,1]],[[2441,1184],[3,1],[3,2],[2,3],[1,5],[1,5],[-1,7],[-4,9],[-1,2],[-1,3],[1,4],[5,8],[3,7],[-1,6],[1,4]],[[2424,1196],[4,-1],[6,-2],[3,-1],[2,-6],[2,-2]],[[2398,1181],[7,1],[4,2],[2,1],[1,3],[3,3],[5,4],[4,1]],[[2391,1182],[3,0],[4,-1]],[[2366,1141],[3,0],[3,2],[3,6],[1,4],[0,5],[0,3],[1,4],[-1,7],[1,3],[2,3],[4,3],[4,1],[4,0]],[[2359,1142],[7,-1]],[[2341,1139],[11,1],[4,2],[3,0]],[[2337,1139],[4,0]],[[1504,1263],[2,0],[3,2],[4,4],[5,8],[11,10],[1,1],[0,3]],[[1497,1264],[4,-1],[3,0]],[[1491,1238],[-4,3],[-2,2],[0,3],[1,11],[1,3],[2,3],[4,1],[4,0]],[[1568,1110],[-3,1],[-3,2],[-2,3],[-2,4],[-1,4],[0,5],[3,7],[0,4],[0,2],[-2,2],[-3,1],[-6,3],[-4,6],[-3,0],[-2,1],[-8,6],[-3,3],[-2,4],[-2,5],[-4,22],[-2,3],[-3,2],[-3,1],[-5,5],[-3,4],[-2,5],[-1,6],[0,5],[0,4],[-1,4],[-1,3],[-2,2]],[[1498,1239],[-7,-1]],[[1576,1083],[3,0],[13,6],[3,2],[14,13],[0,4],[-1,6],[-5,10],[-4,5],[-3,3]],[[1596,1132],[-3,0],[-2,-2],[-1,-3],[-1,-4],[-2,-2],[-3,-2],[-3,-2],[-7,-4],[-6,-3]],[[1572,1084],[4,-1]],[[1560,1039],[-4,2],[-3,5],[-1,6],[0,5],[3,4],[3,1],[3,2],[2,3],[1,5],[1,4],[1,3],[1,2],[2,2],[3,1]],[[1585,1037],[-3,1],[-3,1],[-3,3],[-1,1],[-8,11],[-2,1]],[[1565,1055],[-1,-1],[0,-10],[0,-1],[-1,-1],[0,-1],[-2,-1],[-1,-1]],[[1610,998],[-2,19],[-1,6],[-3,4],[-9,9],[-3,1]],[[1592,1037],[-7,0]],[[3704,859],[8,0],[4,2],[1,3],[2,7],[1,4],[-1,3],[1,4],[3,3],[17,5],[5,2],[4,4],[10,9],[8,4]],[[3701,860],[3,-1]],[[3649,809],[3,1],[3,2],[2,2],[1,4],[3,5],[4,5],[8,5],[3,3],[0,2],[-6,3],[-1,1],[3,1],[3,2],[1,3],[0,3],[1,3],[2,3],[22,3]],[[3642,811],[7,-2]],[[3579,479],[2,1],[2,3],[2,5],[3,3],[4,6],[1,5],[3,4],[4,12],[7,12],[8,10],[2,5],[1,9],[-1,4],[-3,3],[-3,0],[-4,1],[-3,2],[-2,3],[-2,3],[-1,4],[-1,3],[-2,3],[-5,5],[-2,3],[-1,4],[1,7],[-1,4],[0,10],[0,5],[-2,4],[-2,3],[-2,3],[-1,4],[-1,3],[0,5],[2,5],[2,7],[2,5],[2,8],[0,4],[2,5],[2,7],[7,12],[11,13],[1,5],[0,3],[-2,3],[-3,1],[-1,4],[-1,4],[1,5],[2,9],[8,13],[10,10],[5,9],[3,6],[-1,3],[0,2],[-2,3],[-1,3],[-1,3],[1,4],[2,4],[2,5],[2,4],[3,2],[4,0]],[[3426,527],[1,0],[0,-1],[1,0],[4,-3]],[[3422,527],[4,0]],[[3435,524],[14,-2],[3,-1],[3,-2],[3,-3],[5,-6],[2,-2],[3,-2],[8,-3],[3,-1]],[[3432,523],[3,1]],[[3493,507],[6,-3],[6,-3],[3,-2],[3,-3],[4,-6],[2,-3],[6,-4],[6,-3],[4,0]],[[3479,502],[4,0],[6,4],[4,1]],[[3553,486],[3,0],[10,-4],[4,0],[7,-2],[2,-1]],[[3533,480],[3,0],[7,1],[6,4],[2,1],[2,0]],[[3243,775],[-15,6],[-8,1]],[[3305,754],[-7,0],[-5,2],[-5,4],[-4,6],[-3,3],[-11,8],[-4,2]],[[3266,779],[-23,-4]],[[3356,729],[-8,3],[-6,8],[2,1],[2,3],[2,3],[-8,7],[-10,2]],[[3330,756],[-25,-2]],[[3422,668],[-2,1],[-2,4],[0,4],[0,3],[0,3],[-14,11],[-28,35]],[[3376,729],[-20,0]],[[3472,596],[4,0],[3,1],[2,3],[1,3],[-1,4],[-1,5],[0,3],[1,1],[0,1],[0,2],[-1,4],[-2,3],[0,11],[-11,8],[-7,3],[-18,10],[-9,9],[-3,2],[-2,1]],[[3428,670],[-6,-2]],[[3435,602],[4,-1],[4,-2],[4,-1]],[[3422,527],[-14,12],[-3,5],[-1,6],[-1,4],[1,4],[0,4],[2,3],[14,19],[5,5],[3,3],[1,3],[1,4],[2,2],[3,1]],[[3461,602],[3,-2],[8,-4]],[[3447,598],[3,0],[7,4],[4,0]],[[2313,1165],[3,-1],[4,-1],[7,-6],[10,-18]],[[2228,1097],[5,1],[5,5],[3,5],[2,8],[1,4],[2,3],[3,8],[4,3],[6,3],[14,4],[11,7],[6,5],[19,11],[4,1]],[[2221,1101],[4,-3],[3,-1]],[[2164,1086],[34,4],[19,10],[4,1]],[[2144,1089],[20,-3]],[[2094,1056],[3,1],[2,2],[1,3],[1,4],[2,2],[20,1],[4,0],[3,2],[4,4],[2,11],[3,2],[5,1]],[[1883,1075],[18,-3],[4,-1]],[[1862,1056],[5,0],[7,4],[3,3],[1,4],[0,4],[1,3],[4,1]],[[1916,1074],[4,-2],[2,-4],[1,-7],[1,-4],[2,-3],[2,-3],[9,-6],[4,-4],[5,-3],[4,-1],[2,-3],[9,-4],[3,-1],[4,-2],[15,0]],[[1905,1071],[11,3]],[[1779,1068],[6,-1],[3,-3],[3,-3],[7,-2]],[[1707,999],[4,0],[13,6],[5,1],[19,11],[2,3],[0,3],[-3,2],[-6,3],[-3,2],[-2,3],[1,3],[1,2],[11,0],[7,3],[3,1],[1,2],[0,3],[1,3],[2,3],[2,4],[1,3],[2,4],[11,4]],[[2028,1067],[5,0],[11,-6],[7,-1]],[[1983,1027],[5,1],[4,1],[3,3],[2,3],[1,3],[1,3],[0,2],[1,1],[1,3],[1,3],[3,3],[2,3],[1,4],[2,3],[4,2],[5,2],[9,0]],[[1839,1063],[9,-2],[10,-4],[4,-1]],[[1826,1049],[3,1],[2,2],[1,7],[2,3],[5,1]],[[2057,1060],[8,-2],[3,-3],[3,-1],[4,-1]],[[2051,1060],[6,0]],[[1803,1059],[16,-8],[7,-2]],[[1798,1059],[5,0]],[[2087,1057],[7,-1]],[[2075,1053],[4,0],[8,4]],[[1680,1004],[5,-1],[3,-1],[2,-2],[17,-1]],[[1633,987],[5,2],[2,3],[3,3],[3,3],[4,3],[6,2],[7,1],[17,0]],[[1610,998],[12,-2],[6,-4],[3,-5],[2,0]],[[3420,503],[2,-25],[5,-17],[8,-11],[0,-4],[-1,-4],[-1,-5],[-2,-3],[-2,-4],[-4,-7],[-1,-5],[1,-4],[3,-3],[6,-10],[3,-6],[1,-4],[2,-3],[2,-2],[4,-5],[-1,-7],[-2,-4],[-2,-5],[-3,-9],[-3,-4],[-3,-2]],[[3432,350],[-4,0]],[[3428,350],[-4,-1],[-3,-2],[-4,-5],[-4,-3],[-7,-4],[-6,-8],[-2,-3],[-2,-3],[-3,-1]],[[3393,320],[-7,3],[-3,1]],[[3383,324],[-2,0],[-2,0],[-2,-2],[-2,-1],[-3,-4],[-1,-3],[0,-4],[1,-3],[2,-2],[3,-15],[-1,-18],[1,-8],[2,-6],[3,-3],[2,-4],[1,-5],[3,-21],[-3,-2],[-3,-2],[-3,-1],[-4,-1],[-6,-3],[-6,-6],[-3,-1]],[[3360,209],[-3,0],[-3,2],[-1,3],[0,4],[1,4],[-1,4],[0,3],[-2,4],[-2,2],[-6,2],[-11,2]],[[3332,239],[-5,-3],[-2,-3],[-1,-4],[0,-4],[0,-4],[-1,-5],[-2,-11],[-2,-4],[-2,-4],[-3,-2],[-2,-1],[-2,-1],[-3,-4],[-2,-10],[0,-17],[3,-7],[1,-2],[1,-4],[3,-19],[1,-20],[1,-3],[2,-3],[4,-1],[6,-1]],[[3331,102],[3,-1],[3,-2],[8,-7],[3,-4]],[[3327,102],[4,0]],[[3063,858],[-25,-9]],[[3038,849],[-10,2],[-6,3],[-23,3]],[[2999,857],[-16,-2],[-6,-3],[-1,-3],[4,-7],[1,-3],[1,-4],[-3,-4],[-2,-3],[-2,-3],[-2,-3],[-11,-13],[0,-4],[1,-2],[3,0]],[[2972,805],[3,-1],[2,-2],[1,-3],[0,-4],[-1,-5],[-3,-6],[-1,-4],[1,-4],[6,-4],[2,-3],[1,-3],[2,-3],[1,-4],[0,-3],[-3,-10],[-1,-12],[1,-4],[0,-4],[0,-4],[-5,-11],[-3,-2],[-7,-1],[-4,-2],[0,-3],[1,-3],[2,-2],[1,-4],[0,-9],[1,-4],[1,-4],[1,-4],[0,-4],[1,-4],[-1,-5],[0,-5],[-4,-17],[-3,-4],[-4,-4],[0,-3],[12,-19],[1,-4],[2,-7],[3,-2],[6,-4],[4,-7],[1,-3],[1,-4],[4,-6],[6,-3],[5,0]],[[2966,803],[3,1],[3,1]],[[3021,570],[4,0],[3,-1],[2,-3],[1,-4],[1,-3],[2,-3],[2,-18]],[[3013,568],[5,1],[3,1]],[[3007,569],[6,-1]],[[3005,568],[2,1]],[[3241,599],[19,-2],[3,-2],[2,-2],[1,-3],[1,-4],[0,-4],[2,-3],[2,-4],[4,-3]],[[3193,582],[3,2],[8,6],[5,4],[9,4],[23,1]],[[3100,588],[4,-1],[3,-2],[1,-3],[0,-4],[0,-3],[-1,-8],[-2,-3],[-4,-5],[-2,-3],[-1,-4],[-1,-4],[-1,-3],[-1,-4],[2,-3],[5,-3],[6,0],[4,-1],[4,-2],[7,-6],[3,0]],[[3051,534],[11,5],[10,7],[4,4],[2,5],[0,4],[-1,4],[0,3],[1,4],[2,4],[2,4],[4,6],[4,3],[10,1]],[[3185,583],[8,-1]],[[3153,526],[6,0],[0,1],[1,2],[1,2],[4,7],[4,8],[1,4],[2,3],[3,2],[2,2],[2,2],[1,3],[1,7],[0,8],[1,3],[1,3],[2,0]],[[3305,580],[7,0],[6,-2],[3,-2],[2,-3],[0,-4],[-2,-3],[-2,-2],[-3,-2],[-2,-3],[-1,-3],[0,-4],[2,-4],[2,-3],[8,-8],[4,-6],[1,-3],[0,-1],[0,-1],[-1,-1],[-1,-1],[-2,-2],[-1,-4],[1,-3],[2,-8],[1,-3],[4,-2],[20,-6],[6,0],[9,-4],[4,-3],[4,-4],[4,-1]],[[3275,572],[3,0],[21,8],[6,0]],[[3036,538],[15,-4]],[[3142,527],[11,-1]],[[3126,526],[1,0],[2,0],[13,1]],[[3380,484],[8,1],[4,1],[4,2],[7,4],[2,2],[15,9]],[[3140,925],[-5,0],[-22,7],[-6,3],[-4,1],[-9,1]],[[3094,937],[-23,-1],[-4,-2],[-2,-2],[-8,-12],[-5,-6],[-1,-4],[2,-4],[9,-10],[9,-7],[23,-11],[25,-6],[18,-8],[28,-1],[2,-1],[2,-1],[1,-2],[2,-1]],[[3160,918],[-3,0],[-3,3],[-2,2],[-1,2],[-2,1],[-3,1]],[[3146,927],[-3,-2],[-3,0]],[[3164,873],[-2,1],[-2,1],[-4,6],[-2,2],[-2,2],[-2,2],[-1,2],[0,3],[1,2],[2,1],[4,2],[2,1],[2,2],[3,7],[1,3],[1,2],[0,4],[-1,2]],[[3164,918],[-4,0]],[[3172,858],[4,1],[4,2],[1,2],[0,6],[-2,5],[0,3],[-1,3],[-2,2]],[[3176,882],[-2,-1],[-2,-1],[-3,-4],[-3,-2],[-2,-1]],[[4083,1357],[11,-1],[2,-12]],[[4056,1338],[8,9],[9,7],[10,3]],[[3928,1347],[5,-2],[0,-3],[-1,-6],[0,-6],[6,-3]],[[3891,1322],[5,1],[28,23],[4,1]],[[3938,1327],[40,5],[21,10],[11,3]],[[3812,1335],[7,-1],[17,-10]],[[3783,1323],[22,11],[7,1]],[[3658,1333],[11,-7],[2,-7],[-2,-17],[7,-8]],[[3571,1299],[9,3],[12,2],[25,0],[11,3],[15,9],[12,11],[3,6]],[[3851,1329],[40,-7]],[[3836,1324],[3,0],[12,5]],[[3767,1324],[16,-1]],[[3760,1317],[3,6],[4,1]],[[3738,1323],[15,-3],[7,-3]],[[3723,1301],[7,1],[5,3],[3,7],[0,11]],[[3545,1320],[15,-16],[11,-5]],[[3702,1311],[16,-9],[5,-1]],[[3676,1294],[8,4],[9,8],[9,5]],[[3957,3517],[-1,-10],[-5,-5],[-8,-5]],[[4096,2009],[-5,-7]],[[4084,2135],[12,0]],[[4091,2002],[5,0]],[[3711,3395],[9,3],[9,10],[-8,7],[-47,15],[-4,5],[-2,7],[0,16],[-1,7],[-3,4],[-3,3],[-6,4],[-8,0],[-3,1],[-2,6],[0,16],[-1,8]],[[3673,3399],[38,-4]],[[3650,3230],[-9,2],[-19,26],[-14,2],[2,12],[1,0],[0,1],[1,0],[1,1],[1,0],[0,1],[1,0],[0,1],[1,0],[0,1],[1,0],[1,1],[1,0],[0,1],[1,0],[0,1],[1,0],[7,3],[15,1],[8,2],[21,12],[13,3],[47,1],[1,0],[0,1],[1,0],[1,0],[1,0],[1,0],[1,0],[0,1],[1,0],[1,0],[1,0],[1,0],[1,1],[1,0],[1,0],[1,0],[1,0],[1,1],[1,0],[1,0],[1,0],[1,0],[1,1],[1,0],[1,0],[1,0],[1,0],[1,0],[0,1],[1,0],[1,0],[-7,9],[-5,14],[-3,15],[-1,12],[-59,7],[-9,6],[-8,13],[-1,11],[6,4]],[[3678,3120],[11,6],[-4,11],[-12,11],[-25,13],[4,12],[21,27],[-5,11],[-3,13],[-5,9]],[[3660,3233],[-10,-3]],[[4059,2573],[5,-10],[-5,-7],[-10,-4],[-8,-1],[0,-3],[10,-31],[0,-7],[-2,-8],[-6,-9],[-10,-12],[-11,-8]],[[4022,2473],[-8,4],[-8,9],[-9,2]],[[3997,2488],[-31,-10],[-20,-1],[-9,-3],[-6,-6],[-2,-13]],[[3945,2456],[-1,-10],[2,-29],[-3,-18],[0,-6],[12,-4],[33,-25],[-2,-3],[-5,-9],[-2,-3],[28,-16],[-7,-13],[-1,-4],[7,-19],[-3,-10],[-6,-8],[-14,-12],[9,-8],[2,-5],[0,-2],[-1,-2],[-1,-5],[0,-7],[3,-5],[4,-1]],[[3929,2455],[16,1]],[[4018,2236],[26,-13],[12,0],[-2,-22],[29,-3],[11,-8],[2,-17]],[[3999,2232],[6,2],[13,2]],[[2771,3975],[0,-31],[3,-9],[3,-5],[16,-20],[3,-5],[1,-6],[0,-7],[-2,-6],[-9,-14],[0,-7],[3,-4],[7,-1],[3,-2],[3,-5],[0,-6],[-2,-5],[-3,-3],[-4,-2]],[[2793,3837],[-8,0]],[[2785,3837],[-3,-1],[-1,-3],[-1,-3],[0,-7],[2,-2],[10,-3],[3,-2],[2,-3],[2,-3],[2,-16],[2,-5],[9,-18],[1,-5],[-2,-12],[-6,-9],[-3,-10],[4,-15],[-8,-4]],[[3374,3765],[8,10],[0,6],[-2,11],[2,5],[3,1],[3,0],[3,1],[2,5],[-1,4],[-7,30],[0,4],[3,9],[10,13],[3,9],[0,7],[-6,21],[-3,3]],[[3392,3904],[-5,-6]],[[3344,3772],[9,-1],[11,-5],[10,-1]],[[3263,3689],[5,5],[10,5],[5,6],[3,5],[3,14],[2,4],[7,4],[2,3],[3,13],[3,4],[4,3],[15,0],[6,5],[4,6],[9,6]],[[3703,1831],[29,-13],[4,-11],[-7,-24],[7,-3],[6,0]],[[3640,1799],[39,13],[22,15],[2,4]],[[3848,1790],[14,-1],[6,-8],[2,-11],[4,-6],[29,-18],[1,-2],[2,-9],[2,-3],[5,-3],[24,-7],[17,-16],[2,-4],[-4,-22],[2,-10],[4,-5],[51,-5]],[[3790,1776],[58,14]],[[3760,1784],[30,-8]],[[3742,1780],[18,4]],[[4022,1694],[23,-20]],[[4009,1660],[6,7],[1,24],[6,3]],[[4049,1636],[0,20],[-1,9],[-3,9]],[[4096,1631],[-29,6]],[[4067,1637],[-18,-1]],[[4096,1768],[0,1],[0,5],[0,1]],[[4096,1796],[-3,3],[-2,3],[-1,6],[1,6],[3,6],[2,3]],[[4094,1748],[2,0]],[[4045,1674],[27,14],[11,12],[-4,16],[-11,12],[-3,8],[4,4],[25,8]],[[3710,4096],[3,-3],[3,-3],[2,-3],[0,-3],[-3,-5],[-5,-4],[-15,-6],[-11,-10],[-4,-7],[-2,-8],[15,-3],[2,-3],[1,-8],[2,-4],[18,-6],[17,-1]],[[3748,4024],[21,-5],[21,-11]],[[3733,4019],[15,5]],[[3738,3498],[-16,6],[-41,2],[-18,5],[-20,11]],[[3868,3484],[-120,30]],[[3748,3514],[-3,-2],[-4,-12],[-3,-2]],[[3937,3496],[-6,1],[-18,9]],[[3913,3506],[-3,-2],[-6,-9],[-4,-2]],[[3943,3497],[-6,-1]],[[3900,3493],[-5,0],[-10,2]],[[3885,3495],[-3,-1],[-5,-8],[-3,-2],[-6,0]],[[2776,3611],[-8,6],[-10,31],[-2,5],[-13,14],[-3,2],[-2,3],[-1,7],[3,9],[6,6],[52,22]],[[2832,3599],[-9,3],[-19,13],[-8,0]],[[2796,3615],[-20,-4]],[[2855,3550],[4,4],[2,6],[2,18],[0,7],[-3,11],[-5,6],[-6,1]],[[2849,3603],[-17,-4]],[[2845,3551],[10,-1]],[[2825,3531],[4,1],[5,4],[2,4],[1,5],[3,4],[5,2]],[[2813,3536],[4,-1],[8,-4]],[[2807,3504],[-2,4],[-2,6],[-1,6],[1,5],[2,5],[2,3],[2,2],[4,1]],[[2967,3727],[23,-1],[8,-4],[2,-3],[2,-13],[2,-3],[4,0]],[[2897,3695],[47,6],[6,2],[4,6],[2,12],[3,4],[8,2]],[[2798,3716],[8,-3]],[[2840,3715],[3,0],[2,-3],[0,-2],[0,-3],[0,-4],[6,-5]],[[2806,3713],[34,2]],[[3024,3709],[10,-2],[24,-14],[14,-3],[6,-3],[6,-15],[4,-3]],[[3008,3703],[16,6]],[[2880,3707],[2,-2],[2,-4],[4,-3],[9,-3]],[[2851,3698],[8,1],[16,8],[5,0]],[[3213,3707],[9,-3],[3,-3],[4,-4],[6,-13],[3,-3]],[[3135,3638],[13,7],[20,19],[4,8],[1,7],[1,16],[3,8],[6,2],[30,2]],[[3238,3681],[6,0],[12,8],[7,0]],[[3123,3687],[5,-3],[0,-43],[7,-3]],[[3088,3669],[4,0],[10,11],[21,7]],[[3263,3689],[7,-7],[3,-4],[6,-14],[3,-3],[5,0]],[[3293,3662],[6,-1],[4,-3],[0,-5],[-5,-6],[-24,-7],[-5,-8],[0,-9],[6,-4],[32,-7],[16,-11],[4,-4],[2,-5],[2,-6],[1,-7],[-1,-4],[-2,-11],[0,-16],[-1,-6],[13,0],[5,-1],[3,-5],[0,-8],[-3,-7],[-3,-6],[-3,-3],[-2,-1],[-9,-2],[-3,-2],[-3,-3],[0,-5],[5,-3],[14,-1],[3,-6],[-1,-5],[-4,-1]],[[3287,3661],[6,1]],[[3340,3483],[-9,0]],[[3331,3483],[-5,-1],[-3,-3],[-1,-6],[1,-9],[1,-4],[4,-7],[1,-3],[0,-11],[1,-5],[6,-3]],[[3782,3879],[8,12],[20,18],[8,18],[3,4],[1,5],[-1,7],[-4,11],[0,7],[3,5],[8,8],[-31,21],[-8,1],[1,12]],[[4045,4046],[51,28]],[[3935,4071],[11,-2],[6,-5],[10,-12],[6,-4],[2,-1]],[[3873,4049],[45,11],[17,11]],[[3983,4062],[62,-16]],[[3970,4047],[2,0],[2,2],[1,2],[1,3],[1,4],[1,2],[5,2]],[[3847,4056],[6,-1],[13,-5],[7,-1]],[[3790,4008],[7,3],[11,12],[6,3],[24,7],[5,4],[0,3],[-1,2],[-1,2],[-1,2],[0,4],[2,3],[2,2],[3,1]],[[4064,1241],[5,-1],[1,-2],[2,-2],[1,-2],[0,-3],[0,-4],[-1,-4],[-3,-7],[-1,-2],[-1,-1],[-1,-1],[-2,-1],[-3,0]],[[4061,1211],[-4,2],[-2,3],[-1,6],[1,10],[2,5],[3,3],[2,1],[2,0]],[[4055,1199],[8,-5],[4,-12],[-6,-11],[-4,-1],[-4,-1]],[[4053,1169],[-3,2],[-3,4],[-1,3],[0,4],[0,7],[9,10]],[[4007,3468],[-64,29]],[[4044,3432],[-10,2],[-8,6],[-5,10],[-2,5],[0,3],[1,3],[2,2],[5,5],[2,0],[-4,8],[-4,1]],[[4021,3477],[-9,-7],[-5,-2]],[[4096,3432],[-16,8],[-19,3]],[[4061,3443],[-3,0],[-6,-8],[-8,-3]],[[3957,3517],[-13,3],[-5,4],[-5,7],[0,6],[6,5],[12,5],[2,2],[2,2],[1,3],[0,4],[-1,3],[-3,7],[-1,3],[0,7],[3,5],[4,3],[5,2],[17,2],[6,2],[4,6],[-1,6],[-2,7],[-4,6],[-10,11],[-3,6],[2,7],[2,2],[2,1],[25,6],[7,4],[3,4],[2,6],[1,6],[-1,7],[-4,12],[0,6],[1,6],[1,4],[2,2],[25,17],[7,15],[-6,55],[2,8],[4,6],[5,3],[21,4],[5,2]],[[3881,2661],[-9,2],[-8,6],[-31,39],[-11,7],[4,7],[0,7],[-2,8],[-3,7]],[[3918,2642],[-8,6],[-7,9],[-7,4]],[[3896,2661],[-15,0]],[[4059,2573],[-8,3],[-20,25],[-30,21],[-16,6],[-24,1],[-19,14],[-8,1]],[[3934,2644],[-16,-2]],[[4096,2619],[-4,-4],[-10,-18],[-4,-10],[-5,-7],[-6,-4],[-8,-3]],[[3634,3144],[14,-5],[30,-19]],[[3621,3125],[4,8],[9,11]],[[3607,3128],[14,-3]],[[3571,3070],[7,1],[16,11],[3,4],[2,5],[1,6],[-2,20],[2,6],[7,5]],[[3551,3123],[4,-1],[4,-4],[3,-8],[0,-28],[3,-8],[6,-4]],[[3532,3032],[11,5],[5,6],[2,1],[-7,9],[-7,24],[-5,24],[2,14],[18,8]],[[3371,3123],[8,-5],[22,-25],[12,-9],[38,-18],[19,-21],[5,-3],[20,0],[37,-10]],[[3678,3120],[27,-12],[14,-2]],[[3734,3115],[6,-4],[6,-5],[6,-1]],[[3719,3106],[15,9]],[[4096,3040],[-5,7],[-10,34],[0,5],[0,4],[0,4],[-2,4],[-2,2],[-6,1],[-3,2],[-2,4],[-2,15],[-8,18]],[[4095,3017],[1,-1]],[[4096,2792],[-1,1],[-4,8],[1,19],[-1,10],[-2,2],[-4,4],[-1,3],[-1,3],[0,3],[1,7],[1,5],[8,10],[3,8]],[[4096,2906],[-4,1],[-2,2],[-2,3],[-2,4],[-1,8],[2,9],[3,8],[6,9]],[[4096,2979],[-3,3],[-3,5],[-1,6],[0,14],[1,9],[5,1]],[[4056,3140]],[[3641,3507],[-37,6],[-5,2],[-5,3],[-1,4],[-3,4],[-3,2],[-4,1],[-8,1]],[[3575,3530],[-11,-1],[-4,-2],[-6,-6],[-38,-17],[-7,-5],[-3,-3],[-3,-3],[-3,-4],[-1,-3],[-7,-5],[-10,-6],[-44,-13],[-3,0]],[[3435,3462],[-7,1],[-11,4]],[[3417,3467],[-27,-9],[-7,-5]],[[3383,3453],[-12,0]],[[3371,3453],[-12,-1],[-2,-1],[-2,-1],[-5,-4],[-12,-6],[-2,-9]],[[4077,3817],[-2,26],[-2,4],[-3,4],[-3,0],[-3,1],[-6,2],[-6,5],[-12,14],[-4,7],[-1,6],[2,3],[1,6],[-1,4],[-3,2],[-23,9]],[[4011,3910],[-3,-2],[-1,-3],[0,-3],[1,-4],[-1,-3],[-2,-3],[-3,-3],[-5,-2]],[[3997,3887],[-8,1]],[[3989,3888],[-5,-1],[-4,-3],[-4,-4],[-1,-3],[-2,-2],[-5,-1]],[[3968,3874],[-25,6],[-18,2]],[[3925,3882],[-5,-1],[-3,0],[-3,-2],[-13,-13],[-3,-3],[-4,-1],[-31,-7]],[[3801,3853],[-2,2],[-2,2],[-5,11],[-4,6],[-6,5]],[[3863,3855],[-4,1],[-1,2],[-1,3],[-3,3],[-4,0]],[[3850,3864],[-17,-4],[-3,-2],[-1,-2],[-1,-4],[-2,-3],[-5,-1]],[[3821,3848],[-3,1],[-3,2],[-2,3],[-3,2]],[[3810,3856],[-3,0],[-3,-2],[-3,-1]],[[3752,3105],[13,-10],[5,-5],[5,-10],[3,-5],[10,-6],[4,-6],[2,-5],[1,-10],[2,-9],[3,-5],[3,-4],[21,-13],[8,-7],[3,-5],[2,-3],[-1,-2],[-1,-3],[-3,-7],[0,-5],[3,-9],[10,-15],[10,-20],[1,-5],[2,-4],[0,-4],[0,-3],[0,-5],[2,-5],[5,-5],[2,-5],[1,-3],[0,-11],[3,-15],[1,-5],[-1,-3],[-2,-3],[-3,-2],[-2,-3],[-1,-6],[6,-27],[0,-4],[-1,-3],[-2,-8],[-1,-5],[2,-7],[2,-3]],[[3874,2799],[2,-1],[13,-10],[4,-5],[1,-3],[-1,-4],[-3,-3],[-3,-1],[-1,0]],[[3869,2797],[2,0],[3,2]],[[3886,2772],[-3,0],[-3,0]],[[3880,2772],[-4,0],[-3,-2],[-11,-12],[-2,-1],[-3,-1]],[[3857,2756],[-11,1]],[[3846,2757],[-3,-1],[-10,-5],[-2,-3],[-6,-3],[-4,-1]],[[3985,955]],[[4056,1338],[7,-5],[4,-10],[3,-3],[4,-2],[3,-3],[2,-4],[9,-22],[2,-6],[0,-4],[-1,-3],[-3,-2]],[[4086,1274],[-3,1],[-3,0]],[[4080,1275],[-2,-1],[-1,-5],[1,-10],[3,-3],[3,-1]],[[4093,1266],[3,-1]],[[4096,1210],[-3,-1],[-2,-1],[-3,-3],[-2,-3],[-2,-5],[-1,-5],[0,-7],[3,-10],[0,-3],[0,-2],[-1,-3],[-2,-4],[-2,-3],[-7,-6],[-2,-3],[-2,-4],[-2,-12],[-1,-4],[-2,-4],[-3,-1]],[[4084,1255],[2,3],[2,3],[2,3],[3,2]],[[4062,1126],[-4,2]],[[4058,1128],[-2,-1],[-3,-3],[-5,-13],[-3,-5],[-3,-3],[-3,-2],[-7,-4],[-3,-3],[-3,-5],[0,-8],[0,-5],[3,-10],[-2,-4],[-3,-3],[-4,0],[-11,0],[-3,-2],[-2,-2],[-4,-5],[-7,-7],[-2,-4],[-1,-4],[1,-3],[2,-8],[0,-5],[0,-8],[-2,-4],[-3,-5],[-3,-3],[-3,-5],[-1,-3],[0,-4],[0,-3],[0,-7],[3,-13],[1,-9]],[[4096,3819],[-19,-2]],[[2608,920],[-3,-9],[-3,-4],[-3,-1]],[[2599,906],[-2,0],[-6,6],[-4,2]],[[2587,914],[-5,-2],[-10,-6],[-12,-17],[-10,-6]],[[2550,883],[-4,3],[-3,2],[-1,2]],[[2542,890],[-5,-10],[-1,-5],[3,-12],[1,-19],[-7,-6],[4,-15],[-8,-4],[2,-2]],[[2531,818],[8,-8],[5,-7],[6,-23],[1,-19]],[[2531,817],[0,1]],[[2551,761],[-21,2]],[[2530,763],[-5,-2],[-4,-3],[-2,-6],[0,-17],[2,-7],[3,-5]],[[2540,725],[-1,-1],[15,-80],[-1,-7],[17,-18],[-5,-23],[31,-4],[6,-34],[7,-10],[2,-1]],[[2524,723],[16,2]],[[2644,553],[4,-2],[2,-4],[0,-5],[-21,-28],[2,-10],[6,0]],[[2611,547],[33,6]],[[2671,522],[4,0],[2,-4],[2,-5],[0,-6],[-3,-6],[-5,-4],[-23,-7],[-1,-2],[-1,-10],[-1,-5],[-2,-3],[-3,-3],[-20,-8]],[[2637,504],[34,18]],[[2620,459],[-13,0]],[[2607,459],[0,-20],[19,-21],[-1,-11]],[[1208,824],[11,-11],[3,-5],[0,-5],[-1,-16],[13,-1],[29,-16],[10,-11]],[[1474,694],[18,52],[5,7],[13,9],[12,24]],[[1274,759],[13,0],[36,-26]],[[1273,759],[1,0]],[[1399,755],[14,-12],[3,-1]],[[1358,730],[37,19],[4,6]],[[1431,745],[18,-5],[5,-4],[20,-42]],[[1416,742],[15,3]],[[1337,736],[21,-6]],[[1323,733],[14,3]],[[2230,78],[-7,-16],[-3,-9],[2,-17],[1,-2],[2,-2],[8,-2],[2,-2],[3,-3],[1,-4],[2,-10],[-1,-8],[-1,-3]],[[3166,1023],[-2,0],[-16,10],[3,11],[2,3],[18,8],[3,5],[0,6],[-5,21]],[[3239,1016],[-54,5],[-10,5],[-2,2]],[[3173,1028],[-1,0],[-4,-4],[-2,-1]],[[1243,1249],[4,2],[3,5],[3,11],[10,6],[13,38],[0,2],[0,2],[-5,8],[0,5],[2,4],[9,10],[1,2],[0,6],[-1,9],[2,5],[12,15],[-7,10],[5,30]],[[1226,1252],[17,-3]],[[1183,964],[9,17],[4,4],[7,4],[4,3],[8,17],[2,13],[0,13],[-10,34],[0,6],[1,6],[2,4],[1,4],[-14,51],[12,33],[1,5],[-1,4],[-2,3],[-1,4],[0,4],[2,3],[13,16],[3,6],[2,34]],[[2609,616],[5,-1],[4,-3],[2,-5],[1,-7],[-1,-2],[-1,-1],[-6,-2]],[[2613,595],[-7,3],[-2,1],[-1,2],[-1,5],[0,3],[1,2],[1,2],[2,2],[3,1]],[[2324,970],[4,16],[3,5],[9,8],[3,4],[5,26],[4,8],[11,8],[12,5]],[[2316,971],[8,-1]],[[2283,700],[2,19],[23,4],[-1,10],[9,60],[0,10],[-9,4],[7,40],[-1,24],[2,8],[4,7],[0,4],[-2,3],[-12,7],[-3,4],[-2,4],[1,3],[8,12],[2,5],[0,35],[1,4],[1,2],[3,2]],[[2275,675],[17,4],[4,26]],[[2296,705],[-13,-5]],[[1120,966],[45,-10]],[[1103,954],[4,0],[2,2],[4,7],[7,3]],[[1165,956],[6,1],[12,7]],[[1066,962],[2,-1],[3,-3],[1,-5],[2,-3],[4,-1]],[[1055,928],[4,2],[2,4],[1,5],[0,6],[-2,10],[0,3],[1,3],[2,1],[3,0]],[[1092,957],[11,-3]],[[1078,949],[10,7],[4,1]],[[1041,933],[14,-5]],[[1016,909],[5,1],[9,6],[11,17]],[[1000,916],[11,-7],[5,0]],[[962,896],[2,1],[0,1],[0,3],[1,3],[2,3],[6,4],[27,5]],[[948,900],[14,-4]],[[917,881],[5,9],[26,10]],[[1183,964],[13,-4],[-6,-24],[1,-7],[17,-21],[7,-6],[12,-4],[4,-4],[0,-8],[-7,-10],[-1,-6],[-1,-16],[-14,-30]],[[1208,824],[-9,-5]],[[1130,809],[-10,12]],[[1120,821],[-15,-16],[-12,-5],[-20,-21]],[[1199,819],[-10,2]],[[1189,821],[-3,-1],[-7,-13],[-3,-1]],[[1176,806],[-17,5]],[[1159,811],[-29,-2]],[[1073,779],[-14,1]],[[1059,780],[1,-4],[-1,-27],[3,-10],[5,-12],[1,-3],[-1,-9],[0,-3],[12,-19],[4,-3],[5,-1],[-5,-19],[0,-7],[3,-5],[8,-10],[3,-2]],[[1123,653],[-5,-19],[-1,-19],[-15,-10]],[[1097,646],[26,7]],[[2417,0],[-7,19],[-4,6],[-21,20],[-5,12],[4,33]],[[2647,311],[33,-18],[19,-25],[1,0]],[[2795,302],[11,6]],[[2777,306],[18,-4]],[[2738,246],[0,25],[1,4],[3,4],[8,5],[2,3],[5,9],[2,3],[9,5],[9,2]],[[2718,269],[5,-21],[15,-2]],[[2700,268],[18,1]],[[2828,280],[-15,9],[-3,4],[-2,4],[-2,11]],[[2931,166],[-48,39],[-4,5],[-1,9],[3,22],[0,3],[-1,2],[-3,2],[-12,2],[-12,8],[-2,2],[-1,2],[-1,13],[-1,2],[-4,4],[-4,2],[-2,1]],[[2838,284],[-7,-4],[-3,0]],[[3010,490],[3,0],[2,5],[2,12],[11,28],[8,3]],[[3007,490],[3,0]],[[2998,468],[5,18],[1,2],[3,2]],[[2987,469],[11,-1]],[[2941,419],[35,47],[11,3]],[[2905,457],[7,-1],[5,-8],[2,-2],[1,-2],[10,-5],[3,-2],[8,-18]],[[2836,314],[24,53],[13,1],[2,23],[12,4],[14,10],[1,1],[1,2],[-4,32],[0,11],[6,6]],[[2812,324],[24,-10]],[[2806,308],[0,9],[1,3],[2,3],[3,1]],[[2375,1050],[-3,13],[-1,4],[-8,7],[-2,5],[-2,3],[-15,9],[-3,3],[-3,3],[-2,9],[-1,5],[2,28]],[[2647,311],[-4,-22],[-3,-6],[-6,-8],[-43,-17],[-12,-1],[-31,-14],[-26,0],[-15,-6]],[[2507,237],[-16,1]],[[2491,238],[-28,-17]],[[2463,221],[-11,1]],[[2452,222],[7,-24],[0,-12],[1,-3],[8,-13],[0,-4],[0,-5]],[[2437,166],[-15,10]],[[2422,176],[-3,-12],[10,-10],[-26,-29],[0,-12],[-19,-23]],[[2468,161],[-23,14]],[[2445,175],[-8,-9]],[[2328,61],[-11,4],[-32,25],[-9,3]],[[2276,93],[-7,-1],[-15,-10]],[[2384,90],[-33,-9],[-16,-17],[-7,-3]],[[2254,82],[-13,3]],[[2241,85],[-5,-2],[-6,-5]],[[2199,97],[-5,1],[-2,3],[-5,9],[-4,2]],[[2183,112],[-3,-1],[-10,-7]],[[2230,78],[-18,18],[-4,1]],[[2208,97],[-9,0]],[[2241,686],[11,-19],[8,-3]],[[2205,661],[9,3],[8,6],[8,11],[5,3],[6,2]],[[2262,679],[13,-4]],[[2260,664],[2,15]],[[2196,666],[9,-5]],[[2178,638],[1,1],[1,1],[1,2],[3,12],[5,8],[3,3],[4,1]],[[2144,642],[3,-1],[11,-10],[5,0]],[[2139,547],[-4,22],[3,26],[-3,32],[2,10],[7,5]],[[2176,639],[1,0],[1,-1]],[[2163,631],[8,7],[5,1]],[[2275,675],[-6,-30],[1,-24],[-4,-16],[36,-1],[2,-31],[-1,-5],[-1,-5],[-7,-9],[0,-4],[2,-11],[-1,-3],[-2,-3],[-3,-1],[-2,-3],[-1,-2],[-2,-8],[-12,-25],[6,-13]],[[2294,492],[8,-10]],[[2280,481],[14,11]],[[2323,491],[11,-17],[18,-42]],[[2302,482],[21,9]],[[2397,474],[2,-1],[5,-3],[2,-2],[3,-12],[22,-25]],[[2352,432],[11,4],[11,14],[7,14],[6,5],[7,4],[3,1]],[[2461,443],[-1,-30],[11,-7],[7,-2]],[[2431,431],[19,4],[11,8]],[[2595,427],[8,-17],[22,-3]],[[2584,422],[11,5]],[[2552,425],[32,-3]],[[2526,408],[8,4],[12,12],[6,1]],[[2494,413],[32,-5]],[[2478,404],[3,1],[8,6],[5,2]],[[2625,407],[-6,-15],[9,-20],[2,-9],[-1,-27],[13,-12],[5,-13]],[[3220,1212],[-12,-22],[8,-10],[-15,-21],[-2,-1],[-2,0]],[[3197,1158],[-3,1]],[[3194,1159],[-5,-3],[1,-20],[-3,-7],[-1,-1]],[[3186,1128],[-1,0]],[[3185,1128],[-1,0],[-1,-1],[0,-2],[3,-22],[-1,-8],[-4,-5],[-12,-3]],[[3042,1066],[-19,19],[-4,6],[1,7],[7,14],[0,6],[-5,13],[-8,10],[-5,5],[-5,1]],[[3004,1147],[-6,-2],[-2,-4],[-1,-11],[-3,-5],[-4,-3],[-22,-5]],[[2966,1117],[-5,2],[-9,8]],[[3169,1087],[-20,-3]],[[3149,1084],[-8,3]],[[3141,1087],[-5,-1],[-7,-5],[-1,-2],[1,-1],[8,-12],[2,-6],[-2,-5],[-1,-1],[-1,-1]],[[3083,1056],[-17,5],[-8,5],[-4,1]],[[3054,1067],[-12,-1]],[[3114,1052],[-15,7]],[[3099,1059],[-16,-3]],[[3135,1053],[-10,3]],[[3125,1056],[-7,-3],[-4,-1]],[[2895,1154],[11,5],[0,5],[-6,10],[-7,2]],[[2893,1176],[0,-20],[2,-2]],[[1626,656],[29,-18],[5,-2]],[[1673,638],[4,-1],[10,-5]],[[1660,636],[13,2]],[[1798,633],[3,-3],[5,-8],[4,-4],[13,-5],[10,-9],[4,-1]],[[1788,629],[7,4],[3,0]],[[1708,633],[13,-3],[12,-9]],[[1687,632],[21,1]],[[1756,630],[32,-1]],[[1733,621],[23,9]],[[1895,607],[33,-16]],[[1837,603],[58,4]],[[1947,604],[3,0],[4,-5],[5,-10],[11,-2]],[[1940,596],[2,1],[2,2],[1,3],[2,2]],[[2028,598],[9,-2],[4,-4],[7,-9],[1,-2],[0,-2],[-1,-10],[26,-10]],[[2005,585],[24,3],[-1,10]],[[2001,597],[4,-12]],[[1970,587],[31,10]],[[1936,596],[4,0]],[[1928,591],[2,0],[4,5],[2,0]],[[2078,577],[8,-1]],[[2074,559],[4,18]],[[2122,542],[17,5]],[[2139,547],[34,-32],[-8,-12],[0,-6],[3,-11],[-1,-7],[-3,-8],[-1,-11],[3,-11],[8,-19],[-41,-27],[8,-22],[12,-17],[4,-8],[1,-20],[3,-9],[12,-5],[1,-4],[-1,-4],[-3,-4],[-2,-4],[2,-5],[22,-18],[-9,-11],[-4,-2],[-15,-3],[-5,-3],[-4,-6],[-3,-7],[-1,-9],[1,-8],[2,-6],[3,-2],[2,-3],[-3,-28],[0,-7],[2,-6],[7,-14],[2,-7],[1,-20],[-1,-10],[-4,-8],[-11,-13],[5,-8]],[[2157,102],[13,2]],[[3973,135],[-25,16],[-9,13],[-3,8],[-2,2],[-7,1],[-2,2],[-2,2],[-2,9],[-2,4],[-2,1]],[[3917,193],[-21,-1],[-5,-3],[0,-5],[1,-6],[14,-25],[5,-14],[0,-3],[-1,-3],[-2,-5],[-3,0]],[[3905,128],[-3,2],[-25,45],[-3,3],[-4,0]],[[3870,178],[-3,-2],[-1,-6],[2,-32],[-6,-5],[12,-24],[-31,-41]],[[4096,58],[-6,15],[-7,7],[-85,41],[-16,21]],[[3982,142],[-9,-7]],[[3843,68],[-17,23],[-3,3]],[[3823,94],[-5,0],[-3,-5],[-7,-26],[-4,-4],[-4,-2]],[[3749,51],[-13,7],[-2,2],[-2,4],[0,6],[-32,22],[-5,1]],[[3695,93],[-2,-1],[-1,-1],[-5,-10],[-13,-8],[-3,0]],[[3671,73],[-17,8]],[[3654,81],[-8,0],[-4,-2],[-3,-3],[-4,-10],[0,-4],[1,-5],[2,-5],[1,-5],[-1,-5],[-4,-4]],[[3800,57],[-4,1],[-22,20]],[[3774,78],[-20,-25],[-2,-2],[-3,0]],[[3634,38],[-22,1],[-11,8],[-4,1],[-4,0]],[[3593,48],[-4,-1],[-4,-4],[-2,-3],[-3,-9],[-2,-4],[-2,-2],[-9,-3],[-2,-4],[1,-6],[3,-11],[0,-1]],[[3767,909],[-3,-14],[1,-4],[10,-10],[1,-5],[-2,-5],[-4,-2],[-8,-3],[-2,-2],[-1,-2],[0,-3],[8,-17],[2,-61],[3,-12],[1,-3],[-1,-4],[-4,-9],[0,-2],[1,-2],[20,-13],[3,-10],[0,-4],[-1,-6],[-31,-50],[0,-5],[3,-4],[4,-2]],[[3812,728],[9,0],[2,-1],[2,-2],[2,-5],[-1,-18],[4,-17],[0,-5],[-1,-4],[-6,-9],[-3,-8],[5,-81],[-1,-7],[-3,-8],[-4,-5],[-6,-3]],[[3797,667],[3,1],[2,2],[1,2],[12,32],[0,5],[-4,14],[0,4],[1,1]],[[3786,672],[3,0],[5,-4],[3,-1]],[[3767,655],[4,0],[3,3],[2,9],[3,3],[3,2],[4,0]],[[3811,555],[-2,1],[-6,9],[-2,2],[-3,1],[-3,1]],[[3795,569],[-3,-1],[-3,-2],[-2,-2],[-3,-7],[-3,-17],[0,-8],[4,-8],[28,-20],[40,-1],[6,-5],[16,-30],[19,-10],[6,-6],[5,-9],[8,-43],[2,-6],[3,-4],[39,-27],[3,-3],[8,-21],[3,-3],[11,-4],[20,-23],[4,-2]],[[4024,317],[4,-2],[4,-5],[3,-6],[6,-21],[12,-16],[5,-11],[13,-53]],[[4006,307],[3,1],[11,9],[4,0]],[[4091,208],[5,-4]],[[4071,203],[13,5],[7,0]],[[3276,990],[-11,1],[-3,2],[-6,12],[-17,11]],[[2566,960],[-2,1],[-3,1],[-2,3],[-1,2],[0,2],[0,3],[-1,4],[0,4],[-1,3],[0,4],[-1,4],[-2,7],[0,7],[0,4],[0,4],[-1,3],[-5,4],[-37,14],[-5,4],[-2,4],[-1,0],[-1,4],[-7,13],[-4,3],[-8,5],[-5,1],[-6,0]],[[2471,1068],[-7,-4],[-3,-2],[-5,0],[-5,-1],[-12,-7],[-5,0]],[[2434,1054],[-13,1]],[[2421,1055],[-14,-3],[-18,0],[-6,-2]],[[2383,1050],[-8,0]],[[2608,920],[-3,6],[-2,3],[-4,2],[-3,2],[-10,1],[-4,1],[-7,7],[-3,3],[-1,3],[1,3],[3,1],[7,3],[3,0],[3,1],[2,3],[1,3],[0,4],[-3,3],[-3,2]],[[2585,971],[-9,-3],[-3,-2],[-5,-5],[-2,-1]],[[2852,0],[2,5],[1,5],[0,7],[-6,16],[-4,17],[-4,2],[-2,1],[-9,4],[-3,2],[-3,4],[-4,7],[-13,15],[-2,9]],[[2700,0],[10,4],[4,2],[3,3],[5,8],[2,4],[2,4],[4,8],[3,4],[6,5],[15,12],[7,8],[7,9],[2,4],[3,3],[4,4],[11,8],[17,4]],[[1610,998],[-3,-5],[-1,-5],[-2,-3],[-6,-8],[0,-6],[3,-13],[0,-4],[-2,-6],[-2,-5],[-12,-14],[-8,-12],[-4,-4],[-3,-2]],[[1570,911],[-4,0],[-3,1]],[[1563,912],[-3,-1],[-8,-8],[-11,-5],[-1,-2],[-5,-6],[-1,-4],[-1,-5],[1,-6],[2,-5],[3,-4],[2,-3],[1,-3],[0,-3],[-3,-3],[-3,-2],[-3,-3],[-2,-5],[1,-14],[0,-6],[-7,-15],[0,-4],[0,-10],[-3,-9]],[[1572,791],[5,0],[3,-2],[5,-4],[1,-1],[27,-8],[4,-11],[-1,-4],[-1,-9],[-1,-4],[-1,-3],[-3,-5],[-1,-1],[-3,-1],[18,-17],[12,-8],[6,-6],[2,-5],[-1,-4],[-1,-4],[1,-7],[0,-4],[-1,-3],[-2,-3],[-4,-6],[-5,-10],[-5,-5]],[[1554,781],[3,1],[2,1],[1,1],[1,2],[4,2],[7,3]],[[1522,786],[16,-1],[16,-4]],[[1626,656],[-6,-7],[-1,-4],[-1,-7],[-2,0]],[[1616,638],[-7,2]],[[1609,640],[-5,0],[-8,-2],[-6,-4],[-6,-5],[-12,-13],[-3,-5],[-2,-3],[-3,-14],[-3,-3],[-3,-2],[-3,-1],[-3,-3],[-9,-15],[-5,-5],[-1,-4],[1,-3],[2,-3],[3,-2],[3,-1]],[[1553,552],[2,-1],[4,-6],[1,-2],[0,-2],[-6,-17],[-2,-4],[0,-3],[2,-4],[-1,-6]],[[1546,552],[7,0]],[[2822,1114],[-7,2],[-10,5],[-10,3],[-11,1],[-3,2],[-6,5],[-3,1]],[[2772,1133],[-4,0],[-5,-4],[-8,-8],[-8,-12],[-6,-6],[-4,-4],[-7,-4],[-5,-5],[-4,-2],[-3,0]],[[2839,1113],[-11,2]],[[2828,1115],[-6,-1]],[[2849,1114],[-10,-1]],[[2718,1088],[-10,1]],[[2708,1089],[-4,-1],[-3,-1],[-2,-2],[0,-4],[-1,-5],[-1,-5],[-5,-5],[-3,-2],[-6,-2],[-6,-3],[-7,-9],[-7,-4],[-3,-2],[-3,-2],[0,-1],[-3,-6],[-8,-24],[-1,-4],[0,-3],[2,-4],[2,-4],[3,-2],[4,-1],[3,-1]],[[2689,1015],[3,-1],[3,-3],[2,-3],[2,-3],[1,-4],[-2,-3],[-11,-8],[-10,-1],[-1,-2],[0,-2],[-2,-2],[-1,-3],[1,-6],[0,-4],[2,-3],[2,-2],[3,0]],[[2659,992],[7,3],[9,6],[3,2],[3,7],[2,3],[3,1],[3,1]],[[2694,978],[4,0],[3,-2],[1,-4],[1,-4],[-1,-5],[1,-4],[3,-6],[1,-2],[0,-4],[0,-3],[-2,-3],[-4,-2],[-12,0],[-7,-2],[-12,-12],[-5,-2],[-7,-3],[-6,-1]],[[2681,965],[3,2],[3,5],[3,4],[4,2]],[[2652,919],[-12,4],[1,8],[-1,4],[0,12],[0,3],[-1,1]],[[2639,951],[-3,-2],[-3,-2],[-11,-24],[-14,-3]],[[2973,1047],[-3,1],[-11,1],[-11,3],[-3,2],[-1,2],[1,3],[2,3],[3,6],[0,12],[2,9],[0,6],[-2,4],[-6,3],[-2,3],[-1,5],[3,8],[2,4],[6,5]],[[2952,1127],[0,5],[-1,2],[-2,1],[-8,2],[-13,0],[-8,1],[-6,6],[-2,1],[-3,1]],[[2909,1146],[-3,-1],[-4,-1],[-30,-21],[-23,-9]],[[2994,1035],[7,1],[2,0],[1,0],[1,1],[1,2],[1,3],[1,4],[0,3],[-3,4],[-7,2],[-3,3],[0,3],[0,3],[-2,2],[-3,1]],[[2990,1067],[-6,-3],[-7,-15],[-4,-2]],[[2989,1035],[5,0]],[[2989,1030],[0,5]],[[2973,993],[3,0],[6,2],[8,0],[3,0],[3,3],[4,4],[3,0],[5,2],[2,1],[1,3],[1,2],[0,3],[-2,3],[-11,4],[-5,4],[-3,4],[-2,2]],[[2935,1014],[5,-1],[3,-1],[3,-2],[3,-2],[1,-7],[2,-3],[3,-1],[4,-1],[7,-1],[3,-1],[4,-1]],[[2925,954],[-3,1],[-3,2],[-11,15],[-5,5],[-1,3],[0,4],[1,3],[2,4],[6,6],[4,6],[1,3],[3,4],[3,3],[13,1]],[[2954,923],[2,4],[1,5],[-2,3],[-3,3],[-2,3],[-2,3],[1,4],[1,4],[2,5],[4,5],[4,7],[3,5],[1,6],[-2,3],[-2,2]],[[2960,985],[-4,-1],[-5,-7],[-2,-3],[-3,-2]],[[2946,972],[-7,0]],[[2939,972],[-4,-1],[-3,-1],[-2,-3],[-2,-3],[-1,-3],[0,-3],[0,-3],[-2,-1]],[[3063,858],[-2,6],[-4,5],[-23,21],[-10,4],[-9,13],[-5,2],[-7,6],[-11,10],[-11,6]],[[2981,931],[-11,-6],[-10,-3]],[[2960,922],[-1,1]],[[2959,923],[-5,0]],[[3276,990],[5,12],[1,3],[1,3],[3,4],[4,4]],[[3420,1157],[3,0],[5,3],[5,5],[6,9],[5,11],[3,3],[3,3],[9,3]],[[3414,1159],[3,-1],[3,-1]],[[3408,1151],[2,0],[2,1],[0,3],[0,3],[2,1]],[[3401,1154],[2,-1],[5,-2]],[[3315,1014],[4,0],[4,2],[3,3],[7,10],[4,2],[10,2],[3,3],[2,3],[1,5],[0,4],[0,4],[0,4],[2,5],[2,6],[6,9],[18,14],[5,2],[4,4],[5,5],[5,10],[0,6],[0,5],[-2,3],[0,4],[-1,8],[0,4],[3,11],[1,2]],[[3295,1017],[6,-3],[3,-1]],[[3290,1016],[5,1]],[[3312,1014],[3,0]],[[3304,1013],[8,1]],[[3235,855],[6,0],[4,1],[3,2],[11,7],[2,3],[0,5],[-1,3],[-4,1],[-2,1],[-3,20],[0,4],[3,5],[10,3],[2,3],[1,5],[0,8],[1,8],[4,12],[8,13],[1,5],[0,5],[-5,21]],[[3219,867],[3,-1],[3,0],[3,-2],[1,-1],[3,-6],[3,-2]],[[3204,823],[-3,1],[-6,4],[-2,0],[-3,2],[-2,3],[0,4],[0,3],[6,5],[3,2],[7,6],[4,6],[8,6],[3,2]],[[3220,782],[1,8],[3,27],[-1,10],[-1,4],[-2,2],[-3,2],[-3,0]],[[3214,835],[-7,-10],[-3,-2]],[[3037,176],[4,0],[7,-3],[2,-4],[1,-4],[0,-4],[2,-7],[3,-3],[5,-2],[13,-5]],[[2973,155],[13,0],[24,4],[8,2],[6,4],[1,3],[2,3],[2,2],[3,2],[5,1]],[[2931,166],[42,-11]],[[3098,152],[5,-1],[3,-3],[1,-4],[3,-3],[4,-3],[6,-2],[9,-1],[6,-4],[3,-3],[2,-3],[3,-1]],[[3074,144],[9,1],[4,2],[4,3],[3,2],[4,0]],[[3149,125],[3,0],[2,-3],[0,-3],[-2,-4],[-6,-4],[0,-2],[3,-2],[6,-4],[2,-4],[0,-3],[-4,-6],[1,-2],[3,-2],[4,-1]],[[3143,124],[3,1],[3,0]],[[3174,91],[3,-2],[2,-3],[2,-4],[1,-3],[1,-3],[1,-1],[2,-2],[4,-2],[3,-2],[1,-3],[2,-7],[2,-4],[2,-4],[4,-2],[10,-5],[5,0]],[[3161,85],[6,3],[4,2],[3,1]],[[3344,50],[2,1],[1,3],[-1,3],[-1,10],[4,13],[-1,8]],[[3318,71],[3,-1],[2,-2],[3,-3],[9,-6],[2,-2],[2,-3],[2,-3],[3,-1]],[[3296,56],[4,0],[3,1],[12,12],[3,2]],[[3288,57],[8,-1]],[[3254,43],[9,2],[5,2],[5,3],[4,3],[5,3],[6,1]],[[3235,52],[5,-1],[2,-3],[7,-4],[5,-1]],[[3219,44],[12,6],[4,2]],[[3489,0],[-2,2],[-2,4],[-20,18],[-5,6],[-2,4],[-1,3],[-2,4],[-2,3],[-19,16],[-12,8],[-15,12],[-9,4],[-4,4],[-4,3],[-2,4],[-10,3]],[[3378,98],[-30,-10]],[[3769,3877],[-3,1],[-2,0],[-1,1],[-8,3]],[[3755,3882],[-4,-1],[-2,-1],[-1,-1],[-2,-1],[-12,-3],[-13,0]],[[3782,3879],[-13,-2]],[[3721,3875],[-18,2]],[[3703,3877],[0,-21],[-1,-9],[0,-9],[4,-38],[1,-10],[0,-6],[-1,-2],[-8,-14],[-1,-4],[-2,-6],[0,-4],[1,-2],[2,-2],[0,-1],[3,-5],[0,-2],[1,-4],[1,-10],[1,-3],[2,-15],[0,-3],[0,-2],[-1,-2],[-1,0],[-1,-2],[-1,-2],[4,-32],[1,-1],[1,-3],[1,-3],[6,-5],[2,-3],[0,-3],[-1,-6],[0,-6],[2,-9],[0,-4],[-1,-3],[0,-1],[-3,-2],[-3,-1],[-4,-1],[-3,-1],[-13,-1],[-4,-1],[-4,-1],[-4,-3],[-3,-3],[-5,-6],[-2,-3],[-2,-3],[-2,-8],[-4,-17],[-2,-8],[-4,-9],[-2,-5],[-3,-14],[-1,-4],[-2,-3],[-4,-4]],[[3643,3522],[-2,-15]],[[3336,3431],[0,-2],[1,-3],[0,-2],[-1,-2],[0,-2],[1,-2],[-1,-2],[-1,-3],[-3,-6],[-4,-23],[-4,-6],[-4,-4],[-4,-1],[-4,-4],[-3,-4],[-1,-5],[-3,-5],[-2,-2],[-3,0]],[[3300,3353],[-3,1],[-1,2],[-1,2],[0,2],[0,3],[0,2],[-1,1],[-3,0]],[[3291,3366],[-6,-3],[-5,-2],[-4,-1]],[[3276,3360],[-4,1],[-1,1],[-1,1],[-1,1],[-1,1],[-3,1]],[[3265,3366],[-4,-1],[-2,-1],[-1,-1],[-1,0],[-1,-3],[-2,-5],[-3,-4],[-5,-7],[-4,-2],[-4,-1]],[[3224,3339],[-3,1],[-4,1],[-3,2],[-4,2]],[[3210,3345],[-4,-1],[-3,-1],[-3,-5]],[[3238,3341],[-3,0]],[[3235,3341],[-4,0],[-7,-2]],[[4053,3134],[-9,3],[-2,2],[-2,4],[0,4],[-2,5],[-4,3],[-4,1]],[[4030,3156],[-4,0],[-7,-2]],[[4019,3154],[-21,1]],[[3998,3155],[-39,-5],[-10,-4],[-20,-6],[-5,-1]],[[3924,3139],[-9,4],[-4,1]],[[3911,3144],[-3,-1],[-8,-2],[-3,-2],[-3,-3],[-1,-3],[0,-4],[5,-6],[0,-3],[-2,-2],[-16,-8],[-6,-6],[-2,-1],[-6,-2],[-24,-3]],[[4056,3140],[-3,-6]],[[3786,3099],[-3,1],[-4,2],[-14,9],[-4,1],[-5,1]],[[3756,3113],[-3,-2],[0,-2],[0,-1],[-1,-3]],[[3842,3098],[-20,2],[-10,3]],[[3812,3103],[-21,-4],[-5,0]],[[4056,3140]],[[3746,2754],[-3,2],[-1,3],[1,3],[3,2],[2,4],[0,3],[-2,4],[-3,1]],[[3743,2776],[-7,-3],[-4,-1],[-7,-1],[-22,-5],[-4,-2],[-2,-3],[-7,-9],[-1,-3]],[[3821,2744],[-25,16],[-10,1]],[[3786,2761],[-6,0],[-5,-2],[-2,-1],[-12,-2],[-4,-1],[-4,-1],[-7,0]],[[3910,2223],[-5,0],[-8,2],[-4,2],[-2,4],[-1,10],[-2,4],[-1,3],[-4,4],[-3,0]],[[3880,2252],[-2,-1],[-2,-3],[-1,-3],[-2,-3],[-2,-3],[-3,-1],[-3,0]],[[3865,2238],[-13,2]],[[3852,2240],[-13,-1]],[[3839,2239]],[[3958,2157],[-3,1],[-3,1],[-2,4],[-5,7],[-1,4],[-1,3],[-1,4],[0,3],[0,4],[1,11],[-1,3],[-2,4],[-4,5],[-11,8],[-6,3],[-4,1]],[[3915,2223],[-5,0]],[[4033,2125],[-19,6],[-5,3],[-4,3],[-7,7],[-3,3],[-5,3],[-6,1],[-11,8],[-5,0]],[[3968,2159],[-10,-2]],[[4084,2135],[-10,-4]],[[4074,2131],[-10,4]],[[4064,2135],[-6,-1],[-15,-7],[-5,-1],[-5,-1]],[[4096,2172],[-4,-7],[0,-2],[2,-4],[2,-5],[0,-3],[-2,-3],[-3,-2],[-7,-11]],[[4096,1514],[-2,1],[-1,3],[0,3],[1,3],[2,4]],[[4096,1538],[-1,1],[-2,2],[-6,2]],[[4087,1543],[-4,-1],[-3,-2],[-9,-7],[-7,-9],[-4,-3],[-5,-1],[-7,-1]],[[4048,1519],[-13,3]],[[4035,1522],[-4,-3],[-13,-9],[-3,-5],[-1,-4],[3,-3],[5,-6],[2,-3],[2,-6],[2,-4],[1,-3],[0,-3],[-3,-9],[-4,-7],[-1,-5],[-1,-4],[1,-8],[-1,-5],[0,-3],[2,-3],[2,-3],[1,-3],[-1,-3],[-6,-18],[-3,-3],[-2,-1],[-6,0],[-3,-2],[-1,-3],[1,-3],[2,-4],[1,-4],[-2,-6],[-5,-6],[-2,-4],[1,-3],[5,-3],[1,-3],[1,-6],[1,-3],[3,-3]],[[4022,1346],[34,-8]],[[4010,1345],[12,1]],[[3759,354],[-1,1],[-1,0],[0,1],[-1,0],[-1,0],[-1,-1],[-26,-19],[-13,4],[-4,3],[-18,13],[-2,2],[-1,1],[-2,1],[-2,1],[-3,1],[-11,5],[-3,1],[-1,0],[-1,1],[-1,0],[-3,0],[-1,0],[-2,0],[-2,0],[-1,0],[-2,0],[-1,0],[-2,0],[-1,-1],[-2,-1],[-2,0],[-1,-1],[-2,-1],[-2,-1],[-1,-1],[-10,-9],[-2,-1],[-2,-2],[-1,-1],[0,-1],[-2,-2],[0,-1],[-1,-1],[-2,-2],[0,-3],[-1,-1],[0,-2],[-1,-1],[0,-2],[0,-3],[-1,-1],[0,-1],[0,-9],[-1,-8],[-9,-17],[-10,-8],[-46,-19],[-2,-1],[-1,-1],[-1,0],[-2,-2],[-1,-1],[-1,-1],[-3,-3],[-1,0],[0,-1],[-5,-8],[-1,-1],[-1,-1],[0,-2],[-1,-1],[-1,-2],[0,-1],[0,-1],[-1,-1],[0,-2],[0,-1],[0,-2],[-1,-8],[-9,-19],[-28,-25],[-30,-10],[-6,-1],[-3,1],[-3,0],[-2,0],[-1,0],[-4,0],[-2,0],[-2,0],[-6,-1],[-2,-1],[-1,0],[-4,-1],[-1,-1],[-9,-5],[-6,-3],[-4,-2],[-7,-5],[-1,0],[-1,-1],[-1,-1],[-2,-1],[-2,-2],[-5,-5],[-8,-6],[-14,-5],[-35,-9],[-3,-1],[-1,0],[-1,-1],[-2,0],[-2,-1],[-1,-1],[-2,-2],[-5,-4],[-4,-2],[-16,-8],[-6,-2],[-7,-1],[-2,0],[-1,0],[-1,-1],[-2,0],[-2,-1],[-1,-1],[-2,-1],[-2,-1],[-4,-4],[-7,-4],[-1,-1],[-1,-1],[-7,-7],[-11,-11],[-13,-11],[-1,-1],[-1,-1],[-2,-1],[-1,-2],[-1,-2],[-1,-1],[-1,-1],[-8,-14],[-1,-2],[-5,-6],[-33,-26]],[[3761,352],[-33,-16],[-84,29],[-36,-70],[-10,-8],[-54,-25],[-11,-16],[-4,-19],[-9,-19],[-28,-25],[-30,-10],[-36,-3],[-47,-32],[-14,-5],[-39,-10],[-17,-11],[-16,-8],[-6,-2],[-10,-1],[-6,-3],[-4,-2],[-4,-4],[-8,-5],[-19,-19],[-15,-13],[-5,-6],[-9,-15],[-1,-2],[-1,-2],[-4,-5],[-6,-4]],[[3761,353],[7,-4],[1,0],[0,-1],[1,-1],[0,-1],[0,-1]],[[4096,280],[-20,3],[-27,-1],[-5,0],[-60,1],[-61,4],[-26,-4],[-26,-14],[-7,-2],[-3,0],[-2,0],[-1,0],[-11,5],[-48,38],[-17,25]],[[3782,335],[-12,10]],[[3770,345],[-7,6]],[[3800,311],[-18,24]],[[4096,280],[-11,2],[-7,1],[-2,0],[-4,0],[-23,-1],[-5,0],[-27,1],[-33,1],[-29,2],[-6,1],[-20,0],[-3,0],[-3,0],[-2,0],[-4,-1],[-16,-2],[-2,-1],[-2,0],[-1,-1],[-1,0],[-2,-1],[-1,0],[-21,-12],[-12,-2],[-12,5],[-4,4],[-5,6],[-2,2],[-2,2],[-3,3],[-28,19],[-3,3]],[[0,0],[0,4096],[3527,0],[-3,-25],[-3,-6],[-4,-5],[-5,-2],[0,-4],[9,-2],[5,-8],[1,-12],[0,-14],[3,-12],[14,-12],[3,-12],[2,-3],[4,-3],[13,-3],[2,-2],[1,-3],[1,-4],[1,-2],[2,1],[1,2],[0,1],[14,-1],[8,-4],[6,-9],[-13,5],[-39,-9],[-29,4],[-4,-1],[-2,0],[-18,-9],[-28,-4],[-27,0],[-15,4],[-9,9],[0,12],[9,14],[-2,3],[-1,3],[0,2],[1,3],[-37,-7],[2,-4],[-14,0],[-3,-2],[-1,-4],[0,-3],[-1,-2],[-6,-1],[-4,-4],[-2,-5],[-2,-4],[4,-6],[7,-16],[3,-3],[4,0],[4,-1],[3,-3],[3,-6],[-4,3],[-2,2],[-2,2],[-2,0],[1,-8],[6,-10],[-2,-4],[10,-6],[-11,-7],[-4,-4],[1,11],[-2,7],[-9,14],[1,2],[2,5],[-5,1],[-3,4],[-2,5],[-1,6],[-7,13],[-1,3],[-18,-2],[-16,-6],[3,-7],[2,-3],[3,-4],[-5,5],[-5,0],[-4,-3],[-4,-5],[3,-3],[2,-1],[0,-3],[-6,-3],[-3,3],[-2,6],[-1,8],[0,-6],[-1,-6],[-3,-4],[-4,-2],[-1,6],[-1,6],[-2,4],[-5,2],[-1,3],[-2,12],[-2,3],[-8,-4],[-7,-8],[-7,-4],[-6,5],[10,11],[2,2],[1,3],[1,3],[3,2],[0,4],[-5,-1],[-3,2],[-3,4],[-1,6],[-5,-10],[-10,-9],[-11,-6],[-9,-4],[-3,7],[-8,1],[-17,-4],[7,-4],[4,0],[0,-4],[-6,-5],[-24,-14],[-7,-2],[-3,-3],[-3,-3],[-9,-13],[-7,-7],[-6,-3],[-14,1],[-2,-4],[0,-7],[-1,-5],[-5,4],[-3,4],[-3,3],[-3,1],[-5,1],[3,2],[2,3],[2,4],[1,4],[-21,10],[-9,6],[-4,2],[-2,2],[-1,3],[0,3],[1,2],[0,3],[-2,4],[-3,15],[-24,20],[-2,5],[-6,6],[-7,5],[-5,3],[0,4],[2,0],[3,3],[0,4],[0,3],[0,4],[-7,3],[-19,0],[-9,4],[-5,4],[0,3],[6,4],[3,2],[4,1],[0,2],[-1,1],[-1,0],[-1,0],[3,4],[-4,3],[-4,1],[-4,-1],[-3,-3],[-6,1],[-7,-10],[-12,-23],[-3,0],[0,4],[8,10],[2,4],[5,13],[3,4],[-5,4],[0,3],[2,5],[0,6],[-3,5],[-4,2],[-5,-1],[-6,-8],[-4,2],[-3,-4],[-9,-7],[-11,-13],[-3,-5],[-2,-6],[-1,3],[-1,2],[0,2],[4,5],[3,9],[0,10],[-2,8],[-6,1],[-11,-13],[-3,1],[-3,0],[-4,-3],[-31,-11],[-2,-1],[-4,-4],[-3,-2],[-5,-1],[-8,1],[1,2],[1,2],[1,1],[2,2],[-5,0],[-13,7],[-11,1],[-4,2],[-2,0],[-2,-4],[-8,-13],[-10,-5],[-4,-4],[2,-8],[12,-15],[5,-3],[-19,-4],[-1,-3],[1,-8],[4,-12],[-5,-3],[-11,0],[-9,3],[0,9],[-13,-4],[-4,1],[-4,1],[-9,8],[-4,1],[-17,-1],[-6,2],[-5,6],[0,-3],[0,-3],[-1,-2],[-2,-2],[-4,3],[-3,-6],[-1,-10],[1,-9],[-3,3],[-1,1],[-1,3],[-3,0],[2,-10],[2,-4],[1,-3],[-2,-4],[2,-4],[-2,-3],[-5,6],[-11,6],[-4,6],[0,3],[1,1],[4,3],[-7,2],[-6,-3],[-10,-10],[2,6],[-1,6],[-2,3],[-4,3],[0,4],[3,0],[0,3],[-4,1],[-1,3],[1,4],[1,5],[-2,1],[-13,-3],[-7,-5],[-5,-2],[-5,0],[1,-5],[0,-4],[-1,-3],[-3,-3],[-2,0],[-1,4],[-2,3],[-2,0],[-2,-3],[-7,3],[-8,1],[-9,-2],[-7,-2],[-6,-4],[-6,-7],[-2,-5],[7,-2],[0,-3],[-5,-1],[-8,4],[-4,0],[-4,-1],[-11,-6],[-9,-1],[3,12],[-7,7],[-9,0],[-10,-3],[-10,-6],[-11,-2],[0,-3],[3,-1],[5,-3],[-9,0],[-12,-6],[-8,-1],[-29,0],[0,-3],[4,-2],[0,-2],[0,-1],[-1,-3],[10,-3],[-7,-1],[-17,4],[-5,-3],[3,-7],[8,-11],[-4,-1],[-12,6],[-7,2],[-12,-1],[-6,-2],[-6,-4],[2,-4],[-3,2],[-4,2],[-7,-9],[-9,-15],[-3,-15],[9,-7],[0,-3],[-7,-2],[-4,-7],[-2,-10],[0,-9],[7,-14],[0,-7],[-7,-1],[3,-10],[3,-6],[5,-1],[18,-1],[3,2],[1,4],[0,4],[1,1],[7,-1],[13,-5],[6,-1],[7,1],[11,5],[18,4],[23,14],[11,4],[25,4],[7,3],[12,6],[6,2],[-35,-20],[-4,-3],[-21,-24],[0,-3],[5,1],[5,1],[5,2],[3,3],[2,-4],[-1,-1],[-1,-2],[8,2],[11,7],[6,-2],[1,2],[2,3],[1,2],[3,0],[0,-4],[-3,0],[0,-3],[6,2],[8,5],[7,0],[-7,-7],[-4,-2],[-2,-3],[0,-2],[-3,-1],[-2,-1],[-3,-5],[16,1],[2,1],[2,-5],[5,-2],[5,1],[3,4],[2,-6],[4,-2],[11,1],[0,-4],[-29,-6],[-8,3],[5,0],[3,1],[2,2],[-24,-2],[-18,-4],[-4,-1],[-5,1],[-3,2],[-2,2],[-4,2],[-32,-2],[-10,4],[5,19],[-6,3],[-5,-4],[-7,-16],[1,-2],[1,-4],[-1,-3],[-4,-2],[-4,1],[-3,1],[-3,0],[-4,-2],[1,-5],[-1,-5],[21,-1],[5,-1],[2,-5],[-1,-3],[-3,-2],[-2,-6],[1,-4],[3,-4],[4,-6],[-2,-3],[-3,-11],[9,3],[7,9],[5,12],[5,9],[10,4],[19,-12],[10,3],[0,-3],[2,-3],[2,-3],[3,-1],[16,-4],[5,-4],[1,-12],[1,-4],[6,-6],[1,-6],[-3,-14],[-2,-4],[-5,-2],[-21,6],[-117,-25],[-2,1],[-3,3],[-2,0],[-1,-2],[0,-2],[0,-2],[-3,-4],[-1,-3],[-2,-3],[-2,-2],[27,-7],[12,1],[6,-2],[11,-10],[5,3],[5,5],[4,3],[4,-2],[32,-24],[18,-22],[5,-9],[4,-14],[5,-13],[1,-10],[-1,-3],[-3,-1],[-3,0],[-3,-1],[0,-3],[0,-7],[0,-4],[54,-3],[9,3],[5,3],[12,11],[0,4],[-10,0],[0,3],[1,2],[1,2],[-5,3],[1,7],[5,1],[7,-11],[4,3],[3,2],[4,2],[4,0],[0,3],[-4,4],[-5,7],[-2,8],[4,6],[1,-8],[3,-8],[5,-7],[4,-2],[6,0],[5,-2],[10,-8],[2,4],[3,1],[4,0],[4,2],[-1,-5],[-2,-2],[-3,-1],[-4,1],[7,-2],[9,8],[2,8],[-3,10],[10,-1],[9,-7],[7,-7],[1,-6],[5,-2],[2,-1],[3,0],[-1,-6],[1,-4],[3,-2],[2,-2],[7,-13],[1,-1],[6,-1],[8,2],[8,0],[5,-5],[19,10],[4,-1],[3,-7],[7,-3],[13,1],[2,-1],[4,-5],[3,-1],[3,-1],[10,1],[12,-3],[6,0],[4,3],[2,-4],[1,-2],[4,-5],[6,-10],[10,-14],[2,-3],[5,-1],[30,7],[0,3],[-2,3],[-2,2],[-3,2],[8,1],[11,7],[10,9],[8,9],[0,-4],[-5,-4],[-3,-6],[-5,-11],[-2,-1],[-6,1],[-2,-2],[0,-5],[0,-2],[-1,-2],[-4,0],[0,-4],[16,-1],[6,-2],[6,-4],[0,-3],[-15,5],[-6,1],[-7,-3],[10,0],[16,-4],[9,-3],[11,-12],[3,-2],[3,2],[2,5],[1,5],[5,2],[-3,6],[-2,1],[5,2],[3,3],[3,2],[4,-3],[1,2],[0,1],[2,0],[-2,7],[-2,6],[-4,4],[-5,1],[6,2],[5,-3],[4,-1],[3,6],[2,0],[0,-4],[0,-11],[2,1],[4,2],[2,1],[0,-5],[0,-4],[1,-3],[1,-2],[-27,-12],[-4,-15],[-1,-7],[1,-3],[4,-2],[4,-1],[3,-3],[5,-5],[4,-7],[3,-9],[1,-12],[-1,-7],[-3,-9],[-1,-5],[0,-5],[5,-15],[2,0],[2,2],[8,-2],[5,0],[-8,9],[-6,12],[-2,15],[4,17],[-2,1],[-2,2],[-1,1],[3,5],[4,1],[4,-3],[4,-3],[-3,-2],[-2,-2],[5,-3],[6,1],[11,6],[3,-3],[2,0],[5,-1],[-2,7],[1,6],[2,1],[2,-8],[1,-7],[4,-1],[2,3],[-2,7],[5,-5],[4,-5],[3,-3],[3,2],[4,-5],[1,-2],[1,2],[0,1],[1,4],[-4,3],[-4,6],[-3,5],[-1,5],[0,13],[-1,3],[-2,7],[0,4],[3,0],[1,-6],[2,-5],[4,-3],[5,0],[-3,-3],[-1,-4],[0,-5],[2,-6],[2,0],[2,2],[1,1],[5,1],[0,-4],[-3,0],[0,-3],[12,3],[7,3],[3,6],[4,3],[19,2],[8,4],[-5,3],[11,-2],[4,-3],[4,-6],[-7,3],[-7,1],[18,-11],[2,-3],[4,0],[1,1],[2,3],[-5,3],[4,1],[3,3],[-1,3],[-3,4],[0,3],[8,-10],[-2,-10],[-14,-19],[3,-3],[-8,-5],[-10,-1],[-9,3],[-6,6],[-2,-7],[0,-4],[-4,3],[-2,1],[-2,-1],[-2,-3],[-3,0],[-5,11],[-10,0],[-6,-4],[6,-3],[0,-2],[0,-1],[1,-1],[4,0],[3,-2],[2,-3],[1,0],[6,-10],[1,-2],[5,-5],[4,-2],[6,-1],[7,1],[19,6],[6,1],[12,-4],[5,2],[1,13],[3,-3],[5,-1],[9,0],[-1,4],[-1,2],[-3,1],[-3,0],[7,2],[5,-1],[5,1],[6,5],[-3,-7],[-5,-6],[-7,-3],[-5,-1],[3,-4],[3,1],[2,2],[3,1],[14,0],[12,3],[4,1],[6,-1],[28,-10],[7,0],[9,1],[6,-1],[-7,0],[-14,-3],[-22,-2],[-4,-3],[5,-7],[-3,-10],[4,-2],[8,-1],[6,-4],[-3,-7],[6,-3],[9,0],[5,-1],[-1,-3],[-13,-7],[-3,-4],[-3,3],[2,1],[1,3],[-6,1],[-4,2],[-4,0],[-29,-17],[15,-9],[5,-8],[0,-15],[3,0],[2,5],[0,2],[-2,4],[1,1],[1,1],[3,1],[5,-7],[8,-7],[3,-7],[-6,-7],[-9,-2],[-15,8],[-9,1],[0,-4],[35,-17],[10,0],[1,1],[0,3],[2,4],[2,2],[3,1],[4,0],[6,-1],[5,-3],[9,-10],[6,-5],[6,-2],[7,0],[7,2],[9,9],[11,3],[3,3],[2,3],[2,4],[2,3],[12,7],[50,3],[14,-3],[5,-5],[3,-2],[9,-1],[7,-2],[13,-7],[13,-10],[11,-13],[6,-5],[15,-3],[7,-5],[-19,1],[-9,3],[-8,9],[-4,2],[-15,3],[-15,11],[0,4],[8,0],[-3,3],[-4,2],[-4,1],[-4,0],[2,-3],[-5,0],[-19,4],[-3,3],[-2,3],[-3,0],[-3,-1],[-2,-2],[-34,-4],[-8,-3],[-4,-5],[-2,-6],[-1,-6],[-1,-6],[1,-8],[4,-8],[0,-7],[-1,-8],[-1,-4],[-3,-2],[-12,-1],[-4,-3],[-4,-4],[-5,-3],[13,-7],[42,-7],[22,-12],[6,-5],[3,-6],[5,-9],[0,-9],[-6,-5],[-5,-9],[-6,-19],[-4,-7],[-14,-9],[-5,-5],[2,-7],[-10,-7],[-2,-5],[-1,-12],[0,-8],[2,-10],[3,-8],[4,-4],[9,-3],[12,-8],[20,-20],[11,-22],[3,-3],[6,-1],[6,-2],[5,-3],[3,-14],[5,-5],[5,-4],[6,-6],[2,-6],[2,-7],[3,-6],[5,-3],[-1,-9],[8,-37],[3,-5],[4,-2],[1,2],[0,5],[-2,8],[0,7],[3,-6],[4,-11],[3,-4],[4,-3],[11,-3],[12,-10],[19,-4],[6,-5],[-3,-7],[10,-3],[24,-1],[10,-2],[9,-6],[5,-9],[3,-13],[4,-11],[9,-1],[19,7],[5,-2],[8,-7],[11,-7],[4,-1],[6,-1],[7,-10],[6,-9],[10,-2],[0,16],[13,8],[17,-1],[8,-11],[1,-7],[1,-5],[1,-4],[-3,-6],[-25,-16],[-4,-7],[1,-9],[-3,-3],[-4,-4],[-2,-5],[1,-4],[3,-4],[3,-1],[3,1],[4,-2],[6,1],[2,-1],[0,-1],[0,-3],[0,-2],[1,-1],[3,-1],[8,-6],[-4,-4],[0,-2],[2,-2],[2,-3],[2,0],[4,-2],[2,-1],[0,-2],[0,-5],[3,-7],[0,-5],[1,-4],[7,-3],[3,-1],[2,-3],[1,-2],[0,-3],[-4,-9],[-5,-4],[-6,0],[-7,5],[5,-17],[4,-7],[6,-4],[-2,-1],[-4,-4],[-2,-2],[3,-2],[2,-5],[2,-5],[1,-5],[-2,-6],[-2,-2],[-3,1],[-3,-1],[-6,-3],[-4,-4],[-2,-2],[-2,-3],[-2,-3],[-4,-2],[3,-5],[2,-8],[2,-8],[0,-6],[2,-4],[10,-11],[32,-27],[9,-9],[-26,12],[-4,4],[-4,3],[-24,27],[-7,0],[-24,-7],[0,-7],[-6,-36],[6,-2],[13,2],[7,-5],[4,-6],[6,-5],[6,-3],[6,-2],[11,-4],[20,-20],[12,-4],[2,-2],[2,-10],[1,-2],[52,-37],[16,-20],[9,-13],[7,-14],[12,-33],[5,-20],[14,-98],[4,-17],[7,-13],[13,-10],[16,-5],[14,-8],[9,-16],[-8,7],[-8,4],[-10,2],[-11,1],[9,-5],[8,-9],[4,-11],[-4,-14],[3,-6],[1,-15],[1,-7],[-5,4],[-3,8],[-1,11],[-1,11],[1,8],[0,5],[-3,6],[-3,4],[-12,7],[-14,13],[-12,17],[-13,30],[-1,5],[-7,48],[-5,19],[-1,11],[-4,15],[-10,15],[-44,49],[-6,2],[-15,9],[-25,19],[-3,4],[-4,6],[-1,3],[0,2],[1,3],[1,2],[0,6],[0,4],[0,2],[-4,2],[-6,-2],[-5,-8],[-13,-25],[-2,-8],[-7,-109],[-15,-82],[-22,-254],[3,6],[3,12],[4,23],[16,25],[3,5],[0,1],[1,2],[1,2],[1,2],[3,0],[1,-1],[2,-2],[2,-1],[4,-1],[27,-27],[4,-7],[-5,0],[9,-9],[0,-8],[-8,-6],[-13,-2],[-22,6],[-9,0],[-7,-9],[-7,-24],[-1,-6],[-1,-4],[-10,-14],[0,-4],[3,-15],[1,-7],[-3,-32],[-10,-73],[-23,-146],[-1,-2],[-12,-64],[-9,-30],[-14,-85],[-9,-29],[-3,-16],[-10,-16],[-3,-5],[-15,-20],[-3,-4],[-1,-6],[-8,-16],[-3,-4],[-7,-5],[-8,-5],[-9,-12],[-32,-6],[-7,-2],[-2,-4],[-6,4],[-7,6],[-14,-8],[-13,-13],[-15,-7],[2,-2],[4,-3],[2,-2],[-6,-4],[-2,3],[-3,5],[-4,3],[-6,1],[-4,-2],[-8,-6],[-26,-10],[-8,-1],[-4,-1],[-11,-9],[-2,1],[-1,2],[-1,3],[-2,1],[-2,-1],[-2,-1],[-1,-1],[-1,0],[-5,1],[-3,4],[-3,3],[-2,2],[-4,0],[-12,-4],[-16,-2],[-15,2],[-15,5],[-35,17],[-7,11],[-8,3],[-16,4],[-21,9],[-11,2],[-5,2],[-4,1],[-4,-1],[-2,-2],[0,-3],[0,-3],[0,-2],[-3,-10],[-2,-2],[-1,11],[-4,13],[-4,6],[-7,7],[-7,6],[-5,1],[-6,-2],[-8,-3],[-17,-2],[-19,1],[-9,-1],[-6,-4],[0,-3],[3,0],[0,-4],[-6,-2],[-16,-10],[-4,-5],[-5,-2],[-2,-2],[0,-2],[2,-4],[1,-6],[5,-13],[0,-4],[-18,16],[-12,8],[-8,-7],[-7,1],[-7,3],[-10,3],[-8,10],[-4,2],[-5,1],[-16,6],[-23,3],[-17,7],[-5,1],[-11,-4],[-5,1],[-4,6],[-5,-10],[-4,3],[-4,6],[-7,1],[6,3],[3,3],[1,3],[2,3],[3,-1],[3,-2],[2,-2],[3,1],[2,-1],[2,1],[0,5],[0,3],[-1,3],[-2,1],[-25,5],[-4,2],[-4,4],[-5,4],[-6,0],[1,9],[-9,1],[-28,-9],[-4,-2],[-4,-4],[-4,-3],[-11,0],[-4,-2],[3,-4],[-2,-1],[-1,-2],[-2,2],[-2,0],[-5,1],[0,-3],[2,-3],[2,-4],[1,-5],[-2,-2],[-3,1],[-3,5],[-3,1],[-2,-1],[-5,-7],[-2,-3],[-6,-3],[-3,0],[-4,0],[0,2],[1,1],[1,0],[1,0],[-2,1],[-2,2],[-4,4],[5,6],[7,5],[16,7],[-10,7],[-11,2],[-11,-2],[-11,-7],[-2,2],[-1,1],[-4,-3],[-6,2],[-7,-3],[-12,-10],[0,-3],[3,-3],[2,-1],[-2,0],[-2,0],[-2,-1],[-2,-2],[-8,6],[-3,1],[-3,-1],[-1,-2],[0,-3],[-2,-1],[-16,0],[-9,-2],[-23,-7],[-10,-8],[-45,-5],[-17,2],[-4,-2],[-3,-6],[-3,0],[-7,6],[-10,3],[-10,-2],[-8,-7],[-9,9],[-2,0],[-81,8],[-7,2],[-30,15],[-26,5],[-8,5],[-4,1],[-4,-1],[-5,-5],[-3,-1],[-26,8],[-4,-3],[-4,7],[-9,3],[-31,1],[-13,5],[-26,18],[-6,2],[-15,2],[-5,-1],[-2,-3],[-1,-4],[-3,-3],[-4,-2],[-7,-3],[-4,-2],[-3,4],[7,6],[4,8],[-1,7],[-11,3],[-73,-3],[-19,3],[-4,9],[-3,2],[-2,-7],[-3,0],[-6,11],[-20,24],[-8,7],[-12,6],[-6,1],[-2,-5],[-2,-6],[-4,-3],[-12,0],[1,-1],[1,-4],[1,-2],[-5,-5],[2,-4],[2,-4],[-2,-5],[-42,0],[-6,-3],[-5,-4],[-6,-2],[-5,2],[-6,-3],[-28,3],[-5,2],[-12,9],[-5,-1],[-2,-2],[-3,-3],[-8,-2],[-10,-5],[-5,-1],[-19,0],[-19,-4],[-5,1],[-8,5],[-5,1],[0,-2],[1,-6],[1,-2],[-9,0],[-4,-1],[-4,-3],[-14,8],[-18,6],[-19,2],[-20,-11],[-9,1],[-15,5],[-22,-2],[-6,2],[-35,-1],[-21,-5],[-3,-12],[-5,-4],[-2,-7],[-2,-9],[-2,-8],[-2,0],[-3,9],[2,7],[4,6],[2,6],[0,10],[-5,3],[-6,1],[-7,4],[-6,-4],[-22,-1],[-14,2],[-7,3],[-5,0],[-5,-2],[-3,-3],[-2,-1],[-5,2],[0,4],[2,1],[1,2],[1,2],[1,2],[-17,8],[-23,42],[-15,6],[-30,18],[-4,1],[-15,2],[-5,-2],[-3,-4],[-4,-3],[-4,2],[-3,-7],[-5,-7],[-3,-1],[1,8],[-9,18],[-1,7],[-6,-3],[-3,-1],[-2,-1],[-1,-2],[0,-3],[0,-1],[-4,-1],[-2,-1],[-2,2],[0,7],[8,11],[2,3],[-1,5],[-3,4],[-2,2],[-1,-2],[-3,-8],[-6,-7],[-8,-5],[-14,-4],[-8,-5],[-6,-5],[-5,-6],[0,-2],[1,-4],[1,-2],[-9,4],[-4,0],[-4,-4],[6,-11],[-3,-4],[-18,1],[0,4],[1,1],[1,0],[3,3],[2,-3],[1,0],[4,3],[-2,4],[0,4],[2,5],[3,4],[1,-1],[4,-1],[2,-1],[0,3],[-5,7],[-3,9],[-4,7],[-10,2],[-8,-10],[-9,-9],[-10,-6],[-11,-3],[-12,0],[-5,-1],[-3,-5],[-1,-6],[-2,-5],[1,-6],[7,-6],[-1,-1],[-2,-2],[-2,-1],[0,-3],[2,0],[3,0],[-4,-2],[-4,1],[-3,3],[-1,5],[-53,-41],[-11,-6],[-8,1],[-3,-1],[-6,1],[-2,0],[0,-5],[2,-5],[3,-5],[3,-2],[-5,-7],[-4,1],[-2,-7],[-1,-11],[-3,-8],[16,1],[7,3],[5,6],[3,-2],[2,-1],[-3,-1],[-1,-1],[-1,-2],[22,4],[8,4],[2,-1],[0,-3],[-1,-4],[-3,-2],[-2,-1],[-37,-5],[-7,-6],[6,-2],[9,-10],[6,-2],[13,1],[6,-1],[7,-4],[-6,-4],[-4,-4],[-2,-5],[0,-8],[2,-15],[1,-8],[-3,-9],[-3,8],[-4,5],[-8,9],[-2,5],[-2,6],[-2,5],[-5,2],[-11,7],[-7,1],[-3,-7],[0,-12],[-1,-5],[-4,-5],[-9,7],[-3,5],[-1,7],[-20,-6],[-2,-1],[-1,-3],[-2,-2],[-7,-2],[-4,-3],[-3,-3],[-1,-5],[-3,-3],[-19,-10],[-12,6],[-14,-4],[-13,-8],[-10,-4],[-7,1],[-14,5],[-7,1],[-6,3],[-11,12],[-5,3],[-4,-1],[-3,-3],[-3,-4],[-11,-3],[-15,-11],[-15,-6],[-4,-1],[-2,-1],[3,-3],[4,-3],[2,0],[5,-11],[4,-3],[8,0],[-6,-5],[-10,-4],[-10,0],[-6,6],[-3,0],[-2,-8],[-4,-7],[-4,-3],[-5,-4],[-5,-2],[-6,-1],[-6,0],[-14,6],[-12,-7],[-17,-17],[3,-9],[5,-1],[12,6],[0,-4],[6,-1],[8,2],[6,3],[0,-3],[-7,-1],[-2,-1],[-3,-2],[-4,-2],[-1,-3],[-1,-2],[-2,-3],[-5,-5],[-5,-1],[-5,1],[-5,5],[-2,-6],[-4,-3],[-4,-5],[-2,-9],[-3,-5],[-5,0],[-3,-3],[3,-12],[6,-4],[2,-4],[-2,-4],[-1,-3],[-1,-4],[-1,-4],[0,-3],[-8,-22],[-2,-5],[0,-3],[3,-3],[4,-12],[1,-1],[3,4],[4,11],[2,4],[3,3],[5,3],[3,-1],[2,-7],[1,0],[4,1],[2,3],[-2,5],[0,4],[4,-2],[6,-10],[3,-2],[7,-1],[2,-2],[1,-3],[-1,-5],[-1,-3],[-3,-4],[-1,-2],[0,-3],[2,-7],[1,-4],[7,-3],[5,-3],[3,-6],[-2,-5],[-3,-4],[-3,-2],[-5,0],[4,-9],[1,-8],[3,-7],[5,-4],[7,-2],[4,3],[9,9],[-2,9],[8,2],[18,-3],[10,1],[8,4],[6,7],[2,12],[7,-4],[1,-9],[-2,-8],[-3,-3],[-8,-3],[-6,-5],[-9,-13],[-11,-7],[-1,-1],[-4,-1],[-3,-4],[-2,-4],[-4,-6],[-2,-10],[-1,-8],[0,-6],[-5,-8],[-5,-13],[-2,-13],[6,-5],[8,-4],[2,-8],[1,-10],[5,-6],[5,6],[3,3],[3,1],[3,12],[1,3],[13,4],[5,3],[-6,7],[12,10],[5,2],[-2,-5],[6,-4],[4,3],[8,11],[-4,5],[1,6],[6,11],[4,-4],[4,-8],[5,-7],[6,-3],[7,3],[5,6],[3,8],[3,8],[2,0],[-3,-11],[-13,-32],[-5,-7],[-5,-1],[-4,-4],[-3,-6],[-2,-8],[1,-9],[4,-18],[-4,-4],[0,-5],[1,-6],[-2,-6],[-3,-1],[-6,1],[-5,2],[-3,2],[5,3],[0,5],[-3,5],[-5,1],[-5,-1],[-7,-3],[-7,-5],[-3,-5],[3,-2],[12,-2],[5,-3],[3,-5],[1,-10],[3,-6],[9,-6],[12,-1],[12,1],[7,2],[6,3],[9,8],[8,5],[0,1],[2,0],[3,1],[3,-2],[3,0],[4,2],[-3,-8],[-5,-5],[-12,-8],[-6,-6],[-14,-17],[-3,-7],[-2,-2],[-13,4],[-5,-1],[-1,-2],[1,-2],[0,-4],[0,-17],[-2,-4],[-5,8],[-2,0],[0,-7],[-4,-11],[-2,-7],[7,3],[20,-2],[3,1],[5,5],[19,9],[8,2],[9,4],[5,9],[4,10],[5,6],[3,1],[2,-1],[0,-3],[0,-16],[-1,-4],[-3,-3],[-7,-5],[-7,-3],[-11,-12],[-2,-1],[-5,-2],[-19,-15],[-7,-9],[-1,-2],[-4,-2],[-2,-5],[-1,-5],[-1,-2],[-9,-5],[-2,-2],[1,-3],[7,-4],[2,-4],[-3,-5],[-6,-2],[-15,0],[-4,-4],[-1,-8],[7,-101],[-1,-7],[6,-2],[6,5],[6,8],[6,3],[8,3],[6,6],[6,8],[4,8],[-4,-19],[-13,-15],[-26,-23],[-2,-5],[-2,-5],[3,-15],[-3,-23],[0,-15],[7,-16],[6,-5],[5,0],[9,1],[40,13],[-5,-6],[-6,-4],[-6,-3],[-23,-4],[-8,-4],[-1,-5],[1,-12],[3,-10],[0,-9],[2,-9],[2,-11],[5,-16],[1,-8],[1,-8],[1,-10],[4,-12],[-4,-17],[1,-15],[0,-7],[2,-7],[5,-9],[1,-6],[2,-5],[3,-1],[1,-5],[0,-16],[2,-7],[2,-5],[1,-6],[-2,-7],[7,-14],[5,-18],[7,-14],[13,-4],[0,-3],[-6,-7],[-1,-18],[5,-35],[0,-19],[-2,-7],[-943,0]],[[2227,3860],[0,-3],[9,2],[4,-1],[2,-5],[-1,0],[-3,0],[-1,0],[0,-3],[7,1],[18,9],[0,4],[-2,0],[-1,1],[-1,1],[-1,1],[-7,3],[-8,-2],[-15,-8]],[[2941,3260],[29,-2],[9,2],[2,10],[-4,4],[-11,-1],[-4,3],[-12,12],[-1,1],[-10,7],[-16,8],[-5,1],[-3,3],[-2,0],[-2,-3],[-3,-3],[2,-7],[4,-8],[3,-9],[-1,-8],[6,-4],[19,-6]],[[3272,3094],[6,-8],[10,5],[9,-6],[8,-12],[5,-11],[6,-4],[2,7],[-1,10],[-2,8],[-4,3],[-12,7],[-4,4],[0,7],[1,7],[-1,6],[-7,5],[-7,1],[-21,-1],[6,-8],[6,-20]],[[3262,2952],[8,-3],[-4,6],[-7,5],[-14,6],[-7,1],[-7,-1],[-3,-4],[5,-10],[29,0]],[[3530,2719],[0,-4],[4,-2],[14,-17],[6,-2],[20,4],[36,-23],[16,-3],[2,-1],[1,-2],[4,2],[3,1],[3,1],[-4,9],[-7,8],[-8,6],[-37,5],[-6,3],[0,4],[5,0],[0,4],[-9,-3],[-10,-4],[-10,0],[-6,10],[4,0],[8,-3],[3,3],[0,3],[-2,3],[-3,2],[-6,1],[-21,-5]],[[3584,2616],[8,-18],[5,-12],[-1,-5],[-2,-5],[6,-9],[8,-10],[8,-5],[21,-24],[4,-7],[3,-7],[5,-18],[7,-3],[5,8],[4,14],[3,22],[-1,4],[-3,5],[-10,6],[-4,3],[2,5],[0,3],[-4,4],[0,5],[0,6],[-1,7],[-5,5],[-5,-1],[-5,-1],[-4,2],[-8,9],[-12,9],[-12,7],[-12,1]],[[943,0],[2,7],[0,19],[-5,35],[1,18],[6,7],[0,3],[-13,4],[-7,14],[-5,18],[-7,14],[2,7],[-1,6],[-2,5],[-2,7],[0,16],[-1,5],[-3,1],[-2,5],[-1,6],[-5,9],[-2,7],[0,7],[-1,15],[4,17],[-4,12],[-1,10],[-1,8],[-1,8],[-5,16],[-2,11],[-2,9],[0,9],[-3,10],[-1,12],[1,5],[8,4],[23,4],[6,3],[6,4],[5,6],[-40,-13],[-9,-1],[-5,0],[-6,5],[-7,16],[0,15],[3,23],[-3,15],[2,5],[2,5],[26,23],[13,15],[4,19],[-4,-8],[-6,-8],[-6,-6],[-8,-3],[-6,-3],[-6,-8],[-6,-5],[-6,2],[1,7],[-7,101],[1,8],[4,4],[15,0],[6,2],[3,5],[-2,4],[-7,4],[-1,3],[2,2],[9,5],[1,2],[1,5],[2,5],[4,2],[1,2],[7,9],[19,15],[5,2],[2,1],[11,12],[7,3],[7,5],[3,3],[1,4],[0,16],[0,3],[-2,1],[-3,-1],[-5,-6],[-4,-10],[-5,-9],[-9,-4],[-8,-2],[-19,-9],[-5,-5],[-3,-1],[-20,2],[-7,-3],[2,7],[4,11],[0,7],[2,0],[5,-8],[2,4],[0,17],[0,4],[-1,2],[1,2],[5,1],[13,-4],[2,2],[3,7],[14,17],[6,6],[12,8],[5,5],[3,8],[-4,-2],[-3,0],[-3,2],[-3,-1],[-2,0],[0,-1],[-8,-5],[-9,-8],[-6,-3],[-7,-2],[-12,-1],[-12,1],[-9,6],[-3,6],[-1,10],[-3,5],[-5,3],[-12,2],[-3,2],[3,5],[7,5],[7,3],[5,1],[5,-1],[3,-5],[0,-5],[-5,-3],[3,-2],[5,-2],[6,-1],[3,1],[2,6],[-1,6],[0,5],[4,4],[-4,18],[-1,9],[2,8],[3,6],[4,4],[5,1],[5,7],[13,32],[3,11],[-2,0],[-3,-8],[-3,-8],[-5,-6],[-7,-3],[-6,3],[-5,7],[-4,8],[-4,4],[-6,-11],[-1,-6],[4,-5],[-8,-11],[-4,-3],[-6,4],[2,5],[-5,-2],[-12,-10],[6,-7],[-5,-3],[-13,-4],[-1,-3],[-3,-12],[-3,-1],[-3,-3],[-5,-6],[-5,6],[-1,10],[-2,8],[-8,4],[-6,5],[2,13],[5,13],[5,8],[0,6],[1,8],[2,10],[4,6],[2,4],[3,4],[4,1],[1,1],[11,7],[9,13],[6,5],[8,3],[3,3],[2,8],[-1,9],[-7,4],[-2,-12],[-6,-7],[-8,-4],[-10,-1],[-18,3],[-8,-2],[2,-9],[-9,-9],[-4,-3],[-7,2],[-5,4],[-3,7],[-1,8],[-4,9],[5,0],[3,2],[3,4],[2,5],[-3,6],[-5,3],[-7,3],[-1,4],[-2,7],[0,3],[1,2],[3,4],[1,3],[1,5],[-1,3],[-2,2],[-7,1],[-3,2],[-6,10],[-4,2],[0,-4],[2,-5],[-2,-3],[-4,-1],[-1,0],[-2,7],[-3,1],[-5,-3],[-3,-3],[-2,-4],[-4,-11],[-3,-4],[-1,1],[-4,12],[-3,3],[0,3],[2,5],[8,22],[0,3],[1,4],[1,4],[1,3],[2,4],[-2,4],[-6,4],[-3,12],[3,3],[5,0],[3,5],[2,9],[4,5],[4,3],[2,6],[5,-5],[5,-1],[5,1],[5,5],[2,3],[1,2],[1,3],[4,2],[3,2],[2,1],[7,1],[0,3],[-6,-3],[-8,-2],[-6,1],[0,4],[-12,-6],[-5,1],[-3,9],[17,17],[12,7],[14,-6],[6,0],[6,1],[5,2],[5,4],[4,3],[4,7],[2,8],[3,0],[6,-6],[10,0],[10,4],[6,5],[-8,0],[-4,3],[-5,11],[-2,0],[-4,3],[-3,3],[2,1],[4,1],[15,6],[15,11],[11,3],[3,4],[3,3],[4,1],[5,-3],[11,-12],[6,-3],[7,-1],[14,-5],[7,-1],[10,4],[13,8],[14,4],[12,-6],[19,10],[3,3],[1,5],[3,3],[4,3],[7,2],[2,2],[1,3],[2,1],[20,6],[1,-7],[3,-5],[9,-7],[4,5],[1,5],[0,12],[3,7],[7,-1],[11,-7],[5,-2],[2,-5],[2,-6],[2,-5],[8,-9],[4,-5],[3,-8],[3,9],[-1,8],[-2,15],[0,8],[2,5],[4,4],[6,4],[-7,4],[-6,1],[-13,-1],[-6,2],[-9,10],[-6,2],[7,6],[37,5],[2,1],[3,2],[1,4],[0,3],[-2,1],[-8,-4],[-22,-4],[1,2],[1,1],[3,1],[-2,1],[-3,2],[-5,-6],[-7,-3],[-16,-1],[3,8],[1,11],[2,7],[4,-1],[5,7],[-3,2],[-3,5],[-2,5],[0,5],[2,0],[6,-1],[3,1],[8,-1],[11,6],[53,41],[1,-5],[3,-3],[4,-1],[4,2],[-3,0],[-2,0],[0,3],[2,1],[2,2],[1,1],[-7,6],[-1,6],[2,5],[1,6],[3,5],[5,1],[12,0],[11,3],[10,6],[9,9],[8,10],[10,-2],[4,-7],[3,-9],[5,-7],[0,-3],[-2,1],[-4,1],[-1,1],[-3,-4],[-2,-5],[0,-4],[2,-4],[-4,-3],[-1,0],[-2,3],[-3,-3],[-1,0],[-1,-1],[0,-4],[18,-1],[3,4],[-6,11],[4,4],[4,0],[9,-4],[-1,2],[-1,4],[0,2],[5,6],[6,5],[8,5],[14,4],[8,5],[6,7],[3,8],[1,2],[2,-2],[3,-4],[1,-5],[-2,-3],[-8,-11],[0,-7],[2,-2],[2,1],[4,1],[0,1],[0,3],[1,2],[2,1],[3,1],[6,3],[1,-7],[9,-18],[-1,-8],[3,1],[5,7],[3,7],[4,-2],[4,3],[3,4],[5,2],[15,-2],[4,-1],[30,-18],[15,-6],[23,-42],[17,-8],[-1,-2],[-1,-2],[-1,-2],[-2,-1],[0,-4],[5,-2],[2,1],[3,3],[5,2],[5,0],[7,-3],[14,-2],[22,1],[6,4],[7,-4],[6,-1],[5,-3],[0,-10],[-2,-6],[-4,-6],[-2,-7],[3,-9],[2,0],[2,8],[2,9],[2,7],[5,4],[3,12],[21,5],[35,1],[6,-2],[22,2],[15,-5],[9,-1],[20,11],[19,-2],[18,-6],[14,-8],[4,3],[4,1],[9,0],[-1,2],[-1,6],[0,2],[5,-1],[8,-5],[5,-1],[19,4],[19,0],[5,1],[10,5],[8,2],[3,3],[2,2],[5,1],[12,-9],[5,-2],[28,-3],[6,3],[5,-2],[6,2],[5,4],[6,3],[42,0],[2,5],[-2,4],[-2,4],[5,5],[-1,2],[-1,4],[-1,1],[12,0],[4,3],[2,6],[2,5],[6,-1],[12,-6],[8,-7],[20,-24],[6,-11],[3,0],[2,7],[3,-2],[4,-9],[19,-3],[73,3],[11,-3],[1,-7],[-4,-8],[-7,-6],[3,-4],[4,2],[7,3],[4,2],[3,3],[1,4],[2,3],[5,1],[15,-2],[6,-2],[26,-18],[13,-5],[31,-1],[9,-3],[4,-7],[4,3],[26,-8],[3,1],[5,5],[4,1],[4,-1],[8,-5],[26,-5],[30,-15],[7,-2],[81,-8],[2,0],[9,-9],[8,7],[10,2],[10,-3],[7,-6],[3,0],[3,6],[4,2],[17,-2],[45,5],[10,8],[23,7],[9,2],[16,0],[2,1],[0,3],[1,2],[3,1],[3,-1],[8,-6],[2,2],[2,1],[2,0],[2,0],[-2,1],[-3,3],[0,3],[12,10],[7,3],[6,-2],[4,3],[1,-1],[2,-2],[11,7],[11,2],[11,-2],[10,-7],[-16,-7],[-7,-5],[-5,-6],[4,-4],[2,-2],[2,-1],[-1,0],[-1,0],[-1,-1],[0,-2],[4,0],[3,0],[6,3],[2,3],[5,7],[2,1],[3,-1],[3,-5],[3,-1],[2,2],[-1,5],[-2,4],[-2,3],[0,3],[5,-1],[2,0],[2,-2],[1,2],[2,1],[-3,4],[4,2],[11,0],[4,3],[4,4],[4,2],[28,9],[9,-1],[-1,-9],[6,0],[5,-4],[4,-4],[4,-2],[25,-5],[2,-1],[1,-3],[0,-3],[0,-5],[-2,-1],[-2,1],[-3,-1],[-2,2],[-3,2],[-3,1],[-2,-3],[-1,-3],[-3,-3],[-6,-3],[7,-1],[4,-6],[4,-3],[5,10],[4,-6],[5,-1],[11,4],[5,-1],[17,-7],[23,-3],[16,-6],[5,-1],[4,-2],[8,-10],[10,-3],[7,-3],[7,-1],[8,7],[12,-8],[18,-16],[0,4],[-5,13],[-1,6],[-2,4],[0,2],[2,2],[5,2],[4,5],[16,10],[6,2],[0,4],[-3,0],[0,3],[6,4],[9,1],[19,-1],[17,2],[8,3],[6,2],[5,-1],[7,-6],[7,-7],[4,-6],[4,-13],[1,-11],[2,2],[3,10],[0,2],[0,3],[0,3],[2,2],[4,1],[4,-1],[5,-2],[11,-2],[21,-9],[16,-4],[8,-3],[7,-11],[35,-17],[15,-5],[15,-2],[16,2],[12,4],[4,0],[2,-2],[3,-3],[3,-4],[5,-1],[1,0],[1,1],[2,1],[2,1],[2,-1],[1,-3],[1,-2],[2,-1],[11,9],[4,1],[8,1],[26,10],[8,6],[4,2],[6,-1],[4,-3],[3,-5],[2,-3],[6,4],[-2,2],[-4,3],[-2,2],[15,7],[13,13],[14,8],[7,-6],[6,-4],[2,4],[7,2],[32,6],[9,12],[8,5],[7,5],[3,4],[8,16],[1,6],[3,4],[15,20],[3,5],[10,16],[3,16],[9,29],[14,85],[9,30],[13,66],[23,146],[10,73],[3,32],[-1,7],[-3,15],[0,4],[10,14],[1,4],[1,6],[7,24],[7,9],[9,0],[22,-6],[13,2],[8,6],[0,8],[-9,9],[5,0],[-4,7],[-27,27],[-4,1],[-2,1],[-2,2],[-1,1],[-3,0],[-1,-2],[-1,-2],[-1,-2],[0,-1],[-3,-5],[-16,-25],[-4,-23],[-3,-12],[-3,-6],[22,254],[15,82],[7,109],[2,8],[13,25],[5,8],[6,2],[4,-2],[0,-2],[0,-4],[0,-6],[-1,-2],[-1,-3],[0,-2],[1,-3],[4,-6],[3,-4],[25,-19],[15,-9],[6,-2],[44,-49],[10,-15],[4,-15],[1,-11],[5,-19],[7,-48],[1,-5],[13,-30],[12,-17],[14,-13],[12,-7],[3,-4],[3,-6],[0,-5],[-1,-8],[1,-11],[1,-11],[3,-8],[5,-4],[-1,7],[-1,15],[-3,6],[4,14],[-4,11],[-8,9],[-9,5],[11,-1],[10,-2],[8,-4],[8,-7],[-9,16],[-14,8],[-16,5],[-13,10],[-7,13],[-4,17],[-14,98],[-5,20],[-12,33],[-7,14],[-9,13],[-16,20],[-52,37],[-1,2],[-2,10],[-2,2],[-12,4],[-20,20],[-11,4],[-6,2],[-6,3],[-6,5],[-4,6],[-7,5],[-13,-2],[-6,2],[6,36],[0,7],[24,7],[7,0],[24,-27],[4,-3],[4,-4],[26,-12],[-9,9],[-32,27],[-10,11],[-2,4],[0,6],[-2,8],[-2,8],[-3,5],[4,2],[2,3],[2,3],[2,2],[4,4],[6,3],[3,1],[3,-1],[2,2],[2,6],[-1,5],[-2,5],[-2,5],[-3,2],[2,2],[4,4],[2,1],[-6,4],[-4,7],[-5,17],[7,-5],[6,0],[5,4],[4,9],[0,3],[-1,2],[-2,3],[-3,1],[-7,3],[-1,4],[0,5],[-3,7],[0,5],[0,2],[-2,1],[-4,2],[-2,0],[-2,3],[-2,2],[0,2],[4,4],[-8,6],[-3,1],[-1,1],[0,2],[0,3],[0,1],[-2,1],[-6,-1],[-4,2],[-3,-1],[-3,1],[-3,4],[-1,4],[2,5],[4,4],[3,3],[-1,9],[4,7],[25,16],[3,6],[-1,4],[-1,5],[-1,7],[-8,11],[-17,1],[-13,-8],[0,-16],[-10,2],[-6,9],[-7,10],[-6,1],[-4,1],[-11,7],[-8,7],[-5,2],[-19,-7],[-9,1],[-4,11],[-3,13],[-5,9],[-9,6],[-10,2],[-24,1],[-10,3],[3,7],[-6,5],[-19,4],[-12,10],[-11,3],[-4,3],[-3,4],[-4,11],[-3,6],[0,-7],[2,-8],[0,-5],[-1,-2],[-4,2],[-3,5],[-8,37],[1,9],[-5,3],[-3,6],[-2,7],[-2,6],[-6,6],[-5,4],[-5,5],[-3,14],[-5,3],[-6,2],[-6,1],[-3,3],[-11,22],[-20,20],[-12,8],[-9,3],[-4,4],[-3,8],[-2,10],[0,8],[1,12],[2,5],[10,7],[-2,7],[5,5],[14,9],[4,7],[6,19],[5,9],[6,5],[0,9],[-5,9],[-3,6],[-6,5],[-22,12],[-42,7],[-13,7],[5,3],[4,4],[4,3],[12,1],[3,2],[1,4],[1,8],[0,7],[-4,8],[-1,8],[1,6],[1,6],[2,6],[4,5],[8,3],[34,4],[2,2],[3,1],[3,0],[2,-3],[3,-3],[19,-4],[5,0],[-2,3],[4,0],[4,-1],[4,-2],[3,-3],[-8,0],[0,-4],[15,-11],[15,-3],[4,-2],[8,-9],[9,-3],[19,-1],[-7,5],[-15,3],[-6,5],[-11,13],[-13,10],[-13,7],[-7,2],[-9,1],[-3,2],[-5,5],[-14,3],[-50,-3],[-12,-7],[-2,-3],[-2,-4],[-2,-3],[-3,-3],[-11,-3],[-9,-9],[-7,-2],[-7,0],[-6,2],[-6,5],[-9,10],[-5,3],[-6,1],[-4,0],[-3,-1],[-2,-2],[-2,-4],[0,-3],[-1,-1],[-10,0],[-35,17],[0,4],[9,-1],[15,-8],[9,2],[6,7],[-3,7],[-8,7],[-5,7],[-3,-1],[-1,-1],[-1,-1],[2,-4],[0,-2],[-2,-5],[-3,0],[0,15],[-5,8],[-15,9],[29,17],[4,0],[4,-2],[6,-1],[-1,-3],[-2,-1],[3,-3],[3,4],[13,7],[1,3],[-5,1],[-9,0],[-6,3],[3,7],[-6,4],[-8,1],[-4,2],[3,10],[-5,7],[4,3],[22,2],[14,3],[7,0],[-6,1],[-9,-1],[-7,0],[-28,10],[-6,1],[-4,-1],[-12,-3],[-14,0],[-3,-1],[-2,-2],[-3,-1],[-3,4],[5,1],[7,3],[5,6],[3,7],[-6,-5],[-5,-1],[-5,1],[-7,-2],[3,0],[3,-1],[1,-2],[1,-4],[-9,0],[-5,1],[-3,3],[-1,-13],[-5,-2],[-12,4],[-6,-1],[-19,-6],[-7,-1],[-6,1],[-4,2],[-5,5],[-1,2],[-6,10],[-1,0],[-2,3],[-3,2],[-4,0],[-1,1],[0,1],[0,2],[-6,3],[6,4],[10,0],[5,-11],[3,0],[2,3],[2,1],[2,-1],[4,-3],[0,4],[2,7],[6,-6],[9,-3],[10,1],[8,5],[-3,3],[14,19],[2,10],[-8,10],[0,-3],[3,-4],[1,-3],[-3,-3],[-4,-1],[5,-3],[-2,-3],[-1,-1],[-4,0],[-2,3],[-18,11],[7,-1],[7,-3],[-4,6],[-4,3],[-11,2],[5,-3],[-8,-4],[-19,-2],[-4,-3],[-3,-6],[-7,-3],[-12,-3],[0,3],[3,0],[0,4],[-5,-1],[-1,-1],[-2,-2],[-2,0],[-2,6],[0,5],[1,4],[3,3],[-5,0],[-4,3],[-2,5],[-1,6],[-3,0],[0,-4],[2,-7],[1,-3],[0,-13],[1,-5],[3,-5],[4,-6],[4,-3],[-1,-4],[0,-1],[-1,-2],[-1,2],[-4,5],[-3,-2],[-3,3],[-4,5],[-5,5],[2,-7],[-2,-3],[-4,1],[-1,7],[-2,8],[-2,-1],[-1,-6],[2,-7],[-5,1],[-2,0],[-3,3],[-11,-6],[-6,-1],[-5,3],[2,2],[3,2],[-4,3],[-4,3],[-4,-1],[-3,-5],[1,-1],[2,-2],[2,-1],[-4,-17],[2,-15],[6,-12],[8,-9],[-5,0],[-8,2],[-2,-2],[-2,0],[-5,15],[0,5],[1,5],[3,9],[1,7],[-1,12],[-3,9],[-4,7],[-5,5],[-3,3],[-4,1],[-4,2],[-1,3],[1,7],[4,15],[27,12],[-1,2],[-1,3],[0,4],[0,5],[-2,-1],[-4,-2],[-2,-1],[0,11],[0,4],[-2,0],[-3,-6],[-4,1],[-5,3],[-6,-2],[5,-1],[4,-4],[2,-6],[2,-7],[-2,0],[0,-1],[-1,-2],[-4,3],[-3,-2],[-3,-3],[-5,-2],[2,-1],[3,-6],[-5,-2],[-1,-5],[-2,-5],[-3,-2],[-3,2],[-11,12],[-9,3],[-16,4],[-10,0],[7,3],[6,-1],[15,-5],[0,3],[-6,4],[-6,2],[-16,1],[0,4],[4,0],[1,2],[0,2],[0,5],[2,2],[6,-1],[2,1],[5,11],[3,6],[5,4],[0,4],[-8,-9],[-10,-9],[-11,-7],[-8,-1],[3,-2],[2,-2],[2,-3],[0,-3],[-30,-7],[-5,1],[-2,3],[-10,14],[-6,10],[-4,5],[-1,2],[-2,4],[-4,-3],[-6,0],[-12,3],[-10,-1],[-3,1],[-3,1],[-4,5],[-2,1],[-13,-1],[-7,3],[-3,7],[-4,1],[-19,-10],[-5,5],[-8,0],[-8,-2],[-6,1],[-1,1],[-7,13],[-2,2],[-3,2],[-1,4],[1,6],[-3,0],[-2,1],[-5,2],[-1,6],[-7,7],[-9,7],[-10,1],[3,-10],[-2,-8],[-9,-8],[-7,2],[4,-1],[3,1],[2,2],[1,5],[-4,-2],[-4,0],[-3,-1],[-2,-4],[-10,8],[-5,2],[-6,0],[-4,2],[-5,7],[-3,8],[-1,8],[-4,-6],[2,-8],[5,-7],[4,-4],[0,-3],[-4,0],[-4,-2],[-3,-2],[-4,-3],[-7,11],[-5,-1],[-1,-7],[5,-3],[-1,-2],[-1,-2],[0,-3],[10,0],[0,-4],[-12,-11],[-5,-3],[-9,-3],[-54,3],[0,4],[0,7],[0,3],[3,1],[3,0],[3,1],[1,3],[-1,10],[-5,13],[-4,14],[-5,9],[-18,22],[-32,24],[-4,2],[-4,-3],[-5,-5],[-5,-3],[-11,10],[-6,2],[-12,-1],[-27,7],[2,2],[2,3],[1,3],[3,4],[0,2],[0,2],[1,2],[2,0],[3,-3],[2,-1],[117,25],[21,-6],[5,2],[2,4],[3,14],[-1,6],[-6,6],[-1,4],[-1,12],[-5,4],[-16,4],[-3,1],[-2,3],[-2,3],[0,3],[-10,-3],[-19,12],[-10,-4],[-5,-9],[-5,-12],[-7,-9],[-9,-3],[3,11],[2,3],[-4,6],[-3,4],[-1,4],[2,6],[3,2],[1,3],[-2,5],[-5,1],[-21,1],[1,5],[-1,5],[4,2],[3,0],[3,-1],[4,-1],[4,2],[1,3],[-1,4],[-1,2],[7,16],[5,4],[6,-3],[-5,-19],[10,-4],[32,2],[4,-2],[2,-2],[3,-2],[5,-1],[4,1],[18,4],[24,2],[-2,-2],[-3,-1],[-5,0],[8,-3],[29,6],[0,4],[-11,-1],[-4,2],[-2,6],[-3,-4],[-5,-1],[-5,2],[-2,5],[-2,-1],[-16,-1],[3,5],[2,1],[3,1],[0,2],[2,3],[4,2],[7,7],[-7,0],[-8,-5],[-6,-2],[0,3],[3,0],[0,4],[-3,0],[-1,-2],[-2,-3],[-1,-2],[-6,2],[-11,-7],[-8,-2],[1,2],[1,1],[-2,4],[-3,-3],[-5,-2],[-5,-1],[-5,-1],[0,3],[21,24],[4,3],[35,20],[-6,-2],[-12,-6],[-7,-3],[-25,-4],[-11,-4],[-23,-14],[-18,-4],[-11,-5],[-7,-1],[-6,1],[-13,5],[-7,1],[-1,-1],[0,-4],[-1,-4],[-3,-2],[-18,1],[-5,1],[-3,6],[-3,10],[7,1],[0,7],[-7,14],[0,9],[2,10],[4,7],[7,2],[0,3],[-9,7],[3,15],[9,15],[7,9],[4,-2],[3,-2],[-2,4],[6,4],[6,2],[12,1],[7,-2],[12,-6],[4,1],[-8,11],[-3,7],[5,3],[17,-4],[7,1],[-10,3],[1,3],[0,1],[0,2],[-4,2],[0,3],[29,0],[8,1],[12,6],[9,0],[-5,3],[-3,1],[0,3],[11,2],[10,6],[10,3],[9,0],[7,-7],[-3,-12],[9,1],[11,6],[4,1],[4,0],[8,-4],[5,1],[0,3],[-7,2],[2,5],[6,7],[6,4],[7,2],[9,2],[8,-1],[7,-3],[2,3],[2,0],[2,-3],[1,-4],[2,0],[3,3],[1,3],[0,4],[-1,5],[5,0],[5,2],[7,5],[13,3],[2,-1],[-1,-5],[-1,-4],[1,-3],[4,-1],[0,-3],[-3,0],[0,-4],[4,-3],[2,-3],[1,-6],[-2,-6],[10,10],[6,3],[7,-2],[-4,-3],[-1,-1],[0,-3],[4,-6],[11,-6],[5,-6],[2,3],[-2,4],[2,4],[-1,3],[-2,4],[-2,10],[3,0],[1,-3],[1,-1],[3,-3],[-1,9],[1,10],[3,6],[4,-3],[2,2],[1,2],[0,3],[0,3],[5,-6],[6,-2],[17,1],[4,-1],[9,-8],[4,-1],[4,-1],[13,4],[0,-9],[9,-3],[11,0],[5,3],[-4,12],[-1,8],[1,3],[19,4],[-5,3],[-12,15],[-2,8],[4,4],[10,5],[8,13],[2,4],[2,0],[4,-2],[11,-1],[13,-7],[5,0],[-2,-2],[-1,-1],[-1,-2],[-1,-2],[8,-1],[5,1],[3,2],[4,4],[2,1],[31,11],[4,3],[3,0],[3,-1],[11,13],[6,-1],[2,-8],[0,-10],[-3,-9],[-4,-5],[0,-2],[1,-2],[1,-3],[2,6],[3,5],[11,13],[9,7],[3,4],[4,-2],[6,8],[5,1],[4,-2],[3,-5],[0,-6],[-2,-5],[0,-3],[5,-4],[-3,-4],[-5,-13],[-2,-4],[-8,-10],[0,-4],[3,0],[12,23],[7,10],[6,-1],[3,3],[4,1],[4,-1],[4,-3],[-3,-4],[1,0],[1,0],[1,-1],[0,-2],[-4,-1],[-3,-2],[-6,-4],[0,-3],[5,-4],[9,-4],[19,0],[7,-3],[0,-4],[0,-3],[0,-4],[-3,-3],[-2,0],[0,-4],[5,-3],[7,-5],[6,-6],[2,-5],[24,-20],[3,-15],[2,-4],[0,-3],[-1,-2],[0,-3],[1,-3],[2,-2],[4,-2],[9,-6],[21,-10],[-1,-4],[-2,-4],[-2,-3],[-3,-2],[5,-1],[3,-1],[3,-3],[3,-4],[5,-4],[1,5],[0,7],[2,4],[14,-1],[6,3],[7,7],[9,13],[3,3],[3,3],[7,2],[24,14],[6,5],[0,4],[-4,0],[-7,4],[17,4],[8,-1],[3,-7],[9,4],[11,6],[10,9],[5,10],[1,-6],[3,-4],[3,-2],[5,1],[0,-4],[-3,-2],[-1,-3],[-1,-3],[-2,-2],[-10,-11],[6,-5],[7,4],[7,8],[8,4],[2,-3],[2,-12],[1,-3],[5,-2],[2,-4],[1,-6],[1,-6],[4,2],[3,4],[1,6],[0,6],[1,-8],[2,-6],[3,-3],[6,3],[0,3],[-2,1],[-3,3],[4,5],[4,3],[5,0],[5,-5],[-3,4],[-2,3],[-3,7],[16,6],[18,2],[1,-3],[7,-13],[1,-6],[2,-5],[3,-4],[5,-1],[-2,-5],[-1,-2],[9,-14],[2,-7],[-1,-11],[4,4],[11,7],[-10,6],[2,4],[-6,10],[-1,8],[2,0],[2,-2],[2,-2],[4,-3],[-3,6],[-3,3],[-4,1],[-4,0],[-3,3],[-7,16],[-4,6],[2,4],[2,5],[4,4],[6,1],[1,2],[0,3],[1,4],[3,2],[14,0],[-2,4],[37,7],[-1,-3],[0,-2],[1,-3],[2,-3],[-9,-14],[0,-12],[9,-9],[15,-4],[27,0],[28,4],[18,9],[2,0],[4,1],[29,-4],[39,9],[13,-5],[-6,9],[-8,4],[-14,1],[0,-1],[-1,-2],[-2,-1],[-1,2],[-1,4],[-1,3],[-2,2],[-13,3],[-4,3],[-2,3],[-3,12],[-14,12],[-3,12],[0,14],[-1,12],[-5,8],[-9,2],[0,4],[5,2],[4,5],[3,6],[3,25]],[[3245,2966],[-7,1],[-7,-1],[-3,-4],[5,-10],[29,0],[8,-3],[-4,6],[-7,5],[-14,6]],[[3295,3097],[0,7],[1,7],[-1,6],[-7,5],[-7,1],[-21,-1],[6,-8],[6,-20],[6,-8],[10,5],[9,-6],[8,-12],[5,-11],[6,-4],[2,7],[-1,10],[-2,8],[-4,3],[-12,7],[-4,4]],[[2257,3867],[-7,3],[-8,-2],[-15,-8],[0,-3],[9,2],[4,-1],[2,-5],[-1,0],[-3,0],[-1,0],[0,-3],[7,1],[18,9],[0,4],[-2,0],[-1,1],[-1,1],[-1,1]],[[2962,3276],[-12,12],[-1,1],[-10,7],[-16,8],[-5,1],[-3,3],[-2,0],[-2,-3],[-3,-3],[2,-7],[4,-8],[3,-9],[-1,-8],[6,-4],[19,-6],[29,-2],[9,2],[2,10],[-4,4],[-11,-1],[-4,3]],[[3629,2669],[4,2],[3,1],[3,1],[-4,9],[-7,8],[-8,6],[-37,5],[-6,3],[0,4],[5,0],[0,4],[-9,-3],[-10,-4],[-10,0],[-6,10],[4,0],[8,-3],[3,3],[0,3],[-2,3],[-3,2],[-6,1],[-21,-5],[0,-4],[4,-2],[14,-17],[6,-2],[20,4],[36,-23],[16,-3],[2,-1],[1,-2]],[[3652,2560],[0,3],[-4,4],[0,5],[0,6],[-1,7],[-5,5],[-5,-1],[-5,-1],[-4,2],[-8,9],[-12,9],[-12,7],[-12,1],[8,-18],[5,-12],[-1,-5],[-2,-5],[6,-9],[8,-10],[8,-5],[21,-24],[4,-7],[3,-7],[5,-18],[7,-3],[5,8],[4,14],[3,22],[-1,4],[-3,5],[-10,6],[-4,3],[2,5]],[[2797,1248],[-35,-12],[-3,-2],[-5,-3],[-2,-3],[-2,-2],[-3,-5],[-1,-2],[-2,-1],[-2,-1],[-3,-2],[-20,-5],[-39,-4],[-2,1],[-1,0],[-7,3],[-13,8],[-6,3],[-4,1],[-3,0],[-13,0],[-5,-1]],[[1451,1321],[-2,0],[-2,-2],[-1,-2],[-2,-9],[-1,-3],[-2,-2],[-15,-21],[-2,-2],[-3,-2],[-2,-1],[-11,-2],[-4,-2],[-2,-2],[-3,-2],[-3,-2],[-2,-4],[0,-2],[1,-2],[1,-1],[1,-1],[1,-2],[0,-2],[0,-2],[0,-2],[-1,-2],[0,-1],[-1,-2],[-1,-1],[-2,-2],[-1,0],[-15,-6]],[[1331,1216],[-17,-5],[-5,-4],[-11,-8],[-5,-4],[-4,-5]],[[969,98],[42,12],[4,0],[3,0],[4,-1],[4,-1],[1,-1],[2,-2],[3,-4],[2,-2],[1,-1],[2,0],[4,-1],[7,0],[4,1],[7,1],[33,17],[4,2],[11,1],[7,2],[7,3],[13,8],[7,3],[6,2],[13,1]],[[987,339],[0,-1],[1,-5],[2,-8],[1,-2],[0,-8],[0,-2],[1,-4],[2,-4],[2,-4],[21,-23],[3,-3],[2,-4],[1,-3],[1,-5],[0,-5],[-1,-4],[-5,-7],[-2,-4],[-2,-5],[-1,-4],[-2,-9],[-3,-20],[-1,-6],[-1,-4],[-1,-5],[-2,-4],[-2,-4],[-16,-22],[-2,-3],[-2,-4],[-1,-6],[0,-5],[-1,-15],[-1,-4],[-1,-4],[-10,-24]],[[948,605],[4,-6],[2,-7],[1,-8],[1,-8],[0,-9],[-6,-69],[0,-7],[1,-8],[2,-14],[1,-4],[2,-5],[1,-2],[1,-1],[3,-3],[3,-2],[3,-3],[5,-7],[4,-8],[4,-8],[2,-9],[8,-37],[3,-13],[1,-4],[0,-5],[0,-4],[-2,-4],[-2,-4],[-2,-4],[-1,-3]],[[967,95],[-6,-12],[-1,-2],[-1,-7],[0,-3],[0,-2],[1,-3],[1,-1],[1,-1],[6,-1],[3,-2],[16,-10],[1,-1],[1,-2],[2,-11],[1,-5],[0,-5],[0,-2],[-1,-4],[-1,-3],[0,-4],[0,-5],[1,-9]],[[1266,1149],[-84,3],[-6,2],[-5,3],[-4,2],[-24,13],[-7,2],[-7,1],[-16,-1],[-1,1],[-1,1],[-1,1],[-2,5],[-1,2],[-2,1],[-1,0],[-2,0],[-13,-5]],[[2008,268],[3,-1],[4,1],[3,2],[3,2],[1,2],[2,3],[5,8],[1,2],[3,3],[4,1],[10,4],[3,0],[4,1],[3,-1],[21,-5],[3,0],[3,1],[10,9],[4,2],[1,1],[2,0],[2,0],[1,0],[12,-10],[2,-1],[3,0],[48,1],[3,-1],[3,-3],[2,-2],[3,-2],[3,-2],[87,-19]],[[2393,0],[-3,6],[-2,4],[-2,5],[0,3],[-1,12],[-1,2],[0,2],[-3,4],[-3,2],[-4,1],[-3,0],[-2,1],[-1,1],[-2,1],[-5,7],[-12,23],[-12,30],[-2,4],[-15,20],[-1,2],[-1,3],[-1,5],[-3,24],[-1,3],[-1,1],[-1,2],[-1,1],[-11,4],[-2,1],[-1,1],[-2,1],[-1,1],[-2,2],[-1,2],[0,2],[0,2],[-1,2],[0,3],[1,8],[0,4],[0,4],[-5,21],[-4,14],[0,4],[0,4],[0,4],[2,4]],[[951,645],[0,-16]],[[951,629],[0,-5],[1,-25]],[[1087,1193],[2,-3],[0,-1],[0,-1],[0,-5],[0,-2],[0,-2],[0,-2],[-2,-5],[-1,-2],[-2,-5],[-1,-2],[-5,-4],[-5,-6],[-9,-15],[-1,-3],[-14,-44],[-3,-9],[-4,-8],[-12,-19],[-23,-57],[-4,-8],[-2,-4],[-3,-3],[-3,-3],[-3,-3],[-2,0],[-3,-1],[-6,-3],[-4,-2],[-5,-5],[-1,-1],[-7,-9],[-2,-4],[-4,-8],[-1,-4],[-1,-4],[-1,-5],[-2,-8],[0,-8],[-1,-24],[-1,-14],[-1,-6],[-2,-7],[-2,-6],[-2,-5],[-5,-10],[-2,-5],[-1,-6],[-1,-6],[0,-6],[1,-12],[1,-13],[2,-6],[1,-4],[5,-13],[1,-6],[2,-5],[0,-6],[1,-24],[3,-30],[-1,-56]],[[2626,1221],[-16,-7],[-1,0],[-2,-1],[-1,0],[-2,1],[-2,0],[-7,3],[-1,0],[-2,0],[-21,-7],[-4,0],[-3,0],[-77,23],[-26,4]],[[2359,1255],[-47,12],[-5,1],[-6,0],[-20,-3],[-6,1],[-32,13],[-3,1],[-3,0],[-19,0],[-4,0],[-13,7],[-14,5],[-14,2],[-7,1],[-28,-5],[-11,0],[-3,0],[-4,2],[-3,2],[-11,11],[-1,2],[-1,0],[-2,1],[-1,1],[-28,1],[-35,10],[-9,5],[-3,1],[-7,2],[-3,0],[-24,-3],[-3,1],[-3,0],[-4,2],[-3,1],[-9,7],[-6,4],[-4,1],[-4,1],[-3,1],[-4,-1],[-7,-2],[-27,-12],[-36,-5],[-8,0]],[[1814,1332],[-28,-9],[-47,-5],[-10,0],[-11,2]],[[1668,1329],[-6,-3],[-33,-6]],[[1571,1316],[-126,6]],[[3021,1188],[-7,3],[-3,1],[-9,9],[-7,5],[-6,3],[-4,1]],[[2985,1210],[-3,1],[-36,5],[-3,1],[-3,1],[-8,4],[-13,8],[-6,3],[-57,16],[-7,1],[-29,-3],[-25,1]],[[2769,0],[0,4],[1,5],[1,5],[1,4],[2,5],[1,2],[5,8],[6,15],[3,9],[1,9],[0,10],[-1,10],[-1,5],[1,5],[2,14],[0,10],[0,3],[0,3],[-2,5],[-1,5],[-2,4],[-14,28],[-3,9],[-1,11],[0,2],[2,8],[0,2],[1,2],[0,2],[0,2],[-1,5],[-1,5],[-1,5],[-2,4],[-19,32],[-2,4],[-3,8],[0,3],[-1,2],[0,5],[1,5],[0,5],[7,26],[0,3],[1,4],[-1,4],[-5,25],[-1,9]],[[2753,682],[0,1],[3,3]],[[2743,360],[7,29],[1,4],[0,5],[-1,5],[-2,9],[0,5],[0,3],[0,7],[-1,5],[0,2],[0,3],[-5,17],[-20,53],[-1,4],[-1,9],[1,10],[2,9],[27,68],[1,5],[1,4],[1,5],[0,5],[-1,18],[0,2],[0,8],[0,22],[1,6]],[[2756,686]],[[3569,1322],[-1,-11],[-1,-20]],[[3567,1291],[0,-8]],[[3658,1403],[-1,-6],[-3,-4],[-4,-3],[-5,-1],[-21,-1],[-9,-1],[-9,-3],[-8,-4],[-8,-7],[-6,-7],[-5,-9],[-4,-9],[-3,-10],[-2,-13],[-1,-3]],[[3815,1918],[-1,-1],[-11,-15],[-10,-18],[-6,-20],[0,-22],[5,-28],[2,-15],[0,-8],[0,-7]],[[3865,1967],[-27,-26]],[[3838,1941],[-23,-23]],[[3913,2019],[-2,-2],[0,-4],[1,-4],[1,-3],[1,-3],[0,-3],[0,-3],[0,-3],[-1,-5],[-2,-4],[-1,-5],[-2,-4],[-2,-4],[-3,-3],[-3,-3],[-4,-2],[-3,-1],[-4,-1],[-7,1],[-2,0],[-10,4],[-3,0],[-3,0],[0,-3]],[[3775,391],[0,-5],[0,-2],[0,-3],[-1,-2],[-1,-4],[-1,-3],[-6,-11]],[[3942,688],[-4,-7],[-2,-5],[-2,-4],[-5,-23],[-1,-7],[-2,-11],[-1,-2],[1,-3],[0,-2],[2,-5],[1,-4],[0,-5],[0,-5],[0,-5],[0,-4],[-1,-5],[-6,-18],[-4,-10],[-5,-6],[-6,-5],[-26,-13],[-22,-14],[-25,-25],[-15,-11],[-1,-2],[-3,-3],[-2,-3],[-2,-4],[0,-5],[-1,-5],[0,-3],[-1,-2],[-2,-1],[-8,-6],[-3,-3],[-2,-3],[-2,-4],[-2,-5],[-2,-9],[-2,-4],[-9,-15],[-2,-5],[-1,-4],[0,-5],[1,-7]],[[3893,1962],[-1,-2],[0,-1]],[[3892,1959],[0,-2],[0,-2],[0,-2],[0,-3],[1,-3],[1,-5],[1,-2],[5,-7],[42,-51],[22,-21],[16,-12],[22,-11],[6,-3],[14,-2],[15,1],[19,-2],[7,-2],[33,-18]],[[3066,1189],[-5,2],[-12,4],[-17,6],[-2,1],[-4,0],[-2,-1],[-2,-4],[0,-10],[0,-5],[2,-5],[2,-3],[3,-3],[3,-3],[24,-15],[1,-1],[2,-1],[1,-2],[0,-1],[0,-1]],[[3060,1147],[0,-1],[0,-1],[0,-1],[-1,-1],[-1,0],[0,-1],[-11,-9],[-2,-1],[-1,-2],[0,-2],[-1,-2],[0,-2],[1,-29],[0,-4],[-1,-5],[-1,-4],[-3,-9],[-1,-5],[0,-4],[3,-4],[9,-14],[2,-4],[1,-2],[1,-2],[0,-2],[0,-2],[0,-20]],[[3440,1208],[-21,-8],[-7,-1],[-12,1],[-1,0],[-15,-2],[-15,0],[-7,-1],[-7,-1],[-28,-10],[-7,0],[-23,-1],[-5,0],[-2,-1],[-7,-3],[-2,-1],[-1,0],[-3,1],[-1,0],[-1,0],[-4,5],[-3,2],[-3,1],[-3,0],[-7,0],[-7,0],[-4,-1],[-3,-1],[-4,-2],[-3,-2],[-2,-3],[-1,-2],[-1,-2],[-1,-2],[0,-3],[-1,-16],[0,-4],[-2,-4],[-2,-3],[-7,-3],[-22,-5],[-14,-2],[-14,0],[-7,1],[-7,2],[-28,15],[-6,3],[-21,7],[-7,3],[-6,6],[-12,13],[-3,2],[-3,2],[-1,1]],[[3564,1283],[-17,-1],[-8,-1],[-8,-2],[-8,-3],[-7,-5],[-39,-41],[-14,-10],[-14,-9],[-9,-3]],[[4096,1153],[-21,7],[-90,42],[-21,8]],[[3964,1210],[-28,10],[-14,7],[-31,25],[-6,4],[-5,2],[-4,2],[-5,1],[-32,1],[-8,3],[-9,5],[-16,13],[-8,6],[-19,8],[-20,5],[-21,2],[-60,12],[-7,1],[-7,-1],[-7,-1],[-7,-4],[-11,-11],[-27,-18],[-8,-3],[-7,-1],[-8,0],[-8,1],[-7,3],[-7,4]],[[3055,1018],[-2,-5],[-2,-4],[-1,-1],[-1,-3],[0,-1],[0,-2],[1,-5],[2,-7],[0,-1],[0,-2],[1,-2],[0,-32],[-1,-4],[0,-1],[0,-1],[-5,-7],[-1,-2],[0,-1],[0,-2],[2,-9],[0,-4],[0,-4],[-1,-3],[0,-2],[-1,-1],[-2,-3],[-1,-1],[-1,-2],[-1,-3],[-1,-3],[0,-3],[0,-4],[1,-3]],[[3769,351],[14,6],[7,1],[1,0],[2,0],[1,-1],[15,-11]],[[3809,346],[4,-3],[10,-6],[4,-4],[3,-4],[6,-10],[8,-8],[8,-4],[18,-4],[4,-2],[21,-15],[5,-3],[4,-1],[5,0],[16,3],[2,0],[2,-1],[1,-1],[2,-2],[2,-2],[2,-1],[3,-2],[12,-2],[42,-2],[6,-2],[23,-8],[15,-2],[11,0],[48,8]],[[3136,0],[5,7],[3,3],[3,3],[18,13],[6,3],[7,2],[6,1],[4,1],[3,2],[1,1],[1,1],[3,3],[1,2],[0,2],[1,2],[0,1],[2,23],[1,4],[1,2],[1,2],[1,3]],[[3204,81],[9,12],[0,1],[1,1],[1,3],[3,8],[4,6],[5,6],[6,4],[6,3],[27,8],[14,7],[39,25],[17,8],[17,5],[21,1],[21,-2],[47,-10],[2,0],[42,9],[6,3],[5,4],[5,4]],[[3742,341],[12,3],[15,7]],[[3502,187],[19,22],[2,4],[1,2],[1,2],[1,2],[1,5],[0,1],[0,1],[1,1],[1,1],[2,1],[1,0],[4,1],[1,0],[4,1],[3,2],[2,2],[1,2],[6,10],[2,3],[2,3],[9,7],[10,3],[11,2],[10,3],[9,5],[23,20],[13,8],[6,3],[3,1],[4,0],[3,-1],[3,-2],[5,-4],[2,-1],[2,-1],[1,0],[2,1],[1,1],[2,2],[17,24],[1,2],[7,5],[7,3],[34,7]],[[3147,764],[12,-2],[2,0],[1,-1],[1,-1],[1,-1],[4,-4],[1,-1],[1,-1],[4,-2]],[[3038,890],[3,-2],[1,0],[2,-3],[1,-2],[1,-2],[1,-5],[0,-2],[7,-15],[2,-4],[1,-2],[0,-2],[-2,-4],[-1,-2],[-1,-3],[0,-4],[-1,-5],[1,-10],[1,-5],[1,-5],[2,-4],[2,-4],[3,-2],[4,-1],[7,0],[4,0],[3,-1],[6,-5],[12,-10],[35,-19],[7,-2],[7,-1]],[[3361,704],[16,-13],[5,-6],[16,-27],[2,-4],[2,-7],[1,-2],[1,-2],[2,-1],[3,-3]],[[3174,751],[7,-2],[3,-1],[28,2],[3,2],[8,4],[7,3],[4,0],[3,0],[14,-1],[7,-1],[3,-1],[3,-2],[3,-3],[2,-3],[1,-2]],[[3270,746],[3,-7],[3,-4],[3,-3],[3,-1],[4,0],[13,-1],[4,1],[8,3],[2,0],[2,0],[6,0],[3,-2],[3,-1],[34,-27]],[[3409,639],[13,-10],[1,0],[1,-2],[1,-1],[1,-4],[1,-2],[1,-2],[3,-3],[3,-3],[4,-2],[6,-4],[7,-4],[5,-6],[13,-15],[1,-1],[1,-1],[0,-2],[3,-13],[2,-3],[2,-3]],[[3731,379],[17,-17]],[[3478,558],[7,-1],[3,-1],[4,-2],[1,-2],[2,-3],[1,-1],[12,-9],[1,-1],[19,-25],[10,-14],[2,-3],[3,-3],[7,-6],[1,-1],[9,-4],[13,-9],[1,-1],[14,-20],[3,-3],[2,-2],[2,-1],[23,-10],[3,-2],[3,-3],[2,-3],[3,-3],[1,-4],[2,-2],[1,-2],[5,-4],[1,-1],[3,-1],[1,0],[7,0],[13,2],[5,2],[2,1],[7,0],[3,0],[5,-2],[4,-1],[2,-1],[1,-1],[3,-2],[29,-22],[7,-8]],[[3631,0],[0,1],[-1,26],[0,5]],[[3630,29],[-2,7],[-1,2],[-1,11],[0,38],[0,9],[1,2],[2,5],[2,5],[1,1],[1,1],[8,7],[1,2],[1,1],[1,2],[0,2],[1,3],[0,11],[0,2],[1,3],[0,2],[1,2],[1,2],[5,5],[2,4],[1,5],[0,10],[0,5],[1,5],[3,9],[3,9],[3,8],[9,17],[5,8],[5,7],[62,63],[12,19]],[[2753,685],[3,1]],[[2756,686],[23,10],[2,1],[3,3],[2,3],[5,8],[2,4],[2,9],[2,5],[2,4],[4,2],[27,19],[1,1],[2,2],[2,3],[5,8],[1,2],[1,2],[2,1],[3,3],[4,1],[7,3],[6,2],[13,8],[1,2],[5,4],[1,1],[1,1],[2,1],[1,0],[4,0],[2,1],[1,1],[20,16],[2,2],[8,10],[2,3],[3,3],[4,2],[7,4],[7,2],[16,3],[2,1],[1,1],[2,1],[3,4],[3,2],[3,2],[9,4],[3,2],[16,13],[0,1],[3,4],[1,1],[3,2],[3,1],[11,5],[3,1],[3,0],[5,-1]],[[4096,3630],[-95,-8],[-7,0],[-14,4],[-41,17],[-138,31],[-7,0],[-3,0],[-4,-1],[-10,-4],[-3,-2],[-7,-5],[-3,-1],[-3,-2],[-4,0],[-7,0],[-27,3]],[[3509,3679],[-2,7],[-1,7],[1,8],[2,6],[3,3],[2,2],[11,6],[4,5],[3,2],[2,4],[1,5],[1,2],[0,11],[0,2],[1,2],[1,1],[3,1],[4,1],[3,-1],[9,-3],[2,-1],[2,1],[1,0],[3,2],[8,7],[3,2],[22,14],[5,4],[3,4],[2,3],[2,4],[2,5],[1,5],[3,29],[0,5],[-1,10],[-1,5],[-1,5],[-1,5],[-8,18],[-2,9],[-1,4],[-1,3],[0,2],[0,3],[0,2],[1,4],[2,4],[7,10],[2,3],[1,4],[1,4],[0,5],[-1,5],[-1,4],[-2,5],[-6,16],[-2,9],[-1,10]],[[3599,3975],[3,8],[4,7],[5,5],[14,12],[2,3],[3,3],[2,4],[17,35],[8,11],[9,10],[5,4],[20,11],[3,2],[2,1],[6,5]],[[3702,4096]],[[3538,3187],[3,-4]],[[3541,3183],[35,-43],[10,-19],[18,-46],[10,-19],[6,-8],[43,-53],[5,-9],[5,-9],[3,-11],[1,-12],[1,-24],[0,-6],[1,-6],[1,-5],[2,-6],[2,-5],[3,-4],[17,-23],[1,-3],[1,-2],[0,-2],[0,-2],[-2,-1],[-1,0],[-2,0]],[[3932,2085],[-1,-7],[-5,-22],[-15,-45]],[[3853,2475],[0,-11],[1,-10],[1,-5],[6,-18],[12,-29],[0,-1],[2,-5],[1,-5],[0,-5],[1,-5],[0,-8],[-4,-47],[1,-16],[0,-2],[2,-10],[7,-21],[16,-59],[4,-12],[14,-33],[6,-20],[5,-20],[3,-21],[1,-10],[0,-17]],[[3904,2572],[-12,-25],[-12,-17],[-16,-20],[-5,-8],[-1,-2],[-1,-4],[-2,-5],[-1,-6],[-1,-10]],[[1699,391],[1,-1]],[[1635,430],[4,0],[3,-2],[3,-3],[4,-4]],[[1649,421],[7,-8],[3,-3],[9,-6],[9,-5],[9,-5],[9,-3],[4,0]],[[1700,390],[4,-1],[10,0],[9,1],[9,3],[3,2],[2,1],[2,0],[2,0],[115,-49],[7,-5],[25,-26],[23,-20],[6,-4],[6,-3],[7,-2],[4,0],[4,0],[13,4],[8,1],[5,0],[5,-1],[5,-2],[13,-7],[18,-13],[6,-4]],[[1617,413],[0,5],[1,8],[4,6],[2,1],[2,1],[2,0],[2,-1],[10,-3]],[[1551,294],[2,4],[2,3],[3,3],[3,2],[3,2],[4,2],[17,3],[4,1],[5,3],[5,5],[3,7],[2,7],[7,28],[6,21],[1,3],[0,5],[-1,16],[0,4]],[[1309,181],[10,-1],[5,1],[4,1],[2,0],[2,1],[1,1],[3,4],[1,1],[2,4],[3,6],[1,2],[1,2],[4,2],[3,1],[3,1],[4,-1],[3,0],[1,-1],[7,-4],[2,-1],[3,-1],[4,0],[4,0],[3,2],[16,18],[7,5],[13,9],[30,14],[8,6],[25,25],[2,1],[5,2],[3,1],[3,0],[31,0],[8,1],[2,0],[2,1],[4,3],[2,1],[2,2],[3,4]],[[1160,138],[5,1]],[[1262,164],[37,14]],[[1165,139],[39,4],[58,21]],[[1299,178],[13,4]],[[3795,2678],[-27,41],[-23,24],[-3,4],[-1,3],[-10,23],[-3,6],[-3,5],[-21,28],[-7,10],[-1,1]],[[3696,2823],[-3,8],[-3,10],[0,9],[5,9],[2,1],[2,1],[5,2]],[[3899,2563],[-2,9],[-5,7],[-24,26],[-42,33],[-13,15],[-18,25]],[[2461,1237],[-59,4],[-9,2],[-34,12]],[[1871,1323],[-14,3],[-22,7],[-6,1],[-4,0],[-11,-2]],[[1718,1320],[-11,5],[-12,6],[-1,1],[-3,1],[-4,0],[-6,0],[-4,0],[-9,-4]],[[1629,1320],[-58,-4]],[[3540,3188],[-3,-2],[-4,-1],[-3,1],[-7,2],[-3,2],[-4,2],[-3,3],[-1,1],[-1,2],[-2,4],[-1,2],[-2,1],[-1,1],[-4,1],[-5,1],[-2,0],[0,2],[0,2],[1,1],[5,7],[3,4],[2,4],[1,5],[0,5],[-1,3]],[[3473,3643],[0,5],[1,4],[1,5],[2,4]],[[3505,3241],[0,2],[-7,28],[-2,11],[-1,18],[-1,24],[2,46],[2,17],[5,21],[0,5],[0,5],[-1,6],[-3,10],[-5,8],[-13,20],[-2,4],[-2,4],[-2,5],[-1,6],[-1,6],[0,6],[-1,6],[1,11],[10,84],[0,6],[0,6],[-1,5],[-1,4],[-7,20],[-1,4],[0,4]],[[3771,1697],[-14,-30]],[[3794,1784],[-1,-6]],[[3757,1667],[-8,-15],[-3,-9],[-2,-4],[-1,-5],[-6,-39],[-3,-8],[-5,-13],[-7,-16],[-31,-50],[-7,-14],[-23,-54],[-1,-4],[-1,-4],[0,-5],[-1,-35]],[[3793,1778],[0,-10],[-3,-15],[-7,-30],[-3,-8],[-9,-18]],[[3507,3671],[-2,0],[-16,-5],[-17,-7]],[[3723,3662],[-29,-1],[-43,-10],[-4,-1],[-127,21],[-7,1],[-6,-1]],[[3894,946],[0,-1],[1,-4],[2,-3],[3,-4]],[[3873,1138],[0,-6],[0,-5],[-4,-16],[0,-6],[0,-5],[1,-5],[1,-4],[3,-8],[1,-4],[0,-6],[1,-5],[-1,-6],[-3,-29],[1,-11],[3,-10],[4,-8],[15,-18],[2,-3],[2,-4],[0,-4],[1,-4],[-1,-3],[-4,-10],[-1,-4],[-1,-5],[1,-3]],[[3900,934],[1,-1],[2,-3],[2,-9],[-1,-10],[-3,-9],[-4,-8],[-3,-12],[-2,-12],[-2,-45],[1,-5],[1,-5],[2,-3],[3,-3],[3,-1],[3,-1],[23,-1],[8,-1],[29,-13],[1,0],[1,-1],[1,-1],[2,-2],[1,-2],[1,-2],[-1,-2],[-1,-2],[-2,-2],[-5,-6],[-9,-8],[-1,-1],[-2,-2],[-1,-2],[0,-2],[-1,-2],[0,-3],[-1,-10],[0,-2],[1,-2],[0,-3],[3,-7],[1,-5],[4,-7],[2,-5],[0,-2],[-1,-2],[-1,-4],[-1,-1],[-1,-2],[-1,-1],[-1,-1],[-5,-4],[-5,-7]],[[3963,1202],[-6,-42],[-2,-8],[-3,-9],[-3,-8],[-4,-7],[-6,-7],[-3,-2],[-3,-2],[-3,-1],[-2,0],[-2,1],[-38,20],[-5,1],[-2,1],[-3,0],[-2,-2],[-1,-3]],[[1377,1235],[-46,-19]],[[1289,1190],[-3,-4],[-4,-9],[-9,-20],[-4,-6],[-6,-2]],[[2269,264],[1,3],[1,2],[1,1],[1,2],[1,1],[2,0],[1,-1],[3,-3],[1,-1],[1,-2],[1,-1],[1,-1],[0,-1],[0,-1],[0,-2],[0,-1],[-1,-1],[0,-1],[-1,0],[0,-1],[0,-1]],[[3628,2590],[4,-2],[5,1],[5,1],[5,-5],[1,-7],[0,-6],[0,-5],[4,-4],[0,-3],[-2,-5],[4,-3],[10,-6],[3,-5],[1,-4],[-3,-22],[-4,-14],[-5,-8],[-7,3],[-5,18],[-3,7],[-4,7],[-21,24],[-8,5],[-8,10],[-6,9],[2,5],[1,5],[-5,12],[-8,18],[12,-1],[12,-7],[12,-9],[8,-9]],[[3562,2718],[0,-3],[-3,-3],[-8,3],[-4,0],[6,-10],[10,0],[10,4],[9,3],[0,-4],[-5,0],[0,-4],[6,-3],[37,-5],[8,-6],[7,-8],[4,-9],[-3,-1],[-3,-1],[-4,-2],[-1,2],[-2,1],[-16,3],[-36,23],[-20,-4],[-6,2],[-14,17],[-4,2],[0,4],[21,5],[6,-1],[3,-2],[2,-3]],[[2962,3276],[4,-3],[11,1],[4,-4],[-2,-10],[-9,-2],[-29,2],[-19,6],[-6,4],[1,8],[-3,9],[-4,8],[-2,7],[3,3],[2,3],[2,0],[3,-3],[5,-1],[16,-8],[10,-7],[1,-1],[12,-12]],[[3266,2955],[4,-6],[-8,3],[-29,0],[-5,10],[3,4],[7,1],[7,-1],[14,-6],[7,-5]],[[3299,3093],[12,-7],[4,-3],[2,-8],[1,-10],[-2,-7],[-6,4],[-5,11],[-8,12],[-9,6],[-10,-5],[-6,8],[-6,20],[-6,8],[21,1],[7,-1],[7,-5],[1,-6],[-1,-7],[0,-7],[4,-4]],[[3527,4096],[569,0],[0,-1191],[0,-2905],[-2289,0],[-864,0],[2,7],[0,19],[-5,35],[1,18],[6,7],[0,3],[-13,4],[-7,14],[-5,18],[-7,14],[2,7],[-1,6],[-2,5],[-2,7],[0,16],[-1,5],[-3,1],[-2,5],[-1,6],[-5,9],[-2,7],[0,7],[-1,15],[4,17],[-4,12],[-1,10],[-1,8],[-1,8],[-5,16],[-2,11],[-2,9],[0,9],[-3,10],[-1,12],[1,5],[8,4],[23,4],[6,3],[6,4],[5,6],[-40,-13],[-9,-1],[-5,0],[-6,5],[-7,16],[0,15],[3,23],[-3,15],[2,5],[2,5],[26,23],[13,15],[4,19],[-4,-8],[-6,-8],[-6,-6],[-8,-3],[-6,-3],[-6,-8],[-6,-5],[-6,2],[1,7],[-7,101],[1,8],[4,4],[15,0],[6,2],[3,5],[-2,4],[-7,4],[-1,3],[2,2],[9,5],[1,2],[1,5],[2,5],[4,2],[1,2],[7,9],[19,15],[5,2],[2,1],[11,12],[7,3],[7,5],[3,3],[1,4],[0,16],[0,3],[-2,1],[-3,-1],[-5,-6],[-4,-10],[-5,-9],[-9,-4],[-8,-2],[-19,-9],[-5,-5],[-3,-1],[-20,2],[-7,-3],[2,7],[4,11],[0,7],[2,0],[5,-8],[2,4],[0,17],[0,4],[-1,2],[1,2],[5,1],[13,-4],[2,2],[3,7],[14,17],[6,6],[12,8],[5,5],[3,8],[-4,-2],[-3,0],[-3,2],[-3,-1],[-2,0],[0,-1],[-8,-5],[-9,-8],[-6,-3],[-7,-2],[-12,-1],[-12,1],[-9,6],[-3,6],[-1,10],[-3,5],[-5,3],[-12,2],[-3,2],[3,5],[7,5],[7,3],[5,1],[5,-1],[3,-5],[0,-5],[-5,-3],[3,-2],[5,-2],[6,-1],[3,1],[2,6],[-1,6],[0,5],[4,4],[-4,18],[-1,9],[2,8],[3,6],[4,4],[5,1],[5,7],[13,32],[3,11],[-2,0],[-3,-8],[-3,-8],[-5,-6],[-7,-3],[-6,3],[-5,7],[-4,8],[-4,4],[-6,-11],[-1,-6],[4,-5],[-8,-11],[-4,-3],[-6,4],[2,5],[-5,-2],[-12,-10],[6,-7],[-5,-3],[-13,-4],[-1,-3],[-3,-12],[-3,-1],[-3,-3],[-5,-6],[-5,6],[-1,10],[-2,8],[-8,4],[-6,5],[2,13],[5,13],[5,8],[0,6],[1,8],[2,10],[4,6],[2,4],[3,4],[4,1],[1,1],[11,7],[9,13],[6,5],[8,3],[3,3],[2,8],[-1,9],[-7,4],[-2,-12],[-6,-7],[-8,-4],[-10,-1],[-18,3],[-8,-2],[2,-9],[-9,-9],[-4,-3],[-7,2],[-5,4],[-3,7],[-1,8],[-4,9],[5,0],[3,2],[3,4],[2,5],[-3,6],[-5,3],[-7,3],[-1,4],[-2,7],[0,3],[1,2],[3,4],[1,3],[1,5],[-1,3],[-2,2],[-7,1],[-3,2],[-6,10],[-4,2],[0,-4],[2,-5],[-2,-3],[-4,-1],[-1,0],[-2,7],[-3,1],[-5,-3],[-3,-3],[-2,-4],[-4,-11],[-3,-4],[-1,1],[-4,12],[-3,3],[0,3],[2,5],[8,22],[0,3],[1,4],[1,4],[1,3],[2,4],[-2,4],[-6,4],[-3,12],[3,3],[5,0],[3,5],[2,9],[4,5],[4,3],[2,6],[5,-5],[5,-1],[5,1],[5,5],[2,3],[1,2],[1,3],[4,2],[3,2],[2,1],[7,1],[0,3],[-6,-3],[-8,-2],[-6,1],[0,4],[-12,-6],[-5,1],[-3,9],[17,17],[12,7],[14,-6],[6,0],[6,1],[5,2],[5,4],[4,3],[4,7],[2,8],[3,0],[6,-6],[10,0],[10,4],[6,5],[-8,0],[-4,3],[-5,11],[-2,0],[-4,3],[-3,3],[2,1],[4,1],[15,6],[15,11],[11,3],[3,4],[3,3],[4,1],[5,-3],[11,-12],[6,-3],[7,-1],[14,-5],[7,-1],[10,4],[13,8],[14,4],[12,-6],[19,10],[3,3],[1,5],[3,3],[4,3],[7,2],[2,2],[1,3],[2,1],[20,6],[1,-7],[3,-5],[9,-7],[4,5],[1,5],[0,12],[3,7],[7,-1],[11,-7],[5,-2],[2,-5],[2,-6],[2,-5],[8,-9],[4,-5],[3,-8],[3,9],[-1,8],[-2,15],[0,8],[2,5],[4,4],[6,4],[-7,4],[-6,1],[-13,-1],[-6,2],[-9,10],[-6,2],[7,6],[37,5],[2,1],[3,2],[1,4],[0,3],[-2,1],[-8,-4],[-22,-4],[1,2],[1,1],[3,1],[-2,1],[-3,2],[-5,-6],[-7,-3],[-16,-1],[3,8],[1,11],[2,7],[4,-1],[5,7],[-3,2],[-3,5],[-2,5],[0,5],[2,0],[6,-1],[3,1],[8,-1],[11,6],[53,41],[1,-5],[3,-3],[4,-1],[4,2],[-3,0],[-2,0],[0,3],[2,1],[2,2],[1,1],[-7,6],[-1,6],[2,5],[1,6],[3,5],[5,1],[12,0],[11,3],[10,6],[9,9],[8,10],[10,-2],[4,-7],[3,-9],[5,-7],[0,-3],[-2,1],[-4,1],[-1,1],[-3,-4],[-2,-5],[0,-4],[2,-4],[-4,-3],[-1,0],[-2,3],[-3,-3],[-1,0],[-1,-1],[0,-4],[18,-1],[3,4],[-6,11],[4,4],[4,0],[9,-4],[-1,2],[-1,4],[0,2],[5,6],[6,5],[8,5],[14,4],[8,5],[6,7],[3,8],[1,2],[2,-2],[3,-4],[1,-5],[-2,-3],[-8,-11],[0,-7],[2,-2],[2,1],[4,1],[0,1],[0,3],[1,2],[2,1],[3,1],[6,3],[1,-7],[9,-18],[-1,-8],[3,1],[5,7],[3,7],[4,-2],[4,3],[3,4],[5,2],[15,-2],[4,-1],[30,-18],[15,-6],[23,-42],[17,-8],[-1,-2],[-1,-2],[-1,-2],[-2,-1],[0,-4],[5,-2],[2,1],[3,3],[5,2],[5,0],[7,-3],[14,-2],[22,1],[6,4],[7,-4],[6,-1],[5,-3],[0,-10],[-2,-6],[-4,-6],[-2,-7],[3,-9],[2,0],[2,8],[2,9],[2,7],[5,4],[3,12],[21,5],[35,1],[6,-2],[22,2],[15,-5],[9,-1],[20,11],[19,-2],[18,-6],[14,-8],[4,3],[4,1],[9,0],[-1,2],[-1,6],[0,2],[5,-1],[8,-5],[5,-1],[19,4],[19,0],[5,1],[5,3],[5,2],[8,2],[3,3],[2,2],[5,1],[12,-9],[5,-2],[28,-3],[6,3],[5,-2],[6,2],[5,4],[6,3],[42,0],[2,5],[-2,4],[-2,4],[5,5],[-1,2],[-1,4],[-1,1],[12,0],[4,3],[2,6],[2,5],[6,-1],[12,-6],[8,-7],[20,-24],[6,-11],[3,0],[2,7],[3,-2],[4,-9],[19,-3],[73,3],[11,-3],[1,-7],[-4,-8],[-7,-6],[3,-4],[4,2],[7,3],[4,2],[3,3],[1,4],[2,3],[5,1],[15,-2],[6,-2],[26,-18],[13,-5],[31,-1],[9,-3],[4,-7],[4,3],[26,-8],[3,1],[5,5],[4,1],[4,-1],[8,-5],[26,-5],[30,-15],[7,-2],[81,-8],[2,0],[9,-9],[8,7],[10,2],[10,-3],[7,-6],[3,0],[3,6],[4,2],[17,-2],[45,5],[10,8],[23,7],[9,2],[16,0],[2,1],[0,3],[1,2],[3,1],[3,-1],[8,-6],[2,2],[2,1],[2,0],[2,0],[-2,1],[-3,3],[0,3],[12,10],[7,3],[6,-2],[4,3],[1,-1],[2,-2],[11,7],[11,2],[11,-2],[10,-7],[-16,-7],[-7,-5],[-5,-6],[4,-4],[2,-2],[2,-1],[-1,0],[-1,0],[-1,-1],[0,-2],[4,0],[3,0],[6,3],[2,3],[5,7],[2,1],[3,-1],[3,-5],[3,-1],[2,2],[-1,5],[-2,4],[-2,3],[0,3],[5,-1],[2,0],[2,-2],[1,2],[2,1],[-3,4],[4,2],[11,0],[4,3],[4,4],[4,2],[28,9],[9,-1],[-1,-9],[6,0],[5,-4],[4,-4],[4,-2],[25,-5],[2,-1],[1,-3],[0,-3],[0,-5],[-2,-1],[-2,1],[-3,-1],[-2,2],[-3,2],[-3,1],[-2,-3],[-1,-3],[-3,-3],[-6,-3],[7,-1],[4,-6],[4,-3],[5,10],[4,-6],[5,-1],[11,4],[5,-1],[17,-7],[23,-3],[16,-6],[5,-1],[4,-2],[8,-10],[10,-3],[7,-3],[7,-1],[8,7],[12,-8],[18,-16],[0,4],[-5,13],[-1,6],[-2,4],[0,2],[2,2],[5,2],[4,5],[16,10],[6,2],[0,4],[-3,0],[0,3],[6,4],[9,1],[19,-1],[17,2],[8,3],[6,2],[5,-1],[7,-6],[7,-7],[4,-6],[4,-13],[1,-11],[2,2],[3,10],[0,2],[0,3],[0,3],[2,2],[4,1],[4,-1],[5,-2],[11,-2],[21,-9],[16,-4],[8,-3],[7,-11],[35,-17],[15,-5],[15,-2],[16,2],[12,4],[4,0],[2,-2],[3,-3],[3,-4],[5,-1],[1,0],[1,1],[2,1],[2,1],[2,-1],[1,-3],[1,-2],[2,-1],[11,9],[4,1],[8,1],[26,10],[8,6],[4,2],[6,-1],[4,-3],[3,-5],[2,-3],[6,4],[-2,2],[-4,3],[-2,2],[15,7],[13,13],[14,8],[7,-6],[6,-4],[2,4],[7,2],[32,6],[9,12],[8,5],[7,5],[3,4],[8,16],[1,6],[3,4],[15,20],[3,5],[10,16],[3,16],[9,29],[14,85],[9,30],[12,64],[1,2],[23,146],[10,73],[3,32],[-1,7],[-3,15],[0,4],[10,14],[1,4],[1,6],[7,24],[7,9],[9,0],[22,-6],[13,2],[8,6],[0,8],[-9,9],[5,0],[-4,7],[-27,27],[-4,1],[-2,1],[-2,2],[-1,1],[-3,0],[-1,-2],[-1,-2],[-1,-2],[0,-1],[-3,-5],[-16,-25],[-4,-23],[-3,-12],[-3,-6],[22,254],[15,82],[7,109],[2,8],[13,25],[5,8],[6,2],[4,-2],[0,-2],[0,-4],[0,-6],[-1,-2],[-1,-3],[0,-2],[1,-3],[4,-6],[3,-4],[25,-19],[15,-9],[6,-2],[44,-49],[10,-15],[4,-15],[1,-11],[5,-19],[7,-48],[1,-5],[13,-30],[12,-17],[14,-13],[12,-7],[3,-4],[3,-6],[0,-5],[-1,-8],[1,-11],[1,-11],[3,-8],[5,-4],[-1,7],[-1,15],[-3,6],[4,14],[-4,11],[-8,9],[-9,5],[11,-1],[10,-2],[8,-4],[8,-7],[-9,16],[-14,8],[-16,5],[-13,10],[-7,13],[-4,17],[-14,98],[-5,20],[-12,33],[-7,14],[-9,13],[-16,20],[-52,37],[-1,2],[-2,10],[-2,2],[-12,4],[-20,20],[-11,4],[-6,2],[-6,3],[-6,5],[-4,6],[-7,5],[-13,-2],[-6,2],[6,36],[0,7],[24,7],[7,0],[24,-27],[4,-3],[4,-4],[26,-12],[-9,9],[-32,27],[-10,11],[-2,4],[0,6],[-2,8],[-2,8],[-3,5],[4,2],[2,3],[2,3],[2,2],[4,4],[6,3],[3,1],[3,-1],[2,2],[2,6],[-1,5],[-2,5],[-2,5],[-3,2],[2,2],[4,4],[2,1],[-6,4],[-4,7],[-5,17],[7,-5],[6,0],[5,4],[4,9],[0,3],[-1,2],[-2,3],[-3,1],[-7,3],[-1,4],[0,5],[-3,7],[0,5],[0,2],[-2,1],[-4,2],[-2,0],[-2,3],[-2,2],[0,2],[4,4],[-8,6],[-3,1],[-1,1],[0,2],[0,3],[0,1],[-2,1],[-6,-1],[-4,2],[-3,-1],[-3,1],[-3,4],[-1,4],[2,5],[4,4],[3,3],[-1,9],[4,7],[25,16],[3,6],[-1,4],[-1,5],[-1,7],[-8,11],[-17,1],[-13,-8],[0,-16],[-10,2],[-6,9],[-7,10],[-6,1],[-4,1],[-11,7],[-8,7],[-5,2],[-19,-7],[-9,1],[-4,11],[-3,13],[-5,9],[-9,6],[-10,2],[-24,1],[-10,3],[3,7],[-6,5],[-19,4],[-12,10],[-11,3],[-4,3],[-3,4],[-4,11],[-3,6],[0,-7],[2,-8],[0,-5],[-1,-2],[-4,2],[-3,5],[-8,37],[1,9],[-5,3],[-3,6],[-1,1],[-1,6],[-2,6],[-6,6],[-5,4],[-5,5],[-3,14],[-5,3],[-6,2],[-6,1],[-3,3],[-11,22],[-20,20],[-12,8],[-9,3],[-4,4],[-3,8],[-2,10],[0,8],[1,12],[2,5],[10,7],[-2,7],[5,5],[14,9],[4,7],[6,19],[5,9],[6,5],[0,9],[-5,9],[-3,6],[-6,5],[-22,12],[-42,7],[-13,7],[5,3],[4,4],[4,3],[12,1],[3,2],[1,4],[1,8],[0,7],[-4,8],[-1,8],[1,6],[1,6],[2,6],[4,5],[8,3],[34,4],[2,2],[3,1],[3,0],[2,-3],[3,-3],[19,-4],[5,0],[-2,3],[4,0],[4,-1],[4,-2],[3,-3],[-8,0],[0,-4],[15,-11],[15,-3],[4,-2],[8,-9],[9,-3],[19,-1],[-7,5],[-15,3],[-6,5],[-11,13],[-13,10],[-13,7],[-7,2],[-9,1],[-3,2],[-5,5],[-14,3],[-50,-3],[-12,-7],[-2,-3],[-2,-4],[-2,-3],[-3,-3],[-11,-3],[-9,-9],[-7,-2],[-7,0],[-6,2],[-6,5],[-9,10],[-5,3],[-6,1],[-4,0],[-3,-1],[-2,-2],[-2,-4],[0,-3],[-1,-1],[-10,0],[-35,17],[0,4],[9,-1],[15,-8],[9,2],[6,7],[-3,7],[-8,7],[-5,7],[-3,-1],[-1,-1],[-1,-1],[2,-4],[0,-2],[-2,-5],[-3,0],[0,15],[-5,8],[-15,9],[29,17],[4,0],[4,-2],[6,-1],[-1,-3],[-2,-1],[3,-3],[3,4],[13,7],[1,3],[-5,1],[-9,0],[-6,3],[3,7],[-6,4],[-8,1],[-4,2],[3,10],[-5,7],[4,3],[22,2],[14,3],[7,0],[-6,1],[-9,-1],[-7,0],[-28,10],[-6,1],[-4,-1],[-12,-3],[-14,0],[-3,-1],[-2,-2],[-3,-1],[-3,4],[5,1],[7,3],[5,6],[3,7],[-6,-5],[-5,-1],[-5,1],[-7,-2],[3,0],[3,-1],[1,-2],[1,-4],[-9,0],[-5,1],[-3,3],[-1,-13],[-5,-2],[-12,4],[-6,-1],[-19,-6],[-7,-1],[-6,1],[-4,2],[-5,5],[-1,2],[-6,10],[-1,0],[-2,3],[-3,2],[-4,0],[-1,1],[0,1],[0,2],[-6,3],[6,4],[10,0],[5,-11],[3,0],[2,3],[2,1],[2,-1],[4,-3],[0,4],[2,7],[6,-6],[9,-3],[10,1],[8,5],[-3,3],[14,19],[2,10],[-8,10],[0,-3],[3,-4],[1,-3],[-3,-3],[-4,-1],[5,-3],[-2,-3],[-1,-1],[-4,0],[-2,3],[-18,11],[7,-1],[7,-3],[-4,6],[-4,3],[-11,2],[5,-3],[-8,-4],[-19,-2],[-4,-3],[-3,-6],[-7,-3],[-12,-3],[0,3],[3,0],[0,4],[-5,-1],[-1,-1],[-2,-2],[-2,0],[-2,6],[0,5],[1,4],[3,3],[-5,0],[-4,3],[-2,5],[-1,6],[-3,0],[0,-4],[2,-7],[1,-3],[0,-13],[1,-5],[3,-5],[4,-6],[4,-3],[-1,-4],[0,-1],[-1,-2],[-1,2],[-4,5],[-3,-2],[-3,3],[-4,5],[-5,5],[2,-7],[-2,-3],[-4,1],[-1,7],[-2,8],[-2,-1],[-1,-6],[2,-7],[-5,1],[-2,0],[-3,3],[-11,-6],[-6,-1],[-5,3],[2,2],[3,2],[-4,3],[-4,3],[-4,-1],[-3,-5],[1,-1],[2,-2],[2,-1],[-4,-17],[2,-15],[6,-12],[8,-9],[-5,0],[-8,2],[-2,-2],[-2,0],[-5,15],[0,5],[1,5],[3,9],[1,7],[-1,12],[-3,9],[-4,7],[-5,5],[-3,3],[-4,1],[-4,2],[-1,3],[1,7],[4,15],[27,12],[-1,2],[-1,3],[0,4],[0,5],[-2,-1],[-4,-2],[-2,-1],[0,11],[0,4],[-2,0],[-3,-6],[-4,1],[-5,3],[-6,-2],[5,-1],[4,-4],[2,-6],[2,-7],[-2,0],[0,-1],[-1,-2],[-4,3],[-3,-2],[-3,-3],[-5,-2],[2,-1],[3,-6],[-5,-2],[-1,-5],[-2,-5],[-3,-2],[-3,2],[-11,12],[-9,3],[-16,4],[-10,0],[7,3],[6,-1],[15,-5],[0,3],[-6,4],[-6,2],[-16,1],[0,4],[4,0],[1,2],[0,2],[0,5],[2,2],[6,-1],[2,1],[5,11],[3,6],[5,4],[0,4],[-8,-9],[-10,-9],[-11,-7],[-8,-1],[3,-2],[2,-2],[2,-3],[0,-3],[-30,-7],[-5,1],[-2,3],[-10,14],[-6,10],[-4,5],[-1,2],[-2,4],[-4,-3],[-6,0],[-12,3],[-10,-1],[-3,1],[-3,1],[-4,5],[-2,1],[-13,-1],[-7,3],[-3,7],[-4,1],[-19,-10],[-5,5],[-8,0],[-8,-2],[-6,1],[-1,1],[-7,13],[-2,2],[-3,2],[-1,4],[1,6],[-3,0],[-2,1],[-5,2],[-1,6],[-7,7],[-9,7],[-10,1],[3,-10],[-2,-8],[-9,-8],[-7,2],[4,-1],[3,1],[2,2],[1,5],[-4,-2],[-4,0],[-3,-1],[-2,-4],[-10,8],[-5,2],[-6,0],[-4,2],[-5,7],[-3,8],[-1,8],[-4,-6],[2,-8],[5,-7],[4,-4],[0,-3],[-4,0],[-4,-2],[-3,-2],[-4,-3],[-7,11],[-5,-1],[-1,-7],[5,-3],[-1,-2],[-1,-2],[0,-3],[10,0],[0,-4],[-12,-11],[-5,-3],[-9,-3],[-54,3],[0,4],[0,7],[0,3],[3,1],[3,0],[3,1],[1,3],[-1,10],[-5,13],[-4,14],[-5,9],[-18,22],[-32,24],[-4,2],[-4,-3],[-5,-5],[-5,-3],[-11,10],[-6,2],[-12,-1],[-27,7],[2,2],[2,3],[1,3],[3,4],[0,2],[0,2],[1,2],[2,0],[3,-3],[2,-1],[117,25],[21,-6],[5,2],[2,4],[3,14],[-1,6],[-6,6],[-1,4],[-1,12],[-5,4],[-16,4],[-3,1],[-2,3],[-2,3],[0,3],[-10,-3],[-19,12],[-10,-4],[-5,-9],[-5,-12],[-7,-9],[-9,-3],[3,11],[2,3],[-4,6],[-3,4],[-1,4],[2,6],[3,2],[1,3],[-2,5],[-5,1],[-21,1],[1,5],[-1,5],[4,2],[3,0],[3,-1],[4,-1],[4,2],[1,3],[-1,4],[-1,2],[7,16],[5,4],[6,-3],[-5,-19],[10,-4],[32,2],[4,-2],[2,-2],[3,-2],[5,-1],[4,1],[18,4],[24,2],[-2,-2],[-3,-1],[-5,0],[8,-3],[29,6],[0,4],[-11,-1],[-4,2],[-2,6],[-3,-4],[-5,-1],[-5,2],[-2,5],[-2,-1],[-16,-1],[3,5],[2,1],[3,1],[0,2],[2,3],[4,2],[7,7],[-7,0],[-8,-5],[-6,-2],[0,3],[3,0],[0,4],[-3,0],[-1,-2],[-2,-3],[-1,-2],[-6,2],[-11,-7],[-8,-2],[1,2],[1,1],[-2,4],[-3,-3],[-5,-2],[-5,-1],[-5,-1],[0,3],[21,24],[4,3],[35,20],[-6,-2],[-12,-6],[-7,-3],[-25,-4],[-11,-4],[-23,-14],[-18,-4],[-11,-5],[-7,-1],[-6,1],[-13,5],[-7,1],[-1,-1],[0,-4],[-1,-4],[-3,-2],[-18,1],[-5,1],[-3,6],[-3,10],[7,1],[0,7],[-7,14],[0,9],[2,10],[4,7],[7,2],[0,3],[-9,7],[3,15],[9,15],[7,9],[4,-2],[3,-2],[-2,4],[6,4],[6,2],[12,1],[7,-2],[12,-6],[4,1],[-8,11],[-3,7],[5,3],[17,-4],[7,1],[-10,3],[1,3],[0,1],[0,2],[-4,2],[0,3],[29,0],[8,1],[12,6],[9,0],[-5,3],[-3,1],[0,3],[11,2],[10,6],[10,3],[9,0],[7,-7],[-3,-12],[9,1],[11,6],[4,1],[4,0],[8,-4],[5,1],[0,3],[-7,2],[2,5],[6,7],[6,4],[7,2],[9,2],[8,-1],[7,-3],[2,3],[2,0],[2,-3],[1,-4],[2,0],[3,3],[1,3],[0,4],[-1,5],[5,0],[5,2],[7,5],[13,3],[2,-1],[-1,-5],[-1,-4],[1,-3],[4,-1],[0,-3],[-3,0],[0,-4],[4,-3],[2,-3],[1,-6],[-2,-6],[10,10],[6,3],[7,-2],[-4,-3],[-1,-1],[0,-3],[4,-6],[11,-6],[5,-6],[2,3],[-2,4],[2,4],[-1,3],[-2,4],[-2,10],[3,0],[1,-3],[1,-1],[3,-3],[-1,9],[1,10],[3,6],[4,-3],[2,2],[1,2],[0,3],[0,3],[5,-6],[6,-2],[17,1],[4,-1],[9,-8],[4,-1],[4,-1],[13,4],[0,-9],[9,-3],[11,0],[5,3],[-4,12],[-1,8],[1,3],[19,4],[-5,3],[-12,15],[-2,8],[4,4],[10,5],[8,13],[2,4],[2,0],[4,-2],[11,-1],[13,-7],[5,0],[-2,-2],[-1,-1],[-1,-2],[-1,-2],[8,-1],[5,1],[3,2],[4,4],[2,1],[31,11],[4,3],[3,0],[3,-1],[11,13],[6,-1],[2,-8],[0,-10],[-3,-9],[-4,-5],[0,-2],[1,-2],[1,-3],[2,6],[3,5],[11,13],[9,7],[3,4],[4,-2],[6,8],[5,1],[4,-2],[3,-5],[0,-6],[-2,-5],[0,-3],[5,-4],[-3,-4],[-5,-13],[-2,-4],[-8,-10],[0,-4],[3,0],[12,23],[7,10],[6,-1],[3,3],[4,1],[4,-1],[4,-3],[-3,-4],[1,0],[1,0],[1,-1],[0,-2],[-4,-1],[-3,-2],[-6,-4],[0,-3],[5,-4],[9,-4],[19,0],[7,-3],[0,-4],[0,-3],[0,-4],[-3,-3],[-2,0],[0,-4],[5,-3],[7,-5],[6,-6],[2,-5],[24,-20],[3,-15],[2,-4],[0,-3],[-1,-2],[0,-3],[1,-3],[2,-2],[4,-2],[9,-6],[21,-10],[-1,-4],[-2,-4],[-2,-3],[-3,-2],[5,-1],[3,-1],[3,-3],[3,-4],[5,-4],[1,5],[0,7],[2,4],[14,-1],[6,3],[7,7],[9,13],[3,3],[3,3],[7,2],[24,14],[6,5],[0,4],[-4,0],[-7,4],[17,4],[8,-1],[3,-7],[9,4],[11,6],[10,9],[5,10],[1,-6],[3,-4],[3,-2],[5,1],[0,-4],[-3,-2],[-1,-3],[-1,-3],[-2,-2],[-10,-11],[6,-5],[7,4],[7,8],[8,4],[2,-3],[2,-12],[1,-3],[5,-2],[2,-4],[1,-6],[1,-6],[4,2],[3,4],[1,6],[0,6],[1,-8],[2,-6],[3,-3],[6,3],[0,3],[-2,1],[-3,3],[4,5],[4,3],[5,0],[5,-5],[-3,4],[-2,3],[-3,7],[16,6],[18,2],[1,-3],[7,-13],[1,-6],[2,-5],[3,-4],[5,-1],[-2,-5],[-1,-2],[9,-14],[2,-7],[-1,-11],[4,4],[11,7],[-10,6],[2,4],[-6,10],[-1,8],[2,0],[2,-2],[2,-2],[4,-3],[-3,6],[-3,3],[-4,1],[-4,0],[-3,3],[-7,16],[-4,6],[2,4],[2,5],[4,4],[6,1],[1,2],[0,3],[1,4],[3,2],[14,0],[-2,4],[37,7],[-1,-3],[0,-2],[1,-3],[2,-3],[-9,-14],[0,-12],[9,-9],[15,-4],[27,0],[28,4],[18,9],[2,0],[4,1],[29,-4],[39,9],[13,-5],[-6,9],[-8,4],[-14,1],[0,-1],[-1,-2],[-2,-1],[-1,2],[-1,4],[-1,3],[-2,2],[-13,3],[-4,3],[-2,3],[-3,12],[-14,12],[-3,12],[0,14],[-1,12],[-5,8],[-9,2],[0,4],[5,2],[4,5],[3,6],[3,25]],[[2259,3865],[1,-1],[2,0],[0,-4],[-18,-9],[-7,-1],[0,3],[1,0],[3,0],[1,0],[-2,5],[-4,1],[-9,-2],[0,3],[15,8],[8,2],[7,-3],[1,-1],[1,-1]],[[2870,636],[16,47],[80,7],[14,-141],[42,-26],[-24,-55],[-54,16],[-22,63],[43,9],[-45,7],[20,40],[-70,33]],[[3701,1832],[24,70],[-22,28],[12,29],[59,37],[1,-47],[96,-76],[6,-30],[66,-19],[-5,-73],[34,-21],[10,25],[12,-3],[-1,-26],[21,14],[19,-29],[25,23],[26,-37],[-39,-23],[-31,20],[1,-30],[-46,-24],[24,-51],[-63,-47],[-13,26],[-71,-1],[-36,35],[-64,-20],[15,117],[85,-12],[1,39],[-59,5],[35,28],[-13,20],[-89,-4],[15,45],[-35,12]],[[3748,3931],[58,55],[28,-24],[7,15],[46,-25],[105,-1],[3,-20],[53,23],[19,-23],[24,50],[5,-219],[-25,-18],[21,-32],[-86,-26],[2,65],[29,-7],[9,29],[-30,58],[-30,-13],[16,44],[-61,20],[-6,-46],[-48,10],[-26,-29],[-6,53],[-55,-15],[-17,24],[19,24],[-54,28]],[[4033,3883],[23,-11],[22,14],[-21,21],[-24,-24]],[[2132,1057],[15,34],[75,10],[110,1],[41,-36],[-48,-96],[-22,16],[-23,-19],[-12,24],[-106,-2],[25,27],[-55,41]],[[3534,2800],[93,30],[-34,-6],[-24,52],[87,1],[30,-64],[32,33],[49,-22],[44,14],[22,-19],[-25,-14],[45,22],[10,-33],[94,-36],[-50,-63],[-32,1],[23,-27],[-62,24],[-65,-24],[-55,48],[-37,-4],[5,33],[-51,-11],[-99,65]],[[2111,3846],[6,41],[242,0],[2,-23],[17,2],[1,-4],[-25,-12],[4,-60],[34,14],[37,-20],[-19,-19],[30,-15],[-2,-43],[44,36],[47,-22],[13,-33],[-23,-27],[-19,20],[-118,-21],[-14,-48],[-208,0],[-49,234]],[[2224,3852],[14,-7],[25,14],[-15,10],[-24,-17]],[[2317,972],[47,77],[107,24],[88,-77],[-8,-18],[-12,23],[-39,-2],[-66,-52],[-30,25],[-51,-19],[-36,19]],[[2410,3765],[35,32],[0,-30],[95,6],[-6,-12],[17,-12],[39,-7],[9,5],[-3,-15],[1,-3],[2,-2],[1,0],[5,3],[-8,1],[3,15],[0,2],[-2,2],[-60,14],[36,9],[-37,8],[14,9],[-33,-8],[21,30],[39,-13],[29,17],[-2,32],[117,19],[-10,46],[28,-4],[20,-49],[12,45],[35,-7],[-25,-31],[21,-16],[-46,-34],[-1,-31],[-39,16],[-52,-29],[-1,-55],[-36,13],[-16,-28],[-71,37],[-20,-16],[-50,20],[-33,-37],[2,43],[-30,15]],[[2990,3434],[18,37],[38,-12],[116,41],[25,-56],[-30,-14],[31,-54],[-50,-12],[31,22],[-13,15],[-34,-43],[-64,4],[-24,24],[3,9],[53,-14],[27,28],[1,20],[-9,9],[0,-28],[-25,14],[15,15],[3,-4],[5,5],[12,-4],[-28,24],[-4,-10],[-9,2],[-6,-9],[5,2],[13,-14],[-6,-2],[-1,8],[-3,-2],[-3,5],[0,1],[-2,0],[0,1],[8,-17],[-19,-4],[-8,37],[-44,-13],[18,-55],[-29,8],[-11,36]],[[3120,3451],[25,-10],[15,19],[-19,6],[-21,-15]],[[3147,3418],[5,-5],[6,4],[-4,3],[-7,-2]],[[3843,982],[10,9],[25,-12],[15,-34],[17,36],[9,-24],[23,27],[17,-25],[28,33],[65,-8],[10,-68],[34,-36],[-114,84],[-29,-26],[-41,15],[-17,-26],[-52,55]],[[2641,0],[81,57],[23,-33],[-11,-24],[-93,0]],[[1486,47],[13,57],[42,15],[-28,-65],[-27,-7]],[[1284,206],[26,-47],[-55,6],[29,41]],[[1291,93],[-29,-38],[-31,12],[22,56],[38,-30]],[[3798,335],[-51,-13],[-23,85],[84,-27],[17,-18],[-27,-27]],[[904,371],[-29,3],[-11,23],[49,6],[-9,-32]],[[2355,342],[55,46],[-13,-89],[-47,-42],[-18,46],[23,39]],[[914,157],[-24,153],[27,-14],[23,-137],[56,111],[-56,13],[0,26],[83,53],[47,-72],[78,-27],[-9,-65],[42,-26],[-27,-57],[-117,-28],[-23,-40],[17,-47],[-89,0],[-28,157]],[[2434,565],[31,-28],[15,-51],[-39,2],[-26,50],[19,27]],[[902,635],[21,36],[25,-9],[6,-32],[-51,-13],[-13,-33],[12,51]],[[1264,676],[-56,26],[10,30],[27,3],[19,-59]],[[3206,396],[-33,5],[19,43],[32,-17],[-18,-31]],[[1611,414],[12,45],[38,-19],[-19,-29],[-31,3]],[[1722,816],[-66,-20],[-18,44],[125,39],[38,-25],[4,-21],[-65,7],[-18,-24]],[[2017,840],[19,72],[69,-46],[-32,-59],[-56,33]],[[2962,1241],[40,7],[26,-35],[34,0],[10,-59],[-60,-39],[18,33],[-68,93]],[[3520,1290],[37,51],[7,-6],[16,-43],[-60,-2]],[[3876,2089],[65,-5],[-23,-111],[-74,-40],[-46,66],[78,90]],[[3686,2648],[-4,46],[0,2],[23,-9],[0,-53],[-19,14]],[[3562,3184],[-53,-2],[-35,35],[60,46],[79,0],[-51,-79]],[[3872,3381],[55,-7],[0,-52],[-34,-9],[-26,22],[5,46]],[[3474,938],[35,45],[34,-52],[-37,-13],[-32,20]],[[2067,946],[-26,-15],[0,72],[37,-19],[-11,-38]],[[3146,977],[-39,-31],[-45,18],[37,39],[47,-26]],[[3509,3658],[-54,-22],[19,72],[29,-11],[6,-39]],[[3077,3923],[36,-23],[-6,-39],[-35,18],[5,44]],[[3405,683],[27,-33],[-27,-13],[-56,46],[33,58],[23,-58]],[[2780,722],[-28,-42],[-41,42],[9,19],[23,-26],[37,7]],[[3250,741],[-65,0],[-44,27],[88,46],[9,-40],[42,-26],[-30,-7]],[[1620,1090],[54,18],[20,-44],[81,75],[7,-19],[-3,-52],[-48,-43],[23,-14],[-118,-30],[23,53],[-39,56]],[[1038,491],[102,78],[12,-34],[-48,-54],[19,-49],[55,6],[46,50],[4,-64],[-52,-57],[-58,-9],[-6,71],[-30,-21],[-15,28],[20,26],[-49,29]],[[3922,3325],[24,45],[35,-21],[53,19],[53,-26],[9,-141],[-37,-63],[-28,3],[14,17],[-63,-6],[-35,34],[6,58],[19,4],[-25,69],[-25,8]],[[4017,3210],[15,-29],[35,35],[-16,17],[-34,-23]],[[4051,3187],[13,1],[2,14],[-14,-6],[-1,-9]],[[2221,3804],[88,-52],[36,29],[-1,92],[15,14],[2,-23],[17,2],[1,-4],[-29,-28],[33,-163],[-134,-3],[-28,136]],[[2232,1189],[177,-4],[6,-32],[-69,-44],[21,-28],[-35,21],[-85,-12],[13,64],[-28,35]],[[1473,461],[9,55],[105,-21],[29,27],[41,-30],[42,17],[25,-49],[-24,-72],[-14,47],[-213,26]],[[1549,29],[72,61],[27,74],[100,47],[63,122],[27,-16],[-42,-108],[-26,0],[-39,-61],[-56,-10],[-58,-109],[-68,-29],[0,29]],[[3943,1072],[20,10],[9,-27],[124,-24],[0,-133],[-34,18],[-10,68],[-72,5],[11,56],[-45,-6],[16,22],[-19,11]],[[4063,1014],[6,1],[8,-3],[-4,11],[-10,-9]],[[1582,918],[21,80],[28,-17],[102,20],[21,10],[-17,26],[44,35],[36,-22],[20,-56],[-33,-11],[-4,-37],[-54,15],[-60,-22],[-69,-75],[-35,54]]]}