{"objects":{"water":{"type":"GeometryCollection","geometries":[{"type":"Polygon","properties":{"kind":"lake","name":"Embalse de Garcia  de Sola","reservoir":true,"area":31888454,"sort_rank":200,"source":"naturalearthdata.com","min_zoom":0.0,"id":1226},"arcs":[[616]]},{"type":"Polygon","properties":{"kind":"lake","name":"Embalse de Orellana","reservoir":true,"area":76469304,"sort_rank":200,"source":"naturalearthdata.com","min_zoom":0.0,"id":1227},"arcs":[[617]]},{"type":"Polygon","properties":{"kind":"lake","name":"Embalse de Entrepeas","reservoir":true,"area":93482776,"sort_rank":200,"source":"naturalearthdata.com","min_zoom":0.0,"id":1215},"arcs":[[618]]},{"type":"MultiPolygon","properties":{"source":"naturalearthdata.com","kind":"ocean","area":1576712559132672,"sort_rank":200,"min_zoom":0.0,"id":1},"arcs":[[[619],[620],[621],[622],[623],[624],[625],[626]],[[627]]]},{"type":"Polygon","properties":{"source":"naturalearthdata.com","kind":"lake","area":318084608,"sort_rank":200,"min_zoom":0.0,"id":634},"arcs":[[628]]},{"type":"Polygon","properties":{"kind":"lake","name":"Embalse de  Cara","reservoir":true,"area":148384576,"sort_rank":200,"source":"naturalearthdata.com","min_zoom":0.0,"id":1231},"arcs":[[629]]},{"type":"Polygon","properties":{"kind":"lake","name":"Embalse de Buenda","reservoir":true,"area":135342672,"sort_rank":200,"source":"naturalearthdata.com","min_zoom":0.0,"id":1258},"arcs":[[630]]},{"type":"Point","properties":{"label_placement":true,"kind":"lake","name":"Embalse de  Cara","reservoir":true,"area":148384576,"sort_rank":200,"source":"naturalearthdata.com","min_zoom":0.0,"id":1231},"coordinates":[2321,3351]},{"type":"Point","properties":{"label_placement":true,"kind":"lake","name":"Embalse de Buenda","reservoir":true,"area":135342672,"sort_rank":200,"source":"naturalearthdata.com","min_zoom":0.0,"id":1258},"coordinates":[3110,3831]},{"type":"Point","properties":{"label_placement":true,"kind":"lake","name":"Embalse de Entrepeas","reservoir":true,"area":93482776,"sort_rank":200,"source":"naturalearthdata.com","min_zoom":0.0,"id":1215},"coordinates":[3114,3931]},{"type":"Point","properties":{"label_placement":true,"kind":"lake","name":"Embalse de Orellana","reservoir":true,"area":76469304,"sort_rank":200,"source":"naturalearthdata.com","min_zoom":0.0,"id":1227},"coordinates":[2217,3302]},{"type":"Point","properties":{"label_placement":true,"kind":"lake","name":"Embalse de Garcia  de Sola","reservoir":true,"area":31888454,"sort_rank":200,"source":"naturalearthdata.com","min_zoom":0.0,"id":1226},"coordinates":[2262,3342]},{"type":"MultiLineString","properties":{"source":"naturalearthdata.com","kind":"ocean","sort_rank":205,"boundary":true,"min_zoom":0.0,"id":19},"arcs":[[631],[632]]},{"type":"LineString","properties":{"source":"naturalearthdata.com","kind":"ocean","sort_rank":205,"boundary":true,"min_zoom":0.0,"id":56},"arcs":[633]},{"type":"LineString","properties":{"source":"naturalearthdata.com","kind":"lake","sort_rank":367,"boundary":true,"min_zoom":0.0,"id":634},"arcs":[634]},{"type":"LineString","properties":{"source":"naturalearthdata.com","kind":"ocean","sort_rank":205,"boundary":true,"min_zoom":0.0,"id":1137},"arcs":[635]},{"type":"LineString","properties":{"source":"naturalearthdata.com","kind":"ocean","sort_rank":205,"boundary":true,"min_zoom":0.0,"id":1138},"arcs":[636]},{"type":"LineString","properties":{"source":"naturalearthdata.com","kind":"lake","reservoir":true,"sort_rank":367,"boundary":true,"min_zoom":0.0,"id":1215},"arcs":[637]},{"type":"LineString","properties":{"source":"naturalearthdata.com","kind":"lake","reservoir":true,"sort_rank":367,"boundary":true,"min_zoom":0.0,"id":1226},"arcs":[638]},{"type":"LineString","properties":{"source":"naturalearthdata.com","kind":"lake","reservoir":true,"sort_rank":367,"boundary":true,"min_zoom":0.0,"id":1227},"arcs":[639]},{"type":"LineString","properties":{"source":"naturalearthdata.com","kind":"lake","reservoir":true,"sort_rank":367,"boundary":true,"min_zoom":0.0,"id":1231},"arcs":[640]},{"type":"LineString","properties":{"source":"naturalearthdata.com","kind":"lake","reservoir":true,"sort_rank":367,"boundary":true,"min_zoom":0.0,"id":1258},"arcs":[641]},{"type":"LineString","properties":{"source":"naturalearthdata.com","kind":"ocean","sort_rank":205,"boundary":true,"min_zoom":0.0,"id":3754},"arcs":[642]},{"type":"Point","properties":{"label_placement":true,"kind":"sea","name":"Alboran Sea","source":"openstreetmap.org","sort_rank":200,"min_zoom":3.0,"id":305639403},"coordinates":[2941,1864]}]},"buildings":{"type":"GeometryCollection","geometries":[]},"places":{"type":"GeometryCollection","geometries":[{"type":"Point","properties":{"name:pt":"Espanha","name:ps":"\u0647\u0633\u067e\u0627\u0646\u06cc\u0647","name:ka":"\u10d4\u10e1\u10de\u10d0\u10dc\u10d4\u10d7\u10d8","name:mt":"Spanja","name:ko":"\uc2a4\ud398\uc778","name:kn":"\u0cb8\u0ccd\u0caa\u0cc8\u0ca8\u0ccd","name:km":"\u17a2\u17c1\u179f\u17d2\u1794\u17c9\u17b6\u1789","name:kl":"Spania","name:cs":"\u0160pan\u011blsko","alt_name:eo":"Hispanio","name:ki":"Hispania","name:tr":"\u0130spanya","name:ku":"Spanya","name:ti":"\u1235\u1354\u1295","name:ks":"\u0633\u0655\u067e\u06cc\u0646","name:to":"Sipeini","name:tl":"Espanya","name:sv":"Spanien","name:or":"\u0b38\u0b4d\u0b2a\u0b47\u0b28\u0b4d","name:pl":"Hiszpania","name:ta":"\u0bb8\u0bcd\u0baa\u0bc6\u0baf\u0bbf\u0ba9\u0bcd","name:tg":"\u0418\u0441\u043f\u0430\u043d\u0438\u044f","name:ca":"Espanya","name:te":"\u0c38\u0c4d\u0c2a\u0c47\u0c28\u0c4d","name:ro":"Spania","name:cy":"Sbaen","name:hr":"\u0160panjolska","name:da":"Spanien","name:fr":"Espagne","name:de":"Spanien","name:dz":"\u0f68\u0f72\u0f66\u0f0b\u0f54\u0f7a\u0f53","source":"openstreetmap.org","name:lv":"Sp\u0101nija","name:lt":"Ispanija","name:hi":"\u0938\u094d\u092a\u0947\u0928","name:kk":"\u0418\u0441\u043f\u0430\u043d\u0438\u044f","name:he":"\u05e1\u05e4\u05e8\u05d3","kind":"country","name:ur":"\u06c1\u0633\u067e\u0627\u0646\u06cc\u06c1","name:lb":"Spuenien","name:la":"Hispania","name:lg":"Sipeyini","name:uk":"\u0406\u0441\u043f\u0430\u043d\u0456\u044f","name:hy":"\u053b\u057d\u057a\u0561\u0576\u056b\u0561","min_zoom":2.0,"name:hu":"Spanyolorsz\u00e1g","name:ln":"Esipanye","name:lo":"\u0eaa\u0eb0\u0ec0\u0e9b\u0e99","population":46157822,"name:el":"\u0399\u03c3\u03c0\u03b1\u03bd\u03af\u03b1","name:eo":"Hispanujo","name:en":"Spain","name":"Espa\u00f1a","official_name":"Reino de Espa\u00f1a","name:ee":"Spania nutome","name:th":"\u0e1b\u0e23\u0e30\u0e40\u0e17\u0e28\u0e2a\u0e40\u0e1b\u0e19","name:gu":"\u0ab8\u0acd\u0aaa\u0ac7\u0aa8","name:eu":"Espainia","name:et":"Hispaania","name:nl":"Spanje","name:yo":"Or\u00edl\u1eb9\u0301\u00e8de Sipani","name:ia":"Espania","name:rm":"Spagna","name:rn":"Hisipaniya","name:az":"\u0130spaniya","name:id":"Spanyol","name:ms":"Sepanyol","name:mr":"\u0938\u094d\u092a\u0947\u0928","name:ar":"\u0625\u0633\u0628\u0627\u0646\u064a\u0627","name:my":"\u1005\u1015\u102d\u1014\u103a","name:io":"Hispania","name:is":"Sp\u00e1nn","name:am":"\u1235\u1354\u1295","name:it":"Spagna","name:vi":"T\u00e2y Ban Nha","name:ru":"\u0418\u0441\u043f\u0430\u043d\u0438\u044f","name:mn":"\u0418\u0441\u043f\u0430\u043d\u0438","name:mi":"P\u0101niora","id":148332300,"name:mk":"\u0428\u043f\u0430\u043d\u0438\u0458\u0430","name:af":"Spanje","name:zu":"i-Spain","name:ha":"Sipen","old_name:ku":"Key\u00eetiya Spanyay\u00ea","name:nn":"Spania","name:ff":"Espaa\u00f1","name:fi":"Espanja","old_name:vi":"Y Pha Nho","name:mg":"Espaina","name:fo":"Spania","name:ba":"\u0418\u0441\u043f\u0430\u043d\u0438\u044f","name:fy":"Spanje","name:vo":"Spany\u00e4n","name:zh":"\u897f\u73ed\u7259","name:nb":"Spania","name:so":"Isbeyn","name:sn":"Spain","name:sl":"\u0160panija","name:sk":"\u0160panielsko","name:ja":"\u30b9\u30da\u30a4\u30f3","name:si":"\u0dc3\u0dca\u0db4\u0dcf\u0da4\u0dca\u0da4\u0dba","name:fa":"\u0627\u0633\u067e\u0627\u0646\u06cc\u0627","name:sg":"Esp\u00e2nye","name:se":"Sp\u00e1nia","name:ne":"\u0938\u094d\u092a\u0947\u0928","name:br":"Spagn","name:bs":"\u0160panija","name:bm":"Esipa\u0272i","name:bn":"\u09b8\u09cd\u09aa\u09c7\u09a8","name:bo":"\u0f66\u0f72\u0f0b\u0f54\u0f53\u0f0d","name:ml":"\u0d38\u0d4d\u0d2a\u0d46\u0d2f\u0d3f\u0d7b","name:no":"Spania","name:sw":"Hispania","name:be":"\u0406\u0441\u043f\u0430\u043d\u0456\u044f","name:bg":"\u0418\u0441\u043f\u0430\u043d\u0438\u044f","name:sr":"\u0428\u043f\u0430\u043d\u0438\u0458\u0430","name:sq":"Spanj\u00eb","name:ga":"An Sp\u00e1inn","name:gd":"An Sp\u00e0inn","name:gv":"Yn Spaainey","name:ak":"Spain","name:tt":"\u0418\u0441\u043f\u0430\u043d\u0438\u044f"},"coordinates":[2639,3653]},{"type":"Point","properties":{"name:sk":"Portugalsko","name:el":"\u03a0\u03bf\u03c1\u03c4\u03bf\u03b3\u03b1\u03bb\u03af\u03b1","name:he":"\u05e4\u05d5\u05e8\u05e1\u05d5\u05d2\u05dc","kind":"country","min_zoom":2.0,"name:it":"Portogallo","name:uk":"\u041f\u043e\u0440\u0442\u0443\u0433\u0430\u043b\u0456\u044f","name:ru":"\u041f\u043e\u0440\u0442\u0443\u0433\u0430\u043b\u0438\u044f","name:vi":"B\u1ed3 \u0110\u00e0o Nha","name:pl":"Portugalia","name:hu":"Portug\u00e1lia","id":2377028247,"name:vo":"Portug\u00e4n","name:fa":"\u067e\u0631\u062a\u063a\u0627\u0644","name:eo":"Portugalujo","name":"Portugal","source":"openstreetmap.org","name:gv":"Yn Phortiugal","name:fy":"Portegal","population":10562178,"name:zh":"\u8461\u8404\u7259"},"coordinates":[1223,3667]},{"type":"Point","properties":{"source":"naturalearthdata.com","kind":"locality","name":"Madrid","country_capital":true,"population":5567000,"min_zoom":3.0,"id":7233},"coordinates":[2754,3834]},{"type":"Point","properties":{"source":"naturalearthdata.com","kind":"locality","name":"Casablanca","population":3181000,"region_capital":true,"min_zoom":3.0,"id":7241},"coordinates":[1322,749]},{"type":"Point","properties":{"admin_level":"4","name:pt":"Andaluzia","name:ro":"Andaluzia","name:sk":"Andal\u00fazia","name:lt":"Andal\u016bzija","name:he":"\u05d0\u05e0\u05d3\u05dc\u05d5\u05e1\u05d9\u05d4","kind":"region","name:lb":"Andalusien","min_zoom":4.0,"name:la":"Vandalitia","name:it":"Vandalitia","name:uk":"\u0410\u043d\u0434\u0430\u043b\u0443\u0441\u0456\u044f","name:be":"\u0410\u043d\u0434\u0430\u043b\u0443\u0441\u0456\u044f","name:ru":"\u0410\u043d\u0434\u0430\u043b\u0443\u0441\u0438\u044f","name:pl":"Andaluzja","name:hu":"Andal\u00fazia","id":949522007,"population":8302923,"name:el":"\u0391\u03bd\u03b4\u03b1\u03bb\u03bf\u03c5\u03c3\u03af\u03b1","name:eo":"Andaluzio","name:en":"Andalusia","name":"Andaluc\u00eda","kind_detail":"state","name:da":"Andalusien","name:de":"Andalusien","source":"openstreetmap.org","name:fr":"Andalousie","name:et":"Andaluusia","name:zh":"\u5b89\u9054\u9b6f\u897f\u4e9e"},"coordinates":[2428,2445]},{"type":"Point","properties":{"source":"naturalearthdata.com","kind":"locality","name":"Lisbon","country_capital":true,"population":2812000,"min_zoom":4.0,"id":7131},"coordinates":[766,3073]},{"type":"Point","properties":{"admin_level":"4","name:pt":"Castela-Mancha","name:ro":"Castilia-La Mancha","name:nl":"Castili\u00eb-La Mancha","name:lt":"Kastilija ir La Man\u010da","name:he":"\u05e7\u05e1\u05d8\u05d9\u05dc\u05d9\u05d4-\u05dc\u05d4 \u05de\u05e0\u05e6'\u05d4","kind":"region","min_zoom":4.0,"name:it":"Castiglia-La Mancia","name:uk":"\u041a\u0430\u0441\u0442\u0438\u043b\u0456\u044f \u2014 \u041b\u0430-\u041c\u0430\u043d\u0447\u0430","name:be":"\u041a\u0430\u0441\u0442\u044b\u043b\u0456\u044f \u2014 \u041b\u0430-\u041c\u0430\u043d\u0447\u0430","name:ru":"\u041a\u0430\u0441\u0442\u0438\u043b\u0438\u044f \u2014 \u041b\u0430-\u041c\u0430\u043d\u0447\u0430","name:pl":"Kastylia-La Mancha","id":1721119281,"name:eo":"Kastilio-Man\u0109o","name:en":"Castile-La Mancha","name":"Castilla-La Mancha","kind_detail":"state","name:de":"Kastilien-La Mancha","source":"openstreetmap.org","name:fr":"Castille-La Manche","name:eu":"Gaztela - Mantxa","name:zh":"\u5361\u65af\u8482\u5229\u4e9a-\u62c9\u66fc\u6070"},"coordinates":[3141,3387]},{"type":"Point","properties":{"admin_level":"4","kind":"region","name":"Extremadura","name:lt":"Estremad\u016bra","kind_detail":"state","name:he":"\u05d0\u05e7\u05e1\u05d8\u05e8\u05de\u05d3\u05d5\u05e8\u05d4","name:eo":"Ekstremaduro","id":1721119349,"source":"openstreetmap.org","name:fr":"Estr\u00e9madure","name:uk":"\u0415\u0441\u0442\u0440\u0435\u043c\u0430\u0434\u0443\u0440\u0430","name:be":"\u042d\u0441\u0442\u0440\u044d\u043c\u0430\u0434\u0443\u0440\u0430","name:ru":"\u042d\u0441\u0442\u0440\u0435\u043c\u0430\u0434\u0443\u0440\u0430","min_zoom":4.0,"name:pl":"Estremadura"},"coordinates":[1856,3277]},{"type":"Point","properties":{"admin_level":"4","kind":"region","name":"Melilla","kind_detail":"state","name:ar":"\u0645\u0644\u064a\u0644\u064a\u0629","name:eo":"Melilo","source":"openstreetmap.org","min_zoom":4.0,"name:ru":"\u041c\u0435\u043b\u0438\u043b\u044c\u044f","name:be":"\u041c\u0435\u043b\u0456\u043b\u044c\u044f","name:zh":"\u6885\u5229\u5229\u4e9a","id":1721119369},"coordinates":[3025,1515]},{"type":"Point","properties":{"admin_level":"4","kind":"region","name":"Ceuta","kind_detail":"state","name:ar":"\u0633\u0628\u062a\u0629","name:eo":"Ce\u016dto","source":"openstreetmap.org","min_zoom":4.0,"name:ru":"\u0421\u0435\u0443\u0442\u0430","name:be":"\u0421\u0435\u045e\u0442\u0430","id":3513476360},"coordinates":[2160,1782]},{"type":"Point","properties":{"alt_name:be":"\u0412\u0430\u043b\u0435\u043d\u0441\u0456\u0439\u0441\u043a\u0430\u044f \u043a\u0440\u0430\u0456\u043d\u0430","name:pt":"Comunidade Valenciana","name:ro":"Comunitatea Valencian\u0103","int_name":"Valencia","alt_name:ca":"Pa\u00eds Valenci\u00e0","admin_level":"4","kind":"region","name:lb":"Autonom Gemeinschaft Valencia","min_zoom":4.0,"alt_name:en":"Valencian Country","name:it":"Comunit\u00e0 Valenzana","old_name":"Regne de Val\u00e8ncia","name:ru":"\u0412\u0430\u043b\u0435\u043d\u0441\u0438\u044f","name:pl":"Walencja","name:hr":"Valencijska Zajednica","id":1721119316,"alt_name:es":"Pa\u00eds Valenciano","alt_name:ru":"\u0412\u0430\u043b\u0435\u043d\u0441\u0438\u0439\u0441\u043a\u0430\u044f \u0441\u0442\u0440\u0430\u043d\u0430","name:eo":"Valencilando","name:en":"Valencian Community","name":"Comunitat Valenciana","kind_detail":"state","name:de":"Valencianische Gemeinschaft","source":"openstreetmap.org","name:fr":"Communaut\u00e9 valencienne","name:la":"Communitas Valentiana","name:es":"Comunidad Valenciana","name:eu":"Valentziako Erkidegoa","name:be":"\u0412\u0430\u043b\u0435\u043d\u0441\u0456\u044f","name:fa":"\u06a9\u0648\u06cc \u0648\u0627\u0644\u0646\u0633\u06cc\u0627"},"coordinates":[3817,3507]},{"type":"Point","properties":{"admin_level":"4","name:pt":"Regi\u00e3o de M\u00farcia","name:lt":"Mursija","name:eo":"Murcia Regiono","name:lb":"Autonom Gemeinschaft Murcia","min_zoom":4.0,"name:uk":"\u041c\u0443\u0440\u0441\u0456\u044f","name:be":"\u041c\u0443\u0440\u0441\u0456\u044f","name:ru":"\u041c\u0443\u0440\u0441\u0438\u044f","name:pl":"Murcja","id":1721119400,"kind":"region","name:en":"Region of Murcia","name":"Regi\u00f3n de Murcia","kind_detail":"state","name:de":"Region Murcia","source":"openstreetmap.org","name:fr":"R\u00e9gion de Murcie","name:eu":"Murtziako Eskualdea"},"coordinates":[3558,2706]},{"type":"Point","properties":{"source":"naturalearthdata.com","kind":"locality","name":"Rabat","country_capital":true,"population":1705000,"min_zoom":5.0,"id":6864},"coordinates":[1607,941]},{"type":"Point","properties":{"source":"naturalearthdata.com","kind":"locality","name":"Seville","population":1212045,"region_capital":true,"min_zoom":5.0,"id":6832},"coordinates":[1919,2474]},{"type":"Point","properties":{"source":"naturalearthdata.com","kind":"locality","name":"Fez","population":1002000,"region_capital":true,"min_zoom":5.0,"id":6863},"coordinates":[2275,955]},{"type":"Point","properties":{"source":"naturalearthdata.com","kind":"locality","name":"Valencia","population":808000,"region_capital":true,"min_zoom":5.0,"id":6917},"coordinates":[3950,3419]},{"type":"Point","properties":{"source":"naturalearthdata.com","kind":"locality","name":"Oran","population":798000,"min_zoom":5.0,"id":7071},"coordinates":[3870,1706]},{"type":"Point","properties":{"source":"naturalearthdata.com","kind":"locality","name":"Oujda","population":409391,"region_capital":true,"min_zoom":5.0,"id":6346},"coordinates":[3401,1242]},{"type":"Point","properties":{"source":"naturalearthdata.com","kind":"locality","name":"Safi","population":353476,"min_zoom":5.0,"id":6347},"coordinates":[732,167]},{"type":"Point","properties":{"source":"naturalearthdata.com","kind":"locality","name":"Cordoba","population":321376,"min_zoom":5.0,"id":6294},"coordinates":[2359,2690]}]},"transit":{"type":"GeometryCollection","geometries":[{"type":"MultiLineString","properties":{"kind":"train","network":"TGV Europe","service":"international","sort_rank":275,"source":"openstreetmap.org","min_zoom":5.0,"operator":"SNCF-Renfe","ref":"TGV","osm_relation":true,"name":"TGV : Marseille \u2212 Madrid"},"arcs":[[518],[519],[520],[521],[522],[523],[524],[525],[526],[527],[528],[529],[530],[531],[532],[533],[534],[535],[536],[537],[538],[539],[540],[541],[542],[543],[544],[545],[546],[547],[548],[549],[550],[551],[552],[553],[554],[555],[556],[557],[558],[559],[560],[561],[562],[563],[564],[565],[566],[567],[568],[569],[570],[571],[572],[573],[574],[575],[576],[577],[578],[579],[580],[581],[582],[583],[584],[585],[586],[587],[588],[589],[590],[591],[592],[593],[594],[595],[596],[597],[598],[599],[600],[601],[602],[603],[604],[605],[606],[607],[608],[609],[610],[611],[612],[613],[614],[615]]}]},"pois":{"type":"GeometryCollection","geometries":[{"type":"Point","properties":{"kind":"national_park","name:en":"Serra de S\u00e3o Mamede Natural Park","protect_class":"2","short_name":"PNSSM","area":938145000,"source":"openstreetmap.org","min_zoom":5.85,"tier":1,"id":-544420,"osm_relation":true,"name":"Parque Natural da Serra de S\u00e3o Mamede"},"coordinates":[1408,3358]}]},"boundaries":{"type":"GeometryCollection","geometries":[{"type":"LineString","properties":{"source":"naturalearthdata.com","kind":"country","sort_rank":262,"kind_detail":"2","min_zoom":0.0,"id":79},"arcs":[0]},{"type":"MultiLineString","properties":{"source":"naturalearthdata.com","kind":"country","sort_rank":262,"kind_detail":"2","min_zoom":0.0,"id":144},"arcs":[[1],[2]]},{"type":"LineString","properties":{"source":"naturalearthdata.com","kind":"country","sort_rank":262,"kind_detail":"2","min_zoom":0.0,"id":297},"arcs":[3]},{"type":"MultiLineString","properties":{"source":"naturalearthdata.com","kind":"country","sort_rank":262,"kind_detail":"2","min_zoom":0.0,"id":212},"arcs":[[4],[5],[6],[7],[8],[9],[10],[11],[12],[13],[14]]},{"type":"MultiLineString","properties":{"source":"naturalearthdata.com","kind":"disputed","sort_rank":261,"kind_detail":"2","min_zoom":0.0,"id":352},"arcs":[[15],[16],[17]]},{"type":"MultiLineString","properties":{"source":"naturalearthdata.com","kind":"country","sort_rank":262,"kind_detail":"2","min_zoom":0.0,"id":406},"arcs":[[18],[19],[20]]},{"type":"MultiLineString","properties":{"source":"naturalearthdata.com","kind":"country","sort_rank":262,"kind_detail":"2","min_zoom":0.0,"id":451},"arcs":[[21],[22],[23],[24],[25],[26],[27],[28],[29],[30],[31]]},{"type":"LineString","properties":{"source":"naturalearthdata.com","kind":"disputed","sort_rank":261,"kind_detail":"2","min_zoom":0.0,"id":452},"arcs":[32]},{"type":"LineString","properties":{"source":"naturalearthdata.com","kind":"macroregion","sort_rank":257,"kind_detail":"3","min_zoom":3.0,"id":1864},"arcs":[33]},{"type":"MultiLineString","properties":{"source":"naturalearthdata.com","kind":"macroregion","sort_rank":257,"kind_detail":"3","min_zoom":3.0,"id":1870},"arcs":[[34],[35],[36],[37],[38],[39],[40],[41]]},{"type":"MultiLineString","properties":{"source":"naturalearthdata.com","kind":"macroregion","sort_rank":257,"kind_detail":"3","min_zoom":3.0,"id":1873},"arcs":[[42],[43],[44],[45]]},{"type":"LineString","properties":{"source":"naturalearthdata.com","kind":"region","sort_rank":256,"kind_detail":"4","min_zoom":5.5,"id":2985},"arcs":[46]},{"type":"MultiLineString","properties":{"source":"naturalearthdata.com","kind":"region","sort_rank":256,"kind_detail":"4","min_zoom":5.5,"id":2996},"arcs":[[47],[48],[49]]},{"type":"LineString","properties":{"source":"naturalearthdata.com","kind":"macroregion","sort_rank":257,"kind_detail":"3","min_zoom":5.5,"id":9450},"arcs":[50]},{"type":"MultiLineString","properties":{"source":"naturalearthdata.com","kind":"region","sort_rank":256,"kind_detail":"4","min_zoom":5.5,"id":9452},"arcs":[[51],[52],[53]]},{"type":"MultiLineString","properties":{"source":"naturalearthdata.com","kind":"region","sort_rank":256,"kind_detail":"4","min_zoom":5.5,"id":9460},"arcs":[[54],[55]]},{"type":"MultiLineString","properties":{"source":"naturalearthdata.com","kind":"macroregion","sort_rank":257,"kind_detail":"3","min_zoom":5.5,"id":9461},"arcs":[[56],[57]]},{"type":"MultiLineString","properties":{"source":"naturalearthdata.com","kind":"region","sort_rank":256,"kind_detail":"4","min_zoom":5.5,"id":9474},"arcs":[[58],[59]]},{"type":"MultiLineString","properties":{"source":"naturalearthdata.com","kind":"macroregion","sort_rank":257,"kind_detail":"3","min_zoom":3.0,"id":9496},"arcs":[[60],[61],[62],[63],[64]]},{"type":"MultiLineString","properties":{"source":"naturalearthdata.com","kind":"macroregion","sort_rank":257,"kind_detail":"3","min_zoom":3.0,"id":9504},"arcs":[[65],[66],[67],[68],[69],[70],[71],[72],[73],[74]]},{"type":"MultiLineString","properties":{"source":"naturalearthdata.com","kind":"macroregion","sort_rank":257,"kind_detail":"3","min_zoom":3.0,"id":9538},"arcs":[[75],[76]]},{"type":"LineString","properties":{"source":"naturalearthdata.com","kind":"macroregion","sort_rank":257,"kind_detail":"3","min_zoom":3.0,"id":9543},"arcs":[77]},{"type":"LineString","properties":{"source":"naturalearthdata.com","kind":"macroregion","sort_rank":257,"kind_detail":"3","min_zoom":3.0,"id":9547},"arcs":[78]},{"type":"LineString","properties":{"source":"naturalearthdata.com","kind":"region","sort_rank":256,"kind_detail":"4","min_zoom":5.5,"id":163},"arcs":[79]},{"type":"LineString","properties":{"source":"naturalearthdata.com","kind":"region","sort_rank":256,"kind_detail":"4","min_zoom":5.5,"id":164},"arcs":[80]},{"type":"LineString","properties":{"source":"naturalearthdata.com","kind":"region","sort_rank":256,"kind_detail":"4","min_zoom":5.5,"id":597},"arcs":[81]},{"type":"LineString","properties":{"source":"naturalearthdata.com","kind":"region","sort_rank":256,"kind_detail":"4","min_zoom":5.5,"id":598},"arcs":[82]},{"type":"MultiLineString","properties":{"source":"naturalearthdata.com","kind":"macroregion","sort_rank":257,"kind_detail":"3","min_zoom":3.0,"id":1855},"arcs":[[83],[84],[85]]},{"type":"MultiLineString","properties":{"source":"naturalearthdata.com","kind":"macroregion","sort_rank":257,"kind_detail":"3","min_zoom":3.0,"id":1863},"arcs":[[86],[87],[88],[89],[90],[91],[92],[93],[94],[95]]},{"type":"MultiLineString","properties":{"source":"naturalearthdata.com","kind":"macroregion","sort_rank":257,"kind_detail":"3","min_zoom":3.0,"id":1865},"arcs":[[96],[97],[98],[99],[100]]},{"type":"MultiLineString","properties":{"source":"naturalearthdata.com","kind":"macroregion","sort_rank":257,"kind_detail":"3","min_zoom":3.0,"id":1872},"arcs":[[101],[102],[103]]},{"type":"LineString","properties":{"source":"naturalearthdata.com","kind":"region","sort_rank":256,"kind_detail":"4","min_zoom":5.5,"id":2987},"arcs":[104]},{"type":"MultiLineString","properties":{"source":"naturalearthdata.com","kind":"region","sort_rank":256,"kind_detail":"4","min_zoom":5.5,"id":2995},"arcs":[[105],[106],[107],[108],[109]]},{"type":"MultiLineString","properties":{"source":"naturalearthdata.com","kind":"region","sort_rank":256,"kind_detail":"4","min_zoom":5.5,"id":2997},"arcs":[[110],[111],[112],[113],[114]]},{"type":"MultiLineString","properties":{"source":"naturalearthdata.com","kind":"region","sort_rank":256,"kind_detail":"4","min_zoom":5.5,"id":2998},"arcs":[[115],[116]]},{"type":"MultiLineString","properties":{"source":"naturalearthdata.com","kind":"region","sort_rank":256,"kind_detail":"4","min_zoom":5.5,"id":2999},"arcs":[[117],[118],[119],[120]]},{"type":"MultiLineString","properties":{"source":"naturalearthdata.com","kind":"region","sort_rank":256,"kind_detail":"4","min_zoom":5.5,"id":3000},"arcs":[[121],[122],[123],[124],[125],[126],[127]]},{"type":"LineString","properties":{"source":"naturalearthdata.com","kind":"region","sort_rank":256,"kind_detail":"4","min_zoom":5.5,"id":3001},"arcs":[128]},{"type":"MultiLineString","properties":{"source":"naturalearthdata.com","kind":"region","sort_rank":256,"kind_detail":"4","min_zoom":5.5,"id":2988},"arcs":[[129],[130],[131],[132],[133],[134],[135],[136],[137],[138],[139],[140],[141],[142],[143],[144],[145],[146],[147],[148],[149]]},{"type":"MultiLineString","properties":{"source":"naturalearthdata.com","kind":"region","sort_rank":256,"kind_detail":"4","min_zoom":5.5,"id":2989},"arcs":[[150],[151],[152],[153],[154]]},{"type":"MultiLineString","properties":{"source":"naturalearthdata.com","kind":"region","sort_rank":256,"kind_detail":"4","min_zoom":5.5,"id":2990},"arcs":[[155],[156],[157],[158],[159]]},{"type":"LineString","properties":{"source":"naturalearthdata.com","kind":"region","sort_rank":256,"kind_detail":"4","min_zoom":5.5,"id":2991},"arcs":[160]},{"type":"MultiLineString","properties":{"source":"naturalearthdata.com","kind":"region","sort_rank":256,"kind_detail":"4","min_zoom":5.5,"id":2992},"arcs":[[161],[162],[163],[164],[165],[166]]},{"type":"MultiLineString","properties":{"source":"naturalearthdata.com","kind":"region","sort_rank":256,"kind_detail":"4","min_zoom":5.5,"id":2994},"arcs":[[167],[168]]},{"type":"LineString","properties":{"source":"naturalearthdata.com","kind":"region","sort_rank":256,"kind_detail":"4","min_zoom":5.5,"id":3002},"arcs":[169]},{"type":"MultiLineString","properties":{"source":"naturalearthdata.com","kind":"region","sort_rank":256,"kind_detail":"4","min_zoom":5.5,"id":2984},"arcs":[[170],[171],[172],[173],[174],[175],[176],[177],[178],[179]]},{"type":"MultiLineString","properties":{"source":"naturalearthdata.com","kind":"region","sort_rank":256,"kind_detail":"4","min_zoom":5.5,"id":2986},"arcs":[[180],[181],[182],[183],[184],[185],[186],[187]]},{"type":"LineString","properties":{"source":"naturalearthdata.com","kind":"region","sort_rank":256,"kind_detail":"4","min_zoom":5.5,"id":3003},"arcs":[188]},{"type":"LineString","properties":{"source":"naturalearthdata.com","kind":"region","sort_rank":256,"kind_detail":"4","min_zoom":5.5,"id":3004},"arcs":[189]},{"type":"LineString","properties":{"source":"naturalearthdata.com","kind":"region","sort_rank":256,"kind_detail":"4","min_zoom":5.5,"id":3006},"arcs":[190]},{"type":"MultiLineString","properties":{"source":"naturalearthdata.com","kind":"region","sort_rank":256,"kind_detail":"4","min_zoom":5.5,"id":9436},"arcs":[[191],[192],[193],[194],[195],[196],[197],[198],[199],[200],[201],[202],[203],[204],[205],[206],[207],[208],[209],[210],[211],[212],[213],[214],[215],[216],[217],[218],[219],[220]]},{"type":"MultiLineString","properties":{"source":"naturalearthdata.com","kind":"region","sort_rank":256,"kind_detail":"4","min_zoom":5.5,"id":9437},"arcs":[[221],[222],[223]]},{"type":"MultiLineString","properties":{"source":"naturalearthdata.com","kind":"region","sort_rank":256,"kind_detail":"4","min_zoom":5.5,"id":9438},"arcs":[[224],[225],[226],[227],[228],[229],[230],[231],[232],[233],[234],[235],[236]]},{"type":"MultiLineString","properties":{"source":"naturalearthdata.com","kind":"region","sort_rank":256,"kind_detail":"4","min_zoom":5.5,"id":9439},"arcs":[[237],[238],[239]]},{"type":"MultiLineString","properties":{"source":"naturalearthdata.com","kind":"region","sort_rank":256,"kind_detail":"4","min_zoom":5.5,"id":9459},"arcs":[[240],[241],[242],[243],[244]]},{"type":"MultiLineString","properties":{"source":"naturalearthdata.com","kind":"region","sort_rank":256,"kind_detail":"4","min_zoom":5.5,"id":9441},"arcs":[[245],[246],[247],[248]]},{"type":"MultiLineString","properties":{"source":"naturalearthdata.com","kind":"region","sort_rank":256,"kind_detail":"4","min_zoom":5.5,"id":9442},"arcs":[[249],[250],[251]]},{"type":"MultiLineString","properties":{"source":"naturalearthdata.com","kind":"region","sort_rank":256,"kind_detail":"4","min_zoom":5.5,"id":9443},"arcs":[[252],[253],[254],[255],[256],[257],[258],[259],[260],[261],[262],[263],[264],[265],[266],[267],[268],[269],[270],[271]]},{"type":"MultiLineString","properties":{"source":"naturalearthdata.com","kind":"region","sort_rank":256,"kind_detail":"4","min_zoom":5.5,"id":9445},"arcs":[[272],[273],[274],[275],[276],[277],[278],[279],[280],[281]]},{"type":"LineString","properties":{"source":"naturalearthdata.com","kind":"region","sort_rank":256,"kind_detail":"4","min_zoom":5.5,"id":9446},"arcs":[282]},{"type":"MultiLineString","properties":{"source":"naturalearthdata.com","kind":"region","sort_rank":256,"kind_detail":"4","min_zoom":5.5,"id":9451},"arcs":[[283],[284],[285],[286],[287],[288],[289]]},{"type":"MultiLineString","properties":{"source":"naturalearthdata.com","kind":"region","sort_rank":256,"kind_detail":"4","min_zoom":5.5,"id":9453},"arcs":[[290],[291],[292]]},{"type":"MultiLineString","properties":{"source":"naturalearthdata.com","kind":"macroregion","sort_rank":257,"kind_detail":"3","min_zoom":3.0,"id":9499},"arcs":[[293],[294]]},{"type":"MultiLineString","properties":{"source":"naturalearthdata.com","kind":"region","sort_rank":256,"kind_detail":"4","min_zoom":5.5,"id":9462},"arcs":[[295],[296],[297],[298]]},{"type":"MultiLineString","properties":{"source":"naturalearthdata.com","kind":"region","sort_rank":256,"kind_detail":"4","min_zoom":5.5,"id":9464},"arcs":[[299],[300],[301],[302],[303],[304],[305],[306],[307],[308],[309],[310]]},{"type":"MultiLineString","properties":{"source":"naturalearthdata.com","kind":"region","sort_rank":256,"kind_detail":"4","min_zoom":5.5,"id":9465},"arcs":[[311],[312],[313],[314],[315],[316],[317],[318],[319]]},{"type":"MultiLineString","properties":{"source":"naturalearthdata.com","kind":"region","sort_rank":256,"kind_detail":"4","min_zoom":5.5,"id":9466},"arcs":[[320],[321],[322],[323],[324],[325],[326]]},{"type":"MultiLineString","properties":{"source":"naturalearthdata.com","kind":"region","sort_rank":256,"kind_detail":"4","min_zoom":5.5,"id":9467},"arcs":[[327],[328],[329],[330],[331],[332]]},{"type":"MultiLineString","properties":{"source":"naturalearthdata.com","kind":"region","sort_rank":256,"kind_detail":"4","min_zoom":5.5,"id":9472},"arcs":[[333],[334],[335]]},{"type":"MultiLineString","properties":{"source":"naturalearthdata.com","kind":"region","sort_rank":256,"kind_detail":"4","min_zoom":5.5,"id":9473},"arcs":[[336],[337],[338],[339],[340],[341],[342],[343],[344],[345],[346],[347],[348],[349],[350],[351],[352],[353],[354],[355],[356],[357],[358]]},{"type":"MultiLineString","properties":{"source":"naturalearthdata.com","kind":"region","sort_rank":256,"kind_detail":"4","min_zoom":5.5,"id":9475},"arcs":[[359],[360],[361],[362],[363],[364],[365],[366],[367],[368]]},{"type":"MultiLineString","properties":{"source":"naturalearthdata.com","kind":"region","sort_rank":256,"kind_detail":"4","min_zoom":5.5,"id":9476},"arcs":[[369],[370],[371],[372],[373],[374],[375]]},{"type":"MultiLineString","properties":{"source":"naturalearthdata.com","kind":"macroregion","sort_rank":257,"kind_detail":"3","min_zoom":3.0,"id":9550},"arcs":[[376],[377],[378],[379],[380],[381],[382]]},{"type":"MultiLineString","properties":{"source":"naturalearthdata.com","kind":"region","sort_rank":256,"kind_detail":"4","min_zoom":5.5,"id":9492},"arcs":[[383],[384],[385],[386]]},{"type":"MultiLineString","properties":{"source":"naturalearthdata.com","kind":"macroregion","sort_rank":257,"kind_detail":"3","min_zoom":3.0,"id":9495},"arcs":[[387],[388],[389]]},{"type":"LineString","properties":{"source":"naturalearthdata.com","kind":"macroregion","sort_rank":257,"kind_detail":"3","min_zoom":3.0,"id":9497},"arcs":[390]},{"type":"MultiLineString","properties":{"source":"naturalearthdata.com","kind":"macroregion","sort_rank":257,"kind_detail":"3","min_zoom":3.0,"id":9498},"arcs":[[391],[392],[393],[394]]},{"type":"MultiLineString","properties":{"source":"naturalearthdata.com","kind":"macroregion","sort_rank":257,"kind_detail":"3","min_zoom":3.0,"id":9500},"arcs":[[395],[396],[397],[398],[399],[400],[401],[402],[403]]},{"type":"LineString","properties":{"source":"naturalearthdata.com","kind":"macroregion","sort_rank":257,"kind_detail":"3","min_zoom":3.0,"id":9501},"arcs":[404]},{"type":"LineString","properties":{"source":"naturalearthdata.com","kind":"macroregion","sort_rank":257,"kind_detail":"3","min_zoom":3.0,"id":9502},"arcs":[405]},{"type":"LineString","properties":{"source":"naturalearthdata.com","kind":"macroregion","sort_rank":257,"kind_detail":"3","min_zoom":3.0,"id":9503},"arcs":[406]},{"type":"MultiLineString","properties":{"source":"naturalearthdata.com","kind":"macroregion","sort_rank":257,"kind_detail":"3","min_zoom":3.0,"id":9505},"arcs":[[407],[408],[409]]},{"type":"MultiLineString","properties":{"source":"naturalearthdata.com","kind":"macroregion","sort_rank":257,"kind_detail":"3","min_zoom":3.0,"id":9506},"arcs":[[410],[411]]},{"type":"MultiLineString","properties":{"source":"naturalearthdata.com","kind":"macroregion","sort_rank":257,"kind_detail":"3","min_zoom":3.0,"id":9507},"arcs":[[412],[413],[414],[415],[416],[417],[418],[419],[420],[421],[422],[423],[424],[425],[426],[427],[428]]},{"type":"MultiLineString","properties":{"source":"naturalearthdata.com","kind":"macroregion","sort_rank":257,"kind_detail":"3","min_zoom":3.0,"id":9508},"arcs":[[429],[430],[431],[432],[433],[434],[435],[436],[437],[438],[439]]},{"type":"MultiLineString","properties":{"source":"naturalearthdata.com","kind":"macroregion","sort_rank":257,"kind_detail":"3","min_zoom":3.0,"id":9509},"arcs":[[440],[441],[442]]},{"type":"MultiLineString","properties":{"source":"naturalearthdata.com","kind":"macroregion","sort_rank":257,"kind_detail":"3","min_zoom":3.0,"id":9510},"arcs":[[443],[444],[445],[446],[447],[448],[449]]},{"type":"MultiLineString","properties":{"source":"naturalearthdata.com","kind":"macroregion","sort_rank":257,"kind_detail":"3","min_zoom":3.0,"id":9534},"arcs":[[450],[451],[452],[453],[454]]},{"type":"MultiLineString","properties":{"source":"naturalearthdata.com","kind":"macroregion","sort_rank":257,"kind_detail":"3","min_zoom":3.0,"id":9535},"arcs":[[455],[456],[457]]},{"type":"MultiLineString","properties":{"source":"naturalearthdata.com","kind":"macroregion","sort_rank":257,"kind_detail":"3","min_zoom":3.0,"id":9536},"arcs":[[458],[459],[460],[461],[462],[463],[464],[465],[466],[467],[468],[469],[470],[471],[472]]},{"type":"LineString","properties":{"source":"naturalearthdata.com","kind":"macroregion","sort_rank":257,"kind_detail":"3","min_zoom":3.0,"id":9537},"arcs":[473]},{"type":"LineString","properties":{"source":"naturalearthdata.com","kind":"macroregion","sort_rank":257,"kind_detail":"3","min_zoom":3.0,"id":9539},"arcs":[474]},{"type":"MultiLineString","properties":{"source":"naturalearthdata.com","kind":"macroregion","sort_rank":257,"kind_detail":"3","min_zoom":3.0,"id":9540},"arcs":[[475],[476],[477],[478],[479]]},{"type":"MultiLineString","properties":{"source":"naturalearthdata.com","kind":"macroregion","sort_rank":257,"kind_detail":"3","min_zoom":3.0,"id":9541},"arcs":[[480],[481],[482]]},{"type":"MultiLineString","properties":{"source":"naturalearthdata.com","kind":"macroregion","sort_rank":257,"kind_detail":"3","min_zoom":3.0,"id":9542},"arcs":[[483],[484],[485],[486],[487],[488],[489],[490],[491],[492],[493]]},{"type":"MultiLineString","properties":{"source":"naturalearthdata.com","kind":"macroregion","sort_rank":257,"kind_detail":"3","min_zoom":3.0,"id":9544},"arcs":[[494],[495],[496]]},{"type":"MultiLineString","properties":{"source":"naturalearthdata.com","kind":"macroregion","sort_rank":257,"kind_detail":"3","min_zoom":3.0,"id":9548},"arcs":[[497],[498],[499]]},{"type":"LineString","properties":{"source":"naturalearthdata.com","kind":"macroregion","sort_rank":257,"kind_detail":"3","min_zoom":3.0,"id":9549},"arcs":[500]},{"type":"MultiLineString","properties":{"source":"naturalearthdata.com","kind":"macroregion","sort_rank":257,"kind_detail":"3","min_zoom":3.0,"id":9551},"arcs":[[501],[502],[503],[504],[505],[506],[507],[508],[509],[510],[511]]},{"type":"MultiLineString","properties":{"source":"naturalearthdata.com","kind":"macroregion","sort_rank":257,"kind_detail":"3","min_zoom":3.0,"id":9552},"arcs":[[512],[513],[514],[515],[516],[517]]}]},"roads":{"type":"GeometryCollection","geometries":[{"type":"LineString","properties":{"source":"naturalearthdata.com","kind":"highway","sort_rank":383,"kind_detail":"motorway","min_zoom":4.0,"id":4203},"arcs":[643]},{"type":"LineString","properties":{"kind":"highway","network":"e-road","sort_rank":383,"kind_detail":"motorway","source":"naturalearthdata.com","min_zoom":3.0,"landuse_kind":"urban_area","shield_text":"15","id":4252},"arcs":[644]},{"type":"MultiLineString","properties":{"kind":"highway","network":"e-road","sort_rank":383,"kind_detail":"motorway","source":"naturalearthdata.com","min_zoom":3.0,"shield_text":"15","id":4252},"arcs":[[645],[646]]},{"type":"MultiLineString","properties":{"kind":"highway","network":"e-road","sort_rank":383,"kind_detail":"motorway","source":"naturalearthdata.com","min_zoom":3.0,"landuse_kind":"urban_area","shield_text":"15","id":4253},"arcs":[[647],[648]]},{"type":"MultiLineString","properties":{"kind":"highway","network":"e-road","sort_rank":383,"kind_detail":"motorway","source":"naturalearthdata.com","min_zoom":3.0,"shield_text":"15","id":4253},"arcs":[[649],[650]]},{"type":"LineString","properties":{"kind":"highway","network":"e-road","sort_rank":383,"kind_detail":"motorway","source":"naturalearthdata.com","min_zoom":3.0,"shield_text":"1","id":4254},"arcs":[651]},{"type":"LineString","properties":{"kind":"highway","network":"e-road","sort_rank":383,"kind_detail":"motorway","source":"naturalearthdata.com","min_zoom":3.0,"landuse_kind":"urban_area","shield_text":"1","id":4255},"arcs":[652]},{"type":"LineString","properties":{"kind":"highway","network":"e-road","sort_rank":383,"kind_detail":"motorway","source":"naturalearthdata.com","min_zoom":3.0,"shield_text":"1","id":4255},"arcs":[653]},{"type":"LineString","properties":{"kind":"highway","network":"e-road","sort_rank":383,"kind_detail":"motorway","source":"naturalearthdata.com","min_zoom":3.0,"landuse_kind":"urban_area","shield_text":"90","id":4256},"arcs":[654]},{"type":"LineString","properties":{"kind":"highway","network":"e-road","sort_rank":383,"kind_detail":"motorway","source":"naturalearthdata.com","min_zoom":3.0,"landuse_kind":"urban_area","shield_text":"90","id":4256},"arcs":[655]},{"type":"MultiLineString","properties":{"kind":"highway","network":"e-road","sort_rank":383,"kind_detail":"motorway","source":"naturalearthdata.com","min_zoom":3.0,"shield_text":"90","id":4256},"arcs":[[656],[657]]},{"type":"MultiLineString","properties":{"kind":"highway","network":"e-road","sort_rank":383,"kind_detail":"motorway","source":"naturalearthdata.com","min_zoom":3.0,"landuse_kind":"urban_area","shield_text":"1","id":4259},"arcs":[[658],[659]]},{"type":"MultiLineString","properties":{"kind":"highway","network":"e-road","sort_rank":383,"kind_detail":"motorway","source":"naturalearthdata.com","min_zoom":3.0,"shield_text":"1","id":4259},"arcs":[[660],[661]]},{"type":"MultiLineString","properties":{"kind":"highway","network":"e-road","sort_rank":383,"kind_detail":"motorway","source":"naturalearthdata.com","min_zoom":3.0,"landuse_kind":"urban_area","shield_text":"1","id":4260},"arcs":[[662],[663]]},{"type":"MultiLineString","properties":{"kind":"highway","network":"e-road","sort_rank":383,"kind_detail":"motorway","source":"naturalearthdata.com","min_zoom":3.0,"shield_text":"1","id":4260},"arcs":[[664],[665],[666]]},{"type":"MultiLineString","properties":{"source":"naturalearthdata.com","kind":"highway","kind_detail":"motorway","sort_rank":383,"landuse_kind":"urban_area","min_zoom":3.0,"id":4261},"arcs":[[667],[668]]},{"type":"LineString","properties":{"source":"naturalearthdata.com","kind":"highway","sort_rank":383,"kind_detail":"motorway","min_zoom":3.0,"id":4261},"arcs":[669]},{"type":"LineString","properties":{"source":"naturalearthdata.com","kind":"highway","kind_detail":"motorway","sort_rank":383,"landuse_kind":"urban_area","min_zoom":3.0,"id":4262},"arcs":[670]},{"type":"LineString","properties":{"source":"naturalearthdata.com","kind":"highway","kind_detail":"motorway","sort_rank":383,"landuse_kind":"urban_area","min_zoom":4.0,"id":4263},"arcs":[671]},{"type":"LineString","properties":{"source":"naturalearthdata.com","kind":"highway","sort_rank":383,"kind_detail":"motorway","min_zoom":4.0,"id":4263},"arcs":[672]},{"type":"LineString","properties":{"source":"naturalearthdata.com","kind":"highway","kind_detail":"motorway","sort_rank":383,"landuse_kind":"urban_area","min_zoom":3.0,"id":4265},"arcs":[673]},{"type":"LineString","properties":{"kind":"highway","network":"e-road","sort_rank":383,"kind_detail":"motorway","source":"naturalearthdata.com","min_zoom":3.0,"shield_text":"1","id":4267},"arcs":[674]},{"type":"LineString","properties":{"kind":"highway","network":"e-road","sort_rank":383,"kind_detail":"motorway","source":"naturalearthdata.com","min_zoom":3.0,"landuse_kind":"urban_area","shield_text":"1","id":4268},"arcs":[675]},{"type":"MultiLineString","properties":{"kind":"highway","network":"e-road","sort_rank":383,"kind_detail":"motorway","source":"naturalearthdata.com","min_zoom":3.0,"shield_text":"1","id":4268},"arcs":[[676],[677]]},{"type":"LineString","properties":{"kind":"highway","network":"e-road","sort_rank":383,"kind_detail":"motorway","source":"naturalearthdata.com","min_zoom":3.0,"shield_text":"1","id":4269},"arcs":[678]},{"type":"LineString","properties":{"source":"naturalearthdata.com","kind":"highway","sort_rank":383,"kind_detail":"motorway","min_zoom":4.0,"id":4270},"arcs":[679]},{"type":"LineString","properties":{"source":"naturalearthdata.com","kind":"highway","sort_rank":383,"kind_detail":"motorway","min_zoom":4.0,"id":4271},"arcs":[680]},{"type":"LineString","properties":{"kind":"highway","network":"e-road","sort_rank":383,"kind_detail":"motorway","source":"naturalearthdata.com","min_zoom":3.0,"landuse_kind":"urban_area","shield_text":"15","id":4273},"arcs":[681]},{"type":"LineString","properties":{"kind":"highway","network":"e-road","sort_rank":383,"kind_detail":"motorway","source":"naturalearthdata.com","min_zoom":3.0,"shield_text":"15","id":4273},"arcs":[682]},{"type":"LineString","properties":{"kind":"highway","network":"e-road","sort_rank":383,"kind_detail":"motorway","source":"naturalearthdata.com","min_zoom":3.0,"landuse_kind":"urban_area","shield_text":"5","id":4274},"arcs":[683]},{"type":"LineString","properties":{"kind":"highway","network":"e-road","sort_rank":383,"kind_detail":"motorway","source":"naturalearthdata.com","min_zoom":3.0,"shield_text":"5","id":4274},"arcs":[684]},{"type":"LineString","properties":{"source":"naturalearthdata.com","kind":"highway","kind_detail":"motorway","sort_rank":383,"landuse_kind":"urban_area","min_zoom":3.0,"id":4275},"arcs":[685]},{"type":"LineString","properties":{"source":"naturalearthdata.com","kind":"highway","sort_rank":383,"kind_detail":"motorway","min_zoom":3.0,"id":4275},"arcs":[686]},{"type":"LineString","properties":{"source":"naturalearthdata.com","kind":"highway","kind_detail":"motorway","sort_rank":383,"landuse_kind":"urban_area","min_zoom":3.0,"id":4276},"arcs":[687]},{"type":"LineString","properties":{"source":"naturalearthdata.com","kind":"highway","sort_rank":383,"kind_detail":"motorway","min_zoom":3.0,"id":4276},"arcs":[688]},{"type":"LineString","properties":{"kind":"highway","network":"e-road","sort_rank":383,"kind_detail":"motorway","source":"naturalearthdata.com","min_zoom":3.0,"landuse_kind":"urban_area","shield_text":"90","id":4277},"arcs":[689]},{"type":"LineString","properties":{"kind":"highway","network":"e-road","sort_rank":383,"kind_detail":"motorway","source":"naturalearthdata.com","min_zoom":3.0,"shield_text":"90","id":4277},"arcs":[690]},{"type":"LineString","properties":{"kind":"highway","network":"e-road","sort_rank":383,"kind_detail":"motorway","source":"naturalearthdata.com","min_zoom":3.0,"shield_text":"90","id":4278},"arcs":[691]},{"type":"LineString","properties":{"kind":"highway","network":"e-road","sort_rank":383,"kind_detail":"motorway","source":"naturalearthdata.com","min_zoom":3.0,"shield_text":"90","id":4279},"arcs":[692]},{"type":"LineString","properties":{"kind":"highway","network":"e-road","sort_rank":383,"kind_detail":"motorway","source":"naturalearthdata.com","min_zoom":3.0,"shield_text":"90","id":4280},"arcs":[693]},{"type":"LineString","properties":{"source":"naturalearthdata.com","kind":"highway","kind_detail":"motorway","sort_rank":383,"landuse_kind":"urban_area","min_zoom":3.0,"id":4281},"arcs":[694]},{"type":"LineString","properties":{"kind":"highway","network":"e-road","sort_rank":383,"kind_detail":"motorway","source":"naturalearthdata.com","min_zoom":3.0,"landuse_kind":"urban_area","shield_text":"5","id":4288},"arcs":[695]},{"type":"LineString","properties":{"kind":"highway","network":"e-road","sort_rank":383,"kind_detail":"motorway","source":"naturalearthdata.com","min_zoom":3.0,"shield_text":"5","id":4288},"arcs":[696]},{"type":"LineString","properties":{"kind":"highway","network":"e-road","sort_rank":383,"kind_detail":"motorway","source":"naturalearthdata.com","min_zoom":3.0,"landuse_kind":"urban_area","shield_text":"15","id":4296},"arcs":[697]},{"type":"MultiLineString","properties":{"kind":"highway","network":"e-road","sort_rank":383,"kind_detail":"motorway","source":"naturalearthdata.com","min_zoom":3.0,"shield_text":"15","id":4296},"arcs":[[698],[699]]},{"type":"MultiLineString","properties":{"kind":"highway","network":"e-road","sort_rank":383,"kind_detail":"motorway","source":"naturalearthdata.com","min_zoom":3.0,"landuse_kind":"urban_area","shield_text":"90","id":4311},"arcs":[[700],[701]]},{"type":"LineString","properties":{"kind":"highway","network":"e-road","sort_rank":383,"kind_detail":"motorway","source":"naturalearthdata.com","min_zoom":3.0,"landuse_kind":"urban_area","shield_text":"90","id":4311},"arcs":[702]},{"type":"MultiLineString","properties":{"kind":"highway","network":"e-road","sort_rank":383,"kind_detail":"motorway","source":"naturalearthdata.com","min_zoom":3.0,"shield_text":"90","id":4311},"arcs":[[703],[704],[705]]},{"type":"LineString","properties":{"source":"naturalearthdata.com","kind":"highway","sort_rank":383,"kind_detail":"motorway","min_zoom":4.0,"id":4317},"arcs":[706]},{"type":"LineString","properties":{"source":"naturalearthdata.com","kind":"major_road","sort_rank":380,"kind_detail":"primary","min_zoom":3.0,"id":4915},"arcs":[707]},{"type":"LineString","properties":{"source":"naturalearthdata.com","kind":"major_road","sort_rank":380,"kind_detail":"primary","min_zoom":3.0,"id":4916},"arcs":[708]},{"type":"LineString","properties":{"source":"naturalearthdata.com","kind":"highway","kind_detail":"motorway","sort_rank":383,"landuse_kind":"urban_area","min_zoom":3.0,"id":5132},"arcs":[709]},{"type":"LineString","properties":{"source":"naturalearthdata.com","kind":"highway","sort_rank":383,"kind_detail":"motorway","min_zoom":3.0,"id":5132},"arcs":[710]},{"type":"LineString","properties":{"kind":"highway","network":"e-road","sort_rank":383,"kind_detail":"motorway","source":"naturalearthdata.com","min_zoom":3.0,"landuse_kind":"urban_area","shield_text":"15","id":8051},"arcs":[711]},{"type":"LineString","properties":{"kind":"highway","network":"e-road","sort_rank":383,"kind_detail":"motorway","source":"naturalearthdata.com","min_zoom":3.0,"shield_text":"15","id":8051},"arcs":[712]},{"type":"LineString","properties":{"kind":"highway","network":"e-road","sort_rank":383,"kind_detail":"motorway","source":"naturalearthdata.com","min_zoom":3.0,"landuse_kind":"urban_area","shield_text":"5","id":8052},"arcs":[713]},{"type":"LineString","properties":{"kind":"highway","network":"e-road","sort_rank":383,"kind_detail":"motorway","source":"naturalearthdata.com","min_zoom":3.0,"shield_text":"5","id":8052},"arcs":[714]},{"type":"LineString","properties":{"kind":"highway","network":"e-road","sort_rank":383,"kind_detail":"motorway","source":"naturalearthdata.com","min_zoom":3.0,"landuse_kind":"urban_area","shield_text":"15","id":8063},"arcs":[715]},{"type":"LineString","properties":{"kind":"highway","network":"e-road","sort_rank":383,"kind_detail":"motorway","source":"naturalearthdata.com","min_zoom":3.0,"shield_text":"15","id":8063},"arcs":[716]},{"type":"LineString","properties":{"kind":"highway","network":"e-road","sort_rank":383,"kind_detail":"motorway","source":"naturalearthdata.com","min_zoom":3.0,"landuse_kind":"urban_area","shield_text":"15","id":8077},"arcs":[717]},{"type":"LineString","properties":{"kind":"highway","network":"e-road","sort_rank":383,"kind_detail":"motorway","source":"naturalearthdata.com","min_zoom":3.0,"landuse_kind":"urban_area","shield_text":"15","id":8077},"arcs":[718]},{"type":"LineString","properties":{"kind":"highway","network":"e-road","sort_rank":383,"kind_detail":"motorway","source":"naturalearthdata.com","min_zoom":3.0,"shield_text":"15","id":8077},"arcs":[719]},{"type":"LineString","properties":{"source":"naturalearthdata.com","kind":"highway","kind_detail":"motorway","sort_rank":383,"landuse_kind":"urban_area","min_zoom":4.0,"id":23627},"arcs":[720]},{"type":"LineString","properties":{"source":"naturalearthdata.com","kind":"highway","sort_rank":383,"kind_detail":"motorway","min_zoom":4.0,"id":23627},"arcs":[721]},{"type":"LineString","properties":{"source":"naturalearthdata.com","kind":"highway","kind_detail":"motorway","sort_rank":383,"landuse_kind":"urban_area","min_zoom":4.0,"id":23797},"arcs":[722]},{"type":"LineString","properties":{"source":"naturalearthdata.com","kind":"highway","sort_rank":383,"kind_detail":"motorway","min_zoom":4.0,"id":23797},"arcs":[723]},{"type":"LineString","properties":{"source":"naturalearthdata.com","kind":"major_road","kind_detail":"secondary","sort_rank":379,"landuse_kind":"urban_area","min_zoom":3.0,"id":23819},"arcs":[724]},{"type":"LineString","properties":{"source":"naturalearthdata.com","kind":"major_road","sort_rank":379,"kind_detail":"secondary","min_zoom":3.0,"id":23819},"arcs":[725]},{"type":"LineString","properties":{"source":"naturalearthdata.com","kind":"major_road","kind_detail":"secondary","sort_rank":379,"landuse_kind":"urban_area","min_zoom":3.0,"id":23833},"arcs":[726]},{"type":"LineString","properties":{"source":"naturalearthdata.com","kind":"major_road","kind_detail":"secondary","sort_rank":379,"landuse_kind":"urban_area","min_zoom":3.0,"id":23833},"arcs":[727]},{"type":"LineString","properties":{"source":"naturalearthdata.com","kind":"major_road","sort_rank":379,"kind_detail":"secondary","min_zoom":3.0,"id":23833},"arcs":[728]},{"type":"LineString","properties":{"source":"naturalearthdata.com","kind":"major_road","sort_rank":379,"kind_detail":"secondary","min_zoom":3.0,"id":23836},"arcs":[729]},{"type":"LineString","properties":{"source":"naturalearthdata.com","kind":"major_road","sort_rank":379,"kind_detail":"secondary","min_zoom":3.0,"id":23840},"arcs":[730]},{"type":"LineString","properties":{"source":"naturalearthdata.com","kind":"major_road","kind_detail":"secondary","sort_rank":379,"landuse_kind":"urban_area","min_zoom":3.0,"id":24055},"arcs":[731]},{"type":"LineString","properties":{"source":"naturalearthdata.com","kind":"major_road","sort_rank":379,"kind_detail":"secondary","min_zoom":3.0,"id":24055},"arcs":[732]},{"type":"LineString","properties":{"source":"naturalearthdata.com","kind":"highway","sort_rank":383,"kind_detail":"motorway","min_zoom":4.0,"id":24182},"arcs":[733]},{"type":"LineString","properties":{"source":"naturalearthdata.com","kind":"highway","sort_rank":383,"kind_detail":"motorway","min_zoom":3.0,"id":24184},"arcs":[734]},{"type":"LineString","properties":{"source":"naturalearthdata.com","kind":"major_road","kind_detail":"secondary","sort_rank":379,"landuse_kind":"urban_area","min_zoom":3.0,"id":24287},"arcs":[735]},{"type":"LineString","properties":{"source":"naturalearthdata.com","kind":"major_road","sort_rank":379,"kind_detail":"secondary","min_zoom":3.0,"id":24287},"arcs":[736]},{"type":"LineString","properties":{"source":"naturalearthdata.com","kind":"major_road","kind_detail":"secondary","sort_rank":379,"landuse_kind":"urban_area","min_zoom":4.0,"id":24307},"arcs":[737]},{"type":"LineString","properties":{"source":"naturalearthdata.com","kind":"major_road","kind_detail":"secondary","sort_rank":379,"landuse_kind":"urban_area","min_zoom":4.0,"id":24326},"arcs":[738]},{"type":"LineString","properties":{"source":"naturalearthdata.com","kind":"major_road","sort_rank":379,"kind_detail":"secondary","min_zoom":3.0,"id":24333},"arcs":[739]},{"type":"LineString","properties":{"source":"naturalearthdata.com","kind":"major_road","sort_rank":379,"kind_detail":"secondary","min_zoom":3.0,"id":24372},"arcs":[740]},{"type":"LineString","properties":{"source":"naturalearthdata.com","kind":"major_road","sort_rank":379,"kind_detail":"secondary","min_zoom":3.0,"id":24479},"arcs":[741]},{"type":"LineString","properties":{"source":"naturalearthdata.com","kind":"major_road","sort_rank":379,"kind_detail":"secondary","min_zoom":3.0,"id":24480},"arcs":[742]},{"type":"LineString","properties":{"source":"naturalearthdata.com","kind":"major_road","kind_detail":"secondary","sort_rank":379,"landuse_kind":"urban_area","min_zoom":3.0,"id":24500},"arcs":[743]},{"type":"LineString","properties":{"source":"naturalearthdata.com","kind":"major_road","sort_rank":379,"kind_detail":"secondary","min_zoom":3.0,"id":24500},"arcs":[744]},{"type":"LineString","properties":{"source":"naturalearthdata.com","kind":"major_road","sort_rank":379,"kind_detail":"secondary","min_zoom":3.0,"id":24504},"arcs":[745]},{"type":"LineString","properties":{"source":"naturalearthdata.com","kind":"major_road","sort_rank":379,"kind_detail":"secondary","min_zoom":3.0,"id":24545},"arcs":[746]},{"type":"LineString","properties":{"source":"naturalearthdata.com","kind":"highway","sort_rank":383,"kind_detail":"motorway","min_zoom":4.0,"id":24549},"arcs":[747]},{"type":"LineString","properties":{"source":"naturalearthdata.com","kind":"highway","sort_rank":383,"kind_detail":"motorway","min_zoom":3.0,"id":24579},"arcs":[748]},{"type":"LineString","properties":{"source":"naturalearthdata.com","kind":"highway","sort_rank":383,"kind_detail":"motorway","min_zoom":4.0,"id":24590},"arcs":[749]},{"type":"LineString","properties":{"source":"naturalearthdata.com","kind":"highway","kind_detail":"motorway","sort_rank":383,"landuse_kind":"urban_area","min_zoom":3.0,"id":24658},"arcs":[750]},{"type":"LineString","properties":{"source":"naturalearthdata.com","kind":"highway","sort_rank":383,"kind_detail":"motorway","min_zoom":3.0,"id":24658},"arcs":[751]},{"type":"LineString","properties":{"source":"naturalearthdata.com","kind":"highway","sort_rank":383,"kind_detail":"motorway","min_zoom":3.0,"id":24731},"arcs":[752]},{"type":"LineString","properties":{"source":"naturalearthdata.com","kind":"major_road","kind_detail":"secondary","sort_rank":379,"landuse_kind":"urban_area","min_zoom":3.0,"id":24732},"arcs":[753]},{"type":"LineString","properties":{"source":"naturalearthdata.com","kind":"major_road","sort_rank":379,"kind_detail":"secondary","min_zoom":3.0,"id":24732},"arcs":[754]},{"type":"LineString","properties":{"source":"naturalearthdata.com","kind":"major_road","sort_rank":379,"kind_detail":"secondary","min_zoom":3.0,"id":24738},"arcs":[755]},{"type":"LineString","properties":{"source":"naturalearthdata.com","kind":"major_road","sort_rank":379,"kind_detail":"secondary","min_zoom":3.0,"id":24745},"arcs":[756]},{"type":"LineString","properties":{"source":"naturalearthdata.com","kind":"major_road","sort_rank":379,"kind_detail":"secondary","min_zoom":4.0,"id":24866},"arcs":[757]},{"type":"LineString","properties":{"source":"naturalearthdata.com","kind":"highway","sort_rank":383,"kind_detail":"motorway","min_zoom":3.0,"id":24885},"arcs":[758]},{"type":"LineString","properties":{"source":"naturalearthdata.com","kind":"major_road","sort_rank":379,"kind_detail":"secondary","min_zoom":4.0,"id":25134},"arcs":[759]},{"type":"LineString","properties":{"source":"naturalearthdata.com","kind":"highway","sort_rank":383,"kind_detail":"motorway","min_zoom":3.0,"id":25211},"arcs":[760]},{"type":"LineString","properties":{"source":"naturalearthdata.com","kind":"highway","sort_rank":383,"kind_detail":"motorway","min_zoom":3.0,"id":25230},"arcs":[761]},{"type":"LineString","properties":{"source":"naturalearthdata.com","kind":"major_road","sort_rank":379,"kind_detail":"secondary","min_zoom":3.0,"id":25349},"arcs":[762]},{"type":"LineString","properties":{"source":"naturalearthdata.com","kind":"major_road","kind_detail":"secondary","sort_rank":379,"landuse_kind":"urban_area","min_zoom":4.0,"id":25361},"arcs":[763]},{"type":"LineString","properties":{"source":"naturalearthdata.com","kind":"major_road","sort_rank":379,"kind_detail":"secondary","min_zoom":4.0,"id":25361},"arcs":[764]},{"type":"LineString","properties":{"source":"naturalearthdata.com","kind":"major_road","kind_detail":"secondary","sort_rank":379,"landuse_kind":"urban_area","min_zoom":3.0,"id":25362},"arcs":[765]},{"type":"LineString","properties":{"source":"naturalearthdata.com","kind":"major_road","sort_rank":379,"kind_detail":"secondary","min_zoom":3.0,"id":25362},"arcs":[766]},{"type":"LineString","properties":{"source":"naturalearthdata.com","kind":"highway","kind_detail":"motorway","sort_rank":383,"landuse_kind":"urban_area","min_zoom":3.0,"id":25388},"arcs":[767]},{"type":"MultiLineString","properties":{"source":"naturalearthdata.com","kind":"highway","sort_rank":383,"kind_detail":"motorway","min_zoom":3.0,"id":25388},"arcs":[[768],[769]]},{"type":"LineString","properties":{"source":"naturalearthdata.com","kind":"major_road","kind_detail":"secondary","sort_rank":379,"landuse_kind":"urban_area","min_zoom":4.0,"id":25394},"arcs":[770]},{"type":"LineString","properties":{"source":"naturalearthdata.com","kind":"major_road","sort_rank":379,"kind_detail":"secondary","min_zoom":4.0,"id":25394},"arcs":[771]},{"type":"LineString","properties":{"source":"naturalearthdata.com","kind":"highway","kind_detail":"motorway","sort_rank":383,"landuse_kind":"urban_area","min_zoom":3.0,"id":25395},"arcs":[772]},{"type":"LineString","properties":{"source":"naturalearthdata.com","kind":"highway","sort_rank":383,"kind_detail":"motorway","min_zoom":3.0,"id":25395},"arcs":[773]},{"type":"LineString","properties":{"source":"naturalearthdata.com","kind":"major_road","kind_detail":"secondary","sort_rank":379,"landuse_kind":"urban_area","min_zoom":3.0,"id":25409},"arcs":[774]},{"type":"LineString","properties":{"source":"naturalearthdata.com","kind":"highway","kind_detail":"motorway","sort_rank":383,"landuse_kind":"urban_area","min_zoom":3.0,"id":25429},"arcs":[775]},{"type":"LineString","properties":{"source":"naturalearthdata.com","kind":"highway","sort_rank":383,"kind_detail":"motorway","min_zoom":3.0,"id":25429},"arcs":[776]},{"type":"LineString","properties":{"source":"naturalearthdata.com","kind":"highway","kind_detail":"motorway","sort_rank":383,"landuse_kind":"urban_area","min_zoom":3.0,"id":25487},"arcs":[777]},{"type":"LineString","properties":{"source":"naturalearthdata.com","kind":"highway","sort_rank":383,"kind_detail":"motorway","min_zoom":3.0,"id":25487},"arcs":[778]},{"type":"LineString","properties":{"source":"naturalearthdata.com","kind":"highway","kind_detail":"motorway","sort_rank":383,"landuse_kind":"urban_area","min_zoom":3.0,"id":25516},"arcs":[779]},{"type":"LineString","properties":{"source":"naturalearthdata.com","kind":"highway","kind_detail":"motorway","sort_rank":383,"landuse_kind":"urban_area","min_zoom":3.0,"id":25538},"arcs":[780]},{"type":"LineString","properties":{"source":"naturalearthdata.com","kind":"highway","sort_rank":383,"kind_detail":"motorway","min_zoom":3.0,"id":25538},"arcs":[781]},{"type":"LineString","properties":{"source":"naturalearthdata.com","kind":"highway","kind_detail":"motorway","sort_rank":383,"landuse_kind":"urban_area","min_zoom":3.0,"id":25540},"arcs":[782]},{"type":"LineString","properties":{"source":"naturalearthdata.com","kind":"highway","sort_rank":383,"kind_detail":"motorway","min_zoom":3.0,"id":25540},"arcs":[783]},{"type":"LineString","properties":{"source":"naturalearthdata.com","kind":"highway","kind_detail":"motorway","sort_rank":383,"landuse_kind":"urban_area","min_zoom":3.0,"id":25736},"arcs":[784]},{"type":"LineString","properties":{"source":"naturalearthdata.com","kind":"highway","kind_detail":"motorway","sort_rank":383,"landuse_kind":"urban_area","min_zoom":3.0,"id":25736},"arcs":[785]},{"type":"LineString","properties":{"source":"naturalearthdata.com","kind":"highway","sort_rank":383,"kind_detail":"motorway","min_zoom":3.0,"id":25736},"arcs":[786]},{"type":"LineString","properties":{"source":"naturalearthdata.com","kind":"major_road","kind_detail":"secondary","sort_rank":379,"landuse_kind":"urban_area","min_zoom":3.0,"id":25738},"arcs":[787]},{"type":"LineString","properties":{"source":"naturalearthdata.com","kind":"major_road","kind_detail":"secondary","sort_rank":379,"landuse_kind":"urban_area","min_zoom":3.0,"id":25739},"arcs":[788]},{"type":"LineString","properties":{"source":"naturalearthdata.com","kind":"major_road","kind_detail":"secondary","sort_rank":379,"landuse_kind":"urban_area","min_zoom":4.0,"id":25775},"arcs":[789]},{"type":"LineString","properties":{"source":"naturalearthdata.com","kind":"major_road","sort_rank":379,"kind_detail":"secondary","min_zoom":4.0,"id":25775},"arcs":[790]},{"type":"LineString","properties":{"source":"naturalearthdata.com","kind":"major_road","sort_rank":379,"kind_detail":"secondary","min_zoom":4.0,"id":25823},"arcs":[791]},{"type":"LineString","properties":{"source":"naturalearthdata.com","kind":"major_road","sort_rank":379,"kind_detail":"secondary","min_zoom":3.0,"id":25831},"arcs":[792]},{"type":"LineString","properties":{"source":"naturalearthdata.com","kind":"highway","kind_detail":"motorway","sort_rank":383,"landuse_kind":"urban_area","min_zoom":3.0,"id":25979},"arcs":[793]},{"type":"LineString","properties":{"source":"naturalearthdata.com","kind":"highway","sort_rank":383,"kind_detail":"motorway","min_zoom":3.0,"id":25979},"arcs":[794]},{"type":"LineString","properties":{"source":"naturalearthdata.com","kind":"highway","sort_rank":383,"kind_detail":"motorway","min_zoom":3.0,"id":26179},"arcs":[795]},{"type":"LineString","properties":{"source":"naturalearthdata.com","kind":"major_road","sort_rank":379,"kind_detail":"secondary","min_zoom":3.0,"id":26213},"arcs":[796]},{"type":"LineString","properties":{"source":"naturalearthdata.com","kind":"major_road","sort_rank":379,"kind_detail":"secondary","min_zoom":4.0,"id":26228},"arcs":[797]},{"type":"LineString","properties":{"source":"naturalearthdata.com","kind":"highway","kind_detail":"motorway","sort_rank":383,"landuse_kind":"urban_area","min_zoom":4.0,"id":26315},"arcs":[798]},{"type":"LineString","properties":{"source":"naturalearthdata.com","kind":"highway","kind_detail":"motorway","sort_rank":383,"landuse_kind":"urban_area","min_zoom":4.0,"id":26315},"arcs":[799]},{"type":"MultiLineString","properties":{"source":"naturalearthdata.com","kind":"highway","sort_rank":383,"kind_detail":"motorway","min_zoom":4.0,"id":26315},"arcs":[[800],[801]]},{"type":"LineString","properties":{"source":"naturalearthdata.com","kind":"major_road","sort_rank":379,"kind_detail":"secondary","min_zoom":3.0,"id":26364},"arcs":[802]},{"type":"LineString","properties":{"source":"naturalearthdata.com","kind":"major_road","sort_rank":379,"kind_detail":"secondary","min_zoom":4.0,"id":26372},"arcs":[803]},{"type":"LineString","properties":{"source":"naturalearthdata.com","kind":"major_road","kind_detail":"secondary","sort_rank":379,"landuse_kind":"urban_area","min_zoom":4.0,"id":26510},"arcs":[804]},{"type":"LineString","properties":{"source":"naturalearthdata.com","kind":"major_road","sort_rank":379,"kind_detail":"secondary","min_zoom":4.0,"id":26510},"arcs":[805]},{"type":"LineString","properties":{"source":"naturalearthdata.com","kind":"major_road","sort_rank":379,"kind_detail":"secondary","min_zoom":3.0,"id":26548},"arcs":[806]},{"type":"LineString","properties":{"source":"naturalearthdata.com","kind":"major_road","kind_detail":"secondary","sort_rank":379,"landuse_kind":"urban_area","min_zoom":4.0,"id":26742},"arcs":[807]},{"type":"LineString","properties":{"source":"naturalearthdata.com","kind":"major_road","sort_rank":379,"kind_detail":"secondary","min_zoom":4.0,"id":26742},"arcs":[808]},{"type":"LineString","properties":{"source":"naturalearthdata.com","kind":"major_road","sort_rank":379,"kind_detail":"secondary","min_zoom":4.0,"id":26777},"arcs":[809]},{"type":"LineString","properties":{"source":"naturalearthdata.com","kind":"major_road","sort_rank":379,"kind_detail":"secondary","min_zoom":4.0,"id":26782},"arcs":[810]},{"type":"LineString","properties":{"source":"naturalearthdata.com","kind":"major_road","sort_rank":379,"kind_detail":"secondary","min_zoom":4.0,"id":26783},"arcs":[811]},{"type":"LineString","properties":{"source":"naturalearthdata.com","kind":"highway","sort_rank":383,"kind_detail":"motorway","min_zoom":3.0,"id":26786},"arcs":[812]},{"type":"LineString","properties":{"source":"naturalearthdata.com","kind":"major_road","sort_rank":379,"kind_detail":"secondary","min_zoom":4.0,"id":26804},"arcs":[813]},{"type":"LineString","properties":{"source":"naturalearthdata.com","kind":"major_road","sort_rank":379,"kind_detail":"secondary","min_zoom":4.0,"id":26870},"arcs":[814]},{"type":"LineString","properties":{"source":"naturalearthdata.com","kind":"major_road","sort_rank":379,"kind_detail":"secondary","min_zoom":3.0,"id":26933},"arcs":[815]},{"type":"LineString","properties":{"source":"naturalearthdata.com","kind":"major_road","sort_rank":379,"kind_detail":"secondary","min_zoom":4.0,"id":26935},"arcs":[816]},{"type":"LineString","properties":{"source":"naturalearthdata.com","kind":"major_road","sort_rank":379,"kind_detail":"secondary","min_zoom":4.0,"id":26953},"arcs":[817]},{"type":"LineString","properties":{"source":"naturalearthdata.com","kind":"major_road","sort_rank":379,"kind_detail":"secondary","min_zoom":3.0,"id":26954},"arcs":[818]},{"type":"LineString","properties":{"source":"naturalearthdata.com","kind":"major_road","sort_rank":379,"kind_detail":"secondary","min_zoom":4.0,"id":27054},"arcs":[819]},{"type":"LineString","properties":{"source":"naturalearthdata.com","kind":"major_road","sort_rank":379,"kind_detail":"secondary","min_zoom":4.0,"id":27141},"arcs":[820]},{"type":"LineString","properties":{"source":"naturalearthdata.com","kind":"highway","sort_rank":383,"kind_detail":"motorway","min_zoom":3.0,"id":27364},"arcs":[821]},{"type":"LineString","properties":{"source":"naturalearthdata.com","kind":"major_road","sort_rank":379,"kind_detail":"secondary","min_zoom":3.0,"id":27396},"arcs":[822]},{"type":"LineString","properties":{"source":"naturalearthdata.com","kind":"major_road","sort_rank":379,"kind_detail":"secondary","min_zoom":4.0,"id":27463},"arcs":[823]}]},"earth":{"type":"GeometryCollection","geometries":[{"type":"MultiPolygon","properties":{"sort_rank":10,"source":"naturalearthdata.com","min_zoom":0.0,"kind":"earth","area":2788683916267},"arcs":[[[824]],[[825]]]}]},"landuse":{"type":"GeometryCollection","geometries":[{"type":"Polygon","properties":{"kind":"park","name":"Parc National Tazekka \u2d30\u2d3c\u2d54\u2d30\u2d33 \u2d30\u2d4f\u2d30\u2d4e\u2d53\u2d54 \u2d4f \u2d5c\u2d30\u2d63\u2d3d\u2d3d\u2d30","area":1142109952,"sort_rank":24,"source":"openstreetmap.org","min_zoom":4.0,"tier":2,"id":254666168},"arcs":[[826]]},{"type":"Polygon","properties":{"kind":"protected_area","name":"Monchique","area":1213440000,"sort_rank":17,"operator":"ICNF","source":"openstreetmap.org","min_zoom":4.0,"tier":2,"id":-6267477,"osm_relation":true,"protect_class":"97"},"arcs":[[827]]},{"type":"Polygon","properties":{"kind":"nature_reserve","name":"Parque Natural da Serra da Estrela","area":1539059968,"sort_rank":23,"operator":"ICNF","source":"openstreetmap.org","min_zoom":4.0,"tier":2,"id":-1710244,"osm_relation":true,"protect_class":"2"},"arcs":[[828]]},{"type":"Polygon","properties":{"kind":"park","name":"Parque Natural de la Sierra de Cazorla, Segura y las Villas","area":3390850048,"sort_rank":24,"source":"openstreetmap.org","min_zoom":4.0,"tier":2,"id":-2320941,"osm_relation":true},"arcs":[[829]]},{"type":"Polygon","properties":{"kind":"national_park","name":"Parque Natural da Serra de S\u00e3o Mamede","area":938145024,"sort_rank":18,"source":"openstreetmap.org","min_zoom":3.0,"tier":1,"id":-544420,"osm_relation":true,"protect_class":"2"},"arcs":[[830]]},{"type":"Polygon","properties":{"kind":"nature_reserve","name":"Parque Natural Sierra de And\u00fajar","area":1210070016,"sort_rank":23,"source":"openstreetmap.org","min_zoom":4.0,"tier":2,"id":373769670},"arcs":[[831]]},{"type":"Polygon","properties":{"kind":"park","name":"Parc National du Haut Atlas Oriental \u2d30\u2d3c\u2d54\u2d30\u2d33 \u2d30\u2d4f\u2d30\u2d4e\u2d53\u2d54 \u2d4f \u2d30\u2d5f\u2d4d\u2d30\u2d59 \u2d4e\u2d47\u2d47\u2d53\u2d55\u2d4f \u2d30\u2d33\u2d4e\u2d53\u2d39\u2d30\u2d4f","area":2004409984,"sort_rank":24,"source":"openstreetmap.org","min_zoom":4.0,"tier":2,"id":396277232},"arcs":[[832]]},{"type":"Polygon","properties":{"kind":"protected_area","name":"Zona Perif\u00e9rica de Protecci\u00f3n del Parque Nacional de la Sierra de Guadarrama","area":1698720000,"sort_rank":17,"source":"openstreetmap.org","min_zoom":4.0,"tier":2,"id":-3124542,"osm_relation":true,"protect_class":"6"},"arcs":[[833],[834]]},{"type":"MultiPolygon","properties":{"source":"naturalearthdata.com","kind":"urban_area","name":"","area":17744671065,"sort_rank":11,"min_zoom":4.0},"arcs":[[[835]],[[836]],[[837]],[[838]],[[839]],[[840]],[[841]],[[842]],[[843]],[[844]],[[845]],[[846]],[[847]],[[848]],[[849]],[[850]],[[851]],[[852]],[[853]],[[854]],[[855]],[[856]],[[857]],[[858]],[[859]],[[860]],[[861]],[[862]],[[863]],[[864]]]},{"type":"Polygon","properties":{"kind":"park","name":"Parc national de Kh\u00e9nifra \u2d30\u2d3c\u2d54\u2d30\u2d33 \u2d30\u2d4f\u2d30\u2d4e\u2d53\u2d54 \u2d4f \u2d45\u2d4f\u2d49\u2d3c\u2d55\u2d30","area":1600749952,"sort_rank":24,"source":"openstreetmap.org","min_zoom":4.0,"tier":2,"id":396284871},"arcs":[[865]]},{"type":"Polygon","properties":{"kind":"protected_area","name":"Malcata","area":1368679936,"sort_rank":17,"operator":"ICNF","source":"openstreetmap.org","min_zoom":4.0,"tier":2,"id":-6800904,"osm_relation":true,"protect_class":"97"},"arcs":[[866]]},{"type":"Polygon","properties":{"kind":"nature_reserve","name":"Parque Nacional de Sierra Nevada","area":1351619968,"sort_rank":23,"source":"openstreetmap.org","min_zoom":4.0,"tier":2,"id":-4829086,"osm_relation":true,"protect_class":"2"},"arcs":[[867]]},{"type":"Polygon","properties":{"kind":"nature_reserve","name":"Parque Natural Sierra de Aracena y Picos de Aroche","area":2982370048,"sort_rank":23,"source":"openstreetmap.org","min_zoom":4.0,"tier":2,"id":-7429690,"osm_relation":true},"arcs":[[868]]},{"type":"Polygon","properties":{"kind":"nature_reserve","name":"Parque Natural Sierra Norte de Sevilla","area":2879290112,"sort_rank":23,"source":"openstreetmap.org","min_zoom":4.0,"tier":2,"id":374744016},"arcs":[[869]]},{"type":"Polygon","properties":{"kind":"nature_reserve","name":"Parque Natural do Vale do Guadiana","area":1114669952,"sort_rank":23,"source":"openstreetmap.org","min_zoom":4.0,"tier":2,"id":-4574570,"osm_relation":true,"protect_class":"2"},"arcs":[[870]]},{"type":"Polygon","properties":{"kind":"nature_reserve","name":"Parque Natural do Douro Internacional","area":1541830016,"sort_rank":23,"operator":"INCF","source":"openstreetmap.org","min_zoom":4.0,"tier":2,"id":-5674125,"osm_relation":true,"protect_class":"2"},"arcs":[[871]]},{"type":"Polygon","properties":{"kind":"nature_reserve","name":"Parque Natural do Sudoeste Alentejano e Costa Vicentina","area":1422710016,"sort_rank":23,"source":"openstreetmap.org","min_zoom":4.0,"tier":2,"id":-1380917,"osm_relation":true,"protect_class":"5"},"arcs":[[872]]}]}},"type":"Topology","transform":{"translate":[-11.25,31.952162238],"scale":[0.002746582,0.0022040371]},"arcs":[[[2152,1767],[-9,8],[-5,8],[-4,9],[-4,10]],[[3024,1504],[-7,9],[-1,12],[7,7]],[[3035,1508],[-11,-4]],[[2145,1901],[7,0]],[[1578,3767],[7,0],[7,5],[1,2],[0,4],[0,4],[2,3],[2,3],[16,11],[3,3],[6,11],[-12,11],[-8,13],[-3,15],[7,16],[9,11],[1,6],[-2,8],[-4,6],[-4,4],[-3,5],[-1,8],[2,7],[8,14],[3,8],[0,6],[-1,8],[-3,15],[-4,15],[-1,6],[0,9],[1,4],[1,3],[0,2],[-1,5],[-1,3],[1,12],[6,1],[1,6],[-2,6],[-3,3],[-6,1],[-3,4],[-3,10],[-8,18],[-5,8],[-6,6]],[[1571,3767],[7,0]],[[1481,3504],[53,6],[6,3],[4,9],[-1,4],[-1,3],[1,4],[1,4],[5,8],[1,4],[-1,4],[-1,4],[-1,5],[3,6],[3,2],[8,4],[4,2],[9,13],[1,4],[0,8],[1,4],[0,2],[-1,5],[0,2],[1,2],[3,3],[1,2],[2,11],[2,4],[-1,5],[2,5],[6,10],[-14,25],[-9,10],[-5,7],[-3,3],[-4,2],[-10,1],[-4,1],[-5,7],[-2,15],[-3,7],[3,5],[3,11],[4,4],[6,3],[16,9],[4,1],[3,0]],[[1462,3509],[7,-5],[12,0]],[[1455,3507],[7,2]],[[1441,3508],[14,-1]],[[1423,3503],[5,1],[6,2],[7,2]],[[1344,3506],[79,-3]],[[1501,3242],[-6,1],[-5,3],[-4,3],[0,4],[4,9],[1,4],[-5,9],[-8,4],[-10,3],[-10,4],[-5,8],[-2,9],[0,9],[5,8],[-18,22],[-7,5],[-3,6],[-1,9],[0,10],[1,7],[3,6],[2,11],[0,9],[-2,5],[-16,4],[-7,3],[-6,5],[-4,10],[-3,4],[-12,6],[-6,5],[-11,14],[-6,6],[-12,32],[-3,6],[-1,1]],[[1449,3024],[-1,4],[-2,1],[-3,2],[-2,3],[0,3],[0,5],[0,10],[3,16],[1,3],[3,6],[1,2],[16,13],[5,4],[6,2],[6,5],[5,6],[2,4],[3,3],[17,3],[6,3],[5,5],[4,3],[3,2],[0,6],[1,8],[-5,8],[8,7],[8,11],[13,23],[3,4],[2,5],[0,4],[-5,3],[3,8],[-2,9],[-6,8],[-5,6],[-9,5],[-9,3]],[[1524,3250],[-10,-1],[-9,-5],[-4,-2]],[[3180,82],[50,-3],[23,-1],[26,-1],[29,-2],[30,-1],[31,-2],[32,-1],[32,-2],[32,-1],[29,-2],[28,-1],[26,-2],[22,-1],[18,-1],[14,0],[9,-1],[3,0],[27,-1]],[[3042,0],[-16,44],[21,12],[68,6],[65,20]],[[3641,59],[14,3]],[[3627,90],[-6,0],[-2,8],[2,3],[6,5],[2,2],[2,5],[1,4],[0,3],[0,6],[6,41],[5,17],[4,8],[6,8],[5,3],[16,2],[13,6],[12,10],[21,25],[-5,10],[-102,83],[-23,9],[-12,11],[-50,86],[16,12],[3,3],[2,4],[1,4],[1,5],[1,10],[0,10],[-2,10],[-6,6],[-11,8],[-9,9],[-8,11],[-5,15],[-6,13],[-19,18],[-3,15],[0,45],[4,11],[5,12],[7,25],[5,9],[5,12],[-2,15],[-16,41],[-4,5],[-7,5],[-12,5],[-6,4],[-2,7],[2,7],[3,5],[4,4],[4,4],[3,7],[0,5],[-4,13],[-3,23],[1,21],[17,73],[1,9],[-1,6],[-1,6],[-26,84],[-9,20],[-14,17],[39,49],[-4,2],[-13,4],[-44,47],[3,8],[19,30],[9,20],[4,4],[2,3],[-7,7],[-38,25],[-12,12],[-20,13],[-5,6],[-2,6],[0,6],[-1,6],[-5,3],[-16,2],[-13,8],[-11,11],[-14,10],[-11,4],[-6,9],[-4,13],[0,17]],[[3655,62],[8,17],[-2,9],[-6,6],[-8,2]],[[3647,96],[-7,0],[-13,-6]],[[1515,2823],[-5,0],[-5,4],[-4,4],[-14,36],[-2,2],[-7,5],[-2,3],[-2,2],[-2,6],[-2,3],[-38,49],[-10,7],[-5,3],[5,5],[3,5],[1,5],[-4,6],[3,6],[7,22]],[[1529,2753],[10,1],[3,11],[3,6],[3,14],[7,13],[5,16],[3,6],[3,13],[-1,1],[-5,4]],[[1560,2838],[-10,-1],[-9,-3]],[[1541,2834],[-1,0],[-2,1]],[[1538,2835],[-5,-7],[-9,-3],[-9,-2]],[[1503,2762],[6,0],[20,-9]],[[1480,2739],[4,2],[5,2],[3,1],[4,5],[3,10],[4,3]],[[1466,2741],[5,0],[4,-2],[5,0]],[[1355,2542],[0,1],[0,5],[1,1],[4,5],[0,2],[1,2],[0,2],[-1,3],[4,2],[9,11],[3,3],[2,7],[3,22],[5,14],[6,9],[34,28],[10,17],[4,16],[8,21],[2,8],[-1,5],[-1,4],[0,4],[3,2],[11,3],[4,2]],[[1396,2378],[-5,20],[-2,10],[3,7],[-4,15],[-3,36],[-6,14],[1,5],[-1,10],[-2,11],[-3,9],[-2,2],[-6,5],[-3,3],[-3,5],[-1,3],[0,3],[-2,6]],[[1357,2542],[-2,0]],[[1432,2996],[15,22],[2,6]],[[3679,3639],[-6,18]],[[2381,3777],[4,-1],[2,-2],[-1,-4],[1,-3],[1,-3],[2,-11],[1,-3],[1,-3],[3,-2],[7,-3],[5,-1]],[[2356,3772],[17,2],[8,3]],[[2348,3772],[8,0]],[[2280,3703],[8,2],[5,2],[8,5],[3,3],[1,3],[2,3],[1,4],[3,5],[3,4],[7,3],[4,4],[8,4],[6,5],[4,6],[1,4],[0,3],[2,7],[2,2]],[[2407,3741],[5,0],[8,2],[11,5]],[[2268,3722],[2,-2],[3,-13],[1,-2],[6,-2]],[[2215,3692],[6,1],[3,1],[2,2],[2,2],[15,11],[1,2],[3,3],[3,3],[4,2],[10,3],[4,0]],[[2156,3704],[36,-4],[10,-5],[4,-3],[9,0]],[[3601,3658],[-4,1],[-3,2],[-10,29],[-1,6],[-1,3],[-2,2],[-9,5],[-2,2],[-2,3],[2,8]],[[3643,3650],[-5,1],[-10,3],[-23,4]],[[3605,3658],[-4,0]],[[3673,3657],[-7,-2],[-2,-1],[-7,-1],[-6,-1],[-4,0],[-1,-1],[-3,-1]],[[2206,1254],[4,-15],[1,-23],[-3,-14],[-4,-11],[-8,-8],[-11,-5],[-8,-8],[-19,-16],[-10,-17],[-43,-32],[-8,-8],[2,-7],[2,-4],[4,-4],[17,-26]],[[2846,519],[41,3],[104,21],[21,12],[19,16],[-5,26],[-16,34],[-39,44],[-45,33],[-9,14],[7,12],[39,39],[19,28],[3,17],[-7,7],[-12,7]],[[2825,522],[21,-3]],[[2640,302],[7,19],[9,16],[17,26],[17,32],[67,94],[29,26],[19,5],[20,2]],[[2539,3966],[7,-14],[-24,-2]],[[2500,2416],[4,-28],[17,-6],[2,-7]],[[2443,2386],[22,13],[13,17],[22,0]],[[2402,2406],[14,0],[7,-15],[20,-5]],[[2581,3963],[-9,4],[-22,2]],[[2550,3969],[-5,-1],[-6,-2]],[[2539,3966],[-8,1]],[[2531,3967],[-7,-6],[-2,-11]],[[2366,3387],[-5,8],[8,19],[-1,7],[-3,5],[-7,7],[-32,17]],[[2326,3450],[-4,-2],[-10,-16],[-16,-56]],[[1656,2786],[-17,0],[-10,4],[-5,2],[-4,1],[-4,2],[-1,3],[1,3],[2,6],[2,3],[2,3],[1,3],[0,3],[-2,3],[-50,17]],[[1730,2751],[-9,3],[-18,1],[-2,2],[-1,3],[1,3],[-1,4],[-1,3],[-7,9],[-5,4],[-5,2],[-5,2],[-12,1]],[[1665,2788],[-9,-2]],[[1845,2716],[-6,6],[-48,20],[-9,2],[-1,3],[-1,3],[-1,4],[-3,4],[-15,10],[-4,2],[-4,0]],[[1753,2770],[-3,-1],[-2,-2],[-2,-2],[-2,-3],[-5,-5],[-2,-2],[-1,-2],[-1,-2],[-5,0]],[[1943,3779],[-4,0],[-10,4],[-13,6],[-5,4],[-3,3],[-5,4],[-8,5],[-13,4],[-4,3],[-2,2],[3,1],[1,2],[1,4],[0,1],[2,2],[1,2],[0,2],[2,3],[0,2],[-2,2],[-7,3],[-5,2],[-3,3],[0,2],[0,3],[-7,2],[-4,2],[-6,6],[-3,3],[-13,7],[-6,1]],[[1830,3869],[-5,0],[-3,-2],[-13,-9],[-4,-2],[-5,-1],[-6,-1],[-4,-2],[-3,-3],[-3,-2],[-2,-3],[-1,-3],[-2,-3],[-3,-3],[-11,-2],[-4,-1],[-3,-2],[-8,-8],[-13,-5],[-3,-1],[-7,-3],[-3,-2],[-12,-8],[-2,-3],[-2,-3],[0,-3],[2,-6],[0,-3],[-1,-3],[-2,-3],[-3,-2],[-6,-2],[-25,-5],[-5,-1],[-3,-3],[-4,-1]],[[1998,3780],[-8,1],[-2,2],[-1,3],[3,5],[1,3],[0,4],[-1,4],[-4,4],[-3,1]],[[1983,3807],[-4,-1],[-7,-4],[-12,-3],[-3,-2],[-3,-2],[-1,-2],[-1,-3],[-1,-4],[-2,-3],[-2,-3],[-4,-1]],[[2011,3785],[-13,-5]],[[1618,3762],[-3,0],[-4,1],[-3,2],[-4,2],[-6,8],[-5,3]],[[1661,3765],[-4,0],[-7,4]],[[1650,3769],[-3,0],[-12,-7]],[[1635,3762],[-7,1],[-2,1]],[[1626,3764],[-4,0],[-4,-2]],[[3240,2755],[-4,0],[-38,11],[-29,15]],[[3245,2756],[-5,-1]],[[3549,3389]],[[3438,3834]],[[1648,1012]],[[1179,687]],[[1827,2246],[-20,6],[-10,-3],[-6,-5]],[[1790,2245],[-2,2]],[[3812,2673],[-3,0],[-1,1],[-2,2],[-3,3],[-3,2],[-6,1],[-3,2],[-16,16],[-3,2],[-10,12],[-2,3],[-4,9],[-5,8],[-3,3],[-4,7],[-6,12],[-7,12],[-2,2],[-2,2],[-2,3],[-3,5],[-1,8],[-1,9],[2,8],[2,5],[10,16],[3,7],[1,3],[2,14],[2,4],[1,7],[0,6],[-5,18],[-4,6],[-2,2],[-4,3],[-14,4],[-7,1],[-3,2],[-2,4],[-1,7],[0,19],[1,7],[2,5],[3,3],[14,12],[2,3],[2,4],[1,3],[-1,11],[1,7],[4,12],[0,12],[-6,29]],[[3819,2674]],[[3819,2674],[-7,-1]],[[3668,3086],[4,-1],[13,-4],[3,-1],[2,-3],[1,-3],[0,-3],[1,-3],[2,-3],[10,-9],[20,-15]],[[3606,3055],[4,1],[21,11],[9,9],[3,3],[4,2],[21,5]],[[3597,3063],[3,-1],[2,-2],[1,-3],[3,-2]],[[3500,2885],[4,0],[21,7],[27,21],[3,4],[2,3],[0,4],[1,3],[0,4],[-2,11],[0,7],[-1,14],[-1,8],[-2,6],[-2,3],[0,1],[-1,3],[0,3],[1,2],[1,3],[4,7],[4,4],[4,2],[2,3],[2,4],[0,6],[0,4],[1,7],[6,13],[11,13],[6,5],[6,3]],[[3461,2917],[3,-1],[4,-2],[2,-2]],[[3373,2871],[10,3],[12,2],[5,2],[9,5],[14,10],[19,12],[1,2],[0,3],[1,0],[2,1],[4,1],[3,2],[2,2],[4,1],[2,0]],[[3476,2914],[3,-1],[1,-1],[2,-2],[1,-2],[1,-2],[0,-2],[-1,-2],[-1,-3],[1,-2],[1,-3],[1,-2],[2,-2],[2,-1],[5,-2],[3,-1],[3,-1]],[[3470,2912],[6,2]],[[3356,2880],[3,0],[3,-2],[6,-6],[2,-1],[3,0]],[[3245,2756],[5,16],[2,3],[14,16],[11,15],[10,21],[4,6],[10,10],[5,3],[4,1],[7,1],[4,3],[16,14],[9,11],[6,3],[4,1]],[[2156,3704],[-11,-5],[-1,-2],[-1,-3],[-2,-12],[-1,-4],[1,-5],[-2,-24],[-6,-34],[0,-12],[2,-6]],[[2155,3601],[3,-1],[4,-1],[2,-2],[3,-3],[2,-3],[1,-2],[0,-3],[-1,-3],[-4,-6],[-1,-4],[-1,-6],[-1,-5],[-1,-4],[-1,-10],[1,-4],[2,-2],[13,-3],[5,0]],[[2135,3597],[3,2],[7,1],[10,1]],[[2209,3559],[3,0],[2,-2],[2,-3],[2,-6],[0,-4],[-3,-7],[1,-3],[5,-6],[3,-3],[0,-4],[0,-4],[-2,-3],[-1,-6],[-1,-9],[-1,-3],[-1,-4],[-1,-2],[-4,-6],[-1,-3],[-3,-3],[-1,-3],[-4,-5],[-1,-3],[1,-3],[2,-2],[3,-2],[6,-4],[3,-2],[13,-17],[8,-8],[5,-4],[3,-4],[5,-3],[7,-2],[2,-1],[6,-9],[10,-12],[4,-5],[5,-5],[2,-2],[4,-3],[4,-3]],[[2181,3539],[2,1],[2,1],[4,7],[3,3],[8,6],[2,1],[7,1]],[[3673,3657],[8,2],[18,8],[2,2],[2,3],[1,3],[0,3],[-1,3],[-5,5],[-12,10],[-9,5],[-23,3],[-8,3],[-2,3],[-1,3],[0,2],[-1,2],[-1,2],[-3,1],[-3,2],[-2,3],[-2,3],[-3,7],[-2,6],[-1,2],[-3,1]],[[3622,3744],[-4,-4],[-3,-4],[0,-3],[1,-7],[0,-4],[-2,-3],[-7,-3],[-8,-1]],[[3599,3715],[-11,0],[-19,4]],[[2206,1254],[22,23],[30,12],[27,3],[19,8],[14,8],[19,5],[9,8],[7,1],[15,16],[17,9],[5,7],[7,5],[8,1],[11,2],[13,4],[14,12],[13,14],[10,14],[5,13],[-5,10],[0,12],[-7,5],[0,16],[0,3]],[[2805,1198],[-18,17],[-10,6],[-4,9],[0,9],[3,9],[6,7],[0,10],[3,13],[2,12],[-6,21],[-29,10],[-14,4],[-19,13],[-10,14],[-5,89],[3,16],[-2,16],[-1,4]],[[3018,1206],[4,5],[-4,9],[-2,9],[-1,11],[-6,10],[-78,32]],[[2931,1282],[-26,-2],[-13,-11],[-8,-13],[-13,-15],[-53,-43],[-13,0]],[[3004,1209],[8,-1],[6,-2]],[[2966,832],[-33,73],[-6,22],[3,14],[34,16],[9,16],[5,22],[-9,26],[-5,25],[-23,32],[-9,16],[1,13],[0,4],[3,6],[6,6],[26,18],[3,4],[0,4],[2,3],[4,2],[1,1],[1,4],[1,1],[9,31],[0,8],[6,7],[9,3]],[[2640,302],[22,-36],[10,-21],[24,-37],[16,-34],[5,-23],[15,-10],[4,-19],[14,-15],[4,-16],[10,-5]],[[2826,106],[17,-5],[13,-6],[16,-4]],[[2764,86],[21,5],[16,7],[10,8],[15,0]],[[2906,96],[14,-4],[-7,-23],[0,-38],[3,-29],[1,-2]],[[2872,91],[17,4],[17,1]],[[1709,561],[-21,11],[-43,14],[-16,8],[-11,10],[-5,21],[4,37],[3,5],[0,9],[-6,11],[3,13],[5,8],[4,10],[-1,8],[-15,4],[-10,5],[-34,13],[-11,6],[-12,29],[-3,16],[-6,17],[-8,15],[-7,5],[-13,17],[-1,1]],[[1759,584],[-31,-19],[-19,-4]],[[1336,640],[5,3],[6,4],[12,19],[33,24],[12,24],[0,12],[-2,9],[0,7],[0,8],[2,13],[2,8],[8,11],[2,10],[5,6],[2,8],[0,1]],[[1225,706],[9,-6],[18,-3],[10,-5],[13,-3],[24,-13]],[[1310,678],[22,0],[5,-6],[-12,-13],[-1,-10],[4,-6],[8,-3]],[[1299,676],[11,2]],[[1896,382],[-8,-15],[-10,-6],[-45,-15],[-28,-6]],[[1805,340],[-104,9]],[[1701,349],[-12,-7],[-11,-3],[-7,-7]],[[1671,332],[-7,2],[-9,1],[-8,2],[-22,0]],[[1625,337],[-19,-3]],[[1606,334],[-7,1]],[[1599,335],[-32,-20],[-12,-3],[-6,-14],[-11,-49],[-16,-43],[-21,-27]],[[1187,400],[-4,15],[-5,4],[-7,2],[-4,8],[-3,7],[0,10],[-4,10],[0,17],[-4,40],[-16,39],[5,11],[5,9],[10,5],[10,4],[6,6],[2,6],[4,8],[7,7],[6,19],[0,22],[-4,15],[-11,22],[-1,1]],[[2237,1054],[-4,3],[-7,9],[-7,4],[-7,0]],[[2212,1070],[-7,-2],[-33,-14],[-13,-3]],[[2299,1049],[-3,0],[-4,4],[-3,5],[-4,3],[-6,1]],[[2279,1062],[-30,-1]],[[2249,1061],[-3,0]],[[2246,1061],[-3,0],[-6,-7]],[[2159,1051],[-23,1],[-7,1],[-7,3]],[[2321,1029],[-5,5],[-2,3],[-2,5],[0,2],[-4,6]],[[2308,1050],[-2,-1],[-7,0]],[[2466,885],[-21,14],[-9,9],[1,11],[-3,14],[-12,12],[-20,9],[-25,15],[-11,14],[-11,21],[-9,13],[-13,12]],[[2333,1029],[-12,0]],[[2649,719],[-10,4],[-9,1],[-9,5],[-8,6],[-4,12],[3,13],[-2,19],[6,18],[-16,26],[-9,19],[-19,28],[-2,9],[2,7],[-7,4]],[[2565,890],[-14,-1],[-13,-6]],[[2966,832],[-87,24],[-14,8],[-7,10],[-9,8],[-13,5],[-14,0]],[[2822,887],[-14,-9],[-14,-13],[-42,-49],[-6,-5],[-5,-7],[-28,-36],[-5,-10],[-2,-10],[2,-12],[-14,-26],[-5,-2]],[[2538,883],[-19,3],[-10,0]],[[2509,886],[-6,-4]],[[2503,882],[-26,4]],[[2477,886],[-11,-1]],[[2689,708],[-2,7],[-6,11],[-8,1]],[[2673,727],[-24,-8]],[[1971,624],[11,4],[7,6],[-4,7],[-3,8],[0,8],[0,12],[0,10],[2,12],[-1,12],[5,14],[1,15],[-1,15],[0,10],[8,25],[10,20],[6,31],[-4,11],[-7,8],[-3,9],[-6,8],[-3,8],[10,32],[-4,11],[-9,11],[-6,11],[-1,10],[-8,17],[-4,6],[-14,7]],[[1792,691],[10,-1],[24,-9],[8,-7],[0,-9],[2,-9],[-1,-8],[5,-7],[17,-6],[9,-2],[10,-3],[6,-5],[21,-6]],[[1759,584],[9,13],[-3,21],[-2,9],[2,13],[1,9],[11,23],[6,16],[9,3]],[[1930,626],[41,-2]],[[1903,619],[9,0],[8,5],[10,2]],[[2068,988],[37,16],[7,6],[1,8],[-3,8],[12,30]],[[1988,1025],[17,-9],[5,-7],[7,-5],[3,-10],[8,-4],[12,-2]],[[1953,982],[9,14],[11,9],[5,10],[6,5],[4,5]],[[2055,989],[13,-1]],[[2040,988],[15,1]],[[1896,382],[52,-23],[45,-45],[45,-19],[47,-33],[31,-10],[-1,-6],[-13,-11],[-11,-14],[-7,-22],[8,-17],[2,-16],[11,-25],[-3,-8],[-29,-1],[-14,-5],[-16,-8],[-40,-33],[-26,-18],[-12,-20],[-2,-20],[11,-13],[5,-15]],[[2122,1056],[16,-23],[9,-14],[5,-16],[3,-16],[1,-12],[5,-5]],[[2185,979],[5,-10],[16,-39],[31,-57],[7,-18],[-6,-11],[-18,-29],[2,-14],[10,-11],[52,-12],[16,-13],[10,-20],[3,-24],[-30,-37],[-5,-19],[47,-132],[30,-47],[7,-18],[3,-15],[13,-11],[29,-9],[30,-2],[23,-8],[35,-37],[35,-53],[8,-15],[15,-11],[18,-7]],[[2161,970],[10,1],[6,5],[8,3]],[[2601,303],[14,-3]],[[2571,300],[30,3]],[[2615,300],[25,2]],[[2036,8],[14,-8]],[[2012,0],[24,8]],[[1896,382],[0,19],[2,10],[-7,18],[-11,6],[-18,0],[-6,7],[1,17],[3,9],[3,13],[-25,30],[-44,33],[-14,7],[-15,13],[-6,20]],[[1709,984],[-12,4],[-14,3],[-13,9],[-9,0],[-13,12]],[[1793,1003],[-14,3]],[[1779,1006],[-12,-5]],[[1922,976],[-17,2],[-19,4],[-23,12],[-25,7],[-27,2]],[[1811,1003],[-18,0]],[[1767,1001],[-15,1]],[[1752,1002],[-16,-11],[-16,-3],[-11,-4]],[[1953,982],[-11,-5]],[[1942,977],[-9,1]],[[1933,978],[-11,-2]],[[2063,1300],[-8,2],[-10,1],[-23,26],[-21,14],[-10,8],[-13,5],[-36,7],[-15,5],[-14,7],[-13,1],[-11,2],[-9,4],[-10,5]],[[1870,1387],[-7,0],[-19,-5]],[[1844,1382],[-21,2]],[[1823,1384],[-2,-1]],[[2148,1253],[-11,6],[-14,5],[-11,13],[-15,13],[-8,11],[-10,3]],[[2079,1304],[-16,-4]],[[2206,1254],[-18,4]],[[2188,1258],[-24,-1],[-16,-4]],[[1529,0],[-3,12],[-14,39],[-6,40],[2,30],[-2,22],[2,17],[-7,19]],[[1187,400],[-15,-10],[-7,-11],[-9,-43],[1,-24],[-7,-26],[-19,-24],[-20,-18],[-17,-10],[-17,-15],[-15,-7],[-15,-14],[-13,-9],[-15,-15],[1,-21],[9,-21],[12,-19],[41,-26],[5,-15],[-4,-25],[-21,-30],[-8,-17]],[[1187,400],[8,-14],[21,-30],[14,-15],[15,-10],[29,-25],[38,-55],[9,-7],[7,-2],[10,-3],[47,-2],[27,-7],[13,-12],[13,-7],[38,-28],[25,-4]],[[1594,3371],[-6,1],[-59,24]],[[1529,3396],[-6,-10],[12,-7],[2,-2],[2,-3],[1,-3],[-1,-4],[-6,-24],[-2,-2],[-3,-2]],[[2255,3363],[-10,12],[-5,3]],[[2240,3378],[-6,-5],[-1,-4],[1,-9],[-1,-5],[-2,-3],[-7,-6],[-14,-8]],[[2296,3376],[-18,-10],[-23,-3]],[[1664,3278],[-33,6],[-3,4],[-8,18],[14,18],[4,11],[-3,12],[-8,6],[-7,16],[-5,5],[-7,0]],[[1608,3374],[-14,-3]],[[1528,3339],[-7,2],[-2,9],[2,20],[-9,2]],[[1512,3372],[-8,-2],[-15,-8],[-1,-2],[-2,-5],[-1,-2],[1,-3],[4,-5],[1,-3],[-1,-2],[-17,-22]],[[2210,3338],[-24,0],[-27,9]],[[2159,3347],[-7,-2],[-3,-10],[-3,-18],[1,-3],[2,-6],[1,-3],[-1,-4],[-9,-15],[-9,-10],[-5,-4],[-12,-2]],[[1473,3318],[-17,2]],[[2114,3270],[-9,5],[-18,18],[-9,2]],[[2078,3295],[-9,-2],[-17,-10],[2,-1],[11,-17],[0,-5],[-4,-9],[-5,-5],[-4,-2]],[[1709,3267],[-4,2],[-1,1],[-2,1],[0,2],[-1,4],[-1,2],[-2,1],[-27,8]],[[1671,3288],[-7,-10]],[[1840,3225],[-3,0],[-3,3],[-7,10],[-6,5],[-17,0],[-6,7],[-2,7],[-1,24]],[[1795,3281],[-19,-9]],[[1776,3272],[-57,5]],[[1719,3277],[-2,-3],[-4,-6],[-4,-1]],[[2024,3235],[-28,25],[-16,3]],[[1980,3263],[-6,-11],[-11,-8],[-24,-9]],[[1910,3226],[-2,2],[-1,1],[-3,27]],[[1904,3256],[-25,-20],[-19,-24]],[[1939,3235],[-6,12]],[[1933,3247],[-16,-20],[-7,-1]],[[2052,3244],[-12,0]],[[2040,3244],[-16,-9]],[[1860,3212],[-10,12],[-2,1]],[[1848,3225],[-8,0]],[[3098,3342],[7,-22],[-44,-61],[12,-23],[1,-7],[0,-7],[-27,-49],[0,-6],[4,-9],[8,-3]],[[3077,3156],[13,-12],[5,-32],[6,-10],[19,-5],[11,-16],[2,-8],[0,-8],[-9,-26],[-4,-7],[-17,-5],[-5,-4],[-4,-4],[-5,-15],[7,-12],[-3,-6]],[[3059,3155],[18,1]],[[3549,3389],[-86,-46],[-11,-18]],[[3371,3331],[-14,20],[3,6],[-25,4]],[[3335,3361],[15,-42]],[[3232,3303],[-50,50]],[[3182,3353],[-7,-7],[-14,0]],[[3161,3346],[-19,6]],[[3142,3352],[-15,-8],[-29,-2]],[[3452,3325],[-28,3],[-15,8]],[[3409,3336],[-38,-5]],[[3263,3301],[-12,25]],[[3251,3326],[-10,-2],[-9,-21]],[[3350,3319],[-43,6]],[[3307,3325],[-44,-24]],[[3047,3357],[-6,7],[10,11],[-13,18],[-9,19]],[[3098,3342],[-17,36]],[[3081,3378],[-16,-19],[-18,-2]],[[2239,4096],[-1,-3],[-9,-9],[6,-18],[-19,-21],[2,-17],[-1,-5],[-7,-12],[-14,-9],[-9,-15],[-44,-30],[-8,-24],[-10,-10],[-12,-5],[-24,-2]],[[2089,3916],[-2,0]],[[2087,3916],[2,-16],[28,0],[-9,-31],[-3,-5],[-4,-4],[-13,-2],[2,-12],[-4,-4],[-5,-1]],[[2081,3841],[-5,4],[-9,10],[-1,8],[-2,3],[-3,0]],[[2061,3866],[-10,-2],[-26,-20],[-2,-5],[0,-4],[5,-9],[2,-6],[0,-6],[-2,-5],[-17,-24]],[[2612,2473],[27,0]],[[2577,2448],[6,1],[7,4],[15,17],[7,3]],[[2563,2450],[14,-2]],[[2523,2375],[24,19],[-3,14],[9,17],[1,14],[4,7],[3,3],[2,1]],[[3291,2706],[-22,-16],[-3,-3],[-2,-4],[-2,-20],[3,-26],[-2,-8],[-9,-14],[-3,-8],[2,-34],[-22,-5],[6,-41],[-48,-15],[-55,-48],[-2,-6],[-2,-26],[-1,-4],[-3,-6],[-1,-3],[2,-33]],[[3127,2386],[-18,8],[-17,2],[-5,2],[-8,12],[-4,2],[-11,2]],[[3064,2414],[-4,0],[-3,-3],[-2,-2],[-9,-37],[-4,-5],[-8,-3],[-4,-2],[-3,-6],[-3,-14],[-3,-6],[-4,-2],[-12,0],[-5,-5],[-2,-7],[3,-15],[5,-17],[1,-6],[-2,-7],[-26,-25],[-2,-6],[3,-4],[5,-3],[3,-4],[5,-15],[-40,-26],[4,-19]],[[3374,3918],[-4,0],[-14,5],[-19,19],[-22,9]],[[3315,3951],[-4,-1],[-3,-8],[-2,-3],[-3,-2],[-6,-3],[-6,0]],[[3291,3934],[-13,4],[-10,7]],[[3268,3945],[-5,-1],[-1,-5],[0,-12],[-1,-6],[-2,-4],[-4,-4],[-4,-2]],[[3251,3911],[-4,1],[-13,12],[-8,5]],[[3226,3929],[-4,0],[-3,-2],[-2,-4],[-1,-4],[0,-4],[10,-14],[1,-5],[-2,-4],[-2,-1]],[[3438,3834],[-18,12],[-13,47],[-14,27],[-4,3],[-5,0]],[[3384,3923],[-10,-5]],[[3190,3884],[-2,0],[-2,2],[-10,12]],[[3176,3898],[-5,-1],[-2,-2],[-1,-5],[2,-4],[5,-8],[0,-2],[-2,-8],[0,-3],[3,-4],[7,-5],[2,-4],[1,-2],[-1,-3],[0,-3],[-2,-2],[-2,0]],[[3223,3891],[-12,3]],[[3211,3894],[-21,-10]],[[3181,3842],[-23,13],[-9,2]],[[3149,3857],[-9,0],[-20,-9],[-15,-16]],[[3105,3832],[-18,11]],[[3087,3843],[-13,-7],[-3,-37],[5,-27],[-5,-25],[-3,-3],[-16,-3],[-2,-2],[-4,-9],[-3,-4],[-3,-2],[-5,-1]],[[3035,3723],[-12,5],[-19,18]],[[3004,3746],[-7,-7],[2,-17]],[[2999,3722],[-18,6]],[[2981,3728],[-4,-5]],[[3169,2781],[-21,-9],[2,-25],[-26,-20]],[[3124,2727],[-6,4],[-2,1]],[[3116,2732],[-3,0],[-31,-28],[-38,-62],[-4,-12],[-1,-38],[-27,-15],[-2,-14]],[[2971,2561],[-35,18],[-14,1]],[[2922,2580],[-10,-3],[-9,-7],[-8,-13],[-6,-5],[-31,-6]],[[2858,2546],[-9,2],[-16,17],[-8,5]],[[2825,2570],[-6,-1],[-44,-39],[-20,-5],[-40,-23],[-18,-36],[-39,-4]],[[3010,2563],[-18,5]],[[2992,2568],[-7,0],[-7,-2],[-7,-5]],[[2658,2462],[-19,11]],[[2639,2473],[-13,24],[-18,14],[-3,5],[-5,18],[-17,18],[-10,16],[-8,3],[-3,3],[2,7],[11,13],[2,5],[0,8],[-5,3],[-12,5],[-3,8],[-1,19],[-5,5],[-9,6],[-4,4],[-2,6],[9,64],[-9,19],[8,7],[1,3],[2,12],[2,4],[20,30],[9,4],[0,20],[-11,15],[-4,10],[-2,9],[1,15],[-10,22],[-1,1],[-12,5]],[[2205,2213],[12,0],[11,6],[9,11],[6,12],[2,14],[-5,14],[-16,22]],[[2180,2233],[25,-20]],[[2075,2060],[-7,0],[-6,3],[-5,4],[-3,5],[2,6],[4,3],[30,10],[10,6],[3,4],[7,12],[4,4],[22,7],[10,7],[6,8],[7,28],[7,10],[1,9],[-13,16],[-3,9],[3,7],[11,11],[5,3],[10,1]],[[2159,1984],[-5,32],[-8,17],[-13,15],[-9,19],[-4,5],[-5,2]],[[2115,2074],[-13,-1],[-13,-4],[-14,-9]],[[2183,1971],[-9,18]],[[2174,1989],[-15,-5]],[[2523,2375],[12,-30],[2,-29],[3,-8],[5,-7],[41,-34],[99,-43]],[[2703,2225],[21,-25],[-5,-17],[2,-13]],[[2685,2224],[18,1]],[[2319,3364],[9,5],[2,1],[3,0],[2,2],[8,4],[13,3],[4,2],[6,6]],[[2296,3376],[23,-12]],[[2441,4025],[-5,3],[-1,5],[5,10],[1,6],[-5,17],[-2,15],[-1,3],[-3,2],[-5,2],[-4,2],[-4,5],[0,1]],[[2487,3939],[-9,53],[-3,6],[-8,9],[-2,6],[-1,9],[-2,3],[-3,3],[-5,1]],[[2454,4029],[-13,-4]],[[2522,3950],[-8,-5],[-27,-6]],[[2117,2267],[-4,4],[0,9],[7,14],[0,8],[-2,5],[-5,3],[-5,1]],[[2108,2311],[-4,0],[-6,-3],[-2,-2],[-2,-5],[2,-16],[-1,-6],[-4,-9],[-6,-8],[-8,-5],[-7,-3]],[[2189,2267],[-5,4],[-16,25],[-4,2]],[[2164,2298],[-3,0],[-40,-30],[-4,-1]],[[2224,2292],[-13,-15],[-7,-6],[-8,-4],[-7,0]],[[2070,2254],[-8,1],[-20,16],[-10,3]],[[2032,2274],[-9,-5],[-9,-15]],[[2014,2254],[-32,0]],[[1982,2254],[-14,-4],[-8,-6],[-5,-10],[-4,-15]],[[1921,2220],[-48,6],[-19,13],[-27,7]],[[1951,2219],[-18,4]],[[1933,2223],[-12,-3]],[[1851,2703],[-6,13]],[[1858,2650],[8,5],[-8,20],[7,27],[-3,1],[-8,1]],[[1854,2704],[-3,-1]],[[1844,2655],[14,-5]],[[1828,2621],[3,0],[2,2],[0,5],[0,18],[5,7],[6,2]],[[1798,2637],[17,0],[3,-3],[1,-3],[1,-5],[1,-3],[2,-1],[5,-1]],[[1727,2572],[-9,5],[1,12],[2,3],[7,6],[13,21],[7,4],[50,14]],[[1788,2247],[-14,13],[8,24],[-9,28],[0,6],[0,6],[2,4],[7,11],[1,3],[0,15],[3,13],[-4,27],[1,6],[4,12],[1,7],[-3,6],[-11,11],[-1,5],[2,4],[5,6],[1,5],[-2,12],[2,4],[3,2],[8,1],[4,3],[1,4],[0,4],[-15,26],[-7,23],[-10,13],[3,13],[-18,9]],[[1750,2573],[-23,-1]],[[2064,2805],[0,-9],[31,-33],[6,-28],[21,-18],[2,-6],[1,-19],[3,-8],[4,-5],[12,-7],[4,-5],[1,-11],[2,-6],[3,-3],[9,-6],[-1,-34],[-28,0],[-9,-11],[5,-19],[7,-9],[13,-1]],[[2266,2613],[9,-3],[7,-7],[6,-8],[4,-11],[0,-3],[-1,-7],[1,-3],[2,-2],[4,-3],[2,-2],[2,-9],[-3,-21],[-3,-8],[13,-11],[8,-15],[0,-11],[13,-12],[10,-24],[14,-13],[8,-1]],[[2220,2591],[8,1],[3,2],[6,10],[19,8],[10,1]],[[2206,2594],[4,-2],[10,-1]],[[2150,2567],[25,7],[31,20]],[[2381,2454],[7,-3],[5,-6],[2,-19],[5,-10],[2,-10]],[[2362,2439],[19,15]],[[2402,2406],[-24,2]],[[2378,2408],[-6,-7],[6,-13],[-1,-9],[-6,-6],[-14,-9],[-7,-2]],[[2350,2362],[-16,15],[-3,1]],[[2331,2378],[-2,-2],[-3,-7],[-3,-3],[-3,0]],[[2320,2366],[-16,6],[-4,0]],[[2300,2372],[-5,-2],[-2,-1],[-1,-2],[-1,-1],[4,-5],[16,-10],[-5,-9],[-82,-50]],[[2944,3681],[-2,-8],[10,-28]],[[2969,3645],[-1,-24],[-10,-25],[11,-4],[13,-14],[7,-23],[9,-10],[6,-20],[33,-36],[-6,-18],[-2,-59]],[[2952,3645],[17,0]],[[2594,3453],[-12,6]],[[2582,3459],[-13,-35],[-18,-9]],[[2611,3403],[5,6],[2,4],[0,4],[-1,4],[-5,5],[-1,3],[1,6],[4,2],[5,2],[4,3],[1,4],[-1,9],[-1,4]],[[2624,3459],[-30,-6]],[[2471,3418],[-5,0],[-4,3],[-4,5],[-5,21]],[[2453,3447],[-9,-1],[-6,-4],[-3,-7],[-2,-12],[-6,-2],[-6,-4],[-5,-6],[-1,-7],[-28,-2]],[[2551,3415],[-67,14]],[[2484,3429],[-3,-1],[-2,-2],[-2,-5],[-2,-1],[-4,-2]],[[2978,3402],[-26,20]],[[2952,3422],[-15,-3],[-1,-6],[-39,-2],[-4,-3],[-5,-18],[-3,-6],[-6,-3]],[[3029,3412],[-17,-13]],[[3012,3399],[-16,6]],[[2996,3405],[-18,-3]],[[2597,3405],[14,-2]],[[2601,3353],[-4,1],[-8,7],[-2,4],[0,4],[6,14],[4,22]],[[2879,3381],[-20,0]],[[2859,3381],[-27,-14],[-2,-14],[-29,-20]],[[2697,3316],[-12,1],[-10,8],[-23,8],[-2,25],[-37,5]],[[2613,3363],[-9,-9],[-3,-1]],[[2801,3333],[-11,4]],[[2790,3337],[-33,-5],[-16,-12],[-5,0]],[[2736,3320],[-16,11]],[[2720,3331],[-7,-1],[-6,-3],[-10,-11]],[[4085,3145],[-73,-14]],[[4012,3131],[-29,13]],[[3983,3144],[-39,-28],[-65,-11],[11,-18]],[[3769,3093],[-4,1],[-3,1],[-5,5]],[[3799,3080],[-5,3],[-10,10],[-4,2],[-3,0]],[[3777,3095],[-8,-2]],[[3902,3090],[4,-2],[5,-7],[-39,-22]],[[3890,3087],[7,2],[5,1]],[[3872,3059],[-7,4],[-6,7],[-29,15],[-6,1]],[[3824,3086],[-25,-6]],[[3808,3596],[6,-4],[14,-22],[9,-2]],[[3844,3584],[13,-7],[4,-20],[0,-7],[-1,-5],[1,-3],[4,-5],[6,-1]],[[3837,3568],[7,16]],[[3970,3560],[13,-5],[14,-17],[28,-16]],[[3930,3526],[8,3],[9,7],[11,17],[12,7]],[[3902,3559],[20,-31],[8,-2]],[[3871,3536],[6,2],[6,5],[5,9],[14,7]],[[3472,3782],[-2,1],[0,6],[1,3],[0,5],[-1,7],[-16,19],[-6,6],[-10,5]],[[3538,3740],[-3,1],[-5,4],[-38,35],[-10,4],[-5,1]],[[3477,3785],[-3,-2],[-2,-1]],[[3561,3739],[-4,0],[-5,2],[-6,2]],[[3546,3743],[-3,0],[-5,-3]],[[3569,3719],[2,5],[1,5],[1,4],[0,3],[-1,3],[-2,2]],[[3570,3741],[-9,-2]],[[3569,4096],[-1,-4],[-2,-5],[-3,-4],[-4,-1]],[[3559,4082],[-7,3]],[[3552,4085],[-12,-1],[-11,-4]],[[3529,4080],[-24,1]],[[2262,3074],[-10,-1],[-6,-3],[-28,0],[-5,-2],[0,-3],[1,-3],[1,-3],[-2,-5],[-1,-3],[-1,-3],[-1,-2],[-11,-3],[-17,-11],[-11,-10],[-2,-3],[-2,-1],[-1,-2],[-1,-2],[0,-2],[-1,-2],[-2,-1],[-2,0]],[[2160,3009],[-4,1],[-8,0]],[[2148,3010],[-4,-1],[-7,-6],[-2,-2],[-3,-5],[-2,-3],[-2,-2],[-1,-3],[0,-3],[-1,-3],[-3,-4],[-11,-7],[-6,-5],[-2,-3],[-4,-6],[-2,-2],[-6,-2],[-16,-9],[-5,-4],[-3,-3],[-2,-10],[0,-2],[0,-2],[1,-2],[3,-4],[1,-2],[1,-2],[0,-2],[-1,-5],[-1,-3],[-1,-4],[0,-2],[1,-2],[2,-2],[2,-2],[1,-1],[1,-3],[1,-2],[2,-5],[1,-2],[1,-2],[1,-3],[3,-6],[1,-2],[0,-3],[0,-4],[1,-3],[0,-3],[0,-4],[0,-3],[-1,-6],[-2,-3],[-1,-4],[-2,-6],[0,-3],[0,-3],[-1,-2],[-16,-13]],[[1571,2839],[-6,-5]],[[2017,2784],[-4,1],[-3,2],[-2,10],[0,3],[0,3],[2,2],[3,2],[3,1],[6,3],[2,3],[-1,2],[-2,3],[-5,7],[-5,3],[-5,1]],[[2006,2830],[-24,-3],[-11,-4],[-4,-3],[-2,-3],[-3,-5],[-2,-2],[-3,-2],[-9,-6],[-4,-3],[-2,-3],[-1,-4],[-1,-3],[0,-3],[1,-3],[2,-3],[1,-3],[0,-3],[-1,-3],[-6,-8],[-1,-3],[-1,-2],[-1,-2],[-1,-4],[-4,-4],[-4,-3],[-5,-2],[-15,-3],[-7,0],[-28,-6],[-9,-4],[-11,-9],[-5,-5]],[[2064,2805],[-15,1]],[[2049,2806],[-7,-4],[-3,-3],[-8,-8],[-8,-6],[-6,-1]],[[2387,3402],[6,-15],[-1,-8],[-6,-10],[-5,-15],[-4,-4],[-3,-3],[-4,-1],[-3,-1],[-3,-4],[0,-4],[1,-4],[7,-17],[7,-11],[0,-2],[2,-3],[4,-3],[11,-13],[4,-7]],[[2359,3286],[-4,0],[-6,2]],[[2349,3288],[-3,0],[-3,-2],[-2,-3],[-2,-3],[-5,-5],[-3,-2],[-1,-3],[-2,-5],[-4,-19],[0,-7],[1,-4],[2,-3],[7,-3],[2,-3],[1,-4],[-1,-3],[-9,-5],[-3,-1],[-4,-1]],[[2400,3277],[-5,0],[-2,0],[-12,6],[-3,2],[-3,2],[-7,1]],[[2368,3288],[-6,-2],[-3,0]],[[2320,3212],[-6,3],[-9,5],[-3,1],[-4,1]],[[2298,3222],[-3,-1],[-3,-3],[0,-3],[1,-3],[2,-3],[0,-4],[1,-3],[2,-2],[1,-2],[2,0],[0,-1],[0,-3],[0,-3],[1,-4],[1,-3],[1,-3],[3,-2],[12,-3],[3,-1],[9,-2],[3,-3],[1,-5],[-2,-6],[-1,-10],[-2,-3],[-3,0]],[[2327,3146],[-10,1]],[[2317,3147],[-4,0],[-3,-1],[-3,-2],[-2,-2],[-3,-3],[-6,-10],[-1,-4],[-9,-32],[-4,-9],[-3,-5],[-3,-1],[-1,0]],[[2366,3387],[17,10],[4,5]],[[2275,3078],[-3,0]],[[2272,3078],[-4,-1],[-6,-3]],[[2079,3741],[-14,5],[-9,5],[-9,11],[-11,10],[-11,7],[-14,6]],[[2156,3704],[-6,10],[-2,3],[-1,3],[-3,6],[-1,21],[0,3],[1,3],[4,10],[0,2],[-2,2]],[[2146,3767],[-6,0],[-19,-5],[-12,-10],[-3,-3],[-5,-5],[-3,-1],[-2,-1],[-3,-1],[-14,0]],[[2974,3724],[3,-1]],[[2944,3681],[18,1],[8,2],[5,5],[4,3],[2,4],[0,3],[-1,3],[-2,3],[-2,3],[-1,3],[-1,3],[-1,3],[-1,5],[1,1],[1,1]],[[2506,3792],[3,-1],[2,-2],[1,-2],[1,-3],[-1,-7],[0,-3],[1,-3],[2,-6],[3,-3],[3,-3],[6,-2],[5,-5],[1,-1]],[[2446,3741],[4,1],[4,1],[1,3],[4,3],[4,3],[11,5],[6,3],[3,4],[2,3],[11,11],[2,3],[2,4],[5,6],[1,1]],[[2573,3780],[3,0],[3,-2],[2,-3],[10,-9],[6,-2],[7,-1]],[[2533,3751],[2,1],[5,4],[3,3],[3,4],[2,5],[2,3],[4,2],[10,2],[9,5]],[[2616,3769],[3,0],[8,-4],[3,-2],[3,-2],[2,-3],[2,-3],[3,-3],[5,-2],[19,-6],[12,-5],[17,-5],[2,-1],[2,-2],[2,-2],[3,-3],[4,0]],[[2604,3763],[5,1],[3,2],[4,3]],[[2431,3748],[9,-6],[6,-1]],[[2712,3727],[3,-1],[2,-2],[6,-7],[2,-2],[3,-1],[4,-1]],[[2706,3726],[6,1]],[[2741,3714],[5,-1],[6,-1],[7,-1],[17,-8],[4,-3],[1,-3],[0,-2],[0,-4],[0,-3],[-3,-9],[-1,-2],[-3,-4],[-1,-2],[-2,-1],[-4,-3],[-3,0],[-4,-3],[-17,-17],[-6,-5],[-7,-2],[-2,-2],[-6,-6],[-2,-2],[-4,0],[-23,-7],[-4,-2],[-3,-3],[1,-3],[5,-4],[11,-7],[6,-1]],[[2732,3713],[9,1]],[[2936,3691],[6,-3],[1,-2],[1,-5]],[[2879,3672],[5,1],[15,3],[22,11],[15,4]],[[2868,3677],[7,-5],[4,0]],[[2856,3672],[12,5]],[[2821,3673],[35,-1]],[[2709,3603],[4,1],[3,3],[6,5],[3,1],[5,5],[3,4],[3,2],[3,1],[4,1],[6,1],[4,2],[7,4],[8,2],[3,2],[1,2],[0,7],[1,2],[6,2],[7,1],[0,1],[3,2],[2,2],[3,1],[15,4],[3,1],[2,2],[2,5],[5,4]],[[2846,3958],[-3,1],[-3,2],[-2,3],[-1,3],[1,4],[4,6],[2,3],[0,3],[-2,3],[0,6],[-1,5],[-2,5],[-3,3],[-10,3],[-3,1],[-1,2],[0,2],[2,1],[1,2],[2,4],[2,5],[1,3],[2,13],[1,2],[1,2],[2,1],[1,1],[2,1],[2,3],[0,5],[-2,3],[0,4],[2,3],[1,4],[2,4],[1,3],[3,11],[2,3],[1,3],[1,2]],[[2881,3943],[-3,1],[-4,2],[-4,4],[-5,9],[-3,4]],[[2862,3963],[-3,0],[-1,-2],[-2,-2]],[[2856,3959],[-5,0]],[[2851,3959],[-5,-1]],[[2898,3893],[-1,1],[-1,2],[1,2],[1,1],[1,2],[0,2],[-1,3],[-1,3],[-5,5],[-3,2],[-2,3],[-2,4],[1,12],[2,10],[-2,1]],[[2886,3946],[-2,-2],[-3,-1]],[[2939,3761],[-3,4],[-1,6],[0,5],[1,4],[1,4],[1,4],[1,5],[2,3],[5,5],[2,3],[1,2],[0,3],[1,4],[2,2],[0,2],[0,2],[-1,4],[1,2],[1,2],[0,4],[-1,5],[-5,8],[-5,4],[-4,2],[-3,1],[-3,2],[-1,3],[0,13],[0,9],[0,1],[-1,3],[-1,2],[-7,7],[-3,2],[-3,3],[-3,1],[-3,1]],[[2910,3898],[-2,-1],[-3,-1],[-2,-2],[-2,-1],[-3,0]],[[2977,3723],[-3,18],[0,9],[-1,5],[-1,5],[-3,8],[-3,6],[-4,3]],[[2962,3777],[-4,-1],[-9,-7],[-3,-2],[-2,-3],[-3,-3],[-2,0]],[[2633,4005],[8,2],[2,0],[2,2],[2,4],[1,3],[3,7],[1,3],[0,7],[1,3],[1,4],[3,4],[1,4],[0,3],[-1,6],[0,3],[2,4],[4,8],[6,6],[3,5],[3,3],[4,3],[21,7]],[[2618,4007],[4,0],[4,-1],[4,-1],[3,0]],[[2581,3963],[10,15],[2,3],[14,19],[4,4],[7,3]],[[2552,3925],[6,1],[7,3],[4,1],[4,1],[3,3],[1,3],[0,7],[1,7],[0,3],[3,9]],[[2538,3936],[2,-2],[3,-5],[2,-2],[3,-1],[4,-1]],[[2503,3835],[2,0],[2,1],[11,1],[3,2],[1,2],[-2,7],[3,10],[1,3],[1,3],[-1,3],[0,3],[0,6],[0,2],[0,3],[0,2],[0,7],[-1,4],[1,4],[2,5],[3,2],[2,2],[2,1],[1,2],[1,1],[1,5],[0,4],[0,3],[-1,3],[-1,3],[0,4],[2,3],[2,0]],[[2494,3837],[2,0],[3,-1],[2,-1],[2,0]],[[2459,3795],[6,1],[4,1],[4,2],[3,5],[3,6],[2,5],[0,3],[0,2],[2,8],[1,3],[3,3],[2,2],[2,1],[3,0]],[[2449,3805],[2,-2],[4,-6],[2,-1],[2,-1]],[[2431,3748],[5,7],[3,16],[5,9],[2,3],[1,3],[-1,4],[-2,5],[0,4],[0,4],[2,2],[3,0]],[[2303,3054],[-8,0],[-12,5],[-21,15]],[[2424,2966],[-4,1],[-3,2],[-3,5],[-1,3],[-4,5],[-13,9],[-6,3],[-7,4],[-1,3],[-3,3],[-4,3],[-15,7],[-5,1],[-7,0],[-5,1],[-5,2],[-8,5],[-4,5],[-2,4],[0,7],[0,4],[-1,7],[-1,3],[-4,2]],[[2318,3055],[-11,0],[-4,-1]],[[2534,2902],[-4,1],[-24,9],[-5,1],[-9,3],[-16,8],[-4,2],[-3,4],[-7,10],[-11,11],[-9,8],[-6,2],[-4,4],[-5,1]],[[2539,2903],[-5,-1]],[[3122,2971],[-16,6],[-13,9]],[[3169,2781],[4,5],[5,6],[2,3],[3,6],[23,28],[1,4],[-1,4],[-1,6],[-1,2],[2,1],[1,2],[2,2],[1,2],[0,3],[1,4],[0,2],[0,3],[-1,4],[-2,4],[-12,7],[-2,5],[-1,4],[0,4],[0,7],[-1,7],[-1,3],[-1,3],[0,4],[0,6],[0,3],[-25,7],[-4,4],[-1,2],[-1,3],[0,3],[1,3],[0,7],[-1,3],[0,6],[1,6],[0,1],[0,1],[-1,1],[-3,1],[-6,2],[-10,1]],[[3140,2976],[-6,-1],[-5,-1],[-7,-3]],[[3093,2986],[-5,-4],[-1,-2],[-7,-6],[-6,-3],[-2,-1],[-1,-1],[-11,-6],[-2,-1],[-3,-3],[-1,-1],[-1,-1],[0,-1],[-2,-1],[-1,0],[-1,-1],[-1,-1]],[[3003,2939],[-3,2],[-5,5],[-8,13],[-3,2],[-2,2],[-4,0]],[[2978,2963],[-10,-6],[-6,-5],[-3,-2],[-5,-1]],[[2954,2949],[-12,4],[-26,1],[-7,2],[-6,2],[-7,3],[-4,2],[-6,0]],[[2886,2963],[-8,-1],[-6,-3],[-3,-3],[-1,-4],[-1,-3],[0,-3],[-2,-3],[-5,-6],[-9,-5],[-9,-4],[-5,0],[-4,-1]],[[3048,2953],[-2,0],[-4,3],[-3,2],[-4,1],[-3,1]],[[3032,2960],[-6,0],[-4,-1],[-6,-2],[-7,-6],[-3,-2],[0,-6],[-1,-3],[-2,-1]],[[2833,2927],[-6,1],[-12,4],[-3,1],[-1,3],[-1,3],[-1,3],[-1,3],[-2,3],[-4,0]],[[2802,2948],[-4,0],[-4,-3],[-2,-3],[-1,-10],[-2,-3],[-2,-2],[-4,-1],[-5,0]],[[2734,2934],[-6,2],[-4,2],[-4,0]],[[2720,2938],[-5,-1],[-5,-1],[-6,-4],[-2,-3],[-4,-7],[-7,-3],[-13,-2]],[[2778,2926],[-19,5],[-7,1],[-9,3],[-3,1]],[[2740,2936],[-3,-1],[-3,-1]],[[2678,2917],[-103,4],[-14,5],[-7,1]],[[2554,2927],[-8,0],[-3,-1],[-2,-3],[-1,-3],[-1,-17]],[[2427,2966],[-3,0]],[[3245,2756],[12,-9],[3,-3],[0,-1],[5,-9],[8,-11],[10,-12],[8,-5]],[[3291,2706],[14,-9]],[[3322,2698],[5,-2],[13,-6],[34,-5],[3,-2],[0,-2],[-5,-6],[-1,-3],[-1,-3],[0,-9],[0,-2],[-3,-7],[0,-3],[1,-16],[1,-5],[1,-3],[-2,-6],[-1,-5],[-1,-3],[0,-7],[0,-4],[0,-7],[2,-5],[1,-3],[3,-4],[55,-83],[4,-5],[3,-1],[3,-2],[2,0]],[[3305,2697],[17,1]],[[3443,2495],[19,-4],[3,-2],[33,-26]],[[3439,2489],[0,2],[1,2],[1,1],[2,1]],[[3679,3639],[-5,-4],[-14,-6],[-2,-3],[-1,-2],[0,-3],[2,-4],[1,-3],[0,-3],[-1,-7],[0,-7],[-1,-8],[-5,-23],[-3,-7],[-3,-4],[-4,-5],[-8,-15],[-1,-4],[-1,-4],[1,-3],[1,-7],[0,-5],[-1,-3],[-3,-2],[-2,-3],[-3,-1],[-4,-1]],[[3622,3502],[-7,0],[-3,1],[-3,2],[-6,3],[-3,0]],[[3600,3508],[-4,0],[-3,-2],[-6,-5],[-9,-8],[-2,-3],[-13,-25],[-4,-5],[-4,-3],[-3,-2],[-1,-2],[-2,-4],[-1,-2],[0,-2],[1,-1],[0,-2],[1,-1],[0,-1],[-1,-3],[0,-2],[0,-2],[0,-3],[0,-4],[0,-1],[1,-1],[0,-1],[-1,-1],[-1,-2],[-1,-1],[1,-5],[-3,-8],[-2,-3],[0,-3],[1,-2],[0,-2],[2,-2],[1,-1],[2,-4]],[[3549,3389],[6,-1],[1,-2],[1,-3],[1,-1],[3,-1],[1,-1],[1,-2],[3,-1],[1,-2],[1,-2],[0,-3],[1,-3],[1,-3],[1,0]],[[3584,3366],[8,-3],[16,-10],[4,-2]],[[3577,3364],[2,1],[2,1],[3,0]],[[3573,3364],[4,0]],[[3571,3364],[2,0]],[[3615,3351],[4,0],[48,-15],[2,-4],[1,-3],[-1,-4],[-1,-3],[-1,-7],[0,-4],[0,-3],[1,-4],[-1,-6],[-1,-4],[-1,-2],[-1,-3],[-2,-4],[0,-3],[-4,-7],[-2,-3],[-2,-2],[-5,-6],[-1,-3],[-2,-7],[-2,-3],[-4,-7],[-1,-3],[-1,-3],[-1,-3],[-1,-4],[1,-5],[2,-7],[2,-4],[36,-41],[6,-4],[5,-3]],[[3612,3351],[3,0]],[[3735,3176],[4,-1],[3,-2],[5,-3],[12,-20],[2,-4],[-1,-3],[-1,-7],[0,-4],[4,-14],[1,-2],[-1,-3],[-2,-2],[0,-8],[-4,-3]],[[3718,3169],[7,2],[5,3],[2,1],[3,1]],[[3708,3170],[10,-1]],[[3688,3167],[10,0],[10,3]],[[3757,3100],[-3,-2],[-4,-1],[-1,-4],[0,-3],[2,-9],[2,-5],[3,-5],[2,-3],[4,-5],[3,-3],[2,-4],[0,-1],[-2,-2],[-11,-8],[-6,-2],[-8,-1]],[[3740,3042],[-9,0],[-1,1]],[[3730,3043],[-6,-2]],[[3515,3910],[3,0],[6,4],[3,2],[3,3],[1,2],[-1,9],[0,5],[2,8],[3,6],[1,3],[0,10],[-1,4],[-2,6],[-2,4],[-2,4],[0,5],[1,4],[1,4],[4,7],[1,4],[-1,11],[0,4],[-1,3],[-4,4],[-9,6],[-5,5],[-3,4],[-3,6],[-2,7],[1,14],[1,4],[-5,9]],[[3488,3919],[9,-2],[3,0],[6,-3],[3,-2],[3,-2],[3,0]],[[3438,3834],[4,6],[2,0],[3,2],[12,18],[3,3],[3,3],[7,3],[3,3],[2,3],[0,16],[1,6],[5,17],[2,3],[3,2]],[[3505,4081],[-12,11],[-2,2],[-2,2]],[[4036,4005],[5,-2],[3,-3],[3,-2],[5,-5],[17,-10],[9,-2]],[[3982,3952],[3,0],[4,2],[3,3],[19,10],[2,2],[0,4],[0,3],[0,7],[2,7],[1,3],[2,2],[7,8],[4,2],[7,0]],[[4078,3981],[18,1]],[[3970,3957],[6,-1],[6,-4]],[[3978,3926],[-4,0],[-3,1],[-2,2],[-4,0],[-3,1],[-2,2],[-1,3],[0,6],[0,3],[-1,4],[1,3],[3,3],[4,2],[4,1]],[[3914,3756],[2,0],[2,0],[3,1],[4,1],[7,0],[3,1],[13,6],[3,3],[2,3],[1,5],[0,3],[-1,4],[1,3],[8,5],[4,5],[6,8],[3,4],[15,9],[2,3],[0,5],[-1,3],[-2,3],[-5,5],[-2,3],[-6,4],[-2,2],[-1,4],[-1,3],[2,4],[4,3],[17,6],[2,2],[0,3],[-1,3],[-2,5],[-1,1],[-5,3],[0,2],[0,4],[1,3],[0,3],[0,6],[0,3],[-1,4],[-1,6],[1,3],[1,4],[0,6],[-2,2]],[[3987,3928],[-3,0],[-6,-2]],[[3901,3760],[4,-1],[3,-2],[6,-1]],[[3833,3670],[14,2],[25,12],[1,3],[-2,6],[-1,3],[1,4],[2,3],[6,6],[5,4],[3,4],[1,4],[1,7],[2,3],[2,4],[2,7],[0,3],[0,4],[0,6],[1,3],[2,2],[3,0]],[[3824,3670],[3,0],[6,0]],[[3808,3596],[-2,4],[-5,5],[-3,2],[-2,2],[-3,6],[-1,6],[-1,3],[-1,3],[1,3],[1,7],[1,3],[3,3],[8,4],[4,1],[5,3],[1,1],[3,4],[2,4],[1,7],[2,2],[2,1]],[[3732,3642],[4,-1],[6,-1],[18,-9],[5,-5],[2,-4],[-1,-4],[-1,-3],[-1,-3],[0,-3],[1,-3],[2,-2],[0,-3],[0,-4],[0,-3],[0,-4],[2,-2],[4,-2],[3,-2]],[[3725,3641],[7,1]],[[3712,3642],[13,-1]],[[3685,3635],[8,2],[4,1],[6,2],[9,2]],[[3679,3639],[6,-4]],[[3776,3584],[7,1],[5,1],[20,10]],[[2752,3836],[1,-1]],[[2753,3835],[0,-1],[1,0]],[[2754,3834]],[[2754,3834],[1,0]],[[2755,3834],[0,-1]],[[2755,3833]],[[2755,3833],[1,0]],[[2756,3833]],[[2756,3833]],[[2752,3836],[1,-1]],[[2753,3835],[1,-1]],[[2754,3834]],[[2754,3834],[1,0]],[[2755,3834],[0,-1]],[[2752,3835],[1,-1],[1,0]],[[2754,3834]],[[2752,3835],[1,0]],[[2753,3835],[0,-1],[1,0]],[[2754,3834]],[[2752,3836],[1,-1]],[[2753,3835],[1,-1]],[[2752,3836],[1,-1]],[[2753,3835],[0,-1],[1,0]],[[2752,3836],[1,-1]],[[2753,3835],[1,-1]],[[2754,3834]],[[2752,3836],[1,-1]],[[2753,3835],[1,-1]],[[2754,3834]],[[2752,3836],[1,-1]],[[2753,3835],[1,-1]],[[2754,3834]],[[2752,3836],[1,-1]],[[2753,3835],[1,-1]],[[2754,3834],[1,0]],[[2755,3834]],[[3016,3997],[-3,-2],[-3,-3],[-16,-12],[-5,-5],[-25,-51],[-3,-3],[-36,-36],[-9,-12],[-6,-5],[-25,-12],[-10,-7],[-5,-3],[-60,-15],[-6,-4],[-6,-11],[-6,-6],[-18,-6],[-15,8],[0,1],[-1,1],[-1,5],[-1,3],[-1,0],[0,1],[0,1],[1,0],[0,1],[2,3],[1,2],[-3,3]],[[2756,3833]],[[2756,3833],[-1,0]],[[2755,3833],[0,1]],[[2755,3834],[-1,0]],[[2754,3834],[-1,1]],[[2753,3835],[-1,1]],[[2753,3836],[0,-1]],[[2753,3835],[1,-1]],[[2754,3834]],[[2753,3836],[0,-1]],[[2753,3835],[1,-1]],[[2754,3834]],[[2754,3834],[1,0]],[[2755,3834]],[[2755,3834]],[[2755,3834]],[[2753,3836],[0,-1]],[[2753,3835],[1,-1]],[[2754,3834]],[[2753,3836],[0,-1]],[[2753,3835],[1,-1]],[[2754,3834]],[[2754,3834]],[[2754,3834]],[[2754,3834]],[[2754,3834]],[[2754,3834]],[[2754,3834]],[[2754,3834]],[[2755,3834]],[[2755,3834],[-1,0]],[[3168,4096],[-134,-78],[-21,-23],[-19,-15],[-2,-1],[-1,-2],[-1,-1],[-1,-1],[-2,-2],[-3,-5],[-1,-3],[-19,-41],[-39,-39],[-1,0],[-1,-2],[-1,-1],[-6,-9],[-6,-5],[-14,-6],[-1,-1],[-10,-5],[-3,-2],[-1,-1],[-6,-4],[-5,-3],[-8,-1],[-5,-1],[-5,1],[-3,0],[-2,0],[-1,0],[-2,-1],[-2,0],[-2,-1],[-3,-1],[-3,-1],[-10,-6],[-2,-1],[-9,-2],[-1,0],[-1,-1],[-1,0],[-1,0],[-1,-1],[-1,-1],[-1,-1],[-1,0],[-1,-1],[0,-1],[-1,0],[0,-1],[-1,-1],[-4,-8],[-6,-6],[-18,-6],[-15,8],[0,2],[-2,6],[-1,1],[0,1],[-1,1],[1,1],[2,4],[1,0],[0,1],[0,1],[-1,1],[0,1],[-1,1],[-1,0]],[[2756,3833]],[[2756,3833],[-2,1]],[[2754,3834],[1,0]],[[2755,3834]],[[2755,3834]],[[2755,3834]],[[2755,3834],[0,-1]],[[2755,3834]],[[2756,3833],[-1,0]],[[2755,3833],[0,1]],[[2756,3833],[-1,0]],[[2755,3833],[0,1]],[[2755,3834],[0,-1]],[[2755,3833],[1,0]],[[2753,3836],[-1,0],[1,-1]],[[2753,3835]],[[2753,3835]],[[2753,3835]],[[2753,3835]],[[2753,3835]],[[2753,3835]],[[2753,3835]],[[2753,3835]],[[2753,3835]],[[2753,3835]],[[2753,3835]],[[2753,3835]],[[2753,3835]],[[2753,3835],[0,1]],[[2244,3328],[10,7],[13,26],[8,-1],[-6,-14],[-4,-8],[-6,-4],[-4,-7],[-3,-2],[0,-2],[0,-1],[-8,6]],[[2252,3322],[0,-4],[-1,-2],[-2,0],[-2,1],[-2,0],[-4,-2],[-6,-3],[-3,-2],[-6,-5],[-8,-8],[-2,-1],[-1,-3],[0,-10],[-1,-5],[-2,-3],[-2,-2],[0,-3],[-5,6],[0,7],[5,15],[4,22],[3,6],[16,-6],[11,8],[8,-6]],[[3149,3978],[5,3],[4,-1],[-8,-9],[-4,-4],[-6,-3],[-2,-2],[-8,-8],[-2,-3],[0,-3],[1,-4],[-1,-2],[-7,-9],[-6,-9],[0,-9],[8,-8],[-7,-7],[-6,-17],[-6,-4],[-5,5],[2,9],[7,14],[-5,9],[4,13],[9,11],[6,5],[0,2],[5,7],[1,2],[1,2],[10,11],[10,9]],[[4096,3027],[0,-1265],[-14,-10],[-16,-9],[-11,-2],[-4,-1],[-8,1],[-15,7],[-26,6],[-10,5],[-6,6],[-1,5],[2,6],[-1,5],[-3,2],[-4,1],[-4,2],[-1,6],[-5,2],[-10,-3],[-15,-7],[-4,-1],[-7,1],[-4,0],[-2,0],[-1,2],[-2,1],[-3,0],[0,-2],[0,-3],[1,-3],[1,-1],[-1,-5],[-17,-36],[-2,-3],[-4,-3],[-4,1],[-5,1],[-4,0],[-5,-13],[-6,-6],[-7,-3],[-7,-2],[-14,-1],[-3,1],[-3,4],[-2,4],[-2,3],[-4,1],[-4,1],[-8,2],[-3,1],[-5,1],[-3,3],[-3,3],[-3,2],[-8,-2],[-9,-16],[-14,-8],[-4,-2],[-2,2],[-2,3],[-5,1],[-9,-3],[-5,-3],[-6,-6],[-7,-4],[-13,-3],[-3,-3],[-4,-7],[-11,-11],[-9,-6],[-4,-3],[-9,-14],[-2,-2],[-9,-1],[-4,-2],[-2,-4],[-13,-34],[-4,-7],[-4,-8],[-4,-22],[-4,-9],[-4,-6],[-5,-6],[-7,-5],[-7,-2],[-10,-12],[-2,-2],[-2,-1],[-9,-3],[-35,-4],[-7,-2],[-43,-38],[-3,-8],[-4,-3],[-24,-8],[-12,-14],[-5,-4],[-5,-1],[-11,0],[-3,-1],[-9,-7],[-35,-10],[-6,-5],[-2,-1],[-3,0],[-9,3],[-23,-3],[-13,3],[-13,6],[-12,3],[-11,-6],[-1,2],[-1,1],[-2,0],[-1,0],[-8,-3],[-10,4],[-9,6],[-9,2],[-8,2],[-35,14],[-7,-2],[-7,-6],[-8,-9],[-6,-4],[-9,-2],[-16,-2],[-38,6],[-19,7],[-15,9],[-18,18],[-2,5],[-18,20],[-5,4],[-2,-4],[6,-10],[28,-32],[15,-14],[-26,3],[-13,4],[-9,7],[-6,7],[-3,6],[-1,6],[-2,14],[1,8],[1,7],[3,4],[-5,7],[0,1],[-3,5],[-9,18],[0,1],[-1,2],[-5,17],[4,14],[-2,6],[2,7],[-1,4],[-5,2],[-3,-1],[-2,-4],[1,-5],[-10,-14],[-14,-35],[-11,-13],[-5,0],[-4,1],[-3,2],[-3,0],[-4,-2],[-17,-18],[-7,-5],[-45,-17],[-16,-3],[-19,2],[-3,1],[-8,4],[-4,1],[-3,0],[-5,-1],[-4,1],[-10,5],[-27,5],[-8,5],[-15,15],[-8,4],[-9,2],[-10,-4],[-7,-9],[-3,-12],[-4,-8],[-8,-4],[-13,-1],[-6,-1],[-10,1],[-8,0],[-5,3],[-6,8],[-2,3],[-2,2],[2,2],[4,2],[2,2],[-4,5],[-15,-8],[-31,-6],[-31,-14],[-50,-9],[-21,-14],[-8,-2],[-10,1],[-43,13],[-1,0],[-48,11],[-52,16],[-14,9],[-20,19],[-16,6],[-7,7],[-10,14],[-12,12],[-7,5],[-7,2],[-9,2],[-6,4],[-30,45],[-13,13],[-16,11],[-7,7],[-4,9],[-6,24],[0,3],[0,7],[0,3],[-2,0],[-6,-1],[-2,1],[-3,3],[-2,4],[-2,6],[-2,19],[-5,23],[-1,12],[1,6],[1,0],[1,7],[16,13],[3,9],[-9,-4],[-7,1],[-6,5],[-8,4],[-7,1],[-5,-1],[-2,1],[-1,-1],[-1,-3],[-1,-4],[-4,0],[-4,3],[-2,1],[-3,1],[-7,-4],[-7,-6],[-13,-15],[-6,-6],[-22,-13],[-6,4],[-8,2],[-9,0],[-6,-3],[-5,2],[-7,-1],[-6,-4],[-5,-3],[-10,-10],[-4,-1],[-33,5],[-13,-2],[-7,-8],[-3,-7],[-3,-10],[-2,-22],[-1,-4],[-5,-7],[-1,-4],[-1,-4],[-7,-25],[-8,-18],[-2,-6],[0,-11],[-2,-9],[-66,-171],[-32,-110],[-78,-171],[-9,-14],[-6,-18],[-4,-7],[-40,-63],[-24,-53],[-32,-56],[-38,-43],[-38,-32],[-13,-5],[-12,-10],[-6,-3],[-13,-2],[-15,-6],[-13,-7],[-14,-13],[-27,-19],[-4,-3],[-8,-2],[-7,2],[2,4],[-7,-3],[-10,-13],[-10,-5],[-13,-17],[-4,-4],[-7,-4],[-8,-3],[-11,-2],[-6,-4],[-3,-2],[-4,1],[-4,2],[-3,0],[-4,-3],[-8,2],[-6,-5],[-6,-8],[-7,-4],[-6,-2],[-15,-8],[-24,-7],[-9,-5],[-8,-10],[-9,-4],[-17,-5],[-18,-8],[-35,-16],[-49,-12],[-15,-7],[-13,-11],[-22,-27],[-13,-12],[-13,-7],[-7,-1],[-9,-1],[-3,1],[-3,4],[-3,1],[-3,-2],[-30,-37],[-4,-6],[0,-10],[0,-5],[-3,-6],[-45,-53],[-42,-58],[-12,-12],[-35,-27],[-42,-51],[-53,-49],[-7,-13],[0,-8],[2,-8],[3,-6],[3,-5],[3,-7],[0,-9],[-3,-9],[-10,-20],[-2,-7],[-1,-10],[1,-3],[7,-4],[2,-2],[-2,-47],[-3,-14],[-5,-13],[-13,-17],[-2,-6],[-1,-7],[-4,-18],[-3,-7],[-4,-9],[-31,-34],[-655,0],[0,4096],[943,0],[-33,-148],[4,5],[5,10],[4,10],[2,7],[1,12],[2,12],[4,12],[5,9],[2,-6],[3,2],[2,6],[1,8],[3,-10],[-14,-18],[3,-13],[3,-3],[8,-4],[2,0],[2,1],[7,1],[10,5],[6,0],[-6,-5],[-6,-4],[-6,-2],[-9,-1],[-6,-2],[-1,-5],[3,-5],[6,-4],[-5,-7],[-3,-4],[-3,-1],[-2,1],[-2,3],[-2,1],[-3,-2],[-1,-3],[1,-3],[1,-2],[1,-1],[0,-3],[-2,0],[-5,3],[-6,-4],[-7,-12],[0,3],[0,10],[-2,-1],[-1,-2],[-5,-26],[-6,-21],[-5,-28],[-25,-91],[-11,-21],[-4,-13],[0,-9],[4,-7],[6,-4],[17,-2],[6,-2],[6,-4],[5,-5],[0,-4],[-14,1],[-6,3],[-4,6],[-6,-7],[-45,-128],[-29,-74],[-2,-17],[-5,-12],[1,-9],[-1,-7],[-7,-13],[-4,-8],[-5,-8],[-11,-7],[-6,-4],[-3,-5],[-9,-9],[-5,-9],[5,-6],[3,-6],[-4,-4],[-4,1],[-4,5],[-8,0],[-6,-6],[-27,-17],[-17,4],[-4,-1],[3,-5],[13,-13],[4,-9],[5,-22],[-2,-15],[-2,-17],[-7,-16],[-4,-12],[-15,-26],[-1,-12],[-4,-10],[4,-17],[1,-27],[-12,-37],[-9,-9],[-4,-5],[-2,-5],[0,-9],[5,-20],[-3,-8],[0,-9],[7,-2],[16,2],[9,-2],[16,-6],[14,-9],[7,8],[6,5],[24,-2],[21,3],[18,6],[5,11],[-1,11],[-1,15],[-1,8],[3,8],[4,6],[11,12],[20,40],[18,24],[7,13],[4,4],[32,3],[16,12],[10,7],[-4,-6],[-5,-6],[-14,-10],[-7,-3],[-15,-1],[-7,-2],[-13,-9],[-10,-15],[-15,-32],[3,-10],[2,-11],[4,-8],[9,1],[-3,-7],[2,-9],[4,-9],[4,-6],[0,-3],[-2,-1],[-2,-2],[-1,-1],[-13,-11],[-11,-7],[-5,-6],[-6,-6],[0,-3],[-5,-1],[-12,-3],[-5,-3],[2,-9],[-2,0],[-4,5],[-8,5],[-15,-1],[-17,-3],[-7,-3],[5,-14],[11,-17],[9,-21],[0,-21],[-2,-15],[-11,-10],[-3,-4],[-1,-1],[-1,-3],[0,-4],[1,-2],[2,0],[9,-3],[7,2],[6,4],[7,3],[36,4],[20,8],[-3,3],[17,18],[17,3],[14,-4],[13,-7],[8,-2],[8,-1],[3,4],[0,7],[-4,7],[-8,1],[0,3],[8,2],[7,14],[5,0],[-2,-6],[1,-6],[4,-5],[5,-2],[0,-3],[-3,-3],[-2,-4],[-1,-6],[1,-6],[2,-6],[3,-4],[27,-12],[9,-2],[11,-1],[-18,-6],[-36,10],[-15,-1],[-1,6],[-8,4],[-17,6],[-13,12],[-8,3],[-6,-6],[10,-3],[14,-11],[11,-13],[9,-10],[10,-18],[3,-25],[3,-29],[1,-24],[-8,-25],[-7,-32],[-19,-40],[-2,-3],[-3,-1],[-3,-2],[-2,-4],[15,-9],[12,-2],[6,-12],[2,-10],[1,-15],[-4,-25],[-3,-23],[3,-8],[9,0],[8,2],[3,4],[0,-2],[-2,-11],[-10,-2],[-5,-2],[-3,-12],[-2,-12],[-5,-20],[1,-6],[5,-6],[4,-7],[2,-11],[-1,-21],[-2,-12],[-5,-20],[-6,-15],[-2,-11],[-10,-12],[-6,-11],[3,-7],[3,-8],[-6,-20],[-8,-9],[-7,-6],[4,-14],[-5,-10],[-6,-13],[-14,-22],[-2,-3],[-2,-6],[-2,-13],[5,2],[4,-2],[4,-4],[6,-2],[4,1],[7,6],[4,2],[3,2],[6,7],[7,-3],[8,7],[9,2],[6,1],[4,2],[10,6],[4,1],[22,0],[12,12],[5,4],[5,1],[17,2],[16,-3],[19,-11],[1,1],[16,-6],[15,2],[11,5],[14,-5],[13,-4],[29,4],[12,0],[12,-5],[14,-3],[26,-15],[14,-11],[8,-12],[-1,4],[-1,3],[-4,6],[4,-2],[5,-3],[4,-1],[3,6],[6,-3],[22,0],[8,-2],[6,-2],[5,0],[12,11],[55,37],[3,4],[21,14],[6,2],[15,10],[8,3],[8,1],[8,0],[8,-2],[6,-5],[3,3],[0,3],[-3,1],[-1,2],[0,2],[-2,2],[6,-4],[7,-2],[6,1],[7,6],[6,3],[88,2],[-5,2],[-10,2],[10,4],[14,-5],[12,-3],[32,-16],[4,0],[0,5],[-4,8],[-8,13],[0,2],[11,0],[11,8],[18,20],[-4,-8],[-13,-19],[-4,-3],[-3,-6],[3,-12],[6,-10],[8,-4],[7,-3],[15,-13],[6,-2],[9,-3],[9,-5],[90,-64],[10,-11],[8,-14],[12,-30],[10,-14],[13,0],[2,6],[-2,27],[3,9],[7,6],[15,6],[7,-6],[9,0],[10,4],[7,4],[-11,-13],[-29,2],[-13,-10],[-2,-11],[3,-19],[-3,-11],[-5,-4],[-14,-5],[-6,-3],[-7,-8],[-2,-8],[2,-8],[5,-9],[4,-8],[5,-18],[5,-6],[7,-2],[24,-2],[4,-2],[18,-16],[3,-9],[-2,-14],[3,-7],[6,-1],[8,3],[2,0],[-8,-9],[-4,-6],[-2,-3],[-5,-1],[-5,6],[-3,5],[2,4],[-3,4],[-12,10],[-3,1],[-4,-2],[3,-4],[8,-6],[8,-16],[5,-14],[9,-20],[12,-14],[4,-8],[2,-8],[1,-8],[2,-6],[20,-11],[9,-14],[7,-15],[9,-12],[19,-6],[17,3],[8,0],[7,-5],[23,-23],[8,-12],[6,-5],[15,-4],[7,-5],[8,-2],[9,3],[6,-5],[15,-9],[7,-14],[11,4],[5,3],[37,14],[7,3],[3,2],[2,3],[1,5],[-1,4],[-2,4],[-1,7],[2,4],[-2,6],[0,6],[1,6],[3,4],[2,4],[7,0],[8,-3],[6,-4],[6,-20],[3,-4],[1,6],[0,2],[2,27],[2,4],[12,23],[4,6],[-2,4],[0,3],[6,3],[3,2],[2,2],[2,2],[3,7],[7,17],[0,4],[10,18],[5,6],[4,3],[6,2],[13,2],[5,1],[17,11],[25,2],[25,18],[5,3],[3,1],[8,0],[42,-5],[15,-1],[16,4],[8,3],[3,2],[13,8],[10,20],[23,3],[10,18],[2,7],[4,7],[5,5],[2,4],[10,18],[5,4],[6,2],[65,-5],[10,1],[32,5],[11,8],[8,2],[35,-10],[26,8],[18,4],[13,-5],[26,-8],[19,2],[5,5],[12,1],[12,0],[5,-7],[14,-6],[5,3],[7,1],[14,-12],[23,0],[13,8],[7,6],[5,5],[6,4],[37,4],[26,-5],[29,3],[32,-6],[20,7],[7,-1],[10,-7],[10,-14],[4,-2],[3,1],[4,4],[3,1],[7,-3],[7,-5],[9,-7],[8,3],[6,-2],[13,2],[9,4],[4,4],[2,1],[9,10],[8,20],[7,18],[6,3],[29,5],[4,-1],[10,-4],[3,-1],[8,2],[11,6],[7,1],[8,-1],[8,-3],[13,-8],[10,-10],[8,-13],[11,-10],[13,-4],[7,1],[8,3],[5,4],[4,9],[4,1],[4,1],[3,2],[2,4],[2,9],[1,3],[6,7],[6,4],[4,5],[4,19],[5,6],[13,9],[4,4],[2,2],[9,0],[2,1],[2,3],[1,4],[-1,4],[-1,3],[-1,4],[0,6],[8,12],[11,28],[1,13],[5,12],[3,16],[6,18],[9,13],[22,21],[10,16],[5,9],[2,8],[4,4],[6,-1],[3,4],[1,5],[9,5],[18,8],[6,1],[3,2],[7,6],[3,2],[3,0],[2,-2],[2,-1],[3,3],[0,3],[4,15],[1,2],[1,2],[3,3],[3,2],[2,1],[7,1],[6,4],[17,16],[5,4],[11,5],[12,-1],[11,-1],[1,5],[6,5],[5,-1],[10,-5],[8,-1],[2,-4],[2,-5],[11,-3],[11,-2],[-4,8],[-1,4],[2,4],[4,4],[6,2],[6,1],[24,-1],[12,-2],[14,-7],[3,-3],[9,6],[5,3],[5,1],[13,0],[11,5],[6,2],[10,3],[3,2],[4,-2],[3,0],[3,2],[3,3],[5,4],[2,6],[-3,5],[-6,4],[-4,-6],[-7,1],[-8,4],[-12,8],[-3,4],[-12,22],[-2,8],[3,6],[8,3],[5,4],[9,24],[10,-13],[2,5],[-2,18],[0,1],[1,7],[14,36],[4,6],[7,7],[9,4],[4,4],[0,9],[2,29],[1,20],[2,7],[2,6],[4,8],[5,7],[7,5],[8,2],[13,-1],[6,2],[4,5],[-5,41],[3,19],[13,-1],[2,7],[3,3],[6,2],[11,1],[2,1],[0,5],[1,9],[4,7],[13,14],[3,2],[3,5],[5,4],[35,15],[11,8],[10,3],[16,4],[15,0],[6,2],[5,6],[2,6],[0,6],[0,7],[4,8],[6,4],[5,1],[5,0]],[[878,3718],[-2,-1],[-2,1],[2,-3],[1,-3],[5,-4],[4,-1],[7,4],[-11,6],[-4,1]],[[1226,2282],[-8,-3],[-19,2],[0,-3],[9,-3],[10,0],[10,2],[6,4],[1,2],[2,1],[-1,4],[-1,1],[-1,1],[-8,-8]],[[1226,2289],[1,2],[-3,0],[-3,-1],[-1,0],[-2,0],[-1,-2],[2,0],[3,-3],[5,2],[-1,1],[-2,0],[1,1],[1,0]],[[3824,2641],[-1,1],[-2,0],[2,-13],[-1,-15],[2,-13],[8,-9],[-5,17],[-1,10],[3,11],[-2,2],[-2,5],[-1,2],[0,1],[0,1]],[[804,3129],[3,7],[-1,3],[-2,-1],[-1,-1],[-2,-2],[-4,-4],[-4,-7],[-3,-8],[3,-1],[6,7],[5,7]],[[810,3136],[3,-3],[5,2],[1,4],[-2,4],[-2,1],[-3,-1],[-2,-7]],[[814,3159],[-1,2],[-3,-6],[-1,-8],[3,3],[2,9]],[[4096,3138],[-4,1],[-7,6],[-14,13],[-14,11],[-5,7],[-14,23],[-9,18],[-9,16],[-7,15],[-3,17],[-2,8],[5,4],[5,3],[-5,8],[-4,7],[-23,49],[-7,30],[-2,19],[-1,23],[2,16],[4,8],[12,16],[2,6],[2,7],[4,8],[5,7],[9,9],[4,6],[2,8],[1,11],[2,4],[38,60],[23,25],[9,14],[1,1],[0,1],[0,-485]],[[2195,3568],[4,-3],[-6,-5],[-9,-5],[-9,-2],[-10,1],[-9,3],[-8,3],[-6,5],[-4,-4],[-5,-2],[-4,-1],[-4,1],[5,6],[-3,3],[-4,0],[-3,-4],[-3,-5],[-6,1],[-8,5],[-11,4],[-11,1],[-10,-3],[-6,-8],[-5,1],[-11,-6],[-5,-1],[-43,6],[-3,-1],[-8,-7],[-6,-1],[-8,0],[-4,1],[-4,2],[-3,7],[-2,2],[-3,1],[-6,-1],[-3,2],[-3,3],[-31,14],[-4,3],[3,3],[2,0],[2,-1],[3,-2],[4,0],[3,0],[5,-3],[3,-2],[5,-6],[1,-1],[7,-1],[19,-9],[7,-1],[20,1],[31,-3],[14,1],[58,26],[6,1],[13,-1],[6,2],[5,5],[0,3],[-1,2],[-4,1],[0,4],[4,0],[1,0],[3,0],[0,2],[1,1],[3,3],[4,-3],[3,-4],[2,-4],[1,-5],[-8,-5],[4,-7],[24,-19],[4,-2],[6,-1],[5,2],[8,7],[5,0]],[[2267,3361],[-10,24],[0,3],[3,0],[3,-3],[7,-3],[6,-2],[4,-1],[5,3],[3,6],[3,2],[41,-14],[0,-4],[-10,2],[-17,6],[-9,2],[-6,-2],[6,-4],[23,-12],[3,-2],[2,-4],[1,-6],[1,-5],[5,-7],[1,-3],[4,-7],[18,-11],[5,-9],[-15,5],[-7,4],[-6,5],[-5,9],[-7,16],[-4,5],[-9,1],[-4,2],[-2,2],[-1,3],[-3,3],[-5,1],[-1,1],[-8,4],[-2,0],[-1,2],[-2,-1],[-2,-2],[-2,0],[-2,-2],[1,-3],[3,-5],[-8,1]],[[3187,3850],[5,-2],[6,0],[-8,-3],[-8,2],[-7,4],[-6,5],[-6,2],[-33,-4],[-6,-2],[-4,-4],[-4,-16],[0,-3],[3,-4],[4,-3],[3,-2],[2,-3],[0,-6],[-5,7],[-1,-5],[1,-15],[-5,6],[-6,2],[-4,5],[-4,23],[-4,2],[-6,-2],[-8,2],[9,10],[8,5],[2,1],[7,-1],[0,1],[10,3],[1,0],[2,2],[3,3],[2,3],[0,2],[6,-2],[28,-2],[9,3],[1,-2],[8,-9],[5,-3]],[[4096,3623],[-1,-2],[-9,-14],[-23,-25],[-38,-60],[-2,-4],[-1,-11],[-2,-8],[-4,-6],[-9,-9],[-5,-7],[-4,-8],[-2,-7],[-2,-6],[-12,-16],[-4,-8],[-2,-16],[1,-23],[2,-19],[7,-30],[23,-49],[4,-7],[5,-8],[-5,-3],[-5,-4],[2,-8],[3,-17],[7,-15],[9,-16],[9,-18],[14,-23],[5,-7],[14,-11],[14,-13],[7,-6],[4,-1]],[[4096,3027],[-5,0],[-5,-1],[-6,-4],[-4,-8],[0,-7],[0,-6],[-2,-6],[-5,-6],[-6,-2],[-15,0],[-16,-4],[-10,-3],[-11,-8],[-35,-15],[-5,-4],[-3,-5],[-3,-2],[-13,-14],[-4,-7],[-1,-9],[0,-5],[-2,-1],[-11,-1],[-6,-2],[-3,-3],[-2,-7],[-13,1],[-3,-19],[5,-41],[-4,-5],[-6,-2],[-13,1],[-8,-2],[-7,-5],[-5,-7],[-4,-8],[-2,-6],[-2,-7],[-1,-20],[-2,-29],[0,-9],[-4,-4],[-9,-4],[-7,-7],[-4,-6],[-14,-36],[-1,-7],[0,-1],[2,-18],[-2,-5],[-10,13],[-9,-24],[-5,-4],[-8,-3],[-3,-6],[2,-8],[12,-22],[3,-4],[12,-8],[8,-4],[7,-1],[4,6],[6,-4],[3,-5],[-2,-6],[-5,-4],[-3,-3],[-3,-2],[-3,0],[-4,2],[-3,-2],[-10,-3],[-6,-2],[-11,-5],[-13,0],[-5,-1],[-5,-3],[-9,-6],[-3,3],[-14,7],[-12,2],[-24,1],[-6,-1],[-6,-2],[-4,-4],[-2,-4],[1,-4],[4,-8],[-11,2],[-11,3],[-2,5],[-2,4],[-8,1],[-10,5],[-5,1],[-6,-5],[-1,-5],[-11,1],[-12,1],[-11,-5],[-5,-4],[-17,-16],[-6,-4],[-7,-1],[-2,-1],[-3,-2],[-3,-3],[-1,-2],[-1,-2],[-4,-15],[0,-3],[-3,-3],[-2,1],[-2,2],[-3,0],[-3,-2],[-7,-6],[-3,-2],[-6,-1],[-18,-8],[-9,-5],[-1,-5],[-3,-4],[-6,1],[-4,-4],[-2,-8],[-5,-9],[-10,-16],[-22,-21],[-9,-13],[-6,-18],[-3,-16],[-5,-12],[-1,-13],[-11,-28],[-8,-12],[0,-6],[1,-4],[1,-3],[1,-4],[-1,-4],[-2,-3],[-2,-1],[-9,0],[-2,-2],[-4,-4],[-13,-9],[-5,-6],[-4,-19],[-4,-5],[-6,-4],[-6,-7],[-1,-3],[-2,-9],[-2,-4],[-3,-2],[-4,-1],[-4,-1],[-4,-9],[-5,-4],[-8,-3],[-7,-1],[-13,4],[-11,10],[-8,13],[-10,10],[-13,8],[-8,3],[-8,1],[-7,-1],[-11,-6],[-8,-2],[-3,1],[-10,4],[-4,1],[-29,-5],[-6,-3],[-7,-18],[-8,-20],[-9,-10],[-2,-1],[-4,-4],[-9,-4],[-13,-2],[-6,2],[-8,-3],[-9,7],[-7,5],[-7,3],[-3,-1],[-4,-4],[-3,-1],[-4,2],[-10,14],[-10,7],[-7,1],[-20,-7],[-32,6],[-29,-3],[-26,5],[-37,-4],[-6,-4],[-5,-5],[-7,-6],[-13,-8],[-23,0],[-14,12],[-7,-1],[-5,-3],[-14,6],[-5,7],[-12,0],[-12,-1],[-5,-5],[-19,-2],[-26,8],[-13,5],[-18,-4],[-26,-8],[-35,10],[-8,-2],[-11,-8],[-32,-5],[-10,-1],[-65,5],[-6,-2],[-5,-4],[-10,-18],[-2,-4],[-5,-5],[-4,-7],[-2,-7],[-10,-18],[-23,-3],[-10,-20],[-13,-8],[-3,-2],[-8,-3],[-16,-4],[-15,1],[-42,5],[-8,0],[-3,-1],[-5,-3],[-25,-18],[-25,-2],[-17,-11],[-5,-1],[-13,-2],[-6,-2],[-4,-3],[-5,-6],[-10,-18],[0,-4],[-7,-17],[-3,-7],[-2,-2],[-2,-2],[-3,-2],[-6,-3],[0,-3],[2,-4],[-4,-6],[-12,-23],[-2,-4],[-2,-27],[0,-2],[-1,-6],[-3,4],[-6,20],[-6,4],[-8,3],[-7,0],[-2,-4],[-3,-4],[-1,-6],[0,-6],[2,-6],[-2,-4],[1,-7],[2,-4],[1,-4],[-1,-5],[-2,-3],[-3,-2],[-7,-3],[-37,-14],[-5,-3],[-11,-4],[-7,14],[-15,9],[-6,5],[-9,-3],[-8,2],[-7,5],[-15,4],[-6,5],[-8,12],[-23,23],[-7,5],[-8,0],[-17,-3],[-19,6],[-9,12],[-7,15],[-9,14],[-20,11],[-2,6],[-1,8],[-2,8],[-4,8],[-12,14],[-9,20],[-5,14],[-8,16],[-8,6],[-3,4],[4,2],[3,-1],[12,-10],[3,-4],[-2,-4],[3,-5],[5,-6],[5,1],[2,3],[4,6],[8,9],[-2,0],[-8,-3],[-6,1],[-3,7],[2,14],[-3,9],[-18,16],[-4,2],[-24,2],[-7,2],[-5,6],[-5,18],[-4,8],[-5,9],[-2,8],[2,8],[7,8],[6,3],[14,5],[5,4],[3,11],[-3,19],[2,11],[13,10],[29,-2],[11,13],[-7,-4],[-10,-4],[-9,0],[-7,6],[-15,-6],[-7,-6],[-3,-9],[2,-27],[-2,-6],[-13,0],[-10,14],[-12,30],[-8,14],[-10,11],[-90,64],[-9,5],[-9,3],[-6,2],[-15,13],[-7,3],[-8,4],[-6,10],[-3,12],[3,6],[4,3],[13,19],[4,8],[-18,-20],[-11,-8],[-11,0],[0,-2],[8,-13],[4,-8],[0,-5],[-4,0],[-32,16],[-12,3],[-14,5],[-10,-4],[10,-2],[5,-2],[-88,-2],[-6,-3],[-7,-6],[-6,-1],[-7,2],[-6,4],[2,-2],[0,-2],[1,-2],[3,-1],[0,-3],[-3,-3],[-6,5],[-8,2],[-8,0],[-8,-1],[-8,-3],[-15,-10],[-6,-2],[-21,-14],[-3,-4],[-55,-37],[-12,-11],[-5,0],[-6,2],[-8,2],[-22,0],[-6,3],[-3,-6],[-4,1],[-5,3],[-4,2],[4,-6],[1,-3],[1,-4],[-8,12],[-14,11],[-26,15],[-14,3],[-12,5],[-12,0],[-29,-4],[-13,4],[-14,5],[-11,-5],[-15,-2],[-16,6],[-1,-1],[-19,11],[-16,3],[-17,-2],[-5,-1],[-5,-4],[-12,-12],[-22,0],[-4,-1],[-10,-6],[-4,-2],[-6,-1],[-9,-2],[-8,-7],[-7,3],[-6,-7],[-3,-2],[-4,-2],[-7,-6],[-4,-1],[-6,2],[-4,4],[-4,2],[-5,-2],[2,13],[2,6],[2,3],[14,22],[6,13],[5,10],[-4,14],[7,6],[8,9],[6,20],[-3,8],[-3,7],[6,11],[10,12],[2,11],[6,15],[5,20],[2,12],[1,21],[-2,11],[-4,7],[-5,6],[-1,6],[5,20],[2,12],[3,12],[5,2],[10,2],[2,11],[0,2],[-3,-4],[-8,-2],[-9,0],[-3,8],[3,23],[4,25],[-1,15],[-2,10],[-6,12],[-12,2],[-15,9],[2,4],[3,2],[3,1],[2,3],[19,40],[7,32],[8,25],[-1,24],[-3,29],[-3,25],[-10,18],[-9,10],[-11,13],[-14,11],[-10,3],[6,6],[8,-3],[13,-12],[17,-6],[8,-4],[1,-6],[15,1],[36,-10],[18,6],[-11,1],[-9,2],[-27,12],[-3,4],[-2,6],[-1,6],[1,6],[2,4],[3,3],[0,3],[-5,2],[-4,5],[-1,6],[2,6],[-5,0],[-7,-14],[-8,-2],[0,-3],[8,-1],[4,-7],[0,-7],[-3,-4],[-8,1],[-8,2],[-13,7],[-14,4],[-17,-3],[-17,-18],[3,-3],[-20,-8],[-36,-4],[-7,-3],[-6,-4],[-7,-2],[-9,3],[-2,0],[-1,2],[0,4],[1,3],[1,1],[3,4],[11,10],[2,15],[0,21],[-9,21],[-11,17],[-5,14],[7,3],[17,3],[15,1],[8,-5],[4,-5],[2,0],[-2,9],[5,3],[12,3],[5,1],[0,3],[6,6],[5,6],[11,7],[13,11],[1,1],[2,2],[2,1],[0,3],[-4,6],[-4,9],[-2,9],[3,7],[-9,-1],[-4,8],[-2,11],[-3,10],[15,32],[10,15],[13,9],[7,2],[15,1],[7,3],[14,10],[5,6],[4,6],[-10,-7],[-16,-12],[-32,-3],[-4,-4],[-7,-13],[-18,-24],[-20,-40],[-11,-12],[-4,-6],[-3,-8],[1,-8],[1,-15],[1,-11],[-5,-11],[-18,-6],[-21,-3],[-24,2],[-6,-5],[-7,-8],[-14,9],[-16,6],[-9,2],[-16,-2],[-7,2],[0,9],[3,8],[-5,20],[0,9],[2,5],[4,5],[9,9],[12,37],[-1,27],[-4,17],[4,10],[1,12],[15,26],[4,12],[7,16],[2,17],[2,15],[-5,22],[-4,9],[-13,13],[-3,5],[4,1],[17,-4],[27,17],[6,6],[8,0],[4,-5],[4,-1],[4,4],[-3,6],[-5,6],[5,9],[9,9],[3,5],[6,4],[11,7],[5,8],[4,8],[7,13],[1,7],[-1,9],[5,12],[2,17],[29,74],[45,128],[6,7],[4,-6],[6,-3],[14,-1],[0,4],[-5,5],[-6,4],[-6,2],[-17,2],[-6,4],[-4,7],[0,9],[4,13],[11,21],[25,91],[5,28],[6,21],[5,26],[1,2],[2,1],[0,-10],[0,-3],[7,12],[6,4],[5,-3],[2,0],[0,3],[-1,1],[-1,2],[-1,3],[1,3],[3,2],[2,-1],[2,-3],[2,-1],[3,1],[3,4],[5,7],[-6,4],[-3,5],[1,5],[6,2],[9,1],[6,2],[6,4],[6,5],[-6,0],[-10,-5],[-7,-1],[-2,-1],[-2,0],[-8,4],[-3,3],[-3,13],[14,18],[-3,10],[-1,-8],[-2,-6],[-3,-2],[-2,6],[-5,-9],[-4,-12],[-2,-12],[-1,-12],[-2,-7],[-4,-10],[-5,-10],[-4,-5],[33,148]],[[4096,1762],[-14,-10],[-16,-9],[-11,-2],[-4,-1],[-8,1],[-15,7],[-26,6],[-10,5],[-6,6],[-1,5],[2,6],[-1,5],[-3,2],[-4,1],[-4,2],[-1,6],[-5,2],[-10,-3],[-15,-7],[-4,-1],[-7,1],[-4,0],[-2,0],[-1,2],[-2,1],[-3,0],[0,-2],[0,-3],[1,-3],[1,-1],[-1,-5],[-17,-36],[-2,-3],[-4,-3],[-4,1],[-5,1],[-4,0],[-5,-13],[-6,-6],[-7,-3],[-7,-2],[-14,-1],[-3,1],[-3,4],[-2,4],[-2,3],[-4,1],[-4,1],[-8,2],[-3,1],[-5,1],[-3,3],[-3,3],[-3,2],[-8,-2],[-9,-16],[-14,-8],[-4,-2],[-2,2],[-2,3],[-5,1],[-9,-3],[-5,-3],[-6,-6],[-7,-4],[-13,-3],[-3,-3],[-4,-7],[-11,-11],[-9,-6],[-4,-3],[-9,-14],[-2,-2],[-9,-1],[-4,-2],[-2,-4],[-13,-34],[-4,-7],[-4,-8],[-4,-22],[-4,-9],[-4,-6],[-5,-6],[-7,-5],[-7,-2],[-10,-12],[-2,-2],[-2,-1],[-9,-3],[-35,-4],[-7,-2],[-43,-38],[-3,-8],[-4,-3],[-24,-8],[-12,-14],[-5,-4],[-5,-1],[-11,0],[-3,-1],[-9,-7],[-35,-10],[-6,-5],[-2,-1],[-3,0],[-9,3],[-23,-3],[-13,3],[-13,6],[-12,3],[-11,-6],[-1,2],[-1,1],[-2,0],[-1,0],[-8,-3],[-10,4],[-9,6],[-9,2],[-8,2],[-35,14],[-7,-2],[-7,-6],[-8,-9],[-6,-4],[-9,-2],[-16,-2],[-38,6],[-19,7],[-15,9],[-18,18],[-2,5],[-18,20],[-5,4],[-2,-4],[6,-10],[28,-32],[15,-14],[-26,3],[-13,4],[-9,7],[-6,7],[-3,6],[-1,6],[-2,14],[1,8],[1,7],[3,4],[-5,7],[0,1],[-3,5],[-9,18],[0,1],[-1,2],[-5,17],[4,14],[-2,6],[2,7],[-1,4],[-5,2],[-3,-1],[-2,-4],[1,-5],[-10,-14],[-14,-35],[-11,-13],[-5,0],[-4,1],[-3,2],[-3,0],[-4,-2],[-17,-18],[-7,-5],[-45,-17],[-16,-3],[-19,2],[-3,1],[-8,4],[-4,1],[-3,0],[-5,-1],[-4,1],[-10,5],[-27,5],[-8,5],[-15,15],[-8,4],[-9,2],[-10,-4],[-7,-9],[-3,-12],[-4,-8],[-8,-4],[-13,-1],[-6,-1],[-10,1],[-8,0],[-5,3],[-6,8],[-2,3],[-2,2],[2,2],[4,2],[2,2],[-4,5],[-15,-8],[-31,-6],[-31,-14],[-50,-9],[-21,-14],[-8,-2],[-10,1],[-43,13],[-1,0],[-48,11],[-52,16],[-14,9],[-20,19],[-16,6],[-7,7],[-10,14],[-12,12],[-7,5],[-7,2],[-9,2],[-6,4],[-30,45],[-13,13],[-16,11],[-7,7],[-4,9],[-6,24],[0,3],[0,7],[0,3],[-2,0],[-6,-1],[-2,1],[-3,3],[-2,4],[-2,6],[-2,19],[-5,23],[-1,12],[1,6],[1,0],[1,7],[16,13],[3,9],[-9,-4],[-7,1],[-6,5],[-8,4],[-7,1],[-5,-1],[-2,1],[-1,-1],[-1,-3],[-1,-4],[-4,0],[-4,3],[-2,1],[-3,1],[-7,-4],[-7,-6],[-13,-15],[-6,-6],[-22,-13],[-6,4],[-8,2],[-9,0],[-6,-3],[-5,2],[-7,-1],[-6,-4],[-5,-3],[-10,-10],[-4,-1],[-33,5],[-13,-2],[-7,-8],[-3,-7],[-3,-10],[-2,-22],[-1,-4],[-5,-7],[-1,-4],[-1,-4],[-7,-25],[-8,-18],[-2,-6],[0,-11],[-2,-9],[-66,-171],[-32,-110],[-78,-171],[-9,-14],[-6,-18],[-4,-7],[-40,-63],[-24,-53],[-32,-56],[-38,-43],[-38,-32],[-13,-5],[-12,-10],[-6,-3],[-13,-2],[-15,-6],[-13,-7],[-14,-13],[-27,-19],[-4,-3],[-8,-2],[-7,2],[2,4],[-7,-3],[-10,-13],[-10,-5],[-13,-17],[-4,-4],[-7,-4],[-8,-3],[-11,-2],[-6,-4],[-3,-2],[-4,1],[-4,2],[-3,0],[-4,-3],[-8,2],[-6,-5],[-6,-8],[-7,-4],[-6,-2],[-15,-8],[-24,-7],[-9,-5],[-8,-10],[-9,-4],[-17,-5],[-18,-8],[-35,-16],[-49,-12],[-15,-7],[-13,-11],[-22,-27],[-13,-12],[-13,-7],[-7,-1],[-9,-1],[-3,1],[-3,4],[-3,1],[-3,-2],[-30,-37],[-4,-6],[0,-10],[0,-5],[-3,-6],[-45,-53],[-42,-58],[-12,-12],[-35,-27],[-42,-51],[-53,-49],[-7,-13],[0,-8],[2,-8],[3,-6],[3,-5],[3,-7],[0,-9],[-3,-9],[-10,-20],[-2,-7],[-1,-10],[1,-3],[7,-4],[2,-2],[-2,-47],[-3,-14],[-5,-13],[-13,-17],[-2,-6],[-1,-7],[-4,-18],[-3,-7],[-4,-9],[-31,-34]],[[2195,3568],[4,-3],[-6,-5],[-9,-5],[-9,-2],[-10,1],[-9,3],[-8,3],[-6,5],[-4,-4],[-5,-2],[-4,-1],[-4,1],[5,6],[-3,3],[-4,0],[-3,-4],[-3,-5],[-6,1],[-8,5],[-11,4],[-11,1],[-10,-3],[-6,-8],[-5,1],[-11,-6],[-5,-1],[-43,6],[-3,-1],[-8,-7],[-6,-1],[-8,0],[-4,1],[-4,2],[-3,7],[-2,2],[-3,1],[-6,-1],[-3,2],[-3,3],[-31,14],[-4,3],[3,3],[2,0],[2,-1],[3,-2],[4,0],[3,0],[5,-3],[3,-2],[5,-6],[1,-1],[7,-1],[19,-9],[7,-1],[20,1],[31,-3],[14,1],[58,26],[6,1],[13,-1],[6,2],[5,5],[0,3],[-1,2],[-4,1],[0,4],[4,0],[1,0],[3,0],[0,2],[1,1],[3,3],[4,-3],[3,-4],[2,-4],[1,-5],[-8,-5],[4,-7],[24,-19],[4,-2],[6,-1],[5,2],[8,7],[5,0]],[[1199,2281],[0,-3],[9,-3],[10,0],[10,2],[6,4],[1,2],[2,1],[-1,4],[-1,1],[-1,1],[-8,-8],[-8,-3],[-19,2]],[[3829,2630],[-2,2],[-2,5],[-1,2],[0,1],[0,1],[-1,1],[-2,0],[2,-13],[-1,-15],[2,-13],[8,-9],[-5,17],[-1,10],[3,11]],[[3149,3978],[5,3],[4,-1],[-8,-9],[-4,-4],[-6,-3],[-2,-2],[-8,-8],[-2,-3],[0,-3],[1,-4],[-1,-2],[-7,-9],[-6,-9],[0,-9],[8,-8],[-7,-7],[-6,-17],[-6,-4],[-5,5],[2,9],[7,14],[-5,9],[4,13],[9,11],[6,5],[0,2],[5,7],[1,2],[1,2],[10,11],[10,9]],[[2244,3328],[10,7],[13,26],[8,-1],[-6,-14],[-4,-8],[-6,-4],[-4,-7],[-3,-2],[0,-2],[0,-1],[-8,6]],[[2252,3322],[0,-4],[-1,-2],[-2,0],[-2,1],[-2,0],[-4,-2],[-6,-3],[-3,-2],[-6,-5],[-8,-8],[-2,-1],[-1,-3],[0,-10],[-1,-5],[-2,-3],[-2,-2],[0,-3],[-5,6],[0,7],[5,15],[4,22],[3,6],[16,-6],[11,8],[8,-6]],[[2267,3361],[-10,24],[0,3],[3,0],[3,-3],[7,-3],[6,-2],[4,-1],[5,3],[3,6],[3,2],[41,-14],[0,-4],[-10,2],[-17,6],[-9,2],[-6,-2],[6,-4],[23,-12],[3,-2],[2,-4],[1,-6],[1,-5],[5,-7],[1,-3],[4,-7],[18,-11],[5,-9],[-15,5],[-7,4],[-6,5],[-5,9],[-7,16],[-4,5],[-9,1],[-4,2],[-2,2],[-1,3],[-3,3],[-5,1],[-1,1],[-8,4],[-2,0],[-1,2],[-2,-1],[-2,-2],[-2,0],[-2,-2],[1,-3],[3,-5],[-8,1]],[[3187,3850],[5,-2],[6,0],[-8,-3],[-8,2],[-7,4],[-6,5],[-6,2],[-33,-4],[-6,-2],[-4,-4],[-4,-16],[0,-3],[3,-4],[4,-3],[3,-2],[2,-3],[0,-6],[-5,7],[-1,-5],[1,-15],[-5,6],[-6,2],[-4,5],[-4,23],[-4,2],[-6,-2],[-8,2],[9,10],[8,5],[2,1],[7,-1],[0,1],[10,3],[1,0],[2,2],[3,3],[2,3],[0,2],[6,-2],[28,-2],[9,3],[1,-2],[8,-9],[5,-3]],[[804,3138],[-1,-1],[-2,-2],[-4,-4],[-4,-7],[-3,-8],[3,-1],[6,7],[5,7],[3,7],[-1,3],[-2,-1]],[[3948,3367],[-15,18],[-4,7],[-3,4],[-3,8],[-1,4],[-1,5],[0,4],[0,4],[2,4],[2,3],[6,4],[2,4],[1,2],[0,2],[-1,5],[0,1],[1,4],[0,1],[1,15],[0,4],[2,4],[3,3],[3,2],[3,2],[3,1],[2,2],[5,5],[2,3],[1,3],[1,4],[1,7],[1,16],[1,3],[0,3],[2,3]],[[3185,2226],[2,2],[11,10],[3,2],[3,2],[10,2],[8,-1]],[[2944,2186],[40,3],[39,-2],[26,-3],[8,1],[32,11],[4,1],[4,0],[4,0],[4,-1],[13,-5],[4,-1],[4,0],[4,1],[4,2],[3,3],[7,10],[2,2],[8,6],[27,10],[3,2],[1,0]],[[3222,2243],[1,0],[27,-9],[9,-2],[6,0],[3,0],[3,1],[3,1],[3,2],[1,3],[4,11],[3,7],[3,5],[5,5],[6,4],[7,2],[15,1],[6,2],[7,3],[5,5],[4,7],[5,14],[3,31],[4,15],[8,9],[19,10],[9,7],[2,4],[5,8],[1,1],[1,3],[1,4],[0,3],[0,3]],[[2405,2090],[7,6],[30,30]],[[2443,2127],[8,8],[4,6],[3,6],[3,8],[2,3],[3,1],[3,1],[3,1],[7,0]],[[2099,1898],[1,7],[3,7],[4,6],[5,5],[8,4],[2,1],[4,3],[2,2],[6,7],[19,32],[3,8],[8,20],[2,3],[2,3],[7,5],[1,2],[9,16],[3,3],[2,3],[3,2],[3,2],[93,39],[14,4],[14,2],[14,-1],[45,-6],[6,1],[6,2],[6,2],[6,4],[5,4]],[[2442,2126],[1,1]],[[945,3625],[-1,-1],[-2,-2],[0,-2],[-2,-5],[-4,-21],[-1,-5],[-4,-8],[-1,-2],[0,-2],[0,-2],[0,-5],[0,-2],[-1,-4],[-2,-4],[-8,-14],[-1,-4],[-1,-4],[0,-2],[1,-2],[1,-2],[1,-1],[11,-10],[3,-3],[2,-4],[1,-4],[0,-5],[1,-13],[-1,-11],[1,-4],[0,-1],[0,-1],[2,-5],[2,-3],[1,-4],[0,-4],[0,-4],[-1,-3],[-3,-10],[-1,-3],[0,-4],[0,-4],[1,-4],[3,-6],[7,-13],[3,-7],[1,-9],[-1,-10],[-2,-9],[-3,-9],[-4,-8],[-4,-7],[-34,-42],[-12,-13],[-34,-26],[-10,-9],[-4,-5],[-4,-5],[-3,-11],[-3,-11],[-4,-10],[-8,-6]],[[786,3148],[-12,-26],[-1,-3],[-1,-3],[-2,-17]],[[826,3212],[-8,-15],[-2,-5],[-26,-37],[-4,-7]],[[747,3052],[0,-2],[4,-7],[4,-7],[5,-6],[5,-6],[6,-5],[7,-5]],[[770,3099],[-4,-5],[-13,-12],[-2,-3],[-2,-3]],[[749,3076],[-2,-4],[-1,-4],[-1,-4],[1,-5],[0,-4],[1,-3]],[[778,3014],[6,-4],[8,-3],[6,-2],[3,0],[3,0],[4,1],[16,5],[5,1],[4,0],[5,0],[4,0],[24,-9],[8,-1],[4,-1],[3,0],[4,1],[22,9],[6,1],[6,0],[29,-3],[8,0]],[[991,4096],[0,-1],[4,-27],[0,-2],[0,-2],[-1,-2],[0,-1],[-2,-5],[0,-2],[-1,-2],[0,-4],[0,-9],[0,-5]],[[991,4034],[1,-16],[1,-8],[2,-8],[1,-1]],[[991,4034]],[[996,4001],[7,-22],[2,-6],[1,-6],[0,-2],[-1,-3],[-1,-5]],[[990,3921],[-2,-3],[-2,-3],[-1,-4],[0,-3],[0,-2],[0,-3]],[[1010,3840],[1,0],[0,-2],[1,-2],[0,-3],[0,-2],[0,-4],[-1,-13],[0,-8],[4,-25],[0,-2],[0,-4],[-1,-5],[-1,-4],[-3,-8],[-1,-4],[-1,-8],[1,-12]],[[1009,3734],[0,-7],[1,-6],[0,-7],[-1,-2],[0,-2],[-1,-2],[-1,-2],[-6,-6],[-3,-3],[-1,-3],[-2,-8],[-2,-4],[-1,-4],[-1,-1],[-21,-30],[-6,-5],[-15,-14],[-5,-4]],[[985,3903],[0,-2],[1,-2],[2,-6],[3,-8],[8,-14],[2,-8],[0,-5],[0,-2],[1,-2],[1,-2],[2,-3],[5,-7],[0,-2]],[[1004,3957],[-6,-22],[-4,-9],[-1,-1],[-3,-4]],[[2761,3876],[8,0],[3,1],[3,2],[2,1],[8,12],[3,3],[3,1],[3,1],[2,-1]],[[2816,3879],[-1,-3],[-2,-5],[0,-2],[-1,-3],[0,-1],[-1,0],[-2,-3],[-1,-1],[0,-1],[-1,-1],[0,-1],[0,-2]],[[2796,3896],[2,0],[1,-1],[5,-4],[8,-5],[2,-1],[1,-2],[1,-2],[0,-2]],[[2683,3805],[-1,9],[0,2],[0,2],[-2,4],[-1,1],[-4,5],[-2,3],[-2,4],[-1,4],[0,5],[1,8],[0,5],[0,4],[-3,11],[0,3],[0,2],[0,2],[2,3],[1,2],[2,1],[2,2]],[[2700,3861],[-7,-1],[-3,1],[-4,1],[-1,0],[-1,2],[-2,1],[-1,2],[-1,3],[-6,16],[-2,6],[-3,4],[-1,2],[-6,6],[-1,1],[-1,1],[-1,1],[-5,2],[-2,1],[-1,1],[-6,12],[-2,3],[-6,5],[-7,3],[-21,4],[-3,1],[-4,1],[-3,2],[-3,2],[-8,8]],[[2588,3952],[-5,6],[-6,5],[-14,8],[-2,2],[-4,6],[-2,0]],[[2807,3856],[1,-9],[0,-4],[-1,-4],[-2,-4],[-5,-8],[-1,-1],[0,-2],[0,-2],[0,-5],[-1,-2],[-1,-2],[-1,-1],[-3,-2],[-3,-2],[-9,-3],[-1,-1],[-13,-10],[-12,-12],[-5,-4],[-1,-1],[-2,0],[-25,4],[-32,12],[-1,0],[-1,1],[-2,1],[0,2],[-1,2],[-1,2],[-1,4]],[[1099,2345],[6,7],[1,1],[2,0],[7,-1],[16,-5],[50,-25],[3,-1],[4,0],[4,-1],[22,1],[7,-1],[2,0],[5,-2],[2,-1],[1,0],[4,0],[3,1],[3,1],[4,2],[3,3],[1,1],[4,5],[1,1],[2,1],[3,1],[21,4],[7,4],[3,2],[7,6],[11,7],[26,14],[142,44]],[[1566,2429],[2,-2],[3,-1],[3,-1],[1,0]],[[1476,2414],[20,7],[18,2],[7,2],[7,3],[4,2],[3,2],[5,5],[3,1],[3,2],[4,0],[4,0],[3,-1],[2,-1],[1,-1],[1,-1],[1,-1],[3,-5],[0,-1],[1,0]],[[1575,2425],[2,0],[4,0],[57,9],[29,1],[43,9],[7,0],[2,0],[12,-3],[15,-1],[21,1],[43,5],[3,0],[3,0],[21,-5],[8,-1],[3,0],[4,1],[7,4],[14,5],[2,1],[2,1],[2,2],[1,2]],[[951,3010],[3,-5],[4,-5],[1,-2],[0,-2],[1,-4],[1,-4],[0,-5],[2,-4],[1,-2],[1,-1],[6,-6],[7,-8],[10,-14],[8,-15],[1,-4],[4,-10],[1,-8],[0,-2],[0,-5],[0,-3],[-1,-2],[-6,-17],[-2,-8],[-1,-9],[-2,-15],[0,-6],[1,-6],[3,-6],[3,-7],[4,-5],[5,-5],[33,-26],[12,-12],[16,-23],[9,-17],[7,-19],[5,-20],[6,-54],[4,-18],[2,-8],[4,-8],[12,-22],[2,-3],[2,-5],[0,-4],[0,-4],[-1,-4],[-8,-19],[-1,-8],[0,-8],[2,-15],[0,-2],[0,-2],[0,-2],[-1,-1],[-1,-1],[-10,-13],[-2,-4],[-1,-3],[-2,-4],[-5,-14],[-6,-16],[-2,-9],[0,-9],[1,-16],[0,-2],[-2,-23],[0,-4],[1,-4],[1,-4],[2,-4],[4,-8],[5,-8],[2,-3],[1,-3],[2,-14]],[[2555,3979],[-29,1],[-3,1],[-44,12],[-5,3],[-6,4],[-12,9],[-21,24],[-4,5],[-2,3],[-1,3],[-1,3],[-1,3],[-1,3],[0,2],[0,10]],[[2425,4065],[0,4],[-1,3],[-5,1],[-4,1],[-3,0],[-2,1],[-1,1],[-6,7],[-7,8],[-2,3],[-1,2]],[[2475,2173],[4,1],[6,2]],[[2485,2176],[4,2],[3,1],[9,0],[12,1],[4,-1],[2,0],[2,-2],[2,-1],[23,-6],[3,0],[3,0],[3,1],[2,2],[4,5],[4,3],[1,1],[1,0],[3,1],[3,0],[7,0],[3,1],[10,5],[2,1],[1,0],[4,0],[3,0],[21,-7],[4,0],[14,0],[12,2],[4,1],[3,2],[4,2],[1,1],[7,4],[7,1],[7,-1],[10,-3],[7,-2],[3,0],[9,1],[1,0],[2,-1],[1,-1],[2,-4],[1,-1],[2,-1],[3,-2],[4,-1],[7,-1],[19,0],[29,4],[5,-1],[5,-1]],[[1919,2463],[13,7],[6,3],[23,2]],[[1961,2475],[3,1],[30,11],[17,9],[5,2],[2,1],[2,0],[2,0],[2,0],[11,-2],[14,-2],[18,1],[6,2],[25,11],[7,2],[6,-1],[12,-2],[4,0],[3,0],[3,1],[15,11],[4,2],[2,0],[1,0],[2,-1],[3,-2],[4,-1],[5,-2],[7,-1],[52,0],[6,1],[4,1],[3,1],[16,10],[6,4],[5,6],[5,6],[4,7],[12,32],[4,7],[4,6],[6,4],[15,7],[3,2],[3,3],[4,6],[8,14],[12,32],[4,8],[5,8],[5,5],[7,4],[7,2],[35,5],[4,1],[3,2],[3,1],[3,3],[1,1],[2,1],[1,2],[1,2],[3,5],[1,2],[2,2],[3,1],[4,1],[17,-1],[1,1],[4,0],[3,2],[3,2],[2,3],[2,6],[1,2],[3,3],[1,2],[1,1],[2,1],[4,2],[4,1],[3,0],[6,0],[3,0],[7,-2],[2,-1],[6,-4],[8,-4],[4,-1],[3,0],[7,0],[3,0],[4,1],[3,1],[2,2],[4,4],[15,10],[10,4],[3,1],[4,0],[15,-2],[51,4],[6,1],[3,1],[19,10],[18,7],[3,2],[46,42],[16,19],[1,2],[1,1],[4,12],[2,4],[33,36],[5,8],[5,7],[4,10],[3,9],[1,10],[0,10],[-2,22],[0,11],[1,11],[0,2]],[[2477,2159],[-3,18]],[[2474,2177],[-2,4],[-7,17],[0,2],[-1,2],[0,2],[0,2],[0,2],[2,4],[1,1],[1,2],[9,7],[1,1],[0,1],[0,2],[-1,2],[-8,10],[-2,4],[-1,4],[0,1],[-3,40],[-1,9],[-3,9],[-4,8]],[[1915,2463],[19,-3],[19,-6],[12,-5]],[[1965,2449],[7,-2],[18,-10],[36,-26],[8,-3],[8,-2],[8,0],[7,1],[20,9],[8,2],[8,0],[8,-3],[7,-4],[22,-16],[8,-3],[9,-2],[8,1],[37,9],[41,4],[45,0],[8,1],[28,9],[5,1],[5,0],[5,-1],[5,-3],[4,-4],[4,-5],[3,-6],[5,-13],[2,-5],[2,-3],[3,-3],[2,-2],[3,-3],[6,-4],[19,-11],[25,-21],[10,-5],[4,-2],[4,-1],[4,-1],[5,0],[6,1],[3,-1],[2,-2]],[[2642,3777],[17,5],[7,2],[6,5],[12,14]],[[1958,3435],[2,30],[1,5],[3,8],[4,6],[6,6],[6,4],[5,2],[16,5],[4,1],[3,1],[3,2],[3,3],[2,3],[1,5],[-1,4],[-2,3],[-11,12],[-1,2],[0,2],[0,2],[1,2],[1,2],[1,1],[3,3],[1,1],[2,1],[3,1],[4,1],[3,0],[4,0],[3,2],[2,3],[2,4],[3,13],[0,2],[1,1],[1,2],[1,1],[2,2],[1,1],[4,2],[3,1],[46,9],[26,9],[9,3],[4,0],[4,0],[5,0],[4,-2],[12,-7],[4,-1],[4,-1],[4,0],[4,0],[4,1],[4,2],[2,1],[8,7],[3,3],[4,1],[3,1],[3,1],[22,-2],[13,-3],[8,0],[7,0],[15,3],[7,3],[40,19],[5,4],[11,10],[6,3],[7,-1],[6,-6],[3,-2],[4,-2],[3,-1],[14,-1],[12,1],[3,1],[3,1],[3,2],[6,4],[1,1],[2,1],[4,1],[57,5],[6,2],[5,3],[9,4],[6,5],[3,2],[2,4],[3,3],[6,12],[2,2],[2,2],[4,1],[18,1],[2,1],[1,1],[4,6],[2,1],[1,1],[2,1],[1,0],[8,-1],[3,-1],[2,1],[2,0],[1,1],[2,1],[3,3],[2,3],[4,7],[2,3],[5,6],[3,3],[3,2],[2,1],[2,0],[2,0],[1,0],[1,1],[26,30],[6,4],[6,3],[6,3],[4,0]],[[956,3009],[10,2],[10,5],[3,2],[14,2],[14,1],[22,6],[4,0],[3,1],[32,-7],[7,0],[4,0],[3,1],[3,2],[8,8],[3,2],[2,1],[2,1],[1,0],[13,0],[3,-1],[4,-1],[1,-1],[4,-5],[1,-1],[2,-1],[25,-11],[9,-6],[3,-1],[3,-1],[3,1],[3,2],[6,6],[3,2],[3,1],[4,1],[26,-1],[3,0],[3,1],[3,2],[1,1],[21,32],[7,8],[1,1],[13,8],[3,1],[3,1],[7,1],[3,1],[3,1],[2,3],[7,9],[2,3],[3,3],[7,5],[7,4],[3,1],[3,1],[3,1],[3,0],[14,-4],[14,-1],[7,0],[6,2],[45,20],[5,2],[42,8],[3,1],[2,3],[3,6],[1,2],[2,3],[2,2],[1,0],[4,1],[2,0],[2,0],[1,0],[4,-1],[5,-2],[6,-3],[13,-8],[4,-2],[3,0],[3,0],[22,3],[2,0],[2,0],[8,-3],[2,-1],[7,-1]],[[1563,3137],[3,-2],[1,0],[2,0],[2,0],[1,1],[8,6],[2,1],[1,1],[1,0],[1,0],[1,0],[0,-1],[1,0],[0,-1],[1,-2],[2,-1],[1,0],[2,-1],[22,-1],[3,-1],[11,-5],[1,-1],[15,-11],[11,-6],[2,-2],[2,0],[2,0],[3,0],[6,0],[30,8],[50,19],[3,1],[2,2],[13,16],[4,3],[3,2],[3,1],[11,2],[13,0],[21,-2],[7,0],[2,1],[1,0],[2,1],[1,1],[3,2],[2,3],[1,3],[2,7],[2,3],[2,1],[3,0],[3,0],[1,-1],[3,-2],[1,0],[2,-1],[1,1],[1,0],[2,1]],[[1866,3183],[2,1],[1,1],[1,1],[2,2],[1,1],[2,4],[9,18],[4,7],[5,6],[6,5],[6,4],[30,16],[6,5],[2,2],[2,3],[1,3],[2,4],[0,4],[-1,19],[1,4],[0,4],[2,5],[2,3],[1,2],[3,3],[1,1],[1,2],[0,2],[1,2],[0,1],[0,5],[-1,2],[-1,5],[-1,4],[-1,2],[-5,11],[-2,4],[0,4],[-1,5],[0,4],[0,19],[2,9],[5,20],[4,23]],[[2767,3873],[-3,3],[-3,3],[-3,1],[-10,3],[-4,1],[-3,0],[-2,0],[-1,-1],[-2,0],[-1,-2],[-3,-6],[-1,-2],[-2,-3],[-3,-2],[-3,-1],[-20,-7],[-1,0],[-2,-1],[-1,-2],[-1,-1],[-1,-2],[-1,-3]],[[2779,3890],[-1,8],[2,6],[7,13],[0,3],[1,2],[0,3],[-1,7],[-1,2],[0,2],[-2,4],[-4,7],[-2,4],[-1,4],[2,4],[8,9],[2,3],[1,4],[0,4],[-2,3],[-5,9]],[[2783,3991],[-6,10],[-2,4],[-1,4],[-1,4],[-1,4],[1,5],[1,4],[5,12],[2,4],[0,4],[0,4],[0,5],[-2,4],[0,2],[-7,13],[-1,3],[-1,5],[-1,4],[0,4],[0,5],[0,1]],[[3944,2941],[-4,-4],[-3,-5],[-3,-5],[-1,-1],[-22,-15]],[[4096,3033],[-1,0],[-53,-37],[-6,-3],[-34,-13],[-41,-24],[-10,-8],[-6,-6],[-1,-1]],[[3948,3367],[0,-1],[0,-5],[1,-7],[1,-4],[1,-4],[5,-8],[2,-5],[0,-5],[-1,-5],[-5,-14],[-2,-7],[0,-3],[0,-5],[1,-6],[3,-5],[3,-4],[6,-3],[17,-7],[3,-1],[3,-2],[3,-2],[2,-3],[3,-3],[2,-4],[19,-45],[7,-26],[4,-9],[10,-11],[34,-27],[5,-5],[8,-9],[4,-3],[3,-2],[6,-1]],[[2808,3856],[5,2],[4,1],[8,1],[5,1],[4,2],[6,4]],[[2849,3872],[5,4],[17,8],[5,3],[1,1]],[[2920,3930],[6,3],[17,5],[5,3],[3,4],[3,6],[5,8]],[[2840,3867],[9,5]],[[2877,3888],[6,4],[30,32],[6,5],[1,1]],[[2959,3959],[1,2],[4,7],[22,24],[47,39],[54,36],[18,14],[2,1],[3,1],[2,1],[10,3],[4,1],[4,2],[3,2],[3,4]],[[3964,3531],[-11,18],[-5,6],[-8,9],[-33,25],[-15,15],[-20,25],[-23,21],[-5,5],[-4,7],[-4,7],[-6,22],[-1,4],[-1,3],[-2,3],[-3,3],[-2,3],[-3,2],[-3,1],[-19,5],[-6,3],[-13,8],[-12,10],[-6,6],[-10,12],[-19,35],[-4,6],[-6,6],[-5,4],[-3,2],[-24,10],[-6,4],[-6,4],[-5,6],[-10,12],[-15,22],[-4,7],[-11,38],[-16,37],[-3,11],[-1,6],[-1,5],[-1,6],[0,11],[1,12],[5,22],[11,44],[3,11],[1,11],[1,10]],[[2792,2185],[4,-2],[5,-6],[3,-2],[8,-4],[2,-1],[14,-10],[8,-4],[8,-2],[8,1],[7,3],[6,4],[11,9],[8,4],[8,3],[52,8]],[[2455,2313],[-3,4],[-3,5]],[[1893,2469],[1,0],[3,0],[1,-1],[3,-1],[2,-1],[1,0],[8,0],[3,-1],[2,-1],[2,-3]],[[1883,2452],[0,2],[0,1],[-1,2],[1,2],[1,1],[2,5],[3,2],[2,2],[2,0]],[[4096,3656],[-1,-3],[-1,-2]],[[4094,3651],[-1,-2],[-26,-42],[-15,-18],[-78,-135],[-10,-20],[-7,-19],[0,-2],[0,-4],[0,-2],[0,-2],[0,-2],[1,-2],[0,-2],[0,-1],[0,-1],[-7,-16],[-2,-5],[-1,-5],[0,-4]],[[2747,3755],[-1,6],[1,22]],[[2822,2995],[1,5],[28,84],[2,6],[2,11],[1,12],[2,72],[6,60],[0,11],[-1,11],[-1,10],[-3,9],[-3,9],[-4,9],[-26,48],[-8,17],[-4,13],[-4,15],[-2,14],[0,15],[0,7],[1,3],[0,2],[4,12],[1,2],[0,2],[0,2],[-1,2],[-1,2],[-2,3],[-1,2],[0,2],[-1,5],[0,5],[1,4],[5,35],[1,8],[3,22],[1,9],[0,9],[-1,4],[0,4],[0,5],[1,4],[2,4],[2,4],[1,4],[1,2],[0,2],[-1,4],[0,3],[-1,2],[0,2],[-1,2],[-3,3],[-1,2],[-56,45],[-1,1],[-1,1],[-1,4],[0,5],[2,13],[1,4],[0,2],[-1,2],[-2,4],[-1,1],[0,2],[-1,2],[0,8],[1,21],[-1,2],[-1,1],[-3,5],[-2,3],[-2,3],[-1,3],[-1,4],[0,3],[0,1]],[[3676,2753],[-23,-20]],[[3653,2733],[-25,-23],[-6,-4],[-12,-7],[-5,-6],[-5,-7],[-22,-43],[-5,-6],[-1,-2],[-6,-5],[-3,-2],[-3,-1],[-11,-1],[-4,-1],[-3,-1],[-3,-1],[-6,-4],[-6,-5],[-4,-2],[-3,-1],[-29,-2],[-7,-2],[-6,-3],[-6,-4],[-5,-6],[-17,-30],[-13,-18],[-7,-11],[-1,-3],[-3,-3],[-13,-13],[-6,-7],[-10,-20],[-17,-26],[-4,-8],[-1,-4],[-1,-4],[-1,-4],[0,-4],[1,-5],[2,-3],[3,-4],[2,-3],[3,-2],[10,-6],[2,-2],[2,-4],[3,-7]],[[3705,2775],[-1,-1],[-3,-3],[-3,-2],[-1,-1],[-9,-2],[-4,-1],[-3,-3],[-1,-3],[-2,-3],[-2,-3]],[[3911,2911],[-4,-2],[-3,-3]],[[3904,2906],[-2,-2],[-3,-2],[-2,-3],[-5,-7],[-3,-3],[-3,-2],[-4,-2],[-16,-3],[-5,-2],[-34,-16],[-8,-5],[-7,-6],[-41,-43],[-11,-9],[-12,-5],[-30,-6],[-3,-1],[-2,-2],[-3,-3],[-5,-9]],[[2019,1754],[-6,-1],[-6,-8],[-8,-13],[-9,0]],[[2141,1775],[-12,2],[-5,-2],[-5,-6],[-9,6],[-12,4],[-19,-19],[-8,-2],[-6,0],[-15,-7],[-16,3],[-11,0],[-4,0]],[[2155,1692],[2,-3],[-1,-23],[-2,-9],[-7,-13]],[[2141,1775],[-2,-9],[-1,-13],[1,-30],[2,-10],[7,-9],[7,-12]],[[3888,1661],[0,2],[-7,17],[-14,18],[-4,4]],[[3932,1633],[-11,5],[-19,10],[-9,2],[-5,5],[0,6]],[[2137,1647],[2,1],[8,-4]],[[1992,1726],[2,-5]],[[1994,1721],[1,-4],[9,-4],[4,-2],[6,-16],[11,-25],[4,-11],[8,-7],[6,-10],[9,-5],[13,-2],[8,-8],[18,2],[15,8],[15,1],[16,9]],[[4096,1640],[-14,-5],[-25,-4],[-11,-4]],[[4046,1627],[-10,-4],[-9,2],[-12,10],[-9,3],[-15,-1],[-14,-4],[-24,-4],[-21,4]],[[3858,1698],[-15,-11],[-1,-3]],[[3842,1684],[0,-3],[-11,-5],[-4,-10],[-5,-1],[-13,-2],[-24,-8],[-11,-5],[-18,-6],[-15,-7],[-9,-10],[-15,-9],[-6,-8],[-4,-9],[-8,-22],[-9,-14],[-1,-11],[-11,-17],[-3,-13],[-3,-2]],[[3924,1466],[-22,-2],[-30,4],[-9,0]],[[4096,1486],[-2,-1],[-12,2],[-10,-2],[-11,-4],[-9,-2],[-15,0],[-9,-5],[-6,2],[-7,9],[-8,6],[-4,1],[-15,-3],[-11,-6],[-10,-11],[-15,-2],[-9,-6],[-19,2]],[[2147,1644],[1,-4]],[[2148,1640],[3,-7],[-4,-2],[-8,0],[-9,-2],[-5,-4],[-1,-9],[-2,-8],[3,-5],[5,-2],[0,-13],[3,-4],[0,-13],[2,-15],[13,-43],[5,-11],[6,-25],[0,-14],[3,-21],[6,-11]],[[3025,1419],[1,8],[5,24],[-3,15],[-5,6],[2,13],[-6,19],[0,11],[1,6]],[[3013,1412],[12,7]],[[3672,1522],[-13,-7],[-9,-9],[-11,-6],[-21,-8],[-18,-5],[-15,-2],[-4,-4],[-14,-26],[0,-9],[6,-15],[-1,-15],[1,-4]],[[3573,1412],[-6,-4],[-19,-9],[-5,-2]],[[2168,1431],[4,-2],[14,-4],[9,-6],[4,-9],[9,-2],[15,4],[8,-4],[9,2],[9,8],[16,-10],[3,-5],[0,-10],[5,-3],[4,3],[12,-7],[39,-8],[8,0],[13,-3],[20,-4],[9,-2],[9,0],[9,-2],[27,-17],[15,-4]],[[2438,1346],[10,0],[9,2],[9,4],[17,9],[9,2],[15,-2],[13,-1],[9,0],[24,7],[12,13],[19,6],[7,9],[2,15],[9,9],[7,17],[9,8],[20,2],[4,2],[5,7],[19,8],[6,3]],[[3007,1406],[6,6]],[[2747,1335],[17,6],[19,-2],[15,9],[6,2],[5,8],[9,5],[6,10],[6,3],[18,0],[9,-1],[13,-2],[9,-2],[18,5],[39,-3],[35,7],[9,4],[16,9],[9,12],[2,1]],[[2672,1466],[5,2],[3,0],[1,-5],[9,-8],[3,-26],[6,-10],[-1,-18],[4,-26],[3,-10],[0,-20],[3,-2],[26,-10],[13,2]],[[3543,1397],[-4,-6],[-12,-13],[-15,-9],[-8,-13],[-7,-23],[-3,-3],[-29,-13]],[[3863,1468],[-15,-4],[-14,-11],[-6,-17],[-9,-7],[-31,-17],[-21,-17],[-3,-4],[0,-18],[-3,-13],[-6,-14],[-5,-1],[-10,5],[-26,-9],[-4,-4],[-8,-15],[-6,0],[-13,6],[-9,-2],[-12,-9],[-11,0],[-9,9],[-9,7],[-10,0],[-9,-3]],[[3465,1317],[-23,-10],[-4,-4]],[[3614,1330],[-12,-6],[-5,-2],[-15,4],[-4,-2],[-15,-11],[-5,-4],[-10,-4],[-15,-2],[-14,0],[-10,-3],[-9,3],[-14,2],[-9,8],[-12,4]],[[1992,1726],[-3,-3]],[[1989,1723],[-8,-10],[-19,-17],[-15,-11],[-18,-15],[-9,-18],[-5,-17],[-9,-19],[-6,-24],[-1,-10],[9,-15],[0,-13],[-5,-19],[-1,-14],[-8,-6],[-13,-17],[-3,-4],[1,-11],[-1,-6],[-5,-3],[-13,-2],[-3,-6],[0,-24],[4,-11],[12,-13],[18,-15],[14,-4],[7,-9],[5,-4],[9,2],[7,-2],[5,-4],[1,-4],[-1,-15],[4,-15],[2,-15],[-3,-5],[-20,-15],[-7,-15],[-5,-13],[-1,-13]],[[3438,1303],[-9,-11],[-5,-7],[-1,-15],[-6,-8],[-6,-3],[-6,-10],[-8,-4]],[[3025,1419],[8,-2]],[[3033,1417],[3,-1],[7,-6],[6,-9],[14,-10],[4,-16],[3,-6],[18,-8],[11,-5],[16,-13],[9,0],[11,2],[12,-8],[31,-7],[18,-4],[24,9],[15,2],[18,15],[12,4],[9,0],[9,-4],[11,4],[13,-2],[6,0],[14,7],[16,-13],[14,-11],[12,-30],[15,-26],[10,-28],[3,-8]],[[3397,1245],[-1,-1]],[[1908,1272],[0,-10],[1,-20]],[[2438,1346],[-9,-5],[-5,-2],[-9,-7],[-4,-2],[-5,-8],[-9,-7],[-7,-10],[0,-7],[6,-4],[12,6],[4,-2],[0,-10],[3,-11],[-3,-22],[2,-19],[4,-9],[0,-13],[3,-17],[0,-2]],[[3100,1186],[5,0],[15,7],[46,-2],[33,0],[9,0],[15,2],[9,8],[15,0],[21,1],[15,6],[15,9],[9,4],[20,11],[15,4],[34,2],[11,2],[9,4]],[[3396,1244],[-3,-6],[-23,-26],[-10,-13],[-9,-10],[-2,-11],[5,-19],[0,-9],[4,-19],[0,-9],[-6,-13],[-1,-13],[-5,-15]],[[2896,1038],[19,2],[32,15],[19,11],[11,7],[9,2],[4,4],[17,17],[9,7],[16,10],[10,1],[4,4],[-1,21],[3,9],[16,17],[9,7],[14,12],[13,2]],[[2636,1030],[6,-3],[11,0],[25,3],[5,4],[27,11],[15,4],[4,-2],[24,-11],[9,-2],[20,0],[30,-7],[18,0],[13,1],[11,4],[15,4],[27,2]],[[2288,963],[-6,-2]],[[2299,962],[-4,-5]],[[2421,1195],[-9,-4],[-3,-7],[-4,-15],[-12,-19],[-8,-19],[2,-9],[6,-13],[0,-6],[-3,-35],[-3,-4],[-11,-8],[-10,-11],[-11,-5],[-3,-6],[-3,-17],[-10,-19],[-8,-5],[-6,-6],[-7,-13],[-17,-9],[-2,-3]],[[2290,961],[5,-4]],[[2288,963],[2,-2]],[[2278,960],[-14,-5],[-19,-6]],[[2245,949],[-7,-3]],[[2282,961],[-4,-1]],[[2282,960],[-3,-16]],[[2282,961],[0,-1]],[[1619,944],[6,15],[9,23],[8,9]],[[1642,991],[6,7],[12,14],[4,13],[5,5],[14,6],[4,2],[8,9],[6,2],[24,11],[9,6],[12,15],[10,7],[0,10],[-3,9],[5,19],[7,13],[17,15],[10,11],[11,9],[15,12],[18,9],[15,7],[30,21],[24,13],[4,6]],[[1619,944],[-9,-7]],[[2295,957],[3,-2],[8,-2]],[[2306,953],[6,-1],[4,-2],[12,-11],[11,0],[19,5],[11,-4],[7,-5],[9,-10],[11,-3],[9,2],[6,5],[4,8],[6,18],[6,13],[9,2],[6,2],[11,15],[7,2],[30,4],[12,4],[14,5],[9,10],[10,9],[12,2],[9,-6],[35,8],[14,2],[13,7],[11,0],[7,-4]],[[2102,884],[-23,-5]],[[2238,946],[-18,-7],[-37,-19],[-14,-8],[-15,-11],[-13,-9],[-11,2],[-12,-4],[-15,-6],[-1,0]],[[1610,937],[-10,-8],[-14,-15],[-10,-13],[-15,-19],[-29,-20]],[[1656,944],[-2,0],[-35,0]],[[1885,851],[-19,3],[-23,-2],[-4,2],[-15,10],[-9,7],[-8,6],[-18,4],[-15,3],[-9,6],[-13,4],[-14,11],[-16,28],[-12,7],[-9,2],[-18,0],[-27,2]],[[2079,879],[-15,-2],[-13,3]],[[2051,880],[-22,6],[-7,2],[-15,-2],[-14,-2],[-9,-2],[-6,-9],[-18,-6],[-9,6],[-7,2],[-17,-4],[-9,-5],[-13,-14],[-5,-3],[-15,2]],[[1425,797],[-19,-8],[-9,-4],[-13,-9],[-8,-10],[-13,-18],[-5,-4],[-13,-8]],[[1532,862],[-1,-1]],[[1531,861],[-8,-3],[-19,-13],[-14,-4],[-24,-9],[-15,-9],[-18,-21],[-4,-4],[-4,-1]],[[1345,736],[-11,-3]],[[1328,744],[6,-11]],[[2279,944],[-3,-13],[-2,-6],[-1,-9],[2,-7]],[[2275,909],[2,-8],[2,-11],[0,-23],[3,-13],[-2,-11],[-3,-9],[-6,-13],[0,-19],[-4,-15],[-5,-9],[-9,-10],[-4,-7],[-5,-23],[-6,-24]],[[2238,714],[-4,-7],[-11,-12],[-4,-9],[-5,-2],[-9,0],[-7,-4]],[[4096,886],[-6,-13],[-5,-9],[-3,-10],[-9,-5],[-6,-19],[-6,-9],[-13,-19],[-21,-32],[-15,-26],[-11,-13],[-4,-10],[-2,-11],[-3,-33]],[[1334,733],[15,-23],[0,-9],[2,-10]],[[1351,691],[0,-1],[3,-6],[1,-9],[0,-10],[-6,-24],[-7,-21],[-8,-26]],[[1334,594],[0,-4],[0,-20],[-1,-21],[-3,-28],[1,-24],[0,-13],[-3,-10]],[[1328,474],[-3,-16]],[[2198,680],[-11,-9],[-13,-4],[-15,-5],[-27,-14],[-14,-11],[-14,-18],[-21,-29],[-1,-5],[-2,-15],[-4,-9],[-5,-4],[-6,-10],[-4,-15],[-2,-14],[-9,-14],[0,-9],[-3,-6],[-10,-15],[-6,-11],[-2,-9],[0,-6]],[[1065,609],[-13,-4],[-20,-15],[-9,-5],[-15,-4],[-9,0],[0,-4],[2,-6]],[[1334,733],[-7,-6],[-18,-6],[-14,-9],[-4,-4]],[[1001,571],[4,-12],[0,-17],[-3,-10],[6,-20],[-4,-43],[0,-23],[-3,-9],[-5,-9],[-1,-12],[-3,-20]],[[1291,708],[-11,-9],[-19,-9],[-17,-15],[-19,-13],[-13,-6],[-19,-6],[-24,-13],[-11,-7],[-24,-10],[-24,-7],[-18,-2],[-19,0],[-8,-2]],[[3992,677],[-1,-12],[-3,-33],[0,-13],[-2,-10],[-1,-20],[-3,-15],[-3,-8],[-18,-9],[-6,-10],[-29,-46],[-12,-17],[-30,-26],[-6,-15],[-3,-13],[0,-12],[4,-17],[0,-9],[-1,-15],[1,-11]],[[3879,366],[5,-4],[9,10],[10,1],[14,2]],[[1821,286],[-6,-1]],[[2029,448],[3,-9],[11,-11],[1,-8],[2,-5],[1,-15],[-6,-10],[-15,-13],[-9,-5],[-15,-6],[-9,-6],[-10,-7],[-18,-17],[-20,-11],[-13,-15],[-18,-10],[-12,2],[-9,-7],[-17,2],[-12,-2],[-10,-2],[-20,-6],[-13,-1]],[[3346,1081],[-1,-10],[0,-11],[-2,-9],[-4,-15],[3,-9],[3,-17],[3,-27],[1,-16],[6,-25],[2,-28],[1,-11],[-3,-30],[3,-19],[6,-13],[-1,-24],[0,-13],[3,-15],[7,-10],[5,-11],[1,-20],[2,-17],[4,-19],[0,-9],[-10,-68],[-2,-9],[-6,-34],[-1,-18],[0,-17],[3,-10],[7,-26],[0,-7],[-4,-25],[-12,-28],[-3,-15],[-6,-22],[-3,-19],[-2,-30],[-7,-13],[1,-9],[6,-10],[0,-9],[5,-9],[12,-6],[9,-9],[21,-13],[7,-10],[-1,-7],[-14,-10],[0,-9]],[[1815,285],[-5,-3],[-1,-15],[-3,-10],[-6,-9],[-3,-5]],[[1797,243],[-3,-4],[-3,-4],[-3,-24],[0,-15],[-2,-12],[-4,-9],[-8,-7],[-9,-8]],[[1765,160],[-10,-6],[-17,-7],[-22,-6]],[[992,396],[-5,-11],[-6,-10],[-12,-13],[-9,-7],[-12,-19],[-4,-4],[-6,-15],[-9,-9],[-5,-9],[-4,-19],[-5,-11],[-1,-12],[-6,-9],[-14,-13],[-3,-4],[-9,-35],[-4,-10],[-11,-18],[-10,-14],[-18,-14],[-9,-4]],[[733,158],[9,-2],[20,-3],[12,-2],[14,0],[9,-2],[13,-6],[14,-3],[6,-4]],[[1325,458],[-1,-6],[-9,-7],[-9,-2],[-5,-6],[-15,-21],[-4,-1],[-12,-14],[-3,-14],[-6,-32],[-5,-21],[0,-9],[3,-10],[-1,-9],[-3,-9],[-5,-4],[-6,-9],[-1,-6],[-14,-11],[-7,-10],[-5,-7],[-2,-11],[-3,-25],[-1,-11],[-6,-26],[-2,-15],[-3,-30]],[[1716,141],[-32,-9],[-38,-11],[-16,-4]],[[1630,117],[-24,-6],[-29,-7],[-24,-9],[-13,-12],[-21,6],[-9,0],[-29,-2],[-19,-2],[-12,-4]],[[3917,375],[7,-3],[12,-8],[22,-22],[9,-17],[1,-11],[-3,-12],[-3,-5],[-19,-21],[-16,-11],[-7,-9],[-5,-2],[-18,-2],[-6,0],[-12,-13],[-10,-6],[-5,-2],[-13,2],[-3,-4],[-11,-3],[-9,-12],[-3,-5],[-6,-15],[-6,-4],[-16,-2],[-11,-4],[-6,-9],[0,-6],[5,-9],[0,-6],[-6,-3],[-14,3],[-9,-1],[-15,-13],[-9,-14],[0,-5],[3,-4],[3,-11],[-4,-10],[-20,-13],[-9,-9],[-13,-9],[-21,-8]],[[962,57],[-48,13],[-8,6],[-16,5],[-8,10],[-7,5],[-11,14],[-10,7],[-14,15],[-10,4]],[[3671,57],[-23,-11]],[[3385,261],[5,-9],[9,0],[22,4],[18,-2],[12,-8],[5,-2],[18,2],[9,-2],[12,-9],[5,-6],[1,-9],[-3,-19],[-10,-22],[-4,-8],[-1,-20],[-3,-15],[-2,-13],[10,-15],[24,-4],[7,-6],[9,-9],[9,-4],[18,-2],[21,8],[9,0],[27,-2],[17,-2],[12,-4],[9,-5],[7,-8],[0,-5],[-1,-10],[-8,-9]],[[962,57],[25,-13],[5,-6],[19,-7],[24,-9],[18,-12],[11,-1],[18,-4],[24,-5]],[[1450,81],[-14,-11],[-21,-20],[-10,-6],[-6,0],[0,-6],[7,-5],[0,-6],[-9,-18],[-3,-9]],[[1200,132],[3,-24],[-1,-23],[0,-24],[-2,-39],[2,-22]],[[3462,0],[9,7],[20,5],[4,4],[15,7],[24,0],[24,-1],[38,0],[13,5],[21,10],[14,1],[4,8]],[[830,136],[-5,-2],[-9,-9],[-6,-12],[-9,-22],[-7,-13],[-23,-30],[-8,-10],[-10,-7],[-12,-15],[-11,-16]],[[1807,2071],[-5,4],[-3,4],[4,2],[3,-1],[1,-1],[11,-9],[3,-4],[-2,-4],[3,-5],[5,-6],[5,1],[2,3],[4,6],[8,9],[-2,0],[-8,-3],[-6,1],[-3,7],[2,14],[-3,9],[-18,16],[-1,1],[-3,1],[-24,2],[-7,2],[-5,6],[-5,18],[-4,8],[-5,9],[-2,8],[2,8],[7,8],[6,3],[14,5],[5,4],[3,11],[-3,19],[2,11],[13,10],[6,0],[23,-2],[11,13],[-7,-4],[-10,-4],[-9,0],[-7,6],[-1,-1],[-14,-5],[-7,-6],[-3,-9],[2,-27],[-2,-6],[-13,0],[-10,14],[-12,30],[-8,14],[-10,11],[-90,64],[-9,5],[-9,3],[-6,2],[-15,13],[-7,3],[-8,4],[-6,10],[-3,12],[3,6],[4,3],[13,19],[4,8],[-18,-20],[-11,-8],[-11,0],[0,-2],[8,-13],[4,-8],[0,-5],[-4,0],[-32,16],[-12,3],[-14,5],[-10,-4],[10,-2],[5,-2],[-88,-2],[-6,-3],[-7,-6],[-6,-1],[-7,2],[-6,4],[2,-2],[0,-2],[1,-2],[3,-1],[0,-3],[-3,-3],[-6,5],[-8,2],[-8,0],[-8,-1],[-8,-3],[-15,-10],[-6,-2],[-21,-14],[-3,-4],[-55,-37],[-12,-11],[-5,0],[-6,2],[-8,2],[-22,0],[-6,3],[-3,-6],[-4,1],[-5,3],[-4,2],[4,-6],[1,-3],[1,-4],[-8,12],[-14,11],[-26,15],[-14,3],[-12,5],[-12,0],[-29,-4],[-13,4],[-14,5],[-11,-5],[-15,-2],[-16,6],[-1,-1],[-19,11],[-16,3],[-17,-2],[-5,-1],[-5,-4],[-12,-12],[-22,0],[-4,-1],[-10,-6],[-4,-2],[-6,-1],[-9,-2],[-8,-7],[-7,3],[-6,-7],[-3,-2],[-4,-2],[-7,-6],[-4,-1],[-6,2],[-4,4],[-4,2],[-5,-2],[2,13],[2,6],[2,3],[14,22],[6,13],[5,10],[-4,14],[7,6],[8,9],[6,20],[-3,8],[-3,7],[6,11],[10,12],[2,11],[6,15],[5,20],[2,12],[1,21],[-2,11],[-4,7],[-5,6],[-1,6],[5,20],[2,12],[3,12],[5,2],[10,2],[2,11],[0,2],[-3,-4],[-8,-2],[-9,0],[-3,8],[3,23],[4,25],[-1,15],[-2,10],[-6,12],[-12,2],[-15,9],[2,4],[3,2],[3,1],[2,3],[19,40],[7,32],[8,25],[-1,24],[-3,29],[-2,13],[-1,12],[-10,18],[-9,10],[-11,13],[-14,11],[-10,3],[6,6],[8,-3],[13,-12],[17,-6],[8,-4],[1,-6],[15,1],[36,-10],[18,6],[-11,1],[-9,2],[-27,12],[-3,4],[-2,6],[-1,6],[1,6],[2,4],[3,3],[0,3],[-5,2],[-4,5],[-1,6],[2,6],[-5,0],[-7,-14],[-8,-2],[0,-3],[8,-1],[4,-7],[0,-7],[-3,-4],[-8,1],[-8,2],[-13,7],[-14,4],[-17,-3],[-17,-18],[3,-3],[-20,-8],[-36,-4],[-7,-3],[-6,-4],[-7,-2],[-9,3],[-2,0],[-1,2],[0,4],[1,3],[1,1],[3,4],[11,10],[2,15],[0,21],[-9,21],[-11,17],[-5,14],[7,3],[17,3],[15,1],[8,-5],[4,-5],[2,0],[-2,9],[5,3],[12,3],[5,1],[0,3],[6,6],[5,6],[11,7],[13,11],[1,1],[2,2],[2,1],[0,3],[-4,6],[-4,9],[-2,9],[3,7],[-9,-1],[-4,8],[-2,11],[-3,10],[15,32],[10,15],[13,9],[7,2],[15,1],[7,3],[14,10],[5,6],[4,6],[-10,-7],[-16,-12],[-32,-3],[-4,-4],[-7,-13],[-18,-24],[-20,-40],[-11,-12],[-4,-6],[-3,-8],[1,-8],[1,-15],[1,-11],[-5,-11],[-18,-6],[-21,-3],[-24,2],[-6,-5],[-7,-8],[-14,9],[-16,6],[-9,2],[-16,-2],[-7,2],[0,9],[3,8],[-5,20],[0,9],[2,5],[4,5],[9,9],[12,37],[-1,27],[-4,17],[4,10],[1,12],[15,26],[4,12],[7,16],[2,17],[2,15],[-5,22],[-4,9],[-13,13],[-3,5],[4,1],[17,-4],[27,17],[6,6],[8,0],[4,-5],[4,-1],[4,4],[-3,6],[-5,6],[5,9],[9,9],[3,5],[6,4],[11,7],[5,8],[4,8],[7,13],[1,7],[-1,9],[5,12],[2,17],[29,74],[45,128],[6,7],[4,-6],[6,-3],[14,-1],[0,4],[-5,5],[-6,4],[-6,2],[-17,2],[-6,4],[-4,7],[0,9],[4,13],[11,21],[25,91],[5,28],[6,21],[5,26],[1,2],[2,1],[0,-10],[0,-3],[7,12],[6,4],[5,-3],[2,0],[0,3],[-1,1],[-1,2],[-1,3],[1,3],[3,2],[2,-1],[2,-3],[2,-1],[3,1],[3,4],[5,7],[-6,4],[-3,5],[1,5],[6,2],[9,1],[6,2],[6,4],[6,5],[-6,0],[-10,-5],[-7,-1],[-2,-1],[-2,0],[-8,4],[-3,3],[-3,13],[14,18],[-3,10],[-1,-8],[-2,-6],[-3,-2],[-2,6],[-5,-9],[-4,-12],[-2,-12],[-1,-12],[-2,-7],[-4,-10],[-5,-10],[-4,-5],[33,148],[864,0],[2289,0],[0,-473],[0,-1],[-1,-1],[-9,-14],[-23,-25],[-38,-60],[-2,-4],[-1,-11],[-2,-8],[-4,-6],[-9,-9],[-5,-7],[-4,-8],[-2,-7],[-2,-6],[-12,-16],[-4,-8],[-2,-16],[1,-23],[2,-19],[7,-30],[23,-49],[4,-7],[5,-8],[-5,-3],[-5,-4],[2,-8],[3,-17],[7,-15],[9,-16],[9,-18],[14,-23],[5,-7],[14,-11],[14,-13],[7,-6],[4,-1],[0,-111],[-5,0],[-5,-1],[-6,-4],[-4,-8],[0,-7],[0,-6],[-2,-6],[-5,-6],[-6,-2],[-15,0],[-16,-4],[-10,-3],[-11,-8],[-35,-15],[-5,-4],[-3,-5],[-3,-2],[-13,-14],[-4,-7],[-1,-9],[0,-5],[-2,-1],[-11,-1],[-6,-2],[-3,-3],[-2,-7],[-13,1],[0,-3],[-3,-16],[5,-41],[-4,-5],[-6,-2],[-13,1],[-8,-2],[-7,-5],[-5,-7],[-4,-8],[-2,-6],[-2,-7],[-1,-20],[-2,-29],[0,-9],[-4,-4],[-9,-4],[-7,-7],[-4,-6],[-14,-36],[-1,-7],[0,-1],[2,-18],[-2,-5],[-10,13],[-9,-24],[-5,-4],[-8,-3],[-3,-6],[2,-8],[12,-22],[3,-4],[12,-8],[8,-4],[7,-1],[4,6],[6,-4],[3,-5],[-2,-6],[-5,-4],[-3,-3],[-3,-2],[-3,0],[-4,2],[-3,-2],[-10,-3],[-6,-2],[-11,-5],[-13,0],[-5,-1],[-5,-3],[-9,-6],[-3,3],[-14,7],[-12,2],[-24,1],[-6,-1],[-6,-2],[-4,-4],[-2,-4],[1,-4],[4,-8],[-11,2],[-11,3],[-2,5],[-2,4],[-8,1],[-10,5],[-5,1],[-6,-5],[-1,-5],[-11,1],[-12,1],[-11,-5],[-5,-4],[-17,-16],[-6,-4],[-7,-1],[-2,-1],[-3,-2],[-3,-3],[-1,-2],[-1,-2],[-4,-15],[0,-3],[-3,-3],[-2,1],[-2,2],[-3,0],[-3,-2],[-7,-6],[-3,-2],[-6,-1],[-18,-8],[-9,-5],[-1,-5],[-3,-4],[-6,1],[-4,-4],[-2,-8],[-5,-9],[-10,-16],[-22,-21],[-9,-13],[-6,-18],[-3,-16],[-5,-12],[-1,-13],[-11,-28],[-8,-12],[0,-6],[1,-4],[1,-3],[1,-4],[-1,-4],[-2,-3],[-2,-1],[-9,0],[-2,-2],[-4,-4],[-13,-9],[-5,-6],[-4,-19],[-4,-5],[-6,-4],[-6,-7],[-1,-3],[-2,-9],[-2,-4],[-3,-2],[-4,-1],[-4,-1],[-4,-9],[-5,-4],[-8,-3],[-7,-1],[-13,4],[-11,10],[-8,13],[-10,10],[-13,8],[-8,3],[-8,1],[-7,-1],[-11,-6],[-8,-2],[-3,1],[-10,4],[-4,1],[-29,-5],[-6,-3],[-7,-18],[-8,-20],[-9,-10],[-2,-1],[-4,-4],[-9,-4],[-13,-2],[-6,2],[-8,-3],[-9,7],[-7,5],[-7,3],[-3,-1],[-4,-4],[-3,-1],[-4,2],[-10,14],[-10,7],[-7,1],[-20,-7],[-32,6],[-29,-3],[-26,5],[-37,-4],[-6,-4],[-5,-5],[-7,-6],[-13,-8],[-23,0],[-14,12],[-7,-1],[-5,-3],[-14,6],[-5,7],[-12,0],[-12,-1],[-5,-5],[-19,-2],[-26,8],[-13,5],[-18,-4],[-26,-8],[-35,10],[-8,-2],[-11,-8],[-32,-5],[-10,-1],[-65,5],[-6,-2],[-5,-4],[-10,-18],[-2,-4],[-5,-5],[-4,-7],[-2,-7],[-10,-18],[-23,-3],[-10,-20],[-13,-8],[-3,-2],[-8,-3],[-16,-4],[-15,1],[-42,5],[-8,0],[-3,-1],[-5,-3],[-25,-18],[-25,-2],[-17,-11],[-5,-1],[-13,-2],[-6,-2],[-4,-3],[-5,-6],[-10,-18],[0,-4],[-7,-17],[-3,-7],[-2,-2],[-2,-2],[-3,-2],[-6,-3],[0,-3],[2,-4],[-4,-6],[-12,-23],[-2,-4],[-2,-27],[0,-2],[-1,-6],[-3,4],[-6,20],[-6,4],[-8,3],[-7,0],[-2,-4],[-3,-4],[-1,-6],[0,-6],[2,-6],[-2,-4],[1,-7],[2,-4],[1,-4],[-1,-5],[-2,-3],[-3,-2],[-7,-3],[-37,-14],[-5,-3],[-11,-4],[-7,14],[-15,9],[-6,5],[-9,-3],[-8,2],[-7,5],[-15,4],[-6,5],[-8,12],[-23,23],[-7,5],[-8,0],[-17,-3],[-19,6],[-9,12],[-7,15],[-9,14],[-20,11],[-2,6],[-1,8],[-2,8],[-4,8],[-12,14],[-9,20],[-5,14],[-8,16],[-3,2]],[[4096,0],[-3441,0],[31,34],[4,9],[3,7],[4,18],[1,7],[2,6],[13,17],[5,13],[3,14],[2,47],[-2,2],[-7,4],[-1,3],[1,10],[2,7],[10,20],[3,9],[0,9],[-3,7],[-3,5],[-3,6],[-2,8],[0,8],[7,13],[53,49],[42,51],[35,27],[12,12],[42,58],[45,53],[3,6],[0,5],[0,10],[4,6],[30,37],[3,2],[3,-1],[3,-4],[3,-1],[9,1],[7,1],[13,7],[13,12],[22,27],[13,11],[15,7],[49,12],[35,16],[18,8],[17,5],[9,4],[8,10],[9,5],[24,7],[15,8],[6,2],[7,4],[6,8],[6,5],[8,-2],[4,3],[3,0],[4,-2],[4,-1],[3,2],[6,4],[11,2],[8,3],[7,4],[4,4],[13,17],[10,5],[10,13],[7,3],[-2,-4],[7,-2],[8,2],[4,3],[27,19],[14,13],[13,7],[15,6],[13,2],[6,3],[12,10],[13,5],[38,32],[38,43],[32,56],[24,53],[40,63],[4,7],[6,18],[9,14],[78,171],[2,8],[30,102],[66,171],[2,9],[0,11],[2,6],[8,18],[7,25],[1,4],[1,4],[5,7],[1,4],[2,22],[3,10],[3,7],[7,8],[13,2],[33,-5],[4,1],[10,10],[5,3],[6,4],[7,1],[5,-2],[6,3],[9,0],[8,-2],[6,-4],[22,13],[6,6],[13,15],[7,6],[7,4],[3,-1],[2,-1],[4,-3],[4,0],[1,4],[1,3],[1,1],[2,-1],[5,1],[7,-1],[8,-4],[6,-5],[7,-1],[9,4],[-3,-9],[-16,-13],[-1,-7],[-1,0],[-1,-6],[1,-12],[5,-23],[2,-19],[2,-6],[2,-4],[3,-3],[2,-1],[6,1],[2,0],[0,-3],[0,-7],[0,-3],[6,-24],[4,-9],[7,-7],[16,-11],[13,-13],[30,-45],[6,-4],[9,-2],[7,-2],[7,-5],[12,-12],[10,-14],[7,-7],[16,-6],[20,-19],[14,-9],[52,-16],[48,-11],[1,0],[43,-13],[10,-1],[8,2],[21,14],[50,9],[31,14],[31,6],[15,8],[4,-5],[-2,-2],[-4,-2],[-2,-2],[2,-2],[2,-3],[6,-8],[5,-3],[8,0],[10,-1],[6,1],[13,1],[8,4],[4,8],[3,12],[7,9],[10,4],[9,-2],[8,-4],[15,-15],[8,-5],[27,-5],[10,-5],[4,-1],[5,1],[3,0],[4,-1],[8,-4],[3,-1],[19,-2],[16,3],[45,17],[7,5],[17,18],[4,2],[3,0],[3,-2],[4,-1],[5,0],[11,13],[14,35],[10,14],[-1,5],[2,4],[3,1],[5,-2],[1,-4],[-2,-7],[2,-6],[-4,-14],[5,-17],[1,-2],[0,-1],[9,-18],[3,-5],[0,-1],[5,-7],[-3,-4],[-1,-7],[-1,-8],[2,-14],[1,-6],[3,-6],[6,-7],[9,-7],[13,-4],[26,-3],[-15,14],[-28,32],[-6,10],[2,4],[5,-4],[18,-20],[2,-5],[18,-18],[15,-9],[19,-7],[38,-6],[16,2],[9,2],[6,4],[8,9],[7,6],[7,2],[35,-14],[8,-2],[9,-2],[9,-6],[10,-4],[8,3],[1,0],[2,0],[1,-1],[1,-2],[11,6],[12,-3],[13,-6],[13,-3],[23,3],[9,-3],[3,0],[2,1],[6,5],[35,10],[9,7],[3,1],[11,0],[5,1],[5,4],[12,14],[24,8],[4,3],[3,8],[43,38],[7,2],[35,4],[9,3],[2,1],[2,2],[10,12],[7,2],[7,5],[5,6],[4,6],[4,9],[4,22],[4,8],[4,7],[13,34],[2,4],[4,2],[9,1],[2,2],[9,14],[4,3],[9,6],[11,11],[4,7],[3,3],[13,3],[7,4],[6,6],[5,3],[9,3],[5,-1],[2,-3],[2,-2],[4,2],[14,8],[9,16],[8,2],[3,-2],[3,-3],[3,-3],[5,-1],[3,-1],[8,-2],[4,-1],[4,-1],[2,-3],[2,-4],[3,-4],[3,-1],[14,1],[7,2],[7,3],[6,6],[5,13],[4,0],[5,-1],[4,-1],[4,3],[2,3],[17,36],[1,5],[-1,1],[-1,3],[0,3],[0,2],[3,0],[2,-1],[1,-2],[2,0],[4,0],[7,-1],[4,1],[15,7],[10,3],[5,-2],[1,-6],[4,-2],[4,-1],[3,-2],[1,-5],[-2,-6],[1,-5],[6,-6],[10,-5],[26,-6],[15,-7],[8,-1],[4,1],[11,2],[16,9],[14,10],[0,-1762]],[[2495,886],[4,99],[132,34],[-32,-55],[25,3],[-73,-101],[-50,-14],[-6,34]],[[888,2407],[34,38],[-11,44],[43,43],[54,-68],[57,15],[-22,-82],[-19,-3],[10,35],[-27,-31],[-30,27],[-35,2],[-15,-39],[-39,19]],[[1253,3787],[102,114],[80,31],[-20,-88],[-65,-81],[-77,-3],[-20,27]],[[2971,2630],[23,-2],[3,9],[-18,-4],[-5,28],[17,-15],[4,50],[28,25],[1,38],[-17,-25],[-4,15],[36,94],[39,5],[31,49],[-3,37],[-28,2],[24,27],[45,-18],[5,31],[8,-45],[32,-7],[13,-96],[-58,-56],[1,-29],[-66,-36],[-35,-72],[-46,-35],[-30,30]],[[1342,3412],[29,51],[67,-55],[-4,-56],[25,-60],[39,-17],[-5,-23],[-103,76],[-48,84]],[[2539,2915],[162,7],[14,-42],[-46,-3],[-63,-102],[-67,140]],[[2017,127],[45,5],[-11,44],[22,19],[54,-20],[42,19],[48,-27],[178,73],[-86,-99],[-121,-51],[-44,35],[-97,-31],[-30,33]],[[2562,4011],[45,44],[34,-1],[0,42],[93,0],[-6,-33],[22,-12],[-32,-12],[-10,-52],[-88,4],[-34,-20],[-24,40]],[[2678,4053],[7,-3],[-2,8],[-3,-1],[-2,-4]],[[1803,264],[11,42],[28,-81],[-51,0],[12,39]],[[966,560],[31,30],[73,53],[-6,-42],[-87,-42],[9,-29],[-44,-3],[24,33]],[[1271,734],[144,73],[10,-10],[-32,-48],[9,-40],[-64,-23],[4,-46],[-71,94]],[[2041,865],[23,37],[41,-9],[-14,-40],[-50,12]],[[1583,915],[54,76],[6,-1],[14,-45],[-28,-57],[-28,-6],[-4,-29],[-64,-2],[-4,25],[54,39]],[[2309,963],[-12,-40],[-30,-18],[-18,17],[-5,35],[65,6]],[[3031,1513],[31,-72],[-69,-58],[28,46],[-23,12],[18,46],[-18,17],[22,25],[11,-16]],[[1950,1742],[53,11],[16,2],[-6,-43],[-63,30]],[[3968,1774],[95,-15],[-4,-25],[-122,-3],[4,43],[27,0]],[[2156,1715],[31,-58],[-59,-26],[27,49],[1,35]],[[3812,1699],[70,46],[45,-28],[-37,-57],[-78,39]],[[1818,2093],[-9,16],[37,12],[23,-87],[-44,8],[-7,51]],[[2481,2154],[-24,-32],[-51,-45],[-2,32],[39,18],[0,51],[68,-3],[-30,-21]],[[3234,2211],[-50,-1],[3,72],[24,-11],[23,-60]],[[1581,2397],[-23,-16],[-3,45],[19,6],[7,-35]],[[3719,2772],[42,17],[-84,-80],[-31,31],[4,49],[69,-17]],[[1971,2449],[-37,0],[4,-31],[-50,-3],[7,75],[44,40],[32,-81]],[[3957,2942],[-51,-54],[0,-1],[-7,52],[58,3]],[[4096,3651],[-109,-3],[14,63],[95,-14],[0,-46]],[[754,3056],[33,5],[37,-1],[-12,-37],[-34,-9],[-43,5],[-7,23],[26,14]],[[689,3061],[-40,14],[23,48],[46,-5],[85,37],[-33,-74],[-81,-20]],[[1031,4096],[25,-51],[-70,-51],[-18,-64],[28,-11],[18,28],[25,-18],[7,-195],[-55,0],[28,150],[-104,60],[46,40],[-7,33],[37,17],[-54,7],[5,55],[89,0]],[[2521,3803],[-27,-15],[-28,10],[55,46],[24,-46],[-19,-18],[-5,23]],[[1190,3976],[37,18],[23,-41],[37,0],[-7,-26],[-76,9],[-14,40]],[[3141,4028],[23,-37],[-37,-26],[-4,11],[18,52]],[[2946,3922],[-32,-15],[13,47],[34,5],[-15,-37]],[[3324,3673],[-30,9],[20,33],[31,-15],[-21,-27]],[[2859,3849],[-5,-92],[-77,-54],[-20,2],[28,70],[28,-6],[-14,34],[-37,-52],[-46,12],[-23,-17],[-5,34],[-46,-23],[0,104],[-84,63],[37,35],[-34,34],[104,16],[69,36],[-18,-69],[46,-40],[9,63],[42,-29],[18,-46],[-28,-4],[-9,-30],[47,-23],[32,23],[20,-12],[3,-34],[-37,5]],[[3155,2357],[-69,0],[4,35],[55,-19],[10,-16]],[[2757,2420],[51,-11],[0,-58],[-28,-17],[-64,69],[41,17]],[[2062,442],[67,63],[16,53],[50,-12],[-72,-60],[13,-22],[1,23],[33,4],[52,-34],[60,65],[51,2],[-158,-164],[-32,1],[42,52],[-22,-14],[-4,25],[-49,-12],[-48,30]],[[1488,3762],[41,16],[-20,62],[28,7],[-24,-1],[47,37],[1,34],[57,-14],[-16,-46],[20,-56],[-79,-47],[-14,-49],[-35,19],[-6,38]],[[2804,2308],[13,38],[52,-33],[-29,33],[50,6],[24,34],[59,-43],[153,-14],[-114,-23],[-22,28],[0,-27],[-34,9],[-23,-29],[5,28],[-14,-35],[-17,-2],[4,26],[-47,-41],[-60,45]],[[1547,2763],[25,75],[50,-13],[-6,-30],[69,-7],[14,-34],[39,-6],[23,23],[77,-44],[28,-26],[0,-47],[-28,2],[-9,-30],[-52,5],[-41,47],[-67,-21],[-80,47],[-42,59]],[[1844,2711],[84,31],[28,64],[62,-48],[48,30],[82,-116],[-75,10],[16,-51],[-38,-14],[-56,50],[-34,-50],[0,7],[-8,6],[1,5],[-10,13],[0,8],[-2,1],[-61,-13],[3,43],[-30,-10],[12,24],[-22,10]],[[1243,2625],[14,51],[18,-25],[38,28],[30,-10],[27,-72],[-9,-68],[-48,7],[-70,89]],[[1587,4096],[31,-50],[-7,-38],[-62,88],[38,0]],[[812,2300],[71,193],[9,218],[12,-85],[39,-8],[13,-47],[-44,-8],[13,-38],[-74,-192],[49,-1],[2,-19],[-64,-34],[-26,21]]]}