{"objects":{"water":{"type":"GeometryCollection","geometries":[{"type":"Polygon","properties":{"source":"naturalearthdata.com","kind":"ocean","area":1576712559132672,"sort_rank":200,"min_zoom":0.0,"id":1},"arcs":[[419]]},{"type":"Polygon","properties":{"kind":"lake","name":"Lac de Buyo","reservoir":true,"area":1014023680,"sort_rank":200,"source":"naturalearthdata.com","min_zoom":0.0,"id":1236},"arcs":[[420]]},{"type":"Polygon","properties":{"source":"naturalearthdata.com","kind":"lake","area":73823984,"sort_rank":200,"min_zoom":0.0,"id":715},"arcs":[[421]]},{"type":"MultiPolygon","properties":{"kind":"lake","name":"Lake Volta","reservoir":true,"area":8153168384,"sort_rank":200,"source":"naturalearthdata.com","min_zoom":0.0,"id":1193},"arcs":[[[422]],[[423]],[[424]]]},{"type":"Polygon","properties":{"kind":"lake","name":"Lac de Kossou","reservoir":true,"area":2420614912,"sort_rank":200,"source":"naturalearthdata.com","min_zoom":0.0,"id":1224},"arcs":[[425]]},{"type":"Point","properties":{"label_placement":true,"kind":"lake","name":"Lac de Kossou","reservoir":true,"area":2420614912,"sort_rank":200,"source":"naturalearthdata.com","min_zoom":0.0,"id":1224},"coordinates":[2035,2758]},{"type":"Point","properties":{"label_placement":true,"kind":"lake","name":"Lac de Buyo","reservoir":true,"area":1014023680,"sort_rank":200,"source":"naturalearthdata.com","min_zoom":0.0,"id":1236},"coordinates":[1553,2433]},{"type":"LineString","properties":{"source":"naturalearthdata.com","kind":"ocean","sort_rank":205,"boundary":true,"min_zoom":0.0,"id":56},"arcs":[426]},{"type":"LineString","properties":{"source":"naturalearthdata.com","kind":"lake","sort_rank":367,"boundary":true,"min_zoom":0.0,"id":715},"arcs":[427]},{"type":"MultiLineString","properties":{"source":"naturalearthdata.com","kind":"lake","reservoir":true,"sort_rank":367,"boundary":true,"min_zoom":0.0,"id":1193},"arcs":[[428],[429],[430],[431],[432],[433],[434]]},{"type":"LineString","properties":{"source":"naturalearthdata.com","kind":"lake","reservoir":true,"sort_rank":367,"boundary":true,"min_zoom":0.0,"id":1224},"arcs":[435]},{"type":"LineString","properties":{"source":"naturalearthdata.com","kind":"lake","reservoir":true,"sort_rank":367,"boundary":true,"min_zoom":0.0,"id":1236},"arcs":[436]}]},"buildings":{"type":"GeometryCollection","geometries":[]},"places":{"type":"GeometryCollection","geometries":[{"type":"Point","properties":{"name:kg":"Gana","name:pt":"Gana","name:ps":"\u06ab\u0627\u0646\u0627","name:ka":"\u10d2\u10d0\u10dc\u10d0","name:tr":"Gana","name:cv":"\u0413\u0430\u043d\u0430","name:km":"\u17a0\u17d2\u1782\u17b6\u178e\u17b6","name:kk":"\u0413\u0430\u043d\u0430","name:ki":"Ngana","name:tk":"Gana","name:ku":"Gana","name:ti":"\u130b\u1293","name:ks":"\u06af\u0627\u0646\u0627","name:to":"Kana","name:pa":"\u0a18\u0a3e\u0a28\u0a3e","name:os":"\u0413\u0430\u043d\u00e6","name:or":"\u0b18\u0b3e\u0b28\u0b3e","name:ce":"\u0413\u0430\u043d\u0430","name:ta":"\u0b95\u0bbe\u0ba9\u0bbe","name:tg":"\u0413\u0430\u043d\u0430","name:ky":"\u0413\u0430\u043d\u0430","name:te":"\u0c18\u0c3e\u0c28\u0c3e","name:hu":"Gh\u00e1na","source":"openstreetmap.org","name:hr":"Gana","name:ln":"Gana","name:sr":"\u0413\u0430\u043d\u0430","name:dz":"\u0f42\u0fb7\u0f0b\u0f53","name:ko":"\uac00\ub098","name:nv":"G\u00e1ana","name:kn":"\u0c98\u0cbe\u0ca8\u0cbe","name:dv":"\u078e\u07a7\u0782\u07a7","name:lv":"Gana","name:lt":"Gana","name:uz":"Gana","name:he":"\u05d2\u05d0\u05e0\u05d4","min_zoom":2.0,"kind":"country","name:ur":"\u06af\u06be\u0627\u0646\u0627","name:la":"Gana","name:lg":"Gana","name:uk":"\u0490\u0430\u043d\u0430","name:hy":"\u0533\u0561\u0576\u0561","name:ug":"\u06af\u0627\u0646\u0627 \u062c\u06c7\u0645\u06be\u06c7\u0631\u0649\u064a\u0649\u062a\u0649","name:li":"Gana","name:qu":"Gana","name:lo":"\u0e81\u0eb2\u0e99\u0ec8\u0eb2","population":25241998,"name:el":"\u0393\u03ba\u03ac\u03bd\u03b1","name:eo":"Ganao","name":"Ghana","name:is":"Gana","name:ee":"Ghana nutome","name:th":"\u0e1b\u0e23\u0e30\u0e40\u0e17\u0e28\u0e01\u0e32\u0e19\u0e32","name:yi":"\u05d2\u05d4\u05d0\u05e0\u05e2","name:yo":"Or\u00edl\u1eb9\u0301\u00e8de Gana","name:mt":"Gana","name:rn":"Gana","name:az":"Qana","name:mr":"\u0918\u093e\u0928\u093e","name:ar":"\u063a\u0627\u0646\u0627","name:my":"\u1002\u102b\u1014\u102c","official_name":"Republic of Ghana","name:ak":"Gaana","name:am":"\u130b\u1293","name:ml":"\u0d18\u0d3e\u0d28","name:ru":"\u0413\u0430\u043d\u0430","name:rw":"Gana","id":424313836,"name:mk":"\u0413\u0430\u043d\u0430","name:vo":"Gan\u00e4n","name:zu":"i-Ghana","name:ha":"Gana","name:mn":"\u0413\u0430\u043d\u0430","name:ff":"Ganaa","name:hi":"\u0918\u093e\u0928\u093e","name:fo":"Gana","name:wo":"Gana","name:zh-yue":"\u52a0\u7d0d","name:fy":"Gana","name:zh":"\u52a0\u7eb3","name:so":"Gaana","name:sl":"Gana","name:ja":"\u30ac\u30fc\u30ca","name:si":"\u0d9d\u0dcf\u0db1\u0dcf\u0dc0","name:sh":"Gana","name:sg":"Gan\u00e4a","name:na":"Gana","name:ne":"\u0918\u093e\u0928\u093e","name:sa":"\u0918\u093e\u0928\u093e","name:bs":"Gana","name:bm":"Gana","name:bn":"\u0998\u09be\u09a8\u09be","name:bo":"\u0f42\u0fb7\u0f0b\u0f53\u0f0d","name:be":"\u0413\u0430\u043d\u0430","name:bg":"\u0413\u0430\u043d\u0430","name:ss":"IGana","name:ba":"\u0413\u0430\u043d\u0430","name:sq":"Gan\u00eb","name:ga":"G\u00e1na","name:gd":"G\u00e0na","name:ht":"Gana","name:wa":"Gana","name:gl":"Gana","name:fa":"\u063a\u0646\u0627","name:gv":"Yn Ghaney","name:gu":"\u0a98\u0abe\u0aa8\u0abe","name:tt":"\u0413\u0430\u043d\u0430"},"coordinates":[3703,2942]},{"type":"Point","properties":{"name:ka":"\u10e1\u10de\u10d8\u10da\u10dd\u10e1 \u10eb\u10d5\u10da\u10d8\u10e1 \u10e1\u10d0\u10dc\u10d0\u10de\u10d8\u10e0\u10dd","name:ko":"\ucf54\ud2b8\ub514\ubd80\uc544\ub974","name:cv":"\u041a\u043e\u0442-\u0434'\u0418\u0432\u0443\u0430\u0440","name:km":"\u1780\u17bc\u178f\u178c\u17b8\u179c\u17d0\u179a","name:cs":"Pob\u0159e\u017e\u00ed slonoviny","name:ki":"Kodivaa","name:tk":"Kot-d\u2019Iwuar","name:ku":"Perav\u00ea Diranf\u00eel","name:ti":"\u12ae\u1275 \u12f2\u126f\u122d","name:ks":"\u0627\u064e\u06cc\u0648\u0655\u0631\u06cc \u06a9\u0648\u0633\u0679","name:to":"Matafonua \u02bbAivili","name:tl":"Baybaying Garing","name:ce":"\u041a\u043e\u0442-\u0434\u2019\u0418\u0432\u0443\u0430\u0440","name:ta":"\u0b90\u0bb5\u0bb0\u0bbf \u0b95\u0bcb\u0bb8\u0bcd\u0b9f\u0bcd","name:tg":"\u041a\u043e\u0442-\u0434'\u0418\u0432\u0443\u0430\u0440","name:ca":"Costa d'Ivori","name:te":"\u0c10\u0c35\u0c30\u0c40 \u0c15\u0c4b\u0c38\u0c4d\u0c1f\u0c4d","name:cy":"y Traeth Ifori","name:hr":"Obala Bjelokosti","name:da":"Elfenbenskysten","name:de":"Elfenbeink\u00fcste","name:dz":"\u0f68\u0f72\u0f0b\u0f5d\u0f7c\u0f0b\u0f62\u0f72\u0f0b\u0f40\u0f7c\u0f66\u0f4a","source":"openstreetmap.org","name:kn":"\u0c90\u0cb5\u0cb0\u0cbf \u0c95\u0ccb\u0cb8\u0ccd\u0c9f\u0ccd","name:dv":"\u0787\u07a6\u0787\u07a8\u0788\u07a6\u0783\u07a9 \u0786\u07af\u0790\u07b0\u0793\u07aa","name:lv":"Kotdivu\u0101ra","name:lt":"Dramblio Kaulo Krantas","name:uz":"Kot-d\u2018ivuar","name:kk":"\u041a\u043e\u0442-\u0434-\u0418\u0432\u0443\u0430\u0440","name:ur":"\u0622\u0626\u06cc\u0648\u0631\u06cc \u06a9\u0648\u0633\u0679","name:lb":"Elfebeek\u00fcst","name:la":"Litus Eburneum","name:lg":"Kote Divwa","name:uk":"\u041a\u043e\u0442-\u0434\u2019\u0406\u0432\u0443\u0430\u0440","name:ug":"\u067e\u0649\u0644 \u0686\u0649\u0634\u0649 \u0642\u0649\u0631\u063a\u0649\u063a\u0649","name:li":"Ivoork\u00f6s","name:ln":"Kot\u00eddivual\u025b","name:lo":"\u0e9d\u0eb1\u0ec8\u0e87\u0e97\u0eb0\u0ec0\u0ea5\u0ec4\u0ead\u0ea7\u0ecd\u0ea5\u0eb4","name:el":"\u0391\u03ba\u03c4\u03ae \u0395\u03bb\u03b5\u03c6\u03b1\u03bd\u03c4\u03bf\u03c3\u03c4\u03bf\u03cd","name:eo":"Ebur-Bordo","name:en":"Ivory Coast","name":"C\u00f4te d'Ivoire","name:ee":"Ivory Kost nutome","name:th":"\u0e1b\u0e23\u0e30\u0e40\u0e17\u0e28\u0e42\u0e01\u0e15\u0e14\u0e34\u0e27\u0e31\u0e27\u0e23\u0e4c","name:eu":"Boli Kosta","name:et":"Elevandiluurannik","name:es":"Costa de Marfil","name:ia":"Costa de Ebore","name:rm":"Costa d'Ivur","name:rn":"Kotedivuware","name:az":"\u0130vori Sahili","name:ie":"Costa de Ivor","name:id":"Pantai Gading","name:ar":"\u0643\u0648\u062a \u062f\u064a\u0641\u0648\u0627\u0631","name:io":"Ivora Rivo","name:ak":"La C\u00f4te d'Ivoire","name:am":"\u12a0\u12ed\u126e\u122a\u12ae\u1235\u1275","name:it":"Costa d'Avorio","name:an":"Costa de Vori","name:ru":"\u041a\u043e\u0442-\u0434\u2019\u0418\u0432\u0443\u0430\u0440","name:rw":"Kote Divuwari","name:af":"Ivoorkus","name:zu":"i-Ivory Coast","old_name:ru":"\u0411\u0435\u0440\u0435\u0433 \u0421\u043b\u043e\u043d\u043e\u0432\u043e\u0439 \u041a\u043e\u0441\u0442\u0438","name:zh-yue":"\u8c61\u7259\u6d77\u5cb8","name:zh":"\u79d1\u7279\u8fea\u74e6","name:so":"Ivory coast","name:sn":"Ivory Coast","name:sl":"Slonoko\u0161\u010dena obala","name:sk":"Pobre\u017eie slonoviny","name:ja":"\u30b3\u30fc\u30c8\u30b8\u30dc\u30ef\u30fc\u30eb","name:si":"\u0d85\u0dba\u0dd2\u0dc0\u0dbb\u0dd2 \u0d9a\u0ddd\u0dc3\u0dca\u0da7\u0dca","name:sh":"Obala Slonova\u010de","name:sg":"K\u00f4div\u00fc\u00e4ra","name:se":"Elfenbenariddu","name:sc":"Costa de Av\u00f2riu","name:sa":"\u0915\u094b\u091f \u0910\u0935\u0930\u0940","name:bs":"Obala Slonova\u010de","name:bm":"Kodiwari","name:bn":"\u0986\u09ad\u09b0\u09bf \u0995\u09cb\u09b8\u09cd\u099f","name:bo":"\u0f40\u0f7c\u0f0b\u0f4a\u0f7a\u0f0b\u0f4c\u0f72\u0f0d \u0f68\u0f72\u0f0b\u0f5d\u0f7c\u0f0b\u0f62\u0f7a\u0f0d","name:br":"Aod an Olifant","name:sw":"Cote d'Ivoire","name:be":"\u041a\u043e\u0442 \u0434\u2019\u0406\u0432\u0443\u0430\u0440","name:su":"Basisir Gading","name:bg":"\u041a\u043e\u0442 \u0434'\u0418\u0432\u043e\u0430\u0440","name:ss":"Lugu Lwempondvondlovu","name:sr":"\u041e\u0431\u0430\u043b\u0430 \u0421\u043b\u043e\u043d\u043e\u0432\u0430\u0447\u0435","name:sq":"Bregu i Fildisht\u00eb","name:jv":"Pant\u00e9 Gadhing","name:pt":"Costa do Marfim","name:ps":"\u0639\u0627\u062c \u0633\u0627\u062d\u0644","name:oc":"C\u00f2sta d'Ev\u00f2ri","min_zoom":2.0,"name:ro":"Coasta de Filde\u015f","name:pa":"\u0a26\u0a70\u0a26 \u0a16\u0a70\u0a21 \u0a24\u0a1f","name:os":"\u041a\u043e\u0442-\u0434\u2019\u0418\u0432\u0443\u0430\u0440","name:or":"\u0b06\u0b07\u0b2c\u0b30\u0b40 \u0b15\u0b4b\u0b37\u0b4d\u0b1f","name:pl":"Wybrze\u017ce Ko\u015bci S\u0142oniowej","name:tr":"Fildi\u015fi Sahili","name:hi":"\u0906\u0907\u0935\u0930\u0940 \u0915\u094b\u0938\u094d\u091f","name:sv":"Elfenbenskusten","name:he":"\u05d7\u05d5\u05e3 \u05d4\u05e9\u05e0\u05d4\u05d1","name:ha":"Aibari Kwas","old_name:en":"Ivory Coast","name:hy":"\u0553\u0572\u0578\u057d\u056f\u0580\u056b \u0531\u0583","name:ht":"K\u00f2t divwa","name:hu":"Elef\u00e1ntcsontpart","name:qu":"Marphil Chala","population":20152894,"kind":"country","name:is":"F\u00edlabeinsstr\u00f6ndin","name:yi":"\u05d1\u05d0\u05e8\u05d8\u05df \u05e4\u05d5\u05df \u05d4\u05e2\u05dc\u05e4\u05d0\u05e0\u05d3\u05d1\u05d9\u05d9\u05df","name:yo":"Or\u00edl\u1eb9\u0301\u00e8de K\u00f3\u00fat\u00e8 for\u00e0","name:mt":"Kosta ta\u2019 l-Avorju","name:ms":"Ivory Coast","name:mr":"\u0906\u092f\u0935\u094d\u0939\u0930\u0940 \u0915\u094b\u0938\u094d\u091f","name:my":"\u1021\u102d\u102f\u1004\u103a\u1017\u101b\u102e\u1000\u102d\u102f\u1005\u1037\u103a","official_name":"R\u00e9publique de C\u00f4te d\u2019Ivoire","name:mg":"C\u00f4te d\u2019Ivoire","name:ml":"\u0d10\u0d35\u0d31\u0d3f \u0d15\u0d4b\u0d38\u0d4d\u0d31\u0d4d\u0d31\u0d4d","name:vi":"B\u1edd Bi\u1ec3n Ng\u00e0","name:mn":"\u0417\u0430\u0430\u043d\u044b \u042f\u0441\u0430\u043d \u042d\u0440\u044d\u0433","id":424314691,"name:mk":"\u0411\u0440\u0435\u0433 \u043d\u0430 \u0421\u043b\u043e\u043d\u043e\u0432\u0430 \u041a\u043e\u0441\u043a\u0430","name:vo":"Viorajol\u00e4n","name:fa":"\u0633\u0627\u062d\u0644 \u0639\u0627\u062c","name:ff":"Kodduwaar","name:fi":"Norsunluurannikko","name:fo":"F\u00edlabeinsstrondin","alt_name:vi":"C\u1ed1t \u0110i-voa","name:fy":"Ivoarkust","name:nl":"Ivoorkust","name:nn":"Elfenbeinskysten","name:no":"Elfenbenskysten","name:na":"Aibori Kot","name:ne":"\u0906\u0907\u092d\u094b\u0930\u0940 \u0915\u094b\u0938\u094d\u091f","name:wo":"Kodiwaar","name:nv":"Ch\u012f\u0301\u012f\u0301h Yee Adilohii Bidee\u02bc T\u00f3nteel Bib\u0105\u0105h","name:ga":"An C\u00f3sta Eabhair","name:gd":"Costa \u00ccbhri","name:gl":"Costa do Marfil","name:gv":"Yn Clyst Iuaagagh","name:gu":"\u0a86\u0a87\u0ab5\u0ab0\u0ac0 \u0a95\u0acb\u0ab8\u0acd\u0a9f","name:tt":"\u041a\u043e\u0442-\u0434\u2019\u0418\u0432\u0443\u0430\u0440"},"coordinates":[2069,2928]},{"type":"Point","properties":{"name:kg":"Ginea","name:ka":"\u10d2\u10d5\u10d8\u10dc\u10d4\u10d0","name:ko":"\uae30\ub2c8","name:cv":"\u0413\u0432\u0438\u043d\u0435\u0439","name:km":"\u17a0\u17d2\u1782\u17b8\u178e\u17c1","name:kl":"Guinea","name:cs":"Guinea","name:ki":"Gine","name:kw":"Gyni","name:tk":"Gwine\u00fda","name:ku":"G\u00een\u00ea","name:ti":"\u130a\u1292","name:ks":"\u06af\u0650\u0646\u06cc","name:to":"Kini","name:tl":"Ginea","name:ce":"\u0413\u0432\u0438\u043d\u0435","name:ta":"\u0b95\u0bbf\u0ba9\u0bbf\u0baf\u0bbe","name:tg":"\u0413\u0432\u0438\u043d\u0435\u044f","name:ca":"Rep\u00fablica de Guinea","name:te":"\u0c17\u0c3f\u0c28\u0c3f\u0c2f\u0c3e","name:hr":"Gvineja","name:da":"Guinea","name:de":"Guinea","name:dz":"\u0f42\u0fb7\u0f72\u0f0b\u0f53\u0f72","source":"openstreetmap.org","name:kn":"\u0c97\u0cbf\u0ca8\u0cbf","name:dv":"\u078e\u07a9\u0782\u07a8\u0787\u07a7","name:lv":"Gvineja","name:lt":"Gvin\u0117ja","name:uz":"Gvineya","name:kk":"\u0413\u0432\u0438\u043d\u0435\u044f","name:ur":"\u06af\u0646\u06cc","name:lb":"Guinea","name:la":"Guinea","name:lg":"Gini","name:uk":"\u0490\u0432\u0456\u043d\u0435\u044f","name:ug":"\u06cb\u0649\u0646\u06d0\u064a\u06d5","name:li":"Guinee","name:ln":"Gin\u025b","name:lo":"\u0e81\u0eb4\u0ea7\u0e99\u0eb5","name:el":"\u0393\u03bf\u03c5\u03b9\u03bd\u03ad\u03b1","name:eo":"Gvineo","name:en":"Guinea","name":"Guin\u00e9e","name:ee":"Guini nutome","name:th":"\u0e1b\u0e23\u0e30\u0e40\u0e17\u0e28\u0e01\u0e34\u0e19\u0e35","name:eu":"Ginea","name:et":"Guinea","name:es":"Guinea","name:ia":"Guinea","name:rm":"Guinea","name:rn":"Guneya","name:az":"Qvineya","name:ie":"Guinea","name:id":"Guinea","name:ar":"\u063a\u064a\u0646\u064a\u0627","name:io":"Guinea","name:ak":"Gini","name:am":"\u130a\u1292","name:it":"Guinea","name:an":"Guinea","name:ru":"\u0413\u0432\u0438\u043d\u0435\u044f","name:rw":"Gineya","name:pl":"Gwinea","name:af":"Guinee","name:zu":"i-Guinea","name:ky":"\u0413\u0432\u0438\u043d\u0435\u044f","name:zh-yue":"\u757f\u5167\u4e9e","name:zh":"\u51e0\u5185\u4e9a","name:so":"Gini","name:sn":"Guinea","name:sm":"Guinea","name:sl":"Gvineja","name:sk":"Guinea","name:ja":"\u30ae\u30cb\u30a2","name:si":"\u0d9c\u0dd2\u0dab\u0dd2\u0dba\u0dcf\u0dc0","name:sh":"Gvineja","name:sg":"Gin\u00ebe","name:se":"Guinea","name:sc":"Guinea","name:br":"Ginea","name:bs":"Gvineja","name:bm":"Gine","name:bn":"\u0997\u09bf\u09a8\u09bf","name:bo":"\u0f42\u0fb7\u0f72\u0f0b\u0f53\u0f72\u0f0b\u0f61\u0f0d","name:sa":"\u0917\u093f\u0928\u0940","name:sw":"Gine","name:be":"\u0413\u0432\u0456\u043d\u0435\u044f","name:su":"Guin\u00e9a","name:bg":"\u0413\u0432\u0438\u043d\u0435\u044f","name:ss":"IGiniya","name:ba":"\u0413\u0432\u0438\u043d\u0435\u044f","name:sq":"Guine","name:jv":"Guinea","name:pt":"Guin\u00e9","name:ps":"\u06ab\u06cc\u0627\u0646\u0627","name:oc":"Guin\u00e8a","min_zoom":2.0,"name:ro":"Guineea","name:pa":"\u0a17\u0a3f\u0a28\u0a40","name:os":"\u0413\u0432\u0438\u043d\u0435\u0439","name:or":"\u0b17\u0b41\u0b0f\u0b28\u0b47\u0b06","alt_name:pt":"Guinea; Guin\u00e9-Conakry; Guin\u00e9-Conacri","name:st":"Guinea","name:sr":"\u0413\u0432\u0438\u043d\u0435\u0458\u0430","name:tr":"Gine","name:hi":"\u0917\u093f\u0928\u0940","name:sv":"Guinea","name:he":"\u05d2\u05d9\u05e0\u05d0\u05d4","name:ha":"Gini","name:hy":"\u0533\u057e\u056b\u0576\u0565\u0561","name:ht":"Gine","name:hu":"Guinea","name:qu":"Khiniya","population":10187320,"kind":"country","name:ts":"Gineya","name:is":"G\u00ednea","name:yi":"\u05d2\u05d9\u05e0\u05e2","name:yo":"Or\u00edl\u1eb9\u0301\u00e8de Gene","name:mt":"Gineja","name:ms":"Guinea","name:mr":"\u0917\u093f\u0928\u0940","name:my":"\u1002\u102e\u101b\u102c\u1014\u102c","int_name":"Guinea","name:mg":"Ginea","name:ml":"\u0d17\u0d4d\u0d35\u0d3f\u0d28\u0d3f\u0d2f","name:vi":"Guinea","name:mn":"\u0413\u0432\u0438\u043d\u0435\u0439","id":424297586,"name:mk":"\u0413\u0432\u0438\u043d\u0435\u0458\u0430","name:vo":"Giney\u00e4n","name:fa":"\u06af\u06cc\u0646\u0647","name:ff":"Gine","name:fi":"Guinea","name:fo":"Guinea","name:fy":"Guinee","name:nl":"Guinee","name:nn":"Guinea","name:no":"Guinea","name:na":"Gini","name:ne":"\u0917\u093f\u0928\u0940","name:wo":"Gine","name:nv":"G\u00edn\u00ed","name:ga":"An Ghuine","name:gd":"Gini","name:gl":"Guinea","name:gv":"Yn Ghuinea","name:gu":"\u0a97\u0abf\u0aa8\u0ac0","name:tt":"\u0413\u0432\u0438\u043d\u0435\u044f"},"coordinates":[197,3929]},{"type":"Point","properties":{"name:pt":"Lib\u00e9ria","name:ps":"\u0644\u0627\u06cc\u0628\u0631\u06cc\u0627","name:ka":"\u10da\u10d8\u10d1\u10d4\u10e0\u10d8\u10d0","name:tr":"Liberya","name:cv":"\u041b\u0438\u0431\u0435\u0440\u0438","name:km":"\u179b\u17b8\u1794\u17c1\u179a\u17b8\u1799\u17c9\u17b6","name:cs":"Lib\u00e9rie","name:tt":"\u041b\u0438\u0431\u0435\u0440\u0438\u044f","name:kw":"Liberi","name:tk":"Liberi\u00fda","name:ku":"L\u00eeberya","name:ti":"\u120b\u12ed\u1264\u122a\u12eb","name:ks":"\u0644\u0627\u06cc\u0628\u06cc\u0631\u0650\u06cc\u0627","name:to":"Laipelia","name:os":"\u041b\u0438\u0431\u0435\u0440\u0438","name:or":"\u0b32\u0b3f\u0b2c\u0b47\u0b30\u0b3f\u0b06","name:ce":"\u041b\u0438\u0431\u0435\u0440\u0438","name:ta":"\u0bb2\u0bc8\u0baa\u0bc0\u0bb0\u0bbf\u0baf\u0bbe","name:tg":"\u041b\u0438\u0431\u0435\u0440\u0438\u044f","name:ca":"Lib\u00e8ria","name:te":"\u0c32\u0c48\u0c2c\u0c40\u0c30\u0c3f\u0c2f\u0c3e","source":"openstreetmap.org","name:hr":"Liberija","name:ln":"Lib\u00e9riya","name:sr":"\u041b\u0438\u0431\u0435\u0440\u0438\u0458\u0430","name:dz":"\u0f63\u0f71\u0f60\u0f72\u0f0b\u0f56\u0f7a\u0f0b\u0f62\u0f72\u0f0b\u0f61","name:ko":"\ub77c\uc774\ubca0\ub9ac\uc544","name:kn":"\u0cb2\u0cbf\u0cac\u0cc7\u0cb0\u0cbf\u0caf\u0cbe","name:dv":"\u078d\u07a6\u0787\u07a8\u0784\u07a9\u0783\u07a8\u0787\u07a7","name:lv":"Lib\u0113rija","name:lt":"Liberija","name:uz":"Liberiya","name:kk":"\u041b\u0438\u0431\u0435\u0440\u0438\u044f","name:he":"\u05dc\u05d9\u05d1\u05e8\u05d9\u05d4","min_zoom":2.0,"kind":"country","name:ur":"\u0644\u0627\u0626\u0628\u06cc\u0631\u06cc\u0627","name:lg":"Liberya","name:uk":"\u041b\u0456\u0431\u0435\u0440\u0456\u044f","name:hy":"\u053c\u056b\u0562\u0565\u0580\u056b\u0561","name:ug":"\u0644\u0649\u0628\u06d0\u0631\u0649\u064a\u06d5","name:hu":"Lib\u00e9ria","name:qu":"Libirya","name:lo":"\u0ea5\u0eb4\u0ec0\u0e9a\u0eb5\u0ec0\u0ea5\u0e8d","name:oc":"Lib\u00e8ria","population":3476608,"name:el":"\u039b\u03b9\u03b2\u03b5\u03c1\u03af\u03b1","name:eo":"Liberio","name:ts":"Layiberiya","name":"Liberia","name:ee":"Liberia nutome","name:th":"\u0e1b\u0e23\u0e30\u0e40\u0e17\u0e28\u0e44\u0e25\u0e1a\u0e35\u0e40\u0e23\u0e35\u0e22","name:gu":"\u0ab2\u0abe\u0a87\u0aac\u0ac7\u0ab0\u0abf\u0aaf\u0abe","name:yi":"\u05dc\u05d9\u05d1\u05e2\u05e8\u05d9\u05e2","name:et":"Libeeria","name:yo":"Or\u00edl\u1eb9\u0301\u00e8de Laberia","name:mt":"Liberja","name:rn":"Liberiya","name:az":"Liberiya","name:mr":"\u0932\u093e\u092f\u092c\u0947\u0930\u093f\u092f\u093e","name:ar":"\u0644\u064a\u0628\u0631\u064a\u0627","name:my":"\u101c\u102d\u102f\u1004\u103a\u1018\u1031\u1038\u101b\u102e\u1038\u101a\u102c\u1038","official_name":"Republic of Liberia","name:is":"L\u00edber\u00eda","name:am":"\u120b\u12ed\u1264\u122a\u12eb","name:ml":"\u0d32\u0d48\u0d2c\u0d40\u0d30\u0d3f\u0d2f","name:ru":"\u041b\u0438\u0431\u0435\u0440\u0438\u044f","name:rw":"Liberiya","id":424311573,"name:mk":"\u041b\u0438\u0431\u0435\u0440\u0438\u0458\u0430","name:af":"Liberi\u00eb","name:zu":"i-Liberia","name:ha":"Laberiya","name:mn":"\u041b\u0438\u0431\u0435\u0440\u0438","name:ff":"Liberiyaa","name:hi":"\u0932\u093e\u0907\u092c\u0947\u0930\u093f\u092f\u093e","name:fr":"Lib\u00e9ria","name:wo":"Libeeria","name:zh-yue":"\u5229\u6bd4\u5229\u4e9e","name:fy":"Libearia","name:vo":"Liber\u00e4n","name:zh":"\u5229\u6bd4\u91cc\u4e9a","name:so":"Laybeeriya","name:sl":"Liberija","name:sk":"Lib\u00e9ria","name:ja":"\u30ea\u30d9\u30ea\u30a2","name:si":"\u0dbd\u0dba\u0dd2\u0db6\u0dd3\u0dbb\u0dd2\u0dba\u0dcf\u0dc0","name:sh":"Liberija","name:sg":"Liber\u00efa","name:sc":"Lib\u00e8ria","name:ne":"\u0932\u093e\u0907\u092c\u0947\u0930\u093f\u092f\u093e","name:sa":"\u0932\u093e\u092f\u092c\u0940\u0930\u093f\u092f\u093e","name:bs":"Liberija","name:bm":"Liberiya","name:bn":"\u09b2\u09be\u0987\u09ac\u09c7\u09b0\u09bf\u09af\u09bc\u09be","name:bo":"\u0f63\u0f72\u0f0b\u0f56\u0f7a\u0f0b\u0f62\u0f72\u0f0b\u0f61\u0f0d","name:be":"\u041b\u0456\u0431\u0435\u0440\u044b\u044f","name:bg":"\u041b\u0438\u0431\u0435\u0440\u0438\u044f","name:ss":"ILibheriya","name:ba":"\u041b\u0438\u0431\u0435\u0440\u0438\u044f","name:sq":"Liberi","name:ga":"An Lib\u00e9ir","name:gd":"Lib\u00e8iria","name:ht":"Liberya","name:fa":"\u0644\u06cc\u0628\u0631\u06cc\u0627","name:gv":"Yn Laibeer","name:ak":"Laeberia"},"coordinates":[686,2107]},{"type":"Point","properties":{"name:mr":"\u0906\u092c\u093f\u091c\u093e\u0928","name:tr":"Abican","name:ar":"\u0623\u0628\u064a\u062f\u062c\u0627\u0646","name:cs":"Abid\u017ean","name:tk":"Abijan","name:th":"\u0e2d\u0e32\u0e1a\u0e35\u0e08\u0e32\u0e19","name:ml":"\u0d05\u0d2c\u0d3f\u0d1c\u0d3e\u0d7b","name:ru":"\u0410\u0431\u0438\u0434\u0436\u0430\u043d","name:pl":"Abid\u017can","id":2811123364,"name:mk":"\u0410\u0431\u0438\u045f\u0430\u043d","name:fa":"\u0622\u0628\u06cc\u062c\u0627\u0646","source":"openstreetmap.org","kind_detail":"state","name:ko":"\uc544\ube44\uc7a5","name:zh":"\u963f\u6bd4\u8ba9","name:sl":"Abid\u017ean","name:lv":"Abid\u017e\u0101na","name:ja":"\u30a2\u30d3\u30b8\u30e3\u30f3","name:lt":"Abid\u017eanas","name:he":"\u05d0\u05d1\u05d9\u05d3\u05d2'\u05d0\u05df","kind":"region","name:bn":"\u0986\u09ac\u09bf\u099c\u09be\u09a8","name:uk":"\u0410\u0431\u0456\u0434\u0436\u0430\u043d","name:be":"\u0410\u0431\u0456\u0434\u0436\u0430\u043d","name:bg":"\u0410\u0431\u0438\u0434\u0436\u0430\u043d","name:sr":"\u0410\u0431\u0438\u045f\u0430\u043d","population":6000000,"name:el":"\u0391\u03bc\u03c0\u03b9\u03c4\u03b6\u03ac\u03bd","name:eo":"Abi\u011dano","name":"Abidjan","min_zoom":4.0,"name:es":"Abiy\u00e1n"},"coordinates":[2624,1982]},{"type":"Point","properties":{"source":"naturalearthdata.com","kind":"locality","name":"Abidjan","country_capital":true,"population":3802000,"min_zoom":4.0,"id":7205},"coordinates":[2624,1950]},{"type":"Point","properties":{"source":"naturalearthdata.com","kind":"locality","name":"Accra","country_capital":true,"population":2121000,"min_zoom":4.0,"id":7189},"coordinates":[4016,2034]},{"type":"Point","properties":{"source":"naturalearthdata.com","kind":"locality","name":"Monrovia","country_capital":true,"population":1041000,"min_zoom":4.0,"id":7148},"coordinates":[164,2314]},{"type":"Point","properties":{"source":"openstreetmap.org","kind":"region","name":"Bomi","kind_detail":"state","min_zoom":4.0,"id":2912811850},"coordinates":[168,2462]},{"type":"Point","properties":{"source":"openstreetmap.org","kind":"region","name":"Bong","kind_detail":"state","min_zoom":4.0,"id":2912811851},"coordinates":[559,2551]},{"type":"Point","properties":{"source":"openstreetmap.org","kind":"region","name":"Grand Bassa","kind_detail":"state","min_zoom":4.0,"id":2912811853},"coordinates":[493,2259]},{"type":"Point","properties":{"source":"openstreetmap.org","kind":"region","name":"Grand Cape Mount","kind_detail":"state","min_zoom":4.0,"id":2912811854},"coordinates":[44,2583]},{"type":"Point","properties":{"source":"openstreetmap.org","kind":"region","name":"Margibi","kind_detail":"state","min_zoom":4.0,"id":2912811858},"coordinates":[391,2420]},{"type":"Point","properties":{"source":"openstreetmap.org","kind":"region","name":"Montserrado","kind_detail":"state","min_zoom":4.0,"id":2912811860},"coordinates":[234,2349]},{"type":"Point","properties":{"source":"openstreetmap.org","kind":"region","name":"Nimba","kind_detail":"state","min_zoom":4.0,"id":2912811861},"coordinates":[912,2495]},{"type":"Point","properties":{"source":"openstreetmap.org","kind":"region","name":"Bas-Sassandra","kind_detail":"state","min_zoom":4.0,"id":2811123365},"coordinates":[1665,1961]},{"type":"Point","properties":{"admin_level":"4","kind":"region","name":"Western Region","kind_detail":"state","name:de":"Westregion","source":"openstreetmap.org","min_zoom":4.0,"name:uk":"\u0417\u0430\u0445\u0456\u0434\u043d\u0430","name:ru":"\u0417\u0430\u043f\u0430\u0434\u043d\u044b\u0439","id":2661484233},"coordinates":[3259,2057]},{"type":"Point","properties":{"source":"openstreetmap.org","kind":"region","name":"G\u00f4h-Djiboua","kind_detail":"state","min_zoom":4.0,"id":2811123368},"coordinates":[2055,2182]},{"type":"Point","properties":{"source":"openstreetmap.org","kind":"region","name":"Lagunes","kind_detail":"state","min_zoom":4.0,"id":2811123370},"coordinates":[2533,2142]},{"type":"Point","properties":{"admin_level":"4","kind":"region","name":"Central Region","kind_detail":"state","name:de":"Zentralregion","source":"openstreetmap.org","min_zoom":4.0,"name:uk":"\u0426\u0435\u043d\u0442\u0440\u0430\u043b\u044c\u043d\u0430","name:ru":"\u0426\u0435\u043d\u0442\u0440\u0430\u043b\u044c\u043d\u044b\u0439","id":2661484234},"coordinates":[3595,2098]},{"type":"Point","properties":{"source":"openstreetmap.org","kind":"region","name":"Grand Gedeh","kind_detail":"state","min_zoom":4.0,"id":2912811855},"coordinates":[1147,2131]},{"type":"Point","properties":{"source":"openstreetmap.org","kind":"region","name":"Grand Kru","kind_detail":"state","min_zoom":4.0,"id":2912811856},"coordinates":[1063,1777]},{"type":"Point","properties":{"source":"openstreetmap.org","kind":"region","name":"Maryland","kind_detail":"state","name:ta":"\u0bae\u0bc7\u0bb0\u0bbf\u0bb2\u0bbe\u0ba8\u0bcd\u0ba4\u0bc1","min_zoom":4.0,"id":2912811859},"coordinates":[1282,1699]},{"type":"Point","properties":{"source":"openstreetmap.org","kind":"region","name":"River Gee","kind_detail":"state","min_zoom":4.0,"id":2912811862},"coordinates":[1225,1929]},{"type":"Point","properties":{"source":"openstreetmap.org","kind":"region","name":"Rivercess","kind_detail":"state","min_zoom":4.0,"id":2912811863},"coordinates":[676,2165]},{"type":"Point","properties":{"source":"openstreetmap.org","kind":"region","name":"Sinoe","kind_detail":"state","min_zoom":4.0,"id":2912811864},"coordinates":[876,1951]},{"type":"Point","properties":{"source":"openstreetmap.org","kind":"region","name":"Montagnes","kind_detail":"state","min_zoom":4.0,"id":2811123371},"coordinates":[1309,2544]},{"type":"Point","properties":{"source":"openstreetmap.org","kind":"region","name":"Sassandra-Marahou\u00e9","kind_detail":"state","min_zoom":4.0,"id":2811123372},"coordinates":[1789,2585]},{"type":"Point","properties":{"source":"openstreetmap.org","kind":"region","name":"Woroba","kind_detail":"state","min_zoom":4.0,"id":2811123375},"coordinates":[1640,3067]},{"type":"Point","properties":{"source":"openstreetmap.org","kind":"region","name":"Dengu\u00e9l\u00e9","kind_detail":"state","min_zoom":4.0,"id":2811123367},"coordinates":[1405,3532]},{"type":"Point","properties":{"source":"openstreetmap.org","kind":"region","name":"Yamoussoukro","kind_detail":"state","min_zoom":4.0,"id":2811123376},"coordinates":[2173,2517]},{"type":"Point","properties":{"source":"openstreetmap.org","kind":"region","name":"Vall\u00e9e du Bandama","kind_detail":"state","min_zoom":4.0,"id":2811123374},"coordinates":[2296,3030]},{"type":"Point","properties":{"source":"openstreetmap.org","kind":"region","name":"Savanes","kind_detail":"state","min_zoom":4.0,"id":2811123373},"coordinates":[2072,3505]},{"type":"Point","properties":{"source":"openstreetmap.org","kind":"region","name":"Kankan","kind_detail":"state","min_zoom":4.0,"id":2746237191},"coordinates":[704,3893]},{"type":"Point","properties":{"source":"openstreetmap.org","kind":"region","name":"Lacs","kind_detail":"state","min_zoom":4.0,"id":2811123369},"coordinates":[2479,2584]},{"type":"Point","properties":{"source":"openstreetmap.org","kind":"region","name":"Como\u00e9","kind_detail":"state","min_zoom":4.0,"id":2811123366},"coordinates":[2892,2226]},{"type":"Point","properties":{"admin_level":"4","kind":"region","name":"Ashanti Region","kind_detail":"state","source":"openstreetmap.org","min_zoom":4.0,"name:uk":"\u0410\u0448\u0430\u043d\u0442\u0456","name:ru":"\u0410\u0448\u0430\u043d\u0442\u0438","id":2661665004},"coordinates":[3543,2492]},{"type":"Point","properties":{"admin_level":"4","kind":"region","name":"Eastern Region","kind_detail":"state","name:de":"Ostregion","source":"openstreetmap.org","min_zoom":4.0,"name:uk":"\u0421\u0445\u0456\u0434\u043d\u0430","name:ru":"\u0412\u043e\u0441\u0442\u043e\u0447\u043d\u044b\u0439","id":2661484225},"coordinates":[3959,2362]},{"type":"Point","properties":{"admin_level":"4","kind":"region","name":"Brong-Ahafo Region","kind_detail":"state","source":"openstreetmap.org","min_zoom":4.0,"name:uk":"\u0411\u0440\u043e\u043d\u0433-\u0410\u0445\u0430\u0444\u043e","name:ru":"\u0411\u0440\u043e\u043d\u0433-\u0410\u0445\u0430\u0444\u043e","id":2661665005},"coordinates":[3518,2868]},{"type":"Point","properties":{"source":"openstreetmap.org","kind":"region","name":"Zanzan","kind_detail":"state","min_zoom":4.0,"id":2811123377},"coordinates":[2878,3177]},{"type":"Point","properties":{"source":"openstreetmap.org","kind":"region","name":"Nz\u00e9r\u00e9kor\u00e9","kind_detail":"state","min_zoom":4.0,"id":2746237234},"coordinates":[871,3075]},{"type":"Point","properties":{"source":"openstreetmap.org","kind":"region","name":"Faranah","kind_detail":"state","min_zoom":4.0,"id":2746237182},"coordinates":[131,3779]},{"type":"Point","properties":{"source":"openstreetmap.org","kind":"region","name":"Gbarpolu","kind_detail":"state","min_zoom":4.0,"id":2912811852},"coordinates":[316,2663]},{"type":"Point","properties":{"source":"openstreetmap.org","kind":"region","name":"Lofa","kind_detail":"state","min_zoom":4.0,"id":2912811857},"coordinates":[464,2888]},{"type":"Point","properties":{"source":"openstreetmap.org","kind":"region","name":"Kenema","kind_detail":"state","min_zoom":4.0,"id":2992144239},"coordinates":[22,2890]},{"type":"Point","properties":{"source":"openstreetmap.org","kind":"region","name":"Kono","kind_detail":"state","min_zoom":4.0,"id":2992144241},"coordinates":[120,3183]},{"type":"Point","properties":{"admin_level":"4","kind":"region","name":"Northern Region","kind_detail":"state","name:de":"Nordregion","source":"openstreetmap.org","min_zoom":4.0,"name:uk":"\u041f\u0456\u0432\u043d\u0456\u0447\u043d\u0430","name:ru":"\u0421\u0435\u0432\u0435\u0440\u043d\u044b\u0439","id":2661484222},"coordinates":[3830,3440]},{"type":"Point","properties":{"admin_level":"4","kind":"region","name":"Upper West Region","kind_detail":"state","name:de":"Obere Westregion","source":"openstreetmap.org","min_zoom":4.0,"name:uk":"\u0412\u0435\u0440\u0445\u043d\u044f \u0417\u0430\u0445\u0456\u0434\u043d\u0430","name:ru":"\u0412\u0435\u0440\u0445\u043d\u0438\u0439 \u0417\u0430\u043f\u0430\u0434\u043d\u044b\u0439","id":2661484224},"coordinates":[3334,3799]},{"type":"Point","properties":{"admin_level":"4","kind":"region","name":"Upper East Region","kind_detail":"state","name:de":"Obere Ostregion","source":"openstreetmap.org","min_zoom":4.0,"name:uk":"\u0412\u0435\u0440\u0445\u043d\u044f \u0421\u0445\u0456\u0434\u043d\u0430","name:ru":"\u0412\u0435\u0440\u0445\u043d\u0438\u0439 \u0412\u043e\u0441\u0442\u043e\u0447\u043d\u044b\u0439","id":2661484223},"coordinates":[3834,3954]},{"type":"Point","properties":{"source":"naturalearthdata.com","kind":"locality","name":"Bouake","population":567481,"region_capital":true,"min_zoom":5.0,"id":6644},"coordinates":[2265,2818]},{"type":"Point","properties":{"source":"naturalearthdata.com","kind":"locality","name":"Yamoussoukro","country_capital":true,"population":206499,"min_zoom":5.0,"id":7009},"coordinates":[2175,2498]},{"type":"Point","properties":{"source":"naturalearthdata.com","kind":"locality","name":"Nzerekore","population":168121,"region_capital":true,"min_zoom":5.0,"id":6643},"coordinates":[881,2843]},{"type":"Point","properties":{"source":"naturalearthdata.com","kind":"locality","name":"Kankan","population":114009,"region_capital":true,"min_zoom":5.0,"id":6642},"coordinates":[706,3807]}]},"transit":{"type":"GeometryCollection","geometries":[]},"pois":{"type":"GeometryCollection","geometries":[]},"boundaries":{"type":"GeometryCollection","geometries":[{"type":"MultiLineString","properties":{"source":"naturalearthdata.com","kind":"country","sort_rank":262,"kind_detail":"2","min_zoom":0.0,"id":283},"arcs":[[0],[1],[2],[3],[4],[5],[6],[7],[8],[9],[10],[11],[12],[13]]},{"type":"LineString","properties":{"source":"naturalearthdata.com","kind":"country","sort_rank":262,"kind_detail":"2","min_zoom":0.0,"id":390},"arcs":[14]},{"type":"MultiLineString","properties":{"source":"naturalearthdata.com","kind":"country","sort_rank":262,"kind_detail":"2","min_zoom":0.0,"id":392},"arcs":[[15],[16],[17],[18],[19],[20],[21],[22],[23],[24],[25],[26],[27],[28],[29],[30],[31],[32],[33],[34],[35],[36],[37],[38]]},{"type":"MultiLineString","properties":{"source":"naturalearthdata.com","kind":"country","sort_rank":262,"kind_detail":"2","min_zoom":0.0,"id":101},"arcs":[[39],[40],[41],[42],[43],[44],[45],[46],[47],[48],[49],[50]]},{"type":"LineString","properties":{"source":"naturalearthdata.com","kind":"country","sort_rank":262,"kind_detail":"2","min_zoom":0.0,"id":102},"arcs":[51]},{"type":"MultiLineString","properties":{"source":"naturalearthdata.com","kind":"country","sort_rank":262,"kind_detail":"2","min_zoom":0.0,"id":120},"arcs":[[52],[53],[54],[55],[56],[57],[58],[59],[60],[61],[62],[63],[64],[65],[66],[67],[68],[69],[70],[71],[72],[73],[74],[75],[76],[77],[78],[79],[80]]},{"type":"LineString","properties":{"source":"naturalearthdata.com","kind":"country","sort_rank":262,"kind_detail":"2","min_zoom":0.0,"id":433},"arcs":[81]},{"type":"MultiLineString","properties":{"source":"naturalearthdata.com","kind":"country","sort_rank":262,"kind_detail":"2","min_zoom":0.0,"id":282},"arcs":[[82],[83],[84],[85]]},{"type":"MultiLineString","properties":{"source":"naturalearthdata.com","kind":"country","sort_rank":262,"kind_detail":"2","min_zoom":0.0,"id":284},"arcs":[[86],[87],[88],[89],[90],[91],[92],[93],[94],[95],[96],[97],[98],[99],[100],[101],[102],[103],[104],[105],[106],[107],[108],[109],[110],[111],[112],[113],[114],[115],[116],[117],[118],[119],[120],[121],[122],[123],[124],[125],[126],[127],[128],[129],[130],[131],[132],[133],[134],[135]]},{"type":"MultiLineString","properties":{"source":"naturalearthdata.com","kind":"country","sort_rank":262,"kind_detail":"2","min_zoom":0.0,"id":285},"arcs":[[136],[137],[138]]},{"type":"MultiLineString","properties":{"source":"naturalearthdata.com","kind":"country","sort_rank":262,"kind_detail":"2","min_zoom":0.0,"id":286},"arcs":[[139],[140],[141],[142],[143],[144],[145],[146],[147],[148],[149],[150],[151],[152],[153],[154],[155],[156],[157],[158],[159],[160],[161],[162],[163],[164],[165],[166],[167],[168],[169],[170],[171],[172],[173],[174],[175],[176],[177],[178],[179]]},{"type":"MultiLineString","properties":{"source":"naturalearthdata.com","kind":"country","sort_rank":262,"kind_detail":"2","min_zoom":0.0,"id":287},"arcs":[[180],[181],[182],[183],[184],[185],[186],[187],[188],[189],[190],[191],[192],[193],[194],[195],[196],[197],[198],[199],[200],[201],[202],[203],[204],[205],[206],[207],[208],[209],[210],[211],[212]]},{"type":"MultiLineString","properties":{"source":"naturalearthdata.com","kind":"country","sort_rank":262,"kind_detail":"2","min_zoom":0.0,"id":288},"arcs":[[213],[214],[215],[216],[217],[218],[219],[220],[221],[222],[223],[224],[225],[226],[227],[228],[229],[230],[231],[232],[233],[234],[235],[236],[237],[238],[239],[240],[241],[242],[243],[244],[245]]},{"type":"MultiLineString","properties":{"source":"naturalearthdata.com","kind":"country","sort_rank":262,"kind_detail":"2","min_zoom":0.0,"id":290},"arcs":[[246],[247],[248],[249],[250],[251],[252],[253],[254],[255],[256]]},{"type":"MultiLineString","properties":{"source":"naturalearthdata.com","kind":"region","sort_rank":256,"kind_detail":"4","min_zoom":5.5,"id":3924},"arcs":[[257],[258],[259],[260],[261],[262],[263],[264],[265],[266],[267],[268],[269],[270]]},{"type":"LineString","properties":{"source":"naturalearthdata.com","kind":"region","sort_rank":256,"kind_detail":"4","min_zoom":5.5,"id":3930},"arcs":[271]},{"type":"LineString","properties":{"source":"naturalearthdata.com","kind":"region","sort_rank":256,"kind_detail":"4","min_zoom":5.5,"id":3935},"arcs":[272]},{"type":"MultiLineString","properties":{"source":"naturalearthdata.com","kind":"region","sort_rank":256,"kind_detail":"4","min_zoom":5.5,"id":3939},"arcs":[[273],[274],[275],[276],[277]]},{"type":"LineString","properties":{"source":"naturalearthdata.com","kind":"region","sort_rank":256,"kind_detail":"4","min_zoom":5.5,"id":228},"arcs":[278]},{"type":"MultiLineString","properties":{"source":"naturalearthdata.com","kind":"region","sort_rank":256,"kind_detail":"4","min_zoom":5.5,"id":3922},"arcs":[[279],[280],[281]]},{"type":"MultiLineString","properties":{"source":"naturalearthdata.com","kind":"region","sort_rank":256,"kind_detail":"4","min_zoom":5.5,"id":3923},"arcs":[[282],[283],[284],[285],[286],[287],[288],[289],[290],[291],[292],[293],[294],[295],[296],[297],[298],[299]]},{"type":"MultiLineString","properties":{"source":"naturalearthdata.com","kind":"region","sort_rank":256,"kind_detail":"4","min_zoom":5.5,"id":3925},"arcs":[[300],[301],[302]]},{"type":"MultiLineString","properties":{"source":"naturalearthdata.com","kind":"region","sort_rank":256,"kind_detail":"4","min_zoom":5.5,"id":3926},"arcs":[[303],[304],[305],[306],[307],[308],[309]]},{"type":"MultiLineString","properties":{"source":"naturalearthdata.com","kind":"region","sort_rank":256,"kind_detail":"4","min_zoom":5.5,"id":3927},"arcs":[[310],[311],[312],[313],[314],[315],[316],[317],[318],[319],[320],[321],[322],[323],[324],[325],[326],[327],[328],[329],[330],[331],[332],[333],[334],[335]]},{"type":"MultiLineString","properties":{"source":"naturalearthdata.com","kind":"region","sort_rank":256,"kind_detail":"4","min_zoom":5.5,"id":3929},"arcs":[[336],[337],[338],[339],[340],[341]]},{"type":"MultiLineString","properties":{"source":"naturalearthdata.com","kind":"region","sort_rank":256,"kind_detail":"4","min_zoom":5.5,"id":3931},"arcs":[[342],[343],[344],[345],[346],[347],[348],[349],[350],[351],[352],[353],[354],[355],[356],[357],[358],[359],[360],[361],[362]]},{"type":"MultiLineString","properties":{"source":"naturalearthdata.com","kind":"region","sort_rank":256,"kind_detail":"4","min_zoom":5.5,"id":3932},"arcs":[[363],[364],[365],[366],[367],[368],[369],[370],[371],[372],[373],[374],[375],[376],[377],[378],[379],[380],[381],[382],[383],[384],[385],[386],[387],[388],[389],[390],[391],[392],[393],[394],[395],[396],[397],[398],[399],[400]]},{"type":"LineString","properties":{"source":"naturalearthdata.com","kind":"region","sort_rank":256,"kind_detail":"4","min_zoom":5.5,"id":3933},"arcs":[401]},{"type":"MultiLineString","properties":{"source":"naturalearthdata.com","kind":"region","sort_rank":256,"kind_detail":"4","min_zoom":5.5,"id":3934},"arcs":[[402],[403],[404],[405],[406],[407]]},{"type":"MultiLineString","properties":{"source":"naturalearthdata.com","kind":"region","sort_rank":256,"kind_detail":"4","min_zoom":5.5,"id":3937},"arcs":[[408],[409],[410],[411],[412],[413]]},{"type":"MultiLineString","properties":{"source":"naturalearthdata.com","kind":"region","sort_rank":256,"kind_detail":"4","min_zoom":5.5,"id":3938},"arcs":[[414],[415],[416],[417],[418]]}]},"roads":{"type":"GeometryCollection","geometries":[{"type":"LineString","properties":{"source":"naturalearthdata.com","kind":"major_road","sort_rank":379,"kind_detail":"secondary","min_zoom":4.0,"id":37612},"arcs":[437]},{"type":"LineString","properties":{"source":"naturalearthdata.com","kind":"major_road","sort_rank":379,"kind_detail":"secondary","min_zoom":3.0,"id":37613},"arcs":[438]},{"type":"LineString","properties":{"source":"naturalearthdata.com","kind":"minor_road","sort_rank":355,"kind_detail":"tertiary","min_zoom":5.0,"id":37615},"arcs":[439]},{"type":"LineString","properties":{"source":"naturalearthdata.com","kind":"major_road","sort_rank":379,"kind_detail":"secondary","min_zoom":4.0,"id":37621},"arcs":[440]},{"type":"LineString","properties":{"source":"naturalearthdata.com","kind":"major_road","sort_rank":379,"kind_detail":"secondary","min_zoom":4.0,"id":37622},"arcs":[441]},{"type":"LineString","properties":{"source":"naturalearthdata.com","kind":"major_road","sort_rank":379,"kind_detail":"secondary","min_zoom":3.0,"id":37650},"arcs":[442]},{"type":"LineString","properties":{"source":"naturalearthdata.com","kind":"major_road","sort_rank":379,"kind_detail":"secondary","min_zoom":3.0,"id":37733},"arcs":[443]},{"type":"LineString","properties":{"source":"naturalearthdata.com","kind":"major_road","sort_rank":379,"kind_detail":"secondary","min_zoom":3.0,"id":37734},"arcs":[444]},{"type":"LineString","properties":{"source":"naturalearthdata.com","kind":"minor_road","sort_rank":355,"kind_detail":"tertiary","min_zoom":5.0,"id":37763},"arcs":[445]},{"type":"LineString","properties":{"source":"naturalearthdata.com","kind":"minor_road","sort_rank":355,"kind_detail":"tertiary","min_zoom":5.0,"id":37764},"arcs":[446]},{"type":"LineString","properties":{"source":"naturalearthdata.com","kind":"minor_road","sort_rank":355,"kind_detail":"tertiary","min_zoom":5.0,"id":37788},"arcs":[447]},{"type":"LineString","properties":{"source":"naturalearthdata.com","kind":"major_road","sort_rank":379,"kind_detail":"secondary","min_zoom":4.0,"id":37850},"arcs":[448]},{"type":"LineString","properties":{"source":"naturalearthdata.com","kind":"minor_road","sort_rank":355,"kind_detail":"tertiary","min_zoom":5.0,"id":37876},"arcs":[449]},{"type":"LineString","properties":{"source":"naturalearthdata.com","kind":"major_road","sort_rank":379,"kind_detail":"secondary","min_zoom":4.0,"id":37922},"arcs":[450]},{"type":"LineString","properties":{"source":"naturalearthdata.com","kind":"major_road","sort_rank":379,"kind_detail":"secondary","min_zoom":4.0,"id":37937},"arcs":[451]},{"type":"LineString","properties":{"source":"naturalearthdata.com","kind":"major_road","sort_rank":379,"kind_detail":"secondary","min_zoom":4.0,"id":37943},"arcs":[452]},{"type":"LineString","properties":{"source":"naturalearthdata.com","kind":"major_road","sort_rank":379,"kind_detail":"secondary","min_zoom":4.0,"id":38054},"arcs":[453]},{"type":"LineString","properties":{"source":"naturalearthdata.com","kind":"major_road","sort_rank":379,"kind_detail":"secondary","min_zoom":4.0,"id":38103},"arcs":[454]},{"type":"LineString","properties":{"source":"naturalearthdata.com","kind":"minor_road","sort_rank":355,"kind_detail":"tertiary","min_zoom":5.0,"id":38237},"arcs":[455]},{"type":"LineString","properties":{"source":"naturalearthdata.com","kind":"minor_road","sort_rank":355,"kind_detail":"tertiary","min_zoom":5.0,"id":38254},"arcs":[456]},{"type":"LineString","properties":{"source":"naturalearthdata.com","kind":"major_road","sort_rank":379,"kind_detail":"secondary","min_zoom":4.0,"id":38278},"arcs":[457]},{"type":"LineString","properties":{"source":"naturalearthdata.com","kind":"major_road","sort_rank":379,"kind_detail":"secondary","min_zoom":4.0,"id":38453},"arcs":[458]},{"type":"LineString","properties":{"source":"naturalearthdata.com","kind":"minor_road","sort_rank":355,"kind_detail":"tertiary","min_zoom":5.0,"id":38499},"arcs":[459]},{"type":"LineString","properties":{"source":"naturalearthdata.com","kind":"major_road","sort_rank":379,"kind_detail":"secondary","min_zoom":4.0,"id":38500},"arcs":[460]},{"type":"LineString","properties":{"source":"naturalearthdata.com","kind":"minor_road","sort_rank":355,"kind_detail":"tertiary","min_zoom":5.0,"id":38503},"arcs":[461]},{"type":"LineString","properties":{"source":"naturalearthdata.com","kind":"minor_road","sort_rank":355,"kind_detail":"tertiary","min_zoom":5.0,"id":38513},"arcs":[462]},{"type":"LineString","properties":{"source":"naturalearthdata.com","kind":"minor_road","sort_rank":355,"kind_detail":"tertiary","min_zoom":5.0,"id":38515},"arcs":[463]},{"type":"LineString","properties":{"source":"naturalearthdata.com","kind":"major_road","sort_rank":379,"kind_detail":"secondary","min_zoom":4.0,"id":38538},"arcs":[464]},{"type":"LineString","properties":{"source":"naturalearthdata.com","kind":"major_road","sort_rank":379,"kind_detail":"secondary","min_zoom":4.0,"id":38561},"arcs":[465]},{"type":"LineString","properties":{"source":"naturalearthdata.com","kind":"major_road","sort_rank":379,"kind_detail":"secondary","min_zoom":4.0,"id":38563},"arcs":[466]},{"type":"LineString","properties":{"source":"naturalearthdata.com","kind":"minor_road","sort_rank":355,"kind_detail":"tertiary","min_zoom":5.0,"id":38576},"arcs":[467]},{"type":"LineString","properties":{"source":"naturalearthdata.com","kind":"major_road","sort_rank":379,"kind_detail":"secondary","min_zoom":4.0,"id":38619},"arcs":[468]},{"type":"LineString","properties":{"source":"naturalearthdata.com","kind":"minor_road","sort_rank":355,"kind_detail":"tertiary","min_zoom":5.0,"id":38626},"arcs":[469]},{"type":"LineString","properties":{"source":"naturalearthdata.com","kind":"major_road","sort_rank":379,"kind_detail":"secondary","min_zoom":4.0,"id":38642},"arcs":[470]},{"type":"LineString","properties":{"source":"naturalearthdata.com","kind":"major_road","sort_rank":379,"kind_detail":"secondary","min_zoom":4.0,"id":38658},"arcs":[471]},{"type":"LineString","properties":{"source":"naturalearthdata.com","kind":"minor_road","sort_rank":355,"kind_detail":"tertiary","min_zoom":5.0,"id":38725},"arcs":[472]},{"type":"LineString","properties":{"source":"naturalearthdata.com","kind":"major_road","sort_rank":379,"kind_detail":"secondary","min_zoom":4.0,"id":38891},"arcs":[473]},{"type":"LineString","properties":{"source":"naturalearthdata.com","kind":"major_road","sort_rank":379,"kind_detail":"secondary","min_zoom":4.0,"id":38892},"arcs":[474]},{"type":"LineString","properties":{"source":"naturalearthdata.com","kind":"major_road","sort_rank":379,"kind_detail":"secondary","min_zoom":4.0,"id":38920},"arcs":[475]},{"type":"LineString","properties":{"source":"naturalearthdata.com","kind":"major_road","sort_rank":379,"kind_detail":"secondary","min_zoom":4.0,"id":39009},"arcs":[476]},{"type":"LineString","properties":{"source":"naturalearthdata.com","kind":"major_road","sort_rank":379,"kind_detail":"secondary","min_zoom":4.0,"id":39013},"arcs":[477]},{"type":"LineString","properties":{"source":"naturalearthdata.com","kind":"minor_road","kind_detail":"tertiary","sort_rank":355,"landuse_kind":"park","min_zoom":5.0,"id":39053},"arcs":[478]},{"type":"MultiLineString","properties":{"source":"naturalearthdata.com","kind":"minor_road","sort_rank":355,"kind_detail":"tertiary","min_zoom":5.0,"id":39053},"arcs":[[479],[480]]},{"type":"LineString","properties":{"source":"naturalearthdata.com","kind":"major_road","sort_rank":379,"kind_detail":"secondary","min_zoom":4.0,"id":39063},"arcs":[481]},{"type":"LineString","properties":{"source":"naturalearthdata.com","kind":"major_road","sort_rank":379,"kind_detail":"secondary","min_zoom":4.0,"id":39080},"arcs":[482]},{"type":"LineString","properties":{"source":"naturalearthdata.com","kind":"minor_road","sort_rank":355,"kind_detail":"tertiary","min_zoom":5.0,"id":39107},"arcs":[483]},{"type":"LineString","properties":{"source":"naturalearthdata.com","kind":"minor_road","sort_rank":355,"kind_detail":"tertiary","min_zoom":5.0,"id":39125},"arcs":[484]},{"type":"LineString","properties":{"source":"naturalearthdata.com","kind":"minor_road","sort_rank":355,"kind_detail":"tertiary","min_zoom":5.0,"id":39147},"arcs":[485]},{"type":"LineString","properties":{"source":"naturalearthdata.com","kind":"major_road","sort_rank":379,"kind_detail":"secondary","min_zoom":4.0,"id":39166},"arcs":[486]},{"type":"LineString","properties":{"source":"naturalearthdata.com","kind":"minor_road","sort_rank":355,"kind_detail":"tertiary","min_zoom":5.0,"id":39208},"arcs":[487]},{"type":"LineString","properties":{"source":"naturalearthdata.com","kind":"major_road","sort_rank":379,"kind_detail":"secondary","min_zoom":4.0,"id":39244},"arcs":[488]},{"type":"LineString","properties":{"source":"naturalearthdata.com","kind":"minor_road","sort_rank":355,"kind_detail":"tertiary","min_zoom":5.0,"id":39249},"arcs":[489]},{"type":"LineString","properties":{"source":"naturalearthdata.com","kind":"major_road","kind_detail":"secondary","sort_rank":379,"landuse_kind":"urban_area","min_zoom":4.0,"id":39265},"arcs":[490]},{"type":"LineString","properties":{"source":"naturalearthdata.com","kind":"major_road","sort_rank":379,"kind_detail":"secondary","min_zoom":4.0,"id":39265},"arcs":[491]},{"type":"LineString","properties":{"source":"naturalearthdata.com","kind":"minor_road","kind_detail":"tertiary","sort_rank":355,"landuse_kind":"urban_area","min_zoom":5.0,"id":39266},"arcs":[492]},{"type":"LineString","properties":{"source":"naturalearthdata.com","kind":"minor_road","sort_rank":355,"kind_detail":"tertiary","min_zoom":5.0,"id":39266},"arcs":[493]},{"type":"LineString","properties":{"source":"naturalearthdata.com","kind":"major_road","sort_rank":379,"kind_detail":"secondary","min_zoom":4.0,"id":39270},"arcs":[494]},{"type":"LineString","properties":{"source":"naturalearthdata.com","kind":"minor_road","sort_rank":355,"kind_detail":"tertiary","min_zoom":5.0,"id":39311},"arcs":[495]},{"type":"LineString","properties":{"source":"naturalearthdata.com","kind":"major_road","sort_rank":379,"kind_detail":"secondary","min_zoom":4.0,"id":39398},"arcs":[496]},{"type":"LineString","properties":{"source":"naturalearthdata.com","kind":"major_road","sort_rank":379,"kind_detail":"secondary","min_zoom":4.0,"id":39401},"arcs":[497]},{"type":"LineString","properties":{"source":"naturalearthdata.com","kind":"minor_road","sort_rank":355,"kind_detail":"tertiary","min_zoom":5.0,"id":39417},"arcs":[498]},{"type":"LineString","properties":{"source":"naturalearthdata.com","kind":"major_road","sort_rank":379,"kind_detail":"secondary","min_zoom":4.0,"id":39422},"arcs":[499]},{"type":"LineString","properties":{"source":"naturalearthdata.com","kind":"minor_road","kind_detail":"tertiary","sort_rank":355,"landuse_kind":"urban_area","min_zoom":5.0,"id":39438},"arcs":[500]},{"type":"LineString","properties":{"source":"naturalearthdata.com","kind":"minor_road","sort_rank":355,"kind_detail":"tertiary","min_zoom":5.0,"id":39438},"arcs":[501]},{"type":"LineString","properties":{"source":"naturalearthdata.com","kind":"minor_road","sort_rank":355,"kind_detail":"tertiary","min_zoom":5.0,"id":39442},"arcs":[502]},{"type":"LineString","properties":{"source":"naturalearthdata.com","kind":"minor_road","sort_rank":355,"kind_detail":"tertiary","min_zoom":5.0,"id":39452},"arcs":[503]},{"type":"LineString","properties":{"source":"naturalearthdata.com","kind":"major_road","sort_rank":379,"kind_detail":"secondary","min_zoom":4.0,"id":39463},"arcs":[504]},{"type":"LineString","properties":{"source":"naturalearthdata.com","kind":"major_road","sort_rank":379,"kind_detail":"secondary","min_zoom":3.0,"id":39464},"arcs":[505]},{"type":"LineString","properties":{"source":"naturalearthdata.com","kind":"major_road","sort_rank":379,"kind_detail":"secondary","min_zoom":3.0,"id":39505},"arcs":[506]},{"type":"LineString","properties":{"source":"naturalearthdata.com","kind":"minor_road","sort_rank":355,"kind_detail":"tertiary","min_zoom":5.0,"id":39508},"arcs":[507]},{"type":"LineString","properties":{"source":"naturalearthdata.com","kind":"minor_road","sort_rank":355,"kind_detail":"tertiary","min_zoom":5.0,"id":39543},"arcs":[508]},{"type":"LineString","properties":{"source":"naturalearthdata.com","kind":"major_road","sort_rank":379,"kind_detail":"secondary","min_zoom":3.0,"id":39560},"arcs":[509]},{"type":"LineString","properties":{"source":"naturalearthdata.com","kind":"major_road","sort_rank":379,"kind_detail":"secondary","min_zoom":3.0,"id":39564},"arcs":[510]},{"type":"LineString","properties":{"source":"naturalearthdata.com","kind":"major_road","sort_rank":379,"kind_detail":"secondary","min_zoom":3.0,"id":39565},"arcs":[511]},{"type":"LineString","properties":{"source":"naturalearthdata.com","kind":"major_road","sort_rank":379,"kind_detail":"secondary","min_zoom":3.0,"id":39579},"arcs":[512]},{"type":"LineString","properties":{"source":"naturalearthdata.com","kind":"major_road","kind_detail":"secondary","sort_rank":379,"landuse_kind":"park","min_zoom":4.0,"id":39629},"arcs":[513]},{"type":"MultiLineString","properties":{"source":"naturalearthdata.com","kind":"major_road","sort_rank":379,"kind_detail":"secondary","min_zoom":4.0,"id":39629},"arcs":[[514],[515]]},{"type":"LineString","properties":{"source":"naturalearthdata.com","kind":"major_road","kind_detail":"secondary","sort_rank":379,"landuse_kind":"urban_area","min_zoom":4.0,"id":39641},"arcs":[516]},{"type":"LineString","properties":{"source":"naturalearthdata.com","kind":"major_road","sort_rank":379,"kind_detail":"secondary","min_zoom":4.0,"id":39641},"arcs":[517]},{"type":"LineString","properties":{"source":"naturalearthdata.com","kind":"major_road","sort_rank":379,"kind_detail":"secondary","min_zoom":4.0,"id":39645},"arcs":[518]},{"type":"LineString","properties":{"source":"naturalearthdata.com","kind":"major_road","sort_rank":379,"kind_detail":"secondary","min_zoom":4.0,"id":39653},"arcs":[519]},{"type":"LineString","properties":{"source":"naturalearthdata.com","kind":"major_road","sort_rank":379,"kind_detail":"secondary","min_zoom":4.0,"id":39675},"arcs":[520]},{"type":"LineString","properties":{"source":"naturalearthdata.com","kind":"major_road","sort_rank":379,"kind_detail":"secondary","min_zoom":4.0,"id":39680},"arcs":[521]},{"type":"LineString","properties":{"source":"naturalearthdata.com","kind":"major_road","sort_rank":379,"kind_detail":"secondary","min_zoom":3.0,"id":39684},"arcs":[522]},{"type":"LineString","properties":{"source":"naturalearthdata.com","kind":"major_road","sort_rank":379,"kind_detail":"secondary","min_zoom":3.0,"id":39688},"arcs":[523]},{"type":"LineString","properties":{"source":"naturalearthdata.com","kind":"minor_road","sort_rank":355,"kind_detail":"tertiary","min_zoom":5.0,"id":39689},"arcs":[524]},{"type":"LineString","properties":{"source":"naturalearthdata.com","kind":"major_road","kind_detail":"secondary","sort_rank":379,"landuse_kind":"urban_area","min_zoom":4.0,"id":39699},"arcs":[525]},{"type":"LineString","properties":{"source":"naturalearthdata.com","kind":"major_road","sort_rank":379,"kind_detail":"secondary","min_zoom":4.0,"id":39699},"arcs":[526]},{"type":"LineString","properties":{"source":"naturalearthdata.com","kind":"minor_road","kind_detail":"tertiary","sort_rank":355,"landuse_kind":"urban_area","min_zoom":5.0,"id":39700},"arcs":[527]},{"type":"LineString","properties":{"source":"naturalearthdata.com","kind":"minor_road","sort_rank":355,"kind_detail":"tertiary","min_zoom":5.0,"id":39700},"arcs":[528]},{"type":"LineString","properties":{"source":"naturalearthdata.com","kind":"minor_road","kind_detail":"tertiary","sort_rank":355,"landuse_kind":"urban_area","min_zoom":5.0,"id":39702},"arcs":[529]},{"type":"LineString","properties":{"source":"naturalearthdata.com","kind":"minor_road","sort_rank":355,"kind_detail":"tertiary","min_zoom":5.0,"id":39702},"arcs":[530]},{"type":"LineString","properties":{"source":"naturalearthdata.com","kind":"major_road","sort_rank":379,"kind_detail":"secondary","min_zoom":3.0,"id":39706},"arcs":[531]},{"type":"LineString","properties":{"source":"naturalearthdata.com","kind":"minor_road","sort_rank":355,"kind_detail":"tertiary","min_zoom":5.0,"id":39710},"arcs":[532]},{"type":"LineString","properties":{"source":"naturalearthdata.com","kind":"major_road","kind_detail":"secondary","sort_rank":379,"landuse_kind":"urban_area","min_zoom":4.0,"id":39738},"arcs":[533]},{"type":"LineString","properties":{"source":"naturalearthdata.com","kind":"major_road","sort_rank":379,"kind_detail":"secondary","min_zoom":4.0,"id":39738},"arcs":[534]},{"type":"LineString","properties":{"source":"naturalearthdata.com","kind":"major_road","sort_rank":379,"kind_detail":"secondary","min_zoom":4.0,"id":39765},"arcs":[535]},{"type":"LineString","properties":{"source":"naturalearthdata.com","kind":"major_road","sort_rank":379,"kind_detail":"secondary","min_zoom":3.0,"id":39766},"arcs":[536]},{"type":"LineString","properties":{"source":"naturalearthdata.com","kind":"major_road","sort_rank":379,"kind_detail":"secondary","min_zoom":4.0,"id":39767},"arcs":[537]},{"type":"LineString","properties":{"source":"naturalearthdata.com","kind":"minor_road","sort_rank":355,"kind_detail":"tertiary","min_zoom":5.0,"id":39769},"arcs":[538]},{"type":"LineString","properties":{"source":"naturalearthdata.com","kind":"major_road","sort_rank":379,"kind_detail":"secondary","min_zoom":3.0,"id":39770},"arcs":[539]},{"type":"LineString","properties":{"source":"naturalearthdata.com","kind":"major_road","sort_rank":379,"kind_detail":"secondary","min_zoom":3.0,"id":39772},"arcs":[540]},{"type":"LineString","properties":{"source":"naturalearthdata.com","kind":"major_road","sort_rank":379,"kind_detail":"secondary","min_zoom":3.0,"id":39773},"arcs":[541]},{"type":"LineString","properties":{"source":"naturalearthdata.com","kind":"major_road","sort_rank":379,"kind_detail":"secondary","min_zoom":3.0,"id":39779},"arcs":[542]},{"type":"LineString","properties":{"source":"naturalearthdata.com","kind":"major_road","sort_rank":379,"kind_detail":"secondary","min_zoom":3.0,"id":39794},"arcs":[543]},{"type":"LineString","properties":{"source":"naturalearthdata.com","kind":"major_road","sort_rank":379,"kind_detail":"secondary","min_zoom":3.0,"id":39808},"arcs":[544]},{"type":"LineString","properties":{"source":"naturalearthdata.com","kind":"major_road","sort_rank":379,"kind_detail":"secondary","min_zoom":3.0,"id":39844},"arcs":[545]},{"type":"LineString","properties":{"source":"naturalearthdata.com","kind":"major_road","sort_rank":379,"kind_detail":"secondary","min_zoom":3.0,"id":39846},"arcs":[546]},{"type":"LineString","properties":{"source":"naturalearthdata.com","kind":"major_road","sort_rank":379,"kind_detail":"secondary","min_zoom":3.0,"id":39847},"arcs":[547]},{"type":"LineString","properties":{"source":"naturalearthdata.com","kind":"minor_road","sort_rank":355,"kind_detail":"tertiary","min_zoom":5.0,"id":39853},"arcs":[548]},{"type":"LineString","properties":{"source":"naturalearthdata.com","kind":"major_road","kind_detail":"secondary","sort_rank":379,"landuse_kind":"urban_area","min_zoom":3.0,"id":39883},"arcs":[549]},{"type":"LineString","properties":{"source":"naturalearthdata.com","kind":"major_road","sort_rank":379,"kind_detail":"secondary","min_zoom":3.0,"id":39883},"arcs":[550]},{"type":"LineString","properties":{"source":"naturalearthdata.com","kind":"major_road","kind_detail":"secondary","sort_rank":379,"landuse_kind":"urban_area","min_zoom":3.0,"id":39884},"arcs":[551]},{"type":"LineString","properties":{"source":"naturalearthdata.com","kind":"major_road","sort_rank":379,"kind_detail":"secondary","min_zoom":3.0,"id":39884},"arcs":[552]},{"type":"LineString","properties":{"source":"naturalearthdata.com","kind":"major_road","sort_rank":379,"kind_detail":"secondary","min_zoom":4.0,"id":39888},"arcs":[553]},{"type":"LineString","properties":{"source":"naturalearthdata.com","kind":"minor_road","sort_rank":355,"kind_detail":"tertiary","min_zoom":5.0,"id":39902},"arcs":[554]},{"type":"LineString","properties":{"source":"naturalearthdata.com","kind":"minor_road","sort_rank":355,"kind_detail":"tertiary","min_zoom":5.0,"id":39974},"arcs":[555]},{"type":"LineString","properties":{"source":"naturalearthdata.com","kind":"major_road","sort_rank":379,"kind_detail":"secondary","min_zoom":3.0,"id":39985},"arcs":[556]},{"type":"LineString","properties":{"source":"naturalearthdata.com","kind":"major_road","sort_rank":379,"kind_detail":"secondary","min_zoom":3.0,"id":39993},"arcs":[557]},{"type":"LineString","properties":{"source":"naturalearthdata.com","kind":"minor_road","sort_rank":355,"kind_detail":"tertiary","min_zoom":5.0,"id":39999},"arcs":[558]},{"type":"LineString","properties":{"source":"naturalearthdata.com","kind":"major_road","sort_rank":379,"kind_detail":"secondary","min_zoom":3.0,"id":40006},"arcs":[559]},{"type":"LineString","properties":{"source":"naturalearthdata.com","kind":"major_road","sort_rank":379,"kind_detail":"secondary","min_zoom":4.0,"id":40019},"arcs":[560]},{"type":"LineString","properties":{"source":"naturalearthdata.com","kind":"major_road","sort_rank":379,"kind_detail":"secondary","min_zoom":3.0,"id":40024},"arcs":[561]},{"type":"LineString","properties":{"source":"naturalearthdata.com","kind":"major_road","sort_rank":379,"kind_detail":"secondary","min_zoom":3.0,"id":40026},"arcs":[562]},{"type":"LineString","properties":{"source":"naturalearthdata.com","kind":"highway","kind_detail":"motorway","sort_rank":383,"landuse_kind":"urban_area","min_zoom":5.0,"id":40079},"arcs":[563]},{"type":"LineString","properties":{"source":"naturalearthdata.com","kind":"highway","sort_rank":383,"kind_detail":"motorway","min_zoom":5.0,"id":40079},"arcs":[564]},{"type":"LineString","properties":{"source":"naturalearthdata.com","kind":"major_road","kind_detail":"secondary","sort_rank":379,"landuse_kind":"urban_area","min_zoom":4.0,"id":40080},"arcs":[565]},{"type":"LineString","properties":{"source":"naturalearthdata.com","kind":"major_road","sort_rank":379,"kind_detail":"secondary","min_zoom":4.0,"id":40080},"arcs":[566]},{"type":"LineString","properties":{"source":"naturalearthdata.com","kind":"major_road","kind_detail":"secondary","sort_rank":379,"landuse_kind":"urban_area","min_zoom":3.0,"id":40091},"arcs":[567]},{"type":"LineString","properties":{"source":"naturalearthdata.com","kind":"major_road","sort_rank":379,"kind_detail":"secondary","min_zoom":3.0,"id":40092},"arcs":[568]},{"type":"LineString","properties":{"source":"naturalearthdata.com","kind":"major_road","sort_rank":379,"kind_detail":"secondary","min_zoom":3.0,"id":40093},"arcs":[569]},{"type":"MultiLineString","properties":{"source":"naturalearthdata.com","kind":"major_road","kind_detail":"secondary","sort_rank":379,"landuse_kind":"urban_area","min_zoom":3.0,"id":40123},"arcs":[[570],[571]]},{"type":"LineString","properties":{"source":"naturalearthdata.com","kind":"major_road","sort_rank":379,"kind_detail":"secondary","min_zoom":3.0,"id":40123},"arcs":[572]},{"type":"LineString","properties":{"source":"naturalearthdata.com","kind":"highway","kind_detail":"motorway","sort_rank":383,"landuse_kind":"urban_area","min_zoom":4.0,"id":40124},"arcs":[573]},{"type":"LineString","properties":{"source":"naturalearthdata.com","kind":"highway","sort_rank":383,"kind_detail":"motorway","min_zoom":4.0,"id":40124},"arcs":[574]},{"type":"LineString","properties":{"source":"naturalearthdata.com","kind":"major_road","kind_detail":"secondary","sort_rank":379,"landuse_kind":"urban_area","min_zoom":3.0,"id":40125},"arcs":[575]},{"type":"LineString","properties":{"source":"naturalearthdata.com","kind":"major_road","sort_rank":379,"kind_detail":"secondary","min_zoom":3.0,"id":40125},"arcs":[576]},{"type":"LineString","properties":{"source":"naturalearthdata.com","kind":"minor_road","sort_rank":355,"kind_detail":"tertiary","min_zoom":5.0,"id":40137},"arcs":[577]},{"type":"LineString","properties":{"source":"naturalearthdata.com","kind":"minor_road","sort_rank":355,"kind_detail":"tertiary","min_zoom":5.0,"id":40155},"arcs":[578]},{"type":"LineString","properties":{"source":"naturalearthdata.com","kind":"major_road","kind_detail":"secondary","sort_rank":379,"landuse_kind":"urban_area","min_zoom":3.0,"id":40184},"arcs":[579]},{"type":"LineString","properties":{"source":"naturalearthdata.com","kind":"major_road","sort_rank":379,"kind_detail":"secondary","min_zoom":3.0,"id":40184},"arcs":[580]},{"type":"LineString","properties":{"source":"naturalearthdata.com","kind":"major_road","kind_detail":"secondary","sort_rank":379,"landuse_kind":"urban_area","min_zoom":3.0,"id":40189},"arcs":[581]},{"type":"LineString","properties":{"source":"naturalearthdata.com","kind":"major_road","sort_rank":379,"kind_detail":"secondary","min_zoom":3.0,"id":40189},"arcs":[582]},{"type":"LineString","properties":{"source":"naturalearthdata.com","kind":"major_road","kind_detail":"secondary","sort_rank":379,"landuse_kind":"urban_area","min_zoom":3.0,"id":40194},"arcs":[583]},{"type":"LineString","properties":{"source":"naturalearthdata.com","kind":"major_road","sort_rank":379,"kind_detail":"secondary","min_zoom":3.0,"id":40201},"arcs":[584]},{"type":"LineString","properties":{"source":"naturalearthdata.com","kind":"major_road","kind_detail":"secondary","sort_rank":379,"landuse_kind":"urban_area","min_zoom":3.0,"id":40206},"arcs":[585]},{"type":"LineString","properties":{"source":"naturalearthdata.com","kind":"major_road","sort_rank":379,"kind_detail":"secondary","min_zoom":3.0,"id":40223},"arcs":[586]},{"type":"LineString","properties":{"source":"naturalearthdata.com","kind":"major_road","sort_rank":379,"kind_detail":"secondary","min_zoom":3.0,"id":40233},"arcs":[587]},{"type":"MultiLineString","properties":{"source":"naturalearthdata.com","kind":"major_road","kind_detail":"secondary","sort_rank":379,"landuse_kind":"urban_area","min_zoom":3.0,"id":40244},"arcs":[[588],[589]]},{"type":"MultiLineString","properties":{"source":"naturalearthdata.com","kind":"major_road","sort_rank":379,"kind_detail":"secondary","min_zoom":3.0,"id":40244},"arcs":[[590],[591]]},{"type":"LineString","properties":{"source":"naturalearthdata.com","kind":"major_road","sort_rank":379,"kind_detail":"secondary","min_zoom":3.0,"id":40258},"arcs":[592]},{"type":"LineString","properties":{"source":"naturalearthdata.com","kind":"major_road","sort_rank":379,"kind_detail":"secondary","min_zoom":3.0,"id":40281},"arcs":[593]},{"type":"LineString","properties":{"source":"naturalearthdata.com","kind":"major_road","sort_rank":379,"kind_detail":"secondary","min_zoom":3.0,"id":40291},"arcs":[594]},{"type":"LineString","properties":{"source":"naturalearthdata.com","kind":"minor_road","sort_rank":355,"kind_detail":"tertiary","min_zoom":5.0,"id":40313},"arcs":[595]},{"type":"LineString","properties":{"source":"naturalearthdata.com","kind":"major_road","kind_detail":"secondary","sort_rank":379,"landuse_kind":"urban_area","min_zoom":3.0,"id":40332},"arcs":[596]},{"type":"LineString","properties":{"source":"naturalearthdata.com","kind":"major_road","sort_rank":379,"kind_detail":"secondary","min_zoom":3.0,"id":40332},"arcs":[597]},{"type":"LineString","properties":{"source":"naturalearthdata.com","kind":"major_road","kind_detail":"secondary","sort_rank":379,"landuse_kind":"urban_area","min_zoom":3.0,"id":40361},"arcs":[598]},{"type":"LineString","properties":{"source":"naturalearthdata.com","kind":"major_road","sort_rank":379,"kind_detail":"secondary","min_zoom":3.0,"id":40361},"arcs":[599]},{"type":"LineString","properties":{"source":"naturalearthdata.com","kind":"major_road","sort_rank":379,"kind_detail":"secondary","min_zoom":3.0,"id":40367},"arcs":[600]}]},"earth":{"type":"GeometryCollection","geometries":[{"type":"MultiPolygon","properties":{"sort_rank":10,"source":"naturalearthdata.com","min_zoom":0.0,"kind":"earth","area":3264381532965},"arcs":[[[601]]]}]},"landuse":{"type":"GeometryCollection","geometries":[{"type":"Polygon","properties":{"kind":"park","name":"Parc National de Ta\u00ef","area":4708369920,"sort_rank":24,"source":"openstreetmap.org","min_zoom":4.0,"tier":2,"id":-3588120,"osm_relation":true},"arcs":[[602]]},{"type":"MultiPolygon","properties":{"source":"openstreetmap.org","kind":"park","tier":2,"area":3653351545,"sort_rank":24,"min_zoom":4.0},"arcs":[[[603]],[[604]]]},{"type":"Polygon","properties":{"kind":"park","name":"Parc National de la Marahou\u00e9","area":1291449984,"sort_rank":24,"source":"openstreetmap.org","min_zoom":4.0,"tier":2,"id":267307530},"arcs":[[605]]},{"type":"MultiPolygon","properties":{"source":"naturalearthdata.com","kind":"urban_area","name":"","area":2893715159,"sort_rank":11,"min_zoom":4.0},"arcs":[[[606]],[[607]],[[608]],[[609]],[[610]],[[611]]]},{"type":"Polygon","properties":{"kind":"nature_reserve","name":"Ranch de Gibier et F\u00f4ret de Nazinga","area":1014280000,"sort_rank":23,"source":"openstreetmap.org","min_zoom":4.0,"tier":2,"id":-6454469,"osm_relation":true,"protect_class":"6"},"arcs":[[612]]},{"type":"Polygon","properties":{"kind":"park","name":"Mole National Park","area":5077329920,"sort_rank":24,"source":"openstreetmap.org","min_zoom":4.0,"tier":2,"id":164698067},"arcs":[[613]]},{"type":"Polygon","properties":{"kind":"park","name":"Boin National Park","area":1085270016,"sort_rank":24,"source":"openstreetmap.org","min_zoom":4.0,"tier":2,"id":115113482},"arcs":[[614]]},{"type":"Polygon","properties":{"kind":"park","name":"Krokosua Hills Forest Reserve","area":1086009984,"sort_rank":24,"source":"openstreetmap.org","min_zoom":4.0,"tier":2,"id":170277389},"arcs":[[615]]},{"type":"Polygon","properties":{"kind":"park","name":"Parc National de la Como\u00e9","area":12389900288,"sort_rank":24,"source":"openstreetmap.org","min_zoom":4.0,"tier":2,"id":38841153},"arcs":[[616]]},{"type":"Polygon","properties":{"kind":"park","name":"R\u00e9serve Naturelle de Kankan","area":5558280192,"sort_rank":24,"source":"openstreetmap.org","min_zoom":4.0,"tier":2,"id":-3403892,"osm_relation":true},"arcs":[[617]]},{"type":"Polygon","properties":{"kind":"park","name":"Digya National Park","area":2716440064,"sort_rank":24,"source":"openstreetmap.org","min_zoom":4.0,"tier":2,"id":170259846},"arcs":[[618]]}]}},"type":"Topology","transform":{"translate":[-11.25,-0.0],"scale":[0.002746582,0.002729102]},"arcs":[[[3117,3477],[5,-6],[0,-6],[-1,-11],[0,-3],[2,-6],[0,-10],[-2,-6],[-4,-3],[-5,-2],[-4,-5],[-1,-7],[3,-6],[6,-4],[6,-1],[6,-3],[-1,-7],[-4,-7],[-12,-6],[-4,-7],[-6,-13],[-8,-8],[-2,-3],[0,-18],[-2,-6],[-3,-5],[3,-2],[3,-3],[2,-2],[6,0],[9,-1],[9,-2],[9,-5],[3,-6],[0,-7],[6,-17],[2,-2],[2,0],[2,-1],[1,-3],[1,-7],[7,-25],[0,-5],[-4,-2],[-3,-3],[-1,-4],[2,-3]],[[3148,3219],[2,-6],[17,-102],[16,-103],[-2,-6],[-16,-9],[-5,-2]],[[3145,3218],[3,1]],[[3160,2991],[-5,1],[-4,2],[-3,0]],[[3148,2994],[-3,-2],[-2,-5],[-2,-6],[1,-5],[5,-10],[2,-9],[0,-6],[-3,-5],[-8,-4],[-22,-7],[-6,-5],[-17,-19],[-6,-5]],[[3087,2906],[0,1],[-2,2],[-3,2]],[[3082,2911],[-2,0],[-1,-3],[-2,-27],[-1,-5],[-3,-3],[-8,-5],[-3,-2],[0,-2],[1,-5],[0,-2],[-2,-2],[-3,-5],[-2,-2],[-26,-57],[-5,-15],[-18,-112],[1,-4],[2,-5],[2,-3],[2,-3],[0,-5],[-4,-7],[-16,-21],[-2,-4],[-3,-18],[-2,-3],[-18,-6],[-1,0],[-4,-3],[-42,-72],[-6,-14],[-1,-14],[2,-3],[4,-6],[5,-10],[1,-2],[-7,-20],[-2,-3],[-7,-3],[-2,-4],[-1,-6],[29,-130],[4,-5],[1,-1],[11,-10],[8,-21],[11,-61],[5,-13],[14,-26],[5,-13],[0,-13],[-3,-42]],[[3017,2092],[-4,-23],[2,-9],[8,-5]],[[2993,2090],[24,2]],[[3048,2065],[26,-6],[5,-4],[3,-5],[1,-6],[1,-19],[6,-26],[10,-24],[2,-6],[-1,-7],[-4,-4],[-4,-1]],[[3023,2055],[8,1],[11,7],[6,2]],[[3093,1957],[-13,2]],[[3080,1959],[-2,-22],[1,-6],[5,-7],[2,-4],[0,-3],[-2,-8],[0,-3],[1,-2],[5,-4],[2,-2],[-3,-7],[-5,-4],[-9,-1]],[[3075,1886],[-14,1]],[[4096,4068],[-23,4],[-19,4],[-18,4]],[[4036,4080],[-50,10]],[[3986,4090],[-1,-6],[2,-3],[0,-3],[-2,-6],[-5,-4],[-18,-13]],[[3962,4055],[-7,7],[-7,6]],[[3948,4068],[-7,0],[-7,-9],[-1,-5],[-1,-9],[-2,-4],[-5,-3],[-9,-5],[-4,-4],[0,-1],[-2,-1],[-1,0],[-1,-1]],[[3693,4029],[-44,0],[-46,0],[-10,2],[-12,5],[-3,1],[-5,2],[-46,1]],[[3527,4040],[-6,-2],[-3,-6],[-4,-2],[-57,-1],[-79,-1],[-82,-1],[-88,0],[-71,-1],[-35,0],[-8,-1]],[[3767,4023],[-2,1],[-3,5],[-2,2],[-4,1],[-50,4]],[[3706,4036],[-10,-2],[-3,-5]],[[3845,4024],[-2,0],[0,4],[-3,0],[-41,1],[-2,3],[-2,1]],[[3795,4033],[-3,-1],[-2,-3],[-7,-1],[-9,-9],[-6,-1]],[[3094,4025],[0,4],[-31,1]],[[3063,4030],[0,-2],[-1,-3],[3,-7],[4,-6],[2,-7],[-2,-9],[-5,-5],[-6,-5],[-5,-5],[-3,-8],[-4,-17],[-6,-10],[-1,-8],[-2,-3],[-4,-4],[-1,-3],[1,-3],[0,-2]],[[3908,4026],[-14,1]],[[3894,4027],[-8,-1],[-5,-2],[-3,-6],[-3,-9],[-4,-8],[-6,-4]],[[3865,3997],[-18,17],[2,2],[2,3],[2,3],[-2,3],[-4,0]],[[3847,4025],[-2,-1]],[[3768,4018],[3,5]],[[3771,4023],[-4,0]],[[3034,3923],[2,0],[1,-1],[1,-2],[0,-2],[-1,-2],[-1,-1],[-2,-6],[-5,-9],[-1,-3],[2,-7],[11,-20],[1,-3],[0,-8],[1,-4],[2,-2],[5,-5],[1,-1],[1,-8],[3,-4],[13,-11],[4,-3],[6,-1],[9,0],[1,-1],[-1,-4],[-4,-3],[-4,-2],[-4,0],[-4,-2],[-3,-2],[-2,-3],[-3,-6],[-1,-7],[0,-8],[2,-6],[4,-1],[3,0],[3,-1],[2,-3],[1,-4],[2,-1]],[[3033,3923],[1,0]],[[3082,3766],[4,-1],[3,-2],[3,-1],[1,-2],[0,-5],[-1,-5],[-3,-3],[-7,-6],[-5,-7],[0,-8],[4,-16],[0,-32],[2,-7],[8,-12],[2,-7],[0,-9],[-4,-17],[2,-9],[9,-14],[1,-4],[-3,-3],[-12,-14],[-6,-13],[-2,-7],[3,-8],[3,-3],[2,-1]],[[3079,3766],[3,0]],[[3088,3551],[3,-2],[2,-3],[0,-3],[1,-4],[3,-2],[1,-1],[-4,-4],[-3,-5],[-2,-6],[-1,-6],[1,-6],[2,-4],[13,-12],[13,-16]],[[3086,3550],[2,1]],[[0,3662],[1,0],[12,-4],[5,0],[4,-4],[3,-8],[5,-24],[3,-4],[27,-17],[15,-15],[12,-16],[9,-17],[4,-12],[2,-3],[3,-2],[5,-2],[3,-2],[1,-3],[3,-9],[3,-4],[9,-6],[3,-4],[2,-3],[2,-10],[2,-3],[4,-2],[3,-3],[-1,-5],[-2,-9],[2,-6],[4,-6],[5,-6],[6,-4],[1,-2],[-4,-2],[-4,-4],[5,-1],[6,0]],[[166,3440],[3,0]],[[163,3440],[3,0]],[[173,3440],[3,-1],[5,-7],[4,-3],[5,-4],[4,-1],[15,-14],[1,-4],[-2,-5],[-2,-4],[-1,-4],[0,-3],[1,-7],[0,-3],[-3,-4],[-4,-3],[-4,-1],[-4,-3],[-6,-11],[-4,-16],[2,-14],[13,-3]],[[169,3440],[4,0]],[[212,3325],[14,-1],[8,-3],[5,-3],[0,-3],[1,-2],[0,-1],[-6,-22],[-2,-12],[1,-27],[1,-4],[3,-10],[0,-2],[0,-4],[0,-1],[1,-1],[3,-2],[1,-1],[15,-20],[5,-4],[2,-3],[16,-21],[-3,-8],[-5,-7],[-7,-5],[-8,-1],[-8,-1],[-7,-6],[-6,-8],[-5,-10],[-6,-6],[-2,-4],[-1,-5],[0,-4],[-1,-3],[-4,-1],[-5,-31],[-6,-9],[-6,-8],[-9,-12],[-4,-12],[8,-7]],[[196,3325],[16,0]],[[330,3114],[2,0],[10,-3],[3,-2],[3,-1]],[[247,3043],[6,3],[13,8],[22,21],[4,6],[9,18],[3,5],[5,4],[4,3],[6,2],[11,1]],[[348,3108],[4,1]],[[215,3053],[12,0],[5,-2],[11,-7],[4,-1]],[[195,3030],[2,12],[8,8],[10,3]],[[0,2653],[12,5],[3,3],[24,30],[6,9],[54,43],[15,8],[14,3],[5,2],[4,3],[4,5],[48,59],[14,12],[17,10],[3,0],[8,2],[-1,88],[1,5],[1,3],[4,3],[9,5],[4,4],[8,15],[5,7],[9,4],[7,1],[30,0],[7,1],[7,3],[7,4],[9,8],[1,7],[-3,8],[-2,10],[0,8],[7,14],[11,45],[0,19]],[[1130,3615],[-2,0],[-1,3],[1,2],[2,0],[0,1],[0,2],[-1,7],[-1,2],[-3,0],[-2,0],[-1,1],[-1,3],[-1,4],[0,3],[8,3],[4,3],[2,4],[-5,2],[-3,4],[3,9],[8,10],[7,6],[18,7],[9,5],[7,9],[1,5],[2,5],[2,4],[4,5]],[[1180,3438],[-8,1],[-8,1],[-6,3],[-6,7],[-22,30],[-2,6],[-2,6],[-1,9],[-1,8],[1,3],[13,95],[-1,8]],[[1137,3615],[-7,0]],[[1227,3358],[-18,7],[0,14],[13,31],[1,9],[9,29],[-2,3],[-15,0]],[[1215,3451],[-7,-1],[-14,-8],[-8,-3],[-6,-1]],[[1245,3205],[-22,7],[-8,1],[-17,5],[-3,11],[6,32],[2,18],[2,9],[3,8],[0,1],[6,5],[32,17],[7,1],[7,0],[9,1],[6,4],[0,1],[-4,5],[-15,9],[-8,6],[-4,4],[-5,10],[-3,0]],[[1236,3360],[-4,-1],[-5,-1]],[[1285,3066],[21,3],[-7,15],[-3,8],[1,9],[3,9],[0,6],[-4,16],[-1,7],[1,14],[-2,7],[-3,3],[-10,7],[-3,4],[-9,16],[-3,3],[-7,6],[-1,2],[-3,5],[-3,1],[-2,0]],[[1250,3207],[-4,-1],[-1,-1]],[[1155,3116],[3,-1],[4,-4],[3,-1],[3,0]],[[1128,3110],[8,0],[12,5],[7,1]],[[1194,3113],[5,0],[5,-4],[2,-5],[2,-5],[3,-5],[4,-4],[5,-2],[6,-2],[6,0]],[[1178,3110],[10,3],[6,0]],[[1115,3112],[13,-2]],[[1152,2991],[-35,11],[-31,20],[1,3],[6,7],[1,4],[-1,7],[0,7],[5,20],[-1,8],[-2,5],[-2,4],[-2,4],[0,4],[2,3],[17,14],[5,0]],[[1174,3110],[4,0]],[[1168,3110],[6,0]],[[1247,3106],[8,-10],[12,-23],[8,-5],[10,-2]],[[1232,3086],[6,2],[1,6],[-1,6],[1,5],[8,1]],[[1197,2937],[-1,4],[-1,4],[-5,8],[-6,7],[-6,4],[-2,5],[-1,6],[3,11],[2,4],[2,5],[0,4]],[[1182,2999],[-4,0],[-22,-8],[-4,0]],[[1179,2944],[3,-1],[4,-3],[4,-3],[7,0]],[[1164,2942],[15,2]],[[1158,2942],[6,0]],[[1100,2764],[10,12],[1,3],[-2,6],[1,2],[1,5],[8,9],[1,1],[4,3],[2,1],[0,2],[-1,3],[0,2],[12,13],[2,6],[1,12],[1,6],[2,2],[2,1],[3,2],[0,4],[-2,4],[-8,7],[-2,4],[0,14],[18,28],[4,14],[1,9],[-1,3]],[[1032,2790],[9,-10]],[[1007,2769],[16,16],[9,5]],[[1061,2784],[12,-3],[14,-11],[13,-6]],[[1041,2780],[7,0],[13,4]],[[2962,1872],[-2,-6]],[[4058,4063],[-6,1],[-8,4],[-6,6],[-2,6]],[[4096,3882],[-4,1],[-3,3],[-3,2],[-2,2],[-9,1],[-4,1],[-4,2],[-3,2],[-4,8],[0,8],[3,9],[1,5],[2,15],[3,7],[5,6],[7,5],[3,3],[1,4],[-2,7],[0,4],[8,37],[2,3],[2,3],[1,0]],[[4096,4062],[-12,5]],[[4084,4067],[-7,0],[-12,-4],[-7,0]],[[2142,3773],[-7,0],[-6,1],[-5,3],[-4,3],[-1,3],[-1,3],[-2,3],[-2,1],[-3,0],[-3,1],[-5,2],[0,6],[-5,9],[-6,8],[-7,4]],[[2191,3780],[-17,2],[-6,1]],[[2168,3783],[-3,-2],[-2,-3],[-2,-2],[-5,-1],[-4,0]],[[2214,3771],[-18,10]],[[2196,3781],[-5,-1]],[[2152,3775],[-2,0],[-1,1],[-2,1]],[[2147,3777],[-1,-1],[-2,-2],[-2,-1]],[[2237,3740],[-4,0],[0,2],[1,2],[1,2],[0,20],[-3,6],[-6,4],[-6,0]],[[2220,3776],[-3,-5],[-3,0]],[[2243,3729],[0,4],[3,7],[-1,8]],[[2245,3748],[-1,-3],[-2,-2],[-2,-2],[-3,-1]],[[2262,3695],[-4,0],[-3,5],[5,2],[-2,1],[-3,1],[-2,1],[-3,0],[3,3],[9,3],[-1,2],[-9,6],[-2,4],[2,7]],[[2252,3730],[-9,-1]],[[2302,3617],[-3,1],[-11,10],[-1,4],[6,15],[-1,2],[-4,9],[-4,5],[-2,4],[8,0],[1,5],[-2,7],[-4,6],[-5,2],[-4,3],[-4,3],[-2,7]],[[2270,3700],[-4,-3],[-4,-2]],[[2783,3634],[-6,2],[-4,2],[-2,3],[-3,3],[-5,1]],[[2763,3645],[-1,0],[-4,-5],[-2,-1]],[[2756,3639],[-2,1],[-5,3],[-2,0]],[[2747,3643],[-18,-2],[-5,-2],[-4,-2],[-6,-7],[-3,-2],[-7,-2],[-24,0],[-1,-1],[-7,-2],[-13,-8],[-8,-2],[-6,-3],[-1,-6],[-2,-5],[-12,-1],[-3,-1],[-6,-2],[0,-1],[0,-2],[-1,-2],[-2,0]],[[2877,3623],[-4,2],[-6,6],[-5,1],[-57,5]],[[2805,3637],[-22,-3]],[[2982,3561],[-6,0],[-7,6],[-3,8],[-5,18],[-7,9],[-9,2],[-8,0],[-6,4],[-2,7],[1,9],[0,7],[-4,2]],[[2926,3633],[-6,-4],[-12,-17],[-5,-5],[-9,-1]],[[2894,3606],[-4,5],[0,7],[0,8],[-2,2]],[[2888,3628],[-4,-1],[-4,-3],[-3,-1]],[[2342,3604],[-2,8],[-6,4],[-7,3],[-8,0],[-3,1],[-2,2],[-1,2],[-4,0]],[[2309,3624],[-3,-1],[-2,-4],[-2,-2]],[[2348,3584],[3,0],[6,3],[-3,6],[-2,8],[-3,6]],[[2349,3607],[-7,-3]],[[2618,3590],[-2,0],[-4,2],[-21,6]],[[2591,3598],[-6,0],[-7,-5],[-10,-15],[-7,-4],[-14,-1],[-6,-3],[-5,-4],[2,0],[4,-2],[-11,-11],[-2,-4],[0,-3],[1,-8],[-1,-5],[-4,-9],[-3,-3]],[[2345,3584],[3,0]],[[2350,3574],[-1,3],[-1,2],[-3,3],[0,2]],[[2359,3568],[-5,8]],[[2354,3576],[-4,-2]],[[2392,3548],[-1,0],[1,1],[-2,3],[-5,2],[-2,1],[-1,3],[-1,4],[-1,2],[-4,4],[-2,2],[-1,2],[-2,2],[-4,0]],[[2367,3574],[-4,0],[-1,-1],[1,-2],[2,-2],[-6,-1]],[[2469,3537],[-12,1],[-5,7],[1,7],[3,10],[1,6],[-1,2],[-2,1],[-3,0]],[[2451,3571],[-6,0],[-2,0],[0,-2],[-1,-2],[-2,-5],[0,-5],[-1,-4],[-6,-1]],[[3090,3441],[-9,1],[-8,6],[-37,49],[-18,35],[-6,17],[-5,8],[-5,6],[-7,2]],[[2995,3565],[-13,-4]],[[2433,3552],[-4,1],[-5,8],[-4,3]],[[2420,3564],[-5,-5],[-4,-2],[-5,-1]],[[2406,3556],[-5,1]],[[2401,3557],[0,-1],[-1,-3],[-2,-2],[-3,-2],[-3,-1]],[[2505,3511],[-5,3],[-3,4],[-3,12],[-3,5],[-9,2]],[[2482,3537],[-13,0]],[[2522,3521],[-10,4],[-5,1]],[[2507,3526],[-1,-5],[0,-6],[-1,-4]],[[3117,3477],[-11,-11],[-9,-19],[-7,-6]],[[2093,4020],[2,9],[-4,19],[0,3],[1,6],[5,4],[37,4],[6,2],[6,3],[8,5],[4,5],[2,15],[1,1]],[[2085,3820],[2,5],[3,19],[2,3],[8,13],[5,20],[-1,3],[-3,3],[1,5],[2,6],[4,3],[-6,3],[0,3],[-2,6],[0,3],[3,20],[2,5],[3,3],[3,1],[2,2],[1,3],[-1,4],[5,21],[-1,4],[-4,8],[-7,26],[-5,10]],[[2101,4022],[-8,-2]],[[1007,2769],[15,-7],[6,-13],[8,-26],[4,-36],[2,-7],[3,-4],[6,-9],[2,-5],[3,-11],[2,-3],[4,-5],[2,-3],[0,-3],[-1,-4],[0,-3],[2,-2],[5,-5],[2,-4],[1,-4],[1,-9],[6,-35],[-1,-8],[-3,-4],[-7,-6],[-2,-3],[-1,-6],[1,-6],[-1,-6],[-4,-10],[2,-3],[3,-2],[1,-2],[1,-5],[-1,-5],[-3,-11],[-5,-11],[-5,-8],[-33,-36],[-7,-8],[-26,-21],[-5,-6]],[[984,2404],[-1,0]],[[983,2404],[-6,-4],[-1,-5],[-1,-2],[-2,-1],[-4,-1],[-2,-1],[-9,-11],[6,0],[4,-1]],[[976,2378],[5,-1],[4,-4],[11,-14],[6,-2]],[[968,2378],[8,0]],[[1013,2377],[2,-2],[5,-5],[11,-6],[5,-6],[-1,-2],[-2,-2],[-2,-6],[0,-4],[4,-6],[0,-3],[-1,-3],[-4,-2],[-1,-2],[4,-5]],[[1002,2357],[5,3],[3,7],[1,7],[2,3]],[[1055,2331],[4,-2],[3,-4],[4,-3]],[[1050,2327],[5,4]],[[1042,2329],[4,0],[4,-2]],[[1033,2323],[4,4],[5,2]],[[1070,2325],[3,-2],[2,-3],[0,-3],[0,-2],[1,-2],[3,-1],[28,-6],[5,-2],[4,-2],[2,-2],[3,-1]],[[1066,2322],[2,0],[1,2],[1,1]],[[1171,2309],[7,-1],[6,-4],[23,-6],[2,0]],[[1121,2299],[6,0],[5,1],[8,5],[4,2],[17,2],[10,0]],[[1212,2299],[2,-1],[1,-1],[1,-4],[1,-2],[16,-13],[6,-7],[1,-5],[-5,-14],[-1,-8],[-1,-8],[1,-8],[4,-5]],[[1209,2298],[2,0],[1,1]],[[1246,2228],[3,0],[4,-3],[1,-4],[1,-8],[1,-1],[2,-1],[2,-1],[1,-2],[-1,-2],[-3,-2],[-1,-2],[0,-10],[0,-3],[5,-6],[14,-7],[5,-5],[6,-9]],[[1238,2223],[0,2],[3,2],[5,1]],[[1300,2177],[2,-2],[4,-5],[5,-4],[7,-1],[0,-1],[8,-4],[1,-1],[8,-3],[2,-2],[-3,-4],[2,-3],[5,-6],[3,-1]],[[1286,2162],[5,3],[5,7],[4,5]],[[1373,2147],[12,-5],[1,-13],[-2,-15],[0,-14],[6,-28],[5,-10],[8,-16],[5,-5]],[[1367,2128],[3,2],[2,6],[1,11]],[[1355,2147],[-1,-6],[6,-1],[2,-5],[2,-5],[3,-2]],[[1344,2140],[4,2],[5,4],[2,1]],[[1408,2041],[-8,1]],[[1400,2042],[-3,-5],[2,-7],[5,-6],[-7,0]],[[1397,2024],[-3,0]],[[1394,2024],[4,-4],[1,0],[-2,-3],[-4,-4],[-3,-5],[0,-14],[-1,-4]],[[1389,1990],[-6,3]],[[1383,1993],[1,-6],[1,-7],[3,-6],[3,-5],[5,-3]],[[1400,1967],[3,-1],[2,-6],[1,-8],[-1,-4],[-2,-3],[-4,-7],[-1,-2],[-1,-6],[-2,-2],[-4,-2]],[[1396,1966],[4,1]],[[1391,1926],[0,1],[-1,3],[-1,3],[0,1],[2,2],[0,2],[-4,0]],[[1387,1938],[-1,-1],[-9,-5],[-3,-3],[-1,-3],[-4,-12],[3,-18],[0,-6],[-3,-6],[-9,-18]],[[1360,1866],[-6,2],[-6,0]],[[1348,1868],[-6,-3],[-4,-6],[-1,-7],[3,-21]],[[1340,1831],[-1,-8],[3,-5],[3,-5],[2,-7],[0,-5]],[[1340,1831]],[[1347,1801],[-1,0],[-3,2],[-5,0]],[[1338,1803],[-11,-8],[0,-4],[2,-11],[0,-4],[-2,-8],[0,-3],[2,-4],[2,-3],[3,-2],[2,-3],[1,-3],[2,-19],[-2,-79],[1,-3],[1,-3],[1,-4],[-1,-9],[2,-8],[1,-3],[-1,-4],[-4,-7],[-1,-3],[2,-5],[13,-8]],[[556,3091],[-5,5],[-4,7],[-1,6],[-3,18],[-2,6],[-3,5],[-7,1]],[[531,3139],[1,-5],[-2,-3],[-3,-3],[-2,-3],[0,-3],[1,-3],[-1,-2],[-9,-3],[-6,-3],[-3,-1]],[[433,3086],[-5,2],[-2,5],[4,17],[-3,5],[-5,3],[-21,5],[-6,1]],[[395,3124],[-6,-2],[-12,-12],[-7,-4]],[[507,3110],[-2,2],[-2,2],[-2,1]],[[501,3115],[-5,-2],[-2,0],[-7,0],[-6,-1],[-6,-2],[-6,-3],[-14,-11],[-15,-9],[-7,-1]],[[370,3106],[-2,6]],[[368,3112],[-8,-3],[-4,0]],[[576,3074],[-3,1],[0,6],[4,5],[4,3],[3,5],[-2,8],[-4,4],[-8,4],[-7,0]],[[563,3110],[-4,-5],[-1,-8],[0,-5],[-2,-1]],[[356,3109],[-4,0]],[[647,2942],[0,4],[4,7],[1,4],[-7,26],[0,4],[-1,5],[-4,2],[-9,1],[-5,4],[0,10],[2,11],[3,5],[2,2],[1,2],[-1,1],[-2,2],[-2,4],[-1,4],[-2,3],[-3,4],[4,4],[2,2],[2,1],[2,1],[4,2],[-1,1],[-3,3],[-6,5],[-19,7],[-4,7],[-3,2]],[[601,3082],[-3,-3],[-2,-2],[-2,-2],[-3,0]],[[591,3075],[-3,0]],[[588,3075],[-7,0],[-5,-1]],[[642,2702],[-1,1],[4,3],[2,4],[1,4],[0,5],[1,5],[4,3],[7,6],[9,12],[3,8],[-2,5],[7,8],[3,4],[1,10],[2,5],[4,5],[3,3],[-7,9],[-1,12],[4,13],[4,10],[-10,12],[-3,6],[-9,12],[-9,15],[-3,16],[1,15],[5,16],[0,1],[3,3],[0,4],[0,4],[-2,4],[-4,5],[-4,0]],[[655,2950],[-4,-3],[-4,-5]],[[1007,2769],[-11,7],[-12,9],[-7,8],[-2,10],[2,14],[-44,2]],[[933,2819],[-3,-7],[-9,-12],[-3,-7],[-1,-13],[0,-2],[-2,-4],[-1,-2],[1,-2],[1,-1],[2,0],[1,-2],[0,-8],[-1,-8],[-4,-6],[-6,-7],[-10,-6],[-2,-2],[-2,-3],[0,-8],[-2,-3],[-3,-3],[-6,-2],[-3,-2],[-7,-8],[-3,-5],[-2,-4],[1,-6],[3,-7],[1,-7],[-2,-7],[-4,-2],[-16,-6],[-5,-1]],[[716,2702],[-6,1],[-2,2],[-3,8],[-2,3],[-3,2],[-3,1],[-5,0]],[[692,2719],[-6,0],[-3,0],[-2,-2],[-1,-4],[-2,-1],[-2,-1],[-5,-8]],[[671,2703],[-4,4],[-7,12]],[[660,2719],[-4,-6],[-11,-10],[-3,-1]],[[755,2666],[-2,0],[-9,8],[-5,23],[-5,8],[-6,0]],[[728,2705],[-12,-3]],[[846,2656],[-7,11],[-4,3]],[[835,2670],[-2,-9]],[[774,2635],[3,12],[-1,5],[-7,4],[-3,2],[0,6],[-3,2]],[[763,2666],[-8,0]],[[833,2661],[-4,2]],[[829,2663],[-2,-1],[-1,-5],[-2,0],[-8,-3],[-3,-2]],[[813,2652],[-6,1]],[[807,2653],[-5,-3],[-4,-4],[-5,-4],[-5,-1],[-5,-1],[-2,-1],[-3,-1],[-4,-3]],[[1818,3852],[-2,1],[0,5],[2,3],[7,5],[2,3],[1,5],[-1,4],[-2,5],[2,4],[4,1],[4,3],[2,4],[-1,3],[-4,3],[-3,2],[-7,2],[-1,3],[1,15],[0,5],[-4,2]],[[1818,3930],[-8,-1],[-9,-3],[-7,-5],[-7,-3]],[[1787,3918],[-9,0],[-8,1]],[[1770,3919],[-8,0],[-6,-3],[-3,-7],[0,-14],[2,-5],[4,-3],[4,-2],[3,-4],[-1,-8],[-7,-5],[-9,-1]],[[1749,3867],[-8,0],[-19,4],[-6,2],[-15,8],[-7,5],[-6,5],[-7,12],[-5,4]],[[1676,3907],[-8,-3],[0,-1],[-5,-9],[-1,0],[-1,-7],[-1,-7],[1,-3],[1,-2],[1,-3],[-2,-17],[-4,-12],[1,-6],[5,-7],[2,-2],[4,-1],[4,-2],[3,-2],[0,-4],[-2,-3],[-3,-3],[-1,-3],[-2,-12],[0,-2],[-3,-4],[-9,-3]],[[1833,3845],[-3,0],[-2,3],[-2,2],[-1,2],[-4,0]],[[1821,3852],[-3,0]],[[1833,3777],[3,1],[1,2],[0,2],[-1,3],[0,1],[8,10],[-5,4],[1,7],[6,11],[-6,7],[-1,4],[0,3],[4,6],[1,3],[-2,3],[-2,1]],[[1840,3845],[-3,0],[-4,0]],[[1390,3786],[-4,1],[-1,2],[1,3],[-1,4],[-6,11],[-1,3],[0,4],[0,3],[0,5],[-2,4],[-3,3],[-4,2],[-4,1]],[[1365,3832],[-5,0],[-9,-11],[-3,-3],[-3,-1]],[[2085,3820],[-10,4],[-8,5],[-4,2]],[[2063,3831],[-4,0],[-10,-3],[-20,-2],[-47,-10],[-26,-14],[-6,-4],[-4,-6],[-1,-7],[1,-20],[-4,-3]],[[1335,3817],[-9,1],[-13,8]],[[1313,3826],[-8,-2],[-2,-3],[-1,-4],[-2,-4],[-3,-1]],[[1345,3817],[-7,0]],[[1338,3817],[-3,0]],[[1297,3812],[-4,0]],[[1293,3812],[-4,0],[-5,-4],[0,-3],[-1,0],[-4,-2],[5,-6],[-4,-6],[-8,-4],[-8,-2],[5,-6],[-4,-8],[-1,-5],[-2,-3],[-3,-1],[-2,-2],[-1,-4],[-2,-3],[-8,-11],[-4,-3],[-3,-2],[-4,-2],[-9,-1],[-3,-2],[-7,-6],[-7,-3],[-7,-2],[-8,0]],[[1656,3789],[-8,1],[-13,8],[-8,3]],[[1627,3801],[-8,-1],[-22,-10],[-7,-1]],[[1590,3789],[-20,3]],[[1570,3792],[-9,-1],[-4,-5],[-9,-29],[1,-5],[4,-3],[5,-3],[3,-4],[1,-10],[-4,-8],[-8,-5],[-8,-3],[-9,0]],[[1533,3716],[-7,5],[-5,9],[-6,7],[-6,3],[-36,10],[-29,5],[-23,0],[-6,2],[-3,4],[0,9],[2,15],[-2,6],[-8,0]],[[1404,3791],[-10,-4],[-4,-1]],[[1828,3780],[1,-1],[2,-1],[2,-1]],[[1824,3757],[-1,13],[1,5],[4,5]],[[1942,3762],[-17,6]],[[1925,3768],[-4,-4],[-2,-9],[-2,-8],[-4,-7],[-7,-6],[-33,0]],[[1873,3734],[-27,9],[-5,3],[-7,9],[-4,3]],[[1830,3758],[-6,-1]],[[1194,3721],[-7,3]],[[977,4096],[-1,-8],[-3,-5],[-3,-2],[-8,0],[-3,-1],[-3,-5],[0,-3],[1,-4],[-1,-4],[-3,-7],[-17,-17],[-3,-5],[-3,-6],[-2,-6],[2,-6],[5,-4]],[[1049,4051],[8,-5],[7,-7],[6,-8],[2,-8],[1,-38],[-1,-7],[-2,-3],[-3,-3],[-7,-21],[-1,-7],[9,-4],[2,-6],[6,-73],[4,-9],[11,-16],[9,-17],[7,-3],[7,0]],[[1034,4046],[3,1],[7,3],[5,1]],[[999,4050],[6,0],[8,-2]],[[967,4018],[7,0],[6,2],[6,5],[4,5],[9,20]],[[1024,4049],[3,-1],[7,-2]],[[1013,4048],[7,0],[4,1]],[[955,4019],[6,-1],[6,0]],[[935,4013],[6,2],[6,3],[8,1]],[[1132,3822],[2,-1],[4,-6],[1,-4],[0,-10],[2,-5],[7,-5],[10,-2],[20,0],[7,-5],[5,-7],[4,-10],[2,-8],[1,-9],[-2,-9],[-8,-17]],[[1114,3816],[9,1],[5,3],[4,2]],[[3561,3821],[5,0],[8,-3],[13,-7],[12,-4]],[[3516,3685],[1,0],[2,1],[5,2],[3,1],[2,2],[1,2],[-2,2],[-2,3],[-28,25],[-3,3],[1,2],[1,3],[6,10],[0,3],[1,2],[1,14],[1,4],[0,2],[2,4],[4,5],[4,5],[15,10],[5,6],[2,2],[8,14],[4,6],[2,1],[1,1],[3,1],[3,0],[2,0]],[[3506,3687],[2,0],[3,-2],[2,0],[3,0]],[[3499,3673],[2,0],[2,1],[2,2],[0,3],[-1,1],[-2,1],[-6,2],[-1,0],[0,2],[3,0],[4,1],[2,1],[2,0]],[[3495,3674],[2,0],[2,-1]],[[3445,3603],[9,0],[2,2],[2,2],[3,5],[3,3],[3,2],[8,3],[2,1],[2,1],[1,2],[0,4],[2,4],[0,3],[0,3],[0,2],[0,2],[-4,5],[0,1],[0,2],[0,2],[-1,6],[1,2],[1,4],[1,2],[1,2],[2,1],[3,1],[2,1],[5,3],[2,0]],[[3425,3606],[20,-3]],[[3413,3604],[5,1],[5,1],[2,0]],[[3389,3606],[24,-2]],[[3328,3595],[14,0],[47,11]],[[3305,3598],[10,-1],[4,-1],[9,-1]],[[3282,3593],[2,0],[12,4],[4,0],[5,1]],[[3250,3596],[32,-3]],[[3097,3537],[41,6],[3,1],[3,2],[3,3],[2,3],[2,3],[1,2],[2,1],[2,1],[7,2],[2,1],[2,1],[2,3],[2,7],[1,2],[2,3],[1,1],[3,1],[3,1],[5,2],[6,1],[18,0],[4,1],[34,10],[2,1]],[[4096,2633],[-78,3]],[[3912,2098],[13,-27],[5,-8],[4,-2],[3,-2],[2,-1],[6,-3],[5,-3],[2,-3],[2,-2],[6,-13],[5,-19]],[[2993,2542],[-4,0],[-2,1],[-3,1],[-2,3],[-2,1],[-1,2],[-4,7],[-3,7],[-3,20],[-1,1]],[[3108,2417],[-5,1],[-4,1],[-2,0],[-14,11],[-3,2],[-10,3],[-2,1],[-1,1],[-2,2],[1,2],[-1,3],[-1,4],[-2,6],[-1,3],[0,3],[0,3],[0,2],[3,7],[1,2],[0,2],[-1,3],[-1,2],[-1,2],[0,2],[0,7],[-1,2],[-5,12],[-2,8],[-9,16],[-4,5],[-5,5],[-11,6],[-6,2],[-4,1]],[[3015,2549],[-4,-1],[-14,-6],[-2,0],[-2,0]],[[3213,2340],[-3,0],[-3,2],[-5,3],[-4,3],[-2,0],[-2,1],[-10,0],[-2,1],[-2,0],[-2,2],[-16,34],[-2,2],[-2,2],[-4,2],[-7,2],[-2,1],[-2,1],[-2,1],[-2,3],[-1,4],[-2,7],[-1,2],[-2,2],[-5,2],[-3,1],[-4,1]],[[3121,2419],[-13,-2]],[[3525,1839]],[[3581,3832],[-1,0],[-4,4],[-3,1],[-3,3],[-1,1],[-1,1],[-1,4],[0,2],[0,4],[1,2],[-1,3],[-2,1],[-5,3],[-2,0],[-4,1],[-2,0],[-1,1],[-1,2],[-2,1],[-1,1],[-2,1],[-1,1],[-1,2],[-1,2],[0,1],[-2,2],[-1,1],[-3,0],[-2,0],[-2,0],[-1,1],[-1,2],[-2,3],[-1,2],[0,2],[-1,2],[-2,13],[-1,2],[-1,3],[-1,2],[0,4],[2,10],[1,4],[2,3],[3,4],[2,2],[3,1],[3,1],[2,2],[5,6],[5,4],[1,2],[0,2],[0,5],[1,3],[3,4],[5,4],[1,1],[2,1],[2,0],[2,2],[1,2],[0,16],[0,2],[-1,2],[1,2],[1,3],[1,3],[0,5],[0,5],[2,7],[7,16]],[[3599,3807],[2,3],[1,2],[0,6],[-1,7],[-2,7],[-1,3],[-2,2],[-3,1],[-2,1]],[[3591,3839],[-2,-1],[-2,-1],[-3,-4],[-1,-1],[-1,0],[-1,0]],[[3939,3884],[2,0],[9,3],[17,7],[3,1],[3,1],[5,2],[37,8],[17,1],[23,12],[8,2]],[[3814,3899],[22,0],[3,-1],[2,-1],[1,-2],[0,-2],[0,-2],[-1,-1],[-1,-1],[-1,-2],[0,-2],[0,-1],[1,-2],[2,-1],[1,-1],[1,-1],[1,-2],[1,-2],[0,-2],[0,-2],[0,-2],[-1,-2],[0,-2],[-1,-1],[-4,-4],[-1,-2],[0,-2],[1,-1],[1,-1]],[[3758,3839],[2,1],[4,2],[4,3],[1,1],[2,1],[14,13],[1,2],[1,2],[2,3],[1,2],[1,2],[1,1],[1,2],[0,4],[0,1],[2,2],[2,1],[4,2],[3,1],[1,2],[1,2],[1,7],[1,1],[2,2],[4,0]],[[3922,3891],[2,-1],[2,-1],[3,-3],[1,-1],[2,0],[7,-1]],[[3905,3866],[2,0],[2,1],[3,2],[1,2],[1,2],[2,11],[1,2],[1,2],[1,1],[1,1],[2,1]],[[3895,3869],[4,0],[3,-1],[1,-1],[2,-1]],[[3882,3862],[2,0],[2,1],[5,4],[2,1],[2,1]],[[3876,3864],[6,-2]],[[3851,3854],[2,0],[3,3],[2,1],[2,4],[2,1],[2,1],[12,0]],[[3732,3859],[4,-1],[5,-1],[4,0],[2,-1],[2,-1],[2,-1],[2,-1],[3,0]],[[3647,3774],[5,2],[3,2],[1,3],[1,2],[0,2],[0,2],[0,5],[-3,12],[0,2],[0,2],[0,2],[1,2],[2,3],[3,2],[12,6],[3,3],[2,2],[1,6],[2,4],[1,1],[1,2],[2,1],[3,2],[38,14],[4,1],[3,0]],[[3846,3857],[2,-1],[1,-1],[2,-1]],[[3841,3854],[2,0],[3,3]],[[3762,3853],[2,-1],[0,-1],[0,-1],[-2,-2],[0,-1],[-5,-4],[-1,-1],[0,-2],[2,-1]],[[3756,3853],[6,0]],[[3599,3807],[0,-3],[2,-3],[1,-2],[1,-1],[1,-1],[2,-1],[1,-1],[2,-2],[1,-3],[1,-2],[1,-1],[2,0],[2,-1],[2,0],[2,-1],[1,-1],[7,-4],[2,0],[2,-1]],[[3638,3779],[2,0],[2,-1],[1,-1],[0,-2],[2,-1],[2,0]],[[3632,3779],[6,0]],[[4018,2636],[-21,-4],[-6,-2],[-3,-3],[-3,-2],[-7,-9],[-2,-3],[-5,-3],[-4,-3],[-18,-6],[-4,-2],[-3,-1],[-2,-3],[-2,-2],[-4,-4],[-3,-1],[-49,-1],[-5,-1],[-4,-4],[-66,-91],[-3,-3],[-2,-1],[-2,-1],[-26,-4],[-8,-3],[-9,-4],[-4,-3],[-2,-2],[-1,-4],[-1,-3],[-1,-3],[0,-2],[1,-2],[1,-2],[1,-3],[3,-3],[2,-2],[9,-7],[1,-1],[1,-1],[2,-3],[2,-4],[1,-3],[0,-2],[0,-2],[-2,-2],[-2,-3],[-10,-10],[-2,-3],[-1,-2],[-2,-2],[-47,-49],[-16,-25],[-5,-14],[-4,-16],[-1,-5],[-1,-3],[-2,-4],[-2,-2],[-1,-2],[-3,-2],[-8,-5],[-1,-1],[1,-2],[1,-1],[1,-1],[0,-2],[1,-2],[0,-3],[-1,-4],[-1,-3],[-4,-7],[-1,-2],[0,-2],[1,-1],[0,-4],[0,-1],[2,0],[1,-1],[1,-2],[0,-2],[-1,-1],[-5,-2],[-1,-1],[0,-2],[-1,-2],[-2,-8],[-1,-3],[-3,-5],[-3,-8],[-1,-2],[0,-2],[-2,-5],[-1,-2],[0,-1],[1,-1],[1,-1]],[[3647,2188],[2,0],[1,-1],[1,-2],[0,-4],[-6,-14]],[[3645,2187],[2,1]],[[3695,2116],[-3,1],[-2,0],[-1,1],[-2,2],[-6,9],[-11,25],[-1,2],[-2,1],[-10,4],[-12,6]],[[3750,2109],[-3,0],[-3,1],[-3,3],[-3,1],[-5,2],[-4,1],[-2,0]],[[3727,2117],[-32,-1]],[[3824,2101],[-8,0],[-4,1],[-2,1],[-35,8],[-7,0]],[[3768,2111],[-4,0],[-5,-1],[-9,-1]],[[3912,2098],[-17,6],[-10,2]],[[3885,2106],[-61,-5]],[[3367,2239],[-2,2],[-2,5],[-5,28],[1,2],[1,2],[1,1],[1,2],[0,2],[-1,5],[0,3],[1,2],[2,3],[0,2],[0,2],[0,2],[-1,2],[-4,3],[-17,1]],[[3386,2216],[-2,2],[-2,4],[-5,14],[-2,3],[-2,1]],[[3373,2240],[-2,0],[-3,-1],[-1,0]],[[3402,2203],[-2,1],[-3,3],[-6,7],[-2,1],[-1,1]],[[3388,2216],[-2,0]],[[3487,2167],[-3,1],[-6,2],[-3,2],[-2,1],[-2,3],[-2,2],[-10,4],[-4,0],[-5,1],[-1,1],[-1,2],[-1,2],[-8,4],[-2,1],[0,3],[0,2],[0,1],[0,2],[1,2],[0,1],[-1,2],[-5,2],[-4,1]],[[3428,2209],[-2,-1],[-1,0],[-2,-2],[-1,-1],[-2,-1],[-3,0]],[[3417,2204],[-2,0],[-5,3]],[[3410,2207],[-2,0],[-2,-1],[-1,-2],[-1,-1],[-2,0]],[[3560,2145],[-2,0],[-3,1],[-4,2],[-5,3],[-2,3],[0,1],[2,1],[1,0],[2,1],[0,1],[0,2],[0,2],[-2,2],[-3,3],[-2,1],[-6,1],[-3,1]],[[3533,2170],[-2,0],[-2,-1],[-2,0]],[[3518,2168],[-3,1],[-5,1]],[[3510,2170],[-4,-1],[-8,-1],[-4,0]],[[3527,2169],[-4,0]],[[3523,2169],[-3,-1],[-2,0]],[[3615,2163],[-2,1],[-2,0],[-3,2],[-8,2]],[[3600,2168],[-3,0],[-2,0],[-1,-2],[-2,0],[-2,-1],[-2,0],[-7,-1],[-1,-1],[-1,-2],[-1,-1],[-3,0],[-2,-1],[-1,0]],[[3494,2168],[-3,0]],[[3491,2168],[-1,-1],[-3,0]],[[3645,2167],[-1,-1],[0,-1],[-1,-1],[-2,-2],[-1,-1],[0,-2],[-1,-1]],[[3626,2156],[-2,0],[-1,2],[-1,2],[0,2],[-1,1],[-2,1]],[[3619,2164],[-2,0],[-2,-1]],[[3639,2158],[-1,0],[-1,1],[-1,1]],[[3636,2160],[-2,-1],[-3,-2],[-2,-1],[-2,0],[-1,0]],[[3572,2159],[-4,0]],[[3568,2159],[-4,-1],[-1,-1],[1,-2],[0,-1],[0,-2],[-2,-5],[-1,-1],[-1,-1]],[[4077,3054],[9,-1],[8,-3],[2,-1]],[[4012,3008],[4,0],[6,1],[3,2],[2,2],[2,3],[2,1],[3,1],[1,1],[1,2],[3,7],[1,2],[0,2],[-1,2],[1,3],[2,2],[5,5],[4,3],[3,2],[16,5],[7,0]],[[3995,3013],[2,0],[2,0],[9,-4],[1,-1],[3,0]],[[3976,3009],[3,0],[3,0],[13,4]],[[3972,3009],[4,0]],[[3952,2982],[8,8],[7,16],[3,2],[2,1]],[[3178,3197],[-15,16],[-8,4],[-2,1],[-2,1],[-1,1]],[[3150,3220],[-2,-1]],[[3657,3177],[-6,1],[-8,1],[-6,2],[-3,2],[-18,12],[-6,4],[-3,4],[-1,1],[-3,3],[-1,1],[-4,1],[-4,1],[-4,1]],[[3590,3211],[-20,-1],[-9,-1],[-6,-4],[-1,-1],[-1,-2],[-1,-1],[-1,-2],[0,-2],[-2,-11],[-1,-2],[-1,-1],[-2,-1],[-3,-2],[-7,-3],[-4,-1],[-9,-1]],[[3333,2986],[-13,3],[-6,6],[-10,16],[-11,6],[-10,13],[-5,4],[-6,4],[-5,3],[-3,5],[-3,23],[-3,13],[-5,8],[0,3],[-2,3],[-7,3],[-1,2],[-2,5],[-5,6],[-3,6],[2,7],[-6,12],[-1,4],[-2,3],[-9,6],[-2,4],[-3,8],[-14,10],[-10,20],[-5,5],[-2,1],[-1,0]],[[3180,3198],[-2,0],[0,-1]],[[3522,3175],[-4,1],[-21,4]],[[3497,3180],[-3,0],[-5,-2],[-2,-1],[-2,-1],[-1,-2],[-1,-1],[-1,-4],[-1,-2],[-1,-1],[-3,-2],[-5,-2],[-10,-4]],[[3712,2918],[-2,1],[-2,2],[-3,1],[-4,1],[-2,2],[-2,3],[-39,108],[-4,7],[-5,6],[-10,7],[-3,3],[-2,3],[0,2],[1,2],[1,1],[2,3],[3,3],[1,1],[3,2],[1,1],[1,2],[1,2],[0,2],[1,2],[0,12],[0,2],[1,2],[2,3],[2,3],[19,17],[2,2],[3,7],[2,4],[0,2],[0,2],[0,2],[-2,6],[-5,12],[-2,8],[-2,6],[-1,1],[-4,1]],[[3664,3177],[-7,0]],[[3462,3158],[-27,8]],[[3435,3166],[-15,-6],[-5,-6],[-3,-7],[-2,-8],[0,-8],[1,-22],[-1,-7],[-2,-4],[-2,-4],[-5,-6],[-2,-3],[1,-3],[2,-3],[1,-3],[0,-7],[2,-6],[3,-5],[4,-4],[14,-2]],[[3440,3053],[11,-2],[7,-14],[0,-7],[-1,-6],[-4,-5],[-7,-2]],[[3426,3052],[14,1]],[[3942,2981],[-15,2],[-7,2],[-20,12],[-38,31],[-1,1],[-1,1],[-1,2],[-1,1],[-5,6],[-6,6],[-2,2],[-2,1],[-2,1],[-2,0]],[[3839,3049],[-9,0],[-8,-2],[-3,0]],[[3819,3047],[-5,0],[-7,1],[-5,1]],[[3802,3049],[-2,-1],[-1,0],[-1,0],[-2,-1],[-1,-1],[-2,-2],[-5,-6],[-2,-3],[-3,-2],[-1,-1],[-2,-1],[-5,-2],[-4,-1],[-3,-2],[-3,-3],[-1,-1],[-1,-1],[-1,-2],[-6,-15],[-2,-3],[-2,-3],[-5,-5],[-3,-2],[-2,-1],[-12,-3],[-3,-1],[-2,-1],[-1,-1],[-1,-2],[-1,-1],[-1,-2],[0,-2],[0,-3],[0,-2],[0,-4],[2,-3],[4,-7],[1,-3],[1,-2],[0,-2],[0,-9],[0,-2],[-1,-2],[-1,-2],[-1,-1],[-2,-1],[-2,-1],[-1,-1],[0,-1],[-4,-6],[-2,-3],[-2,-3],[-1,-1]],[[3446,3017],[-8,2],[-14,7],[-9,1]],[[3415,3027],[-8,-4],[-6,-7],[-4,-6],[-3,-3],[-6,-10],[-3,-3],[-1,-1],[-35,-7],[-16,0]],[[3952,2982],[-4,-1],[-6,0]],[[3596,2793],[3,0],[3,-1],[6,-3],[2,-2],[2,-2],[1,-4],[3,-7],[1,-4],[1,-18],[0,-3],[2,-4],[1,-1],[2,-3],[2,-2],[2,-2],[2,-1],[5,-1],[8,-1],[8,0]],[[3495,2690],[6,1],[2,1],[3,1],[2,3],[6,9],[4,4],[3,2],[2,0],[2,1],[9,0],[3,1],[4,1],[1,2],[1,2],[0,2],[-2,8],[-3,8],[-1,1],[0,2],[1,2],[0,1],[1,1],[11,8],[15,8],[2,3],[5,5],[12,19],[2,3],[2,1],[3,2],[2,1],[1,0],[2,0]],[[3720,2763],[3,0],[11,-1],[2,-1],[3,-3],[2,-1]],[[3665,2735],[2,0],[2,1],[2,1],[2,0],[4,1],[2,0],[2,1],[3,0],[6,1],[4,0],[7,2],[1,1],[1,2],[1,3],[1,2],[1,1],[3,3],[5,3],[1,1],[2,3],[1,2],[2,0]],[[3842,2763],[3,0],[4,-3],[9,-7],[6,-7],[8,-13],[7,-16],[4,-6],[2,-3],[2,-2],[3,-1],[12,-4],[38,-6],[51,-19],[2,-1],[2,-2],[7,-9],[16,-28]],[[3821,2752],[2,0],[5,5],[3,2],[8,2],[1,1],[2,1]],[[3750,2758],[2,-1],[2,-3],[2,-2],[2,-1]],[[3741,2757],[2,0],[5,1],[2,0]],[[3784,2755],[3,0],[4,-2],[3,-2],[5,-1],[3,0],[1,-1],[1,-1],[1,-2],[2,0]],[[3782,2755],[2,0]],[[3779,2755],[3,0]],[[3770,2752],[2,0],[3,2],[1,1],[3,0]],[[3816,2754],[2,-2],[3,0]],[[3807,2746],[2,1],[1,1],[2,1],[1,4],[1,1],[2,0]],[[3766,2752],[4,0]],[[3758,2751],[3,0],[5,1]],[[3421,2737],[3,0],[3,-2],[1,-2],[1,-2],[1,-16],[1,-5],[0,-1],[1,-2],[4,-1],[5,-2],[8,-5],[5,-3],[3,-4],[1,-2],[2,-1],[3,0]],[[3391,2733],[14,0],[2,1],[4,1],[8,2],[2,0]],[[3379,2737],[2,-1],[4,-2],[3,-1],[3,0]],[[3374,2736],[3,0],[2,1]],[[3365,2736],[9,0]],[[3352,2731],[5,1],[2,1],[3,3],[3,0]],[[3658,2735],[7,0]],[[3650,2734],[8,1]],[[3330,2734],[4,0],[18,-3]],[[3325,2692],[-4,1],[-2,0],[-2,1],[-1,1],[0,1],[0,2],[1,2],[1,3],[1,2],[0,7],[0,2],[0,1],[3,3],[1,2],[1,4],[0,1],[1,2],[1,2],[0,2],[1,2],[3,1]],[[3480,2694],[3,0],[5,-3],[3,-1],[4,0]],[[3463,2689],[3,1],[2,0],[8,3],[2,1],[2,0]],[[3352,2678],[-2,1],[-1,1],[-2,1],[-8,9],[-1,1],[-2,1],[-2,1]],[[3334,2693],[-5,0],[-4,-1]],[[3303,2577],[45,3],[7,2],[10,6],[10,7],[4,6],[9,11],[4,4],[2,1],[4,1],[8,1],[4,1],[3,1],[1,1],[1,1],[3,8],[0,1],[-1,6],[0,2],[1,2],[3,5],[0,2],[0,1],[-1,1],[-18,4],[-3,2],[-3,2],[-10,10],[-14,11],[-1,1],[-2,0]],[[3369,2681],[-1,0],[-14,-3],[-2,0]],[[3287,2590],[5,-1],[3,-1],[1,-2],[1,-1],[1,-4],[1,-2],[1,-1],[3,-1]],[[3229,2510],[-2,0],[-2,1],[0,1],[1,2],[0,2],[1,1],[2,1],[3,2],[2,0],[4,4],[1,1],[2,3],[3,2],[1,2],[1,1],[1,2],[1,1],[1,2],[0,2],[0,5],[1,2],[1,3],[1,2],[1,2],[0,4],[0,1],[1,2],[23,25],[4,3],[3,1],[3,0]],[[3235,2447],[4,1],[4,1],[7,3],[4,2],[2,1],[1,1],[1,2],[2,3],[2,4],[0,2],[3,22],[1,4],[1,1],[1,2],[1,1],[2,1],[2,2],[3,1],[2,1],[2,1],[0,2],[0,2],[-1,1],[-2,1],[-1,2],[-2,0],[-4,2],[-7,0],[-19,1]],[[3244,2514],[-13,-4],[-2,0]],[[3219,2450],[2,0],[9,-2],[5,-1]],[[3213,2340],[0,4],[0,1],[0,2],[-1,2],[-4,1],[-2,1],[0,1],[0,2],[0,2],[2,2],[0,2],[-1,2],[0,2],[3,4],[1,4],[1,2],[1,2],[2,1],[2,4],[1,2],[2,2],[2,1],[2,3],[1,2],[2,1],[1,1],[1,4],[1,1],[0,2],[0,2],[-2,3],[0,1],[0,2],[1,2],[2,3],[0,1],[0,2],[-2,1],[-4,3],[-1,1],[-1,2],[-1,6],[0,2],[-2,1],[-3,2],[-1,1],[-1,2],[1,2],[1,6],[0,2],[1,2],[1,1]],[[3952,2982],[21,-5],[7,-4],[51,-40],[4,-5],[4,-7],[16,-37],[1,-4],[2,-13],[1,-4],[1,-2],[9,-14],[3,-3],[3,-3],[4,-1],[3,-1],[9,-1],[2,-1],[3,-2]],[[4084,2190],[4,-1],[3,-2],[1,-1],[3,-3],[1,0]],[[4023,2112],[3,1],[3,1],[5,3],[3,2],[2,2],[1,1],[1,1],[3,8],[4,14],[4,8],[1,2],[2,1],[16,6],[2,3],[2,2],[6,21],[1,2],[2,0]],[[3937,2122],[4,0],[3,-2],[0,-6],[0,-2],[2,-1],[3,-2],[6,-2],[1,-1],[7,-2],[4,-1],[9,0]],[[3912,2098],[-1,3],[-1,1],[0,2],[0,4],[2,8],[0,1],[1,1],[1,1],[1,0],[3,1],[4,1],[15,1]],[[4005,2121],[4,-1],[2,-1],[2,-1],[2,-1],[1,-1],[3,-2],[4,-2]],[[3976,2103],[3,0],[3,2],[6,3],[3,2],[3,1],[6,9],[2,1],[3,0]],[[3250,2385],[2,0],[2,0],[3,-2],[11,-7],[3,0]],[[3220,2329],[3,0],[2,1],[3,1],[1,1],[5,5],[1,2],[2,3],[1,4],[1,4],[4,26],[1,3],[2,4],[2,2],[2,0]],[[3284,2379],[3,-1],[2,-1],[1,-1],[0,-1],[1,-2],[0,-2],[0,-2],[-7,-20],[-1,-5],[0,-2],[1,-2],[1,-1],[3,-2],[27,-6],[2,-1],[1,-1],[1,-1],[3,-5],[1,-2],[2,-6],[0,-2],[2,-2],[2,-2],[2,-1],[3,-1]],[[3271,2376],[3,0],[7,2],[3,1]],[[3213,2340],[-1,-9],[1,0],[2,-2],[3,0],[2,0]],[[3334,2307],[8,1]],[[3342,2308],[-2,-6],[-2,-4],[-6,-5],[-5,-3],[-10,-4],[-6,-4],[-3,-2],[-1,-2],[-1,-2],[-1,-4],[0,-5],[1,-5],[0,-2],[1,-3],[3,-4],[1,-2],[11,-7],[6,-3],[3,-1],[2,0],[7,-3],[4,-2],[3,-4],[1,-2],[4,-10],[2,-2],[1,0],[1,-1],[12,-5],[5,-3],[2,-1],[1,-1],[7,-7],[17,-24],[1,-1],[1,-2],[6,-5],[2,-1],[2,0],[9,-3],[1,0],[3,-2],[2,-3],[5,-7],[2,-4],[1,-3],[0,-2],[-2,-7],[0,-6],[0,-4],[1,-2],[1,-1],[5,-3],[3,-2],[1,-2],[-1,-2],[-1,-1],[-2,-3],[-1,-1],[-1,-2],[-1,-2],[0,-2],[0,-7],[0,-4],[-2,-8],[-2,-6],[-1,-3],[0,-4],[2,-7],[1,-4],[2,-1],[2,-1]],[[3461,2064],[2,0],[2,0],[2,-1],[2,-1],[4,-4],[2,0],[2,-1],[2,-1],[9,0],[4,0],[4,-2],[3,-1],[7,-4],[5,-4],[4,-5],[4,-5],[0,-2],[0,-2],[0,-1],[-2,-3],[-1,-2],[-1,-1],[-2,0],[-2,-1],[-1,-1],[-1,-2],[-1,-4],[-1,-4],[0,-2],[0,-2],[1,-5],[3,-6],[6,-7],[1,-1],[3,-3],[4,-1],[2,-1],[2,-2],[3,-3],[2,-2],[1,-3],[3,-8],[1,-2],[1,-3],[5,-5],[12,-11],[14,-9],[3,-2],[3,-5],[2,-3],[-1,-2],[-1,-1],[-11,-8],[-4,-6],[-1,-1],[-2,-1],[-1,-1],[-2,-1],[-2,0],[-2,0]],[[3439,2057],[2,1],[12,5],[4,1],[4,0]],[[3552,1905],[-5,0]],[[3547,1905],[-2,-1],[-3,-1],[-2,0],[-2,-1],[-1,-1],[-2,-1],[-2,-3],[-7,-13],[-2,-4],[-1,-4],[-1,-9],[0,-4],[3,-24]],[[0,2439],[6,-3],[66,-23],[57,-32],[14,-9],[12,-13],[9,-18],[3,3],[3,2],[3,1],[6,0],[-9,-9],[-3,-8],[1,-9],[6,-10],[-4,1],[-3,2],[-2,2],[-1,3],[-3,-7],[7,-6],[47,-24],[74,-18],[11,-5],[11,-6],[5,-7],[-3,8],[-8,7],[-19,10],[0,3],[7,-1],[6,-2],[12,-8],[6,-4],[4,-5],[5,-4],[8,-2],[-2,-3],[-2,-2],[-3,1],[-3,2],[-1,-5],[3,-5],[7,-4],[14,-2],[6,-3],[20,-12],[15,-17],[25,-20],[4,-2],[6,-2],[6,-3],[6,-5],[3,-5],[1,-5],[-2,-4],[1,-4],[3,-3],[6,-4],[3,-2],[13,-14],[50,-42],[53,-51],[36,-21],[6,-9],[-1,-3],[-4,-6],[0,-3],[2,0],[11,-2],[1,-1],[5,-1],[6,-3],[6,-4],[4,-4],[3,-7],[4,-13],[3,-5],[42,-41],[7,-3],[9,-3],[7,-4],[5,-7],[-5,0],[5,-6],[6,-4],[6,-2],[12,-9],[12,-6],[6,-3],[21,-18],[13,-8],[16,-4],[-1,-2],[-1,-1],[6,-5],[8,-4],[9,-3],[11,-1],[8,-4],[4,0],[11,-6],[9,-6],[26,-21],[11,-6],[51,-19],[21,-12],[41,-29],[37,-13],[7,-2],[6,-2],[16,-18],[12,-4],[45,-6],[23,-9],[12,-1],[16,-5],[6,-2],[4,-3],[3,-2],[3,-2],[6,-1],[4,-1],[9,-7],[11,-4],[3,-4],[2,-5],[3,-4],[4,-3],[4,-3],[14,-6],[6,0],[2,-2],[1,-2],[2,-3],[3,-1],[25,0],[4,-1],[9,-3],[5,-1],[19,2],[1,0],[5,1],[16,-3],[9,-1],[7,2],[28,24],[20,11],[6,5],[4,2],[5,0],[3,0],[4,7],[5,3],[21,10],[27,3],[15,4],[23,14],[19,16],[11,13],[4,2],[8,2],[10,5],[36,3],[46,13],[6,4],[10,9],[6,2],[7,1],[39,10],[5,3],[2,5],[3,3],[100,33],[29,15],[19,7],[4,0],[3,3],[6,3],[41,13],[3,1],[80,12],[29,9],[-2,1],[-8,2],[10,7],[9,-5],[11,-2],[73,4],[15,5],[92,3],[-5,4],[-3,7],[-2,6],[-2,3],[-12,2],[-5,-1],[-5,-4],[-9,-3],[-22,13],[-13,-1],[-5,2],[0,-2],[6,-2],[2,-4],[3,-3],[7,1],[-2,-5],[-4,-1],[-5,1],[-4,3],[-5,-4],[-6,2],[-6,3],[-6,1],[-1,-1],[-4,-5],[-2,-1],[-3,-2],[-3,-1],[-3,0],[-4,0],[0,-3],[7,-1],[6,1],[7,0],[5,-5],[-14,-4],[-18,2],[-15,7],[-5,11],[5,-3],[0,4],[0,1],[3,0],[12,-18],[2,5],[5,15],[0,-7],[4,2],[9,5],[2,3],[0,3],[-5,-1],[-2,-1],[-2,-1],[-1,0],[-1,2],[-1,1],[-3,0],[1,1],[-1,3],[4,-2],[2,0],[-2,4],[0,4],[2,1],[4,-1],[3,0],[5,1],[7,-4],[6,-1],[4,4],[3,0],[0,-1],[1,-1],[2,-2],[2,-2],[11,3],[12,-2],[11,-5],[6,-6],[5,4],[6,4],[6,2],[20,2],[5,-1],[-5,-5],[2,-7],[0,-7],[3,-4],[10,0],[0,-3],[-1,0],[-3,0],[-1,0],[0,-2],[5,0],[19,0],[5,-1],[4,-2],[6,3],[33,3],[60,13],[113,10],[114,9],[-27,13],[4,-1],[4,1],[4,0],[3,2],[-11,4],[-45,-1],[-6,-1],[-9,-6],[-15,-2],[-8,-3],[-7,-1],[-7,3],[-4,-5],[-5,2],[-6,2],[-7,1],[-2,-4],[-3,-5],[-3,-2],[-2,6],[-10,-5],[-22,1],[-8,-4],[-2,0],[0,5],[-13,-3],[-2,-2],[1,-3],[3,-2],[5,0],[3,0],[-8,-3],[-4,0],[-5,1],[-2,0],[-1,2],[-2,2],[-4,0],[-11,0],[-6,0],[-7,-3],[-5,-1],[-3,0],[-1,3],[-2,2],[-4,-3],[-10,-2],[0,-3],[2,-4],[-4,-3],[-6,-1],[-7,1],[-5,1],[-4,2],[0,4],[2,5],[9,5],[13,6],[8,7],[-10,7],[9,0],[8,2],[6,5],[4,8],[3,0],[0,-4],[-1,-4],[-3,-3],[-4,-1],[0,-3],[4,0],[2,-2],[1,-2],[1,-3],[-6,0],[-4,1],[-3,0],[-4,-1],[1,-3],[3,-2],[3,-2],[2,-1],[3,0],[4,3],[6,3],[8,1],[7,-4],[8,6],[5,2],[7,2],[0,2],[-3,1],[-2,3],[0,3],[2,3],[4,-6],[2,-3],[2,-3],[26,-1],[6,-2],[-1,4],[-2,2],[-3,1],[-4,-2],[2,7],[5,2],[13,1],[0,-1],[-1,-1],[-1,0],[3,-5],[4,2],[4,3],[4,2],[3,-1],[5,-3],[4,-3],[3,-3],[3,4],[5,4],[3,6],[2,0],[4,-1],[2,-3],[5,4],[4,1],[9,-2],[-1,-2],[-1,-4],[0,-2],[5,-1],[5,2],[10,7],[2,-3],[3,-2],[2,0],[2,2],[5,-2],[4,1],[4,2],[5,2],[10,-6],[7,-1],[3,3],[3,1],[8,-2],[8,-4],[5,-3],[6,-2],[6,1],[6,4],[5,4],[-5,5],[-4,-2],[-7,-1],[-5,2],[-4,3],[4,1],[9,2],[4,-2],[4,-1],[4,0],[3,3],[4,-2],[3,2],[2,5],[1,5],[2,0],[0,-4],[0,-3],[1,-3],[2,-3],[1,2],[2,1],[2,2],[1,-5],[3,-4],[4,-2],[4,-1],[6,-1],[4,0],[3,-1],[5,-6],[2,0],[5,2],[6,-1],[6,0],[3,4],[-6,3],[-6,6],[-9,12],[-8,6],[-1,2],[2,3],[3,1],[3,-1],[2,-2],[4,2],[4,-1],[3,-2],[2,-3],[0,-5],[5,-12],[2,-5],[5,-2],[2,-3],[-5,-6],[-4,-2],[-9,2],[-6,0],[1,-2],[1,-4],[0,-2],[-13,7],[-8,3],[-4,-1],[-2,0],[-13,5],[-5,1],[0,-2],[2,-2],[0,-3],[-1,-2],[-2,-1],[-3,1],[-3,3],[-5,6],[-4,-5],[-7,-4],[-7,-1],[-7,3],[5,-9],[12,-3],[25,-3],[17,-9],[4,-1],[15,0],[7,-1],[5,-2],[2,0],[1,4],[2,6],[3,4],[4,4],[-3,-5],[4,-3],[1,-3],[-1,-2],[-1,-4],[1,-2],[3,-1],[12,-2],[17,-1],[92,-20],[24,-1],[13,11],[-5,1],[-5,1],[-2,3],[2,5],[-5,3],[-1,3],[3,1],[3,-2],[2,4],[2,3],[3,3],[3,3],[4,1],[6,-1],[3,2],[0,3],[-4,-1],[-4,1],[-4,0],[-3,2],[2,0],[-1,0],[-4,3],[3,2],[1,2],[0,3],[-1,3],[10,1],[3,5],[-2,8],[-4,8],[5,2],[7,5],[3,1],[4,0],[5,-2],[3,-1],[3,1],[3,2],[2,1],[1,1],[7,0],[4,-1],[2,-2],[1,-6],[-1,-7],[-2,-2],[-4,-1],[-5,-3],[-2,-4],[-1,-11],[-2,-5],[-2,-2],[-6,-5],[-4,-6],[3,-3],[6,-2],[7,-7],[5,-9],[3,-7],[6,3],[15,0],[7,3],[6,-5],[19,-9],[6,-2],[7,3],[5,5],[2,8],[-3,7],[10,0],[15,2],[12,-2],[1,-10],[-8,-4],[-13,-2],[-10,-4],[1,-10],[-4,-1],[-8,-4],[-5,0],[-2,1],[-4,7],[-2,2],[-8,2],[-26,0],[-4,0],[-4,-2],[-2,0],[-1,-1],[-5,1],[-6,5],[-3,2],[-1,-1],[-2,0],[-8,3],[-3,1],[-1,1],[0,3],[-1,2],[-3,2],[-10,2],[-6,-5],[-7,-6],[-2,-6],[5,-2],[36,-4],[16,-3],[6,-2],[50,-15],[53,-10],[47,-3],[60,-21],[62,-12],[38,-15],[2,-2],[1,-3],[1,-3],[2,-3],[3,-2],[8,-4],[15,-12],[4,-4],[-1,-1],[4,-1],[6,-1],[3,-1],[5,-1],[0,-3],[0,-5],[1,-3],[3,-3],[2,0],[10,0],[4,2],[26,3],[5,2],[5,6],[9,12],[6,5],[28,13],[25,7],[3,0],[3,1],[1,2],[-1,2],[1,3],[10,12],[5,3],[25,12],[1,2],[2,2],[1,3],[-2,6],[0,3],[5,3],[6,2],[6,-1],[6,-2],[6,5],[8,3],[26,3],[13,7],[6,2],[4,0],[8,0],[3,0],[4,2],[9,5],[4,1],[23,0],[8,2],[14,7],[8,4],[3,3],[4,5],[38,17],[6,1],[6,1],[4,4],[3,1],[1,-4],[2,-3],[4,0],[9,2],[9,1],[4,1],[2,3],[5,-5],[9,0],[27,4],[5,3],[9,11],[21,17],[5,2],[19,13],[3,-5],[6,2],[6,4],[2,3],[5,0],[25,6],[13,8],[5,5],[2,6],[3,4],[27,23],[4,2],[2,1],[17,2],[78,25],[6,1],[3,1],[2,2],[5,5],[2,1],[16,5],[0,-2058],[-4096,0],[0,2439]],[[1573,2388],[-2,-2],[0,-2],[3,-6],[-1,-2],[-1,-1],[-15,-3],[-5,-2],[-4,-4],[7,-6],[0,-5],[-4,-4],[-3,-6],[1,-12],[-1,-5],[-2,-4],[-11,-3],[-1,-1],[-1,-4],[1,-3],[3,-5],[-2,-7],[-4,-10],[-4,3],[-6,1],[-13,-2],[-2,-1],[-2,-2],[-1,-1],[-6,3],[-3,-2],[-1,-3],[1,-4],[-3,2],[-4,5],[-2,1],[-4,-1],[-4,-3],[-3,-1],[-6,-1],[1,15],[1,3],[2,3],[2,-2],[1,5],[-2,1],[-5,0],[-4,1],[-3,4],[-2,4],[-3,3],[-5,-3],[-3,1],[-2,3],[-2,2],[1,3],[3,3],[-3,1],[-3,0],[-2,-1],[-5,2],[-6,4],[-4,6],[-1,6],[-8,-1],[-2,4],[-2,6],[-3,3],[-7,-1],[-8,-2],[-7,0],[-3,7],[-1,5],[-2,1],[-3,-1],[-3,0],[-1,4],[1,4],[3,3],[1,4],[-1,9],[-2,6],[-4,3],[-6,3],[0,3],[14,-3],[8,-12],[4,-14],[7,-9],[3,-1],[2,0],[2,1],[8,2],[2,2],[1,2],[3,3],[4,2],[1,-3],[1,-5],[0,-4],[1,-1],[2,0],[4,0],[1,-1],[0,-3],[-2,-2],[0,-2],[4,-5],[15,-7],[4,0],[6,2],[4,1],[1,-2],[0,-13],[0,-3],[1,-4],[1,-2],[2,-1],[4,-1],[1,1],[2,2],[2,2],[2,0],[1,-1],[2,-3],[1,-1],[0,-3],[2,-6],[5,-4],[9,3],[2,3],[6,15],[0,3],[-2,6],[-1,2],[1,2],[2,1],[1,2],[1,3],[1,6],[2,5],[5,4],[6,1],[1,-2],[-1,-6],[0,-6],[3,-4],[-1,-5],[-1,-6],[2,-4],[5,3],[3,5],[0,6],[-2,6],[-1,5],[1,3],[4,4],[1,2],[-1,4],[-2,0],[-3,-1],[-2,1],[-1,0],[-3,2],[-2,2],[2,1],[6,0],[2,-1],[1,-2],[7,5],[-2,6],[-7,4],[-6,1],[-10,-6],[-3,1],[4,7],[10,6],[1,3],[-9,1],[-4,-1],[-3,-2],[-3,-1],[-5,2],[-2,2],[-2,3],[-1,3],[0,4],[7,-3],[7,-2],[6,1],[3,5],[1,5],[2,1],[3,0],[3,1],[2,0],[5,-1],[1,1],[0,1],[0,2],[-1,2],[-1,0],[1,2],[1,3],[2,2],[4,0],[2,2],[-2,3],[-5,4],[1,1],[1,9],[-1,5],[-1,5],[-1,4],[6,-2],[1,-1],[-6,17],[-1,5],[-1,4],[-4,2],[-4,2],[-4,3],[2,4],[-9,10],[-2,7],[1,6],[6,7],[0,6],[-7,11],[-3,7],[1,6],[8,13],[4,6],[4,0],[0,-8],[-4,-15],[-1,-7],[1,-4],[2,-3],[2,-2],[0,-1],[0,-4],[-2,-11],[1,-10],[4,-3],[5,-2],[5,-3],[3,-6],[1,-7],[3,-4],[8,5],[3,-6],[-4,-6],[0,-6],[2,-6],[2,-8],[-1,-3],[-2,-3],[-1,-3],[2,-3],[4,-2],[5,-1],[3,-1],[2,-5],[-11,-8],[-6,-14],[0,-12],[9,1],[-1,-7],[2,-2],[3,-1],[6,-4],[2,1],[1,-1],[0,-3],[-8,-4]],[[2241,2315],[6,-1],[3,-6],[-3,-31],[-6,-5],[-14,10],[-22,27],[1,5],[-3,4],[-4,4],[3,7],[-1,1],[-2,2],[-2,2],[4,0],[1,-1],[15,-32],[8,-8],[3,3],[2,-3],[2,-4],[3,-3],[5,2],[2,5],[-1,6],[-4,5],[2,0],[1,2],[2,0],[-5,7],[4,2]],[[4096,2325],[-4,-2],[-6,8],[-2,10],[0,9],[-1,7],[-5,7],[-14,9],[-6,5],[-4,8],[-10,-2],[-13,6],[-12,8],[-10,4],[0,5],[-4,5],[-4,4],[-5,3],[1,2],[2,1],[-1,1],[-1,1],[-1,1],[0,2],[-7,-2],[-18,2],[-6,-2],[-4,2],[-6,6],[-12,14],[-8,4],[-16,6],[-4,0],[-12,0],[-4,1],[-3,3],[-2,3],[-3,3],[-2,-4],[-7,-3],[-3,-3],[-5,8],[0,2],[-3,0],[-3,0],[-3,0],[-1,4],[-1,0],[-2,7],[0,1],[-2,4],[-1,1],[-3,1],[-3,0],[0,2],[-1,2],[-1,0],[0,1],[-7,2],[-2,0],[-2,3],[-2,5],[-3,10],[5,-3],[1,1],[1,2],[0,1],[0,1],[2,-5],[3,-2],[3,1],[2,4],[3,0],[0,-2],[1,-1],[1,-1],[0,-2],[8,1],[7,-8],[5,-10],[5,-5],[3,5],[4,-2],[5,-2],[3,6],[0,8],[-1,9],[0,6],[6,5],[0,-14],[1,-4],[4,-4],[0,-4],[1,-14],[1,-5],[3,-5],[3,0],[4,-1],[7,-4],[8,-1],[3,8],[3,0],[3,-5],[2,-3],[3,-1],[3,-1],[2,3],[-2,5],[-4,9],[0,5],[-3,9],[1,5],[2,4],[10,13],[8,-29],[3,-16],[-1,-15],[4,2],[6,6],[4,2],[5,1],[2,1],[2,2],[3,1],[3,-2],[2,-2],[3,-3],[4,-1],[4,2],[2,4],[1,5],[0,4],[2,0],[4,-2],[2,0],[0,5],[2,0],[5,-9],[3,-2],[5,1],[2,-3],[2,-4],[-2,-2],[-3,-2],[-2,-3],[0,-12],[2,-2],[6,-6],[2,-1],[3,-1],[2,-1],[4,0],[4,2],[0,-8],[1,0],[1,1],[2,2],[2,-1],[1,-1],[1,0],[2,2],[0,-1],[1,-1],[1,-1],[13,4],[5,11],[-1,28],[6,-4],[2,-1],[-2,7],[0,8],[-10,1],[-6,1],[-4,3],[-3,3],[3,2],[5,0],[2,2],[-3,3],[-4,2],[-4,2],[-1,6],[2,0],[3,-4],[4,-1],[4,1],[4,4],[-2,1],[-1,1],[-1,2],[-1,1],[5,0],[0,3],[-3,0],[0,2],[4,1],[2,2],[0,3],[-1,4],[3,0],[2,-2],[1,-2],[1,-3],[1,-3],[4,-5],[1,-1],[0,-35],[-1,-3],[1,-4],[0,-139]],[[4096,2750],[-1,1],[-6,2],[-2,-1],[-1,-1],[-2,1],[-3,1],[-3,-2],[-9,2],[-5,0],[14,-19],[5,-10],[-7,-3],[0,6],[-4,6],[-6,4],[-4,0],[-7,-6],[-4,-2],[-4,-1],[-1,1],[2,3],[4,3],[2,1],[-1,7],[-6,5],[-6,4],[-6,5],[-5,1],[-7,-3],[-12,-7],[0,3],[-2,2],[-2,2],[-3,1],[0,2],[3,0],[6,0],[3,0],[-1,2],[-1,4],[0,2],[4,-1],[2,0],[1,-2],[3,0],[2,8],[3,0],[1,-6],[4,-2],[12,0],[-1,3],[-1,2],[5,5],[2,-5],[4,-3],[4,-1],[5,2],[0,-2],[2,-3],[3,0],[1,1],[1,0],[3,-1],[2,2],[-1,3],[0,1],[0,1],[1,3],[2,0],[1,-3],[0,-2],[1,-1],[1,-2],[2,5],[4,-5],[4,0],[3,2],[2,0],[0,-15]],[[4096,2776],[-5,9],[-3,4],[-6,2],[-5,0],[-1,2],[0,2],[0,3],[1,0],[-1,3],[-2,4],[-3,2],[-7,-1],[-7,-4],[-3,-4],[-3,0],[-1,5],[-3,1],[-4,-2],[-2,-4],[-3,1],[-1,1],[-1,1],[-5,-2],[-16,7],[-9,-3],[3,0],[7,-2],[-2,-2],[-2,-3],[-6,-3],[-8,4],[-7,-3],[-6,-4],[-4,3],[-2,0],[-5,-2],[-32,-1],[-6,-3],[-6,-6],[-4,-8],[-1,3],[0,2],[-1,2],[0,3],[-2,-1],[-4,-1],[-3,0],[-1,1],[-1,4],[-4,-1],[-3,-3],[-1,-1],[-1,-2],[-9,-11],[-4,-2],[0,2],[-1,2],[0,1],[-1,2],[-3,-3],[-4,-2],[-12,0],[-5,-2],[-4,-4],[-5,-2],[-5,3],[5,7],[7,3],[25,0],[3,2],[4,2],[4,4],[0,1],[-1,1],[0,2],[1,3],[2,2],[2,1],[2,2],[1,3],[3,0],[2,-2],[1,0],[1,0],[3,2],[3,-4],[4,-1],[4,2],[2,4],[3,0],[6,1],[6,2],[5,3],[-2,2],[-1,2],[0,6],[3,0],[9,-8],[6,-3],[5,6],[13,-5],[10,4],[8,9],[11,5],[0,2],[-4,0],[-4,1],[-4,2],[-3,3],[5,1],[11,-1],[4,2],[3,-3],[4,-2],[4,-2],[3,-1],[2,-1],[1,-2],[2,-1],[4,2],[-5,6],[2,3],[4,3],[-1,6],[16,-4],[8,0],[3,7],[-5,2],[-22,1],[-8,4],[4,-1],[3,1],[6,2],[-3,4],[-3,2],[-7,4],[6,1],[8,0],[6,3],[-2,6],[-8,-1],[-6,3],[-2,5],[6,6],[-3,2],[1,12],[-2,5],[1,2],[-1,1],[-2,0],[-3,-1],[-5,-3],[-1,-1],[-4,3],[9,14],[2,8],[-2,-1],[-6,-2],[-2,-2],[0,5],[-6,0],[-7,5],[-5,7],[-2,7],[-3,5],[-16,15],[-6,4],[0,-5],[2,-8],[1,-6],[-9,-19],[-1,-1],[0,-5],[-2,-1],[-2,1],[-3,1],[-3,0],[-23,-5],[-1,-1],[0,-2],[-2,-2],[-2,0],[-2,2],[0,2],[1,3],[3,1],[6,1],[11,5],[5,1],[9,5],[2,10],[-4,9],[-6,-1],[-5,3],[-5,7],[-5,2],[-5,1],[-5,0],[-6,-1],[-4,-2],[-7,-7],[-12,-21],[-8,-7],[2,5],[1,10],[2,5],[2,3],[7,6],[1,2],[0,10],[-1,9],[-5,8],[-9,7],[1,-17],[-3,-6],[-15,-4],[-14,-8],[-7,-3],[0,3],[4,3],[5,6],[1,6],[-6,3],[-1,-2],[-10,-6],[-4,-1],[-6,-1],[-4,-2],[-3,0],[-2,1],[-3,3],[0,1],[-2,1],[-2,-2],[-4,-5],[-5,5],[1,6],[5,6],[7,3],[11,-7],[8,2],[9,6],[11,4],[4,-1],[2,-2],[3,-2],[4,2],[0,2],[2,10],[0,1],[-3,4],[-6,1],[-13,0],[1,10],[-18,9],[-3,11],[-3,0],[-2,0],[-5,0],[-3,0],[-1,2],[1,4],[-2,4],[-4,2],[-5,1],[-22,0],[-6,2],[-1,3],[5,2],[18,-2],[8,1],[2,1],[-5,8],[-10,22],[-4,6],[-20,22],[-5,3],[-6,2],[2,7],[-2,5],[-3,5],[-3,13],[-3,6],[-4,4],[-5,3],[-1,2],[0,1],[-1,1],[-4,1],[-3,1],[-6,3],[-3,1],[-3,1],[-4,4],[-5,3],[-6,2],[-5,1],[-4,1],[-5,0],[-7,-2],[-11,-5],[-5,-4],[-1,-5],[2,-11],[4,-11],[0,-9],[-9,-8],[0,15],[-9,30],[-3,5],[-7,-2],[-16,2],[-6,-1],[-4,-2],[-2,2],[0,4],[0,4],[-2,2],[-11,4],[-14,13],[-3,3],[-4,2],[-26,0],[-7,-3],[-5,-5],[-2,-6],[-1,-8],[-3,-4],[-7,-5],[-12,-7],[-3,0],[-1,0],[-1,2],[-3,0],[-13,0],[-10,5],[-6,-1],[-13,-12],[-3,-2],[-5,0],[14,19],[9,5],[12,-6],[3,2],[8,-1],[4,1],[14,-3],[7,9],[4,13],[4,7],[3,1],[9,5],[5,1],[13,1],[5,2],[3,5],[1,-2],[3,-4],[1,-2],[3,7],[-1,6],[-2,12],[5,-5],[1,-4],[2,-14],[3,-6],[6,-7],[6,-3],[7,1],[8,-11],[4,-5],[6,-4],[6,-1],[8,0],[54,9],[3,1],[1,3],[2,0],[11,-9],[0,14],[-1,6],[-4,3],[4,3],[-3,4],[-7,3],[-4,2],[-5,1],[-35,3],[-6,2],[3,4],[5,0],[23,-2],[-7,9],[-21,26],[-3,8],[-1,10],[0,10],[2,9],[5,-12],[9,19],[1,7],[-1,8],[-3,12],[-1,7],[8,-5],[7,-8],[4,-11],[1,-12],[-4,-8],[-13,-13],[-3,-10],[3,-6],[15,-25],[6,-2],[9,-9],[5,-2],[3,3],[6,20],[0,-19],[1,-10],[4,-7],[3,3],[3,-6],[1,-5],[1,-13],[0,-6],[3,-6],[3,-5],[4,-4],[11,-5],[6,-4],[3,-5],[1,-3],[2,-2],[3,-1],[1,-1],[1,-5],[1,-2],[1,-2],[2,-3],[2,-6],[1,-2],[2,-2],[4,0],[1,2],[1,3],[3,4],[13,10],[3,6],[-3,8],[-4,4],[-6,3],[-5,4],[-2,5],[1,5],[1,2],[2,2],[5,0],[2,1],[2,4],[4,12],[1,4],[-1,4],[9,-7],[-4,-10],[-14,-16],[14,-1],[6,-9],[5,-10],[7,-7],[0,6],[1,6],[3,5],[6,3],[-3,-12],[1,-6],[4,-2],[-7,-7],[-11,-3],[-10,-4],[-6,-15],[-5,-2],[-5,-2],[-3,-2],[0,-6],[2,-5],[4,-3],[15,-5],[7,-8],[9,-18],[2,-2],[6,-4],[2,-2],[1,-3],[2,-1],[9,-2],[4,-2],[2,1],[2,7],[2,-4],[0,-7],[1,-4],[2,-2],[3,-2],[3,-2],[3,-6],[4,-1],[3,-1],[2,-5],[2,-4],[4,1],[4,2],[2,2],[3,0],[0,-6],[-4,-4],[-3,-4],[-3,-6],[10,-8],[6,0],[4,8],[0,-9],[1,-4],[1,-4],[7,2],[3,3],[0,5],[4,-3],[9,-7],[3,2],[4,0],[2,-1],[1,-4],[7,3],[3,5],[0,6],[0,5],[-1,2],[-3,1],[-1,2],[1,2],[3,2],[8,1],[3,1],[3,-3],[2,-3],[3,-3],[4,-1],[3,2],[2,2],[0,4],[0,5],[5,-3],[6,-1],[9,-1],[2,-1],[3,-3],[3,-1],[-1,1],[3,2],[3,1],[2,1],[-3,-7],[14,-3],[4,-7],[-2,-9],[-12,7],[-6,-6],[-8,5],[-5,2],[-2,-4],[-3,-2],[-6,0],[-7,3],[-4,3],[0,-11],[-2,-12],[5,3],[4,-4],[3,0],[3,3],[2,3],[2,-5],[1,-5],[3,-3],[5,-2],[4,-1],[1,-3],[1,-4],[-2,-4],[8,-4],[3,-1],[5,0],[3,-2],[2,-5],[3,-2],[5,3],[6,1],[6,-8],[9,-15],[-2,-3],[1,-2],[4,-2],[5,0],[0,-3],[-3,-2],[0,-2],[2,-3],[3,-3],[-3,-3],[0,-6],[2,-6],[4,-5],[-2,-1],[-1,-1],[-2,0],[2,-1],[1,-2],[2,-5],[-1,-3],[-1,-2],[-1,-2],[2,-6],[5,-10],[3,-7],[6,5],[2,2],[2,3],[3,-1],[3,2],[4,3],[0,-5],[-1,-2],[-1,-4],[2,-1],[0,-72]],[[2150,2723],[10,2],[6,0],[-4,-10],[-2,-2],[-9,-6],[-2,-1],[-5,-2],[-2,-4],[-2,-4],[-3,-3],[-5,-1],[-6,1],[-6,-1],[-2,-5],[-2,-6],[-3,-6],[-1,-4],[3,-3],[6,-1],[5,2],[6,3],[10,2],[3,0],[-2,-2],[-4,-5],[-3,-1],[-3,-1],[0,-1],[1,-5],[1,-1],[-5,0],[2,-4],[1,-1],[-6,-3],[-5,0],[-4,3],[-3,5],[-2,-5],[-3,-1],[-4,0],[-3,-2],[-1,-4],[3,-8],[-1,-4],[-3,-4],[1,-2],[2,-2],[1,-5],[2,0],[4,3],[5,0],[2,-6],[2,0],[0,4],[2,3],[4,2],[4,1],[-1,-4],[-1,0],[-1,-2],[3,-3],[0,-4],[-2,-3],[-3,-2],[0,-3],[3,-1],[3,-1],[3,1],[3,1],[-3,-8],[-6,0],[-6,3],[-4,1],[-3,-6],[4,-6],[6,-3],[8,2],[0,-3],[1,0],[0,-1],[-1,-1],[2,-3],[2,3],[-1,-5],[1,-4],[4,-1],[6,2],[-1,-3],[-1,-12],[1,1],[1,-1],[2,0],[1,-2],[-1,-3],[-1,0],[-2,1],[-1,-1],[0,-1],[0,-5],[0,-1],[-2,0],[-2,0],[-1,1],[0,1],[-2,-1],[-2,-2],[-2,-2],[1,-5],[-4,1],[-1,0],[-5,-1],[0,13],[-6,-4],[-1,-1],[2,5],[-2,2],[-3,0],[-2,0],[0,2],[-1,3],[-2,0],[0,-3],[-1,-1],[-1,-1],[0,-2],[-9,15],[-3,1],[-3,3],[-2,5],[-1,3],[-5,-1],[-6,0],[-3,3],[2,3],[-4,2],[-2,-1],[-2,0],[-4,-1],[-3,2],[0,3],[0,3],[0,2],[-6,2],[-9,-2],[-4,2],[-4,0],[-2,-4],[-4,-4],[-5,3],[-2,2],[0,5],[-2,2],[-3,0],[-3,0],[-1,-2],[-1,-1],[-4,4],[1,3],[8,15],[2,5],[0,3],[-11,-8],[-4,0],[-1,4],[0,8],[-2,7],[-3,0],[-5,0],[-3,4],[5,1],[4,2],[9,5],[-5,2],[-5,0],[-5,-1],[-3,1],[-2,3],[0,5],[0,10],[-8,-11],[-5,-4],[-2,4],[-1,7],[-1,6],[-6,10],[8,-2],[5,-1],[2,2],[1,4],[3,1],[4,-1],[3,-1],[2,-1],[2,0],[0,6],[-1,1],[-7,7],[-2,3],[8,4],[0,5],[-1,6],[6,5],[-4,2],[-4,-1],[-3,-3],[-2,-3],[0,3],[-1,1],[-1,1],[10,18],[-1,1],[-4,6],[1,0],[1,1],[0,2],[6,-3],[3,3],[1,5],[-1,2],[-4,3],[-4,5],[-1,5],[2,2],[3,-1],[9,-6],[4,0],[2,3],[-2,4],[0,3],[4,2],[-1,2],[-1,2],[1,2],[3,3],[1,2],[-3,1],[-3,-1],[-1,-1],[-4,3],[-3,4],[-1,4],[0,7],[3,0],[1,-3],[1,-3],[3,-1],[3,-1],[4,2],[0,2],[-2,3],[-1,1],[-1,3],[-2,4],[-1,4],[4,1],[0,3],[-2,2],[1,2],[1,1],[0,3],[-2,4],[-2,1],[0,-2],[-2,-1],[-4,1],[-3,4],[-1,5],[3,-2],[4,-1],[4,1],[3,2],[-8,5],[-7,8],[-1,6],[9,-1],[3,-4],[3,-4],[3,-4],[6,-1],[3,3],[-2,4],[-6,8],[2,0],[6,3],[-6,2],[-2,0],[3,6],[-2,3],[-5,2],[-5,3],[-2,4],[-1,4],[2,11],[3,0],[2,-2],[2,0],[3,-1],[-4,-8],[0,-2],[3,1],[6,4],[3,0],[2,-9],[1,-4],[4,-4],[8,7],[-3,8],[1,8],[7,12],[1,0],[1,0],[2,1],[1,3],[-1,0],[-2,2],[-1,1],[1,3],[4,4],[4,2],[3,2],[4,15],[6,6],[6,4],[3,6],[-1,9],[2,3],[3,1],[10,0],[5,-2],[4,-3],[-2,0],[-1,-1],[0,-1],[0,-2],[-7,0],[-4,-4],[-3,-4],[-1,-4],[-2,-2],[-3,-3],[-3,-5],[3,-6],[-4,-3],[-2,-2],[1,-9],[-1,-5],[-2,-2],[-4,-2],[-3,-2],[5,-3],[4,1],[3,2],[3,5],[3,-2],[2,-3],[2,-2],[1,-3],[-3,0],[-2,-1],[-1,-1],[-2,-1],[1,-2],[2,-5],[-11,3],[-5,1],[-2,-3],[0,-11],[-1,-4],[-4,-1],[1,-2],[1,-4],[1,-2],[-5,-1],[-5,-2],[-3,-3],[-2,-4],[3,0],[2,-1],[4,-4],[-6,-3],[-4,-5],[0,-4],[8,0],[-2,-2],[-2,-4],[-1,-2],[5,0],[4,2],[6,6],[-2,5],[1,5],[3,2],[5,-2],[23,15],[-4,-8],[-11,-11],[-2,-10],[-3,-8],[-11,-18],[1,-6],[0,-2],[-5,0],[-5,-1],[-4,-3],[-1,-5],[0,-2],[3,-7],[-1,-2],[-4,-5],[3,-12],[5,-1],[8,4],[8,4],[-1,-6],[-5,-7],[-1,-3],[3,-7],[-1,-4],[-4,-3],[-1,3],[-1,2],[-2,-1],[-2,-2],[-2,0],[-2,2],[-1,2],[-2,2],[-2,2],[-3,0],[-2,-7],[-3,0],[-4,2],[-5,2],[-5,-3],[-3,-6],[1,-8],[4,-5],[-3,-2],[-2,-3],[-2,-2],[-1,-3],[2,-1],[4,-1],[2,-1],[5,-4],[0,-1],[1,-1],[1,-2],[2,-1],[3,-1],[10,7],[-3,-13],[-3,-4],[-6,2],[-2,-4],[-1,-4],[1,-3],[4,-1],[-1,-2],[-1,-1],[-1,-1],[-2,-1],[3,-4],[5,-2],[5,1],[5,2],[0,-22],[-2,-3],[-2,-1],[-1,-3],[1,-2],[3,-2],[4,-1],[3,0],[4,-1],[2,-2],[2,-3],[1,-2],[3,1],[1,2],[0,9],[1,0],[1,1],[1,1],[0,2],[-1,2],[-2,1],[-1,1],[-1,1],[-1,1],[-7,3],[-2,2],[3,3],[2,4],[0,4],[0,4],[3,-5],[7,-2],[7,0],[6,2],[-6,13],[-7,8],[-2,4],[-1,5],[0,5],[8,-10],[3,-2],[6,-3],[1,1],[0,7],[-1,0],[-3,2],[-1,2],[1,1],[1,1],[6,4],[-2,4],[-3,1],[-8,3],[-4,-2],[0,4],[1,6],[-2,7],[4,3],[5,8],[4,4],[0,-10],[0,-5],[2,-3],[3,0],[1,6],[1,3],[0,4],[2,0],[4,-8],[1,-7],[2,-2],[13,20],[1,3],[-2,5],[-5,9],[-1,6],[2,4],[3,0],[4,-1],[3,-2],[3,-2],[3,-3],[1,-3],[1,-5],[-2,-18],[2,-7],[7,-2],[0,-2],[-8,-5],[-7,-7],[-4,-10],[2,-9],[2,3],[11,7],[4,3],[3,1],[2,2],[0,7],[8,0]],[[0,2439],[6,-3],[66,-23],[57,-32],[14,-9],[12,-13],[9,-18],[3,3],[3,2],[3,1],[6,0],[-9,-9],[-3,-8],[1,-9],[6,-10],[-4,1],[-3,2],[-2,2],[-1,3],[-3,-7],[7,-6],[47,-24],[74,-18],[11,-5],[11,-6],[5,-7],[-3,8],[-8,7],[-19,10],[0,3],[7,-1],[6,-2],[12,-8],[6,-4],[4,-5],[5,-4],[8,-2],[-2,-3],[-2,-2],[-3,1],[-3,2],[-1,-5],[3,-5],[7,-4],[14,-2],[6,-3],[20,-12],[15,-17],[25,-20],[4,-2],[6,-2],[6,-3],[6,-5],[3,-5],[1,-5],[-2,-4],[1,-4],[3,-3],[6,-4],[3,-2],[13,-14],[50,-42],[53,-51],[36,-21],[6,-9],[-1,-3],[-4,-6],[0,-3],[2,0],[11,-2],[1,-1],[5,-1],[6,-3],[6,-4],[4,-4],[3,-7],[4,-13],[3,-5],[42,-41],[7,-3],[9,-3],[7,-4],[5,-7],[-5,0],[5,-6],[6,-4],[6,-2],[12,-9],[12,-6],[6,-3],[21,-18],[13,-8],[16,-4],[-1,-2],[-1,-1],[6,-5],[8,-4],[9,-3],[11,-1],[8,-4],[4,0],[11,-6],[9,-6],[26,-21],[11,-6],[51,-19],[21,-12],[41,-29],[37,-13],[7,-2],[6,-2],[16,-18],[12,-4],[45,-6],[23,-9],[12,-1],[16,-5],[6,-2],[4,-3],[3,-2],[3,-2],[6,-1],[4,-1],[9,-7],[11,-4],[3,-4],[2,-5],[3,-4],[4,-3],[4,-3],[14,-6],[6,0],[2,-2],[1,-2],[2,-3],[3,-1],[25,0],[4,-1],[9,-3],[5,-1],[19,2],[1,0],[5,1],[16,-3],[9,-1],[7,2],[28,24],[20,11],[6,5],[4,2],[5,0],[3,0],[4,7],[5,3],[21,10],[27,3],[15,4],[23,14],[19,16],[11,13],[4,2],[8,2],[10,5],[36,3],[46,13],[6,4],[10,9],[6,2],[7,1],[39,10],[5,3],[2,5],[3,3],[100,33],[29,15],[19,7],[4,0],[3,3],[6,3],[41,13],[3,1],[80,12],[29,9],[-2,1],[-8,2],[10,7],[9,-5],[11,-2],[73,4],[15,5],[92,3],[-5,4],[-3,7],[-2,6],[-2,3],[-12,2],[-5,-1],[-5,-4],[-9,-3],[-22,13],[-13,-1],[-5,2],[0,-2],[6,-2],[2,-4],[3,-3],[7,1],[-2,-5],[-4,-1],[-5,1],[-4,3],[-5,-4],[-6,2],[-6,3],[-6,1],[-1,-1],[-4,-5],[-2,-1],[-3,-2],[-3,-1],[-3,0],[-4,0],[0,-3],[7,-1],[6,1],[7,0],[5,-5],[-14,-4],[-18,2],[-15,7],[-5,11],[5,-3],[0,4],[0,1],[3,0],[12,-18],[2,5],[5,15],[0,-7],[4,2],[9,5],[2,3],[0,3],[-5,-1],[-2,-1],[-2,-1],[-1,0],[-1,2],[-1,1],[-3,0],[1,1],[-1,3],[4,-2],[2,0],[-2,4],[0,4],[2,1],[4,-1],[3,0],[5,1],[7,-4],[6,-1],[4,4],[3,0],[0,-1],[1,-1],[2,-2],[2,-2],[11,3],[12,-2],[11,-5],[6,-6],[5,4],[6,4],[6,2],[20,2],[5,-1],[-5,-5],[2,-7],[0,-7],[3,-4],[10,0],[0,-3],[-1,0],[-3,0],[-1,0],[0,-2],[5,0],[19,0],[5,-1],[4,-2],[6,3],[33,3],[60,13],[113,10],[114,9],[-27,13],[4,-1],[4,1],[4,0],[3,2],[-11,4],[-45,-1],[-6,-1],[-9,-6],[-15,-2],[-8,-3],[-7,-1],[-7,3],[-4,-5],[-5,2],[-6,2],[-7,1],[-2,-4],[-3,-5],[-3,-2],[-2,6],[-10,-5],[-22,1],[-8,-4],[-2,0],[0,5],[-13,-3],[-2,-2],[1,-3],[3,-2],[5,0],[3,0],[-8,-3],[-4,0],[-5,1],[-2,0],[-1,2],[-2,2],[-4,0],[-11,0],[-6,0],[-7,-3],[-5,-1],[-3,0],[-1,3],[-2,2],[-4,-3],[-10,-2],[0,-3],[2,-4],[-4,-3],[-6,-1],[-7,1],[-5,1],[-4,2],[0,4],[2,5],[9,5],[13,6],[8,7],[-10,7],[9,0],[8,2],[6,5],[4,8],[3,0],[0,-4],[-1,-4],[-3,-3],[-4,-1],[0,-3],[4,0],[2,-2],[1,-2],[1,-3],[-6,0],[-4,1],[-3,0],[-4,-1],[1,-3],[3,-2],[3,-2],[2,-1],[3,0],[4,3],[6,3],[8,1],[7,-4],[8,6],[5,2],[7,2],[0,2],[-3,1],[-2,3],[0,3],[2,3],[4,-6],[2,-3],[2,-3],[26,-1],[6,-2],[-1,4],[-2,2],[-3,1],[-4,-2],[2,7],[5,2],[13,1],[0,-1],[-1,-1],[-1,0],[3,-5],[4,2],[4,3],[4,2],[3,-1],[5,-3],[4,-3],[3,-3],[3,4],[5,4],[3,6],[2,0],[4,-1],[2,-3],[5,4],[4,1],[9,-2],[-1,-2],[-1,-4],[0,-2],[5,-1],[5,2],[10,7],[2,-3],[3,-2],[2,0],[2,2],[5,-2],[4,1],[4,2],[5,2],[10,-6],[7,-1],[3,3],[3,1],[8,-2],[8,-4],[5,-3],[6,-2],[6,1],[6,4],[5,4],[-5,5],[-4,-2],[-7,-1],[-5,2],[-4,3],[4,1],[9,2],[4,-2],[4,-1],[4,0],[3,3],[4,-2],[3,2],[2,5],[1,5],[2,0],[0,-4],[0,-3],[1,-3],[2,-3],[1,2],[2,1],[2,2],[1,-5],[3,-4],[4,-2],[4,-1],[6,-1],[4,0],[3,-1],[5,-6],[2,0],[5,2],[6,-1],[6,0],[3,4],[-6,3],[-6,6],[-9,12],[-8,6],[-1,2],[2,3],[3,1],[3,-1],[2,-2],[4,2],[4,-1],[3,-2],[2,-3],[0,-5],[5,-12],[2,-5],[5,-2],[2,-3],[-5,-6],[-4,-2],[-9,2],[-6,0],[1,-2],[1,-4],[0,-2],[-13,7],[-8,3],[-4,-1],[-2,0],[-13,5],[-5,1],[0,-2],[2,-2],[0,-3],[-1,-2],[-2,-1],[-3,1],[-3,3],[-5,6],[-4,-5],[-7,-4],[-7,-1],[-7,3],[5,-9],[12,-3],[25,-3],[17,-9],[4,-1],[15,0],[7,-1],[5,-2],[2,0],[1,4],[2,6],[3,4],[4,4],[-3,-5],[4,-3],[1,-3],[-1,-2],[-1,-4],[1,-2],[3,-1],[12,-2],[17,-1],[92,-20],[24,-1],[13,11],[-5,1],[-5,1],[-2,3],[2,5],[-5,3],[-1,3],[3,1],[3,-2],[2,4],[2,3],[3,3],[3,3],[4,1],[6,-1],[3,2],[0,3],[-4,-1],[-4,1],[-4,0],[-3,2],[2,0],[-1,0],[-4,3],[3,2],[1,2],[0,3],[-1,3],[10,1],[3,5],[-2,8],[-4,8],[5,2],[7,5],[3,1],[4,0],[5,-2],[3,-1],[3,1],[3,2],[2,1],[1,1],[7,0],[4,-1],[2,-2],[1,-6],[-1,-7],[-2,-2],[-4,-1],[-5,-3],[-2,-4],[-1,-11],[-2,-5],[-2,-2],[-6,-5],[-4,-6],[3,-3],[6,-2],[7,-7],[5,-9],[3,-7],[6,3],[15,0],[7,3],[6,-5],[19,-9],[6,-2],[7,3],[5,5],[2,8],[-3,7],[10,0],[15,2],[12,-2],[1,-10],[-8,-4],[-13,-2],[-10,-4],[1,-10],[-4,-1],[-8,-4],[-5,0],[-2,1],[-4,7],[-2,2],[-8,2],[-26,0],[-4,0],[-4,-2],[-2,0],[-1,-1],[-5,1],[-6,5],[-3,2],[-1,-1],[-2,0],[-8,3],[-3,1],[-1,1],[0,3],[-1,2],[-3,2],[-10,2],[-6,-5],[-7,-6],[-2,-6],[5,-2],[36,-4],[16,-3],[6,-2],[50,-15],[53,-10],[47,-3],[60,-21],[62,-12],[38,-15],[2,-2],[1,-3],[1,-3],[2,-3],[3,-2],[8,-4],[15,-12],[4,-4],[-1,-1],[4,-1],[6,-1],[3,-1],[5,-1],[0,-3],[0,-5],[1,-3],[3,-3],[2,0],[10,0],[4,2],[26,3],[5,2],[5,6],[9,12],[6,5],[28,13],[25,7],[3,0],[3,1],[1,2],[-1,2],[1,3],[10,12],[5,3],[25,12],[1,2],[2,2],[1,3],[-2,6],[0,3],[5,3],[6,2],[6,-1],[6,-2],[6,5],[8,3],[26,3],[13,7],[6,2],[4,0],[8,0],[3,0],[4,2],[9,5],[4,1],[23,0],[8,2],[14,7],[8,4],[3,3],[4,5],[38,17],[6,1],[6,1],[4,4],[3,1],[1,-4],[2,-3],[4,0],[9,2],[9,1],[4,1],[2,3],[5,-5],[9,0],[27,4],[5,3],[9,11],[21,17],[5,2],[19,13],[3,-5],[6,2],[6,4],[2,3],[5,0],[25,6],[13,8],[5,5],[2,6],[3,4],[27,23],[4,2],[2,1],[17,2],[78,25],[6,1],[3,1],[2,2],[5,5],[2,1],[16,5]],[[2241,2315],[6,-1],[3,-6],[-3,-31],[-6,-5],[-14,10],[-22,27],[1,5],[-3,4],[-4,4],[3,7],[-1,1],[-2,2],[-2,2],[4,0],[1,-1],[15,-32],[8,-8],[3,3],[2,-3],[2,-4],[3,-3],[5,2],[2,5],[-1,6],[-4,5],[2,0],[1,2],[2,0],[-5,7],[4,2]],[[4096,2325],[-4,-2],[-6,8],[-2,10],[0,9],[-1,7],[-5,7],[-14,9],[-6,5],[-4,8],[-10,-2],[-13,6],[-12,8],[-10,4],[0,5],[-4,5],[-4,4],[-5,3],[1,2],[2,1],[-1,1],[-1,1],[-1,1],[0,2],[-7,-2],[-18,2],[-6,-2],[-4,2],[-6,6],[-12,14],[-8,4],[-16,6],[-4,0],[-12,0],[-4,1],[-3,3],[-2,3],[-3,3],[-2,-4],[-7,-3],[-3,-3],[-5,8],[0,2],[-3,0],[-3,0],[-3,0],[-1,4],[-1,0],[-2,7],[0,1],[-2,4],[-1,1],[-3,1],[-3,0],[0,2],[-1,2],[-1,0],[0,1],[-7,2],[-2,0],[-2,3],[-2,5],[-3,10],[5,-3],[1,1],[1,2],[0,1],[0,1],[2,-5],[3,-2],[3,1],[2,4],[3,0],[0,-2],[1,-1],[1,-1],[0,-2],[8,1],[7,-8],[5,-10],[5,-5],[3,5],[4,-2],[5,-2],[3,6],[0,8],[-1,9],[0,6],[6,5],[0,-14],[1,-4],[4,-4],[0,-4],[1,-14],[1,-5],[3,-5],[3,0],[4,-1],[7,-4],[8,-1],[3,8],[3,0],[3,-5],[2,-3],[3,-1],[3,-1],[2,3],[-2,5],[-4,9],[0,5],[-3,9],[1,5],[2,4],[10,13],[8,-29],[3,-16],[-1,-15],[4,2],[6,6],[4,2],[5,1],[2,1],[2,2],[3,1],[3,-2],[2,-2],[3,-3],[4,-1],[4,2],[2,4],[1,5],[0,4],[2,0],[4,-2],[2,0],[0,5],[2,0],[5,-9],[3,-2],[5,1],[2,-3],[2,-4],[-2,-2],[-3,-2],[-2,-3],[0,-12],[2,-2],[6,-6],[2,-1],[3,-1],[2,-1],[4,0],[4,2],[0,-8],[1,0],[1,1],[2,2],[2,-1],[1,-1],[1,0],[2,2],[0,-1],[1,-1],[1,-1],[13,4],[5,11],[-1,28],[6,-4],[2,-1],[-2,7],[0,8],[-10,1],[-6,1],[-4,3],[-3,3],[3,2],[5,0],[2,2],[-3,3],[-4,2],[-4,2],[-1,6],[2,0],[3,-4],[4,-1],[4,1],[4,4],[-2,1],[-1,1],[-1,2],[-1,1],[5,0],[0,3],[-3,0],[0,2],[4,1],[2,2],[0,3],[-1,4],[3,0],[2,-2],[1,-2],[1,-3],[1,-3],[4,-5],[1,-1]],[[4096,2530]],[[4096,2632],[0,1],[0,4],[0,2]],[[4096,2750],[-1,1],[-6,2],[-2,-1],[-1,-1],[-2,1],[-3,1],[-3,-2],[-9,2],[-5,0],[14,-19],[5,-10],[-7,-3],[0,6],[-4,6],[-6,4],[-4,0],[-7,-6],[-4,-2],[-4,-1],[-1,1],[2,3],[4,3],[2,1],[-1,7],[-6,5],[-6,4],[-6,5],[-5,1],[-7,-3],[-12,-7],[0,3],[-2,2],[-2,2],[-3,1],[0,2],[3,0],[6,0],[3,0],[-1,2],[-1,4],[0,2],[4,-1],[2,0],[1,-2],[3,0],[2,8],[3,0],[1,-6],[4,-2],[12,0],[-1,3],[-1,2],[5,5],[2,-5],[4,-3],[4,-1],[5,2],[0,-2],[2,-3],[3,0],[1,1],[1,0],[3,-1],[2,2],[-1,3],[0,1],[0,1],[1,3],[2,0],[1,-3],[0,-2],[1,-1],[1,-2],[2,5],[4,-5],[4,0],[3,2],[2,0]],[[4096,2776],[-5,9],[-3,4],[-6,2],[-5,0],[-1,2],[0,2],[0,3],[1,0],[-1,3],[-2,4],[-3,2],[-7,-1],[-7,-4],[-3,-4],[-3,0],[-1,5],[-3,1],[-4,-2],[-2,-4],[-3,1],[-1,1],[-1,1],[-5,-2],[-16,7],[-9,-3],[3,0],[7,-2],[-2,-2],[-2,-3],[-6,-3],[-8,4],[-7,-3],[-6,-4],[-4,3],[-2,0],[-5,-2],[-32,-1],[-6,-3],[-6,-6],[-4,-8],[-1,3],[0,2],[-1,2],[0,3],[-2,-1],[-4,-1],[-3,0],[-1,1],[-1,4],[-4,-1],[-3,-3],[-1,-1],[-1,-2],[-9,-11],[-4,-2],[0,2],[-1,2],[0,1],[-1,2],[-3,-3],[-4,-2],[-12,0],[-5,-2],[-4,-4],[-5,-2],[-5,3],[5,7],[7,3],[25,0],[3,2],[4,2],[4,4],[0,1],[-1,1],[0,2],[1,3],[2,2],[2,1],[2,2],[1,3],[3,0],[2,-2],[1,0],[1,0],[3,2],[3,-4],[4,-1],[4,2],[2,4],[3,0],[6,1],[6,2],[5,3],[-2,2],[-1,2],[0,6],[3,0],[9,-8],[6,-3],[5,6],[13,-5],[10,4],[8,9],[11,5],[0,2],[-4,0],[-4,1],[-4,2],[-3,3],[5,1],[11,-1],[4,2],[3,-3],[4,-2],[4,-2],[3,-1],[2,-1],[1,-2],[2,-1],[4,2],[-5,6],[2,3],[4,3],[-1,6],[16,-4],[8,0],[3,7],[-5,2],[-22,1],[-8,4],[4,-1],[3,1],[6,2],[-3,4],[-3,2],[-7,4],[6,1],[8,0],[6,3],[-2,6],[-8,-1],[-6,3],[-2,5],[6,6],[-3,2],[1,12],[-2,5],[1,2],[-1,1],[-2,0],[-3,-1],[-5,-3],[-1,-1],[-4,3],[9,14],[2,8],[-2,-1],[-6,-2],[-2,-2],[0,5],[-6,0],[-7,5],[-5,7],[-2,7],[-3,5],[-16,15],[-6,4],[0,-5],[2,-8],[1,-6],[-9,-19],[-1,-1],[0,-5],[-2,-1],[-2,1],[-3,1],[-3,0],[-23,-5],[-1,-1],[0,-2],[-2,-2],[-2,0],[-2,2],[0,2],[1,3],[3,1],[6,1],[11,5],[5,1],[9,5],[2,10],[-4,9],[-6,-1],[-5,3],[-5,7],[-5,2],[-5,1],[-5,0],[-6,-1],[-4,-2],[-7,-7],[-12,-21],[-8,-7],[2,5],[1,10],[2,5],[2,3],[7,6],[1,2],[0,10],[-1,9],[-5,8],[-9,7],[1,-17],[-3,-6],[-15,-4],[-14,-8],[-7,-3],[0,3],[4,3],[5,6],[1,6],[-6,3],[-1,-2],[-10,-6],[-4,-1],[-6,-1],[-4,-2],[-3,0],[-2,1],[-3,3],[0,1],[-2,1],[-2,-2],[-4,-5],[-5,5],[1,6],[5,6],[7,3],[11,-7],[8,2],[9,6],[11,4],[4,-1],[2,-2],[3,-2],[4,2],[0,2],[2,10],[0,1],[-3,4],[-6,1],[-13,0],[1,10],[-18,9],[-3,11],[-3,0],[-2,0],[-5,0],[-3,0],[-1,2],[1,4],[-2,4],[-4,2],[-5,1],[-22,0],[-6,2],[-1,3],[5,2],[18,-2],[8,1],[2,1],[-5,8],[-10,22],[-4,6],[-20,22],[-5,3],[-6,2],[2,7],[-2,5],[-3,5],[-3,13],[-3,6],[-4,4],[-5,3],[-1,2],[0,1],[-1,1],[-4,1],[-3,1],[-6,3],[-3,1],[-3,1],[-4,4],[-5,3],[-6,2],[-5,1],[-4,1],[-5,0],[-7,-2],[-11,-5],[-5,-4],[-1,-5],[2,-11],[4,-11],[0,-9],[-9,-8],[0,15],[-9,30],[-3,5],[-7,-2],[-16,2],[-6,-1],[-4,-2],[-2,2],[0,4],[0,4],[-2,2],[-11,4],[-14,13],[-3,3],[-4,2],[-26,0],[-7,-3],[-5,-5],[-2,-6],[-1,-8],[-3,-4],[-7,-5],[-12,-7],[-3,0],[-1,0],[-1,2],[-3,0],[-13,0],[-10,5],[-6,-1],[-13,-12],[-3,-2],[-5,0],[14,19],[9,5],[12,-6],[3,2],[8,-1],[4,1],[14,-3],[7,9],[4,13],[4,7],[3,1],[9,5],[5,1],[13,1],[5,2],[3,5],[1,-2],[3,-4],[1,-2],[3,7],[-1,6],[-2,12],[5,-5],[1,-4],[2,-14],[3,-6],[6,-7],[6,-3],[7,1],[8,-11],[4,-5],[6,-4],[6,-1],[8,0],[54,9],[3,1],[1,3],[2,0],[11,-9],[0,14],[-1,6],[-4,3],[4,3],[-3,4],[-7,3],[-4,2],[-5,1],[-35,3],[-6,2],[3,4],[5,0],[23,-2],[-7,9],[-21,26],[-3,8],[-1,10],[0,10],[2,9],[5,-12],[9,19],[1,7],[-1,8],[-3,12],[-1,7],[8,-5],[7,-8],[4,-11],[1,-12],[-4,-8],[-13,-13],[-3,-10],[3,-6],[15,-25],[6,-2],[9,-9],[5,-2],[3,3],[6,20],[0,-19],[1,-10],[4,-7],[3,3],[3,-6],[1,-5],[1,-13],[0,-6],[3,-6],[3,-5],[4,-4],[11,-5],[6,-4],[3,-5],[1,-3],[2,-2],[3,-1],[1,-1],[1,-5],[1,-2],[1,-2],[2,-3],[2,-6],[1,-2],[2,-2],[4,0],[1,2],[1,3],[3,4],[13,10],[3,6],[-3,8],[-4,4],[-6,3],[-5,4],[-2,5],[1,5],[1,2],[2,2],[5,0],[2,1],[2,4],[4,12],[1,4],[-1,4],[9,-7],[-4,-10],[-14,-16],[14,-1],[6,-9],[5,-10],[7,-7],[0,6],[1,6],[3,5],[6,3],[-3,-12],[1,-6],[4,-2],[-7,-7],[-11,-3],[-10,-4],[-6,-15],[-5,-2],[-5,-2],[-3,-2],[0,-6],[2,-5],[4,-3],[15,-5],[7,-8],[9,-18],[2,-2],[6,-4],[2,-2],[1,-3],[2,-1],[9,-2],[4,-2],[2,1],[2,7],[2,-4],[0,-7],[1,-4],[2,-2],[3,-2],[3,-2],[3,-6],[4,-1],[3,-1],[2,-5],[2,-4],[4,1],[4,2],[2,2],[3,0],[0,-6],[-4,-4],[-3,-4],[-3,-6],[10,-8],[6,0],[4,8],[0,-9],[1,-4],[1,-4],[7,2],[3,3],[0,5],[4,-3],[9,-7],[3,2],[4,0],[2,-1],[1,-4],[7,3],[3,5],[0,6],[0,5],[-1,2],[-3,1],[-1,2],[1,2],[3,2],[8,1],[3,1],[3,-3],[2,-3],[3,-3],[4,-1],[3,2],[2,2],[0,4],[0,5],[5,-3],[6,-1],[9,-1],[2,-1],[3,-3],[3,-1],[-1,1],[3,2],[3,1],[2,1],[-3,-7],[14,-3],[4,-7],[-2,-9],[-12,7],[-6,-6],[-8,5],[-5,2],[-2,-4],[-3,-2],[-6,0],[-7,3],[-4,3],[0,-11],[-2,-12],[5,3],[4,-4],[3,0],[3,3],[2,3],[2,-5],[1,-5],[3,-3],[5,-2],[4,-1],[1,-3],[1,-4],[-2,-4],[8,-4],[3,-1],[5,0],[3,-2],[2,-5],[3,-2],[5,3],[6,1],[6,-8],[9,-15],[-2,-3],[1,-2],[4,-2],[5,0],[0,-3],[-3,-2],[0,-2],[2,-3],[3,-3],[-3,-3],[0,-6],[2,-6],[4,-5],[-2,-1],[-1,-1],[-2,0],[2,-1],[1,-2],[2,-5],[-1,-3],[-1,-2],[-1,-2],[2,-6],[5,-10],[3,-7],[6,5],[2,2],[2,3],[3,-1],[3,2],[4,3]],[[4096,2855],[-1,-2],[-1,-4],[2,-1]],[[4096,2471],[-1,-3],[1,-4]],[[2150,2723],[10,2],[6,0],[-4,-10],[-2,-2],[-9,-6],[-2,-1],[-5,-2],[-2,-4],[-2,-4],[-3,-3],[-5,-1],[-6,1],[-6,-1],[-2,-5],[-2,-6],[-3,-6],[-1,-4],[3,-3],[6,-1],[5,2],[6,3],[10,2],[3,0],[-2,-2],[-4,-5],[-3,-1],[-3,-1],[0,-1],[1,-5],[1,-1],[-5,0],[2,-4],[1,-1],[-6,-3],[-5,0],[-4,3],[-3,5],[-2,-5],[-3,-1],[-4,0],[-3,-2],[-1,-4],[3,-8],[-1,-4],[-3,-4],[1,-2],[2,-2],[1,-5],[2,0],[4,3],[5,0],[2,-6],[2,0],[0,4],[2,3],[4,2],[4,1],[-1,-4],[-1,0],[-1,-2],[3,-3],[0,-4],[-2,-3],[-3,-2],[0,-3],[3,-1],[3,-1],[3,1],[3,1],[-3,-8],[-6,0],[-6,3],[-4,1],[-3,-6],[4,-6],[6,-3],[8,2],[0,-3],[1,0],[0,-1],[-1,-1],[2,-3],[2,3],[-1,-5],[1,-4],[4,-1],[6,2],[-1,-3],[-1,-12],[1,1],[1,-1],[2,0],[1,-2],[-1,-3],[-1,0],[-2,1],[-1,-1],[0,-1],[0,-5],[0,-1],[-2,0],[-2,0],[-1,1],[0,1],[-2,-1],[-2,-2],[-2,-2],[1,-5],[-4,1],[-1,0],[-5,-1],[0,13],[-6,-4],[-1,-1],[2,5],[-2,2],[-3,0],[-2,0],[0,2],[-1,3],[-2,0],[0,-3],[-1,-1],[-1,-1],[0,-2],[-9,15],[-3,1],[-3,3],[-2,5],[-1,3],[-5,-1],[-6,0],[-3,3],[2,3],[-4,2],[-2,-1],[-2,0],[-4,-1],[-3,2],[0,3],[0,3],[0,2],[-6,2],[-9,-2],[-4,2],[-4,0],[-2,-4],[-4,-4],[-5,3],[-2,2],[0,5],[-2,2],[-3,0],[-3,0],[-1,-2],[-1,-1],[-4,4],[1,3],[8,15],[2,5],[0,3],[-11,-8],[-4,0],[-1,4],[0,8],[-2,7],[-3,0],[-5,0],[-3,4],[5,1],[4,2],[9,5],[-5,2],[-5,0],[-5,-1],[-3,1],[-2,3],[0,5],[0,10],[-8,-11],[-5,-4],[-2,4],[-1,7],[-1,6],[-6,10],[8,-2],[5,-1],[2,2],[1,4],[3,1],[4,-1],[3,-1],[2,-1],[2,0],[0,6],[-1,1],[-7,7],[-2,3],[8,4],[0,5],[-1,6],[6,5],[-4,2],[-4,-1],[-3,-3],[-2,-3],[0,3],[-1,1],[-1,1],[10,18],[-1,1],[-4,6],[1,0],[1,1],[0,2],[6,-3],[3,3],[1,5],[-1,2],[-4,3],[-4,5],[-1,5],[2,2],[3,-1],[9,-6],[4,0],[2,3],[-2,4],[0,3],[4,2],[-1,2],[-1,2],[1,2],[3,3],[1,2],[-3,1],[-3,-1],[-1,-1],[-4,3],[-3,4],[-1,4],[0,7],[3,0],[1,-3],[1,-3],[3,-1],[3,-1],[4,2],[0,2],[-2,3],[-1,1],[-1,3],[-2,4],[-1,4],[4,1],[0,3],[-2,2],[1,2],[1,1],[0,3],[-2,4],[-2,1],[0,-2],[-2,-1],[-4,1],[-3,4],[-1,5],[3,-2],[4,-1],[4,1],[3,2],[-8,5],[-7,8],[-1,6],[9,-1],[3,-4],[3,-4],[3,-4],[6,-1],[3,3],[-2,4],[-6,8],[2,0],[6,3],[-6,2],[-2,0],[3,6],[-2,3],[-5,2],[-5,3],[-2,4],[-1,4],[2,11],[3,0],[2,-2],[2,0],[3,-1],[-4,-8],[0,-2],[3,1],[6,4],[3,0],[2,-9],[1,-4],[4,-4],[8,7],[-3,8],[1,8],[7,12],[1,0],[1,0],[2,1],[1,3],[-1,0],[-2,2],[-1,1],[1,3],[4,4],[4,2],[3,2],[4,15],[6,6],[6,4],[3,6],[-1,9],[2,3],[3,1],[10,0],[5,-2],[4,-3],[-2,0],[-1,-1],[0,-1],[0,-2],[-7,0],[-4,-4],[-3,-4],[-1,-4],[-2,-2],[-3,-3],[-3,-5],[3,-6],[-4,-3],[-2,-2],[1,-9],[-1,-5],[-2,-2],[-4,-2],[-3,-2],[5,-3],[4,1],[3,2],[3,5],[3,-2],[2,-3],[2,-2],[1,-3],[-3,0],[-2,-1],[-1,-1],[-2,-1],[1,-2],[2,-5],[-11,3],[-5,1],[-2,-3],[0,-11],[-1,-4],[-4,-1],[1,-2],[1,-4],[1,-2],[-5,-1],[-5,-2],[-3,-3],[-2,-4],[3,0],[2,-1],[4,-4],[-6,-3],[-4,-5],[0,-4],[8,0],[-2,-2],[-2,-4],[-1,-2],[5,0],[4,2],[6,6],[-2,5],[1,5],[3,2],[5,-2],[23,15],[-4,-8],[-11,-11],[-2,-10],[-3,-8],[-11,-18],[1,-6],[0,-2],[-5,0],[-5,-1],[-4,-3],[-1,-5],[0,-2],[3,-7],[-1,-2],[-4,-5],[3,-12],[5,-1],[8,4],[8,4],[-1,-6],[-5,-7],[-1,-3],[3,-7],[-1,-4],[-4,-3],[-1,3],[-1,2],[-2,-1],[-2,-2],[-2,0],[-2,2],[-1,2],[-2,2],[-2,2],[-3,0],[-2,-7],[-3,0],[-4,2],[-5,2],[-5,-3],[-3,-6],[1,-8],[4,-5],[-3,-2],[-2,-3],[-2,-2],[-1,-3],[2,-1],[4,-1],[2,-1],[5,-4],[0,-1],[1,-1],[1,-2],[2,-1],[3,-1],[10,7],[-3,-13],[-3,-4],[-6,2],[-2,-4],[-1,-4],[1,-3],[4,-1],[-1,-2],[-1,-1],[-1,-1],[-2,-1],[3,-4],[5,-2],[5,1],[5,2],[0,-22],[-2,-3],[-2,-1],[-1,-3],[1,-2],[3,-2],[4,-1],[3,0],[4,-1],[2,-2],[2,-3],[1,-2],[3,1],[1,2],[0,9],[1,0],[1,1],[1,1],[0,2],[-1,2],[-2,1],[-1,1],[-1,1],[-1,1],[-7,3],[-2,2],[3,3],[2,4],[0,4],[0,4],[3,-5],[7,-2],[7,0],[6,2],[-6,13],[-7,8],[-2,4],[-1,5],[0,5],[8,-10],[3,-2],[6,-3],[1,1],[0,7],[-1,0],[-3,2],[-1,2],[1,1],[1,1],[6,4],[-2,4],[-3,1],[-8,3],[-4,-2],[0,4],[1,6],[-2,7],[4,3],[5,8],[4,4],[0,-10],[0,-5],[2,-3],[3,0],[1,6],[1,3],[0,4],[2,0],[4,-8],[1,-7],[2,-2],[13,20],[1,3],[-2,5],[-5,9],[-1,6],[2,4],[3,0],[4,-1],[3,-2],[3,-2],[3,-3],[1,-3],[1,-5],[-2,-18],[2,-7],[7,-2],[0,-2],[-8,-5],[-7,-7],[-4,-10],[2,-9],[2,3],[11,7],[4,3],[3,1],[2,2],[0,7],[8,0]],[[1573,2388],[-2,-2],[0,-2],[3,-6],[-1,-2],[-1,-1],[-15,-3],[-5,-2],[-4,-4],[7,-6],[0,-5],[-4,-4],[-3,-6],[1,-12],[-1,-5],[-2,-4],[-11,-3],[-1,-1],[-1,-4],[1,-3],[3,-5],[-2,-7],[-4,-10],[-4,3],[-6,1],[-13,-2],[-2,-1],[-2,-2],[-1,-1],[-6,3],[-3,-2],[-1,-3],[1,-4],[-3,2],[-4,5],[-2,1],[-4,-1],[-4,-3],[-3,-1],[-6,-1],[1,15],[1,3],[2,3],[2,-2],[1,5],[-2,1],[-5,0],[-4,1],[-3,4],[-2,4],[-3,3],[-5,-3],[-3,1],[-2,3],[-2,2],[1,3],[3,3],[-3,1],[-3,0],[-2,-1],[-5,2],[-6,4],[-4,6],[-1,6],[-8,-1],[-2,4],[-2,6],[-3,3],[-7,-1],[-8,-2],[-7,0],[-3,7],[-1,5],[-2,1],[-3,-1],[-3,0],[-1,4],[1,4],[3,3],[1,4],[-1,9],[-2,6],[-4,3],[-6,3],[0,3],[14,-3],[8,-12],[4,-14],[7,-9],[3,-1],[2,0],[2,1],[8,2],[2,2],[1,2],[3,3],[4,2],[1,-3],[1,-5],[0,-4],[1,-1],[2,0],[4,0],[1,-1],[0,-3],[-2,-2],[0,-2],[4,-5],[15,-7],[4,0],[6,2],[4,1],[1,-2],[0,-13],[0,-3],[1,-4],[1,-2],[2,-1],[4,-1],[1,1],[2,2],[2,2],[2,0],[1,-1],[2,-3],[1,-1],[0,-3],[2,-6],[5,-4],[9,3],[2,3],[6,15],[0,3],[-2,6],[-1,2],[1,2],[2,1],[1,2],[1,3],[1,6],[2,5],[5,4],[6,1],[1,-2],[-1,-6],[0,-6],[3,-4],[-1,-5],[-1,-6],[2,-4],[5,3],[3,5],[0,6],[-2,6],[-1,5],[1,3],[4,4],[1,2],[-1,4],[-2,0],[-3,-1],[-2,1],[-1,0],[-3,2],[-2,2],[2,1],[6,0],[2,-1],[1,-2],[7,5],[-2,6],[-7,4],[-6,1],[-10,-6],[-3,1],[4,7],[10,6],[1,3],[-9,1],[-4,-1],[-3,-2],[-3,-1],[-5,2],[-2,2],[-2,3],[-1,3],[0,4],[7,-3],[7,-2],[6,1],[3,5],[1,5],[2,1],[3,0],[3,1],[2,0],[5,-1],[1,1],[0,1],[0,2],[-1,2],[-1,0],[1,2],[1,3],[2,2],[4,0],[2,2],[-2,3],[-5,4],[1,1],[1,9],[-1,5],[-1,5],[-1,4],[6,-2],[1,-1],[-6,17],[-1,5],[-1,4],[-4,2],[-4,2],[-4,3],[2,4],[-9,10],[-2,7],[1,6],[6,7],[0,6],[-7,11],[-3,7],[1,6],[8,13],[4,6],[4,0],[0,-8],[-4,-15],[-1,-7],[1,-4],[2,-3],[2,-2],[0,-1],[0,-4],[-2,-11],[1,-10],[4,-3],[5,-2],[5,-3],[3,-6],[1,-7],[3,-4],[8,5],[3,-6],[-4,-6],[0,-6],[2,-6],[2,-8],[-1,-3],[-2,-3],[-1,-3],[2,-3],[4,-2],[5,-1],[3,-1],[2,-5],[-11,-8],[-6,-14],[0,-12],[9,1],[-1,-7],[2,-2],[3,-1],[6,-4],[2,1],[1,-1],[0,-3],[-8,-4]],[[2531,4092],[1,1]],[[2585,4092],[3,0],[16,4]],[[90,4096],[10,-6],[16,5],[3,0]],[[2532,4093],[11,2],[18,-3],[16,-2],[8,2]],[[3681,4096],[-1,-6]],[[2124,4096],[6,-10],[9,-5],[11,-10]],[[2150,4071],[7,-9],[11,-6],[13,-3],[17,-8],[13,0],[14,0],[9,3],[6,-1],[9,-6],[7,-2],[14,-12],[9,-5],[9,-1],[22,0]],[[2310,4021],[9,0],[9,1],[12,8],[5,8],[13,18],[8,4],[12,-3],[7,0],[20,8],[15,3],[12,0],[13,3],[21,7],[9,0],[29,6],[7,3],[20,5]],[[2963,4004],[-24,3],[-18,6],[-4,0],[-6,-3]],[[3085,4045],[-4,0],[-9,-6],[-8,0],[-7,-12],[-3,-3],[-18,-2],[-32,-10],[-12,-2],[-9,2],[-6,-5],[-14,-3]],[[2911,4010],[-8,-4],[-13,-5],[-12,-1],[-11,6],[-10,-3],[-32,-9],[-12,0],[-9,-5],[-6,0],[-13,8],[-23,4],[-12,0],[-10,3],[-15,0],[-14,-3],[-15,-9],[-6,0],[-7,3],[-8,6],[-7,3],[-12,3],[-6,3],[-11,11],[-10,9],[-14,18],[-24,24],[-6,9],[0,11]],[[3680,4090],[19,-9],[8,-6],[15,3],[12,-3],[10,-7],[23,-6],[6,-6],[1,-9],[9,-6],[3,-13],[5,-9],[7,-10],[5,-9],[0,-5],[-2,-9],[-13,-29],[-2,-7]],[[119,4095],[-7,-6],[-15,-24],[-9,-12],[-9,-17],[-5,-12],[0,-17],[3,-10],[5,-9],[4,-6],[6,-2],[17,-1],[-14,-9],[-3,-7],[-9,-9],[-9,-4],[-16,-6],[-8,-6]],[[2531,4092],[-5,-5],[-4,-10],[-6,-18],[-9,-17],[-9,-11],[-14,-6],[-15,-12],[-15,-15],[-12,-10],[-18,-12],[-16,-14],[-8,-8],[-10,-4],[-3,-6],[-2,-12],[-7,-14],[-3,-15]],[[930,3894],[3,3],[6,5],[17,3],[12,7],[7,8],[6,3],[5,4],[7,17],[5,7],[0,9],[3,5],[7,3],[5,6],[3,8],[9,6],[10,3],[8,4],[7,12],[11,11],[12,9],[22,8],[9,3],[-1,18],[-3,16],[18,9],[10,11],[12,4]],[[2375,3903],[-2,-4],[-7,-5],[-3,-6]],[[3786,3950],[-4,-9],[-2,-9],[0,-14],[5,-24],[1,-14],[5,-9],[9,-12],[4,-13],[3,-14]],[[709,3802],[3,0],[8,-3],[9,1],[4,6],[-1,6],[4,3],[9,2],[6,4],[3,13],[5,6],[7,6],[8,4],[11,5],[7,0],[17,-6],[10,1],[12,8],[15,4],[6,3],[9,3],[14,0],[10,5],[12,3],[6,1],[15,2],[5,3],[7,12]],[[3186,3688],[-5,10],[-9,28],[-1,9],[-5,18],[-7,13],[-15,15],[-6,9],[-8,6],[-6,7],[-12,3],[-18,23],[-19,14],[-8,12],[-13,9],[-3,4],[-6,20],[-2,15],[3,17],[2,6],[4,9],[21,21],[9,7],[9,10],[0,4],[-1,15],[1,12],[5,17]],[[101,3914],[5,-5],[0,-12],[4,-6],[15,-3],[8,-8],[13,-9],[3,-6],[-1,-15],[9,-18],[3,-5],[6,-12],[0,-4],[-9,-17],[-2,-9],[3,-9],[6,-9],[14,-9],[0,-12],[3,-11],[0,-18],[4,-21],[0,-11],[0,-12]],[[2363,3888],[1,-5],[-1,-19],[1,-8],[0,-12],[-1,-6],[-8,-12],[-3,-11],[-7,-16],[-5,-6],[-12,-12],[-16,-9],[-8,-11],[-4,-14],[-9,-6],[-23,-4],[-10,-9],[-11,-6],[-7,-8],[-6,-4],[-15,-8],[-12,-3],[-2,-1],[3,-11],[3,-14],[5,-18]],[[2216,3655],[1,-9],[0,-15],[-1,-21],[1,-9],[5,-21],[0,-9],[-5,-10],[-6,-21],[-3,-12],[-3,-12]],[[1737,3489],[15,1],[28,-3],[9,-1],[12,0],[6,1],[14,0],[10,-1],[12,1],[14,-4],[13,-3],[20,3],[7,3],[15,9],[14,5],[13,0],[15,1],[9,-3],[11,-8],[6,-1],[4,3]],[[1372,4096],[1,-3],[11,-15],[6,-12],[1,-15],[-1,-12],[-2,-9],[0,-9],[9,-24],[14,-14],[12,-21],[3,-8],[-2,-13],[-4,-14],[-8,-12],[-12,-12],[-6,-11],[-4,-21],[0,-9],[-2,-13],[-3,-14],[-10,-15],[-3,-11],[-3,-4],[-8,-8],[-4,-6],[-3,-18],[-3,-9],[-8,-12],[-1,-5],[4,-10],[-1,-20],[6,-18],[1,-11],[-1,-9],[-6,-15],[-2,-7],[5,-18],[-2,-11],[-4,-15],[-2,-14],[-6,-12],[-12,-13],[-1,-6],[-2,-29],[3,-9],[2,-15],[13,-23],[5,-12]],[[1342,3480],[16,3],[17,-3],[15,1],[36,16],[4,1],[6,5],[5,1],[4,-1],[5,1],[10,-3],[14,8],[24,3],[6,4],[10,2],[8,-3],[10,1],[5,3],[22,2],[9,0],[12,-6],[8,1],[30,-6],[9,0],[6,6],[3,0],[27,-10],[18,-6],[11,-7],[13,-1],[15,0],[17,-3]],[[2044,3465],[8,7],[7,3],[29,5],[21,6],[6,3],[9,12],[6,6],[9,5],[15,4],[14,3],[15,-3],[19,-1],[3,1]],[[1984,3492],[14,-5],[13,-6],[12,-9],[17,-7],[4,0]],[[3807,3832],[2,-15],[0,-12],[-3,-20],[-9,-18],[-2,-9],[-1,-14],[3,-7],[4,-15],[2,-11],[-3,-29],[-2,-13],[-4,-20],[-5,-10],[-9,-17],[-1,-12],[4,-17],[11,-15],[3,-13],[0,-11],[-2,-9],[0,-18],[-3,-29],[-4,-32],[0,-9],[1,-10]],[[3789,3447],[5,-6],[6,-5],[10,-3],[6,-3]],[[4094,3454],[-12,-4],[-13,-5],[-11,-3],[-4,0],[-9,9],[-6,0],[-14,-6],[-7,-1],[-18,1],[-8,-3],[-13,2],[-15,9],[-8,0],[-10,-9],[-17,-3],[-42,-11],[-24,-2],[-11,4],[-22,-2],[-14,0]],[[421,3421],[-4,12],[-14,9],[-12,-3],[-13,3],[-11,12],[-4,3],[-20,11],[-12,12],[-4,1],[-5,0],[-7,5],[-16,4],[-16,0],[-8,-3],[-6,6],[-7,19],[-5,6],[-1,13],[-11,20],[-9,4],[-9,6],[-3,5],[5,9],[1,11],[0,6],[-4,10],[-2,9],[-3,6],[-7,6],[-6,6],[-2,14],[-1,5],[-8,4],[-4,9],[-6,6],[-2,6]],[[4096,3454],[-2,0]],[[3214,3392],[5,6],[0,9],[-3,8],[-8,17],[-1,7],[1,12],[9,17],[3,10],[2,9],[0,13],[-3,6],[-8,7],[-10,24],[-8,11],[-1,4],[-2,16],[0,15],[3,6],[5,7],[3,11],[3,16],[0,14],[-2,14],[-6,18],[-10,19]],[[2202,3510],[-7,-15],[-8,-23],[-1,-9],[1,-6],[3,-16],[12,-26],[2,-5],[0,-12],[7,-22]],[[709,3802],[-6,-2],[-13,0],[-5,-3],[-1,-10],[0,-14],[-8,-11],[-7,-18],[-6,-4],[0,-5],[1,-9],[0,-7],[-4,-6],[-18,-15],[-6,-7],[-9,-15],[-8,-12],[-1,-21],[-5,-9],[5,-15],[-27,0],[-6,0],[-8,-6],[-15,-9],[-4,-5],[-9,-24],[-8,-18],[0,-11],[-21,-21],[-7,-10],[-5,-11],[-9,-12],[-4,-6],[-9,-23],[-6,-9],[-3,-21],[-6,-5],[-5,-1],[-6,-9],[-4,-17],[-9,-9],[-11,-13],[-19,-12]],[[3198,3305],[-3,7],[-3,17],[1,13],[0,9],[5,14],[6,12],[10,15]],[[417,3367],[4,-22],[-1,-9],[3,-15],[-3,-16],[-3,-6],[-5,-3],[-1,-5],[1,-6],[-4,-11],[-5,-6],[-4,-3],[-8,-6],[-3,-9],[0,-12],[6,-12],[9,-8],[3,-6],[2,-9],[1,-4],[0,-14],[-1,-7],[0,-28],[-6,-12],[-2,-3]],[[3816,3430],[11,-11],[13,-6],[11,-10],[10,-5],[9,-10],[2,-6],[9,-9],[1,-6],[2,-13],[10,-15],[5,-18],[13,-25],[2,-16],[4,-15],[5,-7],[3,-14],[-2,-6],[-9,-15],[-1,-8],[1,-7],[-1,-9],[-2,-12],[-3,-20],[-1,-12],[0,-14],[0,-7]],[[400,3135],[-10,-7],[-12,-3],[-11,3],[-21,-6],[-9,-5]],[[3908,3134],[-5,-20],[0,-7],[0,-22],[-1,-6],[-5,-9],[-18,-19],[-7,-5]],[[1342,3480],[0,-9],[-2,-8],[-6,-7],[-13,-28],[-5,-13],[0,-9],[6,-20],[2,-6],[-3,-15],[3,-14],[3,-12],[4,-21],[0,-13],[8,-26],[9,-23],[3,-19],[0,-10],[12,-15],[3,-6],[4,-16],[6,-14],[5,-27],[-2,-14],[-4,-4],[-18,-9],[-12,-11],[-9,-13],[-3,-7],[-6,-6],[-8,-10],[-4,-17],[-8,-12],[-9,-10]],[[3267,3170],[-2,3],[-8,21]],[[3257,3194],[-2,6],[0,8],[-6,18],[-2,8],[-4,18],[-5,7],[-22,20],[-8,9],[-7,11],[-3,6]],[[3357,2987],[0,5],[-6,18],[-5,6],[-15,23],[-9,19],[-1,14],[-9,21],[-8,14],[-9,7],[-3,18],[-7,18],[-5,5],[-9,9],[-4,6]],[[2211,3376],[3,-11],[3,-39],[-3,-8],[-10,-18],[-5,-9],[-6,-23],[-6,-12],[-7,-15],[-12,-10],[-5,-10],[2,-13],[-2,-8],[5,-7],[0,-12],[1,-9],[5,-6],[7,-8],[5,-6],[4,-20],[2,-4],[10,-9],[3,-11],[0,-7],[-1,-8],[0,-11],[9,-22],[1,-14],[12,-21],[8,-15],[6,-20],[3,-9]],[[203,2971],[11,9],[1,3],[0,9],[3,13],[3,5],[9,6],[12,12],[9,3],[8,-5],[6,-4],[9,-2],[7,8],[3,2],[23,-4],[14,7],[3,3],[-5,18],[-8,10],[-1,11],[5,6],[10,9],[6,9]],[[1842,2951],[4,0],[14,6],[9,1],[18,7],[6,3],[9,3],[7,4],[5,2],[15,0],[18,7],[15,14],[7,4],[6,2],[9,-2],[18,-7],[8,0]],[[1673,2940],[14,2],[29,9],[10,7],[6,5],[6,5],[9,0],[12,-5],[6,0],[23,6],[9,2],[7,0],[12,-5],[11,-4],[15,-11]],[[1670,2916],[-9,5],[-15,6],[-6,1],[-10,-1],[-12,4],[-21,0],[-11,-7],[-4,0],[-6,3],[-9,7],[-15,8],[-14,3],[-13,1],[-8,2],[-7,9],[-8,3],[-18,5],[-4,3],[-17,15],[-7,7],[-12,14],[-17,10],[-7,0],[-8,-1],[-16,1],[-17,-4],[-18,3],[-15,-2],[-6,3],[-9,5],[-31,14],[-2,3]],[[139,2903],[25,-3],[9,1],[6,5],[5,9],[-2,10],[3,8],[6,9],[11,12],[1,17]],[[3076,2945],[-6,-9],[-7,-3],[-23,-2],[-6,-4],[-9,-11],[-8,-18],[-10,-9],[-18,-9],[-15,-5],[-8,-7],[-12,-5],[-12,-7]],[[3858,3014],[-9,-10],[-10,-9],[-12,-6],[-11,-3],[-4,-6],[-15,-22],[-20,-22],[-4,-9],[-8,-17],[-10,-18],[-9,-21],[-5,-14],[-1,-10],[-5,-12]],[[3330,2833],[4,15],[0,15],[5,20],[4,12],[5,20],[3,19],[0,9],[-3,17],[-3,11],[12,16]],[[2264,2833],[1,-14]],[[2243,2981],[1,-13],[5,-11],[0,-24],[4,-9],[3,-29],[-1,-17],[4,-15],[5,-28],[0,-2]],[[2265,2819],[-1,5],[-11,6],[-10,6]],[[2243,2836],[-6,3],[-14,6],[-10,6],[-21,15],[-12,8],[-17,1],[-7,3],[-5,9],[-4,16],[-3,21],[-3,9],[-9,9],[-3,7],[-5,5],[-2,8],[-6,3],[-10,0],[-12,7],[-6,5],[-5,0],[-9,-2],[-6,3],[-12,8],[-4,3],[-8,10],[-6,5],[-3,6],[-10,-8],[-9,-6],[-6,-1]],[[70,2819],[7,-1],[11,6],[4,8],[20,31],[6,6],[7,3],[0,8],[5,7],[6,13],[3,3]],[[3330,2833],[1,-15],[2,-8],[4,-7],[9,-3],[9,0],[6,-8],[26,-9],[7,-6]],[[1298,3036],[-1,-6],[0,-14],[-2,-11],[-4,-9],[-2,-16],[5,-3],[7,0],[3,-3],[0,-6],[-6,-13],[-1,-15],[4,-10],[0,-8],[-1,-9],[1,-27],[2,-6],[4,-12],[2,-11],[15,-22],[-2,-14],[5,-9],[0,-6],[-5,-27],[-7,-11],[0,-4],[3,-8],[7,-14],[15,-19],[5,-6],[0,-5],[-6,-7],[-2,-3]],[[3735,2835],[-4,-8],[-11,-15],[-3,-5],[-15,-6],[-12,-12],[-19,-13],[-11,-9],[-12,-13],[-10,-9],[-14,-7],[-15,-18],[-12,-21]],[[3247,2688],[-4,3],[-3,9],[-6,5],[-15,6],[-21,3],[-14,9],[-10,3],[-14,0],[-6,3]],[[70,2819],[-14,-18],[-4,-3],[-11,-4],[-3,-2],[-4,-12],[-5,-6],[-18,-32],[-7,-6],[-3,-12],[-1,0]],[[2265,2819],[9,2],[9,0]],[[2283,2821],[8,-2],[10,-7],[15,-5],[12,-4],[15,-2],[12,-3],[6,0],[8,-4],[6,-8],[6,-9],[4,-7],[9,-5],[8,-4],[9,-4],[10,-4],[12,-3],[11,1],[6,-1],[10,-5],[8,-7],[9,0],[18,-5],[6,-1],[9,-2],[6,-1],[0,-9],[3,-14],[7,-13],[11,-11],[7,-17]],[[3105,2661],[10,13],[0,12],[3,7],[11,9],[1,7],[6,6],[8,6],[10,8]],[[3017,2656],[8,5],[11,4],[12,2],[15,-2],[10,2],[11,-3],[21,-3]],[[884,2836],[-6,-14],[-9,-22],[-5,-21],[-6,-11],[-1,-9],[-9,-12],[-3,-11],[-5,-25],[-6,-17],[-10,-17],[-2,-7],[2,-23]],[[824,2647],[4,-1]],[[828,2646],[0,-3],[3,-15],[-1,-10],[1,-3]],[[2942,2856],[-12,-9],[-7,-9],[-3,-6],[1,-16],[3,-6],[-6,-37],[2,-11],[-2,-11],[-6,-3],[-1,-7],[6,-15],[4,-12],[8,-23],[-3,-18],[4,-15],[0,-12],[-3,-23],[5,-6],[0,-3]],[[3357,2587],[1,6],[-3,6],[-4,3],[-11,9],[-4,10],[-3,5],[0,6],[-6,5],[-21,7],[-3,9],[-14,8],[-7,6],[-14,9],[-7,1],[-5,5],[-9,6]],[[715,2564],[3,8],[5,7],[6,3],[16,5],[11,1],[7,3],[10,8],[6,3],[7,0],[5,3],[7,16],[17,22],[9,4]],[[645,2567],[6,-4]],[[651,2563],[18,4],[24,2],[12,0],[10,-5]],[[831,2615],[6,-6],[11,-4],[10,-8],[6,-10],[8,-6],[1,-20],[5,-8]],[[1845,2524],[3,1]],[[1750,2522],[17,3],[25,3],[17,0],[13,-2],[20,-3],[3,1]],[[1848,2525],[9,3],[24,6],[6,0],[13,3],[12,1],[21,6],[18,5],[12,-2],[14,2],[9,-2],[7,2],[12,4]],[[2265,2819],[2,-9],[-2,-7]],[[2265,2803],[-1,-8],[-3,-7],[-8,-8],[-3,-15],[-6,-11],[-3,-12],[0,-10],[-3,-32],[2,-18],[-6,-30],[-3,-3],[-9,-8],[-8,-4],[-13,-9],[-9,-10],[-2,-18],[-1,-12],[-5,-10],[-7,-12],[-2,-8],[2,-8],[-3,-7],[-6,-11],[-2,-10],[0,-9],[2,-8]],[[2005,2553],[6,0],[20,-15],[10,2],[12,-6],[12,1],[12,-3],[9,0],[11,2],[9,-3],[29,-18],[4,-6],[14,-8],[4,0],[11,6]],[[1670,2492],[23,10],[30,8],[27,12]],[[1582,2470],[3,0],[28,9],[17,2],[19,7],[15,2],[6,2]],[[1337,2702],[-1,-6],[-8,-14],[0,-5],[2,-12],[7,-19],[5,-25],[3,-9],[7,-13],[12,-12],[12,-21],[-3,-11],[6,-20],[3,-6],[11,-6],[6,-10],[1,-14],[6,-17],[6,-9],[12,-6]],[[1582,2470],[-15,-3],[-20,-1],[-25,1],[-8,-1],[-18,1],[-12,-1],[-48,3],[-12,-2]],[[0,2537],[1,0],[3,-8],[4,-6],[14,-9],[7,-3],[6,-6],[3,-7],[0,-19],[6,-9],[6,-4],[11,-2]],[[2932,2614],[-6,-14],[-12,-6],[-11,-10],[-10,-6],[-12,-5],[-18,-18],[-5,-8],[-1,-9],[-5,-9],[-7,-7],[-9,-3],[-6,-6],[-5,-9],[-10,-9],[-2,-5],[6,-11],[2,-10],[4,-5],[0,-1]],[[3530,2486],[-2,-1],[-10,-9],[-3,-3],[-5,-12],[-1,-6]],[[3597,2699],[-4,-6],[0,-10],[-5,-9],[-3,-16],[0,-6],[3,-29],[-1,-9],[1,-11],[-3,-6],[0,-10],[-6,-15],[-6,-5],[-12,-21],[-7,-17],[-9,-27],[-3,-6],[-9,-9],[-3,-1]],[[3498,2499],[0,-3],[2,-20],[3,-9],[6,-12]],[[3394,2777],[2,-7],[0,-8],[-9,-15],[0,-6],[-3,-11],[-2,-10],[5,-9],[9,-3],[4,-3],[5,-9],[3,-16],[3,-4],[18,-8],[6,-6],[7,-13],[21,-20],[2,-3],[1,-15],[8,-12],[1,-6],[2,-11],[0,-13],[14,-26],[9,-26],[-2,-18]],[[3472,2452],[-1,7]],[[3471,2459],[-2,4],[-4,4],[-11,5],[-18,13],[-13,8],[-5,5],[-3,24],[-4,7],[-9,12],[-5,5],[-9,14],[-3,4],[-9,3],[-7,2],[-6,3],[-6,15]],[[61,2464],[10,-1],[14,3],[9,0],[7,-5],[14,-1],[7,-5],[11,-4]],[[2544,2665],[-12,-6],[-6,-6],[-12,-9],[-4,-6],[-8,-14],[-10,-6],[-9,-7],[-9,-11],[-12,-12],[-12,-9],[0,-6],[3,-15],[-2,-11],[2,-13],[-2,-8],[2,-12],[-6,-16],[-11,-3],[-6,-14],[-7,-8],[-8,-4],[-6,-14],[-3,-7],[-9,-5]],[[3510,2454],[8,-2],[16,5]],[[3534,2457],[15,4],[11,2],[10,-2],[24,-12],[11,-10],[4,-8],[6,-3],[14,-6],[10,0],[18,5]],[[3657,2427],[3,0],[29,-13],[7,-3],[8,2],[9,6],[9,1],[12,-3],[10,0],[27,2],[20,-3],[19,-9],[9,-6]],[[328,2399],[9,12],[8,3],[7,10],[12,7],[5,14],[4,4],[17,11],[12,9],[12,4],[27,8],[21,3],[7,4],[6,7],[6,3],[12,0],[9,6],[17,7],[9,2],[4,1],[9,8],[8,0],[10,3],[12,-2],[5,3],[6,8],[7,15],[3,1],[8,11],[6,2],[4,3],[6,9],[3,3],[8,1],[10,-4],[8,-8]],[[2172,2498],[11,-5],[3,-6],[3,-15],[9,-5],[9,-7],[9,-2],[4,-4],[5,-12],[4,-5],[15,-12],[12,-15],[11,-12]],[[2397,2443],[-7,-6],[-6,-1],[-9,1],[-9,-1],[-14,-6],[-6,-6],[-3,-5],[-6,-5],[-24,-15],[-7,-1],[-9,-2],[-21,2],[-9,0]],[[1370,2396],[14,2],[7,1],[12,9],[8,12],[4,4],[9,6],[2,3],[-2,7],[-1,11],[-2,13],[3,3]],[[1032,2413],[23,1],[9,-6],[7,-1],[12,7],[15,6],[15,5],[6,2],[14,-5],[9,-8],[12,0],[9,-3],[15,-3],[13,-6],[21,-4],[19,1],[9,-1],[12,4],[7,0],[27,5],[5,-2],[7,-6],[17,-1],[19,-2],[15,2],[8,-2]],[[1357,2396],[13,0]],[[133,2451],[1,-6],[-4,-14],[-2,-11],[5,-13],[10,-12],[5,-3]],[[878,2553],[-3,-12],[0,-6],[6,-12],[4,-4],[3,-23],[8,-9],[1,-6],[3,-23],[0,-6],[-6,-16],[-7,-8],[1,-11],[-4,-6],[-5,-16],[-7,-8],[-2,-7],[5,1]],[[1582,2470],[4,-4],[3,-9],[3,-9],[8,-12],[0,-17],[6,-18],[3,-5],[6,-3],[18,-7],[30,-3],[20,-8],[15,-1]],[[272,2346],[6,3],[8,13],[12,9],[6,7],[6,11],[3,3],[12,4],[3,3]],[[981,2343],[6,17],[11,11],[-3,12],[1,6],[5,4],[12,5],[7,4],[6,8],[6,3]],[[875,2381],[9,-1],[12,-3],[12,0],[7,-5],[5,-1],[9,1],[7,-1],[20,-12],[15,-2],[6,-3],[4,-11]],[[2825,2463],[-7,-5],[-11,3],[-7,-1],[-9,3],[-6,-2],[-3,-4],[-9,-3],[-6,-9],[-11,-12],[-7,-16],[-11,-6],[-6,-4],[-15,-15],[-7,-9],[-8,-6],[-9,-12],[-10,-29]],[[202,2306],[10,7]],[[212,2313],[5,11],[4,7],[14,6],[10,8],[5,1],[22,0]],[[170,2322],[9,-3],[9,-6],[14,-7]],[[148,2392],[6,-2],[3,-15],[4,-20],[8,-19],[0,-14],[1,0]],[[3819,2401],[9,-6],[14,-9],[3,-8],[4,-3],[8,-3],[12,-9],[15,-8],[4,-4],[17,-23],[7,-7],[11,-5],[4,-3],[0,-12]],[[565,2289],[0,5],[6,6],[5,10],[7,6],[3,9],[8,14],[13,13],[8,7],[13,21],[12,15],[14,9],[13,16],[15,16]],[[2585,2195],[12,14],[6,6],[8,4],[7,10],[5,18],[9,19],[4,6],[11,9],[0,11],[3,5],[3,7],[6,6],[7,8],[9,6],[2,3],[6,9]],[[1698,2374],[10,-11],[8,-4],[3,-13],[4,-6],[0,-9],[-1,-15],[3,-15],[1,-7],[2,-7],[-3,-9],[0,-9],[-8,-12],[2,-9],[-2,-9],[-10,-7],[-2,-11],[-6,-9],[-4,-11],[-2,-13],[2,-8]],[[1695,2180],[3,-4],[9,0],[18,6],[25,4],[17,6],[15,5],[16,1],[17,2],[15,-2],[9,2],[21,6],[18,6],[24,17],[12,9],[15,6],[4,0]],[[565,2289],[-7,-8],[-17,-21],[-10,-7],[-8,-9],[-4,-8],[-11,-15],[-10,-17],[-5,-3],[-7,-9],[-15,-13],[-9,-5],[-6,-1]],[[1933,2244],[12,-9],[15,-3],[14,-6],[13,-13],[12,-6],[5,-4],[6,-12],[3,-2],[7,-9],[6,-4],[2,-18]],[[2267,2398],[9,-15],[7,-12],[2,-6],[-2,-19],[3,-21],[2,-15],[12,-15],[3,-6],[1,-8],[-3,-15],[0,-10],[3,-14],[2,-13],[10,-8],[6,-12],[3,-3],[8,1],[12,-7],[7,-9],[2,-3],[-2,-18],[12,-23]],[[2147,2142],[15,3],[15,6],[18,7],[6,4],[22,3],[18,0],[11,3],[7,3],[12,0],[11,2],[6,-2],[13,-7],[18,1],[6,-3],[26,-11],[13,-4]],[[2028,2158],[4,-4],[8,-1],[15,3],[10,2],[8,-2],[7,-6],[9,-3],[18,-5],[17,0],[11,-3],[12,3]],[[4046,2112],[-3,-7],[-6,-15]],[[4096,2185],[-8,-8],[-7,-4],[-21,-19],[-5,-7],[-4,-21],[-5,-14]],[[4033,2112],[3,-13],[1,-9]],[[3927,2301],[9,-10],[8,-2],[8,-6],[9,-3],[6,-17],[7,-1],[20,-21],[12,-18],[1,-7],[-1,-12],[1,-7],[8,-14],[6,-7],[10,-2],[15,3],[8,0],[3,-4],[-2,-3],[-7,-11],[-8,-11],[-7,-16],[0,-15],[0,-5]],[[4090,2082],[3,4],[3,3]],[[2364,2147],[6,-9],[15,-9],[17,-9],[6,-9],[4,-9],[9,-8],[6,-11],[3,-1]],[[2430,2082],[20,1],[6,-1]],[[4089,2060],[2,2],[5,1]],[[4096,2070],[-5,6],[-1,6]],[[4031,2038],[18,3],[23,8],[12,7],[5,4]],[[4037,2090],[0,-8],[-3,-20],[-1,-10],[-2,-13]],[[4031,2039],[0,-1]],[[4013,2040],[6,-2],[11,0]],[[4030,2038],[1,0]],[[2621,2026],[-10,26],[-3,24],[-3,10],[-6,13],[-11,18],[-3,7],[-5,8],[-4,9],[1,10],[0,7],[-10,13],[1,3],[6,5],[11,16]],[[456,2173],[25,-34],[5,-4],[6,-2],[7,2],[15,6],[5,-3],[15,-15],[6,-6],[9,-3],[24,-5],[6,-1],[9,-9],[4,-11],[2,-5],[-2,-12],[-3,-7],[2,-12],[-2,-11],[0,-4],[8,-12],[7,-17]],[[3968,2033],[8,-1],[15,2],[10,6],[6,1],[6,-1]],[[3866,1972],[6,1],[6,8],[1,7],[11,8],[4,9],[3,3],[12,3],[14,4],[15,11],[12,0],[11,8],[7,-1]],[[2596,1970],[3,-1],[9,-3],[6,0]],[[2456,2082],[18,-14],[9,-13],[10,-8],[9,-4],[24,-11],[8,-4],[10,-11],[6,-5],[9,-3],[9,-6],[17,-22],[8,-9],[3,-2]],[[2614,1966],[10,0],[6,-3],[6,1]],[[2929,1997],[9,0],[7,-10],[9,-8],[9,-9],[14,-10]],[[2636,1964],[0,-6]],[[2977,1960],[10,-8],[8,-8],[10,-4],[23,-5],[29,2],[12,-2],[12,2],[4,0]],[[3729,1928],[3,3],[15,1],[14,3],[18,9],[10,-1],[9,1],[5,-3],[4,2],[3,7],[3,5],[11,5],[21,3],[6,1],[15,8]],[[2636,1958],[0,-14],[3,-3],[5,0],[9,-4],[3,-4]],[[2670,1924],[1,0]],[[2656,1933],[6,-7],[8,-2]],[[2671,1924],[1,-1],[18,-7],[21,-5],[20,-1],[4,3],[12,0],[9,-2],[12,5],[6,4],[11,9],[9,3],[13,2],[17,-2],[3,0],[1,8],[2,4],[7,6],[11,5],[6,11],[10,6],[5,0],[10,4],[14,-1],[10,3],[12,12],[9,7],[5,0]],[[3662,1890],[7,0],[6,0],[8,6],[7,2],[11,6],[15,6],[7,7],[6,11]],[[3644,1870],[7,5],[11,15]],[[3085,1937],[11,0],[10,-3],[9,1],[20,0],[3,-1],[1,-8],[-4,-13],[-3,-12],[1,-14],[9,-26],[2,-1]],[[1695,2180],[0,-24],[3,-11],[-3,-12],[-3,-12],[-3,-3],[-3,-7],[-3,-21],[-3,-13],[1,-7],[5,-8],[9,-9],[3,-6],[1,-10],[2,-6],[1,-8],[9,-17],[2,-13],[0,-9],[4,-14],[8,-9],[-2,-8],[0,-18],[-1,-7],[-9,-14],[0,-9],[1,-12],[-6,-9],[-3,-8],[-1,-7],[3,-8],[6,-10],[3,-8],[-3,-6]],[[3474,1814],[7,3],[5,9]],[[3486,1826],[5,8],[1,12],[3,12],[8,11],[7,0],[21,-11],[6,0],[12,3],[6,5],[8,-2],[10,6],[5,0],[7,-1],[14,-8],[13,6],[24,2],[8,1]],[[3442,1791],[0,1],[11,13],[9,6],[12,3]],[[3382,1787],[9,3],[9,0],[15,-4],[18,1],[9,4]],[[3144,1860],[12,1],[15,-3],[10,-3],[15,-12],[14,-4],[7,1],[11,5],[6,-3],[7,-5],[8,-10],[4,-13],[-6,-9],[0,-3],[14,-3],[13,-7],[6,-5],[5,-7],[3,0],[7,7],[8,3],[21,2],[10,-3],[6,1],[18,6],[5,0],[13,-9],[6,0]],[[0,2439],[0,1657],[4096,0],[0,-1242],[0,-796],[-16,-5],[-2,-1],[-5,-5],[-2,-2],[-3,-1],[-6,-1],[-78,-25],[-17,-2],[-2,-1],[-4,-2],[-27,-23],[-3,-4],[-2,-6],[-5,-5],[-13,-8],[-25,-6],[-5,0],[-2,-3],[-6,-4],[-6,-2],[-3,5],[-19,-13],[-5,-2],[-21,-17],[-9,-11],[-5,-3],[-27,-4],[-9,0],[-5,5],[-2,-3],[-4,-1],[-9,-1],[-9,-2],[-4,0],[-2,3],[-1,4],[-3,-1],[-4,-4],[-6,-1],[-6,-1],[-38,-17],[-4,-5],[-3,-3],[-8,-4],[-14,-7],[-8,-2],[-23,0],[-4,-1],[-9,-5],[-4,-2],[-3,0],[-8,0],[-4,0],[-6,-2],[-13,-7],[-26,-3],[-8,-3],[-6,-5],[-6,2],[-6,1],[-6,-2],[-5,-3],[0,-3],[2,-6],[-1,-3],[-2,-2],[-1,-2],[-25,-12],[-5,-3],[-10,-12],[-1,-3],[1,-2],[-1,-2],[-3,-1],[-3,0],[-25,-7],[-28,-13],[-6,-5],[-9,-12],[-5,-6],[-5,-2],[-26,-3],[-4,-2],[-10,0],[-2,0],[-3,3],[-1,3],[0,5],[0,3],[-5,1],[-3,1],[-6,1],[-4,1],[1,1],[-4,4],[-15,12],[-8,4],[-3,2],[-2,3],[-1,3],[-1,3],[-2,2],[-38,15],[-62,12],[-60,21],[-47,3],[-53,10],[-50,15],[-6,2],[-16,3],[-36,4],[-5,2],[2,6],[7,6],[6,5],[10,-2],[3,-2],[1,-2],[0,-3],[1,-1],[3,-1],[8,-3],[2,0],[1,1],[3,-2],[6,-5],[5,-1],[1,1],[2,0],[4,2],[4,0],[26,0],[8,-2],[2,-2],[4,-7],[2,-1],[5,0],[8,4],[4,1],[-1,10],[10,4],[13,2],[8,4],[-1,10],[-12,2],[-15,-2],[-10,0],[3,-7],[-2,-8],[-5,-5],[-7,-3],[-6,2],[-19,9],[-6,5],[-7,-3],[-15,0],[-6,-3],[-3,7],[-5,9],[-7,7],[-6,2],[-3,3],[4,6],[6,5],[2,2],[2,5],[1,11],[2,4],[5,3],[4,1],[2,2],[1,7],[-1,6],[-2,2],[-4,1],[-7,0],[-1,-1],[-2,-1],[-3,-2],[-3,-1],[-3,1],[-5,2],[-4,0],[-3,-1],[-7,-5],[-5,-2],[4,-8],[2,-8],[-3,-5],[-10,-1],[1,-3],[0,-3],[-1,-2],[-3,-2],[4,-3],[1,0],[-2,0],[3,-2],[4,0],[4,-1],[4,1],[0,-3],[-3,-2],[-6,1],[-4,-1],[-3,-3],[-3,-3],[-2,-3],[-2,-4],[-3,2],[-3,-1],[1,-3],[5,-3],[-2,-5],[2,-3],[5,-1],[5,-1],[-13,-11],[-24,1],[-92,20],[-17,1],[-12,2],[-3,1],[-1,2],[1,4],[1,2],[-1,3],[-4,3],[3,5],[-4,-4],[-3,-4],[-2,-6],[-1,-4],[-2,0],[-5,2],[-7,1],[-15,0],[-4,1],[-17,9],[-25,3],[-12,3],[-5,9],[7,-3],[7,1],[7,4],[4,5],[5,-6],[3,-3],[3,-1],[2,1],[1,2],[0,3],[-2,2],[0,2],[5,-1],[13,-5],[2,0],[4,1],[8,-3],[13,-7],[0,2],[-1,4],[-1,2],[6,0],[9,-2],[4,2],[5,6],[-2,3],[-5,2],[-2,5],[-5,12],[0,5],[-2,3],[-3,2],[-4,1],[-4,-2],[-2,2],[-3,1],[-3,-1],[-2,-3],[1,-2],[8,-6],[9,-12],[6,-6],[6,-3],[-3,-4],[-6,0],[-6,1],[-5,-2],[-2,0],[-5,6],[-3,1],[-4,0],[-6,1],[-4,1],[-4,2],[-3,4],[-1,5],[-2,-2],[-2,-1],[-1,-2],[-2,3],[-1,3],[0,3],[0,4],[-2,0],[-1,-5],[-2,-5],[-3,-2],[-4,2],[-3,-3],[-4,0],[-4,1],[-4,2],[-9,-2],[-4,-1],[4,-3],[5,-2],[7,1],[4,2],[5,-5],[-5,-4],[-6,-4],[-6,-1],[-6,2],[-5,3],[-8,4],[-8,2],[-3,-1],[-3,-3],[-7,1],[-10,6],[-5,-2],[-4,-2],[-4,-1],[-5,2],[-2,-2],[-2,0],[-3,2],[-2,3],[-10,-7],[-5,-2],[-5,1],[0,2],[1,4],[1,2],[-9,2],[-4,-1],[-5,-4],[-2,3],[-4,1],[-2,0],[-3,-6],[-5,-4],[-3,-4],[-3,3],[-4,3],[-5,3],[-3,1],[-4,-2],[-4,-3],[-4,-2],[-3,5],[1,0],[1,1],[0,1],[-13,-1],[-5,-2],[-2,-7],[4,2],[3,-1],[2,-2],[1,-4],[-6,2],[-26,1],[-2,3],[-2,3],[-4,6],[-2,-3],[0,-3],[2,-3],[3,-1],[0,-2],[-7,-2],[-5,-2],[-8,-6],[-7,4],[-8,-1],[-6,-3],[-4,-3],[-3,0],[-2,1],[-3,2],[-3,2],[-1,3],[4,1],[3,0],[4,-1],[6,0],[-1,3],[-1,2],[-2,2],[-4,0],[0,3],[4,1],[3,3],[1,4],[0,4],[-3,0],[-4,-8],[-6,-5],[-8,-2],[-9,0],[10,-7],[-8,-7],[-13,-6],[-9,-5],[-2,-5],[0,-4],[4,-2],[5,-1],[7,-1],[6,1],[4,3],[-2,4],[0,3],[10,2],[4,3],[2,-2],[1,-3],[3,0],[5,1],[7,3],[6,0],[11,0],[4,0],[2,-2],[1,-2],[2,0],[5,-1],[4,0],[8,3],[-3,0],[-5,0],[-3,2],[-1,3],[2,2],[13,3],[0,-5],[2,0],[8,4],[22,-1],[10,5],[2,-6],[3,2],[3,5],[2,4],[7,-1],[6,-2],[5,-2],[4,5],[7,-3],[7,1],[8,3],[15,2],[9,6],[6,1],[45,1],[11,-4],[-3,-2],[-4,0],[-4,-1],[-4,1],[27,-13],[-114,-9],[-113,-10],[-60,-13],[-33,-3],[-6,-3],[-4,2],[-5,1],[-19,0],[-5,0],[0,2],[1,0],[3,0],[1,0],[0,3],[-10,0],[-3,4],[0,7],[-2,7],[5,5],[-5,1],[-20,-2],[-6,-2],[-6,-4],[-5,-4],[-6,6],[-11,5],[-12,2],[-11,-3],[-2,2],[-2,2],[-1,1],[0,1],[-3,0],[-4,-4],[-6,1],[-7,4],[-5,-1],[-3,0],[-4,1],[-2,-1],[0,-4],[2,-4],[-2,0],[-4,2],[1,-3],[-1,-1],[3,0],[1,-1],[1,-2],[1,0],[2,1],[2,1],[5,1],[0,-3],[-2,-3],[-9,-5],[-4,-2],[0,7],[-5,-15],[-2,-5],[-12,18],[-3,0],[0,-1],[0,-4],[-5,3],[5,-11],[15,-7],[18,-2],[14,4],[-5,5],[-7,0],[-6,-1],[-7,1],[0,3],[4,0],[3,0],[3,1],[3,2],[2,1],[4,5],[1,1],[6,-1],[6,-3],[6,-2],[5,4],[4,-3],[5,-1],[4,1],[2,5],[-7,-1],[-3,3],[-2,4],[-6,2],[0,2],[5,-2],[13,1],[22,-13],[9,3],[5,4],[5,1],[12,-2],[2,-3],[2,-6],[3,-7],[5,-4],[-92,-3],[-15,-5],[-73,-4],[-11,2],[-9,5],[-10,-7],[8,-2],[2,-1],[-29,-9],[-80,-12],[-3,-1],[-41,-13],[-6,-3],[-3,-3],[-4,0],[-19,-7],[-29,-15],[-54,-18],[-46,-15],[-3,-3],[-2,-5],[-5,-3],[-39,-10],[-7,-1],[-6,-2],[-10,-9],[-6,-4],[-46,-13],[-36,-3],[-10,-5],[-8,-2],[-4,-2],[-11,-13],[-19,-16],[-23,-14],[-15,-4],[-27,-3],[-21,-10],[-5,-3],[-4,-7],[-3,0],[-5,0],[-4,-2],[-6,-5],[-20,-11],[-28,-24],[-7,-2],[-9,1],[-16,3],[-5,-1],[-1,0],[-19,-2],[-5,1],[-9,3],[-4,1],[-25,0],[-3,1],[-2,3],[-1,2],[-2,2],[-6,0],[-14,6],[-4,3],[-4,3],[-3,4],[-2,5],[-3,4],[-11,4],[-9,7],[-4,1],[-6,1],[-3,2],[-3,2],[-4,3],[-6,2],[-16,5],[-12,1],[-23,9],[-45,6],[-12,4],[-16,18],[-6,2],[-7,2],[-37,13],[-41,29],[-21,12],[-51,19],[-11,6],[-26,21],[-9,6],[-11,6],[-4,0],[-8,4],[-11,1],[-9,3],[-8,4],[-6,5],[1,1],[1,2],[-16,4],[-13,8],[-21,18],[-6,3],[-12,6],[-12,9],[-6,2],[-6,4],[-5,6],[5,0],[-5,7],[-7,4],[-9,3],[-7,3],[-42,41],[-3,5],[-4,13],[-3,7],[-4,4],[-6,4],[-6,3],[-5,1],[-1,1],[-11,2],[-2,0],[0,3],[4,6],[1,3],[-6,9],[-36,21],[-53,51],[-50,42],[-13,14],[-3,2],[-6,4],[-3,3],[-1,4],[2,4],[-1,5],[-3,5],[-6,5],[-6,3],[-6,2],[-4,2],[-25,20],[-15,17],[-20,12],[-6,3],[-14,2],[-7,4],[-3,5],[1,5],[3,-2],[3,-1],[2,2],[2,3],[-8,2],[-5,4],[-4,5],[-6,4],[-12,8],[-6,2],[-7,1],[0,-3],[19,-10],[8,-7],[3,-8],[-5,7],[-11,6],[-11,5],[-74,18],[-47,24],[-7,6],[3,7],[1,-3],[2,-2],[3,-2],[4,-1],[-6,10],[-1,9],[3,8],[9,9],[-6,0],[-3,-1],[-3,-2],[-3,-3],[-9,18],[-12,13],[-14,9],[-57,32],[-66,23],[-6,3]],[[1389,2174],[4,70],[125,-3],[61,-57],[9,-75],[-32,-68],[74,-72],[-42,-64],[-70,-24],[-51,34],[-24,86],[19,6],[0,44],[-73,123]],[[3157,3209],[85,21],[69,-164],[-76,-42],[-18,-80],[-49,-1],[-11,34],[31,30],[-31,202]],[[3223,3837],[6,42],[33,7],[-4,82],[48,3],[7,-67],[47,-36],[-17,-57],[-64,-9],[-56,35]],[[1845,2524],[2,102],[29,24],[-16,27],[96,8],[-23,-67],[59,-50],[-82,-7],[-65,-37]],[[3499,1825],[-50,-37],[-9,4],[25,35],[34,-2]],[[4096,2063],[-123,-46],[-33,97],[27,-4],[14,32],[5,-28],[110,-5],[0,-46]],[[197,2293],[-28,19],[2,26],[28,4],[24,-55],[-26,6]],[[2645,1940],[-58,5],[30,81],[33,-9],[46,-70],[-25,-24],[-26,17]],[[3491,2501],[39,-10],[7,-65],[-69,28],[23,47]],[[2243,2836],[41,-5],[-4,-33],[-28,10],[-9,28]],[[3473,4079],[27,17],[112,0],[22,-63],[-95,6],[-66,40]],[[3261,3399],[6,63],[193,130],[18,74],[135,74],[-44,-143],[-68,-87],[0,-132],[-121,-13],[-119,34]],[[2974,2213],[44,10],[-13,-62],[41,29],[49,-5],[9,23],[-24,-8],[-17,28],[50,82],[36,17],[-30,-34],[-1,-119],[-65,-27],[-39,18],[-12,-22],[61,-25],[-33,-60],[-9,36],[-27,-2],[-20,121]],[[3025,2334],[26,98],[39,-36],[13,54],[-39,17],[-6,57],[134,-117],[-78,21],[53,-71],[-49,25],[-33,-15],[7,-52],[-49,38],[-18,-19]],[[2467,3390],[73,130],[270,-5],[171,-131],[-39,-62],[-16,-164],[-119,-42],[-89,56],[-70,-16],[10,127],[-33,28],[-105,-2],[-44,37],[-9,44]],[[864,3610],[21,20],[-6,79],[42,-5],[10,41],[205,-75],[-7,-214],[-34,-2],[-11,-49],[-36,-10],[-28,79],[-56,10],[-100,126]],[[3867,2747],[1,21],[58,17],[142,19],[24,-29],[-91,-14],[95,-13],[0,-110],[-55,-1],[-58,49],[-99,18],[-17,43]]]}