{"objects":{"water":{"type":"GeometryCollection","geometries":[{"type":"Polygon","properties":{"source":"naturalearthdata.com","kind":"lake","name":"Lake Balkhash","area":36835373056,"sort_rank":200,"min_zoom":0.0,"id":474},"arcs":[[242]]},{"type":"Polygon","properties":{"kind":"lake","name":"Toktogul Suu Saktagychy","reservoir":true,"area":1100642176,"sort_rank":200,"source":"naturalearthdata.com","min_zoom":0.0,"id":1190},"arcs":[[243]]},{"type":"Polygon","properties":{"kind":"lake","name":"Ysyk K\u00f6l","area":11506456576,"sort_rank":200,"alkaline":true,"source":"naturalearthdata.com","min_zoom":0.0,"id":1300},"arcs":[[244]]},{"type":"Polygon","properties":{"kind":"lake","name":"Qapshaghay Bgeni","reservoir":true,"area":1798260864,"sort_rank":200,"source":"naturalearthdata.com","min_zoom":0.0,"id":1220},"arcs":[[245]]},{"type":"Point","properties":{"label_placement":true,"kind":"lake","name":"Ysyk K\u00f6l","area":11506456576,"sort_rank":200,"alkaline":true,"source":"naturalearthdata.com","min_zoom":0.0,"id":1300},"coordinates":[2848,1464]},{"type":"Point","properties":{"label_placement":true,"kind":"lake","name":"Qapshaghay Bgeni","reservoir":true,"area":1798260864,"sort_rank":200,"source":"naturalearthdata.com","min_zoom":0.0,"id":1220},"coordinates":[3282,2860]},{"type":"LineString","properties":{"source":"naturalearthdata.com","kind":"lake","sort_rank":367,"boundary":true,"min_zoom":0.0,"id":474},"arcs":[246]},{"type":"MultiLineString","properties":{"source":"naturalearthdata.com","kind":"lake","reservoir":true,"sort_rank":367,"boundary":true,"min_zoom":0.0,"id":1190},"arcs":[[247],[248]]},{"type":"LineString","properties":{"source":"naturalearthdata.com","kind":"lake","reservoir":true,"sort_rank":367,"boundary":true,"min_zoom":0.0,"id":1220},"arcs":[249]},{"type":"LineString","properties":{"source":"naturalearthdata.com","kind":"lake","sort_rank":367,"alkaline":true,"boundary":true,"min_zoom":0.0,"id":1300},"arcs":[250]}]},"buildings":{"type":"GeometryCollection","geometries":[]},"places":{"type":"GeometryCollection","geometries":[{"type":"Point","properties":{"name:pt":"Quirguist\u00e3o","name:cy":"Cirgistan","alt_name:el":"\u039a\u03b9\u03c1\u03b3\u03b9\u03c3\u03c4\u03ac\u03bd;\u039a\u03b9\u03c1\u03b3\u03b9\u03b6\u03c3\u03c4\u03ac\u03bd","name:ko":"\ud0a4\ub974\uae30\uc2a4\uc2a4\ud0c4","name:kn":"\u0c95\u0cbf\u0cb0\u0ccd\u0c97\u0cbf\u0cb8\u0ccd\u0ca5\u0cbe\u0ca8\u0ccd","name:km":"\u1782\u17c0\u179a\u17a0\u17d2\u1782\u17b8\u179f\u17d2\u178f\u1784\u17cb","name:cs":"Kyrgyzst\u00e1n","alt_name:eo":"Kirgizistano;Kirgizio","name:ki":"Kirigizistani","name:tr":"K\u0131rg\u0131zistan","name:ku":"Qirgizistan","name:ro":"K\u00e2rg\u00e2zstan","name:ks":"\u06a9\u0650\u0631\u06af\u0650\u0633\u062a\u0627\u0646","name:to":"Kekisiteni","name:or":"\u0b15\u0b3f\u0b30\u0b4d\u0b17\u0b3f\u0b1c\u0b3f\u0b38\u0b4d\u0b25\u0b3e\u0b28","name:pl":"Kirgistan","name:ta":"\u0b95\u0bbf\u0bb0\u0bcd\u0b95\u0bbf\u0bb8\u0bcd\u0ba4\u0bbe\u0ba9\u0bcd","name:ca":"Kirguizistan","name:te":"\u0c15\u0c3f\u0c30\u0c4d\u0c1c\u0c3f\u0c38\u0c4d\u0c24\u0c3e\u0c28\u0c4d","name:ka":"\u10e7\u10d8\u10e0\u10d2\u10d8\u10d6\u10d4\u10d7\u10d8","name:hr":"Kirgistan","name:da":"Kirgisistan","name:de":"Kirgisistan","name:dz":"\u0f40\u0f72\u0f62\u0f0b\u0f42\u0f72\u0f66\u0f0b\u0f66\u0f4f\u0f71\u0f53","source":"openstreetmap.org","name:lv":"Kirgizst\u0101na","name:lt":"Kirgiztanas","name:uz":"Qirg\u2018iziston","name:he":"\u05e7\u05d9\u05e8\u05d2\u05d9\u05d6\u05e1\u05d8\u05df","kind":"country","name:ur":"\u06a9\u0631\u063a\u0632\u0633\u062a\u0627\u0646","name:lg":"Kirigizisitaani","name:uk":"\u041a\u0438\u0440\u0433\u0438\u0437\u0441\u0442\u0430\u043d","name:hy":"\u053f\u056b\u0580\u0563\u056b\u0566\u057d\u057f\u0561\u0576","min_zoom":2.0,"name:hu":"Kirgiziszt\u00e1n","name:ln":"Kigizisit\u00e1","name:lo":"\u0e84\u0eb5\u0e81\u0eb4\u0e94\u0eaa\u0eb0\u0e96\u0eb2\u0e99","population":5543300,"name:el":"\u039a\u03b9\u03c1\u03b3\u03b9\u03b6\u03af\u03b1","name:eo":"Kirgizujo","name:en":"Kyrgyzstan","name":"\u041a\u044b\u0440\u0433\u044b\u0437\u0441\u0442\u0430\u043d","name:ee":"Kirgizstan nutome","name:gd":"C\u00ecorgastan","name:th":"\u0e04\u0e35\u0e23\u0e4c\u0e01\u0e35\u0e0b\u0e2a\u0e16\u0e32\u0e19","name:gu":"\u0a95\u0abf\u0ab0\u0acd\u0a97\u0abf\u0a9d\u0acd\u0ab8\u0acd\u0aa4\u0abe\u0aa8","name:eu":"Kirgizistan","name:et":"K\u00f5rg\u00f5zstan","name:nl":"Kirgizi\u00eb","name:es":"Kirguist\u00e1n","name:ia":"Kirghizistan","name:rm":"Kirghisistan","name:rn":"Kirigisitani","name:az":"K\u0131rq\u0131zstan","name:id":"Kirgistan","name:ms":"Kyrgyzstan","name:mr":"\u0915\u093f\u0930\u0917\u093f\u091d\u0938\u094d\u0924\u093e\u0928","name:ar":"\u0642\u0631\u063a\u064a\u0632\u0633\u062a\u0627\u0646","name:my":"\u1001\u101a\u103a\u1000\u1005\u103a\u1005\u1010\u1014\u103a","name:io":"Kirgizistan","int_name":"Kyrgyzstan","name:is":"Kirgisistan","name:am":"\u12aa\u122d\u130a\u1235\u1273\u1295","name:it":"Kirghizistan","name:vi":"Kyrgyzstan","name:ru":"\u041a\u0438\u0440\u0433\u0438\u0437\u0438\u044f","id":1700777271,"name:mk":"\u041a\u0438\u0440\u0433\u0438\u0441\u0442\u0430\u043d","name:af":"Kirgisi\u00eb","name:zu":"i-Kyrgyzstan","name:ha":"Kirgizistan","name:nn":"Kirgisistan","name:ff":"Kirgistaan","name:fi":"Kirgisia","name:hi":"\u0915\u093f\u0930\u094d\u0917\u093f\u091c\u093c\u0924\u093e\u0928","name:mg":"Kiordistan","name:fo":"Kirgisia","name:mt":"Kirgistan","alt_name:vi":"C\u01b0-r\u01a1-g\u01b0-xtan;Kirgizia","name:fr":"Kirghizstan","name:ky":"\u041a\u044b\u0440\u0433\u044b\u0437 \u0420\u0435\u0441\u043f\u0443\u0431\u043b\u0438\u043a\u0430\u0441\u044b","name:fy":"Kirgyzje","name:vo":"Kirgist\u00e4n","name:zh":"\u5409\u5c14\u5409\u65af\u65af\u5766","name:gv":"Yn Chyrgistaan","name:so":"Kirgistaan","name:sn":"Kyrgyzstan","name:sl":"Kirgizistan","name:sk":"Kirgizsko","name:ja":"\u30ad\u30eb\u30ae\u30b9","name:si":"\u0d9a\u0dd2\u0dbb\u0dca\u0d9c\u0dd2\u0dc3\u0dca\u0dad\u0dcf\u0db1\u0dba","name:fa":"\u0642\u0631\u0642\u06cc\u0632\u0633\u062a\u0627\u0646","name:sg":"Kirigizit\u00f9aan","name:se":"Kirgisistan","name:ne":"\u0915\u093f\u0930\u094d\u0917\u093f\u0938\u094d\u0925\u093e\u0928","name:br":"Kirgizstan","name:bs":"Kirgizstan","name:bm":"Kirigizisita\u014b","name:bn":"\u0995\u09bf\u09b0\u09cd\u0997\u09bf\u099c\u09bf\u09af\u09bc\u09be","name:bo":"\u0f41\u0f72\u0f62\u0f0b\u0f42\u0f72\u0f5b\u0f0b\u0f66\u0f9f\u0f71\u0f53\u0f0d","name:ml":"\u0d15\u0d3f\u0d7c\u0d17\u0d3f\u0d38\u0d4d\u0d25\u0d3e\u0d7b","name:no":"Kirgisistan","name:sw":"Kirigizistani","name:sv":"Kirgizistan","name:bg":"\u041a\u0438\u0440\u0433\u0438\u0437\u0441\u0442\u0430\u043d","name:sr":"\u041a\u0438\u0440\u0433\u0438\u0441\u0442\u0430\u043d","name:sq":"Kirgistan","name:ga":"An Chirgeast\u00e1in","alt_name:fy":"Kirgyzstan","name:gl":"Quirguicist\u00e1n","name:yo":"Or\u00edl\u1eb9\u0301\u00e8de Kuri\u1e63isitani","name:ak":"K\u025b\u025bgestan"},"coordinates":[1164,527]},{"type":"Point","properties":{"source":"naturalearthdata.com","kind":"locality","name":"Almaty","population":1209000,"region_capital":true,"min_zoom":5.0,"id":6996},"coordinates":[2758,2340]},{"type":"Point","properties":{"source":"naturalearthdata.com","kind":"locality","name":"Bishkek","country_capital":true,"population":837000,"min_zoom":5.0,"id":6927},"coordinates":[1062,1889]},{"type":"Point","properties":{"source":"naturalearthdata.com","kind":"locality","name":"Taldyqorghan","population":88380,"region_capital":true,"min_zoom":6.0,"id":5370},"coordinates":[3841,4007]},{"type":"Point","properties":{"source":"naturalearthdata.com","kind":"locality","name":"Karakol","population":70171,"region_capital":true,"min_zoom":6.0,"id":4998},"coordinates":[3828,1507]}]},"transit":{"type":"GeometryCollection","geometries":[{"type":"MultiLineString","properties":{"kind":"train","name":"7 \u041c\u043e\u0441\u043a\u0432\u0430 \u2014 \u0410\u043b\u043c\u0430\u0442\u044b","sort_rank":275,"name:de":"7 Moskau - Almaty","source":"openstreetmap.org","min_zoom":6.0,"ref":"7","osm_relation":true,"description":"7 Moskau -> Almaty \/ 7 Almaty -> Moskau"},"arcs":[[173],[174]]},{"type":"MultiLineString","properties":{"kind":"train","name:en":"Turkestan-Siberia Railway","name":"\u0422\u0443\u0440\u043a\u0441\u0438\u0431","sort_rank":275,"source":"openstreetmap.org","min_zoom":6.0,"ref":"\u0422\u0443\u0440\u043a\u0441\u0438\u0431","osm_relation":true},"arcs":[[175],[176],[177],[178],[179],[180],[181],[182],[183]]},{"type":"MultiLineString","properties":{"kind":"train","network":"\u049a\u0422\u0416","sort_rank":275,"name:de":"49\/50 Aktobe<=>Almaty","source":"openstreetmap.org","min_zoom":6.0,"ref":"49\/50","osm_relation":true,"name":"49\/50 \u0410\u043a\u0442\u043e\u0431\u0435<=>\u0410\u043b\u043c\u0430\u0442\u044b"},"arcs":[[184],[185]]},{"type":"MultiLineString","properties":{"kind":"train","network":"unknown","sort_rank":275,"name:de":"56 Kokchetau=>Ksyl Orda","source":"openstreetmap.org","min_zoom":6.0,"name:ru":"56 \u041a\u043e\u043a\u0448\u0435\u0442\u0430\u0443=>\u041a\u0437\u044b\u043b-\u041e\u0440\u0434\u0430","ref":"56","osm_relation":true,"name":"56 \u041a\u043e\u043a\u0448\u0435\u0442\u0430\u0443=>\u041a\u044b\u0437\u044b\u043b\u043e\u0440\u0434\u0430"},"arcs":[[186],[187]]},{"type":"LineString","properties":{"kind":"train","name":"1\/2 \u0410\u043b\u043c\u0430\u0442\u044b<=>\u0410\u0441\u0442\u0430\u043d\u0430","sort_rank":275,"description":"1 \u0410\u043b\u043c\u0430\u0442\u044b -> \u0410\u0441\u0442\u0430\u043d\u0430 \/ 2 \u0410\u0441\u0442\u0430\u043d\u0430 -> \u0410\u043b\u043c\u0430\u0442\u044b","name:de":"1\/2 Almaty<=>Astana","source":"openstreetmap.org","min_zoom":6.0,"operator":"\u049a\u0422\u0416","ref":"1\/2","osm_relation":true,"network":"\u049a\u0422\u0416"},"arcs":[188]},{"type":"LineString","properties":{"kind":"train","network":"\u049a\u0422\u0416","sort_rank":275,"name:de":"90 Astana<=>Kzyl-Orda","source":"openstreetmap.org","min_zoom":6.0,"ref":"90","osm_relation":true,"name":"90 \u0410\u0441\u0442\u0430\u043d\u0430<=>\u041a\u044b\u0437\u044b\u043b\u043e\u0440\u0434\u0430"},"arcs":[189]},{"type":"MultiLineString","properties":{"kind":"train","network":"\u049a\u0422\u0416","sort_rank":275,"name:de":"69 Almaty<=>Zaschita","source":"openstreetmap.org","min_zoom":6.0,"operator":"\u049a\u0422\u0416","ref":"69","osm_relation":true,"name":"69 \u0410\u043b\u043c\u0430\u0442\u044b<=>\u0417\u0430\u0448\u0438\u0442\u0430"},"arcs":[[190],[191],[192],[193],[194],[195],[196],[197],[198],[199],[200]]},{"type":"MultiLineString","properties":{"kind":"train","description":"385\/386 \u0411\u0438\u0448\u043a\u0435\u043a - \u041d\u043e\u0432\u043e\u043a\u0443\u0437\u043d\u0435\u0446\u043a","name":"385 \u0411\u0438\u0448\u043a\u0435\u043a <=> \u041d\u043e\u0432\u043e\u043a\u0443\u0437\u043d\u0435\u0446\u043a","sort_rank":275,"name:de":"385 Bischkek 2<=>Nowokusnezk","source":"openstreetmap.org","min_zoom":6.0,"operator":"\u041a\u0422\u0416","ref":"385","osm_relation":true,"network":"\u041a\u0422\u0416"},"arcs":[[201],[202],[203]]},{"type":"MultiLineString","properties":{"kind":"train","alt_name:en":"New Eurasian Continental Bridge","network":"Eurasian Land Bridge","alt_name:de":"Zweite eurasische Kontinentalbr\u00fccke","sort_rank":275,"name:de":"Neue eurasische Kontinentalbr\u00fccke","source":"openstreetmap.org","min_zoom":6.0,"osm_relation":true,"name":"New Eurasian Land Bridge"},"arcs":[[204],[205],[206],[207],[208],[209],[210],[211],[212],[213],[214],[215],[216],[217],[218],[219],[220]]},{"type":"MultiLineString","properties":{"kind":"train","name":"701\/702 \u0410\u043b\u043c\u0430\u0442\u044b<=>\u041f\u0435\u0442\u0440\u043e\u043f\u0430\u0432\u043b\u043e\u0432\u0441\u043a","sort_rank":275,"name:de":"701\/702 Almaty<=>Petropavlovsk","source":"openstreetmap.org","min_zoom":6.0,"ref":"701\/702","osm_relation":true,"network":"\u049a\u0422\u0416"},"arcs":[[221],[222],[223],[224],[225]]},{"type":"MultiLineString","properties":{"kind":"train","network":"unknown","sort_rank":275,"description":"13 \u00dcr\u00fcmqi -> Almaty \/ 14 Almaty -> \u00dcr\u00fcmqi","name:de":"13\/14 Urumchi<=>Almaty","source":"openstreetmap.org","min_zoom":6.0,"name:ru":"13\/14 \u0423\u0440\u0443\u043c\u0447\u0438<=>\u0410\u043b\u043c\u0430\u0442\u044b","ref":"13\/14","osm_relation":true,"name":"13\/14 \u4e4c\u9c81\u6728\u9f50<=>\u0410\u043b\u043c\u0430\u0442\u044b"},"arcs":[[226],[227],[228],[229],[230],[231],[232],[233],[234],[235],[236]]},{"type":"MultiLineString","properties":{"kind":"train","network":"\u049a\u0422\u0416","sort_rank":275,"name:de":"77 Almaty<=>Atyrau","source":"openstreetmap.org","min_zoom":6.0,"ref":"77","osm_relation":true,"name":"77 A\u043b\u043c\u0430\u0442\u044b<=>\u0410\u0442\u044b\u0440\u0430\u0443"},"arcs":[[237],[238],[239],[240],[241]]}]},"pois":{"type":"GeometryCollection","geometries":[]},"boundaries":{"type":"GeometryCollection","geometries":[{"type":"MultiLineString","properties":{"source":"naturalearthdata.com","kind":"country","sort_rank":262,"kind_detail":"2","min_zoom":0.0,"id":81},"arcs":[[0],[1],[2],[3],[4],[5],[6],[7],[8]]},{"type":"MultiLineString","properties":{"source":"naturalearthdata.com","kind":"country","sort_rank":262,"kind_detail":"2","min_zoom":0.0,"id":83},"arcs":[[9],[10],[11],[12],[13],[14],[15],[16],[17],[18],[19],[20],[21],[22],[23],[24],[25],[26],[27],[28],[29],[30],[31],[32],[33],[34],[35],[36],[37],[38],[39],[40],[41],[42],[43],[44],[45],[46],[47],[48],[49]]},{"type":"MultiLineString","properties":{"source":"naturalearthdata.com","kind":"region","sort_rank":256,"kind_detail":"4","min_zoom":5.5,"id":3376},"arcs":[[50],[51],[52],[53],[54],[55],[56],[57],[58]]},{"type":"MultiLineString","properties":{"source":"naturalearthdata.com","kind":"region","sort_rank":256,"kind_detail":"4","min_zoom":5.5,"id":3377},"arcs":[[59],[60],[61],[62],[63],[64],[65],[66],[67],[68],[69]]},{"type":"MultiLineString","properties":{"source":"naturalearthdata.com","kind":"region","sort_rank":256,"kind_detail":"4","min_zoom":5.5,"id":3379},"arcs":[[70],[71],[72],[73],[74],[75],[76],[77],[78],[79],[80],[81],[82],[83],[84],[85],[86],[87],[88],[89],[90],[91],[92]]},{"type":"MultiLineString","properties":{"source":"naturalearthdata.com","kind":"region","sort_rank":256,"kind_detail":"4","min_zoom":5.5,"id":3386},"arcs":[[93],[94],[95],[96]]},{"type":"MultiLineString","properties":{"source":"naturalearthdata.com","kind":"region","sort_rank":256,"kind_detail":"4","min_zoom":5.5,"id":3380},"arcs":[[97],[98],[99],[100],[101],[102],[103],[104],[105],[106],[107],[108],[109],[110],[111],[112],[113],[114],[115],[116],[117]]},{"type":"MultiLineString","properties":{"source":"naturalearthdata.com","kind":"region","sort_rank":256,"kind_detail":"4","min_zoom":5.5,"id":3381},"arcs":[[118],[119],[120],[121],[122],[123],[124],[125],[126],[127],[128],[129],[130],[131],[132]]},{"type":"MultiLineString","properties":{"source":"naturalearthdata.com","kind":"region","sort_rank":256,"kind_detail":"4","min_zoom":5.5,"id":3382},"arcs":[[133],[134],[135],[136],[137],[138],[139],[140],[141],[142],[143],[144],[145],[146],[147],[148],[149],[150],[151],[152],[153],[154],[155],[156],[157],[158],[159]]},{"type":"MultiLineString","properties":{"source":"naturalearthdata.com","kind":"region","sort_rank":256,"kind_detail":"4","min_zoom":5.5,"id":3383},"arcs":[[160],[161],[162],[163],[164],[165],[166],[167],[168],[169]]},{"type":"MultiLineString","properties":{"source":"naturalearthdata.com","kind":"region","sort_rank":256,"kind_detail":"4","min_zoom":5.0,"id":7311},"arcs":[[170],[171],[172]]}]},"roads":{"type":"GeometryCollection","geometries":[{"type":"LineString","properties":{"source":"naturalearthdata.com","kind":"highway","sort_rank":383,"kind_detail":"motorway","min_zoom":3.0,"id":17316},"arcs":[251]},{"type":"LineString","properties":{"source":"naturalearthdata.com","kind":"highway","kind_detail":"motorway","sort_rank":383,"landuse_kind":"urban_area","min_zoom":3.0,"id":17340},"arcs":[252]},{"type":"LineString","properties":{"source":"naturalearthdata.com","kind":"highway","sort_rank":383,"kind_detail":"motorway","min_zoom":3.0,"id":17340},"arcs":[253]},{"type":"LineString","properties":{"source":"naturalearthdata.com","kind":"highway","kind_detail":"motorway","sort_rank":383,"landuse_kind":"urban_area","min_zoom":3.0,"id":17353},"arcs":[254]},{"type":"LineString","properties":{"source":"naturalearthdata.com","kind":"highway","sort_rank":383,"kind_detail":"motorway","min_zoom":3.0,"id":17353},"arcs":[255]},{"type":"LineString","properties":{"source":"naturalearthdata.com","kind":"highway","sort_rank":383,"kind_detail":"motorway","min_zoom":3.0,"id":17390},"arcs":[256]},{"type":"LineString","properties":{"source":"naturalearthdata.com","kind":"highway","sort_rank":383,"kind_detail":"motorway","min_zoom":3.0,"id":17417},"arcs":[257]},{"type":"LineString","properties":{"source":"naturalearthdata.com","kind":"highway","sort_rank":383,"kind_detail":"motorway","min_zoom":3.0,"id":17583},"arcs":[258]},{"type":"LineString","properties":{"source":"naturalearthdata.com","kind":"highway","sort_rank":383,"kind_detail":"motorway","min_zoom":3.0,"id":17635},"arcs":[259]},{"type":"LineString","properties":{"source":"naturalearthdata.com","kind":"major_road","sort_rank":379,"kind_detail":"secondary","min_zoom":3.0,"id":17641},"arcs":[260]},{"type":"LineString","properties":{"source":"naturalearthdata.com","kind":"highway","sort_rank":383,"kind_detail":"motorway","min_zoom":3.0,"id":17653},"arcs":[261]},{"type":"LineString","properties":{"source":"naturalearthdata.com","kind":"major_road","kind_detail":"secondary","sort_rank":379,"landuse_kind":"park","min_zoom":3.0,"id":17749},"arcs":[262]},{"type":"LineString","properties":{"source":"naturalearthdata.com","kind":"major_road","sort_rank":379,"kind_detail":"secondary","min_zoom":3.0,"id":17749},"arcs":[263]},{"type":"LineString","properties":{"source":"naturalearthdata.com","kind":"highway","sort_rank":383,"kind_detail":"motorway","min_zoom":5.0,"id":17779},"arcs":[264]},{"type":"LineString","properties":{"source":"naturalearthdata.com","kind":"highway","sort_rank":383,"kind_detail":"motorway","min_zoom":3.0,"id":17839},"arcs":[265]},{"type":"LineString","properties":{"source":"naturalearthdata.com","kind":"highway","sort_rank":383,"kind_detail":"motorway","min_zoom":3.0,"id":17849},"arcs":[266]},{"type":"LineString","properties":{"source":"naturalearthdata.com","kind":"highway","sort_rank":383,"kind_detail":"motorway","min_zoom":5.0,"id":17982},"arcs":[267]},{"type":"LineString","properties":{"source":"naturalearthdata.com","kind":"highway","sort_rank":383,"kind_detail":"motorway","min_zoom":5.0,"id":18048},"arcs":[268]},{"type":"LineString","properties":{"source":"naturalearthdata.com","kind":"highway","kind_detail":"motorway","sort_rank":383,"landuse_kind":"urban_area","min_zoom":4.0,"id":18126},"arcs":[269]},{"type":"MultiLineString","properties":{"source":"naturalearthdata.com","kind":"highway","sort_rank":383,"kind_detail":"motorway","min_zoom":4.0,"id":18126},"arcs":[[270],[271]]},{"type":"LineString","properties":{"source":"naturalearthdata.com","kind":"highway","sort_rank":383,"kind_detail":"motorway","min_zoom":3.0,"id":18173},"arcs":[272]},{"type":"LineString","properties":{"source":"naturalearthdata.com","kind":"highway","kind_detail":"motorway","sort_rank":383,"landuse_kind":"urban_area","min_zoom":4.0,"id":18181},"arcs":[273]},{"type":"LineString","properties":{"source":"naturalearthdata.com","kind":"highway","sort_rank":383,"kind_detail":"motorway","min_zoom":4.0,"id":18181},"arcs":[274]},{"type":"LineString","properties":{"source":"naturalearthdata.com","kind":"highway","sort_rank":383,"kind_detail":"motorway","min_zoom":3.0,"id":18211},"arcs":[275]},{"type":"LineString","properties":{"source":"naturalearthdata.com","kind":"highway","kind_detail":"motorway","sort_rank":383,"landuse_kind":"urban_area","min_zoom":3.0,"id":18215},"arcs":[276]},{"type":"LineString","properties":{"source":"naturalearthdata.com","kind":"highway","kind_detail":"motorway","sort_rank":383,"landuse_kind":"urban_area","min_zoom":3.0,"id":18215},"arcs":[277]},{"type":"MultiLineString","properties":{"source":"naturalearthdata.com","kind":"highway","sort_rank":383,"kind_detail":"motorway","min_zoom":3.0,"id":18215},"arcs":[[278],[279]]},{"type":"LineString","properties":{"source":"naturalearthdata.com","kind":"major_road","kind_detail":"secondary","sort_rank":379,"landuse_kind":"urban_area","min_zoom":3.0,"id":18219},"arcs":[280]},{"type":"LineString","properties":{"source":"naturalearthdata.com","kind":"highway","kind_detail":"motorway","sort_rank":383,"landuse_kind":"urban_area","min_zoom":5.0,"id":18221},"arcs":[281]},{"type":"LineString","properties":{"source":"naturalearthdata.com","kind":"highway","sort_rank":383,"kind_detail":"motorway","min_zoom":4.0,"id":18239},"arcs":[282]},{"type":"LineString","properties":{"source":"naturalearthdata.com","kind":"highway","kind_detail":"motorway","sort_rank":383,"landuse_kind":"urban_area","min_zoom":3.0,"id":18240},"arcs":[283]},{"type":"LineString","properties":{"source":"naturalearthdata.com","kind":"highway","sort_rank":383,"kind_detail":"motorway","min_zoom":3.0,"id":18240},"arcs":[284]},{"type":"LineString","properties":{"source":"naturalearthdata.com","kind":"highway","sort_rank":383,"kind_detail":"motorway","min_zoom":3.0,"id":18241},"arcs":[285]},{"type":"LineString","properties":{"source":"naturalearthdata.com","kind":"highway","sort_rank":383,"kind_detail":"motorway","min_zoom":5.0,"id":18245},"arcs":[286]},{"type":"LineString","properties":{"source":"naturalearthdata.com","kind":"highway","sort_rank":383,"kind_detail":"motorway","min_zoom":3.0,"id":18276},"arcs":[287]},{"type":"LineString","properties":{"source":"naturalearthdata.com","kind":"highway","sort_rank":383,"kind_detail":"motorway","min_zoom":3.0,"id":18318},"arcs":[288]},{"type":"LineString","properties":{"source":"naturalearthdata.com","kind":"highway","sort_rank":383,"kind_detail":"motorway","min_zoom":5.0,"id":18372},"arcs":[289]},{"type":"MultiLineString","properties":{"source":"naturalearthdata.com","kind":"highway","kind_detail":"motorway","sort_rank":383,"landuse_kind":"urban_area","min_zoom":3.0,"id":18397},"arcs":[[290],[291]]},{"type":"MultiLineString","properties":{"source":"naturalearthdata.com","kind":"highway","sort_rank":383,"kind_detail":"motorway","min_zoom":3.0,"id":18397},"arcs":[[292],[293]]},{"type":"LineString","properties":{"source":"naturalearthdata.com","kind":"highway","sort_rank":383,"kind_detail":"motorway","min_zoom":5.0,"id":18420},"arcs":[294]},{"type":"LineString","properties":{"source":"naturalearthdata.com","kind":"highway","sort_rank":383,"kind_detail":"motorway","min_zoom":3.0,"id":18421},"arcs":[295]},{"type":"LineString","properties":{"source":"naturalearthdata.com","kind":"highway","kind_detail":"motorway","sort_rank":383,"landuse_kind":"urban_area","min_zoom":3.0,"id":18442},"arcs":[296]},{"type":"LineString","properties":{"source":"naturalearthdata.com","kind":"highway","kind_detail":"motorway","sort_rank":383,"landuse_kind":"urban_area","min_zoom":3.0,"id":18442},"arcs":[297]},{"type":"LineString","properties":{"source":"naturalearthdata.com","kind":"highway","kind_detail":"motorway","sort_rank":383,"landuse_kind":"urban_area","min_zoom":3.0,"id":18442},"arcs":[298]},{"type":"LineString","properties":{"source":"naturalearthdata.com","kind":"highway","kind_detail":"motorway","sort_rank":383,"landuse_kind":"urban_area","min_zoom":3.0,"id":18442},"arcs":[299]},{"type":"MultiLineString","properties":{"source":"naturalearthdata.com","kind":"highway","sort_rank":383,"kind_detail":"motorway","min_zoom":3.0,"id":18442},"arcs":[[300],[301],[302]]},{"type":"LineString","properties":{"source":"naturalearthdata.com","kind":"highway","kind_detail":"motorway","sort_rank":383,"landuse_kind":"urban_area","min_zoom":3.0,"id":18451},"arcs":[303]},{"type":"LineString","properties":{"source":"naturalearthdata.com","kind":"highway","sort_rank":383,"kind_detail":"motorway","min_zoom":3.0,"id":18451},"arcs":[304]},{"type":"LineString","properties":{"source":"naturalearthdata.com","kind":"highway","sort_rank":383,"kind_detail":"motorway","min_zoom":4.0,"id":18476},"arcs":[305]},{"type":"LineString","properties":{"source":"naturalearthdata.com","kind":"highway","kind_detail":"motorway","sort_rank":383,"landuse_kind":"urban_area","min_zoom":5.0,"id":18559},"arcs":[306]},{"type":"LineString","properties":{"source":"naturalearthdata.com","kind":"highway","sort_rank":383,"kind_detail":"motorway","min_zoom":5.0,"id":18559},"arcs":[307]},{"type":"LineString","properties":{"source":"naturalearthdata.com","kind":"highway","kind_detail":"motorway","sort_rank":383,"landuse_kind":"urban_area","min_zoom":4.0,"id":18580},"arcs":[308]},{"type":"MultiLineString","properties":{"source":"naturalearthdata.com","kind":"highway","sort_rank":383,"kind_detail":"motorway","min_zoom":4.0,"id":18580},"arcs":[[309],[310]]},{"type":"MultiLineString","properties":{"source":"naturalearthdata.com","kind":"highway","kind_detail":"motorway","sort_rank":383,"landuse_kind":"urban_area","min_zoom":4.0,"id":18581},"arcs":[[311],[312]]},{"type":"LineString","properties":{"source":"naturalearthdata.com","kind":"highway","kind_detail":"motorway","sort_rank":383,"landuse_kind":"urban_area","min_zoom":4.0,"id":18581},"arcs":[313]},{"type":"LineString","properties":{"source":"naturalearthdata.com","kind":"highway","kind_detail":"motorway","sort_rank":383,"landuse_kind":"urban_area","min_zoom":4.0,"id":18581},"arcs":[314]},{"type":"LineString","properties":{"source":"naturalearthdata.com","kind":"highway","kind_detail":"motorway","sort_rank":383,"landuse_kind":"urban_area","min_zoom":4.0,"id":18581},"arcs":[315]},{"type":"MultiLineString","properties":{"source":"naturalearthdata.com","kind":"highway","sort_rank":383,"kind_detail":"motorway","min_zoom":4.0,"id":18581},"arcs":[[316],[317],[318],[319],[320]]},{"type":"LineString","properties":{"source":"naturalearthdata.com","kind":"highway","sort_rank":383,"kind_detail":"motorway","min_zoom":4.0,"id":18637},"arcs":[321]},{"type":"LineString","properties":{"source":"naturalearthdata.com","kind":"highway","kind_detail":"motorway","sort_rank":383,"landuse_kind":"urban_area","min_zoom":3.0,"id":18672},"arcs":[322]},{"type":"LineString","properties":{"source":"naturalearthdata.com","kind":"highway","sort_rank":383,"kind_detail":"motorway","min_zoom":3.0,"id":18672},"arcs":[323]},{"type":"LineString","properties":{"source":"naturalearthdata.com","kind":"highway","sort_rank":383,"kind_detail":"motorway","min_zoom":3.0,"id":18700},"arcs":[324]},{"type":"LineString","properties":{"source":"naturalearthdata.com","kind":"highway","sort_rank":383,"kind_detail":"motorway","min_zoom":4.0,"id":18711},"arcs":[325]},{"type":"LineString","properties":{"source":"naturalearthdata.com","kind":"highway","kind_detail":"motorway","sort_rank":383,"landuse_kind":"urban_area","min_zoom":5.0,"id":18712},"arcs":[326]},{"type":"LineString","properties":{"source":"naturalearthdata.com","kind":"highway","sort_rank":383,"kind_detail":"motorway","min_zoom":5.0,"id":18712},"arcs":[327]},{"type":"LineString","properties":{"source":"naturalearthdata.com","kind":"minor_road","sort_rank":355,"kind_detail":"tertiary","min_zoom":5.0,"id":18715},"arcs":[328]},{"type":"LineString","properties":{"source":"naturalearthdata.com","kind":"highway","sort_rank":383,"kind_detail":"motorway","min_zoom":5.0,"id":18733},"arcs":[329]},{"type":"LineString","properties":{"source":"naturalearthdata.com","kind":"minor_road","sort_rank":355,"kind_detail":"tertiary","min_zoom":5.0,"id":18858},"arcs":[330]},{"type":"LineString","properties":{"source":"naturalearthdata.com","kind":"minor_road","sort_rank":355,"kind_detail":"tertiary","min_zoom":5.0,"id":18859},"arcs":[331]},{"type":"MultiLineString","properties":{"source":"naturalearthdata.com","kind":"highway","sort_rank":383,"kind_detail":"motorway","min_zoom":3.0,"id":19095},"arcs":[[332],[333]]},{"type":"LineString","properties":{"source":"naturalearthdata.com","kind":"highway","sort_rank":383,"kind_detail":"motorway","min_zoom":4.0,"id":19103},"arcs":[334]},{"type":"LineString","properties":{"source":"naturalearthdata.com","kind":"highway","sort_rank":383,"kind_detail":"motorway","min_zoom":4.0,"id":19180},"arcs":[335]},{"type":"LineString","properties":{"source":"naturalearthdata.com","kind":"highway","sort_rank":383,"kind_detail":"motorway","min_zoom":4.0,"id":19265},"arcs":[336]},{"type":"LineString","properties":{"source":"naturalearthdata.com","kind":"highway","sort_rank":383,"kind_detail":"motorway","min_zoom":4.0,"id":19767},"arcs":[337]}]},"earth":{"type":"GeometryCollection","geometries":[{"type":"Polygon","properties":{"sort_rank":10,"source":"naturalearthdata.com","min_zoom":0.0,"kind":"earth","area":1568366174169},"arcs":[[338]]}]},"landuse":{"type":"GeometryCollection","geometries":[{"type":"MultiPolygon","properties":{"source":"openstreetmap.org","kind":"park","tier":2,"area":17690328776,"sort_rank":24,"min_zoom":4.0,"osm_relation":true},"arcs":[[[339]]]},{"type":"MultiPolygon","properties":{"source":"naturalearthdata.com","kind":"urban_area","name":"","area":7569174917,"sort_rank":11,"min_zoom":4.0},"arcs":[[[340]],[[341]],[[342]],[[343]],[[344]],[[345]],[[346]],[[347]],[[348]],[[349]],[[350]],[[351]],[[352]],[[353]],[[354]],[[355]],[[356]],[[357]],[[358]],[[359]],[[360]],[[361]],[[362]]]}]}},"type":"Topology","transform":{"translate":[73.125,40.9798980696],"scale":[0.001373291,0.0010032074]},"arcs":[[[3592,54],[12,5],[74,66],[11,12],[10,16],[19,39],[14,28],[18,28],[12,12],[29,18],[13,12],[8,17],[-2,18],[-13,38],[3,18],[12,15],[13,9],[29,14],[68,54],[53,12],[26,12],[7,9],[6,25],[6,11],[9,9],[10,6],[57,23]],[[3453,84],[95,-14],[28,-14],[16,-2]],[[3282,16],[13,1],[11,4],[96,54],[25,8],[26,1]],[[2827,64],[20,-4],[39,-20],[22,-8],[91,-6]],[[2693,0],[8,14],[19,19],[29,13],[78,18]],[[3064,41],[41,-9],[41,-18],[21,-12],[21,-1]],[[2999,26],[42,13],[23,2]],[[3245,18],[37,-2]],[[3188,1],[57,17]],[[1514,1859],[-19,5],[-44,27],[-17,13],[-21,13],[-44,13],[-21,10],[-20,19],[-63,31],[-83,14],[-25,10],[-75,58],[-10,12],[-18,32],[-10,12],[-14,8],[-30,8],[-26,18],[-31,3],[-14,8],[-38,31],[-21,11],[-24,5],[-21,9],[-37,34],[-21,12]],[[767,2275],[20,-28],[8,-17],[-2,-14],[-12,-7],[-115,-14]],[[666,2195],[-13,4],[-26,26],[-15,5]],[[612,2230],[-22,-17],[-24,-69],[-28,-15]],[[538,2129],[-30,2]],[[508,2131],[-12,-3],[-125,-52],[-35,-20],[-11,-11],[-8,-14],[-28,-81],[-15,-27],[-6,-14],[-3,-17],[2,-17],[9,-33],[2,-18],[-2,-16],[-20,-43],[-38,-88],[-8,-35],[-2,-37],[5,-34],[11,-31],[53,-103],[0,-1],[0,-18],[-21,-3]],[[3061,1912],[-72,12],[-13,0],[-12,0],[-12,3],[-11,9],[-21,30],[-8,7],[-25,9],[-82,14],[-15,6]],[[2790,2002],[-14,-2],[-29,-12],[-32,0],[-15,-3],[-14,-10],[-15,-18],[-6,-4],[-4,0]],[[2661,1953],[-13,3]],[[2648,1956],[-6,-1],[-1,-4],[-1,-5],[-3,-3],[-28,-15],[-14,-4]],[[2093,1932],[-17,1],[-57,17],[-28,4]],[[1991,1954],[-38,-3],[-7,-1],[-11,-3],[-9,-7],[-23,-64],[-8,-13],[-17,-18],[-21,-15],[-21,-10],[-19,0]],[[2213,1935],[-54,13]],[[2159,1948],[-18,0],[-48,-16]],[[3158,1928],[-20,7],[-12,1]],[[3126,1936],[-11,-2],[-31,-16],[-23,-6]],[[2341,1916],[-62,19]],[[2279,1935],[-66,0]],[[2520,1909],[-20,3],[-37,16],[-20,3]],[[2443,1931],[-13,-6],[-22,-21],[-13,-4]],[[3240,1902],[-12,0],[-14,8],[-13,11],[-14,7]],[[3187,1928],[-29,0]],[[2595,1924],[-32,1]],[[2563,1925],[-28,-13],[-15,-3]],[[2395,1900],[-7,3],[-8,16],[-8,5]],[[2372,1924],[-8,0],[-15,-7],[-8,-1]],[[3411,1885],[-8,7],[-5,5],[-3,7],[-4,6],[-50,12],[-48,1]],[[3293,1923],[-15,-3],[-38,-18]],[[3572,1869],[-32,5],[-42,25],[-16,6],[-17,2]],[[3465,1907],[-16,-2],[-7,-3],[-12,-8],[-19,-9]],[[4096,1814],[-46,5],[-12,6],[-25,22],[-30,17],[-72,26],[-48,5]],[[3863,1895],[-32,-3],[-16,-5],[-26,-18],[-13,-4]],[[3776,1865],[-15,1],[-30,10],[-14,3]],[[3717,1879],[-33,-5]],[[3684,1874],[-34,2]],[[3650,1876],[-78,-7]],[[1727,1838],[-164,22]],[[1563,1860],[-49,-1]],[[1817,1820],[-47,19],[-14,2]],[[1756,1841],[-29,-3]],[[256,1415],[-43,18],[-66,11],[-9,13],[-1,22],[3,30],[-12,13],[-16,7],[-52,3],[-13,4],[-12,7],[-15,11],[-20,9]],[[0,1137],[1,-1]],[[6,1138],[8,0],[10,-3],[38,-14],[32,-6],[9,-3],[10,-11],[5,-3],[13,0],[7,-2],[9,-4],[13,-8],[7,-5],[4,-5],[3,-5],[3,-9],[5,-19],[2,-4],[3,-1]],[[1,1136],[5,2]],[[208,1042],[6,-1],[9,-2],[23,-10]],[[187,1036],[21,6]],[[435,1041],[6,0],[16,-3],[6,-2],[10,-6],[8,-14],[11,-41]],[[373,1006],[12,2],[6,2],[4,4],[4,6],[6,7],[4,3],[16,9],[5,1],[5,1]],[[289,1035],[9,-2],[67,-26],[8,-1]],[[246,1029],[11,0],[22,6],[10,0]],[[370,1466],[-8,0],[-6,1],[-6,3],[-4,3],[-3,3],[-3,4],[-2,5],[-4,17],[-2,4]],[[332,1506],[-4,0],[-5,-8],[-4,-9],[-1,-12],[1,-6],[1,-4],[1,-4],[-5,-12],[-18,-17]],[[268,1301],[12,0],[16,4],[44,19],[10,7],[21,28],[2,16],[4,8],[12,18],[19,18],[3,6],[3,8],[-1,12],[-2,7],[-9,14],[-8,2],[-4,0]],[[390,1468],[-20,-2]],[[298,1434],[-21,3]],[[215,1318],[27,-3],[6,-3],[20,-11]],[[146,1301],[10,1],[29,13],[12,3],[18,0]],[[113,1309],[13,-2],[9,-4],[11,-2]],[[5,1262],[10,2],[8,6],[8,11],[3,4],[3,1],[20,11],[18,5],[13,1],[14,5],[11,1]],[[0,1262],[5,0]],[[0,1175],[0,1],[0,4],[0,1]],[[1755,1424],[11,3],[38,26],[9,11],[3,5],[13,6]],[[1742,1471],[4,-4],[3,-3],[2,-5],[1,-5],[1,-5],[-3,-18],[0,-6],[5,-1]],[[1663,1451],[10,0],[53,13],[12,6],[4,1]],[[1358,1469],[7,-1],[7,-3],[19,-24]],[[1271,1316],[5,1],[4,2],[-1,11],[-6,13],[-33,56],[-15,35],[9,5],[105,17],[10,4],[6,5],[3,4]],[[1627,1467],[30,-15],[6,-1]],[[1579,1449],[8,1],[21,8],[5,3],[4,3],[5,2],[5,1]],[[1439,1464],[29,-11],[111,-4]],[[1391,1441],[24,8],[10,8],[3,3],[5,3],[6,1]],[[1243,1324],[6,-1],[16,-6],[6,-1]],[[1123,1246],[4,0],[17,25],[29,39],[14,8],[56,6]],[[1091,1265],[17,-1],[5,-4],[2,-5],[1,-5],[2,-4],[5,0]],[[962,1245],[129,20]],[[896,1258],[18,0],[28,-5],[8,-3],[5,-3],[7,-2]],[[812,939],[6,1],[8,3],[8,7],[5,7],[2,7],[-1,17],[0,7],[2,7],[7,9],[18,21],[3,7],[1,9],[-3,17],[-1,5],[1,6],[3,10],[3,6],[3,6],[9,12],[7,7],[9,7],[1,3],[-1,4],[-5,6],[-6,4],[-19,4],[-2,12],[0,11],[13,83],[2,10],[2,1],[4,2],[5,1]],[[635,1013],[5,-8],[2,-4],[4,-13],[3,-5],[3,-5],[7,-6],[3,-5],[9,-16],[4,-5],[4,-4],[6,-3],[6,-1],[6,-1]],[[591,983],[14,5],[30,25]],[[579,984],[12,-1]],[[492,975],[87,9]],[[790,953],[4,-1],[3,-3],[6,-6],[4,-2],[5,-2]],[[738,882],[5,3],[3,7],[4,24],[2,8],[3,6],[6,7],[21,14],[4,2],[4,0]],[[724,944],[3,-2],[2,-3],[1,-6],[0,-7],[-4,-22],[0,-6],[1,-6],[2,-4],[2,-4],[3,-2],[4,0]],[[697,937],[6,1],[17,6],[4,0]],[[1096,1820],[7,0],[2,2],[-2,12],[0,12],[1,12],[8,6],[4,9],[9,5],[1,5],[-2,5],[-2,5],[-9,12],[-12,13],[-6,13],[-6,19],[-2,2]],[[1087,1952],[-3,-1],[-7,-17],[-9,-12],[-14,-11],[-39,-9],[-11,-13],[8,-16],[30,-25],[10,-7],[1,-12],[-2,-9],[1,-13],[4,-9],[5,-5]],[[1085,1822],[11,-2]],[[1061,1793],[4,0],[5,6],[5,12],[10,11]],[[492,975],[-4,-12],[-17,-26],[-5,-9],[-2,-5],[-4,-4],[-4,-2],[-6,-1],[-9,-1],[-4,0],[-2,-2],[0,-4],[2,-4],[5,-5],[5,-4],[6,-5],[16,-21],[9,-7],[8,-5],[6,-1]],[[511,894],[3,0],[23,-11],[5,-4],[9,-8],[4,-2]],[[492,857],[6,3],[6,4],[5,6],[2,6],[1,6],[-1,10],[0,2]],[[582,881],[3,-1],[8,-4],[17,-6],[4,-3],[2,-3],[3,-5],[3,-8],[2,-14],[0,-16],[-3,-55],[0,-4],[1,-3],[2,-2],[26,-5],[32,-2],[23,-6],[5,-2],[3,-5],[3,-9],[4,-20],[9,-80],[0,-7],[-5,-3]],[[555,869],[5,1],[19,11],[3,0]],[[724,618],[-10,0],[-23,9],[-10,7],[-4,7],[2,15],[0,6],[0,8],[-2,7],[-3,9],[-4,8],[-6,6],[-6,5],[-7,3],[-14,3],[-30,5]],[[607,716],[-5,-1],[-4,-1],[-4,-3],[-18,-17],[-4,-3],[1,-6],[3,-1],[8,-12],[10,-27],[4,-8]],[[1152,651],[5,0],[21,-15],[7,-6],[1,-3],[-1,-6],[-2,-8],[-10,-21],[-2,-11],[-1,-32],[-2,-11],[-7,-21],[-8,-38],[-10,-27],[-3,-9],[-26,-37],[-6,-6],[-6,-4],[-22,-8],[-25,-14],[-12,-3],[-46,-8],[-11,-3],[-11,-5],[-19,-12],[-58,-21],[-8,-4],[-3,-5],[0,-7],[9,-25],[4,-8],[20,-29],[4,-4],[3,-4],[1,-2],[-1,-3],[-3,-2],[-10,-3]],[[1016,585],[12,2],[91,40],[6,4],[2,1],[1,2],[1,2],[2,7],[2,3],[4,3],[5,2],[10,0]],[[611,640],[9,-4],[7,-4],[5,-5],[7,-10],[5,-3],[4,-2],[6,-1],[4,-1],[4,-3],[16,-16],[7,-4],[8,-4],[8,-1]],[[598,637],[13,3]],[[996,591],[8,-1],[7,-2],[5,-3]],[[934,564],[9,1],[15,8],[16,14],[7,3],[15,1]],[[745,591],[17,-3],[10,-4],[8,-5],[11,-11],[4,-3],[5,-1]],[[701,582],[9,1],[23,7],[12,1]],[[877,579],[39,-6],[5,-2],[5,-4],[8,-3]],[[800,564],[5,1],[7,5],[11,4],[17,3],[37,2]],[[914,226],[-8,2],[-13,6],[-6,1],[-5,1]],[[882,236],[-58,-14],[-37,-1],[-3,-1],[-19,-13],[-6,-3],[-13,-3],[-5,-3],[-5,-4],[-7,-10],[-7,-3],[-7,-1]],[[715,180],[-6,1],[-6,1]],[[703,182],[-6,-4],[-4,-5],[-6,-15],[-2,-7],[2,-7],[56,-47],[-1,-9],[-10,-15],[-58,-73]],[[2975,1882],[5,1],[2,7],[2,9],[-8,25]],[[2960,1885],[10,-3],[5,0]],[[2879,1813],[14,3],[20,6],[6,5],[4,6],[4,18],[3,8],[18,21],[4,3],[4,2],[4,0]],[[2707,1816],[172,-3]],[[2668,1776],[6,1],[5,3],[4,6],[3,6],[3,7],[2,6],[2,5],[5,5],[9,1]],[[2603,1796],[8,-2],[34,-14],[23,-4]],[[2549,1771],[11,3],[38,21],[5,1]],[[2446,1790],[7,-1],[46,-11]],[[2202,1618],[7,1],[7,3],[18,13],[5,5],[39,48],[15,12],[16,11],[51,23],[55,13],[4,2],[5,3],[13,31],[4,4],[5,3]],[[2518,1779],[23,-8],[8,0]],[[2499,1778],[19,1]],[[2154,1628],[17,0],[12,-7],[9,-3],[5,0],[5,0]],[[2040,1602],[12,1],[102,25]],[[1984,1607],[56,-5]],[[1829,1475],[29,18],[6,5],[3,5],[2,9],[1,3],[0,16],[2,4],[4,4],[11,1],[8,2],[9,4],[18,15],[9,6],[18,8],[8,5],[4,4],[7,17],[7,4],[9,2]],[[1829,1475],[2,-9],[10,-32],[2,-5],[3,-3],[19,-2],[5,-1],[5,-3],[5,-3],[21,-10],[5,-4],[4,-5],[11,-23],[3,-4],[4,-3],[6,-1]],[[2025,1406],[6,-1],[18,-5],[6,-3],[5,-6],[4,-11],[2,-15],[0,-5],[0,-5],[2,-6],[2,-4],[13,-9],[8,-10],[3,-4],[2,-5],[3,-11],[0,-6],[0,-5],[-13,-35],[-2,-6],[-4,-25],[0,-5],[1,-6],[3,-4],[6,-2],[8,-1],[4,-2],[3,-5],[1,-7],[-1,-13],[2,-6],[6,-7],[26,-17],[6,-5],[5,-6],[7,-12],[2,-8],[1,-8],[-1,-6],[-4,-12],[-2,-5],[-3,-4],[-7,-8],[-15,-13],[-15,-11],[-4,-3],[-3,-4],[-2,-6],[-1,-5],[2,-6],[5,-4],[11,-3],[7,-1]],[[1934,1367],[53,3],[9,4],[4,2],[7,6],[3,4],[2,5],[2,5],[3,5],[3,4],[5,1]],[[2211,1051],[7,-3],[10,-6],[18,-13],[10,-6],[8,-3]],[[2128,1024],[6,1],[55,16],[18,9],[4,1]],[[2298,1027],[5,-1],[29,-8],[16,-10],[22,-10],[5,-1],[54,-1],[12,-3],[59,-32],[23,-10],[12,-2],[5,0]],[[2264,1020],[5,0],[5,1],[18,6],[6,0]],[[2566,959],[4,-1],[2,-3],[-14,-33],[-7,-24],[-1,-5],[-1,-17],[-4,-5],[-5,-5],[-23,-2]],[[2540,949],[5,0],[17,9],[4,1]],[[2517,864],[-46,3]],[[2471,867],[-17,-2],[-5,-1],[-8,-5],[-8,-6],[-11,-22],[12,-14],[0,-5],[3,-6],[3,-4],[98,-4]],[[2569,809],[8,-2],[11,-4],[20,-10],[16,-11],[2,-3],[2,-5],[1,-5],[0,-6],[-4,-17],[-2,-6],[-12,-19],[-2,-5],[-2,-6],[-1,-7],[-2,-17],[-1,-6],[-4,-12],[-8,-15],[-12,-18],[-2,-5],[-2,-6],[2,-4],[5,-1]],[[2538,798],[14,3],[12,7],[5,1]],[[3069,645],[3,0],[6,-19],[-4,-42],[-6,-24],[-13,-35],[-5,-5],[-6,-3]],[[2846,601],[131,2],[7,2],[11,5],[5,4],[9,7],[6,3],[24,7],[15,5],[11,9],[4,0]],[[2608,628],[6,-1],[8,-3],[5,-4],[3,-5],[2,-4],[2,-4],[5,-4],[6,-1],[36,-5]],[[2582,619],[12,3],[14,6]],[[2753,616],[52,-5],[41,-10]],[[2681,597],[17,1],[15,5],[23,10],[9,3],[8,0]],[[3044,517],[-4,1],[-2,0],[-1,1],[-7,3]],[[3030,522],[-2,0],[0,-4],[3,-10],[4,-9],[4,-12],[3,-20],[1,-5],[0,-5],[10,-11],[38,-18],[24,-15],[4,-4],[5,-5],[1,-4],[0,-4],[-2,-5],[-12,-18],[-2,-5],[-1,-6],[-1,-11],[-9,-32],[-2,-6],[-3,-4],[-3,-4],[-7,-7],[-4,-3],[-2,-5],[0,-4],[3,-4]],[[3257,334],[24,-1],[11,-2],[6,-6],[3,-6],[0,-6],[-2,-5],[-9,-22],[-2,-6],[-1,-6],[0,-11],[2,-10],[3,-4],[6,-3],[10,-2]],[[3080,282],[24,4],[119,34],[25,13],[9,1]],[[3649,271],[6,-1],[8,-2],[6,-3],[6,-5],[4,-8],[7,-15],[5,-15],[4,-9],[8,-10],[15,-11]],[[3470,219],[54,0],[34,5],[18,4],[33,19],[11,10],[15,10],[9,4],[5,0]],[[3377,245],[93,-26]],[[3308,244],[69,1]],[[393,159],[4,0],[2,-3],[6,-8],[9,-13],[2,-3],[2,-4],[0,-4],[-1,-6],[-3,-7],[-62,-60],[-9,-11],[-3,-5],[-2,-5],[1,-3],[4,-2],[18,-2],[4,-2],[2,-4],[1,-5],[0,-6],[1,-6]],[[341,108],[8,0],[10,4],[4,2],[2,4],[0,4],[0,4],[-2,4],[-2,5],[-1,6],[3,9],[3,3],[5,2],[22,4]],[[543,146],[7,-3],[4,-3],[0,-6],[-2,-13],[2,-9],[4,-6],[15,-12],[3,-7],[1,-10],[-1,-12],[2,-15],[3,-8],[3,-5],[69,-37]],[[429,0],[0,6],[2,8],[2,8],[6,9],[9,8],[28,20],[4,5],[39,66],[12,15],[12,1]],[[246,115],[5,-2],[3,-1]],[[183,38],[5,1],[6,3],[7,14],[5,9],[5,6],[9,6],[5,6],[14,24],[4,5],[3,3]],[[279,113],[62,-5]],[[254,112],[25,1]],[[158,63],[4,-3],[4,-4],[3,-5],[5,-9],[2,-2],[2,-2],[5,0]],[[97,0],[0,5],[3,11],[5,8],[6,7],[39,29],[4,2],[4,1]],[[557,4096],[7,-11],[71,-2],[71,-16],[12,-86],[32,-66],[280,-251],[13,-139],[39,-103],[108,-99],[160,-22],[124,-70],[71,-70],[58,-72],[-6,-112],[-33,-89],[-186,-313],[62,-27],[59,-14]],[[1527,2546],[23,-30],[66,-1],[61,-34],[-49,-72],[-46,-99],[12,-45],[6,-32],[10,-25],[21,-37],[63,-51],[85,-36],[60,-53],[-49,-37],[139,-20],[24,-23]],[[1499,2534],[28,12]],[[2724,2371],[-190,26],[-83,132],[-133,81],[-195,-3],[-174,-72],[-436,17],[-484,272],[-80,29],[-52,-25],[-83,23],[-18,34],[-119,12],[-81,-79],[-156,-234],[-125,-255],[-315,-154]],[[2777,2287],[17,63],[-69,21]],[[2724,2371],[-190,26],[-83,132],[-134,81],[-194,-3],[-174,-72],[-436,17],[-484,272],[-80,29],[-53,-25],[-82,23],[-20,35],[-121,9],[-195,-259]],[[478,2636],[0,-1]],[[478,2635],[-163,-306],[-315,-154]],[[478,2635]],[[478,2636]],[[2725,2371],[68,-20]],[[2793,2351],[58,118],[64,239],[-69,51],[14,118],[54,39],[63,-3],[34,35],[116,144],[65,142],[32,2],[-26,52],[196,1],[82,70],[18,-15],[24,29],[22,-13],[27,105],[-20,159]],[[3547,3624],[-1,9]],[[3546,3633],[-36,25],[-71,145],[49,154],[-9,125],[3,14]],[[2724,2371],[-190,26],[-83,132],[-133,81],[-195,-3],[-174,-72],[-436,17],[-484,272],[-80,29],[-52,-25],[-83,23],[-18,34],[-119,12],[-81,-79],[-156,-234],[-125,-255],[-315,-154]],[[2777,2287],[17,63],[-69,21]],[[622,4096],[7,-26],[-16,-22],[36,-77],[-7,-81],[-100,-117],[-16,-333],[-50,-79],[48,-284],[-13,-388],[-124,-193],[-72,-166],[-315,-154]],[[461,2609],[2,5],[1,0],[-3,-5]],[[2777,2287],[17,63],[-260,47],[-83,132],[-134,81],[-194,-3],[-174,-72],[-436,17],[-484,272],[-80,29],[-52,-25],[-83,23],[-18,34],[-117,12],[-166,-195],[11,375],[-48,284],[50,79],[16,333],[100,117],[7,80],[-36,78],[16,22],[-7,26]],[[622,4096],[7,-26],[-16,-22],[36,-77],[-7,-81],[-100,-117],[-16,-333],[-50,-79],[48,-284],[-13,-388],[-124,-193],[-72,-167],[-315,-154]],[[2777,2287],[16,64]],[[2793,2351],[-2,0]],[[2791,2351]],[[2791,2351]],[[2791,2351],[0,1]],[[2791,2352],[-1,0]],[[2790,2352]],[[2790,2352],[-1,0]],[[2789,2352],[0,1]],[[2789,2353],[-7,2]],[[2793,2351],[58,118],[64,239],[-69,51],[14,118],[54,39],[63,-3],[34,35],[116,144],[65,142],[32,2],[-26,52],[196,1],[82,70],[18,-15],[24,29],[23,-12],[26,104],[-16,148],[-112,190],[49,154],[-9,125],[3,14]],[[0,1910],[67,-9],[286,-58],[156,-15],[208,0],[361,50]],[[2724,2371],[-190,26],[-83,132],[-133,81],[-195,-3],[-174,-72],[-436,17],[-484,272],[-80,29],[-52,-25],[-83,23],[-18,34],[-119,12],[-81,-79],[-156,-234],[-125,-255],[-315,-154]],[[2725,2371],[83,-12],[100,319],[6,35],[-68,46],[13,118],[55,39],[63,-3],[34,35],[116,144],[65,142],[32,2],[-27,51],[197,2],[82,70],[18,-15],[24,29],[23,-12],[26,104],[-16,148],[-112,190],[49,154],[-9,125],[3,14]],[[0,2163],[258,128],[74,64]],[[332,2355],[125,249]],[[2343,2597],[-198,14],[-196,-76],[-407,14]],[[1542,2549],[-146,58]],[[1542,2549],[6,-1]],[[2636,2374],[-105,24],[-80,131],[-107,67]],[[2636,2374],[37,-5],[24,-2],[18,2],[15,3],[34,-11]],[[2713,2369],[-28,-1]],[[2713,2369],[2,0],[9,2]],[[2723,2371],[-10,-2]],[[2750,2366],[-10,4],[-10,2],[-5,-1]],[[2829,2429],[83,267]],[[2912,2696],[-28,28]],[[2912,2696],[3,11]],[[2914,2704],[1,3]],[[2915,2707],[1,1]],[[2916,2708],[123,27],[92,-25],[130,-84],[130,53],[594,4],[111,51]],[[512,2706],[8,266],[4,104],[0,1],[-10,19],[1,40],[-40,160],[1,65],[21,33],[12,30],[2,2],[6,3],[3,1],[6,10],[20,188],[-5,21],[2,20],[2,20],[-3,84],[100,117],[7,81],[-14,53],[-4,5],[-18,19],[13,11],[3,8],[0,3],[-7,26]],[[617,4096],[0,-4],[1,-1],[0,-1],[4,-4],[1,-5],[0,-2],[1,-1],[0,-2],[1,-1],[4,-4],[0,-1],[0,-3],[-2,-3],[0,-1],[-1,-4],[-3,-2],[-7,-2],[-2,-1],[-1,-1],[-1,-1],[0,-2],[1,-2],[1,-1],[17,-18],[3,-5],[-3,-9],[0,-2],[0,-5],[0,-2],[18,-35],[-7,-81],[-3,-3],[-25,-17],[-2,-1],[-1,-1],[-6,-12],[-2,-1],[-5,-2],[-2,-1],[-33,-38],[-2,-1],[-1,-2],[-1,-2],[-10,-23],[-7,-12],[0,-1],[-1,-2],[0,-1],[4,-81],[-2,-20],[-3,-19],[0,-1],[1,-9],[0,-4],[1,-2],[3,-4],[1,-2],[0,-2],[-15,-68],[0,-2],[0,-2],[0,-2],[1,-32],[-7,-68],[0,-7],[1,-5],[-6,-10],[-3,-1],[-5,-2],[-1,-1],[-1,0],[-1,-2],[-12,-30],[-17,-22],[-1,-1],[-3,-8],[0,-2],[-1,-65],[21,-109],[1,-5],[1,-4],[9,-19],[2,-9],[2,-6],[4,-8],[-1,-39],[0,-1],[10,-19],[0,-1],[-7,-220],[-5,-150]],[[520,2702],[-8,4]],[[520,2702],[95,129]],[[2777,2287],[17,63],[-260,47],[-83,132],[-133,81],[-195,-3],[-174,-72],[-362,6],[-159,42],[-252,165],[-226,105],[-53,-25],[-83,23],[-18,34],[-118,12],[-63,-66]],[[2777,2287],[16,64]],[[2793,2351],[-2,0]],[[2791,2351]],[[2791,2351]],[[2791,2351],[0,1]],[[2791,2352],[-1,0]],[[2790,2352]],[[2790,2352],[-1,0]],[[2789,2352],[0,1]],[[2789,2353],[-7,2]],[[2793,2351],[58,118],[64,239],[-69,51],[14,118],[54,39],[63,-3],[34,35],[116,144],[65,142],[32,2],[-26,52],[196,1],[82,70],[18,-15],[24,29],[23,-12],[26,104],[-16,148],[-112,190],[49,154],[-9,125],[3,14]],[[0,2175],[315,154],[150,287]],[[465,2616],[150,215]],[[2636,2374],[-105,24],[-80,131],[-133,81],[-195,-3],[-174,-72],[-362,6],[-159,42],[-252,165],[-226,105],[-53,-25],[-83,23],[-18,34],[-118,12],[-63,-66]],[[2636,2374],[88,-3]],[[2777,2287],[17,63],[-70,21]],[[763,4096],[1,-2],[-11,-14],[-14,-10],[-17,-7],[-21,-3],[-9,-3],[-4,-7],[2,-10],[6,-11],[28,14],[9,3],[-11,-23],[-3,-11],[11,-6],[9,-14],[3,-14],[-6,-7],[-7,3],[-20,24],[-13,-5],[-58,12],[4,9],[2,4],[-4,3],[-7,8],[-4,3],[8,7],[21,14],[5,7],[-3,8],[-24,23],[-2,5],[129,0]],[[122,798],[9,-7],[4,-1],[0,-2],[-7,-11],[-8,-4],[-30,1],[-54,-21],[-13,4],[-23,13],[0,52],[18,-1],[37,-13],[54,-4],[13,-6]],[[3735,1615],[38,2],[15,-7],[-5,-23],[-14,-9],[-93,12],[-16,-1],[-17,-9],[-15,-14],[-37,-57],[-20,-19],[-24,-9],[-51,-4],[-18,-4],[-52,-23],[-13,-14],[8,-18],[51,-11],[16,-18],[-26,-1],[-20,-11],[-16,-19],[-28,-48],[-76,-79],[-22,-12],[-25,-6],[-29,-2],[-22,-9],[-27,-17],[-25,-7],[-13,20],[-26,-12],[-27,0],[-52,12],[-22,-1],[-83,-15],[-17,-6],[-11,-6],[-5,1],[-6,5],[-6,1],[-47,0],[-22,8],[-22,13],[-20,5],[-13,-20],[-5,0],[-7,18],[-14,13],[-17,8],[-31,6],[-16,9],[-39,36],[-8,5],[-8,2],[-10,-4],[-9,-7],[-8,-2],[-11,9],[-11,7],[-51,4],[-32,9],[-121,65],[-18,2],[-16,-11],[-12,-13],[-14,-8],[-15,-1],[-17,4],[-8,5],[-8,6],[-6,8],[-5,27],[-5,9],[-7,8],[-6,12],[3,1],[8,6],[-3,4],[-2,1],[-6,2],[5,0],[-9,11],[-5,21],[5,20],[17,10],[57,12],[21,1],[80,-15],[10,1],[7,4],[16,30],[7,7],[16,5],[40,-6],[18,5],[15,13],[24,29],[16,9],[219,45],[4,4],[9,-2],[15,-6],[9,4],[15,18],[8,6],[19,5],[38,4],[27,10],[8,-1],[8,-3],[8,-2],[10,2],[7,3],[7,5],[63,22],[17,2],[18,-3],[45,-25],[67,-6],[7,3],[9,7],[14,14],[7,5],[30,5],[62,24],[30,5],[18,10],[10,2],[10,0],[25,-6],[62,10],[28,-12],[20,-1],[20,2],[16,5],[36,2],[15,3],[11,7],[14,8],[49,6],[14,-4],[9,4],[51,-4],[0,-6],[-17,-4],[-24,-13],[-12,-3],[-16,5],[-7,0],[-6,-18],[-14,-23],[-4,-6],[-8,-3],[-19,0],[-8,-3],[-7,-9],[-16,-27],[-4,-5],[-2,-4],[6,-10],[7,-9],[9,-4],[104,0]],[[3558,2794],[-5,-4],[-5,-8],[3,0],[3,-5],[2,-6],[0,-5],[-13,-11],[-70,-3],[-6,21],[-15,6],[-34,-3],[-56,12],[-11,-2],[-14,-8],[-20,4],[-33,14],[-92,-5],[-107,25],[-14,11],[-14,7],[-22,-2],[-31,-9],[-12,2],[-19,9],[-11,3],[-11,-4],[-16,-13],[-10,-3],[6,21],[-8,17],[-12,13],[-7,14],[3,7],[11,25],[4,5],[10,-1],[18,-5],[9,-1],[34,4],[17,5],[11,8],[11,11],[17,10],[17,8],[13,2],[6,-3],[11,-12],[8,-5],[30,0],[15,-11],[160,-44],[166,-18],[43,11],[40,19],[19,5],[21,-4],[28,-11],[12,-2],[21,4],[9,-2],[10,-9],[-12,-4],[-14,-9],[-24,-22],[-10,8],[-8,-2],[-21,-24],[-3,-2],[-6,0],[-3,-3],[-2,-14],[-2,-4],[-15,-8]],[[763,4096],[1,-2],[-11,-14],[-14,-10],[-17,-7],[-21,-3],[-9,-3],[-4,-7],[2,-10],[6,-11],[28,14],[9,3],[-11,-23],[-3,-11],[11,-6],[9,-14],[3,-14],[-6,-7],[-7,3],[-20,24],[-13,-5],[-58,12],[4,9],[2,4],[-4,3],[-7,8],[-4,3],[8,7],[21,14],[5,7],[-3,8],[-24,23],[-2,5]],[[122,798],[9,-7],[4,-1],[0,-2],[-7,-11],[-8,-4],[-30,1],[-54,-21],[-13,4],[-23,13]],[[0,822],[18,-1],[37,-13],[54,-4],[13,-6]],[[3558,2794],[-5,-4],[-5,-8],[3,0],[3,-5],[2,-6],[0,-5],[-13,-11],[-70,-3],[-6,21],[-15,6],[-34,-3],[-56,12],[-11,-2],[-14,-8],[-20,4],[-33,14],[-92,-5],[-107,25],[-14,11],[-14,7],[-22,-2],[-31,-9],[-12,2],[-19,9],[-11,3],[-11,-4],[-16,-13],[-10,-3],[6,21],[-8,17],[-12,13],[-7,14],[3,7],[11,25],[4,5],[10,-1],[18,-5],[9,-1],[34,4],[17,5],[11,8],[11,11],[17,10],[17,8],[13,2],[6,-3],[11,-12],[8,-5],[30,0],[15,-11],[160,-44],[166,-18],[43,11],[40,19],[19,5],[21,-4],[28,-11],[12,-2],[21,4],[9,-2],[10,-9],[-12,-4],[-14,-9],[-24,-22],[-10,8],[-8,-2],[-21,-24],[-3,-2],[-6,0],[-3,-3],[-2,-14],[-2,-4],[-15,-8]],[[3735,1615],[38,2],[15,-7],[-5,-23],[-14,-9],[-93,12],[-16,-1],[-17,-9],[-15,-14],[-37,-57],[-20,-19],[-24,-9],[-51,-4],[-18,-4],[-52,-23],[-13,-14],[8,-18],[51,-11],[16,-18],[-26,-1],[-20,-11],[-16,-19],[-28,-48],[-76,-79],[-22,-12],[-25,-6],[-29,-2],[-22,-9],[-27,-17],[-25,-7],[-13,20],[-26,-12],[-27,0],[-52,12],[-22,-1],[-83,-15],[-17,-6],[-11,-6],[-5,1],[-6,5],[-6,1],[-47,0],[-22,8],[-22,13],[-20,5],[-13,-20],[-5,0],[-7,18],[-14,13],[-17,8],[-31,6],[-16,9],[-39,36],[-8,5],[-8,2],[-10,-4],[-9,-7],[-8,-2],[-11,9],[-11,7],[-51,4],[-32,9],[-121,65],[-18,2],[-16,-11],[-12,-13],[-14,-8],[-15,-1],[-17,4],[-8,5],[-8,6],[-6,8],[-5,27],[-5,9],[-7,8],[-6,12],[3,1],[8,6],[-3,4],[-2,1],[-6,2],[5,0],[-9,11],[-5,21],[5,20],[17,10],[57,12],[21,1],[80,-15],[10,1],[7,4],[16,30],[7,7],[16,5],[40,-6],[18,5],[15,13],[24,29],[16,9],[219,45],[4,4],[9,-2],[15,-6],[9,4],[15,18],[8,6],[19,5],[38,4],[27,10],[8,-1],[8,-3],[8,-2],[10,2],[7,3],[7,5],[63,22],[17,2],[18,-3],[45,-25],[67,-6],[7,3],[9,7],[14,14],[7,5],[30,5],[62,24],[30,5],[18,10],[10,2],[10,0],[25,-6],[62,10],[28,-12],[20,-1],[20,2],[16,5],[36,2],[15,3],[11,7],[14,8],[49,6],[14,-4],[9,4],[51,-4],[0,-6],[-17,-4],[-24,-13],[-12,-3],[-16,5],[-7,0],[-6,-18],[-14,-23],[-4,-6],[-8,-3],[-19,0],[-8,-3],[-7,-9],[-16,-27],[-4,-5],[-2,-4],[6,-10],[7,-9],[9,-4],[104,0]],[[622,4096],[3,-11]],[[3829,4011],[12,21],[1,1]],[[3842,4033],[26,44],[8,19]],[[3821,4006],[8,5]],[[3802,3995],[19,11]],[[3736,3925],[54,58],[12,12]],[[625,4085],[3,-61],[0,-21],[12,-16],[21,-21],[3,-20],[0,-21],[30,-29],[3,-16]],[[697,3880],[27,-17],[18,-16],[30,-17],[42,-24],[27,-25],[39,-37],[39,-33],[39,-29],[21,-20],[0,-25],[-9,-16],[3,-17],[54,-33],[33,-24],[33,-33],[30,-25],[9,0]],[[3532,3358],[-9,12],[-18,8],[-3,8],[-6,33],[3,50],[0,12],[-18,25],[-6,12],[-6,21],[3,16],[27,33],[27,29],[42,45],[6,12],[-12,29],[0,8],[6,13],[27,16],[6,8],[0,25],[18,20],[-9,29],[6,8],[27,13],[33,8],[18,16],[12,21],[30,37]],[[3532,3358],[21,4],[42,20],[30,9],[42,4],[27,4],[42,4],[51,-17],[39,-16],[36,-29]],[[1132,3489],[21,-8],[42,-12],[48,-9],[39,-12],[28,-8],[36,-8],[36,-9],[33,-8],[24,-8],[42,-21],[96,-24],[42,-17],[33,-4],[36,-4],[15,0],[42,-8]],[[3914,3239],[2,-5],[6,-24],[12,-13],[45,-8],[46,-8],[21,4],[33,-8],[17,3]],[[3862,3341],[24,-37],[9,-33],[19,-32]],[[697,3880],[-12,0],[-21,0],[-18,-8],[-15,-13],[-15,-20],[-42,-54],[-9,-24],[-3,-54],[3,-37],[-9,-45],[0,-17],[3,-65],[-3,-78],[-12,-33],[-27,-50],[0,-37],[0,-45],[-15,-16],[-3,-13],[0,-20],[-6,-21],[-39,-33],[-36,-41],[-18,-20],[-37,-33],[-18,-17],[-39,-24]],[[1745,3329],[33,-17],[33,-20],[48,-37],[48,-29],[54,-33],[48,-37],[84,-66],[30,-20],[21,-17],[33,-24],[76,-50],[12,-8],[42,-8],[27,-4]],[[2919,2947],[15,4],[15,-4],[21,0],[18,8],[18,20],[12,9],[30,0],[45,12],[70,4],[12,8],[15,21],[15,16],[12,21],[30,41],[3,4],[45,70],[18,12],[15,21],[9,24],[27,17],[30,0],[27,8],[39,21],[33,16],[24,21],[15,28],[0,9]],[[306,3062],[15,-37],[18,-41],[15,-29],[30,-33],[19,-25],[21,-33],[15,-45],[15,-29],[33,-33],[12,-32],[0,-37]],[[499,2688],[-9,-58],[-6,-25],[-21,-41]],[[4010,2496],[-18,40]],[[3992,2536],[-4,8],[-12,8],[-54,16],[-54,9],[-39,4],[-18,4],[-33,20],[-15,4],[-36,-4],[-27,-16],[-12,-4],[-30,-8],[-33,8],[-48,-4],[-36,-9],[-27,-8],[-51,-8],[-54,-12],[-42,-13],[-36,-8],[-24,0]],[[4088,2429],[-36,16],[-18,16],[-22,29],[-2,6]],[[1415,2404],[9,4],[15,-4],[24,-12],[42,-17],[30,0],[39,-12],[21,-4],[39,-9],[42,-8],[84,-4],[48,0],[75,-8],[24,0]],[[2852,2319],[-5,-6]],[[3307,2523],[-30,4],[-30,-8],[-87,-45],[-30,-21],[-43,-24],[-18,-9],[-21,-4],[-60,0],[-21,-8],[-48,-25],[-15,-12],[-24,-21],[-28,-31]],[[1907,2330],[48,0],[39,0],[36,4],[66,-4],[24,0],[42,0],[15,-8],[61,-25],[39,-8],[21,-17]],[[2778,2268],[0,8],[21,50],[9,45],[15,74],[3,16]],[[2862,2866],[-3,15],[0,8],[24,45],[14,12]],[[2826,2461],[6,29],[12,41],[12,62],[12,33],[-18,8],[-12,12],[-3,13],[0,16],[3,29],[3,49],[0,54],[3,20],[21,25],[-3,14]],[[2897,2946],[1,1],[21,0]],[[2778,2268],[0,-12]],[[2847,2313],[-39,-41],[-24,-16],[-6,0]],[[4096,2426],[-8,3]],[[2666,2247],[1,1],[63,24],[45,0],[3,-4]],[[2568,2223],[54,8],[44,16]],[[2334,2959],[9,-4],[21,-54],[18,-57],[39,-66],[42,-62],[12,-33],[18,-32],[33,-42],[21,-32],[33,-70],[15,-25],[6,-21],[-27,-49],[-9,-45],[3,-29],[18,-66],[-3,-28],[-15,-21]],[[463,2564],[-21,-37],[-30,-57],[-12,-21],[-12,-53],[-19,-41],[-24,-33],[-51,-41],[-39,-25],[-24,-8],[-39,-21],[-33,-8]],[[2298,2272],[18,-16],[15,-33],[15,-16],[21,-21],[27,-8],[36,8],[18,12],[51,13],[45,0],[24,12]],[[1144,2067],[9,49],[0,25],[9,53],[15,29],[9,12],[12,9],[36,16],[15,12],[42,41],[28,25],[24,17],[39,24],[33,25]],[[159,2219],[-15,-17],[-24,-53],[-12,-33],[-3,-29],[-6,-66],[0,-16],[0,-25],[0,-28]],[[1072,1910],[21,21],[16,22]],[[1115,1962],[5,19]],[[1109,1953],[5,7],[1,2]],[[1120,1981],[6,24],[6,12],[12,50]],[[99,1952],[-24,-9],[-15,-12],[-15,-29],[0,-33]],[[45,1869],[-21,9],[-24,6]],[[544,1812],[11,8]],[[689,1836],[23,0],[37,12]],[[826,1863],[52,8]],[[956,1879],[29,3],[42,8],[36,12],[9,8]],[[555,1820],[1,0],[36,12],[27,4],[70,0]],[[749,1848],[17,5],[48,8],[12,2]],[[878,1871],[14,2],[33,5],[15,0],[16,1]],[[544,1812],[-15,0],[-31,-5]],[[498,1807],[-26,-3],[-45,-13],[-46,-4],[-117,29],[-45,12],[-54,25],[-12,4],[-63,4],[-45,8]],[[4096,1744],[-62,31],[-49,12],[-27,4],[-30,-4],[-15,-4],[-27,-16],[-30,-9],[-24,-4],[-39,4]],[[3841,1499],[-8,29]],[[3833,1528],[-1,4],[6,45],[0,13],[-24,37],[3,57],[-6,29],[-18,45]],[[2260,1490],[-29,-20]],[[2231,1470],[-5,-4],[-18,-16]],[[3793,1758],[-18,25],[-15,8],[-24,-4],[-45,-4],[-72,-21],[-24,-4],[-72,-4],[-72,8],[-27,0],[-78,-4],[-27,0],[-24,-4],[-84,-20],[-33,-9],[-45,-16],[-37,-8],[-45,0],[-57,-4],[-24,-4],[-78,-25],[-36,-4],[-42,-13],[-57,-16],[-30,-8],[-60,-8],[-48,-13],[-30,-16],[-21,-13],[-30,-28],[-36,-13],[-66,-4],[-21,-4],[-24,-16],[-75,0],[-18,-4],[-30,-13],[-8,-5]],[[2068,1495],[-5,0],[-12,4]],[[2123,1488],[-18,3],[-18,2]],[[1612,1836],[-38,0],[-15,5],[-5,-2]],[[1181,1890],[-7,0],[-36,0],[-48,12],[-18,8]],[[1255,1892],[-12,1]],[[1243,1893],[-15,1],[-47,-4]],[[1554,1839],[-13,-3],[-21,0],[-33,13],[-45,37],[-9,4],[-93,0],[-27,-4],[-28,4],[-30,2]],[[2051,1499],[-15,4],[-36,17],[-18,20],[-12,29],[-9,21],[-18,12],[-6,12],[0,17],[6,12],[18,21],[6,12],[-9,21],[-9,12],[-9,29],[-9,4],[-24,8],[-21,12],[-39,33],[-33,21],[-39,12],[-15,0],[-33,-8],[-21,0],[-24,8],[-33,0],[-18,8],[-19,0]],[[2087,1493],[-19,2]],[[2208,1450],[-10,12],[-12,4],[-39,17],[-24,5]],[[2253,1327],[-3,16],[-12,21],[-24,33],[-9,28],[3,25]],[[551,1788],[-1,7],[-6,17]],[[511,1269],[12,17],[3,20],[0,37],[-6,49],[0,37],[6,46],[9,33],[-3,32],[9,17],[6,20],[9,25],[9,29],[3,25],[-3,24],[-3,17],[-3,37],[-8,54]],[[78,1203],[66,-8],[102,-4],[93,12],[24,0],[31,9],[45,16],[48,25],[24,16]],[[1868,1170],[39,25],[21,17],[33,4],[21,12],[48,62],[9,4],[18,4],[51,0],[51,4],[49,12],[42,4],[3,9]],[[3816,1497],[16,-2],[9,4]],[[3247,1166],[27,9],[33,16],[39,16],[36,29],[42,37],[36,21],[117,61],[27,29],[45,33],[15,12],[69,33],[24,17],[27,16],[12,4],[20,-2]],[[511,1269],[30,-4],[42,-66],[30,-33],[21,-8]],[[2253,1327],[15,-21],[30,-20],[18,0],[45,16],[30,4],[36,-8],[30,-21],[45,-20],[60,-41],[42,-33],[33,-25],[36,-12],[48,-17],[21,-4],[39,4],[51,-4],[36,4],[39,4],[18,5],[27,4],[27,0],[48,4],[85,0],[42,0],[51,8],[42,12]],[[634,1158],[18,0],[33,4],[30,-24],[15,-29],[9,-8],[15,-25],[15,-41],[0,-41],[-9,-33],[-6,-33],[6,-8],[12,-4],[45,-5],[21,-4],[21,-16],[33,-12]],[[892,879],[18,-5],[18,0],[36,13],[57,37],[39,33],[6,20],[42,21],[33,16],[9,0],[15,-8],[18,-8],[81,-8],[34,8],[15,12],[99,74],[18,8],[27,9],[24,4],[36,12],[57,21],[54,28],[18,13],[45,16],[48,-4],[21,-4],[39,-4],[42,-8],[27,-5]],[[0,726],[30,-4],[21,4],[15,5],[24,20],[33,0],[18,8],[12,17],[0,16],[-9,13],[-18,8],[-42,0],[-9,4],[-9,12],[-12,21],[-9,8],[-45,12]],[[0,1212],[48,0],[30,-9]],[[2120,430],[12,17],[3,16],[-6,9],[-24,16],[-9,21],[-6,8],[-33,24],[-36,42],[-6,12],[-6,37],[-18,25],[-33,24],[-24,17],[-15,16],[-9,17],[0,20],[9,29],[6,16],[3,33],[-6,13],[-21,20],[0,4],[15,13],[9,16],[-3,25],[0,49],[-18,37],[-15,21],[-15,12],[-21,29],[-6,12],[0,66],[3,12],[18,12]],[[2120,311],[6,17],[0,16],[-15,33],[0,33],[9,20]],[[1949,180],[54,33],[48,41],[48,37],[21,20]],[[1619,0],[9,7],[63,37],[24,12],[24,13],[21,16],[33,12],[30,17],[21,12],[21,21],[24,29],[9,8],[27,-8],[24,4]],[[4096,4096],[0,-4096],[-4096,0],[0,4096],[4096,0]],[[3399,2925],[45,72],[137,33],[17,34],[56,1],[16,36],[103,64],[103,29],[120,142],[100,68],[0,-547],[-104,-12],[-274,54],[-123,-33],[-96,15],[-65,-32],[-35,76]],[[1704,1278],[2,-34],[-51,5],[22,28],[27,1]],[[3836,1482],[-21,11],[8,44],[31,-26],[-18,-29]],[[2090,1519],[47,-7],[-35,-63],[-18,55],[-40,-23],[24,56],[22,-18]],[[2279,1510],[-40,-41],[-66,12],[16,45],[49,-22],[40,33],[1,-27]],[[54,1870],[-5,16],[45,27],[-3,-17],[-37,-26]],[[846,1853],[-40,20],[56,25],[25,-40],[-41,-5]],[[1283,1918],[-40,-38],[0,89],[16,-6],[24,-45]],[[1178,2044],[-8,-20],[-24,11],[18,34],[14,-25]],[[2837,2414],[32,-47],[-37,-24],[0,-26],[21,6],[-9,-77],[-32,-45],[-113,-22],[-41,87],[73,46],[-30,75],[38,47],[65,-11],[32,55],[25,-22],[-24,-42]],[[2989,2415],[35,-45],[-40,-69],[-18,11],[32,44],[-24,45],[15,14]],[[3872,2445],[-8,24],[48,43],[-4,-25],[-36,-42]],[[4009,2489],[-20,23],[4,33],[19,-25],[-3,-31]],[[1518,2578],[-28,24],[4,42],[29,-17],[-5,-49]],[[490,2655],[-16,-66],[-65,55],[1,11],[80,0]],[[2905,2902],[-27,-42],[-33,12],[16,94],[36,-17],[8,-47]],[[3591,2939],[-35,27],[4,11],[37,0],[-6,-38]],[[3653,2988],[13,23],[60,32],[-24,-44],[-49,-11]],[[3820,4059],[24,-27],[4,-36],[-57,22],[29,41]],[[1866,1780],[-8,34],[-25,22],[49,-33],[-16,-23]],[[1598,1891],[17,-66],[-49,-11],[-32,66],[64,11]],[[561,1872],[-9,-84],[-34,-4],[-36,41],[16,55],[17,-33],[46,25]],[[708,1810],[-23,4],[5,28],[51,38],[14,-27],[-47,-43]],[[1128,1982],[-23,-35],[41,0],[48,-78],[-64,-11],[-25,-55],[-60,5],[-13,50],[-80,22],[105,89],[71,13]]]}