{"objects":{"water":{"type":"GeometryCollection","geometries":[{"type":"MultiPolygon","properties":{"sort_rank":200,"source":"naturalearthdata.com","min_zoom":0.0,"kind":"lake","area":848366489},"arcs":[[[161]]]},{"type":"Polygon","properties":{"kind":"lake","name":"Gandhi Sagar Dam","reservoir":true,"area":443783296,"sort_rank":200,"source":"naturalearthdata.com","min_zoom":0.0,"id":1250},"arcs":[[162]]},{"type":"Point","properties":{"label_placement":true,"kind":"lake","name":"Gandhi Sagar Dam","reservoir":true,"area":443783296,"sort_rank":200,"source":"naturalearthdata.com","min_zoom":0.0,"id":1250},"coordinates":[1725,1990]},{"type":"LineString","properties":{"source":"naturalearthdata.com","kind":"lake","sort_rank":367,"boundary":true,"min_zoom":0.0,"id":720},"arcs":[163]},{"type":"LineString","properties":{"source":"naturalearthdata.com","kind":"lake","reservoir":true,"sort_rank":367,"boundary":true,"min_zoom":0.0,"id":1250},"arcs":[164]}]},"buildings":{"type":"GeometryCollection","geometries":[]},"places":{"type":"GeometryCollection","geometries":[{"type":"Point","properties":{"name:ty":"\u2019In\u012btia","name:ka":"\u10d8\u10dc\u10d3\u10dd\u10d4\u10d7\u10d8","name:ko":"\uc778\ub3c4","name:cv":"\u0418\u043d\u0434\u0438","name:km":"\u17a5\u178e\u17d2\u178c\u17b6","name:cs":"Indie","name:tt":"\u04ba\u0438\u043d\u0434\u0441\u0442\u0430\u043d","name:kw":"Eynda","name:kv":"\u0418\u043d\u0434\u0438\u044f","name:ku":"Hindistan","name:ti":"\u1205\u1295\u12f5","name:ks":"\u06c1\u0650\u0646\u065b\u062f\u0648\u0633\u062a\u0627\u0646","name:to":"\u02bbInitia","name:tl":"Indya","name:ce":"\u0418\u043d\u0434\u0438","name:ta":"\u0b87\u0ba8\u0bcd\u0ba4\u0bbf\u0baf\u0bbe","name:tg":"\u04b2\u0438\u043d\u0434\u0443\u0441\u0442\u043e\u043d","name:ca":"\u00cdndia","name:te":"\u0c2d\u0c3e\u0c30\u0c24 \u0c26\u0c47\u0c36\u0c02","name:hr":"Indija","name:da":"Indien","name:de":"Indien","name:dz":"\u0f62\u0f92\u0fb1\u0f0b\u0f42\u0f62","source":"openstreetmap.org","name:kn":"\u0cad\u0cbe\u0cb0\u0ca4","name:dv":"\u0787\u07a8\u0782\u07b0\u0791\u07a8\u0794\u07a7","name:lv":"Indija","name:lt":"Indija","name:uz":"Hindiston","name:kk":"\u04ae\u043d\u0434\u0456\u0441\u0442\u0430\u043d","name:ur":"\u0628\u06be\u0627\u0631\u062a","name:lb":"Indien","name:lg":"Buyindi","name:uk":"\u0406\u043d\u0434\u0456\u044f","name:ug":"\u06be\u0649\u0646\u062f\u0649\u0633\u062a\u0627\u0646","name:ln":"\u00cdnd\u025b","name:lo":"\u0ead\u0eb4\u0e99\u0ec0\u0e94\u0e8d","name:el":"\u0399\u03bd\u03b4\u03af\u03b1","name:eo":"Barato","name":"India","name:tk":"Hindistan","name:ee":"India nutome","name:th":"\u0e1b\u0e23\u0e30\u0e40\u0e17\u0e28\u0e2d\u0e34\u0e19\u0e40\u0e14\u0e35\u0e22","name:ay":"Indya","name:rn":"Ubuhindi","name:az":"Hindistan","name:ig":"Ndia","name:ii":"\ua474\ua117","name:as":"\u09ad\u09be\u09f0\u09a4","name:ar":"\u0627\u0644\u0647\u0646\u062f","name:av":"\u0425\u0438\u043d\u0434\u0438\u0441\u0442\u0430\u043d","name:is":"Indland","name:am":"\u1205\u1295\u12f5","name:ru":"\u0418\u043d\u0434\u0438\u044f","name:rw":"Ubuhinde","name:af":"Indi\u00eb","name:zu":"i-India","name:za":"Yindu","name:zh-yue":"\u5370\u5ea6","name:zh":"\u5370\u5ea6","name:so":"Hindiya","name:sm":"Igitia","name:sl":"Indija","name:ja":"\u30a4\u30f3\u30c9","name:si":"\u0d89\u0db1\u0dca\u0daf\u0dd2\u0dba\u0dcf\u0dc0","name:sh":"Indija","name:sg":"\u00cannde","name:sd":"\u0680\u0627\u0631\u062a","name:sc":"\u00ccndia","name:sa":"\u092d\u093e\u0930\u0924\u092e\u094d","name:bs":"Indija","name:bm":"\u0190ndujamana","name:bn":"\u09ad\u09be\u09b0\u09a4","name:bo":"\u0f62\u0f92\u0fb1\u0f0b\u0f42\u0f62\u0f0b","name:sw":"Uhindi","name:be":"\u0406\u043d\u0434\u044b\u044f","name:bg":"\u0418\u043d\u0434\u0438\u044f","name:ss":"INdiya","name:ba":"\u04ba\u0438\u043d\u0434\u043e\u0441\u0442\u0430\u043d","name:sq":"Indi","name:pt":"\u00cdndia","name:ps":"\u0647\u0646\u062f","name:oc":"\u00cdndia","min_zoom":2.0,"name:zh-min-nan":"\u00ccn-t\u014d\u0358","name:os":"\u0418\u043d\u0434\u0438","name:or":"\u0b2d\u0b3e\u0b30\u0b24","name:pl":"Indie","name:pi":"\u092d\u093e\u0930\u0924","name:sr":"\u0418\u043d\u0434\u0438\u0458\u0430","name:pa":"\u0a2d\u0a3e\u0a30\u0a24","name:tr":"Hindistan","name:hi":"\u092d\u093e\u0930\u0924","name:sv":"Indien","name:he":"\u05d4\u05d5\u05d3\u05d5","name:ha":"Indiya","name:hy":"\u0540\u0576\u0564\u056f\u0561\u057d\u057f\u0561\u0576","name:ht":"End","name:qu":"Indya","population":1145587234,"kind":"country","name:yi":"\u05d0\u05d9\u05e0\u05d3\u05d9\u05e2","name:iu":"\u1403\u14d0\u144e\u140a\/intia","name:yo":"Or\u00edl\u1eb9\u0301\u00e8de India","name:mt":"Indja","alt_name:eo":"Hindujo;Hindio;Hinda Unio","name:mr":"\u092d\u093e\u0930\u0924","name:my":"\u1021\u102d\u1014\u1039\u1012\u102d\u101a","official_name":"\u092d\u093e\u0930\u0924 \u0917\u0923\u0930\u093e\u091c\u094d\u092f","name:mg":"Indy","name:ml":"\u0d07\u0d28\u0d4d\u0d24\u0d4d\u0d2f","name:vi":"\u1ea4n \u0110\u1ed9","name:mn":"\u042d\u043d\u044d\u0442\u0445\u044d\u0433","name:mi":"\u012ania","id":424314145,"name:mk":"\u0418\u043d\u0434\u0438\u0458\u0430","name:vo":"Lind\u00e4n","name:fa":"\u0647\u0646\u062f","name:ff":"Enndo","name:fi":"Intia","name:ky":"\u0418\u043d\u0434\u0438\u044f","name:fr":"Inde","name:fy":"Yndia","name:na":"Indjiya","name:ne":"\u092d\u093e\u0930\u0924","name:wa":"Inde","name:wo":"End","name:nv":"T\u00f3 W\u00f3naan\u00edd\u0119\u0301\u0119\u0301\u02bc Bits\u012f\u02bc Yisht\u0142izhii Bik\u00e9yah","name:ga":"An India","name:gd":"Na h-Innseachan","name:gl":"India - \u092d\u093e\u0930\u0924","name:gv":"Yn Injey","name:gu":"\u0aad\u0abe\u0ab0\u0aa4"},"coordinates":[4036,327]},{"type":"Point","properties":{"source":"naturalearthdata.com","kind":"locality","name":"Jaipur","population":2917000,"region_capital":true,"min_zoom":4.0,"id":7198},"coordinates":[1954,3987]},{"type":"Point","properties":{"kind":"region","name":"Madhya Pradesh","name:hi":"\u092e\u0927\u094d\u092f \u092a\u094d\u0930\u0926\u0947\u0936","kind_detail":"state","name:eo":"Madhja-Prade\u015do","source":"openstreetmap.org","min_zoom":4.0,"name:uk":"\u041c\u0430\u0434\u0445'\u044f-\u041f\u0440\u0430\u0434\u0435\u0448","name:kn":"\u0cae\u0ca7\u0ccd\u0caf \u0caa\u0ccd\u0cb0\u0ca6\u0cc7\u0cb6","name:ru":"\u041c\u0430\u0434\u0445\u044c\u044f-\u041f\u0440\u0430\u0434\u0435\u0448","name:hu":"Madhja Prades","id":2240991961,"name:ja":"\u30de\u30c7\u30a3\u30e4\u30fb\u30d7\u30e9\u30c7\u30fc\u30b7\u30e5"},"coordinates":[3211,1498]},{"type":"Point","properties":{"kind":"region","name":"Rajasthan","name:hi":"\u0930\u093e\u091c\u0938\u094d\u0925\u093e\u0928","kind_detail":"state","name:eo":"Ra\u011dastano","source":"openstreetmap.org","min_zoom":4.0,"name:uk":"\u0420\u0430\u0434\u0436\u0430\u0441\u0442\u0445\u0430\u043d","name:kn":"\u0cb0\u0cbe\u0c9c\u0cb8\u0ccd\u0ca5\u0cbe\u0ca8","name:ru":"\u0420\u0430\u0434\u0436\u0430\u0441\u0442\u0445\u0430\u043d","name:hu":"R\u00e1dzsaszt\u00e1n","id":2240945378,"name:ja":"\u30e9\u30fc\u30b8\u30e3\u30b9\u30bf\u30fc\u30f3"},"coordinates":[469,3897]},{"type":"Point","properties":{"source":"naturalearthdata.com","kind":"locality","name":"Indore","population":2026000,"min_zoom":5.0,"id":6637},"coordinates":[1994,620]},{"type":"Point","properties":{"source":"naturalearthdata.com","kind":"locality","name":"Vadodara","population":1756000,"min_zoom":5.0,"id":6204},"coordinates":[39,295]},{"type":"Point","properties":{"source":"naturalearthdata.com","kind":"locality","name":"Bhopal","population":1727000,"region_capital":true,"min_zoom":5.0,"id":7003},"coordinates":[3119,1048]},{"type":"Point","properties":{"source":"naturalearthdata.com","kind":"locality","name":"Gwalior","population":978000,"min_zoom":5.0,"id":6203},"coordinates":[3680,3434]},{"type":"Point","properties":{"source":"naturalearthdata.com","kind":"locality","name":"Kota","population":827000,"min_zoom":5.0,"id":6627},"coordinates":[1972,2593]},{"type":"Point","properties":{"source":"naturalearthdata.com","kind":"locality","name":"Udaipur","population":469737,"min_zoom":6.0,"id":5374},"coordinates":[441,2127]}]},"transit":{"type":"GeometryCollection","geometries":[{"type":"LineString","properties":{"kind":"train","name":"Sealdah Rajdhani Express","sort_rank":275,"source":"openstreetmap.org","min_zoom":6.0,"operator":"Eastern Railways","ref":"12314","osm_relation":true},"arcs":[160]}]},"pois":{"type":"GeometryCollection","geometries":[]},"boundaries":{"type":"GeometryCollection","geometries":[{"type":"MultiLineString","properties":{"source":"naturalearthdata.com","kind":"region","sort_rank":256,"kind_detail":"4","min_zoom":2.0,"id":1167},"arcs":[[0],[1],[2],[3],[4],[5],[6],[7],[8],[9],[10],[11],[12],[13],[14],[15],[16],[17],[18],[19],[20],[21],[22]]},{"type":"MultiLineString","properties":{"source":"naturalearthdata.com","kind":"region","sort_rank":256,"kind_detail":"4","min_zoom":2.0,"id":1160},"arcs":[[23],[24],[25],[26],[27],[28],[29],[30],[31],[32],[33],[34],[35],[36],[37],[38],[39]]},{"type":"MultiLineString","properties":{"source":"naturalearthdata.com","kind":"region","sort_rank":256,"kind_detail":"4","min_zoom":2.0,"id":1168},"arcs":[[40],[41],[42],[43],[44],[45],[46],[47],[48],[49],[50]]},{"type":"MultiLineString","properties":{"source":"naturalearthdata.com","kind":"region","sort_rank":256,"kind_detail":"4","min_zoom":2.0,"id":1169},"arcs":[[51],[52],[53],[54],[55],[56],[57],[58],[59],[60],[61],[62],[63],[64],[65],[66],[67],[68],[69],[70],[71],[72],[73],[74],[75],[76],[77],[78],[79],[80],[81],[82],[83],[84],[85],[86],[87],[88],[89],[90],[91],[92],[93],[94],[95],[96],[97],[98],[99],[100],[101],[102],[103],[104],[105],[106],[107],[108],[109],[110],[111],[112],[113],[114],[115],[116],[117],[118],[119],[120],[121],[122],[123],[124],[125],[126],[127],[128],[129],[130],[131],[132],[133],[134],[135]]},{"type":"MultiLineString","properties":{"source":"naturalearthdata.com","kind":"region","sort_rank":256,"kind_detail":"4","min_zoom":2.0,"id":1161},"arcs":[[136],[137],[138],[139],[140],[141],[142],[143],[144],[145],[146],[147],[148],[149],[150],[151],[152],[153],[154],[155]]},{"type":"LineString","properties":{"source":"naturalearthdata.com","kind":"region","sort_rank":256,"kind_detail":"4","min_zoom":2.0,"id":7427},"arcs":[156]},{"type":"MultiLineString","properties":{"source":"naturalearthdata.com","kind":"region","sort_rank":256,"kind_detail":"4","min_zoom":2.0,"id":7429},"arcs":[[157],[158],[159]]}]},"roads":{"type":"GeometryCollection","geometries":[{"type":"LineString","properties":{"source":"naturalearthdata.com","kind":"minor_road","sort_rank":355,"kind_detail":"tertiary","min_zoom":6.0,"id":30930},"arcs":[165]},{"type":"LineString","properties":{"source":"naturalearthdata.com","kind":"minor_road","kind_detail":"tertiary","sort_rank":355,"landuse_kind":"urban_area","min_zoom":6.0,"id":30997},"arcs":[166]},{"type":"LineString","properties":{"source":"naturalearthdata.com","kind":"minor_road","sort_rank":355,"kind_detail":"tertiary","min_zoom":6.0,"id":30997},"arcs":[167]},{"type":"LineString","properties":{"source":"naturalearthdata.com","kind":"highway","kind_detail":"motorway","sort_rank":383,"landuse_kind":"urban_area","min_zoom":3.0,"id":31001},"arcs":[168]},{"type":"LineString","properties":{"source":"naturalearthdata.com","kind":"highway","sort_rank":383,"kind_detail":"motorway","min_zoom":3.0,"id":31001},"arcs":[169]},{"type":"LineString","properties":{"source":"naturalearthdata.com","kind":"minor_road","kind_detail":"tertiary","sort_rank":355,"landuse_kind":"urban_area","min_zoom":6.0,"id":31042},"arcs":[170]},{"type":"LineString","properties":{"source":"naturalearthdata.com","kind":"minor_road","kind_detail":"tertiary","sort_rank":355,"landuse_kind":"urban_area","min_zoom":6.0,"id":31042},"arcs":[171]},{"type":"LineString","properties":{"source":"naturalearthdata.com","kind":"minor_road","sort_rank":355,"kind_detail":"tertiary","min_zoom":6.0,"id":31042},"arcs":[172]},{"type":"LineString","properties":{"source":"naturalearthdata.com","kind":"highway","kind_detail":"motorway","sort_rank":383,"landuse_kind":"urban_area","min_zoom":3.0,"id":31183},"arcs":[173]},{"type":"LineString","properties":{"source":"naturalearthdata.com","kind":"highway","kind_detail":"motorway","sort_rank":383,"landuse_kind":"urban_area","min_zoom":3.0,"id":31183},"arcs":[174]},{"type":"LineString","properties":{"source":"naturalearthdata.com","kind":"highway","sort_rank":383,"kind_detail":"motorway","min_zoom":3.0,"id":31183},"arcs":[175]},{"type":"LineString","properties":{"source":"naturalearthdata.com","kind":"highway","kind_detail":"motorway","sort_rank":383,"landuse_kind":"urban_area","min_zoom":3.0,"id":31245},"arcs":[176]},{"type":"LineString","properties":{"source":"naturalearthdata.com","kind":"highway","kind_detail":"motorway","sort_rank":383,"landuse_kind":"urban_area","min_zoom":3.0,"id":31245},"arcs":[177]},{"type":"MultiLineString","properties":{"source":"naturalearthdata.com","kind":"highway","sort_rank":383,"kind_detail":"motorway","min_zoom":3.0,"id":31245},"arcs":[[178],[179]]},{"type":"LineString","properties":{"source":"naturalearthdata.com","kind":"major_road","kind_detail":"secondary","sort_rank":379,"landuse_kind":"urban_area","min_zoom":3.0,"id":31274},"arcs":[180]},{"type":"LineString","properties":{"source":"naturalearthdata.com","kind":"major_road","kind_detail":"secondary","sort_rank":379,"landuse_kind":"urban_area","min_zoom":3.0,"id":31274},"arcs":[181]},{"type":"LineString","properties":{"source":"naturalearthdata.com","kind":"major_road","sort_rank":379,"kind_detail":"secondary","min_zoom":3.0,"id":31274},"arcs":[182]},{"type":"LineString","properties":{"source":"naturalearthdata.com","kind":"major_road","kind_detail":"secondary","sort_rank":379,"landuse_kind":"urban_area","min_zoom":3.0,"id":31356},"arcs":[183]},{"type":"LineString","properties":{"source":"naturalearthdata.com","kind":"major_road","sort_rank":379,"kind_detail":"secondary","min_zoom":3.0,"id":31356},"arcs":[184]},{"type":"LineString","properties":{"source":"naturalearthdata.com","kind":"major_road","sort_rank":379,"kind_detail":"secondary","min_zoom":4.0,"id":31359},"arcs":[185]},{"type":"LineString","properties":{"source":"naturalearthdata.com","kind":"highway","kind_detail":"motorway","sort_rank":383,"landuse_kind":"urban_area","min_zoom":3.0,"id":31401},"arcs":[186]},{"type":"LineString","properties":{"source":"naturalearthdata.com","kind":"highway","kind_detail":"motorway","sort_rank":383,"landuse_kind":"urban_area","min_zoom":3.0,"id":31401},"arcs":[187]},{"type":"LineString","properties":{"source":"naturalearthdata.com","kind":"highway","sort_rank":383,"kind_detail":"motorway","min_zoom":3.0,"id":31401},"arcs":[188]},{"type":"LineString","properties":{"source":"naturalearthdata.com","kind":"highway","sort_rank":383,"kind_detail":"motorway","min_zoom":3.0,"id":31402},"arcs":[189]},{"type":"LineString","properties":{"source":"naturalearthdata.com","kind":"major_road","kind_detail":"secondary","sort_rank":379,"landuse_kind":"urban_area","min_zoom":3.0,"id":31463},"arcs":[190]},{"type":"LineString","properties":{"source":"naturalearthdata.com","kind":"major_road","kind_detail":"secondary","sort_rank":379,"landuse_kind":"urban_area","min_zoom":3.0,"id":31463},"arcs":[191]},{"type":"LineString","properties":{"source":"naturalearthdata.com","kind":"major_road","sort_rank":379,"kind_detail":"secondary","min_zoom":3.0,"id":31463},"arcs":[192]},{"type":"LineString","properties":{"source":"naturalearthdata.com","kind":"major_road","kind_detail":"secondary","sort_rank":379,"landuse_kind":"urban_area","min_zoom":3.0,"id":31481},"arcs":[193]},{"type":"LineString","properties":{"source":"naturalearthdata.com","kind":"major_road","sort_rank":379,"kind_detail":"secondary","min_zoom":3.0,"id":31481},"arcs":[194]},{"type":"LineString","properties":{"source":"naturalearthdata.com","kind":"major_road","sort_rank":379,"kind_detail":"secondary","min_zoom":4.0,"id":31631},"arcs":[195]},{"type":"LineString","properties":{"source":"naturalearthdata.com","kind":"major_road","kind_detail":"secondary","sort_rank":379,"landuse_kind":"urban_area","min_zoom":3.0,"id":31632},"arcs":[196]},{"type":"LineString","properties":{"source":"naturalearthdata.com","kind":"major_road","kind_detail":"secondary","sort_rank":379,"landuse_kind":"urban_area","min_zoom":3.0,"id":31632},"arcs":[197]},{"type":"MultiLineString","properties":{"source":"naturalearthdata.com","kind":"major_road","sort_rank":379,"kind_detail":"secondary","min_zoom":3.0,"id":31632},"arcs":[[198],[199],[200]]},{"type":"LineString","properties":{"source":"naturalearthdata.com","kind":"major_road","kind_detail":"secondary","sort_rank":379,"landuse_kind":"urban_area","min_zoom":4.0,"id":31633},"arcs":[201]},{"type":"MultiLineString","properties":{"source":"naturalearthdata.com","kind":"major_road","sort_rank":379,"kind_detail":"secondary","min_zoom":4.0,"id":31633},"arcs":[[202],[203]]},{"type":"LineString","properties":{"source":"naturalearthdata.com","kind":"highway","kind_detail":"motorway","sort_rank":383,"landuse_kind":"urban_area","min_zoom":4.0,"id":31774},"arcs":[204]},{"type":"LineString","properties":{"source":"naturalearthdata.com","kind":"highway","sort_rank":383,"kind_detail":"motorway","min_zoom":4.0,"id":31774},"arcs":[205]},{"type":"LineString","properties":{"source":"naturalearthdata.com","kind":"highway","kind_detail":"motorway","sort_rank":383,"landuse_kind":"urban_area","min_zoom":3.0,"id":31775},"arcs":[206]},{"type":"LineString","properties":{"source":"naturalearthdata.com","kind":"highway","kind_detail":"motorway","sort_rank":383,"landuse_kind":"urban_area","min_zoom":3.0,"id":31775},"arcs":[207]},{"type":"LineString","properties":{"source":"naturalearthdata.com","kind":"highway","kind_detail":"motorway","sort_rank":383,"landuse_kind":"urban_area","min_zoom":3.0,"id":31775},"arcs":[208]},{"type":"MultiLineString","properties":{"source":"naturalearthdata.com","kind":"highway","sort_rank":383,"kind_detail":"motorway","min_zoom":3.0,"id":31775},"arcs":[[209],[210]]},{"type":"LineString","properties":{"source":"naturalearthdata.com","kind":"major_road","kind_detail":"secondary","sort_rank":379,"landuse_kind":"urban_area","min_zoom":3.0,"id":31789},"arcs":[211]},{"type":"LineString","properties":{"source":"naturalearthdata.com","kind":"major_road","sort_rank":379,"kind_detail":"secondary","min_zoom":3.0,"id":31789},"arcs":[212]},{"type":"LineString","properties":{"source":"naturalearthdata.com","kind":"major_road","kind_detail":"secondary","sort_rank":379,"landuse_kind":"urban_area","min_zoom":3.0,"id":31805},"arcs":[213]},{"type":"LineString","properties":{"source":"naturalearthdata.com","kind":"major_road","kind_detail":"secondary","sort_rank":379,"landuse_kind":"urban_area","min_zoom":3.0,"id":31805},"arcs":[214]},{"type":"LineString","properties":{"source":"naturalearthdata.com","kind":"major_road","sort_rank":379,"kind_detail":"secondary","min_zoom":3.0,"id":31805},"arcs":[215]},{"type":"LineString","properties":{"source":"naturalearthdata.com","kind":"major_road","kind_detail":"secondary","sort_rank":379,"landuse_kind":"urban_area","min_zoom":4.0,"id":31814},"arcs":[216]},{"type":"LineString","properties":{"source":"naturalearthdata.com","kind":"major_road","kind_detail":"secondary","sort_rank":379,"landuse_kind":"urban_area","min_zoom":4.0,"id":31814},"arcs":[217]},{"type":"LineString","properties":{"source":"naturalearthdata.com","kind":"major_road","sort_rank":379,"kind_detail":"secondary","min_zoom":4.0,"id":31814},"arcs":[218]},{"type":"LineString","properties":{"source":"naturalearthdata.com","kind":"minor_road","kind_detail":"tertiary","sort_rank":355,"landuse_kind":"urban_area","min_zoom":5.0,"id":31850},"arcs":[219]},{"type":"MultiLineString","properties":{"source":"naturalearthdata.com","kind":"minor_road","sort_rank":355,"kind_detail":"tertiary","min_zoom":5.0,"id":31850},"arcs":[[220],[221]]},{"type":"LineString","properties":{"source":"naturalearthdata.com","kind":"major_road","kind_detail":"secondary","sort_rank":379,"landuse_kind":"urban_area","min_zoom":4.0,"id":31938},"arcs":[222]},{"type":"LineString","properties":{"source":"naturalearthdata.com","kind":"major_road","kind_detail":"secondary","sort_rank":379,"landuse_kind":"urban_area","min_zoom":4.0,"id":31938},"arcs":[223]},{"type":"MultiLineString","properties":{"source":"naturalearthdata.com","kind":"major_road","sort_rank":379,"kind_detail":"secondary","min_zoom":4.0,"id":31938},"arcs":[[224],[225]]},{"type":"LineString","properties":{"source":"naturalearthdata.com","kind":"highway","kind_detail":"motorway","sort_rank":383,"landuse_kind":"urban_area","min_zoom":4.0,"id":31998},"arcs":[226]},{"type":"LineString","properties":{"source":"naturalearthdata.com","kind":"highway","kind_detail":"motorway","sort_rank":383,"landuse_kind":"urban_area","min_zoom":4.0,"id":31998},"arcs":[227]},{"type":"LineString","properties":{"source":"naturalearthdata.com","kind":"highway","kind_detail":"motorway","sort_rank":383,"landuse_kind":"urban_area","min_zoom":4.0,"id":31998},"arcs":[228]},{"type":"MultiLineString","properties":{"source":"naturalearthdata.com","kind":"highway","sort_rank":383,"kind_detail":"motorway","min_zoom":4.0,"id":31998},"arcs":[[229],[230]]},{"type":"LineString","properties":{"source":"naturalearthdata.com","kind":"highway","sort_rank":383,"kind_detail":"motorway","min_zoom":4.0,"id":32013},"arcs":[231]},{"type":"LineString","properties":{"source":"naturalearthdata.com","kind":"minor_road","kind_detail":"tertiary","sort_rank":355,"landuse_kind":"protected_area","min_zoom":5.0,"id":32014},"arcs":[232]},{"type":"LineString","properties":{"source":"naturalearthdata.com","kind":"minor_road","kind_detail":"tertiary","sort_rank":355,"landuse_kind":"urban_area","min_zoom":5.0,"id":32014},"arcs":[233]},{"type":"MultiLineString","properties":{"source":"naturalearthdata.com","kind":"minor_road","sort_rank":355,"kind_detail":"tertiary","min_zoom":5.0,"id":32014},"arcs":[[234],[235]]},{"type":"LineString","properties":{"source":"naturalearthdata.com","kind":"major_road","sort_rank":379,"kind_detail":"secondary","min_zoom":3.0,"id":32279},"arcs":[236]},{"type":"LineString","properties":{"source":"naturalearthdata.com","kind":"major_road","kind_detail":"secondary","sort_rank":379,"landuse_kind":"urban_area","min_zoom":3.0,"id":32286},"arcs":[237]},{"type":"LineString","properties":{"source":"naturalearthdata.com","kind":"major_road","kind_detail":"secondary","sort_rank":379,"landuse_kind":"urban_area","min_zoom":3.0,"id":32286},"arcs":[238]},{"type":"LineString","properties":{"source":"naturalearthdata.com","kind":"major_road","sort_rank":379,"kind_detail":"secondary","min_zoom":3.0,"id":32286},"arcs":[239]},{"type":"LineString","properties":{"source":"naturalearthdata.com","kind":"minor_road","kind_detail":"tertiary","sort_rank":355,"landuse_kind":"urban_area","min_zoom":5.0,"id":32297},"arcs":[240]},{"type":"LineString","properties":{"source":"naturalearthdata.com","kind":"minor_road","kind_detail":"tertiary","sort_rank":355,"landuse_kind":"urban_area","min_zoom":5.0,"id":32297},"arcs":[241]},{"type":"MultiLineString","properties":{"source":"naturalearthdata.com","kind":"minor_road","sort_rank":355,"kind_detail":"tertiary","min_zoom":5.0,"id":32297},"arcs":[[242],[243]]},{"type":"LineString","properties":{"source":"naturalearthdata.com","kind":"highway","kind_detail":"motorway","sort_rank":383,"landuse_kind":"urban_area","min_zoom":4.0,"id":32316},"arcs":[244]},{"type":"LineString","properties":{"source":"naturalearthdata.com","kind":"highway","kind_detail":"motorway","sort_rank":383,"landuse_kind":"urban_area","min_zoom":4.0,"id":32316},"arcs":[245]},{"type":"MultiLineString","properties":{"source":"naturalearthdata.com","kind":"highway","sort_rank":383,"kind_detail":"motorway","min_zoom":4.0,"id":32316},"arcs":[[246],[247]]},{"type":"LineString","properties":{"source":"naturalearthdata.com","kind":"minor_road","sort_rank":355,"kind_detail":"tertiary","min_zoom":5.0,"id":32318},"arcs":[248]},{"type":"LineString","properties":{"source":"naturalearthdata.com","kind":"major_road","kind_detail":"secondary","sort_rank":379,"landuse_kind":"urban_area","min_zoom":4.0,"id":32324},"arcs":[249]},{"type":"LineString","properties":{"source":"naturalearthdata.com","kind":"major_road","sort_rank":379,"kind_detail":"secondary","min_zoom":4.0,"id":32324},"arcs":[250]},{"type":"LineString","properties":{"source":"naturalearthdata.com","kind":"minor_road","kind_detail":"tertiary","sort_rank":355,"landuse_kind":"urban_area","min_zoom":5.0,"id":32382},"arcs":[251]},{"type":"LineString","properties":{"source":"naturalearthdata.com","kind":"minor_road","kind_detail":"tertiary","sort_rank":355,"landuse_kind":"urban_area","min_zoom":5.0,"id":32382},"arcs":[252]},{"type":"LineString","properties":{"source":"naturalearthdata.com","kind":"minor_road","sort_rank":355,"kind_detail":"tertiary","min_zoom":5.0,"id":32382},"arcs":[253]},{"type":"LineString","properties":{"source":"naturalearthdata.com","kind":"highway","kind_detail":"motorway","sort_rank":383,"landuse_kind":"urban_area","min_zoom":4.0,"id":32603},"arcs":[254]},{"type":"LineString","properties":{"source":"naturalearthdata.com","kind":"highway","sort_rank":383,"kind_detail":"motorway","min_zoom":4.0,"id":32603},"arcs":[255]},{"type":"LineString","properties":{"source":"naturalearthdata.com","kind":"major_road","kind_detail":"secondary","sort_rank":379,"landuse_kind":"urban_area","min_zoom":3.0,"id":32643},"arcs":[256]},{"type":"LineString","properties":{"source":"naturalearthdata.com","kind":"major_road","sort_rank":379,"kind_detail":"secondary","min_zoom":3.0,"id":32643},"arcs":[257]},{"type":"LineString","properties":{"source":"naturalearthdata.com","kind":"major_road","sort_rank":379,"kind_detail":"secondary","min_zoom":4.0,"id":32706},"arcs":[258]},{"type":"LineString","properties":{"source":"naturalearthdata.com","kind":"highway","sort_rank":383,"kind_detail":"motorway","min_zoom":4.0,"id":32784},"arcs":[259]},{"type":"LineString","properties":{"source":"naturalearthdata.com","kind":"highway","sort_rank":383,"kind_detail":"motorway","min_zoom":4.0,"id":32788},"arcs":[260]},{"type":"LineString","properties":{"source":"naturalearthdata.com","kind":"major_road","sort_rank":379,"kind_detail":"secondary","min_zoom":3.0,"id":32791},"arcs":[261]},{"type":"LineString","properties":{"source":"naturalearthdata.com","kind":"minor_road","kind_detail":"tertiary","sort_rank":355,"landuse_kind":"urban_area","min_zoom":5.0,"id":32920},"arcs":[262]},{"type":"LineString","properties":{"source":"naturalearthdata.com","kind":"minor_road","kind_detail":"tertiary","sort_rank":355,"landuse_kind":"urban_area","min_zoom":5.0,"id":32920},"arcs":[263]},{"type":"LineString","properties":{"source":"naturalearthdata.com","kind":"minor_road","sort_rank":355,"kind_detail":"tertiary","min_zoom":5.0,"id":32920},"arcs":[264]},{"type":"LineString","properties":{"source":"naturalearthdata.com","kind":"highway","sort_rank":383,"kind_detail":"motorway","min_zoom":3.0,"id":33180},"arcs":[265]},{"type":"LineString","properties":{"source":"naturalearthdata.com","kind":"minor_road","kind_detail":"tertiary","sort_rank":355,"landuse_kind":"urban_area","min_zoom":5.0,"id":33220},"arcs":[266]},{"type":"LineString","properties":{"source":"naturalearthdata.com","kind":"minor_road","sort_rank":355,"kind_detail":"tertiary","min_zoom":5.0,"id":33220},"arcs":[267]},{"type":"LineString","properties":{"source":"naturalearthdata.com","kind":"minor_road","kind_detail":"tertiary","sort_rank":355,"landuse_kind":"urban_area","min_zoom":5.0,"id":33239},"arcs":[268]},{"type":"LineString","properties":{"source":"naturalearthdata.com","kind":"minor_road","kind_detail":"tertiary","sort_rank":355,"landuse_kind":"urban_area","min_zoom":5.0,"id":33239},"arcs":[269]},{"type":"LineString","properties":{"source":"naturalearthdata.com","kind":"minor_road","kind_detail":"tertiary","sort_rank":355,"landuse_kind":"urban_area","min_zoom":5.0,"id":33239},"arcs":[270]},{"type":"MultiLineString","properties":{"source":"naturalearthdata.com","kind":"minor_road","sort_rank":355,"kind_detail":"tertiary","min_zoom":5.0,"id":33239},"arcs":[[271],[272],[273]]},{"type":"LineString","properties":{"source":"naturalearthdata.com","kind":"major_road","kind_detail":"secondary","sort_rank":379,"landuse_kind":"urban_area","min_zoom":3.0,"id":33261},"arcs":[274]},{"type":"LineString","properties":{"source":"naturalearthdata.com","kind":"major_road","kind_detail":"secondary","sort_rank":379,"landuse_kind":"urban_area","min_zoom":3.0,"id":33261},"arcs":[275]},{"type":"LineString","properties":{"source":"naturalearthdata.com","kind":"major_road","kind_detail":"secondary","sort_rank":379,"landuse_kind":"urban_area","min_zoom":3.0,"id":33261},"arcs":[276]},{"type":"MultiLineString","properties":{"source":"naturalearthdata.com","kind":"major_road","sort_rank":379,"kind_detail":"secondary","min_zoom":3.0,"id":33261},"arcs":[[277],[278],[279]]},{"type":"LineString","properties":{"source":"naturalearthdata.com","kind":"major_road","kind_detail":"secondary","sort_rank":379,"landuse_kind":"urban_area","min_zoom":4.0,"id":33262},"arcs":[280]},{"type":"LineString","properties":{"source":"naturalearthdata.com","kind":"major_road","kind_detail":"secondary","sort_rank":379,"landuse_kind":"urban_area","min_zoom":4.0,"id":33262},"arcs":[281]},{"type":"MultiLineString","properties":{"source":"naturalearthdata.com","kind":"major_road","sort_rank":379,"kind_detail":"secondary","min_zoom":4.0,"id":33262},"arcs":[[282],[283]]},{"type":"LineString","properties":{"source":"naturalearthdata.com","kind":"minor_road","kind_detail":"tertiary","sort_rank":355,"landuse_kind":"urban_area","min_zoom":5.0,"id":33290},"arcs":[284]},{"type":"LineString","properties":{"source":"naturalearthdata.com","kind":"minor_road","sort_rank":355,"kind_detail":"tertiary","min_zoom":5.0,"id":33290},"arcs":[285]},{"type":"LineString","properties":{"source":"naturalearthdata.com","kind":"major_road","kind_detail":"secondary","sort_rank":379,"landuse_kind":"urban_area","min_zoom":3.0,"id":33478},"arcs":[286]},{"type":"MultiLineString","properties":{"source":"naturalearthdata.com","kind":"major_road","kind_detail":"secondary","sort_rank":379,"landuse_kind":"urban_area","min_zoom":3.0,"id":33484},"arcs":[[287],[288]]},{"type":"MultiLineString","properties":{"source":"naturalearthdata.com","kind":"major_road","sort_rank":379,"kind_detail":"secondary","min_zoom":3.0,"id":33484},"arcs":[[289],[290]]},{"type":"LineString","properties":{"source":"naturalearthdata.com","kind":"minor_road","kind_detail":"tertiary","sort_rank":355,"landuse_kind":"urban_area","min_zoom":6.0,"id":33627},"arcs":[291]},{"type":"LineString","properties":{"source":"naturalearthdata.com","kind":"minor_road","sort_rank":355,"kind_detail":"tertiary","min_zoom":6.0,"id":33627},"arcs":[292]},{"type":"LineString","properties":{"source":"naturalearthdata.com","kind":"major_road","sort_rank":379,"kind_detail":"secondary","min_zoom":3.0,"id":33636},"arcs":[293]},{"type":"LineString","properties":{"source":"naturalearthdata.com","kind":"highway","kind_detail":"motorway","sort_rank":383,"landuse_kind":"urban_area","min_zoom":3.0,"id":33820},"arcs":[294]},{"type":"LineString","properties":{"source":"naturalearthdata.com","kind":"highway","sort_rank":383,"kind_detail":"motorway","min_zoom":3.0,"id":33820},"arcs":[295]},{"type":"LineString","properties":{"source":"naturalearthdata.com","kind":"minor_road","kind_detail":"tertiary","sort_rank":355,"landuse_kind":"urban_area","min_zoom":5.0,"id":33937},"arcs":[296]},{"type":"LineString","properties":{"source":"naturalearthdata.com","kind":"minor_road","sort_rank":355,"kind_detail":"tertiary","min_zoom":5.0,"id":33937},"arcs":[297]},{"type":"LineString","properties":{"source":"naturalearthdata.com","kind":"highway","kind_detail":"motorway","sort_rank":383,"landuse_kind":"urban_area","min_zoom":4.0,"id":48504},"arcs":[298]},{"type":"LineString","properties":{"source":"naturalearthdata.com","kind":"highway","kind_detail":"motorway","sort_rank":383,"landuse_kind":"urban_area","min_zoom":4.0,"id":48504},"arcs":[299]},{"type":"LineString","properties":{"source":"naturalearthdata.com","kind":"highway","sort_rank":383,"kind_detail":"motorway","min_zoom":4.0,"id":48504},"arcs":[300]}]},"earth":{"type":"GeometryCollection","geometries":[{"type":"Polygon","properties":{"sort_rank":10,"source":"naturalearthdata.com","min_zoom":0.0,"kind":"earth","area":1526417241148},"arcs":[[301]]}]},"landuse":{"type":"GeometryCollection","geometries":[{"type":"Polygon","properties":{"source":"openstreetmap.org","kind":"nature_reserve","area":3191239936,"tier":2,"id":122070413,"min_zoom":4.0,"sort_rank":23},"arcs":[[302]]},{"type":"Polygon","properties":{"kind":"park","area":574320000,"sort_rank":24,"source":"openstreetmap.org","min_zoom":6.0,"tier":2,"id":-3494941,"osm_relation":true},"arcs":[[303],[304]]},{"type":"MultiPolygon","properties":{"source":"naturalearthdata.com","kind":"urban_area","name":"","area":36037074513,"sort_rank":11,"min_zoom":4.0},"arcs":[[[305]],[[306]],[[307]],[[308]],[[309]],[[310]],[[311]],[[312]],[[313]],[[314]],[[315]],[[316]],[[317]],[[318]],[[319]],[[320]],[[321]],[[322]],[[323]],[[324]],[[325]],[[326]],[[327]],[[328]],[[329]],[[330]],[[331]],[[332]],[[333]],[[334]],[[335]],[[336]],[[337]],[[338]],[[339]],[[340]],[[341]],[[342]],[[343]],[[344]],[[345]],[[346]],[[347]],[[348]],[[349]],[[350]],[[351]],[[352]],[[353]],[[354]],[[355]],[[356]],[[357]],[[358]],[[359]],[[360]],[[361]],[[362]],[[363]],[[364]],[[365]],[[366]],[[367]],[[368]],[[369]]]},{"type":"MultiPolygon","properties":{"source":"openstreetmap.org","kind":"protected_area","tier":2,"area":778612467,"sort_rank":17,"min_zoom":6.0},"arcs":[[[370]],[[371]]]}]}},"type":"Topology","transform":{"translate":[73.125,21.9430455334],"scale":[0.001373291,0.001249043]},"arcs":[[[3838,3908],[-8,2],[-10,19],[-15,6],[-18,1]],[[3787,3936],[-29,-4],[-4,-2],[-6,-6],[-10,-18],[-3,-4]],[[3975,3853],[-15,2],[-33,20],[-14,4],[-27,3],[-11,7],[-6,7],[-3,6],[-4,5],[-7,1]],[[3855,3908],[-17,0]],[[3735,3902],[-15,2],[-10,4]],[[3710,3908],[-14,-1]],[[4077,3870],[-10,18]],[[4067,3888],[-12,-1],[-28,-17],[-9,-1]],[[4096,3878],[-3,2]],[[4093,3880],[-8,-3],[-8,-7]],[[4018,3869],[-15,1]],[[4003,3870],[-6,0],[-5,-5],[-4,-5],[-5,-5],[-8,-2]],[[3948,2906],[9,2],[9,6],[8,6],[25,14],[71,15],[24,13],[2,3]],[[4096,2997],[-4,9],[-9,19],[-3,7],[-1,8],[1,8],[1,8],[3,11],[5,13],[6,8],[1,1]],[[3911,2910],[22,-4],[15,0]],[[3831,1888],[-11,1],[-11,5],[-7,8],[-8,10],[-4,9],[0,9],[2,8],[13,23],[1,7],[-1,5],[-4,6],[-7,4],[-19,9],[-13,9],[-10,9],[-4,11],[-2,8],[-4,3],[-7,1],[-7,4],[-2,5],[-11,20],[-2,1],[4,10],[18,26],[8,15],[4,16],[1,17],[-1,3],[-7,8],[-2,5],[4,14],[1,6],[-3,18],[-6,12],[-9,9],[-7,13],[-3,14],[0,17],[-1,17],[-20,36],[-4,3],[-8,3],[-6,6],[-3,9],[0,10],[8,11],[33,27],[23,12],[41,37],[8,12],[9,17],[3,18],[-8,17],[0,12],[4,5],[3,21],[2,13],[2,7],[11,16],[5,21],[-2,9],[-3,11],[-9,14],[-36,80],[-10,13],[-9,10],[-11,16],[-4,9],[0,8],[2,5],[6,6],[49,43],[12,17],[8,42],[10,11],[65,18],[16,2],[10,0]],[[4096,2854],[-4,-1],[-7,-4],[-6,-6],[-2,-8],[-1,-18],[3,-5],[14,-13],[1,-4],[1,-6],[-2,-8],[-8,-11],[-3,-6],[0,-6],[1,-6],[4,-10],[0,-7],[-1,-6],[-6,-4]],[[4080,2725],[-7,1],[-5,4],[-9,11],[-6,5],[-11,8],[-4,5],[-4,10],[-3,3],[-6,3],[-15,5]],[[4010,2780],[-15,0],[-10,-1],[-7,-3],[-4,-3],[-3,-5],[-2,-5],[1,-5],[1,-5],[2,-5],[-1,-4],[-3,-5],[-10,-8],[-5,-5],[-18,-26],[-7,-13],[-4,-8],[-1,-7],[0,-6],[2,-5],[4,-7],[5,-5],[14,-11],[10,-10],[9,-11],[26,-60],[6,-22],[1,-36],[15,-80],[6,-19],[8,-13],[28,-29],[9,-12],[10,-20],[4,-14],[2,-13],[0,-37],[3,-25],[0,-9],[-1,-8],[-3,-6],[-8,-12],[-3,-7],[0,-13],[3,-10],[5,-10],[5,-6],[5,-4],[7,-1]],[[4075,1871],[-24,2],[-11,4],[-13,6],[-11,8],[-21,22],[-15,10],[-40,35],[-19,11],[-15,7],[-8,0]],[[3898,1976],[-7,-2],[-4,-6],[-4,-6],[-3,-7],[-3,-9],[-1,-8],[0,-8],[-1,-7],[-3,-6],[-5,-8],[-9,-7],[-11,-8],[-16,-6]],[[4096,1869],[-2,2],[-8,0]],[[4086,1871],[-11,0]],[[3214,4096],[1,-5],[2,-6],[6,-4],[6,-3],[25,-4],[18,-1]],[[3290,4086],[3,-2],[4,-4],[11,-22],[5,-4],[3,-1]],[[3272,4073],[4,1],[3,3],[2,4],[2,3],[4,2],[3,0]],[[3337,4070],[4,-3],[4,-6],[0,-10],[-5,-7],[-9,-4],[-36,-8],[-16,-5],[-122,-55],[-27,-16],[-11,-9],[-4,-7],[-2,-7],[-1,-6],[1,-13],[-1,-17],[-3,-18],[1,-5],[1,-2],[7,-3]],[[3316,4053],[3,1],[7,9],[2,3],[4,3],[5,1]],[[3660,4009],[13,-1],[9,-3],[7,-3],[7,-2],[16,-2],[6,-2],[4,-2],[5,-4],[2,-3],[0,-4],[-3,-5],[-25,-24],[-7,-5],[-7,-1]],[[3592,3977],[6,1],[4,4],[2,5],[3,5],[7,4],[5,5],[9,5],[11,2],[21,1]],[[3346,3996],[10,-1],[20,-5],[44,-6],[8,-2],[5,-3],[3,-3],[3,-3],[4,-2]],[[3180,3913],[6,1],[7,1],[96,40],[17,11],[20,20],[9,6],[11,4]],[[3469,3981],[21,-6],[43,-3],[9,-2],[6,-5],[2,-4],[3,-8],[2,-5],[2,-3],[5,-3]],[[3443,3971],[3,2],[9,6],[7,2],[7,0]],[[3577,3978],[15,-1]],[[3562,3942],[2,1],[1,5],[0,15],[0,6],[2,4],[4,4],[6,1]],[[3687,3948],[-6,1]],[[3681,3949],[-3,-2],[-2,-4],[0,-4],[3,-5],[7,-7],[5,-7],[3,-7],[2,-6]],[[3165,3918],[5,-1],[10,-4]],[[3118,3869],[18,5],[11,11],[6,9],[8,21],[4,3]],[[912,744],[-5,0],[-4,2],[-4,7],[-3,12],[-8,71],[-15,39]],[[869,537],[9,1],[5,2],[9,6],[7,6],[7,7],[5,8],[60,122],[0,15],[-5,15],[-18,24],[-10,7],[-9,1]],[[929,751],[-6,-4],[-6,-2],[-5,-1]],[[850,537],[19,0]],[[732,449],[7,2],[8,3],[8,5],[26,31],[55,44],[6,2],[8,1]],[[679,463],[4,0],[41,-14],[8,0]],[[719,374],[-10,5],[-12,9],[-34,33],[-7,9],[-1,9],[7,15],[6,5],[6,3],[5,1]],[[737,303],[8,0],[23,4],[12,5],[11,6],[10,7],[7,8],[4,5],[3,8],[1,8],[-1,8],[-7,7],[-10,4],[-18,5],[-23,1]],[[757,379],[-29,-4],[-9,-1]],[[699,325],[5,0],[5,-3],[5,-4],[11,-11],[5,-3],[7,-1]],[[731,7],[0,58],[9,31],[0,7],[-6,10],[-7,7],[-4,7],[-3,9],[-2,18],[-3,14],[-8,17],[-6,8],[-12,11],[-4,6],[-1,8],[1,24],[-1,10],[-4,15],[-2,14],[2,21],[5,12],[5,7],[4,3],[5,1]],[[3696,3907],[-13,-5]],[[3683,3902],[-10,4]],[[3673,3906],[-3,-24],[-10,-7]],[[3660,3875],[-23,9],[-13,1]],[[3624,3885],[-6,-13],[1,-7],[4,-14],[0,-8],[-1,-2],[-6,-10],[-3,-6],[-1,-15],[0,-10],[-4,-5],[-15,-2]],[[3593,3793],[-8,0],[-7,1],[-7,3],[-5,4],[-7,4]],[[3559,3805],[-6,-1],[-19,-8],[-21,-12],[-13,-2],[-13,-1],[-8,-1],[-6,-4],[-4,-6],[-2,-14],[-4,-7],[-8,-5],[-37,-12],[9,-23],[-16,-13],[-27,-9],[-21,-10],[-12,-16],[-9,-8],[-11,-3],[-14,-2],[-25,-7],[-11,-2],[-10,-4],[-38,-29],[-28,-17],[-9,-8],[-10,-3]],[[3186,3578],[-30,4]],[[3156,3582],[-13,-3],[-7,-11],[0,-11],[0,-10],[-12,-7]],[[3124,3540],[-6,6]],[[3118,3546],[-9,-5],[-10,-1]],[[3099,3540],[-23,0]],[[3076,3540],[-10,-3],[-9,-7],[-13,-17],[-3,-5],[-5,-13],[-5,-7],[-5,-4],[-10,-8],[-9,-8],[-18,-10],[-15,-16],[-20,-4]],[[2954,3438],[-21,2]],[[2933,3440],[-20,-2],[-19,-13],[-2,-5],[-1,-13],[-4,-6],[-5,-5],[-5,0]],[[2877,3396],[-10,2]],[[2867,3398],[-10,-2],[-22,-11],[-6,-4],[-5,-8],[-3,-9],[-5,-7],[-17,-5],[-7,-6],[-10,-11],[-6,-3],[-21,-5],[-7,-6],[-3,-7],[-1,-7],[-4,-8],[-11,-9],[-42,-27],[-5,-8],[0,-9],[0,-10],[-3,-8],[-6,-8],[-6,-4],[-6,-2],[-7,-3],[-7,-6],[-15,-18],[-9,-6],[-8,0]],[[2615,3181],[-9,2],[-38,3]],[[2568,3186],[-8,-2],[-3,-5],[-7,-17],[-5,-6],[-7,-3],[-13,-1],[-7,-4],[-17,-17],[-3,-2],[-7,-2],[-17,-29],[-3,-11],[-1,-11],[0,-22],[-3,-10],[-5,-4],[-14,-2],[-4,-4],[-2,-10],[2,-9],[5,-9],[3,-9],[21,-109],[15,-45],[4,-19],[3,-8],[6,-6],[6,-4],[7,-1],[10,-2],[9,-5],[5,-6],[17,-30],[6,-6],[8,-5],[7,-1],[14,0],[9,-1],[9,-3],[8,-4],[30,-24],[5,-3],[5,-2],[6,0]],[[3049,2804],[11,-2],[5,-2],[5,-3],[4,-4],[4,-5],[3,-5],[2,-6],[0,-4],[-3,-4],[-3,-5],[-3,-6],[-2,-7],[-1,-9],[2,-8],[3,-7],[9,-14],[3,-6],[0,-6],[-1,-4],[-2,-6],[-2,-6],[-1,-6],[0,-7],[2,-9],[2,-6],[5,-8],[16,-18],[4,-7],[1,-7],[-1,-5],[-4,-6],[-3,-6],[-1,-6],[2,-17],[-1,-8],[-4,-7],[-6,-4],[-6,-1],[-4,-2],[-3,-4],[-4,-5],[-7,-7],[-9,-5]],[[2942,2719],[12,3],[9,4],[6,6],[4,8],[4,7],[7,23],[4,8],[6,7],[14,10],[18,7],[16,2],[7,0]],[[2891,2732],[9,-1],[14,-7],[11,-3],[17,-2]],[[2823,2702],[20,8],[21,13],[16,7],[11,2]],[[2696,2723],[31,-5],[6,-3],[26,-20],[6,-2]],[[2662,2713],[23,9],[5,1],[6,0]],[[2783,2702],[40,0]],[[2765,2693],[5,1],[13,8]],[[3061,2534],[-14,1],[-11,6],[-11,8],[-10,3]],[[3015,2552],[-8,0],[-14,-6]],[[2993,2546],[-13,1],[-12,4]],[[2968,2551],[-10,-1],[-72,-28],[-36,-5]],[[2850,2517],[-16,2]],[[2834,2519],[-7,0],[-6,-1],[-61,-28],[-23,-5],[-11,-5],[-6,-6],[-7,-11],[-2,-6],[-2,-4],[0,-4],[0,-1],[2,-5],[11,-22],[11,-25],[3,-13],[1,-18],[-1,-5],[-3,-6],[-7,-8],[-8,-5],[-7,-4],[-16,-3],[-15,-2],[-6,-1],[-4,-2],[-3,-4],[-5,-8],[1,-8],[10,-8],[38,-46],[22,-13],[31,-3]],[[1588,2388],[6,3],[5,5],[1,7],[-3,9],[-14,16],[-3,6],[-1,3],[-1,7],[13,27],[8,12],[2,7],[0,4],[-3,1]],[[1598,2495],[-4,0],[-7,-1],[-24,-8],[-26,-6]],[[1537,2480],[-22,0],[-35,4]],[[1480,2484],[-11,-1],[-7,-4],[-1,-3],[-2,-3],[-2,-11],[-2,-5],[-3,-4],[-4,-4],[-9,-9],[-2,-2],[-2,-3],[-1,-5],[6,-30],[1,-11],[-3,-18],[-3,-6],[-4,-4],[-4,-3],[-5,0]],[[1553,2398],[7,-1],[12,-5],[8,-3],[8,-1]],[[1582,2357],[-21,5],[-11,6],[-6,9],[-1,6],[1,6],[2,4],[2,4],[5,1]],[[1352,2338],[-11,2],[-11,6],[-16,11],[-7,3],[-7,2],[-8,3],[-5,5],[-12,13],[-10,6],[-12,4],[-16,0]],[[1237,2393],[-5,-4],[-1,-8],[14,-36],[2,-10],[1,-9],[-1,-10],[-5,-24],[1,-4],[4,-3],[9,-1]],[[1582,2319],[16,0],[13,2],[13,4],[11,6],[10,7],[7,8],[6,7],[3,7],[1,4],[-2,5],[-5,2],[-8,0]],[[1647,2371],[-31,-10],[-17,-3],[-17,-1]],[[1422,2358],[-5,2],[-12,6],[-4,0]],[[1401,2366],[-4,-2],[-21,-18],[-8,-6],[-6,-1],[-10,-1]],[[1506,2364],[7,-2],[7,-7],[16,-18],[9,-8],[11,-5],[13,-4],[13,-1]],[[1542,2223],[-16,1],[-12,3],[-9,6],[-7,7],[-5,8],[-2,9],[1,10],[5,9],[15,12],[5,7],[2,9],[-3,11],[-4,9],[-10,17],[-3,9],[0,6],[2,6],[5,2]],[[1278,2284],[11,-1],[17,-6],[8,-1]],[[1256,2284],[22,0]],[[1335,2280],[6,-1],[6,-3],[3,-7],[0,-11],[-6,-12],[-2,-9],[-1,-9],[1,-11],[-2,-15],[-6,-8],[-9,-7],[-9,-4],[-10,-3],[-27,-1]],[[1314,2276],[7,1],[7,2],[7,1]],[[1279,2179],[-9,1],[-8,5],[-5,8],[-8,18],[-5,5],[-12,8],[-5,5],[-3,7],[-2,20],[-4,11],[-5,6],[-7,0]],[[1206,2273],[-4,-5],[-3,-10],[-2,-26],[1,-21],[2,-8],[8,-13],[0,-8],[-25,-62],[-22,-37],[-3,-7],[-2,-10],[0,-7],[2,-7],[4,-5],[70,-20],[12,-7],[8,-9],[2,-15],[-6,-13],[-11,-12],[-42,-37],[-4,-8],[-1,-10],[0,-12],[-4,-14],[-6,-10],[-9,-11],[-2,-8],[3,-6],[8,-2],[10,-1]],[[1975,2023],[9,2],[8,7],[6,9],[3,4],[1,3],[0,11],[-4,68],[-21,26],[-14,15],[-5,10],[0,9],[3,8],[0,10],[-3,16],[-23,34],[-11,10],[-6,4],[-9,2]],[[1909,2271],[-11,0],[-10,-4],[-50,-29],[-37,-9],[-35,-1],[-74,-18],[-23,-2]],[[2782,2243],[8,-2],[8,-4],[34,-30],[10,-11],[7,-13],[6,-16],[10,-38],[1,-20],[-1,-13],[-6,-7],[-2,-4],[-10,-7],[-67,-31],[-3,-1],[-12,-2]],[[2764,2239],[7,1],[6,2],[5,1]],[[1669,2208],[-21,3],[-34,12],[-24,4]],[[1590,2227],[-21,0],[-27,-4]],[[2765,2044],[-7,0],[-6,1],[-3,1],[-1,1],[-1,3],[1,13],[-1,5],[-1,6],[-5,13],[-3,5],[-3,5],[-4,2],[-4,2],[-11,0],[-4,1],[-5,2],[-5,3],[-5,1]],[[2697,2108],[-5,0],[-8,-4],[-3,-5],[0,-7],[5,-28],[1,-7],[0,-5],[-1,-3],[-5,-21],[-1,-6],[0,-5],[2,-8],[6,-21],[-1,-53],[4,-18],[8,-17],[34,-44],[10,-16],[2,-9],[-2,-8],[-5,-6],[-5,-8],[-3,-10],[-3,-7],[-5,-5],[-8,-2]],[[1931,2044],[11,-2],[24,-16],[9,-3]],[[1895,1647],[2,0],[6,8],[3,8],[6,12],[11,16],[21,20],[8,14],[4,9],[-4,8],[-31,18],[-8,10],[-4,14],[1,15],[8,17],[26,32],[6,17],[1,16],[-2,11],[-4,6],[-5,6],[-6,3],[-8,3],[-8,4],[-5,7],[-4,12],[-4,34],[-3,9],[-2,10],[1,13],[7,23],[7,12],[8,8],[8,2]],[[2261,1869],[-11,5],[-9,7],[-6,7],[-3,8],[-1,5],[0,5],[3,12],[-1,5],[-2,6],[-5,0]],[[2226,1929],[-6,-1],[-14,-6],[-10,-7],[-6,-4],[-4,-6],[-2,-8],[-1,-24],[-4,-17],[0,-8],[2,-16],[-3,-28],[0,-10],[2,-19],[0,-8],[-2,-13],[-24,-29],[-61,-37],[-11,-12],[-3,-8],[4,-7],[11,-11],[1,-3],[0,-2],[-1,-3],[-2,-8],[-3,-6],[-5,-9],[-10,-8],[-54,-30],[-37,-11],[-26,-14],[-15,-4]],[[2652,1775],[-17,12],[-14,11],[-40,28],[-10,9],[-1,4],[1,7],[2,6],[7,14],[3,8],[1,9],[-3,9],[-6,3]],[[2575,1895],[-9,0],[-20,-7],[-21,-10],[-8,-5],[-7,-7],[-4,-9],[-8,-28],[-2,-5],[-7,-5],[-9,-3],[-14,-2]],[[2391,1855],[-20,0],[-16,4],[-40,15],[-13,1]],[[2302,1875],[-24,-5],[-17,-1]],[[2466,1814],[-7,1],[-5,3],[-3,6],[-5,17],[-5,9],[-8,7],[-7,2]],[[2426,1859],[-35,-4]],[[1225,1857],[12,-1],[12,-4],[11,-7],[11,-9],[7,-12],[4,-13],[2,-40],[4,-16],[5,-14],[6,-13],[7,-10],[8,-9],[16,-13],[7,-7],[5,-9],[0,-7],[-4,-7],[-5,-7],[-6,-11],[-28,-84],[-4,-33],[-1,-25],[1,-15],[2,-11],[8,-10],[11,-21],[5,-25],[0,-13],[0,-14],[-3,-17],[-6,-12],[-7,-9],[-7,-8],[-6,-8],[-4,-9],[-10,-32],[-6,-14],[-6,-11],[-7,-9],[-23,-21],[-5,-3],[-19,-4],[-8,-4],[-41,-28],[-16,-6],[-38,-11],[-12,-8],[-45,-42],[-10,-14],[-25,-49],[-1,-11],[2,-8],[5,-8],[5,-4],[4,-2],[6,-3],[22,-4],[22,-9],[8,-1]],[[1190,1852],[35,5]],[[2714,1785],[-9,0],[-8,2]],[[2697,1787],[-5,0],[-5,-2],[-15,-9],[-20,-1]],[[1751,1681],[7,-1],[7,-5],[13,-11],[5,-4],[11,-3],[6,-3],[9,-8],[9,-3]],[[1870,1478],[-6,1],[-14,11],[-9,5],[-11,3],[-30,3],[-5,15],[-1,15],[-4,10],[-4,6],[-39,24],[-12,9],[-5,4],[-8,15],[-2,32],[-1,7],[13,20],[7,18],[8,4],[4,1]],[[1863,1667],[7,-3],[14,-13],[8,-3],[3,-1]],[[1818,1643],[9,0],[8,3],[20,19],[8,2]],[[1942,1552],[-11,1],[-8,8],[-6,9],[-7,7],[-6,3]],[[1904,1580],[-8,0],[-4,-3],[-2,-5],[0,-6],[5,-17],[1,-8],[-2,-7],[-10,-22],[-2,-7],[-1,-8],[-2,-8],[-4,-8],[-5,-3]],[[1108,1029],[9,-1],[8,-5],[5,-5],[8,-12],[6,-6],[14,-10],[3,-8],[-6,-6],[-32,-12],[-40,-28],[-45,-11],[-54,-29],[-15,-2]],[[1090,1028],[18,1]],[[969,894],[-13,3],[-11,4],[-11,3],[-15,0]],[[919,904],[-9,-2],[-8,-4],[-6,-4],[-10,-10],[-13,-9]],[[35,1949],[-5,1],[-30,10]],[[30,1914],[11,0],[8,2],[6,3],[5,5],[4,8],[3,10],[-1,9],[-3,6],[-6,3]],[[57,1960],[-5,-1],[-7,-4],[-5,-4],[-5,-2]],[[12,1916],[7,-1],[11,-1]],[[95,1659],[-7,0],[-12,11],[-16,20],[-3,7],[-2,13],[-3,6],[-5,6],[-15,6],[-5,4],[-10,13],[-6,5],[-11,5]],[[0,1893],[4,5],[3,6],[0,7],[2,5],[3,0]],[[172,1474],[-2,3],[-1,5],[6,36],[0,10],[-1,20],[0,10],[3,8],[5,8],[12,8],[10,6],[10,7],[4,5],[-5,22],[-8,13],[-5,12],[-1,2],[0,4],[0,17],[-2,11],[-5,12],[-25,38],[-6,2]],[[161,1733],[-6,-4],[-5,-7],[-8,-21],[-5,-9],[-7,-9],[-6,-5],[-29,-19]],[[283,1326],[-7,3],[-2,3],[-1,10],[1,12],[1,20],[1,8],[3,7],[2,5],[-1,6],[-5,8],[-3,4],[-7,3],[-19,3],[-10,4],[-7,8],[-6,11],[-5,14],[-4,8],[-5,7],[-6,4],[-6,1]],[[197,1475],[-25,-1]],[[366,1197],[-6,11],[7,18],[2,11],[-2,8],[-5,11],[-4,11],[-1,15],[3,14],[1,17],[-4,15],[-15,21],[-11,6],[-10,0]],[[321,1355],[-7,-5],[-14,-14],[-9,-7],[-8,-3]],[[426,1178],[-8,2],[-16,16],[-8,4]],[[394,1200],[-28,-3]],[[568,1113],[-7,2],[-7,3],[-22,24],[-27,44],[-5,8],[-6,4],[-10,0]],[[484,1198],[-58,-20]],[[744,973],[-9,2],[-9,7],[-9,17],[-3,13],[0,12],[1,11],[-1,10],[-6,9],[-10,10],[-39,21],[-25,26],[-26,22],[-10,3]],[[598,1136],[-6,0],[-2,-4],[-3,-7],[-1,-3],[-3,-3],[-4,-3],[-6,-2],[-5,-1]],[[873,875],[-6,15],[-6,12],[-4,5],[-7,4],[-8,4],[-5,3],[-13,23],[-3,8],[-6,10],[-8,12],[-20,13],[-9,4],[-6,0]],[[772,988],[-10,-8],[-5,-3],[-5,-3],[-8,-1]],[[693,0],[38,7]],[[991,0],[0,2],[-42,49],[-15,13]],[[934,64],[-12,-1],[-29,-28],[-7,-4],[-15,-5],[-11,-5],[-8,-1],[-4,-2],[-1,-2],[0,-5],[0,-5],[-3,-4],[-2,-2]],[[753,0],[-6,4],[-16,3]],[[4000,4096],[96,-71]],[[1774,2303],[9,13],[3,15],[-1,6],[-7,10],[-2,8],[5,20],[1,7],[3,3],[5,2],[5,1],[7,0],[-4,-18],[8,-23],[12,-22],[9,-19],[4,-25],[-1,-11],[-6,-10],[-17,-21],[-11,-7],[-5,11],[-21,10],[-100,-24],[-28,22],[23,0],[17,3],[16,5],[11,6],[11,8],[32,11],[11,7],[11,12]],[[1810,2165],[18,-8],[8,-16],[-6,3],[-7,2],[-7,-1],[-5,-4],[-2,-8],[4,-5],[5,-4],[3,-4],[0,-52],[-3,-7],[-24,-32],[0,-10],[14,-34],[3,-13],[-13,8],[-10,12],[-7,13],[-5,11],[-7,-4],[-6,-5],[-12,-15],[-2,-3],[-1,-4],[-1,-5],[-2,-6],[-4,-1],[-5,0],[-4,-1],[-26,-48],[-12,-7],[-10,-3],[-4,-7],[0,-7],[-3,-6],[-8,-2],[-25,2],[-12,-8],[6,-18],[19,-28],[-10,0],[1,-3],[3,-5],[1,-3],[-9,-3],[-7,2],[-8,-1],[-11,-9],[-5,9],[2,7],[5,6],[3,8],[-2,8],[-5,5],[-5,2],[-3,4],[1,8],[2,9],[1,7],[-7,3],[-13,1],[-4,2],[-5,3],[5,4],[4,3],[5,2],[19,5],[20,16],[27,8],[11,10],[4,15],[-5,14],[25,11],[6,7],[-11,10],[11,5],[32,23],[7,7],[2,9],[6,7],[12,9],[3,2],[9,8],[5,8],[-5,4],[-8,10],[-2,23],[2,24],[5,14],[18,7],[21,0]],[[1774,2303],[9,13],[3,15],[-1,6],[-7,10],[-2,8],[5,20],[1,7],[3,3],[5,2],[5,1],[7,0],[-4,-18],[8,-23],[12,-22],[9,-19],[4,-25],[-1,-11],[-6,-10],[-17,-21],[-11,-7],[-5,11],[-21,10],[-100,-24],[-28,22],[23,0],[17,3],[16,5],[11,6],[11,8],[32,11],[11,7],[11,12]],[[1810,2165],[18,-8],[8,-16],[-6,3],[-7,2],[-7,-1],[-5,-4],[-2,-8],[4,-5],[5,-4],[3,-4],[0,-52],[-3,-7],[-24,-32],[0,-10],[14,-34],[3,-13],[-13,8],[-10,12],[-7,13],[-5,11],[-7,-4],[-6,-5],[-12,-15],[-2,-3],[-1,-4],[-1,-5],[-2,-6],[-4,-1],[-5,0],[-4,-1],[-26,-48],[-12,-7],[-10,-3],[-4,-7],[0,-7],[-3,-6],[-8,-2],[-25,2],[-12,-8],[6,-18],[19,-28],[-10,0],[1,-3],[3,-5],[1,-3],[-9,-3],[-7,2],[-8,-1],[-11,-9],[-5,9],[2,7],[5,6],[3,8],[-2,8],[-5,5],[-5,2],[-3,4],[1,8],[2,9],[1,7],[-7,3],[-13,1],[-4,2],[-5,3],[5,4],[4,3],[5,2],[19,5],[20,16],[27,8],[11,10],[4,15],[-5,14],[25,11],[6,7],[-11,10],[11,5],[32,23],[7,7],[2,9],[6,7],[12,9],[3,2],[9,8],[5,8],[-5,4],[-8,10],[-2,23],[2,24],[5,14],[18,7],[21,0]],[[2757,4076],[42,20]],[[2340,3970],[15,7],[1,0]],[[2356,3977],[53,3],[30,7],[33,13],[39,10],[60,13],[75,7],[33,6],[63,33],[15,7]],[[1943,3970],[12,7],[30,33],[17,27]],[[2002,4037],[1,3],[18,33],[18,23],[1,0]],[[1943,3970],[12,-6],[27,-4],[12,-6],[1,0]],[[2313,3973],[6,1],[21,-4]],[[1995,3954],[29,-4],[27,-6],[12,-7],[24,-3],[27,-3],[48,9],[58,4],[72,26],[21,3]],[[1264,3713],[23,2]],[[1889,3956],[12,8],[15,3],[27,3]],[[1287,3715],[4,1],[16,3],[57,10],[45,3],[15,7],[30,20],[12,6],[45,10],[30,20],[33,30],[18,13],[30,20],[45,16],[48,20],[36,10],[27,7],[57,16],[18,7],[36,22]],[[3532,3640],[-9,17],[-6,13],[-2,7]],[[3467,3793],[-1,9],[0,35]],[[3466,3837],[0,41],[3,23],[6,26],[9,20],[18,27],[6,13],[6,29],[3,30],[9,27],[10,23]],[[3515,3677],[-10,46],[-6,16],[-15,20],[-15,23],[-2,11]],[[1102,3604],[12,26],[24,23],[12,10],[4,1]],[[1251,3705],[13,8]],[[1154,3664],[26,9],[45,17],[26,15]],[[1102,3604],[12,-29]],[[1114,3575],[0,-1],[33,-23],[12,-13],[6,-14],[3,-26],[-3,-13],[-6,-10]],[[340,4096],[-49,-23],[-51,-27],[-42,-30],[-6,-9],[-6,-27],[-6,-26],[-3,-10],[-24,-37],[-3,-13],[0,-39],[-15,-23],[-12,-10],[-48,-27],[-24,-23],[-12,-26],[-18,-56],[-21,-43],[0,-1]],[[3667,3415],[3,4],[-12,29],[-6,10]],[[3543,3630],[-11,10]],[[3652,3458],[-15,24],[-33,46],[-12,26],[-9,27],[-15,26],[-25,23]],[[4096,4057],[-47,39]],[[887,3340],[-16,-14]],[[1102,3604],[-13,-27]],[[1089,3577],[-5,-10],[-24,-49],[-6,-10],[-30,-20],[-12,-10],[-33,-49],[-9,-10],[-57,-56],[-26,-23]],[[863,3326],[8,0]],[[724,3310],[6,3],[24,-3],[24,-4],[12,0],[42,17],[31,3]],[[1159,3475],[33,-20],[45,-26],[48,-33],[25,-20],[42,-46],[21,-24],[30,-29],[105,-76],[24,-17],[33,-33],[21,-20],[39,-13],[9,-6],[6,-14],[6,-29],[6,-13]],[[144,3055],[0,4],[22,8]],[[398,3178],[5,3],[3,2]],[[144,3052],[0,3]],[[166,3067],[47,18],[75,37],[63,33],[47,23]],[[406,3183],[42,18],[60,33],[36,13],[48,20],[72,16],[15,7],[33,16],[12,4]],[[110,3083],[19,-14],[10,-11]],[[0,3218],[27,-27],[30,-46],[27,-40],[24,-20],[2,-2]],[[139,3058],[5,-6]],[[3991,2816],[-18,-5]],[[4096,2845],[-32,-21],[-15,-3],[-30,-3],[-19,0],[-9,-2]],[[3973,2811],[0,10],[-6,9]],[[3804,3152],[-10,20]],[[3671,3382],[-4,7],[0,26]],[[3794,3172],[-19,35],[-30,47],[-6,16],[-12,46],[-6,17],[-21,23],[-27,20],[-2,6]],[[3967,2830],[-6,8],[-30,33],[-15,26],[-12,46],[-15,27],[-18,33],[-24,62],[-24,53],[-15,27],[-4,7]],[[3971,2799],[2,12]],[[3970,2795],[1,4]],[[3298,2778],[13,40]],[[3630,3382],[1,14],[6,6],[15,10],[15,3]],[[3311,2818],[2,6],[3,10],[27,20],[3,7],[15,46],[0,49],[-6,33],[3,14],[18,46],[9,40],[0,33],[-3,26],[18,43],[12,13],[96,83],[24,10],[15,13],[30,23],[30,7],[12,6],[9,20],[2,16]],[[3323,2780],[-25,-2]],[[3973,2811],[-15,-3],[-25,0]],[[3933,2808],[-44,0],[-18,10],[-75,3],[-54,-10],[-33,-6],[-36,0],[-42,-7],[-39,-13],[-24,-4],[-33,-6],[-60,-10],[-24,7],[-15,-4],[-27,10],[-45,-3],[-18,6],[-23,-1]],[[1083,2776],[1,-11],[15,-40],[2,-8]],[[1159,3475],[3,-27],[0,-26],[-3,-26],[-6,-33],[-12,-37],[-15,-23],[-24,-56],[-6,-26],[0,-23],[-9,-27],[0,-26],[-6,-27],[-3,-13],[-3,-26],[9,-27],[9,-29],[3,-17],[-6,-23],[-9,-40],[-6,-20],[-9,-52],[3,-37],[9,-29],[5,-29]],[[1101,2717],[1,-5]],[[1954,2629],[13,-16],[9,-26]],[[1801,2815],[1,-1],[16,-10]],[[1652,3056],[27,-30],[9,-13],[3,-30],[15,-30],[12,-26],[21,-23],[15,-30],[27,-40],[20,-19]],[[1818,2804],[20,-13],[9,-13],[9,-30],[9,-13],[24,-23],[39,-53],[18,-20],[8,-10]],[[2466,2524],[-15,0]],[[2020,2597],[-11,0],[-33,-10]],[[3298,2778],[-3,0]],[[2451,2524],[-3,0],[-42,10],[-51,6],[-39,14],[-27,6],[-12,7],[-12,0],[-39,10],[-43,0],[-30,6],[-63,7],[-39,10],[-31,-3]],[[3295,2778],[-9,-3],[-21,-20],[-30,-16],[-24,-14],[-18,-6],[-30,3],[-64,-16],[-45,-24],[-15,-3],[-27,-6],[-60,-20],[-33,-30],[-24,-23],[-18,-10],[-27,-13],[-57,-17],[-30,-3],[-45,-13],[-33,-20],[-36,0],[-27,3],[-33,17],[-24,6],[-48,-13],[-15,-6],[-27,-7],[-9,0]],[[565,2501],[15,3],[9,10],[33,20],[15,3],[15,0],[36,-6],[24,0],[60,9],[12,10],[18,20],[21,33],[12,10],[27,3],[51,-10],[15,4],[45,20],[21,19],[15,10],[18,4],[57,36],[18,13]],[[491,2783],[-1,-2],[-2,-2]],[[871,3326],[-5,-7]],[[488,2779],[-4,-11],[-9,-33],[-9,-13],[-36,-43],[-6,-13],[-9,-23],[0,-10],[9,-13],[12,-7],[27,3],[9,-6],[24,0],[12,-7],[3,-16],[21,-23],[21,-47],[12,-16]],[[866,3319],[-10,-16],[-12,-23],[-15,-26],[-12,-10],[-15,-23],[-24,-30],[-18,-36],[-24,-20],[-30,-17],[3,-39],[-15,-37],[-24,-19],[-45,-27],[-24,-20],[-15,-23],[-30,-59],[-18,-33],[-12,-37],[-15,-23],[-20,-18]],[[0,2633],[33,76],[15,36],[33,96],[18,40],[18,33],[12,26],[15,63],[0,49]],[[3048,2164],[9,13],[5,9]],[[3297,2776],[1,2]],[[3062,2186],[19,37],[12,24],[43,52],[81,86],[12,17],[3,13],[12,43],[18,89],[0,43],[3,20],[9,29],[6,27],[6,40],[3,33],[8,37]],[[1112,2162],[8,-21]],[[1095,2395],[-8,-16],[-2,-9]],[[1085,2370],[-10,-48],[-3,-39],[12,-46],[21,-60],[7,-15]],[[1102,2712],[-3,-13],[-15,-36],[-3,-37],[-3,-26],[15,-40],[6,-26],[0,-40],[12,-39],[0,-14],[-6,-26],[-10,-20]],[[436,2170],[-12,-19],[-9,-23],[0,-27]],[[511,2413],[0,-1],[-3,-23],[-3,-8]],[[505,2381],[-6,-16],[-18,-23],[-9,-23],[-3,-23],[-12,-26],[-18,-20],[-6,-13],[0,-10],[12,-30],[0,-13],[-9,-14]],[[565,2501],[-12,-13],[-24,-33],[-9,-20],[-9,-22]],[[3970,2795],[12,6],[55,-29],[9,-4],[30,-16],[20,-3]],[[1976,2587],[-6,-14],[18,-42],[0,-1]],[[1988,2530],[15,-46],[27,-56],[24,-49],[15,-43],[9,-14],[0,-16],[-9,-13],[6,-13],[12,-17],[15,-69],[15,-30],[21,-17],[70,-33],[9,-16],[0,-13]],[[1252,2035],[3,-3],[9,-23]],[[1120,2141],[2,-1]],[[1122,2140],[19,-9],[33,-26],[9,-7],[30,-26],[39,-37]],[[415,2101],[-3,-11]],[[412,2090],[0,-5],[-9,-13],[-9,-24],[0,-23],[-19,-26],[-3,-13],[0,-40],[31,-36],[3,-13],[-3,-24],[0,-13],[15,-30],[6,-13],[0,-13],[-6,-26],[0,-17],[6,-26],[-33,-60],[-10,-26],[-39,-7],[-3,-3]],[[3048,2164],[-9,-10]],[[3039,2154],[-21,-23],[-24,-33],[-24,-23],[-6,-27],[0,-26],[-18,-40],[-42,-66],[-36,-72],[-24,-56],[-15,-43],[-18,-37],[-9,-26],[-9,-43],[-9,-23],[-12,-27],[-18,-23],[-6,-6]],[[2217,2085],[0,-27],[6,-29],[3,-27],[-21,-79],[-3,-26],[0,-27],[12,-46],[0,-27],[-9,-39],[-7,-40],[-3,-30],[-3,-39],[-9,-17],[-15,-23],[-3,-26],[6,-33],[-3,-13],[-9,-10],[-12,-37],[-42,-69]],[[339,1639],[-15,-26],[-6,-24],[-18,-23],[-6,-23],[0,-43],[-3,-13],[-6,-13],[-30,-20],[-33,-10],[-54,-53],[-15,-10],[-9,-10],[-21,-36],[-30,-16],[-36,-7]],[[57,1312],[-6,0],[-24,17],[-12,3],[-15,0]],[[2748,1560],[-66,-83],[-36,-46],[-12,-10],[-15,-7],[-30,-16],[-51,-36],[-15,-10],[-45,-20],[-27,-20],[-15,-10]],[[1403,1152],[0,-15],[-12,-23]],[[1264,2009],[0,-3]],[[1264,2006],[0,-14],[6,-13],[9,-16],[22,-20],[9,-13],[9,-10],[18,-30],[9,-30],[0,-30],[9,-29],[15,-37],[12,-46],[15,-36],[15,-46],[15,-63],[3,-30],[12,-69],[6,-69],[-3,-43],[-9,-30],[-24,-53],[-9,-30],[-6,-39],[6,-43],[0,-15]],[[3970,2795],[-15,-33],[0,-17],[-30,-59],[-9,-20],[-18,-20],[-6,-16],[-6,-30],[3,-43],[-3,-26],[-6,-17],[-15,-30],[-3,-16],[21,-30],[15,-26],[6,-20],[3,-27],[-6,-39],[-15,-40],[-12,-23],[-18,-49],[3,-24],[12,-13],[6,-13],[-6,-17],[6,-19],[33,-70],[18,-39],[9,-30],[6,-26],[-9,-50],[0,-20],[6,-16],[24,-37],[6,-10],[21,-85],[0,-20],[15,-20],[6,-20],[22,-53],[9,-16],[6,-17],[18,-19],[29,-41]],[[1391,1114],[6,-13],[1,-2]],[[1398,1099],[23,-38],[30,-36],[6,-13],[12,-14],[18,-19],[12,-10],[6,-17],[6,-30],[3,-13],[21,-43],[3,-13],[3,-40],[-6,-66],[6,-43],[24,-26],[-3,0]],[[3342,668],[1,0],[0,-10]],[[3191,944],[2,-5],[11,-19]],[[3068,1095],[19,-24],[28,0],[6,-30],[30,-23],[9,-16],[0,-2]],[[2748,1560],[9,-7],[18,-30],[30,-39],[21,-17],[42,-20],[15,-16],[6,-13],[-18,-13],[-3,-10],[6,-30],[-6,-7],[-18,-10],[-9,-16],[-3,-17],[0,-33],[6,-26],[9,-13],[18,-10],[6,-10],[9,-46],[24,-4],[18,-13],[39,-13],[72,-33],[27,-17],[2,-2]],[[3160,1000],[21,-31],[10,-25]],[[3204,920],[13,-21],[36,-46],[27,-30],[18,-13],[-9,-26],[3,-20],[21,-73],[3,-10],[26,-13]],[[2039,695],[-9,-14],[-21,-33],[-21,-23]],[[2172,855],[-13,-12],[-33,-23],[-20,-19]],[[2330,1210],[-17,-14],[-16,-10]],[[2106,801],[-1,-1],[-24,-23],[-15,-23],[-15,-40],[-12,-19]],[[2297,1186],[-8,-6],[-24,-26],[-57,-63],[-13,-27],[0,-36],[13,-53],[0,-26],[-6,-27],[-16,-33],[-6,-26],[-8,-8]],[[2436,1302],[-21,-23],[-27,-20],[-24,-23],[-24,-20],[-10,-6]],[[1974,695],[11,-40],[3,-30]],[[1934,1020],[-3,-8],[3,-30],[5,-13]],[[2105,1421],[-9,0],[-9,-10],[-3,-23],[-33,-63],[-30,-36],[-6,-10],[6,-26],[-24,-60],[-12,-36],[-12,-27],[-15,-46],[-18,-43],[-6,-21]],[[1939,969],[10,-30],[12,-30],[3,-16],[3,-50],[12,-36],[0,-13],[-6,-66],[0,-30],[1,-3]],[[1941,613],[47,12]],[[1562,678],[12,-7],[45,-26],[36,-10],[12,-6],[9,-14],[9,-13],[9,-13],[12,-7],[27,-6],[27,3],[39,10],[27,0],[27,-3],[27,0],[27,16],[30,10],[4,1]],[[36,292],[3,13],[-6,20],[-21,20],[-12,9],[0,1]],[[1945,526],[-8,-16],[-12,-23],[-8,-7]],[[1988,625],[-12,-43],[-21,-36],[-6,-13]],[[1917,480],[-4,-3],[-18,-7],[-30,-13],[-24,-20],[-9,-10],[-24,-33],[-30,-30],[-30,-16],[-9,-10],[-15,-50]],[[1949,533],[-4,-7]],[[1988,625],[0,-39],[3,-13]],[[1991,573],[3,-14],[9,-26],[6,-20],[9,-23],[6,-27],[15,-29],[18,-27],[3,-13],[6,-40],[9,-33],[12,-13],[3,-16],[18,-33],[6,-14],[6,-46],[9,-13],[12,-16],[21,-30],[12,-30],[12,-43],[0,-13],[12,-26],[6,-28]],[[1724,288],[-21,-36],[-15,-33],[-15,-69],[-9,-23],[-24,-20],[-27,-33],[-45,-40],[-9,-10],[-17,-24]],[[42,242],[0,3],[-6,30],[0,17]],[[0,96],[3,4],[27,20],[9,23],[-9,27],[3,13],[6,26],[0,10],[3,23]],[[3348,642],[-5,16]],[[3457,0],[-6,21],[-3,23],[0,17],[6,23],[9,29],[9,47],[3,26],[0,13],[-9,33],[-15,23],[-6,14],[-3,49],[-9,86],[-9,36],[-12,40],[-6,13],[-12,13],[-6,17],[-15,20],[0,36],[-3,23],[-3,13],[-18,23],[-1,4]],[[1920,2584],[56,-4]],[[1093,2712],[3,0]],[[1096,2712],[165,0],[145,-53],[177,-26],[153,-43],[96,0],[88,-6]],[[4096,4096],[0,-4096],[-4096,0],[0,4096],[4096,0]],[[484,0],[103,120],[140,-20],[82,22],[2,-122],[-327,0]],[[2322,3185],[48,79],[154,125],[29,-45],[-58,-162],[-110,18],[-55,-53],[-8,38]],[[2366,3237],[11,2],[-1,10],[-4,-2],[-5,-3],[-1,-7]],[[2189,195],[-8,-16],[-25,16],[20,20],[13,-20]],[[0,266],[0,147],[13,-3],[108,-71],[-60,-109],[-61,36]],[[1799,556],[59,6],[16,-36],[-33,18],[-24,-18],[-40,45],[22,-15]],[[1583,515],[-33,11],[7,13],[50,-4],[-24,-20]],[[3340,641],[-18,27],[36,0],[-1,-25],[-17,-2]],[[854,740],[-6,-22],[-36,-9],[-6,22],[48,9]],[[357,658],[-37,10],[25,42],[48,-31],[-36,-21]],[[264,473],[-22,11],[-2,33],[30,-12],[-6,-32]],[[1999,691],[45,4],[16,-98],[-16,-26],[-33,17],[-24,-17],[-16,-80],[-50,-16],[-31,51],[65,0],[-33,36],[25,17],[-9,54],[41,71],[20,-13]],[[3241,962],[-25,-39],[-48,-14],[40,62],[33,-9]],[[3395,1104],[0,16],[24,20],[4,-25],[-28,-11]],[[2299,1180],[-6,16],[42,15],[-5,-19],[-31,-12]],[[1680,1228],[16,19],[24,-36],[-57,-27],[-48,27],[24,45],[41,-28]],[[4096,1503],[-20,12],[6,34],[14,-11],[0,-35]],[[3532,1549],[-32,-29],[-33,29],[50,-4],[15,4]],[[426,1513],[-3,31],[27,14],[-2,-33],[-22,-12]],[[3459,1291],[-12,-38],[-51,4],[-1,34],[64,0]],[[952,1318],[40,0],[-24,-44],[-43,13],[27,31]],[[1980,992],[-33,-30],[-49,44],[73,27],[9,-41]],[[3133,1091],[39,24],[20,-46],[25,0],[-33,-71],[-96,11],[3,40],[-48,27],[60,46],[30,-31]],[[2877,1000],[-11,26],[51,7],[-24,-28],[-16,-5]],[[1356,1158],[73,-9],[-38,-60],[-35,6],[0,63]],[[2151,814],[-10,-21],[-41,9],[5,30],[72,32],[-26,-50]],[[1396,1745],[17,-6],[40,-3],[-57,-45],[0,54]],[[2943,2038],[-34,9],[4,11],[37,7],[-7,-27]],[[3345,2093],[-17,27],[42,34],[7,-25],[-32,-36]],[[556,2050],[-26,-39],[-40,36],[49,27],[17,-24]],[[1267,2065],[41,-8],[-34,-50],[-39,-4],[32,62]],[[450,2154],[24,-18],[-46,-60],[-75,68],[73,37],[24,-27]],[[3039,2154],[16,31],[40,5],[-18,-29],[-38,-7]],[[2212,2123],[-14,19],[24,21],[12,-11],[-22,-29]],[[1113,2136],[-1,27],[34,9],[1,-20],[-34,-16]],[[2133,2154],[-6,27],[22,13],[8,-22],[-24,-18]],[[2107,2177],[-24,-25],[-56,20],[57,26],[23,-21]],[[3303,2772],[-22,16],[33,33],[24,-35],[-35,-14]],[[1858,2818],[-9,-24],[-56,18],[49,19],[16,-13]],[[1107,2763],[31,-10],[-49,-48],[-8,72],[26,-14]],[[1837,2396],[12,-55],[-16,35],[-56,9],[40,54],[20,-43]],[[2463,2517],[-30,17],[-1,11],[42,0],[-11,-28]],[[2021,2609],[-10,-81],[-73,8],[-24,63],[17,20],[72,33],[18,-43]],[[1132,2400],[4,-26],[-55,-33],[8,53],[43,6]],[[498,2376],[1,26],[8,19],[16,-26],[-25,-19]],[[2031,2260],[-17,1],[-35,17],[29,16],[36,-15],[-13,-19]],[[0,2313],[0,15],[7,-8],[-7,-7]],[[3799,3141],[-13,26],[29,19],[-11,-34],[-5,-11]],[[2343,3246],[-10,28],[26,10],[1,-19],[-17,-19]],[[401,3177],[-24,9],[5,13],[36,-4],[-17,-18]],[[174,3072],[-29,-18],[-43,25],[35,18],[46,-9],[-9,-16]],[[3671,3506],[-21,8],[-15,48],[51,-38],[-15,-18]],[[3710,3382],[-89,0],[-8,71],[73,9],[40,44],[25,-9],[8,-54],[-49,-61]],[[881,3319],[-19,0],[4,36],[29,9],[-14,-45]],[[1952,3422],[36,-33],[-50,-25],[-24,44],[38,14]],[[3532,3622],[-24,50],[42,29],[27,-45],[-45,-34]],[[1271,3696],[-48,22],[18,44],[64,-26],[-34,-40]],[[3460,3837],[56,-2],[8,-9],[-54,-34],[-28,11],[18,34]],[[2622,3613],[-25,17],[5,36],[65,-9],[-45,-44]],[[2845,3640],[-29,16],[-4,19],[45,-11],[-12,-24]],[[2359,3971],[0,-11],[-57,0],[37,45],[20,-34]],[[1136,4096],[20,0],[31,-10],[40,7],[-51,-32],[-47,5],[7,30]],[[2853,3826],[-24,15],[7,30],[24,-15],[-7,-30]],[[1956,4086],[75,-80],[-44,-64],[16,-36],[-24,-44],[-65,27],[-44,118],[12,51],[74,28]],[[3880,3595],[-32,0],[1,16],[47,2],[-16,-18]],[[3762,3524],[-28,35],[39,16],[9,-27],[-20,-24]],[[1129,3661],[25,5],[16,-71],[-73,-27],[-51,57],[29,61],[54,-25]],[[3950,2840],[44,-26],[-57,-37],[-9,80],[22,-17]],[[298,355],[11,27],[96,45],[58,-2],[19,-27],[-72,2],[22,-15],[2,-86],[-51,2],[-20,40],[-65,14]],[[440,2811],[75,129],[39,137],[62,72],[75,34],[-140,-237],[-20,-104],[-47,-69],[-44,38]]]}