{"objects":{"water":{"type":"GeometryCollection","geometries":[{"type":"MultiPolygon","properties":{"source":"naturalearthdata.com","kind":"ocean","area":1576712559132672,"sort_rank":200,"min_zoom":0.0,"id":1},"arcs":[[[3],[4]],[[5]]]},{"type":"MultiLineString","properties":{"source":"naturalearthdata.com","kind":"ocean","sort_rank":205,"boundary":true,"min_zoom":0.0,"id":1298},"arcs":[[6],[7]]},{"type":"LineString","properties":{"source":"naturalearthdata.com","kind":"ocean","sort_rank":205,"boundary":true,"min_zoom":0.0,"id":1306},"arcs":[8]},{"type":"MultiLineString","properties":{"source":"naturalearthdata.com","kind":"ocean","sort_rank":205,"boundary":true,"min_zoom":0.0,"id":1308},"arcs":[[9],[10]]},{"type":"LineString","properties":{"source":"naturalearthdata.com","kind":"ocean","sort_rank":205,"boundary":true,"min_zoom":0.0,"id":1309},"arcs":[11]},{"type":"LineString","properties":{"source":"naturalearthdata.com","kind":"ocean","sort_rank":205,"boundary":true,"min_zoom":0.0,"id":1310},"arcs":[12]},{"type":"MultiLineString","properties":{"source":"naturalearthdata.com","kind":"ocean","sort_rank":205,"boundary":true,"min_zoom":0.0,"id":3402},"arcs":[[13],[14]]},{"type":"LineString","properties":{"source":"naturalearthdata.com","kind":"ocean","sort_rank":205,"boundary":true,"min_zoom":0.0,"id":3403},"arcs":[15]},{"type":"LineString","properties":{"source":"naturalearthdata.com","kind":"ocean","sort_rank":205,"boundary":true,"min_zoom":0.0,"id":3404},"arcs":[16]}]},"buildings":{"type":"GeometryCollection","geometries":[]},"places":{"type":"GeometryCollection","geometries":[{"type":"Point","properties":{"source":"naturalearthdata.com","kind":"locality","name":"Tdrshavn","population":14398,"region_capital":true,"min_zoom":6.0,"id":5207},"coordinates":[615,2623]},{"type":"Point","properties":{"name:az":"Torshavn","name:ka":"\u10e2\u10dd\u10e0\u10e1\u10f0\u10d0\u10d5\u10dc\u10d8","name:ko":"\ud1a0\ub974\uc2a4\ud558\uc6b4","name:ar":"\u062a\u0648\u0631\u0633\u0647\u0627\u0641\u0646","name:kk":"\u0422\u043e\u0440\u0448\u0433\u0430\u0432\u043d","name:kv":"\u0422\u043e\u0440\u0448\u0445\u0430\u0432\u043d","name:is":"\u00de\u00f3rsh\u00f6fn","name:be":"\u0422\u043e\u0440\u0441\u0445\u0430\u045e\u043d","name:os":"\u0422\u043e\u0440\u0441\u0445\u0430\u0432\u043d","name:ru":"\u0422\u043e\u0440\u0441\u0445\u0430\u0432\u043d","name:pl":"Thorshavn","id":29023813,"name:fa":"\u062a\u0648\u0634\u0647\u0627\u0648\u0646","kind_detail":"town","name:da":"Thorshavn","name:de":"Thorshaven","source":"openstreetmap.org","name:zh":"\u6258\u723e\u65af\u6e2f","admin_level":"2","name:lv":"Tour\u0161havna","name:ja":"\u30c8\u30fc\u30b9\u30cf\u30a6\u30f3","name:lt":"Torshaunas","name:he":"\u05d8\u05d5\u05e8\u05e1\u05d4\u05d0\u05d1\u05df","name:ur":"\u062a\u0648\u0631\u0634\u06be\u0627\u0648\u0646","name:la":"Thori Portus","name:uk":"\u0422\u043e\u0440\u0441\u0433\u0430\u0432\u043d","name:hy":"\u054f\u0578\u0580\u057d\u0570\u0561\u057e\u0576","country_capital":true,"name:sv":"Torshamn","name:bg":"\u0422\u043e\u0440\u0441\u0445\u0430\u0432\u043d","name:sr":"\u0422\u043e\u0440\u0441\u0445\u0430\u0432\u043d","population":12620,"name:el":"\u03a4\u03cc\u03c1\u03c3\u03c7\u03b1\u03b2\u03bd","kind":"locality","name":"T\u00f3rshavn","min_zoom":8.0,"name:th":"\u0e17\u0e2d\u0e23\u0e4c\u0e2a\u0e40\u0e2e\u0e32\u0e19\u0e4c"},"coordinates":[767,2511]}]},"transit":{"type":"GeometryCollection","geometries":[]},"pois":{"type":"GeometryCollection","geometries":[]},"boundaries":{"type":"GeometryCollection","geometries":[{"type":"LineString","properties":{"name:pt":"Ilhas Feroe","name:ka":"\u10e4\u10d0\u10e0\u10d4\u10e0\u10d8\u10e1 \u10d9\u10e3\u10dc\u10eb\u10e3\u10da\u10d4\u10d1\u10d8","name:rm":"Inslas Feroe","name:ko":"\ud398\ub85c \uc81c\ub3c4","name:tr":"Faroe Adalar\u0131","name:kl":"Savalimmiut","name:cs":"Faersk\u00e9 ostrovy","name:tt":"\u0424\u0430\u0440\u0435\u0440 \u0443\u0442\u0440\u0430\u0443\u043b\u0430\u0440\u044b","name:kw":"Ynysow Faroe","name:kv":"\u0424\u0430\u0440\u0435\u0440 \u0434\u0456\u044f\u0441","name:ku":"Girav\u00ean Feroe","name:az":"Farer adalar\u0131","name:tl":"Kapuluang Peroe","name:zh-min-nan":"M\u00ee-i\u00fb\u207f K\u00fbn-t\u00f3","name:os":"\u0424\u0430\u0440\u0435\u0440\u044b \u0441\u0430\u043a\u044a\u0430\u0434\u00e6\u0445\u0442\u00e6","name:ce":"\u0424\u0430\u0440\u0435\u0440\u0438\u0439\u043d \u0433\u0406\u0430\u0439\u0440\u0435\u043d\u0430\u0448","name:ta":"\u0baa\u0bb0\u0bcb\u0baf\u0bc7 \u0ba4\u0bc0\u0bb5\u0bc1\u0b95\u0bb3\u0bcd","name:tg":"\u04b6\u0430\u0437\u0438\u0440\u0430\u04b3\u043e\u0438 \u0424\u0430\u0440\u043e","name:ca":"Illes F\u00e8roe","name:li":"Faer\u00f6er","sort_rank":262,"name:hr":"Ferojski Otoci","name:da":"F\u00e6r\u00f8erne","name:sw":"Visiwa vya Faroe","name:de":"F\u00e4r\u00f6er","source":"openstreetmap.org","name:sq":"Ishujt Faroe","name:be":"\u0424\u0430\u0440\u044d\u0440\u0441\u043a\u0456\u044f \u0430\u0441\u0442\u0440\u0430\u0432\u044b","name:dv":"\u078a\u07a6\u0783\u07ae\u0787\u07ad \u0796\u07a6\u0792\u07a9\u0783\u07a7","name:lv":"F\u0113ru Salas","name:lt":"Farerai","name:hi":"\u092b\u093c\u0930\u094b \u0926\u094d\u0935\u0940\u092a\u0938\u092e\u0942\u0939","name:kk":"\u0424\u0430\u0440\u0435\u0440 \u0430\u0440\u0430\u043b\u0434\u0430\u0440\u044b","name:he":"\u05d0\u05d9\u05d9 \u05e4\u05d0\u05e8\u05d5","name:eo":"Ferooj","name:ur":"\u062c\u0632\u0627\u0626\u0631\u0641\u0627\u0631\u0648","name:la":"Faeroae insulae","name:uk":"\u0424\u0430\u0440\u0435\u0440\u0441\u044c\u043a\u0456 \u043e\u0441\u0442\u0440\u043e\u0432\u0438","name:hy":"\u0556\u0561\u0580\u0565\u0580\u0575\u0561\u0576 \u056f\u0572\u0566\u056b\u0576\u0565\u0580","name:hu":"Fer\u00f6er","name:qu":"Pharuy","name:oc":"Illas Fer\u00f2e","name:el":"\u039d\u03ae\u03c3\u03bf\u03b9 \u03a6\u03b5\u03c1\u03cc\u03b5\u03c2","kind":"country","name:en":"Faroe Islands","name":"F\u00f8royar","name:ee":"Faroe Islands","min_zoom":8.0,"name:th":"\u0e2b\u0e21\u0e39\u0e48\u0e40\u0e01\u0e32\u0e30\u0e41\u0e1f\u0e42\u0e23","name:eu":"Faroeak","name:et":"F\u00e4\u00e4ri saared","name:yo":"\u00c0w\u1ecdn Er\u00e9k\u00f9\u1e63\u00f9 F\u00e0r\u00f3\u00e8","name:ia":"Insulas Feroe","name:mt":"G\u017cejjer Faroe","name:ro":"Insulele Feroe","name:id":"Kepulauan Faroe","name:ms":"Kepulauan Faroe","name:mr":"\u092b\u0947\u0930\u094b \u0926\u094d\u0935\u0940\u092a\u0938\u092e\u0942\u0939","name:ar":"\u062c\u0632\u0631 \u0641\u0627\u0631\u0648","name:io":"Faero","int_name":"Faroe Islands","name:is":"F\u00e6reyjar","name:am":"\u134b\u122e \u12f0\u1234\u1276\u127d","name:it":"F\u00e6r \u00d8er","name:an":"Islas Feroe","name:vi":"Qu\u1ea7n \u0111\u1ea3o Faroe","name:rw":"Ibirwa bya Farowe","name:mi":"Moutere Faroe","name:pl":"Wyspy Owcze","name:mk":"\u0424\u0430\u0440\u0441\u043a\u0438 \u041e\u0441\u0442\u0440\u043e\u0432\u0438","name:af":"Faro\u00ebreilande","name:fa":"\u062c\u0632\u0627\u06cc\u0631 \u0641\u0627\u0631\u0648","name:mn":"\u0424\u0430\u0440\u0435\u0440\u044b\u043d \u0430\u0440\u043b\u0443\u0443\u0434","name:si":"\u0dc6\u0dcf\u0dbb\u0ddd \u0daf\u0dd2\u0dc0\u0dba\u0dd2\u0db1\u0dca","kind_detail":"2","name:sh":"Farski Otoci","id":-52939,"name:fr":"\u00celes F\u00e9ro\u00e9","name:zh-yue":"\u6cd5\u7f85\u7fa4\u5cf6","name:fy":"Faer\u00f6er","name:zh":"\u6cd5\u7f57\u7fa4\u5c9b","name:gv":"Ellanyn ny Geyrragh","name:so":"Jasiiradaha Feroe","name:sl":"Ferski otoki","name:nl":"Faer\u00f6er","name:ja":"\u30d5\u30a7\u30ed\u30fc\u8af8\u5cf6","name:nn":"F\u00e6r\u00f8yane","name:no":"F\u00e6r\u00f8yene","name:se":"Fearsullot","name:ne":"\u092b\u0930\u094b\u0907 \u091f\u093e\u092a\u0941","name:br":"Faero","name:bs":"Farska ostrva","name:jv":"Kapuloan Faroe","name:sk":"Faersk\u00e9 ostrovy","name:bi":"Faroe aelan","name:ru":"\u0424\u0430\u0440\u0435\u0440\u0441\u043a\u0438\u0435 \u043e\u0441\u0442\u0440\u043e\u0432\u0430","name:sv":"F\u00e4r\u00f6arna","name:su":"Kapuloan Faroe","name:bg":"\u0424\u0435\u0440\u044c\u043e\u0440\u0441\u043a\u0438 \u043e\u0441\u0442\u0440\u043e\u0432\u0438","name:wo":"Duni Faarow","name:sr":"\u0424\u0430\u0440\u0441\u043a\u0430 \u041e\u0441\u0442\u0440\u0432\u0430","osm_relation":true,"name:ga":"Oile\u00e1in Fhar\u00f3","name:gd":"Na h-Eileanan F\u00e0ro","name:gl":"Illas Feroe","maritime_boundary":true,"name:es":"Islas Feroe","name:gu":"\u0aab\u0ab0\u0acb \u0aa6\u0acd\u0ab5\u0abf\u0aaa\u0ab8\u0aae\u0ac2\u0ab9","name:fi":"F\u00e4rsaaret"},"arcs":[0]},{"type":"MultiLineString","properties":{"kind":"region","name:en":"Su\u00f0uroy region","name":"Su\u00f0uroyar s\u00fdsla","sort_rank":256,"kind_detail":"4","min_zoom":8.0,"source":"openstreetmap.org","maritime_boundary":true,"id":-3729247,"osm_relation":true},"arcs":[[1],[2]]}]},"roads":{"type":"GeometryCollection","geometries":[{"type":"MultiLineString","properties":{"sort_rank":380,"kind_detail":"primary","min_zoom":8.0,"kind":"major_road","source":"openstreetmap.org"},"arcs":[[17],[18],[19],[20],[21],[22]]},{"type":"LineString","properties":{"source":"openstreetmap.org","kind":"major_road","sort_rank":380,"kind_detail":"primary","ref":"70","min_zoom":8.0,"id":34242507},"arcs":[23]},{"type":"LineString","properties":{"source":"openstreetmap.org","kind":"ferry","name":"Sandur - Sk\u00favoy","sort_rank":355,"ref":"66","min_zoom":8.0,"id":150332976},"arcs":[24]},{"type":"LineString","properties":{"source":"openstreetmap.org","kind":"major_road","sort_rank":380,"kind_detail":"primary","ref":"29","min_zoom":8.0},"arcs":[25]},{"type":"LineString","properties":{"source":"openstreetmap.org","kind":"ferry","name":"Klaksv\u00edk - Sy\u00f0radalur","sort_rank":355,"ref":"56","min_zoom":8.0,"id":150332974},"arcs":[26]},{"type":"MultiLineString","properties":{"source":"openstreetmap.org","bus_network":null,"bus_shield_text":"5E","sort_rank":380,"kind_detail":"primary","min_zoom":8.0,"kind":"major_road"},"arcs":[[27],[28],[29]]},{"type":"LineString","properties":{"bus_network":"Bygdalei\u00f0ir","sort_rank":380,"kind_detail":"primary","kind":"major_road","source":"openstreetmap.org","min_zoom":8.0,"bus_shield_text":"481","ref":"10"},"arcs":[30]},{"type":"LineString","properties":{"bus_network":null,"sort_rank":380,"kind_detail":"primary","kind":"major_road","source":"openstreetmap.org","min_zoom":8.0,"bus_shield_text":"100","ref":"11"},"arcs":[31]},{"type":"LineString","properties":{"source":"openstreetmap.org","kind":"major_road","sort_rank":380,"kind_detail":"primary","ref":"30","min_zoom":8.0},"arcs":[32]},{"type":"LineString","properties":{"source":"openstreetmap.org","kind":"ferry","name":"Smyril","sort_rank":355,"ref":"7","is_bicycle_related":true,"min_zoom":8.0},"arcs":[33]},{"type":"LineString","properties":{"source":"openstreetmap.org","kind":"ferry","name":"Teistin","sort_rank":355,"is_bicycle_related":true,"min_zoom":8.0,"id":46694666},"arcs":[34]},{"type":"LineString","properties":{"sort_rank":355,"source":"openstreetmap.org","min_zoom":8.0,"name":"T\u00f3rshavn - Sey\u00f0isfj\u00f6r\u00f0ur","kind":"ferry"},"arcs":[35]},{"type":"LineString","properties":{"kind":"major_road","sort_rank":380,"kind_detail":"primary","bus_network":null,"source":"openstreetmap.org","min_zoom":8.0,"bus_shield_text":"4","id":27819323},"arcs":[36]},{"type":"LineString","properties":{"bus_network":null,"sort_rank":380,"kind_detail":"primary","kind":"major_road","source":"openstreetmap.org","min_zoom":8.0,"bus_shield_text":"5E","ref":"10"},"arcs":[37]},{"type":"LineString","properties":{"source":"openstreetmap.org","bus_network":"Bygdalei\u00f0ir","bus_shield_text":"481","sort_rank":380,"kind_detail":"primary","min_zoom":8.0,"kind":"major_road"},"arcs":[38]},{"type":"LineString","properties":{"source":"openstreetmap.org","kind":"major_road","sort_rank":380,"kind_detail":"primary","ref":"69","min_zoom":8.0},"arcs":[39]},{"type":"MultiLineString","properties":{"source":"openstreetmap.org","bus_network":null,"bus_shield_text":"101","sort_rank":380,"kind_detail":"primary","min_zoom":8.0,"kind":"major_road"},"arcs":[[40],[41],[42]]},{"type":"LineString","properties":{"source":"openstreetmap.org","kind":"ferry","name":"T\u00f3rshavn - Sey\u00f0isfj\u00f6r\u00f0ur","sort_rank":355,"min_zoom":8.0,"osm_relation":true},"arcs":[43]},{"type":"LineString","properties":{"kind":"ferry","name":"Ternan","sort_rank":355,"is_bicycle_related":true,"source":"openstreetmap.org","min_zoom":8.0,"ref":"90","id":46694662},"arcs":[44]},{"type":"LineString","properties":{"sort_rank":355,"source":"openstreetmap.org","min_zoom":8.0,"name":"Hirtshals-T\u00f3rshavn","kind":"ferry"},"arcs":[45]},{"type":"LineString","properties":{"kind":"ferry","name":"Teistin","sort_rank":355,"is_bicycle_related":true,"source":"openstreetmap.org","min_zoom":8.0,"ref":"60","id":46694665},"arcs":[46]},{"type":"LineString","properties":{"source":"openstreetmap.org","kind":"major_road","sort_rank":380,"kind_detail":"primary","ref":"23","min_zoom":8.0},"arcs":[47]},{"type":"LineString","properties":{"source":"openstreetmap.org","kind":"major_road","sort_rank":380,"kind_detail":"primary","ref":"66","min_zoom":8.0,"id":34747142},"arcs":[48]},{"type":"MultiLineString","properties":{"source":"openstreetmap.org","kind":"major_road","sort_rank":380,"kind_detail":"primary","ref":"10","min_zoom":8.0},"arcs":[[49],[50],[51],[52],[53],[54],[55],[56],[57],[58],[59]]},{"type":"LineString","properties":{"source":"openstreetmap.org","kind":"ferry","name":"Hirthals (DK) -T\u00f3rshavn (FO) - Sey\u00f0isfj\u00f6r\u00f0ur (IS)","sort_rank":355,"min_zoom":8.0,"osm_relation":true},"arcs":[60]},{"type":"LineString","properties":{"kind":"major_road","sort_rank":380,"kind_detail":"primary","name:de":"Nordinselntunnel","source":"openstreetmap.org","min_zoom":8.0,"ref":"10","id":34419219},"arcs":[61]},{"type":"MultiLineString","properties":{"bus_network":null,"sort_rank":380,"kind_detail":"primary","kind":"major_road","source":"openstreetmap.org","min_zoom":8.0,"bus_shield_text":"4","ref":"10"},"arcs":[[62],[63]]}]},"earth":{"type":"GeometryCollection","geometries":[{"type":"MultiPolygon","properties":{"sort_rank":10,"source":"naturalearthdata.com","min_zoom":0.0,"kind":"earth","area":5389549128},"arcs":[[[64]],[[65]],[[66]],[[67]],[[68]],[[69]],[[70]],[[71]]]},{"type":"Point","properties":{"label_placement":true,"kind":"island","name":"Streymoy","area":1713799936,"source":"openstreetmap.org","min_zoom":8.0,"id":-1423026,"osm_relation":true},"coordinates":[43,3206]},{"type":"Point","properties":{"label_placement":true,"kind":"island","name":"Eysturoy","area":1316310016,"source":"openstreetmap.org","min_zoom":8.0,"id":-1423024,"osm_relation":true},"coordinates":[622,3669]}]},"landuse":{"type":"GeometryCollection","geometries":[]}},"type":"Topology","transform":{"translate":[-7.03125,61.6063963714],"scale":[0.0003433228,0.0001615054]},"arcs":[[[1712,0],[788,4096]],[[145,0],[-21,0]],[[296,0],[147,126],[-143,-8],[3,47],[91,52],[-74,61],[-177,-35],[22,-54],[-82,-88],[29,-11],[42,-90]],[[200,138],[26,-93],[14,-30],[1,-15],[-241,0],[0,3159],[1,0],[43,-29],[54,-51],[45,-60],[19,-56],[4,-101],[15,-72],[27,-43],[42,-15],[103,-60],[155,-267],[183,-126],[84,-129],[89,-95],[95,36],[-11,103],[15,80],[5,52],[-96,56],[-6,88],[23,102],[30,76],[-79,81],[-197,-5],[-103,47],[0,46],[170,0],[24,29],[-14,66],[-41,93],[-43,77],[-255,-12],[32,13],[41,29],[38,40],[28,45],[19,66],[-3,54],[-26,36],[-147,47],[-166,145],[-98,33],[0,142],[-99,197],[0,103],[32,-99],[183,-310],[35,-33],[22,-13],[61,-66],[18,-27],[31,-28],[118,7],[229,-291],[118,-97],[53,134],[-31,162],[-75,103],[-87,78],[-68,80],[82,23],[88,-81],[78,-126],[51,-112],[22,-149],[1,-155],[29,-128],[107,-75],[-13,42],[-1,30],[11,25],[24,26],[0,46],[-14,9],[-13,18],[-12,12],[34,57],[54,30],[60,9],[52,-8],[0,46],[-97,104],[-59,47],[-64,14],[0,42],[150,-67],[152,-21],[-105,109],[-356,191],[0,42],[53,25],[175,-25],[73,8],[39,23],[-9,39],[-123,86],[-160,59],[-29,-8],[-55,-33],[-24,-5],[-30,17],[-56,56],[-33,12],[0,46],[59,18],[53,60],[24,62],[-28,29],[-41,7],[181,0],[22,-97],[42,-67],[52,-31],[45,13],[12,65],[-26,67],[-19,26],[-12,24],[117,0],[7,-10],[63,-32],[43,35],[0,7],[96,0],[-3,-28],[-10,-43],[-1,-35],[-4,-23],[-23,-9],[-11,13],[-8,21],[-11,4],[-21,-38],[-13,-106],[34,-94],[98,-138],[10,-22],[6,-22],[8,-21],[29,-26],[27,-16],[20,2],[-11,43],[-26,67],[-63,210],[45,23],[46,-48],[79,-169],[45,-55],[57,-15],[59,15],[49,34],[0,42],[-21,29],[-10,36],[-9,108],[-55,-35],[-57,49],[-108,152],[20,46],[61,-69],[93,-40],[91,14],[55,95],[-82,49],[102,0],[27,-74],[34,-63],[49,-9],[46,17],[38,23],[26,32],[14,39],[-1,35],[1965,0],[0,-4096],[-3722,0],[108,100],[-33,-5],[-31,3],[-29,13],[-28,27],[21,18],[58,66],[-42,43],[-51,-8],[-107,-73],[12,-17],[1,-6],[7,-23],[-60,0]],[[385,1780],[63,-150],[12,-109],[16,-79],[39,-44],[47,-20],[267,-49],[39,-44],[190,-403],[21,-17],[28,20],[27,43],[21,44],[14,20],[6,178],[-6,32],[-10,20],[20,42],[41,65],[-20,61],[-84,86],[-19,88],[-36,44],[-221,64],[-33,21],[-41,74],[-27,32],[-35,15],[-94,-15],[-58,12],[-124,56],[-67,12],[24,-99]],[[334,4096],[27,-176],[-46,59],[-24,68],[-5,49],[48,0]],[[1438,3620],[10,-22],[6,-22],[8,-21],[29,-26],[27,-16],[20,2],[-11,43],[-26,67],[-63,210],[45,23],[46,-48],[79,-169],[45,-55],[57,-15],[59,15],[49,34],[0,42],[-21,29],[-10,36],[-9,108],[-55,-35],[-57,49],[-108,152],[20,46],[61,-69],[93,-40],[91,14],[55,95],[-82,49]],[[1411,4096],[-3,-28],[-10,-43],[-1,-35],[-4,-23],[-23,-9],[-11,13],[-8,21],[-11,4],[-21,-38],[-13,-106],[34,-94],[98,-138]],[[0,3159],[1,0],[43,-29],[54,-51],[45,-60],[19,-56],[4,-101],[15,-72],[27,-43],[42,-15],[103,-60],[155,-267],[183,-126],[84,-129],[89,-95],[95,36],[-11,103],[15,80],[5,52],[-96,56],[-6,88],[23,102],[30,76],[-79,81],[-197,-5],[-103,47],[0,46],[170,0],[24,29],[-14,66],[-41,93],[-43,77],[-255,-12],[32,13],[41,29],[38,40],[28,45],[19,66],[-3,54],[-26,36],[-147,47],[-166,145],[-98,33],[0,142],[-99,197]],[[0,4020],[32,-99],[183,-310],[35,-33],[22,-13],[61,-66],[18,-27],[31,-28],[118,7],[229,-291],[118,-97],[53,134],[-31,162],[-75,103],[-87,78],[-68,80],[82,23],[88,-81],[78,-126],[51,-112],[22,-149],[1,-155],[29,-128],[107,-75],[-13,42],[-1,30],[11,25],[24,26],[0,46],[-14,9],[-13,18],[-12,12],[34,57],[54,30],[60,9],[52,-8],[0,46],[-97,104],[-59,47],[-64,14],[0,42],[150,-67],[152,-21],[-105,109],[-356,191],[0,42],[53,25],[175,-25],[73,8],[39,23],[-9,39],[-123,86],[-160,59],[-29,-8],[-55,-33],[-24,-5],[-30,17],[-56,56],[-33,12],[0,46],[59,18],[53,60],[24,62],[-28,29],[-41,7]],[[334,4096],[27,-176],[-46,59],[-24,68],[-5,49]],[[374,0],[108,100],[-33,-5],[-31,3],[-29,13],[-28,27],[21,18],[58,66],[-42,43],[-51,-8],[-107,-73],[12,-17],[1,-6],[7,-23],[-60,0],[26,-93],[14,-30],[1,-15]],[[1220,1329],[-20,61],[-84,86],[-19,88],[-36,44],[-221,64],[-33,21],[-41,74],[-27,32],[-35,15],[-94,-15],[-58,12],[-124,56],[-67,12],[24,-99],[63,-150],[12,-109],[16,-79],[39,-44],[47,-20],[267,-49],[39,-44],[190,-403],[21,-17],[28,20],[27,43],[21,44],[14,20],[6,178],[-6,32],[-10,20],[20,42],[41,65]],[[1097,4072],[-12,24]],[[969,4096],[22,-97],[42,-67],[52,-31],[45,13],[12,65],[-26,67],[-19,26]],[[1202,4096],[7,-10],[63,-32],[43,35],[0,7]],[[1898,4096],[27,-74],[34,-63],[49,-9],[46,17],[38,23],[26,32],[14,39],[-1,35]],[[213,4096],[-16,-51],[45,-110],[122,-144]],[[622,3889],[-12,33]],[[789,3475],[56,-114]],[[76,3820],[-1,0],[0,-1],[1,-1],[0,2]],[[785,3703],[0,2],[-2,0],[0,-2],[2,0]],[[789,3475],[0,2],[-1,-1],[0,-1],[1,0]],[[783,3705],[-133,97],[-28,87]],[[665,1024],[44,58],[25,141],[-24,102],[-31,50],[-34,-2]],[[290,0],[2,106],[-36,19],[43,37]],[[1287,3863],[-51,74],[-168,25]],[[589,2436],[-31,11],[-26,-84],[28,-30]],[[583,2276],[52,-80],[-17,8]],[[652,2439],[-61,-4]],[[490,3743],[28,-62]],[[213,3085],[-58,79],[-97,66],[-58,-18]],[[447,1835],[36,-54],[9,-101],[107,-156],[14,-91],[33,15],[234,-107],[51,-7],[103,41]],[[1096,0],[58,185],[126,755],[9,287],[-28,285],[-113,302],[-265,521],[-125,114],[13,37]],[[618,2204],[-11,-24],[-175,-12]],[[773,4096],[147,-262],[246,-146],[165,-360],[-7,-132],[-536,-751],[-23,7],[6,34]],[[215,3085],[-1,0],[-1,-1],[2,-1],[0,2]],[[773,2663],[-84,87],[-143,-24],[-200,99]],[[486,4029],[13,-39],[-48,-1],[-13,-113],[3,-52],[49,-81]],[[519,3679],[-5,-37],[179,-199],[103,-212],[15,-70],[-51,-125]],[[560,2333],[25,-19],[-2,-38]],[[591,2435],[-2,1]],[[675,2448],[-23,-9]],[[773,4096],[147,-262],[189,-106],[74,-70],[148,-330],[6,-102],[-404,-604],[-145,-177],[-23,7],[6,34]],[[768,2489],[-6,-38],[24,-12],[259,40]],[[4096,945],[-2957,1135],[-379,370],[11,36]],[[618,2204],[-25,-101],[-147,-265]],[[75,3820],[-75,80]],[[117,3631],[-28,101]],[[293,3074],[65,73],[100,36],[-8,45],[-99,134],[-90,7],[-17,78],[-103,94],[-125,44],[87,198],[-27,35]],[[76,3819],[77,-28],[142,27],[54,-25],[96,6],[45,-56]],[[518,3681],[270,-206]],[[789,3477],[-21,49],[13,57],[53,60],[-49,60]],[[918,3763],[-133,-59]],[[789,3475]],[[845,3361],[30,-49],[22,-200]],[[896,3110],[-60,0],[19,-110]],[[1019,3722],[-56,22]],[[1331,3782],[1,38]],[[897,3110],[1,0],[-1,2],[-1,-1],[1,-1]],[[773,4096],[147,-262],[189,-106],[74,-70],[148,-330],[6,-102],[-404,-604],[-145,-177],[-23,7],[6,34],[-11,-36],[131,-107],[219,-245],[2986,-1153]],[[1331,3782],[-96,-72],[-160,-16],[-56,28]],[[213,3083],[48,-58],[38,-144],[47,-56]],[[215,3084],[78,-10]],[[418,98],[31,-3],[33,5],[-108,-100],[-133,0],[-1,15],[-14,30],[-26,93],[60,0],[-7,23],[-1,6],[-12,17],[107,73],[51,8],[42,-43],[-58,-66],[-21,-18],[28,-27],[29,-13]],[[552,1811],[58,-12],[94,15],[35,-15],[27,-32],[41,-74],[33,-21],[221,-64],[36,-44],[19,-88],[84,-86],[20,-61],[-41,-65],[-20,-42],[10,-20],[6,-32],[-6,-178],[-14,-20],[-21,-44],[-27,-43],[-28,-20],[-21,17],[-190,403],[-39,44],[-267,49],[-47,20],[-39,44],[-16,79],[-12,109],[-63,150],[-24,99],[67,-12],[124,-56]],[[1898,4096],[233,0],[1,-35],[-14,-39],[-26,-32],[-38,-23],[-46,-17],[-49,9],[-34,63],[-27,74]],[[0,3159],[0,758],[99,-197],[0,-142],[98,-33],[166,-145],[147,-47],[26,-36],[3,-54],[-19,-66],[-28,-45],[-38,-40],[-41,-29],[-32,-13],[255,12],[43,-77],[41,-93],[14,-66],[-24,-29],[-170,0],[0,-46],[103,-47],[197,5],[79,-81],[-30,-76],[-23,-102],[6,-88],[96,-56],[-5,-52],[-15,-80],[11,-103],[-95,-36],[-89,95],[-84,129],[-183,126],[-155,267],[-103,60],[-42,15],[-27,43],[-15,72],[-4,101],[-19,56],[-45,60],[-54,51],[-43,29],[-1,0]],[[334,4096],[454,0],[41,-7],[28,-29],[-24,-62],[-53,-60],[-59,-18],[0,-46],[33,-12],[56,-56],[30,-17],[24,5],[55,33],[29,8],[160,-59],[123,-86],[9,-39],[-39,-23],[-73,-8],[-175,25],[-53,-25],[0,-42],[356,-191],[105,-109],[-152,21],[-150,67],[0,-42],[64,-14],[59,-47],[97,-104],[0,-46],[-52,8],[-60,-9],[-54,-30],[-34,-57],[12,-12],[13,-18],[14,-9],[0,-46],[-24,-26],[-11,-25],[1,-30],[13,-42],[-107,75],[-29,128],[-1,155],[-22,149],[-51,112],[-78,126],[-88,81],[-82,-23],[68,-80],[87,-78],[75,-103],[31,-162],[-53,-134],[-118,97],[-229,291],[-118,-7],[-31,28],[-18,27],[-61,66],[-22,13],[-35,33],[-183,310],[-32,99],[0,76],[286,0],[5,-49],[24,-68],[46,-59],[-27,176]],[[969,4096],[116,0],[12,-24],[19,-26],[26,-67],[-12,-65],[-45,-13],[-52,31],[-42,67],[-22,97]],[[1202,4096],[113,0],[0,-7],[-43,-35],[-63,32],[-7,10]],[[1411,4096],[385,0],[82,-49],[-55,-95],[-91,-14],[-93,40],[-61,69],[-20,-46],[108,-152],[57,-49],[55,35],[9,-108],[10,-36],[21,-29],[0,-42],[-49,-34],[-59,-15],[-57,15],[-45,55],[-79,169],[-46,48],[-45,-23],[63,-210],[26,-67],[11,-43],[-20,-2],[-27,16],[-29,26],[-8,21],[-6,22],[-10,22],[-98,138],[-34,94],[13,106],[21,38],[11,-4],[8,-21],[11,-13],[23,9],[4,23],[1,35],[10,43],[3,28]]]}