{"objects":{"water":{"type":"GeometryCollection","geometries":[{"type":"MultiPolygon","properties":{"source":"naturalearthdata.com","kind":"ocean","area":1576712559132672,"sort_rank":200,"min_zoom":0.0,"id":1},"arcs":[[[2],[3],[4],[5],[6],[7]],[[8]]]},{"type":"MultiLineString","properties":{"source":"naturalearthdata.com","kind":"ocean","sort_rank":205,"boundary":true,"min_zoom":0.0,"id":41},"arcs":[[9],[10],[11],[12],[13]]},{"type":"LineString","properties":{"source":"naturalearthdata.com","kind":"ocean","sort_rank":205,"boundary":true,"min_zoom":0.0,"id":1297},"arcs":[14]},{"type":"LineString","properties":{"source":"naturalearthdata.com","kind":"ocean","sort_rank":205,"boundary":true,"min_zoom":0.0,"id":1325},"arcs":[15]},{"type":"LineString","properties":{"source":"naturalearthdata.com","kind":"ocean","sort_rank":205,"boundary":true,"min_zoom":0.0,"id":1326},"arcs":[16]},{"type":"LineString","properties":{"source":"naturalearthdata.com","kind":"ocean","sort_rank":205,"boundary":true,"min_zoom":0.0,"id":1327},"arcs":[17]},{"type":"LineString","properties":{"source":"naturalearthdata.com","kind":"ocean","sort_rank":205,"boundary":true,"min_zoom":0.0,"id":1328},"arcs":[18]},{"type":"MultiLineString","properties":{"source":"naturalearthdata.com","kind":"ocean","sort_rank":205,"boundary":true,"min_zoom":0.0,"id":1330},"arcs":[[19],[20]]},{"type":"MultiLineString","properties":{"source":"naturalearthdata.com","kind":"ocean","sort_rank":205,"boundary":true,"min_zoom":0.0,"id":1331},"arcs":[[21],[22]]},{"type":"MultiLineString","properties":{"source":"naturalearthdata.com","kind":"ocean","sort_rank":205,"boundary":true,"min_zoom":0.0,"id":1332},"arcs":[[23],[24]]},{"type":"LineString","properties":{"source":"naturalearthdata.com","kind":"ocean","sort_rank":205,"boundary":true,"min_zoom":0.0,"id":1336},"arcs":[25]},{"type":"MultiLineString","properties":{"source":"naturalearthdata.com","kind":"ocean","sort_rank":205,"boundary":true,"min_zoom":0.0,"id":1337},"arcs":[[26],[27]]}]},"buildings":{"type":"GeometryCollection","geometries":[]},"places":{"type":"GeometryCollection","geometries":[]},"transit":{"type":"GeometryCollection","geometries":[]},"pois":{"type":"GeometryCollection","geometries":[{"type":"Point","properties":{"kind":"nature_reserve","protect_class":"98","area":2293210000,"source":"openstreetmap.org","min_zoom":6.71,"tier":2,"id":-6055457,"osm_relation":true,"name":"Loch Sunart to the Sound of Jura Marine Protected Area"},"coordinates":[4065,3000]},{"type":"Point","properties":{"kind":"nature_reserve","protect_class":"98","area":129160000,"source":"openstreetmap.org","min_zoom":8.78,"tier":2,"id":-6024480,"osm_relation":true,"name":"Loch Sween Marine Protected Area"},"coordinates":[4028,1018]}]},"boundaries":{"type":"GeometryCollection","geometries":[{"type":"LineString","properties":{"name:kg":"Royaume-Uni","name:ty":"Parat\u0101ne","name:ka":"\u10d2\u10d0\u10d4\u10e0\u10d7\u10d8\u10d0\u10dc\u10d4\u10d1\u10e3\u10da\u10d8 \u10e1\u10d0\u10db\u10d4\u10e4\u10dd","name:ko":"\uc601\uad6d","name:cv":"\u0410\u0441\u043b\u0103 \u0411\u0440\u0438\u0442\u0430\u043d\u0438","name:cu":"\u0412\u0454\u043b\u0438\u043a\u0430 \u0411\u0440\u0438\u0442\u0430\u043d\u0457\ua657","name:kl":"Tuluit Nunaat","name:cs":"Spojen\u00e9 kr\u00e1lovstv\u00ed","name:tt":"\u0411\u04e9\u0435\u043a\u0431\u0440\u0438\u0442\u0430\u043d\u0438\u044f","name:co":"Regnu Unitu","name:kv":"\u042b\u0434\u0436\u044b\u0434 \u0411\u0440\u0438\u0442\u0430\u043d\u0438\u044f","name:ku":"Keyaniya Yekb\u00fby\u00ee","name:tl":"Nagkakaisang Kaharian","name:ce":"\u0419\u043e\u043a\u043a\u0445\u0430 \u0411\u0440\u0438\u0442\u0430\u043d\u0438","name:ta":"\u0b90\u0b95\u0bcd\u0b95\u0bbf\u0baf \u0b87\u0bb0\u0bbe\u0b9a\u0bcd\u0b9a\u0bbf\u0baf\u0bae\u0bcd","name:tg":"\u041f\u043e\u0434\u0448\u043e\u04b3\u0438\u0438 \u041c\u0443\u0442\u0442\u0430\u04b3\u0438\u0434\u0430","name:ca":"Regne Unit","name:te":"\u0c2f\u0c41\u0c28\u0c48\u0c1f\u0c46\u0c21\u0c4d \u0c15\u0c3f\u0c02\u0c17\u0c4d\u200c\u0c21\u0c2e\u0c4d","name:cy":"Deyrnas Unedig","name:qu":"Hukllachasqa Qhapaq Suyu","name:da":"Storbritannien","name:de":"Vereinigtes K\u00f6nigreich","name:dz":"\u0f61\u0f74\u0f0b\u0f53\u0f60\u0f72\u0f0b\u0f4a\u0f7a\u0f4a\u0f0b\u0f40\u0f72\u0f44\u0f0b\u0f4c\u0f58","source":"openstreetmap.org","name:kn":"\u0caf\u0cc1\u0ca8\u0cc8\u0c9f\u0cc6\u0ca1\u0ccd \u0c95\u0cbf\u0c82\u0c97\u0ccd\u200c\u0ca1\u0c82","name:dv":"\u0794\u07aa\u0782\u07a6\u0787\u07a8\u0793\u07ac\u0791\u07b0 \u0786\u07a8\u0782\u07b0\u078e\u07b0\u0791\u07a6\u0789\u07b0","name:km":"\u179a\u17b6\u1787\u17b6\u178e\u17b6\u1785\u1780\u17d2\u179a\u179a\u17bd\u1798","name:lv":"Apvienot\u0101 Karaliste","name:lt":"Jungtin\u0117 Karalyst\u0117","name:uz":"Birlashgan Qirollik","name:kk":"\u04b0\u043b\u044b\u0431\u0440\u0438\u0442\u0430\u043d\u0438\u044f","name:ur":"\u0628\u0631\u0637\u0627\u0646\u06cc\u06c1","name:lb":"Groussbritannien an Nordirland","name:la":"Britanniarum Regnum","name:uk":"\u0412\u0435\u043b\u0438\u043a\u0430 \u0411\u0440\u0438\u0442\u0430\u043d\u0456\u044f","name:ug":"\u0628\u06c8\u064a\u06c8\u0643 \u0628\u06d0\u0631\u0649\u062a\u0627\u0646\u0649\u064a\u06d5","name:li":"Vereineg Keuninkriek","name:ln":"Ing\u025bl\u025b\u0301t\u025bl\u025b","name:el":"\u0397\u03bd\u03c9\u03bc\u03ad\u03bd\u03bf \u0392\u03b1\u03c3\u03af\u03bb\u03b5\u03b9\u03bf","name:eo":"Britujo","name":"United Kingdom","name:th":"\u0e2a\u0e2b\u0e23\u0e32\u0e0a\u0e2d\u0e32\u0e13\u0e32\u0e08\u0e31\u0e01\u0e23","name:eu":"Erresuma Batua","name:et":"Suurbritannia","name:es":"Reino Unido","name:ia":"Regno Unite","name:rm":"Reginavel Un\u00ec","name:az":"B\u00f6y\u00fck Britaniya","name:ie":"Reyatu Unit","name:id":"Britania Raya","name:ig":"Obodo\u00e9z\u00e8 N\u00e0 Of\u00fa","name:ar":"\u0627\u0644\u0645\u0645\u0644\u0643\u0629 \u0627\u0644\u0645\u062a\u062d\u062f\u0629","name:io":"Unionita Rejio","name:is":"Bretland","name:am":"\u12e9\u1293\u12ed\u1275\u12f5 \u12aa\u1295\u130d\u12f0\u121d","name:it":"Regno Unito","name:an":"Reino Unito","name:ru":"\u0412\u0435\u043b\u0438\u043a\u043e\u0431\u0440\u0438\u0442\u0430\u043d\u0438\u044f","name:ab":"\u0411\u0440\u0438\u0442\u0430\u043d\u0438\u0430 \u0414\u0443","name:af":"Verenigde Koninkryk","name:zu":"Umbuso Ohlangeneyo","kind_detail":"2","name:za":"Yinghgoz","name:zh-yue":"\u82f1\u570b","name:zh":"\u82f1\u570b","name:so":"Midowga boqortooyada Britan","name:sl":"Zdru\u017eeno kraljestvo Velike Britanije in Severne Irske","name:sk":"Spojen\u00e9 kr\u00e1\u013eovstvo","name:ja":"\u30a4\u30ae\u30ea\u30b9","name:si":"\u0d91\u0d9a\u0dca\u0dc3\u0dad\u0dca \u0dbb\u0dcf\u0da2\u0db0\u0dcf\u0db1\u0dd2\u0dba","name:sh":"Ujedinjeno Kraljevstvo","name:se":"Ovttastuvvan gonagasriika","name:sc":"Rennu Auniadu","name:sa":"\u0938\u0902\u092f\u0941\u0915\u094d\u0924 \u0905\u0927\u093f\u0930\u093e\u091c\u094d\u092f","name:bs":"Ujedinjeno Kraljevstvo Velike Britanije i Sjeverne Irske","name:bn":"\u09af\u09c1\u0995\u09cd\u09a4\u09b0\u09be\u099c\u09cd\u09af","name:bo":"\u0f51\u0f56\u0fb1\u0f72\u0f53\u0f0b\u0f47\u0f72\u0f0b\u0f58\u0f49\u0f58\u0f0b\u0f60\u0f56\u0fb2\u0f7a\u0f63\u0f0d","name:br":"Rouantelezh-Unanet","name:sw":"Ufalme wa Muungano","name:be":"\u0412\u044f\u043b\u0456\u043a\u0430\u0431\u0440\u044b\u0442\u0430\u043d\u0456\u044f","name:su":"Britania","name:bg":"\u041e\u0431\u0435\u0434\u0438\u043d\u0435\u043d\u043e \u043a\u0440\u0430\u043b\u0441\u0442\u0432\u043e \u0412\u0435\u043b\u0438\u043a\u043e\u0431\u0440\u0438\u0442\u0430\u043d\u0438\u044f \u0438 \u0421\u0435\u0432\u0435\u0440\u043d\u0430 \u0418\u0440\u043b\u0430\u043d\u0434\u0438\u044f","name:ba":"\u0411\u04e9\u0439\u04e9\u043a \u0411\u0440\u0438\u0442\u0430\u043d\u0438\u044f","name:sq":"Mbret\u00ebria e Bashkuar e Britanis\u00eb dhe Irland\u00ebs s\u00eb Veriut","name:jv":"Britania Raya","name:bi":"Unaeted Kingdom","name:pt":"Reino Unido","name:ps":"\u0628\u0631\u064a\u062a\u0627\u0646\u064a\u0627","name:oc":"Reialme Unit","min_zoom":8.0,"name:ro":"Regatul Unit al Marii Britanii \u0219i al Irlandei de Nord","name:zh-min-nan":"Li\u00e2n-ha\u030dp \u00d4ng-kok","name:os":"\u0421\u0442\u044b\u0440 \u0411\u0440\u0438\u0442\u0430\u043d\u0438","name:or":"\u0b2f\u0b41\u0b15\u0b4d\u0b24\u0b30\u0b3e\u0b1c\u0b4d\u0b5f","name:pl":"Wielka Brytania","sort_rank":262,"name:sr":"\u0423\u0458\u0435\u0434\u0438\u045a\u0435\u043d\u043e \u041a\u0440\u0430\u0459\u0435\u0432\u0441\u0442\u0432\u043e","osm_relation":true,"name:pa":"\u0a38\u0a70\u0a2f\u0a41\u0a15\u0a24 \u0a2c\u0a3e\u0a26\u0a38\u0a3c\u0a3e\u0a39\u0a40","name:tr":"Birle\u015fik Krall\u0131k","name:hi":"\u092f\u0942\u0928\u093e\u0907\u091f\u0947\u0921 \u0915\u093f\u0902\u0917\u0921\u092e","name:sv":"Storbritannien","name:he":"\u05d4\u05de\u05de\u05dc\u05db\u05d4 \u05d4\u05de\u05d0\u05d5\u05d7\u05d3\u05ea","name:ha":"Birtaniya","name:hy":"\u0544\u056b\u0561\u0581\u0575\u0561\u056c \u0539\u0561\u0563\u0561\u057e\u0578\u0580\u0578\u0582\u0569\u0575\u0578\u0582\u0576","name:ht":"Way\u00f2m Ini","name:hu":"Egyes\u00fclt Kir\u00e1lys\u00e1g","name:hr":"Ujedinjeno Kraljevstvo","kind":"country","name:yi":"\u05e4\u05d0\u05e8\u05d0\u05d9\u05d9\u05e0\u05d9\u05d2\u05d8\u05e2 \u05e7\u05e2\u05e0\u05d9\u05d2\u05e8\u05d9\u05d9\u05da","name:yo":"Il\u1eb9\u0300\u1ecdba A\u1e63\u1ecd\u0300kan","name:mt":"Renju Unit","alt_name:eo":"Britio","name:mr":"\u092f\u0941\u0928\u093e\u092f\u091f\u0947\u0921 \u0915\u093f\u0902\u0917\u094d\u0921\u092e","name:my":"\u101a\u1030\u1014\u102d\u102f\u1000\u103a\u1010\u1000\u103a\u1000\u1004\u103a\u1038\u1012\u1019\u103a\u1038\u1014\u102d\u102f\u1004\u103a\u1004\u1036","name:kw":"Ruwvaneth Unys","name:mg":"Fanjakana Mitambatra","name:vi":"V\u01b0\u01a1ng qu\u1ed1c Anh","name:ml":"\u0d2f\u0d41\u0d23\u0d48\u0d31\u0d4d\u0d31\u0d21\u0d4d \u0d15\u0d3f\u0d19\u0d4d\u0d21\u0d02","name:mn":"\u0418\u0445 \u0411\u0440\u0438\u0442\u0430\u043d\u0438","name:mi":"K\u012bngitanga Kotahi","id":-62149,"name:mk":"\u041e\u0431\u0435\u0434\u0438\u043d\u0435\u0442\u043e \u041a\u0440\u0430\u043b\u0441\u0442\u0432\u043e","name:vo":"Reg\u00e4n Pebal\u00f6l","name:fa":"\u0628\u0631\u06cc\u062a\u0627\u0646\u06cc\u0627","name:rw":"Ubwongereza","short_name":"UK","name:fi":"Yhdistynyt kuningaskunta","name:ky":"\u0423\u043b\u0443\u0443 \u0411\u0440\u0438\u0442\u0430\u043d\u0438\u044f \u0436\u0430\u043d\u0430 \u0422\u04af\u043d\u0434\u04af\u043a \u0418\u0440\u043b\u0430\u043d\u0434\u0438\u044f","name:fo":"St\u00f3ra Bretland","name:fr":"Royaume-Uni","name:fy":"Feriene Keninkryk","name:nl":"Verenigd Koninkrijk","name:nn":"Storbritannia","name:no":"Storbritannia","name:na":"Ingerand","name:ne":"\u0938\u0902\u092f\u0941\u0915\u094d\u0924 \u0905\u0927\u093f\u0930\u093e\u091c\u094d\u092f","name:wo":"Nguur-Yu-Bennoo","name:nv":"T\u00f3ta\u02bc Din\u00e9\u02bci\u02bc Bik\u00e9yah","name:ga":"An R\u00edocht Aontaithe","name:gd":"An R\u00ecoghachd Aonaichte","name:gn":"Tavet\u00e3 Joaju","name:gl":"Reino Unido","maritime_boundary":true,"name:gv":"Reeriaght Unnaneysit","name:gu":"\u0aaf\u0ac1\u0aa8\u0abe\u0a87\u0a9f\u0ac7\u0aa1 \u0a95\u0abf\u0a82\u0a97\u0aa1\u0aae"},"arcs":[0]},{"type":"LineString","properties":{"name:ia":"Scotia","name:pt":"Esc\u00f3cia","name:cy":"Yr Alban","name:ar":"\u0625\u0633\u0643\u062a\u0644\u0646\u062f\u0627","alt_name:eo":"Skotio;Skotujo","name:io":"Skotia","min_zoom":8.0,"name:it":"Scozia","name:sv":"Skottland","name:ru":"\u0428\u043e\u0442\u043b\u0430\u043d\u0434\u0438\u044f","name:pl":"Szkocja","name:mi":"Koterana","id":-58446,"name:ca":"Esc\u00f2cia","name:vo":"Skot\u00e4n","alt_name:vi":"T\u00f4 C\u00e1ch Lan;Xc\u1ed1t-lan","sort_rank":256,"name:fi":"Skotlanti","name:de":"Schottland","source":"openstreetmap.org","name:fr":"\u00c9cosse","name:fy":"Skotl\u00e2n","name:nl":"Schotland","name:lt":"\u0160kotija","name:eo":"Skotlando","name:br":"Bro-Skos","name:la":"Scotia","name:sk":"\u0160k\u00f3tsko","name:be":"\u0428\u0430\u0442\u043b\u0430\u043d\u0434\u044b\u044f","name:hu":"Sk\u00f3cia","name:hr":"\u0160kotska","osm_relation":true,"kind":"region","name":"Scotland","name:gd":"Alba","maritime_boundary":true,"name:gv":"Nalbin","kind_detail":"4","name:eu":"Eskozia","name:es":"Escocia"},"arcs":[1]}]},"roads":{"type":"GeometryCollection","geometries":[{"type":"LineString","properties":{"source":"openstreetmap.org","kind":"major_road","sort_rank":380,"kind_detail":"primary","ref":"A848","min_zoom":8.0},"arcs":[28]},{"type":"LineString","properties":{"kind":"major_road","sort_rank":380,"landuse_kind":"nature_reserve","source":"openstreetmap.org","min_zoom":8.0,"kind_detail":"primary","ref":"A884","id":111859950},"arcs":[29]},{"type":"MultiLineString","properties":{"source":"openstreetmap.org","kind":"major_road","landuse_kind":"nature_reserve","sort_rank":380,"kind_detail":"primary","ref":"A849","min_zoom":8.0},"arcs":[[30],[31],[32]]},{"type":"LineString","properties":{"source":"openstreetmap.org","kind":"ferry","name":"Kennacraig - Port Askaig","sort_rank":355,"min_zoom":8.0,"id":26508013},"arcs":[33]},{"type":"LineString","properties":{"kind":"ferry","name":"Oban - Coll","sort_rank":355,"landuse_kind":"nature_reserve","is_bicycle_related":true,"source":"openstreetmap.org","min_zoom":8.0,"id":-3719866,"osm_relation":true},"arcs":[34]},{"type":"LineString","properties":{"bus_network":null,"sort_rank":380,"kind_detail":"primary","kind":"major_road","source":"openstreetmap.org","min_zoom":8.0,"bus_shield_text":"456","ref":"A846"},"arcs":[35]},{"type":"LineString","properties":{"kind":"major_road","sort_rank":379,"kind_detail":"secondary","is_bicycle_related":true,"bicycle_shield_text":"78","bicycle_network":"ncn","source":"openstreetmap.org","min_zoom":8.0,"ref":"B8024"},"arcs":[36]},{"type":"LineString","properties":{"sort_rank":355,"source":"openstreetmap.org","min_zoom":8.0,"name":"Oban - Colonsay","kind":"ferry"},"arcs":[37]},{"type":"MultiLineString","properties":{"sort_rank":355,"source":"openstreetmap.org","min_zoom":8.0,"kind":"ferry"},"arcs":[[38],[39],[40],[41]]},{"type":"LineString","properties":{"kind":"ferry","name":"Oban - Castlebay","sort_rank":355,"landuse_kind":"nature_reserve","is_bicycle_related":true,"source":"openstreetmap.org","min_zoom":8.0,"id":-2198890,"osm_relation":true},"arcs":[42]},{"type":"LineString","properties":{"kind":"ferry","name":"Coll - Tiree","sort_rank":355,"is_bicycle_related":true,"source":"openstreetmap.org","min_zoom":8.0,"id":-7378391,"osm_relation":true},"arcs":[43]},{"type":"MultiLineString","properties":{"source":"openstreetmap.org","kind":"ferry","name":"Lochaline - Fishnish","sort_rank":355,"is_bicycle_related":true,"min_zoom":8.0,"id":42368972},"arcs":[[44],[45]]},{"type":"LineString","properties":{"source":"openstreetmap.org","kind":"ferry","name":"Fionnphort-Iona","sort_rank":355,"is_bicycle_related":true,"min_zoom":8.0,"id":57193359},"arcs":[46]},{"type":"LineString","properties":{"source":"openstreetmap.org","kind":"ferry","name":"Fionnphort-Staffa","sort_rank":355,"min_zoom":8.0,"id":74615975},"arcs":[47]},{"type":"MultiLineString","properties":{"sort_rank":380,"kind_detail":"primary","min_zoom":8.0,"kind":"major_road","source":"openstreetmap.org"},"arcs":[[48],[49]]},{"type":"LineString","properties":{"kind":"ferry","name":"Oban-Craignure","sort_rank":355,"landuse_kind":"nature_reserve","is_bicycle_related":true,"source":"openstreetmap.org","min_zoom":8.0,"id":23471991},"arcs":[50]},{"type":"LineString","properties":{"kind":"ferry","name":"Port Askaig - Feolin","sort_rank":355,"is_bicycle_related":true,"source":"openstreetmap.org","min_zoom":8.0,"id":-6241853,"osm_relation":true},"arcs":[51]},{"type":"LineString","properties":{"source":"openstreetmap.org","kind":"ferry","name":"Craighouse - Tayvallich","sort_rank":355,"min_zoom":8.0,"id":25377996},"arcs":[52]},{"type":"MultiLineString","properties":{"source":"openstreetmap.org","kind":"major_road","sort_rank":380,"kind_detail":"primary","ref":"A849","min_zoom":8.0},"arcs":[[53],[54],[55],[56],[57],[58]]},{"type":"LineString","properties":{"source":"openstreetmap.org","kind":"major_road","sort_rank":380,"kind_detail":"primary","ref":"A846","min_zoom":8.0},"arcs":[59]},{"type":"LineString","properties":{"source":"openstreetmap.org","kind":"ferry","name":"Oban - Colonsay","sort_rank":355,"landuse_kind":"nature_reserve","min_zoom":8.0,"id":172129035},"arcs":[60]},{"type":"MultiLineString","properties":{"sort_rank":355,"landuse_kind":"nature_reserve","min_zoom":8.0,"kind":"ferry","source":"openstreetmap.org"},"arcs":[[61],[62]]},{"type":"LineString","properties":{"source":"openstreetmap.org","kind":"ferry","name":"Oban-Craignure","sort_rank":355,"is_bicycle_related":true,"min_zoom":8.0,"id":23471991},"arcs":[63]},{"type":"LineString","properties":{"source":"openstreetmap.org","kind":"major_road","sort_rank":380,"kind_detail":"primary","ref":"A847","min_zoom":8.0,"id":25502775},"arcs":[64]},{"type":"LineString","properties":{"source":"openstreetmap.org","kind":"ferry","name":"Tiree - Castlebay","sort_rank":355,"is_bicycle_related":true,"min_zoom":8.0,"osm_relation":true},"arcs":[65]},{"type":"LineString","properties":{"source":"openstreetmap.org","kind":"ferry","name":"Port Askaig - Feolin","sort_rank":355,"min_zoom":8.0,"id":25417168},"arcs":[66]},{"type":"LineString","properties":{"kind":"ferry","name":"Lochaline - Fishnish","sort_rank":355,"landuse_kind":"nature_reserve","is_bicycle_related":true,"source":"openstreetmap.org","min_zoom":8.0,"id":42368972},"arcs":[67]},{"type":"LineString","properties":{"source":"openstreetmap.org","kind":"ferry","name":"Port Askaig - Colonsay","sort_rank":355,"min_zoom":8.0,"id":25604793},"arcs":[68]},{"type":"LineString","properties":{"kind":"ferry","name":"Craighouse - Tayvallich","sort_rank":355,"landuse_kind":"nature_reserve","is_bicycle_related":true,"source":"openstreetmap.org","min_zoom":8.0,"id":-6241870,"osm_relation":true},"arcs":[69]},{"type":"LineString","properties":{"source":"openstreetmap.org","kind":"ferry","name":"Craighouse - Tayvallich","sort_rank":355,"landuse_kind":"nature_reserve","min_zoom":8.0,"id":25377996},"arcs":[70]},{"type":"LineString","properties":{"kind":"ferry","name":"Craighouse - Tayvallich","sort_rank":355,"is_bicycle_related":true,"source":"openstreetmap.org","min_zoom":8.0,"id":-6241870,"osm_relation":true},"arcs":[71]},{"type":"MultiLineString","properties":{"source":"openstreetmap.org","kind":"major_road","sort_rank":380,"kind_detail":"primary","ref":"A884","min_zoom":8.0},"arcs":[[72],[73],[74]]}]},"earth":{"type":"GeometryCollection","geometries":[{"type":"MultiPolygon","properties":{"sort_rank":10,"source":"naturalearthdata.com","min_zoom":0.0,"kind":"earth","area":13356981154},"arcs":[[[75]],[[76]],[[77]],[[78]],[[79]],[[80]],[[81]],[[82]],[[83]],[[84]],[[85]],[[86]],[[87]],[[88]],[[89]]]},{"type":"Point","properties":{"label_placement":true,"kind":"island","name":"Mull","area":2897730048,"source":"openstreetmap.org","min_zoom":7.0,"id":-5396134,"osm_relation":true},"coordinates":[3408,3577]},{"type":"Point","properties":{"label_placement":true,"kind":"island","name":"Jura","area":1168009984,"name:gd":"Di\u00f9ra","source":"openstreetmap.org","min_zoom":8.0,"id":-4619204,"osm_relation":true},"coordinates":[3143,1018]}]},"landuse":{"type":"GeometryCollection","geometries":[{"type":"MultiPolygon","properties":{"kind":"nature_reserve","protect_class":"98","area":4328394768,"sort_rank":23,"source":"openstreetmap.org","min_zoom":4.0,"tier":2,"osm_relation":true},"arcs":[[[90],[91],[92],[93],[94],[95],[96],[97],[98],[99],[100],[101],[102],[103],[104],[105],[106],[107],[108],[109],[110],[111],[112],[113],[114],[115],[116],[117],[118],[119],[120],[121],[122],[123],[124],[125],[126],[127],[128]]]},{"type":"MultiPolygon","properties":{"kind":"nature_reserve","protect_class":"98","area":157214941,"sort_rank":23,"source":"openstreetmap.org","min_zoom":7.0,"tier":2,"osm_relation":true},"arcs":[[[129],[130],[131],[132],[133],[134],[135],[136],[137],[138],[139],[140],[141],[142]]]}]}},"type":"Topology","transform":{"translate":[-7.03125,55.7765730187],"scale":[0.0003433228,0.00019114]},"arcs":[[[0,1401],[185,-129],[165,-1272]],[[0,1401],[185,-129],[165,-1272]],[[4096,23],[0,-23],[-1296,0],[-27,26],[-40,53],[-18,49],[-9,158],[-40,291],[-12,223],[-11,31],[-18,21],[-29,10],[-26,-32],[-39,-35],[-43,-29],[-42,-11],[-37,-23],[-72,-100],[-105,-63],[-93,-95],[-63,-116],[22,-103],[0,-36],[-36,11],[-22,38],[-21,94],[0,33],[35,148],[22,33],[-37,17],[-33,-26],[-35,-39],[-159,-73],[-105,-77],[-22,-42],[-8,-65],[-3,-82],[-12,-50],[-25,-32],[-38,-34],[98,-72],[-1,-1],[-1696,0],[0,4096],[1023,0],[6,-6],[2,6],[1040,0],[-52,-39],[40,-41],[48,-36],[56,-26],[273,-47],[60,-35],[36,-39],[26,-48],[47,-108],[28,-26],[26,10],[24,23],[23,13],[61,10],[188,97],[27,-32],[12,-43],[-2,-50],[-17,-54],[-35,-28],[-174,-82],[-103,10],[-28,-10],[-25,-32],[-13,-37],[-9,-38],[-42,-108],[-22,-25],[-39,-10],[-32,-15],[-28,-39],[-13,-52],[13,-56],[58,-51],[72,-5],[142,36],[170,95],[58,16],[18,-26],[-56,-58],[-131,-95],[-201,-42],[-49,-47],[-46,-24],[-131,30],[-53,-24],[15,-11],[10,-11],[13,-8],[23,-6],[0,-35],[-53,-37],[-41,45],[-39,76],[-46,55],[-58,10],[-73,-14],[-63,-43],[-27,-75],[18,-97],[42,-80],[53,-58],[80,-48],[60,-20],[37,-4],[30,17],[18,37],[13,37],[17,16],[271,0],[31,16],[69,49],[30,10],[33,-13],[36,-24],[37,-10],[33,28],[50,56],[231,119],[99,23],[27,16],[20,37],[16,37],[15,17],[72,25],[35,4],[24,-29],[-4,-48],[-26,-45],[-32,-34],[-19,-16],[93,-62],[115,27],[258,178],[51,61],[19,57],[-47,25],[-110,-16],[-52,-23],[-47,-36],[0,39],[96,84],[35,62],[-10,68],[23,3],[19,-3],[18,-10],[18,-22],[-5,-56],[42,-21],[95,2],[37,33],[-21,72],[-43,74],[-25,36],[53,-9],[24,-9],[24,-18],[15,103],[-31,21],[-42,-10],[-22,11],[-13,64],[-33,60],[-40,49],[-33,27],[-19,0],[-54,-9],[-28,9],[-25,21],[-65,102],[-20,16],[-29,6],[-29,-6],[-45,-31],[-21,20],[-21,31],[-24,19],[-291,0],[-30,10],[-8,26],[0,35],[-9,36],[-32,78],[307,0],[57,-47],[176,-38],[61,85],[60,0],[-8,-29],[-44,-84],[35,-41],[51,-36],[55,-24],[48,-10],[31,-15],[34,-69],[26,-19],[20,8],[123,100],[0,-1022],[-24,-18],[-39,-105],[18,-84],[45,-29],[0,-97],[-8,7],[-16,18],[-35,-39],[-32,-125],[-30,-50],[55,-142],[30,-32],[27,164],[9,24],[0,-907],[-102,-149],[-106,-215],[-16,-139],[-12,-31],[-4,-38],[8,-30],[30,-12],[10,17],[49,94],[-2,115],[125,148],[18,97],[2,1],[0,-241],[-208,-328],[7,-57],[18,-61],[20,-35],[27,1],[52,56],[76,41],[8,9],[0,-84],[-2,-6],[-18,-43],[-123,-188],[15,-41],[3,-141],[22,-71],[40,-52],[39,-25],[24,-9]],[[3011,916],[-86,-72],[-47,-52],[-50,-26],[-43,-37],[-29,-82],[-5,-90],[25,-252],[46,-133],[104,-70],[114,-8],[74,53],[20,80],[29,202],[21,40],[48,27],[72,92],[31,-12],[63,210],[246,491],[116,292],[59,61],[44,78],[46,46],[4,64],[-9,72],[-10,50],[-63,30],[-89,-59],[-149,-153],[-221,-222],[-89,-28],[-59,-46],[-90,-111],[-82,-136],[-35,-119],[43,-84],[99,3],[107,31],[69,-2],[-96,-82],[-228,-46]],[[3766,2097],[-32,-85],[70,9],[90,30],[60,54],[-21,82],[-21,39],[-99,-78],[-47,-51]],[[150,3717],[17,-81],[25,-61],[183,-84],[61,2],[-17,94],[53,91],[63,27],[64,13],[58,51],[5,87],[177,22],[41,66],[-37,91],[-74,4],[-150,-56],[-65,-16],[-108,-71],[-65,-24],[-197,-32],[-64,-36],[30,-87]],[[2312,3628],[73,-11],[153,8],[-31,61],[-88,72],[-42,46],[-42,-2],[-36,-19],[-33,-36],[-30,-50],[76,-69]],[[2496,1726],[-24,-20],[-46,19],[-21,-19],[-18,-30],[-61,-80],[-26,-64],[-15,-69],[-22,-61],[-45,-37],[60,-32],[80,-3],[80,24],[58,44],[-8,93],[33,104],[94,163],[-13,63],[-33,2],[-46,-22],[-49,-7],[8,-34],[5,-14],[9,-20]],[[2006,0],[40,34],[83,14],[83,-14],[64,-33],[-2,-1],[-268,0]],[[4096,23],[-24,9],[-39,25],[-40,52],[-22,71],[-3,141],[-15,41],[123,188],[18,43],[2,6]],[[4096,683],[-8,-9],[-76,-41],[-52,-56],[-27,-1],[-20,35],[-18,61],[-7,57],[208,328]],[[4096,1298],[-2,-1],[-18,-97],[-125,-148],[2,-115],[-49,-94],[-10,-17],[-30,12],[-8,30],[4,38],[12,31],[16,139],[106,215],[102,149]],[[4096,3877],[-123,-100],[-20,-8],[-26,19],[-34,69],[-31,15],[-48,10],[-55,24],[-51,36],[-35,41],[44,84],[8,29]],[[3665,4096],[-61,-85],[-176,38],[-57,47]],[[619,3983],[-65,-16],[-108,-71],[-65,-24],[-197,-32],[-64,-36],[30,-87],[17,-81],[25,-61],[183,-84],[61,2],[-17,94],[53,91],[63,27],[64,13],[58,51],[5,87],[177,22],[41,66],[-37,91],[-74,4],[-150,-56]],[[2538,3625],[-31,61],[-88,72],[-42,46],[-42,-2],[-36,-19],[-33,-36],[-30,-50],[76,-69],[73,-11],[153,8]],[[3593,1758],[-221,-222],[-89,-28],[-59,-46],[-90,-111],[-82,-136],[-35,-119],[43,-84],[99,3],[107,31],[69,-2],[-96,-82],[-228,-46],[-86,-72],[-47,-52],[-50,-26],[-43,-37],[-29,-82],[-5,-90],[25,-252],[46,-133],[104,-70],[114,-8],[74,53],[20,80],[29,202],[21,40],[48,27],[72,92],[31,-12],[63,210],[246,491],[116,292],[59,61],[44,78],[46,46],[4,64],[-9,72],[-10,50],[-63,30],[-89,-59],[-149,-153]],[[2405,1706],[-18,-30],[-61,-80],[-26,-64],[-15,-69],[-22,-61],[-45,-37],[60,-32],[80,-3],[80,24],[58,44],[-8,93],[33,104],[94,163],[-13,63],[-33,2],[-46,-22],[-49,-7],[8,-34],[5,-14],[9,-20],[-24,-20],[-46,19],[-21,-19]],[[3912,2226],[-99,-78],[-47,-51],[-32,-85],[70,9],[90,30],[60,54],[-21,82],[-21,39]],[[2800,0],[-27,26],[-40,53],[-18,49],[-9,158],[-40,291],[-12,223],[-11,31],[-18,21],[-29,10],[-26,-32],[-39,-35],[-43,-29],[-42,-11],[-37,-23],[-72,-100],[-105,-63],[-93,-95],[-63,-116],[22,-103],[0,-36],[-36,11],[-22,38],[-21,94],[0,33],[35,148],[22,33],[-37,17],[-33,-26],[-35,-39],[-159,-73],[-105,-77],[-22,-42],[-8,-65],[-3,-82],[-12,-50],[-25,-32],[-38,-34],[98,-72],[-1,-1]],[[2006,0],[40,34],[83,14],[83,-14],[64,-33],[-2,-1]],[[3912,3444],[53,-9],[24,-9],[24,-18],[15,103],[-31,21],[-42,-10],[-22,11],[-13,64],[-33,60],[-40,49],[-33,27],[-19,0],[-54,-9],[-28,9],[-25,21],[-65,102],[-20,16],[-29,6],[-29,-6],[-45,-31],[-21,20],[-21,31],[-24,19],[-291,0],[-30,10],[-8,26],[0,35],[-9,36],[-32,78]],[[2071,4096],[-52,-39],[40,-41],[48,-36],[56,-26],[273,-47],[60,-35],[36,-39],[26,-48],[47,-108],[28,-26],[26,10],[24,23],[23,13],[61,10],[188,97],[27,-32],[12,-43],[-2,-50],[-17,-54],[-35,-28],[-174,-82],[-103,10],[-28,-10],[-25,-32],[-13,-37],[-9,-38],[-42,-108],[-22,-25],[-39,-10],[-32,-15],[-28,-39],[-13,-52],[13,-56],[58,-51],[72,-5],[142,36],[170,95],[58,16],[18,-26],[-56,-58],[-131,-95],[-201,-42],[-49,-47],[-46,-24],[-131,30],[-53,-24],[15,-11],[10,-11],[13,-8],[23,-6],[0,-35],[-53,-37],[-41,45],[-39,76],[-46,55],[-58,10],[-73,-14],[-63,-43],[-27,-75],[18,-97],[42,-80],[53,-58],[80,-48],[60,-20],[37,-4],[30,17],[18,37],[13,37],[17,16],[271,0],[31,16],[69,49],[30,10],[33,-13],[36,-24],[37,-10],[33,28],[50,56],[231,119],[99,23],[27,16],[20,37],[16,37],[15,17],[72,25],[35,4],[24,-29],[-4,-48],[-26,-45],[-32,-34],[-19,-16],[93,-62],[115,27],[258,178],[51,61],[19,57],[-47,25],[-110,-16],[-52,-23],[-47,-36],[0,39],[96,84],[35,62],[-10,68],[23,3],[19,-3],[18,-10],[18,-22],[-5,-56],[42,-21],[95,2],[37,33],[-21,72],[-43,74],[-25,36]],[[4072,2547],[-35,-39],[-32,-125],[-30,-50],[55,-142],[30,-32],[27,164],[9,24]],[[4096,2522],[-8,7],[-16,18]],[[1023,4096],[6,-6],[2,6]],[[4072,2837],[-39,-105],[18,-84],[45,-29]],[[4096,2855],[-24,-18]],[[3046,4096],[26,-45],[-6,-89],[79,-83],[34,35]],[[3634,3959],[-2,-4]],[[3459,3855],[-47,34]],[[3506,3827],[-10,1]],[[3762,3692],[-95,63]],[[2944,0],[-149,74],[-62,157],[-8,127],[-26,17]],[[4096,3552],[-307,276],[-574,200],[-47,68]],[[2740,372],[17,-91],[112,-99],[127,-45],[62,46],[89,114],[42,185],[122,220],[122,135],[70,323],[100,95]],[[4096,559],[-69,-113],[-21,-135],[18,-213],[72,5]],[[3537,2393],[-943,-785],[-129,-80]],[[829,4096],[79,-74],[18,-110],[-30,-58]],[[896,3854],[-78,-33],[-139,18]],[[1264,4096],[-184,-145],[-184,-97]],[[1775,3723],[266,-240],[-25,-50],[474,96],[106,83],[0,44],[-31,28]],[[4096,3557],[-305,274],[-574,200],[-48,65]],[[1264,4096],[-184,-145],[-262,-130],[-139,18]],[[3557,3863],[7,6]],[[3657,3960],[1,16]],[[1864,2898],[61,-24]],[[2016,3433],[-107,-494],[17,-65]],[[2691,373],[0,-1]],[[3557,3862],[0,1]],[[4096,3544],[-216,104]],[[2740,374],[-41,1]],[[3732,662],[-581,-362]],[[1928,2871],[192,-3],[148,-57],[22,27],[60,-17],[82,74],[158,32],[61,40],[52,-8],[65,54],[180,64],[53,86],[56,14],[28,83],[95,27],[124,-57],[135,68],[80,119],[113,-67],[138,-24],[107,52],[44,83],[-40,152],[-119,79]],[[3260,3863],[-99,11]],[[3275,3870],[-15,-7]],[[3412,3889],[-92,5],[-45,-24]],[[3496,3828],[-37,27]],[[3667,3755],[-57,57],[-104,15]],[[2699,375],[-129,-79],[-30,-73],[-114,-50],[-156,-173]],[[4096,2888],[-559,-495]],[[4096,3552],[-307,276],[-574,200],[-47,68]],[[4096,3557],[-305,274],[-574,200],[-45,65]],[[3880,3648],[-19,-14]],[[2277,28],[-226,29],[-60,-17],[-16,-40]],[[827,4096],[81,-74],[18,-110],[-30,-58],[-43,-23],[-174,8]],[[2740,374],[-41,1]],[[3564,3869],[93,91]],[[2699,375],[25,402],[-218,745],[-41,6]],[[4096,1160],[-169,-328],[-78,-97],[-117,-73]],[[4096,1160],[-169,-328],[-78,-97],[-117,-73]],[[3732,662],[-581,-362]],[[3576,3815],[5,35],[-24,12]],[[3691,4096],[-57,-137]],[[3655,3968],[3,8]],[[4096,23],[-24,9],[-39,25],[-40,52],[-22,71],[-3,141],[-15,41],[123,188],[18,43],[2,6],[0,-576]],[[3804,2021],[-70,-9],[32,85],[47,51],[99,78],[21,-39],[21,-82],[-60,-54],[-90,-30]],[[2706,286],[9,-158],[18,-49],[40,-53],[27,-26],[-526,0],[2,1],[-64,33],[-83,14],[-83,-14],[-40,-34],[-310,0],[1,1],[-98,72],[38,34],[25,32],[12,50],[3,82],[8,65],[22,42],[105,77],[159,73],[35,39],[33,26],[37,-17],[-22,-33],[-35,-148],[0,-33],[21,-94],[22,-38],[36,-11],[0,36],[-22,103],[63,116],[93,95],[105,63],[72,100],[37,23],[42,11],[43,29],[39,35],[26,32],[29,-10],[18,-21],[11,-31],[12,-223],[40,-291]],[[4096,683],[-8,-9],[-76,-41],[-52,-56],[-27,-1],[-20,35],[-18,61],[-7,57],[208,328],[0,-374]],[[3644,1277],[-246,-491],[-63,-210],[-31,12],[-72,-92],[-48,-27],[-21,-40],[-29,-202],[-20,-80],[-74,-53],[-114,8],[-104,70],[-46,133],[-25,252],[5,90],[29,82],[43,37],[50,26],[47,52],[86,72],[228,46],[96,82],[-69,2],[-107,-31],[-99,-3],[-43,84],[35,119],[82,136],[90,111],[59,46],[89,28],[221,222],[149,153],[89,59],[63,-30],[10,-50],[9,-72],[-4,-64],[-46,-46],[-44,-78],[-59,-61],[-116,-292]],[[4096,1298],[-2,-1],[-18,-97],[-125,-148],[2,-115],[-49,-94],[-10,-17],[-30,12],[-8,30],[4,38],[12,31],[16,139],[106,215],[102,149],[0,-142]],[[2615,1758],[-94,-163],[-33,-104],[8,-93],[-58,-44],[-80,-24],[-80,3],[-60,32],[45,37],[22,61],[15,69],[26,64],[61,80],[18,30],[21,19],[46,-19],[24,20],[-9,20],[-5,14],[-8,34],[49,7],[46,22],[33,-2],[13,-63]],[[436,3493],[-61,-2],[-183,84],[-25,61],[-17,81],[-30,87],[64,36],[197,32],[65,24],[108,71],[65,16],[150,56],[74,-4],[37,-91],[-41,-66],[-177,-22],[-5,-87],[-58,-51],[-64,-13],[-63,-27],[-53,-91],[17,-94]],[[2538,3625],[-153,-8],[-73,11],[-76,69],[30,50],[33,36],[36,19],[42,2],[42,-46],[88,-72],[31,-61]],[[4096,2619],[-45,29],[-18,84],[39,105],[24,18],[0,-236]],[[4096,2347],[-9,-24],[-27,-164],[-30,32],[-55,142],[30,50],[32,125],[35,39],[16,-18],[8,-7],[0,-175]],[[4096,4096],[0,-219],[-123,-100],[-20,-8],[-26,19],[-34,69],[-31,15],[-48,10],[-55,24],[-51,36],[-35,41],[44,84],[8,29],[371,0]],[[3371,4096],[294,0],[-61,-85],[-176,38],[-57,47]],[[2071,4096],[993,0],[32,-78],[9,-36],[0,-35],[8,-26],[30,-10],[291,0],[24,-19],[21,-31],[21,-20],[45,31],[29,6],[29,-6],[20,-16],[65,-102],[25,-21],[28,-9],[54,9],[19,0],[33,-27],[40,-49],[33,-60],[13,-64],[22,-11],[42,10],[31,-21],[-15,-103],[-24,18],[-24,9],[-53,9],[25,-36],[43,-74],[21,-72],[-37,-33],[-95,-2],[-42,21],[5,56],[-18,22],[-18,10],[-19,3],[-23,-3],[10,-68],[-35,-62],[-96,-84],[0,-39],[47,36],[52,23],[110,16],[47,-25],[-19,-57],[-51,-61],[-258,-178],[-115,-27],[-93,62],[19,16],[32,34],[26,45],[4,48],[-24,29],[-35,-4],[-72,-25],[-15,-17],[-16,-37],[-20,-37],[-27,-16],[-99,-23],[-231,-119],[-50,-56],[-33,-28],[-37,10],[-36,24],[-33,13],[-30,-10],[-69,-49],[-31,-16],[-271,0],[-17,-16],[-13,-37],[-18,-37],[-30,-17],[-37,4],[-60,20],[-80,48],[-53,58],[-42,80],[-18,97],[27,75],[63,43],[73,14],[58,-10],[46,-55],[39,-76],[41,-45],[53,37],[0,35],[-23,6],[-13,8],[-10,11],[-15,11],[53,24],[131,-30],[46,24],[49,47],[201,42],[131,95],[56,58],[-18,26],[-58,-16],[-170,-95],[-142,-36],[-72,5],[-58,51],[-13,56],[13,52],[28,39],[32,15],[39,10],[22,25],[42,108],[9,38],[13,37],[25,32],[28,10],[103,-10],[174,82],[35,28],[17,54],[2,50],[-12,43],[-27,32],[-188,-97],[-61,-10],[-23,-13],[-24,-23],[-26,-10],[-28,26],[-47,108],[-26,48],[-36,39],[-60,35],[-273,47],[-56,26],[-48,36],[-40,41],[52,39]],[[1023,4096],[8,0],[-2,-6],[-6,6]],[[4096,3882],[0,-1049],[-85,-110],[60,-33],[-11,-79],[36,-50],[0,-76],[-25,17],[7,55],[-23,29],[-44,-77],[11,-46],[-45,-149],[46,-52],[6,-73],[46,-36],[11,59],[-21,33],[17,-6],[4,60],[-17,16],[27,63],[-3,-915],[3,1],[-40,-67],[9,-75],[-60,-30],[-92,-199],[-274,147],[148,312],[127,200],[-20,51],[21,42],[-49,101],[-54,-5],[0,-50],[-23,21],[-23,-4],[5,-24],[-28,4],[-12,158],[12,-32],[46,-14],[87,4],[48,51],[34,-6],[-23,96],[15,30],[-45,45],[-108,-57],[-14,-52],[-49,-41],[-190,235],[48,56],[-48,-41],[-47,501],[246,133],[53,68],[64,34],[34,78],[78,73],[56,206],[0,126],[-26,23],[-8,-46],[-44,28],[-22,-12],[12,50],[-116,127],[-66,-18],[-73,36],[-86,136],[-83,13],[-11,-54],[-104,75],[-105,1],[-60,-27],[-57,44],[-33,-36],[-36,65],[-25,4],[30,36],[-36,111],[-1,1],[157,0],[41,-42],[62,-1],[239,-94],[91,1],[52,-82],[24,36],[38,-42],[110,-26],[28,-76],[176,112]],[[3833,2276],[20,-14],[13,24],[16,-59],[37,3],[-26,37],[9,63],[-61,-15],[-8,-39]],[[3795,2366],[29,-7],[25,38],[-38,-8],[-16,-23]],[[3946,2794],[10,-16],[33,50],[-21,-3],[-22,-31]],[[3982,2683],[30,1],[4,14],[-23,12],[-11,-27]],[[3805,2247],[15,0],[3,15],[-11,1],[-7,-16]],[[3612,2387],[23,8],[11,20],[-20,-4],[-14,-24]],[[3880,2362],[21,2],[4,44],[-13,-32],[-12,-14]],[[3808,2409],[11,-13],[11,7],[-9,22],[-13,-16]],[[4050,2156],[3,-14],[11,-1],[2,17],[-16,-2]],[[4027,1847],[16,9],[4,22],[-8,-5],[-12,-26]],[[3981,1280],[14,9],[3,26],[-14,-16],[-3,-19]],[[3974,2411],[8,-8],[1,-11],[5,27],[-14,-8]],[[3993,1281],[23,27],[9,22],[-17,-19],[-15,-30]],[[3991,2424],[9,9],[2,26],[-4,-19],[-7,-16]],[[3872,2349],[3,-9],[8,-3],[-5,19],[-6,-7]],[[4001,2430],[5,6],[0,26],[-2,-5],[0,-18],[-3,-9]],[[4035,1364],[6,-1],[10,39],[-11,-13],[-5,-25]],[[3882,2357],[2,-17],[18,-4],[-3,24],[-17,-3]],[[3650,2411],[11,-4],[60,27],[7,40],[-54,-18],[-24,-45]],[[4080,1914],[8,3],[1,7],[-8,-3],[-1,-7]],[[3873,2328],[8,-2],[5,7],[-9,4],[-4,-9]],[[3985,1545],[8,2],[0,6],[-2,0],[-6,-8]],[[3599,2375],[4,-3],[6,6],[-4,3],[-6,-6]],[[3952,1224],[5,6],[11,25],[-8,-4],[-8,-27]],[[3893,2494],[3,-12],[12,1],[-5,14],[-10,-3]],[[3960,1234],[2,-4],[7,18],[-6,-7],[-3,-7]],[[3989,2433],[4,-1],[2,15],[-5,-6],[-1,-8]],[[3888,2439],[4,-6],[4,3],[-3,6],[-5,-3]],[[3573,2314],[6,3],[4,5],[-6,-2],[-4,-6]],[[3574,2306],[3,1],[5,5],[-6,0],[-2,-6]],[[3788,1931],[1,-3],[4,-2],[1,8],[-6,-3]],[[3736,2466],[7,-3],[11,21],[-14,-9],[-4,-9]],[[3874,3797],[14,-9],[6,10],[-8,7],[-12,-8]],[[4028,3411],[1,-21],[4,-2],[0,25],[-5,-2]],[[3928,2469],[4,-4],[4,4],[-6,2],[-2,-2]],[[3744,1927],[2,-4],[6,4],[-3,4],[-5,-4]],[[3255,3977],[3,-10],[11,5],[-2,4],[-12,1]],[[3801,3743],[0,-3],[10,-2],[-6,6],[-4,-1]],[[3723,665],[81,242],[60,81],[-29,-89],[32,56],[78,53],[-32,-70],[57,42],[39,70],[-45,-21],[-6,31],[26,1],[80,176],[-65,-154],[29,-3],[68,118],[0,-138],[-119,-159],[-46,-121],[-20,-77],[21,-19],[-8,-108],[-201,89]],[[3860,849],[36,-38],[78,166],[-39,-60],[-33,30],[-16,-13],[-26,-85]],[[4004,1052],[16,10],[-3,16],[-10,-3],[-3,-23]],[[3762,719],[11,-19],[15,34],[-15,3],[-11,-18]],[[3987,1053],[10,-2],[6,13],[-11,-2],[-5,-9]],[[4027,1065],[13,12],[10,20],[-20,-20],[-3,-12]],[[3814,731],[16,15],[-2,16],[-12,-20],[-2,-11]],[[3851,835],[6,5],[2,8],[-4,-2],[-4,-11]],[[3867,814],[7,2],[-4,6],[-1,-1],[-2,-7]],[[3832,748],[1,-11],[9,21],[-6,-2],[-4,-8]],[[3910,741],[6,7],[2,6],[-4,-4],[-4,-9]],[[3851,859],[5,7],[4,13],[-4,-5],[-5,-15]],[[3903,698],[7,-2],[-4,9],[-2,-2],[-1,-5]],[[3874,724],[12,13],[2,8],[-10,-11],[-4,-10]]]}