{"objects":{"water":{"type":"GeometryCollection","geometries":[{"type":"Polygon","properties":{"source":"naturalearthdata.com","kind":"ocean","area":1576712559132672,"sort_rank":200,"min_zoom":0.0,"id":1},"arcs":[[220],[221],[222]]},{"type":"MultiLineString","properties":{"source":"naturalearthdata.com","kind":"ocean","sort_rank":205,"boundary":true,"min_zoom":0.0,"id":40},"arcs":[[223],[224]]}]},"buildings":{"type":"GeometryCollection","geometries":[]},"places":{"type":"GeometryCollection","geometries":[{"type":"Point","properties":{"source":"naturalearthdata.com","kind":"locality","name":"Dundalk","population":38884,"region_capital":true,"min_zoom":7.0,"id":3349},"coordinates":[1790,3298]},{"type":"Point","properties":{"source":"naturalearthdata.com","kind":"locality","name":"Drogheda","population":36533,"min_zoom":7.0,"id":3348},"coordinates":[1991,1913]},{"type":"Point","properties":{"name:ps":"\u0689\u0628\u0644\u0646","name:ka":"\u10d3\u10e3\u10d1\u10da\u10d8\u10dc\u10d8","name:ko":"\ub354\ube14\ub9b0","name:cv":"\u0414\u0443\u0431\u043b\u0438\u043d","name:kk":"\u0414\u0443\u0431\u043b\u0438\u043d","name:tt":"\u0414\u0443\u0431\u043b\u0438\u043d","name:kw":"Dulyn","name:th":"\u0e14\u0e31\u0e1a\u0e25\u0e34\u0e19","name:os":"\u0414\u0443\u0431\u043b\u0438\u043d","name:ta":"\u0b9f\u0baa\u0bcd\u0bb2\u0bbf\u0ba9\u0bcd","name:tg":"\u0414\u0443\u0431\u043b\u0438\u043d","name:ca":"Dubl\u00edn","name:cy":"Dulyn","source":"openstreetmap.org","name:kn":"\u0ca1\u0cac\u0ccd\u0cb2\u0cbf\u0ca8\u0ccd","admin_level":"2","name:lv":"Dublina","name:lt":"Dublinas","name:he":"\u05d3\u05d1\u05dc\u05d9\u05df","min_zoom":8.0,"kind":"locality","name:ur":"\u0688\u0628\u0644\u0646","name:la":"Eblana","name:uk":"\u0414\u0443\u0431\u043b\u0456\u043d","name:hy":"\u0534\u0578\u0582\u0562\u056c\u056b\u0576","country_capital":true,"name:ug":"\u062f\u06c7\u0628\u0644\u0649\u0646","name:qu":"Baile \u00c1tha Cliath","population":553165,"name:el":"\u0394\u03bf\u03c5\u03b2\u03bb\u03af\u03bd\u03bf","name:eo":"Dublino","name":"Dublin","name:ku":"Dubl\u00een","name:yi":"\u05d3\u05d5\u05d1\u05dc\u05d9\u05df","name:es":"Dubl\u00edn","name:mr":"\u0921\u092c\u094d\u0932\u093f\u0928","name:ar":"\u062f\u0628\u0644\u0646","name:my":"\u1012\u1015\u103a\u1017\u101c\u1004\u103a\u1019\u103c\u102d\u102f\u1037","name:is":"Dyflinn","name:am":"\u12f0\u1265\u120a\u1295","name:it":"Dublino","name:an":"Dubl\u00edn","name:ml":"\u0d21\u0d2c\u0d4d\u0d32\u0d3f\u0d7b","name:mn":"\u0414\u0443\u0431\u043b\u0438\u043d","id":3473474851,"name:mk":"\u0414\u0430\u0431\u043b\u0438\u043d","name:fa":"\u062f\u0648\u0628\u0644\u06cc\u0646","kind_detail":"city","name:zh-yue":"\u90fd\u67cf\u6797","name:zh":"\u90fd\u67cf\u6797","name:ja":"\u30c0\u30d6\u30ea\u30f3","name:sc":"Dublinu","name:br":"Dulenn","name:bn":"\u09a1\u09be\u09ac\u09b2\u09bf\u09a8","name:bo":"\u0f51\u0f74\u0f56\u0f0b\u0f63\u0f72\u0f53\u0f0d","name:ru":"\u0414\u0443\u0431\u043b\u0438\u043d","name:be":"\u0414\u0443\u0431\u043b\u0456\u043d","name:bg":"\u0414\u044a\u0431\u043b\u0438\u043d","name:sr":"\u0414\u0430\u0431\u043b\u0438\u043d","name:sq":"Dublini","name:ga":"Baile \u00c1tha Cliath","name:gd":"Baile Atha Cliath","name:ht":"Diblin","name:gl":"Dubl\u00edn - Baile \u00c1tha Cliath","name:gv":"Divlyn"},"coordinates":[2246,93]},{"type":"Point","properties":{"kind":"locality","name":"Blanchardstown","kind_detail":"town","name:ga":"Baile Bhlains\u00e9ir","source":"openstreetmap.org","min_zoom":8.0,"id":52270304,"population":68156},"coordinates":[1904,276]},{"type":"Point","properties":{"kind":"locality","name":"Swords","kind_detail":"town","name:ga":"Sord","source":"openstreetmap.org","min_zoom":8.0,"name:ru":"\u0421\u043e\u0440\u0434\u0441","id":52268929,"population":42738},"coordinates":[2367,635]},{"type":"Point","properties":{"kind":"locality","name":"Dundalk","kind_detail":"town","name:ga":"D\u00fan Dealgan","source":"openstreetmap.org","min_zoom":8.0,"name:ru":"\u0414\u0430\u043d\u0434\u043e\u043b\u043a","id":1430234960,"population":25800},"coordinates":[1836,3319]},{"type":"Point","properties":{"kind":"locality","name":"Drogheda","kind_detail":"town","name:ga":"Droichead \u00c1tha","name:sr":"\u0414\u0440\u043e\u0433\u0435\u0434\u0430","source":"openstreetmap.org","min_zoom":8.0,"name:ru":"\u0414\u0440\u043e\u044d\u0434\u0430","id":52246394,"population":23800},"coordinates":[1986,1890]},{"type":"Point","properties":{"kind":"locality","name":"Celbridge","kind_detail":"town","name:ga":"Cill Droichid","source":"openstreetmap.org","min_zoom":8.0,"id":52243812,"population":21857},"coordinates":[1432,37]},{"type":"Point","properties":{"kind":"locality","name":"Maynooth","kind_detail":"town","name:ga":"Maigh Nuad","source":"openstreetmap.org","min_zoom":8.0,"name:ru":"\u041c\u0435\u0439\u043d\u0443\u0442","id":52231383,"population":15905},"coordinates":[1279,257]},{"type":"Point","properties":{"kind":"locality","name":"Malahide","kind_detail":"town","name:ga":"Mullach \u00cdde","source":"openstreetmap.org","min_zoom":8.0,"name:ru":"\u041c\u0430\u043b\u0430\u0445\u0430\u0439\u0434","id":52243602,"population":15846},"coordinates":[2556,591]},{"type":"Point","properties":{"kind":"locality","name":"Balbriggan","kind_detail":"town","name:ga":"Baile Brig\u00edn","name:sr":"\u0411\u0430\u043b\u0431\u0440\u0438\u0433\u0430\u043d","source":"openstreetmap.org","min_zoom":8.0,"name:ru":"\u0411\u0430\u043b\u0431\u0440\u0438\u0433\u0433\u0430\u043d","id":52263471,"population":15559},"coordinates":[2461,1374]},{"type":"Point","properties":{"kind":"locality","name":"Leixlip","kind_detail":"town","name:ga":"L\u00e9im an Bhrad\u00e1in","source":"openstreetmap.org","min_zoom":8.0,"name:ru":"\u041b\u0435\u0439\u043a\u0441\u043b\u0438\u043f","id":52242241,"population":15452},"coordinates":[1577,166]},{"type":"Point","properties":{"kind":"locality","name":"Ashbourne","kind_detail":"town","name:ga":"Cill Dh\u00e9agl\u00e1in","source":"openstreetmap.org","min_zoom":8.0,"name:ru":"\u0410\u0448\u0431\u043e\u0440\u043d","id":52261610,"population":14019},"coordinates":[1844,890]},{"type":"Point","properties":{"kind":"locality","name":"Skerries","kind_detail":"town","name:ga":"Na Sceir\u00ed","source":"openstreetmap.org","min_zoom":8.0,"name:ru":"\u0421\u043a\u0435\u0440\u0440\u0438\u0441","id":52231061,"population":9671},"coordinates":[2693,1230]},{"type":"Point","properties":{"kind":"locality","name":"Ratoath","kind_detail":"town","name:ga":"R\u00e1th T\u00f3","source":"openstreetmap.org","min_zoom":8.0,"id":52269553,"population":9043},"coordinates":[1661,871]},{"type":"Point","properties":{"kind":"locality","alt_name:en":"Ben of Howth","name":"Howth","kind_detail":"town","name:ga":"Binn \u00c9adair","source":"openstreetmap.org","min_zoom":8.0,"name:ru":"\u0425\u043e\u0443\u0442","id":52253160,"population":8277},"coordinates":[2813,281]},{"type":"Point","properties":{"source":"openstreetmap.org","kind":"locality","name":"Warrenpoint","kind_detail":"town","population":7638,"min_zoom":8.0,"id":267763161},"coordinates":[2272,3788]},{"type":"Point","properties":{"kind":"locality","name":"Lusk","kind_detail":"town","name:ga":"Lusca","source":"openstreetmap.org","min_zoom":8.0,"id":52260563,"population":7022},"coordinates":[2521,959]},{"type":"Point","properties":{"kind":"locality","name":"Dunboyne","kind_detail":"town","name:ga":"D\u00fan B\u00fainne","source":"openstreetmap.org","min_zoom":8.0,"id":52240259,"population":6959},"coordinates":[1617,436]},{"type":"Point","properties":{"kind":"locality","name":"Donabate","kind_detail":"town","name:ga":"Domhnach Bat","source":"openstreetmap.org","min_zoom":8.0,"id":706735590,"population":6778},"coordinates":[2571,770]},{"type":"Point","properties":{"source":"openstreetmap.org","kind":"locality","name":"Kilkeel","kind_detail":"town","population":6338,"min_zoom":8.0,"id":267762451},"coordinates":[2986,3605]},{"type":"Point","properties":{"kind":"locality","name":"Dunshaughlin","kind_detail":"town","name:ga":"D\u00fan Seachlainn","source":"openstreetmap.org","min_zoom":8.0,"id":52251966,"population":5840},"coordinates":[1432,895]},{"type":"Point","properties":{"kind":"locality","name":"Kilcock","kind_detail":"town","name:ga":"Cill Choca","source":"openstreetmap.org","min_zoom":8.0,"id":52245916,"population":5533},"coordinates":[1058,344]},{"type":"Point","properties":{"kind":"locality","name":"Dunleer","kind_detail":"town","name:ga":"D\u00fan L\u00e9ire","source":"openstreetmap.org","min_zoom":8.0,"name:ru":"\u0414\u0430\u043d\u043b\u0438\u0440","id":52261479,"population":5340},"coordinates":[1853,2467]},{"type":"Point","properties":{"kind":"locality","name":"Bailieborough","kind_detail":"town","name:ga":"Coill an Chollaigh","source":"openstreetmap.org","min_zoom":8.0,"name:ru":"\u0411\u0435\u0439\u043b\u0438\u0431\u043e\u0440\u043e","id":52219502,"population":3908},"coordinates":[176,2886]},{"type":"Point","properties":{"kind":"locality","name":"Navan","kind_detail":"town","name:ga":"An Uaimh","source":"openstreetmap.org","min_zoom":8.0,"name:ru":"\u0410\u043d-\u0423\u0430\u0432\u044c","id":52242301,"population":3400},"coordinates":[1013,1581]},{"type":"Point","properties":{"kind":"locality","name":"Kingscourt","kind_detail":"town","name:ga":"D\u00fan na R\u00ed","source":"openstreetmap.org","min_zoom":8.0,"name:ru":"\u041a\u0438\u043d\u0433\u0441\u043a\u043e\u0440\u0442","id":52261770,"population":3229},"coordinates":[658,2843]},{"type":"Point","properties":{"kind":"locality","name":"Kells","kind_detail":"town","name:ga":"Ceanannas","source":"openstreetmap.org","min_zoom":8.0,"id":52226705,"population":2200},"coordinates":[452,1953]},{"type":"Point","properties":{"kind":"locality","name":"Castleblayney","kind_detail":"town","name:ga":"Baile na Lorgan","source":"openstreetmap.org","min_zoom":8.0,"name:ru":"\u041a\u0430\u0441\u043b\u0431\u043b\u0435\u0439\u043d\u0438","id":52243030,"population":2000},"coordinates":[852,3889]},{"type":"Point","properties":{"kind":"locality","name":"Trim","kind_detail":"town","name:ga":"Baile \u00c1tha Troim","source":"openstreetmap.org","min_zoom":8.0,"name:ru":"\u0422\u0440\u0438\u043c","id":52258471,"population":1800},"coordinates":[695,1107]}]},"transit":{"type":"GeometryCollection","geometries":[{"type":"LineString","properties":{"osm_relation":true,"source":"openstreetmap.org","kind":"train","name":"Dublin Area Rapid Transit (DART) - Howth - Greystones","sort_rank":275,"min_zoom":6.0,"operator":"Irish Rail"},"arcs":[6]},{"type":"MultiLineString","properties":{"osm_relation":true,"source":"openstreetmap.org","kind":"train","name":"Enterprise","sort_rank":275,"min_zoom":6.0,"operator":"Irish Rail;Translink NI Railways"},"arcs":[[7],[8],[9],[10],[11],[12],[13],[14],[15],[16],[17],[18]]},{"type":"MultiLineString","properties":{"kind":"train","name":"Intercity (Sligo Branch)","sort_rank":275,"source":"openstreetmap.org","min_zoom":6.0,"operator":"Irish Rail","ref":"Sligo Intercity","osm_relation":true},"arcs":[[19],[20],[21],[22],[23],[24],[25],[26]]},{"type":"MultiLineString","properties":{"kind":"train","network":"InterCity","sort_rank":275,"source":"openstreetmap.org","min_zoom":6.0,"operator":"Irish Rail","osm_relation":true,"name":"Dublin \u2013 Waterford"},"arcs":[[27],[28],[29],[30],[31]]},{"type":"LineString","properties":{"kind":"train","name":"Dublin Area Rapid Transit (DART) - Greystones - Malahide","sort_rank":275,"source":"openstreetmap.org","min_zoom":6.0,"operator":"Irish Rail","id":-6979125,"osm_relation":true},"arcs":[32]},{"type":"MultiLineString","properties":{"osm_relation":true,"source":"openstreetmap.org","kind":"train","name":"Grand Canal Dock-Newbridge","sort_rank":275,"min_zoom":6.0,"operator":"Irish Rail"},"arcs":[[33],[34],[35]]},{"type":"LineString","properties":{"osm_relation":true,"source":"openstreetmap.org","kind":"train","name":"Dublin Area Rapid Transit (DART) - Malahide - Greystones","sort_rank":275,"min_zoom":6.0,"operator":"Irish Rail"},"arcs":[36]},{"type":"LineString","properties":{"kind":"train","name":"Dublin Area Rapid Transit (DART) - Greystones - Howth","sort_rank":275,"source":"openstreetmap.org","min_zoom":6.0,"operator":"Irish Rail","id":-6979126,"osm_relation":true},"arcs":[37]},{"type":"MultiLineString","properties":{"kind":"train","name":"Western Suburban (Longford Branch)","sort_rank":275,"source":"openstreetmap.org","min_zoom":6.0,"operator":"Irish Rail","ref":"Western Suburban (Longford Branch)","osm_relation":true},"arcs":[[38],[39],[40],[41],[42],[43],[44],[45],[46],[47],[48],[49],[50],[51],[52],[53],[54],[55]]},{"type":"MultiLineString","properties":{"kind":"train","name":"Irish Rail Dublin - Rosslare Intercity","sort_rank":275,"source":"openstreetmap.org","min_zoom":6.0,"operator":"Irish Rail","ref":"Intercity (Rosslare)","osm_relation":true},"arcs":[[56],[57],[58],[59],[60],[61],[62],[63],[64],[65],[66],[67],[68],[69],[70],[71],[72],[73],[74],[75],[76]]},{"type":"MultiLineString","properties":{"osm_relation":true,"source":"openstreetmap.org","kind":"train","name":"Dublin \u2013 Cork","sort_rank":275,"min_zoom":6.0,"operator":"Irish Rail"},"arcs":[[77],[78],[79],[80],[81],[82],[83],[84]]},{"type":"MultiLineString","properties":{"osm_relation":true,"source":"openstreetmap.org","kind":"train","name":"Dublin \u2013 Galway","sort_rank":275,"min_zoom":6.0,"operator":"Irish Rail"},"arcs":[[85],[86],[87],[88],[89],[90]]},{"type":"MultiLineString","properties":{"kind":"train","name":"Western Suburban (Maynooth Branch)","sort_rank":275,"source":"openstreetmap.org","min_zoom":6.0,"operator":"Irish Rail","ref":"Western Suburban (Maynooth)","osm_relation":true},"arcs":[[91],[92],[93],[94],[95],[96],[97],[98],[99],[100],[101],[102],[103],[104],[105],[106],[107],[108],[109],[110],[111],[112],[113],[114],[115],[116],[117],[118],[119],[120],[121],[122],[123],[124],[125],[126]]},{"type":"MultiLineString","properties":{"kind":"train","name":"Southwestern Commuter","sort_rank":275,"source":"openstreetmap.org","min_zoom":6.0,"operator":"Irish Rail","ref":"Southeastern Commuter","osm_relation":true},"arcs":[[127],[128],[129]]},{"type":"MultiLineString","properties":{"osm_relation":true,"source":"openstreetmap.org","kind":"train","name":"Dublin Area Rapid Transit (DART)","sort_rank":275,"min_zoom":6.0,"operator":"Irish Rail"},"arcs":[[130],[131],[132],[133],[134],[135],[136],[137],[138],[139],[140],[141],[142],[143],[144],[145],[146],[147],[148],[149],[150],[151],[152],[153],[154],[155],[156],[157],[158],[159],[160],[161],[162],[163],[164],[165],[166],[167]]},{"type":"MultiLineString","properties":{"kind":"train","name":"Irish Rail Northern Commuter (Drogheda)","sort_rank":275,"source":"openstreetmap.org","min_zoom":6.0,"operator":"Irish Rail","ref":"Northern Commuter","osm_relation":true},"arcs":[[168],[169],[170],[171],[172],[173],[174],[175],[176],[177],[178],[179],[180],[181],[182],[183],[184],[185],[186],[187],[188],[189],[190],[191],[192]]},{"type":"MultiLineString","properties":{"kind":"train","name":"Western Suburban (Dunboyne Branch)","sort_rank":275,"source":"openstreetmap.org","min_zoom":6.0,"operator":"Irish Rail","ref":"Western Suburban (Dunboyne)","osm_relation":true},"arcs":[[193],[194],[195],[196],[197],[198],[199],[200],[201],[202],[203],[204],[205],[206],[207],[208],[209],[210],[211],[212],[213],[214],[215],[216],[217],[218],[219]]}]},"pois":{"type":"GeometryCollection","geometries":[]},"boundaries":{"type":"GeometryCollection","geometries":[{"type":"LineString","properties":{"name:right:yo":"Il\u1eb9\u0300\u1ecdba A\u1e63\u1ecd\u0300kan","name:right:yi":"\u05e4\u05d0\u05e8\u05d0\u05d9\u05d9\u05e0\u05d9\u05d2\u05d8\u05e2 \u05e7\u05e2\u05e0\u05d9\u05d2\u05e8\u05d9\u05d9\u05da","name:left:la":"Hibernia","name:right:qu":"Hukllachasqa Qhapaq Suyu","name:left:sw":"Ayalandi","name:left:ka":"\u10d8\u10e0\u10da\u10d0\u10dc\u10d3\u10d8\u10d0","name:left:km":"\u17a2\u17c0\u179a\u17a1\u1784\u17cb","name:left:kl":"Irlandi","name:left:ko":"\uc544\uc77c\ub79c\ub4dc","name:left:kn":"\u0c90\u0cb0\u0ccd\u0cb2\u0cc6\u0c82\u0ca1\u0ccd","name:left:ki":"Ayalandi","name:right:rw":"Ubwongereza","name:left:kk":"\u0418\u0440\u043b\u0430\u043d\u0434\u0438\u044f","name:left:rm":"Irlanda","name:left:ku":"\u00cerland","name:left:kw":"Repoblek Wordhen","name:left:kv":"\u0418\u0440\u043b\u0430\u043d\u0434\u0438\u044f","name:left:rw":"Irilande","name:left:ks":"\u0627\u064e\u06cc\u064e\u0631\u0644\u06cc\u0646\u065b\u0691","name:left:ru":"\u0418\u0440\u043b\u0430\u043d\u0434\u0438\u044f","name:right:ig":"Obodo\u00e9z\u00e8 N\u00e0 Of\u00fa","name:right:ie":"Reyatu Unit","name:right:id":"Britania Raya","name:left:ky":"\u0418\u0440\u043b\u0430\u043d\u0434\u0438\u044f","name:right:ia":"Regno Unite","name:right:bi":"Unaeted Kingdom","name:right:bn":"\u09af\u09c1\u0995\u09cd\u09a4\u09b0\u09be\u099c\u09cd\u09af","name:right:bo":"\u0f51\u0f56\u0fb1\u0f72\u0f53\u0f0b\u0f47\u0f72\u0f0b\u0f58\u0f49\u0f58\u0f0b\u0f60\u0f56\u0fb2\u0f7a\u0f63\u0f0d","name:left:sl":"Irska","name:right:ba":"\u0411\u04e9\u0439\u04e9\u043a \u0411\u0440\u0438\u0442\u0430\u043d\u0438\u044f","name:right:bg":"\u041e\u0431\u0435\u0434\u0438\u043d\u0435\u043d\u043e \u043a\u0440\u0430\u043b\u0441\u0442\u0432\u043e \u0412\u0435\u043b\u0438\u043a\u043e\u0431\u0440\u0438\u0442\u0430\u043d\u0438\u044f \u0438 \u0421\u0435\u0432\u0435\u0440\u043d\u0430 \u0418\u0440\u043b\u0430\u043d\u0434\u0438\u044f","name:right:be":"\u0412\u044f\u043b\u0456\u043a\u0430\u0431\u0440\u044b\u0442\u0430\u043d\u0456\u044f","name:right:br":"Rouantelezh-Unanet","name:left:lt":"Airija","name:right:nn":"Storbritannia","name:right:no":"Storbritannia","name:right:nl":"Verenigd Koninkrijk","name:left:lv":"\u012arija","name:right:wo":"Nguur-Yu-Bennoo","name:right:ne":"\u0938\u0902\u092f\u0941\u0915\u094d\u0924 \u0905\u0927\u093f\u0930\u093e\u091c\u094d\u092f","name:right:na":"Ingerand","name:right:gv":"Reeriaght Unnaneysit","alt_name:left:vi":"Ai-len","name:right:nv":"T\u00f3ta\u02bc Din\u00e9\u02bci\u02bc Bik\u00e9yah","name:left:mg":"Irlandy","kind_detail":"2","name:left:tr":"\u0130rlanda","name:right:gu":"\u0aaf\u0ac1\u0aa8\u0abe\u0a87\u0a9f\u0ac7\u0aa1 \u0a95\u0abf\u0a82\u0a97\u0aa1\u0aae","name:right:ps":"\u0628\u0631\u064a\u062a\u0627\u0646\u064a\u0627","name:right:pt":"Reino Unido","name:left:mk":"\u0418\u0440\u0441\u043a\u0430","name:left:mi":"Airangi","name:left:tt":"\u0418\u0440\u043b\u0430\u043d\u0434\u0438\u044f","name:left:mn":"\u0418\u0440\u043b\u0430\u043d\u0434","name:left:ml":"\u0d05\u0d2f\u0d7c\u0d32\u0d3e\u0d7b\u0d21\u0d4d","name:left:th":"\u0e2a\u0e32\u0e18\u0e32\u0e23\u0e13\u0e23\u0e31\u0e10\u0e44\u0e2d\u0e23\u0e4c\u0e41\u0e25\u0e19\u0e14\u0e4c","name:left:mr":"\u0906\u092f\u0930\u094d\u0932\u0902\u0921","name:left:tk":"Irlandi\u00fda","name:left:tl":"Irlanda","name:left:to":"\u02bbAealani","name:right:gl":"Reino Unido","name:left:my":"\u1021\u102d\u102f\u1004\u103a\u101a\u102c\u101c\u1014\u103a","name:right:gn":"Tavet\u00e3 Joaju","name:right:pl":"Wielka Brytania","name:left:te":"\u0c10\u0c30\u0c4d \u0c32\u0c3e\u0c02\u0c21\u0c4d","name:left:tg":"\u04b6\u0443\u043c\u04b3\u0443\u0440\u0438\u0438 \u0418\u0440\u043b\u0430\u043d\u0434\u0438\u044f","name:left:ti":"\u12a0\u12e8\u122d\u120b\u1295\u12f5","name:right:tr":"Birle\u015fik Krall\u0131k","name:left:da":"Irland","name:left:de":"Irland","name:left:dz":"\u0f68\u0f71\u0f0b\u0f61\u0f0b\u0f63\u0f7a\u0f53\u0f4c","name:right:ga":"An R\u00edocht Aontaithe","name:left:dv":"\u0787\u07a6\u0794\u07a6\u078d\u07ad\u0782\u07b0\u0791\u07aa\u078e\u07ac \u0796\u07aa\u0789\u07b0\u0780\u07ab\u0783\u07a8\u0787\u07b0\u0794\u07a7","name:right:ug":"\u0628\u06c8\u064a\u06c8\u0643 \u0628\u06d0\u0631\u0649\u062a\u0627\u0646\u0649\u064a\u06d5","name:left:hi":"\u0906\u092f\u0930\u0932\u0948\u0902\u0921","name:right:lb":"Groussbritannien an Nordirland","name:right:uk":"\u0412\u0435\u043b\u0438\u043a\u0430 \u0411\u0440\u0438\u0442\u0430\u043d\u0456\u044f","name:left:he":"\u05d0\u05d9\u05e8\u05dc\u05e0\u05d3","name:right:ln":"Ing\u025bl\u025b\u0301t\u025bl\u025b","name:left:mt":"Irlanda","name:left:ha":"Ayalan","name:right:lt":"Jungtin\u0117 Karalyst\u0117","name:right:ur":"\u0628\u0631\u0637\u0627\u0646\u06cc\u06c1","name:right:lv":"Apvienot\u0101 Karaliste","name:left:hy":"\u053b\u057c\u056c\u0561\u0576\u0564\u056b\u0561","name:left:ta":"\u0b85\u0baf\u0bb0\u0bcd\u0bb2\u0bbe\u0ba8\u0bcd\u0ba4\u0bc1","name:left:ht":"Ilann","name:left:hu":"\u00cdrorsz\u00e1g","name:left:hr":"Irska","sort_rank":262,"name:right:gd":"An R\u00ecoghachd Aonaichte","name:right:os":"\u0421\u0442\u044b\u0440 \u0411\u0440\u0438\u0442\u0430\u043d\u0438","name:right:es":"Reino Unido","name:right:sr":"\u0423\u0458\u0435\u0434\u0438\u045a\u0435\u043d\u043e \u041a\u0440\u0430\u0459\u0435\u0432\u0441\u0442\u0432\u043e","name:right:eu":"Erresuma Batua","name:right:et":"Suurbritannia","name:left:os":"\u0418\u0440\u043b\u0430\u043d\u0434\u0438","name:left:or":"\u0b06\u0b5f\u0b30\u0b32\u0b4d\u0b5f\u0b3e\u0b23\u0b4d\u0b21","name:right:pa":"\u0a38\u0a70\u0a2f\u0a41\u0a15\u0a24 \u0a2c\u0a3e\u0a26\u0a38\u0a3c\u0a3e\u0a39\u0a40","name:left:vo":"Lirey\u00e4n","name:left:oc":"Republica d'Irlanda","name:right:eo":"Britujo","name:right:el":"\u0397\u03bd\u03c9\u03bc\u03ad\u03bd\u03bf \u0392\u03b1\u03c3\u03af\u03bb\u03b5\u03b9\u03bf","name:left:ff":"Irlannda","name:left:fa":"\u0627\u06cc\u0631\u0644\u0646\u062f","name:left:fo":"\u00cdrland","name:right:sk":"Spojen\u00e9 kr\u00e1\u013eovstvo","name:left:fi":"Irlanti","name:left:fr":"Irlande","name:left:fy":"Ierl\u00e2n","name:right:ja":"\u30a4\u30ae\u30ea\u30b9","name:right:sq":"Mbret\u00ebria e Bashkuar e Britanis\u00eb dhe Irland\u00ebs s\u00eb Veriut","name:left:ja":"\u30a2\u30a4\u30eb\u30e9\u30f3\u30c9","name:right:su":"Britania","name:right:sw":"Ufalme wa Muungano","name:right:sv":"Storbritannien","name:right:si":"\u0d91\u0d9a\u0dca\u0dc3\u0dad\u0dca \u0dbb\u0dcf\u0da2\u0db0\u0dcf\u0db1\u0dd2\u0dba","name:right:sh":"Ujedinjeno Kraljevstvo","name:left:qu":"Ilanda","name:right:jv":"Britania Raya","name:right:sl":"Zdru\u017eeno kraljestvo Velike Britanije in Severne Irske","name:right:so":"Midowga boqortooyada Britan","name:right:sa":"\u0938\u0902\u092f\u0941\u0915\u094d\u0924 \u0905\u0927\u093f\u0930\u093e\u091c\u094d\u092f","name:right:sc":"Rennu Auniadu","name:left:jv":"Republik Irlandia","id":-62273,"old_name:left:vi":"\u00c1i Nh\u0129 Lan","name:right:co":"Regnu Unitu","name:right:ca":"Regne Unit","name:right:se":"Ovttastuvvan gonagasriika","name:right:ce":"\u0419\u043e\u043a\u043a\u0445\u0430 \u0411\u0440\u0438\u0442\u0430\u043d\u0438","name:right:cy":"Deyrnas Unedig","name:right:zh-yue":"\u82f1\u570b","name:right:cs":"Spojen\u00e9 kr\u00e1lovstv\u00ed","name:right":"United Kingdom","name:right:cu":"\u0412\u0454\u043b\u0438\u043a\u0430 \u0411\u0440\u0438\u0442\u0430\u043d\u0457\ua657","name:right:cv":"\u0410\u0441\u043b\u0103 \u0411\u0440\u0438\u0442\u0430\u043d\u0438","name:right:it":"Regno Unito","name:left:ar":"\u0623\u064a\u0631\u0644\u0646\u062f\u0627","name:right:is":"Bretland","name:left:az":"\u0130rlandiya","name:left:ay":"Irlandiya","name:left:ro":"Irlanda","name:left:af":"Ierland","name:left:an":"Irlanda","name:left:am":"\u12a0\u12e8\u122d\u120b\u1295\u12f5","name:right:ru":"\u0412\u0435\u043b\u0438\u043a\u043e\u0431\u0440\u0438\u0442\u0430\u043d\u0438\u044f","name:left:ak":"Aereland","name:right:io":"Unionita Rejio","name:left:zh-yue":"\u611b\u723e\u862d\u5171\u548c\u570b","name:right:ro":"Regatul Unit al Marii Britanii \u0219i al Irlandei de Nord","name:right:hy":"\u0544\u056b\u0561\u0581\u0575\u0561\u056c \u0539\u0561\u0563\u0561\u057e\u0578\u0580\u0578\u0582\u0569\u0575\u0578\u0582\u0576","name:left:lb":"Irland","name:left:lg":"Ayalandi","name:left:li":"Ierland","name:right:hr":"Ujedinjeno Kraljevstvo","name:left:sv":"Irland","name:left:sq":"Irland\u00eb","name:right:hu":"Egyes\u00fclt Kir\u00e1lys\u00e1g","name:left:ln":"Ireland\u025b","name:left:lo":"\u0ec4\u0ead\u0ec1\u0ea5\u0e99","name:right:hi":"\u092f\u0942\u0928\u093e\u0907\u091f\u0947\u0921 \u0915\u093f\u0902\u0917\u0921\u092e","name:left:so":"Ayrlaand","name:left:si":"\u0d85\u0dba\u0dbb\u0dca\u0dbd\u0db1\u0dca\u0dad\u0dba","name:left:sh":"Irska","name:left:sk":"\u00cdrsko","name:left:se":"Irl\u00e1nda","name:right:ha":"Birtaniya","name:left:sg":"Irl\u00e2nde","name:right:he":"\u05d4\u05de\u05de\u05dc\u05db\u05d4 \u05d4\u05de\u05d0\u05d5\u05d7\u05d3\u05ea","name:left:sc":"Irlanda","name:right:la":"Britanniarum Regnum","name:right:af":"Verenigde Koninkryk","name:left:co":"Irlanda","name:right:ab":"\u0411\u0440\u0438\u0442\u0430\u043d\u0438\u0430 \u0414\u0443","name:left:ce":"\u0418\u0440\u043b\u0430\u043d\u0434\u0438","name:right:an":"Reino Unito","name:right:am":"\u12e9\u1293\u12ed\u1275\u12f5 \u12aa\u1295\u130d\u12f0\u121d","name:left:ca":"Irlanda","source":"openstreetmap.org","name:left:cy":"Iwerddon","name:right:ar":"\u0627\u0644\u0645\u0645\u0644\u0643\u0629 \u0627\u0644\u0645\u062a\u062d\u062f\u0629","name:left:cu":"\u0404\u0438\u0440\u044c","name:left:cv":"\u0418\u0440\u043b\u0430\u043d\u0434\u0438 \u0420\u0435\u0441\u043f\u0443\u0431\u043b\u0438\u043a\u0438","name:right:az":"B\u00f6y\u00fck Britaniya","name:left:cs":"Irsko","name:right:li":"Vereineg Keuninkriek","name:right:rm":"Reginavel Un\u00ec","name":"Ireland - United Kingdom","name:right:zu":"Umbuso Ohlangeneyo","name:left:zu":"i-Ireland","name:left:zh":"\u611b\u723e\u862d","name:right:za":"Yinghgoz","name:right:zh":"\u82f1\u570b","name:left:za":"Aiwjlanz Gunghozgoz","official_name:left":"\u00c9ire","name:left:uz":"Irlandiya","name:right:fr":"Royaume-Uni","name:left:nv":"Bitsiigha\u02bc \u0141ich\u00ed\u00ed\u02bc\u00ed Bik\u00e9yah","name:left:ur":"\u0622\u0626\u0631\u0644\u06cc\u0646\u0688","id:right":-62149,"name:left:uk":"\u0406\u0440\u043b\u0430\u043d\u0434\u0456\u044f","name:left:no":"Irland","name:left:nl":"Ierland","alt_name:right:eo":"Britio","name:right:fa":"\u0628\u0631\u06cc\u062a\u0627\u0646\u06cc\u0627","name:right:fo":"St\u00f3ra Bretland","name:left:ne":"\u0906\u0907\u0930\u0932\u094d\u092f\u093e\u0923\u094d\u0921","name:left:na":"Ripubrikit Airerand","name:left:eo":"Irlando","name:left:el":"\u0399\u03c1\u03bb\u03b1\u03bd\u03b4\u03af\u03b1","name:left:ee":"Ireland nutome","name:right:tt":"\u0411\u04e9\u0435\u043a\u0431\u0440\u0438\u0442\u0430\u043d\u0438\u044f","name:left:es":"Irlanda","name:left:ss":"IYalendi","name:left:ie":"Irland","name:left:eu":"Irlanda","name:left:et":"Iirimaa","name:right:zh-min-nan":"Li\u00e2n-ha\u030dp \u00d4ng-kok","name:right:oc":"Reialme Unit","name:right:ko":"\uc601\uad6d","name:right:bs":"Ujedinjeno Kraljevstvo Velike Britanije i Sjeverne Irske","name:left:sr":"\u0418\u0440\u0441\u043a\u0430","name:right:uz":"Birlashgan Qirollik","osm_relation":true,"name:right:or":"\u0b2f\u0b41\u0b15\u0b4d\u0b24\u0b30\u0b3e\u0b1c\u0b4d\u0b5f","name:left:pt":"Irlanda","name:right:th":"\u0e2a\u0e2b\u0e23\u0e32\u0e0a\u0e2d\u0e32\u0e13\u0e32\u0e08\u0e31\u0e01\u0e23","name:left:ps":"\u062f \u0622\u064a\u0631\u0644\u06d0\u0646\u0689 \u062c\u0645\u0647\u0648\u0631\u064a\u062a","name:left:wa":"Irlande","min_zoom":8.0,"name:left:zh-min-nan":"\u00c9ire","name:left:ga":"\u00c9ire","name:left:it":"Irlanda","name:left:gd":"\u00c8irinn","name:left:gl":"Irlanda","name:left:gn":"Ilandia","name:left:gu":"\u0a86\u0aaf\u0ab0\u0acd\u0ab2\u0ac7\u0a82\u0aa1","name:left:gv":"Nerin","name:left":"Ireland","name:right:mk":"\u041e\u0431\u0435\u0434\u0438\u043d\u0435\u0442\u043e \u041a\u0440\u0430\u043b\u0441\u0442\u0432\u043e","name:right:mi":"K\u012bngitanga Kotahi","name:right:mn":"\u0418\u0445 \u0411\u0440\u0438\u0442\u0430\u043d\u0438","name:right:ml":"\u0d2f\u0d41\u0d23\u0d48\u0d31\u0d4d\u0d31\u0d21\u0d4d \u0d15\u0d3f\u0d19\u0d4d\u0d21\u0d02","name:right:vo":"Reg\u00e4n Pebal\u00f6l","name:right:mg":"Fanjakana Mitambatra","name:right:vi":"V\u01b0\u01a1ng qu\u1ed1c Anh","name:right:my":"\u101a\u1030\u1014\u102d\u102f\u1000\u103a\u1010\u1000\u103a\u1000\u1004\u103a\u1038\u1012\u1019\u103a\u1038\u1014\u102d\u102f\u1004\u103a\u1004\u1036","name:right:mr":"\u092f\u0941\u0928\u093e\u092f\u091f\u0947\u0921 \u0915\u093f\u0902\u0917\u094d\u0921\u092e","old_name:left:ku":"Komara \u00cerland\u00ea","name:right:fy":"Feriene Keninkryk","name:right:mt":"Renju Unit","name:left:nn":"Irland","kind":"country","name:left:br":"Iwerzhon","name:left:bs":"Irska","name:left:ba":"\u0418\u0440\u043b\u0430\u043d\u0434\u0438\u044f","name:left:bg":"\u0418\u0440\u043b\u0430\u043d\u0434\u0438\u044f","name:left:be":"\u0406\u0440\u043b\u0430\u043d\u0434\u044b\u044f","name:left:bn":"\u0986\u09af\u09bc\u09be\u09b0\u09cd\u09b2\u09a3\u09cd\u09a1","name:left:bo":"\u0f68\u0f0b\u0f61\u0f62\u0f0b\u0f63\u0f53\u0f4c\u0f0d","name:left:bm":"Irilandi","name:left:yo":"Or\u00edl\u1eb9\u0301\u00e8de Ailandi","name:left:yi":"\u05d0\u05d9\u05e8\u05dc\u05d0\u05e0\u05d3","id:left":-62273,"name:right:fi":"Yhdistynyt kuningaskunta","name:right:ka":"\u10d2\u10d0\u10d4\u10e0\u10d7\u10d8\u10d0\u10dc\u10d4\u10d1\u10e3\u10da\u10d8 \u10e1\u10d0\u10db\u10d4\u10e4\u10dd","name:left:io":"Irlando","name:right:ty":"Parat\u0101ne","name:right:kg":"Royaume-Uni","name:left:pl":"Irlandia","name:right:kk":"\u04b0\u043b\u044b\u0431\u0440\u0438\u0442\u0430\u043d\u0438\u044f","name:left:id":"Irlandia","name:right:km":"\u179a\u17b6\u1787\u17b6\u178e\u17b6\u1785\u1780\u17d2\u179a\u179a\u17bd\u1798","name:right:kl":"Tuluit Nunaat","name:left:ia":"Irlanda","name:right:kn":"\u0caf\u0cc1\u0ca8\u0cc8\u0c9f\u0cc6\u0ca1\u0ccd \u0c95\u0cbf\u0c82\u0c97\u0ccd\u200c\u0ca1\u0c82","name:right:tl":"Nagkakaisang Kaharian","name:right:ku":"Keyaniya Yekb\u00fby\u00ee","name:right:kw":"Ruwvaneth Unys","name:right:kv":"\u042b\u0434\u0436\u044b\u0434 \u0411\u0440\u0438\u0442\u0430\u043d\u0438\u044f","name:right:ky":"\u0423\u043b\u0443\u0443 \u0411\u0440\u0438\u0442\u0430\u043d\u0438\u044f \u0436\u0430\u043d\u0430 \u0422\u04af\u043d\u0434\u04af\u043a \u0418\u0440\u043b\u0430\u043d\u0434\u0438\u044f","name:right:te":"\u0c2f\u0c41\u0c28\u0c48\u0c1f\u0c46\u0c21\u0c4d \u0c15\u0c3f\u0c02\u0c17\u0c4d\u200c\u0c21\u0c2e\u0c4d","name:right:tg":"\u041f\u043e\u0434\u0448\u043e\u04b3\u0438\u0438 \u041c\u0443\u0442\u0442\u0430\u04b3\u0438\u0434\u0430","name:left:is":"\u00cdrland","name:right:ta":"\u0b90\u0b95\u0bcd\u0b95\u0bbf\u0baf \u0b87\u0bb0\u0bbe\u0b9a\u0bcd\u0b9a\u0bbf\u0baf\u0bae\u0bcd","name:right:de":"Vereinigtes K\u00f6nigreich","short_name:right":"UK","name:right:da":"Storbritannien","name:left:rn":"Irilandi","name:right:dz":"\u0f61\u0f74\u0f0b\u0f53\u0f60\u0f72\u0f0b\u0f4a\u0f7a\u0f4a\u0f0b\u0f40\u0f72\u0f44\u0f0b\u0f4c\u0f58","name:right:dv":"\u0794\u07aa\u0782\u07a6\u0787\u07a8\u0793\u07ac\u0791\u07b0 \u0786\u07a8\u0782\u07b0\u078e\u07b0\u0791\u07a6\u0789\u07b0","name:right:ht":"Way\u00f2m Ini"},"arcs":[0]},{"type":"LineString","properties":{"name:right:yo":"Il\u1eb9\u0300\u1ecdba A\u1e63\u1ecd\u0300kan","name:right:yi":"\u05e4\u05d0\u05e8\u05d0\u05d9\u05d9\u05e0\u05d9\u05d2\u05d8\u05e2 \u05e7\u05e2\u05e0\u05d9\u05d2\u05e8\u05d9\u05d9\u05da","name:right:hy":"\u0544\u056b\u0561\u0581\u0575\u0561\u056c \u0539\u0561\u0563\u0561\u057e\u0578\u0580\u0578\u0582\u0569\u0575\u0578\u0582\u0576","name:left:lb":"Irland","name:right:hr":"Ujedinjeno Kraljevstvo","name:left:ka":"\u10d8\u10e0\u10da\u10d0\u10dc\u10d3\u10d8\u10d0","name:left:km":"\u17a2\u17c0\u179a\u17a1\u1784\u17cb","name:left:kl":"Irlandi","name:left:ko":"\uc544\uc77c\ub79c\ub4dc","name:left:kn":"\u0c90\u0cb0\u0ccd\u0cb2\u0cc6\u0c82\u0ca1\u0ccd","name:left:ki":"Ayalandi","name:right:rw":"Ubwongereza","name:left:kk":"\u0418\u0440\u043b\u0430\u043d\u0434\u0438\u044f","name:left:rm":"Irlanda","name:left:ku":"\u00cerland","name:left:kw":"Repoblek Wordhen","name:left:kv":"\u0418\u0440\u043b\u0430\u043d\u0434\u0438\u044f","name:left:rw":"Irilande","name:left:ks":"\u0627\u064e\u06cc\u064e\u0631\u0644\u06cc\u0646\u065b\u0691","name:left:ru":"\u0418\u0440\u043b\u0430\u043d\u0434\u0438\u044f","name:right:ig":"Obodo\u00e9z\u00e8 N\u00e0 Of\u00fa","name:right:ie":"Reyatu Unit","name:right:id":"Britania Raya","name:left:ky":"\u0418\u0440\u043b\u0430\u043d\u0434\u0438\u044f","name:right:ia":"Regno Unite","name:right:bi":"Unaeted Kingdom","name:right:bn":"\u09af\u09c1\u0995\u09cd\u09a4\u09b0\u09be\u099c\u09cd\u09af","name:right:bo":"\u0f51\u0f56\u0fb1\u0f72\u0f53\u0f0b\u0f47\u0f72\u0f0b\u0f58\u0f49\u0f58\u0f0b\u0f60\u0f56\u0fb2\u0f7a\u0f63\u0f0d","name:right:hi":"\u092f\u0942\u0928\u093e\u0907\u091f\u0947\u0921 \u0915\u093f\u0902\u0917\u0921\u092e","name:right:ba":"\u0411\u04e9\u0439\u04e9\u043a \u0411\u0440\u0438\u0442\u0430\u043d\u0438\u044f","name:right:bg":"\u041e\u0431\u0435\u0434\u0438\u043d\u0435\u043d\u043e \u043a\u0440\u0430\u043b\u0441\u0442\u0432\u043e \u0412\u0435\u043b\u0438\u043a\u043e\u0431\u0440\u0438\u0442\u0430\u043d\u0438\u044f \u0438 \u0421\u0435\u0432\u0435\u0440\u043d\u0430 \u0418\u0440\u043b\u0430\u043d\u0434\u0438\u044f","name:right:be":"\u0412\u044f\u043b\u0456\u043a\u0430\u0431\u0440\u044b\u0442\u0430\u043d\u0456\u044f","name:right:br":"Rouantelezh-Unanet","name:left:si":"\u0d85\u0dba\u0dbb\u0dca\u0dbd\u0db1\u0dca\u0dad\u0dba","name:right:nn":"Storbritannia","name:right:no":"Storbritannia","name:right:nl":"Verenigd Koninkrijk","name:left:sk":"\u00cdrsko","name:right:wo":"Nguur-Yu-Bennoo","name:right:ne":"\u0938\u0902\u092f\u0941\u0915\u094d\u0924 \u0905\u0927\u093f\u0930\u093e\u091c\u094d\u092f","name:right:na":"Ingerand","name:right:ps":"\u0628\u0631\u064a\u062a\u0627\u0646\u064a\u0627","alt_name:left:vi":"Ai-len","name:right:nv":"T\u00f3ta\u02bc Din\u00e9\u02bci\u02bc Bik\u00e9yah","name:right:pt":"Reino Unido","kind_detail":"2","name:left:mi":"Airangi","name:right:gu":"\u0aaf\u0ac1\u0aa8\u0abe\u0a87\u0a9f\u0ac7\u0aa1 \u0a95\u0abf\u0a82\u0a97\u0aa1\u0aae","name:right:gv":"Reeriaght Unnaneysit","name:left:mg":"Irlandy","name:left:mk":"\u0418\u0440\u0441\u043a\u0430","name:left:tr":"\u0130rlanda","name:left:tt":"\u0418\u0440\u043b\u0430\u043d\u0434\u0438\u044f","name:left:mn":"\u0418\u0440\u043b\u0430\u043d\u0434","name:left:ml":"\u0d05\u0d2f\u0d7c\u0d32\u0d3e\u0d7b\u0d21\u0d4d","name:left:th":"\u0e2a\u0e32\u0e18\u0e32\u0e23\u0e13\u0e23\u0e31\u0e10\u0e44\u0e2d\u0e23\u0e4c\u0e41\u0e25\u0e19\u0e14\u0e4c","name:left:mr":"\u0906\u092f\u0930\u094d\u0932\u0902\u0921","name:left:tk":"Irlandi\u00fda","name:left:tl":"Irlanda","name:left:to":"\u02bbAealani","name:right:gl":"Reino Unido","name:left:my":"\u1021\u102d\u102f\u1004\u103a\u101a\u102c\u101c\u1014\u103a","name:right:gn":"Tavet\u00e3 Joaju","name:right:pl":"Wielka Brytania","name:left:te":"\u0c10\u0c30\u0c4d \u0c32\u0c3e\u0c02\u0c21\u0c4d","name:left:tg":"\u04b6\u0443\u043c\u04b3\u0443\u0440\u0438\u0438 \u0418\u0440\u043b\u0430\u043d\u0434\u0438\u044f","name:left:ti":"\u12a0\u12e8\u122d\u120b\u1295\u12f5","name:left:da":"Irland","name:left:de":"Irland","name:left:dz":"\u0f68\u0f71\u0f0b\u0f61\u0f0b\u0f63\u0f7a\u0f53\u0f4c","name:right:ga":"An R\u00edocht Aontaithe","name:left:dv":"\u0787\u07a6\u0794\u07a6\u078d\u07ad\u0782\u07b0\u0791\u07aa\u078e\u07ac \u0796\u07aa\u0789\u07b0\u0780\u07ab\u0783\u07a8\u0787\u07b0\u0794\u07a7","name:right:ug":"\u0628\u06c8\u064a\u06c8\u0643 \u0628\u06d0\u0631\u0649\u062a\u0627\u0646\u0649\u064a\u06d5","name:left:hi":"\u0906\u092f\u0930\u0932\u0948\u0902\u0921","name:right:lb":"Groussbritannien an Nordirland","name:right:uk":"\u0412\u0435\u043b\u0438\u043a\u0430 \u0411\u0440\u0438\u0442\u0430\u043d\u0456\u044f","name:left:he":"\u05d0\u05d9\u05e8\u05dc\u05e0\u05d3","name:right:ln":"Ing\u025bl\u025b\u0301t\u025bl\u025b","name:left:mt":"Irlanda","name:left:ha":"Ayalan","name:right:lt":"Jungtin\u0117 Karalyst\u0117","name:right:ur":"\u0628\u0631\u0637\u0627\u0646\u06cc\u06c1","name:right:lv":"Apvienot\u0101 Karaliste","name:left:hy":"\u053b\u057c\u056c\u0561\u0576\u0564\u056b\u0561","name:left:ta":"\u0b85\u0baf\u0bb0\u0bcd\u0bb2\u0bbe\u0ba8\u0bcd\u0ba4\u0bc1","name:left:ht":"Ilann","name:left:hu":"\u00cdrorsz\u00e1g","name:left:hr":"Irska","sort_rank":262,"name:right:gd":"An R\u00ecoghachd Aonaichte","osm_relation":true,"name:right:es":"Reino Unido","name:left:ja":"\u30a2\u30a4\u30eb\u30e9\u30f3\u30c9","name:right:eu":"Erresuma Batua","name:right:et":"Suurbritannia","name:left:os":"\u0418\u0440\u043b\u0430\u043d\u0434\u0438","name:left:or":"\u0b06\u0b5f\u0b30\u0b32\u0b4d\u0b5f\u0b3e\u0b23\u0b4d\u0b21","name:right:pa":"\u0a38\u0a70\u0a2f\u0a41\u0a15\u0a24 \u0a2c\u0a3e\u0a26\u0a38\u0a3c\u0a3e\u0a39\u0a40","name:left:vo":"Lirey\u00e4n","name:left:oc":"Republica d'Irlanda","name:right:eo":"Britujo","name:right:el":"\u0397\u03bd\u03c9\u03bc\u03ad\u03bd\u03bf \u0392\u03b1\u03c3\u03af\u03bb\u03b5\u03b9\u03bf","name:left:ff":"Irlannda","name:left:fa":"\u0627\u06cc\u0631\u0644\u0646\u062f","name:left:fo":"\u00cdrland","name:left:qu":"Ilanda","name:left:fi":"Irlanti","name:left:fr":"Irlande","name:left:fy":"Ierl\u00e2n","name:right:ja":"\u30a4\u30ae\u30ea\u30b9","name:right:sq":"Mbret\u00ebria e Bashkuar e Britanis\u00eb dhe Irland\u00ebs s\u00eb Veriut","name:right:sr":"\u0423\u0458\u0435\u0434\u0438\u045a\u0435\u043d\u043e \u041a\u0440\u0430\u0459\u0435\u0432\u0441\u0442\u0432\u043e","name:right:su":"Britania","name:right:sw":"Ufalme wa Muungano","name:right:sv":"Storbritannien","name:right:si":"\u0d91\u0d9a\u0dca\u0dc3\u0dad\u0dca \u0dbb\u0dcf\u0da2\u0db0\u0dcf\u0db1\u0dd2\u0dba","name:right:sh":"Ujedinjeno Kraljevstvo","name:right:sk":"Spojen\u00e9 kr\u00e1\u013eovstvo","name:right:jv":"Britania Raya","name:right:sl":"Zdru\u017eeno kraljestvo Velike Britanije in Severne Irske","name:right:so":"Midowga boqortooyada Britan","name:right:sa":"\u0938\u0902\u092f\u0941\u0915\u094d\u0924 \u0905\u0927\u093f\u0930\u093e\u091c\u094d\u092f","name:right:sc":"Rennu Auniadu","name:left:jv":"Republik Irlandia","id":-62273,"old_name:left:vi":"\u00c1i Nh\u0129 Lan","name:right:co":"Regnu Unitu","name:right:ca":"Regne Unit","name:right:se":"Ovttastuvvan gonagasriika","name:right:ce":"\u0419\u043e\u043a\u043a\u0445\u0430 \u0411\u0440\u0438\u0442\u0430\u043d\u0438","name:right:cy":"Deyrnas Unedig","name:right:zh-yue":"\u82f1\u570b","name:right:cs":"Spojen\u00e9 kr\u00e1lovstv\u00ed","name:left:bm":"Irilandi","name:right:cu":"\u0412\u0454\u043b\u0438\u043a\u0430 \u0411\u0440\u0438\u0442\u0430\u043d\u0457\ua657","name:right:cv":"\u0410\u0441\u043b\u0103 \u0411\u0440\u0438\u0442\u0430\u043d\u0438","name:right:it":"Regno Unito","name:left:ar":"\u0623\u064a\u0631\u0644\u0646\u062f\u0627","name:right:is":"Bretland","name:left:az":"\u0130rlandiya","name:left:ay":"Irlandiya","name:left:ro":"Irlanda","name:left:af":"Ierland","name:left:an":"Irlanda","name:left:am":"\u12a0\u12e8\u122d\u120b\u1295\u12f5","name:right:ru":"\u0412\u0435\u043b\u0438\u043a\u043e\u0431\u0440\u0438\u0442\u0430\u043d\u0438\u044f","name:left:ak":"Aereland","name:right:io":"Unionita Rejio","name:left:zh-yue":"\u611b\u723e\u862d\u5171\u548c\u570b","name:right:ro":"Regatul Unit al Marii Britanii \u0219i al Irlandei de Nord","name:left:la":"Hibernia","name:right:qu":"Hukllachasqa Qhapaq Suyu","name:left:lg":"Ayalandi","name:left:li":"Ierland","name:left:sw":"Ayalandi","name:left:sv":"Irland","name:left:sq":"Irland\u00eb","name:right:hu":"Egyes\u00fclt Kir\u00e1lys\u00e1g","name:left:ln":"Ireland\u025b","name:left:lo":"\u0ec4\u0ead\u0ec1\u0ea5\u0e99","name:left:sl":"Irska","name:left:so":"Ayrlaand","name:left:lt":"Airija","name:left:sh":"Irska","name:left:lv":"\u012arija","name:left:se":"Irl\u00e1nda","name:right:ha":"Birtaniya","name:left:sg":"Irl\u00e2nde","name:right:he":"\u05d4\u05de\u05de\u05dc\u05db\u05d4 \u05d4\u05de\u05d0\u05d5\u05d7\u05d3\u05ea","name:left:sc":"Irlanda","name:right:la":"Britanniarum Regnum","name:right:af":"Verenigde Koninkryk","name:left:co":"Irlanda","name:right:ab":"\u0411\u0440\u0438\u0442\u0430\u043d\u0438\u0430 \u0414\u0443","name:left:ce":"\u0418\u0440\u043b\u0430\u043d\u0434\u0438","name:right:an":"Reino Unito","name:right:am":"\u12e9\u1293\u12ed\u1275\u12f5 \u12aa\u1295\u130d\u12f0\u121d","name:left:ca":"Irlanda","source":"openstreetmap.org","name:left:cy":"Iwerddon","name:right:ar":"\u0627\u0644\u0645\u0645\u0644\u0643\u0629 \u0627\u0644\u0645\u062a\u062d\u062f\u0629","name:left:cu":"\u0404\u0438\u0440\u044c","name:left:cv":"\u0418\u0440\u043b\u0430\u043d\u0434\u0438 \u0420\u0435\u0441\u043f\u0443\u0431\u043b\u0438\u043a\u0438","name:right:az":"B\u00f6y\u00fck Britaniya","name:left:cs":"Irsko","name:right:li":"Vereineg Keuninkriek","name:right:rm":"Reginavel Un\u00ec","name":"Ireland - United Kingdom","name:right:zu":"Umbuso Ohlangeneyo","name:left:zu":"i-Ireland","name:left:zh":"\u611b\u723e\u862d","name:right:za":"Yinghgoz","name:right:zh":"\u82f1\u570b","name:left:za":"Aiwjlanz Gunghozgoz","official_name:left":"\u00c9ire","name:left:uz":"Irlandiya","name:right:fr":"Royaume-Uni","name:left:nv":"Bitsiigha\u02bc \u0141ich\u00ed\u00ed\u02bc\u00ed Bik\u00e9yah","name:left:ur":"\u0622\u0626\u0631\u0644\u06cc\u0646\u0688","id:right":-62149,"name:left:uk":"\u0406\u0440\u043b\u0430\u043d\u0434\u0456\u044f","name:left:no":"Irland","name:left:nl":"Ierland","alt_name:right:eo":"Britio","name:right:fa":"\u0628\u0631\u06cc\u062a\u0627\u0646\u06cc\u0627","name:right:fo":"St\u00f3ra Bretland","name:left:ne":"\u0906\u0907\u0930\u0932\u094d\u092f\u093e\u0923\u094d\u0921","name:left:na":"Ripubrikit Airerand","name:left:eo":"Irlando","name:left:el":"\u0399\u03c1\u03bb\u03b1\u03bd\u03b4\u03af\u03b1","name:left:ee":"Ireland nutome","name:left:pl":"Irlandia","name:left:es":"Irlanda","name:left:ss":"IYalendi","name:right:kk":"\u04b0\u043b\u044b\u0431\u0440\u0438\u0442\u0430\u043d\u0438\u044f","name:left:eu":"Irlanda","name:left:et":"Iirimaa","name:right:zh-min-nan":"Li\u00e2n-ha\u030dp \u00d4ng-kok","name:right:oc":"Reialme Unit","name:left:ia":"Irlanda","name:right:bs":"Ujedinjeno Kraljevstvo Velike Britanije i Sjeverne Irske","name:left:sr":"\u0418\u0440\u0441\u043a\u0430","name:right:uz":"Birlashgan Qirollik","name:right:os":"\u0421\u0442\u044b\u0440 \u0411\u0440\u0438\u0442\u0430\u043d\u0438","name:right:or":"\u0b2f\u0b41\u0b15\u0b4d\u0b24\u0b30\u0b3e\u0b1c\u0b4d\u0b5f","name:right:tl":"Nagkakaisang Kaharian","name:right:ku":"Keyaniya Yekb\u00fby\u00ee","name:right:ko":"\uc601\uad6d","name:left:wa":"Irlande","min_zoom":8.0,"name:right:te":"\u0c2f\u0c41\u0c28\u0c48\u0c1f\u0c46\u0c21\u0c4d \u0c15\u0c3f\u0c02\u0c17\u0c4d\u200c\u0c21\u0c2e\u0c4d","name:left:ga":"\u00c9ire","name:right:tg":"\u041f\u043e\u0434\u0448\u043e\u04b3\u0438\u0438 \u041c\u0443\u0442\u0442\u0430\u04b3\u0438\u0434\u0430","name:left:gd":"\u00c8irinn","name:left:gl":"Irlanda","name:left:gn":"Ilandia","name:left:gu":"\u0a86\u0aaf\u0ab0\u0acd\u0ab2\u0ac7\u0a82\u0aa1","name:left:gv":"Nerin","name:left":"Ireland","name:right:mk":"\u041e\u0431\u0435\u0434\u0438\u043d\u0435\u0442\u043e \u041a\u0440\u0430\u043b\u0441\u0442\u0432\u043e","name:right:mi":"K\u012bngitanga Kotahi","name:right:mn":"\u0418\u0445 \u0411\u0440\u0438\u0442\u0430\u043d\u0438","name:right:ml":"\u0d2f\u0d41\u0d23\u0d48\u0d31\u0d4d\u0d31\u0d21\u0d4d \u0d15\u0d3f\u0d19\u0d4d\u0d21\u0d02","name:right:vo":"Reg\u00e4n Pebal\u00f6l","name:right:mg":"Fanjakana Mitambatra","name:right:vi":"V\u01b0\u01a1ng qu\u1ed1c Anh","name:right:my":"\u101a\u1030\u1014\u102d\u102f\u1000\u103a\u1010\u1000\u103a\u1000\u1004\u103a\u1038\u1012\u1019\u103a\u1038\u1014\u102d\u102f\u1004\u103a\u1004\u1036","name:right:mr":"\u092f\u0941\u0928\u093e\u092f\u091f\u0947\u0921 \u0915\u093f\u0902\u0917\u094d\u0921\u092e","old_name:left:ku":"Komara \u00cerland\u00ea","name:right:fy":"Feriene Keninkryk","name:right:mt":"Renju Unit","name:left:nn":"Irland","kind":"country","name:left:br":"Iwerzhon","name:left:bs":"Irska","name:left:ba":"\u0418\u0440\u043b\u0430\u043d\u0434\u0438\u044f","name:left:bg":"\u0418\u0440\u043b\u0430\u043d\u0434\u0438\u044f","name:right:kv":"\u042b\u0434\u0436\u044b\u0434 \u0411\u0440\u0438\u0442\u0430\u043d\u0438\u044f","name:left:be":"\u0406\u0440\u043b\u0430\u043d\u0434\u044b\u044f","name:left:bn":"\u0986\u09af\u09bc\u09be\u09b0\u09cd\u09b2\u09a3\u09cd\u09a1","name:left:bo":"\u0f68\u0f0b\u0f61\u0f62\u0f0b\u0f63\u0f53\u0f4c\u0f0d","name:right":"United Kingdom","name:left:yo":"Or\u00edl\u1eb9\u0301\u00e8de Ailandi","name:left:yi":"\u05d0\u05d9\u05e8\u05dc\u05d0\u05e0\u05d3","id:left":-62273,"name:right:fi":"Yhdistynyt kuningaskunta","name:right:ka":"\u10d2\u10d0\u10d4\u10e0\u10d7\u10d8\u10d0\u10dc\u10d4\u10d1\u10e3\u10da\u10d8 \u10e1\u10d0\u10db\u10d4\u10e4\u10dd","name:left:io":"Irlando","name:right:ty":"Parat\u0101ne","name:right:kg":"Royaume-Uni","name:right:tt":"\u0411\u04e9\u0435\u043a\u0431\u0440\u0438\u0442\u0430\u043d\u0438\u044f","name:left:ie":"Irland","name:left:id":"Irlandia","name:right:km":"\u179a\u17b6\u1787\u17b6\u178e\u17b6\u1785\u1780\u17d2\u179a\u179a\u17bd\u1798","name:right:kl":"Tuluit Nunaat","name:right:tr":"Birle\u015fik Krall\u0131k","name:right:kn":"\u0caf\u0cc1\u0ca8\u0cc8\u0c9f\u0cc6\u0ca1\u0ccd \u0c95\u0cbf\u0c82\u0c97\u0ccd\u200c\u0ca1\u0c82","name:left:pt":"Irlanda","name:right:th":"\u0e2a\u0e2b\u0e23\u0e32\u0e0a\u0e2d\u0e32\u0e13\u0e32\u0e08\u0e31\u0e01\u0e23","name:right:kw":"Ruwvaneth Unys","name:left:ps":"\u062f \u0622\u064a\u0631\u0644\u06d0\u0646\u0689 \u062c\u0645\u0647\u0648\u0631\u064a\u062a","name:right:ky":"\u0423\u043b\u0443\u0443 \u0411\u0440\u0438\u0442\u0430\u043d\u0438\u044f \u0436\u0430\u043d\u0430 \u0422\u04af\u043d\u0434\u04af\u043a \u0418\u0440\u043b\u0430\u043d\u0434\u0438\u044f","name:left:zh-min-nan":"\u00c9ire","name:left:it":"Irlanda","name:left:is":"\u00cdrland","name:right:ta":"\u0b90\u0b95\u0bcd\u0b95\u0bbf\u0baf \u0b87\u0bb0\u0bbe\u0b9a\u0bcd\u0b9a\u0bbf\u0baf\u0bae\u0bcd","name:right:de":"Vereinigtes K\u00f6nigreich","short_name:right":"UK","name:right:da":"Storbritannien","name:left:rn":"Irilandi","maritime_boundary":true,"name:right:dz":"\u0f61\u0f74\u0f0b\u0f53\u0f60\u0f72\u0f0b\u0f4a\u0f7a\u0f4a\u0f0b\u0f40\u0f72\u0f44\u0f0b\u0f4c\u0f58","name:right:dv":"\u0794\u07aa\u0782\u07a6\u0787\u07a8\u0793\u07ac\u0791\u07b0 \u0786\u07a8\u0782\u07b0\u078e\u07b0\u0791\u07a6\u0789\u07b0","name:right:ht":"Way\u00f2m Ini"},"arcs":[1]},{"type":"LineString","properties":{"name:ka":"\u10d8\u10e0\u10da\u10d0\u10dc\u10d3\u10d8\u10d0","name:ko":"\uc544\uc77c\ub79c\ub4dc","name:cv":"\u0418\u0440\u043b\u0430\u043d\u0434\u0438 \u0420\u0435\u0441\u043f\u0443\u0431\u043b\u0438\u043a\u0438","name:cu":"\u0404\u0438\u0440\u044c","name:kl":"Irlandi","name:cs":"Irsko","name:ki":"Ayalandi","name:co":"Irlanda","name:kv":"\u0418\u0440\u043b\u0430\u043d\u0434\u0438\u044f","name:ku":"\u00cerland","name:ti":"\u12a0\u12e8\u122d\u120b\u1295\u12f5","name:ks":"\u0627\u064e\u06cc\u064e\u0631\u0644\u06cc\u0646\u065b\u0691","name:to":"\u02bbAealani","name:tl":"Irlanda","name:ce":"\u0418\u0440\u043b\u0430\u043d\u0434\u0438","name:ta":"\u0b85\u0baf\u0bb0\u0bcd\u0bb2\u0bbe\u0ba8\u0bcd\u0ba4\u0bc1","name:tg":"\u04b6\u0443\u043c\u04b3\u0443\u0440\u0438\u0438 \u0418\u0440\u043b\u0430\u043d\u0434\u0438\u044f","name:ca":"Irlanda","name:te":"\u0c10\u0c30\u0c4d \u0c32\u0c3e\u0c02\u0c21\u0c4d","name:cy":"Iwerddon","name:qu":"Ilanda","name:da":"Irland","name:de":"Irland","name:dz":"\u0f68\u0f71\u0f0b\u0f61\u0f0b\u0f63\u0f7a\u0f53\u0f4c","source":"openstreetmap.org","name:kn":"\u0c90\u0cb0\u0ccd\u0cb2\u0cc6\u0c82\u0ca1\u0ccd","name:dv":"\u0787\u07a6\u0794\u07a6\u078d\u07ad\u0782\u07b0\u0791\u07aa\u078e\u07ac \u0796\u07aa\u0789\u07b0\u0780\u07ab\u0783\u07a8\u0787\u07b0\u0794\u07a7","name:km":"\u17a2\u17c0\u179a\u17a1\u1784\u17cb","name:lv":"\u012arija","name:lt":"Airija","name:uz":"Irlandiya","name:kk":"\u0418\u0440\u043b\u0430\u043d\u0434\u0438\u044f","name:ur":"\u0622\u0626\u0631\u0644\u06cc\u0646\u0688","name:lb":"Irland","name:la":"Hibernia","name:lg":"Ayalandi","name:uk":"\u0406\u0440\u043b\u0430\u043d\u0434\u0456\u044f","name:li":"Ierland","name:ln":"Ireland\u025b","name:lo":"\u0ec4\u0ead\u0ec1\u0ea5\u0e99","name:kw":"Repoblek Wordhen","name:eo":"Irlando","name":"Ireland","name:tk":"Irlandi\u00fda","name:ee":"Ireland nutome","name:th":"\u0e2a\u0e32\u0e18\u0e32\u0e23\u0e13\u0e23\u0e31\u0e10\u0e44\u0e2d\u0e23\u0e4c\u0e41\u0e25\u0e19\u0e14\u0e4c","name:eu":"Irlanda","name:et":"Iirimaa","name:es":"Irlanda","name:ay":"Irlandiya","name:rm":"Irlanda","name:rn":"Irilandi","name:az":"\u0130rlandiya","name:ie":"Irland","name:id":"Irlandia","name:el":"\u0399\u03c1\u03bb\u03b1\u03bd\u03b4\u03af\u03b1","name:ar":"\u0623\u064a\u0631\u0644\u0646\u062f\u0627","name:io":"Irlando","name:ak":"Aereland","name:am":"\u12a0\u12e8\u122d\u120b\u1295\u12f5","name:it":"Irlanda","name:an":"Irlanda","name:ru":"\u0418\u0440\u043b\u0430\u043d\u0434\u0438\u044f","name:rw":"Irilande","name:af":"Ierland","name:zu":"i-Ireland","old_name:ku":"Komara \u00cerland\u00ea","kind_detail":"2","name:za":"Aiwjlanz Gunghozgoz","name:zh-yue":"\u611b\u723e\u862d\u5171\u548c\u570b","name:zh":"\u611b\u723e\u862d","name:so":"Ayrlaand","name:sl":"Irska","name:sk":"\u00cdrsko","name:ja":"\u30a2\u30a4\u30eb\u30e9\u30f3\u30c9","name:si":"\u0d85\u0dba\u0dbb\u0dca\u0dbd\u0db1\u0dca\u0dad\u0dba","name:sh":"Irska","name:sg":"Irl\u00e2nde","name:se":"Irl\u00e1nda","name:sc":"Irlanda","name:br":"Iwerzhon","name:bs":"Irska","name:bm":"Irilandi","name:bn":"\u0986\u09af\u09bc\u09be\u09b0\u09cd\u09b2\u09a3\u09cd\u09a1","name:bo":"\u0f68\u0f0b\u0f61\u0f62\u0f0b\u0f63\u0f53\u0f4c\u0f0d","name:sw":"Ayalandi","name:be":"\u0406\u0440\u043b\u0430\u043d\u0434\u044b\u044f","name:bg":"\u0418\u0440\u043b\u0430\u043d\u0434\u0438\u044f","name:ss":"IYalendi","name:ba":"\u0418\u0440\u043b\u0430\u043d\u0434\u0438\u044f","name:sq":"Irland\u00eb","name:jv":"Republik Irlandia","name:ia":"Irlanda","name:pt":"Irlanda","name:ps":"\u062f \u0622\u064a\u0631\u0644\u06d0\u0646\u0689 \u062c\u0645\u0647\u0648\u0631\u064a\u062a","name:oc":"Republica d'Irlanda","min_zoom":8.0,"name:ro":"Irlanda","name:zh-min-nan":"\u00c9ire","name:os":"\u0418\u0440\u043b\u0430\u043d\u0434\u0438","name:or":"\u0b06\u0b5f\u0b30\u0b32\u0b4d\u0b5f\u0b3e\u0b23\u0b4d\u0b21","name:pl":"Irlandia","sort_rank":262,"name:sr":"\u0418\u0440\u0441\u043a\u0430","osm_relation":true,"name:tr":"\u0130rlanda","name:hi":"\u0906\u092f\u0930\u0932\u0948\u0902\u0921","name:sv":"Irland","name:he":"\u05d0\u05d9\u05e8\u05dc\u05e0\u05d3","name:ha":"Ayalan","name:hy":"\u053b\u057c\u056c\u0561\u0576\u0564\u056b\u0561","name:ht":"Ilann","name:hu":"\u00cdrorsz\u00e1g","name:hr":"Irska","kind":"country","name:is":"\u00cdrland","name:yi":"\u05d0\u05d9\u05e8\u05dc\u05d0\u05e0\u05d3","name:yo":"Or\u00edl\u1eb9\u0301\u00e8de Ailandi","name:mt":"Irlanda","name:mr":"\u0906\u092f\u0930\u094d\u0932\u0902\u0921","name:my":"\u1021\u102d\u102f\u1004\u103a\u101a\u102c\u101c\u1014\u103a","official_name":"\u00c9ire","name:mg":"Irlandy","name:ml":"\u0d05\u0d2f\u0d7c\u0d32\u0d3e\u0d7b\u0d21\u0d4d","name:mn":"\u0418\u0440\u043b\u0430\u043d\u0434","name:mi":"Airangi","id":-62273,"name:mk":"\u0418\u0440\u0441\u043a\u0430","name:vo":"Lirey\u00e4n","name:fa":"\u0627\u06cc\u0631\u0644\u0646\u062f","name:ff":"Irlannda","name:fi":"Irlanti","name:ky":"\u0418\u0440\u043b\u0430\u043d\u0434\u0438\u044f","old_name:vi":"\u00c1i Nh\u0129 Lan","name:fo":"\u00cdrland","alt_name:vi":"Ai-len","name:fr":"Irlande","name:fy":"Ierl\u00e2n","name:nl":"Ierland","name:nn":"Irland","name:no":"Irland","name:na":"Ripubrikit Airerand","name:ne":"\u0906\u0907\u0930\u0932\u094d\u092f\u093e\u0923\u094d\u0921","name:wa":"Irlande","name:nv":"Bitsiigha\u02bc \u0141ich\u00ed\u00ed\u02bc\u00ed Bik\u00e9yah","name:ga":"\u00c9ire","name:gd":"\u00c8irinn","name:gn":"Ilandia","name:gl":"Irlanda","maritime_boundary":true,"name:gv":"Nerin","name:gu":"\u0a86\u0aaf\u0ab0\u0acd\u0ab2\u0ac7\u0a82\u0aa1","name:tt":"\u0418\u0440\u043b\u0430\u043d\u0434\u0438\u044f"},"arcs":[2]},{"type":"LineString","properties":{"name:kg":"Royaume-Uni","name:ty":"Parat\u0101ne","name:ka":"\u10d2\u10d0\u10d4\u10e0\u10d7\u10d8\u10d0\u10dc\u10d4\u10d1\u10e3\u10da\u10d8 \u10e1\u10d0\u10db\u10d4\u10e4\u10dd","name:ko":"\uc601\uad6d","name:cv":"\u0410\u0441\u043b\u0103 \u0411\u0440\u0438\u0442\u0430\u043d\u0438","name:cu":"\u0412\u0454\u043b\u0438\u043a\u0430 \u0411\u0440\u0438\u0442\u0430\u043d\u0457\ua657","name:kl":"Tuluit Nunaat","name:cs":"Spojen\u00e9 kr\u00e1lovstv\u00ed","name:tt":"\u0411\u04e9\u0435\u043a\u0431\u0440\u0438\u0442\u0430\u043d\u0438\u044f","name:co":"Regnu Unitu","name:kv":"\u042b\u0434\u0436\u044b\u0434 \u0411\u0440\u0438\u0442\u0430\u043d\u0438\u044f","name:ku":"Keyaniya Yekb\u00fby\u00ee","name:tl":"Nagkakaisang Kaharian","name:ce":"\u0419\u043e\u043a\u043a\u0445\u0430 \u0411\u0440\u0438\u0442\u0430\u043d\u0438","name:ta":"\u0b90\u0b95\u0bcd\u0b95\u0bbf\u0baf \u0b87\u0bb0\u0bbe\u0b9a\u0bcd\u0b9a\u0bbf\u0baf\u0bae\u0bcd","name:tg":"\u041f\u043e\u0434\u0448\u043e\u04b3\u0438\u0438 \u041c\u0443\u0442\u0442\u0430\u04b3\u0438\u0434\u0430","name:ca":"Regne Unit","name:te":"\u0c2f\u0c41\u0c28\u0c48\u0c1f\u0c46\u0c21\u0c4d \u0c15\u0c3f\u0c02\u0c17\u0c4d\u200c\u0c21\u0c2e\u0c4d","name:cy":"Deyrnas Unedig","name:qu":"Hukllachasqa Qhapaq Suyu","name:da":"Storbritannien","name:de":"Vereinigtes K\u00f6nigreich","name:dz":"\u0f61\u0f74\u0f0b\u0f53\u0f60\u0f72\u0f0b\u0f4a\u0f7a\u0f4a\u0f0b\u0f40\u0f72\u0f44\u0f0b\u0f4c\u0f58","source":"openstreetmap.org","name:kn":"\u0caf\u0cc1\u0ca8\u0cc8\u0c9f\u0cc6\u0ca1\u0ccd \u0c95\u0cbf\u0c82\u0c97\u0ccd\u200c\u0ca1\u0c82","name:dv":"\u0794\u07aa\u0782\u07a6\u0787\u07a8\u0793\u07ac\u0791\u07b0 \u0786\u07a8\u0782\u07b0\u078e\u07b0\u0791\u07a6\u0789\u07b0","name:km":"\u179a\u17b6\u1787\u17b6\u178e\u17b6\u1785\u1780\u17d2\u179a\u179a\u17bd\u1798","name:lv":"Apvienot\u0101 Karaliste","name:lt":"Jungtin\u0117 Karalyst\u0117","name:uz":"Birlashgan Qirollik","name:kk":"\u04b0\u043b\u044b\u0431\u0440\u0438\u0442\u0430\u043d\u0438\u044f","name:ur":"\u0628\u0631\u0637\u0627\u0646\u06cc\u06c1","name:lb":"Groussbritannien an Nordirland","name:la":"Britanniarum Regnum","name:uk":"\u0412\u0435\u043b\u0438\u043a\u0430 \u0411\u0440\u0438\u0442\u0430\u043d\u0456\u044f","name:ug":"\u0628\u06c8\u064a\u06c8\u0643 \u0628\u06d0\u0631\u0649\u062a\u0627\u0646\u0649\u064a\u06d5","name:li":"Vereineg Keuninkriek","name:ln":"Ing\u025bl\u025b\u0301t\u025bl\u025b","name:el":"\u0397\u03bd\u03c9\u03bc\u03ad\u03bd\u03bf \u0392\u03b1\u03c3\u03af\u03bb\u03b5\u03b9\u03bf","name:eo":"Britujo","name":"United Kingdom","name:th":"\u0e2a\u0e2b\u0e23\u0e32\u0e0a\u0e2d\u0e32\u0e13\u0e32\u0e08\u0e31\u0e01\u0e23","name:eu":"Erresuma Batua","name:et":"Suurbritannia","name:es":"Reino Unido","name:ia":"Regno Unite","name:rm":"Reginavel Un\u00ec","name:az":"B\u00f6y\u00fck Britaniya","name:ie":"Reyatu Unit","name:id":"Britania Raya","name:ig":"Obodo\u00e9z\u00e8 N\u00e0 Of\u00fa","name:ar":"\u0627\u0644\u0645\u0645\u0644\u0643\u0629 \u0627\u0644\u0645\u062a\u062d\u062f\u0629","name:io":"Unionita Rejio","name:is":"Bretland","name:am":"\u12e9\u1293\u12ed\u1275\u12f5 \u12aa\u1295\u130d\u12f0\u121d","name:it":"Regno Unito","name:an":"Reino Unito","name:ru":"\u0412\u0435\u043b\u0438\u043a\u043e\u0431\u0440\u0438\u0442\u0430\u043d\u0438\u044f","name:ab":"\u0411\u0440\u0438\u0442\u0430\u043d\u0438\u0430 \u0414\u0443","name:af":"Verenigde Koninkryk","name:zu":"Umbuso Ohlangeneyo","kind_detail":"2","name:za":"Yinghgoz","name:zh-yue":"\u82f1\u570b","name:zh":"\u82f1\u570b","name:so":"Midowga boqortooyada Britan","name:sl":"Zdru\u017eeno kraljestvo Velike Britanije in Severne Irske","name:sk":"Spojen\u00e9 kr\u00e1\u013eovstvo","name:ja":"\u30a4\u30ae\u30ea\u30b9","name:si":"\u0d91\u0d9a\u0dca\u0dc3\u0dad\u0dca \u0dbb\u0dcf\u0da2\u0db0\u0dcf\u0db1\u0dd2\u0dba","name:sh":"Ujedinjeno Kraljevstvo","name:se":"Ovttastuvvan gonagasriika","name:sc":"Rennu Auniadu","name:sa":"\u0938\u0902\u092f\u0941\u0915\u094d\u0924 \u0905\u0927\u093f\u0930\u093e\u091c\u094d\u092f","name:bs":"Ujedinjeno Kraljevstvo Velike Britanije i Sjeverne Irske","name:bn":"\u09af\u09c1\u0995\u09cd\u09a4\u09b0\u09be\u099c\u09cd\u09af","name:bo":"\u0f51\u0f56\u0fb1\u0f72\u0f53\u0f0b\u0f47\u0f72\u0f0b\u0f58\u0f49\u0f58\u0f0b\u0f60\u0f56\u0fb2\u0f7a\u0f63\u0f0d","name:br":"Rouantelezh-Unanet","name:sw":"Ufalme wa Muungano","name:be":"\u0412\u044f\u043b\u0456\u043a\u0430\u0431\u0440\u044b\u0442\u0430\u043d\u0456\u044f","name:su":"Britania","name:bg":"\u041e\u0431\u0435\u0434\u0438\u043d\u0435\u043d\u043e \u043a\u0440\u0430\u043b\u0441\u0442\u0432\u043e \u0412\u0435\u043b\u0438\u043a\u043e\u0431\u0440\u0438\u0442\u0430\u043d\u0438\u044f \u0438 \u0421\u0435\u0432\u0435\u0440\u043d\u0430 \u0418\u0440\u043b\u0430\u043d\u0434\u0438\u044f","name:ba":"\u0411\u04e9\u0439\u04e9\u043a \u0411\u0440\u0438\u0442\u0430\u043d\u0438\u044f","name:sq":"Mbret\u00ebria e Bashkuar e Britanis\u00eb dhe Irland\u00ebs s\u00eb Veriut","name:jv":"Britania Raya","name:bi":"Unaeted Kingdom","name:pt":"Reino Unido","name:ps":"\u0628\u0631\u064a\u062a\u0627\u0646\u064a\u0627","name:oc":"Reialme Unit","min_zoom":8.0,"name:ro":"Regatul Unit al Marii Britanii \u0219i al Irlandei de Nord","name:zh-min-nan":"Li\u00e2n-ha\u030dp \u00d4ng-kok","name:os":"\u0421\u0442\u044b\u0440 \u0411\u0440\u0438\u0442\u0430\u043d\u0438","name:or":"\u0b2f\u0b41\u0b15\u0b4d\u0b24\u0b30\u0b3e\u0b1c\u0b4d\u0b5f","name:pl":"Wielka Brytania","sort_rank":262,"name:sr":"\u0423\u0458\u0435\u0434\u0438\u045a\u0435\u043d\u043e \u041a\u0440\u0430\u0459\u0435\u0432\u0441\u0442\u0432\u043e","osm_relation":true,"name:pa":"\u0a38\u0a70\u0a2f\u0a41\u0a15\u0a24 \u0a2c\u0a3e\u0a26\u0a38\u0a3c\u0a3e\u0a39\u0a40","name:tr":"Birle\u015fik Krall\u0131k","name:hi":"\u092f\u0942\u0928\u093e\u0907\u091f\u0947\u0921 \u0915\u093f\u0902\u0917\u0921\u092e","name:sv":"Storbritannien","name:he":"\u05d4\u05de\u05de\u05dc\u05db\u05d4 \u05d4\u05de\u05d0\u05d5\u05d7\u05d3\u05ea","name:ha":"Birtaniya","name:hy":"\u0544\u056b\u0561\u0581\u0575\u0561\u056c \u0539\u0561\u0563\u0561\u057e\u0578\u0580\u0578\u0582\u0569\u0575\u0578\u0582\u0576","name:ht":"Way\u00f2m Ini","name:hu":"Egyes\u00fclt Kir\u00e1lys\u00e1g","name:hr":"Ujedinjeno Kraljevstvo","kind":"country","name:yi":"\u05e4\u05d0\u05e8\u05d0\u05d9\u05d9\u05e0\u05d9\u05d2\u05d8\u05e2 \u05e7\u05e2\u05e0\u05d9\u05d2\u05e8\u05d9\u05d9\u05da","name:yo":"Il\u1eb9\u0300\u1ecdba A\u1e63\u1ecd\u0300kan","name:mt":"Renju Unit","alt_name:eo":"Britio","name:mr":"\u092f\u0941\u0928\u093e\u092f\u091f\u0947\u0921 \u0915\u093f\u0902\u0917\u094d\u0921\u092e","name:my":"\u101a\u1030\u1014\u102d\u102f\u1000\u103a\u1010\u1000\u103a\u1000\u1004\u103a\u1038\u1012\u1019\u103a\u1038\u1014\u102d\u102f\u1004\u103a\u1004\u1036","name:kw":"Ruwvaneth Unys","name:mg":"Fanjakana Mitambatra","name:vi":"V\u01b0\u01a1ng qu\u1ed1c Anh","name:ml":"\u0d2f\u0d41\u0d23\u0d48\u0d31\u0d4d\u0d31\u0d21\u0d4d \u0d15\u0d3f\u0d19\u0d4d\u0d21\u0d02","name:mn":"\u0418\u0445 \u0411\u0440\u0438\u0442\u0430\u043d\u0438","name:mi":"K\u012bngitanga Kotahi","id":-62149,"name:mk":"\u041e\u0431\u0435\u0434\u0438\u043d\u0435\u0442\u043e \u041a\u0440\u0430\u043b\u0441\u0442\u0432\u043e","name:vo":"Reg\u00e4n Pebal\u00f6l","name:fa":"\u0628\u0631\u06cc\u062a\u0627\u0646\u06cc\u0627","name:rw":"Ubwongereza","short_name":"UK","name:fi":"Yhdistynyt kuningaskunta","name:ky":"\u0423\u043b\u0443\u0443 \u0411\u0440\u0438\u0442\u0430\u043d\u0438\u044f \u0436\u0430\u043d\u0430 \u0422\u04af\u043d\u0434\u04af\u043a \u0418\u0440\u043b\u0430\u043d\u0434\u0438\u044f","name:fo":"St\u00f3ra Bretland","name:fr":"Royaume-Uni","name:fy":"Feriene Keninkryk","name:nl":"Verenigd Koninkrijk","name:nn":"Storbritannia","name:no":"Storbritannia","name:na":"Ingerand","name:ne":"\u0938\u0902\u092f\u0941\u0915\u094d\u0924 \u0905\u0927\u093f\u0930\u093e\u091c\u094d\u092f","name:wo":"Nguur-Yu-Bennoo","name:nv":"T\u00f3ta\u02bc Din\u00e9\u02bci\u02bc Bik\u00e9yah","name:ga":"An R\u00edocht Aontaithe","name:gd":"An R\u00ecoghachd Aonaichte","name:gn":"Tavet\u00e3 Joaju","name:gl":"Reino Unido","maritime_boundary":true,"name:gv":"Reeriaght Unnaneysit","name:gu":"\u0aaf\u0ac1\u0aa8\u0abe\u0a87\u0a9f\u0ac7\u0aa1 \u0a95\u0abf\u0a82\u0a97\u0aa1\u0aae"},"arcs":[3]},{"type":"LineString","properties":{"name:ia":"Irlanda del Nord","name:pt":"Irlanda do Norte","name:cy":"Gogledd Iwerddon","name:cs":"Severn\u00ed Irsko","name:io":"Nord-Irlando","min_zoom":8.0,"name:vi":"B\u1eafc Ireland","name:ru":"\u0421\u0435\u0432\u0435\u0440\u043d\u0430\u044f \u0418\u0440\u043b\u0430\u043d\u0434\u0438\u044f","name:pl":"Irlandia P\u00f3\u0142nocna","id":-156393,"name:ca":"Irlanda del Nord","name:vo":"Nol\u00fcda-Lireye\u00e4n","source":"openstreetmap.org","sort_rank":256,"name:fi":"Pohjois-Irlanti","old_name:vi":"B\u1eafc \u00c1i Nh\u0129 Lan","kind":"region","alt_name:vi":"B\u1eafc Ai-len","name:fr":"Irlande du Nord","name:fy":"Noard-Ierl\u00e2n","name:be":"\u041f\u0430\u045e\u043d\u043e\u0447\u043d\u0430\u044f \u0406\u0440\u043b\u0430\u043d\u0434\u044b\u044f","name:sk":"Severn\u00e9 \u00cdrsko","name:lt":"\u0160iaur\u0117s Airija","name:eo":"Nord-Irlando","name:sv":"Nordirland","name:hu":"\u00c9szak-\u00cdrorsz\u00e1g","osm_relation":true,"name:ga":"Tuaisceart \u00c9ireann","name":"Northern Ireland","name:gd":"\u00c8irinn a Tuath","kind_detail":"4","name:nl":"Noord-Ierland"},"arcs":[4]},{"type":"LineString","properties":{"name:ia":"Irlanda del Nord","name:ga":"Tuaisceart \u00c9ireann","name:pt":"Irlanda do Norte","name:cy":"Gogledd Iwerddon","name:cs":"Severn\u00ed Irsko","name:io":"Nord-Irlando","min_zoom":8.0,"name:ru":"\u0421\u0435\u0432\u0435\u0440\u043d\u0430\u044f \u0418\u0440\u043b\u0430\u043d\u0434\u0438\u044f","name:vi":"B\u1eafc Ireland","name:pl":"Irlandia P\u00f3\u0142nocna","id":-156393,"name:ca":"Irlanda del Nord","name:vo":"Nol\u00fcda-Lireye\u00e4n","alt_name:vi":"B\u1eafc Ai-len","sort_rank":256,"name:fi":"Pohjois-Irlanti","old_name:vi":"B\u1eafc \u00c1i Nh\u0129 Lan","source":"openstreetmap.org","name:fr":"Irlande du Nord","name:fy":"Noard-Ierl\u00e2n","name:sk":"Severn\u00e9 \u00cdrsko","name:lt":"\u0160iaur\u0117s Airija","name:sv":"Nordirland","name:eo":"Nord-Irlando","name:be":"\u041f\u0430\u045e\u043d\u043e\u0447\u043d\u0430\u044f \u0406\u0440\u043b\u0430\u043d\u0434\u044b\u044f","name:hu":"\u00c9szak-\u00cdrorsz\u00e1g","osm_relation":true,"kind":"region","name":"Northern Ireland","name:gd":"\u00c8irinn a Tuath","maritime_boundary":true,"kind_detail":"4","name:nl":"Noord-Ierland"},"arcs":[5]}]},"roads":{"type":"GeometryCollection","geometries":[{"type":"MultiLineString","properties":{"sort_rank":380,"kind_detail":"primary","min_zoom":8.0,"kind":"major_road","source":"openstreetmap.org"},"arcs":[[225],[226],[227],[228],[229],[230],[231],[232],[233],[234],[235],[236],[237],[238],[239]]},{"type":"MultiLineString","properties":{"kind":"highway","network":null,"sort_rank":383,"landuse_kind":"urban_area","source":"openstreetmap.org","min_zoom":8.0,"all_networks":[null],"kind_detail":"motorway","shield_text":"4","ref":"M4","all_shield_texts":["4"]},"arcs":[[240],[241]]},{"type":"LineString","properties":{"kind":"major_road","sort_rank":377,"kind_detail":"tertiary","is_bicycle_related":true,"bicycle_shield_text":"99","bicycle_network":"ncn","source":"openstreetmap.org","min_zoom":8.0,"landuse_kind":"park","ref":"C329"},"arcs":[242]},{"type":"LineString","properties":{"kind":"path","sort_rank":354,"kind_detail":"footway","is_bicycle_related":true,"bicycle_shield_text":"S2S","bicycle_network":"ncn","source":"openstreetmap.org","min_zoom":8.0,"landuse_kind":"urban_area","id":129313774},"arcs":[243]},{"type":"MultiLineString","properties":{"bus_network":null,"sort_rank":381,"kind_detail":"trunk","is_bicycle_related":true,"kind":"major_road","source":"openstreetmap.org","min_zoom":8.0,"bus_shield_text":"20 \/ X20","landuse_kind":"urban_area","ref":"N4"},"arcs":[[244],[245]]},{"type":"LineString","properties":{"kind":"major_road","network":"e-road","sort_rank":381,"kind_detail":"trunk","bus_network":"Bus \u00c9ireann;Translink Ulsterbus","source":"openstreetmap.org","min_zoom":8.0,"bus_shield_text":"X1","shield_text":"01","landuse_kind":"park","ref":"N1","id":227717381},"arcs":[246]},{"type":"LineString","properties":{"source":"openstreetmap.org","kind":"major_road","ref":"A37","sort_rank":380,"kind_detail":"primary","is_bicycle_related":true,"min_zoom":8.0},"arcs":[247]},{"type":"LineString","properties":{"kind":"minor_road","sort_rank":358,"kind_detail":"service","is_bicycle_related":true,"bicycle_shield_text":"9","bicycle_network":"ncn","source":"openstreetmap.org","min_zoom":8.0,"landuse_kind":"park","id":68275074},"arcs":[248]},{"type":"MultiLineString","properties":{"source":"openstreetmap.org","kind":"ferry","name":"Heysham - Warrenpoint (Freight Only)","sort_rank":355,"min_zoom":8.0,"id":125108246},"arcs":[[249],[250]]},{"type":"LineString","properties":{"kind":"path","sort_rank":354,"kind_detail":"footway","is_bicycle_related":true,"name:ga":"Sl\u00ed na Can\u00e1la R\u00edoga","bicycle_shield_text":"RCW","bicycle_network":"ncn","source":"openstreetmap.org","min_zoom":8.0,"landuse_kind":"urban_area","id":133750090},"arcs":[251]},{"type":"MultiLineString","properties":{"kind":"highway","network":"e-road","sort_rank":383,"landuse_kind":"urban_area","source":"openstreetmap.org","min_zoom":8.0,"all_networks":["e-road",null],"kind_detail":"motorway","shield_text":"01","ref":"M1","all_shield_texts":["01","1"]},"arcs":[[252],[253]]},{"type":"MultiLineString","properties":{"source":"openstreetmap.org","kind":"major_road","landuse_kind":"park","sort_rank":380,"kind_detail":"primary","ref":"A2","min_zoom":8.0},"arcs":[[254],[255]]},{"type":"MultiLineString","properties":{"bus_network":null,"sort_rank":381,"landuse_kind":"urban_area","kind":"major_road","source":"openstreetmap.org","min_zoom":8.0,"bus_shield_text":"39a","kind_detail":"trunk","ref":"N3"},"arcs":[[256],[257],[258]]},{"type":"MultiLineString","properties":{"kind":"path","sort_rank":354,"kind_detail":"cycleway","is_bicycle_related":true,"bicycle_shield_text":"GCG","bicycle_network":"ncn","source":"openstreetmap.org","min_zoom":8.0,"landuse_kind":"urban_area"},"arcs":[[259],[260]]},{"type":"MultiLineString","properties":{"bus_network":"Translink Ulsterbus","sort_rank":380,"kind_detail":"primary","kind":"major_road","source":"openstreetmap.org","min_zoom":8.0,"bus_shield_text":"39","landuse_kind":"park","ref":"A2"},"arcs":[[261],[262],[263],[264],[265],[266]]},{"type":"LineString","properties":{"kind":"path","sort_rank":354,"landuse_kind":"urban_area","is_bicycle_related":true,"bicycle_shield_text":"GCG","bicycle_network":"ncn","source":"openstreetmap.org","min_zoom":8.0,"kind_detail":"footway"},"arcs":[267]},{"type":"LineString","properties":{"source":"openstreetmap.org","kind":"ferry","name":"Dublin Bay Ferry (March - Oct)","sort_rank":355,"min_zoom":8.0,"id":233561682},"arcs":[268]},{"type":"LineString","properties":{"bus_network":null,"sort_rank":381,"landuse_kind":"urban_area","is_bicycle_related":true,"kind":"major_road","source":"openstreetmap.org","min_zoom":8.0,"bus_shield_text":"39a","kind_detail":"trunk","ref":"N3"},"arcs":[269]},{"type":"LineString","properties":{"kind":"path","sort_rank":354,"kind_detail":"cycleway","is_bicycle_related":true,"bicycle_shield_text":"S2S","bicycle_network":"ncn","source":"openstreetmap.org","min_zoom":8.0,"landuse_kind":"urban_area","id":59434270},"arcs":[270]},{"type":"LineString","properties":{"kind":"major_road","sort_rank":381,"kind_detail":"trunk","is_bicycle_related":true,"bus_network":"Bus \u00c9ireann Regional","source":"openstreetmap.org","min_zoom":8.0,"bus_shield_text":"120","landuse_kind":"urban_area","ref":"N4","id":128444605},"arcs":[271]},{"type":"MultiLineString","properties":{"kind":"highway","network":null,"sort_rank":383,"kind_detail":"motorway","source":"openstreetmap.org","min_zoom":8.0,"all_networks":[null],"shield_text":"4","ref":"M4","all_shield_texts":["4"]},"arcs":[[272],[273],[274],[275],[276],[277],[278],[279],[280],[281],[282]]},{"type":"MultiLineString","properties":{"name:ga":"Seachbh\u00f3thar L\u00e9im an Bhrad\u00e1in, Mhaigh Nuad & Chill Choca","network":null,"sort_rank":383,"kind_detail":"motorway","kind":"highway","source":"openstreetmap.org","min_zoom":8.0,"all_networks":[null],"shield_text":"4","ref":"M4","all_shield_texts":["4"]},"arcs":[[283],[284]]},{"type":"LineString","properties":{"source":"openstreetmap.org","kind":"ferry","name":"Scenic Carlingford Ferry (Greenore - Greencastle)","sort_rank":355,"min_zoom":8.0,"id":498993612},"arcs":[285]},{"type":"MultiLineString","properties":{"kind":"path","sort_rank":354,"kind_detail":"cycleway","is_bicycle_related":true,"bicycle_shield_text":"RCW","bicycle_network":"ncn","source":"openstreetmap.org","min_zoom":8.0,"landuse_kind":"urban_area"},"arcs":[[286],[287],[288]]},{"type":"LineString","properties":{"kind":"major_road","sort_rank":381,"kind_detail":"trunk","name:ga":"Timpeall\u00e1n Bh\u00f3thar Dh\u00fan Dealgan","source":"openstreetmap.org","min_zoom":8.0,"ref":"N33","id":4533679},"arcs":[289]},{"type":"MultiLineString","properties":{"source":"openstreetmap.org","kind":"major_road","kind_detail":"trunk","sort_rank":381,"landuse_kind":"urban_area","ref":"N2","min_zoom":8.0},"arcs":[[290],[291]]},{"type":"MultiLineString","properties":{"kind":"highway","network":"e-road","sort_rank":383,"landuse_kind":"urban_area","source":"openstreetmap.org","min_zoom":8.0,"all_networks":["e-road","e-road",null],"kind_detail":"motorway","shield_text":"01","ref":"M50","all_shield_texts":["01","20","50"]},"arcs":[[292],[293],[294],[295],[296],[297]]},{"type":"MultiLineString","properties":{"kind":"highway","network":null,"sort_rank":383,"kind_detail":"motorway","source":"openstreetmap.org","min_zoom":8.0,"all_networks":[null],"shield_text":"2","ref":"M2","all_shield_texts":["2"]},"arcs":[[298],[299],[300],[301],[302],[303],[304],[305],[306],[307],[308],[309],[310],[311]]},{"type":"LineString","properties":{"bus_network":"Bus \u00c9ireann;Translink Ulsterbus","network":"e-road","sort_rank":381,"kind_detail":"trunk","kind":"major_road","source":"openstreetmap.org","min_zoom":8.0,"bus_shield_text":"X1","shield_text":"01","landuse_kind":"park","ref":"A1"},"arcs":[312]},{"type":"LineString","properties":{"bus_network":"Translink Ulsterbus","sort_rank":381,"kind_detail":"trunk","is_bicycle_related":true,"kind":"major_road","bicycle_shield_text":"99","cycleway":"lane","source":"openstreetmap.org","min_zoom":8.0,"bus_shield_text":"39","bicycle_network":"ncn","ref":"A2","id":3424098},"arcs":[313]},{"type":"LineString","properties":{"kind":"major_road","sort_rank":380,"kind_detail":"primary","is_bicycle_related":true,"bus_network":"Translink Ulsterbus","bicycle_shield_text":"5","bicycle_network":"rcn","source":"openstreetmap.org","min_zoom":8.0,"bus_shield_text":"39","landuse_kind":"park","ref":"A2","id":23872896},"arcs":[314]},{"type":"LineString","properties":{"kind":"major_road","sort_rank":380,"kind_detail":"primary","is_bicycle_related":true,"bicycle_shield_text":"6","bicycle_network":"rcn","source":"openstreetmap.org","min_zoom":8.0,"landuse_kind":"park","ref":"A2","id":60420522},"arcs":[315]},{"type":"MultiLineString","properties":{"source":"openstreetmap.org","kind":"major_road","sort_rank":381,"kind_detail":"trunk","ref":"N33","min_zoom":8.0},"arcs":[[316],[317],[318]]},{"type":"LineString","properties":{"kind":"major_road","sort_rank":380,"kind_detail":"primary","bus_network":"Bus \u00c9ireann Dublin Commuter","source":"openstreetmap.org","min_zoom":8.0,"bus_shield_text":"101","id":18001998},"arcs":[319]},{"type":"MultiLineString","properties":{"sort_rank":355,"source":"openstreetmap.org","min_zoom":8.0,"kind":"ferry","name":"Dublin - Liverpool"},"arcs":[[320],[321]]},{"type":"MultiLineString","properties":{"source":"openstreetmap.org","kind":"major_road","ref":"N52","sort_rank":380,"kind_detail":"primary","is_bicycle_related":true,"min_zoom":8.0},"arcs":[[322],[323],[324],[325],[326],[327],[328],[329],[330],[331],[332],[333],[334]]},{"type":"MultiLineString","properties":{"source":"openstreetmap.org","kind":"major_road","sort_rank":380,"kind_detail":"primary","ref":"A29","min_zoom":8.0},"arcs":[[335],[336]]},{"type":"MultiLineString","properties":{"source":"openstreetmap.org","kind":"major_road","sort_rank":380,"kind_detail":"primary","ref":"N52","min_zoom":8.0},"arcs":[[337],[338],[339],[340],[341],[342],[343],[344],[345],[346],[347],[348],[349],[350],[351],[352],[353],[354],[355],[356],[357],[358],[359],[360],[361],[362],[363],[364],[365],[366],[367],[368],[369]]},{"type":"MultiLineString","properties":{"source":"openstreetmap.org","kind":"major_road","kind_detail":"trunk","sort_rank":381,"landuse_kind":"urban_area","ref":"N3","min_zoom":8.0},"arcs":[[370],[371],[372],[373]]},{"type":"LineString","properties":{"sort_rank":355,"source":"openstreetmap.org","min_zoom":8.0,"name":"Isle of Man - Dublin","kind":"ferry"},"arcs":[374]},{"type":"LineString","properties":{"bus_network":"Bus \u00c9ireann Dublin Commuter","network":"e-road","sort_rank":381,"kind_detail":"trunk","kind":"major_road","source":"openstreetmap.org","min_zoom":8.0,"bus_shield_text":"101","shield_text":"01","ref":"N1"},"arcs":[375]},{"type":"LineString","properties":{"kind":"major_road","sort_rank":381,"kind_detail":"trunk","is_bicycle_related":true,"bicycle_shield_text":"99","bicycle_network":"ncn","source":"openstreetmap.org","min_zoom":8.0,"landuse_kind":"park","id":396943914},"arcs":[376]},{"type":"MultiLineString","properties":{"source":"openstreetmap.org","kind":"major_road","sort_rank":381,"kind_detail":"trunk","ref":"N2","min_zoom":8.0},"arcs":[[377],[378],[379],[380],[381],[382],[383],[384],[385],[386],[387],[388],[389],[390],[391],[392]]},{"type":"MultiLineString","properties":{"source":"openstreetmap.org","kind":"major_road","sort_rank":380,"kind_detail":"primary","ref":"N53","min_zoom":8.0},"arcs":[[393],[394],[395]]},{"type":"LineString","properties":{"source":"openstreetmap.org","kind":"ferry","name":"Dublin - Holyhead (Irish Ferries)","sort_rank":355,"min_zoom":8.0,"id":22661649},"arcs":[396]},{"type":"MultiLineString","properties":{"kind":"highway","network":null,"sort_rank":383,"landuse_kind":"urban_area","source":"openstreetmap.org","min_zoom":8.0,"all_networks":[null],"kind_detail":"motorway","shield_text":"3","ref":"M3","all_shield_texts":["3"]},"arcs":[[397],[398]]},{"type":"LineString","properties":{"source":"openstreetmap.org","kind":"ferry","name":"Dublin - Holyhead (Irish Ferries) (fast)","sort_rank":355,"is_bicycle_related":true,"min_zoom":8.0,"id":92888187},"arcs":[399]},{"type":"LineString","properties":{"kind":"ferry","name":"Dublin - Liverpool","sort_rank":355,"source":"openstreetmap.org","min_zoom":8.0,"all_networks":["e-road"],"shield_text":"20","id":54049736,"all_shield_texts":["20"],"network":"e-road"},"arcs":[400]},{"type":"LineString","properties":{"bus_network":"Bus \u00c9ireann;Translink Ulsterbus","network":"e-road","sort_rank":381,"kind_detail":"trunk","kind":"major_road","source":"openstreetmap.org","min_zoom":8.0,"bus_shield_text":"X1","shield_text":"01","ref":"N1"},"arcs":[401]},{"type":"MultiLineString","properties":{"kind":"highway","network":null,"sort_rank":383,"landuse_kind":"urban_area","source":"openstreetmap.org","min_zoom":8.0,"all_networks":[null],"kind_detail":"motorway","shield_text":"1","ref":"M1","all_shield_texts":["1"]},"arcs":[[402],[403]]},{"type":"LineString","properties":{"source":"openstreetmap.org","kind":"ferry","name":"Dublin - Holyhead (Stena)","sort_rank":355,"min_zoom":8.0,"id":55894345},"arcs":[404]},{"type":"LineString","properties":{"kind":"major_road","sort_rank":381,"kind_detail":"trunk","bus_network":null,"source":"openstreetmap.org","min_zoom":8.0,"bus_shield_text":"201","landuse_kind":"urban_area","ref":"N50","id":110935783},"arcs":[405]},{"type":"LineString","properties":{"name:ga":"Sl\u00ed na Can\u00e1la R\u00edoga","sort_rank":354,"kind_detail":"cycleway","is_bicycle_related":true,"kind":"path","bicycle_shield_text":"RCW","bicycle_network":"ncn","source":"openstreetmap.org","min_zoom":8.0,"landuse_kind":"urban_area","id":106373926},"arcs":[406]},{"type":"LineString","properties":{"kind":"major_road","sort_rank":377,"kind_detail":"tertiary","is_bicycle_related":true,"bicycle_shield_text":"9","bicycle_network":"ncn","source":"openstreetmap.org","min_zoom":8.0,"landuse_kind":"park","ref":"C217"},"arcs":[407]},{"type":"MultiLineString","properties":{"kind":"path","sort_rank":354,"landuse_kind":"nature_reserve","is_bicycle_related":true,"bicycle_shield_text":"S2S","bicycle_network":"ncn","source":"openstreetmap.org","min_zoom":8.0,"kind_detail":"cycleway"},"arcs":[[408],[409]]},{"type":"LineString","properties":{"bus_network":"Translink Ulsterbus","sort_rank":355,"kind_detail":"primary_link","is_bicycle_related":true,"kind":"major_road","bicycle_shield_text":"99","bicycle_network":"ncn","source":"openstreetmap.org","min_zoom":8.0,"is_link":true,"bus_shield_text":"39","landuse_kind":"park","id":55761149},"arcs":[410]},{"type":"LineString","properties":{"kind":"major_road","sort_rank":381,"kind_detail":"trunk","is_bicycle_related":true,"source":"openstreetmap.org","min_zoom":8.0,"landuse_kind":"urban_area","ref":"N3","id":4406765},"arcs":[411]},{"type":"MultiLineString","properties":{"source":"openstreetmap.org","kind":"major_road","sort_rank":381,"kind_detail":"trunk","ref":"N3","min_zoom":8.0},"arcs":[[412],[413],[414],[415],[416],[417],[418],[419],[420],[421],[422],[423],[424],[425],[426],[427],[428],[429]]},{"type":"LineString","properties":{"kind":"minor_road","sort_rank":358,"kind_detail":"service","is_bicycle_related":true,"bicycle_shield_text":null,"bicycle_network":"ncn","source":"openstreetmap.org","min_zoom":8.0},"arcs":[430]},{"type":"LineString","properties":{"kind":"major_road","network":"e-road","sort_rank":381,"kind_detail":"trunk","source":"openstreetmap.org","min_zoom":8.0,"landuse_kind":"park","shield_text":"01","ref":"A1"},"arcs":[431]},{"type":"MultiLineString","properties":{"source":"openstreetmap.org","kind":"ferry","name":"Heysham - Warrenpoint (Freight Only)","sort_rank":355,"landuse_kind":"park","min_zoom":8.0,"id":125108246},"arcs":[[432],[433]]},{"type":"LineString","properties":{"source":"openstreetmap.org","kind":"ferry","name":"Island Ferry (Seasonal)","sort_rank":355,"min_zoom":8.0,"id":52711890},"arcs":[434]},{"type":"LineString","properties":{"kind":"major_road","sort_rank":381,"landuse_kind":"park","source":"openstreetmap.org","min_zoom":8.0,"kind_detail":"trunk","ref":"A2","id":2542207},"arcs":[435]},{"type":"LineString","properties":{"kind":"minor_road","sort_rank":360,"kind_detail":"unclassified","is_bicycle_related":true,"bicycle_shield_text":"9","bicycle_network":"ncn","source":"openstreetmap.org","min_zoom":8.0,"landuse_kind":"park"},"arcs":[436]},{"type":"MultiLineString","properties":{"source":"openstreetmap.org","kind":"major_road","sort_rank":380,"kind_detail":"primary","ref":"N51","min_zoom":8.0},"arcs":[[437],[438],[439],[440],[441],[442],[443],[444],[445],[446],[447],[448]]},{"type":"MultiLineString","properties":{"kind":"highway","network":"e-road","sort_rank":383,"landuse_kind":"urban_area","source":"openstreetmap.org","min_zoom":8.0,"all_networks":["e-road",null],"kind_detail":"motorway","shield_text":"20","ref":"M50","all_shield_texts":["20","50"]},"arcs":[[449],[450],[451],[452],[453],[454]]},{"type":"LineString","properties":{"kind":"major_road","sort_rank":381,"kind_detail":"trunk","is_bicycle_related":true,"bus_network":"Translink Ulsterbus","cycleway":"lane","source":"openstreetmap.org","min_zoom":8.0,"bus_shield_text":"39","landuse_kind":"park","ref":"A2","id":55761967},"arcs":[455]},{"type":"LineString","properties":{"kind":"minor_road","sort_rank":360,"kind_detail":"unclassified","is_bicycle_related":true,"bicycle_shield_text":"EV2","bicycle_network":"icn","source":"openstreetmap.org","min_zoom":8.0},"arcs":[456]},{"type":"MultiLineString","properties":{"kind":"minor_road","sort_rank":358,"landuse_kind":"urban_area","is_bicycle_related":true,"bicycle_shield_text":"GCG","bicycle_network":"ncn","source":"openstreetmap.org","min_zoom":8.0,"kind_detail":"service"},"arcs":[[457],[458]]},{"type":"LineString","properties":{"bus_network":null,"sort_rank":381,"kind_detail":"trunk","is_bicycle_related":true,"kind":"major_road","source":"openstreetmap.org","min_zoom":8.0,"bus_shield_text":"66a","landuse_kind":"urban_area","ref":"N4"},"arcs":[459]},{"type":"LineString","properties":{"kind":"minor_road","sort_rank":358,"landuse_kind":"urban_area","is_bicycle_related":true,"bicycle_shield_text":"RCW","bicycle_network":"ncn","source":"openstreetmap.org","min_zoom":8.0,"kind_detail":"service"},"arcs":[460]},{"type":"LineString","properties":{"kind":"ferry","name":"Dublin - Liverpool","sort_rank":355,"landuse_kind":"urban_area","source":"openstreetmap.org","min_zoom":8.0,"all_networks":["e-road"],"shield_text":"20","id":54049736,"all_shield_texts":["20"],"network":"e-road"},"arcs":[461]},{"type":"LineString","properties":{"kind":"minor_road","sort_rank":360,"kind_detail":"unclassified","is_bicycle_related":true,"bicycle_shield_text":"RCW","bicycle_network":"ncn","source":"openstreetmap.org","min_zoom":8.0,"landuse_kind":"urban_area","id":258338554},"arcs":[462]},{"type":"MultiLineString","properties":{"kind":"path","sort_rank":354,"landuse_kind":"urban_area","is_bicycle_related":true,"bicycle_shield_text":"RCW","bicycle_network":"ncn","source":"openstreetmap.org","min_zoom":8.0,"kind_detail":"footway"},"arcs":[[463],[464],[465],[466],[467],[468]]},{"type":"LineString","properties":{"kind":"path","sort_rank":354,"kind_detail":"track","is_bicycle_related":true,"bicycle_shield_text":null,"bicycle_network":"ncn","source":"openstreetmap.org","min_zoom":8.0},"arcs":[469]},{"type":"LineString","properties":{"bus_network":"Translink Ulsterbus","sort_rank":381,"kind_detail":"trunk","is_bicycle_related":true,"kind":"major_road","bicycle_shield_text":"99","cycleway":"lane","source":"openstreetmap.org","min_zoom":8.0,"bus_shield_text":"39","landuse_kind":"park","ref":"A2","id":3424098,"bicycle_network":"ncn"},"arcs":[470]},{"type":"LineString","properties":{"source":"openstreetmap.org","kind":"ferry","name":"Scenic Carlingford Ferry (Greenore - Greencastle)","sort_rank":355,"landuse_kind":"park","min_zoom":8.0,"id":498993612},"arcs":[471]},{"type":"MultiLineString","properties":{"source":"openstreetmap.org","kind":"ferry","name":"Dublin - Heysham","sort_rank":355,"min_zoom":8.0,"id":182012854},"arcs":[[472],[473]]},{"type":"LineString","properties":{"bus_network":"Bus \u00c9ireann Dublin Commuter","sort_rank":381,"kind_detail":"trunk","kind":"major_road","source":"openstreetmap.org","min_zoom":8.0,"bus_shield_text":"101","ref":"A2"},"arcs":[474]},{"type":"LineString","properties":{"kind":"minor_road","sort_rank":360,"kind_detail":"unclassified","is_bicycle_related":true,"bicycle_shield_text":null,"bicycle_network":"ncn","source":"openstreetmap.org","min_zoom":8.0},"arcs":[475]},{"type":"LineString","properties":{"kind":"major_road","sort_rank":381,"kind_detail":"trunk","is_bicycle_related":true,"cycleway":"lane","source":"openstreetmap.org","min_zoom":8.0,"ref":"A2","id":55766032},"arcs":[476]},{"type":"LineString","properties":{"kind":"path","sort_rank":354,"kind_detail":"cycleway","is_bicycle_related":true,"bicycle_shield_text":null,"bicycle_network":"ncn","source":"openstreetmap.org","min_zoom":8.0},"arcs":[477]},{"type":"LineString","properties":{"source":"openstreetmap.org","kind":"ferry","name":"Dublin - Heysham","sort_rank":355,"landuse_kind":"nature_reserve","min_zoom":8.0,"id":182012854},"arcs":[478]},{"type":"MultiLineString","properties":{"bus_network":"Translink Ulsterbus","sort_rank":380,"kind_detail":"primary","is_bicycle_related":true,"kind":"major_road","bicycle_shield_text":"99","bicycle_network":"ncn","source":"openstreetmap.org","min_zoom":8.0,"bus_shield_text":"39","landuse_kind":"park","ref":"A2"},"arcs":[[479],[480],[481]]},{"type":"LineString","properties":{"kind":"highway","network":null,"sort_rank":383,"kind_detail":"motorway","name:ga":"Seachbh\u00f3thar L\u00e9im an Bhrad\u00e1in, Mhaigh Nuad & Chill Choca","source":"openstreetmap.org","min_zoom":8.0,"all_networks":[null],"landuse_kind":"urban_area","shield_text":"4","ref":"M4","id":2807279,"all_shield_texts":["4"]},"arcs":[482]},{"type":"LineString","properties":{"kind":"major_road","sort_rank":381,"kind_detail":"trunk","is_bicycle_related":true,"bicycle_shield_text":"99","cycleway":"lane","source":"openstreetmap.org","min_zoom":8.0,"bicycle_network":"ncn","ref":"A2","id":128404385},"arcs":[483]},{"type":"LineString","properties":{"kind":"major_road","network":"e-road","sort_rank":381,"kind_detail":"trunk","bus_network":"Bus \u00c9ireann Dublin Commuter","source":"openstreetmap.org","min_zoom":8.0,"bus_shield_text":"101","shield_text":"01","landuse_kind":"park","ref":"A1","id":44868419},"arcs":[484]},{"type":"LineString","properties":{"bus_network":null,"sort_rank":381,"landuse_kind":"urban_area","kind":"major_road","source":"openstreetmap.org","min_zoom":8.0,"bus_shield_text":"17A","kind_detail":"trunk","ref":"N3"},"arcs":[485]},{"type":"LineString","properties":{"kind":"major_road","sort_rank":380,"kind_detail":"primary","is_bicycle_related":true,"bicycle_shield_text":"4","bicycle_network":"rcn","source":"openstreetmap.org","min_zoom":8.0,"landuse_kind":"park","ref":"A2","id":60238645},"arcs":[486]},{"type":"LineString","properties":{"kind":"major_road","sort_rank":377,"kind_detail":"tertiary","is_bicycle_related":true,"bicycle_shield_text":"99","bicycle_network":"ncn","source":"openstreetmap.org","min_zoom":8.0,"landuse_kind":"park","ref":"C332"},"arcs":[487]},{"type":"MultiLineString","properties":{"source":"openstreetmap.org","kind":"major_road","landuse_kind":"park","sort_rank":380,"kind_detail":"primary","ref":"A29","min_zoom":8.0},"arcs":[[488],[489]]},{"type":"LineString","properties":{"kind":"path","sort_rank":354,"kind_detail":"track","is_bicycle_related":true,"bicycle_shield_text":"RCW","bicycle_network":"ncn","source":"openstreetmap.org","min_zoom":8.0,"landuse_kind":"urban_area"},"arcs":[490]},{"type":"MultiLineString","properties":{"kind":"path","sort_rank":354,"kind_detail":"cycleway","is_bicycle_related":true,"bicycle_shield_text":"S2S","bicycle_network":"ncn","source":"openstreetmap.org","min_zoom":8.0},"arcs":[[491],[492],[493],[494],[495]]},{"type":"LineString","properties":{"bus_network":"Bus \u00c9ireann Dublin Commuter","sort_rank":381,"landuse_kind":"urban_area","kind":"major_road","source":"openstreetmap.org","min_zoom":8.0,"bus_shield_text":"101","kind_detail":"trunk","ref":"N50"},"arcs":[496]},{"type":"MultiLineString","properties":{"source":"openstreetmap.org","kind":"major_road","ref":"N51","sort_rank":380,"kind_detail":"primary","is_bicycle_related":true,"min_zoom":8.0},"arcs":[[497],[498],[499],[500]]},{"type":"LineString","properties":{"bus_network":"Dublin Bus","sort_rank":381,"landuse_kind":"urban_area","kind":"major_road","source":"openstreetmap.org","min_zoom":8.0,"bus_shield_text":"38A","kind_detail":"trunk","ref":"N3"},"arcs":[501]},{"type":"MultiLineString","properties":{"bus_network":"Translink Ulsterbus","sort_rank":381,"kind_detail":"trunk","kind":"major_road","source":"openstreetmap.org","min_zoom":8.0,"bus_shield_text":"39","landuse_kind":"park","ref":"A2"},"arcs":[[502],[503],[504]]},{"type":"MultiLineString","properties":{"kind":"minor_road","sort_rank":360,"kind_detail":"unclassified","is_bicycle_related":true,"bicycle_shield_text":"99","bicycle_network":"ncn","source":"openstreetmap.org","min_zoom":8.0,"landuse_kind":"park"},"arcs":[[505],[506],[507]]},{"type":"LineString","properties":{"kind":"major_road","sort_rank":380,"kind_detail":"primary","is_bicycle_related":true,"bus_network":"Translink Ulsterbus","bicycle_shield_text":"4","bicycle_network":"rcn","source":"openstreetmap.org","min_zoom":8.0,"bus_shield_text":"39","landuse_kind":"park","ref":"A2","id":60238827},"arcs":[508]},{"type":"LineString","properties":{"source":"openstreetmap.org","kind":"major_road","landuse_kind":"park","sort_rank":381,"kind_detail":"trunk","min_zoom":8.0,"id":396943926},"arcs":[509]},{"type":"MultiLineString","properties":{"source":"openstreetmap.org","kind":"major_road","ref":"N33","sort_rank":381,"kind_detail":"trunk","is_bicycle_related":true,"min_zoom":8.0},"arcs":[[510],[511],[512],[513]]},{"type":"MultiLineString","properties":{"bus_network":"Bus \u00c9ireann Dublin Commuter","sort_rank":381,"kind_detail":"trunk","kind":"major_road","source":"openstreetmap.org","min_zoom":8.0,"bus_shield_text":"101","landuse_kind":"park","ref":"A2"},"arcs":[[514],[515]]},{"type":"LineString","properties":{"kind":"major_road","network":"e-road","sort_rank":381,"kind_detail":"trunk","bus_network":"Bus \u00c9ireann Dublin Commuter","source":"openstreetmap.org","min_zoom":8.0,"bus_shield_text":"101","shield_text":"01","landuse_kind":"park","ref":"N1","id":5038324},"arcs":[516]},{"type":"LineString","properties":{"bus_network":"Dublin Bus","sort_rank":381,"kind_detail":"trunk","is_bicycle_related":true,"kind":"major_road","source":"openstreetmap.org","min_zoom":8.0,"bus_shield_text":"25A","landuse_kind":"urban_area","ref":"N4"},"arcs":[517]},{"type":"LineString","properties":{"bus_network":"Bus \u00c9ireann Dublin Commuter","sort_rank":381,"kind_detail":"trunk","kind":"major_road","source":"openstreetmap.org","min_zoom":8.0,"bus_shield_text":"101","landuse_kind":"residential","ref":"A2"},"arcs":[518]},{"type":"LineString","properties":{"kind":"major_road","sort_rank":381,"kind_detail":"trunk","is_bicycle_related":true,"bus_network":"Translink Ulsterbus","cycleway":"lane","source":"openstreetmap.org","min_zoom":8.0,"bus_shield_text":"39","ref":"A2","id":55761967},"arcs":[519]},{"type":"LineString","properties":{"source":"openstreetmap.org","kind":"ferry","name":"Dublin - Liverpool","sort_rank":355,"landuse_kind":"nature_reserve","min_zoom":8.0,"id":182012857},"arcs":[520]},{"type":"MultiLineString","properties":{"kind":"major_road","sort_rank":381,"landuse_kind":"urban_area","is_bicycle_related":true,"source":"openstreetmap.org","min_zoom":8.0,"kind_detail":"trunk","ref":"N4"},"arcs":[[521],[522]]},{"type":"LineString","properties":{"source":"openstreetmap.org","kind":"ferry","name":"Dublin - Cherbourg","sort_rank":355,"is_bicycle_related":true,"min_zoom":8.0},"arcs":[523]},{"type":"MultiLineString","properties":{"kind":"highway","network":"e-road","sort_rank":383,"kind_detail":"motorway","source":"openstreetmap.org","min_zoom":8.0,"all_networks":["e-road",null],"shield_text":"01","ref":"M1","all_shield_texts":["01","1"]},"arcs":[[524],[525],[526],[527],[528],[529],[530],[531],[532],[533],[534],[535],[536],[537],[538],[539],[540],[541],[542],[543],[544],[545],[546],[547],[548],[549],[550],[551]]},{"type":"MultiLineString","properties":{"kind":"highway","network":null,"sort_rank":383,"kind_detail":"motorway","source":"openstreetmap.org","min_zoom":8.0,"all_networks":[null],"shield_text":"3","ref":"M3","all_shield_texts":["3"]},"arcs":[[552],[553],[554],[555],[556],[557],[558],[559],[560],[561],[562],[563],[564],[565],[566],[567],[568],[569]]},{"type":"MultiLineString","properties":{"kind":"minor_road","sort_rank":360,"kind_detail":"residential","is_bicycle_related":true,"bicycle_shield_text":"99","bicycle_network":"ncn","source":"openstreetmap.org","min_zoom":8.0,"landuse_kind":"park"},"arcs":[[570],[571],[572]]},{"type":"LineString","properties":{"kind":"major_road","sort_rank":380,"kind_detail":"primary","is_bicycle_related":true,"bicycle_shield_text":"5","bicycle_network":"rcn","source":"openstreetmap.org","min_zoom":8.0,"landuse_kind":"park","ref":"A2"},"arcs":[573]},{"type":"MultiLineString","properties":{"bus_network":"Translink Ulsterbus","sort_rank":381,"kind_detail":"trunk","is_bicycle_related":true,"kind":"major_road","bicycle_shield_text":"99","bicycle_network":"ncn","source":"openstreetmap.org","min_zoom":8.0,"bus_shield_text":"39","landuse_kind":"park","ref":"A2"},"arcs":[[574],[575],[576],[577],[578],[579]]},{"type":"LineString","properties":{"source":"openstreetmap.org","kind":"major_road","sort_rank":380,"kind_detail":"primary","is_bicycle_related":true,"min_zoom":8.0,"id":4397706},"arcs":[580]}]},"earth":{"type":"GeometryCollection","geometries":[{"type":"Polygon","properties":{"sort_rank":10,"source":"naturalearthdata.com","kind":"earth","min_zoom":0.0,"id":3719},"arcs":[[581]]}]},"landuse":{"type":"GeometryCollection","geometries":[{"type":"MultiPolygon","properties":{"source":"openstreetmap.org","kind":"park","tier":2,"area":891726139,"sort_rank":24,"min_zoom":6.0,"osm_relation":true},"arcs":[[[582]]]},{"type":"MultiPolygon","properties":{"kind":"residential","area":23698700,"sort_rank":20,"source":"openstreetmap.org","min_zoom":8.0,"tier":2,"id":-4676275,"osm_relation":true},"arcs":[[[583]],[[584]]]},{"type":"MultiPolygon","properties":{"source":"naturalearthdata.com","kind":"urban_area","name":"","area":1016262972,"sort_rank":11,"min_zoom":4.0},"arcs":[[[585]],[[586]]]},{"type":"Polygon","properties":{"kind":"park","area":19734600,"sort_rank":24,"operator":"Office of Public Works (OPW)","source":"openstreetmap.org","min_zoom":8.0,"tier":2,"id":-4423275,"osm_relation":true},"arcs":[[587]]},{"type":"Polygon","properties":{"kind":"nature_reserve","protect_class":"1","area":51225700,"sort_rank":23,"source":"openstreetmap.org","min_zoom":8.0,"tier":2,"id":-7544494,"osm_relation":true},"arcs":[[588],[589],[590]]},{"type":"Polygon","properties":{"kind":"aerodrome","area":14426500,"sort_rank":60,"operator":"Dublin Airport Authority","source":"openstreetmap.org","min_zoom":8.0,"tier":3,"id":17901515},"arcs":[[591]]},{"type":"Polygon","properties":{"kind":"park","area":1747670016,"sort_rank":24,"source":"openstreetmap.org","min_zoom":4.0,"tier":2,"id":-1426740,"osm_relation":true},"arcs":[[592]]}]}},"type":"Topology","transform":{"translate":[-7.03125,53.330872983],"scale":[0.0003433228,0.0002030178]},"arcs":[[[2725,3406],[-568,445],[-53,-30],[-26,-77],[-54,18],[-10,85],[-77,9],[8,-201],[-56,-22],[-24,-47],[-61,21],[-92,-33],[-37,79],[-63,23],[-11,-26],[30,-28],[-39,2],[-75,-69],[-62,35],[-76,-52],[-83,41],[-26,-64],[-27,3],[-6,-26],[-28,13],[-22,-30],[-132,180],[31,13],[-1,101],[40,0],[-47,131],[36,-6],[-3,40],[30,11],[-5,50],[34,57],[-12,44]],[[3511,2656],[-365,303],[-421,447]],[[3820,0],[12,40],[20,246],[90,187],[49,207],[5,207],[-40,207],[19,325],[-62,256],[-132,237],[-186,187],[-235,133],[-30,295],[103,104],[78,25]],[[3511,2656],[290,241],[295,319]],[[1158,4096],[12,-44],[-34,-57],[5,-50],[-30,-11],[3,-40],[-36,6],[47,-131],[-40,0],[1,-101],[-31,-13],[132,-180],[22,30],[28,-13],[6,26],[27,-3],[26,64],[83,-41],[76,52],[62,-35],[75,69],[39,-2],[-30,28],[11,26],[63,-23],[37,-79],[92,33],[61,-21],[24,47],[56,22],[-8,201],[77,-9],[10,-85],[54,-18],[26,77],[53,30],[568,-445]],[[2725,3406],[421,-447],[365,-303],[290,241],[295,319]],[[2790,286],[-235,14],[-293,-214],[80,-86]],[[1959,4096],[33,-44],[9,-19],[3,-7],[12,-44],[0,-4],[0,-7],[-1,-4],[-1,-4],[-2,-6],[-4,-5],[-1,-1],[-5,-4],[-95,-54],[-49,-115],[3,-74],[57,-98],[2,-6],[1,-4],[1,-7],[0,-6],[-1,-6],[-2,-6],[-12,-35],[-3,-6],[-2,-3],[-2,-4],[-92,-113],[-7,-115],[1,-8],[6,-41],[1,-7],[0,-9],[-2,-39],[-1,-8],[-1,-7],[-19,-55],[-1,-33]],[[1785,3088],[1,-28]],[[1786,3060],[0,-4]],[[1786,3056],[0,-5]],[[1786,3051],[0,-4]],[[1786,3047],[24,-114],[1,-7],[1,-6],[0,-6],[-1,-8],[-2,-9],[-53,-168],[12,-147],[73,-80],[5,-7],[28,-46],[12,-14],[52,-30],[67,-17],[9,-3],[9,-5],[5,-4],[6,-5],[5,-5],[5,-6],[4,-6],[3,-6],[3,-8],[2,-6],[9,-64],[1,-15],[1,-61],[0,-12],[0,-5],[-1,-6],[-1,-6],[-16,-58],[-28,-129],[0,-61]],[[2021,1909],[-1,58],[1,12],[28,128],[17,70],[-13,164],[-33,40],[-83,25],[-48,26],[-4,4],[-4,4],[-7,8],[-34,54],[-55,52],[-13,19],[-4,9],[-2,5],[-4,14],[-8,104],[1,21],[2,10],[3,11],[51,165],[-24,131],[-1,4],[0,9],[-1,55],[0,7],[2,6],[20,67],[-6,111],[6,104],[1,5],[2,5],[4,9],[25,43],[62,57],[21,57],[-61,122],[-4,71],[2,7],[3,8],[36,88],[5,9],[5,8],[108,76],[-57,125]],[[2021,1916],[0,-7]],[[2021,1889],[0,20]],[[2304,125],[64,57],[12,9],[7,5],[22,12],[5,3],[23,18],[6,5],[6,3],[9,4],[41,12],[21,12],[43,56],[7,46],[-24,191],[0,5],[0,5],[5,61],[24,274],[1,8],[2,7],[3,8],[3,7],[90,154],[-5,83],[-27,44],[-61,32],[-7,5],[-3,3],[-4,3],[-4,4],[-5,6],[-17,26],[-23,42],[-7,9],[-35,36],[-3,4],[-3,3],[-4,6],[-20,34],[-7,11],[-47,42],[-6,6],[-6,8],[-5,9],[-4,9],[-73,203],[-52,68],[-45,33],[-172,60],[-4,2],[-3,3],[-1,3],[0,2],[0,3]],[[2021,1889],[180,-73],[45,-33],[52,-68],[82,-220],[59,-57],[78,-102],[46,-76],[19,-14],[46,-23],[15,-10],[18,-23],[6,-12],[1,-6],[1,-6],[5,-79],[-99,-185],[-29,-334],[24,-200],[0,-17],[-7,-31],[-11,-19],[-21,-26],[-12,-11],[-12,-8],[-10,-4],[-50,-16],[-10,-6],[-21,-17],[-6,-5],[-26,-14],[-106,-92]],[[2294,116],[2,2]],[[0,716],[134,-31],[100,-109],[82,-48],[52,-91],[92,-25],[82,-10],[93,39],[70,-10],[118,53],[139,-61],[218,-171],[96,-24]],[[2302,127],[-138,71],[-14,1],[-66,20],[-60,-1],[-8,1],[-11,5],[-27,20],[-26,10],[-44,-7],[-38,-15],[-15,-2],[-119,35],[-21,-11],[-35,-49],[-10,-7],[-13,-1],[-106,23],[-24,-28],[-11,-5],[-31,7],[-55,28],[-102,20],[-52,-14]],[[1276,228],[8,4],[5,2],[5,2],[17,4],[4,1],[4,1],[6,0],[3,0],[74,-14],[22,-4],[6,-2],[27,-9],[6,-2],[4,-2],[4,-3],[9,-9],[5,-3],[31,-7],[11,5],[5,6],[4,10],[1,3],[2,3],[2,2],[3,2],[4,1],[3,1],[4,0],[35,-7],[32,-4],[6,-1],[6,-1],[5,-2],[18,-8],[13,1],[10,7],[26,38],[7,8],[3,4],[4,3],[6,4],[4,2],[6,1],[3,0],[4,0],[6,-1],[106,-34],[16,2],[25,11],[5,2],[8,2],[5,1],[29,6],[6,0],[3,0],[4,-1],[5,-1],[9,-4],[8,-4],[5,-3],[23,-17],[10,-5],[8,-1],[13,1],[6,1],[32,-1],[9,0],[7,-1],[22,-5],[27,-9],[11,-5],[9,0],[4,-1],[128,-50],[3,-1],[2,-2],[2,-2],[1,-2],[2,-4],[1,-3],[0,-4],[-1,-3]],[[2278,102],[15,13]],[[2278,102],[13,11]],[[2283,105],[8,8]],[[2291,113],[2,2]],[[2302,127],[-9,-12]],[[1961,23],[-105,-13],[-272,15],[-36,-25]],[[1961,23],[-106,-13],[-245,17],[-9,0],[-13,-1],[-10,-2],[-9,-2],[-8,-2],[-8,-3],[-7,-4],[-4,-2],[-7,-3],[-7,-5],[-4,-3]],[[2111,64],[-150,-41]],[[2111,64]],[[2116,68],[-5,-4]],[[2340,0],[-78,83],[297,228],[-11,279]],[[2044,48],[63,14]],[[2107,62],[1,0]],[[2313,41],[-51,42],[37,60],[-117,46],[-75,-127]],[[2548,597],[10,-287],[-296,-226],[79,-84]],[[2341,0],[-79,85],[293,215],[235,-14]],[[0,716],[134,-31],[100,-109],[82,-48],[60,-96],[168,-30],[91,39],[73,-9],[115,52],[139,-61],[222,-173],[343,-58]],[[1527,192]],[[1527,192],[26,28],[117,-22],[46,57],[4,3],[6,4],[12,3],[6,0],[7,-2],[99,-33],[99,24],[48,-24]],[[1997,230],[1,0]],[[1998,230],[23,-11],[22,1],[38,-1],[10,-1],[22,-5],[52,-16],[4,-2],[19,-17],[20,-9],[25,-3],[59,-18],[8,-7],[3,-11],[-1,-5],[-2,-2],[-12,-11]],[[2032,219],[-6,-1],[-4,0],[-6,1],[-2,1],[-6,2],[-3,2],[-7,6]],[[1998,230],[-1,0]],[[1997,230],[-48,24],[-81,-23],[-4,-1],[-5,0],[-3,0],[-5,0],[-7,1],[-56,18],[-39,15],[-9,1],[-23,-9],[-37,-51],[-2,-2],[-2,-2],[-2,-1],[-4,-2],[-3,-1],[-3,0],[-3,0],[-4,0],[-70,17]],[[2303,130],[-11,18],[-31,6],[-6,2],[-18,9],[-4,1],[-19,1],[-4,1],[-3,1],[-14,6],[-5,3],[-5,4],[-14,13],[-6,3],[-3,1],[-6,0],[-4,0],[-62,19],[-52,1]],[[2278,106],[25,24]],[[2299,121],[-9,-8]],[[2303,129],[0,1]],[[1527,192]],[[1527,192]],[[1997,230],[1,0]],[[1998,230]],[[1997,230]],[[1997,230]],[[2278,106],[10,6]],[[2278,106],[11,6]],[[2287,58],[-10,4],[-3,2],[-2,3],[-9,12]],[[2263,79],[0,2]],[[2263,81],[-1,3],[0,3],[1,3],[1,3],[2,3],[4,4],[5,4],[3,2]],[[2306,47],[-19,11]],[[2289,58],[-2,0]],[[2290,113],[-27,-32]],[[2263,81],[1,-2]],[[2264,79],[23,-20]],[[2287,59],[2,-1]],[[2287,59],[2,-1]],[[2289,58],[17,-11]],[[2306,47],[19,-16],[26,-31]],[[2290,57],[1,0]],[[2304,49],[2,-2]],[[2348,0],[-24,32]],[[2262,80],[1,1]],[[2263,81]],[[2264,79],[-1,0]],[[2263,79],[-1,1]],[[1961,23],[-105,-13],[-272,15],[-36,-25]],[[1961,23],[-106,-13],[-245,17],[-9,0],[-13,-1],[-10,-2],[-9,-2],[-8,-2],[-8,-3],[-7,-4],[-4,-2],[-7,-3],[-7,-5],[-4,-3]],[[2106,62],[-38,-6],[-108,-33]],[[2049,50],[-88,-27]],[[2111,64],[-5,-3],[-8,-1]],[[2111,64]],[[2130,75],[-19,-11]],[[2142,77],[-16,-2]],[[1961,23],[-105,-13],[-272,15],[-36,-25]],[[1961,23],[-106,-13],[-245,17],[-9,0],[-13,-1],[-10,-2],[-9,-2],[-8,-2],[-8,-3],[-7,-4],[-4,-2],[-7,-3],[-7,-5],[-4,-3]],[[2141,77],[-15,-2]],[[2126,75],[-166,-52]],[[2049,50],[-88,-27]],[[2142,77],[-16,-2]],[[1276,228],[52,14],[199,-50]],[[1527,192]],[[1527,192],[26,28],[75,-12],[6,-1],[5,-2],[18,-8],[13,1],[10,7],[26,38],[7,8],[3,4],[4,3],[6,4],[6,2],[6,1],[4,0],[2,0],[3,0],[4,-2],[99,-33],[17,1],[29,12],[10,3],[8,2],[27,5],[8,1],[4,0],[5,-1],[7,-3],[10,-4],[3,-2],[5,-3],[14,-11]],[[1997,230],[1,0]],[[1998,230],[22,-11],[23,1],[41,-1],[7,-1],[22,-5],[38,-14],[9,0],[4,-1],[128,-50],[8,-7],[3,-7],[0,-4],[-1,-3]],[[2032,219],[-6,-1],[-4,0],[-6,1],[-2,1],[-6,2],[-3,2],[-7,6]],[[1998,230],[-1,0]],[[1997,230],[-48,24],[-81,-23],[-17,-1],[-111,35],[-23,-9],[-37,-51],[-10,-7],[-13,-1],[-70,17]],[[2303,130],[-11,18],[-31,6],[-6,2],[-18,9],[-4,1],[-19,1],[-4,1],[-3,1],[-14,6],[-5,3],[-5,4],[-14,13],[-6,3],[-3,1],[-6,0],[-4,0],[-62,19],[-52,1]],[[2278,102],[12,11]],[[2278,102],[14,12]],[[2278,106],[17,12]],[[2278,106],[25,24]],[[2285,59],[-9,4],[-3,2],[-1,2],[-9,12]],[[2263,79],[0,2]],[[2263,81],[-1,3],[0,3],[1,3],[1,3],[2,3],[4,4],[5,4],[3,2]],[[2290,113],[-24,-18],[-3,-14]],[[2263,81],[1,-2]],[[2264,79],[21,-20]],[[2293,115],[-3,-2]],[[2292,114],[3,3]],[[2292,114],[1,1]],[[2293,115],[6,6]],[[2293,115],[2,3]],[[2302,127],[-7,-9]],[[2302,127],[1,3]],[[1527,192]],[[1527,192]],[[1997,230],[1,0]],[[1998,230]],[[1997,230]],[[1997,230]],[[2262,80],[1,1]],[[2263,81]],[[2264,79],[-1,0]],[[2263,79],[-1,1]],[[1916,17],[-53,-7],[-8,0],[-251,17],[-43,-7],[-26,-20]],[[2049,50],[-188,-40],[-205,14]],[[2049,50],[-71,-24],[-8,-2],[-9,-1]],[[2278,102],[12,11]],[[2290,113],[-7,-6],[-5,-1]],[[2280,106],[-2,0]],[[2278,106],[-15,-25]],[[2263,81],[1,-2]],[[2264,79],[25,-21]],[[2278,106],[2,0]],[[2278,106],[24,18]],[[2302,124],[2,1]],[[2287,58],[-24,21]],[[2263,79],[0,2]],[[2263,81],[-1,3],[0,3],[1,3],[1,3],[2,3],[4,4],[5,4],[3,2]],[[2301,123],[-11,-10],[-10,-7]],[[2302,50],[-15,8]],[[2289,58],[-2,0]],[[2289,58],[4,-2],[7,-5],[6,-4]],[[2306,47],[19,-16],[26,-31]],[[2304,125],[-2,-1]],[[2302,124],[-12,-11]],[[2290,57],[1,0]],[[2304,125],[-2,-1]],[[2302,124],[-1,-1]],[[2302,124],[-1,-1]],[[2348,0],[-24,31],[-22,19]],[[2306,47],[-4,3]],[[2304,125],[64,57],[10,7],[5,5],[5,3],[21,11],[30,23],[4,3],[4,2],[11,5],[39,11],[16,8],[33,33]],[[2546,293],[-33,-33],[-129,-66],[-80,-69]],[[2304,49],[2,-2]],[[2546,293],[1,2]],[[2547,295],[3,2],[4,3],[4,1],[2,1],[3,0],[104,-1],[64,-3],[22,-3],[8,-1],[29,-8]],[[2546,293],[24,70],[-24,198],[0,5],[0,5],[2,26]],[[2790,286],[-244,7]],[[2548,597],[23,-234],[-24,-68]],[[2547,295],[-1,-2]],[[2262,80],[1,1]],[[2263,81]],[[2264,79],[-1,0]],[[2263,79],[-1,1]],[[2023,1881],[14,-6]],[[2546,572],[28,324],[1,7],[1,5],[1,7],[3,7],[1,4],[3,7],[90,154],[-9,95],[-27,34],[-55,30],[-9,5],[-3,3],[-4,3],[-4,4],[-5,6],[-17,26],[-23,42],[-7,9],[-35,36],[-3,4],[-3,3],[-4,6],[-20,34],[-7,11],[-47,42],[-6,6],[-6,8],[-5,9],[-4,9],[-73,203],[-52,68],[-144,78],[-72,14],[-4,2],[-3,4]],[[2023,1881],[14,-6]],[[2037,1875],[32,-4],[18,-5],[17,-6],[142,-77],[52,-68],[82,-220],[59,-57],[78,-102],[46,-76],[19,-14],[46,-23],[8,-5],[7,-5],[18,-23],[3,-5],[3,-7],[2,-12],[5,-79],[-99,-185],[-29,-334],[24,-200],[-6,-46],[-11,-19],[-22,-28],[-12,-11],[-215,-139]],[[2262,86],[16,20]],[[2285,59],[-9,4],[-3,2],[-1,2],[-9,12]],[[2263,79],[0,2]],[[2263,81],[-1,4]],[[2278,102],[-15,-21]],[[2263,81],[1,-2]],[[2264,79],[5,-8]],[[2269,70],[16,-11]],[[2278,102],[17,15]],[[2301,123],[-23,-17]],[[2278,106],[24,18]],[[2302,124],[12,10],[54,48],[12,9],[7,5],[22,12],[30,23],[4,3],[4,2],[8,4]],[[2304,125],[-3,-2]],[[2302,124],[-1,-1]],[[2474,245],[62,36]],[[2545,292],[25,82]],[[2570,374],[-24,186]],[[2262,80],[1,1]],[[2263,81]],[[2264,79],[-1,0]],[[2263,79],[-1,1]],[[1754,262],[-11,4]],[[1743,266],[-16,5],[-8,4],[-5,2],[-6,4],[-5,3],[-6,5],[-4,3],[-6,6],[-4,5],[-4,5],[-4,6],[-3,5],[-3,5],[-2,6],[-4,10],[-2,6],[-1,6],[-21,147]],[[1639,499],[-2,17]],[[1637,516],[3,-19]],[[1639,499],[1,-2]],[[1640,497],[27,-169],[79,-63]],[[1746,265],[-3,1]],[[1746,265],[18,-5]],[[2306,98],[-2,14]],[[2304,112],[-140,86],[-14,1],[-66,20],[-42,0],[-16,-1],[-4,0],[-3,1],[-5,1],[-6,2],[-4,3],[-6,5]],[[1998,230],[-1,0]],[[1997,230],[-48,24],[-81,-23],[-9,-1],[-8,0],[-97,32]],[[1754,262],[98,-32],[17,1],[3,2],[23,9],[6,3],[10,2],[14,3]],[[1929,251],[17,3],[6,0],[6,-1],[39,-23]],[[1997,230],[1,0]],[[1998,230],[34,-11]],[[2036,219],[7,1],[32,-1],[9,0],[45,-12]],[[2130,207],[15,-5]],[[2150,200],[10,-1],[5,-2],[112,-57],[4,-3],[12,-10],[8,-10],[2,-2]],[[2303,115],[2,-4],[1,-3],[1,-10]],[[2303,115],[1,-3]],[[1651,426],[-1,0],[0,-1],[1,0],[0,1]],[[1997,230],[1,0]],[[1998,230]],[[1997,230]],[[1997,230]],[[2306,97],[1,0],[0,1],[-1,0],[0,-1]],[[2424,0],[-36,39],[-20,41],[9,54],[170,135],[20,5],[51,25],[28,6],[11,-11],[37,-48],[12,-11],[41,-23],[39,-35],[37,3],[33,89],[-53,35],[-120,7],[-48,25],[11,15],[19,36],[10,16],[-27,35],[-11,58],[-14,54],[-187,91],[47,38],[59,20],[51,-8],[22,-50],[26,37],[34,90],[22,41],[6,40],[14,32],[49,80],[19,68],[-6,73],[-21,66],[-23,45],[-59,42],[-87,43],[-80,56],[-50,120],[-32,21],[-44,30],[-28,28],[-21,51],[-19,71],[-14,72],[-13,217],[-8,129],[15,132],[60,68],[-65,52],[-29,75],[3,87],[31,88],[0,37],[-215,29],[-98,51],[-65,88],[-17,87],[2,88],[15,146],[20,81],[36,65],[18,47],[-35,24],[0,37],[153,-21],[204,-88],[42,7],[40,-33],[68,-44],[72,-26],[51,20],[94,112],[11,61],[-56,82],[-21,15],[-25,9],[-62,6],[-18,16],[-42,70],[-21,15],[-45,24],[-183,178],[18,34],[61,-25],[88,-6],[77,-29],[34,-90],[37,-3],[223,-83],[-23,-5],[-58,-28],[0,-31],[51,-37],[46,-9],[114,9],[38,19],[124,94],[90,95],[122,63],[53,66],[31,79],[25,97],[18,103],[0,5],[709,0],[0,-4096],[-1672,0]],[[2934,735],[39,-14],[16,16],[2,27],[15,13],[-17,30],[-66,-4],[-17,-33],[28,-35]],[[2637,174],[-24,6],[-39,-14],[-50,-33],[-12,-5],[-31,-31],[-18,-39],[22,-22],[21,42],[39,35],[28,18],[28,31],[36,12]],[[2697,809],[-22,-41],[-34,-90],[-26,-37],[-22,50],[-51,8],[-59,-20],[-47,-38],[187,-91],[14,-54],[11,-58],[27,-35],[-10,-16],[-19,-36],[-11,-15],[48,-25],[120,-7],[53,-35],[-33,-89],[-37,-3],[-39,35],[-41,23],[-12,11],[-37,48],[-11,11],[-28,-6],[-51,-25],[-20,-5],[-170,-135],[-9,-54],[20,-41],[36,-39]],[[3387,4096],[0,-5],[-18,-103],[-25,-97],[-31,-79],[-53,-66],[-122,-63],[-90,-95],[-124,-94],[-38,-19],[-114,-9],[-46,9],[-51,37],[0,31],[58,28],[23,5],[-223,83],[-37,3],[-34,90],[-77,29],[-88,6],[-61,25],[-18,-34],[183,-178],[45,-24],[21,-15],[42,-70],[18,-16],[62,-6],[25,-9],[21,-15],[56,-82],[-11,-61],[-94,-112],[-51,-20],[-72,26],[-68,44],[-40,33],[-42,-7],[-204,88],[-153,21],[0,-37],[35,-24],[-18,-47],[-36,-65],[-20,-81],[-15,-146],[-2,-88],[17,-87],[65,-88],[98,-51],[215,-29],[0,-37],[-31,-88],[-3,-87],[29,-75],[65,-52],[-60,-68],[-15,-132],[8,-129],[13,-217],[14,-72],[19,-71],[21,-51],[28,-28],[44,-30],[32,-21],[50,-120],[80,-56],[87,-43],[59,-42],[23,-45],[21,-66],[6,-73],[-19,-68],[-49,-80],[-14,-32],[-6,-40]],[[845,1519],[2,1]],[[847,1520],[-1,-1]],[[847,1520],[1,1]],[[849,1521],[-1,0]],[[848,1521],[1,1]],[[1864,3196],[3,2]],[[407,1976],[-1,1],[0,1],[1,0],[0,-2]],[[426,2006],[-1,0],[0,1],[1,1],[0,-2]],[[476,2018],[-1,0],[0,2],[1,-1],[0,-1]],[[951,1571],[-1,3],[2,0],[1,-1],[-2,-2]],[[970,1595],[0,-1],[-1,0],[1,1]],[[1024,1614],[1,1]],[[1710,3387],[0,1],[1,0],[0,-1],[-1,0]],[[1819,3175],[1,1],[1,0],[-1,-2],[-1,1]],[[1882,3438],[-2,2],[1,2],[2,-2],[-1,-2]],[[1485,142],[150,-7]],[[1633,135],[-129,-2]],[[2399,4037],[-31,-67]],[[2362,156],[7,-3]],[[1635,135],[59,-35],[88,39]],[[1832,128],[37,-2]],[[1940,3856],[0,1]],[[1271,3516],[-201,121]],[[1818,3873],[0,2]],[[2294,3756],[154,-122]],[[2527,3572],[337,-266],[1232,-24]],[[2035,221],[4,0]],[[2377,492],[-25,-77]],[[2355,427],[22,66]],[[2419,3792],[25,-28]],[[3364,4096],[-79,-280],[-114,-112],[-140,-68]],[[1903,290],[-26,24]],[[1917,280],[38,-23]],[[1960,247],[-24,16]],[[1692,0],[19,0]],[[1965,0],[65,13]],[[2264,3793],[15,-11]],[[2282,3784],[19,8]],[[2301,3792],[118,0]],[[2444,3764],[24,-73],[48,-41],[193,-21],[53,28]],[[2776,3654],[126,-24]],[[2906,3628],[78,-22]],[[2048,16],[62,13]],[[2799,297],[10,29],[79,-29],[18,-77],[-43,-220]],[[1870,322],[47,-42]],[[2361,157],[-33,-16]],[[1694,99],[-30,16]],[[1015,327],[-53,42]],[[962,369],[-5,5],[-22,4]],[[935,378],[-63,11],[-47,7],[-15,2]],[[810,398],[-5,1],[-48,-9]],[[757,390],[-25,-4],[-70,-23],[-266,37],[-82,65],[-168,2],[-77,56],[-69,16]],[[0,541],[70,-17],[76,-56],[168,-2],[80,-65],[74,5],[194,-42],[70,23],[25,3]],[[757,390],[53,8]],[[810,398],[4,1],[87,-11],[34,-10]],[[935,378],[27,-9]],[[962,369],[14,-4],[41,-38],[66,-70],[176,-70]],[[1431,147],[54,-5]],[[1484,137],[-275,68],[-129,53],[-65,69]],[[1259,187],[49,-11],[123,-29]],[[2668,3476],[-52,-9]],[[1939,254],[6,1]],[[1949,255],[69,-35]],[[2247,150],[45,-24]],[[1432,2627],[-1,-1],[-1,1],[2,1],[0,-1]],[[2101,352],[-54,94]],[[2051,445],[49,-83]],[[1896,0],[-16,25],[0,10]],[[1880,35],[0,57]],[[1880,92],[0,6],[13,77],[62,93],[170,107],[206,19]],[[2317,391],[-194,-18],[-167,-106],[-62,-92],[-9,-52],[-2,-15],[-3,-16]],[[1880,92],[-4,-31],[4,-26]],[[1880,35],[2,-12],[14,-23]],[[2025,481],[-29,27]],[[1996,508],[-21,20]],[[1975,528],[-3,3],[-6,108],[-31,56]],[[1935,695],[-31,59],[-2,0]],[[1902,754],[-98,45],[0,2]],[[1804,801],[-22,110]],[[1782,911],[-1,8],[9,45]],[[1792,962],[-10,-51]],[[1782,911],[-4,-24],[26,-86]],[[1804,801],[0,-2],[95,-40],[3,-5]],[[1902,754],[33,-59]],[[1935,695],[31,-54],[9,-113]],[[1975,528],[0,-1],[21,-19]],[[1996,508],[34,-31]],[[1940,3857],[64,149],[-47,90]],[[2119,3939],[-35,79]],[[2776,3654],[-14,3]],[[3031,3636],[-26,-16]],[[1423,2631],[8,-4]],[[1432,2627],[32,-18]],[[1465,2608],[-1,0],[0,1],[1,0],[0,-1]],[[1716,3386],[0,1],[1,0],[0,-1],[-1,0]],[[2561,75],[-116,8]],[[4096,256],[-1291,-199],[-224,16]],[[1773,3153],[25,5]],[[1797,3157],[-24,-7]],[[1820,3174],[-6,-6],[-10,-7],[-5,-3]],[[1800,3159],[19,16]],[[1820,3176],[35,19]],[[1857,3195],[-36,-19]],[[1862,3352],[20,86]],[[1880,3478],[1,-5]],[[1880,3441],[1,27]],[[1883,3468],[-1,-26]],[[1767,3154],[4,0],[0,-6],[-3,0],[-1,6]],[[1878,3478],[1,2],[1,-1],[0,-1]],[[1880,3478],[-2,0]],[[1364,3875],[-43,221]],[[1494,3723],[-98,103]],[[393,1899],[-89,-82],[-46,-5],[-69,-137],[-163,-51],[-26,-63]],[[405,1975],[-6,-69]],[[407,1976],[-2,-1]],[[405,1975],[1,1]],[[406,1978],[2,2]],[[408,1980],[-1,-2]],[[408,1980],[16,25]],[[425,2006],[-1,-1]],[[424,2005],[0,1]],[[426,2007],[1,1]],[[427,2008],[-1,-1]],[[427,2008],[46,11]],[[473,2019],[2,0]],[[475,2018],[-2,1]],[[475,2020],[1,1]],[[476,2021],[22,48],[124,98],[244,81]],[[476,2021],[0,-2]],[[867,2246],[57,53],[98,1],[249,249],[87,36],[76,-2]],[[1425,2614],[6,12]],[[1432,2628],[189,272],[55,177],[87,73]],[[1763,3150],[2,2]],[[1765,3150],[-2,0]],[[1799,3158],[-2,-1]],[[1798,3158],[2,1]],[[1855,3195],[3,1]],[[1858,3196],[-1,-1]],[[1858,3196],[42,37]],[[1901,3266],[-39,86]],[[1900,3233],[-1,1],[1,1]],[[1900,3235],[1,-1],[-1,-1]],[[1900,3235],[1,29]],[[1901,3264],[0,1],[0,1]],[[1901,3266],[1,-1],[-1,-1]],[[1877,314],[-93,60]],[[1786,374],[54,-25]],[[1942,255],[3,3]],[[1950,255],[-2,-4]],[[4096,1112],[-1291,-1047],[-373,5]],[[1941,3856],[40,-227],[-64,-132]],[[2262,3795],[-1,0]],[[717,4005],[-62,91]],[[655,4096],[63,-91]],[[871,3808],[-65,46],[-24,34],[-16,25],[-48,90]],[[719,4004],[20,-30],[25,-56],[3,-5],[23,-36],[81,-68]],[[871,3809],[2,0],[0,-2]],[[873,3807],[-2,0],[0,2]],[[873,3807],[57,-86],[46,-162],[-63,-291],[208,-326],[86,-100],[99,-65],[115,-145]],[[1422,2630],[36,-211],[82,-32],[41,-97],[-36,-218],[-123,-217],[16,-150],[47,-108],[72,-82],[232,-548]],[[1790,964],[-1,3]],[[1789,967],[2,-2]],[[2047,446],[-22,35]],[[2030,477],[21,-32]],[[719,4004],[-2,-1],[0,1],[1,1],[1,-1]],[[1422,2632],[1,-1],[-1,-1],[-1,1],[1,1]],[[1790,964],[1,1]],[[1791,965],[2,-1],[-1,-2],[-2,2]],[[1070,3637],[-155,188],[-46,21],[4,-37]],[[1271,3516],[439,-128]],[[1711,3387],[5,-1]],[[4096,66],[-1292,-17],[-372,21]],[[1784,374],[-13,5]],[[1771,382],[15,-8]],[[2427,77],[377,-32],[1292,17]],[[2374,73],[431,-20],[1291,186]],[[1906,3488],[47,52],[26,83],[-39,233]],[[2333,371],[22,56]],[[2352,415],[-18,-45]],[[4096,57],[-1292,-16],[-376,25],[-3,17]],[[2300,298],[3,17]],[[2018,220],[16,0]],[[1793,4096],[45,-105]],[[2473,147],[11,13]],[[2576,255],[-43,-41]],[[2263,3795],[0,-1],[0,1]],[[1840,349],[30,-27]],[[8,2287],[-8,13]],[[8,2287],[64,-84]],[[72,2203],[17,-18]],[[89,2185],[15,-23]],[[105,2161],[-1,1]],[[104,2162],[1,-1]],[[245,1941],[-75,88],[-64,130]],[[107,2160],[63,-131],[76,-87]],[[392,1900],[-79,0],[-66,39]],[[248,1940],[-2,-1],[-1,2]],[[245,1941],[2,1],[1,-2]],[[248,1940],[144,-39]],[[394,1902],[4,3]],[[399,1904],[-4,-3]],[[107,2160],[-2,0],[0,2],[2,-1],[0,-1]],[[395,1900],[-2,-1],[-1,2],[2,1]],[[394,1902],[1,-2]],[[401,1904],[-2,0],[0,2],[2,0],[0,-2]],[[59,701],[-10,3]],[[1958,4096],[46,-87]],[[2257,3785],[37,-29]],[[2448,3634],[79,-62]],[[2820,300],[-18,80]],[[1995,4043],[0,1]],[[1838,3991],[-25,-18],[22,-97],[-17,-3]],[[843,1516],[-23,-39],[-63,-8],[-258,84],[-97,-41],[-50,-62],[-127,-83],[-120,-16],[-105,15]],[[844,1517],[-1,-1]],[[843,1516],[1,2]],[[850,1523],[60,37],[40,14]],[[850,1523],[1,-1],[-1,-1],[-1,1],[1,1]],[[950,1573],[-99,-50]],[[951,1575],[1,0]],[[952,1575],[0,-1]],[[969,1594],[-17,-19]],[[970,1594],[54,21]],[[1025,1615],[92,95],[240,168],[165,-17],[282,84]],[[845,1519],[1,-1],[-1,-1],[-2,1],[2,1]],[[2350,108],[-22,27],[-35,84],[12,100]],[[2305,319]],[[2305,319],[1,3],[32,60],[-21,9]],[[2331,394],[19,-6],[-16,-18],[-19,-33],[-7,-13],[-3,-5]],[[2305,319]],[[2305,319],[-11,-100],[58,-109]],[[2121,3937],[30,-68],[54,-34]],[[0,727],[47,-23]],[[1690,0],[2,0]],[[2047,16],[-17,-3]],[[1902,126],[-122,12]],[[2212,165],[-52,33]],[[2362,74],[12,-1]],[[1938,254],[1,0]],[[1938,254],[-15,-4]],[[1945,255],[4,0]],[[2035,220]],[[2039,221],[30,-1]],[[2105,217],[55,-19]],[[2212,165],[36,-14]],[[59,701],[127,-53]],[[2204,3834],[-54,35],[-31,70]],[[2712,3483],[-44,-7]],[[2558,77],[-116,7]],[[4096,550],[-1291,-489],[-220,14]],[[1996,4047],[-1,4]],[[47,704],[2,0]],[[2041,4096],[45,-79]],[[1798,1931],[66,-27]],[[2585,75],[-27,2]],[[2263,3794],[1,-1]],[[2279,3782],[3,2]],[[2301,3792]],[[1504,133],[-20,4]],[[2084,4018],[-44,78]],[[2004,4009],[-63,-152]],[[1936,263],[-33,27]],[[2985,3607],[-1,-1]],[[2368,3970],[-73,-147]],[[1396,3826],[-32,49]],[[1494,3723],[98,-99]],[[2069,220],[36,-3]],[[2472,147],[1,0]],[[2484,160],[34,39]],[[2533,214],[-15,-15]],[[2537,229],[-1,1]],[[2662,286],[-86,-31]],[[2296,268],[8,46]],[[1804,1945],[39,10]],[[1845,1955],[-2,0]],[[1843,1955],[1,2]],[[1847,1954],[0,7],[3,-1],[0,-6],[-3,0]],[[1945,258],[5,-3]],[[2252,3799],[5,-4]],[[2262,3795],[-5,0]],[[2257,3795],[4,0]],[[2252,3799],[9,-4]],[[2279,3782],[-15,11]],[[2452,4096],[-53,-59]],[[2902,3630],[4,-2]],[[2261,3795]],[[1466,2608],[284,-6]],[[1750,2602],[3,0]],[[1753,2601],[-3,1]],[[1755,2603],[3,1],[0,-5],[-2,0],[-1,4]],[[1995,4043],[1,4]],[[1996,4042],[-2,-2],[-1,1],[1,2],[2,-1]],[[1941,3857],[0,-1]],[[1782,139],[50,-11]],[[1995,4051],[3,45]],[[2086,4017],[35,-80]],[[2581,73],[-20,2]],[[1664,115],[-31,20]],[[1780,138],[-86,-39]],[[2432,70],[371,-33],[79,-37]],[[2377,493],[21,43],[4,203],[18,100],[-7,47]],[[2413,886],[-20,118],[-14,88]],[[2379,1092],[-3,19],[9,154],[-41,75],[-71,148],[-32,50]],[[2241,1538],[-1,1],[-42,20]],[[2198,1559],[-139,66],[-40,24],[-3,3],[-45,61]],[[1971,1713],[-47,64],[-75,123]],[[1849,1900],[-2,3],[1,17],[-6,79]],[[1842,1999],[-1,9],[-32,65]],[[1809,2073],[-14,30],[44,220],[-76,244],[-6,27],[-3,64],[18,136],[27,136],[-14,91],[-6,86],[-65,182],[-3,29]],[[1711,3318],[-4,41]],[[1707,3359],[0,6],[12,27]],[[1719,3392],[17,36]],[[1736,3428],[3,7],[5,8],[42,28],[93,14]],[[1879,3485],[27,3]],[[1917,3497],[-38,-12]],[[1879,3485],[-135,-43],[-4,-6],[0,-2],[-4,-6]],[[1736,3428],[-9,-16],[-8,-20]],[[1719,3392],[-12,-33]],[[1707,3359],[-1,-3],[5,-38]],[[1711,3318],[4,-29],[65,-181],[21,-173],[-46,-276],[85,-336],[-44,-220],[13,-30]],[[1809,2073],[33,-74]],[[1842,1999],[5,-13],[1,-83],[1,-3]],[[1849,1900],[20,-52],[64,-85],[38,-50]],[[1971,1713],[46,-61],[27,-17],[154,-76]],[[2198,1559],[43,-21]],[[2241,1538],[5,-3],[28,-46],[112,-224],[-9,-150],[2,-23]],[[2379,1092],[3,-50],[1,-5],[30,-151]],[[2413,886],[9,-46],[-12,-264],[-13,-46],[-20,-38]],[[1771,379],[-75,40],[-92,178],[-220,253],[-14,41]],[[1370,891],[-4,12]],[[1366,903],[-1,2],[22,183],[-5,13]],[[1382,1101],[-82,189],[-12,7]],[[1288,1297],[-31,20]],[[1257,1317],[-6,4],[-10,0]],[[1241,1321],[-69,3],[-263,133],[-86,100],[-9,18]],[[814,1575],[-47,95],[-4,2]],[[763,1672],[-8,5],[-11,4],[-22,11],[-225,180],[-102,27]],[[401,1905],[92,-30],[269,-201],[1,-2]],[[763,1672],[51,-97]],[[814,1575],[10,-18],[86,-100],[202,-98],[5,-3],[124,-35]],[[1241,1321],[16,-4]],[[1257,1317],[26,-7],[5,-13]],[[1288,1297],[33,-71],[61,-125]],[[1382,1101],[6,-13],[-14,-162],[-8,-23]],[[1366,903],[4,-12]],[[1370,891],[17,-43],[70,-58],[153,-199],[84,-169],[77,-40]],[[2277,3794],[24,-2]],[[2282,3784],[1,8]],[[2301,3792],[-6,31]],[[3005,3620],[-20,-13]],[[2207,3830],[-2,2]],[[2207,3833],[-2,0],[-1,1],[2,1],[1,-2]],[[2207,3833],[0,-3]],[[2207,3830],[45,-31]],[[2261,3795],[2,0]],[[2263,3794],[-1,1]],[[1879,3470],[2,3],[3,-2],[-2,-3],[-3,2]],[[3387,4096],[0,-5],[-18,-103],[-25,-97],[-31,-79],[-53,-66],[-122,-63],[-90,-95],[-124,-94],[-38,-19],[-114,-9],[-46,9],[-51,37],[0,31],[58,28],[23,5],[-223,83],[-37,3],[-34,90],[-77,29],[-88,6],[-61,25],[-18,-34],[183,-178],[45,-24],[21,-15],[42,-70],[18,-16],[62,-6],[25,-9],[21,-15],[56,-82],[-11,-61],[-94,-112],[-51,-20],[-72,26],[-68,44],[-40,33],[-42,-7],[-204,88],[-153,21],[0,-37],[35,-24],[-18,-47],[-36,-65],[-20,-81],[-15,-146],[-2,-88],[17,-87],[65,-88],[98,-51],[215,-29],[0,-37],[-31,-88],[-3,-87],[29,-75],[65,-52],[-60,-68],[-15,-132],[8,-129],[13,-217],[14,-72],[19,-71],[21,-51],[28,-28],[44,-30],[32,-21],[50,-120],[80,-56],[87,-43],[59,-42],[23,-45],[21,-66],[6,-73],[-19,-68],[-49,-80],[-14,-32],[-6,-40],[-22,-41],[-34,-90],[-26,-37],[-22,50],[-51,8],[-59,-20],[-47,-38],[187,-91],[14,-54],[11,-58],[27,-35],[-10,-16],[-19,-36],[-11,-15],[48,-25],[120,-7],[53,-35],[-33,-89],[-37,-3],[-39,35],[-41,23],[-12,11],[-37,48],[-11,11],[-28,-6],[-51,-25],[-20,-5],[-170,-135],[-9,-54],[20,-41],[36,-39],[-2424,0],[0,4096],[3387,0]],[[1343,3844],[33,48],[47,-7],[35,168],[21,-9],[41,52],[439,0],[40,-53],[22,26],[26,-15],[110,-203],[-53,-30],[-26,-77],[-54,18],[-10,85],[-77,9],[8,-202],[-56,-21],[-24,-47],[-61,21],[-92,-33],[-37,79],[-68,21],[24,-50],[-39,0],[-91,83],[-41,96],[-117,41]],[[2057,4096],[50,-75],[-6,-8],[-59,83],[15,0]],[[2021,4096],[-27,-47],[-35,47],[33,-21],[-10,21],[39,0]],[[2431,0],[-744,0],[-13,14],[-39,93],[-117,21],[-43,-34],[-27,-80],[-26,12],[-1,75],[59,24],[32,109],[158,-57],[95,25],[6,196],[65,0],[123,56],[71,-1],[159,-59],[68,28],[32,140],[60,-13],[70,-141],[32,-10],[19,63],[78,-63],[27,37],[0,139],[48,-24],[52,-147],[-40,-67],[30,-16],[-3,-31],[-16,16],[-99,-36],[-170,-135],[-9,-54],[63,-80]],[[2701,837],[-153,-2],[10,74],[52,48],[171,58],[-80,-178]],[[1966,136],[21,54],[45,7],[87,-64],[25,-48],[-125,-6],[-53,57]],[[2472,147],[97,106],[94,32],[43,-16],[11,-73],[66,-52],[-215,-75],[-96,78]],[[2495,138],[14,-14],[60,69],[-19,-5],[-55,-50]],[[2563,202],[10,-12],[53,41],[-3,6],[-60,-35]],[[2112,449],[110,7],[18,81],[69,-15],[19,-27],[-37,-15],[34,-37],[-16,-15],[-197,21]],[[2102,3954],[42,-38],[48,3],[96,-54],[-43,154],[66,77],[1061,0],[-44,-141],[14,-64],[-28,-107],[-144,-112],[-29,-69],[-116,-46],[-65,-92],[-163,-94],[-227,184],[-95,37],[-37,58],[-9,81],[-56,31],[-98,-8],[-114,94],[-59,106]]]}