{"objects":{"water":{"type":"GeometryCollection","geometries":[{"type":"Polygon","properties":{"source":"naturalearthdata.com","kind":"ocean","area":1576712559132672,"sort_rank":200,"min_zoom":0.0,"id":1},"arcs":[[220]]},{"type":"LineString","properties":{"source":"naturalearthdata.com","kind":"ocean","sort_rank":205,"boundary":true,"min_zoom":0.0,"id":40},"arcs":[221]}]},"buildings":{"type":"GeometryCollection","geometries":[]},"places":{"type":"GeometryCollection","geometries":[{"type":"Point","properties":{"kind":"locality","name":"Tallaght","kind_detail":"town","name:ga":"Tamhlacht","source":"openstreetmap.org","min_zoom":8.0,"id":1420913325,"population":101055},"coordinates":[1936,3889]},{"type":"Point","properties":{"kind":"locality","name":"Clondalkin","kind_detail":"town","name:ga":"Cluain Dolc\u00e1in","source":"openstreetmap.org","min_zoom":8.0,"id":52269252,"population":45165},"coordinates":[1855,4053]},{"type":"Point","properties":{"kind":"locality","name:en":"Dunleary","name":"D\u00fan Laoghaire","kind_detail":"town","source":"openstreetmap.org","min_zoom":8.0,"old_name":"Kingstown","name:ru":"\u0414\u0443\u043d-\u041b\u044d\u0430\u0440\u0435","id":3563872395,"population":38761},"coordinates":[2608,3910]},{"type":"Point","properties":{"kind":"locality","name":"Bray","kind_detail":"town","name:ga":"Br\u00e9","name:sr":"\u0411\u0440\u0435\u0458","source":"openstreetmap.org","min_zoom":8.0,"name:ru":"\u0411\u0440\u0435\u0439","id":52241975,"population":25100},"coordinates":[2682,3471]},{"type":"Point","properties":{"kind":"locality","name":"Newbridge","kind_detail":"town","name:ga":"Droichead Nua","source":"openstreetmap.org","min_zoom":8.0,"id":52254526,"population":17127},"coordinates":[679,3368]},{"type":"Point","properties":{"kind":"locality","name":"Greystones","kind_detail":"town","name:ga":"Na Clocha Liatha","source":"openstreetmap.org","min_zoom":8.0,"name:ru":"\u0413\u0440\u0435\u0439\u0441\u0442\u043e\u043d\u0441","id":765382428,"population":17080},"coordinates":[2820,3198]},{"type":"Point","properties":{"kind":"locality","name":"Carlow","kind_detail":"town","name:ga":"Ceatharlach","source":"openstreetmap.org","min_zoom":8.0,"name:ru":"\u041a\u0430\u0440\u043b\u043e\u0443","id":52253632,"population":11300},"coordinates":[306,1729]},{"type":"Point","properties":{"kind":"locality","name":"Naas","kind_detail":"town","name:ga":"An N\u00e1s","source":"openstreetmap.org","min_zoom":8.0,"name:ru":"\u041d\u0435\u0439\u0441","id":1681533435,"population":11000},"coordinates":[1089,3568]},{"type":"Point","properties":{"kind":"locality","name":"Athy","kind_detail":"town","source":"openstreetmap.org","min_zoom":8.0,"name:ru":"\u0410\u0442\u0430\u0439","id":4100735094,"population":10490},"coordinates":[139,2461]},{"type":"Point","properties":{"kind":"locality","name":"Gorey","kind_detail":"town","name:ga":"Guaire","source":"openstreetmap.org","min_zoom":8.0,"name:ru":"\u0413\u043e\u0440\u0438","id":52270591,"population":9114},"coordinates":[2151,934]},{"type":"Point","properties":{"kind":"locality","name":"Kildare","kind_detail":"town","name:ga":"Cill Dara","source":"openstreetmap.org","min_zoom":8.0,"name:ru":"\u041a\u0438\u043b\u0434\u044d\u0440","id":52241483,"population":8142},"coordinates":[348,3256]},{"type":"Point","properties":{"kind":"locality","name":"Arklow","kind_detail":"town","name:ga":"An tInbhear M\u00f3r","name:sr":"\u0410\u0440\u043a\u043b\u043e\u0443","source":"openstreetmap.org","min_zoom":8.0,"name:ru":"\u0410\u0440\u043a\u043b\u043e\u0443","id":52218309,"population":8000},"coordinates":[2555,1523]},{"type":"Point","properties":{"kind":"locality","name":"Wicklow","kind_detail":"town","name:ga":"Cill Mhant\u00e1in","source":"openstreetmap.org","min_zoom":8.0,"name:ru":"\u0423\u0438\u043a\u043b\u043e\u0443","id":52261916,"population":6761},"coordinates":[2883,2403]},{"type":"Point","properties":{"kind":"locality","name":"Sallins","kind_detail":"town","name:ga":"Na Soll\u00e1in","source":"openstreetmap.org","min_zoom":8.0,"id":52231847,"population":5283},"coordinates":[1065,3701]},{"type":"Point","properties":{"kind":"locality","name":"Enniscorthy","kind_detail":"town","name:ga":"Inis C\u00f3rthaidh","source":"openstreetmap.org","min_zoom":8.0,"name:ru":"\u042d\u043d\u043d\u0438\u0441\u043a\u043e\u0440\u0442\u0438","id":52256336,"population":4100},"coordinates":[1351,89]},{"type":"Point","properties":{"kind":"locality","name":"Clane","kind_detail":"town","name:ga":"Claonadh","source":"openstreetmap.org","min_zoom":8.0,"id":52219003,"population":2500},"coordinates":[1005,3904]},{"type":"Point","properties":{"kind":"locality","name":"Bunclody","kind_detail":"town","name:ga":"Bun Cl\u00f3idi","source":"openstreetmap.org","min_zoom":8.0,"name:ru":"\u0411\u0430\u043d\u043a\u043b\u043e\u0434\u0438","id":52219278,"population":1863},"coordinates":[1104,832]},{"type":"Point","properties":{"kind":"locality","name":"Rathdrum","kind_detail":"town","name:ga":"R\u00e1th Droma","source":"openstreetmap.org","min_zoom":8.0,"name:ru":"\u0420\u0430\u0442\u0440\u0434\u0440\u0430\u043c","id":52245510,"population":1586},"coordinates":[2330,2168]},{"type":"Point","properties":{"kind":"locality","name":"Aughrim","kind_detail":"town","name:ga":"Eachroim","source":"openstreetmap.org","min_zoom":8.0,"name:ru":"\u041e\u0445\u0440\u0438\u043c","id":52252984,"population":1364},"coordinates":[2045,1798]},{"type":"Point","properties":{"kind":"locality","name":"Tinahely","kind_detail":"town","name:ga":"Tigh na h\u00c9ille","source":"openstreetmap.org","min_zoom":8.0,"id":52261386,"population":970},"coordinates":[1654,1530]},{"type":"Point","properties":{"kind":"locality","name":"Ferns","kind_detail":"town","name:ga":"Fearna","source":"openstreetmap.org","min_zoom":8.0,"name:ru":"\u0424\u0435\u0440\u043d\u0441","id":52218993,"population":900},"coordinates":[1561,517]}]},"transit":{"type":"GeometryCollection","geometries":[{"type":"MultiLineString","properties":{"osm_relation":true,"source":"openstreetmap.org","kind":"train","name":"Dublin Area Rapid Transit (DART) - Howth - Greystones","sort_rank":275,"min_zoom":6.0,"operator":"Irish Rail"},"arcs":[[1],[2],[3]]},{"type":"MultiLineString","properties":{"kind":"train","network":"InterCity","sort_rank":275,"source":"openstreetmap.org","min_zoom":6.0,"operator":"Irish Rail","osm_relation":true,"name":"Dublin \u2013 Waterford"},"arcs":[[4],[5],[6]]},{"type":"LineString","properties":{"kind":"train","name":"Dublin Area Rapid Transit (DART) - Greystones - Malahide","sort_rank":275,"source":"openstreetmap.org","min_zoom":6.0,"operator":"Irish Rail","id":-6979125,"osm_relation":true},"arcs":[7]},{"type":"MultiLineString","properties":{"osm_relation":true,"source":"openstreetmap.org","kind":"train","name":"Dublin Area Rapid Transit (DART) - Malahide - Greystones","sort_rank":275,"min_zoom":6.0,"operator":"Irish Rail"},"arcs":[[8],[9],[10]]},{"type":"LineString","properties":{"kind":"train","name":"Dublin Area Rapid Transit (DART) - Greystones - Howth","sort_rank":275,"source":"openstreetmap.org","min_zoom":6.0,"operator":"Irish Rail","id":-6979126,"osm_relation":true},"arcs":[11]},{"type":"MultiLineString","properties":{"kind":"train","name":"Irish Rail Dublin - Rosslare Intercity","sort_rank":275,"source":"openstreetmap.org","min_zoom":6.0,"operator":"Irish Rail","ref":"Intercity (Rosslare)","osm_relation":true},"arcs":[[12],[13],[14],[15],[16],[17],[18],[19],[20],[21],[22],[23],[24],[25],[26],[27],[28],[29],[30],[31]]},{"type":"MultiLineString","properties":{"osm_relation":true,"source":"openstreetmap.org","kind":"train","name":"Dublin \u2013 Cork","sort_rank":275,"min_zoom":6.0,"operator":"Irish Rail"},"arcs":[[32],[33],[34],[35],[36],[37],[38],[39],[40],[41],[42],[43],[44],[45],[46],[47],[48],[49],[50],[51],[52],[53],[54],[55],[56],[57],[58],[59],[60],[61],[62],[63],[64],[65],[66],[67],[68],[69],[70],[71],[72],[73],[74],[75],[76],[77],[78],[79],[80],[81],[82],[83],[84],[85],[86],[87],[88],[89],[90],[91],[92],[93],[94],[95],[96],[97],[98],[99],[100],[101],[102],[103],[104],[105],[106],[107],[108],[109],[110],[111],[112],[113],[114],[115],[116],[117],[118],[119],[120],[121],[122],[123],[124],[125],[126],[127],[128],[129],[130],[131],[132],[133],[134],[135],[136],[137],[138],[139],[140],[141],[142],[143],[144],[145],[146],[147],[148],[149],[150],[151],[152],[153],[154],[155],[156],[157],[158],[159],[160],[161],[162],[163],[164],[165],[166],[167],[168],[169],[170],[171],[172],[173],[174],[175],[176],[177],[178],[179],[180],[181],[182],[183],[184],[185],[186],[187],[188],[189],[190],[191],[192],[193],[194],[195],[196]]},{"type":"MultiLineString","properties":{"osm_relation":true,"source":"openstreetmap.org","kind":"train","name":"Dublin \u2013 Galway","sort_rank":275,"min_zoom":6.0,"operator":"Irish Rail"},"arcs":[[197],[198],[199],[200],[201]]},{"type":"MultiLineString","properties":{"kind":"train","name":"Southwestern Commuter","sort_rank":275,"source":"openstreetmap.org","min_zoom":6.0,"operator":"Irish Rail","ref":"Southeastern Commuter","osm_relation":true},"arcs":[[202],[203]]},{"type":"MultiLineString","properties":{"osm_relation":true,"source":"openstreetmap.org","kind":"train","name":"Dublin Area Rapid Transit (DART)","sort_rank":275,"min_zoom":6.0,"operator":"Irish Rail"},"arcs":[[204],[205],[206],[207],[208],[209],[210],[211],[212],[213],[214],[215],[216],[217],[218],[219]]}]},"pois":{"type":"GeometryCollection","geometries":[{"type":"Point","properties":{"kind":"military","name":"Glen of Imaal Artillery Range","area":72453600,"source":"openstreetmap.org","min_zoom":8.0,"tier":3,"id":-4461045,"osm_relation":true},"coordinates":[1537,2463]},{"type":"Point","properties":{"kind":"military","name":"Kilbride Camp","area":17606200,"source":"openstreetmap.org","min_zoom":8.0,"tier":3,"id":-1410204,"osm_relation":true},"coordinates":[1869,3470]}]},"boundaries":{"type":"GeometryCollection","geometries":[{"type":"LineString","properties":{"name:ka":"\u10d8\u10e0\u10da\u10d0\u10dc\u10d3\u10d8\u10d0","name:ko":"\uc544\uc77c\ub79c\ub4dc","name:cv":"\u0418\u0440\u043b\u0430\u043d\u0434\u0438 \u0420\u0435\u0441\u043f\u0443\u0431\u043b\u0438\u043a\u0438","name:cu":"\u0404\u0438\u0440\u044c","name:kl":"Irlandi","name:cs":"Irsko","name:ki":"Ayalandi","name:co":"Irlanda","name:kv":"\u0418\u0440\u043b\u0430\u043d\u0434\u0438\u044f","name:ku":"\u00cerland","name:ti":"\u12a0\u12e8\u122d\u120b\u1295\u12f5","name:ks":"\u0627\u064e\u06cc\u064e\u0631\u0644\u06cc\u0646\u065b\u0691","name:to":"\u02bbAealani","name:tl":"Irlanda","name:ce":"\u0418\u0440\u043b\u0430\u043d\u0434\u0438","name:ta":"\u0b85\u0baf\u0bb0\u0bcd\u0bb2\u0bbe\u0ba8\u0bcd\u0ba4\u0bc1","name:tg":"\u04b6\u0443\u043c\u04b3\u0443\u0440\u0438\u0438 \u0418\u0440\u043b\u0430\u043d\u0434\u0438\u044f","name:ca":"Irlanda","name:te":"\u0c10\u0c30\u0c4d \u0c32\u0c3e\u0c02\u0c21\u0c4d","name:cy":"Iwerddon","name:qu":"Ilanda","name:da":"Irland","name:de":"Irland","name:dz":"\u0f68\u0f71\u0f0b\u0f61\u0f0b\u0f63\u0f7a\u0f53\u0f4c","source":"openstreetmap.org","name:kn":"\u0c90\u0cb0\u0ccd\u0cb2\u0cc6\u0c82\u0ca1\u0ccd","name:dv":"\u0787\u07a6\u0794\u07a6\u078d\u07ad\u0782\u07b0\u0791\u07aa\u078e\u07ac \u0796\u07aa\u0789\u07b0\u0780\u07ab\u0783\u07a8\u0787\u07b0\u0794\u07a7","name:km":"\u17a2\u17c0\u179a\u17a1\u1784\u17cb","name:lv":"\u012arija","name:lt":"Airija","name:uz":"Irlandiya","name:kk":"\u0418\u0440\u043b\u0430\u043d\u0434\u0438\u044f","name:ur":"\u0622\u0626\u0631\u0644\u06cc\u0646\u0688","name:lb":"Irland","name:la":"Hibernia","name:lg":"Ayalandi","name:uk":"\u0406\u0440\u043b\u0430\u043d\u0434\u0456\u044f","name:li":"Ierland","name:ln":"Ireland\u025b","name:lo":"\u0ec4\u0ead\u0ec1\u0ea5\u0e99","name:kw":"Repoblek Wordhen","name:eo":"Irlando","name":"Ireland","name:tk":"Irlandi\u00fda","name:ee":"Ireland nutome","name:th":"\u0e2a\u0e32\u0e18\u0e32\u0e23\u0e13\u0e23\u0e31\u0e10\u0e44\u0e2d\u0e23\u0e4c\u0e41\u0e25\u0e19\u0e14\u0e4c","name:eu":"Irlanda","name:et":"Iirimaa","name:es":"Irlanda","name:ay":"Irlandiya","name:rm":"Irlanda","name:rn":"Irilandi","name:az":"\u0130rlandiya","name:ie":"Irland","name:id":"Irlandia","name:el":"\u0399\u03c1\u03bb\u03b1\u03bd\u03b4\u03af\u03b1","name:ar":"\u0623\u064a\u0631\u0644\u0646\u062f\u0627","name:io":"Irlando","name:ak":"Aereland","name:am":"\u12a0\u12e8\u122d\u120b\u1295\u12f5","name:it":"Irlanda","name:an":"Irlanda","name:ru":"\u0418\u0440\u043b\u0430\u043d\u0434\u0438\u044f","name:rw":"Irilande","name:af":"Ierland","name:zu":"i-Ireland","old_name:ku":"Komara \u00cerland\u00ea","kind_detail":"2","name:za":"Aiwjlanz Gunghozgoz","name:zh-yue":"\u611b\u723e\u862d\u5171\u548c\u570b","name:zh":"\u611b\u723e\u862d","name:so":"Ayrlaand","name:sl":"Irska","name:sk":"\u00cdrsko","name:ja":"\u30a2\u30a4\u30eb\u30e9\u30f3\u30c9","name:si":"\u0d85\u0dba\u0dbb\u0dca\u0dbd\u0db1\u0dca\u0dad\u0dba","name:sh":"Irska","name:sg":"Irl\u00e2nde","name:se":"Irl\u00e1nda","name:sc":"Irlanda","name:br":"Iwerzhon","name:bs":"Irska","name:bm":"Irilandi","name:bn":"\u0986\u09af\u09bc\u09be\u09b0\u09cd\u09b2\u09a3\u09cd\u09a1","name:bo":"\u0f68\u0f0b\u0f61\u0f62\u0f0b\u0f63\u0f53\u0f4c\u0f0d","name:sw":"Ayalandi","name:be":"\u0406\u0440\u043b\u0430\u043d\u0434\u044b\u044f","name:bg":"\u0418\u0440\u043b\u0430\u043d\u0434\u0438\u044f","name:ss":"IYalendi","name:ba":"\u0418\u0440\u043b\u0430\u043d\u0434\u0438\u044f","name:sq":"Irland\u00eb","name:jv":"Republik Irlandia","name:ia":"Irlanda","name:pt":"Irlanda","name:ps":"\u062f \u0622\u064a\u0631\u0644\u06d0\u0646\u0689 \u062c\u0645\u0647\u0648\u0631\u064a\u062a","name:oc":"Republica d'Irlanda","min_zoom":8.0,"name:ro":"Irlanda","name:zh-min-nan":"\u00c9ire","name:os":"\u0418\u0440\u043b\u0430\u043d\u0434\u0438","name:or":"\u0b06\u0b5f\u0b30\u0b32\u0b4d\u0b5f\u0b3e\u0b23\u0b4d\u0b21","name:pl":"Irlandia","sort_rank":262,"name:sr":"\u0418\u0440\u0441\u043a\u0430","osm_relation":true,"name:tr":"\u0130rlanda","name:hi":"\u0906\u092f\u0930\u0932\u0948\u0902\u0921","name:sv":"Irland","name:he":"\u05d0\u05d9\u05e8\u05dc\u05e0\u05d3","name:ha":"Ayalan","name:hy":"\u053b\u057c\u056c\u0561\u0576\u0564\u056b\u0561","name:ht":"Ilann","name:hu":"\u00cdrorsz\u00e1g","name:hr":"Irska","kind":"country","name:is":"\u00cdrland","name:yi":"\u05d0\u05d9\u05e8\u05dc\u05d0\u05e0\u05d3","name:yo":"Or\u00edl\u1eb9\u0301\u00e8de Ailandi","name:mt":"Irlanda","name:mr":"\u0906\u092f\u0930\u094d\u0932\u0902\u0921","name:my":"\u1021\u102d\u102f\u1004\u103a\u101a\u102c\u101c\u1014\u103a","official_name":"\u00c9ire","name:mg":"Irlandy","name:ml":"\u0d05\u0d2f\u0d7c\u0d32\u0d3e\u0d7b\u0d21\u0d4d","name:mn":"\u0418\u0440\u043b\u0430\u043d\u0434","name:mi":"Airangi","id":-62273,"name:mk":"\u0418\u0440\u0441\u043a\u0430","name:vo":"Lirey\u00e4n","name:fa":"\u0627\u06cc\u0631\u0644\u0646\u062f","name:ff":"Irlannda","name:fi":"Irlanti","name:ky":"\u0418\u0440\u043b\u0430\u043d\u0434\u0438\u044f","old_name:vi":"\u00c1i Nh\u0129 Lan","name:fo":"\u00cdrland","alt_name:vi":"Ai-len","name:fr":"Irlande","name:fy":"Ierl\u00e2n","name:nl":"Ierland","name:nn":"Irland","name:no":"Irland","name:na":"Ripubrikit Airerand","name:ne":"\u0906\u0907\u0930\u0932\u094d\u092f\u093e\u0923\u094d\u0921","name:wa":"Irlande","name:nv":"Bitsiigha\u02bc \u0141ich\u00ed\u00ed\u02bc\u00ed Bik\u00e9yah","name:ga":"\u00c9ire","name:gd":"\u00c8irinn","name:gn":"Ilandia","name:gl":"Irlanda","maritime_boundary":true,"name:gv":"Nerin","name:gu":"\u0a86\u0aaf\u0ab0\u0acd\u0ab2\u0ac7\u0a82\u0aa1","name:tt":"\u0418\u0440\u043b\u0430\u043d\u0434\u0438\u044f"},"arcs":[0]}]},"roads":{"type":"GeometryCollection","geometries":[{"type":"LineString","properties":{"source":"openstreetmap.org","kind":"major_road","sort_rank":380,"kind_detail":"primary","name:ga":"Timpeall\u00e1n Che\u00e1rta de Bh\u00e1l","min_zoom":8.0,"id":387028335},"arcs":[222]},{"type":"MultiLineString","properties":{"sort_rank":380,"kind_detail":"primary","min_zoom":8.0,"kind":"major_road","source":"openstreetmap.org"},"arcs":[[223],[224],[225],[226]]},{"type":"LineString","properties":{"kind":"major_road","sort_rank":381,"kind_detail":"trunk","name:ga":"Ard\u00e1n an Longfoirt","source":"openstreetmap.org","min_zoom":8.0,"landuse_kind":"urban_area","ref":"N31","id":47250030},"arcs":[227]},{"type":"MultiLineString","properties":{"kind":"highway","network":"e-road","sort_rank":383,"kind_detail":"motorway","source":"openstreetmap.org","min_zoom":8.0,"all_networks":["e-road",null],"shield_text":"20","ref":"M7","all_shield_texts":["20","7"]},"arcs":[[228],[229],[230],[231],[232],[233],[234],[235]]},{"type":"MultiLineString","properties":{"source":"openstreetmap.org","kind":"major_road","sort_rank":380,"kind_detail":"primary","ref":"N78","min_zoom":8.0},"arcs":[[236],[237],[238],[239],[240],[241],[242],[243],[244],[245],[246],[247],[248],[249],[250],[251],[252],[253],[254]]},{"type":"LineString","properties":{"bus_network":null,"sort_rank":381,"landuse_kind":"urban_area","name:ga":"Ascaill Chnoc Mhuirfean","source":"openstreetmap.org","min_zoom":8.0,"bus_shield_text":"702","kind_detail":"trunk","ref":"N31","kind":"major_road"},"arcs":[255]},{"type":"LineString","properties":{"source":"openstreetmap.org","name:ga":"B\u00f3thar Dr. Cuilleann","sort_rank":380,"kind_detail":"primary","min_zoom":8.0,"ref":"N80","kind":"major_road"},"arcs":[256]},{"type":"LineString","properties":{"bus_network":"Dublin Bus","sort_rank":381,"landuse_kind":"urban_area","is_bicycle_related":true,"name:ga":"B\u00f3thar An Teampall","cycleway":"lane","source":"openstreetmap.org","min_zoom":8.0,"bus_shield_text":"84n","kind_detail":"trunk","ref":"N31","kind":"major_road"},"arcs":[257]},{"type":"LineString","properties":{"source":"openstreetmap.org","kind":"major_road","kind_detail":"trunk","sort_rank":381,"landuse_kind":"urban_area","ref":"N31","min_zoom":8.0},"arcs":[258]},{"type":"MultiLineString","properties":{"bus_network":null,"network":"e-road","sort_rank":381,"kind_detail":"trunk","kind":"major_road","source":"openstreetmap.org","min_zoom":8.0,"bus_shield_text":"M7 Express","shield_text":"20","landuse_kind":"urban_area","ref":"N7"},"arcs":[[259],[260]]},{"type":"LineString","properties":{"kind":"major_road","network":"e-road","sort_rank":381,"kind_detail":"trunk","is_bicycle_related":true,"bus_network":"J.J. Kavanagh & Sons","source":"openstreetmap.org","min_zoom":8.0,"bus_shield_text":null,"shield_text":"20","ref":"N7"},"arcs":[261]},{"type":"LineString","properties":{"kind":"major_road","sort_rank":381,"kind_detail":"trunk","name:ga":"B\u00f3thar Crofton","bus_network":"Dublin Bus","source":"openstreetmap.org","min_zoom":8.0,"bus_shield_text":"46A","landuse_kind":"urban_area","ref":"N31","id":49423395},"arcs":[262]},{"type":"MultiLineString","properties":{"kind":"path","sort_rank":354,"kind_detail":"cycleway","is_bicycle_related":true,"bicycle_shield_text":"GCG","bicycle_network":"ncn","source":"openstreetmap.org","min_zoom":8.0,"landuse_kind":"urban_area"},"arcs":[[263],[264]]},{"type":"LineString","properties":{"source":"openstreetmap.org","kind":"major_road","sort_rank":380,"kind_detail":"primary","name:ga":"Timpeall\u00e1n Bh\u00f3thar na Tula\u00ed","min_zoom":8.0,"id":2789074},"arcs":[265]},{"type":"LineString","properties":{"name:ga":"Ascaill Rinne Na Mara","sort_rank":381,"landuse_kind":"urban_area","kind":"major_road","source":"openstreetmap.org","min_zoom":8.0,"kind_detail":"trunk","ref":"N31"},"arcs":[266]},{"type":"MultiLineString","properties":{"source":"openstreetmap.org","kind":"major_road","sort_rank":381,"kind_detail":"trunk","ref":"N11","min_zoom":8.0},"arcs":[[267],[268]]},{"type":"LineString","properties":{"kind":"path","sort_rank":354,"landuse_kind":"urban_area","is_bicycle_related":true,"bicycle_shield_text":"GCG","bicycle_network":"ncn","source":"openstreetmap.org","min_zoom":8.0,"kind_detail":"footway"},"arcs":[269]},{"type":"LineString","properties":{"source":"openstreetmap.org","kind":"ferry","name":"Dublin Bay Ferry (March - Oct)","sort_rank":355,"min_zoom":8.0,"id":233561682},"arcs":[270]},{"type":"MultiLineString","properties":{"name:ga":"B\u00f3thar Stigh Lorgan","sort_rank":381,"kind_detail":"trunk","is_bicycle_related":true,"bus_network":"Dublin Bus","cycleway":"track","source":"openstreetmap.org","min_zoom":8.0,"bus_shield_text":"46A","landuse_kind":"urban_area","ref":"N11","kind":"major_road"},"arcs":[[271],[272]]},{"type":"LineString","properties":{"kind":"major_road","sort_rank":381,"kind_detail":"trunk","is_bicycle_related":true,"name:ga":"B\u00f3thar Frascati","cycleway":"lane","bus_network":"Dublin Bus","source":"openstreetmap.org","min_zoom":8.0,"bus_shield_text":"84n","landuse_kind":"urban_area","ref":"N31","id":81266469},"arcs":[273]},{"type":"LineString","properties":{"kind":"major_road","sort_rank":380,"kind_detail":"primary","name:ga":"Droichead Crom Ab\u00fa","source":"openstreetmap.org","min_zoom":8.0,"ref":"N78","id":23454591},"arcs":[274]},{"type":"MultiLineString","properties":{"kind":"highway","network":"e-road","sort_rank":383,"landuse_kind":"urban_area","source":"openstreetmap.org","min_zoom":8.0,"all_networks":["e-road","e-road",null],"kind_detail":"motorway","shield_text":"01","ref":"M50","all_shield_texts":["01","20","50"]},"arcs":[[275],[276]]},{"type":"LineString","properties":{"bus_network":"Dublin Bus","sort_rank":381,"landuse_kind":"urban_area","is_bicycle_related":true,"name:ga":"B\u00f3thar Frescati","cycleway":"lane","source":"openstreetmap.org","min_zoom":8.0,"bus_shield_text":"84n","kind_detail":"trunk","ref":"N31","kind":"major_road"},"arcs":[277]},{"type":"LineString","properties":{"kind":"major_road","sort_rank":381,"kind_detail":"trunk","is_bicycle_related":true,"name:ga":"B\u00f3thar Frescati","cycleway":"lane","bus_network":"Dublin Bus","source":"openstreetmap.org","min_zoom":8.0,"bus_shield_text":"7A","landuse_kind":"urban_area","ref":"N31","id":165392632},"arcs":[278]},{"type":"LineString","properties":{"bus_network":null,"network":"e-road","sort_rank":381,"kind_detail":"trunk","kind":"major_road","source":"openstreetmap.org","min_zoom":8.0,"bus_shield_text":"M7 Express","shield_text":"20","ref":"N7"},"arcs":[279]},{"type":"LineString","properties":{"kind":"major_road","sort_rank":381,"kind_detail":"trunk","bus_network":"Dublin Bus","source":"openstreetmap.org","min_zoom":8.0,"bus_shield_text":"84n","landuse_kind":"urban_area","ref":"N11","id":158744040},"arcs":[280]},{"type":"LineString","properties":{"bus_network":"Dublin Bus","cycleway_left":"lane","sort_rank":381,"kind_detail":"trunk","is_bicycle_related":true,"kind":"major_road","source":"openstreetmap.org","min_zoom":8.0,"bus_shield_text":"46A","landuse_kind":"urban_area","ref":"N11"},"arcs":[281]},{"type":"LineString","properties":{"bus_network":null,"sort_rank":381,"kind_detail":"trunk","is_bicycle_related":true,"name:ga":"B\u00f3thar Bhr\u00e9","cycleway":"track","source":"openstreetmap.org","min_zoom":8.0,"bus_shield_text":"145","ref":"N11","kind":"major_road"},"arcs":[282]},{"type":"LineString","properties":{"sort_rank":381,"source":"openstreetmap.org","min_zoom":8.0,"kind":"major_road","kind_detail":"trunk"},"arcs":[283]},{"type":"LineString","properties":{"bus_network":"Dublin Bus","sort_rank":381,"landuse_kind":"urban_area","is_bicycle_related":true,"name:ga":"Ascaill Chnoc Mhuirfean","cycleway":"lane","source":"openstreetmap.org","min_zoom":8.0,"bus_shield_text":"17","kind_detail":"trunk","ref":"N31","kind":"major_road"},"arcs":[284]},{"type":"MultiLineString","properties":{"bus_network":"Dublin Bus","sort_rank":380,"kind_detail":"primary","name:ga":"B\u00f3thar Bhaile Coim\u00edn","source":"openstreetmap.org","min_zoom":8.0,"bus_shield_text":"27","landuse_kind":"urban_area","ref":"N81","kind":"major_road"},"arcs":[[285],[286]]},{"type":"LineString","properties":{"source":"openstreetmap.org","name:ga":"Sr\u00e1id Laighean","sort_rank":380,"kind_detail":"primary","min_zoom":8.0,"ref":"N78","kind":"major_road"},"arcs":[287]},{"type":"LineString","properties":{"bus_network":null,"sort_rank":381,"landuse_kind":"urban_area","name:ga":"B\u00f3thar Bhr\u00e9","source":"openstreetmap.org","min_zoom":8.0,"bus_shield_text":"145","kind_detail":"trunk","ref":"N11","kind":"major_road"},"arcs":[288]},{"type":"MultiLineString","properties":{"kind":"major_road","network":"e-road","sort_rank":381,"landuse_kind":"urban_area","source":"openstreetmap.org","min_zoom":8.0,"kind_detail":"trunk","shield_text":"20","ref":"N7"},"arcs":[[289],[290]]},{"type":"MultiLineString","properties":{"source":"openstreetmap.org","kind":"major_road","kind_detail":"trunk","sort_rank":381,"landuse_kind":"urban_area","ref":"N11","min_zoom":8.0},"arcs":[[291],[292]]},{"type":"LineString","properties":{"name:ga":"B\u00f3thar Crofton","sort_rank":381,"kind_detail":"trunk","bus_network":"Dublin Bus","source":"openstreetmap.org","min_zoom":8.0,"bus_shield_text":"46A","ref":"N31","kind":"major_road"},"arcs":[293]},{"type":"MultiLineString","properties":{"bus_network":"Dublin Bus","sort_rank":381,"landuse_kind":"urban_area","name:ga":"B\u00f3thar Frescati","source":"openstreetmap.org","min_zoom":8.0,"bus_shield_text":"7A","kind_detail":"trunk","ref":"N31","kind":"major_road"},"arcs":[[294],[295]]},{"type":"LineString","properties":{"name:ga":"Droichead Inis Corthaidh","network":"e-road","sort_rank":381,"kind_detail":"trunk","is_bicycle_related":true,"kind":"major_road","source":"openstreetmap.org","min_zoom":8.0,"shield_text":"01","ref":"N11","id":4878882},"arcs":[296]},{"type":"LineString","properties":{"source":"openstreetmap.org","kind":"major_road","sort_rank":380,"kind_detail":"primary","min_zoom":8.0,"ref":"N78","name:ga":"Droichead Augustus"},"arcs":[297]},{"type":"MultiLineString","properties":{"bus_network":null,"sort_rank":381,"kind_detail":"trunk","is_bicycle_related":true,"name:ga":"B\u00f3thar Bhr\u00e9","cycleway":"lane","source":"openstreetmap.org","min_zoom":8.0,"bus_shield_text":"145","landuse_kind":"urban_area","ref":"N11","kind":"major_road"},"arcs":[[298],[299]]},{"type":"MultiLineString","properties":{"kind":"highway","network":"e-road","sort_rank":383,"kind_detail":"motorway","source":"openstreetmap.org","min_zoom":8.0,"all_networks":["e-road",null],"shield_text":"01","ref":"M11","all_shield_texts":["01","11"]},"arcs":[[300],[301],[302],[303],[304],[305],[306],[307],[308],[309],[310],[311],[312],[313],[314],[315],[316],[317],[318],[319],[320],[321],[322],[323],[324],[325]]},{"type":"MultiLineString","properties":{"name:ga":"B\u00f3thar Bhaile Na Lobhar","cycleway_left":"lane","sort_rank":381,"landuse_kind":"urban_area","is_bicycle_related":true,"bus_network":null,"source":"openstreetmap.org","min_zoom":8.0,"bus_shield_text":"47","kind_detail":"trunk","ref":"N31","kind":"major_road"},"arcs":[[326],[327],[328],[329]]},{"type":"MultiLineString","properties":{"source":"openstreetmap.org","kind":"major_road","landuse_kind":"urban_area","sort_rank":380,"kind_detail":"primary","ref":"N81","min_zoom":8.0},"arcs":[[330],[331],[332],[333],[334],[335],[336],[337]]},{"type":"LineString","properties":{"bus_network":"Dublin Bus","sort_rank":381,"landuse_kind":"urban_area","is_bicycle_related":true,"name:ga":"Ascaill Chnoc Mhuirfean","cycleway":"track","source":"openstreetmap.org","min_zoom":8.0,"bus_shield_text":"17","kind_detail":"trunk","ref":"N31","kind":"major_road"},"arcs":[338]},{"type":"LineString","properties":{"kind":"major_road","sort_rank":380,"kind_detail":"primary","name:ga":"Timpeall\u00e1n Bh\u00f3thair Bhaile \u00c1tha \u00cd","source":"openstreetmap.org","min_zoom":8.0,"ref":"N80","id":2789070},"arcs":[339]},{"type":"MultiLineString","properties":{"source":"openstreetmap.org","kind":"major_road","sort_rank":380,"kind_detail":"primary","ref":"N81","min_zoom":8.0},"arcs":[[340],[341],[342],[343],[344],[345],[346]]},{"type":"MultiLineString","properties":{"name:ga":"B\u00f3thar Bhaile Coim\u00edn","sort_rank":380,"kind_detail":"primary","kind":"major_road","source":"openstreetmap.org","min_zoom":8.0,"landuse_kind":"urban_area","ref":"N81"},"arcs":[[347],[348],[349],[350]]},{"type":"LineString","properties":{"kind":"major_road","sort_rank":381,"kind_detail":"trunk","is_bicycle_related":true,"name:ga":"B\u00f3thar Frascati","cycleway":"lane","bus_network":"Dublin Bus","source":"openstreetmap.org","min_zoom":8.0,"bus_shield_text":"4","landuse_kind":"urban_area","ref":"N31","id":165381870},"arcs":[351]},{"type":"LineString","properties":{"kind":"major_road","cycleway_left":"lane","sort_rank":381,"kind_detail":"trunk","is_bicycle_related":true,"bus_network":null,"source":"openstreetmap.org","min_zoom":8.0,"bus_shield_text":"47","landuse_kind":"urban_area","ref":"N31","id":396019567},"arcs":[352]},{"type":"LineString","properties":{"kind":"major_road","sort_rank":380,"kind_detail":"primary","name:ga":"Timpeall\u00e1n Bh\u00f3thair Bhaile Haic\u00e9id","source":"openstreetmap.org","min_zoom":8.0,"ref":"N80","id":2789073},"arcs":[353]},{"type":"LineString","properties":{"kind":"major_road","cycleway_left":"lane","sort_rank":381,"landuse_kind":"urban_area","is_bicycle_related":true,"source":"openstreetmap.org","min_zoom":8.0,"kind_detail":"trunk","ref":"N31"},"arcs":[354]},{"type":"LineString","properties":{"kind":"major_road","network":"e-road","sort_rank":381,"kind_detail":"trunk","is_bicycle_related":true,"name:ga":"C\u00e9 na Sionainne","source":"openstreetmap.org","min_zoom":8.0,"shield_text":"01","ref":"N11","id":4878770},"arcs":[355]},{"type":"LineString","properties":{"kind":"major_road","sort_rank":381,"kind_detail":"trunk","is_bicycle_related":true,"name:ga":"B\u00f3thar An Teampall","cycleway":"lane","bus_network":"Dublin Bus","source":"openstreetmap.org","min_zoom":8.0,"bus_shield_text":"4","landuse_kind":"urban_area","ref":"N31","id":19829903},"arcs":[356]},{"type":"MultiLineString","properties":{"bus_network":"J.J. Kavanagh & Sons","network":"e-road","sort_rank":381,"kind_detail":"trunk","kind":"major_road","source":"openstreetmap.org","min_zoom":8.0,"bus_shield_text":null,"shield_text":"20","landuse_kind":"urban_area","ref":"N7"},"arcs":[[357],[358]]},{"type":"MultiLineString","properties":{"kind":"minor_road","sort_rank":358,"kind_detail":"service","is_bicycle_related":true,"bicycle_shield_text":null,"bicycle_network":"ncn","source":"openstreetmap.org","min_zoom":8.0},"arcs":[[359],[360]]},{"type":"LineString","properties":{"kind":"major_road","network":"e-road","sort_rank":381,"kind_detail":"trunk","is_bicycle_related":true,"name:ga":"C\u00e9 na Sl\u00e1ine","source":"openstreetmap.org","min_zoom":8.0,"shield_text":"01","ref":"N11","id":300937642},"arcs":[361]},{"type":"MultiLineString","properties":{"source":"openstreetmap.org","kind":"major_road","sort_rank":380,"kind_detail":"primary","ref":"N80","min_zoom":8.0},"arcs":[[362],[363],[364],[365],[366],[367],[368],[369],[370],[371],[372],[373],[374],[375],[376],[377],[378],[379],[380],[381],[382],[383],[384],[385],[386],[387],[388],[389],[390],[391],[392],[393],[394],[395],[396],[397],[398],[399],[400],[401],[402]]},{"type":"LineString","properties":{"kind":"major_road","sort_rank":380,"kind_detail":"primary","name:ga":"Cearn\u00f3g na Mhargaidh","source":"openstreetmap.org","min_zoom":8.0,"ref":"N81","id":385181330},"arcs":[403]},{"type":"LineString","properties":{"source":"openstreetmap.org","kind":"major_road","sort_rank":380,"kind_detail":"primary","min_zoom":8.0,"ref":"N78","name:ga":"Sr\u00e1id Liam Uachtarach"},"arcs":[404]},{"type":"MultiLineString","properties":{"bus_network":null,"network":"e-road","sort_rank":381,"kind_detail":"trunk","kind":"major_road","source":"openstreetmap.org","min_zoom":8.0,"bus_shield_text":"45A","shield_text":"01","ref":"N11"},"arcs":[[405],[406],[407]]},{"type":"LineString","properties":{"kind":"major_road","sort_rank":381,"kind_detail":"trunk","is_bicycle_related":true,"name:ga":"B\u00f3thar Na Gr\u00fadlainne","cycleway":"track","source":"openstreetmap.org","min_zoom":8.0,"landuse_kind":"urban_area","ref":"N31","id":81249034},"arcs":[408]},{"type":"LineString","properties":{"name:ga":"B\u00f3thar Frascati","sort_rank":381,"landuse_kind":"urban_area","bus_network":"Dublin Bus","source":"openstreetmap.org","min_zoom":8.0,"bus_shield_text":"84n","kind_detail":"trunk","ref":"N31","kind":"major_road"},"arcs":[409]},{"type":"MultiLineString","properties":{"bus_network":"Dublin Bus Xpresso","network":"e-road","sort_rank":381,"kind_detail":"trunk","kind":"major_road","source":"openstreetmap.org","min_zoom":8.0,"bus_shield_text":"84X","shield_text":"01","ref":"N11"},"arcs":[[410],[411]]},{"type":"LineString","properties":{"kind":"major_road","sort_rank":381,"kind_detail":"trunk","name:ga":"B\u00f3thar Crofton","bus_network":null,"source":"openstreetmap.org","min_zoom":8.0,"bus_shield_text":"7N","ref":"N31","id":25097375},"arcs":[412]},{"type":"LineString","properties":{"kind":"major_road","sort_rank":381,"kind_detail":"trunk","is_bicycle_related":true,"name:ga":"B\u00f3thar Bhr\u00e9","cycleway":"lane","bus_network":null,"source":"openstreetmap.org","min_zoom":8.0,"bus_shield_text":"145","ref":"N11","id":51423980},"arcs":[413]},{"type":"LineString","properties":{"kind":"major_road","sort_rank":380,"kind_detail":"primary","name:ga":"B\u00f3thar \u00c1tha Cliath","source":"openstreetmap.org","min_zoom":8.0,"ref":"N80","id":51257220},"arcs":[414]},{"type":"MultiLineString","properties":{"name:ga":"B\u00f3thar Stigh Lorgan","cycleway_left":"track","sort_rank":381,"kind_detail":"trunk","is_bicycle_related":true,"bus_network":"Dublin Bus","source":"openstreetmap.org","min_zoom":8.0,"bus_shield_text":"46A","landuse_kind":"urban_area","ref":"N11","kind":"major_road"},"arcs":[[415],[416],[417],[418],[419],[420]]},{"type":"LineString","properties":{"bus_network":"Dublin Bus","sort_rank":381,"landuse_kind":"urban_area","is_bicycle_related":true,"name:ga":"B\u00f3thar Frescati","cycleway":"lane","source":"openstreetmap.org","min_zoom":8.0,"bus_shield_text":"4","kind_detail":"trunk","ref":"N31","kind":"major_road"},"arcs":[421]},{"type":"LineString","properties":{"kind":"major_road","sort_rank":380,"kind_detail":"primary","name:ga":"Sr\u00e1id na Mainistreach","source":"openstreetmap.org","min_zoom":8.0,"ref":"N81","id":37794764},"arcs":[422]},{"type":"MultiLineString","properties":{"kind":"minor_road","sort_rank":358,"landuse_kind":"urban_area","is_bicycle_related":true,"bicycle_shield_text":"GCG","bicycle_network":"ncn","source":"openstreetmap.org","min_zoom":8.0,"kind_detail":"service"},"arcs":[[423],[424]]},{"type":"MultiLineString","properties":{"source":"openstreetmap.org","kind":"major_road","sort_rank":381,"kind_detail":"trunk","ref":"N30","min_zoom":8.0},"arcs":[[425],[426],[427]]},{"type":"LineString","properties":{"kind":"major_road","sort_rank":381,"kind_detail":"trunk","name:ga":"B\u00f3thar N\u00e1s na R\u00ed","bus_network":"Dublin Bus","source":"openstreetmap.org","min_zoom":8.0,"bus_shield_text":"13","landuse_kind":"urban_area","ref":"R110","id":75266094},"arcs":[428]},{"type":"LineString","properties":{"bus_network":null,"sort_rank":381,"kind_detail":"trunk","is_bicycle_related":true,"name:ga":"B\u00f3thar Na Gr\u00fadlainne","cycleway":"track","source":"openstreetmap.org","min_zoom":8.0,"bus_shield_text":"118","landuse_kind":"urban_area","ref":"N31","kind":"major_road"},"arcs":[429]},{"type":"MultiLineString","properties":{"kind":"highway","network":"e-road","sort_rank":383,"landuse_kind":"urban_area","source":"openstreetmap.org","min_zoom":8.0,"all_networks":["e-road",null],"kind_detail":"motorway","shield_text":"01","ref":"M50","all_shield_texts":["01","50"]},"arcs":[[430],[431],[432],[433]]},{"type":"MultiLineString","properties":{"kind":"path","sort_rank":354,"kind_detail":"track","is_bicycle_related":true,"bicycle_shield_text":null,"bicycle_network":"ncn","source":"openstreetmap.org","min_zoom":8.0},"arcs":[[434],[435]]},{"type":"LineString","properties":{"kind":"major_road","sort_rank":381,"kind_detail":"trunk","is_bicycle_related":true,"name:ga":"B\u00f3thar Bhr\u00e9","cycleway":"lane","bus_network":"Dublin Bus","source":"openstreetmap.org","min_zoom":8.0,"bus_shield_text":"84n","landuse_kind":"urban_area","ref":"N11","id":188758557},"arcs":[436]},{"type":"LineString","properties":{"kind":"major_road","sort_rank":380,"kind_detail":"primary","name:ga":"Sr\u00e1id Liam","source":"openstreetmap.org","min_zoom":8.0,"ref":"N78","id":23454594},"arcs":[437]},{"type":"LineString","properties":{"kind":"major_road","sort_rank":380,"kind_detail":"primary","bus_network":"J.J. Kavanagh & Sons","source":"openstreetmap.org","min_zoom":8.0,"bus_shield_text":null,"id":2789071},"arcs":[438]},{"type":"LineString","properties":{"name:ga":"Timpeall\u00e1in Bh\u00f3thar Dr. Cuilleann","sort_rank":380,"kind_detail":"primary","kind":"major_road","bus_network":"J.J. Kavanagh & Sons","source":"openstreetmap.org","min_zoom":8.0,"bus_shield_text":null,"id":2789072},"arcs":[439]},{"type":"MultiLineString","properties":{"bus_network":null,"sort_rank":381,"landuse_kind":"urban_area","name:ga":"B\u00f3thar Bhaile Na Lobhar","source":"openstreetmap.org","min_zoom":8.0,"bus_shield_text":"47","kind_detail":"trunk","ref":"N31","kind":"major_road"},"arcs":[[440],[441]]},{"type":"LineString","properties":{"kind":"minor_road","sort_rank":360,"kind_detail":"unclassified","is_bicycle_related":true,"bicycle_shield_text":null,"bicycle_network":"ncn","source":"openstreetmap.org","min_zoom":8.0},"arcs":[442]},{"type":"LineString","properties":{"bus_network":"Dublin Bus","sort_rank":381,"landuse_kind":"urban_area","name:ga":"Ascaill An Baile Nua","source":"openstreetmap.org","min_zoom":8.0,"bus_shield_text":"7A","kind_detail":"trunk","ref":"N31","kind":"major_road"},"arcs":[443]},{"type":"MultiLineString","properties":{"name:ga":"B\u00f3thar Stigh Lorgan","cycleway_left":"lane","sort_rank":381,"kind_detail":"trunk","is_bicycle_related":true,"bus_network":"Dublin Bus","source":"openstreetmap.org","min_zoom":8.0,"bus_shield_text":"46A","landuse_kind":"urban_area","ref":"N11","kind":"major_road"},"arcs":[[444],[445],[446]]},{"type":"MultiLineString","properties":{"bus_network":null,"network":"e-road","sort_rank":381,"kind_detail":"trunk","kind":"major_road","source":"openstreetmap.org","min_zoom":8.0,"bus_shield_text":"184","shield_text":"01","ref":"N11"},"arcs":[[447],[448],[449],[450],[451],[452],[453],[454]]},{"type":"MultiLineString","properties":{"kind":"highway","network":"e-road","sort_rank":383,"kind_detail":"motorway","source":"openstreetmap.org","min_zoom":8.0,"all_networks":["e-road",null],"shield_text":"01","ref":"M50","all_shield_texts":["01","50"]},"arcs":[[455],[456],[457],[458]]},{"type":"LineString","properties":{"kind":"major_road","sort_rank":380,"landuse_kind":"urban_area","source":"openstreetmap.org","min_zoom":8.0,"kind_detail":"primary","ref":"L3020","id":313737199},"arcs":[459]},{"type":"MultiLineString","properties":{"source":"openstreetmap.org","kind":"major_road","network":"e-road","sort_rank":381,"kind_detail":"trunk","min_zoom":8.0,"shield_text":"01"},"arcs":[[460],[461],[462]]},{"type":"LineString","properties":{"source":"openstreetmap.org","name:ga":"B\u00f3thar Bhaile Coim\u00edn","sort_rank":380,"kind_detail":"primary","min_zoom":8.0,"ref":"N81","kind":"major_road"},"arcs":[463]},{"type":"LineString","properties":{"kind":"major_road","sort_rank":381,"kind_detail":"trunk","is_bicycle_related":true,"name:ga":"B\u00f3thar Stigh Lorgan","cycleway":"track","bus_network":null,"source":"openstreetmap.org","min_zoom":8.0,"bus_shield_text":"75","landuse_kind":"urban_area","ref":"N11","id":37849548},"arcs":[464]},{"type":"LineString","properties":{"bus_network":"Dublin Bus","sort_rank":381,"landuse_kind":"urban_area","kind":"major_road","source":"openstreetmap.org","min_zoom":8.0,"bus_shield_text":"13","kind_detail":"trunk","ref":"R110"},"arcs":[465]},{"type":"MultiLineString","properties":{"bus_network":"Dublin Bus","sort_rank":381,"landuse_kind":"urban_area","name:ga":"B\u00f3thar Bhr\u00e9","source":"openstreetmap.org","min_zoom":8.0,"bus_shield_text":"84n","kind_detail":"trunk","ref":"N11","kind":"major_road"},"arcs":[[466],[467]]},{"type":"LineString","properties":{"bus_network":null,"sort_rank":381,"landuse_kind":"urban_area","name:ga":"B\u00f3thar Bhr\u00e9","source":"openstreetmap.org","min_zoom":8.0,"bus_shield_text":"702","kind_detail":"trunk","ref":"N11","kind":"major_road"},"arcs":[468]},{"type":"LineString","properties":{"name:ga":"B\u00f3thar Frascati","sort_rank":381,"landuse_kind":"urban_area","is_bicycle_related":true,"bus_network":"Dublin Bus","cycleway":"lane","source":"openstreetmap.org","min_zoom":8.0,"bus_shield_text":"7A","kind_detail":"trunk","ref":"N31","kind":"major_road"},"arcs":[469]},{"type":"LineString","properties":{"name:ga":"B\u00f3thar \u00c1tha Cliath","sort_rank":380,"kind_detail":"primary","kind":"major_road","bus_network":"J.J. Kavanagh & Sons","source":"openstreetmap.org","min_zoom":8.0,"bus_shield_text":null,"ref":"N80","id":51257218},"arcs":[470]},{"type":"LineString","properties":{"name:ga":"B\u00f3thar Dh\u00fan Laoghaire","sort_rank":381,"landuse_kind":"urban_area","kind":"major_road","source":"openstreetmap.org","min_zoom":8.0,"kind_detail":"trunk","ref":"N31"},"arcs":[471]},{"type":"MultiLineString","properties":{"bus_network":"Dublin Bus","sort_rank":381,"landuse_kind":"urban_area","name:ga":"Ascaill Chnoc Mhuirfean","source":"openstreetmap.org","min_zoom":8.0,"bus_shield_text":"17","kind_detail":"trunk","ref":"N31","kind":"major_road"},"arcs":[[472],[473],[474],[475]]},{"type":"LineString","properties":{"kind":"major_road","sort_rank":381,"kind_detail":"trunk","bus_network":null,"source":"openstreetmap.org","min_zoom":8.0,"bus_shield_text":"145","landuse_kind":"urban_area","ref":"N11","id":158665324},"arcs":[476]},{"type":"MultiLineString","properties":{"name:ga":"B\u00f3thar Bhaile Na Lobhar","sort_rank":381,"landuse_kind":"urban_area","kind":"major_road","source":"openstreetmap.org","min_zoom":8.0,"kind_detail":"trunk","ref":"N31"},"arcs":[[477],[478]]},{"type":"LineString","properties":{"kind":"major_road","sort_rank":381,"kind_detail":"trunk","is_bicycle_related":true,"name:ga":"B\u00f3thar Bhr\u00e9","cycleway":"lane","bus_network":"Dublin Bus","source":"openstreetmap.org","min_zoom":8.0,"bus_shield_text":"84n","ref":"N11","id":188758557},"arcs":[479]},{"type":"MultiLineString","properties":{"kind":"major_road","sort_rank":380,"kind_detail":"primary","bus_network":"Bus \u00c9ireann Expressway","source":"openstreetmap.org","min_zoom":8.0,"bus_shield_text":"73","ref":"N80"},"arcs":[[480],[481],[482]]},{"type":"LineString","properties":{"kind":"major_road","sort_rank":381,"kind_detail":"trunk","bus_network":"J.J. Kavanagh & Sons","source":"openstreetmap.org","min_zoom":8.0,"bus_shield_text":null,"landuse_kind":"urban_area","ref":"R110","id":75266085},"arcs":[483]},{"type":"LineString","properties":{"kind":"major_road","sort_rank":380,"kind_detail":"primary","name:ga":"Sr\u00e1id an Di\u00faic","source":"openstreetmap.org","min_zoom":8.0,"ref":"N78","id":23454590},"arcs":[484]},{"type":"MultiLineString","properties":{"kind":"major_road","network":"e-road","sort_rank":381,"kind_detail":"trunk","source":"openstreetmap.org","min_zoom":8.0,"shield_text":"01","ref":"N11"},"arcs":[[485],[486],[487],[488],[489],[490],[491],[492],[493],[494],[495],[496],[497],[498],[499],[500],[501],[502],[503],[504],[505],[506],[507],[508],[509],[510]]},{"type":"MultiLineString","properties":{"bus_network":null,"sort_rank":381,"kind_detail":"trunk","is_bicycle_related":true,"name:ga":"B\u00f3thar Bhr\u00e9","cycleway":"track","source":"openstreetmap.org","min_zoom":8.0,"bus_shield_text":"145","landuse_kind":"urban_area","ref":"N11","kind":"major_road"},"arcs":[[511],[512]]},{"type":"LineString","properties":{"kind":"major_road","network":"e-road","sort_rank":381,"kind_detail":"trunk","bus_network":"J.J. Kavanagh & Sons","source":"openstreetmap.org","min_zoom":8.0,"bus_shield_text":null,"shield_text":"20","ref":"N7"},"arcs":[513]},{"type":"LineString","properties":{"source":"openstreetmap.org","kind":"ferry","name":"Dublin - Cherbourg","sort_rank":355,"is_bicycle_related":true,"min_zoom":8.0},"arcs":[514]},{"type":"MultiLineString","properties":{"kind":"highway","network":null,"sort_rank":383,"kind_detail":"motorway","source":"openstreetmap.org","min_zoom":8.0,"all_networks":[null],"shield_text":"11","ref":"M11","all_shield_texts":["11"]},"arcs":[[515],[516]]},{"type":"LineString","properties":{"kind":"major_road","network":"e-road","sort_rank":381,"kind_detail":"trunk","is_bicycle_related":true,"name:ga":"C\u00e9 na Mainistreach","source":"openstreetmap.org","min_zoom":8.0,"shield_text":"01","ref":"N11","id":4878768},"arcs":[517]},{"type":"MultiLineString","properties":{"kind":"highway","network":null,"sort_rank":383,"kind_detail":"motorway","source":"openstreetmap.org","min_zoom":8.0,"all_networks":[null],"shield_text":"9","ref":"M9","all_shield_texts":["9"]},"arcs":[[518],[519],[520],[521],[522],[523],[524],[525],[526],[527],[528],[529],[530],[531],[532],[533],[534],[535],[536],[537],[538],[539],[540],[541],[542],[543],[544],[545],[546],[547],[548],[549],[550],[551],[552],[553],[554],[555]]},{"type":"MultiLineString","properties":{"kind":"highway","network":null,"sort_rank":383,"landuse_kind":"urban_area","source":"openstreetmap.org","min_zoom":8.0,"all_networks":[null],"kind_detail":"motorway","shield_text":"11","ref":"M11","all_shield_texts":["11"]},"arcs":[[556],[557]]},{"type":"LineString","properties":{"kind":"minor_road","sort_rank":358,"kind_detail":"service","is_bicycle_related":true,"bicycle_shield_text":"GCG","bicycle_network":"ncn","source":"openstreetmap.org","min_zoom":8.0,"id":55412182},"arcs":[558]},{"type":"MultiLineString","properties":{"source":"openstreetmap.org","name:ga":"B\u00f3thar U\u00ed Bhriain","sort_rank":380,"kind_detail":"primary","min_zoom":8.0,"ref":"N80","kind":"major_road"},"arcs":[[559],[560],[561],[562],[563]]}]},"earth":{"type":"GeometryCollection","geometries":[{"type":"Polygon","properties":{"sort_rank":10,"source":"naturalearthdata.com","kind":"earth","min_zoom":0.0,"id":3719},"arcs":[[564]]}]},"landuse":{"type":"GeometryCollection","geometries":[{"type":"MultiPolygon","properties":{"source":"openstreetmap.org","kind":"park","tier":2,"area":891726139,"sort_rank":24,"min_zoom":6.0,"osm_relation":true},"arcs":[[[565],[566],[567],[568],[569]]]},{"type":"MultiPolygon","properties":{"source":"naturalearthdata.com","kind":"urban_area","name":"","area":1016262972,"sort_rank":11,"min_zoom":4.0},"arcs":[[[570]]]},{"type":"MultiPolygon","properties":{"source":"openstreetmap.org","kind":"park","tier":2,"area":65272637,"sort_rank":24,"min_zoom":8.0,"osm_relation":true},"arcs":[[[571]],[[572]],[[573]]]},{"type":"MultiPolygon","properties":{"source":"openstreetmap.org","kind":"military","tier":3,"area":89147310,"sort_rank":45,"min_zoom":8.0,"osm_relation":true},"arcs":[[[574]],[[575]]]}]}},"type":"Topology","transform":{"translate":[-7.03125,52.4827802221],"scale":[0.0003433228,0.0002070539]},"arcs":[[[3323,0],[73,325],[-28,309],[133,261],[54,270],[111,150],[78,164],[192,570],[41,251],[-22,241],[-83,232],[-36,483],[-101,358],[23,270],[62,212]],[[2713,3480],[63,-65],[5,-154],[47,-69]],[[2342,4096],[103,-109],[105,-60],[58,-2],[29,-64],[83,-43],[-42,-63],[-16,-87],[51,-188]],[[2713,3480],[0,-1]],[[1464,4039],[-159,-106],[-210,-230],[-214,-77],[-93,-60],[-197,-219],[-416,-107],[-57,-46],[-53,-132],[-32,-294],[195,-435],[89,-397],[-21,-114],[32,-145],[-71,-248],[-7,-353],[-97,-79],[-142,2],[-11,-17]],[[1548,4096],[-84,-57]],[[1524,4096],[-5,-4],[-8,-6],[-11,-10],[-16,-16],[-20,-21]],[[2828,3192],[-47,69],[-5,154],[-52,37],[-61,189],[14,112],[44,63],[-84,45],[-29,64],[-57,1],[-108,62],[-103,108]],[[2341,4096],[104,-109],[105,-60],[58,-2],[29,-64],[83,-43],[-42,-63],[-16,-87],[51,-188]],[[2713,3480],[0,-1]],[[2713,3480],[63,-65],[5,-154],[47,-69]],[[2828,3192],[-47,69],[-5,154],[-52,37],[-61,189],[14,112],[44,63],[-84,45],[-29,64],[-57,1],[-108,62],[-102,108]],[[1349,0],[4,103],[102,90],[9,48],[-31,76],[68,115],[257,195],[225,71],[132,143],[261,494],[152,118],[5,74],[-205,168],[50,94],[-42,169],[44,87],[-33,126],[33,38],[74,8],[259,236],[150,-4],[-9,136],[48,255],[-23,236],[-49,111]],[[2351,4096],[94,-109],[39,-27],[39,-17],[27,-16],[45,2],[13,-4],[25,-27],[1,-4],[-2,-23],[5,-10],[74,-35],[6,-5],[4,-5],[0,-13],[-43,-48],[-6,-53],[-1,-4],[-1,-3],[-6,-15],[-2,-12],[51,-188]],[[2713,3480],[1,-2]],[[2673,3713],[2,31],[1,7],[2,6],[2,4],[6,9],[4,10],[1,2],[1,1],[2,2],[3,2],[19,11],[5,5],[-3,17],[-7,5],[-30,13],[-39,20],[-3,1],[-2,2],[-2,2],[-1,2],[-1,3],[-1,3],[0,3],[0,10],[2,9],[-1,5],[-25,27],[-13,4],[-7,0],[-19,-4],[-5,0],[-6,0],[-4,1],[-3,0],[-5,3],[-24,14],[-26,11],[-9,4],[-8,5],[-28,19],[-8,6],[-6,5],[-7,7],[-34,38],[-9,10],[-19,23],[-20,25]],[[2666,3685],[1,2]],[[2667,3687],[1,3]],[[2668,3690],[1,2]],[[2669,3692],[1,3]],[[2670,3695],[1,1]],[[2671,3696],[0,2]],[[2671,3698],[1,2]],[[2672,3700],[0,2]],[[2672,3702],[1,2]],[[2673,3704],[0,2]],[[2673,3706],[0,1]],[[2673,3707],[0,6]],[[2714,3477],[-51,161],[-1,11],[0,22],[1,7],[3,7]],[[2713,3480],[1,-3]],[[2714,3477],[62,-62],[5,-154],[40,-58]],[[2830,3187],[-9,16]],[[888,3629],[-5,-2]],[[883,3627],[-3,-1]],[[880,3626],[-3,-1]],[[877,3625],[-3,-2]],[[874,3623],[-3,-1]],[[871,3622],[-11,-8]],[[860,3614],[-11,-7]],[[849,3607],[-11,-7]],[[838,3600],[-18,-12]],[[820,3588],[-18,-11]],[[802,3577],[-3,-3]],[[799,3574],[-4,-2]],[[795,3572],[-3,-3]],[[792,3569],[-2,-1]],[[790,3568],[-2,-1]],[[788,3567],[-4,-3]],[[784,3564],[-4,-4]],[[780,3560],[-3,-3]],[[777,3557],[-2,-2]],[[775,3555],[-2,-2]],[[773,3553],[-1,-2]],[[772,3551],[-2,-2]],[[770,3549],[-1,-1]],[[769,3548],[-2,-2]],[[767,3546],[-2,-3]],[[765,3543],[-2,-3]],[[763,3540],[-4,-6]],[[759,3534],[-3,-4]],[[756,3530],[-3,-4]],[[753,3526],[-1,-1]],[[752,3525],[-1,-2]],[[751,3523],[-4,-5]],[[747,3518],[-4,-6]],[[743,3512],[-4,-6]],[[739,3506],[-2,-2]],[[737,3504],[-2,-3]],[[735,3501],[-10,-14]],[[725,3487],[-6,-9]],[[719,3478],[-2,-3]],[[717,3475],[-2,-2]],[[715,3473],[-4,-7]],[[711,3466],[-3,-3]],[[708,3463],[-2,-3]],[[706,3460],[-3,-4]],[[703,3456],[-2,-3]],[[701,3453],[-5,-7]],[[696,3446],[-2,-2]],[[694,3444],[-2,-3]],[[692,3441],[-4,-5]],[[688,3436],[-1,-3]],[[687,3433],[-3,-3]],[[684,3430],[-6,-6]],[[678,3424],[-7,-8]],[[671,3416],[-4,-4]],[[667,3412],[-4,-4]],[[663,3408],[-3,-2]],[[660,3406],[-2,-3]],[[658,3403],[-2,-2]],[[656,3401],[-4,-4]],[[652,3397],[-4,-4]],[[648,3393],[-4,-4]],[[644,3389],[-2,-2]],[[642,3387],[-6,-6]],[[636,3381],[-1,-2]],[[635,3379],[-3,-2]],[[632,3377],[-6,-5]],[[626,3372],[-7,-5]],[[619,3367],[-5,-3]],[[614,3364],[-5,-4]],[[609,3360],[-10,-8]],[[599,3352],[-6,-4]],[[593,3348],[-4,-2]],[[589,3346],[-3,-2]],[[586,3344],[-3,-2]],[[583,3342],[-4,-1]],[[579,3341],[-6,-2]],[[573,3339],[-5,-2]],[[568,3337],[-3,-1]],[[565,3336],[-3,-1]],[[562,3335],[-7,-2]],[[555,3333],[-9,-3]],[[546,3330],[-6,-1]],[[540,3329],[-6,-1]],[[534,3328],[-5,-1]],[[529,3327],[-5,0]],[[524,3327],[-4,0]],[[520,3327],[-6,0]],[[514,3327],[-5,0]],[[509,3327],[-5,1]],[[504,3328],[-6,1]],[[498,3329],[-4,1]],[[494,3330],[-5,1]],[[489,3331],[-5,0]],[[484,3331],[-4,-1]],[[480,3330],[-2,0]],[[478,3330],[-2,0]],[[476,3330],[-4,-1]],[[472,3329],[-3,-1]],[[469,3328],[-2,-1]],[[467,3327],[-2,-1]],[[465,3326],[-2,-1]],[[463,3325],[-3,-3]],[[460,3322],[-10,-7]],[[450,3315],[-1,-1]],[[449,3314],[-2,-1]],[[447,3313],[-2,-2]],[[445,3311],[-2,-1]],[[443,3310],[-4,-2]],[[439,3308],[-2,-1]],[[437,3307],[-2,-1]],[[435,3306],[-1,0]],[[434,3306]],[[434,3306],[-2,-1]],[[432,3305],[-3,-1]],[[429,3304],[-3,-1]],[[426,3303],[-4,-1]],[[422,3302],[-32,-9]],[[390,3293],[-16,-4]],[[374,3289],[-9,-2]],[[365,3287],[-2,-1]],[[363,3286],[-7,-2]],[[356,3284],[-6,-2]],[[350,3282],[-2,0]],[[348,3282],[-7,-2]],[[341,3280],[-52,-14]],[[289,3266],[-14,-4]],[[275,3262],[-12,-3]],[[263,3259],[-1,0]],[[262,3259],[-30,-8]],[[232,3251],[-6,-2]],[[226,3249],[-3,-1]],[[223,3248],[-5,-1]],[[218,3247],[-6,-1]],[[212,3246],[-3,0]],[[209,3246],[-4,-1]],[[205,3245],[-2,0]],[[203,3245]],[[203,3245],[-6,-1]],[[197,3244],[-3,0]],[[194,3244],[-3,0]],[[191,3244],[-4,0]],[[187,3244],[-9,0]],[[178,3244],[-17,0]],[[161,3244],[-16,0]],[[145,3244],[-29,-1]],[[116,3243],[-1,0]],[[115,3243],[-15,0]],[[100,3243],[-33,0]],[[67,3243],[-5,0]],[[62,3243],[-1,0]],[[61,3243],[-3,0]],[[58,3243],[-3,0]],[[55,3243],[-3,-1]],[[52,3242],[-3,0]],[[49,3242],[-3,-1]],[[46,3241],[-3,0]],[[43,3241],[-3,-1]],[[40,3240],[-3,-1]],[[37,3239],[-37,-11]],[[889,3629],[-109,-70],[-14,-15],[-68,-96],[-9,-13],[-5,-5],[-46,-48],[-7,-6],[-37,-27],[-6,-4],[-4,-2],[-7,-3],[-32,-10],[-9,-2],[-7,-1],[-9,0],[-8,0],[-7,1],[-15,2],[-15,-1],[-11,-4],[-15,-11],[-6,-4],[-6,-3],[-7,-3],[-198,-54],[-15,-3],[-8,-1],[-9,-2],[-11,-1],[-143,-2],[-46,-13]],[[1451,4026],[-27,-23],[-106,-60],[-8,-5],[-5,-5],[-4,-3],[-15,-17],[-145,-158],[-29,-37],[-16,-14],[-208,-75]],[[1464,4039],[-13,-13]],[[1451,4026],[-27,-23],[-115,-67],[-84,-90]],[[1548,4096],[-84,-57]],[[1524,4096],[-5,-4],[-8,-6],[-11,-10],[-16,-16],[-20,-21]],[[1451,4026],[-27,-23],[-106,-60],[-8,-5],[-5,-5],[-4,-3],[-15,-17],[-145,-158],[-29,-37],[-16,-14],[-216,-78],[-92,-59],[-202,-223],[-368,-97],[-166,-5],[-52,-15]],[[1464,4039],[-13,-13]],[[1451,4026],[-27,-23],[-115,-67],[-84,-90]],[[1548,4096],[-84,-57]],[[1524,4096],[-5,-4],[-8,-6],[-11,-10],[-16,-16],[-20,-21]],[[1535,4096],[-267,-202]],[[1449,4025],[7,7]],[[2351,4096],[98,-112],[35,-24],[39,-17],[27,-16],[13,-2],[27,4],[3,0],[4,0],[4,-1]],[[2714,3477],[-9,23],[-5,17],[-10,17],[-1,5],[-2,4],[-24,95],[-1,5],[0,6],[0,20],[0,5],[2,6],[8,22],[3,42],[1,7],[2,6],[2,4],[6,9],[4,10],[1,2],[1,1],[2,2],[3,2],[19,11],[5,5],[-1,15],[-9,7],[-30,13],[-39,20],[-3,1],[-2,2],[-2,2],[-1,2],[-1,3],[-1,3],[0,3],[0,10],[2,9],[-1,5],[-25,27],[-13,4],[-7,0],[-19,-4],[-5,0],[-6,0],[-4,1],[-3,0],[-5,3],[-24,14],[-26,11],[-9,4],[-8,5],[-28,19],[-8,6],[-6,5],[-7,7],[-34,38],[-9,10],[-19,23],[-20,25]],[[2601,3928],[4,-1],[4,-3],[11,-8],[13,-17],[1,-2],[0,-3],[-2,-23],[5,-10],[74,-35],[6,-5],[3,-3],[2,-5],[1,-6],[-2,-3],[-1,-3],[-42,-44],[-6,-55],[-10,-34],[51,-188]],[[2713,3480],[0,-1]],[[2601,3928],[3,-1],[3,-1],[5,-3]],[[2711,3483],[2,-5]],[[2713,3480],[1,-3]],[[2715,3474],[-2,4]],[[2714,3477],[0,-2]],[[2714,3475],[1,-1]],[[2720,3461],[-6,14]],[[2715,3474],[5,-13]],[[2720,3461],[56,-46],[5,-154],[47,-69]],[[2828,3192],[-5,8]],[[2360,4082],[1,-1],[0,1],[-1,0]],[[2561,3924],[-1,0],[1,0]],[[2225,0],[131,220],[39,85],[7,206],[-7,74],[-31,137],[-3,72],[16,91],[136,245],[51,120],[9,22],[-17,107],[69,230],[32,70],[34,45],[125,120],[-22,36],[99,230],[32,34],[15,20],[29,91],[16,21],[38,16],[-9,37],[-122,139],[-39,75],[13,77],[23,73],[16,115],[4,117],[-13,79],[10,9],[2,0],[2,3],[5,18],[-100,210],[-39,57],[21,87],[-17,53],[-35,41],[0,2],[-30,51],[-17,71],[-5,66],[4,107],[9,20],[15,40],[0,38],[-35,17],[-22,6],[-30,25],[-82,19],[-39,34],[-57,84],[-32,34],[1672,0],[0,-4096],[-1871,0]],[[2424,4096],[32,-34],[57,-84],[39,-34],[82,-19],[30,-25],[22,-6],[35,-17],[0,-38],[-15,-40],[-9,-20],[-4,-107],[5,-66],[17,-71],[30,-51],[0,-2],[35,-41],[17,-53],[-21,-87],[39,-57],[100,-210],[-5,-18],[-2,-3],[-2,0],[-10,-9],[13,-79],[-4,-117],[-16,-115],[-23,-73],[-13,-77],[39,-75],[122,-139],[9,-37],[-38,-16],[-16,-21],[-29,-91],[-15,-20],[-32,-34],[-99,-230],[22,-36],[-125,-120],[-34,-45],[-32,-70],[-69,-230],[17,-107],[-9,-22],[-51,-120],[-136,-245],[-16,-91],[3,-72],[31,-137],[7,-74],[-7,-206],[-39,-85],[-131,-220]],[[387,1663],[1,0],[-1,-1],[0,1]],[[201,2472],[2,0],[0,-1],[-2,-1],[0,2]],[[386,1630],[1,1],[0,-1],[-1,0]],[[434,1542],[1,0],[1,-2],[-2,0],[0,2]],[[438,1537],[1,1],[1,-1],[-1,-1],[-1,1]],[[2556,3922],[7,-1]],[[1181,3639],[-21,-7]],[[1160,3632],[-3,0],[-9,2],[-49,31],[-56,-17],[-56,-42],[-33,-72],[-76,-126],[-55,-74],[-100,-56],[-100,5]],[[623,3283],[-3,0],[-39,-9]],[[581,3274],[-150,-36],[-263,-7],[-116,-27],[-52,-37]],[[0,3168],[51,36],[117,28],[279,12],[134,30]],[[581,3274],[42,9]],[[623,3283],[15,3],[84,-8],[101,56],[166,276],[53,39],[55,17],[51,-31],[12,-3]],[[1160,3632],[1,0]],[[106,2440],[-106,-156]],[[158,2464],[-8,-1]],[[155,2464],[3,0]],[[200,2470],[-42,-6]],[[200,2470],[1,1]],[[201,2470],[-1,0]],[[203,2472],[1,0]],[[204,2472],[-1,-1]],[[204,2472],[70,-41],[270,60]],[[544,2491],[1,0]],[[545,2490],[-1,1]],[[547,2492],[1,-1]],[[548,2491],[-1,0]],[[548,2491],[3,0]],[[551,2491]],[[551,2490],[0,1]],[[546,2492],[1,-1],[-1,-1],[-1,1]],[[545,2491],[1,1]],[[553,2492],[1,-2],[-2,-1],[-1,2],[2,1]],[[2471,3959],[-1,-1]],[[327,1757],[15,-5]],[[2496,3942],[10,-8]],[[2563,3921],[10,3]],[[1913,4028],[-134,-76]],[[1926,4032],[-9,-3]],[[1161,3632],[323,162]],[[2591,3928],[-1,0]],[[1711,4096],[243,-2]],[[1960,4095],[5,1]],[[346,1695],[0,1],[1,-1],[-1,0]],[[2507,3940],[49,-18]],[[1354,92],[0,1]],[[1361,89],[-1,-1]],[[1956,4094],[4,1]],[[2863,4096],[-44,-222],[-25,-17],[-136,118],[-28,-15],[4,-33]],[[2464,3843],[-1,1]],[[2498,3819],[-27,19]],[[2472,3958],[3,-2]],[[136,2460],[-2,-1]],[[1917,4062],[-21,34]],[[1896,4096],[21,-33]],[[2475,3956],[21,-14]],[[2471,3958]],[[1779,3952],[-109,-81],[-156,-54],[-333,-178]],[[2627,3665],[1,0]],[[2417,3913],[-4,5]],[[2552,3775],[-15,12]],[[1355,88],[-1,-1],[0,1],[1,0]],[[2439,3944],[15,7]],[[1898,3870],[-25,-13]],[[1875,3860],[1,1],[17,9]],[[155,2464],[-19,-4]],[[2626,3664],[-58,98]],[[1840,4002],[56,20]],[[1917,4029],[-4,-1]],[[2626,3664],[1,1]],[[2628,3665],[0,-1]],[[2610,3922],[-19,6]],[[2471,3958]],[[2475,3956]],[[1354,93],[2,2]],[[119,2454],[-1,0]],[[2501,3816],[-3,3]],[[2498,3819],[40,-32]],[[1918,727],[69,11],[105,78],[23,14],[43,21],[34,14],[41,23],[17,26],[-16,84],[16,95],[60,110],[118,95],[26,85],[1,1],[6,7],[19,29]],[[2480,1420],[10,16],[-7,32]],[[2483,1468],[-13,54],[17,36],[120,98],[66,92],[41,219],[-29,121],[-35,48],[-6,17],[7,47],[49,37],[16,27],[1,5]],[[2717,2269],[6,30],[-1,25],[0,2],[0,2]],[[2722,2328],[0,9],[-2,25],[2,5]],[[2722,2367],[12,33]],[[2734,2400],[6,17],[-14,44],[8,67],[-22,46],[19,58],[4,11]],[[2735,2643],[9,33],[3,20]],[[2747,2696],[0,7],[-12,31]],[[2737,2732],[11,-29],[-1,-7]],[[2747,2696],[-12,-53]],[[2735,2643],[-3,-12],[-20,-57],[23,-46],[6,-112],[-7,-16]],[[2734,2400],[-12,-27],[0,-6]],[[2722,2367],[1,-32],[0,-1],[-1,-6]],[[2722,2328],[-5,-59]],[[2717,2269],[0,-6],[-17,-26],[-49,-38],[-7,-46],[42,-65],[28,-123],[-37,-211],[-27,-48],[-25,-32],[-20,-21],[-117,-96],[-5,-89]],[[2483,1468],[-3,-48]],[[2480,1420],[-1,-7],[-50,-115],[-119,-95],[-42,-86],[-33,-119],[16,-84],[-18,-26],[-244,-150],[-71,-13]],[[2608,3434],[8,22],[2,3]],[[2618,3459],[19,40],[-4,48]],[[2633,3547],[0,1],[-3,8],[-1,11]],[[2629,3567],[-2,25],[-4,10]],[[2623,3607],[6,-40]],[[2629,3567],[2,-10],[2,-8],[0,-2]],[[2633,3547],[-14,-85],[0,-2],[-1,-1]],[[2618,3459],[-1,-4],[-2,-8]],[[2419,3817],[-7,-4]],[[2412,3813],[-3,-1]],[[2410,3812],[2,1]],[[2412,3813],[3,1]],[[1897,3871],[119,20]],[[2016,3890],[-10,-3],[-108,-17]],[[2017,3891],[19,11]],[[2038,3899],[-20,-9]],[[2016,3890],[0,1]],[[2016,3891],[1,1],[1,-2]],[[2018,3890],[-2,0]],[[2037,3906],[3,1],[2,-7],[-3,-1],[-2,7]],[[2411,3931],[28,13]],[[300,1757],[-1,0],[0,1],[1,-1]],[[849,1535],[-42,-57],[38,-209],[-16,-48]],[[858,1546],[-5,-4]],[[1424,3294],[-188,-333],[-146,-537],[-80,-35],[-73,-117],[0,-132],[41,-97],[-23,-79],[24,-41],[-70,-167],[-20,-173],[-28,-36]],[[1425,3295],[194,245]],[[849,1536],[0,-1]],[[849,1535],[0,1]],[[1425,3293],[-1,1],[0,1],[1,-1],[0,-1]],[[1867,3852],[-69,-23]],[[1873,3857],[-6,-5]],[[1867,3852],[8,8]],[[1893,3870],[4,1]],[[2479,3951],[-4,5]],[[2415,3814],[3,3]],[[357,1721],[-1,0],[-1,1],[1,0],[1,-1]],[[2418,3817],[1,0]],[[1356,95],[5,-8]],[[2505,3934],[-9,7]],[[1779,3953],[61,49]],[[1896,4022],[11,4]],[[1386,3951],[-31,-24]],[[1493,4033],[-4,-4]],[[1352,94],[1,-1]],[[258,1758],[-32,-20]],[[259,1758],[5,-1]],[[265,1757],[1,0]],[[266,1757],[-1,-1]],[[299,1757],[-33,0]],[[300,1757],[27,0]],[[342,1751],[1,0]],[[346,1696],[3,5]],[[387,1664],[-40,31]],[[353,1710],[-4,-9]],[[353,1710],[2,9]],[[356,1721],[-1,-2]],[[355,1719],[1,2]],[[387,1631],[0,30]],[[433,1542],[-40,40],[-6,48]],[[387,1661],[0,3]],[[387,1664],[1,-1]],[[388,1662],[-1,-1]],[[433,1542],[1,0]],[[434,1541],[-1,1]],[[436,1540]],[[436,1541],[0,-1]],[[436,1540],[2,-2]],[[438,1537],[0,1]],[[438,1538],[1,0]],[[440,1534],[-1,2]],[[440,1536],[0,-2]],[[1096,835],[-57,17],[-59,185],[-150,183],[-63,7],[-27,59],[-215,54],[-17,84],[-68,110]],[[1106,832],[-3,1]],[[1103,833],[-7,2]],[[1103,833]],[[1103,833],[0,-1]],[[1399,295],[-70,138],[-15,101],[-208,298]],[[1400,294],[-1,1]],[[1399,295],[1,0]],[[259,1758]],[[259,1758],[-1,-1],[0,1]],[[258,1758],[1,0]],[[265,1756],[-1,1]],[[264,1757],[1,0],[0,-1]],[[265,1756]],[[861,1547],[-3,-1]],[[118,2454],[-12,-14]],[[2599,3343],[10,32]],[[2606,3317],[-7,18]],[[2607,3367],[0,-48]],[[2440,3862],[1,0]],[[2471,3959],[1,-1]],[[2601,3404],[1,21]],[[2603,3425],[7,-48]],[[2610,3922],[4,-2]],[[2538,3787],[4,-3]],[[352,1752],[-8,-2]],[[2413,3918],[-4,13]],[[2410,3931],[8,-17]],[[2463,3844],[-22,17]],[[2441,3862],[17,-14]],[[2471,3838],[-7,5]],[[2465,3843],[33,-24]],[[2496,3941],[-17,10]],[[853,1542],[-4,-6]],[[1687,4096],[3,0]],[[1954,4094],[2,0]],[[1116,0],[138,67],[76,-20],[24,40]],[[1358,88],[-3,-1]],[[1355,88],[2,1]],[[1938,4037],[-4,-4]],[[2419,3819],[21,43]],[[2143,3797],[-86,53],[-22,65],[-118,147]],[[1917,4063],[115,-137],[25,-72],[87,-56]],[[2252,3795],[50,14],[44,3],[15,0],[66,-35]],[[2426,3777],[-79,34],[-94,-16]],[[1355,3927],[-2,-2]],[[1489,4029],[-103,-78]],[[2551,3777],[18,-14]],[[123,2456],[-4,-2]],[[353,1752],[-1,0],[0,2],[1,-1],[0,-1]],[[343,1752],[1,-2],[-1,0],[-1,1],[1,1]],[[2388,3805],[2,3],[20,4]],[[2409,3812],[-19,-6]],[[1266,3859],[87,66]],[[2505,3934],[2,6]],[[2441,3861],[-24,52]],[[2418,3914],[17,-18],[6,-34]],[[2458,3848],[7,-5]],[[2697,3097],[-1,23],[-6,9]],[[2690,3129],[-48,65]],[[2642,3188],[3,-13],[11,-10],[34,-36]],[[2690,3129],[4,-4]],[[2690,2998],[1,2],[4,24]],[[2695,3024],[1,7]],[[2697,3095],[4,-35],[-6,-36]],[[2695,3024],[-4,-24],[0,-1]],[[2253,3795],[-13,-4],[-55,-4],[-42,10]],[[2144,3798],[108,-3]],[[2623,3602],[-197,175]],[[2427,3777],[155,-127],[41,-43]],[[2010,3888],[0,1]],[[1916,725],[0,1]],[[1360,149],[-1,1],[1,1],[1,-1],[-1,-1]],[[1918,725],[-1,-1],[-1,2],[2,1],[0,-2]],[[1619,3540],[57,85],[10,91],[76,105],[36,8]],[[2498,3819]],[[1934,4033],[-8,-1]],[[2569,3763],[27,-60]],[[2617,3679],[10,-14]],[[2596,3703],[21,-24]],[[2475,3956],[-4,2]],[[344,1751],[7,2]],[[2573,3924],[17,4]],[[2409,3931],[2,0]],[[2454,3951],[15,6]],[[2470,3958],[-1,-1]],[[2469,3957],[2,2]],[[2628,3664],[-2,0]],[[2390,3806],[-2,-1]],[[2390,3808],[0,-2]],[[2542,3784],[9,-7]],[[0,2006],[51,-88],[175,-180]],[[226,1738],[0,-1],[0,1]],[[226,1738]],[[1907,4026],[21,11]],[[134,2459],[-11,-3]],[[1360,149],[-8,-55]],[[1353,93],[1,0]],[[1359,88],[0,-88]],[[1400,291],[-40,-140]],[[1400,291],[0,2]],[[1401,293],[-1,-2]],[[1401,295]],[[1558,517],[-47,-37],[-110,-185]],[[1401,295],[1,-1]],[[1914,725],[-356,-207]],[[2599,3335],[0,8]],[[2609,3375],[-8,29]],[[2602,3425],[6,9]],[[2615,3447],[-12,-22]],[[2642,3194],[-4,47],[-25,60]],[[2613,3301],[0,1],[-7,15]],[[2607,3319],[5,-14],[1,-4]],[[2613,3301],[29,-113]],[[2610,3377],[-3,-10]],[[2735,2734],[2,135],[3,43],[-45,57],[-4,14],[-1,15]],[[2691,2999],[50,-88],[-4,-179]],[[2694,3125],[3,-30]],[[2696,3031],[1,66]],[[1401,293],[-1,0],[0,1],[1,1],[0,-2]],[[1558,518],[0,-1]],[[1558,517],[0,1]],[[2537,3787],[-36,29]],[[2568,3762],[-16,13]],[[1484,3794],[257,116],[38,43]],[[2882,4096],[33,-15],[230,-248],[-23,-3833]],[[2623,3602],[-6,12],[5,27]],[[2625,3629],[-2,-22]],[[1359,88],[-6,5]],[[0,1004],[88,205],[1,2],[16,45]],[[105,1256],[24,67]],[[129,1323],[1,4],[127,98],[16,9]],[[273,1434],[146,78],[93,58],[0,2]],[[512,1572],[19,109],[35,164],[-60,133],[-12,40],[-16,103],[1,3]],[[479,2124],[21,55]],[[500,2179],[17,44],[-11,68],[1,5]],[[507,2296],[35,178],[35,66]],[[577,2540],[46,87],[164,207]],[[787,2834],[9,12],[0,2]],[[796,2848],[26,157]],[[822,3005],[0,1]],[[822,3006],[-8,34]],[[814,3040],[-7,29],[-6,13]],[[801,3082],[-30,67],[2,3]],[[773,3152],[12,26]],[[785,3178],[12,26],[3,3],[1,18]],[[801,3225],[3,80]],[[804,3305],[0,15],[25,21]],[[834,3345],[-8,-10],[-22,-30]],[[804,3305],[-3,-4],[0,-76]],[[801,3225],[0,-19],[-3,-3],[-13,-25]],[[785,3178],[-13,-25],[1,-1]],[[773,3152],[21,-50],[7,-20]],[[801,3082],[13,-42]],[[814,3040],[9,-30],[-1,-4]],[[822,3006],[0,-1]],[[822,3005],[-22,-153],[-4,-4]],[[796,2848],[-9,-14]],[[787,2834],[-210,-294]],[[577,2540],[-22,-32],[-40,-105],[-8,-107]],[[507,2296],[0,-5],[11,-68],[-18,-44]],[[500,2179],[-21,-53],[0,-2]],[[479,2124],[15,-104],[12,-42],[61,-132],[-52,-272],[-3,-2]],[[512,1572],[-45,-24],[-194,-114]],[[273,1434],[-16,-10],[-17,-26],[-42,-31],[-4,-2],[-65,-42]],[[129,1323],[-2,-1],[-22,-66]],[[105,1256],[-15,-46],[-1,-2],[-89,-208]],[[2622,3641],[5,22]],[[2628,3663],[-3,-34]],[[1678,4094],[9,2]],[[353,1750],[-1,2]],[[353,1752],[0,-2]],[[353,1750],[3,-26]],[[356,1722],[0,2]],[[356,1724],[0,-2]],[[2424,4096],[32,-34],[57,-84],[39,-34],[82,-19],[30,-25],[22,-6],[35,-17],[0,-38],[-15,-40],[-9,-20],[-4,-107],[5,-66],[17,-71],[30,-51],[0,-2],[35,-41],[17,-53],[-21,-87],[39,-57],[100,-210],[-5,-18],[-2,-3],[-2,0],[-10,-9],[13,-79],[-4,-117],[-16,-115],[-23,-73],[-13,-77],[39,-75],[122,-139],[9,-37],[-38,-16],[-16,-21],[-29,-91],[-15,-20],[-32,-34],[-99,-230],[22,-36],[-125,-120],[-34,-45],[-32,-70],[-69,-230],[17,-107],[-9,-22],[-51,-120],[-136,-245],[-16,-91],[3,-72],[31,-137],[7,-74],[-7,-206],[-39,-85],[-131,-220],[-2225,0],[0,4096],[2424,0]],[[1441,2702],[56,27],[61,-44],[28,48],[55,-24],[35,29],[162,-30],[-22,38],[50,65],[-47,188],[63,-16],[25,25],[-15,53],[-92,65],[-4,45],[100,-34],[66,-77],[16,25],[-124,151],[-2,49],[32,15],[74,-24],[37,67],[-89,66],[-59,-31],[-39,46],[46,-26],[59,29],[124,-68],[58,80],[21,144],[-23,42],[38,-31],[18,27],[-14,-40],[66,-64],[19,-7],[1,40],[22,3],[89,-68],[6,-30],[-59,14],[-27,-34],[-98,55],[-4,-69],[-53,-23],[122,-26],[22,-58],[79,-19],[-9,-38],[68,-21],[-49,-25],[71,-65],[-7,-39],[-93,4],[7,-42],[40,-25],[-63,6],[-30,-29],[38,65],[-85,-7],[-113,85],[29,-101],[-71,-12],[-21,-52],[-44,39],[-56,-79],[40,-76],[67,-42],[58,32],[63,-23],[-32,-23],[41,-27],[-18,-45],[-58,-3],[0,-35],[87,-88],[-26,-46],[-31,27],[5,52],[-57,35],[-40,112],[-19,10],[-24,-47],[25,-57],[-10,-63],[75,-15],[-8,-34],[28,-39],[-82,53],[-38,4],[-3,-29],[53,-23],[-24,-33],[57,16],[55,-30],[8,-47],[-87,-9],[-36,-55],[-82,15],[4,-44],[-59,89],[-84,65],[-47,-11],[-16,44],[-15,-29],[-45,20],[14,-36],[-38,23],[-3,-21],[43,-14],[32,-36],[-18,-15],[60,-35],[-103,-49],[5,76],[-44,121],[-44,37],[-88,-11],[-32,102]],[[1831,2652],[7,-19],[63,16],[-6,55],[-50,-3],[-14,-49]],[[1873,2473],[46,-47],[22,6],[16,0],[17,-1],[38,59],[-31,20],[-108,-37]],[[1790,2620],[35,4],[5,9],[-19,14],[-21,-27]],[[1950,3273],[4,-5],[5,3],[-4,6],[-5,-4]],[[1687,4096],[744,0],[121,-152],[169,-67],[-24,-98],[1,-173],[99,-218],[-30,-82],[-76,35],[-78,340],[-33,0],[-32,107],[-216,-21],[-75,21],[-33,54],[-97,-54],[-323,0],[-33,215],[-84,93]],[[1662,2307],[16,42],[56,-58],[129,20],[32,-27],[-88,-6],[34,-27],[-12,-25],[-80,37],[22,-58],[-8,-3],[-101,105]],[[1568,2939],[31,62],[103,42],[14,-58],[46,30],[57,-16],[-7,-73],[-45,-35],[-49,26],[-59,-10],[-27,43],[27,-66],[-69,6],[17,35],[-39,14]],[[1548,3250],[23,19],[67,-42],[74,-3],[9,31],[61,-26],[-59,-64],[4,-93],[-20,14],[5,126],[-64,-11],[-100,49]],[[1365,2404],[167,163],[-60,33],[89,11],[70,-100],[9,-125],[25,-33],[-60,-40],[-166,30],[-37,30],[11,14],[-48,17]],[[1808,3426],[37,95],[86,10],[-18,-104],[-59,-29],[-46,28]]]}