{"objects":{"water":{"type":"GeometryCollection","geometries":[{"type":"Polygon","properties":{"source":"naturalearthdata.com","kind":"ocean","area":1576712559132672,"sort_rank":200,"min_zoom":0.0,"id":1},"arcs":[[73]]},{"type":"MultiLineString","properties":{"source":"naturalearthdata.com","kind":"ocean","sort_rank":205,"boundary":true,"min_zoom":0.0,"id":19},"arcs":[[74],[75]]}]},"buildings":{"type":"GeometryCollection","geometries":[]},"places":{"type":"GeometryCollection","geometries":[{"type":"Point","properties":{"admin_level":"4","name:pt":"Principado de Ast\u00farias","name:he":"\u05d0\u05e1\u05d8\u05d5\u05e8\u05d9\u05d0\u05e1","name:sk":"Ast\u00farske knie\u017eatstvo","name:ar":"\u0645\u0646\u0637\u0642\u0629 \u0623\u0633\u062a\u0648\u0631\u064a\u0627\u0633","kind":"region","name:lb":"Asturien","min_zoom":4.0,"name:it":"Principato delle Asturie","old_name":"Kingdom of Asturias","name:ru":"\u0410\u0441\u0442\u0443\u0440\u0438\u044f","name:hr":"Kne\u017eevina Asturija","id":3513471344,"name:ca":"Principat d'Ast\u00faries","population":1076896,"name:eo":"Asturio","name:en":"Principality of Asturias","name":"Asturies","kind_detail":"state","name:da":"Asturien","name:de":"F\u00fcrstentum Asturien","source":"openstreetmap.org","name:fy":"Astuerje","name:be":"\u0410\u0441\u0442\u0443\u0440\u044b\u044f","name:nl":"Asturi\u00eb"},"coordinates":[3173,983]},{"type":"Point","properties":{"admin_level":"8","kind":"locality","int_name":"Xix\u00f3n","name":"Gij\u00f3n\/Xix\u00f3n","kind_detail":"city","min_zoom":8.0,"name:sr":"\u0425\u0438\u0445\u043e\u043d","source":"openstreetmap.org","name:fr":"Gijon","name:es":"Gij\u00f3n","old_name":"Gij\u00f3n","name:ru":"\u0425\u0438\u0445\u043e\u043d","id":529391484,"name:ca":"Gij\u00f3n","population":277198},"coordinates":[3986,1915]},{"type":"Point","properties":{"admin_level":"4","name:ar":"\u0623\u0648\u0641\u064a\u064a\u062f\u0648","reg_name":"Uvi\u00e9u","min_zoom":8.0,"name:be":"\u0410\u045e\u0435\u0434\u0430","name:ru":"\u041e\u0432\u044c\u0435\u0434\u043e","id":493395619,"name:ca":"Oviedo","population":216607,"kind":"locality","name:en":"Oviedo","name":"Oviedo \/ Uvi\u00e9u","kind_detail":"city","source":"openstreetmap.org","name:fr":"Ovi\u00e8de","name:es":"Oviedo"},"coordinates":[3455,1173]},{"type":"Point","properties":{"admin_level":"8","kind":"locality","name":"Avil\u00e9s","kind_detail":"town","source":"openstreetmap.org","min_zoom":8.0,"name:ru":"\u0410\u0432\u0438\u043b\u0435\u0441","population":79105,"id":26517895,"name:ja":"\u30a2\u30d3\u30ec\u30b9"},"coordinates":[3231,1958]},{"type":"Point","properties":{"admin_level":"8","kind":"locality","name":"Langreo\/Llangr\u00e9u","kind_detail":"town","official_name":"Llangr\u00e9u\/Langreo","source":"openstreetmap.org","min_zoom":8.0,"old_name":"Langreo","id":493388923,"name:es":"Langreo","population":40003},"coordinates":[3924,911]},{"type":"Point","properties":{"admin_level":"8","kind":"locality","name":"Mieres del Cam\u00edn","kind_detail":"town","source":"openstreetmap.org","min_zoom":8.0,"old_name":"Mieres del Camino\/Mieres del Cam\u00edn","id":30789582,"name:es":"Mieres del Camino","population":24735},"coordinates":[3667,723]},{"type":"Point","properties":{"admin_level":"8","kind":"locality","name":"Cangas del Narcea","kind_detail":"town","source":"openstreetmap.org","min_zoom":8.0,"id":1996612913,"population":13451},"coordinates":[1402,436]},{"type":"Point","properties":{"kind":"locality","name":"Llugones","kind_detail":"town","official_name":"Lugones\/Llugones","source":"openstreetmap.org","min_zoom":8.0,"old_name":"Lugones","id":29529103,"name:es":"Lugones\/Llugones","population":13012},"coordinates":[3556,1342]},{"type":"Point","properties":{"admin_level":"8","kind":"locality","name":"Pola de Siero\/La Pola Siero","kind_detail":"town","source":"openstreetmap.org","min_zoom":8.0,"old_name":"Pola de Siero","id":28978810,"name:es":"Pola de Siero","population":12791},"coordinates":[3992,1297]},{"type":"Point","properties":{"admin_level":"8","kind":"locality","name":"Grado\/Grau","kind_detail":"town","official_name":"Grau\/Grado","source":"openstreetmap.org","min_zoom":8.0,"old_name":"Grado","id":32847080,"name:es":"Grado","population":7494},"coordinates":[2804,1289]},{"type":"Point","properties":{"admin_level":"8","kind":"locality","name":"Cand\u00e1s","kind_detail":"town","source":"openstreetmap.org","min_zoom":8.0,"id":30413644,"population":6982},"coordinates":[3691,2095]},{"type":"Point","properties":{"admin_level":"8","kind":"locality","name":"Lluanco\/Luanco","kind_detail":"town","source":"openstreetmap.org","min_zoom":8.0,"id":116020644,"name:es":"Luanco","population":5423},"coordinates":[3604,2190]},{"type":"Point","properties":{"admin_level":"8","kind":"locality","name":"Pravia","kind_detail":"town","source":"openstreetmap.org","min_zoom":8.0,"id":32847082,"population":5192},"coordinates":[2672,1692]},{"type":"Point","properties":{"admin_level":"8","kind":"locality","name":"\u1e36\u1e37uarca","kind_detail":"town","source":"openstreetmap.org","min_zoom":8.0,"id":101422863,"name:es":"Luarca","population":4264},"coordinates":[1443,1910]},{"type":"Point","properties":{"admin_level":"8","kind":"locality","name":"Navia","kind_detail":"town","source":"openstreetmap.org","min_zoom":8.0,"id":101423199,"population":4084},"coordinates":[897,1891]},{"type":"Point","properties":{"admin_level":"8","kind":"locality","name":"Tin\u00e9u","kind_detail":"town","source":"openstreetmap.org","min_zoom":8.0,"id":123743719,"name:es":"Tineo","population":3660},"coordinates":[1790,1066]},{"type":"Point","properties":{"admin_level":"8","kind":"locality","name":"Tapia de Casariego","kind_detail":"town","source":"openstreetmap.org","min_zoom":8.0,"id":534368588,"population":2329},"coordinates":[255,2012]},{"type":"Point","properties":{"admin_level":"8","kind":"locality","name":"Salas","kind_detail":"town","source":"openstreetmap.org","min_zoom":8.0,"id":253613519,"population":1597},"coordinates":[2256,1364]}]},"transit":{"type":"GeometryCollection","geometries":[{"type":"LineString","properties":{"kind":"train","network":"Renfe Cercan\u00edas","sort_rank":275,"colour":"#0000FF","name":"L\u00ednea C3 - Oviedo - San Juan de Nieva","source":"openstreetmap.org","min_zoom":6.0,"operator":"Renfe Operadora","ref":"C3","id":-207198,"osm_relation":true,"colour_name":"blue"},"arcs":[6]},{"type":"MultiLineString","properties":{"kind":"train","name":"L\u00ednea F7 Oviedo - San Esteban de Pravia","sort_rank":275,"colour":"#FF6600","source":"openstreetmap.org","min_zoom":6.0,"operator":"Ferrocarriles Espa\u00f1oles de V\u00eda Estrecha (FEVE)","ref":"F7","osm_relation":true,"colour_name":"orangered"},"arcs":[[7],[8],[9],[10],[11],[12],[13],[14],[15],[16]]},{"type":"LineString","properties":{"kind":"train","network":"regional","sort_rank":275,"colour":"#FFCC00","name":"L\u00ednea F6 Infiesto-Oviedo","source":"openstreetmap.org","min_zoom":6.0,"operator":"RENFE","ref":"F6","id":-4840483,"osm_relation":true,"colour_name":"gold"},"arcs":[17]},{"type":"LineString","properties":{"kind":"train","network":"Renfe Cercan\u00edas","sort_rank":275,"colour":"#008000","name":"L\u00ednea C2 El Entrego - Oviedo","source":"openstreetmap.org","min_zoom":6.0,"operator":"Renfe Operadora","ref":"C2","id":-3906900,"osm_relation":true,"colour_name":"green"},"arcs":[18]},{"type":"LineString","properties":{"kind":"train","network":"Feve Regional","sort_rank":275,"source":"openstreetmap.org","min_zoom":6.0,"operator":"RENFE","ref":"R2","id":-226696,"osm_relation":true,"name":"Regional Oviedo - Santander"},"arcs":[19]},{"type":"LineString","properties":{"kind":"train","name":"L\u00ednea C1 Gijon - Puente de los Fierros","sort_rank":275,"colour":"#FF0000","source":"openstreetmap.org","min_zoom":6.0,"network":"Renfe Cercan\u00edas","operator":"Renfe Operadora","ref":"C1","osm_relation":true,"colour_name":"red"},"arcs":[20]},{"type":"LineString","properties":{"kind":"train","network":"Feve Regional","sort_rank":275,"source":"openstreetmap.org","min_zoom":6.0,"operator":"RENFE","ref":"R2","id":-7393405,"osm_relation":true,"name":"Regional Santander - Oviedo"},"arcs":[21]},{"type":"LineString","properties":{"kind":"train","name":"L\u00ednea F4 Gijon - Cudillero","sort_rank":275,"colour":"#66FF00","source":"openstreetmap.org","min_zoom":6.0,"operator":"Ferrocarriles Espa\u00f1oles de V\u00eda Estrecha (FEVE)","ref":"F4","id":-3903019,"osm_relation":true,"colour_name":"limegreen"},"arcs":[22]},{"type":"LineString","properties":{"kind":"train","name":"Cercanias Gijon - Oviedo","sort_rank":275,"source":"openstreetmap.org","min_zoom":6.0,"operator":"RENFE FEVE","id":-7393508,"osm_relation":true},"arcs":[23]},{"type":"MultiLineString","properties":{"osm_relation":true,"source":"openstreetmap.org","kind":"train","name":"Regional El Ferrol - Oviedo","sort_rank":275,"min_zoom":6.0,"operator":"Renfe"},"arcs":[[24],[25],[26],[27],[28],[29],[30],[31],[32],[33]]},{"type":"MultiLineString","properties":{"osm_relation":true,"source":"openstreetmap.org","kind":"train","name":"Alvia 00661","sort_rank":275,"min_zoom":6.0,"operator":"Renfe"},"arcs":[[34],[35]]},{"type":"MultiLineString","properties":{"osm_relation":true,"source":"openstreetmap.org","kind":"train","name":"Alvia 00664","sort_rank":275,"min_zoom":6.0,"operator":"Renfe"},"arcs":[[36],[37]]},{"type":"LineString","properties":{"kind":"train","name":"L\u00ednea F8 Aller - Caudal","sort_rank":275,"colour":"#5599FF","source":"openstreetmap.org","min_zoom":6.0,"operator":"Ferrocarriles Espa\u00f1oles de V\u00eda Estrecha (FEVE)","ref":"F8","id":-7387222,"osm_relation":true,"colour_name":"dodgerblue"},"arcs":[38]},{"type":"MultiLineString","properties":{"kind":"train","name":"24:Le\u00f3n-Gij\u00f3n\/Xix\u00f3n","sort_rank":275,"colour":"#FFAA00","source":"openstreetmap.org","min_zoom":6.0,"network":"Renfe Media Distancia","operator":"Renfe Operadora","ref":"24","osm_relation":true,"colour_name":"orange"},"arcs":[[39],[40]]},{"type":"MultiLineString","properties":{"kind":"train","network":"regional","sort_rank":275,"colour":"#FFCC00","name":"L\u00ednea F5 Laviana - Gijon","source":"openstreetmap.org","min_zoom":6.0,"operator":"Ferrocarriles Espa\u00f1oles de V\u00eda Estrecha (FEVE)","ref":"F5","osm_relation":true,"colour_name":"gold"},"arcs":[[41],[42]]},{"type":"LineString","properties":{"kind":"train","network":"Renfe Cercan\u00edas","sort_rank":275,"colour":"#008000","name":"L\u00ednea C2 Oviedo - El Entrego","source":"openstreetmap.org","min_zoom":6.0,"operator":"Renfe Operadora","ref":"C2","id":-207196,"osm_relation":true,"colour_name":"green"},"arcs":[43]},{"type":"LineString","properties":{"kind":"train","name":"L\u00ednea C1 Puente de los Fierros - Gijon","sort_rank":275,"colour":"#FF0000","source":"openstreetmap.org","min_zoom":6.0,"network":"Renfe Cercan\u00edas","operator":"Renfe Operadora","ref":"C1","osm_relation":true,"colour_name":"red"},"arcs":[44]},{"type":"LineString","properties":{"source":"openstreetmap.org","kind":"train","name":"Ferrocarril de Langreo (Abandonado)","sort_rank":275,"min_zoom":6.0,"osm_relation":true,"id":-6364883},"arcs":[45]},{"type":"MultiLineString","properties":{"kind":"train","name":"L\u00ednea F5 Gijon-Laviana","sort_rank":275,"colour":"#FFCC00","source":"openstreetmap.org","min_zoom":6.0,"network":"regional","operator":"Ferrocarriles Espa\u00f1oles de V\u00eda Estrecha (FEVE)","ref":"F5","osm_relation":true,"colour_name":"gold"},"arcs":[[46],[47]]},{"type":"MultiLineString","properties":{"osm_relation":true,"source":"openstreetmap.org","kind":"train","name":"Regional Oviedo - El Ferrol","sort_rank":275,"min_zoom":6.0,"operator":"Renfe"},"arcs":[[48],[49],[50],[51],[52],[53],[54],[55],[56],[57]]},{"type":"LineString","properties":{"kind":"train","name":"Cercanias Oviedo - Gijon","sort_rank":275,"source":"openstreetmap.org","min_zoom":6.0,"operator":"RENFE FEVE","id":-7393509,"osm_relation":true},"arcs":[58]},{"type":"LineString","properties":{"kind":"train","network":"Renfe Cercan\u00edas","sort_rank":275,"colour":"#0000FF","name":"L\u00ednea C3 - San Juan de Nieva - Oviedo","source":"openstreetmap.org","min_zoom":6.0,"operator":"Renfe Operadora","ref":"C3","id":-7387331,"osm_relation":true,"colour_name":"blue"},"arcs":[59]},{"type":"MultiLineString","properties":{"kind":"train","name":"L\u00ednea F7 San Esteban de Pravia - Oviedo","sort_rank":275,"colour":"#FF6600","source":"openstreetmap.org","min_zoom":6.0,"operator":"Ferrocarriles Espa\u00f1oles de V\u00eda Estrecha (FEVE)","ref":"F7","osm_relation":true,"colour_name":"orangered"},"arcs":[[60],[61],[62],[63],[64],[65],[66],[67],[68],[69]]},{"type":"LineString","properties":{"kind":"train","network":"regional","sort_rank":275,"colour":"#FFCC00","name":"L\u00ednea F6 Oviedo-Infiesto","source":"openstreetmap.org","min_zoom":6.0,"operator":"RENFE","ref":"F6","id":-4840309,"osm_relation":true,"colour_name":"gold"},"arcs":[70]},{"type":"LineString","properties":{"kind":"train","name":"L\u00ednea F4 Gij\u00f3n - Cudillero","sort_rank":275,"colour":"#66FF00","source":"openstreetmap.org","min_zoom":6.0,"operator":"Ferrocarriles Espa\u00f1oles de V\u00eda Estrecha (FEVE)","ref":"F4","id":-207190,"osm_relation":true,"colour_name":"limegreen"},"arcs":[71]},{"type":"LineString","properties":{"kind":"train","network":"regional","sort_rank":275,"colour":"#5599FF","name":"L\u00ednea F8 Caudal - Aller","source":"openstreetmap.org","min_zoom":6.0,"operator":"Ferrocarriles Espa\u00f1oles de V\u00eda Estrecha (FEVE)","ref":"F8","id":-207192,"osm_relation":true,"colour_name":"dodgerblue"},"arcs":[72]}]},"pois":{"type":"GeometryCollection","geometries":[{"type":"Point","properties":{"kind":"nature_reserve","protect_class":"4","area":546746000,"source":"openstreetmap.org","min_zoom":7.74,"tier":2,"id":-1222922,"osm_relation":true,"name":"Parque Natural de Somiedo"},"coordinates":[2269,139]},{"type":"Point","properties":{"source":"openstreetmap.org","kind":"military","name":"Zona militar - Acuartelamiento Cabo Noval","area":19130600,"tier":3,"min_zoom":8.0,"id":445879759},"coordinates":[3748,1399]}]},"boundaries":{"type":"GeometryCollection","geometries":[{"type":"LineString","properties":{"name:kg":"Espania","name:ty":"Paniora","name:ka":"\u10d4\u10e1\u10de\u10d0\u10dc\u10d4\u10d7\u10d8","name:ko":"\uc2a4\ud398\uc778","name:cv":"\u0418\u0441\u043f\u0430\u043d\u0438","name:cu":"\u0407\u0441\u043f\u0430\u043d\u0457\ua657","name:kl":"Spania","name:cs":"\u0160pan\u011blsko","name:tt":"\u0418\u0441\u043f\u0430\u043d\u0438\u044f","name:co":"Spagna","name:kv":"\u0418\u0441\u043f\u0430\u043d\u0438\u044f","name:ku":"Spanya","name:to":"Sepeni","name:tl":"Espanya","name:ce":"\u0418\u0441\u043f\u0430\u043d\u0438","name:ta":"\u0b8e\u0b9a\u0bc1\u0baa\u0bcd\u0baa\u0bbe\u0ba9\u0bbf\u0baf\u0bbe","name:tg":"\u0418\u0441\u043f\u043e\u043d\u0438\u0451","name:ca":"Espanya","name:te":"\u0c38\u0c4d\u0c2a\u0c46\u0c2f\u0c3f\u0c28\u0c4d","name:cy":"Sbaen","name:qu":"Ispa\u00f1a","name:da":"Spanien","name:de":"Spanien","name:dz":"\u0f66\u0f72\u0f54\u0f71\u0f7a\u0f53\u0f0b","source":"openstreetmap.org","name:kn":"\u0cb8\u0ccd\u0caa\u0cc7\u0ca8\u0ccd","name:dv":"\u0787\u07a8\u0790\u07b0\u0795\u07ac\u0787\u07a8\u0782\u07b0","name:km":"\u17a2\u17c1\u179f\u17d2\u1794\u17c9\u17b6\u1789","name:lv":"Sp\u0101nija","name:lt":"Ispanija","name:uz":"Ispaniya","name:kk":"\u0418\u0441\u043f\u0430\u043d\u0438\u044f","name:ur":"\u06c1\u0633\u067e\u0627\u0646\u06cc\u06c1","name:lb":"Spuenien","name:la":"Hispania","name:uk":"\u0406\u0441\u043f\u0430\u043d\u0456\u044f","name:ug":"Ispaniye","name:li":"Spanje","name:ln":"Espania","name:el":"\u0399\u03c3\u03c0\u03b1\u03bd\u03af\u03b1","name:eo":"Hispanujo","name:en":"Spain","name":"Espa\u00f1a","name:tk":"Ispani\u00fda","name:ee":"Spain","name:th":"\u0e1b\u0e23\u0e30\u0e40\u0e17\u0e28\u0e2a\u0e40\u0e1b\u0e19","name:eu":"Espainia","name:et":"Hispaania","name:ay":"Ispa\u00f1a","name:rm":"Spagna","name:rn":"Esipanye","name:az":"\u0130spaniya","name:ie":"Hispania","name:id":"Spanyol","name:ig":"Spain","name:ik":"Spa\u00f1a","name:ar":"\u0625\u0633\u0628\u0627\u0646\u064a\u0627","name:io":"Hispania","name:is":"Sp\u00e1nn","name:am":"\u12a5\u1235\u1353\u1295\u12eb","name:it":"Spagna","name:an":"Espanya","name:ru":"\u0418\u0441\u043f\u0430\u043d\u0438\u044f","name:rw":"Esipanye","name:af":"Spanje","name:zu":"ISpeyini","kind_detail":"2","name:za":"Sihbanhyaz","name:zh-yue":"\u897f\u73ed\u7259","name:zh":"\u897f\u73ed\u7259","name:so":"Isbania","name:sm":"Spania","name:sl":"\u0160panija","name:sk":"\u0160panielsko","name:ja":"\u30b9\u30da\u30a4\u30f3","name:sh":"\u0160panija","name:se":"Sp\u00e1nia","name:sc":"Ispagna","name:br":"Spagn","name:bs":"\u0160panija","name:bn":"\u09b8\u09cd\u09aa\u09c7\u09a8","name:bo":"\u0f5e\u0f72\u0f0b\u0f54\u0f53\u0f0b\u0f61\u0f0d","name:bi":"Spain","name:sw":"Hispania","name:be":"\u0406\u0441\u043f\u0430\u043d\u0456\u044f","name:su":"Spanyol","name:bg":"\u0418\u0441\u043f\u0430\u043d\u0438\u044f","name:ss":"Sipeyini","name:ba":"\u0418\u0441\u043f\u0430\u043d\u0438\u044f","name:sq":"Spanja","name:jv":"Spanyol","name:sa":"\u0938\u094d\u092a\u0947\u0928\u094d","name:ia":"Espania","name:pt":"Espanha","name:ps":"\u0627\u0633\u067e\u0627\u0646\u06cc\u0627","name:oc":"Espanha","min_zoom":8.0,"name:ro":"Spania","name:zh-min-nan":"Se-pan-g\u00e2","name:os":"\u0418\u0441\u043f\u0430\u043d\u0438","name:or":"\u0b38\u0b4d\u0b2a\u0b47\u0b28","name:pl":"Hiszpania","name:st":"Spain","sort_rank":262,"name:sr":"\u0428\u043f\u0430\u043d\u0438\u0458\u0430","osm_relation":true,"name:pa":"\u0a38\u0a2a\u0a47\u0a28","name:tr":"\u0130spanya","name:hi":"\u0938\u094d\u092a\u0947\u0928","name:sv":"Spanien","name:he":"\u05e1\u05e4\u05e8\u05d3","name:hy":"\u053b\u057d\u057a\u0561\u0576\u056b\u0561","name:ht":"Espay","name:hu":"Spanyolorsz\u00e1g","name:hr":"\u0160panjolska","kind":"country","name:ts":"Spaniya","name:yi":"\u05e9\u05e4\u05d0\u05e0\u05d9\u05e2","name:iu":"\u14ef\u1438\u1403\u14d0","name:yo":"Sp\u00e9\u00ecn","name:mt":"Spanja","alt_name:eo":"Hispanio","name:ms":"Sepanyol","name:mr":"\u0938\u094d\u092a\u0947\u0928","name:my":"\u1005\u1015\u102d\u1014\u103a\u1014\u102d\u102f\u1004\u103a\u1004\u1036","official_name":"Reino de Espa\u00f1a","name:kw":"Spayn","name:mg":"Espaina","name:vi":"T\u00e2y Ban Nha","name:ml":"\u0d38\u0d4d\u0d2a\u0d46\u0d2f\u0d3f\u0d7b","name:mn":"\u0418\u0441\u043f\u0430\u043d\u0438","name:mi":"P\u0101niora","id":-1311341,"name:mk":"\u0428\u043f\u0430\u043d\u0438\u0458\u0430","name:vo":"Spany\u00e4n","name:fa":"\u0627\u0633\u067e\u0627\u0646\u06cc\u0627","name:fi":"Espanja","name:ky":"\u0418\u0441\u043f\u0430\u043d\u0438\u044f","name:fo":"Spania","name:fr":"Espagne","name:fy":"Spanje","int_name":"Spain","name:nl":"Spanje","name:nn":"Spania","name:no":"Spania","name:na":"Pain","name:ne":"\u0938\u094d\u092a\u0947\u0928","name:wa":"Espagne","name:wo":"Ispaa\u00f1","name:nv":"Dib\u00e9 Din\u00ed\u00ed Bik\u00e9yah","name:ga":"An Sp\u00e1inn","name:gd":"An Sp\u00e0inn","maritime_boundary":true,"name:gv":"Yn Spaainey","name:gu":"\u0ab8\u0acd\u0aaa\u0ac7\u0aa8"},"arcs":[0]},{"type":"LineString","properties":{"name:right:fr":"Asturies","id:right":-349033,"min_zoom":8.0,"name:left:lt":"Kastilija ir Leonas","name:left:be":"\u041a\u0430\u0441\u0442\u044b\u043b\u0456\u044f \u0456 \u041b\u0435\u043e\u043d","id":-349041,"name:right":"Asturias","name:left:en":"Castile and Le\u00f3n","name:right:ca":"Ast\u00faries","kind_detail":"4","name:left:ca":"Castella i Lle\u00f3","source":"openstreetmap.org","name:right:ar":"\u0623\u0633\u062a\u0648\u0631\u064a\u0627\u0633","id:left":-349041,"name:right:cs":"Asturie","name:left:cs":"Kastilie a Le\u00f3n","name:left":"Castilla y Le\u00f3n","name:right:pt":"Ast\u00farias","name:left:ar":"\u0642\u0634\u062a\u0627\u0644\u0629 \u0648\u0644\u064a\u0648\u0646","name:left:pl":"Kastylia i Le\u00f3n","name:left:pt":"Castela e Le\u00e3o","name:left:de":"Kastilien und Le\u00f3n","name:left:ru":"\u041a\u0430\u0441\u0442\u0438\u043b\u0438\u044f \u0438 \u041b\u0435\u043e\u043d","osm_relation":true,"kind":"region","name":"Castilla y Le\u00f3n - Asturias","name:right:de":"Asturien","name:left:nl":"Castili\u00eb en Le\u00f3n","alt_name:left:cs":"Kastilie-Le\u00f3n","name:right:be":"\u0410\u0441\u0442\u0443\u0440\u044b\u044f","sort_rank":256,"name:left:fr":"Castille-et-Le\u00f3n","name:left:eu":"Gaztela eta Leon"},"arcs":[1]},{"type":"MultiLineString","properties":{"name:right:fr":"Asturies","id:right":-349033,"min_zoom":8.0,"name:left:lt":"Galisija","name:left:be":"\u0413\u0430\u043b\u0456\u0441\u0456\u044f","id":-349036,"name:right":"Asturias","name:right:ca":"Ast\u00faries","kind_detail":"4","name:left:ca":"Gal\u00edcia","source":"openstreetmap.org","name:right:ar":"\u0623\u0633\u062a\u0648\u0631\u064a\u0627\u0633","id:left":-349036,"name:right:cs":"Asturie","name:left:cs":"Galicie","name:left":"Galicia","name:right:pt":"Ast\u00farias","name:left:pl":"Galicja","name:left:pt":"Galiza","name:left:de":"Galicien","name:left:ru":"\u0413\u0430\u043b\u0438\u0441\u0438\u044f","name:left:it":"Galizia","osm_relation":true,"kind":"region","name":"Galicia - Asturias","name:right:de":"Asturien","name:left:nl":"Galici\u00eb","name:right:be":"\u0410\u0441\u0442\u0443\u0440\u044b\u044f","sort_rank":256,"name:left:fr":"Galice","name:left:eu":"Galizia","alt_name:left:gl":"Galiza","official_name:left":"Comunidade Aut\u00f3noma de Galicia"},"arcs":[[2],[3]]},{"type":"LineString","properties":{"kind":"region","name":"Asturias","sort_rank":256,"kind_detail":"4","name:ar":"\u0623\u0633\u062a\u0648\u0631\u064a\u0627\u0633","name:cs":"Asturie","name:pt":"Ast\u00farias","name:de":"Asturien","source":"openstreetmap.org","min_zoom":8.0,"name:fr":"Asturies","name:ca":"Ast\u00faries","name:be":"\u0410\u0441\u0442\u0443\u0440\u044b\u044f","id":-349033,"osm_relation":true},"arcs":[4]},{"type":"LineString","properties":{"name:pt":"Ast\u00farias","name:ar":"\u0623\u0633\u062a\u0648\u0631\u064a\u0627\u0633","name:cs":"Asturie","min_zoom":8.0,"name:be":"\u0410\u0441\u0442\u0443\u0440\u044b\u044f","id":-349033,"name:ca":"Ast\u00faries","kind":"region","name":"Asturias","sort_rank":256,"kind_detail":"4","name:fr":"Asturies","name:de":"Asturien","source":"openstreetmap.org","maritime_boundary":true,"osm_relation":true},"arcs":[5]}]},"roads":{"type":"GeometryCollection","geometries":[{"type":"LineString","properties":{"bus_network":"local","sort_rank":381,"landuse_kind":"urban_area","kind":"major_road","source":"openstreetmap.org","min_zoom":8.0,"bus_shield_text":"L8","kind_detail":"trunk","ref":"N-634"},"arcs":[76]},{"type":"MultiLineString","properties":{"source":"openstreetmap.org","kind":"highway","sort_rank":383,"kind_detail":"motorway","ref":"AS-17","min_zoom":8.0},"arcs":[[77],[78],[79]]},{"type":"MultiLineString","properties":{"source":"openstreetmap.org","kind":"major_road","landuse_kind":"urban_area","sort_rank":380,"kind_detail":"primary","min_zoom":8.0},"arcs":[[80],[81],[82],[83],[84],[85],[86],[87],[88],[89],[90],[91],[92],[93],[94],[95],[96],[97],[98],[99],[100],[101],[102],[103]]},{"type":"MultiLineString","properties":{"source":"openstreetmap.org","kind":"major_road","sort_rank":380,"kind_detail":"primary","ref":"AS-118","min_zoom":8.0},"arcs":[[104],[105],[106],[107],[108],[109],[110]]},{"type":"LineString","properties":{"bus_network":null,"sort_rank":380,"kind_detail":"primary","kind":"major_road","source":"openstreetmap.org","min_zoom":8.0,"bus_shield_text":"L25","landuse_kind":"urban_area"},"arcs":[111]},{"type":"MultiLineString","properties":{"source":"openstreetmap.org","kind":"major_road","sort_rank":380,"kind_detail":"primary","ref":"AS-112","min_zoom":8.0},"arcs":[[112],[113],[114],[115]]},{"type":"MultiLineString","properties":{"source":"openstreetmap.org","kind":"highway","landuse_kind":"urban_area","sort_rank":383,"kind_detail":"motorway","ref":"O-12","min_zoom":8.0},"arcs":[[116],[117],[118],[119]]},{"type":"LineString","properties":{"kind":"highway","network":"e-road","sort_rank":383,"kind_detail":"motorway","source":"openstreetmap.org","min_zoom":8.0,"all_networks":["e-road","ES:A-road"],"shield_text":"70","id":192996440,"all_shield_texts":["70","8"]},"arcs":[120]},{"type":"MultiLineString","properties":{"source":"openstreetmap.org","kind":"major_road","sort_rank":380,"kind_detail":"primary","ref":"AS-17","min_zoom":8.0},"arcs":[[121],[122],[123],[124],[125],[126],[127],[128],[129],[130],[131],[132],[133]]},{"type":"LineString","properties":{"bus_network":null,"sort_rank":381,"landuse_kind":"urban_area","kind":"major_road","source":"openstreetmap.org","min_zoom":8.0,"bus_shield_text":"L6","kind_detail":"trunk","ref":"AS-II"},"arcs":[134]},{"type":"MultiLineString","properties":{"source":"openstreetmap.org","kind":"major_road","sort_rank":380,"kind_detail":"primary","ref":"N-632a","min_zoom":8.0},"arcs":[[135],[136],[137],[138],[139],[140],[141],[142],[143],[144],[145],[146],[147]]},{"type":"LineString","properties":{"kind":"highway","network":null,"sort_rank":383,"kind_detail":"motorway","name:es":"GJ-81 Salida Oeste de Gij\u00f3n","source":"openstreetmap.org","min_zoom":8.0,"all_networks":[null],"landuse_kind":"urban_area","shield_text":"81","ref":"GJ-81","id":432807306,"all_shield_texts":["81"]},"arcs":[148]},{"type":"MultiLineString","properties":{"source":"openstreetmap.org","kind":"major_road","landuse_kind":"urban_area","sort_rank":380,"kind_detail":"primary","ref":"AS-110","min_zoom":8.0},"arcs":[[149],[150],[151]]},{"type":"LineString","properties":{"source":"openstreetmap.org","kind":"major_road","sort_rank":380,"kind_detail":"primary","ref":"AS-12","min_zoom":8.0},"arcs":[152]},{"type":"MultiLineString","properties":{"source":"openstreetmap.org","kind":"major_road","sort_rank":381,"kind_detail":"trunk","ref":"N-634a","min_zoom":8.0},"arcs":[[153],[154],[155],[156],[157],[158],[159],[160],[161],[162],[163],[164],[165],[166],[167],[168],[169],[170],[171],[172]]},{"type":"MultiLineString","properties":{"bus_network":null,"sort_rank":380,"kind_detail":"primary","kind":"major_road","source":"openstreetmap.org","min_zoom":8.0,"bus_shield_text":"L1","landuse_kind":"urban_area","ref":"N-632"},"arcs":[[173],[174],[175],[176],[177]]},{"type":"LineString","properties":{"kind":"major_road","sort_rank":380,"kind_detail":"primary","source":"openstreetmap.org","min_zoom":8.0,"ref":"AS-110","id":381931573,"name:es":"Accesu direcci\u00f3n Cand\u00e1s Norte \/ Antromero"},"arcs":[178]},{"type":"MultiLineString","properties":{"source":"openstreetmap.org","kind":"major_road","landuse_kind":"urban_area","sort_rank":380,"kind_detail":"primary","ref":"AS-17","min_zoom":8.0},"arcs":[[179],[180],[181],[182],[183],[184],[185],[186],[187],[188],[189],[190]]},{"type":"LineString","properties":{"bus_network":null,"sort_rank":380,"kind_detail":"primary","kind":"major_road","source":"openstreetmap.org","min_zoom":8.0,"bus_shield_text":"L6","landuse_kind":"urban_area"},"arcs":[191]},{"type":"MultiLineString","properties":{"sort_rank":380,"kind_detail":"primary","min_zoom":8.0,"kind":"major_road","source":"openstreetmap.org"},"arcs":[[192],[193],[194],[195],[196],[197],[198],[199],[200],[201],[202],[203],[204]]},{"type":"LineString","properties":{"source":"openstreetmap.org","kind":"major_road","kind_detail":"trunk","sort_rank":381,"landuse_kind":"urban_area","ref":"N-632","min_zoom":8.0},"arcs":[205]},{"type":"LineString","properties":{"kind":"major_road","sort_rank":380,"kind_detail":"primary","source":"openstreetmap.org","min_zoom":8.0,"ref":"AS-238","id":179898428,"name:es":"Rotonda de Luanco"},"arcs":[206]},{"type":"MultiLineString","properties":{"source":"openstreetmap.org","kind":"major_road","sort_rank":381,"kind_detail":"trunk","ref":"N-634","min_zoom":8.0},"arcs":[[207],[208],[209],[210],[211],[212],[213],[214],[215],[216],[217],[218],[219],[220],[221],[222],[223],[224],[225],[226],[227],[228],[229],[230],[231],[232],[233],[234],[235],[236],[237],[238],[239],[240],[241],[242],[243],[244],[245],[246],[247],[248],[249],[250],[251],[252],[253],[254],[255],[256],[257],[258],[259],[260],[261],[262],[263],[264],[265],[266],[267],[268],[269],[270],[271],[272],[273],[274],[275],[276],[277],[278],[279],[280],[281],[282],[283],[284],[285],[286],[287],[288],[289],[290],[291],[292],[293],[294],[295],[296],[297],[298],[299],[300],[301],[302],[303],[304],[305],[306],[307],[308],[309],[310],[311],[312],[313],[314],[315],[316],[317],[318],[319],[320],[321],[322],[323],[324],[325],[326],[327],[328],[329],[330],[331],[332],[333],[334],[335],[336],[337],[338],[339],[340],[341],[342],[343],[344],[345],[346],[347],[348],[349],[350],[351],[352],[353],[354],[355],[356],[357],[358],[359],[360],[361],[362],[363]]},{"type":"LineString","properties":{"kind":"major_road","sort_rank":380,"kind_detail":"primary","source":"openstreetmap.org","min_zoom":8.0,"ref":"AS-118","id":65240175,"name:es":"T\u00fanel de El Regueral"},"arcs":[364]},{"type":"MultiLineString","properties":{"kind":"highway","network":"e-road","sort_rank":383,"kind_detail":"motorway","source":"openstreetmap.org","min_zoom":8.0,"all_networks":["e-road","ES:A-road"],"shield_text":"70","ref":"A-8","all_shield_texts":["70","8"]},"arcs":[[365],[366],[367],[368],[369],[370],[371],[372],[373],[374],[375],[376],[377]]},{"type":"MultiLineString","properties":{"bus_network":null,"sort_rank":380,"kind_detail":"primary","kind":"major_road","source":"openstreetmap.org","min_zoom":8.0,"bus_shield_text":"L15","landuse_kind":"urban_area","ref":"N-632"},"arcs":[[378],[379],[380],[381]]},{"type":"MultiLineString","properties":{"kind":"major_road","network":null,"sort_rank":381,"kind_detail":"trunk","source":"openstreetmap.org","min_zoom":8.0,"shield_text":"640","ref":"N-640"},"arcs":[[382],[383],[384]]},{"type":"MultiLineString","properties":{"source":"openstreetmap.org","kind":"major_road","sort_rank":380,"kind_detail":"primary","ref":"AS-111","min_zoom":8.0},"arcs":[[385],[386],[387],[388],[389]]},{"type":"MultiLineString","properties":{"kind":"highway","network":null,"sort_rank":383,"kind_detail":"motorway","source":"openstreetmap.org","min_zoom":8.0,"all_networks":[null],"shield_text":"17","ref":"AS-17","all_shield_texts":["17"]},"arcs":[[390],[391]]},{"type":"MultiLineString","properties":{"source":"openstreetmap.org","kind":"major_road","landuse_kind":"urban_area","sort_rank":380,"kind_detail":"primary","ref":"GJ-81","min_zoom":8.0},"arcs":[[392],[393]]},{"type":"MultiLineString","properties":{"bus_network":null,"sort_rank":381,"kind_detail":"trunk","kind":"major_road","source":"openstreetmap.org","min_zoom":8.0,"bus_shield_text":"L1","ref":"N-632"},"arcs":[[394],[395],[396]]},{"type":"MultiLineString","properties":{"bus_network":null,"sort_rank":381,"landuse_kind":"urban_area","kind":"major_road","source":"openstreetmap.org","min_zoom":8.0,"bus_shield_text":"L20","kind_detail":"trunk","ref":"GJ-10"},"arcs":[[397],[398]]},{"type":"MultiLineString","properties":{"bus_network":null,"sort_rank":380,"kind_detail":"primary","kind":"major_road","source":"openstreetmap.org","min_zoom":8.0,"bus_shield_text":"L1","landuse_kind":"urban_area"},"arcs":[[399],[400],[401]]},{"type":"MultiLineString","properties":{"kind":"highway","sort_rank":383,"kind_detail":"motorway","source":"openstreetmap.org","min_zoom":8.0,"landuse_kind":"urban_area","ref":"GJ-81","osm_relation":true},"arcs":[[402],[403]]},{"type":"LineString","properties":{"bus_network":null,"sort_rank":381,"landuse_kind":"urban_area","kind":"major_road","source":"openstreetmap.org","min_zoom":8.0,"bus_shield_text":"L6","kind_detail":"trunk","ref":"GJ-10"},"arcs":[404]},{"type":"MultiLineString","properties":{"kind":"highway","network":"ES:A-road","sort_rank":383,"kind_detail":"motorway","source":"openstreetmap.org","min_zoom":8.0,"all_networks":["ES:A-road"],"shield_text":"63","ref":"A-63","all_shield_texts":["63"]},"arcs":[[405],[406],[407],[408],[409],[410],[411],[412],[413],[414]]},{"type":"LineString","properties":{"bus_network":null,"sort_rank":380,"kind_detail":"primary","kind":"major_road","source":"openstreetmap.org","min_zoom":8.0,"bus_shield_text":"L6","landuse_kind":"urban_area","ref":"AS-II"},"arcs":[415]},{"type":"LineString","properties":{"source":"openstreetmap.org","kind":"major_road","sort_rank":380,"kind_detail":"primary","ref":"SL-9","min_zoom":8.0,"id":459026558},"arcs":[416]},{"type":"MultiLineString","properties":{"source":"openstreetmap.org","kind":"major_road","sort_rank":381,"kind_detail":"trunk","ref":"AS-II","min_zoom":8.0},"arcs":[[417],[418],[419]]},{"type":"MultiLineString","properties":{"bus_network":"local","sort_rank":381,"landuse_kind":"urban_area","kind":"major_road","source":"openstreetmap.org","min_zoom":8.0,"bus_shield_text":"L11","kind_detail":"trunk"},"arcs":[[420],[421]]},{"type":"MultiLineString","properties":{"bus_network":"local","sort_rank":381,"kind_detail":"trunk","kind":"major_road","source":"openstreetmap.org","min_zoom":8.0,"bus_shield_text":"L10","ref":"N-630"},"arcs":[[422],[423],[424],[425],[426]]},{"type":"MultiLineString","properties":{"source":"openstreetmap.org","kind":"major_road","sort_rank":380,"kind_detail":"primary","ref":"N-634","min_zoom":8.0},"arcs":[[427],[428]]},{"type":"MultiLineString","properties":{"kind":"highway","network":null,"sort_rank":383,"landuse_kind":"urban_area","source":"openstreetmap.org","min_zoom":8.0,"all_networks":[null],"kind_detail":"motorway","shield_text":"I","ref":"AS-I","all_shield_texts":["I"]},"arcs":[[429],[430],[431],[432]]},{"type":"LineString","properties":{"source":"openstreetmap.org","kind":"highway","landuse_kind":"urban_area","sort_rank":383,"kind_detail":"motorway","ref":"N-630","min_zoom":8.0},"arcs":[433]},{"type":"LineString","properties":{"kind":"major_road","sort_rank":381,"kind_detail":"trunk","bus_network":"Transporte urbano de Xixon \/ Gijon","source":"openstreetmap.org","min_zoom":8.0,"bus_shield_text":"L4","landuse_kind":"urban_area","ref":"GJ-10","id":111470371},"arcs":[434]},{"type":"LineString","properties":{"kind":"major_road","sort_rank":380,"kind_detail":"primary","bicycle_shield_text":"CdN","bicycle_network":"nwn","source":"openstreetmap.org","min_zoom":8.0,"landuse_kind":"urban_area","ref":"N-632a","id":23377393},"arcs":[435]},{"type":"MultiLineString","properties":{"source":"openstreetmap.org","kind":"major_road","sort_rank":381,"kind_detail":"trunk","ref":"N-630","min_zoom":8.0},"arcs":[[436],[437],[438],[439],[440],[441],[442],[443],[444],[445],[446],[447],[448],[449],[450],[451],[452],[453],[454],[455]]},{"type":"MultiLineString","properties":{"bus_network":"CTA","sort_rank":381,"landuse_kind":"urban_area","kind":"major_road","source":"openstreetmap.org","min_zoom":8.0,"bus_shield_text":null,"kind_detail":"trunk"},"arcs":[[456],[457]]},{"type":"MultiLineString","properties":{"kind":"highway","network":null,"sort_rank":383,"landuse_kind":"urban_area","source":"openstreetmap.org","min_zoom":8.0,"all_networks":[null],"kind_detail":"motorway","shield_text":"I","ref":"AS-II","all_shield_texts":["I"]},"arcs":[[458],[459],[460],[461]]},{"type":"MultiLineString","properties":{"kind":"highway","network":"e-road","sort_rank":383,"landuse_kind":"urban_area","source":"openstreetmap.org","min_zoom":8.0,"all_networks":["e-road","ES:A-road"],"kind_detail":"motorway","shield_text":"70","ref":"A-8","all_shield_texts":["70","8"]},"arcs":[[462],[463],[464],[465],[466],[467],[468]]},{"type":"LineString","properties":{"kind":"highway","sort_rank":383,"landuse_kind":"urban_area","source":"openstreetmap.org","min_zoom":8.0,"kind_detail":"motorway","ref":"A-66a","id":379455937},"arcs":[469]},{"type":"MultiLineString","properties":{"source":"openstreetmap.org","kind":"major_road","kind_detail":"trunk","sort_rank":381,"landuse_kind":"urban_area","ref":"AS-II","min_zoom":8.0},"arcs":[[470],[471]]},{"type":"MultiLineString","properties":{"source":"openstreetmap.org","kind":"highway","sort_rank":383,"kind_detail":"motorway","ref":"A-66R","min_zoom":8.0},"arcs":[[472],[473]]},{"type":"LineString","properties":{"bus_network":null,"sort_rank":380,"kind_detail":"primary","kind":"major_road","source":"openstreetmap.org","min_zoom":8.0,"bus_shield_text":"L-6","landuse_kind":"urban_area","ref":"AS-II"},"arcs":[474]},{"type":"MultiLineString","properties":{"source":"openstreetmap.org","kind":"major_road","kind_detail":"trunk","sort_rank":381,"landuse_kind":"urban_area","ref":"AS-17","min_zoom":8.0},"arcs":[[475],[476],[477],[478],[479],[480],[481]]},{"type":"MultiLineString","properties":{"source":"openstreetmap.org","bus_network":"CTA","bus_shield_text":null,"sort_rank":381,"kind_detail":"trunk","min_zoom":8.0,"kind":"major_road"},"arcs":[[482],[483]]},{"type":"MultiLineString","properties":{"source":"openstreetmap.org","kind":"major_road","sort_rank":380,"kind_detail":"primary","ref":"AS-118","min_zoom":8.0,"name:es":"Carretera Luanco - El Empalme"},"arcs":[[484],[485]]},{"type":"MultiLineString","properties":{"source":"openstreetmap.org","kind":"major_road","kind_detail":"trunk","sort_rank":381,"landuse_kind":"urban_area","ref":"N-630","min_zoom":8.0},"arcs":[[486],[487],[488],[489],[490],[491],[492],[493],[494],[495],[496],[497],[498],[499],[500]]},{"type":"MultiLineString","properties":{"kind":"highway","sort_rank":383,"landuse_kind":"urban_area","source":"openstreetmap.org","min_zoom":8.0,"kind_detail":"motorway","ref":"AI-81","name:es":"Acceso al centro de Avil\u00e9s"},"arcs":[[501],[502],[503],[504],[505],[506]]},{"type":"LineString","properties":{"bus_network":null,"sort_rank":381,"landuse_kind":"urban_area","kind":"major_road","source":"openstreetmap.org","min_zoom":8.0,"bus_shield_text":"L25","kind_detail":"trunk","ref":"GJ-10"},"arcs":[507]},{"type":"LineString","properties":{"kind":"major_road","sort_rank":381,"kind_detail":"trunk","bus_network":"local","source":"openstreetmap.org","min_zoom":8.0,"bus_shield_text":"E1","landuse_kind":"urban_area","id":45897913},"arcs":[508]},{"type":"LineString","properties":{"kind":"highway","network":null,"sort_rank":383,"kind_detail":"motorway","name:es":"GJ-81 Salida Oviedo\/Avil\u00e9s","source":"openstreetmap.org","min_zoom":8.0,"all_networks":[null],"landuse_kind":"urban_area","shield_text":"81","ref":"GJ-81","id":162755188,"all_shield_texts":["81"]},"arcs":[509]},{"type":"LineString","properties":{"kind":"major_road","sort_rank":380,"kind_detail":"primary","bus_network":"Transporte urbano de Xix\u00f3n \/ Gij\u00f3n","source":"openstreetmap.org","min_zoom":8.0,"bus_shield_text":"L-2","landuse_kind":"urban_area","id":111461626},"arcs":[510]},{"type":"LineString","properties":{"kind":"major_road","sort_rank":381,"kind_detail":"trunk","bus_network":"local","source":"openstreetmap.org","min_zoom":8.0,"bus_shield_text":"L10","landuse_kind":"urban_area","id":64836499},"arcs":[511]},{"type":"LineString","properties":{"source":"openstreetmap.org","kind":"major_road","sort_rank":381,"kind_detail":"trunk","ref":"AS-19;GJ-10","min_zoom":8.0,"name:es":"Carretera Gij\u00f3n-Avil\u00e9s"},"arcs":[512]},{"type":"LineString","properties":{"kind":"highway","network":"e-road","sort_rank":383,"kind_detail":"motorway","source":"openstreetmap.org","min_zoom":8.0,"all_networks":["e-road","ES:A-road"],"landuse_kind":"urban_area","shield_text":"70","ref":"AI-81","id":307783572,"all_shield_texts":["70","8"]},"arcs":[513]},{"type":"MultiLineString","properties":{"source":"openstreetmap.org","kind":"major_road","landuse_kind":"urban_area","sort_rank":380,"kind_detail":"primary","ref":"GJ-10","min_zoom":8.0},"arcs":[[514],[515],[516],[517],[518],[519],[520]]},{"type":"MultiLineString","properties":{"source":"openstreetmap.org","kind":"major_road","sort_rank":380,"kind_detail":"primary","ref":"AS-16","min_zoom":8.0},"arcs":[[521],[522],[523],[524],[525],[526],[527],[528],[529]]},{"type":"LineString","properties":{"kind":"major_road","sort_rank":380,"kind_detail":"primary","source":"openstreetmap.org","min_zoom":8.0,"ref":"AS-118","id":93680797,"name:es":"Incorporaci\u00f3n direcci\u00f3n Perlora \/ Gij\u00f3n"},"arcs":[530]},{"type":"LineString","properties":{"kind":"major_road","sort_rank":381,"kind_detail":"trunk","bus_network":null,"source":"openstreetmap.org","min_zoom":8.0,"bus_shield_text":"L20","landuse_kind":"urban_area","id":321567207},"arcs":[531]},{"type":"MultiLineString","properties":{"bus_network":"local","sort_rank":381,"landuse_kind":"urban_area","kind":"major_road","source":"openstreetmap.org","min_zoom":8.0,"bus_shield_text":"L10","kind_detail":"trunk","ref":"N-630"},"arcs":[[532],[533]]},{"type":"LineString","properties":{"source":"openstreetmap.org","kind":"major_road","sort_rank":380,"kind_detail":"primary","ref":"AS-117","min_zoom":8.0},"arcs":[534]},{"type":"MultiLineString","properties":{"bus_network":null,"sort_rank":381,"kind_detail":"trunk","kind":"major_road","source":"openstreetmap.org","min_zoom":8.0,"bus_shield_text":"L20","landuse_kind":"urban_area","ref":"AS-19;GJ-10","name:es":"Carretera Gij\u00f3n-Avil\u00e9s"},"arcs":[[535],[536],[537]]},{"type":"MultiLineString","properties":{"kind":"highway","network":"ES:A-road","sort_rank":383,"kind_detail":"motorway","source":"openstreetmap.org","min_zoom":8.0,"all_networks":["ES:A-road","ES:A-road"],"shield_text":"66","ref":"AP-66","all_shield_texts":["66","66"]},"arcs":[[538],[539]]},{"type":"LineString","properties":{"kind":"major_road","sort_rank":380,"kind_detail":"primary","source":"openstreetmap.org","min_zoom":8.0,"ref":"AS-118","id":4691698,"name:es":"Incorporaci\u00f3n direcci\u00f3n Cand\u00e1s \/ Luanco"},"arcs":[540]},{"type":"MultiLineString","properties":{"kind":"highway","sort_rank":383,"landuse_kind":"urban_area","source":"openstreetmap.org","min_zoom":8.0,"kind_detail":"motorway","ref":"AS-II","osm_relation":true},"arcs":[[541],[542],[543],[544],[545],[546],[547],[548],[549],[550]]},{"type":"LineString","properties":{"bus_network":"local","sort_rank":380,"kind_detail":"primary","kind":"major_road","source":"openstreetmap.org","min_zoom":8.0,"bus_shield_text":"L3","ref":"AS-116"},"arcs":[551]},{"type":"MultiLineString","properties":{"source":"openstreetmap.org","kind":"major_road","landuse_kind":"urban_area","sort_rank":380,"kind_detail":"primary","ref":"AS-19","min_zoom":8.0},"arcs":[[552],[553],[554],[555]]},{"type":"MultiLineString","properties":{"source":"openstreetmap.org","kind":"highway","landuse_kind":"urban_area","sort_rank":383,"kind_detail":"motorway","ref":"O-14","min_zoom":8.0},"arcs":[[556],[557]]},{"type":"LineString","properties":{"kind":"major_road","sort_rank":380,"kind_detail":"primary","bicycle_shield_text":"CdN","bicycle_network":"nwn","source":"openstreetmap.org","min_zoom":8.0,"ref":"N-632a"},"arcs":[558]},{"type":"MultiLineString","properties":{"source":"openstreetmap.org","kind":"major_road","sort_rank":380,"kind_detail":"primary","ref":"AS-15","min_zoom":8.0},"arcs":[[559],[560],[561],[562],[563],[564],[565],[566],[567],[568],[569],[570],[571],[572],[573],[574],[575],[576],[577],[578],[579],[580],[581],[582],[583],[584]]},{"type":"MultiLineString","properties":{"source":"openstreetmap.org","kind":"major_road","sort_rank":381,"kind_detail":"trunk","ref":"N-632a","min_zoom":8.0},"arcs":[[585],[586],[587],[588],[589],[590],[591],[592],[593],[594],[595],[596],[597],[598],[599],[600],[601],[602],[603]]},{"type":"LineString","properties":{"source":"openstreetmap.org","kind":"major_road","landuse_kind":"urban_area","sort_rank":380,"kind_detail":"primary","ref":"AS-117","min_zoom":8.0},"arcs":[604]},{"type":"MultiLineString","properties":{"kind":"highway","network":"ES:A-road","sort_rank":383,"kind_detail":"motorway","source":"openstreetmap.org","min_zoom":8.0,"all_networks":["ES:A-road","ES:A-road"],"shield_text":"66","ref":"A-66","all_shield_texts":["66","66"]},"arcs":[[605],[606]]},{"type":"LineString","properties":{"kind":"ferry","name":"Gij\u00f3n - Saint Nazaire","sort_rank":355,"name:fr":"Autoroute de la mer (Gijon - Saint-Nazaire)","source":"openstreetmap.org","min_zoom":8.0,"id":36867829,"name:es":"Autov\u00eda mar\u00edtima (Gijon - Saint-Nazaire)"},"arcs":[607]},{"type":"LineString","properties":{"kind":"major_road","sort_rank":381,"kind_detail":"trunk","source":"openstreetmap.org","min_zoom":8.0,"ref":"N-630","id":176265493,"name:es":"Carretera Gij\u00f3n - Sevilla (Ruta de la plata)"},"arcs":[608]},{"type":"LineString","properties":{"bus_network":"local","sort_rank":381,"landuse_kind":"urban_area","kind":"major_road","source":"openstreetmap.org","min_zoom":8.0,"bus_shield_text":"L1","kind_detail":"trunk"},"arcs":[609]},{"type":"MultiLineString","properties":{"source":"openstreetmap.org","kind":"highway","landuse_kind":"urban_area","sort_rank":383,"kind_detail":"motorway","ref":"AS-117","min_zoom":8.0},"arcs":[[610],[611],[612],[613]]},{"type":"LineString","properties":{"kind":"ferry","name":"Gij\u00f3n - Saint Nazaire","sort_rank":355,"landuse_kind":"urban_area","min_zoom":8.0,"source":"openstreetmap.org","name:fr":"Autoroute de la mer (Gijon - Saint-Nazaire)","id":36867829,"name:es":"Autov\u00eda mar\u00edtima (Gijon - Saint-Nazaire)"},"arcs":[614]},{"type":"LineString","properties":{"bus_network":"local","sort_rank":381,"landuse_kind":"urban_area","bus_shield_text":"L10","kind":"major_road","source":"openstreetmap.org","min_zoom":8.0,"old_name":"Calle Divisi\u00f3n Azul","kind_detail":"trunk"},"arcs":[615]},{"type":"LineString","properties":{"kind":"major_road","sort_rank":380,"kind_detail":"primary","source":"openstreetmap.org","min_zoom":8.0,"landuse_kind":"urban_area","ref":"AS-19","id":5097761,"name:es":"Rotonda del Pedr\u00e9u"},"arcs":[616]},{"type":"LineString","properties":{"kind":"major_road","sort_rank":380,"kind_detail":"primary","source":"openstreetmap.org","min_zoom":8.0,"ref":"AS-110","id":5031295,"name:es":"Incorporaci\u00f3n direcci\u00f3n Tam\u00f3n \/ Avil\u00e9s \/ Oviedo (por autopista)"},"arcs":[617]},{"type":"LineString","properties":{"kind":"major_road","sort_rank":380,"kind_detail":"primary","source":"openstreetmap.org","min_zoom":8.0,"ref":"AS-118","id":179903645,"name:es":"Incorporaci\u00f3n direcci\u00f3n Cand\u00e1s \/ Gij\u00f3n \/ A-8"},"arcs":[618]},{"type":"MultiLineString","properties":{"source":"openstreetmap.org","kind":"major_road","kind_detail":"trunk","sort_rank":381,"landuse_kind":"urban_area","ref":"AS-19;GJ-10","min_zoom":8.0},"arcs":[[619],[620]]},{"type":"MultiLineString","properties":{"kind":"major_road","network":"ES:A-road","sort_rank":381,"kind_detail":"trunk","source":"openstreetmap.org","min_zoom":8.0,"shield_text":"63","ref":"N-634"},"arcs":[[621],[622],[623]]},{"type":"LineString","properties":{"source":"openstreetmap.org","kind":"major_road","sort_rank":380,"kind_detail":"primary","ref":"AS-112a","min_zoom":8.0},"arcs":[624]},{"type":"LineString","properties":{"kind":"major_road","sort_rank":380,"kind_detail":"primary","source":"openstreetmap.org","min_zoom":8.0,"ref":"AS-118","id":4691415,"name:es":"Carretera Luanco - El empalme"},"arcs":[625]},{"type":"MultiLineString","properties":{"source":"openstreetmap.org","kind":"highway","sort_rank":383,"kind_detail":"motorway","ref":"O-12","min_zoom":8.0},"arcs":[[626],[627]]},{"type":"MultiLineString","properties":{"kind":"highway","network":"ES:A-road","sort_rank":383,"kind_detail":"motorway","source":"openstreetmap.org","min_zoom":8.0,"all_networks":["ES:A-road"],"shield_text":"64","ref":"A-64","all_shield_texts":["64"]},"arcs":[[628],[629],[630],[631],[632],[633]]},{"type":"MultiLineString","properties":{"bus_network":null,"sort_rank":381,"kind_detail":"trunk","kind":"major_road","source":"openstreetmap.org","min_zoom":8.0,"bus_shield_text":"L15","ref":"N-632"},"arcs":[[634],[635]]},{"type":"MultiLineString","properties":{"source":"openstreetmap.org","bus_network":"local","bus_shield_text":"L4","sort_rank":381,"kind_detail":"trunk","min_zoom":8.0,"kind":"major_road"},"arcs":[[636],[637]]},{"type":"MultiLineString","properties":{"kind":"major_road","sort_rank":381,"landuse_kind":"urban_area","source":"openstreetmap.org","min_zoom":8.0,"kind_detail":"trunk","ref":"AS-19;GJ-10","name:es":"Carretera Gij\u00f3n-Avil\u00e9s"},"arcs":[[638],[639],[640],[641],[642],[643],[644],[645],[646],[647],[648],[649],[650],[651],[652]]},{"type":"MultiLineString","properties":{"source":"openstreetmap.org","kind":"major_road","sort_rank":381,"kind_detail":"trunk","ref":"N-632","min_zoom":8.0},"arcs":[[653],[654],[655],[656],[657],[658],[659],[660],[661],[662],[663],[664],[665],[666],[667],[668],[669],[670],[671],[672],[673],[674],[675],[676]]},{"type":"MultiLineString","properties":{"source":"openstreetmap.org","kind":"major_road","landuse_kind":"urban_area","sort_rank":380,"kind_detail":"primary","ref":"AS-111","min_zoom":8.0},"arcs":[[677],[678],[679],[680]]},{"type":"MultiLineString","properties":{"bus_network":"local","sort_rank":381,"landuse_kind":"urban_area","kind":"major_road","source":"openstreetmap.org","min_zoom":8.0,"bus_shield_text":"L2","kind_detail":"trunk"},"arcs":[[681],[682],[683]]},{"type":"MultiLineString","properties":{"bus_network":null,"sort_rank":380,"kind_detail":"primary","kind":"major_road","source":"openstreetmap.org","min_zoom":8.0,"bus_shield_text":"L-18","landuse_kind":"urban_area","ref":"GJ-81"},"arcs":[[684],[685]]},{"type":"MultiLineString","properties":{"source":"openstreetmap.org","kind":"highway","landuse_kind":"urban_area","sort_rank":383,"kind_detail":"motorway","ref":"AS-17","min_zoom":8.0},"arcs":[[686],[687],[688],[689]]},{"type":"LineString","properties":{"kind":"highway","sort_rank":383,"landuse_kind":"urban_area","source":"openstreetmap.org","min_zoom":8.0,"kind_detail":"motorway","ref":"AI-81","id":4600941},"arcs":[690]},{"type":"LineString","properties":{"bus_network":null,"sort_rank":381,"landuse_kind":"urban_area","kind":"major_road","source":"openstreetmap.org","min_zoom":8.0,"bus_shield_text":"L-6","kind_detail":"trunk","ref":"GJ-10"},"arcs":[691]},{"type":"MultiLineString","properties":{"sort_rank":381,"source":"openstreetmap.org","min_zoom":8.0,"kind":"major_road","kind_detail":"trunk"},"arcs":[[692],[693],[694],[695],[696],[697],[698],[699],[700],[701],[702],[703],[704],[705],[706],[707],[708],[709]]},{"type":"LineString","properties":{"source":"openstreetmap.org","kind":"major_road","sort_rank":380,"kind_detail":"primary","ref":"AS-13","min_zoom":8.0},"arcs":[710]},{"type":"LineString","properties":{"kind":"major_road","sort_rank":380,"kind_detail":"primary","source":"openstreetmap.org","min_zoom":8.0,"ref":"AS-110","id":23654273,"name:es":"Incorporaci\u00f3n direcci\u00f3n Cand\u00e1s \/ Antromero"},"arcs":[711]},{"type":"MultiLineString","properties":{"bus_network":"local","sort_rank":381,"landuse_kind":"urban_area","kind":"major_road","source":"openstreetmap.org","min_zoom":8.0,"bus_shield_text":"L1","kind_detail":"trunk","ref":"N-634"},"arcs":[[712],[713],[714],[715],[716],[717],[718],[719],[720],[721],[722]]},{"type":"LineString","properties":{"source":"openstreetmap.org","kind":"highway","landuse_kind":"urban_area","sort_rank":383,"kind_detail":"motorway","min_zoom":8.0},"arcs":[723]},{"type":"MultiLineString","properties":{"source":"openstreetmap.org","kind":"highway","landuse_kind":"urban_area","sort_rank":383,"kind_detail":"motorway","ref":"O-11","min_zoom":8.0},"arcs":[[724],[725]]},{"type":"MultiLineString","properties":{"source":"openstreetmap.org","kind":"major_road","sort_rank":381,"kind_detail":"trunk","ref":"N-643","min_zoom":8.0},"arcs":[[726],[727],[728]]},{"type":"MultiLineString","properties":{"source":"openstreetmap.org","kind":"major_road","kind_detail":"trunk","sort_rank":381,"landuse_kind":"urban_area","ref":"N-634","min_zoom":8.0},"arcs":[[729],[730],[731],[732],[733],[734],[735],[736]]},{"type":"MultiLineString","properties":{"bus_network":null,"sort_rank":380,"kind_detail":"primary","kind":"major_road","source":"openstreetmap.org","min_zoom":8.0,"bus_shield_text":"L10","landuse_kind":"urban_area"},"arcs":[[737],[738]]},{"type":"LineString","properties":{"source":"openstreetmap.org","kind":"highway","landuse_kind":"urban_area","sort_rank":383,"kind_detail":"motorway","ref":"A-64","min_zoom":8.0},"arcs":[739]},{"type":"MultiLineString","properties":{"source":"openstreetmap.org","kind":"major_road","landuse_kind":"urban_area","sort_rank":380,"kind_detail":"primary","ref":"N-632a","min_zoom":8.0},"arcs":[[740],[741],[742],[743],[744],[745],[746]]},{"type":"MultiLineString","properties":{"source":"openstreetmap.org","kind":"major_road","kind_detail":"trunk","sort_rank":381,"landuse_kind":"urban_area","ref":"GJ-10","min_zoom":8.0},"arcs":[[747],[748],[749],[750],[751],[752],[753]]},{"type":"LineString","properties":{"kind":"major_road","sort_rank":380,"kind_detail":"primary","source":"openstreetmap.org","min_zoom":8.0,"landuse_kind":"urban_area","ref":"AS-19","name:es":"Carretera Gij\u00f3n - Avil\u00e9s"},"arcs":[754]},{"type":"MultiLineString","properties":{"kind":"highway","sort_rank":383,"kind_detail":"motorway","source":"openstreetmap.org","min_zoom":8.0,"landuse_kind":"urban_area","ref":"AS-I","osm_relation":true},"arcs":[[755],[756]]},{"type":"MultiLineString","properties":{"source":"openstreetmap.org","kind":"major_road","kind_detail":"trunk","sort_rank":381,"landuse_kind":"urban_area","min_zoom":8.0},"arcs":[[757],[758],[759],[760],[761],[762],[763],[764],[765],[766]]},{"type":"LineString","properties":{"source":"openstreetmap.org","kind":"major_road","sort_rank":381,"kind_detail":"trunk","ref":"AI-82","min_zoom":8.0,"id":4600996},"arcs":[767]},{"type":"LineString","properties":{"kind":"highway","network":null,"sort_rank":383,"kind_detail":"motorway","name:es":"Acceso Sur a Gij\u00f3n","source":"openstreetmap.org","min_zoom":8.0,"all_networks":[null],"landuse_kind":"urban_area","shield_text":"81","ref":"GJ-81","id":391712620,"all_shield_texts":["81"]},"arcs":[768]},{"type":"LineString","properties":{"source":"openstreetmap.org","kind":"highway","sort_rank":383,"kind_detail":"motorway","min_zoom":8.0,"id":309543235},"arcs":[769]},{"type":"LineString","properties":{"bus_network":null,"sort_rank":380,"kind_detail":"primary","kind":"major_road","source":"openstreetmap.org","min_zoom":8.0,"bus_shield_text":"L25","landuse_kind":"urban_area","ref":"GJ-10"},"arcs":[770]},{"type":"LineString","properties":{"bus_network":null,"sort_rank":380,"kind_detail":"primary","old_name":"Avenida de los H\u00e9roes del Simancas","kind":"major_road","source":"openstreetmap.org","min_zoom":8.0,"bus_shield_text":"L1","landuse_kind":"urban_area","ref":"N-632"},"arcs":[771]},{"type":"MultiLineString","properties":{"source":"openstreetmap.org","kind":"major_road","sort_rank":380,"kind_detail":"primary","ref":"AS-116","min_zoom":8.0},"arcs":[[772],[773],[774],[775],[776],[777],[778],[779],[780],[781],[782],[783]]},{"type":"MultiLineString","properties":{"kind":"major_road","sort_rank":380,"kind_detail":"primary","source":"openstreetmap.org","min_zoom":8.0,"landuse_kind":"urban_area","ref":"AS-19","name:es":"Carretera Gij\u00f3n-Avil\u00e9s"},"arcs":[[784],[785],[786],[787],[788],[789],[790],[791],[792],[793],[794],[795],[796]]},{"type":"MultiLineString","properties":{"kind":"major_road","sort_rank":380,"kind_detail":"primary","is_bicycle_related":true,"source":"openstreetmap.org","min_zoom":8.0,"landuse_kind":"urban_area","ref":"AS-19","name:es":"Carretera Gij\u00f3n-Avil\u00e9s"},"arcs":[[797],[798]]},{"type":"MultiLineString","properties":{"bus_network":"local","sort_rank":381,"landuse_kind":"urban_area","kind":"major_road","source":"openstreetmap.org","min_zoom":8.0,"bus_shield_text":"L12","kind_detail":"trunk"},"arcs":[[799],[800],[801]]},{"type":"LineString","properties":{"source":"openstreetmap.org","kind":"highway","landuse_kind":"urban_area","sort_rank":383,"kind_detail":"motorway","ref":"AS-I","min_zoom":8.0},"arcs":[802]},{"type":"LineString","properties":{"kind":"major_road","sort_rank":380,"kind_detail":"primary","source":"openstreetmap.org","min_zoom":8.0,"landuse_kind":"urban_area","ref":"GJ-81","name:es":"Acceso Sur a Gij\u00f3n"},"arcs":[803]},{"type":"MultiLineString","properties":{"source":"openstreetmap.org","kind":"major_road","sort_rank":380,"kind_detail":"primary","ref":"AS-110","min_zoom":8.0},"arcs":[[804],[805],[806],[807],[808],[809],[810],[811],[812],[813],[814],[815],[816]]},{"type":"MultiLineString","properties":{"source":"openstreetmap.org","kind":"highway","sort_rank":383,"kind_detail":"motorway","ref":"AS-II","min_zoom":8.0,"osm_relation":true},"arcs":[[817],[818],[819],[820],[821],[822],[823],[824],[825],[826],[827],[828],[829],[830]]},{"type":"LineString","properties":{"source":"openstreetmap.org","kind":"major_road","sort_rank":380,"kind_detail":"primary","ref":"AS-19","min_zoom":8.0,"name:es":"Carretera Gij\u00f3n-Avil\u00e9s"},"arcs":[831]},{"type":"MultiLineString","properties":{"kind":"highway","network":null,"sort_rank":383,"kind_detail":"motorway","source":"openstreetmap.org","min_zoom":8.0,"all_networks":[null],"shield_text":"I","ref":"AS-I","all_shield_texts":["I"]},"arcs":[[832],[833],[834],[835],[836],[837],[838],[839],[840],[841]]},{"type":"MultiLineString","properties":{"source":"openstreetmap.org","kind":"major_road","sort_rank":380,"kind_detail":"primary","ref":"AS-118","min_zoom":8.0,"name:es":"Carretera Luanco - L'Empalme"},"arcs":[[842],[843],[844],[845],[846],[847],[848],[849],[850],[851],[852],[853],[854],[855],[856],[857]]},{"type":"MultiLineString","properties":{"bus_network":"local","sort_rank":381,"kind_detail":"trunk","kind":"major_road","source":"openstreetmap.org","min_zoom":8.0,"bus_shield_text":"L4","ref":"N-634"},"arcs":[[858],[859],[860],[861],[862],[863],[864],[865],[866],[867],[868],[869],[870],[871],[872],[873],[874],[875],[876]]},{"type":"MultiLineString","properties":{"source":"openstreetmap.org","kind":"highway","sort_rank":383,"kind_detail":"motorway","ref":"AS-I","min_zoom":8.0,"osm_relation":true},"arcs":[[877],[878],[879],[880],[881],[882],[883],[884]]},{"type":"MultiLineString","properties":{"source":"openstreetmap.org","kind":"highway","sort_rank":383,"kind_detail":"motorway","ref":"AI-82","min_zoom":8.0},"arcs":[[885],[886]]},{"type":"LineString","properties":{"bus_network":null,"sort_rank":380,"kind_detail":"primary","kind":"major_road","source":"openstreetmap.org","min_zoom":8.0,"bus_shield_text":"L15","landuse_kind":"urban_area","ref":"GJ-10"},"arcs":[887]},{"type":"MultiLineString","properties":{"bus_network":null,"sort_rank":380,"kind_detail":"primary","kind":"major_road","source":"openstreetmap.org","min_zoom":8.0,"bus_shield_text":"L-18","landuse_kind":"urban_area"},"arcs":[[888],[889],[890],[891],[892],[893]]},{"type":"LineString","properties":{"bus_network":null,"sort_rank":380,"kind_detail":"primary","kind":"major_road","source":"openstreetmap.org","min_zoom":8.0,"bus_shield_text":"L10","landuse_kind":"urban_area","ref":"N-632"},"arcs":[894]},{"type":"MultiLineString","properties":{"kind":"highway","network":null,"sort_rank":383,"kind_detail":"motorway","source":"openstreetmap.org","min_zoom":8.0,"all_networks":[null],"shield_text":"I","ref":"AS-II","all_shield_texts":["I"]},"arcs":[[895],[896],[897],[898],[899],[900],[901],[902],[903],[904],[905],[906]]},{"type":"LineString","properties":{"source":"openstreetmap.org","kind":"major_road","sort_rank":381,"kind_detail":"trunk","ref":"AS-219","min_zoom":8.0,"id":23023638},"arcs":[907]},{"type":"MultiLineString","properties":{"bus_network":null,"sort_rank":381,"landuse_kind":"urban_area","kind":"major_road","source":"openstreetmap.org","min_zoom":8.0,"bus_shield_text":"L15","kind_detail":"trunk","ref":"N-632"},"arcs":[[908],[909]]},{"type":"LineString","properties":{"kind":"major_road","sort_rank":380,"kind_detail":"primary","source":"openstreetmap.org","min_zoom":8.0,"ref":"AS-110","id":5031292,"name:es":"Rotonda de Cand\u00e1s"},"arcs":[910]},{"type":"LineString","properties":{"kind":"major_road","sort_rank":380,"kind_detail":"primary","source":"openstreetmap.org","min_zoom":8.0,"landuse_kind":"urban_area","ref":"AS-19","name:es":"Carretera Gij\u00f3n - Xix\u00f3n"},"arcs":[911]},{"type":"MultiLineString","properties":{"bus_network":null,"sort_rank":380,"kind_detail":"primary","kind":"major_road","source":"openstreetmap.org","min_zoom":8.0,"bus_shield_text":"L16","landuse_kind":"urban_area"},"arcs":[[912],[913]]},{"type":"MultiLineString","properties":{"kind":"highway","network":null,"sort_rank":383,"landuse_kind":"urban_area","source":"openstreetmap.org","min_zoom":8.0,"all_networks":[null],"kind_detail":"motorway","shield_text":"81","ref":"GJ-81","all_shield_texts":["81"]},"arcs":[[914],[915]]},{"type":"LineString","properties":{"kind":"major_road","sort_rank":381,"kind_detail":"trunk","bus_network":"local","source":"openstreetmap.org","min_zoom":8.0,"bus_shield_text":"L11","landuse_kind":"urban_area","ref":"N-630","id":4922916},"arcs":[916]},{"type":"LineString","properties":{"kind":"major_road","sort_rank":380,"kind_detail":"primary","source":"openstreetmap.org","min_zoom":8.0,"ref":"AS-118","id":179898444,"name:es":"Acceso a Luanco"},"arcs":[917]},{"type":"MultiLineString","properties":{"bus_network":"local","sort_rank":381,"landuse_kind":"urban_area","kind":"major_road","source":"openstreetmap.org","min_zoom":8.0,"bus_shield_text":"L7","kind_detail":"trunk"},"arcs":[[918],[919],[920],[921],[922],[923],[924]]},{"type":"MultiLineString","properties":{"source":"openstreetmap.org","kind":"major_road","landuse_kind":"urban_area","sort_rank":380,"kind_detail":"primary","ref":"N-632","min_zoom":8.0},"arcs":[[925],[926],[927],[928],[929],[930]]},{"type":"LineString","properties":{"kind":"major_road","sort_rank":380,"kind_detail":"primary","bus_network":null,"source":"openstreetmap.org","min_zoom":8.0,"bus_shield_text":"L-6","landuse_kind":"urban_area","id":261956380},"arcs":[931]},{"type":"MultiLineString","properties":{"kind":"highway","network":"ES:A-road","sort_rank":383,"landuse_kind":"urban_area","source":"openstreetmap.org","min_zoom":8.0,"all_networks":["ES:A-road"],"kind_detail":"motorway","shield_text":"66","ref":"A-66","all_shield_texts":["66"]},"arcs":[[932],[933],[934],[935],[936],[937],[938],[939],[940],[941],[942],[943],[944],[945]]},{"type":"MultiLineString","properties":{"bus_network":"local","sort_rank":381,"landuse_kind":"urban_area","kind":"major_road","source":"openstreetmap.org","min_zoom":8.0,"bus_shield_text":"L4","kind_detail":"trunk"},"arcs":[[946],[947],[948],[949]]},{"type":"LineString","properties":{"source":"openstreetmap.org","kind":"major_road","kind_detail":"trunk","sort_rank":381,"landuse_kind":"urban_area","ref":"N-633","min_zoom":8.0},"arcs":[950]},{"type":"LineString","properties":{"source":"openstreetmap.org","kind":"major_road","sort_rank":380,"kind_detail":"primary","ref":"AS-14","min_zoom":8.0},"arcs":[951]},{"type":"LineString","properties":{"kind":"major_road","sort_rank":380,"kind_detail":"primary","bus_network":null,"source":"openstreetmap.org","min_zoom":8.0,"bus_shield_text":"B1","landuse_kind":"urban_area","id":331464290},"arcs":[952]},{"type":"MultiLineString","properties":{"kind":"highway","network":"ES:A-road","sort_rank":383,"kind_detail":"motorway","source":"openstreetmap.org","min_zoom":8.0,"all_networks":["ES:A-road"],"landuse_kind":"urban_area","shield_text":"64","ref":"A-64","all_shield_texts":["64"]},"arcs":[[953],[954]]},{"type":"LineString","properties":{"bus_network":null,"sort_rank":381,"landuse_kind":"urban_area","kind":"major_road","source":"openstreetmap.org","min_zoom":8.0,"bus_shield_text":"L-6","kind_detail":"trunk","ref":"AS-II"},"arcs":[955]},{"type":"MultiLineString","properties":{"source":"openstreetmap.org","kind":"major_road","sort_rank":380,"kind_detail":"primary","ref":"AS-11","min_zoom":8.0},"arcs":[[956],[957],[958],[959],[960]]},{"type":"MultiLineString","properties":{"bus_network":null,"sort_rank":380,"kind_detail":"primary","kind":"major_road","source":"openstreetmap.org","min_zoom":8.0,"bus_shield_text":"L20","landuse_kind":"urban_area"},"arcs":[[961],[962],[963],[964]]},{"type":"LineString","properties":{"bus_network":null,"sort_rank":381,"landuse_kind":"urban_area","kind":"major_road","source":"openstreetmap.org","min_zoom":8.0,"bus_shield_text":"L1","kind_detail":"trunk","ref":"GJ-10"},"arcs":[965]},{"type":"MultiLineString","properties":{"bus_network":null,"sort_rank":380,"kind_detail":"primary","kind":"major_road","source":"openstreetmap.org","min_zoom":8.0,"bus_shield_text":"L15","landuse_kind":"urban_area"},"arcs":[[966],[967],[968],[969]]},{"type":"MultiLineString","properties":{"source":"openstreetmap.org","kind":"highway","sort_rank":383,"kind_detail":"motorway","ref":"AS-117","min_zoom":8.0},"arcs":[[970],[971],[972],[973]]},{"type":"MultiLineString","properties":{"kind":"highway","network":"ES:A-road","sort_rank":383,"kind_detail":"motorway","source":"openstreetmap.org","min_zoom":8.0,"all_networks":["ES:A-road"],"shield_text":"66","ref":"A-66","all_shield_texts":["66"]},"arcs":[[974],[975],[976],[977],[978],[979],[980],[981],[982],[983],[984],[985],[986],[987],[988],[989]]},{"type":"MultiLineString","properties":{"source":"openstreetmap.org","kind":"highway","sort_rank":383,"kind_detail":"motorway","ref":"AS-I","min_zoom":8.0},"arcs":[[990],[991]]},{"type":"LineString","properties":{"source":"openstreetmap.org","kind":"major_road","sort_rank":380,"kind_detail":"primary","ref":"AS-347","min_zoom":8.0},"arcs":[992]},{"type":"LineString","properties":{"source":"openstreetmap.org","kind":"major_road","network":"ES:N","sort_rank":381,"kind_detail":"trunk","min_zoom":8.0,"shield_text":"634"},"arcs":[993]},{"type":"MultiLineString","properties":{"bus_network":"local","sort_rank":381,"landuse_kind":"urban_area","kind":"major_road","source":"openstreetmap.org","min_zoom":8.0,"bus_shield_text":"L9","kind_detail":"trunk"},"arcs":[[994],[995]]},{"type":"LineString","properties":{"kind":"major_road","sort_rank":381,"kind_detail":"trunk","bus_network":null,"source":"openstreetmap.org","min_zoom":8.0,"bus_shield_text":"L20","landuse_kind":"urban_area","id":4275322,"name:es":"Acceso direcci\u00f3n Gij\u00f3n"},"arcs":[996]}]},"earth":{"type":"GeometryCollection","geometries":[{"type":"MultiPolygon","properties":{"sort_rank":10,"source":"naturalearthdata.com","min_zoom":0.0,"kind":"earth","area":25674608066},"arcs":[[[997]],[[998]]]}]},"landuse":{"type":"GeometryCollection","geometries":[{"type":"MultiPolygon","properties":{"source":"naturalearthdata.com","kind":"urban_area","name":"","area":540835940,"sort_rank":11,"min_zoom":4.0},"arcs":[[[999]],[[1000]],[[1001]],[[1002]]]},{"type":"MultiPolygon","properties":{"kind":"nature_reserve","protect_class":"4","area":1060520000,"sort_rank":23,"source":"openstreetmap.org","min_zoom":4.0,"tier":2,"id":-1275463,"osm_relation":true},"arcs":[[[1003]],[[1004]],[[1005]]]},{"type":"Polygon","properties":{"source":"openstreetmap.org","kind":"military","area":19130600,"tier":3,"id":445879759,"min_zoom":8.0,"sort_rank":45},"arcs":[[1006]]},{"type":"Polygon","properties":{"kind":"nature_reserve","protect_class":"4","area":546745984,"sort_rank":23,"source":"openstreetmap.org","min_zoom":6.0,"tier":2,"id":-1222922,"osm_relation":true},"arcs":[[1007]]}]}},"type":"Topology","transform":{"translate":[-7.03125,43.0688877742],"scale":[0.0003433228,0.0002487054]},"arcs":[[[4096,3022],[-423,142],[-337,40],[-1172,-279],[-1017,-76],[-750,2],[-397,159]],[[2794,0],[-23,21],[-25,-21]],[[235,0],[-4,29],[40,43],[66,-54],[63,74],[66,-2],[46,69],[81,59],[18,81],[-52,93],[-48,24],[-18,40],[-28,-10],[10,41],[-53,-93],[3,-41],[-49,-6],[-115,-94],[-46,15],[-68,125],[46,84],[-18,67],[-88,12],[-24,63],[-30,-39],[-33,34]],[[0,1867],[3,7],[-3,24]],[[10,1917],[-10,-4]],[[4096,1942],[-37,2],[-35,-43],[-41,33],[-12,-29],[-73,6],[37,48],[-17,18],[-28,-42],[-15,73],[27,-29],[-4,16],[37,0],[13,24],[-34,-7],[-16,37],[54,5],[-3,28],[-55,-16],[-5,-41],[-46,-18],[-67,22],[-41,47],[-21,-13],[-43,104],[-60,23],[31,25],[-8,47],[-30,-8],[-11,28],[-36,-17],[-2,39],[-31,11],[-26,-20],[-30,83],[-46,-10],[-7,-86],[-52,-46],[-108,-2],[1,-65],[-41,-38],[-60,-7],[26,-11],[-37,-55],[-116,-5],[-13,-30],[-60,63],[-35,-6],[-102,-83],[-40,-4],[1,23],[-44,-49],[-62,-13],[-29,26],[-28,-12],[-12,28],[-29,-7],[-11,25],[-102,-28],[-4,68],[-46,-28],[-17,50],[-30,-29],[-22,43],[-51,26],[-1,-43],[-34,-28],[-288,-108],[-119,36],[-96,-28],[-119,75],[-14,-87],[-167,4],[-4,-22],[-26,39],[-43,-18],[-39,28],[-80,-15],[-13,46],[-34,-14],[-35,45],[-17,-23],[-90,-1],[-53,-32],[-86,21],[-39,-33],[-27,35],[-24,-17],[-34,25],[-13,-22],[-17,30],[-32,0],[-28,-49],[-55,12],[-23,-20],[-58,50],[-60,-17],[-10,33],[-32,-1],[-32,-33],[-61,33],[-36,-17],[-44,35],[-21,-22],[-33,20],[-88,-72],[-77,-10],[-67,22],[-13,-56]],[[3201,2097],[58,-171],[125,-101],[25,-101],[-32,-46],[34,-44],[44,11],[11,-43],[67,-32],[35,-138],[-12,-77],[-137,-189]],[[3097,1136],[4,16],[1,1],[1,1],[5,5],[2,6],[-33,14],[-24,104],[-119,22],[-48,39],[-77,-26],[24,126],[-45,9],[30,52],[-102,70],[9,26],[-52,110],[15,22],[43,-6],[41,44],[-53,111],[33,18],[-1,46]],[[3096,1131],[0,1]],[[3096,1132],[0,1]],[[3096,1133],[0,1]],[[3096,1134],[1,2]],[[3097,1129],[-1,2]],[[3097,1129],[0,-1]],[[3097,1128],[0,-2]],[[3097,1126],[1,-1]],[[3097,1136],[38,75],[88,-64],[201,50]],[[3424,1197],[97,103],[50,-48],[124,-28],[27,30],[182,10],[64,36],[18,-27],[110,3]],[[3425,1196],[-4,-65],[-59,-103],[27,-63],[66,-27],[133,95],[115,35],[62,-54],[85,-16],[80,-98],[108,-22]],[[3424,1197],[97,103],[50,-48],[124,-28],[27,30],[182,10],[64,36],[18,-27],[110,3]],[[3675,11],[-47,76],[-86,68],[-1,89],[-46,121],[34,84],[73,36],[35,252],[-79,67],[-80,131],[-92,33],[-24,60],[60,106],[-5,53],[79,71],[63,104],[10,62],[-33,139],[-37,35],[110,44],[5,98],[89,37],[99,123],[32,-26],[113,10]],[[3424,1197],[97,103],[50,-48],[124,-28],[27,30],[182,10],[64,36],[18,-27],[110,3]],[[3948,1885],[-58,-38],[-40,13],[-54,64],[16,36],[-23,59],[-100,62],[-81,-15],[-187,-130],[-172,13],[-33,86],[-41,6],[-94,-77],[-174,-86],[-111,-4],[-2,-118],[-25,-50],[-74,-21],[-14,45],[58,34],[-63,92],[11,44],[-20,16],[-22,-20],[-12,29],[-72,13]],[[3098,1125],[34,85],[90,-63],[190,38],[107,115],[52,-48],[103,-26],[49,28],[145,8],[-19,207],[-47,109],[28,67],[-33,105],[151,135]],[[3097,1136],[13,29],[-33,14],[-24,104],[-119,22],[-48,39],[-77,-26],[24,126],[-45,9],[30,52],[-102,70],[9,26],[-51,108],[62,39],[1,28],[-61,80],[10,46],[-121,21],[-21,70],[-69,-7],[-102,-86],[-110,18],[58,55],[-66,41],[-67,-57],[-137,-18],[-25,-35],[-51,24],[-106,-44],[-60,44],[-83,-40],[-33,20],[-68,-23],[-87,41],[-85,-17],[-29,-61],[-71,45],[-86,6],[-57,52],[-22,-35],[-141,-3],[-117,-99],[-4,42],[-27,6],[9,31],[-25,6],[-36,-39],[-12,42],[-66,39],[-61,-2],[-29,-26],[-211,15],[-38,-69],[-57,20],[-49,-36],[-79,8],[-177,-62],[-28,-67],[-40,-21]],[[3096,1131],[0,1]],[[3096,1132],[0,1]],[[3096,1133],[0,1]],[[3096,1134],[1,2]],[[3097,1129],[-1,2]],[[3097,1129],[0,-1]],[[3097,1128],[0,-2]],[[3097,1126],[1,-1]],[[3097,1136],[38,75],[88,-64],[201,50]],[[3947,1884],[-113,-10],[-32,26],[-99,-123],[-89,-37],[-5,-98],[-110,-44],[37,-35],[33,-139],[-10,-62],[-63,-104],[-79,-71],[5,-53],[-60,-106],[24,-60],[92,-33],[80,-131],[79,-68],[-35,-251],[-73,-36],[-34,-84],[46,-121],[0,-88],[135,-125],[-9,-31]],[[3686,0],[18,43],[-29,61],[-55,9],[-39,62],[7,18],[46,-76],[77,10],[-18,-48],[48,-1],[2,-34],[63,18],[1,-62]],[[3947,1884],[-113,-10],[-32,26],[-99,-123],[-89,-37],[-5,-98],[-110,-44],[37,-35],[33,-139],[-10,-62],[-63,-104],[-79,-71],[5,-53],[-60,-106],[24,-60],[92,-33],[80,-131],[79,-68],[-35,-251],[-73,-36],[-34,-84],[46,-121],[0,-88],[135,-125],[-9,-31]],[[3686,0],[18,43],[-29,61],[-55,9],[-39,62],[7,18],[46,-76],[77,10],[-18,-48],[48,-1],[2,-34],[63,18],[1,-62]],[[4096,369],[-215,37],[-113,-16],[-45,32],[-103,101],[27,162],[-15,72],[-71,43],[-14,37],[-43,-10]],[[3947,1884],[-113,-10],[-32,26],[-99,-123],[-89,-37],[-5,-98],[-110,-44],[37,-35],[33,-139],[-10,-62],[-63,-104],[-79,-71],[5,-53],[-60,-106],[24,-60],[92,-33],[80,-131],[79,-68],[-35,-251],[-73,-36],[-34,-84],[46,-121],[0,-88],[135,-125],[-9,-31]],[[3686,0],[18,43],[-29,61],[-55,9],[-39,62],[7,18],[46,-76],[77,10],[-18,-48],[48,-1],[2,-34],[63,18],[1,-62]],[[3948,1885],[-105,-103],[-39,-8],[26,-129],[-28,-67],[47,-109],[30,-233],[66,-59],[104,-20],[10,-5],[6,-12]],[[4065,1141],[9,-63],[-60,-67],[-101,-43],[-2,-27],[58,-48],[127,-15]],[[3425,1196],[-4,-65],[-59,-103],[27,-63],[66,-27],[133,95],[115,35],[62,-54],[85,-16],[80,-98],[108,-22]],[[3675,11],[-47,76],[-86,68],[-1,89],[-46,121],[34,84],[73,36],[35,252],[-79,67],[-80,131],[-92,33],[-24,60],[60,106],[-5,53],[79,71],[63,104],[10,62],[-33,139],[-37,35],[110,44],[5,98],[89,37],[99,123],[32,-26],[113,10]],[[3869,1344],[-16,56],[30,44]],[[3948,1885],[-105,-103],[-39,-8],[26,-129],[-28,-67],[47,-109],[30,-233],[66,-59],[104,-20],[10,-5],[6,-12]],[[4065,1141],[9,-63],[-60,-67],[-101,-43],[-2,-27],[58,-48],[127,-15]],[[3097,1136],[4,16],[1,1],[1,1],[5,5],[2,6],[-33,14],[-24,104],[-119,22],[-48,39],[-77,-26],[24,126],[-45,9],[30,52],[-102,70],[9,26],[-51,108],[62,39],[1,28],[-61,80],[10,46],[-121,21],[-21,70],[-69,-7],[-102,-86],[-110,18],[58,55],[-66,41],[-67,-57],[-137,-18],[-25,-35],[-51,24],[-106,-44],[-60,44],[-83,-40],[-33,20],[-68,-23],[-87,41],[-85,-17],[-29,-61],[-71,45],[-86,6],[-57,52],[-22,-35],[-141,-3],[-117,-99],[-4,42],[-27,6],[9,31],[-25,6],[-36,-39],[-12,42],[-66,39],[-61,-2],[-29,-26],[-211,15],[-38,-69],[-57,20],[-49,-36],[-79,8],[-177,-62],[-28,-67],[-40,-21]],[[3096,1131],[0,1]],[[3096,1132],[0,1]],[[3096,1133],[0,1]],[[3096,1134],[1,2]],[[3097,1129],[-1,2]],[[3097,1129],[0,-1]],[[3097,1128],[0,-2]],[[3097,1126],[1,-1]],[[3097,1136],[38,75],[88,-64],[201,50]],[[3098,1125],[34,85],[90,-63],[190,38],[107,115],[52,-48],[103,-26],[49,28],[145,8],[-19,207],[-47,109],[28,67],[-33,105],[151,135]],[[3201,2097],[58,-171],[125,-101],[25,-101],[-32,-46],[34,-44],[44,11],[11,-43],[67,-32],[35,-138],[-12,-77],[-137,-189]],[[3097,1136],[4,16],[1,1],[1,1],[5,5],[2,6],[-33,14],[-24,104],[-119,22],[-48,39],[-77,-26],[24,126],[-45,9],[30,52],[-102,70],[9,26],[-52,110],[15,22],[43,-6],[41,44],[-53,111],[33,18],[-1,46]],[[3096,1131],[0,1]],[[3096,1132],[0,1]],[[3096,1133],[0,1]],[[3096,1134],[1,2]],[[3097,1129],[-1,2]],[[3097,1129],[0,-1]],[[3097,1128],[0,-2]],[[3097,1126],[1,-1]],[[3097,1136],[38,75],[88,-64],[201,50]],[[3424,1197],[97,103],[50,-48],[124,-28],[27,30],[182,10],[64,36],[18,-27],[110,3]],[[3948,1885],[-58,-38],[-40,13],[-54,64],[16,36],[-23,59],[-100,62],[-81,-15],[-187,-130],[-172,13],[-33,86],[-41,6],[-94,-77],[-174,-86],[-111,-4],[-2,-118],[-25,-50],[-74,-21],[-14,45],[58,34],[-63,92],[11,44],[-20,16],[-22,-20],[-12,29],[-72,13]],[[4096,369],[-215,37],[-113,-16],[-45,32],[-103,101],[27,162],[-15,72],[-71,43],[-14,37],[-43,-10]],[[4096,1954],[-2,0],[-151,25],[-34,70],[-22,17],[-15,-57],[-20,0],[-54,84],[-160,191],[-63,55],[-95,47],[-46,3],[-20,-38],[-13,-49],[-34,-19],[-93,1],[5,-13],[8,-29],[6,-13],[-36,-42],[12,-32],[20,-29],[-15,-37],[-339,0],[-45,-21],[-44,-35],[-44,-19],[-46,23],[-45,-25],[-226,25],[-38,12],[-92,70],[-40,-6],[-22,-21],[-17,-21],[-70,-17],[-76,-37],[-43,-8],[-150,0],[-150,-30],[-41,9],[-68,40],[-41,9],[6,-19],[7,-45],[5,-19],[-73,1],[-34,-8],[-30,-23],[-106,58],[-149,54],[-149,15],[-160,-86],[-76,9],[-119,35],[-175,-14],[-44,14],[-286,-10],[-167,-38],[-26,-94],[-39,-30],[-17,-55],[-5,-36],[0,119],[1,2],[-1,20],[0,2209],[4096,0],[0,-2142]],[[0,1887],[1,-20],[-1,-2]],[[0,1746],[5,36],[17,55],[39,30],[26,94],[167,38],[286,10],[44,-14],[175,14],[119,-35],[76,-9],[160,86],[149,-15],[149,-54],[106,-58],[30,23],[34,8],[73,-1],[-5,19],[-7,45],[-6,19],[41,-9],[68,-40],[41,-9],[150,30],[150,0],[43,8],[76,37],[70,17],[17,21],[22,21],[40,6],[92,-70],[38,-12],[226,-25],[45,25],[46,-23],[44,19],[44,35],[45,21],[339,0],[15,37],[-20,29],[-12,32],[36,42],[-6,13],[-8,29],[-5,13],[93,-1],[34,19],[13,49],[20,38],[46,-3],[95,-47],[63,-55],[160,-191],[54,-84],[20,0],[15,57],[22,-17],[34,-70],[151,-25],[2,0]],[[3473,1186],[57,21]],[[3527,1409],[-51,40],[51,-41]],[[3852,1089],[-19,-54]],[[3835,1037],[25,44],[-4,12]],[[3212,2027],[16,0]],[[3239,1959],[-1,1]],[[3239,1959],[4,-15]],[[3244,1943],[-5,16]],[[3247,1944],[-2,1]],[[3921,1813]],[[3921,1812]],[[3926,1822],[2,3]],[[3955,1881],[-21,-12]],[[3935,1868],[9,6]],[[3955,1882]],[[3988,1852],[4,-36]],[[3992,1816],[-2,40]],[[3991,1863]],[[3992,1867],[-1,0]],[[3993,1883]],[[4053,1833],[0,-1]],[[4066,1844],[-12,-10]],[[4055,1833],[11,11]],[[4055,1833]],[[4057,1871],[1,0]],[[3243,1943],[1,-1],[0,1],[-1,1]],[[3243,1944],[0,-1]],[[3382,1932],[2,-2],[1,1],[-3,2],[0,-1]],[[3618,2163],[-1,1]],[[3634,2156],[-3,6]],[[3647,2061],[-1,1]],[[3646,2058],[1,1]],[[3670,2043],[-20,7]],[[3676,2042],[-2,0]],[[3747,2020],[-2,1]],[[3948,1847],[10,12]],[[3624,533],[93,-110]],[[3718,423],[-1,0]],[[3717,423],[1,0]],[[3718,423],[53,-37],[122,10],[203,-30]],[[3408,1126],[14,23]],[[3422,1149],[1,1],[4,5]],[[3425,1154],[-3,-5]],[[3422,1149],[-12,-24]],[[2468,1966],[-40,-9]],[[3451,1476],[-29,37],[35,169],[-114,176]],[[3452,1475],[24,-26]],[[3713,1300],[8,-3]],[[3727,1295],[18,-11]],[[3745,1284],[1,-1]],[[3746,1284],[-1,0]],[[3747,1283],[18,-20]],[[3452,1476],[-1,0]],[[3451,1476],[0,-1],[1,0]],[[3452,1475],[0,1]],[[3723,1297],[0,-2],[2,0],[0,1],[-2,1]],[[3747,1284],[-1,-1],[0,-1],[1,1]],[[3747,1283],[0,1]],[[3913,1779],[3,16]],[[3001,1938],[-2,-1]],[[3000,1937],[1,1]],[[3001,1938],[99,56]],[[3100,1994],[2,3]],[[3101,1998],[-1,-4]],[[3102,1997],[2,1],[-1,1],[-2,-1],[1,-1]],[[3105,2001],[-2,-2]],[[3104,1999],[1,2]],[[3105,2001],[13,18]],[[3120,2020],[41,10]],[[3119,2020],[-1,-1]],[[3118,2019],[1,0],[1,1]],[[3120,2020],[-1,0]],[[3921,1855],[-22,-24]],[[3496,1880],[-3,0]],[[3494,1879],[2,1]],[[3503,1885],[-7,-5]],[[887,1902],[-6,-49],[-59,-71],[28,-8],[23,-92],[-40,-36],[43,-37],[-59,-118],[-186,-27],[-19,-23],[-13,-86],[24,-1],[6,-36],[-72,-50],[23,-24],[-33,-30],[-9,-74],[-34,-6],[-21,-146],[100,1],[-14,-63],[-73,-5],[47,-77],[-89,-88],[-1,-68],[-20,-11],[28,-29],[-8,-50]],[[2072,1342],[-46,-31]],[[2072,1342]],[[2072,1343],[0,-1]],[[2074,1344]],[[2074,1343],[0,1]],[[2326,1349],[-13,-11]],[[2313,1338],[-3,-2],[-34,-9],[-33,25],[-39,42],[-96,15],[-34,-65]],[[2264,1359],[-21,-6]],[[2264,1359],[1,-1],[1,1],[-1,1],[-1,-1]],[[2314,1337],[-1,1]],[[2313,1338],[-31,14],[-15,6]],[[3770,1270],[5,1]],[[3775,1271],[-5,0]],[[3775,1271],[26,4]],[[3801,1275],[1,0]],[[3802,1275],[2,0]],[[3804,1277],[-3,-2]],[[3802,1275]],[[3802,1275],[1,-1]],[[2074,1344],[-2,0],[0,-2],[2,0],[0,2]],[[3976,1889],[11,-7]],[[3994,1880],[2,-1]],[[4035,1874],[31,-4]],[[4068,1869],[-2,1]],[[4069,1859],[-1,10]],[[3650,2063],[-1,0]],[[3244,1942],[11,-20]],[[3255,1922],[0,-1]],[[3256,1921],[-1,1]],[[3256,1921],[1,-1]],[[3257,1920],[1,0]],[[3258,1920],[-1,0]],[[3338,1864],[-80,56]],[[3340,1860],[-2,4]],[[3343,1858],[-3,2]],[[3661,1321],[52,-21]],[[3661,1322],[0,1],[-1,-1],[1,-1],[0,1]],[[3663,1327],[-1,0],[0,-1],[1,1]],[[3920,1812],[27,34]],[[453,598]],[[2554,1301],[0,-1]],[[2554,1300],[0,1]],[[2599,1300],[-45,1]],[[2599,1300],[2,1]],[[2600,1301],[-1,-1]],[[3673,2041],[1,0]],[[4019,382],[2,-2]],[[4021,380],[-1,-1]],[[4021,379],[0,1]],[[2561,1206],[2,7],[-1,-3],[-1,-4]],[[3787,1033],[1,2],[-1,1],[-1,-2],[1,-1]],[[4020,378],[2,0],[0,1],[-2,-1]],[[3296,1941],[-83,-30]],[[3578,2188],[-1,-1],[1,0],[1,0],[-1,1]],[[132,1900],[1,-1]],[[133,1899],[-1,2]],[[143,1906],[-11,-4]],[[133,1899],[1,-3]],[[134,1896],[0,-2]],[[135,1894],[-1,2]],[[286,1990],[-142,-84]],[[286,1990],[14,0]],[[311,1987],[-11,3]],[[313,1987],[-2,0]],[[311,1987],[2,0]],[[315,1986],[2,0]],[[315,1987],[-1,1],[-1,-1]],[[313,1987],[1,-2],[1,2]],[[317,1986],[-2,1]],[[612,1931],[-295,55]],[[765,1902],[-151,29]],[[765,1902],[8,-2]],[[773,1901],[-8,1]],[[775,1900],[2,0]],[[777,1900],[-2,1]],[[834,1904],[-57,-4]],[[834,1904],[15,0]],[[893,1894],[-44,10]],[[961,1868],[-53,-11],[-15,36]],[[983,1873],[-21,-4]],[[984,1874],[-1,-1]],[[983,1873],[1,0]],[[988,1874],[-2,0]],[[987,1873],[1,1]],[[1092,1911],[-51,3],[-53,-40]],[[1396,1850],[-163,61],[-9,29],[-56,-43],[-5,20],[-68,-6]],[[1396,1850],[1,-1]],[[1397,1850],[-1,0]],[[1398,1848],[1,1]],[[1399,1849],[-1,0]],[[1400,1848],[-1,1]],[[1401,1849],[-1,-1]],[[1400,1848],[1,0]],[[1403,1849],[-1,0]],[[1402,1848],[1,1]],[[1499,1875],[-40,-12],[-13,43],[-43,-57]],[[1512,1876],[-13,-1]],[[1512,1876],[25,3]],[[1539,1880],[-2,-1]],[[1537,1879],[2,0]],[[1548,1881],[-8,-1]],[[1540,1879],[8,2]],[[1548,1881],[114,25]],[[1663,1907],[-1,-1]],[[1662,1906],[1,0]],[[1664,1906],[0,1],[-1,0]],[[1664,1906],[0,1],[-1,-1],[1,0]],[[1664,1906],[1,-1]],[[1665,1905],[-1,1]],[[2026,1311],[-15,88],[-67,76],[1,23],[30,-5],[-95,79],[-113,23],[-28,44],[24,52],[-31,53],[-14,142],[-53,19]],[[2313,1345],[11,9]],[[2323,1358],[-7,-9]],[[2325,1355],[-1,2]],[[2748,1275],[-38,10],[13,14],[-22,19],[-53,1],[-25,36],[-28,-9],[7,38],[-275,-34]],[[2786,1279],[-37,-4]],[[2786,1279],[1,0]],[[2787,1279],[-1,0]],[[2787,1280]],[[2787,1280],[0,-1],[0,1]],[[2787,1279],[0,1]],[[2805,1296],[-18,-16]],[[2805,1296]],[[2805,1296]],[[2806,1297],[0,-1]],[[2806,1296],[-1,0]],[[2806,1296],[0,1]],[[2808,1301],[-2,-4]],[[2808,1301],[0,1]],[[2808,1302],[0,-1]],[[2808,1302]],[[2809,1303],[-1,0]],[[2808,1302],[1,1]],[[2815,1304],[-6,-1]],[[2815,1304],[0,1]],[[2833,1309],[-17,-5]],[[2833,1309],[1,0]],[[2834,1310],[-1,-1]],[[2836,1311],[-2,-1]],[[2835,1310],[1,1]],[[2854,1323],[-18,-12]],[[2855,1324],[-1,-1]],[[2854,1323],[1,0]],[[2857,1325],[-1,-1]],[[2856,1324],[1,1]],[[3011,1248],[-11,34],[-116,61],[-27,-18]],[[3011,1248],[0,-1]],[[3012,1248],[-1,0]],[[3011,1247],[1,-1]],[[3102,1147],[1,20],[-68,24]],[[3114,1144],[0,1]],[[3713,1265],[29,-3]],[[3744,1262],[-2,0]],[[3742,1262],[2,-1]],[[3744,1262],[0,-1]],[[3744,1261]],[[3745,1261],[-1,1]],[[3744,1261],[1,0]],[[3744,1261],[3,-2]],[[3745,1262]],[[3747,1259],[-2,2]],[[3747,1259],[56,15]],[[3807,1276],[60,-2]],[[3867,1274],[14,1]],[[3881,1275],[88,15]],[[3969,1290],[2,-1]],[[3972,1290],[-3,0]],[[3972,1290],[-1,-1]],[[3971,1289],[1,-1],[1,1]],[[3973,1289],[-1,1]],[[3975,1290],[-3,0]],[[3973,1289],[2,1]],[[3975,1290],[18,8]],[[3997,1299],[8,0]],[[4006,1300],[-8,-1]],[[4005,1299],[1,0],[0,1],[-1,0],[0,-1]],[[4017,1301],[-11,-1]],[[4006,1299],[12,2]],[[4018,1301],[15,-2]],[[4033,1299],[-15,3]],[[4033,1299],[21,-4]],[[4054,1295],[2,-1]],[[4056,1295],[-2,0]],[[4056,1295],[0,-1]],[[4056,1294],[0,-1],[1,1],[-1,1]],[[4059,1295],[-3,0]],[[4057,1293],[2,2]],[[4059,1295],[37,5]],[[144,1906],[0,1],[-1,0],[1,-1]],[[614,1930],[0,1],[-2,0],[0,-1],[2,0]],[[775,1901],[-1,1],[-1,-1],[1,-2],[1,2]],[[893,1894],[0,-1],[1,0],[-1,1]],[[962,1869],[-1,0],[0,-1],[1,0],[0,1]],[[984,1873],[2,-1],[1,1]],[[987,1873],[-2,1],[-1,-1]],[[1093,1910],[2,1],[-2,1],[-1,-1],[1,-1]],[[1398,1850],[-1,-1],[0,-1],[1,1],[0,1]],[[1402,1848],[0,1]],[[1402,1849],[-1,0]],[[1401,1849],[0,-1],[1,0]],[[1540,1880],[-1,0],[0,-1],[1,1]],[[2323,1357],[2,1],[0,1],[-2,0],[0,-2]],[[2325,1353],[1,0],[0,2],[-1,-1],[0,-1]],[[2326,1349],[1,0],[0,1]],[[2327,1350],[-1,0],[0,-1]],[[2749,1275],[0,1],[-1,-1],[0,-1],[1,1]],[[2835,1310],[-1,0],[0,-1],[1,0],[0,1]],[[2856,1324],[-1,0],[0,-1],[1,0],[0,1]],[[3012,1246],[1,1],[0,1],[-2,-1]],[[3011,1247],[1,-1]],[[3803,1276],[2,-1],[0,2],[-1,0],[-1,-1]],[[4017,1301],[1,0],[0,1],[-1,-1]],[[3645,2069],[-7,20]],[[2428,1957],[-62,49],[-25,0],[-4,-2]],[[2337,2004],[-62,-18]],[[2275,1986],[-9,-3],[-46,-8],[-30,-9],[-40,-14],[-30,-13],[-10,2],[-40,-8],[-121,-36],[-5,2],[-26,2],[-5,-1],[-35,-10],[-32,15],[-191,23],[-19,-7],[-54,-50],[-41,1],[-46,-13],[-53,-26],[-248,69],[-15,-2],[-22,-10],[-72,-23],[-14,1],[-8,2],[-90,-5],[-60,-17],[-126,47],[-117,18],[-100,-9],[-112,17],[-135,-1],[-209,-24],[-86,13],[-28,-2]],[[0,1904],[117,-9],[341,25],[112,-16],[235,-17],[108,-39],[177,19],[104,35],[248,-69],[140,38],[73,57],[223,-39],[71,8],[171,42],[69,27],[78,17],[8,3]],[[2275,1986],[34,13],[28,5]],[[2337,2004],[4,1],[26,0],[45,-44],[16,-4],[40,9],[37,-10],[18,-21],[16,-17],[13,-11],[142,-29],[56,-60],[38,-8],[27,1],[51,56],[19,33],[17,10],[30,-5],[53,8],[21,15],[79,-4],[49,-63],[71,-1],[49,-37],[68,-1],[42,34]],[[3363,1856],[-40,-33],[-69,0],[-8,8],[-40,30],[-72,1],[-32,48],[-3,4],[-14,10],[-17,4],[-63,0],[-20,-14],[-24,3],[-29,-11],[-30,5],[-9,-3],[-8,-8],[-19,-33],[-12,-8],[-8,-7],[-31,-40],[-27,-1],[-38,8],[-8,11],[-38,42],[-10,6],[-102,33],[-40,-3],[-13,11],[-34,38],[-10,8],[-27,1]],[[3503,1848],[68,-93],[21,-11],[48,-8],[48,6],[37,8],[34,23]],[[3759,1773],[-81,-31],[-83,2],[-91,104]],[[4096,1794],[-4,2]],[[4092,1796],[-43,24]],[[4051,1821],[6,1],[35,-26]],[[4092,1796],[4,-3]],[[3977,1888],[-1,1]],[[3987,1882],[-7,4]],[[4065,1845],[2,-1]],[[4068,1845],[-2,0]],[[134,1892],[-74,-59],[-53,-5],[15,-67],[-22,-30]],[[134,1892],[1,0]],[[134,1893],[0,-1]],[[3662,740],[35,10]],[[3697,750],[4,4]],[[3701,754],[133,82],[17,59]],[[3855,901],[-4,-6]],[[3855,901],[35,23]],[[3856,1093],[-52,131],[-39,39]],[[3766,1259],[38,-37],[4,-90],[44,-43]],[[3949,1886],[0,1]],[[3950,1887]],[[4088,1841],[2,-1]],[[4090,1840],[5,-4]],[[4095,1836],[1,-1]],[[3941,1854],[-43,39]],[[3900,1889],[4,-6],[5,-5],[10,-5]],[[3976,1893],[0,-4]],[[3993,1883],[1,-3]],[[4060,1871],[-45,13]],[[3932,1867],[-48,-52],[-44,-5]],[[3847,1808],[38,5],[48,54]],[[3898,1893],[-10,18]],[[3390,1108],[-43,-10],[-41,22],[-9,2],[-71,25]],[[3226,1147],[-63,23],[-2,4]],[[3161,1174],[-26,41],[-9,6],[-57,2],[-66,51],[-38,21],[-63,19],[-27,-3],[-3,-4]],[[2872,1307],[-29,-36]],[[2843,1271],[-20,-24],[-2,0],[-17,4],[-11,1],[-29,-4],[-31,12],[-96,11],[-30,46]],[[2613,1299],[24,-28],[127,-24],[57,-1],[1,0],[19,15],[2,10]],[[2843,1271],[2,19],[27,17]],[[2872,1307],[3,2],[26,3],[172,-91],[53,-1],[28,-43],[7,-3]],[[3161,1174],[65,-27]],[[3226,1147],[65,-27],[16,-1],[39,-23],[25,7]],[[3916,1795],[4,17]],[[2601,1300],[1,1],[-1,1],[-1,-1],[1,-1]],[[3863,1735],[-19,-12]],[[3845,1722],[18,13]],[[3845,1722],[-1,1],[-1,-1],[1,-1],[1,1]],[[3404,1172],[-12,-5]],[[3442,1210],[1,1]],[[3378,1057],[-13,-31]],[[3413,1123],[-34,-65]],[[3379,1057],[0,1]],[[3379,1058],[-1,-1]],[[3378,1057],[0,-1],[1,1]],[[2569,1378],[0,-1]],[[2570,1377],[0,1]],[[4005,1801],[1,-1],[-3,-11]],[[4003,1789],[-1,-4],[-24,-6],[-13,-27]],[[3966,1752],[36,33],[1,4]],[[4003,1789],[2,14]],[[3423,1134],[0,16]],[[3888,1911],[-1,-1]],[[3171,2035],[15,-2]],[[3365,1027],[-1,0]],[[3366,1026],[1,-1]],[[3367,1025],[-1,1]],[[3367,1025],[18,-48]],[[3375,967],[1,0]],[[3376,967],[-1,0]],[[3375,967],[-24,-23],[5,-77],[138,-57],[61,24],[76,-52]],[[3378,968],[-1,0]],[[3377,1056],[1,1]],[[3377,968],[1,0]],[[3384,975],[-6,-7]],[[3379,1058],[0,1]],[[3532,159],[51,-48]],[[3623,87],[40,-49]],[[3670,38],[-7,0]],[[3670,38],[0,-38]],[[3377,967],[0,1]],[[3377,968],[-1,0],[0,-1]],[[3376,967],[1,0]],[[3385,976],[-1,1],[0,-1],[1,0]],[[3416,1182],[0,-1]],[[3428,1195],[-7,-6]],[[3538,1455],[-7,-74],[3,-30],[-6,-19],[-5,-6],[-37,-71],[-19,-12],[-14,-19]],[[3454,1223],[33,31],[42,77],[6,20],[3,106]],[[3543,1476],[4,7],[32,8],[0,3]],[[3579,1494],[-32,-11],[-4,-6]],[[3448,1913],[-10,2],[-16,-5],[-3,-2],[-56,-52]],[[3364,1856],[89,54],[50,-62]],[[3504,1848],[-27,41],[-9,11],[-18,12]],[[4049,1820],[-1,1]],[[4048,1821],[-3,1],[-27,-7],[-13,-15],[-90,-7],[-18,11],[-15,6],[-42,0],[-21,-3],[-28,-12],[-32,-22]],[[3759,1773],[61,33],[117,-20],[51,5],[17,9],[24,18],[19,3]],[[4048,1821],[3,0]],[[3553,1272]],[[3913,1779],[-20,-13],[-30,-31]],[[3863,1735],[50,44]],[[3602,1744],[-2,0]],[[3601,1742],[26,-24]],[[3920,1812],[-5,-17]],[[3822,1025],[2,1]],[[3822,1025],[4,-5]],[[3826,1020],[-2,6]],[[3826,1020],[0,-1]],[[3826,1019],[0,-1]],[[3827,1018],[-1,1]],[[3827,1018],[-1,0]],[[3113,1145],[-1,0]],[[3114,1145]],[[3745,2021],[-59,20]],[[3757,2006],[-10,14]],[[3421,1157],[0,-7]],[[3421,1149],[0,-2]],[[3428,1156],[30,-8]],[[3458,1149],[-21,5]],[[3474,1168],[-15,-19]],[[3459,1148],[16,20]],[[3473,1185],[1,-14]],[[3474,1176],[-1,10]],[[3475,1171],[-1,5]],[[3475,1171],[-1,5]],[[3421,1150],[0,-1]],[[3421,1149],[1,1],[-1,0]],[[3473,1169],[2,-1],[0,3]],[[3475,1171],[-1,0]],[[3474,1171],[-1,-2]],[[3278,1943],[13,-3],[9,1],[1,0],[13,6]],[[3314,1947],[19,-4]],[[3333,1943],[39,-8],[35,-16],[22,-5]],[[3393,1926],[-23,10],[-37,7]],[[3333,1943],[-19,4]],[[3314,1947],[-2,0],[-29,-4]],[[3919,1873],[21,-20]],[[3463,1195],[1,-1]],[[3860,1808],[-20,2]],[[4053,1832],[2,1]],[[3459,1148],[0,1],[-1,0],[0,-1],[1,0]],[[3797,1914],[-15,30]],[[3450,1912],[-2,1]],[[3947,1846],[5,-3]],[[3948,1847],[0,1]],[[3948,1846],[6,-5],[4,-1],[27,-5]],[[3952,1843]],[[3952,1843],[-1,2],[-3,2]],[[3985,1836],[-27,4],[-4,2],[-1,1],[-1,0]],[[3952,1843],[-1,2],[-3,1]],[[2666,1605],[-99,-190],[2,-37]],[[2666,1605],[7,8]],[[2703,1700],[-30,-87]],[[2704,1701],[64,6],[16,109]],[[2797,1870],[-12,-52]],[[2797,1870]],[[2797,1870],[1,0]],[[2704,1700],[0,1],[-1,0],[0,-1],[1,0]],[[2785,1818],[-1,0],[0,-1],[1,-1],[0,2]],[[3646,2058]],[[3817,1888],[-4,8]],[[3421,1140],[-8,-17]],[[3421,1147],[0,-6]],[[4079,883],[17,-5]],[[3820,1880],[-3,8]],[[3820,1880],[4,-4]],[[3823,1877],[-3,3]],[[3531,168],[-7,-19],[8,-16],[-13,-50],[-8,-83]],[[3512,0],[20,133],[-8,16],[8,19]],[[3787,1949],[0,1]],[[3488,1275],[-35,-51]],[[3454,1223],[39,56]],[[3499,1288],[34,50],[1,3]],[[3534,1341],[1,32]],[[3535,1373],[5,92]],[[3540,1463],[-5,-90]],[[3535,1373],[-1,-32]],[[3534,1341],[-34,-49]],[[3543,1478],[36,16]],[[3579,1494],[-36,-15]],[[3502,941],[83,77]],[[3310,1948],[-6,-2]],[[3391,1938],[-1,0]],[[3391,1937],[1,2]],[[3420,1931],[-1,1]],[[3553,1272],[-89,-77]],[[3465,1194],[80,39],[8,19]],[[3161,2030],[10,5]],[[1422,512],[-70,-175],[-48,-37],[15,-88],[-107,-212]],[[1422,512],[5,4]],[[1503,674],[-42,-143],[-34,-15]],[[1503,674],[12,3]],[[1778,909],[-29,8],[-13,-61],[-46,-23],[-28,-57],[-147,-99]],[[1778,909]],[[1780,906],[0,1]],[[1780,907],[-1,0],[-1,2]],[[1778,909],[2,-3]],[[1778,909],[2,-2]],[[1780,907],[2,-3]],[[1780,906],[1,-2]],[[1782,904],[-2,2]],[[1928,898],[-146,6]],[[1931,895],[-3,3]],[[1928,898],[2,-2]],[[1930,896],[-2,2]],[[1930,896],[1,-1]],[[2432,1135],[-91,64],[-60,-33],[-101,-4],[-33,-101],[-75,-115],[-141,-51]],[[2432,1135],[11,1]],[[2561,1206],[-44,-54],[-74,-16]],[[2553,1300]],[[2553,1301],[16,74]],[[2553,1298],[1,0]],[[2553,1297],[10,-84]],[[2553,1300],[-1,-2],[2,0],[0,2],[-1,0]],[[1702,1911],[-38,-4]],[[1702,1919],[0,-2]],[[1845,1913],[-140,8]],[[1852,1916],[-6,-3]],[[2296,1991],[-103,-23],[-4,23],[-68,-43],[-4,26],[-94,-37],[7,-24],[-175,2]],[[2297,1992],[-1,-1]],[[2296,1991],[1,0]],[[2298,1990],[0,-1]],[[2298,1989],[1,2]],[[2487,1980],[-121,-59],[-39,66],[-29,2]],[[2711,1901],[-2,1]],[[2915,1897],[-9,-1]],[[1701,1917],[-1,-1],[1,-1],[1,1],[-1,1]],[[1702,1921],[0,-1],[1,-1],[1,2],[-2,0]],[[1847,1912],[-1,1]],[[1846,1913],[-1,0]],[[1845,1913],[0,-1],[2,0]],[[2299,1991],[-2,1],[0,-1]],[[2297,1991],[1,-1],[1,1]],[[3904,930],[118,-54],[57,7]],[[3531,181],[0,-13]],[[3532,168],[2,20]],[[3939,1987],[157,207]],[[3583,111],[40,-24]],[[3404,1172],[10,2]],[[3904,930],[-52,75],[-6,6],[-7,4],[-1,0],[-3,1]],[[3835,1016],[-9,1],[-11,6]],[[3816,1023],[19,-7]],[[3835,1016],[3,-2],[5,-2],[9,-8],[5,-9],[3,-16],[7,-17],[15,-17],[4,-4],[11,-4],[3,-4]],[[3918,1959],[21,28]],[[3416,1181],[-2,-7]],[[3390,1938],[1,0]],[[3645,2060],[-1,-2]],[[3620,2162],[1,2]],[[3836,1866],[-10,7]],[[3838,1864]],[[2015,1303],[1,-2]],[[2016,1301],[-1,2]],[[2316,1349],[-78,-21],[-34,64],[-34,2],[-154,-93]],[[3731,418],[7,2]],[[3787,1950],[-13,41]],[[3391,1098],[17,28]],[[3410,1125],[-6,-12]],[[3713,1275],[72,-18],[3,1]],[[3788,1258],[127,3]],[[3915,1261],[10,0],[14,-1],[111,21],[46,-7]],[[4096,1275],[-46,7],[-114,-21],[-11,0],[-7,0],[-3,0]],[[3915,1261],[-7,-2],[-120,-2],[0,1]],[[3788,1258],[-8,2],[-67,16]],[[4078,1843],[6,0]],[[4088,1843],[-10,1]],[[3107,1143],[7,1]],[[3370,1157],[-1,-1]],[[3817,1888],[-20,26]],[[3823,1877],[-1,-1]],[[3823,1875],[2,-1]],[[3824,1876],[-1,1]],[[3825,1874],[-1,2]],[[3826,1873],[-1,1]],[[3838,1864],[-2,2]],[[3853,1857],[-15,7]],[[3853,1857],[1,-3]],[[3855,1854],[-2,3]],[[3854,1852],[1,-1]],[[3855,1852],[1,2],[-2,0]],[[3854,1854],[0,-1],[1,-1]],[[3855,1851],[0,1]],[[3872,1834],[-17,17]],[[1855,1915],[-3,1]],[[2507,1964],[-21,15]],[[2509,1963],[-2,1]],[[2679,1899],[-129,21],[-41,43]],[[2679,1899],[0,-1]],[[2680,1898],[-1,1]],[[2680,1896],[2,-1]],[[2682,1895],[-1,1]],[[2709,1902],[-27,-7]],[[2795,1872],[-84,29]],[[2795,1872],[1,-1]],[[2797,1872],[-2,0]],[[2851,1850],[-51,21]],[[2851,1850],[20,13]],[[2875,1869],[-4,-6]],[[2891,1888],[-16,-19]],[[2900,1895],[-9,-7]],[[2906,1896],[-6,-1]],[[2998,1935],[-98,-40]],[[3213,1911],[-94,79],[-26,-49],[-92,-5]],[[4084,1843],[4,-2]],[[4089,1841],[-1,2]],[[2679,1898],[-1,-1],[2,-2],[1,2],[-2,1]],[[2796,1871],[2,1]],[[3890,924],[11,7]],[[3901,931],[8,-7]],[[3910,925],[-9,6]],[[3910,925],[-1,0],[1,-2],[1,1],[-1,1]],[[3421,1157],[5,0]],[[3442,1211],[-13,-15]],[[3443,1211],[1,0],[-1,1],[-1,0],[1,-1]],[[3971,1895],[-13,-1],[-9,-7],[0,-1]],[[3950,1887],[21,8]],[[3527,1408],[51,-36]],[[3579,1374],[-52,35]],[[3597,1363],[53,-37]],[[3654,1326],[-57,38]],[[3407,1920],[-14,6]],[[3887,1910],[5,-7]],[[1443,1902],[2,-4]],[[2265,1360],[-1,0]],[[2266,1358],[0,1]],[[3020,1250],[1,-1]],[[3650,681],[-9,0]],[[3651,681],[-1,0]],[[3650,681],[1,-1]],[[3651,681],[0,-1],[1,1],[0,1],[-1,-1]],[[3790,1929],[-1,4]],[[3873,1275]],[[3873,1274],[0,1]],[[3873,1275]],[[3873,1274],[0,1]],[[3993,1298],[3,0]],[[3998,1299],[-1,0]],[[4017,1300],[3,1]],[[3017,1247],[-1,1],[0,-2],[1,0],[0,1]],[[3366,1026],[0,1],[-1,0],[0,-1],[1,0]],[[454,756],[-76,-93],[-22,59],[-65,-17],[-125,109],[7,61],[-36,35],[-4,59],[18,103],[-89,38]],[[3647,2059],[1,1]],[[3465,1194],[8,-9]],[[3473,1186],[-8,8]],[[3531,1208],[17,12]],[[3548,1220],[1,1]],[[3549,1222],[-1,-2]],[[3552,1222],[61,25]],[[3613,1247],[7,2]],[[3620,1249],[16,7]],[[3531,1208],[-1,1],[0,-1],[0,-1],[1,1]],[[3551,1221],[0,2],[-2,0],[0,-2]],[[3549,1221],[2,0]],[[3562,1382],[3,-2]],[[3475,1168],[20,-16]],[[3495,1152],[-19,17]],[[2910,1899],[11,61]],[[2920,1960],[1,0]],[[2921,1960],[-1,1]],[[3561,1229],[-10,-6]],[[3636,1256],[71,9]],[[3709,1265],[-2,0]],[[3707,1265],[2,-1]],[[3711,1264],[1,1]],[[3711,1264],[0,1]],[[3712,1265],[-1,0]],[[3712,1265],[1,0]],[[3958,1859],[22,27]],[[3977,1888]],[[3578,1310],[-20,-28]],[[3186,2033],[24,-2],[14,-45]],[[3224,1986]],[[3224,1986]],[[3224,1986],[0,-1],[1,0],[0,1],[-1,0]],[[3224,1985],[1,-1]],[[3225,1984],[0,1]],[[3238,1961],[-13,23]],[[3893,1922],[-5,-11]],[[3889,1907],[1,1]],[[3890,1910],[5,12]],[[3898,1893],[2,-4]],[[3940,1853],[8,-7]],[[3948,1846],[-7,8]],[[3894,1922],[1,1],[-1,1],[-1,-1],[1,-1]],[[3392,1939],[27,-7]],[[3977,1760],[28,43]],[[4005,1801],[-25,-39]],[[3219,2032],[1,-1],[0,1]],[[3272,1943],[-28,0]],[[3244,1943],[16,-2],[12,2]],[[3414,1174],[7,-17]],[[3416,1181],[0,1]],[[3416,1181],[0,2]],[[3429,1196],[-1,-1]],[[3444,1213],[-1,-1]],[[3451,1222],[-1,-1]],[[3219,2034],[1,-2]],[[2919,1960],[1,1],[0,1],[-2,-1],[1,-1]],[[3917,1850],[4,4]],[[2507,1961],[-12,4]],[[3946,1847],[2,0]],[[3996,1879],[39,-5]],[[3491,923],[11,18]],[[3585,1018],[118,49],[61,-46]],[[3773,1024],[-9,-3]],[[3773,1024],[1,1]],[[3774,1025],[4,3]],[[3783,1033],[-6,-6]],[[3777,1027],[-3,-2]],[[3778,1028],[-1,-1]],[[3777,1027],[-1,0]],[[3778,1028],[5,5]],[[3779,1030],[-1,-2]],[[3783,1033],[1,2]],[[3278,1943],[3,1]],[[3388,1937],[-107,7]],[[3304,1946],[-23,-2]],[[3390,1938],[-2,-1]],[[3388,1937],[2,0]],[[3392,1939],[-1,-1]],[[3490,1881],[-70,50]],[[3490,1881],[1,-2]],[[3492,1881],[-2,0]],[[3492,1881],[-2,-2],[2,-2],[2,2],[-2,2]],[[3493,1877],[3,0]],[[3496,1877],[-2,1]],[[3508,1880],[-12,-3]],[[3272,1943],[6,0]],[[3280,1944],[-8,-1]],[[3391,1166],[-11,-4]],[[3427,1157],[-6,0]],[[3427,1157],[-1,0],[1,-2],[1,1],[-1,1]],[[4004,1804],[1,-3]],[[3934,1867],[1,1]],[[3485,1929],[-1,29],[162,101]],[[3485,1929],[0,-2]],[[3486,1928],[-1,1]],[[3485,1925],[2,-1]],[[3486,1926],[0,2]],[[3486,1928],[-1,-1]],[[3485,1927],[0,-1],[1,0]],[[3487,1924],[-1,2]],[[3487,1924],[16,-39]],[[3647,2060],[1,0],[1,2],[1,1]],[[3650,2063]],[[3650,2063]],[[3650,2063],[-1,0],[18,41]],[[3500,1292],[-12,-17]],[[3493,1279],[6,9]],[[3543,1479],[-3,-1],[0,-15]],[[3540,1465],[3,13]],[[3843,1722],[-34,-8]],[[3809,1714],[-46,-12]],[[3763,1702],[-1,-1],[-62,-69],[-13,-82],[-77,-4]],[[3610,1546],[-6,0]],[[3604,1546],[-1,0],[-24,-52]],[[3579,1494],[25,52]],[[3604,1546],[6,0]],[[3610,1546],[77,3],[13,82],[63,71]],[[3763,1702],[2,2],[44,10]],[[3809,1714],[35,7]],[[3782,1944],[-86,15],[-188,-79]],[[3965,1752],[-45,-133],[2,-63],[14,-58],[-13,-42],[-6,-95],[7,-40],[-13,-41],[1,-12],[16,-77],[-2,-14],[4,-11],[-1,-15]],[[3929,1151],[-1,-27],[-1,0]],[[3927,1124],[-26,-11]],[[3901,1113],[-11,-4],[-7,-1]],[[3883,1108],[-8,-2],[-119,-90],[-47,-147],[-74,-96]],[[3638,772],[8,8],[65,91],[46,145],[7,3],[22,14],[28,20],[61,52],[5,2],[3,1]],[[3883,1108],[18,5]],[[3901,1113],[26,9],[0,2]],[[3927,1124],[2,27]],[[3929,1151],[1,16],[-3,9],[1,14],[-9,55],[-7,23],[-1,13],[12,34],[1,6],[-6,40],[8,53],[-3,42],[14,42],[-1,14],[-13,44],[-3,63],[46,133]],[[3587,2175],[-8,11]],[[3587,2175],[13,0]],[[3593,2175],[5,-1]],[[3618,2162],[-18,13]],[[3631,2162],[-12,1]],[[3638,2089],[-4,67]],[[3646,2061],[-1,8]],[[3650,2050],[-4,8]],[[3674,2042],[-4,1]],[[3686,2041],[-10,1]],[[3758,2006],[-1,0]],[[3758,2006],[12,-12]],[[3774,1991],[-4,3]],[[3787,1950],[-1,-1]],[[3619,2163],[-1,-1]],[[3618,2162],[1,0],[1,0],[-1,1]],[[3102,1147],[7,-13]],[[3109,1134],[5,10]],[[3292,1109],[-92,13],[-53,-30],[-38,42]],[[3293,1109],[-1,0]],[[3292,1109],[1,-1]],[[3295,1110],[-2,-1]],[[3293,1109],[0,-1]],[[3293,1108],[2,1]],[[3296,1110],[-1,0]],[[3295,1109],[0,1]],[[3295,1109],[1,1]],[[3315,1122],[-19,-12]],[[3316,1122],[-1,0]],[[3315,1122],[1,0]],[[3316,1122],[0,-1],[1,0]],[[3317,1121],[0,2],[-1,-1]],[[3317,1121],[1,1]],[[3318,1122],[-1,0]],[[3369,1156],[-51,-34]],[[3980,1762],[-37,-56]],[[3943,1706],[-11,-16],[-13,-76],[17,-112],[-25,-223],[20,-149],[-180,-118],[-1,-2]],[[3750,1010],[0,-1]],[[3750,1009],[-41,-140],[-74,-96]],[[3638,772],[72,98],[40,139]],[[3750,1009],[0,1]],[[3750,1010],[181,119],[-20,148],[26,225],[-18,112],[13,76],[11,16]],[[3943,1706],[34,54]],[[2918,1961],[-36,-62]],[[2883,1900],[36,60]],[[3948,1848],[-2,-1]],[[3944,1874],[12,8],[-6,5]],[[3949,1886],[2,-1]],[[3971,1895]],[[3971,1895],[5,-2]],[[3976,1889],[-5,6]],[[4055,1833],[-2,0]],[[3980,1886],[-3,2]],[[3543,1477],[-5,-22]],[[3538,1457],[5,19]],[[3843,1722],[-25,-17],[-11,-2],[-14,0]],[[3793,1703],[-27,2]],[[3766,1705],[-1,0],[-11,-13]],[[3754,1692],[-52,-65]],[[3702,1627],[-3,-4],[-9,-70],[-86,-6],[-3,-2],[-13,-24],[-9,-27]],[[3579,1494],[25,52],[87,7],[4,19],[0,2],[7,53]],[[3702,1627],[1,8],[51,57]],[[3754,1692],[12,13]],[[3766,1705],[1,1],[26,-3]],[[3793,1703],[14,-1],[11,2],[26,17]],[[1445,1898],[4,4]],[[4067,1844],[11,-1]],[[4078,1844],[-10,1]],[[3647,2059],[-1,2],[-1,-1],[1,-2],[1,1]],[[3419,1932],[-5,5]],[[3954,1884],[1,-3]],[[3994,1876],[-1,8]],[[3847,1808],[70,42]],[[3899,1831],[-2,-1]],[[3437,1154],[-9,2]],[[3591,2175],[2,0]],[[3416,1183]],[[3416,1183],[0,-1],[1,1]],[[3416,1183]],[[3416,1183],[0,-1]],[[3421,1189],[-4,-5]],[[3464,1195],[-31,6]],[[3464,1195],[0,-1],[1,0],[-1,1]],[[3987,1882],[7,-2]],[[4066,1845],[-1,0]],[[4067,1869],[0,-23]],[[4067,1870]],[[4067,1846],[2,13]],[[4067,1844],[1,1]],[[3921,1813],[-1,-1]],[[3594,1485],[-7,-102],[4,-18],[0,-6],[0,-7]],[[3591,1352],[0,-5],[-1,-6]],[[3590,1341],[-2,-10],[0,-1],[-30,-48],[-6,-14],[-2,-29],[0,-19],[0,-2]],[[3550,1218],[-4,-15],[-10,-15]],[[3536,1188],[-2,-2],[-31,-34],[-1,-4],[-2,-2]],[[3500,1146],[-11,-9],[-4,-1],[-2,-1]],[[3483,1135],[-2,0],[-17,-10],[-9,0],[-22,-3],[-11,0],[-6,-2]],[[3417,1120],[47,4],[9,4],[8,6],[2,1]],[[3483,1135],[17,11]],[[3500,1146],[3,2],[32,37],[1,3]],[[3536,1188],[14,30]],[[3550,1218],[1,2],[6,59],[32,52],[1,10]],[[3590,1341],[1,11]],[[3591,1352],[1,7],[-1,9],[-4,16],[11,98]],[[3371,1158],[-1,-1]],[[3443,1212],[9,9]],[[3454,1221],[0,2],[-2,1],[0,-3]],[[3452,1221],[2,0]],[[3257,1922],[-37,109]],[[453,598],[53,-2],[75,155],[59,30],[65,-97],[32,33],[32,-54],[102,80],[103,44],[32,27],[-8,23],[15,-21],[-4,-13],[51,22],[25,41],[-31,-23],[13,54],[25,8],[150,-91],[120,-158],[47,-27],[80,45],[-12,-67]],[[3951,1885],[3,-1]],[[3578,1310],[16,-4],[27,-5],[1,0],[76,-25],[15,-1]],[[3713,1276],[-67,23],[-60,9]],[[3915,1795],[-2,-16]],[[0,1523],[39,-54],[-39,-81]],[[0,1369],[47,-87],[-20,-70],[33,-101]],[[60,1111],[1,-1]],[[61,1111],[-1,0]],[[61,1110],[1,0],[0,1],[-1,0],[0,-1]],[[3993,1873],[-5,-21]],[[3990,1856],[3,17]],[[3993,1873],[1,3]],[[3994,1880],[0,-3]],[[3892,1903],[6,-10]],[[3921,1812],[0,1]],[[3946,1847],[-25,-35]],[[3965,1867],[-17,-19]],[[4015,1884],[-28,-2]],[[3790,1033],[21,-8]],[[3811,1025],[5,-2]],[[3815,1023],[-4,2]],[[3811,1025],[-12,6],[-8,2]],[[3416,1120],[-50,-89],[25,-39]],[[3391,992],[17,-26],[29,-25],[38,-9]],[[3475,932],[5,-1],[10,-9],[46,-7]],[[3536,915],[3,-1],[4,-1],[3,-3]],[[3546,910],[0,-1],[12,-72],[2,-2]],[[3560,835],[42,-43]],[[3602,792],[5,-5],[22,-6],[13,-52],[-26,-216],[-106,-124],[-2,-10],[0,-29],[30,-136],[-7,-33]],[[3534,188],[6,13],[-3,47],[-28,131],[104,127],[4,7],[1,4],[1,3],[4,35],[6,18],[0,1],[14,155],[-5,27],[-9,25],[-22,7],[-5,4]],[[3602,792],[-41,38],[-1,5]],[[3560,835],[-2,9],[-10,64],[-2,2]],[[3546,910],[-10,5]],[[3536,915],[-1,0],[-44,7],[-11,10],[-5,0]],[[3475,932],[-34,3],[-34,33],[-16,24]],[[3391,992],[-3,6],[-21,33],[50,89]],[[3627,1718],[-4,-8],[-9,-68],[-1,-18],[-17,-104],[-2,-35]],[[3598,1482],[31,237]],[[3648,786],[-44,3]],[[3638,762],[0,10]],[[2688,1688],[7,0]],[[3035,1191],[-24,55]],[[3380,1162],[-9,-4]],[[3392,1167],[-1,-1]],[[3812,1896],[5,-9]],[[2171,2037],[35,17],[70,17],[17,21],[22,21],[40,6],[92,-70],[38,-12],[226,-25],[45,25],[46,-23],[44,19],[44,35],[45,21],[339,0],[15,37],[-20,29],[-12,32],[36,42],[-6,13],[-8,29],[-5,13],[93,-1],[34,19],[13,49],[20,38],[46,-3],[95,-47],[63,-55],[160,-191],[54,-84],[20,0],[15,57],[22,-17],[34,-70],[151,-25],[2,0],[0,-1954],[-1925,0],[-2171,0],[0,1746],[5,36],[17,55],[39,30],[26,94],[167,38],[286,10],[44,-14],[175,14],[119,-35],[76,-9],[160,86],[149,-15],[149,-54],[106,-58],[30,23],[34,8],[73,-1],[-5,19],[-7,45],[-6,19],[41,-9],[68,-40],[41,-9],[150,30],[150,0],[43,8],[41,20]],[[0,1887],[1,-20],[-1,-2],[0,22]],[[3867,1055],[145,-115],[57,35],[25,-27],[-25,-107],[-96,1],[-59,53],[-104,124],[57,36]],[[3618,1469],[95,-2],[0,-224],[-97,0],[-65,-89],[-53,-33],[-77,-5],[-60,48],[-4,124],[97,-45],[44,41],[53,227],[67,-42]],[[3909,2049],[34,-70],[153,-25],[0,-95],[-128,-106],[-115,-20],[-108,46],[-2,64],[51,62],[45,124],[33,-20],[15,57],[22,-17]],[[3519,1868],[-18,-24],[-274,24],[-74,221],[121,0],[11,28],[234,-249]],[[675,101],[52,76],[174,42],[25,28],[79,-38],[97,29],[61,-238],[-409,0],[-46,16],[-33,85]],[[1364,0],[44,15],[7,-15],[-51,0]],[[1534,0],[30,175],[55,115],[144,63],[152,132],[6,-87],[46,-68],[-49,-14],[-13,-47],[54,-269],[-425,0]],[[3674,1334],[10,68],[36,15],[22,50],[77,-27],[-48,-107],[-97,1]],[[1905,269],[13,47],[49,14],[-10,36],[53,119],[90,-50],[97,-14],[30,52],[77,41],[40,-61],[32,9],[12,-37],[-20,-27],[73,-98],[6,-58],[-55,-11],[4,-17],[41,-33],[50,17],[117,-48],[37,-64],[83,-11],[47,-54],[-25,-21],[-787,0],[-54,269]]]}