{"objects":{"water":{"type":"GeometryCollection","geometries":[{"type":"Polygon","properties":{"source":"naturalearthdata.com","kind":"ocean","area":1576712559132672,"sort_rank":200,"min_zoom":0.0,"id":1},"arcs":[[50]]},{"type":"LineString","properties":{"source":"naturalearthdata.com","kind":"ocean","sort_rank":205,"boundary":true,"min_zoom":0.0,"id":19},"arcs":[51]}]},"buildings":{"type":"GeometryCollection","geometries":[]},"places":{"type":"GeometryCollection","geometries":[{"type":"Point","properties":{"admin_level":"8","name:pt":"Sevilha","name:sl":"Sevilja","name:ja":"\u30bb\u30d3\u30ea\u30a2","name:ar":"\u0627\u0634\u0628\u064a\u0644\u064a\u0629","min_zoom":8.0,"name:it":"Siviglia","name:uk":"\u0421\u0435\u0432\u0456\u043b\u044c\u044f","name:be":"\u0421\u0435\u0432\u0456\u043b\u044c\u044f","name:ru":"\u0421\u0435\u0432\u0438\u043b\u044c\u044f","name:pl":"Sewilla","id":248820656,"population":703206,"name:el":"\u03a3\u03b5\u03b2\u03af\u03bb\u03bb\u03b7","kind":"locality","name:en":"Seville","name":"Sevilla","kind_detail":"city","name:sr":"\u0421\u0435\u0432\u0438\u0459\u0430","source":"openstreetmap.org","name:fr":"S\u00e9ville"},"coordinates":[3017,2890]},{"type":"Point","properties":{"name:el":"\u03a7\u03b5\u03c1\u03ad\u03b8 \u03bd\u03c4\u03b5 \u03bb\u03b1 \u03a6\u03c1\u03bf\u03bd\u03c4\u03ad\u03c1\u03b1","kind":"locality","name:en":"Jerez","name":"Jerez de la Frontera","name:lt":"Cheres de la Frontera","kind_detail":"city","min_zoom":8.0,"source":"openstreetmap.org","name:fr":"X\u00e9r\u00e8s","name:ru":"\u0425\u0435\u0440\u0435\u0441-\u0434\u0435-\u043b\u0430-\u0424\u0440\u043e\u043d\u0442\u0435\u0440\u0430","id":3763482580,"population":212226},"coordinates":[2603,306]},{"type":"Point","properties":{"admin_level":"6","kind":"locality","name":"Huelva","name:el":"\u039f\u03c5\u03ad\u03bb\u03b2\u03b1","kind_detail":"city","id":240423022,"source":"openstreetmap.org","min_zoom":8.0,"name:ru":"\u0423\u044d\u043b\u044c\u0432\u0430","name:be":"\u0423\u044d\u043b\u044c\u0432\u0430","population":147212,"name:sr":"\u0423\u0435\u043b\u0432\u0430","name:ja":"\u30a6\u30a8\u30eb\u30d0"},"coordinates":[241,2411]},{"type":"Point","properties":{"admin_level":"8","kind":"locality","name":"Dos Hermanas","name:el":"\u039d\u03c4\u03bf\u03c2 \u03a7\u03b5\u03c1\u03bc\u03ac\u03bd\u03b1\u03c2","kind_detail":"town","id":248815337,"source":"openstreetmap.org","min_zoom":8.0,"name:ru":"\u0414\u043e\u0441-\u042d\u0440\u043c\u0430\u043d\u0430\u0441","name:sr":"\u0414\u043e\u0441 \u0415\u0440\u043c\u0430\u043d\u0430\u0441","population":131855},"coordinates":[3229,2491]},{"type":"Point","properties":{"admin_level":"8","kind":"locality","name":"El Puerto de Santa Mar\u00eda","kind_detail":"town","source":"openstreetmap.org","min_zoom":8.0,"name:ru":"\u042d\u043b\u044c-\u041f\u0443\u044d\u0440\u0442\u043e-\u0434\u0435-\u0421\u0430\u043d\u0442\u0430-\u041c\u0430\u0440\u0438\u044f","id":1470838267,"population":86288},"coordinates":[2310,13]},{"type":"Point","properties":{"admin_level":"8","kind":"locality","name":"Sanl\u00facar de Barrameda","kind_detail":"town","source":"openstreetmap.org","min_zoom":8.0,"name:ru":"\u0421\u0430\u043d\u043b\u0443\u043a\u0430\u0440-\u0434\u0435-\u0411\u0430\u0440\u0440\u0430\u043c\u0435\u0434\u0430","id":1470839111,"population":67620},"coordinates":[1974,651]},{"type":"Point","properties":{"kind":"locality","name":"Sanl\u00facar de Barrameda","kind_detail":"town","source":"openstreetmap.org","min_zoom":8.0,"name:ru":"\u0421\u0430\u043d\u043b\u0443\u043a\u0430\u0440-\u0434\u0435-\u0411\u0430\u0440\u0440\u0430\u043c\u0435\u0434\u0430","id":3774813875,"population":67385},"coordinates":[1972,661]},{"type":"Point","properties":{"admin_level":"8","kind":"locality","name":"Alcal\u00e1 de Guada\u00edra","kind_detail":"town","source":"openstreetmap.org","min_zoom":8.0,"id":1470837694,"population":65929},"coordinates":[3467,2711]},{"type":"Point","properties":{"admin_level":"8","kind":"locality","name":"Utrera","kind_detail":"town","source":"openstreetmap.org","min_zoom":8.0,"id":1470839522,"population":46829},"coordinates":[3639,2137]},{"type":"Point","properties":{"admin_level":"8","kind":"locality","name":"Mairena del Aljarafe","kind_detail":"town","source":"openstreetmap.org","min_zoom":8.0,"id":1470838500,"population":41510},"coordinates":[2827,2729]},{"type":"Point","properties":{"source":"openstreetmap.org","kind":"locality","name":"Los Palacios y Villafranca","kind_detail":"town","population":38157,"min_zoom":8.0,"id":3766962269},"coordinates":[3219,2063]},{"type":"Point","properties":{"source":"openstreetmap.org","kind":"locality","name":"Los Palacios y Villafranca","kind_detail":"town","population":34774,"min_zoom":8.0,"id":4318600978},"coordinates":[3224,2048]},{"type":"Point","properties":{"admin_level":"8","kind":"locality","name":"Rota","kind_detail":"town","source":"openstreetmap.org","min_zoom":8.0,"name:ru":"\u0420\u043e\u0442\u0430","id":1470838815,"population":27918},"coordinates":[1955,91]},{"type":"Point","properties":{"admin_level":"8","kind":"locality","name":"Coria del R\u00edo","kind_detail":"town","source":"openstreetmap.org","min_zoom":8.0,"id":1470838230,"population":27759},"coordinates":[2848,2527]},{"type":"Point","properties":{"admin_level":"8","kind":"locality","name":"Carmona","kind_detail":"town","source":"openstreetmap.org","min_zoom":8.0,"id":1470838188,"population":27398},"coordinates":[4049,3194]},{"type":"Point","properties":{"admin_level":"8","kind":"locality","name":"Lebrija","kind_detail":"town","source":"openstreetmap.org","min_zoom":8.0,"id":1470838467,"population":26783},"coordinates":[2781,1175]},{"type":"Point","properties":{"admin_level":"8","kind":"locality","name":"Camas","kind_detail":"town","source":"openstreetmap.org","min_zoom":8.0,"id":1470838171,"population":26086},"coordinates":[2907,2939]},{"type":"Point","properties":{"admin_level":"8","kind":"locality","name":"Tomares","kind_detail":"town","source":"openstreetmap.org","min_zoom":8.0,"id":1470839488,"population":23921},"coordinates":[2871,2845]},{"type":"Point","properties":{"admin_level":"8","kind":"locality","name":"Arcos de la Frontera","kind_detail":"town","source":"openstreetmap.org","min_zoom":8.0,"id":1470838004,"population":22567},"coordinates":[3569,551]},{"type":"Point","properties":{"admin_level":"8","kind":"locality","name":"San Juan de Aznalfarache","kind_detail":"town","source":"openstreetmap.org","min_zoom":8.0,"id":1460569472,"population":21025},"coordinates":[2908,2785]},{"type":"Point","properties":{"admin_level":"8","kind":"locality","name":"Mairena del Alcor","kind_detail":"town","source":"openstreetmap.org","min_zoom":8.0,"id":1470838499,"population":19963},"coordinates":[3739,2834]},{"type":"Point","properties":{"admin_level":"8","kind":"locality","name":"El Viso del Alcor","kind_detail":"town","source":"openstreetmap.org","min_zoom":8.0,"id":1470838270,"population":19168},"coordinates":[3812,2892]},{"type":"Point","properties":{"admin_level":"8","kind":"locality","name":"Bormujos","kind_detail":"town","source":"openstreetmap.org","min_zoom":8.0,"id":1470838114,"population":19110},"coordinates":[2796,2828]},{"type":"Point","properties":{"admin_level":"8","kind":"locality","name":"Chipiona","kind_detail":"town","source":"openstreetmap.org","min_zoom":8.0,"name:ru":"\u0427\u0438\u043f\u0438\u043e\u043d\u0430","id":1470838215,"population":18447},"coordinates":[1737,503]},{"type":"Point","properties":{"admin_level":"8","kind":"locality","name":"Almonte","kind_detail":"town","source":"openstreetmap.org","min_zoom":8.0,"id":1470837866,"population":17885},"coordinates":[1496,2424]},{"type":"Point","properties":{"admin_level":"8","kind":"locality","name":"Castilleja de la Cuesta","kind_detail":"town","source":"openstreetmap.org","min_zoom":8.0,"id":1470838202,"population":17282},"coordinates":[2846,2883]},{"type":"Point","properties":{"admin_level":"8","kind":"locality","name":"Moguer","kind_detail":"town","source":"openstreetmap.org","min_zoom":8.0,"id":1470838536,"population":16598},"coordinates":[565,2473]},{"type":"Point","properties":{"admin_level":"8","kind":"locality","name":"Las Cabezas de San Juan","kind_detail":"town","source":"openstreetmap.org","min_zoom":8.0,"id":1470838461,"population":16516},"coordinates":[3177,1399]},{"type":"Point","properties":{"admin_level":"8","kind":"locality","name":"La Algaba","kind_detail":"town","source":"openstreetmap.org","min_zoom":8.0,"id":1470838429,"population":14590},"coordinates":[2964,3158]},{"type":"Point","properties":{"admin_level":"8","kind":"locality","name":"Bollullos Par del Condado","kind_detail":"town","source":"openstreetmap.org","min_zoom":8.0,"id":1460569470,"population":13959},"coordinates":[1435,2706]},{"type":"Point","properties":{"admin_level":"8","kind":"locality","name":"Punta Umbr\u00eda","kind_detail":"town","source":"openstreetmap.org","min_zoom":8.0,"id":1470838795,"population":13594},"coordinates":[190,2139]},{"type":"Point","properties":{"admin_level":"8","kind":"locality","name":"Pilas","kind_detail":"town","source":"openstreetmap.org","min_zoom":8.0,"id":1460569473,"population":13509},"coordinates":[2122,2571]},{"type":"Point","properties":{"admin_level":"8","kind":"locality","name":"Espartinas","kind_detail":"town","source":"openstreetmap.org","min_zoom":8.0,"id":1470838276,"population":13166},"coordinates":[2638,2864]},{"type":"Point","properties":{"admin_level":"8","kind":"locality","name":"Gines","kind_detail":"town","source":"openstreetmap.org","min_zoom":8.0,"id":248515503,"population":13108},"coordinates":[2775,2887]},{"type":"Point","properties":{"admin_level":"8","kind":"locality","name":"Valverde del Camino","kind_detail":"town","source":"openstreetmap.org","min_zoom":8.0,"id":1470839531,"population":12746},"coordinates":[807,3567]},{"type":"Point","properties":{"admin_level":"8","kind":"locality","name":"Brenes","kind_detail":"town","source":"openstreetmap.org","min_zoom":8.0,"id":1470838116,"population":12580},"coordinates":[3375,3478]},{"type":"Point","properties":{"source":"openstreetmap.org","kind":"locality","name":"Guillena","kind_detail":"town","population":12506,"min_zoom":8.0,"id":1404596692},"coordinates":[2838,3467]},{"type":"Point","properties":{"admin_level":"8","kind":"locality","name":"Villamart\u00edn","kind_detail":"town","source":"openstreetmap.org","min_zoom":8.0,"id":1470839549,"population":12415},"coordinates":[4042,955]},{"type":"Point","properties":{"admin_level":"8","kind":"locality","name":"La Puebla del R\u00edo","kind_detail":"town","source":"openstreetmap.org","min_zoom":8.0,"id":1470838448,"population":12210},"coordinates":[2821,2456]},{"type":"Point","properties":{"admin_level":"8","kind":"locality","name":"Gibrale\u00f3n","kind_detail":"town","source":"openstreetmap.org","min_zoom":8.0,"id":1470838300,"population":11722},"coordinates":[177,2840]},{"type":"Point","properties":{"admin_level":"8","kind":"locality","name":"Sanl\u00facar la Mayor","kind_detail":"town","source":"openstreetmap.org","min_zoom":8.0,"id":1470839117,"population":11601},"coordinates":[2414,2882]},{"type":"Point","properties":{"admin_level":"8","kind":"locality","name":"La Palma del Condado","kind_detail":"town","source":"openstreetmap.org","min_zoom":8.0,"id":1470838445,"population":10475},"coordinates":[1397,2874]},{"type":"Point","properties":{"admin_level":"8","kind":"locality","name":"Aljaraque","kind_detail":"town","source":"openstreetmap.org","min_zoom":8.0,"id":1470837817,"population":10446},"coordinates":[19,2444]},{"type":"Point","properties":{"admin_level":"8","kind":"locality","name":"Bollullos de la Mitaci\u00f3n","kind_detail":"town","source":"openstreetmap.org","min_zoom":8.0,"id":248480008,"population":10330},"coordinates":[2603,2712]},{"type":"Point","properties":{"admin_level":"8","kind":"locality","name":"Cantillana","kind_detail":"town","source":"openstreetmap.org","min_zoom":8.0,"id":1470838181,"population":10218},"coordinates":[3515,3695]},{"type":"Point","properties":{"admin_level":"8","kind":"locality","name":"Palos de la Frontera","kind_detail":"town","source":"openstreetmap.org","min_zoom":8.0,"name:ru":"\u041f\u0430\u043b\u043e\u0441-\u0434\u0435-\u043b\u0430-\u0424\u0440\u043e\u043d\u0442\u0435\u0440\u0430","id":538161751,"population":10196},"coordinates":[402,2302]},{"type":"Point","properties":{"admin_level":"8","kind":"locality","name":"Alcal\u00e1 del R\u00edo","kind_detail":"town","source":"openstreetmap.org","min_zoom":8.0,"id":1470837696,"population":8944},"coordinates":[3062,3363]},{"type":"Point","properties":{"admin_level":"8","kind":"locality","name":"La Rinconada","kind_detail":"town","source":"openstreetmap.org","min_zoom":8.0,"id":1470838450,"population":8923},"coordinates":[3058,3249]},{"type":"Point","properties":{"source":"openstreetmap.org","kind":"locality","name":"El Cuervo de Sevilla","kind_detail":"town","population":8694,"min_zoom":8.0,"id":3921234592},"coordinates":[2888,938]},{"type":"Point","properties":{"admin_level":"8","kind":"locality","name":"Nerva","kind_detail":"town","source":"openstreetmap.org","min_zoom":8.0,"id":884213608,"population":5945},"coordinates":[1405,4012]}]},"transit":{"type":"GeometryCollection","geometries":[{"type":"MultiLineString","properties":{"kind":"train","name":"Sevilla-Huelva","sort_rank":275,"source":"openstreetmap.org","min_zoom":6.0,"operator":"RENFE","ref":"L\u00ednea 72","osm_relation":true,"network":"RENFE Media Distancia"},"arcs":[[2],[3],[4],[5],[6],[7],[8],[9],[10],[11],[12],[13],[14],[15],[16],[17],[18],[19],[20],[21],[22],[23],[24],[25],[26],[27],[28],[29],[30],[31],[32],[33],[34],[35]]},{"type":"LineString","properties":{"kind":"train","network":"RENFE Alvia","sort_rank":275,"source":"openstreetmap.org","min_zoom":6.0,"operator":"RENFE","id":-2424297,"osm_relation":true,"name":"Alvia Madrid-Puerta de Atocha a Huelva"},"arcs":[36]},{"type":"MultiLineString","properties":{"kind":"train","name":"Linea convencional Madrid - Sevilla","sort_rank":275,"source":"openstreetmap.org","min_zoom":6.0,"operator":"RENFE","ref":"L\u00ednea 77","osm_relation":true,"network":"RENFE Media Distancia"},"arcs":[[37],[38],[39],[40]]},{"type":"MultiLineString","properties":{"source":"openstreetmap.org","kind":"train","name":"Malaga - Sevilla","sort_rank":275,"ref":"IR","min_zoom":6.0,"osm_relation":true},"arcs":[[41],[42]]},{"type":"MultiLineString","properties":{"source":"openstreetmap.org","kind":"train","name":"Cadiz - Sevilla","sort_rank":275,"ref":"IR","min_zoom":6.0,"osm_relation":true},"arcs":[[43],[44],[45]]},{"type":"LineString","properties":{"kind":"subway","network":"Metro de Sevilla","sort_rank":275,"source":"openstreetmap.org","min_zoom":8.0,"operator":"Metro de Sevilla","ref":"L1","id":-255088,"osm_relation":true,"name":"L\u00ednea 1: Ciudad Expo \u2192 Olivar de Quintos"},"arcs":[46]},{"type":"LineString","properties":{"source":"openstreetmap.org","kind":"train","name":"Merida - Sevilla","sort_rank":275,"ref":"R","min_zoom":6.0,"osm_relation":true},"arcs":[47]},{"type":"LineString","properties":{"kind":"subway","network":"Metro de Sevilla","sort_rank":275,"source":"openstreetmap.org","min_zoom":8.0,"operator":"Metro de Sevilla","ref":"L1","id":-7781388,"osm_relation":true,"name":"L\u00ednea 1: Olivar de Quintos \u2192 Ciudad Expo"},"arcs":[48]},{"type":"LineString","properties":{"kind":"train","name":"Huelva-Zafra","sort_rank":275,"source":"openstreetmap.org","min_zoom":6.0,"operator":"RENFE","ref":"L\u00ednea 73","osm_relation":true,"network":"RENFE\/Adif"},"arcs":[49]}]},"pois":{"type":"GeometryCollection","geometries":[{"type":"Point","properties":{"kind":"military","name:en":"Naval Station Rota","name":"Base naval de Rota","area":39662600,"name:de":"Marinebasis Rota","source":"openstreetmap.org","min_zoom":8.0,"tier":3,"id":39736545},"coordinates":[2024,137]},{"type":"Point","properties":{"kind":"nature_reserve","protect_class":"2","area":944526000,"source":"openstreetmap.org","min_zoom":7.35,"tier":2,"id":39813332,"name":"Parque Nacional de Do\u00f1ana"},"coordinates":[1779,1337]},{"type":"Point","properties":{"kind":"nature_reserve","protect_class":"5","area":505127000,"name:ar":"\u0628\u0627\u0631\u0643 \u062f\u0646\u0627\u0646\u0629 \u0627\u0644\u0648\u0637\u0646\u064a\u0629","source":"openstreetmap.org","min_zoom":7.8,"tier":2,"id":374504425,"name":"Parque Natural Do\u00f1ana"},"coordinates":[1038,1938]}]},"boundaries":{"type":"GeometryCollection","geometries":[{"type":"LineString","properties":{"name:kg":"Espania","name:ty":"Paniora","name:ka":"\u10d4\u10e1\u10de\u10d0\u10dc\u10d4\u10d7\u10d8","name:ko":"\uc2a4\ud398\uc778","name:cv":"\u0418\u0441\u043f\u0430\u043d\u0438","name:cu":"\u0407\u0441\u043f\u0430\u043d\u0457\ua657","name:kl":"Spania","name:cs":"\u0160pan\u011blsko","name:tt":"\u0418\u0441\u043f\u0430\u043d\u0438\u044f","name:co":"Spagna","name:kv":"\u0418\u0441\u043f\u0430\u043d\u0438\u044f","name:ku":"Spanya","name:to":"Sepeni","name:tl":"Espanya","name:ce":"\u0418\u0441\u043f\u0430\u043d\u0438","name:ta":"\u0b8e\u0b9a\u0bc1\u0baa\u0bcd\u0baa\u0bbe\u0ba9\u0bbf\u0baf\u0bbe","name:tg":"\u0418\u0441\u043f\u043e\u043d\u0438\u0451","name:ca":"Espanya","name:te":"\u0c38\u0c4d\u0c2a\u0c46\u0c2f\u0c3f\u0c28\u0c4d","name:cy":"Sbaen","name:qu":"Ispa\u00f1a","name:da":"Spanien","name:de":"Spanien","name:dz":"\u0f66\u0f72\u0f54\u0f71\u0f7a\u0f53\u0f0b","source":"openstreetmap.org","name:kn":"\u0cb8\u0ccd\u0caa\u0cc7\u0ca8\u0ccd","name:dv":"\u0787\u07a8\u0790\u07b0\u0795\u07ac\u0787\u07a8\u0782\u07b0","name:km":"\u17a2\u17c1\u179f\u17d2\u1794\u17c9\u17b6\u1789","name:lv":"Sp\u0101nija","name:lt":"Ispanija","name:uz":"Ispaniya","name:kk":"\u0418\u0441\u043f\u0430\u043d\u0438\u044f","name:ur":"\u06c1\u0633\u067e\u0627\u0646\u06cc\u06c1","name:lb":"Spuenien","name:la":"Hispania","name:uk":"\u0406\u0441\u043f\u0430\u043d\u0456\u044f","name:ug":"Ispaniye","name:li":"Spanje","name:ln":"Espania","name:el":"\u0399\u03c3\u03c0\u03b1\u03bd\u03af\u03b1","name:eo":"Hispanujo","name:en":"Spain","name":"Espa\u00f1a","name:tk":"Ispani\u00fda","name:ee":"Spain","name:th":"\u0e1b\u0e23\u0e30\u0e40\u0e17\u0e28\u0e2a\u0e40\u0e1b\u0e19","name:eu":"Espainia","name:et":"Hispaania","name:ay":"Ispa\u00f1a","name:rm":"Spagna","name:rn":"Esipanye","name:az":"\u0130spaniya","name:ie":"Hispania","name:id":"Spanyol","name:ig":"Spain","name:ik":"Spa\u00f1a","name:ar":"\u0625\u0633\u0628\u0627\u0646\u064a\u0627","name:io":"Hispania","name:is":"Sp\u00e1nn","name:am":"\u12a5\u1235\u1353\u1295\u12eb","name:it":"Spagna","name:an":"Espanya","name:ru":"\u0418\u0441\u043f\u0430\u043d\u0438\u044f","name:rw":"Esipanye","name:af":"Spanje","name:zu":"ISpeyini","kind_detail":"2","name:za":"Sihbanhyaz","name:zh-yue":"\u897f\u73ed\u7259","name:zh":"\u897f\u73ed\u7259","name:so":"Isbania","name:sm":"Spania","name:sl":"\u0160panija","name:sk":"\u0160panielsko","name:ja":"\u30b9\u30da\u30a4\u30f3","name:sh":"\u0160panija","name:se":"Sp\u00e1nia","name:sc":"Ispagna","name:br":"Spagn","name:bs":"\u0160panija","name:bn":"\u09b8\u09cd\u09aa\u09c7\u09a8","name:bo":"\u0f5e\u0f72\u0f0b\u0f54\u0f53\u0f0b\u0f61\u0f0d","name:bi":"Spain","name:sw":"Hispania","name:be":"\u0406\u0441\u043f\u0430\u043d\u0456\u044f","name:su":"Spanyol","name:bg":"\u0418\u0441\u043f\u0430\u043d\u0438\u044f","name:ss":"Sipeyini","name:ba":"\u0418\u0441\u043f\u0430\u043d\u0438\u044f","name:sq":"Spanja","name:jv":"Spanyol","name:sa":"\u0938\u094d\u092a\u0947\u0928\u094d","name:ia":"Espania","name:pt":"Espanha","name:ps":"\u0627\u0633\u067e\u0627\u0646\u06cc\u0627","name:oc":"Espanha","min_zoom":8.0,"name:ro":"Spania","name:zh-min-nan":"Se-pan-g\u00e2","name:os":"\u0418\u0441\u043f\u0430\u043d\u0438","name:or":"\u0b38\u0b4d\u0b2a\u0b47\u0b28","name:pl":"Hiszpania","name:st":"Spain","sort_rank":262,"name:sr":"\u0428\u043f\u0430\u043d\u0438\u0458\u0430","osm_relation":true,"name:pa":"\u0a38\u0a2a\u0a47\u0a28","name:tr":"\u0130spanya","name:hi":"\u0938\u094d\u092a\u0947\u0928","name:sv":"Spanien","name:he":"\u05e1\u05e4\u05e8\u05d3","name:hy":"\u053b\u057d\u057a\u0561\u0576\u056b\u0561","name:ht":"Espay","name:hu":"Spanyolorsz\u00e1g","name:hr":"\u0160panjolska","kind":"country","name:ts":"Spaniya","name:yi":"\u05e9\u05e4\u05d0\u05e0\u05d9\u05e2","name:iu":"\u14ef\u1438\u1403\u14d0","name:yo":"Sp\u00e9\u00ecn","name:mt":"Spanja","alt_name:eo":"Hispanio","name:ms":"Sepanyol","name:mr":"\u0938\u094d\u092a\u0947\u0928","name:my":"\u1005\u1015\u102d\u1014\u103a\u1014\u102d\u102f\u1004\u103a\u1004\u1036","official_name":"Reino de Espa\u00f1a","name:kw":"Spayn","name:mg":"Espaina","name:vi":"T\u00e2y Ban Nha","name:ml":"\u0d38\u0d4d\u0d2a\u0d46\u0d2f\u0d3f\u0d7b","name:mn":"\u0418\u0441\u043f\u0430\u043d\u0438","name:mi":"P\u0101niora","id":-1311341,"name:mk":"\u0428\u043f\u0430\u043d\u0438\u0458\u0430","name:vo":"Spany\u00e4n","name:fa":"\u0627\u0633\u067e\u0627\u0646\u06cc\u0627","name:fi":"Espanja","name:ky":"\u0418\u0441\u043f\u0430\u043d\u0438\u044f","name:fo":"Spania","name:fr":"Espagne","name:fy":"Spanje","int_name":"Spain","name:nl":"Spanje","name:nn":"Spania","name:no":"Spania","name:na":"Pain","name:ne":"\u0938\u094d\u092a\u0947\u0928","name:wa":"Espagne","name:wo":"Ispaa\u00f1","name:nv":"Dib\u00e9 Din\u00ed\u00ed Bik\u00e9yah","name:ga":"An Sp\u00e1inn","name:gd":"An Sp\u00e0inn","maritime_boundary":true,"name:gv":"Yn Spaainey","name:gu":"\u0ab8\u0acd\u0aaa\u0ac7\u0aa8"},"arcs":[0]},{"type":"LineString","properties":{"name:pt":"Andaluzia","name:nl":"Andalusi\u00eb","name:lt":"Andal\u016bzija","name:ar":"\u0623\u0646\u062f\u0644\u0648\u0633\u064a\u0627","name:cs":"Andalusie","min_zoom":8.0,"name:ru":"\u0410\u043d\u0434\u0430\u043b\u0443\u0441\u0438\u044f","name:sv":"Andalusien","name:pl":"Andaluzja","name:hr":"Andaluzija","id":-349044,"name:ca":"Andalusia","kind":"region","name:en":"Andalusia","name":"Andaluc\u00eda","sort_rank":256,"kind_detail":"4","name:fr":"Andalousie","name:de":"Andalusien","source":"openstreetmap.org","maritime_boundary":true,"osm_relation":true,"name:fi":"Andalucia","name:eu":"Andaluzia","name:be":"\u0410\u043d\u0434\u0430\u043b\u0443\u0441\u0456\u044f"},"arcs":[1]}]},"roads":{"type":"GeometryCollection","geometries":[{"type":"LineString","properties":{"source":"openstreetmap.org","bus_network":null,"bus_shield_text":"8","sort_rank":380,"kind_detail":"primary","min_zoom":8.0,"kind":"major_road"},"arcs":[52]},{"type":"MultiLineString","properties":{"kind":"major_road","sort_rank":381,"kind_detail":"trunk","source":"openstreetmap.org","min_zoom":8.0,"landuse_kind":"residential","loc_name":"Ronda Supernorte","ref":"SE-20"},"arcs":[[53],[54],[55],[56]]},{"type":"MultiLineString","properties":{"source":"openstreetmap.org","kind":"major_road","sort_rank":381,"kind_detail":"trunk","ref":"N-4A","min_zoom":8.0},"arcs":[[57],[58],[59],[60],[61],[62],[63],[64],[65],[66],[67],[68],[69],[70],[71],[72],[73],[74],[75],[76],[77],[78],[79],[80],[81],[82],[83]]},{"type":"MultiLineString","properties":{"source":"openstreetmap.org","kind":"major_road","kind_detail":"trunk","sort_rank":381,"landuse_kind":"urban_area","ref":"H-30","min_zoom":8.0},"arcs":[[84],[85],[86],[87],[88],[89]]},{"type":"LineString","properties":{"kind":"highway","network":"e-road","sort_rank":383,"landuse_kind":"urban_area","source":"openstreetmap.org","min_zoom":8.0,"all_networks":["e-road"],"kind_detail":"motorway","shield_text":"01","ref":"A-49","all_shield_texts":["01"]},"arcs":[90]},{"type":"MultiLineString","properties":{"source":"openstreetmap.org","kind":"major_road","sort_rank":381,"kind_detail":"trunk","ref":"A-4R","min_zoom":8.0},"arcs":[[91],[92],[93],[94],[95],[96],[97],[98],[99]]},{"type":"MultiLineString","properties":{"bus_network":null,"sort_rank":380,"kind_detail":"primary","kind":"major_road","source":"openstreetmap.org","min_zoom":8.0,"bus_shield_text":"M-153","landuse_kind":"residential"},"arcs":[[100],[101],[102],[103],[104],[105],[106],[107],[108],[109],[110]]},{"type":"LineString","properties":{"kind":"minor_road","sort_rank":360,"kind_detail":"residential","is_bicycle_related":true,"bicycle_shield_text":null,"bicycle_network":"ncn","source":"openstreetmap.org","min_zoom":8.0},"arcs":[111]},{"type":"MultiLineString","properties":{"bus_network":null,"sort_rank":380,"kind_detail":"primary","kind":"major_road","source":"openstreetmap.org","min_zoom":8.0,"bus_shield_text":"32","landuse_kind":"residential"},"arcs":[[112],[113],[114],[115],[116],[117],[118],[119],[120],[121]]},{"type":"MultiLineString","properties":{"bus_network":null,"sort_rank":380,"kind_detail":"primary","kind":"major_road","source":"openstreetmap.org","min_zoom":8.0,"bus_shield_text":"EA","landuse_kind":"residential"},"arcs":[[122],[123],[124],[125],[126],[127],[128],[129]]},{"type":"MultiLineString","properties":{"kind":"highway","network":"ES:A-road","sort_rank":383,"landuse_kind":"urban_area","source":"openstreetmap.org","min_zoom":8.0,"all_networks":["ES:A-road"],"kind_detail":"motorway","shield_text":"4","ref":"A-4","all_shield_texts":["4"]},"arcs":[[130],[131],[132],[133]]},{"type":"MultiLineString","properties":{"kind":"highway","network":"e-road","sort_rank":383,"landuse_kind":"urban_area","source":"openstreetmap.org","min_zoom":8.0,"all_networks":["e-road"],"kind_detail":"motorway","shield_text":"05","ref":"SE-30; A-4","all_shield_texts":["05"]},"arcs":[[134],[135],[136]]},{"type":"MultiLineString","properties":{"kind":"highway","network":"e-road","sort_rank":383,"landuse_kind":"urban_area","source":"openstreetmap.org","min_zoom":8.0,"all_networks":["e-road","ES:A-road"],"kind_detail":"motorway","shield_text":"05","ref":"A-4","all_shield_texts":["05","4"]},"arcs":[[137],[138],[139],[140]]},{"type":"MultiLineString","properties":{"source":"openstreetmap.org","kind":"major_road","landuse_kind":"residential","sort_rank":381,"kind_detail":"trunk","ref":"N-630","min_zoom":8.0},"arcs":[[141],[142],[143],[144],[145],[146],[147],[148]]},{"type":"MultiLineString","properties":{"source":"openstreetmap.org","kind":"highway","landuse_kind":"urban_area","sort_rank":383,"kind_detail":"motorway","ref":"A-8058","min_zoom":8.0},"arcs":[[149],[150],[151]]},{"type":"LineString","properties":{"bus_network":null,"sort_rank":380,"kind_detail":"primary","kind":"major_road","source":"openstreetmap.org","min_zoom":8.0,"bus_shield_text":"5","landuse_kind":"urban_area"},"arcs":[152]},{"type":"MultiLineString","properties":{"source":"openstreetmap.org","kind":"major_road","landuse_kind":"residential","sort_rank":381,"kind_detail":"trunk","ref":"A-92","min_zoom":8.0},"arcs":[[153],[154]]},{"type":"LineString","properties":{"source":"openstreetmap.org","kind":"highway","sort_rank":383,"kind_detail":"motorway","ref":"SE-30; A-66","min_zoom":8.0,"id":19784100},"arcs":[155]},{"type":"MultiLineString","properties":{"bus_network":null,"sort_rank":380,"kind_detail":"primary","kind":"major_road","source":"openstreetmap.org","min_zoom":8.0,"bus_shield_text":"10","landuse_kind":"residential"},"arcs":[[156],[157],[158]]},{"type":"LineString","properties":{"source":"openstreetmap.org","kind":"ferry","name":"C\u00e1diz-Rota","sort_rank":355,"min_zoom":8.0,"id":90965739},"arcs":[159]},{"type":"MultiLineString","properties":{"bus_network":null,"sort_rank":380,"kind_detail":"primary","kind":"major_road","source":"openstreetmap.org","min_zoom":8.0,"bus_shield_text":"C6","landuse_kind":"residential"},"arcs":[[160],[161]]},{"type":"MultiLineString","properties":{"bus_network":null,"sort_rank":380,"kind_detail":"primary","kind":"major_road","source":"openstreetmap.org","min_zoom":8.0,"bus_shield_text":"39","landuse_kind":"residential"},"arcs":[[162],[163],[164],[165],[166],[167],[168]]},{"type":"MultiLineString","properties":{"sort_rank":380,"kind_detail":"primary","min_zoom":8.0,"kind":"major_road","source":"openstreetmap.org"},"arcs":[[169],[170],[171],[172],[173],[174],[175],[176],[177],[178],[179],[180],[181],[182],[183],[184],[185],[186],[187],[188],[189],[190],[191],[192],[193],[194],[195],[196],[197],[198],[199],[200],[201],[202],[203],[204],[205],[206],[207],[208]]},{"type":"LineString","properties":{"kind":"major_road","sort_rank":380,"kind_detail":"primary","is_bicycle_related":true,"bicycle_shield_text":null,"bicycle_network":"rcn","source":"openstreetmap.org","min_zoom":8.0,"ref":"A-496"},"arcs":[209]},{"type":"LineString","properties":{"kind":"major_road","sort_rank":380,"kind_detail":"primary","bus_network":null,"source":"openstreetmap.org","min_zoom":8.0,"bus_shield_text":"28","landuse_kind":"residential","ref":"A-8008","id":37590215},"arcs":[210]},{"type":"MultiLineString","properties":{"bus_network":null,"sort_rank":381,"kind_detail":"trunk","kind":"major_road","source":"openstreetmap.org","min_zoom":8.0,"bus_shield_text":"Chipiona-Sevilla","ref":"N-4"},"arcs":[[211],[212],[213],[214],[215],[216],[217],[218],[219]]},{"type":"LineString","properties":{"source":"openstreetmap.org","kind":"major_road","old_name":"Avenida de Erita\u00f1a","sort_rank":380,"kind_detail":"primary","landuse_kind":"residential","min_zoom":8.0},"arcs":[220]},{"type":"MultiLineString","properties":{"kind":"highway","network":"ES:A-road","sort_rank":383,"kind_detail":"motorway","source":"openstreetmap.org","min_zoom":8.0,"all_networks":["ES:A-road"],"landuse_kind":"park","shield_text":"4","ref":"A-4","all_shield_texts":["4"]},"arcs":[[221],[222]]},{"type":"MultiLineString","properties":{"kind":"highway","network":"e-road","sort_rank":383,"landuse_kind":"urban_area","source":"openstreetmap.org","min_zoom":8.0,"all_networks":["e-road","ES:A-road"],"kind_detail":"motorway","shield_text":"01","ref":"A-49","all_shield_texts":["01","49"]},"arcs":[[223],[224]]},{"type":"MultiLineString","properties":{"kind":"highway","network":"e-road","sort_rank":383,"kind_detail":"motorway","source":"openstreetmap.org","min_zoom":8.0,"all_networks":["e-road","ES:A-road"],"shield_text":"01","ref":"A-49","all_shield_texts":["01","49"]},"arcs":[[225],[226],[227],[228],[229],[230],[231],[232],[233],[234]]},{"type":"MultiLineString","properties":{"bus_network":null,"sort_rank":380,"kind_detail":"primary","kind":"major_road","source":"openstreetmap.org","min_zoom":8.0,"bus_shield_text":"Chipiona-Sevilla","landuse_kind":"urban_area"},"arcs":[[235],[236],[237],[238],[239],[240],[241],[242],[243],[244],[245],[246],[247],[248],[249],[250],[251]]},{"type":"MultiLineString","properties":{"bus_network":null,"sort_rank":380,"kind_detail":"primary","kind":"major_road","source":"openstreetmap.org","min_zoom":8.0,"bus_shield_text":"1","landuse_kind":"residential"},"arcs":[[252],[253],[254],[255],[256],[257],[258],[259],[260],[261]]},{"type":"LineString","properties":{"source":"openstreetmap.org","kind":"highway","sort_rank":383,"kind_detail":"motorway","ref":"AP-4","min_zoom":8.0},"arcs":[262]},{"type":"MultiLineString","properties":{"bus_network":null,"sort_rank":380,"kind_detail":"primary","kind":"major_road","source":"openstreetmap.org","min_zoom":8.0,"bus_shield_text":"C1","landuse_kind":"residential"},"arcs":[[263],[264],[265]]},{"type":"LineString","properties":{"kind":"path","sort_rank":354,"kind_detail":"cycleway","is_bicycle_related":true,"bicycle_shield_text":null,"bicycle_network":"ncn","source":"openstreetmap.org","min_zoom":8.0},"arcs":[266]},{"type":"LineString","properties":{"source":"openstreetmap.org","kind":"major_road","sort_rank":381,"kind_detail":"trunk","ref":"N-433","min_zoom":8.0},"arcs":[267]},{"type":"LineString","properties":{"kind":"major_road","sort_rank":381,"kind_detail":"trunk","bus_network":null,"source":"openstreetmap.org","min_zoom":8.0,"bus_shield_text":"53","landuse_kind":"residential","ref":"A-92","id":26652532},"arcs":[268]},{"type":"MultiLineString","properties":{"source":"openstreetmap.org","kind":"highway","sort_rank":383,"kind_detail":"motorway","ref":"A-491","min_zoom":8.0},"arcs":[[269],[270],[271],[272]]},{"type":"LineString","properties":{"bus_network":null,"sort_rank":380,"kind_detail":"primary","kind":"major_road","source":"openstreetmap.org","min_zoom":8.0,"bus_shield_text":"Cortegana - Sevilla","landuse_kind":"urban_area"},"arcs":[273]},{"type":"MultiLineString","properties":{"kind":"path","sort_rank":354,"kind_detail":"path","is_bicycle_related":true,"bicycle_shield_text":null,"bicycle_network":"ncn","source":"openstreetmap.org","min_zoom":8.0},"arcs":[[274],[275],[276]]},{"type":"MultiLineString","properties":{"bus_network":null,"sort_rank":380,"kind_detail":"primary","kind":"major_road","source":"openstreetmap.org","min_zoom":8.0,"bus_shield_text":"41","landuse_kind":"residential"},"arcs":[[277],[278],[279],[280],[281],[282],[283],[284],[285]]},{"type":"MultiLineString","properties":{"source":"openstreetmap.org","kind":"highway","sort_rank":383,"kind_detail":"motorway","ref":"SE-40","min_zoom":8.0},"arcs":[[286],[287],[288],[289]]},{"type":"MultiLineString","properties":{"kind":"highway","network":"e-road","sort_rank":383,"landuse_kind":"urban_area","source":"openstreetmap.org","min_zoom":8.0,"all_networks":["e-road","ES:A-road"],"kind_detail":"motorway","shield_text":"05","ref":"AP-4","all_shield_texts":["05","4"]},"arcs":[[290],[291]]},{"type":"MultiLineString","properties":{"kind":"highway","network":null,"sort_rank":383,"kind_detail":"motorway","source":"openstreetmap.org","min_zoom":8.0,"all_networks":[null],"shield_text":"480","ref":"A-480","all_shield_texts":["480"]},"arcs":[[292],[293]]},{"type":"MultiLineString","properties":{"source":"openstreetmap.org","kind":"major_road","landuse_kind":"urban_area","sort_rank":380,"kind_detail":"primary","ref":"A-4R","min_zoom":8.0},"arcs":[[294],[295],[296]]},{"type":"MultiLineString","properties":{"bus_network":null,"sort_rank":380,"kind_detail":"primary","kind":"major_road","source":"openstreetmap.org","min_zoom":8.0,"bus_shield_text":"L5","landuse_kind":"urban_area"},"arcs":[[297],[298],[299],[300],[301],[302],[303],[304],[305]]},{"type":"LineString","properties":{"source":"openstreetmap.org","kind":"ferry","name":"Santa Cruz (Tenerife) - Huelva","sort_rank":355,"name:ar":"\u0633\u0627\u0646\u062a\u0627 \u0643\u0631\u0648\u0632 (\u062a\u064a\u0646\u064a\u0631\u064a\u0641\u064a) - \u0647\u0648\u064a\u0644\u0641\u0627","min_zoom":8.0},"arcs":[306]},{"type":"MultiLineString","properties":{"bus_network":null,"sort_rank":380,"kind_detail":"primary","kind":"major_road","source":"openstreetmap.org","min_zoom":8.0,"bus_shield_text":"L2","landuse_kind":"residential"},"arcs":[[307],[308],[309],[310],[311],[312],[313],[314],[315],[316],[317],[318],[319],[320],[321]]},{"type":"MultiLineString","properties":{"bus_network":null,"sort_rank":380,"kind_detail":"primary","kind":"major_road","source":"openstreetmap.org","min_zoom":8.0,"bus_shield_text":"16","landuse_kind":"residential"},"arcs":[[322],[323]]},{"type":"MultiLineString","properties":{"bus_network":"Coripe - Utrera - Sevilla","sort_rank":380,"kind_detail":"primary","kind":"major_road","source":"openstreetmap.org","min_zoom":8.0,"bus_shield_text":"Coripe - Utrera - Sevilla","ref":"A-375"},"arcs":[[324],[325]]},{"type":"MultiLineString","properties":{"source":"openstreetmap.org","kind":"major_road","sort_rank":381,"kind_detail":"trunk","ref":"N-349","min_zoom":8.0},"arcs":[[326],[327],[328],[329],[330],[331]]},{"type":"MultiLineString","properties":{"source":"openstreetmap.org","kind":"major_road","sort_rank":380,"kind_detail":"primary","ref":"A-461","min_zoom":8.0},"arcs":[[332],[333],[334],[335],[336],[337],[338]]},{"type":"MultiLineString","properties":{"source":"openstreetmap.org","kind":"major_road","sort_rank":381,"kind_detail":"trunk","ref":"N-630","min_zoom":8.0},"arcs":[[339],[340],[341],[342],[343],[344],[345],[346],[347],[348],[349],[350]]},{"type":"LineString","properties":{"source":"openstreetmap.org","kind":"major_road","sort_rank":381,"kind_detail":"trunk","ref":"N-435","min_zoom":8.0},"arcs":[351]},{"type":"MultiLineString","properties":{"bus_network":null,"sort_rank":380,"kind_detail":"primary","kind":"major_road","source":"openstreetmap.org","min_zoom":8.0,"bus_shield_text":"40","landuse_kind":"residential"},"arcs":[[352],[353],[354]]},{"type":"MultiLineString","properties":{"kind":"highway","network":"e-road","sort_rank":383,"kind_detail":"motorway","source":"openstreetmap.org","min_zoom":8.0,"all_networks":["e-road","ES:A-road"],"landuse_kind":"park","shield_text":"01","ref":"A-49","all_shield_texts":["01","49"]},"arcs":[[355],[356]]},{"type":"LineString","properties":{"source":"openstreetmap.org","kind":"major_road","sort_rank":380,"kind_detail":"primary","ref":"A-384","min_zoom":8.0},"arcs":[357]},{"type":"MultiLineString","properties":{"source":"openstreetmap.org","kind":"major_road","old_name":"Avenida de la Raza","sort_rank":380,"kind_detail":"primary","landuse_kind":"residential","min_zoom":8.0},"arcs":[[358],[359],[360]]},{"type":"MultiLineString","properties":{"bus_network":"CTAS","sort_rank":381,"kind_detail":"trunk","kind":"major_road","source":"openstreetmap.org","min_zoom":8.0,"bus_shield_text":"Sevilla - Dos Hermanas (Barriada)","landuse_kind":"residential","ref":"N-4"},"arcs":[[361],[362]]},{"type":"MultiLineString","properties":{"bus_network":null,"sort_rank":380,"kind_detail":"primary","kind":"major_road","source":"openstreetmap.org","min_zoom":8.0,"bus_shield_text":"2","landuse_kind":"residential"},"arcs":[[363],[364],[365],[366],[367],[368],[369],[370],[371],[372],[373],[374],[375],[376],[377],[378],[379],[380],[381],[382],[383],[384],[385],[386],[387],[388],[389],[390],[391],[392],[393]]},{"type":"MultiLineString","properties":{"source":"openstreetmap.org","kind":"major_road","sort_rank":380,"kind_detail":"primary","ref":"A-484","min_zoom":8.0},"arcs":[[394],[395],[396],[397]]},{"type":"MultiLineString","properties":{"source":"openstreetmap.org","kind":"major_road","sort_rank":381,"kind_detail":"trunk","ref":"N-4","min_zoom":8.0},"arcs":[[398],[399],[400],[401],[402]]},{"type":"MultiLineString","properties":{"source":"openstreetmap.org","kind":"major_road","kind_detail":"trunk","sort_rank":381,"landuse_kind":"urban_area","ref":"N-630","min_zoom":8.0},"arcs":[[403],[404],[405],[406],[407],[408],[409],[410],[411],[412],[413],[414],[415],[416],[417],[418],[419],[420],[421]]},{"type":"MultiLineString","properties":{"source":"openstreetmap.org","kind":"major_road","sort_rank":381,"kind_detail":"trunk","ref":"N-339","min_zoom":8.0},"arcs":[[422],[423],[424],[425],[426]]},{"type":"MultiLineString","properties":{"source":"openstreetmap.org","kind":"major_road","sort_rank":381,"kind_detail":"trunk","ref":"N-442","min_zoom":8.0},"arcs":[[427],[428],[429],[430],[431],[432],[433],[434],[435],[436],[437],[438],[439],[440],[441]]},{"type":"MultiLineString","properties":{"source":"openstreetmap.org","kind":"major_road","sort_rank":381,"kind_detail":"trunk","ref":"N-346","min_zoom":8.0},"arcs":[[442],[443],[444],[445],[446],[447],[448],[449],[450],[451],[452],[453],[454],[455],[456],[457],[458],[459]]},{"type":"LineString","properties":{"bus_network":null,"sort_rank":380,"kind_detail":"primary","is_bicycle_related":true,"kind":"major_road","source":"openstreetmap.org","min_zoom":8.0,"bus_shield_text":"C3","landuse_kind":"residential"},"arcs":[460]},{"type":"MultiLineString","properties":{"bus_network":null,"sort_rank":380,"kind_detail":"primary","kind":"major_road","source":"openstreetmap.org","min_zoom":8.0,"bus_shield_text":"C4","landuse_kind":"residential"},"arcs":[[461],[462],[463],[464],[465],[466],[467],[468]]},{"type":"MultiLineString","properties":{"bus_network":null,"sort_rank":380,"kind_detail":"primary","kind":"major_road","source":"openstreetmap.org","min_zoom":8.0,"bus_shield_text":"M-153","landuse_kind":"urban_area"},"arcs":[[469],[470]]},{"type":"MultiLineString","properties":{"bus_network":null,"sort_rank":380,"kind_detail":"primary","kind":"major_road","source":"openstreetmap.org","min_zoom":8.0,"bus_shield_text":"Cortegana - Sevilla","landuse_kind":"residential"},"arcs":[[471],[472]]},{"type":"MultiLineString","properties":{"bus_network":null,"sort_rank":380,"kind_detail":"primary","kind":"major_road","source":"openstreetmap.org","min_zoom":8.0,"bus_shield_text":"12","landuse_kind":"residential"},"arcs":[[473],[474],[475]]},{"type":"MultiLineString","properties":{"source":"openstreetmap.org","kind":"highway","landuse_kind":"urban_area","sort_rank":383,"kind_detail":"motorway","ref":"H-30","min_zoom":8.0},"arcs":[[476],[477],[478],[479],[480],[481],[482]]},{"type":"MultiLineString","properties":{"source":"openstreetmap.org","kind":"major_road","sort_rank":380,"kind_detail":"primary","ref":"A-394","min_zoom":8.0},"arcs":[[483],[484],[485],[486],[487],[488],[489],[490],[491],[492],[493],[494],[495],[496],[497],[498],[499],[500],[501],[502],[503],[504],[505],[506],[507],[508],[509],[510],[511],[512],[513],[514],[515],[516],[517]]},{"type":"MultiLineString","properties":{"source":"openstreetmap.org","bus_network":null,"bus_shield_text":"L5","sort_rank":380,"kind_detail":"primary","min_zoom":8.0,"kind":"major_road"},"arcs":[[518],[519],[520],[521],[522],[523],[524],[525],[526],[527],[528]]},{"type":"MultiLineString","properties":{"kind":"highway","network":"e-road","sort_rank":383,"landuse_kind":"urban_area","source":"openstreetmap.org","min_zoom":8.0,"all_networks":["e-road","ES:A-road"],"kind_detail":"motorway","shield_text":"803","ref":"A-66","all_shield_texts":["803","66"]},"arcs":[[529],[530]]},{"type":"LineString","properties":{"bus_network":null,"sort_rank":380,"kind_detail":"primary","kind":"major_road","source":"openstreetmap.org","min_zoom":8.0,"bus_shield_text":"M-163","landuse_kind":"urban_area"},"arcs":[531]},{"type":"LineString","properties":{"kind":"highway","network":null,"sort_rank":383,"kind_detail":"motorway","source":"openstreetmap.org","min_zoom":8.0,"all_networks":[null],"shield_text":"381","ref":"A-381","all_shield_texts":["381"]},"arcs":[532]},{"type":"MultiLineString","properties":{"bus_network":"Utrera - Sevilla","sort_rank":380,"kind_detail":"primary","kind":"major_road","source":"openstreetmap.org","min_zoom":8.0,"bus_shield_text":"Utrera - Sevilla","ref":"A-376"},"arcs":[[533],[534],[535],[536],[537],[538],[539]]},{"type":"LineString","properties":{"bus_network":null,"network":"e-road","sort_rank":381,"landuse_kind":"urban_area","kind":"major_road","source":"openstreetmap.org","min_zoom":8.0,"bus_shield_text":"Cortegana - Sevilla","shield_text":"01","kind_detail":"trunk","ref":"N-630"},"arcs":[540]},{"type":"LineString","properties":{"kind":"major_road","sort_rank":380,"kind_detail":"primary","source":"openstreetmap.org","min_zoom":8.0,"old_name":"Ruta de la Plata","landuse_kind":"urban_area","id":31486355},"arcs":[541]},{"type":"MultiLineString","properties":{"kind":"highway","network":"ES:A-road","sort_rank":383,"kind_detail":"motorway","source":"openstreetmap.org","min_zoom":8.0,"all_networks":["ES:A-road"],"shield_text":"4","ref":"A-4","all_shield_texts":["4"]},"arcs":[[542],[543],[544],[545],[546],[547],[548],[549]]},{"type":"LineString","properties":{"kind":"highway","network":"e-road","sort_rank":383,"kind_detail":"motorway","source":"openstreetmap.org","min_zoom":8.0,"all_networks":["e-road","ES:A-road"],"old_name":"Autopista del V Centenario","shield_text":"01","landuse_kind":"urban_area","ref":"A-49","id":118583827,"all_shield_texts":["01","49"]},"arcs":[550]},{"type":"MultiLineString","properties":{"bus_network":null,"sort_rank":380,"kind_detail":"primary","kind":"major_road","source":"openstreetmap.org","min_zoom":8.0,"bus_shield_text":"39","landuse_kind":"urban_area"},"arcs":[[551],[552]]},{"type":"LineString","properties":{"kind":"path","sort_rank":354,"kind_detail":"footway","is_bicycle_related":true,"bicycle_shield_text":null,"bicycle_network":"ncn","source":"openstreetmap.org","min_zoom":8.0,"id":495293905},"arcs":[553]},{"type":"LineString","properties":{"bus_network":null,"network":"e-road","sort_rank":381,"landuse_kind":"urban_area","kind":"major_road","source":"openstreetmap.org","min_zoom":8.0,"bus_shield_text":"M-163","shield_text":"01","kind_detail":"trunk","ref":"N-630"},"arcs":[554]},{"type":"LineString","properties":{"kind":"major_road","sort_rank":380,"kind_detail":"primary","bus_network":null,"source":"openstreetmap.org","min_zoom":8.0,"bus_shield_text":"L3","landuse_kind":"urban_area","id":40533465},"arcs":[555]},{"type":"MultiLineString","properties":{"bus_network":null,"sort_rank":380,"kind_detail":"primary","kind":"major_road","source":"openstreetmap.org","min_zoom":8.0,"bus_shield_text":"L1","landuse_kind":"residential"},"arcs":[[556],[557]]},{"type":"LineString","properties":{"kind":"major_road","sort_rank":381,"kind_detail":"trunk","bus_network":"Utrera - Sevilla","source":"openstreetmap.org","min_zoom":8.0,"bus_shield_text":"Utrera - Sevilla","landuse_kind":"urban_area","ref":"A-376","id":317793721},"arcs":[558]},{"type":"MultiLineString","properties":{"source":"openstreetmap.org","kind":"highway","sort_rank":383,"kind_detail":"motorway","ref":"H-31","min_zoom":8.0},"arcs":[[559],[560],[561],[562]]},{"type":"MultiLineString","properties":{"bus_network":null,"sort_rank":381,"kind_detail":"trunk","kind":"major_road","source":"openstreetmap.org","min_zoom":8.0,"bus_shield_text":"Cortegana - Sevilla","ref":"N-630"},"arcs":[[563],[564],[565],[566],[567],[568],[569],[570],[571]]},{"type":"MultiLineString","properties":{"bus_network":"Coripe - Utrera - Sevilla","sort_rank":380,"kind_detail":"primary","kind":"major_road","source":"openstreetmap.org","min_zoom":8.0,"bus_shield_text":"Coripe - Utrera - Sevilla","ref":"A-394"},"arcs":[[572],[573],[574]]},{"type":"MultiLineString","properties":{"bus_network":null,"sort_rank":380,"kind_detail":"primary","kind":"major_road","source":"openstreetmap.org","min_zoom":8.0,"bus_shield_text":"25","landuse_kind":"residential"},"arcs":[[575],[576],[577]]},{"type":"MultiLineString","properties":{"source":"openstreetmap.org","kind":"highway","landuse_kind":"residential","sort_rank":383,"kind_detail":"motorway","ref":"SE-30","min_zoom":8.0},"arcs":[[578],[579]]},{"type":"MultiLineString","properties":{"source":"openstreetmap.org","kind":"major_road","sort_rank":380,"kind_detail":"primary","ref":"A-376","min_zoom":8.0},"arcs":[[580],[581],[582],[583],[584],[585]]},{"type":"LineString","properties":{"kind":"major_road","sort_rank":380,"kind_detail":"primary","bus_network":null,"source":"openstreetmap.org","min_zoom":8.0,"bus_shield_text":"38","ref":"A-376","id":48500482},"arcs":[586]},{"type":"MultiLineString","properties":{"bus_network":null,"sort_rank":380,"kind_detail":"primary","kind":"major_road","source":"openstreetmap.org","min_zoom":8.0,"bus_shield_text":"24","landuse_kind":"residential"},"arcs":[[587],[588],[589]]},{"type":"MultiLineString","properties":{"source":"openstreetmap.org","bus_network":null,"bus_shield_text":"Chipiona-Sevilla","sort_rank":380,"kind_detail":"primary","min_zoom":8.0,"kind":"major_road"},"arcs":[[590],[591]]},{"type":"MultiLineString","properties":{"kind":"highway","network":"e-road","sort_rank":383,"kind_detail":"motorway","source":"openstreetmap.org","min_zoom":8.0,"all_networks":["e-road","ES:A-road"],"shield_text":"05","ref":"AP-4R","all_shield_texts":["05","4"]},"arcs":[[592],[593],[594],[595],[596],[597]]},{"type":"MultiLineString","properties":{"bus_network":null,"sort_rank":380,"kind_detail":"primary","kind":"major_road","source":"openstreetmap.org","min_zoom":8.0,"bus_shield_text":"EA","landuse_kind":"urban_area"},"arcs":[[598],[599]]},{"type":"LineString","properties":{"kind":"major_road","sort_rank":380,"kind_detail":"primary","bus_network":"CTAS","source":"openstreetmap.org","min_zoom":8.0,"bus_shield_text":"Sevilla - Dos Hermanas (Barriada)","landuse_kind":"residential","ref":"N-IV","id":404594111},"arcs":[600]},{"type":"LineString","properties":{"kind":"major_road","sort_rank":377,"kind_detail":"tertiary","is_bicycle_related":true,"bicycle_shield_text":null,"bicycle_network":"ncn","source":"openstreetmap.org","min_zoom":8.0,"ref":"HU-5102","id":86204228},"arcs":[601]},{"type":"MultiLineString","properties":{"bus_network":null,"sort_rank":380,"kind_detail":"primary","kind":"major_road","source":"openstreetmap.org","min_zoom":8.0,"bus_shield_text":"L3","landuse_kind":"residential"},"arcs":[[602],[603],[604],[605],[606],[607],[608]]},{"type":"MultiLineString","properties":{"bus_network":null,"sort_rank":380,"kind_detail":"primary","kind":"major_road","source":"openstreetmap.org","min_zoom":8.0,"bus_shield_text":"15","landuse_kind":"residential"},"arcs":[[609],[610],[611]]},{"type":"MultiLineString","properties":{"source":"openstreetmap.org","kind":"major_road","sort_rank":381,"kind_detail":"trunk","ref":"H-30","min_zoom":8.0},"arcs":[[612],[613],[614],[615],[616],[617],[618],[619],[620],[621],[622],[623],[624]]},{"type":"MultiLineString","properties":{"source":"openstreetmap.org","kind":"highway","landuse_kind":"urban_area","sort_rank":383,"kind_detail":"motorway","ref":"A-8009","min_zoom":8.0},"arcs":[[625],[626],[627],[628]]},{"type":"LineString","properties":{"source":"openstreetmap.org","kind":"major_road","landuse_kind":"residential","sort_rank":381,"kind_detail":"trunk","ref":"N-4","min_zoom":8.0},"arcs":[629]},{"type":"MultiLineString","properties":{"bus_network":null,"sort_rank":380,"kind_detail":"primary","kind":"major_road","source":"openstreetmap.org","min_zoom":8.0,"bus_shield_text":"3","landuse_kind":"residential"},"arcs":[[630],[631],[632],[633],[634],[635],[636],[637],[638],[639],[640],[641],[642],[643],[644],[645],[646],[647],[648],[649]]},{"type":"MultiLineString","properties":{"source":"openstreetmap.org","kind":"highway","sort_rank":383,"kind_detail":"motorway","ref":"A-497","min_zoom":8.0},"arcs":[[650],[651]]},{"type":"LineString","properties":{"kind":"major_road","sort_rank":380,"kind_detail":"primary","is_bicycle_related":true,"bicycle_shield_text":null,"bicycle_network":"rcn","source":"openstreetmap.org","min_zoom":8.0,"ref":"A-493","id":215031731},"arcs":[652]},{"type":"MultiLineString","properties":{"bus_network":"CTAS","sort_rank":380,"kind_detail":"primary","kind":"major_road","source":"openstreetmap.org","min_zoom":8.0,"bus_shield_text":"Sevilla - Dos Hermanas (Directo)","landuse_kind":"residential"},"arcs":[[653],[654],[655],[656],[657],[658],[659],[660],[661],[662],[663],[664],[665],[666],[667],[668],[669],[670],[671],[672],[673],[674]]},{"type":"MultiLineString","properties":{"bus_network":"Utrera - Sevilla","sort_rank":380,"kind_detail":"primary","kind":"major_road","source":"openstreetmap.org","min_zoom":8.0,"bus_shield_text":"Utrera - Sevilla","landuse_kind":"urban_area","ref":"A-376"},"arcs":[[675],[676],[677],[678],[679],[680]]},{"type":"MultiLineString","properties":{"bus_network":null,"sort_rank":380,"kind_detail":"primary","kind":"major_road","source":"openstreetmap.org","min_zoom":8.0,"bus_shield_text":"31","landuse_kind":"residential"},"arcs":[[681],[682],[683],[684],[685]]},{"type":"MultiLineString","properties":{"kind":"major_road","network":null,"sort_rank":381,"kind_detail":"trunk","source":"openstreetmap.org","min_zoom":8.0,"shield_text":"435","ref":"N-435"},"arcs":[[686],[687],[688],[689],[690],[691],[692],[693],[694],[695]]},{"type":"LineString","properties":{"source":"openstreetmap.org","bus_network":"Local Jerez","bus_shield_text":"9","sort_rank":380,"kind_detail":"primary","min_zoom":8.0,"kind":"major_road"},"arcs":[696]},{"type":"LineString","properties":{"source":"openstreetmap.org","kind":"major_road","sort_rank":381,"kind_detail":"trunk","ref":"A-83","min_zoom":8.0},"arcs":[697]},{"type":"MultiLineString","properties":{"bus_network":null,"sort_rank":380,"kind_detail":"primary","kind":"major_road","source":"openstreetmap.org","min_zoom":8.0,"bus_shield_text":"29","landuse_kind":"residential"},"arcs":[[698],[699],[700],[701]]},{"type":"MultiLineString","properties":{"source":"openstreetmap.org","kind":"highway","sort_rank":383,"kind_detail":"motorway","ref":"A-480","min_zoom":8.0},"arcs":[[702],[703]]},{"type":"LineString","properties":{"kind":"major_road","sort_rank":380,"kind_detail":"primary","is_bicycle_related":true,"bus_network":null,"source":"openstreetmap.org","min_zoom":8.0,"bus_shield_text":"M-163","landuse_kind":"residential","id":160118790},"arcs":[704]},{"type":"MultiLineString","properties":{"source":"openstreetmap.org","bus_network":"Coripe - Utrera - Sevilla","bus_shield_text":"Coripe - Utrera - Sevilla","sort_rank":380,"kind_detail":"primary","min_zoom":8.0,"kind":"major_road"},"arcs":[[705],[706]]},{"type":"MultiLineString","properties":{"bus_network":null,"sort_rank":380,"kind_detail":"primary","kind":"major_road","source":"openstreetmap.org","min_zoom":8.0,"bus_shield_text":"M-143","landuse_kind":"residential"},"arcs":[[707],[708],[709],[710]]},{"type":"MultiLineString","properties":{"source":"openstreetmap.org","kind":"major_road","kind_detail":"trunk","sort_rank":381,"landuse_kind":"urban_area","ref":"N-339","min_zoom":8.0},"arcs":[[711],[712],[713],[714]]},{"type":"MultiLineString","properties":{"kind":"highway","network":"e-road","sort_rank":383,"kind_detail":"motorway","source":"openstreetmap.org","min_zoom":8.0,"all_networks":["e-road","ES:A-road"],"shield_text":"803","ref":"A-66","all_shield_texts":["803","66"]},"arcs":[[715],[716],[717],[718],[719],[720],[721],[722],[723],[724],[725],[726]]},{"type":"MultiLineString","properties":{"source":"openstreetmap.org","kind":"highway","sort_rank":383,"kind_detail":"motorway","ref":"SE-30","min_zoom":8.0},"arcs":[[727],[728]]},{"type":"LineString","properties":{"kind":"major_road","sort_rank":380,"kind_detail":"primary","bus_network":"CTAS","source":"openstreetmap.org","min_zoom":8.0,"bus_shield_text":"Sevilla - Dos Hermanas (Directo)","landuse_kind":"residential","ref":"A-392","id":48597942},"arcs":[729]},{"type":"LineString","properties":{"kind":"major_road","sort_rank":381,"landuse_kind":"urban_area","source":"openstreetmap.org","min_zoom":8.0,"kind_detail":"trunk","ref":"N-442","id":26651091},"arcs":[730]},{"type":"LineString","properties":{"bus_network":null,"network":"e-road","sort_rank":381,"kind_detail":"trunk","old_name":"Ruta de la Plata","kind":"major_road","source":"openstreetmap.org","min_zoom":8.0,"bus_shield_text":"Cortegana - Sevilla","shield_text":"01","landuse_kind":"urban_area","ref":"N-630","id":157153624},"arcs":[731]},{"type":"MultiLineString","properties":{"sort_rank":381,"source":"openstreetmap.org","min_zoom":8.0,"kind":"major_road","kind_detail":"trunk"},"arcs":[[732],[733],[734],[735],[736],[737],[738],[739],[740],[741],[742],[743],[744],[745],[746],[747],[748],[749],[750]]},{"type":"MultiLineString","properties":{"kind":"highway","network":null,"sort_rank":383,"kind_detail":"motorway","source":"openstreetmap.org","min_zoom":8.0,"all_networks":[null],"shield_text":"92","ref":"A-92","all_shield_texts":["92"]},"arcs":[[751],[752]]},{"type":"MultiLineString","properties":{"source":"openstreetmap.org","kind":"major_road","sort_rank":380,"kind_detail":"primary","ref":"A-4R","min_zoom":8.0},"arcs":[[753],[754]]},{"type":"LineString","properties":{"kind":"major_road","sort_rank":380,"kind_detail":"primary","bus_network":"CTAS","source":"openstreetmap.org","min_zoom":8.0,"bus_shield_text":"Sevilla - Dos Hermanas (Directo)","landuse_kind":"urban_area","ref":"A-392","id":48597942},"arcs":[755]},{"type":"MultiLineString","properties":{"source":"openstreetmap.org","kind":"highway","landuse_kind":"residential","sort_rank":383,"kind_detail":"motorway","ref":"H-31","min_zoom":8.0},"arcs":[[756],[757]]},{"type":"MultiLineString","properties":{"source":"openstreetmap.org","kind":"highway","landuse_kind":"urban_area","sort_rank":383,"kind_detail":"motorway","min_zoom":8.0},"arcs":[[758],[759],[760]]},{"type":"MultiLineString","properties":{"bus_network":null,"sort_rank":380,"kind_detail":"primary","kind":"major_road","source":"openstreetmap.org","min_zoom":8.0,"bus_shield_text":"Chipiona-Sevilla","landuse_kind":"residential"},"arcs":[[761],[762],[763],[764],[765],[766],[767],[768],[769],[770],[771],[772],[773],[774],[775],[776],[777],[778],[779],[780],[781]]},{"type":"MultiLineString","properties":{"bus_network":null,"sort_rank":380,"kind_detail":"primary","kind":"major_road","source":"openstreetmap.org","min_zoom":8.0,"bus_shield_text":"38","landuse_kind":"residential"},"arcs":[[782],[783],[784]]},{"type":"MultiLineString","properties":{"kind":"highway","network":"e-road","sort_rank":383,"kind_detail":"motorway","source":"openstreetmap.org","min_zoom":8.0,"all_networks":["e-road","ES:A-road"],"shield_text":"05","ref":"AP-4","all_shield_texts":["05","4"]},"arcs":[[785],[786],[787],[788],[789],[790],[791],[792],[793],[794],[795],[796],[797],[798],[799],[800],[801],[802],[803],[804]]},{"type":"MultiLineString","properties":{"bus_network":null,"sort_rank":380,"kind_detail":"primary","kind":"major_road","source":"openstreetmap.org","min_zoom":8.0,"bus_shield_text":"B3","landuse_kind":"residential"},"arcs":[[805],[806],[807],[808]]},{"type":"LineString","properties":{"kind":"highway","network":"e-road","sort_rank":383,"kind_detail":"motorway","source":"openstreetmap.org","min_zoom":8.0,"all_networks":["e-road"],"landuse_kind":"urban_area","shield_text":"01","id":257743552,"all_shield_texts":["01"]},"arcs":[809]},{"type":"MultiLineString","properties":{"bus_network":null,"sort_rank":380,"kind_detail":"primary","kind":"major_road","source":"openstreetmap.org","min_zoom":8.0,"bus_shield_text":"28","landuse_kind":"residential"},"arcs":[[810],[811]]},{"type":"LineString","properties":{"kind":"major_road","sort_rank":380,"kind_detail":"primary","bus_network":null,"source":"openstreetmap.org","min_zoom":8.0,"bus_shield_text":"L4","landuse_kind":"residential","ref":"N-IV","id":206641396},"arcs":[812]},{"type":"MultiLineString","properties":{"bus_network":"Utrera - Sevilla","sort_rank":380,"kind_detail":"primary","kind":"major_road","source":"openstreetmap.org","min_zoom":8.0,"bus_shield_text":"Utrera - Sevilla","landuse_kind":"residential"},"arcs":[[813],[814],[815],[816],[817],[818],[819],[820],[821],[822],[823]]},{"type":"LineString","properties":{"kind":"highway","sort_rank":383,"landuse_kind":"residential","source":"openstreetmap.org","min_zoom":8.0,"kind_detail":"motorway","ref":"SE-30;A-66","id":19783394},"arcs":[824]},{"type":"MultiLineString","properties":{"bus_network":"CTAS","sort_rank":380,"kind_detail":"primary","kind":"major_road","source":"openstreetmap.org","min_zoom":8.0,"bus_shield_text":"Sevilla - Dos Hermanas (Directo)","landuse_kind":"urban_area"},"arcs":[[825],[826],[827]]},{"type":"LineString","properties":{"kind":"major_road","sort_rank":380,"kind_detail":"primary","bus_network":"L1","source":"openstreetmap.org","min_zoom":8.0,"bus_shield_text":"L1","ref":"A-394","id":44785451},"arcs":[828]},{"type":"MultiLineString","properties":{"bus_network":null,"sort_rank":380,"kind_detail":"primary","kind":"major_road","source":"openstreetmap.org","min_zoom":8.0,"bus_shield_text":"C2","landuse_kind":"residential"},"arcs":[[829],[830],[831],[832],[833]]},{"type":"MultiLineString","properties":{"bus_network":null,"sort_rank":380,"kind_detail":"primary","kind":"major_road","source":"openstreetmap.org","min_zoom":8.0,"bus_shield_text":"22","landuse_kind":"residential"},"arcs":[[834],[835],[836],[837],[838],[839],[840],[841],[842],[843]]},{"type":"MultiLineString","properties":{"source":"openstreetmap.org","kind":"highway","sort_rank":383,"kind_detail":"motorway","ref":"SE-30;A-66","min_zoom":8.0},"arcs":[[844],[845]]},{"type":"MultiLineString","properties":{"source":"openstreetmap.org","kind":"major_road","kind_detail":"trunk","sort_rank":381,"landuse_kind":"urban_area","min_zoom":8.0},"arcs":[[846],[847]]},{"type":"MultiLineString","properties":{"bus_network":null,"sort_rank":380,"kind_detail":"primary","kind":"major_road","source":"openstreetmap.org","min_zoom":8.0,"bus_shield_text":"26","landuse_kind":"residential"},"arcs":[[848],[849]]},{"type":"MultiLineString","properties":{"kind":"path","sort_rank":354,"kind_detail":"track","is_bicycle_related":true,"bicycle_shield_text":null,"bicycle_network":"ncn","source":"openstreetmap.org","min_zoom":8.0},"arcs":[[850],[851],[852]]},{"type":"MultiLineString","properties":{"source":"openstreetmap.org","kind":"highway","sort_rank":383,"kind_detail":"motorway","ref":"A-376","min_zoom":8.0},"arcs":[[853],[854],[855],[856],[857],[858]]},{"type":"MultiLineString","properties":{"source":"openstreetmap.org","kind":"major_road","landuse_kind":"residential","sort_rank":381,"kind_detail":"trunk","ref":"H-31","min_zoom":8.0},"arcs":[[859],[860]]},{"type":"LineString","properties":{"bus_network":null,"sort_rank":381,"landuse_kind":"urban_area","kind":"major_road","source":"openstreetmap.org","min_zoom":8.0,"bus_shield_text":"Cortegana - Sevilla","kind_detail":"trunk","ref":"N-630"},"arcs":[861]},{"type":"MultiLineString","properties":{"bus_network":null,"sort_rank":380,"kind_detail":"primary","kind":"major_road","source":"openstreetmap.org","min_zoom":8.0,"bus_shield_text":"27","landuse_kind":"residential"},"arcs":[[862],[863],[864],[865],[866],[867],[868],[869]]},{"type":"MultiLineString","properties":{"source":"openstreetmap.org","kind":"major_road","landuse_kind":"residential","sort_rank":380,"kind_detail":"primary","min_zoom":8.0},"arcs":[[870],[871],[872],[873],[874],[875],[876],[877],[878],[879],[880],[881],[882],[883],[884],[885],[886],[887],[888],[889],[890],[891],[892],[893],[894],[895],[896],[897],[898],[899],[900],[901],[902],[903],[904],[905],[906],[907],[908],[909],[910],[911],[912],[913],[914],[915],[916],[917],[918],[919],[920],[921],[922],[923],[924],[925],[926],[927],[928],[929],[930],[931],[932],[933],[934],[935],[936],[937],[938],[939],[940],[941],[942],[943],[944],[945],[946],[947],[948],[949],[950],[951],[952],[953],[954],[955],[956],[957],[958],[959],[960],[961],[962],[963],[964],[965],[966],[967],[968],[969],[970],[971],[972],[973],[974],[975],[976],[977],[978],[979],[980],[981],[982],[983],[984],[985],[986],[987],[988],[989],[990],[991],[992],[993],[994],[995],[996],[997],[998],[999],[1000],[1001],[1002],[1003],[1004],[1005],[1006],[1007],[1008],[1009],[1010],[1011],[1012],[1013],[1014],[1015],[1016],[1017],[1018],[1019],[1020],[1021],[1022],[1023],[1024],[1025],[1026],[1027],[1028],[1029],[1030],[1031],[1032],[1033],[1034],[1035],[1036],[1037],[1038],[1039],[1040],[1041],[1042],[1043],[1044],[1045],[1046],[1047],[1048],[1049],[1050],[1051],[1052],[1053],[1054],[1055],[1056],[1057],[1058],[1059],[1060],[1061],[1062],[1063],[1064],[1065],[1066],[1067],[1068],[1069],[1070],[1071],[1072],[1073],[1074],[1075],[1076],[1077],[1078],[1079],[1080],[1081],[1082],[1083],[1084],[1085],[1086],[1087],[1088],[1089]]},{"type":"MultiLineString","properties":{"bus_network":null,"sort_rank":380,"kind_detail":"primary","kind":"major_road","source":"openstreetmap.org","min_zoom":8.0,"bus_shield_text":"L5","landuse_kind":"residential"},"arcs":[[1090],[1091],[1092],[1093],[1094],[1095],[1096],[1097],[1098],[1099]]},{"type":"MultiLineString","properties":{"kind":"highway","network":null,"sort_rank":383,"landuse_kind":"urban_area","source":"openstreetmap.org","min_zoom":8.0,"all_networks":[null],"kind_detail":"motorway","shield_text":"92","ref":"A-92","all_shield_texts":["92"]},"arcs":[[1100],[1101]]},{"type":"MultiLineString","properties":{"kind":"highway","network":"e-road","sort_rank":383,"landuse_kind":"residential","source":"openstreetmap.org","min_zoom":8.0,"all_networks":["e-road"],"kind_detail":"motorway","shield_text":"05","ref":"SE-30; A-4","all_shield_texts":["05"]},"arcs":[[1102],[1103],[1104],[1105],[1106]]},{"type":"LineString","properties":{"source":"openstreetmap.org","kind":"major_road","sort_rank":380,"kind_detail":"primary","ref":"A-495","min_zoom":8.0},"arcs":[1107]},{"type":"LineString","properties":{"kind":"major_road","sort_rank":380,"kind_detail":"primary","bus_network":null,"source":"openstreetmap.org","min_zoom":8.0,"bus_shield_text":"37","landuse_kind":"residential","id":195571118},"arcs":[1108]},{"type":"MultiLineString","properties":{"bus_network":null,"sort_rank":380,"kind_detail":"primary","kind":"major_road","source":"openstreetmap.org","min_zoom":8.0,"bus_shield_text":"38","landuse_kind":"urban_area","ref":"A-376"},"arcs":[[1109],[1110],[1111],[1112],[1113],[1114]]},{"type":"MultiLineString","properties":{"source":"openstreetmap.org","kind":"highway","sort_rank":383,"kind_detail":"motorway","ref":"A-4R","min_zoom":8.0},"arcs":[[1115],[1116]]},{"type":"MultiLineString","properties":{"source":"openstreetmap.org","kind":"highway","sort_rank":383,"kind_detail":"motorway","ref":"A-8009","min_zoom":8.0},"arcs":[[1117],[1118]]},{"type":"MultiLineString","properties":{"bus_network":null,"sort_rank":380,"kind_detail":"primary","kind":"major_road","source":"openstreetmap.org","min_zoom":8.0,"bus_shield_text":"34","landuse_kind":"residential"},"arcs":[[1119],[1120],[1121],[1122]]},{"type":"LineString","properties":{"kind":"major_road","sort_rank":380,"kind_detail":"primary","bus_network":null,"source":"openstreetmap.org","min_zoom":8.0,"bus_shield_text":"M-141","landuse_kind":"residential","id":19747830},"arcs":[1123]},{"type":"MultiLineString","properties":{"bus_network":null,"sort_rank":380,"kind_detail":"primary","kind":"major_road","source":"openstreetmap.org","min_zoom":8.0,"bus_shield_text":"21","landuse_kind":"residential"},"arcs":[[1124],[1125],[1126]]},{"type":"MultiLineString","properties":{"source":"openstreetmap.org","kind":"major_road","sort_rank":380,"kind_detail":"primary","ref":"A-493","min_zoom":8.0},"arcs":[[1127],[1128],[1129],[1130],[1131],[1132],[1133],[1134],[1135],[1136],[1137],[1138],[1139],[1140],[1141],[1142],[1143],[1144],[1145],[1146],[1147],[1148],[1149],[1150],[1151],[1152],[1153],[1154],[1155],[1156],[1157],[1158]]},{"type":"MultiLineString","properties":{"bus_network":"Utrera - Sevilla","sort_rank":380,"kind_detail":"primary","kind":"major_road","source":"openstreetmap.org","min_zoom":8.0,"bus_shield_text":"Utrera - Sevilla","landuse_kind":"urban_area"},"arcs":[[1159],[1160],[1161]]},{"type":"MultiLineString","properties":{"bus_network":null,"sort_rank":381,"kind_detail":"trunk","kind":"major_road","source":"openstreetmap.org","min_zoom":8.0,"bus_shield_text":"Cortegana - Sevilla","ref":"N-433"},"arcs":[[1162],[1163],[1164]]},{"type":"MultiLineString","properties":{"source":"openstreetmap.org","kind":"highway","landuse_kind":"urban_area","sort_rank":383,"kind_detail":"motorway","ref":"A-497","min_zoom":8.0},"arcs":[[1165],[1166],[1167],[1168]]},{"type":"LineString","properties":{"kind":"major_road","sort_rank":380,"kind_detail":"primary","bus_network":null,"source":"openstreetmap.org","min_zoom":8.0,"bus_shield_text":"38","id":48500483},"arcs":[1169]},{"type":"MultiLineString","properties":{"bus_network":null,"sort_rank":380,"kind_detail":"primary","kind":"major_road","source":"openstreetmap.org","min_zoom":8.0,"bus_shield_text":"30","landuse_kind":"residential"},"arcs":[[1170],[1171],[1172],[1173],[1174],[1175]]},{"type":"LineString","properties":{"source":"openstreetmap.org","kind":"major_road","sort_rank":380,"kind_detail":"primary","ref":"N-435","min_zoom":8.0,"id":103643187},"arcs":[1176]},{"type":"MultiLineString","properties":{"bus_network":null,"sort_rank":380,"kind_detail":"primary","kind":"major_road","source":"openstreetmap.org","min_zoom":8.0,"bus_shield_text":"M-163","landuse_kind":"residential"},"arcs":[[1177],[1178],[1179]]},{"type":"LineString","properties":{"kind":"major_road","sort_rank":380,"kind_detail":"primary","bus_network":null,"source":"openstreetmap.org","min_zoom":8.0,"bus_shield_text":"28","landuse_kind":"urban_area","ref":"A-8008","id":37590215},"arcs":[1180]},{"type":"MultiLineString","properties":{"bus_network":null,"sort_rank":380,"kind_detail":"primary","kind":"major_road","source":"openstreetmap.org","min_zoom":8.0,"bus_shield_text":"L4","landuse_kind":"residential"},"arcs":[[1181],[1182],[1183],[1184],[1185]]},{"type":"MultiLineString","properties":{"bus_network":"L2","sort_rank":380,"kind_detail":"primary","kind":"major_road","source":"openstreetmap.org","min_zoom":8.0,"bus_shield_text":"L2","ref":"A-394"},"arcs":[[1186],[1187],[1188],[1189]]},{"type":"MultiLineString","properties":{"bus_network":"CTAS","sort_rank":380,"kind_detail":"primary","kind":"major_road","source":"openstreetmap.org","min_zoom":8.0,"bus_shield_text":"Sevilla - Dos Hermanas (Barriada)","landuse_kind":"residential"},"arcs":[[1190],[1191],[1192]]},{"type":"LineString","properties":{"kind":"major_road","sort_rank":380,"kind_detail":"primary","bus_network":null,"source":"openstreetmap.org","min_zoom":8.0,"bus_shield_text":"3","landuse_kind":"urban_area","id":57722445},"arcs":[1193]},{"type":"MultiLineString","properties":{"bus_network":null,"sort_rank":381,"landuse_kind":"urban_area","kind":"major_road","source":"openstreetmap.org","min_zoom":8.0,"bus_shield_text":"Chipiona-Sevilla","kind_detail":"trunk","ref":"N-4"},"arcs":[[1194],[1195]]},{"type":"MultiLineString","properties":{"kind":"major_road","sort_rank":377,"kind_detail":"tertiary","is_bicycle_related":true,"bicycle_shield_text":"EV1","bicycle_network":"ncn","source":"openstreetmap.org","min_zoom":8.0,"ref":"HU-3105"},"arcs":[[1196],[1197],[1198]]},{"type":"MultiLineString","properties":{"source":"openstreetmap.org","kind":"highway","landuse_kind":"residential","sort_rank":383,"kind_detail":"motorway","ref":"H-30","min_zoom":8.0},"arcs":[[1199],[1200]]},{"type":"MultiLineString","properties":{"bus_network":null,"sort_rank":380,"kind_detail":"primary","kind":"major_road","source":"openstreetmap.org","min_zoom":8.0,"bus_shield_text":"20","landuse_kind":"residential"},"arcs":[[1201],[1202],[1203],[1204]]},{"type":"MultiLineString","properties":{"bus_network":null,"sort_rank":381,"kind_detail":"trunk","kind":"major_road","source":"openstreetmap.org","min_zoom":8.0,"bus_shield_text":"22","landuse_kind":"residential","ref":"A-92"},"arcs":[[1205],[1206]]},{"type":"MultiLineString","properties":{"kind":"path","sort_rank":354,"kind_detail":"cycleway","is_bicycle_related":true,"bicycle_shield_text":"EV1","bicycle_network":"ncn","source":"openstreetmap.org","min_zoom":8.0},"arcs":[[1207],[1208]]},{"type":"LineString","properties":{"bus_network":null,"sort_rank":381,"kind_detail":"trunk","kind":"major_road","source":"openstreetmap.org","min_zoom":8.0,"bus_shield_text":"Chipiona-Sevilla","landuse_kind":"residential","ref":"N-4"},"arcs":[1209]},{"type":"MultiLineString","properties":{"source":"openstreetmap.org","kind":"major_road","landuse_kind":"urban_area","sort_rank":380,"kind_detail":"primary","min_zoom":8.0},"arcs":[[1210],[1211],[1212],[1213],[1214],[1215],[1216],[1217],[1218],[1219],[1220],[1221],[1222],[1223],[1224],[1225],[1226],[1227],[1228],[1229],[1230],[1231],[1232],[1233],[1234],[1235],[1236],[1237],[1238],[1239],[1240],[1241],[1242],[1243],[1244],[1245],[1246],[1247],[1248],[1249],[1250],[1251],[1252],[1253],[1254],[1255],[1256],[1257],[1258],[1259],[1260],[1261],[1262],[1263],[1264],[1265],[1266],[1267],[1268],[1269],[1270],[1271],[1272],[1273],[1274],[1275],[1276],[1277],[1278],[1279],[1280],[1281],[1282],[1283],[1284],[1285],[1286],[1287],[1288],[1289],[1290],[1291],[1292],[1293],[1294],[1295],[1296],[1297],[1298]]},{"type":"MultiLineString","properties":{"source":"openstreetmap.org","kind":"major_road","landuse_kind":"residential","sort_rank":381,"kind_detail":"trunk","ref":"H-30","min_zoom":8.0},"arcs":[[1299],[1300],[1301]]},{"type":"MultiLineString","properties":{"source":"openstreetmap.org","kind":"major_road","sort_rank":381,"kind_detail":"trunk","ref":"N-431","min_zoom":8.0},"arcs":[[1302],[1303],[1304],[1305]]},{"type":"MultiLineString","properties":{"source":"openstreetmap.org","kind":"highway","landuse_kind":"urban_area","sort_rank":383,"kind_detail":"motorway","ref":"SE-30; A-66","min_zoom":8.0},"arcs":[[1306],[1307],[1308],[1309],[1310],[1311],[1312],[1313]]},{"type":"MultiLineString","properties":{"source":"openstreetmap.org","kind":"major_road","sort_rank":381,"kind_detail":"trunk","ref":"CA-31","min_zoom":8.0},"arcs":[[1314],[1315]]},{"type":"MultiLineString","properties":{"kind":"highway","network":"ES:A-road","sort_rank":383,"kind_detail":"motorway","source":"openstreetmap.org","min_zoom":8.0,"all_networks":["ES:A-road"],"shield_text":"4","ref":"AP-4","all_shield_texts":["4"]},"arcs":[[1316],[1317]]},{"type":"LineString","properties":{"kind":"major_road","sort_rank":380,"kind_detail":"primary","bus_network":null,"source":"openstreetmap.org","min_zoom":8.0,"bus_shield_text":"29","landuse_kind":"urban_area","id":56048726},"arcs":[1318]},{"type":"MultiLineString","properties":{"kind":"highway","network":"ES:A-road","sort_rank":383,"landuse_kind":"residential","source":"openstreetmap.org","min_zoom":8.0,"all_networks":["ES:A-road"],"kind_detail":"motorway","shield_text":"4","ref":"AP-4","all_shield_texts":["4"]},"arcs":[[1319],[1320]]},{"type":"MultiLineString","properties":{"source":"openstreetmap.org","kind":"major_road","landuse_kind":"residential","sort_rank":380,"kind_detail":"primary","is_bicycle_related":true,"min_zoom":8.0},"arcs":[[1321],[1322]]},{"type":"MultiLineString","properties":{"source":"openstreetmap.org","kind":"highway","landuse_kind":"residential","sort_rank":383,"kind_detail":"motorway","ref":"A-497","min_zoom":8.0},"arcs":[[1323],[1324]]},{"type":"MultiLineString","properties":{"bus_network":"Local Jerez","sort_rank":380,"kind_detail":"primary","kind":"major_road","source":"openstreetmap.org","min_zoom":8.0,"bus_shield_text":"9","landuse_kind":"urban_area"},"arcs":[[1325],[1326],[1327],[1328]]},{"type":"LineString","properties":{"kind":"major_road","sort_rank":381,"kind_detail":"trunk","bus_network":null,"source":"openstreetmap.org","min_zoom":8.0,"bus_shield_text":"53","landuse_kind":"urban_area","id":39723109},"arcs":[1329]},{"type":"LineString","properties":{"source":"openstreetmap.org","kind":"major_road","sort_rank":380,"kind_detail":"primary","ref":"A-496","min_zoom":8.0},"arcs":[1330]},{"type":"LineString","properties":{"source":"openstreetmap.org","kind":"major_road","sort_rank":380,"kind_detail":"primary","ref":"N-630","min_zoom":8.0},"arcs":[1331]},{"type":"MultiLineString","properties":{"source":"openstreetmap.org","kind":"highway","landuse_kind":"urban_area","sort_rank":383,"kind_detail":"motorway","ref":"SE-30;A-66","min_zoom":8.0},"arcs":[[1332],[1333],[1334],[1335],[1336]]},{"type":"MultiLineString","properties":{"source":"openstreetmap.org","kind":"major_road","sort_rank":380,"kind_detail":"primary","ref":"A-375","min_zoom":8.0},"arcs":[[1337],[1338],[1339],[1340],[1341],[1342]]},{"type":"MultiLineString","properties":{"source":"openstreetmap.org","kind":"highway","landuse_kind":"urban_area","sort_rank":383,"kind_detail":"motorway","ref":"SE-30","min_zoom":8.0},"arcs":[[1343],[1344]]},{"type":"MultiLineString","properties":{"bus_network":null,"sort_rank":380,"kind_detail":"primary","kind":"major_road","source":"openstreetmap.org","min_zoom":8.0,"bus_shield_text":"C3","landuse_kind":"residential"},"arcs":[[1345],[1346],[1347],[1348]]},{"type":"MultiLineString","properties":{"source":"openstreetmap.org","kind":"highway","sort_rank":383,"kind_detail":"motorway","ref":"A-382","min_zoom":8.0},"arcs":[[1349],[1350],[1351]]},{"type":"MultiLineString","properties":{"bus_network":null,"sort_rank":380,"kind_detail":"primary","kind":"major_road","source":"openstreetmap.org","min_zoom":8.0,"bus_shield_text":"5","landuse_kind":"residential"},"arcs":[[1352],[1353],[1354],[1355],[1356],[1357],[1358],[1359],[1360],[1361],[1362],[1363]]},{"type":"LineString","properties":{"kind":"major_road","network":null,"sort_rank":381,"kind_detail":"trunk","source":"openstreetmap.org","min_zoom":8.0,"shield_text":"435","ref":"A-494","id":46998779},"arcs":[1364]},{"type":"LineString","properties":{"kind":"minor_road","sort_rank":360,"kind_detail":"residential","is_bicycle_related":true,"bicycle_shield_text":"EV1","bicycle_network":"ncn","source":"openstreetmap.org","min_zoom":8.0},"arcs":[1365]},{"type":"LineString","properties":{"bus_network":"TUSSAM","sort_rank":380,"kind_detail":"primary","kind":"major_road","source":"openstreetmap.org","min_zoom":8.0,"bus_shield_text":null,"landuse_kind":"residential"},"arcs":[1366]},{"type":"MultiLineString","properties":{"kind":"highway","network":"e-road","sort_rank":383,"landuse_kind":"residential","source":"openstreetmap.org","min_zoom":8.0,"all_networks":["e-road","ES:A-road"],"kind_detail":"motorway","shield_text":"05","ref":"A-4","all_shield_texts":["05","4"]},"arcs":[[1367],[1368]]},{"type":"MultiLineString","properties":{"source":"openstreetmap.org","kind":"highway","landuse_kind":"urban_area","sort_rank":383,"kind_detail":"motorway","ref":"A-376","min_zoom":8.0},"arcs":[[1369],[1370],[1371],[1372]]},{"type":"MultiLineString","properties":{"source":"openstreetmap.org","kind":"highway","landuse_kind":"residential","sort_rank":383,"kind_detail":"motorway","ref":"SE-30; A-66","min_zoom":8.0},"arcs":[[1373],[1374]]},{"type":"MultiLineString","properties":{"source":"openstreetmap.org","kind":"major_road","kind_detail":"trunk","sort_rank":381,"landuse_kind":"urban_area","ref":"A-92","min_zoom":8.0},"arcs":[[1375],[1376],[1377],[1378],[1379],[1380]]},{"type":"MultiLineString","properties":{"source":"openstreetmap.org","kind":"highway","sort_rank":383,"kind_detail":"motorway","ref":"A-483","min_zoom":8.0},"arcs":[[1381],[1382]]},{"type":"MultiLineString","properties":{"source":"openstreetmap.org","kind":"highway","landuse_kind":"urban_area","sort_rank":383,"kind_detail":"motorway","ref":"H-31","min_zoom":8.0},"arcs":[[1383],[1384]]},{"type":"LineString","properties":{"kind":"major_road","sort_rank":380,"kind_detail":"primary","is_bicycle_related":true,"bus_network":null,"source":"openstreetmap.org","min_zoom":8.0,"bus_shield_text":"3","landuse_kind":"residential","id":261491872},"arcs":[1385]},{"type":"MultiLineString","properties":{"bus_network":null,"sort_rank":380,"kind_detail":"primary","kind":"major_road","source":"openstreetmap.org","min_zoom":8.0,"bus_shield_text":"6","landuse_kind":"residential"},"arcs":[[1386],[1387],[1388],[1389],[1390],[1391]]},{"type":"MultiLineString","properties":{"source":"openstreetmap.org","kind":"highway","landuse_kind":"urban_area","sort_rank":383,"kind_detail":"motorway","ref":"A-491","min_zoom":8.0},"arcs":[[1392],[1393],[1394],[1395],[1396]]},{"type":"MultiLineString","properties":{"source":"openstreetmap.org","kind":"major_road","landuse_kind":"urban_area","sort_rank":380,"kind_detail":"primary","ref":"N-630","min_zoom":8.0},"arcs":[[1397],[1398],[1399]]},{"type":"MultiLineString","properties":{"source":"openstreetmap.org","kind":"highway","landuse_kind":"urban_area","sort_rank":383,"kind_detail":"motorway","ref":"SE-40","min_zoom":8.0},"arcs":[[1400],[1401]]},{"type":"MultiLineString","properties":{"kind":"highway","network":"e-road","sort_rank":383,"kind_detail":"motorway","source":"openstreetmap.org","min_zoom":8.0,"all_networks":["e-road","ES:A-road"],"shield_text":"05","ref":"A-4","all_shield_texts":["05","4"]},"arcs":[[1402],[1403],[1404],[1405]]},{"type":"MultiLineString","properties":{"bus_network":null,"sort_rank":380,"kind_detail":"primary","kind":"major_road","source":"openstreetmap.org","min_zoom":8.0,"bus_shield_text":"8","landuse_kind":"urban_area"},"arcs":[[1406],[1407],[1408],[1409],[1410]]},{"type":"LineString","properties":{"kind":"major_road","network":null,"sort_rank":380,"kind_detail":"primary","source":"openstreetmap.org","min_zoom":8.0,"shield_text":"435","ref":"N-435"},"arcs":[1411]},{"type":"MultiLineString","properties":{"source":"openstreetmap.org","kind":"highway","sort_rank":383,"kind_detail":"motorway","ref":"H-30","min_zoom":8.0},"arcs":[[1412],[1413]]},{"type":"MultiLineString","properties":{"kind":"highway","network":null,"sort_rank":383,"landuse_kind":"residential","source":"openstreetmap.org","min_zoom":8.0,"all_networks":[null],"kind_detail":"motorway","shield_text":"92","ref":"A-92","all_shield_texts":["92"]},"arcs":[[1414],[1415]]},{"type":"MultiLineString","properties":{"bus_network":null,"sort_rank":380,"kind_detail":"primary","kind":"major_road","source":"openstreetmap.org","min_zoom":8.0,"bus_shield_text":"38","landuse_kind":"urban_area"},"arcs":[[1416],[1417]]},{"type":"MultiLineString","properties":{"kind":"major_road","sort_rank":381,"landuse_kind":"urban_area","source":"openstreetmap.org","min_zoom":8.0,"kind_detail":"trunk","loc_name":"Ronda Supernorte","ref":"SE-20"},"arcs":[[1418],[1419],[1420],[1421],[1422],[1423],[1424],[1425],[1426],[1427],[1428],[1429],[1430],[1431],[1432],[1433],[1434],[1435],[1436],[1437],[1438],[1439],[1440],[1441],[1442],[1443],[1444],[1445],[1446]]}]},"earth":{"type":"GeometryCollection","geometries":[{"type":"MultiPolygon","properties":{"sort_rank":10,"source":"naturalearthdata.com","min_zoom":0.0,"kind":"earth","area":82170659168},"arcs":[[[1447]]]}]},"landuse":{"type":"GeometryCollection","geometries":[{"type":"MultiPolygon","properties":{"source":"openstreetmap.org","kind":"residential","tier":2,"area":101011225,"sort_rank":20,"min_zoom":8.0,"osm_relation":true},"arcs":[[[1448],[1449],[1450],[1451],[1452],[1453],[1454],[1455],[1456],[1457],[1458],[1459],[1460],[1461],[1462],[1463],[1464],[1465]]]},{"type":"MultiPolygon","properties":{"source":"openstreetmap.org","kind":"nature_reserve","tier":2,"area":102181551,"sort_rank":23,"min_zoom":8.0},"arcs":[[[1466]],[[1467]],[[1468]]]},{"type":"Polygon","properties":{"kind":"protected_area","area":32330000,"sort_rank":17,"source":"openstreetmap.org","min_zoom":8.0,"tier":2,"id":-4568954,"osm_relation":true},"arcs":[[1469]]},{"type":"Polygon","properties":{"kind":"residential","name":"Sanl\u00facar de Barrameda","area":23201700,"sort_rank":20,"name:ar":"\u0634\u0644\u0648\u0642\u0629","source":"openstreetmap.org","min_zoom":8.0,"tier":2,"name:ru":"\u0421\u0430\u043d\u043b\u0443\u043a\u0430\u0440-\u0434\u0435-\u0411\u0430\u0440\u0440\u0430\u043c\u0435\u0434\u0430","id":-5478932,"osm_relation":true},"arcs":[[1470]]},{"type":"MultiPolygon","properties":{"source":"openstreetmap.org","kind":"park","tier":2,"area":44424879,"sort_rank":24,"min_zoom":8.0},"arcs":[[[1471]],[[1472]]]},{"type":"MultiPolygon","properties":{"source":"openstreetmap.org","kind":"military","tier":3,"area":38231467,"sort_rank":45,"min_zoom":8.0},"arcs":[[[1473]],[[1474]]]},{"type":"MultiPolygon","properties":{"source":"naturalearthdata.com","kind":"urban_area","name":"","area":947682459,"sort_rank":11,"min_zoom":4.0},"arcs":[[[1475]],[[1476]],[[1477]],[[1478]],[[1479]],[[1480]],[[1481]]]},{"type":"Polygon","properties":{"kind":"residential","name":"Alcal\u00e1 de Guada\u00edra","area":13913600,"sort_rank":20,"source":"openstreetmap.org","min_zoom":8.0,"tier":2,"id":23081612},"arcs":[[1482]]},{"type":"Polygon","properties":{"kind":"nature_reserve","protect_class":"2","area":944526016,"sort_rank":23,"source":"openstreetmap.org","min_zoom":6.0,"tier":2,"id":39813332},"arcs":[[1483]]},{"type":"Polygon","properties":{"source":"openstreetmap.org","kind":"nature_reserve","area":281072000,"tier":2,"id":374522504,"min_zoom":6.0,"sort_rank":23},"arcs":[[1484]]},{"type":"Polygon","properties":{"name:el":"\u039d\u03c4\u03bf\u03c2 \u03a7\u03b5\u03c1\u03bc\u03ac\u03bd\u03b1\u03c2","kind":"residential","name":"Dos Hermanas","area":21657500,"sort_rank":20,"source":"openstreetmap.org","min_zoom":8.0,"tier":2,"name:ru":"\u0414\u043e\u0441-\u042d\u0440\u043c\u0430\u043d\u0430\u0441","id":23081279},"arcs":[[1485]]},{"type":"MultiPolygon","properties":{"source":"openstreetmap.org","kind":"residential","tier":2,"area":26329902,"sort_rank":20,"min_zoom":8.0},"arcs":[[[1486]],[[1487]]]},{"type":"Polygon","properties":{"kind":"nature_reserve","protect_class":"5","area":505127008,"sort_rank":23,"source":"openstreetmap.org","min_zoom":6.0,"tier":2,"id":374504425},"arcs":[[1488]]}]}},"type":"Topology","transform":{"translate":[-7.03125,36.5978891331],"scale":[0.0003433228,0.0002736087]},"arcs":[[[0,1354],[72,0],[276,-113],[713,-1241]],[[0,2209],[512,-263],[66,-82],[-59,88],[-147,89],[24,14],[196,-102],[-25,-3],[14,-10],[113,-31],[375,-227],[457,-335],[184,-242],[148,-357],[54,-26],[92,5],[-153,-125],[-40,-6],[-31,-57],[-28,-4],[3,18],[-45,-47],[11,-58],[121,-224],[30,-110],[87,-51],[19,-5],[-3,33],[47,10],[1,-18],[31,-37],[-26,39],[54,5],[79,-38],[38,-52]],[[228,2392],[21,5],[40,-6],[42,30],[78,140],[458,131],[342,179],[395,79]],[[1604,2950],[16,38]],[[1620,2988],[10,12]],[[1630,3000],[7,4]],[[1637,3004],[12,6]],[[1649,3010],[2,1]],[[1651,3011],[6,2]],[[1657,3013],[6,2]],[[1663,3015],[25,4]],[[1688,3019],[6,0]],[[1694,3019],[5,-1]],[[1699,3018],[6,-4]],[[1705,3014],[3,-6]],[[1708,3008],[2,-6]],[[1710,3002],[2,-5]],[[1712,2997],[4,-4]],[[1716,2993],[6,-3]],[[1722,2990],[7,-1]],[[1729,2989],[8,0]],[[1737,2989],[7,-3]],[[1744,2986],[7,-6]],[[1751,2980],[6,-4]],[[1757,2976],[10,-5]],[[1767,2971],[18,-4]],[[1785,2967],[9,-3]],[[1794,2964],[67,-40]],[[1861,2924],[2,-1]],[[1863,2923],[13,-8]],[[1876,2915],[169,-111],[172,-61],[45,-140],[26,6],[69,152],[40,13]],[[2397,2774],[13,13]],[[2410,2787],[29,98],[151,88],[82,-47],[109,117],[142,-50],[187,105],[38,-89],[-65,-97]],[[3147,3020],[1,-5],[0,-3],[0,-3],[-1,-4],[-32,-64],[-3,-3],[-17,-17],[-12,-10]],[[3121,3089],[25,-67]],[[251,2393],[0,-2],[16,-2],[0,2],[-16,2]],[[1876,2915],[169,-111],[172,-61],[48,-141]],[[4096,3659],[-104,-65],[-195,31],[-343,-92],[-307,-347],[-35,-72],[36,-106],[-53,-87]],[[3095,2921],[-21,-19],[-4,-11]],[[3070,2891],[23,27]],[[3092,2919],[3,2]],[[3109,2679],[-46,174],[12,50]],[[4096,2271],[-400,-82],[-143,35],[-322,292],[-129,63],[6,80]],[[2364,13],[-2,-13]],[[3108,2658],[-8,-76],[129,-64],[250,-226],[132,-137],[12,-93],[-31,-68],[-412,-442],[-426,-293],[-39,-243],[64,-123],[92,-95],[-1,-121],[-117,-201],[-119,-142],[-5,-221],[-41,-26],[-181,-23],[-43,-51]],[[3108,2672],[-45,181],[12,50]],[[2852,2745],[19,43],[92,28],[59,50],[114,-5],[19,-91],[42,-41],[-15,-56]],[[3701,4096],[4,-38],[33,-38],[9,-101],[43,14],[55,-51],[-56,-59],[-3,-201]],[[2852,2746],[19,42],[92,28],[59,50],[115,-5],[18,-91],[42,-41],[-14,-56]],[[228,2392],[73,4],[95,134],[-78,89],[-63,17],[-51,156],[6,72],[62,90],[21,110],[-8,49],[-82,83],[-8,85],[40,132],[78,76],[36,247],[97,90],[36,73],[-69,84],[-30,113]],[[0,2223],[5,-2],[256,-126],[38,5],[-4,39],[-31,64],[-64,99],[0,22],[92,0],[80,58],[148,167],[-33,-65],[-101,-153],[-35,-29],[-20,-46],[20,-96],[52,-82],[57,-28],[59,-28],[120,-100],[50,-22],[68,-18],[77,-42],[715,-518],[83,-88],[65,-114],[94,-243],[83,-108],[103,1],[17,41],[-17,221],[23,77],[54,41],[124,49],[54,-48],[74,2],[74,30],[56,39],[-83,-109],[-236,18],[-98,-86],[-16,-87],[24,-153],[-30,-85],[-39,-33],[-109,-39],[-53,-28],[-54,-60],[-14,-65],[19,-68],[40,-69],[31,-70],[36,-145],[44,-47],[52,-13],[198,-14],[31,-16],[56,-53],[-2235,0],[0,2223]],[[2235,0],[-56,53],[-31,16],[-198,14],[-52,13],[-44,47],[-36,145],[-31,70],[-40,69],[-19,68],[14,65],[54,60],[53,28],[109,39],[39,33],[30,85],[-24,153],[16,87],[98,86],[236,-18],[83,109],[-56,-39],[-74,-30],[-74,-2],[-54,48],[-124,-49],[-54,-41],[-23,-77],[17,-221],[-17,-41],[-103,-1],[-83,108],[-94,243],[-65,114],[-83,88],[-715,518],[-77,42],[-68,18],[-50,22],[-120,100],[-59,28],[-57,28],[-52,82],[-20,96],[20,46],[35,29],[101,153],[33,65],[-148,-167],[-80,-58],[-92,0],[0,-22],[64,-99],[31,-64],[4,-39],[-38,-5],[-256,126],[-5,2]],[[2665,396],[-18,2]],[[3062,3053],[3,1]],[[3064,3055],[-1,-1]],[[3110,3035],[5,-11],[32,-8]],[[3147,3017],[-36,18]],[[3989,3182],[-77,16]],[[3990,3182],[10,-5]],[[4000,3177],[1,-1]],[[4001,3176],[-1,1]],[[4002,3175],[1,0]],[[4003,3175],[-1,1]],[[4003,3175],[15,-1]],[[4018,3174],[9,6]],[[4027,3181],[-9,-7]],[[4029,3181],[-1,0]],[[4028,3180],[1,1]],[[4029,3181],[8,6]],[[4037,3187],[1,0]],[[4037,3187]],[[4042,3190],[-5,-3]],[[4037,3187],[1,0]],[[4038,3187],[4,3]],[[4042,3190],[-1,0]],[[4042,3190]],[[4042,3190],[5,2]],[[4047,3191],[18,-14],[31,24]],[[3990,3183],[-1,0],[0,-1],[1,0],[0,1]],[[4002,3176],[-1,0]],[[4001,3176],[0,-1],[1,1]],[[4002,3176]],[[4028,3181],[-1,0],[0,-1],[1,0],[0,1]],[[4047,3192],[0,-1],[0,1]],[[257,2540],[-8,-29]],[[250,2511],[8,29]],[[258,2602],[-1,-61]],[[257,2541],[0,-1],[1,0]],[[258,2540],[0,1],[-1,0]],[[258,2541],[0,60]],[[2918,2895],[-2,0]],[[2723,374],[1,0]],[[2724,374],[-1,1]],[[2763,385],[-39,-11]],[[2763,385],[2,0]],[[2764,386],[-1,-1]],[[2787,401],[-21,-14]],[[2766,386],[21,14]],[[2766,386],[0,1],[-2,0],[1,-2]],[[2765,385],[1,1]],[[2976,2837],[-7,-4]],[[2969,2833],[8,3]],[[2987,2844],[-9,-6]],[[2988,2843],[-1,1]],[[3009,2858],[-21,-14]],[[2992,2836],[0,2]],[[3017,2863],[-5,-3]],[[3024,2850],[1,-2]],[[3027,2845],[1,-2]],[[2976,2837],[1,-1],[0,2],[-1,0],[0,-1]],[[3011,2859],[-1,0],[-1,-1],[2,0],[0,1]],[[816,3547],[2,40]],[[3055,2908],[11,-6]],[[3067,2901],[9,-6]],[[3068,2902],[0,-1]],[[3068,2901]],[[3076,2895],[-8,6]],[[3099,2840],[-18,-7]],[[3086,2769],[4,-1]],[[3103,2865],[-1,-16]],[[3102,2849],[2,16]],[[3093,2769]],[[3046,2852],[-10,4]],[[3054,2857],[8,-3]],[[3059,2856],[-5,2]],[[3068,2901],[0,1]],[[3133,2952],[-56,-56]],[[3077,2894],[-1,1]],[[3077,2894],[0,-46],[1,46]],[[3082,2899],[53,54]],[[2457,91],[-1,-21],[9,-55]],[[2465,15],[-8,76]],[[2568,414],[-19,-17]],[[2549,396],[19,18]],[[3160,2805],[-65,-82],[-25,-9]],[[3075,2713],[1,2]],[[3093,2735],[34,39],[6,7],[3,3],[17,18]],[[3054,2610],[-6,87]],[[3070,2714],[-23,-16],[-2,-18],[8,-70]],[[3314,3040],[-111,-58]],[[3207,2984],[51,23],[57,32]],[[2962,2862],[-1,-11]],[[2961,2850],[1,16]],[[3033,2763],[0,-25]],[[3034,2739],[-1,24]],[[3034,2736],[5,-4]],[[3034,2739],[-1,-1],[1,-2]],[[3034,2736],[1,1],[-1,2]],[[3042,2730],[-7,7]],[[2916,2824],[5,-43]],[[2921,2782],[-5,42]],[[2921,2827],[4,12]],[[2637,365],[0,1]],[[3202,2881],[95,-22]],[[3297,2859],[-44,20]],[[2910,2971],[0,1]],[[3053,3009],[-2,-27]],[[3052,2982],[2,28]],[[3053,3011],[-1,-1],[1,-1],[2,3],[-2,-1]],[[2037,0],[-61,63]],[[3051,2981],[14,4]],[[3079,2988],[4,-9]],[[3239,2864],[-1,-18]],[[3239,2873],[0,-8]],[[3239,2846]],[[3239,2846],[0,15]],[[3239,2864],[1,1],[-1,0]],[[3239,2865],[0,-1]],[[3239,2864]],[[557,2719],[3,9]],[[809,3534]],[[809,3535],[0,1],[0,-1]],[[1430,2781],[0,-6]],[[1430,2775],[0,-1]],[[1431,2774],[-1,1]],[[2663,396],[1,0]],[[2664,395],[1,1]],[[2675,409],[-10,-12]],[[2665,396],[10,13]],[[2675,409],[1,1]],[[2683,419],[-7,-9]],[[2676,410],[7,9]],[[2683,419],[1,0],[0,1]],[[2684,420],[-1,0],[0,-1]],[[2695,434],[-11,-14]],[[2684,420],[12,14]],[[2715,456],[-19,-20]],[[2697,435],[19,21]],[[2899,2968],[-1,-10]],[[2898,2959],[1,8]],[[3151,2732],[21,-87]],[[3174,2645],[-22,86]],[[3162,2748],[5,7]],[[3167,2755],[1,1]],[[3168,2756],[-1,0]],[[3168,2756],[0,1]],[[3514,1620],[3,5]],[[3642,2049],[11,-7]],[[3655,2061],[-12,-12]],[[3653,2041],[11,13]],[[3654,2051],[0,2]],[[3655,2052],[-1,-2]],[[3654,2054],[2,-2]],[[809,3535],[0,-1],[0,1]],[[1430,2773],[1,0],[0,1],[-1,0],[0,-1]],[[2697,436],[-2,0],[0,-2],[2,0],[0,2]],[[2901,2969],[-2,-1]],[[2899,2968],[0,-1]],[[2899,2967],[3,1],[-1,1]],[[752,3589],[-68,25],[-109,-11],[-65,95]],[[3204,2982],[1,1]],[[3231,2239],[-7,-90]],[[3227,2373],[0,1]],[[3233,2404],[-6,-31]],[[3227,2373],[8,-120]],[[3231,2239],[4,14]],[[3231,2008],[183,-224]],[[3233,2400],[0,4]],[[3233,2407],[0,-1]],[[3233,2406],[1,9]],[[3041,2819],[-1,1]],[[2465,15],[2,-15]],[[2468,0],[-3,15]],[[2806,2866],[17,5],[4,0],[48,-7],[33,29],[1,0]],[[2916,2895],[-34,-32],[-73,1]],[[0,2688],[210,84],[86,-22],[70,-110],[2,-1]],[[368,2639],[10,-4]],[[378,2635],[60,-25],[6,-1],[366,96],[697,80],[206,-55],[520,65],[93,30]],[[2326,2826],[-94,-31],[-176,-12],[-237,-26],[-106,-27],[-207,55],[-696,-79],[-262,-54],[-112,-38],[-58,21]],[[378,2635],[-10,3],[0,1]],[[368,2639],[-70,111],[-1,1],[-81,22],[-6,0],[-210,-85]],[[2809,2864],[-35,-17]],[[2774,2847],[-5,-2],[-195,-63],[-152,8],[-70,33]],[[2352,2822],[70,-33],[152,-8],[194,62],[6,4]],[[2774,2847],[28,18],[4,1]],[[3083,2718],[13,-42]],[[3097,2676],[-4,17],[-4,14],[-5,11]],[[3093,2629],[-2,-18]],[[3092,2611],[2,19]],[[3093,2629],[0,2]],[[3094,2639],[-1,-8]],[[3094,2639],[0,1]],[[3095,2657],[-1,-17]],[[3095,2673],[-1,-16]],[[3094,2657],[1,0]],[[3095,2657],[-1,0]],[[3095,2631],[0,8]],[[3095,2657]],[[3095,2657],[1,16]],[[3095,2640],[0,17]],[[3157,2540],[2,-3]],[[3160,2537],[-2,3]],[[3037,2862],[1,0]],[[3038,2863],[-1,0]],[[3063,2959],[-17,0]],[[3051,2910],[-1,-4]],[[3063,2959],[1,0]],[[3064,2958],[-1,1]],[[3065,2958],[1,0]],[[3065,2959],[0,-1]],[[3066,2958],[-1,1]],[[3077,2951],[-11,7]],[[3154,1406],[-6,-8]],[[3007,2952],[1,-1]],[[3007,2951],[28,-8]],[[3039,2943],[12,-33]],[[673,3342],[41,83],[94,98]],[[2561,3811],[2,0]],[[3253,2879],[-33,2]],[[2114,131],[160,-89]],[[2274,42],[-158,93]],[[2371,68],[-14,5],[-51,-22]],[[2308,51],[62,17]],[[2962,2893],[4,1]],[[808,3523],[8,24]],[[1126,3912],[-36,-39],[18,-50],[-50,-97],[-140,18],[-50,-29]],[[1184,3996],[-73,-38],[23,-41]],[[2977,2836],[15,-9]],[[2992,2828],[-14,9]],[[2992,2827],[-1,-9]],[[2992,2818],[1,9]],[[2993,2817],[-2,1],[2,-1]],[[2993,2817],[17,-3]],[[3010,2813],[0,-2]],[[2993,2828],[-1,0],[0,-1],[1,0]],[[2993,2827],[0,1]],[[3320,2652],[47,135]],[[3366,2788],[-44,-131]],[[3462,3020],[-50,-152]],[[3414,2865],[49,158]],[[2768,336],[-17,-42],[-1,-19]],[[2750,276],[19,60]],[[2062,541],[12,-2],[39,-37],[54,-30],[102,-37],[93,-71],[178,-60]],[[2541,305],[-178,59],[-94,71],[-156,67],[-39,49]],[[2558,314],[-2,0]],[[2557,313],[12,-26]],[[2569,286],[-12,27]],[[3166,2577],[11,-34]],[[3177,2543],[-10,34]],[[3175,2619],[-2,-10]],[[3173,2609],[-1,-1],[0,-1],[1,1],[0,1]],[[3173,2609],[2,9]],[[3195,2557],[-14,-12]],[[3182,2546],[13,11]],[[3166,2579],[-1,-1],[2,-1],[0,1],[-1,1]],[[3195,2558],[1,-2],[0,2],[-1,0]],[[451,2014],[109,-70],[41,-101],[-15,-171],[-586,-645]],[[3190,2504],[-1,11]],[[3189,2516],[11,12]],[[3197,2493],[-7,10]],[[3200,2529],[5,-2]],[[3224,2540],[-1,-1]],[[3229,2539],[0,1]],[[3247,2476],[-12,-6]],[[3236,2536],[-1,0]],[[3242,2531],[-1,1]],[[3253,2482],[-5,-5]],[[3250,2525],[-1,0]],[[3248,2476],[-1,1],[0,-1]],[[3247,2476],[1,0]],[[3250,2515],[-1,-1],[1,-1],[0,1],[0,1]],[[3254,2483],[-1,0],[0,-1],[1,0],[0,1]],[[3130,2991],[-24,5]],[[3106,2995],[23,-4]],[[3759,2020],[-53,41],[-54,-10]],[[4096,1694],[-11,20]],[[2741,481],[2,-2]],[[2743,479],[-1,3]],[[2743,479],[21,-90]],[[2764,389],[0,-2]],[[2765,387],[-1,2]],[[2740,482],[2,0],[0,2],[-2,0],[0,-2]],[[1272,4020],[-167,-28]],[[1272,4020],[3,1]],[[1274,4021],[-2,-1]],[[1275,4024],[0,-2]],[[1275,4021],[1,1],[-1,0],[-1,0],[1,-1]],[[1313,4096],[4,-10],[-41,-29],[-1,-33]],[[1276,4022],[-1,2]],[[2568,3805],[-17,77],[-66,40],[-6,37]],[[2480,3963],[3,133]],[[2622,3753],[-7,8]],[[2703,3554],[-3,13]],[[2703,3554],[0,-1]],[[2704,3553],[-1,1]],[[2703,3551],[1,-1]],[[2704,3550],[0,1]],[[2862,3141],[-158,409]],[[2900,3035],[6,-68]],[[2481,3962],[-1,-2],[2,0],[0,1],[-1,1]],[[2704,3551],[1,1],[-2,1],[0,-1],[1,-1]],[[641,3211],[47,185],[95,106],[-40,92]],[[2970,2844],[-5,2]],[[2996,2898],[-1,-1]],[[3000,2885],[2,4]],[[2352,2823],[-11,5],[-8,0],[-7,-2]],[[2326,2825],[26,-3]],[[3565,661],[70,124],[93,1],[21,41],[196,108],[151,17]],[[3034,2799],[-1,-26]],[[3033,2773],[1,26]],[[3035,2819],[-1,-20]],[[3223,2439],[6,-9]],[[3234,2429],[-11,11]],[[3040,2943],[6,16],[-7,-16]],[[3063,2790],[10,4]],[[3063,2790],[-4,-3]],[[3079,2796],[-4,-1]],[[3075,2794],[4,2]],[[3101,2922],[-24,29]],[[3079,2797],[8,12]],[[3092,2820],[-5,-9]],[[3088,2811],[5,8]],[[3096,2822],[-3,-1]],[[3094,2820],[2,2]],[[3096,2822],[10,11]],[[3101,2922],[0,-1]],[[3102,2921],[-1,1]],[[3102,2920],[2,-1]],[[3104,2919],[-1,1]],[[3104,2919],[4,-5]],[[3106,2833],[1,1]],[[3107,2834],[-1,-1]],[[3107,2834]],[[3108,2834],[-1,1]],[[3108,2836],[-1,-1]],[[3108,2835],[0,1]],[[3121,2877],[-13,-41]],[[3123,2897],[-10,11]],[[3123,2897]],[[3124,2885],[0,1]],[[3080,2796],[0,1],[-1,0],[0,-1]],[[3079,2796],[1,0]],[[3087,2811],[-1,0],[1,-1],[1,0],[-1,1]],[[3093,2821],[1,-2]],[[1033,2720],[60,-109],[280,-164],[79,-7]],[[1454,2441],[-2,-1]],[[1452,2440],[2,0]],[[1454,2440],[4,-2],[1,2],[-3,1],[-2,-1]],[[2798,593],[44,110],[-32,158],[115,142],[60,71],[188,97],[136,139],[191,125],[-28,256],[-58,93]],[[3224,2149],[-53,-66],[5,-40],[55,-35]],[[3227,2374],[6,26]],[[3232,2414],[1,-7]],[[3234,2405],[-1,1],[0,-1],[0,-1],[1,1]],[[2864,3140],[-2,1]],[[2864,3140],[4,-6]],[[2869,3135],[-5,5]],[[2869,3132],[4,-4]],[[2873,3128],[-3,5]],[[2892,3088],[-19,40]],[[2892,3088],[0,-1]],[[2892,3087],[0,-1],[1,1],[-1,0]],[[2892,3087],[0,1]],[[2892,3086],[1,-1],[0,1]],[[2906,2967],[3,-6]],[[2961,2851],[-3,-23]],[[2962,2831],[-1,19]],[[2963,2892],[-1,-30]],[[2962,2866],[3,26]],[[3039,2732],[10,-9]],[[3050,2723],[-8,7]],[[2870,3133],[0,2],[-1,0]],[[2869,3135],[0,-3],[1,1]],[[3380,3040],[-58,-13]],[[3382,3040],[-2,0]],[[3380,3040],[2,-1]],[[3387,3041],[-5,-1]],[[3383,3039],[-1,1]],[[270,2248],[37,-63]],[[308,2186],[-38,62]],[[307,2185],[1,-2],[1,0],[-1,3],[-1,-1]],[[309,2183],[4,-6]],[[313,2177],[-4,7]],[[313,2177],[27,-37]],[[340,2140],[12,-12]],[[352,2128],[28,-24]],[[380,2104],[1,-1]],[[382,2103],[-2,1]],[[382,2102],[1,0]],[[383,2102],[0,1]],[[383,2102],[10,-8]],[[424,2068],[154,-80]],[[381,2103],[0,-1],[1,0],[0,1],[-1,0]],[[2783,578],[-1,-1]],[[2783,577],[0,1]],[[2783,578],[8,-5]],[[2791,573],[0,-2]],[[2792,572],[-1,1]],[[2791,571],[1,-1]],[[2792,570],[1,1],[-1,1],[-1,-1]],[[2792,570],[2,-2]],[[2794,568],[-1,3]],[[2794,568],[13,-17]],[[2807,551],[0,-1]],[[2808,550],[-1,1]],[[2807,550],[0,-1],[1,0]],[[2808,549],[0,1],[-1,0]],[[2808,549],[1,-1]],[[2809,548],[-1,1]],[[2809,548],[5,3]],[[2781,577],[0,-1],[2,0],[-1,1],[-1,0]],[[2997,2891],[-1,7]],[[2995,2898],[2,-8]],[[2997,2890],[0,3]],[[2997,2890],[37,-34]],[[3018,2945],[-2,-1]],[[3025,2848],[2,-3]],[[3035,2943],[4,0]],[[3036,2856],[2,7]],[[3050,2906],[-12,-41]],[[2969,2833],[-4,-2]],[[2966,2831],[3,2]],[[2966,2894],[15,2]],[[2981,2896],[-6,0]],[[3086,2969],[1,1]],[[3086,2969],[3,-6]],[[3090,2964],[-3,6]],[[326,2471],[3,-5]],[[329,2466],[3,-6],[-4,-21],[-56,-54],[-16,-58],[0,-3]],[[257,2324],[15,61],[57,54],[3,21],[-3,6]],[[329,2466],[-10,16]],[[319,2482],[-6,10],[-8,2]],[[312,2485],[7,-3]],[[319,2482],[1,0]],[[3477,1603],[8,3]],[[3489,1607],[-4,-1]],[[3489,1607],[23,11]],[[3518,1627],[-6,-9]],[[3518,1627],[49,68]],[[3565,1712],[-3,102],[85,158],[7,80]],[[3565,1712],[2,-17]],[[3660,2106],[-2,-2]],[[3659,2104],[1,2]],[[3660,2106],[5,13]],[[3665,2119],[1,1]],[[3665,2120],[0,-1]],[[3666,2122],[-1,-1]],[[3666,2121],[0,1]],[[3666,2122],[8,20]],[[3674,2142],[1,1]],[[3674,2143],[0,-1]],[[3675,2145],[0,-1]],[[3675,2144],[0,1]],[[3675,2145],[4,9]],[[3679,2154],[1,2]],[[3679,2156],[0,-2]],[[3683,2159],[-3,-2]],[[3699,2169],[-1,-2]],[[3702,2170],[-2,0]],[[3701,2169],[1,1]],[[3702,2170],[7,4]],[[3709,2174],[3,1]],[[3712,2176],[-3,-2]],[[3715,2178],[-2,-1]],[[3714,2176],[1,2]],[[3715,2178],[381,118]],[[3666,2120],[0,1],[-1,0],[0,-1],[1,0]],[[3675,2143],[0,1],[-1,0],[1,-1]],[[3714,2177],[-2,0],[0,-1],[1,-1],[1,2]],[[3170,2761],[-18,-28]],[[3153,2733],[9,15]],[[3174,2641],[2,-17]],[[3176,2624],[-2,18]],[[3175,2622],[0,-3]],[[3175,2618],[1,4]],[[3176,2624],[-1,-2],[1,0],[1,1],[-1,1]],[[3153,2733],[-1,0],[-1,-1],[1,-1],[1,2]],[[3171,2760],[0,2]],[[3173,2645],[-1,-3],[2,0]],[[3174,2642],[1,2],[-2,1]],[[2874,3146],[36,-155]],[[2911,2980],[9,37],[-10,41],[-36,89]],[[2967,2894],[-5,-1]],[[2873,0],[-69,82],[-5,18],[-35,95],[-3,5],[42,-118],[69,-82]],[[3153,2769],[15,-9]],[[3169,2760],[-16,10]],[[3170,2759],[10,-13]],[[3181,2746],[-11,13]],[[3182,2744],[20,-18]],[[3202,2726],[-20,18]],[[3594,2194],[0,-2],[2,1],[0,2],[-2,-1]],[[2946,2892],[7,0]],[[2908,2896],[-5,27]],[[2549,397],[-35,-31],[-1,-2],[-12,-53],[-2,-85],[-6,-37]],[[2493,189],[-1,-5],[-30,-32]],[[2462,152],[-4,-4],[-1,-57]],[[2457,91],[1,57],[4,4]],[[2462,152],[31,37]],[[2493,189],[4,5],[17,170],[35,32]],[[2737,487],[-23,-29],[-135,-34],[-11,-10]],[[2568,414],[146,44],[23,29],[61,106],[-61,-105]],[[2909,2893],[8,0]],[[3238,2846]],[[3239,2846]],[[818,3587]],[[2962,2893],[-24,0]],[[3273,2508],[5,13]],[[3235,2470],[12,6]],[[3248,2476],[5,6]],[[3140,2779]],[[481,2624],[-81,-46]],[[400,2578],[-29,-16],[-24,-36]],[[348,2525],[24,36],[28,17]],[[400,2578],[72,42]],[[2568,3805],[22,-28]],[[2590,3777],[0,-1]],[[2590,3775],[0,2]],[[2590,3774],[1,0]],[[2591,3774],[0,1]],[[2700,3571],[-23,125],[-86,78]],[[2589,3774],[1,0]],[[2590,3774],[0,1]],[[2590,3775],[-1,0],[0,-1]],[[3654,2052],[3,48]],[[3657,2100],[2,3]],[[3658,2103],[-1,-3]],[[3077,2848],[22,-8]],[[3099,2840],[3,9]],[[3102,2849],[-3,-9]],[[3151,2962],[3,-9]],[[3155,2952],[-3,11]],[[3170,2759],[-1,1]],[[3180,2746],[2,-2]],[[3182,2744],[-1,2]],[[3580,2129],[16,61]],[[3595,2192],[1,-2]],[[3596,2190],[0,3]],[[3168,2760],[2,-1]],[[3098,2886],[8,0]],[[3124,2886],[-2,0]],[[3137,2884],[1,0],[0,1],[-1,0],[0,-1]],[[3159,2537],[2,-2]],[[3161,2535],[-1,2]],[[3263,2336],[2,17],[-6,8]],[[3259,2361],[-10,13]],[[3249,2374],[-10,14],[-32,7]],[[3210,2394],[39,-20]],[[3249,2374],[8,-4],[2,-9]],[[3259,2361],[4,-21]],[[3143,2958],[-10,-6]],[[3135,2953],[8,5]],[[3204,2469]],[[867,3713],[1,2]],[[3176,2542],[-9,-9]],[[3229,2540],[-5,0]],[[3236,2537],[-6,3]],[[3242,2532],[-6,4]],[[3249,2526],[-7,6]],[[3254,2483],[11,9]],[[3272,2506],[1,2]],[[3095,2950],[-5,14]],[[3095,2949],[-1,-6]],[[3094,2950],[0,-1]],[[226,2732],[-11,40],[-10,28],[20,-69]],[[225,2730],[14,-43]],[[239,2688],[-13,42]],[[239,2687],[19,-85]],[[258,2601],[0,28],[-1,6],[-17,52]],[[269,2252],[1,-4]],[[270,2248],[-1,4]],[[225,2732],[0,-2],[1,0],[0,2],[-1,0]],[[240,2688],[-1,0],[0,-1]],[[239,2687],[1,0]],[[240,2687],[0,1]],[[269,2253],[-1,-1],[1,0]],[[269,2252],[0,1]],[[3098,3176],[-22,-124]],[[3076,3052],[8,14],[15,110]],[[3098,3209],[0,-31]],[[3099,3178],[0,31]],[[3229,2430],[3,-16]],[[3016,2944],[-2,-3]],[[3014,2941],[-21,-34]],[[3001,2892],[-5,6]],[[2997,2916],[7,13],[10,12]],[[3014,2941],[1,2]],[[3036,2979],[-19,-33]],[[3018,2945],[19,34]],[[3021,2857],[-1,3]],[[3025,2848],[-1,2]],[[3029,2841],[-2,4]],[[3028,2843],[2,-6]],[[3036,2979],[3,0],[0,2],[-2,0],[-1,-2]],[[3046,2997],[-9,-15]],[[3038,2981],[1,3]],[[3041,2798],[3,0]],[[3042,2814]],[[3071,3044],[-5,-10]],[[3067,3033],[3,7]],[[3070,3040],[2,4]],[[3066,3033],[0,-1],[1,-1],[1,2],[-2,0]],[[143,2460],[-5,2],[-19,-9],[-15,-13],[-42,-12],[-24,-45],[-17,-142],[123,-46],[7,-27]],[[150,2171],[-6,25],[-122,45],[41,187],[41,12],[39,20]],[[815,3579],[-63,10]],[[3029,2841],[13,-27]],[[3036,2855],[11,-3]],[[3042,2814],[13,-28]],[[3055,2786],[4,1]],[[3055,2786],[4,-9]],[[3059,2777],[3,-7]],[[3063,2770],[-4,7]],[[3071,2753],[-1,2]],[[3074,2736],[1,-1]],[[3075,2735],[0,2]],[[3199,2529],[1,0]],[[3200,2530],[-1,0]],[[3200,2530],[8,8]],[[3200,2529],[0,1]],[[3206,2528],[-6,1]],[[3215,2535],[35,-10]],[[3265,2493],[-11,-10]],[[3266,2494],[5,9]],[[3273,2510],[-2,-4]],[[3265,2492],[1,1],[-1,0],[0,-1]],[[3272,2506],[-2,-1],[1,-2]],[[3271,2503],[2,1],[-1,2]],[[3135,2782],[3,-2]],[[3139,2780],[-3,3]],[[3140,2779],[10,-8]],[[3151,2771],[-11,8]],[[3152,2770],[1,-1]],[[3153,2770],[-1,0]],[[3066,2830],[2,-9]],[[3068,2821],[-18,-5],[18,4]],[[3076,2808],[11,2]],[[3086,2811],[-5,-2]],[[3087,2810],[1,0]],[[551,2651],[-1,-1]],[[551,2654],[1,3]],[[551,2657],[0,-3]],[[551,2651],[0,3]],[[551,2650],[0,1]],[[552,2660],[-1,-1]],[[552,2658],[0,2]],[[552,2660],[7,53]],[[743,3594],[80,31],[39,85],[158,28],[72,63],[-10,115],[22,81],[-68,99]],[[552,2659],[-1,-1],[0,-1],[2,1],[-1,1]],[[2647,397],[17,-2]],[[641,3211],[30,-132],[-113,-372]],[[3221,2879],[2,1]],[[3238,2879]],[[3238,2877],[1,-3]],[[3239,2874],[0,-1],[1,0],[0,1],[-1,0]],[[2074,551],[-33,-20],[-103,27],[-34,-3]],[[1904,554],[138,-24],[20,11]],[[2995,2898],[-3,-1]],[[3654,2050],[-2,1]],[[3666,2055],[-11,6]],[[2978,2837],[-1,1]],[[3011,2859],[1,1]],[[3018,2863],[-1,0]],[[3028,2843],[0,-2]],[[3307,3023],[2,1]],[[3309,3024],[-2,0]],[[3322,3027],[-13,-3]],[[3307,3023],[0,1],[-1,0],[0,-1],[1,0]],[[2510,4096],[-41,-102],[81,-182],[26,-40]],[[2576,3772],[1,-2]],[[2577,3770],[2,-4],[57,-43],[2,-22]],[[2638,3701],[9,-82]],[[2647,3619],[0,-6],[48,-56],[19,-111],[81,-106],[8,-68],[71,-126]],[[2874,3147],[-3,36],[-67,89],[-8,67],[-81,108],[-18,108],[-12,18],[-38,46]],[[2647,3619],[-1,1],[-8,81]],[[2638,3701],[-2,24],[-59,45]],[[2577,3770],[0,1],[-1,1]],[[2576,3772],[-25,40],[-2,11],[-10,24],[-69,148],[28,51],[10,25],[6,25]],[[2910,2991],[-6,-16]],[[2910,2977],[1,3]],[[2911,2981],[-7,-6]],[[2910,2977],[1,0]],[[3267,2546],[0,-1]],[[393,2094],[31,-26]],[[2938,2890],[8,2]],[[559,2713],[-1,4]],[[565,2726],[-6,-7]],[[559,2719],[-2,0],[0,-2],[2,0],[0,2]],[[565,2715],[-6,-5]],[[559,2718],[6,-2]],[[565,2726]],[[566,2717],[-1,9]],[[565,2716],[1,-1],[1,0],[0,2],[-2,-1]],[[650,2962],[-8,1]],[[642,2965],[8,-2]],[[652,3135],[8,1]],[[3285,1948],[4,3]],[[205,2800],[0,1]],[[643,2964],[0,-1],[-2,0],[1,2],[1,-1]],[[649,2963],[2,0],[0,-1],[-1,-1],[-1,2]],[[652,3134],[-1,2],[-3,-1],[1,-2],[3,1]],[[661,3138],[2,-3]],[[2905,968],[0,-1],[1,0],[0,1],[-1,0]],[[2913,981],[0,-1],[1,1],[-1,0]],[[3520,2727],[11,-55],[148,-30],[168,-93],[249,-121]],[[4096,2429],[-417,214],[-148,29],[-11,56]],[[2569,287],[-27,-44]],[[2542,243],[27,43]],[[3267,2545],[0,1]],[[315,2481],[-3,-3]],[[312,2477],[4,3]],[[320,2482],[6,-11]],[[320,2481],[8,-13]],[[327,2467],[5,-8]],[[3046,2823],[0,-2]],[[3046,2821],[0,2]],[[3053,2857],[-7,-34]],[[3053,2857],[-1,0]],[[3052,2857],[1,0]],[[3062,2770],[1,0]],[[3062,2770],[12,-34],[9,-18]],[[3084,2718],[-21,52]],[[3063,2772],[2,1]],[[3161,2535],[8,-14]],[[3170,2522],[-9,13]],[[3170,2520],[13,-18]],[[3183,2503],[-13,18]],[[3189,2503],[8,-10]],[[3197,2493],[0,-1],[1,1],[-1,0]],[[3170,2521],[-1,0]],[[3169,2521],[0,-1],[1,1]],[[3170,2521]],[[3184,2502],[-1,1],[0,-1]],[[3183,2502],[0,-1],[1,1]],[[3189,2503],[1,1],[-1,0],[0,-1]],[[3125,2793],[-2,-2]],[[3124,2790],[1,3]],[[3137,2812],[-12,-19]],[[2750,275],[-4,-128],[15,-86],[-7,-61]],[[2754,0],[8,62],[-12,214]],[[3263,2340],[-9,-321],[-60,-183],[21,-251],[-3,-12]],[[3212,1573],[-44,-144],[-9,-17],[-5,-6],[-2,-2]],[[3152,1404],[-2,-3],[-1,-3]],[[3149,1398],[-17,-33]],[[3132,1365],[-3,-7],[-38,-212],[-56,-143]],[[3035,1003],[-26,-68],[-1,0]],[[3008,935],[-111,-135],[-20,-99],[0,-1],[-4,-136]],[[2873,564],[0,-1],[-27,-58]],[[2846,505],[-65,-139],[-13,-30]],[[2769,336],[11,27],[66,142]],[[2846,505],[27,59]],[[2873,564],[2,5],[23,231],[109,131],[1,4]],[[3008,935],[27,68]],[[3035,1003],[57,143],[40,219]],[[3132,1365],[2,9],[10,19],[3,4],[2,1]],[[3149,1398],[2,3],[1,3]],[[3152,1404],[60,169]],[[3212,1573],[4,12],[0,18],[-21,234],[59,182],[12,99],[3,116],[-6,102]],[[3082,2869],[19,-5]],[[3085,2885],[13,1]],[[3105,2886],[-3,-21]],[[3108,2914],[5,-6]],[[2930,2888],[1,0]],[[3078,2895]],[[3112,2930],[2,2]],[[3204,2469]],[[3070,2851],[-11,5]],[[3062,2854],[8,-3]],[[3070,2851],[6,-3]],[[3074,2838],[6,-6]],[[3075,2840],[2,8]],[[3081,2833],[-6,6]],[[3122,2790],[-39,41]],[[3122,2790],[1,-1]],[[3123,2790],[-1,0]],[[3075,2839],[-1,1],[-1,-1],[1,-1]],[[3074,2838],[1,1]],[[3033,2736],[-18,19]],[[3277,2520],[-4,-10]],[[3277,2521],[0,-1]],[[3277,2520],[1,1],[-1,1],[0,-1]],[[3658,2104],[0,-1],[1,0],[0,1],[-1,0]],[[2973,2895],[19,-57]],[[3016,2945],[-8,6]],[[3021,2840],[6,1]],[[3028,2841],[0,2]],[[3029,2844],[7,12]],[[3062,2855],[0,-1]],[[3104,2865],[18,21]],[[3122,2886]],[[3122,2886],[54,-4]],[[3148,2884],[-24,2]],[[3176,2882],[-9,1]],[[3236,2885],[1,13],[-18,37]],[[3219,2880],[9,2]],[[3221,2931],[14,-46]],[[3228,2882],[8,3]],[[2904,2975],[3,-7]],[[2910,2972],[0,5]],[[3516,2742],[-10,-4]],[[3050,2722],[1,0],[0,1],[-1,0],[0,-1]],[[3099,2840],[7,-5]],[[3108,2834],[29,-22]],[[818,3587],[49,126]],[[1134,3917],[-8,-5]],[[1184,3996],[64,14]],[[3202,2726],[96,-89],[12,-18],[6,-8]],[[3316,2611],[6,-7]],[[3322,2604],[-3,3],[-3,4]],[[3316,2611],[-18,26],[-96,89]],[[3357,2556],[237,-362]],[[3596,2195],[-38,60],[-1,0],[-200,302]],[[312,2478],[-10,-8]],[[304,2469],[8,8]],[[2953,2892],[9,1]],[[3125,2897],[-1,0]],[[3125,2897]],[[3125,2897],[33,27]],[[3158,2924],[38,26],[25,-19]],[[3213,2946],[-1,1],[-16,4],[-5,-2],[-26,-16],[-7,-9]],[[3219,2935],[-6,11]],[[3234,2885],[2,0]],[[3237,2885],[-1,1]],[[230,2442],[-25,5]],[[205,2447],[15,-3],[3,-1]],[[223,2443],[7,-2]],[[217,2455],[-3,-8]],[[215,2444],[8,-1]],[[223,2443],[1,0]],[[216,2446],[2,9]],[[224,2443],[-8,3]],[[230,2485],[-12,-29]],[[218,2456],[14,32]],[[236,2493],[6,-3]],[[242,2491],[-6,2]],[[248,2508],[-5,-17]],[[243,2491],[6,16]],[[243,2491],[-1,0]],[[242,2491],[1,-1],[1,0],[-1,1]],[[245,2506],[3,3]],[[257,2429],[1,-2]],[[263,2434],[-5,-5]],[[259,2428],[5,5]],[[275,2445],[-11,-10]],[[265,2434],[10,9]],[[291,2459],[-16,-14]],[[276,2444],[16,14]],[[302,2470],[-11,-10]],[[292,2459],[8,7]],[[300,2466],[4,3]],[[299,2467],[1,-1]],[[300,2466]],[[303,2468],[-2,1]],[[2965,2846],[-4,5]],[[2963,2848],[13,-11]],[[2977,2838],[-7,6]],[[2975,2952],[0,1]],[[2975,2953],[1,5]],[[2976,2958],[2,9],[2,7]],[[3037,2813],[-62,8]],[[2975,2953]],[[2975,2953],[3,2]],[[2975,2820],[18,-3]],[[2981,2915],[-5,-17]],[[2979,2974],[-3,-16]],[[2999,2951],[-21,5],[-1,1]],[[2977,2957],[-1,1]],[[2976,2958],[0,1]],[[2976,2897],[5,18]],[[2977,2954],[0,3]],[[2977,2957],[1,0]],[[2981,2915],[13,37]],[[2986,2843],[1,0]],[[2992,2827],[19,0],[10,12]],[[3020,2839],[-9,-11],[-19,0]],[[2993,2829],[-1,-1]],[[2993,2829],[-1,7]],[[2993,2828],[0,1]],[[2997,2893],[-4,13]],[[2994,2952]],[[2995,2897]],[[3001,2796],[-5,-8]],[[2997,2788],[5,8]],[[3002,2889],[-1,3]],[[3010,2811],[-9,-14]],[[3002,2797],[9,16]],[[3007,2951],[-2,0]],[[3008,2951],[-1,1]],[[3009,2858],[1,0]],[[3010,2814],[27,-1]],[[3012,2859],[-1,0]],[[3016,2944]],[[3021,2840]],[[3021,2840]],[[3025,2850]],[[3033,2773],[0,-10]],[[3033,2763],[0,10]],[[3034,2799],[7,-1]],[[3040,2820],[-5,0]],[[3035,2819],[6,0]],[[3050,2816],[-13,-3]],[[3106,2996],[-67,-15]],[[3039,2984],[14,25]],[[3063,2804],[-19,-6]],[[3046,2822],[-1,-2]],[[3052,3010],[-6,-13]],[[3048,2888]],[[3055,2958],[-1,0]],[[3054,2958],[-1,0]],[[3053,2958],[1,0]],[[3054,2958],[1,0]],[[3065,3032],[-10,-20]],[[3055,3012],[11,19]],[[3063,2852],[-2,-5]],[[3067,2774],[-6,0]],[[3063,2860],[-1,-2]],[[3064,2873],[-1,-13]],[[3063,2854],[0,6]],[[3063,2804],[13,4]],[[3081,2809],[-18,-5]],[[3063,2846],[1,1]],[[3064,2846],[2,-14]],[[3064,2847],[0,1]],[[3064,2847],[0,-1]],[[3064,2873],[5,17]],[[3064,2848],[1,3]],[[3064,2846],[0,2]],[[3066,2832],[-2,14]],[[3065,2985],[17,5],[24,5]],[[3065,2773],[15,-2]],[[3066,2830],[0,2]],[[3067,3031],[0,-14],[4,-10]],[[3067,3025],[0,6]],[[3072,3007],[-5,17]],[[3069,2822],[-1,-1]],[[3068,2820],[1,2]],[[3069,2822],[2,7]],[[3069,2754],[1,-2]],[[3071,2829],[3,9]],[[3073,2839],[-2,-10]],[[3075,3050],[-4,-6]],[[3071,3005],[7,-14]],[[3072,3044],[0,1]],[[3078,2991],[-6,15]],[[3073,3045],[2,5]],[[3076,2848],[-3,-8]],[[3078,2895],[4,4]],[[3080,2771],[6,-2]],[[3098,2770],[-18,1]],[[3080,2988],[0,1]],[[3089,2993],[-9,-2]],[[3080,2990],[9,1]],[[3083,2979],[3,-7]],[[3086,2972],[0,-2]],[[3087,2971],[-1,1]],[[3089,2963],[5,-13]],[[3090,2768],[7,2]],[[3095,2769],[-2,1]],[[3093,2768],[2,1]],[[3093,2940],[1,3]],[[3094,2949],[1,-2]],[[3122,2789],[0,-1]],[[3124,2895],[-1,2]],[[3124,2895],[-1,-8],[-2,-10],[2,10],[1,8]],[[3124,2896],[1,1]],[[3129,2991],[22,-29]],[[3152,2963],[-22,28]],[[3146,2865],[2,0]],[[3167,2876],[-20,-10]],[[3147,2866],[-1,-1]],[[3148,2883],[0,1]],[[3167,2533]],[[3168,2533],[9,8]],[[3168,2882],[0,-1]],[[3183,2501],[9,-12]],[[3192,2490],[-8,12]],[[3191,2950],[-1,-1]],[[3192,2954],[0,-1]],[[3203,2980],[-11,-26]],[[3193,2953],[-1,1]],[[3193,2488],[10,-18]],[[3193,2948],[1,-3]],[[3203,2470],[-10,18]],[[3195,2945],[0,3]],[[3195,2943],[2,-2]],[[3197,2941],[-2,2]],[[3197,2951],[-1,1]],[[3202,2931],[-5,10]],[[3207,2539],[-7,-9]],[[3202,2931],[2,-3]],[[3203,2980],[2,1]],[[3204,2982],[-1,-2]],[[3208,2921],[-4,7]],[[3204,2469],[8,-14]],[[3206,2559],[17,2]],[[3223,2561],[-15,-2]],[[3208,2921],[2,-3]],[[3233,2897],[-23,21]],[[3223,2540],[-9,-4]],[[3219,2446],[-3,4]],[[3225,2879],[-2,1]],[[3224,2560],[16,-9]],[[3240,2551],[-16,10]],[[3228,2882],[1,-1]],[[3231,2881],[1,3]],[[3233,2884],[1,-1]],[[3236,2898],[-3,-1]],[[3233,2897],[2,-1]],[[3237,2898],[0,1]],[[3239,2861],[0,3]],[[3239,2865],[1,8]],[[3240,2874],[1,5]],[[3240,2551],[0,-1],[1,0]],[[3241,2550],[0,1],[-1,0]],[[3241,2550],[17,-2]],[[3258,2549],[-17,1]],[[3250,2525],[-1,1]],[[3249,2524],[1,-10]],[[3250,2513],[0,-6]],[[3250,2514],[0,11]],[[3250,2507],[0,6]],[[3250,2506],[15,-13]],[[3265,2493],[-14,13]],[[3260,2548],[7,-3]],[[3267,2546],[-7,3]],[[218,2455],[0,1],[-1,0],[0,-1],[1,0]],[[265,2434],[0,1],[-1,0],[0,-2],[1,1]],[[276,2444],[0,1],[-1,0],[0,-1],[1,0]],[[292,2458],[0,2],[-1,0],[0,-2],[1,0]],[[2995,2788],[1,-2],[1,1],[0,1],[-2,0]],[[3001,2796],[1,0],[0,1],[-1,0],[0,-1]],[[3035,2820],[-1,0],[1,-1],[0,1]],[[3070,3007],[1,-1],[1,0],[0,1],[-2,0]],[[3115,2798],[1,-1]],[[3191,2949],[4,-1],[1,4]],[[3196,2952],[-4,1],[-1,-4]],[[3192,2490],[0,-1],[1,-1]],[[3193,2488],[-1,2]],[[3223,2562],[0,-1],[1,-1],[0,1],[-1,1]],[[3236,2894],[1,4]],[[3250,2507],[0,-1]],[[3250,2506],[1,1],[-1,0]],[[3258,2549],[1,-1],[1,1],[-1,0],[-1,0]],[[3177,2543]],[[3177,2543]],[[3181,2545],[-3,-2]],[[3178,2542],[4,4]],[[3208,2539],[0,1],[0,-2],[0,1]],[[3208,2539],[5,-3]],[[3214,2536],[-6,3]],[[3213,2536],[2,-1],[-1,1],[-1,0]],[[3178,2542],[-1,1],[-1,-1],[1,-1],[1,1]],[[3205,2528],[2,0]],[[3511,2736],[4,-4]],[[3516,2732],[-5,4]],[[3076,2715],[17,20]],[[3153,2802],[11,12]],[[3164,2814],[2,2],[10,65],[-1,8],[-10,31],[-2,11],[-8,21]],[[3154,2953],[22,-69],[-7,-30],[-3,-36],[-2,-4]],[[3164,2814],[-4,-9]],[[0,2991],[25,-14],[116,-127]],[[3070,2752],[1,1]],[[3132,2784],[3,-2]],[[3136,2783],[-3,1]],[[3138,2780],[2,-1]],[[3140,2779],[-1,1]],[[3150,2771],[2,-1]],[[3152,2770],[-1,1]],[[2542,243],[-50,-59]],[[2492,184],[50,59]],[[3107,3277],[-3,-13]],[[3104,3264],[3,13]],[[3034,2856],[-1,-2]],[[3035,2859],[-1,-2]],[[3075,2737],[-1,-1]],[[3075,2735]],[[2992,2897]],[[3047,2887],[6,2]],[[3049,2892]],[[3084,2885],[1,0]],[[785,3504],[24,30]],[[811,3540],[-2,-4]],[[811,3540],[1,1]],[[812,3541],[-1,-1]],[[812,3542],[0,-1]],[[812,3541]],[[812,3541]],[[812,3541],[1,-1]],[[812,3542],[5,36]],[[812,3541],[0,1]],[[813,3540],[-1,1]],[[813,3540],[29,-5],[61,-106],[93,-62],[196,-261],[28,-93],[161,-119]],[[816,3579]],[[817,3578]],[[817,3578],[0,1]],[[1382,2893],[46,-97]],[[1428,2796],[0,-2]],[[1428,2793],[1,-2]],[[1429,2794],[-1,2]],[[1429,2791],[0,2]],[[1429,2791],[1,-6]],[[1430,2785],[-1,-2]],[[1429,2782],[1,0]],[[1430,2783],[0,2]],[[817,3579],[-1,0]],[[816,3579],[1,-1]],[[817,3578],[0,1]],[[1381,2894],[1,-1],[0,1],[-1,0]],[[1429,2792],[1,2],[-1,0],[-1,-1],[1,-1]],[[1429,2783],[0,-1],[1,0]],[[1430,2782],[0,1]],[[1430,2783],[-1,0]],[[3123,2789],[9,-5]],[[3124,2789],[-1,1]],[[3132,2785],[-8,4]],[[2074,4096],[406,-327]],[[2480,3769],[12,-3]],[[2492,3766],[69,45]],[[202,2448],[-59,12]],[[143,2460],[59,-12]],[[154,2157],[-4,14]],[[151,2168],[2,-10]],[[3170,2760],[1,0]],[[3047,2852],[4,-1]],[[3081,2832],[0,1]],[[3081,2832],[0,1]],[[3081,2833],[-1,0],[0,-1],[1,0]],[[3101,2812],[2,-2]],[[3108,2805],[1,-1]],[[684,3087],[-21,48]],[[2975,2896],[-8,-2]],[[2981,2896],[11,1]],[[2993,2907],[2,-9]],[[3205,2983],[-1,-1]],[[3188,2515],[1,0],[0,1],[-1,0],[0,-1]],[[3188,2515],[1,-11]],[[3199,2529],[-10,-13]],[[3199,2530],[0,-1]],[[3204,2469]],[[3681,2157],[19,11]],[[3680,2156],[1,0],[-1,1],[-1,-1],[1,0]],[[3700,2170],[-1,-1],[1,-1]],[[3700,2168],[1,1],[-1,1]],[[3216,2450],[-12,19]],[[3212,2455],[11,-16]],[[3223,2440],[-4,6]],[[3070,3040]],[[3091,2611],[66,-71]],[[3158,2540],[-66,71]],[[346,2857],[-64,-23],[-69,12]],[[542,2874],[-195,-17]],[[564,2895],[-19,-20]],[[250,2508],[62,-23]],[[305,2494],[-55,15]],[[3051,2909],[2,0]],[[3053,2909]],[[3051,2910],[2,-1]],[[3053,2909],[2,-1]],[[3220,2881],[-44,1]],[[3176,2882],[26,-1]],[[196,2824],[-40,-2],[-67,-85],[-49,-5],[-36,-45],[-4,-2]],[[566,2900],[42,66],[-68,206],[17,103],[33,43],[83,24]],[[3234,2415],[0,14]],[[233,2493],[-3,-8]],[[232,2488],[2,5]],[[248,2509],[-14,-15]],[[234,2493],[2,0]],[[235,2494],[10,12]],[[236,2493],[-1,1]],[[2554,330],[0,-1]],[[2562,352],[-8,-22]],[[2555,329],[1,-14]],[[2555,330],[8,22]],[[2557,315],[-2,14]],[[2556,329],[0,1]],[[2556,314],[2,0]],[[2562,353]],[[2563,354],[6,9]],[[2563,352],[1,1]],[[2564,353],[5,9]],[[2584,375],[-14,-12]],[[2570,363],[7,6]],[[2590,380],[1,0]],[[2591,380],[1,0]],[[2601,396],[-10,-14]],[[2592,380],[18,-2]],[[2592,381],[10,15]],[[2610,379],[-18,2]],[[2603,397],[12,1]],[[2615,399],[-12,-2]],[[2611,378],[26,-12]],[[2616,398],[12,1]],[[2628,400],[-12,-1]],[[2637,366],[-9,7],[-6,2]],[[2630,399],[14,-1]],[[2644,398],[-14,1]],[[2637,366],[0,-1]],[[2637,365],[1,1]],[[2644,397]],[[2645,397],[0,1]],[[2894,2953],[0,-1]],[[2898,2958],[-3,-25]],[[2895,2932],[7,-9]],[[2895,2934],[3,25]],[[2896,2933],[-1,1]],[[2895,2934],[0,-1],[0,-1]],[[2895,2932],[1,1]],[[2902,2924],[-6,9]],[[2902,2923],[4,-26]],[[2906,2897],[1,-2]],[[2907,2895],[4,-4]],[[2911,2892],[-4,3]],[[2961,2847],[2,1]],[[2975,2953],[-10,-45],[-3,-35]],[[2963,2877],[12,75]],[[2967,2822],[8,-2]],[[2975,2821],[-8,1]],[[2976,2957],[-1,-4]],[[2976,2958],[-1,-5]],[[2975,2953]],[[2979,2976],[0,-2]],[[2980,2974],[0,2]],[[3067,3024],[0,1]],[[3076,3052],[-1,-2]],[[3075,3050],[1,2]],[[3097,2770],[3,1]],[[3100,2771],[-2,-1]],[[3100,2771],[21,14]],[[3121,2785],[2,4]],[[3122,2788],[-1,-3]],[[3124,2789]],[[3172,2607],[-6,-28]],[[3167,2579],[5,28]],[[3208,2559],[-12,-1]],[[3196,2557],[10,2]],[[3238,2845],[0,-8]],[[3239,2837],[0,8]],[[3267,2546]],[[3268,2545],[9,-24]],[[3277,2522],[-9,23]],[[234,2493],[1,1],[-1,0],[-1,-1]],[[233,2493],[1,0]],[[2569,362],[1,1]],[[2570,363],[-1,0],[0,-1]],[[2603,397],[-1,1],[-1,-1],[2,-1],[0,1]],[[2616,399],[-1,1],[0,-1]],[[2615,399],[1,-1],[0,1]],[[2629,398],[1,2],[-1,1],[-1,-2]],[[2628,399],[1,-1]],[[2903,2924]],[[2911,2892],[0,-1],[2,0],[-1,1],[-1,0]],[[3135,2953],[2,2]],[[249,2511],[0,-1]],[[250,2510],[0,1]],[[250,2508],[0,1],[-1,1],[-1,-2],[2,0]],[[205,2800],[3,53],[-59,3],[-21,-64],[-128,-80]],[[252,2688],[-12,-1]],[[241,2681],[11,7]],[[406,2595],[-113,93],[-41,0]],[[2930,2910],[-20,61]],[[2913,2953],[11,-59]],[[2925,2840],[0,-11],[34,-1],[4,-18],[2,-2],[31,-34]],[[2929,2869],[-2,-16]],[[2932,2831],[-2,51]],[[2996,2774],[-31,34],[-2,16],[-4,8],[-5,0]],[[3034,2734],[11,-11],[11,-6],[19,-4]],[[3070,2714],[-35,20]],[[2457,154],[-33,-36]],[[2427,117],[35,33]],[[3237,2416],[26,-76]],[[3263,2336],[5,42],[-28,39]],[[3238,2879],[0,-2]],[[3240,2417],[-17,23]],[[3225,2436],[12,-20]],[[3237,2894],[16,0]],[[3253,2898],[-16,0]],[[202,2448],[3,-1]],[[205,2447],[-3,1]],[[2556,330],[-2,0]],[[2562,353],[1,-1]],[[2577,369],[14,11]],[[2644,397],[3,0]],[[3306,2856],[-5,2]],[[510,3698],[-27,107],[-170,130],[-252,151],[-61,-4]],[[2900,3035],[-1,21]],[[2907,2968],[6,-15]],[[2924,2894],[5,-25]],[[2927,2853],[-2,-13]],[[2930,2882],[0,28]],[[2954,2832],[-22,-1]],[[3652,2051],[-29,8],[-43,70]],[[4035,1775],[-100,80],[-39,67],[-137,98]],[[4039,1771],[-4,4]],[[4042,1767],[-3,4]],[[4042,1767],[1,-7]],[[4085,1714],[-42,46]],[[2990,2981],[-79,0]],[[2911,2977],[79,4]],[[2993,2907],[4,9]],[[2996,2898],[-3,8]],[[3015,2943],[2,1]],[[3037,2863],[-2,-4]],[[2785,385],[6,3]],[[2791,388],[14,5],[96,48],[29,11],[55,-18],[40,-6],[122,-5],[80,15],[159,97],[5,4],[44,71],[114,30],[16,21]],[[3563,659],[-128,-48],[-50,-76],[-159,-97],[-201,-10],[-95,25],[-29,-11],[-110,-54]],[[2974,2893],[0,1]],[[2977,2860],[-1,5]],[[2989,2845],[-1,0]],[[3036,2856],[-2,-1]],[[3082,2869],[-38,10]],[[3102,2865],[1,0]],[[3105,2864],[32,-3]],[[3138,2860],[29,16],[2,5]],[[3146,2865],[-8,-4]],[[3167,2883],[-19,0]],[[3167,2883],[2,-1]],[[3137,2859],[1,0],[0,2],[-1,0],[0,-2]],[[550,2650],[0,-2],[2,1],[-1,1],[-1,0]],[[195,2843],[12,0]],[[2978,2955],[29,-4]],[[3203,2982],[-49,-29]],[[3155,2952],[52,32]],[[3357,2557],[-22,33],[-11,11]],[[3324,2601],[-2,3]],[[3322,2604],[2,-3]],[[3324,2601],[13,-15],[20,-30]],[[2996,2774],[19,-19],[-19,19]],[[3035,2734],[-1,0]],[[3297,2859],[85,-79],[3,-1]],[[3385,2779],[60,-21]],[[3445,2758],[46,-17],[20,-5]],[[3511,2736],[-12,3],[-54,19]],[[3445,2758],[-58,19],[-2,2]],[[3385,2779],[-46,59],[-42,21]],[[1385,2768],[-9,-15],[98,-230],[-18,-84],[-1,-10],[49,-75],[-48,75],[18,93],[-87,245]],[[1552,1987],[4,51],[-1,19],[-3,-70]],[[347,2526],[-32,-45]],[[316,2480],[32,45]],[[2996,2898],[-1,0]],[[258,2427],[-1,2]],[[2992,2897],[4,1]],[[3032,2964],[-4,1]],[[3029,2965],[3,-1]],[[3046,2959],[-14,5]],[[3039,2980],[12,1]],[[2116,135],[-16,42],[14,-46]],[[2274,42],[34,9]],[[2306,51],[-32,-9]],[[2370,68],[62,-16]],[[2432,53],[-61,15]],[[2899,3068],[-6,17]],[[2899,3056],[0,11]],[[2899,3068],[-1,0],[0,-1],[1,0],[0,1]],[[3412,2868],[-46,-80]],[[3367,2787],[19,21],[21,36],[7,21]],[[3053,2610],[18,-142],[64,-62],[75,-12]],[[3207,2395],[-72,12],[-46,45],[-35,158]],[[4096,3245],[-48,11],[-215,-75],[-301,-135],[-182,13],[-36,-19]],[[3315,3039],[36,19],[58,-16],[124,3],[298,135],[167,46],[49,29],[49,-11]],[[2554,329],[2,0]],[[2564,353],[-2,0]],[[2592,380],[-8,-5]],[[2622,375],[-11,3]],[[2647,398],[-3,-1]],[[560,2728],[35,174],[76,106],[13,79]],[[256,2324],[12,-71]],[[269,2253],[-12,71]],[[3515,2732],[5,-5]],[[3520,2728],[-4,4]],[[3124,2790]],[[3133,2784],[-1,1]],[[2981,2987],[-2,-10]],[[2980,2977],[2,10]],[[2994,3016],[-12,-28]],[[2983,2988],[11,28]],[[3011,3028],[-16,-11]],[[2995,3017],[17,10]],[[3063,3054],[-50,-25]],[[3014,3028],[48,25]],[[3079,3063],[-15,-8]],[[3065,3054],[15,8]],[[3079,3063],[5,0]],[[3083,3062],[18,-6]],[[3102,3056],[-18,7]],[[3102,3055],[0,1],[-1,0],[1,-1]],[[3102,3055],[8,-20]],[[3111,3035],[-9,20]],[[3208,2990],[-29,-6]],[[3179,2984],[0,-1],[-8,12]],[[3171,2995],[-14,19],[-10,3]],[[3147,3016],[10,-2],[14,-19]],[[3171,2995],[8,-11]],[[3179,2984],[1,-1],[28,7]],[[3208,2990],[11,3]],[[3232,2995],[-13,-2]],[[3219,2993],[22,4]],[[2980,2976],[1,0],[-1,1],[-1,0],[1,-1]],[[2982,2987],[1,0],[-1,1],[-1,0],[1,-1]],[[2994,3016],[1,0],[0,1],[-1,0],[0,-1]],[[3012,3027],[1,0],[1,2],[-2,0],[0,-2]],[[4096,4096],[0,-4096],[-1861,0],[-56,53],[-8,4],[-23,12],[-198,14],[-52,13],[-44,47],[-36,145],[-31,70],[-40,69],[-19,68],[14,65],[54,60],[53,28],[109,39],[39,33],[30,85],[-24,153],[16,87],[98,86],[54,-4],[182,-14],[83,109],[-56,-39],[-74,-30],[-74,-2],[-54,48],[-7,-3],[-117,-46],[-54,-41],[-23,-77],[17,-221],[-17,-41],[-103,-1],[-83,108],[-94,243],[-65,114],[-83,88],[-715,518],[-77,42],[-68,18],[-50,22],[-120,100],[-59,28],[-57,28],[-52,82],[-20,96],[20,46],[35,29],[101,153],[33,65],[-148,-167],[-80,-58],[-92,0],[0,-22],[64,-99],[31,-64],[4,-39],[-38,-5],[-256,126],[-5,2],[0,1873],[4096,0]],[[2960,2852],[18,122],[57,7],[28,74],[83,-35],[8,-57],[66,26],[32,-19],[16,-22],[-18,-21],[59,-48],[-12,-20],[-34,14],[-11,-33],[-125,-47],[-44,-34],[14,-33],[-20,-12],[-45,21],[-9,-55],[-29,22],[2,73],[-36,77]],[[3252,2840],[-25,12],[-7,-19],[3,-2],[29,9]],[[3125,2917],[1,-18],[15,9],[-10,11],[-6,-2]],[[3175,2870],[12,-19],[-5,-23],[12,50],[-19,-8]],[[3116,2942],[34,20],[-2,21],[-10,4],[-22,-45]],[[3125,2889],[50,-5],[-14,41],[-17,-17],[-19,-11],[0,-8]],[[3101,2817],[13,-13],[12,15],[-8,6],[-17,-8]],[[3209,2840],[11,-7],[9,32],[10,0],[-1,14],[-29,-39]],[[3108,2957],[5,-13],[21,45],[-14,-3],[-12,-29]],[[3167,2916],[3,-5],[3,-13],[11,17],[-17,1]],[[3207,2873],[4,-1],[-1,-4],[8,-1],[0,5],[1,0],[1,7],[-13,-6]],[[3208,2899],[5,-18],[9,1],[-8,19],[-6,-2]],[[3067,3024],[13,-5],[2,23],[-12,-2],[-3,-16]],[[3114,2803],[11,-10],[11,19],[-10,6],[-12,-15]],[[3196,2871],[1,-21],[11,-10],[9,26],[-21,5]],[[3056,3023],[12,16],[-5,6],[-2,-2],[-5,-20]],[[3139,2988],[10,-4],[-2,13],[-1,0],[-7,-9]],[[3131,2801],[6,-4],[5,8],[-6,4],[-5,-8]],[[1977,881],[28,193],[132,45],[36,-96],[-46,-81],[10,-41],[-30,-12],[-46,30],[-34,-125],[-39,35],[-11,52]],[[1337,1552],[24,66],[60,130],[31,-27],[-86,-191],[-29,22]],[[1196,2068],[1,38],[138,-39],[239,-124],[-35,-25],[-225,119],[-118,31]],[[2366,0],[15,25],[175,-21],[-13,-4],[-177,0]],[[1868,613],[141,103],[14,43],[28,-37],[37,9],[-9,-57],[-30,8],[8,-28],[-9,-17],[-21,18],[-13,-55],[-30,21],[-3,-25],[-29,15],[-22,-34],[-62,36]],[[2366,0],[15,25],[175,-21],[-13,-4],[-177,0]],[[2211,2371],[32,115],[-9,21],[-16,-16],[21,22],[-17,70],[39,21],[-19,47],[21,-5],[36,46],[34,124],[-36,50],[33,-21],[-4,95],[39,58],[-12,86],[25,128],[-32,121],[23,69],[16,-103],[-19,-10],[29,-99],[34,34],[2,-5],[-49,-82],[4,-109],[-43,-109],[11,-112],[-67,-199],[-39,-33],[21,-95],[-41,-73],[44,-34],[-6,-44],[46,14],[-11,-49],[27,-37],[25,10],[-17,-11],[41,-55],[-50,2],[27,6],[-45,73],[-98,89]],[[1912,184],[20,48],[147,-6],[32,-87],[-14,-45],[50,8],[50,-38],[-36,-13],[-42,25],[-65,-30],[-28,52],[-98,45],[-16,41]],[[4078,2012],[18,49],[0,-56],[-18,7]],[[2235,0],[-26,24],[298,81],[-23,-105],[-249,0]],[[2580,130],[31,72],[-58,118],[-5,94],[71,-2],[155,-79],[-61,-146],[-51,-49],[-82,-8]],[[2063,698],[-15,-36],[-50,-4],[-32,-81],[-116,-6],[-14,-35],[-52,70],[205,103],[74,111],[64,-81],[-64,-41]],[[2137,166],[-63,-92],[-176,22],[-54,87],[91,89],[55,8],[170,-69],[-23,-45]],[[484,2275],[43,-51],[-58,-178],[-66,32],[-52,82],[-20,96],[14,33],[139,-14]],[[299,2100],[-38,-5],[-110,54],[-8,316],[-22,61],[65,81],[60,5],[102,-86],[-14,-171],[-42,-31],[-92,0],[99,-224]],[[3227,3419],[33,-284],[162,-284],[93,-51],[4,-71],[-65,-41],[-88,100],[-153,31],[-46,-26],[-36,-64],[27,-97],[50,-39],[149,14],[0,-61],[-65,-102],[-237,166],[-86,-3],[-49,-50],[-43,-132],[-70,-21],[-33,81],[65,41],[0,122],[26,7],[71,-48],[-4,105],[-61,17],[0,81],[-67,59],[3,63],[69,3],[35,38],[-7,81],[-65,40],[13,42],[84,40],[33,81],[226,0],[-29,66],[-91,-9],[-42,24],[20,57],[46,22],[128,2]],[[3391,2632],[57,123],[72,-25],[-6,-62],[-63,-5],[-11,-49],[-41,-6],[-8,24]],[[1367,1525],[214,425],[42,-26],[8,33],[204,32],[7,-79],[-46,-40],[24,-102],[124,-38],[268,0],[-43,-184],[31,-6],[-6,-22],[51,9],[25,-73],[-22,-20],[-56,17],[-32,-35],[0,-92],[66,-55],[-19,-114],[-174,-38],[-41,-39],[-37,-174],[31,-185],[-109,-37],[-119,49],[-78,269],[-280,336],[86,94],[-119,95]],[[1652,1960],[22,102],[-12,134],[76,80],[18,64],[93,10],[3,49],[32,23],[45,-75],[32,-4],[41,113],[34,-25],[-32,60],[26,71],[-145,143],[152,-142],[-27,-67],[73,-127],[-84,-100],[-21,-106],[84,14],[83,-78],[-22,-94],[-31,-21],[0,-80],[-140,-48],[-69,-108],[-65,23],[-21,100],[46,39],[-8,80],[-183,-30]],[[3131,2432],[20,10],[-13,14],[27,6],[-5,-22],[14,34],[22,-3],[-59,52],[88,45],[41,-14],[18,-111],[-48,14],[10,-38],[-48,-17],[-5,37],[-62,-7]],[[198,2442],[51,69],[53,-12],[29,-40],[-47,-67],[-72,-6],[-14,56]],[[2787,2712],[17,44],[41,-12],[28,38],[33,-13],[13,-70],[-17,-31],[-34,63],[-22,-8],[12,-25],[-71,14]],[[678,2063],[277,296],[80,-42],[-50,-66],[5,-89],[112,122],[20,-31],[229,-113],[-32,-68],[-123,35],[10,-54],[107,-17],[241,-123],[-15,-26],[-162,75],[-41,-165],[77,-64],[-100,-218],[-590,378],[20,25],[-38,17],[-27,128]]]}