{"objects":{"water":{"type":"GeometryCollection","geometries":[{"type":"Polygon","properties":{"source":"naturalearthdata.com","kind":"ocean","area":1576712559132672,"sort_rank":200,"min_zoom":0.0,"id":1},"arcs":[[107]]},{"type":"LineString","properties":{"source":"naturalearthdata.com","kind":"ocean","sort_rank":205,"boundary":true,"min_zoom":0.0,"id":52},"arcs":[108]}]},"buildings":{"type":"GeometryCollection","geometries":[]},"places":{"type":"GeometryCollection","geometries":[{"type":"Point","properties":{"name:pt":"Abec\u00e1sia","name:cy":"Abchasia","name:ko":"\uc555\ud558\uc2a4 \uacf5\ud654\uad6d","name:cv":"\u0410\u0431\u0445\u0430\u0437\u0438","name:cu":"\u0410\u0431\u0445\u0430\ua641\u0457\ua657","name:cs":"Abch\u00e1zie","name:tt":"Abxaz\u00eda","name:kv":"\u0410\u0431\u0445\u0430\u0437\u0438\u044f","name:ku":"Abxazya","name:ro":"Abhazia","name:rw":"Abukaziya","name:tl":"Abkasya","name:sv":"Abchazien","name:os":"\u0410\u0431\u0445\u0430\u0437\u0438","name:or":"\u0b06\u0b2c\u0b3e\u0b16\u0b3e\u0b1c\u0b3f\u0b06","name:ce":"\u0410\u0431\u0445\u0430\u0437\u0438","name:ta":"\u0b85\u0baa\u0bcd\u0b95\u0bbe\u0b9a\u0bbf\u0baf\u0bbe","name:ca":"Abkh\u00e0zia","name:te":"\u0c05\u0c2c\u0c4d\u200c\u0c16\u0c1c\u0c3f\u0c2f\u0c3e","name:vi":"Abkhazia","name:ka":"\u10d0\u10e4\u10ee\u10d0\u10d6\u10d4\u10d7\u10d8","name:da":"Abkhasien","name:fr":"Abkhazie","name:de":"Abchasien","source":"openstreetmap.org","name:yo":"Abkhez","name:pa":"\u0a05\u0a2c\u0a16\u0a3c\u0a3e\u0a1c\u0a3c\u0a40\u0a06","name:lv":"Abh\u0101zija","name:lt":"Abchazija","name:uz":"Abxaziya","name:kk":"\u0410\u0431\u0445\u0430\u0437\u0438\u044f","name:he":"\u05d0\u05d1\u05d7\u05d6\u05d9\u05d4","kind":"country","name:ur":"\u0627\u0628\u062e\u0627\u0632\u064a\u0627","name:la":"Abasci","official_name":"\u0420\u0435\u0441\u043f\u0443\u0431\u043b\u0438\u043a\u0430 \u0410\u0431\u0445\u0430\u0437\u0438\u044f - \u0410\u04a7\u0441\u043d\u044b \u0410\u04b3\u04d9\u044b\u043d\u04ad\u049b\u0430\u0440\u0440\u0430","name:uk":"\u0410\u0431\u0445\u0430\u0437\u0456\u044f","name:hy":"\u0531\u0562\u056d\u0561\u0566\u056b\u0561","min_zoom":2.0,"name:hu":"Abh\u00e1zia","name:hr":"Abhazija","name:oc":"Abcazia","population":240705,"name:el":"\u0391\u03bc\u03c0\u03c7\u03b1\u03b6\u03af\u03b1","name:eo":"Ab\u0125azujo","name:en":"Abkhazia","name":"\u0410\u04a7\u0441\u043d\u044b - \u0410\u0431\u0445\u0430\u0437\u0438\u044f","name:tk":"Abhazi\u00fda","name:th":"\u0e2d\u0e31\u0e1a\u0e2e\u0e32\u0e40\u0e0b\u0e35\u0e22","name:eu":"Abkhazia","name:et":"Abhaasia","name:nl":"Abchazi\u00eb","name:es":"Abjasia","name:ia":"Abchasia","alt_name:eo":"Ab\u0125azio","name:az":"Abxaziya","name:ie":"Abkhazia","name:id":"Abkhazia","name:ms":"Abkhazia","name:mr":"\u0905\u092c\u0916\u093e\u091d\u093f\u092f\u093e","name:ar":"\u0623\u0628\u062e\u0627\u0632\u064a\u0627","name:io":"Abkhazia","int_name":"Abkhazia","name:is":"Abkas\u00eda","name:it":"Abcasia","name:an":"Abjasia","name:ru":"\u0410\u0431\u0445\u0430\u0437\u0438\u044f","name:ab":"\u0410\u04a7\u0441\u043d\u044b","name:pl":"Abchazja","name:mk":"\u0410\u0431\u0445\u0430\u0437\u0438\u0458\u0430","name:af":"Abkasi\u00eb","name:fa":"\u0622\u0628\u062e\u0627\u0632","name:mn":"\u0410\u0431\u0445\u0430\u0437\u0438","name:fi":"Abhasia","name:hi":"\u0905\u092c\u0916\u093e\u091c\u093f\u092f\u093e","id":466507355,"name:ba":"\u0410\u0431\u0445\u0430\u0437\u0438\u044f","name:zh-yue":"\u963f\u5e03\u54c8\u8332","name:fy":"Abgaazje","name:vo":"Labkas\u00e4n","name:zh":"\u963f\u5e03\u54c8\u8332","name:gv":"Abkhazia","name:so":"Abkhazia","name:sl":"Abhazija","name:sk":"Abch\u00e1zsko","name:ja":"\u30a2\u30d6\u30cf\u30b8\u30a2","name:nn":"Abkhasia","name:sh":"Abhazija","name:br":"Abkhazia","name:bs":"Abhazija","name:bn":"\u0986\u09ac\u0996\u09be\u099c\u09bf\u09af\u09bc\u09be","name:ml":"\u0d05\u0d2c\u0d4d\u0d16\u0d3e\u0d38\u0d3f\u0d2f","name:no":"Abkhasia","name:sw":"Abkhazia","name:be":"\u0410\u0431\u0445\u0430\u0437\u0456\u044f","name:su":"Abkhazia","name:bg":"\u0410\u0431\u0445\u0430\u0437\u0438\u044f","name:sr":"\u0410\u0431\u0445\u0430\u0437\u0438\u0458\u0430","name:sq":"Abkhazia","name:ga":"An Abc\u00e1is","name:jv":"Abkhazia","name:gl":"Abkhazia","name:tr":"Abhazya"},"coordinates":[2702,165]},{"type":"Point","properties":{"kind":"region","name:en":"Republic of Adygea","name":"\u0410\u0434\u044b\u0433\u0435\u044f","kind_detail":"state","name:eo":"Adigeio","official_name":"\u0420\u0435\u0441\u043f\u0443\u0431\u043b\u0438\u043a\u0430 \u0410\u0434\u044b\u0433\u0435\u044f","name:de":"Republik Adygeja","source":"openstreetmap.org","name:fr":"Adygu\u00e9e","name:ku":"Ad\u00eegeya","name:et":"Ad\u00f5gee","min_zoom":4.0,"name:hu":"Adigef\u00f6ld","name:zh":"\u963f\u8fea\u683c\u5171\u548c\u56fd","id":869555482},"coordinates":[1132,3295]},{"type":"Point","properties":{"name:eo":"Kara\u0109ajio-\u0108erkesio","name:tt":"\u041a\u0430\u0440\u0430\u0447\u0430\u0439-\u0427\u0438\u0440\u043a\u04d9\u0441\u0438\u044f","min_zoom":4.0,"official_name":"\u041a\u0430\u0440\u0430\u0447\u0430\u0435\u0432\u043e-\u0427\u0435\u0440\u043a\u0435\u0441\u043a\u0430\u044f \u0440\u0435\u0441\u043f\u0443\u0431\u043b\u0438\u043a\u0430","name:uk":"\u041a\u0430\u0440\u0430\u0447\u0430\u0454\u0432\u043e-\u0427\u0435\u0440\u043a\u0435\u0441\u0456\u044f","name:be":"\u041a\u0430\u0440\u0430\u0447\u0430\u0435\u0432\u0430-\u0427\u0430\u0440\u043a\u0435\u0441\u0456\u044f","name:hu":"Karacs\u00e1j- \u00e9s Cserkeszf\u00f6ld","id":869565029,"kind":"region","name:en":"Karachay-Cherkesia","name":"\u041a\u0430\u0440\u0430\u0447\u0430\u0435\u0432\u043e-\u0427\u0435\u0440\u043a\u0435\u0441\u0438\u044f","kind_detail":"state","name:ku":"Qere\u00e7ay-\u00c7erkezya","name:de":"Karatschai-Tscherkesien","source":"openstreetmap.org","name:fr":"Karatcha\u00ef\u00e9vo-Tcherkesie","name:et":"Karat\u0161ai-T\u0161erkessia","name:zh":"\u5361\u62c9\u6070\u4f0a-\u5207\u5c14\u514b\u65af\u5171\u548c\u56fd","name:es":"Karach\u00e1yevo-Cherkesia"},"coordinates":[3425,1354]},{"type":"Point","properties":{"source":"naturalearthdata.com","kind":"locality","name":"Stavropol","population":363064,"region_capital":true,"min_zoom":5.0,"id":6353},"coordinates":[3794,4017]},{"type":"Point","properties":{"source":"naturalearthdata.com","kind":"locality","name":"Sochi","population":327608,"min_zoom":5.0,"id":6364},"coordinates":[517,1057]},{"type":"Point","properties":{"source":"naturalearthdata.com","kind":"locality","name":"Armavir","population":199548,"min_zoom":7.0,"id":2902},"coordinates":[2556,3916]},{"type":"Point","properties":{"source":"naturalearthdata.com","kind":"locality","name":"Cherkessk","population":116224,"region_capital":true,"min_zoom":7.0,"id":2829},"coordinates":[3910,2477]},{"type":"Point","properties":{"source":"naturalearthdata.com","kind":"locality","name":"Labinsk","population":61945,"min_zoom":7.0,"id":2901},"coordinates":[1994,3175]}]},"transit":{"type":"GeometryCollection","geometries":[{"type":"MultiLineString","properties":{"source":"openstreetmap.org","kind":"train","name":"\u0411\u0430\u043a\u0443 \u2014 \u0420\u043e\u0441\u0442\u043e\u0432-\u043d\u0430-\u0414\u043e\u043d\u0443","sort_rank":275,"ref":"Baku \u2014 Rostov-na-Donu","min_zoom":6.0,"osm_relation":true},"arcs":[[67],[68],[69]]},{"type":"MultiLineString","properties":{"source":"openstreetmap.org","kind":"train","osm_relation":true,"sort_rank":275,"ref":"\u044d\u043b. \u0411\u0435\u043b\u043e\u0440\u0435\u0447\u0435\u043d\u0441\u043a\u0430\u044f - \u0410\u0440\u043c\u0430\u0432\u0438\u0440-1","min_zoom":6.0,"operator":"\u0420\u0416\u0414"},"arcs":[[70],[71],[72]]},{"type":"MultiLineString","properties":{"kind":"train","name":"\u041c\u043e\u0441\u043a\u0432\u0430 \u2014 \u0410\u0434\u043b\u0435\u0440","sort_rank":275,"name:de":"Moskau \u2014 Adler","source":"openstreetmap.org","min_zoom":6.0,"ref":"\u041c\u043e\u0441\u043a\u0432\u0430 - \u0410\u0434\u043b\u0435\u0440","osm_relation":true},"arcs":[[73],[74],[75]]},{"type":"MultiLineString","properties":{"source":"openstreetmap.org","kind":"train","osm_relation":true,"sort_rank":275,"ref":"367\/368 \u041a\u0438\u0440\u043e\u0432 \u2014 \u041a\u0438\u0441\u043b\u043e\u0432\u043e\u0434\u0441\u043a","min_zoom":6.0,"operator":"\u0420\u0416\u0414"},"arcs":[[76],[77]]},{"type":"MultiLineString","properties":{"source":"openstreetmap.org","kind":"train","osm_relation":true,"sort_rank":275,"ref":"\u041d\u0435\u0432\u0438\u043d\u043d\u043e\u043c\u044b\u0441\u0441\u043a\u0430\u044f - \u0427\u0435\u0440\u043a\u0435\u0441\u0441\u043a","min_zoom":6.0,"operator":"\u0420\u0416\u0414"},"arcs":[[78],[79]]},{"type":"MultiLineString","properties":{"kind":"train","network":"\u0420\u0416\u0414","sort_rank":275,"source":"openstreetmap.org","min_zoom":6.0,"operator":"\u041a\u0443\u0431\u0430\u043d\u044c \u042d\u043a\u0441\u043f\u0440\u0435\u0441\u0441-\u041f\u0440\u0438\u0433\u043e\u0440\u043e\u0434","ref":"\u041a\u0440\u0430\u0441\u043d\u043e\u0434\u0430\u0440 - \u041c\u0438\u043d\u0435\u0440\u0430\u043b\u044c\u043d\u044b\u0435 \u0412\u043e\u0434\u044b","osm_relation":true,"name":"\u041f\u043e\u0435\u0437\u0434 \u041a\u0440\u0430\u0441\u043d\u043e\u0434\u0430\u0440 - \u041c\u0438\u043d\u0435\u0440\u0430\u043b\u044c\u043d\u044b\u0435 \u0412\u043e\u0434\u044b"},"arcs":[[80],[81]]},{"type":"MultiLineString","properties":{"kind":"train","name":"\u0410\u0434\u043b\u0435\u0440 \u2014 \u041f\u0435\u0440\u043c\u044c 2","sort_rank":275,"name:de":"Adler \u2014 Perm 2","source":"openstreetmap.org","min_zoom":6.0,"operator":"\u0420\u0416\u0414","ref":"354\u0421","osm_relation":true},"arcs":[[82],[83],[84],[85],[86],[87],[88],[89]]},{"type":"MultiLineString","properties":{"kind":"train","network":"\u0410\u043f\u0448\u0435\u0440\u043e\u043d\u0441\u043a\u0430\u044f \u0423\u0416\u0414","sort_rank":275,"source":"openstreetmap.org","min_zoom":6.0,"operator":"\u0410\u043f\u0448\u0435\u0440\u043e\u043d\u0441\u043a\u0438\u0439 \u0414\u041e\u041a","ref":"\u0427\u0435\u0440\u043d\u0438\u0433\u043e\u0432\u0441\u043a\u0430\u044f - \u0428\u043f\u0430\u043b\u043e\u0440\u0435\u0437","osm_relation":true},"arcs":[[90],[91]]},{"type":"LineString","properties":{"kind":"train","name":"\u0410\u0434\u043b\u0435\u0440 \u2014 \u0421\u0443\u0445\u0443\u043c","sort_rank":275,"name:de":"Adler \u2014 Sochumi","source":"openstreetmap.org","min_zoom":6.0,"ref":"\u0410\u0434\u043b\u0435\u0440 - \u0421\u0443\u0445\u0443\u043c","osm_relation":true},"arcs":[92]},{"type":"MultiLineString","properties":{"kind":"train","network":"\u0420\u0416\u0414","sort_rank":275,"source":"openstreetmap.org","min_zoom":6.0,"operator":"\u0420\u0416\u0414","ref":"\u044d\u043b. \u0410\u0434\u043b\u0435\u0440 \u2014 \u0422\u0443\u0430\u043f\u0441\u0435","osm_relation":true,"name":"\u044d\u043b. \u0410\u0434\u043b\u0435\u0440 \u2014 \u0422\u0443\u0430\u043f\u0441\u0435"},"arcs":[[93],[94]]},{"type":"MultiLineString","properties":{"source":"openstreetmap.org","kind":"train","osm_relation":true,"sort_rank":275,"ref":"677\/678 \u0412\u043b\u0430\u0434\u0438\u043a\u0430\u0432\u043a\u0430\u0437 \u2014 \u041d\u043e\u0432\u043e\u0440\u043e\u0441\u0441\u0438\u0439\u0441\u043a","min_zoom":6.0,"operator":"\u0420\u0416\u0414"},"arcs":[[95],[96],[97]]},{"type":"LineString","properties":{"source":"openstreetmap.org","kind":"train","sort_rank":275,"ref":"\u044d\u043b. \u0422\u0443\u0430\u043f\u0441\u0435 \u2014 \u0411\u0435\u043b\u043e\u0440\u0435\u0447\u0435\u043d\u0441\u043a","min_zoom":6.0,"osm_relation":true},"arcs":[98]},{"type":"MultiLineString","properties":{"source":"openstreetmap.org","kind":"train","sort_rank":275,"ref":"D18","min_zoom":6.0,"osm_relation":true},"arcs":[[99],[100],[101],[102],[103]]},{"type":"LineString","properties":{"kind":"train","network":"\u0420\u0416\u0414","sort_rank":275,"source":"openstreetmap.org","min_zoom":6.0,"operator":"\u0424\u041f\u041a","ref":"\u0421\u0442\u0430\u0432\u0440\u043e\u043f\u043e\u043b\u044c - \u041a\u0430\u0432\u043a\u0430\u0437\u0441\u043a\u0430\u044f","id":-2313087,"osm_relation":true,"name":"\u041f\u043e\u0435\u0437\u0434 \u0421\u0442\u0430\u0432\u0440\u043e\u043f\u043e\u043b\u044c - \u041a\u0430\u0432\u043a\u0430\u0437\u0441\u043a\u0430\u044f"},"arcs":[104]},{"type":"MultiLineString","properties":{"source":"openstreetmap.org","kind":"train","osm_relation":true,"sort_rank":275,"ref":"\u044d\u043b. \u0425\u0430\u0434\u0436\u043e\u0445 - \u0411\u0435\u043b\u043e\u0440\u0435\u0447\u0435\u043d\u0441\u043a\u0430\u044f","min_zoom":6.0,"operator":"\u0420\u0416\u0414"},"arcs":[[105],[106]]}]},"pois":{"type":"GeometryCollection","geometries":[{"type":"Point","properties":{"kind":"nature_reserve","protect_class":"2","area":2497950000,"source":"openstreetmap.org","min_zoom":6.65,"tier":2,"id":-7376943,"osm_relation":true,"name":"\u0421\u043e\u0447\u0438\u043d\u0441\u043a\u0438\u0439 \u043d\u0430\u0446\u0438\u043e\u043d\u0430\u043b\u044c\u043d\u044b\u0439 \u043f\u0430\u0440\u043a"},"coordinates":[1183,1115]}]},"boundaries":{"type":"GeometryCollection","geometries":[{"type":"MultiLineString","properties":{"source":"naturalearthdata.com","kind":"country","sort_rank":262,"kind_detail":"2","min_zoom":0.0,"id":72},"arcs":[[0],[1],[2],[3],[4],[5],[6],[7],[8],[9],[10],[11],[12]]},{"type":"LineString","properties":{"source":"naturalearthdata.com","kind":"region","name":"Karachay-Cherkess - Karachay-Cherkess","sort_rank":256,"kind_detail":"4","min_zoom":6.7,"id":7540},"arcs":[13]},{"type":"LineString","properties":{"source":"naturalearthdata.com","kind":"region","name":"Stavropol' - Krasnodar","sort_rank":256,"kind_detail":"4","min_zoom":2.0,"id":6510},"arcs":[14]},{"type":"MultiLineString","properties":{"source":"naturalearthdata.com","kind":"region","name":"Stavropol' - Karachay-Cherkess","sort_rank":256,"kind_detail":"4","min_zoom":2.0,"id":6512},"arcs":[[15],[16],[17],[18],[19]]},{"type":"MultiLineString","properties":{"source":"naturalearthdata.com","kind":"region","name":"Karachay-Cherkess - Krasnodar","sort_rank":256,"kind_detail":"4","min_zoom":2.0,"id":6513},"arcs":[[20],[21],[22],[23],[24],[25],[26],[27],[28],[29],[30],[31],[32],[33],[34]]},{"type":"MultiLineString","properties":{"source":"naturalearthdata.com","kind":"region","name":"Adygey - Krasnodar","sort_rank":256,"kind_detail":"4","min_zoom":2.0,"id":6548},"arcs":[[35],[36],[37],[38],[39],[40],[41],[42],[43],[44],[45],[46],[47],[48],[49],[50],[51],[52],[53],[54],[55],[56],[57],[58],[59],[60],[61],[62],[63],[64],[65]]},{"type":"LineString","properties":{"source":"naturalearthdata.com","kind":"region","name":"Abkhazia - Samegrelo-Zemo Svaneti","sort_rank":256,"kind_detail":"4","min_zoom":6.7,"id":7539},"arcs":[66]}]},"roads":{"type":"GeometryCollection","geometries":[{"type":"LineString","properties":{"source":"naturalearthdata.com","kind":"major_road","sort_rank":379,"kind_detail":"secondary","min_zoom":3.0,"id":17322},"arcs":[109]},{"type":"LineString","properties":{"source":"naturalearthdata.com","kind":"major_road","kind_detail":"secondary","sort_rank":379,"landuse_kind":"urban_area","min_zoom":3.0,"id":17326},"arcs":[110]},{"type":"LineString","properties":{"source":"naturalearthdata.com","kind":"major_road","sort_rank":379,"kind_detail":"secondary","min_zoom":3.0,"id":17326},"arcs":[111]},{"type":"LineString","properties":{"source":"naturalearthdata.com","kind":"major_road","kind_detail":"secondary","sort_rank":379,"landuse_kind":"urban_area","min_zoom":4.0,"id":17327},"arcs":[112]},{"type":"LineString","properties":{"source":"naturalearthdata.com","kind":"major_road","sort_rank":379,"kind_detail":"secondary","min_zoom":4.0,"id":17327},"arcs":[113]},{"type":"LineString","properties":{"source":"naturalearthdata.com","kind":"minor_road","sort_rank":355,"kind_detail":"tertiary","min_zoom":7.0,"id":17335},"arcs":[114]},{"type":"LineString","properties":{"source":"naturalearthdata.com","kind":"major_road","kind_detail":"secondary","sort_rank":379,"landuse_kind":"urban_area","min_zoom":3.0,"id":17375},"arcs":[115]},{"type":"MultiLineString","properties":{"source":"naturalearthdata.com","kind":"major_road","sort_rank":379,"kind_detail":"secondary","min_zoom":3.0,"id":17375},"arcs":[[116],[117]]},{"type":"LineString","properties":{"source":"naturalearthdata.com","kind":"major_road","sort_rank":379,"kind_detail":"secondary","min_zoom":3.0,"id":17391},"arcs":[118]},{"type":"LineString","properties":{"source":"naturalearthdata.com","kind":"major_road","kind_detail":"secondary","sort_rank":379,"landuse_kind":"urban_area","min_zoom":3.0,"id":17485},"arcs":[119]},{"type":"MultiLineString","properties":{"source":"naturalearthdata.com","kind":"major_road","sort_rank":379,"kind_detail":"secondary","min_zoom":3.0,"id":17485},"arcs":[[120],[121]]},{"type":"LineString","properties":{"source":"naturalearthdata.com","kind":"major_road","kind_detail":"secondary","sort_rank":379,"landuse_kind":"urban_area","min_zoom":4.0,"id":17487},"arcs":[122]},{"type":"LineString","properties":{"source":"naturalearthdata.com","kind":"major_road","kind_detail":"secondary","sort_rank":379,"landuse_kind":"urban_area","min_zoom":4.0,"id":17487},"arcs":[123]},{"type":"LineString","properties":{"source":"naturalearthdata.com","kind":"major_road","sort_rank":379,"kind_detail":"secondary","min_zoom":4.0,"id":17487},"arcs":[124]},{"type":"LineString","properties":{"source":"naturalearthdata.com","kind":"major_road","kind_detail":"secondary","sort_rank":379,"landuse_kind":"urban_area","min_zoom":3.0,"id":17488},"arcs":[125]},{"type":"LineString","properties":{"source":"naturalearthdata.com","kind":"major_road","sort_rank":379,"kind_detail":"secondary","min_zoom":3.0,"id":17488},"arcs":[126]},{"type":"LineString","properties":{"source":"naturalearthdata.com","kind":"minor_road","kind_detail":"tertiary","sort_rank":355,"landuse_kind":"urban_area","min_zoom":6.0,"id":17509},"arcs":[127]},{"type":"LineString","properties":{"source":"naturalearthdata.com","kind":"minor_road","sort_rank":355,"kind_detail":"tertiary","min_zoom":6.0,"id":17509},"arcs":[128]},{"type":"LineString","properties":{"source":"naturalearthdata.com","kind":"minor_road","kind_detail":"tertiary","sort_rank":355,"landuse_kind":"urban_area","min_zoom":6.0,"id":17513},"arcs":[129]},{"type":"LineString","properties":{"source":"naturalearthdata.com","kind":"minor_road","kind_detail":"tertiary","sort_rank":355,"landuse_kind":"urban_area","min_zoom":6.0,"id":17515},"arcs":[130]},{"type":"LineString","properties":{"source":"naturalearthdata.com","kind":"minor_road","kind_detail":"tertiary","sort_rank":355,"landuse_kind":"urban_area","min_zoom":6.0,"id":17529},"arcs":[131]},{"type":"LineString","properties":{"source":"naturalearthdata.com","kind":"minor_road","kind_detail":"tertiary","sort_rank":355,"landuse_kind":"urban_area","min_zoom":6.0,"id":17529},"arcs":[132]},{"type":"LineString","properties":{"source":"naturalearthdata.com","kind":"minor_road","sort_rank":355,"kind_detail":"tertiary","min_zoom":6.0,"id":17529},"arcs":[133]},{"type":"LineString","properties":{"source":"naturalearthdata.com","kind":"major_road","kind_detail":"secondary","sort_rank":379,"landuse_kind":"urban_area","min_zoom":3.0,"id":17581},"arcs":[134]},{"type":"LineString","properties":{"source":"naturalearthdata.com","kind":"major_road","sort_rank":379,"kind_detail":"secondary","min_zoom":3.0,"id":17581},"arcs":[135]},{"type":"LineString","properties":{"source":"naturalearthdata.com","kind":"minor_road","kind_detail":"tertiary","sort_rank":355,"landuse_kind":"urban_area","min_zoom":6.0,"id":17599},"arcs":[136]},{"type":"LineString","properties":{"source":"naturalearthdata.com","kind":"minor_road","kind_detail":"tertiary","sort_rank":355,"landuse_kind":"urban_area","min_zoom":6.0,"id":17599},"arcs":[137]},{"type":"LineString","properties":{"source":"naturalearthdata.com","kind":"minor_road","sort_rank":355,"kind_detail":"tertiary","min_zoom":6.0,"id":17599},"arcs":[138]},{"type":"LineString","properties":{"source":"naturalearthdata.com","kind":"minor_road","kind_detail":"tertiary","sort_rank":355,"landuse_kind":"urban_area","min_zoom":6.0,"id":17609},"arcs":[139]},{"type":"LineString","properties":{"source":"naturalearthdata.com","kind":"minor_road","sort_rank":355,"kind_detail":"tertiary","min_zoom":6.0,"id":17609},"arcs":[140]},{"type":"LineString","properties":{"source":"naturalearthdata.com","kind":"major_road","kind_detail":"secondary","sort_rank":379,"landuse_kind":"urban_area","min_zoom":3.0,"id":17634},"arcs":[141]},{"type":"MultiLineString","properties":{"source":"naturalearthdata.com","kind":"major_road","sort_rank":379,"kind_detail":"secondary","min_zoom":3.0,"id":17634},"arcs":[[142],[143]]},{"type":"LineString","properties":{"source":"naturalearthdata.com","kind":"major_road","kind_detail":"secondary","sort_rank":379,"landuse_kind":"urban_area","min_zoom":3.0,"id":17695},"arcs":[144]},{"type":"LineString","properties":{"source":"naturalearthdata.com","kind":"major_road","sort_rank":379,"kind_detail":"secondary","min_zoom":3.0,"id":17695},"arcs":[145]},{"type":"LineString","properties":{"source":"naturalearthdata.com","kind":"major_road","kind_detail":"secondary","sort_rank":379,"landuse_kind":"urban_area","min_zoom":3.0,"id":17696},"arcs":[146]},{"type":"LineString","properties":{"source":"naturalearthdata.com","kind":"major_road","kind_detail":"secondary","sort_rank":379,"landuse_kind":"urban_area","min_zoom":3.0,"id":17759},"arcs":[147]},{"type":"LineString","properties":{"source":"naturalearthdata.com","kind":"major_road","kind_detail":"secondary","sort_rank":379,"landuse_kind":"urban_area","min_zoom":3.0,"id":17759},"arcs":[148]},{"type":"LineString","properties":{"source":"naturalearthdata.com","kind":"major_road","sort_rank":379,"kind_detail":"secondary","min_zoom":3.0,"id":17759},"arcs":[149]},{"type":"LineString","properties":{"source":"naturalearthdata.com","kind":"minor_road","sort_rank":355,"kind_detail":"tertiary","min_zoom":6.0,"id":17766},"arcs":[150]},{"type":"LineString","properties":{"source":"naturalearthdata.com","kind":"major_road","kind_detail":"secondary","sort_rank":379,"landuse_kind":"urban_area","min_zoom":3.0,"id":17862},"arcs":[151]},{"type":"LineString","properties":{"source":"naturalearthdata.com","kind":"major_road","sort_rank":379,"kind_detail":"secondary","min_zoom":3.0,"id":17862},"arcs":[152]},{"type":"LineString","properties":{"source":"naturalearthdata.com","kind":"minor_road","sort_rank":355,"kind_detail":"tertiary","min_zoom":6.0,"id":17890},"arcs":[153]},{"type":"LineString","properties":{"source":"naturalearthdata.com","kind":"minor_road","kind_detail":"tertiary","sort_rank":355,"landuse_kind":"urban_area","min_zoom":6.0,"id":17894},"arcs":[154]},{"type":"LineString","properties":{"source":"naturalearthdata.com","kind":"minor_road","kind_detail":"tertiary","sort_rank":355,"landuse_kind":"urban_area","min_zoom":6.0,"id":17894},"arcs":[155]},{"type":"LineString","properties":{"source":"naturalearthdata.com","kind":"minor_road","kind_detail":"tertiary","sort_rank":355,"landuse_kind":"urban_area","min_zoom":6.0,"id":17894},"arcs":[156]},{"type":"MultiLineString","properties":{"source":"naturalearthdata.com","kind":"minor_road","sort_rank":355,"kind_detail":"tertiary","min_zoom":6.0,"id":17894},"arcs":[[157],[158],[159]]},{"type":"LineString","properties":{"source":"naturalearthdata.com","kind":"minor_road","kind_detail":"tertiary","sort_rank":355,"landuse_kind":"urban_area","min_zoom":6.0,"id":17895},"arcs":[160]},{"type":"MultiLineString","properties":{"source":"naturalearthdata.com","kind":"minor_road","sort_rank":355,"kind_detail":"tertiary","min_zoom":6.0,"id":17895},"arcs":[[161],[162]]},{"type":"LineString","properties":{"source":"naturalearthdata.com","kind":"major_road","sort_rank":379,"kind_detail":"secondary","min_zoom":3.0,"id":17932},"arcs":[163]},{"type":"LineString","properties":{"source":"naturalearthdata.com","kind":"minor_road","sort_rank":355,"kind_detail":"tertiary","min_zoom":6.0,"id":17939},"arcs":[164]},{"type":"MultiLineString","properties":{"source":"naturalearthdata.com","kind":"major_road","kind_detail":"secondary","sort_rank":379,"landuse_kind":"nature_reserve","min_zoom":3.0,"id":18109},"arcs":[[165],[166],[167],[168],[169],[170]]},{"type":"MultiLineString","properties":{"source":"naturalearthdata.com","kind":"major_road","kind_detail":"secondary","sort_rank":379,"landuse_kind":"nature_reserve","min_zoom":3.0,"id":18109},"arcs":[[171],[172],[173],[174],[175]]},{"type":"LineString","properties":{"source":"naturalearthdata.com","kind":"major_road","kind_detail":"secondary","sort_rank":379,"landuse_kind":"urban_area","min_zoom":3.0,"id":18109},"arcs":[176]},{"type":"MultiLineString","properties":{"source":"naturalearthdata.com","kind":"major_road","kind_detail":"secondary","sort_rank":379,"landuse_kind":"urban_area","min_zoom":3.0,"id":18109},"arcs":[[177],[178]]},{"type":"MultiLineString","properties":{"source":"naturalearthdata.com","kind":"major_road","sort_rank":379,"kind_detail":"secondary","min_zoom":3.0,"id":18109},"arcs":[[179],[180],[181],[182],[183],[184],[185],[186],[187]]},{"type":"LineString","properties":{"source":"naturalearthdata.com","kind":"major_road","kind_detail":"secondary","sort_rank":379,"landuse_kind":"park","min_zoom":3.0,"id":18198},"arcs":[188]},{"type":"LineString","properties":{"source":"naturalearthdata.com","kind":"major_road","kind_detail":"secondary","sort_rank":379,"landuse_kind":"park","min_zoom":3.0,"id":18198},"arcs":[189]},{"type":"LineString","properties":{"source":"naturalearthdata.com","kind":"major_road","kind_detail":"secondary","sort_rank":379,"landuse_kind":"urban_area","min_zoom":3.0,"id":18198},"arcs":[190]},{"type":"MultiLineString","properties":{"source":"naturalearthdata.com","kind":"major_road","sort_rank":379,"kind_detail":"secondary","min_zoom":3.0,"id":18198},"arcs":[[191],[192],[193]]},{"type":"LineString","properties":{"source":"naturalearthdata.com","kind":"major_road","kind_detail":"secondary","sort_rank":379,"landuse_kind":"urban_area","min_zoom":3.0,"id":18220},"arcs":[194]},{"type":"LineString","properties":{"source":"naturalearthdata.com","kind":"major_road","sort_rank":379,"kind_detail":"secondary","min_zoom":3.0,"id":18220},"arcs":[195]},{"type":"LineString","properties":{"source":"naturalearthdata.com","kind":"major_road","sort_rank":379,"kind_detail":"secondary","min_zoom":3.0,"id":18227},"arcs":[196]},{"type":"LineString","properties":{"source":"naturalearthdata.com","kind":"minor_road","kind_detail":"tertiary","sort_rank":355,"landuse_kind":"park","min_zoom":6.0,"id":18238},"arcs":[197]},{"type":"LineString","properties":{"source":"naturalearthdata.com","kind":"minor_road","sort_rank":355,"kind_detail":"tertiary","min_zoom":6.0,"id":18238},"arcs":[198]},{"type":"LineString","properties":{"source":"naturalearthdata.com","kind":"major_road","sort_rank":379,"kind_detail":"secondary","min_zoom":3.0,"id":18351},"arcs":[199]},{"type":"LineString","properties":{"source":"naturalearthdata.com","kind":"major_road","sort_rank":379,"kind_detail":"secondary","min_zoom":3.0,"id":18353},"arcs":[200]}]},"earth":{"type":"GeometryCollection","geometries":[{"type":"MultiPolygon","properties":{"sort_rank":10,"source":"naturalearthdata.com","kind":"earth","min_zoom":0.0,"id":4743},"arcs":[[[201]]]}]},"landuse":{"type":"GeometryCollection","geometries":[{"type":"MultiPolygon","properties":{"kind":"nature_reserve","protect_class":"2","area":4690619645,"sort_rank":23,"source":"openstreetmap.org","min_zoom":4.0,"tier":2,"osm_relation":true},"arcs":[[[202]],[[203]]]},{"type":"MultiPolygon","properties":{"source":"openstreetmap.org","kind":"park","tier":2,"area":1021168075,"sort_rank":24,"min_zoom":6.0},"arcs":[[[204]]]},{"type":"MultiPolygon","properties":{"source":"naturalearthdata.com","kind":"urban_area","name":"","area":8348151270,"sort_rank":11,"min_zoom":4.0},"arcs":[[[205]],[[206]],[[207]],[[208]],[[209]],[[210]],[[211]],[[212]],[[213]],[[214]],[[215]],[[216]],[[217]],[[218]],[[219]],[[220]],[[221]],[[222]],[[223]]]},{"type":"Polygon","properties":{"kind":"park","protect_class":"7","area":711803008,"sort_rank":24,"source":"openstreetmap.org","min_zoom":6.0,"tier":2,"id":-5497983,"osm_relation":true},"arcs":[[224]]},{"type":"MultiPolygon","properties":{"kind":"protected_area","area":143504000,"sort_rank":17,"source":"openstreetmap.org","min_zoom":7.0,"tier":2,"id":-1459410,"osm_relation":true},"arcs":[[[225],[226]]]},{"type":"MultiPolygon","properties":{"source":"openstreetmap.org","kind":"park","tier":2,"area":1104029294,"sort_rank":24,"min_zoom":6.0,"osm_relation":true},"arcs":[[[227]],[[228]]]},{"type":"MultiPolygon","properties":{"source":"openstreetmap.org","kind":"park","tier":2,"area":8004022334,"sort_rank":24,"min_zoom":4.0,"osm_relation":true},"arcs":[[[229]],[[230],[231],[232]]]}]}},"type":"Topology","transform":{"translate":[39.375,43.0688877742],"scale":[0.0006866455,0.0004932001]},"arcs":[[[1667,885],[-58,7],[-359,136],[-101,0]],[[1149,1028],[-98,-27],[-35,-23],[-20,-33],[-98,-261],[-8,-35]],[[2428,610],[-44,12],[-200,162],[-46,28],[-150,53],[-73,56],[-13,10],[-42,22]],[[1860,953],[-53,-6],[-95,-50],[-45,-12]],[[2773,536],[-51,22],[-45,38],[-47,24],[-50,11]],[[2580,631],[-152,-21]],[[3261,292],[-53,5],[-40,22],[-64,68],[-39,23],[-76,25],[-21,16],[-13,21],[-21,47],[-13,20],[-44,17]],[[2877,556],[-104,-20]],[[4096,318],[-3,-1],[-37,-11],[-8,-5],[-115,-65],[-47,-10]],[[3561,268],[-46,5],[-94,28],[-53,6]],[[3368,307],[-107,-15]],[[3886,226],[-47,3],[-46,14],[-45,23],[-43,12],[-42,2]],[[3663,280],[-102,-12]],[[4048,301],[0,1]],[[2903,4096],[20,-30],[42,-29],[14,-13],[18,-29],[34,-86],[12,-15],[7,-5],[251,-12],[12,-9],[5,-6],[5,-10],[3,-10],[2,-11],[1,-13],[-1,-40],[-7,-50],[-6,-22],[-67,-167],[-26,-53],[-71,-105],[-8,-7],[-16,-12],[-17,-8],[-9,-3],[-89,-9],[-22,-6],[-9,-5],[-6,-8],[-5,-12],[-1,-17],[1,-14],[2,-12],[11,-30],[17,-24],[57,-44],[6,-32],[4,-11],[7,-9],[13,-5],[8,-2],[49,-1],[12,-4],[11,-8],[8,-18],[17,-85],[4,-10],[6,-9],[10,-6],[44,-5],[9,-3],[5,-6],[5,-12],[3,-12],[6,-11],[9,-6],[96,-11],[16,-4],[9,-4],[8,-11],[6,-14],[1,-53]],[[3684,2891],[6,-3],[8,-6],[4,-19],[4,-5],[-2,-11],[4,-21],[26,-69],[4,-24],[1,-15],[3,-13],[12,-17],[29,-19],[66,-19],[29,-24],[9,-2],[25,-4]],[[3490,2816],[11,2],[9,4],[17,11],[23,20],[42,26],[10,4],[82,8]],[[3429,2818],[61,-2]],[[3969,2621],[47,-9],[40,-13],[40,-5]],[[3912,2620],[57,1]],[[3429,2818],[-10,-12],[-25,-15],[-7,-6],[-7,-7],[-4,-10],[-8,-20],[-5,-9],[-9,-5],[-67,-14],[-8,-6],[-5,-10],[-5,-32],[-4,-13],[-10,-6],[-10,-4],[-5,-5],[4,-11],[31,-21],[78,-39],[9,-7],[10,-11],[13,-26],[7,-16],[13,-69],[0,-32],[-2,-31],[-4,-20],[-15,-45],[-43,-83],[-15,-22],[-10,-18],[-28,-58],[-6,-8],[-6,-8],[-8,-6],[-13,-7],[-74,-24],[-17,-8],[-13,-13],[-8,-11],[-5,-12],[-9,-33],[-8,-20],[-11,-11],[-16,-11],[-34,-19],[-13,-14],[-8,-13],[-4,-11],[-7,-19],[-3,-5],[-4,-6],[-12,-4],[-18,0]],[[2506,2075],[-11,2],[-34,25],[-14,5],[-19,5],[-64,5],[-19,5],[-100,46],[-16,6],[-8,0]],[[2221,2174],[-10,-3],[-34,-21],[-19,-17],[-8,-9],[-5,-8],[-3,-8],[3,-7],[6,-7],[93,-87],[6,-8],[14,-68],[7,-20],[10,-22],[14,-23],[3,-8],[0,-9],[-9,-9],[-54,-31],[-9,-2]],[[2618,2054],[-10,0],[-12,5],[-7,17],[-18,16]],[[2571,2092],[-36,-6],[-19,-9],[-10,-2]],[[2789,1891],[-3,0],[-1,1],[-7,19],[5,15],[4,7],[9,20],[3,10],[2,12],[0,12],[-1,11],[-3,11],[-3,10],[-11,17],[-17,8],[-27,7],[-91,9]],[[2648,2060],[-21,-2],[-9,-4]],[[2853,1852],[-9,3],[-5,14],[-1,11],[1,6],[1,2],[16,34],[3,10],[-2,6],[-10,0]],[[2847,1938],[-24,-16],[-34,-31]],[[2991,1872],[-49,16],[-16,11],[-9,1]],[[2917,1900],[-9,-5],[-6,-4],[-18,-19],[-23,-18],[-8,-2]],[[2226,1807],[-10,1],[-19,6],[-11,2]],[[2186,1816],[-10,-2],[-8,-5],[-13,-14],[-6,-8],[-20,-36],[-6,-7],[-8,-6],[-10,-3]],[[2105,1735],[-12,0],[-22,5],[-12,1]],[[2059,1741],[-10,-1],[-7,-8],[-4,-11],[2,-18],[8,-38],[0,-13],[-3,-15],[-81,-133],[-4,-10],[-2,-14],[-1,-16],[5,-25],[17,-60],[0,-14],[-3,-15],[-8,-18],[-8,-10],[-8,-9],[-7,-6],[-5,-10],[-3,-11],[4,-19],[2,-15],[-1,-15],[-7,-18],[-4,-14],[-2,-13],[7,-18],[7,-10],[15,-16],[6,-7],[2,-12],[-2,-14],[-10,-22],[-14,-24],[-6,-12],[-11,-45],[1,-51],[-9,-40]],[[98,4096],[-18,-13],[-62,-64],[-18,-12]],[[858,4067],[-89,8],[-19,4],[-22,8],[-7,8],[0,1]],[[1843,2816],[138,10],[10,4],[7,5],[11,15],[-44,144],[-6,46],[9,26],[3,14],[2,25],[-2,15],[-4,12],[-12,15],[-15,13],[-39,25],[-17,25],[-34,74],[-22,41],[-8,118],[-9,38],[-12,15],[-7,8],[-6,8],[-6,7],[-65,130],[-15,43],[-4,21],[-8,16],[-9,15],[-164,171],[-71,35],[-30,24],[-72,57],[-45,51],[-14,12],[-4,2]],[[1004,4096],[-43,-7],[-61,-10],[-24,-10],[-18,-2]],[[243,3996],[6,-3],[8,-9],[7,-11],[5,-5],[7,-3],[7,-2],[15,0]],[[204,3979],[5,1],[18,12],[9,3],[7,1]],[[188,3994],[4,-3],[3,-5],[4,-5],[5,-2]],[[189,3810],[-5,2],[-4,4],[-3,6],[-11,26],[-5,42],[1,24],[13,64],[7,13],[6,3]],[[375,3986],[10,-2],[36,-32],[4,-6],[2,-5],[-1,-5],[-5,-3],[-13,-5],[-5,-3],[-3,-4],[-4,-7],[-7,-7],[-5,-4],[-49,-48],[-4,-6],[-2,-6],[0,-6],[3,-6],[4,-5],[22,-21],[10,-7],[7,0]],[[298,3963],[8,1],[54,20],[15,2]],[[741,3931],[14,-33],[33,-18],[5,-8],[2,-7],[-1,-15],[-1,-8],[-1,-30],[0,-18],[5,-30],[4,-6],[6,-2]],[[537,3777],[5,2],[5,4],[69,88],[21,15],[104,45]],[[435,3878],[10,-1],[7,-3],[4,-5],[9,-18],[4,-5],[5,-4],[19,-10],[3,-3],[4,-4],[3,-5],[2,-6],[2,-6],[0,-5],[3,-6],[4,-6],[11,-10],[6,-4],[6,0]],[[375,3798],[6,2],[5,4],[3,4],[0,5],[-3,6],[-2,6],[-1,6],[2,6],[3,6],[5,6],[9,10],[7,5],[10,6],[16,8]],[[138,3499],[20,2],[44,11],[57,11],[18,10],[4,6],[93,88],[4,7],[2,9],[2,10],[-2,8],[-3,7],[-5,5],[-12,8],[-27,13],[-7,4],[-5,6],[-4,8],[-2,13],[-4,17],[-6,12],[-3,5],[-2,7],[-3,5],[-4,6],[-10,8],[-43,23],[-16,4]],[[224,3812],[-35,-2]],[[828,3759],[23,-11],[4,-47],[-2,-8],[-3,-9],[-11,-9],[-12,-16],[26,-71],[6,-8],[8,-7],[9,0],[10,-3],[17,-10],[3,-6],[-1,-6],[-5,-5],[-3,-22],[18,-72],[28,-46],[3,-10],[3,-12],[-2,-12],[-4,-7],[-4,-6],[-10,-9],[-6,-2],[-6,-1]],[[807,3756],[6,2],[15,1]],[[0,3519],[18,-4],[81,-1],[17,-3],[13,-5],[9,-7]],[[1557,3415],[17,-1],[64,-10],[58,-29],[14,-13],[7,-15],[-3,-51],[0,-15],[3,-16],[6,-20],[9,-13],[12,-12],[19,-15],[11,-13],[9,-14],[11,-9],[31,-16],[7,-12],[4,-12],[2,-25],[2,-12],[3,-10],[3,-10],[42,-80],[7,-18],[4,-15],[1,-13],[-5,-65],[-3,-11],[-5,-9],[-9,-4],[-36,-6],[-11,-3],[-9,-6],[-3,-11],[4,-8],[9,-5],[11,-2]],[[1317,1384],[21,3],[21,6],[18,9],[23,18],[7,8],[6,7],[4,8],[11,15],[36,72],[13,33],[23,102],[8,22],[8,15],[17,15],[10,12],[16,20],[7,19],[7,24],[2,26],[0,18],[-2,13],[-3,11],[-4,9],[-5,7],[-5,7],[-6,5],[-15,7],[-33,11],[-11,7],[-12,13],[-10,30],[-25,333],[0,23],[2,17],[4,11],[28,44],[14,15],[31,25],[8,8],[7,12],[8,21],[2,14],[0,13],[-5,21],[-4,9],[-30,51],[-5,10],[-2,317],[0,3],[-3,8],[-33,47],[-15,14],[-36,23],[-8,6],[-7,7],[-7,10],[-6,13],[-7,25],[-2,20],[4,46],[4,13],[7,10],[55,41],[14,25],[14,71],[7,76],[6,10],[11,15],[12,8],[19,15],[15,6],[11,3]],[[917,3344],[-10,0],[-7,2]],[[900,3346],[-8,-1],[-10,-4],[-27,-30],[-3,-3],[-5,-2],[-5,-2],[-5,-1],[-5,0]],[[832,3303],[-34,6]],[[798,3309],[-9,-1],[-3,-4],[1,-5],[3,-6],[7,-18],[0,-21],[-17,-51],[0,-18],[15,-23],[4,-11],[1,-10],[-6,-51],[-3,-13],[-5,-7],[-6,-3],[-26,-5],[-14,-5],[-14,-27],[-1,-20],[7,-127],[-2,-22],[-3,-15],[-7,-14],[-47,-64],[-24,-44],[-29,-67],[-8,-24],[-4,-21],[2,-14],[4,-16],[4,-9],[5,-7],[5,-4],[8,-4],[9,-4],[9,-1]],[[724,2578],[12,-1],[11,-3],[9,-5],[8,-6],[12,-17],[37,-92],[12,-19],[6,-8],[7,-6],[19,-10],[11,-4],[100,-4],[38,-7],[10,-5],[8,-8],[1,-15],[-3,-13],[-21,-35],[-13,-34],[-2,-12],[-2,-12],[-3,-55],[-4,-18],[-7,-9],[-8,-7],[-19,-8],[-15,-12],[-6,-8],[-5,-13],[-2,-15],[-2,-22],[-3,-18],[-6,-14],[-11,-18],[-14,-14],[-8,-5],[-9,-4],[-10,-3],[-22,-3]],[[654,2553],[8,0],[7,2],[44,21],[11,2]],[[830,2016],[-25,3],[-12,3],[-10,5],[-7,8],[-5,8],[-12,52],[-4,10],[-4,9],[-5,9],[-7,7],[-9,5],[-37,8],[-10,5],[-9,5],[-5,9],[-2,11],[-1,36],[-3,11],[-7,20],[-5,8],[-5,8],[-8,7],[-19,10],[-23,5],[-26,2]],[[570,2280],[-24,-2],[-9,-3],[-9,-9],[-9,-14],[-17,-37],[-5,-21],[-4,-18],[0,-12],[2,-23],[2,-9],[3,-5],[35,-44],[11,-16],[4,-13],[2,-15],[0,-28],[-3,-16],[-5,-13],[-24,-40],[-4,-15],[-2,-14],[2,-19],[1,-4],[2,-5],[2,-6],[4,-6],[13,-16],[7,-9],[5,-12],[-3,-11],[-6,-7],[-8,-7],[-8,-8],[-8,-10],[-8,-18],[-1,-14],[1,-11],[8,-28],[22,-13],[34,-6],[47,-21],[26,-16],[16,-5],[13,0]],[[768,1696],[20,-4],[12,-5],[9,-6],[41,-43],[62,-54],[14,-8],[16,-5],[44,-6],[87,-16],[29,-14],[58,-54],[104,-75],[30,-15],[23,-7]],[[675,1661],[19,8],[24,15],[32,11],[18,1]],[[3980,0],[17,29],[20,57],[0,57],[-6,58],[16,52],[21,48]],[[2392,4096],[463,-504],[647,-292],[128,-69],[68,-74],[104,5]],[[4096,3074],[-180,69],[-114,19]],[[3802,3162],[-36,5]],[[735,3401],[32,18]],[[768,3420],[70,40],[-21,49],[448,191],[187,21],[212,-22],[38,29],[242,47]],[[1944,3775],[485,117],[89,41],[35,-25]],[[0,1634],[128,-171]],[[2392,4096],[122,-154],[-83,-49],[-726,-165],[-40,-29],[-213,22],[-185,-21],[-454,-193],[21,-51],[-440,-226],[-52,-136],[-84,-85],[-121,-72],[72,-118],[-153,-97],[0,-58],[-56,4]],[[131,1459],[174,-173],[35,-70],[170,-113],[32,-95],[172,-113],[57,-127]],[[2392,4096],[463,-504],[647,-292],[128,-69],[66,-73],[29,6]],[[4096,3073],[-232,86],[-139,5]],[[3923,2370],[-23,101],[-201,268],[17,348],[-25,60],[34,17]],[[3725,3164],[45,3]],[[2392,4096],[463,-504],[647,-292],[128,-69],[66,-73],[29,6]],[[4096,3073],[-232,86],[-139,5]],[[0,1634],[134,-182],[171,-166],[34,-70],[60,-32]],[[399,1184]],[[399,1184],[5,-4]],[[404,1180],[2,-1]],[[406,1179],[111,-100]],[[517,1079],[1,-3]],[[518,1076],[24,-68],[177,-119]],[[769,771],[-28,92]],[[410,2231],[66,-202]],[[568,2388],[-117,-81]],[[771,768],[143,-107],[87,-19],[142,-90],[112,-37],[96,-185],[207,-39],[26,17],[65,-31],[120,-194],[191,-48],[146,10],[77,-45]],[[0,1634],[134,-182],[171,-166],[34,-70],[170,-112],[5,-55],[61,-70],[141,-85],[55,-126]],[[769,771],[-28,92]],[[2392,4096],[463,-504],[647,-292],[128,-69],[68,-74],[104,5]],[[4096,3074],[-180,69],[-114,19]],[[3802,3162],[-36,5]],[[756,3414],[-362,-184],[-52,-136],[-84,-85],[-121,-72],[72,-118],[-153,-97],[0,-58],[-56,4]],[[0,1634],[128,-171]],[[131,1459],[5,-9]],[[144,1443],[161,-157],[46,-77]],[[356,1206],[153,-102],[5,-55],[61,-70],[138,-82],[59,-132]],[[769,771],[-7,20],[-17,64],[-2,5],[-2,3]],[[3766,4096],[21,-16],[-16,-58],[52,6]],[[767,3419],[-32,-18]],[[768,3420],[128,-144],[12,-54],[70,-5],[67,-62],[65,-16],[-15,-90],[33,-41],[-2,-85],[44,-106],[34,-217],[-36,-132]],[[0,1602],[24,-28],[96,-151],[170,-166],[65,-90],[22,-19],[60,-25],[23,-18],[10,-20],[13,-44],[8,-19],[9,-10],[23,-15],[33,-31],[131,-72],[31,-29],[21,-38],[19,-57],[22,-45],[33,-40],[43,-29],[33,-7],[1,0],[34,-8],[46,-19],[67,-11],[21,-10],[47,-48],[79,-24],[45,-22],[24,-29],[32,-55],[23,-60],[-7,-64],[15,-22],[33,-34],[13,-26],[22,-55],[14,-16],[38,50],[54,-7],[117,-57],[46,-8],[15,-6],[13,-10],[24,-27],[7,-6],[15,-6],[28,-29],[17,-6],[18,2],[47,12],[68,4],[146,-21],[76,-31],[-2127,0],[0,1602]],[[0,1602],[24,-28],[96,-151],[170,-166],[65,-90],[22,-19],[60,-25],[23,-18],[10,-20],[13,-44],[8,-19],[9,-10],[23,-15],[33,-31],[131,-72],[31,-29],[21,-38],[19,-57],[22,-45],[33,-40],[43,-29],[33,-7],[1,0],[34,-8],[46,-19],[67,-11],[21,-10],[47,-48],[79,-24],[45,-22],[24,-29],[32,-55],[23,-60],[-7,-64],[15,-22],[33,-34],[13,-26],[22,-55],[14,-16],[38,50],[54,-7],[117,-57],[46,-8],[15,-6],[13,-10],[24,-27],[7,-6],[15,-6],[28,-29],[17,-6],[18,2],[47,12],[68,4],[146,-21],[76,-31]],[[2309,4096],[40,-72]],[[3706,3991],[54,8],[12,17],[42,8],[93,5]],[[3907,4029],[75,4],[84,25],[30,11]],[[3755,4095],[-7,-21],[-30,-33],[-12,-50]],[[3755,4096],[0,-1]],[[0,4088],[10,8]],[[2421,3918],[30,-53],[4,-5]],[[2349,4024],[60,-83],[12,-23]],[[2455,3860],[44,-62]],[[2499,3798],[24,-33],[42,-34]],[[2874,3577],[-15,21],[-10,5]],[[2849,3603],[-32,20],[-66,16],[-144,67],[-42,25]],[[3532,3330],[-114,42],[-48,25],[-132,42],[-151,67],[-30,0],[-78,-17],[-30,8],[-48,42],[-27,38]],[[3616,3322],[1,7]],[[3711,3871],[-5,53],[0,67]],[[3617,3329],[11,101],[6,67],[18,34],[24,8],[36,8],[18,26],[-12,50],[0,33],[-12,34],[-12,92],[18,75],[-1,14]],[[3537,3330],[79,-8]],[[3532,3330],[5,0]],[[2050,3264],[-32,-26],[-48,-25]],[[2499,3798],[-24,-8],[-36,-25],[-42,-50],[-91,-92],[-18,-17],[-24,-67],[-18,-42],[-60,-83],[-54,-67],[-42,-50],[-40,-33]],[[1970,3213],[-60,-25]],[[1910,3188],[-6,0]],[[1213,3189],[-48,-51],[-24,-17],[-66,-17]],[[1904,3188],[-11,0]],[[1893,3188],[-25,0],[-78,-34],[-66,-16],[-66,-17],[-24,-8],[-54,8],[-72,0],[-42,17],[-55,42],[-72,41],[-30,9],[-66,-17],[-24,-17],[-6,-7]],[[3821,3172],[-61,16],[-66,25],[-30,42],[-24,42],[-24,25]],[[4096,3068],[-6,3],[-114,58],[-84,25],[-66,17],[-5,1]],[[566,2804],[-13,16],[-30,8]],[[1075,3104],[-48,-25],[-39,-31]],[[988,3048],[-33,-27],[-66,-67],[-60,-76],[-42,-33],[-24,-8],[-48,0],[-18,-17],[-24,-34],[-18,-25],[-30,0],[-30,9],[-29,34]],[[523,2828],[-25,-8],[-8,-4]],[[490,2816],[-28,-13],[-72,-58],[-30,-25],[-42,-9],[-30,0],[-60,17],[-18,50]],[[3596,3206],[2,7],[-12,42],[-48,58],[-1,2]],[[3537,3315],[-5,15]],[[3730,2603],[-42,25],[-18,16],[-18,67],[-6,67],[18,117],[-18,109],[-36,67],[-18,50],[-6,42],[10,43]],[[3862,2360],[-24,8],[-14,55]],[[3824,2423],[-10,37],[-66,126],[-18,17]],[[3892,2360],[-30,0]],[[3784,2067],[18,50],[32,44]],[[3883,2262],[21,73],[-12,25]],[[3834,2161],[34,48],[15,53]],[[0,2663],[12,6],[42,0],[-6,34],[12,17],[24,0],[30,41],[54,25],[24,-16],[18,8]],[[3766,1918],[0,41],[12,41],[6,67]],[[3712,1716],[0,50],[18,42],[36,34],[0,76]],[[3412,1607],[54,9],[48,25],[84,8],[114,67]],[[3203,1619],[-2,4]],[[2108,2640],[-12,29],[-24,34],[-24,75],[-8,19]],[[1921,3164],[-11,24]],[[2040,2797],[-28,65],[-48,92],[0,100],[-6,25],[-37,85]],[[3201,1623],[-6,9],[-42,42],[-108,0],[-72,17],[-54,33],[-30,17],[-66,17],[-84,17],[-66,25],[-150,58],[-18,9],[-54,16],[-24,-25],[-30,25],[-73,-25],[-24,50],[-24,34],[-60,25],[-30,25],[-54,59],[-12,33],[-24,33],[0,17],[36,42],[18,50],[12,101],[24,83],[-6,50],[-6,25],[-36,76],[-30,79]],[[3225,1582],[-22,37]],[[3244,1586],[16,4]],[[3225,1582],[19,4]],[[3260,1590],[2,1],[150,16]],[[3748,1440],[-24,67],[0,25],[0,84],[0,50],[-12,50]],[[3748,1440],[60,-8],[78,0],[36,0],[36,-17],[36,0],[66,33],[18,9],[18,0]],[[324,1311],[12,-13],[73,-51]],[[419,1240],[25,-17],[3,-3]],[[477,1192],[3,-3],[2,-3]],[[490,1174],[20,-35],[1,-1]],[[579,1037],[16,-7],[8,-13]],[[771,863],[16,-8],[24,-17],[26,-49]],[[0,1699],[13,-18]],[[16,1677],[14,-19],[2,-3]],[[47,1638],[19,-22],[5,-5]],[[74,1609],[22,-18],[14,-18]],[[111,1573],[42,-53]],[[837,789],[10,-18]],[[487,1178],[3,-4]],[[511,1138],[42,-91],[26,-10]],[[13,1681],[3,-4]],[[32,1655],[15,-17]],[[71,1611],[3,-2]],[[110,1573],[1,0]],[[153,1520],[51,-63],[72,-92],[48,-54]],[[409,1247],[10,-7]],[[447,1220],[30,-28]],[[482,1186],[5,-8]],[[603,1017],[28,-45],[66,-67],[74,-42]],[[3520,420],[-12,8],[-114,59],[-36,25],[0,25],[12,33],[36,76],[24,100],[3,14]],[[3539,974],[5,6],[70,75]],[[3698,1408],[23,15]],[[3433,760],[15,53],[48,109],[43,52]],[[3614,1055],[8,9],[18,25],[0,67],[24,42],[12,41],[-12,84],[6,50],[12,25],[16,10]],[[3721,1423],[27,17]],[[847,771],[18,-25]],[[865,746],[54,-17],[138,-58],[24,-17],[36,-42],[24,-17],[42,-16],[84,-25],[36,-17],[30,-34],[24,-41],[12,-42],[18,-67]],[[1387,353],[37,-25],[42,17]],[[3620,319],[-28,17],[-24,42],[-12,25],[-36,17]],[[3664,294],[-18,9],[-26,16]],[[1466,345],[60,8],[42,-25],[72,-17],[42,-33],[18,-17],[18,-67],[18,-33],[48,-34],[60,-25],[144,17],[60,-17],[48,-8],[48,0],[30,-9],[66,-58],[20,-27]],[[3268,0],[12,10],[66,42],[54,17],[36,0],[60,0],[60,0],[24,16],[30,25],[12,26],[24,83],[24,42],[-6,33]],[[4096,4096],[0,-4096],[-1969,0],[-76,31],[-146,21],[-68,-4],[-47,-12],[-18,-2],[-17,6],[-28,29],[-15,6],[-7,6],[-24,27],[-13,10],[-15,6],[-46,8],[-117,57],[-54,7],[-38,-50],[-14,16],[-22,55],[-13,26],[-33,34],[-15,22],[7,64],[-23,60],[-32,55],[-24,29],[-45,22],[-79,24],[-47,48],[-21,10],[-67,11],[-46,19],[-34,8],[-1,0],[-33,7],[-43,29],[-33,40],[-22,45],[-19,57],[-21,38],[-31,29],[-131,72],[-33,31],[-23,15],[-9,10],[-8,19],[-13,44],[-10,20],[-23,18],[-60,25],[-22,19],[-65,90],[-170,166],[-96,151],[-24,28],[0,2494],[4096,0]],[[310,1290],[89,134],[-34,38],[95,-16],[32,36],[78,-52],[121,38],[79,-37],[-23,-88],[59,3],[60,-60],[49,88],[17,5],[1,-34],[52,-52],[39,82],[60,17],[10,-30],[-35,11],[-41,-130],[45,14],[50,-38],[58,-5],[25,24],[-28,95],[96,-31],[41,-47],[3,46],[88,35],[52,-15],[-15,-12],[37,-107],[57,-31],[44,45],[220,-164],[51,-11],[-25,-22],[-82,1],[-142,93],[-61,-131],[-244,67],[-219,-34],[-120,-270],[-46,55],[25,11],[-9,21],[-44,-42],[25,77],[-34,-45],[-2,38],[-12,-65],[-55,-24],[16,48],[-47,-1],[-9,39],[19,8],[-24,46],[-9,-22],[-12,85],[-94,-2],[3,74],[33,10],[-34,16],[2,23],[45,0],[-42,13],[51,48],[-4,21],[-42,-26],[-59,-172],[-27,133],[46,-3],[0,39],[-52,10],[20,38],[-14,46],[27,37],[-28,14],[-11,-53],[-20,29],[22,-71],[-4,-20],[-38,3],[22,-32],[-7,-14],[-34,7],[-4,49],[-22,-17],[54,88],[-105,-61],[13,113],[-30,-105],[-20,7],[6,27],[-41,-6],[16,30],[-28,-12],[-21,35]],[[0,2005],[14,84],[49,9],[24,37],[107,-103],[82,-42],[-6,-23],[38,-29],[150,-74],[-19,-47],[35,-29],[-24,-24],[46,-85],[-76,-47],[-55,-131],[-147,65],[-33,-7],[-61,-75],[-42,54],[29,35],[-44,-21],[-15,32],[28,32],[-36,-18],[4,56],[-39,3],[13,33],[-22,-22],[0,86],[76,42],[0,32],[32,-2],[-43,17],[2,-25],[-67,-48],[0,235]],[[1552,704],[71,90],[-10,80],[35,30],[165,-24],[13,26],[-25,-12],[-35,34],[25,31],[36,-15],[30,20],[11,-51],[92,9],[51,-28],[-92,-6],[4,-56],[-143,-23],[28,-65],[-53,-15],[-2,-28],[-45,-29],[-107,3],[-49,29]],[[898,774],[3,-36],[-44,10],[-59,-44],[-60,124],[160,-54]],[[3715,1391],[-42,42],[-22,71],[81,-23],[-17,-90]],[[3262,1571],[-61,50],[-3,40],[54,-14],[10,-76]],[[3860,2247],[-64,45],[-2,45],[47,136],[68,67],[22,-7],[11,-83],[48,-23],[-37,-121],[-93,-59]],[[3845,2157],[-16,-113],[-50,-90],[1,-45],[-34,23],[-14,130],[71,110],[42,-15]],[[240,2755],[-28,30],[-8,70],[98,-45],[-27,-46],[-35,-9]],[[517,2776],[-70,102],[57,49],[33,-15],[39,-80],[1,-22],[-60,-34]],[[1159,3238],[32,0],[40,-88],[-7,-47],[-33,-22],[17,-68],[-17,-68],[-64,68],[-81,23],[0,22],[-49,-22],[-75,105],[59,120],[178,0],[0,-23]],[[1968,3283],[97,-22],[-48,-180],[-130,112],[65,113],[16,-23]],[[2951,3633],[4,-79],[-91,26],[-55,86],[16,46],[126,-79]],[[1774,3621],[-50,83],[1,52],[49,24],[48,-24],[-48,-135]],[[2583,3982],[65,0],[11,-71],[21,3],[-43,-78],[-54,-12],[-162,45],[0,90],[74,33],[7,80],[65,0],[16,-90]],[[3953,4096],[-108,-159],[-81,-23],[-60,-48],[-37,26],[0,67],[-55,-10],[38,55],[-32,90],[335,2]],[[913,3357],[45,-25],[7,19],[5,-56],[-54,11],[-3,51]],[[3618,3328],[49,-22],[129,45],[-10,-82],[91,-31],[-48,-22],[-16,-90],[-38,-32],[-85,20],[-56,79],[-64,23],[-33,45],[0,90],[81,-23]],[[750,3536],[24,-92],[29,-26],[-5,-26],[-76,-41],[-113,135],[91,15],[22,53],[28,-18]],[[2077,2825],[52,-52],[33,15],[4,-25],[-36,-20],[16,-68],[-16,-45],[-49,22],[-16,46],[-81,22],[49,45],[16,68],[28,-8]],[[3152,2754],[4,-59],[-7,-43],[-49,23],[-16,135],[46,-8],[22,-48]],[[445,1174],[132,14],[24,-157],[-45,-65],[-65,56],[-31,83],[-95,54],[17,59],[63,-44]],[[1535,1975],[24,91],[50,22],[4,50],[70,12],[98,-15],[18,-64],[-31,-54],[177,-8],[72,-27],[-60,-52],[-51,-178],[-132,25],[-121,-42],[2,49],[-52,19],[-68,172]],[[3557,3981],[14,19],[19,-13],[-12,54],[44,-10],[-39,65],[44,-13],[87,13],[-3,-39],[-39,-22],[3,-62],[-33,6],[-28,-28],[-57,30]],[[3616,4081],[7,-5],[3,3],[-1,3],[-9,-1]],[[2686,634],[44,23],[5,48],[51,5],[18,57],[-80,178],[50,51],[104,15],[42,33],[37,-71],[-17,-66],[-51,-6],[-85,51],[86,-167],[3,-189],[-103,-52],[-23,47],[-46,-3],[-35,46]],[[365,1501],[55,131],[77,52],[87,-62],[-15,-52],[50,-7],[-8,-39],[22,-8],[-45,-28],[-81,40],[-70,-34],[-72,7]],[[450,1764],[40,23],[62,-37],[69,19],[73,-35],[54,26],[-31,16],[19,66],[-36,50],[-1,76],[-49,113],[77,-24],[56,16],[-8,-31],[24,-22],[-17,-35],[14,-35],[-6,37],[32,20],[-9,63],[35,2],[-63,55],[-33,-25],[-1,23],[-12,-28],[-13,52],[5,65],[29,-75],[27,-10],[51,-39],[21,10],[31,-56],[30,10],[39,-74],[-6,-51],[-94,-36],[39,-36],[-2,-33],[-59,6],[71,-78],[108,87],[33,-9],[58,42],[54,134],[35,-39],[63,6],[36,52],[32,-35],[57,4],[42,-49],[154,-85],[74,-73],[-3,-52],[123,42],[134,-18],[51,-104],[-74,-101],[8,-43],[98,-64],[23,-66],[-62,-37],[75,-38],[-20,-27],[77,-85],[-13,-52],[24,-9],[-53,-150],[0,-59],[38,-20],[-3,-30],[-156,71],[-47,57],[-139,-89],[-89,12],[-37,48],[-48,4],[32,136],[142,-93],[82,-1],[25,25],[-51,8],[-220,164],[-44,-45],[-57,31],[-37,107],[15,12],[-52,15],[-88,-35],[-3,-46],[-41,47],[-126,36],[-58,55],[-56,-18],[-39,-82],[-52,52],[-1,34],[-66,-93],[-60,60],[-57,-6],[21,91],[-159,93],[8,39],[-50,7],[15,51],[-92,67],[-42,76]],[[3102,425],[2,76],[103,42],[-30,71],[37,34],[35,134],[12,13],[4,-33],[60,-11],[12,35],[-29,36],[124,-18],[3,-101],[35,98],[117,-16],[-82,14],[-44,39],[87,152],[90,89],[34,103],[241,-3],[102,-111],[-8,-70],[-30,-18],[28,-13],[-48,-171],[-149,-122],[14,-160],[-70,-64],[-70,-126],[-33,38],[1,2],[-49,-75],[-64,-19],[-110,80],[-52,-47],[-50,39],[-64,-34],[-55,66],[-21,-8],[-25,41],[-58,18]],[[3627,778],[67,-41],[-61,40],[-6,1]],[[3575,529],[94,-84],[2,6],[-96,78]]]}