{"objects":{"water":{"type":"GeometryCollection","geometries":[{"type":"Polygon","properties":{"source":"naturalearthdata.com","kind":"ocean","area":1576712559132672,"sort_rank":200,"min_zoom":0.0,"id":1},"arcs":[[11]]},{"type":"MultiLineString","properties":{"source":"naturalearthdata.com","kind":"ocean","sort_rank":205,"boundary":true,"min_zoom":0.0,"id":78},"arcs":[[12],[13]]}]},"buildings":{"type":"GeometryCollection","geometries":[]},"places":{"type":"GeometryCollection","geometries":[{"type":"Point","properties":{"name:pt":"Dadr\u00e1 e Nagar-Aveli","name:ja":"\u30c0\u30fc\u30c9\u30e9\u30fc\u53ca\u3073\u30ca\u30ac\u30eb\u30fb\u30cf\u30f4\u30a7\u30fc\u30ea\u30fc\u9023\u90a6\u76f4\u8f44\u9818","name:ms":"Dadra dan Nagar Haveli","name:hi":"\u0926\u093e\u0926\u0930\u093e \u0914\u0930 \u0928\u0917\u0930 \u0939\u0935\u0947\u0932\u0940","name:ko":"\ub2e4\ub4dc\ub77c \ub098\uac00\ub974\ud558\ubca8\ub9ac","name:he":"\u05d3\u05d0\u05d3\u05e8\u05d4 \u05d5\u05e0\u05d0\u05d2\u05e8 \u05d4\u05d1\u05dc\u05d9","min_zoom":4.0,"name:uk":"\u0414\u0430\u0434\u0440\u0430 \u0456 \u041d\u0430\u0433\u0430\u0440-\u0425\u0430\u0432\u0435\u043b\u0456","name:be":"\u0414\u0430\u0434\u0440\u0430 \u0456 \u041d\u0430\u0433\u0430\u0440\u0445\u0430\u0432\u0435\u043b\u0456","name:ru":"\u0414\u0430\u0434\u0440\u0430 \u0438 \u041d\u0430\u0433\u0430\u0440-\u0425\u0430\u0432\u0435\u043b\u0438","name:ta":"\u0ba4\u0bbe\u0ba4\u0bcd\u0bb0\u0bbe \u0bae\u0bb1\u0bcd\u0bb1\u0bc1\u0bae\u0bcd \u0ba8\u0b95\u0bb0\u0bcd \u0b85\u0bb5\u0bc7\u0bb2\u0bbf","id":4569991190,"name:el":"\u039d\u03c4\u03ac\u03bd\u03c4\u03c1\u03b1 \u03ba\u03b1\u03b9 \u039d\u03b1\u03b3\u03ba\u03ac\u03c1 \u03a7\u03b1\u03b2\u03ad\u03bb\u03b9","kind":"region","name:hu":"Dadra \u00e9s Nagar Haveli","name":"Union Territory of Dadra & Nagar Haveli","kind_detail":"state","source":"openstreetmap.org","name:fr":"Dadra et Nagar Haveli","name:zh":"\u8fbe\u5fb7\u62c9-\u7eb3\u52a0\u5c14\u54c8\u7ef4\u5229","name:es":"Dadra y Nagar Haveli"},"coordinates":[3745,2983]},{"type":"Point","properties":{"source":"naturalearthdata.com","kind":"locality","name":"Daman","population":39737,"region_capital":true,"min_zoom":7.0,"id":4121},"coordinates":[3295,3427]},{"type":"Point","properties":{"kind":"locality","name":"Vasai-Virar","kind_detail":"city","source":"openstreetmap.org","min_zoom":8.0,"name:kn":"\u0cb5\u0cb8\u0cbe\u0caf\u0cbf-\u0cb5\u0cbf\u0cb9\u0cbe\u0cb0\u0ccd","name:ru":"\u0412\u0430\u0441\u0430\u0438-\u0412\u0438\u0440\u0430\u0440","population":1221000,"id":1600720976,"name:ja":"\u30f4\u30a1\u30b5\u30a4\u30fc\u30fb\u30f4\u30a3\u30e9\u30fc\u30eb"},"coordinates":[3215,356]},{"type":"Point","properties":{"source":"openstreetmap.org","kind":"locality","name":"Palghar","kind_detail":"town","population":68900,"min_zoom":8.0,"id":245685440},"coordinates":[3058,1199]},{"type":"Point","properties":{"kind":"locality","name":"Dahanu","name:mr":"\u0921\u0939\u093e\u0923\u0942","kind_detail":"town","source":"openstreetmap.org","min_zoom":8.0,"name:kn":"\u0ca1\u0cb9\u0cbe\u0ca3\u0cc2","id":245686722,"population":50280},"coordinates":[2957,2100]},{"type":"Point","properties":{"source":"openstreetmap.org","kind":"locality","name":"Boisar","kind_detail":"town","population":36100,"min_zoom":8.0,"id":1316209847},"coordinates":[3002,1528]},{"type":"Point","properties":{"admin_level":"3","kind":"locality","name":"Daman","name:mr":"\u0926\u092e\u0923","kind_detail":"town","name:hi":"\u0926\u092e\u0928","source":"openstreetmap.org","min_zoom":8.0,"name:gu":"\u0aa6\u0aae\u0aa3","name:kn":"\u0ca6\u0cae\u0ca8\u0ccd","population":35000,"name:ta":"\u0ba4\u0bae\u0ba9\u0bcd","name:zh":"\u8fbe\u66fc","id":3148784714,"name:ja":"\u30c0\u30de\u30f3"},"coordinates":[3246,3427]},{"type":"Point","properties":{"kind":"locality","name":"Vasai","kind_detail":"town","source":"openstreetmap.org","min_zoom":8.0,"population":10000,"id":702054734,"name:ja":"\u30f4\u30a1\u30b5\u30a4\u30fc"},"coordinates":[3165,98]},{"type":"Point","properties":{"kind":"locality","name":"Vapi","kind_detail":"town","source":"openstreetmap.org","min_zoom":8.0,"population":5000,"id":245688264,"name:ja":"\u30d0\u30d4"},"coordinates":[3489,3287]}]},"transit":{"type":"GeometryCollection","geometries":[]},"pois":{"type":"GeometryCollection","geometries":[]},"boundaries":{"type":"GeometryCollection","geometries":[{"type":"LineString","properties":{"name:pt":"\u00cdndia","name:ty":"\u2019In\u012btia","name:ps":"\u0647\u0646\u062f","name:ka":"\u10d8\u10dc\u10d3\u10dd\u10d4\u10d7\u10d8","name:ko":"\uc778\ub3c4","name:cv":"\u0418\u043d\u0434\u0438","name:km":"\u17a5\u178e\u17d2\u178c\u17b6","name:cs":"Indie","name:rn":"Ubuhindi","name:tt":"\u04ba\u0438\u043d\u0434\u0441\u0442\u0430\u043d","name:kw":"Eynda","name:kv":"\u0418\u043d\u0434\u0438\u044f","name:ku":"Hindistan","name:ks":"\u0628\u064b\u0627\u0631\u062a","name:to":"\u02bbInitia","name:tl":"Indiya","name:zh-min-nan":"\u00ccn-t\u014d\u0358","name:os":"\u0418\u043d\u0434\u0438","name:or":"\u0b2d\u0b3e\u0b30\u0b24","name:ce":"\u0418\u043d\u0434\u0438","name:ta":"\u0b87\u0ba8\u0bcd\u0ba4\u0bbf\u0baf\u0bbe","name:tg":"\u04b2\u0438\u043d\u0434\u0443\u0441\u0442\u043e\u043d","name:ca":"\u00cdndia","name:te":"\u0c2d\u0c3e\u0c30\u0c24 \u0c26\u0c47\u0c36\u0c02","name:bg":"\u0418\u043d\u0434\u0438\u044f","source":"openstreetmap.org","sort_rank":262,"name:hr":"Indija","name:da":"Indien","name:sw":"Uhindi","name:de":"Indien","name:dz":"\u0f62\u0f92\u0fb1\u0f0b\u0f42\u0f62","name:tr":"Hindistan","osm_relation":true,"name:kn":"\u0cad\u0cbe\u0cb0\u0ca4","name:be":"\u0406\u043d\u0434\u044b\u044f","name:dv":"\u0787\u07a8\u0782\u07b0\u0791\u07a8\u0794\u07a7","name:za":"Yindu","name:ba":"\u04ba\u0438\u043d\u0434\u043e\u0441\u0442\u0430\u043d","name:ar":"\u0627\u0644\u0647\u0646\u062f","name:lv":"Indija","name:lt":"Indija","name:uz":"Hindiston","name:kk":"\u04ae\u043d\u0434\u0456\u0441\u0442\u0430\u043d","name:he":"\u05d4\u05d5\u05d3\u05d5","name:eo":"Barato","name:ur":"\u0628\u06be\u0627\u0631\u062a","name:lb":"Indien","name:uk":"\u0406\u043d\u0434\u0456\u044f","name:hy":"\u0540\u0576\u0564\u056f\u0561\u057d\u057f\u0561\u0576","name:ug":"\u06be\u0649\u0646\u062f\u0649\u0633\u062a\u0627\u0646","name:qu":"Indya","name:oc":"\u00cdndia","name:el":"\u0399\u03bd\u03b4\u03af\u03b1","kind":"country","name":"India","name:tk":"Hindistan","min_zoom":8.0,"name:th":"\u0e1b\u0e23\u0e30\u0e40\u0e17\u0e28\u0e2d\u0e34\u0e19\u0e40\u0e14\u0e35\u0e22","name:yi":"\u05d0\u05d9\u05e0\u05d3\u05d9\u05e2","name:iu":"\u1403\u14d0\u144e\u140a","name:yo":"\u00cdnd\u00ed\u00e0","name:mt":"Indja","alt_name:eo":"Hindujo;Hindio","name:az":"Hindistan","name:ig":"Ndia","name:mr":"\u092d\u093e\u0930\u0924","name:pa":"\u0a2d\u0a3e\u0a30\u0a24","name:my":"\u1021\u102d\u1014\u1039\u1012\u102d\u101a\u1014\u102d\u102f\u1004\u103a\u1004\u1036","name:is":"Indland","name:am":"\u1205\u1295\u12f5","name:vi":"\u1ea4n \u0110\u1ed9","name:ml":"\u0d07\u0d28\u0d4d\u0d24\u0d4d\u0d2f","name:rw":"Ubuhinde","name:mi":"\u012ania","name:pl":"Indie","name:mk":"\u0418\u043d\u0434\u0438\u0458\u0430","name:vo":"Lind\u00e4n","name:zu":"INdiya","name:mn":"\u042d\u043d\u044d\u0442\u0445\u044d\u0433","name:ss":"INdiya","kind_detail":"2","name:hi":"\u092d\u093e\u0930\u0924","id":-304716,"alt_name:vi":"Thi\u00ean Tr\u00fac;Quy\u00ean \u0110\u1ed9c","name:fr":"Inde","name:ky":"\u0418\u043d\u0434\u0438\u044f","name:zh-yue":"\u5370\u5ea6","name:fy":"Yndia","name:pi":"\u092d\u093e\u0930\u0924","name:zh":"\u5370\u5ea6","name:so":"Hindiya","name:sm":"Igitia","name:sl":"Indija","name:ja":"\u30a4\u30f3\u30c9","name:si":"\u0db7\u0dcf\u0dbb\u0dad \u0da2\u0db1\u0dbb\u0da2\u0dba","name:sh":"Indija","name:na":"Indjiya","name:sd":"\u0680\u0627\u0631\u062a","name:sc":"\u00ccndia","name:ne":"\u092d\u093e\u0930\u0924","name:sa":"\u092d\u093e\u0930\u0924\u092e\u094d","name:bs":"Indija","name:bn":"\u09ad\u09be\u09b0\u09a4","name:bo":"\u0f62\u0f92\u0fb1\u0f0b\u0f42\u0f62\u0f0d","name:ru":"\u0418\u043d\u0434\u0438\u044f","name:sv":"Indien","name:ha":"Indiya","name:wo":"End","name:sr":"\u0418\u043d\u0434\u0438\u0458\u0430","name:nv":"T\u00f3 W\u00f3naan\u00edd\u0119\u0301\u0119\u0301\u02bc Bits\u012f\u02bc Yisht\u0142izhii Bik\u00e9yah","name:ga":"An India","name:gd":"Na h-Innseachan","name:ht":"End","name:wa":"Inde","name:fa":"\u0647\u0646\u062f","maritime_boundary":true,"name:gv":"Yn Injey","name:gu":"\u0aad\u0abe\u0ab0\u0aa4","name:fi":"Intia"},"arcs":[0]},{"type":"LineString","properties":{"name:right:ja":"\u30de\u30cf\u30fc\u30e9\u30fc\u30b7\u30e5\u30c8\u30e9","name:left:hi":"\u0926\u093e\u0926\u0930\u093e \u0914\u0930 \u0928\u0917\u0930 \u0939\u0935\u0947\u0932\u0940","name:right:uk":"\u041c\u0430\u0445\u0430\u0440\u0430\u0448\u0442\u0440\u0430","name:left:ja":"\u30c0\u30fc\u30c9\u30e9\u30fc\u53ca\u3073\u30ca\u30ac\u30eb\u30fb\u30cf\u30f4\u30a7\u30fc\u30ea\u30fc\u9023\u90a6\u76f4\u8f44\u9818","id:right":-1950884,"name:left:uk":"\u0414\u0430\u0434\u0440\u0430 \u0456 \u041d\u0430\u0433\u0430\u0440-\u0425\u0430\u0432\u0435\u043b\u0456","name:right:hi":"\u092e\u0939\u093e\u0930\u093e\u0937\u094d\u091f\u094d\u0930","min_zoom":8.0,"name:left:ru":"\u0414\u0430\u0434\u0440\u0430 \u0438 \u041d\u0430\u0433\u0430\u0440-\u0425\u0430\u0432\u0435\u043b\u0438","name:right:mr":"\u092e\u0939\u093e\u0930\u093e\u0937\u094d\u091f\u094d\u0930","name:right:kn":"\u0cae\u0cb9\u0cbe\u0cb0\u0cbe\u0cb7\u0ccd\u0c9f\u0ccd\u0cb0","id":-1952530,"osm_relation":true,"name:right":"Maharashtra","kind":"region","name":"Union Territory of Dadra & Nagar Haveli - Maharashtra","sort_rank":256,"kind_detail":"4","name:right:ru":"\u041c\u0430\u0445\u0430\u0440\u0430\u0448\u0442\u0440\u0430","name:right:ta":"\u0bae\u0b95\u0bbe\u0bb0\u0bbe\u0b9f\u0bcd\u0b9f\u0bbf\u0bb0\u0bae\u0bcd","source":"openstreetmap.org","name:left:zh":"\u8fbe\u5fb7\u62c9-\u7eb3\u52a0\u5c14\u54c8\u7ef4\u5229\u4e2d\u592e\u76f4\u8f96\u533a","id:left":-1952530,"name:right:zh":"\u9a6c\u54c8\u62c9\u65bd\u7279\u62c9\u90a6","name:left":"Union Territory of Dadra & Nagar Haveli"},"arcs":[1]},{"type":"MultiLineString","properties":{"name:right:gu":"\u0a97\u0ac1\u0a9c\u0ab0\u0abe\u0aa4","name:right:ja":"\u30b0\u30b8\u30e3\u30e9\u30fc\u30c8","name:left:hi":"\u0926\u093e\u0926\u0930\u093e \u0914\u0930 \u0928\u0917\u0930 \u0939\u0935\u0947\u0932\u0940","name:right:uk":"\u0413\u0443\u0434\u0436\u0430\u0440\u0430\u0442","name:left:ja":"\u30c0\u30fc\u30c9\u30e9\u30fc\u53ca\u3073\u30ca\u30ac\u30eb\u30fb\u30cf\u30f4\u30a7\u30fc\u30ea\u30fc\u9023\u90a6\u76f4\u8f44\u9818","id:right":-1949080,"name:left:uk":"\u0414\u0430\u0434\u0440\u0430 \u0456 \u041d\u0430\u0433\u0430\u0440-\u0425\u0430\u0432\u0435\u043b\u0456","name:right:hi":"\u0917\u0941\u091c\u0930\u093e\u0924","min_zoom":8.0,"name:left:ru":"\u0414\u0430\u0434\u0440\u0430 \u0438 \u041d\u0430\u0433\u0430\u0440-\u0425\u0430\u0432\u0435\u043b\u0438","name:right:mr":"\u0917\u0941\u091c\u0930\u093e\u0924","name:right:kn":"\u0c97\u0cc1\u0c9c\u0cb0\u0cbe\u0ca4","id":-1952530,"osm_relation":true,"name:right":"Gujarat","kind":"region","name":"Union Territory of Dadra & Nagar Haveli - Gujarat","sort_rank":256,"kind_detail":"4","name:right:ru":"\u0413\u0443\u0434\u0436\u0430\u0440\u0430\u0442","name:right:ta":"\u0b95\u0bc1\u0b9a\u0bb0\u0bbe\u0ba4\u0bcd\u0ba4\u0bc1","source":"openstreetmap.org","name:left:zh":"\u8fbe\u5fb7\u62c9-\u7eb3\u52a0\u5c14\u54c8\u7ef4\u5229\u4e2d\u592e\u76f4\u8f96\u533a","name:right:ar":"\u0643\u062c\u0631\u0627\u062a","id:left":-1952530,"name:right:zh":"\u53e4\u5409\u62c9\u7279\u90a6","name:left":"Union Territory of Dadra & Nagar Haveli"},"arcs":[[2],[3]]},{"type":"LineString","properties":{"kind":"region","name":"Union Territory of Dadra & Nagar Haveli","name:hi":"\u0926\u093e\u0926\u0930\u093e \u0914\u0930 \u0928\u0917\u0930 \u0939\u0935\u0947\u0932\u0940","sort_rank":256,"kind_detail":"4","source":"openstreetmap.org","min_zoom":8.0,"name:uk":"\u0414\u0430\u0434\u0440\u0430 \u0456 \u041d\u0430\u0433\u0430\u0440-\u0425\u0430\u0432\u0435\u043b\u0456","name:ru":"\u0414\u0430\u0434\u0440\u0430 \u0438 \u041d\u0430\u0433\u0430\u0440-\u0425\u0430\u0432\u0435\u043b\u0438","name:zh":"\u8fbe\u5fb7\u62c9-\u7eb3\u52a0\u5c14\u54c8\u7ef4\u5229\u4e2d\u592e\u76f4\u8f96\u533a","id":-1952530,"osm_relation":true,"name:ja":"\u30c0\u30fc\u30c9\u30e9\u30fc\u53ca\u3073\u30ca\u30ac\u30eb\u30fb\u30cf\u30f4\u30a7\u30fc\u30ea\u30fc\u9023\u90a6\u76f4\u8f44\u9818"},"arcs":[4]},{"type":"LineString","properties":{"name:right:gu":"\u0a97\u0ac1\u0a9c\u0ab0\u0abe\u0aa4","name:right:ja":"\u30b0\u30b8\u30e3\u30e9\u30fc\u30c8","name:left:hi":"\u092e\u0939\u093e\u0930\u093e\u0937\u094d\u091f\u094d\u0930","name:right:uk":"\u0413\u0443\u0434\u0436\u0430\u0440\u0430\u0442","name:left:ja":"\u30de\u30cf\u30fc\u30e9\u30fc\u30b7\u30e5\u30c8\u30e9","id:right":-1949080,"name:left:uk":"\u041c\u0430\u0445\u0430\u0440\u0430\u0448\u0442\u0440\u0430","name:right:hi":"\u0917\u0941\u091c\u0930\u093e\u0924","min_zoom":8.0,"name:left:ru":"\u041c\u0430\u0445\u0430\u0440\u0430\u0448\u0442\u0440\u0430","name:left:ta":"\u0bae\u0b95\u0bbe\u0bb0\u0bbe\u0b9f\u0bcd\u0b9f\u0bbf\u0bb0\u0bae\u0bcd","name:right:kn":"\u0c97\u0cc1\u0c9c\u0cb0\u0cbe\u0ca4","id":-1950884,"osm_relation":true,"name:right":"Gujarat","kind":"region","name":"Maharashtra - Gujarat","name:left:mr":"\u092e\u0939\u093e\u0930\u093e\u0937\u094d\u091f\u094d\u0930","sort_rank":256,"kind_detail":"4","name:right:ru":"\u0413\u0443\u0434\u0436\u0430\u0440\u0430\u0442","name:right:mr":"\u0917\u0941\u091c\u0930\u093e\u0924","name:right:ta":"\u0b95\u0bc1\u0b9a\u0bb0\u0bbe\u0ba4\u0bcd\u0ba4\u0bc1","source":"openstreetmap.org","name:left:zh":"\u9a6c\u54c8\u62c9\u65bd\u7279\u62c9\u90a6","name:right:ar":"\u0643\u062c\u0631\u0627\u062a","name:left:kn":"\u0cae\u0cb9\u0cbe\u0cb0\u0cbe\u0cb7\u0ccd\u0c9f\u0ccd\u0cb0","id:left":-1950884,"name:right:zh":"\u53e4\u5409\u62c9\u7279\u90a6","name:left":"Maharashtra"},"arcs":[5]},{"type":"LineString","properties":{"name:right:gu":"\u0a97\u0ac1\u0a9c\u0ab0\u0abe\u0aa4","name:right:ja":"\u30b0\u30b8\u30e3\u30e9\u30fc\u30c8","name:left:hi":"\u092e\u0939\u093e\u0930\u093e\u0937\u094d\u091f\u094d\u0930","name:right:uk":"\u0413\u0443\u0434\u0436\u0430\u0440\u0430\u0442","name:left:ja":"\u30de\u30cf\u30fc\u30e9\u30fc\u30b7\u30e5\u30c8\u30e9","id:right":-1949080,"name:left:uk":"\u041c\u0430\u0445\u0430\u0440\u0430\u0448\u0442\u0440\u0430","name:right:hi":"\u0917\u0941\u091c\u0930\u093e\u0924","min_zoom":8.0,"name:left:ru":"\u041c\u0430\u0445\u0430\u0440\u0430\u0448\u0442\u0440\u0430","name:left:ta":"\u0bae\u0b95\u0bbe\u0bb0\u0bbe\u0b9f\u0bcd\u0b9f\u0bbf\u0bb0\u0bae\u0bcd","name:right:kn":"\u0c97\u0cc1\u0c9c\u0cb0\u0cbe\u0ca4","id":-1950884,"osm_relation":true,"name:right":"Gujarat","kind":"region","name":"Maharashtra - Gujarat","name:left:mr":"\u092e\u0939\u093e\u0930\u093e\u0937\u094d\u091f\u094d\u0930","sort_rank":256,"kind_detail":"4","name:right:ru":"\u0413\u0443\u0434\u0436\u0430\u0440\u0430\u0442","name:left:zh":"\u9a6c\u54c8\u62c9\u65bd\u7279\u62c9\u90a6","name:right:mr":"\u0917\u0941\u091c\u0930\u093e\u0924","name:right:ta":"\u0b95\u0bc1\u0b9a\u0bb0\u0bbe\u0ba4\u0bcd\u0ba4\u0bc1","source":"openstreetmap.org","maritime_boundary":true,"name:right:ar":"\u0643\u062c\u0631\u0627\u062a","name:left:kn":"\u0cae\u0cb9\u0cbe\u0cb0\u0cbe\u0cb7\u0ccd\u0c9f\u0ccd\u0cb0","id:left":-1950884,"name:right:zh":"\u53e4\u5409\u62c9\u7279\u90a6","name:left":"Maharashtra"},"arcs":[6]},{"type":"LineString","properties":{"name:ja":"\u30de\u30cf\u30fc\u30e9\u30fc\u30b7\u30e5\u30c8\u30e9","name:mr":"\u092e\u0939\u093e\u0930\u093e\u0937\u094d\u091f\u094d\u0930","name:kn":"\u0cae\u0cb9\u0cbe\u0cb0\u0cbe\u0cb7\u0ccd\u0c9f\u0ccd\u0cb0","min_zoom":8.0,"name:uk":"\u041c\u0430\u0445\u0430\u0440\u0430\u0448\u0442\u0440\u0430","name:ru":"\u041c\u0430\u0445\u0430\u0440\u0430\u0448\u0442\u0440\u0430","name:ta":"\u0bae\u0b95\u0bbe\u0bb0\u0bbe\u0b9f\u0bcd\u0b9f\u0bbf\u0bb0\u0bae\u0bcd","id":-1950884,"osm_relation":true,"kind":"region","name":"Maharashtra","sort_rank":256,"kind_detail":"4","name:hi":"\u092e\u0939\u093e\u0930\u093e\u0937\u094d\u091f\u094d\u0930","source":"openstreetmap.org","maritime_boundary":true,"name:zh":"\u9a6c\u54c8\u62c9\u65bd\u7279\u62c9\u90a6"},"arcs":[7]},{"type":"MultiLineString","properties":{"name:ja":"\u30b0\u30b8\u30e3\u30e9\u30fc\u30c8","name:mr":"\u0917\u0941\u091c\u0930\u093e\u0924","name:kn":"\u0c97\u0cc1\u0c9c\u0cb0\u0cbe\u0ca4","name:ar":"\u0643\u062c\u0631\u0627\u062a","min_zoom":8.0,"name:uk":"\u0413\u0443\u0434\u0436\u0430\u0440\u0430\u0442","name:ru":"\u0413\u0443\u0434\u0436\u0430\u0440\u0430\u0442","name:ta":"\u0b95\u0bc1\u0b9a\u0bb0\u0bbe\u0ba4\u0bcd\u0ba4\u0bc1","id":-1949080,"osm_relation":true,"kind":"region","name":"Gujarat","sort_rank":256,"kind_detail":"4","name:hi":"\u0917\u0941\u091c\u0930\u093e\u0924","source":"openstreetmap.org","name:gu":"\u0a97\u0ac1\u0a9c\u0ab0\u0abe\u0aa4","name:zh":"\u53e4\u5409\u62c9\u7279\u90a6"},"arcs":[[8],[9]]},{"type":"LineString","properties":{"name:ja":"\u30b0\u30b8\u30e3\u30e9\u30fc\u30c8","name:mr":"\u0917\u0941\u091c\u0930\u093e\u0924","name:kn":"\u0c97\u0cc1\u0c9c\u0cb0\u0cbe\u0ca4","name:ar":"\u0643\u062c\u0631\u0627\u062a","min_zoom":8.0,"name:uk":"\u0413\u0443\u0434\u0436\u0430\u0440\u0430\u0442","name:ru":"\u0413\u0443\u0434\u0436\u0430\u0440\u0430\u0442","name:ta":"\u0b95\u0bc1\u0b9a\u0bb0\u0bbe\u0ba4\u0bcd\u0ba4\u0bc1","id":-1949080,"osm_relation":true,"kind":"region","name":"Gujarat","sort_rank":256,"kind_detail":"4","name:hi":"\u0917\u0941\u091c\u0930\u093e\u0924","source":"openstreetmap.org","maritime_boundary":true,"name:gu":"\u0a97\u0ac1\u0a9c\u0ab0\u0abe\u0aa4","name:zh":"\u53e4\u5409\u62c9\u7279\u90a6"},"arcs":[10]}]},"roads":{"type":"GeometryCollection","geometries":[{"type":"MultiLineString","properties":{"kind":"major_road","network":null,"sort_rank":380,"kind_detail":"primary","source":"openstreetmap.org","min_zoom":8.0,"landuse_kind":"urban_area","shield_text":"41","ref":"SH41"},"arcs":[[14],[15]]},{"type":"LineString","properties":{"kind":"major_road","network":"IN:MH","sort_rank":380,"kind_detail":"primary","source":"openstreetmap.org","min_zoom":8.0,"shield_text":"4","ref":"MSH4;SH34","id":158029827},"arcs":[16]},{"type":"LineString","properties":{"source":"openstreetmap.org","kind":"major_road","sort_rank":380,"kind_detail":"primary","ref":"Secondary","min_zoom":8.0,"id":224478624},"arcs":[17]},{"type":"LineString","properties":{"kind":"major_road","network":null,"sort_rank":380,"kind_detail":"primary","source":"openstreetmap.org","min_zoom":8.0,"shield_text":"34","ref":"SH35"},"arcs":[18]},{"type":"LineString","properties":{"kind":"major_road","network":null,"sort_rank":380,"kind_detail":"primary","source":"openstreetmap.org","min_zoom":8.0,"landuse_kind":"urban_area","shield_text":"29","ref":"SH29","id":261394266},"arcs":[19]},{"type":"MultiLineString","properties":{"kind":"major_road","network":"IN:SH:Gj","sort_rank":380,"kind_detail":"primary","source":"openstreetmap.org","min_zoom":8.0,"landuse_kind":"urban_area","shield_text":"6"},"arcs":[[20],[21]]},{"type":"LineString","properties":{"kind":"major_road","network":null,"sort_rank":380,"kind_detail":"primary","source":"openstreetmap.org","min_zoom":8.0,"landuse_kind":"urban_area","shield_text":"40","ref":"SH40"},"arcs":[22]},{"type":"LineString","properties":{"kind":"major_road","network":"IN:SH:Gj","sort_rank":380,"kind_detail":"primary","source":"openstreetmap.org","min_zoom":8.0,"shield_text":"5","ref":"SH5"},"arcs":[23]},{"type":"MultiLineString","properties":{"kind":"major_road","network":"AsianHighway","sort_rank":381,"landuse_kind":"urban_area","source":"openstreetmap.org","min_zoom":8.0,"kind_detail":"trunk","shield_text":"47","ref":"NH160"},"arcs":[[24],[25]]},{"type":"LineString","properties":{"kind":"major_road","network":null,"sort_rank":380,"kind_detail":"primary","source":"openstreetmap.org","min_zoom":8.0,"shield_text":"41","ref":"SH41","id":76806698},"arcs":[26]},{"type":"LineString","properties":{"source":"openstreetmap.org","kind":"major_road","landuse_kind":"urban_area","sort_rank":380,"kind_detail":"primary","ref":"SH701","min_zoom":8.0},"arcs":[27]},{"type":"MultiLineString","properties":{"kind":"major_road","network":null,"sort_rank":380,"kind_detail":"primary","source":"openstreetmap.org","min_zoom":8.0,"shield_text":"40","ref":"SH40"},"arcs":[[28],[29],[30],[31],[32]]},{"type":"LineString","properties":{"kind":"major_road","network":null,"sort_rank":380,"kind_detail":"primary","source":"openstreetmap.org","min_zoom":8.0,"shield_text":"31","ref":"SH30;SH31"},"arcs":[33]},{"type":"LineString","properties":{"kind":"major_road","network":"IN:NH","sort_rank":381,"kind_detail":"trunk","source":"openstreetmap.org","min_zoom":8.0,"landuse_kind":"urban_area","shield_text":null,"ref":"NH56","id":222502537},"arcs":[34]},{"type":"MultiLineString","properties":{"kind":"major_road","network":null,"sort_rank":380,"kind_detail":"primary","source":"openstreetmap.org","min_zoom":8.0,"shield_text":"34","ref":"SH34"},"arcs":[[35],[36],[37]]},{"type":"MultiLineString","properties":{"kind":"major_road","network":"AsianHighway","sort_rank":381,"kind_detail":"trunk","source":"openstreetmap.org","min_zoom":8.0,"shield_text":"47","ref":"NH160"},"arcs":[[38],[39]]},{"type":"MultiLineString","properties":{"sort_rank":381,"source":"openstreetmap.org","min_zoom":8.0,"kind":"major_road","kind_detail":"trunk"},"arcs":[[40],[41],[42]]},{"type":"LineString","properties":{"kind":"major_road","network":"IN:SH:Gj","sort_rank":380,"kind_detail":"primary","source":"openstreetmap.org","min_zoom":8.0,"landuse_kind":"urban_area","shield_text":"186","ref":"SH186","id":138540747},"arcs":[43]},{"type":"LineString","properties":{"kind":"major_road","network":"IN:SH:Gj","sort_rank":380,"kind_detail":"primary","source":"openstreetmap.org","min_zoom":8.0,"shield_text":"6","ref":"SH6;SH67"},"arcs":[44]},{"type":"LineString","properties":{"source":"openstreetmap.org","kind":"major_road","network":"IN:NH","sort_rank":381,"kind_detail":"trunk","min_zoom":8.0,"shield_text":"848A"},"arcs":[45]},{"type":"MultiLineString","properties":{"source":"openstreetmap.org","kind":"major_road","landuse_kind":"urban_area","sort_rank":380,"kind_detail":"primary","ref":"SH6","min_zoom":8.0},"arcs":[[46],[47]]},{"type":"LineString","properties":{"kind":"major_road","network":"IN:NH","sort_rank":381,"landuse_kind":"urban_area","source":"openstreetmap.org","min_zoom":8.0,"kind_detail":"trunk","shield_text":"848","ref":"NH848;SH35"},"arcs":[48]},{"type":"LineString","properties":{"kind":"major_road","network":null,"sort_rank":380,"kind_detail":"primary","source":"openstreetmap.org","min_zoom":8.0,"shield_text":"33","id":244367074},"arcs":[49]},{"type":"MultiLineString","properties":{"source":"openstreetmap.org","kind":"major_road","landuse_kind":"urban_area","sort_rank":380,"kind_detail":"primary","min_zoom":8.0},"arcs":[[50],[51],[52],[53],[54],[55],[56],[57],[58],[59],[60],[61],[62],[63],[64],[65],[66],[67],[68],[69],[70],[71],[72],[73],[74],[75],[76],[77],[78],[79],[80],[81],[82],[83],[84],[85],[86],[87],[88]]},{"type":"MultiLineString","properties":{"kind":"major_road","network":"IN:NH","sort_rank":381,"kind_detail":"trunk","source":"openstreetmap.org","min_zoom":8.0,"landuse_kind":"nature_reserve","shield_text":null,"ref":"NH48"},"arcs":[[89],[90]]},{"type":"LineString","properties":{"kind":"major_road","network":null,"sort_rank":380,"kind_detail":"primary","source":"openstreetmap.org","min_zoom":8.0,"shield_text":"28","ref":"SH28"},"arcs":[91]},{"type":"MultiLineString","properties":{"kind":"major_road","network":"IN:MH","sort_rank":380,"kind_detail":"primary","source":"openstreetmap.org","min_zoom":8.0,"shield_text":"4","ref":"MSH4"},"arcs":[[92],[93],[94],[95],[96]]},{"type":"MultiLineString","properties":{"kind":"major_road","network":"IN:NH","sort_rank":381,"kind_detail":"trunk","source":"openstreetmap.org","min_zoom":8.0,"shield_text":"848","ref":"NH848;SH35"},"arcs":[[97],[98]]},{"type":"MultiLineString","properties":{"source":"openstreetmap.org","kind":"major_road","sort_rank":380,"kind_detail":"primary","ref":"SH30","min_zoom":8.0},"arcs":[[99],[100],[101]]},{"type":"LineString","properties":{"kind":"major_road","sort_rank":380,"landuse_kind":"urban_area","source":"openstreetmap.org","min_zoom":8.0,"kind_detail":"primary","ref":"Vasai Station Rd","id":213256170},"arcs":[102]},{"type":"LineString","properties":{"kind":"major_road","network":null,"sort_rank":380,"kind_detail":"primary","source":"openstreetmap.org","min_zoom":8.0,"shield_text":"35","ref":"SH35","id":309704322},"arcs":[103]},{"type":"LineString","properties":{"kind":"major_road","network":"IN:NH","sort_rank":381,"kind_detail":"trunk","source":"openstreetmap.org","min_zoom":8.0,"shield_text":null,"ref":"NH56"},"arcs":[104]},{"type":"MultiLineString","properties":{"kind":"major_road","network":"IN:NH","sort_rank":381,"kind_detail":"trunk","source":"openstreetmap.org","min_zoom":8.0,"shield_text":"848A","ref":"NH848A"},"arcs":[[105],[106],[107],[108]]},{"type":"LineString","properties":{"kind":"major_road","network":"IN:NH","sort_rank":381,"kind_detail":"trunk","source":"openstreetmap.org","min_zoom":8.0,"shield_text":"848","ref":"NH848","id":223425425},"arcs":[109]},{"type":"LineString","properties":{"kind":"major_road","network":"IN:SH:Gj","sort_rank":380,"kind_detail":"primary","source":"openstreetmap.org","min_zoom":8.0,"shield_text":"181","ref":"SH181"},"arcs":[110]},{"type":"MultiLineString","properties":{"sort_rank":380,"kind_detail":"primary","min_zoom":8.0,"kind":"major_road","source":"openstreetmap.org"},"arcs":[[111],[112],[113],[114],[115],[116],[117],[118],[119],[120],[121],[122],[123],[124],[125],[126],[127],[128],[129],[130],[131],[132],[133],[134],[135],[136],[137]]},{"type":"LineString","properties":{"kind":"major_road","network":"IN:SH:Gj","sort_rank":380,"kind_detail":"primary","source":"openstreetmap.org","min_zoom":8.0,"landuse_kind":"urban_area","shield_text":"185","ref":"Secondary"},"arcs":[138]},{"type":"MultiLineString","properties":{"source":"openstreetmap.org","kind":"major_road","landuse_kind":"urban_area","sort_rank":380,"kind_detail":"primary","ref":"SH67","min_zoom":8.0},"arcs":[[139],[140],[141],[142],[143]]},{"type":"LineString","properties":{"kind":"major_road","network":"IN:NH","sort_rank":381,"kind_detail":"trunk","source":"openstreetmap.org","min_zoom":8.0,"shield_text":null,"id":376335770},"arcs":[144]},{"type":"MultiLineString","properties":{"kind":"major_road","network":"IN:SH:Gj","sort_rank":380,"kind_detail":"primary","source":"openstreetmap.org","min_zoom":8.0,"shield_text":"67","ref":"SH67"},"arcs":[[145],[146]]},{"type":"LineString","properties":{"kind":"major_road","network":"IN:NH","sort_rank":381,"kind_detail":"trunk","source":"openstreetmap.org","min_zoom":8.0,"shield_text":"848","ref":"NH848;SH36"},"arcs":[147]},{"type":"MultiLineString","properties":{"source":"openstreetmap.org","kind":"major_road","sort_rank":380,"kind_detail":"primary","ref":"SH 30","min_zoom":8.0},"arcs":[[148],[149],[150],[151]]},{"type":"MultiLineString","properties":{"kind":"major_road","network":"IN:SH:Gj","sort_rank":380,"kind_detail":"primary","source":"openstreetmap.org","min_zoom":8.0,"shield_text":"186","ref":"SH186"},"arcs":[[152],[153],[154],[155],[156]]},{"type":"LineString","properties":{"kind":"major_road","network":"IN:NH","sort_rank":381,"landuse_kind":"urban_area","source":"openstreetmap.org","min_zoom":8.0,"kind_detail":"trunk","shield_text":"848B","ref":"NH848B"},"arcs":[157]},{"type":"LineString","properties":{"kind":"major_road","network":"IN:NH","sort_rank":381,"kind_detail":"trunk","source":"openstreetmap.org","min_zoom":8.0,"shield_text":"848B","ref":"NH848B"},"arcs":[158]},{"type":"MultiLineString","properties":{"kind":"major_road","network":null,"sort_rank":380,"kind_detail":"primary","source":"openstreetmap.org","min_zoom":8.0,"shield_text":"31","ref":"SH31"},"arcs":[[159],[160]]},{"type":"MultiLineString","properties":{"kind":"major_road","network":"IN:NH","sort_rank":381,"kind_detail":"trunk","source":"openstreetmap.org","min_zoom":8.0,"shield_text":null,"ref":"NH48"},"arcs":[[161],[162],[163],[164],[165],[166],[167],[168],[169],[170],[171],[172],[173],[174],[175],[176],[177],[178],[179],[180],[181],[182],[183],[184],[185],[186],[187],[188],[189],[190],[191],[192],[193],[194],[195]]},{"type":"LineString","properties":{"kind":"major_road","network":"IN:NH","sort_rank":381,"kind_detail":"trunk","source":"openstreetmap.org","min_zoom":8.0,"shield_text":"848A","ref":"SH185"},"arcs":[196]},{"type":"LineString","properties":{"kind":"major_road","sort_rank":380,"kind_detail":"primary","is_bicycle_related":true,"cycleway":"shared_lane","source":"openstreetmap.org","min_zoom":8.0,"landuse_kind":"urban_area","ref":"ROAD","id":443378436},"arcs":[197]},{"type":"LineString","properties":{"kind":"major_road","network":"IN:SH:Gj","sort_rank":380,"kind_detail":"primary","source":"openstreetmap.org","min_zoom":8.0,"landuse_kind":"urban_area","shield_text":"185","ref":"SH185"},"arcs":[198]},{"type":"LineString","properties":{"source":"openstreetmap.org","kind":"major_road","landuse_kind":"urban_area","sort_rank":380,"kind_detail":"primary","ref":"SH 30","min_zoom":8.0},"arcs":[199]},{"type":"LineString","properties":{"kind":"major_road","network":"IN:SH:Gj","sort_rank":380,"kind_detail":"primary","source":"openstreetmap.org","min_zoom":8.0,"landuse_kind":"urban_area","shield_text":"5","ref":"Secondary","id":38300705},"arcs":[200]},{"type":"LineString","properties":{"kind":"major_road","network":"IN:SH:Gj","sort_rank":380,"kind_detail":"primary","source":"openstreetmap.org","min_zoom":8.0,"landuse_kind":"urban_area","shield_text":"701","ref":"SH701","id":225065198},"arcs":[201]},{"type":"LineString","properties":{"source":"openstreetmap.org","kind":"major_road","sort_rank":380,"kind_detail":"primary","ref":"Sh 30","min_zoom":8.0,"id":22867593},"arcs":[202]},{"type":"MultiLineString","properties":{"kind":"major_road","network":"IN:SH:Gj","sort_rank":380,"kind_detail":"primary","source":"openstreetmap.org","min_zoom":8.0,"landuse_kind":"urban_area","shield_text":"6","ref":"SH6;SH67"},"arcs":[[203],[204]]},{"type":"LineString","properties":{"kind":"major_road","network":null,"sort_rank":380,"kind_detail":"primary","source":"openstreetmap.org","min_zoom":8.0,"shield_text":"32","ref":"SH32"},"arcs":[205]},{"type":"MultiLineString","properties":{"kind":"major_road","network":"IN:SH:Gj","sort_rank":380,"kind_detail":"primary","source":"openstreetmap.org","min_zoom":8.0,"landuse_kind":"urban_area","shield_text":"6","ref":"SH6"},"arcs":[[206],[207],[208]]},{"type":"LineString","properties":{"kind":"major_road","network":"IN:SH:Gj","sort_rank":380,"kind_detail":"primary","source":"openstreetmap.org","min_zoom":8.0,"landuse_kind":"urban_area","shield_text":"5","ref":"SH5","id":262569300},"arcs":[209]},{"type":"MultiLineString","properties":{"kind":"major_road","network":"IN:SH:Gj","sort_rank":380,"kind_detail":"primary","source":"openstreetmap.org","min_zoom":8.0,"shield_text":"701","ref":"SH701"},"arcs":[[210],[211]]},{"type":"MultiLineString","properties":{"kind":"major_road","network":"IN:MH","sort_rank":380,"kind_detail":"primary","source":"openstreetmap.org","min_zoom":8.0,"landuse_kind":"urban_area","shield_text":"4","ref":"MSH4"},"arcs":[[212],[213],[214],[215]]},{"type":"LineString","properties":{"source":"openstreetmap.org","kind":"major_road","sort_rank":380,"kind_detail":"primary","ref":"SH186","min_zoom":8.0,"id":104639410},"arcs":[216]},{"type":"LineString","properties":{"kind":"major_road","network":"IN:NH:DN","sort_rank":381,"kind_detail":"trunk","source":"openstreetmap.org","min_zoom":8.0,"shield_text":"848A","ref":"NH848A","id":229096830},"arcs":[217]},{"type":"MultiLineString","properties":{"kind":"major_road","network":null,"sort_rank":380,"kind_detail":"primary","source":"openstreetmap.org","min_zoom":8.0,"shield_text":"33","ref":"SH33"},"arcs":[[218],[219]]},{"type":"MultiLineString","properties":{"kind":"major_road","network":"IN:SH:Gj","sort_rank":380,"kind_detail":"primary","source":"openstreetmap.org","min_zoom":8.0,"landuse_kind":"urban_area","shield_text":"67","ref":"SH67"},"arcs":[[220],[221],[222]]},{"type":"LineString","properties":{"kind":"major_road","network":null,"sort_rank":380,"kind_detail":"primary","source":"openstreetmap.org","min_zoom":8.0,"shield_text":"29","ref":"SH29"},"arcs":[223]},{"type":"MultiLineString","properties":{"kind":"major_road","network":"IN:NH","sort_rank":381,"landuse_kind":"urban_area","source":"openstreetmap.org","min_zoom":8.0,"kind_detail":"trunk","shield_text":null,"ref":"NH48"},"arcs":[[224],[225],[226],[227],[228],[229],[230],[231],[232],[233]]}]},"earth":{"type":"GeometryCollection","geometries":[{"type":"MultiPolygon","properties":{"sort_rank":10,"source":"naturalearthdata.com","min_zoom":0.0,"kind":"earth","area":39181341198},"arcs":[[[234]],[[235]]]}]},"landuse":{"type":"GeometryCollection","geometries":[{"type":"MultiPolygon","properties":{"source":"naturalearthdata.com","kind":"urban_area","name":"","area":4107084187,"sort_rank":11,"min_zoom":4.0},"arcs":[[[236]],[[237]],[[238]],[[239]],[[240]],[[241]],[[242]],[[243]],[[244]]]},{"type":"Polygon","properties":{"kind":"nature_reserve","protect_class":"2","area":19154100,"sort_rank":23,"operator":"Ministry of Environment and Forests","source":"openstreetmap.org","min_zoom":8.0,"tier":2,"id":-6245228,"osm_relation":true},"arcs":[[245]]}]}},"type":"Topology","transform":{"translate":[71.71875,19.3111433551],"scale":[0.0003433228,0.0003226662]},"arcs":[[[2261,4096],[15,-116],[-58,-680],[168,-701],[197,-2599]],[[3646,2792],[17,-99],[30,-28],[-39,-124],[47,-56],[44,16],[17,69],[21,-17],[-21,-76],[123,-133],[20,2],[4,95],[110,-16],[77,-40]],[[4096,3081],[-35,-1],[26,87],[-42,86],[-48,-105],[-118,-11],[-18,-100],[-52,10],[-18,46],[1,-56],[-118,8],[11,-67],[-27,0],[-83,66],[-62,-46],[-3,-32],[49,-66],[85,-40],[2,-68]],[[4096,2623],[-57,8],[-28,44],[-27,-54],[-41,21],[6,90],[-30,33],[37,83],[98,7],[42,76]],[[3692,2820],[5,43],[72,-6],[-3,-50],[-74,13]],[[3646,2792],[-279,43],[-8,-55],[-63,0],[-19,-32],[17,-26],[-41,-6],[-20,-96],[20,-36],[-57,26],[-41,-15],[0,-72],[-309,44]],[[2846,2567],[-460,32]],[[2386,2599],[197,-2599]],[[3209,3277],[36,249],[70,65],[88,-25],[15,-46],[-41,-21],[-29,16],[-26,-52],[35,-19],[58,14],[31,-29],[-7,-35],[-50,-5],[45,-80],[-17,-26],[-91,16],[-117,-22]],[[3534,3133],[43,94],[57,-1],[10,34],[47,-21],[44,-64],[-10,-29],[-103,-61],[-88,48]],[[2261,4096],[15,-116],[-58,-680],[168,-701]],[[3420,4096],[-13,-13],[-9,-29],[3,-33],[12,-67],[3,-37],[-3,-69],[-12,-66],[-21,-59],[-114,-166],[-31,-65],[-18,-65],[-7,-95],[-11,-32],[-20,-22],[-35,-30],[-33,-21],[-15,0],[-12,-69],[-28,-56],[-33,-50],[-24,-48],[-16,-101],[-3,-7],[0,-64],[7,-17],[14,-3],[13,-1],[6,-9],[-10,-36],[-42,-60],[-9,-33],[-19,-137],[-52,-144],[-7,-37],[0,-181],[-13,-46],[-26,-57],[-30,-48],[-23,-20],[-32,-14],[-7,-34],[10,-79],[-6,-108],[-15,-47],[-29,-45],[3,-31],[66,-90],[20,-38],[-11,-113],[6,-55],[35,8],[111,138],[14,-43],[3,-24],[2,-29],[-10,-25],[-20,-6],[-21,-3],[-9,-18],[13,-55],[23,-40],[0,-29],[-54,-26],[-10,28],[-13,24],[-17,19],[-22,14],[67,-232],[25,-134],[-21,-59],[34,-159],[55,-63],[22,-11],[19,21],[-2,24],[-16,22],[-43,39],[15,19],[3,25],[-7,29],[-11,33],[21,0],[53,-24],[31,-22],[14,-27],[4,-37],[13,-27],[19,-20],[23,-11],[59,6],[58,25],[61,14],[65,-27],[-320,-130],[-43,-27],[-22,-43],[4,-74],[33,-171],[11,-27],[70,-108],[42,-42],[48,-5],[54,55],[53,-26],[83,-72],[25,-16],[-59,0],[-14,18],[-81,7],[-157,-16],[-5,-9],[-3102,0],[0,4096],[3420,0]],[[3420,4096],[-13,-13],[-9,-29],[3,-33],[12,-67],[3,-37],[-3,-69],[-12,-66],[-21,-59],[-114,-166],[-31,-65],[-18,-65],[-7,-95],[-11,-32],[-20,-22],[-35,-30],[-33,-21],[-15,0],[-12,-69],[-28,-56],[-33,-50],[-24,-48],[-16,-101],[-3,-7],[0,-64],[7,-17],[14,-3],[13,-1],[6,-9],[-10,-36],[-42,-60],[-9,-33],[-19,-137],[-52,-144],[-7,-37],[0,-181],[-13,-46],[-26,-57],[-30,-48],[-23,-20],[-32,-14],[-7,-34],[10,-79],[-6,-108],[-15,-47],[-29,-45],[3,-31],[66,-90],[20,-38],[-11,-113],[6,-55],[35,8],[111,138],[14,-43],[3,-24],[2,-29],[-10,-25],[-20,-6],[-21,-3],[-9,-18],[13,-55],[23,-40],[0,-29],[-54,-26],[-10,28],[-13,24],[-17,19],[-22,14],[67,-232],[25,-134],[-21,-59],[34,-159],[55,-63],[22,-11],[19,21],[-2,24],[-16,22],[-43,39],[15,19],[3,25],[-7,29],[-11,33],[21,0],[53,-24],[31,-22],[14,-27],[4,-37],[13,-27],[19,-20],[23,-11],[59,6],[58,25],[61,14],[65,-27],[-320,-130],[-43,-27],[-22,-43],[4,-74],[33,-171],[11,-27],[70,-108],[42,-42],[48,-5],[54,55],[53,-26],[83,-72],[25,-16]],[[3359,0],[-14,18],[-81,7],[-157,-16],[-5,-9]],[[3284,120],[1,1]],[[3286,122],[82,30]],[[3055,1224],[-16,-23]],[[3405,3568],[-4,-5]],[[4096,1062],[-144,48]],[[3045,2682],[-28,27]],[[3527,4094],[0,2]],[[3516,4018],[1,0],[-1,0]],[[3248,500],[-32,2],[-32,-46],[33,-48],[8,-102],[43,-32],[82,14]],[[3117,2708],[98,41],[210,260]],[[4045,0],[12,62]],[[4057,61],[-12,-61]],[[3368,152],[55,18]],[[3535,4051],[36,8]],[[3248,500],[27,-9]],[[3286,492],[120,-6]],[[3350,288],[41,-4]],[[3973,485],[-215,68],[-95,-23],[-49,-67],[-193,44]],[[3973,484],[93,-28],[30,-46]],[[3138,2040],[-36,18]],[[3521,3242],[-17,24]],[[3039,1201],[-142,0]],[[3530,1278],[-44,5],[-85,-76],[-170,-21],[-59,55],[-117,-17]],[[3952,1110],[-211,31],[-166,124],[-34,1]],[[4057,62],[39,42]],[[4096,103],[-39,-42]],[[3406,486],[1,-1]],[[3406,486],[1,0]],[[3492,2559],[-3,-30]],[[3375,3590],[-43,0],[8,23]],[[3458,3983],[22,19]],[[3654,2541],[27,10]],[[3528,4014],[0,11]],[[3549,4090],[-4,6]],[[3920,0],[27,130]],[[3920,1498],[1,0]],[[3035,1502],[-4,-5]],[[3193,415],[0,-1]],[[3197,415],[-1,1]],[[3197,424]],[[3197,426],[1,0]],[[3199,434]],[[3205,456],[-6,-22]],[[3199,434],[-1,-6],[-5,-13],[0,-1],[2,-14],[0,-2],[1,-1],[4,1]],[[3200,398],[0,-1]],[[3200,397],[1,0],[3,-30]],[[3200,398]],[[3200,398]],[[3200,436]],[[3200,397]],[[3200,397]],[[3202,363],[3,1]],[[3206,340],[-4,23]],[[3202,363],[4,-24]],[[3202,380]],[[3203,354],[0,1]],[[3203,373]],[[3204,370]],[[3204,349]],[[3204,367]],[[3204,460],[1,-4]],[[3204,367],[1,-3]],[[3205,364],[0,92]],[[3245,102],[-60,24],[39,74]],[[3235,505],[13,-5]],[[3235,217],[-4,31],[37,26]],[[3240,502]],[[3250,282],[-2,1]],[[3397,3563],[-74,-18],[-61,-117]],[[3284,120],[-12,-16]],[[3501,3255],[2,3]],[[3508,3256],[-3,0]],[[3506,3259],[4,-2]],[[3529,4026],[8,17]],[[3934,0],[103,70]],[[3435,26],[-5,22]],[[3430,50],[6,-28]],[[4096,2304],[-70,-24],[-143,-122],[-40,2]],[[2874,2019],[-64,-172],[11,-133],[60,-61]],[[2904,2249],[-17,116],[56,15],[70,316]],[[3036,1499],[-25,-83],[44,-192]],[[3471,966],[-90,52],[12,-134],[-315,-108],[-20,43],[26,43],[-126,118],[-32,66],[113,155]],[[3657,8],[-11,22],[-67,-13],[-146,206]],[[3947,130],[36,160],[-11,252],[34,56],[19,147],[71,197]],[[4096,1511],[-70,-5]],[[3491,1869],[-56,34]],[[3555,1858],[3,-2]],[[3687,1864],[36,15],[41,-31],[102,43],[102,-158],[52,24],[20,87],[56,-7]],[[3224,200],[11,17]],[[4026,1506],[-23,-10],[-39,-138],[-12,-248]],[[3521,3242],[220,-43],[109,45],[64,-12],[161,146],[21,54]],[[3425,3009],[94,-6],[86,-37],[92,8]],[[3492,2559],[162,-18]],[[3711,3041],[-178,184]],[[3712,3039],[93,-231],[20,-182],[-92,-21],[-52,-54]],[[4096,3422],[-171,172],[-98,58],[-149,64],[-104,10]],[[4003,4096],[0,-15],[93,-103]],[[3011,2870],[144,307],[140,121]],[[3031,1497],[-19,-21]],[[3027,1475],[-1,-11]],[[3272,104],[-27,-2]],[[3248,500],[25,-9]],[[3254,495]],[[3256,494],[1,0]],[[3258,493],[1,0]],[[3262,492]],[[3275,491],[4,1]],[[3286,492],[-7,0]],[[3279,492],[127,-6]],[[3305,494],[0,-1]],[[3321,489],[0,1]],[[3332,490]],[[3364,485],[0,-1]],[[3373,492],[1,0]],[[3391,285]],[[3401,3563],[-4,0]],[[3401,488],[0,-1]],[[3512,3584],[-38,-9]],[[3476,3213],[-1,-20]],[[3516,1295],[-14,-12]],[[3612,1844],[75,20]],[[3746,2420],[185,112],[-30,58],[-76,36]],[[3991,388],[105,11]],[[4037,70],[34,23]],[[3503,3267],[-40,42]],[[3531,3980],[-3,34]],[[3533,3973],[-2,5]],[[3536,3973],[-1,0],[1,0]],[[3536,3973],[3,3]],[[3536,3973]],[[3422,123],[0,1]],[[3570,3970],[291,-108]],[[4096,3820],[-154,25]],[[4026,1506],[24,-112],[46,-21]],[[3102,2058],[-34,18]],[[3435,1903],[-297,137]],[[3537,1859],[18,-1]],[[3558,1856],[54,-12]],[[3340,3613],[8,22],[29,-45]],[[3377,3590],[-2,0]],[[3377,3590],[29,-5]],[[3574,3726],[-134,1],[-34,-142]],[[3406,3585],[94,-28]],[[3256,3391],[6,37]],[[3452,3140],[-40,13],[-74,135],[-94,62],[12,41]],[[3102,2058],[-31,-113],[2,-62],[31,-40],[-38,-88],[-239,-9]],[[3733,2421],[-118,-120],[-299,-69],[-11,-60],[-167,-132]],[[3364,382],[39,97],[18,28],[43,59],[24,19]],[[3488,585],[6,4],[0,1]],[[3494,590],[-10,350],[-11,20],[-1,15],[-3,240],[1,1]],[[3470,1216],[42,17]],[[3512,1233],[15,7],[14,26],[-51,56],[0,3]],[[3490,1325],[-4,45]],[[3486,1370],[-9,102],[0,37],[23,18]],[[3500,1527],[84,70],[-1,2]],[[3583,1599],[-3,77],[-6,41],[-3,55],[-11,44],[-50,398],[-18,87],[-15,118],[12,175],[-2,4]],[[3487,2598],[-82,164]],[[3405,2762],[-17,34],[2,34]],[[3390,2830],[0,2]],[[3390,2832],[2,33],[29,139],[20,41],[25,169],[7,10]],[[3480,3219],[-18,-34],[-20,-140],[-21,-41],[-31,-172]],[[3390,2832],[0,-1],[0,-1]],[[3390,2830],[15,-68]],[[3405,2762],[12,-55],[70,-109]],[[3487,2598],[2,-4],[-12,-175],[46,-287],[37,-316],[12,-44],[3,-55],[5,-39],[6,-77],[-3,-2]],[[3583,1599],[-83,-72]],[[3500,1527],[-23,-19],[0,-36],[9,-102]],[[3486,1370],[4,-45]],[[3490,1325],[40,-47],[11,-12],[-13,-26],[-16,-7]],[[3512,1233],[-42,-17]],[[3470,1216],[5,-239],[-2,-3],[11,-34],[11,-350],[-1,0]],[[3494,590],[-6,-5]],[[3488,585],[-22,-20],[-63,-86],[-38,-97]],[[3422,124],[7,73]],[[3429,197],[3,27],[-41,60],[-25,69]],[[3366,353],[67,-128],[-4,-28]],[[3429,197],[-10,-82]],[[3419,115],[0,-1]],[[3419,114],[0,1]],[[3419,115],[3,8]],[[3493,3479],[7,89],[70,153],[49,73],[-8,20],[-8,39],[-15,127],[26,83]],[[3615,4064],[-26,-84],[31,-186],[-120,-227],[-6,-88]],[[3712,3039],[-1,2]],[[3156,88],[1,0]],[[3463,3309],[-90,109],[-53,35],[-51,-12]],[[3068,2076],[-96,28],[-48,-12]],[[3504,3266],[-1,1]],[[3571,4059],[43,3]],[[3537,1859],[-46,10]],[[3480,4002],[36,16]],[[3528,4014],[-11,4]],[[3012,1476],[163,-31],[94,22],[213,-48]],[[3529,4025],[-2,69]],[[3529,4025],[-1,-11]],[[3529,4025],[-1,0],[1,1],[0,-1]],[[3016,2711],[57,-22],[44,19]],[[3614,4062],[213,14],[50,20]],[[3974,4096],[45,-9],[26,9]],[[2874,2019],[49,26],[-19,204]],[[2881,1653],[155,-154]],[[3013,2696],[3,15]],[[3662,0],[-5,8]],[[3406,3585],[-1,-17]],[[3697,2974],[47,1]],[[3519,1293],[297,200],[104,5]],[[3921,1498],[82,-2]],[[3528,4014],[7,-41]],[[3536,3973],[34,-3]],[[3942,3845],[-81,17]],[[3602,1850],[108,93],[128,178],[-14,159],[-54,107],[-30,37],[-160,9],[-44,64],[-46,22],[-80,-18],[-135,93],[-154,13],[-76,75]],[[3366,353],[-7,16],[5,13]],[[3365,382],[1,-29]],[[3430,48],[-11,66]],[[3419,114],[11,-64]],[[3440,0],[-5,26]],[[3436,22],[5,-22]],[[3473,3224],[34,49],[-35,61],[21,145]],[[3494,3479],[-21,-145],[34,-61],[-27,-54]],[[3614,4063],[0,33]],[[3615,4096],[0,-32]],[[3102,0],[5,9],[157,16],[81,-7],[14,-18],[-257,0]],[[4096,4096],[0,-4096],[-678,0],[-25,16],[-83,72],[-53,26],[-54,-55],[-48,5],[-42,42],[-70,108],[-11,27],[-33,171],[-4,74],[22,43],[43,27],[320,130],[-65,27],[-61,-14],[-58,-25],[-59,-6],[-23,11],[-19,20],[-13,27],[-4,37],[-14,27],[-31,22],[-53,24],[-21,0],[11,-33],[7,-29],[-3,-25],[-15,-19],[43,-39],[16,-22],[2,-24],[-19,-21],[-22,11],[-55,63],[-34,159],[21,59],[-25,134],[-67,232],[22,-14],[17,-19],[13,-24],[10,-28],[54,26],[0,29],[-23,40],[-13,55],[9,18],[21,3],[20,6],[10,25],[-2,29],[-3,24],[-14,43],[-111,-138],[-35,-8],[-6,55],[11,113],[-20,38],[-66,90],[-3,31],[29,45],[15,47],[6,108],[-10,79],[7,34],[32,14],[23,20],[30,48],[26,57],[13,46],[0,181],[7,37],[52,144],[19,137],[9,33],[42,60],[10,36],[-6,9],[-13,1],[-14,3],[-7,17],[0,64],[3,7],[16,101],[24,48],[33,50],[28,56],[12,69],[15,0],[33,21],[35,30],[20,22],[11,32],[7,95],[18,65],[31,65],[114,166],[21,59],[12,66],[3,69],[-3,37],[-12,67],[-3,33],[9,29],[13,13],[676,0]],[[4019,70],[33,0],[44,-70],[-493,0],[128,20],[191,119],[62,-23],[35,-46]],[[3076,1513],[-92,-32],[-30,-34],[-14,48],[-39,-49],[-108,9],[6,62],[-65,99],[81,57],[298,-88],[0,-44],[-37,-28]],[[3102,0],[162,25],[95,-25],[-257,0]],[[3178,517],[64,0],[33,-103],[97,-34],[-32,-138],[32,-103],[65,-35],[19,-104],[-38,0],[-161,114],[-54,-55],[-48,5],[-49,52],[41,97],[-66,45],[0,156],[-64,63],[-3,46],[142,72],[22,-78]],[[2984,1963],[-159,81],[56,130],[0,86],[47,-23],[56,-101],[85,-60],[-16,-50],[-69,-63]],[[3113,2652],[-140,61],[47,89],[-38,26],[101,3],[41,-29],[-11,-150]],[[3437,3513],[32,0],[0,-34],[65,0],[0,-35],[65,0],[43,-56],[21,-116],[-162,-35],[0,-34],[-150,113],[-12,59],[-124,24],[20,93],[78,134],[55,-27],[69,-86]],[[3900,3835],[-43,23],[66,87],[47,11],[49,-30],[-72,-80],[-47,-11]],[[3420,4096],[210,0],[-64,-135],[-70,21],[-87,102],[11,12]],[[3430,42],[1,23],[40,-10],[6,50],[40,-66],[19,12],[15,-51],[-108,0],[-13,42]]]}