{"objects":{"water":{"type":"GeometryCollection","geometries":[{"type":"Polygon","properties":{"source":"naturalearthdata.com","kind":"ocean","area":1576712559132672,"sort_rank":200,"min_zoom":0.0,"id":1},"arcs":[[6],[7],[8],[9],[10],[11],[12],[13],[14],[15],[16],[17],[18],[19]]},{"type":"LineString","properties":{"source":"naturalearthdata.com","kind":"ocean","sort_rank":205,"boundary":true,"min_zoom":0.0,"id":2275},"arcs":[20]},{"type":"LineString","properties":{"source":"naturalearthdata.com","kind":"ocean","sort_rank":205,"boundary":true,"min_zoom":0.0,"id":2277},"arcs":[21]},{"type":"LineString","properties":{"source":"naturalearthdata.com","kind":"ocean","sort_rank":205,"boundary":true,"min_zoom":0.0,"id":2281},"arcs":[22]},{"type":"LineString","properties":{"source":"naturalearthdata.com","kind":"ocean","sort_rank":205,"boundary":true,"min_zoom":0.0,"id":2283},"arcs":[23]},{"type":"LineString","properties":{"source":"naturalearthdata.com","kind":"ocean","sort_rank":205,"boundary":true,"min_zoom":0.0,"id":2286},"arcs":[24]},{"type":"LineString","properties":{"source":"naturalearthdata.com","kind":"ocean","sort_rank":205,"boundary":true,"min_zoom":0.0,"id":2288},"arcs":[25]},{"type":"LineString","properties":{"source":"naturalearthdata.com","kind":"ocean","sort_rank":205,"boundary":true,"min_zoom":0.0,"id":2291},"arcs":[26]},{"type":"LineString","properties":{"source":"naturalearthdata.com","kind":"ocean","sort_rank":205,"boundary":true,"min_zoom":0.0,"id":2293},"arcs":[27]},{"type":"LineString","properties":{"source":"naturalearthdata.com","kind":"ocean","sort_rank":205,"boundary":true,"min_zoom":0.0,"id":2294},"arcs":[28]},{"type":"LineString","properties":{"source":"naturalearthdata.com","kind":"ocean","sort_rank":205,"boundary":true,"min_zoom":0.0,"id":2297},"arcs":[29]},{"type":"LineString","properties":{"source":"naturalearthdata.com","kind":"ocean","sort_rank":205,"boundary":true,"min_zoom":0.0,"id":2298},"arcs":[30]},{"type":"LineString","properties":{"source":"naturalearthdata.com","kind":"ocean","sort_rank":205,"boundary":true,"min_zoom":0.0,"id":2299},"arcs":[31]},{"type":"LineString","properties":{"source":"naturalearthdata.com","kind":"ocean","sort_rank":205,"boundary":true,"min_zoom":0.0,"id":2302},"arcs":[32]},{"type":"LineString","properties":{"source":"naturalearthdata.com","kind":"ocean","sort_rank":205,"boundary":true,"min_zoom":0.0,"id":2304},"arcs":[33]},{"type":"LineString","properties":{"source":"naturalearthdata.com","kind":"ocean","sort_rank":205,"boundary":true,"min_zoom":0.0,"id":3197},"arcs":[34]},{"type":"LineString","properties":{"source":"naturalearthdata.com","kind":"ocean","sort_rank":205,"boundary":true,"min_zoom":0.0,"id":3210},"arcs":[35]},{"type":"LineString","properties":{"source":"naturalearthdata.com","kind":"ocean","sort_rank":205,"boundary":true,"min_zoom":0.0,"id":3213},"arcs":[36]},{"type":"LineString","properties":{"source":"naturalearthdata.com","kind":"ocean","sort_rank":205,"boundary":true,"min_zoom":0.0,"id":3227},"arcs":[37]},{"type":"LineString","properties":{"source":"naturalearthdata.com","kind":"ocean","sort_rank":205,"boundary":true,"min_zoom":0.0,"id":3233},"arcs":[38]}]},"buildings":{"type":"GeometryCollection","geometries":[]},"places":{"type":"GeometryCollection","geometries":[]},"transit":{"type":"GeometryCollection","geometries":[]},"pois":{"type":"GeometryCollection","geometries":[]},"boundaries":{"type":"GeometryCollection","geometries":[{"type":"LineString","properties":{"name:pt":"Maldivas","name:ka":"\u10db\u10d0\u10da\u10d3\u10d8\u10d5\u10d8\u10e1 \u10d9\u10e3\u10dc\u10eb\u10e3\u10da\u10d4\u10d1\u10d8","name:ko":"\ubab0\ub514\ube0c","name:kn":"\u0cae\u0cbe\u0cb2\u0ccd\u0ca1\u0cbf\u0cb5\u0ccd\u0cb8\u0ccd","name:km":"\u1798\u17c9\u17b6\u179b\u17cb\u178c\u17b8\u179c","name:cs":"Maledivy","name:ki":"Modivu","name:sw":"Modivu","name:ku":"Mald\u00eev","name:ti":"\u121b\u120d\u12f2\u126d\u1235","name:ks":"\u0645\u0627\u0644\u062f\u06cc\u0656\u0648","name:to":"Malativisi","name:be":"\u041c\u0430\u043b\u044c\u0434\u0437\u0456\u0432\u044b","name:or":"\u0b2e\u0b3e\u0b33\u0b26\u0b4d\u0b2c\u0b40\u0b2a","name:pl":"Malediwy","name:ta":"\u0bae\u0bbe\u0bb2\u0ba4\u0bcd\u0ba4\u0bc0\u0bb5\u0bc1","name:ca":"Maldives","name:te":"\u0c2e\u0c3e\u0c32\u0c4d\u0c26\u0c40\u0c35\u0c41\u0c32\u0c41","name:bg":"\u041c\u0430\u043b\u0434\u0438\u0432\u0438","name:ig":"Maldivesa","source":"openstreetmap.org","sort_rank":262,"name:ln":"Mad\u00edv\u025b","name:da":"Maldiverne","name:de":"Malediven","name:dz":"\u0f58\u0f71\u0f63\u0f0b\u0f51\u0f72\u0f56\u0f66","name:tr":"Maldivler","name:az":"Maldiv","name:sq":"Maldivit","name:lv":"Mald\u012bvija","name:lt":"Maldyvai","name:hi":"\u092e\u093e\u0932\u0926\u0940\u0935","name:he":"\u05de\u05dc\u05d3\u05d9\u05d1\u05d9\u05dd","name:eo":"Maldivoj","name:ur":"\u0645\u0627\u0644\u062f\u06cc\u0648","name:lb":"Malediven","name:la":"Insulae Maldivae","name:lg":"Bizinga by'eMalidive","name:uk":"\u041c\u0430\u043b\u044c\u0434\u0456\u0432\u0438","name:hy":"\u0544\u0561\u056c\u0564\u056b\u057e\u0576\u0565\u0580","name:hu":"Mald\u00edv-szigetek","name:hr":"Maldivi","name:lo":"\u0ea1\u0eb1\u0e99\u0e94\u0eb4\u0e9f","name:el":"\u039c\u03b1\u03bb\u03b4\u03af\u03b2\u03b5\u03c2","kind":"country","name:en":"Maldives","name":"\u078b\u07a8\u0788\u07ac\u0780\u07a8\u0783\u07a7\u0787\u07b0\u0796\u07ac","name:ee":"maldivesduk\u0254","min_zoom":8.0,"name:th":"\u0e1b\u0e23\u0e30\u0e40\u0e17\u0e28\u0e21\u0e31\u0e25\u0e14\u0e35\u0e1f\u0e2a\u0e4c","name:eu":"Maldivak","name:et":"Maldiivid","name:es":"Maldivas","name:rm":"Maldivas","name:rn":"Moludave","name:ro":"Maldive","name:id":"Maladewa","name:ms":"Maldiv","name:mr":"\u092e\u093e\u0932\u0926\u0940\u0935\u094d\u091c","name:ar":"\u0645\u0644\u062f\u064a\u0641","name:my":"\u1019\u1031\u102c\u103a\u101c\u1012\u102d\u102f\u1000\u103a","name:io":"Maldivi","name:is":"Mald\u00edveyjar","name:am":"\u121b\u120d\u12f2\u126d\u1235","name:it":"Maldive","name:vi":"Maldives","name:ml":"\u0d2e\u0d3e\u0d32\u0d3f\u0d26\u0d4d\u0d35\u0d40\u0d2a\u0d4d","name:mn":"\u041c\u0430\u043b\u044c\u0434\u0438\u0432","id":-536773,"name:mk":"\u041c\u0430\u043b\u0434\u0438\u0432\u0438","name:af":"Maldive","name:zu":"i-Maldives","name:si":"\u0db8\u0dcf\u0dbd \u0daf\u0dd2\u0dc0\u0dba\u0dd2\u0db1","name:ff":"Maldiiwe","kind_detail":"2","name:mg":"Maldiva","name:fo":"Maldivuoyggjarnar","name:fr":"Maldives","name:fy":"de Maldiven","name:vo":"Maldivu\u00e4ns","name:zh":"\u9a6c\u5c14\u4ee3\u592b","name:so":"Maaldiqeen","name:sl":"Maldivi","name:nl":"Malediven","name:ja":"\u30e2\u30eb\u30c7\u30a3\u30d6","name:nn":"Maldivane","name:no":"Maldivene","name:sg":"Mald\u00eeva","name:se":"Malediivvat","name:ne":"\u092e\u093e\u0932\u094d\u0926\u093f\u092d\u094d\u0938","name:br":"Maldivez","name:bs":"Maldivi","name:bm":"Maldivi","name:bn":"\u09ae\u09be\u09b2\u09a6\u09cd\u09ac\u09c0\u09aa","name:bo":"\u0f58\u0f63\u0f0b\u0f51\u0fad\u0f72\u0f56\u0f0d","name:sk":"Maledivy","name:ru":"\u041c\u0430\u043b\u044c\u0434\u0438\u0432\u044b","name:sv":"Maldiverna","name:ha":"Maldibi","name:sr":"\u041c\u0430\u043b\u0434\u0438\u0432\u0438","osm_relation":true,"name:ga":"Oile\u00e1in Mhaild\u00edve","name:gd":"Na h-Eileanan Mhaladaibh","name:yo":"Or\u00edl\u1eb9\u0301\u00e8de Maladifi","name:gl":"Maldivas","name:fa":"\u0645\u0627\u0644\u062f\u06cc\u0648","maritime_boundary":true,"name:gv":"Ny Maldeevaghyn","name:gu":"\u0aae\u0abe\u0ab2\u0aa6\u0abf\u0ab5\u0acd\u0ab8","name:fi":"Malediivit","name:tt":"\u041c\u0430\u043b\u044c\u0434\u0438\u0432\u043b\u0430\u0440"},"arcs":[0]},{"type":"LineString","properties":{"id:right":-6599335,"min_zoom":8.0,"id":-6599351,"osm_relation":true,"name:right":"Baa","kind":"region","name":"Alif Alif - Baa","sort_rank":256,"kind_detail":"4","name:left:zh":"\u5317\u963f\u91cc\u73af\u7901","source":"openstreetmap.org","maritime_boundary":true,"id:left":-6599351,"official_name:right":"Maalhosmadulu Dhekunuburi","name:right:zh":"\u5357\u9a6c\u6d1b\u65af\u9a6c\u675c\u5362\u73af\u7901","official_name:left":"Ari Atholhu Uthuruburi","name:left":"Alif Alif"},"arcs":[1]},{"type":"LineString","properties":{"kind":"region","name":"Alif Alif","sort_rank":256,"kind_detail":"4","min_zoom":8.0,"official_name":"Ari Atholhu Uthuruburi","source":"openstreetmap.org","maritime_boundary":true,"name:zh":"\u5317\u963f\u91cc\u73af\u7901","id":-6599351,"osm_relation":true},"arcs":[2]},{"type":"LineString","properties":{"id:right":-6599331,"min_zoom":8.0,"id":-6599335,"osm_relation":true,"name:right":"Raa","kind":"region","name":"Baa - Raa","sort_rank":256,"kind_detail":"4","name:left:zh":"\u5357\u9a6c\u6d1b\u65af\u9a6c\u675c\u5362\u73af\u7901","source":"openstreetmap.org","maritime_boundary":true,"id:left":-6599335,"official_name:right":"Maalhosmadulu Uthuruburi","name:right:zh":"\u5317\u9a6c\u6d1b\u65af\u9a6c\u675c\u5362\u73af\u7901","official_name:left":"Maalhosmadulu Dhekunuburi","name:left":"Baa"},"arcs":[3]},{"type":"LineString","properties":{"kind":"region","name":"Baa","sort_rank":256,"kind_detail":"4","min_zoom":8.0,"official_name":"Maalhosmadulu Dhekunuburi","source":"openstreetmap.org","maritime_boundary":true,"name:zh":"\u5357\u9a6c\u6d1b\u65af\u9a6c\u675c\u5362\u73af\u7901","id":-6599335,"osm_relation":true},"arcs":[4]},{"type":"LineString","properties":{"kind":"region","name":"Raa","sort_rank":256,"kind_detail":"4","min_zoom":8.0,"official_name":"Maalhosmadulu Uthuruburi","source":"openstreetmap.org","maritime_boundary":true,"name:zh":"\u5317\u9a6c\u6d1b\u65af\u9a6c\u675c\u5362\u73af\u7901","id":-6599331,"osm_relation":true},"arcs":[5]}]},"roads":{"type":"GeometryCollection","geometries":[{"type":"LineString","properties":{"source":"openstreetmap.org","kind":"ferry","name":"Mudhdhoo - Dharandvandhoo","sort_rank":355,"min_zoom":8.0,"id":399029122},"arcs":[39]},{"type":"LineString","properties":{"source":"openstreetmap.org","kind":"ferry","name":"Route To Ukulhas","sort_rank":355,"min_zoom":8.0,"id":432939139},"arcs":[40]},{"type":"LineString","properties":{"source":"openstreetmap.org","kind":"ferry","name":"Route To Rasdhoo","sort_rank":355,"min_zoom":8.0,"id":432939140},"arcs":[41]},{"type":"MultiLineString","properties":{"source":"openstreetmap.org","kind":"ferry","name":"Atholhu Ferry","sort_rank":355,"min_zoom":8.0,"id":398973898},"arcs":[[42],[43],[44]]},{"type":"LineString","properties":{"source":"openstreetmap.org","kind":"ferry","name":"Route Rasdhoo To Male","sort_rank":355,"min_zoom":8.0,"id":432939138},"arcs":[45]}]},"earth":{"type":"GeometryCollection","geometries":[{"type":"MultiPolygon","properties":{"sort_rank":10,"source":"naturalearthdata.com","min_zoom":0.0,"kind":"earth","area":10201978},"arcs":[[[46]],[[47]]]}]},"landuse":{"type":"GeometryCollection","geometries":[]}},"type":"Topology","transform":{"translate":[71.71875,4.2149431414],"scale":[0.0003433228,0.0003420514]},"arcs":[[[2014,4096],[365,-4024],[-12,-72]],[[4096,1331],[-1823,-93]],[[2273,1238],[106,-1166],[-12,-72]],[[4096,3628],[-1941,-1082]],[[2155,2546],[118,-1308]],[[2014,4096],[141,-1550]],[[3770,4096],[-1,-1],[4,-12],[6,2],[2,4],[1,6],[1,1],[313,0],[0,-4096],[-4096,0],[0,4096],[3770,0]],[[3646,149],[3,-7],[0,-6],[3,-3],[9,0],[0,6],[-4,2],[-5,3],[-6,5]],[[3612,139],[-40,11],[18,-11],[9,-3],[12,3],[1,0]],[[3604,606],[3,47],[-40,-20],[11,-24],[5,-1],[21,-2]],[[3672,1989],[-10,0],[-10,-3],[-7,-11],[-2,-29],[1,0],[28,43]],[[3521,2402],[-10,-10],[1,0],[4,1],[4,1],[0,1],[1,6],[0,1]],[[3862,2651],[-10,-10],[7,2],[3,8]],[[3875,2684],[0,1],[-4,-6],[-5,-3],[-2,-4],[7,-7],[11,0],[0,5],[-5,6],[-2,8]],[[3997,2759],[1,8],[-11,-10],[1,0],[9,2]],[[3593,3319],[2,7],[-10,-10],[8,3]],[[3740,3633],[4,11],[4,5],[-8,-2],[-8,0],[-3,-4],[6,-14],[5,4]],[[3558,3646],[2,4],[2,6],[4,6],[-7,-2],[-7,0],[-4,-4],[4,-12],[6,2]],[[3774,3730],[4,6],[-8,-2],[-6,0],[-4,-4],[1,-2],[3,-10],[6,2],[2,5],[2,5]],[[3390,3734],[4,6],[-8,-3],[-7,0],[-3,-3],[4,-13],[6,2],[2,5],[2,6]],[[3566,3662],[-4,-6],[-2,-6],[-2,-4],[-6,-2],[-4,12],[4,4],[7,0],[7,2]],[[3778,3736],[-4,-6],[-2,-5],[-2,-5],[-6,-2],[-3,10],[-1,2],[4,4],[6,0],[8,2]],[[3672,1989],[-28,-43],[-1,0],[2,29],[7,11],[10,3],[10,0]],[[3875,2685],[0,-1],[2,-8],[5,-6],[0,-5],[-11,0],[-7,7],[2,4],[5,3],[4,6]],[[3595,3326],[-2,-7],[-8,-3],[10,10]],[[4060,3168],[-10,-5],[0,-5],[10,10]],[[4034,2801],[10,-6],[9,-2],[1,0],[-11,4],[-8,4],[-1,0]],[[3862,2651],[-3,-8],[-7,-2],[10,10]],[[3998,2767],[-1,-8],[-9,-2],[-1,0],[11,10]],[[3521,2402],[0,-1],[-1,-6],[0,-1],[-4,-1],[-4,-1],[-1,0],[10,10]],[[3324,2991],[0,-1],[-2,-6],[-7,-3],[-1,0],[10,10]],[[3478,2395],[-8,-4],[-3,-6],[1,0],[10,10]],[[3492,1999],[0,-1],[10,-1],[5,3],[-15,-1]],[[3646,149],[6,-5],[5,-3],[4,-2],[0,-6],[-9,0],[-3,3],[0,6],[-3,7]],[[3748,3649],[-4,-5],[-4,-11],[-5,-4],[-6,14],[3,4],[8,0],[8,2]],[[3783,4096],[-1,-1],[-1,-6],[-2,-4],[-6,-2],[-4,12],[1,1]],[[3394,3740],[-4,-6],[-2,-6],[-2,-5],[-6,-2],[-4,13],[3,3],[7,0],[8,3]],[[3572,150],[40,-11],[-1,0],[-12,-3],[-9,3],[-18,11]],[[3607,653],[-3,-47],[-21,2],[-5,1],[-11,24],[40,20]],[[3976,2894],[120,-97]],[[3338,0],[-2,5]],[[3706,148],[-46,-62],[-279,-53],[-40,-28]],[[3512,2338],[403,271],[27,-3],[-1,43],[96,38],[-6,20],[65,64]],[[4096,2854],[-16,70],[16,37]],[[4096,3142],[-169,28],[-70,-46],[-100,-14]],[[3703,153],[69,-36],[324,-43]],[[3607,653],[-3,-47],[-21,2],[-5,1],[-11,24],[40,20]],[[3644,1946],[-1,0],[2,29],[7,11],[10,3],[10,0],[-28,-43]]]}