{"objects":{"water":{"type":"GeometryCollection","geometries":[{"type":"Polygon","properties":{"source":"naturalearthdata.com","kind":"lake","name":"Mapam Yumco","area":415590624,"sort_rank":200,"min_zoom":0.0,"id":302},"arcs":[[50]]},{"type":"Polygon","properties":{"source":"naturalearthdata.com","kind":"lake","name":"Siling Co","area":2026102272,"sort_rank":200,"min_zoom":0.0,"id":140},"arcs":[[51]]},{"type":"Polygon","properties":{"source":"naturalearthdata.com","kind":"lake","name":"Ngangla Ringeo","area":673585728,"sort_rank":200,"min_zoom":0.0,"id":198},"arcs":[[52]]},{"type":"Polygon","properties":{"source":"naturalearthdata.com","kind":"lake","name":"Banggong Co","area":464164320,"sort_rank":200,"min_zoom":0.0,"id":366},"arcs":[[53]]},{"type":"Polygon","properties":{"source":"naturalearthdata.com","kind":"lake","name":"La\u0092nga Co","area":392016704,"sort_rank":200,"min_zoom":0.0,"id":301},"arcs":[[54]]},{"type":"Polygon","properties":{"source":"naturalearthdata.com","kind":"lake","name":"Lake Sevana","area":2329639424,"sort_rank":200,"min_zoom":0.0,"id":226},"arcs":[[55]]},{"type":"MultiPolygon","properties":{"source":"naturalearthdata.com","kind":"ocean","area":1444195503964160,"sort_rank":200,"min_zoom":0.0,"id":1},"arcs":[[[56]],[[57],[58]],[[59],[60],[61],[62],[63],[64],[65],[66],[67],[68],[69],[70],[71]]]},{"type":"Polygon","properties":{"source":"naturalearthdata.com","kind":"lake","name":"Tangra Yumco","area":1048759296,"sort_rank":200,"min_zoom":0.0,"id":199},"arcs":[[72]]},{"type":"Polygon","properties":{"kind":"lake","name":"Lake Urmia","area":6793214976,"sort_rank":200,"alkaline":true,"source":"naturalearthdata.com","min_zoom":0.0,"id":83},"arcs":[[73]]},{"type":"Polygon","properties":{"source":"naturalearthdata.com","kind":"lake","name":"Ayakkum Hu","area":884183680,"sort_rank":200,"min_zoom":0.0,"id":161},"arcs":[[74]]},{"type":"MultiPolygon","properties":{"sort_rank":200,"source":"naturalearthdata.com","min_zoom":0.0,"kind":"lake","area":35521494599},"arcs":[[[75]],[[76]],[[77]]]},{"type":"Polygon","properties":{"kind":"lake","name":"Lake Hammar","area":1388999040,"sort_rank":200,"alkaline":true,"source":"naturalearthdata.com","min_zoom":0.0,"id":251},"arcs":[[78]]},{"type":"Point","properties":{"label_placement":true,"kind":"lake","name":"Lake Urmia","area":6793214976,"sort_rank":200,"alkaline":true,"source":"naturalearthdata.com","min_zoom":0.0,"id":83},"coordinates":[43,3770]},{"type":"Point","properties":{"label_placement":true,"kind":"lake","name":"Lake Sevana","area":2329639424,"sort_rank":200,"source":"naturalearthdata.com","min_zoom":0.0,"id":226},"coordinates":[32,4036]},{"type":"Point","properties":{"label_placement":true,"kind":"lake","name":"Siling Co","area":2026102272,"sort_rank":200,"source":"naturalearthdata.com","min_zoom":0.0,"id":140},"coordinates":[4001,3175]},{"type":"Point","properties":{"label_placement":true,"kind":"lake","name":"Lake Hammar","area":1388999040,"sort_rank":200,"alkaline":true,"source":"naturalearthdata.com","min_zoom":0.0,"id":251},"coordinates":[183,3078]},{"type":"Point","properties":{"label_placement":true,"kind":"lake","name":"Tangra Yumco","area":1048759296,"sort_rank":200,"source":"naturalearthdata.com","min_zoom":0.0,"id":199},"coordinates":[3784,3106]},{"type":"Point","properties":{"label_placement":true,"kind":"lake","name":"Ayakkum Hu","area":884183680,"sort_rank":200,"source":"naturalearthdata.com","min_zoom":0.0,"id":161},"coordinates":[4039,3754]},{"type":"Point","properties":{"label_placement":true,"kind":"lake","name":"Ngangla Ringeo","area":673585728,"sort_rank":200,"source":"naturalearthdata.com","min_zoom":0.0,"id":198},"coordinates":[3462,3153]},{"type":"Point","properties":{"label_placement":true,"kind":"lake","name":"Banggong Co","area":464164320,"sort_rank":200,"source":"naturalearthdata.com","min_zoom":0.0,"id":366},"coordinates":[3059,3382]},{"type":"Point","properties":{"label_placement":true,"kind":"lake","name":"Mapam Yumco","area":415590624,"sort_rank":200,"source":"naturalearthdata.com","min_zoom":0.0,"id":302},"coordinates":[3320,3066]},{"type":"Point","properties":{"label_placement":true,"kind":"lake","name":"La\u0092nga Co","area":392016704,"sort_rank":200,"source":"naturalearthdata.com","min_zoom":0.0,"id":301},"coordinates":[3297,3072]},{"type":"LineString","properties":{"source":"naturalearthdata.com","kind":"lake","sort_rank":367,"alkaline":true,"boundary":true,"min_zoom":0.0,"id":83},"arcs":[79]},{"type":"LineString","properties":{"source":"naturalearthdata.com","kind":"ocean","sort_rank":205,"boundary":true,"min_zoom":0.0,"id":115},"arcs":[80]},{"type":"LineString","properties":{"source":"naturalearthdata.com","kind":"ocean","sort_rank":205,"boundary":true,"min_zoom":0.0,"id":117},"arcs":[81]},{"type":"LineString","properties":{"source":"naturalearthdata.com","kind":"lake","sort_rank":367,"boundary":true,"min_zoom":0.0,"id":140},"arcs":[82]},{"type":"LineString","properties":{"source":"naturalearthdata.com","kind":"lake","sort_rank":367,"boundary":true,"min_zoom":0.0,"id":161},"arcs":[83]},{"type":"LineString","properties":{"source":"naturalearthdata.com","kind":"lake","sort_rank":367,"boundary":true,"min_zoom":0.0,"id":198},"arcs":[84]},{"type":"LineString","properties":{"source":"naturalearthdata.com","kind":"lake","sort_rank":367,"boundary":true,"min_zoom":0.0,"id":199},"arcs":[85]},{"type":"LineString","properties":{"source":"naturalearthdata.com","kind":"lake","sort_rank":367,"boundary":true,"min_zoom":0.0,"id":226},"arcs":[86]},{"type":"LineString","properties":{"source":"naturalearthdata.com","kind":"lake","sort_rank":367,"alkaline":true,"boundary":true,"min_zoom":0.0,"id":251},"arcs":[87]},{"type":"LineString","properties":{"source":"naturalearthdata.com","kind":"lake","sort_rank":367,"boundary":true,"min_zoom":0.0,"id":263},"arcs":[88]},{"type":"LineString","properties":{"source":"naturalearthdata.com","kind":"lake","sort_rank":367,"boundary":true,"min_zoom":0.0,"id":301},"arcs":[89]},{"type":"LineString","properties":{"source":"naturalearthdata.com","kind":"lake","sort_rank":367,"boundary":true,"min_zoom":0.0,"id":302},"arcs":[90]},{"type":"LineString","properties":{"source":"naturalearthdata.com","kind":"ocean","sort_rank":205,"boundary":true,"min_zoom":0.0,"id":317},"arcs":[91]},{"type":"LineString","properties":{"source":"naturalearthdata.com","kind":"ocean","sort_rank":205,"boundary":true,"min_zoom":0.0,"id":318},"arcs":[92]},{"type":"LineString","properties":{"source":"naturalearthdata.com","kind":"ocean","sort_rank":205,"boundary":true,"min_zoom":0.0,"id":319},"arcs":[93]},{"type":"LineString","properties":{"source":"naturalearthdata.com","kind":"ocean","sort_rank":205,"boundary":true,"min_zoom":0.0,"id":320},"arcs":[94]},{"type":"LineString","properties":{"source":"naturalearthdata.com","kind":"ocean","sort_rank":205,"boundary":true,"min_zoom":0.0,"id":321},"arcs":[95]},{"type":"LineString","properties":{"source":"naturalearthdata.com","kind":"ocean","sort_rank":205,"boundary":true,"min_zoom":0.0,"id":322},"arcs":[96]},{"type":"LineString","properties":{"source":"naturalearthdata.com","kind":"ocean","sort_rank":205,"boundary":true,"min_zoom":0.0,"id":326},"arcs":[97]},{"type":"LineString","properties":{"source":"naturalearthdata.com","kind":"ocean","sort_rank":205,"boundary":true,"min_zoom":0.0,"id":328},"arcs":[98]},{"type":"LineString","properties":{"source":"naturalearthdata.com","kind":"lake","sort_rank":367,"boundary":true,"min_zoom":0.0,"id":362},"arcs":[99]},{"type":"LineString","properties":{"source":"naturalearthdata.com","kind":"lake","sort_rank":367,"boundary":true,"min_zoom":0.0,"id":363},"arcs":[100]},{"type":"LineString","properties":{"source":"naturalearthdata.com","kind":"lake","sort_rank":367,"boundary":true,"min_zoom":0.0,"id":365},"arcs":[101]},{"type":"LineString","properties":{"source":"naturalearthdata.com","kind":"lake","sort_rank":367,"boundary":true,"min_zoom":0.0,"id":366},"arcs":[102]},{"type":"LineString","properties":{"source":"naturalearthdata.com","kind":"ocean","sort_rank":205,"boundary":true,"min_zoom":0.0,"id":800},"arcs":[103]},{"type":"LineString","properties":{"source":"naturalearthdata.com","kind":"ocean","sort_rank":205,"boundary":true,"min_zoom":0.0,"id":801},"arcs":[104]},{"type":"MultiLineString","properties":{"source":"naturalearthdata.com","kind":"ocean","sort_rank":205,"boundary":true,"min_zoom":0.0,"id":1388},"arcs":[[105],[106],[107],[108],[109]]},{"type":"LineString","properties":{"source":"naturalearthdata.com","kind":"ocean","sort_rank":205,"boundary":true,"min_zoom":0.0,"id":1408},"arcs":[110]},{"type":"LineString","properties":{"source":"naturalearthdata.com","kind":"ocean","sort_rank":205,"boundary":true,"min_zoom":0.0,"id":1409},"arcs":[111]},{"type":"LineString","properties":{"source":"naturalearthdata.com","kind":"ocean","sort_rank":205,"boundary":true,"min_zoom":0.0,"id":1410},"arcs":[112]},{"type":"LineString","properties":{"source":"naturalearthdata.com","kind":"ocean","sort_rank":205,"boundary":true,"min_zoom":0.0,"id":1411},"arcs":[113]},{"type":"LineString","properties":{"source":"naturalearthdata.com","kind":"ocean","sort_rank":205,"boundary":true,"min_zoom":0.0,"id":1427},"arcs":[114]},{"type":"Point","properties":{"label_placement":true,"kind":"sea","name":"\u062e\u0644\u06cc\u062c \u0641\u0627\u0631\u0633","source":"openstreetmap.org","sort_rank":200,"min_zoom":3.0,"id":305639193},"coordinates":[546,2699]},{"type":"Point","properties":{"label_placement":true,"kind":"sea","name":"Bay of Bengal","source":"openstreetmap.org","sort_rank":200,"min_zoom":3.0,"id":305639206},"coordinates":[4096,1499]},{"type":"Point","properties":{"label_placement":true,"kind":"sea","name":"Laccadive Sea","source":"openstreetmap.org","sort_rank":200,"min_zoom":3.0,"id":305639729},"coordinates":[2731,800]},{"type":"Point","properties":{"label_placement":true,"kind":"sea","name":"Arabian Sea","source":"openstreetmap.org","sort_rank":200,"min_zoom":3.0,"id":305640040},"coordinates":[1820,1999]},{"type":"Point","properties":{"label_placement":true,"kind":"sea","name":"Gulf of Aden","source":"openstreetmap.org","sort_rank":200,"min_zoom":3.0,"id":316793178},"coordinates":[289,1267]},{"type":"Point","properties":{"label_placement":true,"kind":"sea","name":"Gulf of Khambhat","source":"openstreetmap.org","sort_rank":200,"min_zoom":3.0,"id":715883831},"coordinates":[2366,2070]}]},"buildings":{"type":"GeometryCollection","geometries":[]},"places":{"type":"GeometryCollection","geometries":[{"type":"Point","properties":{"name:ty":"\u2019In\u012btia","name:ka":"\u10d8\u10dc\u10d3\u10dd\u10d4\u10d7\u10d8","name:ko":"\uc778\ub3c4","name:cv":"\u0418\u043d\u0434\u0438","name:km":"\u17a5\u178e\u17d2\u178c\u17b6","name:cs":"Indie","name:tt":"\u04ba\u0438\u043d\u0434\u0441\u0442\u0430\u043d","name:kw":"Eynda","name:kv":"\u0418\u043d\u0434\u0438\u044f","name:ku":"Hindistan","name:ti":"\u1205\u1295\u12f5","name:ks":"\u06c1\u0650\u0646\u065b\u062f\u0648\u0633\u062a\u0627\u0646","name:to":"\u02bbInitia","name:tl":"Indya","name:ce":"\u0418\u043d\u0434\u0438","name:ta":"\u0b87\u0ba8\u0bcd\u0ba4\u0bbf\u0baf\u0bbe","name:tg":"\u04b2\u0438\u043d\u0434\u0443\u0441\u0442\u043e\u043d","name:ca":"\u00cdndia","name:te":"\u0c2d\u0c3e\u0c30\u0c24 \u0c26\u0c47\u0c36\u0c02","name:hr":"Indija","name:da":"Indien","name:de":"Indien","name:dz":"\u0f62\u0f92\u0fb1\u0f0b\u0f42\u0f62","source":"openstreetmap.org","name:kn":"\u0cad\u0cbe\u0cb0\u0ca4","name:dv":"\u0787\u07a8\u0782\u07b0\u0791\u07a8\u0794\u07a7","name:lv":"Indija","name:lt":"Indija","name:uz":"Hindiston","name:kk":"\u04ae\u043d\u0434\u0456\u0441\u0442\u0430\u043d","name:ur":"\u0628\u06be\u0627\u0631\u062a","name:lb":"Indien","name:lg":"Buyindi","name:uk":"\u0406\u043d\u0434\u0456\u044f","name:ug":"\u06be\u0649\u0646\u062f\u0649\u0633\u062a\u0627\u0646","name:ln":"\u00cdnd\u025b","name:lo":"\u0ead\u0eb4\u0e99\u0ec0\u0e94\u0e8d","name:el":"\u0399\u03bd\u03b4\u03af\u03b1","name:eo":"Barato","name":"India","name:tk":"Hindistan","name:ee":"India nutome","name:th":"\u0e1b\u0e23\u0e30\u0e40\u0e17\u0e28\u0e2d\u0e34\u0e19\u0e40\u0e14\u0e35\u0e22","name:ay":"Indya","name:rn":"Ubuhindi","name:az":"Hindistan","name:ig":"Ndia","name:ii":"\ua474\ua117","name:as":"\u09ad\u09be\u09f0\u09a4","name:ar":"\u0627\u0644\u0647\u0646\u062f","name:av":"\u0425\u0438\u043d\u0434\u0438\u0441\u0442\u0430\u043d","name:is":"Indland","name:am":"\u1205\u1295\u12f5","name:ru":"\u0418\u043d\u0434\u0438\u044f","name:rw":"Ubuhinde","name:af":"Indi\u00eb","name:zu":"i-India","name:za":"Yindu","name:zh-yue":"\u5370\u5ea6","name:zh":"\u5370\u5ea6","name:so":"Hindiya","name:sm":"Igitia","name:sl":"Indija","name:ja":"\u30a4\u30f3\u30c9","name:si":"\u0d89\u0db1\u0dca\u0daf\u0dd2\u0dba\u0dcf\u0dc0","name:sh":"Indija","name:sg":"\u00cannde","name:sd":"\u0680\u0627\u0631\u062a","name:sc":"\u00ccndia","name:sa":"\u092d\u093e\u0930\u0924\u092e\u094d","name:bs":"Indija","name:bm":"\u0190ndujamana","name:bn":"\u09ad\u09be\u09b0\u09a4","name:bo":"\u0f62\u0f92\u0fb1\u0f0b\u0f42\u0f62\u0f0b","name:sw":"Uhindi","name:be":"\u0406\u043d\u0434\u044b\u044f","name:bg":"\u0418\u043d\u0434\u0438\u044f","name:ss":"INdiya","name:ba":"\u04ba\u0438\u043d\u0434\u043e\u0441\u0442\u0430\u043d","name:sq":"Indi","name:pt":"\u00cdndia","name:ps":"\u0647\u0646\u062f","name:oc":"\u00cdndia","min_zoom":2.0,"name:zh-min-nan":"\u00ccn-t\u014d\u0358","name:os":"\u0418\u043d\u0434\u0438","name:or":"\u0b2d\u0b3e\u0b30\u0b24","name:pl":"Indie","name:pi":"\u092d\u093e\u0930\u0924","name:sr":"\u0418\u043d\u0434\u0438\u0458\u0430","name:pa":"\u0a2d\u0a3e\u0a30\u0a24","name:tr":"Hindistan","name:hi":"\u092d\u093e\u0930\u0924","name:sv":"Indien","name:he":"\u05d4\u05d5\u05d3\u05d5","name:ha":"Indiya","name:hy":"\u0540\u0576\u0564\u056f\u0561\u057d\u057f\u0561\u0576","name:ht":"End","name:qu":"Indya","population":1145587234,"kind":"country","name:yi":"\u05d0\u05d9\u05e0\u05d3\u05d9\u05e2","name:iu":"\u1403\u14d0\u144e\u140a\/intia","name:yo":"Or\u00edl\u1eb9\u0301\u00e8de India","name:mt":"Indja","alt_name:eo":"Hindujo;Hindio;Hinda Unio","name:mr":"\u092d\u093e\u0930\u0924","name:my":"\u1021\u102d\u1014\u1039\u1012\u102d\u101a","official_name":"\u092d\u093e\u0930\u0924 \u0917\u0923\u0930\u093e\u091c\u094d\u092f","name:mg":"Indy","name:ml":"\u0d07\u0d28\u0d4d\u0d24\u0d4d\u0d2f","name:vi":"\u1ea4n \u0110\u1ed9","name:mn":"\u042d\u043d\u044d\u0442\u0445\u044d\u0433","name:mi":"\u012ania","id":424314145,"name:mk":"\u0418\u043d\u0434\u0438\u0458\u0430","name:vo":"Lind\u00e4n","name:fa":"\u0647\u0646\u062f","name:ff":"Enndo","name:fi":"Intia","name:ky":"\u0418\u043d\u0434\u0438\u044f","name:fr":"Inde","name:fy":"Yndia","name:na":"Indjiya","name:ne":"\u092d\u093e\u0930\u0924","name:wa":"Inde","name:wo":"End","name:nv":"T\u00f3 W\u00f3naan\u00edd\u0119\u0301\u0119\u0301\u02bc Bits\u012f\u02bc Yisht\u0142izhii Bik\u00e9yah","name:ga":"An India","name:gd":"Na h-Innseachan","name:gl":"India - \u092d\u093e\u0930\u0924","name:gv":"Yn Injey","name:gu":"\u0aad\u0abe\u0ab0\u0aa4"},"coordinates":[3065,2234]},{"type":"Point","properties":{"name:ka":"\u10de\u10d0\u10d9\u10d8\u10e1\u10e2\u10d0\u10dc\u10d8","name:ko":"\ud30c\ud0a4\uc2a4\ud0c4","name:cv":"\u041f\u0430\u043a\u0438\u0441\u0442\u0430\u043d","name:km":"\u1794\u17c9\u17b6\u1782\u17b8\u179f\u17d2\u1790\u17b6\u1793","name:kl":"Pakistan","name:cs":"P\u00e1kist\u00e1n","name:ki":"Pakistani","name:kw":"Pakistan","name:kv":"\u041f\u0430\u043a\u0438\u0441\u0442\u0430\u043d","name:ku":"Pakistan","name:ti":"\u1353\u12aa\u1235\u1273\u1295","name:ks":"\u092a\u093e\u0915\u093f\u0938\u094d\u200d\u0924\u093e\u0928","name:to":"P\u0101kisitani","name:tl":"Pakistan","name:ce":"\u041f\u0430\u043a\u0438\u0441\u0442\u0430\u043d","name:ta":"\u0baa\u0bbe\u0b95\u0bcd\u0b95\u0bbf\u0ba4\u0bcd\u0ba4\u0bbe\u0ba9\u0bcd","name:tg":"\u041f\u043e\u043a\u0438\u0441\u0442\u043e\u043d","name:ca":"Pakistan","name:te":"\u0c2a\u0c3e\u0c15\u0c3f\u0c38\u0c4d\u0c24\u0c3e\u0c28\u0c4d","name:cy":"Pakistan","name:hr":"Pakistan","name:da":"Pakistan","name:de":"Pakistan","name:dz":"\u0f54\u0f0b\u0f40\u0f72\u0f0b\u0f66\u0f4f\u0f71\u0f53","source":"openstreetmap.org","name:kn":"\u0caa\u0cbe\u0c95\u0cbf\u0cb8\u0ccd\u0ca4\u0cbe\u0ca8","name:dv":"\u0795\u07a7\u0786\u07a8\u0790\u07b0\u078c\u07a7\u0782\u07b0","name:lv":"Pakist\u0101na","name:lt":"Pakistanas","name:uz":"Pokiston","name:kk":"\u041f\u04d9\u043a\u0456\u0441\u0442\u0430\u043d","name:ur":"\u067e\u0627\u06a9\u0633\u062a\u0627\u0646","name:lb":"Pakistan","name:la":"Pakistania","name:lg":"Pakisitaani","name:uk":"\u041f\u0430\u043a\u0438\u0441\u0442\u0430\u043d","name:ug":"\u067e\u0627\u0643\u0649\u0633\u062a\u0627\u0646","name:li":"Pakistan","name:ln":"Pakist\u00e1ni","name:lo":"\u0e9b\u0eb2\u0e81\u0eb4\u0eaa\u0e96\u0eb2\u0e99","name:el":"\u03a0\u03b1\u03ba\u03b9\u03c3\u03c4\u03ac\u03bd","name:eo":"Pakistano","name:en":"Pakistan","name":"\u202a\u202b\u067e\u0627\u06a9\u0633\u062a\u0627\u0646\u202c","name:tk":"P\u00e4kistan","name:ee":"Pakistan nutome","name:th":"\u0e1b\u0e23\u0e30\u0e40\u0e17\u0e28\u0e1b\u0e32\u0e01\u0e35\u0e2a\u0e16\u0e32\u0e19","name:eu":"Pakistan","name:et":"Pakistan","name:es":"Pakist\u00e1n","name:ia":"Pakistan","name:rm":"Pakistan","name:rn":"Pakisitani","name:az":"Pakistan","name:ie":"Pakistan","name:id":"Pakistan","name:as":"\u09aa\u09be\u0995\u09bf\u09b8\u09cd\u09a4\u09be\u09a8","name:ar":"\u0628\u0627\u0643\u0633\u062a\u0627\u0646","name:io":"Pakistan","name:ak":"Pakistan","name:am":"\u1353\u12aa\u1235\u1273\u1295","name:it":"Pakistan","name:an":"Pakist\u00e1n","name:ru":"\u041f\u0430\u043a\u0438\u0441\u0442\u0430\u043d","name:rw":"Pakisitani","name:af":"Pakistan","name:zu":"i-Pakistan","name:ky":"\u041f\u0430\u043a\u0438\u0441\u0442\u0430\u043d","name:zh-yue":"\u5df4\u57fa\u65af\u5766","name:zh":"\u5df4\u57fa\u65af\u5766","name:so":"Bakistaan","name:sn":"Pakistan","name:sl":"Pakistan","name:sk":"Pakistan","name:ja":"\u30d1\u30ad\u30b9\u30bf\u30f3","name:si":"\u0db4\u0dcf\u0d9a\u0dd2\u0dc3\u0dca\u0dad\u0dcf\u0db1\u0dba","name:sh":"Pakistan","name:sg":"Pakist\u00e4an","name:se":"Pakistan","name:sd":"\u067e\u0627\u06a9\u0633\u062a\u0627\u0646","name:br":"Pakistan","name:bs":"Pakistan","name:bm":"Pakisita\u014b","name:bn":"\u09aa\u09be\u0995\u09bf\u09b8\u09cd\u09a4\u09be\u09a8","name:bo":"\u0f54\u0f0b\u0f40\u0f72\u0f0b\u0f66\u0f72\u0f0b\u0f4f\u0f53\u0f0d","name:sa":"\u092a\u093e\u0915\u093f\u0938\u094d\u0924\u093e\u0928","name:sw":"Pakistan","name:be":"\u041f\u0430\u043a\u0456\u0441\u0442\u0430\u043d","name:su":"Pakistan","name:bg":"\u041f\u0430\u043a\u0438\u0441\u0442\u0430\u043d","name:ss":"IPhakhistani","name:ba":"\u041f\u0430\u043a\u0438\u0441\u0442\u0430\u043d","name:sq":"Pakistani","name:jv":"Pakistan","name:pt":"Paquist\u00e3o","name:ps":"\u067e\u0627\u06a9\u0633\u062a\u0627\u0646","name:oc":"Paquistan","min_zoom":2.0,"name:ro":"Pakistan","name:zh-min-nan":"Pakistan","name:os":"\u041f\u0430\u043a\u0438\u0441\u0442\u0430\u043d","name:or":"\u0b2a\u0b3e\u0b15\u0b3f\u0b38\u0b4d\u0b24\u0b3e\u0b28","name:pl":"Pakistan","name:sr":"\u041f\u0430\u043a\u0438\u0441\u0442\u0430\u043d","name:pa":"\u0a2a\u0a3e\u0a15\u0a3f\u0a38\u0a24\u0a3e\u0a28","name:tr":"Pakistan","name:hi":"\u092a\u093e\u0915\u093f\u0938\u094d\u0924\u093e\u0928","name:sv":"Pakistan","name:he":"\u05e4\u05e7\u05d9\u05e1\u05d8\u05df","name:ha":"Pakistan","name:hy":"\u054a\u0561\u056f\u056b\u057d\u057f\u0561\u0576","name:ht":"Pakistan","name:hu":"Pakiszt\u00e1n","name:qu":"Pakistan","population":172800000,"kind":"country","name:is":"Pakistan","name:yi":"\u05e4\u05d0\u05e7\u05d9\u05e1\u05d8\u05d0\u05df","name:iu":"\u1438\u146d\u1505\u1455\u14d0\/pakistan","name:yo":"Pakistan","name:mt":"Pakistan","name:ms":"Pakistan","name:mr":"\u092a\u093e\u0915\u093f\u0938\u094d\u0924\u093e\u0928","name:my":"\u1015\u102b\u1000\u1005\u1039\u1005\u1010\u1014\u103a","official_name":"Islamic Republic of Pakistan","int_name":"Pakistan","name:mg":"Pakistan","name:ml":"\u0d2a\u0d3e\u0d15\u0d3f\u0d38\u0d4d\u0d24\u0d3e\u0d28\u0d4d\u200d","name:vi":"Pakistan","name:mn":"\u041f\u0430\u043a\u0438\u0441\u0442\u0430\u043d","name:mi":"Pakit\u0101ne","id":424314088,"name:mk":"\u041f\u0430\u043a\u0438\u0441\u0442\u0430\u043d","name:vo":"Pakist\u00e4n","name:fa":"\u067e\u0627\u06a9\u0633\u062a\u0627\u0646","name:ff":"Pakistaan","name:fi":"Pakistan","name:fo":"Pakistan","alt_name:vi":"H\u1ed3i Qu\u1ed1c","name:fr":"Pakistan","name:fy":"Pakistan","name:nl":"Pakistan","name:nn":"Pakistan","name:no":"Pakistan","name:na":"Pakistan","name:nb":"Pakistan","name:ne":"\u092a\u093e\u0915\u093f\u0938\u094d\u0924\u093e\u0928","name:wa":"Pakistan","name:wo":"Pakistaan","name:nv":"E\u02bce\u02bcaahj\u00ed Naakaii Doot\u0142\u02bcizh\u00ed Bik\u00e9yah","name:ga":"An Phacast\u00e1in","name:gd":"Pagast\u00e0n","name:gn":"Pakist\u00e1n","name:gl":"Paquist\u00e1n","name:gv":"Yn Phakistaan","name:gu":"\u0aaa\u0abe\u0a95\u0abf\u0ab8\u0acd\u0aa4\u0abe\u0aa8","name:tt":"\u041f\u0430\u043a\u044c\u0441\u0442\u0430\u043d"},"coordinates":[2389,3032]},{"type":"Point","properties":{"name:ka":"\u10d8\u10e0\u10d0\u10dc\u10d8","name:ko":"\uc774\ub780","name:cv":"\u0418\u0441\u043b\u0430\u043c \u0420\u0435\u0441\u043f\u0443\u0431\u043b\u0438\u043a\u0438 \u0418\u0440\u0430\u043d","name:km":"\u17a2\u17ca\u17b8\u179a\u17c9\u1784\u17cb","name:kl":"Iran","name:cs":"\u00cdr\u00e1n","name:tw":"Iran","name:ki":"Uajemi","name:co":"Iranu","name:kv":"\u0418\u0440\u0430\u043d","name:ku":"\u00ceran","name:ti":"\u12a2\u122b\u1295","name:ks":"\u0627\u06cc\u0656\u0631\u0627\u0646","name:to":"\u02bbIulaani","name:tl":"Iran","name:ce":"\u0418\u0440\u0430\u043d","name:ta":"\u0b88\u0bb0\u0bbe\u0ba9\u0bcd","name:tg":"\u042d\u0440\u043e\u043d","name:ca":"Iran","name:te":"\u0c07\u0c30\u0c3e\u0c28\u0c4d","name:cy":"Iran","name:hr":"Iran","name:da":"Iran","name:de":"Iran","name:dz":"\u0f68\u0f72\u0f0b\u0f62\u0f71\u0f53","source":"openstreetmap.org","name:kn":"\u0c87\u0cb0\u0cbe\u0ca8\u0ccd","name:dv":"\u0787\u07a9\u0783\u07a7\u0782\u07b0","name:lv":"Ir\u0101na","name:lt":"Iranas","name:uz":"Eron","name:kk":"\u0418\u0440\u0430\u043d","name:lb":"Iran","name:la":"Irania","name:lg":"Yiraani","name:uk":"\u0406\u0440\u0430\u043d","name:ug":"\u0626\u0649\u0631\u0627\u0646","name:li":"Iraan","name:ln":"Ir\u00e2","name:lo":"\u0ead\u0eb5\u0ea5\u0ec8\u0eb2\u0e99","name:el":"\u0399\u03c1\u03ac\u03bd","name:eo":"Irano","name:en":"Iran","name":"\u0627\u06cc\u0631\u0627\u0646","name:tk":"E\u00fdran","name:ee":"Iran nutome","name:th":"\u0e1b\u0e23\u0e30\u0e40\u0e17\u0e28\u0e2d\u0e34\u0e2b\u0e23\u0e48\u0e32\u0e19","name:eu":"Iran","name:et":"Iraan","name:es":"Ir\u00e1n","name:ia":"Iran","name:rm":"Iran","name:rn":"Irani","name:az":"\u0130ran","name:ie":"Iran","name:id":"Iran","name:ar":"\u0625\u064a\u0631\u0627\u0646","name:io":"Iran","name:ak":"Iran","name:am":"\u12a2\u122b\u1295","name:it":"Iran","name:an":"Ir\u00e1n","name:ru":"\u0418\u0440\u0430\u043d","name:rw":"Irani","name:af":"Iran","name:zu":"i-Iran","name:za":"Iran","name:zh-yue":"\u4f0a\u6717","name:zh":"\u4f0a\u6717","name:so":"Iiraan","name:sn":"Iran","name:sl":"Iran","name:sk":"Ir\u00e1n","name:ja":"\u30a4\u30e9\u30f3","name:si":"\u0d89\u0dbb\u0dcf\u0db1\u0dba","name:sh":"Iran","name:sg":"Ir\u00e4an","name:se":"Iran","name:sc":"Iran","name:sa":"\u0908\u0930\u093e\u0928","name:bs":"Iran","name:bm":"Ira\u014b","name:bn":"\u0987\u09b0\u09be\u09a8","name:bo":"\u0f68\u0f72\u0f0b\u0f62\u0f71\u0f53\u0f0d","name:br":"Iran","name:sw":"Uajemi","name:be":"\u0406\u0440\u0430\u043d","name:su":"Iran","name:bg":"\u0418\u0440\u0430\u043d","name:ss":"I-Irani","name:ba":"\u0418\u0440\u0430\u043d","name:sq":"Irani","name:jv":"Iran","name:pt":"Ir\u00e3","name:ps":"\u0627\u064a\u0631\u0627\u0646","name:oc":"Iran","min_zoom":2.0,"name:ro":"Iran","name:zh-min-nan":"Iran","name:os":"\u0418\u0440\u0430\u043d","name:or":"\u0b07\u0b30\u0b3e\u0b28\u0b4d","name:pl":"Iran","name:sr":"\u0418\u0440\u0430\u043d","name:pa":"\u0a07\u0a30\u0a3e\u0a28","name:tr":"\u0130ran","name:hi":"\u0908\u0930\u093e\u0928","name:sv":"Iran","name:he":"\u05d0\u05d9\u05e8\u05df","name:ha":"Iran","old_name:en":"Persia","name:hy":"\u053b\u0580\u0561\u0576","name:ht":"Iran","name:hu":"Ir\u00e1n","name:qu":"Iran","population":70472846,"kind":"country","name:is":"\u00cdran","name:yi":"\u05d0\u05d9\u05e8\u05d0\u05df","name:yo":"Or\u00edl\u1eb9\u0301\u00e8de Irani","name:mt":"Iran","name:ms":"Iran","name:mr":"\u0908\u0930\u093e\u0923","name:my":"\u1021\u102e\u101b\u1014\u103a","official_name":"\u062c\u0645\u0647\u0648\u0631\u06cc \u0627\u0633\u0644\u0627\u0645\u06cc \u0627\u06cc\u0631\u0627\u0646","name:kw":"Iran","name:mg":"Iran","name:ml":"\u0d07\u0d31\u0d3e\u0d7b","name:vi":"Iran","name:mn":"\u0418\u0440\u0430\u043d","name:mi":"\u012ar\u0101na","id":424298311,"name:mk":"\u0418\u0440\u0430\u043d","name:vo":"Lir\u00e4n","name:ff":"Iraan","name:fi":"Iran","name:ky":"\u0418\u0440\u0430\u043d","name:fo":"Iran","name:fr":"Iran","name:fy":"Iran","int_name":"Iran","name:nl":"Iran","name:nn":"Iran","name:no":"Iran","name:na":"Iran","name:ne":"\u0907\u0930\u093e\u0928","name:wa":"Iran","name:wo":"Iraan","name:nv":"Iiw\u0105\u0301\u0105\u0301","name:ga":"An Iar\u00e1in","name:gd":"Ior\u00e0n","name:gn":"Ir\u00e1n","name:gl":"Ir\u00e1n","name:gv":"Yn Eeraan","name:gu":"\u0a88\u0ab0\u0abe\u0aa8","name:tt":"\u0418\u0440\u0430\u043d"},"coordinates":[723,3292]},{"type":"Point","properties":{"name:pt":"Afeganist\u00e3o","old_name:vi":"A Ph\u00fa H\u00e3n","name:ka":"\u10d0\u10d5\u10e6\u10d0\u10dc\u10d4\u10d7\u10d8","name:mt":"Afganistan","name:ko":"\uc544\ud504\uac00\ub2c8\uc2a4\ud0c4","name:kn":"\u0c85\u0cab\u0c98\u0cbe\u0ca8\u0cbf\u0cb8\u0ccd\u0ca5\u0cbe\u0ca8\u0ccd","name:km":"\u17a2\u17b6\u17a0\u17d2\u179c\u17a0\u17d2\u1782\u17b6\u1793\u17b8\u179f\u17d2\u1790\u17b6\u1793","name:kl":"Afghanistani","name:cs":"Afgh\u00e1nist\u00e1n","alt_name:eo":"Afganistano;Afganio","name:ki":"Afuganistani","name:tr":"Afganistan","name:ku":"Afxanistan","name:ti":"\u12a0\u134d\u130b\u1292\u1235\u1273\u1295","name:ks":"\u0627\u064e\u0641\u063a\u0627\u0646\u064e\u0633\u062a\u0627\u0646","name:to":"\u02bbAfik\u0101nisitani","name:tl":"Apganistan","name:sv":"Afghanistan","name:or":"\u0b06\u0b2b\u0b3e\u0b17\u0b3e\u0b28\u0b3f\u0b38\u0b4d\u0b24\u0b3e\u0b28\u0b4d","name:ce":"\u0410\u0444\u0433I\u0430\u043d\u0438\u0441\u0442\u0430\u043d","name:ta":"\u0b86\u0baa\u0bcd\u0b95\u0bbe\u0ba9\u0bbf\u0bb8\u0bcd\u0ba4\u0bbe\u0ba9\u0bcd","name:tg":"\u0410\u0444\u0493\u043e\u043d\u0438\u0441\u0442\u043e\u043d","name:ca":"Afganistan","name:te":"\u0c06\u0c2b\u0c4d\u0c18\u0c3e\u0c28\u0c3f\u0c38\u0c4d\u0c24\u0c3e\u0c28\u0c4d","name:vi":"Afghanistan","name:hu":"Afganiszt\u00e1n","name:ro":"Afganistan","name:cy":"Afghanistan","name:hr":"Afganistan","name:da":"Afghanistan","name:fr":"Afghanistan","name:de":"Afghanistan","name:dz":"\u0f68\u0f55\u0f0b\u0f42\u0fb7\u0f0b\u0f53\u0f72\u0f0b\u0f66\u0f4f\u0f71\u0f53","source":"openstreetmap.org","name:lv":"Afganist\u0101na","name:lt":"Afganistanas","name:uz":"Afg\u2019oniston","name:kk":"\u0410\u0443\u0493\u0430\u043d\u0441\u0442\u0430\u043d","name:he":"\u05d0\u05e4\u05d2\u05e0\u05d9\u05e1\u05d8\u05df","kind":"country","name:ha":"Afaganistan","name:la":"Afgania","name:lg":"Afaganisitani","name:uk":"\u0410\u0444\u0433\u0430\u043d\u0456\u0441\u0442\u0430\u043d","name:hy":"\u0531\u0586\u0572\u0561\u0576\u057d\u057f\u0561\u0576","min_zoom":2.0,"name:li":"Afganistan","name:ln":"Afiganisit\u00e1","name:lo":"\u0ead\u0eb1\u0e9a\u0e81\u0eb2\u0e99\u0eb4\u0eaa\u0eb0\u0e96\u0eb2\u0e99","population":32738376,"name:el":"\u0391\u03c6\u03b3\u03b1\u03bd\u03b9\u03c3\u03c4\u03ac\u03bd","name:eo":"Afganujo","name:en":"Afghanistan","name":"\u0627\u0641\u063a\u0627\u0646\u0633\u062a\u0627\u0646","name:is":"Afganistan","name:ee":"Afghanistan nutome","name:th":"\u0e1b\u0e23\u0e30\u0e40\u0e17\u0e28\u0e2d\u0e31\u0e1f\u0e01\u0e32\u0e19\u0e34\u0e2a\u0e16\u0e32\u0e19","name:eu":"Afganistan","name:et":"Afganistan","name:nl":"Afghanistan","name:es":"Afganist\u00e1n","name:ia":"Afghanistan","name:rm":"Afghanistan","name:rn":"Afuganisitani","name:az":"\u018ffqan\u0131stan","name:id":"Afganistan","name:ms":"Afghanistan","name:mr":"\u0905\u092b\u0917\u093e\u0923\u093f\u0938\u094d\u0924\u093e\u0928","name:as":"\u0986\u09ab\u0997\u09be\u09a8\u09bf\u09b8\u09cd\u09a4\u09be\u09a8","name:ar":"\u0623\u0641\u063a\u0627\u0646\u0633\u062a\u0627\u0646","name:my":"\u1021\u102c\u1016\u1002\u1014\u103a\u1014\u1005\u1039\u1005\u1010\u1014\u103a","name:io":"Afganistan","int_name":"Afghanistan","name:ak":"Afganistan","name:am":"\u12a0\u134d\u130b\u1292\u1235\u1273\u1295","name:it":"Afghanistan","name:an":"Afganist\u00e1n","name:ru":"\u0410\u0444\u0433\u0430\u043d\u0438\u0441\u0442\u0430\u043d","name:mn":"\u0410\u0444\u0433\u0430\u043d\u0438\u0441\u0442\u0430\u043d","name:pl":"Afganistan","name:mk":"\u0410\u0432\u0433\u0430\u043d\u0438\u0441\u0442\u0430\u043d","name:af":"Afghanistan","name:zu":"i-Afghanistan","name:nn":"Afghanistan","name:ff":"Afganistaan","name:fi":"Afganistan","name:hi":"\u0905\u092b\u093c\u0917\u093e\u0928\u093f\u0938\u094d\u0924\u093e\u0928","name:mg":"Afghanistan","id":26847706,"name:ba":"\u0410\u0444\u0493\u0430\u043d\u0441\u0442\u0430\u043d","name:fy":"Afganistan","name:vo":"Lafganist\u00e4n","name:zh":"\u963f\u5bcc\u6c57","name:gv":"Yn Afghanistaan","name:so":"Afgaanistaan","name:sn":"Afuganistani","name:sl":"Afganistan","name:sk":"Afganistan","name:ja":"\u30a2\u30d5\u30ac\u30cb\u30b9\u30bf\u30f3","name:si":"\u0d87\u0dc6\u0dca\u0d9c\u0db1\u0dd2\u0dc3\u0dca\u0dae\u0dcf\u0db1\u0dba","name:no":"Afghanistan","name:sg":"Fagan\u00efta, Afgan\u00efst\u00e4an","name:se":"Afghanistan","name:ne":"\u0905\u092b\u094d\u0917\u093e\u0928\u093f\u0937\u094d\u0924\u093e\u0928","name:br":"Afghanistan","name:bs":"Avganistan","name:bm":"Afiganista\u014b","name:bn":"\u0986\u09ab\u0997\u09be\u09a8\u09bf\u09b8\u09cd\u09a4\u09be\u09a8","name:bo":"\u0f68\u0f55\u0f0b\u0f42\u0f0b\u0f53\u0f72\u0f0b\u0f66\u0f9f\u0f71\u0f53\u0f0d","name:ml":"\u0d05\u0d2b\u0d4d\u0d17\u0d3e\u0d28\u0d3f\u0d38\u0d4d\u0d25\u0d3e\u0d7b","name:sw":"Afuganistani","name:be":"\u0410\u0444\u0433\u0430\u043d\u0456\u0441\u0442\u0430\u043d","name:bg":"\u0410\u0444\u0433\u0430\u043d\u0438\u0441\u0442\u0430\u043d","name:sr":"\u0410\u0432\u0433\u0430\u043d\u0438\u0441\u0442\u0430\u043d","name:sq":"Afganistan","name:ga":"An Afganast\u00e1in","name:gd":"Afganastan","name:gl":"Afganist\u00e1n","name:fo":"Afganistan","name:yo":"Or\u00edl\u1eb9\u0301\u00e8de \u00c0f\u00f9g\u00e0n\u00edst\u00e1n\u00ec","name:gu":"\u0a85\u0aab\u0a98\u0abe\u0aa8\u0abf\u0ab8\u0acd\u0aa4\u0abe\u0aa8"},"coordinates":[1933,3375]},{"type":"Point","properties":{"name:ps":"\u0646\u06cc\u067e\u0627\u0644","name:ka":"\u10dc\u10d4\u10de\u10d0\u10da\u10d8","name:ko":"\ub124\ud314","name:cv":"\u041d\u0435\u043f\u0430\u043b","name:km":"\u1793\u17c1\u1794\u17c9\u17b6\u179b\u17cb","name:cs":"Nep\u00e1l","name:ki":"Nepali","name:kv":"\u041d\u0435\u043f\u0430\u043b","name:th":"\u0e1b\u0e23\u0e30\u0e40\u0e17\u0e28\u0e40\u0e19\u0e1b\u0e32\u0e25","name:ti":"\u1294\u1353\u120d","name:ks":"\u0646\u06cc\u067e\u0627\u0644","name:to":"Nepali","name:pa":"\u0a28\u0a47\u0a2a\u0a3e\u0a32","name:os":"\u041d\u0435\u043f\u0430\u043b","name:or":"\u0b28\u0b47\u0b2a\u0b3e\u0b33","name:ce":"\u041d\u0435\u043f\u0430\u043b","name:ta":"\u0ba8\u0bc7\u0baa\u0bbe\u0bb3\u0bae\u0bcd","name:tg":"\u041d\u0435\u043f\u0430\u043b","name:ky":"\u041d\u0435\u043f\u0430\u043b","name:te":"\u0c28\u0c47\u0c2a\u0c3e\u0c32\u0c4d","name:qu":"Nipal","name:sr":"\u041d\u0435\u043f\u0430\u043b","name:dz":"\u0f56\u0f63\u0f0b\u0f61\u0f74\u0f63","source":"openstreetmap.org","name:nv":"Dzi\u0142gaiitsoh Honeezk\u02bcazii Bik\u00e9yah","name:kn":"\u0ca8\u0cc7\u0caa\u0cbe\u0cb3","name:dv":"\u0782\u07ad\u0795\u07a7\u078d\u07b0","name:lv":"Nep\u0101la","name:lt":"Nepalas","name:hi":"\u0928\u0947\u092a\u093e\u0932","name:kk":"\u041d\u0435\u043f\u0430\u043b","name:he":"\u05e0\u05e4\u05d0\u05dc","kind":"country","name:ur":"\u0646\u06cc\u067e\u0627\u0644","name:la":"Nepalia","name:lg":"Nepalo","name:uk":"\u041d\u0435\u043f\u0430\u043b","name:hy":"\u0546\u0565\u057a\u0561\u056c","name:ug":"\u0646\u06d0\u067e\u0627\u0644","name:hu":"Nep\u00e1l","name:ln":"Nep\u00e1l\u025b","name:lo":"\u0ec0\u0e99\u0e9b\u0eb2\u0e99","population":29519114,"name:el":"\u039d\u03b5\u03c0\u03ac\u03bb","name:eo":"Nepalo","name":"Nepal","name:ee":"Nepal nutome","min_zoom":2.0,"name:yi":"\u05e0\u05e2\u05e4\u05d0\u05dc","name:yo":"Or\u00edl\u1eb9\u0301\u00e8de Nepa","name:rn":"Nepali","name:mr":"\u0928\u0947\u092a\u093e\u0933","name:as":"\u09a8\u09c7\u09aa\u09be\u09b2","name:ar":"\u0646\u064a\u0628\u0627\u0644","name:my":"\u1014\u102e\u1015\u1031\u102b","official_name":"Sanghiya Loktantrik Ganatantratmak Nep\u0101l","name:ak":"N\u025bp\u0254l","name:am":"\u1294\u1353\u120d","name:ml":"\u0d28\u0d47\u0d2a\u0d4d\u0d2a\u0d3e\u0d7e","name:ru":"\u041d\u0435\u043f\u0430\u043b","name:rw":"Nepali","id":249399402,"name:mk":"\u041d\u0435\u043f\u0430\u043b","name:vo":"Nepal\u00e4n","name:zu":"i-Nepal","name:ha":"Nefal","name:mn":"\u0411\u0430\u043b\u0431\u0430","name:ff":"Nepaal","name:mg":"Nepala","name:fr":"N\u00e9pal","name:zh-yue":"\u5c3c\u6cca\u723e","name:pi":"\u0928\u0947\u092a\u093e\u0932","name:zh":"\u5c3c\u6cca\u5c14","name:so":"Nebaal","name:sk":"Nep\u00e1l","name:ja":"\u30cd\u30d1\u30fc\u30eb","name:si":"\u0db1\u0dda\u0db4\u0dcf\u0dbd\u0dba","name:fa":"\u0646\u067e\u0627\u0644","name:sg":"N\u00ebp\u00e2li","name:na":"Nepar","name:sd":"\u0646\u064a\u067e\u0627\u0644","name:ne":"\u0928\u0947\u092a\u093e\u0932","name:sa":"\u0928\u0947\u092a\u093e\u0932\u0926\u0947\u0936\u0903","name:bm":"Nepali","name:bn":"\u09a8\u09c7\u09aa\u09be\u09b2","name:bo":"\u0f56\u0f62\u0f0b\u0f61\u0f74\u0f63\u0f0b","name:sw":"Nepali","name:be":"\u041d\u0435\u043f\u0430\u043b","name:bg":"\u041d\u0435\u043f\u0430\u043b","name:ss":"INephali","name:ba":"\u041d\u0435\u043f\u0430\u043b","name:sq":"Nepali","name:ga":"Neipeal","name:gd":"Neap\u00e0l","name:wo":"Nepaal","name:gv":"Nepaal","name:gu":"\u0aa8\u0ac7\u0aaa\u0abe\u0ab3","name:tt":"\u041d\u0435\u043f\u0430\u043b"},"coordinates":[3558,2809]},{"type":"Point","properties":{"name:ka":"\u10d8\u10d4\u10db\u10d4\u10dc\u10d8","name:ko":"\uc608\uba58","name:cv":"\u0419\u0435\u043c\u0435\u043d","name:km":"\u1799\u17c1\u1798\u17c2\u1793","name:kl":"Jemen","name:cs":"Jemen","name:ki":"Yemeni","name:co":"Yemen","name:kv":"\u0419\u0435\u043c\u0435\u043d","name:ku":"Yemen","name:ti":"\u12e8\u1218\u1295","name:ks":"\u06cc\u064e\u0645\u064e\u0646","name:to":"Iemeni","name:tl":"Yemen","name:ce":"\u0419\u0435\u043c\u0435\u043d","name:ta":"\u0b8f\u0bae\u0ba9\u0bcd","name:tg":"\u042f\u043c\u0430\u043d","name:ca":"Iemen","name:te":"\u0c2f\u0c46\u0c2e\u0c46\u0c28\u0c4d","name:cy":"Yemen","name:hr":"Jemen","name:da":"Yemen","name:de":"Jemen","name:dz":"\u0f61\u0f7a\u0f0b\u0f58\u0f7a\u0f53","source":"openstreetmap.org","name:kn":"\u0caf\u0cc6\u0cae\u0ca8\u0ccd","name:dv":"\u0794\u07a6\u0789\u07a6\u0782\u07b0","name:lv":"Jemena","name:lt":"Jemenas","name:uz":"Yaman","name:kk":"\u0419\u0435\u043c\u0435\u043d","name:ur":"\u06cc\u0645\u0646","name:lb":"Jemen","name:la":"Iemenia","name:lg":"Yemeni","name:uk":"\u0404\u043c\u0435\u043d","name:ug":"\u064a\u06d5\u0645\u06d5\u0646","name:li":"Jeme","name:ln":"Yem\u025bn\u025b","name:lo":"\u0ec0\u0ea2\u0ec0\u0ea1\u0e99","name:el":"\u03a5\u03b5\u03bc\u03ad\u03bd\u03b7","name:eo":"Jemeno","name:en":"Yemen","name":"\u0627\u0644\u064a\u064e\u0645\u064e\u0646","name:tk":"\u00ddemen","name:ee":"Yemen nutome","name:th":"\u0e1b\u0e23\u0e30\u0e40\u0e17\u0e28\u0e40\u0e22\u0e40\u0e21\u0e19","name:eu":"Yemen","name:et":"Jeemen","name:es":"Yemen","name:ia":"Yemen","name:rm":"Jemen","name:rn":"Yemeni","name:az":"Yemen","name:ie":"Yemen","name:id":"Yaman","name:ar":"\u0627\u0644\u064a\u0645\u0646","name:io":"Yemen","name:ak":"Y\u025bmen","name:am":"\u12e8\u1218\u1295","name:it":"Yemen","name:an":"Yemen","name:ru":"\u0419\u0435\u043c\u0435\u043d","name:rw":"Yemeni","name:af":"Jemen","name:zu":"i-Yemen","name:ky":"\u0419\u0435\u043c\u0435\u043d","name:zh-yue":"\u4e5f\u9580","name:zh":"\u4e5f\u95e8","name:so":"Yaman","name:sn":"Yemen","name:sl":"Jemen","name:sk":"Jemen","name:ja":"\u30a4\u30a8\u30e1\u30f3","name:si":"\u0dba\u0dda\u0db8\u0db1\u0dba","name:sh":"Jemen","name:sg":"Y\u00ebm\u00eani","name:se":"Jemen","name:sa":"\u092f\u092e\u0928","name:bs":"Jemen","name:bm":"Yem\u025bni","name:bn":"\u0987\u09ae\u09c7\u09a8","name:bo":"\u0f61\u0f7a\u0f0b\u0f58\u0f7a\u0f53\u0f0d","name:br":"Yemen","name:sw":"Yemeni","name:be":"\u0419\u0435\u043c\u0435\u043d","name:su":"Yaman","name:bg":"\u0419\u0435\u043c\u0435\u043d","name:ss":"IYemeni","name:ba":"\u0419\u0435\u043c\u0435\u043d","name:sq":"Jemen","name:jv":"Yaman","name:pt":"I\u00eamen","name:ps":"\u06cc\u0645\u0646","name:oc":"Iem\u00e8n","min_zoom":2.0,"name:ro":"Yemen","name:zh-min-nan":"Yemen","name:os":"\u0419\u0435\u043c\u0435\u043d","name:or":"\u0b5f\u0b47\u0b2e\u0b47\u0b28\u0b4d","name:pl":"Jemen","name:sr":"\u0408\u0435\u043c\u0435\u043d","name:pa":"\u0a2f\u0a2e\u0a28","name:tr":"Yemen","name:hi":"\u092f\u092e\u0928","name:sv":"Jemen","name:he":"\u05ea\u05d9\u05de\u05df","name:ha":"Yamal","name:hy":"\u0535\u0574\u0565\u0576","name:ht":"Yem\u00e8n","name:hu":"Jemen","name:qu":"Yaman","population":24184000,"kind":"country","name:is":"Jemen","name:yi":"\u05ea\u05d9\u05de\u05df","name:yo":"Or\u00edl\u1eb9\u0301\u00e8de yemeni","name:mt":"Jemen","name:ms":"Yaman","name:mr":"\u092f\u0947\u092e\u0947\u0928","name:my":"\u101a\u102e\u1019\u1004\u103a","name:kw":"Yemen","name:mg":"Yemen","name:ml":"\u0d2f\u0d2e\u0d7b","name:vi":"Yemen","name:mn":"\u0419\u0435\u043c\u0435\u043d","id":249399459,"name:mk":"\u0408\u0435\u043c\u0435\u043d","name:vo":"Y\u00e4m\u00e4n","name:fa":"\u064a\u0645\u0646","name:ff":"Yemen","name:fi":"Jemen","name:fo":"Jemen","name:fr":"Y\u00e9men","name:fy":"Jemen","int_name":"Yemen","name:nl":"Jemen","name:nn":"Yemen","name:no":"Jemen","name:na":"Yemen","name:ne":"\u092f\u0947\u092e\u0947\u0928","name:wo":"Yaman","name:nv":"Sh\u00e1di\u02bc\u00e1\u00e1hj\u00ed \u00c1s\u00e1\u00ed Bik\u00e9yah","name:ga":"\u00c9imin","name:gd":"Iemen","name:gn":"Jem\u1ebd","name:gl":"Iemen","name:gv":"Yn Yeaman","name:gu":"\u0aaf\u0ac7\u0aae\u0ac7\u0aa8","name:tt":"\u0419\u04d9\u043c\u04d9\u043d"},"coordinates":[263,1634]},{"type":"Point","properties":{"name:cy":"Sri Lanka","name:ko":"\uc2a4\ub9ac\ub791\uce74","name:cv":"\u0428\u0440\u0438-\u041b\u0430\u043d\u043a\u0430","name:km":"\u179f\u17d2\u179a\u17b8\u179b\u1784\u17d2\u1780\u17b6","name:cs":"Sr\u00ed Lanka","name:ki":"Sri Lanka","name:kw":"Shri Lanka","name:kv":"\u0428\u0440\u0438-\u041b\u0430\u043d\u043a\u0430","name:ku":"Sr\u00ee Lanka","name:tl":"Sri Lanka","name:ta":"\u0b87\u0bb2\u0b99\u0bcd\u0b95\u0bc8","name:tg":"\u0428\u0440\u0438-\u041b\u0430\u043d\u043a\u0430","name:ca":"Sri Lanka","name:te":"\u0c36\u0c4d\u0c30\u0c40\u0c32\u0c02\u0c15","name:ka":"\u10e8\u10e0\u10d8-\u10da\u10d0\u10dc\u10d9\u10d0","name:hr":"\u0160ri Lanka","name:da":"Sri Lanka","name:de":"Sri Lanka","name:dz":"\u0f64\u0fb2\u0f71\u0f80\u0f0b\u0f63\u0f44\u0f40\u0f0b","source":"openstreetmap.org","name:kn":"\u0cb6\u0ccd\u0cb0\u0cc0\u0cb2\u0c82\u0c95\u0cbe","name:dv":"\u0787\u07ae\u0785\u07aa\u078b\u07ab\u0786\u07a6\u0783\u07a6","name:lv":"\u0160rilanka","name:lt":"\u0160ri Lanka","name:uz":"Shri-Lanka","name:kk":"\u0428\u0440\u0438-\u041b\u0430\u043d\u043a\u0430","name:ur":"\u0633\u0631\u06cc \u0644\u0646\u06a9\u0627","name:lb":"Sri Lanka","name:la":"Taprobane","name:tt":"\u0428\u0440\u0438-\u041b\u0430\u043d\u043a\u0430","name:uk":"\u0428\u0440\u0456-\u041b\u0430\u043d\u043a\u0430","name:ug":"\u0633\u0631\u0649\u0644\u0627\u0646\u0643\u0627","name:li":"Sri Lanka","name:ln":"Sri Lanka","name:el":"\u03a3\u03c1\u03b9 \u039b\u03ac\u03bd\u03ba\u03b1","name:eo":"Sri-Lanko","name:en":"Sri Lanka","name":"\u0dc1\u0dca\u200d\u0dbb\u0dd3 \u0dbd\u0d82\u0d9a\u0dcf","name:tk":"\u015eri-Lanka","name:th":"\u0e1b\u0e23\u0e30\u0e40\u0e17\u0e28\u0e28\u0e23\u0e35\u0e25\u0e31\u0e07\u0e01\u0e32","name:eu":"Sri Lanka","name:et":"Sri Lanka","name:es":"Sri Lanka","name:ia":"Sri Lanka","name:az":"\u015eri-Lanka","name:ie":"Sri Lanka","name:id":"Sri Lanka","name:ar":"\u0633\u0631\u064a\u0644\u0627\u0646\u0643\u0627","name:io":"Sri Lanka","name:is":"Sr\u00ed Lanka","name:am":"\u123d\u122a \u120b\u1295\u12ab","name:it":"Sri Lanka","name:an":"Sri Lanka","name:ru":"\u0428\u0440\u0438-\u041b\u0430\u043d\u043a\u0430","name:rw":"Siri Lanka","name:af":"Sri Lanka","name:zh-yue":"\u65af\u91cc\u862d\u5361","name:zh":"\u65af\u91cc\u862d\u5361","name:so":"Siri Lanka","name:sm":"Sri Lanka","name:sl":"\u0160rilanka","name:sk":"Sr\u00ed Lanka","name:ja":"\u30b9\u30ea\u30e9\u30f3\u30ab","name:si":"\u0dc1\u0dca\u200d\u0dbb\u0dd3 \u0dbd\u0d82\u0d9a\u0dcf\u0dc0","name:sh":"\u0160ri Lanka","name:se":"Sri Lanka","name:br":"Sri Lanka","name:bs":"\u0160ri Lanka","name:bn":"\u09b6\u09cd\u09b0\u09c0\u09b2\u0999\u09cd\u0995\u09be","name:bo":"\u0f66\u0f7a\u0f44\u0f0b\u0f42\u0f0b\u0f42\u0fb3\u0f72\u0f44\u0f0b\u0f0d","name:sa":"\u0936\u094d\u0930\u0940\u0932\u0919\u094d\u0915\u093e","name:sw":"Sri Lanka","name:be":"\u0428\u0440\u044b-\u041b\u0430\u043d\u043a\u0430","name:su":"Sri Langka","name:bg":"\u0428\u0440\u0438 \u041b\u0430\u043d\u043a\u0430","name:ss":"Siri Lanka","name:ba":"\u0428\u0440\u0438-\u041b\u0430\u043d\u043a\u0430","name:sq":"Sri Lanka","name:jv":"Sri Lanka","name:pt":"Seri-Lanca","name:ps":"\u0633\u0631\u06cc\u0644\u0627\u0646\u06a9\u0627","name:om":"Sirilaankaa","name:oc":"Sri Lanka","min_zoom":2.0,"name:ro":"Sri Lanka","name:zh-min-nan":"Sri Lanka","name:os":"\u0428\u0440\u0438-\u041b\u0430\u043d\u043a\u0430","name:or":"\u0b36\u0b4d\u0b30\u0b40\u0b32\u0b19\u0b4d\u0b15\u0b3e","name:pl":"Sri Lanka","name:sr":"\u0428\u0440\u0438 \u041b\u0430\u043d\u043a\u0430","name:pa":"\u0a38\u0a4d\u0a30\u0a40\u0a32\u0a70\u0a15\u0a3e","name:tr":"Sri Lanka","name:hi":"\u0936\u094d\u0930\u0940\u0932\u0902\u0915\u093e","name:sv":"Sri Lanka","name:he":"\u05e1\u05e8\u05d9 \u05dc\u05e0\u05e7\u05d4","name:hy":"\u0547\u0580\u056b \u053c\u0561\u0576\u056f\u0561","name:ht":"Srilanka","name:hu":"Sr\u00ed Lanka","name:qu":"Sri Lanka","population":20277597,"kind":"country","name:yi":"\u05e1\u05e8\u05d9 \u05dc\u05d0\u05e0\u05e7\u05d0","name:yo":"Sri Lanka","name:mt":"Sri Lanka","alt_name:eo":"Srilanko","name:ms":"Sri Lanka","name:mr":"\u0936\u094d\u0930\u0940\u0932\u0902\u0915\u093e","name:my":"\u101e\u102e\u101b\u102d\u101c\u1004\u103a\u1039\u1000\u102c\u1014\u102d\u102f\u1004\u103a\u1004\u1036","name:mg":"Sri Lanka","name:ml":"\u0d36\u0d4d\u0d30\u0d40\u0d32\u0d19\u0d4d\u0d15","name:vi":"Sri Lanka","name:mn":"\u0428\u0440\u0438 \u041b\u0430\u043d\u043a\u0430","id":3997635385,"name:mk":"\u0428\u0440\u0438 \u041b\u0430\u043d\u043a\u0430","name:vo":"Sri-Lank\u00e4n","name:fa":"\u0633\u0631\u06cc\u200c\u0644\u0627\u0646\u06a9\u0627","name:fi":"Sri Lanka","name:fo":"Sri Lanka","name:fr":"Sri Lanka","name:fy":"Sry Lanka","name:nl":"Sri Lanka","name:nn":"Sri Lanka","name:no":"Sri Lanka","name:na":"Sri Lanka","name:ne":"\u0936\u094d\u0930\u0940\u0932\u0902\u0915\u093e","name:wo":"Siri Laanka","name:nv":"Swii Lank\u02bca","name:ga":"Sr\u00ed Lanca","name:gd":"Sri Lanca","name:gl":"Sri Lanka - Sri Lank\u0101","name:gv":"Sri Lanka","name:gu":"\u0ab6\u0acd\u0ab0\u0ac0\u0ab2\u0a82\u0a95\u0abe"},"coordinates":[3261,723]},{"type":"Point","properties":{"source":"naturalearthdata.com","kind":"locality","name":"Mumbai","population":18978000,"region_capital":true,"min_zoom":2.0,"id":7281},"coordinates":[2535,1901]},{"type":"Point","properties":{"source":"naturalearthdata.com","kind":"locality","name":"Kolkata","population":14787000,"region_capital":true,"min_zoom":2.0,"id":7284},"coordinates":[3943,2249]},{"type":"Point","properties":{"name:kg":"S\u00f4m\u00e2lia","name:ka":"\u10e1\u10dd\u10db\u10d0\u10da\u10d8","name:ko":"\uc18c\ub9d0\ub9ac\uc544","name:kn":"\u0cb8\u0cca\u0cae\u0cbe\u0cb2\u0cbf\u0caf\u0cbe","name:km":"\u179f\u17bc\u1798\u17c9\u17b6\u179b\u17b8","name:kl":"Somalia","name:cs":"Som\u00e1lsko","name:ki":"Somaria","name:kw":"Somali","name:tk":"Somali","name:ku":"Somalya","name:ti":"\u1231\u121b\u120c","name:ks":"\u0633\u0648\u0645\u0627\u0644\u0650\u06cc\u0627","name:to":"S\u014dmalia","name:tl":"Somalya","name:ce":"\u0421\u043e\u043c\u0430\u043b\u0438","name:ta":"\u0b9a\u0bca\u0bae\u0bbe\u0bb2\u0bbf\u0baf\u0bbe","name:tg":"\u0421\u043e\u043c\u0430\u043b\u0438","name:ca":"Som\u00e0lia","name:te":"\u0c38\u0c4b\u0c2e\u0c3e\u0c32\u0c3f\u0c2f\u0c3e","name:cy":"Somalia","name:hr":"Somalija","name:da":"Somalia","name:de":"Somalia","name:dz":"\u0f66\u0f7c\u0f0b\u0f58\u0f0b\u0f63\u0f72\u0f0b\u0f61","source":"openstreetmap.org","name:ts":"Somalia","name:dv":"\u0790\u07af\u0789\u07a7\u078d\u07a8\u0787\u07a7","name:lv":"Som\u0101lija","name:lt":"Somalis","name:uz":"Somali","name:kk":"\u0421\u043e\u043c\u0430\u043b\u0438","name:ur":"\u0635\u0648\u0645\u0627\u0644\u06cc\u06c1","name:lb":"Somalia","name:la":"Somalia","name:lg":"Somaliya","name:uk":"\u0421\u043e\u043c\u0430\u043b\u0456","name:ug":"\u0633\u0648\u0645\u0627\u0644\u0649","name:li":"Somali\u00eb","name:ln":"Somali","name:lo":"\u0ec2\u0e8a\u0ea1\u0eb2\u0ec0\u0ea5\u0e8d","name:el":"\u03a3\u03bf\u03bc\u03b1\u03bb\u03af\u03b1","name:eo":"Somalujo","name:en":"Somalia","name":"\u0627\u0644\u0635\u0648\u0645\u0627\u0644","name:ee":"Somalia nutome","name:th":"\u0e1b\u0e23\u0e30\u0e40\u0e17\u0e28\u0e42\u0e0b\u0e21\u0e32\u0e40\u0e25\u0e35\u0e22","name:eu":"Somalia","name:et":"Somaalia","name:es":"Somalia","name:ia":"Somalia","name:rm":"Somalia","name:rn":"Somaliya","name:az":"Somaliya","name:ie":"Somalia","name:id":"Somalia","name:pa":"\u0a38\u0a4b\u0a2e\u0a3e\u0a32\u0a40\u0a06","name:io":"Somalia","name:ak":"Somalia","name:am":"\u1231\u121b\u120c","name:it":"Somalia","name:an":"Somalia","name:ru":"\u0421\u043e\u043c\u0430\u043b\u0438","name:rw":"Somaliya","name:af":"Somali\u00eb","name:zu":"i-Somalia","name:zh-yue":"\u7d22\u99ac\u91cc","name:zh":"\u7d22\u9a6c\u91cc","name:so":"Soomaaliya","name:sn":"Somalia","name:sm":"Somalia","name:sl":"Somalija","name:sk":"Som\u00e1lsko","name:ja":"\u30bd\u30de\u30ea\u30a2","name:si":"\u0dc3\u0ddd\u0db8\u0dcf\u0dbd\u0dd2\u0dba\u0dcf\u0dc0","name:sh":"Somalija","name:sg":"Somal\u00efi","name:se":"Som\u00e1lia","name:sc":"Som\u00e0lia","name:br":"Somalia","name:bs":"Somalija","name:bm":"Somali","name:bn":"\u09b8\u09cb\u09ae\u09be\u09b2\u09bf","name:bo":"\u0f66\u0f7c\u0f0b\u0f58\u0f71\u0f63\u0f72\u0f0b\u0f61\u0f0d","name:sa":"\u0938\u094b\u092e\u093e\u0932\u093f\u092f\u093e","name:sw":"Somalia","name:be":"\u0421\u0430\u043c\u0430\u043b\u0456","name:su":"Somalia","name:bg":"\u0421\u043e\u043c\u0430\u043b\u0438\u044f","name:ss":"ISomaliya","name:ba":"\u0421\u043e\u043c\u0430\u043b\u0438","name:sq":"Somali","name:jv":"Somalia","name:pt":"Som\u00e1lia","name:ps":"\u0633\u0648\u0645\u0627\u0644\u06cc\u0627","name:om":"Somaaliyaa","name:oc":"Somalia","min_zoom":2.0,"name:ro":"Somalia","name:zh-min-nan":"Somalia","name:os":"\u0421\u043e\u043c\u0430\u043b\u0438","name:or":"\u0b38\u0b4b\u0b2e\u0b3e\u0b32\u0b3f\u0b06","name:pl":"Somalia","name:st":"Somalia","name:sr":"\u0421\u043e\u043c\u0430\u043b\u0438\u0458\u0430","name:tr":"Somali","name:hi":"\u0938\u094b\u092e\u093e\u0932\u093f\u092f\u093e","name:sv":"Somalia","name:he":"\u05e1\u05d5\u05de\u05dc\u05d9\u05d4","name:ha":"Somaliya","name:hy":"\u054d\u0578\u0574\u0561\u056c\u056b","name:ht":"Somali","name:hu":"Szom\u00e1lia","name:qu":"Sumalya","population":9558666,"kind":"country","name:is":"S\u00f3mal\u00eda","name:yi":"\u05e1\u05d0\u05de\u05d0\u05dc\u05d9\u05e2","name:yo":"Or\u00edl\u1eb9\u0301\u00e8de Somalia","name:mt":"Somalja","alt_name:eo":"Somalio","name:ms":"Somalia","name:mr":"\u0938\u094b\u092e\u093e\u0932\u093f\u092f\u093e","name:my":"\u1006\u102d\u102f\u1019\u102c\u101c\u102e\u101a\u102c","official_name":"Somali Republic","int_name":"Somalia","name:mg":"Somalia","name:ml":"\u0d38\u0d4b\u0d2e\u0d3e\u0d32\u0d3f\u0d2f","name:vi":"Somalia","name:mn":"\u0421\u043e\u043c\u0430\u043b\u0438","name:mi":"H\u016bm\u0101rie","id":424317039,"name:mk":"\u0421\u043e\u043c\u0430\u043b\u0438\u0458\u0430","name:vo":"Somal\u00e4n","name:fa":"\u0633\u0648\u0645\u0627\u0644\u06cc","name:ff":"Somalii","name:fi":"Somalia","name:fo":"Somalia","name:fr":"Somalie","name:fy":"Somaalje","name:nl":"Somali\u00eb","name:nn":"Somalia","name:no":"Somalia","name:na":"Tomariya","name:ne":"\u0938\u094b\u092e\u093e\u0932\u093f\u092f\u093e","name:wo":"Somali","name:nv":"Soom\u00e1\u00e1lii Bik\u00e9yah","name:ga":"An tSom\u00e1il","name:gd":"Som\u00e0ilia","name:gl":"Somalia","name:gv":"Yn Tomaal","name:gu":"\u0ab8\u0acb\u0aae\u0abe\u0ab2\u0abf\u0aaf\u0abe","name:tt":"\u0421\u043e\u043c\u0430\u043b\u0438"},"coordinates":[372,836]},{"type":"Point","properties":{"name:kg":"Azerbaidjan","name:ka":"\u10d0\u10d6\u10d4\u10e0\u10d1\u10d0\u10d8\u10ef\u10d0\u10dc\u10d8","name:ko":"\uc544\uc81c\ub974\ubc14\uc774\uc794","name:cv":"\u0410\u0437\u0435\u0440\u0431\u0430\u0439\u0434\u0436\u0430\u043d","name:cu":"\u0410\ua641\u0463\u0440\u0431\u0430\u0438\u0447\u0430\u043d\u044a","name:kl":"Aserbajdsjan","name:cs":"\u00c1zerb\u00e1jd\u017e\u00e1n","name:ki":"Azabajani","name:co":"Azerbaighjan","name:kv":"\u0410\u0437\u0435\u0440\u0431\u0430\u0439\u0434\u0436\u0430\u043d","name:ku":"Azerbaycan","name:ti":"\u12a0\u12d8\u122d\u1263\u1303\u1295","name:ks":"\u0622\u0632\u064e\u0631\u0628\u0627\u062c\u0627\u0646","name:to":"\u02bbAsapaisani","name:tl":"Aserbayan","name:ce":"\u0410\u0437\u0435\u0440\u0431\u0430\u0439\u0434\u0436\u0430\u043d","name:ta":"\u0b85\u0b9a\u0bb0\u0bcd\u0baa\u0bc8\u0b9c\u0bbe\u0ba9\u0bcd","name:tg":"\u041e\u0437\u0430\u0440\u0431\u043e\u0439\u04b7\u043e\u043d","name:ca":"Azerbaidjan","name:te":"\u0c05\u0c1c\u0c30\u0c4d\u0c2c\u0c48\u0c1c\u0c3e\u0c28\u0c4d","name:cy":"Azerbaijan","name:hr":"Azerbejd\u017ean","name:da":"Aserbajdsjan","name:de":"Aserbaidschan","name:dz":"\u0f68\u0f0b\u0f5b\u0f62\u0f0b\u0f56\u0fb7\u0f60\u0f72\u0f0b\u0f47\u0f71\u0f53","source":"openstreetmap.org","name:kn":"\u0c85\u0c9c\u0cb0\u0ccd\u0cac\u0cc8\u0c9c\u0cbe\u0ca8\u0ccd","name:dv":"\u0787\u07a6\u0792\u07a6\u0783\u07aa\u0784\u07a6\u0787\u07a8\u0796\u07a7\u0782\u07b0","name:km":"\u17a2\u17b6\u17a0\u17ca\u17d2\u179f\u17c2\u179a\u1794\u17c2\u17a0\u17d2\u179f\u1784\u17cb","name:lv":"Azerbaid\u017e\u0101na","name:lt":"Azerbaid\u017eanas","name:uz":"Ozarbayjon","name:kk":"\u04d8\u0437\u0456\u0440\u0431\u0430\u0439\u0436\u0430\u043d","name:ur":"\u0622\u0630\u0631\u0628\u0627\u0626\u062c\u0627\u0646","name:lb":"Aserbaidschan","name:la":"Adrabigania","name:lg":"Azerebayijaani","name:uk":"\u0410\u0437\u0435\u0440\u0431\u0430\u0439\u0434\u0436\u0430\u043d","name:ug":"\u0626\u06d5\u0632\u06d5\u0631\u0628\u06d5\u064a\u062c\u0627\u0646","name:li":"Azerbaidzjan","name:ln":"Az\u025bl\u025bbaiz\u00e1","name:lo":"\u0ead\u0eb2\u0ec0\u0e8a\u0eb5\u0ec4\u0e9a\u0e88\u0eb1\u0e99","name:el":"\u0391\u03b6\u03b5\u03c1\u03bc\u03c0\u03b1\u03ca\u03c4\u03b6\u03ac\u03bd","name:eo":"Azerbaj\u011dano","name:en":"Azerbaijan","name":"Az\u0259rbaycan","name:tk":"Azerba\u00fdjan","name:ee":"Azerbaijan nutome","name:th":"\u0e1b\u0e23\u0e30\u0e40\u0e17\u0e28\u0e2d\u0e32\u0e40\u0e0b\u0e2d\u0e23\u0e4c\u0e44\u0e1a\u0e08\u0e32\u0e19","name:eu":"Azerbaijan","name:et":"Aserbaid\u017eaan","name:es":"Azerbaiy\u00e1n","name:ia":"Azerbaidzhan","name:rm":"Aserbaidschan","name:rn":"Azerubayijani","name:ro":"Azerbaidjan","name:ie":"Azerbaidjan","name:id":"Azerbaijan","name:ar":"\u0623\u0630\u0631\u0628\u064a\u062c\u0627\u0646","name:io":"Azerbaijan","name:av":"\u0410\u0437\u0430\u0440\u0431\u0438\u0436\u0430\u043d","name:ak":"Azebaegyan","name:am":"\u12a0\u12d8\u122d\u1263\u1303\u1295","name:it":"Azerbaigian","name:an":"Azerbaich\u00e1n","name:ru":"\u0410\u0437\u0435\u0440\u0431\u0430\u0439\u0434\u0436\u0430\u043d","name:ab":"\u0410\u0437\u0435\u0440\u0431\u0430\u0438\u045f\u044c\u0430\u043d","name:af":"Azerbeidjan","name:zu":"i-Azerbaijan","name:za":"Ahsehbaiqgyangh","name:zh-yue":"\u963f\u585e\u62dc\u7586","name:zh":"\u963f\u585e\u62dc\u7586","name:so":"Azerbajaan","name:sn":"Azabajani","name:sm":"Azerbaijin","name:sl":"Azerbajd\u017ean","name:sk":"Azerbajd\u017ean","name:ja":"\u30a2\u30bc\u30eb\u30d0\u30a4\u30b8\u30e3\u30f3","name:si":"\u0d85\u0dc3\u0dbb\u0dca\u0db6\u0dba\u0dd2\u0da2\u0dcf\u0db1\u0dba","name:sh":"Azerbejd\u017ean","name:sg":"Zerebaidy\u00e4an, Azerbaidy\u00e4an,","name:se":"Aserbai\u017ean","name:sc":"Azerbaigi\u00e1n","name:br":"Azerbaidjan","name:bs":"Azerbejd\u017ean","name:bm":"Az\u025brbayja\u014b","name:bn":"\u0986\u099c\u09be\u09b0\u09ac\u09be\u0987\u099c\u09be\u09a8","name:bo":"\u0f68\u0f5b\u0f62\u0f0b\u0f56\u0f61\u0f7a\u0f0b\u0f47\u0f53\u0f0d","name:bi":"Azerbaijan","name:sw":"Azabajani","name:be":"\u0410\u0437\u0435\u0440\u0431\u0430\u0439\u0434\u0436\u0430\u043d","name:su":"Azerbaijan","name:bg":"\u0410\u0437\u0435\u0440\u0431\u0435\u0439\u0434\u0436\u0430\u043d","name:ss":"IZebajani","name:ba":"\u04d8\u0437\u0435\u0440\u0431\u0430\u0439\u0436\u0430\u043d","name:sq":"Azerbajxhan","name:jv":"Azerbaijan","name:sa":"\u0905\u091c\u0930\u094d\u092c\u0948\u091c\u093e\u0928","name:pt":"Azerbaij\u00e3o","name:ps":"\u0622\u0632\u0631\u0628\u0627\u064a\u062c\u0627\u0646","name:oc":"Azerbaitjan","min_zoom":2.0,"int_name":"Azerbaijan","name:zh-min-nan":"Azerbaijan","name:os":"\u0410\u0437\u0435\u0440\u0431\u0430\u0439\u0434\u0436\u0430\u043d","name:or":"\u0b06\u0b1c\u0b47\u0b30\u0b2c\u0b3e\u0b07\u0b1c\u0b3e\u0b28\u0b4d","name:pl":"Azerbejd\u017can","name:sr":"\u0410\u0437\u0435\u0440\u0431\u0435\u0458\u045f\u0430\u043d","name:pa":"\u0a05\u0a1c\u0a3c\u0a30\u0a2c\u0a3e\u0a08\u0a1c\u0a3e\u0a28","name:tr":"Azerbaycan","name:hi":"\u0905\u091c\u093c\u0930\u092c\u0948\u091c\u093e\u0928","name:sv":"Azerbajdzjan","name:he":"\u05d0\u05d6\u05e8\u05d1\u05d9\u05d9\u05d2'\u05df","name:ha":"Azarbaijan","name:hy":"\u0531\u0564\u0580\u0562\u0565\u057b\u0561\u0576","name:ht":"Azerbaydjan","name:hu":"Azerbajdzs\u00e1n","name:qu":"Asarsuyu","population":9105000,"kind":"country","name:is":"Aserba\u00eddsjan","name:yi":"\u05d0\u05d6\u05e2\u05e8\u05d1\u05d9\u05d9\u05d3\u05d6\u05e9\u05d0\u05df","name:yo":"Or\u00edl\u1eb9\u0301\u00e8de As\u1eb9\u0301b\u00e1j\u00e1n\u00ec","name:mt":"A\u017cerbaj\u0121an","name:ms":"Azerbaijan","name:mr":"\u0905\u091d\u0930\u092c\u0948\u091c\u093e\u0928","name:my":"\u1021\u1007\u102c\u1018\u102d\u102f\u1004\u103a\u1002\u103b\u1014\u103a","official_name":"Az\u0259rbaycan Respublikas\u0131","name:kw":"Azerbayjan","name:mg":"Azerbaidjan","name:ml":"\u0d05\u0d38\u0d7c\u0d2c\u0d48\u0d1c\u0d3e\u0d7b","name:vi":"Azerbaijan","name:mn":"\u0410\u0437\u0435\u0440\u0431\u0430\u0439\u0436\u0430\u043d","name:mi":"Atepaih\u0101nia","id":424313675,"name:mk":"\u0410\u0437\u0435\u0440\u0431\u0435\u0458\u045f\u0430\u043d","name:vo":"Las\u00e4rb\u00e4c\u00e4n","name:fa":"\u0622\u0630\u0631\u0628\u0627\u06cc\u062c\u0627\u0646","name:rw":"Azeribayijani","name:ff":"Ajerbayjaan","name:fi":"Azerbaid\u017ean","name:ky":"\u0410\u0437\u0435\u0440\u0431\u0430\u0439\u0436\u0430\u043d","name:fo":"Aserbajdsjan","name:fr":"Azerba\u00efdjan","name:fy":"Azerbeidzjan","name:nl":"Azerbeidzjan","name:nn":"Aserbajdsjan","name:no":"Aserbajdsjan","name:na":"Aderbaidjan","name:nb":"Aserbajdsjan","name:ne":"\u0905\u091c\u0930\u092c\u0948\u091c\u093e\u0928","name:ny":"Azerbaijan","name:wo":"Aserbayjaan","name:nv":"Az\u00e9\u00e9wii Bik\u00e9yah","name:ga":"An Asarbaise\u00e1in","name:gd":"Asarbaidean","name:gn":"Aservaij\u00e3","name:gl":"Acerbaix\u00e1n","name:gv":"Yn Asserbajaan","name:gu":"\u0a85\u0a9d\u0ab0\u0aac\u0ac8\u0a9c\u0abe\u0aa8","name:tt":"\u0410\u0437\u04d9\u0440\u0431\u0430\u0439\u0497\u0430\u043d"},"coordinates":[254,4037]},{"type":"Point","properties":{"name:ka":"\u10e2\u10d0\u10ef\u10d8\u10d9\u10d4\u10d7\u10d8","name:ko":"\ud0c0\uc9c0\ud0a4\uc2a4\ud0c4","name:cv":"\u0422\u0430\u0434\u0436\u0438\u043a\u0438\u0441\u0442\u0430\u043d","name:cu":"\u0422\u0430\u0434\u0436\u0438\u043a\u0438\u0441\u0442\u0430\u043d\u044a","name:kl":"Tajikistani","name:cs":"T\u00e1d\u017eikist\u00e1n","name:ki":"Tajikistani","name:kw":"Pow Tajik","name:kv":"\u0422\u0430\u0434\u0436\u0438\u043a\u0438\u0441\u0442\u0430\u043d","name:ku":"Tac\u00eekistan","name:ti":"\u1273\u1303\u12aa\u1235\u1273\u1295","name:ks":"\u062a\u0627\u062c\u06a9\u0650\u0633\u062a\u0627\u0646","name:to":"Tasikitani","name:tl":"Tayikistan","name:ce":"\u0422\u0430\u0434\u0436\u0438\u043a\u0438","name:ta":"\u0ba4\u0bbe\u0b9c\u0bbf\u0b95\u0bbf\u0bb8\u0bcd\u0ba4\u0bbe\u0ba9\u0bcd","name:ca":"Tadjikistan","name:te":"\u0c1f\u0c3e\u0c1c\u0c40\u0c15\u0c3f\u0c38\u0c4d\u0c24\u0c3e\u0c28\u0c4d","name:cy":"Tajicistan","name:hr":"Tad\u017eikistan","name:da":"Tadsjikistan","name:de":"Tadschikistan","name:dz":"\u0f4f\u0f0b\u0f47\u0f72\u0f42\u0f0b\u0f42\u0f72\u0f0b\u0f66\u0f4f\u0f71\u0f53","source":"openstreetmap.org","name:kn":"\u0ca4\u0c9c\u0cbe\u0c95\u0cbf\u0cb8\u0ccd\u0ca5\u0cbe\u0ca8\u0ccd","name:dv":"\u078c\u07a6\u0796\u07a8\u0786\u07a8\u0790\u07b0\u078c\u07a7\u0782\u07b0","name:km":"\u178f\u17b6\u178a\u17a0\u17d2\u179f\u17c9\u17b8\u1782\u17b8\u179f\u17d2\u178f\u1784\u17cb","name:lv":"Tad\u017eikist\u0101na","name:lt":"Tad\u017eikistanas","name:uz":"Tojikiston","name:kk":"\u0422\u04d9\u0436\u0456\u043a\u0441\u0442\u0430\u043d","name:ur":"\u062a\u0627\u062c\u06a9\u0633\u062a\u0627\u0646","name:lb":"Tadschikistan","name:la":"Tadzikistania","name:lg":"Tajikisitaani","name:uk":"\u0422\u0430\u0434\u0436\u0438\u043a\u0438\u0441\u0442\u0430\u043d","name:ug":"\u062a\u0627\u062c\u0649\u0643\u0649\u0633\u062a\u0627\u0646","name:li":"Tadzjikistan","name:ln":"Tazikisit\u00e1","name:lo":"\u0e97\u0eb2\u0e88\u0eb4\u0e81\u0eb4\u0eaa\u0eb0\u0e96\u0eb2\u0e99","name:el":"\u03a4\u03b1\u03c4\u03b6\u03b9\u03ba\u03b9\u03c3\u03c4\u03ac\u03bd","name:eo":"Ta\u011dikujo","name:en":"Tajikistan","name":"\u0422\u043e\u04b7\u0438\u043a\u0438\u0441\u0442\u043e\u043d","name:tk":"T\u00e4jigistan","name:ee":"Tajikistan nutome","name:th":"\u0e1b\u0e23\u0e30\u0e40\u0e17\u0e28\u0e17\u0e32\u0e08\u0e34\u0e01\u0e34\u0e2a\u0e16\u0e32\u0e19","name:eu":"Tajikistan","name:et":"Tad\u017eikistan","name:es":"Tayikist\u00e1n","name:ay":"Tayiksuyu","name:rm":"Tadschikistan","name:rn":"Tajikisitani","name:az":"Tacikistan","name:ie":"Tadjikistan","name:id":"Tajikistan","name:ar":"\u0637\u0627\u062c\u064a\u0643\u0633\u062a\u0627\u0646","name:io":"Tajikistan","name:ak":"Tajikistan","name:am":"\u1273\u1303\u12aa\u1235\u1273\u1295","name:it":"Tagikistan","name:an":"Tachiquist\u00e1n","name:ru":"\u0422\u0430\u0434\u0436\u0438\u043a\u0438\u0441\u0442\u0430\u043d","name:rw":"Tajikisitani","name:af":"Tadjikistan","name:zu":"i-Tajikistan","name:ky":"\u0422\u0430\u0436\u0438\u043a\u0441\u0442\u0430\u043d","name:zh-yue":"\u5854\u5409\u514b","name:zh":"\u5854\u5409\u514b\u65af\u5766","name:so":"Tajikistan","name:sn":"Tajikistan","name:sl":"Tad\u017eikistan","name:sk":"Tad\u017eikistan","name:ja":"\u30bf\u30b8\u30ad\u30b9\u30bf\u30f3","name:si":"\u0da7\u0da2\u0dd2\u0d9a\u0dd2\u0dc3\u0dca\u0dad\u0dcf\u0db1\u0dba","name:sh":"Tad\u017eikistan","name:sg":"Taazikiist\u00e4an","name:se":"Ta\u017eikistan","name:sa":"\u0924\u093e\u091c\u093f\u0915\u093f\u0938\u094d\u0925\u093e\u0928","name:bs":"Tad\u017eikistan","name:bm":"Tajikisitani","name:bn":"\u09a4\u09be\u099c\u09bf\u0995\u09b8\u09cd\u09a5\u09be\u09a8","name:bo":"\u0f50\u0f0b\u0f47\u0f72\u0f0b\u0f41\u0f7a\u0f0b\u0f66\u0f72\u0f0b\u0f4f\u0f53\u0f0d","name:br":"Tadjikistan","name:sw":"Tajikistani","name:be":"\u0422\u0430\u0434\u0436\u044b\u043a\u0456\u0441\u0442\u0430\u043d","name:su":"Tajikistan","name:bg":"\u0422\u0430\u0434\u0436\u0438\u043a\u0438\u0441\u0442\u0430\u043d","name:ss":"IThajiki","name:ba":"\u0422\u0430\u0436\u0438\u043a\u0441\u0442\u0430\u043d","name:sq":"Taxhikistan","name:jv":"Tajikistan","name:ia":"Tadzhikistan","name:pt":"Tadjiquist\u00e3o","name:ps":"\u062a\u0627\u062c\u06a9\u0633\u062a\u0627\u0646","name:oc":"Tatgiquistan","min_zoom":2.0,"name:ro":"Tadjikistan","name:zh-min-nan":"Tajikistan","name:os":"\u0422\u0430\u0434\u0436\u0438\u043a\u0438\u0441\u0442\u0430\u043d","name:or":"\u0b24\u0b3e\u0b1c\u0b3f\u0b15\u0b3f\u0b38\u0b4d\u0b25\u0b3e\u0b28\u0b4d","name:pl":"Tad\u017cykistan","name:sr":"\u0422\u0430\u045f\u0438\u043a\u0438\u0441\u0442\u0430\u043d","name:tr":"Tacikistan","name:hi":"\u0924\u093e\u091c\u093f\u0915\u093f\u0938\u094d\u0924\u093e\u0928","name:sv":"Tadzjikistan","name:he":"\u05d8\u05d2'\u05d9\u05e7\u05d9\u05e1\u05d8\u05df","name:ha":"Tajikistan","name:hy":"\u054f\u0561\u0573\u056b\u056f\u057d\u057f\u0561\u0576","name:ht":"Tadjikistan","name:hu":"T\u00e1dzsikiszt\u00e1n","name:qu":"Tayiksuyu","population":7215700,"kind":"country","name:is":"Tadsjikistan","name:yi":"\u05d8\u05d0\u05d3\u05d6\u05e9\u05d9\u05e7\u05d9\u05e1\u05d8\u05d0\u05df","name:yo":"Or\u00edl\u1eb9\u0301\u00e8de Takisitani","name:mt":"Ta\u0121ikistan","alt_name:eo":"Ta\u011dikistano;Ta\u011dikio","name:ms":"Tadjikistan","name:mr":"\u0924\u093e\u091c\u093f\u0915\u093f\u0938\u094d\u0924\u093e\u0928","name:my":"\u1010\u102c\u1002\u103b\u102e\u1000\u1005\u1039\u1005\u1010\u1014\u103a","int_name":"Tajikistan","name:mg":"Tajikistan","name:ml":"\u0d24\u0d3e\u0d1c\u0d3f\u0d15\u0d4d\u0d15\u0d3f\u0d38\u0d4d\u0d25\u0d3e\u0d7b","name:vi":"Tajikistan","name:mn":"\u0422\u0430\u0436\u0438\u043a\u0438\u0441\u0442\u0430\u043d","id":424314276,"name:mk":"\u0422\u0430\u045f\u0438\u043a\u0438\u0441\u0442\u0430\u043d","name:vo":"Tacikist\u00e4n","name:fa":"\u062a\u0627\u062c\u06cc\u06a9\u0633\u062a\u0627\u0646","name:ff":"Tajikistaan","name:fi":"Tad\u017eikistan","name:fo":"Tadsjikistan","name:fr":"Tadjikistan","name:fy":"Tadzjikistan","name:nl":"Tadzjikistan","name:nn":"Tadsjikistan","name:no":"Tadsjikistan","name:na":"Tadjikitan","name:ne":"\u0924\u093e\u091c\u093f\u0915\u093f\u0938\u094d\u0924\u093e\u0928","name:wo":"Tajikistaan","name:nv":"T\u02bcaji\u02bc Bik\u00e9yah","name:ga":"An T\u00e1ids\u00edceast\u00e1in","name:gd":"Taidigeast\u00e0n","name:gl":"Taxiquist\u00e1n","name:gv":"Yn Tajikistaan","name:gu":"\u0aa4\u0abe\u0a9c\u0ac0\u0a95\u0abf\u0ab8\u0acd\u0aa4\u0abe\u0aa8","name:tt":"\u0422\u0430\u0497\u0438\u043a\u0441\u0442\u0430\u043d"},"coordinates":[2350,3861]},{"type":"Point","properties":{"name:ka":"\u10d7\u10e3\u10e0\u10e5\u10db\u10d4\u10dc\u10d4\u10d7\u10d8","name:ko":"\ud22c\ub974\ud06c\uba54\ub2c8\uc2a4\ud0c4","name:cv":"\u0422\u0443\u0440\u043a\u043c\u0435\u043d\u0438\u0441\u0442\u0430\u043d","name:km":"\u1791\u17bd\u1782\u1798\u17c1\u1793\u17b8\u179f\u17d2\u178f\u1784\u17cb","name:kl":"Turkmenistani","name:cs":"Turkmenist\u00e1n","name:ki":"Turukimenistani","name:co":"Turkmenistan","name:kv":"\u0422\u0443\u0440\u043a\u043c\u0435\u043d\u0438\u0441\u0442\u0430\u043d","name:ku":"Tirkmenistan","name:ti":"\u1271\u122d\u12ad\u121c\u1292\u1235\u1273\u1295","name:ks":"\u062a\u064f\u0631\u0645\u0650\u0646\u0650\u0633\u062a\u0627\u0646","name:to":"Tekimenisiteni","name:tl":"Turkmenistan","name:ta":"\u0ba4\u0bc1\u0bb0\u0bcd\u0b95\u0bcd\u0bae\u0bc6\u0ba9\u0bbf\u0bb8\u0bcd\u0ba4\u0bbe\u0ba9\u0bcd","name:tg":"\u0422\u0443\u0440\u043a\u043c\u0430\u043d\u0438\u0441\u0442\u043e\u043d","name:ca":"Turkmenistan","name:te":"\u0c24\u0c41\u0c30\u0c4d\u0c15\u0c2e\u0c46\u0c38\u0c4d\u0c24\u0c3e\u0c28\u0c4d","name:cy":"Tyrcmenistan","name:hr":"Turkmenistan","name:da":"Turkmenistan","name:de":"Turkmenistan","name:dz":"\u0f4a\u0f71\u0f62\u0f40\u0f0b\u0f58\u0f7a\u0f53\u0f60\u0f72\u0f0b\u0f66\u0f4f\u0f71\u0f53","source":"openstreetmap.org","name:kn":"\u0ca4\u0cc1\u0cb0\u0ccd\u0c95\u0cae\u0cc6\u0ca8\u0cbf\u0cb8\u0ccd\u0ca5\u0cbe\u0ca8\u0ccd","name:dv":"\u078c\u07aa\u0783\u07aa\u0786\u07aa\u0789\u07ac\u0782\u07a8\u0790\u07b0\u078c\u07a7\u0782\u07b0","name:lv":"Turkmenist\u0101na","name:lt":"Turkm\u0117nistanas","name:uz":"Turkmaniston","name:kk":"\u0422\u04af\u0440\u0456\u043a\u043c\u0435\u043d\u0441\u0442\u0430\u043d","name:ur":"\u062a\u0631\u06a9\u0645\u0627\u0646\u0633\u062a\u0627\u0646","name:la":"Turcomannia","name:lg":"Takimenesitaani","name:uk":"\u0422\u0443\u0440\u043a\u043c\u0435\u043d\u0456\u0441\u0442\u0430\u043d","name:ug":"\u062a\u06c8\u0631\u0643\u0645\u06d5\u0646\u0649\u0633\u062a\u0627\u0646","name:li":"Turkmenistan","name:ln":"Tik\u025bm\u00e9nisit\u00e1","name:lo":"\u0ec0\u0e95\u0ea3\u0eb5\u0e81\u0ec0\u0ea1\u0e99\u0eb4\u0eaa\u0eb0\u0e96\u0eb2\u0e99","name:el":"\u03a4\u03bf\u03c5\u03c1\u03ba\u03bc\u03b5\u03bd\u03b9\u03c3\u03c4\u03ac\u03bd","name:eo":"Turkmenujo","name:en":"Turkmenistan","name":"T\u00fcrkmenistan","name:ee":"T\u025bkmenistan nutome","name:th":"\u0e1b\u0e23\u0e30\u0e40\u0e17\u0e28\u0e40\u0e15\u0e34\u0e23\u0e4c\u0e01\u0e40\u0e21\u0e19\u0e34\u0e2a\u0e16\u0e32\u0e19","name:eu":"Turkmenistan","name:es":"Turkmenist\u00e1n","name:ia":"Turkmenistan","name:rm":"Turkmenistan","name:rn":"Turukumenisitani","name:az":"T\u00fcrkm\u0259nistan","name:ie":"Turkmenistan","name:id":"Turkmenistan","name:ar":"\u062a\u0631\u0643\u0645\u0627\u0646\u0633\u062a\u0627\u0646","name:io":"Turkmenistan","name:av":"\u0422\u0443\u0440\u043a\u043c\u0435\u043d\u0438\u0441\u0442\u0430\u043d","name:ak":"T\u025bkm\u025bnistan","name:am":"\u1271\u122d\u12ad\u121c\u1292\u1235\u1273\u1295","name:it":"Turkmenistan","name:an":"Turkmenist\u00e1n","name:ru":"\u0422\u0443\u0440\u043a\u043c\u0435\u043d\u0438\u044f","name:rw":"Turukimenisitani","name:pl":"Turkmenistan","name:af":"Turkmenistan","name:zu":"i-Turkmenistan","name:ky":"\u0422\u04af\u0440\u043a\u043c\u04e9\u043d\u0441\u0442\u0430\u043d","name:zh-yue":"\u571f\u5eab\u66fc","name:zh":"\u571f\u5e93\u66fc\u65af\u5766","name:so":"Turkmenistan","name:sn":"Turkmenistan","name:sl":"Turkmenistan","name:sk":"Turkm\u00e9nsko","name:ja":"\u30c8\u30eb\u30af\u30e1\u30cb\u30b9\u30bf\u30f3","name:si":"\u0dad\u0dd4\u0dbb\u0dca\u0d9a\u0dca\u0db8\u0dd9\u0db1\u0dd2\u0dc3\u0dca\u0dae\u0dcf\u0db1\u0dba","name:sh":"Turkmenistan","name:sg":"Turkumenist\u00e4an","name:se":"Turkmenistan","name:sa":"\u0924\u0941\u0930\u094d\u0915\u092e\u093f\u0928\u093f\u0938\u094d\u0925\u093e\u0928","name:bs":"Turkmenistan","name:bm":"Turikimenisitani","name:bn":"\u09a4\u09c1\u09b0\u09cd\u0995\u09ae\u09c7\u09a8\u09bf\u09af\u09bc\u09be","name:bo":"\u0f4f\u0f74\u0f62\u0f40\u0f0b\u0f58\u0f7a\u0f0b\u0f53\u0f72\u0f0b\u0f66\u0f74\u0f4f\u0f53\u0f0d","name:br":"Turkmenistan","name:sw":"Turukimenistani","name:be":"\u0422\u0443\u0440\u043a\u043c\u0435\u043d\u0456\u0441\u0442\u0430\u043d","name:su":"Turkm\u00e9nistan","name:bg":"\u0422\u0443\u0440\u043a\u043c\u0435\u043d\u0438\u0441\u0442\u0430\u043d","name:ss":"IThumekhi","name:ba":"\u0422\u04e9\u0440\u04e9\u043a\u043c\u04d9\u043d\u0441\u0442\u0430\u043d","name:sq":"Turkmenistani","name:jv":"Turkmenistan","name:pt":"Turcomenist\u00e3o","name:ps":"\u062a\u0631\u06a9\u0645\u0646\u0633\u062a\u0627\u0646","name:oc":"Turcmenistan","min_zoom":2.0,"name:ro":"Turkmenistan","name:zh-min-nan":"Turkmenistan","name:os":"\u0422\u0443\u0440\u043a\u043c\u0435\u043d\u0438","name:or":"\u0b24\u0b41\u0b30\u0b4d\u0b15\u0b2e\u0b47\u0b28\u0b3f\u0b38\u0b4d\u0b24\u0b3e\u0b28\u0b4d","alt_name:pt":"Turquemenist\u00e3o","name:sr":"\u0422\u0443\u0440\u043a\u043c\u0435\u043d\u0438\u0441\u0442\u0430\u043d","name:pa":"\u0a24\u0a41\u0a30\u0a15\u0a2e\u0a47\u0a28\u0a38\u0a24\u0a3e\u0a28","name:hi":"\u0924\u0941\u0930\u094d\u0915\u092e\u0947\u0928\u093f\u0938\u094d\u0924\u093e\u0928","name:sv":"Turkmenistan","name:he":"\u05d8\u05d5\u05e8\u05e7\u05de\u05e0\u05d9\u05e1\u05d8\u05df","name:ha":"Turkumenistan","name:hy":"\u0539\u0578\u0582\u0580\u0584\u0574\u0565\u0576\u057d\u057f\u0561\u0576","name:ht":"Tirkmenistan","name:hu":"T\u00fcrkmeniszt\u00e1n","name:qu":"Turkminsuyu","population":5110023,"kind":"country","name:is":"T\u00farkmenistan","name:yi":"\u05d8\u05d5\u05e8\u05e7\u05de\u05e2\u05e0\u05d9\u05e1\u05d8\u05d0\u05df","name:yo":"Or\u00edl\u1eb9\u0301\u00e8de T\u1ecd\u1ecdkimenisita","name:mt":"Turkmenistan","alt_name:eo":"Turkmenistano;Turkmenio","name:ms":"Turkmenistan","name:mr":"\u0924\u0941\u0930\u094d\u0915\u092e\u0947\u0928\u093f\u0938\u094d\u0924\u093e\u0928","name:my":"\u1010\u102c\u1037\u1001\u103a\u1019\u1004\u103a\u1014\u1005\u1039\u1005\u1010\u1014\u103a\u1014\u102d\u102f\u1004\u103a\u1004\u1036","name:kw":"Pow Turkmen","name:mg":"Torkmenistan","name:ml":"\u0d24\u0d41\u0d7c\u0d15\u0d4d\u0d15\u0d4d\u0d2e\u0d46\u0d28\u0d3f\u0d38\u0d4d\u0d25\u0d3e\u0d7b","name:vi":"Turkmenistan","name:mn":"\u0422\u0443\u0440\u043a\u043c\u0435\u043d\u0438\u0441\u0442\u0430\u043d","id":249399440,"name:mk":"\u0422\u0443\u0440\u043a\u043c\u0435\u043d\u0438\u0441\u0442\u0430\u043d","name:vo":"Turkmen\u00e4n","name:fa":"\u062a\u0631\u06a9\u0645\u0646\u0633\u062a\u0627\u0646","name:ff":"Turkmenistaan","name:fi":"Turkmenistan","name:fo":"Turkmenistan","name:fr":"Turkm\u00e9nistan","name:fy":"Turkmenistan","int_name":"Turkmenistan","name:nl":"Turkmenistan","name:nn":"Turkmenistan","name:no":"Turkmenistan","name:na":"Turkmenistan","name:ne":"\u0924\u0941\u0930\u094d\u0915\u092e\u0947\u0928\u093f\u0938\u094d\u0924\u093e\u0928","name:wo":"Turkumenistaan","name:nv":"T\u02bc\u00f3okmen Bik\u00e9yah","name:ga":"An Tuircm\u00e9anast\u00e1in","name:gd":"Turcmanast\u00e0n","name:gl":"Turkmenist\u00e1n","name:gv":"Yn Turkmenistaan","name:gu":"\u0aa4\u0ac1\u0ab0\u0acd\u0a95\u0acd\u0aae\u0aa8\u0abf\u0ab8\u0acd\u0aa4\u0abe\u0aa8","name:tt":"\u0422\u04e9\u0440\u0435\u043a\u043c\u04d9\u043d\u0441\u0442\u0430\u043d"},"coordinates":[1310,3936]},{"type":"Point","properties":{"name:ka":"\u10d0\u10e0\u10d0\u10d1\u10d4\u10d7\u10d8\u10e1 \u10d2\u10d0\u10d4\u10e0\u10d7\u10d8\u10d0\u10dc\u10d4\u10d1\u10e3\u10da\u10d8 \u10d4\u10db\u10d8\u10e0\u10d0\u10e2\u10d4\u10d1\u10d8","name:ko":"\uc544\ub78d\uc5d0\ubbf8\ub9ac\ud2b8 \uc5f0\ud569","name:kn":"\u0cb8\u0c82\u0caf\u0cc1\u0c95\u0ccd\u0ca4 \u0c85\u0cb0\u0cac\u0ccd \u0c8e\u0cae\u0cbf\u0cb0\u0cc7\u0c9f\u0cb8\u0ccd","name:km":"\u17a2\u17c1\u1798\u17b8\u179a\u17c9\u17c2\u1791\u17a2\u17b6\u179a\u17c9\u17b6\u1794\u17cb\u179a\u17bd\u1798","name:kl":"United Arab Emirates","name:cs":"Spojen\u00e9 arabsk\u00e9 emir\u00e1ty","name:ki":"Falme za Kiarabu","name:kw":"Pennternasedh Unys Arabek","name:kv":"\u04e6\u0442\u0443\u0432\u0442\u0447\u04e7\u043c \u0410\u0440\u0430\u0431 \u042d\u043c\u0438\u0440\u0430\u0442\u044a\u044f\u0441","name:ku":"M\u00eerni\u015f\u00een\u00ean Ereb\u00ee y\u00ean Yekb\u00fby\u00ee","name:ti":"\u12e8\u1270\u1263\u1260\u1229\u1275 \u12a0\u1228\u1265 \u12a4\u121d\u122c\u1275\u1235","name:ks":"\u0645\u064f\u062a\u062d\u062f\u06c1 \u0639\u0631\u064e\u0628 \u0627\u0645\u0627\u0631\u0627\u062a","name:to":"\u02bbAlepea Fakatahataha","name:tl":"United Arab Emirates","name:ce":"\u04c0\u0430\u0440\u0431\u0438\u0439\u043d \u0426\u0445\u044c\u0430\u044c\u043d\u0430\u043a\u0445\u0435\u0442\u0442\u0430 \u042d\u043c\u0438\u0440\u0430\u0442\u0430\u0448","name:ta":"\u0b90\u0b95\u0bcd\u0b95\u0bbf\u0baf \u0b85\u0bb0\u0baa\u0bc1 \u0b95\u0bc2\u0b9f\u0bcd\u0b9f\u0bbe\u0b9f\u0bcd\u0b9a\u0bbf","name:tg":"\u0410\u043c\u043e\u0440\u0430\u0442\u0438 \u041c\u0443\u0442\u0442\u0430\u04b3\u0438\u0434\u0430\u0438 \u0410\u0440\u0430\u0431","name:ca":"Emirats \u00c0rabs Units","name:te":"\u0c2f\u0c41\u0c28\u0c48\u0c1f\u0c46\u0c21\u0c4d \u0c06\u0c30\u0c2c\u0c4d \u0c0e\u0c2e\u0c3f\u0c30\u0c47\u0c1f\u0c4d\u0c38\u0c4d","name:cy":"Yr Emiradau Arabaidd Unedig","name:hr":"Ujedinjeni Arapski Emirati","name:da":"Forenede Arabiske Emirater","name:de":"Vereinigte Arabische Emirate","name:dz":"\u0f61\u0f74\u0f0b\u0f53\u0f71\u0f60\u0f72\u0f0b\u0f4a\u0f7a\u0f4c\u0f0b \u0f68\u0f0b\u0f62\u0f56\u0f0b \u0f68\u0f7a\u0f0b\u0f58\u0f7a\u0f0b\u0f62\u0f7a\u0f4a\u0f66","source":"openstreetmap.org","name:dv":"\u0787\u07ac\u0786\u07aa\u0788\u07ac\u0783\u07a8 \u07a2\u07a6\u0783\u07a6\u0784\u07a8 \u0787\u07a8\u0789\u07a7\u0783\u07a7\u078c\u07aa","name:lv":"Apvienotie Ar\u0101bu Emir\u0101ti","name:lt":"Jungtiniai Arab\u0173 Emyratai","name:uz":"Birlashgan Arab Amirliklari","name:kk":"\u0411\u0456\u0440\u0456\u043a\u043a\u0435\u043d \u0410\u0440\u0430\u0431 \u04d8\u043c\u0456\u0440\u043b\u0456\u043a\u0442\u0435\u0440\u0456","name:ur":"\u0645\u062a\u062d\u062f\u06c1 \u0639\u0631\u0628 \u0627\u0645\u0627\u0631\u0627\u062a","name:lb":"Vereenegt Arabesch Emirater","name:la":"Phylarchiarum Arabicarum Confoederatio","name:lg":"Emireeti","name:uk":"\u041e\u0431\u2019\u0454\u0434\u043d\u0430\u043d\u0456 \u0410\u0440\u0430\u0431\u0441\u044c\u043a\u0456 \u0415\u043c\u0456\u0440\u0430\u0442\u0438","name:ug":"\u0626\u06d5\u0631\u06d5\u0628 \u0628\u0649\u0631\u0644\u06d5\u0634\u0645\u06d5 \u062e\u06d5\u0644\u0649\u067e\u0649\u0644\u0649\u0643\u0649","name:li":"Vereinegde Arabische Emirate","name:ln":"L\u025bmila alabo","name:lo":"\u0eaa\u0eb0\u0eab\u0eb0\u0ea5\u0eb1\u0e94\u0ead\u0eb2\u0eab\u0ea5\u0eb1\u0e9a\u0ec0\u0ead\u0ea1\u0eb4\u0ec0\u0ea5\u0e94","name:el":"\u0397\u03bd\u03c9\u03bc\u03ad\u03bd\u03b1 \u0391\u03c1\u03b1\u03b2\u03b9\u03ba\u03ac \u0395\u03bc\u03b9\u03c1\u03ac\u03c4\u03b1","name:eo":"Unui\u011dintaj Arabaj Emirlandoj","name:en":"United Arab Emirates","name":"\u0627\u0644\u0625\u0645\u0627\u0631\u0627\u062a \u0627\u0644\u0639\u0631\u0628\u064a\u0629 \u0627\u0644\u0645\u062a\u062d\u062f\u0629","name:tk":"Birle\u015fen Arap Emirlikleri","name:ee":"United Arab Emirates nutome","name:th":"\u0e2a\u0e2b\u0e23\u0e31\u0e10\u0e2d\u0e32\u0e2b\u0e23\u0e31\u0e1a\u0e40\u0e2d\u0e21\u0e34\u0e40\u0e23\u0e15\u0e2a\u0e4c","name:eu":"Arabiar Emirrerri Batuak","name:et":"Araabia \u00dchendemiraadid","name:es":"Emiratos \u00c1rabes Unidos","name:ia":"Emiratos Arabe Unite","name:rm":"Emirats Arabs Unids","name:rn":"Leta Zunze Ubumwe z'Abarabu","name:az":"Birl\u0259\u015fmi\u015f \u018fr\u0259b Emiratlar\u0131","name:ie":"Unit Arabic Emiratus","name:id":"Uni Emirat Arab","name:pa":"\u0a38\u0a70\u0a2f\u0a41\u0a15\u0a24 \u0a05\u0a30\u0a2c \u0a07\u0a2e\u0a30\u0a3e\u0a24","name:io":"Unionita Araba Emirati","name:av":"\u0413I\u0430\u0440\u0430\u0431\u0430\u0437\u0443\u043b \u0426\u043e\u043b\u044a\u0430\u0440\u0430\u043b \u0418\u043c\u0430\u0440\u0430\u0442\u0430\u043b","name:ak":"United Arab Emirates","name:am":"\u12e8\u1270\u1263\u1260\u1229\u1275 \u12a0\u1228\u1265 \u12a4\u121d\u122c\u1275\u1235","name:it":"Emirati Arabi Uniti","name:an":"Emiratos Arabes Unitos","name:ru":"\u041e\u0431\u044a\u0435\u0434\u0438\u043d\u0451\u043d\u043d\u044b\u0435 \u0410\u0440\u0430\u0431\u0441\u043a\u0438\u0435 \u042d\u043c\u0438\u0440\u0430\u0442\u044b","name:rw":"Nyarabu Zunze Ubumwe","name:af":"Verenigde Arabiese Emirate","name:zu":"i-United Arab Emirates","name:ky":"\u0411\u0438\u0440\u0438\u043a\u043a\u0435\u043d \u0410\u0440\u0430\u0431 \u042d\u043c\u0438\u0440\u043b\u0438\u043a\u0442\u0435\u0440\u0438","name:zh-yue":"\u963f\u62c9\u4f2f\u806f\u5408\u914b\u9577\u570b","name:zh":"\u963f\u62c9\u4f2f\u8054\u5408\u914b\u957f\u56fd","name:so":"Imaaraadka Carabta ee Midoobay","name:sn":"United Arab Emirates","name:sl":"Zdru\u017eeni arabski emirati","name:sk":"Spojen\u00e9 arabsk\u00e9 emir\u00e1ty","name:ja":"\u30a2\u30e9\u30d6\u9996\u9577\u56fd\u9023\u90a6","name:si":"\u0d91\u0d9a\u0dca\u0dc3\u0dad\u0dca \u0d85\u0dbb\u0dcf\u0db6\u0dd2 \u0d91\u0db8\u0dd2\u0dbb\u0dca \u0dbb\u0dcf\u0da2\u0dca\u200d\u0dba\u0dba","name:sh":"Ujedinjeni Arapski Emirati","name:sg":"Ar\u00e2bo Emir\u00e2ti \u00d4ko","name:se":"Ovttastuvvan Ar\u00e1baemir\u00e1htat","name:sd":"\u06af\u068f\u064a\u0644 \u0639\u0631\u0628 \u0627\u0645\u0627\u0631\u0627\u062a","name:br":"Emirelezhio\u00f9 Arab Unanet","name:bs":"Ujedinjeni Arapski Emirati","name:bm":"Arabu mara kafoli","name:bn":"\u09b8\u0982\u09af\u09c1\u0995\u09cd\u09a4 \u0986\u09b0\u09ac \u0986\u09ae\u09bf\u09b0\u09be\u09a4","name:bo":"\u0f68\u0f0b\u0f62\u0f56\u0f0d \u0f68\u0f72\u0f0b\u0f58\u0f72\u0f0b\u0f62\u0f4a\u0f84\u0f0d \u0f46\u0f72\u0f42\u0f0b\u0f66\u0f92\u0fb2\u0f72\u0f63\u0f0b\u0f62\u0f92\u0fb1\u0f63\u0f0b\u0f41\u0f56\u0f0d","name:sw":"Falme za Kiarabu","name:be":"\u0410\u0431'\u044f\u0434\u043d\u0430\u043d\u044b\u044f \u0410\u0440\u0430\u0431\u0441\u043a\u0456\u044f \u042d\u043c\u0456\u0440\u0430\u0442\u044b","name:su":"Uni \u00c9mirat Arab","name:bg":"\u041e\u0431\u0435\u0434\u0438\u043d\u0435\u043d\u0438 \u0410\u0440\u0430\u0431\u0441\u043a\u0438 \u0415\u043c\u0438\u0440\u0441\u0442\u0432\u0430","name:ss":"Bunye bema-Arabhu","name:sr":"\u0423\u0458\u0435\u0434\u0438\u045a\u0435\u043d\u0438 \u0410\u0440\u0430\u043f\u0441\u043a\u0438 \u0415\u043c\u0438\u0440\u0430\u0442\u0438","name:sq":"Emiratet Arabe te Bashkuara","alt_name:sr":"\u0423.\u0410.\u0415; \u0423\u0410\u0415; \u0423. \u0410. \u0415.","name:jv":"Uni Emirat Arab","name:pt":"Emirados \u00c1rabes Unidos","name:ps":"\u0639\u0631\u0628\u064a \u0645\u062a\u062d\u062f\u0647 \u0627\u0645\u0627\u0631\u0627\u062a","name:oc":"Emirats Arabis Units","min_zoom":2.0,"name:ro":"Emiratele Arabe Unite","name:zh-min-nan":"A-la-pek Li\u00e2n-ha\u030dp Th\u00e2u-l\u00e2ng-kok","name:os":"\u0410\u0440\u0430\u0431\u0431\u044b \u0418\u0443\u0433\u043e\u043d\u0434 \u042d\u043c\u0438\u0440\u0430\u0442\u0442\u00e6","name:or":"\u0b38\u0b02\u0b2f\u0b41\u0b15\u0b4d\u0b24 \u0b06\u0b30\u0b2c \u0b0f\u0b2e\u0b3f\u0b30\u0b47\u0b1f\u0b38\u0b4d","name:pl":"Zjednoczone Emiraty Arabskie","name:tr":"Birle\u015fik Arap Emirlikleri","name:hi":"\u0938\u0902\u092f\u0941\u0915\u094d\u0924 \u0905\u0930\u092c \u0905\u092e\u0940\u0930\u093e\u0924","name:sv":"F\u00f6renade Arabemiraten","name:he":"\u05d0\u05d9\u05d7\u05d5\u05d3 \u05d4\u05d0\u05de\u05d9\u05e8\u05d5\u05d9\u05d5\u05ea \u05d4\u05e2\u05e8\u05d1\u05d9\u05d5\u05ea","name:ha":"Ha\u0257a\u0257\u0257iyar Daular Larabawa","name:hy":"\u0544\u056b\u0561\u0581\u0575\u0561\u056c \u0531\u0580\u0561\u0562\u0561\u056f\u0561\u0576 \u0537\u0574\u056b\u0580\u0561\u0569\u0576\u0565\u0580","name:ht":"Emira Arab Ini","name:hu":"Egyes\u00fclt Arab Em\u00edrs\u00e9gek","name:qu":"Hukllachasqa Arab Imiratukuna","population":4600000,"kind":"country","name:is":"Sameinu\u00f0u arab\u00edsku furstad\u00e6min","name:yi":"\u05e4\u05d0\u05e8\u05d0\u05d9\u05d9\u05e0\u05d9\u05d2\u05d8\u05e2 \u05d0\u05e8\u05d0\u05d1\u05d9\u05e9\u05e2 \u05e2\u05de\u05d9\u05e8\u05d0\u05d8\u05df","name:yo":"Or\u00edl\u1eb9\u0301\u00e8de \u1eb8mirate ti Aw\u1ecdn Arabu","name:mt":"Emirati G\u0127arab Maqg\u0127uda","name:ms":"Emiriah Arab Bersatu","name:mr":"\u0938\u0902\u092f\u0941\u0915\u094d\u0924 \u0905\u0930\u092c \u0905\u092e\u0940\u0930\u093e\u0924","name:my":"\u101a\u1030\u1021\u1031\u1021\u102e\u1038","int_name":"United Arab Emirates","name:mg":"Emir\u00e0 Arabo mitambatra","name:ml":"\u0d38\u0d02\u0d2f\u0d41\u0d15\u0d4d\u0d24 \u0d05\u0d31\u0d2c\u0d4d \u0d30\u0d3e\u0d37\u0d4d\u0d1f\u0d4d\u0d30\u0d02","name:vi":"C\u00e1c Ti\u1ec3u v\u01b0\u01a1ng qu\u1ed1c \u1ea2 R\u1eadp Th\u1ed1ng nh\u1ea5t","name:mn":"\u0410\u0440\u0430\u0431\u044b\u043d \u041d\u044d\u0433\u0434\u0441\u044d\u043d \u042d\u043c\u0438\u0440\u0442 \u0423\u043b\u0441","name:mi":"Te Kotahitanga o ng\u0101 Whenua \u0100rapi","id":424310703,"name:mk":"\u041e\u0431\u0435\u0434\u0438\u043d\u0435\u0442\u0438 \u0410\u0440\u0430\u043f\u0441\u043a\u0438 \u0415\u043c\u0438\u0440\u0430\u0442\u0438","name:vo":"Lemir\u00e4ns Larabik Pebal\u00f6l","name:fa":"\u0627\u0645\u0627\u0631\u0627\u062a \u0645\u062a\u062d\u062f\u0647 \u0639\u0631\u0628\u06cc","name:ff":"Emiraat Araab Denntu\u0257e","name:fi":"Yhdistyneet arabiemiirikunnat","name:fo":"Sameindu Emirr\u00edkini","name:fr":"\u00c9mirats arabes unis","name:fy":"de Feriene Arabyske Emiraten","name:nl":"Verenigde Arabische Emiraten","name:nn":"Dei sameinte arabiske emirata","name:no":"De forente arabiske emirater","name:na":"Emireitit Arabiya","name:ne":"\u0938\u0902\u092f\u0941\u0915\u094d\u0924 \u0905\u0930\u092c \u0907\u092e\u093f\u0930\u093e\u091f\u094d\u0938","name:wo":"Imaaraat yu Araab yu Bennoo yi","name:nv":"\u00c1s\u00e1\u00ed Bik\u00e9yah Y\u00e1zh\u00ed A\u0142hidadiidzoo\u00edg\u00ed\u00ed","name:ga":"Aontas na n\u00c9im\u00edr\u00edochta\u00ed Arabacha","name:gd":"Na h-Iomaratan Arabach Aonaichte","name:gn":"Aravia Emiryvy Joaju","name:gl":"Emiratos \u00c1rabes Unidos","name:gv":"Ny h-Emmiraidyn Arabagh Unnaneysit","name:gu":"\u0aaf\u0ac1\u0aa8\u0abe\u0a87\u0a9f\u0ac7\u0aa1 \u0a85\u0ab0\u0aac \u0a8f\u0aae\u0abf\u0ab0\u0ac7\u0a9f\u0acd\u0ab8","name:tt":"\u0411\u0435\u0440\u043b\u04d9\u0448\u043a\u04d9\u043d \u0413\u0430\u0440\u04d9\u043f \u04d8\u043c\u0438\u0440\u043b\u0435\u043a\u043b\u04d9\u0440\u0435"},"coordinates":[819,2399]},{"type":"Point","properties":{"source":"naturalearthdata.com","kind":"locality","name":"Riyadh","country_capital":true,"population":4465000,"min_zoom":2.0,"id":7268},"coordinates":[161,2463]},{"type":"Point","properties":{"name:ka":"\u10e5\u10e3\u10d5\u10d4\u10d8\u10d7\u10d8","name:ko":"\ucfe0\uc6e8\uc774\ud2b8","name:cv":"\u041a\u0443\u0432\u0435\u0439\u0442","name:km":"\u1782\u17bb\u1799\u179c\u17c9\u17c2\u178f","name:kl":"Kuwait","name:cs":"Kuvajt","name:ki":"Kuwaiti","name:kw":"Kuwait","name:kv":"\u041a\u0443\u0432\u0435\u0439\u0442","name:ku":"Kuweyt","name:ti":"\u12ad\u12cc\u1275","name:ks":"\u06a9\u064f\u0648\u06cc\u062a","name:to":"Kueiti","name:tl":"Kuwait","name:ce":"\u041a\u0443\u0432\u0435\u0439\u0442","name:ta":"\u0b95\u0bc1\u0bb5\u0bc8\u0ba4\u0bcd","name:tg":"\u041a\u0443\u0432\u0430\u0439\u0442","name:ca":"Kuwait","name:te":"\u0c15\u0c41\u0c35\u0c48\u0c1f\u0c4d","name:cy":"Kuwait","name:hr":"Kuvajt","name:da":"Kuwait","name:de":"Kuwait","name:dz":"\u0f40\u0f74\u0f0b\u0f5d\u0f7a\u0f4a\u0f0b","source":"openstreetmap.org","name:kn":"\u0c95\u0cc1\u0cb5\u0cc8\u0ca4\u0ccd","name:dv":"\u0786\u07aa\u0788\u07ac\u0787\u07a8\u078c\u07aa","name:lv":"Kuveita","name:lt":"Kuveitas","name:uz":"Quvayt","name:kk":"\u041a\u0443\u0432\u0435\u0439\u0442","name:ur":"\u06a9\u0648\u06cc\u062a","name:lb":"Kuwait","name:la":"Cuvaitum","name:lg":"Kuweti","name:uk":"\u041a\u0443\u0432\u0435\u0439\u0442","name:ug":"\u0643\u06c7\u06cb\u06d5\u064a\u062a","name:li":"Koeweit","name:ln":"Koweti","name:lo":"\u0e84\u0eb9\u0ec0\u0ea7\u0e94","name:el":"\u039a\u03bf\u03c5\u03b2\u03ad\u03b9\u03c4","name:eo":"Kuvajto","name:en":"Kuwait","name":"\u0627\u0644\u0643\u0648\u064a\u062a","name:tk":"Kuwe\u00fdt","name:ee":"Kuwait nutome","name:th":"\u0e1b\u0e23\u0e30\u0e40\u0e17\u0e28\u0e04\u0e39\u0e40\u0e27\u0e15","name:eu":"Kuwait","name:et":"Kuveit","name:es":"Kuwait","name:ia":"Kuwait","name:rm":"Kuwait","name:rn":"Koweti","name:az":"K\u00fcveyt","name:ie":"Kuwait","name:id":"Kuwait","name:io":"Kuwait","name:ak":"Kuwete","name:am":"\u12ad\u12cc\u1275","name:it":"Kuwait","name:an":"Kuwait","name:ru":"\u041a\u0443\u0432\u0435\u0439\u0442","name:rw":"Koweti","name:af":"Koeweit","name:zu":"i-Kuwait","name:zh-yue":"\u79d1\u5a01\u7279","name:zh":"\u79d1\u5a01\u7279","name:so":"Kuwayt","name:sn":"Kuwait","name:sl":"Kuvajt","name:sk":"Kuvajt","name:ja":"\u30af\u30a6\u30a7\u30fc\u30c8","name:si":"\u0d9a\u0dd4\u0dc0\u0dda\u0da7\u0dba","name:sh":"Kuvajt","name:sg":"K\u00f6w\u00eati","name:se":"Kuwait","name:sa":"\u0915\u0941\u0935\u0948\u0924","name:bs":"Kuvajt","name:bm":"Kow\u025bti","name:bn":"\u0995\u09c1\u09af\u09bc\u09c7\u09a4","name:bo":"\u0f40\u0f74\u0f0b\u0f5d\u0f7a\u0f51\u0f0b\u0f62\u0f92\u0fb1\u0f63\u0f0b\u0f41\u0f56\u0f0d","name:br":"Koweit","name:sw":"Kuwait","name:be":"\u041a\u0443\u0432\u0435\u0439\u0442","name:su":"Kuwait","name:bg":"\u041a\u0443\u0432\u0435\u0439\u0442","name:ss":"IKhuwathi","name:ba":"\u041a\u04af\u0432\u0435\u0439\u0442","name:sq":"Kuvajti","name:jv":"Kuwait","name:pt":"Kuwait","name:ps":"\u06a9\u0648\u06cc\u067c","name:oc":"Kowait","min_zoom":2.0,"name:ro":"Kuweit","name:zh-min-nan":"Kuwait","name:os":"\u041a\u0443\u0432\u0435\u0439\u0442","name:or":"\u0b15\u0b41\u0b0f\u0b24\u0b4d","name:pl":"Kuwejt","name:sr":"\u041a\u0443\u0432\u0430\u0458\u0442","name:tr":"Kuveyt","name:hi":"\u0915\u0941\u0935\u0948\u0924","name:sv":"Kuwait","name:he":"\u05db\u05d5\u05d5\u05d9\u05ea","name:ha":"Kwiyat","name:hy":"\u0554\u0578\u0582\u057e\u0565\u0575\u0569","name:ht":"Kowet","name:hu":"Kuvait","name:qu":"Kuwait","population":3399637,"kind":"country","name:is":"K\u00faveit","name:yi":"\u05e7\u05d5\u05d0\u05d5\u05d5\u05d9\u05d9\u05d8","name:yo":"Or\u00edl\u1eb9\u0301\u00e8de Kuweti","name:mt":"Kuwajt","name:ms":"Kuwait","name:mr":"\u0915\u0941\u0935\u0948\u0924","name:my":"\u1000\u1030\u101d\u102d\u1010\u103a","official_name":"\u062f\u0648\u0644\u0629 \u0627\u0644\u0643\u0648\u064a\u062a","int_name":"Kuwait","name:mg":"K\u00f4eity","name:ml":"\u0d15\u0d41\u0d35\u0d48\u0d31\u0d4d\u0d31\u0d4d\u200c","name:vi":"Kuwait","name:mn":"\u041a\u0443\u0432\u0435\u0439\u0442","id":424313936,"name:mk":"\u041a\u0443\u0432\u0430\u0458\u0442","name:vo":"Kov\u00e4t\u00e4n","name:fa":"\u06a9\u0648\u06cc\u062a","name:ff":"Kuweyti","name:fi":"Kuwait","name:fo":"Kuveit","name:fr":"Kowe\u00eft","name:fy":"Koeweit","name:nl":"Koeweit","name:nn":"Kuwait","name:no":"Kuwait","name:na":"Kuwait","name:ne":"\u0915\u0941\u0935\u0947\u0924","name:wo":"Kowet","name:nv":"K\u00f3\u00f3wei\u02bc","name:ga":"Cu\u00e1it","name:gd":"Cubhait","name:gl":"Kuwait","name:gv":"Yn Choowait","name:gu":"\u0a95\u0ac1\u0ab5\u0ac8\u0aa4","name:tt":"\u041a\u04af\u0432\u04d9\u0439\u0442"},"coordinates":[227,2926]},{"type":"Point","properties":{"name:ka":"\u10dd\u10db\u10d0\u10dc\u10d8","name:ko":"\uc624\ub9cc","name:cv":"\u041e\u043c\u0430\u043d","name:km":"\u17a2\u17bc\u1798\u17c9\u1784\u17cb","name:kl":"Oman","name:cs":"Om\u00e1n","name:ki":"Omani","name:kw":"Oman","name:kv":"\u041e\u043c\u0430\u043d","name:ku":"Oman","name:ti":"\u12a6\u121b\u1295","name:ks":"\u0627\u0648\u0645\u0627\u0646","name:to":"\u02bbOmani","name:tl":"Oman","name:ce":"\u041e\u043c\u0430\u043d","name:ta":"\u0b93\u0bae\u0ba9\u0bcd","name:tg":"\u041e\u043c\u0430\u043d","name:ca":"Oman","name:te":"\u0c12\u0c2e\u0c3e\u0c28\u0c4d","name:cy":"Oman","name:hr":"Oman","name:da":"Oman","name:de":"Oman","name:dz":"\u0f68\u0f7c\u0f0b\u0f58\u0f71\u0f53","source":"openstreetmap.org","name:kn":"\u0c93\u0cae\u0ca8\u0ccd","name:dv":"\u07a2\u07aa\u0789\u07a7\u0782\u07b0","name:lv":"Om\u0101na","name:lt":"Omanas","name:uz":"Oman","name:kk":"\u041e\u043c\u0430\u043d","name:ur":"\u0639\u0645\u0627\u0646","name:lb":"Oman","name:la":"Omania","name:lg":"Omaani","name:uk":"\u041e\u043c\u0430\u043d","name:ug":"\u0626\u0648\u0645\u0627\u0646","name:li":"Omaan","name:ln":"Om\u00e1n\u025b","name:lo":"\u0ec2\u0ead\u0ea1\u0eb2\u0e99","name:el":"\u039f\u03bc\u03ac\u03bd","name:eo":"Omano","name:en":"Oman","name":"\u0639\u064f\u0645\u0627\u0646","name:tk":"Oman","name:ee":"Oman nutome","name:th":"\u0e1b\u0e23\u0e30\u0e40\u0e17\u0e28\u0e42\u0e2d\u0e21\u0e32\u0e19","name:eu":"Oman","name:et":"Omaan","name:es":"Om\u00e1n","name:ia":"Oman","name:rm":"Oman","name:rn":"Omani","name:az":"Oman","name:ie":"Oman","name:id":"Oman","name:ar":"\u0639\u0645\u0627\u0646","name:io":"Oman","name:ak":"Oman","name:am":"\u12a6\u121b\u1295","name:it":"Oman","name:an":"Om\u00e1n","name:ru":"\u041e\u043c\u0430\u043d","name:rw":"Omani","name:af":"Oman","name:zu":"i-Oman","name:zh-yue":"\u963f\u66fc","name:zh":"\u963f\u66fc","name:so":"Cumaan","name:sn":"Oman","name:sl":"Oman","name:sk":"Om\u00e1n","name:ja":"\u30aa\u30de\u30fc\u30f3","name:si":"\u0d95\u0db8\u0dcf\u0db1\u0dba","name:sh":"Oman","name:sg":"Om\u00e2ni","name:se":"Oman","name:sa":"\u0913\u092e\u093e\u0928","name:bs":"Oman","name:bm":"Oma\u014b","name:bn":"\u0993\u09ae\u09be\u09a8","name:bo":"\u0f68\u0f7c\u0f0b\u0f58\u0f53\u0f0d","name:br":"Oman","name:sw":"Omani","name:be":"\u0410\u043c\u0430\u043d","name:su":"Oman","name:bg":"\u041e\u043c\u0430\u043d","name:ss":"IMani","name:ba":"\u041e\u043c\u0430\u043d","name:sq":"Omani","name:jv":"Oman","name:pt":"Om\u00e3","name:ps":"\u0639\u0645\u0627\u0646","name:oc":"Oman","min_zoom":2.0,"name:ro":"Oman","name:zh-min-nan":"Oman","name:os":"\u041e\u043c\u0430\u043d","name:or":"\u0b13\u0b2e\u0b3e\u0b28\u0b4d","name:pl":"Oman","name:sr":"\u041e\u043c\u0430\u043d","name:pa":"\u0a13\u0a2e\u0a3e\u0a28","name:tr":"Umman","name:hi":"\u0913\u092e\u093e\u0928","name:sv":"Oman","name:he":"\u05e2\u05d5\u05de\u05df","name:ha":"Oman","name:hy":"\u0555\u0574\u0561\u0576","name:ht":"Om\u00e0n","name:hu":"Om\u00e1n","name:qu":"Uman","population":2577000,"kind":"country","name:is":"\u00d3man","name:yi":"\u05d0\u05de\u05d0\u05df","name:yo":"Or\u00edl\u1eb9\u0301\u00e8de \u1ecc\u1ecdma","name:mt":"Oman","name:ms":"Oman","name:mr":"\u0913\u092e\u093e\u0928","name:my":"\u1021\u102d\u102f\u1019\u1014\u103a","official_name":"\u0633\u0644\u0637\u0646\u0629 \u0639\u064f\u0645\u0627\u0646","int_name":"Oman","name:mg":"Oman","name:ml":"\u0d12\u0d2e\u0d3e\u0d7b","name:vi":"Oman","name:mn":"\u041e\u043c\u0430\u043d","id":424315291,"name:mk":"\u041e\u043c\u0430\u043d","name:vo":"Lom\u00e4n","name:fa":"\u0639\u0645\u0627\u0646","name:ff":"Omaan","name:fi":"Oman","name:fo":"Oman","name:fr":"Oman","name:fy":"Oman","name:nl":"Oman","name:nn":"Oman","name:no":"Oman","name:na":"Oman","name:ne":"\u0913\u092e\u0928","name:wo":"Omaan","name:nv":"Om\u0105\u0301\u0105\u0301","name:ga":"\u00d3man","name:gd":"Om\u00e0n","name:gn":"Om\u00e3","name:gl":"Om\u00e1n","name:gv":"Yn Omaan","name:gu":"\u0a93\u0aae\u0abe\u0aa8","name:tt":"\u041e\u043c\u0430\u043d"},"coordinates":[1093,2099]},{"type":"Point","properties":{"name:ka":"\u10d9\u10d0\u10e2\u10d0\u10e0\u10d8","name:ko":"\uce74\ud0c0\ub974","name:cv":"\u041a\u0430\u0442\u0430\u0440","name:km":"\u1780\u17b6\u178f\u17b6\u179a","name:kl":"Quatar","name:cs":"Katar","name:ki":"Katari","name:kw":"Katar","name:kv":"\u041a\u0430\u0442\u0430\u0440","name:ku":"Qeter","name:ti":"\u12b3\u1273\u122d","name:ks":"\u0642\u064e\u0637\u0650\u0631","name:to":"Kat\u0101","name:tl":"Katar","name:ce":"\u041a\u0430\u0442\u0430\u0440","name:ta":"\u0b95\u0ba4\u0bbe\u0bb0\u0bcd","name:tg":"\u049a\u0430\u0442\u0430\u0440","name:ca":"Qatar","name:te":"\u0c15\u0c24\u0c30\u0c4d","name:cy":"Qatar","name:hr":"Katar","name:da":"Qatar","name:de":"Katar","name:dz":"\u0f40\u0f0b\u0f4a\u0f62","source":"openstreetmap.org","name:kn":"\u0c95\u0ca4\u0cbe\u0cb0\u0ccd","name:dv":"\u07a4\u07a6\u07a0\u07a6\u0783\u07aa","name:lv":"Katara","name:lt":"Kataras","name:uz":"Qatar","name:kk":"\u041a\u0430\u0442\u0430\u0440","name:lb":"Katar","name:la":"Quataria","name:lg":"Kataa","name:uk":"\u041a\u0430\u0442\u0430\u0440","name:ug":"\u0642\u0627\u062a\u0627\u0631","name:li":"Katar","name:ln":"Katari","name:lo":"\u0e81\u0eb2\u0e95\u0eb2","name:el":"\u039a\u03b1\u03c4\u03ac\u03c1","name:eo":"Kataro","name:en":"Qatar","name":"\u0642\u0637\u0631","name:tk":"Katar","name:ee":"Katar nutome","name:th":"\u0e1b\u0e23\u0e30\u0e40\u0e17\u0e28\u0e01\u0e32\u0e15\u0e32\u0e23\u0e4c","name:eu":"Katar","name:et":"Katar","name:es":"Catar","name:ia":"Qatar","name:rm":"Katar","name:rn":"Katari","name:az":"Qatar","name:ie":"Katar","name:id":"Qatar","name:as":"\u0995\u09be\u099f\u09be\u09f0","name:io":"Katar","name:ak":"Kata","name:am":"\u12b3\u1273\u122d","name:it":"Qatar","name:an":"Qatar","name:ru":"\u041a\u0430\u0442\u0430\u0440","name:rw":"Katari","name:af":"Katar","name:zu":"i-Qatar","name:zh":"\u5361\u5854\u5c14","name:so":"Qadar","name:sn":"Qatar","name:sl":"Katar","name:sk":"Katar","name:ja":"\u30ab\u30bf\u30fc\u30eb","name:si":"\u0d9a\u0da7\u0dcf\u0dbb\u0dca\u0dba","name:sg":"Kat\u00e4ra","name:se":"Qatar","name:sa":"\u0915\u0924\u093e\u0930","name:bs":"Katar","name:bm":"Katari","name:bn":"\u0995\u09be\u09a4\u09be\u09b0","name:bo":"\u0f40\u0f0b\u0f4f\u0f71\u0f62\u0f0d","name:br":"Katar","name:sw":"Katari","name:be":"\u041a\u0430\u0442\u0430\u0440","name:su":"Qatar","name:bg":"\u041a\u0430\u0442\u0430\u0440","name:ss":"IKhathari","name:sr":"\u041a\u0430\u0442\u0430\u0440","name:sq":"Katar","name:jv":"Qatar","name:pt":"Qatar","name:oc":"Qatar","min_zoom":2.0,"name:ro":"Qatar","name:pa":"\u0a15\u0a24\u0a30","name:os":"\u041a\u0430\u0442\u0430\u0440","name:or":"\u0b15\u0b24\u0b3e\u0b30\u0b4d","name:pl":"Katar","name:tr":"Katar","name:hi":"\u0915\u093c\u0924\u0930","name:sv":"Qatar","name:he":"\u05e7\u05d8\u05e8","name:ha":"Kwatar","name:hy":"\u053f\u0561\u057f\u0561\u0580","name:ht":"Katar","name:hu":"Katar","name:qu":"Qatar","population":1699435,"kind":"country","name:is":"Katar","name:yi":"\u05e7\u05d0\u05d8\u05d0\u05e8","name:yo":"Or\u00edl\u1eb9\u0301\u00e8de Kota","name:mt":"Qatar","name:ms":"Qatar","name:mr":"\u0915\u0924\u093e\u0930","name:my":"\u1000\u102c\u1010\u102c","official_name":"\u062f\u0648\u0644\u0629 \u0642\u0637\u0631","int_name":"Qatar","name:mg":"Katar","name:ml":"\u0d16\u0d24\u0d4d\u0d24\u0d7c","name:vi":"Qatar","name:mn":"\u041a\u0430\u0442\u0430\u0440","id":432425062,"name:mk":"\u041a\u0430\u0442\u0430\u0440","name:vo":"Katar\u00e4n","name:ff":"Kataar","name:fi":"Qatar","name:fo":"Katar","name:fr":"Qatar","name:fy":"Katar","name:nl":"Qatar","name:nn":"Qatar","name:no":"Qatar","name:na":"Qatar","name:ne":"\u0915\u0924\u093e\u0930","name:wo":"Kataar","name:nv":"K\u02bcat\u00e1r","name:ga":"Catar","name:gd":"Catar","name:gl":"Qatar","name:gv":"Yn Chatar","name:gu":"\u0a95\u0aa4\u0abe\u0ab0","name:tt":"\u041a\u0430\u0442\u0430\u0440"},"coordinates":[567,2532]},{"type":"Point","properties":{"name:pt":"Bahrein","name:cy":"Bahrain","name:mt":"Ba\u0127rajn","name:ko":"\ubc14\ub808\uc778","name:kn":"\u0cac\u0cb9\u0cb0\u0cc8\u0ca8\u0ccd","name:km":"\u1794\u17b6\u179a\u17c9\u17c2\u1793","name:kl":"Bahrain","name:cs":"Bahrajn","name:ki":"Bahareni","name:tr":"Bahreyn","name:ku":"Behreyn","name:ti":"\u1263\u1205\u122c\u1295","name:ks":"\u0628\u062d\u0631\u06cc\u0656\u0646","name:to":"Paleini","name:sv":"Bahrain","name:or":"\u0b2c\u0b3e\u0b39\u0b3e\u0b30\u0b3f\u0b28\u0b4d","name:pl":"Bahrajn","name:ta":"\u0baa\u0bb9\u0bcd\u0bb0\u0bc8\u0ba9\u0bcd","name:ca":"Bahrain","name:te":"\u0c2c\u0c39\u0c30\u0c47\u0c28\u0c4d","name:hu":"Bahrein","name:ro":"Bahrein","name:ka":"\u10d1\u10d0\u10f0\u10e0\u10d4\u10d8\u10dc\u10d8","name:hr":"Bahrein","name:da":"Bahrain","name:de":"Bahrain","name:dz":"\u0f56\u0fb7\u0f0b\u0f62\u0f7a\u0f53","source":"openstreetmap.org","name:lv":"Bahreina","name:lt":"Bahreinas","name:uz":"Baxreyn","name:kk":"\u0411\u0430\u0445\u0440\u0435\u0439\u043d","name:he":"\u05d1\u05d7\u05e8\u05d9\u05d9\u05df","kind":"country","name:ur":"\u0628\u062d\u0631\u06cc\u0646","name:lb":"Bahrain","name:la":"Baharina","name:lg":"Baareeni","name:uk":"\u0411\u0430\u0445\u0440\u0435\u0439\u043d","name:hy":"\u0532\u0561\u0570\u0580\u0565\u0575\u0576","min_zoom":2.0,"name:li":"Bahrein","name:ln":"Bahr\u025bn\u025b","name:lo":"\u0e9a\u0eb2\u0ec0\u0ea5\u0e99","population":1234571,"name:el":"\u039c\u03c0\u03b1\u03c7\u03c1\u03ad\u03b9\u03bd","name:eo":"Barejno","name:en":"Bahrain","name":"\u0627\u0644\u0628\u062d\u0631\u064a\u0646","official_name":"\u200e\u0645\u0645\u0644\u0643\u0629 \u0627\u0644\u0628\u062d\u0631\u064a\u0646 (Mamlakat al-Ba\u1e25rayn)","name:ee":"Bahrain nutome","name:th":"\u0e1b\u0e23\u0e30\u0e40\u0e17\u0e28\u0e1a\u0e32\u0e2b\u0e4c\u0e40\u0e23\u0e19","name:gu":"\u0aac\u0ac7\u0ab9\u0ab0\u0ac0\u0aa8","name:eu":"Bahrain","name:et":"Bahrein","name:nl":"Bahrein","name:es":"Bahr\u00e9in","name:ia":"Bahrain","name:rm":"Bahrain","name:rn":"Bahareyini","name:az":"Bahreyn","name:id":"Bahrain","name:ms":"Bahrain","name:mr":"\u092c\u0939\u093e\u0930\u0940\u0928","name:my":"\u1018\u102c\u101b\u102d\u1014\u103a\u1038","name:io":"Bahrain","int_name":"Bahrain","name:is":"Barein","name:am":"\u1263\u1205\u122c\u1295","name:it":"Bahrain","name:vi":"Bahrain","name:ru":"\u0411\u0430\u0445\u0440\u0435\u0439\u043d","name:mn":"\u0411\u0430\u0445\u0440\u0435\u0439\u043d","id":424297207,"name:mk":"\u0411\u0430\u0445\u0440\u0435\u0438\u043d","name:af":"Bahrein","name:zu":"i-Bahrain","name:ha":"Baharan","name:nn":"Bahrain","name:ff":"Bahreyn","name:fi":"Bahrain","name:hi":"\u092c\u093e\u0939\u0930\u0947\u0928","name:mg":"Bahrain","name:fo":"Bahrain","name:fr":"Bahre\u00efn","name:fy":"De Barein","name:vo":"Bahru\u00e4ns","name:zh":"\u5df4\u6797","name:gv":"Bahrain","name:so":"Baxreyn","name:sn":"Bahareni","name:sl":"Bahrajn","name:sk":"Bahrajn","name:ja":"\u30d0\u30fc\u30ec\u30fc\u30f3","name:si":"\u0db6\u0dc4\u0dbb\u0dda\u0db1\u0dca","name:fa":"\u0628\u062d\u0631\u064a\u0646","name:sg":"Bahr\u00e2ina","name:se":"Bahrain","name:ne":"\u092c\u093e\u0939\u094d\u0930\u0947\u0928","name:br":"Bahrein","name:bs":"Bahrein","name:bm":"Bareyini","name:bn":"\u09ac\u09be\u09b9\u09b0\u09be\u0987\u09a8","name:bo":"\u0f56\u0fb7\u0f71\u0f0b\u0f62\u0f7a\u0f53\u0f0d","name:ml":"\u0d2c\u0d39\u0d4d\u0d31\u0d48\u0d7b","name:no":"Bahrain","name:sw":"Bahareni","name:be":"\u0411\u0430\u0445\u0440\u044d\u0439\u043d","name:bg":"\u0411\u0430\u0445\u0440\u0435\u0439\u043d","name:sr":"\u0411\u0430\u0445\u0440\u0435\u0438\u043d","name:sq":"Bahrein","name:ga":"Bair\u00e9in","name:gd":"Bachrain","name:gl":"Bahrein","name:yo":"Or\u00edl\u1eb9\u0301\u00e8de B\u00e1r\u00e1n\u00ec","name:ak":"Baren"},"coordinates":[504,2614]},{"type":"Point","properties":{"name:pt":"Maldivas","name:ka":"\u10db\u10d0\u10da\u10d3\u10d8\u10d5\u10d8\u10e1 \u10d9\u10e3\u10dc\u10eb\u10e3\u10da\u10d4\u10d1\u10d8","name:ko":"\ubab0\ub514\ube0c","name:kn":"\u0cae\u0cbe\u0cb2\u0ccd\u0ca1\u0cbf\u0cb5\u0ccd\u0cb8\u0ccd","name:km":"\u1798\u17c9\u17b6\u179b\u17cb\u178c\u17b8\u179c","name:cs":"Maledivy","name:ki":"Modivu","name:tr":"Maldivler","name:ku":"Mald\u00eev","name:ti":"\u121b\u120d\u12f2\u126d\u1235","name:ks":"\u0645\u0627\u0644\u062f\u06cc\u0656\u0648","name:to":"Malativisi","name:sv":"Maldiverna","name:or":"\u0b2e\u0b3e\u0b33\u0b26\u0b4d\u0b2c\u0b40\u0b2a","name:pl":"Malediwy","name:ta":"\u0bae\u0bbe\u0bb2\u0ba4\u0bcd\u0ba4\u0bc0\u0bb5\u0bc1","name:ca":"Maldives","name:te":"\u0c2e\u0c3e\u0c32\u0c4d\u0c26\u0c40\u0c35\u0c41\u0c32\u0c41","name:ro":"Maldive","name:ms":"Maldiv","name:hr":"Maldivi","name:da":"Maldiverne","name:de":"Malediven","name:dz":"\u0f58\u0f71\u0f63\u0f0b\u0f51\u0f72\u0f56\u0f66","source":"openstreetmap.org","name:lv":"Mald\u012bvija","name:lt":"Maldyvai","name:hi":"\u092e\u093e\u0932\u0926\u0940\u0935","name:he":"\u05de\u05dc\u05d3\u05d9\u05d1\u05d9\u05dd","name:ur":"\u0645\u0627\u0644\u062f\u06cc\u0648","name:lb":"Malediven","name:la":"Insulae Maldivae","name:lg":"Bizinga by'eMalidive","name:uk":"\u041c\u0430\u043b\u044c\u0434\u0456\u0432\u0438","name:hy":"\u0544\u0561\u056c\u0564\u056b\u057e\u0576\u0565\u0580","min_zoom":2.0,"name:hu":"Mald\u00edv-szigetek","name:ln":"Mad\u00edv\u025b","name:lo":"\u0ea1\u0eb1\u0e99\u0e94\u0eb4\u0e9f","population":328536,"name:el":"\u039c\u03b1\u03bb\u03b4\u03af\u03b2\u03b5\u03c2","kind":"country","name:en":"Maldives","name":"Maldivoj","name:ee":"maldivesduk\u0254","name:th":"\u0e1b\u0e23\u0e30\u0e40\u0e17\u0e28\u0e21\u0e31\u0e25\u0e14\u0e35\u0e1f\u0e2a\u0e4c","name:eu":"Maldivak","name:et":"Maldiivid","name:nl":"Malediven","name:es":"Maldivas","name:ml":"\u0d2e\u0d3e\u0d32\u0d3f\u0d26\u0d4d\u0d35\u0d40\u0d2a\u0d4d","name:rm":"Maldivas","name:rn":"Moludave","name:az":"Maldiv","name:id":"Maladewa","name:ig":"Maldivesa","name:mr":"\u092e\u093e\u0932\u0926\u0940\u0935\u094d\u091c","name:ar":"\u0645\u0644\u062f\u064a\u0641","name:my":"\u1019\u1031\u102c\u103a\u101c\u1012\u102d\u102f\u1000\u103a","name:io":"Maldivi","name:is":"Mald\u00edveyjar","name:am":"\u121b\u120d\u12f2\u126d\u1235","name:it":"Maldive","name:vi":"Maldives","name:ru":"\u041c\u0430\u043b\u044c\u0434\u0438\u0432\u044b","name:mn":"\u041c\u0430\u043b\u044c\u0434\u0438\u0432","id":424311641,"name:mk":"\u041c\u0430\u043b\u0434\u0438\u0432\u0438","name:af":"Maldive","name:zu":"i-Maldives","name:ha":"Maldibi","name:nn":"Maldivane","name:ff":"Maldiiwe","name:fi":"Malediivit","name:no":"Maldivene","name:mg":"Maldiva","name:fo":"Maldivuoyggjarnar","name:fr":"Maldives","name:fy":"de Maldiven","name:vo":"Maldivu\u00e4ns","name:zh":"\u9a6c\u5c14\u4ee3\u592b","name:gv":"Ny Maldeevaghyn","name:so":"Maaldiqeen","name:sl":"Maldivi","name:sk":"Maledivy","name:ja":"\u30e2\u30eb\u30c7\u30a3\u30d6","name:si":"\u0db8\u0dcf\u0dbd \u0daf\u0dd2\u0dc0\u0dba\u0dd2\u0db1","name:fa":"\u0645\u0627\u0644\u062f\u06cc\u0648","name:sg":"Mald\u00eeva","name:se":"Malediivvat","name:ne":"\u092e\u093e\u0932\u094d\u0926\u093f\u092d\u094d\u0938","name:br":"Maldivez","name:bs":"Maldivi","name:bm":"Maldivi","name:bn":"\u09ae\u09be\u09b2\u09a6\u09cd\u09ac\u09c0\u09aa","name:bo":"\u0f58\u0f63\u0f0b\u0f51\u0fad\u0f72\u0f56\u0f0d","name:sw":"Modivu","name:be":"\u041c\u0430\u043b\u044c\u0434\u0437\u0456\u0432\u044b","name:bg":"\u041c\u0430\u043b\u0434\u0438\u0432\u0438","name:sr":"\u041c\u0430\u043b\u0434\u0438\u0432\u0438","name:sq":"Maldivit","name:ga":"Oile\u00e1in Mhaild\u00edve","name:gd":"Na h-Eileanan Mhaladaibh","name:gl":"Maldivas","name:yo":"Or\u00edl\u1eb9\u0301\u00e8de Maladifi","name:gu":"\u0aae\u0abe\u0ab2\u0aa6\u0abf\u0ab5\u0acd\u0ab8","name:tt":"\u041c\u0430\u043b\u044c\u0434\u0438\u0432\u043b\u0430\u0440"},"coordinates":[2579,470]},{"type":"Point","properties":{"alt_name:eo":"Arca\u0125a Respubliko","name:az":"Da\u011fl\u0131q Qaraba\u011f Respublikas\u0131","name:ar":"\u062c\u0645\u0647\u0648\u0631\u064a\u0629 \u0645\u0631\u062a\u0641\u0639\u0627\u062a \u0642\u0631\u0629 \u0628\u0627\u063a","name:cs":"N\u00e1horn\u011b-karaba\u0161sk\u00e1 republika","name:io":"Republiko di Nagorno-Karabakh","min_zoom":2.0,"name:it":"Nagorno Karabakh","name:vi":"C\u1ed9ng h\u00f2a Nagorno-Karabakh","name:ru":"\u041d\u0430\u0433\u043e\u0440\u043d\u043e-\u041a\u0430\u0440\u0430\u0431\u0430\u0445\u0441\u043a\u0430\u044f \u0420\u0435\u0441\u043f\u0443\u0431\u043b\u0438\u043a\u0430","name:pl":"Republika G\u00f3rskiego Karabachu","id":1696853468,"name:ca":"Rep\u00fablica de l'Alt Karabagh","name:fa":"\u062c\u0645\u0647\u0648\u0631\u06cc \u0642\u0631\u0647\u200c\u0628\u0627\u063a","source":"openstreetmap.org","name:fi":"Vuoristo-Karabahin tasavalta","name:de":"Republik Bergkarabach","alt_name:vi":"C\u1ed9ng ho\u00e0 Nagorno-Karabakh","name:fr":"Haut-Karabagh","name:zh":"\u7eb3\u6208\u5c14\u8bfa-\u5361\u62c9\u5df4\u8d6b\u5171\u548c\u56fd","name:sk":"N\u00e1horn\u00fd Karabach","name:ja":"\u30ca\u30b4\u30eb\u30ce\u30fb\u30ab\u30e9\u30d0\u30d5\u5171\u548c\u56fd","name:no":"Nagorno-Karabakh","name:he":"\u05e0\u05d2\u05d5\u05e8\u05e0\u05d5-\u05e7\u05e8\u05d1\u05d7","kind":"country","name:tt":"\u0422\u0430\u0443\u043b\u044b \u041a\u0430\u0440\u0430\u0431\u0430\u0445 \u0496\u04e9\u043c\u04bb\u04af\u0440\u0438\u044f\u0442\u0435","name:uk":"\u041d\u0430\u0433\u0456\u0440\u043d\u043e-\u041a\u0430\u0440\u0430\u0431\u0430\u0441\u044c\u043a\u0430 \u0420\u0435\u0441\u043f\u0443\u0431\u043b\u0456\u043a\u0430","name:hy":"\u053c\u0565\u057c\u0576\u0561\u0575\u056b\u0576 \u0542\u0561\u0580\u0561\u0562\u0561\u0572\u056b \u0540\u0561\u0576\u0580\u0561\u057a\u0565\u057f\u0578\u0582\u0569\u0575\u0578\u0582","name:be":"\u041d\u0430\u0433\u043e\u0440\u043d\u0430-\u041a\u0430\u0440\u0430\u0431\u0430\u0445\u0441\u043a\u0430\u044f \u0420\u044d\u0441\u043f\u0443\u0431\u043b\u0456\u043a\u0430","name:hu":"Azeri Hegyi-Karabah \/ Arcak","name:sr":"\u041d\u0430\u0433\u043e\u0440\u043d\u043e-\u041a\u0430\u0440\u0430\u0431\u0430\u0445","population":144700,"name:eo":"Respubliko Montara Karaba\u0125o","name:en":"Nagorno-Karabakh Republic","name":"\u053c\u0565\u057c\u0576\u0561\u0575\u056b\u0576 \u0542\u0561\u0580\u0561\u0562\u0561\u0572\u056b \u0540\u0561\u0576\u0580\u0561\u057a\u0565\u057f\u0578\u0582\u0569\u0575\u0578\u0582 (Nagorno-Karabakh Republic)","name:ku":"Komara Qerebaxa Jor\u00een","name:nl":"Nagorno-Karabach","name:es":"Rep\u00fablica de Nagorno Karabaj"},"coordinates":[155,3979]},{"type":"Point","properties":{"source":"naturalearthdata.com","kind":"locality","name":"Tehran","country_capital":true,"population":7873000,"min_zoom":3.0,"id":7255},"coordinates":[585,3566]},{"type":"Point","properties":{"source":"naturalearthdata.com","kind":"locality","name":"Bangalore","population":6787000,"region_capital":true,"min_zoom":3.0,"id":7251},"coordinates":[2964,1297]},{"type":"Point","properties":{"source":"naturalearthdata.com","kind":"locality","name":"Kabul","country_capital":true,"population":3277000,"min_zoom":3.0,"id":7259},"coordinates":[2201,3450]},{"type":"Point","properties":{"source":"naturalearthdata.com","kind":"locality","name":"Dubai","population":1379000,"region_capital":true,"min_zoom":3.0,"id":7231},"coordinates":[936,2522]},{"type":"Point","properties":{"source":"naturalearthdata.com","kind":"locality","name":"New Delhi","country_capital":true,"population":317797,"min_zoom":3.0,"id":7250},"coordinates":[2931,2859]}]},"transit":{"type":"GeometryCollection","geometries":[]},"pois":{"type":"GeometryCollection","geometries":[]},"boundaries":{"type":"GeometryCollection","geometries":[{"type":"LineString","properties":{"source":"naturalearthdata.com","kind":"disputed","sort_rank":261,"kind_detail":"2","min_zoom":0.0,"id":1},"arcs":[0]},{"type":"LineString","properties":{"source":"naturalearthdata.com","kind":"indefinite","sort_rank":259,"kind_detail":"2","min_zoom":0.0,"id":2},"arcs":[1]},{"type":"LineString","properties":{"source":"naturalearthdata.com","kind":"country","sort_rank":262,"kind_detail":"2","min_zoom":0.0,"id":91},"arcs":[2]},{"type":"LineString","properties":{"source":"naturalearthdata.com","kind":"country","sort_rank":262,"kind_detail":"2","min_zoom":0.0,"id":299},"arcs":[3]},{"type":"LineString","properties":{"source":"naturalearthdata.com","kind":"country","sort_rank":262,"kind_detail":"2","min_zoom":0.0,"id":302},"arcs":[4]},{"type":"LineString","properties":{"source":"naturalearthdata.com","kind":"disputed","sort_rank":261,"kind_detail":"2","min_zoom":0.0,"id":8},"arcs":[5]},{"type":"LineString","properties":{"source":"naturalearthdata.com","kind":"line_of_control","sort_rank":260,"kind_detail":"2","min_zoom":0.0,"id":9},"arcs":[6]},{"type":"LineString","properties":{"source":"naturalearthdata.com","kind":"country","sort_rank":262,"kind_detail":"2","min_zoom":0.0,"id":16},"arcs":[7]},{"type":"LineString","properties":{"source":"naturalearthdata.com","kind":"country","sort_rank":262,"kind_detail":"2","min_zoom":0.0,"id":42},"arcs":[8]},{"type":"LineString","properties":{"source":"naturalearthdata.com","kind":"country","sort_rank":262,"kind_detail":"2","min_zoom":0.0,"id":48},"arcs":[9]},{"type":"LineString","properties":{"source":"naturalearthdata.com","kind":"country","sort_rank":262,"kind_detail":"2","min_zoom":0.0,"id":49},"arcs":[10]},{"type":"LineString","properties":{"source":"naturalearthdata.com","kind":"country","sort_rank":262,"kind_detail":"2","min_zoom":0.0,"id":51},"arcs":[11]},{"type":"LineString","properties":{"source":"naturalearthdata.com","kind":"country","sort_rank":262,"kind_detail":"2","min_zoom":0.0,"id":55},"arcs":[12]},{"type":"LineString","properties":{"source":"naturalearthdata.com","kind":"country","sort_rank":262,"kind_detail":"2","min_zoom":0.0,"id":79},"arcs":[13]},{"type":"LineString","properties":{"source":"naturalearthdata.com","kind":"country","sort_rank":262,"kind_detail":"2","min_zoom":0.0,"id":93},"arcs":[14]},{"type":"LineString","properties":{"source":"naturalearthdata.com","kind":"country","sort_rank":262,"kind_detail":"2","min_zoom":0.0,"id":96},"arcs":[15]},{"type":"LineString","properties":{"source":"naturalearthdata.com","kind":"country","sort_rank":262,"kind_detail":"2","min_zoom":0.0,"id":102},"arcs":[16]},{"type":"LineString","properties":{"source":"naturalearthdata.com","kind":"country","sort_rank":262,"kind_detail":"2","min_zoom":0.0,"id":103},"arcs":[17]},{"type":"LineString","properties":{"source":"naturalearthdata.com","kind":"country","sort_rank":262,"kind_detail":"2","min_zoom":0.0,"id":117},"arcs":[18]},{"type":"LineString","properties":{"source":"naturalearthdata.com","kind":"country","sort_rank":262,"kind_detail":"2","min_zoom":0.0,"id":118},"arcs":[19]},{"type":"LineString","properties":{"source":"naturalearthdata.com","kind":"country","sort_rank":262,"kind_detail":"2","min_zoom":0.0,"id":126},"arcs":[20]},{"type":"LineString","properties":{"source":"naturalearthdata.com","kind":"country","sort_rank":262,"kind_detail":"2","min_zoom":0.0,"id":167},"arcs":[21]},{"type":"MultiLineString","properties":{"source":"naturalearthdata.com","kind":"country","sort_rank":262,"kind_detail":"2","min_zoom":0.0,"id":172},"arcs":[[22],[23]]},{"type":"LineString","properties":{"source":"naturalearthdata.com","kind":"country","sort_rank":262,"kind_detail":"2","min_zoom":0.0,"id":177},"arcs":[24]},{"type":"LineString","properties":{"source":"naturalearthdata.com","kind":"country","sort_rank":262,"kind_detail":"2","min_zoom":0.0,"id":212},"arcs":[25]},{"type":"LineString","properties":{"source":"naturalearthdata.com","kind":"country","sort_rank":262,"kind_detail":"2","min_zoom":0.0,"id":237},"arcs":[26]},{"type":"LineString","properties":{"source":"naturalearthdata.com","kind":"country","sort_rank":262,"kind_detail":"2","min_zoom":0.0,"id":244},"arcs":[27]},{"type":"LineString","properties":{"source":"naturalearthdata.com","kind":"country","sort_rank":262,"kind_detail":"2","min_zoom":0.0,"id":245},"arcs":[28]},{"type":"LineString","properties":{"source":"naturalearthdata.com","kind":"country","sort_rank":262,"kind_detail":"2","min_zoom":0.0,"id":246},"arcs":[29]},{"type":"LineString","properties":{"source":"naturalearthdata.com","kind":"country","sort_rank":262,"kind_detail":"2","min_zoom":0.0,"id":317},"arcs":[30]},{"type":"LineString","properties":{"source":"naturalearthdata.com","kind":"country","sort_rank":262,"kind_detail":"2","min_zoom":0.0,"id":279},"arcs":[31]},{"type":"LineString","properties":{"source":"naturalearthdata.com","kind":"country","sort_rank":262,"kind_detail":"2","min_zoom":0.0,"id":290},"arcs":[32]},{"type":"LineString","properties":{"source":"naturalearthdata.com","kind":"country","sort_rank":262,"kind_detail":"2","min_zoom":0.0,"id":291},"arcs":[33]},{"type":"LineString","properties":{"source":"naturalearthdata.com","kind":"country","sort_rank":262,"kind_detail":"2","min_zoom":0.0,"id":292},"arcs":[34]},{"type":"LineString","properties":{"source":"naturalearthdata.com","kind":"country","sort_rank":262,"kind_detail":"2","min_zoom":0.0,"id":293},"arcs":[35]},{"type":"LineString","properties":{"source":"naturalearthdata.com","kind":"country","sort_rank":262,"kind_detail":"2","min_zoom":0.0,"id":320},"arcs":[36]},{"type":"LineString","properties":{"source":"naturalearthdata.com","kind":"country","sort_rank":262,"kind_detail":"2","min_zoom":0.0,"id":300},"arcs":[37]},{"type":"LineString","properties":{"source":"naturalearthdata.com","kind":"country","sort_rank":262,"kind_detail":"2","min_zoom":0.0,"id":301},"arcs":[38]},{"type":"LineString","properties":{"source":"naturalearthdata.com","kind":"country","sort_rank":262,"kind_detail":"2","min_zoom":0.0,"id":303},"arcs":[39]},{"type":"LineString","properties":{"source":"naturalearthdata.com","kind":"country","sort_rank":262,"kind_detail":"2","min_zoom":0.0,"id":304},"arcs":[40]},{"type":"LineString","properties":{"source":"naturalearthdata.com","kind":"country","sort_rank":262,"kind_detail":"2","min_zoom":0.0,"id":311},"arcs":[41]},{"type":"LineString","properties":{"source":"naturalearthdata.com","kind":"country","sort_rank":262,"kind_detail":"2","min_zoom":0.0,"id":343},"arcs":[42]},{"type":"LineString","properties":{"source":"naturalearthdata.com","kind":"country","sort_rank":262,"kind_detail":"2","min_zoom":0.0,"id":327},"arcs":[43]},{"type":"LineString","properties":{"source":"naturalearthdata.com","kind":"country","sort_rank":262,"kind_detail":"2","min_zoom":0.0,"id":328},"arcs":[44]},{"type":"LineString","properties":{"source":"naturalearthdata.com","kind":"country","sort_rank":262,"kind_detail":"2","min_zoom":0.0,"id":329},"arcs":[45]},{"type":"LineString","properties":{"source":"naturalearthdata.com","kind":"country","sort_rank":262,"kind_detail":"2","min_zoom":0.0,"id":351},"arcs":[46]},{"type":"LineString","properties":{"source":"naturalearthdata.com","kind":"country","sort_rank":262,"kind_detail":"2","min_zoom":0.0,"id":352},"arcs":[47]},{"type":"LineString","properties":{"source":"naturalearthdata.com","kind":"country","sort_rank":262,"kind_detail":"2","min_zoom":0.0,"id":330},"arcs":[48]},{"type":"LineString","properties":{"source":"naturalearthdata.com","kind":"country","sort_rank":262,"kind_detail":"2","min_zoom":0.0,"id":341},"arcs":[49]}]},"roads":{"type":"GeometryCollection","geometries":[]},"earth":{"type":"GeometryCollection","geometries":[{"type":"MultiPolygon","properties":{"sort_rank":10,"source":"naturalearthdata.com","min_zoom":0.0,"kind":"earth","area":78428346612656},"arcs":[[[115]],[[116]],[[117]],[[118]],[[119]],[[120]],[[121]],[[122]]]}]},"landuse":{"type":"GeometryCollection","geometries":[]}},"type":"Topology","transform":{"translate":[45.0,-0.0],"scale":[0.0109863281,0.0100048579]},"arcs":[[[271,799],[14,23],[13,22],[14,24],[17,28],[16,27],[13,22],[0,11],[0,24],[0,17],[0,46],[0,28],[0,27],[0,27]],[[271,799],[-22,-23],[-26,-27],[-26,-29],[-18,-18],[-27,-29],[-22,-24],[-24,-26],[-21,-24],[-27,-32],[-18,-22],[-28,-33],[-12,-15]],[[571,2460],[-9,-3],[-7,-2],[-7,0],[-5,1],[-3,2],[-7,9],[-5,11]],[[139,2908],[-16,-3],[-37,3],[-41,4],[-40,3],[-5,1]],[[2615,3687],[4,0],[12,-3],[9,-3],[3,0],[14,7],[22,9],[10,3]],[[2985,3548],[2,-1],[3,-3],[4,-1],[5,2],[6,2],[3,-1],[0,-3],[-3,-14],[0,-6],[6,-11],[7,-19],[7,-18],[4,-11],[4,-5],[18,-5],[14,-4],[8,-6],[9,-7],[7,-3],[3,-5],[1,-5],[-1,-3],[-3,-4],[-17,-10],[-2,-3],[0,-4],[3,-13],[2,-8],[1,-16],[1,-15],[5,-7],[5,-4]],[[2917,3509],[-1,-4],[-3,-7],[-10,-6],[-10,-4],[-2,-2],[-1,-3],[-5,-6],[-9,-5],[-8,0],[-5,2],[-26,-9],[-12,0],[-9,-5],[-7,-6],[-14,-5],[-9,0],[-14,3],[-17,6],[-7,4],[-7,0],[-15,1],[-15,3],[-17,4],[-9,2],[-18,3],[-12,-5],[-10,-4],[-9,-2],[-7,-13],[-3,-4],[-3,-6],[-2,-5],[1,-5],[11,-4],[4,-5],[1,-5],[-4,-4],[-3,-4],[0,-3],[2,-3],[2,-3],[15,-1],[9,0],[3,-2],[0,-4],[-3,-6],[-12,-5],[-7,-5],[-2,-7],[0,-5],[2,-3],[6,-4],[6,-5],[1,-4],[0,-5],[-3,-7],[-6,-8],[-5,-6],[0,-2],[1,-4],[4,-4],[7,-7],[9,-6],[5,-1],[2,-1],[2,-7],[1,-7],[-3,-5]],[[4096,2830],[-2,0],[-7,-2],[-8,-4],[-6,-7],[-9,-3],[-10,-5],[-5,-4],[-8,-11],[-11,-12],[-10,-12],[-6,-12],[-7,-8],[-7,-5],[-5,-15]],[[2606,3943],[8,1],[10,3],[4,4],[3,5],[1,3],[-3,11],[-4,4],[0,4],[2,3],[2,5],[5,10],[5,6],[3,2],[5,1],[15,2],[15,5],[18,13],[7,4],[8,2],[5,0],[1,2],[-3,8],[0,3],[3,2],[2,1],[13,-4],[10,0],[12,3],[25,15],[3,0],[3,-2],[3,-9],[3,-19],[2,-2],[18,-1],[12,7],[5,2],[9,-1],[4,3],[5,2],[6,-8],[7,4],[7,6],[4,6],[5,7],[4,8],[2,8],[2,4],[4,4],[11,16]],[[39,4096],[1,-3],[8,-5],[5,-5],[1,-2],[-1,-3],[-16,-9],[-3,-4],[0,-3],[7,-11],[11,-11],[15,-9],[21,-10],[0,-5],[-3,-7],[-3,-5],[-1,-3],[-3,-2],[-21,0],[-3,-1],[-1,-1],[0,-1],[7,-2],[12,-8],[7,-7],[7,-3],[7,-6],[7,-5],[9,-7],[11,2],[15,-6],[0,-5],[0,-3],[-10,-5],[-1,-1],[0,-2],[1,-2],[6,-3],[6,-5],[7,-8],[-3,-2],[-7,0],[-5,1],[-2,-2],[1,-2],[6,-6],[2,-4],[-1,-7],[1,-9]],[[0,3974],[3,1],[4,-3],[4,-4],[3,-4],[0,-8],[2,-1],[7,3],[3,-3],[6,-4],[10,-3],[14,5],[7,1],[5,0],[3,-1],[2,-6],[-2,-7],[-1,-4],[3,-3],[11,-7],[5,-4],[-2,-6],[8,-16],[3,-6],[3,-8]],[[2363,4022],[3,2],[9,1],[19,2],[7,-1],[7,-4],[6,-3],[5,0],[5,1],[2,-1],[1,-3],[3,-3],[7,4],[7,4],[5,1],[5,2],[1,3],[4,5],[11,10],[5,1],[4,0],[0,-1],[2,-2],[9,-2],[3,3],[2,3],[-4,6],[0,2],[1,3],[2,1],[15,-6],[4,1],[6,3],[7,5],[2,4],[31,14],[2,2],[0,2],[-13,3],[-6,-2],[-6,0],[-3,2],[-15,1],[-4,1],[-10,10]],[[2363,4022],[0,-2],[-1,-3],[-19,-6],[-9,-5],[-2,-8],[-2,-2],[-4,-2],[-4,-1],[-5,10],[-7,2],[-9,4],[-19,6],[-9,3],[-19,-4],[-21,-6],[-4,-4],[-2,-4],[0,-3],[2,-4],[-1,-3],[-4,-1],[-6,4],[-5,2],[-3,-5],[-3,-9],[-2,-7],[5,-9],[2,-14],[8,0],[7,0],[12,4],[6,1],[10,-2],[17,-1],[13,1],[3,0],[3,2],[4,0],[3,-4],[13,4],[10,1],[6,-1],[4,-1],[6,-10],[5,-6],[6,-1],[19,1],[5,8],[5,2],[8,1],[6,2],[5,3],[7,3],[6,0],[3,-2],[2,-3],[-1,-3],[-1,-4],[4,-3],[12,0],[5,-3],[1,-4],[-1,-7],[4,-3],[3,0],[17,7],[4,0],[4,-4],[6,-5],[8,-5],[1,1],[4,5],[6,7],[12,2],[7,2],[7,1],[21,-3],[7,0],[15,0],[11,2],[9,3],[5,3],[7,2],[10,0],[5,-1]],[[927,2269],[1,15],[0,7],[0,11],[7,16],[7,20],[6,13],[5,11],[4,9],[2,10],[-2,6],[-2,3],[-2,3],[7,5],[14,3],[7,0],[11,2],[8,2],[1,3],[-3,5],[-3,7],[-12,1],[-4,2],[5,11],[-1,3],[-1,4],[-2,7],[1,9],[2,5],[0,5],[-1,10],[1,9],[2,4],[4,4],[5,2],[4,0],[3,-2],[2,-4],[-1,-4],[-3,0],[0,-1],[3,-6],[5,-6],[4,1],[4,4],[5,4],[6,3],[4,7],[3,4],[4,1]],[[2985,3548],[-6,-2],[-14,-1],[-5,1],[-7,0],[-13,3],[-19,4],[-19,7],[-11,4],[-3,2],[-9,5],[-6,5],[-1,11],[-5,-1],[-10,-4],[-12,-3],[-7,0],[-3,2],[-4,12],[-3,4],[-5,1],[-6,2],[-3,3],[-1,4],[3,5],[3,3],[0,21],[-2,8],[-1,6],[-5,8],[-4,5],[-6,5],[-10,4],[-8,2],[-10,-3],[-4,1],[-4,15],[-3,3],[-18,6],[-8,1],[-10,-2],[-5,-2],[-5,3],[-7,3],[-6,3],[-9,0],[-5,-2]],[[3995,2730],[-1,-2],[-11,-8],[-2,-4],[3,-4],[4,-3],[2,-4],[2,-10],[6,-3],[11,-7],[9,-5],[17,4],[5,-3],[8,-2],[7,-1],[3,-1],[2,-2],[0,-2],[0,-2],[10,-1],[5,-1],[16,2],[5,1]],[[139,2908],[15,17],[7,8],[12,19],[7,14],[6,15],[5,12],[1,2],[4,4],[6,4],[10,4],[17,1],[12,0],[2,0],[8,-2],[20,-9]],[[3924,2786],[-1,3],[1,3],[3,2],[12,2],[14,4],[5,2],[4,2],[5,4],[3,0],[13,-5],[4,-4],[2,-10],[2,-3],[-2,-11],[-7,-24],[2,-9],[6,-7],[5,-5]],[[2721,3721],[2,2],[8,5],[7,5],[3,4],[-1,6],[-11,8],[-6,4],[-2,3],[2,9],[2,8],[-2,4],[-1,2],[-1,10],[-5,11],[-4,7],[-2,8],[0,9],[6,13],[-2,5],[-7,5],[-21,9],[-21,6],[-8,0],[-5,0],[-6,-5],[-4,-7],[-5,-1],[-9,3],[-6,5],[-5,9],[-3,12],[-2,4],[1,3],[2,3],[6,2],[1,3],[-1,3],[-5,5],[-5,6],[-7,12],[1,7],[2,10],[-1,5]],[[2721,3721],[-5,0],[-7,2],[-2,4],[-1,0],[-5,-2],[-10,-3],[-17,-8],[0,-2],[11,-8],[3,-3],[1,-1]],[[3087,3337],[3,-4],[6,-5],[5,-5],[4,-2],[22,-6],[2,-2],[-3,-11],[-1,-6],[9,-14],[6,-11],[0,-4],[-2,-4],[-8,-8],[-9,-6],[-6,0],[-5,-1],[-4,-2],[-5,-9],[-6,-2],[-8,-1],[-7,6],[-6,5],[-2,3],[-1,6],[-3,4],[-7,-2],[-9,-1],[-11,-1],[-2,-1],[0,-3],[3,-5],[2,-7],[1,-10],[3,-6],[1,-2],[16,-19],[5,-4],[1,-3],[-2,-7],[-3,-8],[1,-7],[5,-7],[5,-5],[-5,-7],[-2,-7],[3,-4],[-2,-11],[2,-2],[3,-1],[5,1],[5,3],[4,0],[2,-1],[4,9],[3,1],[6,-2],[11,-16],[10,-14],[2,-3],[2,-1],[10,-7],[6,-5],[9,2],[12,0],[7,-4],[4,-3],[15,-11],[6,0],[4,-3],[2,-7],[-2,-8],[0,-4],[7,0],[13,-6],[12,-4],[6,-2],[7,-3],[6,-5],[11,-7],[10,-6],[3,-7]],[[0,3940],[7,-6],[3,-5],[3,-5],[4,-4],[6,-2],[8,-6],[4,-4],[9,-9],[8,-4],[32,-6],[17,-3],[6,-1],[13,4],[16,0],[6,0],[20,18],[7,6],[12,3],[7,7],[11,9],[14,8],[12,8],[10,4],[17,11],[11,4],[10,-1],[14,-12],[12,-11],[3,-5],[-6,-4],[-11,-5],[-2,-3],[0,-4],[0,-4],[1,-3],[14,-7],[2,-4],[0,-4],[-2,-3],[-3,-1],[-9,-2],[-8,-2],[-3,-3],[-3,-2],[1,-4],[2,-3],[17,-9],[2,-4],[3,-5],[4,-3],[7,0],[3,-2],[16,-18],[4,-1],[19,4],[2,0]],[[2363,4022],[-6,0],[-22,-4],[-5,1],[-3,6],[-3,5],[-6,3],[-6,1],[-3,2],[0,3],[1,3],[0,1],[16,11],[13,10],[1,1],[2,2],[2,3],[0,2],[-10,4],[-1,2],[2,2],[0,2],[-7,7],[-7,7]],[[2307,4096],[-2,-6],[-3,-3],[-14,-7],[-12,-5],[-21,-9],[-6,-2],[-3,0],[-4,2],[-12,9],[-8,3],[-5,-3],[-4,-5],[0,-8],[-5,-5],[-5,-2],[9,-24],[-1,-3],[-6,-1],[5,-9],[-5,-1],[-10,2],[-15,1],[-27,-4],[-2,-1],[-1,-2],[2,-2],[13,0],[13,1],[3,-2],[1,-3],[-2,-2],[-4,0],[-9,-2],[-1,-2],[-1,-2],[4,-5],[3,-3],[1,-2],[-2,-2],[-2,-1],[-3,3],[-2,-1],[-1,-2],[0,-2],[-3,-2],[-4,1],[-4,-1],[-3,-10],[-2,-10],[-7,-8],[-4,-2],[-6,-1],[-9,1],[-5,1],[-15,1],[-16,3],[-17,3],[-16,-6],[-5,-4],[-3,-4],[-3,-1],[-7,-23],[1,-2],[4,-2],[20,-5],[3,-2],[1,-2],[1,-10],[2,-1],[6,-2],[10,0],[8,1],[8,-1],[5,-2],[3,-3],[1,-4],[-9,-22],[1,-8],[2,-12],[6,-9],[9,-8],[8,-6],[1,-3],[1,-4],[-1,-5],[-5,-9],[-5,-7],[-6,-3],[-8,-9],[-6,-12],[-14,-15],[-4,-8],[-2,-24],[-3,-8]],[[3924,2786],[-8,1],[-8,1],[-7,-1],[-16,-6],[-5,-1],[-7,1],[-8,0],[-16,0],[-13,1],[-11,10],[-8,3],[-8,4],[-9,2],[-3,5],[-2,2],[-7,1],[-6,-2],[-3,-12],[-3,-2],[-7,-1],[-7,3],[-10,6],[-4,7],[-4,2],[-5,-3],[0,-9],[-1,-6],[-7,-2],[-3,1],[-3,7],[-8,14],[-7,9],[-7,5],[-25,0],[-18,2],[-8,2],[-3,6],[3,11],[3,9],[0,2],[-3,1],[-5,1],[-19,-6],[-6,1],[-3,2],[-4,1],[-4,3],[-2,4],[-17,9],[-5,5],[-9,6],[-7,5],[-5,12],[-4,12],[-3,7],[-7,3],[-8,3],[-13,-6],[-11,-4],[-8,0],[-12,12],[-9,13],[-11,12],[-7,6],[-13,0],[-14,7],[-20,15],[-14,11],[-24,12],[-6,5],[-2,4],[-3,9],[-5,8],[-17,4],[-20,2],[-20,-5],[-15,-24],[-7,-5],[-6,-1],[-5,6],[-4,7],[-4,2],[-6,-1],[-5,-3],[-3,-3],[-12,-12],[-6,-4],[-6,-5],[-14,-17],[-7,-16],[-6,-15],[0,-11],[-2,-12],[-6,-7],[-3,-2],[-5,-11],[-3,-12],[2,-4],[7,-6],[7,-5],[9,-6],[9,-5],[5,-1],[2,3],[2,3],[6,-1],[8,-6],[5,-4],[2,-1],[13,-8],[11,-5],[14,-8],[4,-4],[3,-5],[6,-7],[16,-11],[14,-8],[11,-7],[8,-5],[4,1],[5,3],[4,1],[4,-1],[7,-4],[16,-11],[15,-8],[16,1],[4,-1],[4,-8],[2,-7],[18,-6],[12,-2],[13,-4],[7,-3],[7,4],[2,3],[6,2],[9,-1],[18,-6],[7,-2],[7,6],[11,3],[6,3],[13,-7],[23,-8],[11,-4],[3,-5],[1,-5],[0,-11],[3,-5],[23,-12],[8,-4],[6,-2],[3,0],[3,-2],[2,-6],[1,-2],[5,-1],[5,-1],[14,5],[11,5],[7,-1],[5,-5],[0,-7],[3,-7],[5,-4],[6,0],[14,5],[11,-4],[10,-1],[11,-3],[5,-2],[11,-6],[15,-6],[5,1],[23,11],[2,-1],[5,-11],[7,-4],[11,-3],[12,6],[9,-2],[11,0],[10,3],[9,0],[14,-5],[2,1],[3,4],[5,15],[5,14],[-1,8],[-4,13],[-11,15],[0,5],[3,28],[4,15],[4,8],[3,11],[1,5],[0,4],[-4,3]],[[1545,4096],[4,-9],[7,-21],[9,-14],[10,-7],[7,-14],[6,-29],[3,-6],[4,-4],[12,-8],[23,-14],[14,-9],[21,-13],[19,-12],[20,-19],[4,-3],[17,-10],[19,-11],[14,3],[20,-16],[8,-6],[3,-2],[15,-7],[23,-13],[30,-19],[19,-11],[6,-1],[5,0],[5,2],[6,2],[11,-2],[11,-5],[7,-3],[8,-5],[7,-5],[5,-2],[17,-4],[3,-2],[1,-3],[1,-3],[-10,-14],[-1,-19],[0,-14],[1,-11]],[[2667,3279],[5,-4],[12,1],[9,-2],[4,1],[3,-1],[-2,-15],[2,-9],[2,-2],[9,-4],[19,1],[10,-5],[12,-4],[6,-6],[3,-4],[-1,-6],[-6,-8],[-11,-3],[-6,-2],[-30,-14],[-9,-6],[-8,-7],[-2,-5],[-2,-5],[7,-19],[1,-6],[-6,-20],[-1,-8],[2,-5],[6,-2],[2,-5],[0,-3],[-11,-8],[-12,-6],[-3,0],[-12,-13],[-19,-25],[-10,-8],[0,-4],[-1,-4],[4,-7],[1,-6],[-5,-6],[-7,-7],[-13,-6],[-18,-6],[-8,-4],[-5,-16],[-6,-16],[-2,-6],[-10,-19],[-16,-28],[-4,-6],[-25,-13],[-26,-14],[-5,-6],[-5,-13],[-5,-14],[-5,-8],[-16,-17],[-6,-13],[-1,-8],[-14,-5],[-16,-4],[-23,-2],[-10,-2],[-28,-12],[-7,0],[-5,2],[-4,4],[-4,6],[-2,10],[-6,5],[-7,4],[-8,0],[-7,-4],[-7,-5],[-5,-4],[-4,-4],[-9,-16],[-14,-22],[-15,-16],[-6,-5],[-4,-4],[-5,-5],[-3,-5],[-3,-17],[-3,-15],[1,-3],[3,-3],[8,-4],[13,-8],[15,-4],[14,0],[5,-3],[3,-5],[1,-3],[-1,-13],[-1,-13],[-5,-14],[0,-8],[2,-8],[15,-21],[5,-2],[11,0],[6,0],[5,2],[5,-1],[3,-3],[0,-4],[0,-20],[4,-9],[9,-13],[7,-14],[7,-17],[6,-13],[3,-7],[-4,-4],[-3,-3],[0,-5],[1,-5],[-1,-3],[3,-5],[4,-1],[0,-3],[-6,-4],[-5,0],[-4,-2],[-7,-8],[-4,-2],[-4,0],[-5,0],[-8,4],[-2,5],[1,5],[-2,4],[-5,-1],[-18,-6],[-18,-6],[-3,-5],[-4,-5],[-7,-2],[-12,-1],[-8,1],[-8,5],[-7,5],[-10,0],[-19,0],[-11,0],[-6,1],[-6,-1],[-7,2],[-4,-3],[-3,0],[-3,5],[-1,0],[-2,0],[-2,-2],[-1,-3],[-1,-30],[-12,0],[-9,1],[-10,-2],[-9,-2],[-4,-3],[-6,-4]],[[313,2853],[-15,0],[-20,-1],[-17,0],[-18,0],[-8,9],[-3,11],[-3,10],[-8,16],[-26,3],[-15,2],[-23,3],[-18,2]],[[0,3670],[2,-2],[1,-4],[0,-6],[0,-7],[2,-6],[3,-4],[2,-2],[4,0],[5,-1],[3,-4],[10,-30],[1,-4],[4,-1],[7,0],[7,-3],[8,-5],[7,-9],[5,-2],[15,2],[20,-2],[10,-4],[-1,-3],[-8,-4],[-13,-3],[-3,-7],[-3,-8],[1,-5],[3,-5],[9,-11],[1,-3],[1,-5],[2,-4],[-2,-7],[-8,-5],[-11,-5],[-22,-23],[-2,-5],[0,-13],[-2,-4],[-7,0],[-5,0],[-1,-4],[-3,-7],[-2,-5],[8,-13],[1,-7],[-1,-6],[-7,-11],[-5,-8],[1,-1],[6,-3],[18,-24],[6,-8],[8,2],[3,0],[2,-2],[1,-2],[0,-4],[-2,-5],[10,-3],[4,-5],[11,-19],[0,-5],[-6,-9],[0,-6],[1,-5],[2,-2],[17,-1],[7,-2],[18,-9],[20,-15],[16,-12],[14,-10],[15,1],[4,-2],[4,-3],[4,-9],[9,-18],[7,-7],[11,-15],[11,-14],[-7,-19],[-7,-20],[0,-26],[0,-14],[14,-1],[16,-1],[0,-16],[0,-17],[0,-19],[5,-1],[7,-4],[4,-6],[4,-3],[4,-1],[5,-3],[5,-5],[2,-5],[-2,-2],[1,-6],[4,-7],[4,-3],[6,-4]],[[1480,3560],[-2,4],[0,5],[2,5],[-1,11],[-4,8],[-5,3],[1,2],[2,6],[3,4],[0,9],[-4,10],[-1,15],[1,13],[-5,7],[-37,1],[-34,-1],[-1,2],[-13,17],[-11,13],[-10,8],[-24,10],[-12,4],[-9,7],[-8,9],[-2,11],[-2,3],[-2,3],[-3,2],[-3,-1],[-27,13],[-11,4],[-11,-3],[-5,-1],[-9,4],[-10,-5],[-5,0],[-6,1],[-5,2],[-14,11],[-11,5],[-9,3],[-16,5],[-17,2],[-9,2],[-7,2],[-1,2],[0,4],[-1,6],[-2,4],[-4,5],[-6,4],[-11,-1],[-15,0],[-12,4],[-10,1],[-11,-1],[-10,0],[-6,-3],[-4,-3],[-3,-9],[-2,-2],[-4,-1],[-5,1],[-11,0],[-19,2],[-24,0],[-18,-5],[-14,-7],[-14,-8],[-16,-12],[-5,-6],[-9,-22],[-4,-3],[-6,-2],[-5,-1],[-11,-3],[-15,-5],[-9,-3],[-26,2]],[[46,4065],[-2,-2],[0,-4],[3,-1],[3,2],[1,3],[-2,1],[-3,1]],[[0,866],[21,-7],[30,-11],[28,-10],[39,-15],[32,-12],[25,-9],[5,-3],[30,0],[30,0],[31,0]],[[0,1742],[13,0],[5,-1],[4,-1],[15,-9],[12,-2],[23,-2],[25,-3],[22,-2],[19,2],[15,2],[4,0],[5,-6],[9,-13],[9,-12],[15,-1],[10,5],[11,6],[6,5],[8,21],[5,13],[11,15],[10,12],[12,17],[7,9],[14,18],[13,7],[25,13],[25,14],[16,8],[14,4],[23,4],[27,4],[27,4],[28,4],[33,5],[22,3],[28,4],[23,3],[21,4],[21,3]],[[635,1899],[4,-10],[4,-10],[4,-10],[4,-10],[4,-10],[4,-10],[4,-10],[4,-10],[4,-10],[4,-10],[4,-10],[4,-10],[5,-10],[4,-10],[4,-10],[4,-10],[4,-10],[6,-3],[4,-9],[5,-13],[6,-14],[5,-13],[6,-13]],[[927,2269],[7,-11],[5,-9],[8,-13],[8,-14],[8,-13],[6,-10],[-3,-10],[-4,-11],[-3,-11],[-3,-11],[-4,-11],[-3,-11],[-3,-11],[-4,-11],[-3,-12],[-3,-11],[-4,-11],[-3,-11],[-3,-11],[-4,-11],[-3,-11],[-3,-11],[-4,-11],[-4,-13],[-10,-4],[-15,-6],[-16,-5],[-15,-6],[-16,-6],[-16,-6],[-15,-5],[-16,-6],[-16,-6],[-15,-5],[-16,-6],[-16,-6],[-15,-6],[-16,-5],[-16,-6],[-15,-6],[-16,-6],[-13,-4]],[[927,2269],[-6,-8],[-1,0],[-7,1],[-3,0],[-7,1],[-11,2],[-13,2],[-17,2],[-18,2],[-20,3],[-20,3],[-20,2],[-20,3],[-18,2],[-17,3],[-14,1],[-10,2],[-7,1],[-3,0],[-7,1],[-4,6],[-5,6],[-5,7],[-5,6],[-5,7],[-5,6],[-6,7],[-5,6],[-5,7],[-5,7],[-5,6],[-5,7],[-5,6],[-5,7],[-5,6],[-5,7],[-5,6],[-3,5],[-2,5],[0,13],[0,2]],[[2328,4096],[4,-5],[3,1],[0,2],[-2,2]],[[1510,2519],[2,8],[3,30],[2,11],[0,6],[0,2],[6,5],[2,2],[2,15],[3,17],[3,6],[3,2],[19,8],[4,5],[10,-2],[1,2],[1,5],[5,7],[6,5],[5,2],[18,3],[11,5],[3,0],[28,-1],[6,2],[1,1],[1,17],[5,3],[1,2],[-2,12],[1,7],[6,5],[0,3],[-4,5],[-6,4],[-2,1],[-23,-3],[-10,1],[-4,2],[-1,1],[1,4],[0,5],[3,9],[1,5],[-2,31],[-4,20],[2,20],[-1,4],[0,1],[-3,0],[-14,-2],[-12,13],[-7,5],[-21,7],[-9,1],[-13,5],[-12,12],[-12,13],[-5,8],[-5,13],[-16,26],[0,7],[-2,4],[-15,17],[-11,12],[-17,19]],[[1442,2984],[24,27],[21,24],[20,23],[21,24],[2,8],[0,16],[-5,21],[-9,10],[-28,4],[-22,3],[-23,3],[-3,1],[-3,17],[2,7],[-2,14],[0,11],[4,18],[0,8],[-11,35],[-6,20],[-6,20],[-2,6],[0,8],[15,19],[4,4],[9,9],[5,5],[-1,3],[-9,2],[-14,0],[-7,3],[-6,5],[-2,8],[3,13],[-3,25],[7,12],[7,9],[22,1],[-7,10],[-4,6],[-3,2],[-1,2],[2,3],[5,1],[4,3],[7,5],[3,2],[1,5],[3,4],[4,5],[4,6],[-1,6],[3,8],[2,5],[2,5],[-2,6],[-2,5],[-1,7],[4,1],[5,2],[0,5],[3,7],[2,5],[3,4],[0,4],[-2,6]],[[1442,2984],[35,-11],[27,-8],[43,-13],[34,-11],[10,-2],[99,9],[37,-6],[11,-4],[2,2],[5,5],[9,4],[11,4],[12,2],[16,0],[12,0],[8,-1],[16,1],[8,1],[26,8],[18,5],[27,7],[20,6],[5,3],[5,6],[2,4],[-6,8],[-1,7],[4,8],[2,13],[0,18],[-1,10],[5,20],[5,11],[9,5],[6,3],[3,2],[2,3],[10,15],[9,7],[9,4],[9,0],[8,-6],[16,-3],[15,2],[13,4],[6,4],[7,3],[-1,3],[-8,3],[-4,5],[-2,5],[5,3],[10,1],[25,13],[10,9],[3,4],[5,0],[10,-4],[11,-1],[7,4],[7,1],[7,-5],[3,-5],[7,-6],[8,-1],[9,3],[10,7],[10,10],[8,10],[-2,31],[-1,19],[4,9],[6,6],[4,10],[0,8],[5,7],[4,18],[6,5],[13,3],[19,2],[16,8],[15,9],[2,8],[-5,9],[-8,16],[-7,10],[-17,18],[2,11],[9,5],[24,-8],[6,-2],[8,-1],[22,1],[18,3],[18,6],[4,7],[0,9],[0,7],[0,9],[-6,6],[-4,6],[-2,4],[5,3],[5,4],[4,8],[10,10],[6,9],[6,4],[9,6],[6,8],[2,5],[5,5],[2,4],[-1,2],[-3,4],[-3,4],[0,4],[3,4],[2,4],[-1,5],[-1,9],[-5,5],[-3,12],[-6,12],[-2,4],[-5,6],[-11,6],[-4,4],[5,8],[7,5],[14,13],[7,8],[7,6],[9,-1],[5,0],[4,6],[9,5],[16,10],[6,6],[8,4],[7,0],[10,3],[9,3],[8,3],[13,1],[21,1],[11,2],[27,1],[29,1]],[[2155,4096],[-1,-2],[-7,-8],[-3,-5],[0,-6],[4,-6],[0,-5],[-2,-4],[-7,-1],[-8,1],[-11,4],[-12,6],[-4,3],[-6,6],[1,5],[3,10],[0,2]],[[1009,2605],[3,1],[4,-3],[1,-10],[-2,-9],[0,-11],[-1,-5],[4,-5],[6,-2],[3,1],[1,2]],[[2434,3996],[-5,-1],[-2,-2],[4,-3],[4,-1],[3,4],[0,5],[-2,-1],[-2,-1]],[[2072,3715],[0,-3],[6,-7],[12,-10],[10,-2],[13,7],[4,0],[2,2],[2,5],[8,5],[14,5],[8,4],[3,3],[5,1],[6,-1],[3,1],[2,3],[1,2],[3,1],[3,1],[4,-1],[8,-6],[12,-11],[8,-5],[3,1],[5,3],[5,6],[2,8],[-3,11],[2,9],[6,6],[12,5],[18,1],[11,-1],[4,-3],[6,-2],[6,0],[7,3],[5,9],[1,10],[-5,12],[1,4],[2,1],[7,5],[10,9],[9,11],[9,15],[11,8],[13,4],[15,-4],[19,-11],[7,-14],[-5,-16],[0,-9],[4,-2],[6,1],[9,2],[6,0],[3,-2],[-1,-4],[-3,-7],[-3,-20],[-3,-16],[-2,-17],[-2,-14],[4,-11],[5,-17],[6,-11],[6,-4],[6,-1],[7,1],[12,7],[20,13],[18,8],[27,5],[10,14],[12,10],[29,14],[15,5],[9,1],[12,-2],[2,-1],[2,-1],[6,-1],[1,-4],[-1,-5],[-6,-4],[-2,-3],[2,-2],[9,-1],[18,6],[12,3],[8,1],[3,4],[5,5],[8,0],[9,-2],[7,-2],[13,2],[6,-4],[9,-7],[4,-5],[2,-1]],[[1959,3733],[28,2],[22,-3],[11,-10],[12,-3],[11,5],[7,1],[2,-3],[6,-2],[8,1],[5,-3],[1,-3]],[[1480,3560],[8,1],[3,-3],[4,-5],[11,-9],[7,-2],[9,-2],[11,1],[9,2],[4,0],[10,-7],[11,-9],[3,-4],[2,-6],[3,-2],[8,6],[7,2],[6,-1],[7,0],[7,2],[3,1],[12,8],[12,6],[7,4],[2,12],[3,7],[5,4],[-2,5],[-2,4],[-2,5],[2,3],[5,1],[11,0],[19,6],[17,5],[15,4],[7,1],[6,-1],[3,2],[1,4],[4,5],[8,3],[16,8],[14,11],[5,9],[3,13],[7,19],[7,22],[3,9],[3,7],[12,7],[13,4],[19,1],[23,0],[5,12],[3,10],[4,5],[5,4],[2,1],[12,-6],[19,-9],[22,-5],[11,-2],[5,0]],[[2331,3977],[-5,0],[-3,4],[-3,3],[-1,2],[2,0],[6,-1],[9,-1],[3,-1],[0,-2],[-8,-4]],[[2386,3989],[-1,-2],[-4,-1],[-9,1],[-4,1],[3,8],[0,1],[-1,1],[-2,1],[-4,3],[-1,5],[1,4],[3,2],[2,0],[5,-7],[4,-2],[9,-1],[-4,-7],[3,-7]],[[4096,2525],[-12,3],[-3,0],[-2,1],[-1,3],[-1,4],[3,19],[-2,28],[2,10],[-10,23],[-4,4],[-5,0],[-3,-3],[-1,-5],[2,-6],[-4,-7],[-8,-2],[-8,2],[-8,3],[-9,7],[-7,10],[-1,11],[-3,6],[-4,4],[-4,1],[-2,-1],[-3,-4],[2,-3],[3,-6],[-1,-3],[-2,-1],[-4,2],[-7,-1],[-6,3],[-3,0],[-4,1],[0,6],[-6,8],[-9,8],[-9,6],[-4,-1],[-3,-6],[1,-2],[3,-1],[5,-4],[1,-3],[-1,-3],[-6,-6],[-4,-6],[-9,-7],[-7,-10],[-2,-6],[-3,-7],[-1,-6],[2,-5],[3,-3],[10,-2],[10,-9],[8,-13],[5,-4],[8,-4],[16,0],[2,-4],[3,-9],[3,-3],[8,-4],[1,-3],[-2,-4],[-4,-3],[-7,-2],[-6,0],[-6,1],[-10,1],[-11,0],[-7,-23],[-6,-8],[-3,0],[-8,4],[-3,-1],[-10,-20],[-1,-5],[-1,-3],[5,-8],[6,-7],[7,-2],[6,2],[5,-3],[5,-6],[9,-5],[13,-2],[8,-5],[1,-4],[-1,-5],[-1,-11],[-1,-7],[-7,-18],[-5,-15],[2,-7],[2,-3],[2,-2],[5,-6],[4,-5],[-3,-15],[2,-4],[7,-2],[9,-2],[2,-2],[-7,-15],[2,-10],[3,-10],[2,-15],[0,-2],[0,-4],[4,-12],[8,-24],[0,-8],[0,-10]],[[1023,2529],[-2,-4],[-1,-5],[3,0],[4,2],[0,5],[-1,2],[-3,0]],[[3330,3069],[-3,-5],[-5,-4],[-6,-2],[-4,1],[-1,5],[0,10],[3,2],[5,0],[6,-2],[4,-2],[1,-3]],[[4034,3178],[-3,-1],[-3,-4],[-4,-7],[-6,-7],[-8,-1],[-6,1],[-4,2],[-1,3],[1,4],[-2,3],[-7,0],[-8,-1],[-7,1],[-7,7],[-3,5],[3,3],[9,-1],[5,-3],[3,-1],[2,2],[5,4],[9,3],[14,0],[13,-4],[5,-5],[0,-3]],[[3480,3145],[-3,0],[-10,3],[-9,2],[-7,0],[-5,3],[-2,2],[5,1],[3,2],[1,2],[3,1],[8,2],[4,1],[4,-6],[6,-4],[7,-5],[5,-4],[-1,-2],[-3,0],[-6,2]],[[3044,3392],[4,4],[16,-16],[9,-7],[18,-1],[2,-1],[-6,-3],[-16,-2],[-17,17],[-10,9]],[[3305,3062],[-2,-2],[-3,-1],[-4,1],[-5,2],[-3,3],[2,2],[4,4],[0,8],[1,5],[3,1],[4,-3],[2,-2],[0,-3],[-4,-3],[2,-5],[3,-4],[0,-3]],[[0,4059],[1,0],[8,-2],[13,-8],[6,-2],[6,-1],[6,-4],[9,-7],[6,-5],[3,-4],[2,-4],[0,-2],[-1,-2],[-4,-3],[-6,-1],[-5,0],[-9,-1],[-7,0],[-3,1],[-2,4],[-3,10],[-3,9],[-3,1],[-3,3],[-2,3],[-5,3],[-4,2],[0,10]],[[727,4096],[158,0],[0,-3],[-1,-6],[-2,-2],[-3,-1],[-10,-3],[-16,4],[-5,-4],[2,-6],[4,-8],[-5,0],[-4,0],[-8,3],[-10,-1],[-20,-6],[-9,2],[-7,8],[-7,7],[-8,1],[-9,-4],[-9,-1],[-12,3],[-5,2],[-7,6],[-6,7],[-1,2]],[[389,4096],[332,0],[-3,-12],[-3,-17],[-6,-14],[-5,-15],[1,-18],[5,-17],[9,-14],[6,-8],[6,-5],[-7,12],[3,9],[14,-1],[13,-2],[11,0],[5,-2],[3,-3],[-3,-8],[-1,-8],[2,-8],[6,-3],[4,-3],[2,-6],[-10,-2],[-9,1],[-8,2],[-6,5],[-10,-18],[-1,-8],[3,-8],[5,5],[5,2],[7,0],[12,-3],[6,-3],[7,-6],[8,-1],[1,-6],[1,-5],[8,-8],[5,-7],[2,-8],[-1,-13],[-2,-12],[-1,-10],[1,-11],[0,-12],[-3,-24],[0,-12],[2,-26],[5,-25],[1,-7],[4,-17],[6,-23],[0,-5],[0,-5],[-5,-3],[-5,-1],[-13,1],[-8,4],[13,2],[9,5],[-14,0],[-36,-6],[-108,-25],[-39,0],[-58,12],[-17,7],[-36,21],[-18,13],[-11,19],[-4,4],[-4,3],[-14,4],[-23,3],[-23,2],[-9,2],[-18,8],[-9,7],[-6,11],[-5,11],[-3,13],[-2,13],[-3,24],[0,5],[-1,38],[0,2],[6,12],[4,12],[4,5],[9,-4],[0,-6],[1,-3],[4,3],[3,4],[7,22],[4,4],[4,2],[1,5],[-4,10],[0,11],[8,23],[6,25],[6,10],[11,6],[11,4],[12,3],[20,0],[20,-4],[-5,13],[-5,5],[-6,5],[-6,2],[-12,5],[-12,0],[-7,0],[-6,3],[-14,11],[-9,8],[-17,18]],[[730,3903],[2,-15],[5,-14],[1,4],[-5,24],[4,6],[-4,0],[-3,-5]],[[4096,2204],[0,-2204],[-4096,0],[0,185],[75,46],[21,16],[75,81],[58,69],[42,52],[23,46],[38,54],[37,68],[4,23],[12,37],[11,22],[20,30],[9,18],[8,19],[9,30],[22,24],[17,31],[3,11],[10,22],[19,26],[4,14],[13,18],[1,29],[4,21],[2,33],[3,8],[9,5],[16,5],[6,-3],[10,-2],[1,4],[-2,5],[-7,2],[-9,6],[-1,-3],[0,-5],[-11,-4],[-3,1],[2,3],[4,1],[1,5],[2,6],[1,6],[-2,42],[-3,26],[5,17],[7,15],[1,9],[2,8],[-5,2],[-37,14],[-14,-4],[-10,-12],[-5,-10],[-33,-20],[-42,-7],[-24,-11],[-29,-7],[-12,-2],[-3,0],[-21,7],[-9,0],[-12,-4],[-38,-15],[-28,-2],[-22,6],[-6,0],[-16,-8],[-23,-17],[-38,-18],[-9,-1],[-19,5],[-21,1],[-19,4],[-11,-3],[-32,-16],[-31,-18],[0,234],[4,1],[6,12],[5,6],[21,7],[13,17],[11,10],[24,6],[26,3],[27,-1],[14,2],[12,3],[17,8],[24,6],[15,5],[21,20],[20,10],[5,6],[7,3],[26,-5],[16,1],[13,4],[7,0],[10,8],[14,14],[7,9],[3,10],[5,4],[23,14],[18,9],[33,10],[23,2],[16,8],[17,11],[45,10],[27,9],[26,11],[7,4],[6,6],[8,2],[12,8],[11,5],[12,7],[0,10],[-4,20],[6,21],[8,13],[11,9],[12,8],[46,18],[19,8],[29,3],[15,10],[16,6],[10,9],[29,3],[17,-1],[9,-2],[9,-4],[27,7],[10,12],[9,16],[2,6],[-1,7],[-4,6],[1,8],[21,25],[12,5],[35,5],[25,1],[10,4],[15,18],[10,42],[15,16],[12,8],[20,7],[23,4],[23,2],[5,2],[7,4],[-2,13],[-2,10],[0,18],[-5,18],[0,7],[3,12],[5,15],[4,17],[2,12],[7,10],[15,23],[6,2],[7,1],[-2,-9],[-2,-9],[6,-2],[7,-1],[11,2],[6,9],[14,31],[19,30],[16,18],[21,14],[6,7],[13,28],[13,17],[2,10],[11,17],[2,8],[2,12],[-2,9],[-11,4],[-15,3],[-10,8],[-10,13],[-11,18],[-15,16],[-4,10],[-7,10],[-7,7],[-5,12],[-18,12],[-7,0],[-10,-2],[-6,0],[-19,10],[-27,4],[-19,4],[-36,12],[-9,6],[-19,17],[-12,18],[-12,14],[-14,24],[-9,27],[-2,4],[-1,55],[-6,8],[1,6],[2,4],[4,5],[4,31],[0,10],[1,11],[-1,3],[-3,0],[-3,-4],[-4,-8],[-7,-1],[-3,1],[-3,-3],[-7,-14],[-1,-1],[-4,-14],[-8,-12],[-38,-29],[-8,-11],[-10,-9],[-2,-7],[-19,-19],[-32,-23],[-8,-10],[-3,-9],[-4,-6],[-4,-3],[-3,-7],[-4,-10],[-6,-8],[-8,-3],[-14,-8],[-24,-9],[-8,-1],[-43,3],[-27,5],[-35,0],[-12,-4],[-24,-12],[-12,-2],[-19,1],[-6,3],[-5,6],[-2,18],[-3,1],[-6,-1],[-4,5],[-2,4],[-3,-6],[-3,0],[-5,3],[-8,1],[-8,2],[6,14],[4,5],[0,4],[-7,-1],[-6,5],[11,3],[3,3],[10,22],[5,7],[2,9],[-1,10],[-4,13],[-4,11],[0,6],[-3,7],[4,16],[4,10],[-2,12],[-14,11],[-12,14],[-14,-7],[-10,-10],[-9,-26],[-3,-11],[-6,-12],[-3,-5],[-1,-4],[2,-22],[6,-29],[-1,-4],[-3,-6],[-7,8],[-5,9],[-10,12],[-5,22],[-4,12],[-16,14],[-4,6],[-5,13],[-5,9],[-5,12],[-4,15],[2,1],[4,0],[3,-2],[2,0],[6,21],[-3,9],[-7,5],[-7,7],[-2,9],[0,7],[2,2],[5,-3],[4,-1],[2,0],[-15,17],[-25,12],[-16,20],[-12,3],[-11,13],[-10,12],[6,6],[-8,3],[-6,3],[-16,8],[-10,9],[1,4],[2,4],[-2,9],[-4,7],[-13,17],[-9,22],[-3,10],[-5,9],[-4,9],[-2,6],[-3,7],[-8,14],[-6,8],[-8,23],[-1,6],[-3,8],[-5,3],[-6,-2],[-8,0],[-11,3],[0,2],[8,7],[14,13],[7,-2],[4,-2],[5,0],[-1,4],[-5,10],[-6,12],[-3,11],[0,4],[0,3],[9,3],[6,0],[19,-9],[9,-2],[9,3],[4,1],[7,5],[15,1],[3,3],[5,6],[-1,12],[-2,8],[3,7],[10,6],[-3,5],[12,0],[9,-3],[2,-6],[-6,-4],[-8,3],[-4,-1],[-5,-2],[3,-4],[2,-3],[34,-17],[12,-11],[39,18],[8,-1],[5,-15],[3,-12],[6,-5],[14,-20],[15,-13],[9,-12],[2,-8],[-2,-13],[3,-7],[11,-3],[7,-5],[0,-6],[-3,-8],[2,-5],[14,-9],[4,-6],[3,-21],[3,-8],[13,-21],[1,-9],[21,-22],[7,-5],[7,-2],[16,0],[17,-2],[15,-11],[25,-10],[12,-12],[3,-10],[5,-7],[27,-18],[32,-14],[11,-6],[4,-9],[18,-13],[11,-2],[23,3],[16,-4],[25,-10],[11,-8],[10,-1],[13,5],[23,17],[13,6],[12,-1],[8,6],[7,10],[5,4],[27,6],[16,11],[15,5],[7,1],[34,-8],[7,-3],[9,-10],[7,-9],[5,-10],[3,-12],[3,-31],[9,-21],[0,-13],[5,-11],[7,-13],[36,-7],[6,-7],[13,4],[7,-5],[17,-5],[10,-1],[20,1],[24,-4],[23,-14],[16,2],[21,5],[14,-8],[19,0],[7,-4],[12,2],[34,-7],[10,12],[7,-2],[2,-8],[5,-5],[40,-10],[12,-4],[16,-4],[7,5],[4,4],[19,-5],[15,-1],[17,2],[5,5],[4,2],[5,-2],[6,-7],[7,2],[5,5],[11,5],[9,1],[32,-4],[14,3],[10,-2],[19,-2],[1,9],[5,5],[15,3],[20,-4],[4,1],[7,5],[6,-3],[2,-4],[36,-10],[4,-3],[6,-2],[11,13],[26,0],[31,6],[25,-2],[19,7],[32,4],[8,0],[7,-2],[6,0],[-5,4],[-5,2],[-21,-1],[3,6],[5,4],[10,1],[9,-3],[10,-9],[3,-10],[12,-16],[1,-11],[-2,-18],[1,-7],[37,-7],[6,-4],[11,-38],[1,-11],[1,-9],[5,-8],[5,-3],[3,-2],[2,-2],[2,-8],[6,-6],[7,4],[1,-5],[1,-6],[14,2],[4,7],[8,-7],[5,-1],[3,3],[3,-3],[4,-7],[3,5],[2,6],[2,-13],[4,-13],[10,2],[7,8],[7,5],[13,6],[12,4],[-13,-10],[-16,-12],[-3,-6],[10,-21],[10,-17],[16,-14],[38,-20],[39,-9],[7,1],[10,9],[24,9],[7,1],[5,1],[8,-3],[3,3],[3,6],[3,5],[5,1],[2,-5],[0,-4],[-6,-3],[-11,-16],[-13,-24],[-9,-2],[-7,0],[-17,-10],[-8,1],[-7,-6],[-9,1],[-25,-13],[-4,2],[-4,4],[-6,8],[-7,2],[-6,-6],[-1,-9],[3,-9],[17,-21],[18,-15],[14,-16],[19,-17],[26,-33],[8,-9],[33,-25],[21,-10],[15,-3],[13,3],[34,13],[16,10],[40,19],[6,6],[16,31],[0,13],[-4,7],[-4,4],[-6,2],[-6,3],[3,4],[2,6],[6,6],[8,5],[3,6],[2,10],[-5,5],[-6,3],[14,0],[11,-2],[12,3],[10,-2],[10,-3],[-9,-2],[-7,-1],[-7,-4],[-3,-18],[9,-2],[7,1],[-5,-3],[-4,-6],[-5,-18],[27,-1],[13,1],[12,5],[-8,-5],[-20,-8],[-8,-7],[-10,-9],[5,0],[6,1],[-4,-3],[-6,-7],[7,-19],[5,-5],[6,-1],[1,-4],[1,-13],[4,-12],[1,-16],[-1,-11],[-16,-48],[-4,-25],[1,-3],[2,-4],[3,-18],[6,-6],[-4,-7],[1,-4],[2,-5],[18,-8],[-16,2],[-1,-5],[1,-3],[0,-14],[3,-10],[6,4],[6,13],[3,-13],[-2,-9],[-8,-15],[-2,-10],[0,-4],[4,-6],[2,-21],[3,-11],[2,-16],[5,-19],[10,-29],[-1,-9],[8,-33],[9,-74],[11,-31],[2,-9],[12,-19],[7,-16],[4,-5],[9,0],[-5,-8],[4,-4],[3,-6],[7,-8],[-11,0],[7,-9],[6,-23],[8,-13],[5,-5],[12,-19],[5,-6],[5,-7],[4,-8],[2,-9],[6,-19],[0,-5],[3,-12],[10,-20],[6,-18],[1,-8],[0,-8],[8,-43],[3,-10],[6,-13],[7,-28],[23,-51],[3,-3],[7,-7],[10,-14],[9,-11],[11,-24],[8,-10],[11,-31],[7,-27],[15,-38],[3,-8],[7,-12],[-1,-4],[0,-8],[3,-6],[2,-1],[9,-9],[10,-39],[-3,-1],[-4,2],[0,16],[-3,12],[-5,9],[-4,1],[4,-25],[3,-22],[7,-22],[2,-3],[3,-2],[2,-2],[1,-7],[6,-19],[6,-6],[32,-44],[9,-9],[21,-17],[20,-7],[6,6],[17,6],[26,19],[6,13],[1,15],[5,23],[8,10],[13,11],[51,16],[21,-1],[18,-6],[-5,6],[-7,3],[-16,2],[-7,3],[-7,6],[-3,6],[2,11],[5,12],[24,35],[0,14],[5,8],[7,5],[13,2],[5,-1],[8,-2],[8,1],[7,2],[1,44],[0,43],[-1,7],[-4,7],[-9,-2],[5,6],[4,7],[-4,13],[2,11],[8,30],[11,25],[5,6],[10,16],[8,23],[10,67],[-5,8],[-16,9],[-5,8],[9,11],[7,-11],[3,-9],[4,-3],[-6,20],[0,9],[-2,8],[-7,20],[-3,16],[2,7],[3,6],[1,13],[-1,10],[-6,22],[-4,28],[4,25],[17,38],[9,9],[24,10],[5,-1],[7,-2],[4,-10],[3,1],[5,-2],[6,0],[1,5],[4,7],[9,8],[10,31],[4,7],[10,3],[29,-3],[4,-1],[35,16],[10,7],[7,11],[1,4],[2,7],[-1,5],[-4,5],[-3,6],[1,4],[7,12],[21,18],[35,18],[20,15],[17,18],[17,21],[7,7],[41,22],[7,11],[26,29],[13,20],[8,8],[5,8],[2,8],[41,38],[20,12],[0,3],[-6,2],[-13,-8],[-5,0],[-1,2],[8,14],[19,14],[4,-1],[4,-2],[1,-12],[-5,-2],[-1,-3],[7,-1],[26,10],[33,11],[5,2],[2,2],[1,5],[-6,6],[5,0],[7,-4],[6,8],[5,8],[23,14],[2,5],[-1,6],[7,11],[8,9],[5,8],[-4,4],[-4,23],[-4,14],[1,13],[9,12],[13,14],[9,4],[44,11],[13,8],[11,9],[10,18],[4,5],[5,7],[-6,6],[-7,3],[-5,4],[-1,12],[4,-11],[9,-4],[10,-8],[-2,-11],[-7,-24],[-4,-10],[6,-5],[12,-2],[2,8],[1,6],[2,-4],[13,-11],[12,5],[2,5],[-3,12],[6,29],[2,-5],[4,-1],[2,-2],[1,-4],[-4,-27],[0,-7],[2,-4],[3,-4],[8,8],[2,8],[5,-9],[5,-1],[8,1],[-1,11],[-2,7],[-7,11],[8,0],[2,15],[2,-8],[2,-14],[6,-9],[6,-6],[4,-1],[7,1],[9,10],[5,9],[0,12],[-3,18],[1,6],[6,-29],[2,-12],[0,-9],[5,4],[4,7],[8,4],[5,6],[4,11],[1,8],[-1,12],[2,10],[10,8],[-9,-16],[0,-11],[3,-8],[3,-10],[4,3]],[[3311,624],[24,18],[7,9],[5,10],[4,14],[4,15],[2,12],[-1,26],[-3,14],[-4,4],[-6,16],[-4,6],[-1,3],[1,3],[-2,4],[-21,33],[-1,3],[0,7],[-4,22],[-4,4],[-5,1],[-5,2],[-1,5],[1,5],[-2,6],[-17,27],[-3,2],[-4,2],[-2,5],[-2,6],[-16,28],[-31,28],[-11,15],[-7,2],[-9,-1],[-9,1],[-1,-2],[-1,-5],[2,-5],[6,-4],[19,-4],[12,-7],[4,-6],[-6,0],[-4,-2],[-6,3],[-5,4],[-10,4],[2,-12],[1,-13],[-2,-11],[-3,-12],[-13,-20],[0,-5],[2,-10],[-1,-5],[-8,-28],[-2,-11],[-2,-25],[-2,-4],[-3,3],[0,25],[-3,-11],[-1,-12],[5,-27],[3,-21],[6,-75],[8,-25],[5,-22],[8,-21],[16,-14],[21,-6],[21,3],[22,11],[31,11],[6,4]],[[3173,906],[-10,4],[2,-3],[4,-5],[8,-5],[-3,8],[-1,1]],[[3176,974],[-2,0],[-1,-1],[-1,-2],[1,-3],[4,-6],[6,1],[-5,4],[-2,7]],[[866,1255],[-30,11],[-24,-1],[-9,-3],[-5,1],[-12,7],[-9,1],[-10,-5],[-2,-3],[-1,-3],[-7,-7],[17,-11],[9,-8],[11,-3],[37,4],[13,9],[13,4],[3,4],[6,3]],[[1270,2051],[-6,16],[-9,-18],[-13,-16],[0,-13],[1,-1],[6,2],[5,5],[5,15],[11,10]],[[978,2668],[9,4],[5,0],[5,-3],[13,10],[8,12],[9,3],[-6,5],[-13,-2],[-15,-7],[-14,3],[-1,-1],[4,-8],[-2,-4],[-21,-10],[-17,-6],[-5,0],[0,-1],[2,-5],[2,-1],[8,0],[11,3],[12,7],[6,1]],[[294,2992],[-4,4],[-2,-1],[-2,-7],[-2,-1],[-1,-1],[1,-3],[-4,-5],[6,-13],[3,-5],[4,-1],[5,2],[6,7],[1,3],[0,6],[-11,15]],[[496,2618],[4,-13],[-2,-10],[7,-13],[2,-3],[3,8],[1,12],[0,12],[-5,8],[2,4],[-2,0],[-8,-1],[-2,-4]],[[858,2441],[3,0],[1,2],[-4,3],[-3,3],[-1,0],[-4,-3],[2,-3],[6,-2]],[[766,2440],[-4,-5],[-4,-2],[-12,-5],[6,-4],[6,1],[5,2],[2,3],[4,6],[-3,4]],[[804,2425],[-13,-5],[-5,-4],[7,-3],[8,-1],[2,2],[10,-1],[0,4],[-3,3],[-6,5]],[[697,2432],[-3,4],[-4,-2],[0,-2],[2,-5],[1,1],[4,4]],[[3803,3115],[-2,-3],[-5,-1],[-7,-4],[-2,-5],[-4,-9],[-4,-9],[-2,-4],[-4,-2],[-3,1],[-2,4],[0,3],[1,2],[3,6],[7,10],[8,17],[4,14],[8,-2],[3,-9],[1,-9]],[[61,3772],[7,-4],[0,-4],[1,-8],[9,-15],[-2,-9],[-12,-4],[-4,-1],[-4,-8],[-7,-7],[-8,1],[-8,8],[-6,21],[-4,18],[0,7],[-2,8],[-13,12],[-1,10],[7,6],[3,6],[-1,4],[-8,-1],[-7,1],[1,4],[8,8],[22,0],[10,-10],[2,-10],[-3,-14],[-1,-12],[4,-5],[6,0],[11,-2]],[[4061,3748],[-9,-1],[-14,2],[-12,2],[-8,1],[-4,2],[-2,3],[6,1],[12,2],[11,1],[8,0],[7,-2],[5,-1],[3,-2],[-1,-3],[0,-2],[1,-2],[-3,-1]],[[3722,3091],[-4,-4],[0,-6],[-2,-4],[-2,-3],[-2,0],[0,3],[-2,5],[-6,4],[-5,-1],[-3,-1],[-3,-1],[-5,0],[-7,3],[-6,3],[-2,4],[1,5],[3,4],[7,1],[8,-2],[8,0],[7,0],[8,-2],[6,-3],[1,-2],[0,-3]],[[2837,3188],[-8,1],[-10,7],[-3,9],[0,7],[4,2],[10,-8],[7,-11],[0,-7]],[[4070,3345],[5,0],[6,1],[4,3],[5,2],[3,-5],[-4,-10],[-3,-5],[-5,-7],[-3,3],[-2,13],[-4,3],[-2,2]],[[237,3067],[-3,-2],[-7,0],[-8,1],[-15,4],[-13,3],[-5,0],[-8,-1],[-7,-1],[-2,0],[-3,0],[-2,1],[0,3],[0,2],[-1,2],[-2,1],[-2,1],[-3,1],[0,3],[3,4],[5,1],[2,0],[3,0],[4,-2],[2,0],[5,-4],[8,-3],[3,0],[4,-1],[5,-1],[8,-3],[7,1],[6,3],[4,0],[3,-1],[0,-1],[2,-3],[6,-5],[1,-3]],[[61,3772],[7,-4],[0,-4],[1,-8],[9,-15],[-2,-9],[-12,-4],[-4,-1],[-4,-8],[-7,-7],[-8,1],[-8,8],[-6,21],[-4,18],[0,7],[-2,8],[-13,12],[-1,10],[7,6],[3,6],[-1,4],[-8,-1],[-7,1],[1,4],[8,8],[22,0],[10,-10],[2,-10],[-3,-14],[-1,-12],[4,-5],[6,0],[11,-2]],[[3353,742],[-4,4],[-6,16],[-4,6],[-1,3],[1,3],[-2,4],[-21,33],[-1,3],[0,7],[-4,22],[-4,4],[-5,1],[-5,2],[-1,5],[1,5],[-2,6],[-17,27],[-3,2],[-4,2],[-2,5],[-2,6],[-16,28],[-31,28],[-11,15],[-7,2],[-9,-1],[-9,1],[-1,-2],[-1,-5],[2,-5],[6,-4],[19,-4],[12,-7],[4,-6],[-6,0],[-4,-2],[-6,3],[-5,4],[-10,4],[2,-12],[1,-13],[-2,-11],[-3,-12],[-13,-20],[0,-5],[2,-10],[-1,-5],[-8,-28],[-2,-11],[-2,-25],[-2,-4],[-3,3],[0,25],[-3,-11],[-1,-12],[5,-27],[3,-21],[6,-75],[8,-25],[5,-22],[8,-21],[16,-14],[21,-6],[21,3],[22,11],[31,11],[6,4],[24,18],[7,9],[5,10],[4,14],[4,15],[2,12],[-1,26],[-3,14]],[[733,3902],[5,-24],[-1,-4],[-5,14],[-2,15],[3,5],[4,0],[-4,-6]],[[4034,3178],[-3,-1],[-3,-4],[-4,-7],[-6,-7],[-8,-1],[-6,1],[-4,2],[-1,3],[1,4],[-2,3],[-7,0],[-8,-1],[-7,1],[-7,7],[-3,5],[3,3],[9,-1],[5,-3],[3,-1],[2,2],[5,4],[9,3],[14,0],[13,-4],[5,-5],[0,-3]],[[4061,3748],[-9,-1],[-14,2],[-12,2],[-8,1],[-4,2],[-2,3],[6,1],[12,2],[11,1],[8,0],[7,-2],[5,-1],[3,-2],[-1,-3],[0,-2],[1,-2],[-3,-1]],[[3480,3145],[-3,0],[-10,3],[-9,2],[-7,0],[-5,3],[-2,2],[5,1],[3,2],[1,2],[3,1],[8,2],[4,1],[4,-6],[6,-4],[7,-5],[5,-4],[-1,-2],[-3,0],[-6,2]],[[3803,3115],[-2,-3],[-5,-1],[-7,-4],[-2,-5],[-4,-9],[-4,-9],[-2,-4],[-4,-2],[-3,1],[-2,4],[0,3],[1,2],[3,6],[7,10],[8,17],[4,14],[8,-2],[3,-9],[1,-9]],[[0,4059],[1,0],[8,-2],[13,-8],[6,-2],[6,-1],[6,-4],[9,-7],[6,-5],[3,-4],[2,-4],[0,-2],[-1,-2],[-4,-3],[-6,-1],[-5,0],[-9,-1],[-7,0],[-3,1],[-2,4],[-3,10],[-3,9],[-3,1],[-3,3],[-2,3],[-5,3],[-4,2]],[[237,3067],[-3,-2],[-7,0],[-8,1],[-15,4],[-13,3],[-5,0],[-8,-1],[-7,-1],[-2,0],[-3,0],[-2,1],[0,3],[0,2],[-1,2],[-2,1],[-2,1],[-3,1],[0,3],[3,4],[5,1],[2,0],[3,0],[4,-2],[2,0],[5,-4],[8,-3],[3,0],[4,-1],[5,-1],[8,-3],[7,1],[6,3],[4,0],[3,-1],[0,-1],[2,-3],[6,-5],[1,-3]],[[3722,3091],[-4,-4],[0,-6],[-2,-4],[-2,-3],[-2,0],[0,3],[-2,5],[-6,4],[-5,-1],[-3,-1],[-3,-1],[-5,0],[-7,3],[-6,3],[-2,4],[1,5],[3,4],[7,1],[8,-2],[8,0],[7,0],[8,-2],[6,-3],[1,-2],[0,-3]],[[3305,3062],[-2,-2],[-3,-1],[-4,1],[-5,2],[-3,3],[2,2],[4,4],[0,8],[1,5],[3,1],[4,-3],[2,-2],[0,-3],[-4,-3],[2,-5],[3,-4],[0,-3]],[[3330,3069],[-3,-5],[-5,-4],[-6,-2],[-4,1],[-1,5],[0,10],[3,2],[5,0],[6,-2],[4,-2],[1,-3]],[[836,1266],[-24,-1],[-9,-3],[-5,1],[-12,7],[-9,1],[-10,-5],[-2,-3],[-1,-3],[-7,-7],[17,-11],[9,-8],[11,-3],[37,4],[13,9],[13,4],[3,4],[6,3],[-30,11]],[[769,2436],[-3,4],[-4,-5],[-4,-2],[-12,-5],[6,-4],[6,1],[5,2],[2,3],[4,6]],[[1255,2049],[-13,-16],[0,-13],[1,-1],[6,2],[5,5],[5,15],[11,10],[-6,16],[-9,-18]],[[692,2427],[1,1],[4,4],[-3,4],[-4,-2],[0,-2],[2,-5]],[[1008,2697],[-15,-7],[-14,3],[-1,-1],[4,-8],[-2,-4],[-21,-10],[-17,-6],[-5,0],[0,-1],[2,-5],[2,-1],[8,0],[11,3],[12,7],[6,1],[9,4],[5,0],[5,-3],[13,10],[8,12],[9,3],[-6,5],[-13,-2]],[[801,2412],[2,2],[10,-1],[0,4],[-3,3],[-6,5],[-13,-5],[-5,-4],[7,-3],[8,-1]],[[498,2622],[-2,-4],[4,-13],[-2,-10],[7,-13],[2,-3],[3,8],[1,12],[0,12],[-5,8],[2,4],[-2,0],[-8,-1]],[[305,2977],[-11,15],[-4,4],[-2,-1],[-2,-7],[-2,-1],[-1,-1],[1,-3],[-4,-5],[6,-13],[3,-5],[4,-1],[5,2],[6,7],[1,3],[0,6]],[[4070,3345],[5,0],[6,1],[4,3],[5,2],[3,-5],[-4,-10],[-3,-5],[-5,-7],[-3,3],[-2,13],[-4,3],[-2,2]],[[2837,3188],[-8,1],[-10,7],[-3,9],[0,7],[4,2],[10,-8],[7,-11],[0,-7]],[[3861,3184],[1,6],[5,4],[6,1],[4,-2],[0,-4],[-6,-6],[-10,1]],[[3044,3392],[4,4],[16,-16],[9,-7],[18,-1],[2,-1],[-6,-3],[-16,-2],[-17,17],[-10,9]],[[3183,963],[-5,4],[-2,7],[-2,0],[-1,-1],[-1,-2],[1,-3],[4,-6],[6,1]],[[3177,897],[-3,8],[-1,1],[-10,4],[2,-3],[4,-5],[8,-5]],[[884,4087],[-2,-2],[-3,-1],[-10,-3],[-16,4],[-5,-4],[2,-6],[4,-8],[-5,0],[-4,0],[-8,3],[-10,-1],[-20,-6],[-9,2],[-7,8],[-7,7],[-8,1],[-9,-4],[-9,-1],[-12,3],[-5,2],[-7,6],[-6,7],[-1,2]],[[721,4096],[-3,-12],[-3,-17],[-6,-14],[-5,-15],[1,-18],[5,-17],[9,-14],[6,-8],[6,-5],[-7,12],[3,9],[14,-1],[13,-2],[11,0],[5,-2],[3,-3],[-3,-8],[-1,-8],[2,-8],[6,-3],[4,-3],[2,-6],[-10,-2],[-9,1],[-8,2],[-6,5],[-10,-18],[-1,-8],[3,-8],[5,5],[5,2],[7,0],[12,-3],[6,-3],[7,-6],[8,-1],[1,-6],[1,-5],[8,-8],[5,-7],[2,-8],[-1,-13],[-2,-12],[-1,-10],[1,-11],[0,-12],[-3,-24],[0,-12],[2,-26],[5,-25],[1,-7],[4,-17],[6,-23],[0,-5],[0,-5],[-5,-3],[-5,-1],[-13,1],[-8,4],[13,2],[9,5],[-14,0],[-36,-6],[-108,-25],[-39,0],[-58,12],[-17,7],[-36,21],[-18,13],[-11,19],[-4,4],[-4,3],[-14,4],[-23,3],[-23,2],[-9,2],[-18,8],[-9,7],[-6,11],[-5,11],[-3,13],[-2,13],[-3,24],[0,5],[-1,38],[0,2],[6,12],[4,12],[4,5],[9,-4],[0,-6],[1,-3],[4,3],[3,4],[7,22],[4,4],[4,2],[1,5],[-4,10],[0,11],[8,23],[6,25],[6,10],[11,6],[11,4],[12,3],[20,0],[20,-4],[-5,13],[-5,5],[-6,5],[-6,2],[-12,5],[-12,0],[-7,0],[-6,3],[-14,11],[-9,8],[-17,18]],[[885,4096],[0,-3],[-1,-6]],[[0,185],[75,46],[21,16],[75,81],[58,69],[42,52],[23,46],[38,54],[37,68],[4,23],[12,37],[11,22],[20,30],[9,18],[8,19],[9,30],[22,24],[17,31],[3,11],[10,22],[19,26],[4,14],[13,18],[1,29],[4,21],[2,33],[3,8],[9,5],[16,5],[6,-3],[10,-2],[1,4],[-2,5],[-7,2],[-9,6],[-1,-3],[0,-5],[-11,-4],[-3,1],[2,3],[4,1],[1,5],[2,6],[1,6],[-2,42],[-3,26],[5,17],[7,15],[1,9],[2,8],[-5,2],[-37,14],[-14,-4],[-10,-12],[-5,-10],[-33,-20],[-42,-7],[-24,-11],[-29,-7],[-12,-2],[-3,0],[-21,7],[-9,0],[-12,-4],[-38,-15],[-28,-2],[-22,6],[-6,0],[-16,-8],[-23,-17],[-38,-18],[-9,-1],[-19,5],[-21,1],[-19,4],[-11,-3],[-32,-16],[-31,-18]],[[0,1280],[4,1],[6,12],[5,6],[21,7],[13,17],[11,10],[24,6],[26,3],[27,-1],[14,2],[12,3],[17,8],[24,6],[15,5],[21,20],[20,10],[5,6],[7,3],[26,-5],[16,1],[13,4],[7,0],[10,8],[14,14],[7,9],[3,10],[5,4],[23,14],[18,9],[33,10],[23,2],[16,8],[17,11],[45,10],[27,9],[26,11],[7,4],[6,6],[8,2],[12,8],[11,5],[12,7],[0,10],[-4,20],[6,21],[8,13],[11,9],[12,8],[46,18],[19,8],[29,3],[15,10],[16,6],[10,9],[29,3],[17,-1],[9,-2],[9,-4],[27,7],[10,12],[9,16],[2,6],[-1,7],[-4,6],[1,8],[21,25],[12,5],[35,5],[25,1],[10,4],[15,18],[10,42],[15,16],[12,8],[20,7],[23,4],[23,2],[5,2],[7,4],[-2,13],[-2,10],[0,18],[-5,18],[0,7],[3,12],[5,15],[4,17],[2,12],[7,10],[15,23],[6,2],[7,1],[-2,-9],[-2,-9],[6,-2],[7,-1],[11,2],[6,9],[14,31],[19,30],[16,18],[21,14],[6,7],[13,28],[13,17],[2,10],[11,17],[2,8],[2,12],[-2,9],[-11,4],[-15,3],[-10,8],[-10,13],[-11,18],[-15,16],[-4,10],[-7,10],[-7,7],[-5,12],[-18,12],[-7,0],[-10,-2],[-6,0],[-19,10],[-27,4],[-19,4],[-36,12],[-9,6],[-19,17],[-12,18],[-12,14],[-14,24],[-9,27],[-2,4],[-1,55],[-6,8],[1,6],[2,4],[4,5],[4,31],[0,10],[1,11],[-1,3],[-3,0],[-3,-4],[-4,-8],[-7,-1],[-3,1],[-3,-3],[-7,-14],[-1,-1],[-4,-14],[-8,-12],[-38,-29],[-8,-11],[-10,-9],[-2,-7],[-19,-19],[-32,-23],[-8,-10],[-3,-9],[-4,-6],[-4,-3],[-3,-7],[-4,-10],[-6,-8],[-8,-3],[-14,-8],[-24,-9],[-8,-1],[-43,3],[-27,5],[-35,0],[-12,-4],[-24,-12],[-12,-2],[-19,1],[-6,3],[-5,6],[-2,18],[-3,1],[-6,-1],[-4,5],[-2,4],[-3,-6],[-3,0],[-5,3],[-8,1],[-8,2],[6,14],[4,5],[0,4],[-7,-1],[-6,5],[11,3],[3,3],[10,22],[5,7],[2,9],[-1,10],[-4,13],[-4,11],[0,6],[-3,7],[4,16],[4,10],[-2,12],[-14,11],[-12,14],[-14,-7],[-10,-10],[-9,-26],[-3,-11],[-6,-12],[-3,-5],[-1,-4],[2,-22],[6,-29],[-1,-4],[-3,-6],[-7,8],[-5,9],[-10,12],[-5,22],[-4,12],[-16,14],[-4,6],[-5,13],[-5,9],[-5,12],[-4,15],[2,1],[4,0],[3,-2],[2,0],[6,21],[-3,9],[-7,5],[-7,7],[-2,9],[0,7],[2,2],[5,-3],[4,-1],[2,0],[-15,17],[-25,12],[-16,20],[-12,3],[-11,13],[-10,12],[6,6],[-8,3],[-6,3],[-16,8],[-10,9],[1,4],[2,4],[-2,9],[-4,7],[-13,17],[-9,22],[-3,10],[-5,9],[-4,9],[-2,6],[-3,7],[-8,14],[-6,8],[-8,23],[-1,6],[-3,8],[-5,3],[-6,-2],[-8,0],[-11,3],[0,2],[8,7],[14,13],[7,-2],[4,-2],[5,0],[-1,4],[-5,10],[-6,12],[-3,11],[0,4],[0,3],[9,3],[6,0],[19,-9],[9,-2],[9,3],[4,1],[7,5],[15,1],[3,3],[5,6],[-1,12],[-2,8],[3,7],[10,6],[-3,5],[12,0],[9,-3],[2,-6],[-6,-4],[-8,3],[-4,-1],[-5,-2],[3,-4],[2,-3],[34,-17],[12,-11],[39,18],[8,-1],[5,-15],[3,-12],[6,-5],[14,-20],[15,-13],[9,-12],[2,-8],[-2,-13],[3,-7],[11,-3],[7,-5],[0,-6],[-3,-8],[2,-5],[14,-9],[4,-6],[3,-21],[3,-8],[13,-21],[1,-9],[21,-22],[7,-5],[7,-2],[16,0],[17,-2],[15,-11],[25,-10],[12,-12],[3,-10],[5,-7],[27,-18],[32,-14],[11,-6],[4,-9],[18,-13],[11,-2],[23,3],[16,-4],[25,-10],[11,-8],[10,-1],[13,5],[23,17],[13,6],[12,-1],[8,6],[7,10],[5,4],[27,6],[16,11],[15,5],[7,1],[34,-8],[7,-3],[9,-10],[7,-9],[5,-10],[3,-12],[3,-31],[9,-21],[0,-13],[5,-11],[7,-13],[36,-7],[6,-7],[13,4],[7,-5],[17,-5],[10,-1],[20,1],[24,-4],[23,-14],[16,2],[21,5],[14,-8],[19,0],[7,-4],[12,2],[34,-7],[10,12],[7,-2],[2,-8],[5,-5],[40,-10],[12,-4],[16,-4],[7,5],[4,4],[19,-5],[15,-1],[17,2],[5,5],[4,2],[5,-2],[6,-7],[7,2],[5,5],[11,5],[9,1],[32,-4],[14,3],[10,-2],[19,-2],[1,9],[5,5],[15,3],[20,-4],[4,1],[7,5],[6,-3],[2,-4],[36,-10],[4,-3],[6,-2],[11,13],[26,0],[31,6],[25,-2],[19,7],[32,4],[8,0],[7,-2],[6,0],[-5,4],[-5,2],[-21,-1],[3,6],[5,4],[10,1],[9,-3],[10,-9],[3,-10],[12,-16],[1,-11],[-2,-18],[1,-7],[37,-7],[6,-4],[11,-38],[1,-11],[1,-9],[5,-8],[5,-3],[3,-2],[2,-2],[2,-8],[6,-6],[7,4],[1,-5],[1,-6],[14,2],[4,7],[8,-7],[5,-1],[3,3],[3,-3],[4,-7],[3,5],[2,6],[2,-13],[4,-13],[10,2],[7,8],[7,5],[13,6],[12,4],[-13,-10],[-16,-12],[-3,-6],[10,-21],[10,-17],[16,-14],[38,-20],[39,-9],[7,1],[10,9],[24,9],[7,1],[5,1],[8,-3],[3,3],[3,6],[3,5],[5,1],[2,-5],[0,-4],[-6,-3],[-11,-16],[-13,-24],[-9,-2],[-7,0],[-17,-10],[-8,1],[-7,-6],[-9,1],[-25,-13],[-4,2],[-4,4],[-6,8],[-7,2],[-6,-6],[-1,-9],[3,-9],[17,-21],[18,-15],[14,-16],[19,-17],[26,-33],[8,-9],[33,-25],[21,-10],[15,-3],[13,3],[34,13],[16,10],[40,19],[6,6],[16,31],[0,13],[-4,7],[-4,4],[-6,2],[-6,3],[3,4],[2,6],[6,6],[8,5],[3,6],[2,10],[-5,5],[-6,3],[14,0],[11,-2],[12,3],[10,-2],[10,-3],[-9,-2],[-7,-1],[-7,-4],[-3,-18],[9,-2],[7,1],[-5,-3],[-4,-6],[-5,-18],[27,-1],[13,1],[12,5],[-8,-5],[-20,-8],[-8,-7],[-10,-9],[5,0],[6,1],[-4,-3],[-6,-7],[7,-19],[5,-5],[6,-1],[1,-4],[1,-13],[4,-12],[1,-16],[-1,-11],[-16,-48],[-4,-25],[1,-3],[2,-4],[3,-18],[6,-6],[-4,-7],[1,-4],[2,-5],[18,-8],[-16,2],[-1,-5],[1,-3],[0,-14],[3,-10],[6,4],[6,13],[3,-13],[-2,-9],[-8,-15],[-2,-10],[0,-4],[4,-6],[2,-21],[3,-11],[2,-16],[5,-19],[10,-29],[-1,-9],[8,-33],[9,-74],[11,-31],[2,-9],[12,-19],[7,-16],[4,-5],[9,0],[-5,-8],[4,-4],[3,-6],[7,-8],[-11,0],[7,-9],[6,-23],[8,-13],[5,-5],[12,-19],[5,-6],[5,-7],[4,-8],[2,-9],[6,-19],[0,-5],[3,-12],[10,-20],[6,-18],[1,-8],[0,-8],[8,-43],[3,-10],[6,-13],[7,-28],[23,-51],[3,-3],[7,-7],[10,-14],[9,-11],[11,-24],[8,-10],[11,-31],[7,-27],[15,-38],[3,-8],[7,-12],[-1,-4],[0,-8],[3,-6],[2,-1],[9,-9],[10,-39],[-3,-1],[-4,2],[0,16],[-3,12],[-5,9],[-4,1],[4,-25],[3,-22],[7,-22],[2,-3],[3,-2],[2,-2],[1,-7],[6,-19],[6,-6],[32,-44],[9,-9],[21,-17],[20,-7],[6,6],[17,6],[26,19],[6,13],[1,15],[5,23],[8,10],[13,11],[51,16],[21,-1],[18,-6],[-5,6],[-7,3],[-16,2],[-7,3],[-7,6],[-3,6],[2,11],[5,12],[24,35],[0,14],[5,8],[7,5],[13,2],[5,-1],[8,-2],[8,1],[7,2],[1,44],[0,43],[-1,7],[-4,7],[-9,-2],[5,6],[4,7],[-4,13],[2,11],[8,30],[11,25],[5,6],[10,16],[8,23],[10,67],[-5,8],[-16,9],[-5,8],[9,11],[7,-11],[3,-9],[4,-3],[-6,20],[0,9],[-2,8],[-7,20],[-3,16],[2,7],[3,6],[1,13],[-1,10],[-6,22],[-4,28],[4,25],[17,38],[9,9],[24,10],[5,-1],[7,-2],[4,-10],[3,1],[5,-2],[6,0],[1,5],[4,7],[9,8],[10,31],[4,7],[10,3],[29,-3],[4,-1],[35,16],[10,7],[7,11],[1,4],[2,7],[-1,5],[-4,5],[-3,6],[1,4],[7,12],[21,18],[35,18],[20,15],[17,18],[17,21],[7,7],[41,22],[7,11],[26,29],[13,20],[8,8],[5,8],[2,8],[41,38],[20,12],[0,3],[-6,2],[-13,-8],[-5,0],[-1,2],[8,14],[19,14],[4,-1],[4,-2],[1,-12],[-5,-2],[-1,-3],[7,-1],[26,10],[33,11],[5,2],[2,2],[1,5],[-6,6],[5,0],[7,-4],[6,8],[5,8],[23,14],[2,5],[-1,6],[7,11],[8,9],[5,8],[-4,4],[-4,23],[-4,14],[1,13],[9,12],[13,14],[9,4],[44,11],[13,8],[11,9],[10,18],[4,5],[5,7],[-6,6],[-7,3],[-5,4],[-1,12],[4,-11],[9,-4],[10,-8],[-2,-11],[-7,-24],[-4,-10],[6,-5],[12,-2],[2,8],[1,6],[2,-4],[13,-11],[12,5],[2,5],[-3,12],[6,29],[2,-5],[4,-1],[2,-2],[1,-4],[-4,-27],[0,-7],[2,-4],[3,-4],[8,8],[2,8],[5,-9],[5,-1],[8,1],[-1,11],[-2,7],[-7,11],[8,0],[2,15],[2,-8],[2,-14],[6,-9],[6,-6],[4,-1],[7,1],[9,10],[5,9],[0,12],[-3,18],[1,6],[6,-29],[2,-12],[0,-9],[5,4],[4,7],[8,4],[5,6],[4,11],[1,8],[-1,12],[2,10],[10,8],[-9,-16],[0,-11],[3,-8],[3,-10],[4,3]],[[2529,1121],[0,-1],[-1,-1],[0,2],[1,3],[1,2],[0,-1],[0,-1],[-1,-3]],[[2553,825],[-1,0],[-1,0],[0,1],[0,1],[1,-1],[2,1],[1,3],[1,1],[0,-2],[-1,-2],[-2,-2]],[[2587,323],[-2,0],[-2,1],[1,3],[1,2],[3,0],[1,-2],[-1,-2],[-1,-2]],[[2596,418],[-1,-2],[-1,-1],[-2,1],[0,1],[0,2],[2,2],[1,2],[1,2],[1,-1],[0,-1],[-1,-2],[0,-3]],[[858,2446],[-3,3],[-1,0],[-4,-3],[2,-3],[6,-2],[3,0],[1,2],[-4,3]],[[798,1263],[5,-1],[9,3],[24,1],[30,-11],[-6,-3],[-3,-4],[-13,-4],[-13,-9],[-37,-4],[-11,3],[-9,8],[-17,11],[7,7],[1,3],[2,3],[10,5],[9,-1],[12,-7]],[[3184,981],[9,-1],[9,1],[7,-2],[11,-15],[31,-28],[16,-28],[2,-6],[2,-5],[4,-2],[3,-2],[17,-27],[2,-6],[-1,-5],[1,-5],[5,-2],[5,-1],[4,-4],[4,-22],[0,-7],[1,-3],[21,-33],[2,-4],[-1,-3],[1,-3],[4,-6],[6,-16],[4,-4],[3,-14],[1,-26],[-2,-12],[-4,-15],[-4,-14],[-5,-10],[-7,-9],[-24,-18],[-6,-4],[-31,-11],[-22,-11],[-21,-3],[-21,6],[-16,14],[-8,21],[-5,22],[-8,25],[-6,75],[-3,21],[-5,27],[1,12],[3,11],[0,-25],[3,-3],[2,4],[2,25],[2,11],[8,28],[1,5],[-2,10],[0,5],[13,20],[3,12],[2,11],[-1,13],[-2,12],[10,-4],[5,-4],[6,-3],[4,2],[6,0],[-4,6],[-12,7],[-19,4],[-6,4],[-2,5],[1,5],[1,2]],[[1249,2021],[-6,-2],[-1,1],[0,13],[13,16],[9,18],[6,-16],[-11,-10],[-5,-15],[-5,-5]],[[510,2587],[-3,-8],[-2,3],[-7,13],[2,10],[-4,13],[2,4],[8,1],[2,0],[-2,-4],[5,-8],[0,-12],[-1,-12]],[[1018,2691],[-8,-12],[-13,-10],[-5,3],[-5,0],[-9,-4],[-6,-1],[-12,-7],[-11,-3],[-8,0],[-2,1],[-2,5],[0,1],[5,0],[17,6],[21,10],[2,4],[-4,8],[1,1],[14,-3],[15,7],[13,2],[6,-5],[-9,-3]],[[298,2961],[-5,-2],[-4,1],[-3,5],[-6,13],[4,5],[-1,3],[1,1],[2,1],[2,7],[2,1],[4,-4],[11,-15],[0,-6],[-1,-3],[-6,-7]],[[4096,4096],[0,-1892],[-4,-3],[-3,10],[-3,8],[0,11],[9,16],[-10,-8],[-2,-10],[1,-12],[-1,-8],[-4,-11],[-5,-6],[-8,-4],[-4,-7],[-5,-4],[0,9],[-2,12],[-6,29],[-1,-6],[3,-18],[0,-12],[-5,-9],[-9,-10],[-7,-1],[-4,1],[-6,6],[-6,9],[-2,14],[-2,8],[-2,-15],[-8,0],[7,-11],[2,-7],[1,-11],[-8,-1],[-5,1],[-5,9],[-2,-8],[-8,-8],[-3,4],[-2,4],[0,7],[4,27],[-1,4],[-2,2],[-4,1],[-2,5],[-6,-29],[3,-12],[-2,-5],[-12,-5],[-13,11],[-2,4],[-1,-6],[-2,-8],[-12,2],[-6,5],[4,10],[7,24],[2,11],[-10,8],[-9,4],[-4,11],[1,-12],[5,-4],[7,-3],[6,-6],[-5,-7],[-4,-5],[-10,-18],[-11,-9],[-13,-8],[-44,-11],[-9,-4],[-13,-14],[-9,-12],[-1,-13],[4,-14],[4,-23],[4,-4],[-5,-8],[-8,-9],[-7,-11],[1,-6],[-2,-5],[-23,-14],[-5,-8],[-6,-8],[-7,4],[-5,0],[6,-6],[-1,-5],[-2,-2],[-5,-2],[-33,-11],[-26,-10],[-7,1],[1,3],[5,2],[-1,12],[-4,2],[-4,1],[-19,-14],[-8,-14],[1,-2],[5,0],[13,8],[6,-2],[0,-3],[-20,-12],[-41,-38],[-2,-8],[-5,-8],[-8,-8],[-13,-20],[-26,-29],[-7,-11],[-41,-22],[-7,-7],[-17,-21],[-17,-18],[-20,-15],[-35,-18],[-21,-18],[-7,-12],[-1,-4],[3,-6],[4,-5],[1,-5],[-2,-7],[-1,-4],[-7,-11],[-10,-7],[-35,-16],[-4,1],[-29,3],[-10,-3],[-4,-7],[-10,-31],[-9,-8],[-4,-7],[-1,-5],[-6,0],[-5,2],[-3,-1],[-4,10],[-7,2],[-5,1],[-24,-10],[-9,-9],[-17,-38],[-4,-25],[4,-28],[6,-22],[1,-10],[-1,-13],[-3,-6],[-2,-7],[3,-16],[7,-20],[2,-8],[0,-9],[6,-20],[-4,3],[-3,9],[-7,11],[-9,-11],[5,-8],[16,-9],[5,-8],[-10,-67],[-8,-23],[-10,-16],[-5,-6],[-11,-25],[-8,-30],[-2,-11],[4,-13],[-4,-7],[-5,-6],[9,2],[4,-7],[1,-7],[0,-43],[-1,-44],[-7,-2],[-8,-1],[-8,2],[-5,1],[-13,-2],[-7,-5],[-5,-8],[0,-14],[-24,-35],[-5,-12],[-2,-11],[3,-6],[7,-6],[7,-3],[16,-2],[7,-3],[5,-6],[-18,6],[-21,1],[-51,-16],[-13,-11],[-8,-10],[-5,-23],[-1,-15],[-6,-13],[-26,-19],[-17,-6],[-6,-6],[-20,7],[-21,17],[-9,9],[-32,44],[-6,6],[-6,19],[-1,7],[-2,2],[-3,2],[-2,3],[-7,22],[-3,22],[-4,25],[4,-1],[5,-9],[3,-12],[0,-16],[4,-2],[3,1],[-10,39],[-9,9],[-2,1],[-3,6],[0,8],[1,4],[-7,12],[-3,8],[-15,38],[-7,27],[-11,31],[-8,10],[-11,24],[-9,11],[-10,14],[-7,7],[-3,3],[-23,51],[-7,28],[-6,13],[-3,10],[-8,43],[0,8],[-1,8],[-6,18],[-10,20],[-3,12],[0,5],[-6,19],[-2,9],[-4,8],[-5,7],[-5,6],[-12,19],[-5,5],[-8,13],[-6,23],[-7,9],[11,0],[-7,8],[-3,6],[-4,4],[5,8],[-9,0],[-4,5],[-7,16],[-12,19],[-2,9],[-11,31],[-9,74],[-8,33],[1,9],[-10,29],[-5,19],[-2,16],[-3,11],[-2,21],[-4,6],[0,4],[2,10],[8,15],[2,9],[-3,13],[-6,-13],[-6,-4],[-3,10],[0,14],[-1,3],[1,5],[16,-2],[-18,8],[-2,5],[-1,4],[4,7],[-6,6],[-3,18],[-2,4],[-1,3],[4,25],[16,48],[1,11],[-1,16],[-4,12],[-1,13],[-1,4],[-6,1],[-5,5],[-7,19],[6,7],[4,3],[-6,-1],[-5,0],[10,9],[8,7],[20,8],[8,5],[-12,-5],[-13,-1],[-27,1],[5,18],[4,6],[5,3],[-7,-1],[-9,2],[3,18],[7,4],[7,1],[9,2],[-10,3],[-10,2],[-12,-3],[-11,2],[-14,0],[6,-3],[5,-5],[-2,-10],[-3,-6],[-8,-5],[-6,-6],[-2,-6],[-3,-4],[6,-3],[6,-2],[4,-4],[4,-7],[0,-13],[-16,-31],[-6,-6],[-40,-19],[-16,-10],[-34,-13],[-13,-3],[-15,3],[-21,10],[-33,25],[-8,9],[-26,33],[-19,17],[-14,16],[-18,15],[-17,21],[-3,9],[1,9],[6,6],[7,-2],[6,-8],[4,-4],[4,-2],[25,13],[9,-1],[7,6],[8,-1],[17,10],[7,0],[9,2],[13,24],[11,16],[6,3],[0,4],[-2,5],[-5,-1],[-3,-5],[-3,-6],[-3,-3],[-8,3],[-5,-1],[-7,-1],[-24,-9],[-10,-9],[-7,-1],[-39,9],[-38,20],[-16,14],[-10,17],[-10,21],[3,6],[16,12],[13,10],[-12,-4],[-13,-6],[-7,-5],[-7,-8],[-10,-2],[-4,13],[-2,13],[-2,-6],[-3,-5],[-4,7],[-3,3],[-3,-3],[-5,1],[-8,7],[-4,-7],[-14,-2],[-1,6],[-1,5],[-7,-4],[-6,6],[-2,8],[-2,2],[-3,2],[-5,3],[-5,8],[-1,9],[-1,11],[-11,38],[-6,4],[-37,7],[-1,7],[2,18],[-1,11],[-12,16],[-3,10],[-10,9],[-9,3],[-10,-1],[-5,-4],[-3,-6],[21,1],[5,-2],[5,-4],[-6,0],[-7,2],[-8,0],[-32,-4],[-19,-7],[-25,2],[-31,-6],[-26,0],[-11,-13],[-6,2],[-4,3],[-36,10],[-2,4],[-6,3],[-7,-5],[-4,-1],[-20,4],[-15,-3],[-5,-5],[-1,-9],[-19,2],[-10,2],[-14,-3],[-32,4],[-9,-1],[-11,-5],[-5,-5],[-7,-2],[-6,7],[-5,2],[-4,-2],[-5,-5],[-17,-2],[-15,1],[-19,5],[-4,-4],[-7,-5],[-16,4],[-12,4],[-40,10],[-5,5],[-2,8],[-7,2],[-10,-12],[-34,7],[-12,-2],[-7,4],[-19,0],[-14,8],[-21,-5],[-16,-2],[-23,14],[-24,4],[-20,-1],[-10,1],[-17,5],[-7,5],[-13,-4],[-6,7],[-36,7],[-7,13],[-5,11],[0,13],[-9,21],[-3,31],[-3,12],[-5,10],[-7,9],[-9,10],[-7,3],[-34,8],[-7,-1],[-15,-5],[-16,-11],[-27,-6],[-5,-4],[-7,-10],[-8,-6],[-12,1],[-13,-6],[-23,-17],[-13,-5],[-10,1],[-11,8],[-25,10],[-16,4],[-23,-3],[-11,2],[-18,13],[-4,9],[-11,6],[-32,14],[-27,18],[-5,7],[-3,10],[-12,12],[-25,10],[-15,11],[-17,2],[-16,0],[-7,2],[-7,5],[-21,22],[-1,9],[-13,21],[-3,8],[-3,21],[-4,6],[-14,9],[-2,5],[3,8],[0,6],[-7,5],[-11,3],[-3,7],[2,13],[-2,8],[-9,12],[-15,13],[-14,20],[-6,5],[-3,12],[-5,15],[-8,1],[-39,-18],[-12,11],[-34,17],[-2,3],[-3,4],[5,2],[4,1],[8,-3],[6,4],[-2,6],[-9,3],[-12,0],[3,-5],[-10,-6],[-3,-7],[2,-8],[1,-12],[-5,-6],[-3,-3],[-15,-1],[-7,-5],[-4,-1],[-9,-3],[-9,2],[-19,9],[-6,0],[-9,-3],[0,-3],[0,-4],[3,-11],[6,-12],[5,-10],[1,-4],[-5,0],[-4,2],[-7,2],[-14,-13],[-8,-7],[0,-2],[11,-3],[8,0],[6,2],[5,-3],[3,-8],[1,-6],[8,-23],[6,-8],[8,-14],[3,-7],[2,-6],[4,-9],[5,-9],[3,-10],[9,-22],[13,-17],[4,-7],[2,-9],[-2,-4],[-1,-4],[10,-9],[16,-8],[6,-3],[8,-3],[-6,-6],[10,-12],[11,-13],[12,-3],[16,-20],[25,-12],[15,-17],[-2,0],[-4,1],[-5,3],[-2,-2],[0,-7],[2,-9],[7,-7],[7,-5],[3,-9],[-6,-21],[-2,0],[-3,2],[-4,0],[-2,-1],[4,-15],[5,-12],[5,-9],[5,-13],[4,-6],[16,-14],[4,-12],[5,-22],[10,-12],[5,-9],[7,-8],[3,6],[1,4],[-6,29],[-2,22],[1,4],[3,5],[6,12],[3,11],[9,26],[10,10],[14,7],[12,-14],[14,-11],[2,-12],[-4,-10],[-4,-16],[3,-7],[0,-6],[4,-11],[4,-13],[1,-10],[-2,-9],[-5,-7],[-10,-22],[-3,-3],[-11,-3],[6,-5],[7,1],[0,-4],[-4,-5],[-6,-14],[8,-2],[8,-1],[5,-3],[3,0],[3,6],[2,-4],[4,-5],[6,1],[3,-1],[2,-18],[5,-6],[6,-3],[19,-1],[12,2],[24,12],[12,4],[35,0],[27,-5],[43,-3],[8,1],[24,9],[14,8],[8,3],[6,8],[4,10],[3,7],[4,3],[4,6],[3,9],[8,10],[32,23],[19,19],[2,7],[10,9],[8,11],[38,29],[8,12],[4,14],[1,1],[7,14],[3,3],[3,-1],[7,1],[4,8],[3,4],[3,0],[1,-3],[-1,-11],[0,-10],[-4,-31],[-4,-5],[-2,-4],[-1,-6],[6,-8],[1,-55],[2,-4],[9,-27],[14,-24],[12,-14],[12,-18],[19,-17],[9,-6],[36,-12],[19,-4],[27,-4],[19,-10],[6,0],[10,2],[7,0],[18,-12],[5,-12],[7,-7],[7,-10],[4,-10],[15,-16],[11,-18],[10,-13],[10,-8],[15,-3],[11,-4],[2,-9],[-2,-12],[-2,-8],[-11,-17],[-2,-10],[-13,-17],[-13,-28],[-6,-7],[-21,-14],[-16,-18],[-19,-30],[-14,-31],[-6,-9],[-11,-2],[-7,1],[-6,2],[2,9],[2,9],[-7,-1],[-6,-2],[-15,-23],[-7,-10],[-2,-12],[-4,-17],[-5,-15],[-3,-12],[0,-7],[5,-18],[0,-18],[2,-10],[2,-13],[-7,-4],[-5,-2],[-23,-2],[-23,-4],[-20,-7],[-12,-8],[-15,-16],[-10,-42],[-15,-18],[-10,-4],[-25,-1],[-35,-5],[-12,-5],[-21,-25],[-1,-8],[4,-6],[1,-7],[-2,-6],[-9,-16],[-10,-12],[-27,-7],[-9,4],[-9,2],[-17,1],[-29,-3],[-10,-9],[-16,-6],[-15,-10],[-29,-3],[-19,-8],[-46,-18],[-12,-8],[-11,-9],[-8,-13],[-6,-21],[4,-20],[0,-10],[-12,-7],[-11,-5],[-12,-8],[-8,-2],[-6,-6],[-7,-4],[-26,-11],[-27,-9],[-45,-10],[-17,-11],[-16,-8],[-23,-2],[-33,-10],[-18,-9],[-23,-14],[-5,-4],[-3,-10],[-7,-9],[-14,-14],[-10,-8],[-7,0],[-13,-4],[-16,-1],[-26,5],[-7,-3],[-5,-6],[-20,-10],[-21,-20],[-15,-5],[-24,-6],[-17,-8],[-12,-3],[-14,-2],[-27,1],[-26,-3],[-24,-6],[-11,-10],[-13,-17],[-21,-7],[-5,-6],[-6,-12],[-4,-1],[0,2816],[389,0],[17,-18],[9,-8],[14,-11],[6,-3],[7,0],[12,0],[12,-5],[6,-2],[6,-5],[5,-5],[5,-13],[-20,4],[-20,0],[-12,-3],[-11,-4],[-11,-6],[-6,-10],[-6,-25],[-8,-23],[0,-11],[4,-10],[-1,-5],[-4,-2],[-4,-4],[-7,-22],[-3,-4],[-4,-3],[-1,3],[0,6],[-9,4],[-4,-5],[-4,-12],[-6,-12],[0,-2],[1,-38],[0,-5],[3,-24],[2,-13],[3,-13],[5,-11],[6,-11],[9,-7],[18,-8],[9,-2],[23,-2],[23,-3],[14,-4],[4,-3],[4,-4],[11,-19],[18,-13],[36,-21],[17,-7],[58,-12],[39,0],[108,25],[36,6],[14,0],[-9,-5],[-13,-2],[8,-4],[13,-1],[5,1],[5,3],[0,5],[0,5],[-6,23],[-4,17],[-1,7],[-5,25],[-2,26],[0,12],[3,24],[0,12],[-1,11],[1,10],[2,12],[1,13],[-2,8],[-5,7],[-8,8],[-1,5],[-1,6],[-8,1],[-7,6],[-6,3],[-12,3],[-7,0],[-5,-2],[-5,-5],[-3,8],[1,8],[10,18],[6,-5],[8,-2],[9,-1],[10,2],[-2,6],[-4,3],[-6,3],[-2,8],[1,8],[3,8],[-3,3],[-5,2],[-11,0],[-13,2],[-14,1],[-3,-9],[7,-12],[-6,5],[-6,8],[-9,14],[-5,17],[-1,18],[5,15],[6,14],[3,17],[3,12],[6,0],[1,-2],[6,-7],[7,-6],[5,-2],[12,-3],[9,1],[9,4],[8,-1],[7,-7],[7,-8],[9,-2],[20,6],[10,1],[8,-3],[4,0],[5,0],[-4,8],[-2,6],[5,4],[16,-4],[10,3],[3,1],[2,2],[1,6],[0,3],[3211,0]],[[0,185],[0,861],[31,18],[32,16],[11,3],[19,-4],[21,-1],[19,-5],[9,1],[38,18],[23,17],[16,8],[6,0],[22,-6],[28,2],[38,15],[12,4],[9,0],[21,-7],[3,0],[12,2],[29,7],[24,11],[42,7],[33,20],[5,10],[10,12],[14,4],[37,-14],[5,-2],[-2,-8],[-1,-9],[-7,-15],[-5,-17],[3,-26],[2,-42],[-1,-6],[-2,-6],[-1,-5],[-4,-1],[-2,-3],[3,-1],[11,4],[0,5],[1,3],[9,-6],[7,-2],[2,-5],[-1,-4],[-10,2],[-6,3],[-16,-5],[-9,-5],[-3,-8],[-2,-33],[-4,-21],[-1,-29],[-13,-18],[-4,-14],[-19,-26],[-10,-22],[-3,-11],[-17,-31],[-22,-24],[-9,-30],[-8,-19],[-9,-18],[-20,-30],[-11,-22],[-12,-37],[-4,-23],[-37,-68],[-38,-54],[-23,-46],[-42,-52],[-58,-69],[-75,-81],[-21,-16],[-75,-46]]]}