{"objects":{"water":{"type":"GeometryCollection","geometries":[{"type":"MultiPolygon","properties":{"source":"naturalearthdata.com","kind":"ocean","area":1576712559132672,"sort_rank":200,"min_zoom":0.0,"id":1},"arcs":[[[11],[12],[13]]]},{"type":"LineString","properties":{"source":"naturalearthdata.com","kind":"ocean","sort_rank":205,"boundary":true,"min_zoom":0.0,"id":36},"arcs":[14]},{"type":"LineString","properties":{"source":"naturalearthdata.com","kind":"ocean","sort_rank":205,"boundary":true,"min_zoom":0.0,"id":3557},"arcs":[15]}]},"buildings":{"type":"GeometryCollection","geometries":[]},"places":{"type":"GeometryCollection","geometries":[{"type":"Point","properties":{"kind":"region","name":"Benguet","kind_detail":"state","name:eo":"Bengeto","source":"openstreetmap.org","min_zoom":4.0,"name:ru":"\u0411\u0435\u043d\u0433\u0435\u0442","id":305704499},"coordinates":[3307,3683]},{"type":"Point","properties":{"kind":"region","name":"La Union","kind_detail":"state","name:eo":"La-Unio","source":"openstreetmap.org","min_zoom":4.0,"name:ru":"\u041b\u0430-\u0423\u043d\u0438\u043e\u043d","id":305704545},"coordinates":[2557,3906]},{"type":"Point","properties":{"kind":"region","name":"Pangasinan","kind_detail":"state","name:eo":"Pangasinano","source":"openstreetmap.org","min_zoom":4.0,"name:ru":"\u041f\u0430\u043d\u0433\u0430\u0441\u0438\u043d\u0430\u043d","id":305704558},"coordinates":[2336,1916]},{"type":"Point","properties":{"kind":"region","name":"Tarlac","kind_detail":"state","name:eo":"Tarlako","source":"openstreetmap.org","min_zoom":4.0,"id":2524841959,"name:ja":"\u30bf\u30eb\u30e9\u30c3\u30af"},"coordinates":[2587,738]},{"type":"Point","properties":{"admin_level":"6","kind":"locality","name":"Baguio","kind_detail":"city","source":"openstreetmap.org","min_zoom":8.0,"population":345366,"id":1435307555,"name:ja":"\u30d0\u30ae\u30aa"},"coordinates":[3094,3417]},{"type":"Point","properties":{"admin_level":"4","kind":"locality","name":"Tarlac City","kind_detail":"city","source":"openstreetmap.org","min_zoom":8.0,"name:tl":"Tarlac","population":342493,"name:ru":"\u0422\u0430\u0440\u043b\u0430\u043a","name:hu":"Tarlac","name:uk":"\u0422\u0430\u0440\u043b\u0430\u043a","id":30917648,"name:ja":"\u30bf\u30eb\u30e9\u30c3\u30af"},"coordinates":[3083,611]},{"type":"Point","properties":{"kind":"locality","name":"Dagupan","kind_detail":"city","source":"openstreetmap.org","min_zoom":8.0,"name:ru":"\u0414\u0430\u0433\u0443\u043f\u0430\u043d","population":171271,"id":317405147,"name:ja":"\u30c0\u30b0\u30d1\u30f3"},"coordinates":[2349,2297]},{"type":"Point","properties":{"kind":"locality","name":"Urdaneta","kind_detail":"city","source":"openstreetmap.org","min_zoom":8.0,"population":132940,"id":30917625,"name:ja":"\u30a2\u30fc\u30c0\u30cd\u30fc\u30bf"},"coordinates":[3017,2094]},{"type":"Point","properties":{"admin_level":"3","kind":"locality","name":"San Fernando","kind_detail":"city","source":"openstreetmap.org","min_zoom":8.0,"population":121812,"id":198529227,"name:ja":"\u30b5\u30f3\u30d5\u30a7\u30eb\u30ca\u30f3\u30c9"},"coordinates":[2290,4036]},{"type":"Point","properties":{"kind":"locality","name":"Guimba","kind_detail":"town","source":"openstreetmap.org","min_zoom":8.0,"population":118655,"id":198494353,"name:ja":"\u30ae\u30f3\u30d0"},"coordinates":[3596,1143]},{"type":"Point","properties":{"admin_level":"4","kind":"locality","name":"La Trinidad","kind_detail":"town","source":"openstreetmap.org","min_zoom":8.0,"population":107188,"id":198508568,"name:ja":"\u30e9\u30fb\u30c8\u30ea\u30cb\u30c0\u30fc\u30c9"},"coordinates":[3080,3567]},{"type":"Point","properties":{"kind":"locality","name":"Alaminos","kind_detail":"city","source":"openstreetmap.org","min_zoom":8.0,"population":89708,"id":198530652,"name:ja":"\u30a2\u30e9\u30df\u30ce\u30b9"},"coordinates":[1308,2643]},{"type":"Point","properties":{"kind":"locality","name":"Mu\u00f1oz","kind_detail":"city","official_name":"Science City of Mu\u00f1oz","source":"openstreetmap.org","min_zoom":8.0,"population":81483,"id":198497745,"name:ja":"\u30e0\u30cb\u30e7\u30b9"},"coordinates":[3999,1300]},{"type":"Point","properties":{"source":"openstreetmap.org","kind":"locality","name":"San Antonio","kind_detail":"town","population":73074,"min_zoom":8.0,"id":3120269384},"coordinates":[3841,68]},{"type":"Point","properties":{"source":"openstreetmap.org","kind":"locality","name":"Jaen","kind_detail":"town","population":67057,"min_zoom":8.0,"id":198510833},"coordinates":[4004,160]},{"type":"Point","properties":{"source":"openstreetmap.org","kind":"locality","name":"Itogon","kind_detail":"town","population":59820,"min_zoom":8.0,"id":198495260},"coordinates":[3338,3258]},{"type":"Point","properties":{"source":"openstreetmap.org","kind":"locality","name":"Santa Cruz","kind_detail":"town","population":58151,"min_zoom":8.0,"id":198502253},"coordinates":[1103,1449]},{"type":"Point","properties":{"source":"openstreetmap.org","kind":"locality","name":"Botolan","kind_detail":"town","population":54434,"min_zoom":8.0,"id":198492705},"coordinates":[1437,15]},{"type":"Point","properties":{"source":"openstreetmap.org","kind":"locality","name":"Urbiztondo","kind_detail":"town","population":53203,"min_zoom":8.0,"id":198498365},"coordinates":[2325,1633]},{"type":"Point","properties":{"source":"openstreetmap.org","kind":"locality","name":"San Isidro","kind_detail":"town","population":47800,"min_zoom":8.0,"id":198503437},"coordinates":[4005,77]},{"type":"Point","properties":{"source":"openstreetmap.org","kind":"locality","name":"Zaragoza","kind_detail":"town","population":44124,"min_zoom":8.0,"id":198492570},"coordinates":[3677,495]},{"type":"Point","properties":{"source":"openstreetmap.org","kind":"locality","name":"Tuba","kind_detail":"town","population":42874,"min_zoom":8.0,"id":198529122},"coordinates":[3003,3359]},{"type":"Point","properties":{"source":"openstreetmap.org","kind":"locality","name":"Palauig","kind_detail":"town","population":34947,"min_zoom":8.0,"id":198528572},"coordinates":[1087,450]},{"type":"Point","properties":{"source":"openstreetmap.org","kind":"locality","name":"Licab","kind_detail":"town","population":28254,"min_zoom":8.0,"id":198492654},"coordinates":[3589,776]},{"type":"Point","properties":{"source":"openstreetmap.org","kind":"locality","name":"Infanta","kind_detail":"town","population":24584,"min_zoom":8.0,"id":198515653},"coordinates":[1091,1639]},{"type":"Point","properties":{"source":"openstreetmap.org","kind":"locality","name":"Talugtug","kind_detail":"town","population":23817,"min_zoom":8.0,"id":2034728926},"coordinates":[3719,1496]},{"type":"Point","properties":{"source":"openstreetmap.org","kind":"locality","name":"Caba","kind_detail":"town","population":22039,"min_zoom":8.0,"id":4503544244},"coordinates":[2368,3474]},{"type":"Point","properties":{"source":"openstreetmap.org","kind":"locality","name":"Atok","kind_detail":"town","population":19668,"min_zoom":8.0,"id":198524242},"coordinates":[3601,4070]},{"type":"Point","properties":{"source":"openstreetmap.org","kind":"locality","name":"Tublay","kind_detail":"town","population":16555,"min_zoom":8.0,"id":198522498},"coordinates":[3209,3608]},{"type":"Point","properties":{"source":"openstreetmap.org","kind":"locality","name":"Pugo","kind_detail":"town","population":16518,"min_zoom":8.0,"id":198522459},"coordinates":[2727,3139]},{"type":"Point","properties":{"source":"openstreetmap.org","kind":"locality","name":"Kabayan","kind_detail":"town","population":15260,"min_zoom":8.0,"id":198510984},"coordinates":[3808,4057]}]},"transit":{"type":"GeometryCollection","geometries":[]},"pois":{"type":"GeometryCollection","geometries":[]},"boundaries":{"type":"GeometryCollection","geometries":[{"type":"LineString","properties":{"name:cy":"Pilipinas","name:ko":"\ud544\ub9ac\ud540","name:cv":"\u0424\u0438\u043b\u0438\u043f\u043f\u0438\u043d","name:km":"\u17a0\u17d2\u179c\u17b8\u179b\u17b8\u1796\u17b8\u1793","name:cs":"Filip\u00edny","name:tt":"\u0424\u0438\u043b\u0438\u043f\u043f\u0438\u043d\u043d\u0430\u0440","name:kw":"Filipinys","name:kv":"\u0424\u0438\u043b\u0438\u043f\u043f\u0438\u043d\u044a\u044f\u0441","name:ku":"Fil\u00eep\u00een","name:tl":"Pilipinas","name:ce":"\u0424\u0438\u043b\u0438\u043f\u043f\u0438\u043d","name:ta":"\u0baa\u0bbf\u0bb2\u0bbf\u0baa\u0bcd\u0baa\u0bc0\u0ba9\u0bcd\u0b9a\u0bc1","name:tg":"\u0424\u0438\u043b\u0438\u043f\u043f\u0438\u043d","name:ca":"Filipines","name:te":"\u0c2b\u0c3f\u0c32\u0c3f\u0c2a\u0c4d\u0c2a\u0c40\u0c28\u0c4d\u0c38\u0c4d","name:ka":"\u10e4\u10d8\u10da\u10d8\u10de\u10d8\u10dc\u10d4\u10d1\u10d8","name:qu":"Philipinakuna","name:da":"Filippinerne","name:de":"Philippinen","source":"openstreetmap.org","name:kn":"\u0cab\u0cbf\u0cb2\u0cbf\u0caa\u0ccd\u0caa\u0cc0\u0ca8\u0ccd\u0cb8\u0ccd","name:dv":"\u078a\u07a8\u078d\u07a8\u0795\u07a9\u0782\u07b0\u0790\u07b0","name:lv":"Filip\u012bnas","name:lt":"Filipinai","name:uz":"Filippin","name:kk":"\u0424\u0438\u043b\u0438\u043f\u043f\u0438\u043d\u0434\u0435\u0440","name:ur":"\u0641\u0644\u067e\u0627\u0626\u0646","name:lb":"Philippinen","name:la":"Philippinae","name:uk":"\u0424\u0456\u043b\u0456\u043f\u043f\u0456\u043d\u0438","name:ug":"\u0641\u0649\u0644\u0649\u067e\u067e\u0649\u0646","name:li":"Filipiene","name:el":"\u03a6\u03b9\u03bb\u03b9\u03c0\u03c0\u03af\u03bd\u03b5\u03c2","name:eo":"Filipinoj","name":"Philippines","name:tk":"Filippinler","name:th":"\u0e1b\u0e23\u0e30\u0e40\u0e17\u0e28\u0e1f\u0e34\u0e25\u0e34\u0e1b\u0e1b\u0e34\u0e19\u0e2a\u0e4c","name:eu":"Filipinak","name:et":"Filipiinid","name:es":"Filipinas","name:ia":"Philippinas","name:az":"Filippin","name:ie":"Filipines","name:id":"Filipina","name:ar":"\u0627\u0644\u0641\u0644\u0628\u064a\u0646","name:io":"Filipini","name:is":"Filippseyjar","name:am":"\u134a\u120a\u1352\u1295\u1235","name:it":"Filippine","name:an":"Filipinas","name:ru":"\u0424\u0438\u043b\u0438\u043f\u043f\u0438\u043d\u044b","name:rw":"Filipine","name:af":"Filippyne","kind_detail":"2","name:za":"Feihlizbinh","name:zh-yue":"\u83f2\u5f8b\u8cd3","name:zh":"\u83f2\u5f8b\u8cd3","name:so":"Filibiin","name:sm":"Filipaina","name:sl":"Filipini","name:sk":"Filip\u00edny","name:ja":"\u30d5\u30a3\u30ea\u30d4\u30f3","name:si":"\u0db4\u0dd2\u0dbd\u0dd2\u0db4\u0dd3\u0db1\u0dba","name:sh":"Filipini","name:sg":"Filip\u00eeni","name:se":"Filippiinnat","name:br":"Filipinez","name:bs":"Filipini","name:bn":"\u09ab\u09bf\u09b2\u09bf\u09aa\u09be\u0987\u09a8","name:bo":"\u0f67\u0fa5\u0f72\u0f0b\u0f63\u0f72\u0f0b\u0f54\u0f72\u0f53\u0f0d","name:sa":"\u0915\u0932\u093f\u0902\u0917\u0926\u094d\u0935\u0940\u092a","name:sw":"Ufilipino","name:be":"\u0424\u0456\u043b\u0456\u043f\u0456\u043d\u044b","name:su":"Pilipina","name:bg":"\u0424\u0438\u043b\u0438\u043f\u0438\u043d\u0438","name:ss":"IFiliphayi","name:sr":"\u0424\u0438\u043b\u0438\u043f\u0438\u043d\u0438","name:sq":"Filipinet","name:jv":"Filipina","name:pt":"Filipinas","name:ps":"\u0641\u0644\u06d0\u067e\u064a\u0646","name:oc":"Filipinas","min_zoom":8.0,"name:ro":"Filipine","name:zh-min-nan":"Hui-li\u030dp-pin","name:os":"\u0424\u0438\u043b\u0438\u043f\u043f\u0438\u043d\u0442\u00e6","name:or":"\u0b2b\u0b3f\u0b32\u0b3f\u0b2a\u0b3e\u0b07\u0b28\u0b4d\u0b38","name:pl":"Filipiny","sort_rank":262,"osm_relation":true,"name:pa":"\u0a2b\u0a3c\u0a3f\u0a32\u0a2a\u0a40\u0a28\u0a1c\u0a3c","name:tr":"Filipinler","name:hi":"\u092b\u093c\u093f\u0932\u0940\u092a\u0940\u0928\u094d\u0938","name:sv":"Filippinerna","name:he":"\u05d4\u05e4\u05d9\u05dc\u05d9\u05e4\u05d9\u05e0\u05d9\u05dd","name:hy":"\u0556\u056b\u056c\u056b\u057a\u056b\u0576\u0576\u0565\u0580","name:ht":"Filipin","name:hu":"F\u00fcl\u00f6p-szigetek","name:hr":"Filipini","kind":"country","name:yi":"\u05e4\u05d9\u05dc\u05d9\u05e4\u05d9\u05e0\u05e2\u05df","name:yo":"Filip\u00edn\u00ec","name:ms":"Filipina","name:mr":"\u092b\u093f\u0932\u093f\u092a\u093e\u0908\u0928\u094d\u0938","name:my":"\u1016\u102d\u101c\u1005\u103a\u1015\u102d\u102f\u1004\u103a\u1014\u102d\u102f\u1004\u103a\u1004\u1036","official_name":"Rep\u00fablika ng Pilipinas","name:mg":"Filipina","name:ml":"\u0d2b\u0d3f\u0d32\u0d3f\u0d2a\u0d4d\u0d2a\u0d40\u0d7b\u0d38\u0d4d","name:mn":"\u0424\u0438\u043b\u0438\u043f\u043f\u0438\u043d","id":-443174,"name:mk":"\u0424\u0438\u043b\u0438\u043f\u0438\u043d\u0438","name:vo":"Filipu\u00e4ns","name:fa":"\u0641\u06cc\u0644\u06cc\u067e\u06cc\u0646","name:fi":"Filippiinit","name:fo":"Filipsoyggjar","name:fy":"Filipinen","name:nl":"Filipijnen","name:nn":"Filippinane","name:no":"Filippinene","name:na":"Eben Piripin","name:ne":"\u092b\u093f\u0932\u093f\u092a\u093f\u0928\u094d\u0938","name:wa":"Filipenes","name:wo":"Filipiin","name:nv":"K\u00e9yah Da\u0144l\u00edinii","name:ga":"Na hOile\u00e1in Fhilip\u00edneacha","name:gd":"Na h-Eileanan Filipineach","name:gn":"Filipina","name:gl":"Filipinas","maritime_boundary":true,"name:gv":"Ny h-Ellanyn Philippeenagh","name:gu":"\u0aab\u0ac0\u0ab2\u0ac0\u0aaa\u0abe\u0a88\u0aa8\u0acd\u0ab8"},"arcs":[0]},{"type":"LineString","properties":{"kind":"region","name:right:ja":"\u30d9\u30f3\u30b2\u30c3\u30c8","name":"La Union - Benguet","sort_rank":256,"kind_detail":"4","name:left:ja":"\u30e9\u30a6\u30cb\u30aa\u30f3","id:right":-52304,"source":"openstreetmap.org","min_zoom":8.0,"id:left":-1504722,"name:left":"La Union","id":-1504722,"osm_relation":true,"name:right":"Benguet"},"arcs":[1]},{"type":"LineString","properties":{"kind":"region","name":"La Union","sort_rank":256,"kind_detail":"4","source":"openstreetmap.org","min_zoom":8.0,"id":-1504722,"osm_relation":true,"name:ja":"\u30e9\u30a6\u30cb\u30aa\u30f3"},"arcs":[2]},{"type":"LineString","properties":{"kind":"region","name":"La Union","sort_rank":256,"kind_detail":"4","min_zoom":8.0,"source":"openstreetmap.org","maritime_boundary":true,"id":-1504722,"osm_relation":true,"name:ja":"\u30e9\u30a6\u30cb\u30aa\u30f3"},"arcs":[3]},{"type":"LineString","properties":{"name:right:ja":"\u30cc\u30a8\u30f4\u30a1\u30fb\u30f4\u30a3\u30b9\u30ab\u30e4","name:left:ja":"\u30cc\u30a8\u30f4\u30a1\u30fb\u30a8\u30b7\u30cf","id:right":-52305,"min_zoom":8.0,"name:left:ru":"\u041d\u043e\u0432\u0430\u044f \u042d\u0441\u0438\u0445\u0430","id":-52306,"osm_relation":true,"name:right":"Nueva Vizcaya","kind":"region","name:left:eo":"Nova Ekijo","name":"Nueva Ecija - Nueva Vizcaya","sort_rank":256,"kind_detail":"4","source":"openstreetmap.org","id:left":-52306,"name:left":"Nueva Ecija"},"arcs":[4]},{"type":"LineString","properties":{"kind":"region","name":"Nueva Ecija","sort_rank":256,"kind_detail":"4","name:eo":"Nova Ekijo","source":"openstreetmap.org","min_zoom":8.0,"name:ru":"\u041d\u043e\u0432\u0430\u044f \u042d\u0441\u0438\u0445\u0430","id":-52306,"osm_relation":true,"name:ja":"\u30cc\u30a8\u30f4\u30a1\u30fb\u30a8\u30b7\u30cf"},"arcs":[5]},{"type":"LineString","properties":{"kind":"region","name:right:ja":"\u30d9\u30f3\u30b2\u30c3\u30c8","name":"Nueva Vizcaya - Benguet","sort_rank":256,"kind_detail":"4","name:left:ja":"\u30cc\u30a8\u30f4\u30a1\u30fb\u30f4\u30a3\u30b9\u30ab\u30e4","id:right":-52304,"source":"openstreetmap.org","min_zoom":8.0,"id:left":-52305,"name:left":"Nueva Vizcaya","id":-52305,"osm_relation":true,"name:right":"Benguet"},"arcs":[6]},{"type":"LineString","properties":{"kind":"region","name:right:ja":"\u30a4\u30d5\u30ac\u30aa","name":"Nueva Vizcaya - Ifugao","sort_rank":256,"kind_detail":"4","name:left:ja":"\u30cc\u30a8\u30f4\u30a1\u30fb\u30f4\u30a3\u30b9\u30ab\u30e4","id:right":-52303,"source":"openstreetmap.org","min_zoom":8.0,"id:left":-52305,"name:left":"Nueva Vizcaya","id":-52305,"osm_relation":true,"name:right":"Ifugao"},"arcs":[7]},{"type":"LineString","properties":{"kind":"region","name":"Nueva Vizcaya","sort_rank":256,"kind_detail":"4","source":"openstreetmap.org","min_zoom":8.0,"id":-52305,"osm_relation":true,"name:ja":"\u30cc\u30a8\u30f4\u30a1\u30fb\u30f4\u30a3\u30b9\u30ab\u30e4"},"arcs":[8]},{"type":"LineString","properties":{"kind":"region","name:right:ja":"\u30a4\u30d5\u30ac\u30aa","name":"Benguet - Ifugao","sort_rank":256,"kind_detail":"4","name:left:ja":"\u30d9\u30f3\u30b2\u30c3\u30c8","id:right":-52303,"source":"openstreetmap.org","min_zoom":8.0,"id:left":-52304,"name:left":"Benguet","id":-52304,"osm_relation":true,"name:right":"Ifugao"},"arcs":[9]},{"type":"LineString","properties":{"kind":"region","name":"Benguet","sort_rank":256,"kind_detail":"4","source":"openstreetmap.org","min_zoom":8.0,"id":-52304,"osm_relation":true,"name:ja":"\u30d9\u30f3\u30b2\u30c3\u30c8"},"arcs":[10]}]},"roads":{"type":"GeometryCollection","geometries":[{"type":"MultiLineString","properties":{"source":"openstreetmap.org","kind":"major_road","sort_rank":380,"kind_detail":"primary","ref":"55","min_zoom":8.0},"arcs":[[16],[17]]},{"type":"MultiLineString","properties":{"kind":"major_road","network":"ph:nhn","sort_rank":381,"landuse_kind":"park","source":"openstreetmap.org","min_zoom":8.0,"kind_detail":"trunk","shield_text":"110","ref":"110"},"arcs":[[18],[19]]},{"type":"MultiLineString","properties":{"kind":"major_road","network":"ph:nhn","sort_rank":380,"kind_detail":"primary","source":"openstreetmap.org","min_zoom":8.0,"shield_text":"209","ref":"209"},"arcs":[[20],[21],[22]]},{"type":"LineString","properties":{"kind":"major_road","network":"ph:nhn","sort_rank":381,"kind_detail":"trunk","source":"openstreetmap.org","min_zoom":8.0,"shield_text":"58","ref":"58"},"arcs":[23]},{"type":"MultiLineString","properties":{"kind":"highway","network":"ph:nhn","sort_rank":383,"kind_detail":"motorway","official_name":"Tarlac-Pangasinan-La Union Expressway","source":"openstreetmap.org","min_zoom":8.0,"all_networks":["ph:nhn"],"shield_text":"1","ref":"E1","all_shield_texts":["1"]},"arcs":[[24],[25]]},{"type":"MultiLineString","properties":{"source":"openstreetmap.org","kind":"major_road","landuse_kind":"urban_area","sort_rank":380,"kind_detail":"primary","min_zoom":8.0},"arcs":[[26],[27],[28],[29],[30],[31],[32],[33],[34],[35],[36],[37],[38],[39],[40],[41],[42],[43],[44]]},{"type":"MultiLineString","properties":{"kind":"major_road","network":"ph:nhn","sort_rank":381,"landuse_kind":"urban_area","source":"openstreetmap.org","min_zoom":8.0,"kind_detail":"trunk","shield_text":"55","ref":"55"},"arcs":[[45],[46],[47]]},{"type":"MultiLineString","properties":{"source":"openstreetmap.org","kind":"highway","sort_rank":383,"kind_detail":"motorway","ref":"E1","min_zoom":8.0,"official_name":"Tarlac-Pangasinan-La Union Expressway"},"arcs":[[48],[49]]},{"type":"LineString","properties":{"kind":"major_road","network":"ph:nhn","sort_rank":380,"kind_detail":"primary","source":"openstreetmap.org","min_zoom":8.0,"landuse_kind":"urban_area","shield_text":"55","ref":"55"},"arcs":[50]},{"type":"MultiLineString","properties":{"kind":"major_road","network":"ph:nhn","sort_rank":381,"kind_detail":"trunk","source":"openstreetmap.org","min_zoom":8.0,"shield_text":null,"ref":"1;AH26"},"arcs":[[51],[52],[53],[54],[55]]},{"type":"LineString","properties":{"kind":"major_road","network":"ph:nhn","sort_rank":380,"kind_detail":"primary","source":"openstreetmap.org","min_zoom":8.0,"nat_name":"Leonard Wood Rd","shield_text":"110","landuse_kind":"urban_area","ref":"110","id":331614610},"arcs":[56]},{"type":"LineString","properties":{"kind":"major_road","network":"ph:nhn","sort_rank":381,"kind_detail":"trunk","source":"openstreetmap.org","min_zoom":8.0,"shield_text":"241","ref":"241"},"arcs":[57]},{"type":"MultiLineString","properties":{"kind":"major_road","network":"ph:nhn","sort_rank":380,"kind_detail":"primary","source":"openstreetmap.org","min_zoom":8.0,"shield_text":"55","ref":"55"},"arcs":[[58],[59]]},{"type":"MultiLineString","properties":{"kind":"major_road","network":"ph:nhn","sort_rank":381,"landuse_kind":"urban_area","source":"openstreetmap.org","min_zoom":8.0,"kind_detail":"trunk","shield_text":"2","ref":"2"},"arcs":[[60],[61],[62]]},{"type":"LineString","properties":{"kind":"major_road","network":"ph:nhn","sort_rank":381,"kind_detail":"trunk","source":"openstreetmap.org","min_zoom":8.0,"landuse_kind":"urban_area","shield_text":"208","ref":"208","id":190596439},"arcs":[63]},{"type":"LineString","properties":{"kind":"major_road","network":"ph:nhn","sort_rank":381,"kind_detail":"trunk","source":"openstreetmap.org","min_zoom":8.0,"shield_text":"55","ref":"55"},"arcs":[64]},{"type":"MultiLineString","properties":{"sort_rank":381,"source":"openstreetmap.org","min_zoom":8.0,"kind":"major_road","kind_detail":"trunk"},"arcs":[[65],[66],[67],[68],[69],[70],[71],[72],[73],[74],[75],[76],[77],[78],[79],[80],[81],[82],[83],[84],[85],[86],[87],[88],[89],[90],[91],[92],[93],[94]]},{"type":"MultiLineString","properties":{"kind":"major_road","network":"ph:nhn","short_name":"Naguilian Road","sort_rank":381,"kind_detail":"trunk","source":"openstreetmap.org","min_zoom":8.0,"old_name":"Naguilian Road","shield_text":"54","ref":"54"},"arcs":[[95],[96],[97]]},{"type":"LineString","properties":{"kind":"major_road","sort_rank":381,"kind_detail":"trunk","is_bicycle_related":true,"bicycle_shield_text":null,"bicycle_network":"ncn","source":"openstreetmap.org","min_zoom":8.0,"ref":"55"},"arcs":[98]},{"type":"MultiLineString","properties":{"kind":"major_road","network":"ph:nhn","sort_rank":381,"landuse_kind":"urban_area","source":"openstreetmap.org","min_zoom":8.0,"kind_detail":"trunk","shield_text":"204","ref":"204"},"arcs":[[99],[100],[101],[102],[103],[104],[105],[106],[107],[108]]},{"type":"MultiLineString","properties":{"kind":"major_road","network":"ph:nhn","sort_rank":380,"kind_detail":"primary","source":"openstreetmap.org","min_zoom":8.0,"shield_text":"242","ref":"242"},"arcs":[[109],[110],[111],[112]]},{"type":"MultiLineString","properties":{"kind":"major_road","network":"ph:nhn","sort_rank":381,"kind_detail":"trunk","source":"openstreetmap.org","min_zoom":8.0,"shield_text":"54","ref":"54"},"arcs":[[113],[114],[115],[116],[117],[118],[119],[120],[121],[122],[123]]},{"type":"MultiLineString","properties":{"kind":"major_road","network":"ph:nhn","sort_rank":380,"kind_detail":"primary","source":"openstreetmap.org","min_zoom":8.0,"shield_text":"231","ref":"231"},"arcs":[[124],[125]]},{"type":"LineString","properties":{"kind":"major_road","network":"ph:nhn","sort_rank":380,"kind_detail":"primary","source":"openstreetmap.org","min_zoom":8.0,"shield_text":"242","id":339188966},"arcs":[126]},{"type":"LineString","properties":{"source":"openstreetmap.org","kind":"major_road","landuse_kind":"park","sort_rank":380,"kind_detail":"primary","ref":"207","min_zoom":8.0},"arcs":[127]},{"type":"LineString","properties":{"source":"openstreetmap.org","kind":"ferry","name":"Candelaria - Potipot","sort_rank":355,"min_zoom":8.0,"id":116945359},"arcs":[128]},{"type":"MultiLineString","properties":{"kind":"major_road","network":"ph:nhn","sort_rank":381,"kind_detail":"trunk","source":"openstreetmap.org","min_zoom":8.0,"shield_text":"110","ref":"110"},"arcs":[[129],[130],[131],[132]]},{"type":"MultiLineString","properties":{"kind":"major_road","network":"ph:nhn","sort_rank":380,"kind_detail":"primary","source":"openstreetmap.org","min_zoom":8.0,"landuse_kind":"urban_area","shield_text":"231","ref":"231"},"arcs":[[133],[134],[135],[136],[137],[138],[139],[140],[141]]},{"type":"MultiLineString","properties":{"kind":"major_road","network":"ph:nhn","sort_rank":381,"landuse_kind":"urban_area","source":"openstreetmap.org","min_zoom":8.0,"kind_detail":"trunk","shield_text":"54","ref":"54"},"arcs":[[142],[143],[144],[145],[146],[147],[148],[149]]},{"type":"LineString","properties":{"kind":"major_road","network":"ph:nhn","short_name":"Naguilian Road","sort_rank":381,"kind_detail":"trunk","source":"openstreetmap.org","min_zoom":8.0,"old_name":"Naguilian Road","shield_text":"54","landuse_kind":"urban_area","ref":"54","id":110344927},"arcs":[150]},{"type":"MultiLineString","properties":{"kind":"major_road","network":"ph:nhn","sort_rank":381,"kind_detail":"trunk","source":"openstreetmap.org","min_zoom":8.0,"shield_text":"208","ref":"208"},"arcs":[[151],[152],[153]]},{"type":"MultiLineString","properties":{"source":"openstreetmap.org","kind":"major_road","landuse_kind":"park","sort_rank":381,"kind_detail":"trunk","ref":"306","min_zoom":8.0},"arcs":[[154],[155],[156]]},{"type":"LineString","properties":{"kind":"major_road","network":"ph:nhn","sort_rank":380,"kind_detail":"primary","source":"openstreetmap.org","min_zoom":8.0,"shield_text":"2","ref":"2","id":126576439},"arcs":[157]},{"type":"MultiLineString","properties":{"kind":"major_road","network":"ph:nhn","sort_rank":381,"kind_detail":"trunk","source":"openstreetmap.org","min_zoom":8.0,"shield_text":"57","ref":"57"},"arcs":[[158],[159],[160]]},{"type":"MultiLineString","properties":{"kind":"major_road","network":"ph:nhn","sort_rank":381,"kind_detail":"trunk","source":"openstreetmap.org","min_zoom":8.0,"shield_text":"204","ref":"204"},"arcs":[[161],[162],[163],[164],[165],[166]]},{"type":"MultiLineString","properties":{"sort_rank":380,"kind_detail":"primary","min_zoom":8.0,"kind":"major_road","source":"openstreetmap.org"},"arcs":[[167],[168],[169],[170],[171],[172],[173],[174],[175],[176],[177],[178],[179],[180],[181],[182],[183],[184],[185],[186],[187],[188],[189],[190],[191],[192],[193],[194],[195],[196],[197],[198],[199],[200],[201],[202],[203],[204],[205],[206],[207],[208],[209],[210],[211],[212],[213],[214],[215],[216],[217],[218],[219],[220],[221],[222],[223],[224],[225],[226],[227],[228],[229],[230],[231],[232],[233],[234],[235],[236],[237],[238],[239],[240],[241],[242],[243],[244],[245],[246],[247],[248],[249],[250],[251],[252],[253],[254],[255],[256],[257],[258],[259],[260],[261],[262],[263],[264],[265],[266],[267],[268],[269],[270],[271],[272],[273],[274],[275],[276],[277],[278],[279],[280],[281],[282],[283],[284],[285],[286],[287],[288],[289],[290],[291],[292],[293],[294],[295],[296],[297],[298],[299],[300],[301],[302],[303],[304],[305],[306],[307],[308],[309],[310],[311],[312],[313],[314],[315],[316],[317],[318],[319],[320],[321],[322],[323],[324],[325],[326],[327]]},{"type":"MultiLineString","properties":{"kind":"major_road","network":"ph:nhn","sort_rank":381,"kind_detail":"trunk","source":"openstreetmap.org","min_zoom":8.0,"shield_text":"2","ref":"2"},"arcs":[[328],[329],[330],[331],[332],[333],[334]]},{"type":"LineString","properties":{"kind":"major_road","network":"ph:nhn","short_name":"MNR","sort_rank":381,"kind_detail":"trunk","is_bicycle_related":true,"source":"openstreetmap.org","min_zoom":8.0,"shield_text":"2","ref":"2","id":146433515},"arcs":[335]},{"type":"LineString","properties":{"kind":"major_road","network":"ph:nhn","sort_rank":381,"kind_detail":"trunk","source":"openstreetmap.org","min_zoom":8.0,"landuse_kind":"urban_area","shield_text":"55","id":491078887},"arcs":[336]},{"type":"LineString","properties":{"kind":"major_road","network":"ph:nhn","sort_rank":381,"kind_detail":"trunk","source":"openstreetmap.org","min_zoom":8.0,"nat_name":"Pacdal Road","shield_text":"110","landuse_kind":"urban_area","ref":"110","id":333003198},"arcs":[337]},{"type":"MultiLineString","properties":{"source":"openstreetmap.org","kind":"major_road","sort_rank":381,"kind_detail":"trunk","ref":"55","min_zoom":8.0},"arcs":[[338],[339],[340],[341],[342],[343]]},{"type":"MultiLineString","properties":{"kind":"highway","network":"ph:nhn","sort_rank":383,"kind_detail":"motorway","official_name":"Subic-Clark-Tarlac Expressway","source":"openstreetmap.org","min_zoom":8.0,"all_networks":["ph:nhn"],"shield_text":"1","ref":"E1","all_shield_texts":["1"]},"arcs":[[344],[345]]},{"type":"LineString","properties":{"kind":"major_road","network":"ph:nhn","sort_rank":381,"kind_detail":"trunk","source":"openstreetmap.org","min_zoom":8.0,"shield_text":"302","ref":"302","id":82629282},"arcs":[346]},{"type":"MultiLineString","properties":{"source":"openstreetmap.org","kind":"major_road","kind_detail":"trunk","sort_rank":381,"landuse_kind":"urban_area","min_zoom":8.0},"arcs":[[347],[348],[349],[350],[351],[352],[353],[354],[355],[356],[357],[358]]},{"type":"LineString","properties":{"kind":"major_road","network":"ph:nhn","sort_rank":380,"kind_detail":"primary","source":"openstreetmap.org","min_zoom":8.0,"shield_text":"241","ref":"241","id":96383808},"arcs":[359]},{"type":"LineString","properties":{"kind":"major_road","network":"ph:nhn","sort_rank":380,"kind_detail":"primary","source":"openstreetmap.org","min_zoom":8.0,"shield_text":"232","id":346262111},"arcs":[360]},{"type":"LineString","properties":{"kind":"major_road","name:en":"MacArthur Highway","network":"ph:nhn","sort_rank":381,"kind_detail":"trunk","source":"openstreetmap.org","min_zoom":8.0,"shield_text":"2","ref":"2","id":78480811},"arcs":[361]},{"type":"LineString","properties":{"source":"openstreetmap.org","kind":"major_road","sort_rank":380,"kind_detail":"primary","ref":"306","min_zoom":8.0},"arcs":[362]},{"type":"LineString","properties":{"source":"openstreetmap.org","kind":"major_road","landuse_kind":"park","sort_rank":380,"kind_detail":"primary","min_zoom":8.0},"arcs":[363]},{"type":"MultiLineString","properties":{"kind":"major_road","network":"ph:nhn","sort_rank":381,"kind_detail":"trunk","is_bicycle_related":true,"source":"openstreetmap.org","min_zoom":8.0,"shield_text":"2","ref":"2"},"arcs":[[364],[365]]},{"type":"MultiLineString","properties":{"source":"openstreetmap.org","kind":"major_road","sort_rank":380,"kind_detail":"primary","ref":"242","min_zoom":8.0},"arcs":[[366],[367]]},{"type":"LineString","properties":{"kind":"major_road","network":"ph:nhn","sort_rank":381,"kind_detail":"trunk","source":"openstreetmap.org","min_zoom":8.0,"nat_name":"Pacdal Road","shield_text":"110","ref":"110","id":333003198},"arcs":[368]},{"type":"LineString","properties":{"kind":"major_road","network":"ph:nhn","sort_rank":381,"kind_detail":"trunk","source":"openstreetmap.org","min_zoom":8.0,"nat_name":"Pacdal Rd","shield_text":"110","landuse_kind":"urban_area","ref":"110","id":394005478},"arcs":[369]},{"type":"LineString","properties":{"kind":"major_road","network":"ph:nhn","short_name":"JASA","sort_rank":381,"kind_detail":"trunk","source":"openstreetmap.org","min_zoom":8.0,"old_name":"Gapan - San Fernando - Olongapo Road (GSO Road)","shield_text":"3","ref":"3"},"arcs":[370]},{"type":"LineString","properties":{"kind":"major_road","network":"ph:nhn","sort_rank":380,"kind_detail":"primary","source":"openstreetmap.org","min_zoom":8.0,"shield_text":"210","ref":"210"},"arcs":[371]},{"type":"LineString","properties":{"kind":"major_road","network":"ph:nhn","sort_rank":381,"landuse_kind":"urban_area","source":"openstreetmap.org","min_zoom":8.0,"kind_detail":"trunk","shield_text":"231","ref":"231"},"arcs":[372]},{"type":"LineString","properties":{"kind":"major_road","network":"ph:nhn","sort_rank":380,"kind_detail":"primary","source":"openstreetmap.org","min_zoom":8.0,"landuse_kind":"urban_area","shield_text":"110","ref":"110"},"arcs":[373]},{"type":"MultiLineString","properties":{"source":"openstreetmap.org","kind":"major_road","sort_rank":381,"kind_detail":"trunk","ref":"306","min_zoom":8.0},"arcs":[[374],[375],[376],[377],[378],[379],[380],[381],[382]]},{"type":"MultiLineString","properties":{"kind":"major_road","network":"ph:nhn","sort_rank":381,"landuse_kind":"park","source":"openstreetmap.org","min_zoom":8.0,"kind_detail":"trunk","shield_text":"204","ref":"204"},"arcs":[[383],[384],[385],[386],[387]]},{"type":"LineString","properties":{"kind":"major_road","network":"ph:nhn","sort_rank":381,"kind_detail":"trunk","source":"openstreetmap.org","min_zoom":8.0,"old_name":"Naguilian Road","shield_text":"54","ref":"54","id":208415140},"arcs":[388]}]},"earth":{"type":"GeometryCollection","geometries":[{"type":"MultiPolygon","properties":{"sort_rank":10,"source":"naturalearthdata.com","min_zoom":0.0,"kind":"earth","area":24461110290},"arcs":[[[389]],[[390]]]}]},"landuse":{"type":"GeometryCollection","geometries":[{"type":"Polygon","properties":{"source":"openstreetmap.org","kind":"park","area":26294500,"tier":2,"id":151678329,"min_zoom":8.0,"sort_rank":24},"arcs":[[391]]},{"type":"MultiPolygon","properties":{"source":"naturalearthdata.com","kind":"urban_area","name":"","area":431999364,"sort_rank":11,"min_zoom":4.0},"arcs":[[[392]],[[393]]]},{"type":"Polygon","properties":{"kind":"park","area":73712304,"sort_rank":24,"source":"openstreetmap.org","min_zoom":8.0,"tier":2,"id":-3080552,"osm_relation":true},"arcs":[[394]]},{"type":"Polygon","properties":{"source":"openstreetmap.org","kind":"park","area":117004000,"tier":2,"id":37121625,"min_zoom":7.0,"sort_rank":24},"arcs":[[395]]},{"type":"Polygon","properties":{"source":"openstreetmap.org","kind":"park","area":861555008,"tier":2,"id":37121618,"min_zoom":6.0,"sort_rank":24},"arcs":[[396]]}]}},"type":"Topology","transform":{"translate":[119.53125,15.2841851141],"scale":[0.0003433228,0.0003300798]},"arcs":[[[483,4096],[-343,-827],[-101,-578],[-8,-713],[98,-444],[183,-1534]],[[2883,2880],[-25,17],[-113,456],[-34,322],[325,421]],[[2397,2736],[193,60],[250,-7],[43,91]],[[1765,4096],[12,-160],[74,-149],[5,-123],[59,-175],[-15,-176],[72,-389],[121,-200],[161,-20],[143,32]],[[4096,2553],[-116,-34],[-64,-82]],[[3916,2437],[95,-274],[11,-95],[-38,-146],[-116,-90],[-13,-103],[-106,-177],[-39,-30],[-45,82],[-135,94],[-383,-86],[25,-247],[108,-253],[104,-114],[26,18],[138,-19],[-12,-64],[-70,-111],[55,-157],[-1,-163],[40,-41],[5,-43],[-56,-120],[-17,-125],[12,-42],[110,-60],[-12,-71]],[[3983,3979],[-30,-97],[2,-385],[-176,-366],[-94,9],[-107,-138],[-55,-133],[11,-102]],[[4096,4001],[-113,-22]],[[3534,2767],[298,-91],[84,-239]],[[3983,3979],[-61,117]],[[2883,2880],[411,-163],[240,50]],[[0,4096],[2244,0],[-1,-9],[16,-38],[0,-20],[-34,-1],[-20,2],[-8,7],[0,12],[-27,-27],[23,-57],[40,-73],[26,-72],[-23,-155],[39,-114],[70,-497],[17,-20],[19,-19],[15,-24],[0,61],[92,-120],[35,-70],[14,-70],[0,-122],[-13,-35],[-56,-60],[-13,-31],[-26,-46],[-104,-89],[-9,-41],[24,-2],[39,16],[38,8],[18,-22],[-12,-31],[-31,-9],[-34,7],[-20,12],[-33,-31],[-33,-65],[-36,-30],[23,83],[-42,33],[-101,-10],[-29,-11],[-52,-34],[-62,-14],[-68,2],[-135,38],[-58,29],[-39,43],[-15,61],[-27,193],[-10,11],[-23,-8],[-53,56],[-34,24],[-37,4],[-65,-1],[-29,19],[-84,91],[-17,25],[-30,15],[-132,33],[-38,25],[70,286],[0,60],[-27,48],[-72,20],[-62,-6],[-48,-13],[-13,-7],[-49,-34],[-13,-3],[-32,5],[-14,-2],[-31,-29],[-32,-49],[-26,-59],[-17,-126],[-53,-194],[-6,-40],[6,-94],[9,-32],[41,-45],[10,-28],[-10,-60],[-43,-128],[-7,-51],[-6,-346],[44,-90],[33,30],[9,11],[43,-6],[36,47],[46,41],[75,-19],[39,-43],[34,-62],[47,-123],[10,-63],[-7,-48],[-13,-44],[-10,-52],[17,-127],[-14,-48],[-64,-15],[41,-77],[61,-39],[50,-44],[8,-88],[-14,-41],[-38,-80],[-8,-33],[8,-40],[52,-116],[16,30],[4,13],[24,-22],[13,-37],[7,-33],[7,-15],[15,-8],[16,-19],[14,-23],[5,-21],[-19,-69],[-48,-48],[-59,-13],[-55,35],[15,-43],[4,-21],[1,-29],[-9,-16],[-43,-29],[-7,-25],[25,-56],[165,-164],[30,-47],[49,-100],[47,-72],[-1356,0],[0,4096]],[[1201,3318],[36,-21],[13,12],[-2,38],[-8,26],[-64,85],[-21,6],[-28,-2],[-24,-17],[-8,-27],[3,-48],[5,-17],[21,-3],[26,-10],[12,-19],[39,-3]],[[1310,2894],[35,-28],[36,6],[20,28],[-4,40],[-17,42],[2,131],[-25,58],[-7,20],[-10,18],[-21,16],[-32,6],[-24,-19],[-7,-17],[-4,-12],[-22,-9],[-31,-8],[-45,-49],[-15,-28],[9,-26],[33,-21],[58,-78],[57,-46],[14,-24]],[[1356,0],[-47,72],[-49,100],[-30,47],[-165,164],[-25,56],[7,25],[43,29],[9,16],[-1,29],[-4,21],[-15,43],[55,-35],[59,13],[48,48],[19,69],[-5,21],[-14,23],[-16,19],[-15,8],[-7,15],[-7,33],[-13,37],[-24,22],[-4,-13],[-16,-30],[-52,116],[-8,40],[8,33],[38,80],[14,41],[-8,88],[-50,44],[-61,39],[-41,77],[64,15],[14,48],[-17,127],[10,52],[13,44],[7,48],[-10,63],[-47,123],[-34,62],[-39,43],[-75,19],[-46,-41],[-36,-47],[-43,6],[-9,-11],[-33,-30],[-44,90],[6,346],[7,51],[43,128],[10,60],[-10,28],[-41,45],[-9,32],[-6,94],[6,40],[53,194],[17,126],[26,59],[32,49],[31,29],[14,2],[32,-5],[13,3],[49,34],[13,7],[48,13],[62,6],[72,-20],[27,-48],[0,-60],[-70,-286],[38,-25],[132,-33],[30,-15],[17,-25],[84,-91],[29,-19],[65,1],[37,-4],[34,-24],[53,-56],[23,8],[10,-11],[27,-193],[15,-61],[39,-43],[58,-29],[135,-38],[68,-2],[62,14],[52,34],[29,11],[101,10],[42,-33],[-23,-83],[36,30],[33,65],[33,31],[20,-12],[34,-7],[31,9],[12,31],[-18,22],[-38,-8],[-39,-16],[-24,2],[9,41],[104,89],[26,46],[13,31],[56,60],[13,35],[0,122],[-14,70],[-35,70],[-92,120],[0,-61],[-15,24],[-19,19],[-17,20],[-70,497],[-39,114],[23,155],[-26,72],[-40,73],[-23,57],[27,27],[0,-12],[8,-7],[20,-2],[34,1],[0,20],[-16,38],[1,9]],[[1380,2982],[2,131],[-25,58],[-7,20],[-10,18],[-21,16],[-32,6],[-24,-19],[-7,-17],[-4,-12],[-22,-9],[-31,-8],[-45,-49],[-15,-28],[9,-26],[33,-21],[58,-78],[57,-46],[14,-24],[35,-28],[36,6],[20,28],[-4,40],[-17,42]],[[2399,2309],[12,-3]],[[2445,2316],[99,51],[-30,117]],[[3214,3485],[27,-6]],[[3367,3430],[25,-21],[83,56],[29,31],[-28,34],[20,25],[34,-26],[55,77],[71,-21],[27,18],[82,-28],[11,-56],[73,-19],[47,-168]],[[2727,3133],[1,-3]],[[2728,3130],[-1,3]],[[2728,3130],[74,-156],[6,-49],[-39,-7],[15,-37]],[[4096,427],[-128,26]],[[3066,2174],[35,-191],[12,-41],[19,-46],[40,-78],[10,-49],[3,-41],[2,-15],[7,-36],[40,-138],[-13,-90],[-13,-25],[-17,-25],[-18,-28],[-3,-5],[-12,-28],[-6,-18],[-6,-43],[0,-24],[5,-63],[3,-25],[44,-128],[6,-141],[19,-71],[3,-6],[9,-15],[20,-27],[82,-146],[2,-60]],[[3340,576],[-3,55],[-81,146],[-33,48],[-25,212],[-44,128],[-1,155],[17,46],[38,58],[9,15],[4,10],[4,11],[9,80],[-62,278],[-70,165],[-35,190]],[[3072,612],[-29,-6]],[[3085,3525],[-27,-5]],[[3072,612],[1,0]],[[3073,613],[-1,-1]],[[3075,618],[-2,-5]],[[3073,612],[0,1]],[[3075,611],[-2,1]],[[3081,626],[-6,-8]],[[3076,618],[5,8]],[[3082,3427],[8,28]],[[3098,648],[5,-1]],[[3099,3423],[1,-1]],[[3103,674],[1,3]],[[3103,676],[1,1]],[[3103,649],[40,-45]],[[3147,704],[-43,-27]],[[3112,3414],[-3,2]],[[3118,3397],[0,1]],[[3163,3428],[-5,1]],[[3096,596],[-21,15]],[[3096,595],[1,-1],[2,-1]],[[3099,593],[-2,1]],[[2868,2614],[23,-72],[107,-213],[11,-57],[6,-20],[51,-78]],[[3067,2173],[-11,24],[-8,12],[-19,24],[-14,20],[-5,19],[-5,31],[-7,26],[-33,75],[-32,66],[-42,73],[-23,71]],[[3075,611],[-4,-26],[-38,12]],[[4096,88],[0,37]],[[4096,718],[-46,146],[-4,119],[-103,106],[18,116],[49,93],[86,75]],[[4096,2413],[-34,50],[34,175]],[[4096,2641],[0,1]],[[4096,2644],[0,2]],[[3157,3430],[0,-1],[1,0],[0,1],[-1,0]],[[2514,2484],[-167,-97],[9,-44]],[[3026,603],[2,76]],[[3033,597],[-6,6]],[[3099,597],[8,211]],[[3099,597],[1,-13]],[[3100,584],[8,-50]],[[3098,3386],[-52,-36]],[[3028,679],[-132,93]],[[962,2726],[-2,162],[98,162],[-4,297]],[[1308,2638],[-92,35],[-46,57],[-207,-4]],[[1309,124],[-32,55]],[[2000,2083],[19,114]],[[2019,2197],[1,1]],[[2019,2197],[20,36],[53,16],[55,8],[49,-56],[50,1],[46,21],[13,12]],[[2305,2235],[12,10]],[[2295,3973],[-1,1]],[[2294,3973],[1,0]],[[2295,3973],[35,123]],[[2305,2230],[-1,3],[1,2]],[[2305,2235],[7,53]],[[2314,2294],[-2,-6]],[[2313,2293]],[[2314,2294],[42,50]],[[2317,2244],[1,0]],[[2318,2244],[1,0]],[[2392,2233],[-62,-8],[-12,19]],[[2318,2244],[-1,1]],[[2317,2245],[1,0]],[[2356,2345],[0,-2]],[[2392,2233],[2,0]],[[2394,2234],[-2,-1]],[[2432,3167]],[[2522,2507],[-3,-6]],[[2896,772],[-53,75],[-223,168],[-66,99],[30,107]],[[3072,621],[-44,58]],[[3968,453],[-299,54],[-181,-26],[-116,56],[-27,70],[-38,19],[-142,-22]],[[4084,800],[12,12]],[[3153,3227],[1,0]],[[2489,3771],[-62,-36],[-101,31]],[[2952,3485],[-68,78],[-2,47],[-61,7],[-46,91],[-30,-23],[-55,68],[-44,-12]],[[3035,3416],[-29,-6],[-53,75]],[[2559,1220],[-82,46]],[[3088,3516],[-8,41]],[[3088,3516],[6,-10]],[[3091,3456],[0,-1]],[[3092,3510],[0,-1]],[[3096,3462],[-3,-10]],[[3094,3506],[2,-44]],[[3099,3434],[-3,28]],[[3099,3422],[3,9]],[[3099,3434],[0,-12]],[[3102,3431],[-3,3]],[[2968,1146],[-38,-16]],[[3026,1158],[-57,-11]],[[3070,1174],[-43,-15]],[[3053,1166],[17,-44]],[[2327,3765],[-1,-1]],[[2496,3774],[-7,-3]],[[2547,2899],[16,-49]],[[2646,3741],[-1,-1]],[[2835,2854],[-7,-3]],[[2833,2846],[2,8]],[[2835,2854],[41,38]],[[2878,2892],[-2,0]],[[2878,2892],[68,22],[216,195],[-8,118]],[[2953,3485],[-1,0]],[[3153,3227],[-26,36],[8,38]],[[3144,3317],[-2,0]],[[3155,3346],[12,-21],[-23,-8]],[[2969,1147],[-1,-1]],[[3730,3600],[36,16],[22,59],[-21,48],[31,52],[-13,67],[-48,15],[22,0],[11,42],[35,-4],[0,170]],[[1143,1193],[24,-22]],[[3180,3467],[34,18]],[[3241,3479],[57,-43],[39,20],[30,-26]],[[4096,3157],[-71,106],[-73,-13],[-56,82]],[[4096,3142],[0,11]],[[3099,3422],[12,-9]],[[3110,3415],[-10,7],[-1,0]],[[3112,3413],[6,-15]],[[3126,3393],[-8,4]],[[3128,3392],[0,1],[0,-1]],[[3128,3392],[1,-1]],[[3129,3391],[-1,1]],[[3129,3391],[26,-45]],[[3142,3317],[-9,0]],[[3108,3403],[-22,23]],[[3091,3422],[17,-19]],[[3102,3393],[-1,-5]],[[3101,3388],[1,5]],[[3102,3393],[6,10]],[[3102,3387],[33,-86]],[[3101,3387],[0,1]],[[3101,3388],[0,-1]],[[3086,3426],[-51,-10]],[[2725,3132],[-48,10],[-12,32],[-61,34],[-45,-2],[-19,-36],[-109,-3]],[[2725,3132],[6,2]],[[3046,3350],[-39,2],[-23,-46],[-73,38],[-89,-36],[11,-52],[-28,10],[-14,-94],[-16,16],[-44,-54]],[[1222,787]],[[1265,672],[3,12]],[[1269,715],[0,1]],[[2291,4077],[-16,19]],[[2398,2233],[-4,1]],[[2394,2233],[4,0]],[[3028,2095],[-130,20],[-93,-19],[-407,137]],[[3080,3557],[101,14]],[[3272,3677],[64,0]],[[3375,3714],[-5,35],[29,9]],[[3412,3780],[3,6]],[[3496,3875],[6,37],[60,20]],[[3572,3942],[27,154]],[[962,2726],[-63,-150],[-41,-38],[7,-39],[-34,-19],[-62,48],[-16,53],[-36,-2]],[[788,2510]],[[1069,2404],[-204,95]],[[1090,2442],[-81,206],[-3,76]],[[1058,3053],[115,29],[39,-33]],[[1296,132],[9,-6]],[[1297,2612],[38,-4]],[[1301,142],[42,-22],[2,-26]],[[2019,2198],[-129,-30],[-70,18]],[[1974,2246],[54,14]],[[2028,2260],[48,14]],[[2035,2232],[-1,0]],[[2034,2232],[-1,5],[-5,23]],[[2035,2232],[-1,0]],[[2034,2232]],[[2035,2232],[4,1]],[[2035,2232],[4,-2]],[[2380,1944],[-49,85],[-119,137],[-15,34]],[[2198,2200],[-1,-1]],[[2220,1533],[124,112],[-38,90],[20,177],[49,29]],[[2365,2308],[-29,-8],[-19,-55]],[[2365,2308],[34,1]],[[2393,2237],[-28,71]],[[2375,1941],[5,3]],[[2573,1924],[-163,-2],[-30,22]],[[2380,1945],[43,187]],[[2393,2237],[2,-6]],[[2395,2233]],[[2410,2200],[-15,31]],[[2567,3218],[-1,3]],[[2566,3221],[-65,124],[-100,-1]],[[2410,2199],[-1,-10]],[[2423,2132],[-14,56]],[[2411,2306],[34,10]],[[2531,2019],[-1,1]],[[2530,2020],[-43,48],[-11,13],[-53,51]],[[2435,870],[21,137]],[[2458,1008],[98,-142],[-94,-67],[0,-66],[57,-91],[53,1]],[[2465,1011],[98,66]],[[2530,2020]],[[2530,2020]],[[2636,2392],[-21,114],[-69,43]],[[2570,1929],[-10,32]],[[2564,3220],[2,1]],[[2566,3221],[2,0]],[[2568,3221],[26,5],[6,-18]],[[2566,3208],[2,13]],[[2568,3221]],[[2571,1927],[-1,0]],[[2571,643],[30,-81]],[[2573,1924],[211,-35],[142,34],[144,-39]],[[2906,1138],[-166,77],[-156,6],[76,186],[39,177],[-126,340]],[[2698,2841],[-45,209],[-63,152]],[[3274,1848],[-4,2]],[[3270,1850],[-3,2],[-1,0],[-54,-7]],[[3212,1845],[-4,-1],[-24,15],[-25,-9],[-147,-100],[-177,-72],[-79,-83],[-59,-4]],[[3021,622],[-137,3],[-68,62],[-85,-33],[15,-44],[-22,-8],[17,-23],[-18,-37]],[[3322,2361],[-8,-1]],[[3314,2360],[-103,-12],[-108,-38],[-12,0]],[[3091,2310],[-18,0],[-40,6],[-34,12],[-82,0],[-7,20],[-147,-40]],[[2784,2881],[30,-28]],[[3028,2106],[-79,35],[-164,163]],[[3081,152],[-43,53],[-126,3],[-18,26],[-104,22]],[[2814,2853],[-3,-2]],[[2820,2851],[-6,2]],[[2814,2852],[2,-1]],[[2947,2521],[-15,-52],[-43,-24],[-28,-108]],[[2866,2709],[22,-84]],[[3000,2649],[-26,-19],[-38,24],[-50,-10]],[[2930,1130],[-6,-1]],[[2952,3485],[33,36],[73,-1]],[[3043,606],[-17,-3]],[[3028,2095],[150,10],[133,78]],[[3048,1308],[6,4],[71,10]],[[3125,1322],[39,6],[65,41],[70,128]],[[3227,1152],[-155,17]],[[3078,1868],[55,28],[92,187],[88,41],[0,54]],[[3096,648],[-15,-22]],[[3081,626],[15,22]],[[3081,152],[5,0]],[[3081,152],[4,-17]],[[3083,2356],[8,-46]],[[3091,2310],[0,-1]],[[3195,135],[-79,48],[-21,-11]],[[3096,648],[2,0]],[[3106,2311],[165,-92],[30,4],[12,-6]],[[3313,2217],[52,-28],[17,-72],[3,-3],[20,-10]],[[3405,2104],[11,-5],[69,-68],[38,16],[1,-1],[210,67]],[[3734,2113],[4,2]],[[3110,453],[115,7]],[[3225,460],[-115,-6]],[[3227,1152],[-18,62],[-80,37],[-4,71]],[[3125,1322],[-1,1]],[[3131,953],[-1,-1]],[[3262,1028],[-151,-54],[19,-22]],[[3130,952],[4,-3]],[[3132,952],[-2,0]],[[3142,939],[187,-59],[22,9]],[[3351,889]],[[3349,884],[-202,-180]],[[3163,3428],[69,-10],[53,-64],[28,12],[48,-40],[-22,-66]],[[3209,140],[-14,-5]],[[3235,0],[-40,135]],[[3209,140],[-13,-10]],[[3337,3257],[-22,26],[-70,-5],[-22,22],[-18,-18]],[[3488,481],[-60,-186],[12,-73],[-145,-98],[-86,16]],[[3542,2239],[-97,-98],[-40,-37]],[[3405,2104],[-87,-80],[-41,-34],[-15,-44],[-51,-96],[0,-1],[1,-4]],[[3212,1845],[0,-1]],[[3297,457],[-72,3]],[[3262,1028],[-35,124]],[[3540,1167],[-278,-139]],[[3262,1028],[16,-58],[67,-68],[6,-13]],[[3351,889],[1,-3],[-3,-2]],[[3270,1850]],[[3270,1850],[-6,-30],[-1,-4],[-20,-106],[97,-86],[19,-121]],[[3274,1848],[3,-1]],[[3277,1847],[541,107]],[[3299,1497],[-8,-1]],[[3359,1503],[-60,-6]],[[3440,2365],[-101,4],[-14,-3],[-1,0],[-11,0]],[[3313,2366],[-11,-1]],[[3313,2361],[0,5]],[[3313,2366],[1,24],[4,27],[34,97]],[[3316,2184],[-3,9],[0,24]],[[3313,2217],[0,135],[0,1],[1,7]],[[3314,2360],[0,1]],[[3349,884],[99,-230],[6,-160]],[[3359,1503],[78,-202],[103,-134]],[[3537,2252],[146,46]],[[3683,2298],[4,1]],[[3736,2126],[-39,138],[-2,5],[-12,29]],[[3683,2298],[-98,81],[-48,-127]],[[3537,2252],[5,-13]],[[3600,1137],[-60,30]],[[3818,1954],[-3,52],[-78,114],[-195,119]],[[3600,1137],[1,12],[15,70]],[[3616,1219],[48,236],[23,34],[43,9],[48,-78],[69,8],[0,-76],[44,-29],[42,0],[52,15],[13,0]],[[3998,1338],[1,0]],[[3601,1128],[-1,9]],[[3722,834],[-121,294]],[[3946,1085],[-125,82],[-220,-39]],[[3612,1217],[4,2]],[[3616,1219],[139,72]],[[3722,834],[70,60],[133,39]],[[3722,834],[89,-184],[88,12]],[[3733,2120],[1,-7]],[[3734,2113],[1,-7]],[[3899,662],[-125,-171]],[[4096,1679],[-193,261],[-85,14]],[[4096,633],[-44,2],[-2,0]],[[4050,635],[-32,13],[-34,30],[-85,-16]],[[3925,933],[115,56]],[[3925,933],[17,151]],[[3995,1280],[4,56],[-1,2]],[[3998,1338],[-2,32],[-4,33],[7,82],[-59,205],[42,99]],[[4047,627],[49,-83]],[[4087,744],[-37,-109]],[[4050,635],[-2,-6]],[[4086,742],[1,1]],[[4095,106],[1,0]],[[2323,3783],[-36,267]],[[2291,4075],[0,2]],[[2327,3742],[-1,12]],[[3078,1867],[-50,228],[53,291],[-68,105],[-53,22],[-67,77],[-60,256],[-50,20],[-78,-28],[-158,61],[-116,265],[-104,570]],[[3014,0],[81,172],[-9,83],[33,120],[-11,159]],[[3080,1864],[-2,3]],[[3107,808],[34,133],[-71,176],[-32,209],[7,69],[86,140],[-7,212],[-44,117]],[[2326,3754],[0,11]],[[3097,594],[-1,2]],[[3163,3438],[-2,-3]],[[2000,2080],[0,3]],[[2001,2086],[-1,-6]],[[2476,1266],[-113,68],[-70,135],[-77,68],[-87,134],[-97,221],[-32,188]],[[2519,2501],[-5,-17]],[[2563,2850],[44,-162],[-17,-84],[-68,-97]],[[2559,1220],[0,-1]],[[3339,571],[-39,-133],[-17,-168],[-97,-164],[-58,-102],[-2,-4]],[[3133,0],[150,270],[21,181],[34,107],[2,18]],[[1781,2262],[10,-17]],[[3075,611],[-3,10]],[[3095,3459],[0,-1]],[[3096,595],[0,1]],[[3102,3393],[-4,-7]],[[3102,3434],[0,-3]],[[3102,3431],[0,3]],[[3102,616],[63,-12]],[[3102,3434],[4,7]],[[3108,3403],[-1,-1]],[[3108,3403]],[[3112,3399],[-4,4]],[[3106,3441]],[[2356,2343],[9,-35]],[[3205,3282],[-38,43]],[[2287,4050],[4,25]],[[1309,124],[-36,6],[4,49]],[[3805,4065],[-34,31]],[[2326,3765],[-3,18]],[[2327,3734],[0,8]],[[2560,1961],[-29,58],[8,169]],[[3027,1159],[-1,-1]],[[3180,3467],[-17,-29]],[[3161,3435],[-3,-5]],[[4096,58],[-123,10],[-43,-68]],[[2541,2381],[100,8],[122,-81]],[[3099,3422]],[[3112,3413],[44,16]],[[2000,2083],[-138,49],[-81,130],[-145,111],[-193,50],[-135,215],[-44,-186],[-59,-76],[-76,81],[-154,-112],[26,-213],[-15,-157],[131,-280],[-25,-54],[20,-53],[-30,-83],[15,-39]],[[1097,1466],[8,-15]],[[1105,1449],[-8,17]],[[1104,1450],[1,-1]],[[1222,787],[5,87],[-65,235],[31,95],[-90,116],[2,129]],[[1269,716],[-47,71]],[[1277,179],[-72,280],[67,97],[-20,40],[13,76]],[[1268,684],[1,31]],[[1463,0],[-3,16],[-151,108]],[[3181,3571],[91,106]],[[3336,3677],[39,37]],[[3399,3758],[13,22]],[[3415,3786],[81,89]],[[3562,3932],[10,10]],[[2645,3740],[-98,-27],[-20,61],[-31,0]],[[1381,2872],[-36,-6],[-35,28],[-14,24],[-57,46],[-58,78],[-33,21],[-9,26],[15,28],[45,49],[31,8],[22,9],[4,12],[7,17],[24,19],[32,-6],[21,-16],[10,-18],[7,-20],[25,-58],[-2,-131],[17,-42],[4,-40],[-20,-28]],[[4096,4096],[0,-4096],[-2740,0],[-47,72],[-49,100],[-30,47],[-165,164],[-25,56],[7,25],[43,29],[9,16],[-1,29],[-4,21],[-15,43],[55,-35],[59,13],[48,48],[19,69],[-5,21],[-14,23],[-16,19],[-15,8],[-7,15],[-7,33],[-13,37],[-24,22],[-4,-13],[-16,-30],[-52,116],[-8,40],[8,33],[38,80],[14,41],[-8,88],[-50,44],[-61,39],[-41,77],[64,15],[14,48],[-17,127],[10,52],[13,44],[7,48],[-10,63],[-47,123],[-34,62],[-39,43],[-75,19],[-46,-41],[-36,-47],[-43,6],[-9,-11],[-33,-30],[-44,90],[6,346],[7,51],[43,128],[10,60],[-10,28],[-41,45],[-9,32],[-6,94],[6,40],[53,194],[17,126],[26,59],[32,49],[31,29],[14,2],[32,-5],[13,3],[49,34],[13,7],[48,13],[62,6],[72,-20],[27,-48],[0,-60],[-70,-286],[38,-25],[132,-33],[30,-15],[17,-25],[84,-91],[29,-19],[65,1],[37,-4],[34,-24],[53,-56],[23,8],[10,-11],[27,-193],[15,-61],[39,-43],[58,-29],[135,-38],[68,-2],[62,14],[52,34],[29,11],[101,10],[42,-33],[-23,-83],[36,30],[33,65],[33,31],[20,-12],[34,-7],[31,9],[12,31],[-18,22],[-38,-8],[-39,-16],[-24,2],[9,41],[104,89],[26,46],[13,31],[56,60],[13,35],[0,122],[-14,70],[-35,70],[-92,120],[0,-61],[-15,24],[-19,19],[-17,20],[-70,497],[-39,114],[23,155],[-26,72],[-40,73],[-23,57],[27,27],[0,-12],[8,-7],[20,-2],[34,1],[0,20],[-16,38],[1,9],[1852,0]],[[1373,2736],[80,62],[-7,20],[63,67],[23,-41],[-12,-64],[-26,-5],[29,-78],[-47,0],[-49,-35],[-54,74]],[[3123,734],[9,-30],[33,0],[0,-169],[-64,-1],[-34,-32],[-55,42],[23,58],[65,34],[-33,169],[43,3],[13,-74]],[[3132,3295],[-75,20],[-26,81],[36,168],[62,-35],[33,-74],[3,-86],[-33,-74]],[[981,582],[123,290],[39,-32],[12,30],[66,0],[2,-27],[-41,-23],[40,-33],[-17,-34],[65,-38],[-20,-9],[25,-30],[-66,-30],[-4,-56],[-75,-8],[-40,52],[-18,-52],[-91,0]],[[2199,3105],[7,149],[142,11],[5,-182],[42,-108],[40,-56],[-15,53],[27,16],[56,-46],[68,-155],[-135,1],[-137,106],[-100,211]],[[3157,3543],[111,134],[67,0],[37,31],[61,111],[138,121],[34,84],[-5,72],[291,0],[-45,-91],[36,0],[13,-31],[-17,-62],[63,-85],[53,-11],[-8,-67],[-47,-53],[23,-181],[-39,-75],[6,-54],[-141,-232],[-89,-14],[1,51],[-69,92],[-2,52],[-71,62],[-46,-3],[-38,-44],[-43,6],[-93,108],[-38,-21],[-47,42],[-27,-12],[-69,70]]]}