{"objects":{"water":{"type":"GeometryCollection","geometries":[{"type":"MultiPolygon","properties":{"source":"naturalearthdata.com","kind":"ocean","area":1576712559132672,"sort_rank":200,"min_zoom":0.0,"id":1},"arcs":[[[21],[22]],[[23]]]},{"type":"Polygon","properties":{"source":"naturalearthdata.com","kind":"lake","name":"Lake Taal","area":128287056,"sort_rank":200,"min_zoom":0.0,"id":806},"arcs":[[24]]},{"type":"MultiLineString","properties":{"source":"naturalearthdata.com","kind":"ocean","sort_rank":205,"boundary":true,"min_zoom":0.0,"id":36},"arcs":[[25],[26],[27]]},{"type":"LineString","properties":{"source":"naturalearthdata.com","kind":"lake","sort_rank":367,"boundary":true,"min_zoom":0.0,"id":806},"arcs":[28]}]},"buildings":{"type":"GeometryCollection","geometries":[]},"places":{"type":"GeometryCollection","geometries":[{"type":"Point","properties":{"kind":"region","name":"Cavite","kind_detail":"state","name:eo":"Kavito","source":"openstreetmap.org","min_zoom":4.0,"name:ru":"\u041a\u0430\u0432\u0438\u0442\u0435","id":305704568},"coordinates":[3793,983]},{"type":"Point","properties":{"kind":"region","name":"Bataan","kind_detail":"state","name:eo":"Bataano","source":"openstreetmap.org","min_zoom":4.0,"name:ru":"\u0411\u0430\u0442\u0430\u0430\u043d","id":305704379,"name:ja":"\u30d0\u30bf\u30fc\u30f3"},"coordinates":[2579,2237]},{"type":"Point","properties":{"kind":"region","name":"Zambales","kind_detail":"state","name:eo":"Zambaloj","source":"openstreetmap.org","min_zoom":4.0,"name:ru":"\u0421\u0430\u043c\u0431\u0430\u043b\u0435\u0441","id":305704481,"name:ja":"\u30b5\u30f3\u30d0\u30ec\u30b9"},"coordinates":[1715,3933]},{"type":"Point","properties":{"kind":"region","name":"Pampanga","kind_detail":"state","name:eo":"Pampango","source":"openstreetmap.org","min_zoom":4.0,"name:ru":"\u041f\u0430\u043c\u043f\u0430\u043d\u0433\u0430","id":305704509,"name:ja":"\u30d1\u30f3\u30d1\u30f3\u30ac"},"coordinates":[3367,3316]},{"type":"Point","properties":{"kind":"locality","name:en":"Dasmarinas","name":"Dasmari\u00f1as","kind_detail":"city","source":"openstreetmap.org","min_zoom":8.0,"name:ru":"\u0414\u0430\u0441\u043c\u0430\u0440\u0438\u043d\u044c\u044f\u0441","population":556330,"id":198499913,"name:ja":"\u30c0\u30b9\u30de\u30ea\u30cb\u30e3\u30b9"},"coordinates":[4095,1215]},{"type":"Point","properties":{"kind":"locality","name":"Angeles","kind_detail":"city","source":"openstreetmap.org","min_zoom":8.0,"name:uk":"\u0410\u043d\u0445\u0435\u043b\u0435\u0441","name:ru":"\u0410\u043d\u0445\u0435\u043b\u0435\u0441","population":411634,"id":27170104,"name:ja":"\u30a2\u30f3\u30d8\u30ec\u30b9"},"coordinates":[3078,3662]},{"type":"Point","properties":{"kind":"locality","name":"Imus","kind_detail":"city","source":"openstreetmap.org","min_zoom":8.0,"population":403785,"id":198492649,"name:ja":"\u30a4\u30de\u30b9"},"coordinates":[4078,1492]},{"type":"Point","properties":{"kind":"locality","name":"General Trias","kind_detail":"city","source":"openstreetmap.org","min_zoom":8.0,"old_name":"San Francisco de Malabon","id":198498476,"population":314303},"coordinates":[3930,1393]},{"type":"Point","properties":{"admin_level":"3","kind":"locality","name:zh":"\u5723\u8d39\u5c14\u5357\u591a","name:id":"San Fernando City","name:ko":"\uc0b0\ud398\ub974\ub09c\ub3c4","kind_detail":"city","source":"openstreetmap.org","min_zoom":8.0,"name:la":"Urbs Sancti Ferdinandi","population":306659,"name:bg":"\u0421\u0430\u043d \u0424\u0435\u0440\u043d\u0430\u043d\u0434\u043e","name:ja":"\u30b5\u30f3\u30d5\u30a7\u30eb\u30ca\u30f3\u30c9","id":958923586,"name":"San Fernando"},"coordinates":[3386,3326]},{"type":"Point","properties":{"admin_level":"4","kind":"locality","name":"Malolos","kind_detail":"city","source":"openstreetmap.org","min_zoom":8.0,"population":252074,"id":894114195,"name:ja":"\u30de\u30ed\u30ed\u30b9"},"coordinates":[3729,2770]},{"type":"Point","properties":{"kind":"locality","name":"Mabalacat","kind_detail":"city","source":"openstreetmap.org","min_zoom":8.0,"population":250799,"id":3189500747,"name:ja":"\u30de\u30d0\u30e9\u30ab\u30c3\u30c8"},"coordinates":[3035,3911]},{"type":"Point","properties":{"kind":"locality","name":"Olongapo","kind_detail":"city","source":"openstreetmap.org","min_zoom":8.0,"name:ru":"\u041e\u043b\u043e\u043d\u0433\u0430\u043f\u043e","population":233040,"id":27175814,"name:ja":"\u30aa\u30ed\u30f3\u30ac\u30dd"},"coordinates":[2191,2733]},{"type":"Point","properties":{"source":"openstreetmap.org","kind":"locality","name":"Lubao","kind_detail":"town","population":160838,"min_zoom":8.0,"id":198508408},"coordinates":[3114,3053]},{"type":"Point","properties":{"admin_level":"4","kind":"locality","name":"Trece Martires","kind_detail":"city","source":"openstreetmap.org","min_zoom":8.0,"id":255058930,"population":155713},"coordinates":[3892,1072]},{"type":"Point","properties":{"source":"openstreetmap.org","kind":"locality","name":"Mexico","kind_detail":"town","population":154624,"min_zoom":8.0,"id":198505314},"coordinates":[3463,3436]},{"type":"Point","properties":{"source":"openstreetmap.org","kind":"locality","name":"Baliuag","kind_detail":"town","population":143565,"min_zoom":8.0,"id":198491817},"coordinates":[3978,3116]},{"type":"Point","properties":{"source":"openstreetmap.org","kind":"locality","name":"Arayat","kind_detail":"town","population":133492,"min_zoom":8.0,"id":198491328},"coordinates":[3607,3697]},{"type":"Point","properties":{"source":"openstreetmap.org","kind":"locality","name":"Mariveles","kind_detail":"town","population":112707,"min_zoom":8.0,"id":198515474},"coordinates":[2794,1542]},{"type":"Point","properties":{"source":"openstreetmap.org","kind":"locality","name":"Floridablanca","kind_detail":"town","population":110846,"min_zoom":8.0,"id":198522899},"coordinates":[2905,3168]},{"type":"Point","properties":{"source":"openstreetmap.org","kind":"locality","name":"Candaba","kind_detail":"town","population":102399,"min_zoom":8.0,"id":198492717},"coordinates":[3776,3519]},{"type":"Point","properties":{"kind":"locality","name":"Guiguinto","kind_detail":"town","source":"openstreetmap.org","min_zoom":8.0,"population":99730,"id":198525327,"name:ja":"\u30ae\u30b0\u30a4\u30f3\u30c8"},"coordinates":[3926,2726]},{"type":"Point","properties":{"source":"openstreetmap.org","kind":"locality","name":"Dinalupihan","kind_detail":"town","population":97275,"min_zoom":8.0,"id":198512555},"coordinates":[2714,2838]},{"type":"Point","properties":{"admin_level":"4","kind":"locality","name":"Balanga","kind_detail":"city","source":"openstreetmap.org","min_zoom":8.0,"population":87920,"id":198516371,"name:ja":"\u30d0\u30e9\u30f3\u30ac"},"coordinates":[2941,2276]},{"type":"Point","properties":{"source":"openstreetmap.org","kind":"locality","name":"Cabiao","kind_detail":"town","population":79007,"min_zoom":8.0,"id":4629137555},"coordinates":[3861,3997]},{"type":"Point","properties":{"kind":"locality","name":"Bulacan","kind_detail":"town","source":"openstreetmap.org","min_zoom":8.0,"population":76565,"id":198492648,"name:ja":"\u30d6\u30e9\u30ab\u30f3"},"coordinates":[3922,2623]},{"type":"Point","properties":{"source":"openstreetmap.org","kind":"locality","name":"Macabebe","kind_detail":"town","population":75850,"min_zoom":8.0,"id":4631143901},"coordinates":[3449,2969]},{"type":"Point","properties":{"source":"openstreetmap.org","kind":"locality","name":"Castillejos","kind_detail":"town","population":64841,"min_zoom":8.0,"id":4635079387},"coordinates":[1963,3031]},{"type":"Point","properties":{"source":"openstreetmap.org","kind":"locality","name":"Orani","kind_detail":"town","population":61099,"min_zoom":8.0,"id":198532321},"coordinates":[2929,2641]},{"type":"Point","properties":{"source":"openstreetmap.org","kind":"locality","name":"Limay","kind_detail":"town","population":57207,"min_zoom":8.0,"id":198503200},"coordinates":[3098,1924]},{"type":"Point","properties":{"source":"openstreetmap.org","kind":"locality","name":"Hermosa","kind_detail":"town","population":56997,"min_zoom":8.0,"id":198528825},"coordinates":[2844,2733]},{"type":"Point","properties":{"source":"openstreetmap.org","kind":"locality","name":"Orion","kind_detail":"town","population":56002,"min_zoom":8.0,"id":4665379921},"coordinates":[3047,2102]},{"type":"Point","properties":{"source":"openstreetmap.org","kind":"locality","name":"Minalin","kind_detail":"town","population":44001,"min_zoom":8.0,"id":198522933},"coordinates":[3360,3145]},{"type":"Point","properties":{"source":"openstreetmap.org","kind":"locality","name":"Pilar","kind_detail":"town","population":39787,"min_zoom":8.0,"id":198497378},"coordinates":[2976,2238]},{"type":"Point","properties":{"source":"openstreetmap.org","kind":"locality","name":"Laurel","kind_detail":"town","population":39444,"min_zoom":8.0,"id":4624693059},"coordinates":[4084,382]},{"type":"Point","properties":{"source":"openstreetmap.org","kind":"locality","name":"Abucay","kind_detail":"town","population":37719,"min_zoom":8.0,"id":198491050},"coordinates":[2923,2402]},{"type":"Point","properties":{"source":"openstreetmap.org","kind":"locality","name":"Samal","kind_detail":"town","population":33578,"min_zoom":8.0,"id":198532392},"coordinates":[2945,2546]},{"type":"Point","properties":{"source":"openstreetmap.org","kind":"locality","name":"Morong","kind_detail":"town","population":26171,"min_zoom":8.0,"id":198503858},"coordinates":[2138,2271]},{"type":"Point","properties":{"source":"openstreetmap.org","kind":"locality","name":"Bagac","kind_detail":"town","population":25568,"min_zoom":8.0,"id":198494415},"coordinates":[2508,2027]}]},"transit":{"type":"GeometryCollection","geometries":[]},"pois":{"type":"GeometryCollection","geometries":[]},"boundaries":{"type":"GeometryCollection","geometries":[{"type":"LineString","properties":{"name:cy":"Pilipinas","name:ko":"\ud544\ub9ac\ud540","name:cv":"\u0424\u0438\u043b\u0438\u043f\u043f\u0438\u043d","name:km":"\u17a0\u17d2\u179c\u17b8\u179b\u17b8\u1796\u17b8\u1793","name:cs":"Filip\u00edny","name:tt":"\u0424\u0438\u043b\u0438\u043f\u043f\u0438\u043d\u043d\u0430\u0440","name:kw":"Filipinys","name:kv":"\u0424\u0438\u043b\u0438\u043f\u043f\u0438\u043d\u044a\u044f\u0441","name:ku":"Fil\u00eep\u00een","name:tl":"Pilipinas","name:ce":"\u0424\u0438\u043b\u0438\u043f\u043f\u0438\u043d","name:ta":"\u0baa\u0bbf\u0bb2\u0bbf\u0baa\u0bcd\u0baa\u0bc0\u0ba9\u0bcd\u0b9a\u0bc1","name:tg":"\u0424\u0438\u043b\u0438\u043f\u043f\u0438\u043d","name:ca":"Filipines","name:te":"\u0c2b\u0c3f\u0c32\u0c3f\u0c2a\u0c4d\u0c2a\u0c40\u0c28\u0c4d\u0c38\u0c4d","name:ka":"\u10e4\u10d8\u10da\u10d8\u10de\u10d8\u10dc\u10d4\u10d1\u10d8","name:qu":"Philipinakuna","name:da":"Filippinerne","name:de":"Philippinen","source":"openstreetmap.org","name:kn":"\u0cab\u0cbf\u0cb2\u0cbf\u0caa\u0ccd\u0caa\u0cc0\u0ca8\u0ccd\u0cb8\u0ccd","name:dv":"\u078a\u07a8\u078d\u07a8\u0795\u07a9\u0782\u07b0\u0790\u07b0","name:lv":"Filip\u012bnas","name:lt":"Filipinai","name:uz":"Filippin","name:kk":"\u0424\u0438\u043b\u0438\u043f\u043f\u0438\u043d\u0434\u0435\u0440","name:ur":"\u0641\u0644\u067e\u0627\u0626\u0646","name:lb":"Philippinen","name:la":"Philippinae","name:uk":"\u0424\u0456\u043b\u0456\u043f\u043f\u0456\u043d\u0438","name:ug":"\u0641\u0649\u0644\u0649\u067e\u067e\u0649\u0646","name:li":"Filipiene","name:el":"\u03a6\u03b9\u03bb\u03b9\u03c0\u03c0\u03af\u03bd\u03b5\u03c2","name:eo":"Filipinoj","name":"Philippines","name:tk":"Filippinler","name:th":"\u0e1b\u0e23\u0e30\u0e40\u0e17\u0e28\u0e1f\u0e34\u0e25\u0e34\u0e1b\u0e1b\u0e34\u0e19\u0e2a\u0e4c","name:eu":"Filipinak","name:et":"Filipiinid","name:es":"Filipinas","name:ia":"Philippinas","name:az":"Filippin","name:ie":"Filipines","name:id":"Filipina","name:ar":"\u0627\u0644\u0641\u0644\u0628\u064a\u0646","name:io":"Filipini","name:is":"Filippseyjar","name:am":"\u134a\u120a\u1352\u1295\u1235","name:it":"Filippine","name:an":"Filipinas","name:ru":"\u0424\u0438\u043b\u0438\u043f\u043f\u0438\u043d\u044b","name:rw":"Filipine","name:af":"Filippyne","kind_detail":"2","name:za":"Feihlizbinh","name:zh-yue":"\u83f2\u5f8b\u8cd3","name:zh":"\u83f2\u5f8b\u8cd3","name:so":"Filibiin","name:sm":"Filipaina","name:sl":"Filipini","name:sk":"Filip\u00edny","name:ja":"\u30d5\u30a3\u30ea\u30d4\u30f3","name:si":"\u0db4\u0dd2\u0dbd\u0dd2\u0db4\u0dd3\u0db1\u0dba","name:sh":"Filipini","name:sg":"Filip\u00eeni","name:se":"Filippiinnat","name:br":"Filipinez","name:bs":"Filipini","name:bn":"\u09ab\u09bf\u09b2\u09bf\u09aa\u09be\u0987\u09a8","name:bo":"\u0f67\u0fa5\u0f72\u0f0b\u0f63\u0f72\u0f0b\u0f54\u0f72\u0f53\u0f0d","name:sa":"\u0915\u0932\u093f\u0902\u0917\u0926\u094d\u0935\u0940\u092a","name:sw":"Ufilipino","name:be":"\u0424\u0456\u043b\u0456\u043f\u0456\u043d\u044b","name:su":"Pilipina","name:bg":"\u0424\u0438\u043b\u0438\u043f\u0438\u043d\u0438","name:ss":"IFiliphayi","name:sr":"\u0424\u0438\u043b\u0438\u043f\u0438\u043d\u0438","name:sq":"Filipinet","name:jv":"Filipina","name:pt":"Filipinas","name:ps":"\u0641\u0644\u06d0\u067e\u064a\u0646","name:oc":"Filipinas","min_zoom":8.0,"name:ro":"Filipine","name:zh-min-nan":"Hui-li\u030dp-pin","name:os":"\u0424\u0438\u043b\u0438\u043f\u043f\u0438\u043d\u0442\u00e6","name:or":"\u0b2b\u0b3f\u0b32\u0b3f\u0b2a\u0b3e\u0b07\u0b28\u0b4d\u0b38","name:pl":"Filipiny","sort_rank":262,"osm_relation":true,"name:pa":"\u0a2b\u0a3c\u0a3f\u0a32\u0a2a\u0a40\u0a28\u0a1c\u0a3c","name:tr":"Filipinler","name:hi":"\u092b\u093c\u093f\u0932\u0940\u092a\u0940\u0928\u094d\u0938","name:sv":"Filippinerna","name:he":"\u05d4\u05e4\u05d9\u05dc\u05d9\u05e4\u05d9\u05e0\u05d9\u05dd","name:hy":"\u0556\u056b\u056c\u056b\u057a\u056b\u0576\u0576\u0565\u0580","name:ht":"Filipin","name:hu":"F\u00fcl\u00f6p-szigetek","name:hr":"Filipini","kind":"country","name:yi":"\u05e4\u05d9\u05dc\u05d9\u05e4\u05d9\u05e0\u05e2\u05df","name:yo":"Filip\u00edn\u00ec","name:ms":"Filipina","name:mr":"\u092b\u093f\u0932\u093f\u092a\u093e\u0908\u0928\u094d\u0938","name:my":"\u1016\u102d\u101c\u1005\u103a\u1015\u102d\u102f\u1004\u103a\u1014\u102d\u102f\u1004\u103a\u1004\u1036","official_name":"Rep\u00fablika ng Pilipinas","name:mg":"Filipina","name:ml":"\u0d2b\u0d3f\u0d32\u0d3f\u0d2a\u0d4d\u0d2a\u0d40\u0d7b\u0d38\u0d4d","name:mn":"\u0424\u0438\u043b\u0438\u043f\u043f\u0438\u043d","id":-443174,"name:mk":"\u0424\u0438\u043b\u0438\u043f\u0438\u043d\u0438","name:vo":"Filipu\u00e4ns","name:fa":"\u0641\u06cc\u0644\u06cc\u067e\u06cc\u0646","name:fi":"Filippiinit","name:fo":"Filipsoyggjar","name:fy":"Filipinen","name:nl":"Filipijnen","name:nn":"Filippinane","name:no":"Filippinene","name:na":"Eben Piripin","name:ne":"\u092b\u093f\u0932\u093f\u092a\u093f\u0928\u094d\u0938","name:wa":"Filipenes","name:wo":"Filipiin","name:nv":"K\u00e9yah Da\u0144l\u00edinii","name:ga":"Na hOile\u00e1in Fhilip\u00edneacha","name:gd":"Na h-Eileanan Filipineach","name:gn":"Filipina","name:gl":"Filipinas","maritime_boundary":true,"name:gv":"Ny h-Ellanyn Philippeenagh","name:gu":"\u0aab\u0ac0\u0ab2\u0ac0\u0aaa\u0abe\u0a88\u0aa8\u0acd\u0ab8"},"arcs":[0]},{"type":"LineString","properties":{"kind":"region","name:right:ja":"\u30d0\u30bf\u30f3\u30ac\u30b9","name":"Occidental Mindoro - Batangas","sort_rank":256,"kind_detail":"4","name:left:ja":"\u897f\u30df\u30f3\u30c9\u30ed","min_zoom":8.0,"id:right":-1504427,"source":"openstreetmap.org","maritime_boundary":true,"id:left":-1506320,"name:right":"Batangas","id":-1506320,"osm_relation":true,"name:left":"Occidental Mindoro"},"arcs":[1]},{"type":"LineString","properties":{"kind":"region","name":"Occidental Mindoro","sort_rank":256,"kind_detail":"4","min_zoom":8.0,"source":"openstreetmap.org","maritime_boundary":true,"id":-1506320,"osm_relation":true,"name:ja":"\u897f\u30df\u30f3\u30c9\u30ed"},"arcs":[2]},{"type":"MultiLineString","properties":{"name:right:ja":"\u30d6\u30e9\u30ab\u30f3","name:left:ja":"\u30d1\u30f3\u30d1\u30f3\u30ac","name:right:ru":"\u0411\u0443\u043b\u0430\u043a\u0430\u043d","name:right:tl":"Bulakan","min_zoom":8.0,"name:left:ru":"\u041f\u0430\u043c\u043f\u0430\u043d\u0433\u0430","id:right":-1504656,"name:right:eo":"Bulakano","id":-1504669,"osm_relation":true,"name:right":"Bulacan","kind":"region","name:left:eo":"Pampango","name":"Pampanga - Bulacan","sort_rank":256,"kind_detail":"4","source":"openstreetmap.org","id:left":-1504669,"name:left":"Pampanga"},"arcs":[[3],[4]]},{"type":"LineString","properties":{"name:right:ja":"\u30d6\u30e9\u30ab\u30f3","name:left:ja":"\u30d1\u30f3\u30d1\u30f3\u30ac","name:right:ru":"\u0411\u0443\u043b\u0430\u043a\u0430\u043d","name:right:tl":"Bulakan","min_zoom":8.0,"name:left:ru":"\u041f\u0430\u043c\u043f\u0430\u043d\u0433\u0430","id:right":-1504656,"name:right:eo":"Bulakano","id":-1504669,"osm_relation":true,"name:right":"Bulacan","kind":"region","name:left:eo":"Pampango","name":"Pampanga - Bulacan","sort_rank":256,"kind_detail":"4","source":"openstreetmap.org","maritime_boundary":true,"id:left":-1504669,"name:left":"Pampanga"},"arcs":[5]},{"type":"LineString","properties":{"name:right:ja":"\u30cc\u30a8\u30f4\u30a1\u30fb\u30a8\u30b7\u30cf","name:left:ja":"\u30d1\u30f3\u30d1\u30f3\u30ac","name:right:ru":"\u041d\u043e\u0432\u0430\u044f \u042d\u0441\u0438\u0445\u0430","min_zoom":8.0,"name:left:ru":"\u041f\u0430\u043c\u043f\u0430\u043d\u0433\u0430","id:right":-52306,"name:right:eo":"Nova Ekijo","id":-1504669,"osm_relation":true,"name:right":"Nueva Ecija","kind":"region","name:left:eo":"Pampango","name":"Pampanga - Nueva Ecija","sort_rank":256,"kind_detail":"4","source":"openstreetmap.org","id:left":-1504669,"name:left":"Pampanga"},"arcs":[6]},{"type":"LineString","properties":{"kind":"region","name":"Pampanga","sort_rank":256,"kind_detail":"4","name:eo":"Pampango","source":"openstreetmap.org","min_zoom":8.0,"name:ru":"\u041f\u0430\u043c\u043f\u0430\u043d\u0433\u0430","id":-1504669,"osm_relation":true,"name:ja":"\u30d1\u30f3\u30d1\u30f3\u30ac"},"arcs":[7]},{"type":"LineString","properties":{"kind":"region","name":"Pampanga","sort_rank":256,"kind_detail":"4","name:eo":"Pampango","source":"openstreetmap.org","maritime_boundary":true,"name:ru":"\u041f\u0430\u043c\u043f\u0430\u043d\u0433\u0430","min_zoom":8.0,"id":-1504669,"osm_relation":true,"name:ja":"\u30d1\u30f3\u30d1\u30f3\u30ac"},"arcs":[8]},{"type":"LineString","properties":{"name:right:ja":"\u30cc\u30a8\u30f4\u30a1\u30fb\u30a8\u30b7\u30cf","name:left:ja":"\u30d6\u30e9\u30ab\u30f3","name:right:ru":"\u041d\u043e\u0432\u0430\u044f \u042d\u0441\u0438\u0445\u0430","min_zoom":8.0,"name:left:tl":"Bulakan","name:left:ru":"\u0411\u0443\u043b\u0430\u043a\u0430\u043d","id:right":-52306,"name:right:eo":"Nova Ekijo","id":-1504656,"osm_relation":true,"name:right":"Nueva Ecija","kind":"region","name:left:eo":"Bulakano","name":"Bulacan - Nueva Ecija","sort_rank":256,"kind_detail":"4","source":"openstreetmap.org","id:left":-1504656,"name:left":"Bulacan"},"arcs":[9]},{"type":"MultiLineString","properties":{"kind":"region","name":"Bulacan","sort_rank":256,"kind_detail":"4","name:eo":"Bulakano","source":"openstreetmap.org","min_zoom":8.0,"name:tl":"Bulakan","name:ru":"\u0411\u0443\u043b\u0430\u043a\u0430\u043d","id":-1504656,"osm_relation":true,"name:ja":"\u30d6\u30e9\u30ab\u30f3"},"arcs":[[10],[11]]},{"type":"LineString","properties":{"kind":"region","name":"Bulacan","sort_rank":256,"kind_detail":"4","name:eo":"Bulakano","source":"openstreetmap.org","maritime_boundary":true,"name:tl":"Bulakan","name:ru":"\u0411\u0443\u043b\u0430\u043a\u0430\u043d","min_zoom":8.0,"id":-1504656,"osm_relation":true,"name:ja":"\u30d6\u30e9\u30ab\u30f3"},"arcs":[12]},{"type":"LineString","properties":{"kind":"region","name:right:ja":"\u30ab\u30f4\u30a3\u30c6","name":"Batangas - Cavite","sort_rank":256,"kind_detail":"4","name:left:ja":"\u30d0\u30bf\u30f3\u30ac\u30b9","id:right":-1503544,"source":"openstreetmap.org","min_zoom":8.0,"id:left":-1504427,"name:left":"Batangas","id":-1504427,"osm_relation":true,"name:right":"Cavite"},"arcs":[13]},{"type":"LineString","properties":{"kind":"region","name:right:ja":"\u30ab\u30f4\u30a3\u30c6","name":"Batangas - Cavite","sort_rank":256,"kind_detail":"4","name:left:ja":"\u30d0\u30bf\u30f3\u30ac\u30b9","min_zoom":8.0,"id:right":-1503544,"source":"openstreetmap.org","maritime_boundary":true,"id:left":-1504427,"name:right":"Cavite","id":-1504427,"osm_relation":true,"name:left":"Batangas"},"arcs":[14]},{"type":"LineString","properties":{"kind":"region","name":"Batangas","sort_rank":256,"kind_detail":"4","min_zoom":8.0,"source":"openstreetmap.org","maritime_boundary":true,"id":-1504427,"osm_relation":true,"name:ja":"\u30d0\u30bf\u30f3\u30ac\u30b9"},"arcs":[15]},{"type":"MultiLineString","properties":{"kind":"region","name":"Cavite","sort_rank":256,"kind_detail":"4","source":"openstreetmap.org","min_zoom":8.0,"id":-1503544,"osm_relation":true,"name:ja":"\u30ab\u30f4\u30a3\u30c6"},"arcs":[[16],[17]]},{"type":"MultiLineString","properties":{"kind":"region","name":"Cavite","sort_rank":256,"kind_detail":"4","min_zoom":8.0,"source":"openstreetmap.org","maritime_boundary":true,"id":-1503544,"osm_relation":true,"name:ja":"\u30ab\u30f4\u30a3\u30c6"},"arcs":[[18],[19]]},{"type":"LineString","properties":{"kind":"region","name":"Nueva Ecija","sort_rank":256,"kind_detail":"4","name:eo":"Nova Ekijo","source":"openstreetmap.org","min_zoom":8.0,"name:ru":"\u041d\u043e\u0432\u0430\u044f \u042d\u0441\u0438\u0445\u0430","id":-52306,"osm_relation":true,"name:ja":"\u30cc\u30a8\u30f4\u30a1\u30fb\u30a8\u30b7\u30cf"},"arcs":[20]}]},"roads":{"type":"GeometryCollection","geometries":[{"type":"MultiLineString","properties":{"kind":"highway","network":"ph:nhn","sort_rank":383,"landuse_kind":"urban_area","official_name":"Subic-Clark-Tarlac Expressway","source":"openstreetmap.org","min_zoom":8.0,"all_networks":["ph:nhn"],"kind_detail":"motorway","shield_text":"4","ref":"E4","all_shield_texts":["4"]},"arcs":[[29],[30],[31],[32]]},{"type":"MultiLineString","properties":{"source":"openstreetmap.org","kind":"major_road","kind_detail":"trunk","sort_rank":381,"landuse_kind":"urban_area","ref":"62","min_zoom":8.0},"arcs":[[33],[34],[35]]},{"type":"LineString","properties":{"source":"openstreetmap.org","kind":"major_road","landuse_kind":"urban_area","sort_rank":380,"kind_detail":"primary","ref":"401","min_zoom":8.0},"arcs":[36]},{"type":"LineString","properties":{"kind":"highway","network":"ph:nhn","sort_rank":383,"kind_detail":"motorway","official_name":"Subic-Clark-Tarlac Expressway","source":"openstreetmap.org","min_zoom":8.0,"all_networks":["ph:nhn"],"landuse_kind":"urban_area","shield_text":"4","ref":"E","id":97368360,"all_shield_texts":["4"]},"arcs":[37]},{"type":"LineString","properties":{"bus_network":null,"sort_rank":381,"landuse_kind":"urban_area","kind":"major_road","source":"openstreetmap.org","min_zoom":8.0,"bus_shield_text":"Olongapo - Pasay","kind_detail":"trunk"},"arcs":[38]},{"type":"MultiLineString","properties":{"source":"openstreetmap.org","kind":"major_road","landuse_kind":"urban_area","sort_rank":380,"kind_detail":"primary","min_zoom":8.0},"arcs":[[39],[40],[41],[42],[43],[44],[45],[46],[47],[48],[49],[50],[51],[52],[53],[54],[55],[56],[57],[58],[59],[60],[61],[62],[63],[64],[65],[66],[67],[68],[69],[70],[71],[72],[73],[74],[75],[76],[77],[78],[79],[80],[81],[82],[83],[84],[85],[86],[87],[88],[89],[90],[91],[92],[93],[94],[95],[96],[97],[98],[99],[100],[101],[102],[103],[104],[105],[106],[107],[108],[109],[110],[111],[112],[113],[114],[115],[116],[117],[118],[119],[120],[121],[122],[123],[124],[125],[126],[127],[128],[129],[130],[131],[132],[133],[134],[135],[136],[137],[138],[139],[140],[141],[142],[143],[144],[145],[146],[147],[148],[149],[150],[151],[152],[153],[154],[155],[156],[157],[158],[159],[160],[161],[162],[163],[164],[165]]},{"type":"LineString","properties":{"kind":"major_road","network":"ph:nhn","sort_rank":380,"kind_detail":"primary","source":"openstreetmap.org","min_zoom":8.0,"landuse_kind":"urban_area","shield_text":"305","ref":"305","id":114547731},"arcs":[166]},{"type":"MultiLineString","properties":{"bus_network":null,"sort_rank":380,"kind_detail":"primary","kind":"major_road","source":"openstreetmap.org","min_zoom":8.0,"bus_shield_text":"DAU - Olongapo via SCTEX","landuse_kind":"urban_area"},"arcs":[[167],[168],[169]]},{"type":"LineString","properties":{"bus_network":null,"network":"ph:nhn","sort_rank":381,"kind_detail":"trunk","is_bicycle_related":true,"kind":"major_road","source":"openstreetmap.org","min_zoom":8.0,"bus_shield_text":"DAU - Olongapo via SCTEX","shield_text":"2","landuse_kind":"urban_area","ref":"2","id":353601462},"arcs":[170]},{"type":"LineString","properties":{"source":"openstreetmap.org","kind":"major_road","sort_rank":380,"kind_detail":"primary","ref":"408","min_zoom":8.0},"arcs":[171]},{"type":"MultiLineString","properties":{"kind":"highway","network":"ph:nhn","sort_rank":383,"landuse_kind":"urban_area","source":"openstreetmap.org","min_zoom":8.0,"all_networks":["ph:nhn"],"kind_detail":"motorway","shield_text":"1","ref":"E1","all_shield_texts":["1"]},"arcs":[[172],[173],[174],[175],[176]]},{"type":"LineString","properties":{"kind":"major_road","sort_rank":380,"kind_detail":"primary","is_bicycle_related":true,"source":"openstreetmap.org","min_zoom":8.0,"ref":"406","id":153508520},"arcs":[177]},{"type":"LineString","properties":{"kind":"major_road","sort_rank":381,"kind_detail":"trunk","source":"openstreetmap.org","min_zoom":8.0,"old_name":"Gapan - San Fernando - Olongapo Road (GSO Road)","landuse_kind":"urban_area","id":332235596},"arcs":[178]},{"type":"MultiLineString","properties":{"source":"openstreetmap.org","kind":"major_road","network":"ph:national","sort_rank":381,"kind_detail":"trunk","min_zoom":8.0,"shield_text":"65"},"arcs":[[179],[180]]},{"type":"LineString","properties":{"source":"openstreetmap.org","bus_network":null,"bus_shield_text":"DAU - Olongapo via SCTEX","sort_rank":380,"kind_detail":"primary","min_zoom":8.0,"kind":"major_road"},"arcs":[181]},{"type":"MultiLineString","properties":{"kind":"major_road","network":"ph:nhn","sort_rank":381,"kind_detail":"trunk","source":"openstreetmap.org","min_zoom":8.0,"shield_text":null,"ref":"1;AH26"},"arcs":[[182],[183],[184]]},{"type":"MultiLineString","properties":{"bus_network":null,"network":"ph:nhn","short_name":"JASA","sort_rank":381,"kind_detail":"trunk","old_name":"Gapan - San Fernando - Olongapo Road (GSO Road)","kind":"major_road","source":"openstreetmap.org","min_zoom":8.0,"bus_shield_text":"Olongapo - Pasay","shield_text":"3","ref":"3"},"arcs":[[185],[186],[187],[188],[189],[190],[191],[192]]},{"type":"MultiLineString","properties":{"kind":"major_road","network":"ph:nhn","sort_rank":381,"kind_detail":"trunk","source":"openstreetmap.org","min_zoom":8.0,"shield_text":"1","ref":"1;AH26"},"arcs":[[193],[194],[195]]},{"type":"MultiLineString","properties":{"sort_rank":355,"source":"openstreetmap.org","kind":"ferry","min_zoom":8.0,"name":"Pundakit - Anawangin boat ride"},"arcs":[[196],[197],[198],[199],[200]]},{"type":"MultiLineString","properties":{"source":"openstreetmap.org","kind":"major_road","sort_rank":381,"kind_detail":"trunk","ref":"64","min_zoom":8.0},"arcs":[[201],[202],[203],[204],[205],[206],[207]]},{"type":"LineString","properties":{"bus_network":null,"network":"ph:nhn","short_name":"JASA","sort_rank":381,"landuse_kind":"urban_area","kind":"major_road","source":"openstreetmap.org","min_zoom":8.0,"bus_shield_text":"Olongapo - Pasay","shield_text":"3","kind_detail":"trunk","ref":"3"},"arcs":[208]},{"type":"MultiLineString","properties":{"kind":"major_road","network":"ph:nhn","sort_rank":381,"landuse_kind":"urban_area","source":"openstreetmap.org","min_zoom":8.0,"kind_detail":"trunk","shield_text":"2","ref":"2"},"arcs":[[209],[210],[211],[212],[213],[214],[215],[216],[217],[218],[219],[220],[221],[222],[223],[224],[225],[226],[227],[228],[229],[230],[231],[232],[233],[234],[235],[236],[237],[238],[239]]},{"type":"MultiLineString","properties":{"source":"openstreetmap.org","kind":"major_road","landuse_kind":"urban_area","sort_rank":380,"kind_detail":"primary","ref":"62","min_zoom":8.0},"arcs":[[240],[241],[242]]},{"type":"MultiLineString","properties":{"source":"openstreetmap.org","kind":"major_road","sort_rank":381,"kind_detail":"trunk","min_zoom":8.0,"osm_relation":true},"arcs":[[243],[244],[245],[246],[247]]},{"type":"MultiLineString","properties":{"kind":"major_road","network":"ph:nhn","sort_rank":381,"kind_detail":"trunk","loc_name":"Cavite-Laguna Expressway","source":"openstreetmap.org","min_zoom":8.0,"shield_text":"3","ref":"E3"},"arcs":[[248],[249],[250],[251]]},{"type":"LineString","properties":{"source":"openstreetmap.org","kind":"major_road","sort_rank":381,"kind_detail":"trunk","ref":"402","min_zoom":8.0},"arcs":[252]},{"type":"MultiLineString","properties":{"kind":"highway","network":"ph:nhn","short_name":"NLEX","sort_rank":383,"kind_detail":"motorway","source":"openstreetmap.org","min_zoom":8.0,"all_networks":["ph:nhn"],"landuse_kind":"urban_area","shield_text":"1","ref":"E1","all_shield_texts":["1"]},"arcs":[[253],[254],[255],[256],[257],[258],[259],[260],[261],[262],[263],[264]]},{"type":"LineString","properties":{"bus_network":null,"sort_rank":380,"kind_detail":"primary","kind":"major_road","source":"openstreetmap.org","min_zoom":8.0,"bus_shield_text":"Pasay - Dau","landuse_kind":"urban_area"},"arcs":[265]},{"type":"MultiLineString","properties":{"kind":"major_road","network":"ph:nhn","sort_rank":380,"kind_detail":"primary","source":"openstreetmap.org","min_zoom":8.0,"shield_text":"302","ref":"302"},"arcs":[[266],[267]]},{"type":"LineString","properties":{"kind":"highway","network":"ph:nhn","sort_rank":383,"landuse_kind":"urban_area","official_name":"Cavitex","source":"openstreetmap.org","min_zoom":8.0,"all_networks":["ph:nhn",null],"kind_detail":"motorway","loc_name":"Manila-Cavite Expressway","ref":"E3","all_shield_texts":["4","1"],"shield_text":"4"},"arcs":[268]},{"type":"MultiLineString","properties":{"sort_rank":381,"source":"openstreetmap.org","min_zoom":8.0,"kind":"major_road","kind_detail":"trunk"},"arcs":[[269],[270],[271],[272],[273],[274],[275],[276],[277],[278],[279],[280],[281],[282],[283],[284],[285],[286],[287],[288],[289],[290],[291],[292],[293]]},{"type":"MultiLineString","properties":{"source":"openstreetmap.org","kind":"major_road","old_name":"Gen Trias - Amadeo - Tagaytay Road","sort_rank":380,"kind_detail":"primary","min_zoom":8.0},"arcs":[[294],[295],[296],[297]]},{"type":"LineString","properties":{"sort_rank":355,"source":"openstreetmap.org","min_zoom":8.0,"name":"Manila - Dumaguete","kind":"ferry"},"arcs":[298]},{"type":"LineString","properties":{"kind":"major_road","network":"ph:nhn","sort_rank":380,"kind_detail":"primary","source":"openstreetmap.org","min_zoom":8.0,"landuse_kind":"urban_area","shield_text":"27","id":116319174},"arcs":[299]},{"type":"LineString","properties":{"kind":"major_road","short_name":"JASA","sort_rank":381,"kind_detail":"trunk","source":"openstreetmap.org","min_zoom":8.0,"old_name":"Gapan - San Fernando - Olongapo Road (GSO Road)","landuse_kind":"urban_area","id":38608415},"arcs":[300]},{"type":"MultiLineString","properties":{"source":"openstreetmap.org","kind":"major_road","landuse_kind":"urban_area","sort_rank":380,"kind_detail":"primary","ref":"217","min_zoom":8.0},"arcs":[[301],[302],[303],[304],[305],[306],[307],[308]]},{"type":"MultiLineString","properties":{"kind":"highway","network":"ph:nhn","short_name":"NLEX","sort_rank":383,"kind_detail":"motorway","source":"openstreetmap.org","min_zoom":8.0,"all_networks":["ph:nhn"],"shield_text":"1","ref":"E1","all_shield_texts":["1"]},"arcs":[[309],[310],[311],[312],[313],[314],[315],[316],[317],[318],[319],[320],[321],[322],[323]]},{"type":"LineString","properties":{"kind":"highway","network":"ph:nhn","sort_rank":383,"landuse_kind":"urban_area","official_name":"Cavitex","source":"openstreetmap.org","min_zoom":8.0,"all_networks":["ph:nhn",null],"kind_detail":"motorway","loc_name":"Manila-Cavite Expressway","ref":"E3","all_shield_texts":["3","1"],"shield_text":"3"},"arcs":[324]},{"type":"LineString","properties":{"kind":"major_road","network":"ph:national","sort_rank":381,"kind_detail":"trunk","is_bicycle_related":true,"source":"openstreetmap.org","min_zoom":8.0,"shield_text":"65","id":152436657},"arcs":[325]},{"type":"MultiLineString","properties":{"source":"openstreetmap.org","kind":"major_road","sort_rank":381,"kind_detail":"trunk","ref":"410","min_zoom":8.0},"arcs":[[326],[327],[328]]},{"type":"MultiLineString","properties":{"kind":"highway","network":"ph:nhn","sort_rank":383,"landuse_kind":"urban_area","official_name":"Subic-Clark-Tarlac Expressway","source":"openstreetmap.org","min_zoom":8.0,"all_networks":["ph:nhn"],"kind_detail":"motorway","shield_text":"1","ref":"E1","all_shield_texts":["1"]},"arcs":[[329],[330]]},{"type":"LineString","properties":{"sort_rank":355,"source":"openstreetmap.org","kind":"ferry","min_zoom":8.0,"id":277498882},"arcs":[331]},{"type":"MultiLineString","properties":{"sort_rank":355,"source":"openstreetmap.org","min_zoom":8.0,"name":"Manila - Corregidor","kind":"ferry"},"arcs":[[332],[333],[334]]},{"type":"MultiLineString","properties":{"source":"openstreetmap.org","kind":"major_road","sort_rank":380,"kind_detail":"primary","ref":"409","min_zoom":8.0},"arcs":[[335],[336],[337]]},{"type":"LineString","properties":{"kind":"major_road","network":"ph:nhn","short_name":"JASA","sort_rank":381,"kind_detail":"trunk","bus_shield_text":"Olongapo - Pasay","is_bicycle_related":true,"bus_network":null,"source":"openstreetmap.org","min_zoom":8.0,"old_name":"Gapan - San Fernando - Olongapo Road (GSO Road)","shield_text":"3","id":244918918},"arcs":[338]},{"type":"LineString","properties":{"kind":"major_road","sort_rank":380,"kind_detail":"primary","official_name":"San Juan","source":"openstreetmap.org","min_zoom":8.0,"ref":"402","id":339957153},"arcs":[339]},{"type":"MultiLineString","properties":{"kind":"major_road","network":"ph:national","sort_rank":381,"kind_detail":"trunk","source":"openstreetmap.org","min_zoom":8.0,"shield_text":"65","ref":"405"},"arcs":[[340],[341],[342]]},{"type":"LineString","properties":{"kind":"major_road","sort_rank":380,"kind_detail":"primary","source":"openstreetmap.org","min_zoom":8.0,"old_name":"Gen Trias - Amadeo - Tagaytay Road","landuse_kind":"urban_area","id":26662702},"arcs":[343]},{"type":"MultiLineString","properties":{"kind":"highway","network":"ph:nhn","sort_rank":383,"landuse_kind":"urban_area","source":"openstreetmap.org","min_zoom":8.0,"all_networks":["ph:nhn"],"kind_detail":"motorway","shield_text":"1","ref":"E1","all_shield_texts":["1"],"nat_name":"NLEX-SCTEX Link"},"arcs":[[344],[345]]},{"type":"LineString","properties":{"kind":"major_road","network":"ph:national","sort_rank":381,"kind_detail":"trunk","source":"openstreetmap.org","min_zoom":8.0,"shield_text":"65","ref":"403"},"arcs":[346]},{"type":"MultiLineString","properties":{"bus_network":null,"sort_rank":381,"kind_detail":"trunk","kind":"major_road","source":"openstreetmap.org","min_zoom":8.0,"bus_shield_text":"Blue Jeepney","ref":"306"},"arcs":[[347],[348],[349]]},{"type":"LineString","properties":{"kind":"highway","network":"ph:nhn","sort_rank":383,"kind_detail":"motorway","official_name":"Subic-Clark-Tarlac Expressway","source":"openstreetmap.org","min_zoom":8.0,"all_networks":["ph:nhn"],"landuse_kind":"urban_area","shield_text":"4","ref":"E5","id":97360818,"all_shield_texts":["4"]},"arcs":[350]},{"type":"LineString","properties":{"kind":"highway","network":"ph:nhn","sort_rank":383,"landuse_kind":"urban_area","source":"openstreetmap.org","min_zoom":8.0,"all_networks":["ph:nhn"],"kind_detail":"motorway","shield_text":"4","ref":"E3","all_shield_texts":["4"]},"arcs":[351]},{"type":"LineString","properties":{"kind":"major_road","sort_rank":381,"kind_detail":"trunk","bus_network":null,"source":"openstreetmap.org","min_zoom":8.0,"bus_shield_text":"DAU - Olongapo via SCTEX","landuse_kind":"urban_area","ref":"306","id":338071301},"arcs":[352]},{"type":"MultiLineString","properties":{"source":"openstreetmap.org","kind":"major_road","sort_rank":381,"kind_detail":"trunk","ref":"1;AH26","min_zoom":8.0},"arcs":[[353],[354],[355]]},{"type":"MultiLineString","properties":{"sort_rank":380,"kind_detail":"primary","min_zoom":8.0,"kind":"major_road","source":"openstreetmap.org"},"arcs":[[356],[357],[358],[359],[360],[361],[362],[363],[364],[365],[366],[367],[368],[369],[370],[371],[372],[373],[374],[375],[376],[377],[378],[379],[380],[381],[382],[383],[384],[385],[386],[387],[388],[389],[390],[391],[392],[393],[394],[395],[396],[397],[398],[399],[400],[401],[402],[403],[404],[405],[406],[407],[408],[409],[410],[411],[412],[413],[414],[415],[416],[417],[418],[419],[420],[421],[422],[423],[424],[425],[426],[427],[428],[429],[430],[431],[432],[433],[434],[435],[436],[437],[438],[439],[440],[441],[442],[443],[444],[445],[446],[447],[448],[449],[450],[451],[452],[453],[454],[455],[456],[457],[458],[459],[460],[461],[462],[463],[464],[465],[466],[467],[468],[469],[470],[471],[472],[473],[474],[475],[476],[477],[478],[479],[480],[481],[482],[483],[484],[485],[486],[487],[488],[489],[490],[491],[492],[493],[494]]},{"type":"LineString","properties":{"bus_network":null,"network":"ph:nhn","sort_rank":381,"kind_detail":"trunk","old_name":"Gapan - San Fernando - Olongapo Road (GSO Road)","kind":"major_road","source":"openstreetmap.org","min_zoom":8.0,"bus_shield_text":"Olongapo - Pasay","shield_text":"3","landuse_kind":"urban_area","ref":"3"},"arcs":[495]},{"type":"MultiLineString","properties":{"kind":"major_road","network":"ph:nhn","sort_rank":381,"kind_detail":"trunk","source":"openstreetmap.org","min_zoom":8.0,"shield_text":"2","ref":"2"},"arcs":[[496],[497],[498],[499],[500],[501]]},{"type":"LineString","properties":{"source":"openstreetmap.org","bus_network":null,"bus_shield_text":"Olongapo - Pasay","sort_rank":381,"kind_detail":"trunk","min_zoom":8.0,"kind":"major_road"},"arcs":[502]},{"type":"MultiLineString","properties":{"kind":"highway","network":"ph:nhn","sort_rank":383,"kind_detail":"motorway","official_name":"North Luzon Expressway","source":"openstreetmap.org","min_zoom":8.0,"all_networks":["ph:nhn"],"shield_text":"1","ref":"E1","all_shield_texts":["1"]},"arcs":[[503],[504],[505],[506],[507]]},{"type":"MultiLineString","properties":{"source":"openstreetmap.org","kind":"major_road","kind_detail":"trunk","sort_rank":381,"landuse_kind":"urban_area","min_zoom":8.0,"osm_relation":true},"arcs":[[508],[509],[510]]},{"type":"LineString","properties":{"sort_rank":355,"source":"openstreetmap.org","min_zoom":8.0,"kind":"ferry","name":"Manila - Odiongan"},"arcs":[511]},{"type":"MultiLineString","properties":{"kind":"major_road","network":"ph:nhn","sort_rank":381,"landuse_kind":"urban_area","source":"openstreetmap.org","min_zoom":8.0,"kind_detail":"trunk","shield_text":"3","ref":"3"},"arcs":[[512],[513],[514]]},{"type":"MultiLineString","properties":{"kind":"major_road","network":"ph:nhn","sort_rank":381,"landuse_kind":"urban_area","is_bicycle_related":true,"source":"openstreetmap.org","min_zoom":8.0,"kind_detail":"trunk","shield_text":"2","ref":"2"},"arcs":[[515],[516],[517],[518],[519],[520],[521],[522],[523],[524],[525],[526]]},{"type":"MultiLineString","properties":{"kind":"highway","network":"ph:nhn","sort_rank":383,"landuse_kind":"urban_area","official_name":"Subic Freeport Expressway","source":"openstreetmap.org","min_zoom":8.0,"all_networks":["ph:nhn"],"kind_detail":"motorway","shield_text":"4","ref":"E5","all_shield_texts":["4"]},"arcs":[[527],[528],[529]]},{"type":"LineString","properties":{"bus_network":null,"network":"ph:nhn","sort_rank":380,"kind_detail":"primary","kind":"major_road","source":"openstreetmap.org","min_zoom":8.0,"bus_shield_text":"DAU - Olongapo via SCTEX","shield_text":"305","landuse_kind":"urban_area","ref":"305"},"arcs":[530]},{"type":"MultiLineString","properties":{"kind":"highway","network":"ph:nhn","sort_rank":383,"kind_detail":"motorway","official_name":"Subic-Clark-Tarlac Expressway","source":"openstreetmap.org","min_zoom":8.0,"all_networks":["ph:nhn"],"shield_text":"1","ref":"E1","all_shield_texts":["1"]},"arcs":[[531],[532]]},{"type":"MultiLineString","properties":{"kind":"major_road","network":"ph:nhn","sort_rank":381,"kind_detail":"trunk","source":"openstreetmap.org","min_zoom":8.0,"shield_text":"27","ref":"HA27"},"arcs":[[533],[534],[535]]},{"type":"LineString","properties":{"kind":"highway","network":"ph:nhn","sort_rank":383,"landuse_kind":"urban_area","official_name":"Cavitex","source":"openstreetmap.org","min_zoom":8.0,"all_networks":["ph:nhn",null],"kind_detail":"motorway","loc_name":"Manila-Cavite Expressway","ref":"E4","all_shield_texts":["4","1"],"shield_text":"4"},"arcs":[536]},{"type":"LineString","properties":{"kind":"major_road","sort_rank":380,"landuse_kind":"urban_area","is_bicycle_related":true,"source":"openstreetmap.org","min_zoom":8.0,"kind_detail":"primary","id":47346880},"arcs":[537]},{"type":"LineString","properties":{"kind":"major_road","network":"ph:nhn","sort_rank":381,"landuse_kind":"urban_area","source":"openstreetmap.org","min_zoom":8.0,"old_name":"Gapan - San Fernando - Olongapo Road (GSO Road)","shield_text":"3","kind_detail":"trunk","ref":"3"},"arcs":[538]},{"type":"LineString","properties":{"kind":"major_road","network":"ph:nhn","sort_rank":381,"kind_detail":"trunk","source":"openstreetmap.org","min_zoom":8.0,"landuse_kind":"urban_area","shield_text":"2","ref":"3","id":369324012},"arcs":[539]},{"type":"LineString","properties":{"source":"openstreetmap.org","kind":"ferry","name":"Grande Island Resort Ferry","sort_rank":355,"min_zoom":8.0,"id":115536045},"arcs":[540]},{"type":"MultiLineString","properties":{"source":"openstreetmap.org","kind":"major_road","kind_detail":"trunk","sort_rank":381,"landuse_kind":"urban_area","min_zoom":8.0},"arcs":[[541],[542],[543],[544],[545],[546],[547],[548],[549],[550],[551],[552],[553],[554],[555],[556],[557],[558],[559],[560],[561],[562]]},{"type":"MultiLineString","properties":{"kind":"highway","network":"ph:nhn","sort_rank":383,"kind_detail":"motorway","official_name":"Subic Freeport Expressway","source":"openstreetmap.org","min_zoom":8.0,"all_networks":["ph:nhn"],"shield_text":"4","ref":"E5","all_shield_texts":["4"]},"arcs":[[563],[564],[565],[566],[567],[568],[569]]},{"type":"LineString","properties":{"kind":"major_road","network":"ph:nhn","sort_rank":380,"kind_detail":"primary","source":"openstreetmap.org","min_zoom":8.0,"shield_text":"436","ref":"436","id":255500700},"arcs":[570]},{"type":"MultiLineString","properties":{"bus_network":null,"sort_rank":381,"landuse_kind":"urban_area","kind":"major_road","source":"openstreetmap.org","min_zoom":8.0,"bus_shield_text":"Blue Jeepney","kind_detail":"trunk","ref":"306"},"arcs":[[571],[572],[573]]},{"type":"MultiLineString","properties":{"kind":"major_road","network":null,"sort_rank":381,"landuse_kind":"urban_area","source":"openstreetmap.org","min_zoom":8.0,"kind_detail":"trunk","shield_text":"1","ref":"419"},"arcs":[[574],[575],[576],[577],[578]]},{"type":"LineString","properties":{"kind":"major_road","network":"ph:nhn","sort_rank":380,"kind_detail":"primary","source":"openstreetmap.org","min_zoom":8.0,"shield_text":"305","ref":"305","id":325015744},"arcs":[579]},{"type":"LineString","properties":{"kind":"major_road","short_name":"JASA","sort_rank":381,"landuse_kind":"urban_area","source":"openstreetmap.org","min_zoom":8.0,"kind_detail":"trunk","id":38608418},"arcs":[580]},{"type":"LineString","properties":{"kind":"highway","sort_rank":383,"landuse_kind":"urban_area","source":"openstreetmap.org","min_zoom":8.0,"kind_detail":"motorway","ref":"E3","id":544341347},"arcs":[581]},{"type":"MultiLineString","properties":{"source":"openstreetmap.org","kind":"major_road","landuse_kind":"park","sort_rank":381,"kind_detail":"trunk","ref":"410","min_zoom":8.0},"arcs":[[582],[583],[584]]},{"type":"LineString","properties":{"source":"openstreetmap.org","kind":"major_road","sort_rank":381,"kind_detail":"trunk","ref":"2","min_zoom":8.0,"id":160844463},"arcs":[585]},{"type":"MultiLineString","properties":{"source":"openstreetmap.org","kind":"major_road","sort_rank":381,"kind_detail":"trunk","ref":"407","min_zoom":8.0},"arcs":[[586],[587],[588],[589],[590],[591],[592],[593],[594],[595],[596]]},{"type":"LineString","properties":{"source":"openstreetmap.org","kind":"ferry","name":"Olongapo - Sampaloc Cove (Subic Bay Yacht Club)","sort_rank":355,"landuse_kind":"urban_area","min_zoom":8.0,"id":265426959},"arcs":[597]},{"type":"LineString","properties":{"source":"openstreetmap.org","kind":"major_road","network":null,"sort_rank":381,"kind_detail":"trunk","min_zoom":8.0,"shield_text":"X"},"arcs":[598]},{"type":"MultiLineString","properties":{"kind":"major_road","network":"ph:nhn","sort_rank":380,"kind_detail":"primary","source":"openstreetmap.org","min_zoom":8.0,"landuse_kind":"urban_area","shield_text":"27","ref":"HA27"},"arcs":[[599],[600],[601],[602],[603],[604],[605]]},{"type":"LineString","properties":{"kind":"highway","network":"ph:nhn","sort_rank":383,"kind_detail":"motorway","source":"openstreetmap.org","min_zoom":8.0,"all_networks":["ph:nhn",null],"landuse_kind":"urban_area","loc_name":"Manila-Cavite Expressway","ref":"E3","id":114689781,"all_shield_texts":["3","1"],"shield_text":"3"},"arcs":[606]},{"type":"MultiLineString","properties":{"source":"openstreetmap.org","kind":"major_road","landuse_kind":"park","sort_rank":380,"kind_detail":"primary","min_zoom":8.0},"arcs":[[607],[608],[609],[610]]},{"type":"LineString","properties":{"source":"openstreetmap.org","kind":"highway","sort_rank":383,"kind_detail":"motorway","min_zoom":8.0,"id":231879537},"arcs":[611]},{"type":"MultiLineString","properties":{"kind":"major_road","network":"ph:national","sort_rank":381,"kind_detail":"trunk","source":"openstreetmap.org","min_zoom":8.0,"shield_text":"65","ref":"65"},"arcs":[[612],[613]]},{"type":"LineString","properties":{"kind":"major_road","network":"ph:nhn","sort_rank":381,"landuse_kind":"urban_area","source":"openstreetmap.org","min_zoom":8.0,"kind_detail":"trunk","shield_text":"27","ref":"HA27"},"arcs":[614]},{"type":"MultiLineString","properties":{"kind":"major_road","network":"ph:nhn","sort_rank":380,"kind_detail":"primary","source":"openstreetmap.org","min_zoom":8.0,"shield_text":"27","ref":"HA27"},"arcs":[[615],[616],[617],[618],[619],[620],[621],[622],[623],[624],[625],[626],[627],[628],[629],[630],[631]]},{"type":"LineString","properties":{"kind":"highway","network":"ph:nhn","sort_rank":383,"kind_detail":"motorway","source":"openstreetmap.org","min_zoom":8.0,"all_networks":["ph:nhn"],"landuse_kind":"urban_area","shield_text":"4","ref":"E4","id":97360809,"all_shield_texts":["4"]},"arcs":[632]},{"type":"LineString","properties":{"kind":"highway","network":"ph:nhn","sort_rank":383,"kind_detail":"motorway","source":"openstreetmap.org","min_zoom":8.0,"all_networks":["ph:nhn"],"shield_text":"1","ref":"E1","id":205493016,"all_shield_texts":["1"]},"arcs":[633]},{"type":"MultiLineString","properties":{"kind":"highway","network":"ph:nhn","sort_rank":383,"landuse_kind":"urban_area","official_name":"North Luzon Expressway","source":"openstreetmap.org","min_zoom":8.0,"all_networks":["ph:nhn"],"kind_detail":"motorway","shield_text":"1","ref":"E1","all_shield_texts":["1"]},"arcs":[[634],[635],[636],[637]]},{"type":"LineString","properties":{"kind":"major_road","network":"ph:nhn","sort_rank":381,"kind_detail":"trunk","source":"openstreetmap.org","min_zoom":8.0,"shield_text":"3","ref":"3","id":38700203},"arcs":[638]},{"type":"LineString","properties":{"source":"openstreetmap.org","kind":"major_road","sort_rank":380,"kind_detail":"primary","ref":"217","min_zoom":8.0},"arcs":[639]},{"type":"MultiLineString","properties":{"bus_network":null,"network":"ph:nhn","sort_rank":381,"kind_detail":"trunk","is_bicycle_related":true,"kind":"major_road","source":"openstreetmap.org","min_zoom":8.0,"bus_shield_text":"Olongapo - Pasay","shield_text":"3","ref":"3"},"arcs":[[640],[641]]},{"type":"MultiLineString","properties":{"kind":"major_road","network":"ph:nhn","short_name":"JASA","sort_rank":381,"kind_detail":"trunk","source":"openstreetmap.org","min_zoom":8.0,"old_name":"Gapan - San Fernando - Olongapo Road (GSO Road)","shield_text":"3","ref":"3"},"arcs":[[642],[643],[644],[645],[646],[647],[648],[649],[650]]},{"type":"MultiLineString","properties":{"bus_network":null,"network":"ph:nhn","short_name":"JASA","sort_rank":381,"kind_detail":"trunk","old_name":"Gapan - San Fernando - Olongapo Road (GSO Road)","kind":"major_road","source":"openstreetmap.org","min_zoom":8.0,"bus_shield_text":"Olongapo - Pasay","shield_text":"3","landuse_kind":"urban_area","ref":"3"},"arcs":[[651],[652],[653]]},{"type":"MultiLineString","properties":{"kind":"highway","network":"ph:nhn","sort_rank":383,"kind_detail":"motorway","official_name":"Subic-Clark-Tarlac Expressway","source":"openstreetmap.org","min_zoom":8.0,"all_networks":["ph:nhn"],"shield_text":"4","ref":"E4","all_shield_texts":["4"]},"arcs":[[654],[655]]},{"type":"LineString","properties":{"kind":"major_road","network":"ph:national","sort_rank":381,"kind_detail":"trunk","is_bicycle_related":true,"source":"openstreetmap.org","min_zoom":8.0,"shield_text":"65","ref":"403"},"arcs":[656]},{"type":"LineString","properties":{"bus_network":null,"short_name":"JASA","sort_rank":381,"kind_detail":"trunk","old_name":"Gapan - San Fernando - Olongapo Road (GSO Road)","kind":"major_road","source":"openstreetmap.org","min_zoom":8.0,"bus_shield_text":"Olongapo - Pasay","ref":"3"},"arcs":[657]},{"type":"LineString","properties":{"sort_rank":355,"source":"openstreetmap.org","min_zoom":8.0,"name":"Cebu - Manila","kind":"ferry"},"arcs":[658]},{"type":"LineString","properties":{"source":"openstreetmap.org","kind":"major_road","nat_name":"Maragondon-Magallanes-Amuyong Rd","sort_rank":380,"kind_detail":"primary","ref":"406","min_zoom":8.0},"arcs":[659]},{"type":"MultiLineString","properties":{"kind":"highway","network":"ph:nhn","short_name":"NLEX","sort_rank":383,"kind_detail":"motorway","source":"openstreetmap.org","min_zoom":8.0,"all_networks":["ph:nhn","ph:nhn"],"shield_text":null,"ref":"E1","all_shield_texts":[null,"1"]},"arcs":[[660],[661]]},{"type":"LineString","properties":{"source":"openstreetmap.org","kind":"major_road","sort_rank":380,"kind_detail":"primary","ref":"404","min_zoom":8.0},"arcs":[662]},{"type":"MultiLineString","properties":{"kind":"major_road","network":"ph:nhn","short_name":"JASA","sort_rank":381,"landuse_kind":"urban_area","source":"openstreetmap.org","min_zoom":8.0,"old_name":"Gapan - San Fernando - Olongapo Road (GSO Road)","shield_text":"3","kind_detail":"trunk","ref":"3"},"arcs":[[663],[664],[665],[666],[667],[668]]},{"type":"MultiLineString","properties":{"bus_network":null,"network":"ph:nhn","sort_rank":381,"kind_detail":"trunk","kind":"major_road","source":"openstreetmap.org","min_zoom":8.0,"bus_shield_text":"Olongapo - Pasay","shield_text":"3","ref":"3"},"arcs":[[669],[670],[671],[672]]},{"type":"LineString","properties":{"kind":"major_road","network":"ph:nhn","sort_rank":380,"kind_detail":"primary","source":"openstreetmap.org","min_zoom":8.0,"shield_text":"27","id":311864710},"arcs":[673]},{"type":"MultiLineString","properties":{"source":"openstreetmap.org","kind":"major_road","sort_rank":380,"kind_detail":"primary","ref":"406","min_zoom":8.0},"arcs":[[674],[675],[676]]},{"type":"MultiLineString","properties":{"sort_rank":355,"source":"openstreetmap.org","min_zoom":8.0,"name":"Manila - Coron","kind":"ferry"},"arcs":[[677],[678],[679]]},{"type":"LineString","properties":{"kind":"major_road","sort_rank":380,"landuse_kind":"park","source":"openstreetmap.org","min_zoom":8.0,"kind_detail":"primary","ref":"402","id":461797013},"arcs":[680]},{"type":"MultiLineString","properties":{"source":"openstreetmap.org","kind":"ferry","name":"Olongapo - Sampaloc Cove (Subic Bay Yacht Club)","sort_rank":355,"min_zoom":8.0,"id":265426959},"arcs":[[681],[682]]},{"type":"LineString","properties":{"kind":"major_road","network":"ph:national","sort_rank":381,"landuse_kind":"urban_area","source":"openstreetmap.org","min_zoom":8.0,"kind_detail":"trunk","shield_text":"65"},"arcs":[683]},{"type":"MultiLineString","properties":{"kind":"major_road","network":"ph:nhn","sort_rank":381,"kind_detail":"trunk","source":"openstreetmap.org","min_zoom":8.0,"shield_text":"436","ref":"436"},"arcs":[[684],[685],[686],[687],[688],[689],[690],[691],[692],[693]]},{"type":"LineString","properties":{"bus_network":null,"network":"ph:nhn","sort_rank":381,"kind_detail":"trunk","bus_shield_text":"Olongapo - Pasay","kind":"major_road","source":"openstreetmap.org","min_zoom":8.0,"old_name":"Gapan - San Fernando - Olongapo Road (GSO Road)","shield_text":"3","ref":"3","id":130503433},"arcs":[694]},{"type":"LineString","properties":{"source":"openstreetmap.org","kind":"ferry","name":"Cabcaben-Corregidor motorboat","sort_rank":355,"min_zoom":8.0,"id":172361074},"arcs":[695]},{"type":"LineString","properties":{"source":"openstreetmap.org","kind":"major_road","sort_rank":381,"kind_detail":"trunk","ref":"306","min_zoom":8.0},"arcs":[696]},{"type":"LineString","properties":{"kind":"major_road","sort_rank":381,"kind_detail":"trunk","bus_network":null,"source":"openstreetmap.org","min_zoom":8.0,"bus_shield_text":"DAU - Olongapo via SCTEX","landuse_kind":"urban_area","id":351863433},"arcs":[697]},{"type":"LineString","properties":{"source":"openstreetmap.org","kind":"ferry","name":"Manila - El Nido","sort_rank":355,"min_zoom":8.0,"id":472867331},"arcs":[698]},{"type":"MultiLineString","properties":{"source":"openstreetmap.org","kind":"major_road","network":"ph:nhn","sort_rank":381,"kind_detail":"trunk","min_zoom":8.0,"shield_text":"436"},"arcs":[[699],[700]]},{"type":"LineString","properties":{"kind":"highway","network":"ph:nhn","sort_rank":383,"landuse_kind":"urban_area","source":"openstreetmap.org","min_zoom":8.0,"all_networks":["ph:nhn",null],"kind_detail":"motorway","loc_name":"Manila-Cavite Expressway","ref":"E3","all_shield_texts":["4","1"],"shield_text":"4"},"arcs":[701]},{"type":"LineString","properties":{"kind":"major_road","network":"ph:nhn","sort_rank":381,"kind_detail":"trunk","source":"openstreetmap.org","min_zoom":8.0,"old_name":"Gapan - San Fernando - Olongapo Road (GSO Road)","shield_text":"3","ref":"3","id":189539226},"arcs":[702]},{"type":"MultiLineString","properties":{"source":"openstreetmap.org","kind":"major_road","sort_rank":380,"kind_detail":"primary","ref":"402","min_zoom":8.0},"arcs":[[703],[704]]},{"type":"MultiLineString","properties":{"source":"openstreetmap.org","kind":"major_road","sort_rank":380,"kind_detail":"primary","is_bicycle_related":true,"min_zoom":8.0},"arcs":[[705],[706],[707],[708],[709],[710]]},{"type":"LineString","properties":{"source":"openstreetmap.org","kind":"major_road","sort_rank":380,"kind_detail":"primary","ref":"62","min_zoom":8.0},"arcs":[711]},{"type":"MultiLineString","properties":{"kind":"major_road","network":"ph:national","sort_rank":381,"landuse_kind":"urban_area","source":"openstreetmap.org","min_zoom":8.0,"kind_detail":"trunk","shield_text":"65","ref":"65"},"arcs":[[712],[713],[714],[715]]},{"type":"MultiLineString","properties":{"kind":"highway","network":"ph:nhn","sort_rank":383,"kind_detail":"motorway","official_name":"Subic-Clark-Tarlac Expressway","source":"openstreetmap.org","min_zoom":8.0,"all_networks":["ph:nhn"],"shield_text":"4","ref":"E5","all_shield_texts":["4"]},"arcs":[[716],[717]]},{"type":"MultiLineString","properties":{"source":"openstreetmap.org","kind":"major_road","kind_detail":"trunk","sort_rank":381,"landuse_kind":"urban_area","ref":"64","min_zoom":8.0},"arcs":[[718],[719],[720],[721]]},{"type":"LineString","properties":{"kind":"highway","network":"ph:nhn","sort_rank":383,"landuse_kind":"urban_area","source":"openstreetmap.org","min_zoom":8.0,"all_networks":["ph:nhn",null],"kind_detail":"motorway","shield_text":"4","ref":"E3","all_shield_texts":["4","1"]},"arcs":[722]}]},"earth":{"type":"GeometryCollection","geometries":[{"type":"MultiPolygon","properties":{"sort_rank":10,"source":"naturalearthdata.com","min_zoom":0.0,"kind":"earth","area":24461110290},"arcs":[[[723]],[[724]]]}]},"landuse":{"type":"GeometryCollection","geometries":[{"type":"MultiPolygon","properties":{"source":"naturalearthdata.com","kind":"urban_area","name":"","area":431999364,"sort_rank":11,"min_zoom":4.0},"arcs":[[[725]],[[726]],[[727]],[[728]],[[729]]]},{"type":"Polygon","properties":{"kind":"park","area":704462976,"sort_rank":24,"operator":"Taal Volcano Landscape Protected Area Management Board","source":"openstreetmap.org","min_zoom":6.0,"tier":2,"id":152946327},"arcs":[[730]]}]}},"type":"Topology","transform":{"translate":[119.53125,13.9234038977],"scale":[0.0003433228,0.000332222]},"arcs":[[[312,4096],[491,-4096]],[[2720,0],[-305,231]],[[2415,231],[-179,-16],[-189,-93],[-439,199],[-202,18],[-140,-42],[-112,-74],[-79,-98],[-54,-125]],[[3162,2609],[30,132],[24,-7],[59,81],[20,107],[50,93],[122,-2],[134,34],[44,54],[59,16],[8,56],[96,35],[9,34],[-33,32],[71,17],[41,-25],[122,42],[5,37],[46,-4],[13,14],[-101,103],[115,113]],[[4096,3669],[-42,43],[32,151],[-79,9],[-15,-64],[-79,-28]],[[3098,2537],[64,72]],[[3913,3780],[-71,-67],[-42,62],[-6,68],[-147,17],[-46,75],[-9,104]],[[3592,4039],[-96,1],[-4,26],[-145,-44],[-65,50],[-79,-37],[-172,7],[-173,-55],[-306,-188],[-142,-158],[14,-114],[82,-60],[45,-236],[123,-214],[165,-192],[121,-38],[44,11],[-15,-121],[89,-93]],[[3078,2584],[20,-47]],[[4096,3932],[-112,-4],[-55,-73],[-16,-75]],[[3993,2334],[49,42],[54,-53]],[[4096,2377],[-34,50],[34,23]],[[3098,2537],[15,-85],[80,-108],[143,-97],[156,-170],[129,-9],[50,-28],[85,47],[177,216],[60,31]],[[4096,494],[-138,-24],[-133,-65],[-9,58],[-51,67],[-92,-4],[-83,99],[-139,25],[-54,94],[-58,3],[43,82],[-116,61],[-62,-49],[-109,52]],[[3095,893],[-437,73]],[[2658,966],[-37,-182],[-148,-106],[-83,-145],[-16,-167],[41,-135]],[[3577,1845],[-130,-274],[-229,-38],[-279,-100],[-52,2],[-135,-108],[-175,-238]],[[3889,1072],[2,2],[0,-2],[-2,0]],[[2577,1089],[93,-76],[-12,-47]],[[4096,1838],[-128,72],[-292,87],[-99,-152]],[[3602,4096],[-10,-57]],[[4096,2233],[0,-567],[-33,-37],[-20,-8],[-64,4],[-33,-3],[-23,-10],[-258,-252],[-62,-99],[-24,-16],[-71,-30],[-15,-17],[-15,-36],[-35,-33],[-46,-27],[-41,-17],[-117,-20],[-46,-23],[-18,-49],[-26,-49],[-48,-57],[-25,-54],[41,-36],[0,-20],[-34,-17],[-20,-4],[-27,0],[45,-25],[24,-28],[-5,-27],[-44,-23],[0,-22],[80,-24],[34,-63],[7,-83],[-13,-177],[7,-45],[34,-19],[9,-15],[-17,-31],[-35,-29],[-45,-7],[50,-113],[0,-25],[-3167,0],[0,4096],[1356,0],[13,-20],[11,-24],[0,-68],[-9,-53],[1,-29],[18,-13],[28,-28],[102,-432],[11,-122],[-21,-273],[20,-115],[68,-225],[47,15],[13,7],[-10,-24],[-11,-18],[-15,-13],[-24,-11],[30,-28],[74,-27],[16,-35],[20,-21],[45,-20],[54,-12],[40,3],[34,53],[28,100],[13,105],[-16,71],[39,40],[32,-20],[29,-40],[31,-23],[34,1],[21,-3],[10,-15],[3,-34],[10,-18],[23,-7],[49,-4],[-12,-33],[-14,-24],[-17,-12],[-17,3],[-21,-26],[-27,-24],[-23,-27],[-10,-34],[62,-37],[21,-23],[-34,-10],[-54,-42],[32,-94],[94,-135],[20,0],[13,-26],[24,-13],[29,2],[33,19],[119,-81],[31,-56],[11,-102],[-14,-181],[15,-84],[59,-74],[23,-11],[133,-40],[14,-21],[8,-22],[11,-10],[42,9],[15,20],[5,22],[9,12],[31,4],[22,-8],[21,-10],[27,-8],[112,20],[69,77],[28,116],[-12,136],[-55,214],[6,46],[15,34],[-11,33],[-114,131],[-8,61],[28,195],[-2,118],[-1,30],[22,39],[61,-34],[11,135],[24,58],[46,-6],[13,-48],[-35,-200],[21,22],[8,-2],[11,-20],[31,30],[9,10],[-4,26],[4,98],[17,-43],[5,-50],[-2,-103],[11,-37],[30,-26],[39,-17],[24,-7],[17,-5],[180,-32],[287,-9],[31,-7],[8,-17],[1,-20],[10,-16],[137,-56],[24,-18],[13,-37],[86,-118],[3,-7]],[[3137,1407],[-46,9],[-23,-11],[-40,11],[-21,-9],[-6,-30],[9,-10],[40,-8],[23,29],[42,14],[19,4],[3,1]],[[3412,0],[6,12],[55,21],[65,-2],[118,-31],[-244,0]],[[4096,322],[-3,20],[-12,101],[15,0],[0,-121]],[[3656,0],[-118,31],[-65,2],[-55,-21],[-6,-12]],[[3167,0],[0,25],[-50,113],[45,7],[35,29],[17,31],[-9,15],[-34,19],[-7,45],[13,177],[-7,83],[-34,63],[-80,24],[0,22],[44,23],[5,27],[-24,28],[-45,25],[27,0],[20,4],[34,17],[0,20],[-41,36],[25,54],[48,57],[26,49],[18,49],[46,23],[117,20],[41,17],[46,27],[35,33],[15,36],[15,17],[71,30],[24,16],[62,99],[258,252],[23,10],[33,3],[64,-4],[20,8],[33,37]],[[4096,2233],[-3,7],[-86,118],[-13,37],[-24,18],[-137,56],[-10,16],[-1,20],[-8,17],[-31,7],[-287,9],[-180,32],[-17,5],[-24,7],[-39,17],[-30,26],[-11,37],[2,103],[-5,50],[-17,43],[-4,-98],[4,-26],[-9,-10],[-31,-30],[-11,20],[-8,2],[-21,-22],[35,200],[-13,48],[-46,6],[-24,-58],[-11,-135],[-61,34],[-22,-39],[1,-30],[2,-118],[-28,-195],[8,-61],[114,-131],[11,-33],[-15,-34],[-6,-46],[55,-214],[12,-136],[-28,-116],[-69,-77],[-112,-20],[-27,8],[-21,10],[-22,8],[-31,-4],[-9,-12],[-5,-22],[-15,-20],[-42,-9],[-11,10],[-8,22],[-14,21],[-133,40],[-23,11],[-59,74],[-15,84],[14,181],[-11,102],[-31,56],[-119,81],[-33,-19],[-29,-2],[-24,13],[-13,26],[-20,0],[-94,135],[-32,94],[54,42],[34,10],[-21,23],[-62,37],[10,34],[23,27],[27,24],[21,26],[17,-3],[17,12],[14,24],[12,33],[-49,4],[-23,7],[-10,18],[-3,34],[-10,15],[-21,3],[-34,-1],[-31,23],[-29,40],[-32,20],[-39,-40],[16,-71],[-13,-105],[-28,-100],[-34,-53],[-40,-3],[-54,12],[-45,20],[-20,21],[-16,35],[-74,27],[-30,28],[24,11],[15,13],[11,18],[10,24],[-13,-7],[-47,-15],[-68,225],[-20,115],[21,273],[-11,122],[-102,432],[-28,28],[-18,13],[-1,29],[9,53],[0,68],[-11,24],[-13,20]],[[4096,322],[-3,20],[-12,101],[15,0]],[[3029,3791],[-27,-47],[-49,-14]],[[2953,3730],[15,0]],[[2970,3730],[32,13],[2,1],[19,30],[7,18]],[[3042,3851],[-13,-59]],[[4032,1576],[34,11]],[[4069,1587],[-3,0]],[[4069,1587],[27,-6]],[[3929,1518],[-74,-33],[24,-63]],[[2968,3730],[2,0]],[[2193,2756],[1,0]],[[2157,2635],[36,1]],[[2193,2636],[1,0],[2,-16]],[[2196,2620]],[[2196,2620],[1,-1]],[[2197,2619],[0,-1]],[[2197,2617],[0,2]],[[2197,2619],[-1,2]],[[2196,2621]],[[2196,2621],[-3,15]],[[2193,2636],[-1,4],[-32,-3]],[[2181,2637]],[[2189,2587],[-47,13],[52,21]],[[2189,2587]],[[2190,2587],[-1,0]],[[2194,2621],[2,0]],[[2196,2621],[0,-1]],[[2196,2620],[17,-5],[22,28]],[[2235,2643],[-22,-27],[-17,4]],[[2196,2620],[0,1]],[[2196,2621],[-2,0]],[[2198,2616],[0,3]],[[2214,2710],[2,0],[21,-2]],[[2237,2708],[1,-1]],[[2238,2707],[9,-6]],[[2221,2710]],[[2227,2709]],[[2229,2709]],[[2232,2659],[2,40],[4,8]],[[2238,2707],[0,1]],[[2238,2708],[-1,0]],[[2237,2708],[-4,-9],[-2,-24],[1,-16]],[[2232,2659],[3,-16]],[[2248,2701],[-2,3]],[[2830,3799],[57,21],[48,3]],[[2889,3820],[6,-12]],[[2895,3808],[8,-16]],[[2903,3792],[-8,16]],[[2895,3808],[-5,12]],[[2891,3815]],[[2893,3812]],[[2894,3809]],[[2895,3809],[-1,-1]],[[2901,3797],[-1,0]],[[2920,3792],[15,31]],[[2935,3823],[45,44]],[[2935,3823],[8,-52]],[[2969,3734],[-20,14]],[[2949,3747],[20,-13]],[[2969,3734]],[[2969,3734]],[[3030,3742],[-26,2],[-4,-1],[-31,-9]],[[2969,3734],[61,8]],[[2969,3734]],[[2980,3867],[49,41]],[[3026,3793],[-1,0]],[[3026,3793],[29,-11],[-8,3]],[[3047,3785],[-10,4],[-11,4]],[[3026,3793]],[[3026,3793]],[[3026,3793]],[[3131,3933],[-102,-25]],[[3030,3742]],[[3030,3742],[1,0]],[[3046,3785],[0,-1],[-5,-12],[-6,-18]],[[3035,3754],[-3,-7]],[[3032,3747],[-2,-5]],[[3031,3742],[-1,0]],[[3031,3742],[32,1]],[[3031,3742]],[[3031,3742],[16,43]],[[3068,3744],[-37,-2]],[[3032,3748],[0,-1]],[[3032,3747],[1,0]],[[3033,3790]],[[3033,3790]],[[3035,3753],[0,1]],[[3035,3754],[1,3]],[[3035,3755]],[[3039,3741],[0,-1]],[[3079,3751],[-16,-5]],[[3063,3744],[0,-1]],[[3063,3743],[5,1]],[[3068,3744],[12,4]],[[3079,3778],[-3,-1]],[[3077,3658],[0,1],[-1,-1],[1,0]],[[3077,3651],[0,7]],[[3083,3745],[52,-14]],[[3103,3669],[-17,-23]],[[3119,3694],[-25,-6]],[[3103,3669],[0,1]],[[3103,3670],[0,-1]],[[3104,3671],[-1,0]],[[3104,3670],[0,1]],[[3139,3724],[-16,-29],[-19,-24]],[[3135,3731],[5,-6]],[[3140,3727],[-5,4]],[[3139,3724],[2,0]],[[3139,3724],[1,1]],[[3140,3725],[-1,-1]],[[3140,3726],[0,1]],[[3143,3726],[-3,1]],[[3140,3725],[1,-1]],[[3142,3724],[-1,1]],[[3141,3724],[1,0]],[[3197,3780],[-55,-56]],[[3322,3377],[11,-44]],[[3337,3315],[-4,17]],[[3375,3318],[-33,-11]],[[3368,3341],[2,-1]],[[3370,3340],[-2,1]],[[3370,3340],[13,-12]],[[3383,3328],[-8,-10]],[[3375,3318],[10,6]],[[3385,3324],[-3,3]],[[3383,3326],[0,2]],[[3398,3308],[-1,2]],[[3397,3310],[-11,13],[-1,1]],[[3398,3309],[-1,1]],[[3397,3310]],[[3879,1422],[25,-24]],[[3957,1544],[-26,-25]],[[3997,1561],[0,1]],[[4012,1573],[-6,-2]],[[4015,1117],[-5,8]],[[4096,1205],[-25,57]],[[4071,1586],[1,10]],[[4096,2254],[-16,3]],[[2182,2732]],[[2182,2732],[-2,-10]],[[2246,2704],[-32,6]],[[3076,3776],[5,4]],[[3076,3774],[0,2]],[[3259,385],[-7,-224],[-67,-161]],[[3036,3808],[0,71]],[[3068,3916],[0,-1]],[[3068,3916],[1,-1]],[[3076,3913],[-8,3]],[[3069,3915],[6,-3]],[[3606,1058],[-90,-8]],[[3354,3364],[-2,-2]],[[3613,1199],[0,-12]],[[3931,1074]],[[2180,2722],[34,-12]],[[3866,2823],[25,70]],[[3891,2894],[54,209],[119,83],[32,171]],[[4096,3366],[0,39]],[[2234,2785],[118,-4]],[[2352,2779],[59,-3]],[[2426,2781],[20,19],[115,-20],[139,62]],[[2735,2827],[10,-26]],[[2889,2895],[-142,-94]],[[3044,2998],[-155,-103]],[[3114,3133],[-28,-93],[-42,-42]],[[3195,3207],[135,120]],[[4005,2693],[-123,50],[-16,80]],[[3891,2893],[0,1]],[[4096,2571],[-27,63],[-64,59]],[[1526,2869],[43,-78]],[[1569,2791],[35,16]],[[1544,3002],[-28,-97],[10,-36]],[[1526,2869],[43,10]],[[1569,2791],[22,-116],[88,25]],[[3848,1412]],[[3848,1412],[3,1]],[[3848,1412],[1,-3]],[[3849,1409],[-1,3]],[[3848,1412]],[[3895,1080],[-46,329]],[[3851,1413],[1,0]],[[2194,2756],[10,10]],[[3007,3996],[40,-109]],[[3090,3701]],[[3090,3700],[0,1]],[[3100,3677]],[[3107,3621],[-3,47]],[[3107,3618],[6,-9]],[[3107,3621],[0,-2]],[[3107,3619],[0,2]],[[3113,3609],[-6,10]],[[3146,3571],[-33,38]],[[3319,3379],[-106,115]],[[3319,3379],[45,-34]],[[3348,3359],[-5,4]],[[3343,3363],[-7,5],[-14,9],[-3,2]],[[3343,3363]],[[3343,3363],[0,-1]],[[3364,3345],[-15,12]],[[3364,3345],[2,-2]],[[3366,3343],[2,-2]],[[3366,3343],[32,-32]],[[3368,3341],[2,0]],[[3398,3311],[2,-5]],[[3399,3309],[-1,2]],[[3400,3306],[-1,3]],[[3400,3306],[27,-31]],[[3089,3700],[1,0]],[[3090,3700],[0,1]],[[3090,3701],[-1,-1]],[[3107,3619],[-1,0],[1,-1],[0,1]],[[3107,3619]],[[3368,3342],[0,-1],[0,1]],[[3940,1613],[-9,-94]],[[4006,1571],[-49,-27]],[[4032,1576],[-20,-3]],[[3613,1199],[53,49]],[[3667,1249],[5,20]],[[3848,1412],[-175,-141]],[[3848,1412],[3,1]],[[3853,1413],[-2,0]],[[4040,1331],[1,-2]],[[4041,1329],[-1,-4]],[[4041,1329],[-1,2]],[[4041,1325],[0,4]],[[3614,1205],[234,207]],[[3075,3912],[28,-76],[4,-10]],[[3107,3826],[20,-49]],[[3127,3777],[3,-8],[9,-17],[96,-116]],[[3235,3636],[-94,113],[-10,19],[-4,9]],[[3127,3777],[-3,6],[-14,35],[-3,8]],[[3107,3826],[-3,11],[-17,54],[-11,22]],[[3311,3522],[68,-120],[17,-21],[16,-15]],[[3412,3366],[-100,157]],[[3413,3365],[15,-14]],[[3429,3352],[-16,13]],[[3430,3350],[10,-9]],[[3440,3342],[-9,8]],[[3120,3782],[-39,-2]],[[2507,2062],[-82,138],[-77,7],[-65,-43],[-138,113]],[[2935,2177],[-25,-36],[-145,-1],[-54,-35],[-29,32],[-53,-14],[-10,16],[-53,-74],[-58,-4]],[[4066,1617],[-32,-24]],[[1967,3026],[11,52],[-55,-14]],[[2792,1541],[20,7]],[[2812,1548],[14,26]],[[2826,1574],[65,18]],[[2834,2491],[39,-191]],[[2934,2306],[-61,-6]],[[2873,2300],[0,-1]],[[2873,2299],[53,-106],[9,-16],[126,-151],[65,-259],[-28,-147],[-32,-23],[-102,21]],[[2964,1618],[-25,5]],[[2873,2299]],[[2873,2299],[61,7]],[[2939,1623],[-48,-31]],[[2891,1592],[40,33],[33,-7]],[[2964,1618],[102,-22],[36,27]],[[3024,2985],[-38,13],[-63,-48],[3,-31]],[[2939,1623]],[[3487,297],[-1,-29]],[[3539,70],[14,-4]],[[3613,1199],[1,6]],[[3910,2894],[59,-24]],[[4068,3091],[-99,-221]],[[3969,2870],[10,-95]],[[3738,2802],[4,-5],[5,-3],[-5,3],[-4,5]],[[3974,3128],[5,2],[4,3],[-4,-2],[-5,-3]],[[4068,2634],[3,-3],[3,-4],[-2,4],[-4,3]],[[4019,1110],[22,-117]],[[4054,953],[36,-114],[-26,-88]],[[4062,751],[-5,-2]],[[4060,725],[36,-148]],[[4096,2086],[-64,-51],[-31,-90],[-456,-351],[-499,-540],[-212,-1054]],[[4000,1446],[-1,-1],[1,-1],[1,1],[-1,1]],[[3349,3357],[2,3]],[[3036,3621],[38,32]],[[3076,3658],[-2,-5]],[[3074,3653],[31,-31]],[[3088,3698],[-11,-39]],[[3088,3698],[2,2]],[[3089,3700],[-1,-2]],[[3105,3622],[1,-3]],[[3107,3619],[-2,3]],[[3235,3636],[76,-114]],[[3312,3523],[-77,113]],[[3440,3341],[56,-52]],[[3496,3289],[-56,53]],[[3502,3281],[9,-13]],[[3511,3268],[102,-145]],[[3613,3123],[12,-17],[119,-141]],[[3557,3199],[-46,69]],[[3511,3268],[-8,14]],[[3745,2965],[-120,142],[-12,16]],[[3613,3123],[-56,76]],[[3746,2964],[121,-138]],[[3891,2811],[-145,153]],[[3877,2755],[124,-20]],[[4002,2735],[-124,20]],[[4034,1593],[62,35]],[[3611,1164],[2,23]],[[3900,461],[-71,-57]],[[3843,373],[44,-97]],[[3951,136],[-22,-136]],[[3036,3879],[-15,83],[86,89]],[[3107,4050],[-86,-88],[6,-51],[15,-60]],[[2809,391],[373,70]],[[4092,1829],[-975,-391]],[[3117,1438],[-44,-39]],[[3117,1438],[979,392]],[[3490,80],[-140,4],[-101,-58],[-43,6]],[[3490,80],[1,0]],[[3490,80]],[[3194,3207],[-41,-35]],[[3960,769],[36,-71]],[[3353,1018],[-73,-88],[-31,15]],[[3358,1024],[-5,-6]],[[3611,1164],[-98,-102],[-48,24],[-107,-62]],[[4041,993],[13,-40]],[[3102,3836],[-20,-2],[-21,2],[-14,-1]],[[3047,3835],[14,0],[21,-1],[13,1]],[[3852,1085],[43,-5]],[[2054,2930],[-3,-85],[25,-32]],[[2094,2798],[30,-9]],[[2150,2727],[7,-1]],[[3029,3792],[0,-1]],[[4021,1575],[1,0]],[[2191,2756],[2,0]],[[4005,2693]],[[4006,2692],[1,0]],[[4056,3178],[8,8]],[[1628,3084]],[[1628,3084],[-4,7],[-24,171]],[[1623,3089],[5,-5]],[[1628,3084],[191,79]],[[2130,2639]],[[2130,2639]],[[2130,2638],[1,0]],[[2131,2638]],[[2133,2289],[1,3]],[[2134,2292],[4,41],[132,68],[10,40],[-89,8]],[[2160,2637],[-24,-3]],[[2136,2634]],[[2136,2634],[-12,9],[6,-4]],[[2130,2639],[1,-1]],[[2131,2638],[5,-4]],[[2136,2634],[21,1]],[[2191,2449],[-14,-51],[-71,-68],[28,-38]],[[2134,2292],[6,-8],[2,-1],[3,-6]],[[2174,2713],[-23,5]],[[2174,2712],[40,-2]],[[2179,2718],[9,-1]],[[2189,2587],[2,0]],[[2191,2587],[-1,0]],[[2191,2449],[22,34],[-30,15],[24,42],[-17,26],[24,1],[-23,20]],[[2196,2446],[-4,-3]],[[2746,3278],[28,-23]],[[2774,3255],[-28,24]],[[2749,2764],[95,-29],[85,-97],[18,-81],[-22,-131],[8,-62],[2,-68]],[[2774,3255],[76,-48]],[[2782,1537],[10,4]],[[2850,3207],[22,101],[-16,56],[95,84]],[[2850,3207],[48,-43],[57,36],[189,-54],[-30,-98],[-41,-31]],[[2866,2361],[64,19]],[[2903,3791],[0,1]],[[2903,3791]],[[2903,3792],[3,-6]],[[2906,3786],[3,-5]],[[2909,3781],[3,-6],[1,-1]],[[2940,3754],[-27,21]],[[2913,3775],[-1,1],[-3,5]],[[2909,3781],[-3,5]],[[2906,3786],[-3,5]],[[2920,3792],[-14,-6]],[[2906,3786]],[[2906,3786],[-1,0]],[[2913,3774],[0,1]],[[2913,3775]],[[2913,3774],[26,-20],[10,-7]],[[2935,2177],[39,66]],[[2935,2296],[2,-16]],[[2937,2293],[-2,3]],[[2940,2286],[-3,6]],[[2943,3771],[-3,-17]],[[2949,3748],[-9,6]],[[2951,2269],[-8,11]],[[2944,3458],[7,-10]],[[2951,3448],[92,-148],[114,-68],[22,-38]],[[2974,2243],[-22,24]],[[2974,2243],[48,-37],[15,-42],[15,-128]],[[2974,2241],[2,0]],[[3098,1945],[-29,56]],[[3099,1938],[-3,-86]],[[3117,3057],[61,-7]],[[3131,3933],[124,60]],[[3208,3141],[-46,6]],[[3261,4005],[-26,91]],[[3293,3884],[-96,-104]],[[3198,3161],[10,-20]],[[3208,3141],[12,25]],[[3251,3183],[-31,-17]],[[3251,3183],[30,79],[61,45]],[[3255,3993],[9,4]],[[3261,4005],[-6,-12]],[[3264,3997],[-3,8]],[[3264,3997],[29,-113]],[[3293,3884],[171,-449]],[[3338,3313],[-1,2]],[[3486,40],[4,4]],[[3490,80],[0,-1]],[[3490,79],[1,1]],[[3501,31],[-5,19]],[[3496,50],[-6,29]],[[3515,65],[-19,-15]],[[3496,50],[-6,-5]],[[3490,45],[6,5]],[[3512,759]],[[3543,3204],[28,255]],[[3571,3460],[95,-103]],[[3599,2964],[24,-10]],[[3599,2963],[1,1]],[[3608,1200],[5,-1]],[[3627,2954],[265,-9]],[[3679,795],[123,-113],[27,-53]],[[3829,629],[0,-1]],[[3729,2770],[-1,-1]],[[4096,3099],[-54,6],[-36,-75],[-40,-11],[12,-61],[-66,-44]],[[3912,2914],[-19,-12],[-133,-40],[-31,-92]],[[3729,2770]],[[3729,2770],[0,-5]],[[3925,2623],[-196,142]],[[3777,554],[9,67],[36,4],[7,4]],[[3829,629],[31,14],[76,-153]],[[3888,2887],[26,17],[0,1],[-2,9]],[[3912,2914],[0,4],[-10,14]],[[3902,2932],[-10,13]],[[3889,2919],[-1,1]],[[3889,2919],[-1,0]],[[3889,2918],[0,1]],[[3989,3102],[-53,-134],[-23,-25]],[[3913,2943],[-11,-11]],[[3902,2932],[-13,-13]],[[3918,2942],[-5,1]],[[3913,2943],[-21,2]],[[4010,1125],[-78,121],[-6,133],[-22,19]],[[3923,820],[22,0]],[[3925,2623],[3,-1]],[[3928,2622],[0,-49],[85,-66],[79,-138]],[[3987,3111],[-8,20]],[[3990,3106],[-3,5]],[[3988,3103],[1,-1]],[[3990,3104],[-1,-1]],[[3989,3102],[2,1]],[[3989,3102],[1,1]],[[3990,3104],[0,2]],[[3990,3103],[0,1]],[[3991,3103],[-1,0]],[[4062,3180],[-71,-77]],[[4037,3097],[-26,12],[-7,2],[-3,1]],[[4019,1110],[-4,7]],[[4071,1262],[-15,35]],[[4060,725],[-3,24]],[[4062,3180],[1,3]],[[4064,3185],[-2,-5]],[[4064,751],[-2,0]],[[4072,2631],[24,28]],[[4090,2375],[2,-6]],[[4092,2369],[4,-4]],[[3490,45]],[[3490,45],[0,-1],[0,1]],[[3346,3355],[37,28]],[[3007,3996],[-19,44],[26,56]],[[3213,3494],[-67,77]],[[3706,2839],[-108,137],[-43,214],[-128,85]],[[3871,2756],[-124,38],[-40,44]],[[3871,2756],[6,-1]],[[3878,2755],[-7,1]],[[2744,2802],[1,-2]],[[3496,3289],[6,-8]],[[3503,3282],[-7,7]],[[3557,3199]],[[3744,2965],[2,-1]],[[3746,2964],[-1,1]],[[3874,1422],[-21,-9]],[[3938,1491],[-62,-69]],[[3969,1520],[-26,-23]],[[2965,0],[9,767],[59,293],[506,541],[557,497]],[[3388,3387],[1,2]],[[3388,3387],[-1,0],[1,0]],[[3394,3393],[-1,0],[0,-1],[1,1]],[[3047,3887],[29,-111]],[[3081,3755],[-5,19]],[[3081,3755],[0,-3]],[[3083,3745],[-2,10]],[[3082,3748],[1,-3]],[[3083,3745],[8,-32]],[[3102,3672],[-11,26]],[[3102,3672],[1,-2]],[[3103,3671],[-1,1]],[[3103,3670],[1,-2]],[[3104,3668],[0,2]],[[3104,3670],[-1,1],[0,-1],[1,0]],[[2249,2719],[-2,-17]],[[2247,2701],[2,18]],[[2298,2714],[-49,5]],[[2182,2732],[11,23]],[[3126,4096],[-19,-46]],[[3107,4051],[26,45]],[[4031,1329],[34,9]],[[4067,1338],[-2,0]],[[4067,1338],[1,0]],[[4096,1628],[-30,-11]],[[4096,1611],[-24,-15]],[[3379,3380],[-49,-52]],[[3399,3309]],[[2180,2689],[-61,-30],[-86,-98]],[[3327,3373],[0,1]],[[3335,3338],[-2,-5]],[[3333,3333],[-1,0]],[[3332,3333],[-2,-5]],[[3330,3328],[3,5]],[[3333,3333]],[[3333,3333],[2,5]],[[3333,3332],[0,1]],[[3333,3333],[-1,0]],[[3332,3333]],[[3333,3333]],[[3333,3333]],[[3333,3333]],[[3387,3387],[-3,-3]],[[3398,3308],[1,1]],[[3399,3309],[-1,0]],[[3399,3395]],[[3405,3395]],[[4019,1557],[-1,-1]],[[4034,1582],[-2,-6]],[[4033,1577],[1,5]],[[4037,1587],[-3,-5]],[[2326,2713],[-28,1]],[[2326,2713],[15,1],[6,1]],[[2347,2715],[-21,-2]],[[2347,2715],[27,38]],[[2374,2753],[30,13]],[[2404,2766],[2,5]],[[2406,2771],[1,2],[0,1],[-1,-1],[0,-2]],[[3486,268],[1,29]],[[2094,2798],[-18,15]],[[2124,2789],[23,-9],[3,-53]],[[2157,2726],[34,30]],[[4095,1254],[0,7]],[[4095,1254],[1,-10]],[[4095,1261]],[[4095,1261],[1,12]],[[4096,1278],[-1,-17]],[[2188,2717],[0,2]],[[3352,3362],[-4,-3]],[[4034,1586],[0,5]],[[3829,404],[14,-31]],[[3887,276],[77,-53],[-13,-87]],[[4096,519],[-63,0],[-133,-58]],[[3707,2838],[-1,1]],[[3168,796],[-4,-5]],[[3397,375],[-138,10],[-45,31],[-33,71],[22,104],[-67,22],[34,33],[-3,56],[32,21],[-35,68]],[[3249,945],[-20,-24],[-42,26],[17,-116],[-36,-35]],[[3397,375],[1,-1]],[[3398,374],[-1,1]],[[3398,374],[1,0]],[[3399,374],[-1,0]],[[3398,374]],[[3399,375],[-1,-1]],[[3399,375],[27,40],[304,119],[64,-48],[32,-79]],[[3399,374],[0,1]],[[2205,2690],[-10,-22]],[[2745,2800],[89,-309]],[[3986,1485],[0,3]],[[3986,1485],[14,-39]],[[4000,1446],[-14,39]],[[4006,1547],[-7,-47]],[[3999,1445],[2,-9]],[[3999,1499],[8,48]],[[4001,1436],[-1,8]],[[4037,1587],[-3,6]],[[3940,485],[-4,5]],[[4051,0],[45,44]],[[4057,531],[39,9]],[[4096,337],[0,102]],[[3295,3569],[3,-5]],[[3895,1080],[36,-6]],[[3931,1074],[109,36]],[[4068,1338],[28,6]],[[4004,1420],[-19,-15]],[[3985,1405],[6,-24]],[[3991,1381],[1,-1],[1,-1]],[[3993,1379],[4,-19]],[[3997,1360],[0,-2],[3,-11],[1,-6]],[[4001,1339],[2,-19]],[[4001,1341],[-2,14],[-2,5]],[[3997,1360],[-5,11],[1,8]],[[3993,1379],[-1,1],[-1,1]],[[3991,1381],[-1,1],[-5,6],[0,17]],[[3985,1405],[9,5],[8,6],[2,4]],[[4001,1436],[3,-14]],[[4004,1320],[-3,19]],[[4004,1422],[-3,14]],[[4000,1340],[1,-1]],[[4001,1339],[0,1],[0,1]],[[4001,1341],[-1,-1]],[[3030,3792],[6,16]],[[3980,2746],[11,-5]],[[3412,3366],[1,-1]],[[3413,3365],[-1,1]],[[3428,3351],[2,-1]],[[3431,3350],[-2,2]],[[3571,3460],[-1,0],[1,-1],[0,1]],[[3036,3621],[-59,-61],[-32,-102]],[[3153,3172]],[[3194,3207],[1,0]],[[2411,2776],[-7,0]],[[2700,2842],[35,-15]],[[2747,2801],[-2,0]],[[3281,3278],[-9,-7]],[[3321,3314],[-30,-29]],[[3463,3431],[-7,-8]],[[3463,3431],[5,4]],[[3570,3460],[-107,-29]],[[3930,4096],[-60,-94],[-143,-137],[-41,-106],[-78,-57],[17,-86],[-54,-156]],[[2204,2766],[30,19]],[[3330,3327],[16,28]],[[3383,3383],[3,3]],[[2953,3730],[-49,-15],[-68,-150]],[[2837,3565],[67,150],[49,15]],[[3613,1199],[143,-62],[74,-65],[22,13]],[[2747,2801],[-2,0]],[[2968,0],[10,767],[58,291],[504,541],[556,495]],[[3849,431],[-72,123],[-77,63]],[[3867,2826],[124,-85],[48,-27],[57,-43]],[[4096,2672],[-57,43],[-148,96]],[[3952,779],[1,110],[-58,191]],[[3387,3387],[-8,-7]],[[3386,3386],[1,0]],[[3393,3393],[-6,-6]],[[3389,3389],[17,6]],[[3406,3395],[-12,-2]],[[3456,3423],[-50,-28]],[[2352,2781],[0,-2]],[[2411,2776],[15,5]],[[2889,2895]],[[3153,3172],[-39,-39]],[[4004,1420],[1,0],[0,2],[-1,0],[0,-2]],[[3606,1058],[9,-169],[-51,-32],[5,-63],[-57,-35]],[[3700,617],[-60,66],[-120,50],[-8,26]],[[3516,1050],[-3,12]],[[2831,0],[212,1056],[500,540],[456,350]],[[3999,1946],[97,48]],[[4096,2090],[-66,-53],[-31,-91]],[[4037,533],[5,-9]],[[2195,2668],[-99,10],[-187,-225],[-35,-2],[-13,31]],[[2205,2707],[0,-17]],[[4043,1110],[28,-2]],[[3487,297],[-88,77]],[[3486,268],[1,-7]],[[3488,259],[2,-178]],[[3490,80],[1,0],[-1,0]],[[3490,81],[0,-1]],[[3491,80],[-1,1]],[[3491,80],[0,-1]],[[3491,79],[0,1]],[[3491,79],[48,-9]],[[3553,66],[127,-16],[99,-50]],[[3044,2998]],[[3073,1399],[7,181]],[[2054,2930],[-27,66],[-241,203],[-187,71],[-83,491],[-109,211],[67,56],[-11,68]],[[2194,2756],[-1,0]],[[4096,1995],[-98,-48],[-457,-350],[-502,-540],[-211,-1057]],[[3398,374],[1,-2]],[[3487,261],[1,-2]],[[4034,1593],[-1,-13]],[[3330,3328],[-9,-14]],[[3960,769],[-240,330],[-109,65],[-19,28],[22,13]],[[3996,698],[-7,-49],[48,-116]],[[2943,2280],[-3,6]],[[3099,1938],[-1,7]],[[3162,3147],[-14,-8]],[[3179,3194],[19,-33]],[[3220,3166]],[[3251,3183]],[[4003,1679],[-47,-15],[-16,-51]],[[4040,1110],[3,0]],[[4071,1108],[1,1]],[[4072,1109],[17,3]],[[4089,1112],[7,2]],[[2388,2762],[75,28],[100,-22],[94,11],[28,28],[16,400],[26,70],[108,106],[31,78],[-29,104]],[[2836,3565],[29,-104],[-30,-78],[-54,-47],[-47,-50],[-7,-9],[-26,-68],[-16,-402],[-28,-28],[-94,-11],[-86,23],[-15,-1],[-73,-27]],[[3872,1422],[-20,-9]],[[3872,1422],[5,0]],[[4018,1556],[-141,-134]],[[4033,1577],[-14,-20]],[[4034,1592],[-13,-16]],[[3656,0],[-118,31],[-65,2],[-55,-21],[-6,-12],[-245,0],[0,25],[-50,113],[45,7],[35,29],[17,31],[-9,15],[-34,19],[-7,45],[13,177],[-7,83],[-34,63],[-80,24],[0,22],[44,23],[5,27],[-24,28],[-45,25],[27,0],[20,4],[34,17],[0,20],[-41,36],[25,54],[48,57],[26,49],[18,49],[46,23],[117,20],[41,17],[46,27],[35,33],[15,36],[15,17],[71,30],[24,16],[62,99],[258,252],[23,10],[33,3],[64,-4],[20,8],[33,37],[0,-1666],[-440,0]],[[4096,4096],[0,-1863],[-3,7],[-86,118],[-13,37],[-24,18],[-137,56],[-10,16],[-1,20],[-8,17],[-31,7],[-287,9],[-180,32],[-17,5],[-24,7],[-39,17],[-30,26],[-11,37],[2,103],[-5,50],[-17,43],[-4,-98],[4,-26],[-9,-10],[-31,-30],[-11,20],[-8,2],[-21,-22],[35,200],[-13,48],[-46,6],[-24,-58],[-11,-135],[-61,34],[-22,-39],[1,-30],[2,-118],[-28,-195],[8,-61],[114,-131],[11,-33],[-15,-34],[-6,-46],[55,-214],[12,-136],[-28,-116],[-69,-77],[-112,-20],[-27,8],[-21,10],[-22,8],[-31,-4],[-9,-12],[-5,-22],[-15,-20],[-42,-9],[-11,10],[-8,22],[-14,21],[-133,40],[-23,11],[-59,74],[-15,84],[14,181],[-11,102],[-31,56],[-119,81],[-33,-19],[-29,-2],[-24,13],[-13,26],[-20,0],[-94,135],[-32,94],[54,42],[34,10],[-21,23],[-62,37],[10,34],[23,27],[27,24],[21,26],[17,-3],[17,12],[14,24],[12,33],[-49,4],[-23,7],[-10,18],[-3,34],[-10,15],[-21,3],[-34,-1],[-31,23],[-29,40],[-32,20],[-39,-40],[16,-71],[-13,-105],[-28,-100],[-34,-53],[-40,-3],[-54,12],[-45,20],[-20,21],[-16,35],[-74,27],[-30,28],[24,11],[15,13],[11,18],[10,24],[-13,-7],[-47,-15],[-68,225],[-20,115],[21,273],[-11,122],[-102,432],[-28,28],[-18,13],[-1,29],[9,53],[0,68],[-11,24],[-13,20],[2740,0]],[[4096,963],[-58,-14],[9,136],[-9,31],[-32,1],[65,133],[-5,139],[-28,62],[-158,-63],[-96,89],[139,135],[120,9],[53,45],[0,-703]],[[4096,2233],[-38,54],[38,28],[0,-82]],[[2190,2807],[101,-52],[8,-50],[-32,-71],[-99,-60],[-58,26],[81,59],[26,57],[-72,11],[-23,67],[-66,10],[64,29],[70,-26]],[[3359,3491],[32,-67],[65,0],[-32,-167],[-55,1],[-75,132],[-133,42],[4,59],[121,8],[34,32],[7,60],[59,-3],[-27,-97]],[[3165,3825],[96,-135],[-31,-66],[-33,0],[-65,-66],[-44,6],[-85,94],[-33,0],[-32,134],[-129,0],[60,87],[134,47],[0,67],[42,36],[87,30],[-16,-66],[-48,-34],[162,-67],[-65,-67]],[[3829,404],[106,85],[161,69],[0,-558],[-83,0],[-184,404]]]}