{"objects":{"water":{"type":"GeometryCollection","geometries":[{"type":"Polygon","properties":{"source":"naturalearthdata.com","kind":"ocean","area":1576712559132672,"sort_rank":200,"min_zoom":0.0,"id":1},"arcs":[[6],[7],[8],[9],[10],[11],[12],[13],[14],[15],[16],[17]]},{"type":"MultiLineString","properties":{"source":"naturalearthdata.com","kind":"ocean","sort_rank":205,"boundary":true,"min_zoom":0.0,"id":231},"arcs":[[18],[19],[20]]},{"type":"LineString","properties":{"source":"naturalearthdata.com","kind":"ocean","sort_rank":205,"boundary":true,"min_zoom":0.0,"id":2379},"arcs":[21]},{"type":"LineString","properties":{"source":"naturalearthdata.com","kind":"ocean","sort_rank":205,"boundary":true,"min_zoom":0.0,"id":2397},"arcs":[22]},{"type":"LineString","properties":{"source":"naturalearthdata.com","kind":"ocean","sort_rank":205,"boundary":true,"min_zoom":0.0,"id":2398},"arcs":[23]},{"type":"LineString","properties":{"source":"naturalearthdata.com","kind":"ocean","sort_rank":205,"boundary":true,"min_zoom":0.0,"id":2399},"arcs":[24]},{"type":"LineString","properties":{"source":"naturalearthdata.com","kind":"ocean","sort_rank":205,"boundary":true,"min_zoom":0.0,"id":2406},"arcs":[25]},{"type":"LineString","properties":{"source":"naturalearthdata.com","kind":"ocean","sort_rank":205,"boundary":true,"min_zoom":0.0,"id":2795},"arcs":[26]}]},"buildings":{"type":"GeometryCollection","geometries":[]},"places":{"type":"GeometryCollection","geometries":[{"type":"Point","properties":{"source":"openstreetmap.org","kind":"locality","name":"Coron","kind_detail":"town","population":42941,"min_zoom":8.0,"id":188143013},"coordinates":[1963,2441]},{"type":"Point","properties":{"source":"openstreetmap.org","kind":"locality","name":"Busuanga","kind_detail":"town","population":21358,"min_zoom":8.0,"id":198492899},"coordinates":[1179,2842]},{"type":"Point","properties":{"source":"openstreetmap.org","kind":"locality","name":"Culion","kind_detail":"town","population":19543,"min_zoom":8.0,"id":2664690891},"coordinates":[1430,2120]},{"type":"Point","properties":{"source":"openstreetmap.org","kind":"locality","name":"Linapacan","kind_detail":"town","population":14180,"min_zoom":8.0,"id":198494492},"coordinates":[982,931]}]},"transit":{"type":"GeometryCollection","geometries":[]},"pois":{"type":"GeometryCollection","geometries":[]},"boundaries":{"type":"GeometryCollection","geometries":[{"type":"LineString","properties":{"name:cy":"Pilipinas","name:ko":"\ud544\ub9ac\ud540","name:cv":"\u0424\u0438\u043b\u0438\u043f\u043f\u0438\u043d","name:km":"\u17a0\u17d2\u179c\u17b8\u179b\u17b8\u1796\u17b8\u1793","name:cs":"Filip\u00edny","name:tt":"\u0424\u0438\u043b\u0438\u043f\u043f\u0438\u043d\u043d\u0430\u0440","name:kw":"Filipinys","name:kv":"\u0424\u0438\u043b\u0438\u043f\u043f\u0438\u043d\u044a\u044f\u0441","name:ku":"Fil\u00eep\u00een","name:tl":"Pilipinas","name:ce":"\u0424\u0438\u043b\u0438\u043f\u043f\u0438\u043d","name:ta":"\u0baa\u0bbf\u0bb2\u0bbf\u0baa\u0bcd\u0baa\u0bc0\u0ba9\u0bcd\u0b9a\u0bc1","name:tg":"\u0424\u0438\u043b\u0438\u043f\u043f\u0438\u043d","name:ca":"Filipines","name:te":"\u0c2b\u0c3f\u0c32\u0c3f\u0c2a\u0c4d\u0c2a\u0c40\u0c28\u0c4d\u0c38\u0c4d","name:ka":"\u10e4\u10d8\u10da\u10d8\u10de\u10d8\u10dc\u10d4\u10d1\u10d8","name:qu":"Philipinakuna","name:da":"Filippinerne","name:de":"Philippinen","source":"openstreetmap.org","name:kn":"\u0cab\u0cbf\u0cb2\u0cbf\u0caa\u0ccd\u0caa\u0cc0\u0ca8\u0ccd\u0cb8\u0ccd","name:dv":"\u078a\u07a8\u078d\u07a8\u0795\u07a9\u0782\u07b0\u0790\u07b0","name:lv":"Filip\u012bnas","name:lt":"Filipinai","name:uz":"Filippin","name:kk":"\u0424\u0438\u043b\u0438\u043f\u043f\u0438\u043d\u0434\u0435\u0440","name:ur":"\u0641\u0644\u067e\u0627\u0626\u0646","name:lb":"Philippinen","name:la":"Philippinae","name:uk":"\u0424\u0456\u043b\u0456\u043f\u043f\u0456\u043d\u0438","name:ug":"\u0641\u0649\u0644\u0649\u067e\u067e\u0649\u0646","name:li":"Filipiene","name:el":"\u03a6\u03b9\u03bb\u03b9\u03c0\u03c0\u03af\u03bd\u03b5\u03c2","name:eo":"Filipinoj","name":"Philippines","name:tk":"Filippinler","name:th":"\u0e1b\u0e23\u0e30\u0e40\u0e17\u0e28\u0e1f\u0e34\u0e25\u0e34\u0e1b\u0e1b\u0e34\u0e19\u0e2a\u0e4c","name:eu":"Filipinak","name:et":"Filipiinid","name:es":"Filipinas","name:ia":"Philippinas","name:az":"Filippin","name:ie":"Filipines","name:id":"Filipina","name:ar":"\u0627\u0644\u0641\u0644\u0628\u064a\u0646","name:io":"Filipini","name:is":"Filippseyjar","name:am":"\u134a\u120a\u1352\u1295\u1235","name:it":"Filippine","name:an":"Filipinas","name:ru":"\u0424\u0438\u043b\u0438\u043f\u043f\u0438\u043d\u044b","name:rw":"Filipine","name:af":"Filippyne","kind_detail":"2","name:za":"Feihlizbinh","name:zh-yue":"\u83f2\u5f8b\u8cd3","name:zh":"\u83f2\u5f8b\u8cd3","name:so":"Filibiin","name:sm":"Filipaina","name:sl":"Filipini","name:sk":"Filip\u00edny","name:ja":"\u30d5\u30a3\u30ea\u30d4\u30f3","name:si":"\u0db4\u0dd2\u0dbd\u0dd2\u0db4\u0dd3\u0db1\u0dba","name:sh":"Filipini","name:sg":"Filip\u00eeni","name:se":"Filippiinnat","name:br":"Filipinez","name:bs":"Filipini","name:bn":"\u09ab\u09bf\u09b2\u09bf\u09aa\u09be\u0987\u09a8","name:bo":"\u0f67\u0fa5\u0f72\u0f0b\u0f63\u0f72\u0f0b\u0f54\u0f72\u0f53\u0f0d","name:sa":"\u0915\u0932\u093f\u0902\u0917\u0926\u094d\u0935\u0940\u092a","name:sw":"Ufilipino","name:be":"\u0424\u0456\u043b\u0456\u043f\u0456\u043d\u044b","name:su":"Pilipina","name:bg":"\u0424\u0438\u043b\u0438\u043f\u0438\u043d\u0438","name:ss":"IFiliphayi","name:sr":"\u0424\u0438\u043b\u0438\u043f\u0438\u043d\u0438","name:sq":"Filipinet","name:jv":"Filipina","name:pt":"Filipinas","name:ps":"\u0641\u0644\u06d0\u067e\u064a\u0646","name:oc":"Filipinas","min_zoom":8.0,"name:ro":"Filipine","name:zh-min-nan":"Hui-li\u030dp-pin","name:os":"\u0424\u0438\u043b\u0438\u043f\u043f\u0438\u043d\u0442\u00e6","name:or":"\u0b2b\u0b3f\u0b32\u0b3f\u0b2a\u0b3e\u0b07\u0b28\u0b4d\u0b38","name:pl":"Filipiny","sort_rank":262,"osm_relation":true,"name:pa":"\u0a2b\u0a3c\u0a3f\u0a32\u0a2a\u0a40\u0a28\u0a1c\u0a3c","name:tr":"Filipinler","name:hi":"\u092b\u093c\u093f\u0932\u0940\u092a\u0940\u0928\u094d\u0938","name:sv":"Filippinerna","name:he":"\u05d4\u05e4\u05d9\u05dc\u05d9\u05e4\u05d9\u05e0\u05d9\u05dd","name:hy":"\u0556\u056b\u056c\u056b\u057a\u056b\u0576\u0576\u0565\u0580","name:ht":"Filipin","name:hu":"F\u00fcl\u00f6p-szigetek","name:hr":"Filipini","kind":"country","name:yi":"\u05e4\u05d9\u05dc\u05d9\u05e4\u05d9\u05e0\u05e2\u05df","name:yo":"Filip\u00edn\u00ec","name:ms":"Filipina","name:mr":"\u092b\u093f\u0932\u093f\u092a\u093e\u0908\u0928\u094d\u0938","name:my":"\u1016\u102d\u101c\u1005\u103a\u1015\u102d\u102f\u1004\u103a\u1014\u102d\u102f\u1004\u103a\u1004\u1036","official_name":"Rep\u00fablika ng Pilipinas","name:mg":"Filipina","name:ml":"\u0d2b\u0d3f\u0d32\u0d3f\u0d2a\u0d4d\u0d2a\u0d40\u0d7b\u0d38\u0d4d","name:mn":"\u0424\u0438\u043b\u0438\u043f\u043f\u0438\u043d","id":-443174,"name:mk":"\u0424\u0438\u043b\u0438\u043f\u0438\u043d\u0438","name:vo":"Filipu\u00e4ns","name:fa":"\u0641\u06cc\u0644\u06cc\u067e\u06cc\u0646","name:fi":"Filippiinit","name:fo":"Filipsoyggjar","name:fy":"Filipinen","name:nl":"Filipijnen","name:nn":"Filippinane","name:no":"Filippinene","name:na":"Eben Piripin","name:ne":"\u092b\u093f\u0932\u093f\u092a\u093f\u0928\u094d\u0938","name:wa":"Filipenes","name:wo":"Filipiin","name:nv":"K\u00e9yah Da\u0144l\u00edinii","name:ga":"Na hOile\u00e1in Fhilip\u00edneacha","name:gd":"Na h-Eileanan Filipineach","name:gn":"Filipina","name:gl":"Filipinas","maritime_boundary":true,"name:gv":"Ny h-Ellanyn Philippeenagh","name:gu":"\u0aab\u0ac0\u0ab2\u0ac0\u0aaa\u0abe\u0a88\u0aa8\u0acd\u0ab8"},"arcs":[0]},{"type":"MultiLineString","properties":{"kind":"region","name":"Palawan","sort_rank":256,"kind_detail":"4","min_zoom":8.0,"source":"openstreetmap.org","maritime_boundary":true,"id":-1506669,"osm_relation":true,"name:ja":"\u30d1\u30e9\u30ef\u30f3"},"arcs":[[1],[2],[3]]},{"type":"LineString","properties":{"kind":"region","name":"Palawan","sort_rank":256,"kind_detail":"4","min_zoom":8.0,"source":"openstreetmap.org","maritime_boundary":true,"id":-1506669,"osm_relation":true,"name:ja":"\u30d1\u30e9\u30ef\u30f3"},"arcs":[4]},{"type":"LineString","properties":{"kind":"region","name":"Occidental Mindoro","sort_rank":256,"kind_detail":"4","min_zoom":8.0,"source":"openstreetmap.org","maritime_boundary":true,"id":-1506320,"osm_relation":true,"name:ja":"\u897f\u30df\u30f3\u30c9\u30ed"},"arcs":[5]}]},"roads":{"type":"GeometryCollection","geometries":[{"type":"MultiLineString","properties":{"sort_rank":380,"kind_detail":"primary","min_zoom":8.0,"kind":"major_road","source":"openstreetmap.org"},"arcs":[[27],[28],[29],[30],[31],[32],[33],[34],[35]]},{"type":"LineString","properties":{"source":"openstreetmap.org","kind":"ferry","name":"To West Nalaut Island","sort_rank":355,"min_zoom":8.0,"id":232122357},"arcs":[36]},{"type":"LineString","properties":{"source":"openstreetmap.org","kind":"ferry","name":"To Calumbuyan Island","sort_rank":355,"min_zoom":8.0,"id":232121031},"arcs":[37]},{"type":"LineString","properties":{"sort_rank":355,"source":"openstreetmap.org","min_zoom":8.0,"name":"Manila - Dumaguete","kind":"ferry"},"arcs":[38]},{"type":"LineString","properties":{"source":"openstreetmap.org","kind":"ferry","name":"To Coral Gardens","sort_rank":355,"min_zoom":8.0,"id":232121032},"arcs":[39]},{"type":"LineString","properties":{"sort_rank":355,"source":"openstreetmap.org","min_zoom":8.0,"name":"Manila - Coron","kind":"ferry"},"arcs":[40]},{"type":"LineString","properties":{"source":"openstreetmap.org","kind":"ferry","name":"To Atwayan Beach","sort_rank":355,"min_zoom":8.0,"id":232121028},"arcs":[41]},{"type":"LineString","properties":{"sort_rank":355,"source":"openstreetmap.org","min_zoom":8.0,"name":"San Jose to Coron","kind":"ferry"},"arcs":[42]},{"type":"LineString","properties":{"sort_rank":355,"source":"openstreetmap.org","min_zoom":8.0,"name":"To Kayangan Lake","kind":"ferry"},"arcs":[43]},{"type":"LineString","properties":{"source":"openstreetmap.org","kind":"ferry","name":"To Ditaytayan Island","sort_rank":355,"min_zoom":8.0,"id":232121033},"arcs":[44]},{"type":"LineString","properties":{"source":"openstreetmap.org","kind":"ferry","name":"to CYC Beach","sort_rank":355,"min_zoom":8.0,"id":322279199},"arcs":[45]},{"type":"LineString","properties":{"source":"openstreetmap.org","kind":"ferry","name":"Quezon - Calauit","sort_rank":355,"min_zoom":8.0,"id":468580417},"arcs":[46]},{"type":"LineString","properties":{"source":"openstreetmap.org","kind":"ferry","name":"To Malcapuya Island","sort_rank":355,"min_zoom":8.0,"id":232121038},"arcs":[47]},{"type":"LineString","properties":{"sort_rank":355,"source":"openstreetmap.org","min_zoom":8.0,"name":"El Nido - Coron","kind":"ferry"},"arcs":[48]},{"type":"LineString","properties":{"source":"openstreetmap.org","kind":"ferry","name":"to Sangat Ship Wreck and Hot Spring","sort_rank":355,"min_zoom":8.0,"id":322279200},"arcs":[49]},{"type":"LineString","properties":{"sort_rank":355,"source":"openstreetmap.org","min_zoom":8.0,"name":"Manila - El Nido","kind":"ferry"},"arcs":[50]},{"type":"LineString","properties":{"source":"openstreetmap.org","kind":"ferry","name":"To Twin Lagoon","sort_rank":355,"min_zoom":8.0,"id":232121040},"arcs":[51]},{"type":"LineString","properties":{"source":"openstreetmap.org","kind":"ferry","name":"to Pass Island","sort_rank":355,"min_zoom":8.0,"id":322279206},"arcs":[52]},{"type":"LineString","properties":{"source":"openstreetmap.org","kind":"ferry","name":"Coron - Culion","sort_rank":355,"min_zoom":8.0,"id":467592736},"arcs":[53]},{"type":"LineString","properties":{"source":"openstreetmap.org","kind":"ferry","name":"To Lusong Island","sort_rank":355,"min_zoom":8.0,"id":232121035},"arcs":[54]},{"type":"LineString","properties":{"source":"openstreetmap.org","kind":"ferry","name":"Coron - San Jose (Mon,Wed,Sat 8:00AM)","sort_rank":355,"min_zoom":8.0,"id":466841548},"arcs":[55]},{"type":"LineString","properties":{"sort_rank":355,"source":"openstreetmap.org","min_zoom":8.0,"name":"Puerto Princesa - Coron","kind":"ferry"},"arcs":[56]},{"type":"LineString","properties":{"source":"openstreetmap.org","kind":"ferry","name":"To Banana Island","sort_rank":355,"min_zoom":8.0,"id":467596264},"arcs":[57]},{"type":"LineString","properties":{"source":"openstreetmap.org","kind":"ferry","name":"To Siete Pecados","sort_rank":355,"min_zoom":8.0,"id":467596267},"arcs":[58]}]},"earth":{"type":"GeometryCollection","geometries":[{"type":"MultiPolygon","properties":{"sort_rank":10,"source":"naturalearthdata.com","min_zoom":0.0,"kind":"earth","area":5542716077},"arcs":[[[59]],[[60]],[[61]],[[62]],[[63]],[[64]],[[65]]]},{"type":"Point","properties":{"label_placement":true,"kind":"island","name":"Busuanga Island","area":988763008,"source":"openstreetmap.org","min_zoom":8.0,"id":-1552151,"osm_relation":true},"coordinates":[1447,2878]}]},"landuse":{"type":"GeometryCollection","geometries":[{"type":"MultiPolygon","properties":{"source":"openstreetmap.org","kind":"park","tier":2,"area":778684515,"sort_rank":24,"min_zoom":6.0},"arcs":[[[66]],[[67]],[[68]]]}]}},"type":"Topology","transform":{"translate":[119.53125,11.1784018737],"scale":[0.0003433228,0.000335977]},"arcs":[[[424,4096],[-43,-438],[-381,-727]],[[2586,0],[95,99],[47,99],[20,158],[-19,107],[-73,127],[-427,512],[-111,92],[165,129],[67,122],[14,76],[129,58],[77,67],[88,158],[209,616],[65,598],[-24,228],[-167,345],[-344,269],[-109,53],[-116,19],[-183,-43],[-162,103],[-57,96],[-10,8]],[[1001,4096],[-248,-115],[-106,-132],[-107,-301],[-53,-500],[-141,-329],[-14,-111],[34,-169],[77,-116],[-1,-109],[35,-123],[180,-226],[-15,-104],[21,-136],[-79,-97],[-329,-28],[-102,-34],[-126,-103],[-27,-55]],[[1006,0],[-53,94],[23,116],[161,91],[104,145],[21,-50],[74,-49],[-19,-41],[50,-51],[332,-255]],[[4096,1076],[-152,133],[-206,54],[-243,-54],[-163,-102],[-123,-159],[-44,-109],[-173,-184],[-79,-188],[-13,-126],[67,-341]],[[3649,4096],[-2,-184],[81,-195],[103,-143],[59,-583],[66,-159],[140,-141]],[[41,0],[1,2],[45,123],[23,123],[-6,118],[-42,107],[-14,-14],[-18,-14],[-8,-12],[-22,16],[0,3647],[4054,0],[-13,-54],[-7,-72],[29,-31],[33,-21],[0,-3918],[-3807,0],[5,10],[-11,25],[-45,30],[-25,-5],[-12,-10],[-8,-13],[-12,-13],[-52,-24],[-8,2],[0,-2],[-80,0]],[[695,691],[3,-13],[33,15],[20,27],[18,38],[25,-4],[49,-16],[35,-1],[-21,-38],[-14,-41],[4,-36],[31,-27],[61,79],[47,106],[19,117],[-26,107],[-26,17],[-29,-2],[-33,-15],[-32,-21],[45,-18],[8,-36],[-12,-44],[-22,-46],[-11,26],[-16,11],[-16,-8],[-16,-29],[-28,23],[-29,50],[-22,29],[-3,-89],[-10,-50],[-29,-22],[-46,31],[-40,54],[-37,27],[-36,-53],[41,-11],[17,-57],[32,-13],[23,-12],[25,-27],[18,-28]],[[1561,1677],[-43,60],[22,16],[58,65],[-11,18],[-18,17],[-23,16],[-28,12],[0,-20],[-27,16],[-12,4],[0,19],[37,42],[-9,40],[4,30],[77,11],[20,7],[-29,14],[-61,18],[-81,65],[-16,8],[-32,21],[-15,22],[67,16],[18,13],[-2,14],[-29,6],[-129,-1],[-52,11],[13,30],[-101,63],[-28,60],[-43,-13],[-35,-43],[-3,-24],[9,-7],[3,-15],[-3,-14],[-9,-7],[-12,3],[-15,7],[-10,7],[5,5],[-24,0],[-15,7],[-15,9],[-24,5],[41,-143],[19,-40],[34,-43],[75,-73],[30,-49],[-18,-7],[-25,-22],[-17,-11],[30,-23],[27,-84],[23,-38],[42,-25],[46,-4],[36,27],[16,63],[23,-18],[15,1],[23,17],[20,-40],[-11,-41],[-31,-41],[-39,-40],[11,-22],[5,-16],[5,-43],[-21,0],[-9,19],[-12,14],[-40,28],[-18,-76],[13,-87],[36,-47],[51,47],[87,6],[95,80],[59,98]],[[898,2303],[30,56],[16,8],[13,-1],[29,12],[-21,15],[-38,-3],[-41,-45],[-31,-34],[-8,-28],[-7,-22],[10,4],[11,13],[10,5],[27,20]],[[1638,2429],[42,-81],[18,0],[12,24],[9,12],[13,0],[25,-13],[7,40],[11,32],[2,31],[-20,37],[22,22],[45,-16],[50,-4],[36,-13],[6,-46],[39,15],[32,-17],[32,-27],[39,-15],[41,8],[32,21],[35,17],[51,-2],[26,-13],[14,-14],[19,-5],[40,9],[38,16],[28,19],[11,28],[-15,39],[-22,-22],[-3,11],[1,7],[-3,4],[-13,0],[-19,-28],[-23,-6],[-13,15],[13,40],[27,26],[27,10],[20,14],[8,42],[-16,40],[-38,50],[-88,83],[-4,-13],[-1,-3],[-4,0],[-10,-6],[-18,52],[-40,-3],[-41,-8],[-19,31],[3,81],[-6,47],[-20,46],[-41,53],[-17,2],[0,-279],[-32,11],[-25,-3],[-18,-16],[-7,-32],[-75,40],[-155,122],[-66,0],[-2,33],[9,25],[20,16],[31,8],[-26,11],[-50,1],[-24,8],[-21,16],[-69,74],[-80,66],[-48,29],[-47,13],[-113,13],[-41,14],[-4,26],[-4,48],[-18,45],[-54,22],[-69,-3],[-20,-44],[8,-116],[20,18],[29,6],[72,-2],[-55,-35],[-52,-15],[-39,-23],[-14,-60],[6,-45],[1,-30],[-7,-37],[-23,-32],[-27,-26],[-7,-23],[37,-23],[13,44],[24,40],[30,34],[34,27],[33,-39],[11,-42],[6,-41],[18,-32],[30,-32],[15,-31],[5,-35],[1,-44],[19,-63],[82,-97],[39,-86],[50,-43],[59,-34],[51,-14],[126,19],[33,-21]],[[2187,2320],[-17,21],[-24,9],[-27,-1],[-133,-54],[-29,-6],[100,-185],[53,-146],[36,-60],[30,24],[-3,23],[-31,59],[-7,29],[1,31],[20,81],[-5,15],[-12,17],[-6,19],[12,21],[15,6],[30,5],[6,10],[-2,56],[-7,26]],[[1861,1793],[17,-27],[6,-23],[-9,-3],[-21,-2],[-17,18],[-12,-2],[-9,0],[-10,7],[-23,-3],[-23,27],[-5,-8],[1,-17],[14,-40],[9,-12],[23,0],[57,-24],[19,6],[22,12],[13,7],[12,0],[13,6],[-2,22],[-20,45],[-19,13],[-14,4],[-24,2],[2,-8]],[[442,325],[6,15],[11,16],[12,36],[0,23],[-3,26],[-12,3],[-24,-15],[-2,-17],[-17,-18],[-25,5],[-23,-13],[-3,-42],[6,-32],[7,-10],[5,-22],[37,-27],[7,53],[18,19]],[[3316,379],[8,-8],[9,5],[14,-6],[-6,-7],[-3,-16],[16,-16],[23,15],[12,2],[5,23],[-7,19],[1,28],[-15,5],[-23,0],[-29,-27],[-5,-17]],[[1688,605],[-24,17],[-13,-6],[-27,16],[-35,-3],[5,-11],[7,-1],[23,1],[9,-7],[-12,-19],[6,-32],[49,-9],[8,27],[4,27]],[[3788,792],[-2,15],[-14,-5],[-12,-12],[8,-30],[29,-45],[21,20],[4,29],[-22,22],[-12,6]],[[1938,806],[-14,24],[-17,19],[-32,-17],[-23,-71],[17,8],[11,14],[12,19],[12,3],[34,1]],[[238,65],[-25,-5],[-12,-10],[-8,-13],[-12,-13],[-52,-24]],[[129,0],[-8,2],[0,-2]],[[289,0],[5,10],[-11,25],[-45,30]],[[4054,4096],[-13,-54],[-7,-72],[29,-31],[33,-21]],[[1437,2127],[-16,8],[-32,21],[-15,22],[67,16],[18,13],[-2,14],[-29,6],[-129,-1],[-52,11],[13,30],[-101,63],[-28,60],[-43,-13],[-35,-43],[-3,-24],[9,-7],[3,-15],[-3,-14],[-9,-7],[-12,3],[-15,7],[-10,7],[5,5],[-24,0],[-15,7],[-15,9],[-24,5],[41,-143],[19,-40],[34,-43],[75,-73],[30,-49],[-18,-7],[-25,-22],[-17,-11],[30,-23],[27,-84],[23,-38],[42,-25],[46,-4],[36,27],[16,63],[23,-18],[15,1],[23,17],[20,-40],[-11,-41],[-31,-41],[-39,-40],[11,-22],[5,-16],[5,-43],[-21,0],[-9,19],[-12,14],[-40,28],[-18,-76],[13,-87],[36,-47],[51,47],[87,6],[95,80],[59,98],[-43,60],[22,16],[58,65],[-11,18],[-18,17],[-23,16],[-28,12],[0,-20],[-27,16],[-12,4],[0,19],[37,42],[-9,40],[4,30],[77,11],[20,7],[-29,14],[-61,18],[-81,65]],[[2378,2533],[-22,-22],[-3,11],[1,7],[-3,4],[-13,0],[-19,-28],[-23,-6],[-13,15],[13,40],[27,26],[27,10],[20,14],[8,42],[-16,40],[-38,50],[-88,83],[-4,-13],[-1,-3],[-4,0],[-10,-6],[-18,52],[-40,-3],[-41,-8],[-19,31],[3,81],[-6,47],[-20,46],[-41,53],[-17,2],[0,-279],[-32,11],[-25,-3],[-18,-16],[-7,-32],[-75,40],[-155,122],[-66,0],[-2,33],[9,25],[20,16],[31,8],[-26,11],[-50,1],[-24,8],[-21,16],[-69,74],[-80,66],[-48,29],[-47,13],[-113,13],[-41,14],[-4,26],[-4,48],[-18,45],[-54,22],[-69,-3],[-20,-44],[8,-116],[20,18],[29,6],[72,-2],[-55,-35],[-52,-15],[-39,-23],[-14,-60],[6,-45],[1,-30],[-7,-37],[-23,-32],[-27,-26],[-7,-23],[37,-23],[13,44],[24,40],[30,34],[34,27],[33,-39],[11,-42],[6,-41],[18,-32],[30,-32],[15,-31],[5,-35],[1,-44],[19,-63],[82,-97],[39,-86],[50,-43],[59,-34],[51,-14],[126,19],[33,-21],[42,-81],[18,0],[12,24],[9,12],[13,0],[25,-13],[7,40],[11,32],[2,31],[-20,37],[22,22],[45,-16],[50,-4],[36,-13],[6,-46],[39,15],[32,-17],[32,-27],[39,-15],[41,8],[32,21],[35,17],[51,-2],[26,-13],[14,-14],[19,-5],[40,9],[38,16],[28,19],[11,28],[-15,39]],[[979,1004],[-26,17],[-29,-2],[-33,-15],[-32,-21],[45,-18],[8,-36],[-12,-44],[-22,-46],[-11,26],[-16,11],[-16,-8],[-16,-29],[-28,23],[-29,50],[-22,29],[-3,-89],[-10,-50],[-29,-22],[-46,31],[-40,54],[-37,27],[-36,-53],[41,-11],[17,-57],[32,-13],[23,-12],[25,-27],[18,-28],[3,-13],[33,15],[20,27],[18,38],[25,-4],[49,-16],[35,-1],[-21,-38],[-14,-41],[4,-36],[31,-27],[61,79],[47,106],[19,117],[-26,107]],[[41,0],[1,2],[45,123],[23,123],[-6,118],[-42,107],[-14,-14],[-18,-14],[-8,-12],[-22,16]],[[2196,2238],[-2,56],[-7,26],[-17,21],[-24,9],[-27,-1],[-133,-54],[-29,-6],[100,-185],[53,-146],[36,-60],[30,24],[-3,23],[-31,59],[-7,29],[1,31],[20,81],[-5,15],[-12,17],[-6,19],[12,21],[15,6],[30,5],[6,10]],[[0,391],[38,34],[53,-70],[-20,-167],[-60,-101],[-11,-7]],[[1151,2004],[39,9]],[[1167,2841],[16,-6],[-20,-99],[22,-40],[49,-3],[13,30],[21,-23],[49,-164],[165,11],[198,-94],[15,72],[113,66]],[[1179,1985],[29,53],[51,23],[-2,33],[50,-2],[6,25],[48,-4],[26,29],[45,-27]],[[1432,2125],[2,0]],[[1594,2997],[-15,-39],[39,-55],[-12,-27],[77,-39],[-21,-44],[14,-36],[145,-103],[11,-27],[-19,-2]],[[1813,2625],[-5,-34]],[[1984,2441],[-29,1],[-147,149]],[[2063,3032],[-10,-53]],[[1196,2483],[-80,82],[-107,-13],[-241,48]],[[1405,2388],[-210,95]],[[3337,4096],[759,-1415]],[[1436,2358],[-31,30]],[[1982,2417],[29,-35],[68,32],[162,-52],[135,52],[-70,1682]],[[1924,2308],[-9,-51]],[[2241,2361],[1855,852]],[[1953,2435],[71,-110]],[[1729,1765],[-70,-89]],[[1922,2310],[-29,27]],[[1177,3244],[3,36]],[[1744,1806],[-43,11]],[[1980,2419],[-244,-578],[-138,-183],[-227,-188],[-262,-82],[-172,-109],[-124,-151],[-379,-235],[-434,-147]],[[1534,2313],[15,68]],[[1115,4096],[-1115,-2784]],[[2008,2337],[-50,-59],[-34,30]],[[1215,2477],[-71,-59]],[[1425,2135],[495,180],[60,105]],[[1946,2435],[-90,-12],[-90,25],[-88,-145],[-170,15],[-72,40]],[[1981,2418],[30,-37],[68,32],[162,-52]],[[1534,0],[89,1682],[98,135],[260,602]],[[1915,2257],[-186,-490]],[[2024,2325],[11,72]],[[0,0],[0,449],[22,-16],[8,12],[18,14],[14,14],[42,-107],[6,-118],[-23,-123],[-45,-123],[-1,-2],[-41,0]],[[1005,897],[-19,-117],[-47,-106],[-61,-79],[-31,27],[-4,36],[14,41],[21,38],[-35,1],[-49,16],[-25,4],[-18,-38],[-20,-27],[-33,-15],[-3,13],[-18,28],[-25,27],[-23,12],[-32,13],[-17,57],[-41,11],[36,53],[37,-27],[40,-54],[46,-31],[29,22],[10,50],[3,89],[22,-29],[29,-50],[28,-23],[16,29],[16,8],[16,-11],[11,-26],[22,46],[12,44],[-8,36],[-45,18],[32,21],[33,15],[29,2],[26,-17],[26,-107]],[[294,10],[-5,-10],[-160,0],[52,24],[12,13],[8,13],[12,10],[25,5],[45,-30],[11,-25]],[[4096,4096],[0,-178],[-33,21],[-29,31],[7,72],[13,54],[42,0]],[[1260,2267],[-13,-30],[52,-11],[129,1],[29,-6],[2,-14],[-18,-13],[-67,-16],[15,-22],[32,-21],[16,-8],[81,-65],[61,-18],[29,-14],[-20,-7],[-77,-11],[-4,-30],[9,-40],[-37,-42],[0,-19],[12,-4],[27,-16],[0,20],[28,-12],[23,-16],[18,-17],[11,-18],[-58,-65],[-22,-16],[43,-60],[-59,-98],[-95,-80],[-87,-6],[-51,-47],[-36,47],[-13,87],[18,76],[40,-28],[12,-14],[9,-19],[21,0],[-5,43],[-5,16],[-11,22],[39,40],[31,41],[11,41],[-20,40],[-23,-17],[-15,-1],[-23,18],[-16,-63],[-36,-27],[-46,4],[-42,25],[-23,38],[-27,84],[-30,23],[17,11],[25,22],[18,7],[-30,49],[-75,73],[-34,43],[-19,40],[-41,143],[24,-5],[15,-9],[15,-7],[24,0],[-5,-5],[10,-7],[15,-7],[12,-3],[9,7],[3,14],[-3,15],[-9,7],[3,24],[35,43],[43,13],[28,-60],[101,-63]],[[2176,1922],[-30,-24],[-36,60],[-53,146],[-100,185],[29,6],[133,54],[27,1],[24,-9],[17,-21],[7,-26],[2,-56],[-6,-10],[-30,-5],[-15,-6],[-12,-21],[6,-19],[12,-17],[5,-15],[-20,-81],[-1,-31],[7,-29],[31,-59],[3,-23]],[[1175,3294],[4,-26],[41,-14],[113,-13],[47,-13],[48,-29],[80,-66],[69,-74],[21,-16],[24,-8],[50,-1],[26,-11],[-31,-8],[-20,-16],[-9,-25],[2,-33],[66,0],[155,-122],[75,-40],[7,32],[18,16],[25,3],[32,-11],[0,279],[17,-2],[41,-53],[20,-46],[6,-47],[-3,-81],[19,-31],[41,8],[40,3],[18,-52],[10,6],[4,0],[1,3],[4,13],[88,-83],[38,-50],[16,-40],[-8,-42],[-20,-14],[-27,-10],[-27,-26],[-13,-40],[13,-15],[23,6],[19,28],[13,0],[3,-4],[-1,-7],[3,-11],[22,22],[15,-39],[-11,-28],[-28,-19],[-38,-16],[-40,-9],[-19,5],[-14,14],[-26,13],[-51,2],[-35,-17],[-32,-21],[-41,-8],[-39,15],[-32,27],[-32,17],[-39,-15],[-6,46],[-36,13],[-50,4],[-45,16],[-22,-22],[20,-37],[-2,-31],[-11,-32],[-7,-40],[-25,13],[-13,0],[-9,-12],[-12,-24],[-18,0],[-42,81],[-33,21],[-126,-19],[-51,14],[-59,34],[-50,43],[-39,86],[-82,97],[-19,63],[-1,44],[-5,35],[-15,31],[-30,32],[-18,32],[-6,41],[-11,42],[-33,39],[-34,-27],[-30,-34],[-24,-40],[-13,-44],[-37,23],[7,23],[27,26],[23,32],[7,37],[-1,30],[-6,45],[14,60],[39,23],[52,15],[55,35],[-72,2],[-29,-6],[-20,-18],[-8,116],[20,44],[69,3],[54,-22],[18,-45],[4,-48]],[[0,325],[0,44],[48,-43],[-22,-30],[0,31],[-26,-2]],[[0,272],[0,32],[13,-38],[-13,6]],[[0,202],[0,34],[12,-21],[-6,-16],[-6,3]]]}