{"objects":{"water":{"type":"GeometryCollection","geometries":[]},"buildings":{"type":"GeometryCollection","geometries":[]},"places":{"type":"GeometryCollection","geometries":[{"type":"Point","properties":{"name:ja":"\u30c7\u30ea\u30fc","name:hi":"\u0926\u093f\u0932\u094d\u0932\u0940","name:ko":"\ub378\ub9ac","name:kn":"\u0ca6\u0cc6\u0cb9\u0cb2\u0cbf","name:eo":"Delhio","official_name":"National Capital Territory of Delhi","name:ur":"\u062f\u06c1\u0644\u06cc","min_zoom":4.0,"name:uk":"\u0414\u0435\u043b\u0456","name:ru":"\u0414\u0435\u043b\u0438","name:ta":"\u0b9f\u0bc6\u0bb2\u0bcd\u0bb2\u0bbf","id":316416994,"kind":"region","name":"Delhi","source":"openstreetmap.org","kind_detail":"state","name:de":"Nationales Hauptstadtterritorium Delhi","alt_name:vi":"Dilli","name:zh":"\u5fb7\u91cc\u56fd\u5bb6\u9996\u90fd\u8f96\u533a"},"coordinates":[3595,1075]},{"type":"Point","properties":{"name:sl":"Harjana","name:ja":"\u30cf\u30ea\u30e4\u30fc\u30ca\u30fc","name:hi":"\u0939\u0930\u093f\u092f\u093e\u0923\u093e","name:kn":"\u0cb9\u0cb0\u0cbf\u0caf\u0cbe\u0ca3\u0cbe","name:eo":"Harjano","official_name":"State of Hary\u0101na","min_zoom":4.0,"name:uk":"\u0425\u0430\u0440'\u044f\u043d\u0430","name:ru":"\u0425\u0430\u0440\u044c\u044f\u043d\u0430","name:hu":"Harij\u00e1na","id":316417213,"kind":"region","name:en":"Haryana","name":"Hary\u0101na","kind_detail":"state","source":"openstreetmap.org"},"coordinates":[182,2315]},{"type":"Point","properties":{"name:pt":"Deli","name:he":"\u05d3\u05dc\u05d4\u05d9","name:ja":"\u30c7\u30ea\u30fc","name:hi":"\u0926\u093f\u0932\u094d\u0932\u0940","name:ko":"\ub378\ub9ac","name:kn":"\u0ca6\u0cc6\u0cb9\u0cb2\u0cbf","name:ar":"\u062f\u0644\u0647\u064a","name:cs":"Dill\u00ed","kind":"locality","name:th":"\u0e40\u0e14\u0e25\u0e35","name:uk":"\u0414\u0435\u043b\u0456","name:ml":"\u0d21\u0d46\u0d7d\u0d39\u0d3f","name:ru":"\u0414\u0435\u043b\u0438","name:ta":"\u0ba4\u0bbf\u0bb2\u0bcd\u0bb2\u0bbf","id":2702400314,"population":11008000,"name:el":"\u0394\u03b5\u03bb\u03c7\u03af","name:eo":"Delhio","name":"Delhi","kind_detail":"city","min_zoom":8.0,"source":"openstreetmap.org","name:my":"\u1012\u1031\u101c\u102e\u1019\u103c\u102d\u102f\u1037","name:zh":"\u5fb7\u91cc"},"coordinates":[3741,1156]},{"type":"Point","properties":{"kind":"locality","name":"Rohtak","name:hi":"\u0930\u094b\u0939\u0924\u0915","kind_detail":"city","min_zoom":8.0,"source":"openstreetmap.org","name:bn":"\u09b0\u0993\u09b9\u099f\u09be\u0995","name:kn":"\u0cb0\u0ccb\u0cb9\u0ccd\u0c9f\u0c95\u0ccd","population":373133,"id":1397139972,"name:ja":"\u30ed\u30fc\u30bf\u30af"},"coordinates":[1872,1986]},{"type":"Point","properties":{"name:pt":"Nova Deli","name:ka":"\u10dc\u10d8\u10e3-\u10d3\u10d4\u10da\u10d8","name:ko":"\ub274\ub378\ub9ac","name:kn":"\u0cb9\u0cca\u0cb8 \u0ca6\u0cc6\u0cb9\u0cb2\u0cbf","name:cs":"Nov\u00e9 Dill\u00ed","min_zoom":8.0,"name:ks":"\u0646\u0654\u0648 \u062f\u0644\u06be\u06cc","name:tl":"Bagong Delhi","name:zh-min-nan":"Sin Delhi","name:os":"\u041d\u044c\u044e-\u0414\u0435\u043b\u0438","name:pl":"Nowe Delhi","name:ta":"\u0baa\u0bc1\u0ba4\u0bc1 \u0ba4\u0bbf\u0bb2\u0bcd\u0bb2\u0bbf","name:tg":"\u041d\u044e-\u0414\u0435\u043b\u0438","name:ca":"Nova Delhi","name:te":"\u0c15\u0c4d\u0c30\u0c4a\u0c24\u0c4d\u0c24 \u0c22\u0c3f\u0c32\u0c4d\u0c32\u0c40","name:vi":"T\u00e2n Delhi","name:cy":"Delhi Newydd","source":"openstreetmap.org","name:de":"Neu-Delhi","name:tr":"Yeni Delhi","name:dv":"\u0782\u07a8\u0787\u07aa\u078b\u07a8\u0787\u07b0\u078d\u07a9","admin_level":"2","name:lv":"\u0145\u016bdeli","name:lt":"Naujasis Delis","name:hi":"\u0928\u0908 \u0926\u093f\u0932\u094d\u0932\u0940","name:kk":"\u041d\u044c\u044e-\u0414\u0435\u043b\u0438","name:he":"\u05e0\u05d9\u05d5 \u05d3\u05dc\u05d4\u05d9","kind":"locality","name:ur":"\u0646\u0626\u06cc \u062f\u06c1\u0644\u06cc","name:lb":"Nei-Delhi","name:la":"Dellium Novum","name:uk":"\u041d\u044c\u044e-\u0414\u0435\u043b\u0456","name:hy":"\u0546\u0575\u0578\u0582 \u0534\u0565\u056c\u056b","country_capital":true,"name:ug":"Y\u00e9ngi D\u00e9hli","name:hu":"\u00dajdelhi","name:qu":"Musuq Dilhi","name:oc":"N\u00f2va Delhi","population":249998,"name:el":"\u039d\u03ad\u03bf \u0394\u03b5\u03bb\u03c7\u03af","name:eo":"Nov-Delhio","name":"New Delhi","name:ku":"Delhiya N\u00fb","name:th":"\u0e19\u0e34\u0e27\u0e40\u0e14\u0e25\u0e35","name:yi":"\u05e0\u05d9\u05d9 \u05d3\u05e2\u05dc\u05d9","name:es":"Nueva Delhi","name:ia":"Nove Delhi","name:mr":"\u0928\u0935\u0940 \u0926\u093f\u0932\u094d\u0932\u0940","name:ar":"\u062f\u0644\u0647\u064a \u0627\u0644\u062c\u062f\u064a\u062f\u0629","name:my":"\u1014\u101a\u1030\u1038\u1012\u1031\u101c\u102e\u1019\u103c\u102d\u102f\u1037","name:io":"Nova-Delhi","name:is":"N\u00fdja Del\u00ed","name:am":"\u1292\u12cd \u12f4\u120a","name:it":"Nuova Delhi","name:an":"Nueva Delhi","name:ru":"\u041d\u044c\u044e-\u0414\u0435\u043b\u0438","name:mn":"\u0428\u0438\u043d\u044d \u0414\u0435\u043b\u0438","id":16173236,"name:mk":"\u040a\u0443 \u0414\u0435\u043b\u0445\u0438","name:af":"Nieu-Delhi","name:fa":"\u062f\u0647\u0644\u06cc \u0646\u0648","kind_detail":"city","name:zh-yue":"\u65b0\u5fb7\u91cc","name:fy":"Nij Delly","name:zh":"\u65b0\u5fb7\u91cc","name:pa":"\u0a28\u0a35\u0a40\u0a02 \u0a26\u0a3f\u0a71\u0a32\u0a40","name:sk":"Na\u00ed Dill\u00ed","name:ja":"\u30cb\u30e5\u30fc\u30c7\u30ea\u30fc","name:si":"\u0db1\u0dc0 \u0daf\u0dd2\u0dbd\u0dca\u0dbd\u0dd2\u0dba","name:ne":"\u0928\u092f\u093e\u0901 \u0926\u093f\u0932\u094d\u0932\u0940","name:sa":"\u0928\u0935\u0926\u0947\u0939\u0932\u0940","name:bn":"\u09a8\u09a4\u09c1\u09a8 \u09a6\u09bf\u09b2\u09cd\u09b2\u09bf","name:bo":"\u0f53\u0f7a\u0f60\u0f74\u0f0b\u0f51\u0f72\u0f63\u0f0b\u0f63\u0f72\u0f0d","name:ml":"\u0d28\u0d4d\u0d2f\u0d42 \u0d21\u0d46\u0d7d\u0d39\u0d3f","name:be":"\u041d\u044c\u044e-\u0414\u044d\u043b\u0456","name:bg":"\u041d\u044e \u0414\u0435\u043b\u0445\u0438","name:sr":"\u040a\u0443 \u0414\u0435\u043b\u0445\u0438","name:ga":"Nua-Deil\u00ed","name:ht":"Niou Deli","name:gl":"Nova Deli - \u0928\u0908 \u0926\u093f\u0932\u094d\u0932\u0940","name:gv":"Delhi Noa"},"coordinates":[3684,1031]},{"type":"Point","properties":{"kind":"locality","name":"Bhiwani","kind_detail":"city","source":"openstreetmap.org","min_zoom":8.0,"name:kn":"\u0cad\u0cbf\u0cb5\u0cbe\u0ca8\u0cbf","name:ru":"\u0412\u0445\u0438\u0432\u0430\u043d\u0438","population":169424,"id":1395398115,"name:ja":"\u30d3\u30ef\u30fc\u30cb\u30fc"},"coordinates":[587,1627]},{"type":"Point","properties":{"kind":"locality","name":"Jind","kind_detail":"city","source":"openstreetmap.org","min_zoom":8.0,"name:kn":"\u0c9c\u0cbf\u0c82\u0ca6\u0ccd","population":166225,"id":1144143339,"name:ja":"\u30b8\u30f3\u30c9"},"coordinates":[1108,3360]},{"type":"Point","properties":{"kind":"locality","name":"Panipat","name:hi":"\u092a\u093e\u0928\u0940\u092a\u0924","kind_detail":"city","source":"openstreetmap.org","min_zoom":8.0,"name:kn":"\u0caa\u0cbe\u0ca8\u0cbf\u0caa\u0ca4\u0ccd","population":100000,"id":245768111,"name:ja":"\u30d1\u30fc\u30cb\u30fc\u30d1\u30c8"},"coordinates":[3028,3617]},{"type":"Point","properties":{"kind":"locality","name":"Faridabad","name:hi":"\u092b\u0930\u0940\u0926\u093e\u092c\u093e\u0926","kind_detail":"city","source":"openstreetmap.org","min_zoom":8.0,"name:uk":"\u0424\u0430\u0440\u0456\u0434\u0430\u0431\u0430\u0434","name:kn":"\u0cab\u0cb0\u0cc0\u0ca6\u0cac\u0cbe\u0ca6\u0ccd","population":100000,"name:ru":"\u0424\u0430\u0440\u0438\u0434\u0430\u0431\u0430\u0434","name:ta":"\u0baa\u0bb0\u0bbf\u0ba4\u0bbe\u0baa\u0bbe\u0ba4\u0bc1","id":245765268,"name:ja":"\u30d5\u30a1\u30ea\u30fc\u30c0\u30fc\u30d0\u30fc\u30c9"},"coordinates":[3994,328]},{"type":"Point","properties":{"kind":"locality","name":"Shamli","name:hi":"\u0936\u093e\u092e\u0932\u0940","kind_detail":"town","source":"openstreetmap.org","min_zoom":8.0,"id":1215325269,"population":100000},"coordinates":[3994,3807]},{"type":"Point","properties":{"kind":"locality","name":"Sonipat","kind_detail":"town","source":"openstreetmap.org","min_zoom":8.0,"name:ru":"\u0421\u043e\u043d\u0438\u043f\u0430\u0442","population":50000,"id":245767308,"name:ja":"\u30bd\u30fc\u30cb\u30fc\u30d1\u30c8"},"coordinates":[3143,2326]},{"type":"Point","properties":{"kind":"locality","name":"Hansi","kind_detail":"town","source":"openstreetmap.org","min_zoom":8.0,"population":50000,"id":1396151305,"name:ja":"\u30cf\u30fc\u30f3\u30b7\u30fc"},"coordinates":[75,2665]},{"type":"Point","properties":{"kind":"locality","name":"Gohana","kind_detail":"town","source":"openstreetmap.org","min_zoom":8.0,"name:kn":"\u0c97\u0cca\u0cb9\u0cbe\u0ca8","population":48518,"id":245767678,"name:ja":"\u30b4\u30cf\u30ca"},"coordinates":[2234,2771]},{"type":"Point","properties":{"source":"openstreetmap.org","kind":"locality","name":"Shadipur Julana","kind_detail":"town","population":40000,"min_zoom":8.0,"id":1812853215},"coordinates":[1355,2725]},{"type":"Point","properties":{"source":"openstreetmap.org","kind":"locality","name":"Jhajjar","kind_detail":"town","population":39004,"min_zoom":8.0,"id":1397401437},"coordinates":[2099,1006]},{"type":"Point","properties":{"source":"openstreetmap.org","kind":"locality","name":"Safidon","kind_detail":"town","population":27542,"min_zoom":8.0,"id":1802090175},"coordinates":[2104,3662]},{"type":"Point","properties":{"source":"openstreetmap.org","kind":"locality","name":"Asandh","kind_detail":"town","population":22707,"min_zoom":8.0,"id":245768365},"coordinates":[1940,4050]},{"type":"Point","properties":{"source":"openstreetmap.org","kind":"locality","name":"Kharkhoda","kind_detail":"town","population":18758,"min_zoom":8.0,"id":2737939553},"coordinates":[2838,1908]},{"type":"Point","properties":{"source":"openstreetmap.org","kind":"locality","name":"Bawani Khera","kind_detail":"town","population":17438,"min_zoom":8.0,"id":1395398114},"coordinates":[275,2148]},{"type":"Point","properties":{"source":"openstreetmap.org","kind":"locality","name":"Kanina Khas","kind_detail":"town","population":10196,"min_zoom":8.0,"id":1732367128},"coordinates":[1082,86]},{"type":"Point","properties":{"kind":"locality","name":"Kairana","name:hi":"\u0915\u0948\u0930\u093e\u0928\u093e","kind_detail":"town","source":"openstreetmap.org","min_zoom":8.0,"id":245768143,"population":10000},"coordinates":[3693,3628]},{"type":"Point","properties":{"kind":"locality","name":"Charkhi Dadri","kind_detail":"town","source":"openstreetmap.org","min_zoom":8.0,"population":5000,"id":245766042,"name:ja":"\u30c1\u30e3\u30eb\u30ad\u30fb\u30c0\u30c9\u30ea"},"coordinates":[962,958]},{"type":"Point","properties":{"kind":"locality","name":"Bahadurgarh","kind_detail":"town","source":"openstreetmap.org","min_zoom":8.0,"population":5000,"id":245766462,"name:ja":"\u30d0\u30cf\u30fc\u30c9\u30a5\u30eb\u30ac\u30eb"},"coordinates":[2900,1294]},{"type":"Point","properties":{"source":"openstreetmap.org","kind":"locality","name":"Baghpat","kind_detail":"town","population":5000,"min_zoom":8.0,"id":2141899759},"coordinates":[3734,2127]},{"type":"Point","properties":{"source":"openstreetmap.org","kind":"locality","name":"Samalkha","kind_detail":"town","population":1000,"min_zoom":8.0,"id":311937747},"coordinates":[3122,3106]},{"type":"Point","properties":{"source":"openstreetmap.org","kind":"locality","name":"Gannaur","kind_detail":"town","population":1000,"min_zoom":8.0,"id":311937751},"coordinates":[3146,2759]}]},"transit":{"type":"GeometryCollection","geometries":[{"type":"LineString","properties":{"kind":"subway","colour_name":"pink","sort_rank":275,"colour":"pink","source":"openstreetmap.org","min_zoom":8.0,"ref":"7","id":-5425208,"osm_relation":true},"arcs":[5]},{"type":"LineString","properties":{"kind":"train","name":"Sealdah Rajdhani Express","sort_rank":275,"source":"openstreetmap.org","min_zoom":6.0,"operator":"Eastern Railways","ref":"12314","osm_relation":true},"arcs":[6]},{"type":"LineString","properties":{"kind":"subway","network":"DMRC","sort_rank":275,"colour":"red","source":"openstreetmap.org","min_zoom":8.0,"ref":"1","id":-447214,"osm_relation":true,"colour_name":"red"},"arcs":[7]},{"type":"MultiLineString","properties":{"kind":"subway","network":"DMRC","sort_rank":275,"colour":"yellow","source":"openstreetmap.org","min_zoom":8.0,"ref":"2","id":-447210,"osm_relation":true,"colour_name":"yellow"},"arcs":[[8],[9],[10]]},{"type":"LineString","properties":{"kind":"subway","network":"DMRC","sort_rank":275,"colour":"9400d3","name":"Violet Line","source":"openstreetmap.org","min_zoom":8.0,"ref":"6","id":-2535797,"osm_relation":true,"colour_name":"darkorchid"},"arcs":[11]},{"type":"LineString","properties":{"kind":"subway","colour_name":"blue","sort_rank":275,"colour":"blue","source":"openstreetmap.org","min_zoom":8.0,"ref":"4","id":-2535795,"osm_relation":true},"arcs":[12]},{"type":"LineString","properties":{"kind":"subway","name":"Airport Express Line","sort_rank":275,"colour":"orange","source":"openstreetmap.org","min_zoom":8.0,"ref":"AEx","id":-2535798,"osm_relation":true,"colour_name":"orange"},"arcs":[13]},{"type":"LineString","properties":{"kind":"subway","network":"DMRC","sort_rank":275,"colour":"blue","source":"openstreetmap.org","min_zoom":8.0,"ref":"3","id":-447209,"osm_relation":true,"colour_name":"blue"},"arcs":[14]},{"type":"LineString","properties":{"kind":"subway","network":"DMRC","sort_rank":275,"colour":"gray","name":"Rapid MetroRail Gurgaon","source":"openstreetmap.org","min_zoom":8.0,"ref":"RMGL","id":-4481323,"osm_relation":true,"colour_name":"grey"},"arcs":[15]},{"type":"LineString","properties":{"kind":"subway","colour_name":"grey","sort_rank":275,"colour":"grey","source":"openstreetmap.org","min_zoom":8.0,"ref":"9","id":-3537978,"osm_relation":true},"arcs":[16]},{"type":"MultiLineString","properties":{"kind":"subway","colour_name":"green","sort_rank":275,"colour":"#008000","source":"openstreetmap.org","min_zoom":8.0,"ref":"5","osm_relation":true},"arcs":[[17],[18],[19]]},{"type":"LineString","properties":{"kind":"subway","colour_name":"fuchsia","sort_rank":275,"colour":"Magenta","source":"openstreetmap.org","min_zoom":8.0,"ref":"8","id":-3709979,"osm_relation":true},"arcs":[20]}]},"pois":{"type":"GeometryCollection","geometries":[]},"boundaries":{"type":"GeometryCollection","geometries":[{"type":"LineString","properties":{"name:right:ja":"\u30cf\u30ea\u30e4\u30fc\u30ca\u30fc","name:left:hi":"\u0930\u093e\u091c\u0938\u094d\u0925\u093e\u0928","name:right:uk":"\u0425\u0430\u0440'\u044f\u043d\u0430","name:left:ko":"\ub77c\uc790\uc2a4\ud0c4 \uc8fc","name:left:ja":"\u30e9\u30fc\u30b8\u30e3\u30b9\u30bf\u30fc\u30f3","id:right":-1942601,"name:left:uk":"\u0420\u0430\u0434\u0436\u0430\u0441\u0442\u0445\u0430\u043d","name:right:hi":"\u0939\u0930\u093f\u092f\u093e\u0923\u093e","min_zoom":8.0,"name:left:ru":"\u0420\u0430\u0434\u0436\u0430\u0441\u0442\u0445\u0430\u043d","name:left:ta":"\u0b87\u0bb0\u0bbe\u0b9a\u0ba4\u0bcd\u0ba4\u0bbe\u0ba9\u0bcd","name:right:kn":"\u0cb9\u0cb0\u0cbf\u0caf\u0cbe\u0ca3","id":-1942920,"osm_relation":true,"name:right":"Haryana","kind":"region","name":"Rajasthan - Haryana","sort_rank":256,"kind_detail":"4","name:right:ru":"\u0425\u0430\u0440\u044c\u044f\u043d\u0430","name:right:ta":"\u0b85\u0bb0\u0bbf\u0baf\u0bbe\u0ba9\u0bbe","source":"openstreetmap.org","name:left:zh":"\u62c9\u8d3e\u65af\u5766\u90a6","name:left:gu":"\u0ab0\u0abe\u0a9c\u0ab8\u0acd\u0aa5\u0abe\u0aa8","name:left:kn":"\u0cb0\u0cbe\u0c9c\u0cb8\u0ccd\u0ca5\u0cbe\u0ca8","id:left":-1942920,"name:right:zh":"\u54c8\u91cc\u4e9a\u7eb3\u90a6","name:left":"Rajasthan"},"arcs":[0]},{"type":"LineString","properties":{"name:right:ja":"\u30a6\u30c3\u30bf\u30eb\u30fb\u30d7\u30e9\u30c7\u30fc\u30b7\u30e5","name:left:hi":"\u0939\u0930\u093f\u092f\u093e\u0923\u093e","name:right:uk":"\u0423\u0442\u0442\u0430\u0440-\u041f\u0440\u0430\u0434\u0435\u0448","name:left:ja":"\u30cf\u30ea\u30e4\u30fc\u30ca\u30fc","id:right":-1942587,"name:left:uk":"\u0425\u0430\u0440'\u044f\u043d\u0430","name:right:hi":"\u0909\u0924\u094d\u0924\u0930 \u092a\u094d\u0930\u0926\u0947\u0936","min_zoom":8.0,"name:left:ru":"\u0425\u0430\u0440\u044c\u044f\u043d\u0430","name:left:ta":"\u0b85\u0bb0\u0bbf\u0baf\u0bbe\u0ba9\u0bbe","name:right:kn":"\u0c89\u0ca4\u0ccd\u0ca4\u0cb0 \u0caa\u0ccd\u0cb0\u0ca6\u0cc7\u0cb6","id":-1942601,"osm_relation":true,"name:right":"Uttar Pradesh","kind":"region","name":"Haryana - Uttar Pradesh","sort_rank":256,"kind_detail":"4","name:right:ru":"\u0423\u0442\u0442\u0430\u0440-\u041f\u0440\u0430\u0434\u0435\u0448","name:right:ta":"\u0b89\u0ba4\u0bcd\u0ba4\u0bb0\u0baa\u0bcd \u0baa\u0bbf\u0bb0\u0ba4\u0bc7\u0b9a\u0bae\u0bcd","source":"openstreetmap.org","name:left:zh":"\u54c8\u91cc\u4e9a\u7eb3\u90a6","name:right:ar":"\u0623\u062a\u0631 \u0628\u0631\u062f\u064a\u0634","name:left:kn":"\u0cb9\u0cb0\u0cbf\u0caf\u0cbe\u0ca3","id:left":-1942601,"name:right:zh":"\u5317\u65b9\u90a6","name:left":"Haryana"},"arcs":[1]},{"type":"LineString","properties":{"name:right:ja":"\u30a6\u30c3\u30bf\u30eb\u30fb\u30d7\u30e9\u30c7\u30fc\u30b7\u30e5","name:left:hi":"\u0939\u0930\u093f\u092f\u093e\u0923\u093e","name:right:uk":"\u0423\u0442\u0442\u0430\u0440-\u041f\u0440\u0430\u0434\u0435\u0448","name:left:ja":"\u30cf\u30ea\u30e4\u30fc\u30ca\u30fc","id:right":-1942587,"name:left:uk":"\u0425\u0430\u0440'\u044f\u043d\u0430","name:right:hi":"\u0909\u0924\u094d\u0924\u0930 \u092a\u094d\u0930\u0926\u0947\u0936","min_zoom":8.0,"name:left:ru":"\u0425\u0430\u0440\u044c\u044f\u043d\u0430","name:left:ta":"\u0b85\u0bb0\u0bbf\u0baf\u0bbe\u0ba9\u0bbe","name:right:kn":"\u0c89\u0ca4\u0ccd\u0ca4\u0cb0 \u0caa\u0ccd\u0cb0\u0ca6\u0cc7\u0cb6","id":-1942601,"osm_relation":true,"name:right":"Uttar Pradesh","kind":"region","name":"Haryana - Uttar Pradesh","sort_rank":256,"kind_detail":"4","name:right:ru":"\u0423\u0442\u0442\u0430\u0440-\u041f\u0440\u0430\u0434\u0435\u0448","name:right:ta":"\u0b89\u0ba4\u0bcd\u0ba4\u0bb0\u0baa\u0bcd \u0baa\u0bbf\u0bb0\u0ba4\u0bc7\u0b9a\u0bae\u0bcd","source":"openstreetmap.org","name:left:zh":"\u54c8\u91cc\u4e9a\u7eb3\u90a6","name:right:ar":"\u0623\u062a\u0631 \u0628\u0631\u062f\u064a\u0634","name:left:kn":"\u0cb9\u0cb0\u0cbf\u0caf\u0cbe\u0ca3","id:left":-1942601,"name:right:zh":"\u5317\u65b9\u90a6","name:left":"Haryana"},"arcs":[2]},{"type":"LineString","properties":{"kind":"region","name":"Haryana","name:hi":"\u0939\u0930\u093f\u092f\u093e\u0923\u093e","sort_rank":256,"kind_detail":"4","source":"openstreetmap.org","min_zoom":8.0,"name:uk":"\u0425\u0430\u0440'\u044f\u043d\u0430","name:kn":"\u0cb9\u0cb0\u0cbf\u0caf\u0cbe\u0ca3","name:ru":"\u0425\u0430\u0440\u044c\u044f\u043d\u0430","name:ta":"\u0b85\u0bb0\u0bbf\u0baf\u0bbe\u0ba9\u0bbe","name:zh":"\u54c8\u91cc\u4e9a\u7eb3\u90a6","id":-1942601,"osm_relation":true,"name:ja":"\u30cf\u30ea\u30e4\u30fc\u30ca\u30fc"},"arcs":[3]},{"type":"LineString","properties":{"name:ja":"\u30a6\u30c3\u30bf\u30eb\u30fb\u30d7\u30e9\u30c7\u30fc\u30b7\u30e5","name:hi":"\u0909\u0924\u094d\u0924\u0930 \u092a\u094d\u0930\u0926\u0947\u0936","name:kn":"\u0c89\u0ca4\u0ccd\u0ca4\u0cb0 \u0caa\u0ccd\u0cb0\u0ca6\u0cc7\u0cb6","name:ar":"\u0623\u062a\u0631 \u0628\u0631\u062f\u064a\u0634","min_zoom":8.0,"name:uk":"\u0423\u0442\u0442\u0430\u0440-\u041f\u0440\u0430\u0434\u0435\u0448","name:ru":"\u0423\u0442\u0442\u0430\u0440-\u041f\u0440\u0430\u0434\u0435\u0448","name:ta":"\u0b89\u0ba4\u0bcd\u0ba4\u0bb0\u0baa\u0bcd \u0baa\u0bbf\u0bb0\u0ba4\u0bc7\u0b9a\u0bae\u0bcd","id":-1942587,"osm_relation":true,"kind":"region","name":"Uttar Pradesh","sort_rank":256,"kind_detail":"4","source":"openstreetmap.org","name:zh":"\u5317\u65b9\u90a6"},"arcs":[4]}]},"roads":{"type":"GeometryCollection","geometries":[{"type":"MultiLineString","properties":{"kind":"major_road","network":"IN:SH:HR","sort_rank":380,"kind_detail":"primary","source":"openstreetmap.org","min_zoom":8.0,"shield_text":"11","ref":"SH11"},"arcs":[[21],[22],[23]]},{"type":"MultiLineString","properties":{"kind":"major_road","network":"IN:SH:HR","sort_rank":380,"kind_detail":"primary","source":"openstreetmap.org","min_zoom":8.0,"shield_text":"24","ref":"SH24"},"arcs":[[24],[25]]},{"type":"LineString","properties":{"source":"openstreetmap.org","kind":"major_road","landuse_kind":"urban_area","sort_rank":380,"kind_detail":"primary","ref":"SH26","min_zoom":8.0},"arcs":[26]},{"type":"MultiLineString","properties":{"kind":"major_road","network":"AsianHighway","sort_rank":381,"landuse_kind":"urban_area","source":"openstreetmap.org","min_zoom":8.0,"kind_detail":"trunk","shield_text":"1","ref":"NH1"},"arcs":[[27],[28]]},{"type":"LineString","properties":{"kind":"major_road","sort_rank":380,"landuse_kind":"urban_area","source":"openstreetmap.org","min_zoom":8.0,"kind_detail":"primary","ref":"SH15A","id":190044995},"arcs":[29]},{"type":"MultiLineString","properties":{"kind":"major_road","network":"IN:SH:HR","sort_rank":380,"kind_detail":"primary","source":"openstreetmap.org","min_zoom":8.0,"landuse_kind":"urban_area","shield_text":"18","ref":"SH18"},"arcs":[[30],[31],[32],[33]]},{"type":"MultiLineString","properties":{"kind":"major_road","network":"IN:NH","sort_rank":381,"landuse_kind":"urban_area","source":"openstreetmap.org","min_zoom":8.0,"kind_detail":"trunk","shield_text":null,"ref":"NH236"},"arcs":[[34],[35]]},{"type":"MultiLineString","properties":{"kind":"major_road","network":"IN:SH:HR","sort_rank":380,"kind_detail":"primary","source":"openstreetmap.org","min_zoom":8.0,"landuse_kind":"urban_area","shield_text":"16A","ref":"SH16A"},"arcs":[[36],[37]]},{"type":"MultiLineString","properties":{"source":"openstreetmap.org","kind":"major_road","landuse_kind":"urban_area","sort_rank":380,"kind_detail":"primary","min_zoom":8.0,"osm_relation":true},"arcs":[[38],[39],[40],[41],[42],[43],[44],[45],[46],[47],[48],[49],[50],[51],[52],[53],[54],[55],[56],[57],[58],[59],[60],[61],[62],[63],[64],[65],[66],[67],[68],[69],[70],[71],[72],[73],[74],[75],[76],[77],[78],[79],[80],[81],[82],[83],[84],[85],[86],[87],[88],[89],[90],[91],[92],[93],[94],[95],[96],[97],[98],[99]]},{"type":"MultiLineString","properties":{"kind":"major_road","network":"IN:NH","sort_rank":381,"landuse_kind":"urban_area","source":"openstreetmap.org","min_zoom":8.0,"kind_detail":"trunk","shield_text":"352A","ref":"NH352A;SH11"},"arcs":[[100],[101],[102],[103]]},{"type":"MultiLineString","properties":{"bus_network":null,"network":"IN:NH","sort_rank":381,"landuse_kind":"urban_area","kind":"major_road","source":"openstreetmap.org","min_zoom":8.0,"bus_shield_text":"534A","shield_text":null,"kind_detail":"trunk","ref":"NH24"},"arcs":[[104],[105]]},{"type":"LineString","properties":{"source":"openstreetmap.org","kind":"major_road","landuse_kind":"urban_area","sort_rank":380,"kind_detail":"primary","ref":"SH16","min_zoom":8.0},"arcs":[106]},{"type":"LineString","properties":{"kind":"major_road","network":"IN:SH:UP","sort_rank":380,"kind_detail":"primary","source":"openstreetmap.org","min_zoom":8.0,"landuse_kind":"urban_area","shield_text":"57"},"arcs":[107]},{"type":"LineString","properties":{"kind":"major_road","sort_rank":381,"landuse_kind":"urban_area","source":"openstreetmap.org","min_zoom":8.0,"kind_detail":"trunk","ref":"NH24","id":524291417},"arcs":[108]},{"type":"MultiLineString","properties":{"kind":"major_road","network":"IN:NH","sort_rank":381,"kind_detail":"trunk","source":"openstreetmap.org","min_zoom":8.0,"shield_text":null,"ref":"NH352"},"arcs":[[109],[110],[111],[112],[113],[114],[115],[116],[117],[118],[119],[120],[121],[122],[123],[124],[125],[126],[127],[128],[129]]},{"type":"LineString","properties":{"kind":"major_road","network":"IN:SH:HR","sort_rank":380,"kind_detail":"primary","source":"openstreetmap.org","min_zoom":8.0,"shield_text":"16","ref":"SH16"},"arcs":[130]},{"type":"LineString","properties":{"kind":"major_road","network":"IN:NH","sort_rank":381,"kind_detail":"trunk","source":"openstreetmap.org","min_zoom":8.0,"shield_text":"352A","ref":"NH352A;SH10"},"arcs":[131]},{"type":"LineString","properties":{"source":"openstreetmap.org","kind":"major_road","sort_rank":380,"kind_detail":"primary","ref":"SH12","min_zoom":8.0,"id":125783179},"arcs":[132]},{"type":"MultiLineString","properties":{"kind":"major_road","network":"N:NH","sort_rank":381,"kind_detail":"trunk","source":"openstreetmap.org","min_zoom":8.0,"shield_text":"709A","ref":"NH709A"},"arcs":[[133],[134],[135],[136]]},{"type":"MultiLineString","properties":{"kind":"major_road","network":"IN:SH:UP","sort_rank":380,"kind_detail":"primary","source":"openstreetmap.org","min_zoom":8.0,"shield_text":"12","ref":"SH12"},"arcs":[[137],[138]]},{"type":"MultiLineString","properties":{"kind":"major_road","network":"IN:NH","sort_rank":381,"landuse_kind":"urban_area","source":"openstreetmap.org","min_zoom":8.0,"kind_detail":"trunk","shield_text":null},"arcs":[[139],[140]]},{"type":"MultiLineString","properties":{"kind":"major_road","network":"IN:NH","sort_rank":381,"kind_detail":"trunk","source":"openstreetmap.org","min_zoom":8.0,"shield_text":null,"ref":"NH44"},"arcs":[[141],[142]]},{"type":"MultiLineString","properties":{"kind":"major_road","network":"IN:NH","sort_rank":381,"kind_detail":"trunk","source":"openstreetmap.org","min_zoom":8.0,"shield_text":"352A","ref":"NH352A;SH11"},"arcs":[[143],[144]]},{"type":"LineString","properties":{"kind":"highway","network":"IN:NH","sort_rank":383,"kind_detail":"motorway","source":"openstreetmap.org","min_zoom":8.0,"all_networks":["IN:NH"],"landuse_kind":"aerodrome","shield_text":"48","ref":"NH48","id":28616601,"all_shield_texts":["48"]},"arcs":[145]},{"type":"MultiLineString","properties":{"kind":"major_road","network":"IN:NH","sort_rank":381,"landuse_kind":"urban_area","source":"openstreetmap.org","min_zoom":8.0,"kind_detail":"trunk","shield_text":"709EXT","ref":"NH709EXT"},"arcs":[[146],[147],[148],[149],[150],[151],[152],[153],[154],[155]]},{"type":"LineString","properties":{"kind":"major_road","network":"IN:NH:DL","sort_rank":381,"kind_detail":"trunk","source":"openstreetmap.org","min_zoom":8.0,"landuse_kind":"urban_area","shield_text":"24","ref":"NH24","id":202801081},"arcs":[156]},{"type":"MultiLineString","properties":{"kind":"major_road","network":"IN:SH:HR","sort_rank":380,"kind_detail":"primary","source":"openstreetmap.org","min_zoom":8.0,"landuse_kind":"urban_area","shield_text":"12","ref":"SH12"},"arcs":[[157],[158]]},{"type":"MultiLineString","properties":{"sort_rank":381,"source":"openstreetmap.org","min_zoom":8.0,"kind":"major_road","kind_detail":"trunk"},"arcs":[[159],[160],[161],[162]]},{"type":"LineString","properties":{"kind":"major_road","network":"AsianHighway","sort_rank":381,"kind_detail":"trunk","source":"openstreetmap.org","min_zoom":8.0,"landuse_kind":"urban_area","shield_text":"1","ref":"DND Flyway","id":28208872},"arcs":[163]},{"type":"MultiLineString","properties":{"kind":"major_road","network":"IN:NH","sort_rank":381,"landuse_kind":"urban_area","source":"openstreetmap.org","min_zoom":8.0,"kind_detail":"trunk","shield_text":"9","ref":"NH9"},"arcs":[[164],[165],[166],[167],[168],[169],[170],[171]]},{"type":"LineString","properties":{"kind":"major_road","network":"IN:SH:HR","sort_rank":380,"kind_detail":"primary","source":"openstreetmap.org","min_zoom":8.0,"landuse_kind":"urban_area","shield_text":"15A","ref":"SH15A"},"arcs":[172]},{"type":"MultiLineString","properties":{"kind":"major_road","network":"IN:SH:UP","sort_rank":380,"kind_detail":"primary","source":"openstreetmap.org","min_zoom":8.0,"landuse_kind":"urban_area","shield_text":"57","ref":"SH57"},"arcs":[[173],[174],[175],[176]]},{"type":"MultiLineString","properties":{"kind":"major_road","network":"IN:NH","sort_rank":381,"landuse_kind":"urban_area","source":"openstreetmap.org","min_zoom":8.0,"kind_detail":"trunk","shield_text":null,"ref":"NH44"},"arcs":[[177],[178],[179]]},{"type":"MultiLineString","properties":{"kind":"major_road","network":"IN:NH","sort_rank":381,"landuse_kind":"urban_area","source":"openstreetmap.org","min_zoom":8.0,"kind_detail":"trunk","shield_text":"148B","ref":"NH709A;148B"},"arcs":[[180],[181]]},{"type":"MultiLineString","properties":{"kind":"highway","network":"AsianHighway","sort_rank":383,"landuse_kind":"urban_area","source":"openstreetmap.org","min_zoom":8.0,"all_networks":["AsianHighway"],"kind_detail":"motorway","shield_text":"1","all_shield_texts":["1"]},"arcs":[[182],[183]]},{"type":"LineString","properties":{"kind":"major_road","network":"IN:NH","sort_rank":381,"landuse_kind":"urban_area","source":"openstreetmap.org","min_zoom":8.0,"kind_detail":"trunk","shield_text":"148B","ref":"SH17"},"arcs":[184]},{"type":"LineString","properties":{"kind":"major_road","network":"IN:NH","sort_rank":381,"landuse_kind":"urban_area","source":"openstreetmap.org","min_zoom":8.0,"kind_detail":"trunk","shield_text":"352A","ref":"NH352A;SH14"},"arcs":[185]},{"type":"LineString","properties":{"kind":"highway","network":"IN:NH","sort_rank":383,"kind_detail":"motorway","source":"openstreetmap.org","min_zoom":8.0,"all_networks":["IN:NH","IN:NH:HR"],"shield_text":"48","ref":"NH48","id":25878299,"all_shield_texts":["48","48"]},"arcs":[186]},{"type":"MultiLineString","properties":{"source":"openstreetmap.org","kind":"major_road","landuse_kind":"urban_area","sort_rank":380,"kind_detail":"primary","ref":"SH18","min_zoom":8.0},"arcs":[[187],[188],[189],[190]]},{"type":"LineString","properties":{"kind":"major_road","network":"IN:SH:UP","sort_rank":380,"kind_detail":"primary","source":"openstreetmap.org","min_zoom":8.0,"landuse_kind":"urban_area","shield_text":"12","ref":"SH12"},"arcs":[191]},{"type":"MultiLineString","properties":{"kind":"major_road","network":"IN:NH","sort_rank":381,"kind_detail":"trunk","source":"openstreetmap.org","min_zoom":8.0,"shield_text":"334B","ref":"NH334B"},"arcs":[[192],[193],[194],[195],[196],[197],[198],[199],[200],[201],[202],[203],[204],[205],[206],[207],[208],[209],[210],[211],[212],[213]]},{"type":"MultiLineString","properties":{"source":"openstreetmap.org","kind":"major_road","landuse_kind":"urban_area","sort_rank":380,"kind_detail":"primary","min_zoom":8.0},"arcs":[[214],[215],[216],[217],[218],[219],[220],[221],[222],[223],[224],[225],[226],[227],[228],[229],[230],[231],[232],[233],[234],[235],[236],[237],[238],[239],[240],[241],[242],[243],[244],[245],[246],[247],[248],[249],[250],[251],[252],[253],[254],[255],[256],[257],[258],[259],[260],[261],[262],[263],[264],[265],[266],[267],[268],[269],[270],[271],[272],[273],[274],[275],[276],[277],[278],[279],[280],[281],[282],[283],[284],[285],[286],[287],[288],[289],[290],[291],[292],[293],[294],[295],[296],[297],[298],[299],[300],[301],[302],[303],[304],[305],[306],[307],[308],[309],[310],[311],[312],[313],[314],[315],[316],[317],[318],[319],[320],[321],[322],[323],[324],[325],[326],[327],[328],[329],[330],[331],[332],[333],[334],[335],[336],[337],[338],[339],[340],[341],[342],[343],[344],[345]]},{"type":"MultiLineString","properties":{"kind":"major_road","network":"IN:NH","sort_rank":381,"landuse_kind":"urban_area","source":"openstreetmap.org","min_zoom":8.0,"kind_detail":"trunk","shield_text":"334B","ref":"NH334B"},"arcs":[[346],[347],[348],[349],[350],[351],[352],[353],[354],[355],[356],[357],[358],[359],[360],[361],[362],[363],[364],[365],[366],[367],[368],[369],[370],[371],[372],[373]]},{"type":"MultiLineString","properties":{"kind":"major_road","network":"IN:NH","sort_rank":381,"kind_detail":"trunk","source":"openstreetmap.org","min_zoom":8.0,"landuse_kind":"residential","shield_text":null,"ref":"NH24"},"arcs":[[374],[375]]},{"type":"LineString","properties":{"kind":"major_road","service":"driveway","sort_rank":381,"landuse_kind":"urban_area","source":"openstreetmap.org","min_zoom":8.0,"kind_detail":"trunk","id":404854001},"arcs":[376]},{"type":"MultiLineString","properties":{"kind":"major_road","network":"IN:NH","sort_rank":381,"kind_detail":"trunk","source":"openstreetmap.org","min_zoom":8.0,"shield_text":"248A","ref":"NH248A"},"arcs":[[377],[378],[379],[380]]},{"type":"MultiLineString","properties":{"kind":"major_road","network":"IN:NH","sort_rank":381,"landuse_kind":"urban_area","source":"openstreetmap.org","min_zoom":8.0,"kind_detail":"trunk","shield_text":"148B","ref":"NH148B;SH17"},"arcs":[[381],[382],[383],[384],[385],[386],[387],[388],[389],[390],[391],[392],[393]]},{"type":"MultiLineString","properties":{"kind":"major_road","network":"AsianHighway","sort_rank":381,"landuse_kind":"urban_area","source":"openstreetmap.org","min_zoom":8.0,"kind_detail":"trunk","shield_text":"1"},"arcs":[[394],[395],[396],[397],[398],[399]]},{"type":"LineString","properties":{"kind":"major_road","network":"IN:SH:HR","sort_rank":380,"kind_detail":"primary","source":"openstreetmap.org","min_zoom":8.0,"shield_text":"15A","ref":"SH15A"},"arcs":[400]},{"type":"LineString","properties":{"kind":"major_road","sort_rank":380,"landuse_kind":"urban_area","source":"openstreetmap.org","min_zoom":8.0,"kind_detail":"primary","ref":"SH16A","id":169285297},"arcs":[401]},{"type":"MultiLineString","properties":{"source":"openstreetmap.org","kind":"major_road","sort_rank":380,"kind_detail":"primary","ref":"SH15A","min_zoom":8.0},"arcs":[[402],[403],[404]]},{"type":"MultiLineString","properties":{"kind":"major_road","network":"IN:NH","sort_rank":381,"kind_detail":"trunk","source":"openstreetmap.org","min_zoom":8.0,"shield_text":null,"ref":"NH709"},"arcs":[[405],[406],[407],[408],[409],[410],[411],[412],[413],[414],[415],[416]]},{"type":"MultiLineString","properties":{"kind":"major_road","network":"AsianHighway","sort_rank":381,"landuse_kind":"urban_area","source":"openstreetmap.org","min_zoom":8.0,"kind_detail":"trunk","shield_text":"1","ref":"NH44"},"arcs":[[417],[418],[419],[420],[421],[422],[423]]},{"type":"LineString","properties":{"kind":"major_road","network":"IN:SH:HR","sort_rank":380,"kind_detail":"primary","source":"openstreetmap.org","min_zoom":8.0,"landuse_kind":"urban_area","shield_text":"20","ref":"SH20"},"arcs":[424]},{"type":"MultiLineString","properties":{"kind":"major_road","network":"IN:SH:HR","sort_rank":380,"kind_detail":"primary","source":"openstreetmap.org","min_zoom":8.0,"shield_text":"18","ref":"SH18"},"arcs":[[425],[426]]},{"type":"LineString","properties":{"kind":"major_road","network":"IN:SH:HR","sort_rank":380,"kind_detail":"primary","source":"openstreetmap.org","min_zoom":8.0,"shield_text":"10","ref":"SH12"},"arcs":[427]},{"type":"LineString","properties":{"kind":"highway","network":"IN:NH","sort_rank":383,"landuse_kind":"urban_area","source":"openstreetmap.org","min_zoom":8.0,"all_networks":["IN:NH","IN:NH:HR"],"kind_detail":"motorway","shield_text":"48","ref":"NH48","all_shield_texts":["48","48"]},"arcs":[428]},{"type":"LineString","properties":{"kind":"major_road","network":"IN:SH:HR","sort_rank":380,"kind_detail":"primary","source":"openstreetmap.org","min_zoom":8.0,"landuse_kind":"urban_area","shield_text":"16","ref":"SH16"},"arcs":[429]},{"type":"MultiLineString","properties":{"kind":"major_road","network":"IN:NH","sort_rank":381,"landuse_kind":"urban_area","source":"openstreetmap.org","min_zoom":8.0,"kind_detail":"trunk","shield_text":null,"ref":"NH10"},"arcs":[[430],[431]]},{"type":"MultiLineString","properties":{"kind":"major_road","network":"AsianHighway","sort_rank":380,"kind_detail":"primary","source":"openstreetmap.org","min_zoom":8.0,"landuse_kind":"urban_area","shield_text":"1"},"arcs":[[432],[433],[434],[435],[436],[437],[438],[439],[440],[441],[442],[443],[444]]},{"type":"MultiLineString","properties":{"kind":"major_road","network":"IN:NH","sort_rank":381,"landuse_kind":"urban_area","source":"openstreetmap.org","min_zoom":8.0,"kind_detail":"trunk","shield_text":null,"ref":"NH9"},"arcs":[[445],[446],[447],[448],[449],[450]]},{"type":"MultiLineString","properties":{"kind":"highway","network":"IN:NH","sort_rank":383,"landuse_kind":"urban_area","source":"openstreetmap.org","min_zoom":8.0,"all_networks":["IN:NH"],"kind_detail":"motorway","shield_text":"48","ref":"NH48","all_shield_texts":["48"]},"arcs":[[451],[452]]},{"type":"MultiLineString","properties":{"sort_rank":380,"kind_detail":"primary","min_zoom":8.0,"kind":"major_road","source":"openstreetmap.org"},"arcs":[[453],[454]]},{"type":"LineString","properties":{"kind":"major_road","network":"IN:SH:HR","sort_rank":380,"kind_detail":"primary","source":"openstreetmap.org","min_zoom":8.0,"shield_text":"11A","ref":"SH11A"},"arcs":[455]},{"type":"MultiLineString","properties":{"kind":"major_road","network":"IN:NH","sort_rank":381,"landuse_kind":"urban_area","source":"openstreetmap.org","min_zoom":8.0,"kind_detail":"trunk","shield_text":"248A","ref":"NH248A"},"arcs":[[456],[457]]},{"type":"MultiLineString","properties":{"kind":"major_road","network":"IN:SH:HR","sort_rank":380,"kind_detail":"primary","source":"openstreetmap.org","min_zoom":8.0,"shield_text":"16A","ref":"SH16A"},"arcs":[[458],[459]]},{"type":"LineString","properties":{"kind":"major_road","network":"IN:NH","sort_rank":381,"kind_detail":"trunk","source":"openstreetmap.org","min_zoom":8.0,"shield_text":"9","ref":"NH9"},"arcs":[460]},{"type":"LineString","properties":{"kind":"major_road","network":"IN:NH","sort_rank":381,"kind_detail":"trunk","source":"openstreetmap.org","min_zoom":8.0,"landuse_kind":"urban_area","shield_text":"148B","ref":"NH709EXT;NH148B","id":162388569},"arcs":[461]},{"type":"MultiLineString","properties":{"kind":"major_road","network":"IN:NH","sort_rank":381,"landuse_kind":"urban_area","source":"openstreetmap.org","min_zoom":8.0,"kind_detail":"trunk","shield_text":"352A","ref":"NH352A;SH10"},"arcs":[[462],[463],[464]]},{"type":"MultiLineString","properties":{"source":"openstreetmap.org","kind":"major_road","landuse_kind":"residential","sort_rank":380,"kind_detail":"primary","min_zoom":8.0,"osm_relation":true},"arcs":[[465],[466],[467],[468],[469],[470],[471],[472],[473],[474]]},{"type":"LineString","properties":{"kind":"major_road","network":"IN:SH:UP","sort_rank":380,"kind_detail":"primary","source":"openstreetmap.org","min_zoom":8.0,"shield_text":"22W","ref":"SH57","id":218240502},"arcs":[475]},{"type":"LineString","properties":{"kind":"major_road","network":"IN:SH:HR","sort_rank":380,"kind_detail":"primary","source":"openstreetmap.org","min_zoom":8.0,"landuse_kind":"urban_area","shield_text":"13"},"arcs":[476]},{"type":"MultiLineString","properties":{"kind":"major_road","network":"IN:SH:HR","sort_rank":380,"kind_detail":"primary","source":"openstreetmap.org","min_zoom":8.0,"shield_text":"14","ref":"SH14"},"arcs":[[477],[478]]},{"type":"LineString","properties":{"source":"openstreetmap.org","kind":"major_road","sort_rank":381,"kind_detail":"trunk","ref":"NH9","min_zoom":8.0},"arcs":[479]},{"type":"MultiLineString","properties":{"source":"openstreetmap.org","kind":"major_road","kind_detail":"trunk","sort_rank":381,"landuse_kind":"urban_area","min_zoom":8.0},"arcs":[[480],[481],[482],[483],[484],[485],[486],[487],[488],[489],[490],[491],[492],[493],[494],[495]]},{"type":"LineString","properties":{"kind":"major_road","sort_rank":380,"landuse_kind":"urban_area","source":"openstreetmap.org","min_zoom":8.0,"kind_detail":"primary","ref":"SH12","id":125773633},"arcs":[496]},{"type":"MultiLineString","properties":{"kind":"highway","network":"IN:NH","sort_rank":383,"kind_detail":"motorway","source":"openstreetmap.org","min_zoom":8.0,"all_networks":["IN:NH"],"shield_text":null,"all_shield_texts":[null]},"arcs":[[497],[498]]},{"type":"LineString","properties":{"bus_network":null,"network":"IN:NH","sort_rank":381,"kind_detail":"trunk","kind":"major_road","source":"openstreetmap.org","min_zoom":8.0,"bus_shield_text":"HUDA","shield_text":"248A","ref":"NH248A"},"arcs":[499]},{"type":"MultiLineString","properties":{"source":"openstreetmap.org","kind":"major_road","sort_rank":380,"kind_detail":"primary","ref":"SH22","min_zoom":8.0},"arcs":[[500],[501],[502]]},{"type":"MultiLineString","properties":{"source":"openstreetmap.org","kind":"major_road","landuse_kind":"urban_area","sort_rank":380,"kind_detail":"primary","ref":"ORR","min_zoom":8.0},"arcs":[[503],[504]]},{"type":"MultiLineString","properties":{"kind":"major_road","network":"IN:SH:HR","sort_rank":380,"kind_detail":"primary","source":"openstreetmap.org","min_zoom":8.0,"shield_text":"12","ref":"SH12"},"arcs":[[505],[506],[507]]},{"type":"MultiLineString","properties":{"kind":"major_road","network":"IN:NH","sort_rank":381,"landuse_kind":"urban_area","source":"openstreetmap.org","min_zoom":8.0,"kind_detail":"trunk","shield_text":null,"ref":"NH24"},"arcs":[[508],[509],[510],[511],[512],[513],[514],[515],[516],[517]]},{"type":"LineString","properties":{"kind":"major_road","network":"IN:NH","sort_rank":381,"landuse_kind":"urban_area","source":"openstreetmap.org","min_zoom":8.0,"kind_detail":"trunk","shield_text":"148B","ref":"NH148B;SH12"},"arcs":[518]},{"type":"LineString","properties":{"kind":"highway","network":"IN:NH","sort_rank":383,"kind_detail":"motorway","source":"openstreetmap.org","min_zoom":8.0,"all_networks":["IN:NH","IN:NH:DL"],"landuse_kind":"aerodrome","shield_text":"48","ref":"NH48","id":28616600,"all_shield_texts":["48","48"]},"arcs":[519]},{"type":"MultiLineString","properties":{"kind":"major_road","network":"IN:NH","sort_rank":381,"kind_detail":"trunk","source":"openstreetmap.org","min_zoom":8.0,"shield_text":null,"ref":"NH48"},"arcs":[[520],[521],[522],[523],[524],[525]]},{"type":"MultiLineString","properties":{"kind":"highway","network":"IN:NH","sort_rank":383,"landuse_kind":"urban_area","source":"openstreetmap.org","min_zoom":8.0,"all_networks":["IN:NH","IN:NH:DL"],"kind_detail":"motorway","shield_text":"48","ref":"NH48","all_shield_texts":["48","48"]},"arcs":[[526],[527]]},{"type":"LineString","properties":{"kind":"major_road","network":"IN:NH","sort_rank":381,"kind_detail":"trunk","source":"openstreetmap.org","min_zoom":8.0,"shield_text":"148B","ref":"NH334B;NH148B","id":161458802},"arcs":[528]},{"type":"MultiLineString","properties":{"kind":"major_road","network":"IN:NH","sort_rank":381,"landuse_kind":"urban_area","source":"openstreetmap.org","min_zoom":8.0,"kind_detail":"trunk","shield_text":"48","ref":"NH48"},"arcs":[[529],[530]]},{"type":"LineString","properties":{"kind":"major_road","network":"IN:NH","sort_rank":381,"kind_detail":"trunk","source":"openstreetmap.org","min_zoom":8.0,"shield_text":null,"ref":"NH52"},"arcs":[531]},{"type":"MultiLineString","properties":{"kind":"major_road","network":"N:NH","sort_rank":381,"landuse_kind":"urban_area","source":"openstreetmap.org","min_zoom":8.0,"kind_detail":"trunk","shield_text":"709A","ref":"NH709A"},"arcs":[[532],[533],[534],[535],[536],[537],[538],[539],[540],[541],[542]]},{"type":"MultiLineString","properties":{"kind":"major_road","network":"IN:NH","sort_rank":381,"kind_detail":"trunk","source":"openstreetmap.org","min_zoom":8.0,"shield_text":"709EXT","ref":"NH709EXT"},"arcs":[[543],[544],[545],[546]]},{"type":"MultiLineString","properties":{"source":"openstreetmap.org","kind":"major_road","kind_detail":"trunk","sort_rank":381,"landuse_kind":"urban_area","ref":"NH236","min_zoom":8.0},"arcs":[[547],[548]]},{"type":"LineString","properties":{"kind":"major_road","network":"IN:NH","sort_rank":381,"kind_detail":"trunk","source":"openstreetmap.org","min_zoom":8.0,"landuse_kind":"urban_area","shield_text":"148B","ref":"NH334B;NH148B","id":161458802},"arcs":[549]},{"type":"MultiLineString","properties":{"kind":"major_road","network":"AsianHighway","sort_rank":380,"kind_detail":"primary","source":"openstreetmap.org","min_zoom":8.0,"landuse_kind":"urban_area","shield_text":"1","ref":"ORR"},"arcs":[[550],[551],[552],[553]]},{"type":"LineString","properties":{"kind":"major_road","network":"IN:SH:HR","sort_rank":380,"kind_detail":"primary","source":"openstreetmap.org","min_zoom":8.0,"landuse_kind":"urban_area","shield_text":"22","ref":"SH22"},"arcs":[554]},{"type":"MultiLineString","properties":{"kind":"major_road","network":"IN:NH","sort_rank":381,"kind_detail":"trunk","source":"openstreetmap.org","min_zoom":8.0,"shield_text":"148B","ref":"NH148B"},"arcs":[[555],[556],[557]]},{"type":"MultiLineString","properties":{"kind":"major_road","network":"AsianHighway","sort_rank":380,"kind_detail":"primary","source":"openstreetmap.org","min_zoom":8.0,"landuse_kind":"residential","shield_text":"1"},"arcs":[[558],[559],[560],[561],[562],[563]]},{"type":"MultiLineString","properties":{"source":"openstreetmap.org","kind":"major_road","sort_rank":380,"kind_detail":"primary","ref":"SH57","min_zoom":8.0},"arcs":[[564],[565]]},{"type":"MultiLineString","properties":{"kind":"major_road","network":"IN:SH:UP","sort_rank":380,"kind_detail":"primary","source":"openstreetmap.org","min_zoom":8.0,"shield_text":"57","ref":"SH57"},"arcs":[[566],[567],[568],[569]]},{"type":"MultiLineString","properties":{"kind":"major_road","network":"IN:NH","sort_rank":381,"landuse_kind":"urban_area","source":"openstreetmap.org","min_zoom":8.0,"kind_detail":"trunk","shield_text":"148B","ref":"NH334B"},"arcs":[[570],[571]]},{"type":"LineString","properties":{"kind":"major_road","network":"IN:SH:HR","sort_rank":380,"kind_detail":"primary","source":"openstreetmap.org","min_zoom":8.0,"shield_text":"11","ref":"SH14"},"arcs":[572]},{"type":"LineString","properties":{"kind":"major_road","sort_rank":380,"landuse_kind":"urban_area","source":"openstreetmap.org","min_zoom":8.0,"kind_detail":"primary","ref":"SH11","id":169285288},"arcs":[573]},{"type":"MultiLineString","properties":{"source":"openstreetmap.org","kind":"major_road","landuse_kind":"urban_area","sort_rank":380,"kind_detail":"primary","ref":"SH20","min_zoom":8.0},"arcs":[[574],[575],[576],[577],[578],[579],[580],[581],[582],[583],[584],[585]]},{"type":"MultiLineString","properties":{"kind":"major_road","network":"IN:NH","sort_rank":381,"kind_detail":"trunk","source":"openstreetmap.org","min_zoom":8.0,"shield_text":"148B","ref":"NH148B;SH17"},"arcs":[[586],[587],[588],[589],[590]]},{"type":"MultiLineString","properties":{"source":"openstreetmap.org","kind":"major_road","sort_rank":380,"kind_detail":"primary","ref":"SH16A","min_zoom":8.0},"arcs":[[591],[592],[593]]},{"type":"LineString","properties":{"kind":"highway","network":"IN:NH","sort_rank":383,"kind_detail":"motorway","source":"openstreetmap.org","min_zoom":8.0,"all_networks":["IN:NH"],"shield_text":"48","ref":"NH48","id":27422278,"all_shield_texts":["48"]},"arcs":[594]},{"type":"MultiLineString","properties":{"kind":"major_road","network":"IN:SH:HR","sort_rank":380,"kind_detail":"primary","source":"openstreetmap.org","min_zoom":8.0,"landuse_kind":"urban_area","shield_text":"14","ref":"SH14"},"arcs":[[595],[596]]},{"type":"LineString","properties":{"bus_network":null,"network":"IN:NH","sort_rank":381,"landuse_kind":"urban_area","kind":"major_road","source":"openstreetmap.org","min_zoom":8.0,"bus_shield_text":"HUDA","shield_text":"248A","kind_detail":"trunk","ref":"NH248A"},"arcs":[597]},{"type":"LineString","properties":{"kind":"major_road","network":"IN:SH:HR","sort_rank":380,"kind_detail":"primary","source":"openstreetmap.org","min_zoom":8.0,"shield_text":"26","ref":"SH26"},"arcs":[598]},{"type":"MultiLineString","properties":{"kind":"major_road","network":"IN:NH","sort_rank":381,"landuse_kind":"urban_area","source":"openstreetmap.org","min_zoom":8.0,"kind_detail":"trunk","shield_text":null,"ref":"NH352"},"arcs":[[599],[600],[601],[602],[603],[604],[605],[606],[607],[608],[609],[610],[611],[612],[613],[614],[615],[616],[617],[618],[619],[620],[621],[622]]},{"type":"LineString","properties":{"bus_network":null,"sort_rank":380,"kind_detail":"primary","kind":"major_road","source":"openstreetmap.org","min_zoom":8.0,"bus_shield_text":"620","landuse_kind":"urban_area"},"arcs":[623]},{"type":"MultiLineString","properties":{"kind":"major_road","network":"IN:NH","sort_rank":381,"kind_detail":"trunk","source":"openstreetmap.org","min_zoom":8.0,"shield_text":null,"ref":"NH9"},"arcs":[[624],[625],[626],[627],[628],[629],[630]]},{"type":"MultiLineString","properties":{"kind":"major_road","network":"IN:NH","sort_rank":381,"landuse_kind":"urban_area","source":"openstreetmap.org","min_zoom":8.0,"kind_detail":"trunk","shield_text":null,"ref":"NH709"},"arcs":[[631],[632],[633],[634]]},{"type":"LineString","properties":{"kind":"major_road","sort_rank":380,"landuse_kind":"urban_area","source":"openstreetmap.org","min_zoom":8.0,"kind_detail":"primary","ref":"SH57","id":175803864},"arcs":[635]},{"type":"LineString","properties":{"kind":"major_road","network":"IN:NH:DL","sort_rank":381,"kind_detail":"trunk","source":"openstreetmap.org","min_zoom":8.0,"landuse_kind":"urban_area","shield_text":"D","id":395885010},"arcs":[636]},{"type":"MultiLineString","properties":{"source":"openstreetmap.org","kind":"major_road","sort_rank":380,"kind_detail":"primary","ref":"SH18","min_zoom":8.0},"arcs":[[637],[638]]},{"type":"MultiLineString","properties":{"kind":"major_road","network":"AsianHighway","sort_rank":381,"kind_detail":"trunk","source":"openstreetmap.org","min_zoom":8.0,"shield_text":"1","ref":"NH44"},"arcs":[[639],[640],[641],[642],[643],[644]]},{"type":"MultiLineString","properties":{"kind":"major_road","network":"IN:SH:HR","sort_rank":380,"kind_detail":"primary","source":"openstreetmap.org","min_zoom":8.0,"shield_text":"22","ref":"SH22"},"arcs":[[645],[646]]},{"type":"LineString","properties":{"bus_network":null,"network":"AsianHighway","sort_rank":380,"kind_detail":"primary","kind":"major_road","source":"openstreetmap.org","min_zoom":8.0,"bus_shield_text":"534A","shield_text":"1","landuse_kind":"urban_area"},"arcs":[647]},{"type":"MultiLineString","properties":{"bus_network":null,"sort_rank":380,"kind_detail":"primary","kind":"major_road","source":"openstreetmap.org","min_zoom":8.0,"bus_shield_text":"534A","landuse_kind":"urban_area"},"arcs":[[648],[649]]},{"type":"LineString","properties":{"kind":"major_road","network":"IN:SH:HR","sort_rank":380,"kind_detail":"primary","source":"openstreetmap.org","min_zoom":8.0,"shield_text":"10","ref":"SH10"},"arcs":[650]},{"type":"LineString","properties":{"kind":"major_road","network":"IN:NH","sort_rank":381,"kind_detail":"trunk","source":"openstreetmap.org","min_zoom":8.0,"landuse_kind":"urban_area","shield_text":"148B","ref":"NH709A;NH148B","id":162388565},"arcs":[651]},{"type":"MultiLineString","properties":{"bus_network":null,"sort_rank":380,"kind_detail":"primary","kind":"major_road","source":"openstreetmap.org","min_zoom":8.0,"bus_shield_text":"764","landuse_kind":"urban_area"},"arcs":[[652],[653],[654],[655],[656],[657],[658],[659],[660]]},{"type":"LineString","properties":{"kind":"major_road","network":"IN:SH:HR","sort_rank":380,"kind_detail":"primary","source":"openstreetmap.org","min_zoom":8.0,"landuse_kind":"urban_area","shield_text":"26","ref":"SH26"},"arcs":[661]}]},"earth":{"type":"GeometryCollection","geometries":[{"type":"Polygon","properties":{"sort_rank":10,"source":"naturalearthdata.com","min_zoom":0.0,"kind":"earth","area":98022885885},"arcs":[[662]]}]},"landuse":{"type":"GeometryCollection","geometries":[{"type":"MultiPolygon","properties":{"source":"naturalearthdata.com","kind":"urban_area","name":"","area":6947217232,"sort_rank":11,"min_zoom":4.0},"arcs":[[[663]],[[664]],[[665]],[[666]],[[667]],[[668]],[[669]],[[670]],[[671]],[[672]],[[673]],[[674]]]},{"type":"MultiPolygon","properties":{"source":"openstreetmap.org","kind":"residential","tier":2,"area":200416512,"sort_rank":20,"min_zoom":8.0},"arcs":[[[675]]]},{"type":"Polygon","properties":{"kind":"aerodrome","area":19236100,"sort_rank":60,"operator":"Delhi International Airport Limited","source":"openstreetmap.org","min_zoom":8.0,"tier":3,"id":181594936},"arcs":[[676]]},{"type":"Polygon","properties":{"kind":"aerodrome","area":13586700,"sort_rank":60,"operator":"Indian Air Force","source":"openstreetmap.org","min_zoom":8.0,"tier":3,"id":265984430},"arcs":[[677]]}]}},"type":"Topology","transform":{"translate":[75.9375,28.304380683],"scale":[0.0003433228,0.0003005002]},"arcs":[[[127,0],[-39,66],[-37,-19],[-12,58],[-39,7]],[[3704,1840],[66,132],[-95,202],[37,138]],[[3712,2312],[6,23],[-149,141],[-16,97],[-103,93],[48,97],[-35,65],[39,92],[-5,64],[-38,79],[51,43],[0,46],[-38,71],[72,147],[-1,61],[-21,32],[-66,0],[-19,40],[-2,66],[87,43],[-61,70],[-3,38],[43,65],[-73,67],[16,117],[-65,49],[-35,78]],[[4096,698],[-84,-100],[-70,44],[-138,-60],[-35,-76],[42,-22],[-11,-72],[-60,-49],[-126,-10],[-12,-19],[-37,82],[-98,45],[-45,101],[21,73],[-75,62],[-63,21],[-15,-27],[-28,3],[-142,91],[-21,-31],[45,-33],[-20,-21],[-39,17],[-17,-21],[-36,26],[-75,-53],[-133,28],[-63,-41],[5,63],[-66,77],[-54,21],[-19,109],[73,10],[72,154],[51,-28],[36,27],[47,-44],[21,29],[-52,75],[37,68],[50,-2],[40,99],[-58,44],[34,58],[-3,43],[-42,37],[33,46],[-22,40],[17,35],[-34,27],[26,66],[30,-11],[12,42],[42,-20],[41,60],[134,-26],[53,121],[47,-3],[23,54],[115,-85],[53,13],[15,-79],[37,-4],[50,72],[99,-4]],[[3704,1840],[42,-116],[-14,-39],[-49,9],[15,-89],[61,-7],[-20,-18],[34,-14],[15,-53],[60,-21],[-8,-47],[58,-10],[44,-43],[1,-54],[116,22],[-21,-48],[27,-57],[-23,-12],[-27,-122],[71,-59],[5,-52],[-83,-38],[-60,-68],[16,-63],[132,-127]],[[3631,1420],[-3,-81],[-76,-23],[-96,-152],[37,-135],[78,-51],[56,-92],[52,17],[139,-33],[36,28],[-3,80],[143,37],[-20,46],[29,13],[15,62],[-70,27],[-65,66],[59,122],[-5,48]],[[3739,1125],[92,-97],[64,18],[200,175],[1,0]],[[3393,1398],[107,-86],[53,-7],[41,-79],[91,-24],[411,35]],[[3294,499],[15,80],[144,2],[234,143],[27,215]],[[3714,939],[-1,-6]],[[3714,939],[0,115],[51,118],[-26,117],[-125,54],[-60,80],[-47,-3],[-26,67]],[[3755,1219],[29,-37],[13,-105],[-62,-6],[-22,-34],[79,-109],[-14,-73],[94,-69],[38,8],[59,-122],[45,-565]],[[3875,1061],[104,82],[112,11]],[[3259,814],[43,34],[159,-31],[23,67],[92,79],[26,59],[118,63],[25,40]],[[3258,815],[31,75],[-121,104],[-3,50],[105,16],[244,119],[89,-55],[70,9],[136,-78],[85,10],[67,-115],[34,-4],[83,-89],[18,15]],[[3401,385],[1,35],[0,3],[-1,3],[-32,125],[7,96],[-11,9],[-18,-23],[25,-30],[-4,-22],[0,-28],[1,-4],[32,-164]],[[3054,1026],[97,26],[9,-20]],[[2842,1319],[58,-33],[653,-65]],[[3553,1221],[38,8]],[[3553,1221],[20,-16],[-42,-47]],[[3321,1081],[23,-39],[-9,-92],[112,-51],[11,-46],[138,-6],[86,-49],[95,-11],[161,80],[43,-90],[89,73],[-12,23]],[[1937,4035],[-92,61]],[[2118,3704],[-173,332]],[[2138,2841],[19,31],[-43,139],[9,209],[-24,67],[44,41],[-12,66],[102,265]],[[309,0],[-5,11],[-89,7],[-96,109],[-53,130],[-66,35]],[[835,0],[254,109],[19,-35],[138,-74]],[[3141,508],[-54,-29]],[[3547,1436],[-41,154]],[[3507,1590],[37,-145]],[[3141,508],[31,8]],[[1907,1973],[-32,0]],[[1908,1973],[194,9]],[[1907,1973]],[[1907,1973],[0,1],[1,0],[-1,-1]],[[3294,576],[79,27],[81,-21],[144,83]],[[3599,666],[47,77]],[[758,1782],[-155,-138]],[[2174,2747],[55,20]],[[3535,1423],[42,19],[102,-32],[71,-32],[7,-31]],[[3756,1347],[-6,30],[-69,32],[-105,33],[-40,-19]],[[3607,1349],[1,0]],[[3617,1342],[-3,2]],[[3614,1344],[-2,2]],[[3612,1346],[-4,3]],[[3608,1349],[0,1]],[[3608,1350],[-1,1]],[[3613,1343]],[[3613,1343],[-5,6]],[[3608,1349],[0,1]],[[3608,1350],[4,-4]],[[3612,1346],[2,-2]],[[3608,1350]],[[3608,1350],[-53,-34]],[[3555,1316],[-2,-1],[-28,-45]],[[3525,1270],[-68,-107],[0,-1]],[[3457,1162],[18,-65]],[[3475,1097],[19,-70],[2,-1]],[[3496,1026],[74,-46],[1,-2]],[[3571,978]],[[3571,978],[59,-92]],[[3630,886],[1,-1],[131,-10]],[[3762,875],[49,-4]],[[3811,871],[15,-1],[43,52]],[[3841,974],[10,-37],[18,-13]],[[3869,924],[3,-3]],[[3872,921],[10,-8],[-56,-44],[-15,2]],[[3811,871],[-49,4]],[[3762,875],[-132,11]],[[3630,886],[-4,0],[-55,92]],[[3571,978]],[[3571,978],[-73,42],[-2,6]],[[3496,1026],[-21,71]],[[3475,1097],[-19,63],[1,2]],[[3457,1162],[68,108]],[[3525,1270],[28,45],[2,1]],[[3555,1316],[58,27]],[[3613,1343],[1,1]],[[3614,1344]],[[3614,1344],[2,-1]],[[3616,1343],[1,-1]],[[3616,1343],[120,-49],[0,-3]],[[3736,1291],[8,-37]],[[3763,1247],[-27,44]],[[3736,1291],[-1,3],[-118,48]],[[3743,1254],[41,-60]],[[3828,1148],[-65,101]],[[3805,1181],[-13,8]],[[3792,1189],[-3,2]],[[3791,1190],[1,-1]],[[3792,1189],[33,-41]],[[3835,880],[-24,-9]],[[3811,871]],[[3811,871],[-9,-4]],[[3840,1129],[1,-13]],[[3841,1114],[-1,15]],[[3869,922],[0,2]],[[3869,924],[-23,60]],[[3877,919],[-5,2]],[[3872,921],[-3,1]],[[3820,868],[1,0],[0,-1],[-1,0],[0,1]],[[2213,2779],[-43,39]],[[2223,2772],[-10,7]],[[2223,2772],[41,-19]],[[2979,2355],[224,-78]],[[3880,997],[-36,-18]],[[3927,1037],[-20,-25]],[[3091,3605],[-81,-7]],[[3945,1272],[-3,80]],[[4096,1091],[-14,0]],[[1042,3458],[-23,73],[-209,226],[-157,339]],[[1030,3350],[-6,-25],[37,11]],[[1351,2773],[-238,538]],[[1374,2719],[-23,54]],[[1572,2481],[-68,95],[-85,49],[-45,94]],[[1577,2473],[-5,8]],[[1572,2481],[5,-8]],[[1581,2466],[-4,6]],[[1578,2472],[3,-6]],[[1581,2466],[189,-318]],[[1772,2142],[-2,6]],[[1770,2148],[4,-6]],[[1796,2095],[-23,45]],[[1774,2141],[22,-46]],[[1929,1789],[-25,82]],[[1967,0],[0,21],[46,174],[73,165],[14,314],[36,176],[-11,30],[25,50],[31,49],[-58,87],[-67,22],[-21,24],[-20,320],[-86,357]],[[1929,1789],[87,-357],[19,-320],[88,-46],[58,-87],[-31,-50],[-36,-244],[-14,-11],[-14,-314],[-119,-339],[0,-21]],[[1578,2473],[-1,-1]],[[1577,2472],[0,1]],[[1577,2473],[1,0]],[[1774,2140],[-2,0],[0,2],[2,0],[0,-2]],[[3139,3590],[48,-14],[290,40],[70,-27]],[[1247,3325],[267,-139],[278,-104],[114,-105],[104,-18],[128,-118]],[[617,3073],[-53,-36]],[[506,1800],[94,102],[79,213],[25,291],[164,598],[191,204],[31,114]],[[1092,3455],[160,295],[37,26],[656,260],[57,60]],[[3657,4096],[240,-214]],[[4096,3698],[-85,80]],[[3547,3589],[29,-14],[113,33],[233,154]],[[4092,3850],[4,2]],[[1903,2019],[-4,-3]],[[3598,665],[1,1],[0,-1],[-1,0]],[[3975,0],[11,29]],[[3986,29],[-11,-29]],[[2170,2818],[-32,23]],[[2264,2753],[187,-121],[195,-170],[109,-11],[224,-96]],[[3479,844],[0,3]],[[540,1600],[-7,-7]],[[567,1602],[-18,3]],[[608,1636],[-4,-34],[-37,0]],[[567,1602],[37,1],[4,33]],[[663,1638],[-55,-2]],[[609,1637],[54,1]],[[663,1638],[81,7]],[[1743,1918],[96,53],[16,4]],[[1855,1975],[-112,-58]],[[608,1636],[-1,1],[1,1],[1,-1],[-1,-1]],[[3890,1002],[8,5]],[[90,2636],[-8,-26]],[[87,2644],[121,107]],[[1532,2042],[58,47],[182,52]],[[1773,2140],[-44,-23],[-59,-21],[-50,-6],[-30,-1],[-56,-47]],[[2143,1799],[18,82],[-58,103]],[[2103,1984],[36,-45],[18,-44],[4,-13],[3,-14],[2,-37],[-15,-27],[-3,-4],[-13,-4]],[[4000,886],[-16,9]],[[3502,1229],[-10,1]],[[3492,1231],[10,-1]],[[3759,1214],[31,11],[6,0]],[[3796,1225],[76,-5],[14,2],[18,4]],[[3904,1226],[2,0],[10,1],[11,3],[60,6],[55,2],[54,1]],[[4096,1235],[-190,-9],[-2,0]],[[3904,1226],[-108,-1]],[[3796,1225],[-6,0],[-15,-6],[-15,-5]],[[2938,560],[43,3],[58,-40],[133,-7]],[[3885,2795],[-42,-151]],[[3942,1352],[-46,288]],[[3985,3805],[-25,-43]],[[4051,3830],[45,73]],[[3544,1445],[4,-11]],[[3986,29],[30,114],[-33,442],[-17,97],[-119,210]],[[3847,893],[77,-120],[3,-7],[39,-84],[15,-64],[5,-59],[30,-416],[-7,-62],[-2,-5],[-21,-47]],[[575,1652],[-71,147]],[[576,1651],[-1,0],[0,1],[1,0],[0,-1]],[[4096,794],[-65,53]],[[4031,847],[65,-52]],[[909,960],[1,0]],[[1097,3346],[17,13]],[[3061,334],[-19,-31]],[[1875,1974],[32,0]],[[1908,1974],[6,-4]],[[1914,1970],[136,5]],[[2102,1982],[-43,-6]],[[3922,3762],[170,88]],[[10,680],[-10,-11]],[[22,692],[-12,-12]],[[10,680],[12,13]],[[22,693],[9,10]],[[31,703],[-9,-10]],[[22,693]],[[22,693]],[[895,960],[-375,-1],[-151,-94],[-292,-112],[-46,-50]],[[949,911],[-1,-1]],[[990,946],[-41,-35]],[[949,911],[41,35]],[[1073,992],[56,21],[54,89],[121,17],[94,-23],[132,-97],[142,-9],[138,125],[242,-91]],[[2052,1024],[15,-11]],[[2069,1013],[-2,0]],[[2069,1013],[15,-4]],[[2084,1009],[7,10]],[[2100,1021],[-9,-2]],[[2100,1021],[273,476],[178,194],[258,191]],[[2812,1884],[-3,-2]],[[2812,1884],[104,141],[173,152]],[[3366,2186],[102,2],[72,81],[162,6],[36,-11],[-2,-132],[276,41],[84,3]],[[3366,2186],[-101,50]],[[3175,511],[0,-1]],[[3175,511],[17,-40]],[[3175,511],[18,-40]],[[3212,375]],[[3215,365]],[[3243,557],[18,8]],[[3261,565],[-17,-8]],[[3290,1069],[20,9]],[[3310,1078],[10,5],[1,0],[11,5],[0,1]],[[3332,1089],[1,0],[-3,18],[32,84],[13,90],[3,3]],[[3378,1284],[1,2]],[[3379,1286],[5,6],[92,37],[47,85],[24,18],[12,7]],[[3290,1069],[1,0]],[[3291,1069],[45,-34],[24,-13],[93,-15],[110,-50],[-205,66],[-22,11],[-45,35]],[[3291,1069],[-1,0]],[[3545,1430],[-22,-17],[-27,-58],[-20,-26],[-29,-17]],[[3447,1312],[-3,-1],[-6,-2]],[[3438,1309],[-54,-18],[-4,-5]],[[3380,1286],[-1,-2]],[[3379,1284],[-3,-4],[-14,-90],[-29,-101],[-1,0]],[[3332,1089],[-22,-11]],[[3310,1078],[-19,-9]],[[3291,1069]],[[3291,1069],[-1,-1]],[[3377,1285],[2,1]],[[3379,1286],[1,0]],[[3380,1286],[58,23]],[[3438,1309],[9,3]],[[3447,1312],[9,4]],[[3456,1315],[-77,-31]],[[3379,1284],[-1,0]],[[3378,1284],[-1,0]],[[3503,1228],[-1,-1]],[[3502,1227],[-1,-1]],[[3501,1226],[-1,-2]],[[3500,1224],[-11,-14]],[[3489,1210],[-4,-7]],[[3691,1158],[-53,26]],[[3638,1184],[-38,18],[-41,17],[-55,10]],[[3504,1229],[-1,0]],[[3503,1229],[-1,0]],[[3502,1229]],[[3502,1229],[-1,0],[-9,1]],[[3492,1231],[9,-1],[1,-1]],[[3502,1229]],[[3502,1229],[1,0]],[[3503,1229],[1,0]],[[3504,1229],[50,-8],[8,-2],[38,-16],[38,-19]],[[3638,1184],[54,-26]],[[3496,1215],[1,1]],[[3497,1216],[1,3]],[[3498,1219],[2,5]],[[3500,1224],[2,4]],[[3497,1216],[0,-2]],[[3502,1228],[0,1]],[[3502,1229]],[[3502,1229],[0,1],[1,0]],[[3503,1230]],[[3503,1230],[1,0],[0,-1]],[[3504,1229]],[[3504,1229],[-2,-1]],[[3502,1228]],[[3502,1228]],[[3571,883],[-22,19]],[[3584,955],[-2,4]],[[3582,959],[-2,3]],[[3609,835],[-9,7]],[[3600,842],[-14,16]],[[3586,858],[-5,10]],[[3581,868],[28,-32]],[[3585,968],[0,-9],[-2,0]],[[3583,959]],[[3583,959],[-1,0]],[[3582,959],[-1,1]],[[3585,959],[1,-5]],[[3586,954],[0,-1]],[[3586,858]],[[3586,858],[-1,0]],[[3600,842]],[[3600,842],[0,1]],[[3775,869],[-134,14],[-29,21]],[[3612,904],[-1,0],[-7,15]],[[3604,919],[-17,32],[-4,8]],[[3583,959],[-4,7],[-87,72],[-31,108],[0,23],[10,16],[0,3],[4,7],[4,3],[10,12]],[[3489,1210],[9,9]],[[3498,1219],[1,2],[2,5]],[[3501,1226],[1,2]],[[3502,1228],[0,1]],[[3502,1229]],[[3502,1229],[1,1]],[[3503,1230],[1,5],[3,12],[45,67],[50,29]],[[3602,1343],[-9,-12],[-41,-17],[-2,-6],[-27,-46],[-15,-15],[-3,-12],[-2,-5]],[[3503,1230],[0,-1]],[[3503,1229]],[[3503,1229],[-1,-1]],[[3502,1228],[0,-1]],[[3502,1227],[-2,-6],[-3,-5]],[[3497,1216],[-3,-4],[-22,-24],[-1,-3],[-10,-16],[0,-23],[24,-71],[7,-37],[86,-70],[5,-9]],[[3583,959],[3,-5]],[[3586,954],[1,-3],[18,-32],[7,-14]],[[3612,905],[29,-22],[61,3],[104,-18],[63,54]],[[3612,903],[-8,16]],[[3604,919],[-1,2]],[[3604,921],[8,-16]],[[3612,905],[0,-1]],[[3612,904],[1,-1]],[[3617,1342],[-3,-1],[-7,10]],[[3608,1351],[8,-8]],[[3616,1343],[1,-1]],[[3616,1343],[121,-51],[7,-38]],[[3744,1254]],[[3763,1247],[-19,7]],[[3744,1254],[-7,38],[-120,50]],[[3642,814],[-5,2],[-18,12]],[[3619,828],[23,-14]],[[3685,883],[-18,-1]],[[3667,883],[19,0]],[[3693,796],[-22,7]],[[3713,795],[-19,1]],[[3743,1254],[1,0]],[[3744,1254]],[[3744,1254],[19,-5]],[[3756,1347],[-1,15]],[[3755,1363],[4,-21]],[[3757,1347],[-1,0]],[[3784,786],[-24,4]],[[3762,1249],[1,0]],[[3862,903],[-29,-25],[-27,-10],[-28,0]],[[3834,808],[10,5]],[[3842,970],[1,-3]],[[3853,814],[28,28]],[[3942,1353],[4,-118]],[[908,960],[-13,0]],[[908,960],[1,0]],[[909,960],[-1,0]],[[990,946],[11,10]],[[1001,956],[-11,-10]],[[1001,956],[72,36]],[[3089,2177],[41,51]],[[3152,2233],[-22,-5]],[[3152,2233],[28,7]],[[3181,2239],[-1,1]],[[3180,2240],[1,0]],[[3181,2240],[2,0]],[[3183,2240],[-1,-1]],[[3183,2240],[25,9]],[[3204,2277]],[[3204,2277],[8,-20],[2,-6]],[[3214,2251],[-6,-2]],[[3208,2249],[6,2]],[[3214,2251]],[[3214,2251]],[[3214,2251]],[[3214,2251],[-2,6],[-9,20],[1,0]],[[3204,2277],[13,-10]],[[3217,2267],[12,-11]],[[3229,2256],[5,-5]],[[3234,2251],[31,-15]],[[3182,2240],[0,-1],[-1,0],[0,1]],[[3181,2240],[1,0]],[[3840,979],[5,1]],[[3844,979],[-4,-1]],[[3196,443]],[[3296,0],[-4,139]],[[3292,139],[-67,186]],[[3237,289],[55,-150]],[[3292,139],[1,-2],[4,-137]],[[48,2716],[39,-72]],[[96,2623],[-7,13]],[[90,2636],[6,-13]],[[98,2611],[-2,12]],[[504,1799]],[[541,1589],[-1,11]],[[549,1605],[14,17]],[[567,1640],[-4,-18]],[[563,1622],[4,18]],[[567,1641],[8,10]],[[567,1640],[0,1],[1,0],[-1,-1]],[[575,1651],[-7,-10]],[[909,961],[-9,11]],[[3544,1445],[15,-6]],[[3545,1430],[3,4]],[[3984,895],[-18,22],[-36,-12],[-50,14]],[[3890,922],[76,-5],[30,-25]],[[3998,893],[30,-44]],[[4028,848],[-28,38]],[[2938,560],[-247,-30],[-90,-57],[-17,65],[-248,157],[-96,161],[-138,136]],[[2229,2767],[-14,-5]],[[2102,992],[-15,10]],[[2150,931],[2,-3]],[[2929,559],[-54,-1]],[[1976,2163],[29,75],[96,118],[28,104],[47,163],[63,98],[80,2],[-32,68],[16,71],[70,99],[2,1]],[[2375,2962],[133,71]],[[2508,3033],[40,109],[373,278],[98,-21],[10,3],[22,13],[3,1]],[[3054,3416],[1,0]],[[3055,3416]],[[3055,3416],[1,-9]],[[3053,3416],[1,0]],[[3054,3416],[1,0]],[[3055,3416]],[[3055,3416],[-4,-1],[-9,-7],[-13,-6],[-10,-4],[-48,6],[-50,16],[-241,-194],[-132,-84],[-39,-108],[-1,-1]],[[2508,3033],[-133,-71]],[[2375,2962],[-72,-100],[-16,-71],[33,-68],[-14,-14],[-67,12],[-38,-68],[-25,-30],[1,-1],[-47,-162],[-28,-104],[-67,-97],[-30,-21],[-2,-17],[-26,-58]],[[3035,3491],[-16,77],[-15,107],[6,151]],[[3010,3825],[-5,-150],[31,-184]],[[3321,2359],[-18,68]],[[3303,2427],[19,-68]],[[3506,1590],[5,68],[-53,181],[-43,174]],[[3415,2013],[97,-355],[-5,-68]],[[3548,1434],[-1,2]],[[3310,2404],[-118,-70],[12,-57]],[[2102,1982],[118,18],[260,-41],[166,32],[199,-81]],[[2837,1904],[189,-150]],[[960,3300],[60,28]],[[3367,698],[-24,-66],[-138,-156],[-76,-33],[-68,-109]],[[3010,3598],[129,-8]],[[3097,1266],[-165,17]],[[2932,1283],[165,-17]],[[3758,1335],[-3,27],[-81,49],[-94,30],[-35,-11]],[[3559,1439],[21,3],[5,-1],[89,-30],[81,-48],[3,-28],[0,-6]],[[3827,1148],[-9,29],[-13,4]],[[3805,1181],[-1,0],[-15,10],[-1,1]],[[3788,1192],[-10,12]],[[3778,1204],[-7,9],[-8,36]],[[3763,1249],[7,-32],[8,-13]],[[3778,1204],[6,-10],[4,-2]],[[3788,1192],[3,-2],[28,-13],[9,-29]],[[3805,1181]],[[3805,1181],[-11,7],[-5,3]],[[3869,922],[-19,18],[-9,33]],[[3841,973],[1,-3]],[[176,2660],[-104,74]],[[73,2734],[66,-38],[8,-6],[29,-30]],[[2932,1283],[-109,47],[-68,33]],[[2755,1363],[177,-80]],[[3492,1230],[-395,36]],[[3097,1266],[199,-9],[21,-1],[59,-8],[116,-17]],[[3060,334],[68,109],[78,36],[147,166],[30,82],[96,117]],[[3479,847],[42,89]],[[1046,2194],[-75,57],[75,-57]],[[1056,2195],[48,-21],[0,-2],[-48,23]],[[1312,4096],[5,-205],[-65,-141]],[[3225,325],[-23,89],[-10,55]],[[3193,469],[10,-56]],[[758,1782],[143,128],[81,210],[64,74],[336,225],[195,54]],[[2174,2747],[-434,-242],[-162,-33]],[[2629,1426],[-38,14]],[[549,1605],[-9,-5]],[[1199,3348],[-85,11]],[[1114,3359],[85,-11]],[[1199,3348],[48,-23]],[[3825,1148],[15,-19]],[[3840,1129]],[[3840,1129]],[[3840,1129],[-12,19]],[[3841,1116],[-19,-34]],[[3822,1082],[-8,-13],[1,-3]],[[3815,1066],[26,-92]],[[3846,984],[-31,82]],[[3815,1066],[-1,3],[8,13]],[[3822,1082],[19,32]],[[3912,3386],[-1,-2]],[[3192,471],[1,0],[0,-2],[-1,2]],[[1259,3422],[288,103],[511,118],[60,61]],[[2233,3659],[437,-35],[13,-24],[48,-1],[37,29],[97,-3]],[[1532,2036],[-2,3]],[[2103,1984],[-157,113],[0,1],[5,10]],[[1953,2110],[150,-126]],[[3195,452],[-1,0]],[[3209,386],[1,0]],[[3370,590],[-75,-14]],[[3298,577]],[[3338,585],[0,-1]],[[3340,585]],[[3403,592]],[[3409,593]],[[3410,593]],[[3851,886],[-4,5]],[[3850,894],[-1,-4]],[[3880,919],[-7,-7]],[[3880,844],[0,-1]],[[3882,839],[1,0]],[[122,2671],[-35,-27]],[[2796,0],[-5,13]],[[2792,13],[7,-13]],[[3225,325],[12,-36]],[[1541,375],[-6,-12]],[[2115,1008],[-14,12]],[[2245,1037],[-129,-30]],[[3757,1327],[-1,20]],[[3789,1191],[-4,2]],[[82,2610],[26,-200],[-25,-158],[-83,-206]],[[208,2751],[174,160],[33,61],[202,101],[184,186],[159,41]],[[1018,3327],[1,2]],[[3844,979]],[[3845,980],[45,22]],[[3847,981],[6,3],[20,10]],[[3907,1012],[-8,-6],[-19,-9]],[[3898,1007],[32,32]],[[3930,1039],[2,2],[1,0],[61,25],[63,23],[18,3],[21,1]],[[4082,1091],[-25,-3],[-96,-36],[-28,-11],[-1,-1],[-2,-1]],[[3930,1039],[-3,-2]],[[4096,1092],[-14,-1]],[[4096,1091],[-14,0]],[[89,2636],[1,0]],[[3479,847],[-1,-3]],[[2737,0],[74,70],[102,46]],[[2913,116],[2,1],[17,101]],[[2932,218],[0,1],[109,85]],[[3042,303],[-26,-31],[-34,-24],[-50,-30]],[[2932,218],[-19,-102]],[[2913,116],[-1,-8],[-101,-38],[-70,-70]],[[3478,844],[-111,-146]],[[3522,937],[-43,-90]],[[931,932],[17,-22]],[[3521,936],[1,2],[55,26]],[[3577,964],[-55,-27]],[[0,3990],[218,106]],[[504,1799],[2,1]],[[576,1652],[27,-8]],[[603,1644],[-27,8]],[[608,1639],[-5,5]],[[608,1638],[0,1]],[[608,1639],[0,-1]],[[1057,3401],[1,2]],[[1058,3403],[15,25]],[[1073,3428],[19,27]],[[1090,3322],[6,23]],[[4011,3778],[-114,104]],[[533,1593],[-137,-189],[-256,-191],[-52,-77],[-88,-48]],[[744,1645],[277,73],[256,21]],[[1743,1917],[-74,-34],[-212,-76],[-120,-77],[-60,9]],[[1277,1739],[60,-9],[46,37],[33,19],[41,21],[98,40],[99,34],[15,2],[74,35]],[[3599,665],[-145,-84],[-84,9]],[[3646,743],[-3,-39],[-44,-39]],[[911,959],[20,-27]],[[3758,1329],[3,-50]],[[3761,1279],[2,-30]],[[3763,1249],[-2,30]],[[3761,1279],[-3,56]],[[2787,1243],[104,46]],[[547,1508],[-5,66]],[[654,1281],[-107,227]],[[578,0],[-21,130],[41,241],[173,298],[177,241]],[[3841,973],[-27,99],[-1,19],[1,5]],[[3814,1096],[25,7]],[[3839,1103],[2,0],[-14,45]],[[3828,1148],[14,-45],[-3,0]],[[3839,1103],[-17,-2],[-7,-1],[-1,-4]],[[3814,1096],[0,-10],[0,-14],[27,-99]],[[3789,1979],[-14,112],[-39,41]],[[3874,1753],[-79,217]],[[3736,2132],[39,-41],[121,-451]],[[3843,2644],[-105,-380]],[[3911,3384],[34,-130],[-33,-228],[18,-66],[-45,-165]],[[3960,3762],[-48,-376]],[[910,960]],[[910,960],[-1,0],[1,0]],[[2118,3704],[115,-45]],[[2221,2777],[0,1]],[[3192,2332],[-1,0]],[[3191,2332],[0,1]],[[3192,2334]],[[3192,2334]],[[3192,2334],[-1,-1]],[[3191,2334],[1,0]],[[3192,2334]],[[3192,2334],[0,-2]],[[3203,2277],[-12,55]],[[3191,2332],[0,1],[1,1]],[[3192,2334]],[[3192,2334],[118,70]],[[0,2836],[48,-120]],[[504,1799],[-84,195],[-138,135],[11,24],[-182,361],[-13,97]],[[542,1574],[-1,15]],[[547,1508]],[[900,972],[-246,309]],[[1046,2194],[10,1]],[[1577,2472],[-6,-1]],[[1578,2473],[7,1]],[[3041,304],[19,30]],[[1114,3359],[-9,15],[154,48]],[[2865,3625],[139,2]],[[3203,413],[22,-88]],[[2334,0],[116,77],[99,126],[271,179],[173,43]],[[1030,3350],[24,46]],[[1057,3401],[-15,57]],[[1055,3398],[-1,-2]],[[1054,3396],[1,2]],[[1055,3398],[2,3]],[[1057,3401],[-1,-3]],[[1061,3336],[34,10]],[[1095,3346],[1,0]],[[1096,3346],[-1,0]],[[1101,3344],[-4,1]],[[1097,3346],[4,-2]],[[1113,3311],[-12,33]],[[1849,1996],[-53,99]],[[1796,2095],[53,-99]],[[1849,1996],[2,-2]],[[1851,1994],[4,-19]],[[1855,1975],[20,-2]],[[1855,1975]],[[1855,1975],[20,-1],[0,-1]],[[1904,1871],[-29,102]],[[1056,3398],[-1,0],[1,0]],[[1097,3345],[-1,0],[0,1]],[[1096,3346],[1,0],[0,-1]],[[1851,1994],[1,0],[-1,0]],[[3642,814],[52,-17]],[[72,2734],[-42,24],[-30,-34]],[[0,2725],[30,34],[43,-25]],[[2591,1440],[-172,110],[-71,92],[-1,2],[-196,156],[-41,-15],[-44,-8],[-149,3],[-56,14],[-19,7],[-92,42],[-72,41],[-21,13],[-52,41],[-88,115],[-136,69],[-130,-46],[-48,19],[-94,76],[-89,-14],[-51,96],[-482,252],[-278,100],[-33,55]],[[176,2660],[33,-54],[263,-94],[125,-57],[372,-201],[52,-96],[88,14],[71,-47],[24,-30],[47,-18],[129,45],[72,-35],[65,-34],[14,-12]],[[1535,2038],[-4,1],[1,3],[3,-1],[0,-3]],[[1535,2038],[119,-138],[188,-99],[224,-23],[86,22],[196,-156],[72,-93],[335,-188]],[[2755,1363],[-50,24],[-76,39]],[[1899,2016],[23,44]],[[1923,2061],[53,102]],[[1977,2163],[-54,-102]],[[1923,2061],[0,-1],[-1,1],[1,1],[0,-1]],[[3902,1611],[40,-258]],[[3869,909],[21,13]],[[2220,2000],[-118,-18]],[[2872,1886],[-4,2]],[[3010,3826],[6,270]],[[3016,4096],[-6,-271]],[[3303,2427],[-94,367],[-174,697]],[[3036,3491],[267,-1064]],[[3415,2013],[-94,346]],[[3322,2359],[93,-346]],[[1089,109],[172,192],[112,47],[168,27],[44,-53],[249,209],[152,330],[98,148]],[[2101,1020],[144,17],[166,57],[193,105],[183,44]],[[3843,967],[29,-46]],[[3882,841],[-98,-55]],[[3872,921],[-10,-18]],[[0,3475],[333,-15],[73,-46],[173,-1],[70,-34],[234,-21],[77,-58]],[[575,1652],[0,1]],[[3512,903],[60,-21]],[[3572,882],[1,-1],[46,-53]],[[3619,828],[-10,7],[-16,14],[-21,33]],[[3572,882],[-12,19],[-34,-1]],[[3671,803],[-29,11]],[[3694,796],[-1,0]],[[3694,797],[85,-10],[55,21]],[[3760,790],[-47,5]],[[3844,813],[9,1]],[[3141,508],[-148,-83]],[[0,0],[0,2281],[0,1815],[4096,0],[0,-4096],[-4096,0]],[[96,2610],[-81,0],[7,85],[47,39],[140,24],[-15,-75],[-38,-49],[-60,-24]],[[1238,3317],[-117,-9],[-104,48],[-32,105],[236,-13],[88,-61],[-71,-70]],[[3865,2610],[-94,142],[-3,43],[162,0],[6,-41],[-71,-33],[0,-111]],[[2248,2721],[-60,8],[-30,39],[25,101],[76,-62],[12,-40],[-23,-46]],[[3315,2352],[0,-74],[-32,0],[-32,-74],[-227,-37],[6,27],[-38,47],[56,59],[-88,15],[46,99],[83,86],[60,-5],[114,-66],[84,-3],[5,-31],[-37,-43]],[[3017,3825],[158,-82],[11,-97],[-121,-144],[-91,-35],[-80,31],[-49,216],[17,80],[98,0],[0,37],[57,-6]],[[4096,3949],[0,-94],[-52,-66],[-104,-33],[-107,37],[-5,42],[69,33],[0,74],[195,36],[4,-29]],[[2867,3972],[-5,-31],[-32,0],[0,-74],[-32,0],[-33,-74],[-129,74],[32,56],[101,69],[28,61],[70,-81]],[[4096,1612],[0,-1603],[-13,-9],[-48,0],[-93,55],[-77,115],[-64,-111],[-44,6],[11,105],[-32,0],[-32,74],[-60,13],[-5,24],[4,60],[78,41],[15,47],[-39,44],[-123,-81],[-125,52],[-36,-15],[0,-37],[-114,-9],[-48,-65],[-151,39],[-11,-39],[-65,37],[-32,74],[-73,-22],[-25,22],[52,156],[14,140],[64,0],[0,37],[47,49],[-111,172],[-130,-36],[-22,62],[119,159],[-29,59],[-144,21],[-54,31],[97,148],[0,37],[259,0],[77,58],[150,201],[-10,63],[-83,52],[-4,70],[97,74],[134,32],[93,-69],[64,0],[68,-65],[126,28],[-32,-259],[40,-41],[154,41],[33,-37],[133,0]],[[921,910],[-35,29],[39,92],[-4,64],[39,-1],[58,-73],[66,-35],[-1,-39],[-146,-1],[-16,-36]],[[587,1847],[43,-50],[91,29],[38,-29],[-10,-144],[-22,-41],[-65,0],[-32,-74],[-98,56],[-129,18],[-32,74],[15,45],[201,116]],[[1906,2175],[147,-25],[63,-74],[2,-57],[-65,-148],[-161,0],[-33,-37],[-75,2],[-29,27],[-44,212],[83,18],[65,74],[0,37],[47,-29]],[[3705,896],[22,249],[112,3],[11,-156],[-26,-53],[-119,-43]],[[3273,808],[41,18],[24,72],[110,-13],[1,-30],[33,-9],[-42,-23],[-70,17],[49,-70],[-146,38]],[[4083,1367],[13,2],[0,-39],[-13,6],[0,31]]]}