{"objects":{"water":{"type":"GeometryCollection","geometries":[{"type":"MultiPolygon","properties":{"source":"naturalearthdata.com","kind":"ocean","area":1576712559132672,"sort_rank":200,"min_zoom":0.0,"id":1},"arcs":[[[15]]]},{"type":"MultiLineString","properties":{"source":"naturalearthdata.com","kind":"ocean","sort_rank":205,"boundary":true,"min_zoom":0.0,"id":78},"arcs":[[16],[17],[18],[19]]}]},"buildings":{"type":"GeometryCollection","geometries":[]},"places":{"type":"GeometryCollection","geometries":[{"type":"Point","properties":{"name:ml":"\u0d15\u0d47\u0d30\u0d33\u0d02","kind":"region","name":"Kerala","name:hi":"\u0915\u0947\u0930\u0932","kind_detail":"state","name:eo":"Keralao","source":"openstreetmap.org","min_zoom":4.0,"name:uk":"\u041a\u0435\u0440\u0430\u043b\u0430","name:kn":"\u0c95\u0cc7\u0cb0\u0cb3","name:ru":"\u041a\u0435\u0440\u0430\u043b\u0430","id":2237699954,"name:ja":"\u30b1\u30fc\u30e9\u30e9"},"coordinates":[1673,1651]},{"type":"Point","properties":{"name:ml":"\u0d15\u0d4b\u0d2f\u0d2e\u0d4d\u0d2a\u0d24\u0d4d\u0d24\u0d42\u0d7c","name:ja":"\u30b3\u30fc\u30e4\u30f3\u30d6\u30c3\u30c8\u30a5\u30fc\u30eb","name:lt":"Koimbatoras","name:hi":"\u0915\u094b\u092f\u0902\u092c\u0924\u0942\u0930","name:ko":"\ucf54\uc784\ubc14\ud1a0\ub974","name:kn":"\u0c95\u0cca\u0caf\u0c82\u0cac\u0ca4\u0ccd\u0ca4\u0cc2\u0cb0\u0cc1","min_zoom":8.0,"name:uk":"\u041a\u043e\u0457\u043c\u0431\u0430\u0442\u043e\u0440","old_name":"Kongunadu","name:ru":"\u041a\u043e\u0438\u043c\u0431\u0430\u0442\u0443\u0440","name:ta":"\u0b95\u0bcb\u0baf\u0bae\u0bcd\u0baa\u0bc1\u0ba4\u0bcd\u0ba4\u0bc2\u0bb0\u0bcd","id":245589078,"population":1050000,"kind":"locality","name":"Coimbatore","kind_detail":"city","source":"openstreetmap.org","name:zh":"\u54e5\u5370\u62dc\u9640"},"coordinates":[2987,3573]},{"type":"Point","properties":{"kind":"locality","name":"Ernakulam","name:hi":"\u090f\u0930\u094d\u0928\u093e\u0915\u0941\u0932\u092e","kind_detail":"city","source":"openstreetmap.org","min_zoom":8.0,"name:kn":"\u0c8e\u0cb0\u0ccd\u0ca8\u0cbe\u0c95\u0cc1\u0cb2\u0c82","population":612343,"name:ml":"\u0d0e\u0d31\u0d23\u0d3e\u0d15\u0d41\u0d33\u0d02","name:ta":"\u0b8e\u0bb0\u0bcd\u0ba3\u0bbe\u0b95\u0bc1\u0bb3\u0bae\u0bcd","name:zh":"\u57c3\u5c14\u8bb7\u53e4\u52d2\u59c6","id":2278426212,"name:ja":"\u30a8\u30eb\u30ca\u30af\u30e9\u30e0"},"coordinates":[1016,571]},{"type":"Point","properties":{"kind":"locality","name":"Malappuram","kind_detail":"city","source":"openstreetmap.org","min_zoom":8.0,"name:kn":"\u0cae\u0cb2\u0caa\u0ccd\u0caa\u0cc1\u0cb0\u0c82","name:ml":"\u0d2e\u0d32\u0d2a\u0d4d\u0d2a\u0d41\u0d31\u0d02","name:ta":"\u0ba4\u0bbf\u0bb0\u0bc2\u0bb0\u0bcd","id":355647615,"population":101330},"coordinates":[415,3689]},{"type":"Point","properties":{"kind":"locality","name":"Palakkad","kind_detail":"town","source":"openstreetmap.org","min_zoom":8.0,"name:kn":"\u0caa\u0cbe\u0cb2\u0c95\u0ccd\u0c95\u0ca1\u0ccd","old_name":"Palghat","name:ml":"\u0d2a\u0d3e\u0d32\u0d15\u0d4d\u0d15\u0d3e\u0d1f\u0d4d","id":345267997,"population":100000},"coordinates":[2079,2884]},{"type":"Point","properties":{"kind":"locality","name":"Pollachi","kind_detail":"town","source":"openstreetmap.org","min_zoom":8.0,"name:kn":"\u0caa\u0cca\u0cb3\u0ccd\u0cb3\u0cbe\u0c9a\u0ccd\u0c9a\u0cbf","population":100000,"name:ta":"\u0baa\u0bca\u0bb3\u0bcd\u0bb3\u0bbe\u0b9a\u0bcd\u0b9a\u0bbf","id":245587173,"name:ja":"\u30dd\u30c3\u30e9\u30fc\u30c3\u30c1"},"coordinates":[3119,2557]},{"type":"Point","properties":{"kind":"locality","name":"Valparai","kind_detail":"town","source":"openstreetmap.org","min_zoom":8.0,"name:kn":"\u0cb5\u0cbe\u0cb2\u0ccd\u0caa\u0cbe\u0cb0\u0cc8","name:ru":"\u0412\u0430\u043b\u043f\u0430\u0440\u0430\u0439","name:ml":"\u0d35\u0d3e\u0d7e\u0d2a\u0d4d\u0d2a\u0d3e\u0d31","name:ta":"\u0bb5\u0bbe\u0bb2\u0bcd\u0baa\u0bbe\u0bb1\u0bc8","id":661050991,"population":100000},"coordinates":[2965,1577]},{"type":"Point","properties":{"kind":"locality","name":"Irinjalakuda","kind_detail":"town","source":"openstreetmap.org","min_zoom":8.0,"name:ml":"\u0d07\u0d30\u0d3f\u0d1e\u0d4d\u0d1e\u0d3e\u0d32\u0d15\u0d4d\u0d15\u0d41\u0d1f","id":594977585,"population":50000},"coordinates":[793,1625]},{"type":"Point","properties":{"kind":"locality","name":"Angamaly","kind_detail":"town","source":"openstreetmap.org","min_zoom":8.0,"name:kn":"\u0c85\u0c82\u0c97\u0cae\u0cbe\u0cb2\u0cbf","name:ml":"\u0d05\u0d19\u0d4d\u0d15\u0d2e\u0d3e\u0d32\u0d3f","id":245586161,"population":30000},"coordinates":[1310,1171]},{"type":"Point","properties":{"source":"openstreetmap.org","kind":"locality","name":"Pattambi","kind_detail":"town","population":29000,"min_zoom":8.0,"id":616276723},"coordinates":[701,2989]},{"type":"Point","properties":{"kind":"locality","name:en":"Palladam","name":"Palladam - \u0baa\u0bb2\u0bcd\u0bb2\u0b9f\u0bae\u0bcd","kind_detail":"town","source":"openstreetmap.org","min_zoom":8.0,"name:ta":"\u0baa\u0bb2\u0bcd\u0bb2\u0b9f\u0bae\u0bcd","name:zh":"\u5e15\u62c9\u8fbe\u59c6","id":245589056,"population":10000},"coordinates":[3926,3547]},{"type":"Point","properties":{"source":"openstreetmap.org","kind":"locality","name":"Udumalaippettai","kind_detail":"town","population":10000,"min_zoom":8.0,"id":245586959},"coordinates":[3823,2335]},{"type":"Point","properties":{"kind":"locality","name":"Shoranur","kind_detail":"town","source":"openstreetmap.org","min_zoom":8.0,"name:ml":"\u0d37\u0d4a\u0d30\u0d4d\u200d\u0d23\u0d4d\u0d23\u0d42\u0d30\u0d4d\u200d","id":616276741,"population":10000},"coordinates":[975,2868]},{"type":"Point","properties":{"kind":"locality","name":"Manjeri","kind_detail":"town","source":"openstreetmap.org","min_zoom":8.0,"name:kn":"\u0cae\u0c82\u0c9c\u0cc6\u0cb0\u0cbf","name:ml":"\u0d2e\u0d1e\u0d4d\u0d1a\u0d47\u0d30\u0d3f","id":392595213,"population":10000},"coordinates":[531,3924]},{"type":"Point","properties":{"kind":"locality","name":"Muvattupuzha","kind_detail":"town","source":"openstreetmap.org","min_zoom":8.0,"name:ml":"\u0d2e\u0d42\u0d35\u0d3e\u0d31\u0d4d\u0d31\u0d41\u0d2a\u0d41\u0d34","id":245585625,"population":10000},"coordinates":[1875,555]},{"type":"Point","properties":{"source":"openstreetmap.org","kind":"locality","name":"Painavu","kind_detail":"town","population":10000,"min_zoom":8.0,"id":245584837},"coordinates":[2937,168]},{"type":"Point","properties":{"kind":"locality","name":"Perumbavoor","kind_detail":"town","source":"openstreetmap.org","min_zoom":8.0,"name:kn":"\u0caa\u0cc6\u0cb0\u0c82\u0cac\u0cb5\u0cc2\u0cb0\u0ccd","id":245585907,"population":5000},"coordinates":[1573,946]},{"type":"Point","properties":{"kind":"locality","name":"Munnar","kind_detail":"town","source":"openstreetmap.org","min_zoom":8.0,"name:kn":"\u0cae\u0cc1\u0ca8\u0ccd\u0ca8\u0cbe\u0cb0\u0ccd","name:ru":"\u041c\u0443\u043d\u043d\u0430\u0440","name:ml":"\u0d2e\u0d42\u0d28\u0d4d\u0d28\u0d3e\u0d7c","name:ta":"\u0bae\u0bc2\u0ba3\u0bbe\u0bb0\u0bcd","id":3870703092,"population":5000},"coordinates":[3272,862]},{"type":"Point","properties":{"kind":"locality","int_name":"North Paravur","name":"Paravur","kind_detail":"town","source":"openstreetmap.org","min_zoom":8.0,"name:kn":"\u0caa\u0cb0\u0cb5\u0cc2\u0cb0\u0ccd","name:ml":"\u0d2a\u0d31\u0d35\u0d42\u0d30\u0d4d\u200d","id":245586024,"population":5000},"coordinates":[858,1046]},{"type":"Point","properties":{"kind":"locality","name":"Mannarkkad","kind_detail":"town","source":"openstreetmap.org","min_zoom":8.0,"name:ml":"\u0d2e\u0d23\u0d4d\u0d23\u0d3e\u0d30\u0d4d\u200d\u0d15\u0d4d\u0d15\u0d3e\u0d1f\u0d4d","id":560536216,"population":5000},"coordinates":[1513,3546]},{"type":"Point","properties":{"kind":"locality","name:en":"Perinthalmanna","name":"Perintalmanna","kind_detail":"town","source":"openstreetmap.org","min_zoom":8.0,"id":355845180,"population":44},"coordinates":[842,3495]}]},"transit":{"type":"GeometryCollection","geometries":[{"type":"MultiLineString","properties":{"source":"openstreetmap.org","kind":"subway","name":"Kochi Metro Rail Line","sort_rank":275,"ref":"1","min_zoom":8.0,"osm_relation":true},"arcs":[[3],[4],[5]]},{"type":"LineString","properties":{"kind":"subway","network":"Kochi Metro","sort_rank":275,"source":"openstreetmap.org","min_zoom":8.0,"operator":"KMRL","id":-7752157,"osm_relation":true,"name":"Kochi Metro Phase I"},"arcs":[6]},{"type":"MultiLineString","properties":{"source":"openstreetmap.org","kind":"train","name":"Ernakulam - Kayanakulam mainline","sort_rank":275,"min_zoom":6.0,"osm_relation":true},"arcs":[[7],[8],[9],[10]]},{"type":"LineString","properties":{"source":"openstreetmap.org","kind":"train","name":"Sabari Railway Line","sort_rank":275,"min_zoom":6.0,"osm_relation":true},"arcs":[11]},{"type":"MultiLineString","properties":{"sort_rank":275,"source":"openstreetmap.org","min_zoom":6.0,"kind":"train","osm_relation":true},"arcs":[[12],[13],[14]]}]},"pois":{"type":"GeometryCollection","geometries":[{"type":"Point","properties":{"kind":"nature_reserve","name":"Indira Gandhi Wildlife Sanctuary and National Park","area":1022770000,"source":"openstreetmap.org","min_zoom":7.29,"tier":2,"id":-5573626,"osm_relation":true},"coordinates":[3501,1738]},{"type":"Point","properties":{"kind":"national_park","protect_class":"2","area":106497000,"source":"openstreetmap.org","min_zoom":7.42,"old_name":"Annamalai National Park","tier":1,"id":-5573605,"osm_relation":true,"name":"Indira Gandhi National Park"},"coordinates":[3309,1645]},{"type":"Point","properties":{"kind":"national_park","protect_class":"2","area":121412000,"source":"openstreetmap.org","min_zoom":7.33,"tier":1,"id":-4148317,"osm_relation":true,"name":"Eravikulam National Park"},"coordinates":[3312,1277]}]},"boundaries":{"type":"GeometryCollection","geometries":[{"type":"LineString","properties":{"name:pt":"\u00cdndia","name:ty":"\u2019In\u012btia","name:ps":"\u0647\u0646\u062f","name:ka":"\u10d8\u10dc\u10d3\u10dd\u10d4\u10d7\u10d8","name:ko":"\uc778\ub3c4","name:cv":"\u0418\u043d\u0434\u0438","name:km":"\u17a5\u178e\u17d2\u178c\u17b6","name:cs":"Indie","name:rn":"Ubuhindi","name:tt":"\u04ba\u0438\u043d\u0434\u0441\u0442\u0430\u043d","name:kw":"Eynda","name:kv":"\u0418\u043d\u0434\u0438\u044f","name:ku":"Hindistan","name:ks":"\u0628\u064b\u0627\u0631\u062a","name:to":"\u02bbInitia","name:tl":"Indiya","name:zh-min-nan":"\u00ccn-t\u014d\u0358","name:os":"\u0418\u043d\u0434\u0438","name:or":"\u0b2d\u0b3e\u0b30\u0b24","name:ce":"\u0418\u043d\u0434\u0438","name:ta":"\u0b87\u0ba8\u0bcd\u0ba4\u0bbf\u0baf\u0bbe","name:tg":"\u04b2\u0438\u043d\u0434\u0443\u0441\u0442\u043e\u043d","name:ca":"\u00cdndia","name:te":"\u0c2d\u0c3e\u0c30\u0c24 \u0c26\u0c47\u0c36\u0c02","name:bg":"\u0418\u043d\u0434\u0438\u044f","source":"openstreetmap.org","sort_rank":262,"name:hr":"Indija","name:da":"Indien","name:sw":"Uhindi","name:de":"Indien","name:dz":"\u0f62\u0f92\u0fb1\u0f0b\u0f42\u0f62","name:tr":"Hindistan","osm_relation":true,"name:kn":"\u0cad\u0cbe\u0cb0\u0ca4","name:be":"\u0406\u043d\u0434\u044b\u044f","name:dv":"\u0787\u07a8\u0782\u07b0\u0791\u07a8\u0794\u07a7","name:za":"Yindu","name:ba":"\u04ba\u0438\u043d\u0434\u043e\u0441\u0442\u0430\u043d","name:ar":"\u0627\u0644\u0647\u0646\u062f","name:lv":"Indija","name:lt":"Indija","name:uz":"Hindiston","name:kk":"\u04ae\u043d\u0434\u0456\u0441\u0442\u0430\u043d","name:he":"\u05d4\u05d5\u05d3\u05d5","name:eo":"Barato","name:ur":"\u0628\u06be\u0627\u0631\u062a","name:lb":"Indien","name:uk":"\u0406\u043d\u0434\u0456\u044f","name:hy":"\u0540\u0576\u0564\u056f\u0561\u057d\u057f\u0561\u0576","name:ug":"\u06be\u0649\u0646\u062f\u0649\u0633\u062a\u0627\u0646","name:qu":"Indya","name:oc":"\u00cdndia","name:el":"\u0399\u03bd\u03b4\u03af\u03b1","kind":"country","name":"India","name:tk":"Hindistan","min_zoom":8.0,"name:th":"\u0e1b\u0e23\u0e30\u0e40\u0e17\u0e28\u0e2d\u0e34\u0e19\u0e40\u0e14\u0e35\u0e22","name:yi":"\u05d0\u05d9\u05e0\u05d3\u05d9\u05e2","name:iu":"\u1403\u14d0\u144e\u140a","name:yo":"\u00cdnd\u00ed\u00e0","name:mt":"Indja","alt_name:eo":"Hindujo;Hindio","name:az":"Hindistan","name:ig":"Ndia","name:mr":"\u092d\u093e\u0930\u0924","name:pa":"\u0a2d\u0a3e\u0a30\u0a24","name:my":"\u1021\u102d\u1014\u1039\u1012\u102d\u101a\u1014\u102d\u102f\u1004\u103a\u1004\u1036","name:is":"Indland","name:am":"\u1205\u1295\u12f5","name:vi":"\u1ea4n \u0110\u1ed9","name:ml":"\u0d07\u0d28\u0d4d\u0d24\u0d4d\u0d2f","name:rw":"Ubuhinde","name:mi":"\u012ania","name:pl":"Indie","name:mk":"\u0418\u043d\u0434\u0438\u0458\u0430","name:vo":"Lind\u00e4n","name:zu":"INdiya","name:mn":"\u042d\u043d\u044d\u0442\u0445\u044d\u0433","name:ss":"INdiya","kind_detail":"2","name:hi":"\u092d\u093e\u0930\u0924","id":-304716,"alt_name:vi":"Thi\u00ean Tr\u00fac;Quy\u00ean \u0110\u1ed9c","name:fr":"Inde","name:ky":"\u0418\u043d\u0434\u0438\u044f","name:zh-yue":"\u5370\u5ea6","name:fy":"Yndia","name:pi":"\u092d\u093e\u0930\u0924","name:zh":"\u5370\u5ea6","name:so":"Hindiya","name:sm":"Igitia","name:sl":"Indija","name:ja":"\u30a4\u30f3\u30c9","name:si":"\u0db7\u0dcf\u0dbb\u0dad \u0da2\u0db1\u0dbb\u0da2\u0dba","name:sh":"Indija","name:na":"Indjiya","name:sd":"\u0680\u0627\u0631\u062a","name:sc":"\u00ccndia","name:ne":"\u092d\u093e\u0930\u0924","name:sa":"\u092d\u093e\u0930\u0924\u092e\u094d","name:bs":"Indija","name:bn":"\u09ad\u09be\u09b0\u09a4","name:bo":"\u0f62\u0f92\u0fb1\u0f0b\u0f42\u0f62\u0f0d","name:ru":"\u0418\u043d\u0434\u0438\u044f","name:sv":"Indien","name:ha":"Indiya","name:wo":"End","name:sr":"\u0418\u043d\u0434\u0438\u0458\u0430","name:nv":"T\u00f3 W\u00f3naan\u00edd\u0119\u0301\u0119\u0301\u02bc Bits\u012f\u02bc Yisht\u0142izhii Bik\u00e9yah","name:ga":"An India","name:gd":"Na h-Innseachan","name:ht":"End","name:wa":"Inde","name:fa":"\u0647\u0646\u062f","maritime_boundary":true,"name:gv":"Yn Injey","name:gu":"\u0aad\u0abe\u0ab0\u0aa4","name:fi":"Intia"},"arcs":[0]},{"type":"LineString","properties":{"name:right:ja":"\u30bf\u30df\u30eb\u30fb\u30ca\u30fc\u30c9\u30a5","name:left:hi":"\u0915\u0947\u0930\u0932","name:right:ml":"\u0d24\u0d2e\u0d3f\u0d34\u0d4d\u200c\u0d28\u0d3e\u0d1f\u0d4d","name:right:uk":"\u0422\u0430\u043c\u0456\u043b-\u041d\u0430\u0434\u0443","name:left:ja":"\u30b1\u30fc\u30e9\u30e9","name:right:ko":"\ud0c0\ubc00\ub098\ub450 \uc8fc","id:right":-96905,"name:left:uk":"\u041a\u0435\u0440\u0430\u043b\u0430","name:right:hi":"\u0924\u092e\u093f\u0932 \u0928\u093e\u0921\u0941","min_zoom":8.0,"name:left:ru":"\u041a\u0435\u0440\u0430\u043b\u0430","name:right:te":"\u0c24\u0c2e\u0c3f\u0c33\u0c28\u0c3e\u0c21\u0c41","name:left:ta":"\u0b95\u0bc7\u0bb0\u0bb3\u0bae\u0bcd","name:left:ml":"\u0d15\u0d47\u0d30\u0d33\u0d02","id":-2018151,"osm_relation":true,"name:right":"Tamil Nadu","kind":"region","name":"Kerala - Tamil Nadu","name:right:kn":"\u0ca4\u0cae\u0cbf\u0cb3\u0cc1\u0ca8\u0cbe\u0ca1\u0cc1","sort_rank":256,"kind_detail":"4","name:right:ru":"\u0422\u0430\u043c\u0438\u043b\u043d\u0430\u0434","name:right:ta":"\u0ba4\u0bae\u0bbf\u0bb4\u0bcd\u0ba8\u0bbe\u0b9f\u0bc1","source":"openstreetmap.org","name:left:zh":"\u5580\u62c9\u62c9\u90a6","name:left:kn":"\u0c95\u0cc7\u0cb0\u0cb3","id:left":-2018151,"name:right:zh":"\u6cf0\u7c73\u5c14\u7eb3\u5fb7\u90a6","name:left":"Kerala"},"arcs":[1]},{"type":"LineString","properties":{"name:ja":"\u30b1\u30fc\u30e9\u30e9","name:hi":"\u0915\u0947\u0930\u0932","name:kn":"\u0c95\u0cc7\u0cb0\u0cb3","min_zoom":8.0,"name:uk":"\u041a\u0435\u0440\u0430\u043b\u0430","name:ru":"\u041a\u0435\u0440\u0430\u043b\u0430","name:ml":"\u0d15\u0d47\u0d30\u0d33\u0d02","name:ta":"\u0b95\u0bc7\u0bb0\u0bb3\u0bae\u0bcd","id":-2018151,"osm_relation":true,"kind":"region","name":"Kerala","sort_rank":256,"kind_detail":"4","source":"openstreetmap.org","maritime_boundary":true,"name:zh":"\u5580\u62c9\u62c9\u90a6"},"arcs":[2]}]},"roads":{"type":"GeometryCollection","geometries":[{"type":"LineString","properties":{"kind":"major_road","network":"IN:SH:KL","sort_rank":380,"kind_detail":"primary","source":"openstreetmap.org","min_zoom":8.0,"shield_text":"40","id":290187668},"arcs":[20]},{"type":"LineString","properties":{"kind":"major_road","network":"IN:NH","sort_rank":381,"kind_detail":"trunk","is_bicycle_related":true,"source":"openstreetmap.org","min_zoom":8.0,"landuse_kind":"urban_area","shield_text":null,"name:ta":"\u0b9a\u0ba4\u0bcd\u0ba4\u0bbf\u0baf\u0bae\u0b99\u0bcd\u0b95\u0bb2\u0bae\u0bcd \u0b9a\u0bbe\u0bb2\u0bc8","ref":"NH948","id":155818687},"arcs":[21]},{"type":"LineString","properties":{"kind":"major_road","network":"IN:NH","sort_rank":381,"kind_detail":"trunk","is_bicycle_related":true,"source":"openstreetmap.org","min_zoom":8.0,"shield_text":"966","ref":"NH966"},"arcs":[22]},{"type":"LineString","properties":{"source":"openstreetmap.org","kind":"major_road","sort_rank":380,"kind_detail":"primary","ref":"Palladam Dharapuram Road","min_zoom":8.0,"id":128544012},"arcs":[23]},{"type":"LineString","properties":{"kind":"major_road","sort_rank":380,"kind_detail":"primary","source":"openstreetmap.org","min_zoom":8.0,"name:ta":"\u0bae\u0bb0\u0bc1\u0ba4\u0bae\u0bb2\u0bc8 \u0b9a\u0bbe\u0bb2\u0bc8","ref":"SH 167","id":128976266},"arcs":[24]},{"type":"LineString","properties":{"source":"openstreetmap.org","kind":"major_road","name:en":"Irumpanam Railway Over Bridge","sort_rank":380,"kind_detail":"primary","min_zoom":8.0,"id":101555290},"arcs":[25]},{"type":"MultiLineString","properties":{"kind":"major_road","network":"IN:NH","sort_rank":381,"kind_detail":"trunk","source":"openstreetmap.org","min_zoom":8.0,"shield_text":"544","name:ml":"\u0d0e\u0d7b\u0d0e\u0d1a\u0d4d\u0d1a\u0d4d544","osm_relation":true},"arcs":[[26],[27],[28],[29],[30],[31],[32],[33],[34],[35],[36],[37],[38],[39],[40],[41],[42],[43],[44],[45],[46],[47],[48],[49],[50],[51],[52],[53],[54],[55],[56],[57],[58],[59],[60],[61],[62],[63],[64],[65],[66],[67],[68],[69],[70],[71],[72],[73],[74],[75],[76],[77],[78],[79],[80],[81],[82],[83],[84],[85],[86],[87],[88],[89],[90],[91]]},{"type":"LineString","properties":{"source":"openstreetmap.org","kind":"ferry","name":"Wellingdon - Ernakulam Ferry","sort_rank":355,"min_zoom":8.0,"id":84528007},"arcs":[92]},{"type":"LineString","properties":{"kind":"major_road","network":"IN:SH:KL","sort_rank":380,"kind_detail":"primary","source":"openstreetmap.org","min_zoom":8.0,"shield_text":"28","ref":"SH28"},"arcs":[93]},{"type":"LineString","properties":{"kind":"major_road","network":"IN:NH","sort_rank":381,"kind_detail":"trunk","source":"openstreetmap.org","min_zoom":8.0,"landuse_kind":"residential","shield_text":null,"ref":"NH83"},"arcs":[94]},{"type":"LineString","properties":{"kind":"major_road","network":"IN:SH:KL","sort_rank":380,"kind_detail":"primary","is_bicycle_related":true,"source":"openstreetmap.org","min_zoom":8.0,"shield_text":"49","ref":"SH49","id":290136618},"arcs":[95]},{"type":"LineString","properties":{"source":"openstreetmap.org","kind":"ferry","name":"Mattancherry-Wellingdon-Fort Kochi-Ernakulam","sort_rank":355,"min_zoom":8.0,"id":439103640},"arcs":[96]},{"type":"MultiLineString","properties":{"kind":"major_road","network":"IN:NH","sort_rank":381,"landuse_kind":"urban_area","source":"openstreetmap.org","min_zoom":8.0,"kind_detail":"trunk","shield_text":"381","ref":"NH381"},"arcs":[[97],[98],[99],[100]]},{"type":"MultiLineString","properties":{"kind":"major_road","network":"IN:SH:KL","sort_rank":380,"kind_detail":"primary","source":"openstreetmap.org","min_zoom":8.0,"shield_text":"41","ref":"SH41"},"arcs":[[101],[102],[103],[104],[105],[106],[107],[108]]},{"type":"LineString","properties":{"source":"openstreetmap.org","kind":"major_road","network":"IN:SH:KL","sort_rank":380,"kind_detail":"primary","min_zoom":8.0,"shield_text":"8"},"arcs":[109]},{"type":"LineString","properties":{"source":"openstreetmap.org","kind":"major_road","name:en":"Chithrapuzha Bridge","sort_rank":380,"kind_detail":"primary","min_zoom":8.0,"id":101555284},"arcs":[110]},{"type":"LineString","properties":{"kind":"major_road","network":"IN:NH","sort_rank":381,"kind_detail":"trunk","is_bicycle_related":true,"source":"openstreetmap.org","min_zoom":8.0,"shield_text":null,"name:ta":"\u0bae\u0bc7\u0b9f\u0bcd\u0b9f\u0bc1\u0baa\u0bcd\u0baa\u0bbe\u0bb3\u0bc8\u0baf\u0bae\u0bcd \u0bb0\u0bcb\u0b9f\u0bc1","ref":"NH181"},"arcs":[111]},{"type":"MultiLineString","properties":{"kind":"major_road","network":"IN:SH:KL","sort_rank":380,"kind_detail":"primary","source":"openstreetmap.org","min_zoom":8.0,"shield_text":"39","ref":"SH39"},"arcs":[[112],[113]]},{"type":"LineString","properties":{"kind":"major_road","sort_rank":380,"landuse_kind":"urban_area","source":"openstreetmap.org","min_zoom":8.0,"kind_detail":"primary","ref":"SH97","id":77339069},"arcs":[114]},{"type":"LineString","properties":{"source":"openstreetmap.org","kind":"major_road","network":"IN:NH","sort_rank":380,"kind_detail":"primary","min_zoom":8.0,"shield_text":null},"arcs":[115]},{"type":"MultiLineString","properties":{"kind":"major_road","network":"IN:SH:KL","sort_rank":380,"kind_detail":"primary","source":"openstreetmap.org","min_zoom":8.0,"shield_text":"69","ref":"SH69"},"arcs":[[116],[117],[118]]},{"type":"LineString","properties":{"kind":"major_road","network":"IN:NH","sort_rank":381,"kind_detail":"trunk","is_bicycle_related":true,"source":"openstreetmap.org","min_zoom":8.0,"shield_text":"966","id":240502365},"arcs":[119]},{"type":"MultiLineString","properties":{"sort_rank":380,"kind_detail":"primary","min_zoom":8.0,"kind":"major_road","source":"openstreetmap.org"},"arcs":[[120],[121],[122],[123],[124],[125],[126],[127],[128],[129],[130],[131],[132],[133],[134],[135],[136],[137],[138],[139],[140],[141],[142],[143],[144],[145],[146],[147],[148],[149],[150],[151],[152],[153],[154],[155],[156],[157],[158],[159],[160],[161],[162],[163],[164],[165],[166],[167],[168],[169],[170],[171],[172],[173],[174],[175],[176],[177],[178],[179],[180],[181],[182],[183],[184],[185],[186],[187],[188],[189],[190],[191],[192],[193],[194],[195],[196],[197],[198],[199],[200],[201],[202],[203],[204],[205],[206],[207],[208],[209],[210],[211],[212],[213],[214],[215],[216],[217],[218],[219],[220],[221],[222],[223],[224],[225],[226],[227],[228],[229]]},{"type":"MultiLineString","properties":{"source":"openstreetmap.org","kind":"major_road","landuse_kind":"residential","sort_rank":380,"kind_detail":"primary","ref":"SH19","min_zoom":8.0},"arcs":[[230],[231]]},{"type":"LineString","properties":{"source":"openstreetmap.org","kind":"ferry","name":"Ernakulam - Fort Kochi Waterway","sort_rank":355,"landuse_kind":"residential","min_zoom":8.0,"id":243570146},"arcs":[232]},{"type":"MultiLineString","properties":{"source":"openstreetmap.org","kind":"major_road","network":"IN:SH:KL","sort_rank":380,"kind_detail":"primary","min_zoom":8.0,"shield_text":"1"},"arcs":[[233],[234]]},{"type":"MultiLineString","properties":{"source":"openstreetmap.org","kind":"major_road","landuse_kind":"urban_area","sort_rank":380,"kind_detail":"primary","name:ta":"\u0b85\u0bb5\u0bbf\u0ba8\u0bbe\u0b9a\u0bbf \u0b9a\u0bbe\u0bb2\u0bc8","min_zoom":8.0},"arcs":[[235],[236],[237]]},{"type":"LineString","properties":{"kind":"major_road","network":"IN:SH:KL","sort_rank":380,"kind_detail":"primary","is_bicycle_related":true,"source":"openstreetmap.org","min_zoom":8.0,"shield_text":"74","ref":"SH74"},"arcs":[238]},{"type":"MultiLineString","properties":{"source":"openstreetmap.org","kind":"ferry","name":"Kochi - Kalpeni Ferry","sort_rank":355,"min_zoom":8.0,"id":237742761},"arcs":[[239],[240]]},{"type":"LineString","properties":{"kind":"major_road","sort_rank":380,"landuse_kind":"nature_reserve","source":"openstreetmap.org","min_zoom":8.0,"kind_detail":"primary","ref":"SH78","id":30340405},"arcs":[241]},{"type":"LineString","properties":{"kind":"major_road","network":"IN:SH:KL","sort_rank":380,"kind_detail":"primary","is_bicycle_related":true,"source":"openstreetmap.org","min_zoom":8.0,"shield_text":"63","ref":"SH63","id":289338471},"arcs":[242]},{"type":"LineString","properties":{"source":"openstreetmap.org","kind":"major_road","landuse_kind":"urban_area","sort_rank":380,"kind_detail":"primary","ref":"SH164","min_zoom":8.0},"arcs":[243]},{"type":"MultiLineString","properties":{"kind":"major_road","network":"IN:SH:KL","sort_rank":380,"kind_detail":"primary","source":"openstreetmap.org","min_zoom":8.0,"shield_text":"22","ref":"SH22"},"arcs":[[244],[245],[246],[247],[248],[249]]},{"type":"MultiLineString","properties":{"kind":"major_road","network":"IN:SH:KL","sort_rank":380,"kind_detail":"primary","source":"openstreetmap.org","min_zoom":8.0,"shield_text":"40","ref":"SH40"},"arcs":[[250],[251],[252],[253],[254],[255],[256],[257]]},{"type":"LineString","properties":{"kind":"major_road","sort_rank":380,"kind_detail":"primary","source":"openstreetmap.org","min_zoom":8.0,"landuse_kind":"urban_area","name:ta":"\u0bae\u0bb0\u0bc1\u0ba4\u0bae\u0bb2\u0bc8 \u0b9a\u0bbe\u0bb2\u0bc8","ref":"SH 167","id":128976266},"arcs":[258]},{"type":"LineString","properties":{"kind":"major_road","network":"IN:SH:KL","sort_rank":380,"kind_detail":"primary","source":"openstreetmap.org","min_zoom":8.0,"shield_text":"70","ref":"SH70"},"arcs":[259]},{"type":"LineString","properties":{"kind":"major_road","sort_rank":381,"kind_detail":"trunk","is_bicycle_related":true,"source":"openstreetmap.org","min_zoom":8.0,"ref":"NH66","id":540169149},"arcs":[260]},{"type":"LineString","properties":{"source":"openstreetmap.org","kind":"major_road","kind_detail":"trunk","sort_rank":381,"landuse_kind":"urban_area","ref":"NH381","min_zoom":8.0},"arcs":[261]},{"type":"MultiLineString","properties":{"source":"openstreetmap.org","kind":"major_road","sort_rank":381,"kind_detail":"trunk","ref":"NH66","min_zoom":8.0},"arcs":[[262],[263],[264],[265],[266]]},{"type":"LineString","properties":{"kind":"major_road","network":"IN:NH","sort_rank":381,"landuse_kind":"urban_area","source":"openstreetmap.org","min_zoom":8.0,"kind_detail":"trunk","shield_text":null,"name:ta":"\u0b9f\u0bbe\u0b95\u0bcd\u0b9f\u0bb0\u0bcd \u0ba8\u0b9e\u0bcd\u0b9a\u0baa\u0bcd\u0baa\u0bbe \u0b9a\u0bbe\u0bb2\u0bc8","ref":"NH948"},"arcs":[267]},{"type":"MultiLineString","properties":{"source":"openstreetmap.org","kind":"ferry","name":"Kochi - Agatti Island","sort_rank":355,"min_zoom":8.0,"id":84522553},"arcs":[[268],[269]]},{"type":"MultiLineString","properties":{"source":"openstreetmap.org","kind":"major_road","sort_rank":380,"kind_detail":"primary","ref":"SH166","min_zoom":8.0},"arcs":[[270],[271],[272]]},{"type":"LineString","properties":{"source":"openstreetmap.org","kind":"major_road","sort_rank":380,"kind_detail":"primary","ref":"SH39","min_zoom":8.0},"arcs":[273]},{"type":"LineString","properties":{"source":"openstreetmap.org","kind":"ferry","name":"Vyttila - Kakkanad Waterway","sort_rank":355,"min_zoom":8.0,"id":448623232},"arcs":[274]},{"type":"LineString","properties":{"kind":"major_road","network":"IN:SH:KL","sort_rank":381,"kind_detail":"trunk","source":"openstreetmap.org","min_zoom":8.0,"shield_text":"H","ref":"NH66"},"arcs":[275]},{"type":"LineString","properties":{"kind":"major_road","network":"IN:NH","sort_rank":381,"kind_detail":"trunk","source":"openstreetmap.org","min_zoom":8.0,"shield_text":"966","id":387048333},"arcs":[276]},{"type":"MultiLineString","properties":{"kind":"major_road","network":"IN:NH","sort_rank":381,"kind_detail":"trunk","source":"openstreetmap.org","min_zoom":8.0,"shield_text":null,"ref":"NH948"},"arcs":[[277],[278]]},{"type":"MultiLineString","properties":{"source":"openstreetmap.org","kind":"ferry","name":"Mattancherry-Wellingdon-Fort Kochi-Ernakulam","sort_rank":355,"landuse_kind":"residential","min_zoom":8.0,"id":439103640},"arcs":[[279],[280]]},{"type":"LineString","properties":{"source":"openstreetmap.org","kind":"major_road","sort_rank":380,"kind_detail":"primary","ref":"SH162","min_zoom":8.0,"id":91014323},"arcs":[281]},{"type":"MultiLineString","properties":{"kind":"major_road","network":"IN:SH:KL","sort_rank":380,"kind_detail":"primary","is_bicycle_related":true,"source":"openstreetmap.org","min_zoom":8.0,"shield_text":"28","ref":"SH28"},"arcs":[[282],[283],[284]]},{"type":"MultiLineString","properties":{"source":"openstreetmap.org","kind":"major_road","sort_rank":381,"kind_detail":"trunk","ref":"NH544","min_zoom":8.0},"arcs":[[285],[286]]},{"type":"LineString","properties":{"kind":"major_road","network":"IN:NH","sort_rank":381,"kind_detail":"trunk","is_bicycle_related":true,"source":"openstreetmap.org","min_zoom":8.0,"landuse_kind":"urban_area","shield_text":null,"name:ta":"\u0bae\u0bc7\u0b9f\u0bcd\u0b9f\u0bc1\u0baa\u0bcd\u0baa\u0bbe\u0bb3\u0bc8\u0baf\u0bae\u0bcd \u0b9a\u0bbe\u0bb2\u0bc8","ref":"NH181","id":28085976},"arcs":[287]},{"type":"LineString","properties":{"kind":"major_road","network":"IN:SH:KL","sort_rank":380,"kind_detail":"primary","is_bicycle_related":true,"source":"openstreetmap.org","min_zoom":8.0,"shield_text":"69","ref":"SH69","id":380050199},"arcs":[288]},{"type":"LineString","properties":{"kind":"major_road","network":"IN:NH","sort_rank":381,"kind_detail":"trunk","source":"openstreetmap.org","min_zoom":8.0,"shield_text":null,"ref":"NH 183"},"arcs":[289]},{"type":"MultiLineString","properties":{"sort_rank":355,"landuse_kind":"residential","min_zoom":8.0,"kind":"ferry","source":"openstreetmap.org"},"arcs":[[290],[291],[292],[293]]},{"type":"MultiLineString","properties":{"kind":"major_road","network":"IN:SH:KL","sort_rank":380,"kind_detail":"primary","is_bicycle_related":true,"source":"openstreetmap.org","min_zoom":8.0,"shield_text":"77","ref":"SH77"},"arcs":[[294],[295]]},{"type":"LineString","properties":{"kind":"major_road","network":"IN:NH","sort_rank":381,"kind_detail":"trunk","source":"openstreetmap.org","min_zoom":8.0,"shield_text":null,"ref":"NH49","id":284840776},"arcs":[296]},{"type":"MultiLineString","properties":{"sort_rank":355,"source":"openstreetmap.org","min_zoom":8.0,"name":"Kiltan - Kochi Ferry","kind":"ferry"},"arcs":[[297],[298]]},{"type":"MultiLineString","properties":{"source":"openstreetmap.org","kind":"major_road","sort_rank":380,"kind_detail":"primary","ref":"SH165","min_zoom":8.0},"arcs":[[299],[300]]},{"type":"LineString","properties":{"kind":"major_road","network":"IN:NH","sort_rank":381,"kind_detail":"trunk","source":"openstreetmap.org","min_zoom":8.0,"shield_text":null,"ref":"NH181","id":28085946},"arcs":[301]},{"type":"LineString","properties":{"kind":"major_road","network":"IN:NH","sort_rank":381,"kind_detail":"trunk","source":"openstreetmap.org","min_zoom":8.0,"shield_text":"185","ref":"NH185"},"arcs":[302]},{"type":"LineString","properties":{"source":"openstreetmap.org","kind":"major_road","sort_rank":380,"kind_detail":"primary","ref":"SH 167","min_zoom":8.0,"id":128976268},"arcs":[303]},{"type":"MultiLineString","properties":{"kind":"major_road","network":"IN:NH","sort_rank":381,"landuse_kind":"urban_area","source":"openstreetmap.org","min_zoom":8.0,"kind_detail":"trunk","shield_text":null,"ref":"NH181"},"arcs":[[304],[305],[306]]},{"type":"LineString","properties":{"source":"openstreetmap.org","kind":"major_road","landuse_kind":"urban_area","sort_rank":380,"kind_detail":"primary","ref":"SH169","min_zoom":8.0},"arcs":[307]},{"type":"LineString","properties":{"kind":"major_road","network":"IN:SH:KL","sort_rank":380,"kind_detail":"primary","source":"openstreetmap.org","min_zoom":8.0,"shield_text":"18","ref":"SH18"},"arcs":[308]},{"type":"LineString","properties":{"kind":"major_road","network":"IN:SH:KL","sort_rank":380,"kind_detail":"primary","source":"openstreetmap.org","min_zoom":8.0,"shield_text":"42","id":397423367},"arcs":[309]},{"type":"LineString","properties":{"kind":"major_road","network":"IN:NH","sort_rank":381,"kind_detail":"trunk","source":"openstreetmap.org","min_zoom":8.0,"shield_text":"381","ref":"NH381"},"arcs":[310]},{"type":"LineString","properties":{"kind":"major_road","network":"IN:SH:KL","sort_rank":380,"kind_detail":"primary","is_bicycle_related":true,"source":"openstreetmap.org","min_zoom":8.0,"shield_text":"58","ref":"SH58"},"arcs":[311]},{"type":"LineString","properties":{"kind":"major_road","sort_rank":380,"landuse_kind":"urban_area","source":"openstreetmap.org","min_zoom":8.0,"kind_detail":"primary","ref":"SH 196","id":84621225},"arcs":[312]},{"type":"LineString","properties":{"kind":"major_road","sort_rank":380,"kind_detail":"primary","is_bicycle_related":true,"source":"openstreetmap.org","min_zoom":8.0,"ref":"SH22","id":100436541},"arcs":[313]},{"type":"MultiLineString","properties":{"kind":"major_road","network":"IN:SH:KL","sort_rank":380,"kind_detail":"primary","is_bicycle_related":true,"source":"openstreetmap.org","min_zoom":8.0,"shield_text":"H"},"arcs":[[314],[315],[316]]},{"type":"LineString","properties":{"kind":"major_road","network":"IN:NH","sort_rank":381,"kind_detail":"trunk","source":"openstreetmap.org","min_zoom":8.0,"shield_text":"81","osm_relation":true},"arcs":[317]},{"type":"LineString","properties":{"kind":"major_road","network":"IN:SH:KL","sort_rank":380,"kind_detail":"primary","is_bicycle_related":true,"source":"openstreetmap.org","min_zoom":8.0,"shield_text":"52","ref":"SH52"},"arcs":[318]},{"type":"LineString","properties":{"kind":"major_road","name:en":"Wadakkancherry road","network":"IN:SH:KL","sort_rank":380,"kind_detail":"primary","source":"openstreetmap.org","min_zoom":8.0,"shield_text":"76","ref":"SH76"},"arcs":[319]},{"type":"LineString","properties":{"kind":"major_road","network":"IN:NH","sort_rank":381,"kind_detail":"trunk","is_bicycle_related":true,"source":"openstreetmap.org","min_zoom":8.0,"shield_text":"544","ref":"NH47","id":273653405},"arcs":[320]},{"type":"MultiLineString","properties":{"kind":"major_road","network":"IN:SH:KL","sort_rank":380,"kind_detail":"primary","source":"openstreetmap.org","min_zoom":8.0,"landuse_kind":"urban_area","shield_text":"22","ref":"SH22"},"arcs":[[321],[322],[323]]},{"type":"MultiLineString","properties":{"source":"openstreetmap.org","kind":"major_road","sort_rank":380,"kind_detail":"primary","ref":"SH78","min_zoom":8.0},"arcs":[[324],[325]]},{"type":"LineString","properties":{"kind":"major_road","network":"IN:NH","sort_rank":381,"kind_detail":"trunk","source":"openstreetmap.org","min_zoom":8.0,"landuse_kind":"urban_area","shield_text":null,"id":356926581},"arcs":[326]},{"type":"LineString","properties":{"kind":"major_road","network":"IN:SH:KL","sort_rank":380,"kind_detail":"primary","is_bicycle_related":true,"source":"openstreetmap.org","min_zoom":8.0,"shield_text":"50","ref":"SH50"},"arcs":[327]},{"type":"LineString","properties":{"kind":"major_road","network":"IN:NH","sort_rank":381,"landuse_kind":"urban_area","source":"openstreetmap.org","min_zoom":8.0,"kind_detail":"trunk","shield_text":null,"ref":"NH948;181"},"arcs":[328]},{"type":"LineString","properties":{"kind":"major_road","network":"IN:SH:KL","sort_rank":380,"kind_detail":"primary","source":"openstreetmap.org","min_zoom":8.0,"shield_text":"17","ref":"SH17"},"arcs":[329]},{"type":"LineString","properties":{"kind":"major_road","sort_rank":380,"kind_detail":"primary","source":"openstreetmap.org","min_zoom":8.0,"landuse_kind":"urban_area","name:ta":"\u0ba4\u0b9f\u0bbe\u0b95\u0bae\u0bcd \u0b9a\u0bbe\u0bb2\u0bc8","ref":"SH164","id":30919046},"arcs":[330]},{"type":"MultiLineString","properties":{"kind":"major_road","network":"IN:NH","sort_rank":381,"kind_detail":"trunk","is_bicycle_related":true,"cycleway":"lane","source":"openstreetmap.org","min_zoom":8.0,"shield_text":null,"ref":"NH544"},"arcs":[[331],[332],[333],[334],[335],[336],[337],[338],[339],[340],[341],[342],[343],[344]]},{"type":"LineString","properties":{"kind":"major_road","network":"IN:SH:KL","sort_rank":381,"kind_detail":"trunk","source":"openstreetmap.org","min_zoom":8.0,"shield_text":"H","id":382196384},"arcs":[345]},{"type":"LineString","properties":{"kind":"major_road","network":"IN:NH","sort_rank":381,"kind_detail":"trunk","source":"openstreetmap.org","min_zoom":8.0,"shield_text":null,"name:ml":"\u0d38\u0d47\u0d32\u0d02-\u0d15\u0d4a\u0d1a\u0d4d\u0d1a\u0d3f-\u0d15\u0d28\u0d4d\u0d2f\u0d3e\u0d15\u0d4d\u0d15\u0d41\u0d2e\u0d3e\u0d30\u0d3f \u0d39\u0d48\u0d35\u0d47","ref":"NH544","id":254131377},"arcs":[346]},{"type":"LineString","properties":{"kind":"major_road","network":"IN:SH:KL","sort_rank":380,"kind_detail":"primary","is_bicycle_related":true,"source":"openstreetmap.org","min_zoom":8.0,"shield_text":"71","ref":"SH71","id":381689700},"arcs":[347]},{"type":"LineString","properties":{"kind":"major_road","network":"IN:NH","sort_rank":381,"kind_detail":"trunk","is_bicycle_related":true,"source":"openstreetmap.org","min_zoom":8.0,"shield_text":null,"name:ta":"\u0b9a\u0ba4\u0bcd\u0ba4\u0bbf\u0baf\u0bae\u0b99\u0bcd\u0b95\u0bb2\u0bae\u0bcd \u0b9a\u0bbe\u0bb2\u0bc8","ref":"NH948","id":155818687},"arcs":[348]},{"type":"LineString","properties":{"kind":"major_road","network":"IN:NH","sort_rank":380,"kind_detail":"primary","is_bicycle_related":true,"source":"openstreetmap.org","min_zoom":8.0,"shield_text":null},"arcs":[349]},{"type":"LineString","properties":{"kind":"major_road","network":"IN:SH:KL","sort_rank":380,"kind_detail":"primary","source":"openstreetmap.org","min_zoom":8.0,"shield_text":"75","ref":"SH75","id":290195121},"arcs":[350]},{"type":"MultiLineString","properties":{"kind":"major_road","network":"IN:SH:KL","sort_rank":380,"kind_detail":"primary","source":"openstreetmap.org","min_zoom":8.0,"shield_text":"71","ref":"SH71"},"arcs":[[351],[352],[353],[354],[355]]},{"type":"LineString","properties":{"kind":"major_road","network":"IN:NH","sort_rank":381,"kind_detail":"trunk","is_bicycle_related":true,"source":"openstreetmap.org","min_zoom":8.0,"shield_text":"544","ref":"NH544","id":203608574},"arcs":[356]},{"type":"LineString","properties":{"kind":"major_road","network":"IN:SH:KL","sort_rank":380,"kind_detail":"primary","is_bicycle_related":true,"source":"openstreetmap.org","min_zoom":8.0,"shield_text":"51","ref":"SH51","id":289982380},"arcs":[357]},{"type":"MultiLineString","properties":{"source":"openstreetmap.org","kind":"major_road","sort_rank":380,"kind_detail":"primary","ref":"MDR","min_zoom":8.0},"arcs":[[358],[359]]},{"type":"LineString","properties":{"source":"openstreetmap.org","kind":"ferry","name":"Kochi - Minicoy Island","sort_rank":355,"landuse_kind":"residential","min_zoom":8.0,"id":84522588},"arcs":[360]},{"type":"LineString","properties":{"kind":"major_road","network":"IN:SH:KL","sort_rank":380,"kind_detail":"primary","source":"openstreetmap.org","min_zoom":8.0,"landuse_kind":"residential","shield_text":"66","ref":"SH66","id":97248957},"arcs":[361]},{"type":"LineString","properties":{"kind":"major_road","network":"IN:NH","sort_rank":380,"kind_detail":"primary","is_bicycle_related":true,"source":"openstreetmap.org","min_zoom":8.0,"shield_text":null,"ref":"NH66","id":272363652},"arcs":[362]},{"type":"MultiLineString","properties":{"kind":"major_road","network":"IN:SH:KL","sort_rank":380,"kind_detail":"primary","source":"openstreetmap.org","min_zoom":8.0,"shield_text":"62","ref":"SH62"},"arcs":[[363],[364],[365],[366],[367]]},{"type":"LineString","properties":{"kind":"major_road","network":"IN:SH:KL","sort_rank":380,"kind_detail":"primary","is_bicycle_related":true,"source":"openstreetmap.org","min_zoom":8.0,"shield_text":"73","ref":"SH73","id":157811321},"arcs":[368]},{"type":"MultiLineString","properties":{"kind":"major_road","network":"IN:NH","sort_rank":380,"kind_detail":"primary","source":"openstreetmap.org","min_zoom":8.0,"landuse_kind":"urban_area","shield_text":null},"arcs":[[369],[370]]},{"type":"MultiLineString","properties":{"kind":"major_road","network":"IN:NH","sort_rank":381,"landuse_kind":"urban_area","source":"openstreetmap.org","min_zoom":8.0,"kind_detail":"trunk","shield_text":"181"},"arcs":[[371],[372],[373],[374]]},{"type":"LineString","properties":{"kind":"major_road","network":"IN:SH:KL","sort_rank":380,"kind_detail":"primary","source":"openstreetmap.org","min_zoom":8.0,"shield_text":"19","ref":"SH19"},"arcs":[375]},{"type":"LineString","properties":{"kind":"major_road","network":"IN:NH","sort_rank":381,"kind_detail":"trunk","source":"openstreetmap.org","min_zoom":8.0,"landuse_kind":"urban_area","shield_text":null,"ref":"NH948;NH181","id":26321627},"arcs":[376]},{"type":"MultiLineString","properties":{"kind":"major_road","network":"IN:SH:KL","sort_rank":380,"kind_detail":"primary","source":"openstreetmap.org","min_zoom":8.0,"shield_text":"51","ref":"SH51"},"arcs":[[377],[378],[379]]},{"type":"MultiLineString","properties":{"source":"openstreetmap.org","kind":"major_road","landuse_kind":"urban_area","sort_rank":380,"kind_detail":"primary","name:ta":"\u0baa\u0bbe\u0bb0\u0ba4\u0bbf\u0baf\u0bbe\u0bb0\u0bcd \u0b9a\u0bbe\u0bb2\u0bc8","min_zoom":8.0},"arcs":[[380],[381],[382],[383]]},{"type":"MultiLineString","properties":{"kind":"major_road","network":"IN:NH","sort_rank":381,"landuse_kind":"urban_area","source":"openstreetmap.org","min_zoom":8.0,"kind_detail":"trunk","shield_text":null,"ref":"NH83"},"arcs":[[384],[385],[386],[387]]},{"type":"LineString","properties":{"kind":"major_road","network":"IN:SH:KL","sort_rank":380,"kind_detail":"primary","is_bicycle_related":true,"source":"openstreetmap.org","min_zoom":8.0,"shield_text":"27","ref":"SH27"},"arcs":[388]},{"type":"LineString","properties":{"kind":"major_road","network":"IN:SH:KL","sort_rank":380,"kind_detail":"primary","is_bicycle_related":true,"source":"openstreetmap.org","min_zoom":8.0,"landuse_kind":"urban_area","shield_text":"69","ref":"SH69","id":237647298},"arcs":[389]},{"type":"MultiLineString","properties":{"kind":"major_road","network":"IN:SH:KL","sort_rank":380,"kind_detail":"primary","source":"openstreetmap.org","min_zoom":8.0,"shield_text":"33","ref":"SH33"},"arcs":[[390],[391]]},{"type":"MultiLineString","properties":{"kind":"major_road","network":"IN:SH:KL","sort_rank":380,"kind_detail":"primary","source":"openstreetmap.org","min_zoom":8.0,"shield_text":"23","ref":"SH23"},"arcs":[[392],[393]]},{"type":"MultiLineString","properties":{"source":"openstreetmap.org","kind":"major_road","sort_rank":380,"kind_detail":"primary","is_bicycle_related":true,"min_zoom":8.0},"arcs":[[394],[395],[396]]},{"type":"MultiLineString","properties":{"kind":"major_road","network":"IN:SH:KL","sort_rank":380,"kind_detail":"primary","source":"openstreetmap.org","min_zoom":8.0,"shield_text":"H","name:ml":"\u0d35\u0d3f\u0d15\u0d4d\u0d30\u0d3e\u0d28\u0d4d\u0d24\u0d4d - \u0d35\u0d46\u0d23\u0d4d\u0d1f\u0d41\u0d30\u0d41\u0d24\u0d4d\u0d24\u0d3f \u0d2a\u0d3e\u0d32\u0d02"},"arcs":[[397],[398]]},{"type":"LineString","properties":{"source":"openstreetmap.org","kind":"major_road","landuse_kind":"nature_reserve","sort_rank":380,"kind_detail":"primary","min_zoom":8.0,"id":208287790},"arcs":[399]},{"type":"MultiLineString","properties":{"source":"openstreetmap.org","kind":"major_road","sort_rank":381,"kind_detail":"trunk","is_bicycle_related":true,"min_zoom":8.0},"arcs":[[400],[401],[402]]},{"type":"MultiLineString","properties":{"kind":"major_road","network":"IN:SH:KL","sort_rank":380,"kind_detail":"primary","is_bicycle_related":true,"source":"openstreetmap.org","min_zoom":8.0,"shield_text":"22","ref":"SH22"},"arcs":[[403],[404]]},{"type":"MultiLineString","properties":{"source":"openstreetmap.org","kind":"major_road","landuse_kind":"urban_area","sort_rank":380,"kind_detail":"primary","ref":"SH19","min_zoom":8.0},"arcs":[[405],[406]]},{"type":"LineString","properties":{"kind":"major_road","network":"IN:NH","sort_rank":380,"kind_detail":"primary","is_bicycle_related":true,"source":"openstreetmap.org","min_zoom":8.0,"shield_text":"966A","ref":"NH966A","id":255220638},"arcs":[407]},{"type":"MultiLineString","properties":{"kind":"major_road","network":"IN:NH","sort_rank":381,"kind_detail":"trunk","source":"openstreetmap.org","min_zoom":8.0,"shield_text":null,"ref":"NH966B"},"arcs":[[408],[409],[410],[411]]},{"type":"MultiLineString","properties":{"source":"openstreetmap.org","kind":"major_road","sort_rank":380,"kind_detail":"primary","ref":"SH 100","min_zoom":8.0},"arcs":[[412],[413],[414],[415]]},{"type":"MultiLineString","properties":{"kind":"major_road","network":"IN:SH:KL","sort_rank":380,"kind_detail":"primary","is_bicycle_related":true,"source":"openstreetmap.org","min_zoom":8.0,"landuse_kind":"urban_area","shield_text":"H"},"arcs":[[416],[417]]},{"type":"MultiLineString","properties":{"kind":"major_road","network":"IN:SH:KL","sort_rank":380,"kind_detail":"primary","source":"openstreetmap.org","min_zoom":8.0,"shield_text":"15","ref":"SH15"},"arcs":[[418],[419],[420],[421],[422],[423],[424],[425]]},{"type":"LineString","properties":{"source":"openstreetmap.org","kind":"major_road","sort_rank":380,"kind_detail":"primary","ref":"SH51","min_zoom":8.0,"id":289965802},"arcs":[426]},{"type":"LineString","properties":{"kind":"major_road","network":"IN:NH","sort_rank":381,"kind_detail":"trunk","source":"openstreetmap.org","min_zoom":8.0,"shield_text":null,"ref":"NH67"},"arcs":[427]},{"type":"MultiLineString","properties":{"sort_rank":381,"source":"openstreetmap.org","min_zoom":8.0,"kind":"major_road","kind_detail":"trunk"},"arcs":[[428],[429],[430],[431],[432],[433],[434],[435],[436],[437],[438],[439],[440],[441],[442],[443],[444],[445],[446],[447],[448],[449],[450],[451],[452],[453],[454],[455],[456],[457],[458],[459],[460],[461],[462],[463],[464],[465],[466],[467],[468],[469],[470],[471],[472],[473],[474],[475],[476]]},{"type":"MultiLineString","properties":{"source":"openstreetmap.org","kind":"major_road","sort_rank":380,"kind_detail":"primary","ref":"SH 17","min_zoom":8.0},"arcs":[[477],[478]]},{"type":"LineString","properties":{"kind":"major_road","network":"IN:SH:KL","sort_rank":380,"kind_detail":"primary","source":"openstreetmap.org","min_zoom":8.0,"shield_text":"23","id":289038722},"arcs":[479]},{"type":"MultiLineString","properties":{"kind":"major_road","network":"IN:SH:KL","sort_rank":380,"kind_detail":"primary","source":"openstreetmap.org","min_zoom":8.0,"shield_text":"1","ref":"SH1"},"arcs":[[480],[481],[482],[483],[484],[485],[486],[487],[488],[489],[490]]},{"type":"MultiLineString","properties":{"sort_rank":355,"source":"openstreetmap.org","min_zoom":8.0,"kind":"ferry"},"arcs":[[491],[492],[493],[494]]},{"type":"LineString","properties":{"source":"openstreetmap.org","kind":"major_road","sort_rank":380,"kind_detail":"primary","name:ta":"\u0b85\u0bb5\u0bbf\u0ba8\u0bbe\u0b9a\u0bbf \u0b9a\u0bbe\u0bb2\u0bc8","min_zoom":8.0,"id":48846711},"arcs":[495]},{"type":"LineString","properties":{"kind":"major_road","network":"IN:SH:KL","sort_rank":380,"kind_detail":"primary","is_bicycle_related":true,"source":"openstreetmap.org","min_zoom":8.0,"shield_text":"41","ref":"SH41","id":383254695},"arcs":[496]},{"type":"MultiLineString","properties":{"kind":"major_road","network":"IN:NH","sort_rank":381,"kind_detail":"trunk","is_bicycle_related":true,"source":"openstreetmap.org","min_zoom":8.0,"shield_text":null,"ref":"NH544"},"arcs":[[497],[498],[499],[500],[501],[502],[503],[504],[505],[506],[507],[508],[509],[510],[511],[512]]},{"type":"MultiLineString","properties":{"kind":"major_road","network":"IN:SH:KL","sort_rank":380,"kind_detail":"primary","source":"openstreetmap.org","min_zoom":8.0,"landuse_kind":"urban_area","shield_text":"69","ref":"SH69"},"arcs":[[513],[514],[515],[516],[517]]},{"type":"MultiLineString","properties":{"kind":"major_road","network":"IN:SH:KL","sort_rank":380,"kind_detail":"primary","source":"openstreetmap.org","min_zoom":8.0,"shield_text":"44","ref":"SH44"},"arcs":[[518],[519],[520],[521],[522],[523],[524],[525],[526],[527],[528]]},{"type":"MultiLineString","properties":{"source":"openstreetmap.org","kind":"major_road","network":"IN:NH","sort_rank":381,"kind_detail":"trunk","min_zoom":8.0,"shield_text":"966A"},"arcs":[[529],[530]]},{"type":"LineString","properties":{"source":"openstreetmap.org","kind":"ferry","name":"Ernakulam - Fort Kochi Waterway","sort_rank":355,"min_zoom":8.0,"id":243570146},"arcs":[531]},{"type":"MultiLineString","properties":{"kind":"major_road","network":"IN:SH:KL","sort_rank":380,"kind_detail":"primary","source":"openstreetmap.org","min_zoom":8.0,"shield_text":"61","ref":"SH61"},"arcs":[[532],[533]]},{"type":"MultiLineString","properties":{"source":"openstreetmap.org","kind":"major_road","network":"IN:SH:KL","sort_rank":380,"kind_detail":"primary","min_zoom":8.0,"shield_text":"H"},"arcs":[[534],[535],[536],[537],[538],[539],[540],[541],[542],[543],[544],[545],[546],[547],[548],[549],[550],[551],[552],[553],[554],[555],[556],[557],[558],[559],[560],[561]]},{"type":"MultiLineString","properties":{"kind":"major_road","network":"IN:SH:KL","sort_rank":380,"kind_detail":"primary","source":"openstreetmap.org","min_zoom":8.0,"shield_text":"43","ref":"SH43"},"arcs":[[562],[563],[564]]},{"type":"MultiLineString","properties":{"kind":"major_road","network":"IN:SH:KL","sort_rank":380,"kind_detail":"primary","source":"openstreetmap.org","min_zoom":8.0,"shield_text":"73","ref":"SH73"},"arcs":[[565],[566]]},{"type":"LineString","properties":{"kind":"major_road","network":"IN:SH:KL","sort_rank":380,"kind_detail":"primary","source":"openstreetmap.org","min_zoom":8.0,"landuse_kind":"residential","shield_text":"H"},"arcs":[567]},{"type":"LineString","properties":{"kind":"major_road","sort_rank":381,"kind_detail":"trunk","source":"openstreetmap.org","min_zoom":8.0,"name:ml":"\u0d0e\u0d7b\u0d0e\u0d1a\u0d4d\u0d1a\u0d4d47","ref":"NH47A","id":254808243},"arcs":[568]},{"type":"LineString","properties":{"source":"openstreetmap.org","kind":"major_road","sort_rank":380,"kind_detail":"primary","ref":"SH97","min_zoom":8.0},"arcs":[569]},{"type":"MultiLineString","properties":{"source":"openstreetmap.org","kind":"major_road","kind_detail":"trunk","sort_rank":381,"landuse_kind":"urban_area","min_zoom":8.0},"arcs":[[570],[571],[572],[573],[574],[575]]},{"type":"LineString","properties":{"source":"openstreetmap.org","kind":"ferry","name":"Vypin - Ernakulam Ferry","sort_rank":355,"min_zoom":8.0,"id":84528012},"arcs":[576]},{"type":"MultiLineString","properties":{"kind":"major_road","network":"IN:NH","sort_rank":381,"kind_detail":"trunk","source":"openstreetmap.org","min_zoom":8.0,"shield_text":null,"ref":"NH544"},"arcs":[[577],[578],[579],[580],[581],[582],[583],[584],[585],[586],[587],[588],[589],[590],[591],[592],[593],[594]]},{"type":"MultiLineString","properties":{"source":"openstreetmap.org","kind":"major_road","landuse_kind":"residential","sort_rank":380,"kind_detail":"primary","min_zoom":8.0},"arcs":[[595],[596],[597],[598]]},{"type":"LineString","properties":{"sort_rank":383,"kind_detail":"motorway","min_zoom":8.0,"kind":"highway","source":"openstreetmap.org"},"arcs":[599]},{"type":"LineString","properties":{"kind":"major_road","network":"IN:SH:KL","sort_rank":380,"kind_detail":"primary","is_bicycle_related":true,"source":"openstreetmap.org","min_zoom":8.0,"shield_text":"1","ref":"SH1"},"arcs":[600]},{"type":"MultiLineString","properties":{"kind":"major_road","network":"IN:SH:KL","sort_rank":380,"kind_detail":"primary","source":"openstreetmap.org","min_zoom":8.0,"shield_text":"16","ref":"SH16"},"arcs":[[601],[602],[603],[604],[605],[606],[607],[608],[609],[610]]},{"type":"MultiLineString","properties":{"source":"openstreetmap.org","kind":"major_road","landuse_kind":"urban_area","sort_rank":380,"kind_detail":"primary","name:ta":"100 \u0b85\u0b9f\u0bbf \u0b9a\u0bbe\u0bb2\u0bc8","min_zoom":8.0},"arcs":[[611],[612]]},{"type":"LineString","properties":{"kind":"major_road","sort_rank":380,"kind_detail":"primary","is_bicycle_related":true,"source":"openstreetmap.org","min_zoom":8.0,"ref":"SH62","id":290146676},"arcs":[613]},{"type":"LineString","properties":{"kind":"major_road","network":"IN:NH","sort_rank":381,"kind_detail":"trunk","source":"openstreetmap.org","min_zoom":8.0,"shield_text":null,"name:ml":"\u0d0e\u0d7b\u0d0e\u0d1a\u0d4d\u0d1a\u0d4d85","ref":"NH85"},"arcs":[614]},{"type":"LineString","properties":{"kind":"major_road","network":"IN:SH:KL","sort_rank":380,"kind_detail":"primary","is_bicycle_related":true,"source":"openstreetmap.org","min_zoom":8.0,"shield_text":"72","ref":"SH72","id":31770816},"arcs":[615]},{"type":"MultiLineString","properties":{"kind":"major_road","network":"IN:NH","sort_rank":381,"kind_detail":"trunk","source":"openstreetmap.org","min_zoom":8.0,"shield_text":null,"ref":"NH66"},"arcs":[[616],[617],[618],[619],[620],[621],[622],[623],[624],[625],[626],[627],[628]]},{"type":"LineString","properties":{"source":"openstreetmap.org","kind":"ferry","name":"Kochi - Agatti Island","sort_rank":355,"landuse_kind":"residential","min_zoom":8.0,"id":84522553},"arcs":[629]},{"type":"LineString","properties":{"source":"openstreetmap.org","kind":"ferry","name":"Kochi - Kalpeni Ferry","sort_rank":355,"landuse_kind":"residential","min_zoom":8.0,"id":237742761},"arcs":[630]},{"type":"MultiLineString","properties":{"kind":"major_road","network":"IN:SH:KL","sort_rank":380,"kind_detail":"primary","source":"openstreetmap.org","min_zoom":8.0,"shield_text":"65","ref":"SH65"},"arcs":[[631],[632]]},{"type":"LineString","properties":{"kind":"major_road","network":"IN:NH","sort_rank":381,"landuse_kind":"urban_area","source":"openstreetmap.org","min_zoom":8.0,"kind_detail":"trunk","shield_text":"181","name:ta":"\u0bae\u0bc7\u0b9f\u0bcd\u0b9f\u0bc1\u0baa\u0bcd\u0baa\u0bbe\u0bb3\u0bc8\u0baf\u0bae\u0bcd \u0b9a\u0bbe\u0bb2\u0bc8","ref":"NH181"},"arcs":[633]},{"type":"LineString","properties":{"source":"openstreetmap.org","kind":"major_road","sort_rank":380,"kind_detail":"primary","ref":"SH164","min_zoom":8.0,"id":66127653},"arcs":[634]},{"type":"MultiLineString","properties":{"kind":"major_road","network":"IN:SH:KL","sort_rank":380,"kind_detail":"primary","source":"openstreetmap.org","min_zoom":8.0,"shield_text":"8","ref":"SH8"},"arcs":[[635],[636],[637],[638],[639]]},{"type":"LineString","properties":{"source":"openstreetmap.org","kind":"major_road","sort_rank":380,"kind_detail":"primary","ref":"SH 102","min_zoom":8.0,"id":350012059},"arcs":[640]},{"type":"LineString","properties":{"kind":"major_road","network":"IN:NH","sort_rank":381,"kind_detail":"trunk","is_bicycle_related":true,"source":"openstreetmap.org","min_zoom":8.0,"shield_text":null,"name:ta":"\u0bae\u0bc7\u0b9f\u0bcd\u0b9f\u0bc1\u0baa\u0bcd\u0baa\u0bbe\u0bb3\u0bc8\u0baf\u0bae\u0bcd \u0b9a\u0bbe\u0bb2\u0bc8","ref":"NH181","id":28085976},"arcs":[641]},{"type":"LineString","properties":{"kind":"major_road","network":"IN:NH","sort_rank":381,"kind_detail":"trunk","is_bicycle_related":true,"source":"openstreetmap.org","min_zoom":8.0,"landuse_kind":"urban_area","shield_text":null,"ref":"NH948","id":134137176},"arcs":[642]},{"type":"MultiLineString","properties":{"kind":"major_road","name:en":"Goshree Bridge","network":"IN:NH","sort_rank":381,"kind_detail":"trunk","source":"openstreetmap.org","min_zoom":8.0,"shield_text":"966A","ref":"NH966A"},"arcs":[[643],[644],[645]]},{"type":"MultiLineString","properties":{"source":"openstreetmap.org","kind":"major_road","sort_rank":380,"kind_detail":"primary","ref":"SH19","min_zoom":8.0},"arcs":[[646],[647],[648]]},{"type":"LineString","properties":{"kind":"major_road","network":"IN:NH","sort_rank":381,"kind_detail":"trunk","source":"openstreetmap.org","min_zoom":8.0,"shield_text":null,"ref":"NH81"},"arcs":[649]},{"type":"LineString","properties":{"kind":"major_road","network":"IN:SH:KL","sort_rank":380,"kind_detail":"primary","source":"openstreetmap.org","min_zoom":8.0,"shield_text":"59","ref":"SH59"},"arcs":[650]},{"type":"LineString","properties":{"kind":"major_road","network":"IN:SH:KL","sort_rank":380,"kind_detail":"primary","source":"openstreetmap.org","min_zoom":8.0,"shield_text":"21","ref":"SH21"},"arcs":[651]},{"type":"MultiLineString","properties":{"source":"openstreetmap.org","kind":"ferry","name":"Kochi - Minicoy Island","sort_rank":355,"min_zoom":8.0,"id":84522588},"arcs":[[652],[653]]},{"type":"LineString","properties":{"kind":"major_road","network":"IN:SH:KL","sort_rank":380,"kind_detail":"primary","source":"openstreetmap.org","min_zoom":8.0,"shield_text":"72","ref":"SH72","id":24827252},"arcs":[654]},{"type":"LineString","properties":{"kind":"major_road","network":"IN:SH:KL","sort_rank":380,"kind_detail":"primary","is_bicycle_related":true,"source":"openstreetmap.org","min_zoom":8.0,"shield_text":"75","ref":"SH75"},"arcs":[655]},{"type":"LineString","properties":{"source":"openstreetmap.org","kind":"major_road","sort_rank":380,"kind_detail":"primary","ref":"SH169","min_zoom":8.0,"id":91014338},"arcs":[656]},{"type":"LineString","properties":{"source":"openstreetmap.org","kind":"ferry","name":"Kiltan - Kochi Ferry","sort_rank":355,"landuse_kind":"residential","min_zoom":8.0,"id":237742621},"arcs":[657]},{"type":"LineString","properties":{"source":"openstreetmap.org","kind":"major_road","sort_rank":380,"kind_detail":"primary","ref":"SH73","min_zoom":8.0,"id":404694748},"arcs":[658]},{"type":"MultiLineString","properties":{"kind":"major_road","network":"IN:NH","sort_rank":381,"kind_detail":"trunk","source":"openstreetmap.org","min_zoom":8.0,"shield_text":"966","ref":"NH966"},"arcs":[[659],[660],[661]]},{"type":"LineString","properties":{"kind":"major_road","sort_rank":380,"kind_detail":"primary","source":"openstreetmap.org","min_zoom":8.0,"name:ta":"\u0ba4\u0b9f\u0bbe\u0b95\u0bae\u0bcd \u0b9a\u0bbe\u0bb2\u0bc8","ref":"SH164","id":30919046},"arcs":[662]},{"type":"MultiLineString","properties":{"kind":"major_road","network":"IN:SH:KL","sort_rank":380,"kind_detail":"primary","source":"openstreetmap.org","min_zoom":8.0,"shield_text":"53","ref":"SH53"},"arcs":[[663],[664]]},{"type":"MultiLineString","properties":{"source":"openstreetmap.org","kind":"major_road","landuse_kind":"urban_area","sort_rank":380,"kind_detail":"primary","min_zoom":8.0},"arcs":[[665],[666],[667],[668],[669],[670],[671],[672],[673],[674],[675],[676],[677],[678],[679],[680],[681],[682],[683],[684],[685],[686],[687],[688],[689],[690],[691],[692],[693],[694],[695],[696],[697],[698],[699],[700],[701],[702],[703],[704],[705],[706],[707],[708],[709],[710],[711],[712],[713],[714],[715],[716],[717],[718],[719],[720],[721],[722],[723],[724],[725],[726],[727],[728],[729],[730],[731],[732],[733],[734],[735],[736],[737],[738],[739],[740]]},{"type":"MultiLineString","properties":{"kind":"major_road","network":"IN:NH","sort_rank":381,"kind_detail":"trunk","source":"openstreetmap.org","min_zoom":8.0,"shield_text":"966A","ref":"NH966A"},"arcs":[[741],[742],[743],[744],[745],[746],[747],[748],[749],[750],[751]]},{"type":"LineString","properties":{"source":"openstreetmap.org","kind":"major_road","sort_rank":380,"kind_detail":"primary","ref":"SH87","min_zoom":8.0,"id":22837285},"arcs":[752]},{"type":"LineString","properties":{"source":"openstreetmap.org","kind":"major_road","sort_rank":380,"kind_detail":"primary","ref":"SH21","min_zoom":8.0},"arcs":[753]},{"type":"MultiLineString","properties":{"kind":"major_road","network":"IN:SH:KL","sort_rank":380,"kind_detail":"primary","source":"openstreetmap.org","min_zoom":8.0,"landuse_kind":"urban_area","shield_text":"H"},"arcs":[[754],[755],[756],[757],[758],[759],[760],[761],[762]]},{"type":"LineString","properties":{"source":"openstreetmap.org","kind":"major_road","sort_rank":380,"kind_detail":"primary","ref":"SH163","min_zoom":8.0},"arcs":[763]},{"type":"LineString","properties":{"kind":"major_road","network":"IN:SH:KL","sort_rank":380,"kind_detail":"primary","source":"openstreetmap.org","min_zoom":8.0,"shield_text":"73","id":43709758},"arcs":[764]},{"type":"MultiLineString","properties":{"kind":"major_road","network":"IN:NH","sort_rank":381,"kind_detail":"trunk","source":"openstreetmap.org","min_zoom":8.0,"shield_text":null,"ref":"NH85"},"arcs":[[765],[766],[767],[768],[769],[770],[771]]},{"type":"MultiLineString","properties":{"kind":"major_road","network":"IN:NH","sort_rank":381,"kind_detail":"trunk","is_bicycle_related":true,"source":"openstreetmap.org","min_zoom":8.0,"shield_text":null,"name:ml":"\u0d15\u0d41\u0d23\u0d4d\u0d1f\u0d28\u0d4d\u0d28\u0d42\u0d7c \u0d2a\u0d3e\u0d32\u0d02","ref":"NH966B"},"arcs":[[772],[773]]},{"type":"MultiLineString","properties":{"kind":"major_road","network":"IN:NH","sort_rank":381,"landuse_kind":"urban_area","source":"openstreetmap.org","min_zoom":8.0,"kind_detail":"trunk","shield_text":null,"ref":"NH948"},"arcs":[[774],[775],[776],[777],[778],[779],[780],[781],[782],[783],[784],[785],[786]]},{"type":"LineString","properties":{"kind":"major_road","network":"IN:NH","sort_rank":381,"landuse_kind":"urban_area","source":"openstreetmap.org","min_zoom":8.0,"kind_detail":"trunk","shield_text":null,"name:ta":"\u0bae\u0bc7\u0b9f\u0bcd\u0b9f\u0bc1\u0baa\u0bcd\u0baa\u0bbe\u0bb3\u0bc8\u0baf\u0bae\u0bcd \u0b9a\u0bbe\u0bb2\u0bc8","ref":"NH181"},"arcs":[787]},{"type":"LineString","properties":{"source":"openstreetmap.org","kind":"major_road","sort_rank":380,"kind_detail":"primary","ref":"SH80","min_zoom":8.0},"arcs":[788]},{"type":"LineString","properties":{"kind":"major_road","network":"IN:NH","sort_rank":381,"landuse_kind":"urban_area","source":"openstreetmap.org","min_zoom":8.0,"kind_detail":"trunk","shield_text":"181","ref":"NH181"},"arcs":[789]},{"type":"MultiLineString","properties":{"kind":"major_road","network":"IN:NH","sort_rank":381,"kind_detail":"trunk","source":"openstreetmap.org","min_zoom":8.0,"shield_text":null,"ref":"NH83"},"arcs":[[790],[791],[792]]},{"type":"MultiLineString","properties":{"kind":"major_road","network":"IN:NH","sort_rank":381,"kind_detail":"trunk","is_bicycle_related":true,"source":"openstreetmap.org","min_zoom":8.0,"shield_text":null,"ref":"NH66"},"arcs":[[793],[794]]},{"type":"LineString","properties":{"source":"openstreetmap.org","kind":"ferry","name":"Kochi - Androth Ferry","sort_rank":355,"landuse_kind":"residential","min_zoom":8.0,"id":84522578},"arcs":[795]},{"type":"MultiLineString","properties":{"kind":"major_road","network":"IN:NH","sort_rank":381,"kind_detail":"trunk","is_bicycle_related":true,"source":"openstreetmap.org","min_zoom":8.0,"shield_text":null,"ref":"NH966B"},"arcs":[[796],[797],[798]]},{"type":"MultiLineString","properties":{"source":"openstreetmap.org","kind":"major_road","sort_rank":380,"kind_detail":"primary","ref":"SH16","min_zoom":8.0},"arcs":[[799],[800]]},{"type":"LineString","properties":{"kind":"major_road","name:en":"Painav - Cheruthoni Road (Idukki Road)","network":"IN:SH:KL","sort_rank":380,"kind_detail":"primary","source":"openstreetmap.org","min_zoom":8.0,"shield_text":"33","ref":"SH33","id":106521926},"arcs":[801]},{"type":"LineString","properties":{"kind":"major_road","network":"IN:SH:KL","sort_rank":380,"kind_detail":"primary","source":"openstreetmap.org","min_zoom":8.0,"landuse_kind":"urban_area","shield_text":"75","ref":"SH75","id":290195121},"arcs":[802]},{"type":"MultiLineString","properties":{"kind":"major_road","network":"IN:NH","sort_rank":381,"landuse_kind":"urban_area","source":"openstreetmap.org","min_zoom":8.0,"kind_detail":"trunk","shield_text":"908","ref":"NH948"},"arcs":[[803],[804],[805]]},{"type":"LineString","properties":{"kind":"major_road","network":"IN:SH:KL","sort_rank":380,"kind_detail":"primary","source":"openstreetmap.org","min_zoom":8.0,"shield_text":"66","ref":"SH66"},"arcs":[806]},{"type":"MultiLineString","properties":{"kind":"major_road","network":"IN:NH","sort_rank":381,"kind_detail":"trunk","is_bicycle_related":true,"source":"openstreetmap.org","min_zoom":8.0,"shield_text":null,"ref":"NH85"},"arcs":[[807],[808]]},{"type":"MultiLineString","properties":{"source":"openstreetmap.org","kind":"major_road","name:ml":"\u0d1a\u0d3e\u0d32\u0d15\u0d4d\u0d15\u0d41\u0d1f\u0d3f-\u0d35\u0d3e\u0d34\u0d1a\u0d4d\u0d1a\u0d3e\u0d7d-\u0d37\u0d4b\u0d33\u0d2f\u0d3e\u0d7c-\u0d35\u0d3e\u0d7e\u0d2a\u0d4d\u0d2a\u0d3e\u0d31","sort_rank":380,"kind_detail":"primary","min_zoom":8.0},"arcs":[[809],[810]]},{"type":"LineString","properties":{"kind":"major_road","sort_rank":381,"kind_detail":"trunk","source":"openstreetmap.org","min_zoom":8.0,"name:ml":"\u0d0e\u0d7b\u0d0e\u0d1a\u0d4d\u0d1a\u0d4d49","ref":"NH49","id":288780544},"arcs":[811]},{"type":"LineString","properties":{"kind":"major_road","network":"IN:NH:TN","sort_rank":381,"kind_detail":"trunk","source":"openstreetmap.org","min_zoom":8.0,"landuse_kind":"urban_area","shield_text":"181","id":456067753},"arcs":[812]},{"type":"MultiLineString","properties":{"kind":"major_road","network":"IN:SH:KL","sort_rank":380,"kind_detail":"primary","source":"openstreetmap.org","min_zoom":8.0,"shield_text":"42","ref":"SH42"},"arcs":[[813],[814],[815],[816],[817],[818],[819],[820]]},{"type":"LineString","properties":{"kind":"major_road","network":"IN:NH","sort_rank":381,"kind_detail":"trunk","source":"openstreetmap.org","min_zoom":8.0,"shield_text":"181","ref":"NH181","id":66098019},"arcs":[821]},{"type":"LineString","properties":{"source":"openstreetmap.org","kind":"major_road","landuse_kind":"residential","sort_rank":380,"kind_detail":"primary","ref":"SH78","min_zoom":8.0},"arcs":[822]},{"type":"LineString","properties":{"kind":"major_road","network":"IN:SH:KL","sort_rank":380,"kind_detail":"primary","is_bicycle_related":true,"source":"openstreetmap.org","min_zoom":8.0,"shield_text":"25","ref":"SH25"},"arcs":[823]},{"type":"MultiLineString","properties":{"kind":"major_road","network":"IN:SH:KL","sort_rank":380,"kind_detail":"primary","source":"openstreetmap.org","min_zoom":8.0,"shield_text":"63","ref":"SH63"},"arcs":[[824],[825],[826]]},{"type":"MultiLineString","properties":{"sort_rank":355,"source":"openstreetmap.org","min_zoom":8.0,"name":"Kochi - Androth Ferry","kind":"ferry"},"arcs":[[827],[828]]},{"type":"LineString","properties":{"kind":"major_road","network":"IN:SH:KL","sort_rank":380,"kind_detail":"primary","is_bicycle_related":true,"source":"openstreetmap.org","min_zoom":8.0,"shield_text":"26","ref":"SH26"},"arcs":[829]},{"type":"LineString","properties":{"source":"openstreetmap.org","kind":"major_road","landuse_kind":"urban_area","sort_rank":380,"kind_detail":"primary","ref":"SH162","min_zoom":8.0},"arcs":[830]},{"type":"LineString","properties":{"kind":"major_road","sort_rank":380,"landuse_kind":"urban_area","source":"openstreetmap.org","min_zoom":8.0,"kind_detail":"primary","ref":"SH87","id":22837285},"arcs":[831]}]},"earth":{"type":"GeometryCollection","geometries":[{"type":"MultiPolygon","properties":{"sort_rank":10,"source":"naturalearthdata.com","kind":"earth","min_zoom":0.0,"id":4707},"arcs":[[[832]],[[833]],[[834]]]}]},"landuse":{"type":"GeometryCollection","geometries":[{"type":"Polygon","properties":{"kind":"national_park","protect_class":"2","area":228941370,"sort_rank":18,"source":"openstreetmap.org","min_zoom":7.0,"tier":1,"osm_relation":true},"arcs":[[835]]},{"type":"MultiPolygon","properties":{"source":"naturalearthdata.com","kind":"urban_area","name":"","area":819127416,"sort_rank":11,"min_zoom":4.0},"arcs":[[[836]],[[837]],[[838]],[[839]],[[840]],[[841]]]},{"type":"MultiPolygon","properties":{"source":"openstreetmap.org","kind":"residential","tier":2,"area":71073448,"sort_rank":20,"min_zoom":8.0},"arcs":[[[842]],[[843]]]},{"type":"Polygon","properties":{"source":"openstreetmap.org","kind":"park","area":105210000,"tier":2,"id":159049311,"min_zoom":7.0,"sort_rank":24},"arcs":[[844]]},{"type":"Polygon","properties":{"kind":"nature_reserve","area":1022769984,"sort_rank":23,"source":"openstreetmap.org","min_zoom":4.0,"tier":2,"id":-5573626,"osm_relation":true},"arcs":[[845]]}]}},"type":"Topology","transform":{"translate":[75.9375,9.7956775828],"scale":[0.0003433228,0.0003375792]},"arcs":[[[0,476],[135,-476]],[[3802,0],[11,9],[-16,53],[-53,19],[-1,65],[40,14],[0,29],[-68,47],[24,30],[-11,38],[90,158],[70,37],[-38,82],[7,114],[-172,175],[18,84],[85,29],[86,-16],[21,25],[17,227],[-17,40],[-82,0],[12,97],[-106,155],[65,138],[-174,16],[-167,-118],[-71,-26],[-14,14],[-136,-89],[24,-30],[-19,-52],[-91,-30],[-92,-76],[-125,56],[-48,-20],[-63,21],[1,60],[-85,49],[3,60],[-64,-42],[-64,69],[-9,73],[37,87],[-69,79],[17,50],[-42,35],[70,325],[-19,38],[15,140],[-62,28],[-10,95],[197,9],[-8,102],[-43,33],[58,94],[26,1],[-11,57],[50,132],[-26,86],[-141,22],[15,57],[-81,105],[-130,58],[-117,-2],[-243,127],[33,109],[75,85],[26,98],[47,49],[159,-25],[75,22],[29,49],[-56,-35],[-132,14],[-8,49],[39,33],[-40,54],[13,82],[-48,4],[-35,53],[-39,-22],[-15,89],[25,46]],[[0,476],[135,-476]],[[1066,611],[110,41],[41,-58],[29,49]],[[1208,458],[-60,0],[-33,55],[-96,-13],[-15,62],[62,49]],[[1066,611],[-3,43],[136,280]],[[1147,458],[-32,55],[-96,-13],[-16,60],[66,54],[-6,40],[136,280]],[[1049,548],[-26,4]],[[1049,548],[119,-23],[49,-82],[40,-14],[92,-217],[156,-108],[36,-104]],[[1104,531],[-55,17]],[[1508,99],[1,0],[0,-1],[-1,1]],[[2317,0],[-11,68],[-103,242],[-76,42],[-87,164],[-161,145],[-55,129],[-126,160],[-161,56],[-109,88],[-126,5],[-13,24]],[[964,2621],[-13,67],[62,29],[-27,76],[19,57],[199,-25],[60,57]],[[1264,2882],[1,0]],[[1264,2882],[49,3],[39,-56],[191,14],[240,128],[256,3]],[[0,0],[0,2776],[5,-20],[176,-357],[25,-114],[31,-40],[75,-72],[23,-45],[31,-130],[6,-60],[14,-51],[105,-142],[42,-122],[52,-244],[43,-122],[22,-41],[29,-37],[39,-13],[51,31],[23,48],[-5,55],[-37,101],[33,-17],[21,-29],[27,-55],[15,-1],[19,11],[17,3],[7,-23],[-3,-21],[-13,-21],[-3,-20],[-35,-39],[-136,-78],[1,-46],[20,-30],[1,-27],[-11,-44],[3,-46],[94,-240],[40,-73],[42,-37],[-22,52],[-12,62],[-6,118],[-16,48],[-29,50],[-17,54],[22,63],[22,-61],[14,-24],[25,-18],[26,-4],[29,-162],[55,-35],[-14,-58],[26,-113],[47,-79],[50,46],[27,-40],[112,-112],[14,-48],[63,-112],[25,-55],[7,-60],[-15,-31],[-21,-28],[-5,-21],[-65,0],[3,24],[-6,37],[-18,40],[-45,78],[-14,43],[-37,-27],[12,-45],[64,-89],[-19,-61],[-45,0],[-30,194],[-15,55],[-34,-27],[23,-43],[-14,-25],[-30,-11],[-26,-3],[11,16],[11,38],[2,47],[-14,42],[-17,-42],[-3,-19],[-31,16],[-18,26],[-8,33],[-3,37],[16,9],[68,-21],[16,12],[-19,60],[-44,66],[-52,36],[-45,-31],[12,-39],[19,-136],[18,-29],[71,-221],[5,-40],[-995,0]],[[0,2969],[12,-5],[-12,-13]],[[0,2776],[5,-20],[176,-357],[25,-114],[31,-40],[75,-72],[23,-45],[31,-130],[6,-60],[14,-51],[105,-142],[42,-122],[52,-244],[43,-122],[22,-41],[29,-37],[39,-13],[51,31],[23,48],[-5,55],[-37,101],[33,-17],[21,-29],[27,-55],[15,-1],[19,11],[17,3],[7,-23],[-3,-21],[-13,-21],[-3,-20],[-35,-39],[-136,-78],[1,-46],[20,-30],[1,-27],[-11,-44],[3,-46],[94,-240],[40,-73],[42,-37],[-22,52],[-12,62],[-6,118],[-16,48],[-29,50],[-17,54],[22,63],[22,-61],[14,-24],[25,-18],[26,-4],[29,-162],[55,-35],[-14,-58],[26,-113],[47,-79],[50,46],[27,-40],[112,-112],[14,-48],[63,-112],[25,-55],[7,-60],[-15,-31],[-21,-28],[-5,-21]],[[1231,0],[3,24],[-6,37],[-18,40],[-45,78],[-14,43],[-37,-27],[12,-45],[64,-89],[-19,-61]],[[1126,0],[-30,194],[-15,55],[-34,-27],[23,-43],[-14,-25],[-30,-11],[-26,-3],[11,16],[11,38],[2,47],[-14,42],[-17,-42],[-3,-19],[-31,16],[-18,26],[-8,33],[-3,37],[16,9],[68,-21],[16,12],[-19,60],[-44,66],[-52,36],[-45,-31],[12,-39],[19,-136],[18,-29],[71,-221],[5,-40]],[[2210,269],[0,-1],[0,1]],[[3032,3675],[83,128]],[[2144,2894],[-257,173],[-139,190]],[[4096,3280],[-22,7],[-29,123],[-89,137]],[[2693,3699],[106,-41]],[[1218,526],[1,-4]],[[1220,2270],[-281,-90]],[[1079,678],[1,2]],[[1080,680],[110,203],[5,19]],[[1195,902],[3,17]],[[1198,919],[2,8],[-24,40]],[[1176,967],[-4,7],[1,1]],[[1173,975],[14,7]],[[1187,982],[21,11]],[[1208,993],[1,0],[3,42]],[[1212,1035],[3,33],[44,20],[10,18]],[[1269,1106],[40,70]],[[1309,1176],[-61,189],[-87,100],[-63,227],[-128,139],[-31,90]],[[939,1921],[-4,12]],[[935,1933],[-1,1],[5,246]],[[939,2180],[-4,-247]],[[935,1933],[4,-12]],[[939,1921],[31,-90],[128,-138],[63,-227],[87,-101],[61,-188],[0,-1]],[[1309,1176],[-40,-70]],[[1269,1106],[-10,-18],[-44,-20],[-3,-33]],[[1212,1035],[-4,-42]],[[1208,993],[0,-1],[-21,-10]],[[1187,982],[-14,-7]],[[1173,975],[3,-8]],[[1176,967],[22,-48]],[[1198,919],[3,-6],[-6,-11]],[[1195,902],[-59,-102]],[[1128,790],[-48,-110]],[[1080,680],[-1,-2]],[[1136,800],[-8,-10]],[[1223,2270],[-3,0]],[[1223,2270],[66,43],[286,43],[112,128],[115,36]],[[1808,2522],[-6,-2]],[[1808,2522],[32,21],[31,96],[92,134],[131,29],[67,88]],[[2161,2892],[-2,2]],[[2161,2894],[0,-4]],[[2161,2894],[4,0]],[[2164,2894],[-3,-2]],[[2165,2894],[-4,0]],[[2165,2894],[82,12],[36,41],[75,25],[96,0],[139,85],[33,54]],[[2626,3111],[14,23],[164,55],[96,67]],[[2627,3114],[-1,-3]],[[2626,3111],[-9,-32]],[[2900,3256],[1,0]],[[2901,3256],[3,0]],[[2904,3256],[1,0]],[[2901,3256]],[[2901,3256]],[[2904,3257],[0,-1]],[[2904,3256],[1,0]],[[2905,3256],[29,2]],[[2940,3258],[-6,0]],[[2940,3258],[54,5],[47,48]],[[3045,3314],[-4,-3]],[[3045,3314],[7,8]],[[3056,3326],[-4,-4]],[[3060,3330],[-4,-4]],[[3067,3338],[-7,-8]],[[3294,3578],[-227,-240]],[[3302,3594],[-8,-16]],[[3302,3594],[4,8]],[[3311,3611],[-5,-9]],[[3311,3611],[14,107],[26,27]],[[3359,3752],[-8,-7]],[[3359,3752],[9,7]],[[3922,4096],[-129,-8],[-83,-66],[-95,-132],[-247,-131]],[[3368,3759],[247,131],[95,132],[83,66],[128,8]],[[963,563],[-28,-53]],[[309,3947],[61,-28],[161,5],[-7,20]],[[3110,2596],[9,-39],[65,-4]],[[314,2367],[110,43],[29,52]],[[941,483],[-21,29]],[[3970,4073],[112,-180]],[[4082,3892],[14,-13]],[[4082,3892],[0,1],[0,-1]],[[4082,3892]],[[1075,613],[85,37]],[[1160,651],[-3,15]],[[1157,667],[48,-8],[23,26],[74,8]],[[1551,667],[180,-14],[118,-58]],[[1874,544],[75,-205]],[[1950,338],[69,-5],[15,27],[132,-16],[77,-48]],[[2261,304],[34,12],[38,-78],[96,-48],[-11,-28],[68,-30],[6,-31],[58,-36]],[[2635,21],[18,-21]],[[2254,300]],[[1207,586],[1,-8]],[[2959,4081],[8,15]],[[450,2673],[5,113],[66,65],[124,44],[83,95],[6,276],[109,85],[-4,145]],[[842,3535],[-14,65],[72,21],[67,86],[51,11],[-47,32],[-9,60],[-61,29],[75,62],[120,26],[28,-23],[57,36],[5,97],[-64,59]],[[3846,2456],[-38,-108]],[[3275,845],[3,11]],[[245,3095],[-41,-168],[64,-145],[62,0],[37,-49],[70,-15],[11,-61],[-64,-124]],[[476,2457],[128,-65],[105,-172]],[[815,2185],[2,-14]],[[2161,2894],[-2,0]],[[0,3805],[68,40],[-18,4]],[[91,4096],[-30,-78]],[[333,2463],[40,-11]],[[373,2452],[2,0]],[[366,2397],[7,55]],[[373,2452],[7,61]],[[380,4096],[96,-114],[37,-26]],[[461,4004],[-45,55]],[[457,2465],[-4,-3]],[[531,3924]],[[791,1956],[-21,-22]],[[816,2269],[-8,2]],[[823,3499],[78,6]],[[901,3839],[-67,14]],[[1181,960],[-196,39],[-97,50],[-52,-4]],[[953,579],[1,0]],[[954,579],[2,1],[10,4],[3,1]],[[953,580],[1,-1]],[[954,579]],[[956,2616],[3,1]],[[970,580],[-1,4]],[[969,585],[1,-5]],[[976,564],[-6,16]],[[980,557],[-4,7]],[[976,564],[4,-6],[0,-1]],[[980,557]],[[980,557]],[[980,557],[1,1],[5,2]],[[986,560]],[[986,560],[1,0]],[[987,560],[1,1]],[[990,537],[-10,20]],[[980,557]],[[986,560],[-6,-3]],[[980,557],[12,-20]],[[992,537],[2,-6]],[[986,560]],[[986,560]],[[987,560],[-1,0]],[[986,560]],[[986,560]],[[986,560]],[[986,560]],[[987,560]],[[987,560]],[[988,561],[-1,-1]],[[994,531],[-4,6]],[[992,537]],[[992,537],[-2,0]],[[994,531],[6,-21]],[[1001,510],[9,1]],[[1029,451]],[[1034,458]],[[1035,466]],[[1054,607],[-1,0]],[[1057,509],[50,3],[-6,0]],[[1101,512],[-44,-5]],[[1107,512],[-6,0]],[[1101,512],[-44,-4]],[[1066,633],[1,0]],[[1067,633]],[[1067,659]],[[1070,623]],[[1071,621]],[[1075,671]],[[1110,746],[-5,2]],[[1121,768],[37,-12],[49,-170]],[[1208,578],[10,-52]],[[1219,522],[7,-61]],[[1263,2895]],[[1439,2899],[0,1]],[[1453,2830]],[[1453,2830],[0,-1],[0,-1],[0,2]],[[1453,2830],[0,-3]],[[1502,1204],[-21,-67]],[[1534,943],[0,1]],[[1534,944],[1,-1]],[[1546,3548],[2,26],[67,29],[35,46],[70,18],[41,45],[-8,42],[52,0],[118,96],[120,-9],[68,89],[159,56]],[[1546,3548],[0,2]],[[1560,3181],[-1,1]],[[1869,574]],[[2083,2927],[10,5]],[[2092,2875],[-1,-2]],[[2092,2875],[-1,-1]],[[2092,2875],[5,5]],[[2092,2875],[8,-1]],[[2099,2896],[-2,-16]],[[2097,2880],[2,-6]],[[2291,315],[-1,-1]],[[3051,2584],[-233,70],[-99,4]],[[2903,3257],[0,3]],[[2903,3260],[0,-3]],[[2967,3414],[-21,-112],[-43,-42]],[[2947,1571],[-43,11]],[[3015,1668],[-93,-20]],[[3096,2671],[-46,118]],[[3176,272],[-19,61]],[[3245,3693],[123,66]],[[3312,3739],[1,0]],[[3357,237],[-20,71]],[[3734,1654]],[[3736,2178],[-1,0]],[[3797,1947],[-2,116],[-59,115]],[[3795,2304],[-32,-69]],[[3914,2647],[93,-11],[89,21]],[[969,585]],[[1000,510]],[[1000,510],[1,0],[-1,0]],[[1156,667],[0,1],[1,-1],[-1,0]],[[1949,338],[1,0],[-1,-1],[0,1]],[[3117,2559],[-31,-18]],[[3128,2551],[25,30]],[[917,514],[-1,0]],[[1868,574],[0,-1],[0,1]],[[1869,574],[-1,0],[1,0]],[[3156,3646],[-101,-39]],[[3110,3639],[46,7]],[[3245,3693],[-87,-46]],[[970,2668],[110,37],[87,-43],[59,12],[185,-40],[77,-65],[316,-47]],[[0,571],[901,-59]],[[922,510],[13,0]],[[2987,1993],[81,-99],[-20,-11],[42,-69],[-10,-112]],[[776,913],[-10,39]],[[2969,3568],[-21,-1]],[[765,1279],[36,20],[-17,105],[30,56],[11,302]],[[812,1802],[6,111],[-27,51]],[[799,2093],[8,-70]],[[807,2241],[9,14]],[[808,2235],[8,20]],[[816,2255],[-24,118],[14,60],[117,145],[49,113],[42,28],[-27,138]],[[1907,113],[-51,4],[-19,-28],[-127,39],[-91,-38],[1,-49],[-73,-41]],[[1917,195],[135,65]],[[2053,260],[156,8]],[[2247,392],[33,-7],[22,59],[45,-38],[6,-44],[37,51],[-26,43],[26,7]],[[2986,365],[-42,88],[-178,81],[-145,-11],[-137,54],[-74,-126]],[[3254,245],[-14,60],[-217,42],[20,-18],[-63,32]],[[3544,132],[-97,13],[-90,92],[-100,8]],[[3662,0],[-20,22],[15,37],[-93,62]],[[2799,3658],[128,-50]],[[980,3745],[18,45],[82,18],[44,96]],[[319,2179],[171,-336]],[[4090,3886],[-4,6]],[[757,1277],[-1,2]],[[764,1274],[-1,-1]],[[765,1204],[0,4]],[[765,1209],[0,-2]],[[779,1144],[-1,0]],[[2998,3575],[13,55],[-13,-56]],[[897,510],[-897,196]],[[935,510],[-13,0]],[[3875,3921],[3,175]],[[3877,3915],[6,-35]],[[3883,3880],[-9,-100],[18,-72],[40,-42],[-5,-116]],[[839,3493],[1,-3]],[[1209,582],[-27,-34],[-53,-10],[-7,-29]],[[770,1164],[9,-20]],[[2144,2894],[15,0]],[[3035,3391],[17,-65]],[[3052,3326],[4,-4]],[[920,512],[-4,2]],[[941,482],[0,1]],[[3207,3319],[-121,106]],[[513,3973],[59,123]],[[513,3973]],[[524,3944],[-11,29]],[[935,2130],[0,1]],[[937,2175],[0,1]],[[2950,3676],[-30,176]],[[384,2533],[91,-76]],[[4096,33],[-38,-33]],[[917,514],[-1,0]],[[916,514],[-13,-1]],[[916,514]],[[916,514],[1,1]],[[1411,2634],[13,131]],[[1430,2775],[24,60],[-15,65]],[[1858,579],[8,-2]],[[0,924],[813,-394],[93,-15]],[[919,512],[16,-2]],[[3512,4096],[139,-296],[-24,-200],[28,-133]],[[3731,3291],[-74,177]],[[3300,3589],[-10,-6]],[[3270,0],[-35,33],[-248,148],[21,6],[-16,24],[23,89],[-51,67],[39,4],[-12,52],[48,29],[-17,16],[75,79],[-132,100]],[[2666,3705],[27,-6]],[[2951,3671],[-1,5]],[[2969,3568],[9,-20]],[[3290,3583],[-207,-24]],[[3978,3866],[118,1]],[[3272,860],[57,1],[357,166],[6,-45],[80,15],[34,-22]],[[3014,287],[16,20]],[[3946,4096],[24,-23]],[[2503,2420],[-290,0],[-281,-55],[-122,-5],[-52,30],[-94,-43],[-53,38],[-42,-30]],[[4082,3894],[14,82]],[[825,1762],[-1,4]],[[954,2193],[-8,-2]],[[1126,2253],[49,7]],[[1952,2377],[-11,-8]],[[3303,3590],[117,51],[129,7],[212,-82],[80,8],[255,-72]],[[2719,2658],[-61,35],[-44,99],[-45,37],[-109,30],[-235,0],[-33,32]],[[536,2437],[96,62],[133,13],[80,-37]],[[3841,4088],[-12,2]],[[800,2200],[-2,-8]],[[800,2200],[8,35]],[[807,2241],[-7,-41]],[[3080,1702],[-65,-32],[1,-42],[-62,-57]],[[3122,2500],[19,-138],[-90,-299],[-93,-54],[29,-16]],[[3052,3563],[31,-4]],[[249,2325],[135,208],[206,93],[114,3],[209,-54]],[[2977,3569],[3,-28]],[[3272,859],[-4,153],[50,45],[94,-26],[18,31],[-33,32],[9,46],[74,69],[58,185],[96,131],[11,-24],[9,35],[54,32],[26,86]],[[2948,3567],[-128,194]],[[2905,3256],[29,2]],[[2940,3258],[-6,0]],[[2940,3258],[41,2],[60,51]],[[3041,3311],[4,3]],[[3045,3314],[7,8]],[[3060,3330],[-4,-4]],[[3060,3330],[7,8]],[[3294,3578],[-227,-240]],[[3302,3594],[-8,-16]],[[3302,3594],[4,8]],[[3306,3602],[5,9]],[[3311,3611],[40,134]],[[3351,3745],[8,7]],[[3359,3752],[9,7]],[[98,3990],[-1,0]],[[973,1826],[-23,80]],[[193,3570],[25,8]],[[3115,3803],[153,293]],[[3788,4083],[14,13]],[[666,2094],[38,45],[46,9]],[[0,3391],[125,162]],[[156,3564],[37,6]],[[218,3578],[40,64],[117,24],[16,43]],[[415,3692],[29,29]],[[444,3722],[18,57],[72,49],[-3,96]],[[2843,3230],[-33,-39],[-37,-3]],[[817,1226],[7,3]],[[2248,330],[47,-12]],[[2295,317],[-47,13]],[[924,509],[-35,-3]],[[944,415],[-44,-3]],[[910,974],[87,-149]],[[27,2931],[14,-67],[40,-2],[70,-230],[94,-136],[39,-106]],[[284,2390],[6,-23]],[[290,2367]],[[290,2367]],[[290,2367],[24,0]],[[630,3393],[-118,-104],[-45,-5]],[[2999,3551],[-19,-3]],[[2980,3554],[72,9]],[[2996,3534],[-14,-3]],[[3083,3559],[-31,3],[-56,-28]],[[2996,3534],[7,3],[18,3]],[[3052,3563]],[[3700,541],[30,-28],[1,-180],[-25,-45],[-90,24],[-64,-22],[30,-71],[-60,-52],[42,-46],[-12,-36],[-42,-16],[55,-53],[-5,-16]],[[2973,3569],[4,0]],[[777,1224],[40,2]],[[824,1229],[114,55],[57,116],[-5,127],[49,81]],[[1031,1616],[40,92]],[[3029,3617],[-21,-1]],[[3009,3616],[20,1]],[[3009,3616],[-1,0]],[[3008,3616],[1,0]],[[3110,2596],[19,70]],[[3776,2352],[37,-6]],[[3828,2339],[-15,7]],[[3828,2339],[70,-18]],[[2089,2862],[20,-222],[147,-10],[162,-111],[86,11],[229,-58]],[[787,2191],[-14,0]],[[2254,300],[100,-174],[281,-105],[-33,80],[145,-101]],[[2764,0],[2,26]],[[986,2857],[12,64],[-270,69]],[[987,2880],[-21,-19],[20,-4]],[[762,3500],[-6,-5]],[[887,3499],[-7,-5]],[[2083,2927],[16,-31]],[[1013,443],[14,7]],[[1027,450],[-14,-7]],[[3734,1654],[-4,64],[61,98],[6,131]],[[765,1207],[-16,91]],[[750,1295],[15,-86]],[[766,1202],[-1,2]],[[807,2023],[-16,-59]],[[824,1766],[-12,36]],[[3153,2581],[28,25]],[[4085,3767],[11,36]],[[949,730],[20,19]],[[937,514],[30,-90]],[[992,403],[-1,0]],[[1101,418],[7,0]],[[967,423],[0,1],[0,-1]],[[4052,22],[-94,130],[-41,142],[143,43]],[[4060,337],[2,1]],[[4096,209],[-17,11],[-26,77],[7,40]],[[4060,337],[36,197]],[[813,2154],[-13,1],[1,11],[12,0],[0,-12]],[[816,2135],[0,-1],[-1,0],[1,1]],[[1148,457],[-39,54]],[[1172,466],[29,-30]],[[1187,470],[14,-34]],[[1221,380],[-20,56]],[[1222,379],[-1,1]],[[1269,277],[-47,102]],[[1271,272],[-2,5]],[[1344,0],[-73,272]],[[1033,1617],[-1,-2]],[[3303,3590],[-3,-1]],[[94,3990],[3,0]],[[413,3692],[-24,27],[34,19]],[[416,3691],[-3,1]],[[416,3691],[50,-19]],[[951,2191],[6,5]],[[999,761]],[[1008,770]],[[1010,774]],[[1012,777]],[[1021,787],[1,2]],[[1023,786],[-2,0]],[[1022,789],[2,-1]],[[1024,788],[0,-2]],[[1069,225],[1,0]],[[1072,203]],[[1074,191]],[[1075,181]],[[1077,167]],[[1080,143]],[[1081,137]],[[1082,131],[0,1]],[[1083,122]],[[1083,117]],[[1085,96]],[[1086,91]],[[1090,642]],[[1090,697]],[[1092,69],[1,0]],[[1095,49],[1,0]],[[1097,33]],[[1097,29]],[[1100,8]],[[1101,572],[1,0]],[[1102,721]],[[1102,722]],[[1102,2]],[[1103,562]],[[1107,737]],[[1107,738]],[[1109,496],[1,0]],[[1110,485]],[[1127,790],[-1,0]],[[1136,800]],[[1148,814],[0,-1]],[[1195,901]],[[1201,922]],[[1201,922]],[[1677,1146],[-2,4]],[[884,552],[0,1],[1,0],[-1,-1]],[[3736,2178],[-1,0]],[[3736,2178],[27,57]],[[986,2857]],[[1309,1178],[1,-3]],[[1310,1175],[-1,0]],[[1310,1175],[-1,1]],[[1548,1001],[-83,90],[-155,84]],[[1663,822],[-4,5]],[[1663,822],[161,-163],[33,-77]],[[1861,0],[-2,41],[52,63],[9,100],[-68,202],[16,167]],[[1858,579],[-1,3]],[[1857,582],[1,-3]],[[1868,574],[-3,3]],[[1866,577],[2,-2]],[[903,513],[60,50]],[[917,515],[58,44]],[[946,517],[-29,-3]],[[1178,120],[141,-50]],[[3359,3754],[-114,-61]],[[1302,693],[55,-15],[29,38],[165,-49]],[[976,1824],[24,-27]],[[1223,2270],[65,43],[283,42],[116,129],[115,36]],[[1223,2270],[-3,0]],[[1295,1223],[0,-2]],[[1808,2522],[-6,-2]],[[1808,2522],[170,264],[110,15],[73,89]],[[2161,2890],[0,4]],[[2161,2894],[4,0]],[[2164,2894],[-3,-2]],[[2165,2894],[-4,0]],[[2165,2894],[82,12],[113,67],[94,-1],[167,111],[17,48],[135,57]],[[2843,3230],[57,26]],[[2900,3256],[5,0]],[[3829,4090],[-110,-63],[-106,-139],[-28,-16],[-71,-30],[-146,-83],[146,83],[98,45],[106,141],[70,56],[41,6],[54,-9],[38,15]],[[3922,4096],[-38,-16],[-43,8]],[[3052,3322],[4,4]],[[709,2220],[64,-29]],[[798,2191],[-11,0]],[[808,2191],[-9,0]],[[809,2191],[6,-6]],[[817,2171],[-3,-12]],[[2210,270],[40,233]],[[2214,202],[62,-27],[28,14]],[[2252,503],[15,254]],[[2354,126],[-15,-35],[53,-61],[6,-30]],[[3022,468],[-599,294]],[[3116,339],[-79,77],[-26,-9],[26,41]],[[3097,550],[52,48],[-11,61]],[[3097,547],[-1,-48],[85,-21],[78,-89],[63,-29],[15,-52]],[[3138,659],[-14,-15]],[[3208,728],[20,-41],[-41,5],[-49,-33]],[[3142,341],[-2,18],[36,4],[159,-56]],[[951,578],[1,1]],[[952,579],[0,1],[1,0],[0,-1],[-1,0]],[[992,524],[-75,-10]],[[812,1622],[-207,-68]],[[814,1633],[217,-17],[89,-34]],[[97,3990],[-32,22]],[[498,3924],[30,10],[16,-8]],[[503,3926],[31,-31],[55,29]],[[819,2155],[88,-1],[28,23]],[[933,1939],[-110,182]],[[946,2191],[-1,-5]],[[1066,246],[-28,99],[-50,5],[-26,49]],[[1008,440],[-42,-34]],[[1013,443],[-5,-3]],[[1008,440],[5,3]],[[1027,450],[-11,50]],[[1016,500],[11,-50]],[[1053,603],[13,8],[-4,37],[16,29]],[[1078,677],[1,1]],[[1079,678],[-13,-68],[-13,-7]],[[1062,1712],[23,-9]],[[1074,612],[-8,-1]],[[1071,620],[3,-7]],[[1078,677]],[[1078,677],[-6,13]],[[1105,751],[9,9]],[[1106,744],[-1,7]],[[1107,739],[-1,5]],[[1118,773],[-4,-13]],[[1135,1549],[29,-51]],[[1226,461],[-28,-19]],[[1200,1399],[52,-46]],[[1074,613],[0,-1],[0,1]],[[2473,404],[-127,101],[-3,-22],[-60,38],[-58,-19],[-147,14],[-181,46],[-2,23]],[[2474,404],[128,-48],[25,-66],[43,-17],[26,-96],[63,-34],[-17,-24],[25,-52]],[[3041,153],[-26,23],[96,5],[303,-181]],[[630,3393],[133,107]],[[847,3614],[15,85],[-48,69],[61,207],[-26,89],[16,32]],[[966,406],[-4,-7]],[[937,514],[0,1],[0,-1]],[[3908,3512],[1,-97],[-40,-93],[30,-254],[-23,-161],[39,-257],[-69,-194]],[[2984,3492],[-1,0]],[[2983,3492],[1,0]],[[2984,3493],[-1,0]],[[3021,3540],[3,2]],[[3052,3562],[-1,1]],[[3827,2339],[1,1]],[[894,528],[81,31]],[[1220,2270],[-281,-90]],[[950,1906],[-14,19],[-3,27],[0,104],[0,21],[3,98],[3,5]],[[939,2180],[-3,-255],[14,-19],[26,-82]],[[1079,678],[38,92],[4,7]],[[1121,777],[8,15]],[[1129,792],[31,35],[34,73]],[[1194,900],[1,1],[0,15]],[[1195,916],[1,20],[-22,41],[4,4],[31,12]],[[1209,993],[0,7]],[[1209,1000],[6,58],[94,118],[-57,179],[-91,121],[-40,99],[0,44],[-41,84],[-107,123]],[[1000,1797],[80,-93],[41,-85],[1,-44],[40,-72],[2,-16],[-1,-7],[-1,-4],[90,-121],[18,-43],[25,-89]],[[1295,1221],[14,-45],[-23,-40],[-70,-77],[-7,-59]],[[1209,1000],[0,-7]],[[1209,993],[0,-1],[-35,-15],[22,-41],[-1,-20]],[[1195,916],[-1,-16]],[[1194,900],[0,-1],[-34,-72],[-2,-2],[-22,-25],[-7,-8]],[[1129,792],[-1,-2],[-7,-13]],[[1121,777],[-4,-7],[-7,-24],[-29,-65],[-2,-3]],[[3115,2566],[-53,15]],[[3105,2547],[10,14]],[[3115,2561],[22,5]],[[3115,2561],[4,-4]],[[971,848],[-3,0]],[[1659,827],[-111,174]],[[1222,903],[42,-46],[189,14]],[[1223,924],[-1,-21]],[[1454,871],[22,5]],[[1477,876],[55,66]],[[1544,945],[-12,-3]],[[1561,946],[-17,-1]],[[1561,946],[5,-1]],[[1566,945],[163,-10],[124,-86],[119,-42]],[[1972,807],[21,-13]],[[2032,784],[-60,23]],[[3010,3629],[-31,-6]],[[2979,3624],[32,6]],[[265,2436],[0,2]],[[1187,470],[17,-25],[22,16],[45,-23]],[[389,3719],[-73,-34],[-12,49],[-46,26],[-110,-41]],[[0,2810],[528,-1050],[104,-283],[43,-18],[79,-168]],[[395,3235],[-139,-140],[-89,4],[-167,-201]],[[162,3540],[-6,24],[-90,-7],[-66,117]],[[0,3677],[0,40]],[[763,1274],[-9,17]],[[763,1274],[45,-221],[3,-2],[61,-27],[38,-50]],[[833,1051],[-19,-1]],[[990,832],[-7,6]],[[990,832],[31,-41]],[[1021,791],[3,-7]],[[1024,784],[55,-106],[15,-58],[13,-84],[1,-13],[-6,-197],[-35,-84],[21,-242]],[[1094,620],[-21,65]],[[1088,0],[-21,243],[35,83],[5,210]],[[922,510],[-25,0]],[[901,512],[21,-2]],[[78,3999],[-9,-27],[43,-18],[-45,7],[-16,-129],[-51,-83]],[[87,3996],[38,14],[66,86]],[[2951,3671],[12,-66]],[[2270,3986],[25,-39],[55,14],[8,-49],[125,-46],[102,-73],[174,-20]],[[1872,546],[385,-234]],[[2197,0],[-36,148],[18,-5],[43,74],[-12,51]],[[2211,269],[43,31]],[[2254,300],[5,2]],[[2257,312],[2,-10]],[[4092,0],[-2,41]],[[2920,3852],[-15,88],[54,141]],[[2982,3499],[0,32]],[[900,558],[-11,-4]],[[949,578],[-21,-8]],[[950,578],[-16,-6]],[[3086,2541],[-144,-48],[-439,-73]],[[3181,2606],[142,133],[619,814]],[[3945,3552],[27,85],[113,130]],[[3303,3590],[140,52],[152,-1],[166,-75],[184,-14],[151,-48]],[[3228,690],[60,-85],[-13,-32],[-54,12],[-47,-51],[89,3],[-7,-48],[82,-14],[176,44],[95,-23],[7,23],[84,24]],[[2726,1450],[-63,-21],[-40,63],[-42,4],[-26,-36],[-113,49],[-79,-10],[-28,25],[-93,9],[9,-27],[-115,-26],[-5,-28],[-30,34],[-54,0],[-28,37],[-150,-18],[-41,-27],[12,-18],[-39,-3],[-238,15],[-74,28],[-83,-12],[-175,74],[-67,-35]],[[889,506],[-50,-4],[-839,-442]],[[935,510],[-11,-1]],[[8,3702],[140,17]],[[419,1995],[140,38],[44,46],[63,15]],[[3656,3786],[174,84],[148,-4]],[[906,515],[13,-3]],[[839,3496],[3,39]],[[444,3720],[-135,227],[-55,24],[-81,-17],[-173,98]],[[444,3721],[0,-1]],[[1748,3257],[-41,52],[-7,104],[-64,79],[-88,56],[-265,-39],[-200,-84],[-209,104],[-47,-6],[-4,-24],[-62,2],[-47,42],[-154,35],[-34,67],[-60,27],[-22,48]],[[2820,3761],[-61,12]],[[1559,3182],[-244,74],[-45,-23],[-153,-6],[-269,233]],[[1872,3083],[-120,55],[-192,43]],[[988,561],[14,2]],[[1002,563],[-8,-1]],[[994,562],[-6,-1]],[[994,562]],[[994,562],[0,-1]],[[1002,563]],[[1006,564]],[[1010,511],[5,1]],[[1010,566]],[[1013,568]],[[1015,570]],[[1016,572],[-1,-1]],[[1019,500],[30,6],[1,0]],[[1050,506],[7,1]],[[1029,586]],[[1032,590],[1,0]],[[1033,591],[0,-1]],[[1034,592],[0,-1]],[[1036,593]],[[1036,593]],[[1057,508],[-1,0],[-6,-2]],[[1050,506],[-1,0],[0,-1],[-9,-1]],[[1043,598]],[[1046,601]],[[1049,604],[0,-1]],[[1051,605]],[[1056,509],[1,0]],[[2948,3567],[6,3],[1,-3]],[[2950,3567],[0,1]],[[2963,3617],[-3,4]],[[2960,3621],[3,-4]],[[2973,3617],[-10,0]],[[2981,3492],[-14,-78]],[[2976,3625]],[[2976,3625],[-3,-3]],[[2973,3617],[6,6],[-3,2]],[[2973,3617],[3,8]],[[2976,3625]],[[2976,3625],[3,-1]],[[2976,3553],[4,1]],[[2998,3575],[56,31]],[[3054,3606]],[[3054,3606],[24,25],[32,8]],[[3054,3606],[-56,-32]],[[3051,3563],[-48,-11]],[[3003,3552],[-4,-1]],[[3004,3552],[-1,0]],[[3003,3552],[-1,0]],[[3008,3616],[-5,2]],[[3004,3618],[4,-2]],[[3029,3617],[20,-5],[5,-6]],[[3054,3606]],[[3054,3606]],[[3054,3606],[-5,6],[-20,5]],[[3062,2581],[-11,3]],[[3054,3606],[1,1]],[[3074,3581],[-1,1]],[[3073,3582],[-19,24]],[[3073,3583],[0,-1]],[[3073,3582],[1,-2]],[[3075,3580]],[[3075,3580],[-1,1],[0,-1],[1,0]],[[3076,3579],[-1,0]],[[3075,3579],[0,1]],[[3083,3559],[-8,20]],[[3075,3579],[0,1]],[[3111,2630],[-15,41]],[[3156,3646],[89,47]],[[3156,3646],[2,1]],[[3193,3671]],[[3216,3689]],[[3811,2347],[-16,-43]],[[3799,2349],[6,-11]],[[4096,4046],[-105,7]],[[798,2191],[0,1],[1,-1],[-1,0]],[[809,2191],[-1,0],[1,1],[0,-1]],[[888,554],[-4,-1]],[[885,552],[3,2]],[[889,554],[-1,0]],[[921,566],[-21,-8]],[[934,572],[-13,-6]],[[928,570],[-7,-4]],[[952,580],[-40,117],[1,2],[36,31]],[[951,578],[-2,0]],[[952,579],[-2,-1]],[[1133,796],[-110,-8],[-24,-27],[-86,-62],[40,-119]],[[966,748],[27,10],[26,28],[4,2],[18,7],[93,1]],[[3896,2400],[74,49],[126,26]],[[3242,2559],[90,39],[479,23],[103,26]],[[816,2135],[-3,19]],[[814,2156],[5,-1]],[[823,2121],[-7,13]],[[1007,565],[-5,-2]],[[1002,563],[14,-63]],[[1007,564],[-5,-1]],[[1002,563],[14,-63]],[[1015,571],[5,8],[13,12],[20,12]],[[1053,603],[-37,-31]],[[3901,3559],[-163,-41],[-146,-104],[-100,-14],[-58,50],[-51,-4],[-87,-33],[-89,-94],[-201,-45]],[[395,3235],[16,40],[56,9]],[[1148,457],[39,13]],[[1858,579],[-80,-34],[-227,-1],[-116,-27],[-164,-79]],[[1858,579]],[[1858,579],[58,17],[77,198],[406,-45],[44,28],[-19,24],[107,-2],[-10,-24],[77,-11],[49,-45],[284,-72],[200,7]],[[3857,670],[-38,-1],[-71,-52],[-48,-76],[-25,46],[7,52],[-122,68],[-122,5],[-56,103],[-104,41],[11,-49],[-59,-70],[-95,-21]],[[3858,668],[-1,2]],[[4096,670],[-62,43],[-27,55],[-31,-39],[12,16],[-80,-39],[-43,8],[-7,-46]],[[1034,398],[17,6]],[[1057,407],[44,11]],[[2977,3569],[9,3]],[[2978,3548],[2,-8]],[[2982,3531],[-2,9]],[[2980,3540],[5,-49]],[[2985,3491],[-2,2],[-1,6]],[[2985,3491],[24,-30]],[[2987,3572],[11,3]],[[3009,3461],[3,-6]],[[3011,3630],[4,9]],[[3012,3455],[23,-64]],[[3016,3641],[-1,-2]],[[3016,3641],[16,34]],[[2986,3572],[1,0],[0,-1],[-1,0],[0,1]],[[2969,3568],[-18,103]],[[3830,4080],[6,16]],[[3171,3567],[119,16]],[[3129,2666],[22,377],[-61,240],[-34,39]],[[3184,2553],[58,6],[143,-77],[149,-39],[120,-76],[122,-15]],[[3898,2321],[92,4],[106,-41]],[[395,3235],[-126,115],[-78,23],[17,112],[-46,55]],[[1107,536],[-13,84]],[[901,512],[20,-1]],[[991,403],[-24,20]],[[1034,398],[-42,5]],[[1051,404],[6,3]],[[1453,871],[1,0]],[[1476,876],[1,0]],[[2987,181],[-14,-43],[-30,33],[-15,-27],[-22,22],[-46,-84],[-92,-14],[-2,-42]],[[750,2148],[20,4]],[[2986,3571],[-1,1]],[[2987,3572],[1,1]],[[2998,3574],[0,1]],[[984,0],[-84,412]],[[1109,418],[49,17],[-10,22]],[[3131,654],[-78,51],[82,11]],[[2726,1450],[73,105],[-2,60],[59,4],[46,46],[2,-26],[19,11],[-19,-68]],[[2954,1571],[-7,0]],[[1150,457],[-1,-2]],[[3024,3542],[1,0]],[[1735,0],[2,1],[13,100]],[[1901,276],[-72,-7],[-143,52],[-6,-31],[-30,-6],[-25,-51],[116,-72],[29,-57]],[[1899,286],[65,-37],[24,23],[64,-12]],[[2053,260],[130,-91]],[[2397,214],[18,40],[153,-93],[102,-25],[10,-27]],[[2944,170],[-4,61],[35,-17],[-99,83],[-1,55],[71,-24],[53,-60]],[[3512,72],[-117,-8],[-61,49],[-27,-13],[-64,87],[29,34],[-15,24],[-227,62]],[[3534,124],[27,-19]],[[3290,3583],[13,7]],[[3119,2557],[3,-57]],[[2256,2630],[67,50],[54,-1],[83,85],[102,28]],[[766,952],[-75,191]],[[884,553],[-108,360]],[[884,552],[10,-24]],[[0,805],[901,-293]],[[921,511],[14,-1]],[[2693,3023],[-53,-25],[-84,-117],[6,-89]],[[3086,3425],[-35,17],[37,61],[-5,56]],[[3815,2346],[81,54]],[[995,0],[-5,40],[-71,221],[-18,29],[-19,136],[-12,39],[45,31],[52,-36],[44,-66],[19,-60],[-16,-12],[-68,21],[-16,-9],[3,-37],[8,-33],[18,-26],[31,-16],[3,19],[17,42],[14,-42],[-2,-47],[-11,-38],[-11,-16],[26,3],[30,11],[14,25],[-23,43],[34,27],[15,-55],[30,-194],[-131,0]],[[1171,0],[19,61],[-64,89],[-12,45],[37,27],[14,-43],[45,-78],[18,-40],[6,-37],[-3,-24],[-60,0]],[[1296,0],[5,21],[21,28],[15,31],[-7,60],[-25,55],[-63,112],[-14,48],[-112,112],[-27,40],[-50,-46],[-47,79],[-26,113],[14,58],[-55,35],[-29,162],[-26,4],[-25,18],[-14,24],[-22,61],[-22,-63],[17,-54],[29,-50],[16,-48],[6,-118],[12,-62],[22,-52],[-42,37],[-40,73],[-94,240],[-3,46],[11,44],[-1,27],[-20,30],[-1,46],[136,78],[35,39],[3,20],[13,21],[3,21],[-7,23],[-17,-3],[-19,-11],[-15,1],[-27,55],[-21,29],[-33,17],[37,-101],[5,-55],[-23,-48],[-51,-31],[-39,13],[-29,37],[-22,41],[-43,122],[-52,244],[-42,122],[-105,142],[-14,51],[-6,60],[-31,130],[-23,45],[-75,72],[-31,40],[-25,114],[-176,357],[-5,20],[0,175],[12,13],[-12,5],[0,1127],[4096,0],[0,-4096],[-2800,0]],[[3072,1081],[86,55],[26,-19],[77,14],[12,-23],[70,16],[11,27],[-69,39],[-1,38],[-71,-21],[-63,31],[-16,36],[139,34],[-51,138],[83,55],[-38,26],[-32,-22],[-65,6],[-39,114],[35,78],[102,8],[44,53],[143,10],[101,-31],[10,-23],[-214,-188],[6,3],[80,-33],[12,-40],[-70,-104],[18,-34],[85,-37],[-23,-87],[-63,-59],[-25,13],[-23,-51],[-122,-82],[-70,56],[34,30],[-119,-26]],[[1059,479],[-20,-18],[-47,79],[-23,126],[82,-26],[8,-161]],[[824,2121],[-68,20],[-43,53],[-11,67],[25,58],[54,-19],[25,-49],[18,-130]],[[3906,2377],[-8,-58],[-65,-33],[-42,19],[-55,178],[89,-13],[57,-39],[24,-54]],[[3134,2556],[-60,7],[-44,42],[-6,76],[114,-16],[36,-29],[12,-54],[-52,-26]],[[3027,3842],[134,-59],[122,-130],[7,-78],[-137,-39],[-56,-104],[-77,-50],[-111,66],[-104,160],[-8,60],[33,132],[64,0],[33,66],[100,-24]],[[4096,4087],[0,-317],[-4,-3],[-65,0],[-39,59],[-58,237],[133,33],[33,-9]],[[871,497],[42,21],[24,-21],[31,-98],[-60,-9],[-37,107]],[[3060,2586],[104,20],[-21,-50],[93,-7],[-99,-11],[21,-29],[-46,-12],[-52,89]],[[1297,3854],[62,31],[10,167],[-24,44],[183,0],[30,-36],[-14,-72],[30,-10],[-13,-111],[-82,-81],[-104,-28],[-7,71],[-71,25]],[[2556,1847],[66,322],[-22,51],[61,-3],[17,-170],[38,-59],[66,37],[94,9],[23,-45],[107,5],[96,-55],[18,27],[-79,42],[5,24],[47,9],[-34,18],[57,49],[106,27],[65,0],[24,-45],[-38,-67],[10,-47],[126,112],[51,-10],[-20,-86],[79,21],[53,-39],[52,53],[35,-43],[162,-44],[27,-45],[-25,-138],[37,-14],[32,108],[73,-20],[-3,20],[59,3],[-30,-205],[55,-13],[-35,-100],[51,-109],[-2,-67],[-56,18],[-51,-80],[-38,1],[-20,-40],[-82,0],[12,97],[-106,155],[65,138],[-174,16],[-167,-118],[-71,-26],[-14,14],[-136,-89],[24,-30],[-19,-52],[-91,-30],[-88,-75],[-129,55],[-64,-19],[-47,20],[4,18],[65,-4],[91,94],[59,1],[1,40],[46,58],[78,34],[-3,42],[-51,47],[-14,57],[-57,6],[-52,-27],[32,23],[-10,37],[-85,12],[-55,-49],[28,-45],[-32,-25],[5,36],[-45,-31],[33,54],[-51,-5],[10,-50],[-40,-19],[-34,-62],[-108,37],[32,99],[-72,78],[26,27],[-53,49]]]}