{"objects":{"water":{"type":"GeometryCollection","geometries":[{"type":"Polygon","properties":{"source":"naturalearthdata.com","kind":"ocean","area":1576712559132672,"sort_rank":200,"min_zoom":0.0,"id":1},"arcs":[[0]]},{"type":"LineString","properties":{"source":"naturalearthdata.com","kind":"ocean","sort_rank":205,"boundary":true,"min_zoom":0.0,"id":1908},"arcs":[1]}]},"buildings":{"type":"GeometryCollection","geometries":[]},"places":{"type":"GeometryCollection","geometries":[]},"transit":{"type":"GeometryCollection","geometries":[]},"pois":{"type":"GeometryCollection","geometries":[]},"boundaries":{"type":"GeometryCollection","geometries":[]},"roads":{"type":"GeometryCollection","geometries":[]},"earth":{"type":"GeometryCollection","geometries":[{"type":"Polygon","properties":{"sort_rank":10,"source":"naturalearthdata.com","kind":"earth","min_zoom":0.0,"id":4877},"arcs":[[2]]},{"type":"Point","properties":{"label_placement":true,"name:pt":"Ilha Vize","name:az":"Vize adas\u0131","name:nl":"Vize","name:nn":"Vize\u00f8ya","name:cs":"Vizeho ostrov","min_zoom":7.0,"name:it":"Isola di Vize","name:vi":"\u0110\u1ea3o Vize","name:be":"\u0412\u043e\u0441\u0442\u0440\u0430\u045e \u0412\u0456\u0437\u044d","name:pl":"Wyspa Wize","name:lt":"Viz\u0117s sala","id":279649736,"kind":"island","name:en":"Vize Island","name":"\u043e\u0441\u0442\u0440\u043e\u0432 \u0412\u0438\u0437\u0435","area":7645349888,"name:fi":"Vize","name:de":"Wiese-Insel","source":"openstreetmap.org","name:fr":"\u00cele Viz\u00e9","name:zh":"\u7dad\u6fa4\u5cf6","name:es":"Isla Vize"},"coordinates":[2088,2339]}]},"landuse":{"type":"GeometryCollection","geometries":[]}},"type":"Topology","transform":{"translate":[75.9375,79.4323707591],"scale":[0.0003433228,0.0000622103]},"arcs":[[[0,0],[0,4096],[4096,0],[0,-2074],[-349,191],[-1080,592],[-1080,593],[-173,-108],[-47,-314],[-402,-212],[-202,69],[-173,482],[96,-21],[304,131],[-154,192],[-177,104],[-177,-31],[-150,-216],[2,-308],[116,-412],[240,-557],[1100,-528],[34,18],[82,130],[41,39],[43,12],[185,-334],[42,-154],[-11,-125],[-117,-239],[-40,-136],[160,-153],[1292,144],[595,66],[0,-937],[-4096,0]],[[4096,2022],[-349,191],[-1080,592],[-1080,593],[-173,-108],[-47,-314],[-402,-212],[-202,69],[-173,482],[96,-21],[304,131],[-154,192],[-177,104],[-177,-31],[-150,-216],[2,-308],[116,-412],[240,-557],[1100,-528],[34,18],[82,130],[41,39],[43,12],[185,-334],[42,-154],[-11,-125],[-117,-239],[-40,-136],[160,-153],[1292,144],[595,66]],[[990,3425],[-304,-131],[-96,21],[173,-482],[202,-69],[402,212],[47,314],[173,108],[1080,-593],[1080,-592],[349,-191],[0,-1085],[-595,-66],[-1292,-144],[-160,153],[40,136],[117,239],[11,125],[-42,154],[-185,334],[-43,-12],[-41,-39],[-82,-130],[-34,-18],[-1100,528],[-240,557],[-116,412],[-2,308],[150,216],[177,31],[177,-104],[154,-192]]]}