{"objects":{"water":{"type":"GeometryCollection","geometries":[]},"buildings":{"type":"GeometryCollection","geometries":[]},"places":{"type":"GeometryCollection","geometries":[{"type":"Point","properties":{"kind":"region","name:en":"Almaty Province","name":"\u0410\u043b\u043c\u0430\u0442\u0438\u043d\u0441\u043a\u0430\u044f \u043e\u0431\u043b\u0430\u0441\u0442\u044c","kind_detail":"state","name:kk":"\u0410\u043b\u043c\u0430\u0442\u044b \u043e\u0431\u043b\u044b\u0441\u044b","name:eo":"Almato","name:de":"Gebiet Almaty","source":"openstreetmap.org","min_zoom":4.0,"name:fr":"Oblys d'Almaty","name:uk":"\u0410\u043b\u043c\u0430\u0442\u0438\u043d\u0441\u044c\u043a\u0430 \u043e\u0431\u043b\u0430\u0441\u0442\u044c","name:et":"Almat\u00f5 oblast","name:hu":"Almati ter\u00fcletet","id":974358575,"population":1989300},"coordinates":[3893,608]}]},"transit":{"type":"GeometryCollection","geometries":[]},"pois":{"type":"GeometryCollection","geometries":[]},"boundaries":{"type":"GeometryCollection","geometries":[]},"roads":{"type":"GeometryCollection","geometries":[]},"earth":{"type":"GeometryCollection","geometries":[{"type":"Polygon","properties":{"sort_rank":10,"source":"naturalearthdata.com","min_zoom":0.0,"kind":"earth","area":98022885885},"arcs":[[0]]}]},"landuse":{"type":"GeometryCollection","geometries":[]}},"type":"Topology","transform":{"translate":[75.9375,45.0890355648],"scale":[0.0003433228,0.000240282]},"arcs":[[[4096,0],[-4096,0],[0,4096],[4096,0],[0,-4096]]]}