{"objects":{"water":{"type":"GeometryCollection","geometries":[{"type":"Polygon","properties":{"kind":"lake","name":"Qapshaghay Bgeni","reservoir":true,"area":1798260864,"sort_rank":200,"source":"naturalearthdata.com","min_zoom":0.0,"id":1220},"arcs":[[54]]},{"type":"LineString","properties":{"source":"naturalearthdata.com","kind":"lake","reservoir":true,"sort_rank":367,"boundary":true,"min_zoom":0.0,"id":1220},"arcs":[55]}]},"buildings":{"type":"GeometryCollection","geometries":[]},"places":{"type":"GeometryCollection","geometries":[{"type":"Point","properties":{"source":"naturalearthdata.com","kind":"locality","name":"Qapshaghay","population":42167,"min_zoom":7.0,"id":4035},"coordinates":[3295,3279]},{"type":"Point","properties":{"alt_name:ce":"\u0410\u043b\u043c\u0430\u0442\u044b\u0301","alt_name:ca":"Alma-At\u00e0","name:ko":"\uc54c\ub9c8\ud2f0","name:kn":"\u0c85\u0cb2\u0ccd\u0cae\u0cbe\u0c9f\u0cc0","name:cs":"Almaty","name:tk":"Almaty","name:th":"\u0e2d\u0e31\u0e25\u0e21\u0e32\u0e15\u0e35","alt_name:cs":"Alma-Ata","name:tl":"Almaty","name:ce":"\u0410\u043b\u043c\u0430\u0301-\u0410\u0442\u0430\u0301","name:ta":"\u0b85\u0bb2\u0bcd\u0bae\u0bbe\u0ba4\u0bcd\u0ba4\u0bbf","name:tg":"\u0410\u043b\u043c\u0430\u0442\u0439","name:ca":"Almati","name:ka":"\u10d0\u10da\u10db\u10d0\u10d7\u10d8","name:da":"Almaty","name:de":"Almaty","source":"openstreetmap.org","population":1475400,"alt_name:lv":"Alma-Ata","old_name:yo":"Verny","name:lv":"Almati","name:lt":"Almata","name:uz":"Olmota","old_name:az":"Vern\u0131y","name:ur":"\u0627\u0644\u0645\u0627\u062a\u06cc","name:la":"Almata","name:uk":"\u0410\u043b\u043c\u0430\u0442\u0438\u0301","old_name:am":"\u1268\u122d\u1292\u12ed","name:el":"\u0391\u03bb\u03bc\u03ac\u03c4\u03b9","name:eo":"Almato","name:en":"Almaty","name":"\u0410\u043b\u043c\u0430\u0442\u044b","alt_name:cv":"\u0410\u043b\u043c\u0430\u0301-\u0410\u0442\u0430\u0301;\u0410\u043b\u043c\u0430-\u0410\u0442\u0430\u0301","alt_name:uz":"Almatu","old_name:no":"Alma-Ata","alt_name:uk":"\u0410\u043b\u043c\u0430\u0442\u0430\u0301","name:eu":"Almaty","name:et":"Almat\u00f5","name:es":"Almat\u00fd","name:ml":"\u0d05\u0d7d\u0d2e\u0d3e\u0d1f\u0d4d\u0d1f\u0d3f","name:az":"Almat\u0131","name:ie":"Almaty","name:id":"Almaty","name:ar":"\u0623\u0644\u0645\u0627\u062a\u064a","name:is":"Almaty","name:am":"\u12a0\u120d\u121b\u1272","name:it":"Almaty","name:an":"Almaty","name:ru":"\u0410\u043b\u043c\u0430\u0442\u044b\u0301","name:af":"Almati","alt_name:ru":"\u0410\u043b\u043c\u0430\u0301-\u0410\u0442\u0430\u0301","old_name:ky":"\u0412\u0435\u0440\u043d\u044b\u0439","kind_detail":"city","old_name:ru":"\u0410\u043b\u043c\u0430-\u0410\u0442\u0430","old_name:ka":"\u10d5\u10d4\u10e0\u10dc\u10d8","old_name:ro":"Vern\u00eei","name:ky":"\u0410\u043b\u043c\u0430\u0442\u0430","name:zh-yue":"\u963f\u62c9\u6728\u5716","old_name:cs":"V\u011brnyj","alt_name:ro":"Alma-Ata","name:zh":"\u963f\u62c9\u6728\u56fe","old_name:cv":"\u0412\u0435\u0440\u043d\u044b\u0439","name:sk":"Almati","name:ja":"\u30a2\u30eb\u30de\u30c8\u30a4","name:sh":"Almati","name:sc":"Almaty","name:br":"Almaty","name:bs":"Almati","name:bo":"\u0f68\u0f71\u0f63\u0f0b\u0f58\u0f0b\u0f4a\u0f72\u0f0d","name:ug":"Almuta","alt_name:br":"Alma-Ata","alt_name:bs":"Alma Ata","name:sw":"Almaty","name:sv":"Almaty","name:bg":"\u0410\u043b\u043c\u0430\u0442\u0438\u0300","name:sr":"\u0410\u043b\u043c\u0430\u0442\u0438","alt_name:sv":"Alma-Ata","old_name:hy":"\u0531\u056c\u0574\u0561 \u0531\u0569\u0561","alt_name:ka":"\u10d0\u10da\u10db\u10d0-\u10d0\u10d7\u10d0","alt_name:ky":"\u0410\u043b\u043c\u0430-\u0410\u0442\u0430","alt_name:sh":"Alma-Ata","alt_name:os":"\u0410\u043b\u043c\u0430\u0301-\u0410\u0442\u0430\u0301","name:pt":"Almaty","old_name:it":"Vernyj","alt_name:gl":"Alma-At\u00e1","min_zoom":8.0,"name:ro":"Almat\u00ee","name:pl":"A\u0142maty","old_name:de":"Alma-Ata","alt_name:he":"\u05d0\u05dc\u05de\u05d4-\u05d0\u05d8\u05d4","alt_name:mk":"\u0410\u043b\u043c\u0430 \u0410\u0442\u0430","name:mr":"\u0905\u0932\u094d\u092e\u093e\u091f\u0940","alt_name:hr":"Alma Ata","name:tr":"Almat\u0131","name:hi":"\u0905\u0932\u094d\u092e\u093e\u091f\u0940","old_name:es":"Verni;Vernyy;Viernyi","name:he":"\u05d0\u05dc\u05de\u05d8\u05d9","old_name:eu":"Alma-Ata","old_name:et":"Vern\u00f5i","old_name:en":"Verniy;Alma-Ata","name:hy":"\u0531\u056c\u0574\u0561\u0569\u056b","name:hu":"Almati","name:hr":"Almati","alt_name:yo":"Alma-Ata","alt_name:sr":"\u0410\u043b\u043c\u0430 \u0410\u0442\u0430","old_name:uk":"\u0412\u0456\u0440\u043d\u0438\u0439","kind":"locality","old_name:bg":"\u0412\u0435\u0440\u043d\u0438\u0439","old_name:ba":"\u0412\u0435\u0440\u043d\u043e\u0435","old_name:uz":"Verniy","alt_name:it":"Alma-Ata","name:yi":"\u05d0\u05b7\u05dc\u05de\u05d0\u05b7\u05d8\u05d9\u05e2","name:yo":"Almaty","alt_name:el":"\u0386\u03bb\u03bc\u03b1 \u0386\u03c4\u03b1","name:ms":"Almaty","alt_name:mr":"\u0905\u0932\u094d\u092e\u093e-\u0905\u0924\u093e","int_name":"Almaty","name:vi":"Almaty","alt_name:et":"Almat\u0131","old_name:fi":"Alma-Ata","id":26544289,"name:mk":"\u0410\u043b\u043c\u0430\u0442\u0438","name:fa":"\u0622\u0644\u0645\u0627\u062a\u06cc","name:fi":"Almaty","old_name:vi":"Verniy","alt_name:vi":"Alma-Ata","name:fr":"Almaty","alt_name:es":"Alm\u00e1-At\u00e1","alt_name:fi":"Almat\u0131","name:nl":"Almaty","name:nn":"Almaty","name:no":"Almaty","alt_name:fa":"\u0622\u0644\u0645\u0627\u0622\u062a\u06cc","old_name:gl":"Verny","alt_name:fr":"Alma-Ata","alt_name:nl":"Alma-Ata","name:ga":"Almaty","name:gd":"Almaty","name:gl":"Almati","old_name:ca":"Verni","old_name:lv":"Vernija"},"coordinates":[2937,674]},{"type":"Point","properties":{"kind":"locality","name:en":"Kaskelen","name":"\u041a\u0430\u0441\u043a\u0435\u043b\u0435\u043d","kind_detail":"town","name:kk":"\u049a\u0430\u0441\u043a\u0435\u043b\u0435\u04a3","name:de":"Qaskeleng","source":"openstreetmap.org","min_zoom":8.0,"int_name":"Kaskelen","old_name":"\u0421\u0442\u0430\u043d\u0438\u0446\u0430 \u041b\u044e\u0431\u043b\u0438\u043d\u043e","name:zh":"\u5361\u65af\u514b\u8fde","id":1282416486,"population":64151},"coordinates":[2001,536]},{"type":"Point","properties":{"kind":"locality","name:en":"Talgar","name":"\u0422\u0430\u043b\u0433\u0430\u0440","kind_detail":"town","name:kk":"\u0422\u0430\u043b\u0493\u0430\u0440","name:de":"Talghar","source":"openstreetmap.org","min_zoom":8.0,"int_name":"Talgar","old_name":"\u0421\u043e\u0444\u0438\u044f","name:zh":"\u5854\u5c14\u52a0\u5c14","id":27522202,"population":47330},"coordinates":[3792,940]},{"type":"Point","properties":{"kind":"locality","name:en":"Kapchagay","name":"\u041a\u0430\u043f\u0447\u0430\u0433\u0430\u0439","kind_detail":"town","name:kk":"\u049a\u0430\u043f\u0448\u0430\u0493\u0430\u0439","name:de":"Qapschaghai","source":"openstreetmap.org","min_zoom":8.0,"int_name":"Kapchagay","name:zh":"\u5361\u666e\u6070\u76d6","id":242465214,"population":43000},"coordinates":[3308,3225]},{"type":"Point","properties":{"kind":"locality","name:en":"Boralday","name":"\u0411\u043e\u0440\u0430\u043b\u0434\u0430\u0439","kind_detail":"town","source":"openstreetmap.org","min_zoom":8.0,"id":3726640330,"population":27188},"coordinates":[2685,1161]},{"type":"Point","properties":{"kind":"locality","name:en":"Kargaly","name":"\u041a\u0430\u0440\u0433\u0430\u043b\u044b","kind_detail":"town","source":"openstreetmap.org","min_zoom":8.0,"int_name":"Kargaly","old_name":"\u0424\u0430\u0431\u0440\u0438\u0447\u043d\u044b\u0439","id":451702142,"population":20114},"coordinates":[1390,385]},{"type":"Point","properties":{"kind":"locality","int_name":"Chemolgan","name":"\u0428\u0430\u043c\u0430\u043b\u0433\u0430\u043d","short_name":"\u0441\/\u0442 \u0428\u0430\u043c\u0430\u043b\u0433\u0430\u043d","kind_detail":"town","name:kk":"\u0428\u0430\u043c\u0430\u043b\u0493\u0430\u043d","source":"openstreetmap.org","min_zoom":8.0,"old_name":"\u0441\u0442\u0430\u043d\u0446\u0438\u044f \u0427\u0435\u043c\u043e\u043b\u0433\u0430\u043d","id":243997970,"population":15163},"coordinates":[2000,1212]}]},"transit":{"type":"GeometryCollection","geometries":[{"type":"LineString","properties":{"kind":"subway","name":"\u0411\u0456\u0440\u0456\u043d\u0448\u0456 \u0431\u0430\u0493\u044b\u0442: \u041c\u043e\u0441\u043a\u0432\u0430 \u2192 \u0420\u0430\u0439\u044b\u043c\u0431\u0435\u043a \u0431\u0430\u0442\u044b\u0440\u0430","sort_rank":275,"colour":"red","source":"openstreetmap.org","min_zoom":8.0,"operator":"\u041a\u0413\u041f \u00ab\u041c\u0435\u0442\u0440\u043e\u043f\u043e\u043b\u0438\u0442\u0435\u043d\u00bb","ref":"1","id":-7734271,"osm_relation":true,"colour_name":"red"},"arcs":[2]},{"type":"MultiLineString","properties":{"kind":"train","name:en":"Turkestan-Siberia Railway","name":"\u0422\u0443\u0440\u043a\u0441\u0438\u0431","sort_rank":275,"source":"openstreetmap.org","min_zoom":6.0,"ref":"\u0422\u0443\u0440\u043a\u0441\u0438\u0431","osm_relation":true},"arcs":[[3],[4],[5]]},{"type":"MultiLineString","properties":{"kind":"train","network":"\u049a\u0422\u0416","sort_rank":275,"name:de":"49\/50 Aktobe<=>Almaty","source":"openstreetmap.org","min_zoom":6.0,"ref":"49\/50","osm_relation":true,"name":"49\/50 \u0410\u043a\u0442\u043e\u0431\u0435<=>\u0410\u043b\u043c\u0430\u0442\u044b"},"arcs":[[6],[7]]},{"type":"LineString","properties":{"kind":"subway","name":"\u0411\u0456\u0440\u0456\u043d\u0448\u0456 \u0431\u0430\u0493\u044b\u0442: \u0420\u0430\u0439\u044b\u043c\u0431\u0435\u043a \u0431\u0430\u0442\u044b\u0440\u0430 \u2192 \u041c\u043e\u0441\u043a\u0432\u0430","sort_rank":275,"colour":"red","source":"openstreetmap.org","min_zoom":8.0,"operator":"\u041a\u0413\u041f \u00ab\u041c\u0435\u0442\u0440\u043e\u043f\u043e\u043b\u0438\u0442\u0435\u043d\u00bb","ref":"1","id":-5555280,"osm_relation":true,"colour_name":"red"},"arcs":[8]},{"type":"MultiLineString","properties":{"kind":"train","name":"7 \u041c\u043e\u0441\u043a\u0432\u0430 \u2014 \u0410\u043b\u043c\u0430\u0442\u044b","sort_rank":275,"name:de":"7 Moskau - Almaty","source":"openstreetmap.org","min_zoom":6.0,"ref":"7","osm_relation":true,"description":"7 Moskau -> Almaty \/ 7 Almaty -> Moskau"},"arcs":[[9],[10]]},{"type":"LineString","properties":{"kind":"train","name":"1\/2 \u0410\u043b\u043c\u0430\u0442\u044b<=>\u0410\u0441\u0442\u0430\u043d\u0430","sort_rank":275,"description":"1 \u0410\u043b\u043c\u0430\u0442\u044b -> \u0410\u0441\u0442\u0430\u043d\u0430 \/ 2 \u0410\u0441\u0442\u0430\u043d\u0430 -> \u0410\u043b\u043c\u0430\u0442\u044b","name:de":"1\/2 Almaty<=>Astana","source":"openstreetmap.org","min_zoom":6.0,"operator":"\u049a\u0422\u0416","ref":"1\/2","osm_relation":true,"network":"\u049a\u0422\u0416"},"arcs":[11]},{"type":"MultiLineString","properties":{"kind":"train","network":"unknown","sort_rank":275,"description":"13 \u00dcr\u00fcmqi -> Almaty \/ 14 Almaty -> \u00dcr\u00fcmqi","name:de":"13\/14 Urumchi<=>Almaty","source":"openstreetmap.org","min_zoom":6.0,"name:ru":"13\/14 \u0423\u0440\u0443\u043c\u0447\u0438<=>\u0410\u043b\u043c\u0430\u0442\u044b","ref":"13\/14","osm_relation":true,"name":"13\/14 \u4e4c\u9c81\u6728\u9f50<=>\u0410\u043b\u043c\u0430\u0442\u044b"},"arcs":[[12],[13],[14],[15],[16],[17],[18],[19],[20],[21],[22]]},{"type":"MultiLineString","properties":{"kind":"train","network":"\u049a\u0422\u0416","sort_rank":275,"name:de":"69 Almaty<=>Zaschita","source":"openstreetmap.org","min_zoom":6.0,"operator":"\u049a\u0422\u0416","ref":"69","osm_relation":true,"name":"69 \u0410\u043b\u043c\u0430\u0442\u044b<=>\u0417\u0430\u0448\u0438\u0442\u0430"},"arcs":[[23],[24],[25],[26],[27],[28],[29],[30],[31],[32],[33]]},{"type":"MultiLineString","properties":{"kind":"train","description":"385\/386 \u0411\u0438\u0448\u043a\u0435\u043a - \u041d\u043e\u0432\u043e\u043a\u0443\u0437\u043d\u0435\u0446\u043a","name":"385 \u0411\u0438\u0448\u043a\u0435\u043a <=> \u041d\u043e\u0432\u043e\u043a\u0443\u0437\u043d\u0435\u0446\u043a","sort_rank":275,"name:de":"385 Bischkek 2<=>Nowokusnezk","source":"openstreetmap.org","min_zoom":6.0,"operator":"\u041a\u0422\u0416","ref":"385","osm_relation":true,"network":"\u041a\u0422\u0416"},"arcs":[[34],[35]]},{"type":"MultiLineString","properties":{"kind":"train","alt_name:en":"New Eurasian Continental Bridge","network":"Eurasian Land Bridge","alt_name:de":"Zweite eurasische Kontinentalbr\u00fccke","sort_rank":275,"name:de":"Neue eurasische Kontinentalbr\u00fccke","source":"openstreetmap.org","min_zoom":6.0,"osm_relation":true,"name":"New Eurasian Land Bridge"},"arcs":[[36],[37],[38],[39],[40],[41],[42],[43],[44],[45],[46],[47],[48]]},{"type":"LineString","properties":{"kind":"train","name":"701\/702 \u0410\u043b\u043c\u0430\u0442\u044b<=>\u041f\u0435\u0442\u0440\u043e\u043f\u0430\u0432\u043b\u043e\u0432\u0441\u043a","sort_rank":275,"name:de":"701\/702 Almaty<=>Petropavlovsk","source":"openstreetmap.org","min_zoom":6.0,"ref":"701\/702","osm_relation":true,"network":"\u049a\u0422\u0416"},"arcs":[49]},{"type":"MultiLineString","properties":{"kind":"train","network":"\u049a\u0422\u0416","sort_rank":275,"name:de":"77 Almaty<=>Atyrau","source":"openstreetmap.org","min_zoom":6.0,"ref":"77","osm_relation":true,"name":"77 A\u043b\u043c\u0430\u0442\u044b<=>\u0410\u0442\u044b\u0440\u0430\u0443"},"arcs":[[50],[51],[52],[53]]}]},"pois":{"type":"GeometryCollection","geometries":[{"type":"Point","properties":{"source":"openstreetmap.org","kind":"military","name":"\u041d\u0438\u043a\u043e\u043b\u0430\u0435\u0432\u043a\u0430","area":10669600,"tier":3,"min_zoom":8.0,"id":542473386},"coordinates":[3436,2692]}]},"boundaries":{"type":"GeometryCollection","geometries":[{"type":"LineString","properties":{"old_name:left:ru":"\u0410\u043b\u043c\u0430-\u0410\u0442\u0430","name:right:ja":"\u30a2\u30eb\u30de\u30c8\u30a4\u5dde","int_name:left":"Almaty","name:left:ja":"\u30a2\u30eb\u30de\u30c8\u30a4","id:right":-215718,"name:right:lt":"Almatos sritis","min_zoom":8.0,"name:left:lt":"Almata","name:left:lv":"Almati","name:left:hu":"Almati","id":-2465058,"name:left:hr":"Almati","name:right":"\u0410\u043b\u043c\u0430\u0442\u0438\u043d\u0441\u043a\u0430\u044f \u043e\u0431\u043b\u0430\u0441\u0442\u044c","name:left:en":"Almaty","name:right:ca":"Prov\u00edncia d'Almati","kind_detail":"4","name:left:ca":"Almati","source":"openstreetmap.org","id:left":-2465058,"name:left:es":"Almat\u00fd","name:right:kk":"\u0410\u043b\u043c\u0430\u0442\u044b \u043e\u0431\u043b\u044b\u0441\u044b","name:left":"\u0410\u043b\u043c\u0430\u0442\u044b","name:left:tr":"Almat\u0131","name:left:ro":"Almat\u00ee","name:left:pt":"Almaty","name:left:de":"Almaty","name:left:it":"Almaty","name:right:en":"Almaty Region","osm_relation":true,"kind":"region","name":"\u0410\u043b\u043c\u0430\u0442\u044b - \u0410\u043b\u043c\u0430\u0442\u0438\u043d\u0441\u043a\u0430\u044f \u043e\u0431\u043b\u0430\u0441\u0442\u044c","name:right:de":"Gebiet Almaty","name:left:nl":"Almaty","sort_rank":256,"name:left:fr":"Almaty","name:left:et":"Almat\u00f5","old_name:left":"Verniy\\s Alma-Ata"},"arcs":[0]},{"type":"LineString","properties":{"kind":"region","name:en":"Almaty Region","name":"\u0410\u043b\u043c\u0430\u0442\u0438\u043d\u0441\u043a\u0430\u044f \u043e\u0431\u043b\u0430\u0441\u0442\u044c","name:lt":"Almatos sritis","sort_rank":256,"kind_detail":"4","name:kk":"\u0410\u043b\u043c\u0430\u0442\u044b \u043e\u0431\u043b\u044b\u0441\u044b","name:de":"Gebiet Almaty","source":"openstreetmap.org","min_zoom":8.0,"name:ca":"Prov\u00edncia d'Almati","id":-215718,"osm_relation":true,"name:ja":"\u30a2\u30eb\u30de\u30c8\u30a4\u5dde"},"arcs":[1]}]},"roads":{"type":"GeometryCollection","geometries":[{"type":"LineString","properties":{"kind":"major_road","name:en":"Al-Farabi Avenue","sort_rank":380,"landuse_kind":"urban_area","source":"openstreetmap.org","min_zoom":8.0,"kind_detail":"primary","id":315039625},"arcs":[56]},{"type":"MultiLineString","properties":{"bus_network":null,"name:en":"Raiymbek Ave","sort_rank":380,"kind_detail":"primary","old_name":"\u0443\u043b\u0438\u0446\u0430 \u0422\u0430\u0448\u043a\u0435\u043d\u0442\u0441\u043a\u0430\u044f","kind":"major_road","source":"openstreetmap.org","min_zoom":8.0,"bus_shield_text":"4","name:ru":"\u043f\u0440\u043e\u0441\u043f\u0435\u043a\u0442 \u0420\u0430\u0438\u043c\u0431\u0435\u043a\u0430","landuse_kind":"urban_area","ref":"M-36"},"arcs":[[57],[58]]},{"type":"LineString","properties":{"cycleway_right":"track","name:en":"Abay Avenue (West)","sort_rank":380,"kind_detail":"primary","is_bicycle_related":true,"kind":"major_road","bus_network":null,"source":"openstreetmap.org","min_zoom":8.0,"bus_shield_text":"92","landuse_kind":"urban_area","id":384959687},"arcs":[59]},{"type":"MultiLineString","properties":{"bus_network":null,"sort_rank":380,"kind_detail":"primary","kind":"major_road","source":"openstreetmap.org","min_zoom":8.0,"bus_shield_text":"104","landuse_kind":"urban_area"},"arcs":[[60],[61],[62],[63],[64],[65],[66]]},{"type":"LineString","properties":{"kind":"major_road","int_name":"Seyfullin av.","sort_rank":380,"kind_detail":"primary","name:kk":"\u0421\u0435\u0439\u0444\u0443\u043b\u043b\u0438\u043d \u0434\u0430\u04a3.","bus_network":null,"source":"openstreetmap.org","min_zoom":8.0,"bus_shield_text":"114","landuse_kind":"urban_area","id":257416339},"arcs":[67]},{"type":"MultiLineString","properties":{"kind":"major_road","network":"AsianHighway","sort_rank":381,"landuse_kind":"urban_area","source":"openstreetmap.org","min_zoom":8.0,"old_name":"\u0443\u043b\u0438\u0446\u0430 \u0421\u043a\u043e\u0442\u043e\u043f\u0440\u043e\u0433\u043e\u043d\u043d\u0430\u044f","shield_text":"5","kind_detail":"trunk","ref":"A-2"},"arcs":[[68],[69],[70]]},{"type":"LineString","properties":{"bus_network":null,"int_name":"Ryskulov ave.","network":"AsianHighway","sort_rank":381,"kind_detail":"trunk","old_name":"\u0443\u043b\u0438\u0446\u0430 \u0421\u043a\u043e\u0442\u043e\u043f\u0440\u043e\u0433\u043e\u043d\u043d\u0430\u044f","kind":"major_road","source":"openstreetmap.org","min_zoom":8.0,"name:en":"Ryskulov Ave","bus_shield_text":"104","shield_text":"5","landuse_kind":"urban_area","ref":"A-2","id":335064422},"arcs":[71]},{"type":"LineString","properties":{"kind":"major_road","sort_rank":380,"kind_detail":"primary","old_name":"\u0443\u043b\u0438\u0446\u0430 \u041b\u043e\u0431\u0430\u0447\u0435\u0432\u0441\u043a\u043e\u0433\u043e","bus_network":null,"source":"openstreetmap.org","min_zoom":8.0,"bus_shield_text":"17","landuse_kind":"urban_area","id":40496484},"arcs":[72]},{"type":"LineString","properties":{"kind":"major_road","network":"AsianHighway","sort_rank":381,"landuse_kind":"urban_area","source":"openstreetmap.org","min_zoom":8.0,"old_name":"\u0443\u043b\u0438\u0446\u0430 \u0422\u0430\u0448\u043a\u0435\u043d\u0442\u0441\u043a\u0430\u044f","shield_text":"5","kind_detail":"trunk"},"arcs":[73]},{"type":"LineString","properties":{"kind":"major_road","sort_rank":380,"kind_detail":"primary","old_name":"\u0443\u043b\u0438\u0446\u0430 4 \u0422\u0430\u0448\u043a\u0435\u043d\u0442\u0441\u043a\u0430\u044f","bus_network":null,"source":"openstreetmap.org","min_zoom":8.0,"bus_shield_text":"4","landuse_kind":"urban_area","ref":"A-351","id":228471320},"arcs":[74]},{"type":"LineString","properties":{"bus_network":null,"network":"AsianHighway","sort_rank":380,"kind_detail":"primary","kind":"major_road","source":"openstreetmap.org","min_zoom":8.0,"bus_shield_text":"117","shield_text":"5"},"arcs":[75]},{"type":"LineString","properties":{"kind":"major_road","name:en":"Al-Farabi Avevenue (East)","sort_rank":380,"kind_detail":"primary","bus_network":null,"source":"openstreetmap.org","min_zoom":8.0,"bus_shield_text":"86","landuse_kind":"urban_area","id":314471358},"arcs":[76]},{"type":"LineString","properties":{"kind":"major_road","sort_rank":380,"kind_detail":"primary","source":"openstreetmap.org","min_zoom":8.0,"old_name":"\u0410\u043b\u044c\u0444\u0430 \u0420\u0430\u0431\u0438","landuse_kind":"urban_area","id":242877276},"arcs":[77]},{"type":"MultiLineString","properties":{"kind":"major_road","sort_rank":380,"kind_detail":"primary","source":"openstreetmap.org","min_zoom":8.0,"old_name":"\u0443\u043b\u0438\u0446\u0430 \u0422\u0430\u0448\u043a\u0435\u043d\u0442\u0441\u043a\u0430\u044f","landuse_kind":"urban_area","ref":"M-36"},"arcs":[[78],[79],[80]]},{"type":"MultiLineString","properties":{"source":"openstreetmap.org","kind":"major_road","landuse_kind":"urban_area","sort_rank":380,"kind_detail":"primary","ref":"P-17","min_zoom":8.0},"arcs":[[81],[82]]},{"type":"LineString","properties":{"kind":"major_road","sort_rank":380,"kind_detail":"primary","old_name":"\u0443\u043b\u0438\u0446\u0430 \u0428\u043e\u0441\u0441\u0435\u0439\u043d\u0430\u044f","bus_network":null,"source":"openstreetmap.org","min_zoom":8.0,"bus_shield_text":"4","landuse_kind":"urban_area","ref":"A-6","id":391729023},"arcs":[83]},{"type":"LineString","properties":{"kind":"major_road","sort_rank":380,"kind_detail":"primary","bus_shield_text":"121,66,5,65,29","bus_network":null,"source":"openstreetmap.org","min_zoom":8.0,"old_name":"\u0410\u043b\u044c\u0444\u0430 \u0420\u0430\u0431\u0438","landuse_kind":"urban_area","id":235606908},"arcs":[84]},{"type":"MultiLineString","properties":{"bus_network":null,"sort_rank":380,"kind_detail":"primary","kind":"major_road","source":"openstreetmap.org","min_zoom":8.0,"bus_shield_text":"86","landuse_kind":"urban_area"},"arcs":[[85],[86],[87],[88]]},{"type":"MultiLineString","properties":{"kind":"major_road","name:en":"Al-Farabi Avenue (West)","sort_rank":380,"kind_detail":"primary","source":"openstreetmap.org","min_zoom":8.0,"old_name":"\u0443\u043b\u0438\u0446\u0430 \u0412\u043e\u0434\u043e\u0437\u0430\u0431\u043e\u0440\u043d\u0430\u044f","landuse_kind":"urban_area"},"arcs":[[89],[90],[91],[92],[93]]},{"type":"LineString","properties":{"kind":"major_road","network":"AsianHighway","sort_rank":380,"kind_detail":"primary","bus_network":null,"source":"openstreetmap.org","min_zoom":8.0,"bus_shield_text":"351","shield_text":"5","ref":"A-6","id":127623295},"arcs":[94]},{"type":"LineString","properties":{"kind":"major_road","name:en":"Abay Avenue (East)","sort_rank":380,"kind_detail":"primary","name:kk":"\u0410\u0431\u0430\u044f \u0434\u0430\u04a3.","bus_network":null,"source":"openstreetmap.org","min_zoom":8.0,"int_name":"Abay av.","bus_shield_text":"34","landuse_kind":"urban_area","id":257692780},"arcs":[95]},{"type":"MultiLineString","properties":{"kind":"major_road","int_name":"Ryskulov ave.","network":"AsianHighway","sort_rank":381,"landuse_kind":"urban_area","source":"openstreetmap.org","min_zoom":8.0,"old_name":"\u041c\u043e\u0441\u043a\u0432\u0438\u043d\u0430;\u0421\u043a\u043e\u0442\u043e\u043f\u0440\u043e\u0433\u043e\u043d\u043d\u0430\u044f;\u0422\u0440\u0435\u0442\u044c\u044f\u043a\u043e\u0432\u0430;\u041f\u043e\u0434\u0432\u043e\u0439\u0441\u043a\u043e\u0433\u043e","shield_text":"5","kind_detail":"trunk","ref":"A-2"},"arcs":[[96],[97]]},{"type":"LineString","properties":{"kind":"major_road","name:en":"Al-Farabi Avenue (West)","sort_rank":380,"kind_detail":"primary","bus_shield_text":"34","bus_network":null,"source":"openstreetmap.org","min_zoom":8.0,"old_name":"\u0443\u043b\u0438\u0446\u0430 \u0412\u043e\u0434\u043e\u0437\u0430\u0431\u043e\u0440\u043d\u0430\u044f","landuse_kind":"urban_area","id":242879848},"arcs":[98]},{"type":"MultiLineString","properties":{"bus_network":null,"int_name":"Ryskulov ave.","sort_rank":380,"landuse_kind":"urban_area","old_name":"\u0443\u043b\u0438\u0446\u0430 \u0417\u0430\u043f\u0430\u0434\u043d\u0430\u044f","kind":"major_road","source":"openstreetmap.org","min_zoom":8.0,"bus_shield_text":"104","kind_detail":"primary"},"arcs":[[99],[100]]},{"type":"LineString","properties":{"source":"openstreetmap.org","kind":"major_road","old_name":"\u0443\u043b\u0438\u0446\u0430 \u041f\u043e\u0431\u0435\u0434\u044b","sort_rank":380,"kind_detail":"primary","landuse_kind":"residential","min_zoom":8.0},"arcs":[101]},{"type":"LineString","properties":{"kind":"major_road","network":"AsianHighway","sort_rank":381,"kind_detail":"trunk","source":"openstreetmap.org","min_zoom":8.0,"old_name":"\u0443\u043b\u0438\u0446\u0430 \u0421\u043e\u0440\u0431\u0443\u043b\u0430\u043a\u0441\u043a\u0430\u044f","shield_text":"60","ref":"M-36","id":230099144},"arcs":[102]},{"type":"MultiLineString","properties":{"bus_network":null,"name:en":"Raiymbek Avenue","sort_rank":380,"kind_detail":"primary","bus_shield_text":"4","kind":"major_road","source":"openstreetmap.org","min_zoom":8.0,"old_name":"\u0443\u043b\u0438\u0446\u0430 \u0422\u0430\u0448\u043a\u0435\u043d\u0442\u0441\u043a\u0430\u044f","landuse_kind":"urban_area"},"arcs":[[103],[104]]},{"type":"LineString","properties":{"kind":"major_road","name:en":"Al-Farabi Avenue (West)","sort_rank":380,"kind_detail":"primary","bus_shield_text":"121,66,5,65,29","bus_network":null,"source":"openstreetmap.org","min_zoom":8.0,"old_name":"\u0443\u043b\u0438\u0446\u0430 \u0412\u043e\u0434\u043e\u0437\u0430\u0431\u043e\u0440\u043d\u0430\u044f","landuse_kind":"urban_area","id":238008750},"arcs":[105]},{"type":"LineString","properties":{"kind":"major_road","sort_rank":380,"kind_detail":"primary","source":"openstreetmap.org","min_zoom":8.0,"old_name":"\u0443\u043b\u0438\u0446\u0430 \u041a\u0440\u0435\u043c\u043b\u0451\u0432\u0441\u043a\u0430\u044f","ref":"\u0410\u041b 15","id":359786903},"arcs":[106]},{"type":"MultiLineString","properties":{"bus_network":null,"network":"AsianHighway","sort_rank":380,"kind_detail":"primary","old_name":"\u041a\u0443\u043b\u044c\u0434\u0436\u0438\u043d\u0441\u043a\u0438\u0439 \u0442\u0440\u0430\u043a\u0442","kind":"major_road","source":"openstreetmap.org","min_zoom":8.0,"bus_shield_text":"212","shield_text":"5","ref":"A-6"},"arcs":[[107],[108]]},{"type":"MultiLineString","properties":{"source":"openstreetmap.org","kind":"major_road","landuse_kind":"urban_area","sort_rank":380,"kind_detail":"primary","ref":"A-6","min_zoom":8.0},"arcs":[[109],[110]]},{"type":"MultiLineString","properties":{"bus_network":null,"sort_rank":380,"kind_detail":"primary","kind":"major_road","source":"openstreetmap.org","min_zoom":8.0,"bus_shield_text":"117","landuse_kind":"urban_area"},"arcs":[[111],[112]]},{"type":"LineString","properties":{"cycleway_right":"track","sort_rank":380,"kind_detail":"primary","is_bicycle_related":true,"kind":"major_road","source":"openstreetmap.org","min_zoom":8.0,"landuse_kind":"urban_area","id":228943283},"arcs":[113]},{"type":"LineString","properties":{"cycleway_right":"track","sort_rank":380,"kind_detail":"primary","bus_shield_text":"92","is_bicycle_related":true,"kind":"major_road","bus_network":null,"source":"openstreetmap.org","min_zoom":8.0,"old_name":"\u0443\u043b\u0438\u0446\u0430 \u0413\u043e\u043b\u043e\u0432\u043d\u0443\u0445\u0430","landuse_kind":"urban_area","id":211082870},"arcs":[114]},{"type":"LineString","properties":{"kind":"major_road","name:en":"Rozybakiev St","sort_rank":380,"kind_detail":"primary","name:kk":"\u0420\u043e\u0437\u044b\u0431\u0430\u043a\u0438\u0435\u0432 \u043a\u04e9\u0448.","source":"openstreetmap.org","min_zoom":8.0,"int_name":"Rozybakiev str.","landuse_kind":"urban_area","id":241773699},"arcs":[115]},{"type":"LineString","properties":{"kind":"major_road","sort_rank":380,"kind_detail":"primary","bus_network":null,"source":"openstreetmap.org","min_zoom":8.0,"bus_shield_text":"212","landuse_kind":"urban_area","ref":"P-17","id":227918834},"arcs":[116]},{"type":"MultiLineString","properties":{"kind":"major_road","network":"e-road","sort_rank":380,"kind_detail":"primary","source":"openstreetmap.org","min_zoom":8.0,"landuse_kind":"urban_area","shield_text":"40"},"arcs":[[117],[118]]},{"type":"MultiLineString","properties":{"bus_network":null,"sort_rank":380,"kind_detail":"primary","kind":"major_road","source":"openstreetmap.org","min_zoom":8.0,"bus_shield_text":"212","landuse_kind":"residential"},"arcs":[[119],[120]]},{"type":"MultiLineString","properties":{"bus_network":null,"network":"e-road","sort_rank":380,"kind_detail":"primary","old_name":"\u0443\u043b\u0438\u0446\u0430 17-\u0430\u044f \u041b\u0438\u043d\u0438\u044f","kind":"major_road","source":"openstreetmap.org","min_zoom":8.0,"bus_shield_text":"104","shield_text":"40","landuse_kind":"urban_area"},"arcs":[[121],[122],[123],[124],[125],[126],[127],[128]]},{"type":"MultiLineString","properties":{"bus_network":null,"network":"AsianHighway","sort_rank":380,"kind_detail":"primary","kind":"major_road","source":"openstreetmap.org","min_zoom":8.0,"bus_shield_text":"212","shield_text":"5","ref":"A-2"},"arcs":[[129],[130]]},{"type":"LineString","properties":{"kind":"major_road","sort_rank":380,"kind_detail":"primary","bus_shield_text":"92","bus_network":null,"source":"openstreetmap.org","min_zoom":8.0,"old_name":"\u0443\u043b\u0438\u0446\u0430 \u0413\u043e\u043b\u043e\u0432\u043d\u0443\u0445\u0430","landuse_kind":"urban_area","id":428279202},"arcs":[131]},{"type":"LineString","properties":{"source":"openstreetmap.org","kind":"major_road","old_name":"\u0426\u0435\u043d\u0442\u0440\u0430\u043b\u044c\u043d\u0430\u044f \u0443\u043b\u0438\u0446\u0430","sort_rank":380,"kind_detail":"primary","min_zoom":8.0,"id":173103019},"arcs":[132]},{"type":"MultiLineString","properties":{"bus_network":null,"sort_rank":380,"kind_detail":"primary","kind":"major_road","source":"openstreetmap.org","min_zoom":8.0,"bus_shield_text":"92","landuse_kind":"urban_area"},"arcs":[[133],[134],[135],[136],[137]]},{"type":"LineString","properties":{"kind":"major_road","network":"AsianHighway","sort_rank":380,"kind_detail":"primary","bus_network":null,"source":"openstreetmap.org","min_zoom":8.0,"bus_shield_text":"117","shield_text":"5","ref":"A-351","id":227903260},"arcs":[138]},{"type":"LineString","properties":{"kind":"major_road","sort_rank":380,"kind_detail":"primary","old_name":"\u0443\u043b\u0438\u0446\u0430 4 \u0422\u0430\u0448\u043a\u0435\u043d\u0442\u0441\u043a\u0430\u044f","bus_network":null,"source":"openstreetmap.org","min_zoom":8.0,"bus_shield_text":"4","landuse_kind":"urban_area","id":171881541},"arcs":[139]},{"type":"LineString","properties":{"bus_network":null,"sort_rank":380,"kind_detail":"primary","bus_shield_text":"335","kind":"major_road","source":"openstreetmap.org","min_zoom":8.0,"old_name":"\u0412\u0435\u0440\u0445\u043d\u044f\u044f","ref":"A-4"},"arcs":[140]},{"type":"LineString","properties":{"kind":"major_road","name:en":"Ryskulov Avenue","network":"AsianHighway","sort_rank":381,"kind_detail":"trunk","source":"openstreetmap.org","min_zoom":8.0,"old_name":"\u041c\u043e\u0441\u043a\u0432\u0438\u043d\u0430;\u0421\u043a\u043e\u0442\u043e\u043f\u0440\u043e\u0433\u043e\u043d\u043d\u0430\u044f;\u0422\u0440\u0435\u0442\u044c\u044f\u043a\u043e\u0432\u0430;\u041f\u043e\u0434\u0432\u043e\u0439\u0441\u043a\u043e\u0433\u043e","shield_text":"5","landuse_kind":"urban_area","id":335064420},"arcs":[141]},{"type":"LineString","properties":{"kind":"major_road","sort_rank":380,"kind_detail":"primary","bus_shield_text":"2","bus_network":null,"source":"openstreetmap.org","min_zoom":8.0,"old_name":"\u0443\u043b\u0438\u0446\u0430 \u0422\u0430\u0448\u043a\u0435\u043d\u0442\u0441\u043a\u0430\u044f","landuse_kind":"urban_area","id":226834247},"arcs":[142]},{"type":"MultiLineString","properties":{"source":"openstreetmap.org","kind":"major_road","sort_rank":380,"kind_detail":"primary","ref":"\u0410\u041b 15","min_zoom":8.0},"arcs":[[143],[144],[145],[146],[147],[148]]},{"type":"MultiLineString","properties":{"bus_network":null,"sort_rank":380,"kind_detail":"primary","old_name":"\u0443\u043b\u0438\u0446\u0430 \u0422\u0430\u0448\u043a\u0435\u043d\u0442\u0441\u043a\u0430\u044f","kind":"major_road","source":"openstreetmap.org","min_zoom":8.0,"bus_shield_text":"100","name:ru":"\u043f\u0440\u043e\u0441\u043f\u0435\u043a\u0442 \u0420\u0430\u0438\u043c\u0431\u0435\u043a\u0430","landuse_kind":"urban_area"},"arcs":[[149],[150]]},{"type":"LineString","properties":{"kind":"major_road","network":"e-road","sort_rank":381,"landuse_kind":"urban_area","source":"openstreetmap.org","min_zoom":8.0,"kind_detail":"trunk","shield_text":"40"},"arcs":[151]},{"type":"MultiLineString","properties":{"bus_network":null,"network":"AsianHighway","sort_rank":380,"kind_detail":"primary","kind":"major_road","source":"openstreetmap.org","min_zoom":8.0,"bus_shield_text":"117","shield_text":"5","ref":"A-2"},"arcs":[[152],[153],[154],[155]]},{"type":"MultiLineString","properties":{"kind":"major_road","network":"AsianHighway","sort_rank":381,"landuse_kind":"urban_area","source":"openstreetmap.org","min_zoom":8.0,"old_name":"\u0443\u043b\u0438\u0446\u0430 \u0422\u0430\u0448\u043a\u0435\u043d\u0442\u0441\u043a\u0430\u044f","shield_text":"5","kind_detail":"trunk","ref":"A-2"},"arcs":[[156],[157]]},{"type":"LineString","properties":{"kind":"major_road","sort_rank":380,"kind_detail":"primary","bus_network":null,"source":"openstreetmap.org","min_zoom":8.0,"bus_shield_text":"212","id":219377703},"arcs":[158]},{"type":"LineString","properties":{"kind":"major_road","sort_rank":380,"kind_detail":"primary","old_name":"\u0412\u0435\u0440\u0445\u043d\u044f\u044f","bus_network":null,"source":"openstreetmap.org","min_zoom":8.0,"bus_shield_text":"104","landuse_kind":"urban_area","ref":"A-4","id":211082881},"arcs":[159]},{"type":"LineString","properties":{"kind":"major_road","name:en":"Talgar Route - Ryskulov Road","sort_rank":380,"landuse_kind":"urban_area","source":"openstreetmap.org","min_zoom":8.0,"kind_detail":"primary","id":242928988},"arcs":[160]},{"type":"MultiLineString","properties":{"source":"openstreetmap.org","kind":"highway","landuse_kind":"urban_area","sort_rank":383,"kind_detail":"motorway","ref":"AH5","min_zoom":8.0},"arcs":[[161],[162],[163],[164]]},{"type":"LineString","properties":{"kind":"major_road","sort_rank":380,"kind_detail":"primary","bus_shield_text":"121,66,5,65,29","bus_network":null,"source":"openstreetmap.org","min_zoom":8.0,"old_name":"\u0443\u043b\u0438\u0446\u0430 \u0412\u043e\u0434\u043e\u0437\u0430\u0431\u043e\u0440\u043d\u0430\u044f","landuse_kind":"urban_area","id":436983134},"arcs":[165]},{"type":"LineString","properties":{"bus_network":null,"sort_rank":380,"kind_detail":"primary","kind":"major_road","source":"openstreetmap.org","min_zoom":8.0,"bus_shield_text":"32","landuse_kind":"urban_area"},"arcs":[166]},{"type":"MultiLineString","properties":{"sort_rank":381,"source":"openstreetmap.org","min_zoom":8.0,"kind":"major_road","kind_detail":"trunk"},"arcs":[[167],[168],[169],[170],[171],[172],[173],[174],[175],[176],[177],[178],[179],[180],[181],[182],[183]]},{"type":"MultiLineString","properties":{"source":"openstreetmap.org","kind":"major_road","sort_rank":380,"kind_detail":"primary","ref":"P-17","min_zoom":8.0},"arcs":[[184],[185],[186],[187],[188],[189],[190],[191]]},{"type":"MultiLineString","properties":{"kind":"major_road","name:en":"Abay Avenue (East)","sort_rank":380,"kind_detail":"primary","bus_network":null,"source":"openstreetmap.org","min_zoom":8.0,"bus_shield_text":"34","landuse_kind":"urban_area","id":228767495},"arcs":[[192],[193],[194]]},{"type":"LineString","properties":{"kind":"major_road","name:en":"East Almaty Bypass Road (West)","sort_rank":380,"landuse_kind":"urban_area","source":"openstreetmap.org","min_zoom":8.0,"kind_detail":"primary","id":256672616},"arcs":[195]},{"type":"MultiLineString","properties":{"source":"openstreetmap.org","kind":"major_road","network":"AsianHighway","sort_rank":380,"kind_detail":"primary","min_zoom":8.0,"shield_text":"5"},"arcs":[[196],[197]]},{"type":"MultiLineString","properties":{"source":"openstreetmap.org","kind":"major_road","old_name":"\u0443\u043b\u0438\u0446\u0430 \u041a\u0440\u0435\u043c\u043b\u0451\u0432\u0441\u043a\u0430\u044f","sort_rank":380,"kind_detail":"primary","landuse_kind":"urban_area","min_zoom":8.0},"arcs":[[198],[199],[200]]},{"type":"MultiLineString","properties":{"source":"openstreetmap.org","kind":"major_road","landuse_kind":"residential","sort_rank":380,"kind_detail":"primary","ref":"A-4","min_zoom":8.0},"arcs":[[201],[202],[203],[204]]},{"type":"MultiLineString","properties":{"kind":"major_road","int_name":"Ryskulov ave.","network":"AsianHighway","sort_rank":381,"landuse_kind":"urban_area","source":"openstreetmap.org","min_zoom":8.0,"old_name":"\u0443\u043b\u0438\u0446\u0430 \u0421\u043a\u043e\u0442\u043e\u043f\u0440\u043e\u0433\u043e\u043d\u043d\u0430\u044f","shield_text":"5","kind_detail":"trunk"},"arcs":[[205],[206]]},{"type":"MultiLineString","properties":{"kind":"major_road","network":"kz:national","sort_rank":381,"kind_detail":"trunk","source":"openstreetmap.org","min_zoom":8.0,"shield_text":"36","ref":"M-36;A-2"},"arcs":[[207],[208]]},{"type":"LineString","properties":{"kind":"major_road","sort_rank":380,"kind_detail":"primary","bus_network":null,"source":"openstreetmap.org","min_zoom":8.0,"bus_shield_text":"336","id":385204717},"arcs":[209]},{"type":"LineString","properties":{"bus_network":null,"int_name":"Seyfullin av.","sort_rank":380,"kind_detail":"primary","bus_shield_text":"114","name:kk":"\u0421\u0435\u0439\u0444\u0443\u043b\u043b\u0438\u043d \u0434\u0430\u04a3.","kind":"major_road","source":"openstreetmap.org","min_zoom":8.0,"old_name":"\u0443\u043b\u0438\u0446\u0430 18-\u0430\u044f \u0421\u0430\u0440\u0442\u043e\u0432\u0441\u043a\u0430\u044f","landuse_kind":"urban_area"},"arcs":[210]},{"type":"LineString","properties":{"source":"openstreetmap.org","kind":"major_road","old_name":"\u0443\u043b\u0438\u0446\u0430 \u041a\u0440\u0435\u043c\u043b\u0451\u0432\u0441\u043a\u0430\u044f","sort_rank":380,"kind_detail":"primary","min_zoom":8.0,"id":26641347},"arcs":[211]},{"type":"LineString","properties":{"cycleway_right":"track","name:en":"Abay av.","sort_rank":380,"kind_detail":"primary","bus_shield_text":"92","is_bicycle_related":true,"kind":"major_road","name:kk":"\u0410\u0431\u0430\u0439 \u0434\u0430\u04a3\u0493.","bus_network":null,"source":"openstreetmap.org","min_zoom":8.0,"old_name":"\u0443\u043b\u0438\u0446\u0430 \u0413\u043e\u043b\u043e\u0432\u043d\u0443\u0445\u0430","landuse_kind":"urban_area","id":27461423},"arcs":[212]},{"type":"LineString","properties":{"kind":"major_road","network":"kz:national","sort_rank":381,"kind_detail":"trunk","source":"openstreetmap.org","min_zoom":8.0,"old_name":"\u0443\u043b\u0438\u0446\u0430 \u0427\u0435\u043c\u043e\u043b\u0433\u0430\u043d\u0433\u0441\u043a\u0430\u044f","shield_text":"36","ref":"M-36","id":173616158},"arcs":[213]},{"type":"LineString","properties":{"kind":"major_road","sort_rank":380,"kind_detail":"primary","old_name":"\u0443\u043b\u0438\u0446\u0430 \u0414\u0437\u0435\u0440\u0436\u0438\u043d\u0441\u043a\u043e\u0433\u043e","bus_network":null,"source":"openstreetmap.org","min_zoom":8.0,"bus_shield_text":"32","landuse_kind":"urban_area","id":4489476},"arcs":[214]},{"type":"MultiLineString","properties":{"kind":"major_road","name:en":"Ryskulov Ave","network":"AsianHighway","sort_rank":381,"landuse_kind":"urban_area","source":"openstreetmap.org","min_zoom":8.0,"kind_detail":"trunk","shield_text":"5"},"arcs":[[215],[216],[217]]},{"type":"MultiLineString","properties":{"source":"openstreetmap.org","kind":"major_road","old_name":"\u0443\u043b\u0438\u0446\u0430 \u0411\u0435\u043b\u0438\u043d\u0441\u043a\u043e\u0433\u043e","sort_rank":381,"landuse_kind":"urban_area","min_zoom":8.0,"kind_detail":"trunk"},"arcs":[[218],[219]]},{"type":"LineString","properties":{"kind":"major_road","sort_rank":380,"kind_detail":"primary","bus_network":null,"source":"openstreetmap.org","min_zoom":8.0,"bus_shield_text":"100","landuse_kind":"urban_area","ref":"A-2","id":228186902},"arcs":[220]},{"type":"LineString","properties":{"cycleway_right":"track","sort_rank":380,"kind_detail":"primary","is_bicycle_related":true,"kind":"major_road","bus_network":null,"source":"openstreetmap.org","min_zoom":8.0,"bus_shield_text":"92","landuse_kind":"urban_area","id":23648813},"arcs":[221]},{"type":"MultiLineString","properties":{"bus_network":null,"network":"AsianHighway","sort_rank":380,"kind_detail":"primary","old_name":"\u0443\u043b\u0438\u0446\u0430 \u0421\u043a\u043e\u0442\u043e\u043f\u0440\u043e\u0433\u043e\u043d\u043d\u0430\u044f","kind":"major_road","source":"openstreetmap.org","min_zoom":8.0,"bus_shield_text":"100","shield_text":"5","landuse_kind":"urban_area","ref":"A-2"},"arcs":[[222],[223],[224],[225]]},{"type":"MultiLineString","properties":{"source":"openstreetmap.org","kind":"major_road","old_name":"\u0443\u043b\u0438\u0446\u0430 \u0417\u0430\u043f\u0430\u0434\u043d\u0430\u044f","sort_rank":380,"kind_detail":"primary","min_zoom":8.0},"arcs":[[226],[227],[228]]},{"type":"LineString","properties":{"kind":"major_road","network":"e-road","sort_rank":380,"kind_detail":"primary","bus_shield_text":"104","bus_network":null,"source":"openstreetmap.org","min_zoom":8.0,"old_name":"\u0443\u043b\u0438\u0446\u0430 17-\u0430\u044f \u041b\u0438\u043d\u0438\u044f","shield_text":"40","landuse_kind":"urban_area","ref":"A-350","id":431352734},"arcs":[229]},{"type":"MultiLineString","properties":{"bus_network":null,"network":"e-road","sort_rank":380,"landuse_kind":"urban_area","kind":"major_road","source":"openstreetmap.org","min_zoom":8.0,"bus_shield_text":"104","shield_text":"40","kind_detail":"primary"},"arcs":[[230],[231],[232],[233],[234],[235],[236],[237],[238],[239],[240]]},{"type":"MultiLineString","properties":{"kind":"major_road","sort_rank":380,"kind_detail":"primary","source":"openstreetmap.org","min_zoom":8.0,"old_name":"\u0443\u043b\u0438\u0446\u0430 \u0422\u0430\u0448\u043a\u0435\u043d\u0442\u0441\u043a\u0430\u044f","landuse_kind":"urban_area","ref":"A-2"},"arcs":[[241],[242],[243],[244]]},{"type":"LineString","properties":{"kind":"major_road","sort_rank":380,"kind_detail":"primary","bus_shield_text":"34","bus_network":null,"source":"openstreetmap.org","min_zoom":8.0,"old_name":"\u0443\u043b\u0438\u0446\u0430 \u0412\u043e\u0434\u043e\u0437\u0430\u0431\u043e\u0440\u043d\u0430\u044f","landuse_kind":"urban_area","id":229188631},"arcs":[245]},{"type":"LineString","properties":{"bus_network":null,"sort_rank":380,"kind_detail":"primary","kind":"major_road","source":"openstreetmap.org","min_zoom":8.0,"bus_shield_text":"4","landuse_kind":"urban_area","ref":"P-17"},"arcs":[246]},{"type":"LineString","properties":{"kind":"major_road","sort_rank":380,"kind_detail":"primary","bus_network":null,"source":"openstreetmap.org","min_zoom":8.0,"bus_shield_text":"44","landuse_kind":"urban_area","id":48795302},"arcs":[247]},{"type":"MultiLineString","properties":{"bus_network":null,"sort_rank":380,"kind_detail":"primary","kind":"major_road","source":"openstreetmap.org","min_zoom":8.0,"bus_shield_text":"66","landuse_kind":"urban_area"},"arcs":[[248],[249],[250]]},{"type":"LineString","properties":{"kind":"major_road","name:en":"East Almaty Bypass Road (East)","sort_rank":380,"landuse_kind":"urban_area","source":"openstreetmap.org","min_zoom":8.0,"kind_detail":"primary","id":207810594},"arcs":[251]},{"type":"MultiLineString","properties":{"source":"openstreetmap.org","kind":"major_road","landuse_kind":"urban_area","sort_rank":380,"kind_detail":"primary","min_zoom":8.0},"arcs":[[252],[253],[254],[255],[256],[257],[258],[259],[260],[261],[262],[263],[264],[265],[266],[267],[268],[269],[270],[271],[272],[273],[274],[275],[276],[277],[278],[279],[280],[281],[282],[283],[284],[285],[286],[287],[288],[289],[290],[291],[292],[293],[294],[295],[296],[297],[298],[299],[300],[301],[302],[303],[304],[305],[306],[307],[308],[309],[310],[311],[312],[313],[314],[315],[316],[317],[318],[319],[320],[321],[322],[323],[324]]},{"type":"LineString","properties":{"kind":"major_road","name:en":"Abay av.","sort_rank":380,"kind_detail":"primary","bus_shield_text":"34","name:kk":"\u0410\u0431\u0430\u0439 \u0434\u0430\u04a3\u0493.","bus_network":null,"source":"openstreetmap.org","min_zoom":8.0,"old_name":"\u0443\u043b\u0438\u0446\u0430 \u0413\u043e\u043b\u043e\u0432\u043d\u0443\u0445\u0430","landuse_kind":"urban_area","id":231120412},"arcs":[325]},{"type":"LineString","properties":{"kind":"highway","name:en":"Almaty-Ust-Kamenogorsk (North)","network":"e-road","sort_rank":383,"kind_detail":"motorway","source":"openstreetmap.org","min_zoom":8.0,"all_networks":["e-road","AsianHighway"],"landuse_kind":"urban_area","shield_text":"40","ref":"A-3","id":539896969,"all_shield_texts":["40","60"]},"arcs":[326]},{"type":"MultiLineString","properties":{"bus_network":null,"sort_rank":381,"landuse_kind":"urban_area","bus_shield_text":"17","kind":"major_road","source":"openstreetmap.org","min_zoom":8.0,"old_name":"\u0443\u043b\u0438\u0446\u0430 \u0411\u0435\u043b\u0438\u043d\u0441\u043a\u043e\u0433\u043e","kind_detail":"trunk"},"arcs":[[327],[328]]},{"type":"LineString","properties":{"kind":"major_road","sort_rank":380,"kind_detail":"primary","old_name":"\u0443\u043b\u0438\u0446\u0430 \u0423\u043a\u0440\u0430\u0438\u043d\u0441\u043a\u0430\u044f","bus_network":null,"source":"openstreetmap.org","min_zoom":8.0,"bus_shield_text":"1","landuse_kind":"urban_area","id":210756289},"arcs":[329]},{"type":"LineString","properties":{"kind":"major_road","name:en":"East Side Almaty Road","sort_rank":380,"landuse_kind":"urban_area","source":"openstreetmap.org","min_zoom":8.0,"kind_detail":"primary","id":256672622},"arcs":[330]},{"type":"LineString","properties":{"kind":"major_road","network":"AsianHighway","sort_rank":381,"kind_detail":"trunk","source":"openstreetmap.org","min_zoom":8.0,"old_name":"\u0443\u043b. \u0422\u0430\u0448\u043a\u0435\u043d\u0442\u0441\u043a\u0430\u044f","shield_text":"5","landuse_kind":"urban_area","ref":"A-2","id":230093586},"arcs":[331]},{"type":"LineString","properties":{"kind":"major_road","name:en":"Raiymbek Ave","sort_rank":380,"kind_detail":"primary","bus_shield_text":"100","bus_network":null,"source":"openstreetmap.org","min_zoom":8.0,"old_name":"\u0443\u043b\u0438\u0446\u0430 \u0422\u0430\u0448\u043a\u0435\u043d\u0442\u0441\u043a\u0430\u044f","name:ru":"\u043f\u0440\u043e\u0441\u043f\u0435\u043a\u0442 \u0420\u0430\u0438\u043c\u0431\u0435\u043a\u0430","landuse_kind":"urban_area","ref":"M-36","id":216580769},"arcs":[332]},{"type":"LineString","properties":{"kind":"major_road","sort_rank":380,"kind_detail":"primary","bus_shield_text":"335","bus_network":null,"source":"openstreetmap.org","min_zoom":8.0,"old_name":"\u0412\u0435\u0440\u0445\u043d\u044f\u044f","landuse_kind":"urban_area","id":152087523},"arcs":[333]},{"type":"MultiLineString","properties":{"kind":"major_road","network":"AsianHighway","sort_rank":380,"kind_detail":"primary","source":"openstreetmap.org","min_zoom":8.0,"landuse_kind":"urban_area","shield_text":"5","ref":"A-2"},"arcs":[[334],[335],[336]]},{"type":"LineString","properties":{"kind":"major_road","sort_rank":381,"landuse_kind":"urban_area","source":"openstreetmap.org","min_zoom":8.0,"kind_detail":"trunk","ref":"A-3","id":260084377},"arcs":[337]},{"type":"LineString","properties":{"source":"openstreetmap.org","kind":"major_road","old_name":"\u0443\u043b\u0438\u0446\u0430 \u0421\u0435\u0439\u0434\u0430\u043b\u0438\u0435\u0432\u0430","sort_rank":380,"kind_detail":"primary","landuse_kind":"residential","min_zoom":8.0},"arcs":[338]},{"type":"LineString","properties":{"kind":"major_road","network":"AsianHighway","sort_rank":380,"kind_detail":"primary","source":"openstreetmap.org","min_zoom":8.0,"old_name":"\u0443\u043b\u0438\u0446\u0430 \u0421\u043a\u043e\u0442\u043e\u043f\u0440\u043e\u0433\u043e\u043d\u043d\u0430\u044f","shield_text":"5","landuse_kind":"urban_area","id":218877627},"arcs":[339]},{"type":"LineString","properties":{"kind":"major_road","sort_rank":380,"kind_detail":"primary","source":"openstreetmap.org","min_zoom":8.0,"old_name":"\u0443\u043b\u0438\u0446\u0430 \u0421\u043a\u043e\u0442\u043e\u043f\u0440\u043e\u0433\u043e\u043d\u043d\u0430\u044f","landuse_kind":"urban_area","ref":"A-2","id":431450759},"arcs":[340]},{"type":"LineString","properties":{"source":"openstreetmap.org","kind":"major_road","sort_rank":381,"kind_detail":"trunk","ref":"A-2","min_zoom":8.0},"arcs":[341]},{"type":"LineString","properties":{"kind":"major_road","sort_rank":380,"kind_detail":"primary","bus_shield_text":"66","bus_network":null,"source":"openstreetmap.org","min_zoom":8.0,"old_name":"\u0443\u043b\u0438\u0446\u0430 \u0413\u043e\u043b\u043e\u0432\u043d\u0443\u0445\u0430","landuse_kind":"urban_area","id":228768119},"arcs":[342]},{"type":"LineString","properties":{"kind":"major_road","name:en":"Al-Farabi Avenue (East)","sort_rank":380,"kind_detail":"primary","bus_shield_text":"121,66,5,65,29","bus_network":null,"source":"openstreetmap.org","min_zoom":8.0,"old_name":"\u0410\u043b\u044c\u0444\u0430 \u0420\u0430\u0431\u0438","landuse_kind":"urban_area","id":238779263},"arcs":[343]},{"type":"LineString","properties":{"kind":"major_road","sort_rank":380,"kind_detail":"primary","source":"openstreetmap.org","min_zoom":8.0,"old_name":"\u0443\u043b\u0438\u0446\u0430 \u041a\u043e\u043d\u0441\u0442\u0438\u0442\u0443\u0446\u0438\u0438","landuse_kind":"urban_area","id":228709528},"arcs":[344]},{"type":"MultiLineString","properties":{"bus_network":null,"name:en":"Abay Ave","sort_rank":380,"kind_detail":"primary","kind":"major_road","source":"openstreetmap.org","min_zoom":8.0,"bus_shield_text":"66","landuse_kind":"urban_area"},"arcs":[[345],[346]]},{"type":"LineString","properties":{"cycleway_right":"track","name:en":"Abay Ave","sort_rank":380,"kind_detail":"primary","is_bicycle_related":true,"kind":"major_road","bus_network":null,"source":"openstreetmap.org","min_zoom":8.0,"bus_shield_text":"44","landuse_kind":"urban_area","id":208472460},"arcs":[347]},{"type":"MultiLineString","properties":{"kind":"major_road","network":"AsianHighway","sort_rank":381,"landuse_kind":"urban_area","source":"openstreetmap.org","min_zoom":8.0,"kind_detail":"trunk","shield_text":"5","ref":"A-2"},"arcs":[[348],[349]]},{"type":"LineString","properties":{"kind":"major_road","name:en":"Raiymbek Avenue (West)","sort_rank":380,"kind_detail":"primary","bus_shield_text":"4","bus_network":null,"source":"openstreetmap.org","min_zoom":8.0,"old_name":"\u0443\u043b\u0438\u0446\u0430 \u0422\u0430\u0448\u043a\u0435\u043d\u0442\u0441\u043a\u0430\u044f","landuse_kind":"urban_area","ref":"M-36","id":226834246},"arcs":[350]},{"type":"LineString","properties":{"kind":"major_road","network":"AsianHighway","sort_rank":381,"kind_detail":"trunk","source":"openstreetmap.org","min_zoom":8.0,"old_name":"\u0443\u043b\u0438\u0446\u0430 \u0421\u043a\u043e\u0442\u043e\u043f\u0440\u043e\u0433\u043e\u043d\u043d\u0430\u044f","shield_text":"5","landuse_kind":"urban_area","id":539905160},"arcs":[351]},{"type":"LineString","properties":{"kind":"major_road","name:en":"East Almaty Bi-pass Road","sort_rank":380,"landuse_kind":"urban_area","source":"openstreetmap.org","min_zoom":8.0,"kind_detail":"primary","id":258838489},"arcs":[352]},{"type":"LineString","properties":{"source":"openstreetmap.org","kind":"major_road","old_name":"\u0421\u0430\u0440\u0431\u0443\u043b\u0430\u043a\u0441\u043a\u0438\u0439 \u0442\u0440\u0430\u043a\u0442","sort_rank":380,"kind_detail":"primary","min_zoom":8.0,"id":253846428},"arcs":[353]},{"type":"MultiLineString","properties":{"bus_network":null,"int_name":"Abay av.","sort_rank":380,"kind_detail":"primary","name:kk":"\u0410\u0431\u0430\u044f \u0434\u0430\u04a3.","kind":"major_road","source":"openstreetmap.org","min_zoom":8.0,"bus_shield_text":"34","landuse_kind":"urban_area"},"arcs":[[354],[355],[356]]},{"type":"LineString","properties":{"bus_network":null,"name:en":"Raiymbek Ave","sort_rank":380,"kind_detail":"primary","kind":"major_road","source":"openstreetmap.org","min_zoom":8.0,"bus_shield_text":"4","landuse_kind":"urban_area"},"arcs":[357]},{"type":"MultiLineString","properties":{"bus_network":null,"sort_rank":380,"kind_detail":"primary","kind":"major_road","source":"openstreetmap.org","min_zoom":8.0,"bus_shield_text":"212","landuse_kind":"urban_area"},"arcs":[[358],[359],[360]]},{"type":"LineString","properties":{"kind":"major_road","name:en":"Kuldzhinka","network":"AsianHighway","sort_rank":380,"kind_detail":"primary","old_name":"\u041a\u0443\u043b\u044c\u0434\u0436\u0438\u043d\u0441\u043a\u0438\u0439 \u0442\u0440\u0430\u043a\u0442","bus_network":null,"source":"openstreetmap.org","min_zoom":8.0,"bus_shield_text":"212","shield_text":"5","landuse_kind":"residential","ref":"A-2","id":227901598},"arcs":[361]},{"type":"LineString","properties":{"bus_network":null,"sort_rank":380,"kind_detail":"primary","old_name":"\u0443\u043b\u0438\u0446\u0430 \u041a\u043e\u043d\u0441\u0442\u0438\u0442\u0443\u0446\u0438\u0438","kind":"major_road","source":"openstreetmap.org","min_zoom":8.0,"bus_shield_text":"1","landuse_kind":"urban_area"},"arcs":[362]},{"type":"LineString","properties":{"source":"openstreetmap.org","kind":"major_road","name:en":"Talgar Route - Almaty-Talgar-Evgenyevka Road","sort_rank":380,"kind_detail":"primary","min_zoom":8.0,"id":242928985},"arcs":[363]},{"type":"MultiLineString","properties":{"bus_network":null,"name:en":"Al-Farabi Avenue (East)","sort_rank":380,"kind_detail":"primary","bus_shield_text":"86","kind":"major_road","source":"openstreetmap.org","min_zoom":8.0,"old_name":"\u0443\u043b\u0438\u0446\u0430 \u0412\u043e\u0434\u043e\u0437\u0430\u0431\u043e\u0440\u043d\u0430\u044f","landuse_kind":"urban_area"},"arcs":[[364],[365],[366],[367],[368]]},{"type":"MultiLineString","properties":{"kind":"major_road","network":"AsianHighway","sort_rank":381,"kind_detail":"trunk","source":"openstreetmap.org","min_zoom":8.0,"shield_text":"60","ref":"M-36"},"arcs":[[369],[370]]},{"type":"LineString","properties":{"kind":"major_road","network":"AsianHighway","sort_rank":381,"kind_detail":"trunk","source":"openstreetmap.org","min_zoom":8.0,"old_name":"\u0443\u043b\u0438\u0446\u0430 \u0417\u0430\u043f\u0430\u0434\u043d\u0430\u044f","shield_text":"5","landuse_kind":"urban_area","id":124982794},"arcs":[371]},{"type":"LineString","properties":{"source":"openstreetmap.org","kind":"major_road","name:en":"Talgar Route - Ryskulov Road","sort_rank":380,"kind_detail":"primary","min_zoom":8.0,"id":242928988},"arcs":[372]},{"type":"MultiLineString","properties":{"source":"openstreetmap.org","kind":"major_road","sort_rank":380,"kind_detail":"primary","ref":"P-19","min_zoom":8.0},"arcs":[[373],[374]]},{"type":"LineString","properties":{"source":"openstreetmap.org","kind":"major_road","network":"e-road","sort_rank":381,"kind_detail":"trunk","min_zoom":8.0,"shield_text":"125"},"arcs":[375]},{"type":"MultiLineString","properties":{"bus_network":null,"network":"AsianHighway","sort_rank":380,"kind_detail":"primary","kind":"major_road","source":"openstreetmap.org","min_zoom":8.0,"bus_shield_text":"351","shield_text":"5","ref":"A-2"},"arcs":[[376],[377]]},{"type":"MultiLineString","properties":{"source":"openstreetmap.org","kind":"major_road","old_name":"\u0443\u043b\u0438\u0446\u0430 \u0417\u0430\u043f\u0430\u0434\u043d\u0430\u044f","sort_rank":380,"kind_detail":"primary","landuse_kind":"urban_area","min_zoom":8.0},"arcs":[[378],[379],[380],[381],[382],[383],[384],[385],[386],[387]]},{"type":"MultiLineString","properties":{"sort_rank":380,"kind_detail":"primary","min_zoom":8.0,"kind":"major_road","source":"openstreetmap.org"},"arcs":[[388],[389],[390],[391],[392],[393],[394],[395],[396],[397],[398],[399],[400],[401],[402],[403],[404],[405],[406],[407],[408],[409],[410],[411],[412],[413],[414]]},{"type":"LineString","properties":{"bus_network":null,"int_name":"Ryskulov ave.","network":"AsianHighway","sort_rank":381,"kind_detail":"trunk","old_name":"\u041c\u043e\u0441\u043a\u0432\u0438\u043d\u0430;\u0421\u043a\u043e\u0442\u043e\u043f\u0440\u043e\u0433\u043e\u043d\u043d\u0430\u044f;\u0422\u0440\u0435\u0442\u044c\u044f\u043a\u043e\u0432\u0430;\u041f\u043e\u0434\u0432\u043e\u0439\u0441\u043a\u043e\u0433\u043e","kind":"major_road","source":"openstreetmap.org","min_zoom":8.0,"name:en":"Ryskulov Ave","bus_shield_text":"104","shield_text":"5","landuse_kind":"urban_area","ref":"A-2","id":185869342},"arcs":[415]},{"type":"LineString","properties":{"kind":"major_road","sort_rank":380,"kind_detail":"primary","old_name":"\u0443\u043b\u0438\u0446\u0430 \u0417\u0432\u0435\u043d\u0438\u0433\u043e\u0440\u043e\u0434\u0441\u043a\u0430\u044f","bus_network":null,"source":"openstreetmap.org","min_zoom":8.0,"bus_shield_text":"120","landuse_kind":"urban_area","id":257692793},"arcs":[416]},{"type":"MultiLineString","properties":{"kind":"major_road","name:en":"Al-Farabi Avenue (East)","sort_rank":380,"kind_detail":"primary","source":"openstreetmap.org","min_zoom":8.0,"old_name":"\u0443\u043b\u0438\u0446\u0430 \u0412\u043e\u0434\u043e\u0437\u0430\u0431\u043e\u0440\u043d\u0430\u044f","landuse_kind":"urban_area"},"arcs":[[417],[418],[419]]},{"type":"MultiLineString","properties":{"bus_network":null,"sort_rank":380,"kind_detail":"primary","kind":"major_road","source":"openstreetmap.org","min_zoom":8.0,"bus_shield_text":"79","landuse_kind":"urban_area"},"arcs":[[420],[421]]},{"type":"LineString","properties":{"kind":"major_road","network":"AsianHighway","sort_rank":380,"kind_detail":"primary","bus_network":null,"source":"openstreetmap.org","min_zoom":8.0,"bus_shield_text":"351","shield_text":"5","landuse_kind":"residential","ref":"A-2","id":227918836},"arcs":[422]},{"type":"MultiLineString","properties":{"source":"openstreetmap.org","kind":"major_road","network":"AsianHighway","sort_rank":381,"kind_detail":"trunk","min_zoom":8.0,"shield_text":"5"},"arcs":[[423],[424]]},{"type":"LineString","properties":{"kind":"major_road","sort_rank":380,"kind_detail":"primary","bus_shield_text":"86","bus_network":null,"source":"openstreetmap.org","min_zoom":8.0,"old_name":"\u0443\u043b\u0438\u0446\u0430 \u041a\u0440\u0435\u043c\u043b\u0451\u0432\u0441\u043a\u0430\u044f","landuse_kind":"urban_area","id":123068741},"arcs":[425]},{"type":"LineString","properties":{"kind":"major_road","name:en":"Suyunbaya Ave","sort_rank":380,"kind_detail":"primary","bus_network":null,"source":"openstreetmap.org","min_zoom":8.0,"bus_shield_text":"2","landuse_kind":"urban_area","id":255741278},"arcs":[426]},{"type":"MultiLineString","properties":{"kind":"major_road","sort_rank":380,"kind_detail":"primary","source":"openstreetmap.org","min_zoom":8.0,"old_name":"\u0412\u0435\u0440\u0445\u043d\u044f\u044f","landuse_kind":"residential","ref":"A-4"},"arcs":[[427],[428]]},{"type":"MultiLineString","properties":{"bus_network":null,"sort_rank":380,"kind_detail":"primary","kind":"major_road","source":"openstreetmap.org","min_zoom":8.0,"bus_shield_text":"121,66,5,65,29","landuse_kind":"urban_area"},"arcs":[[429],[430],[431],[432],[433],[434],[435],[436],[437]]},{"type":"LineString","properties":{"kind":"major_road","sort_rank":380,"kind_detail":"primary","bus_network":null,"source":"openstreetmap.org","min_zoom":8.0,"bus_shield_text":"100","landuse_kind":"urban_area","ref":"A-6","id":228485083},"arcs":[438]},{"type":"LineString","properties":{"kind":"major_road","name:en":"Al-Farabi Avenue","sort_rank":380,"kind_detail":"primary","bus_network":null,"source":"openstreetmap.org","min_zoom":8.0,"bus_shield_text":"86","landuse_kind":"urban_area","id":314471357},"arcs":[439]},{"type":"MultiLineString","properties":{"source":"openstreetmap.org","kind":"major_road","old_name":"\u0443\u043b\u0438\u0446\u0430 \u041b\u043e\u0431\u0430\u0447\u0435\u0432\u0441\u043a\u043e\u0433\u043e","sort_rank":381,"landuse_kind":"urban_area","min_zoom":8.0,"kind_detail":"trunk"},"arcs":[[440],[441],[442]]},{"type":"MultiLineString","properties":{"bus_network":null,"int_name":"Rayimbek avenue","sort_rank":380,"kind_detail":"primary","bus_shield_text":"4","kind":"major_road","source":"openstreetmap.org","min_zoom":8.0,"old_name":"\u0443\u043b\u0438\u0446\u0430 \u0422\u0430\u0448\u043a\u0435\u043d\u0442\u0441\u043a\u0430\u044f","landuse_kind":"urban_area"},"arcs":[[443],[444]]},{"type":"MultiLineString","properties":{"bus_network":null,"network":"AsianHighway","sort_rank":380,"landuse_kind":"urban_area","old_name":"\u0443\u043b\u0438\u0446\u0430 \u0421\u043a\u043e\u0442\u043e\u043f\u0440\u043e\u0433\u043e\u043d\u043d\u0430\u044f","kind":"major_road","source":"openstreetmap.org","min_zoom":8.0,"bus_shield_text":"32","shield_text":"5","kind_detail":"primary","ref":"A-2"},"arcs":[[445],[446]]},{"type":"MultiLineString","properties":{"source":"openstreetmap.org","kind":"major_road","sort_rank":380,"kind_detail":"primary","ref":"A-4","min_zoom":8.0},"arcs":[[447],[448],[449],[450]]},{"type":"MultiLineString","properties":{"source":"openstreetmap.org","kind":"major_road","old_name":"\u0412\u0435\u0440\u0445\u043d\u044f\u044f","sort_rank":380,"kind_detail":"primary","ref":"A-4","min_zoom":8.0},"arcs":[[451],[452],[453]]},{"type":"LineString","properties":{"kind":"major_road","sort_rank":380,"kind_detail":"primary","bus_network":null,"source":"openstreetmap.org","min_zoom":8.0,"bus_shield_text":"117","landuse_kind":"urban_area","ref":"A-6","id":256672617},"arcs":[454]},{"type":"LineString","properties":{"kind":"major_road","int_name":"Ryskulov ave.","sort_rank":381,"landuse_kind":"urban_area","source":"openstreetmap.org","min_zoom":8.0,"kind_detail":"trunk","id":441708233},"arcs":[455]},{"type":"MultiLineString","properties":{"kind":"major_road","int_name":"Rayimbek avenue","sort_rank":380,"kind_detail":"primary","source":"openstreetmap.org","min_zoom":8.0,"old_name":"\u0443\u043b\u0438\u0446\u0430 \u0422\u0430\u0448\u043a\u0435\u043d\u0442\u0441\u043a\u0430\u044f","landuse_kind":"urban_area"},"arcs":[[456],[457],[458],[459],[460],[461]]},{"type":"MultiLineString","properties":{"source":"openstreetmap.org","kind":"major_road","old_name":"\u0443\u043b\u0438\u0446\u0430 \u0421\u043a\u043e\u0442\u043e\u043f\u0440\u043e\u0433\u043e\u043d\u043d\u0430\u044f","sort_rank":380,"kind_detail":"primary","landuse_kind":"urban_area","min_zoom":8.0},"arcs":[[462],[463]]},{"type":"LineString","properties":{"kind":"major_road","name:en":"Rozybakiev Street","sort_rank":380,"kind_detail":"primary","name:kk":"\u0420\u043e\u0437\u044b\u0431\u0430\u043a\u0438\u0435\u0432 \u043a\u04e9\u0448.","source":"openstreetmap.org","min_zoom":8.0,"int_name":"Rozybakiev str.","landuse_kind":"urban_area","id":393136827},"arcs":[464]},{"type":"LineString","properties":{"kind":"major_road","name:en":"Abay Avenue (West)","sort_rank":380,"kind_detail":"primary","bus_network":null,"source":"openstreetmap.org","min_zoom":8.0,"bus_shield_text":"66","landuse_kind":"urban_area","id":257724951},"arcs":[465]},{"type":"LineString","properties":{"cycleway_right":"track","name:en":"Abay Avenue (West)","sort_rank":380,"kind_detail":"primary","is_bicycle_related":true,"kind":"major_road","bus_network":null,"source":"openstreetmap.org","min_zoom":8.0,"bus_shield_text":"44","landuse_kind":"urban_area","id":385200734},"arcs":[466]},{"type":"MultiLineString","properties":{"bus_network":null,"sort_rank":380,"landuse_kind":"urban_area","old_name":"\u041a\u043e\u043f\u0430\u043b\u044c\u0441\u043a\u0438\u0439 \u0442\u0440\u0430\u043a\u0442","kind":"major_road","source":"openstreetmap.org","min_zoom":8.0,"bus_shield_text":"2","kind_detail":"primary"},"arcs":[[467],[468],[469],[470],[471],[472]]},{"type":"LineString","properties":{"kind":"major_road","sort_rank":380,"kind_detail":"primary","old_name":"\u0443\u043b\u0438\u0446\u0430 \u041d\u0438\u043a\u043e\u043b\u0430\u0435\u0432\u0441\u043a\u0430\u044f","bus_network":null,"source":"openstreetmap.org","min_zoom":8.0,"bus_shield_text":"4","landuse_kind":"urban_area","ref":"A-351","id":4489485},"arcs":[473]},{"type":"MultiLineString","properties":{"bus_network":null,"sort_rank":380,"kind_detail":"primary","old_name":"\u0443\u043b\u0438\u0446\u0430 \u0412\u043e\u0434\u043e\u0437\u0430\u0431\u043e\u0440\u043d\u0430\u044f","kind":"major_road","source":"openstreetmap.org","min_zoom":8.0,"bus_shield_text":"86","landuse_kind":"urban_area"},"arcs":[[474],[475],[476]]},{"type":"MultiLineString","properties":{"bus_network":null,"sort_rank":380,"kind_detail":"primary","old_name":"\u0443\u043b\u0438\u0446\u0430 \u0422\u0430\u0448\u043a\u0435\u043d\u0442\u0441\u043a\u0430\u044f","kind":"major_road","source":"openstreetmap.org","min_zoom":8.0,"bus_shield_text":"4","name:ru":"\u043f\u0440\u043e\u0441\u043f\u0435\u043a\u0442 \u0420\u0430\u0438\u043c\u0431\u0435\u043a\u0430","landuse_kind":"urban_area"},"arcs":[[477],[478],[479],[480]]},{"type":"LineString","properties":{"kind":"major_road","name:en":"Kul'jin Road","network":"AsianHighway","sort_rank":380,"kind_detail":"primary","bus_shield_text":"212","bus_network":null,"source":"openstreetmap.org","min_zoom":8.0,"old_name":"\u041a\u0443\u043b\u044c\u0434\u0436\u0438\u043d\u0441\u043a\u0438\u0439 \u0442\u0440\u0430\u043a\u0442","shield_text":"5","ref":"A-2","id":123434564},"arcs":[481]},{"type":"LineString","properties":{"bus_network":null,"sort_rank":381,"landuse_kind":"urban_area","old_name":"\u0443\u043b\u0438\u0446\u0430 \u041b\u043e\u0431\u0430\u0447\u0435\u0432\u0441\u043a\u043e\u0433\u043e","kind":"major_road","source":"openstreetmap.org","min_zoom":8.0,"bus_shield_text":"17","kind_detail":"trunk"},"arcs":[482]},{"type":"MultiLineString","properties":{"source":"openstreetmap.org","kind":"major_road","kind_detail":"trunk","sort_rank":381,"landuse_kind":"urban_area","min_zoom":8.0},"arcs":[[483],[484],[485],[486],[487],[488],[489],[490],[491],[492]]},{"type":"MultiLineString","properties":{"source":"openstreetmap.org","kind":"major_road","name:en":"Al-Farabi Avenue (West)","landuse_kind":"urban_area","sort_rank":380,"kind_detail":"primary","min_zoom":8.0},"arcs":[[493],[494]]},{"type":"LineString","properties":{"kind":"major_road","int_name":"Rozybakiev str.","sort_rank":380,"kind_detail":"primary","name:kk":"\u0420\u043e\u0437\u044b\u0431\u0430\u043a\u0438\u0435\u0432 \u043a\u04e9\u0448.","source":"openstreetmap.org","min_zoom":8.0,"landuse_kind":"urban_area"},"arcs":[495]},{"type":"LineString","properties":{"source":"openstreetmap.org","kind":"major_road","old_name":"\u0443\u043b\u0438\u0446\u0430 \u0427\u0435\u043c\u043e\u043b\u0433\u0430\u043d\u0441\u043a\u0430\u044f","sort_rank":380,"kind_detail":"primary","landuse_kind":"residential","min_zoom":8.0},"arcs":[496]},{"type":"MultiLineString","properties":{"kind":"major_road","int_name":"Seyfullin av.","sort_rank":380,"kind_detail":"primary","name:kk":"\u0421\u0435\u0439\u0444\u0443\u043b\u043b\u0438\u043d \u0434\u0430\u04a3.","source":"openstreetmap.org","min_zoom":8.0,"name:en":"Seyfullin Avenue","landuse_kind":"urban_area"},"arcs":[[497],[498]]},{"type":"MultiLineString","properties":{"bus_network":null,"sort_rank":380,"kind_detail":"primary","kind":"major_road","source":"openstreetmap.org","min_zoom":8.0,"bus_shield_text":"34","landuse_kind":"urban_area"},"arcs":[[499],[500],[501]]},{"type":"MultiLineString","properties":{"source":"openstreetmap.org","kind":"major_road","old_name":"\u041a\u043e\u043f\u0430\u043b\u044c\u0441\u043a\u0438\u0439 \u0442\u0440\u0430\u043a\u0442","sort_rank":380,"kind_detail":"primary","landuse_kind":"urban_area","min_zoom":8.0},"arcs":[[502],[503]]},{"type":"LineString","properties":{"bus_network":null,"sort_rank":381,"landuse_kind":"urban_area","kind":"major_road","source":"openstreetmap.org","min_zoom":8.0,"bus_shield_text":"17","kind_detail":"trunk"},"arcs":[504]},{"type":"MultiLineString","properties":{"kind":"highway","network":"e-road","sort_rank":383,"landuse_kind":"urban_area","source":"openstreetmap.org","min_zoom":8.0,"all_networks":["e-road","AsianHighway"],"kind_detail":"motorway","shield_text":"40","ref":"A-3","all_shield_texts":["40","60"]},"arcs":[[505],[506]]},{"type":"LineString","properties":{"kind":"major_road","network":"AsianHighway","sort_rank":380,"kind_detail":"primary","old_name":"\u041a\u0443\u043b\u044c\u0434\u0436\u0438\u043d\u0441\u043a\u0438\u0439 \u0442\u0440\u0430\u043a\u0442","bus_network":null,"source":"openstreetmap.org","min_zoom":8.0,"bus_shield_text":"212","shield_text":"5","landuse_kind":"residential","ref":"A-2","id":166869047},"arcs":[507]},{"type":"LineString","properties":{"kind":"major_road","sort_rank":380,"kind_detail":"primary","old_name":"\u0443\u043b\u0438\u0446\u0430 \u0428\u0435\u0432\u0447\u0435\u043d\u043a\u043e","bus_network":null,"source":"openstreetmap.org","min_zoom":8.0,"bus_shield_text":"4","landuse_kind":"urban_area","ref":"A-351","id":228478071},"arcs":[508]},{"type":"MultiLineString","properties":{"kind":"major_road","network":"e-road","sort_rank":381,"kind_detail":"trunk","source":"openstreetmap.org","min_zoom":8.0,"shield_text":"40","ref":"A-3"},"arcs":[[509],[510],[511],[512],[513],[514]]},{"type":"LineString","properties":{"source":"openstreetmap.org","kind":"major_road","old_name":"\u0443\u043b\u0438\u0446\u0430 \u041f\u043e\u0431\u0435\u0434\u044b","sort_rank":380,"kind_detail":"primary","min_zoom":8.0,"id":38610920},"arcs":[515]},{"type":"MultiLineString","properties":{"kind":"major_road","name:en":"Ryskulov Ave","network":"AsianHighway","sort_rank":381,"landuse_kind":"urban_area","source":"openstreetmap.org","min_zoom":8.0,"old_name":"\u0443\u043b\u0438\u0446\u0430 \u0421\u043a\u043e\u0442\u043e\u043f\u0440\u043e\u0433\u043e\u043d\u043d\u0430\u044f","shield_text":"5","kind_detail":"trunk","ref":"A-2"},"arcs":[[516],[517],[518],[519]]},{"type":"MultiLineString","properties":{"bus_network":null,"sort_rank":380,"kind_detail":"primary","kind":"major_road","source":"openstreetmap.org","min_zoom":8.0,"bus_shield_text":"4","landuse_kind":"urban_area"},"arcs":[[520],[521],[522]]},{"type":"LineString","properties":{"kind":"major_road","int_name":"Ryskulov ave.","network":"AsianHighway","sort_rank":381,"kind_detail":"trunk","bus_network":null,"source":"openstreetmap.org","min_zoom":8.0,"bus_shield_text":"104","shield_text":"5","landuse_kind":"urban_area","id":245018752},"arcs":[523]},{"type":"MultiLineString","properties":{"kind":"major_road","network":"AsianHighway","sort_rank":381,"landuse_kind":"urban_area","source":"openstreetmap.org","min_zoom":8.0,"kind_detail":"trunk","shield_text":"5"},"arcs":[[524],[525],[526],[527]]},{"type":"LineString","properties":{"kind":"major_road","int_name":"Ryskulov ave.","network":"AsianHighway","sort_rank":381,"landuse_kind":"urban_area","source":"openstreetmap.org","min_zoom":8.0,"old_name":"\u041c\u043e\u0441\u043a\u0432\u0438\u043d\u0430;\u0421\u043a\u043e\u0442\u043e\u043f\u0440\u043e\u0433\u043e\u043d\u043d\u0430\u044f;\u0422\u0440\u0435\u0442\u044c\u044f\u043a\u043e\u0432\u0430;\u041f\u043e\u0434\u0432\u043e\u0439\u0441\u043a\u043e\u0433\u043e","shield_text":"5","kind_detail":"trunk"},"arcs":[528]},{"type":"LineString","properties":{"source":"openstreetmap.org","kind":"major_road","old_name":"\u0443\u043b\u0438\u0446\u0430 \u0421\u0435\u0439\u0434\u0430\u043b\u0438\u0435\u0432\u0430","sort_rank":380,"kind_detail":"primary","min_zoom":8.0},"arcs":[529]},{"type":"LineString","properties":{"kind":"major_road","name:en":"Abay Ave","sort_rank":380,"kind_detail":"primary","name:kk":"\u0410\u0431\u0430\u044f \u0434\u0430\u04a3.","bus_network":null,"source":"openstreetmap.org","min_zoom":8.0,"int_name":"Abay av.","bus_shield_text":"34","landuse_kind":"urban_area","id":257692772},"arcs":[530]},{"type":"MultiLineString","properties":{"source":"openstreetmap.org","kind":"major_road","name:en":"Al-Farabi Avenue (East)","landuse_kind":"urban_area","sort_rank":380,"kind_detail":"primary","min_zoom":8.0},"arcs":[[531],[532]]},{"type":"LineString","properties":{"kind":"major_road","sort_rank":380,"kind_detail":"primary","source":"openstreetmap.org","min_zoom":8.0,"old_name":"\u0443\u043b\u0438\u0446\u0430 \u041a\u0440\u0435\u043c\u043b\u0451\u0432\u0441\u043a\u0430\u044f","landuse_kind":"urban_area","ref":"\u0410\u041b 15","id":359786903},"arcs":[533]},{"type":"LineString","properties":{"kind":"major_road","sort_rank":380,"kind_detail":"primary","bus_shield_text":"4","bus_network":null,"source":"openstreetmap.org","min_zoom":8.0,"old_name":"\u0443\u043b\u0438\u0446\u0430 \u0422\u0430\u0448\u043a\u0435\u043d\u0442\u0441\u043a\u0430\u044f","landuse_kind":"urban_area","ref":"M-36","id":123066266},"arcs":[534]},{"type":"MultiLineString","properties":{"bus_network":null,"sort_rank":380,"landuse_kind":"urban_area","old_name":"\u0443\u043b\u0438\u0446\u0430 \u0424\u0443\u0440\u043c\u0430\u043d\u043e\u0432\u0430","kind":"major_road","source":"openstreetmap.org","min_zoom":8.0,"bus_shield_text":"86","kind_detail":"primary"},"arcs":[[535],[536],[537]]},{"type":"LineString","properties":{"source":"openstreetmap.org","kind":"highway","old_name":"\u0443\u043b\u0438\u0446\u0430 \u041b\u043e\u0431\u0430\u0447\u0435\u0432\u0441\u043a\u043e\u0433\u043e","sort_rank":383,"kind_detail":"motorway","landuse_kind":"urban_area","min_zoom":8.0},"arcs":[538]},{"type":"MultiLineString","properties":{"source":"openstreetmap.org","kind":"major_road","landuse_kind":"residential","sort_rank":380,"kind_detail":"primary","min_zoom":8.0},"arcs":[[539],[540],[541],[542],[543],[544],[545],[546],[547],[548],[549],[550],[551],[552],[553],[554],[555],[556]]},{"type":"MultiLineString","properties":{"bus_network":null,"sort_rank":380,"kind_detail":"primary","old_name":"\u0443\u043b\u0438\u0446\u0430 \u0422\u0430\u0448\u043a\u0435\u043d\u0442\u0441\u043a\u0430\u044f","kind":"major_road","source":"openstreetmap.org","min_zoom":8.0,"bus_shield_text":"4","name:ru":"\u043f\u0440\u043e\u0441\u043f\u0435\u043a\u0442 \u0420\u0430\u0438\u043c\u0431\u0435\u043a\u0430","landuse_kind":"urban_area","ref":"M-36"},"arcs":[[557],[558]]},{"type":"LineString","properties":{"kind":"major_road","name:en":"Al-Farabi Avenue (West)","sort_rank":380,"kind_detail":"primary","source":"openstreetmap.org","min_zoom":8.0,"old_name":"\u0410\u043b\u044c\u0444\u0430 \u0420\u0430\u0431\u0438","landuse_kind":"urban_area","id":241385987},"arcs":[559]},{"type":"MultiLineString","properties":{"bus_network":null,"network":"AsianHighway","sort_rank":381,"kind_detail":"trunk","kind":"major_road","source":"openstreetmap.org","min_zoom":8.0,"bus_shield_text":"336","shield_text":"5"},"arcs":[[560],[561]]},{"type":"MultiLineString","properties":{"bus_network":null,"network":"AsianHighway","sort_rank":380,"kind_detail":"primary","old_name":"\u041a\u0443\u043b\u044c\u0434\u0436\u0438\u043d\u0441\u043a\u0438\u0439 \u0442\u0440\u0430\u043a\u0442","kind":"major_road","source":"openstreetmap.org","min_zoom":8.0,"bus_shield_text":"212","shield_text":"5","ref":"A-2"},"arcs":[[562],[563]]},{"type":"MultiLineString","properties":{"sort_rank":383,"kind_detail":"motorway","min_zoom":8.0,"kind":"highway","source":"openstreetmap.org"},"arcs":[[564],[565],[566],[567],[568]]},{"type":"LineString","properties":{"bus_network":null,"sort_rank":380,"kind_detail":"primary","kind":"major_road","source":"openstreetmap.org","min_zoom":8.0,"bus_shield_text":"120","landuse_kind":"urban_area"},"arcs":[569]},{"type":"MultiLineString","properties":{"kind":"major_road","name:en":"Ryskulov Ave","network":"AsianHighway","sort_rank":381,"landuse_kind":"urban_area","source":"openstreetmap.org","min_zoom":8.0,"kind_detail":"trunk","shield_text":"5","ref":"A-2"},"arcs":[[570],[571],[572],[573],[574]]},{"type":"MultiLineString","properties":{"bus_network":null,"int_name":"Ryskulov ave.","network":"AsianHighway","sort_rank":381,"landuse_kind":"urban_area","kind":"major_road","source":"openstreetmap.org","min_zoom":8.0,"name:en":"Ryskulov Ave","bus_shield_text":"104","shield_text":"5","kind_detail":"trunk"},"arcs":[[575],[576]]},{"type":"LineString","properties":{"kind":"major_road","int_name":"Rayimbek avenue","sort_rank":380,"kind_detail":"primary","bus_shield_text":"4","bus_network":null,"source":"openstreetmap.org","min_zoom":8.0,"old_name":"\u0443\u043b\u0438\u0446\u0430 \u0422\u0430\u0448\u043a\u0435\u043d\u0442\u0441\u043a\u0430\u044f","landuse_kind":"urban_area","ref":"M-36","id":539713344},"arcs":[577]},{"type":"MultiLineString","properties":{"kind":"major_road","network":"AsianHighway","sort_rank":381,"landuse_kind":"residential","source":"openstreetmap.org","min_zoom":8.0,"old_name":"\u0443\u043b\u0438\u0446\u0430 \u0421\u043e\u0440\u0431\u0443\u043b\u0430\u043a\u0441\u043a\u0430\u044f","shield_text":"60","kind_detail":"trunk","ref":"M-36"},"arcs":[[578],[579]]},{"type":"LineString","properties":{"kind":"major_road","name:en":"Abay Avenue (East)","sort_rank":380,"kind_detail":"primary","bus_network":null,"source":"openstreetmap.org","min_zoom":8.0,"bus_shield_text":"66","landuse_kind":"urban_area","id":258025938},"arcs":[580]},{"type":"LineString","properties":{"kind":"highway","sort_rank":383,"landuse_kind":"urban_area","source":"openstreetmap.org","min_zoom":8.0,"kind_detail":"motorway","ref":"A-6","id":500696315},"arcs":[581]},{"type":"MultiLineString","properties":{"kind":"major_road","int_name":"Rayimbek avenue","sort_rank":380,"kind_detail":"primary","source":"openstreetmap.org","min_zoom":8.0,"old_name":"\u0443\u043b\u0438\u0446\u0430 \u0422\u0430\u0448\u043a\u0435\u043d\u0442\u0441\u043a\u0430\u044f","landuse_kind":"urban_area","ref":"M-36"},"arcs":[[582],[583],[584],[585],[586],[587],[588],[589],[590],[591],[592]]},{"type":"MultiLineString","properties":{"kind":"major_road","network":"AsianHighway","sort_rank":381,"kind_detail":"trunk","source":"openstreetmap.org","min_zoom":8.0,"landuse_kind":"residential","shield_text":"60","ref":"M-36"},"arcs":[[593],[594]]},{"type":"LineString","properties":{"bus_network":null,"int_name":"Abay av.","sort_rank":380,"kind_detail":"primary","is_bicycle_related":true,"cycleway_right":"track","name:kk":"\u0410\u0431\u0430\u0439 \u0434\u0430\u04a3.","source":"openstreetmap.org","min_zoom":8.0,"bus_shield_text":"92","landuse_kind":"urban_area","kind":"major_road"},"arcs":[595]},{"type":"LineString","properties":{"kind":"major_road","sort_rank":380,"kind_detail":"primary","source":"openstreetmap.org","min_zoom":8.0,"old_name":"\u041a\u0440\u0430\u0441\u0438\u043d\u0430 \u0443\u043b\u0438\u0446\u0430","landuse_kind":"residential","id":485143336},"arcs":[596]},{"type":"LineString","properties":{"kind":"major_road","network":"AsianHighway","sort_rank":380,"kind_detail":"primary","bus_network":null,"source":"openstreetmap.org","min_zoom":8.0,"bus_shield_text":"32","shield_text":"5","landuse_kind":"urban_area","id":228186445},"arcs":[597]},{"type":"MultiLineString","properties":{"source":"openstreetmap.org","kind":"highway","sort_rank":383,"kind_detail":"motorway","ref":"A-6","min_zoom":8.0},"arcs":[[598],[599],[600],[601],[602],[603]]},{"type":"LineString","properties":{"kind":"major_road","sort_rank":380,"kind_detail":"primary","source":"openstreetmap.org","min_zoom":8.0,"old_name":"\u0418\u043b\u0438\u0439\u0441\u043a\u0438\u0439 \u0442\u0440\u0430\u043a\u0442","landuse_kind":"residential","id":400559301},"arcs":[604]},{"type":"MultiLineString","properties":{"bus_network":null,"name:en":"Raiymbek Avenue","sort_rank":380,"kind_detail":"primary","old_name":"\u0443\u043b\u0438\u0446\u0430 \u0422\u0430\u0448\u043a\u0435\u043d\u0442\u0441\u043a\u0430\u044f","kind":"major_road","source":"openstreetmap.org","min_zoom":8.0,"bus_shield_text":"4","landuse_kind":"urban_area","ref":"M-36"},"arcs":[[605],[606]]},{"type":"MultiLineString","properties":{"source":"openstreetmap.org","kind":"major_road","old_name":"\u0443\u043b\u0438\u0446\u0430 \u0422\u0430\u0448\u043a\u0435\u043d\u0442\u0441\u043a\u0430\u044f","sort_rank":380,"kind_detail":"primary","landuse_kind":"urban_area","min_zoom":8.0},"arcs":[[607],[608],[609],[610],[611],[612],[613]]},{"type":"LineString","properties":{"kind":"highway","name:en":"Almaty-Ust-Kamenogorsk (North)","network":"e-road","sort_rank":383,"kind_detail":"motorway","source":"openstreetmap.org","min_zoom":8.0,"all_networks":["e-road","AsianHighway"],"shield_text":"40","ref":"A-3","all_shield_texts":["40","60"]},"arcs":[614]},{"type":"MultiLineString","properties":{"bus_network":null,"sort_rank":380,"kind_detail":"primary","kind":"major_road","source":"openstreetmap.org","min_zoom":8.0,"bus_shield_text":"1","landuse_kind":"urban_area"},"arcs":[[615],[616],[617]]},{"type":"MultiLineString","properties":{"kind":"highway","network":"e-road","sort_rank":383,"kind_detail":"motorway","source":"openstreetmap.org","min_zoom":8.0,"all_networks":["e-road","AsianHighway"],"shield_text":"40","ref":"A-3","all_shield_texts":["40","60"]},"arcs":[[618],[619],[620]]},{"type":"LineString","properties":{"kind":"major_road","sort_rank":380,"kind_detail":"primary","old_name":"\u0443\u043b\u0438\u0446\u0430 \u0422\u0430\u0448\u043a\u0435\u043d\u0442\u0441\u043a\u0430\u044f","bus_network":null,"source":"openstreetmap.org","min_zoom":8.0,"bus_shield_text":"4","landuse_kind":"urban_area","id":40943245},"arcs":[621]},{"type":"MultiLineString","properties":{"bus_network":null,"network":"AsianHighway","sort_rank":380,"kind_detail":"primary","kind":"major_road","source":"openstreetmap.org","min_zoom":8.0,"bus_shield_text":"117","shield_text":"5","landuse_kind":"urban_area","ref":"A-2"},"arcs":[[622],[623],[624]]},{"type":"MultiLineString","properties":{"source":"openstreetmap.org","kind":"major_road","sort_rank":381,"kind_detail":"trunk","ref":"AH5","min_zoom":8.0},"arcs":[[625],[626],[627],[628],[629],[630]]},{"type":"MultiLineString","properties":{"bus_network":null,"int_name":"Seyfullin av.","sort_rank":380,"kind_detail":"primary","name:kk":"\u0421\u0435\u0439\u0444\u0443\u043b\u043b\u0438\u043d \u0434\u0430\u04a3.","kind":"major_road","source":"openstreetmap.org","min_zoom":8.0,"bus_shield_text":"17","landuse_kind":"urban_area"},"arcs":[[631],[632],[633]]},{"type":"LineString","properties":{"kind":"major_road","network":"AsianHighway","sort_rank":381,"kind_detail":"trunk","source":"openstreetmap.org","min_zoom":8.0,"old_name":"\u0443\u043b. \u0422\u0430\u0448\u043a\u0435\u043d\u0442\u0441\u043a\u0430\u044f","shield_text":"5","name:ru":"\u043f\u0440. \u0420\u0430\u0438\u043c\u0431\u0435\u043a\u0430","landuse_kind":"urban_area","id":125591264},"arcs":[634]},{"type":"LineString","properties":{"cycleway_right":"track","name:en":"Raiymbek Ave","sort_rank":380,"kind_detail":"primary","bus_shield_text":"100","is_bicycle_related":true,"kind":"major_road","bus_network":null,"source":"openstreetmap.org","min_zoom":8.0,"old_name":"\u0443\u043b\u0438\u0446\u0430 \u0422\u0430\u0448\u043a\u0435\u043d\u0442\u0441\u043a\u0430\u044f","name:ru":"\u043f\u0440\u043e\u0441\u043f\u0435\u043a\u0442 \u0420\u0430\u0438\u043c\u0431\u0435\u043a\u0430","landuse_kind":"urban_area","ref":"M-36","id":216580780},"arcs":[635]},{"type":"MultiLineString","properties":{"source":"openstreetmap.org","kind":"major_road","landuse_kind":"urban_area","sort_rank":380,"kind_detail":"primary","ref":"\u0410\u041b 15","min_zoom":8.0},"arcs":[[636],[637]]},{"type":"MultiLineString","properties":{"source":"openstreetmap.org","kind":"major_road","old_name":"\u0421\u0430\u0440\u0431\u0443\u043b\u0430\u043a\u0441\u043a\u0438\u0439 \u0442\u0440\u0430\u043a\u0442","sort_rank":380,"kind_detail":"primary","landuse_kind":"urban_area","min_zoom":8.0},"arcs":[[638],[639]]},{"type":"LineString","properties":{"kind":"major_road","sort_rank":380,"kind_detail":"primary","name:kk":"\u0411\u04d9\u0439\u043a\u0435\u043d \u04d8\u0448\u0456\u043c\u043e\u0432 \u043a\u04e9\u0448\u0435\u0441\u0456","source":"openstreetmap.org","min_zoom":8.0,"old_name":"\u0443\u043b\u0438\u0446\u0430 \u0410\u0443\u044d\u0437\u043e\u0432\u0430","old_name:kk":"\u04d8\u0443\u0435\u0437\u043e\u0432 \u043a\u04e9\u0448\u0435\u0441\u0456","landuse_kind":"urban_area","id":313264491},"arcs":[640]},{"type":"MultiLineString","properties":{"source":"openstreetmap.org","kind":"highway","sort_rank":383,"kind_detail":"motorway","ref":"AH5","min_zoom":8.0},"arcs":[[641],[642],[643],[644],[645],[646],[647],[648],[649],[650],[651],[652],[653],[654]]},{"type":"LineString","properties":{"source":"openstreetmap.org","kind":"major_road","old_name":"\u0418\u043b\u0438\u0439\u0441\u043a\u0438\u0439 \u0442\u0440\u0430\u043a\u0442","sort_rank":380,"kind_detail":"primary","min_zoom":8.0},"arcs":[655]},{"type":"LineString","properties":{"kind":"major_road","sort_rank":380,"kind_detail":"primary","source":"openstreetmap.org","min_zoom":8.0,"old_name":"\u0443\u043b\u0438\u0446\u0430 \u0412\u043e\u0434\u043e\u0437\u0430\u0431\u043e\u0440\u043d\u0430\u044f","landuse_kind":"urban_area","id":207810546},"arcs":[656]},{"type":"MultiLineString","properties":{"bus_network":null,"sort_rank":380,"landuse_kind":"urban_area","old_name":"\u0443\u043b\u0438\u0446\u0430 \u0417\u0430\u043f\u0430\u0434\u043d\u0430\u044f","kind":"major_road","source":"openstreetmap.org","min_zoom":8.0,"bus_shield_text":"104","kind_detail":"primary"},"arcs":[[657],[658],[659],[660],[661],[662],[663],[664]]},{"type":"MultiLineString","properties":{"kind":"major_road","network":"e-road","sort_rank":381,"landuse_kind":"urban_area","source":"openstreetmap.org","min_zoom":8.0,"kind_detail":"trunk","shield_text":"40","ref":"A-3"},"arcs":[[665],[666],[667],[668]]},{"type":"MultiLineString","properties":{"kind":"major_road","network":"AsianHighway","sort_rank":381,"kind_detail":"trunk","source":"openstreetmap.org","min_zoom":8.0,"shield_text":"5","ref":"A-2"},"arcs":[[669],[670],[671],[672],[673],[674],[675],[676],[677],[678],[679],[680],[681]]},{"type":"LineString","properties":{"kind":"major_road","name:en":"Raiymbek Ave","sort_rank":380,"kind_detail":"primary","bus_shield_text":"4","bus_network":null,"source":"openstreetmap.org","min_zoom":8.0,"old_name":"\u0443\u043b\u0438\u0446\u0430 \u0422\u0430\u0448\u043a\u0435\u043d\u0442\u0441\u043a\u0430\u044f","name:ru":"\u043f\u0440\u043e\u0441\u043f\u0435\u043a\u0442 \u0420\u0430\u0438\u043c\u0431\u0435\u043a\u0430","landuse_kind":"urban_area","id":539987998},"arcs":[682]},{"type":"LineString","properties":{"kind":"major_road","int_name":"Ryskulov ave.","network":"AsianHighway","sort_rank":381,"kind_detail":"trunk","bus_network":null,"source":"openstreetmap.org","min_zoom":8.0,"bus_shield_text":"104","shield_text":"5","landuse_kind":"urban_area","ref":"A-2","id":27461543},"arcs":[683]},{"type":"LineString","properties":{"kind":"major_road","sort_rank":380,"kind_detail":"primary","bus_shield_text":"79","bus_network":null,"source":"openstreetmap.org","min_zoom":8.0,"old_name":"\u0443\u043b\u0438\u0446\u0430 \u041a\u0440\u0435\u043c\u043b\u0451\u0432\u0441\u043a\u0430\u044f","landuse_kind":"urban_area","id":185305729},"arcs":[684]},{"type":"MultiLineString","properties":{"kind":"major_road","network":"AsianHighway","sort_rank":380,"kind_detail":"primary","source":"openstreetmap.org","min_zoom":8.0,"old_name":"\u0443\u043b\u0438\u0446\u0430 \u0421\u043a\u043e\u0442\u043e\u043f\u0440\u043e\u0433\u043e\u043d\u043d\u0430\u044f","shield_text":"5","landuse_kind":"urban_area","ref":"A-2"},"arcs":[[685],[686],[687]]},{"type":"LineString","properties":{"kind":"major_road","int_name":"Rayimbek avenue","sort_rank":380,"kind_detail":"primary","source":"openstreetmap.org","min_zoom":8.0,"old_name":"\u0443\u043b. \u0422\u0430\u0448\u043a\u0435\u043d\u0442\u0441\u043a\u0430\u044f","landuse_kind":"urban_area","id":26776159},"arcs":[688]},{"type":"LineString","properties":{"bus_network":null,"sort_rank":380,"kind_detail":"primary","old_name":"\u0443\u043b\u0438\u0446\u0430 \u041a\u0440\u0435\u043c\u043b\u0451\u0432\u0441\u043a\u0430\u044f","kind":"major_road","source":"openstreetmap.org","min_zoom":8.0,"bus_shield_text":"121,66,5,65,29","landuse_kind":"urban_area"},"arcs":[689]},{"type":"MultiLineString","properties":{"bus_network":null,"name:en":"Al-Farabi Avenue (East)","sort_rank":380,"kind_detail":"primary","kind":"major_road","source":"openstreetmap.org","min_zoom":8.0,"bus_shield_text":"86","landuse_kind":"urban_area"},"arcs":[[690],[691],[692],[693]]},{"type":"MultiLineString","properties":{"bus_network":null,"sort_rank":380,"kind_detail":"primary","kind":"major_road","source":"openstreetmap.org","min_zoom":8.0,"bus_shield_text":"2","landuse_kind":"urban_area"},"arcs":[[694],[695],[696],[697],[698]]},{"type":"LineString","properties":{"kind":"major_road","int_name":"Rayimbek avenue","sort_rank":380,"kind_detail":"primary","bus_shield_text":"4","bus_network":null,"source":"openstreetmap.org","min_zoom":8.0,"old_name":"\u0443\u043b. \u0422\u0430\u0448\u043a\u0435\u043d\u0442\u0441\u043a\u0430\u044f","landuse_kind":"urban_area","id":245024074},"arcs":[699]},{"type":"LineString","properties":{"kind":"major_road","sort_rank":380,"kind_detail":"primary","source":"openstreetmap.org","min_zoom":8.0,"old_name":"\u0443\u043b\u0438\u0446\u0430 \u041f\u0443\u0448\u043a\u0438\u043d\u0430","landuse_kind":"residential","id":485141569},"arcs":[700]},{"type":"MultiLineString","properties":{"kind":"major_road","int_name":"Seyfullin av.","sort_rank":380,"kind_detail":"primary","name:kk":"\u0421\u0435\u0439\u0444\u0443\u043b\u043b\u0438\u043d \u0434\u0430\u04a3.","source":"openstreetmap.org","min_zoom":8.0,"landuse_kind":"urban_area"},"arcs":[[701],[702]]},{"type":"MultiLineString","properties":{"bus_network":null,"name:en":"Raiymbek Avenue","sort_rank":380,"kind_detail":"primary","bus_shield_text":"17","kind":"major_road","source":"openstreetmap.org","min_zoom":8.0,"old_name":"\u0443\u043b\u0438\u0446\u0430 \u0422\u0430\u0448\u043a\u0435\u043d\u0442\u0441\u043a\u0430\u044f","landuse_kind":"urban_area"},"arcs":[[703],[704]]},{"type":"MultiLineString","properties":{"bus_network":null,"network":"AsianHighway","sort_rank":380,"kind_detail":"primary","kind":"major_road","source":"openstreetmap.org","min_zoom":8.0,"bus_shield_text":"117","shield_text":"5","landuse_kind":"urban_area","ref":"A-6"},"arcs":[[705],[706]]},{"type":"MultiLineString","properties":{"source":"openstreetmap.org","kind":"major_road","sort_rank":381,"kind_detail":"trunk","ref":"A-6","min_zoom":8.0},"arcs":[[707],[708],[709],[710],[711]]},{"type":"LineString","properties":{"kind":"major_road","int_name":"Ryskulov ave.","network":"AsianHighway","sort_rank":381,"kind_detail":"trunk","source":"openstreetmap.org","min_zoom":8.0,"old_name":"\u0443\u043b\u0438\u0446\u0430 \u0421\u043a\u043e\u0442\u043e\u043f\u0440\u043e\u0433\u043e\u043d\u043d\u0430\u044f","shield_text":"5","landuse_kind":"urban_area","ref":"A-2","id":260093826},"arcs":[712]},{"type":"MultiLineString","properties":{"kind":"major_road","network":"AsianHighway","sort_rank":380,"kind_detail":"primary","source":"openstreetmap.org","min_zoom":8.0,"landuse_kind":"urban_area","shield_text":"5"},"arcs":[[713],[714]]},{"type":"LineString","properties":{"kind":"major_road","network":"kz:national","sort_rank":381,"kind_detail":"trunk","source":"openstreetmap.org","min_zoom":8.0,"shield_text":"36","ref":"M-36"},"arcs":[715]},{"type":"LineString","properties":{"kind":"major_road","sort_rank":380,"kind_detail":"primary","bus_shield_text":"66","bus_network":null,"source":"openstreetmap.org","min_zoom":8.0,"old_name":"\u0443\u043b\u0438\u0446\u0430 \u0417\u0430\u043f\u0430\u0434\u043d\u0430\u044f","landuse_kind":"urban_area","id":384959673},"arcs":[716]},{"type":"LineString","properties":{"kind":"major_road","name:en":"Al Farabi Avenue (West)","sort_rank":380,"kind_detail":"primary","source":"openstreetmap.org","min_zoom":8.0,"old_name":"\u0443\u043b\u0438\u0446\u0430 \u0412\u043e\u0434\u043e\u0437\u0430\u0431\u043e\u0440\u043d\u0430\u044f","landuse_kind":"urban_area","id":207810575},"arcs":[717]},{"type":"LineString","properties":{"kind":"major_road","name:en":"Ryskulov Ave","network":"AsianHighway","sort_rank":381,"kind_detail":"trunk","bus_shield_text":"104","bus_network":null,"source":"openstreetmap.org","min_zoom":8.0,"int_name":"Ryskulov ave.","old_name":"\u0443\u043b\u0438\u0446\u0430 \u0421\u043a\u043e\u0442\u043e\u043f\u0440\u043e\u0433\u043e\u043d\u043d\u0430\u044f","shield_text":"5","landuse_kind":"urban_area","id":335064421},"arcs":[718]},{"type":"LineString","properties":{"kind":"major_road","name:en":"Kuldzhinka","network":"AsianHighway","sort_rank":380,"kind_detail":"primary","bus_shield_text":"212","bus_network":null,"source":"openstreetmap.org","min_zoom":8.0,"old_name":"\u041a\u0443\u043b\u044c\u0434\u0436\u0438\u043d\u0441\u043a\u0438\u0439 \u0442\u0440\u0430\u043a\u0442","shield_text":"5","ref":"A-2","id":227901598},"arcs":[719]},{"type":"MultiLineString","properties":{"bus_network":null,"int_name":"Seyfullin av.","sort_rank":380,"kind_detail":"primary","old_name":"\u0443\u043b\u0438\u0446\u0430 18-\u0430\u044f \u0421\u0430\u0440\u0442\u043e\u0432\u0441\u043a\u0430\u044f","name:kk":"\u0421\u0435\u0439\u0444\u0443\u043b\u043b\u0438\u043d \u0434\u0430\u04a3.","kind":"major_road","source":"openstreetmap.org","min_zoom":8.0,"bus_shield_text":"17","landuse_kind":"urban_area"},"arcs":[[720],[721],[722]]},{"type":"MultiLineString","properties":{"bus_network":null,"network":"kz:national","sort_rank":381,"kind_detail":"trunk","kind":"major_road","source":"openstreetmap.org","min_zoom":8.0,"bus_shield_text":"336","shield_text":"36","ref":"M-36;A-2"},"arcs":[[723],[724]]},{"type":"LineString","properties":{"kind":"major_road","sort_rank":380,"kind_detail":"primary","old_name":"\u0443\u043b\u0438\u0446\u0430 \u0423\u043a\u0440\u0430\u0438\u043d\u0441\u043a\u0430\u044f","bus_network":null,"source":"openstreetmap.org","min_zoom":8.0,"bus_shield_text":"121,66,5,65,29","landuse_kind":"urban_area","id":385200740},"arcs":[725]},{"type":"LineString","properties":{"kind":"major_road","int_name":"Rozybakiev str.","sort_rank":380,"kind_detail":"primary","name:kk":"\u0420\u043e\u0437\u044b\u0431\u0430\u043a\u0438\u0435\u0432 \u043a\u04e9\u0448.","bus_network":null,"source":"openstreetmap.org","min_zoom":8.0,"bus_shield_text":"121,66,5,65,29","landuse_kind":"urban_area","id":241774907},"arcs":[726]},{"type":"MultiLineString","properties":{"source":"openstreetmap.org","kind":"major_road","landuse_kind":"residential","sort_rank":380,"kind_detail":"primary","ref":"P-19","min_zoom":8.0},"arcs":[[727],[728],[729],[730]]},{"type":"MultiLineString","properties":{"bus_network":null,"sort_rank":380,"kind_detail":"primary","bus_shield_text":"335","kind":"major_road","source":"openstreetmap.org","min_zoom":8.0,"old_name":"\u0412\u0435\u0440\u0445\u043d\u044f\u044f","landuse_kind":"urban_area","ref":"A-4"},"arcs":[[731],[732],[733]]},{"type":"LineString","properties":{"bus_network":null,"sort_rank":380,"kind_detail":"primary","kind":"major_road","source":"openstreetmap.org","min_zoom":8.0,"bus_shield_text":"335","landuse_kind":"urban_area"},"arcs":[734]},{"type":"LineString","properties":{"kind":"major_road","sort_rank":380,"kind_detail":"primary","old_name":"\u0443\u043b\u0438\u0446\u0430 \u0428\u043e\u0441\u0441\u0435\u0439\u043d\u0430\u044f","bus_network":null,"source":"openstreetmap.org","min_zoom":8.0,"bus_shield_text":"4","landuse_kind":"urban_area","ref":"A-351","id":4489484},"arcs":[735]},{"type":"LineString","properties":{"kind":"highway","name:en":"Almaty-Ust-Kamenogorsk Highway","network":"e-road","sort_rank":383,"kind_detail":"motorway","source":"openstreetmap.org","min_zoom":8.0,"all_networks":["e-road","AsianHighway"],"shield_text":"40","ref":"A-3","id":376252080,"all_shield_texts":["40","60"]},"arcs":[736]},{"type":"LineString","properties":{"kind":"major_road","name:en":"Raiymbek Avenue","sort_rank":380,"kind_detail":"primary","bus_shield_text":"17","bus_network":null,"source":"openstreetmap.org","min_zoom":8.0,"old_name":"\u0443\u043b\u0438\u0446\u0430 \u0422\u0430\u0448\u043a\u0435\u043d\u0442\u0441\u043a\u0430\u044f","landuse_kind":"urban_area","ref":"M-36","id":258699193},"arcs":[737]},{"type":"MultiLineString","properties":{"source":"openstreetmap.org","kind":"major_road","landuse_kind":"residential","sort_rank":380,"kind_detail":"primary","ref":"P-17","min_zoom":8.0},"arcs":[[738],[739],[740],[741]]},{"type":"LineString","properties":{"kind":"major_road","sort_rank":380,"kind_detail":"primary","bus_shield_text":"335","bus_network":null,"source":"openstreetmap.org","min_zoom":8.0,"old_name":"\u0443\u043b\u0438\u0446\u0430 \u0410\u043b\u043c\u0430-\u0410\u0442\u0438\u043d\u0441\u043a\u0430\u044f","landuse_kind":"urban_area","id":152087528},"arcs":[742]},{"type":"LineString","properties":{"kind":"major_road","name:en":"Raiymbek Avenue (East)","sort_rank":380,"kind_detail":"primary","bus_shield_text":"17","bus_network":null,"source":"openstreetmap.org","min_zoom":8.0,"old_name":"\u0443\u043b\u0438\u0446\u0430 \u0422\u0430\u0448\u043a\u0435\u043d\u0442\u0441\u043a\u0430\u044f","landuse_kind":"urban_area","ref":"M-36","id":314421872},"arcs":[743]}]},"earth":{"type":"GeometryCollection","geometries":[{"type":"Polygon","properties":{"sort_rank":10,"source":"naturalearthdata.com","kind":"earth","min_zoom":0.0,"id":4746},"arcs":[[744]]}]},"landuse":{"type":"GeometryCollection","geometries":[{"type":"Polygon","properties":{"kind":"residential","name":"\u0411\u0435\u043b\u044c\u0431\u0443\u043b\u0430\u043a","area":11960300,"sort_rank":20,"source":"openstreetmap.org","min_zoom":8.0,"old_name":"\u041c\u0438\u0447\u0443\u0440\u0438\u043d\u043e","tier":2,"name:ru":"\u041c\u0438\u0447\u0443\u0440\u0438\u043d\u043e","id":38967868},"arcs":[[745]]},{"type":"Polygon","properties":{"kind":"glacier","natural":"glacier","name":"\u0411\u043e\u0433\u0430\u0442\u044b\u0440\u044c","area":39295400,"sort_rank":29,"source":"openstreetmap.org","min_zoom":8.0,"tier":3,"id":228772726},"arcs":[[746]]},{"type":"Polygon","properties":{"kind":"residential","name":"\u0411\u0430\u0439\u0442\u0435\u0440\u0435\u043a","area":18970800,"sort_rank":20,"source":"openstreetmap.org","min_zoom":8.0,"old_name":"\u041d\u043e\u0432\u043e\u0430\u043b\u0435\u043a\u0441\u0430\u043d\u0434\u0440\u043e\u0432\u043a\u0430","tier":2,"name:ru":"\u041d\u043e\u0432\u043e\u0430\u043b\u0435\u043a\u0441\u0430\u043d\u0434\u0440\u043e\u0432\u043a\u0430","id":38606927},"arcs":[[747]]},{"type":"Polygon","properties":{"kind":"residential","name":"\u0411\u0430\u0439\u0441\u0435\u0440\u043a\u0435","area":16125600,"sort_rank":20,"source":"openstreetmap.org","min_zoom":8.0,"old_name":"\u0414\u043c\u0438\u0442\u0440\u0438\u0435\u0432\u043a\u0430","tier":2,"id":38562688},"arcs":[[748]]},{"type":"Polygon","properties":{"kind":"residential","name":"\u0422\u0443\u0437\u0434\u044b\u0431\u0430\u0441\u0442\u0430\u0443","area":11428300,"sort_rank":20,"name:kk":"\u0422\u04b1\u0437\u0434\u044b\u0431\u0430\u0441\u0442\u0430\u0443","source":"openstreetmap.org","min_zoom":8.0,"old_name":"\u041a\u0430\u043b\u0438\u043d\u0438\u043d\u043e","tier":2,"id":123435245},"arcs":[[749]]},{"type":"Polygon","properties":{"kind":"residential","name":"\u0427\u0435\u043c\u043e\u043b\u0433\u0430\u043d","area":17783400,"sort_rank":20,"source":"openstreetmap.org","min_zoom":8.0,"tier":2,"id":506513212},"arcs":[[750]]},{"type":"Polygon","properties":{"kind":"residential","name:en":"Karaoy","name":"\u041a\u0430\u0440\u0430\u043e\u0439","area":16862200,"sort_rank":20,"source":"openstreetmap.org","min_zoom":8.0,"tier":2,"id":38956409},"arcs":[[751]]},{"type":"MultiPolygon","properties":{"kind":"glacier","natural":"glacier","name":"\u041a\u043e\u0440\u0436\u0435\u043d\u0435\u0432\u0441\u043a\u043e\u0433\u043e","area":47592858,"sort_rank":29,"source":"openstreetmap.org","min_zoom":8.0,"tier":3},"arcs":[[[752]],[[753]]]},{"type":"Polygon","properties":{"kind":"residential","name:en":"microdistrict Alatau","name":"\u0410\u043b\u0430\u0442\u0430\u0443","area":11013900,"sort_rank":20,"source":"openstreetmap.org","min_zoom":8.0,"old_name":"\u043f\u043e\u0441\u0435\u043b\u043e\u043a \u0410\u043b\u0430\u0442\u0430\u0443","tier":2,"id":-2479314,"osm_relation":true},"arcs":[[754]]},{"type":"Polygon","properties":{"kind":"residential","int_name":"Kaskelen","name":"\u041a\u0430\u0441\u043a\u0435\u043b\u0435\u043d","area":28149000,"sort_rank":20,"name:kk":"\u049a\u0430\u0441\u043a\u0435\u043b\u0435\u04a3","source":"openstreetmap.org","min_zoom":8.0,"tier":2,"id":-3390600,"osm_relation":true},"arcs":[[755]]},{"type":"Polygon","properties":{"kind":"residential","name":"\u0434\u0430\u0447\u0438 \u0422\u0443\u0440\u0430\u0440\u0441\u043a\u0438\u0435","area":15388400,"sort_rank":20,"source":"openstreetmap.org","min_zoom":8.0,"tier":2,"id":229045453},"arcs":[[756]]},{"type":"Polygon","properties":{"kind":"residential","name":"\u041a\u043e\u043a \u041b\u0430\u0439 \u0421\u0430\u0439","area":11137300,"sort_rank":20,"source":"openstreetmap.org","min_zoom":8.0,"tier":2,"id":543307883},"arcs":[[757]]},{"type":"Polygon","properties":{"kind":"residential","name":"\u041c\u0435\u0436\u0434\u0443\u0440\u0435\u0447\u0435\u043d\u0441\u043a\u043e\u0435","area":12000800,"sort_rank":20,"source":"openstreetmap.org","min_zoom":8.0,"tier":2,"id":537369091},"arcs":[[758]]},{"type":"Polygon","properties":{"kind":"residential","name":"\u041d\u0438\u043a\u043e\u043b\u0430\u0435\u0432\u043a\u0430","area":22568700,"sort_rank":20,"source":"openstreetmap.org","min_zoom":8.0,"tier":2,"id":38660109},"arcs":[[759]]},{"type":"Polygon","properties":{"source":"openstreetmap.org","kind":"military","area":10669600,"tier":3,"id":542473386,"min_zoom":8.0,"sort_rank":45},"arcs":[[760]]},{"type":"MultiPolygon","properties":{"source":"naturalearthdata.com","kind":"urban_area","name":"","area":1181580671,"sort_rank":11,"min_zoom":4.0},"arcs":[[[761]],[[762]],[[763]]]},{"type":"Polygon","properties":{"kind":"residential","name":"\u041e\u0442\u0435\u0433\u0435\u043d \u0431\u0430\u0442\u044b\u0440","area":10223900,"sort_rank":20,"source":"openstreetmap.org","min_zoom":8.0,"old_name":"\u042d\u043d\u0435\u0440\u0433\u0435\u0442\u0438\u0447\u0435\u0441\u043a\u0438\u0439","tier":2,"name:ru":"\u042d\u043d\u0435\u0440\u0433\u0435\u0442\u0438\u0447\u0435\u0441\u043a\u0438\u0439","id":38606984},"arcs":[[764]]},{"type":"Polygon","properties":{"kind":"residential","name":"\u0429\u0438\u0440\u043e\u043a\u0430\u044f \u0429\u0435\u043b\u044c","area":13176800,"sort_rank":20,"source":"openstreetmap.org","min_zoom":8.0,"tier":2,"id":538529144},"arcs":[[765]]},{"type":"Polygon","properties":{"kind":"residential","name:en":"Chemolgan","name":"\u0423\u0448\u043a\u043e\u043d\u044b\u0440","area":15506800,"sort_rank":20,"name:kk":"\u04ae\u0448\u049b\u043e\u04a3\u044b\u0440","source":"openstreetmap.org","min_zoom":8.0,"int_name":"Ushkonyr","old_name":"\u0427\u0435\u043c\u043e\u043b\u0433\u0430\u043d;\u0421\u0435\u043b\u043e \u041f\u0440\u0438\u0433\u043e\u0440\u043d\u043e\u0435","tier":2,"id":488621935},"arcs":[[766]]},{"type":"Polygon","properties":{"kind":"residential","name":"\u0416\u0430\u043b\u043a\u043e\u043c\u044b\u0441","area":11331000,"sort_rank":20,"source":"openstreetmap.org","min_zoom":8.0,"tier":2,"id":38900229},"arcs":[[767]]},{"type":"Polygon","properties":{"kind":"residential","name":"\u0412\u0438\u043d\u0441\u043e\u0432\u0445\u043e\u0437","area":10887100,"sort_rank":20,"source":"openstreetmap.org","min_zoom":8.0,"tier":2,"id":488689573},"arcs":[[768]]},{"type":"Polygon","properties":{"kind":"residential","name":"\u041a\u0430\u0437\u041c\u0418\u0421","area":10017500,"sort_rank":20,"source":"openstreetmap.org","min_zoom":8.0,"tier":2,"id":537356709},"arcs":[[769]]},{"type":"Polygon","properties":{"kind":"residential","name:en":"Uzunagach","name":"\u0423\u0437\u044b\u043d\u0430\u0433\u0430\u0448","area":35002600,"sort_rank":20,"name:kk":"\u0423\u0437\u044b\u043d\u0430\u0493\u0430\u0448","source":"openstreetmap.org","min_zoom":8.0,"int_name":"Uzynagash","tier":2,"id":-2470367,"osm_relation":true},"arcs":[[770]]},{"type":"Polygon","properties":{"kind":"residential","name":"\u041a\u0430\u0440\u0433\u0430\u043b\u044b","area":20464300,"sort_rank":20,"source":"openstreetmap.org","min_zoom":8.0,"old_name":"\u0441\u0442\u0430\u043d\u0438\u0446\u0430 \u0424\u0430\u0431\u0440\u0438\u0447\u043d\u0430\u044f","tier":2,"id":38956396},"arcs":[[771]]},{"type":"Polygon","properties":{"kind":"residential","name":"\u041a\u0430\u0437\u0426\u0418\u041a","area":10126700,"sort_rank":20,"source":"openstreetmap.org","min_zoom":8.0,"tier":2,"id":537373262},"arcs":[[772]]},{"type":"Polygon","properties":{"kind":"residential","name":"\u0420\u0430\u0437\u0434\u043e\u043b\u044c\u043d\u043e\u0435","area":11042800,"sort_rank":20,"source":"openstreetmap.org","min_zoom":8.0,"tier":2,"id":488693266},"arcs":[[773]]},{"type":"Polygon","properties":{"kind":"aerodrome","area":11287900,"sort_rank":60,"source":"openstreetmap.org","min_zoom":8.0,"tier":3,"id":-3061061,"osm_relation":true},"arcs":[[774]]}]}},"type":"Topology","transform":{"translate":[75.9375,43.0688877742],"scale":[0.0003433228,0.0002487054]},"arcs":[[[3354,0],[-26,187],[98,-22],[22,30],[-23,-14],[-100,73],[-47,52],[-8,61],[29,20],[137,-54],[15,61],[37,-1],[35,46],[-3,47],[-77,58],[-16,-91],[-45,-22],[-5,32],[-82,52],[-107,208],[-80,56],[30,15],[-14,97],[89,79],[-43,38],[44,73],[-26,36],[45,8],[-8,18],[59,35],[29,30],[81,54],[-1,5],[-72,-51],[-29,13],[-67,-47],[-97,-12],[14,105],[-84,71],[-64,-96],[-105,0],[-36,-89],[-107,-120],[-15,75],[-27,2],[-25,-55],[-20,84],[-108,2],[-36,-102],[-83,-50],[-100,-10],[48,-41],[-1,-29],[78,-31],[12,-31],[19,28],[19,-24],[4,-33],[-38,-33],[20,-63],[-51,-4],[29,-69],[-47,-8],[32,-49],[-26,0],[20,-74],[37,-39],[5,-91],[-48,-32],[63,-19],[4,-33],[26,0],[-1,-43],[80,-8],[-4,-43],[47,-2],[7,49],[51,-33],[72,-2],[21,-176],[158,-1],[32,-53]],[[3466,1189],[45,-10],[-5,16],[3,1],[54,-30],[6,-72],[-48,-32],[-55,127]],[[2933,813],[9,-117],[-202,-20],[-32,-26]],[[2705,1164],[-112,-17],[-398,49],[-252,73],[-58,50],[-46,128],[-58,55],[3,78],[-173,220],[-226,121],[-139,134],[-164,73],[-386,32],[-309,-29],[-108,-20],[-279,-123]],[[2709,1165],[269,-82]],[[2980,1083],[69,48],[69,256],[93,173],[23,171],[235,794],[-16,25],[-56,-10],[-204,190],[54,477],[219,154],[251,-9],[136,141],[96,131],[6,86],[48,21],[85,119],[8,4]],[[2705,1164],[-112,-17],[-398,49],[-252,73],[-58,50],[-46,128],[-58,55],[3,78],[-173,220],[-226,121],[-139,134],[-164,73],[-386,32],[-309,-29],[-108,-20],[-279,-123]],[[2917,825],[20,10],[49,244],[-277,86]],[[2933,813],[9,-117],[-202,-20],[-32,-26]],[[2705,1164],[-112,-17],[-398,49],[-252,73],[-58,50],[-46,128],[-58,55],[3,78],[-173,220],[-226,121],[-139,134],[-164,73],[-386,32],[-309,-29],[-108,-20],[-279,-123]],[[2917,825],[20,10],[49,244],[-277,86]],[[2917,825],[20,10],[47,245],[-216,81],[-269,-5],[-310,41],[-244,70],[-60,52],[-46,128],[-58,55],[3,78],[-173,220],[-226,121],[-139,134],[-162,73],[-388,32],[-306,-28],[-111,-21],[-279,-123]],[[2917,825],[20,10],[41,248]],[[2978,1083],[-4,2]],[[2974,1085],[-1,0]],[[2973,1085],[-1,1]],[[2972,1086],[-1,0]],[[2971,1086],[-4,2]],[[2967,1088],[-1,0]],[[2966,1088],[-3,1]],[[2963,1089],[-1,1]],[[2962,1090],[-28,11]],[[2978,1083],[71,48],[69,256],[93,173],[23,171],[235,794],[-16,25],[-56,-10],[-204,190],[54,477],[219,154],[251,-9],[136,141],[96,131],[6,86],[48,21],[85,119],[8,4]],[[2917,825],[20,10],[41,248]],[[2978,1083],[-4,2]],[[2974,1085],[-1,0]],[[2973,1085],[-1,1]],[[2972,1086],[-1,0]],[[2971,1086],[-4,2]],[[2967,1088],[-1,0]],[[2966,1088],[-3,1]],[[2963,1089],[-1,1]],[[2962,1090],[-28,11]],[[2978,1083],[71,48],[69,256],[93,173],[23,171],[235,794],[-16,25],[-56,-10],[-204,190],[54,477],[219,154],[251,-9],[136,141],[96,131],[6,86],[48,21],[85,119],[8,4]],[[2705,1164],[-112,-17],[-398,49],[-252,73],[-58,50],[-46,128],[-58,55],[3,78],[-173,220],[-226,121],[-139,134],[-164,73],[-386,32],[-309,-29],[-108,-20],[-279,-123]],[[2709,1165],[280,-85],[52,37],[77,270],[93,173],[23,171],[205,670],[26,141],[-68,-2],[-204,190],[52,474],[128,111],[93,46],[251,-9],[136,141],[96,131],[6,86],[48,21],[85,119],[8,4]],[[1181,2075],[-104,55],[-383,30],[-406,-46],[-288,-126]],[[2352,1178],[-163,19],[-257,78],[-47,44],[-48,130],[-56,53],[3,78],[-173,220],[-226,121],[-139,134],[-63,19]],[[2353,1178],[146,-22],[96,-9],[72,10],[63,10],[133,-45]],[[2662,1156],[-116,-3]],[[2662,1156],[7,1],[35,7]],[[2702,1164],[-40,-8]],[[2806,1144],[-37,17],[-40,7],[-20,-3]],[[3124,1400],[87,160],[23,171],[223,744]],[[3457,2475],[8,67],[-62,-6],[-60,53]],[[3457,2475],[12,45]],[[3465,2506],[3,13]],[[3468,2519],[2,7]],[[3470,2526],[30,56],[464,53],[132,-38]],[[2917,825],[20,10],[47,245],[-216,81],[-269,-5],[-310,41],[-244,70],[-60,52],[-46,128],[-58,55],[3,78],[-173,220],[-226,121],[-139,134],[-162,73],[-388,32],[-306,-28],[-111,-21],[-279,-123]],[[2353,1178],[-164,19],[-257,78],[-47,44],[-48,130],[-56,53],[3,78],[-173,220],[-226,121],[-139,134],[-164,73],[-386,32],[-309,-29],[-108,-20],[-279,-123]],[[2353,1178],[146,-22],[96,-9],[6,1],[66,9],[32,6],[6,1]],[[2705,1164],[-110,-17],[-242,31]],[[2917,825],[20,10],[49,244],[-281,85]],[[4096,3000],[-3,2],[-59,29],[-85,-8],[-126,-36],[-47,10],[-78,36],[-43,10],[-43,-13],[-65,-55],[-40,-13],[25,88],[-33,65],[-49,56],[-25,53],[10,31],[44,98],[17,21],[40,-5],[70,-19],[40,-3],[134,15],[67,20],[47,35],[43,42],[66,43],[67,32],[26,3],[0,-537]],[[4096,3000],[-3,2],[-59,29],[-85,-8],[-126,-36],[-47,10],[-78,36],[-43,10],[-43,-13],[-65,-55],[-40,-13],[25,88],[-33,65],[-49,56],[-25,53],[10,31],[44,98],[17,21],[40,-5],[70,-19],[40,-3],[134,15],[67,20],[47,35],[43,42],[66,43],[67,32],[26,3]],[[2879,592],[-3,-2]],[[2834,793],[-60,-23]],[[2883,805],[-30,-4]],[[2848,690],[-61,-6]],[[2631,672],[1,-3]],[[2632,669],[-1,3]],[[2634,663],[1,-3]],[[2637,653],[-2,7]],[[2636,655],[1,-3]],[[2691,557],[5,2]],[[2765,819],[0,13]],[[2893,806],[0,-1]],[[2762,817],[-8,-3]],[[2837,852],[-20,-8]],[[2833,850],[16,6],[43,38]],[[2709,791],[39,19]],[[2914,869],[-3,22]],[[2599,703],[-6,-1]],[[2970,815],[11,1]],[[3168,1007],[2,2],[1,3],[-2,-2],[-1,-3]],[[2919,628],[3,3]],[[2767,506],[-8,0]],[[2644,724],[-8,-5]],[[2651,727],[-7,-3]],[[2651,727],[16,5]],[[3221,927],[-132,-48]],[[3775,941],[-95,10]],[[2995,838],[25,36]],[[2777,506],[-3,0]],[[2786,505],[2,0]],[[2930,638],[8,1]],[[2974,1014],[4,3]],[[3070,1107],[9,-2]],[[2819,531],[-29,-24]],[[2876,590],[-49,-58]],[[2921,631],[-42,-39]],[[2949,640],[-14,0]],[[2997,646],[-16,-2]],[[3854,1369],[2,0]],[[2803,684],[20,2]],[[2628,745],[-7,-24]],[[2683,779],[-45,-19]],[[2759,506],[-31,6]],[[2621,721],[0,-10]],[[2621,712],[1,14]],[[1981,446],[26,117]],[[2031,1282],[124,206],[90,87]],[[2904,808],[-2,-1]],[[2919,809],[-10,-1]],[[2774,506],[-7,0]],[[3136,1041],[32,-32]],[[3408,1252],[2,2]],[[3449,1286],[4,2]],[[3060,879],[-3,-11]],[[3057,868],[3,11]],[[2939,810],[27,4]],[[3056,867]],[[2661,607],[-34,-12]],[[2694,635],[-32,-27]],[[2787,513]],[[3780,943],[-5,-2]],[[2884,1136],[1,1]],[[2896,1140],[21,6]],[[3751,1292],[-11,58]],[[3757,1259],[16,-169]],[[2765,832],[3,28]],[[2788,934],[-20,-70]],[[2795,953],[-5,-15]],[[2795,953],[9,24]],[[2805,978],[22,54]],[[2816,1009],[-11,-29]],[[2826,1032],[37,80]],[[2864,1123],[9,11]],[[3414,1257],[19,16]],[[3478,1302],[57,17]],[[2662,608],[32,27]],[[2348,636],[9,76]],[[2627,594],[35,14]],[[2662,608],[-1,-1]],[[2694,635],[2,1]],[[2719,661],[-1,-1]],[[2978,1017],[-4,-1]],[[3358,1206],[-10,-8]],[[2966,814],[4,1]],[[2271,420],[113,17],[52,-26],[121,45]],[[2708,792],[-25,-13]],[[2934,810],[5,0]],[[3170,1008],[42,-37]],[[3212,972],[-42,37]],[[3213,970],[1,0]],[[3214,970],[0,1]],[[3251,938],[-32,28]],[[3219,965],[28,-27]],[[2837,794],[4,2]],[[2899,807],[4,0]],[[2915,1144],[2,4]],[[3135,967],[33,40]],[[3206,1067],[-35,-55]],[[3348,1198],[-69,-63]],[[3408,1252],[-50,-46]],[[2593,702],[-91,-42]],[[2608,707],[-9,-4]],[[3773,1090],[3,-47]],[[2665,540],[26,17]],[[3891,1165],[-51,-99]],[[3070,1500],[74,67]],[[3143,1567],[-73,-66]],[[3149,1572],[16,15]],[[3165,1587],[-16,-14]],[[2786,506],[-9,0]],[[2948,821],[3,-6]],[[269,1014],[19,0]],[[1096,762],[-1,1]],[[1196,653],[-2,1]],[[1994,614]],[[3524,1577],[1,-1]],[[3525,1577],[-1,0]],[[3578,1570],[126,-5]],[[3704,1566],[-126,4]],[[3813,1576],[-1,0]],[[3812,1576],[26,1]],[[3838,1577],[-2,0]],[[3913,1593],[-2,-1]],[[3911,1592],[2,0]],[[4032,1647],[-21,-12]],[[4011,1635],[22,12]],[[4096,1692],[-11,-6]],[[4085,1686],[11,6]],[[3244,935],[-23,-8]],[[3244,935],[8,1]],[[3247,938],[-3,-3]],[[3251,938],[-3,-2]],[[3251,936],[0,2]],[[3252,937],[-1,1]],[[3338,950],[-33,-6]],[[3680,951],[-252,5]],[[2861,690],[18,2]],[[2879,692]],[[2879,692],[25,2]],[[3053,852],[-13,-123],[-34,-65]],[[3168,1009],[1,-1]],[[3170,1010],[-1,0]],[[3079,1104],[18,-23]],[[3099,1079],[-17,22]],[[3136,1042],[-36,35]],[[1072,617],[-25,-14]],[[1090,601],[10,-28],[86,-11]],[[1355,455],[66,-23]],[[1677,456]],[[2714,794],[-6,-2]],[[2762,816],[10,7]],[[2069,600],[88,-16],[11,-1],[180,52]],[[2348,636],[-179,-53],[-87,15]],[[2348,635],[36,-198]],[[2914,869],[-16,-33]],[[3169,1010],[-33,32]],[[2713,656],[-19,-21]],[[2079,613],[44,80],[14,253]],[[2904,808],[0,-1]],[[2773,823],[-1,0]],[[2784,829],[-1,0]],[[2795,835],[-1,-1]],[[2892,998],[1,3]],[[2907,901],[-4,7]],[[2987,903],[-2,-1]],[[2718,660],[-5,-4]],[[2973,902],[-14,5]],[[2961,906],[12,-5]],[[3090,913],[-103,-10]],[[3002,902],[21,-1],[65,10]],[[2609,1068],[-10,-179]],[[2600,890],[14,38],[-5,140]],[[2609,1070],[2,56],[-2,-56]],[[2767,860],[-2,-18]],[[2765,842],[-1,-13]],[[2768,864],[-1,-4]],[[2768,860],[27,93]],[[2790,938],[-2,-4]],[[2805,980],[-10,-27]],[[2804,977],[1,1]],[[2826,1032],[-10,-23]],[[2827,1032],[36,74]],[[2863,1112],[1,11]],[[2873,1134],[11,2]],[[2885,1137],[11,3]],[[2621,712],[-1,-1]],[[2620,711],[-9,-3]],[[2611,707],[9,4]],[[2620,711],[12,6]],[[2728,512],[-6,4]],[[3089,879],[-21,-8]],[[2861,690],[-1,0]],[[2631,669],[2,-6]],[[2904,694],[11,1]],[[2952,698],[17,2]],[[3006,664],[35,65],[12,123]],[[2440,764],[34,21]],[[2504,659],[1,2]],[[2580,744],[-21,109]],[[2562,856],[30,13]],[[2592,869],[-29,-12]],[[2582,510],[12,-19]],[[2653,621],[3,-6]],[[2657,615],[-4,6]],[[2661,1147],[8,71]],[[2661,608],[1,-1]],[[2662,607],[-1,1]],[[2677,583],[7,-9]],[[2678,582],[0,1]],[[2695,560],[2,-1]],[[2704,551],[-8,9]],[[2703,551],[25,-40]],[[2712,531],[-5,13]],[[2728,964],[61,-28]],[[2733,1151],[37,-61],[53,42]],[[2762,804],[3,15]],[[2784,773],[0,1]],[[2798,684],[4,0]],[[2827,532],[-8,-1]],[[2906,899],[2,1]],[[2931,1150],[-24,-7]],[[2917,1146],[14,4]],[[2930,623],[0,-1]],[[2935,640],[-5,-1]],[[2932,1150],[-1,0]],[[2950,819],[1,-7]],[[2955,812]],[[2955,812],[-1,1],[-4,6]],[[2951,815],[2,-3]],[[2953,812],[1,0]],[[2951,812],[2,0]],[[2953,812],[2,0]],[[2955,812],[1,0],[6,1]],[[2966,985],[1,0]],[[2968,989],[-1,0]],[[2970,1001],[1,0]],[[2981,1064],[-4,-8],[1,-10]],[[2981,644],[-3,-1]],[[2979,1054],[4,12]],[[2979,643],[2,0]],[[2994,1084],[-11,-18]],[[3002,650],[-5,-4]],[[2997,645],[6,5],[3,14]],[[3006,664],[-2,-8]],[[3015,1015],[10,-5]],[[3031,1008],[-6,3]],[[3117,938],[-85,69]],[[3041,1076],[1,-1]],[[3044,1079],[-1,0]],[[3044,1093],[2,-1],[1,-1]],[[3047,1091],[1,0]],[[3055,1098],[-4,-5]],[[3051,1093],[-4,-5],[-3,-5]],[[3049,1100],[-2,-9]],[[3047,1091],[-1,-3],[-2,-4]],[[3049,1092],[2,1]],[[3051,1093],[5,4]],[[3054,856],[-1,-4]],[[3053,852],[2,3],[2,12]],[[3057,867],[0,1]],[[3056,867],[1,0]],[[3057,867],[3,1],[9,4]],[[3059,1161],[74,191]],[[3079,1105],[0,-1]],[[3082,1101],[-3,5]],[[3097,1081],[2,-3]],[[3100,1077],[-1,2]],[[3187,1503],[6,58]],[[3794,1088],[46,-22]],[[2696,636],[18,19]],[[3058,1453],[2,19]],[[2891,930],[0,1]],[[2906,901],[-6,12]],[[2978,1017],[15,1]],[[3057,868],[-3,-12]],[[2512,664],[96,42]],[[2841,796],[9,4]],[[2613,480],[-10,17]],[[2892,894],[37,8]],[[2937,904],[-43,-8]],[[2959,907],[-10,1]],[[2918,1157],[-2,-10]],[[2669,1220],[0,92]],[[2949,908],[12,-2]],[[2937,904],[12,4]],[[1408,618]],[[2944,698],[-15,-1]],[[2774,505],[3,0]],[[3004,1118],[-72,32]],[[2935,697],[17,1]],[[2969,701],[-25,-3]],[[2860,690],[-12,0]],[[2483,658],[22,3]],[[2817,844],[16,6]],[[2934,811],[-6,-1]],[[2769,821],[-7,-4]],[[3004,656],[-2,-6]],[[2614,1146],[31,0]],[[2719,661],[36,19]],[[2775,682],[28,2]],[[2823,686],[37,4]],[[2966,814],[-16,-1]],[[3756,1267],[-5,25]],[[3757,1259],[0,7]],[[3776,1043],[4,-100]],[[3689,1349],[10,2]],[[3044,1094],[-40,24]],[[4096,1222],[-25,3]],[[2788,505],[31,25]],[[2820,531],[31,34]],[[2853,566],[23,23]],[[2879,592],[39,35]],[[2923,632],[7,6]],[[2237,1589],[-154,148],[-173,328],[-144,157],[-265,491],[-167,242],[-155,365],[-123,31],[-83,111],[-795,634]],[[2137,946],[-79,269]],[[2621,718],[1,8]],[[4071,1225],[-180,-60]],[[2556,1789],[-14,-148],[-102,-9],[-112,-59]],[[3171,1675],[-92,42],[-434,88]],[[2071,602],[-11,0]],[[3787,1360],[67,9]],[[3856,1369],[56,-22],[85,15],[99,50]],[[2599,889],[-7,-21]],[[2592,869],[8,21]],[[2656,615],[5,-7]],[[2661,608],[-4,7]],[[2662,607],[15,-24]],[[2678,583],[-16,24]],[[2696,560],[-18,22]],[[2684,574],[11,-14]],[[2697,559],[6,-8]],[[2707,544],[-3,7]],[[334,387],[-334,-36]],[[1032,595],[-275,-199],[-111,-31],[-181,-98],[-71,110],[-42,8]],[[2063,1238],[210,-41]],[[2145,393],[31,75],[6,115]],[[2274,1197],[340,-51],[-3,-20]],[[2357,712],[51,21]],[[2409,733],[31,31]],[[2508,816],[4,9],[46,30]],[[2512,825],[47,29]],[[2559,854],[3,2]],[[2660,1459],[-112,134],[-6,48]],[[2563,857],[-5,-2]],[[2559,853],[0,1]],[[2559,854],[-1,1]],[[2609,1070],[0,-2]],[[2609,1068],[0,2]],[[2611,983],[43,-2]],[[2654,981],[74,-17]],[[3192,1583],[-6,47]],[[3189,1610],[3,-27]],[[3193,1561],[-1,22]],[[3212,971],[1,-1]],[[3214,971],[-2,1]],[[3215,1777],[91,478],[52,93]],[[3263,1659],[227,-5],[3,-74]],[[3493,1580],[43,-161],[53,-88]],[[3775,1097],[19,-9]],[[2622,726],[59,52]],[[2765,769]],[[2938,639],[11,1]],[[2951,640],[28,3]],[[2990,644],[7,1]],[[3014,1013],[1,2]],[[3055,1098],[-6,-4]],[[3740,1350],[47,10]],[[2424,649],[16,2]],[[2482,658],[-1,0]],[[3056,1097],[14,10]],[[2945,829],[3,-6]],[[1679,456],[14,-12]],[[1719,423],[15,-7]],[[2767,506],[7,-1]],[[2790,507],[-4,-1]],[[3012,1015],[4,3]],[[3047,1092],[-3,-9]],[[3046,1086],[2,8]],[[3047,1094],[-1,-2]],[[3049,1102],[-2,-8]],[[3048,1094],[1,8]],[[3049,1102],[10,59]],[[3088,911],[-28,-32]],[[2918,627],[1,1]],[[2891,931],[1,67]],[[2893,1009],[6,46]],[[2900,1058],[-2,50]],[[2762,764],[-12,-4]],[[2774,770],[-10,-5]],[[2980,901],[-7,1]],[[2973,901],[7,-1]],[[352,385],[-18,2]],[[1047,603],[-15,-8]],[[1186,562],[169,-107]],[[1421,432],[101,-24],[155,48]],[[1693,444],[26,-21]],[[1734,416],[77,-34],[161,5]],[[1973,387],[87,-7],[211,40]],[[3060,879],[28,32]],[[2629,748],[-1,-3]],[[2695,750],[1,0]],[[2697,752],[-1,-1]],[[2714,760],[3,0]],[[2728,760],[3,0]],[[2741,759],[3,0]],[[2764,763],[10,5]],[[2638,760],[-58,-16]],[[2580,744],[57,14]],[[2774,681],[0,2]],[[2929,697],[-15,-2]],[[2914,695],[-53,-5]],[[2941,902],[1,-19]],[[2943,874],[0,-28]],[[2958,948],[5,15]],[[2963,963],[11,51]],[[2974,1016],[-11,-53]],[[2978,1052],[-4,-35]],[[2981,816],[-1,7]],[[2759,506],[8,0]],[[2777,505],[9,0]],[[2819,530],[1,1]],[[2841,796],[-4,-2]],[[2853,801],[-3,-1]],[[2887,806],[-4,-1]],[[2902,807],[-3,0]],[[3433,1273],[16,13]],[[2900,913],[-9,17]],[[2626,763],[3,-8]],[[2629,756],[-2,6]],[[2909,1128],[-11,-20]],[[2899,1055],[1,3]],[[2911,891],[-3,8],[-1,1]],[[2907,900],[0,1]],[[2909,1128],[6,16]],[[2916,1147],[-7,-19]],[[2906,899],[1,1]],[[2907,900],[1,0],[0,2],[-3,0],[1,-3]],[[2923,632],[-2,-1]],[[2951,640],[-2,0]],[[2787,508],[0,-1]],[[2027,522],[32,63]],[[2913,643],[1,-1]],[[2931,623],[-1,0]],[[2722,516],[-10,15]],[[2714,655],[5,6]],[[2860,690],[1,0]],[[2983,1066],[11,18]],[[3004,1118],[-7,-22]],[[2906,901],[5,-10]],[[3059,1470],[-23,-109],[-67,-123]],[[2969,1238],[44,58],[24,65],[21,92]],[[3699,1351],[41,-1]],[[3020,874],[27,-9]],[[3222,3171],[-9,-41]],[[3214,3130],[9,41]],[[4096,3621],[-136,-14]],[[3960,3607],[-21,-2],[-4,-1],[-271,-168],[-186,24],[-57,-23]],[[3421,3437],[57,22],[50,-8],[136,-15],[271,168],[4,1],[21,2]],[[3960,3607],[136,17]],[[1968,387],[13,59]],[[2781,827],[-5,-2]],[[2792,833],[-2,-1]],[[2813,842],[-18,-7]],[[2894,896],[-57,-44]],[[2950,813],[-11,-2]],[[2994,838],[1,0]],[[3068,871],[-12,-4]],[[2754,814],[-2,-2]],[[2502,660],[-20,-2]],[[2621,721],[-13,-14]],[[2608,706],[13,12]],[[2772,823],[-3,-2]],[[2638,760],[-10,-15]],[[2669,1312],[-23,110],[14,37]],[[2755,680],[20,2]],[[2949,640],[2,0]],[[2981,643],[5,1]],[[3099,1078],[37,-37]],[[2939,811],[-5,0]],[[2944,698]],[[2945,685]],[[2948,660]],[[2893,1001],[0,8]],[[1074,618],[-2,-1],[2,0]],[[1074,617],[1,-1]],[[1075,617],[-1,1],[0,-1]],[[1074,617],[1,0]],[[1075,616],[0,1]],[[1075,616],[15,-5]],[[1090,611],[0,-10]],[[1097,602],[-7,9]],[[2011,524],[0,-2]],[[2011,522],[16,0]],[[2033,561],[8,-4]],[[2051,1240],[12,-2]],[[2474,785],[34,31]],[[2669,1218],[0,2]],[[3133,1352],[54,151]],[[3190,1654],[73,5]],[[3195,1668],[20,109]],[[3773,1097],[2,0]],[[2850,800],[-9,-4]],[[2899,807],[-12,-1]],[[2930,639],[-7,-7]],[[2450,653],[-26,-4]],[[2440,651],[10,2]],[[3410,1254],[4,3]],[[3453,1288],[25,14]],[[3222,1617],[-15,2]],[[3250,1611],[2,0]],[[3252,1611],[-1,1]],[[3447,1583]],[[3447,1583]],[[2764,829],[-2,-25]],[[2776,825],[-3,-2]],[[2783,829],[-2,-2]],[[2790,832],[-6,-3]],[[2794,834],[-2,-1]],[[2814,843],[-1,-1]],[[2681,778],[2,1]],[[2706,790],[3,1]],[[2750,760],[-6,0]],[[2051,1239],[-35,14],[15,29]],[[2245,1575],[3,3]],[[2915,695],[20,2]],[[3144,1567],[0,1]],[[2696,751],[-34,-20]],[[2667,732],[28,18]],[[2696,750],[5,3]],[[2701,753],[13,7]],[[2744,760],[-8,-1]],[[2736,759],[-35,-6]],[[2701,753],[-4,-1]],[[2717,760],[11,0]],[[2731,760],[5,-1]],[[2736,759],[5,0]],[[2744,759],[19,4]],[[2058,1215],[-7,24]],[[2248,1578],[-11,11]],[[2787,684],[-68,-23]],[[2004,563],[27,-1]],[[2973,901]],[[3060,1491],[2,2]],[[3062,1494],[-2,-2]],[[3145,1569],[-2,-1]],[[3144,1568],[1,1]],[[3173,1595],[-6,-6]],[[3175,1596],[3,3]],[[3186,1631],[9,37]],[[2909,808],[-5,0]],[[2928,810],[-9,-1]],[[2611,708],[-3,-1]],[[2608,706],[3,1]],[[2635,719],[-14,-7]],[[2632,717],[3,2]],[[2636,719],[-1,0]],[[2644,724]],[[2651,727]],[[3060,1472],[20,254]],[[3016,1018]],[[3047,1093],[-3,1]],[[3048,1094],[-1,0]],[[3060,1477],[-1,-7]],[[3213,3130],[-40,-368],[-13,-461],[-42,-204],[-43,-390]],[[3080,1726],[82,579],[12,457],[40,368]],[[2966,814]],[[3091,914],[44,53]],[[3215,1082],[-9,-15]],[[3279,1135],[-55,-45]],[[3525,1576],[53,-6]],[[3578,1570],[-53,7]],[[3812,1576],[-108,-10]],[[3704,1565],[108,11]],[[4085,1686],[-53,-39]],[[4033,1647],[52,39]],[[2892,822]],[[2893,829],[0,-1]],[[2893,808],[0,-2]],[[2505,661],[7,3]],[[2774,768],[63,26]],[[3214,970],[5,-5]],[[3219,966],[-5,4]],[[2645,1146],[88,5]],[[2823,1132],[41,-11]],[[2504,659],[78,-149]],[[3070,1501],[-8,-7]],[[3062,1493],[8,7]],[[3143,1568],[0,-1]],[[3149,1573],[-4,-4]],[[3145,1569],[4,3]],[[3167,1589],[-2,-2]],[[3165,1587],[10,9]],[[3207,1619],[-15,-7],[-19,-17]],[[3178,1599],[72,12]],[[3251,1612],[-29,5]],[[3252,1611],[195,-28]],[[3447,1583],[-195,28]],[[3447,1583],[77,-6]],[[3524,1577],[-77,6]],[[3186,1631],[3,-21]],[[2986,644],[4,0]],[[2621,711],[5,-22]],[[2631,672],[-10,40]],[[2628,682],[3,-10]],[[2632,669],[2,-6]],[[2635,660],[-3,9]],[[2635,660],[1,-5]],[[2637,652],[5,-13],[11,-18]],[[2653,621],[-16,32]],[[2917,1148],[52,90]],[[2969,1238],[-51,-81]],[[3421,3437],[-34,-13],[-158,-225],[-7,-28]],[[3223,3171],[6,28],[128,179],[24,35],[6,11],[34,13]],[[907,889],[-94,62],[-129,37],[-684,35]],[[907,889],[147,-79],[2,-2],[10,-11]],[[1066,797],[126,-136]],[[1192,661],[13,-14],[24,-4]],[[1229,643],[119,-23]],[[1348,620],[3,0],[329,-13],[310,8],[79,-15]],[[2082,598],[-91,17],[-311,-8],[-329,13],[-3,0]],[[1348,620],[-84,5],[-35,18]],[[1229,643],[-37,18]],[[1192,661],[-15,8],[-111,128]],[[1066,797],[-10,11],[-2,2],[-147,79]],[[2481,658],[-31,-5]],[[2450,653],[33,5]],[[2837,794],[-3,-1]],[[2748,810],[14,6]],[[3079,1106],[-24,-8]],[[2949,908],[-12,-4]],[[2985,902],[-5,-1]],[[2981,901],[21,1]],[[2763,763],[1,0]],[[3044,1083],[-28,-65],[30,68]],[[2728,511],[31,-5]],[[2851,565],[2,1]],[[2876,589],[3,3]],[[2922,631],[1,1]],[[2939,810],[9,13]],[[2958,948],[-17,-46]],[[2942,883],[1,-9]],[[2943,846],[2,-17]],[[2974,1014],[0,3]],[[2764,765],[-2,-1]],[[2000,527],[11,-3]],[[2911,659],[0,-1]],[[2921,633],[2,-2]],[[2903,807],[2,0]],[[2909,807],[20,2]],[[3088,911],[3,3]],[[3224,1090],[-9,-8]],[[3836,1577],[-23,-1]],[[3911,1592],[-73,-15]],[[3838,1577],[73,15]],[[4011,1635],[-98,-42]],[[3913,1592],[98,43]],[[2752,812],[-38,-18]],[[2929,902],[8,2]],[[2980,900],[1,1]],[[2082,598],[-11,4]],[[2626,689],[2,-7]],[[2978,643],[-27,-3]],[[2683,779],[23,11]],[[3535,1319],[154,30]],[[2893,828],[-1,-6]],[[2892,822],[1,-14]],[[2898,836],[-5,-7]],[[2348,635],[76,14]],[[2424,649],[-76,-13]],[[2993,1018],[19,-3]],[[2787,507],[0,1]],[[2328,1573],[-80,5]],[[2645,1805],[-65,7],[-24,-23]],[[3173,1674],[-2,1]],[[3195,1668],[-21,6]],[[2557,456],[48,18]],[[2603,497],[26,18]],[[2632,517],[33,23]],[[2594,491],[19,-11]],[[2980,823],[14,15]],[[3075,1707],[-15,-230]],[[2905,807],[4,0]],[[3252,936],[2,1]],[[3254,937],[-2,0]],[[3305,944],[-51,-7]],[[3428,956],[-90,-6]],[[2603,497],[-9,-6]],[[2929,809],[5,1]],[[0,0],[0,4096],[4096,0],[0,-4096],[-4096,0]],[[3338,942],[0,93],[112,-25],[-24,-59],[-88,-9]],[[3795,0],[44,24],[65,-24],[-109,0]],[[3656,1402],[95,-32],[54,98],[12,-38],[30,-6],[-69,-74],[-12,-55],[-38,-8],[-72,115]],[[3158,1634],[44,140],[34,8],[32,-95],[-11,-62],[-99,9]],[[3224,1034],[22,-4],[36,50],[29,-21],[-16,-29],[19,-15],[-25,-18],[27,-11],[-34,-12],[28,-37],[-61,-23],[7,46],[-32,74]],[[1937,1200],[11,46],[94,40],[23,-55],[-42,-94],[-54,-9],[15,47],[-47,25]],[[2473,1753],[33,36],[47,5],[74,82],[25,-2],[-17,-49],[38,-21],[-44,1],[17,-78],[-23,-2],[1,-44],[-68,109],[-69,-51],[-14,14]],[[4096,226],[0,-1],[-11,-2],[11,3]],[[4096,48],[0,-48],[-89,0],[-13,42],[27,16],[-17,-2],[-12,33],[58,70],[17,-31],[9,43],[20,-3],[0,-102],[-53,-5],[1,-17],[40,-4],[12,8]],[[3466,1189],[45,-10],[-5,16],[3,1],[54,-30],[6,-72],[-48,-32],[-55,127]],[[1930,550],[6,24],[117,21],[84,-41],[-16,-78],[-53,41],[-24,-50],[-57,-32],[-57,115]],[[1601,1026],[64,23],[87,-19],[-3,-65],[-100,-9],[-48,70]],[[2406,313],[38,11],[21,-76],[18,41],[4,-41],[20,23],[7,-47],[-40,-66],[-28,15],[-12,104],[-28,36]],[[2236,1589],[22,29],[64,-20],[6,-26],[58,28],[-18,-36],[-29,4],[-15,-60],[-33,-6],[-55,87]],[[3341,2389],[23,21],[-2,50],[22,-9],[18,36],[35,9],[61,98],[0,-101],[-36,-72],[-83,-56],[-38,24]],[[3397,2704],[39,72],[16,-8],[-11,-38],[33,-13],[-27,-102],[-46,15],[-4,74]],[[3154,1339],[19,-139],[110,-50],[-22,-71],[-125,-28],[-2,-105],[84,25],[3,-51],[-67,-83],[59,-118],[-27,-60],[-65,-45],[-65,-134],[-43,-6],[-70,45],[-48,-39],[-33,-89],[-129,44],[-130,-44],[0,45],[-97,44],[0,134],[-68,126],[4,53],[79,25],[117,106],[95,3],[-19,140],[-111,128],[8,33],[154,190],[55,10],[107,-99],[97,45],[65,178],[60,17],[4,28],[98,-89],[-97,-169]],[[3762,1340],[71,-11],[0,-134],[70,-36],[-32,-166],[-57,-74],[-72,-38],[-71,46],[22,60],[86,59],[22,60],[4,49],[-69,40],[-12,84],[-20,5],[32,90],[26,-34]],[[3430,3308],[-112,-169],[-67,-23],[0,45],[-62,23],[-36,111],[48,-29],[50,29],[0,268],[85,-21],[59,-47],[50,-111],[-15,-76]],[[3095,1427],[72,82],[21,-6],[-40,-138],[17,-28],[-22,-5],[-48,95]],[[3056,743],[87,23],[55,-69],[-52,-34],[-38,8],[-37,15],[-15,57]],[[1676,457],[12,52],[36,14],[-12,45],[50,-13],[32,-100],[-13,-30],[-22,15],[-28,-27],[-55,44]],[[3481,1864],[51,48],[35,139],[21,-6],[-35,-121],[22,-48],[-40,-24],[-54,12]],[[2817,1432],[18,52],[56,65],[-31,-53],[13,-177],[-55,15],[-1,98]],[[2440,723],[38,35],[-5,39],[39,21],[17,-123],[-68,-13],[-21,41]],[[1009,644],[33,61],[94,-61],[81,-13],[-43,-24],[16,-59],[-42,-38],[9,-31],[-57,-4],[-28,127],[-56,2],[-7,40]],[[1277,454],[39,21],[38,-21],[26,50],[30,-4],[28,-166],[-22,-20],[-92,43],[26,16],[-13,45],[-60,36]],[[2585,1264],[64,2],[6,57],[60,-49],[-31,-53],[-42,-8],[-34,8],[-23,43]],[[3734,1150],[22,4],[-19,107],[65,-6],[-28,-165],[-37,24],[-3,36]],[[3115,1139],[44,31],[20,-30],[150,89],[-203,-153],[-11,63]]]}