{"objects":{"water":{"type":"GeometryCollection","geometries":[{"type":"Polygon","properties":{"kind":"lake","name":"Sarygamysh K\u00f6li","area":6897347072,"sort_rank":200,"alkaline":true,"source":"naturalearthdata.com","min_zoom":0.0,"id":1309},"arcs":[[89]]},{"type":"Polygon","properties":{"kind":"lake","name":"Aral Sea","area":37397991424,"sort_rank":200,"alkaline":true,"source":"naturalearthdata.com","min_zoom":0.0,"id":1296},"arcs":[[90],[91],[92]]},{"type":"Polygon","properties":{"kind":"lake","name":"Aydar Ko\u0091l","area":3803178496,"sort_rank":200,"alkaline":true,"source":"naturalearthdata.com","min_zoom":0.0,"id":1328},"arcs":[[93]]},{"type":"MultiPolygon","properties":{"sort_rank":200,"source":"naturalearthdata.com","min_zoom":0.0,"kind":"lake","area":5167382657},"arcs":[[[94]]]},{"type":"Point","properties":{"label_placement":true,"kind":"lake","name":"Aral Sea","area":37397991424,"sort_rank":200,"alkaline":true,"source":"naturalearthdata.com","min_zoom":0.0,"id":1296},"coordinates":[1265,2322]},{"type":"Point","properties":{"label_placement":true,"kind":"lake","name":"Sarygamysh K\u00f6li","area":6897347072,"sort_rank":200,"alkaline":true,"source":"naturalearthdata.com","min_zoom":0.0,"id":1309},"coordinates":[409,495]},{"type":"LineString","properties":{"source":"naturalearthdata.com","kind":"lake","sort_rank":367,"boundary":true,"min_zoom":0.0,"id":632},"arcs":[95]},{"type":"MultiLineString","properties":{"source":"naturalearthdata.com","kind":"lake","sort_rank":367,"alkaline":true,"boundary":true,"min_zoom":0.0,"id":1296},"arcs":[[96],[97],[98]]},{"type":"LineString","properties":{"source":"naturalearthdata.com","kind":"lake","sort_rank":367,"alkaline":true,"boundary":true,"min_zoom":0.0,"id":1309},"arcs":[99]},{"type":"LineString","properties":{"source":"naturalearthdata.com","kind":"lake","sort_rank":367,"alkaline":true,"boundary":true,"min_zoom":0.0,"id":1328},"arcs":[100]}]},"buildings":{"type":"GeometryCollection","geometries":[]},"places":{"type":"GeometryCollection","geometries":[{"type":"Point","properties":{"name:ka":"\u10e3\u10d6\u10d1\u10d4\u10d9\u10d4\u10d7\u10d8","name:ko":"\uc6b0\uc988\ubca0\ud0a4\uc2a4\ud0c4","name:cv":"\u04f2\u0441\u043f\u0435\u043a\u0441\u0442\u0430\u043d","name:km":"\u17a2\u17ca\u17bc\u17a0\u17d2\u179f\u1794\u17c1\u1782\u17b8\u179f\u17d2\u178f\u1784\u17cb","name:kl":"Uzbekistani","name:cs":"Uzbekist\u00e1n","name:ki":"Uzibekistani","name:kw":"Pow Ousbek","name:kv":"\u0423\u0437\u0431\u0435\u043a\u0438\u0441\u0442\u0430\u043d","name:ku":"\u00dbzb\u00eakistan","name:ti":"\u12e9\u12dd\u1260\u12aa\u1235\u1273\u1295","name:ks":"\u0627\u064f\u0632\u0628\u0650\u06a9\u0650\u0633\u062a\u0627\u0646","name:to":"\u02bbUsipekit\u0113ni","name:tl":"Uzbekistan","name:ce":"\u0423\u0437\u0431\u0435\u043a\u0438\u0441\u0442\u0430\u043d","name:ta":"\u0b89\u0bb8\u0bcd\u0baa\u0bc6\u0b95\u0bbf\u0bb8\u0bcd\u0ba4\u0bbe\u0ba9\u0bcd","name:tg":"\u04ee\u0437\u0431\u0435\u043a\u0438\u0441\u0442\u043e\u043d","name:ca":"Uzbekistan","name:te":"\u0c09\u0c1c\u0c4d\u0c2c\u0c46\u0c15\u0c3f\u0c38\u0c4d\u0c24\u0c3e\u0c28\u0c4d","name:cy":"Uzbekistan","name:hr":"Uzbekistan","name:da":"Usbekistan","name:de":"Usbekistan","name:dz":"\u0f68\u0f74\u0f66\u0f0b\u0f56\u0f7a\u0f42\u0f0b\u0f42\u0f72\u0f0b\u0f66\u0f4f\u0f71\u0f53","source":"openstreetmap.org","name:kn":"\u0c89\u0c9c\u0ccd\u0cac\u0cc7\u0c95\u0cbf\u0cb8\u0ccd\u0ca5\u0cbe\u0ca8\u0ccd","name:dv":"\u0787\u07aa\u0792\u07b0\u0784\u07ac\u0786\u07a8\u0790\u07b0\u078c\u07a7\u0782\u07b0","name:lv":"Uzbekist\u0101na","name:lt":"Uzbekija","name:uz":"O\u2018zbekiston","name:kk":"\u04e8\u0437\u0431\u0435\u043a\u0441\u0442\u0430\u043d","name:ur":"\u0627\u0632\u0628\u06a9\u0633\u062a\u0627\u0646","name:lb":"Usbekistan","name:la":"Uzbecia","name:lg":"Wuzibekisitaani","name:uk":"\u0423\u0437\u0431\u0435\u043a\u0438\u0441\u0442\u0430\u043d","name:ug":"\u0626\u06c6\u0632\u0628\u06d0\u0643\u0649\u0633\u062a\u0627\u0646","name:li":"Oesbekistan","name:ln":"Uzib\u025bkisit\u00e1","name:lo":"\u0ead\u0eb8\u0e94\u0ec0\u0e9a\u0e81\u0eb4\u0eaa\u0eb0\u0e96\u0eb2\u0e99","name:el":"\u039f\u03c5\u03b6\u03bc\u03c0\u03b5\u03ba\u03b9\u03c3\u03c4\u03ac\u03bd","name:eo":"Uzbekujo","name:en":"Uzbekistan","name":"O'zbekiston","name:tk":"\u00d6zbegistan","name:ee":"Uzbekistan nutome","alt_name:uz":"\u040e\u0437\u0431\u0435\u043a\u0438\u0441\u0442\u043e\u043d","name:th":"\u0e1b\u0e23\u0e30\u0e40\u0e17\u0e28\u0e2d\u0e38\u0e0b\u0e40\u0e1a\u0e01\u0e34\u0e2a\u0e16\u0e32\u0e19","name:eu":"Uzbekistan","name:et":"Usbekistan","name:es":"Uzbekist\u00e1n","name:ia":"Uzbekistan","name:rm":"Usbekistan","name:rn":"Uzubekisitani","name:az":"\u00d6zb\u0259kistan","name:ie":"Uzbekistan","name:id":"Uzbekistan","name:ar":"\u0623\u0648\u0632\u0628\u0643\u0633\u062a\u0627\u0646","name:io":"Uzbekistan","name:ak":"Uzb\u025bkistan","name:am":"\u12e9\u12dd\u1260\u12aa\u1235\u1273\u1295","name:it":"Uzbekistan","name:an":"Uzbekist\u00e1n","name:ru":"\u0423\u0437\u0431\u0435\u043a\u0438\u0441\u0442\u0430\u043d","name:rw":"Uzubekisitani","name:af":"Oesbekistan","name:zu":"i-Uzbekistan","name:ky":"\u04e8\u0437\u0431\u0435\u043a\u0441\u0442\u0430\u043d","name:zh-yue":"\u6708\u5373\u5225","name:zh":"\u4e4c\u5179\u522b\u514b\u65af\u5766","name:so":"Uusbakistaan","name:sn":"Uzbekistan","name:sl":"Uzbekistan","name:sk":"Uzbekistan","name:ja":"\u30a6\u30ba\u30d9\u30ad\u30b9\u30bf\u30f3","name:si":"\u0d8b\u0dc3\u0dca\u0db6\u0dd9\u0d9a\u0dd2\u0dc3\u0dca\u0dae\u0dcf\u0db1\u0dba","name:sh":"Uzbekistan","name:sg":"Uzbekist\u00e4an","name:se":"Usbekistan","name:sa":"\u0909\u091c\u092c\u0947\u0915\u093f\u0938\u094d\u0925\u093e\u0928","name:bs":"Uzbekistan","name:bm":"Uzebekisitani","name:bn":"\u0989\u099c\u09cd\u09ac\u09c7\u0995\u09bf\u09b8\u09cd\u09a5\u09be\u09a8","name:bo":"\u0f68\u0f74\u0f5b\u0f0b\u0f56\u0f7a\u0f0b\u0f40\u0f72\u0f66\u0f9f\u0f71\u0f53\u0f0d","name:br":"Ouzbekistan","name:sw":"Uzibekistani","name:be":"\u0423\u0437\u0431\u0435\u043a\u0456\u0441\u0442\u0430\u043d","name:su":"Uzb\u00e9kistan","name:bg":"\u0423\u0437\u0431\u0435\u043a\u0438\u0441\u0442\u0430\u043d","name:ss":"IZubekhi","name:ba":"\u04ae\u0437\u0431\u04d9\u043a\u0441\u0442\u0430\u043d","name:sq":"Uzbekistani","name:jv":"Uzbekistan","name:pt":"Uzbequist\u00e3o","name:ps":"\u0627\u0648\u0632\u0628\u06a9\u0633\u062a\u0627\u0646","name:oc":"Ozbequistan","min_zoom":2.0,"name:ro":"Uzbekistan","name:zh-min-nan":"Uzbekistan","name:os":"\u0423\u0437\u0431\u0435\u043a\u0438\u0441\u0442\u0430\u043d","name:or":"\u0b09\u0b1c\u0b2c\u0b47\u0b15\u0b3f\u0b38\u0b4d\u0b25\u0b3e\u0b28\u0b4d","name:pl":"Uzbekistan","name:sr":"\u0423\u0437\u0431\u0435\u043a\u0438\u0441\u0442\u0430\u043d","name:pa":"\u0a09\u0a1c\u0a3c\u0a2c\u0a47\u0a15\u0a3f\u0a38\u0a24\u0a3e\u0a28","name:tr":"\u00d6zbekistan","name:hi":"\u0909\u091c\u092c\u0947\u0915\u093f\u0938\u094d\u0924\u093e\u0928","name:sv":"Uzbekistan","name:he":"\u05d0\u05d5\u05d6\u05d1\u05e7\u05d9\u05e1\u05d8\u05df","name:ha":"Uzubekistan","name:hy":"\u0548\u0582\u0566\u0562\u0565\u056f\u057d\u057f\u0561\u0576","name:ht":"Ouzbekistan","name:hu":"\u00dczbegiszt\u00e1n","name:qu":"Usbiksuyu","population":29735700,"kind":"country","name:is":"\u00dasbekistan","name:yi":"\u05d0\u05d5\u05d6\u05d1\u05e2\u05e7\u05d9\u05e1\u05d8\u05d0\u05df","name:yo":"Or\u00edl\u1eb9\u0301\u00e8de N\u1e63ib\u1eb9kisitani","name:mt":"U\u017cbekistan","alt_name:eo":"Uzbekistano;Uzbekio","name:ms":"Uzbekistan","name:mr":"\u0909\u091d\u092c\u0947\u0915\u093f\u0938\u094d\u0924\u093e\u0928","name:my":"\u1025\u1018\u1000\u103a\u1000\u1005\u1039\u1005\u1010\u1014\u103a","official_name":"O\u2018zbekiston Respublikasi","int_name":"Uzbekistan","name:mg":"Ozbekistan","name:ml":"\u0d09\u0d38\u0d4d\u0d2c\u0d46\u0d15\u0d4d\u0d15\u0d3f\u0d38\u0d4d\u0d25\u0d3e\u0d7b","name:vi":"Uzbekistan","name:mn":"\u0423\u0437\u0431\u0435\u043a\u0438\u0441\u0442\u0430\u043d","id":424317428,"name:mk":"\u0423\u0437\u0431\u0435\u043a\u0438\u0441\u0442\u0430\u043d","name:vo":"Lusbek\u00e4n","name:fa":"\u0627\u0632\u0628\u06a9\u0633\u062a\u0627\u0646","name:ff":"Usbekistaan","name:fi":"Uzbekistan","name:fo":"Usbekistan","alt_name:vi":"Ozbekistan","name:fr":"Ouzb\u00e9kistan","name:fy":"Oezbekistan","name:nl":"Oezbekistan","name:nn":"Usbekistan","name:no":"Usbekistan","name:na":"Uzbekistan","name:ne":"\u0909\u091c\u094d\u092c\u0947\u0915\u093f\u0938\u094d\u0924\u093e\u0928","name:wo":"Usbekistaan","name:nv":"\u00d3zbe\u02bc Bik\u00e9yah","name:ga":"An \u00daisb\u00e9iceast\u00e1in","name:gd":"Usbagast\u00e0n","name:gl":"Uzbekist\u00e1n","name:gv":"Yn Oosbeckistaan","name:gu":"\u0a89\u0a9d\u0acd\u0aac\u0ac7\u0a95\u0abf\u0ab8\u0acd\u0aa4\u0abe\u0aa8","name:tt":"\u04ae\u0437\u0431\u04d9\u043a\u0441\u0442\u0430\u043d"},"coordinates":[2805,177]},{"type":"Point","properties":{"name:kg":"Kazakhstan","name:ka":"\u10e7\u10d0\u10d6\u10d0\u10ee\u10d4\u10d7\u10d8","name:ko":"\uce74\uc790\ud750\uc2a4\ud0c4","name:kn":"\u0c95\u0c9d\u0cbe\u0c95\u0cbf\u0cb8\u0ccd\u0ca5\u0cbe\u0ca8\u0ccd","name:cu":"\u041a\u0430\ua641\u0430\u0445\u0441\u0442\u0430\u043d\u044a","name:kl":"Kasakhstani","name:cs":"Kazachst\u00e1n","name:ki":"Kazakistani","name:kw":"Pow Kazagh","name:tk":"Gazagystan","name:ku":"Qazaxistan","name:ks":"\u06a9\u064e\u0632\u0627\u06a9\u0650\u0633\u062a\u0627\u0646","name:to":"Kasakiteni","name:tl":"Kazakhstan","name:ce":"\u041a\u0430\u0437\u0430\u0445\u0438\u0439\u043d \u041f\u0430\u0447\u0445\u044c\u0430\u043b\u043a\u0445","name:ta":"\u0b95\u0bb8\u0b95\u0bb8\u0bcd\u0ba4\u0bbe\u0ba9\u0bcd","name:tg":"\u049a\u0430\u0437\u043e\u049b\u0438\u0441\u0442\u043e\u043d","name:ca":"Kazakhstan","name:te":"\u0c15\u0c1c\u0c3e\u0c16\u0c38\u0c4d\u0c24\u0c3e\u0c28\u0c4d","name:cy":"Kazakstan","name:hr":"Kazahstan","name:da":"Kasakhstan","name:de":"Kasachstan","name:dz":"\u0f40\u0f0b\u0f5b\u0f42\u0f66\u0f0b\u0f66\u0f4f\u0f71\u0f53","source":"openstreetmap.org","name:dv":"\u0786\u07a6\u0792\u07a6\u0786\u07a8\u0790\u07b0\u078c\u07a7\u0782\u07b0","name:km":"\u1780\u17b6\u17a0\u17d2\u179f\u17b6\u1780\u17cb\u179f\u17d2\u178f\u17b6\u1784\u17cb\u17cb","name:lv":"Kazahst\u0101na","name:lt":"Kazachstanas","name:uz":"Qozog\u2019iston","name:kk":"\u049a\u0430\u0437\u0430\u049b\u0441\u0442\u0430\u043d","name:ur":"\u0642\u0632\u0627\u062e\u0633\u062a\u0627\u0646","name:lb":"Kasachstan","name:la":"Casachia","name:lg":"Kazakisitaani","name:ug":"\u0642\u0627\u0632\u0627\u0642\u0649\u0633\u062a\u0627\u0646","name:li":"Kazachstan","name:ln":"Kazakisit\u00e1","name:lo":"\u0e84\u0eb2\u0e8a\u0eb1\u0e94\u0eaa\u0eb0\u0e96\u0eb2\u0e99","name:el":"\u039a\u03b1\u03b6\u03b1\u03ba\u03c3\u03c4\u03ac\u03bd","name:eo":"Kaza\u0125ujo","name:en":"Kazakhstan","name":"\u041a\u0430\u0437\u0430\u0445\u0441\u0442\u0430\u043d","name:ee":"Kazakstan nutome","name:th":"\u0e1b\u0e23\u0e30\u0e40\u0e17\u0e28\u0e04\u0e32\u0e0b\u0e31\u0e04\u0e2a\u0e16\u0e32\u0e19","name:eu":"Kazakhstan","name:et":"Kasahstan","name:es":"Kazajist\u00e1n","name:ia":"Kazakhstan","name:rm":"Kasachstan","name:rn":"Kazakisitani","name:az":"Qazax\u0131stan","name:ie":"Kazakstan","name:id":"Kazakstan","name:ar":"\u0643\u0627\u0632\u0627\u062e\u0633\u062a\u0627\u0646","name:io":"Kazakstan","name:av":"\u0425\u044a\u0430\u0437\u0430\u0445\u044a\u0438\u0441\u0442\u0430\u043d","name:ak":"Kazakstan","name:am":"\u12ab\u12db\u12aa\u1235\u1273\u1295","name:it":"Kazakistan","name:an":"Cazaquist\u00e1n","name:ab":"\u049e\u0430\u0437\u0430\u049f\u0441\u04ad\u0430\u043d","name:af":"Kasakstan","name:zu":"i-Kazakhstan","name:za":"Hahsazgwswhdanj","name:zh":"\u54c8\u8428\u514b\u65af\u5766","name:so":"Kasaakhistaan","name:sn":"Kazakhstan","name:sl":"Kazahstan","name:sk":"Kazachstan","name:ja":"\u30ab\u30b6\u30d5\u30b9\u30bf\u30f3","name:si":"\u0d9a\u0dc3\u0d9a\u0dc3\u0dca\u0dad\u0dcf\u0db1\u0dba","name:sg":"Kazakisit\u00e4an","name:se":"Kasakstan","name:br":"Kazakstan","name:bs":"Kazahstan","name:bm":"Kazakista\u014b","name:bn":"\u0995\u09be\u099c\u09be\u0995\u09b8\u09cd\u09a5\u09be\u09a8","name:bo":"\u0f41\u0f0b\u0f5b\u0f71\u0f42\u0f0b\u0f66\u0f9f\u0f71\u0f53\u0f0d","name:bi":"Kazakhstan","name:sw":"Kazakistani","name:sv":"Kazakstan","name:su":"Kazastan","name:ss":"IKhazakhi","name:ba":"\u04a0\u0430\u0499\u0430\u0493\u0441\u0442\u0430\u043d","name:sq":"Kazakistan","name:jv":"Kazakhstan","name:sa":"\u0915\u091c\u093e\u0915\u0938\u094d\u0925\u093e\u0928","name:pt":"Casaquist\u00e3o","name:ps":"\u0642\u0632\u0627\u0642\u0633\u062a\u0627\u0646","name:oc":"Cazacstan","min_zoom":2.0,"name:ro":"Kazahstan","name:pa":"\u0a15\u0a1c\u0a3c\u0a3e\u0a16\u0a3c\u0a38\u0a24\u0a3e\u0a28","name:os":"\u0425\u044a\u0430\u0437\u0430\u0445\u0441\u0442\u0430\u043d","name:or":"\u0b15\u0b3e\u0b1c\u0b3e\u0b15\u0b3e\u0b38\u0b4d\u0b25\u0b3e\u0b28\u0b4d","name:pl":"Kazachstan","name:tr":"Kazakistan","name:hi":"\u0915\u091c\u093e\u0916\u0938\u094d\u0924\u093e\u0928","name:he":"\u05e7\u05d6\u05d7\u05e1\u05d8\u05df","name:ha":"Kazakistan","name:hy":"\u0542\u0561\u0566\u0561\u056d\u057d\u057f\u0561\u0576","name:ht":"Kazakstan","name:hu":"Kazahszt\u00e1n","name:qu":"Qasaqsuyu","population":15217711,"kind":"country","name:is":"Kasakstan","name:yi":"\u05e7\u05d0\u05d6\u05d0\u05db\u05e1\u05d8\u05d0\u05df","name:yo":"Or\u00edl\u1eb9\u0301\u00e8de Ka\u1e63a\u1e63atani","name:mt":"Ka\u017cakstan","alt_name:eo":"Kaza\u0125stano;Kaza\u0125io","name:ms":"Kazakhstan","name:mr":"\u0915\u091d\u093e\u0915\u0938\u094d\u0924\u093e\u0928","name:my":"\u1000\u102c\u1007\u1000\u103a\u1005\u1010\u1014\u103a","official_name":"Republic of Kazakhstan","int_name":"Kazakhstan","name:mg":"Kazakhstan","name:ml":"\u0d15\u0d38\u0d3e\u0d16\u0d3f\u0d38\u0d4d\u0d25\u0d3e\u0d7b","name:vi":"Kazakhstan","name:mi":"Katat\u0101nga","id":424311521,"name:vo":"Kazakist\u00e4n","name:fa":"\u0642\u0632\u0627\u0642\u0633\u062a\u0627\u0646","name:rw":"Kazakisitani","name:ff":"Kasakstaan","name:fi":"Kazakstan","name:ky":"\u041a\u0430\u0437\u0430\u043a\u0441\u0442\u0430\u043d \u0420\u0435\u0441\u043f\u0443\u0431\u043b\u0438\u043a\u0430\u0441\u044b","name:fo":"Kasakstan","name:fr":"Kazakhstan","name:fy":"Kazachstan","name:nl":"Kazachstan","name:nn":"Kasakhstan","name:no":"Kasakhstan","name:na":"Kadaketan","name:ne":"\u0915\u093e\u091c\u093e\u0915\u0938\u094d\u0925\u093e\u0928","name:wo":"Kasakistaan","name:nv":"K\u02bcazah Bik\u00e9yah","name:ga":"An Chasacst\u00e1in","name:gd":"Casachstan","name:gn":"Kazajist\u00e1n","name:gl":"Kazakhstan","name:gv":"Yn Chassaghstaan","name:gu":"\u0a95\u0a9d\u0abe\u0a95\u0abf\u0ab8\u0acd\u0aa4\u0abe\u0aa8","name:tt":"\u041a\u0430\u0437\u0430\u043a\u044a\u0441\u0442\u0430\u043d"},"coordinates":[3262,3222]},{"type":"Point","properties":{"kind":"region","name:en":"Khorezm Province","name":"Xorazm Viloyati","name:uz":"\u0425\u043e\u0440\u0430\u0437\u043c \u0432\u0438\u043b\u043e\u044f\u0442\u0438","kind_detail":"state","min_zoom":4.0,"name:de":"Provinz Xorazm","source":"openstreetmap.org","name:fr":"Province de Khorezm","name:ru":"\u0425\u043e\u0440\u0435\u0437\u043c\u0441\u043a\u0430\u044f \u043e\u0431\u043b\u0430\u0441\u0442\u044c","name:hu":"Hv\u00e1rezmi vilajet","id":309346341,"population":1200000},"coordinates":[1563,160]},{"type":"Point","properties":{"admin_level":"4","name:pt":"Rep\u00fablica do Caracalpaquist\u00e3o","alt_name:en":"Qoraqalpog`iston;Karakalpakstan;Karakalpakiya;Karakalpakski;Karakalpakskaya Avtonomnaya Sovetskaya Sotsialisticheskaya Respublika;Kara-Kalpakskaya ASSR;Respublika Karakalpakstan;Kara-Kalpak ASSR;Qoraqalpoghiston Respublikasi;Qoraqalpoghiston ASSR","name:ja":"\u30ab\u30e9\u30ab\u30eb\u30d1\u30af\u30b9\u30bf\u30f3\u5171\u548c\u56fd","name:ka":"\uce74\ub77c\uce7c\ud30c\ud06c\uc2a4\ud0c4 \uacf5\ud654\uad6d","name:uz":"Qoraqalpog\u02bbiston Respublikasi","min_zoom":4.0,"name:ru":"\u0420\u0435\u0441\u043f\u0443\u0431\u043b\u0438\u043a\u0430 \u041a\u0430\u0440\u0430\u043a\u0430\u043b\u043f\u0430\u043a\u0441\u0442\u0430\u043d","name:lt":"Karakalpakistano Respublika","id":3897749796,"population":1200000,"kind":"region","name:en":"Republic of Karakalpakstan","name":"Qaraqalpaqstan Respublikasi","kind_detail":"state","name:de":"Republik Karakalpakistan","source":"openstreetmap.org","name:es":"Rep\u00fablica de Karakalpakia"},"coordinates":[500,1441]},{"type":"Point","properties":{"kind":"region","name:en":"Navoiy Province","name":"Navoiy Viloyati","name:uz":"\u041d\u0430\u0432\u043e\u0438\u0439 \u0432\u0438\u043b\u043e\u044f\u0442\u0438","kind_detail":"state","min_zoom":4.0,"name:de":"Provinz Navoiy","source":"openstreetmap.org","name:fr":"Province de Navo\u00ef","name:ru":"\u041d\u0430\u0432\u043e\u0438\u0439\u0441\u043a\u0430\u044f \u043e\u0431\u043b\u0430\u0441\u0442\u044c","name:hu":"Navoiyi vilajet","id":309346339,"population":767500},"coordinates":[2822,526]},{"type":"Point","properties":{"kind":"region","name:en":"Aqt\u00f6be Province","name":"\u0410\u043a\u0442\u044e\u0431\u0438\u043d\u0441\u043a\u0430\u044f \u043e\u0431\u043b\u0430\u0441\u0442\u044c","kind_detail":"state","name:kk":"\u0410\u049b\u0442\u04e9\u0431\u0435 \u043e\u0431\u043b\u044b\u0441\u044b","min_zoom":4.0,"name:de":"Gebiet Aqt\u00f6be","source":"openstreetmap.org","name:fr":"Oblys d'Aktioub\u00e9","name:uk":"\u0410\u043a\u0442\u044e\u0431\u0456\u043d\u0441\u044c\u043a\u0430 \u043e\u0431\u043b\u0430\u0441\u0442\u044c","name:et":"Akt\u00f6be oblast","name:hu":"Akt\u00f6bei ter\u00fclet","id":975900646,"name:es":"Provincia de Aktobe","population":719600},"coordinates":[536,3744]},{"type":"Point","properties":{"kind":"region","name:en":"Kyzylorda Province","name":"\u041a\u044b\u0437\u044b\u043b\u043e\u0440\u0434\u0438\u043d\u0441\u043a\u0430\u044f \u043e\u0431\u043b\u0430\u0441\u0442\u044c","kind_detail":"state","name:kk":"\u049a\u044b\u0437\u044b\u043b\u043e\u0440\u0434\u0430 \u043e\u0431\u043b\u044b\u0441\u044b","name:eo":"Kizilordo","name:de":"Gebiet Qysylorda","source":"openstreetmap.org","min_zoom":4.0,"name:fr":"Oblys de Kyzylorda","name:uk":"\u041a\u0438\u0437\u0438\u043b\u043e\u0440\u0434\u0438\u043d\u0441\u044c\u043a\u0430 \u043e\u0431\u043b\u0430\u0441\u0442\u044c","name:et":"K\u00f5z\u00f5lorda oblast","name:hu":"Kizilordai ter\u00fclet","id":974359207,"population":636900},"coordinates":[2791,2179]},{"type":"Point","properties":{"name:fa":"\u062f\u0627\u0634\u200c\u0627\u063a\u0648\u0632","kind":"region","name":"Da\u015foguz","kind_detail":"state","source":"openstreetmap.org","min_zoom":4.0,"name:ru":"\u0414\u0430\u0448\u043e\u0433\u0443\u0437","name:hu":"Da\u015foguz tartom\u00e1ny","id":677412016},"coordinates":[841,210]},{"type":"Point","properties":{"source":"naturalearthdata.com","kind":"locality","name":"Qyzylorda","population":300000,"region_capital":true,"min_zoom":5.0,"id":6614},"coordinates":[3355,1970]},{"type":"Point","properties":{"source":"naturalearthdata.com","kind":"locality","name":"Nukus","population":230006,"region_capital":true,"min_zoom":5.0,"id":6272},"coordinates":[1225,768]}]},"transit":{"type":"GeometryCollection","geometries":[]},"pois":{"type":"GeometryCollection","geometries":[{"type":"Point","properties":{"kind":"nature_reserve","name:en":"Kaplankyr Nature Reserve","name":"Gapla\u0148gyr goraghanasy","area":29092700000,"name:de":"Kaplankyr-Naturschutzreservat","source":"openstreetmap.org","min_zoom":4.88,"tier":2,"name:ru":"\u041a\u0430\u043f\u043b\u0430\u043d\u043a\u044b\u0440\u0441\u043a\u0438\u0439 \u0437\u0430\u043f\u043e\u0432\u0435\u0434\u043d\u0438\u043a","id":-6313264,"osm_relation":true},"coordinates":[389,117]}]},"boundaries":{"type":"GeometryCollection","geometries":[{"type":"MultiLineString","properties":{"source":"naturalearthdata.com","kind":"country","sort_rank":262,"kind_detail":"2","min_zoom":0.0,"id":323},"arcs":[[0],[1],[2],[3],[4],[5],[6],[7],[8],[9],[10]]},{"type":"MultiLineString","properties":{"source":"naturalearthdata.com","kind":"lease_limit","sort_rank":259,"kind_detail":"2","min_zoom":0.0,"id":437},"arcs":[[11],[12]]},{"type":"MultiLineString","properties":{"source":"naturalearthdata.com","kind":"country","sort_rank":262,"kind_detail":"2","min_zoom":0.0,"id":324},"arcs":[[13],[14],[15],[16],[17],[18],[19],[20],[21],[22],[23],[24],[25],[26],[27],[28],[29],[30],[31],[32],[33],[34],[35],[36],[37],[38],[39],[40],[41],[42],[43],[44],[45]]},{"type":"MultiLineString","properties":{"source":"naturalearthdata.com","kind":"region","sort_rank":256,"kind_detail":"4","min_zoom":5.0,"id":822},"arcs":[[46],[47]]},{"type":"LineString","properties":{"source":"naturalearthdata.com","kind":"region","sort_rank":256,"kind_detail":"4","min_zoom":5.0,"id":824},"arcs":[48]},{"type":"LineString","properties":{"source":"naturalearthdata.com","kind":"region","sort_rank":256,"kind_detail":"4","min_zoom":5.0,"id":825},"arcs":[49]},{"type":"LineString","properties":{"source":"naturalearthdata.com","kind":"region","sort_rank":256,"kind_detail":"4","min_zoom":5.0,"id":826},"arcs":[50]},{"type":"MultiLineString","properties":{"source":"naturalearthdata.com","kind":"region","sort_rank":256,"kind_detail":"4","min_zoom":5.0,"id":827},"arcs":[[51],[52],[53],[54],[55]]},{"type":"LineString","properties":{"source":"naturalearthdata.com","kind":"region","sort_rank":256,"kind_detail":"4","min_zoom":5.0,"id":836},"arcs":[56]},{"type":"LineString","properties":{"source":"naturalearthdata.com","kind":"region","sort_rank":256,"kind_detail":"4","min_zoom":5.0,"id":1457},"arcs":[57]},{"type":"LineString","properties":{"source":"naturalearthdata.com","kind":"region","sort_rank":256,"kind_detail":"4","min_zoom":5.0,"id":1460},"arcs":[58]},{"type":"LineString","properties":{"source":"naturalearthdata.com","kind":"region","sort_rank":256,"kind_detail":"4","min_zoom":5.0,"id":7323},"arcs":[59]},{"type":"MultiLineString","properties":{"source":"naturalearthdata.com","kind":"region","sort_rank":256,"kind_detail":"4","min_zoom":5.0,"id":7303},"arcs":[[60],[61],[62]]},{"type":"MultiLineString","properties":{"source":"naturalearthdata.com","kind":"region","sort_rank":256,"kind_detail":"4","min_zoom":5.0,"id":7322},"arcs":[[63],[64],[65],[66],[67]]},{"type":"MultiLineString","properties":{"source":"naturalearthdata.com","kind":"region","sort_rank":256,"kind_detail":"4","min_zoom":5.0,"id":7315},"arcs":[[68],[69],[70]]},{"type":"MultiLineString","properties":{"source":"naturalearthdata.com","kind":"region","sort_rank":256,"kind_detail":"4","min_zoom":5.0,"id":7316},"arcs":[[71],[72],[73]]},{"type":"LineString","properties":{"source":"naturalearthdata.com","kind":"region","sort_rank":256,"kind_detail":"4","min_zoom":5.0,"id":7317},"arcs":[74]},{"type":"LineString","properties":{"source":"naturalearthdata.com","kind":"region","sort_rank":256,"kind_detail":"4","min_zoom":5.0,"id":7318},"arcs":[75]},{"type":"LineString","properties":{"source":"naturalearthdata.com","kind":"region","sort_rank":256,"kind_detail":"4","min_zoom":5.0,"id":7320},"arcs":[76]},{"type":"MultiLineString","properties":{"source":"naturalearthdata.com","kind":"region","sort_rank":256,"kind_detail":"4","min_zoom":5.0,"id":7321},"arcs":[[77],[78],[79],[80],[81],[82],[83]]},{"type":"MultiLineString","properties":{"source":"naturalearthdata.com","kind":"region","sort_rank":256,"kind_detail":"4","min_zoom":5.0,"id":7325},"arcs":[[84],[85],[86],[87],[88]]}]},"roads":{"type":"GeometryCollection","geometries":[{"type":"LineString","properties":{"source":"naturalearthdata.com","kind":"major_road","sort_rank":379,"kind_detail":"secondary","min_zoom":4.0,"id":15713},"arcs":[101]},{"type":"LineString","properties":{"source":"naturalearthdata.com","kind":"major_road","sort_rank":379,"kind_detail":"secondary","min_zoom":4.0,"id":15727},"arcs":[102]},{"type":"LineString","properties":{"source":"naturalearthdata.com","kind":"major_road","sort_rank":379,"kind_detail":"secondary","min_zoom":3.0,"id":15783},"arcs":[103]},{"type":"LineString","properties":{"source":"naturalearthdata.com","kind":"major_road","sort_rank":379,"kind_detail":"secondary","min_zoom":4.0,"id":15785},"arcs":[104]},{"type":"LineString","properties":{"source":"naturalearthdata.com","kind":"major_road","sort_rank":379,"kind_detail":"secondary","min_zoom":3.0,"id":15799},"arcs":[105]},{"type":"LineString","properties":{"source":"naturalearthdata.com","kind":"major_road","sort_rank":379,"kind_detail":"secondary","min_zoom":4.0,"id":15977},"arcs":[106]},{"type":"LineString","properties":{"source":"naturalearthdata.com","kind":"major_road","sort_rank":379,"kind_detail":"secondary","min_zoom":4.0,"id":15983},"arcs":[107]},{"type":"LineString","properties":{"source":"naturalearthdata.com","kind":"major_road","sort_rank":379,"kind_detail":"secondary","min_zoom":4.0,"id":16093},"arcs":[108]},{"type":"LineString","properties":{"source":"naturalearthdata.com","kind":"major_road","sort_rank":379,"kind_detail":"secondary","min_zoom":4.0,"id":16094},"arcs":[109]},{"type":"LineString","properties":{"source":"naturalearthdata.com","kind":"major_road","sort_rank":379,"kind_detail":"secondary","min_zoom":4.0,"id":16131},"arcs":[110]},{"type":"LineString","properties":{"source":"naturalearthdata.com","kind":"major_road","sort_rank":379,"kind_detail":"secondary","min_zoom":4.0,"id":16443},"arcs":[111]},{"type":"LineString","properties":{"source":"naturalearthdata.com","kind":"major_road","sort_rank":379,"kind_detail":"secondary","min_zoom":3.0,"id":16479},"arcs":[112]},{"type":"LineString","properties":{"source":"naturalearthdata.com","kind":"major_road","sort_rank":379,"kind_detail":"secondary","min_zoom":4.0,"id":16510},"arcs":[113]},{"type":"LineString","properties":{"source":"naturalearthdata.com","kind":"major_road","sort_rank":379,"kind_detail":"secondary","min_zoom":3.0,"id":16520},"arcs":[114]},{"type":"LineString","properties":{"source":"naturalearthdata.com","kind":"major_road","sort_rank":379,"kind_detail":"secondary","min_zoom":4.0,"id":16805},"arcs":[115]},{"type":"LineString","properties":{"source":"naturalearthdata.com","kind":"major_road","sort_rank":379,"kind_detail":"secondary","min_zoom":3.0,"id":16825},"arcs":[116]},{"type":"LineString","properties":{"source":"naturalearthdata.com","kind":"major_road","sort_rank":379,"kind_detail":"secondary","min_zoom":4.0,"id":16897},"arcs":[117]},{"type":"LineString","properties":{"source":"naturalearthdata.com","kind":"major_road","sort_rank":379,"kind_detail":"secondary","min_zoom":4.0,"id":16934},"arcs":[118]},{"type":"LineString","properties":{"source":"naturalearthdata.com","kind":"major_road","sort_rank":379,"kind_detail":"secondary","min_zoom":3.0,"id":16979},"arcs":[119]},{"type":"LineString","properties":{"source":"naturalearthdata.com","kind":"major_road","sort_rank":379,"kind_detail":"secondary","min_zoom":4.0,"id":17040},"arcs":[120]},{"type":"LineString","properties":{"source":"naturalearthdata.com","kind":"major_road","sort_rank":379,"kind_detail":"secondary","min_zoom":3.0,"id":17086},"arcs":[121]},{"type":"LineString","properties":{"source":"naturalearthdata.com","kind":"major_road","sort_rank":379,"kind_detail":"secondary","min_zoom":3.0,"id":17142},"arcs":[122]},{"type":"LineString","properties":{"source":"naturalearthdata.com","kind":"major_road","sort_rank":379,"kind_detail":"secondary","min_zoom":3.0,"id":17302},"arcs":[123]},{"type":"LineString","properties":{"source":"naturalearthdata.com","kind":"major_road","sort_rank":379,"kind_detail":"secondary","min_zoom":3.0,"id":17364},"arcs":[124]},{"type":"LineString","properties":{"source":"naturalearthdata.com","kind":"major_road","sort_rank":379,"kind_detail":"secondary","min_zoom":3.0,"id":17423},"arcs":[125]},{"type":"LineString","properties":{"source":"naturalearthdata.com","kind":"major_road","sort_rank":379,"kind_detail":"secondary","min_zoom":4.0,"id":17430},"arcs":[126]},{"type":"LineString","properties":{"source":"naturalearthdata.com","kind":"major_road","sort_rank":379,"kind_detail":"secondary","min_zoom":3.0,"id":17473},"arcs":[127]},{"type":"LineString","properties":{"source":"naturalearthdata.com","kind":"major_road","sort_rank":379,"kind_detail":"secondary","min_zoom":3.0,"id":17585},"arcs":[128]},{"type":"LineString","properties":{"source":"naturalearthdata.com","kind":"major_road","sort_rank":379,"kind_detail":"secondary","min_zoom":3.0,"id":17719},"arcs":[129]},{"type":"LineString","properties":{"source":"naturalearthdata.com","kind":"major_road","sort_rank":379,"kind_detail":"secondary","min_zoom":3.0,"id":17867},"arcs":[130]},{"type":"LineString","properties":{"source":"naturalearthdata.com","kind":"major_road","kind_detail":"secondary","sort_rank":379,"landuse_kind":"nature_reserve","min_zoom":4.0,"id":17979},"arcs":[131]},{"type":"MultiLineString","properties":{"source":"naturalearthdata.com","kind":"major_road","sort_rank":379,"kind_detail":"secondary","min_zoom":4.0,"id":17979},"arcs":[[132],[133]]},{"type":"LineString","properties":{"source":"naturalearthdata.com","kind":"major_road","sort_rank":379,"kind_detail":"secondary","min_zoom":4.0,"id":17980},"arcs":[134]},{"type":"LineString","properties":{"source":"naturalearthdata.com","kind":"major_road","sort_rank":379,"kind_detail":"secondary","min_zoom":3.0,"id":18037},"arcs":[135]},{"type":"LineString","properties":{"source":"naturalearthdata.com","kind":"major_road","sort_rank":379,"kind_detail":"secondary","min_zoom":3.0,"id":18184},"arcs":[136]},{"type":"LineString","properties":{"source":"naturalearthdata.com","kind":"major_road","sort_rank":379,"kind_detail":"secondary","min_zoom":4.0,"id":18322},"arcs":[137]},{"type":"LineString","properties":{"source":"naturalearthdata.com","kind":"major_road","kind_detail":"secondary","sort_rank":379,"landuse_kind":"nature_reserve","min_zoom":3.0,"id":18323},"arcs":[138]},{"type":"MultiLineString","properties":{"source":"naturalearthdata.com","kind":"major_road","sort_rank":379,"kind_detail":"secondary","min_zoom":3.0,"id":18323},"arcs":[[139],[140]]},{"type":"LineString","properties":{"source":"naturalearthdata.com","kind":"major_road","sort_rank":379,"kind_detail":"secondary","min_zoom":4.0,"id":18333},"arcs":[141]},{"type":"LineString","properties":{"source":"naturalearthdata.com","kind":"major_road","sort_rank":379,"kind_detail":"secondary","min_zoom":4.0,"id":18363},"arcs":[142]},{"type":"LineString","properties":{"source":"naturalearthdata.com","kind":"minor_road","sort_rank":355,"kind_detail":"tertiary","min_zoom":5.0,"id":18577},"arcs":[143]},{"type":"LineString","properties":{"source":"naturalearthdata.com","kind":"minor_road","kind_detail":"tertiary","sort_rank":355,"landuse_kind":"urban_area","min_zoom":5.0,"id":18592},"arcs":[144]},{"type":"MultiLineString","properties":{"source":"naturalearthdata.com","kind":"minor_road","sort_rank":355,"kind_detail":"tertiary","min_zoom":5.0,"id":18592},"arcs":[[145],[146]]},{"type":"LineString","properties":{"source":"naturalearthdata.com","kind":"major_road","sort_rank":379,"kind_detail":"secondary","min_zoom":3.0,"id":18593},"arcs":[147]},{"type":"LineString","properties":{"source":"naturalearthdata.com","kind":"major_road","sort_rank":379,"kind_detail":"secondary","min_zoom":3.0,"id":18634},"arcs":[148]},{"type":"LineString","properties":{"source":"naturalearthdata.com","kind":"major_road","sort_rank":379,"kind_detail":"secondary","min_zoom":3.0,"id":18679},"arcs":[149]},{"type":"LineString","properties":{"source":"naturalearthdata.com","kind":"major_road","sort_rank":379,"kind_detail":"secondary","min_zoom":3.0,"id":18718},"arcs":[150]},{"type":"LineString","properties":{"source":"naturalearthdata.com","kind":"major_road","sort_rank":379,"kind_detail":"secondary","min_zoom":3.0,"id":18719},"arcs":[151]},{"type":"LineString","properties":{"source":"naturalearthdata.com","kind":"major_road","kind_detail":"secondary","sort_rank":379,"landuse_kind":"urban_area","min_zoom":3.0,"id":18866},"arcs":[152]},{"type":"LineString","properties":{"source":"naturalearthdata.com","kind":"major_road","sort_rank":379,"kind_detail":"secondary","min_zoom":3.0,"id":18866},"arcs":[153]},{"type":"LineString","properties":{"source":"naturalearthdata.com","kind":"major_road","kind_detail":"secondary","sort_rank":379,"landuse_kind":"urban_area","min_zoom":3.0,"id":18966},"arcs":[154]},{"type":"LineString","properties":{"source":"naturalearthdata.com","kind":"major_road","sort_rank":379,"kind_detail":"secondary","min_zoom":3.0,"id":18966},"arcs":[155]},{"type":"LineString","properties":{"source":"naturalearthdata.com","kind":"major_road","kind_detail":"secondary","sort_rank":379,"landuse_kind":"urban_area","min_zoom":3.0,"id":19038},"arcs":[156]},{"type":"LineString","properties":{"source":"naturalearthdata.com","kind":"major_road","sort_rank":379,"kind_detail":"secondary","min_zoom":3.0,"id":19038},"arcs":[157]},{"type":"LineString","properties":{"source":"naturalearthdata.com","kind":"minor_road","kind_detail":"tertiary","sort_rank":355,"landuse_kind":"urban_area","min_zoom":5.0,"id":19048},"arcs":[158]},{"type":"LineString","properties":{"source":"naturalearthdata.com","kind":"minor_road","sort_rank":355,"kind_detail":"tertiary","min_zoom":5.0,"id":19048},"arcs":[159]},{"type":"LineString","properties":{"source":"naturalearthdata.com","kind":"major_road","kind_detail":"secondary","sort_rank":379,"landuse_kind":"urban_area","min_zoom":3.0,"id":19049},"arcs":[160]},{"type":"LineString","properties":{"source":"naturalearthdata.com","kind":"major_road","kind_detail":"secondary","sort_rank":379,"landuse_kind":"urban_area","min_zoom":3.0,"id":19139},"arcs":[161]},{"type":"LineString","properties":{"source":"naturalearthdata.com","kind":"major_road","sort_rank":379,"kind_detail":"secondary","min_zoom":3.0,"id":19139},"arcs":[162]},{"type":"LineString","properties":{"source":"naturalearthdata.com","kind":"major_road","sort_rank":379,"kind_detail":"secondary","min_zoom":3.0,"id":19145},"arcs":[163]},{"type":"LineString","properties":{"source":"naturalearthdata.com","kind":"major_road","sort_rank":379,"kind_detail":"secondary","min_zoom":3.0,"id":19151},"arcs":[164]},{"type":"LineString","properties":{"source":"naturalearthdata.com","kind":"major_road","sort_rank":379,"kind_detail":"secondary","min_zoom":3.0,"id":19341},"arcs":[165]},{"type":"LineString","properties":{"source":"naturalearthdata.com","kind":"major_road","sort_rank":379,"kind_detail":"secondary","min_zoom":3.0,"id":19342},"arcs":[166]},{"type":"LineString","properties":{"source":"naturalearthdata.com","kind":"minor_road","sort_rank":355,"kind_detail":"tertiary","min_zoom":5.0,"id":19737},"arcs":[167]},{"type":"LineString","properties":{"source":"naturalearthdata.com","kind":"major_road","sort_rank":379,"kind_detail":"secondary","min_zoom":3.0,"id":19890},"arcs":[168]}]},"earth":{"type":"GeometryCollection","geometries":[{"type":"MultiPolygon","properties":{"sort_rank":10,"source":"naturalearthdata.com","min_zoom":0.0,"kind":"earth","area":5837877659645},"arcs":[[[169]]]}]},"landuse":{"type":"GeometryCollection","geometries":[{"type":"Polygon","properties":{"kind":"nature_reserve","name":"Gapla\u0148gyr goraghanasy","area":29092700160,"sort_rank":23,"source":"openstreetmap.org","min_zoom":4.0,"tier":2,"id":-6313264,"osm_relation":true},"arcs":[[170]]},{"type":"Polygon","properties":{"kind":"nature_reserve","name":"\u0413\u043e\u0441\u0443\u0434\u0430\u0440\u0441\u0442\u0432\u0435\u043d\u043d\u044b\u0439 \u041d\u0438\u0436\u043d\u0435\u0430\u043c\u0443\u0434\u0430\u0440\u044c\u0438\u043d\u0441\u043a\u0438\u0439 \u0431\u0438\u043e\u0440\u0435\u0437\u0435\u0440\u0432\u0430\u0442","area":1131170048,"sort_rank":23,"source":"openstreetmap.org","min_zoom":4.0,"tier":2,"id":493914176},"arcs":[[171]]},{"type":"MultiPolygon","properties":{"source":"naturalearthdata.com","kind":"urban_area","name":"","area":24314250020,"sort_rank":11,"min_zoom":4.0},"arcs":[[[172]],[[173]],[[174]],[[175]]]},{"type":"Polygon","properties":{"kind":"nature_reserve","name":"\u00abSudochye\u00bb Ma'mleketlik ornitologik zakaznigi","area":3730789888,"sort_rank":23,"source":"openstreetmap.org","min_zoom":4.0,"tier":2,"id":498860578,"protect_class":"4"},"arcs":[[176]]}]}},"type":"Topology","transform":{"translate":[56.25,40.9798980696],"scale":[0.002746582,0.0019391116]},"arcs":[[[2103,1290],[-7,3],[-8,3],[-27,32],[-20,25],[-21,24],[-20,24],[-21,24],[-21,25],[-21,25],[-21,24],[-21,25],[-25,30],[-20,22],[-20,22],[-42,46],[-21,35],[-4,12],[-2,27],[-2,12],[-7,14],[-9,11],[-23,15],[-32,22],[-43,29],[-54,36],[-60,41],[-67,44],[-71,48],[-73,49],[-73,49],[-71,48],[-68,46],[-63,42],[-24,16],[-31,22],[-47,31],[-35,24],[-23,15],[-8,5],[-28,19],[-10,4],[-8,1]],[[831,2361],[-30,-8],[-22,-6],[-22,-7],[-22,-6],[-22,-6],[-21,-7],[-21,-6],[-21,-6],[-21,-6],[-45,-14],[-46,-14],[-45,-14],[-46,-14],[-34,-11],[-34,-11],[-34,-11],[-34,-11],[-34,-11],[-35,-11],[-34,-11],[-34,-11],[-7,-2],[-27,-9],[-34,-11],[-34,-11],[-34,-11],[-35,-11],[-3,-1]],[[3482,978],[-3,0],[-4,0],[-23,50],[-27,59],[-20,42],[-31,66],[-7,7],[-7,6],[-38,25],[-37,24],[-18,20],[-19,19],[-39,53],[-39,52],[-6,6],[-6,6],[-6,1],[-6,1]],[[3146,1415],[-6,-3],[-7,-3],[-35,-20],[-37,-20],[-35,-20],[-36,-21],[-7,-2],[-6,-2]],[[2977,1324],[-20,2],[-50,4],[-51,5],[-50,5],[-51,5],[-55,5],[-56,5],[-55,5],[-56,5]],[[2533,1365],[-33,-5],[-33,-6],[-33,-5],[-34,-6],[-33,-5],[-33,-6],[-33,-6],[-34,-5],[-20,-4],[-21,-4],[-20,-4],[-21,-4],[-13,-2],[-12,-3],[-13,-2],[-13,-3],[-30,-5],[-1,0]],[[3724,524],[-44,0],[-40,0],[-40,1],[-44,0],[-1,1],[-2,1],[0,3],[-1,3],[2,100],[1,85],[0,16],[1,3],[1,4],[4,2],[5,2],[1,4],[2,4],[1,14],[1,14],[8,128],[8,128]],[[3587,1037],[-53,-30],[-52,-29]],[[3847,84],[-15,4],[-6,1],[-9,3],[-8,10],[-9,11],[-15,76],[-16,76],[-11,64],[-12,63],[-6,66],[-7,65],[-1,1],[-2,0],[-1,0],[-1,0],[-2,1]],[[3726,525],[-1,-1],[-1,0]],[[4096,100],[-3,-1],[-30,-2],[-46,-3],[-39,-2],[-53,-4],[-36,-2],[-42,-2]],[[2597,2790],[22,-1],[21,-3],[21,-5],[19,-7],[19,-9],[17,-11],[16,-12],[16,-14],[13,-15],[12,-16],[11,-18],[9,-19],[7,-19],[5,-20],[4,-22],[1,-21],[-1,-22],[-4,-21],[-5,-21],[-7,-19],[-9,-19],[-11,-17],[-12,-17],[-13,-15],[-16,-13],[-16,-13],[-17,-10],[-19,-9],[-19,-7],[-21,-6],[-21,-3],[-22,-1]],[[2597,2365],[-21,1],[-21,3],[-21,6],[-19,7],[-19,9],[-17,10],[-17,13],[-15,13],[-13,15],[-13,17],[-10,17],[-9,19],[-7,19],[-6,21],[-3,21],[-1,22],[1,21],[3,22],[6,20],[7,19],[9,19],[10,18],[13,16],[13,15],[15,14],[17,12],[17,11],[19,9],[19,7],[21,5],[21,3],[21,1]],[[851,934],[9,-5],[78,-97],[25,-23],[25,-13],[17,-3]],[[817,859],[15,5],[7,15],[5,43],[7,12]],[[731,882],[9,-1],[39,-16],[19,-5],[19,-1]],[[788,673],[23,4],[5,3],[1,4],[-2,4],[-4,4],[-14,19],[-27,46],[-10,24],[-11,18],[-13,10],[-46,23],[-7,6],[-2,10],[4,8],[6,5],[14,6],[19,12],[7,3]],[[1046,804],[8,-6],[24,-26],[5,-8],[3,-10],[5,-40],[4,-9],[11,-6],[18,-2],[9,-3],[14,-16],[10,-4],[18,-1]],[[1005,793],[10,1],[11,3],[10,5],[10,2]],[[651,785],[8,0],[7,-2],[6,-6],[8,-13],[6,-4]],[[568,617],[7,2],[8,6],[-1,5],[-5,5],[-3,8],[3,7],[14,5],[5,6],[15,36],[3,12],[0,8],[-8,17],[-2,14],[6,6],[10,4],[9,11],[3,6],[4,6],[7,3],[8,1]],[[711,768],[8,-1],[37,-18],[12,-10],[9,-13],[4,-18],[-1,-10],[-2,-9],[0,-8],[4,-6],[6,-2]],[[686,760],[6,1],[13,6],[6,1]],[[1252,686],[32,-3]],[[1175,673],[77,13]],[[1300,685],[17,-2],[11,-13],[10,-17],[13,-12],[16,-7],[9,-5],[4,-7],[-1,-8],[-6,-5],[-8,-3],[-6,-5],[-3,-24],[7,-25],[1,-20],[-21,-9],[-1,0]],[[1284,683],[16,2]],[[543,618],[25,-1]],[[499,602],[17,4],[20,10],[7,2]],[[447,612],[52,-10]],[[277,141],[7,5],[11,22],[7,8],[17,9],[8,6],[4,6],[1,3],[-3,2],[-18,5],[-6,3],[-5,4],[-8,10],[-7,12],[-5,15],[-1,14],[0,18],[-2,15],[-4,14],[-8,14],[-6,18],[0,16],[3,17],[1,19],[-8,41],[0,20],[10,15],[35,17],[15,12],[14,22],[20,39],[29,31],[34,17],[35,2]],[[1342,523]],[[1342,523],[-6,-2],[-4,-5],[-1,-7],[4,-7],[5,-3]],[[1359,500],[39,-16],[10,-9],[9,-14],[4,-7],[5,-5],[18,-11],[5,-5],[4,-6],[4,-7],[0,-7],[-4,-7],[-6,-1]],[[1340,499],[19,1]],[[1447,405],[-7,3],[-12,9],[-14,5]],[[1414,422],[-11,-2],[-10,-7],[-10,-14],[4,-18],[11,-23],[24,-36],[3,-10],[-5,-6],[-15,-8],[-6,-6],[-5,-8],[-3,-8],[-4,-42],[2,-12],[11,-11],[39,-22],[36,-19],[22,-17],[19,-21],[11,-8],[12,-4]],[[0,171],[28,-2],[75,-4],[14,-1],[81,-5],[34,-8],[45,-10]],[[1887,165],[14,-1],[35,-10],[32,-15],[81,-64],[7,-9],[27,-48],[3,-8],[1,-10]],[[1818,91],[14,0],[12,7],[11,12],[7,16],[9,6],[3,18],[5,11],[8,4]],[[1679,141],[25,-7],[17,-19]],[[1539,120],[22,0],[44,16],[74,5]],[[1733,133],[2,-1],[1,-5],[2,-5]],[[1721,115],[3,2],[2,3],[5,9],[2,4]],[[1759,126],[7,0],[37,-29],[15,-6]],[[1738,122],[21,4]],[[2288,265],[31,-1],[11,-28],[9,-17],[62,-77],[49,-93],[9,-6],[32,-7],[48,-20],[26,-16]],[[2159,213],[129,52]],[[2159,213],[104,-154],[0,-7],[-82,-42]],[[2159,213],[-156,228],[-3,7],[0,6],[8,7],[78,47],[4,5],[2,3],[-7,16],[-42,80],[-1,5],[0,7],[8,107],[20,49],[94,187],[99,194],[2,6],[0,5],[-6,3],[-98,29],[-18,17],[-39,69]],[[2189,0],[-8,10]],[[1479,529],[8,-6],[4,-3],[18,-5],[18,-2],[5,-4],[2,-11],[-1,-23],[3,-8],[10,-16],[4,-13],[10,-20],[6,-7],[6,-4],[8,-2],[17,-1],[6,-3],[4,-9],[6,-20],[9,-18],[12,-14],[86,-83],[10,-2],[4,-2],[5,-3],[13,-15],[11,-11],[8,-4],[21,-4],[7,-5],[19,-22],[5,-8],[4,-15],[6,-3],[2,-1],[9,-4]],[[1417,461],[4,5],[4,12],[0,5],[-5,9],[0,3],[-1,2],[1,2],[3,2],[5,1],[10,1],[8,3],[18,14],[7,7],[2,1],[6,1]],[[1899,211],[20,0],[69,-18],[18,-8],[16,-10],[22,-18],[62,-73],[43,-74],[2,-2],[5,-3],[5,-2]],[[1844,158],[9,1],[6,5],[15,30],[6,7],[5,5],[7,4],[7,1]],[[2161,3],[20,7]],[[3778,0],[-4,54],[4,6],[3,8],[45,20],[0,1]],[[173,0],[-4,8],[-5,5],[-3,2],[-7,4],[-3,3],[-3,4],[-2,3],[0,4],[1,3],[2,6],[0,4],[0,4],[-2,3],[-1,1],[-5,0],[-3,1],[-3,1],[-4,4],[-2,4],[-3,7],[-10,35],[-10,28],[-2,10],[-1,20],[0,1]],[[1456,0],[-1,11],[3,0],[264,1],[5,10],[2,8],[2,89],[0,10]],[[4014,2567],[82,-1]],[[3480,4096],[-27,-31],[-76,-15]],[[3377,4050],[-165,22]],[[3212,4072],[-120,-18],[-43,-95],[-43,-2],[3,-14],[-4,-28],[16,-36],[-42,-13],[-78,-38],[-3,-54],[-87,-76]],[[2368,3198],[-42,20],[-35,5],[-34,10],[7,22],[-54,79],[-54,51],[-45,14],[-69,106]],[[2042,3505],[-104,0],[-89,-22],[-80,-106],[-34,-86],[-91,-135]],[[2400,3199],[-32,-1]],[[1644,3156],[-83,6]],[[1561,3162],[-35,-34],[-11,-63],[-88,-20],[-90,-64],[-92,-93],[-203,-265],[-31,-128],[10,-255]],[[23,2650],[-23,9]],[[81,2632],[-40,19]],[[41,2651],[-18,-1]],[[2391,4059],[-56,14],[-20,23]],[[2811,3698],[-113,165],[-230,114],[10,50],[-9,38],[-46,11]],[[2423,4076],[-32,-17]],[[81,2632],[-18,36],[-8,33],[-8,26],[-30,44],[-9,54],[-8,2]],[[2400,3199],[460,321],[36,38],[-15,30],[-70,110]],[[81,2632],[25,-67],[60,-406],[1,-2]],[[2331,3129],[6,23],[63,47]],[[2724,3031],[-48,5],[-91,42],[-51,7],[-94,61]],[[2440,3146],[-109,-17]],[[3906,2618],[-519,121],[-77,36],[-88,78],[-31,3],[-435,171],[-11,10]],[[2745,3037],[-21,-6]],[[4014,2567],[-10,51],[-37,3]],[[3967,2621],[-61,-3]],[[4014,2567],[5,-50],[39,-31],[15,-53],[-28,-46],[-24,-122],[-1,-61],[34,-29],[42,-26]],[[4096,1046],[-24,-12],[-176,-122],[-78,-72]],[[3818,840],[-32,13]],[[3786,853],[-55,-29],[-114,-116]],[[3617,708],[-28,5],[-34,5]],[[588,437],[7,-5],[1,-5],[-3,-5],[-5,-5],[-4,-7],[-1,-10],[2,-34],[-1,-4],[-2,0],[-4,-1],[-13,-6],[-26,-2],[-8,-3],[-7,-5],[-5,-7],[-4,-10],[-4,-4],[-6,-4],[-7,-3],[-7,0],[-15,7],[-4,-2],[-5,-6],[-7,-6],[-7,-3],[-4,2],[-4,4],[-6,5],[-7,1],[-6,-4],[-12,-18],[-7,-7],[-6,-1],[-6,3],[-34,34],[-2,5],[-2,9],[-1,9],[1,6],[1,5],[1,7],[-1,8],[-5,6],[-21,16],[-3,6],[-6,18],[-4,2],[-3,-3],[-2,-6],[-2,-5],[-10,-27],[0,-2],[1,-3],[-1,-12],[-2,-10],[-2,-2],[-4,5],[-4,10],[-5,24],[1,6],[6,15],[2,8],[4,70],[1,8],[46,151],[12,25],[3,4],[9,9],[16,9],[21,7],[9,1],[6,-1],[5,-5],[8,-12],[4,-4],[4,-3],[4,-1],[16,-2],[19,-11],[9,-8],[7,-8],[5,-11],[3,-13],[3,-28],[0,-9],[-2,-2],[-9,0],[-4,-2],[-2,-4],[-1,-6],[0,-7],[1,-6],[3,-5],[6,-4],[15,-5],[21,-15],[2,-2],[0,-5],[0,-5],[-1,-3],[-10,-6],[-5,-4],[-2,-5],[-1,-18],[2,-9],[5,-4],[19,0],[6,-3],[5,-4],[23,-22],[9,-6]],[[1835,2794],[0,-5],[0,-3],[0,-5],[-2,-4],[-2,-4],[-1,-7],[-3,-4],[-2,-6],[-3,-12],[-3,-6],[-5,-5],[-1,-3],[-1,-3],[-3,-10],[-3,-5],[-3,-4],[-5,-3],[-5,-1],[-5,0],[-14,4],[-6,-1],[-4,-2],[-16,-14],[-33,-18],[-10,-9],[-2,-1],[-3,0],[-4,-1],[-25,-6],[-9,0],[-2,0],[-2,-1],[-15,-13],[-3,-5],[-15,-32],[-3,-3],[-6,-5],[-7,-5],[-36,-15],[-16,-12],[-14,-18],[-9,-27],[-5,-7],[-3,-2],[-3,-2],[-3,-2],[-3,-1],[-4,1],[-3,1],[-11,9],[-4,1],[-5,1],[-5,-1],[-7,-3],[-4,-1],[-4,1],[-3,2],[-7,11],[-3,2],[-3,1],[-10,-2],[-4,1],[-11,4],[-4,0],[-3,-1],[-6,0],[-3,3],[-5,1],[-6,-2],[-6,-3],[-8,0],[-6,2],[-9,3],[-5,4],[-8,4],[-9,2],[-8,1],[-7,0],[-4,-3],[-4,-1],[-6,-2],[-4,5],[-5,1],[-5,-2],[-3,-6],[-5,-5],[6,-3],[7,-4],[4,-7],[1,-7],[-4,-1],[-5,5],[-5,-2],[0,-4],[1,-5],[-4,-4],[-5,-2],[-1,-3],[4,-4],[2,-4],[-1,-6],[0,-6],[-4,-1],[-5,-1],[-5,-3],[-1,-4],[0,-5],[1,-9],[-1,-5],[-3,-6],[-4,-7],[-3,-2],[-4,-3],[-2,-6],[0,-6],[0,-14],[-2,-13],[0,-6],[1,-6],[4,-5],[6,-5],[8,-2],[36,1],[14,5],[8,3],[11,-1],[10,-4],[8,-4],[4,-8],[6,-18],[5,-34],[4,-26],[4,-22],[0,-20],[-1,-14],[-2,-25],[-5,-30],[-2,-23],[-1,-29],[1,-25],[1,-26],[0,-32],[-1,-20],[0,-13],[0,-22],[-1,-24],[0,-19],[-2,-14],[-6,-12],[-7,-8],[-6,-5],[-6,-9],[1,-14],[2,-16],[9,-17],[6,-21],[4,-28],[2,-16],[-3,-16],[-5,-18],[-2,-7],[-6,-6],[-6,-1],[-11,1],[-9,1],[-6,0],[-3,-3],[-5,-5],[-2,-5],[-2,-5],[0,-5],[1,-4],[4,-4],[6,-3],[7,0],[5,-6],[-2,-7],[-9,-12],[-21,-14],[-15,-11],[-14,-5],[-14,3],[-14,-2],[-9,-8],[-14,-4],[-17,-2],[-18,3],[-5,14],[8,15],[6,16],[6,15],[17,12],[7,11],[2,14],[-1,7],[-5,5],[-19,15],[-19,14],[-23,23],[-45,46],[-30,35],[-12,15],[-9,22],[-4,26],[2,12],[5,13],[5,13],[13,17],[6,11],[6,13],[4,18],[4,18],[8,10],[11,18],[5,15],[7,23],[5,11],[9,11],[5,16],[-5,19],[-1,11],[2,8],[5,10],[-1,20],[-6,5],[-4,14],[-7,18],[-3,19],[-5,18],[0,11],[1,10],[5,20],[0,15],[-3,12],[-5,6],[-6,-4],[-5,-1],[-7,-3],[-2,9],[-4,14],[3,12],[-1,6],[-6,3],[-9,6],[-6,4],[-10,4],[-2,8],[-2,6],[-9,8],[-4,11],[-5,17],[-11,1],[-7,6],[-4,12],[-6,0],[-5,-19],[-2,-7],[-1,-14],[-2,-14],[-3,-10],[-7,-3],[-6,8],[-3,17],[3,16],[1,11],[-5,2],[-4,-2],[-10,-5],[-3,-7],[0,-9],[0,-7],[2,-15],[-2,-19],[-5,-16],[-10,-11],[-14,-15],[-14,-13],[-14,-9],[-12,-10],[-10,-18],[-7,-14],[-5,-15],[-5,-18],[-1,-16],[1,-14],[3,-20],[8,-32],[9,-12],[18,-13],[-9,-3],[-10,-11],[-10,-10],[-6,-10],[-12,-13],[-5,-13],[-6,-14],[-5,-13],[1,-11],[11,-8],[9,8],[9,1],[14,8],[6,13],[8,6],[8,-5],[-3,-16],[-2,-8],[-2,-13],[-5,-12],[-10,-1],[-8,-3],[0,-10],[3,-15],[5,-17],[-1,-16],[-4,-13],[5,-8],[8,-8],[2,-10],[-7,-8],[-12,-2],[-7,1],[-5,5],[-2,7],[-2,10],[-7,2],[-6,-2],[-7,-3],[-2,-6],[-5,-9],[-4,-19],[4,-7],[9,-2],[6,2],[-5,12],[9,-4],[7,-3],[6,-10],[-2,-6],[-6,-9],[-7,-9],[-8,-14],[-9,-13],[-7,-9],[-5,-8],[-5,-9],[-11,-14],[-16,-15],[-19,-15],[-18,-11],[-17,-1],[-15,2],[-7,8],[-9,9],[-7,20],[-2,19],[1,5],[1,4],[3,5],[2,9],[9,13],[7,5],[3,7],[2,8],[1,13],[-6,22],[-10,16],[-8,20],[-7,22],[-1,15],[1,15],[4,24],[24,59],[2,7],[0,8],[1,4],[2,3],[2,4],[5,5],[2,3],[4,7],[3,8],[2,8],[2,17],[2,8],[5,10],[4,15],[2,12],[0,4],[2,4],[17,24],[4,3],[1,2],[2,3],[12,18],[4,9],[1,2],[1,1],[3,2],[2,1],[1,4],[0,15],[1,6],[5,10],[2,6],[1,9],[6,15],[2,8],[2,7],[1,3],[1,3],[9,9],[2,4],[1,4],[0,4],[0,9],[1,11],[2,12],[3,12],[1,6],[0,9],[0,3],[1,4],[7,16],[6,21],[3,6],[11,21],[2,2],[2,1],[2,1],[2,0],[4,-1],[5,1],[4,6],[7,14],[2,1],[2,1],[6,1],[2,1],[7,6],[1,-1],[22,-6],[7,0],[1,3],[3,3],[0,2],[0,2],[-2,3],[-1,2],[0,2],[0,1],[1,4],[1,3],[2,2],[3,1],[17,-2],[3,-9],[7,-3],[29,2],[15,-1],[3,0],[4,2],[25,22],[6,4],[7,2],[6,-1],[7,-5],[5,-6],[4,-8],[1,-9],[-4,-8],[-4,-3],[-11,-7],[-3,-4],[-3,-4],[-13,-27],[-10,-39],[0,-10],[4,-7],[2,-2],[3,0],[4,-2],[4,-6],[6,-8],[9,-6],[6,-7],[5,-5],[4,-1],[1,3],[-1,7],[-2,5],[-1,4],[0,5],[2,10],[5,6],[8,4],[5,-2],[8,-5],[5,-8],[-1,-10],[-1,-12],[6,3],[6,9],[6,9],[10,11],[8,11],[8,4],[10,-2],[9,-3],[9,1],[5,5],[0,9],[-5,10],[0,10],[3,11],[6,14],[3,13],[7,17],[5,17],[4,15],[8,18],[3,17],[-2,8],[-3,8],[-6,12],[-10,14],[-12,16],[-16,20],[-11,17],[-10,19],[-7,12],[-2,7],[4,5],[4,4],[4,-1],[3,0],[2,-1],[3,-3],[2,-3],[3,-3],[3,-1],[4,0],[28,4],[21,-2],[4,-1],[3,-3],[9,-9],[5,-8],[2,-4],[2,-5],[0,-6],[1,-25],[5,-26],[1,-9],[-1,-9],[-3,-7],[-6,-6],[-9,-8],[-2,-5],[4,-4],[7,-2],[7,-1],[28,6],[14,6],[35,22],[9,3],[8,1],[9,0],[8,-3],[20,-15],[7,-2],[63,3],[7,-2],[21,-9],[5,-1],[39,0],[25,-7],[7,0],[7,1],[6,3],[5,3],[34,34],[4,6],[4,6],[2,7],[1,7],[-1,28],[-1,3],[0,3],[-2,1],[-5,5],[-7,13],[-5,12],[-4,5],[-1,2],[-1,4],[-2,7],[-1,4],[1,10],[-1,3],[-2,4],[-13,6],[-2,-5],[-4,-11],[-3,-4],[-3,-2],[-16,-4],[-2,0],[-2,-2],[-16,-22],[-18,7],[-16,9],[-15,13],[-19,26],[-6,2],[-6,0],[-79,-25],[-10,1],[-8,9],[-8,13],[-18,12],[-5,7],[-3,8],[-1,9],[1,18],[3,18],[2,8],[4,7],[6,6],[3,4],[14,2],[7,4],[17,16],[14,9],[10,11],[4,3],[9,5],[10,3],[5,-1],[5,-1],[5,-3],[6,-5],[3,-6],[3,-7],[17,-49],[6,-30],[1,-9],[1,3],[4,12],[10,26],[1,6],[5,14],[1,5],[23,-23],[5,-3],[5,-1],[6,0],[28,9],[6,2],[5,5],[10,13],[4,3],[13,6],[4,4],[0,4],[-1,3],[-40,26],[-19,9],[-6,4],[-4,5],[-3,6],[-4,13],[10,2],[5,0],[14,-5],[10,-1],[9,-3],[10,-7],[2,-1],[2,1],[2,1],[2,2],[2,0],[17,-4],[3,-2],[2,-4],[1,-4],[0,-5],[0,-9],[-2,-9],[-6,-18],[-2,-18],[-3,-9],[-1,-5],[1,-4],[2,-5],[2,-3],[10,-10],[15,-24],[5,-4],[11,-6],[11,-4],[5,-1],[12,1],[38,-5],[17,-9],[6,-1],[5,0],[15,7],[5,1],[5,0],[11,-2],[4,-2],[2,-5],[4,-11],[1,-7],[1,-10]],[[1488,2601],[0,-4],[1,-3],[3,-1],[12,2],[4,-2],[7,-6],[4,-2],[3,1],[2,4],[0,6],[-2,5],[-3,3],[-4,3],[-4,1],[-6,0],[-12,-3],[-2,-1],[-3,-3]],[[1526,2553],[1,4],[0,5],[-1,2],[-1,3],[-4,3],[-2,2],[-3,2],[-15,4],[-10,0],[-3,0],[-2,-2],[-5,-5],[-5,-3],[-3,0],[-1,2],[0,1],[1,2],[7,8],[1,2],[-1,3],[-3,2],[-11,3],[-2,2],[-3,2],[-6,8],[-2,2],[-2,1],[-2,0],[-2,-1],[-11,-9],[-3,-2],[-7,-2],[-28,2],[-6,-1],[-4,-4],[-2,-8],[2,-9],[4,-7],[12,-10],[0,4],[2,4],[1,3],[2,4],[2,2],[2,2],[2,1],[26,-1],[2,-1],[2,-1],[2,-1],[3,-2],[4,-2],[7,-4],[7,-3],[7,-4],[8,-4],[10,-1],[7,2],[8,1],[5,-4],[4,-4],[2,0],[3,1],[2,3],[2,3]],[[3633,0],[-35,7],[-6,5],[2,7],[3,0],[9,0],[-2,0],[29,-1],[17,6],[9,-2],[18,-7],[34,-3],[5,1],[9,6],[5,1],[5,0],[13,-7],[82,-6],[24,5],[54,-1],[19,-4],[15,-7],[-309,0]],[[2076,2723],[6,2],[0,-5],[0,-2],[0,-2],[-1,-2],[-3,-2],[-1,-1],[0,-1],[-3,-11],[-1,-1],[-1,-3],[-2,-1],[-2,-2],[-2,-1],[-4,-1],[-1,-2],[1,-3],[1,-1],[0,-1],[0,-2],[0,-1],[-1,-2],[-1,-1],[-1,0],[-1,-1],[-2,0],[-7,4],[-1,0],[-2,-1],[-2,0],[-1,1],[-3,2],[-2,1],[-2,0],[-2,-1],[-2,-2],[0,-3],[-1,-2],[-2,-2],[-2,-1],[-1,-1],[0,-2],[-1,-3],[0,-1],[-2,-4],[-1,1],[-2,3],[-2,5],[0,2],[-1,1],[-2,0],[-1,0],[-7,-3],[-18,-3],[-10,0],[-9,2],[-2,0],[-2,-1],[-3,-3],[-1,-3],[-1,-4],[3,-2],[5,0],[9,1],[3,0],[3,-1],[1,-2],[-3,-2],[-13,-6],[-2,-1],[-1,-1],[1,-2],[2,-1],[2,0],[28,9],[3,-1],[1,-3],[0,-5],[-5,-14],[7,2],[6,0],[4,-1],[3,-2],[0,-5],[-5,-11],[-1,-8],[-1,-2],[-1,-1],[-1,0],[-7,2],[-2,-1],[-3,0],[-3,-3],[-1,-3],[-3,-7],[-10,-19],[-2,-3],[-1,-1],[-1,1],[0,1],[-1,14],[0,3],[-2,6],[-4,2],[-8,2],[-4,2],[-4,4],[-6,8],[-2,4],[-6,19],[-1,2],[-5,7],[0,2],[-1,2],[2,4],[3,2],[6,4],[1,2],[9,12],[7,8],[2,2],[0,3],[0,2],[-2,6],[2,3],[4,1],[9,-2],[2,1],[2,1],[2,1],[5,5],[2,1],[2,0],[3,-2],[5,-4],[4,-3],[3,1],[1,3],[1,9],[1,2],[2,2],[2,1],[2,0],[9,-1],[3,0],[3,0],[2,2],[3,2],[9,8],[2,2],[3,1],[3,0],[6,-1],[12,0],[6,2]],[[2076,2723],[6,2],[0,-5],[0,-2],[0,-2],[-1,-2],[-3,-2],[-1,-1],[0,-1],[-3,-11],[-1,-1],[-1,-3],[-2,-1],[-2,-2],[-2,-1],[-4,-1],[-1,-2],[1,-3],[1,-1],[0,-1],[0,-2],[0,-1],[-1,-2],[-1,-1],[-1,0],[-1,-1],[-2,0],[-7,4],[-1,0],[-2,-1],[-2,0],[-1,1],[-3,2],[-2,1],[-2,0],[-2,-1],[-2,-2],[0,-3],[-1,-2],[-2,-2],[-2,-1],[-1,-1],[0,-2],[-1,-3],[0,-1],[-2,-4],[-1,1],[-2,3],[-2,5],[0,2],[-1,1],[-2,0],[-1,0],[-7,-3],[-18,-3],[-10,0],[-9,2],[-2,0],[-2,-1],[-3,-3],[-1,-3],[-1,-4],[3,-2],[5,0],[9,1],[3,0],[3,-1],[1,-2],[-3,-2],[-13,-6],[-2,-1],[-1,-1],[1,-2],[2,-1],[2,0],[28,9],[3,-1],[1,-3],[0,-5],[-5,-14],[7,2],[6,0],[4,-1],[3,-2],[0,-5],[-5,-11],[-1,-8],[-1,-2],[-1,-1],[-1,0],[-7,2],[-2,-1],[-3,0],[-3,-3],[-1,-3],[-3,-7],[-10,-19],[-2,-3],[-1,-1],[-1,1],[0,1],[-1,14],[0,3],[-2,6],[-4,2],[-8,2],[-4,2],[-4,4],[-6,8],[-2,4],[-6,19],[-1,2],[-5,7],[0,2],[-1,2],[2,4],[3,2],[6,4],[1,2],[9,12],[7,8],[2,2],[0,3],[0,2],[-2,6],[2,3],[4,1],[9,-2],[2,1],[2,1],[2,1],[5,5],[2,1],[2,0],[3,-2],[5,-4],[4,-3],[3,1],[1,3],[1,9],[1,2],[2,2],[2,1],[2,0],[9,-1],[3,0],[3,0],[2,2],[3,2],[9,8],[2,2],[3,1],[3,0],[6,-1],[12,0],[6,2]],[[1835,2794],[0,-5],[0,-3],[0,-5],[-2,-4],[-2,-4],[-1,-7],[-3,-4],[-2,-6],[-3,-12],[-3,-6],[-5,-5],[-1,-3],[-1,-3],[-3,-10],[-3,-5],[-3,-4],[-5,-3],[-5,-1],[-5,0],[-14,4],[-6,-1],[-4,-2],[-16,-14],[-33,-18],[-10,-9],[-2,-1],[-3,0],[-4,-1],[-25,-6],[-9,0],[-2,0],[-2,-1],[-15,-13],[-3,-5],[-15,-32],[-3,-3],[-6,-5],[-7,-5],[-36,-15],[-16,-12],[-14,-18],[-9,-27],[-5,-7],[-3,-2],[-3,-2],[-3,-2],[-3,-1],[-4,1],[-3,1],[-11,9],[-4,1],[-5,1],[-5,-1],[-7,-3],[-4,-1],[-4,1],[-3,2],[-7,11],[-3,2],[-3,1],[-10,-2],[-4,1],[-11,4],[-4,0],[-3,-1],[-6,0],[-3,3],[-5,1],[-6,-2],[-6,-3],[-8,0],[-6,2],[-9,3],[-5,4],[-8,4],[-9,2],[-8,1],[-7,0],[-4,-3],[-4,-1],[-6,-2],[-4,5],[-5,1],[-5,-2],[-3,-6],[-5,-5],[6,-3],[7,-4],[4,-7],[1,-7],[-4,-1],[-5,5],[-5,-2],[0,-4],[1,-5],[-4,-4],[-5,-2],[-1,-3],[4,-4],[2,-4],[-1,-6],[0,-6],[-4,-1],[-5,-1],[-5,-3],[-1,-4],[0,-5],[1,-9],[-1,-5],[-3,-6],[-4,-7],[-3,-2],[-4,-3],[-2,-6],[0,-6],[0,-14],[-2,-13],[0,-6],[1,-6],[4,-5],[6,-5],[8,-2],[36,1],[14,5],[8,3],[11,-1],[10,-4],[8,-4],[4,-8],[6,-18],[5,-34],[4,-26],[4,-22],[0,-20],[-1,-14],[-2,-25],[-5,-30],[-2,-23],[-1,-29],[1,-25],[1,-26],[0,-32],[-1,-20],[0,-13],[0,-22],[-1,-24],[0,-19],[-2,-14],[-6,-12],[-7,-8],[-6,-5],[-6,-9],[1,-14],[2,-16],[9,-17],[6,-21],[4,-28],[2,-16],[-3,-16],[-5,-18],[-2,-7],[-6,-6],[-6,-1],[-11,1],[-9,1],[-6,0],[-3,-3],[-5,-5],[-2,-5],[-2,-5],[0,-5],[1,-4],[4,-4],[6,-3],[7,0],[5,-6],[-2,-7],[-9,-12],[-21,-14],[-15,-11],[-14,-5],[-14,3],[-14,-2],[-9,-8],[-14,-4],[-17,-2],[-18,3],[-5,14],[8,15],[6,16],[6,15],[17,12],[7,11],[2,14],[-1,7],[-5,5],[-19,15],[-19,14],[-23,23],[-45,46],[-30,35],[-12,15],[-9,22],[-4,26],[2,12],[5,13],[5,13],[13,17],[6,11],[6,13],[4,18],[4,18],[8,10],[11,18],[5,15],[7,23],[5,11],[9,11],[5,16],[-5,19],[-1,11],[2,8],[5,10],[-1,20],[-6,5],[-4,14],[-7,18],[-3,19],[-5,18],[0,11],[1,10],[5,20],[0,15],[-3,12],[-5,6],[-6,-4],[-5,-1],[-7,-3],[-2,9],[-4,14],[3,12],[-1,6],[-6,3],[-9,6],[-6,4],[-10,4],[-2,8],[-2,6],[-9,8],[-4,11],[-5,17],[-11,1],[-7,6],[-4,12],[-6,0],[-5,-19],[-2,-7],[-1,-14],[-2,-14],[-3,-10],[-7,-3],[-6,8],[-3,17],[3,16],[1,11],[-5,2],[-4,-2],[-10,-5],[-3,-7],[0,-9],[0,-7],[2,-15],[-2,-19],[-5,-16],[-10,-11],[-14,-15],[-14,-13],[-14,-9],[-12,-10],[-10,-18],[-7,-14],[-5,-15],[-5,-18],[-1,-16],[1,-14],[3,-20],[8,-32],[9,-12],[18,-13],[-9,-3],[-10,-11],[-10,-10],[-6,-10],[-12,-13],[-5,-13],[-6,-14],[-5,-13],[1,-11],[11,-8],[9,8],[9,1],[14,8],[6,13],[8,6],[8,-5],[-3,-16],[-2,-8],[-2,-13],[-5,-12],[-10,-1],[-8,-3],[0,-10],[3,-15],[5,-17],[-1,-16],[-4,-13],[5,-8],[8,-8],[2,-10],[-7,-8],[-12,-2],[-7,1],[-5,5],[-2,7],[-2,10],[-7,2],[-6,-2],[-7,-3],[-2,-6],[-5,-9],[-4,-19],[4,-7],[9,-2],[6,2],[-5,12],[9,-4],[7,-3],[6,-10],[-2,-6],[-6,-9],[-7,-9],[-8,-14],[-9,-13],[-7,-9],[-5,-8],[-5,-9],[-11,-14],[-16,-15],[-19,-15],[-18,-11],[-17,-1],[-15,2],[-7,8],[-9,9],[-7,20],[-2,19],[1,5],[1,4],[3,5],[2,9],[9,13],[7,5],[3,7],[2,8],[1,13],[-6,22],[-10,16],[-8,20],[-7,22],[-1,15],[1,15],[4,24],[24,59],[2,7],[0,8],[1,4],[2,3],[2,4],[5,5],[2,3],[4,7],[3,8],[2,8],[2,17],[2,8],[5,10],[4,15],[2,12],[0,4],[2,4],[17,24],[4,3],[1,2],[2,3],[12,18],[4,9],[1,2],[1,1],[3,2],[2,1],[1,4],[0,15],[1,6],[5,10],[2,6],[1,9],[6,15],[2,8],[2,7],[1,3],[1,3],[9,9],[2,4],[1,4],[0,4],[0,9],[1,11],[2,12],[3,12],[1,6],[0,9],[0,3],[1,4],[7,16],[6,21],[3,6],[11,21],[2,2],[2,1],[2,1],[2,0],[4,-1],[5,1],[4,6],[7,14],[2,1],[2,1],[6,1],[2,1],[7,6],[1,-1],[22,-6],[7,0],[1,3],[3,3],[0,2],[0,2],[-2,3],[-1,2],[0,2],[0,1],[1,4],[1,3],[2,2],[3,1],[17,-2],[3,-9],[7,-3],[29,2],[15,-1],[3,0],[4,2],[25,22],[6,4],[7,2],[6,-1],[7,-5],[5,-6],[4,-8],[1,-9],[-4,-8],[-4,-3],[-11,-7],[-3,-4],[-3,-4],[-13,-27],[-10,-39],[0,-10],[4,-7],[2,-2],[3,0],[4,-2],[4,-6],[6,-8],[9,-6],[6,-7],[5,-5],[4,-1],[1,3],[-1,7],[-2,5],[-1,4],[0,5],[2,10],[5,6],[8,4],[5,-2],[8,-5],[5,-8],[-1,-10],[-1,-12],[6,3],[6,9],[6,9],[10,11],[8,11],[8,4],[10,-2],[9,-3],[9,1],[5,5],[0,9],[-5,10],[0,10],[3,11],[6,14],[3,13],[7,17],[5,17],[4,15],[8,18],[3,17],[-2,8],[-3,8],[-6,12],[-10,14],[-12,16],[-16,20],[-11,17],[-10,19],[-7,12],[-2,7],[4,5],[4,4],[4,-1],[3,0],[2,-1],[3,-3],[2,-3],[3,-3],[3,-1],[4,0],[28,4],[21,-2],[4,-1],[3,-3],[9,-9],[5,-8],[2,-4],[2,-5],[0,-6],[1,-25],[5,-26],[1,-9],[-1,-9],[-3,-7],[-6,-6],[-9,-8],[-2,-5],[4,-4],[7,-2],[7,-1],[28,6],[14,6],[35,22],[9,3],[8,1],[9,0],[8,-3],[20,-15],[7,-2],[63,3],[7,-2],[21,-9],[5,-1],[39,0],[25,-7],[7,0],[7,1],[6,3],[5,3],[34,34],[4,6],[4,6],[2,7],[1,7],[-1,28],[-1,3],[0,3],[-2,1],[-5,5],[-7,13],[-5,12],[-4,5],[-1,2],[-1,4],[-2,7],[-1,4],[1,10],[-1,3],[-2,4],[-13,6],[-2,-5],[-4,-11],[-3,-4],[-3,-2],[-16,-4],[-2,0],[-2,-2],[-16,-22],[-18,7],[-16,9],[-15,13],[-19,26],[-6,2],[-6,0],[-79,-25],[-10,1],[-8,9],[-8,13],[-18,12],[-5,7],[-3,8],[-1,9],[1,18],[3,18],[2,8],[4,7],[6,6],[3,4],[14,2],[7,4],[17,16],[14,9],[10,11],[4,3],[9,5],[10,3],[5,-1],[5,-1],[5,-3],[6,-5],[3,-6],[3,-7],[17,-49],[6,-30],[1,-9],[1,3],[4,12],[10,26],[1,6],[5,14],[1,5],[23,-23],[5,-3],[5,-1],[6,0],[28,9],[6,2],[5,5],[10,13],[4,3],[13,6],[4,4],[0,4],[-1,3],[-40,26],[-19,9],[-6,4],[-4,5],[-3,6],[-4,13],[10,2],[5,0],[14,-5],[10,-1],[9,-3],[10,-7],[2,-1],[2,1],[2,1],[2,2],[2,0],[17,-4],[3,-2],[2,-4],[1,-4],[0,-5],[0,-9],[-2,-9],[-6,-18],[-2,-18],[-3,-9],[-1,-5],[1,-4],[2,-5],[2,-3],[10,-10],[15,-24],[5,-4],[11,-6],[11,-4],[5,-1],[12,1],[38,-5],[17,-9],[6,-1],[5,0],[15,7],[5,1],[5,0],[11,-2],[4,-2],[2,-5],[4,-11],[1,-7],[1,-10]],[[1488,2601],[0,-4],[1,-3],[3,-1],[12,2],[4,-2],[7,-6],[4,-2],[3,1],[2,4],[0,6],[-2,5],[-3,3],[-4,3],[-4,1],[-6,0],[-12,-3],[-2,-1],[-3,-3]],[[1526,2553],[1,4],[0,5],[-1,2],[-1,3],[-4,3],[-2,2],[-3,2],[-15,4],[-10,0],[-3,0],[-2,-2],[-5,-5],[-5,-3],[-3,0],[-1,2],[0,1],[1,2],[7,8],[1,2],[-1,3],[-3,2],[-11,3],[-2,2],[-3,2],[-6,8],[-2,2],[-2,1],[-2,0],[-2,-1],[-11,-9],[-3,-2],[-7,-2],[-28,2],[-6,-1],[-4,-4],[-2,-8],[2,-9],[4,-7],[12,-10],[0,4],[2,4],[1,3],[2,4],[2,2],[2,2],[2,1],[26,-1],[2,-1],[2,-1],[2,-1],[3,-2],[4,-2],[7,-4],[7,-3],[7,-4],[8,-4],[10,-1],[7,2],[8,1],[5,-4],[4,-4],[2,0],[3,1],[2,3],[2,3]],[[588,437],[7,-5],[1,-5],[-3,-5],[-5,-5],[-4,-7],[-1,-10],[2,-34],[-1,-4],[-2,0],[-4,-1],[-13,-6],[-26,-2],[-8,-3],[-7,-5],[-5,-7],[-4,-10],[-4,-4],[-6,-4],[-7,-3],[-7,0],[-15,7],[-4,-2],[-5,-6],[-7,-6],[-7,-3],[-4,2],[-4,4],[-6,5],[-7,1],[-6,-4],[-12,-18],[-7,-7],[-6,-1],[-6,3],[-34,34],[-2,5],[-2,9],[-1,9],[1,6],[1,5],[1,7],[-1,8],[-5,6],[-21,16],[-3,6],[-6,18],[-4,2],[-3,-3],[-2,-6],[-2,-5],[-10,-27],[0,-2],[1,-3],[-1,-12],[-2,-10],[-2,-2],[-4,5],[-4,10],[-5,24],[1,6],[6,15],[2,8],[4,70],[1,8],[46,151],[12,25],[3,4],[9,9],[16,9],[21,7],[9,1],[6,-1],[5,-5],[8,-12],[4,-4],[4,-3],[4,-1],[16,-2],[19,-11],[9,-8],[7,-8],[5,-11],[3,-13],[3,-28],[0,-9],[-2,-2],[-9,0],[-4,-2],[-2,-4],[-1,-6],[0,-7],[1,-6],[3,-5],[6,-4],[15,-5],[21,-15],[2,-2],[0,-5],[0,-5],[-1,-3],[-10,-6],[-5,-4],[-2,-5],[-1,-18],[2,-9],[5,-4],[19,0],[6,-3],[5,-4],[23,-22],[9,-6]],[[3633,0],[-35,7],[-6,5],[2,7],[3,0],[9,0],[-2,0],[29,-1],[17,6],[9,-2],[18,-7],[34,-3],[5,1],[9,6],[5,1],[5,0],[13,-7],[82,-6],[24,5],[54,-1],[19,-4],[15,-7]],[[636,4096],[9,-13],[4,-10],[11,-15],[9,-7],[9,-4],[9,0]],[[1971,4021],[13,11],[23,13],[21,13],[20,10],[18,13],[16,15]],[[1701,4096],[1,-4],[6,-15],[17,-26],[7,-8],[12,-22],[24,-23],[14,-13],[21,-15],[13,-12],[8,-13]],[[1824,3945],[7,-2],[6,2],[9,8],[12,7],[12,6],[21,13],[24,11],[9,2],[23,10],[18,15],[6,4]],[[1824,3945],[-11,-9],[-12,-10],[-1,-7]],[[1360,3653],[7,7],[30,28],[30,21],[30,25],[18,9],[27,10],[20,11],[9,9],[13,17],[15,21],[8,11],[9,12],[11,7],[22,10],[5,2],[12,15],[7,7],[12,6],[32,4],[15,2],[25,-4],[15,2],[14,5],[21,6],[13,6],[9,11],[11,6]],[[3854,4096],[-6,-15],[-12,-28],[-8,-23],[0,-23],[-10,-34],[0,-9],[0,-23],[4,-28],[6,-19],[11,-24],[1,-17],[3,-6],[10,-13],[4,-15],[2,-21],[12,-28],[16,-29],[14,-17],[3,-9],[4,-15],[0,-12],[5,-17],[4,-11],[9,-11]],[[1228,3541],[6,2],[19,15],[41,21],[21,17],[22,30],[23,27]],[[687,4047],[8,-4],[6,-7],[16,-25],[9,-19],[9,-9],[11,-10],[13,-9],[20,-6],[16,0],[18,-5],[11,-4],[6,-8],[4,-17],[3,-11],[11,-21],[7,-28],[8,-11],[9,-10],[10,-4],[18,-5],[14,-4],[13,-6],[17,-11],[7,-11],[18,-2],[8,-4],[19,-15],[8,-8],[7,-13],[3,-9],[15,-19],[5,-10],[-2,-7],[-7,-17],[-2,-6],[2,-9],[7,-6],[20,-4],[4,-5],[8,-15],[21,-23],[13,-13],[15,-8],[8,-4],[21,-5],[18,-2],[20,-8],[13,-11],[14,-13],[15,-21],[6,-4]],[[3926,3649],[20,-17],[13,-6],[11,-9],[10,-6],[11,-9],[6,-6],[19,-19],[17,-11],[33,-8],[9,0],[7,0],[6,6],[8,11]],[[1041,3158],[0,25],[2,20],[3,31],[4,15],[6,24],[5,13],[9,19],[4,8],[20,21],[7,20],[6,17],[14,21],[14,17],[16,19],[6,13],[24,30],[8,2],[10,0],[5,0],[10,8],[12,15],[3,11],[2,8],[-3,26]],[[1800,3919],[3,-6],[19,-32],[6,-15],[2,-10],[-3,-22],[-2,-42],[-3,-26],[-7,-25],[-9,-30],[-3,-11],[-8,-25],[-1,-19],[6,-17],[15,-17],[3,-13],[7,-30],[8,-36],[9,-36],[9,-22],[7,-10],[17,-11],[13,-19],[5,-13],[10,-10],[8,-11],[6,-13],[1,-8],[3,-17],[6,-28],[2,-21],[-2,-19],[2,-19],[0,-13],[3,-7],[0,-12],[4,-13],[11,-13],[1,-6],[-6,-39],[-6,-29],[-4,-13],[-8,-21],[-3,-15]],[[1228,3541],[1,-2],[17,-5],[28,-19],[14,-10],[13,-7],[29,-10],[21,-5],[13,-2],[21,-13],[17,-4],[12,0],[19,4],[11,0],[19,-2],[20,-4],[28,-11],[14,-10],[15,-15],[9,-6],[12,-5],[21,-8],[20,-15],[28,-17],[21,-17],[9,-2],[6,-7],[14,-17],[15,-12],[7,-17],[12,-13],[14,-13],[10,-15],[8,-15],[12,-23],[7,-17],[2,-15],[7,-13],[12,-6],[5,-7],[0,-10],[6,-9],[24,-8],[7,-4],[39,-28],[20,-13],[33,-21],[12,-9]],[[1921,3105],[0,-7],[5,-8],[22,-9],[3,-2],[0,-8],[2,-22]],[[933,2709],[18,19],[18,19],[8,11],[16,19],[8,11],[13,15],[21,25],[8,11],[3,10],[1,20],[6,34],[0,19],[-6,23],[-1,21],[0,30],[-2,5],[-3,27],[-1,77],[0,10],[1,43]],[[1953,3049],[0,-19],[3,-15],[3,-8],[6,-4],[16,-13],[11,-15],[9,-28],[16,-57],[5,-19],[14,-51],[3,-30],[6,-9],[7,-6],[8,-4],[9,-11],[4,-13],[12,-38],[2,-19]],[[3920,2616],[-1,14],[-3,22],[3,19],[4,15],[6,17],[9,19],[8,11],[12,14],[12,13],[10,13],[21,23],[29,28],[7,8],[35,32],[16,20],[8,8]],[[3956,2562],[-12,19],[-16,24],[-8,11]],[[2087,2690],[9,-11],[13,-6],[18,-11],[5,-6],[0,-26],[1,-42],[9,-32],[2,-28],[1,-10],[6,-13]],[[848,2450],[9,27],[10,47],[5,17],[7,26],[2,6],[6,21],[4,9],[6,19],[3,13],[18,49],[8,14],[7,11]],[[2151,2505],[5,-2],[13,0],[24,0],[39,-2],[47,-2],[24,-3],[10,7],[6,-2],[6,-7],[8,-23],[7,-11],[15,-6],[12,-2],[36,0],[14,2],[18,-2],[10,-4],[5,-3],[12,-2],[10,-4],[16,-11],[30,-12],[49,-22],[2,11]],[[2569,2405],[6,6],[30,11],[9,2],[16,11],[14,10],[33,17],[13,7],[15,6],[20,2],[18,-2],[10,-10],[9,-24],[5,-11],[13,-14],[18,-22],[3,-4],[20,-21],[10,-9],[5,-6],[7,-15],[11,-15]],[[2854,2324],[1,-8],[-13,-22],[-2,-6],[12,-53],[2,-13],[16,-47],[3,-6],[14,-15],[6,-9],[3,-14]],[[2896,2131],[3,-9],[10,-13],[20,-8],[18,-7],[23,-8],[25,-13],[11,-6],[16,-7]],[[3022,2060],[15,-8],[21,-17],[44,-30],[12,-2],[13,0],[8,2]],[[3956,2562],[0,-12],[-1,-11],[-9,-36],[-8,-17],[-4,-17],[-14,-53],[-7,-15],[-8,-13],[-19,-23],[-11,-7],[-12,-6],[-26,-30],[-9,-11],[-16,-21],[-11,-15],[-15,-17],[-15,-13],[-16,-12],[-42,-36],[-17,-17],[-9,-9],[-7,-9],[-18,-14],[-17,-9],[-19,-15],[-27,-17],[-42,-21],[-11,-4],[-21,-15],[-28,-19],[-12,-5],[-15,-4],[-11,0],[-15,-4],[-15,-9],[-10,-4],[-21,-2],[-8,-4],[-14,-19]],[[3135,2005],[13,6],[23,5],[28,4],[14,-11],[6,0],[10,7],[6,-2],[8,2],[18,12],[7,3],[8,-3],[27,-12],[6,-5],[19,-12],[15,-15],[9,-13],[8,-19],[7,-6],[11,0],[4,2],[2,23],[-2,11],[-6,15]],[[3654,1799],[-16,17],[-17,21],[-13,21],[-27,28],[-21,11],[-29,2],[-16,4],[-17,9],[-9,14],[-6,13],[-4,9],[-8,8],[-18,11],[-30,10],[-15,5],[-23,6],[-9,9]],[[3819,1644],[-24,25],[-12,9],[-24,29],[-12,13],[-4,2],[-15,4],[-18,15],[-11,5],[-7,6],[-30,40],[-8,7]],[[3819,1644],[14,8],[9,2],[8,0],[18,-2],[9,-4],[22,-17],[9,-9],[15,-13],[27,-10],[11,-7],[12,-12],[18,-32],[13,-30],[8,-8]],[[779,1395],[9,4],[14,5]],[[770,1390],[9,5]],[[802,1404],[34,12],[10,4],[20,9],[12,8],[21,11],[10,6],[26,13],[7,2],[15,4],[8,-2]],[[848,2450],[0,-5],[-15,-40],[-5,-9],[-12,-40],[-15,-60],[-10,-21],[-11,-15],[-4,-8],[-9,-26],[-11,-23],[-9,-30],[-12,-32],[-15,-42],[-6,-17],[-10,-26],[-8,-21],[-6,-24],[0,-31],[2,-30],[3,-17],[3,-28],[0,-21],[-3,-47],[0,-28],[0,-14],[1,-32],[2,-15],[6,-13],[3,-13],[9,-19],[12,-19],[10,-13],[15,-17],[5,-8],[4,-17],[0,-9],[-3,-28],[-3,-21],[-1,-13],[-5,-29],[-7,-47],[-2,-19],[0,-9],[5,-8],[7,-13],[5,-15],[9,-17],[3,-11]],[[616,1339],[-4,15],[-6,17],[-17,28],[-6,11],[-9,10],[-19,24],[-9,12],[-11,13],[-19,28],[-17,36],[-18,15],[-9,15],[-6,15],[-9,27],[-7,13],[-11,8],[-10,9],[-23,9],[-12,6],[-6,4],[-7,11],[-5,8],[-3,17],[-4,24],[-6,21],[-11,21],[-6,9],[-10,6],[-15,19],[-8,19],[-18,68],[-9,28],[-6,24],[-3,25],[-6,19],[-13,17],[-5,9],[-19,23],[-29,32],[-11,15],[-9,19],[-6,11],[-13,19],[-11,10],[-15,20],[-10,17],[-9,10],[-18,17],[-14,15],[-10,7],[-12,2],[-9,6],[-36,32],[-15,15],[-7,8]],[[4012,1510],[24,-9],[12,-9],[19,-19],[14,-15],[15,-25]],[[965,1471],[15,-2],[10,-6],[12,-13],[8,-19],[-2,-15],[11,-4],[13,-19],[2,-9],[-2,-15],[0,-13],[6,-12],[-1,-9],[-11,2],[-12,-6],[-1,-4],[1,-15],[-7,-11],[0,-13],[1,-10],[9,-15],[0,-11],[-7,-21],[-2,-7],[2,-10],[6,-17],[3,-15],[-2,-15],[-1,-11],[-5,-10],[-9,-19],[-13,-11],[-17,-26],[-10,-6],[-12,-15],[-3,0]],[[789,1201],[-1,2],[-14,26],[-7,8],[-6,7],[-9,2],[-5,0]],[[747,1246],[-39,4],[-12,2],[-9,0],[-27,7],[-11,10],[-19,34],[-11,24],[-3,12]],[[947,1069],[-3,7],[-23,17],[-15,15],[-12,6],[-4,2],[-12,9],[-14,6],[-12,4],[-3,4],[-3,20],[-12,12],[-7,7],[-18,6],[-12,6],[-8,11]],[[247,1161],[-15,-11],[-9,-11],[-8,-4],[-12,-6],[-16,-13],[-11,-8],[-10,-5],[-9,2],[-18,-4],[-21,-8],[-30,-9],[-29,-6],[-33,-7],[-26,-11]],[[944,1056],[-18,0],[-29,-2],[-16,2],[-14,0],[-21,3],[-21,2],[-28,-9],[-42,-15],[-42,-8],[-24,-9],[-12,-2],[-13,0],[-9,2],[-15,9],[-12,4],[-19,2],[-17,7],[-15,10],[-15,17],[-16,11],[-8,6],[-21,22],[-7,4],[-14,0],[-12,6],[-7,7],[-5,8],[-7,6],[-15,0],[-12,3],[-18,6],[-12,6],[-9,2],[-12,-2],[-15,0],[-17,7],[-12,2],[-19,-2],[-15,-7],[-15,-2],[-12,2],[-27,9],[-8,-2]],[[1271,878],[-3,-21],[-7,-13],[-12,-7],[-3,-6],[3,-19],[-8,-13],[0,-4],[5,-9],[4,-12],[2,-13],[-2,-7],[-6,-4]],[[1230,755],[-7,2],[-13,-6]],[[1210,751],[-3,-1],[-17,-6],[-12,0],[-16,-11]],[[1244,750],[-12,4],[-2,1]],[[1162,733],[-9,21],[-14,24],[-18,25],[-20,19],[-28,41],[-8,6],[-7,7],[-17,6],[-4,6],[-18,24],[-18,30],[-23,42],[-13,30],[-9,17],[-9,25],[-3,0]],[[1059,689],[9,4],[3,13],[8,2],[9,-2],[16,4],[12,6],[13,7],[33,10]],[[1175,646],[-13,4],[-32,7],[-36,12],[-23,9],[-12,11]],[[1247,595],[-19,13],[-24,19],[-15,10],[-14,9]],[[1249,593],[-2,2]],[[1352,446],[-3,15],[3,8],[-1,10]],[[1351,479],[0,1],[-6,6],[-6,9],[-3,13],[-9,10],[-18,15],[-6,2],[-20,15],[-12,11],[-6,8],[-16,24]],[[1355,438],[-3,8]],[[1469,355],[-15,8],[-21,2],[-4,2],[-15,24],[-5,4],[-10,6],[-15,2],[-9,7],[-11,19],[-9,9]],[[1590,297],[-12,7],[-10,8],[-3,5]],[[1565,317],[-9,10],[-13,13],[-9,4],[-23,-2],[-12,0],[-22,10],[-8,3]],[[1594,293],[11,17]],[[1605,310],[13,19],[5,4],[18,30]],[[1594,293],[-4,4]],[[1594,282],[0,11]],[[1590,199],[-6,9],[-8,15],[-3,10],[-3,17],[4,15],[4,2],[9,2],[7,5],[0,8]],[[1599,193],[-9,6]],[[1669,195],[-18,-4],[-25,-4],[-18,4],[-9,2]],[[2017,42],[-3,0],[-9,13],[-9,6],[-13,4],[-9,-2],[-9,2],[-21,7],[-17,2],[-10,4],[-6,6],[-8,11],[-7,4],[-17,2],[-19,0],[-12,5],[-9,4],[-11,8],[-7,13],[-11,26],[-10,4],[-14,11],[-10,0],[-20,-7],[-12,0],[-16,7],[-17,0],[-19,8],[-12,7],[-11,8]],[[2073,46],[-36,-2],[-20,-2]],[[2040,0],[0,1],[-7,15],[-11,15],[-5,11]],[[2145,0],[-22,23],[-21,21],[-9,2],[-20,0]],[[4096,2905],[0,-2905],[-2289,0],[-1807,0],[0,4096],[4096,0],[0,-1191]],[[65,165],[219,-21],[45,51],[-42,37],[-24,125],[24,127],[0,-112],[44,49],[23,-96],[31,-29],[87,37],[19,-16],[34,43],[57,14],[7,69],[-73,46],[22,51],[-49,37],[15,29],[81,11],[119,-434],[-21,-183],[-547,0],[-47,69],[-24,96]],[[1407,636],[23,6],[40,-57],[13,26],[26,-64],[50,-32],[23,-64],[24,3],[18,-99],[-66,64],[-34,86],[-96,30],[21,54],[-42,47]],[[3035,236],[-31,25],[-20,41],[70,-13],[-19,-53]],[[1320,472],[30,8],[30,-8],[-29,-41],[-31,41]],[[1597,331],[18,-49],[-35,-1],[-20,34],[37,16]],[[1195,701],[18,40],[-14,45],[33,7],[-4,-79],[-33,-13]],[[747,1247],[15,57],[71,38],[-42,16],[-15,44],[150,12],[-1,-83],[42,-55],[-14,-65],[29,-45],[-43,-35],[-59,68],[-9,-23],[-24,26],[-75,-1],[-25,46]]]}