{"objects":{"water":{"type":"GeometryCollection","geometries":[{"type":"MultiPolygon","properties":{"source":"naturalearthdata.com","kind":"playa","name":"Dasht-e Kavir","area":64982413312,"sort_rank":200,"min_zoom":0.0,"id":4},"arcs":[[[428]],[[429]],[[430]]]},{"type":"Polygon","properties":{"kind":"lake","name":"Aydar Ko\u0091l","area":3803178496,"sort_rank":200,"alkaline":true,"source":"naturalearthdata.com","min_zoom":0.0,"id":1328},"arcs":[[431]]},{"type":"Polygon","properties":{"source":"naturalearthdata.com","kind":"playa","name":"Kevir-e Namak","area":10328765440,"sort_rank":200,"min_zoom":0.0,"id":12},"arcs":[[432]]},{"type":"Polygon","properties":{"source":"naturalearthdata.com","kind":"playa","name":"Daqq-e Patergan","area":769031424,"sort_rank":200,"min_zoom":0.0,"id":35},"arcs":[[433]]},{"type":"Point","properties":{"label_placement":true,"kind":"playa","name":"Kevir-e Namak","area":10328765440,"sort_rank":200,"source":"naturalearthdata.com","min_zoom":0.0,"id":12},"coordinates":[1117,1166]},{"type":"Point","properties":{"label_placement":true,"kind":"lake","name":"Aydar Ko\u0091l","area":3803178496,"sort_rank":200,"alkaline":true,"source":"naturalearthdata.com","min_zoom":0.0,"id":1328},"coordinates":[4072,4005]},{"type":"Point","properties":{"label_placement":true,"kind":"playa","name":"Daqq-e Patergan","area":769031424,"sort_rank":200,"source":"naturalearthdata.com","min_zoom":0.0,"id":35},"coordinates":[1583,691]},{"type":"MultiLineString","properties":{"source":"naturalearthdata.com","kind":"playa","sort_rank":367,"boundary":true,"min_zoom":0.0,"id":4},"arcs":[[434],[435],[436],[437]]},{"type":"LineString","properties":{"source":"naturalearthdata.com","kind":"playa","sort_rank":367,"boundary":true,"min_zoom":0.0,"id":12},"arcs":[438]},{"type":"LineString","properties":{"source":"naturalearthdata.com","kind":"playa","sort_rank":367,"boundary":true,"min_zoom":0.0,"id":35},"arcs":[439]},{"type":"MultiLineString","properties":{"source":"naturalearthdata.com","kind":"lake","sort_rank":367,"alkaline":true,"boundary":true,"min_zoom":0.0,"id":1328},"arcs":[[440],[441],[442]]}]},"buildings":{"type":"GeometryCollection","geometries":[]},"places":{"type":"GeometryCollection","geometries":[{"type":"Point","properties":{"name:pt":"Afeganist\u00e3o","old_name:vi":"A Ph\u00fa H\u00e3n","name:ka":"\u10d0\u10d5\u10e6\u10d0\u10dc\u10d4\u10d7\u10d8","name:mt":"Afganistan","name:ko":"\uc544\ud504\uac00\ub2c8\uc2a4\ud0c4","name:kn":"\u0c85\u0cab\u0c98\u0cbe\u0ca8\u0cbf\u0cb8\u0ccd\u0ca5\u0cbe\u0ca8\u0ccd","name:km":"\u17a2\u17b6\u17a0\u17d2\u179c\u17a0\u17d2\u1782\u17b6\u1793\u17b8\u179f\u17d2\u1790\u17b6\u1793","name:kl":"Afghanistani","name:cs":"Afgh\u00e1nist\u00e1n","alt_name:eo":"Afganistano;Afganio","name:ki":"Afuganistani","name:tr":"Afganistan","name:ku":"Afxanistan","name:ti":"\u12a0\u134d\u130b\u1292\u1235\u1273\u1295","name:ks":"\u0627\u064e\u0641\u063a\u0627\u0646\u064e\u0633\u062a\u0627\u0646","name:to":"\u02bbAfik\u0101nisitani","name:tl":"Apganistan","name:sv":"Afghanistan","name:or":"\u0b06\u0b2b\u0b3e\u0b17\u0b3e\u0b28\u0b3f\u0b38\u0b4d\u0b24\u0b3e\u0b28\u0b4d","name:ce":"\u0410\u0444\u0433I\u0430\u043d\u0438\u0441\u0442\u0430\u043d","name:ta":"\u0b86\u0baa\u0bcd\u0b95\u0bbe\u0ba9\u0bbf\u0bb8\u0bcd\u0ba4\u0bbe\u0ba9\u0bcd","name:tg":"\u0410\u0444\u0493\u043e\u043d\u0438\u0441\u0442\u043e\u043d","name:ca":"Afganistan","name:te":"\u0c06\u0c2b\u0c4d\u0c18\u0c3e\u0c28\u0c3f\u0c38\u0c4d\u0c24\u0c3e\u0c28\u0c4d","name:vi":"Afghanistan","name:hu":"Afganiszt\u00e1n","name:ro":"Afganistan","name:cy":"Afghanistan","name:hr":"Afganistan","name:da":"Afghanistan","name:fr":"Afghanistan","name:de":"Afghanistan","name:dz":"\u0f68\u0f55\u0f0b\u0f42\u0fb7\u0f0b\u0f53\u0f72\u0f0b\u0f66\u0f4f\u0f71\u0f53","source":"openstreetmap.org","name:lv":"Afganist\u0101na","name:lt":"Afganistanas","name:uz":"Afg\u2019oniston","name:kk":"\u0410\u0443\u0493\u0430\u043d\u0441\u0442\u0430\u043d","name:he":"\u05d0\u05e4\u05d2\u05e0\u05d9\u05e1\u05d8\u05df","kind":"country","name:ha":"Afaganistan","name:la":"Afgania","name:lg":"Afaganisitani","name:uk":"\u0410\u0444\u0433\u0430\u043d\u0456\u0441\u0442\u0430\u043d","name:hy":"\u0531\u0586\u0572\u0561\u0576\u057d\u057f\u0561\u0576","min_zoom":2.0,"name:li":"Afganistan","name:ln":"Afiganisit\u00e1","name:lo":"\u0ead\u0eb1\u0e9a\u0e81\u0eb2\u0e99\u0eb4\u0eaa\u0eb0\u0e96\u0eb2\u0e99","population":32738376,"name:el":"\u0391\u03c6\u03b3\u03b1\u03bd\u03b9\u03c3\u03c4\u03ac\u03bd","name:eo":"Afganujo","name:en":"Afghanistan","name":"\u0627\u0641\u063a\u0627\u0646\u0633\u062a\u0627\u0646","name:is":"Afganistan","name:ee":"Afghanistan nutome","name:th":"\u0e1b\u0e23\u0e30\u0e40\u0e17\u0e28\u0e2d\u0e31\u0e1f\u0e01\u0e32\u0e19\u0e34\u0e2a\u0e16\u0e32\u0e19","name:eu":"Afganistan","name:et":"Afganistan","name:nl":"Afghanistan","name:es":"Afganist\u00e1n","name:ia":"Afghanistan","name:rm":"Afghanistan","name:rn":"Afuganisitani","name:az":"\u018ffqan\u0131stan","name:id":"Afganistan","name:ms":"Afghanistan","name:mr":"\u0905\u092b\u0917\u093e\u0923\u093f\u0938\u094d\u0924\u093e\u0928","name:as":"\u0986\u09ab\u0997\u09be\u09a8\u09bf\u09b8\u09cd\u09a4\u09be\u09a8","name:ar":"\u0623\u0641\u063a\u0627\u0646\u0633\u062a\u0627\u0646","name:my":"\u1021\u102c\u1016\u1002\u1014\u103a\u1014\u1005\u1039\u1005\u1010\u1014\u103a","name:io":"Afganistan","int_name":"Afghanistan","name:ak":"Afganistan","name:am":"\u12a0\u134d\u130b\u1292\u1235\u1273\u1295","name:it":"Afghanistan","name:an":"Afganist\u00e1n","name:ru":"\u0410\u0444\u0433\u0430\u043d\u0438\u0441\u0442\u0430\u043d","name:mn":"\u0410\u0444\u0433\u0430\u043d\u0438\u0441\u0442\u0430\u043d","name:pl":"Afganistan","name:mk":"\u0410\u0432\u0433\u0430\u043d\u0438\u0441\u0442\u0430\u043d","name:af":"Afghanistan","name:zu":"i-Afghanistan","name:nn":"Afghanistan","name:ff":"Afganistaan","name:fi":"Afganistan","name:hi":"\u0905\u092b\u093c\u0917\u093e\u0928\u093f\u0938\u094d\u0924\u093e\u0928","name:mg":"Afghanistan","id":26847706,"name:ba":"\u0410\u0444\u0493\u0430\u043d\u0441\u0442\u0430\u043d","name:fy":"Afganistan","name:vo":"Lafganist\u00e4n","name:zh":"\u963f\u5bcc\u6c57","name:gv":"Yn Afghanistaan","name:so":"Afgaanistaan","name:sn":"Afuganistani","name:sl":"Afganistan","name:sk":"Afganistan","name:ja":"\u30a2\u30d5\u30ac\u30cb\u30b9\u30bf\u30f3","name:si":"\u0d87\u0dc6\u0dca\u0d9c\u0db1\u0dd2\u0dc3\u0dca\u0dae\u0dcf\u0db1\u0dba","name:no":"Afghanistan","name:sg":"Fagan\u00efta, Afgan\u00efst\u00e4an","name:se":"Afghanistan","name:ne":"\u0905\u092b\u094d\u0917\u093e\u0928\u093f\u0937\u094d\u0924\u093e\u0928","name:br":"Afghanistan","name:bs":"Avganistan","name:bm":"Afiganista\u014b","name:bn":"\u0986\u09ab\u0997\u09be\u09a8\u09bf\u09b8\u09cd\u09a4\u09be\u09a8","name:bo":"\u0f68\u0f55\u0f0b\u0f42\u0f0b\u0f53\u0f72\u0f0b\u0f66\u0f9f\u0f71\u0f53\u0f0d","name:ml":"\u0d05\u0d2b\u0d4d\u0d17\u0d3e\u0d28\u0d3f\u0d38\u0d4d\u0d25\u0d3e\u0d7b","name:sw":"Afuganistani","name:be":"\u0410\u0444\u0433\u0430\u043d\u0456\u0441\u0442\u0430\u043d","name:bg":"\u0410\u0444\u0433\u0430\u043d\u0438\u0441\u0442\u0430\u043d","name:sr":"\u0410\u0432\u0433\u0430\u043d\u0438\u0441\u0442\u0430\u043d","name:sq":"Afganistan","name:ga":"An Afganast\u00e1in","name:gd":"Afganastan","name:gl":"Afganist\u00e1n","name:fo":"Afganistan","name:yo":"Or\u00edl\u1eb9\u0301\u00e8de \u00c0f\u00f9g\u00e0n\u00edst\u00e1n\u00ec","name:gu":"\u0a85\u0aab\u0a98\u0abe\u0aa8\u0abf\u0ab8\u0acd\u0aa4\u0abe\u0aa8"},"coordinates":[3637,824]},{"type":"Point","properties":{"name:ka":"\u10d7\u10e3\u10e0\u10e5\u10db\u10d4\u10dc\u10d4\u10d7\u10d8","name:ko":"\ud22c\ub974\ud06c\uba54\ub2c8\uc2a4\ud0c4","name:cv":"\u0422\u0443\u0440\u043a\u043c\u0435\u043d\u0438\u0441\u0442\u0430\u043d","name:km":"\u1791\u17bd\u1782\u1798\u17c1\u1793\u17b8\u179f\u17d2\u178f\u1784\u17cb","name:kl":"Turkmenistani","name:cs":"Turkmenist\u00e1n","name:ki":"Turukimenistani","name:co":"Turkmenistan","name:kv":"\u0422\u0443\u0440\u043a\u043c\u0435\u043d\u0438\u0441\u0442\u0430\u043d","name:ku":"Tirkmenistan","name:ti":"\u1271\u122d\u12ad\u121c\u1292\u1235\u1273\u1295","name:ks":"\u062a\u064f\u0631\u0645\u0650\u0646\u0650\u0633\u062a\u0627\u0646","name:to":"Tekimenisiteni","name:tl":"Turkmenistan","name:ta":"\u0ba4\u0bc1\u0bb0\u0bcd\u0b95\u0bcd\u0bae\u0bc6\u0ba9\u0bbf\u0bb8\u0bcd\u0ba4\u0bbe\u0ba9\u0bcd","name:tg":"\u0422\u0443\u0440\u043a\u043c\u0430\u043d\u0438\u0441\u0442\u043e\u043d","name:ca":"Turkmenistan","name:te":"\u0c24\u0c41\u0c30\u0c4d\u0c15\u0c2e\u0c46\u0c38\u0c4d\u0c24\u0c3e\u0c28\u0c4d","name:cy":"Tyrcmenistan","name:hr":"Turkmenistan","name:da":"Turkmenistan","name:de":"Turkmenistan","name:dz":"\u0f4a\u0f71\u0f62\u0f40\u0f0b\u0f58\u0f7a\u0f53\u0f60\u0f72\u0f0b\u0f66\u0f4f\u0f71\u0f53","source":"openstreetmap.org","name:kn":"\u0ca4\u0cc1\u0cb0\u0ccd\u0c95\u0cae\u0cc6\u0ca8\u0cbf\u0cb8\u0ccd\u0ca5\u0cbe\u0ca8\u0ccd","name:dv":"\u078c\u07aa\u0783\u07aa\u0786\u07aa\u0789\u07ac\u0782\u07a8\u0790\u07b0\u078c\u07a7\u0782\u07b0","name:lv":"Turkmenist\u0101na","name:lt":"Turkm\u0117nistanas","name:uz":"Turkmaniston","name:kk":"\u0422\u04af\u0440\u0456\u043a\u043c\u0435\u043d\u0441\u0442\u0430\u043d","name:ur":"\u062a\u0631\u06a9\u0645\u0627\u0646\u0633\u062a\u0627\u0646","name:la":"Turcomannia","name:lg":"Takimenesitaani","name:uk":"\u0422\u0443\u0440\u043a\u043c\u0435\u043d\u0456\u0441\u0442\u0430\u043d","name:ug":"\u062a\u06c8\u0631\u0643\u0645\u06d5\u0646\u0649\u0633\u062a\u0627\u0646","name:li":"Turkmenistan","name:ln":"Tik\u025bm\u00e9nisit\u00e1","name:lo":"\u0ec0\u0e95\u0ea3\u0eb5\u0e81\u0ec0\u0ea1\u0e99\u0eb4\u0eaa\u0eb0\u0e96\u0eb2\u0e99","name:el":"\u03a4\u03bf\u03c5\u03c1\u03ba\u03bc\u03b5\u03bd\u03b9\u03c3\u03c4\u03ac\u03bd","name:eo":"Turkmenujo","name:en":"Turkmenistan","name":"T\u00fcrkmenistan","name:ee":"T\u025bkmenistan nutome","name:th":"\u0e1b\u0e23\u0e30\u0e40\u0e17\u0e28\u0e40\u0e15\u0e34\u0e23\u0e4c\u0e01\u0e40\u0e21\u0e19\u0e34\u0e2a\u0e16\u0e32\u0e19","name:eu":"Turkmenistan","name:es":"Turkmenist\u00e1n","name:ia":"Turkmenistan","name:rm":"Turkmenistan","name:rn":"Turukumenisitani","name:az":"T\u00fcrkm\u0259nistan","name:ie":"Turkmenistan","name:id":"Turkmenistan","name:ar":"\u062a\u0631\u0643\u0645\u0627\u0646\u0633\u062a\u0627\u0646","name:io":"Turkmenistan","name:av":"\u0422\u0443\u0440\u043a\u043c\u0435\u043d\u0438\u0441\u0442\u0430\u043d","name:ak":"T\u025bkm\u025bnistan","name:am":"\u1271\u122d\u12ad\u121c\u1292\u1235\u1273\u1295","name:it":"Turkmenistan","name:an":"Turkmenist\u00e1n","name:ru":"\u0422\u0443\u0440\u043a\u043c\u0435\u043d\u0438\u044f","name:rw":"Turukimenisitani","name:pl":"Turkmenistan","name:af":"Turkmenistan","name:zu":"i-Turkmenistan","name:ky":"\u0422\u04af\u0440\u043a\u043c\u04e9\u043d\u0441\u0442\u0430\u043d","name:zh-yue":"\u571f\u5eab\u66fc","name:zh":"\u571f\u5e93\u66fc\u65af\u5766","name:so":"Turkmenistan","name:sn":"Turkmenistan","name:sl":"Turkmenistan","name:sk":"Turkm\u00e9nsko","name:ja":"\u30c8\u30eb\u30af\u30e1\u30cb\u30b9\u30bf\u30f3","name:si":"\u0dad\u0dd4\u0dbb\u0dca\u0d9a\u0dca\u0db8\u0dd9\u0db1\u0dd2\u0dc3\u0dca\u0dae\u0dcf\u0db1\u0dba","name:sh":"Turkmenistan","name:sg":"Turkumenist\u00e4an","name:se":"Turkmenistan","name:sa":"\u0924\u0941\u0930\u094d\u0915\u092e\u093f\u0928\u093f\u0938\u094d\u0925\u093e\u0928","name:bs":"Turkmenistan","name:bm":"Turikimenisitani","name:bn":"\u09a4\u09c1\u09b0\u09cd\u0995\u09ae\u09c7\u09a8\u09bf\u09af\u09bc\u09be","name:bo":"\u0f4f\u0f74\u0f62\u0f40\u0f0b\u0f58\u0f7a\u0f0b\u0f53\u0f72\u0f0b\u0f66\u0f74\u0f4f\u0f53\u0f0d","name:br":"Turkmenistan","name:sw":"Turukimenistani","name:be":"\u0422\u0443\u0440\u043a\u043c\u0435\u043d\u0456\u0441\u0442\u0430\u043d","name:su":"Turkm\u00e9nistan","name:bg":"\u0422\u0443\u0440\u043a\u043c\u0435\u043d\u0438\u0441\u0442\u0430\u043d","name:ss":"IThumekhi","name:ba":"\u0422\u04e9\u0440\u04e9\u043a\u043c\u04d9\u043d\u0441\u0442\u0430\u043d","name:sq":"Turkmenistani","name:jv":"Turkmenistan","name:pt":"Turcomenist\u00e3o","name:ps":"\u062a\u0631\u06a9\u0645\u0646\u0633\u062a\u0627\u0646","name:oc":"Turcmenistan","min_zoom":2.0,"name:ro":"Turkmenistan","name:zh-min-nan":"Turkmenistan","name:os":"\u0422\u0443\u0440\u043a\u043c\u0435\u043d\u0438","name:or":"\u0b24\u0b41\u0b30\u0b4d\u0b15\u0b2e\u0b47\u0b28\u0b3f\u0b38\u0b4d\u0b24\u0b3e\u0b28\u0b4d","alt_name:pt":"Turquemenist\u00e3o","name:sr":"\u0422\u0443\u0440\u043a\u043c\u0435\u043d\u0438\u0441\u0442\u0430\u043d","name:pa":"\u0a24\u0a41\u0a30\u0a15\u0a2e\u0a47\u0a28\u0a38\u0a24\u0a3e\u0a28","name:hi":"\u0924\u0941\u0930\u094d\u0915\u092e\u0947\u0928\u093f\u0938\u094d\u0924\u093e\u0928","name:sv":"Turkmenistan","name:he":"\u05d8\u05d5\u05e8\u05e7\u05de\u05e0\u05d9\u05e1\u05d8\u05df","name:ha":"Turkumenistan","name:hy":"\u0539\u0578\u0582\u0580\u0584\u0574\u0565\u0576\u057d\u057f\u0561\u0576","name:ht":"Tirkmenistan","name:hu":"T\u00fcrkmeniszt\u00e1n","name:qu":"Turkminsuyu","population":5110023,"kind":"country","name:is":"T\u00farkmenistan","name:yi":"\u05d8\u05d5\u05e8\u05e7\u05de\u05e2\u05e0\u05d9\u05e1\u05d8\u05d0\u05df","name:yo":"Or\u00edl\u1eb9\u0301\u00e8de T\u1ecd\u1ecdkimenisita","name:mt":"Turkmenistan","alt_name:eo":"Turkmenistano;Turkmenio","name:ms":"Turkmenistan","name:mr":"\u0924\u0941\u0930\u094d\u0915\u092e\u0947\u0928\u093f\u0938\u094d\u0924\u093e\u0928","name:my":"\u1010\u102c\u1037\u1001\u103a\u1019\u1004\u103a\u1014\u1005\u1039\u1005\u1010\u1014\u103a\u1014\u102d\u102f\u1004\u103a\u1004\u1036","name:kw":"Pow Turkmen","name:mg":"Torkmenistan","name:ml":"\u0d24\u0d41\u0d7c\u0d15\u0d4d\u0d15\u0d4d\u0d2e\u0d46\u0d28\u0d3f\u0d38\u0d4d\u0d25\u0d3e\u0d7b","name:vi":"Turkmenistan","name:mn":"\u0422\u0443\u0440\u043a\u043c\u0435\u043d\u0438\u0441\u0442\u0430\u043d","id":249399440,"name:mk":"\u0422\u0443\u0440\u043a\u043c\u0435\u043d\u0438\u0441\u0442\u0430\u043d","name:vo":"Turkmen\u00e4n","name:fa":"\u062a\u0631\u06a9\u0645\u0646\u0633\u062a\u0627\u0646","name:ff":"Turkmenistaan","name:fi":"Turkmenistan","name:fo":"Turkmenistan","name:fr":"Turkm\u00e9nistan","name:fy":"Turkmenistan","int_name":"Turkmenistan","name:nl":"Turkmenistan","name:nn":"Turkmenistan","name:no":"Turkmenistan","name:na":"Turkmenistan","name:ne":"\u0924\u0941\u0930\u094d\u0915\u092e\u0947\u0928\u093f\u0938\u094d\u0924\u093e\u0928","name:wo":"Turkumenistaan","name:nv":"T\u02bc\u00f3okmen Bik\u00e9yah","name:ga":"An Tuircm\u00e9anast\u00e1in","name:gd":"Turcmanast\u00e0n","name:gl":"Turkmenist\u00e1n","name:gv":"Yn Turkmenistaan","name:gu":"\u0aa4\u0ac1\u0ab0\u0acd\u0a95\u0acd\u0aae\u0aa8\u0abf\u0ab8\u0acd\u0aa4\u0abe\u0aa8","name:tt":"\u0422\u04e9\u0440\u0435\u043a\u043c\u04d9\u043d\u0441\u0442\u0430\u043d"},"coordinates":[1144,3368]},{"type":"Point","properties":{"source":"naturalearthdata.com","kind":"locality","name":"Mashhad","population":2469000,"region_capital":true,"min_zoom":4.0,"id":7197},"coordinates":[1208,1960]},{"type":"Point","properties":{"kind":"region","name:en":"Samarkand Province","name":"Samarqand Viloyati","kind_detail":"state","name:de":"Provinz Samarkand","source":"openstreetmap.org","min_zoom":4.0,"name:ru":"\u0421\u0430\u043c\u0430\u0440\u043a\u0430\u043d\u0434\u0441\u043a\u0430\u044f \u043e\u0431\u043b\u0430\u0441\u0442\u044c","name:hu":"Szamarkandi vilajet","id":309346346,"population":2322000},"coordinates":[3597,3531]},{"type":"Point","properties":{"kind":"region","name:en":"Qashqadaryo province","name":"Qashqadaryo Viloyati","name:uz":"\u049a\u0430\u0448\u049b\u0430\u0434\u0430\u0440\u0451 \u0432\u0438\u043b\u043e\u044f\u0442\u0438","kind_detail":"state","name:de":"Provinz Qashqadaryo","source":"openstreetmap.org","min_zoom":4.0,"name:ru":"\u041a\u0430\u0448\u043a\u0430\u0434\u0430\u0440\u044c\u0438\u043d\u0441\u043a\u0430\u044f \u043e\u0431\u043b\u0430\u0441\u0442\u044c","name:hu":"Kaskadarjai vilajet","id":309346354,"population":2029000},"coordinates":[3379,3000]},{"type":"Point","properties":{"name:fa":"\u0633\u0631\u062e\u0627\u0646\u200c\u062f\u0631","kind":"region","name:en":"Surxondaryo Province","name":"Surxondaryo Viloyati","name:uz":"\u0421\u0443\u0440\u0445\u043e\u043d\u0434\u0430\u0440\u0451 \u0432\u0438\u043b\u043e\u044f\u0442\u0438","kind_detail":"state","name:de":"Provinz Surxondaryo","source":"openstreetmap.org","min_zoom":4.0,"name:ru":"\u0421\u0443\u0440\u0445\u0430\u043d\u0434\u0430\u0440\u044c\u0438\u043d\u0441\u043a\u0430\u044f \u043e\u0431\u043b\u0430\u0441\u0442\u044c","name:hu":"Szurkandarjai vilajet","id":309346350,"population":1676000},"coordinates":[3960,2722]},{"type":"Point","properties":{"kind":"region","name:en":"Bukhara Province","name":"Buxoro Viloyati","name:uz":"\u0411\u0443\u0445\u043e\u0440\u043e \u0432\u0438\u043b\u043e\u044f\u0442\u0438","kind_detail":"state","name:de":"Provinz Buchara","source":"openstreetmap.org","min_zoom":4.0,"name:ru":"\u0411\u0443\u0445\u0430\u0440\u0441\u043a\u0430\u044f \u043e\u0431\u043b\u0430\u0441\u0442\u044c","name:hu":"Buharai vilajet","id":309346337,"population":1384700},"coordinates":[2657,3755]},{"type":"Point","properties":{"kind":"region","name:en":"Herat","name":"\u0647\u0631\u0627\u062a","kind_detail":"state","min_zoom":4.0,"name:de":"Herat","source":"openstreetmap.org","name:fr":"H\u00e9r\u00e2t","name:uk":"\u0413\u0435\u0440\u0430\u0442","population":1182000,"name:ru":"\u0413\u0435\u0440\u0430\u0442","name:hu":"Her\u00e1t","id":312470046,"name:ja":"\u30d8\u30e9\u30fc\u30c8\u5dde"},"coordinates":[2199,1001]},{"type":"Point","properties":{"kind":"region","name:en":"Jizzakh Province","name":"Jizzax Viloyati","name:uz":"\u0416\u0438\u0437\u0437\u0430\u0445 \u0432\u0438\u043b\u043e\u044f\u0442\u0438","kind_detail":"state","name:de":"Provinz Jizzax","source":"openstreetmap.org","min_zoom":4.0,"name:ru":"\u0414\u0436\u0438\u0437\u0430\u043a\u0441\u043a\u0430\u044f \u043e\u0431\u043b\u0430\u0441\u0442\u044c","name:hu":"Dzsizaki vilajet","id":309346342,"population":910500},"coordinates":[4080,3802]},{"type":"Point","properties":{"kind":"region","name:en":"Faryab","name":"\u0641\u0627\u0631\u064a\u0627\u0628","kind_detail":"state","min_zoom":4.0,"name:de":"Faryab","source":"openstreetmap.org","name:fr":"F\u00e2ry\u00e2b","name:uk":"\u0424\u0430\u0440'\u044f\u0431","population":858600,"name:ru":"\u0424\u0430\u0440\u044c\u044f\u0431","name:pl":"Farjab","name:hu":"F\u00e1rj\u00e1b","id":312470061,"name:ja":"\u30d5\u30a1\u30fc\u30ea\u30e4\u30fc\u30d6\u5dde"},"coordinates":[3049,1803]},{"type":"Point","properties":{"kind":"region","name:en":"Gh\u014dr","name":"\u063a\u0648\u0631","kind_detail":"state","min_zoom":4.0,"name:de":"Ghor","source":"openstreetmap.org","name:fr":"Gh\u00f4r","name:uk":"\u0413\u043e\u0440","population":485000,"name:ru":"\u0413\u043e\u0440","name:hu":"Gor","id":312470043,"name:ja":"\u30b4\u30fc\u30eb\u5dde"},"coordinates":[3157,1002]},{"type":"Point","properties":{"kind":"region","name:en":"Jowzjan","name":"\u062c\u0648\u0632\u062c\u0627\u0646","kind_detail":"state","min_zoom":4.0,"name:de":"Dschuzdschan","source":"openstreetmap.org","name:fr":"Dj\u00f4zdj\u00e2n","name:uk":"\u0414\u0436\u0430\u0443\u0437\u0434\u0436\u0430\u043d","population":441000,"name:ru":"\u0414\u0436\u0430\u0443\u0437\u0434\u0436\u0430\u043d","name:pl":"D\u017cozd\u017can","name:hu":"Dzsuzdzs\u00e1n","id":312470042,"name:ja":"\u30b8\u30e7\u30a6\u30ba\u30b8\u30e3\u30fc\u30f3\u5dde"},"coordinates":[3534,2275]},{"type":"Point","properties":{"int_name":"Daikundi;D\u0101ykond\u012b;Daykundi","name:ps":"\u062f\u0627\u064a\u06a9\u0646\u062f\u064a \u0648\u0644\u0627\u064a\u062a","min_zoom":4.0,"name:uk":"\u0414\u0430\u0439\u043a\u0443\u043d\u0434\u0456","name:ru":"\u0414\u0430\u0439\u043a\u0443\u043d\u0434\u0438","name:pl":"Dajkondi","name:hu":"D\u00e1jkondi","id":2278857601,"name:ja":"\u30c0\u30fc\u30a4\u30af\u30f3\u30c7\u30a3\u30fc\u5dde","kind":"region","name:en":"Daykundi","name":"\u062f\u0627\u06cc\u06a9\u0646\u062f\u06cc","kind_detail":"state","name:de":"Daikondi","source":"openstreetmap.org","name:fr":"Deykandi","population":438500},"coordinates":[3630,804]},{"type":"Point","properties":{"kind":"region","name:en":"Farah","name":"\u0641\u0631\u0627\u0647","kind_detail":"state","min_zoom":4.0,"name:de":"Farah","source":"openstreetmap.org","name:fr":"Far\u00e2h","name:uk":"\u0424\u0430\u0440\u0430\u0445","population":438000,"name:ru":"\u0424\u0430\u0440\u0430\u0445","name:hu":"Fer\u00e1h","id":312470032,"name:ja":"\u30d5\u30a1\u30e9\u30fc\u5dde"},"coordinates":[2338,297]},{"type":"Point","properties":{"kind":"region","name:en":"Badghis","name":"\u0628\u0627\u062f\u063a\u06cc\u0633","kind_detail":"state","min_zoom":4.0,"name:de":"Badghis","source":"openstreetmap.org","name:fr":"B\u00e2dgh\u00ees","name:uk":"\u0411\u0430\u0434\u0433\u0456\u0441","population":429500,"name:ru":"\u0411\u0430\u0434\u0433\u0438\u0441","name:hu":"B\u00e1dgis","id":312470036,"name:ja":"\u30d0\u30fc\u30c9\u30ae\u30fc\u30b9\u5dde"},"coordinates":[2731,1383]},{"type":"Point","properties":{"kind":"region","name:en":"Uruzgan","name":"\u0627\u0631\u0648\u0632\u06af\u0627\u0646","kind_detail":"state","min_zoom":4.0,"name:de":"Urusgan","source":"openstreetmap.org","name:fr":"Orozg\u00e2n","name:uk":"\u0423\u0440\u0443\u0437\u0433\u0430\u043d","population":428000,"name:ru":"\u0423\u0440\u0443\u0437\u0433\u0430\u043d","name:pl":"Oruzgan","name:hu":"Uruzg\u00e1n","id":312470035,"name:ja":"\u30a6\u30eb\u30fc\u30ba\u30ac\u30fc\u30f3\u5dde"},"coordinates":[3557,391]},{"type":"Point","properties":{"name:fa":"\u0645\u0631\u0648","kind":"region","name":"Mary","kind_detail":"state","source":"openstreetmap.org","min_zoom":4.0,"name:ru":"\u041c\u0430\u0440\u044b","name:hu":"Mary tartom\u00e1ny","id":677412019},"coordinates":[2240,2349]},{"type":"Point","properties":{"name:fa":"\u0644\u0628\u0627\u0628","kind":"region","name":"Lebap","kind_detail":"state","source":"openstreetmap.org","min_zoom":4.0,"name:ru":"\u041b\u0435\u0431\u0430\u043f","name:hu":"Lebap tartom\u00e1ny","id":677412015},"coordinates":[2476,3113]},{"type":"Point","properties":{"name:ja":"\u30e9\u30b6\u30f4\u30a3\u30fc\u30fb\u30db\u30e9\u30fc\u30b5\u30fc\u30f3","min_zoom":4.0,"name:uk":"\u0425\u043e\u0440\u0430\u0441\u0430\u043d-\u0420\u0435\u0437\u0430\u0432\u0456","name:ru":"\u0425\u043e\u0440\u0430\u0441\u0430\u043d-\u0420\u0435\u0437\u0430\u0432\u0438","name:pl":"Chorasan-e Rezawi","name:hu":"Razavi Hor\u00e1sz\u00e1n","name:hr":"Razavi Horasan","id":475731866,"kind":"region","name:en":"Razavi Khorasan","name":"\u062e\u0631\u0627\u0633\u0627\u0646 \u0631\u0636\u0648\u06cc","kind_detail":"state","name:ku":"Xorasana Rezew\u00ee","name:de":"Razavi-Chorasan","source":"openstreetmap.org","name:fr":"Khorasan-e-Razavi"},"coordinates":[1261,1843]},{"type":"Point","properties":{"name:ja":"\u5317\u30db\u30e9\u30fc\u30b5\u30fc\u30f3","min_zoom":4.0,"name:uk":"\u041f\u0456\u0432\u043d\u0456\u0447\u043d\u0438\u0439 \u0425\u043e\u0440\u0430\u0441\u0430\u043d","name:ru":"\u0421\u0435\u0432\u0435\u0440\u043d\u044b\u0439 \u0425\u043e\u0440\u0430\u0441\u0430\u043d","name:pl":"Chorasan P\u00f3\u0142nocny","name:hu":"\u00c9szak-Hor\u00e1sz\u00e1n","name:hr":"Sjeverni Horasan","id":475733367,"kind":"region","name:en":"North Khorasan","name":"\u062e\u0631\u0627\u0633\u0627\u0646 \u0634\u0645\u0627\u0644\u06cc","kind_detail":"state","name:ku":"Xorasana Bakur","name:de":"Nord-Chorasan","source":"openstreetmap.org","name:fr":"Khorasan septentrional"},"coordinates":[256,2534]},{"type":"Point","properties":{"name:fa":"\u0622\u062e\u0627\u0644","kind":"region","name":"Ahal","kind_detail":"state","source":"openstreetmap.org","min_zoom":4.0,"name:ru":"\u0410\u0445\u0430\u043b","name:hu":"Ahal tartom\u00e1ny","id":677412018},"coordinates":[951,3125]},{"type":"Point","properties":{"kind":"region","name:en":"Balkh","name":"\u0628\u0644\u062e","kind_detail":"state","min_zoom":4.0,"name:de":"Balch","source":"openstreetmap.org","name:fr":"Balkh","name:uk":"\u0411\u0430\u043b\u0445","name:ru":"\u0411\u0430\u043b\u0445","name:pl":"Balch","name:hu":"Balh","id":312470038,"name:ja":"\u30d0\u30eb\u30d5\u5dde"},"coordinates":[4000,2199]},{"type":"Point","properties":{"kind":"region","name:en":"Zabul","name":"\u0632\u0627\u0628\u0644","kind_detail":"state","min_zoom":4.0,"name:de":"Zabul","source":"openstreetmap.org","name:fr":"Zaboul","name:uk":"\u0417\u0430\u0431\u0443\u043b\u044c","name:ru":"\u0417\u0430\u0431\u0443\u043b\u044c","name:pl":"Zabol","name:hu":"Z\u00e1bol","id":312470054,"name:ja":"\u30b6\u30fc\u30d6\u30eb\u5dde"},"coordinates":[3961,161]},{"type":"Point","properties":{"kind":"region","name:en":"Sar-e Pol","name":"\u0633\u0631\u067e\u0644","kind_detail":"state","min_zoom":4.0,"name:de":"Sar-i Pul","source":"openstreetmap.org","name:fr":"Sar-\u00e9 Pol","name:uk":"\u0421\u0430\u0440\u0456-\u041f\u0443\u043b\u044c","name:ru":"\u0421\u0430\u0440\u0438-\u041f\u0443\u043b\u044c","name:hu":"Szar-e Pol","id":312470057,"name:ja":"\u30b5\u30fc\u30ec\u30dd\u30eb\u5dde"},"coordinates":[3638,1634]},{"type":"Point","properties":{"kind":"region","name:en":"Bamyan","name":"\u0628\u0627\u0645\u06cc\u0627\u0646\u200e","kind_detail":"state","min_zoom":4.0,"name:de":"Bamiyan","source":"openstreetmap.org","name:fr":"B\u00e2miy\u00e2n","name:uk":"\u0411\u0430\u043c\u0456\u0430\u043d","name:ru":"\u0411\u0430\u043c\u0438\u0430\u043d","name:pl":"Bamian","name:hu":"B\u00e1mj\u00e1n","id":312470062,"name:ja":"\u30d0\u30fc\u30df\u30e4\u30fc\u30f3\u5dde"},"coordinates":[4005,1269]},{"type":"Point","properties":{"name:ja":"\u5357\u30db\u30e9\u30fc\u30b5\u30fc\u30f3","min_zoom":4.0,"name:uk":"\u041f\u0456\u0432\u0434\u0435\u043d\u043d\u0438\u0439 \u0425\u043e\u0440\u0430\u0441\u0430\u043d","name:ru":"\u042e\u0436\u043d\u044b\u0439 \u0425\u043e\u0440\u0430\u0441\u0430\u043d","name:pl":"Chorasan Po\u0142udniowy","name:hu":"D\u00e9l-Hor\u00e1sz\u00e1n","name:hr":"Ju\u017eni Horasan","id":480250680,"kind":"region","name:en":"South Khorasan","name":"\u062e\u0631\u0627\u0633\u0627\u0646 \u062c\u0646\u0648\u0628\u06cc","kind_detail":"state","name:ku":"Xorasana Ba\u015f\u00fbr","name:de":"S\u00fcd-Chorasan","source":"openstreetmap.org","name:fr":"Khorasan m\u00e9ridional"},"coordinates":[1224,197]},{"type":"Point","properties":{"source":"naturalearthdata.com","kind":"locality","name":"Ashgabat","country_capital":true,"population":727700,"min_zoom":5.0,"id":6817},"coordinates":[777,2721]},{"type":"Point","properties":{"source":"naturalearthdata.com","kind":"locality","name":"Samarqand","population":708000,"region_capital":true,"min_zoom":5.0,"id":6818},"coordinates":[3894,3502]},{"type":"Point","properties":{"source":"naturalearthdata.com","kind":"locality","name":"Herat","population":481009,"region_capital":true,"min_zoom":5.0,"id":6707},"coordinates":[2155,1079]},{"type":"Point","properties":{"source":"naturalearthdata.com","kind":"locality","name":"Mazar-e Sharif","population":458151,"region_capital":true,"min_zoom":5.0,"id":6708},"coordinates":[3950,2154]},{"type":"Point","properties":{"source":"naturalearthdata.com","kind":"locality","name":"Bukhara","population":319476,"region_capital":true,"min_zoom":5.0,"id":6271},"coordinates":[2978,3552]},{"type":"Point","properties":{"source":"naturalearthdata.com","kind":"locality","name":"Turkmenabat","population":234817,"region_capital":true,"min_zoom":5.0,"id":6273},"coordinates":[2669,3248]},{"type":"Point","properties":{"source":"naturalearthdata.com","kind":"locality","name":"Mary","population":178708,"region_capital":true,"min_zoom":5.0,"id":6274},"coordinates":[2033,2563]}]},"transit":{"type":"GeometryCollection","geometries":[]},"pois":{"type":"GeometryCollection","geometries":[]},"boundaries":{"type":"GeometryCollection","geometries":[{"type":"MultiLineString","properties":{"source":"naturalearthdata.com","kind":"country","sort_rank":262,"kind_detail":"2","min_zoom":0.0,"id":249},"arcs":[[0],[1],[2],[3],[4]]},{"type":"MultiLineString","properties":{"source":"naturalearthdata.com","kind":"country","sort_rank":262,"kind_detail":"2","min_zoom":0.0,"id":246},"arcs":[[5],[6],[7],[8],[9]]},{"type":"MultiLineString","properties":{"source":"naturalearthdata.com","kind":"country","sort_rank":262,"kind_detail":"2","min_zoom":0.0,"id":248},"arcs":[[10],[11],[12],[13],[14],[15],[16],[17],[18],[19],[20],[21],[22],[23],[24],[25],[26],[27],[28],[29],[30],[31],[32],[33],[34]]},{"type":"MultiLineString","properties":{"source":"naturalearthdata.com","kind":"country","sort_rank":262,"kind_detail":"2","min_zoom":0.0,"id":326},"arcs":[[35],[36],[37],[38],[39]]},{"type":"MultiLineString","properties":{"source":"naturalearthdata.com","kind":"country","sort_rank":262,"kind_detail":"2","min_zoom":0.0,"id":324},"arcs":[[40],[41],[42],[43],[44]]},{"type":"MultiLineString","properties":{"source":"naturalearthdata.com","kind":"country","sort_rank":262,"kind_detail":"2","min_zoom":0.0,"id":325},"arcs":[[45],[46],[47],[48],[49],[50],[51],[52],[53],[54],[55],[56],[57],[58],[59],[60],[61],[62],[63],[64],[65],[66],[67],[68],[69],[70],[71],[72]]},{"type":"MultiLineString","properties":{"source":"naturalearthdata.com","kind":"region","sort_rank":256,"kind_detail":"4","min_zoom":5.5,"id":5312},"arcs":[[73],[74],[75],[76],[77],[78],[79]]},{"type":"MultiLineString","properties":{"source":"naturalearthdata.com","kind":"region","sort_rank":256,"kind_detail":"4","min_zoom":5.5,"id":5315},"arcs":[[80],[81],[82],[83],[84]]},{"type":"MultiLineString","properties":{"source":"naturalearthdata.com","kind":"region","sort_rank":256,"kind_detail":"4","min_zoom":5.0,"id":819},"arcs":[[85],[86],[87]]},{"type":"MultiLineString","properties":{"source":"naturalearthdata.com","kind":"region","sort_rank":256,"kind_detail":"4","min_zoom":5.0,"id":821},"arcs":[[88],[89]]},{"type":"MultiLineString","properties":{"source":"naturalearthdata.com","kind":"region","sort_rank":256,"kind_detail":"4","min_zoom":5.0,"id":822},"arcs":[[90],[91],[92],[93],[94],[95],[96],[97],[98],[99],[100],[101],[102]]},{"type":"LineString","properties":{"source":"naturalearthdata.com","kind":"region","sort_rank":256,"kind_detail":"4","min_zoom":5.0,"id":823},"arcs":[103]},{"type":"LineString","properties":{"source":"naturalearthdata.com","kind":"region","sort_rank":256,"kind_detail":"4","min_zoom":5.0,"id":826},"arcs":[104]},{"type":"LineString","properties":{"source":"naturalearthdata.com","kind":"region","sort_rank":256,"kind_detail":"4","min_zoom":5.0,"id":833},"arcs":[105]},{"type":"MultiLineString","properties":{"source":"naturalearthdata.com","kind":"region","sort_rank":256,"kind_detail":"4","min_zoom":5.0,"id":834},"arcs":[[106],[107],[108],[109],[110],[111],[112],[113],[114]]},{"type":"MultiLineString","properties":{"source":"naturalearthdata.com","kind":"region","sort_rank":256,"kind_detail":"4","min_zoom":5.0,"id":835},"arcs":[[115],[116],[117],[118],[119],[120],[121],[122],[123],[124],[125],[126]]},{"type":"LineString","properties":{"source":"naturalearthdata.com","kind":"region","sort_rank":256,"kind_detail":"4","min_zoom":5.0,"id":836},"arcs":[127]},{"type":"MultiLineString","properties":{"source":"naturalearthdata.com","kind":"region","sort_rank":256,"kind_detail":"4","min_zoom":5.0,"id":837},"arcs":[[128],[129],[130],[131],[132],[133],[134],[135],[136],[137],[138],[139]]},{"type":"MultiLineString","properties":{"source":"naturalearthdata.com","kind":"region","sort_rank":256,"kind_detail":"4","min_zoom":5.0,"id":1004},"arcs":[[140],[141]]},{"type":"MultiLineString","properties":{"source":"naturalearthdata.com","kind":"region","sort_rank":256,"kind_detail":"4","min_zoom":5.0,"id":1005},"arcs":[[142],[143],[144],[145],[146],[147],[148],[149],[150],[151],[152],[153],[154]]},{"type":"MultiLineString","properties":{"source":"naturalearthdata.com","kind":"region","sort_rank":256,"kind_detail":"4","min_zoom":5.0,"id":1006},"arcs":[[155],[156],[157],[158]]},{"type":"LineString","properties":{"source":"naturalearthdata.com","kind":"region","sort_rank":256,"kind_detail":"4","min_zoom":5.0,"id":1457},"arcs":[159]},{"type":"MultiLineString","properties":{"source":"naturalearthdata.com","kind":"region","sort_rank":256,"kind_detail":"4","min_zoom":5.0,"id":1458},"arcs":[[160],[161],[162],[163],[164],[165],[166]]},{"type":"MultiLineString","properties":{"source":"naturalearthdata.com","kind":"region","sort_rank":256,"kind_detail":"4","min_zoom":5.0,"id":1459},"arcs":[[167],[168],[169],[170],[171],[172],[173],[174],[175],[176],[177],[178]]},{"type":"LineString","properties":{"source":"naturalearthdata.com","kind":"region","sort_rank":256,"kind_detail":"4","min_zoom":5.0,"id":1460},"arcs":[179]},{"type":"MultiLineString","properties":{"source":"naturalearthdata.com","kind":"region","sort_rank":256,"kind_detail":"4","min_zoom":5.5,"id":5256},"arcs":[[180],[181],[182]]},{"type":"MultiLineString","properties":{"source":"naturalearthdata.com","kind":"region","sort_rank":256,"kind_detail":"4","min_zoom":5.5,"id":5268},"arcs":[[183],[184]]},{"type":"LineString","properties":{"source":"naturalearthdata.com","kind":"region","sort_rank":256,"kind_detail":"4","min_zoom":5.5,"id":5270},"arcs":[185]},{"type":"MultiLineString","properties":{"source":"naturalearthdata.com","kind":"region","sort_rank":256,"kind_detail":"4","min_zoom":5.5,"id":5271},"arcs":[[186],[187],[188],[189]]},{"type":"MultiLineString","properties":{"source":"naturalearthdata.com","kind":"region","sort_rank":256,"kind_detail":"4","min_zoom":5.5,"id":5277},"arcs":[[190],[191],[192],[193],[194],[195]]},{"type":"MultiLineString","properties":{"source":"naturalearthdata.com","kind":"region","sort_rank":256,"kind_detail":"4","min_zoom":5.5,"id":5278},"arcs":[[196],[197],[198]]},{"type":"MultiLineString","properties":{"source":"naturalearthdata.com","kind":"region","sort_rank":256,"kind_detail":"4","min_zoom":5.5,"id":5279},"arcs":[[199],[200],[201],[202],[203],[204],[205]]},{"type":"MultiLineString","properties":{"source":"naturalearthdata.com","kind":"region","sort_rank":256,"kind_detail":"4","min_zoom":5.5,"id":5280},"arcs":[[206],[207],[208],[209],[210],[211],[212],[213],[214],[215]]},{"type":"LineString","properties":{"source":"naturalearthdata.com","kind":"region","sort_rank":256,"kind_detail":"4","min_zoom":5.5,"id":5286},"arcs":[216]},{"type":"MultiLineString","properties":{"source":"naturalearthdata.com","kind":"region","sort_rank":256,"kind_detail":"4","min_zoom":5.5,"id":5288},"arcs":[[217],[218],[219],[220]]},{"type":"LineString","properties":{"source":"naturalearthdata.com","kind":"region","sort_rank":256,"kind_detail":"4","min_zoom":5.5,"id":5289},"arcs":[221]},{"type":"MultiLineString","properties":{"source":"naturalearthdata.com","kind":"region","sort_rank":256,"kind_detail":"4","min_zoom":5.5,"id":5291},"arcs":[[222],[223],[224]]},{"type":"MultiLineString","properties":{"source":"naturalearthdata.com","kind":"region","sort_rank":256,"kind_detail":"4","min_zoom":5.5,"id":5292},"arcs":[[225],[226],[227],[228],[229],[230],[231],[232],[233],[234],[235],[236],[237],[238],[239],[240]]},{"type":"MultiLineString","properties":{"source":"naturalearthdata.com","kind":"region","sort_rank":256,"kind_detail":"4","min_zoom":5.5,"id":5293},"arcs":[[241],[242],[243],[244],[245],[246]]},{"type":"MultiLineString","properties":{"source":"naturalearthdata.com","kind":"region","sort_rank":256,"kind_detail":"4","min_zoom":5.5,"id":5294},"arcs":[[247],[248],[249],[250],[251],[252],[253],[254],[255],[256]]},{"type":"MultiLineString","properties":{"source":"naturalearthdata.com","kind":"region","sort_rank":256,"kind_detail":"4","min_zoom":5.5,"id":5326},"arcs":[[257],[258],[259],[260],[261],[262]]},{"type":"MultiLineString","properties":{"source":"naturalearthdata.com","kind":"region","sort_rank":256,"kind_detail":"4","min_zoom":5.5,"id":5311},"arcs":[[263],[264],[265],[266],[267],[268],[269],[270],[271]]},{"type":"MultiLineString","properties":{"source":"naturalearthdata.com","kind":"region","sort_rank":256,"kind_detail":"4","min_zoom":5.5,"id":5314},"arcs":[[272],[273],[274],[275],[276],[277],[278],[279],[280],[281],[282]]},{"type":"LineString","properties":{"source":"naturalearthdata.com","kind":"region","sort_rank":256,"kind_detail":"4","min_zoom":5.5,"id":5327},"arcs":[283]},{"type":"MultiLineString","properties":{"source":"naturalearthdata.com","kind":"region","sort_rank":256,"kind_detail":"4","min_zoom":5.5,"id":5316},"arcs":[[284],[285],[286],[287],[288],[289],[290],[291],[292],[293],[294],[295],[296],[297]]},{"type":"MultiLineString","properties":{"source":"naturalearthdata.com","kind":"region","sort_rank":256,"kind_detail":"4","min_zoom":5.5,"id":5317},"arcs":[[298],[299],[300],[301],[302],[303]]},{"type":"MultiLineString","properties":{"source":"naturalearthdata.com","kind":"region","sort_rank":256,"kind_detail":"4","min_zoom":5.5,"id":5318},"arcs":[[304],[305],[306],[307],[308],[309],[310],[311],[312],[313],[314]]},{"type":"MultiLineString","properties":{"source":"naturalearthdata.com","kind":"region","sort_rank":256,"kind_detail":"4","min_zoom":5.5,"id":5319},"arcs":[[315],[316],[317],[318]]},{"type":"MultiLineString","properties":{"source":"naturalearthdata.com","kind":"region","sort_rank":256,"kind_detail":"4","min_zoom":5.5,"id":5320},"arcs":[[319],[320],[321],[322],[323],[324],[325],[326],[327]]},{"type":"MultiLineString","properties":{"source":"naturalearthdata.com","kind":"region","sort_rank":256,"kind_detail":"4","min_zoom":5.5,"id":5321},"arcs":[[328],[329],[330],[331],[332]]},{"type":"MultiLineString","properties":{"source":"naturalearthdata.com","kind":"region","sort_rank":256,"kind_detail":"4","min_zoom":5.5,"id":5324},"arcs":[[333],[334],[335],[336],[337]]},{"type":"MultiLineString","properties":{"source":"naturalearthdata.com","kind":"region","sort_rank":256,"kind_detail":"4","min_zoom":5.5,"id":5322},"arcs":[[338],[339],[340],[341],[342],[343],[344],[345],[346],[347],[348],[349],[350],[351],[352],[353],[354],[355]]},{"type":"MultiLineString","properties":{"source":"naturalearthdata.com","kind":"region","sort_rank":256,"kind_detail":"4","min_zoom":5.5,"id":5323},"arcs":[[356],[357],[358],[359],[360],[361],[362],[363],[364],[365],[366],[367],[368],[369],[370],[371]]},{"type":"MultiLineString","properties":{"source":"naturalearthdata.com","kind":"region","sort_rank":256,"kind_detail":"4","min_zoom":5.5,"id":5325},"arcs":[[372],[373],[374],[375]]},{"type":"LineString","properties":{"source":"naturalearthdata.com","kind":"region","sort_rank":256,"kind_detail":"4","min_zoom":5.5,"id":5328},"arcs":[376]},{"type":"MultiLineString","properties":{"source":"naturalearthdata.com","kind":"region","sort_rank":256,"kind_detail":"4","min_zoom":5.5,"id":5329},"arcs":[[377],[378],[379],[380],[381],[382],[383]]},{"type":"MultiLineString","properties":{"source":"naturalearthdata.com","kind":"region","sort_rank":256,"kind_detail":"4","min_zoom":5.5,"id":5330},"arcs":[[384],[385],[386]]},{"type":"MultiLineString","properties":{"source":"naturalearthdata.com","kind":"region","sort_rank":256,"kind_detail":"4","min_zoom":5.5,"id":5331},"arcs":[[387],[388],[389]]},{"type":"MultiLineString","properties":{"source":"naturalearthdata.com","kind":"region","sort_rank":256,"kind_detail":"4","min_zoom":5.5,"id":5332},"arcs":[[390],[391],[392],[393],[394],[395]]},{"type":"MultiLineString","properties":{"source":"naturalearthdata.com","kind":"region","sort_rank":256,"kind_detail":"4","min_zoom":5.5,"id":5333},"arcs":[[396],[397],[398],[399],[400],[401],[402],[403],[404],[405]]},{"type":"MultiLineString","properties":{"source":"naturalearthdata.com","kind":"region","sort_rank":256,"kind_detail":"4","min_zoom":5.0,"id":7375},"arcs":[[406],[407]]},{"type":"LineString","properties":{"source":"naturalearthdata.com","kind":"region","sort_rank":256,"kind_detail":"4","min_zoom":5.0,"id":7381},"arcs":[408]},{"type":"MultiLineString","properties":{"source":"naturalearthdata.com","kind":"region","sort_rank":256,"kind_detail":"4","min_zoom":5.0,"id":7413},"arcs":[[409],[410],[411],[412]]},{"type":"MultiLineString","properties":{"source":"naturalearthdata.com","kind":"region","sort_rank":256,"kind_detail":"4","min_zoom":5.0,"id":7414},"arcs":[[413],[414],[415],[416],[417]]},{"type":"MultiLineString","properties":{"source":"naturalearthdata.com","kind":"region","sort_rank":256,"kind_detail":"4","min_zoom":5.0,"id":7415},"arcs":[[418],[419]]},{"type":"MultiLineString","properties":{"source":"naturalearthdata.com","kind":"region","sort_rank":256,"kind_detail":"4","min_zoom":5.0,"id":7421},"arcs":[[420],[421]]},{"type":"MultiLineString","properties":{"source":"naturalearthdata.com","kind":"region","sort_rank":256,"kind_detail":"4","min_zoom":5.0,"id":7422},"arcs":[[422],[423],[424],[425],[426]]},{"type":"LineString","properties":{"source":"naturalearthdata.com","kind":"region","sort_rank":256,"kind_detail":"4","min_zoom":5.0,"id":7423},"arcs":[427]}]},"roads":{"type":"GeometryCollection","geometries":[{"type":"LineString","properties":{"source":"naturalearthdata.com","kind":"minor_road","sort_rank":355,"kind_detail":"tertiary","min_zoom":5.0,"id":19737},"arcs":[443]},{"type":"LineString","properties":{"source":"naturalearthdata.com","kind":"major_road","sort_rank":379,"kind_detail":"secondary","min_zoom":3.0,"id":19890},"arcs":[444]},{"type":"LineString","properties":{"source":"naturalearthdata.com","kind":"major_road","kind_detail":"secondary","sort_rank":379,"landuse_kind":"urban_area","min_zoom":3.0,"id":20077},"arcs":[445]},{"type":"LineString","properties":{"source":"naturalearthdata.com","kind":"highway","kind_detail":"motorway","sort_rank":383,"landuse_kind":"urban_area","min_zoom":3.0,"id":20233},"arcs":[446]},{"type":"LineString","properties":{"source":"naturalearthdata.com","kind":"highway","sort_rank":383,"kind_detail":"motorway","min_zoom":3.0,"id":20233},"arcs":[447]},{"type":"LineString","properties":{"source":"naturalearthdata.com","kind":"highway","kind_detail":"motorway","sort_rank":383,"landuse_kind":"urban_area","min_zoom":3.0,"id":20274},"arcs":[448]},{"type":"LineString","properties":{"source":"naturalearthdata.com","kind":"highway","sort_rank":383,"kind_detail":"motorway","min_zoom":3.0,"id":20274},"arcs":[449]},{"type":"LineString","properties":{"source":"naturalearthdata.com","kind":"highway","kind_detail":"motorway","sort_rank":383,"landuse_kind":"urban_area","min_zoom":3.0,"id":20298},"arcs":[450]},{"type":"LineString","properties":{"source":"naturalearthdata.com","kind":"highway","sort_rank":383,"kind_detail":"motorway","min_zoom":3.0,"id":20298},"arcs":[451]},{"type":"LineString","properties":{"source":"naturalearthdata.com","kind":"major_road","kind_detail":"secondary","sort_rank":379,"landuse_kind":"urban_area","min_zoom":3.0,"id":20299},"arcs":[452]},{"type":"LineString","properties":{"source":"naturalearthdata.com","kind":"highway","kind_detail":"motorway","sort_rank":383,"landuse_kind":"urban_area","min_zoom":3.0,"id":20401},"arcs":[453]},{"type":"LineString","properties":{"source":"naturalearthdata.com","kind":"highway","kind_detail":"motorway","sort_rank":383,"landuse_kind":"urban_area","min_zoom":3.0,"id":20401},"arcs":[454]},{"type":"LineString","properties":{"source":"naturalearthdata.com","kind":"highway","sort_rank":383,"kind_detail":"motorway","min_zoom":3.0,"id":20401},"arcs":[455]},{"type":"LineString","properties":{"source":"naturalearthdata.com","kind":"major_road","kind_detail":"secondary","sort_rank":379,"landuse_kind":"urban_area","min_zoom":3.0,"id":20403},"arcs":[456]},{"type":"LineString","properties":{"source":"naturalearthdata.com","kind":"major_road","sort_rank":379,"kind_detail":"secondary","min_zoom":3.0,"id":20403},"arcs":[457]},{"type":"LineString","properties":{"source":"naturalearthdata.com","kind":"major_road","kind_detail":"secondary","sort_rank":379,"landuse_kind":"urban_area","min_zoom":3.0,"id":20406},"arcs":[458]},{"type":"LineString","properties":{"source":"naturalearthdata.com","kind":"highway","kind_detail":"motorway","sort_rank":383,"landuse_kind":"urban_area","min_zoom":3.0,"id":20518},"arcs":[459]},{"type":"LineString","properties":{"source":"naturalearthdata.com","kind":"highway","sort_rank":383,"kind_detail":"motorway","min_zoom":3.0,"id":20518},"arcs":[460]},{"type":"LineString","properties":{"source":"naturalearthdata.com","kind":"highway","kind_detail":"motorway","sort_rank":383,"landuse_kind":"urban_area","min_zoom":3.0,"id":20525},"arcs":[461]},{"type":"LineString","properties":{"source":"naturalearthdata.com","kind":"highway","sort_rank":383,"kind_detail":"motorway","min_zoom":3.0,"id":20525},"arcs":[462]},{"type":"LineString","properties":{"source":"naturalearthdata.com","kind":"highway","kind_detail":"motorway","sort_rank":383,"landuse_kind":"urban_area","min_zoom":3.0,"id":20529},"arcs":[463]},{"type":"LineString","properties":{"source":"naturalearthdata.com","kind":"major_road","kind_detail":"secondary","sort_rank":379,"landuse_kind":"urban_area","min_zoom":3.0,"id":20552},"arcs":[464]},{"type":"LineString","properties":{"source":"naturalearthdata.com","kind":"minor_road","kind_detail":"tertiary","sort_rank":355,"landuse_kind":"urban_area","min_zoom":5.0,"id":20589},"arcs":[465]},{"type":"LineString","properties":{"source":"naturalearthdata.com","kind":"major_road","kind_detail":"secondary","sort_rank":379,"landuse_kind":"urban_area","min_zoom":3.0,"id":20684},"arcs":[466]},{"type":"LineString","properties":{"source":"naturalearthdata.com","kind":"major_road","sort_rank":379,"kind_detail":"secondary","min_zoom":3.0,"id":20684},"arcs":[467]},{"type":"LineString","properties":{"source":"naturalearthdata.com","kind":"minor_road","sort_rank":355,"kind_detail":"tertiary","min_zoom":5.0,"id":20694},"arcs":[468]},{"type":"LineString","properties":{"source":"naturalearthdata.com","kind":"major_road","kind_detail":"secondary","sort_rank":379,"landuse_kind":"urban_area","min_zoom":3.0,"id":20873},"arcs":[469]},{"type":"LineString","properties":{"source":"naturalearthdata.com","kind":"major_road","sort_rank":379,"kind_detail":"secondary","min_zoom":3.0,"id":20873},"arcs":[470]},{"type":"LineString","properties":{"source":"naturalearthdata.com","kind":"major_road","sort_rank":379,"kind_detail":"secondary","min_zoom":3.0,"id":20881},"arcs":[471]},{"type":"LineString","properties":{"source":"naturalearthdata.com","kind":"major_road","kind_detail":"secondary","sort_rank":379,"landuse_kind":"urban_area","min_zoom":3.0,"id":20907},"arcs":[472]},{"type":"LineString","properties":{"source":"naturalearthdata.com","kind":"major_road","sort_rank":379,"kind_detail":"secondary","min_zoom":3.0,"id":20907},"arcs":[473]},{"type":"LineString","properties":{"source":"naturalearthdata.com","kind":"minor_road","kind_detail":"tertiary","sort_rank":355,"landuse_kind":"urban_area","min_zoom":5.0,"id":20908},"arcs":[474]},{"type":"LineString","properties":{"source":"naturalearthdata.com","kind":"minor_road","sort_rank":355,"kind_detail":"tertiary","min_zoom":5.0,"id":20908},"arcs":[475]},{"type":"LineString","properties":{"source":"naturalearthdata.com","kind":"major_road","kind_detail":"secondary","sort_rank":379,"landuse_kind":"urban_area","min_zoom":3.0,"id":20939},"arcs":[476]},{"type":"LineString","properties":{"source":"naturalearthdata.com","kind":"major_road","kind_detail":"secondary","sort_rank":379,"landuse_kind":"urban_area","min_zoom":4.0,"id":20948},"arcs":[477]},{"type":"LineString","properties":{"source":"naturalearthdata.com","kind":"major_road","kind_detail":"secondary","sort_rank":379,"landuse_kind":"urban_area","min_zoom":4.0,"id":20948},"arcs":[478]},{"type":"MultiLineString","properties":{"source":"naturalearthdata.com","kind":"major_road","sort_rank":379,"kind_detail":"secondary","min_zoom":4.0,"id":20948},"arcs":[[479],[480]]},{"type":"LineString","properties":{"source":"naturalearthdata.com","kind":"major_road","sort_rank":379,"kind_detail":"secondary","min_zoom":3.0,"id":20966},"arcs":[481]},{"type":"LineString","properties":{"source":"naturalearthdata.com","kind":"minor_road","kind_detail":"tertiary","sort_rank":355,"landuse_kind":"urban_area","min_zoom":5.0,"id":21020},"arcs":[482]},{"type":"LineString","properties":{"source":"naturalearthdata.com","kind":"minor_road","sort_rank":355,"kind_detail":"tertiary","min_zoom":5.0,"id":21020},"arcs":[483]},{"type":"LineString","properties":{"source":"naturalearthdata.com","kind":"major_road","sort_rank":379,"kind_detail":"secondary","min_zoom":4.0,"id":21055},"arcs":[484]},{"type":"LineString","properties":{"source":"naturalearthdata.com","kind":"major_road","sort_rank":379,"kind_detail":"secondary","min_zoom":4.0,"id":21084},"arcs":[485]},{"type":"LineString","properties":{"source":"naturalearthdata.com","kind":"minor_road","sort_rank":355,"kind_detail":"tertiary","min_zoom":5.0,"id":21107},"arcs":[486]},{"type":"LineString","properties":{"source":"naturalearthdata.com","kind":"major_road","sort_rank":379,"kind_detail":"secondary","min_zoom":3.0,"id":21137},"arcs":[487]},{"type":"LineString","properties":{"source":"naturalearthdata.com","kind":"minor_road","sort_rank":355,"kind_detail":"tertiary","min_zoom":5.0,"id":21222},"arcs":[488]},{"type":"LineString","properties":{"source":"naturalearthdata.com","kind":"major_road","sort_rank":379,"kind_detail":"secondary","min_zoom":4.0,"id":21223},"arcs":[489]},{"type":"LineString","properties":{"source":"naturalearthdata.com","kind":"major_road","sort_rank":379,"kind_detail":"secondary","min_zoom":4.0,"id":21235},"arcs":[490]},{"type":"LineString","properties":{"source":"naturalearthdata.com","kind":"major_road","sort_rank":379,"kind_detail":"secondary","min_zoom":4.0,"id":21442},"arcs":[491]},{"type":"LineString","properties":{"source":"naturalearthdata.com","kind":"highway","kind_detail":"motorway","sort_rank":383,"landuse_kind":"urban_area","min_zoom":3.0,"id":21533},"arcs":[492]},{"type":"LineString","properties":{"source":"naturalearthdata.com","kind":"highway","sort_rank":383,"kind_detail":"motorway","min_zoom":3.0,"id":21533},"arcs":[493]},{"type":"LineString","properties":{"source":"naturalearthdata.com","kind":"highway","kind_detail":"motorway","sort_rank":383,"landuse_kind":"urban_area","min_zoom":3.0,"id":21584},"arcs":[494]},{"type":"LineString","properties":{"source":"naturalearthdata.com","kind":"major_road","kind_detail":"secondary","sort_rank":379,"landuse_kind":"urban_area","min_zoom":4.0,"id":21665},"arcs":[495]},{"type":"LineString","properties":{"source":"naturalearthdata.com","kind":"major_road","sort_rank":379,"kind_detail":"secondary","min_zoom":4.0,"id":21665},"arcs":[496]},{"type":"LineString","properties":{"source":"naturalearthdata.com","kind":"major_road","sort_rank":379,"kind_detail":"secondary","min_zoom":4.0,"id":21763},"arcs":[497]},{"type":"LineString","properties":{"source":"naturalearthdata.com","kind":"major_road","kind_detail":"secondary","sort_rank":379,"landuse_kind":"urban_area","min_zoom":4.0,"id":21781},"arcs":[498]},{"type":"LineString","properties":{"source":"naturalearthdata.com","kind":"major_road","sort_rank":379,"kind_detail":"secondary","min_zoom":4.0,"id":21781},"arcs":[499]},{"type":"LineString","properties":{"source":"naturalearthdata.com","kind":"major_road","kind_detail":"secondary","sort_rank":379,"landuse_kind":"urban_area","min_zoom":3.0,"id":21796},"arcs":[500]},{"type":"LineString","properties":{"source":"naturalearthdata.com","kind":"major_road","sort_rank":379,"kind_detail":"secondary","min_zoom":3.0,"id":21796},"arcs":[501]},{"type":"LineString","properties":{"source":"naturalearthdata.com","kind":"major_road","sort_rank":379,"kind_detail":"secondary","min_zoom":4.0,"id":21807},"arcs":[502]},{"type":"LineString","properties":{"source":"naturalearthdata.com","kind":"major_road","kind_detail":"secondary","sort_rank":379,"landuse_kind":"urban_area","min_zoom":3.0,"id":21814},"arcs":[503]},{"type":"LineString","properties":{"source":"naturalearthdata.com","kind":"major_road","sort_rank":379,"kind_detail":"secondary","min_zoom":3.0,"id":21814},"arcs":[504]},{"type":"LineString","properties":{"source":"naturalearthdata.com","kind":"major_road","sort_rank":379,"kind_detail":"secondary","min_zoom":4.0,"id":21931},"arcs":[505]},{"type":"LineString","properties":{"source":"naturalearthdata.com","kind":"minor_road","sort_rank":355,"kind_detail":"tertiary","min_zoom":5.0,"id":21932},"arcs":[506]},{"type":"LineString","properties":{"source":"naturalearthdata.com","kind":"major_road","sort_rank":379,"kind_detail":"secondary","min_zoom":4.0,"id":21933},"arcs":[507]},{"type":"LineString","properties":{"source":"naturalearthdata.com","kind":"major_road","sort_rank":379,"kind_detail":"secondary","min_zoom":3.0,"id":21949},"arcs":[508]},{"type":"LineString","properties":{"source":"naturalearthdata.com","kind":"major_road","sort_rank":379,"kind_detail":"secondary","min_zoom":4.0,"id":22025},"arcs":[509]},{"type":"LineString","properties":{"source":"naturalearthdata.com","kind":"major_road","sort_rank":379,"kind_detail":"secondary","min_zoom":4.0,"id":22027},"arcs":[510]},{"type":"LineString","properties":{"source":"naturalearthdata.com","kind":"major_road","sort_rank":379,"kind_detail":"secondary","min_zoom":4.0,"id":22029},"arcs":[511]},{"type":"LineString","properties":{"source":"naturalearthdata.com","kind":"major_road","sort_rank":379,"kind_detail":"secondary","min_zoom":4.0,"id":22035},"arcs":[512]},{"type":"LineString","properties":{"source":"naturalearthdata.com","kind":"major_road","sort_rank":379,"kind_detail":"secondary","min_zoom":3.0,"id":22045},"arcs":[513]},{"type":"LineString","properties":{"source":"naturalearthdata.com","kind":"major_road","kind_detail":"secondary","sort_rank":379,"landuse_kind":"national_park","min_zoom":3.0,"id":22105},"arcs":[514]},{"type":"MultiLineString","properties":{"source":"naturalearthdata.com","kind":"major_road","sort_rank":379,"kind_detail":"secondary","min_zoom":3.0,"id":22105},"arcs":[[515],[516]]},{"type":"LineString","properties":{"source":"naturalearthdata.com","kind":"major_road","kind_detail":"secondary","sort_rank":379,"landuse_kind":"urban_area","min_zoom":3.0,"id":22110},"arcs":[517]},{"type":"LineString","properties":{"source":"naturalearthdata.com","kind":"major_road","sort_rank":379,"kind_detail":"secondary","min_zoom":3.0,"id":22110},"arcs":[518]},{"type":"LineString","properties":{"source":"naturalearthdata.com","kind":"major_road","kind_detail":"secondary","sort_rank":379,"landuse_kind":"urban_area","min_zoom":4.0,"id":22140},"arcs":[519]},{"type":"LineString","properties":{"source":"naturalearthdata.com","kind":"major_road","sort_rank":379,"kind_detail":"secondary","min_zoom":4.0,"id":22140},"arcs":[520]},{"type":"LineString","properties":{"source":"naturalearthdata.com","kind":"major_road","kind_detail":"secondary","sort_rank":379,"landuse_kind":"urban_area","min_zoom":4.0,"id":22153},"arcs":[521]},{"type":"LineString","properties":{"source":"naturalearthdata.com","kind":"major_road","sort_rank":379,"kind_detail":"secondary","min_zoom":4.0,"id":22153},"arcs":[522]},{"type":"LineString","properties":{"source":"naturalearthdata.com","kind":"major_road","kind_detail":"secondary","sort_rank":379,"landuse_kind":"urban_area","min_zoom":3.0,"id":22154},"arcs":[523]},{"type":"LineString","properties":{"source":"naturalearthdata.com","kind":"major_road","sort_rank":379,"kind_detail":"secondary","min_zoom":3.0,"id":22154},"arcs":[524]},{"type":"LineString","properties":{"source":"naturalearthdata.com","kind":"minor_road","kind_detail":"tertiary","sort_rank":355,"landuse_kind":"urban_area","min_zoom":5.0,"id":22156},"arcs":[525]},{"type":"LineString","properties":{"source":"naturalearthdata.com","kind":"major_road","kind_detail":"secondary","sort_rank":379,"landuse_kind":"urban_area","min_zoom":3.0,"id":22169},"arcs":[526]},{"type":"LineString","properties":{"source":"naturalearthdata.com","kind":"major_road","sort_rank":379,"kind_detail":"secondary","min_zoom":3.0,"id":22169},"arcs":[527]},{"type":"LineString","properties":{"source":"naturalearthdata.com","kind":"major_road","sort_rank":379,"kind_detail":"secondary","min_zoom":3.0,"id":22171},"arcs":[528]},{"type":"LineString","properties":{"source":"naturalearthdata.com","kind":"major_road","sort_rank":379,"kind_detail":"secondary","min_zoom":4.0,"id":22264},"arcs":[529]},{"type":"LineString","properties":{"source":"naturalearthdata.com","kind":"major_road","sort_rank":379,"kind_detail":"secondary","min_zoom":3.0,"id":22265},"arcs":[530]},{"type":"LineString","properties":{"source":"naturalearthdata.com","kind":"highway","sort_rank":383,"kind_detail":"motorway","min_zoom":3.0,"id":22330},"arcs":[531]},{"type":"LineString","properties":{"source":"naturalearthdata.com","kind":"major_road","sort_rank":379,"kind_detail":"secondary","min_zoom":4.0,"id":22657},"arcs":[532]},{"type":"LineString","properties":{"source":"naturalearthdata.com","kind":"major_road","sort_rank":379,"kind_detail":"secondary","min_zoom":4.0,"id":22710},"arcs":[533]},{"type":"LineString","properties":{"source":"naturalearthdata.com","kind":"major_road","sort_rank":379,"kind_detail":"secondary","min_zoom":4.0,"id":22730},"arcs":[534]},{"type":"LineString","properties":{"source":"naturalearthdata.com","kind":"major_road","sort_rank":379,"kind_detail":"secondary","min_zoom":4.0,"id":22732},"arcs":[535]},{"type":"LineString","properties":{"source":"naturalearthdata.com","kind":"major_road","sort_rank":379,"kind_detail":"secondary","min_zoom":4.0,"id":22750},"arcs":[536]},{"type":"LineString","properties":{"source":"naturalearthdata.com","kind":"minor_road","sort_rank":355,"kind_detail":"tertiary","min_zoom":5.0,"id":22763},"arcs":[537]},{"type":"LineString","properties":{"source":"naturalearthdata.com","kind":"minor_road","sort_rank":355,"kind_detail":"tertiary","min_zoom":5.0,"id":22915},"arcs":[538]},{"type":"LineString","properties":{"source":"naturalearthdata.com","kind":"major_road","sort_rank":379,"kind_detail":"secondary","min_zoom":4.0,"id":23034},"arcs":[539]},{"type":"LineString","properties":{"source":"naturalearthdata.com","kind":"highway","kind_detail":"motorway","sort_rank":383,"landuse_kind":"urban_area","min_zoom":3.0,"id":23148},"arcs":[540]},{"type":"LineString","properties":{"source":"naturalearthdata.com","kind":"highway","sort_rank":383,"kind_detail":"motorway","min_zoom":3.0,"id":23148},"arcs":[541]},{"type":"LineString","properties":{"source":"naturalearthdata.com","kind":"major_road","kind_detail":"secondary","sort_rank":379,"landuse_kind":"urban_area","min_zoom":3.0,"id":23219},"arcs":[542]},{"type":"LineString","properties":{"source":"naturalearthdata.com","kind":"major_road","sort_rank":379,"kind_detail":"secondary","min_zoom":3.0,"id":23219},"arcs":[543]},{"type":"LineString","properties":{"source":"naturalearthdata.com","kind":"highway","kind_detail":"motorway","sort_rank":383,"landuse_kind":"urban_area","min_zoom":3.0,"id":23221},"arcs":[544]},{"type":"LineString","properties":{"source":"naturalearthdata.com","kind":"highway","sort_rank":383,"kind_detail":"motorway","min_zoom":3.0,"id":23221},"arcs":[545]},{"type":"LineString","properties":{"source":"naturalearthdata.com","kind":"major_road","kind_detail":"secondary","sort_rank":379,"landuse_kind":"urban_area","min_zoom":3.0,"id":23231},"arcs":[546]},{"type":"LineString","properties":{"source":"naturalearthdata.com","kind":"major_road","sort_rank":379,"kind_detail":"secondary","min_zoom":3.0,"id":23231},"arcs":[547]},{"type":"LineString","properties":{"source":"naturalearthdata.com","kind":"minor_road","kind_detail":"tertiary","sort_rank":355,"landuse_kind":"urban_area","min_zoom":5.0,"id":23397},"arcs":[548]},{"type":"LineString","properties":{"source":"naturalearthdata.com","kind":"minor_road","sort_rank":355,"kind_detail":"tertiary","min_zoom":5.0,"id":23397},"arcs":[549]},{"type":"LineString","properties":{"source":"naturalearthdata.com","kind":"highway","kind_detail":"motorway","sort_rank":383,"landuse_kind":"urban_area","min_zoom":3.0,"id":23427},"arcs":[550]},{"type":"LineString","properties":{"source":"naturalearthdata.com","kind":"highway","sort_rank":383,"kind_detail":"motorway","min_zoom":3.0,"id":23427},"arcs":[551]},{"type":"LineString","properties":{"source":"naturalearthdata.com","kind":"major_road","sort_rank":379,"kind_detail":"secondary","min_zoom":3.0,"id":23451},"arcs":[552]},{"type":"LineString","properties":{"source":"naturalearthdata.com","kind":"major_road","kind_detail":"secondary","sort_rank":379,"landuse_kind":"urban_area","min_zoom":3.0,"id":23461},"arcs":[553]},{"type":"LineString","properties":{"source":"naturalearthdata.com","kind":"major_road","sort_rank":379,"kind_detail":"secondary","min_zoom":3.0,"id":23461},"arcs":[554]},{"type":"LineString","properties":{"source":"naturalearthdata.com","kind":"major_road","sort_rank":379,"kind_detail":"secondary","min_zoom":3.0,"id":23467},"arcs":[555]},{"type":"LineString","properties":{"source":"naturalearthdata.com","kind":"minor_road","sort_rank":355,"kind_detail":"tertiary","min_zoom":5.0,"id":23470},"arcs":[556]},{"type":"LineString","properties":{"source":"naturalearthdata.com","kind":"major_road","sort_rank":379,"kind_detail":"secondary","min_zoom":4.0,"id":23502},"arcs":[557]},{"type":"LineString","properties":{"source":"naturalearthdata.com","kind":"major_road","sort_rank":379,"kind_detail":"secondary","min_zoom":4.0,"id":23798},"arcs":[558]},{"type":"LineString","properties":{"source":"naturalearthdata.com","kind":"minor_road","sort_rank":355,"kind_detail":"tertiary","min_zoom":5.0,"id":23799},"arcs":[559]},{"type":"LineString","properties":{"source":"naturalearthdata.com","kind":"major_road","kind_detail":"secondary","sort_rank":379,"landuse_kind":"urban_area","min_zoom":4.0,"id":24093},"arcs":[560]},{"type":"MultiLineString","properties":{"source":"naturalearthdata.com","kind":"major_road","sort_rank":379,"kind_detail":"secondary","min_zoom":4.0,"id":24093},"arcs":[[561],[562]]},{"type":"LineString","properties":{"source":"naturalearthdata.com","kind":"major_road","sort_rank":379,"kind_detail":"secondary","min_zoom":3.0,"id":24098},"arcs":[563]},{"type":"LineString","properties":{"source":"naturalearthdata.com","kind":"major_road","sort_rank":379,"kind_detail":"secondary","min_zoom":4.0,"id":24202},"arcs":[564]},{"type":"LineString","properties":{"source":"naturalearthdata.com","kind":"major_road","kind_detail":"secondary","sort_rank":379,"landuse_kind":"urban_area","min_zoom":3.0,"id":24650},"arcs":[565]},{"type":"MultiLineString","properties":{"source":"naturalearthdata.com","kind":"major_road","sort_rank":379,"kind_detail":"secondary","min_zoom":3.0,"id":24650},"arcs":[[566],[567]]},{"type":"LineString","properties":{"source":"naturalearthdata.com","kind":"major_road","sort_rank":379,"kind_detail":"secondary","min_zoom":3.0,"id":25084},"arcs":[568]},{"type":"LineString","properties":{"source":"naturalearthdata.com","kind":"major_road","sort_rank":379,"kind_detail":"secondary","min_zoom":3.0,"id":25085},"arcs":[569]},{"type":"LineString","properties":{"source":"naturalearthdata.com","kind":"major_road","sort_rank":379,"kind_detail":"secondary","min_zoom":4.0,"id":25096},"arcs":[570]},{"type":"LineString","properties":{"source":"naturalearthdata.com","kind":"major_road","kind_detail":"secondary","sort_rank":379,"landuse_kind":"urban_area","min_zoom":4.0,"id":25114},"arcs":[571]},{"type":"LineString","properties":{"source":"naturalearthdata.com","kind":"major_road","sort_rank":379,"kind_detail":"secondary","min_zoom":4.0,"id":25114},"arcs":[572]},{"type":"LineString","properties":{"source":"naturalearthdata.com","kind":"major_road","sort_rank":379,"kind_detail":"secondary","min_zoom":4.0,"id":25127},"arcs":[573]},{"type":"LineString","properties":{"source":"naturalearthdata.com","kind":"major_road","sort_rank":379,"kind_detail":"secondary","min_zoom":4.0,"id":25129},"arcs":[574]},{"type":"LineString","properties":{"source":"naturalearthdata.com","kind":"major_road","kind_detail":"secondary","sort_rank":379,"landuse_kind":"urban_area","min_zoom":4.0,"id":25148},"arcs":[575]},{"type":"LineString","properties":{"source":"naturalearthdata.com","kind":"major_road","sort_rank":379,"kind_detail":"secondary","min_zoom":4.0,"id":25148},"arcs":[576]},{"type":"LineString","properties":{"source":"naturalearthdata.com","kind":"major_road","kind_detail":"secondary","sort_rank":379,"landuse_kind":"urban_area","min_zoom":4.0,"id":25419},"arcs":[577]},{"type":"LineString","properties":{"source":"naturalearthdata.com","kind":"major_road","sort_rank":379,"kind_detail":"secondary","min_zoom":4.0,"id":25419},"arcs":[578]},{"type":"LineString","properties":{"source":"naturalearthdata.com","kind":"major_road","kind_detail":"secondary","sort_rank":379,"landuse_kind":"urban_area","min_zoom":4.0,"id":25685},"arcs":[579]},{"type":"LineString","properties":{"source":"naturalearthdata.com","kind":"major_road","sort_rank":379,"kind_detail":"secondary","min_zoom":4.0,"id":25685},"arcs":[580]},{"type":"LineString","properties":{"source":"naturalearthdata.com","kind":"major_road","sort_rank":379,"kind_detail":"secondary","min_zoom":3.0,"id":25799},"arcs":[581]},{"type":"LineString","properties":{"source":"naturalearthdata.com","kind":"major_road","sort_rank":379,"kind_detail":"secondary","min_zoom":3.0,"id":25880},"arcs":[582]},{"type":"LineString","properties":{"source":"naturalearthdata.com","kind":"major_road","sort_rank":379,"kind_detail":"secondary","min_zoom":4.0,"id":25970},"arcs":[583]},{"type":"LineString","properties":{"source":"naturalearthdata.com","kind":"major_road","sort_rank":379,"kind_detail":"secondary","min_zoom":3.0,"id":26389},"arcs":[584]},{"type":"LineString","properties":{"source":"naturalearthdata.com","kind":"major_road","sort_rank":379,"kind_detail":"secondary","min_zoom":4.0,"id":26485},"arcs":[585]},{"type":"LineString","properties":{"source":"naturalearthdata.com","kind":"major_road","sort_rank":379,"kind_detail":"secondary","min_zoom":3.0,"id":26834},"arcs":[586]},{"type":"LineString","properties":{"source":"naturalearthdata.com","kind":"minor_road","sort_rank":355,"kind_detail":"tertiary","min_zoom":5.0,"id":26841},"arcs":[587]},{"type":"LineString","properties":{"source":"naturalearthdata.com","kind":"major_road","sort_rank":379,"kind_detail":"secondary","min_zoom":3.0,"id":26902},"arcs":[588]},{"type":"LineString","properties":{"source":"naturalearthdata.com","kind":"major_road","sort_rank":379,"kind_detail":"secondary","min_zoom":3.0,"id":27189},"arcs":[589]},{"type":"LineString","properties":{"source":"naturalearthdata.com","kind":"major_road","sort_rank":379,"kind_detail":"secondary","min_zoom":3.0,"id":27398},"arcs":[590]},{"type":"LineString","properties":{"source":"naturalearthdata.com","kind":"major_road","sort_rank":379,"kind_detail":"secondary","min_zoom":4.0,"id":27913},"arcs":[591]},{"type":"LineString","properties":{"source":"naturalearthdata.com","kind":"major_road","sort_rank":379,"kind_detail":"secondary","min_zoom":4.0,"id":28231},"arcs":[592]},{"type":"LineString","properties":{"source":"naturalearthdata.com","kind":"major_road","sort_rank":379,"kind_detail":"secondary","min_zoom":3.0,"id":48452},"arcs":[593]}]},"earth":{"type":"GeometryCollection","geometries":[{"type":"MultiPolygon","properties":{"sort_rank":10,"source":"naturalearthdata.com","min_zoom":0.0,"kind":"earth","area":5247948467045},"arcs":[[[594]]]}]},"landuse":{"type":"GeometryCollection","geometries":[{"type":"Polygon","properties":{"kind":"nature_reserve","name":"\u0645\u0646\u0637\u0642\u0647 \u062d\u0641\u0627\u0638\u062a \u0634\u062f\u0647 \u062a\u0648\u0631\u0627\u0646","area":1543229952,"sort_rank":23,"source":"openstreetmap.org","min_zoom":4.0,"tier":2,"id":321336003,"protect_class":"2"},"arcs":[[595]]},{"type":"MultiPolygon","properties":{"source":"naturalearthdata.com","kind":"urban_area","name":"","area":58131021365,"sort_rank":11,"min_zoom":4.0},"arcs":[[[596]],[[597]],[[598]],[[599]],[[600]],[[601]],[[602]],[[603]],[[604]],[[605]],[[606]],[[607]],[[608]],[[609]],[[610]],[[611]],[[612]],[[613]],[[614]],[[615]],[[616]],[[617]],[[618]],[[619]],[[620]],[[621]],[[622]]]},{"type":"Polygon","properties":{"kind":"nature_reserve","name":"Gapla\u0148gyr goraghanasy","area":29092700160,"sort_rank":23,"source":"openstreetmap.org","min_zoom":4.0,"tier":2,"id":-6313264,"osm_relation":true},"arcs":[[623]]},{"type":"Polygon","properties":{"kind":"national_park","name":"\u067e\u0627\u0631\u06a9 \u0645\u0644\u06cc \u06af\u0644\u0633\u062a\u0627\u0646","area":1388290048,"sort_rank":18,"operator":"Department of Environment, Iran","source":"openstreetmap.org","min_zoom":3.0,"tier":1,"id":434996205,"protect_class":"2"},"arcs":[[624]]}]}},"type":"Topology","transform":{"translate":[56.25,31.952162238],"scale":[0.002746582,0.0022040371]},"arcs":[[[4008,2374],[-8,4],[-4,7],[-3,8],[-3,8],[-8,6],[-16,7],[-7,4],[-4,7],[-6,20],[-4,4],[-8,2],[-14,11],[-7,3],[-17,0]],[[3899,2465],[-34,-8],[-48,-2],[-3,-1],[-8,-7],[-3,-1]],[[3803,2446],[-10,0],[-5,1],[-24,10],[-9,1]],[[3755,2458],[-9,0],[-7,-2]],[[4096,2418],[-6,-2],[-7,-5],[-12,-12],[-7,-5],[-8,-4],[-8,-2],[-8,-1],[-10,-2],[-14,-9],[-8,-2]],[[4096,3446],[-4,-4],[2,-20],[-1,-2],[-2,-1],[-1,-1],[-2,-1]],[[4088,3417],[-10,2]],[[4078,3419],[-5,-1],[-3,-4],[-5,-18],[-2,-18],[-1,-17],[-4,-15],[-3,-15],[-3,-1]],[[4052,3330],[-3,1]],[[4049,3331],[-4,-1],[-3,-3],[-2,-2],[-1,-3],[0,-7],[2,-17],[0,-1],[11,-9],[44,-15]],[[3613,2461],[-4,0],[-7,4],[-6,6],[-11,14],[-6,5],[-82,31],[-7,5],[-2,3],[-3,4],[-6,14],[-3,2],[-7,1],[-6,3]],[[3463,2553],[-1,-7],[-2,-12],[-5,-4]],[[3455,2530],[-15,0]],[[3440,2530],[-6,-1],[-5,-3],[-3,-4],[-4,-8],[-5,-9],[-3,-9],[-2,-10],[3,-20],[0,-10],[-2,-9],[-5,-7],[-10,-10],[-17,-23],[-13,-7],[-5,0],[-154,-4],[-27,-9],[-66,-35],[-11,-8],[-7,-12],[-1,-17],[7,-35],[1,-18],[-5,-15],[-13,-25],[-39,-71],[-6,-15],[-5,-18],[-1,-9],[0,-9],[2,-9],[5,-18],[1,-9],[-2,-18],[-4,-17],[-6,-16],[-29,-44],[-7,-9],[-12,-10],[-13,-5],[-27,-6],[-6,-3],[-6,-3],[-4,-6],[-6,-18],[-3,-3]],[[3667,2440],[-10,1],[-7,5],[-6,6],[-3,1],[-3,2],[-3,1],[-6,4],[-4,1]],[[3625,2461],[-12,0]],[[3739,2456],[-6,-4],[-6,-6],[-6,-6],[-3,-3],[-4,0]],[[3714,2437],[-4,2],[-6,8],[-4,2]],[[3700,2449],[-8,-1],[-25,-8]],[[2919,1906],[-5,1],[-6,2],[-15,3]],[[2893,1912],[-14,-3],[-12,-6],[-24,-19],[-5,-6],[-3,-7],[0,-8],[3,-21],[0,-6]],[[2838,1836],[-35,14],[-10,2]],[[2793,1852],[-5,-1],[-6,-1],[-11,-3],[-35,-21],[-14,-4],[-45,-2],[-7,-2],[-7,-4],[-5,-5],[-9,-12],[-5,-5],[-30,-14],[-32,-7]],[[2582,1771],[-79,2]],[[2503,1773],[-8,-2],[-5,-5],[-2,-8],[3,-6],[3,-6],[2,-8],[2,-6],[19,-17],[5,-7],[3,-2],[9,-4],[2,-2],[-1,-3],[-2,-4],[-10,-8],[-28,-9],[-9,-10],[-1,-6],[1,-24],[1,-5],[6,-5],[1,-5],[-3,-14],[-2,-17],[-2,-9],[-5,-5],[-7,-2],[-15,-1],[-8,-2],[-24,-12],[-33,-27],[-2,-1],[-23,-11],[-9,-10],[-5,-6],[-4,-5],[-6,-3],[-26,-12],[-6,-2]],[[1862,1654],[-5,4],[4,5],[0,2],[-4,3],[-2,1]],[[1855,1669],[-3,0],[-19,-4],[-5,-2]],[[1999,1571],[-49,7],[-24,10],[-17,19],[-24,22],[-3,2],[-2,1],[-4,0],[-3,2],[-3,3],[-2,3],[0,2],[1,5],[0,2],[-6,5],[-1,0]],[[1862,1654]],[[2198,1447],[-4,4],[-7,17],[-2,7],[0,18],[0,8],[-3,8],[-3,7],[-6,6],[-20,9],[-10,7],[-37,37],[-10,7],[-11,5],[-21,1]],[[2064,1588],[-44,-16],[-21,-1]],[[2288,1486],[-3,2],[-24,23]],[[2261,1511],[-10,-1],[-12,-11],[-36,-49],[-5,-3]],[[2314,1482],[-4,1],[-10,5]],[[2300,1488],[-4,-1],[-4,-1],[-4,0]],[[1706,1218],[4,1],[4,5],[2,11],[-2,12],[1,10],[6,8],[12,9],[7,13],[2,8],[11,4],[3,15],[2,16],[-1,4],[-1,8],[-1,5],[2,5],[5,9],[1,4],[1,9],[5,17],[3,19],[2,7],[9,12],[-4,4],[0,4],[1,4],[0,5],[-1,2],[-13,18],[-1,5],[2,2],[3,2],[0,4],[-1,4],[-2,2],[-1,5],[1,9],[2,10],[5,4],[8,1],[9,1],[7,4],[2,8],[-1,24],[1,9],[3,5],[7,10],[2,5],[3,14],[4,9],[9,11],[5,8],[2,10],[-1,9],[-4,18],[-2,4]],[[1701,1218],[5,0]],[[1633,727],[-29,2],[-29,13],[-23,23],[-9,33],[3,15],[11,26],[1,18],[-11,70],[-4,39],[0,6],[2,20],[10,22],[11,15],[13,14],[18,9],[5,7],[-2,9],[25,2],[37,2],[28,2],[-5,8],[-27,37],[-5,11],[-4,6],[-4,4],[-9,4],[-3,3],[-4,11],[-2,3],[-3,2],[-4,0],[5,10],[9,5],[20,3],[10,2],[7,5],[16,20],[2,3],[2,3],[5,3],[5,1]],[[1655,0],[0,3],[-2,5],[-1,4],[-1,5],[3,10],[-2,2],[-3,2],[-2,3],[3,7],[10,13],[2,8],[5,36],[1,37],[-13,48],[-16,63],[-15,53],[-13,47],[-13,46],[-12,44],[-10,37],[-6,29],[0,36],[2,6],[18,25],[19,28],[18,25],[14,20],[10,9],[12,8],[4,5],[2,9],[0,8],[-2,8],[1,6],[7,5],[17,1],[5,2],[3,5],[1,1],[-4,6],[-6,6],[-5,3],[-13,4],[-14,1]],[[1659,729],[-26,-2]],[[2087,4096],[0,-1],[1,-32],[2,-6],[-3,-4],[4,-9],[12,-38],[4,-21],[3,-9],[4,-6],[12,-13],[4,-6],[7,-28],[5,-9],[14,-18],[2,-4],[3,-10],[1,-1],[1,-3],[8,-6],[18,-5],[30,-16],[3,-4],[1,-19],[3,-9],[9,-18],[3,-8],[1,-9],[1,-12],[1,-9],[11,-23],[2,-10],[-2,-8],[-3,-9],[-2,-9],[1,-11],[6,-25],[4,-12],[27,-32],[3,-2],[21,-20],[43,-30],[50,-34],[59,-40],[120,-83],[50,-34],[24,-22],[39,-53],[22,-22],[40,-28],[51,-35],[59,-41],[11,-5],[10,-2]],[[2936,3190],[9,-5],[11,-14],[20,-26],[77,-63],[47,-27],[53,-18],[25,-15],[48,-43],[35,-31],[49,-33],[36,-24],[60,-39],[24,-8]],[[2887,3173],[10,2],[28,13],[11,2]],[[3493,2869],[12,-1],[37,-18],[24,-3],[10,-6],[22,-17],[24,-7],[12,-6],[11,-10],[17,-21],[37,-17],[11,-3],[28,0],[14,-4],[13,-6],[12,-9],[5,-12],[3,-10],[-13,-25],[-21,-26],[-12,-23],[-2,-17],[3,-36],[-1,-18],[-8,-31],[-1,-16],[5,-13],[7,-6],[5,-6],[2,-7],[-6,-10],[-7,-7],[-5,-7],[-1,-9],[9,-6]],[[3430,2844],[25,2],[10,5],[17,14],[11,4]],[[454,2709],[-53,20],[-9,12],[7,24],[1,8],[-2,8],[-7,11],[-5,13],[-11,13],[-5,6],[-6,16],[-9,14],[-1,4],[0,3],[-1,3],[-4,3],[-8,2],[-4,1]],[[337,2870],[-4,-1],[-7,-3],[-3,-3],[-1,-1],[-7,-13],[-5,-4],[-11,-8],[-5,-4],[-7,-4]],[[287,2829],[-7,1],[-15,6],[-55,10],[-5,2],[-13,7],[-14,11],[-3,1]],[[175,2867],[-18,-3],[-29,-13],[-6,-1]],[[122,2850],[-5,3],[-4,3],[-6,3],[-6,2]],[[101,2861],[-33,-1],[-13,-5],[-13,-9],[-23,-21],[-2,-6],[10,-11],[2,-8],[-2,-8],[-3,-7],[-6,-5],[-18,-3]],[[496,2706],[-19,5],[-6,1]],[[471,2712],[-6,-1],[-5,-1],[-6,-1]],[[542,2698],[-1,0],[-2,0],[-5,3],[-4,4],[-5,3],[-6,0]],[[519,2708],[-5,-1],[-18,-1]],[[564,2684],[-5,2],[-2,3],[-4,7],[-2,2],[-3,1]],[[548,2699],[-6,-1]],[[773,2576],[-6,2],[-9,6],[-5,3],[-28,4],[-6,2],[-7,5],[-1,5],[0,7],[-1,8],[-2,3],[-5,11],[-1,3],[1,4],[0,3],[-3,3],[-6,3],[-6,1],[-12,1],[-24,6],[-57,27],[-13,3]],[[582,2686],[-6,0],[-6,-2],[-6,0]],[[885,2582],[-8,1],[-16,6],[-18,17],[-6,3]],[[837,2609],[-7,-1],[-6,-4],[-4,-6],[-3,-8],[-5,-7],[-7,-3],[-32,-4]],[[1086,2524],[-8,1],[-48,34],[-12,12],[-4,3],[-11,1],[-5,2],[-5,3],[-14,7],[-28,6],[-22,12]],[[929,2605],[-2,-3],[-1,-6],[-5,-6],[-4,-2],[-3,0]],[[914,2588],[-8,1]],[[906,2589],[-4,0],[-3,-2],[-2,-2],[-3,-2],[-9,-1]],[[1187,2376],[-3,1],[-3,1],[-3,2],[-3,3],[-6,1],[-1,4],[1,3],[1,3],[0,2],[2,1],[0,2],[-2,4],[-7,7],[-23,19],[-4,6],[-7,31],[-1,10],[1,5],[3,4],[1,5],[-1,3],[-2,5],[1,10],[-2,6],[-7,10],[-7,7],[-8,2]],[[1107,2533],[-21,-9]],[[1222,2346],[-5,4],[-3,8],[-2,8],[-2,7],[-6,7],[-6,1]],[[1198,2381],[-11,-5]],[[1490,2126],[-12,6],[-8,14],[-10,27],[-8,13],[-38,47],[-17,26],[-14,29],[-11,14],[-13,6],[-30,5],[-14,8],[-24,20],[-52,17],[-4,0]],[[1235,2358],[-3,-1],[-4,-7],[-3,-3],[-3,-1]],[[1828,1663],[-9,14],[-5,11],[-1,12],[1,3],[5,4],[1,4],[0,8],[0,2],[3,11],[0,4],[-3,4],[3,10],[-1,7],[-1,7],[-2,16],[-2,8],[-3,8],[-4,6],[-6,8],[-6,5],[-7,4],[-9,2],[-5,2],[4,6],[7,6],[5,4],[0,5],[-1,9],[1,5],[2,3],[3,1],[4,2],[1,5],[0,4],[1,5],[1,4],[2,3],[4,5],[0,3],[0,2],[-1,14],[-6,28],[-5,9],[-1,4],[0,11],[-1,4],[-2,5],[-1,3],[-2,3],[-3,2],[-4,1],[1,4],[1,1],[1,2],[-5,13],[2,22],[8,36],[-2,7],[-1,6],[2,5],[2,3],[2,4],[1,5],[1,6],[-1,6],[-1,4],[-3,7],[-3,15],[-15,2],[-18,3]],[[1757,2130],[-37,0],[-44,-1],[-77,-1],[-51,-1],[-58,-1]],[[3918,442],[-1,-26],[-1,-4],[-1,-4],[-2,-3],[-2,-5],[-2,-1],[-2,-2],[-1,0],[-3,-2],[-2,-1],[-2,0]],[[3899,394],[-3,0],[-3,1],[-2,1],[-4,2],[-3,1]],[[3884,399],[-5,0],[-6,-5],[-2,-2],[-3,0]],[[3868,392],[-9,0]],[[3859,392],[-11,-1],[-5,-1],[-4,-2],[-2,-3],[-24,-16],[-6,-5],[-6,-6],[-6,-8],[-1,-2],[-1,-2],[0,-3],[1,-5],[0,-3],[-2,-3],[-4,-3],[-9,-4],[-5,-2],[-3,0]],[[3771,323],[-1,1],[-1,1],[-1,1],[0,1],[0,2],[0,3],[9,27],[0,4],[0,2],[0,1],[-1,2],[-6,0]],[[3770,368],[-16,-2],[-11,-21],[-6,-6],[-18,-3],[-17,-9],[-3,-3],[-4,-8],[-5,-6],[-18,-21],[-3,-5],[0,-3],[0,-3],[0,-4],[-1,-5],[-4,-9],[-1,-3],[0,-2],[1,-2],[1,-3],[4,-5]],[[3120,1447],[-2,0],[-2,1],[-16,10],[-5,6],[-7,16]],[[3076,1244],[4,0],[4,2],[24,12],[65,18],[11,6],[3,3],[1,1],[2,1],[1,2],[4,8],[1,6],[3,12],[0,3],[-1,9],[0,4],[1,5],[3,15],[1,4],[-1,5],[-2,6],[-7,9],[-3,5],[-1,5],[-1,4],[-2,6],[-5,6],[-23,16],[-3,3],[-9,14],[-5,6],[-3,4],[-4,2],[-4,2]],[[3130,1448],[-10,-1]],[[3014,1252],[45,-2],[6,-3],[3,-1],[5,-1],[3,-1]],[[2995,1234],[1,5],[1,1],[2,3],[3,4],[5,2],[7,3]],[[3236,3408],[-17,-12],[-37,-35],[-4,-4],[-5,-1]],[[3173,3356],[-3,0]],[[3170,3356],[-4,-1],[-3,-1],[-2,-2],[-28,-29],[-4,-4],[-2,-4],[0,-3],[0,-2],[0,-2],[1,-2],[2,-4],[2,-4],[12,-14],[1,-1],[1,-3],[0,-2],[-1,-4],[-1,-2],[-2,-1],[-61,-21],[-19,-7],[-51,-20],[-17,-11],[-33,-36],[-5,-5]],[[4096,3070],[-1,0],[-1,2],[-2,1],[-3,1],[-5,1],[-6,1]],[[4078,3076],[-5,0],[-4,-1],[-6,-3],[-3,-2],[-2,-2],[-2,-3],[-22,-41],[-4,-5],[-6,-6],[-4,-3],[-5,-3],[-15,-3],[-3,-7],[-4,-7],[-6,-6],[-14,-11],[-2,-3],[-2,-6],[-2,-8],[-4,-23],[-3,-11],[-1,-2],[-5,-5],[-40,-32],[-21,-11],[-4,-2],[-13,-2],[-3,-2],[-3,-4],[-6,-9],[-4,-9],[-1,-5],[-2,-6],[-3,-5],[-2,-5],[-45,-41],[-3,-4],[-2,-7],[-2,-18],[-2,-6],[-6,-11],[-10,-7]],[[2565,4096],[30,-16],[109,-64],[8,-13],[14,-13],[-1,-9]],[[2837,4091],[7,-1],[7,-6],[8,-10],[2,-16],[0,-30],[5,-10],[16,-5],[98,-11]],[[2725,3981],[44,14],[26,37],[21,43],[7,9],[7,5],[7,2]],[[3106,4083],[5,0],[3,-11],[7,-46],[4,-12],[5,-13],[13,-10],[12,-7],[36,-8],[110,-7]],[[2980,4002],[8,7],[12,41],[6,3],[13,5],[48,2],[16,3],[11,5],[12,15]],[[3319,3973],[-9,-28],[-2,-11],[0,-12],[0,-12],[1,-9],[1,-5],[0,-5]],[[3301,3969],[18,4]],[[3310,3891],[-5,0],[-19,4],[-4,0]],[[3282,3895],[-3,-1],[-3,-2],[-4,-6],[-1,-6],[-10,-29],[-8,-9],[-6,-6],[-9,-24],[-3,-8]],[[3235,3804],[-43,0],[-9,3],[-7,5],[-8,6],[-7,2]],[[3161,3820],[-8,0],[-13,-2],[-6,-3],[-3,-4],[-1,-5],[-1,-4],[0,-4],[2,-9],[9,-8],[-6,-17],[-3,-3],[-2,-1],[0,-1],[1,-2],[4,-6],[10,-11],[6,-6],[2,-3],[-1,-2],[-11,-1],[-2,-1],[-3,-1],[-2,-2],[-4,0],[-5,-5],[-17,-33],[-5,-7],[-7,-6],[-6,-4],[-23,-10],[-2,-6],[-3,-3],[-2,-2],[-11,-14],[-6,-13],[-5,-11],[5,-12],[27,-35],[10,-6],[17,-9],[0,-3],[2,-4],[2,-4],[5,-3],[7,0]],[[3127,3541],[6,-1],[3,-5],[44,-20],[6,-11],[3,-10],[0,-7],[2,-10],[3,-9],[7,-4],[8,-3],[6,-3],[6,-7],[6,-7],[2,-3],[2,-5],[3,-12],[1,-3],[1,-13]],[[3112,3534],[15,7]],[[3279,3421],[-7,-4],[-36,-9]],[[2162,3881],[76,89],[18,39],[-4,15],[-12,18],[-51,54]],[[4045,3329]],[[3569,3343],[-24,6],[-3,2],[-1,2],[-1,6],[0,3],[0,3],[0,7],[0,7],[-1,3],[-1,2],[-9,7],[-11,7],[-19,18],[-4,5],[-2,4],[-1,2],[-4,15],[-1,2],[-1,2],[-2,1],[-1,2],[-3,0],[-3,1],[-12,0]],[[3465,3450],[-4,0],[-3,-2],[0,-3],[-1,-2],[1,-7],[-1,-2],[0,-3],[-1,-2],[-2,-1],[-8,-6],[-7,-4],[-5,-1]],[[3434,3417],[-155,4]],[[3888,3331],[-5,1],[-3,1],[-2,1],[-2,2],[-2,3],[0,3],[0,7],[3,13],[-2,6],[-7,13],[-8,2],[-31,6],[-28,4]],[[3801,3393],[-5,0],[-7,-2],[-5,-3],[-3,-2],[-3,-3],[-12,-17],[-3,-3],[-27,-11],[-3,0]],[[3733,3352],[-5,1],[-6,3],[-21,17],[-10,5]],[[3691,3378],[-6,0],[-53,-12],[-2,0],[-35,-17],[-7,-4],[-6,-2],[-13,0]],[[4045,3329],[-87,22],[-20,1]],[[3938,3352],[0,-3],[1,-4],[0,-3],[-1,-2],[0,-2],[-2,-2],[-2,-2],[-2,-1],[-4,0],[-40,-2]],[[3776,3876],[-7,7],[-5,5],[-1,2],[-1,2],[0,2],[0,2],[2,7],[0,4],[0,2],[-1,2],[-12,14],[-11,8],[-4,2],[-3,1]],[[3733,3936],[-3,-2],[-27,-17],[-8,-3],[-8,-1]],[[3687,3913],[-5,1],[-7,2],[-7,4],[-7,5],[-5,2],[-6,1]],[[3650,3928],[-4,-2],[-5,-3],[-4,-4],[-3,-5],[-3,-6],[-5,-13],[-1,-7],[0,-7],[3,-8],[2,-4],[2,-4],[0,-3],[-3,-5],[-3,-3],[-7,-3],[-2,-3],[0,-3],[4,-11],[2,-16],[-3,-10],[-5,-10],[0,-3],[1,-3],[1,-3],[6,-4],[-1,-4],[-2,-4],[-9,-12],[-3,-6],[-2,-6],[-3,-10],[-10,-21],[0,-4],[0,-2],[2,-1],[3,0]],[[3467,3669],[-7,3],[-7,6],[-15,5],[-6,5],[-9,13],[-4,1],[-1,0],[-7,2],[-33,14],[-6,0]],[[3372,3718],[-2,-1],[-2,-2],[-2,-5],[-1,-3],[-1,-2],[0,-5],[0,-10],[-1,-2],[0,-2],[-1,-2],[-1,-2],[-10,-13],[0,-3],[1,-2],[3,0],[2,-1],[2,-1],[2,-2],[0,-2],[0,-2],[-1,-4],[-6,-12],[-1,-2],[-6,-24],[-3,-5],[-3,-2],[-5,-2],[-10,0]],[[3608,3716],[3,0],[3,-2],[2,-2],[1,-3],[0,-4],[-2,-4],[-3,-3],[-24,-21],[-4,-2],[-78,-16]],[[3598,3715],[7,1],[3,0]],[[3506,3659],[-16,3],[-16,9]],[[3474,3671],[-7,-2]],[[3326,3605],[-10,1],[-11,5],[-12,7],[-3,0]],[[3290,3618],[-2,-1],[-2,-3],[-1,-3],[-1,-8],[-3,-2],[-3,-2],[-22,-6],[-18,-2],[-3,-1],[-3,-1],[-1,-2],[-1,-2],[3,-6],[11,-12],[7,-6],[3,-3],[3,-4],[11,-38],[0,-4],[0,-6],[-1,-5],[-1,-3],[-11,-24],[0,-2],[4,-14],[20,-37]],[[3776,3876],[55,103],[11,24],[-8,14],[-4,8],[0,2],[0,7],[1,8],[0,5],[0,3],[-1,2],[-2,2],[-2,1],[-32,9],[-5,3],[-3,1],[-3,4],[-2,3],[-1,3],[0,2],[-2,16]],[[3776,3876],[3,-2],[45,-2],[16,-4],[5,-1],[6,-1]],[[3871,3868],[2,-1],[2,-3],[3,-6],[1,-4],[1,-4],[0,-7],[-2,-6],[-3,-7],[-1,-3],[-1,-3],[0,-3],[1,-21],[1,-8],[5,-23],[1,-2],[1,-3],[3,-2],[7,-3],[2,-2],[1,-2],[0,-3],[-1,-3],[0,-3],[1,-4],[10,-11],[0,-11],[-2,-4],[-1,-1],[-2,-2],[-6,-2],[-2,-1],[-1,-2],[-1,-2],[2,-21],[1,-2],[2,-2],[4,-1],[3,0]],[[3851,3866],[9,0],[9,2],[2,0]],[[3918,3685],[3,-1],[3,-1],[2,-3],[0,-6],[-1,-3],[0,-4],[0,-3],[13,-13]],[[3902,3680],[3,0],[2,1],[7,3],[2,1],[2,0]],[[3946,3654],[5,-7],[28,-8],[5,0]],[[3938,3651],[5,2],[2,0],[1,1]],[[3994,3640],[6,-4],[3,-1],[3,-1]],[[3984,3639],[5,0],[3,1],[2,0]],[[4010,3636],[8,-1],[63,-12],[7,-9],[8,-37]],[[4096,3568],[-6,-1],[-2,-1],[-10,-2],[-8,-2],[-11,-6],[-6,-4],[-3,-3],[-1,-2],[-1,-3],[0,-7],[0,-4],[1,-3],[0,-2],[1,-5],[0,-2],[0,-6],[-1,-3],[-1,-2],[-4,-1],[-3,0],[-11,-1],[-5,-1],[-2,-4],[-1,-4],[-1,-31],[4,-8],[5,-5],[15,-13],[28,-24]],[[4006,3634],[4,2]],[[1738,3431],[-169,-13]],[[1569,3418],[-15,2]],[[1738,3431],[-3,-71],[-4,-8],[-4,-9],[-23,-5],[-47,-14],[-11,-14],[-23,-124],[-2,-8],[-4,-8],[-6,-3],[-23,-3],[-6,-3],[-3,-6],[-2,-7],[-8,-46],[-2,-8],[-3,-7],[-6,-2],[-6,-1]],[[1552,3084],[-19,2]],[[1533,3086],[45,-184],[7,-21],[91,-93],[15,-21],[29,-58],[3,-10],[-4,-4],[-6,-3],[-15,-2],[-6,-1],[-3,-3],[1,-6],[18,-51],[3,-13],[-4,-5],[-6,-3],[-8,0],[-3,-14],[0,-23],[26,-103],[2,-2],[2,-1],[5,-1],[5,0]],[[1752,2465],[32,-2],[6,-1],[2,-1],[2,-1],[2,-2],[4,-4],[18,-33],[1,-1]],[[1745,2464],[7,1]],[[1736,2464],[9,0]],[[1730,2464],[6,0]],[[1840,2363],[-6,1],[-5,1],[-3,1],[-4,2],[-3,3],[-4,5],[-2,3],[0,23],[-2,10],[-4,10],[-9,16],[-5,7],[-7,7],[-3,1],[-2,2],[-16,3]],[[1765,2458],[-6,-1],[-7,-1],[-17,-1],[-2,0],[-3,-1],[1,-3],[68,-110],[13,-21],[84,-141],[17,-41],[2,-133],[1,-135],[2,-24],[5,-2],[3,-2],[17,-2],[2,-3],[2,-22],[-1,-2],[-2,-2],[-1,-1],[-3,-3],[-2,-1],[-2,0],[-3,-3],[-2,-1],[-2,-2],[-2,0],[-4,-2]],[[1853,2431],[16,-4],[6,-3],[2,-1],[2,-2],[1,-3],[1,-2],[1,-3],[1,-5],[0,-6],[0,-3],[-2,-5],[-3,-7],[-3,-6],[-5,-6],[-2,-2],[-9,-6],[-9,-3],[-5,-1],[-5,0]],[[1819,2420],[2,1],[3,2],[5,3],[11,4],[2,0],[11,1]],[[1923,1798],[-12,1]],[[1911,1799],[-7,-2],[-2,-1],[-2,-3],[-3,-5],[0,-4],[0,-2],[6,-13],[2,-3],[5,-7],[5,-4],[15,-16],[6,-4],[1,-2],[2,-2],[0,-2],[-1,-1],[-8,-8],[-3,-3],[-1,-3],[0,-2],[-3,-34],[-1,-6],[-2,-4],[-11,-13],[-3,-3],[-13,-9],[-3,-3],[-4,-5],[-4,-4]],[[1738,3431],[72,-6],[13,-12],[56,-56],[69,-69],[298,-306],[117,-122],[32,-28],[38,-14],[84,-32],[24,-15],[125,-141],[50,-59],[4,-20],[-49,-63],[-15,-23],[-6,-6],[-14,-13],[4,-209],[3,-12],[10,-3]],[[2827,2223],[101,0],[74,-1]],[[2653,2222],[87,1],[87,0]],[[3002,2222],[85,0]],[[333,3693],[-6,19],[-2,3],[-2,3],[-11,6],[-10,7],[15,44],[3,14],[-16,41],[-16,59],[-4,14],[-21,25],[-11,9],[-9,11],[-3,4],[-1,4],[-4,15],[-43,103],[-1,1],[-11,12],[-7,9]],[[333,3693],[-43,-21],[-20,-14],[-2,-4],[-1,-3],[0,-4],[1,-3],[1,-4],[5,-8],[1,-3],[4,-28],[31,-112],[1,-5],[-2,-3],[-3,-3],[-4,-3],[-24,-8],[-8,-5],[-3,-2],[-2,-5],[-111,-351],[-2,-11],[0,-6],[-1,-4],[-2,-3],[-10,-17],[-2,-5],[0,-4],[1,-9],[0,-5],[-1,-2],[-3,-2],[-6,-3],[-3,-1],[-2,-3],[-2,-4],[-1,-4],[-3,-42],[0,-7],[2,-3],[2,-3],[2,-1],[2,-2],[2,0]],[[129,2964],[4,-1],[6,-2],[20,-9],[6,-2],[4,-1]],[[127,2963],[2,1]],[[233,2956],[3,-1],[2,-3],[4,-15],[2,-3],[8,-12],[5,-5],[35,-24],[31,-30]],[[213,2950],[4,1],[10,4],[6,1]],[[195,2956],[5,-1],[5,-2],[5,-3],[3,0]],[[169,2949],[19,6],[7,1]],[[1396,3463],[-3,0],[-2,2],[-22,23],[-2,5],[-1,5],[0,146],[-1,5],[-2,2],[-4,1],[-199,0],[-91,1],[-28,6],[-22,15],[-4,4],[-18,23],[-145,35],[-17,6],[-24,6],[-29,1]],[[782,3749],[-3,-1],[-1,-1],[-2,-1],[-1,-2],[-1,-3],[0,-2],[1,-12],[0,-2],[-2,-2],[-7,-1]],[[766,3722],[-39,4]],[[727,3726],[-89,-25],[-43,-6]],[[595,3695],[-147,3]],[[448,3698],[-23,-9],[-8,-4],[-14,-14],[-3,-1],[-2,-1],[-23,-3]],[[375,3666],[-4,0],[-2,1],[-2,2],[-2,1],[-2,1],[-2,4],[-3,3],[-2,1],[-2,1],[-13,3],[-3,2],[-1,1],[-2,2],[-2,5]],[[1507,3413],[-12,1],[-1,2],[-1,4],[-1,5],[-1,2],[-4,3],[-4,3],[-2,3],[-1,2],[-1,2],[-3,10],[-2,16],[-1,4],[-2,3],[-1,3],[-5,5],[-3,1],[-3,1]],[[1459,3483],[-2,-1],[-7,-5],[-4,0]],[[1446,3477],[-5,0],[-10,3],[-5,0]],[[1426,3480],[-3,0],[-2,-1],[-2,-2],[-4,-6],[-2,-2],[-2,-1],[-4,-2],[-4,-2],[-7,-1]],[[1554,3420],[-47,-7]],[[1554,3420],[-3,3],[-2,83],[-2,145],[-3,137],[0,6],[-2,5],[-5,1],[-72,3],[-5,1],[-2,3],[-1,5],[-1,284]],[[3852,603],[5,-15],[10,-1]],[[3904,589],[6,-2],[2,-3],[2,-5],[1,-7],[0,-4],[-1,-3],[-1,-2],[-7,-3],[-2,-2],[-1,-2],[-3,-5],[-2,-2],[-12,-10],[-2,-2],[-1,-1],[0,-2],[-1,-5],[0,-1],[-1,-7],[0,-12],[0,-4],[-1,-2],[0,-6],[0,-7],[1,-16],[2,-8],[2,-7],[3,-5],[4,-3],[4,-3],[18,-4],[4,-2]],[[3867,587],[37,2]],[[4096,990],[-2,0],[-6,0]],[[4088,990],[-17,2]],[[4040,946],[7,18],[2,3],[2,7],[5,6],[15,12]],[[4096,1238],[-2,-1],[-10,-6],[-2,-1],[-32,-7],[-21,-3],[-3,-1],[-3,-2],[-1,-2],[-2,-4],[3,-13],[4,-6],[11,-9],[2,-3],[1,-4],[-1,-8],[0,-2],[-1,-2],[-7,-5],[-2,-1],[-2,-1],[-9,-1],[-3,-1],[-2,-1],[-2,-2],[-2,-3],[-2,-3],[-1,-5],[-3,-7],[0,-5],[1,-4],[2,-3],[3,-2],[2,-1],[3,-1],[25,-3]],[[4056,1116],[4,0],[3,-1],[4,-3],[2,-3],[1,-3],[0,-3],[0,-3],[-1,-3],[0,-1],[-2,-2],[-1,-1],[-2,0],[-2,-1],[-9,-5],[0,-2],[-1,-2],[2,-1],[2,-1],[12,-2],[4,-1],[24,-11]],[[4096,1033],[-26,-10],[-2,-3],[-3,-4],[-2,-9],[0,-5],[1,-4],[7,-6]],[[4040,1115],[16,1]],[[3742,2103],[39,-8],[11,-3],[2,-2],[1,-1],[2,-2],[0,-3],[1,-1],[-1,-2],[0,-3],[-1,-2],[-5,-9],[-1,-2],[-3,-3],[-2,-2],[-4,-7],[-2,-4],[-9,-8],[-2,-2],[-4,-6],[-6,-11],[-1,-3],[-1,-2],[-1,-10],[-1,-3],[-9,-19],[-2,-6],[-1,-2],[-4,-6],[-2,-4],[-12,-19],[-5,-6],[0,-1],[-1,-3],[0,-1],[2,-2],[11,-6],[15,-12],[2,-1],[6,-2]],[[3763,1915],[3,-1],[2,-2],[1,-1],[2,-7],[0,-2],[0,-2],[-2,-4],[-1,-2],[1,-18],[0,-2],[1,-4],[0,-2],[0,-1],[-1,-1],[-2,-4],[-1,-1],[0,-2],[-1,-2],[0,-5],[0,-6],[6,-8],[1,-5],[7,-45],[0,-8],[0,-6],[-3,-8],[-10,-21],[-2,-8],[-1,-1],[0,-1],[-1,-1],[-2,0],[-5,-3],[-2,-1],[-3,-3],[-3,-4],[-2,-3],[-4,-7],[-8,-23],[1,-3],[5,0]],[[3754,1914],[9,1]],[[3801,1686],[40,3],[3,1],[3,2],[3,1],[5,2],[6,3],[18,11]],[[3791,1697],[1,0],[0,-1],[1,0],[1,-1],[0,-1],[2,-5],[1,-1],[2,-2],[2,0]],[[3739,1687],[52,10]],[[3745,1461],[7,0],[13,5],[19,8],[2,0],[7,1],[3,2],[2,3],[24,45],[18,23],[4,3],[10,2]],[[3693,1467],[52,-6]],[[3682,1344],[-3,1],[-2,2],[-1,1],[-3,4],[-1,2],[-1,3],[-1,3],[0,4],[1,11],[1,4],[1,2],[1,3],[1,5],[1,12],[3,18],[0,3],[-1,3],[-1,2],[-3,3],[-1,1],[-1,2],[0,2],[2,12],[0,2],[3,6],[1,3],[2,3],[3,3],[2,1],[2,2],[6,0]],[[3783,1240],[-1,0],[-1,1],[0,3],[1,3],[3,3],[0,1],[-1,2],[-3,2],[-5,3],[-4,3],[-3,3],[-4,6],[-2,5],[-3,14],[-2,2],[-11,11],[-6,7],[-1,2],[-1,1],[-30,23],[-10,5],[-17,4]],[[3797,1238],[-2,0],[-1,0],[-6,4],[-1,0]],[[3787,1242],[-1,0],[-3,-2]],[[3788,1126],[3,1],[5,4],[22,19],[0,6],[-6,5],[-2,2],[-2,5],[0,3],[1,5],[1,6],[1,1],[0,1],[11,10],[6,8],[2,3],[1,3],[1,3],[-1,3],[-1,4],[-2,4],[-3,4],[-5,4],[-12,8],[-3,1]],[[3805,1239],[-2,0],[-5,-1],[-1,0]],[[3774,1130],[2,-1],[12,-3]],[[3727,1106],[23,16],[3,2],[20,6],[1,0]],[[3451,1470],[-2,0],[-5,3],[-3,1],[-4,1],[-2,0],[-1,3],[-1,4],[-1,1],[0,1],[-1,2],[-1,1],[-1,1],[-1,1],[-6,3],[-1,0],[-1,1],[-1,2],[0,1],[-1,1],[0,1],[0,2],[1,1],[1,3],[0,1],[-2,0]],[[3418,1505],[-3,0],[-12,-4],[-2,-1],[-1,-1],[-4,-4],[-2,-2],[-4,-1],[-11,-2],[-22,0]],[[3357,1490],[-3,1],[-4,7]],[[3546,1412],[-18,4],[-12,1],[-37,13],[-3,2],[-3,2],[-4,5],[-2,3],[-4,9],[-1,3],[-1,2],[0,3],[-1,2],[1,5],[0,1],[0,2],[-1,1],[0,1],[-2,0]],[[3458,1471],[-6,-1],[-1,0]],[[3588,1285],[-1,1],[-1,2],[0,4],[1,3],[2,6],[1,1],[-1,3],[-10,37],[-3,7],[-3,4],[-3,3],[-6,2],[0,3],[1,2],[3,4],[0,1],[1,1],[-2,1],[-6,6],[-2,3],[0,2],[2,1],[4,1],[1,1],[0,1],[1,2],[0,2],[1,10],[0,2],[-1,2],[0,2],[-1,2],[-1,2],[-2,2],[-2,2],[-3,1],[-4,0]],[[3554,1414],[-3,0],[-2,-1],[-1,-1],[-2,0]],[[3668,1338],[-4,0],[-6,1],[-5,1],[-6,3],[-3,2],[-3,1]],[[3641,1346],[-1,0],[-3,-1],[-1,-2],[-1,-2],[0,-1],[0,-2],[1,-2],[1,-3],[0,-1],[0,-1],[-1,-1],[-1,-1],[-1,0],[-5,-1],[-1,-1],[-1,-1],[-1,-4],[0,-2],[-1,-1],[-1,-1],[-1,0],[-6,-1],[-2,0],[-1,-1],[-1,-1],[0,-2],[0,-1],[1,-2],[0,-1],[0,-1],[-1,-2],[-1,-1],[-1,0],[-5,-1],[-1,-1],[-1,-1],[-10,-12],[-3,-4],[-2,-1],[-1,0]],[[3682,1344],[-7,-3],[-3,-2],[-2,-1],[-2,0]],[[4096,2127],[-5,-2],[-5,-12],[-4,-4],[-17,-5],[-7,-4],[-4,-3],[-3,-3],[-1,-2],[-1,-1],[0,-1],[1,-1],[0,-1],[7,-9],[9,-20],[1,-4],[0,-4],[-9,-24],[-5,-22],[0,-21],[-3,-16],[-2,-3],[-2,-4],[-6,-4],[-3,-4],[-2,-3],[0,-2],[0,-1],[1,-2],[1,-3],[0,-3],[-1,-6],[-2,-4],[-2,-3],[-8,-7],[-6,-7],[-4,-4],[-3,-2],[-5,-2],[-19,-2],[-7,-3],[-34,-26],[-7,-7],[-1,-1],[1,-1],[0,-2],[1,-1],[1,-2],[2,-1],[1,-1],[1,-1],[0,-2],[0,-5],[1,-1],[1,-3],[2,-4],[10,-13],[1,-4],[0,-4],[-1,-8],[-1,-6],[-2,-3],[-3,-2],[-6,-3],[-2,-3],[-2,-3],[-1,-5],[-2,-3],[-2,-2],[-4,-4],[-5,-5],[-14,-17],[-8,-6],[-13,-7],[-4,-3],[-2,-3],[-6,-12],[-2,-4],[-1,-4],[0,-3],[0,-5]],[[4061,1575],[35,14]],[[4030,1582],[3,-1],[2,-1],[4,-1],[8,0],[14,-4]],[[3920,1543],[10,2],[33,15],[28,8],[34,13],[5,1]],[[3854,1553],[20,-8],[10,-2],[36,0]],[[3854,1553],[4,5],[6,3],[11,6],[7,4],[6,5],[18,18],[2,3],[2,3],[1,3],[1,4],[0,5],[0,4],[0,4],[-2,11],[0,2],[0,1],[1,1],[1,0],[5,1],[1,1],[1,1],[0,2],[-1,6],[0,2],[1,4],[-1,1],[-1,1],[-8,5],[-1,1],[0,3],[2,2],[2,2],[6,3],[2,1],[2,2],[1,1],[0,1],[0,2],[0,1],[0,2],[-1,5],[-8,7],[-35,17]],[[3928,765],[2,0],[35,11],[7,4],[8,6],[6,8],[3,5],[4,7],[3,4],[23,21],[8,7],[12,19],[3,2],[2,2],[8,5],[1,2],[0,3],[-4,17],[-3,6],[-2,3],[-1,1],[-5,3],[-4,2],[-1,2],[0,2],[3,4],[4,3],[1,2],[1,2],[4,12],[2,5],[0,2],[-1,3],[-7,6]],[[3919,765],[9,0]],[[3852,603],[2,21],[3,7],[1,2],[1,2],[0,2],[1,19],[1,5],[1,4],[1,4],[0,12],[-11,33],[0,9],[0,2],[5,14],[4,4],[2,2],[4,2],[32,14],[20,4]],[[3752,583],[-10,3],[-4,5],[-4,6],[-1,4],[-1,2],[0,2],[-1,3],[-1,2],[-5,8],[-1,1],[-1,1],[-3,0]],[[3720,620],[-3,0],[-5,-1],[-17,-7],[-6,-2],[-4,0]],[[3835,598],[-6,1],[-2,1],[-2,2],[-2,7],[-1,9],[-1,2]],[[3821,620],[-2,0],[-2,-1],[-7,-9],[-4,-5],[-4,-2],[-6,-1],[-8,-1],[-10,-3],[-26,-15]],[[3685,610],[-3,1],[-8,5],[-2,0]],[[3672,616],[-3,0],[-4,-2],[-8,-4],[-44,-34],[-11,-6],[-7,-2],[-10,-6],[-2,-2],[-3,-4],[-2,-6],[-5,-21],[-1,-5],[1,-3],[0,-4],[0,-3],[0,-3],[-2,-3],[-1,-3],[-2,-2],[-6,0]],[[3852,603],[-12,-4],[-5,-1]],[[3426,523],[-3,1],[-21,15],[-4,1],[-3,1],[-4,1],[-30,2]],[[3361,544],[-3,-1],[-1,-2],[1,-2],[3,-10],[4,-13],[0,-4],[-1,-2]],[[3562,503],[-11,3],[-45,10],[-10,6],[-13,15],[-4,3],[-2,0]],[[3477,540],[-3,-1],[-4,-3],[-4,-8],[-2,-2],[-2,-1],[-3,0]],[[3459,525],[-12,3],[-3,0]],[[3444,528],[-4,0],[-4,-1],[-8,-3],[-2,-1]],[[3338,506],[-3,1],[-11,8],[-11,2]],[[3364,510],[-1,0],[-5,4],[-4,2],[-5,1]],[[3349,517],[-4,-1],[-2,-2],[-2,-3],[0,-3],[-1,-2],[-2,0]],[[3727,1106],[-6,-10],[-1,-1],[0,-2],[4,-5],[2,-5],[13,-1],[12,-4],[4,-2],[3,-2],[2,-3],[1,-3],[0,-2],[0,-2],[-2,-2],[-1,0],[-4,-2],[-2,-1],[-5,-4],[-2,-3],[-1,-2],[-1,-2],[2,-17],[5,-15],[0,-3],[-1,-4],[-9,-20],[-2,-8],[-1,-13],[0,-7],[1,-4],[1,-2],[4,-5],[21,-21],[21,-11],[8,-2]],[[3973,909],[1,1],[1,1],[2,2],[2,2],[2,5],[2,2],[1,2],[2,2],[12,3],[31,5],[3,2],[3,3],[5,7]],[[3835,931],[65,-14],[2,-1],[2,-2],[1,-2],[1,-1],[1,-2],[1,-1],[2,-1],[13,-6],[3,0]],[[3793,916],[9,5],[5,1],[1,1],[2,1],[3,3],[5,2],[11,2],[6,0]],[[3962,918],[2,0],[1,-1],[1,-1],[6,-7],[1,0]],[[3926,901],[2,0],[21,14],[4,1],[6,2],[3,0]],[[3668,1100],[-2,0],[-2,1],[-5,5],[-1,1],[-3,2],[-4,1],[-19,4]],[[3632,1114],[-5,-1],[-3,-1],[-2,-5],[-2,-2],[-7,-9],[-3,-2],[-4,-2],[-3,-1]],[[3727,1106],[-8,3]],[[3719,1109],[-46,-7],[-3,-2],[-2,0]],[[3603,1091],[-10,2]],[[3593,1093],[-13,-3]],[[3580,1090],[-3,0],[-7,2],[-14,0]],[[3556,1092],[-2,0],[-1,-1],[-5,-6],[-3,-3],[-4,-3],[-7,-3],[-4,-1],[-4,0]],[[3526,1075],[-23,4],[-49,4],[-27,5],[-14,1]],[[3413,1089],[-33,-1],[-4,-2],[-4,-15],[0,-7],[0,-4],[-1,-3],[-5,-14],[-2,-6],[-1,-11],[-1,-4],[1,-3],[0,-1],[1,-1],[1,-1],[1,-3],[0,-2],[-4,-9],[-1,-3],[0,-3],[0,-5],[-2,-9],[-2,-7],[-1,-12],[0,-2],[2,-1],[1,-1],[1,-1],[1,-2],[0,-2],[2,-6],[1,-1],[1,-1],[1,-1],[2,0],[5,0],[1,-2],[1,-2],[2,-13],[-2,-11],[-3,-5],[-4,-2],[-6,-9],[-2,-9],[-2,-4],[-1,-2],[-2,0],[-6,-1],[-2,0],[-1,-1],[-1,-1],[-2,-1],[-9,-5],[-1,-2],[-1,-2],[-1,-3],[0,-2],[0,-1],[1,-1],[0,-2],[1,-2],[1,-6],[0,-1],[1,-1],[1,-1],[10,-7],[1,-1],[1,-2],[0,-2],[1,-1],[0,-2],[1,0],[1,-2],[1,-1],[1,0],[2,-1],[2,-1],[2,0],[0,-1],[2,-3],[2,-3],[2,-4],[3,-14],[3,-25],[3,-7],[8,-4],[6,-5],[4,-6],[3,-4],[1,-5],[0,-2],[-1,-2],[-9,-7],[-6,-4],[-5,-2],[-2,-1],[-12,-11],[-11,-14],[-12,-10],[-1,-2],[-1,-1],[0,-1],[-2,-1],[-1,0],[-1,-1],[-5,0],[-1,0],[-1,-1],[-1,-1],[-5,-8],[-1,-2],[0,-2],[1,-1],[1,-1],[1,-1],[0,-1],[0,-7],[-15,-8],[-7,-2],[-10,-2],[-8,-4],[-6,-4],[-9,-8]],[[3266,640],[-14,1]],[[3252,641],[-4,0],[-4,-1],[-16,-10],[-6,-6],[-4,-5],[-2,-2],[-32,-15],[-1,-2],[-1,-1],[-10,-7],[-3,-4],[-3,-1],[-3,0]],[[3163,587],[-7,1],[-3,2],[-2,2],[-3,0]],[[3148,592],[-2,-1],[-5,-4],[-12,-14],[-2,-2],[-3,-2],[-2,-1],[-3,0],[-2,0]],[[3117,568],[-5,0],[-2,2],[-1,2],[-1,11],[0,2],[-1,1],[0,1]],[[3107,587],[-5,0],[-16,-8]],[[3959,505],[10,-2],[3,-2],[2,-1],[1,-2],[1,-2],[1,-9],[1,-4],[1,-4],[4,-6],[2,-3],[2,-1],[1,0]],[[3929,442],[2,2],[2,1],[1,2],[1,3],[5,8],[6,10],[2,4],[1,3],[0,2],[-1,2],[-5,8],[-2,4],[-1,3],[0,4],[1,2],[1,2],[2,1],[5,1],[10,1]],[[4067,480],[2,0],[1,-2],[0,-1],[-1,-2],[0,-1],[-2,-2],[0,-2],[-1,-1],[0,-1],[1,-1],[2,-3],[1,-2],[1,-1],[1,-2],[1,-2],[1,-3],[0,-3],[-1,-2],[-1,-2],[-1,-2],[-2,-2],[-2,-1],[-13,-8],[-2,-2],[-1,-2],[0,-3],[2,-3],[3,-2],[12,-5],[3,-3],[2,-2],[1,-2],[0,-2],[0,-1],[0,-1],[-1,-1],[-2,-1],[-5,0],[-1,-1],[-2,-1],[-1,-1],[-1,-2],[0,-2],[-1,-3],[0,-4],[2,-6],[9,-14],[10,-10],[1,-1],[0,-4],[2,-2],[12,-13]],[[4037,452],[2,1],[3,1],[2,1],[2,2],[3,5],[4,7],[6,8],[2,1],[2,1],[4,1]],[[4004,471],[1,-1],[1,-1],[1,-1],[1,-2],[0,-1],[0,-4],[0,-1],[1,-1],[5,-2],[2,-2],[3,-3],[2,-1]],[[3988,469],[12,2],[4,0]],[[4026,452],[11,0]],[[4021,451],[2,0],[3,1]],[[3918,442],[11,0]],[[2995,1234],[-6,-39],[0,-12],[1,-3],[1,-4],[6,-13],[0,-7],[0,-3],[-1,-2],[-2,-1],[-1,0]],[[2993,1150],[-5,1],[-6,1],[-2,0],[-1,2],[-2,3],[-4,7],[-1,1],[-3,0]],[[2969,1165],[-3,-1],[-7,-5],[-6,-4],[-8,-1],[-4,-1],[-3,-2],[-2,-2],[-5,-3],[-4,-1],[-5,-1]],[[2922,1144],[-8,1],[-5,1],[-4,1]],[[2905,1147],[-4,-1],[-5,-2],[-2,-2],[-2,-2],[0,-2],[-1,-4],[0,-4],[2,-13],[0,-2],[-1,-6],[0,-3],[0,-4],[1,-3],[0,-4],[0,-4],[-2,-5],[-1,-3],[0,-2],[2,-2],[3,-4],[1,-3],[2,-3],[0,-4],[0,-6],[-3,-7],[-2,-3],[-3,-2],[-5,0],[-3,-1],[-5,-4],[-6,-6],[-3,-3],[-3,-2],[-3,0]],[[2813,1028],[-46,1],[-6,2],[-6,6],[-5,4],[-6,4],[-11,4],[-6,2],[-30,3]],[[2697,1054],[-7,0],[-3,-1],[-50,-2],[-6,-26],[-10,-20],[-21,-33],[-2,-5],[1,-4],[14,-26],[2,-5],[2,-7],[1,-4],[2,-3],[3,-3],[11,-10],[7,-9],[5,-7],[2,-6],[6,-19],[1,-3],[11,-11],[4,-6],[0,-4],[-2,-4],[-4,-2],[-4,-3],[-3,-1],[-3,-1],[-7,-1],[-1,0],[-2,-1],[-1,-2],[-2,-2],[-1,-3],[0,-2],[0,-2],[5,-16],[0,-4],[0,-3],[0,-1],[-5,-11],[-9,-6],[-10,-4],[-35,-3],[-41,-12],[-5,-3],[-1,0],[-1,-2],[-2,-2],[-6,-4],[-5,-3],[-6,-1],[-15,-7],[-14,-11],[-5,-6],[-1,-2],[-1,-3],[1,-2],[0,-1],[4,-3],[1,-2],[2,-3],[1,-4],[-1,-3],[-1,-5],[1,-5],[2,-5],[8,-11],[2,-6],[2,-7],[0,-9],[1,-17],[3,-9]],[[2847,1030],[-3,1],[-3,1],[-16,8],[-1,1]],[[2824,1041],[-1,-1],[-2,-4],[-3,-5],[-5,-3]],[[2862,1031],[-9,0]],[[2853,1031],[-1,0],[-1,0],[-2,-1],[-2,0]],[[3313,517],[0,7],[-1,3],[0,3],[1,3],[0,4],[0,4],[0,2],[2,5],[0,4],[0,4],[1,2],[1,3],[0,3],[1,4],[-1,7],[-1,4],[-2,3],[-5,4],[-3,4],[-4,5],[-8,15],[-2,5],[1,2],[1,2],[0,2],[1,2],[-1,2],[-2,1],[-12,1],[-7,4],[-7,9]],[[2357,1303],[-2,1],[-17,7],[-1,1],[-1,1],[-1,3],[-3,9],[-1,4],[0,6],[4,51],[3,16],[7,23],[3,8],[31,53],[14,42],[0,3]],[[2447,1258],[-14,0],[-3,1],[-4,2],[-5,3],[-4,4],[-3,3],[-3,2],[-2,2],[-10,2],[-3,2],[-4,2],[-10,8],[-12,12],[-3,2],[-3,1],[-1,0]],[[2363,1304],[-2,0],[-4,-1]],[[2471,1222],[-1,0],[-1,0],[0,2],[1,12],[-3,7],[-2,2],[-1,2],[-1,1],[-6,9],[-1,2],[-2,0]],[[2454,1259],[-7,-1]],[[2955,1231],[-3,0],[-9,4],[-4,2],[-5,1],[-35,0]],[[2899,1238],[-4,0],[-4,-2],[-6,-3],[-9,-6],[-3,-4],[-3,-3],[-2,-8],[0,-2],[-1,-1],[-2,-1],[-2,-1],[-9,-1],[-4,-2],[-24,-20],[-75,-23],[-7,-1]],[[2995,1234],[-40,-3]],[[2521,1206],[-23,11],[-12,3],[-10,2]],[[2476,1222],[-5,0]],[[2683,1178],[-4,0],[-21,3],[-7,3],[-15,8],[-3,3],[-6,5],[-12,7],[-26,10],[-31,4],[-11,1]],[[2547,1222],[-4,-1],[-4,-2],[-13,-12],[-5,-1]],[[2744,1160],[-3,1],[-5,4],[-3,2],[-11,7],[-28,8]],[[2694,1182],[-5,-3],[-6,-1]],[[3456,1739],[12,2],[6,2],[1,0],[1,2],[1,2],[1,5],[1,3],[1,3],[3,3],[0,1],[0,1],[-2,1],[-1,1],[-1,0],[-1,1],[0,4],[-3,17],[-1,2],[0,1],[-1,1],[-2,0],[-1,1],[-1,1],[-4,9],[-1,7],[-1,1],[-1,1],[-3,2],[-2,2],[-2,4],[1,2],[0,2],[2,1],[0,1],[1,1],[0,1],[-1,4],[1,1],[2,4],[1,1],[0,2],[-1,1],[-2,2],[-2,2],[-2,1],[-2,1],[-3,0]],[[3450,1846],[-5,-2],[-10,-7]],[[3440,1742],[6,-1],[10,-2]],[[3406,1687],[2,0],[5,3],[7,9],[8,13],[2,3],[2,3],[1,4],[2,6],[0,3],[-1,3],[-1,3],[0,2],[0,1],[3,1],[2,1],[2,0]],[[3382,1691],[11,-1],[11,-3],[2,0]],[[3350,1498],[-8,10],[-2,3],[-1,3],[-4,15],[-1,7],[0,5],[1,8],[0,5],[-2,8],[1,13],[1,11],[1,2],[1,1],[5,3],[2,2],[2,3],[5,14],[11,23],[1,1],[0,1],[0,1],[-1,3],[-5,16],[0,1],[0,2],[0,1],[1,4],[2,4],[1,1],[0,1],[-1,3],[1,3],[1,2],[2,3],[12,9],[2,1],[4,0]],[[3260,1485],[-1,0],[-7,3],[-1,1],[-4,3],[-2,2],[-4,2],[-4,2],[-3,1]],[[3234,1499],[-3,0],[-7,-2],[-5,-3],[-3,-2],[-10,-6],[-13,-3],[-1,0],[-1,-1]],[[3350,1498],[-12,-9],[-11,-12],[-2,-2],[-18,-7],[-5,0]],[[3154,1479],[-3,1],[-4,2],[-8,8],[-3,1],[-3,1]],[[3133,1492],[-18,-3],[-27,-9]],[[3283,1468],[-2,0],[-1,2],[-1,2],[1,2],[1,2],[1,1],[0,2],[-1,1],[-3,7],[-1,2],[-2,2],[-2,1]],[[3273,1492],[-2,-1],[-3,-1],[-3,-3],[-1,-1],[-4,-1]],[[3191,1482],[0,1],[-1,2],[0,2],[0,2],[0,1],[-1,1],[-2,0]],[[3187,1491],[-3,0],[-28,-11],[-2,-1]],[[3302,1468],[-3,1],[-2,1],[-1,2],[-2,0]],[[3294,1472],[-2,0],[-6,-3],[-1,0],[-1,-1],[-1,0]],[[2933,1563],[-3,1],[-4,1],[-13,8],[0,3],[3,4],[0,1],[1,2],[0,2],[0,3],[-1,2],[-2,3],[-2,2],[-23,5],[-57,4],[-4,2],[-2,1],[-2,2],[-1,1],[-1,2],[0,3],[1,4],[1,4],[0,4],[-2,32],[-1,8],[-3,9],[-5,9],[-5,5],[-6,7],[-3,2],[-4,2],[-5,2],[-4,1],[-2,1],[-3,1],[0,4],[1,5],[3,11],[6,9],[0,2],[0,9],[1,8],[3,10],[6,29],[2,18],[-1,20],[-4,14],[-10,6]],[[3045,1473],[-37,6],[-35,11],[-2,2],[-1,2],[-1,6],[1,7],[2,17],[-1,7],[1,4],[3,14],[1,10],[1,6],[-1,4],[-3,3]],[[2973,1572],[-16,-2],[-13,-4],[-4,-1],[-7,-2]],[[3088,1480],[-4,-2],[-9,-2],[-12,-1],[-11,-2],[-7,0]],[[2905,548],[-2,2],[-3,4],[-11,23],[-2,4],[-6,4],[-1,1],[-1,3],[-1,4],[-2,2],[-2,2],[-4,0],[-3,1],[-5,2],[-1,2],[-1,2],[0,4],[0,5],[0,2],[-1,5],[0,3],[0,7],[-1,4],[-11,27],[-21,36],[-6,5],[-13,8]],[[2807,710],[-9,-1],[-17,-8],[-7,-6],[-5,-4],[-7,-10],[-6,-9],[-4,-4],[-6,-3],[-25,-2],[-15,-4],[-12,-5],[-7,-4],[-14,-12],[-15,-7],[-19,-3],[-73,-4],[-28,-9],[-5,0]],[[3045,603],[-2,1],[-3,1],[-4,3],[-4,4],[-1,2],[-1,4],[-1,1],[-1,1],[0,1],[-2,0],[-4,1]],[[3022,622],[-6,-2],[-4,-4],[-8,-23],[-6,-10],[-3,-4],[-4,-4],[-5,-4],[-6,-4],[-7,-3],[-10,-3],[-2,0],[-1,-2],[-1,-1],[-1,-1],[1,-1],[1,-1],[7,-8],[1,-2],[1,-2],[0,-2],[-1,-1],[-1,-1],[-2,-1],[-2,0],[-10,-1],[-3,0],[-1,-1],[-2,-1],[-4,-4],[-1,0]],[[2533,615],[-12,0],[-12,5]],[[3086,579],[-12,9],[-2,5],[-1,3],[0,2],[-1,2],[-1,2],[-2,1],[-4,1],[-13,0]],[[3050,604],[-2,0],[-1,-1],[-2,0]],[[2942,531],[-1,0],[-16,9],[-8,9],[-3,1]],[[2914,550],[-2,0],[-5,-2],[-2,0]],[[2517,137],[3,0],[17,-5],[37,-2],[68,-18]],[[2381,0],[26,11],[4,0],[20,0],[20,6],[6,3],[13,10],[7,7],[5,6],[3,5],[2,5],[2,6],[1,5],[0,33],[1,5],[4,11],[2,5],[4,5],[7,10],[4,2],[3,1],[2,1]],[[2642,112],[9,1]],[[2283,55],[7,-1],[12,-2],[4,-2],[4,-2],[2,-1],[16,-20],[23,-27]],[[2088,0],[0,1],[-2,11],[-1,7],[-1,2],[-1,3],[0,2],[1,2],[0,1],[2,2],[151,10],[41,13],[5,1]],[[3712,274],[1,0],[1,-1],[2,0]],[[3683,240],[5,0],[3,1],[2,2],[8,12],[4,11],[1,3],[3,3],[1,2],[2,0]],[[3721,274],[3,-1],[1,-1],[1,-1],[2,-3],[0,-2],[2,-1],[4,-3],[2,-2],[2,-1],[3,-1],[3,-1],[2,-3],[0,-2],[0,-3],[-1,-4],[0,-2],[0,-8],[0,-2],[0,-3],[-4,-21],[-1,-2],[-4,-8],[-5,-8],[-1,-2],[-3,-2],[-13,-7],[-4,-3],[-3,-3],[-5,-15],[-2,-5],[-4,-7],[-6,-8],[-9,-7],[-9,-10],[-1,-3],[-3,-5],[-1,-5],[0,-3],[1,-4],[2,-5],[0,-2],[0,-6],[1,-3],[1,-1],[0,-1],[0,-10],[2,-10],[0,-2],[-1,-3],[-5,-9],[-5,-12],[0,-3],[1,-2],[1,-2],[4,-2],[3,-3],[3,-10],[0,-11],[-1,-4],[0,-1]],[[3716,273],[1,0],[4,1]],[[3669,245],[11,-5],[3,0]],[[1975,699],[-6,0],[-5,6],[-18,4],[-16,1]],[[1930,710],[-8,-2],[-4,-2],[-3,-4],[-2,-4],[-2,-5],[-3,-3],[-4,-2],[-10,-4],[-5,0]],[[1814,683],[-25,2],[-48,11],[-21,10],[-12,1],[-8,1]],[[2041,392],[-2,0],[-1,1],[-2,1],[-3,3],[-14,14],[-4,8],[-2,3],[-3,1],[-4,1],[-21,1],[-4,1],[-4,2],[-3,2],[-2,6],[-1,7],[1,16],[2,15],[2,7],[1,3],[3,2],[8,5],[2,2],[1,2],[1,2],[1,3],[1,2],[2,2],[5,4],[12,13],[4,6],[3,3],[3,3],[10,8],[3,5],[1,5],[-17,28],[-14,16],[-2,4],[0,4],[2,2],[3,3],[2,2],[3,5],[1,2],[6,4],[6,7],[2,3],[1,3],[1,3],[0,20],[0,4],[1,3],[1,2],[6,5],[1,3],[2,3],[0,4],[0,4],[-1,3],[-3,4],[-24,5],[-28,2]],[[1986,699],[-11,0]],[[1889,684],[-4,0],[-8,3],[-4,1],[-6,1]],[[1867,689],[-53,-6]],[[2509,620],[-7,-5],[-8,-4],[-3,-2],[-3,-6],[-4,-9],[-7,-18],[-2,-8],[-1,-6],[1,-2],[-1,-3],[-1,-2],[-10,-10],[-32,-12]],[[2431,533],[-1,0],[-1,1],[-1,0],[0,1],[-1,1],[0,2],[1,1],[1,3],[0,1],[-1,1],[-1,0]],[[2427,544],[-9,-2],[-30,-11],[-5,-1],[-5,-1]],[[2378,529],[-14,1]],[[2364,530],[-2,0],[-3,-3],[-2,-4],[-1,-4],[-1,-4],[-2,-3],[-4,-3],[-6,-4],[-15,-5],[-18,-4],[-3,0]],[[2307,496],[-3,1],[-2,0],[-10,6],[-2,0],[-1,1]],[[2289,504],[-3,0],[-3,-1],[-4,-1],[-15,-8],[-11,-8],[-9,-8],[-6,-4],[-2,-2],[-3,-4],[-2,-7],[0,-5],[0,-4],[1,-5],[0,-2],[0,-3],[-1,-3],[-9,-19],[-1,-4],[0,-3],[1,-7],[0,-1],[-1,-1],[-3,0]],[[2115,377],[-5,0],[-3,1],[-2,1],[-1,2],[-1,2],[-1,4],[-1,2],[-2,3],[-1,2],[0,2],[0,1],[0,2],[0,2],[0,2],[-3,6],[0,6],[-1,12],[-1,1],[-1,1],[-2,0]],[[2090,429],[-3,0],[-6,-3],[-19,-14],[-9,-11],[-4,-5],[-3,-2],[-3,-1],[-2,-1]],[[2218,404],[-7,1],[-8,0]],[[2203,405],[-14,-3],[-30,-3],[-11,-2],[-5,-3],[-3,-2],[-11,-11],[-6,-3],[-3,-1],[-5,0]],[[3433,277],[-27,6]],[[3406,283],[-3,-1],[-2,0],[-1,0],[-1,-1],[-2,-3],[-13,-17],[-4,-7],[-2,-5],[-1,-7],[-1,-5],[-3,-7],[-3,-4],[-3,-2],[-1,-1],[-5,-2],[-7,-3],[-1,-1],[-1,-1],[0,-3],[0,-5],[1,-9],[2,-10],[0,-2],[-2,-2],[-4,-2],[-1,-1],[-1,0],[0,-1],[-1,-2],[-2,-8],[-1,-2],[-1,-2],[-1,-2],[0,-2],[0,-2],[6,-12],[-2,-2],[-3,-1],[-5,0]],[[3447,221],[-1,0],[-1,2],[0,3],[1,13],[-2,26],[0,6],[2,4],[1,1],[0,2],[-1,2],[-1,0],[-1,0]],[[3444,280],[-6,-2],[-5,-1]],[[3669,245],[-9,-6],[-2,-2],[-4,-2],[-24,-4],[-4,-1]],[[3496,238],[-2,0],[-11,4],[-4,1],[-2,0]],[[3477,243],[-4,-1],[-3,-1],[-2,-2],[-2,-1],[-1,-2],[-4,-8],[-2,-2],[-1,-1],[-2,-1],[-2,-1],[-6,-2],[-1,0]],[[3570,215],[-4,0],[-3,1],[-3,3],[-4,6],[0,1],[-1,4],[-1,1],[-4,2],[-17,2],[-19,2],[-7,2],[-2,0]],[[3505,239],[-9,-1]],[[3626,230],[-4,1],[-1,1],[-1,2],[-1,1]],[[3619,235],[-1,0],[-2,-1],[-2,-3],[-1,-2],[0,-3],[0,-5],[0,-1],[0,-1],[-1,-3],[-2,-1],[-12,-3]],[[3598,212],[-23,3]],[[3575,215],[-5,0]],[[3288,158],[-5,1],[-3,2],[-5,7],[-4,1]],[[3337,146],[-5,1],[-5,2],[-14,8],[-6,2]],[[3307,159],[-19,-1]],[[3313,517],[-7,1]],[[3306,518],[-2,-1],[-3,-2],[-8,-8],[-2,-3],[-1,-2],[1,-4],[0,-2],[0,-2],[0,-2],[-1,-4],[-7,-7],[-4,-4],[-4,-6],[-22,-41],[0,-2],[0,-1],[0,-2],[2,-2],[1,-1],[3,-2],[1,-1],[1,-1],[1,-2],[0,-2],[1,-3],[-1,-4],[-4,-18],[0,-4],[0,-2],[1,-2],[1,-2],[1,-4],[1,-3],[-5,-24],[-6,-15],[0,-2],[1,-1],[3,0],[3,-2],[3,-3],[2,0],[1,0]],[[3270,326],[2,0],[2,-2],[1,-4],[2,-2],[1,-1],[2,0],[4,-2],[1,-5],[5,-20],[2,-9],[1,-6],[-1,-4],[-3,-5],[-5,-7],[-2,-3],[-1,-3],[1,-1],[1,-2],[1,-4],[1,-5],[1,-10],[0,-5],[-1,-5],[-1,-6],[0,-2],[-2,-3],[-3,-6],[-3,-10],[-5,-25]],[[3264,325],[6,1]],[[2651,113],[1,-16],[2,-7],[-1,-4],[1,-2],[0,-2],[3,-5],[1,-2],[0,-2],[0,-3],[1,-2],[1,-2],[5,-5],[0,-3],[-1,-4],[-6,-7],[-5,-6],[-1,-2],[0,-4],[3,-10],[-1,-5],[-2,-6],[-6,-14]],[[2838,275],[3,0],[27,5],[18,1],[4,2],[12,8],[17,8],[6,5],[4,4],[-1,3],[0,2],[1,3],[2,5],[0,2],[0,2],[-2,1],[-7,5],[-5,1],[-2,1],[0,1],[-1,2],[1,5],[4,7],[6,7],[15,11],[4,4],[1,3],[0,2],[0,1],[0,2],[1,3],[6,9],[6,6],[4,7],[4,4],[3,3],[3,1],[9,1],[47,20],[3,2],[1,2],[1,2],[-1,2],[-1,1],[-2,1],[-9,4],[-1,1],[-1,1],[1,0],[0,2],[2,4],[3,8],[4,6],[2,3],[0,2],[0,2],[-1,1],[-1,0],[-1,1],[0,1],[0,2],[2,5],[3,4],[7,8],[3,4],[3,5],[4,4],[33,26],[-6,3],[0,2],[0,3],[0,7],[0,3],[2,3],[12,11],[1,2],[-1,1],[0,2],[-2,1],[-2,5]],[[2832,283],[1,0],[0,-1],[1,-4],[0,-1],[1,-2],[3,0]],[[2802,202],[2,1],[2,3],[2,3],[3,4],[5,5],[5,3],[6,3],[2,2],[1,3],[0,4],[-1,5],[-2,4],[-1,4],[-4,4],[-1,1],[0,3],[-1,10],[1,9],[1,3],[1,2],[4,3],[2,1],[2,1],[1,0]],[[2796,207],[3,-3],[3,-2]],[[2753,168],[6,0],[2,1],[1,3],[0,3],[1,3],[1,3],[2,2],[26,22],[2,2],[2,0]],[[2738,171],[4,0],[11,-3]],[[2651,113],[8,7],[29,14],[6,5],[4,4],[21,22],[3,2],[3,0],[2,1],[8,2],[3,1]],[[3271,169],[-5,-24],[-1,-2],[0,-1],[-2,-2],[-6,-3],[-11,-10],[-1,-7],[0,-3],[-1,-3],[-3,-8],[0,-2],[-1,-5],[-1,-2],[-1,-2],[-3,-2],[-1,-1],[-1,-1],[1,-2],[1,-1],[2,-2],[0,-2],[-1,-4],[-3,-6],[-5,-21],[-2,-4],[-3,-1],[-5,-1]],[[3218,47],[-8,0],[-3,1],[-3,1],[-6,4],[-3,2],[-6,0]],[[3189,55],[-3,-1],[-3,-2],[-6,-5],[-7,-3],[-2,-1],[-2,-1],[-2,-2],[-2,-3],[-2,-5],[-3,-8],[-1,-16],[-1,-8]],[[3735,2185],[3,0],[2,1],[6,4],[2,1],[6,0],[1,1],[2,3],[0,4],[-3,13],[-2,5],[-4,5],[-1,5],[0,3],[0,2],[1,2],[0,2],[-1,3],[-3,3],[-9,10],[-10,17],[-5,9],[-2,8],[2,11],[3,13],[8,22],[0,2],[1,1],[1,4],[0,2],[-3,8],[-17,18],[-5,7],[-1,2],[-1,7],[0,3],[0,2],[-1,2],[-1,2],[-2,3],[-1,4],[-2,5],[-3,3],[-3,2],[-13,7],[-3,2],[-6,0],[-23,6],[-3,2],[-1,1],[-1,1],[-2,1],[0,2],[-1,3],[0,2],[1,14],[0,3]],[[3722,2188],[2,0],[2,0],[8,-3],[1,0]],[[3742,2103],[-9,8],[-8,8],[-4,6],[-2,8],[-1,23],[-4,5],[-4,2],[-6,6],[-2,3],[0,3],[3,5],[3,3],[13,5],[1,0]],[[3721,2095],[5,0],[2,1],[14,7]],[[3716,2095],[5,0]],[[3600,2077],[35,2],[43,8],[27,7],[11,1]],[[3586,2082],[14,-5]],[[3380,1825],[-2,2],[-1,3],[0,9],[4,11],[0,3],[-1,4],[-1,5],[-2,3],[-4,7],[-9,8],[7,74],[0,3],[-3,15],[0,4],[1,4],[1,4],[2,3],[6,4],[19,0],[40,5],[8,3],[9,6],[18,19],[22,17],[11,4],[33,7],[3,2],[4,4],[4,6],[1,1],[2,2],[15,10],[9,4],[10,1]],[[3435,1837],[-3,-3],[-2,-1],[-3,-1],[-47,-7]],[[3351,2002],[1,0],[1,1],[0,2],[2,3],[7,4],[-4,9],[-1,5],[-3,10],[-4,14],[-6,9],[-1,4],[0,4],[2,14],[4,14],[0,2],[0,2],[-2,3],[-2,3],[-2,1],[-9,6],[-3,2],[-1,2],[-1,2],[0,1],[0,2],[3,3],[2,2],[2,3],[2,3],[4,19],[3,14],[3,11],[0,2],[0,3],[-2,4],[-2,4],[-5,7],[-3,2],[-2,4],[-1,3],[-4,19],[-19,24],[-3,14],[-1,6],[1,7],[2,14],[10,33],[42,75],[2,3]],[[3347,2003],[4,-1]],[[3252,1805],[-3,0],[-4,1],[-6,2],[-11,9],[-2,2],[-2,3],[0,1],[-1,2],[0,2],[0,2],[0,3],[2,2],[2,2],[6,4],[7,4],[2,1],[2,1],[2,3],[5,7],[1,3],[1,2],[-2,6],[-3,15],[4,4],[2,1],[2,3],[2,2],[2,4],[3,5],[1,2],[1,3],[0,5],[0,4],[-1,2],[0,3],[-1,3],[0,3],[0,22],[11,43],[1,2],[3,4],[2,1],[7,2],[60,3]],[[3435,1837],[0,-3],[-1,-5],[-1,-2],[-1,-1],[-1,-2],[-1,-1],[-1,-1],[-1,-1],[-6,-3],[-7,-4],[-3,-2],[-10,-4],[-2,0],[-3,-3],[-1,-1]],[[3396,1804],[-2,0],[-2,1],[-3,3],[-3,3],[-2,2],[-1,3],[-2,1],[-1,1],[-1,0]],[[3379,1818],[-2,0],[-3,-1],[-1,-2],[0,-1],[0,-2],[-1,-1],[0,-1],[-2,-3],[-2,-3],[-3,-3],[-1,-1],[-2,-1],[-25,-3]],[[3286,1805],[-1,0],[-1,2],[-1,3],[0,1],[-1,1],[-1,1]],[[3281,1813],[-2,0],[-4,-1],[-14,-2],[-4,-1],[-3,-3],[-2,-1]],[[3337,1796],[-17,2],[-17,6],[-2,1],[-3,3],[-2,0]],[[3296,1808],[-2,0],[-3,-1],[-4,-2],[-1,0]],[[264,0],[-78,35],[-46,9]],[[140,44],[-8,-13],[-17,-19],[-20,-12]],[[645,0],[7,19],[48,69],[6,21],[4,22],[8,26],[1,25],[-15,25],[-11,25],[0,14],[-11,13],[-6,10],[-2,10],[6,17],[10,17],[3,14],[-2,34]],[[371,1474],[40,-11],[106,-83],[13,-28],[-5,-30],[-35,-35],[-145,-105],[-24,-46],[-46,-142],[-3,-77],[23,-131],[17,-28],[72,-9]],[[0,1344],[134,36],[145,70],[92,24]],[[477,772],[16,-21],[14,-29],[27,-191],[24,-57],[31,-19],[8,-7],[24,-11],[31,-20],[29,-48],[10,-8]],[[384,749],[93,23]],[[1185,1055],[20,-17],[35,-60],[48,-18]],[[985,985],[10,7],[10,12],[108,17],[34,20],[38,14]],[[890,1004],[58,-7],[37,-12]],[[691,361],[9,12],[16,28],[12,54],[50,80],[115,79],[16,17],[18,31],[2,13],[11,20],[-55,42],[-3,13],[-4,11],[-9,7],[-10,10],[-1,19],[5,26],[9,23],[2,18],[-4,20],[8,34],[3,30],[-14,23],[-2,12],[5,13],[20,8]],[[1288,960],[227,1],[28,5]],[[0,1358],[44,56],[47,44],[41,25],[77,30],[11,9],[16,36],[63,111],[6,32],[-24,27],[-86,72],[-10,25],[-12,55],[-7,85],[5,50],[15,28],[10,42],[-9,36],[-15,9],[-11,0]],[[161,2130],[-7,-2]],[[0,2160],[25,-22],[20,-6],[35,-6],[18,-7]],[[98,2119],[56,9]],[[676,2266],[-6,13],[-10,11],[-18,12],[-2,16],[15,18],[22,64],[13,19],[4,13],[0,9],[3,8],[10,12],[8,14],[-2,19],[-10,20],[-33,30],[-9,19],[-4,16],[-7,8],[-163,8],[-14,10],[6,16],[4,16],[0,20],[13,14],[45,27]],[[663,2124],[28,7],[14,13],[12,35],[-3,15],[-13,7],[-5,7],[2,13],[22,23],[-1,11],[-12,6],[-8,11],[-3,11]],[[696,2283],[-5,-2],[-5,-13],[-10,-2]],[[263,2276],[59,-3],[241,-133],[100,-16]],[[154,2128],[1,12],[-3,17],[3,20],[21,28],[87,71]],[[0,2551],[19,27],[-6,28],[-13,9]],[[254,1221],[8,-14],[6,-35],[0,-10],[-2,-9],[-3,-10],[-4,-8],[-4,-4],[-24,-1],[-8,-2],[-10,-11],[-8,-15],[-8,-14],[-14,-7],[-9,2],[-7,6],[-4,9],[-4,10],[-1,9],[1,5],[-1,5],[-4,7],[-16,3],[-16,-8],[-31,-23],[-21,-8],[-15,-3],[-7,-5],[-22,-30],[-3,-8],[-2,-10],[-2,-6],[-19,-16],[0,600],[7,2],[7,0],[6,-4],[8,-7],[8,-8],[3,-7],[0,-4],[4,-6],[1,-3],[-1,-15],[1,-5],[9,-16],[14,-7],[17,-3],[15,-5],[12,-11],[8,-13],[15,-35],[7,-14],[40,-45],[10,-8],[7,-10],[10,-28],[7,-12],[10,-8],[11,-2],[4,-5],[-3,-11],[-12,-27],[-2,-8],[1,-8],[5,-10],[7,-4],[17,-7],[6,-7],[0,-7],[-5,-15],[-2,-7],[2,-9]],[[0,983],[4,-2],[5,-8],[0,-10],[-3,-10],[-6,-10],[0,40]],[[0,1659],[0,-1],[0,1]],[[4096,3990],[-5,-8],[2,-4],[3,-4],[0,-70],[-4,4],[-4,3],[-14,6],[-7,5],[-20,22],[-14,11],[-6,9],[1,8],[4,8],[2,10],[-3,9],[-7,2],[-18,-1],[-9,3],[-18,11],[-8,1],[-9,-4],[-5,-4],[-6,-4],[-10,0],[-10,5],[-59,44],[-12,5],[-131,22],[-96,17],[309,0],[3,-1],[11,-11],[8,0],[15,3],[7,1],[5,-2],[7,-3],[13,-2],[3,-3],[-1,-10],[6,-12],[15,-5],[29,-3],[-4,-7],[-5,-4],[-6,-4],[-5,-4],[7,-5],[8,-1],[29,2],[9,0],[0,-35]],[[1203,1158],[-15,-39],[-4,-16],[1,-11],[3,-15],[4,-28],[-2,-6],[-9,-2],[-4,1],[-7,6],[-4,2],[-4,0],[-5,-2],[-4,-1],[-9,1],[-6,5],[-4,7],[-2,9],[-4,19],[-4,6],[-8,3],[-5,4],[-14,27],[-13,7],[-33,9],[-14,8],[-3,6],[-3,10],[-4,9],[-7,4],[-15,4],[-9,4],[-7,4],[-8,13],[-6,6],[-9,3],[-17,2],[-17,4],[-14,8],[-33,32],[-6,4],[-18,5],[-8,1],[-24,-4],[-7,1],[-8,4],[-14,12],[-9,2],[-4,0],[-7,-2],[-4,-1],[-5,1],[-2,1],[-4,5],[-12,9],[-7,2],[-13,-8],[-9,-2],[-34,-1],[-4,-2],[-9,-4],[-3,-1],[-6,-2],[-18,-16],[-14,-8],[-46,-17],[-14,-12],[-8,-14],[-17,-54],[-8,-15],[-11,-12],[-38,-35],[-11,-14],[-8,-19],[-3,-28],[-3,-7],[-10,-14],[-4,-8],[-2,-8],[1,-12],[5,-8],[6,-7],[6,-10],[1,-11],[-1,-11],[-5,-9],[-7,-3],[-9,-13],[-4,-24],[-5,-15],[-16,14],[-4,21],[-25,45],[-4,17],[0,20],[3,20],[5,18],[14,30],[6,17],[5,60],[-2,25],[1,10],[22,76],[9,18],[12,14],[117,59],[11,7],[15,14],[8,6],[28,7],[11,4],[7,5],[8,7],[9,4],[19,3],[53,-2],[9,2],[18,5],[8,1],[17,0],[31,7],[2,-2],[2,-3],[3,-3],[4,-1],[15,2],[16,6],[15,9],[12,11],[9,17],[6,4],[9,-3],[7,-7],[2,-8],[-2,-18],[4,-36],[-1,-12],[-3,-8],[-12,-16],[-2,-8],[2,-10],[5,-9],[10,-11],[22,-16],[3,-4],[5,-3],[28,4],[7,-4],[12,-14],[7,-3],[15,0],[33,7],[17,1],[14,-6],[12,-15],[7,-19],[5,-8],[4,-4],[4,-2],[6,-9],[6,-4],[1,-6],[0,-10],[3,-10],[4,-4],[6,-2],[35,1],[6,-4],[2,-13]],[[1646,729],[-3,-10],[13,-4],[-2,-7],[-5,-6],[-12,-10],[-26,-38],[-11,-12],[-11,-8],[-12,0],[-6,9],[-2,25],[-4,10],[-1,1],[-1,0],[-19,5],[-11,6],[-6,2],[-6,0],[-11,-3],[-6,0],[-1,4],[2,6],[6,4],[12,5],[-4,8],[-3,10],[0,10],[4,8],[6,-1],[13,-11],[6,-4],[9,0],[6,3],[6,5],[6,2],[11,-4],[9,-9],[10,-8],[12,1],[5,5],[9,13],[4,6],[12,5],[8,2],[5,-1],[-3,-7],[-8,-12]],[[254,1221],[8,-14],[6,-35],[0,-10],[-2,-9],[-3,-10],[-4,-8],[-4,-4],[-24,-1],[-8,-2],[-10,-11],[-8,-15],[-8,-14],[-14,-7],[-9,2],[-7,6],[-4,9],[-4,10],[-1,9],[1,5],[-1,5],[-4,7],[-16,3],[-16,-8],[-31,-23],[-21,-8],[-15,-3],[-7,-5],[-22,-30],[-3,-8],[-2,-10],[-2,-6],[-19,-16]],[[0,983],[4,-2],[5,-8],[0,-10],[-3,-10],[-6,-10]],[[0,1659],[0,-1]],[[0,1620],[7,2],[7,0],[6,-4],[8,-7],[8,-8],[3,-7],[0,-4],[4,-6],[1,-3],[-1,-15],[1,-5],[9,-16],[14,-7],[17,-3],[15,-5],[12,-11],[8,-13],[15,-35],[7,-14],[40,-45],[10,-8],[7,-10],[10,-28],[7,-12],[10,-8],[11,-2],[4,-5],[-3,-11],[-12,-27],[-2,-8],[1,-8],[5,-10],[7,-4],[17,-7],[6,-7],[0,-7],[-5,-15],[-2,-7],[2,-9]],[[1203,1158],[-15,-39],[-4,-16],[1,-11],[3,-15],[4,-28],[-2,-6],[-9,-2],[-4,1],[-7,6],[-4,2],[-4,0],[-5,-2],[-4,-1],[-9,1],[-6,5],[-4,7],[-2,9],[-4,19],[-4,6],[-8,3],[-5,4],[-14,27],[-13,7],[-33,9],[-14,8],[-3,6],[-3,10],[-4,9],[-7,4],[-15,4],[-9,4],[-7,4],[-8,13],[-6,6],[-9,3],[-17,2],[-17,4],[-14,8],[-33,32],[-6,4],[-18,5],[-8,1],[-24,-4],[-7,1],[-8,4],[-14,12],[-9,2],[-4,0],[-7,-2],[-4,-1],[-5,1],[-2,1],[-4,5],[-12,9],[-7,2],[-13,-8],[-9,-2],[-34,-1],[-4,-2],[-9,-4],[-3,-1],[-6,-2],[-18,-16],[-14,-8],[-46,-17],[-14,-12],[-8,-14],[-17,-54],[-8,-15],[-11,-12],[-38,-35],[-11,-14],[-8,-19],[-3,-28],[-3,-7],[-10,-14],[-4,-8],[-2,-8],[1,-12],[5,-8],[6,-7],[6,-10],[1,-11],[-1,-11],[-5,-9],[-7,-3],[-9,-13],[-4,-24],[-5,-15],[-16,14],[-4,21],[-25,45],[-4,17],[0,20],[3,20],[5,18],[14,30],[6,17],[5,60],[-2,25],[1,10],[22,76],[9,18],[12,14],[117,59],[11,7],[15,14],[8,6],[28,7],[11,4],[7,5],[8,7],[9,4],[19,3],[53,-2],[9,2],[18,5],[8,1],[17,0],[31,7],[2,-2],[2,-3],[3,-3],[4,-1],[15,2],[16,6],[15,9],[12,11],[9,17],[6,4],[9,-3],[7,-7],[2,-8],[-2,-18],[4,-36],[-1,-12],[-3,-8],[-12,-16],[-2,-8],[2,-10],[5,-9],[10,-11],[22,-16],[3,-4],[5,-3],[28,4],[7,-4],[12,-14],[7,-3],[15,0],[33,7],[17,1],[14,-6],[12,-15],[7,-19],[5,-8],[4,-4],[4,-2],[6,-9],[6,-4],[1,-6],[0,-10],[3,-10],[4,-4],[6,-2],[35,1],[6,-4],[2,-13]],[[1646,729],[-3,-10],[13,-4],[-2,-7],[-5,-6],[-12,-10],[-26,-38],[-11,-12],[-11,-8],[-12,0],[-6,9],[-2,25],[-4,10],[-1,1],[-1,0],[-19,5],[-11,6],[-6,2],[-6,0],[-11,-3],[-6,0],[-1,4],[2,6],[6,4],[12,5],[-4,8],[-3,10],[0,10],[4,8],[6,-1],[13,-11],[6,-4],[9,0],[6,3],[6,5],[6,2],[11,-4],[9,-9],[10,-8],[12,1],[5,5],[9,13],[4,6],[12,5],[8,2],[5,-1],[-3,-7],[-8,-12]],[[4096,3990],[-5,-8],[2,-4],[3,-4]],[[4096,3904],[-4,4],[-4,3],[-14,6],[-7,5],[-20,22],[-14,11],[-6,9],[1,8],[4,8],[2,10],[-3,9],[-7,2],[-18,-1],[-9,3],[-18,11],[-8,1],[-9,-4],[-5,-4],[-6,-4],[-10,0],[-10,5],[-59,44],[-12,5],[-131,22],[-96,17]],[[3942,4096],[3,-1],[11,-11],[8,0],[15,3],[7,1],[5,-2],[7,-3],[13,-2],[3,-3],[-1,-10],[6,-12],[15,-5],[29,-3],[-4,-7],[-5,-4],[-6,-4],[-5,-4],[7,-5],[8,-1],[29,2],[9,0]],[[2133,3910],[-1,4],[-15,26],[-21,11],[-15,17],[-8,11],[-7,28],[-8,17],[-4,8],[-5,17],[-1,20],[-2,11],[-6,16]],[[2492,3833],[-23,15],[-21,15],[-16,8],[-35,24],[-7,6],[-8,13],[-13,0],[-21,4],[-6,2],[-5,3],[-51,47],[-55,51],[-5,1],[-81,74]],[[3309,3719],[7,-2]],[[3316,3717],[23,-7]],[[3339,3710],[6,-2],[16,-4],[14,-2],[33,-9],[14,-9],[10,-10],[20,-16],[7,-4],[14,-4],[7,-2],[47,-13]],[[3619,3622],[5,0],[17,-6]],[[3527,3635],[18,-6],[21,-3],[39,-4],[14,0]],[[3650,3611],[21,0],[15,3]],[[3686,3614],[0,1],[18,13],[13,3],[9,2],[12,10],[14,5]],[[3641,3616],[9,-5]],[[2982,3560],[7,4],[5,9],[3,10]],[[3289,3714],[20,5]],[[2997,3583],[4,11],[11,30],[7,17],[12,24],[9,13],[12,11],[11,6],[7,0],[17,-2],[7,-4],[15,-9],[11,-4],[19,-9],[11,-4],[10,6],[12,11],[8,6],[30,9],[13,4],[24,3],[12,4],[30,8]],[[2974,3558],[-22,21]],[[2952,3579],[-6,6],[-14,16],[-12,19],[-14,17],[-4,6],[-11,11],[-15,17],[-19,11],[-9,5],[-26,15],[-15,6],[-15,6],[-15,5],[-15,6],[-22,2],[-17,-2],[-21,-4],[-42,-4],[-18,-3],[-15,0],[-15,5],[-21,12],[-19,16],[-14,13],[-1,4],[0,15],[-3,8],[-6,7],[-23,11],[-16,15],[-17,13]],[[2974,3558],[8,2]],[[3941,3500],[8,4],[19,8],[7,5]],[[3975,3517],[7,4],[46,17],[29,15],[12,7],[10,10],[17,22]],[[3880,3569],[1,-7],[2,-13],[4,-7],[8,-12],[6,-9],[3,-8],[1,-16],[2,0]],[[3752,3648],[3,2],[19,-4],[17,-5],[18,-6],[6,-4],[21,-9],[9,-2],[8,-5],[12,-4],[4,-6],[2,-11],[6,-9],[3,-16]],[[3907,3497],[15,-4],[7,2],[12,5]],[[3941,3500],[2,-5],[-3,-15],[1,-8]],[[3941,3472],[-3,-7],[-6,-11]],[[3941,3472],[12,-7],[11,-4],[51,-19],[24,-7],[4,-2]],[[4043,3433],[26,-11],[25,-13],[2,-1]],[[2441,3375],[-18,17],[-8,11],[-6,13],[-6,11],[-6,12],[-19,31],[-9,12],[-6,5],[-9,6],[-6,5],[-8,17],[-7,12],[-12,9],[-8,4],[-12,7],[-6,8],[-7,11],[-11,35],[-6,30],[-4,8],[-12,15],[-9,13],[-5,9],[-3,8],[0,11],[-6,17],[0,5],[2,21],[-2,15],[-13,26],[-5,10],[-1,16],[-3,12],[-5,7],[-16,19],[-27,17],[-11,9],[-4,7],[-9,19],[-5,15]],[[2959,3554],[15,4]],[[2722,3257],[1,8],[2,22],[3,8],[7,14],[9,15],[8,19],[3,19],[6,17],[3,18],[-3,19],[0,15],[6,2],[24,7],[13,4],[9,10],[11,15],[12,9],[16,9],[17,4],[22,6],[5,5],[1,13],[9,13],[8,8],[6,4],[36,13],[3,1]],[[2690,3261],[6,2],[12,-10],[9,0],[5,4]],[[2678,3235],[5,11],[7,14]],[[2690,3260],[0,1]],[[2678,3235],[-7,5],[-11,4],[-27,5]],[[2633,3249],[-4,1],[-27,11],[-17,9],[-27,19],[-4,11],[0,15],[-2,4],[-12,7],[-6,2],[-19,4],[-23,2],[-12,4],[-24,18],[-6,6],[-9,13]],[[2675,3214],[3,21]],[[3312,3282],[-21,11],[-24,15],[-22,20]],[[3032,3522],[-13,8],[-21,15],[-16,15]],[[3245,3328],[-1,0],[-7,10],[-9,22],[-11,13],[-19,13],[-21,11],[-11,8],[-36,22],[-12,8],[-7,5],[-17,14],[-7,11],[-17,22],[-4,8],[-14,13],[-20,14]],[[3402,3210],[-6,6],[-12,21],[-8,7],[-19,11],[-17,10],[-22,15],[-6,2]],[[0,3197],[4,-4]],[[3932,3454],[-4,-10],[-1,-3]],[[3927,3441],[-1,-4],[6,-26],[-1,-12],[3,-9],[0,-8],[-5,-7],[-6,-9],[-6,-15],[-3,-19],[-13,-4],[-6,-5],[-2,-6],[-3,-19],[-9,-28],[-13,-22],[-11,-23],[-9,-17],[-8,-11],[-10,-17],[-21,-22]],[[3479,3141],[-3,6],[-8,9],[-24,15],[-10,8],[-21,24],[-11,7]],[[3477,3117],[2,24]],[[3809,3158],[-14,-11],[-18,-17],[-18,-23],[-15,-11]],[[4,3193],[3,-1],[15,-2],[30,-10],[7,-3],[33,-19],[12,-8],[21,-15],[12,-5],[21,-13],[20,-17],[16,-11],[18,-13]],[[3744,3096],[-12,-4],[-18,-11],[-9,-5],[-19,-19],[-30,-32],[-9,-11]],[[3647,3014],[-9,2],[-15,7],[-9,8],[-15,9],[-14,8],[-9,7],[-7,4],[-17,5],[-15,8],[-19,15],[-11,11],[-16,11],[-14,8]],[[0,3017],[28,19],[4,4],[-4,11],[-9,15],[-6,19],[-5,7],[3,8],[5,4],[0,9],[-5,7],[-1,6],[7,9],[2,6],[-8,17],[-4,19],[-6,11],[3,5]],[[3647,3014],[7,-8],[9,-9],[12,-22],[5,-12],[1,0],[15,-2],[12,-7],[8,-17],[4,-20],[5,-10],[4,-5],[29,-8],[9,-6],[10,-9],[11,-2],[16,2],[14,-6],[13,-13],[6,-1],[11,-2],[11,-2],[10,-6],[8,-9],[15,-11],[15,0]],[[728,2750],[-9,6],[-11,9],[-9,3]],[[699,2768],[-6,3],[-16,9],[-14,7],[-17,8],[-24,17],[-16,7],[-11,6],[-19,9],[-27,21],[-15,5],[-14,4],[-18,8],[-9,3],[-30,25],[-6,5],[-28,28],[-24,21],[-12,6]],[[728,2750],[15,-6],[18,-16],[15,-10]],[[2675,3214],[1,-3]],[[2676,3211],[4,-8],[4,-10],[8,-7],[13,-22],[6,-4],[11,-6],[12,-7],[10,-10],[35,-33],[13,-15],[3,-8],[9,-24],[8,-13],[12,-23],[10,-20],[9,-11],[6,-6],[47,-39],[9,-15],[30,-34],[30,-28],[9,-8],[14,-9],[18,-7],[24,-15],[6,-4],[28,-17],[12,-6],[23,-7],[19,-6],[15,-7],[8,-13],[12,-12],[9,-9],[4,-4],[14,-5],[12,-6],[16,-15],[15,-17],[11,-20],[7,-10],[9,-3],[9,-2]],[[3907,2829],[3,-8],[-3,-11],[-2,-32],[2,-9],[9,-13],[10,-10],[2,-4],[-2,-24],[3,-9],[6,-19],[2,-6],[-2,-9],[-12,-19],[-12,-26],[-1,-11],[1,-6],[6,-16],[5,-6]],[[776,2718],[-2,-24],[0,-5]],[[774,2689],[0,-10],[-1,-8],[-6,-18],[0,-8],[3,-7],[4,-21],[6,-7],[3,-13],[0,-8],[-4,-9]],[[2673,3207],[2,7]],[[2154,2568],[24,4],[20,-4],[37,-1],[9,5],[8,13],[18,26],[1,10],[-4,9],[0,8],[6,5],[19,4],[14,8],[9,16],[3,8],[-6,9],[0,6],[6,4],[9,1],[3,2],[4,12],[5,5],[9,6],[3,13],[-2,11],[2,11],[12,13],[22,27],[6,11],[18,7],[6,6],[2,6],[1,15],[3,7],[5,9],[7,10],[8,13],[18,22],[27,26],[15,10],[11,11],[9,15],[6,15],[-2,11],[-10,13],[1,8],[9,20],[6,19],[0,8],[6,13],[14,5],[16,15],[15,10],[12,5],[9,6],[12,13],[29,41],[4,6],[11,7],[9,11],[5,14]],[[3271,2677],[9,-4],[11,-7],[4,-15],[3,-21],[3,-9],[6,-6],[9,4],[5,-2],[19,-4],[20,-3],[16,-6],[14,-4],[11,-7],[18,-17],[10,-8],[9,-3],[18,-2]],[[2031,2559],[12,2],[18,1]],[[2061,2562],[23,1],[15,2],[55,3]],[[4096,2534],[-5,-9],[-9,-11],[-4,-5]],[[4078,2509],[-9,9],[-2,4]],[[3456,2563],[12,-8],[9,-5],[12,-6],[8,-7],[9,-12],[4,-5],[39,2],[5,-2],[19,-11]],[[394,2503],[-7,11],[-6,6],[-8,4],[-13,3],[-15,0],[-23,0],[-7,2],[-15,6],[-14,9],[-21,9]],[[3979,2462],[-14,41],[-3,9],[-12,30],[-15,25],[-13,24]],[[3573,2509],[26,-21],[16,-15],[6,-4],[15,-5],[12,-2],[11,2],[18,2],[42,-2],[19,3]],[[779,2580],[12,-10],[1,-7],[-9,-21],[0,-7],[6,-8],[6,-5],[3,-6],[2,-15],[6,-6],[7,-1],[8,-6],[4,-24],[5,-2]],[[3979,2462],[-5,-2],[-9,0],[-6,2],[-10,5],[-21,10],[-26,7],[-12,0],[-51,-3],[-29,-2],[-39,-8],[-33,-4]],[[1553,2462],[9,-2],[6,0],[13,-6]],[[15,2449],[-13,-3]],[[2,2446],[-2,0]],[[265,2553],[-4,-5],[-9,-11],[-20,-13],[-15,-10],[-30,-15],[-14,-7],[-7,-8],[-11,-2],[-19,4],[-11,2],[-21,-2],[-16,-11],[-11,-15],[-7,0],[-24,2],[-18,-13],[-8,2],[-5,-2]],[[2031,2559],[3,-13],[3,-6],[6,-5],[3,-1]],[[2046,2534],[8,-3],[12,-2],[15,-2],[6,-2],[22,-13],[14,-3],[12,-8],[9,-9],[4,-10],[5,-15],[4,-7],[8,-4],[21,-11],[10,-8],[9,-9],[11,-9]],[[4030,2400],[4,6],[14,11]],[[4048,2417],[4,4],[9,11],[6,17],[6,17],[8,18],[3,10],[0,9],[-6,6]],[[4010,2394],[-8,5]],[[4002,2399],[-8,5],[-8,13],[-3,20],[-1,14],[-3,11]],[[2031,2559],[-11,-6]],[[2020,2553],[-12,-7],[-10,-11],[-5,-6],[-9,-17],[-10,-13],[-6,-4],[-15,-3],[-8,-6],[-16,-13],[-18,-11],[-17,-6],[-9,-5],[-13,-15],[-12,-12],[-17,-9],[-6,-2],[-21,-4],[-1,-7],[-8,-8],[-7,-3],[-33,0],[-38,5],[-10,0],[-14,2],[-19,0],[-12,2],[-5,8],[-21,22],[-10,15],[-9,11],[-8,4],[-16,-2],[-14,-2],[-10,-2]],[[4030,2400],[-8,-9],[-4,0],[-8,3]],[[776,2718],[13,-7],[12,-6],[12,-4]],[[813,2701],[11,-3],[22,-2],[15,-6],[20,-13],[9,-4],[13,0],[17,2],[10,-2],[9,-5],[18,-21],[9,-6],[27,-11],[20,-15],[15,-2],[10,-3],[15,-8],[8,-7],[10,-8],[11,-7],[21,-17],[29,-13],[13,-10],[8,-7],[15,-17],[19,-19],[12,-13],[14,-13],[7,-13],[0,-7],[11,0],[10,-4],[17,-10],[25,-15],[8,-5],[25,-11],[6,-4],[21,-8],[26,-5],[10,-6]],[[1379,2383],[17,0],[15,6],[12,5],[10,6],[17,9],[19,10],[17,9],[25,17],[11,6],[25,11],[6,0]],[[830,2462],[-11,-13],[-1,-8],[1,-15],[0,-7],[-7,-13],[0,-10],[1,-20],[5,-21],[4,-19]],[[822,2336],[-6,4],[-27,8],[-7,2],[-15,9],[-15,7],[-6,6],[-20,9],[-13,10],[-8,7],[-12,15],[-6,8],[-3,7],[-6,24],[-3,8],[-6,7],[-8,4],[-15,2],[-13,-2],[-15,0],[-14,8],[-13,11],[-6,2],[-23,3],[-15,0],[-16,2],[-29,6],[-13,7],[-15,6],[-6,6],[-8,3],[-16,-5],[-15,-8],[-21,-7],[-14,-2]],[[836,2312],[-8,17],[-6,7]],[[4057,2409],[12,-22],[-5,-6],[-3,-5],[-6,-6],[-9,-6],[-16,-1],[-8,-6],[-6,-7],[-4,-29],[-5,-15],[0,-14],[5,-14],[-6,-22],[1,-13],[9,-17],[3,-7],[0,-15],[5,-23],[3,-4]],[[4027,2177],[16,8],[27,-2],[8,-2],[18,-6]],[[3875,2175],[21,-1],[21,-10],[8,-2],[6,-5],[18,-6]],[[3949,2151],[9,0],[15,4],[24,6],[7,3],[14,0],[7,8],[2,5]],[[3450,2146],[6,1],[12,12],[12,9],[26,17],[15,5],[16,6],[23,2],[16,7],[15,10],[6,5],[8,13],[6,23],[7,-2],[6,-6],[12,-9],[8,-4],[22,-3],[12,-8],[30,-5],[17,-4],[21,-10],[7,-3],[15,-6],[9,-4],[8,-2],[13,-3],[18,-6],[17,0],[27,-2],[8,0],[7,-4]],[[1795,2142],[-19,52],[-6,10],[-12,18],[-18,21],[-21,24],[-12,15],[-9,15],[-32,34],[-10,13],[-5,9],[-18,25],[-9,13],[-13,15],[-17,30],[-13,18]],[[1810,2080],[-1,19],[-8,26],[-6,17]],[[836,2312],[-2,-9],[0,-13],[0,-17],[3,-8],[6,-5],[3,-6],[-9,-6],[-6,-7],[0,-15],[-3,-7],[-12,-23],[-7,-21],[-3,-7],[-11,-13],[-10,-13],[-9,-6],[-15,-4],[-15,-9],[-18,-4],[-8,-5],[-16,-4],[-6,-2],[-6,-5],[-8,-29],[-9,-16],[-9,-14],[-17,-24]],[[1148,2063],[9,-9],[18,-17],[8,-6],[16,-20],[14,-17],[4,-9],[6,-6],[2,-6]],[[836,2312],[1,-6],[20,-14],[25,-17],[8,-4],[18,-17],[21,-21],[27,-28],[10,-15],[18,-20],[26,-19],[12,-11],[27,-13],[15,-10],[12,-11],[24,-17],[15,-5],[7,-2],[10,-6],[12,-9],[4,-4]],[[541,1946],[-25,-14]],[[649,2020],[-31,-24],[-21,-6],[-8,-4],[-6,-5],[-9,-13],[-25,-17],[-8,-5]],[[516,1932],[-18,-1]],[[498,1931],[-15,-1],[-17,2],[-46,8],[-54,11],[-54,15],[-20,4],[-9,3],[-34,13],[-26,4],[-30,0],[-21,8],[-17,2],[-28,-2],[-17,2],[-7,1],[-15,2],[-15,-2],[-15,-1],[-17,-4],[-15,-2],[-7,2],[-14,7],[-5,0]],[[927,1928],[-19,14],[-1,0]],[[907,1942],[-13,7],[-28,13],[-21,6],[-21,0],[-23,5],[-30,8],[-13,5],[-15,8],[-15,4],[-21,11],[-27,7],[-16,2],[-15,2]],[[1225,1973],[9,-3],[7,-8],[18,-19],[1,-1]],[[1260,1942],[11,-14],[14,-11],[7,-15],[6,-7],[20,-15],[13,-10],[14,-5],[21,2],[34,-12],[15,0],[24,-3],[8,2],[7,3],[8,4],[15,2],[21,-4],[21,6],[31,0],[8,2],[7,3],[8,15],[1,8],[0,13],[-6,24],[3,28],[8,6],[8,4],[16,13],[8,5],[15,12],[7,3],[32,6],[22,4],[23,9],[16,8],[18,9],[27,21],[15,15]],[[1220,1931],[-1,3],[1,15],[5,24]],[[1271,1837],[2,18],[-3,14],[-5,15],[-6,15],[-12,13],[-19,9],[-6,7],[-2,3]],[[1271,1837],[-18,4],[-15,-4],[-15,-6],[-13,-2],[-30,-2],[-20,-3]],[[936,1925],[-9,3]],[[1160,1824],[-9,-2],[-18,-2],[-29,0],[-13,4],[-8,3],[-12,10],[-25,26],[-30,30],[-8,4],[-18,11],[-13,7],[-14,4],[-22,4],[-5,2]],[[2216,2419],[0,-4],[-6,-11],[3,-4],[4,-4],[12,-7],[5,-8],[9,-20],[3,-13],[3,-21],[0,-9],[-6,-21],[4,-20],[9,-25],[2,-7],[-2,-12],[3,-28],[-1,-11],[-8,-20],[-1,-12],[3,-11],[4,-9],[5,-32],[3,-6],[9,-3],[4,-6],[5,-11],[9,-15],[1,-15],[3,-21],[0,-9],[0,-24],[2,-17],[4,-17],[8,-23],[7,-37],[3,-24],[3,-49],[2,-19]],[[2415,1820],[-9,-6],[-16,-2],[-30,6],[-26,0],[-10,-4]],[[3450,2146],[-9,20],[-15,24],[-7,8],[-20,15],[-14,9],[-24,6],[-9,2],[-28,5],[-14,8],[-21,7],[-6,4],[-10,0],[-23,6],[-13,0],[-8,-2],[-7,-4],[-2,-7],[-13,-19],[-14,-8],[-27,-22],[-10,-11],[-5,-8],[-1,-7],[-20,-32],[-3,-15],[2,-15],[6,-37],[4,-17],[2,-15],[-2,-8],[0,-15],[-1,-15],[-3,-7],[-12,-41],[0,-17],[3,-23],[-3,-22],[-6,-26],[0,-8],[6,-22],[-3,-17],[-2,-6],[-9,-18]],[[3109,1796],[-16,-4],[-12,11],[-8,-6],[-6,-13],[-6,-5],[-7,-6],[-14,-4],[-15,-1],[-7,-2],[-17,-8],[-9,-4],[-15,-5],[-6,-6],[-7,-5],[-14,-4],[-6,-6],[-14,-20],[-4,-8],[-8,-4],[-22,4],[-23,6],[-15,4],[-19,3],[-15,2],[-21,2],[-23,-4],[-34,-3],[-20,0],[-3,7],[-6,6],[-13,1],[-6,4],[-14,4],[-13,-6],[-41,-20],[9,-13],[2,-8],[-9,-20],[-8,-6],[-16,-6],[-15,4],[-8,-2],[-13,-11]],[[2415,1820],[6,0],[5,-6],[7,-11],[9,-7],[11,-4],[15,-4],[7,-5],[5,-12],[5,-30],[6,-13],[12,-11],[15,-15],[9,-6],[13,-5],[12,-6],[8,-9],[12,-32]],[[1081,1508],[-2,11],[-6,15],[0,7],[1,8],[-2,5]],[[1072,1554],[-1,2],[-3,15],[3,15],[9,2],[-1,7],[-3,10],[-6,3],[-2,8],[3,13],[15,13],[36,21],[8,5],[3,15],[9,21],[0,7],[-4,13],[-2,8],[3,7],[6,6],[2,21],[4,15],[0,15],[3,13],[6,15]],[[1082,1504],[-1,4]],[[2324,1814],[0,-11],[-11,-32],[-6,-22],[-6,-19],[-6,-15],[-7,-22],[-9,-23],[-5,-17],[-3,-15],[2,-18],[0,-12],[-2,-3],[-13,-10],[-6,-11],[-3,-32],[3,-35],[-3,-8],[-6,-5],[-12,-2],[-12,0]],[[1022,1457],[15,6],[39,18],[6,8],[0,15]],[[1593,1481],[-2,3]],[[1591,1484],[-1,3],[-16,22],[-12,15],[-6,6],[-28,17],[-5,5],[-15,8],[-27,11],[-22,13],[-12,8],[-5,7],[-7,2],[-20,15],[-19,21],[-20,16],[-22,21],[-14,13],[-12,8],[-40,22],[-15,9],[-5,8],[5,22],[1,8],[3,15],[-6,13],[-1,15],[0,22],[1,8]],[[1645,1275],[2,8],[9,20],[0,6],[-3,17],[-3,7],[0,8],[-5,15],[-10,11],[-8,17],[-10,39],[-8,25],[-6,15],[-10,18]],[[2159,1099],[-3,17],[-3,30],[-3,15],[0,17],[-6,23],[-12,22],[-3,7],[0,17],[-2,21],[8,15],[15,13],[4,6],[8,3],[6,6],[7,13],[5,13],[3,30],[3,8],[10,11],[3,7],[0,15],[-3,15],[0,17],[-3,15],[-9,8],[0,14],[2,6],[7,9],[26,10]],[[2159,1099],[-6,6],[-14,8],[-22,5],[-18,2],[-17,-7],[-6,-6],[-15,-2],[-19,4],[-34,5],[-15,2],[-30,6],[-25,7],[-17,0],[-7,0],[-14,2],[-12,8],[-13,15],[-3,5],[-8,8],[-7,17],[-15,11],[-6,7],[-15,8],[-15,4],[-14,3],[-24,10],[-12,15],[-9,7],[-19,10],[-11,1],[-6,4],[-18,2],[-21,2],[-13,2],[-14,5]],[[2572,1644],[-2,-7],[8,-23],[0,-6],[1,-14],[6,-15],[14,-25],[6,-17],[4,-15],[6,-15],[9,-22],[3,-32],[-3,-15],[-15,-7],[-7,0],[-26,5],[-6,-3],[-9,-14],[-7,-5],[-5,-8],[-7,-20],[-3,-8],[-8,-2],[-13,6],[-8,-2],[-6,-5],[-13,-21],[-8,-21],[2,-7],[12,-13],[0,-10],[-6,-15],[1,-16],[11,-32],[1,-10],[-1,-18],[1,-15],[-3,-8],[-7,-5],[-25,-12],[-25,-7],[-24,-4],[-14,4],[-19,9],[-15,-5],[-8,-6],[-16,-6],[-23,2],[-15,-9],[-31,-13],[-21,-11],[-14,-13],[-7,-4],[-17,-11],[-7,-4]],[[885,1086],[2,8],[-2,34]],[[885,1128],[0,3],[2,6],[4,13],[5,36],[3,9],[7,13],[20,19],[4,7],[5,15],[7,15],[6,15],[3,15],[3,38],[-3,22],[-1,21],[1,7],[8,6],[10,15],[12,11],[5,7],[21,30],[15,6]],[[2159,1099],[1,-13],[3,-3]],[[2213,1094],[-30,-9],[-8,0],[-12,-2]],[[883,1083],[2,3]],[[878,1073],[5,10]],[[695,931],[6,6],[9,5],[13,13],[14,12],[6,7]],[[743,974],[4,6],[9,13],[8,4],[13,3],[20,-2],[24,6],[13,2],[6,6],[2,7],[12,13],[7,13],[8,13],[9,15]],[[693,930],[2,1]],[[538,765],[6,7],[3,13],[8,13],[15,11],[15,8],[6,6],[4,7],[6,6],[15,9],[6,6],[15,22],[12,13],[14,19],[21,20],[9,5]],[[2163,1083],[6,-12],[2,-16],[1,-23],[0,-15],[-3,-28],[-4,-22],[1,-28],[3,-8],[6,-17],[3,-17],[0,-22],[0,-21],[0,-22],[3,-17],[11,-24],[1,-8],[-1,-7],[-6,-15],[-2,-8],[6,-20],[2,-21],[0,-13]],[[2192,699],[3,-34],[3,-15]],[[457,600],[18,32],[6,11],[5,15],[3,20],[6,12],[21,26],[12,20],[10,29]],[[2198,650],[4,-22],[8,-23],[7,-16],[9,-17],[15,-23],[17,-18],[25,-15],[6,-6],[0,-6],[-3,-13],[-7,-22],[-3,-6],[-12,-13],[-3,-5],[-5,-15],[2,-6],[18,-13],[6,-6],[4,-7],[12,-23],[12,-18]],[[580,302],[0,12],[-3,15],[-9,18],[-1,8],[3,13],[-3,5],[-8,6],[-13,6],[-5,3],[-7,10],[-11,22],[-3,8],[-4,35],[0,17],[3,21],[-2,17],[-6,24],[-15,30],[-7,7],[-12,6],[-20,15]],[[2310,357],[18,-21],[20,-15],[16,-21],[24,-20],[6,-4],[14,-4],[13,-2],[12,-13],[8,-1],[13,0],[14,-4],[13,0],[22,5],[22,10],[8,2],[1,-10],[-3,-13],[9,-15],[3,-5],[-4,-15],[-6,-13],[-5,-15],[0,-15],[3,-30],[3,-8],[6,-7],[20,-12],[13,-5],[30,-8],[6,-3]],[[2582,93],[27,2]],[[3875,67],[23,18],[16,17],[33,34],[20,18],[19,21],[9,13],[17,19],[12,11],[18,19],[16,19],[12,13],[26,30]],[[2609,95],[14,-14],[13,-5],[14,-2],[21,2],[15,-6],[13,-7],[11,-8],[12,-9],[13,-9],[21,-4],[15,-6],[14,-2],[36,0],[6,-2],[15,2],[6,-2],[7,-3],[19,-20]],[[3800,0],[21,16],[18,19],[36,32]],[[2547,0],[1,3],[3,30],[4,30],[6,15],[14,11],[7,4]],[[458,0],[14,22],[3,7],[0,41],[2,10],[-2,24],[-3,15],[-6,21],[2,13],[-6,13],[-3,18],[3,10],[6,9],[9,4],[15,4],[22,9],[8,7],[12,19],[3,4],[13,9],[6,10],[3,9],[5,7],[9,4],[6,6],[1,7]],[[393,2960],[-20,7],[-25,13],[-9,10],[-5,1],[-7,8],[-11,20],[-6,8],[-10,7],[-20,8],[-18,6],[-37,20],[-13,8]],[[4096,2895],[0,-2895],[-4096,0],[0,4096],[1807,0],[2289,0],[0,-1201]],[[0,1768],[27,-9],[-1,-84],[-26,-4],[0,97]],[[1061,403],[-10,34],[32,18],[28,-23],[-50,-29]],[[723,944],[-34,-16],[13,42],[42,4],[-21,-30]],[[857,1094],[30,36],[35,-24],[-37,-24],[-28,12]],[[1610,1493],[-18,-13],[-14,40],[37,1],[-5,-28]],[[829,1518],[10,-32],[-56,0],[10,39],[36,-7]],[[1058,1514],[3,41],[29,-4],[7,-47],[-39,10]],[[1065,1895],[-46,18],[0,17],[69,-23],[0,-29],[-23,17]],[[518,1971],[21,-16],[7,-36],[-38,-1],[-23,30],[33,23]],[[959,1959],[-11,-31],[-40,-10],[-5,75],[56,-34]],[[1070,1999],[-70,12],[-4,23],[50,-2],[24,-33]],[[3997,2368],[9,61],[51,8],[-28,-63],[-32,-6]],[[1532,2397],[24,23],[36,-6],[-23,-36],[-37,19]],[[3246,2511],[-3,18],[32,-5],[14,-41],[-37,0],[-6,28]],[[2087,1988],[-40,-1],[-25,18],[27,37],[43,3],[-5,-57]],[[1209,1930],[-102,46],[-14,58],[69,36],[100,-59],[21,-41],[-29,-36],[-45,-4]],[[718,2735],[-15,-3],[-9,81],[23,0],[23,-47],[57,0],[40,-57],[-74,-23],[-45,49]],[[3067,3117],[-27,52],[50,11],[5,-69],[-28,6]],[[3044,3249],[-17,-40],[-34,6],[19,39],[32,-5]],[[3322,3284],[-60,-12],[-28,58],[53,-12],[35,-34]],[[3974,3532],[4,-41],[28,6],[46,-52],[-46,-63],[-185,138],[69,58],[84,-46]],[[2980,3531],[-42,47],[65,6],[51,-41],[-24,-23],[-50,11]],[[3631,3664],[35,-17],[21,-35],[-46,-17],[-23,29],[13,40]],[[3338,3719],[2,-32],[-51,0],[0,43],[33,15],[16,-26]],[[2633,3249],[36,38],[33,-43],[-37,-46],[-32,51]],[[2956,3226],[-41,6],[-33,46],[65,0],[9,-52]],[[3026,3272],[-46,18],[23,37],[32,-20],[-9,-35]],[[2041,2523],[-32,46],[9,35],[69,6],[-46,-87]],[[683,4096],[-34,-163],[-46,-85],[-305,-81],[-54,151],[-108,178],[547,0]],[[0,2462],[16,-14],[-16,-2],[0,16]]]}