{"objects":{"water":{"type":"GeometryCollection","geometries":[{"type":"Polygon","properties":{"source":"naturalearthdata.com","kind":"ocean","area":1576712559132672,"sort_rank":200,"min_zoom":0.0,"id":1},"arcs":[[14]]},{"type":"LineString","properties":{"source":"naturalearthdata.com","kind":"ocean","sort_rank":205,"boundary":true,"min_zoom":0.0,"id":19},"arcs":[15]}]},"buildings":{"type":"GeometryCollection","geometries":[]},"places":{"type":"GeometryCollection","geometries":[{"type":"Point","properties":{"kind":"locality","name":"Koszalin","name:lt":"Ko\u0161alinas","kind_detail":"city","name:de":"K\u00f6slin","source":"openstreetmap.org","min_zoom":8.0,"name:uk":"\u041a\u043e\u0448\u0430\u043b\u0456\u043d","name:be":"\u041a\u0430\u0448\u0430\u043b\u0456\u043d","name:ru":"\u041a\u043e\u0448\u0430\u043b\u0438\u043d","population":109170,"id":31346920,"name:ja":"\u30b3\u30b7\u30e3\u30ea\u30f3"},"coordinates":[2063,143]},{"type":"Point","properties":{"kind":"locality","name":"Ko\u0142obrzeg","name:lt":"Kolob\u017eegas","kind_detail":"town","name:cs":"Kolob\u0159eh","name:de":"Kolberg","source":"openstreetmap.org","min_zoom":8.0,"name:uk":"\u041a\u043e\u043b\u043e\u0431\u0436\u0435\u0433","name:ru":"\u041a\u043e\u043b\u043e\u0431\u0436\u0435\u0433","id":1523247400,"population":44980},"coordinates":[314,68]},{"type":"Point","properties":{"kind":"locality","name":"Ustka","kind_detail":"town","name:de":"Stolpm\u00fcnde","source":"openstreetmap.org","min_zoom":8.0,"id":31345455,"population":16263},"coordinates":[4056,2104]},{"type":"Point","properties":{"kind":"locality","name":"Dar\u0142owo","name:lt":"Darlovas","kind_detail":"town","name:de":"R\u00fcgenwalde","source":"openstreetmap.org","min_zoom":8.0,"name:ru":"\u0414\u0430\u0440\u043b\u043e\u0432\u043e","id":31347434,"population":14229},"coordinates":[2740,1307]},{"type":"Point","properties":{"kind":"locality","name":"S\u0142awno","name:lt":"Slavnas","kind_detail":"town","name:de":"Schlawe","source":"openstreetmap.org","min_zoom":8.0,"name:ru":"\u0421\u043b\u0430\u0432\u043d\u043e","id":31345800,"population":12898},"coordinates":[3525,1008]},{"type":"Point","properties":{"kind":"locality","name":"Sian\u00f3w","kind_detail":"town","name:de":"Zanow","source":"openstreetmap.org","min_zoom":8.0,"name:ru":"\u0421\u044f\u043d\u0443\u0432","id":1775164040,"population":6681},"coordinates":[2405,330]},{"type":"Point","properties":{"kind":"locality","name":"Mielno","alt_name:de":"Gro\u00dfm\u00f6llen","kind_detail":"town","old_name:de":"Gro\u00df M\u00f6llen","source":"openstreetmap.org","min_zoom":8.0,"name:ru":"\u041c\u0435\u043b\u044c\u043d\u043e","id":31346475,"population":2200},"coordinates":[1705,485]}]},"transit":{"type":"GeometryCollection","geometries":[{"type":"LineString","properties":{"kind":"train","name":"Linia kolejowa nr 202 Gda\u0144sk G\u0142\u00f3wny - Stargard","sort_rank":275,"source":"openstreetmap.org","min_zoom":6.0,"operator":"PKP Polskie Linie Kolejowe S.A.","ref":"202","osm_relation":true,"network":"PKP"},"arcs":[6]},{"type":"LineString","properties":{"kind":"train","network":"Koszali\u0144ska Kolej W\u0105skotorowa","sort_rank":275,"source":"openstreetmap.org","min_zoom":6.0,"operator":"TMKW","id":-2270628,"osm_relation":true,"name":"Poci\u0105g turystyczny Koszalin-Manowo"},"arcs":[7]},{"type":"LineString","properties":{"kind":"train","name":"Szczecinek - Slupsk","service":"regional","sort_rank":275,"source":"openstreetmap.org","min_zoom":6.0,"operator":"Przewozy Regionalne","ref":"R897","id":-6415391,"osm_relation":true},"arcs":[8]},{"type":"LineString","properties":{"kind":"train","network":"PKP","sort_rank":275,"source":"openstreetmap.org","min_zoom":6.0,"operator":"PKP Polskie Linie Kolejowe S.A.","ref":"404","id":-5601312,"osm_relation":true,"name":"Linia kolejowa nr 404 Szczecinek - Ko\u0142obrzeg"},"arcs":[9]},{"type":"MultiLineString","properties":{"kind":"train","name":"Linia kolejowa nr 405 Pi\u0142a G\u0142\u00f3wna - Ustka","sort_rank":275,"source":"openstreetmap.org","min_zoom":6.0,"operator":"PKP Polskie Lnie Kolejowe S.A.","ref":"405","osm_relation":true,"network":"PKP"},"arcs":[[10],[11]]},{"type":"LineString","properties":{"kind":"train","name":"Mielno - Koszalin","sort_rank":275,"source":"openstreetmap.org","min_zoom":6.0,"ref":"427","id":-6520797,"osm_relation":true},"arcs":[12]},{"type":"LineString","properties":{"kind":"train","name":"Linia kolejowa nr 402 Koszalin - Goleni\u00f3w","sort_rank":275,"source":"openstreetmap.org","min_zoom":6.0,"operator":"PKP Polskie Linie Kolejowe S.A.","ref":"402","osm_relation":true,"network":"PKP"},"arcs":[13]}]},"pois":{"type":"GeometryCollection","geometries":[]},"boundaries":{"type":"GeometryCollection","geometries":[{"type":"LineString","properties":{"name:kg":"Pologne","name:ka":"\u10de\u10dd\u10da\u10dd\u10dc\u10d4\u10d7\u10d8","name:ko":"\ud3f4\ub780\ub4dc","name:cv":"\u041f\u043e\u043b\u044c\u0448\u0430","name:cu":"\u041f\u043e\u043b\u0484\u044c\u0441\u043a\u0430","name:kl":"Poleni","name:cs":"Polsko","name:tt":"\u041f\u043e\u043b\u044c\u0448\u0430","name:co":"Polonia","name:kv":"\u041f\u043e\u043b\u044c\u0448\u0430","name:ku":"Polonya","name:tl":"Polonya","name:ce":"\u041f\u043e\u043b\u044c\u0448\u0430","name:ta":"\u0baa\u0bcb\u0bb2\u0ba8\u0bcd\u0ba4\u0bc1","name:tg":"\u041b\u0430\u04b3\u0438\u0441\u0442\u043e\u043d","name:ca":"Pol\u00f2nia","name:te":"\u0c2a\u0c4b\u0c32\u0c3e\u0c02\u0c21\u0c4d","name:cy":"Gwlad Pwyl","name:qu":"Pulunya","name:da":"Polen","name:de":"Polen","source":"openstreetmap.org","name:kn":"\u0caa\u0ccb\u0cb2\u0cc6\u0c82\u0ca1\u0ccd","name:dv":"\u0795\u07ae\u078d\u07ac\u0782\u07b0\u0791\u07aa","name:km":"\u1794\u17d2\u179a\u1791\u17c1\u179f\u1794\u17c9\u17bc\u17a1\u17bc\u1789","name:lv":"Polija","name:lt":"Lenkija","name:uz":"Polsha","name:kk":"\u041f\u043e\u043b\u044c\u0448\u0430","name:ur":"\u067e\u0648\u0644\u06cc\u0646\u0688","name:lb":"Polen","name:la":"Polonia","name:lg":"Bupoolo","name:uk":"\u041f\u043e\u043b\u044c\u0449\u0430","name:ug":"\u067e\u0648\u0644\u0634\u0627","name:li":"Pole","name:ln":"Poloni","name:el":"\u03a0\u03bf\u03bb\u03c9\u03bd\u03af\u03b1","name:eo":"Polujo","name:en":"Poland","name":"Polska","name:tk":"Pol\u015fa","name:ee":"Poland","name:th":"\u0e1b\u0e23\u0e30\u0e40\u0e17\u0e28\u0e42\u0e1b\u0e41\u0e25\u0e19\u0e14\u0e4c","name:eu":"Polonia","name:et":"Poola","name:es":"Polonia","name:ay":"Pulu\u00f1a","name:rm":"Pologna","name:rn":"Polonia","name:az":"Pol\u015fa","name:ie":"Polonia","name:id":"Polandia","name:ig":"Poland","name:ar":"\u0628\u0648\u0644\u0646\u062f\u0627","name:io":"Polonia","name:ak":"Poland","name:am":"\u1356\u120b\u1295\u12f5","name:it":"Polonia","name:an":"Polonia","name:ru":"\u041f\u043e\u043b\u044c\u0448\u0430","name:ab":"\u041f\u043e\u043b\u0448\u0430","name:af":"Pole","name:zu":"IPolandi","kind_detail":"2","name:ky":"\u041f\u043e\u043b\u044c\u0448\u0430","name:zh-yue":"\u6ce2\u862d","name:zh":"\u6ce2\u5170","name:so":"Boland","name:sm":"Polagi","name:sl":"Poljska","name:sk":"Po\u013esko","name:ja":"\u30dd\u30fc\u30e9\u30f3\u30c9","name:si":"\u0db4\u0ddd\u0dbd\u0db1\u0dca\u0dad\u0dba","name:sh":"Poljska","name:sg":"P\u00f6l\u00f4ni","name:sc":"Polonia","name:br":"Polonia","name:bs":"Poljska","name:bn":"\u09aa\u09cb\u09b2\u09cd\u09af\u09be\u09a8\u09cd\u09a1","name:bo":"\u0f55\u0f7c\u0f0b\u0f63\u0f53\u0f0d","name:bi":"Poland","name:sw":"Poland","name:be":"\u041f\u043e\u043b\u044c\u0448\u0447\u0430","name:su":"Polandia","name:bg":"\u041f\u043e\u043b\u0448\u0430","name:ss":"IPholandi","name:ba":"\u041f\u043e\u043b\u044c\u0448\u0430","name:sq":"Polonia","name:jv":"Polandia","name:sa":"\u092a\u094b\u0932\u0948\u0902\u0921","name:ia":"Polonia","name:pt":"Pol\u00f3nia","name:ps":"\u067e\u0648\u0644\u0646\u0689","name:oc":"Polonha","min_zoom":8.0,"name:ro":"Polonia","name:pa":"\u0a2a\u0a4b\u0a32\u0a48\u0a02\u0a21","name:os":"\u041f\u043e\u043b\u044c\u0448\u00e6","name:or":"\u0b2a\u0b4b\u0b32\u0b3e\u0b23\u0b4d\u0b21","name:st":"Poland","sort_rank":262,"name:sr":"\u041f\u043e\u0459\u0441\u043a\u0430","osm_relation":true,"name:tr":"Polonya","name:hi":"\u092a\u094b\u0932\u0948\u0902\u0921","name:sv":"Polen","name:he":"\u05e4\u05d5\u05dc\u05d9\u05df","name:ha":"Poland","name:hy":"\u053c\u0565\u0570\u0561\u057d\u057f\u0561\u0576","name:ht":"Pol\u00f2y","name:hu":"Lengyelorsz\u00e1g","name:hr":"Poljska","kind":"country","name:is":"P\u00f3lland","name:yi":"\u05e4\u05d5\u05d9\u05dc\u05df","name:iu":"\u1433\u14da\u14d0\u1466","name:yo":"Polandi","name:mt":"Polonja","alt_name:eo":"Pollando;Polio","name:ms":"Poland","name:mr":"\u092a\u094b\u0932\u0902\u0921","name:my":"\u1015\u102d\u102f\u101c\u1014\u103a\u1014\u102d\u102f\u1004\u103a\u1004\u1036","official_name":"Rzeczpospolita Polska","name:kw":"Poloni","name:mg":"Polonia","name:vi":"Ba Lan","name:ml":"\u0d2a\u0d4b\u0d33\u0d23\u0d4d\u0d1f\u0d4d","name:mn":"\u041f\u043e\u043b\u044c\u0448","name:mi":"P\u014drana","id":-49715,"name:mk":"\u041f\u043e\u043b\u0441\u043a\u0430","name:vo":"Pol\u00e4n","name:fa":"\u0644\u0647\u0633\u062a\u0627\u0646","name:rw":"Polonye","short_name":"RP","name:ff":"Poloonya","name:fi":"Puola","name:fo":"P\u00f3lland","name:fr":"Pologne","name:fy":"Poalen","name:nl":"Polen","name:nn":"Polen","name:no":"Polen","name:na":"Poran","name:ne":"\u092a\u094b\u0932\u094d\u092f\u093e\u0923\u094d\u0921","name:wa":"Pologne","name:wo":"Polo\u00f1","name:nv":"P\u00f3olish Dine\u02bc\u00e9 Bik\u00e9yah","name:ga":"An Pholainn","name:gd":"A' Ph\u00f2lainn","name:gn":"Polo\u00f1a","name:gl":"Polonia","maritime_boundary":true,"name:gv":"Yn Pholynn","name:gu":"\u0aaa\u0acb\u0ab2\u0ac7\u0a82\u0aa1"},"arcs":[0]},{"type":"LineString","properties":{"name:right:nl":"Woiwodschap West-Pommeren","name:right:ja":"\u897f\u30dd\u30e2\u30fc\u30b8\u30a7\u770c","loc_name:left":"Pomorze","alt_name:left:en":"Pomorze Province","name:right:uk":"\u0417\u0430\u0445\u0456\u0434\u043d\u043e\u043f\u043e\u043c\u043e\u0440\u0441\u044c\u043a\u0435 \u0432\u043e\u0454\u0432\u043e\u0434\u0441\u0442\u0432\u043e","name:left:ja":"\u30dd\u30e2\u30fc\u30b8\u30a7\u770c","id:right":-104401,"name:right:lt":"Vakar\u0173 Pamario vaivadija","name:left:sl":"Pomorjansko vojvodstvo","min_zoom":8.0,"name:left:lt":"Pamario vaivadija","alt_name:right:en":"West Pomeranian Province","name:left:be":"\u041f\u0430\u043c\u043e\u0440\u0441\u043a\u0430\u0435 \u0432\u0430\u044f\u0432\u043e\u0434\u0441\u0442\u0432\u0430","name:right:fr":"Pom\u00e9ranie occidentale","id":-130975,"name:right":"wojew\u00f3dztwo zachodniopomorskie","short_name:left":"pomorskie","name:left:eo":"Pomeria Provinco","name:left:en":"Pomeranian Voivodeship","sort_rank":256,"kind_detail":"4","source":"openstreetmap.org","name:left:nl":"Woiwodschap Pommeren","id:left":-130975,"name:left:es":"Voivodato de Pomerania","name:right:cs":"Z\u00e1padopomo\u0159ansk\u00e9 vojvodstv\u00ed","name:right:fi":"L\u00e4nsi-Pommerin voivodikunta","name:left:cs":"Pomo\u0159sk\u00e9 vojvodstv\u00ed","name:left":"wojew\u00f3dztwo pomorskie","name:right:es":"Voivodato de Pomerania Occidental","kind":"region","name:right:ru":"\u0417\u0430\u043f\u0430\u0434\u043d\u043e-\u041f\u043e\u043c\u043e\u0440\u0441\u043a\u043e\u0435 \u0432\u043e\u0435\u0432\u043e\u0434\u0441\u0442\u0432\u043e","name:left:ru":"\u041f\u043e\u043c\u043e\u0440\u0441\u043a\u043e\u0435 \u0432\u043e\u0435\u0432\u043e\u0434\u0441\u0442\u0432\u043e","short_name:right":"zachodniopomorskie","name:right:eo":"Okcidentpomeria Provinco","name:right:en":"West Pomeranian Voivodeship","osm_relation":true,"name:left:uk":"\u041f\u043e\u043c\u043e\u0440\u0441\u044c\u043a\u0435 \u0432\u043e\u0454\u0432\u043e\u0434\u0441\u0442\u0432\u043e","loc_name:right":"Zachodniopomorskie","name":"wojew\u00f3dztwo pomorskie - wojew\u00f3dztwo zachodniopomorskie","name:right:de":"Woiwodschaft Westpommern","name:left:de":"Woiwodschaft Pommern","name:right:be":"\u0417\u0430\u0445\u043e\u0434\u043d\u0435\u043f\u0430\u043c\u043e\u0440\u0441\u043a\u0430\u0435 \u0432\u0430\u044f\u0432\u043e\u0434\u0441\u0442\u0432\u0430","name:left:fr":"Pom\u00e9ranie","name:right:sl":"Zahodnopomorjansko vojvodstvo"},"arcs":[1]},{"type":"LineString","properties":{"alt_name:en":"Pomorze Province","name:nl":"Woiwodschap Pommeren","name:ja":"\u30dd\u30e2\u30fc\u30b8\u30a7\u770c","short_name":"pomorskie","name:cs":"Pomo\u0159sk\u00e9 vojvodstv\u00ed","kind":"region","min_zoom":8.0,"name:sl":"Pomorjansko vojvodstvo","name:uk":"\u041f\u043e\u043c\u043e\u0440\u0441\u044c\u043a\u0435 \u0432\u043e\u0454\u0432\u043e\u0434\u0441\u0442\u0432\u043e","name:be":"\u041f\u0430\u043c\u043e\u0440\u0441\u043a\u0430\u0435 \u0432\u0430\u044f\u0432\u043e\u0434\u0441\u0442\u0432\u0430","loc_name":"Pomorze","name:ru":"\u041f\u043e\u043c\u043e\u0440\u0441\u043a\u043e\u0435 \u0432\u043e\u0435\u0432\u043e\u0434\u0441\u0442\u0432\u043e","id":-130975,"osm_relation":true,"name":"wojew\u00f3dztwo pomorskie","name:eo":"Pomeria Provinco","name:en":"Pomeranian Voivodeship","name:lt":"Pamario vaivadija","sort_rank":256,"kind_detail":"4","name:de":"Woiwodschaft Pommern","source":"openstreetmap.org","name:fr":"Pom\u00e9ranie","name:es":"Voivodato de Pomerania"},"arcs":[2]},{"type":"LineString","properties":{"alt_name:en":"Pomorze Province","name:nl":"Woiwodschap Pommeren","name:ja":"\u30dd\u30e2\u30fc\u30b8\u30a7\u770c","short_name":"pomorskie","name:cs":"Pomo\u0159sk\u00e9 vojvodstv\u00ed","name:eo":"Pomeria Provinco","min_zoom":8.0,"name:sl":"Pomorjansko vojvodstvo","name:uk":"\u041f\u043e\u043c\u043e\u0440\u0441\u044c\u043a\u0435 \u0432\u043e\u0454\u0432\u043e\u0434\u0441\u0442\u0432\u043e","name:ru":"\u041f\u043e\u043c\u043e\u0440\u0441\u043a\u043e\u0435 \u0432\u043e\u0435\u0432\u043e\u0434\u0441\u0442\u0432\u043e","loc_name":"Pomorze","name:be":"\u041f\u0430\u043c\u043e\u0440\u0441\u043a\u0430\u0435 \u0432\u0430\u044f\u0432\u043e\u0434\u0441\u0442\u0432\u0430","name:lt":"Pamario vaivadija","id":-130975,"osm_relation":true,"kind":"region","name:en":"Pomeranian Voivodeship","name":"wojew\u00f3dztwo pomorskie","sort_rank":256,"kind_detail":"4","name:fr":"Pom\u00e9ranie","name:de":"Woiwodschaft Pommern","source":"openstreetmap.org","maritime_boundary":true,"name:es":"Voivodato de Pomerania"},"arcs":[3]},{"type":"LineString","properties":{"alt_name:en":"West Pomeranian Province","name:nl":"Woiwodschap West-Pommeren","name:ja":"\u897f\u30dd\u30e2\u30fc\u30b8\u30a7\u770c","short_name":"zachodniopomorskie","name:cs":"Z\u00e1padopomo\u0159ansk\u00e9 vojvodstv\u00ed","kind":"region","min_zoom":8.0,"name:sl":"Zahodnopomorjansko vojvodstvo","name:uk":"\u0417\u0430\u0445\u0456\u0434\u043d\u043e\u043f\u043e\u043c\u043e\u0440\u0441\u044c\u043a\u0435 \u0432\u043e\u0454\u0432\u043e\u0434\u0441\u0442\u0432\u043e","name:be":"\u0417\u0430\u0445\u043e\u0434\u043d\u0435\u043f\u0430\u043c\u043e\u0440\u0441\u043a\u0430\u0435 \u0432\u0430\u044f\u0432\u043e\u0434\u0441\u0442\u0432\u0430","loc_name":"Zachodniopomorskie","name:ru":"\u0417\u0430\u043f\u0430\u0434\u043d\u043e-\u041f\u043e\u043c\u043e\u0440\u0441\u043a\u043e\u0435 \u0432\u043e\u0435\u0432\u043e\u0434\u0441\u0442\u0432\u043e","id":-104401,"osm_relation":true,"name":"wojew\u00f3dztwo zachodniopomorskie","name:eo":"Okcidentpomeria Provinco","name:en":"West Pomeranian Voivodeship","name:lt":"Vakar\u0173 Pamario vaivadija","sort_rank":256,"kind_detail":"4","name:de":"Woiwodschaft Westpommern","source":"openstreetmap.org","name:fr":"Pom\u00e9ranie occidentale","name:fi":"L\u00e4nsi-Pommerin voivodikunta","name:es":"Voivodato de Pomerania Occidental"},"arcs":[4]},{"type":"LineString","properties":{"alt_name:en":"West Pomeranian Province","name:nl":"Woiwodschap West-Pommeren","name:ja":"\u897f\u30dd\u30e2\u30fc\u30b8\u30a7\u770c","short_name":"zachodniopomorskie","name:cs":"Z\u00e1padopomo\u0159ansk\u00e9 vojvodstv\u00ed","name:eo":"Okcidentpomeria Provinco","min_zoom":8.0,"name:sl":"Zahodnopomorjansko vojvodstvo","name:uk":"\u0417\u0430\u0445\u0456\u0434\u043d\u043e\u043f\u043e\u043c\u043e\u0440\u0441\u044c\u043a\u0435 \u0432\u043e\u0454\u0432\u043e\u0434\u0441\u0442\u0432\u043e","name:ru":"\u0417\u0430\u043f\u0430\u0434\u043d\u043e-\u041f\u043e\u043c\u043e\u0440\u0441\u043a\u043e\u0435 \u0432\u043e\u0435\u0432\u043e\u0434\u0441\u0442\u0432\u043e","loc_name":"Zachodniopomorskie","name:be":"\u0417\u0430\u0445\u043e\u0434\u043d\u0435\u043f\u0430\u043c\u043e\u0440\u0441\u043a\u0430\u0435 \u0432\u0430\u044f\u0432\u043e\u0434\u0441\u0442\u0432\u0430","name:lt":"Vakar\u0173 Pamario vaivadija","id":-104401,"osm_relation":true,"kind":"region","name:en":"West Pomeranian Voivodeship","name":"wojew\u00f3dztwo zachodniopomorskie","sort_rank":256,"kind_detail":"4","name:fr":"Pom\u00e9ranie occidentale","name:de":"Woiwodschaft Westpommern","source":"openstreetmap.org","maritime_boundary":true,"name:fi":"L\u00e4nsi-Pommerin voivodikunta","name:es":"Voivodato de Pomerania Occidental"},"arcs":[5]}]},"roads":{"type":"GeometryCollection","geometries":[{"type":"LineString","properties":{"source":"openstreetmap.org","kind":"major_road","sort_rank":380,"kind_detail":"primary","min_zoom":8.0,"id":121297276},"arcs":[16]},{"type":"MultiLineString","properties":{"bus_network":null,"network":"pl:national","sort_rank":380,"kind_detail":"primary","kind":"major_road","source":"openstreetmap.org","min_zoom":8.0,"bus_shield_text":"BIS","shield_text":"11","ref":"11"},"arcs":[[17],[18]]},{"type":"LineString","properties":{"kind":"path","footway":"crossing","sort_rank":354,"kind_detail":"footway","is_bicycle_related":true,"bicycle_shield_text":"R10","bicycle_network":"ncn","source":"openstreetmap.org","min_zoom":8.0,"id":296414732},"arcs":[19]},{"type":"MultiLineString","properties":{"kind":"major_road","network":"pl:national","sort_rank":380,"kind_detail":"primary","source":"openstreetmap.org","min_zoom":8.0,"landuse_kind":"urban_area","shield_text":"6","ref":"6"},"arcs":[[20],[21],[22],[23],[24],[25],[26],[27],[28],[29],[30],[31],[32]]},{"type":"MultiLineString","properties":{"kind":"major_road","network":"pl:regional","sort_rank":379,"kind_detail":"secondary","is_bicycle_related":true,"bicycle_shield_text":"R10","bicycle_network":"ncn","source":"openstreetmap.org","min_zoom":8.0,"shield_text":"205","ref":"205"},"arcs":[[33],[34],[35],[36],[37],[38],[39],[40]]},{"type":"MultiLineString","properties":{"kind":"path","sort_rank":354,"kind_detail":"pedestrian","is_bicycle_related":true,"bicycle_shield_text":"R10","bicycle_network":"ncn","source":"openstreetmap.org","min_zoom":8.0},"arcs":[[41],[42],[43]]},{"type":"LineString","properties":{"kind":"major_road","sort_rank":377,"kind_detail":"tertiary","is_bicycle_related":true,"bicycle_shield_text":"R10","bicycle_network":"ncn","source":"openstreetmap.org","min_zoom":8.0,"old_name":"Genera\u0142a Karola \u015awierczewskiego"},"arcs":[44]},{"type":"MultiLineString","properties":{"kind":"major_road","network":"pl:national","sort_rank":380,"kind_detail":"primary","source":"openstreetmap.org","min_zoom":8.0,"shield_text":"11","ref":"11"},"arcs":[[45],[46],[47]]},{"type":"LineString","properties":{"kind":"major_road","network":"pl:national","sort_rank":380,"kind_detail":"primary","bus_network":"Koszalin","source":"openstreetmap.org","min_zoom":8.0,"bus_shield_text":"23","shield_text":"6","landuse_kind":"urban_area","ref":"6","id":173123656},"arcs":[48]},{"type":"LineString","properties":{"bus_network":null,"sort_rank":379,"landuse_kind":"urban_area","is_bicycle_related":true,"kind":"major_road","bicycle_shield_text":"R10","bicycle_network":"ncn","source":"openstreetmap.org","min_zoom":8.0,"bus_shield_text":"10","kind_detail":"secondary"},"arcs":[49]},{"type":"MultiLineString","properties":{"bus_network":"Koszalin","network":"pl:national","sort_rank":380,"kind_detail":"primary","kind":"major_road","source":"openstreetmap.org","min_zoom":8.0,"bus_shield_text":"13","shield_text":"11","landuse_kind":"urban_area","ref":"11"},"arcs":[[50],[51]]},{"type":"MultiLineString","properties":{"bus_network":null,"network":"pl:national","sort_rank":380,"kind_detail":"primary","kind":"major_road","source":"openstreetmap.org","min_zoom":8.0,"bus_shield_text":"1","shield_text":"11","ref":"11"},"arcs":[[52],[53],[54]]},{"type":"LineString","properties":{"bus_network":null,"network":"pl:national","sort_rank":380,"kind_detail":"primary","old_name":"W\u0142adys\u0142awa Kniewskiego","kind":"major_road","source":"openstreetmap.org","min_zoom":8.0,"bus_shield_text":"2","shield_text":"11","landuse_kind":"urban_area","ref":"11"},"arcs":[55]},{"type":"MultiLineString","properties":{"kind":"major_road","network":"pl:regional","sort_rank":379,"kind_detail":"secondary","is_bicycle_related":true,"bicycle_shield_text":"R10","bicycle_network":"ncn","source":"openstreetmap.org","min_zoom":8.0,"shield_text":"205"},"arcs":[[56],[57]]},{"type":"MultiLineString","properties":{"kind":"major_road","network":"pl:regional","sort_rank":379,"kind_detail":"secondary","is_bicycle_related":true,"bicycle_shield_text":"R10","bicycle_network":"ncn","source":"openstreetmap.org","min_zoom":8.0,"shield_text":"203","ref":"203"},"arcs":[[58],[59]]},{"type":"MultiLineString","properties":{"bus_network":"Koszalin","network":"pl:national","sort_rank":380,"kind_detail":"primary","kind":"major_road","source":"openstreetmap.org","min_zoom":8.0,"bus_shield_text":"9","shield_text":"6","landuse_kind":"urban_area","ref":"6"},"arcs":[[60],[61]]},{"type":"LineString","properties":{"kind":"major_road","network":"pl:national","sort_rank":380,"kind_detail":"primary","is_bicycle_related":true,"bicycle_shield_text":"KRATc","bicycle_network":"lcn","source":"openstreetmap.org","min_zoom":8.0,"shield_text":"6","ref":"6"},"arcs":[62]},{"type":"LineString","properties":{"kind":"major_road","network":"pl:national","sort_rank":380,"kind_detail":"primary","bus_network":"Koszalin","source":"openstreetmap.org","min_zoom":8.0,"bus_shield_text":"13","shield_text":"6","landuse_kind":"urban_area","ref":"6;11","id":146459374},"arcs":[63]},{"type":"LineString","properties":{"kind":"path","service":"alley","sort_rank":354,"kind_detail":"path","is_bicycle_related":true,"bicycle_shield_text":"R10","bicycle_network":"ncn","source":"openstreetmap.org","min_zoom":8.0,"id":37657219},"arcs":[64]},{"type":"MultiLineString","properties":{"bus_network":"Koszalin","network":"pl:national","sort_rank":380,"kind_detail":"primary","kind":"major_road","source":"openstreetmap.org","min_zoom":8.0,"bus_shield_text":"17","shield_text":"6","landuse_kind":"urban_area","ref":"6"},"arcs":[[65],[66]]},{"type":"MultiLineString","properties":{"bus_network":"Koszalin","network":"pl:national","sort_rank":380,"kind_detail":"primary","kind":"major_road","source":"openstreetmap.org","min_zoom":8.0,"bus_shield_text":"18","shield_text":"6","landuse_kind":"urban_area","ref":"6"},"arcs":[[67],[68]]},{"type":"MultiLineString","properties":{"kind":"major_road","sort_rank":377,"kind_detail":"tertiary","is_bicycle_related":true,"bicycle_shield_text":"R10","bicycle_network":"ncn","source":"openstreetmap.org","min_zoom":8.0},"arcs":[[69],[70],[71],[72],[73],[74],[75],[76],[77],[78],[79],[80],[81],[82],[83],[84],[85],[86],[87],[88],[89]]},{"type":"LineString","properties":{"kind":"major_road","network":"pl:national","sort_rank":380,"kind_detail":"primary","source":"openstreetmap.org","min_zoom":8.0,"landuse_kind":"urban_area","shield_text":"6","ref":"6;11","id":172198808},"arcs":[90]},{"type":"LineString","properties":{"bus_network":null,"network":"pl:national","sort_rank":380,"kind_detail":"primary","kind":"major_road","source":"openstreetmap.org","min_zoom":8.0,"bus_shield_text":"107","shield_text":"6","ref":"6"},"arcs":[91]},{"type":"MultiLineString","properties":{"kind":"major_road","network":"pl:national","sort_rank":380,"kind_detail":"primary","source":"openstreetmap.org","min_zoom":8.0,"shield_text":"21","ref":"21"},"arcs":[[92],[93],[94],[95],[96]]},{"type":"LineString","properties":{"bus_network":"Koszalin","network":"pl:national","sort_rank":380,"kind_detail":"primary","kind":"major_road","source":"openstreetmap.org","min_zoom":8.0,"bus_shield_text":"DarPol","shield_text":"6","landuse_kind":"urban_area","ref":"6;11"},"arcs":[97]},{"type":"MultiLineString","properties":{"bus_network":"Koszalin","sort_rank":380,"kind_detail":"primary","kind":"major_road","source":"openstreetmap.org","min_zoom":8.0,"bus_shield_text":"15","landuse_kind":"urban_area","ref":"6"},"arcs":[[98],[99]]},{"type":"LineString","properties":{"kind":"major_road","network":"pl:national","sort_rank":380,"kind_detail":"primary","bus_network":"Koszalin","source":"openstreetmap.org","min_zoom":8.0,"bus_shield_text":"16","shield_text":"11","landuse_kind":"urban_area","ref":"11","id":287953240},"arcs":[100]},{"type":"MultiLineString","properties":{"bus_network":"Koszalin","network":"pl:national","sort_rank":380,"kind_detail":"primary","kind":"major_road","source":"openstreetmap.org","min_zoom":8.0,"bus_shield_text":"R1","shield_text":"6","landuse_kind":"urban_area","ref":"6"},"arcs":[[101],[102]]},{"type":"MultiLineString","properties":{"kind":"major_road","network":"pl:national","sort_rank":380,"kind_detail":"primary","source":"openstreetmap.org","min_zoom":8.0,"shield_text":"37","ref":"37"},"arcs":[[103],[104],[105],[106]]},{"type":"LineString","properties":{"bus_network":"Koszalin","sort_rank":377,"kind_detail":"tertiary","is_bicycle_related":true,"kind":"major_road","bicycle_shield_text":"R10","bicycle_network":"ncn","source":"openstreetmap.org","min_zoom":8.0,"bus_shield_text":"DarPol"},"arcs":[107]},{"type":"LineString","properties":{"kind":"minor_road","service":"driveway","sort_rank":356,"kind_detail":"service","is_bicycle_related":true,"bicycle_shield_text":"R10","bicycle_network":"ncn","source":"openstreetmap.org","min_zoom":8.0,"landuse_kind":"urban_area","id":402718602},"arcs":[108]},{"type":"MultiLineString","properties":{"bus_network":null,"network":"pl:national","sort_rank":380,"kind_detail":"primary","kind":"major_road","source":"openstreetmap.org","min_zoom":8.0,"bus_shield_text":"5","shield_text":"11","ref":"11"},"arcs":[[109],[110],[111],[112],[113]]},{"type":"LineString","properties":{"bus_network":null,"network":"pl:regional","sort_rank":379,"kind_detail":"secondary","is_bicycle_related":true,"kind":"major_road","bicycle_shield_text":"R10","bicycle_network":"ncn","source":"openstreetmap.org","min_zoom":8.0,"bus_shield_text":"21","shield_text":"203","ref":"203","id":38048995},"arcs":[114]},{"type":"LineString","properties":{"kind":"major_road","network":"pl:national","sort_rank":380,"kind_detail":"primary","bus_network":null,"source":"openstreetmap.org","min_zoom":8.0,"bus_shield_text":"BIS","shield_text":"11","id":281851116},"arcs":[115]},{"type":"LineString","properties":{"kind":"major_road","network":"pl:national","sort_rank":380,"kind_detail":"primary","is_bicycle_related":true,"bicycle_shield_text":"LAS1n","bicycle_network":"lcn","source":"openstreetmap.org","min_zoom":8.0,"shield_text":"6","ref":"6"},"arcs":[116]},{"type":"LineString","properties":{"kind":"major_road","network":"pl:national","sort_rank":380,"kind_detail":"primary","bus_network":null,"source":"openstreetmap.org","min_zoom":8.0,"bus_shield_text":"20","shield_text":"21","id":245420068},"arcs":[117]},{"type":"LineString","properties":{"kind":"minor_road","sort_rank":358,"kind_detail":"service","is_bicycle_related":true,"bicycle_shield_text":"R10","bicycle_network":"ncn","source":"openstreetmap.org","min_zoom":8.0,"id":241991360},"arcs":[118]},{"type":"LineString","properties":{"bus_network":"Koszalin","network":"pl:national","sort_rank":380,"kind_detail":"primary","kind":"major_road","source":"openstreetmap.org","min_zoom":8.0,"bus_shield_text":"DarPol","shield_text":"11","landuse_kind":"urban_area","ref":"11"},"arcs":[119]},{"type":"MultiLineString","properties":{"kind":"major_road","network":"pl:regional","sort_rank":379,"kind_detail":"secondary","is_bicycle_related":true,"bicycle_shield_text":"R10","bicycle_network":"ncn","source":"openstreetmap.org","min_zoom":8.0,"shield_text":"203"},"arcs":[[120],[121]]},{"type":"MultiLineString","properties":{"bus_network":"Koszalin","network":"pl:national","sort_rank":380,"kind_detail":"primary","kind":"major_road","source":"openstreetmap.org","min_zoom":8.0,"bus_shield_text":"R2","shield_text":"11","landuse_kind":"urban_area","ref":"11"},"arcs":[[122],[123],[124],[125],[126],[127],[128]]},{"type":"LineString","properties":{"bus_network":null,"sort_rank":377,"kind_detail":"tertiary","is_bicycle_related":true,"kind":"major_road","bicycle_shield_text":"R10","bicycle_network":"ncn","source":"openstreetmap.org","min_zoom":8.0,"bus_shield_text":"8","id":253143549},"arcs":[129]},{"type":"LineString","properties":{"kind":"major_road","network":"pl:national","sort_rank":380,"kind_detail":"primary","is_bicycle_related":true,"bicycle_shield_text":"KARNz","bicycle_network":"lcn","source":"openstreetmap.org","min_zoom":8.0,"shield_text":"6","ref":"6"},"arcs":[130]},{"type":"MultiLineString","properties":{"bus_network":"Koszalin","network":"pl:national","sort_rank":380,"kind_detail":"primary","kind":"major_road","source":"openstreetmap.org","min_zoom":8.0,"bus_shield_text":"R1","shield_text":"11","landuse_kind":"urban_area","ref":"11"},"arcs":[[131],[132],[133],[134]]},{"type":"LineString","properties":{"bus_network":null,"sort_rank":377,"landuse_kind":"urban_area","is_bicycle_related":true,"kind":"major_road","bicycle_shield_text":"R10","bicycle_network":"ncn","source":"openstreetmap.org","min_zoom":8.0,"bus_shield_text":"BIS","kind_detail":"tertiary"},"arcs":[135]},{"type":"MultiLineString","properties":{"kind":"major_road","network":"pl:national","sort_rank":380,"kind_detail":"primary","source":"openstreetmap.org","min_zoom":8.0,"shield_text":"6","ref":"6"},"arcs":[[136],[137],[138],[139],[140],[141],[142],[143],[144],[145],[146],[147]]},{"type":"LineString","properties":{"source":"openstreetmap.org","kind":"ferry","name":"Kosza\u0142ek ferry, Poland","sort_rank":355,"landuse_kind":"urban_area","min_zoom":8.0,"id":170277111},"arcs":[148]},{"type":"MultiLineString","properties":{"kind":"path","sort_rank":354,"kind_detail":"cycleway","is_bicycle_related":true,"bicycle_shield_text":"R10","bicycle_network":"ncn","source":"openstreetmap.org","min_zoom":8.0},"arcs":[[149],[150],[151],[152],[153],[154],[155],[156],[157]]},{"type":"MultiLineString","properties":{"bus_network":"Koszalin","network":"pl:national","sort_rank":380,"kind_detail":"primary","kind":"major_road","source":"openstreetmap.org","min_zoom":8.0,"bus_shield_text":"R1","shield_text":"6","landuse_kind":"urban_area","ref":"6;11"},"arcs":[[158],[159]]},{"type":"LineString","properties":{"kind":"major_road","sort_rank":377,"kind_detail":"tertiary","is_bicycle_related":true,"bus_network":null,"bicycle_shield_text":"R10","bicycle_network":"ncn","source":"openstreetmap.org","min_zoom":8.0,"bus_shield_text":"23","id":83639294},"arcs":[160]},{"type":"LineString","properties":{"bus_network":null,"network":"pl:national","sort_rank":380,"kind_detail":"primary","kind":"major_road","source":"openstreetmap.org","min_zoom":8.0,"bus_shield_text":"2","shield_text":"11","landuse_kind":"urban_area","ref":"11"},"arcs":[161]},{"type":"LineString","properties":{"kind":"major_road","sort_rank":377,"kind_detail":"tertiary","is_bicycle_related":true,"bus_network":null,"bicycle_shield_text":"R10","bicycle_network":"ncn","source":"openstreetmap.org","min_zoom":8.0,"bus_shield_text":"6","id":121297288,"old_name:de":"Strickershagener Chaussee"},"arcs":[162]},{"type":"LineString","properties":{"kind":"major_road","network":"pl:national","sort_rank":380,"kind_detail":"primary","bus_network":"Koszalin","source":"openstreetmap.org","min_zoom":8.0,"bus_shield_text":"DarPol","shield_text":"11","landuse_kind":"urban_area","ref":"6;11","id":24047659},"arcs":[163]},{"type":"MultiLineString","properties":{"kind":"path","sort_rank":354,"kind_detail":"cycleway","is_bicycle_related":true,"bicycle_shield_text":"R10","bicycle_network":"ncn","source":"openstreetmap.org","min_zoom":8.0,"landuse_kind":"urban_area"},"arcs":[[164],[165],[166]]},{"type":"LineString","properties":{"bus_network":null,"network":"pl:national","sort_rank":380,"kind_detail":"primary","old_name":"W\u0142adys\u0142awa Kniewskiego","kind":"major_road","source":"openstreetmap.org","min_zoom":8.0,"bus_shield_text":"#PRZ","shield_text":"11","landuse_kind":"urban_area","ref":"11"},"arcs":[167]},{"type":"MultiLineString","properties":{"kind":"path","sort_rank":354,"landuse_kind":"urban_area","is_bicycle_related":true,"bicycle_shield_text":"R10","bicycle_network":"ncn","source":"openstreetmap.org","min_zoom":8.0,"kind_detail":"path"},"arcs":[[168],[169],[170]]},{"type":"MultiLineString","properties":{"kind":"path","sort_rank":354,"landuse_kind":"urban_area","is_bicycle_related":true,"bicycle_shield_text":"R10","bicycle_network":"ncn","source":"openstreetmap.org","min_zoom":8.0,"kind_detail":"footway"},"arcs":[[171],[172],[173],[174]]},{"type":"LineString","properties":{"kind":"major_road","network":"pl:national","sort_rank":380,"kind_detail":"primary","source":"openstreetmap.org","min_zoom":8.0,"old_name":"W\u0142adys\u0142awa Kniewskiego","shield_text":"11","landuse_kind":"urban_area","ref":"11"},"arcs":[175]},{"type":"LineString","properties":{"bus_network":null,"network":"pl:national","sort_rank":380,"kind_detail":"primary","bus_shield_text":"BIS","kind":"major_road","source":"openstreetmap.org","min_zoom":8.0,"old_name":"W\u0142adys\u0142awa Kniewskiego","shield_text":"11","landuse_kind":"urban_area","ref":"11"},"arcs":[176]},{"type":"LineString","properties":{"bus_network":"Koszalin","network":"pl:national","sort_rank":380,"kind_detail":"primary","kind":"major_road","source":"openstreetmap.org","min_zoom":8.0,"bus_shield_text":"DarPol","shield_text":"11","ref":"11"},"arcs":[177]},{"type":"LineString","properties":{"bus_network":null,"network":"pl:national","sort_rank":355,"kind_detail":"primary_link","is_bicycle_related":true,"kind":"major_road","bicycle_shield_text":"R10","bicycle_network":"ncn","source":"openstreetmap.org","min_zoom":8.0,"is_link":true,"bus_shield_text":"20","shield_text":"21","ref":"21","id":263231423},"arcs":[178]},{"type":"LineString","properties":{"bus_network":null,"network":"pl:regional","sort_rank":379,"kind_detail":"secondary","is_bicycle_related":true,"kind":"major_road","bicycle_shield_text":"R10","bicycle_network":"ncn","source":"openstreetmap.org","min_zoom":8.0,"bus_shield_text":"20","shield_text":"203","ref":"203","id":172088705},"arcs":[179]},{"type":"LineString","properties":{"bus_network":null,"network":"pl:national","sort_rank":380,"kind_detail":"primary","kind":"major_road","source":"openstreetmap.org","min_zoom":8.0,"bus_shield_text":"2","shield_text":"11","ref":"11"},"arcs":[180]},{"type":"LineString","properties":{"kind":"major_road","network":"pl:regional","sort_rank":380,"kind_detail":"primary","source":"openstreetmap.org","min_zoom":8.0,"shield_text":"203","ref":"203","id":301927250},"arcs":[181]},{"type":"LineString","properties":{"bus_network":null,"network":"pl:national","sort_rank":380,"kind_detail":"primary","kind":"major_road","source":"openstreetmap.org","min_zoom":8.0,"bus_shield_text":"4","shield_text":"11","ref":"11"},"arcs":[182]},{"type":"LineString","properties":{"source":"openstreetmap.org","kind":"major_road","sort_rank":380,"kind_detail":"primary","ref":"11","min_zoom":8.0},"arcs":[183]},{"type":"MultiLineString","properties":{"bus_network":"Koszalin","network":"pl:national","sort_rank":380,"kind_detail":"primary","kind":"major_road","source":"openstreetmap.org","min_zoom":8.0,"bus_shield_text":"R2","shield_text":"11","ref":"11"},"arcs":[[184],[185]]},{"type":"MultiLineString","properties":{"bus_network":"Koszalin","network":"pl:national","sort_rank":380,"kind_detail":"primary","kind":"major_road","source":"openstreetmap.org","min_zoom":8.0,"bus_shield_text":"9","shield_text":"11","landuse_kind":"urban_area","ref":"11"},"arcs":[[186],[187]]},{"type":"LineString","properties":{"kind":"major_road","network":"pl:national","sort_rank":380,"kind_detail":"primary","bus_network":"Koszalin","source":"openstreetmap.org","min_zoom":8.0,"bus_shield_text":"12","shield_text":"6","landuse_kind":"urban_area","ref":"6;11","id":31144059},"arcs":[188]},{"type":"MultiLineString","properties":{"source":"openstreetmap.org","kind":"major_road","network":"pl:national","sort_rank":380,"kind_detail":"primary","min_zoom":8.0,"shield_text":"21"},"arcs":[[189],[190],[191]]},{"type":"LineString","properties":{"kind":"minor_road","sort_rank":360,"kind_detail":"living_street","is_bicycle_related":true,"bicycle_shield_text":"R10","bicycle_network":"ncn","source":"openstreetmap.org","min_zoom":8.0},"arcs":[192]},{"type":"MultiLineString","properties":{"kind":"path","sort_rank":354,"kind_detail":"footway","is_bicycle_related":true,"bicycle_shield_text":"R10","bicycle_network":"ncn","source":"openstreetmap.org","min_zoom":8.0},"arcs":[[193],[194],[195],[196],[197]]},{"type":"LineString","properties":{"kind":"major_road","network":"pl:national","sort_rank":380,"kind_detail":"primary","source":"openstreetmap.org","min_zoom":8.0,"shield_text":"37","id":372978752},"arcs":[198]},{"type":"LineString","properties":{"bus_network":null,"network":"pl:national","sort_rank":380,"kind_detail":"primary","is_bicycle_related":true,"kind":"major_road","bicycle_shield_text":"R10","bicycle_network":"ncn","source":"openstreetmap.org","min_zoom":8.0,"bus_shield_text":"20","shield_text":"21","ref":"21"},"arcs":[199]},{"type":"MultiLineString","properties":{"bus_network":null,"network":"pl:national","sort_rank":380,"kind_detail":"primary","kind":"major_road","source":"openstreetmap.org","min_zoom":8.0,"bus_shield_text":"8","shield_text":"11","ref":"11"},"arcs":[[200],[201],[202],[203],[204]]},{"type":"LineString","properties":{"kind":"major_road","sort_rank":380,"kind_detail":"primary","bus_network":"Koszalin","source":"openstreetmap.org","min_zoom":8.0,"bus_shield_text":"18","landuse_kind":"urban_area","ref":"11","id":286055663},"arcs":[205]},{"type":"LineString","properties":{"kind":"major_road","network":"pl:national","sort_rank":380,"kind_detail":"primary","is_bicycle_related":true,"bicycle_shield_text":"BTBP3","bicycle_network":"rcn","source":"openstreetmap.org","min_zoom":8.0,"shield_text":"6","ref":"6"},"arcs":[206]},{"type":"MultiLineString","properties":{"bus_network":"Koszalin","sort_rank":380,"kind_detail":"primary","kind":"major_road","source":"openstreetmap.org","min_zoom":8.0,"bus_shield_text":"4","landuse_kind":"urban_area"},"arcs":[[207],[208]]},{"type":"MultiLineString","properties":{"source":"openstreetmap.org","kind":"major_road","landuse_kind":"urban_area","sort_rank":380,"kind_detail":"primary","ref":"6","min_zoom":8.0},"arcs":[[209],[210]]},{"type":"LineString","properties":{"bus_network":null,"network":"pl:national","sort_rank":380,"kind_detail":"primary","kind":"major_road","source":"openstreetmap.org","min_zoom":8.0,"bus_shield_text":"2","shield_text":"11"},"arcs":[211]},{"type":"LineString","properties":{"kind":"major_road","network":"pl:national","sort_rank":380,"kind_detail":"primary","old_name":"W\u0142adys\u0142awa Kniewskiego","bus_network":null,"source":"openstreetmap.org","min_zoom":8.0,"bus_shield_text":"1","shield_text":"11","landuse_kind":"urban_area","ref":"11","id":23755382},"arcs":[212]},{"type":"MultiLineString","properties":{"bus_network":"Koszalin","network":"pl:national","sort_rank":380,"kind_detail":"primary","kind":"major_road","source":"openstreetmap.org","min_zoom":8.0,"bus_shield_text":"6","shield_text":"6","landuse_kind":"urban_area","ref":"6"},"arcs":[[213],[214],[215],[216],[217]]},{"type":"MultiLineString","properties":{"kind":"path","footway":"crossing","sort_rank":354,"landuse_kind":"urban_area","is_bicycle_related":true,"bicycle_shield_text":"R10","bicycle_network":"ncn","source":"openstreetmap.org","min_zoom":8.0,"kind_detail":"footway"},"arcs":[[218],[219],[220],[221]]},{"type":"LineString","properties":{"source":"openstreetmap.org","kind":"ferry","name":"Kosza\u0142ek ferry, Poland","sort_rank":355,"min_zoom":8.0,"id":170277111},"arcs":[222]},{"type":"LineString","properties":{"kind":"major_road","network":"pl:national","sort_rank":380,"kind_detail":"primary","source":"openstreetmap.org","min_zoom":8.0,"shield_text":"11","id":138614567},"arcs":[223]},{"type":"MultiLineString","properties":{"kind":"minor_road","sort_rank":360,"kind_detail":"unclassified","is_bicycle_related":true,"bicycle_shield_text":"R10","bicycle_network":"ncn","source":"openstreetmap.org","min_zoom":8.0},"arcs":[[224],[225],[226],[227],[228],[229]]},{"type":"LineString","properties":{"kind":"major_road","network":"pl:national","sort_rank":380,"kind_detail":"primary","bus_network":null,"source":"openstreetmap.org","min_zoom":8.0,"bus_shield_text":"1","shield_text":"11","landuse_kind":"urban_area","ref":"11","id":282246079},"arcs":[230]},{"type":"MultiLineString","properties":{"kind":"major_road","network":"pl:national","sort_rank":380,"kind_detail":"primary","source":"openstreetmap.org","min_zoom":8.0,"landuse_kind":"urban_area","shield_text":"11","ref":"11"},"arcs":[[231],[232]]},{"type":"LineString","properties":{"kind":"major_road","network":"pl:national","sort_rank":380,"kind_detail":"primary","source":"openstreetmap.org","min_zoom":8.0,"landuse_kind":"urban_area","shield_text":"11","ref":"6;11","id":146459375},"arcs":[233]},{"type":"LineString","properties":{"source":"openstreetmap.org","kind":"ferry","name":"Sassnitz - Baltijsk \/ \u0417\u0430\u0441\u043d\u0438\u0446 - \u0411\u0430\u043b\u0442\u0438\u0439\u0441\u043a","sort_rank":355,"name:ru":"\u0417\u0430\u0441\u043d\u0438\u0446 - \u0411\u0430\u043b\u0442\u0438\u0439\u0441\u043a","min_zoom":8.0,"name:de":"Sassnitz - Baltijsk"},"arcs":[234]},{"type":"LineString","properties":{"bus_network":null,"network":"pl:national","sort_rank":380,"kind_detail":"primary","kind":"major_road","source":"openstreetmap.org","min_zoom":8.0,"bus_shield_text":"8","shield_text":"11","landuse_kind":"urban_area","ref":"11","id":537951211},"arcs":[235]},{"type":"LineString","properties":{"bus_network":null,"network":"pl:national","sort_rank":380,"kind_detail":"primary","is_bicycle_related":true,"kind":"major_road","bicycle_shield_text":"R10","bicycle_network":"ncn","source":"openstreetmap.org","min_zoom":8.0,"bus_shield_text":"2","shield_text":"11","landuse_kind":"urban_area","ref":"11"},"arcs":[236]},{"type":"LineString","properties":{"bus_network":"Bana Express","sort_rank":377,"kind_detail":"tertiary","is_bicycle_related":true,"kind":"major_road","bicycle_shield_text":"R10","bicycle_network":"ncn","source":"openstreetmap.org","min_zoom":8.0,"bus_shield_text":"Bana Express"},"arcs":[237]},{"type":"MultiLineString","properties":{"kind":"path","sort_rank":354,"kind_detail":"track","is_bicycle_related":true,"bicycle_shield_text":"R10","bicycle_network":"ncn","source":"openstreetmap.org","min_zoom":8.0},"arcs":[[238],[239],[240],[241],[242],[243],[244],[245]]},{"type":"MultiLineString","properties":{"bus_network":null,"network":"pl:national","sort_rank":380,"kind_detail":"primary","kind":"major_road","source":"openstreetmap.org","min_zoom":8.0,"bus_shield_text":"20","shield_text":"21","ref":"21"},"arcs":[[246],[247],[248],[249],[250]]},{"type":"MultiLineString","properties":{"kind":"minor_road","sort_rank":360,"kind_detail":"residential","is_bicycle_related":true,"bicycle_shield_text":"R10","bicycle_network":"ncn","source":"openstreetmap.org","min_zoom":8.0},"arcs":[[251],[252],[253],[254],[255],[256],[257],[258],[259],[260],[261],[262],[263],[264],[265],[266]]},{"type":"MultiLineString","properties":{"bus_network":"Koszalin","network":"pl:national","sort_rank":380,"kind_detail":"primary","kind":"major_road","source":"openstreetmap.org","min_zoom":8.0,"bus_shield_text":"15","shield_text":"6","landuse_kind":"urban_area","ref":"6"},"arcs":[[267],[268],[269]]},{"type":"LineString","properties":{"bus_network":"Koszalin","network":"pl:national","sort_rank":380,"kind_detail":"primary","kind":"major_road","source":"openstreetmap.org","min_zoom":8.0,"bus_shield_text":"R1","shield_text":"11","ref":"11"},"arcs":[270]},{"type":"MultiLineString","properties":{"source":"openstreetmap.org","kind":"major_road","landuse_kind":"urban_area","sort_rank":380,"kind_detail":"primary","ref":"11","min_zoom":8.0},"arcs":[[271],[272],[273]]},{"type":"MultiLineString","properties":{"kind":"path","sort_rank":354,"kind_detail":"path","is_bicycle_related":true,"bicycle_shield_text":"R10","bicycle_network":"ncn","source":"openstreetmap.org","min_zoom":8.0},"arcs":[[274],[275],[276],[277],[278],[279],[280],[281],[282],[283],[284],[285],[286],[287]]},{"type":"LineString","properties":{"source":"openstreetmap.org","kind":"ferry","name:en":"Nexo - Kolobrzeg","name":"Nex\u00f8 - Ko\u0142obrzeg","sort_rank":355,"is_bicycle_related":true,"min_zoom":8.0},"arcs":[288]},{"type":"LineString","properties":{"bus_network":null,"network":"pl:national","sort_rank":380,"kind_detail":"primary","kind":"major_road","source":"openstreetmap.org","min_zoom":8.0,"bus_shield_text":"6","shield_text":"21","ref":"21","id":180144556},"arcs":[289]},{"type":"MultiLineString","properties":{"bus_network":null,"sort_rank":377,"kind_detail":"tertiary","is_bicycle_related":true,"kind":"major_road","bicycle_shield_text":"R10","bicycle_network":"ncn","source":"openstreetmap.org","min_zoom":8.0,"bus_shield_text":"6"},"arcs":[[290],[291]]},{"type":"LineString","properties":{"kind":"minor_road","sort_rank":360,"kind_detail":"residential","is_bicycle_related":true,"bicycle_shield_text":"R10","bicycle_network":"ncn","source":"openstreetmap.org","min_zoom":8.0,"landuse_kind":"urban_area"},"arcs":[292]},{"type":"LineString","properties":{"bus_network":null,"network":"pl:national","sort_rank":380,"kind_detail":"primary","is_bicycle_related":true,"kind":"major_road","bicycle_shield_text":"R10","bicycle_network":"ncn","source":"openstreetmap.org","min_zoom":8.0,"bus_shield_text":"100","shield_text":"21","ref":"21","id":172088706},"arcs":[293]}]},"earth":{"type":"GeometryCollection","geometries":[{"type":"MultiPolygon","properties":{"sort_rank":10,"source":"naturalearthdata.com","min_zoom":0.0,"kind":"earth","area":9470080384},"arcs":[[[294]]]}]},"landuse":{"type":"GeometryCollection","geometries":[{"type":"MultiPolygon","properties":{"source":"openstreetmap.org","kind":"military","tier":3,"area":7470866381,"sort_rank":45,"min_zoom":8.0},"arcs":[[[295]],[[296]]]},{"type":"MultiPolygon","properties":{"source":"naturalearthdata.com","kind":"urban_area","name":"","area":228743111,"sort_rank":11,"min_zoom":4.0},"arcs":[[[297]],[[298]]]},{"type":"Polygon","properties":{"kind":"nature_reserve","protect_class":"4","area":10848700,"sort_rank":23,"source":"openstreetmap.org","min_zoom":8.0,"tier":2,"id":202205164},"arcs":[[299]]}]}},"type":"Topology","transform":{"translate":[15.46875,54.1624339681],"scale":[0.0003433228,0.0001990185]},"arcs":[[[4096,3380],[-412,-300],[-491,-98],[-597,-222],[-535,-462],[-488,-710],[-1573,-472]],[[3586,2048],[139,-199],[-25,-66],[64,-158],[94,8],[21,-34],[34,17],[-1,-49],[46,-48],[-16,-55],[55,-77],[-48,-114],[99,-167],[-23,-43],[-36,13],[-2,-31],[-86,-11],[59,-111],[-42,-139],[70,-10],[48,-45],[31,-234],[-98,-76],[-173,-28],[-92,-50],[-19,13],[-64,-95],[23,-58],[37,6],[-7,-121],[55,-34],[21,-52]],[[3598,2047],[-12,1]],[[4096,2155],[-72,10],[-264,-118],[-162,0]],[[3586,2048],[-14,0]],[[3572,2048],[-280,-63],[-190,-79],[-163,-132],[-131,-138],[-117,-211],[-60,-20],[15,-9],[-17,6],[-48,-115],[-184,-253],[-267,-279],[-270,-184],[-281,-102],[-468,-72],[-545,-213],[-240,-60],[-92,18],[-26,-52],[-147,-67],[-61,-6]],[[2012,0],[57,237],[109,74],[146,42],[96,64],[112,177],[95,53],[120,150],[90,46],[436,118],[256,14],[161,184],[406,123]],[[2041,130],[4,-38],[35,2],[87,-80],[48,9],[28,-23]],[[4096,730],[0,-95]],[[469,0],[-179,100]],[[4096,635],[0,95]],[[4096,2010],[-42,83]],[[1703,463],[54,-117],[-3,-84]],[[219,0],[68,100],[64,-13],[176,43],[81,-7],[235,77],[703,46],[66,41],[178,-34],[114,-68],[53,-86],[75,13],[13,50]],[[4096,4096],[0,-1920],[-45,-8],[-236,-94],[-609,-90],[-198,-125],[-102,-102],[-59,-120],[43,42],[38,15],[17,-20],[-19,-68],[-37,-43],[-47,-18],[-29,12],[15,49],[0,31],[-337,-437],[-123,-214],[42,43],[26,31],[58,-1],[34,-73],[-37,-44],[-102,-49],[-41,-49],[-46,-18],[-53,-12],[-27,-9],[26,37],[65,69],[37,75],[-181,-214],[-120,-80],[-101,-50],[159,51],[67,-4],[-6,-81],[10,-7],[6,2],[3,-5],[1,-24],[-139,0],[0,-38],[20,0],[0,-31],[-256,-45],[-64,45],[145,66],[36,37],[-322,-109],[-469,-59],[-565,-259],[-574,-157],[0,4072],[4096,0]],[[0,24],[574,157],[565,259],[469,59],[322,109],[-36,-37],[-145,-66],[64,-45],[256,45],[0,31],[-20,0],[0,38],[139,0],[-1,24],[-3,5],[-6,-2],[-10,7],[6,81],[-67,4],[-159,-51],[101,50],[120,80],[181,214],[-37,-75],[-65,-69],[-26,-37],[27,9],[53,12],[46,18],[41,49],[102,49],[37,44],[-34,73],[-58,1],[-26,-31],[-42,-43],[123,214],[337,437],[0,-31],[-15,-49],[29,-12],[47,18],[37,43],[19,68],[-17,20],[-38,-15],[-43,-42],[59,120],[102,102],[198,125],[609,90],[236,94],[45,8]],[[4058,2100],[1,-1]],[[348,68],[-15,0]],[[386,69],[-37,-1]],[[1926,600],[0,-1]],[[1933,69],[14,7]],[[1979,116],[1,-1]],[[1981,114],[7,-12]],[[1988,102],[0,1]],[[1988,101],[0,-1]],[[1989,101],[0,1]],[[2040,161],[-25,-22]],[[2093,181],[-4,1]],[[2089,182],[2,-1]],[[2099,176],[-2,-1]],[[2165,231],[-8,-5],[-26,-23],[-9,-6]],[[2125,197]],[[2158,226],[7,5]],[[2696,1419],[-31,-26]],[[2741,1281],[1,-1]],[[2743,1283],[-2,-1]],[[2742,1280],[0,1]],[[2742,1282],[1,1]],[[2744,1272],[-2,8]],[[2745,1285],[-2,-2]],[[2752,1295],[-5,-8]],[[272,113],[0,1]],[[330,115],[20,6]],[[3243,1872],[39,-14]],[[1871,569],[-67,-39]],[[586,121],[-20,0]],[[566,120],[20,1]],[[586,121],[233,77],[749,39],[76,78],[134,-28]],[[2125,197],[33,29]],[[279,91],[-6,-12]],[[1992,234]],[[1993,232],[0,1]],[[334,71],[-6,5]],[[334,71],[-1,-2]],[[334,68],[0,3]],[[292,95],[-9,2]],[[2747,1287],[-2,-2]],[[2741,1282],[0,-1],[1,0],[-1,1]],[[2342,651],[10,19]],[[2523,960],[0,14]],[[2098,173],[27,24]],[[2122,197],[-23,-21]],[[2397,322],[1,-5]],[[2041,161],[-1,0]],[[400,139],[-41,-14]],[[2015,139],[-34,-22]],[[1981,116],[27,16],[33,28]],[[1980,115],[1,-1]],[[1988,103],[-7,13]],[[874,275],[152,78]],[[1283,417],[-103,-21]],[[1425,435],[10,-2]],[[1799,527],[5,3]],[[1938,601],[3,2]],[[2117,727],[-20,-18]],[[2118,728],[-1,-1]],[[2117,727],[1,0]],[[2118,728],[0,-1]],[[2118,727],[1,0],[0,1],[-1,0]],[[2118,727],[2,-2]],[[2120,725],[-1,3]],[[2183,605],[-22,4],[-1,55],[-40,61]],[[2665,1393],[50,-74]],[[2715,1319],[1,0]],[[2716,1319],[-1,0]],[[2716,1318],[1,-1]],[[2717,1317],[0,1]],[[2752,1295],[-35,22]],[[3215,1873],[-117,17],[-130,-103]],[[3777,1801],[-311,-13],[-12,-46],[-115,-1]],[[2042,161],[-1,0]],[[4096,1335],[-207,-180],[-295,-138]],[[4043,2096],[-14,24]],[[4058,2101],[-1,-1]],[[4058,2100],[12,-20]],[[4071,2080],[-1,0]],[[4070,2080],[1,-1]],[[2041,160],[6,-1]],[[1980,115],[1,1]],[[1981,116],[0,1]],[[2064,113],[0,1]],[[2089,182],[-42,-21]],[[2049,160],[40,22]],[[2715,1265],[1,0]],[[2716,1265],[0,1]],[[2716,1265],[26,-25]],[[3170,819],[-57,110],[-189,193],[-177,90],[-5,28]],[[1700,480],[99,47]],[[192,61]],[[386,68],[12,2]],[[398,70],[-12,-1]],[[551,126],[-153,-56]],[[551,126],[9,-4],[6,-2]],[[566,121],[-15,5]],[[3799,1799],[-22,2]],[[349,68],[-1,0]],[[2437,343],[-30,-9]],[[4082,2066]],[[3315,1832],[3,-16]],[[2040,161],[-54,79],[-49,23]],[[2716,1319],[0,-1]],[[2717,1318],[-1,1]],[[2048,135],[16,-23],[15,-7],[8,-1],[8,-3]],[[2095,101],[6,-2],[6,-3],[3,-3]],[[2110,93],[1,-1],[18,-27]],[[2064,114],[-15,22]],[[2130,65],[-19,27],[-1,1]],[[2110,93],[-15,8]],[[2095,101],[-7,4],[-1,2],[-23,6]],[[267,104],[-1,-1]],[[2407,334],[-10,-12]],[[1995,230],[-7,9]],[[2003,218],[-3,4]],[[2042,161],[-6,8]],[[2049,160],[-2,-1]],[[265,66],[-27,13]],[[1801,0],[23,20]],[[1827,22],[-3,-2]],[[1827,22],[14,11]],[[1841,33],[18,10]],[[1859,43],[74,26]],[[2269,306],[-61,-13],[-43,-62]],[[2165,231],[3,2],[23,22],[17,38],[61,13]],[[2370,300],[-101,6]],[[2398,317],[1,-2]],[[3588,1012],[-177,-126],[-106,-3],[-240,-130],[-127,-176],[-125,-6],[-84,-75],[-144,-52],[-148,-101]],[[3588,1012],[6,5]],[[3598,1018],[-10,-6]],[[1953,475],[17,-26],[-18,7]],[[0,8],[42,6]],[[330,115],[-58,-2]],[[557,180],[-157,-41]],[[2443,733],[-14,-82],[-61,18]],[[2523,961],[-87,-198]],[[2473,1080],[50,-106]],[[2530,1148],[16,11]],[[2574,1165],[47,47]],[[2633,1214],[68,37]],[[2047,161],[-5,0]],[[2049,159],[0,1]],[[4058,1843],[-37,18]],[[283,97],[-2,-3]],[[4059,2101],[13,4]],[[2040,161],[1,-1]],[[148,45],[44,16]],[[215,76],[-23,-15]],[[273,79]],[[299,94],[-7,1]],[[146,44],[2,1]],[[272,77],[1,2]],[[281,94],[-7,5]],[[265,66],[0,-1]],[[266,65]],[[266,65],[1,0]],[[267,65],[5,12]],[[285,97],[3,-1]],[[303,94],[-4,0]],[[1937,263],[-159,24]],[[4058,2100]],[[4043,2096],[-6,-8]],[[340,65],[8,2]],[[2715,1266],[-1,0],[0,-1],[1,0],[0,1]],[[349,66],[37,2]],[[1831,282],[10,-1]],[[2129,65],[25,-33],[20,-17],[20,-15]],[[2195,0],[-65,65]],[[2084,106],[0,-1]],[[2087,104],[1,1]],[[2047,159],[2,0]],[[4074,2080],[-1,1]],[[4082,2066]],[[4028,2121],[1,-1],[0,1],[-1,0]],[[856,276],[1,3]],[[350,121],[9,4]],[[857,279],[0,4]],[[1699,480],[-15,-6]],[[2352,670]],[[4075,2105],[0,1]],[[2742,1240],[1,0],[-1,1],[0,-1]],[[4043,2097],[15,3]],[[262,99],[1,0]],[[263,99],[-1,1]],[[263,99],[4,-2]],[[333,69],[0,-1]],[[262,100]],[[2002,220],[-1,0]],[[2370,300],[29,15]],[[2123,198],[0,-2]],[[2125,197],[-1,1]],[[2047,164],[0,-3]],[[2113,187]],[[348,67],[1,1]],[[309,96],[-6,-2]],[[1947,76],[36,22]],[[1983,98],[6,3]],[[1989,102],[-6,-4]],[[2091,181],[7,-8]],[[2097,175],[-4,6]],[[265,66]],[[265,65],[1,0]],[[266,65]],[[267,65]],[[1952,456],[-175,47],[83,22],[34,41],[59,-91]],[[348,68],[0,-1]],[[2191,604],[96,20]],[[2311,631],[31,20]],[[3339,1741],[-21,75]],[[3799,1799],[105,-56]],[[3996,1810],[25,51]],[[4078,1984],[-8,5]],[[328,76],[-19,20]],[[281,95],[4,2]],[[2041,161],[0,1]],[[2041,160],[0,1]],[[4096,3066],[-4096,-684]],[[267,97],[12,-6]],[[281,94],[-2,-3]],[[856,270],[18,5]],[[1026,353],[154,43]],[[1340,418],[-57,-1]],[[2696,1419],[132,230],[77,83]],[[2911,1738],[57,49]],[[3282,1858],[33,-26]],[[3904,1743],[81,33],[11,34]],[[4037,2058],[0,-32]],[[4078,1984],[-20,-141]],[[4057,2100],[-1,-1]],[[4073,2081],[3,-8]],[[4076,2073],[-2,7]],[[4076,2073],[6,-7]],[[4082,2066],[14,-15]],[[268,107],[4,7]],[[856,270],[0,6]],[[875,275],[-12,11]],[[1340,418],[85,17]],[[1435,433],[88,18]],[[1699,480],[1,0]],[[2097,709]],[[2183,605],[8,-1]],[[2287,624],[24,7]],[[2523,960],[0,1]],[[2523,974]],[[2716,1267],[28,5]],[[2911,1738],[-6,-6]],[[3243,1872],[-28,1]],[[4070,1989],[-33,37]],[[4037,2088],[0,-30]],[[1981,117],[-2,-1]],[[1980,115]],[[1981,116]],[[1820,281],[-41,5]],[[1944,262],[10,-2]],[[2002,219],[1,0]],[[2045,159],[2,-1]],[[42,14],[104,30]],[[274,99],[-8,4]],[[557,180],[306,106]],[[1684,474],[-161,-23]],[[1871,569],[55,30]],[[1938,601],[-12,-1]],[[2097,709],[-156,-106]],[[2352,670],[16,-1]],[[2436,763],[7,-30]],[[2530,1148],[-57,-68]],[[2546,1159],[28,6]],[[2621,1212],[12,2]],[[2701,1251],[15,16]],[[4075,2106],[21,-16]],[[247,113],[-247,1014]],[[4058,2101],[0,-1]],[[4058,2100],[1,1]],[[4072,2105],[3,0]],[[238,79],[-23,-3]],[[4043,2097],[0,-1]],[[4096,2176],[0,-2176],[-1925,0],[-2171,0],[0,24],[574,157],[565,259],[469,59],[322,109],[-36,-37],[-145,-66],[64,-45],[256,45],[0,31],[-20,0],[0,38],[122,0],[17,0],[-1,24],[-3,5],[-6,-2],[-7,6],[-3,1],[3,30],[3,51],[-3,1],[-64,3],[-159,-51],[101,50],[120,80],[2,2],[179,212],[-37,-75],[-65,-69],[-26,-37],[27,9],[53,12],[46,18],[41,49],[102,49],[37,44],[-34,73],[-58,1],[-26,-31],[-42,-43],[123,214],[337,437],[0,-31],[-15,-49],[29,-12],[47,18],[37,43],[19,68],[-17,20],[-38,-15],[-43,-42],[59,120],[102,102],[198,125],[609,90],[236,94],[45,8]],[[3159,1921],[191,79],[271,40],[0,-25],[-83,-3],[0,-38],[-180,-29],[-26,-34],[-44,21],[-57,-48],[-72,37]],[[0,3790],[0,306],[1062,0],[0,-306],[-1062,0]],[[170,0],[-33,61],[198,55],[-19,-116],[-146,0]],[[2090,574],[26,-285],[108,-126],[16,-79],[-45,-20],[-274,5],[33,416],[115,20],[-20,69],[41,0]],[[2285,29],[55,16],[30,-45],[-62,0],[-23,29]]]}